sequenceNumber,corporateNumber,process,correct,updateDate,changeDate,name,nameImageId,kind,prefectureName,cityName,streetNumber,addressImageId,prefectureCode,cityCode,postCode,addressOutside,addressOutsideImageId,closeDate,closeCause,successorCorporateNumber,changeCause,assignmentDate,latest,enName,enPrefectureName,enCityName,enAddressOutside,furigana,hihyoji
9,1010001235799,新規,0,2023-06-07,2023-06-07,株式会社ｐｏｕｒＬ,,株式会社,東京都,中央区,日本橋室町１丁目１１番１２号日本橋水野ビル７階,,13,102,1030022,,,,,,,2023-06-07,1,,,,,ポール,0
10,1010001235873,新規,0,2023-06-07,2023-06-07,株式会社三代目たいめいけん,,株式会社,東京都,中央区,日本橋室町１丁目９番１０号三忠堂ビル４階,,13,102,1030022,,,,,,,2023-06-07,1,,,,,サンダイメタイメイケン,0
11,1010001235907,新規,0,2023-06-07,2023-06-07,Ｔｅａｍｗｏｒｋ　Ｃｒｅａｔｉｖｅ株式会社,,株式会社,東京都,文京区,春日２丁目４番１０号１階,,13,105,1120003,,,,,,,2023-06-07,1,,,,,チームワーククリエイティブ,0
12,1010001235948,新規,0,2023-06-07,2023-06-07,株式会社アングルプラス,,株式会社,東京都,千代田区,丸の内１丁目６番２号新丸の内センタービル,,13,101,1000005,,,,,,,2023-06-07,1,,,,,アングルプラス,0
13,1010001235956,新規,0,2023-06-07,2023-06-07,株式会社ＢＡＷＣＬＥ,,株式会社,東京都,中央区,銀座１丁目１６番７号銀座大栄ビル５階,,13,102,1040061,,,,,,,2023-06-07,1,,,,,バウクル,0
14,1010001235989,新規,0,2023-06-07,2023-06-07,株式会社ＴＴＴ,,株式会社,東京都,中央区,晴海１丁目６番１－２３０７号,,13,102,1040053,,,,,,,2023-06-07,1,,,,,ティティティ,0
17,1010003040768,新規,0,2023-06-07,2023-06-07,合同会社ＡＦＲＡ　ＮＡＮＡＪＯ,,合同会社,東京都,千代田区,丸の内３丁目１番１号東京共同会計事務所内,,13,101,1000005,,,,,,,2023-06-07,1,,,,,エーエフアールエーナナジョウ,0
18,1010003040776,新規,0,2023-06-07,2023-06-07,合同会社可憐華,,合同会社,東京都,中央区,新川２丁目１９番６－８０４号,,13,102,1040033,,,,,,,2023-06-07,1,,,,,カレンカ,0
19,1010003040792,新規,0,2023-06-07,2023-06-07,分水町太陽光発電合同会社,,合同会社,東京都,千代田区,大手町１丁目１番１号大手町パークビルディング７１２区,,13,101,1000004,,,,,,,2023-06-07,1,,,,,ブンスイチョウタイヨウコウハツデン,0
20,1010003040801,新規,0,2023-06-07,2023-06-07,合同会社Ｐｒｏｇｒａｍｅｔｒｉｃ,,合同会社,東京都,中央区,日本橋２丁目２番３号ＲＩＳＨＥビルＵＣＦ４階,,13,102,1030027,,,,,,,2023-06-07,1,,,,,プログラメトリック,0
23,1010005036789,新規,0,2023-06-07,2023-06-07,ＫＳＴＡｘ税理士法人,,その他の設立登記法人,東京都,中央区,築地１丁目１３－１０サクセス銀座東ビル１０階,,13,102,1040045,,,,,,,2023-06-07,1,,,,,ケイエスタックス,0
35,1010503007028,新規,0,2023-06-07,2023-06-07,ＢＴＲプランニング合同会社,,合同会社,東京都,台東区,根岸１丁目１番１５号小林ビル２階,,13,106,1100003,,,,,,,2023-06-07,1,,,,,ビーティーアールプランニング,0
39,1010603010187,新規,0,2023-06-07,2023-06-07,合同会社ＴＯＢＥｘｘ,,合同会社,東京都,墨田区,太平２丁目１２－６－１０１,,13,107,1300012,,,,,,,2023-06-07,1,,,,,トゥービーエックス,0
51,1010901053136,新規,0,2023-06-07,2023-06-07,株式会社ｋｏｎｊｏ,,株式会社,東京都,世田谷区,奥沢６丁目３３番１４号もみの木ビル２０８,,13,112,1580083,,,,,,,2023-06-07,1,,,,,コンジョ,0
52,1010901053202,新規,0,2023-06-07,2023-06-07,株式会社Ｒｏｃｋ　Ａｒｏｕｎｄ,,株式会社,東京都,世田谷区,等々力７丁目１６番１０号ザ等々力アジト２Ｄ,,13,112,1580082,,,,,,,2023-06-07,1,,,,,ロックアラウンド,0
56,1011001154857,新規,0,2023-06-07,2023-06-07,株式会社イーケーワン,,株式会社,東京都,目黒区,下目黒３丁目２４番２０号,,13,110,1530064,,,,,,,2023-06-07,1,,,,,イーケーワン,0
57,1011001154865,新規,0,2023-06-07,2023-06-07,株式会社サクラ,,株式会社,東京都,渋谷区,神宮前６丁目８番４号,,13,113,1500001,,,,,,,2023-06-07,1,,,,,サクラ,0
58,1011001154873,新規,0,2023-06-07,2023-06-07,株式会社ａｒｃ　Ｕ,,株式会社,東京都,渋谷区,東１丁目２７番６号東和渋谷ビル５Ｆ,,13,113,1500011,,,,,,,2023-06-07,1,,,,,アークユー,0
69,1011401025187,新規,0,2023-06-07,2023-06-07,株式会社タカシン,,株式会社,東京都,板橋区,東新町２丁目２６番１号サンライズマンション１０３号,,13,119,1740074,,,,,,,2023-06-07,1,,,,,,0
70,1011403004016,新規,0,2023-06-07,2023-06-07,合同会社Ｒ１,,合同会社,東京都,板橋区,大山金井町４８番６号,,13,119,1730024,,,,,,,2023-06-07,1,,,,,,0
75,1011801042526,新規,0,2023-06-07,2023-06-07,株式会社酒と飯,,株式会社,東京都,足立区,梅田８丁目１４番２－１２０９号,,13,121,1230851,,,,,,,2023-06-07,1,,,,,サケトメシ,0
76,1011801042534,新規,0,2023-06-07,2023-06-07,株式会社ハルケン,,株式会社,東京都,葛飾区,柴又３丁目１３番１６号,,13,122,1250052,,,,,,,2023-06-07,1,,,,,ハルケン,0
78,1011803005679,新規,0,2023-06-07,2023-06-07,合同会社リスタート,,合同会社,東京都,葛飾区,東新小岩４丁目２２番７号,,13,122,1240023,,,,,,,2023-06-07,1,,,,,リスタート,0
86,1012401040597,新規,0,2023-06-07,2023-06-07,株式会社Ｋａｉ　ａｄ空間工房,,株式会社,東京都,調布市,深大寺元町１丁目１５番地１０,,13,208,1820017,,,,,,,2023-06-07,1,,,,,カイアドクウカンコウボウ,0
87,1012401040606,新規,0,2023-06-07,2023-06-07,株式会社Ｐｒｏｓｐｅｒｅ,,株式会社,東京都,三鷹市,新川１丁目２番１５－３０２号,,13,204,1810004,,,,,,,2023-06-07,1,,,,,プロスペーリ,0
88,1012403006019,新規,0,2023-06-07,2023-06-07,エピュレクローゼット合同会社,,合同会社,東京都,武蔵野市,吉祥寺北町１丁目４番９号１,,13,203,1800001,,,,,,,2023-06-07,1,,,,,エピュレクローゼット,0
92,1013101009189,新規,0,2023-06-07,2023-06-07,株式会社正管工,,株式会社,東京都,青梅市,末広町２丁目８番地の３,,13,205,1980025,,,,,,,2023-06-07,1,,,,,マサカンコウ,0
101,1020001151913,新規,0,2023-06-07,2023-06-07,株式会社ＬＦＡ,,株式会社,神奈川県,横浜市戸塚区,戸塚町３３１番地１ネクサスシーズン戸塚１０１号,,14,110,2440003,,,,,,,2023-06-07,1,,,,,エルエフエー,0
104,1020003023994,新規,0,2023-06-07,2023-06-07,合同会社Ｍ’ｓ,,合同会社,神奈川県,川崎市宮前区,西野川２丁目１７番２９号,,14,136,2160044,,,,,,,2023-06-07,1,,,,,エムズ,0
105,1020003024002,新規,0,2023-06-07,2023-06-07,アンドムーブ合同会社,,合同会社,神奈川県,横浜市都筑区,茅ケ崎中央５６番４,,14,118,2240032,,,,,,,2023-06-07,1,,,,,アンドムーブ,0
106,1020003024010,新規,0,2023-06-07,2023-06-07,合同会社トリガー,,合同会社,神奈川県,川崎市高津区,溝口３丁目１２番５－８０３号,,14,134,2130001,,,,,,,2023-06-07,1,,,,,トリガー,0
107,1020005016030,新規,0,2023-06-07,2023-06-07,一般社団法人ＯＣＥＡＮ,,その他の設立登記法人,神奈川県,横浜市西区,みなとみらい４丁目３番６号ＫＴビル１階,,14,103,2200012,,,,,,,2023-06-07,1,,,,,オーシャン,0
110,1021001079228,新規,0,2023-06-07,2023-06-07,株式会社Ｂｏｎｔｅｃｈ,,株式会社,神奈川県,相模原市中央区,田名２７７２番地１４,,14,152,2520244,,,,,,,2023-06-07,1,,,,,ボンテック,0
111,1021001079260,新規,0,2023-06-07,2023-06-07,株式会社サニーウインド,,株式会社,神奈川県,大和市,中央４丁目１１番９号,,14,213,2420021,,,,,,,2023-06-07,1,,,,,サニーウインド,0
113,1021003013168,新規,0,2023-06-07,2023-06-07,合同会社エアフォルク,,合同会社,神奈川県,茅ヶ崎市,代官町８番５号,,14,207,2530015,,,,,,,2023-06-07,1,,,,,エアフォルク,0
121,1030001154163,新規,0,2023-06-07,2023-06-07,株式会社Ａｉｍ　Ｈｉｇｈ,,株式会社,埼玉県,飯能市,美杉台４丁目１５番地１５,,11,209,3570041,,,,,,,2023-06-07,1,,,,,エイムハイ,0
122,1030001154196,新規,0,2023-06-07,2023-06-07,スライブ商事株式会社,,株式会社,埼玉県,さいたま市浦和区,瀬ヶ崎１丁目２４番６－１０号１Ｆ,,11,107,3300044,,,,,,,2023-06-07,1,,,,,スライブショウジ,0
123,1030001154221,新規,0,2023-06-07,2023-06-07,株式会社タカミ製作所,,株式会社,埼玉県,八潮市,大字浮塚８８７番地７,,11,234,3400835,,,,,,,2023-06-07,1,,,,,タカミセイサクショ,0
124,1030001154246,新規,0,2023-06-07,2023-06-07,株式会社Ｒａｂｙ,,株式会社,埼玉県,三郷市,早稲田１丁目１－１ＫＴＴ１０ビル３Ｆ,,11,237,3410018,,,,,,,2023-06-07,1,,,,,ラビー,0
125,1030001154270,新規,0,2023-06-07,2023-06-07,株式会社Ｇｉｏｉａ,,株式会社,埼玉県,草加市,栄町２丁目１１番３－８０１号,,11,221,3400011,,,,,,,2023-06-07,1,,,,,ジョイア,0
128,1030003021857,新規,0,2023-06-07,2023-06-07,合同会社エルダリゾート,,合同会社,埼玉県,加須市,花崎北２丁目１６番地１Ｊ－１２０３,,11,210,3470016,,,,,,,2023-06-07,1,,,,,エルダリゾート,0
129,1030003021865,新規,0,2023-06-07,2023-06-07,合同会社楽歩,,合同会社,埼玉県,吉川市,きよみ野２丁目９番地１６,,11,243,3420058,,,,,,,2023-06-07,1,,,,,ラフ,0
130,1030003021873,新規,0,2023-06-07,2023-06-07,ＢＡＧＥＳＨＷＡＲ　ＤＡＲＳＨＡＮ合同会社,,合同会社,埼玉県,草加市,手代１丁目３１番２－４０２号,,11,221,3400021,,,,,,,2023-06-07,1,,,,,バゲシュアルダルシャン,0
131,1030003021881,新規,0,2023-06-07,2023-06-07,ＣＡＬＥＮＥ　ＴＥＳＩＡ合同会社,,合同会社,埼玉県,川口市,元郷５丁目３－１５－２０２,,11,203,3320011,,,,,,,2023-06-07,1,,,,,カレンテシア,0
137,1040001128595,新規,0,2023-06-07,2023-06-07,株式会社大和警備,,株式会社,千葉県,千葉市美浜区,高洲２丁目１番１棟１０１５号,,12,106,2610004,,,,,,,2023-06-07,1,,,,,ダイワケイビ,0
138,1040001128629,新規,0,2023-06-07,2023-06-07,株式会社大丸通商分割準備会社,,株式会社,千葉県,千葉市緑区,平山町６８７番地,,12,105,2660002,,,,,,,2023-06-07,1,,,,,ダイマルツウショウブンカツジュンビガイシャ,0
139,1040001128637,新規,0,2023-06-07,2023-06-07,株式会社アイビー,,株式会社,千葉県,習志野市,津田沼１丁目３－１１昭和第３ビル６Ｆ,,12,216,2750016,,,,,,,2023-06-07,1,,,,,アイビー,0
140,1040001128694,新規,0,2023-06-07,2023-06-07,株式会社スター・ガレージ,,株式会社,千葉県,成田市,宝田５５８番地１,,12,211,2860844,,,,,,,2023-06-07,1,,,,,スターガレージ,0
141,1040001128711,新規,0,2023-06-07,2023-06-07,株式会社ＵＩエンジニアリング,,株式会社,千葉県,木更津市,真里１６２番地６,,12,206,2920212,,,,,,,2023-06-07,1,,,,,ユーアイエンジニアリング,0
142,1040001128728,新規,0,2023-06-07,2023-06-07,株式会社小原建装,,株式会社,千葉県,千葉市稲毛区,宮野木町９２１番地２,,12,103,2630054,,,,,,,2023-06-07,1,,,,,オバラケンソウ,0
143,1040001128752,新規,0,2023-06-07,2023-06-07,株式会社アップストーン,,株式会社,千葉県,船橋市,本町５丁目２番１号大野ビル３階,,12,204,2730005,,,,,,,2023-06-07,1,,,,,アップストーン,0
144,1040001128760,新規,0,2023-06-07,2023-06-07,株式会社メイオー,,株式会社,千葉県,富里市,七栄４８２－１３５,,12,233,2860221,,,,,,,2023-06-07,1,,,,,メイオー,0
146,1040003022747,新規,0,2023-06-07,2023-06-07,合同会社喫茶室川名,,合同会社,千葉県,松戸市,松戸１２３０番地,,12,207,2710092,,,,,,,2023-06-07,1,,,,,キッサシツカワナ,0
147,1040003022771,新規,0,2023-06-07,2023-06-07,合同会社マリン,,合同会社,千葉県,千葉市花見川区,検見川町１丁目７２７番地４－３０３号,,12,102,2620023,,,,,,,2023-06-07,1,,,,,マリン,0
149,1050001052902,新規,0,2023-06-07,2023-06-07,株式会社紬,,株式会社,茨城県,水戸市,泉町３丁目４番３３号,,08,201,3100026,,,,,,,2023-06-07,1,,,,,ツムギ,0
150,1050001052927,新規,0,2023-06-07,2023-06-07,株式会社ＩＳＨＩＢＡＳＨＩ,,株式会社,茨城県,結城市,富士見町４丁目２番地２,,08,207,3070003,,,,,,,2023-06-07,1,,,,,イシバシ,0
153,1050003007557,新規,0,2023-06-07,2023-06-07,合同会社Ｕｐ,,合同会社,茨城県,常総市,上蛇町１０１３－３,,08,211,3002502,,,,,,,2023-06-07,1,,,,,アップ,0
154,1060001036053,新規,0,2023-06-07,2023-06-07,Ｂｌｉｄｖｅｎ株式会社,,株式会社,栃木県,足利市,今福町４２５番地,,09,202,3260842,,,,,,,2023-06-07,1,,,,,ブリドヴェン,0
160,1080101024055,新規,0,2023-06-07,2023-06-07,株式会社シンセイ,,株式会社,静岡県,三島市,八反畑１１０番地の４,,22,206,4110817,,,,,,,2023-06-07,1,,,,,シンセイ,0
165,1080401026528,新規,0,2023-06-07,2023-06-07,株式会社Ｔａｋａｙａｍａ＆Ｃｏ．,,株式会社,静岡県,浜松市南区,立野町２９６,,22,134,4300827,,,,,,,2023-06-07,1,,,,,タカヤマアンドコーポレーション,0
167,1090005007568,新規,0,2023-06-07,2023-06-07,特定非営利活動法人ババジのクリヤーヨーガ教育協会,,その他の設立登記法人,山梨県,北杜市,大泉町西井出８２４０番地４６３０,,19,209,4091501,,,,,,,2023-06-07,1,,,,,ババジノクリヤーヨーガキョウイクキョウカイ,0
171,1110001037599,新規,0,2023-06-07,2023-06-07,ＨＱＢ研究所株式会社,,株式会社,新潟県,糸魚川市,大字須川１７１６番地,,15,216,9491327,,,,,,,2023-06-07,1,,,,,エイチキュウビーケンキュウジョ,0
188,1120005023669,新規,0,2023-06-07,2023-06-07,司法書士法人福村事務所,,その他の設立登記法人,大阪府,大阪市中央区,平野町２丁目６番１１号,,27,128,5410046,,,,,,,2023-06-07,1,,,,,フクムラジムショ,0
189,1120101067644,新規,0,2023-06-07,2023-06-07,株式会社カラーエイト,,株式会社,大阪府,和泉市,和気町１丁目２番２３号,,27,219,5940073,,,,,,,2023-06-07,1,,,,,カラーエイト,0
190,1120101067652,新規,0,2023-06-07,2023-06-07,株式会社岡山建築工業,,株式会社,大阪府,泉大津市,池浦町４丁目７番１４号,,27,206,5950024,,,,,,,2023-06-07,1,,,,,オカヤマケンチクコウギョウ,0
191,1120101067677,新規,0,2023-06-07,2023-06-07,株式会社ＡＤ．Ｇｓｔｙｌｅ,,株式会社,大阪府,松原市,南新町３丁目３４４番地,,27,217,5800023,,,,,,,2023-06-07,1,,,,,アドジースタイル,0
192,1120103005255,新規,0,2023-06-07,2023-06-07,合同会社Ｏｆｆｉｃｅ　Ｔ＆Ｎ,,合同会社,大阪府,堺市堺区,宿院町西３丁２番１４号グラン・ビルド宿院９０７号,,27,141,5900958,,,,,,,2023-06-07,1,,,,,オフィスティーアンドエヌ,0
194,1120901047597,新規,0,2023-06-07,2023-06-07,株式会社サポーターズ,,株式会社,大阪府,高槻市,氷室町２丁目２６－１－１００８,,27,207,5691141,,,,,,,2023-06-07,1,,,,,サポーターズ,0
195,1120901047614,新規,0,2023-06-07,2023-06-07,株式会社中井建設,,株式会社,大阪府,豊能郡豊能町,木代１１２３１番地,,27,321,5630215,,,,,,,2023-06-07,1,,,,,エスティベース,0
196,1120901047630,新規,0,2023-06-07,2023-06-07,株式会社結エステート,,株式会社,大阪府,豊中市,箕輪２丁目１２番９号,,27,203,5600035,,,,,,,2023-06-07,1,,,,,ユウエステート,0
198,1122001037041,新規,0,2023-06-07,2023-06-07,株式会社ＭＩＲＡＩＴＥＣＨ,,株式会社,大阪府,東大阪市,鴻池徳庵町６番２５号,,27,227,5780977,,,,,,,2023-06-07,1,,,,,ミライテック,0
203,1130001074426,新規,0,2023-06-07,2023-06-07,株式会社いくとん,,株式会社,京都府,京都市右京区,太秦井戸ケ尻町９番地８,,26,108,6168122,,,,,,,2023-06-07,1,,,,,イクトン,0
210,1130005016787,新規,0,2023-06-07,2023-06-07,一般社団法人福知山地域振興社,,その他の設立登記法人,京都府,福知山市,字京１３番地の６,,26,201,6200027,,,,,,,2023-06-07,1,,,,,フクチヤマチイキシンコウシャ,0
213,1140001130426,新規,0,2023-06-07,2023-06-07,日新工業ホールディングス株式会社,,株式会社,兵庫県,神戸市西区,玉津町居住１９８番,,28,111,6512145,,,,,,,2023-06-07,1,,,,,ニッシンコウギョウホールディングス,0
216,1140005026645,新規,0,2023-06-07,2023-06-07,ＮＰＯ法人ＦＵＬＡＺ,,その他の設立登記法人,兵庫県,西脇市,和田町８３９番地の３,,28,213,6770052,,,,,,,2023-06-07,1,,,,,フラズ,0
217,1150001026458,新規,0,2023-06-07,2023-06-07,水本化学工業株式会社,,株式会社,奈良県,高市郡明日香村,大字御園２４７番地の２,,29,402,6340131,,,,,,,2023-06-07,1,,,,,ミズモトカガクコウギョウ,0
218,1150001026466,新規,0,2023-06-07,2023-06-07,株式会社ＭｙＬｉｅｎ,,株式会社,奈良県,橿原市,新賀町１５５番地２－１０２,,29,205,6340006,,,,,,,2023-06-07,1,,,,,マイリアン,0
219,1150003002977,新規,0,2023-06-07,2023-06-07,ＨＫ合同会社,,合同会社,奈良県,香芝市,関屋北６丁目２２番７号,,29,210,6390254,,,,,,,2023-06-07,1,,,,,エッチケイ,0
235,1180001156533,新規,0,2023-06-07,2023-06-07,株式会社太陽,,株式会社,愛知県,春日井市,勝川町西４丁目７７番地,,23,206,4860946,,,,,,,2023-06-07,1,,,,,タイヨウ,0
236,1180001156558,新規,0,2023-06-07,2023-06-07,株式会社行,,株式会社,愛知県,名古屋市名東区,極楽２丁目７番地サンパーク大鐘ＩＩＩ１Ｆ,00130755,23,115,4650053,,,,,,,2023-06-07,1,,,,,アン,0
237,1180001156599,新規,0,2023-06-07,2023-06-07,Ｓアセット株式会社,,株式会社,愛知県,名古屋市昭和区,滝川町４７番地の５,,23,107,4660826,,,,,,,2023-06-07,1,,,,,エスアセット,0
238,1180001156616,新規,0,2023-06-07,2023-06-07,株式会社十色,,株式会社,愛知県,犬山市,大字羽黒字古市場６７番地１,,23,215,4840894,,,,,,,2023-06-07,1,,,,,トイロ,0
239,1180001156624,新規,0,2023-06-07,2023-06-07,株式会社Ｅｎｃｏｕｒａｇｅ　Ｃｒｅａｔｅ,,株式会社,愛知県,名古屋市中村区,名駅４丁目２４番５号第２森ビル４０１,,23,105,4500002,,,,,,,2023-06-07,1,,,,,エンカレッジクリエイト,0
240,1180001156649,新規,0,2023-06-07,2023-06-07,株式会社Ｇｌｏｂａｌｉｎｋ,,株式会社,愛知県,名古屋市北区,大曽根３丁目５番２３号ｏｚ　ａｌｌｏｇｇｉｏ　８０５号室,,23,103,4620825,,,,,,,2023-06-07,1,,,,,グローバリンク,0
241,1180001156657,新規,0,2023-06-07,2023-06-07,シヤチハタブランドアンドセキュリティーズ株式会社,,株式会社,愛知県,名古屋市西区,天塚町４丁目６９番地,,23,104,4510021,,,,,,,2023-06-07,1,,,,,シヤチハタブランドアンドセキュリティーズ,0
242,1180001156665,新規,0,2023-06-07,2023-06-07,株式会社Ｆｌａｔ‐Ｓｐｈｅｒｅ,,株式会社,愛知県,名古屋市中村区,名駅３丁目４－１０アルティメイト名駅１ｓｔ２階,,23,105,4500002,,,,,,,2023-06-07,1,,,,,フラットスフィア,0
245,1180003025323,新規,0,2023-06-07,2023-06-07,合同会社日臨企画,,合同会社,愛知県,犬山市,大字橋爪字四郎丸５７番地２メゾンレガーメＢ１０５,,23,215,4840076,,,,,,,2023-06-07,1,,,,,ニチリンキカク,0
246,1180003025331,新規,0,2023-06-07,2023-06-07,合同会社ワイズワン三重川越,,合同会社,愛知県,名古屋市中区,栄２丁目３番１号名古屋広小路ビルヂング１７階,,23,106,4600008,,,,,,,2023-06-07,1,,,,,ワイズワンミエカワゴエ,0
249,1180301037458,新規,0,2023-06-07,2023-06-07,福豊株式会社,,株式会社,愛知県,知立市,山町御手洗２番地９６パビリオン第２みたらし５０３号,,23,225,4720006,,,,,,,2023-06-07,1,,,,,フクトヨ,0
250,1180301037466,新規,0,2023-06-07,2023-06-07,株式会社トヨカワロボットサービス,,株式会社,愛知県,豊川市,平尾町神田９７番地の１６,,23,207,4420863,,,,,,,2023-06-07,1,,,,,トヨカワロボットサービス,0
255,1200001041369,新規,0,2023-06-07,2023-06-07,株式会社オフィスＫ,,株式会社,岐阜県,各務原市,蘇原坂井町１丁目８７番地３,,21,213,5040812,,,,,,,2023-06-07,1,,,,,オフィスケイ,0
259,1220001025444,新規,0,2023-06-07,2023-06-07,株式会社Ｂｏｒｎ　Ａｇａｉｎ,,株式会社,石川県,輪島市,マリンタウン４番地３３,,17,204,9280008,,,,,,,2023-06-07,1,,,,,,0
275,1240001061611,新規,0,2023-06-07,2023-06-07,株式会社ＬｉＮＯ,,株式会社,広島県,広島市中区,鉄砲町８番６号ありみビル２０２,,34,101,7300017,,,,,,,2023-06-07,1,,,,,リノ,0
278,1240003006176,新規,0,2023-06-07,2023-06-07,合同会社逍遥学派,,合同会社,広島県,呉市,豊町久比２０７６竹本邸,,34,202,7340304,,,,,,,2023-06-07,1,,,,,ショウヨウガクハ,0
288,1260001038005,新規,0,2023-06-07,2023-06-07,株式会社ＢＥＣＫ,,株式会社,岡山県,総社市,門田６０番地３,,33,208,7191156,,,,,,,2023-06-07,1,,,,,ベック,0
294,1280003001735,新規,0,2023-06-07,2023-06-07,合同会社未来,,合同会社,島根県,出雲市,小津町１７３番地４,,32,203,6910041,,,,,,,2023-06-07,1,,,,,ミライ,0
298,1290001101726,新規,0,2023-06-07,2023-06-07,株式会社Ｃａｒ　Ｐａｉｎｔｅｒｓ國上,,株式会社,福岡県,小郡市,美鈴の杜３丁目４番地１６,,40,216,8380108,,,,,,,2023-06-07,1,,,,,カーペインターズクミガミ,0
299,1290001101734,新規,0,2023-06-07,2023-06-07,株式会社エトウホールディングス,,株式会社,福岡県,大川市,大字鐘ケ江２２７番地２,,40,212,8310008,,,,,,,2023-06-07,1,,,,,エトウホールディングス,0
300,1290001101783,新規,0,2023-06-07,2023-06-07,株式会社ＱＵＲＵ,,株式会社,福岡県,福岡市中央区,大名２丁目６番１１号,,40,133,8100041,,,,,,,2023-06-07,1,,,,,クル,0
301,1290001101800,新規,0,2023-06-07,2023-06-07,株式会社ＫＩＴＥ　ＦＯＲＣＥ,,株式会社,福岡県,糸島市,有田中央２丁目２番７４号,,40,230,8191127,,,,,,,2023-06-07,1,,,,,カイトフォース,0
302,1290001101809,新規,0,2023-06-07,2023-06-07,株式会社ＲＥ‐Ｉ‐ＷＡ福岡,,株式会社,福岡県,福岡市南区,玉川町４番２７号オークヒルズ高宮２０２号,,40,134,8150037,,,,,,,2023-06-07,1,,,,,レイワフクオカ,0
303,1290001101817,新規,0,2023-06-07,2023-06-07,株式会社ＣＲＹＳＴＡＬ,,株式会社,福岡県,福岡市中央区,渡辺通２丁目９番８－６０１号,,40,133,8100004,,,,,,,2023-06-07,1,,,,,クリスタル,0
304,1290001101841,新規,0,2023-06-07,2023-06-07,株式会社想いを紡ぐものがたり,,株式会社,福岡県,福岡市中央区,天神２丁目２番１２号Ｔ＆Ｊビルディング７Ｆ,,40,133,8100001,,,,,,,2023-06-07,1,,,,,オモイヲツムグモノガタリ,0
305,1290003014001,新規,0,2023-06-07,2023-06-07,日高商事合同会社,,合同会社,福岡県,大野城市,乙金東１丁目２番５２－１号,,40,219,8160901,,,,,,,2023-06-07,1,,,,,ヒタカショウジ,0
308,1290005019056,新規,0,2023-06-07,2023-06-07,一般社団法人スマイルサポートＪａｐａｎ,,その他の設立登記法人,福岡県,福岡市博多区,住吉５丁目１番１５－１２０６号,,40,132,8120018,,,,,,,2023-06-07,1,,,,,スマイルサポートジャパン,0
311,1290801029596,新規,0,2023-06-07,2023-06-07,株式会社Ｓｈｉｎｓｅｉ,,株式会社,福岡県,直方市,知古１丁目８番１３号カーサ宮ノ前直方Ａ－１０１号,,40,204,8220022,,,,,,,2023-06-07,1,,,,,シンセイ,0
318,1320001019824,新規,0,2023-06-07,2023-06-07,株式会社竹田索道,,株式会社,大分県,中津市,本耶馬渓町曽木１６９７番地,,44,203,8710202,,,,,,,2023-06-07,1,,,,,タケタサクドウ,0
320,1330001030895,新規,0,2023-06-07,2023-06-07,株式会社Ｎ‐Ｃｉｒｃｌｅ,,株式会社,熊本県,熊本市東区,御領６丁目８番１３号Ｌ－フィネス９０５,,43,102,8618035,,,,,,,2023-06-07,1,,,,,エヌサークル,0
321,1330001030912,新規,0,2023-06-07,2023-06-07,株式会社大嶌屋Ｗｅｂクリエイティブ,,株式会社,熊本県,宇城市,松橋町古保山２７１５番地１９,,43,213,8690512,,,,,,,2023-06-07,1,,,,,オオシマヤウェブクリエイティブ,0
322,1330001030945,新規,0,2023-06-07,2023-06-07,あまてらすホールディングス株式会社,,株式会社,熊本県,熊本市南区,御幸笛田２丁目１５番３８号,,43,104,8614172,,,,,,,2023-06-07,1,,,,,アマテラスホールディングス,0
323,1330003009871,新規,0,2023-06-07,2023-06-07,ナインテック合同会社,,合同会社,熊本県,熊本市東区,下江津８丁目２－１２,,43,102,8620960,,,,,,,2023-06-07,1,,,,,ナインテック,0
328,1340005009613,新規,0,2023-06-07,2023-06-07,一般社団法人らしさクリエイト,,その他の設立登記法人,鹿児島県,鹿児島市,吉野町６００２番地４,,46,201,8920871,,,,,,,2023-06-07,1,,,,,ラシサクリエイト,0
330,1360001032105,新規,0,2023-06-07,2023-06-07,琉球アスティーダオート株式会社,,株式会社,沖縄県,那覇市,久茂地２丁目２番２号タイムスビル２Ｆ,,47,201,9000015,,,,,,,2023-06-07,1,,,,,リュウキュウアスティーダオート,0
331,1360001032138,新規,0,2023-06-07,2023-06-07,株式会社ひとのこと,,株式会社,沖縄県,沖縄市,池原１丁目２３番１０号,,47,211,9042141,,,,,,,2023-06-07,1,,,,,ヒトノコト,0
332,1360003012996,新規,0,2023-06-07,2023-06-07,アタッチ合同会社,,合同会社,沖縄県,那覇市,銘苅３丁目１－２９－４０１,,47,201,9000004,,,,,,,2023-06-07,1,,,,,アタッチ,0
333,1360003013037,新規,0,2023-06-07,2023-06-07,合同会社Ｒｅ．ＺＷＥＬＬ,,合同会社,沖縄県,浦添市,城間４丁目３０番１０号,,47,208,9012133,,,,,,,2023-06-07,1,,,,,リズウェル,0
336,1370001050056,新規,0,2023-06-07,2023-06-07,株式会社隼鋼業,,株式会社,宮城県,塩竈市,佐浦町２番１９号西塩釜レジデンス４１号,,04,203,9850025,,,,,,,2023-06-07,1,,,,,ハヤブサコウギョウ,0
343,1380001033753,新規,0,2023-06-07,2023-06-07,株式会社オネストＫ,,株式会社,福島県,郡山市,字賀庄１１番地１２,,07,203,9638844,,,,,,,2023-06-07,1,,,,,オネストケー,0
348,1420001018287,新規,0,2023-06-07,2023-06-07,株式会社ナルキ工業,,株式会社,青森県,五所川原市,金木町芦野８４番地７７２,00130750,02,205,0370202,,,,,,,2023-06-07,1,,,,,ナルキコウギョウ,0
352,1430001089303,新規,0,2023-06-07,2023-06-07,株式会社アクリア工設,,株式会社,北海道,札幌市北区,太平十一条６丁目２番１９号,,01,102,0028011,,,,,,,2023-06-07,1,,,,,アクリアコウセツ,0
355,1430003015125,新規,0,2023-06-07,2023-06-07,合同会社Ｙｏｓｈｉ,,合同会社,北海道,札幌市豊平区,平岸六条１３丁目５番１－４２３号,,01,105,0620936,,,,,,,2023-06-07,1,,,,,ヨシ,0
357,1450001014003,新規,0,2023-06-07,2023-06-07,株式会社ＬＥＯ,,株式会社,北海道,留萌郡小平町,字小平町４３５番地の２,,01,482,0783301,,,,,,,2023-06-07,1,,,,,,0
362,1470001019652,新規,0,2023-06-07,2023-06-07,株式会社ＯＤＳ,,株式会社,香川県,観音寺市,植田町２７番地２,,37,205,7680012,,,,,,,2023-06-07,1,,,,,オーディーエス,0
363,1480003001987,新規,0,2023-06-07,2023-06-07,ｈｕｂａｗａ合同会社,,合同会社,徳島県,徳島市,東船場町１丁目１８番地,,36,201,7700911,,,,,,,2023-06-07,1,,,,,ウブワ,0
365,1490005006901,新規,0,2023-06-07,2023-06-07,一般社団法人高知かつお漁業振興協会,,その他の設立登記法人,高知県,高知市,本町１丁目６番２１号,,39,201,7800870,,,,,,,2023-06-07,1,,,,,コウチカツオギョギョウシンコウキョウカイ,0
367,1500001024987,新規,0,2023-06-07,2023-06-07,株式会社ＪＡＤＥ,,株式会社,愛媛県,今治市,桜井甲１１８１番地２８,,38,202,7991524,,,,,,,2023-06-07,1,,,,,ジェイド,0
373,1700150116169,新規,0,2023-06-07,2023-05-15,ディークラディア園田駅前パークフロント管理組合,,その他,兵庫県,尼崎市,東園田町９丁目１番２９号,,28,202,6610953,,,,,,,2023-05-15,1,,,,,デイークラデイアソノダエキマエパークフロントカンリクミアイ,0
374,1700150116961,新規,0,2023-06-07,2023-06-07,ｓｈｅｎｚｈｅｎｓｈｉｚｈｉｓｈｅｎｇｙｏｕｐｉｎｋｅｊｉｙｏｕｘｉａｎｇｏｎｇｓｉ,,外国会社等,,,,,,,,Ｓｈｅｎ　Ｚｈｅｎ　Ｓｈｉ　Ｌｏｎｇ　Ｈｕａ　Ｑｕ　Ｍｉｎ　Ｚｈｉ　Ｊｉｅ　Ｄａｏ　Ｍｉｎ　Ｚｈｉ　Ｓｈｅ　Ｑｕ　Ｊｕｎ　Ｊｉｎｇ　Ｈｕａ　Ｔｉｎｇ　Ｂ，Ｃ，Ｄ　Ｄｏｎｇ　Ｄ２　Ｄａｎ　Ｙｕａｎ　８Ｃ　Ｓｈｅｎ　Ｚｈｅｎ　Ｌｏｎｇ　Ｈｕａ　Ｑｕ　Ｇｕａｎｇ　Ｄｏｎｇ　５１８１１０　ＣＮ,,,,,,2023-06-07,1,,,,,シェンジェンシージーションヨウピンコージーヨウシエンゴンスー,0
390,2010001235922,新規,0,2023-06-07,2023-06-07,ＪＳＹ‐Ｇｌｏｂａｌ株式会社,,株式会社,東京都,千代田区,神田和泉町１番地６－１６ヤマトビル４０５,,13,101,1010024,,,,,,,2023-06-07,1,,,,,ジェイエスワイグローバル,0
391,2010001235947,新規,0,2023-06-07,2023-06-07,株式会社ボウマン＆ＳＲパートナーズ,,株式会社,東京都,中央区,日本橋２丁目２番３号ＲＩＳＨＥビルＵＣＦ４階,,13,102,1030027,,,,,,,2023-06-07,1,,,,,ボウマンアンドエスアールパートナーズ,0
393,2010003040767,新規,0,2023-06-07,2023-06-07,合同会社Ｓ・Ｒ,,合同会社,東京都,文京区,千駄木３丁目４２番１５号,,13,105,1130022,,,,,,,2023-06-07,1,,,,,エスアール,0
394,2010003040775,新規,0,2023-06-07,2023-06-07,合同会社Ａｌｌ　ｉｓ　Ｗｅｌｌ,,合同会社,東京都,中央区,銀座１丁目１２－４Ｎ＆Ｅ・ＢＬＤ．７階,,13,102,1040061,,,,,,,2023-06-07,1,,,,,オールイズウェル,0
395,2010003040783,新規,0,2023-06-07,2023-06-07,ＩＷＡＫ合同会社,,合同会社,東京都,中央区,日本橋２丁目１番３号,,13,102,1030027,,,,,,,2023-06-07,1,,,,,アイダブリューエーケー,0
396,2010003040791,新規,0,2023-06-07,2023-06-07,分水町再開発合同会社,,合同会社,東京都,千代田区,大手町１丁目１番１号大手町パークビルディング７１２区,,13,101,1000004,,,,,,,2023-06-07,1,,,,,ブンスイチョウサイカイハツ,0
398,2010005036788,新規,0,2023-06-07,2023-06-07,Ｍパワー一般社団法人,,その他の設立登記法人,東京都,千代田区,九段南３丁目７番７号成和綜合会計事務所内,,13,101,1020074,,,,,,,2023-06-07,1,,,,,エムパワー,0
399,2010005036796,新規,0,2023-06-07,2023-06-07,一般社団法人ＩＴエンジニアリングサービス協会,,その他の設立登記法人,東京都,千代田区,神田和泉町１番地６－１６ヤマトビル４０５,,13,101,1010024,,,,,,,2023-06-07,1,,,,,アイティエンジニアリングサービスキョウカイ,0
400,2010005036805,新規,0,2023-06-07,2023-06-07,一般財団法人ベル財団,,その他の設立登記法人,東京都,中央区,日本橋室町１丁目１０番１１号,,13,102,1030022,,,,,,,2023-06-07,1,,,,,ベルザイダン,0
404,2010103002155,新規,0,2023-06-07,2023-06-07,合同会社誠浩,,合同会社,東京都,八王子市,横川町８７０番地,,13,201,1930823,,,,,,,2023-06-07,1,,,,,セイコウ,0
407,2010403030269,新規,0,2023-06-07,2023-06-07,合同会社Ａｐｌｕｓｓｑｕａｒｅｄ,,合同会社,東京都,港区,赤坂７丁目５番１５―３０４号Ｆｒｏｍ１ｓｔＡｋａｓａｋａ,,13,103,1070052,,,,,,,2023-06-07,1,,,,,アプラススクエア,0
408,2010405022215,新規,0,2023-06-07,2023-06-07,Ｍｉｙａｋｏ　Ｎｅｘｔ一般社団法人,,その他の設立登記法人,東京都,港区,六本木１丁目６番１号泉ガーデンタワーＫＰＭＧ税理士法人内,,13,103,1060032,,,,,,,2023-06-07,1,,,,,ミヤコネクスト,0
410,2010501050565,新規,0,2023-06-07,2023-06-07,Ｇｒｏｗａｔｔ株式会社,,株式会社,東京都,台東区,台東１丁目２４番９号ブライト秋葉原Ｂ１Ｆ,,13,106,1100016,,,,,,,2023-06-07,1,,,,,グロワット,0
412,2010601063228,新規,0,2023-06-07,2023-06-07,株式会社マミーナオレンジ,,株式会社,東京都,墨田区,錦糸２丁目１４番７号,,13,107,1300013,,,,,,,2023-06-07,1,,,,,マミーナオレンジ,0
413,2010601063236,新規,0,2023-06-07,2023-06-07,ＫＯＢＡＹＡ株式会社,,株式会社,東京都,墨田区,緑４丁目４番５号レオーネＹ．Ｏ５０３号,,13,107,1300021,,,,,,,2023-06-07,1,,,,,コバヤ,0
419,2010701044383,新規,0,2023-06-07,2023-06-07,株式会社ＰＥＡＫ　ＳＴＡＴＥ,,株式会社,東京都,品川区,大井１丁目６－３アゴラ大井町７１９,,13,109,1400014,,,,,,,2023-06-07,1,,,,,ピークステイト,0
424,2010901053192,新規,0,2023-06-07,2023-06-07,株式会社織電,,株式会社,東京都,世田谷区,上用賀５丁目２２番１６－２０２号,,13,112,1580098,,,,,,,2023-06-07,1,,,,,オリデン,0
427,2011001154872,新規,0,2023-06-07,2023-06-07,株式会社Ｆｌａｔ　Ｃｅｎｔｒａｌ,,株式会社,東京都,渋谷区,代官山町８－７Ｄａｉｗａ代官山ビル１階,,13,113,1500034,,,,,,,2023-06-07,1,,,,,フラットセントラル,0
428,2011001154880,新規,0,2023-06-07,2023-06-07,株式会社ＲｕｎＷＡＹ,,株式会社,東京都,渋谷区,神宮前６丁目２３番４号桑野ビル２階,,13,113,1500001,,,,,,,2023-06-07,1,,,,,ランウェイ,0
429,2011001154930,新規,0,2023-06-07,2023-06-07,株式会社ＵＮＤＯ,,株式会社,東京都,渋谷区,本町３丁目１０番３号清水橋矢部ビル４階,,13,113,1510071,,,,,,,2023-06-07,1,,,,,アンドゥ,0
433,2011003016947,新規,0,2023-06-07,2023-06-07,合同会社ｅｌｕ,,合同会社,東京都,渋谷区,道玄坂１丁目１０番８号渋谷道玄坂東急ビル２Ｆ－Ｃ,,13,113,1500043,,,,,,,2023-06-07,1,,,,,エル,0
434,2011005010106,新規,0,2023-06-07,2023-06-07,一般社団法人日本美容医療Ｂｒａｎｄｎｅｗ協会,,その他の設立登記法人,東京都,渋谷区,神宮前４丁目２４番１号,,13,113,1500001,,,,,,,2023-06-07,1,,,,,ニホンビヨウイリョウブランニューキョウカイ,0
441,2011101103135,新規,0,2023-06-07,2023-06-07,株式会社Ｇｒａｔｅｆｕｌ　Ｃｒｅｗ,,株式会社,東京都,新宿区,新宿２丁目１１番７号５Ｆ,,13,104,1600022,,,,,,,2023-06-07,1,,,,,グレイトフルクルー,0
442,2011101103168,新規,0,2023-06-07,2023-06-07,株式会社サインアップ,,株式会社,東京都,新宿区,西新宿７丁目２１番９号,,13,104,1600023,,,,,,,2023-06-07,1,,,,,サインアップ,0
443,2011101103176,新規,0,2023-06-07,2023-06-07,株式会社ＦＥＳ絆コーポレーション,,株式会社,東京都,新宿区,四谷３丁目１１番地山一ビル４階,,13,104,1600004,,,,,,,2023-06-07,1,,,,,エフイーエスキズナコーポレーション,0
445,2011103013126,新規,0,2023-06-07,2023-06-07,合同会社Ｔｅａｍ　Ａ,,合同会社,東京都,新宿区,西落合４丁目１番１号,,13,104,1610031,,,,,,,2023-06-07,1,,,,,チームエー,0
446,2011103013134,新規,0,2023-06-07,2023-06-07,合同会社エースワン,,合同会社,東京都,新宿区,西新宿３丁目３番１３号西新宿水間ビル２Ｆ,,13,104,1600023,,,,,,,2023-06-07,1,,,,,エースワン,0
450,2011401025186,新規,0,2023-06-07,2023-06-07,敬恵商事株式会社,,株式会社,東京都,板橋区,徳丸４丁目３１番２７号,,13,119,1750083,,,,,,,2023-06-07,1,,,,,,0
451,2011403004015,新規,0,2023-06-07,2023-06-07,合同会社アイ・ディー・エックス,,合同会社,東京都,板橋区,西台３丁目２５番６号,,13,119,1750045,,,,,,,2023-06-07,1,,,,,アイディーエックス,0
458,2011701026289,新規,0,2023-06-07,2023-06-07,エタニティ株式会社,,株式会社,東京都,江戸川区,西葛西２丁目１６番２０号,,13,123,1340088,,,,,,,2023-06-07,1,,,,,エタニティ,0
463,2011801042509,新規,0,2023-06-07,2023-06-07,株式会社ＷＡＴ,,株式会社,東京都,足立区,大谷田３丁目１５番８号ファインクロス７番館１０１,,13,121,1200001,,,,,,,2023-06-07,1,,,,,ワット,0
464,2011801042517,新規,0,2023-06-07,2023-06-07,和令ホールディングス株式会社,,株式会社,東京都,足立区,関原３丁目２９番４－４０８号,,13,121,1230852,,,,,,,2023-06-07,1,,,,,ワレイホールディングス,0
465,2011801042533,新規,0,2023-06-07,2023-06-07,株式会社角田工務店,,株式会社,東京都,足立区,椿２丁目２０番１３号,,13,121,1230871,,,,,,,2023-06-07,1,,,,,ツノダコウムテン,0
467,2012401040596,新規,0,2023-06-07,2023-06-07,株式会社Ｆｕｔｕｒｅ　Ｍｅｄｉｃａｌ,,株式会社,東京都,三鷹市,北野３丁目１１番４５号,,13,204,1810003,,,,,,,2023-06-07,1,,,,,フューチャーメディカル,0
468,2012403006018,新規,0,2023-06-07,2023-06-07,合同会社Ｖｉａｎｄｅ,,合同会社,東京都,小金井市,緑町４丁目１２番５０号プチ・ジャルダン２０１,,13,210,1840003,,,,,,,2023-06-07,1,,,,,ヴィヨンド,0
471,2012703002724,新規,0,2023-06-07,2023-06-07,合同会社ＩＲＩＥ　ＴＲＵＴＨ,,合同会社,東京都,東村山市,本町２丁目８番地１２ライオンズマンション東村山第３・１０７,,13,213,1890014,,,,,,,2023-06-07,1,,,,,アイリートゥルース,0
473,2013101009188,新規,0,2023-06-07,2023-06-07,株式会社明翔電設,,株式会社,東京都,あきる野市,小川４８０番地５,,13,228,1970821,,,,,,,2023-06-07,1,,,,,メイショウデンセツ,0
484,2020001151912,新規,0,2023-06-07,2023-06-07,株式会社Ｙｏｕ＆Ｉ,,株式会社,神奈川県,川崎市中原区,小杉町３丁目２５２番地５－５０２,,14,133,2110063,,,,,,,2023-06-07,1,,,,,ユウアンドアイ,0
487,2020003023993,新規,0,2023-06-07,2023-06-07,合同会社ヒラノデンキ,,合同会社,神奈川県,川崎市高津区,新作３丁目１６番５号,,14,134,2130014,,,,,,,2023-06-07,1,,,,,ヒラノデンキ,0
494,2021001079227,新規,0,2023-06-07,2023-06-07,株式会社チカラニ,,株式会社,神奈川県,茅ヶ崎市,共恵１丁目１番５号３０１,,14,207,2530056,,,,,,,2023-06-07,1,,,,,チカラニ,0
495,2021001079251,新規,0,2023-06-07,2023-06-07,株式会社キーコネクト,,株式会社,神奈川県,厚木市,中町３丁目１番１６号信和ビル５Ｆ,,14,212,2430018,,,,,,,2023-06-07,1,,,,,キーコネクト,0
507,2030001154146,新規,0,2023-06-07,2023-06-07,Ｉ＆Ｔ株式会社,,株式会社,埼玉県,蕨市,北町１丁目１６－１２本田マンション１号棟３０５号,,11,223,3350001,,,,,,,2023-06-07,1,,,,,アイアンドティ,0
508,2030001154245,新規,0,2023-06-07,2023-06-07,株式会社レックス・グローバル,,株式会社,埼玉県,さいたま市大宮区,高鼻町１丁目５６番地ｋｓ氷川の杜３０１号,,11,103,3300803,,,,,,,2023-06-07,1,,,,,レックスグローバル,0
509,2030003021864,新規,0,2023-06-07,2023-06-07,合同会社ｙｕｍｍｙ,,合同会社,埼玉県,草加市,旭町２丁目１番２３－２０８号,,11,221,3400053,,,,,,,2023-06-07,1,,,,,ヤミー,0
513,2040001128693,新規,0,2023-06-07,2023-06-07,共栄自動車整備株式会社,,株式会社,千葉県,木更津市,潮浜２丁目１番地３９,,12,206,2920838,,,,,,,2023-06-07,1,,,,,キョウエイジドウシャセイビ,0
514,2040001128702,新規,0,2023-06-07,2023-06-07,株式会社トヨデン,,株式会社,千葉県,松戸市,五香８丁目１８番地の１,,12,207,2702213,,,,,,,2023-06-07,1,,,,,トヨデン,0
516,2040003022746,新規,0,2023-06-07,2023-06-07,Ａｔａｒ合同会社,,合同会社,千葉県,船橋市,前原西２丁目１４番２号別館,,12,204,2740825,,,,,,,2023-06-07,1,,,,,アタル,0
522,2050001052926,新規,0,2023-06-07,2023-06-07,株式会社グローバルファーム,,株式会社,茨城県,筑西市,伊讃美１７３５番地１,,08,227,3080853,,,,,,,2023-06-07,1,,,,,グローバルファーム,0
523,2050001052934,新規,0,2023-06-07,2023-06-07,株式会社モスミー,,株式会社,茨城県,稲敷郡河内町,手栗３２５,,08,447,3001323,,,,,,,2023-06-07,1,,,,,モスミー,0
527,2060001036052,新規,0,2023-06-07,2023-06-07,株式会社明晃電気,,株式会社,栃木県,河内郡上三川町,大字多功１６２７番地１５,,09,301,3290524,,,,,,,2023-06-07,1,,,,,メイコウデンキ,0
530,2070001040499,新規,0,2023-06-07,2023-06-07,株式会社アイシン,,株式会社,群馬県,高崎市,新保田中町７４３番地１,,10,202,3700003,,,,,,,2023-06-07,1,,,,,アイシン,0
534,2070005010135,新規,0,2023-06-07,2023-06-07,土地家屋調査士法人木暮事務所,,その他の設立登記法人,群馬県,渋川市,赤城町勝保沢２番地４３,,10,208,3791122,,,,,,,2023-06-07,1,,,,,キグレジムショ,0
541,2080401026527,新規,0,2023-06-07,2023-06-07,株式会社ルナ＆ステラ,,株式会社,静岡県,浜松市中区,和合町２０７番地の３４－２Ｆ,,22,131,4338125,,,,,,,2023-06-07,1,,,,,ルナアンドステラ,0
557,2120001255505,新規,0,2023-06-07,2023-06-07,瓏瀾株式会社,,株式会社,大阪府,大阪市浪速区,桜川４丁目１２番１７－３０３号,,27,111,5560022,,,,,,,2023-06-07,1,,,,,ローラン,0
558,2120001255546,新規,0,2023-06-07,2023-06-07,株式会社ＦＨ管理,,株式会社,大阪府,大阪市中央区,平野町１丁目８番１５号,,27,128,5410046,,,,,,,2023-06-07,1,,,,,エフエイチカンリ,0
562,2120003024255,新規,0,2023-06-07,2023-06-07,合同会社ＣＰＯ５,,合同会社,大阪府,大阪市北区,梅田１丁目２番２号大阪駅前第２ビル１２－１２,,27,127,5300001,,,,,,,2023-06-07,1,,,,,シーピーオーゴ,0
565,2120101067643,新規,0,2023-06-07,2023-06-07,株式会社３０３,,株式会社,大阪府,泉大津市,東助松町４丁目５番８号,,27,206,5950006,,,,,,,2023-06-07,1,,,,,サンマルサン,0
566,2120101067668,新規,0,2023-06-07,2023-06-07,株式会社Ｇｒｉｎ　Ａｓｓｏｃｉａｔｅｓ,,株式会社,大阪府,泉南郡熊取町,大宮４丁目９６３番地の６,,27,361,5900450,,,,,,,2023-06-07,1,,,,,グリンアソシエイツ,0
567,2120101067676,新規,0,2023-06-07,2023-06-07,株式会社アンドＭ,,株式会社,大阪府,大阪狭山市,東茱萸木１丁目５１３番地の１０,,27,231,5890012,,,,,,,2023-06-07,1,,,,,アンドエム,0
568,2120101067684,新規,0,2023-06-07,2023-06-07,株式会社ＲＩＳＥ８,,株式会社,大阪府,堺市西区,鳳中町４丁９９－２０３,,27,144,5938327,,,,,,,2023-06-07,1,,,,,ライズエイト,0
575,2122001037040,新規,0,2023-06-07,2023-06-07,株式会社Ｓ．Ｔクリエーション,,株式会社,大阪府,東大阪市,荒本１丁目５番１７号,,27,227,5770023,,,,,,,2023-06-07,1,,,,,エスティークリエーション,0
576,2122001037049,新規,0,2023-06-07,2023-06-07,株式会社希美設計事務所,,株式会社,大阪府,大東市,泉町１丁目１０番２６号,,27,218,5740024,,,,,,,2023-06-07,1,,,,,ノゾミセッケイジムショ,0
581,2130001074490,新規,0,2023-06-07,2023-06-07,株式会社Ｋ’Ｚ設備工業,,株式会社,京都府,宇治市,五ケ庄戸ノ内４８番地の１０２,,26,204,6110011,,,,,,,2023-06-07,1,,,,,ケーズセツビコウギョウ,0
583,2130005016786,新規,0,2023-06-07,2023-06-07,一般社団法人京都民事信託協会,,その他の設立登記法人,京都府,京都市北区,紫野東御所田町９番地,,26,101,6038164,,,,,,,2023-06-07,1,,,,,キョウトミンジシンタクキョウカイ,0
586,2140001130425,新規,0,2023-06-07,2023-06-07,株式会社ライフラボ・Ｗ,,株式会社,兵庫県,神戸市中央区,磯上通８丁目１番２９号カサベラビルＣ＆Ｍ４０３号室,,28,110,6510086,,,,,,,2023-06-07,1,,,,,ライフラボダブリュー,0
587,2140005026644,新規,0,2023-06-07,2023-06-07,一般社団法人日本ネイルサロンサービス検定協会,,その他の設立登記法人,兵庫県,尼崎市,東園田町４丁目９５番１４号,,28,202,6610953,,,,,,,2023-06-07,1,,,,,ニホンネイルサロンサービスケンテイキョウカイ,0
589,2150001026457,新規,0,2023-06-07,2023-06-07,ホワイトトラスト株式会社,,株式会社,奈良県,香芝市,逢坂４丁目２７４番地１５,00130748,29,210,6390251,,,,,,,2023-06-07,1,,,,,ホワイトトラスト,0
590,2150001026465,新規,0,2023-06-07,2023-06-07,株式会社八燈,,株式会社,奈良県,香芝市,狐井１３２番地１ヴィオラパッソＶＩＩ２０１号,00130765,29,210,6390234,,,,,,,2023-06-07,1,,,,,ハットウ,0
591,2150003002976,新規,0,2023-06-07,2023-06-07,合同会社ミラクル建物管理,,合同会社,奈良県,奈良市,二条町２丁目３番３－１号メゾン・未来平城京２階,,29,201,6308002,,,,,,,2023-06-07,1,,,,,ミラクルタテモノカンリ,0
599,2180001156549,新規,0,2023-06-07,2023-06-07,株式会社輝心,,株式会社,愛知県,名古屋市西区,上小田井２丁目１７８番地の５,,23,104,4520821,,,,,,,2023-06-07,1,,,,,キゴコロ,0
600,2180001156557,新規,0,2023-06-07,2023-06-07,光矢株式会社,,株式会社,愛知県,一宮市,木曽川町黒田六ノ通り２８番地,,23,203,4930001,,,,,,,2023-06-07,1,,,,,ミツヤ,0
601,2180001156598,新規,0,2023-06-07,2023-06-07,株式会社スペアスペース,,株式会社,愛知県,名古屋市中村区,名駅４丁目２４番５号第２森ビル４０１,,23,105,4500002,,,,,,,2023-06-07,1,,,,,スペアスペース,0
602,2180001156631,新規,0,2023-06-07,2023-06-07,株式会社オーキッドサポート,,株式会社,愛知県,名古屋市昭和区,南山町２０番地の１８,,23,107,4660835,,,,,,,2023-06-07,1,,,,,オーキッドサポート,0
603,2180001156648,新規,0,2023-06-07,2023-06-07,互恵ホームズ株式会社,,株式会社,愛知県,名古屋市港区,新茶屋５丁目２７２３番地,,23,111,4550863,,,,,,,2023-06-07,1,,,,,ゴケイホームズ,0
604,2180001156656,新規,0,2023-06-07,2023-06-07,株式会社ＣＯＯＯＬ　ＮＡＧＯＹＡ,,株式会社,愛知県,名古屋市天白区,一本松１丁目１０２番地,,23,116,4680008,,,,,,,2023-06-07,1,,,,,クールナゴヤ,0
611,2180003025297,新規,0,2023-06-07,2023-06-07,合同会社Ｅ．Ｋ．,,合同会社,愛知県,名古屋市天白区,植田３丁目２０３番地レザンドール市岡１０３号,,23,116,4680051,,,,,,,2023-06-07,1,,,,,イーケー,0
612,2180003025322,新規,0,2023-06-07,2023-06-07,合同会社ｐ．１９６,,合同会社,愛知県,名古屋市名東区,極楽４丁目９０２－３,,23,115,4650053,,,,,,,2023-06-07,1,,,,,ページイチキュウロク,0
615,2180301037465,新規,0,2023-06-07,2023-06-07,株式会社Ｋ‐ＴＥＣＨ,,株式会社,愛知県,豊田市,西中山町太田７１番地５８,,23,211,4700431,,,,,,,2023-06-07,1,,,,,ケーテック,0
621,2200001041376,新規,0,2023-06-07,2023-06-07,株式会社ＵＰＲＩＳＩＮＧ,,株式会社,岐阜県,可児郡御嵩町,御嵩９５２番地２３,,21,521,5050116,,,,,,,2023-06-07,1,,,,,アップライジング,0
622,2200003005981,新規,0,2023-06-07,2023-06-07,合同会社もとい工作所,,合同会社,岐阜県,各務原市,川島渡町３００番地１,,21,213,5016028,,,,,,,2023-06-07,1,,,,,モトイコウサクジョ,0
623,2210001019347,新規,0,2023-06-07,2023-06-07,大吉つなぐサポート株式会社,,株式会社,福井県,坂井市,坂井町徳分田第２６号１９番地１,,18,210,9190525,,,,,,,2023-06-07,1,,,,,ダイキチツナグサポート,0
626,2220001025443,新規,0,2023-06-07,2023-06-07,Ｎｏｒｉ’ｓ株式会社,,株式会社,石川県,羽咋市,垣内田町１２番地１,,17,207,9250612,,,,,,,2023-06-07,1,,,,,ノリーズ,0
628,2230003002027,新規,0,2023-06-07,2023-06-07,合同会社ＧＴ,,合同会社,富山県,高岡市,中川上町１２番２１号マリオン中川１０２,,16,202,9330043,,,,,,,2023-06-07,1,,,,,ジーティー,0
631,2240001061602,新規,0,2023-06-07,2023-06-07,株式会社緑涼,,株式会社,広島県,尾道市,西藤町４４８番地７,,34,205,7290142,,,,,,,2023-06-07,1,,,,,リョクリョウ,0
632,2240001061643,新規,0,2023-06-07,2023-06-07,株式会社ＥＸＥＥＤ．ＨＯＬＤＩＮＧＳ,,株式会社,広島県,広島市西区,横川新町１０番２５号,,34,104,7330013,,,,,,,2023-06-07,1,,,,,エクシードホールディングス,0
638,2250001020136,新規,0,2023-06-07,2023-06-07,株式会社常総,,株式会社,山口県,下関市,貴船町１丁目１１番１６号,,35,201,7510823,,,,,,,2023-06-07,1,,,,,ジョウソウ,0
642,2260005011238,新規,0,2023-06-07,2023-06-07,二垣行政書士法人,,その他の設立登記法人,岡山県,岡山市北区,津島西坂２丁目５番１１号,,33,101,7000086,,,,,,,2023-06-07,1,,,,,ニガキ,0
651,2290001101725,新規,0,2023-06-07,2023-06-07,株式会社キララ工務店,,株式会社,福岡県,福岡市東区,青葉７丁目３８番１１－３０４号ロワールマンション青葉ＷＥＳＴ棟,,40,131,8130025,,,,,,,2023-06-07,1,,,,,キララコウムテン,0
652,2290001101766,新規,0,2023-06-07,2023-06-07,萱草堂株式会社,,株式会社,福岡県,福岡市博多区,祇園町４番３号チサンマンション祇園６０８号室,,40,132,8120038,,,,,,,2023-06-07,1,,,,,ケンソウドウ,0
653,2290001101782,新規,0,2023-06-07,2023-06-07,株式会社オフィスワイ,,株式会社,福岡県,福岡市早良区,百道浜４丁目３１番１－１６０５号,,40,137,8140001,,,,,,,2023-06-07,1,,,,,オフィスワイ,0
654,2290001101790,新規,0,2023-06-07,2023-06-07,株式会社ＫＳ　ｃｏｎｓｕｌｔｉｎｇ,,株式会社,福岡県,福岡市博多区,博多駅前１丁目２３番２号ＰａｒｋＦｒｏｎｔ博多駅前一丁目５Ｆ－Ｂ,,40,132,8120011,,,,,,,2023-06-07,1,,,,,ケーエスコンサルティング,0
655,2290001101824,新規,0,2023-06-07,2023-06-07,ＡＵＴＯ　ＢＯＤＹ株式会社,,株式会社,福岡県,福岡市早良区,東入部８丁目２０番１８号,,40,137,8111102,,,,,,,2023-06-07,1,,,,,オートボディ,0
656,2290003014000,新規,0,2023-06-07,2023-06-07,合同会社サインズ,,合同会社,福岡県,飯塚市,片島１丁目４－７７,,40,205,8200068,,,,,,,2023-06-07,1,,,,,サインズ,0
657,2300001013324,新規,0,2023-06-07,2023-06-07,株式会社Ｉ＆Ｆホールディングス,,株式会社,佐賀県,嬉野市,嬉野町大字下野丙１７４６番地,,41,209,8430302,,,,,,,2023-06-07,1,,,,,アイアンドエフホールディングス,0
658,2320001019807,新規,0,2023-06-07,2023-06-07,株式会社オムニ工房,,株式会社,大分県,別府市,餅ケ浜町三丁目３２号,,44,202,8740924,,,,,,,2023-06-07,1,,,,,オムニコウボウ,0
659,2320001019823,新規,0,2023-06-07,2023-06-07,株式会社仁,,株式会社,大分県,別府市,大字鶴見２８１５番地の６クレドール４０５号,,44,202,8740840,,,,,,,2023-06-07,1,,,,,ジン,0
661,2340001025638,新規,0,2023-06-07,2023-06-07,株式会社山進,,株式会社,鹿児島県,鹿児島市,下荒田２丁目１番１号,,46,201,8900056,,,,,,,2023-06-07,1,,,,,ヤマシン,0
665,2340005009612,新規,0,2023-06-07,2023-06-07,一般社団法人はまちょう,,その他の設立登記法人,鹿児島県,鹿児島市,谷山中央１丁目４１０４番地１４,,46,201,8910141,,,,,,,2023-06-07,1,,,,,ハマチョウ,0
666,2350001018392,新規,0,2023-06-07,2023-06-07,岩戸商事株式会社,,株式会社,宮崎県,西臼杵郡高千穂町,大字岩戸７６２８番地３,,45,441,8821621,,,,,,,2023-06-07,1,,,,,イワトショウジ,0
667,2360001032112,新規,0,2023-06-07,2023-06-07,株式会社グリーンファーム国頭,,株式会社,沖縄県,国頭郡国頭村,字辺土名１４４３番地１１,,47,301,9051411,,,,,,,2023-06-07,1,,,,,グリーンファームクニガミ,0
668,2360003013028,新規,0,2023-06-07,2023-06-07,ＦＩＲＥ合同会社,,合同会社,沖縄県,国頭郡宜野座村,字漢那２２６２番地の１４８,,47,313,9041304,,,,,,,2023-06-07,1,,,,,ファイアー,0
670,2370001050055,新規,0,2023-06-07,2023-06-07,株式会社須貝美装,,株式会社,宮城県,仙台市太白区,西の平１丁目２１番２７号,,04,104,9820825,,,,,,,2023-06-07,1,,,,,スガイビソウ,0
674,2380001033744,新規,0,2023-06-07,2023-06-07,株式会社大河原,,株式会社,福島県,郡山市,田村町上行合字西川原５０番地の４,,07,203,9630724,,,,,,,2023-06-07,1,,,,,オオカワラ,0
680,2390001017267,新規,0,2023-06-07,2023-06-07,株式会社ＤＨ,,株式会社,山形県,新庄市,五日町３２２番地の５リアルマンション２　２１２号,,06,205,9960001,,,,,,,2023-06-07,1,,,,,ディーエイチ,0
683,2420001018294,新規,0,2023-06-07,2023-06-07,株式会社伸住設,,株式会社,青森県,青森市,大字荒川字筒井４番地３,,02,201,0300111,,,,,,,2023-06-07,1,,,,,シンジュウセツ,0
685,2430001089277,新規,0,2023-06-07,2023-06-07,株式会社ＮＫコンサルタント,,株式会社,北海道,札幌市北区,新琴似九条２丁目３番１０－１０１号,,01,102,0010909,,,,,,,2023-06-07,1,,,,,エヌケーコンサルタント,0
686,2430001089293,新規,0,2023-06-07,2023-06-07,株式会社ＧＤＳ,,株式会社,北海道,札幌市西区,二十四軒四条７丁目５番２５号,,01,107,0630804,,,,,,,2023-06-07,1,,,,,ジーディーエス,0
687,2430001089302,新規,0,2023-06-07,2023-06-07,オールブルー株式会社,,株式会社,北海道,札幌市西区,琴似二条２丁目３番１－４１３号,,01,107,0630812,,,,,,,2023-06-07,1,,,,,オールブルー,0
688,2430003015124,新規,0,2023-06-07,2023-06-07,合同会社Ｓａｔｏ,,合同会社,北海道,北広島市,大曲柏葉５丁目１６番地２０,,01,234,0611273,,,,,,,2023-06-07,1,,,,,サトウ,0
689,2430003015132,新規,0,2023-06-07,2023-06-07,合同会社ＣＵＢＥ　ＳＴＹＬＥ,,合同会社,北海道,札幌市手稲区,手稲前田５６７－２３,,01,109,0060829,,,,,,,2023-06-07,1,,,,,キューブスタイル,0
690,2450001014002,新規,0,2023-06-07,2023-06-07,ＨＩＤＥＡＷＡＹ　ＷＯＲＫＳ株式会社,,株式会社,北海道,空知郡上富良野町,南町２丁目１番２５号,,01,460,0710562,,,,,,,2023-06-07,1,,,,,ハイドアウエイワークス,0
691,2450003002343,新規,0,2023-06-07,2023-06-07,合同会社くおん,,合同会社,北海道,旭川市,豊岡三条２丁目１番２９号リラコートＢ１０２号,,01,204,0788233,,,,,,,2023-06-07,1,,,,,,0
693,2460101007391,新規,0,2023-06-07,2023-06-07,ＳＡホールディングス株式会社,,株式会社,北海道,上川郡新得町,一条北１丁目２番地,,01,635,0810001,,,,,,,2023-06-07,1,,,,,エスエーホールディングス,0
694,2460303000797,新規,0,2023-06-07,2023-06-07,合同会社ともゑ霊柩,,合同会社,北海道,常呂郡置戸町,字置戸５番地の１５,,01,550,0991100,,,,,,,2023-06-07,1,,,,,トモエレイキュウ,0
696,2480001012119,新規,0,2023-06-07,2023-06-07,株式会社ＡＷＡＭＡＣＨＩ,,株式会社,徳島県,徳島市,新町橋２丁目９番地山下ビル１階,,36,201,7700904,,,,,,,2023-06-07,1,,,,,アワマチ,0
697,2480005006967,新規,0,2023-06-07,2023-06-07,一般社団法人イゴカス,,その他の設立登記法人,徳島県,那賀郡那賀町,大戸字和無田２４番地１,,36,368,7715516,,,,,,,2023-06-07,1,,,,,イゴカス,0
700,2500001024994,新規,0,2023-06-07,2023-06-07,株式会社弘成,,株式会社,愛媛県,今治市,国分１丁目１４番５号,,38,202,7991533,,,,,,,2023-06-07,1,,,,,コウセイ,0
704,2500003003047,新規,0,2023-06-07,2023-06-07,合同会社Ｓａ‐Ｒａｈ,,合同会社,愛媛県,大洲市,五郎甲２６８０番地,,38,207,7950051,,,,,,,2023-06-07,1,,,,,サラ,0
708,2700150111739,新規,0,2023-06-07,2022-09-16,ディーレスティア須磨名谷管理組合,,その他,兵庫県,神戸市須磨区,竜が台５丁目１９番,,28,107,6540141,,,,,,,2022-09-16,1,,,,,デイーレステイアスマミヨウダニカンリクミアイ,0
709,2700150116960,新規,0,2023-06-07,2023-06-07,Ｓｈｅｎ　Ｚｈｅｎ　Ｓｈｉ　Ｓｅｎ　Ｈｅ　Ｓｈｉ　Ｙｅ　Ｙｏｕ　Ｘｉａｎ　Ｇｏｎｇ　Ｓｉ,,外国会社等,,,,,,,,ｇｕａｎｇｍｉｎｇｙｕｔａｎｇｊｉｅｄａｏｃｈａｎｇｚｈｅｎｓｈｅｑｕｄｉｙｉｇｏｎｇｙｅｑｕｄｉ５ｄｏｎｇ２ｃｅｎｇ３ｃｅｎｇ,,,,,,2023-06-07,1,,,,,シェンジェンシーセンホーシーイエヨウシエンゴンスー,0
710,2700150116969,新規,0,2023-06-07,2023-06-07,ホ田市優値電子商務有限公司,,外国会社等,,,,,,,,中国福建省ホ田市秀＿区ビ洲鎮汕尾村開元１２６号,00130760,,,,,2023-06-07,1,,,,,ホデンシユウチデンシシヨウムユウゲンコウシ,0
712,3010001234881,新規,0,2023-06-07,2023-06-07,株式会社ＡＯＭＩ,,株式会社,東京都,青ヶ島村,無番地,,13,402,1001701,,,,,,,2023-06-07,1,,,,,アオミ,0
713,3010001235797,新規,0,2023-06-07,2023-06-07,Ｓｐａｒｋｌｅ　ＡＩ株式会社,,株式会社,東京都,中央区,築地２丁目１２番１０号,,13,102,1040045,,,,,,,2023-06-07,1,,,,,スパークルエーアイ,0
714,3010001235806,新規,0,2023-06-07,2023-06-07,株式会社アールオーイー,,株式会社,東京都,千代田区,神田和泉町１－６－１６ヤマトビル４０５,,13,101,1010024,,,,,,,2023-06-07,1,,,,,アールオーイー,0
715,3010001235855,新規,0,2023-06-07,2023-06-07,株式会社Ｔ．Ｙ,,株式会社,東京都,中央区,日本橋人形町２丁目３３番５号,,13,102,1030013,,,,,,,2023-06-07,1,,,,,ティーワイ,0
716,3010001235938,新規,0,2023-06-07,2023-06-07,株式会社ＨＡＹＥＳ　ＴＲＡＤＩＮＧ　ＣＯＭＰＡＮＹ,,株式会社,東京都,中央区,日本橋本町３丁目３番６号ワカ末ビル７階,,13,102,1030023,,,,,,,2023-06-07,1,,,,,ヘイストレーディングカンパニー,0
717,3010001235987,新規,0,2023-06-07,2023-06-07,株式会社タリアトーレ,,株式会社,東京都,千代田区,丸の内１丁目６番２号新丸の内センタービル２１階,,13,101,1000005,,,,,,,2023-06-07,1,,,,,タリアトーレ,0
720,3010003040790,新規,0,2023-06-07,2023-06-07,分水町バイオマス発電所合同会社,,合同会社,東京都,千代田区,大手町１丁目１番１号大手町パークビルディング７１２区,,13,101,1000004,,,,,,,2023-06-07,1,,,,,ブンスイチョウバイオマスハツデンショ,0
722,3010005036787,新規,0,2023-06-07,2023-06-07,インフォート弁理士法人,,その他の設立登記法人,東京都,千代田区,紀尾井町３番１２号,,13,101,1020094,,,,,,,2023-06-07,1,,,,,インフォート,0
723,3010005036795,新規,0,2023-06-07,2023-06-07,一般社団法人クラウドネイティブイノベーターズ協会,,その他の設立登記法人,東京都,中央区,銀座１丁目１２番４号Ｎ＆Ｅ・ＢＬＤ．６Ｆ,,13,102,1040061,,,,,,,2023-06-07,1,,,,,クラウドネイティブイノベーターズキョウカイ,0
728,3010401174810,新規,0,2023-06-07,2023-06-07,ＭＳＸ株式会社,,株式会社,東京都,港区,赤坂１丁目８番１号赤坂インターシティＡＩＲ１４Ｆ,,13,103,1070052,,,,,,,2023-06-07,1,,,,,エムエスエックス,0
733,3010501050556,新規,0,2023-06-07,2023-06-07,株式会社デイリーユニフォーム,,株式会社,東京都,台東区,花川戸１丁目１２番８－７０３号,,13,106,1110033,,,,,,,2023-06-07,1,,,,,デイリーユニフォーム,0
737,3010601063219,新規,0,2023-06-07,2023-06-07,株式会社Ｌｕｎａｒｔｈ,,株式会社,東京都,江東区,扇橋２丁目２０番９号滝沢ビル１０２,,13,108,1350011,,,,,,,2023-06-07,1,,,,,ルナース,0
738,3010601063227,新規,0,2023-06-07,2023-06-07,株式会社ＴＭＰ,,株式会社,東京都,江東区,三好３丁目３番４号７０１,,13,108,1350022,,,,,,,2023-06-07,1,,,,,ティーエムピー,0
739,3010603010185,新規,0,2023-06-07,2023-06-07,合同会社ハビタット,,合同会社,東京都,墨田区,緑３丁目１６番６号緑マンション３０２号,,13,107,1300021,,,,,,,2023-06-07,1,,,,,ハビタット,0
744,3010901053183,新規,0,2023-06-07,2023-06-07,株式会社ＧＲＥＹ　ＡＲＥＡ,,株式会社,東京都,世田谷区,下馬６丁目１９番３－５０１号,,13,112,1540002,,,,,,,2023-06-07,1,,,,,グレイエリア,0
745,3010901053191,新規,0,2023-06-07,2023-06-07,株式会社Ｂｅａｕｔｙ＆Ｂｅａｓｔ,,株式会社,東京都,世田谷区,太子堂２丁目８番１７号,,13,112,1540004,,,,,,,2023-06-07,1,,,,,ビューティアンドビースト,0
746,3010901053200,新規,0,2023-06-07,2023-06-07,株式会社Ｇｒａｎｄｅ　Ａｍｏｒｅ,,株式会社,東京都,世田谷区,下馬２丁目２１番１号Ｂ１,,13,112,1540002,,,,,,,2023-06-07,1,,,,,グランドアモーレ,0
747,3010905004488,新規,0,2023-06-07,2023-06-07,一般社団法人オーシャンホールディングス,,その他の設立登記法人,東京都,世田谷区,下馬２丁目２２番９号,,13,112,1540002,,,,,,,2023-06-07,1,,,,,オーシャンホールディングス,0
751,3011001154830,新規,0,2023-06-07,2023-06-07,株式会社Ｄｉｇｉｔａｌ　Ａｒｒｏｗ　Ｐａｒｔｎｅｒｓ,,株式会社,東京都,渋谷区,渋谷２丁目２２－３渋谷東口ビル６Ｆ,,13,113,1500002,,,,,,,2023-06-07,1,,,,,デジタルアローパートナーズ,0
752,3011001154855,新規,0,2023-06-07,2023-06-07,Ｐｌｕｓｌａｂ株式会社,,株式会社,東京都,渋谷区,神泉町１０番１５号,,13,113,1500045,,,,,,,2023-06-07,1,,,,,プラスラボ,0
753,3011001154871,新規,0,2023-06-07,2023-06-07,プロップス株式会社,,株式会社,東京都,渋谷区,円山町２８番１号渋谷道玄坂スカイビル１１Ｆ,,13,113,1500044,,,,,,,2023-06-07,1,,,,,プロップス,0
754,3011001154888,新規,0,2023-06-07,2023-06-07,株式会社ＷＵ,,株式会社,東京都,渋谷区,松濤１丁目１番３号,,13,113,1500046,,,,,,,2023-06-07,1,,,,,ダブルユー,0
755,3011001154896,新規,0,2023-06-07,2023-06-07,株式会社Ｈａｉｌｅｙ．,,株式会社,東京都,渋谷区,恵比寿南１丁目１７番６号コートモデリアサウス恵比寿４０２,,13,113,1500022,,,,,,,2023-06-07,1,,,,,ヘイリー,0
756,3011001154938,新規,0,2023-06-07,2023-06-07,株式会社ＳＯＬ,,株式会社,東京都,目黒区,自由が丘２丁目１６番１２号,,13,110,1520035,,,,,,,2023-06-07,1,,,,,ソル,0
757,3011001154962,新規,0,2023-06-07,2023-06-07,株式会社リティ,,株式会社,東京都,渋谷区,神宮前６丁目２３番４号桑野ビル２階,,13,113,1500001,,,,,,,2023-06-07,1,,,,,リティ,0
758,3011001154970,新規,0,2023-06-07,2023-06-07,株式会社メルズ,,株式会社,東京都,目黒区,駒場１丁目２６番９号,,13,110,1530041,,,,,,,2023-06-07,1,,,,,メルズ,0
759,3011001154979,新規,0,2023-06-07,2023-06-07,株式会社Ｂｏｄｙ　Ｓｏｍｍｅｌｉｅｒ,,株式会社,東京都,目黒区,自由が丘１丁目２２番４号ＴＴＭＣＦＬＡＴ－３０１,,13,110,1520035,,,,,,,2023-06-07,1,,,,,ボディソムリエ,0
761,3011005010096,新規,0,2023-06-07,2023-06-07,一般社団法人青少年投資教育協会,,その他の設立登記法人,東京都,渋谷区,恵比寿４丁目２０番２－１３０９号,,13,113,1500013,,,,,,,2023-06-07,1,,,,,セイショウネントウシキョウイクキョウカイ,0
764,3011101103134,新規,0,2023-06-07,2023-06-07,株式会社ＬｕｘＳｐｅｉ,,株式会社,東京都,新宿区,新宿４丁目３番２５号,,13,104,1600022,,,,,,,2023-06-07,1,,,,,ルークススペイ,0
765,3011101103150,新規,0,2023-06-07,2023-06-07,株式会社利他,,株式会社,東京都,新宿区,神楽坂６丁目３９番地,,13,104,1620825,,,,,,,2023-06-07,1,,,,,リタ,0
769,3011105010673,新規,0,2023-06-07,2023-06-07,一般社団法人ＫＮＰ,,その他の設立登記法人,東京都,新宿区,四谷２丁目９番地１５東京ユナイテッド綜合事務所内,,13,104,1600004,,,,,,,2023-06-07,1,,,,,ケイエヌピー,0
770,3011201024701,新規,0,2023-06-07,2023-06-07,株式会社ＡＹＯ,,株式会社,東京都,中野区,南台４丁目４７番７号ヒルトップテラス笹塚１０２,,13,114,1640014,,,,,,,2023-06-07,1,,,,,エーワイオー,0
773,3011303004790,新規,0,2023-06-07,2023-06-07,ＢＹ‐ＨＥＸ合同会社,,合同会社,東京都,杉並区,清水１丁目１９番１４号,,13,115,1670033,,,,,,,2023-06-07,1,,,,,バイヘックス,0
774,3011401025177,新規,0,2023-06-07,2023-06-07,株式会社Ｍａｙ‐Ｊ,,株式会社,東京都,板橋区,仲町１４番６－１０１号,,13,119,1730022,,,,,,,2023-06-07,1,,,,,メイジェイ,0
775,3011401025185,新規,0,2023-06-07,2023-06-07,株式会社ななつ星,,株式会社,東京都,板橋区,宮本町９番１４号,,13,119,1740054,,,,,,,2023-06-07,1,,,,,ナナツボシ,0
776,3011501029391,新規,0,2023-06-07,2023-06-07,株式会社Ｒｅメイク,,株式会社,東京都,北区,赤羽１丁目４０番１１－８０２号プレール・ドゥーク赤羽ＩＩ,00130752,13,117,1150045,,,,,,,2023-06-07,1,,,,,リメイク,0
784,3011801042508,新規,0,2023-06-07,2023-06-07,株式会社児玉建装,,株式会社,東京都,足立区,神明３丁目２６番３８号,,13,121,1210051,,,,,,,2023-06-07,1,,,,,コダマケンソウ,0
785,3011801042516,新規,0,2023-06-07,2023-06-07,株式会社山峯商事,,株式会社,東京都,葛飾区,西水元６丁目１５番１７－１０１号,,13,122,1250031,,,,,,,2023-06-07,1,,,,,ヤマミネショウジ,0
786,3011801042524,新規,0,2023-06-07,2023-06-07,株式会社アティチュード,,株式会社,東京都,足立区,梅島２丁目１７番１－３０６号,,13,121,1210816,,,,,,,2023-06-07,1,,,,,アティチュード,0
787,3011801042532,新規,0,2023-06-07,2023-06-07,征和株式会社,,株式会社,東京都,足立区,谷中５丁目２番６－１０２号,,13,121,1200006,,,,,,,2023-06-07,1,,,,,セイワ,0
788,3011803005677,新規,0,2023-06-07,2023-06-07,合同会社ｎａｒｉａ,,合同会社,東京都,足立区,栗原２丁目８番２－２０３号,,13,121,1230842,,,,,,,2023-06-07,1,,,,,ナリア,0
791,3012301013478,新規,0,2023-06-07,2023-06-07,株式会社ｓｔｙｌｅＬａｂ,,株式会社,東京都,町田市,南大谷１７６番地,,13,209,1940031,,,,,,,2023-06-07,1,,,,,スタイルラボ,0
792,3012401040595,新規,0,2023-06-07,2023-06-07,株式会社リベルテ,,株式会社,東京都,狛江市,西野川２丁目１９番７号,,13,219,2010001,,,,,,,2023-06-07,1,,,,,リベルテ,0
793,3012401040612,新規,0,2023-06-07,2023-06-07,Ｏｗｎｅｒ’ｓ　Ｓａｌｏｎ株式会社,,株式会社,東京都,狛江市,岩戸北２丁目２番１７号,,13,219,2010004,,,,,,,2023-06-07,1,,,,,オーナーズサロン,0
795,3012403006017,新規,0,2023-06-07,2023-06-07,合同会社クリーム,,合同会社,東京都,武蔵野市,吉祥寺東町１丁目１８番１３号,,13,203,1800002,,,,,,,2023-06-07,1,,,,,クリーム,0
796,3012801022417,新規,0,2023-06-07,2023-06-07,株式会社グラン・レーヴ,,株式会社,東京都,昭島市,中神町１１３９番地８１,,13,207,1960022,,,,,,,2023-06-07,1,,,,,グランレーヴ,0
809,3020001151770,新規,0,2023-06-07,2023-06-07,株式会社ジョイ・ライフ化粧品研究センター,,株式会社,神奈川県,川崎市中原区,下小田中２丁目３３番２１－５０２号,,14,133,2110041,,,,,,,2023-06-07,1,,,,,ジョイライフケショウヒンケンキュウセンター,0
810,3020001151861,新規,0,2023-06-07,2023-06-07,株式会社Ｈａｎａｚ,,株式会社,神奈川県,横浜市瀬谷区,宮沢２丁目１９－１,,14,114,2460038,,,,,,,2023-06-07,1,,,,,ハナズ,0
811,3020001151969,新規,0,2023-06-07,2023-06-07,はれやか株式会社,,株式会社,神奈川県,横浜市保土ケ谷区,川島町５３９番地２２,,14,106,2400045,,,,,,,2023-06-07,1,,,,,ハレヤカ,0
812,3020001151977,新規,0,2023-06-07,2023-06-07,株式会社レジェンスエム,,株式会社,神奈川県,川崎市中原区,苅宿１９番１号,,14,133,2110022,,,,,,,2023-06-07,1,,,,,レジェンスエム,0
815,3020003024009,新規,0,2023-06-07,2023-06-07,合同会社Ａｗｅｓｏｍｅ．ｎｅｔ,,合同会社,神奈川県,横浜市西区,北幸２丁目１０番地２８むつみビル３Ｆ,,14,103,2200004,,,,,,,2023-06-07,1,,,,,オーサムネット,0
817,3021001079226,新規,0,2023-06-07,2023-06-07,株式会社Ｋ‐ＢＯＸ,,株式会社,神奈川県,綾瀬市,小園１４３３番地３１,,14,218,2521121,,,,,,,2023-06-07,1,,,,,ケーボックス,0
818,3021001079259,新規,0,2023-06-07,2023-06-07,株式会社Ｂｅ　Ｃｏｌｏｒｆｕｌ　Ｃｏｍｐａｎｙ,,株式会社,神奈川県,海老名市,扇町５番８号,,14,215,2430436,,,,,,,2023-06-07,1,,,,,ビーカラフルカンパニー,0
819,3021003013166,新規,0,2023-06-07,2023-06-07,合同会社距骨＆ＢＯＤＹにしかわ整骨院グループ,,合同会社,神奈川県,相模原市南区,上鶴間本町７丁目３１番１０号,,14,153,2520318,,,,,,,2023-06-07,1,,,,,キョコツアンドボディニシカワセイコツイングループ,0
827,3030001154228,新規,0,2023-06-07,2023-06-07,スカイホーム株式会社,,株式会社,埼玉県,さいたま市桜区,西堀２丁目５番１９号,,11,106,3380832,,,,,,,2023-06-07,1,,,,,スカイホーム,0
828,3030001154310,新規,0,2023-06-07,2023-06-07,株式会社ＪＵＮｃｒａｆｔ,,株式会社,埼玉県,白岡市,篠津２０４３番地３,,11,246,3490204,,,,,,,2023-06-07,1,,,,,ジュンクラフト,0
829,3030001154327,新規,0,2023-06-07,2023-06-07,矢口技建株式会社,,株式会社,埼玉県,久喜市,久喜東４丁目１０番１３号,,11,232,3460016,,,,,,,2023-06-07,1,,,,,ヤグチギケン,0
831,3030002125319,新規,0,2023-06-07,2023-06-07,有限会社野沢製作所,,有限会社,埼玉県,本庄市,小島南３丁目７番３２号,,11,211,3670062,,,,,,,2023-06-07,1,,,,,ノザワセイサクショ,0
837,3030003021797,新規,0,2023-06-07,2023-06-07,合同会社ＧＭＤ,,合同会社,埼玉県,越谷市,新川町２丁目３５番１号,,11,222,3430852,,,,,,,2023-06-07,1,,,,,ジーエムジー,0
838,3030003021863,新規,0,2023-06-07,2023-06-07,合同会社エイトビート,,合同会社,埼玉県,川口市,鳩ヶ谷本町１丁目１番１１－４１０号,,11,203,3340002,,,,,,,2023-06-07,1,,,,,エイトビート,0
840,3040001128676,新規,0,2023-06-07,2023-06-07,株式会社ハートスプラウト,,株式会社,千葉県,袖ケ浦市,三ツ作１４４７番地４,,12,229,2990254,,,,,,,2023-06-07,1,,,,,ハートスプラウト,0
841,3040001128726,新規,0,2023-06-07,2023-06-07,株式会社ＯＳＡ,,株式会社,千葉県,船橋市,みやぎ台１丁目８番７号コーポピオーネ１０２号,,12,204,2740804,,,,,,,2023-06-07,1,,,,,オーエスエー,0
842,3040001128759,新規,0,2023-06-07,2023-06-07,株式会社ＴＹＮ,,株式会社,千葉県,柏市,若柴１７８番地４柏の葉キャンパス１４８街区１Ｗ－２７１１,,12,217,2770871,,,,,,,2023-06-07,1,,,,,ティーワイエヌ,0
843,3040001128767,新規,0,2023-06-07,2023-06-07,株式会社ＫＥＮＺＯＵ,,株式会社,千葉県,茂原市,早野２１２８番地１－１０２号,,12,210,2970037,,,,,,,2023-06-07,1,,,,,ケンゾウ,0
844,3040001128775,新規,0,2023-06-07,2023-06-07,株式会社Ｄ．Ｉ．Ｗ,,株式会社,千葉県,千葉市中央区,蘇我３丁目２０－２ソレアード２０１,,12,101,2600822,,,,,,,2023-06-07,1,,,,,ディーアイダブル,0
847,3040003022745,新規,0,2023-06-07,2023-06-07,合同会社ｂｅｅ,,合同会社,千葉県,浦安市,北栄４丁目６番１９号,,12,227,2790002,,,,,,,2023-06-07,1,,,,,ビー,0
852,3050001052917,新規,0,2023-06-07,2023-06-07,株式会社アイシーエス,,株式会社,茨城県,牛久市,柏田町３１８６番地１フローレスリーベＢ－２０１号,,08,219,3001211,,,,,,,2023-06-07,1,,,,,アイシーエス,0
853,3050001052925,新規,0,2023-06-07,2023-06-07,仁瓦堂株式会社,,株式会社,茨城県,桜川市,長方６５１番地１,,08,231,3091222,,,,,,,2023-06-07,1,,,,,ジンガドウ,0
858,3060001036051,新規,0,2023-06-07,2023-06-07,さくら空調株式会社,,株式会社,栃木県,さくら市,馬場７９０番地１,,09,214,3291321,,,,,,,2023-06-07,1,,,,,サクラクウチョウ,0
862,3070001040507,新規,0,2023-06-07,2023-06-07,株式会社ＥＣＹ,,株式会社,群馬県,高崎市,貝沢町１４２７番地１,,10,202,3700042,,,,,,,2023-06-07,1,,,,,イーシーワイ,0
863,3070001040515,新規,0,2023-06-07,2023-06-07,株式会社ミロクトワ,,株式会社,群馬県,沼田市,坊新田町１２３３番地,,10,206,3780017,,,,,,,2023-06-07,1,,,,,ミロクトワ,0
864,3070003004971,新規,0,2023-06-07,2023-06-07,ｌｉｔ合同会社,,合同会社,群馬県,高崎市,末広町１８７番地１ベルメゾン末広Ｗ５０６号,,10,202,3700065,,,,,,,2023-06-07,1,,,,,リット,0
866,3080001025655,新規,0,2023-06-07,2023-06-07,タイラファーム株式会社,,株式会社,静岡県,牧之原市,坂口１５９３番地,,22,226,4210411,,,,,,,2023-06-07,1,,,,,タイラファーム,0
869,3080005007542,新規,0,2023-06-07,2023-06-07,弁護士法人あおい法律事務所,,その他の設立登記法人,静岡県,静岡市葵区,追手町２－２０ヤマムラビル追手町９階,,22,101,4200853,,,,,,,2023-06-07,1,,,,,アオイホウリツジムショ,0
870,3080105006345,新規,0,2023-06-07,2023-06-07,一般社団法人リンク,,その他の設立登記法人,静岡県,沼津市,足高５４７番地の２,,22,203,4100001,,,,,,,2023-06-07,1,,,,,リンク,0
872,3080401026526,新規,0,2023-06-07,2023-06-07,リタ・セ・フュージョン株式会社,,株式会社,静岡県,浜松市中区,西浅田２丁目５番３７号（１０２）,,22,131,4328045,,,,,,,2023-06-07,1,,,,,リタセフュージョン,0
874,3090001018146,新規,0,2023-06-07,2023-06-07,株式会社波戸重機,,株式会社,山梨県,富士吉田市,上吉田４５１６番地の１１,,19,202,4030005,,,,,,,2023-06-07,1,,,,,ハトジュウキ,0
876,3100001036476,新規,0,2023-06-07,2023-06-07,株式会社Ｄ‐ｆｏｒｍ,,株式会社,長野県,下伊那郡高森町,大島山９２９番地１,,20,403,3993106,,,,,,,2023-06-07,1,,,,,ディーフォーム,0
880,3110001037589,新規,0,2023-06-07,2023-06-07,株式会社ローテックホールディングス,,株式会社,新潟県,南魚沼市,六日町２２５０番地,,15,226,9496680,,,,,,,2023-06-07,1,,,,,ローテックホールディングス,0
881,3110003005065,新規,0,2023-06-07,2023-06-07,Ｓｔａｓｈ　Ｎｏｍｉｎｅｅｓ合同会社,,合同会社,新潟県,妙高市,大字関川２２４３番地１９,,15,217,9492112,,,,,,,2023-06-07,1,,,,,スタッシュノミニーズ,0
882,3110003005081,新規,0,2023-06-07,2023-06-07,Ａｋａｋｕｒａ　Ｃｅｎｔｒａｌ合同会社,,合同会社,新潟県,妙高市,大字赤倉５４９番地３３,,15,217,9492111,,,,,,,2023-06-07,1,,,,,アカクラセントラル,0
892,3120001255520,新規,0,2023-06-07,2023-06-07,クリエイティブスケッチ株式会社,,株式会社,大阪府,大阪市北区,堂島２丁目１番１６号,,27,127,5300003,,,,,,,2023-06-07,1,,,,,クリエイティブスケッチ,0
897,3120101067642,新規,0,2023-06-07,2023-06-07,株式会社ゆうなぎワークス,,株式会社,大阪府,和泉市,伯太町４丁目８番３３号,,27,219,5940023,,,,,,,2023-06-07,1,,,,,ユウナギワークス,0
898,3120101067667,新規,0,2023-06-07,2023-06-07,アイテック株式会社,,株式会社,大阪府,岸和田市,真上町１４２番地の４,,27,202,5960842,,,,,,,2023-06-07,1,,,,,アイテック,0
899,3120101067675,新規,0,2023-06-07,2023-06-07,株式会社Ｉｎｆｉｎｉ,,株式会社,大阪府,和泉市,万町９７番地の１,,27,219,5941104,,,,,,,2023-06-07,1,,,,,アンフィニー,0
900,3120101067691,新規,0,2023-06-07,2023-06-07,株式会社月城,,株式会社,大阪府,岸和田市,宮本町４１番１号,,27,202,5960054,,,,,,,2023-06-07,1,,,,,ツキシロ,0
903,3120901047620,新規,0,2023-06-07,2023-06-07,株式会社アクアフーズ,,株式会社,大阪府,吹田市,長野東１１番１１号,,27,205,5650816,,,,,,,2023-06-07,1,,,,,アクアフーズ,0
906,3120903004677,新規,0,2023-06-07,2023-06-07,Ｌｅ　ｍｉｒｏｏｉｒ合同会社,,合同会社,大阪府,茨木市,西河原１丁目５番２８号の２,,27,211,5670023,,,,,,,2023-06-07,1,,,,,ルミロワール,0
913,3130001074432,新規,0,2023-06-07,2023-06-07,株式会社ナカギ,,株式会社,京都府,久世郡久御山町,藤和田馬場崎野１５番地１近協パレス京都久御山２１１号,,26,322,6130044,,,,,,,2023-06-07,1,,,,,ナカギ,0
914,3130001074465,新規,0,2023-06-07,2023-06-07,株式会社北條工業,,株式会社,京都府,京都市伏見区,横大路畑中町２８番地,,26,109,6128282,,,,,,,2023-06-07,1,,,,,ホウジョウコウギョウ,0
915,3130001074481,新規,0,2023-06-07,2023-06-07,株式会社ＳＯＵ,,株式会社,京都府,京都市上京区,相国寺６４３－６風良都館３Ｆ,,26,102,6020000,,,,,,,2023-06-07,1,,,,,ソウ,0
916,3130003008768,新規,0,2023-06-07,2023-06-07,合同会社ｓｃｒｉｂｂｌｅ　ｌａｂ．,,合同会社,京都府,京都市下京区,七条通油小路東入大黒町２２７番地第２キョートビル４０２,,26,106,6008223,,,,,,,2023-06-07,1,,,,,スクリブルラボ,0
918,3140001130366,新規,0,2023-06-07,2023-06-07,富貴営農株式会社,,株式会社,兵庫県,丹波篠山市,東吹１３８４番地,,28,221,6692202,,,,,,,2023-06-07,1,,,,,フキエイノウ,0
921,3150001026456,新規,0,2023-06-07,2023-06-07,株式会社陽奏,,株式会社,奈良県,桜井市,大字粟殿１００６番地の１５,,29,206,6330062,,,,,,,2023-06-07,1,,,,,ヒナタ,0
922,3150001026464,新規,0,2023-06-07,2023-06-07,株式会社ＣＯＳＬＡＢＯ,,株式会社,奈良県,香芝市,真美ヶ丘２丁目１３番７号,,29,210,6390223,,,,,,,2023-06-07,1,,,,,コスラボ,0
937,3180001156531,新規,0,2023-06-07,2023-06-07,株式会社Ｋｏｕｅｉ,,株式会社,愛知県,名古屋市緑区,大高町字川添５４番地４,,23,114,4598001,,,,,,,2023-06-07,1,,,,,コウエイ,0
938,3180001156548,新規,0,2023-06-07,2023-06-07,株式会社ＳｆｉｄａＲｅ,,株式会社,愛知県,東海市,加木屋町論田５番地１５８,,23,222,4770032,,,,,,,2023-06-07,1,,,,,スフィダーレ,0
939,3180001156580,新規,0,2023-06-07,2023-06-07,株式会社好信ホールディングス,,株式会社,愛知県,名古屋市熱田区,二番２丁目１５番３号,,23,109,4560052,,,,,,,2023-06-07,1,,,,,ヨシノブホールディングス,0
940,3180001156597,新規,0,2023-06-07,2023-06-07,株式会社ゆうわい設計室,,株式会社,愛知県,知多郡武豊町,字大門田８番地１－４Ｆ,,23,447,4702555,,,,,,,2023-06-07,1,,,,,ユウワイセッケイシツ,0
941,3180001156606,新規,0,2023-06-07,2023-06-07,株式会社サンキョーイノベーション,,株式会社,愛知県,稲沢市,正明寺２丁目２２番５号,,23,220,4928145,,,,,,,2023-06-07,1,,,,,サンキョーイノベーション,0
942,3180001156614,新規,0,2023-06-07,2023-06-07,株式会社Ｂｌａｄｅ・Ｈｅａｒｔ,,株式会社,愛知県,名古屋市中区,栄４丁目７番１７号ユタカビル５階,,23,106,4600008,,,,,,,2023-06-07,1,,,,,ブレイドハート,0
943,3180001156630,新規,0,2023-06-07,2023-06-07,株式会社ＴＲ‐Ｇｒｉｔ,,株式会社,愛知県,小牧市,大字本庄２６０５番地５７,,23,219,4850821,,,,,,,2023-06-07,1,,,,,ティーアールグリット,0
944,3180001156647,新規,0,2023-06-07,2023-06-07,株式会社ＴＫＫアセットマネジメント,,株式会社,愛知県,名古屋市中区,丸の内１丁目４番１２号アレックスビル３階,,23,106,4600002,,,,,,,2023-06-07,1,,,,,ティーケーケーアセットマネジメント,0
945,3180001156655,新規,0,2023-06-07,2023-06-07,株式会社Ｓ・Ｔ・Ｂｒｅａｋ,,株式会社,愛知県,春日井市,上条町１丁目１９２番地４ＫＳＢｕｉｌｄｉｎｇ４階Ａ号室,,23,206,4860833,,,,,,,2023-06-07,1,,,,,エスティーブレイク,0
947,3180003025321,新規,0,2023-06-07,2023-06-07,合同会社志庵,,合同会社,愛知県,尾張旭市,庄南町１丁目１５－７メゾン清明山Ｂ３１２,,23,226,4880823,,,,,,,2023-06-07,1,,,,,シアン,0
951,3180301037448,新規,0,2023-06-07,2023-06-07,株式会社ブルートータス,,株式会社,愛知県,豊橋市,佐藤４丁目１２番地１,,23,201,4400853,,,,,,,2023-06-07,1,,,,,ブルートータス,0
952,3180301037464,新規,0,2023-06-07,2023-06-07,株式会社侑志,,株式会社,愛知県,豊田市,汐見町２丁目７１番地１,,23,211,4710041,,,,,,,2023-06-07,1,,,,,ユウシ,0
962,3200001041391,新規,0,2023-06-07,2023-06-07,株式会社ビーエーエヌ,,株式会社,岐阜県,各務原市,前渡東町４丁目１７０番地,,21,213,5040922,,,,,,,2023-06-07,1,,,,,ビーエーエヌ,0
971,3240001061634,新規,0,2023-06-07,2023-06-07,株式会社村上工業,,株式会社,広島県,安芸郡海田町,南幸町１番３８－１０２号,,34,304,7360032,,,,,,,2023-06-07,1,,,,,ムラカミコウギョウ,0
977,3250003003286,新規,0,2023-06-07,2023-06-07,ＴＥＮＭＡ合同会社,,合同会社,山口県,周南市,城ケ丘３丁目１１番８－３０６号,,35,215,7450807,,,,,,,2023-06-07,1,,,,,テンマ,0
983,3260001038011,新規,0,2023-06-07,2023-06-07,株式会社新田フェンス,,株式会社,岡山県,津山市,二宮７９６番地２９,,33,203,7080013,,,,,,,2023-06-07,1,,,,,ニッタフェンス,0
993,3290001101732,新規,0,2023-06-07,2023-06-07,株式会社カナシン,,株式会社,福岡県,福岡市南区,桧原７丁目４８番２１号,,40,134,8111355,,,,,,,2023-06-07,1,,,,,カナシン,0
994,3290001101831,新規,0,2023-06-07,2023-06-07,株式会社たなぼた,,株式会社,福岡県,福岡市博多区,博多駅南２丁目１４番２８－８０５号,,40,132,8120016,,,,,,,2023-06-07,1,,,,,タナボタ,0
995,3290001101848,新規,0,2023-06-07,2023-06-07,株式会社ＭｙＬｉｆｅ,,株式会社,福岡県,糸島市,志摩小富士３５２番地,,40,230,8191321,,,,,,,2023-06-07,1,,,,,マイライフ,0
998,3290003013991,新規,0,2023-06-07,2023-06-07,合同会社小鳥鈴,,合同会社,福岡県,福岡市城南区,七隈７丁目３８番１５号レジデンス和光１１６,,40,136,8140133,,,,,,,2023-06-07,1,,,,,コトリスズ,0
1002,3290801029594,新規,0,2023-06-07,2023-06-07,ＴＨ．ｄｅｓｉｇｎ株式会社,,株式会社,福岡県,北九州市若松区,浜町１丁目４番１５号,,40,103,8080024,,,,,,,2023-06-07,1,,,,,ティエイチデザイン,0
1004,3320001019814,新規,0,2023-06-07,2023-06-07,浪井丸天水産株式会社,,株式会社,大分県,佐伯市,蒲江大字西野浦１９８番地４,,44,205,8762302,,,,,,,2023-06-07,1,,,,,ナミイマルテンスイサン,0
1007,3330001030943,新規,0,2023-06-07,2023-06-07,株式会社Ｃｏｅｕｒ,,株式会社,熊本県,熊本市北区,植木町平野４２１番地１,,43,105,8610144,,,,,,,2023-06-07,1,,,,,クール,0
1012,3340005009611,新規,0,2023-06-07,2023-06-07,姶良・霧島行政書士法人,,その他の設立登記法人,鹿児島県,姶良市,東餅田１２７０番地１２,,46,225,8995421,,,,,,,2023-06-07,1,,,,,アイラキリシマ,0
1013,3350001018400,新規,0,2023-06-07,2023-06-07,株式会社３５２３,,株式会社,宮崎県,宮崎市,青島３丁目１２番２２号,,45,201,8892162,,,,,,,2023-06-07,1,,,,,サンゴーニーサン,0
1014,3360001032111,新規,0,2023-06-07,2023-06-07,株式会社萬裕,,株式会社,沖縄県,那覇市,曙１丁目１５番２号,,47,201,9000002,,,,,,,2023-06-07,1,,,,,マンユウ,0
1017,3360003013043,新規,0,2023-06-07,2023-06-07,合同会社スリール,,合同会社,沖縄県,浦添市,牧港２丁目５０－３－５０４,,47,208,9012131,,,,,,,2023-06-07,1,,,,,スリール,0
1020,3370001050054,新規,0,2023-06-07,2023-06-07,ベイ不動産株式会社,,株式会社,宮城県,塩竈市,藤倉３丁目１７番９号ＳＳオフィスＢ棟,,04,203,9850004,,,,,,,2023-06-07,1,,,,,ベイフドウサン,0
1021,3370001050062,新規,0,2023-06-07,2023-06-07,株式会社ドローン・アーキテクチャア・アンド・アグリカルチャア・テクニカルサービス仙台,,株式会社,宮城県,仙台市青葉区,旭ケ丘１丁目４２番１－１０４号,,04,101,9810904,,,,,,,2023-06-07,1,,,,,ドローンアーキテクチャアアンドアグリカルチャアテクニカルサービスセンダイ,0
1023,3380001033743,新規,0,2023-06-07,2023-06-07,株式会社イナムラ物産,,株式会社,福島県,会津若松市,北会津町水季の里１００番地,,07,202,9696015,,,,,,,2023-06-07,1,,,,,イナムラブッサン,0
1024,3380001033751,新規,0,2023-06-07,2023-06-07,株式会社ＹＫ,,株式会社,福島県,いわき市,平字愛谷町三丁目６番地の４ノワグレーヌＣ１０２,,07,204,9708026,,,,,,,2023-06-07,1,,,,,ワイケー,0
1026,3380003005476,新規,0,2023-06-07,2023-06-07,合同会社メンタルヘルスサポート福島,,合同会社,福島県,福島市,陣場町５番３０号いげた陣場マンション３０１,,07,201,9608032,,,,,,,2023-06-07,1,,,,,メンタルヘルスサポートフクシマ,0
1032,3420001018285,新規,0,2023-06-07,2023-06-07,株式会社都市開発,,株式会社,青森県,青森市,花園１丁目２８番２０号メゾン花園ＩＩ１０２号,00130746,02,201,0300966,,,,,,,2023-06-07,1,,,,,トシカイハツ,0
1037,3430001089276,新規,0,2023-06-07,2023-06-07,株式会社ユナイテック,,株式会社,北海道,札幌市東区,東苗穂十一条１丁目６番６号,,01,103,0070811,,,,,,,2023-06-07,1,,,,,ユナイテック,0
1038,3430001089284,新規,0,2023-06-07,2023-06-07,ｋｅｅｐＡ株式会社,,株式会社,北海道,札幌市中央区,南一条西１６丁目１番地３２３春野ビル３Ｆ,,01,101,0600061,,,,,,,2023-06-07,1,,,,,キープエー,0
1039,3430001089292,新規,0,2023-06-07,2023-06-07,株式会社ＹＫ工業,,株式会社,北海道,札幌市東区,東苗穂十三条２丁目２４番３７号,,01,103,0070813,,,,,,,2023-06-07,1,,,,,ワイケーコウギョウ,0
1042,3430003015123,新規,0,2023-06-07,2023-06-07,合同会社Ｈａｒｕｔｏ,,合同会社,北海道,札幌市白石区,中央二条５丁目４番５号,,01,104,0030012,,,,,,,2023-06-07,1,,,,,ハルト,0
1044,3440003001527,新規,0,2023-06-07,2023-06-07,合同会社ＰＩ３ＣＥ,,合同会社,北海道,亀田郡七飯町,大川５丁目４３番１４号,,01,337,0411122,,,,,,,2023-06-07,1,,,,,スリーピース,0
1045,3460101007390,新規,0,2023-06-07,2023-06-07,株式会社なのはな,,株式会社,北海道,帯広市,西二十二条南４丁目１８番地９タウンアメニティ２２４Ａ号,,01,207,0802472,,,,,,,2023-06-07,1,,,,,ナノハナ,0
1046,3470001019642,新規,0,2023-06-07,2023-06-07,株式会社ＨＩＴＯＥ,,株式会社,香川県,高松市,高松町１５５７番地１８,,37,201,7610104,,,,,,,2023-06-07,1,,,,,ヒトエ,0
1047,3470001019650,新規,0,2023-06-07,2023-06-07,株式会社ＣＯＬＯＲＳＳ,,株式会社,香川県,丸亀市,川西町北２０３４番地２サイレントハイツ２号,,37,202,7630091,,,,,,,2023-06-07,1,,,,,カラーズ,0
1048,3480001012118,新規,0,2023-06-07,2023-06-07,株式会社白金福助,,株式会社,徳島県,徳島市,銀座１２番地２,,36,201,7700916,,,,,,,2023-06-07,1,,,,,,0
1050,3480005006966,新規,0,2023-06-07,2023-06-07,一般社団法人ＥＮＩＳＩＡ,,その他の設立登記法人,徳島県,板野郡藍住町,笠木字東野１３番地８,,36,403,7711261,,,,,,,2023-06-07,1,,,,,エニシア,0
1053,3500001024993,新規,0,2023-06-07,2023-06-07,株式会社ユウスイ,,株式会社,愛媛県,伊予市,米湊１４９５番地３,,38,210,7993113,,,,,,,2023-06-07,1,,,,,ユウスイ,0
1056,3700150077896,新規,0,2023-06-07,2016-11-24,羽島市観光協会,,その他,岐阜県,羽島市,竹鼻町２６１４,,21,209,5016241,,,,,,,2016-11-24,1,,,,,ハシマシカンコウキヨウカイ,0
1059,3700150116968,新規,0,2023-06-07,2023-06-07,温州電兔電子商務有限公司,,外国会社等,,,,,,,,中国浙江省温州高新技術産業開発区蘭江路１８８号Ａ幢２０８室,,,,,,2023-06-07,1,,,,,オンシユウデントデンシシヨウムユウゲンコウシ,0
1071,4010001235821,新規,0,2023-06-07,2023-06-07,株式会社アナモグ,,株式会社,東京都,中央区,銀座１丁目２２番１１号銀座大竹ビジデンス２階,,13,102,1040061,,,,,,,2023-06-07,1,,,,,アナモグ,0
1072,4010001235846,新規,0,2023-06-07,2023-06-07,株式会社ｍｕｓｕｂｉ．,,株式会社,東京都,中央区,日本橋堀留町１丁目４番２号６Ｆ,,13,102,1030012,,,,,,,2023-06-07,1,,,,,ムスビ,0
1073,4010001235879,新規,0,2023-06-07,2023-06-07,株式会社シュティール,,株式会社,東京都,文京区,本郷３丁目１７番８－２０２号,,13,105,1130033,,,,,,,2023-06-07,1,,,,,シュティール,0
1074,4010001235887,新規,0,2023-06-07,2023-06-07,ＮＹＣＩ５株式会社,,株式会社,東京都,中央区,新川１丁目６番１１号,,13,102,1040033,,,,,,,2023-06-07,1,,,,,エヌワイシーアイファイブ,0
1075,4010001235912,新規,0,2023-06-07,2023-06-07,未来共創株式会社,,株式会社,東京都,千代田区,霞が関３丁目６番１４号三久ビル２０２号室,,13,101,1000013,,,,,,,2023-06-07,1,,,,,ミライキョウソウ,0
1076,4010001235920,新規,0,2023-06-07,2023-06-07,マルタカ林商株式会社,,株式会社,東京都,中央区,銀座１丁目２２番１１号銀座大竹ビジデンス２Ｆ,,13,102,1040061,,,,,,,2023-06-07,1,,,,,マルタカリンショウ,0
1080,4010005036794,新規,0,2023-06-07,2023-06-07,一般社団法人ＨＷＡ協会,,その他の設立登記法人,東京都,千代田区,内神田２丁目５番３号,,13,101,1010047,,,,,,,2023-06-07,1,,,,,エイチダブリューエー,0
1081,4010103002153,新規,0,2023-06-07,2023-06-07,合同会社ａｔＷｉｌｌ,,合同会社,東京都,八王子市,狭間町１４５５番地２３ウエストサイドＴＯＫＹＯ１０３,,13,201,1930941,,,,,,,2023-06-07,1,,,,,アットウィル,0
1084,4010401174900,新規,0,2023-06-07,2023-06-07,株式会社日本国際教育研究所,,株式会社,東京都,港区,白金２丁目７番１２号,,13,103,1080072,,,,,,,2023-06-07,1,,,,,ニホンコクサイキョウイクケンキュウジョ,0
1088,4010501050555,新規,0,2023-06-07,2023-06-07,株式会社嬌栄,,株式会社,東京都,台東区,根岸１丁目５番１６号,,13,106,1100003,,,,,,,2023-06-07,1,,,,,キョウエイ,0
1095,4010703006727,新規,0,2023-06-07,2023-06-07,合同会社ＭＩＹＡ,,合同会社,東京都,品川区,戸越４丁目１１番１５－８０３号,,13,109,1420041,,,,,,,2023-06-07,1,,,,,ミヤ,0
1099,4010801034019,新規,0,2023-06-07,2023-06-07,株式会社リアルエステート菅原,,株式会社,東京都,大田区,矢口１丁目２２番１５号,,13,111,1460093,,,,,,,2023-06-07,1,,,,,リアルエステートスガワラ,0
1101,4010901053182,新規,0,2023-06-07,2023-06-07,株式会社ｃｈｅｒｉｍｅｎｔ,,株式会社,東京都,世田谷区,喜多見５丁目２０番１号,,13,112,1570067,,,,,,,2023-06-07,1,,,,,チェリメント,0
1102,4010901053190,新規,0,2023-06-07,2023-06-07,株式会社グリュックリッヒ,,株式会社,東京都,世田谷区,祖師谷６丁目２８番７３号,,13,112,1570072,,,,,,,2023-06-07,1,,,,,グリュックリッヒ,0
1103,4010901053199,新規,0,2023-06-07,2023-06-07,ＤＤ　Ｎｅｘｕｓ　Ｐａｒｔｎｅｒｓ株式会社,,株式会社,東京都,世田谷区,太子堂３丁目１１番１３号,,13,112,1540004,,,,,,,2023-06-07,1,,,,,ディーディーネクサスパートナーズ,0
1104,4010901053208,新規,0,2023-06-07,2023-06-07,株式会社はち屋,,株式会社,東京都,世田谷区,等々力５丁目４番１８号,,13,112,1580082,,,,,,,2023-06-07,1,,,,,ハチヤ,0
1106,4010903008218,新規,0,2023-06-07,2023-06-07,合同会社ＴＡＡＣ,,合同会社,東京都,世田谷区,松原３丁目６番９号グランチェリー１０２,,13,112,1560043,,,,,,,2023-06-07,1,,,,,ターク,0
1107,4010903008226,新規,0,2023-06-07,2023-06-07,Ａｕｒｕｍ合同会社,,合同会社,東京都,世田谷区,下馬６丁目８番１７号メゾンドリラ１０２,,13,112,1540002,,,,,,,2023-06-07,1,,,,,オーラム,0
1115,4011001154846,新規,0,2023-06-07,2023-06-07,株式会社７２,,株式会社,東京都,渋谷区,神山町４１－７エクティ神山町１０１,,13,113,1500047,,,,,,,2023-06-07,1,,,,,セブンツー,0
1116,4011001154854,新規,0,2023-06-07,2023-06-07,ｃｈｉｂｉ株式会社,,株式会社,東京都,目黒区,中町１丁目５番２１号,,13,110,1530065,,,,,,,2023-06-07,1,,,,,チビ,0
1117,4011001154912,新規,0,2023-06-07,2023-06-07,ＥＭＩ株式会社,,株式会社,東京都,渋谷区,円山町１０番１２号ランドステージ渋谷２０１,,13,113,1500044,,,,,,,2023-06-07,1,,,,,イーエムアイ,0
1118,4011001154929,新規,0,2023-06-07,2023-06-07,株式会社ｔｙｐｅ　ａＢ,,株式会社,東京都,渋谷区,恵比寿４丁目１７番８号第２エビスハイツ５０１,,13,113,1500013,,,,,,,2023-06-07,1,,,,,タイプエービー,0
1119,4011003016945,新規,0,2023-06-07,2023-06-07,合同会社かしわプリント,,合同会社,東京都,渋谷区,神宮前３丁目３２番１号Ｂ１Ｆ,,13,113,1500001,,,,,,,2023-06-07,1,,,,,カシワプリント,0
1129,4011101103141,新規,0,2023-06-07,2023-06-07,株式会社ルプロＣＳジャポン,,株式会社,東京都,新宿区,須賀町３番地１０,,13,104,1600018,,,,,,,2023-06-07,1,,,,,ルプロシーエスジャポン,0
1130,4011101103166,新規,0,2023-06-07,2023-06-07,東洋製薬株式会社,,株式会社,東京都,新宿区,百人町３丁目１番６号,,13,104,1690073,,,,,,,2023-06-07,1,,,,,トウヨウセイヤク,0
1136,4011203004097,新規,0,2023-06-07,2023-06-07,合同会社Ｔ．Ｉ．Ｃパートナーズ,,合同会社,東京都,中野区,中野５丁目５１番１４号稲垣ビル２階,,13,114,1640001,,,,,,,2023-06-07,1,,,,,ティーアイシーパートナーズ,0
1138,4011401025176,新規,0,2023-06-07,2023-06-07,株式会社濱口,,株式会社,東京都,板橋区,前野町３丁目１番１－２３０号ときわ台メリーガーデン,,13,119,1740063,,,,,,,2023-06-07,1,,,,,ハマグチ,0
1140,4011603003946,新規,0,2023-06-07,2023-06-07,合同会社蝶々結び,,合同会社,東京都,練馬区,豊玉中３丁目１９－６－１０４,,13,120,1760013,,,,,,,2023-06-07,1,,,,,チョウチョウムスビ,0
1143,4011701026304,新規,0,2023-06-07,2023-06-07,株式会社エルエス,,株式会社,東京都,江戸川区,船堀７丁目７番４号,,13,123,1340091,,,,,,,2023-06-07,1,,,,,エルエス,0
1145,4011801042523,新規,0,2023-06-07,2023-06-07,株式会社シー・チェンジ,,株式会社,東京都,足立区,平野１丁目１１番１０号,,13,121,1210076,,,,,,,2023-06-07,1,,,,,シーチェンジ,0
1146,4011801042531,新規,0,2023-06-07,2023-06-07,株式会社ブライラント,,株式会社,東京都,葛飾区,亀有４丁目３４番１５号,,13,122,1250061,,,,,,,2023-06-07,1,,,,,ブライラント,0
1147,4012401040603,新規,0,2023-06-07,2023-06-07,株式会社ラビット引越センター,,株式会社,東京都,三鷹市,下連雀１丁目９番２８号ガーデン武尊２０２,,13,204,1810013,,,,,,,2023-06-07,1,,,,,ラビットヒッコシセンター,0
1148,4012401040611,新規,0,2023-06-07,2023-06-07,株式会社幕末維新同好会,,株式会社,東京都,調布市,布田２丁目４０－１,,13,208,1820024,,,,,,,2023-06-07,1,,,,,バクマツイシンドウコウカイ,0
1149,4012405004868,新規,0,2023-06-07,2023-06-07,一般社団法人全国エコエネルギー活用推進協会,,その他の設立登記法人,東京都,稲城市,矢野口１５６番地の３,,13,225,2060812,,,,,,,2023-06-07,1,,,,,ゼンコクエコエネルギーカツヨウスイシンキョウカイ,0
1152,4012705002357,新規,0,2023-06-07,2023-06-07,特定非営利活動法人国際親善教育機構,,その他の設立登記法人,東京都,小平市,美園町１丁目７番１４号,,13,211,1870041,,,,,,,2023-06-07,1,,,,,,0
1161,4020001151877,新規,0,2023-06-07,2023-06-07,ＫＡＭＩＳＯＲＩ　ＷＯＲＸ株式会社,,株式会社,神奈川県,横浜市保土ケ谷区,常盤台３０－３－２,,14,106,2400067,,,,,,,2023-06-07,1,,,,,カミソリワークス,0
1162,4020001151893,新規,0,2023-06-07,2023-06-07,ＲＡＨＥＮ株式会社,,株式会社,神奈川県,川崎市中原区,井田３丁目１番１９号,,14,133,2110035,,,,,,,2023-06-07,1,,,,,ラヘン,0
1163,4020001151919,新規,0,2023-06-07,2023-06-07,株式会社マニョリア,,株式会社,神奈川県,横浜市西区,浅間町１丁目４番３号ウィザードビル４０２,,14,103,2200072,,,,,,,2023-06-07,1,,,,,マニョリア,0
1164,4020001151943,新規,0,2023-06-07,2023-06-07,株式会社建翔,,株式会社,神奈川県,横浜市旭区,白根５丁目１０番１号ＡＯＫＩＹＡＢＬＤ２階,,14,112,2410005,,,,,,,2023-06-07,1,,,,,ケンショウ,0
1168,4020003023991,新規,0,2023-06-07,2023-06-07,輝騰合同会社,,合同会社,神奈川県,横浜市中区,弥生町１丁目５－１ライオンズマンション伊勢佐木長者町第２２０３号室,,14,104,2310058,,,,,,,2023-06-07,1,,,,,キトウ,0
1174,4021001079233,新規,0,2023-06-07,2023-06-07,株式会社翔電社,,株式会社,神奈川県,平塚市,纒３２番地の３,,14,203,2540901,,,,,,,2023-06-07,1,,,,,ショウデンシャ,0
1178,4021005012834,新規,0,2023-06-07,2023-06-07,一般社団法人スクールライフ,,その他の設立登記法人,神奈川県,小田原市,本町２丁目４番２３号,,14,206,2500012,,,,,,,2023-06-07,1,,,,,,0
1183,4030001154202,新規,0,2023-06-07,2023-06-07,株式会社スパイダープロモーション,,株式会社,埼玉県,川口市,芝新町９番３号,,11,203,3330851,,,,,,,2023-06-07,1,,,,,スパイダープロモーション,0
1184,4030001154210,新規,0,2023-06-07,2023-06-07,株式会社Ｃａｍａｒｏ,,株式会社,埼玉県,鴻巣市,幸町６番地２４,,11,217,3650057,,,,,,,2023-06-07,1,,,,,カマロ,0
1185,4030001154243,新規,0,2023-06-07,2023-06-07,株式会社ＭＤＲ,,株式会社,埼玉県,川口市,大字東本郷６８９番地,,11,203,3340063,,,,,,,2023-06-07,1,,,,,エムディーアール,0
1186,4030001154251,新規,0,2023-06-07,2023-06-07,株式会社Ｈｅａｔ‐ｅｒ,,株式会社,埼玉県,和光市,白子３丁目３３番１９号,,11,229,3510101,,,,,,,2023-06-07,1,,,,,ヒーター,0
1187,4030001154268,新規,0,2023-06-07,2023-06-07,株式会社したみ屋,,株式会社,埼玉県,三郷市,泉２丁目２０番地３,,11,237,3410054,,,,,,,2023-06-07,1,,,,,シタミヤ,0
1188,4030001154276,新規,0,2023-06-07,2023-06-07,株式会社ＫＮＴ,,株式会社,埼玉県,大里郡寄居町,大字赤浜１０８５番地１,,11,408,3691211,,,,,,,2023-06-07,1,,,,,ケーエヌティー,0
1195,4030003021870,新規,0,2023-06-07,2023-06-07,ＨＡＲＯＯＮ　ＴＲＡＤＩＮＧ合同会社,,合同会社,埼玉県,川口市,大字源左衛門新田２９４－１,,11,203,3330822,,,,,,,2023-06-07,1,,,,,ハルーントレーディング,0
1204,4040001128650,新規,0,2023-06-07,2023-06-07,光基礎工業株式会社,,株式会社,千葉県,柏市,藤ケ谷１１９７番２,,12,217,2770931,,,,,,,2023-06-07,1,,,,,ヒカリキソコウギョウ,0
1205,4040001128691,新規,0,2023-06-07,2023-06-07,真琴アート株式会社,,株式会社,千葉県,佐倉市,上志津１０７７番地４２,,12,212,2850846,,,,,,,2023-06-07,1,,,,,マコトアート,0
1206,4040001128709,新規,0,2023-06-07,2023-06-07,ホッとケアファミリー株式会社,,株式会社,千葉県,成田市,橋賀台１丁目１７番地４７,,12,211,2860037,,,,,,,2023-06-07,1,,,,,ホットケアファミリー,0
1207,4040001128717,新規,0,2023-06-07,2023-06-07,株式会社ＴＮＦ,,株式会社,千葉県,市川市,妙典４丁目１２番２３－２０１号,,12,203,2720111,,,,,,,2023-06-07,1,,,,,ティーエヌエフ,0
1208,4040001128725,新規,0,2023-06-07,2023-06-07,株式会社レストレイション,,株式会社,千葉県,船橋市,上山町２丁目２６６番地６,,12,204,2730046,,,,,,,2023-06-07,1,,,,,レストレイション,0
1209,4040001128766,新規,0,2023-06-07,2023-06-07,株式会社やまなつ,,株式会社,千葉県,松戸市,五香西３丁目２４－６,,12,207,2702218,,,,,,,2023-06-07,1,,,,,ヤマナツ,0
1210,4040001128782,新規,0,2023-06-07,2023-06-07,株式会社ＴＡＳＵＫＡＲＵ,,株式会社,千葉県,流山市,流山４丁目５２４番地の３,,12,220,2700164,,,,,,,2023-06-07,1,,,,,タスカル,0
1213,4040003022744,新規,0,2023-06-07,2023-06-07,合同会社ＨＡＲＵ,,合同会社,千葉県,松戸市,千駄堀１６２２番地の１メゾン・ド・オランジェ２０３号,,12,207,2702252,,,,,,,2023-06-07,1,,,,,ハル,0
1214,4040003022752,新規,0,2023-06-07,2023-06-07,ＡＳＡＬＩＹＡ　ＩＮＴＥＲＮＡＴＩＯＮＡＬ合同会社,,合同会社,千葉県,山武市,埴谷２６４３番Ｅ棟,,12,237,2891223,,,,,,,2023-06-07,1,,,,,アサリヤインターナショナル,0
1215,4040003022760,新規,0,2023-06-07,2023-06-07,合同会社エヌカロッテェ,,合同会社,千葉県,袖ケ浦市,谷中９７番地３,,12,229,2990234,,,,,,,2023-06-07,1,,,,,エヌカロッテェ,0
1216,4040005022024,新規,0,2023-06-07,2023-06-07,ＮＰＯ法人Ａｑｕａ　Ｄｒｅａｍ　Ｐｒｏｊｅｃｔ,,その他の設立登記法人,千葉県,千葉市美浜区,ひび野２丁目３番地,,12,106,2610021,,,,,,,2023-06-07,1,,,,,アクアドリームプロジェクト,0
1219,4050001052932,新規,0,2023-06-07,2023-06-07,株式会社ＢＥ,,株式会社,茨城県,東茨城郡城里町,大字石塚７４３番地の１,,08,310,3114303,,,,,,,2023-06-07,1,,,,,ビー,0
1220,4050005013278,新規,0,2023-06-07,2023-06-07,一般社団法人サクセサビリティ,,その他の設立登記法人,茨城県,つくば市,天王台１丁目１番１,,08,220,3050006,,,,,,,2023-06-07,1,,,,,サクセサビリティ,0
1221,4060001036067,新規,0,2023-06-07,2023-06-07,株式会社陽だまりデザイン,,株式会社,栃木県,宇都宮市,日の出１丁目７番４号,,09,201,3200832,,,,,,,2023-06-07,1,,,,,ヒダマリデザイン,0
1223,4060003004591,新規,0,2023-06-07,2023-06-07,合同会社Ｍ．ＡＦＺＡＬ　ＴＲＡＤＥＲＳ,,合同会社,栃木県,小山市,大字南半田２０５３－１４スカイピーク２０１,,09,208,3230011,,,,,,,2023-06-07,1,,,,,エムアフザルトレーダーズ,0
1227,4070003004962,新規,0,2023-06-07,2023-06-07,ＹＤＬ合同会社,,合同会社,群馬県,太田市,石原町２３０番地３,,10,205,3730808,,,,,,,2023-06-07,1,,,,,ワイディエル,0
1230,4080001025654,新規,0,2023-06-07,2023-06-07,中村建設株式会社,,株式会社,静岡県,静岡市葵区,柳町１８７番地の３,,22,101,4200007,,,,,,,2023-06-07,1,,,,,ナカムラケンセツ,0
1231,4080001025662,新規,0,2023-06-07,2023-06-07,株式会社ＴＴＳ,,株式会社,静岡県,静岡市葵区,南沼上１丁目３番２５号,,22,101,4200905,,,,,,,2023-06-07,1,,,,,ティーティーエス,0
1237,4080101024052,新規,0,2023-06-07,2023-06-07,株式会社ＨＡＤＡＮＯ,,株式会社,静岡県,伊豆市,熊坂１２５７番地の９７,,22,222,4102411,,,,,,,2023-06-07,1,,,,,ハダノ,0
1238,4080101024060,新規,0,2023-06-07,2023-06-07,株式会社光建,,株式会社,静岡県,伊豆の国市,南條１９４番地の１高野パーキングハイツ２０５号室,,22,225,4102114,,,,,,,2023-06-07,1,,,,,コウケン,0
1241,4080401026525,新規,0,2023-06-07,2023-06-07,結美不動産株式会社,,株式会社,静岡県,御前崎市,佐倉２９７６番地の１,,22,223,4371604,,,,,,,2023-06-07,1,,,,,ムスビフドウサン,0
1247,4100001036475,新規,0,2023-06-07,2023-06-07,株式会社清流の里,,株式会社,長野県,松本市,梓川倭３２２番地１,,20,202,3901701,,,,,,,2023-06-07,1,,,,,セイリュウノサト,0
1250,4100003007045,新規,0,2023-06-07,2023-06-07,Ｋ・Ｉ・Ｔサービス合同会社,,合同会社,長野県,松本市,大字島内２０４７番地１１タウニービュー２０１号,,20,202,3900851,,,,,,,2023-06-07,1,,,,,ケーアイティサービス,0
1254,4110003005080,新規,0,2023-06-07,2023-06-07,問いの工房合同会社,,合同会社,新潟県,新潟市秋葉区,中野４丁目１３番５号,,15,105,9560805,,,,,,,2023-06-07,1,,,,,トイノコウボウ,0
1264,4120001255404,新規,0,2023-06-07,2023-06-07,株式会社ＮＵＤＩＴＹ　ＤＲＥＳＳ,,株式会社,大阪府,大阪市西区,北堀江２丁目８番１７－１０２号,,27,106,5500014,,,,,,,2023-06-07,1,,,,,ヌディティドレス,0
1265,4120001255412,新規,0,2023-06-07,2023-06-07,株式会社Ｓｅｌ　ＣｈｅＲ,,株式会社,大阪府,大阪市福島区,福島３丁目１番５５－１７０２号,,27,103,5530003,,,,,,,2023-06-07,1,,,,,セルシェール,0
1266,4120003024204,新規,0,2023-06-07,2023-06-07,合同会社アイルウェスト,,合同会社,大阪府,大阪市此花区,西九条２丁目１０番１３号,,27,104,5540012,,,,,,,2023-06-07,1,,,,,アイルウェスト,0
1270,4120101067641,新規,0,2023-06-07,2023-06-07,株式会社Ｅ‐ＳＴ,,株式会社,大阪府,泉南郡熊取町,大久保南２丁目３番１７号,,27,361,5900405,,,,,,,2023-06-07,1,,,,,エスト,0
1271,4120101067658,新規,0,2023-06-07,2023-06-07,株式会社豊テック,,株式会社,大阪府,泉大津市,助松町３丁目１６番１７号,,27,206,5950071,,,,,,,2023-06-07,1,,,,,トヨテック,0
1272,4120101067666,新規,0,2023-06-07,2023-06-07,株式会社アンパサンド,,株式会社,大阪府,大阪狭山市,大野台７丁目１２番７号,,27,231,5890023,,,,,,,2023-06-07,1,,,,,アンパサンド,0
1274,4120103005260,新規,0,2023-06-07,2023-06-07,３５８合同会社,,合同会社,大阪府,貝塚市,小瀬３８７－１レオパレスＫＯＫＡＤＯ１０１,,27,208,5970021,,,,,,,2023-06-07,1,,,,,サンゴウハチ,0
1278,4120901047611,新規,0,2023-06-07,2023-06-07,株式会社Ｍｅｄ　ＮＹＫ,,株式会社,大阪府,箕面市,石丸３丁目１１番２２号,,27,220,5620027,,,,,,,2023-06-07,1,,,,,メドエヌワイケー,0
1280,4122001037047,新規,0,2023-06-07,2023-06-07,株式会社ＪＳ‐ＴＥＣ,,株式会社,大阪府,大東市,寺川３丁目１番４５号,,27,218,5740014,,,,,,,2023-06-07,1,,,,,ジェイエステック,0
1287,4130001074431,新規,0,2023-06-07,2023-06-07,株式会社祇園町屋,,株式会社,京都府,京都市東山区,祇園町南側５７０番地２６０,,26,105,6050074,,,,,,,2023-06-07,1,,,,,ギオンマチヤ,0
1288,4130001074464,新規,0,2023-06-07,2023-06-07,Ｔｒｅｖｉｓｔａ株式会社,,株式会社,京都府,京都市左京区,下鴨宮崎町１１９－１,,26,103,6060802,,,,,,,2023-06-07,1,,,,,トレヴィスタ,0
1301,4180001156530,新規,0,2023-06-07,2023-06-07,株式会社ＢＦＬ,,株式会社,愛知県,名古屋市中区,栄４丁目１１番１６号ＡＴＳ栄ビル５０２号,,23,106,4600008,,,,,,,2023-06-07,1,,,,,ビーエフエル,0
1302,4180001156547,新規,0,2023-06-07,2023-06-07,株式会社ＳＰＩＣＡ,,株式会社,愛知県,名古屋市緑区,亀が洞３丁目１３０４番地,,23,114,4580804,,,,,,,2023-06-07,1,,,,,スピカ,0
1303,4180001156571,新規,0,2023-06-07,2023-06-07,株式会社ＳＴＯＲＡＧＥＯＮＥ,,株式会社,愛知県,名古屋市港区,須成町３丁目３８番地,,23,111,4550072,,,,,,,2023-06-07,1,,,,,ストレージワン,0
1304,4180001156588,新規,0,2023-06-07,2023-06-07,株式会社ヒガシメタル,,株式会社,愛知県,名古屋市東区,東片端町１６番地の１プロビデンス東片端５０２号,,23,102,4610015,,,,,,,2023-06-07,1,,,,,ヒガシメタル,0
1305,4180001156596,新規,0,2023-06-07,2023-06-07,株式会社未来インフラ五縁,,株式会社,愛知県,一宮市,千秋町佐野字白山４８５番地３１,,23,203,4910804,,,,,,,2023-06-07,1,,,,,ミライインフラゴエン,0
1306,4180001156621,新規,0,2023-06-07,2023-06-07,株式会社エステムカンパニー,,株式会社,愛知県,名古屋市南区,弥次ヱ町２丁目１９番地の１,,23,112,4570821,,,,,,,2023-06-07,1,,,,,エステムカンパニー,0
1307,4180001156638,新規,0,2023-06-07,2023-06-07,株式会社ＰＯＳＴ　ＤＥＳＩＧＮ,,株式会社,愛知県,大府市,共和町７丁目２２３番地,,23,223,4740061,,,,,,,2023-06-07,1,,,,,ポストデザイン,0
1308,4180001156679,新規,0,2023-06-07,2023-06-07,株式会社Ｄ’ｓＡＭ,,株式会社,愛知県,名古屋市西区,城町１９０番地の２,,23,104,4520842,,,,,,,2023-06-07,1,,,,,ディーズエーエム,0
1310,4180003025295,新規,0,2023-06-07,2023-06-07,合同会社誠,,合同会社,愛知県,大府市,若草町１丁目４３５番地の１９,,23,223,4740022,,,,,,,2023-06-07,1,,,,,マコト,0
1311,4180003025312,新規,0,2023-06-07,2023-06-07,Ｎ．プラン合同会社,,合同会社,愛知県,名古屋市中川区,小本本町２丁目５９グレイス小本本町３０２,,23,110,4540826,,,,,,,2023-06-07,1,,,,,エヌプラン,0
1316,4180303005740,新規,0,2023-06-07,2023-06-07,合同会社Ｋ・Ｈ,,合同会社,愛知県,みよし市,打越町上屋敷４０番地１５,,23,236,4700213,,,,,,,2023-06-07,1,,,,,ケーエイチ,0
1321,4200001041358,新規,0,2023-06-07,2023-06-07,株式会社長良,,株式会社,岐阜県,岐阜市,長良３丁目８３番地,,21,201,5020081,,,,,,,2023-06-07,1,,,,,ナガラ,0
1322,4200001041366,新規,0,2023-06-07,2023-06-07,株式会社フィットスリー不動産,,株式会社,岐阜県,岐阜市,竜田町１丁目２２番１号リアライズ竜田町１階,,21,201,5008402,,,,,,,2023-06-07,1,,,,,フィットスリーフドウサン,0
1323,4200001041382,新規,0,2023-06-07,2023-06-07,株式会社ｃｏｍｏｒｅｂｉ,,株式会社,岐阜県,恵那市,岩村町２３３２,,21,210,5097403,,,,,,,2023-06-07,1,,,,,コモレビ,0
1324,4210001019345,新規,0,2023-06-07,2023-06-07,株式会社アップリング,,株式会社,福井県,坂井市,三国町梶第３８号４０番地３,,18,210,9130061,,,,,,,2023-06-07,1,,,,,アップリング,0
1327,4230005009308,新規,0,2023-06-07,2023-06-07,行政書士法人碓井プランニング,,その他の設立登記法人,富山県,富山市,上飯野２０番地６,,16,201,9300827,,,,,,,2023-06-07,1,,,,,ウスイプランニング,0
1330,4240001061617,新規,0,2023-06-07,2023-06-07,株式会社ｌｕｓ,,株式会社,広島県,廿日市市,城内２丁目１２番９－２－Ａ,,34,213,7380007,,,,,,,2023-06-07,1,,,,,ルース,0
1331,4240001061625,新規,0,2023-06-07,2023-06-07,株式会社ＷＡＤＡ,,株式会社,広島県,福山市,瀬戸町大字地頭分６６番地１ブランドール９７・２０３,,34,207,7200837,,,,,,,2023-06-07,1,,,,,ワダ,0
1336,4250003003285,新規,0,2023-06-07,2023-06-07,合同会社桜我興業,,合同会社,山口県,下関市,汐入町２８番１３号,,35,201,7500059,,,,,,,2023-06-07,1,,,,,オウガコウギョウ,0
1342,4290001101772,新規,0,2023-06-07,2023-06-07,株式会社Ｒｏｏｔｓ,,株式会社,福岡県,福岡市博多区,住吉１丁目１番９号,,40,132,8120018,,,,,,,2023-06-07,1,,,,,ルーツ,0
1343,4290001101780,新規,0,2023-06-07,2023-06-07,株式会社Ａｐｅｘ　Ａｒｃｈｉｔｅｃｔ,,株式会社,福岡県,福岡市中央区,大濠１丁目４番１７－４０６号,,40,133,8100052,,,,,,,2023-06-07,1,,,,,エイペックスアーキテクト,0
1344,4290001101789,新規,0,2023-06-07,2023-06-07,株式会社Ｐｕｚｚｌｅ　Ｐｉｅｃｅ,,株式会社,福岡県,大川市,大字酒見２７９番地１,,40,212,8310016,,,,,,,2023-06-07,1,,,,,パズルピース,0
1345,4290001101797,新規,0,2023-06-07,2023-06-07,株式会社Ｙｏｕ＆Ｉ,,株式会社,福岡県,久留米市,国分町１５１０番地４,,40,203,8390863,,,,,,,2023-06-07,1,,,,,ユーアンドアイ,0
1346,4290001101822,新規,0,2023-06-07,2023-06-07,株式会社メディラブ,,株式会社,福岡県,福岡市中央区,天神２丁目２番１２号Ｔ＆Ｊビルディング７Ｆ,,40,133,8100001,,,,,,,2023-06-07,1,,,,,メディラブ,0
1347,4290001101830,新規,0,2023-06-07,2023-06-07,ソリッド・インターナショナル株式会社,,株式会社,福岡県,福岡市早良区,百道浜１丁目２番６号,,40,137,8140001,,,,,,,2023-06-07,1,,,,,ソリッドインターナショナル,0
1348,4290001101839,新規,0,2023-06-07,2023-06-07,株式会社Ｌａｚｚｃｏｍ,,株式会社,福岡県,福岡市東区,箱崎７丁目７－１７－７０５,,40,131,8120053,,,,,,,2023-06-07,1,,,,,ラズコム,0
1349,4290001101847,新規,0,2023-06-07,2023-06-07,株式会社ＴＯＫＵＴＯ,,株式会社,福岡県,福岡市博多区,博多駅東２丁目８番２２号１階,,40,132,8120013,,,,,,,2023-06-07,1,,,,,トクト,0
1352,4290805009658,新規,0,2023-06-07,2023-06-07,医療法人遥杏会,,その他の設立登記法人,福岡県,北九州市小倉北区,馬借１丁目１番１７号ＫＯＫＵＲＡＴＯＷＥＲ１階,,40,106,8020077,,,,,,,2023-06-07,1,,,,,ヨウキョウカイ,0
1354,4310001018460,新規,0,2023-06-07,2023-06-07,株式会社エムズホーム,,株式会社,長崎県,長崎市,泉３丁目５番１３号,,42,201,8528151,,,,,,,2023-06-07,1,,,,,エムズホーム,0
1359,4320001019821,新規,0,2023-06-07,2023-06-07,株式会社リークカンパニー,,株式会社,大分県,大分市,牧１丁目７番１１号,,44,201,8700924,,,,,,,2023-06-07,1,,,,,リークカンパニー,0
1360,4320005010082,新規,0,2023-06-07,2023-06-07,医療法人なんば歯科医院,,その他の設立登記法人,大分県,杵築市,大字杵築６６５番地２６２,,44,210,8730001,,,,,,,2023-06-07,1,,,,,ナンバシカイイン,0
1361,4330001030942,新規,0,2023-06-07,2023-06-07,株式会社ソラーナル,,株式会社,熊本県,熊本市北区,楡木３丁目１１番６－３号,,43,105,8618083,,,,,,,2023-06-07,1,,,,,ソラーナル,0
1364,4330003009877,新規,0,2023-06-07,2023-06-07,合同会社ひかりケアプランセンター,,合同会社,熊本県,山鹿市,久原１８１５番地１,,43,208,8610522,,,,,,,2023-06-07,1,,,,,ヒカリケアプランセンター,0
1366,4340001025628,新規,0,2023-06-07,2023-06-07,株式会社登,,株式会社,鹿児島県,鹿児島市,星ヶ峯２丁目３４番１７号,,46,201,8910102,,,,,,,2023-06-07,1,,,,,ノボリ,0
1368,4340005009610,新規,0,2023-06-07,2023-06-07,特定非営利活動法人夏の風,,その他の設立登記法人,鹿児島県,曽於市,末吉町二之方１４４番地４,,46,217,8998605,,,,,,,2023-06-07,1,,,,,ナツノカゼ,0
1369,4350003004372,新規,0,2023-06-07,2023-06-07,合同会社燈灯,,合同会社,宮崎県,児湯郡都農町,大字川北４６７５番地４,,45,406,8891201,,,,,,,2023-06-07,1,,,,,トモシビ,0
1372,4360001032110,新規,0,2023-06-07,2023-06-07,株式会社ＩＰコーポレーション,,株式会社,沖縄県,島尻郡伊平屋村,字島尻１９８２番地の４９,,47,359,9050704,,,,,,,2023-06-07,1,,,,,アイピーコーポレーション,0
1373,4360001032119,新規,0,2023-06-07,2023-06-07,株式会社沖縄エクステリア,,株式会社,沖縄県,宜野湾市,大謝名５丁目７番５号,,47,205,9012225,,,,,,,2023-06-07,1,,,,,オキナワエクステリア,0
1376,4360003013034,新規,0,2023-06-07,2023-06-07,ミヤコプロパティーズ合同会社,,合同会社,沖縄県,宮古島市,平良字下里２６８番地５,,47,214,9060013,,,,,,,2023-06-07,1,,,,,ミヤコプロパティーズ,0
1379,4380001033742,新規,0,2023-06-07,2023-06-07,力丸不動産株式会社,,株式会社,福島県,郡山市,堤下町５番２２号,,07,203,9638878,,,,,,,2023-06-07,1,,,,,リキマルフドウサン,0
1387,4390003002109,新規,0,2023-06-07,2023-06-07,Ｖｉオール合同会社,,合同会社,山形県,山形市,五十鈴２丁目６－２３,,06,201,9900061,,,,,,,2023-06-07,1,,,,,,0
1391,4410001013501,新規,0,2023-06-07,2023-06-07,株式会社ヒンメルダッハ,,株式会社,秋田県,大館市,有浦１丁目１－１０,,05,204,0170043,,,,,,,2023-06-07,1,,,,,ヒンメルダッハ,0
1401,4430001089291,新規,0,2023-06-07,2023-06-07,株式会社温人．１２３,,株式会社,北海道,札幌市清田区,北野三条４丁目７番１８号,,01,110,0040863,,,,,,,2023-06-07,1,,,,,オンジンドットイチニサン,0
1403,4430003015114,新規,0,2023-06-07,2023-06-07,合同会社オービット,,合同会社,北海道,札幌市白石区,本通２丁目南６番２号,,01,104,0030026,,,,,,,2023-06-07,1,,,,,オービット,0
1404,4430003015122,新規,0,2023-06-07,2023-06-07,合同会社Ｇｏｉｎｇ,,合同会社,北海道,札幌市北区,篠路一条１丁目６番２号,,01,102,0028021,,,,,,,2023-06-07,1,,,,,ゴーイング,0
1407,4460001005799,新規,0,2023-06-07,2023-06-07,株式会社ｋ‐Ｈａｃｋ,,株式会社,北海道,釧路市,北大通３丁目７番３号,,01,206,0850015,,,,,,,2023-06-07,1,,,,,ケーハック,0
1408,4470003002439,新規,0,2023-06-07,2023-06-07,合同会社ＳＨＵＨＯ,,合同会社,香川県,高松市,今里町４０９番地４３,,37,201,7600078,,,,,,,2023-06-07,1,,,,,シュウホ,0
1413,4700150116257,新規,0,2023-06-07,2023-05-19,上長崎地区コミュニティ連絡協議会,,その他,長崎県,長崎市,片淵１丁目１３番１３号,,42,201,8500003,,,,,,,2023-05-19,1,,,,,カミナガサキチクコミユニテイレンラクキヨウギカイ,0
1414,4700150116562,新規,0,2023-06-07,2023-05-30,大崎市体育協会　三本木支部,,その他,宮城県,大崎市,三本木桑折字沼下２９番地２,,04,215,9896301,,,,,,,2023-05-30,1,,,,,オオサキシタイイクキヨウカイサンボンギシブ,0
1415,4700150116950,新規,0,2023-06-07,2023-06-07,ＪＰ　Ｅｃｏｍｍｅｒｃｅ，Ｉｎｃ．,,外国会社等,,,,,,,,１４７４４　Ｈｏｒｎｓｂｙ　Ｓｔｒｅｅｔ　ＮＥ　Ｃｏｌｕｍｂｕｓ　ＭＮ　５５０２５　ＵＳＡ,,,,,,2023-06-07,1,,,,,ジェーピーイーコマースインク,0
1416,4700150116959,新規,0,2023-06-07,2023-06-07,Ｓｈｅｎｚｈｅｎｓｈｉ　Ｈａｎｗａｎｇ　Ｅｌｅｃｔｒｏｎｉｃｓ　Ｃｏ．，Ｌｔｄ,,外国会社等,,,,,,,,ＧＵＡＮＧＤＯＮＧ　ＳＨＥＮＺＨＥＮ　ＬｕｏＨｕ　Ｄｉｓｔｒｉｃｔ　Ｐｅｎｇ　Ｂｕｉｌｄｉｎｇ　Ｕｎｉｔ　Ｂ，Ｕｎｉｔ　Ａ，１１ｔｈ　Ｆｌｏｏｒ,,,,,,2023-06-07,1,,,,,シェンジェンシーハンワンコージーヨウシエンゴンスー,0
1417,4700150116967,新規,0,2023-06-07,2023-06-07,ＩＬＦインベストメント株式会社,,外国会社等,千葉県,我孫子市,我孫子２丁目１－１グラン・レジデンス１５２５号,,12,222,2701166,カナダ国ブリティッシュコロンビア州バンクーバーハウ通り２５０番地２０階,,,,,,2023-06-07,1,,,,,アイエルエフインベストメントカブシキガイシヤ,0
1425,5010001235878,新規,0,2023-06-07,2023-06-07,株式会社ＡＭ久保事務所,,株式会社,東京都,中央区,八丁堀１丁目４番５号川村八重洲ビル,,13,102,1040032,,,,,,,2023-06-07,1,,,,,エーエムクボジムショ,0
1426,5010001235886,新規,0,2023-06-07,2023-06-07,株式会社ニハチ,,株式会社,東京都,千代田区,神田駿河台２丁目１番地,,13,101,1010062,,,,,,,2023-06-07,1,,,,,ニハチ,0
1427,5010001235977,新規,0,2023-06-07,2023-06-07,ケネディクス・グリーンエナジー株式会社,,株式会社,東京都,千代田区,内幸町２丁目１番６号,,13,101,1000011,,,,,,,2023-06-07,1,,,,,ケネディクスグリーンエナジー,0
1428,5010001235993,新規,0,2023-06-07,2023-06-07,株式会社クジラボ,,株式会社,東京都,中央区,銀座１丁目１４番５号第二五味ビル５階,,13,102,1040061,,,,,,,2023-06-07,1,,,,,クジラボ,0
1432,5010003040772,新規,0,2023-06-07,2023-06-07,合同会社ＳＯＬＤＩＡＮＡ,,合同会社,東京都,文京区,白山５丁目３６番７号松江第一ビル,,13,105,1120001,,,,,,,2023-06-07,1,,,,,ソルディアーナ,0
1433,5010003040789,新規,0,2023-06-07,2023-06-07,合同会社ファースト,,合同会社,東京都,千代田区,内神田３丁目１２－５渡辺住研ビル２階,,13,101,1010047,,,,,,,2023-06-07,1,,,,,ファースト,0
1434,5010003040806,新規,0,2023-06-07,2023-06-07,合同会社七福神,,合同会社,東京都,中央区,銀座１丁目１２－４Ｎ＆Ｅ・ＢＬＤ．７階,,13,102,1040061,,,,,,,2023-06-07,1,,,,,ヒチフクジン,0
1435,5010005036777,新規,0,2023-06-07,2023-06-07,一般社団法人日本防衛問題研究所,,その他の設立登記法人,東京都,千代田区,内神田１丁目１８番１１号,,13,101,1010047,,,,,,,2023-06-07,1,,,,,ニホンボウエイモンダイケンキュウジョ,0
1436,5010005036793,新規,0,2023-06-07,2023-06-07,特定非営利活動法人みらいスクールラボ,,その他の設立登記法人,東京都,中央区,日本橋兜町１７番１－７０６号,,13,102,1030026,,,,,,,2023-06-07,1,,,,,ミライスクールラボ,0
1437,5010005036802,新規,0,2023-06-07,2023-06-07,一般社団法人Ｎ２,,その他の設立登記法人,東京都,千代田区,丸の内３丁目１番１号東京共同会計事務所内,,13,101,1000005,,,,,,,2023-06-07,1,,,,,エヌツー,0
1438,5010101015676,新規,0,2023-06-07,2023-06-07,株式会社Ｅｓｐｒｉｔ,,株式会社,東京都,八王子市,別所２丁目１８番地３－４０４号,,13,201,1920363,,,,,,,2023-06-07,1,,,,,エスプリ,0
1444,5010401174726,新規,0,2023-06-07,2023-06-07,株式会社ＬＯＷＥＲ,,株式会社,東京都,港区,南青山２丁目２番１５号ウィン青山９４２,,13,103,1070062,,,,,,,2023-06-07,1,,,,,ロワー,0
1446,5010501050554,新規,0,2023-06-07,2023-06-07,ＮＫＣＬ　ＪＡＰＡＮ株式会社,,株式会社,東京都,台東区,花川戸１丁目１０－１４,,13,106,1110033,,,,,,,2023-06-07,1,,,,,エヌケーシーエルジャパン,0
1447,5010501050562,新規,0,2023-06-07,2023-06-07,株式会社Ａｓａｋｕｓａ　Ｆｉｎａｎｃｉａｌ　Ｍｏｔｏｒｓ,,株式会社,東京都,台東区,西浅草２丁目１８番１２号,,13,106,1110035,,,,,,,2023-06-07,1,,,,,,0
1452,5010601063200,新規,0,2023-06-07,2023-06-07,金谷株式会社,,株式会社,東京都,墨田区,横川３丁目６番７号２－Ｌ室,,13,107,1300003,,,,,,,2023-06-07,1,,,,,カナヤ,0
1453,5010601063225,新規,0,2023-06-07,2023-06-07,株式会社サンロジ,,株式会社,東京都,江東区,森下３丁目１２番５号,,13,108,1350004,,,,,,,2023-06-07,1,,,,,サンロジ,0
1456,5010603010167,新規,0,2023-06-07,2023-06-07,合同会社マイトゥルース,,合同会社,東京都,江東区,北砂４丁目１０－１８,,13,108,1360073,,,,,,,2023-06-07,1,,,,,マイトゥルース,0
1458,5010705003515,新規,0,2023-06-07,2023-06-07,一般社団法人みんなの協会,,その他の設立登記法人,東京都,品川区,西五反田２丁目１９番３号五反田第一生命ビルディング５階,,13,109,1410031,,,,,,,2023-06-07,1,,,,,ミンナノキョウカイ,0
1463,5010901053173,新規,0,2023-06-07,2023-06-07,株式会社農材ドットコム,,株式会社,東京都,世田谷区,若林１丁目１８番１０号,,13,112,1540023,,,,,,,2023-06-07,1,,,,,ノウザイドットコム,0
1464,5010901053198,新規,0,2023-06-07,2023-06-07,株式会社東京自言流,,株式会社,東京都,世田谷区,梅丘１丁目５６番８－３１２号,,13,112,1540022,,,,,,,2023-06-07,1,,,,,トウキョウジゴンリュウ,0
1465,5010901053207,新規,0,2023-06-07,2023-06-07,株式会社デヴァステイター,,株式会社,東京都,世田谷区,松原１丁目７番９号,,13,112,1560043,,,,,,,2023-06-07,1,,,,,デヴァステイター,0
1466,5010903008209,新規,0,2023-06-07,2023-06-07,合同会社フィーネ,,合同会社,東京都,世田谷区,若林２丁目１９番８号,,13,112,1540023,,,,,,,2023-06-07,1,,,,,フィーネ,0
1467,5010903008217,新規,0,2023-06-07,2023-06-07,合同会社アンファンゲン,,合同会社,東京都,世田谷区,三軒茶屋１丁目３５番２０号３Ｆ,,13,112,1540024,,,,,,,2023-06-07,1,,,,,アンファンゲン,0
1468,5010905004486,新規,0,2023-06-07,2023-06-07,特定非営利活動法人Ｏ‐Ｐａｒｋ,,その他の設立登記法人,東京都,世田谷区,奥沢５丁目２３番１６－６０１号,,13,112,1580083,,,,,,,2023-06-07,1,,,,,オーパーク,0
1476,5011001154861,新規,0,2023-06-07,2023-06-07,株式会社カリデグ,,株式会社,東京都,渋谷区,神宮前１丁目１０番３４－８１１号,,13,113,1500001,,,,,,,2023-06-07,1,,,,,カリデグ,0
1477,5011001154878,新規,0,2023-06-07,2023-06-07,株式会社Ｈａｎｄｓ　ＪＡＰＡＮ,,株式会社,東京都,渋谷区,渋谷３丁目６番１８号２Ｆ,,13,113,1500002,,,,,,,2023-06-07,1,,,,,ハンズジャパン,0
1478,5011001154886,新規,0,2023-06-07,2023-06-07,株式会社ＢＬＡＮＫ＆ＣＯＬＯＲ,,株式会社,東京都,目黒区,中央町１丁目４番１０号,,13,110,1520001,,,,,,,2023-06-07,1,,,,,ブランクアンドカラー,0
1479,5011001154903,新規,0,2023-06-07,2023-06-07,株式会社ＡＲＣＡＴＨ,,株式会社,東京都,渋谷区,道玄坂１丁目１６番６号二葉ビル８ｂ,,13,113,1500043,,,,,,,2023-06-07,1,,,,,アルカス,0
1482,5011003016886,新規,0,2023-06-07,2023-06-07,合同会社セツデザインルーム,,合同会社,東京都,渋谷区,道玄坂１丁目１０番８号渋谷道玄坂東急ビル２Ｆ－Ｃ,,13,113,1500043,,,,,,,2023-06-07,1,,,,,セツデザインルーム,0
1483,5011003016944,新規,0,2023-06-07,2023-06-07,ＥＶＥＳＴＥＰ合同会社,,合同会社,東京都,渋谷区,道玄坂１丁目１０番８号渋谷道玄坂東急ビル２Ｆ―Ｃ,,13,113,1500043,,,,,,,2023-06-07,1,,,,,イブステップ,0
1489,5011101103149,新規,0,2023-06-07,2023-06-07,株式会社リノテクト,,株式会社,東京都,新宿区,高田馬場１丁目１２番１０号美工高田馬場ビル４０２,,13,104,1690075,,,,,,,2023-06-07,1,,,,,リノテクト,0
1490,5011101103173,新規,0,2023-06-07,2023-06-07,株式会社彌榮,,株式会社,東京都,新宿区,四谷三栄町４番１４号,,13,104,1600008,,,,,,,2023-06-07,1,,,,,イヤサ,0
1493,5011203004096,新規,0,2023-06-07,2023-06-07,ＳＪ　ＩＮＴＥＲＮＡＴＩＯＮＡＬ合同会社,,合同会社,東京都,中野区,東中野１丁目４２番１０－３０３号,,13,114,1640003,,,,,,,2023-06-07,1,,,,,エスジェイインターナショナル,0
1495,5011301028765,新規,0,2023-06-07,2023-06-07,靈岩株式会社,,株式会社,東京都,杉並区,梅里２丁目２５番１３号高円寺プラザ,,13,115,1660011,,,,,,,2023-06-07,1,,,,,レイガン,0
1499,5011401025175,新規,0,2023-06-07,2023-06-07,株式会社ここから,,株式会社,東京都,板橋区,志村３丁目２４番２号,,13,119,1740056,,,,,,,2023-06-07,1,,,,,ココカラ,0
1500,5011503005637,新規,0,2023-06-07,2023-06-07,リライオン合同会社,,合同会社,東京都,荒川区,南千住５丁目２４番７号,,13,118,1160003,,,,,,,2023-06-07,1,,,,,リライオン,0
1503,5011603003945,新規,0,2023-06-07,2023-06-07,３Ｗ合同会社,,合同会社,東京都,練馬区,春日町４丁目２４番２４号,,13,120,1790074,,,,,,,2023-06-07,1,,,,,スリーダブリュー,0
1506,5011701026303,新規,0,2023-06-07,2023-06-07,株式会社スペースリフォーム,,株式会社,東京都,江戸川区,大杉４丁目２５番２号,,13,123,1320022,,,,,,,2023-06-07,1,,,,,スペースリフォーム,0
1510,5012403006023,新規,0,2023-06-07,2023-06-07,マクトゥーブス合同会社,,合同会社,東京都,調布市,仙川町１丁目１９番地１１－１階,,13,208,1820002,,,,,,,2023-06-07,1,,,,,マクトゥーブス,0
1523,5020001151884,新規,0,2023-06-07,2023-06-07,和建築工房株式会社,,株式会社,神奈川県,川崎市中原区,新丸子町７４１番地２．７４１駅前ビル４階,,14,133,2110005,,,,,,,2023-06-07,1,,,,,カズケンチクコウボウ,0
1524,5020001151959,新規,0,2023-06-07,2023-06-07,Ｂａｒｃｏｄｅ株式会社,,株式会社,神奈川県,川崎市川崎区,東田町２番地５大久保ビル１０２,,14,131,2100005,,,,,,,2023-06-07,1,,,,,バーコード,0
1528,5020003023941,新規,0,2023-06-07,2023-06-07,Ｏｋｉｎａ合同会社,,合同会社,神奈川県,横浜市南区,真金町２丁目２０番地９朝日プラザ大通り公園４０４号,,14,105,2320021,,,,,,,2023-06-07,1,,,,,オキナ,0
1529,5020003024023,新規,0,2023-06-07,2023-06-07,キャニオンブリーズ合同会社,,合同会社,神奈川県,横浜市港北区,新羽町５７７番地１クリオ新横浜北壱番館６０４号,,14,109,2230057,,,,,,,2023-06-07,1,,,,,キャニオンブリーズ,0
1533,5021001079224,新規,0,2023-06-07,2023-06-07,八十八株式会社,,株式会社,神奈川県,藤沢市,鵠沼石上１丁目７番８号ビッグライズビル５Ｆ,,14,205,2510025,,,,,,,2023-06-07,1,,,,,ハチジュウハチ,0
1534,5021001079232,新規,0,2023-06-07,2023-06-07,株式会社ランドエステート,,株式会社,神奈川県,横須賀市,米が浜通２丁目３番地,,14,201,2380011,,,,,,,2023-06-07,1,,,,,ランドエステート,0
1536,5021003013172,新規,0,2023-06-07,2023-06-07,かいな合同会社,,合同会社,神奈川県,鎌倉市,稲村ガ崎２丁目１０番２２号,,14,204,2480024,,,,,,,2023-06-07,1,,,,,カイナ,0
1545,5030001154242,新規,0,2023-06-07,2023-06-07,株式会社北栖電業,,株式会社,埼玉県,所沢市,北原町９２０－７,,11,208,3590004,,,,,,,2023-06-07,1,,,,,ホクセイデンギョウ,0
1551,5040001128690,新規,0,2023-06-07,2023-06-07,Ｌｕｘｅ株式会社,,株式会社,千葉県,市川市,市川１丁目６番９号,,12,203,2720034,,,,,,,2023-06-07,1,,,,,ルクス,0
1552,5040001128699,新規,0,2023-06-07,2023-06-07,株式会社アイテック,,株式会社,千葉県,長生郡長生村,本郷６２８４番地１,,12,423,2994345,,,,,,,2023-06-07,1,,,,,アイテック,0
1553,5040001128708,新規,0,2023-06-07,2023-06-07,株式会社カフゥ,,株式会社,千葉県,千葉市稲毛区,山王町１８番地１グレート山王１０３号,,12,103,2630002,,,,,,,2023-06-07,1,,,,,カフゥ,0
1554,5040001128749,新規,0,2023-06-07,2023-06-07,ＢＥＮ　ＩＮＴＥＲＮＡＴＩＯＮＡＬ株式会社,,株式会社,千葉県,八千代市,八千代台北６丁目８番地６ガーデンヒルズ八千代１０２号,,12,221,2760031,,,,,,,2023-06-07,1,,,,,ベンインターナショナル,0
1555,5040001128757,新規,0,2023-06-07,2023-06-07,株式会社エステート横内,,株式会社,千葉県,松戸市,胡録台１８１番地の１,,12,207,2710075,,,,,,,2023-06-07,1,,,,,エステートヨコウチ,0
1571,5060001036066,新規,0,2023-06-07,2023-06-07,株式会社グリードクリーン,,株式会社,栃木県,宇都宮市,野高谷町５４０番地１,,09,201,3213222,,,,,,,2023-06-07,1,,,,,グリードクリーン,0
1573,5070001040513,新規,0,2023-06-07,2023-06-07,株式会社香心,,株式会社,群馬県,吾妻郡草津町,大字草津９３３番地１０,,10,426,3771711,,,,,,,2023-06-07,1,,,,,カザネ,0
1574,5080001025661,新規,0,2023-06-07,2023-06-07,株式会社ウエストアイランド,,株式会社,静岡県,静岡市駿河区,池田１８５１番地,,22,102,4228005,,,,,,,2023-06-07,1,,,,,ウエストアイランド,0
1576,5080101024051,新規,0,2023-06-07,2023-06-07,株式会社寺谷建設,,株式会社,静岡県,三島市,若松町４６６７番地の４７,,22,206,4110024,,,,,,,2023-06-07,1,,,,,テラタニケンセツ,0
1578,5080103002823,新規,0,2023-06-07,2023-06-07,つなぐ合同会社,,合同会社,静岡県,三島市,沢地１４９‐３０,,22,206,4110043,,,,,,,2023-06-07,1,,,,,ツナグ,0
1579,5090001018152,新規,0,2023-06-07,2023-06-07,ウイングブライト株式会社,,株式会社,山梨県,甲府市,丸の内２丁目２－１ＣＲＯＳＳ５００、１Ｆ,,19,201,4000031,,,,,,,2023-06-07,1,,,,,ウイングブライト,0
1585,5100001036490,新規,0,2023-06-07,2023-06-07,ながのスマートパワー株式会社,,株式会社,長野県,長野市,大字南長野西後町６１０番地１２,,20,201,3800845,,,,,,,2023-06-07,1,,,,,ナガノスマートパワー,0
1586,5100003007052,新規,0,2023-06-07,2023-06-07,合同会社うさみみ,,合同会社,長野県,松本市,南松本２丁目１番１５－５号,,20,202,3900832,,,,,,,2023-06-07,1,,,,,ウサミミ,0
1589,5110001037595,新規,0,2023-06-07,2023-06-07,株式会社Ｌａｎａｋｉｌａ　Ｈａｐｐｉｎｅｓｓ,,株式会社,新潟県,新潟市秋葉区,新津本町２丁目５番３１号,,15,105,9560864,,,,,,,2023-06-07,1,,,,,ラナキラハピネス,0
1596,5120001255386,新規,0,2023-06-07,2023-06-07,株式会社オントップ,,株式会社,大阪府,大阪市浪速区,日本橋５丁目１０番２０号,,27,111,5560005,,,,,,,2023-06-07,1,,,,,オントップ,0
1597,5120001255411,新規,0,2023-06-07,2023-06-07,株式会社ラムビエック,,株式会社,大阪府,大阪市城東区,森之宮２丁目２番２０－８０６号,,27,118,5360025,,,,,,,2023-06-07,1,,,,,ラムビエック,0
1598,5120001255444,新規,0,2023-06-07,2023-06-07,株式会社勲一,,株式会社,大阪府,大阪市淀川区,西中島３丁目８番１５－１２０１号,,27,123,5320011,,,,,,,2023-06-07,1,,,,,クンイチ,0
1604,5120003024252,新規,0,2023-06-07,2023-06-07,合同会社パック,,合同会社,大阪府,大阪市北区,梅田１丁目２番２号大阪駅前第２ビル１２‐１２,,27,127,5300001,,,,,,,2023-06-07,1,,,,,パック,0
1606,5120101067616,新規,0,2023-06-07,2023-06-07,株式会社金徳産業,,株式会社,大阪府,堺市南区,釜室５３７－１,,27,145,5900122,,,,,,,2023-06-07,1,,,,,キントクサンギョウ,0
1607,5120101067649,新規,0,2023-06-07,2023-06-07,ひじり建設株式会社,,株式会社,大阪府,岸和田市,戎町５番１６号,,27,202,5960022,,,,,,,2023-06-07,1,,,,,ヒジリケンセツ,0
1608,5120101067665,新規,0,2023-06-07,2023-06-07,株式会社エルモグランデ,,株式会社,大阪府,阪南市,鳥取中６０１番地の２６,,27,232,5990211,,,,,,,2023-06-07,1,,,,,エルモグランデ,0
1609,5120101067673,新規,0,2023-06-07,2023-06-07,株式会社アーネスト工務店,,株式会社,大阪府,堺市北区,百舌鳥梅町３丁２８－４－２５番,,27,146,5918032,,,,,,,2023-06-07,1,,,,,アーネストコウムテン,0
1611,5120901047610,新規,0,2023-06-07,2023-06-07,アセットホーム株式会社,,株式会社,大阪府,吹田市,千里山西４丁目３７番１－１４０５号,,27,205,5650851,,,,,,,2023-06-07,1,,,,,アセットホーム,0
1612,5120901047619,新規,0,2023-06-07,2023-06-07,株式会社ＣＬＥＡＮＵＰ,,株式会社,大阪府,豊中市,豊南町南５丁目１１－４－２０１,,27,203,5610815,,,,,,,2023-06-07,1,,,,,クリーンアップ,0
1614,5122001037046,新規,0,2023-06-07,2023-06-07,株式会社ｒａｉｍｕ,,株式会社,大阪府,東大阪市,玉串町西１丁目３番１６号,,27,227,5780934,,,,,,,2023-06-07,1,,,,,ライム,0
1615,5122003002601,新規,0,2023-06-07,2023-06-07,合同会社ＫＯＲＰＳ,,合同会社,大阪府,東大阪市,稲田本町１丁目８番地４号,,27,227,5770007,,,,,,,2023-06-07,1,,,,,コープス,0
1620,5130003008766,新規,0,2023-06-07,2023-06-07,いろはグループ合同会社,,合同会社,京都府,京都市西京区,山田中吉見町５番地１２,,26,111,6158237,,,,,,,2023-06-07,1,,,,,イロハグループ,0
1628,5150001026462,新規,0,2023-06-07,2023-06-07,株式会社アシスト,,株式会社,奈良県,吉野郡大淀町,大字北野１３２番地の９,,29,442,6393125,,,,,,,2023-06-07,1,,,,,アシスト,0
1630,5160001025075,新規,0,2023-06-07,2023-06-07,株式会社丸橋溶工所,,株式会社,滋賀県,東近江市,五個荘竜田町４２２番地,,25,213,5291421,,,,,,,2023-06-07,1,,,,,マルハシヨウコウショ,0
1631,5160001025100,新規,0,2023-06-07,2023-06-07,株式会社山岡総建,,株式会社,滋賀県,彦根市,小泉町３９２番地５,,25,202,5220043,,,,,,,2023-06-07,1,,,,,ヤマオカソウケン,0
1633,5170001017641,新規,0,2023-06-07,2023-06-07,株式会社Ｈ・Ｓ,,株式会社,和歌山県,有田市,宮崎町４７番地,,30,204,6490316,,,,,,,2023-06-07,1,,,,,エイチエス,0
1641,5180001156562,新規,0,2023-06-07,2023-06-07,株式会社ＺＥＲＯ　ＯＮＥ,,株式会社,愛知県,名古屋市守山区,桔梗平１丁目１２０６番地,,23,113,4630814,,,,,,,2023-06-07,1,,,,,ゼロワン,0
1642,5180001156612,新規,0,2023-06-07,2023-06-07,ＣＲＯＳＳ　ＲＥＢＯＲＮ株式会社,,株式会社,愛知県,名古屋市港区,遠若町３丁目４８番地,,23,111,4550054,,,,,,,2023-06-07,1,,,,,クロスリボーン,0
1643,5180001156637,新規,0,2023-06-07,2023-06-07,株式会社ＮＡ,,株式会社,愛知県,東海市,荒尾町大脇９１番地,,23,222,4760003,,,,,,,2023-06-07,1,,,,,エヌエー,0
1644,5180001156645,新規,0,2023-06-07,2023-06-07,ＨＭＡＣコーポレーション株式会社,,株式会社,愛知県,名古屋市昭和区,南分町３丁目３７番地の１,,23,107,4660849,,,,,,,2023-06-07,1,,,,,エイチエムエーシーコーポレーション,0
1645,5180001156653,新規,0,2023-06-07,2023-06-07,株式会社ｉｒｏｄｏｒｉ,,株式会社,愛知県,名古屋市千種区,新西１丁目１番３３号ネオハイツ新香流１０１号,,23,101,4640003,,,,,,,2023-06-07,1,,,,,イロドリ,0
1649,5180003025303,新規,0,2023-06-07,2023-06-07,合同会社エムリンク,,合同会社,愛知県,名古屋市中村区,名駅３丁目１番１６号グランドメゾン名駅三丁目５０２,,23,105,4500002,,,,,,,2023-06-07,1,,,,,エムリンク,0
1650,5190001030477,新規,0,2023-06-07,2023-06-07,株式会社ＲＩＴＺ　ＷＩＮＧ,,株式会社,三重県,津市,美里町北長野７９２番地,,24,201,5142112,,,,,,,2023-06-07,1,,,,,リッツウイング,0
1653,5190005011829,新規,0,2023-06-07,2023-06-07,一般社団法人ハル,,その他の設立登記法人,三重県,鈴鹿市,西庄内町１５１８,,24,207,5190271,,,,,,,2023-06-07,1,,,,,ハル,0
1655,5200001041365,新規,0,2023-06-07,2023-06-07,株式会社ドリームカンパニー,,株式会社,岐阜県,岐阜市,金華町２丁目７番３号,,21,201,5020828,,,,,,,2023-06-07,1,,,,,ドリームカンパニー,0
1664,5210001019328,新規,0,2023-06-07,2023-06-07,株式会社愛錠ロックサービス,,株式会社,福井県,越前市,芝原５丁目６番２３号,,18,209,9150805,,,,,,,2023-06-07,1,,,,,アイジョウロックサービス,0
1680,5250003003284,新規,0,2023-06-07,2023-06-07,渡辺事務所合同会社,,合同会社,山口県,下松市,古川町１丁目６番３号,,35,207,7440005,,,,,,,2023-06-07,1,,,,,ワタナベジムショ,0
1682,5260001037993,新規,0,2023-06-07,2023-06-07,株式会社ＫＥＴＯＲＵＺ,,株式会社,岡山県,岡山市北区,柳町２丁目１１番２０号,,33,101,7000904,,,,,,,2023-06-07,1,,,,,ケトルズ,0
1683,5260001038001,新規,0,2023-06-07,2023-06-07,株式会社長谷川電創,,株式会社,岡山県,岡山市北区,西辛川３０５－２,,33,101,7011213,,,,,,,2023-06-07,1,,,,,ハセガワデンソウ,0
1686,5290001101648,新規,0,2023-06-07,2023-06-07,株式会社ＷＩＡＲ,,株式会社,福岡県,みやま市,瀬高町下庄１４１８－６,,40,229,8350024,,,,,,,2023-06-07,1,,,,,ウィアー,0
1687,5290001101771,新規,0,2023-06-07,2023-06-07,ＭＩＤ　ＳＴＹＬＥ株式会社,,株式会社,福岡県,福岡市南区,若久５丁目１５番１４号,,40,134,8150042,,,,,,,2023-06-07,1,,,,,エムアイディースタイル,0
1688,5290001101796,新規,0,2023-06-07,2023-06-07,株式会社ＨＳＩ,,株式会社,福岡県,柳川市,三橋町棚町６６１番地２,,40,207,8320813,,,,,,,2023-06-07,1,,,,,エイチエスアイ,0
1689,5290001101838,新規,0,2023-06-07,2023-06-07,株式会社まるごとコーポレーション,,株式会社,福岡県,福岡市博多区,東那珂２丁目１４番３３－９０１号,,40,132,8120892,,,,,,,2023-06-07,1,,,,,マルゴトコーポレーション,0
1692,5320001019820,新規,0,2023-06-07,2023-06-07,株式会社想建,,株式会社,大分県,中津市,大字蛎瀬８１５番５,,44,203,8710007,,,,,,,2023-06-07,1,,,,,ソウケン,0
1693,5320001019829,新規,0,2023-06-07,2023-06-07,株式会社共進建設,,株式会社,大分県,大分市,森町西３丁目１７番２５－２０１号ＺＥＲＯＩＩ森町,00130747,44,201,8700140,,,,,,,2023-06-07,1,,,,,キョウシンケンセツ,0
1695,5320003004093,新規,0,2023-06-07,2023-06-07,合同会社萬市,,合同会社,大分県,大分市,小佐井３丁目４番２７号,,44,201,8700327,,,,,,,2023-06-07,1,,,,,マンイチ,0
1697,5330001030909,新規,0,2023-06-07,2023-06-07,株式会社源島家畜診療所,,株式会社,熊本県,球磨郡多良木町,大字黒肥地６４１５番地,,43,505,8680502,,,,,,,2023-06-07,1,,,,,ゲジマカチクシンリョウショ,0
1698,5340001025627,新規,0,2023-06-07,2023-06-07,野元教材株式会社,,株式会社,鹿児島県,姶良郡湧水町,北方１８１６番地,,46,452,8996202,,,,,,,2023-06-07,1,,,,,ノモトキョウザイ,0
1699,5340003004141,新規,0,2023-06-07,2023-06-07,合同会社ゆずりは,,合同会社,鹿児島県,鹿児島市,永吉２丁目３７番１８号,,46,201,8900023,,,,,,,2023-06-07,1,,,,,ユズリハ,0
1702,5360001032101,新規,0,2023-06-07,2023-06-07,株式会社Ｓｎｏｗｂｉｒｄ,,株式会社,沖縄県,豊見城市,字豊崎１番地７９５,,47,212,9010225,,,,,,,2023-06-07,1,,,,,スノーバード,0
1706,5370001050028,新規,0,2023-06-07,2023-06-07,株式会社ＩＮ‐ＷＯＯＤ,,株式会社,宮城県,仙台市泉区,泉中央３丁目３０番地の１１,,04,105,9813133,,,,,,,2023-06-07,1,,,,,インウッド,0
1707,5370001050060,新規,0,2023-06-07,2023-06-07,株式会社ひがまつ社中,,株式会社,宮城県,東松島市,矢本字関の内５５－１６,,04,214,9810503,,,,,,,2023-06-07,1,,,,,ヒガマツシャチュウ,0
1714,5380001033741,新規,0,2023-06-07,2023-06-07,株式会社リアルアイ郡山,,株式会社,福島県,郡山市,田村町金屋字新家８３番地の１,,07,203,9630725,,,,,,,2023-06-07,1,,,,,リアルアイコオリヤマ,0
1722,5430001089299,新規,0,2023-06-07,2023-06-07,シャンス株式会社,,株式会社,北海道,札幌市東区,丘珠町８７０番地２７,,01,103,0070880,,,,,,,2023-06-07,1,,,,,シャンス,0
1723,5430001089308,新規,0,2023-06-07,2023-06-07,株式会社レアックス,,株式会社,北海道,札幌市東区,北二十四条東１７丁目１番１４号,,01,103,0650024,,,,,,,2023-06-07,1,,,,,レアックス,0
1729,5460001005798,新規,0,2023-06-07,2023-06-07,岩楯塗装株式会社,,株式会社,北海道,釧路市,文苑２丁目１１番９号,,01,206,0850063,,,,,,,2023-06-07,1,,,,,イワダテトソウ,0
1734,5470001019640,新規,0,2023-06-07,2023-06-07,ＴＣＯ株式会社,,株式会社,香川県,高松市,藤塚町２丁目１２番１９号,,37,201,7600071,,,,,,,2023-06-07,1,,,,,ティーシーオー,0
1735,5470003002438,新規,0,2023-06-07,2023-06-07,合同会社Ｇｌａｍｏｕｒ,,合同会社,香川県,高松市,多肥下町１５７２番地４サーパスサンフラワー通り東７０４号,,37,201,7618075,,,,,,,2023-06-07,1,,,,,グラマー,0
1738,5500001024991,新規,0,2023-06-07,2023-06-07,株式会社兼子,00130749,株式会社,愛媛県,新居浜市,中村松木２丁目４番６０号,,38,205,7920041,,,,,,,2023-06-07,1,,,,,カネコ,0
1744,5700150116966,新規,0,2023-06-07,2023-06-07,ｑｉｎｇｄａｏｓｈａｎｇｙｕｊｉａｊｕｙｏｎｇｐｉｎｙｏｕｘｉａｎｇｏｎｇｓｉ,,外国会社等,,,,,,,,ｓｈｉｎａｎｑｕｗｅｎｓｈａｎｇｌｕ２５ｈａｏ３０１ｈｕ　ｑｉｎｇｄａｏｓｈｉ　ｓｈａｎｇｄｏｎｇｓｈｅｎｇ,,,,,,2023-06-07,1,,,,,チンダオシャンイージャージーヨンピンヨウシエンゴンスー,0
1754,6010001235828,新規,0,2023-06-07,2023-06-07,株式会社ＲＥＳＰＥＸ,,株式会社,東京都,中央区,日本橋堀留町１丁目８番１１号日本橋人形町スクエア３階,,13,102,1030012,,,,,,,2023-06-07,1,,,,,リスペックス,0
1755,6010001235877,新規,0,2023-06-07,2023-06-07,株式会社ＡｔｏＺ,,株式会社,東京都,中央区,銀座１丁目１２番４号Ｎ＆ＥＢＬＤ．６Ｆ,,13,102,1040061,,,,,,,2023-06-07,1,,,,,エートゥーズィー,0
1756,6010001235885,新規,0,2023-06-07,2023-06-07,株式会社Ｍ’ｓマネジメント,,株式会社,東京都,中央区,東日本橋３丁目５番１６号,,13,102,1030004,,,,,,,2023-06-07,1,,,,,エムズマネジメント,0
1757,6010001235902,新規,0,2023-06-07,2023-06-07,株式会社ブレイブフライ,,株式会社,東京都,中央区,八丁堀２丁目１５番９号今宮ビル２Ａ,,13,102,1040032,,,,,,,2023-06-07,1,,,,,ブレイブフライ,0
1758,6010001235927,新規,0,2023-06-07,2023-06-07,ＩＣＳ株式会社,,株式会社,東京都,中央区,銀座１丁目２２番１１号銀座大竹ビジデンス２Ｆ,,13,102,1040061,,,,,,,2023-06-07,1,,,,,アイシーエス,0
1759,6010001235984,新規,0,2023-06-07,2023-06-07,株式会社サン・フォレスト,,株式会社,東京都,文京区,本郷２丁目１３番１３－５０２号,,13,105,1130033,,,,,,,2023-06-07,1,,,,,サンフォレスト,0
1761,6010003040771,新規,0,2023-06-07,2023-06-07,合同会社データ経済研究所,,合同会社,東京都,中央区,京橋２丁目６番１６号,,13,102,1040031,,,,,,,2023-06-07,1,,,,,データケイザイケンキュウジョ,0
1762,6010005036792,新規,0,2023-06-07,2023-06-07,一般社団法人全国映画センター,,その他の設立登記法人,東京都,文京区,本郷５丁目２０番４号,,13,105,1130033,,,,,,,2023-06-07,1,,,,,ゼンコクエイガセンター,0
1767,6010401174873,新規,0,2023-06-07,2023-06-07,富士フイルム・ダイオシンス・バイオテクノロジーズ・ジャパン株式会社,,株式会社,東京都,港区,六本木７丁目１２番２号,,13,103,1060032,,,,,,,2023-06-07,1,,,,,フジフイルムダイオシンスバイオテクノロジーズジャパン,0
1773,6010601063216,新規,0,2023-06-07,2023-06-07,株式会社ＢＥＡＭ,,株式会社,東京都,墨田区,向島３丁目４０番７号,,13,107,1310033,,,,,,,2023-06-07,1,,,,,ビーム,0
1774,6010601063224,新規,0,2023-06-07,2023-06-07,株式会社ＦＬＹＭＯＲＥ,,株式会社,東京都,江東区,千石３丁目１番２４号,,13,108,1350015,,,,,,,2023-06-07,1,,,,,フライモア,0
1775,6010701044363,新規,0,2023-06-07,2023-06-07,株式会社Ｈｏｓｐｅｅｄ,,株式会社,東京都,品川区,東五反田５丁目２５－１８ＥＮＺＯ五反田ビル七階,,13,109,1410022,,,,,,,2023-06-07,1,,,,,ホスピード,0
1780,6010801034025,新規,0,2023-06-07,2023-06-07,株式会社ＭＧＯ,,株式会社,東京都,大田区,大森北５丁目５番５号,,13,111,1430016,,,,,,,2023-06-07,1,,,,,エムジーオー,0
1782,6010901053180,新規,0,2023-06-07,2023-06-07,株式会社ＴＨＥ　ＥＺＯ,,株式会社,東京都,世田谷区,上馬１丁目１３番６－６０１号,,13,112,1540011,,,,,,,2023-06-07,1,,,,,ザエゾ,0
1783,6010901053189,新規,0,2023-06-07,2023-06-07,株式会社Ｍ７Ｌｏｇｉ,,株式会社,東京都,世田谷区,尾山台３丁目９番１号,,13,112,1580086,,,,,,,2023-06-07,1,,,,,エムセブンロジ,0
1784,6010901053197,新規,0,2023-06-07,2023-06-07,株式会社なみのカタチ,,株式会社,東京都,世田谷区,用賀１丁目９番２２号Ｅ５０３,,13,112,1580097,,,,,,,2023-06-07,1,,,,,ナミノカタチ,0
1785,6010901053206,新規,0,2023-06-07,2023-06-07,株式会社サウナガレージ,,株式会社,東京都,世田谷区,桜新町１丁目３４番２５号,,13,112,1540015,,,,,,,2023-06-07,1,,,,,サウナガレージ,0
1787,6011001154877,新規,0,2023-06-07,2023-06-07,安全教育株式会社,,株式会社,東京都,渋谷区,神宮前１丁目１０番３４号原宿コーポ別館２０１,,13,113,1500001,,,,,,,2023-06-07,1,,,,,アンゼンキョウイク,0
1788,6011001154885,新規,0,2023-06-07,2023-06-07,株式会社ＯＮＥ　ＬＩＦＥ,,株式会社,東京都,目黒区,目黒３丁目８番１０号パラスト目黒三丁目１０６号,,13,110,1530063,,,,,,,2023-06-07,1,,,,,ワンライフ,0
1789,6011001154893,新規,0,2023-06-07,2023-06-07,株式会社ＭＡＲＵＫ,,株式会社,東京都,渋谷区,道玄坂１丁目１０番８号渋谷道玄坂東急ビル２Ｆ－Ｃ,,13,113,1500043,,,,,,,2023-06-07,1,,,,,マルク,0
1790,6011001154902,新規,0,2023-06-07,2023-06-07,株式会社ＫＵＲＥＫＡＲＵ,,株式会社,東京都,渋谷区,代々木２丁目３８番１－８０１号ＭＯＤＩＥＲ・ＹＯＹＯＧＩ・ＲＥＳＩＤＥＮＣＥ,,13,113,1510053,,,,,,,2023-06-07,1,,,,,クレカル,0
1791,6011003016811,新規,0,2023-06-07,2023-06-07,Ｍａｇｅｎｔａ合同会社,,合同会社,東京都,渋谷区,恵比寿２丁目２４番６‐５０４号,,13,113,1500013,,,,,,,2023-06-07,1,,,,,マジェンタ,0
1792,6011003016935,新規,0,2023-06-07,2023-06-07,ＡＲＭＥＲＩＡ　ＰＬＡＮＳ合同会社,,合同会社,東京都,目黒区,自由が丘１丁目１９番１８号,,13,110,1520035,,,,,,,2023-06-07,1,,,,,,0
1793,6011003016951,新規,0,2023-06-07,2023-06-07,合同会社光画,,合同会社,東京都,渋谷区,神宮前１丁目１１番１１号グリーンファンタジアビル３０６号,,13,113,1500001,,,,,,,2023-06-07,1,,,,,コウガ,0
1796,6011101103040,新規,0,2023-06-07,2023-06-07,ＫＣソリューション株式会社,,株式会社,東京都,新宿区,四谷４丁目３番地１,,13,104,1600004,,,,,,,2023-06-07,1,,,,,ケーシーソリューション,0
1797,6011101103123,新規,0,2023-06-07,2023-06-07,株式会社Ａ＆Ｃｏｍｐａｎｙ,,株式会社,東京都,新宿区,西新宿６丁目１５番１号,,13,104,1600023,,,,,,,2023-06-07,1,,,,,エーアンドカンパニー,0
1798,6011101103172,新規,0,2023-06-07,2023-06-07,株式会社イルカシップス,,株式会社,東京都,新宿区,新宿５丁目１５－５,,13,104,1600022,,,,,,,2023-06-07,1,,,,,イルカシップス,0
1799,6011101103189,新規,0,2023-06-07,2023-06-07,株式会社松浦空調設備,,株式会社,東京都,新宿区,新宿３丁目１２番４号新宿Ｎタウンプラザ３０９号,,13,104,1600022,,,,,,,2023-06-07,1,,,,,マツウラクウチョウセツビ,0
1800,6011101103197,新規,0,2023-06-07,2023-06-07,株式会社あべりあ,,株式会社,東京都,新宿区,百人町１丁目２４－８新宿タウンプラザビル２階Ｇ号室,,13,104,1690073,,,,,,,2023-06-07,1,,,,,アベリア,0
1801,6011103013122,新規,0,2023-06-07,2023-06-07,合同会社三谷会計パートナーズ,,合同会社,東京都,新宿区,西新宿３丁目３番１３号西新宿水間ビル６階,,13,104,1600023,,,,,,,2023-06-07,1,,,,,ミツヤカイケイパートナーズ,0
1802,6011103013130,新規,0,2023-06-07,2023-06-07,合同会社Ｙ＆ＭＣ,,合同会社,東京都,新宿区,西新宿３丁目３番１３号西新宿水間ビル２Ｆ,,13,104,1600023,,,,,,,2023-06-07,1,,,,,ワイアンドエムシー,0
1809,6011601026880,新規,0,2023-06-07,2023-06-07,ユリイカ株式会社,,株式会社,東京都,練馬区,早宮４丁目３番８号,,13,120,1790085,,,,,,,2023-06-07,1,,,,,ユリイカ,0
1810,6011603003944,新規,0,2023-06-07,2023-06-07,合同会社フジカワ工務店,,合同会社,東京都,練馬区,大泉学園町８丁目２５番１号,,13,120,1780061,,,,,,,2023-06-07,1,,,,,フジカワコウムテン,0
1811,6011701026302,新規,0,2023-06-07,2023-06-07,株式会社グラシア,,株式会社,東京都,江戸川区,松島３丁目２０番１２号,,13,123,1320031,,,,,,,2023-06-07,1,,,,,グラシア,0
1816,6012401040601,新規,0,2023-06-07,2023-06-07,株式会社ビクトリーポイント,,株式会社,東京都,調布市,下石原３丁目２２番地２０,,13,208,1820034,,,,,,,2023-06-07,1,,,,,ビクトリーポイント,0
1817,6012403005998,新規,0,2023-06-07,2023-06-07,ひにもり合同会社,,合同会社,東京都,武蔵野市,境２丁目４－３スヤマ武蔵野１階,,13,203,1800022,,,,,,,2023-06-07,1,,,,,ヒニモリ,0
1820,6012801022414,新規,0,2023-06-07,2023-06-07,Ｒｏｏｔｓ　Ｈｉｍａｌａｙａ株式会社,,株式会社,東京都,立川市,柴崎町５丁目１７番２号,,13,202,1900023,,,,,,,2023-06-07,1,,,,,ルーツヒマラヤ,0
1826,6020001151917,新規,0,2023-06-07,2023-06-07,ライフテック株式会社,,株式会社,神奈川県,横浜市港北区,樽町１丁目１８番５１－２号,,14,109,2220001,,,,,,,2023-06-07,1,,,,,ライフテック,0
1827,6020001151941,新規,0,2023-06-07,2023-06-07,ＡｘｏｎＴｅｃｈ株式会社,,株式会社,神奈川県,横浜市磯子区,磯子３丁目１３番Ｋ－２０６号,,14,107,2350016,,,,,,,2023-06-07,1,,,,,アクソンテック,0
1828,6020001151958,新規,0,2023-06-07,2023-06-07,株式会社ユー・エス・エンタープライズ,,株式会社,神奈川県,川崎市宮前区,鷺沼４丁目１７番地３グランドメゾン鷺沼ザ・ヴィラ４１５,,14,136,2160004,,,,,,,2023-06-07,1,,,,,ユーエスエンタープライズ,0
1838,6021001079215,新規,0,2023-06-07,2023-06-07,ナミキアソシエイツ株式会社,,株式会社,神奈川県,横須賀市,衣笠栄町１丁目４３番地並木ビル２階,,14,201,2380031,,,,,,,2023-06-07,1,,,,,ナミキアソシエイツ,0
1841,6021003013171,新規,0,2023-06-07,2023-06-07,ライフライン合同会社,,合同会社,神奈川県,平塚市,豊原町１２番１２号,,14,203,2540051,,,,,,,2023-06-07,1,,,,,ライフライン,0
1847,6030001154209,新規,0,2023-06-07,2023-06-07,株式会社ＡＢＤＵＬＬＡＨ,,株式会社,埼玉県,草加市,稲荷５丁目４番１１号,,11,221,3400003,,,,,,,2023-06-07,1,,,,,アブドゥーラ,0
1848,6030001154217,新規,0,2023-06-07,2023-06-07,株式会社ＭＪ,,株式会社,埼玉県,狭山市,新狭山２丁目１４番２号レクセル新狭山７０５,,11,215,3501331,,,,,,,2023-06-07,1,,,,,エムジェイ,0
1849,6030001154233,新規,0,2023-06-07,2023-06-07,株式会社ラスティキッス,,株式会社,埼玉県,川越市,日東町９番地５,,11,201,3501160,,,,,,,2023-06-07,1,,,,,ラスティキッス,0
1857,6040001128541,新規,0,2023-06-07,2023-06-07,株式会社円美,,株式会社,千葉県,千葉市中央区,本千葉町１５－１,,12,101,2600014,,,,,,,2023-06-07,1,,,,,エンビ,0
1858,6040001128649,新規,0,2023-06-07,2023-06-07,株式会社Ｋｆｌｏｏｒ,,株式会社,千葉県,船橋市,駿河台２丁目１７番２７号,,12,204,2730862,,,,,,,2023-06-07,1,,,,,ケーフロア,0
1859,6040001128698,新規,0,2023-06-07,2023-06-07,株式会社ＧＬＡＮ,,株式会社,千葉県,千葉市花見川区,幕張町３丁目１５７２番地１,,12,102,2620032,,,,,,,2023-06-07,1,,,,,グラン,0
1860,6040001128723,新規,0,2023-06-07,2023-06-07,株式会社コミュニケーションデザイン,,株式会社,千葉県,市川市,欠真間２丁目１６番１２号,,12,203,2720142,,,,,,,2023-06-07,1,,,,,コミュニケーションデザイン,0
1861,6040001128764,新規,0,2023-06-07,2023-06-07,株式会社コアの木,,株式会社,千葉県,松戸市,西馬橋４丁目３４－２,,12,207,2710044,,,,,,,2023-06-07,1,,,,,コアノキ,0
1862,6040001128780,新規,0,2023-06-07,2023-06-07,株式会社ＨＰ・Ｅ,,株式会社,千葉県,千葉市稲毛区,園生町４５１番地５０,,12,103,2630051,,,,,,,2023-06-07,1,,,,,エイチピーイー,0
1865,6040003022701,新規,0,2023-06-07,2023-06-07,ＫＴＹ合同会社,,合同会社,千葉県,柏市,増尾２丁目１６番４号,,12,217,2770033,,,,,,,2023-06-07,1,,,,,ケイティーワイ,0
1866,6040003022767,新規,0,2023-06-07,2023-06-07,合同会社正進,,合同会社,千葉県,千葉市稲毛区,小中台町３４０番地３キャロット１０３号,,12,103,2630044,,,,,,,2023-06-07,1,,,,,セイシン,0
1874,6070001040495,新規,0,2023-06-07,2023-06-07,楚光株式会社,,株式会社,群馬県,邑楽郡千代田町,大字舞木９４０番地,,10,523,3700504,,,,,,,2023-06-07,1,,,,,ソコウ,0
1875,6070001040529,新規,0,2023-06-07,2023-06-07,ブルーローズ株式会社,,株式会社,群馬県,伊勢崎市,波志江町１０２１番地２,,10,204,3720001,,,,,,,2023-06-07,1,,,,,ブルーローズ,0
1877,6080101024050,新規,0,2023-06-07,2023-06-07,株式会社１０２８,,株式会社,静岡県,伊豆の国市,長岡１０６７番地の１,,22,225,4102211,,,,,,,2023-06-07,1,,,,,イチゼロニハチ,0
1880,6080403004799,新規,0,2023-06-07,2023-06-07,岩美日中合同会社,,合同会社,静岡県,湖西市,南台４丁目２番８６号,,22,221,4310429,,,,,,,2023-06-07,1,,,,,イワミニッチュウ,0
1889,6110001037594,新規,0,2023-06-07,2023-06-07,株式会社アイキャップ,,株式会社,新潟県,三条市,荻堀字藤平１３９７番地４２,,15,204,9550151,,,,,,,2023-06-07,1,,,,,アイキャップ,0
1901,6120001255419,新規,0,2023-06-07,2023-06-07,ホスピタソンエステート株式会社,,株式会社,大阪府,大阪市北区,梅田２丁目２番２号ヒルトンプラザウエストオフィスタワー１９階,,27,127,5300001,,,,,,,2023-06-07,1,,,,,ホスピタソンエステート,0
1902,6120001255443,新規,0,2023-06-07,2023-06-07,株式会社ＤＥＩｃｏｎｎｅｃｔ,,株式会社,大阪府,大阪市港区,築港４丁目２番２１－５０４号,,27,107,5520021,,,,,,,2023-06-07,1,,,,,ディーコネクト,0
1903,6120001255501,新規,0,2023-06-07,2023-06-07,株式会社サクシード,,株式会社,大阪府,大阪市中央区,上町１丁目２番２８－１７０２号,,27,128,5400005,,,,,,,2023-06-07,1,,,,,サクシード,0
1904,6120001255518,新規,0,2023-06-07,2023-06-07,株式会社リビルドワークス,,株式会社,大阪府,大阪市西区,南堀江３丁目２番１号,,27,106,5500015,,,,,,,2023-06-07,1,,,,,リビルドワークス,0
1905,6120001255542,新規,0,2023-06-07,2023-06-07,株式会社グロスビットレート,,株式会社,大阪府,大阪市北区,梅田１丁目２番２号大阪駅前第２ビル１２‐１２,,27,127,5300001,,,,,,,2023-06-07,1,,,,,グロスビットレート,0
1909,6120101067648,新規,0,2023-06-07,2023-06-07,株式会社ＬＭＮＯＰ,,株式会社,大阪府,堺市中区,深井水池町３４０６番地７,,27,142,5998237,,,,,,,2023-06-07,1,,,,,エレメノピー,0
1910,6120101067680,新規,0,2023-06-07,2023-06-07,株式会社カスミヤ,,株式会社,大阪府,松原市,三宅西２丁目７番４号,,27,217,5800045,,,,,,,2023-06-07,1,,,,,カスミヤ,0
1911,6120101067697,新規,0,2023-06-07,2023-06-07,株式会社田中工務店,,株式会社,大阪府,岸和田市,磯上町２丁目１１番１３号,,27,202,5960001,,,,,,,2023-06-07,1,,,,,タナカコウムテン,0
1915,6120901047634,新規,0,2023-06-07,2023-06-07,株式会社ＳＵＮ　ＰＩＬＬＡＲ,,株式会社,大阪府,豊中市,庄内東町６丁目７番１５号,,27,203,5610831,,,,,,,2023-06-07,1,,,,,サンピラー,0
1916,6120903004674,新規,0,2023-06-07,2023-06-07,合同会社ＪＣ１,,合同会社,大阪府,豊中市,玉井町３丁目５－１ロイヤル豊中玉井町３０５,,27,203,5600026,,,,,,,2023-06-07,1,,,,,ジェイシーワン,0
1917,6122001037053,新規,0,2023-06-07,2023-06-07,進電設株式会社,,株式会社,大阪府,柏原市,本郷４丁目３番６号,,27,221,5820001,,,,,,,2023-06-07,1,,,,,シンデンセツ,0
1918,6122003002600,新規,0,2023-06-07,2023-06-07,Ｓ．ＰＡＩＹＵＮ　ＥＶＥＲＥＳＴ合同会社,,合同会社,大阪府,東大阪市,御厨東２丁目６番１８号,,27,227,5770033,,,,,,,2023-06-07,1,,,,,エスパイユンエベレスト,0
1921,6130001074479,新規,0,2023-06-07,2023-06-07,テトラソリューションズ株式会社,,株式会社,京都府,京都市上京区,宮垣町９１－１０２,,26,102,6020853,,,,,,,2023-06-07,1,,,,,テトラソリューションズ,0
1922,6130001074487,新規,0,2023-06-07,2023-06-07,株式会社総樹建設,,株式会社,京都府,京都市伏見区,醍醐構口町２３－３０１,,26,109,6011354,,,,,,,2023-06-07,1,,,,,ソウキケンセツ,0
1926,6130005016790,新規,0,2023-06-07,2023-06-07,税理士法人ｔｒｅｅ,,その他の設立登記法人,京都府,南丹市,園部町若松町５８番地,,26,213,6220017,,,,,,,2023-06-07,1,,,,,ツリー,0
1931,6140001130355,新規,0,2023-06-07,2023-06-07,株式会社向日葵,,株式会社,兵庫県,神戸市須磨区,妙法寺字女夫岩１０９４－７,,28,107,6540121,,,,,,,2023-06-07,1,,,,,ヒマワリ,0
1932,6140001130421,新規,0,2023-06-07,2023-06-07,株式会社ダブルビー,,株式会社,兵庫県,川西市,下加茂１丁目２９番４号,,28,217,6660022,,,,,,,2023-06-07,1,,,,,ダブルビー,0
1933,6140003019175,新規,0,2023-06-07,2023-06-07,合同会社ｎｏｎａｇｒａｍ,,合同会社,兵庫県,西脇市,黒田庄町福地４００番地の７,,28,213,6790314,,,,,,,2023-06-07,1,,,,,ノナグラム,0
1936,6150005009487,新規,0,2023-06-07,2023-06-07,行政書士法人ライフパートナーズ,,その他の設立登記法人,奈良県,香芝市,鎌田５５３番地２０,,29,210,6390227,,,,,,,2023-06-07,1,,,,,ライフパートナーズ,0
1938,6170001017640,新規,0,2023-06-07,2023-06-07,クジゴジ会計株式会社,,株式会社,和歌山県,和歌山市,太田４丁目３－５,,30,201,6408323,,,,,,,2023-06-07,1,,,,,クジゴジカイケイ,0
1951,6180001156529,新規,0,2023-06-07,2023-06-07,きらり株式会社,,株式会社,愛知県,名古屋市中川区,服部４丁目６０９番地の２,,23,110,4540976,,,,,,,2023-06-07,1,,,,,キラリ,0
1952,6180001156537,新規,0,2023-06-07,2023-06-07,ＳＧＰ株式会社,,株式会社,愛知県,海部郡蟹江町,宝１丁目４２５番地,,23,425,4970030,,,,,,,2023-06-07,1,,,,,エスジーピー,0
1953,6180001156586,新規,0,2023-06-07,2023-06-07,株式会社中部システム,,株式会社,愛知県,名古屋市中区,千代田４丁目４－７フェリシタージ４０１,,23,106,4600012,,,,,,,2023-06-07,1,,,,,チュウブシステム,0
1954,6180001156669,新規,0,2023-06-07,2023-06-07,株式会社エアコンパートナー,,株式会社,愛知県,名古屋市守山区,廿軒家１５番２２号エレストビル３Ｆ,,23,113,4630065,,,,,,,2023-06-07,1,,,,,エアコンパートナー,0
1955,6180001156693,新規,0,2023-06-07,2023-06-07,株式会社松永,,株式会社,愛知県,名古屋市北区,三軒町２０３番地の２,,23,103,4620004,,,,,,,2023-06-07,1,,,,,マツナガ,0
1964,6180003025310,新規,0,2023-06-07,2023-06-07,合同会社ケイセイ工務店,,合同会社,愛知県,名古屋市中川区,西中島２丁目６０５番地,,23,110,4540934,,,,,,,2023-06-07,1,,,,,ケイセイコウムテン,0
1965,6180003025335,新規,0,2023-06-07,2023-06-07,合同会社ＭＢＣ,,合同会社,愛知県,名古屋市守山区,翠松園２丁目２１８番地の４,,23,113,4630010,,,,,,,2023-06-07,1,,,,,エムビーシー,0
1969,6190001030476,新規,0,2023-06-07,2023-06-07,株式会社北山アセットマネジメント,,株式会社,三重県,津市,上浜町５丁目１６７番地２,,24,201,5140008,,,,,,,2023-06-07,1,,,,,キタヤマアセットマネジメント,0
1971,6190005011828,新規,0,2023-06-07,2023-06-07,一般社団法人セントラルウインドアカデミー,,その他の設立登記法人,三重県,四日市市,十七軒町１２番１３号,,24,202,5100063,,,,,,,2023-06-07,1,,,,,セントラルウインドアカデミー,0
1973,6200001041372,新規,0,2023-06-07,2023-06-07,株式会社ＧＩＦＴ,,株式会社,岐阜県,瑞浪市,寺河戸町１０９０番地３ブランシュラピーヌ１階Ｅ号室,,21,208,5096121,,,,,,,2023-06-07,1,,,,,ギフト,0
1974,6200001041389,新規,0,2023-06-07,2023-06-07,株式会社ＨＤＦ,,株式会社,岐阜県,岐阜市,東鶉３丁目５９番地,,21,201,5008281,,,,,,,2023-06-07,1,,,,,エイチディーエフ,0
1977,6200003005978,新規,0,2023-06-07,2023-06-07,合同会社陽昊,,合同会社,岐阜県,岐阜市,久保見町９０番地,,21,201,5008349,,,,,,,2023-06-07,1,,,,,ハルコウ,0
1978,6200005013491,新規,0,2023-06-07,2023-06-07,一般社団法人ＳＭＩＬＩＮＫ,,その他の設立登記法人,岐阜県,大垣市,領家町１丁目６３番地２,,21,202,5030014,,,,,,,2023-06-07,1,,,,,スマイリンク,0
1983,6220005008762,新規,0,2023-06-07,2023-06-07,医療法人なんぶ歯科クリニック,,その他の設立登記法人,石川県,金沢市,駅西新町３丁目１番３１号,,17,201,9200027,,,,,,,2023-06-07,1,,,,,ナンブシカクリニック,0
1989,6230005009306,新規,0,2023-06-07,2023-06-07,一般社団法人アルベルゴディフーゾ新湊を拓く会,,その他の設立登記法人,富山県,射水市,八幡町２丁目１番１１号,,16,211,9340025,,,,,,,2023-06-07,1,,,,,アルベルゴディフーゾシンミナトヲヒラクカイ,0
1991,6240003006171,新規,0,2023-06-07,2023-06-07,ＰＣＣＮ合同会社,,合同会社,広島県,広島市安佐北区,白木町大字三田７３７６番地１３,,34,106,7391521,,,,,,,2023-06-07,1,,,,,ピーシーシーエヌ,0
1995,6250003003283,新規,0,2023-06-07,2023-06-07,合同会社ＭＳテック,,合同会社,山口県,光市,島田３丁目３番３６号－１Ｂ,,35,210,7430063,,,,,,,2023-06-07,1,,,,,エムエステック,0
2003,6290001101762,新規,0,2023-06-07,2023-06-07,株式会社Ｗａｌｋａｂｌｅ　Ｆｕｔｕｒｅ,,株式会社,福岡県,久留米市,旭町６７番地学校法人久留米大学基礎３号館３階３０３室,,40,203,8300011,,,,,,,2023-06-07,1,,,,,ウォーカブルフューチャー,0
2004,6290001101787,新規,0,2023-06-07,2023-06-07,株式会社井上ステンレス,,株式会社,福岡県,筑後市,大字久富９３番地１,,40,211,8330056,,,,,,,2023-06-07,1,,,,,イノウエステンレス,0
2005,6290001101804,新規,0,2023-06-07,2023-06-07,株式会社メトゥール販売,,株式会社,福岡県,久留米市,宮ノ陣６丁目１０番２５号,,40,203,8390801,,,,,,,2023-06-07,1,,,,,メトゥールハンバイ,0
2006,6290001101820,新規,0,2023-06-07,2023-06-07,カルド株式会社,,株式会社,福岡県,福岡市東区,香椎浜４丁目１番１３－７０１号,,40,131,8130016,,,,,,,2023-06-07,1,,,,,カルド,0
2007,6290001101829,新規,0,2023-06-07,2023-06-07,株式会社ぱん,,株式会社,福岡県,福岡市中央区,天神４丁目６番２８号天神ファーストビル７階,,40,133,8100001,,,,,,,2023-06-07,1,,,,,パン,0
2008,6290003013989,新規,0,2023-06-07,2023-06-07,合同会社吉岡・友野事務所ＪＶ,,合同会社,福岡県,飯塚市,有井２５８番地２５,,40,205,8200112,,,,,,,2023-06-07,1,,,,,ヨシオカトモノジムショジェイブイ,0
2009,6290003013997,新規,0,2023-06-07,2023-06-07,合同会社いろは,,合同会社,福岡県,大野城市,乙金台２丁目８番４号ホワイトヴィラ３０２号,,40,219,8160903,,,,,,,2023-06-07,1,,,,,イロハ,0
2011,6290801029591,新規,0,2023-06-07,2023-06-07,株式会社峰組,,株式会社,福岡県,宮若市,竹原３８９番地１,,40,226,8220142,,,,,,,2023-06-07,1,,,,,ミネグミ,0
2013,6310001018459,新規,0,2023-06-07,2023-06-07,大村リゾート開発株式会社,,株式会社,長崎県,佐世保市,針尾東町２３０９番地１２,,42,202,8593451,,,,,,,2023-06-07,1,,,,,オオムラリゾートカイハツ,0
2018,6330003009867,新規,0,2023-06-07,2023-06-07,合同会社あけぼの,,合同会社,熊本県,宇城市,不知火町松合７５２番地,,43,213,8693472,,,,,,,2023-06-07,1,,,,,アケボノ,0
2021,6350001018389,新規,0,2023-06-07,2023-06-07,株式会社グラン・ブルー,,株式会社,宮崎県,宮崎市,薫る坂２丁目２３番７号,,45,201,8800947,,,,,,,2023-06-07,1,,,,,グランブルー,0
2022,6360001032109,新規,0,2023-06-07,2023-06-07,高安自動車工業株式会社,00130751,株式会社,沖縄県,糸満市,字国吉７２０番地,,47,210,9010324,,,,,,,2023-06-07,1,,,,,タカヤスジドウシャコウギョウ,0
2024,6360003013032,新規,0,2023-06-07,2023-06-07,合同会社ティーダプランニング,,合同会社,沖縄県,うるま市,字江洲２１５７番地１２,,47,213,9042244,,,,,,,2023-06-07,1,,,,,ティーダプランニング,0
2025,6360003013040,新規,0,2023-06-07,2023-06-07,合同会社ｎｉｉｉ,,合同会社,沖縄県,那覇市,字国場２５８番地１１,,47,201,9020075,,,,,,,2023-06-07,1,,,,,ニー,0
2028,6370001050035,新規,0,2023-06-07,2023-06-07,株式会社湯目家具百貨店,,株式会社,宮城県,仙台市青葉区,本町２丁目７番３号,,04,101,9800014,,,,,,,2023-06-07,1,,,,,ユノメカグヒャッカテン,0
2029,6370001050051,新規,0,2023-06-07,2023-06-07,株式会社Ｃｏｒｅｖｉｎｅ,,株式会社,宮城県,仙台市太白区,中田３丁目７番４５号,,04,104,9811104,,,,,,,2023-06-07,1,,,,,コアバイン,0
2036,6380001033749,新規,0,2023-06-07,2023-06-07,株式会社愛音ｐａｓｓｅｒｅｌｌｅ,,株式会社,福島県,福島市,飯坂町字銀杏１番地１３,,07,201,9600201,,,,,,,2023-06-07,1,,,,,アントパスレル,0
2037,6380001033765,新規,0,2023-06-07,2023-06-07,ＦｉｎｄＶａｌｕｅ株式会社,,株式会社,福島県,郡山市,緑町９ー１２,,07,203,9638023,,,,,,,2023-06-07,1,,,,,ファインドバリュー,0
2039,6380003005473,新規,0,2023-06-07,2023-06-07,合同会社フィオーレ,,合同会社,福島県,郡山市,日和田町八丁目字聖坊３２番地３,,07,203,9630533,,,,,,,2023-06-07,1,,,,,フィオーレ,0
2042,6390003002107,新規,0,2023-06-07,2023-06-07,合同会社ＮＩＨＯＮＳＨＵＫＡＩ,,合同会社,山形県,山形市,上町２丁目９－５,,06,201,9902483,,,,,,,2023-06-07,1,,,,,ニホンシュカイ,0
2045,6400003003094,新規,0,2023-06-07,2023-06-07,毘沙門商会合同会社,,合同会社,岩手県,遠野市,綾織町＿崎３地割４６番地,00130764,03,208,0280534,,,,,,,2023-06-07,1,,,,,ビシャモンショウカイ,0
2048,6420001018290,新規,0,2023-06-07,2023-06-07,株式会社イーシーズ,,株式会社,青森県,平川市,唐竹堀合２１番地８,,02,210,0360132,,,,,,,2023-06-07,1,,,,,イーシーズ,0
2051,6420003002739,新規,0,2023-06-07,2023-06-07,合同会社津軽自動車学校,,合同会社,青森県,つがる市,柏稲盛岡本２４番地,,02,209,0383107,,,,,,,2023-06-07,1,,,,,ツガルジドウシャガッコウ,0
2054,6430001089281,新規,0,2023-06-07,2023-06-07,ＳＤコーポレーション株式会社,,株式会社,北海道,札幌市手稲区,前田五条６丁目１番１６号,,01,109,0060815,,,,,,,2023-06-07,1,,,,,エスディーコーポレーション,0
2055,6430001089298,新規,0,2023-06-07,2023-06-07,株式会社Ｃａｍ＆Ｓｅｒｇｅ　Ｌｕｘｕｒｙ　Ｈｏｕｓｅｓ　Ｒｅｓｏｒｔ＆Ｓｋｉ,,株式会社,北海道,虻田郡倶知安町,北一条西１丁目１番地１山崎ビル３階,,01,400,0440051,,,,,,,2023-06-07,1,,,,,カムアンドセルジュラグジュアリーハウスリゾートアンドスキー,0
2057,6430003015120,新規,0,2023-06-07,2023-06-07,合同会社ｔｏｂｉｒａ,,合同会社,北海道,虻田郡倶知安町,北三条東６丁目４番地１２ＲＩＳＥ　ＮＩＳＥＫＯ３０５,,01,400,0440003,,,,,,,2023-06-07,1,,,,,トビラ,0
2058,6430003015137,新規,0,2023-06-07,2023-06-07,アスリンクソフト合同会社,,合同会社,北海道,札幌市中央区,北二条西２丁目３番２号第３７桂和ビル５階,,01,101,0600002,,,,,,,2023-06-07,1,,,,,アスリンクソフト,0
2060,6440001009271,新規,0,2023-06-07,2023-06-07,小田工務店株式会社,,株式会社,北海道,茅部郡鹿部町,字宮浜６７番地１９,,01,343,0411403,,,,,,,2023-06-07,1,,,,,オダコウムテン,0
2061,6450001014007,新規,0,2023-06-07,2023-06-07,株式会社よねやアグリ,,株式会社,北海道,士別市,多寄町三十一線西７番地,,01,220,0980475,,,,,,,2023-06-07,1,,,,,ヨネヤアグリ,0
2062,6460003000953,新規,0,2023-06-07,2023-06-07,合同会社遡上,,合同会社,北海道,釧路市,川上町５丁目１野口商会２Ｆ,,01,206,0850012,,,,,,,2023-06-07,1,,,,,ソジョウ,0
2064,6470001019648,新規,0,2023-06-07,2023-06-07,横山電気株式会社,,株式会社,香川県,観音寺市,村黒町５８６番地２,,37,205,7680013,,,,,,,2023-06-07,1,,,,,ヨコヤマデンキ,0
2065,6470001019656,新規,0,2023-06-07,2023-06-07,株式会社イトカワ電工,,株式会社,香川県,高松市,国分寺町新居１５３番地３,,37,201,7690101,,,,,,,2023-06-07,1,,,,,イトカワデンコウ,0
2072,6500001024990,新規,0,2023-06-07,2023-06-07,ＬＣサポート株式会社,,株式会社,愛媛県,今治市,南高下町１丁目３番７号,,38,202,7940811,,,,,,,2023-06-07,1,,,,,エルシーサポート,0
2075,6700150115232,新規,0,2023-06-07,2023-04-10,リバーサイドさかえドラムマラソン実行委員会,,その他,千葉県,印旛郡栄町,安食９３８－１ふれあいプラザさかえ内,,12,329,2701516,,,,,,,2023-04-10,1,,,,,リバーサイドサカエドラムマラソンジツコウイインカイ,0
2076,6700150116957,新規,0,2023-06-07,2023-06-07,ＴＲＩＣＡＳＴＬＥ　ＩＮＴＥＲＮＡＴＩＯＮＡＬ，ＩＮＣ．,,外国会社等,東京都,江戸川区,東葛西３丁目２番１１号,,13,123,1340084,フィリピン共和国西ネグロス州バコロド市バランガイ３９番地ロクサスアベニュー４１号,,,,,,2023-06-07,1,,,,,トライキヤツスルインターナシヨナルインク,0
2077,6700150116965,新規,0,2023-06-07,2023-06-07,Ｄｏｎｇ　ｇｕａｎ　ｓｈｉ　ｚｈｅｎ　ｋｅ　ｓｈｉ　ｙｅ　ｙｏｕ　ｘｉａｎ　ｇｏｎｇ　ｓｉ,,外国会社等,,,,,,,,Ｒｏｏｍ　２０１，Ｎｏ．２９，Ｗａｎｊｉａｎｇ　Ｍｏｗｕ　Ｓｔｒｅｅｔ　Ｄｏｎｇｇｕａｎ　Ｇｕａｎｇｄｏｎｇ　５２３１７０　ＣＮ,,,,,,2023-06-07,1,,,,,ドングワンシージェンコーシーイエヨウシエンゴンスー,0
2087,7010001235760,新規,0,2023-06-07,2023-06-07,株式会社Ｊ＆Ｓパートナーズ,,株式会社,東京都,千代田区,麹町４丁目３番地紅谷ビル５階,,13,101,1020083,,,,,,,2023-06-07,1,,,,,ジェイアンドエスパートナーズ,0
2088,7010001235827,新規,0,2023-06-07,2023-06-07,株式会社おたから金太,,株式会社,東京都,中央区,銀座６丁目１３番９号９階ｂｉｚｃｕｂｅ,,13,102,1040061,,,,,,,2023-06-07,1,,,,,オタカラキンタ,0
2089,7010001235876,新規,0,2023-06-07,2023-06-07,株式会社Ｌａｎｄ,,株式会社,東京都,中央区,銀座１丁目１２番４号,,13,102,1040061,,,,,,,2023-06-07,1,,,,,ランド,0
2090,7010001235892,新規,0,2023-06-07,2023-06-07,ライズエンジニアリング株式会社,,株式会社,東京都,中央区,日本橋蛎殻町１丁目１１番３号,,13,102,1030014,,,,,,,2023-06-07,1,,,,,ライズエンジニアリング,0
2091,7010001235942,新規,0,2023-06-07,2023-06-07,株式会社ハウツー,,株式会社,東京都,中央区,日本橋小伝馬町９－２石田ビル３階,,13,102,1030001,,,,,,,2023-06-07,1,,,,,ハウツー,0
2092,7010001235959,新規,0,2023-06-07,2023-06-07,株式会社ＥＣＯ　ＭＡＮＡＧＥ　ＨＯＬＤＩＮＧＳ,,株式会社,東京都,中央区,日本橋室町１丁目１１番１２号日本橋水野ビル７階,,13,102,1030022,,,,,,,2023-06-07,1,,,,,エコマネージホールディングス,0
2097,7010003040795,新規,0,2023-06-07,2023-06-07,合同会社こうの屋,,合同会社,東京都,中央区,日本橋蛎殻町１丁目３０番２号,,13,102,1030014,,,,,,,2023-06-07,1,,,,,コウノヤ,0
2101,7010101015674,新規,0,2023-06-07,2023-06-07,株式会社Ｋ・Ｓ・Ｃ,,株式会社,東京都,八王子市,上柚木２丁目６３番地,,13,201,1920373,,,,,,,2023-06-07,1,,,,,ケーエスシー,0
2105,7010401174815,新規,0,2023-06-07,2023-06-07,株式会社Ｃｅｎｔｒａｌ　Ｄｏｇｍａ　Ｈｏｌｄｉｎｇｓ,,株式会社,東京都,港区,六本木３丁目３番１５号麻布台ＴＳタワー３０２,,13,103,1060032,,,,,,,2023-06-07,1,,,,,セントラルドグマホールディングス,0
2106,7010401174897,新規,0,2023-06-07,2023-06-07,株式会社アストラパートナーズ,,株式会社,東京都,港区,赤坂２丁目１８番１３号,,13,103,1070052,,,,,,,2023-06-07,1,,,,,アストラパートナーズ,0
2108,7010503007030,新規,0,2023-06-07,2023-06-07,ＦｉｅｌｄＢｅａｒ合同会社,,合同会社,東京都,台東区,東上野５丁目５番１２－１４０２号Ｂｒｉｌｌｉａ上野Ｐｌａｃｅ,,13,106,1100015,,,,,,,2023-06-07,1,,,,,フィールドベアー,0
2109,7010601063223,新規,0,2023-06-07,2023-06-07,株式会社ＴＯＭＹエンタテイメント,,株式会社,東京都,江東区,古石場１丁目１０番９号,,13,108,1350045,,,,,,,2023-06-07,1,,,,,トミーエンタテイメント,0
2114,7010701044362,新規,0,2023-06-07,2023-06-07,株式会社ＫＷＡＹＫ,,株式会社,東京都,品川区,南大井５丁目４番１号,,13,109,1400013,,,,,,,2023-06-07,1,,,,,ケーウェイケー,0
2116,7010801034024,新規,0,2023-06-07,2023-06-07,株式会社キャリアサポート,,株式会社,東京都,大田区,北千束１丁目５５番２号,,13,111,1450062,,,,,,,2023-06-07,1,,,,,キャリアサポート,0
2117,7010901053163,新規,0,2023-06-07,2023-06-07,ＳＴＥＡＤＹ株式会社,,株式会社,東京都,世田谷区,駒沢３丁目１６番２号レ・クレドール駒沢３０１,,13,112,1540012,,,,,,,2023-06-07,1,,,,,ステディ,0
2118,7010901053188,新規,0,2023-06-07,2023-06-07,株式会社ＤＮＫ,,株式会社,東京都,世田谷区,尾山台３丁目９－１,,13,112,1580086,,,,,,,2023-06-07,1,,,,,ディーエヌケイ,0
2119,7010903008223,新規,0,2023-06-07,2023-06-07,合同会社ｎａｇｇｉ,,合同会社,東京都,世田谷区,経堂５丁目３番１７号キャニオンコープ経堂１０５,,13,112,1560052,,,,,,,2023-06-07,1,,,,,ナッジ,0
2128,7011001154843,新規,0,2023-06-07,2023-06-07,株式会社マキノラボ,,株式会社,東京都,目黒区,目黒１丁目４番１６号目黒Ｇビル７Ｆ,,13,110,1530063,,,,,,,2023-06-07,1,,,,,マキノラボ,0
2129,7011001154868,新規,0,2023-06-07,2023-06-07,株式会社城南アカウンティング,,株式会社,東京都,目黒区,中町１丁目４１番７－１０９号,,13,110,1530065,,,,,,,2023-06-07,1,,,,,ジョウナンアカウンティング,0
2130,7011001154884,新規,0,2023-06-07,2023-06-07,株式会社ＭＩＲＡＩＣＬＥ　ＲＩＳＥ,,株式会社,東京都,渋谷区,恵比寿１丁目３４番１１号グランドヒルズ恵比寿１８０６,,13,113,1500013,,,,,,,2023-06-07,1,,,,,ミライクルライズ,0
2131,7011001154901,新規,0,2023-06-07,2023-06-07,株式会社ｈｉｇｈ　ｂｒｉｄｇｅ,,株式会社,東京都,渋谷区,富ヶ谷１丁目４９番４号,,13,113,1510063,,,,,,,2023-06-07,1,,,,,ハイブリッジ,0
2132,7011001154926,新規,0,2023-06-07,2023-06-07,株式会社ヒューマンネスト,,株式会社,東京都,目黒区,中目黒３丁目２２番１１号メグロハイム３０３,,13,110,1530061,,,,,,,2023-06-07,1,,,,,ヒューマンネスト,0
2133,7011001154934,新規,0,2023-06-07,2023-06-07,株式会社Ｍｅｄｉ　Ｆｒａｇｓ,,株式会社,東京都,渋谷区,道玄坂１丁目１０番８号渋谷道玄坂東急ビル２Ｆ－Ｃ,,13,113,1500043,,,,,,,2023-06-07,1,,,,,メディフラッグス,0
2134,7011003016950,新規,0,2023-06-07,2023-06-07,合同会社５０１,,合同会社,東京都,渋谷区,神宮前６丁目２３番４号桑野ビル２Ｆ,,13,113,1500001,,,,,,,2023-06-07,1,,,,,ゴーマルイチ,0
2135,7011003016959,新規,0,2023-06-07,2023-06-07,合同会社ｌｉｎｃｗｉｚ．,,合同会社,東京都,渋谷区,神泉町２０番２１号クロスシー渋谷神泉ビル,,13,113,1500045,,,,,,,2023-06-07,1,,,,,リンクウィズ,0
2145,7011101103130,新規,0,2023-06-07,2023-06-07,ＣＪアライアンス株式会社,,株式会社,東京都,新宿区,西新宿１丁目２０番３号西新宿高木ビル,,13,104,1600023,,,,,,,2023-06-07,1,,,,,シージェイアライアンス,0
2156,7011801042537,新規,0,2023-06-07,2023-06-07,笹にすずめ株式会社,,株式会社,東京都,葛飾区,新小岩２丁目１９－１３,,13,122,1240024,,,,,,,2023-06-07,1,,,,,ササニスズメ,0
2157,7011803005673,新規,0,2023-06-07,2023-06-07,觀龍合同会社,,合同会社,東京都,葛飾区,堀切３丁目３５番１号,,13,122,1240006,,,,,,,2023-06-07,1,,,,,カンリュウ,0
2161,7012401040600,新規,0,2023-06-07,2023-06-07,株式会社ＴＴ企画,,株式会社,東京都,多摩市,東寺方６７７番地の６,,13,224,2060003,,,,,,,2023-06-07,1,,,,,ティーティーキカク,0
2165,7012803003097,新規,0,2023-06-07,2023-06-07,合同会社Ｈ２Ｏ,,合同会社,東京都,国分寺市,東元町２丁目２－１０,,13,214,1850022,,,,,,,2023-06-07,1,,,,,エイチツーオー,0
2166,7012805003203,新規,0,2023-06-07,2023-06-07,一般社団法人いきいきライフ協会くにたち,,その他の設立登記法人,東京都,国立市,東１丁目１５番地２１,,13,215,1860002,,,,,,,2023-06-07,1,,,,,イキイキライフキョウカイクニタチ,0
2167,7013103001238,新規,0,2023-06-07,2023-06-07,合同会社夜丸ライン,,合同会社,東京都,あきる野市,小川東２丁目９－１５,,13,228,1970822,,,,,,,2023-06-07,1,,,,,ヨルマルライン,0
2174,7020001151874,新規,0,2023-06-07,2023-06-07,株式会社エヌエー,,株式会社,神奈川県,川崎市中原区,小杉町３丁目６００番地,,14,133,2110063,,,,,,,2023-06-07,1,,,,,エヌエー,0
2175,7020001151916,新規,0,2023-06-07,2023-06-07,株式会社プロフィッツ,,株式会社,神奈川県,横浜市西区,平沼１丁目３番１７号宮方ビル４階,,14,103,2200023,,,,,,,2023-06-07,1,,,,,プロフィッツ,0
2176,7020001151949,新規,0,2023-06-07,2023-06-07,株式会社ＹＥＡＭ,,株式会社,神奈川県,横浜市戸塚区,戸塚町４７５４番地,,14,110,2440003,,,,,,,2023-06-07,1,,,,,ワイーエーエム,0
2177,7020001151957,新規,0,2023-06-07,2023-06-07,株式会社Ｍ’ｓ　ＣＯＬＯＲ,,株式会社,神奈川県,川崎市高津区,溝口２丁目７番２７号,,14,134,2130001,,,,,,,2023-06-07,1,,,,,エムズカラー,0
2180,7020003024013,新規,0,2023-06-07,2023-06-07,合同会社ナガナワ,,合同会社,神奈川県,横浜市港北区,高田西１丁目１４番３‐２０４号,,14,109,2230066,,,,,,,2023-06-07,1,,,,,ナガナワ,0
2185,7021001079206,新規,0,2023-06-07,2023-06-07,株式会社ＴＥＲＲＥホールディングス,,株式会社,神奈川県,横須賀市,走水２丁目１６番１１号,,14,201,2390811,,,,,,,2023-06-07,1,,,,,テッラホールディングス,0
2186,7021001079214,新規,0,2023-06-07,2023-06-07,株式会社ＭＥＨＲＡＮ,,株式会社,神奈川県,小田原市,久野１６９６番地の１０,,14,206,2500055,,,,,,,2023-06-07,1,,,,,メヘラン,0
2187,7021001079247,新規,0,2023-06-07,2023-06-07,株式会社ＫＵＲＡＣＩＬ,,株式会社,神奈川県,藤沢市,羽鳥１丁目１番１０～１０１５号,,14,205,2510056,,,,,,,2023-06-07,1,,,,,クラシル,0
2188,7021001079263,新規,0,2023-06-07,2023-06-07,株式会社Ｗｏｎｄｅｒｓ　Ｊａｐａｎ,,株式会社,神奈川県,鎌倉市,笹目町１２番５号,,14,204,2480015,,,,,,,2023-06-07,1,,,,,ワンダーズジャパン,0
2194,7021003013162,新規,0,2023-06-07,2023-06-07,合同会社Ｋ．Ｄｅｎｔａｌ　Ｃｒａｆｔ,,合同会社,神奈川県,平塚市,大神１６３２番地の９,,14,203,2540012,,,,,,,2023-06-07,1,,,,,ケイデンタルクラフト,0
2200,7030001154190,新規,0,2023-06-07,2023-06-07,株式会社Ｅｎｗｏｒｋｓ,,株式会社,埼玉県,所沢市,上新井１丁目２２番地の２鹿島ハイツＢ－２０６,,11,208,3591142,,,,,,,2023-06-07,1,,,,,エンワークス,0
2201,7030001154208,新規,0,2023-06-07,2023-06-07,株式会社Ｈ＆Ｋ,,株式会社,埼玉県,狭山市,大字北入曽６９５番地の３,,11,215,3501315,,,,,,,2023-06-07,1,,,,,エイチアンドケー,0
2206,7040001128689,新規,0,2023-06-07,2023-06-07,株式会社宮内興業,,株式会社,千葉県,銚子市,高田町４丁目７８１番地,,12,202,2880862,,,,,,,2023-06-07,1,,,,,ミヤウチコウギョウ,0
2207,7040001128697,新規,0,2023-06-07,2023-06-07,株式会社美来,,株式会社,千葉県,松戸市,本町１７番地の１９伸和ビル４階,,12,207,2710091,,,,,,,2023-06-07,1,,,,,ミライ,0
2208,7040001128706,新規,0,2023-06-07,2023-06-07,株式会社ウィズヒーロー,,株式会社,千葉県,松戸市,東松戸１丁目３番地の８東和ビル６０５号,,12,207,2702225,,,,,,,2023-06-07,1,,,,,ウィズヒーロー,0
2209,7040001128714,新規,0,2023-06-07,2023-06-07,ＧＡＴＥＲＥＸ株式会社,,株式会社,千葉県,船橋市,北本町２丁目６３番１４号,,12,204,2730864,,,,,,,2023-06-07,1,,,,,ゲートレックス,0
2211,7040003022667,新規,0,2023-06-07,2023-06-07,祥雲合同会社,,合同会社,千葉県,銚子市,本城町４丁目５１０番地１,,12,202,2880831,,,,,,,2023-06-07,1,,,,,ショウウン,0
2217,7060001036072,新規,0,2023-06-07,2023-06-07,宇都宮理化学株式会社,,株式会社,栃木県,宇都宮市,馬場通り１丁目１番１－３０７号,,09,201,3200026,,,,,,,2023-06-07,1,,,,,ウツノミヤリカガク,0
2228,7080001025651,新規,0,2023-06-07,2023-06-07,株式会社ＤＡＩＨＡＴＥＣＴ,,株式会社,静岡県,藤枝市,下当間６０番地の１,,22,214,4260003,,,,,,,2023-06-07,1,,,,,ダイハテクト,0
2233,7090003002326,新規,0,2023-06-07,2023-06-07,合同会社ジェビネ,,合同会社,山梨県,北杜市,高根町長沢字上手原４９８６－９７４,,19,209,4080000,,,,,,,2023-06-07,1,,,,,ジェビネ,0
2234,7100001036497,新規,0,2023-06-07,2023-06-07,株式会社有源,,株式会社,長野県,安曇野市,豊科高家３６３４番地２５,,20,220,3998204,,,,,,,2023-06-07,1,,,,,アルゲン,0
2236,7110001037577,新規,0,2023-06-07,2023-06-07,Ｃｏｎｎｅｃｔ　ｄｅｓｉｇｎ　ｏｆｆｉｃｅ株式会社,,株式会社,新潟県,長岡市,花園南１丁目９７番地,,15,202,9400841,,,,,,,2023-06-07,1,,,,,コネクトデザインオフィス,0
2239,7110003005078,新規,0,2023-06-07,2023-06-07,合同会社タピアン,,合同会社,新潟県,新潟市中央区,鳥屋野３３４番地１,,15,103,9500951,,,,,,,2023-06-07,1,,,,,タピアン,0
2247,7120001255343,新規,0,2023-06-07,2023-06-07,株式会社ＩＧ,,株式会社,大阪府,大阪市阿倍野区,王子町２丁目１７番２３－１１０２号,,27,119,5450023,,,,,,,2023-06-07,1,,,,,アイジー,0
2254,7120101067630,新規,0,2023-06-07,2023-06-07,株式会社Ｌｕｘｉｓ　Ｉｎｔｅｒｎａｔｉｏｎａｌ,,株式会社,大阪府,堺市東区,大美野１６２番地７４,,27,143,5998126,,,,,,,2023-06-07,1,,,,,ラグシスインターナショナル,0
2255,7120101067639,新規,0,2023-06-07,2023-06-07,株式会社ＡＬＢＡ　ＥＳＴＡＴＥ,,株式会社,大阪府,堺市中区,深井中町３２４９番地,,27,142,5998272,,,,,,,2023-06-07,1,,,,,アルバエステート,0
2256,7120101067655,新規,0,2023-06-07,2023-06-07,株式会社心身堂ホールディングス,,株式会社,大阪府,和泉市,はつが野６丁目１４番１３号,,27,219,5941106,,,,,,,2023-06-07,1,,,,,シンシンドウホールディングス,0
2257,7120101067663,新規,0,2023-06-07,2023-06-07,ファクリエ株式会社,,株式会社,大阪府,泉大津市,式内町６番２２号,,27,206,5950035,,,,,,,2023-06-07,1,,,,,ファクリエ,0
2258,7120101067671,新規,0,2023-06-07,2023-06-07,株式会社つじ電設工業,,株式会社,大阪府,泉南市,男里７丁目８番１６号,,27,228,5900526,,,,,,,2023-06-07,1,,,,,ツジデンセツコウギョウ,0
2260,7120901047591,新規,0,2023-06-07,2023-06-07,株式会社二郎,,株式会社,大阪府,高槻市,安岡寺町３丁目６－２４,,27,207,5691029,,,,,,,2023-06-07,1,,,,,フタロウ,0
2261,7120901047609,新規,0,2023-06-07,2023-06-07,Ｂａｍｂｏｏ　Ｃｅｎｔｅｒ　Ｇｒｏｕｐ　Ｊａｐａｎ株式会社,,株式会社,大阪府,吹田市,岸部北２丁目２５番１０号,,27,205,5640001,,,,,,,2023-06-07,1,,,,,バンブーセンターグループジャパン,0
2262,7120901047625,新規,0,2023-06-07,2023-06-07,株式会社ＷＡＬＬＩＳ　ＰＥＴ,,株式会社,大阪府,高槻市,唐崎中３丁目１７番１１号,,27,207,5690832,,,,,,,2023-06-07,1,,,,,ウォリスペット,0
2267,7130001074437,新規,0,2023-06-07,2023-06-07,株式会社アトリエ凱風,,株式会社,京都府,舞鶴市,森本町２２番地５,,26,202,6250067,,,,,,,2023-06-07,1,,,,,アトリエガイフウ,0
2268,7130001074445,新規,0,2023-06-07,2023-06-07,株式会社沖田実業,,株式会社,京都府,京丹後市,網野町網野２７２２番地,,26,212,6293101,,,,,,,2023-06-07,1,,,,,オキタジツギョウ,0
2269,7130001074486,新規,0,2023-06-07,2023-06-07,株式会社サンキープ,,株式会社,京都府,京都市伏見区,深草向川原町５９番地,,26,109,6128404,,,,,,,2023-06-07,1,,,,,サンキープ,0
2272,7140001130429,新規,0,2023-06-07,2023-06-07,ＭＳＣエネルギー輸送株式会社,,株式会社,兵庫県,神戸市中央区,多聞通２丁目１番１号,,28,110,6500015,,,,,,,2023-06-07,1,,,,,エムエスシーエネルギーユソウ,0
2276,7150001026444,新規,0,2023-06-07,2023-06-07,株式会社仁和商会,,株式会社,奈良県,桜井市,大字東新堂５７４番地の２,,29,206,6330068,,,,,,,2023-06-07,1,,,,,ニワショウカイ,0
2277,7150001026460,新規,0,2023-06-07,2023-06-07,株式会社ＢＩＬＬＡ,,株式会社,奈良県,葛城市,中戸４２２番地２,,29,211,6392146,,,,,,,2023-06-07,1,,,,,ビラ,0
2279,7150005009486,新規,0,2023-06-07,2023-06-07,一般社団法人２分,,その他の設立登記法人,奈良県,生駒市,元町１丁目４番６号,,29,209,6300257,,,,,,,2023-06-07,1,,,,,ニフン,0
2280,7160001025098,新規,0,2023-06-07,2023-06-07,ＨＡＫＵＲＯ株式会社,,株式会社,滋賀県,草津市,上笠３丁目２６番２９号,,25,206,5250028,,,,,,,2023-06-07,1,,,,,ハクロ,0
2287,7170001017631,新規,0,2023-06-07,2023-06-07,株式会社ビートル,,株式会社,和歌山県,紀の川市,後田１番地３,,30,208,6496622,,,,,,,2023-06-07,1,,,,,ビートル,0
2295,7180001156528,新規,0,2023-06-07,2023-06-07,株式会社ＢＡＳＥ,,株式会社,愛知県,名古屋市中区,錦３丁目６番１５号先名古屋テレビ塔３階,,23,106,4600003,,,,,,,2023-06-07,1,,,,,ベース,0
2296,7180001156544,新規,0,2023-06-07,2023-06-07,株式会社ＴＹＲ,,株式会社,愛知県,名古屋市東区,泉２丁目２１番２５号,,23,102,4610001,,,,,,,2023-06-07,1,,,,,ティーワイアール,0
2297,7180001156577,新規,0,2023-06-07,2023-06-07,株式会社テフカスクリエーション,,株式会社,愛知県,名古屋市中村区,鳥居通３丁目３６番地フォーザック鳥居１Ｂ,,23,105,4530044,,,,,,,2023-06-07,1,,,,,テフカスクリエーション,0
2298,7180001156602,新規,0,2023-06-07,2023-06-07,株式会社緑地,,株式会社,愛知県,名古屋市緑区,鳴海町字石畑６番地の７,,23,114,4580801,,,,,,,2023-06-07,1,,,,,リョクチ,0
2299,7180001156627,新規,0,2023-06-07,2023-06-07,株式会社ＥＮＡＳＵ,,株式会社,愛知県,名古屋市東区,泉２丁目１１番４号４０２号,,23,102,4610001,,,,,,,2023-06-07,1,,,,,エナス,0
2300,7180001156676,新規,0,2023-06-07,2023-06-07,株式会社アスベストＬａｂｏ,,株式会社,愛知県,名古屋市中区,栄２丁目１２番１２号,,23,106,4600008,,,,,,,2023-06-07,1,,,,,アスベストラボ,0
2301,7180001156684,新規,0,2023-06-07,2023-06-07,株式会社ゆーるーる,,株式会社,愛知県,名古屋市中川区,大塩町２丁目３番地の１,,23,110,4540863,,,,,,,2023-06-07,1,,,,,ユールール,0
2302,7180001156701,新規,0,2023-06-07,2023-06-07,株式会社Ｗｏ‐ｏｎｅ,,株式会社,愛知県,名古屋市中村区,名駅４丁目２４－１６広小路ガーデンアベニュー４階,,23,105,4500002,,,,,,,2023-06-07,1,,,,,ウーワン,0
2305,7180003025318,新規,0,2023-06-07,2023-06-07,ＳＩコンサルティング合同会社,,合同会社,愛知県,名古屋市中村区,岩塚本通２丁目２２番地,,23,105,4530861,,,,,,,2023-06-07,1,,,,,エスアイコンサルティング,0
2307,7180005020242,新規,0,2023-06-07,2023-06-07,一般社団法人ＮＣＵ　ＣＲＥＳＳ,,その他の設立登記法人,愛知県,名古屋市瑞穂区,春山町１４番地の１－３０５,,23,108,4670024,,,,,,,2023-06-07,1,,,,,エヌシーユークレス,0
2309,7180301037452,新規,0,2023-06-07,2023-06-07,東陽株式会社,,株式会社,愛知県,豊田市,西岡町西山２－５,,23,211,4730936,,,,,,,2023-06-07,1,,,,,トウヨウ,0
2312,7200001041363,新規,0,2023-06-07,2023-06-07,株式会社ＨＡＮＡＭＡＲＵ,,株式会社,岐阜県,瑞浪市,一色町６丁目５９番地,,21,208,5096124,,,,,,,2023-06-07,1,,,,,ハナマル,0
2313,7200001041388,新規,0,2023-06-07,2023-06-07,株式会社いいな農園,,株式会社,岐阜県,岐阜市,中屋西２５番地,,21,201,5012532,,,,,,,2023-06-07,1,,,,,イイナノウエン,0
2320,7200005013490,新規,0,2023-06-07,2023-06-07,一般社団法人たじみ音楽でまちづくり市民協議会,,その他の設立登記法人,岐阜県,多治見市,前畑町２丁目４６番地,,21,204,5070042,,,,,,,2023-06-07,1,,,,,タジミオンガクデマチヅクリシミンキョウギカイ,0
2328,7240001061622,新規,0,2023-06-07,2023-06-07,株式会社Ｇｒｅｅｄ,,株式会社,広島県,福山市,神辺町字下御領１３０５番地１,,34,207,7202117,,,,,,,2023-06-07,1,,,,,グリード,0
2331,7240003006162,新規,0,2023-06-07,2023-06-07,美・和ママキッズ合同会社,,合同会社,広島県,福山市,松永町４丁目２６番４２－４号,,34,207,7290104,,,,,,,2023-06-07,1,,,,,ビーワママキッズ,0
2332,7240003006170,新規,0,2023-06-07,2023-06-07,合同会社ウィン体操クラブ,,合同会社,広島県,広島市安芸区,中野７丁目６番２６号,,34,107,7390321,,,,,,,2023-06-07,1,,,,,ウィンタイソウクラブ,0
2336,7250003003282,新規,0,2023-06-07,2023-06-07,Ｇｌａｎｚ合同会社,,合同会社,山口県,下関市,彦島角倉町４丁目９番３０号,,35,201,7500081,,,,,,,2023-06-07,1,,,,,グランツ,0
2340,7260001038024,新規,0,2023-06-07,2023-06-07,株式会社ｏｒ,,株式会社,岡山県,岡山市北区,南方５丁目７番２０号コーディアルフォレストＲ２０３,,33,101,7000807,,,,,,,2023-06-07,1,,,,,オア,0
2342,7270001008793,新規,0,2023-06-07,2023-06-07,株式会社ヨナゴデザイン,,株式会社,鳥取県,米子市,福市９１９番地,,31,202,6830011,,,,,,,2023-06-07,1,,,,,ヨナゴデザイン,0
2344,7270003001532,新規,0,2023-06-07,2023-06-07,合同会社ぷらむ,,合同会社,鳥取県,米子市,上福原４丁目７番５２号,,31,202,6830004,,,,,,,2023-06-07,1,,,,,プラム,0
2346,7280001008958,新規,0,2023-06-07,2023-06-07,株式会社いずも中央不動産,,株式会社,島根県,出雲市,姫原３丁目１番地５,,32,203,6930068,,,,,,,2023-06-07,1,,,,,イズモチュウオウフドウサン,0
2349,7290001101761,新規,0,2023-06-07,2023-06-07,株式会社ＤＯＭＩＮＡＴＥ,,株式会社,福岡県,福岡市中央区,天神２丁目２番１２号,,40,133,8100001,,,,,,,2023-06-07,1,,,,,ドミネイト,0
2354,7290801029590,新規,0,2023-06-07,2023-06-07,株式会社Ｌｉｂ,,株式会社,福岡県,田川郡赤村,大字内田６２１番地２１,,40,609,8240432,,,,,,,2023-06-07,1,,,,,エルアイビー,0
2355,7290801029599,新規,0,2023-06-07,2023-06-07,ＯＬＤＧＥＡＲ　ＺＩＰＡＮＧ　ＡＲＴ株式会社,,株式会社,福岡県,北九州市小倉北区,三郎丸３丁目１４番２２号,,40,106,8020061,,,,,,,2023-06-07,1,,,,,オルドギアジパングアート,0
2356,7290803004427,新規,0,2023-06-07,2023-06-07,合同会社メゾンド石打,,合同会社,福岡県,北九州市八幡西区,三ケ森１丁目４番１号,,40,109,8070843,,,,,,,2023-06-07,1,,,,,メゾンドイシウチ,0
2357,7300005007144,新規,0,2023-06-07,2023-06-07,一般社団法人佐賀労務支援協会,,その他の設立登記法人,佐賀県,佐賀市,兵庫北２丁目１９番１０号プレジールコート夢咲１階,,41,201,8490919,,,,,,,2023-06-07,1,,,,,サガロウムシエンキョウカイ,0
2358,7310001018458,新規,0,2023-06-07,2023-06-07,株式会社メンテナンス,,株式会社,長崎県,佐世保市,卸本町１番９１号,,42,202,8571162,,,,,,,2023-06-07,1,,,,,メンテナンス,0
2361,7320003004100,新規,0,2023-06-07,2023-06-07,イングペイント合同会社,,合同会社,大分県,大分市,舞鶴町１丁目３番３０号ＳＴビル９Ｆ,,44,201,8700044,,,,,,,2023-06-07,1,,,,,イングペイント,0
2362,7330001030907,新規,0,2023-06-07,2023-06-07,トラスト株式会社,,株式会社,熊本県,熊本市東区,湖東１丁目１５番４号１０１室,,43,102,8620909,,,,,,,2023-06-07,1,,,,,トラスト,0
2363,7330001030931,新規,0,2023-06-07,2023-06-07,株式会社鰤身,,株式会社,熊本県,天草市,楠浦町８９６番地１０,,43,215,8630044,,,,,,,2023-06-07,1,,,,,ブリミ,0
2367,7340001025633,新規,0,2023-06-07,2023-06-07,株式会社川口商事,,株式会社,鹿児島県,日置市,伊集院町麦生田２６４５番地,,46,216,8992513,,,,,,,2023-06-07,1,,,,,カワグチショウジ,0
2368,7340003004148,新規,0,2023-06-07,2023-06-07,ＰＡＲＣＡ合同会社,,合同会社,鹿児島県,いちき串木野市,川上３０５２－１,,46,219,8992102,,,,,,,2023-06-07,1,,,,,パルカ,0
2374,7380001033748,新規,0,2023-06-07,2023-06-07,株式会社ペンキ塗りｂｕｄｄｙ,,株式会社,福島県,福島市,鳥谷野字宮畑３４番地の５,,07,201,9608152,,,,,,,2023-06-07,1,,,,,ペンキヌリバディ,0
2375,7380001033764,新規,0,2023-06-07,2023-06-07,株式会社ＤＭ’Ｇａｒａｇｅ,,株式会社,福島県,いわき市,泉ケ丘２丁目６２番地の３,,07,204,9718171,,,,,,,2023-06-07,1,,,,,ディーエムガレージ,0
2376,7380003005472,新規,0,2023-06-07,2023-06-07,合同会社レイワプラス,,合同会社,福島県,いわき市,中央台高久２丁目１０番地の５１,,07,204,9708047,,,,,,,2023-06-07,1,,,,,レイワプラス,0
2377,7390001017279,新規,0,2023-06-07,2023-06-07,株式会社レアレア,,株式会社,山形県,東置賜郡川西町,大字上小松１１４６番地１４,,06,382,9990121,,,,,,,2023-06-07,1,,,,,レアレア,0
2381,7390003002106,新規,0,2023-06-07,2023-06-07,合同会社ＭｏＲＶＥＴ,,合同会社,山形県,米沢市,金池７丁目３番３号,,06,202,9920012,,,,,,,2023-06-07,1,,,,,モーベット,0
2385,7400003003093,新規,0,2023-06-07,2023-06-07,合同会社ＵｎｉＯｎ農林,,合同会社,岩手県,花巻市,大通り１丁目４番１４号,,03,205,0250092,,,,,,,2023-06-07,1,,,,,ユニオンノウリン,0
2386,7410001013498,新規,0,2023-06-07,2023-06-07,マルシンツリー株式会社,,株式会社,秋田県,仙北市,田沢湖卒田字白籏１２３番地,,05,215,0141113,,,,,,,2023-06-07,1,,,,,マルシンツリー,0
2388,7430001089289,新規,0,2023-06-07,2023-06-07,株式会社ラベンダーの森,,株式会社,北海道,札幌市北区,北十条西３丁目２３番地ＴＨＥ　ＰＥＡＫ　ＳＡＰＰＯＲＯ　１階,,01,102,0010010,,,,,,,2023-06-07,1,,,,,ラベンダーノモリ,0
2389,7430003015128,新規,0,2023-06-07,2023-06-07,合同会社ライノス,,合同会社,北海道,札幌市東区,北三十条東１６丁目１番１－３０３号,,01,103,0650030,,,,,,,2023-06-07,1,,,,,ライノス,0
2392,7470001019647,新規,0,2023-06-07,2023-06-07,株式会社中井架建,,株式会社,香川県,坂出市,林田町２６２番地２,,37,203,7620012,,,,,,,2023-06-07,1,,,,,ナカイカケン,0
2396,7470003002436,新規,0,2023-06-07,2023-06-07,Ａｖｅｒ合同会社,,合同会社,香川県,高松市,田村町４１６番地１フルールＭ２０１,,37,201,7618057,,,,,,,2023-06-07,1,,,,,エバー,0
2404,7700150115586,新規,0,2023-06-07,2023-04-19,松崎町未来づくり協議会,,その他,岩手県,遠野市,松崎町白岩字薬研淵１番地３,,03,208,0280541,,,,,,,2023-04-19,1,,,,,マツザキチヨウミライヅクリキヨウギカイ,0
2405,7700150116964,新規,0,2023-06-07,2023-06-07,Ｚｈｅｊｉａｎｇ　ｅｒｈｕｉｋｅｊｉ　Ｃｏ．，Ｌｔｄ,,外国会社等,,,,,,,,ｚｈｅ　ｊｉａｎｇ　ｓｈｅｎｇ　ｔａｉ　ｚｈｏｕ　ｓｈｉ　ｈｕａｎｇ　ｙａｎ　ｑｕ　ｇａｏ　ｑｉａｏ　ｊｉｅ　ｄａｏ　ｌｉａｎ　ｙｕ　ｌｕ　１６１　ｈａｏ,,,,,,2023-06-07,1,,,,,ジョージャンアーフイコージーヨウシエンゴンスー,0
2406,7700150116972,新規,0,2023-06-07,2023-06-07,渋谷二丁目西地区市街地再開発組合,,その他,東京都,渋谷区,渋谷２丁目１４－６,,13,113,1500002,,,,,,,2023-06-07,1,,,,,シブヤニチヨウメニシチクシガイチサイカイハツクミアイ,0
2411,8010001235801,新規,0,2023-06-07,2023-06-07,株式会社向日葵,,株式会社,東京都,中央区,銀座３丁目４番１号大倉別館５Ｆ,,13,102,1040061,,,,,,,2023-06-07,1,,,,,ヒマワリ,0
2412,8010001235818,新規,0,2023-06-07,2023-06-07,株式会社Ｂａｋｅｍｏｎ,,株式会社,東京都,中央区,勝どき１丁目１３番６－６０８号,,13,102,1040054,,,,,,,2023-06-07,1,,,,,バケモン,0
2413,8010001235900,新規,0,2023-06-07,2023-06-07,メディアール株式会社,,株式会社,東京都,文京区,小石川２丁目１１番３号,,13,105,1120002,,,,,,,2023-06-07,1,,,,,メディアール,0
2414,8010001235925,新規,0,2023-06-07,2023-06-07,東京宅配株式会社,,株式会社,東京都,中央区,明石町２番１６号,,13,102,1040044,,,,,,,2023-06-07,1,,,,,トウキョウタクハイ,0
2415,8010001235966,新規,0,2023-06-07,2023-06-07,スクワッドスターズ株式会社,,株式会社,東京都,千代田区,丸の内１丁目１１番１号,,13,101,1000005,,,,,,,2023-06-07,1,,,,,スクワッドスターズ,0
2418,8010003040786,新規,0,2023-06-07,2023-06-07,合同会社Ｌｉｆｅ　Ｊａｐａｎ,,合同会社,東京都,中央区,日本橋室町１丁目１１番１２号日本橋水野ビル７階,,13,102,1030022,,,,,,,2023-06-07,1,,,,,ライフジャパン,0
2419,8010005036790,新規,0,2023-06-07,2023-06-07,一般社団法人御福プロパティーズ,,その他の設立登記法人,東京都,千代田区,丸の内３丁目１番１号東京共同会計事務所内,,13,101,1000005,,,,,,,2023-06-07,1,,,,,オフクプロパティーズ,0
2420,8010101015673,新規,0,2023-06-07,2023-06-07,株式会社ＣＡＨＬＵＡ,,株式会社,東京都,八王子市,万町７７番地２０,,13,201,1920903,,,,,,,2023-06-07,1,,,,,カルア,0
2428,8010403030255,新規,0,2023-06-07,2023-06-07,Ｉ．Ｓ．Ａｄｖｉｓｏｒｙ　Ｔｏｋｙｏ合同会社,,合同会社,東京都,港区,浜松町２丁目２番１５号浜松町ダイヤビル２Ｆ,,13,103,1050013,,,,,,,2023-06-07,1,,,,,アイエスアドバイザリートウキョウ,0
2432,8010601063189,新規,0,2023-06-07,2023-06-07,南海株式会社,,株式会社,東京都,墨田区,横川３丁目６番７号２－Ｐ室,,13,107,1300003,,,,,,,2023-06-07,1,,,,,ナンカイ,0
2433,8010601063214,新規,0,2023-06-07,2023-06-07,スリーフォース株式会社,,株式会社,東京都,江東区,豊洲３丁目４番２－２１０２号,,13,108,1350061,,,,,,,2023-06-07,1,,,,,スリーフォース,0
2434,8010601063222,新規,0,2023-06-07,2023-06-07,ｕｐｎｅｘ株式会社,,株式会社,東京都,江東区,森下３丁目１９番１３号,,13,108,1350004,,,,,,,2023-06-07,1,,,,,アップネクス,0
2435,8010601063230,新規,0,2023-06-07,2023-06-07,以諾株式会社,,株式会社,東京都,江東区,亀戸５丁目２５－９金沐莊２０２,,13,108,1360071,,,,,,,2023-06-07,1,,,,,イダク,0
2438,8010603010189,新規,0,2023-06-07,2023-06-07,合同会社ＡＩ,,合同会社,東京都,江東区,木場６丁目３－４－１２１４,,13,108,1350042,,,,,,,2023-06-07,1,,,,,エーアイ,0
2440,8010701044345,新規,0,2023-06-07,2023-06-07,株式会社ＭｏｕｎＴｏｎｅ,,株式会社,東京都,品川区,東五反田４丁目１番２７－２－５０８号,,13,109,1410022,,,,,,,2023-06-07,1,,,,,マウントン,0
2445,8010901053179,新規,0,2023-06-07,2023-06-07,株式会社ｍｕｄｄｌｅｒ,,株式会社,東京都,世田谷区,赤堤４丁目４５番１３号,,13,112,1560044,,,,,,,2023-06-07,1,,,,,マドラー,0
2446,8010901053187,新規,0,2023-06-07,2023-06-07,ＴＡＬＯ　ｊａ　ｄｅｓｉｇｎ株式会社,,株式会社,東京都,世田谷区,三軒茶屋１丁目４０番３－２０１号,,13,112,1540024,,,,,,,2023-06-07,1,,,,,タロヤデザイン,0
2447,8010901053204,新規,0,2023-06-07,2023-06-07,株式会社Ｅｉｄｒｉａｎ,,株式会社,東京都,世田谷区,用賀３丁目３番１６号,,13,112,1580097,,,,,,,2023-06-07,1,,,,,エイドリアン,0
2457,8011001154859,新規,0,2023-06-07,2023-06-07,株式会社碑文谷塗装,,株式会社,東京都,目黒区,碑文谷１丁目１７番９号,,13,110,1520003,,,,,,,2023-06-07,1,,,,,ヒモンヤトソウ,0
2458,8011001154883,新規,0,2023-06-07,2023-06-07,株式会社センダー,,株式会社,東京都,渋谷区,神宮前６丁目２３番４号桑野ビル２階,,13,113,1500001,,,,,,,2023-06-07,1,,,,,センダー,0
2459,8011001154891,新規,0,2023-06-07,2023-06-07,ＴＲＩＣＯＬＯＲＥ株式会社,,株式会社,東京都,渋谷区,円山町５番５号Ｎａｖｉ渋谷Ｖ３階,00130757,13,113,1500044,,,,,,,2023-06-07,1,,,,,トリコロール,0
2460,8011001154925,新規,0,2023-06-07,2023-06-07,株式会社ＲＥＩＮＡ,,株式会社,東京都,渋谷区,渋谷１丁目１番１１号サン青山ビル１階,,13,113,1500002,,,,,,,2023-06-07,1,,,,,レイナ,0
2469,8011303004786,新規,0,2023-06-07,2023-06-07,合同会社ヘップ,,合同会社,東京都,杉並区,善福寺４丁目１４番３号ＺＥＮＰＵＫＵＪＩ４１４３,,13,115,1670041,,,,,,,2023-06-07,1,,,,,ヘップ,0
2470,8011401025180,新規,0,2023-06-07,2023-06-07,技研ホールディングス株式会社,,株式会社,東京都,板橋区,新河岸２丁目８番２４号,,13,119,1750081,,,,,,,2023-06-07,1,,,,,ギケンホールディングス,0
2471,8011401025189,新規,0,2023-06-07,2023-06-07,Ｉｎｆｉｎｉｔｅ株式会社,,株式会社,東京都,板橋区,弥生町７９番６号,,13,119,1730021,,,,,,,2023-06-07,1,,,,,インフィニット,0
2475,8011501029387,新規,0,2023-06-07,2023-06-07,株式会社高西企画,00130754,株式会社,東京都,北区,東十条４丁目１２番２号－４０２,,13,117,1140001,,,,,,,2023-06-07,1,,,,,タカニシキカク,0
2476,8011503005642,新規,0,2023-06-07,2023-06-07,ＡＮＡＳ　ＳＭＡＲＴ合同会社,,合同会社,東京都,荒川区,東日暮里６丁目２６－３第一藤井荘２０２号,,13,118,1160014,,,,,,,2023-06-07,1,,,,,アナススマート,0
2480,8011801042536,新規,0,2023-06-07,2023-06-07,株式会社ＳＩＦ,,株式会社,東京都,足立区,弘道１丁目１番１７号,,13,121,1200013,,,,,,,2023-06-07,1,,,,,,0
2481,8011803005680,新規,0,2023-06-07,2023-06-07,Ｍｅｇｕｍｉ　Ｃｏｎｓｕｌｔａｎｔ合同会社,,合同会社,東京都,足立区,鹿浜２丁目４１番７－１０７号,,13,121,1230864,,,,,,,2023-06-07,1,,,,,メグミコンサルタント,0
2482,8012401040599,新規,0,2023-06-07,2023-06-07,株式会社そよかぜ,,株式会社,東京都,稲城市,押立６１５番地の２,,13,225,2060811,,,,,,,2023-06-07,1,,,,,ソヨカゼ,0
2484,8012701017685,新規,0,2023-06-07,2023-06-07,株式会社スマイノベーション,,株式会社,東京都,小平市,上水新町３丁目５番２０号,,13,211,1870023,,,,,,,2023-06-07,1,,,,,スマイノベーション,0
2486,8013101009190,新規,0,2023-06-07,2023-06-07,ＪＦＧコーポレーション株式会社,,株式会社,東京都,福生市,大字熊川１６５５番地１,,13,218,1970003,,,,,,,2023-06-07,1,,,,,ジェイエフジーコーポレーション,0
2487,8013103001237,新規,0,2023-06-07,2023-06-07,Ｍｏ，ｓｔ合同会社,,合同会社,東京都,青梅市,畑中３丁目４８３番地の６,,13,205,1980061,,,,,,,2023-06-07,1,,,,,モスト,0
2492,8020001151873,新規,0,2023-06-07,2023-06-07,株式会社ＭＬＣ,,株式会社,神奈川県,川崎市幸区,中幸町３丁目１６番地４,,14,132,2120012,,,,,,,2023-06-07,1,,,,,エムエルシー,0
2493,8020001151907,新規,0,2023-06-07,2023-06-07,株式会社シビルエンジニアリングパートナーズ,,株式会社,神奈川県,横浜市港北区,新吉田東２丁目９番２５－３１６号,,14,109,2230058,,,,,,,2023-06-07,1,,,,,シビルエンジニアリングパートナーズ,0
2494,8020001151964,新規,0,2023-06-07,2023-06-07,株式会社ベルエコル,,株式会社,神奈川県,横浜市磯子区,森２丁目１５－４６,,14,107,2350023,,,,,,,2023-06-07,1,,,,,ベルエコル,0
2500,8021001079246,新規,0,2023-06-07,2023-06-07,Ｉｔｏ設計株式会社,,株式会社,神奈川県,藤沢市,藤が岡２丁目１６番３～２２５号,,14,205,2510004,,,,,,,2023-06-07,1,,,,,イトウセッケイ,0
2508,8030001154173,新規,0,2023-06-07,2023-06-07,ＤＲＥＡＭＣ株式会社,,株式会社,埼玉県,川口市,並木２丁目３６番１０号,,11,203,3320034,,,,,,,2023-06-07,1,,,,,ドリームシー,0
2509,8030001154198,新規,0,2023-06-07,2023-06-07,ｔｅｔｏｔｅレリーフ株式会社,,株式会社,埼玉県,さいたま市大宮区,桜木町２丁目３番地大宮マルイ７階,,11,103,3300854,,,,,,,2023-06-07,1,,,,,テトテレリーフ,0
2510,8030001154207,新規,0,2023-06-07,2023-06-07,株式会社ＢＲＳ不動産,,株式会社,埼玉県,草加市,氷川町２１５８番地１８,,11,221,3400034,,,,,,,2023-06-07,1,,,,,ビーアールエスフドウサン,0
2511,8030001154223,新規,0,2023-06-07,2023-06-07,恵勝建設株式会社,,株式会社,埼玉県,入間市,大字新光３０６番地１３７,,11,225,3580055,,,,,,,2023-06-07,1,,,,,ケイショウケンセツ,0
2512,8030001154231,新規,0,2023-06-07,2023-06-07,株式会社サクラ工業,,株式会社,埼玉県,川口市,大字東本郷８０３番地の２５,,11,203,3340063,,,,,,,2023-06-07,1,,,,,サクラコウギョウ,0
2514,8030003021867,新規,0,2023-06-07,2023-06-07,合同会社ＡＸＳ,,合同会社,埼玉県,さいたま市南区,大字広ヶ谷戸２６５－８,,11,108,3360041,,,,,,,2023-06-07,1,,,,,アクセス,0
2515,8030003021875,新規,0,2023-06-07,2023-06-07,合同会社ユーアール,,合同会社,埼玉県,川口市,東川口６丁目２４－４０－１０２,,11,203,3330801,,,,,,,2023-06-07,1,,,,,ユーアール,0
2523,8040001128614,新規,0,2023-06-07,2023-06-07,株式会社ＫＭＫ,,株式会社,千葉県,鴨川市,小湊６６９番地１,,12,223,2995501,,,,,,,2023-06-07,1,,,,,ケーエムケー,0
2524,8040001128688,新規,0,2023-06-07,2023-06-07,株式会社Ｓ‐Ｓｔｙｌｅ,,株式会社,千葉県,柏市,西山２丁目１１番１８号,,12,217,2770063,,,,,,,2023-06-07,1,,,,,エススタイル,0
2525,8040001128696,新規,0,2023-06-07,2023-06-07,遠田不動産株式会社,,株式会社,千葉県,市川市,南八幡３丁目１２番４号,,12,203,2720023,,,,,,,2023-06-07,1,,,,,エンダフドウサン,0
2526,8040001128705,新規,0,2023-06-07,2023-06-07,株式会社宮川工業,,株式会社,千葉県,市川市,欠真間１丁目３番２号,,12,203,2720142,,,,,,,2023-06-07,1,,,,,ミヤカワコウギョウ,0
2527,8040001128721,新規,0,2023-06-07,2023-06-07,株式会社フロンティアーズ,,株式会社,千葉県,習志野市,鷺沼２丁目１４番２号,,12,216,2750014,,,,,,,2023-06-07,1,,,,,フロンティアーズ,0
2530,8040003022765,新規,0,2023-06-07,2023-06-07,合同会社ノールトレーディングカンパニー,,合同会社,千葉県,君津市,君津台２丁目６番４号,,12,225,2991143,,,,,,,2023-06-07,1,,,,,ノールトレーディングカンパニー,0
2532,8050001052920,新規,0,2023-06-07,2023-06-07,株式会社茨城もぎたてファクトリー,,株式会社,茨城県,東茨城郡茨城町,大字小幡１８番地２７,,08,302,3113157,,,,,,,2023-06-07,1,,,,,イバラキモギタテファクトリー,0
2536,8060003004588,新規,0,2023-06-07,2023-06-07,合同会社住ムＬａｂｓ,,合同会社,栃木県,那須郡那須町,大字沼野井５４３番地２,,09,407,3293446,,,,,,,2023-06-07,1,,,,,スムラボ,0
2537,8070001040502,新規,0,2023-06-07,2023-06-07,株式会社ケーウィル,,株式会社,群馬県,高崎市,江木町３９８番地３,,10,202,3700046,,,,,,,2023-06-07,1,,,,,ケーウィル,0
2539,8070003004967,新規,0,2023-06-07,2023-06-07,小田インシュアランス合同会社,,合同会社,群馬県,前橋市,富士見町皆沢３１９番地８,,10,201,3710102,,,,,,,2023-06-07,1,,,,,オダインシュアランス,0
2543,8080403004797,新規,0,2023-06-07,2023-06-07,合同会社Ｎａｐｕｒｅｎｔｓ,,合同会社,静岡県,浜松市中区,鴨江３丁目８番２５号,,22,131,4328023,,,,,,,2023-06-07,1,,,,,ナピュレンツ,0
2544,8090003002325,新規,0,2023-06-07,2023-06-07,合同会社ＦＯＲＥＳＴ,,合同会社,山梨県,南都留郡山中湖村,山中３３８番地１０,,19,425,4010501,,,,,,,2023-06-07,1,,,,,フォレスト,0
2551,8110001037592,新規,0,2023-06-07,2023-06-07,株式会社ブライト・ライフ,,株式会社,新潟県,上越市,稲田４丁目１番３２号,,15,222,9430154,,,,,,,2023-06-07,1,,,,,ブライトライフ,0
2565,8120003024167,新規,0,2023-06-07,2023-06-07,合同会社スティズム,,合同会社,大阪府,大阪市中央区,南船場１丁目１６番２７‐４０２号,,27,128,5420081,,,,,,,2023-06-07,1,,,,,スティズム,0
2566,8120003024217,新規,0,2023-06-07,2023-06-07,合同会社キッカケ,,合同会社,大阪府,大阪市阿倍野区,長池町１番８号ヨシイハイツ２０２号室,,27,119,5450013,,,,,,,2023-06-07,1,,,,,キッカケ,0
2568,8120101067654,新規,0,2023-06-07,2023-06-07,株式会社Ａｎｇｅ,,株式会社,大阪府,阪南市,自然田１７０１番地の１,,27,232,5990212,,,,,,,2023-06-07,1,,,,,アンジュ,0
2569,8120101067670,新規,0,2023-06-07,2023-06-07,株式会社Ｐｒｉｍａｌ　Ｏａｔｈ,,株式会社,大阪府,大阪狭山市,大野台６丁目７番５号,,27,231,5890023,,,,,,,2023-06-07,1,,,,,プライマルオース,0
2576,8120903004656,新規,0,2023-06-07,2023-06-07,合同会社関西未来サポート,,合同会社,大阪府,吹田市,垂水町１丁目１４番３号,,27,205,5640062,,,,,,,2023-06-07,1,,,,,カンサイミライサポート,0
2579,8130001074444,新規,0,2023-06-07,2023-06-07,株式会社ＰＲＯＴＥＡ,,株式会社,京都府,木津川市,城山台９丁目６番地６,,26,214,6190218,,,,,,,2023-06-07,1,,,,,プロテア,0
2580,8130001074460,新規,0,2023-06-07,2023-06-07,株式会社ティスト,,株式会社,京都府,京都市右京区,常盤御池町３番地８,,26,108,6168211,,,,,,,2023-06-07,1,,,,,ティスト,0
2581,8130001074477,新規,0,2023-06-07,2023-06-07,生生株式会社,,株式会社,京都府,京都市南区,上鳥羽南唐戸町７番地Ｋビル４００１号室,,26,107,6018107,,,,,,,2023-06-07,1,,,,,セイセイ,0
2582,8130001074485,新規,0,2023-06-07,2023-06-07,株式会社ＳＫリーディング,,株式会社,京都府,京都市西京区,上桂大野町２６番地３,,26,111,6158215,,,,,,,2023-06-07,1,,,,,エスケーリーディング,0
2584,8130003008771,新規,0,2023-06-07,2023-06-07,ＫＳ　ｓｑｕａｒｅ合同会社,,合同会社,京都府,宇治市,五ケ庄二番割４９番地の２,,26,204,6110011,,,,,,,2023-06-07,1,,,,,ケイエススクエア,0
2587,8130005016789,新規,0,2023-06-07,2023-06-07,税理士法人南＆パートナーズ,,その他の設立登記法人,京都府,京都市中京区,東洞院通竹屋町上る三本木町４５０番地１,,26,104,6040871,,,,,,,2023-06-07,1,,,,,ミナミアンドパートナーズ,0
2592,8140001130353,新規,0,2023-06-07,2023-06-07,株式会社大化,,株式会社,兵庫県,姫路市,南町７６番地姫路城陽ビル４階,,28,201,6700912,,,,,,,2023-06-07,1,,,,,タイカ,0
2597,8140003019157,新規,0,2023-06-07,2023-06-07,合同会社瀬戸内にぎわい工房,,合同会社,兵庫県,西宮市,段上町３丁目１番２６－１号,,28,204,6638006,,,,,,,2023-06-07,1,,,,,セトウチニギワイコウボウ,0
2598,8140003019173,新規,0,2023-06-07,2023-06-07,合同会社グレーシズ,,合同会社,兵庫県,神戸市北区,鹿の子台南町４丁目１６番４号,,28,109,6511514,,,,,,,2023-06-07,1,,,,,グレーシズ,0
2602,8170001017639,新規,0,2023-06-07,2023-06-07,株式会社ＮＩＫＡＭＩ,,株式会社,和歌山県,海南市,小野田１５３１番地２５８,,30,202,6420014,,,,,,,2023-06-07,1,,,,,ニカミ,0
2604,8170005007017,新規,0,2023-06-07,2023-06-07,弁護士法人三木町綜合法律事務所,,その他の設立登記法人,和歌山県,和歌山市,三木町南ノ丁１８番地ライオンズマンション和歌山三木町２０１号,,30,201,6408105,,,,,,,2023-06-07,1,,,,,ミキマチソウゴウホウリツジムショ,0
2613,8180001156568,新規,0,2023-06-07,2023-06-07,株式会社中部計測診断,,株式会社,愛知県,名古屋市緑区,定納山１丁目２０１５番地,,23,114,4598011,,,,,,,2023-06-07,1,,,,,チュウブケイソクシンダン,0
2614,8180001156592,新規,0,2023-06-07,2023-06-07,ＣｅｒａＮｏｖａ株式会社,,株式会社,愛知県,丹羽郡大口町,余野６丁目５３番地,,23,361,4800146,,,,,,,2023-06-07,1,,,,,セラノヴァ,0
2615,8180001156601,新規,0,2023-06-07,2023-06-07,株式会社セブコン,,株式会社,愛知県,名古屋市中川区,中郷１丁目１３５番地アーバンスペース１３５、１０３号室,,23,110,4540921,,,,,,,2023-06-07,1,,,,,セブコン,0
2616,8180001156618,新規,0,2023-06-07,2023-06-07,株式会社ＨＭＣ,,株式会社,愛知県,大府市,柊山町３丁目２１３番地,,23,223,4740053,,,,,,,2023-06-07,1,,,,,エイチエムシー,0
2617,8180001156626,新規,0,2023-06-07,2023-06-07,大樹建設株式会社,,株式会社,愛知県,日進市,岩崎台３丁目１０１３番地,,23,230,4700135,,,,,,,2023-06-07,1,,,,,ダイジュケンセツ,0
2618,8180001156642,新規,0,2023-06-07,2023-06-07,株式会社ムラマ,,株式会社,愛知県,尾張旭市,印場元町１丁目１０番地７,,23,226,4880840,,,,,,,2023-06-07,1,,,,,ムラマ,0
2619,8180001156683,新規,0,2023-06-07,2023-06-07,株式会社ユースバント,,株式会社,愛知県,名古屋市西区,則武新町４丁目４番１９号,,23,104,4510051,,,,,,,2023-06-07,1,,,,,ユースバント,0
2621,8180003025325,新規,0,2023-06-07,2023-06-07,合同会社カーメイク八和,,合同会社,愛知県,一宮市,奥町字川並東６２番地,,23,203,4910201,,,,,,,2023-06-07,1,,,,,カーメイクハチワ,0
2622,8180005020241,新規,0,2023-06-07,2023-06-07,あすなろ税理士法人,,その他の設立登記法人,愛知県,一宮市,栄３丁目５番１８号,,23,203,4910858,,,,,,,2023-06-07,1,,,,,アスナロ,0
2625,8190001030474,新規,0,2023-06-07,2023-06-07,株式会社空,,株式会社,三重県,四日市市,小古曽２丁目２０番１２号,,24,202,5100958,,,,,,,2023-06-07,1,,,,,ソラ,0
2629,8190003004344,新規,0,2023-06-07,2023-06-07,合同会社Ｌｉｍ　Ｇｒｏｕｐ,,合同会社,三重県,鳥羽市,鳥羽１丁目２３８３－１３,,24,211,5170011,,,,,,,2023-06-07,1,,,,,リムグループ,0
2631,8200001041370,新規,0,2023-06-07,2023-06-07,株式会社籠新,,株式会社,岐阜県,岐阜市,福富２１０１番地３,,21,201,5012565,,,,,,,2023-06-07,1,,,,,リュウシン,0
2634,8200003005984,新規,0,2023-06-07,2023-06-07,合同会社ＧＨＧ,,合同会社,岐阜県,各務原市,鵜沼朝日町３丁目２４０番地１サンライズマンション１０２,,21,213,5090145,,,,,,,2023-06-07,1,,,,,ジーエイチジー,0
2641,8240001061605,新規,0,2023-06-07,2023-06-07,バンザイサービス広島北株式会社,,株式会社,広島県,広島市安佐南区,上安６丁目４番３５号,,34,105,7310154,,,,,,,2023-06-07,1,,,,,バンザイサービスヒロシマキタ,0
2642,8240001061621,新規,0,2023-06-07,2023-06-07,株式会社ＬＩＳＥＩＮ,,株式会社,広島県,東広島市,八本松東２丁目８番２８－１０号,,34,212,7390142,,,,,,,2023-06-07,1,,,,,リザイン,0
2643,8240001061638,新規,0,2023-06-07,2023-06-07,株式会社Ｆｒｏｍ　Ｕｓ,,株式会社,広島県,三原市,大和町椋梨１１３５番地１,,34,204,7291331,,,,,,,2023-06-07,1,,,,,フロムアス,0
2651,8270001008792,新規,0,2023-06-07,2023-06-07,株式会社ヨシタニホールディングス,,株式会社,鳥取県,鳥取市,古海３５６番地１,,31,201,6800921,,,,,,,2023-06-07,1,,,,,ヨシタニホールディングス,0
2653,8290001101736,新規,0,2023-06-07,2023-06-07,株式会社トラトマツ,,株式会社,福岡県,うきは市,吉井町１０４３番地２,,40,225,8391321,,,,,,,2023-06-07,1,,,,,トラトマツ,0
2654,8290001101802,新規,0,2023-06-07,2023-06-07,株式会社エイケイアイ,,株式会社,福岡県,福岡市城南区,南片江６丁目１１番１５－２０１号,,40,136,8140143,,,,,,,2023-06-07,1,,,,,エイケイアイ,0
2655,8290001101810,新規,0,2023-06-07,2023-06-07,ウエストベアー株式会社,,株式会社,福岡県,福岡市中央区,大名１丁目８番４－１００号エクシード大名,,40,133,8100041,,,,,,,2023-06-07,1,,,,,ウエストベアー,0
2656,8290001101827,新規,0,2023-06-07,2023-06-07,ＳＴＯＲＹ　ＤＥＳＩＧＮ株式会社,,株式会社,福岡県,福岡市南区,多賀１丁目１９－４２－２０６,,40,134,8150072,,,,,,,2023-06-07,1,,,,,ストーリィデザイン,0
2657,8290001101835,新規,0,2023-06-07,2023-06-07,株式会社ＢＮ‐Ｎ,,株式会社,福岡県,糟屋郡篠栗町,津波黒２丁目１９番３２号,,40,342,8112415,,,,,,,2023-06-07,1,,,,,ビーエヌエヌ,0
2658,8290001101843,新規,0,2023-06-07,2023-06-07,株式会社ＨＡＲＥ,,株式会社,福岡県,福岡市博多区,博多駅前１丁目１８番４号ヴィラージュ博多駅前ＢＵＩＬＤＩＮＧ５階,,40,132,8120011,,,,,,,2023-06-07,1,,,,,ハレ,0
2659,8290001101851,新規,0,2023-06-07,2023-06-07,株式会社ＯＮＥテック,,株式会社,福岡県,大野城市,雑餉隈町５丁目４番１５号,,40,219,8160923,,,,,,,2023-06-07,1,,,,,ワンテック,0
2661,8290003013995,新規,0,2023-06-07,2023-06-07,合同会社エヌレックス,,合同会社,福岡県,八女郡広川町,大字吉常３４５番地２,,40,544,8340104,,,,,,,2023-06-07,1,,,,,エヌレックス,0
2665,8290801029598,新規,0,2023-06-07,2023-06-07,株式会社ｋｉｍｉｎｉ不動産,,株式会社,福岡県,北九州市八幡西区,池田３丁目６番１６号,,40,109,8071125,,,,,,,2023-06-07,1,,,,,キミニフドウサン,0
2670,8310001018449,新規,0,2023-06-07,2023-06-07,モビリティサービスオオムラ株式会社,,株式会社,長崎県,長崎市,野母町１１６９番地１,,42,201,8510505,,,,,,,2023-06-07,1,,,,,モビリティサービスオオムラ,0
2673,8320001019826,新規,0,2023-06-07,2023-06-07,株式会社クリアブライト,,株式会社,大分県,玖珠郡玖珠町,大字塚脇５６２番地の１コーポ安部６号,,44,462,8794413,,,,,,,2023-06-07,1,,,,,クリアブライト,0
2674,8320003004099,新規,0,2023-06-07,2023-06-07,アスメディカル合同会社,,合同会社,大分県,別府市,野口中町５番１６号,,44,202,8740932,,,,,,,2023-06-07,1,,,,,アスメディカル,0
2675,8330001030922,新規,0,2023-06-07,2023-06-07,株式会社Ｋ’ｓガレージ,,株式会社,熊本県,熊本市南区,田井島３丁目９番１５３号,,43,104,8620965,,,,,,,2023-06-07,1,,,,,ケーズガレージ,0
2676,8330001030930,新規,0,2023-06-07,2023-06-07,株式会社インテリア彩装,,株式会社,熊本県,八代市,八幡町５番１７号,,43,202,8660041,,,,,,,2023-06-07,1,,,,,インテリアサイソウ,0
2677,8340001025640,新規,0,2023-06-07,2023-06-07,株式会社匠機工,,株式会社,鹿児島県,霧島市,溝辺町崎森２５５０番地３２,,46,218,8996405,,,,,,,2023-06-07,1,,,,,タクミキコウ,0
2681,8340003004147,新規,0,2023-06-07,2023-06-07,合同会社ＲＩＴＡ不動産コンサルティング,,合同会社,鹿児島県,姶良市,蒲生町上久徳２５５６番地,,46,225,8995302,,,,,,,2023-06-07,1,,,,,リタフドウサンコンサルティング,0
2683,8350001018387,新規,0,2023-06-07,2023-06-07,株式会社ＺＥＮ,,株式会社,宮崎県,宮崎市,橘通東４丁目４－１４,,45,201,8800805,,,,,,,2023-06-07,1,,,,,ゼン,0
2684,8350001018395,新規,0,2023-06-07,2023-06-07,株式会社Ｓ水産,,株式会社,宮崎県,日南市,南郷町中村乙９９８番地１０４,,45,204,8893204,,,,,,,2023-06-07,1,,,,,エススイサン,0
2685,8350001018404,新規,0,2023-06-07,2023-06-07,株式会社新珠,,株式会社,宮崎県,宮崎市,月見ケ丘２丁目１１番４号プチメゾン月見ヶ丘２０３,,45,201,8800926,,,,,,,2023-06-07,1,,,,,アラタマ,0
2686,8360001032098,新規,0,2023-06-07,2023-06-07,久米島オーシャンジェット株式会社,,株式会社,沖縄県,島尻郡久米島町,字兼城２番地の３,,47,361,9013122,,,,,,,2023-06-07,1,,,,,クメジマオーシャンジェット,0
2692,8380001033739,新規,0,2023-06-07,2023-06-07,株式会社ホシケン,,株式会社,福島県,会津若松市,上町６番１号,,07,202,9650034,,,,,,,2023-06-07,1,,,,,ホシケン,0
2693,8380001033755,新規,0,2023-06-07,2023-06-07,株式会社Ｔｈｒｅｅ　ｎｉｎｅ,,株式会社,福島県,郡山市,朝日２丁目１２番２号あさひ３番街Ｇ棟,,07,203,9638024,,,,,,,2023-06-07,1,,,,,スリーナイン,0
2696,8390003002105,新規,0,2023-06-07,2023-06-07,Ｙ．Ｎ．Ｓ．Ｃ合同会社,,合同会社,山形県,山形市,蔵王温泉１２６番地,,06,201,9902301,,,,,,,2023-06-07,1,,,,,ワイエヌエスシー,0
2697,8390005009016,新規,0,2023-06-07,2023-06-07,一般社団法人エンプレＳＨＩＰ,,その他の設立登記法人,山形県,山形市,十日町４丁目１番４号ヒカリビル３Ｆ,,06,201,9900031,,,,,,,2023-06-07,1,,,,,エンプレシップ,0
2698,8420001018280,新規,0,2023-06-07,2023-06-07,株式会社なごみペイント,,株式会社,青森県,三沢市,花園町２丁目４番１号,,02,207,0330061,,,,,,,2023-06-07,1,,,,,ナゴミペイント,0
2699,8420001018289,新規,0,2023-06-07,2023-06-07,株式会社大志建創,,株式会社,青森県,八戸市,湊高台４丁目１５番２０号アルス湊高台Ｅ棟１０１号,,02,203,0310823,,,,,,,2023-06-07,1,,,,,タイシケンソウ,0
2700,8430001089305,新規,0,2023-06-07,2023-06-07,株式会社建機販売サービス,,株式会社,北海道,札幌市東区,中沼町２８番地１２,,01,103,0070890,,,,,,,2023-06-07,1,,,,,ケンキハンバイサービス,0
2705,8480003001989,新規,0,2023-06-07,2023-06-07,合同会社わんわん,,合同会社,徳島県,鳴門市,鳴門町三ツ石字芙蓉山下３８７番地,,36,202,7720052,,,,,,,2023-06-07,1,,,,,ワンワン,0
2707,8490001010495,新規,0,2023-06-07,2023-06-07,株式会社トリアス,,株式会社,高知県,安芸市,井ノ口甲２２３９番地２,,39,203,7840051,,,,,,,2023-06-07,1,,,,,トリアス,0
2710,8500001024989,新規,0,2023-06-07,2023-06-07,株式会社ｂｏｋｕｎｏ,,株式会社,愛媛県,伊予郡松前町,大字浜７７５番地１バルーンビル５号,,38,401,7913110,,,,,,,2023-06-07,1,,,,,ボクノ,0
2711,8500001024997,新規,0,2023-06-07,2023-06-07,株式会社Ｉｎｐｒｏｖｅｍｅｎｔ‐Ｂａｓｅ,,株式会社,愛媛県,松山市,森松町５９２－１０,,38,201,7911113,,,,,,,2023-06-07,1,,,,,インプルーブメントベース,0
2712,8700150005118,新規,0,2023-06-07,2015-10-09,日本顕微鏡工業会,,その他,東京都,港区,芝公園３丁目５－８機械振興会館５０３,,13,103,1050011,,,,,,,2015-10-09,1,,,,,ニホンケンビキヨウコウギヨウカイ,0
2713,8700150116963,新規,0,2023-06-07,2023-06-07,ｓｈｅｎｚｈｅｎｓｈｉｚｈｏｎｇｘｉｎｇｚｈｕｂａｏｙｏｕｘｉａｎｇｏｎｇｓｉ,,外国会社等,,,,,,,,ｎａｎ　ｗａｎ　ｊｉｅ　ｄａｏ　ｂｕ　ｌａｎ　ｌｕ　２３　ｈａｏ　ｌｉａｎ　ｃｈｕａｎｇ　ｋｅ　ｊｉ　ｙｕａｎ　ｅｒ　ｑｉ　３０　ｄｏｎｇ　５　ｌｏｕ（２　ｈａｏ　ｄｉａｎ　ｔｉ）ｓｈｅｎ　ｚｈｅｎ　ｓｈｉ　ｌｏｎｇ　ｇａｎｇ　ｑｕ　ｇｕａｎｇ　ｄｏｎｇ　ｓｈｅｎｇ　５１８０００　ＣＮ,,,,,,2023-06-07,1,,,,,シェンジェンシージョンシンジューバオヨウシエンゴンスー,0
2714,8700150116971,新規,0,2023-06-07,2023-06-07,ＰＯＷＥＲ　ＫＡＲＡＴＥ　ＭＢＫ，ＩＮＣ．日本駐在員事務所,,外国会社等,東京都,新宿区,新宿５丁目１４－１２天翔オフィス新宿三丁目２階２０７号室,,13,104,1600022,１７３０　Ｎｏｒｔｈ，Ｓｅｐｕｌｖｅｄａ　Ｂｌｖｄ．，Ｍａｎｈａｔｔａｎ　Ｂｅａｃｈ，Ｃａｌｉｆｏｒｎｉａ，ＵＳＡ,,,,,,2023-06-07,1,,,,,パワーカラテエムビーケーインクニホンチユウザイインジムシヨ,0
2725,9010001235692,新規,0,2023-06-07,2023-06-07,株式会社ＫＩＹＯＭＩＺＵ　ＤＩＶＥ,,株式会社,東京都,千代田区,神田小川町２丁目１２－１４晴花ビル４Ｆ,,13,101,1010052,,,,,,,2023-06-07,1,,,,,キヨミズダイブ,0
2726,9010001235800,新規,0,2023-06-07,2023-06-07,株式会社Ｕｎｍｅｒｇｅ,,株式会社,東京都,中央区,銀座１丁目２２番１１号銀座大竹ビジデンス２Ｆ,,13,102,1040061,,,,,,,2023-06-07,1,,,,,アンマージ,0
2727,9010001235833,新規,0,2023-06-07,2023-06-07,ＳＡＮＹＵ　ＣＯＲＰＯＲＡＴＩＯＮ株式会社,,株式会社,東京都,中央区,日本橋箱崎町２７番９号オフィスヴェラ日本橋箱崎１階,,13,102,1030015,,,,,,,2023-06-07,1,,,,,サンユーコーポレーション,0
2728,9010001235858,新規,0,2023-06-07,2023-06-07,株式会社財システムズ,,株式会社,東京都,千代田区,岩本町３丁目１０番４号寿ビルディング３Ｆ,,13,101,1010032,,,,,,,2023-06-07,1,,,,,タカラシステムズ,0
2729,9010001235874,新規,0,2023-06-07,2023-06-07,株式会社ＯＤＥＯＮ,,株式会社,東京都,中央区,湊２丁目１２番１６－４０７号,,13,102,1040043,,,,,,,2023-06-07,1,,,,,オデオン,0
2730,9010001235908,新規,0,2023-06-07,2023-06-07,株式会社デポ,,株式会社,東京都,中央区,銀座１丁目１２番４号Ｎ＆ＥＢＬＤ．６Ｆ,,13,102,1040061,,,,,,,2023-06-07,1,,,,,デポ,0
2731,9010001235949,新規,0,2023-06-07,2023-06-07,ＨＣＣ蘭＿医療株式会社,00130766,株式会社,東京都,中央区,日本橋本町３丁目３－６ワカ末ビル７階９号室,,13,102,1030023,,,,,,,2023-06-07,1,,,,,エチシシランセンイリョウ,0
2732,9010001235965,新規,0,2023-06-07,2023-06-07,株式会社ブライトネス,,株式会社,東京都,中央区,築地１丁目４－８リビオレゾン東銀座８０２号,,13,102,1040045,,,,,,,2023-06-07,1,,,,,ブライトネス,0
2737,9010003040736,新規,0,2023-06-07,2023-06-07,グロービ・ジャパン合同会社,,合同会社,東京都,千代田区,丸の内１丁目１１番１号パシフィックセンチュリープレイス丸の内１３階,,13,101,1000005,,,,,,,2023-06-07,1,,,,,グロービジャパン,0
2738,9010003040769,新規,0,2023-06-07,2023-06-07,ネクスト合同会社,,合同会社,東京都,中央区,銀座１丁目１２番４号Ｎ＆ＥＢＬＤ．６Ｆ,,13,102,1040061,,,,,,,2023-06-07,1,,,,,ネクスト,0
2739,9010003040785,新規,0,2023-06-07,2023-06-07,合同会社ＯＹＡ,,合同会社,東京都,中央区,日本橋堀留町２丁目６番２－９０７号,,13,102,1030012,,,,,,,2023-06-07,1,,,,,オーワイエー,0
2740,9010003040793,新規,0,2023-06-07,2023-06-07,合同会社ＶＡＬＵＥＮＴ,,合同会社,東京都,中央区,築地１丁目５番８－１１０４号,,13,102,1040045,,,,,,,2023-06-07,1,,,,,バリュエント,0
2741,9010003040802,新規,0,2023-06-07,2023-06-07,合同会社Ｆｉｒｓｔ　Ｓｔｅｐ,,合同会社,東京都,中央区,銀座１丁目２２番１１号銀座大竹ビジデンス２Ｆ,,13,102,1040061,,,,,,,2023-06-07,1,,,,,ファーストステップ,0
2742,9010003040810,新規,0,2023-06-07,2023-06-07,ＢＩＧ　ＨＯＵＳＥ合同会社,,合同会社,東京都,千代田区,麹町１丁目６番１６号半蔵門海和ビル９階（Ｃ／ＯＪｏｏ－ｒｅａｌｅｓｔａｔｅ－ｏｆｆｉｃｅ）,,13,101,1020083,,,,,,,2023-06-07,1,,,,,ビックハウス,0
2745,9010005036658,新規,0,2023-06-07,2023-06-07,一般社団法人キルクルス企画,,その他の設立登記法人,東京都,文京区,千駄木１丁目２番８号フォレストヒルズ千駄木１０２,,13,105,1130022,,,,,,,2023-06-07,1,,,,,キルクルスキカク,0
2746,9010005036781,新規,0,2023-06-07,2023-06-07,一般社団法人スポーツ推進機構,,その他の設立登記法人,東京都,中央区,佃２丁目１番１－３８０５号,,13,102,1040051,,,,,,,2023-06-07,1,,,,,スポーツスイシンキコウ,0
2759,9010505003414,新規,0,2023-06-07,2023-06-07,ａｎｙ税理士法人,,その他の設立登記法人,東京都,台東区,東上野３丁目１５番１０号,,13,106,1100015,,,,,,,2023-06-07,1,,,,,エニー,0
2761,9010603010188,新規,0,2023-06-07,2023-06-07,合同会社ＮｉＨＩＴＡＲＵ,,合同会社,東京都,江東区,東陽４丁目５番９号,,13,108,1350016,,,,,,,2023-06-07,1,,,,,ニヒタル,0
2763,9010701044385,新規,0,2023-06-07,2023-06-07,株式会社ＭＡＧＩＣ　ＩＳＬＡＮＤ,,株式会社,東京都,品川区,南品川２丁目１２番１１号コーポマルサン３０３,,13,109,1400004,,,,,,,2023-06-07,1,,,,,マジックアイランド,0
2765,9010801034022,新規,0,2023-06-07,2023-06-07,株式会社Ｎａｆ　Ｃｏｌｌｅｃｔｉｏｎ’ｓ,,株式会社,東京都,大田区,大森南５丁目１番２０号,,13,111,1430013,,,,,,,2023-06-07,1,,,,,ナフコレクションズ,0
2768,9010901053178,新規,0,2023-06-07,2023-06-07,株式会社ＴＯＨ,,株式会社,東京都,世田谷区,宮坂１丁目３６番９号,,13,112,1560051,,,,,,,2023-06-07,1,,,,,トウ,0
2769,9010901053203,新規,0,2023-06-07,2023-06-07,株式会社ＢｌａｖＳｔｙｌｅ,,株式会社,東京都,世田谷区,奥沢１丁目２８番５号,,13,112,1580083,,,,,,,2023-06-07,1,,,,,ブラブスタイル,0
2770,9010903008221,新規,0,2023-06-07,2023-06-07,合同会社ぐるぐる企画,,合同会社,東京都,世田谷区,代田１丁目１９番２号－１,,13,112,1550033,,,,,,,2023-06-07,1,,,,,グルグルキカク,0
2773,9011001154825,新規,0,2023-06-07,2023-06-07,株式会社Ｊｉｎ　ｔｏ　Ｎｉｃｋ,,株式会社,東京都,渋谷区,神宮前６丁目２３－４桑野ビル２階,,13,113,1500001,,,,,,,2023-06-07,1,,,,,ジントニック,0
2774,9011001154833,新規,0,2023-06-07,2023-06-07,チャオエンタープライズ株式会社,,株式会社,東京都,渋谷区,神宮前５丁目８番８号,,13,113,1500001,,,,,,,2023-06-07,1,,,,,チャオエンタープライズ,0
2775,9011001154874,新規,0,2023-06-07,2023-06-07,株式会社雷銀映像,,株式会社,東京都,渋谷区,代々木２丁目２６番５－１１０２号,,13,113,1510053,,,,,,,2023-06-07,1,,,,,ライギンエイゾウ,0
2776,9011001154882,新規,0,2023-06-07,2023-06-07,株式会社スモールジャイアンツスタジオ,,株式会社,東京都,目黒区,平町１丁目６番１３号,,13,110,1520032,,,,,,,2023-06-07,1,,,,,スモールジャイアンツスタジオ,0
2777,9011001154908,新規,0,2023-06-07,2023-06-07,株式会社ＬＡＶＩＡ,,株式会社,東京都,渋谷区,神南１丁目１４番１号,,13,113,1500041,,,,,,,2023-06-07,1,,,,,ラヴィア,0
2778,9011001154932,新規,0,2023-06-07,2023-06-07,株式会社Ｂａｒｏｎ,,株式会社,東京都,渋谷区,道玄坂２丁目６番１５号鈴井ビルＢ１Ｆ,,13,113,1500043,,,,,,,2023-06-07,1,,,,,バロン,0
2779,9011003016924,新規,0,2023-06-07,2023-06-07,合同会社ＬＵＩＧＩ　ＪＰ　ＣＯＭＭＵＮＩＣＡＴＩＯＮＳ,,合同会社,東京都,渋谷区,桜丘町１３番４号ＡＲＯＭＡ桜丘３０４,,13,113,1500031,,,,,,,2023-06-07,1,,,,,ルイジィジェーピーコミュニケーションズ,0
2780,9011003016932,新規,0,2023-06-07,2023-06-07,キャベツ・システムズ合同会社,,合同会社,東京都,渋谷区,神南１丁目１１－３,,13,113,1500041,,,,,,,2023-06-07,1,,,,,キャベツシステムズ,0
2781,9011005010099,新規,0,2023-06-07,2023-06-07,一般社団法人ナカムラＹＴ,,その他の設立登記法人,東京都,目黒区,柿の木坂１丁目２７番１０号,,13,110,1520022,,,,,,,2023-06-07,1,,,,,ナカムラワイティー,0
2788,9011101103137,新規,0,2023-06-07,2023-06-07,株式会社ＲＤＳ,,株式会社,東京都,新宿区,四谷三栄町７番１６号,,13,104,1600008,,,,,,,2023-06-07,1,,,,,アールディーエス,0
2789,9011101103161,新規,0,2023-06-07,2023-06-07,欣禾株式会社,,株式会社,東京都,新宿区,百人町２丁目２２番１６－３０２号,,13,104,1690073,,,,,,,2023-06-07,1,,,,,キンカ,0
2792,9011103013103,新規,0,2023-06-07,2023-06-07,合同会社甲南オフィスプロジェクト,,合同会社,東京都,新宿区,四谷２丁目９番地１５東京ユナイテッド綜合事務所内,,13,104,1600004,,,,,,,2023-06-07,1,,,,,コウナンオフィスプロジェクト,0
2793,9011103013128,新規,0,2023-06-07,2023-06-07,合同会社ケースエイト,,合同会社,東京都,新宿区,西新宿３丁目３番１３号西新宿水間ビル２Ｆ,,13,104,1600023,,,,,,,2023-06-07,1,,,,,ケースエイト,0
2794,9011105010676,新規,0,2023-06-07,2023-06-07,一般社団法人アルファグループ,,その他の設立登記法人,東京都,新宿区,新宿３丁目１１番６号エクレ新宿１３階,,13,104,1600022,,,,,,,2023-06-07,1,,,,,アルファグループ,0
2802,9011403004017,新規,0,2023-06-07,2023-06-07,Ｓ１０合同会社,,合同会社,東京都,板橋区,蓮根３丁目１５番３－７０１号,,13,119,1740046,,,,,,,2023-06-07,1,,,,,エステン,0
2808,9011701026299,新規,0,2023-06-07,2023-06-07,株式会社フィールドリバー,,株式会社,東京都,江戸川区,小松川３丁目１２番２－１１０２号,,13,123,1320034,,,,,,,2023-06-07,1,,,,,フィールドリバー,0
2814,9012401040598,新規,0,2023-06-07,2023-06-07,株式会社エムシステム,,株式会社,東京都,府中市,白糸台３丁目１６番地の１,,13,206,1830011,,,,,,,2023-06-07,1,,,,,エムシステム,0
2817,9012701017684,新規,0,2023-06-07,2023-06-07,タニデジタルラボ株式会社,,株式会社,東京都,東久留米市,氷川台２丁目１１番３号,,13,222,2030004,,,,,,,2023-06-07,1,,,,,タニデジタルラボ,0
2825,9020001151939,新規,0,2023-06-07,2023-06-07,株式会社朋＿商事,00130753,株式会社,神奈川県,横浜市中区,山下町１８８番地,,14,104,2310023,,,,,,,2023-06-07,1,,,,,ホウリンショウジ,0
2826,9020001151955,新規,0,2023-06-07,2023-06-07,株式会社凸建住設,,株式会社,神奈川県,横浜市港北区,新吉田町２１１番地４,,14,109,2230056,,,,,,,2023-06-07,1,,,,,トッケンジュウセツ,0
2832,9020003024011,新規,0,2023-06-07,2023-06-07,合同会社ＭＯＲＯ,,合同会社,神奈川県,川崎市宮前区,宮崎３丁目１０番地７２,,14,136,2160033,,,,,,,2023-06-07,1,,,,,モロ,0
2833,9020005016023,新規,0,2023-06-07,2023-06-07,一般財団法人小池汪記念財団,,その他の設立登記法人,神奈川県,川崎市宮前区,宮崎２丁目８番地５,,14,136,2160033,,,,,,,2023-06-07,1,,,,,コイケオウキネンザイダン,0
2838,9021001079229,新規,0,2023-06-07,2023-06-07,株式会社アンシンコーポレーション,,株式会社,神奈川県,藤沢市,花の木５番５号,,14,205,2510874,,,,,,,2023-06-07,1,,,,,アンシンコーポレーション,0
2840,9021003013169,新規,0,2023-06-07,2023-06-07,合同会社エスエル,,合同会社,神奈川県,横須賀市,久里浜５丁目９番１０号,,14,201,2390831,,,,,,,2023-06-07,1,,,,,エスエル,0
2841,9021003013193,新規,0,2023-06-07,2023-06-07,コリンズ合同会社,,合同会社,神奈川県,愛甲郡愛川町,半原４１４番地の１５,,14,401,2430307,,,,,,,2023-06-07,1,,,,,コリンズ,0
2848,9030001154230,新規,0,2023-06-07,2023-06-07,株式会社ｗｉｌｌ,,株式会社,埼玉県,富士見市,大字東大久保５８６番地２１,,11,235,3540001,,,,,,,2023-06-07,1,,,,,ウィル,0
2849,9030001154255,新規,0,2023-06-07,2023-06-07,アシストサービス株式会社,,株式会社,埼玉県,八潮市,大瀬１丁目８番地８,,11,234,3400822,,,,,,,2023-06-07,1,,,,,アシストサービス,0
2852,9030003021874,新規,0,2023-06-07,2023-06-07,ＤＨＡＫＡ　ＴＲＡＤＥ合同会社,,合同会社,埼玉県,蕨市,南町２丁目４番１号サンコーポ２０３,,11,223,3350003,,,,,,,2023-06-07,1,,,,,ダッカトレード,0
2853,9030003021890,新規,0,2023-06-07,2023-06-07,合同会社埼測,,合同会社,埼玉県,さいたま市西区,大字佐知川１４６番地１,,11,101,3310064,,,,,,,2023-06-07,1,,,,,サイソク,0
2856,9040001128654,新規,0,2023-06-07,2023-06-07,株式会社Ｂｅ‐ｇｒｏｗＮ,,株式会社,千葉県,船橋市,坪井西２丁目５番２５号,,12,204,2740069,,,,,,,2023-06-07,1,,,,,ビーグロウン,0
2857,9040001128687,新規,0,2023-06-07,2023-06-07,株式会社ＳＨＩＮ,,株式会社,千葉県,松戸市,新松戸南２丁目１５１番地,,12,207,2700035,,,,,,,2023-06-07,1,,,,,シン,0
2858,9040001128695,新規,0,2023-06-07,2023-06-07,株式会社ベルサンモール,,株式会社,千葉県,市川市,妙典４丁目５番２５号ベルサンモール,,12,203,2720111,,,,,,,2023-06-07,1,,,,,ベルサンモール,0
2859,9040001128704,新規,0,2023-06-07,2023-06-07,株式会社キタハマ建装,,株式会社,千葉県,佐倉市,王子台５丁目３８番地１,,12,212,2850837,,,,,,,2023-06-07,1,,,,,キタハマケンソウ,0
2860,9040001128712,新規,0,2023-06-07,2023-06-07,株式会社ＷｉｓＭ,,株式会社,千葉県,習志野市,津田沼１丁目２番７号２Ｆ,,12,216,2750016,,,,,,,2023-06-07,1,,,,,ウィズム,0
2861,9040001128720,新規,0,2023-06-07,2023-06-07,株式会社エフケイワン,,株式会社,千葉県,野田市,清水６０６番地の６,,12,208,2780043,,,,,,,2023-06-07,1,,,,,エフケイワン,0
2862,9040001128761,新規,0,2023-06-07,2023-06-07,株式会社ぺんぎん,,株式会社,千葉県,千葉市若葉区,大宮台４丁目５－１１,,12,104,2640015,,,,,,,2023-06-07,1,,,,,ペンギン,0
2865,9040003022772,新規,0,2023-06-07,2023-06-07,合同会社ダイス,,合同会社,千葉県,千葉市花見川区,検見川町１丁目７２７番地４－３０３号,,12,102,2620023,,,,,,,2023-06-07,1,,,,,ダイス,0
2867,9050001052928,新規,0,2023-06-07,2023-06-07,株式会社協伸,,株式会社,茨城県,土浦市,白鳥町３８８番地８,,08,203,3000022,,,,,,,2023-06-07,1,,,,,キョウシン,0
2870,9050003007541,新規,0,2023-06-07,2023-06-07,Ｂ‐ＳＯＡＤ合同会社,,合同会社,茨城県,かすみがうら市,稲吉東２丁目７番２６号,,08,230,3150053,,,,,,,2023-06-07,1,,,,,,0
2872,9060001036070,新規,0,2023-06-07,2023-06-07,海莉建設株式会社,,株式会社,栃木県,宇都宮市,東刑部町３７８番地,,09,201,3210915,,,,,,,2023-06-07,1,,,,,カイリケンセツ,0
2877,9060003004587,新規,0,2023-06-07,2023-06-07,合同会社はりねずみ,,合同会社,栃木県,那須塩原市,上厚崎２７９番地１１,,09,213,3250026,,,,,,,2023-06-07,1,,,,,ハリネズミ,0
2887,9080101024048,新規,0,2023-06-07,2023-06-07,株式会社山阪,,株式会社,静岡県,沼津市,大手町１丁目４番２８－４０５号ル・シェモア大手町,,22,203,4100801,,,,,,,2023-06-07,1,,,,,ヤマサカ,0
2893,9080401026520,新規,0,2023-06-07,2023-06-07,株式会社ＡＮＳＹ,,株式会社,静岡県,浜松市中区,蜆塚１丁目１７番３号,,22,131,4328018,,,,,,,2023-06-07,1,,,,,アンシー,0
2900,9110001037591,新規,0,2023-06-07,2023-06-07,株式会社二和ドリーム,,株式会社,新潟県,長岡市,青葉台１丁目甲１２０番地８,,15,202,9402145,,,,,,,2023-06-07,1,,,,,フタワドリーム,0
2901,9110001037600,新規,0,2023-06-07,2023-06-07,テラノホールディングス株式会社,,株式会社,新潟県,長岡市,三島新保４２０番地,,15,202,9402311,,,,,,,2023-06-07,1,,,,,テラノホールディングス,0
2909,9120001255432,新規,0,2023-06-07,2023-06-07,エストレージャ株式会社,,株式会社,大阪府,大阪市中央区,松屋町３番２３－１１０７号,,27,128,5420067,,,,,,,2023-06-07,1,,,,,エストレージャ,0
2910,9120001255498,新規,0,2023-06-07,2023-06-07,株式会社渡瀬金属工業,,株式会社,大阪府,寝屋川市,点野５丁目６番２号,,27,215,5720077,,,,,,,2023-06-07,1,,,,,ワタセキンゾクコウギョウ,0
2919,9120101067661,新規,0,2023-06-07,2023-06-07,株式会社ＪＡＭ,,株式会社,大阪府,堺市西区,浜寺昭和町１丁１２５番１,,27,144,5928345,,,,,,,2023-06-07,1,,,,,ジャム,0
2920,9120101067678,新規,0,2023-06-07,2023-06-07,株式会社ＴＷＥＬＶＥ,,株式会社,大阪府,和泉市,いぶき野３丁目６番１－８１４号,,27,219,5940041,,,,,,,2023-06-07,1,,,,,トゥエルブ,0
2925,9120905006468,新規,0,2023-06-07,2023-06-07,津之江農事実行組合,,その他の設立登記法人,大阪府,高槻市,津之江町１丁目４０番１９号,,27,207,5690822,,,,,,,2023-06-07,1,,,,,ツノエ,0
2928,9122001037059,新規,0,2023-06-07,2023-06-07,株式会社アイエス・コーポレーション,,株式会社,大阪府,東大阪市,西堤学園町１丁目２番３５号,,27,227,5770044,,,,,,,2023-06-07,1,,,,,アイエスコーポレーション,0
2932,9130001074427,新規,0,2023-06-07,2023-06-07,株式会社ＴＮＴ,,株式会社,京都府,京都市中京区,三条通烏丸東入梅忠町２４番地三条ＣＯＨＪＵビル４Ｆ,,26,104,6048136,,,,,,,2023-06-07,1,,,,,ティーエヌティー,0
2933,9130001074476,新規,0,2023-06-07,2023-06-07,株式会社ｆｅｌｌｏｗｓ,,株式会社,京都府,京都市上京区,今出川通御前上る社家長屋町６９０番地３,,26,102,6020000,,,,,,,2023-06-07,1,,,,,フェローズ,0
2934,9130003008762,新規,0,2023-06-07,2023-06-07,合同会社健康計画,,合同会社,京都府,京都市上京区,寺町通丸太町上る松蔭町１３５,,26,102,6020867,,,,,,,2023-06-07,1,,,,,ケンコウケイカク,0
2935,9130005016788,新規,0,2023-06-07,2023-06-07,一般社団法人文化財修理表装裂継承協会,,その他の設立登記法人,京都府,京都市中京区,夷川通堺町東入絹屋町１２８番地,,26,104,6040804,,,,,,,2023-06-07,1,,,,,ブンカザイシュウリヒョウソウギレケイショウキョウカイ,0
2938,9140003019164,新規,0,2023-06-07,2023-06-07,Ｗｉｚアセットマネジメント合同会社,,合同会社,兵庫県,姫路市,北新在家１丁目６番１３号,,28,201,6700091,,,,,,,2023-06-07,1,,,,,ウィズアセットマネジメント,0
2941,9140005026646,新規,0,2023-06-07,2023-06-07,一般社団法人宗教者支援協会,,その他の設立登記法人,兵庫県,神戸市東灘区,深江北町２丁目８番６号,,28,101,6580013,,,,,,,2023-06-07,1,,,,,シュウキョウシャシエンキョウカイ,0
2943,9150001026467,新規,0,2023-06-07,2023-06-07,株式会社ＡＤＯＲＥ,,株式会社,奈良県,橿原市,内膳町５丁目２番４０号ＦＡＣＥビル３階,,29,205,6340804,,,,,,,2023-06-07,1,,,,,アドレ,0
2956,9180001156550,新規,0,2023-06-07,2023-06-07,ＢＰＦレーザイノベーション株式会社,,株式会社,愛知県,長久手市,立花２８８８番地１,,23,238,4801307,,,,,,,2023-06-07,1,,,,,ビーピーエフレーザイノベーション,0
2957,9180001156583,新規,0,2023-06-07,2023-06-07,株式会社ＴＲコーポレーション,,株式会社,愛知県,春日井市,出川町３丁目９番地１１,,23,206,4870025,,,,,,,2023-06-07,1,,,,,ティーアールコーポレーション,0
2958,9180001156591,新規,0,2023-06-07,2023-06-07,株式会社ミツワスタッフ,,株式会社,愛知県,名古屋市東区,東桜２丁目３番７号,,23,102,4610005,,,,,,,2023-06-07,1,,,,,ミツワスタッフ,0
2959,9180001156625,新規,0,2023-06-07,2023-06-07,株式会社ロクジカデザイン,,株式会社,愛知県,豊明市,新栄町５丁目４３番地２,,23,229,4701154,,,,,,,2023-06-07,1,,,,,ロクジカデザイン,0
2960,9180001156641,新規,0,2023-06-07,2023-06-07,株式会社ＩＭＵＴＹ,,株式会社,愛知県,一宮市,赤見２丁目９番２１号,,23,203,4910023,,,,,,,2023-06-07,1,,,,,イミュティー,0
2961,9180001156666,新規,0,2023-06-07,2023-06-07,株式会社大喜,,株式会社,愛知県,知多市,つつじが丘４丁目１２番地の１０,,23,224,4780054,,,,,,,2023-06-07,1,,,,,ダイキ,0
2963,9180301037459,新規,0,2023-06-07,2023-06-07,友愛株式会社,,株式会社,愛知県,新城市,上平井２８５番地３,,23,221,4411355,,,,,,,2023-06-07,1,,,,,ユウアイ,0
2966,9180303005736,新規,0,2023-06-07,2023-06-07,合同会社ｆｌｏａｔ　ｏｎ,,合同会社,愛知県,豊川市,松風町４６番地（１－Ａ）,,23,207,4420871,,,,,,,2023-06-07,1,,,,,フロートオン,0
2967,9190001030465,新規,0,2023-06-07,2023-06-07,株式会社ＢＴＬＳ,,株式会社,三重県,四日市市,滝川町１１－１６,,24,202,5100034,,,,,,,2023-06-07,1,,,,,,0
2973,9200001041378,新規,0,2023-06-07,2023-06-07,株式会社レンジャー,,株式会社,岐阜県,不破郡垂井町,地蔵２丁目４７番地,,21,361,5032100,,,,,,,2023-06-07,1,,,,,レンジャー,0
2988,9240001061604,新規,0,2023-06-07,2023-06-07,株式会社星心工業,,株式会社,広島県,三原市,沼田東町釜山４８１番地１Ｂ１０２,,34,204,7230143,,,,,,,2023-06-07,1,,,,,セイシンコウギョウ,0
2989,9240001061620,新規,0,2023-06-07,2023-06-07,株式会社Ａ‐ＯＮＥ,,株式会社,広島県,三原市,宮沖２丁目２番５号,,34,204,7230016,,,,,,,2023-06-07,1,,,,,エースワン,0
2990,9240001061637,新規,0,2023-06-07,2023-06-07,トクダオート株式会社,,株式会社,広島県,尾道市,高須町４８４０番地１９,,34,205,7290141,,,,,,,2023-06-07,1,,,,,トクダオート,0
2991,9240001061645,新規,0,2023-06-07,2023-06-07,蕪商会株式会社,,株式会社,広島県,広島市東区,山根町２７番１－６０１号,,34,102,7320048,,,,,,,2023-06-07,1,,,,,カブショウカイ,0
2994,9240003006169,新規,0,2023-06-07,2023-06-07,合同会社貴喜,,合同会社,広島県,安芸郡府中町,本町５丁目６番１８－９号１０２号,,34,302,7350006,,,,,,,2023-06-07,1,,,,,タカキ,0
2999,9250001020138,新規,0,2023-06-07,2023-06-07,フィービープランニング株式会社,,株式会社,山口県,宇部市,大字西岐波字西宮ノ後８０８番３,,35,202,7550151,,,,,,,2023-06-07,1,,,,,フィービープランニング,0
3004,9260003004328,新規,0,2023-06-07,2023-06-07,合同会社クルリンパ,,合同会社,岡山県,高梁市,川上町下大竹２０８５番地,,33,209,7160212,,,,,,,2023-06-07,1,,,,,クルリンパ,0
3007,9270001008791,新規,0,2023-06-07,2023-06-07,日本ウィステリア株式会社,,株式会社,鳥取県,鳥取市,湖山町東４丁目２７番地２,,31,201,6800942,,,,,,,2023-06-07,1,,,,,ニホンウィステリア,0
3008,9280001008956,新規,0,2023-06-07,2023-06-07,株式会社ＳＵＴＥＫＩ　ＤＥＳＩＧＮ,,株式会社,島根県,松江市,西茶町４０－１ｅｎｕｎ２Ｆ,,32,201,6900845,,,,,,,2023-06-07,1,,,,,ステキデザイン,0
3010,9290001101693,新規,0,2023-06-07,2023-06-07,株式会社ＦＳパートナーズ,,株式会社,福岡県,福岡市南区,柳河内１丁目９番２９号鈴木ビル６階,,40,134,8150063,,,,,,,2023-06-07,1,,,,,エフエスパートナーズ,0
3011,9290001101727,新規,0,2023-06-07,2023-06-07,アトレホールディングス株式会社,,株式会社,福岡県,福岡市博多区,博多駅南６丁目１２番３０号,,40,132,8120016,,,,,,,2023-06-07,1,,,,,アトレホールディングス,0
3012,9290001101784,新規,0,2023-06-07,2023-06-07,株式会社常盤テクノサービス,,株式会社,福岡県,福岡市西区,横浜１丁目２番１５号,,40,135,8190166,,,,,,,2023-06-07,1,,,,,トキワテクノサービス,0
3013,9290001101818,新規,0,2023-06-07,2023-06-07,株式会社１＆５,,株式会社,福岡県,福岡市東区,松崎３丁目３３番３８－２０５号,,40,131,8130035,,,,,,,2023-06-07,1,,,,,イチゴ,0
3014,9290001101859,新規,0,2023-06-07,2023-06-07,株式会社日々吉,,株式会社,福岡県,久留米市,日吉町１６－４－５０７,,40,203,8300017,,,,,,,2023-06-07,1,,,,,ヒビヨシ,0
3015,9290003013929,新規,0,2023-06-07,2023-06-07,合同会社ＲＯＫＵ,,合同会社,福岡県,福岡市中央区,渡辺通５丁目１６番１０－１４０２号Ｆ－ＰＡＲＣＧＲＡＮＤＭＡＲＫ天神,,40,133,8100004,,,,,,,2023-06-07,1,,,,,ロク,0
3016,9290003013994,新規,0,2023-06-07,2023-06-07,合同会社キャニオン,,合同会社,福岡県,福岡市南区,五十川２丁目２７番１６号,,40,134,8150001,,,,,,,2023-06-07,1,,,,,キャニオン,0
3018,9290801029580,新規,0,2023-06-07,2023-06-07,株式会社Ｏｆｆｉｃｅ　Ｆｏｕｒ‐Ｃ,,株式会社,福岡県,北九州市八幡東区,清田４丁目１５‐４,,40,108,8050034,,,,,,,2023-06-07,1,,,,,オフィスフォーシー,0
3019,9310001018448,新規,0,2023-06-07,2023-06-07,株式会社花みどりファーム,,株式会社,長崎県,佐世保市,高花町４９８番地,,42,202,8570125,,,,,,,2023-06-07,1,,,,,ハナミドリファーム,0
3020,9320001019817,新規,0,2023-06-07,2023-06-07,株式会社リホーム大分,,株式会社,大分県,大分市,畑中４丁目８番３０号,,44,201,8700856,,,,,,,2023-06-07,1,,,,,リホームオオイタ,0
3023,9330003009872,新規,0,2023-06-07,2023-06-07,ｂｅｍｉｏｎ合同会社,,合同会社,熊本県,八代市,井上町２９７－８,,43,202,8660825,,,,,,,2023-06-07,1,,,,,ビミオン,0
3025,9360001032130,新規,0,2023-06-07,2023-06-07,株式会社Ｔａｔｏｒｅ,,株式会社,沖縄県,那覇市,松島１丁目２１－１４－２０５,,47,201,9020069,,,,,,,2023-06-07,1,,,,,タトレ,0
3034,9380001033738,新規,0,2023-06-07,2023-06-07,株式会社晃成建設,,株式会社,福島県,郡山市,大槻町字南下大谷７２番地の１,,07,203,9630201,,,,,,,2023-06-07,1,,,,,コウセイケンセツ,0
3035,9380001033762,新規,0,2023-06-07,2023-06-07,株式会社フタリボッチルルー,,株式会社,福島県,郡山市,深沢２丁目１３－１２,,07,203,9638874,,,,,,,2023-06-07,1,,,,,フタリボッチルルー,0
3037,9380003005479,新規,0,2023-06-07,2023-06-07,Ｄｏｎ　Ｄｏｎランド合同会社,,合同会社,福島県,西白河郡中島村,大字滑津字大池向１１番地２,,07,465,9610102,,,,,,,2023-06-07,1,,,,,ドンドンランド,0
3044,9420001018288,新規,0,2023-06-07,2023-06-07,株式会社青森ＨＲマネジメント,,株式会社,青森県,八戸市,大字大久保字行人坂３１番地１３,,02,203,0310833,,,,,,,2023-06-07,1,,,,,アオモリエイチアールマネジメント,0
3046,9430001089279,新規,0,2023-06-07,2023-06-07,株式会社そらうみ,,株式会社,北海道,江別市,野幌東町３１番地の１,,01,217,0690825,,,,,,,2023-06-07,1,,,,,ソラウミ,0
3047,9430001089312,新規,0,2023-06-07,2023-06-07,株式会社加藤架設,,株式会社,北海道,札幌市白石区,平和通８丁目北１番１０号,,01,104,0030029,,,,,,,2023-06-07,1,,,,,カトウカセツ,0
3050,9430003015126,新規,0,2023-06-07,2023-06-07,合同会社友栄,,合同会社,北海道,北広島市,大曲緑ヶ丘７丁目１５番地１０,,01,234,0611276,,,,,,,2023-06-07,1,,,,,ユウエイ,0
3051,9430003015142,新規,0,2023-06-07,2023-06-07,合同会社ＹＤ,,合同会社,北海道,札幌市白石区,東札幌六条６丁目１番５－２０２号,,01,104,0030006,,,,,,,2023-06-07,1,,,,,ワイディー,0
3052,9450001014004,新規,0,2023-06-07,2023-06-07,株式会社ノースアド,,株式会社,北海道,旭川市,五条西６丁目３番１号ノックフーク１０２号室,,01,204,0700055,,,,,,,2023-06-07,1,,,,,ノースアド,0
3053,9450001014012,新規,0,2023-06-07,2023-06-07,株式会社サロベツ牧場,,株式会社,北海道,天塩郡豊富町,字上サロベツ２８５番地２,,01,516,0984100,,,,,,,2023-06-07,1,,,,,サロベツボクジョウ,0
3057,9480003001988,新規,0,2023-06-07,2023-06-07,合同会社オセアン,,合同会社,徳島県,徳島市,川内町大松２３番地の７,,36,201,7710131,,,,,,,2023-06-07,1,,,,,オセアン,0
3060,9500005008616,新規,0,2023-06-07,2023-06-07,ポレスター大町管理組合法人,,その他の設立登記法人,愛媛県,西条市,大町１７０７番地１９,,38,206,7930030,,,,,,,2023-06-07,1,,,,,ポレスターオオマチ,0
3061,9700150116962,新規,0,2023-06-07,2023-06-07,ｚｈｅｎｇｚｈｏｕｚｈｕｏｌｉａｎｈａｎｇｓｈａｎｇｍａｏｙｏｕｘｉａｎｇｏｎｇｓｉ,,外国会社等,,,,,,,,ｈｅｎａｎｓｈｅｎｇｚｈｅｎｇｚｈｏｕｓｈｉｚｈｏｎｇｙｕａｎｑｕｓａｎｇｕａｎｍｉａｏｊｉｅｄａｏｚｈｏｎｇｙｕａｎｘｉｌｕ１３１ｈａｏｈｕｇｕａｎｇｙｕａｎｘｉａｏｑｕ４ｈａｏｌｏｕ１ｄｏｎｇ１,,,,,,2023-06-07,1,,,,,ジョンジョウジュオリエンハンシャンマオヨウシエンゴンスー,0
3062,9700150116970,新規,0,2023-06-07,2023-06-07,＿河市騰達汽車出租有限公司　日本駐在員事務所,00130761,外国会社等,東京都,新宿区,山吹町１３０－５ソーラ・デ・吉岡ビル２階ＤＡＯＳＰＡＣＥ神楽坂２０８号室,,13,104,1620801,＿河市源匯区東京路,00130762,,,,,2023-06-07,1,,,,,ラガシトウタツキシヤシユツソユウゲンコウシニホンチユウザイインジムシヨ,0
