sequenceNumber,corporateNumber,process,correct,updateDate,changeDate,name,nameImageId,kind,prefectureName,cityName,streetNumber,addressImageId,prefectureCode,cityCode,postCode,addressOutside,addressOutsideImageId,closeDate,closeCause,successorCorporateNumber,changeCause,assignmentDate,latest,enName,enPrefectureName,enCityName,enAddressOutside,furigana,hihyoji
17,1010401151745,登記記録の閉鎖等,0,2024-02-08,2024-02-01,株式会社いきるちから西麻布,,株式会社,東京都,港区,西麻布４丁目１７－２,,13,103,1060031,,,2024-02-01,合併による解散等,6010401103700,令和６年１月３０日東京都港区白金台四丁目９番１９号Ｂ１株式会社いきるちから（6010401103700）に合併し解散,2020-03-18,1,,,,,イキルチカラニシアザブ,0
20,1010401169465,登記記録の閉鎖等,0,2024-02-08,2024-02-01,ＡＸＳホールディングス株式会社,,株式会社,千葉県,松戸市,高塚新田５１２番１９,,12,207,2702222,,,2024-02-01,合併による解散等,3040001040195,令和６年２月１日千葉県松戸市高塚新田５１２番１９金城重機株式会社（3040001040195）に合併し解散,2022-09-05,1,,,,,アクシスホールディングス,0
25,1010402007616,登記記録の閉鎖等,0,2024-02-08,2024-02-01,有限会社草月工房,,有限会社,東京都,港区,赤坂７丁目２番２１号,,13,103,1070052,,,2024-02-01,合併による解散等,5010401016143,令和６年２月１日東京都港区赤坂七丁目２番２１号草月文化事業株式会社（5010401016143）に合併し解散,2015-10-05,1,,,,,ソウゲツコウボウ,0
65,1011602020788,登記記録の閉鎖等,0,2024-02-08,2024-01-31,有限会社一心サービス,,有限会社,東京都,杉並区,西荻北２丁目２７番８－６０２号,,13,115,1670042,,,2024-01-31,清算の結了等,,,2015-10-05,1,,,,,イッシンサービス,0
78,1012401032256,登記記録の閉鎖等,0,2024-02-08,2024-02-02,株式会社ラグーサ,,株式会社,東京都,武蔵野市,吉祥寺南町４丁目９番２号,,13,203,1800003,,,2024-02-02,清算の結了等,,,2017-01-13,1,,,,,,0
80,1012801021916,登記記録の閉鎖等,0,2024-02-08,2024-02-01,株式会社Ｋｎｏｃｋ　Ｕｐ　Ｓｔｒｅａｍ,,株式会社,埼玉県,比企郡小川町,大字増尾４８０番１,,11,343,3550332,,,2024-02-01,清算の結了等,,,2022-10-28,1,,,,,ノックアップストリーム,0
96,1021002003483,登記記録の閉鎖等,0,2024-02-08,2024-02-06,有限会社トゥー・ドゥー,,有限会社,神奈川県,藤沢市,大鋸１丁目５番４１号,,14,205,2510002,,,2024-02-06,清算の結了等,,,2015-10-05,1,,,,,,0
113,1040003023423,登記記録の閉鎖等,0,2024-02-08,2024-02-02,合同会社デージー,,合同会社,千葉県,鎌ケ谷市,北初富１番１３－５号,,12,224,2730126,,,2024-02-02,清算の結了等,,,2023-09-27,1,,,,,デージー,0
115,1050001035551,登記記録の閉鎖等,0,2024-02-08,2024-02-01,株式会社ブルーエナジー,,株式会社,茨城県,日立市,多賀町２丁目１０番７号,,08,202,3160003,,,2024-02-01,合併による解散等,4010401118741,令和６年２月１日茨城県日立市多賀町二丁目１０番７号ソフィー株式会社（4010401118741）に合併し解散,2015-10-05,1,,,,,ブルーエナジー,0
118,1050002013556,登記記録の閉鎖等,0,2024-02-08,2024-02-05,有限会社阿見鋼建,,有限会社,茨城県,稲敷郡阿見町,大字青宿９９８番地,,08,443,3000301,,,2024-02-05,清算の結了等,,,2015-10-05,1,,,,,,0
125,1080402003393,登記記録の閉鎖等,0,2024-02-08,2024-02-07,有限会社三友警備保障,,有限会社,静岡県,浜松市中央区,伊左地町２４２９番地,,22,138,4311111,,,2024-02-07,清算の結了等,,,2015-10-05,1,,,,,サンユウケイビホショウ,0
140,1120001259036,登記記録の閉鎖等,0,2024-02-08,2024-02-06,株式会社ケイエーシステム,,株式会社,大阪府,大阪市城東区,蒲生２丁目１０－３１－６０６号,,27,118,5360016,,,2024-02-06,清算の結了等,,,2023-10-25,1,,,,,ケイエーシステム,0
164,1130002008309,登記記録の閉鎖等,0,2024-02-08,2024-02-06,有限会社芦田工業,00133488,有限会社,京都府,京都市西京区,桂千代原町２６番地,,26,111,6158085,,,2024-02-06,清算の結了等,,,2024-01-31,1,,,,,アシダコウギョウ,0
171,1140002069952,登記記録の閉鎖等,0,2024-02-08,2024-02-01,有限会社メガネの山口,,有限会社,兵庫県,南あわじ市,市円行寺１４４番地の１,,28,224,6560461,,,2024-02-01,清算の結了等,,,2015-10-05,1,,,,,メガネノヤマグチ,0
186,1180001107619,登記記録の閉鎖等,0,2024-02-08,2024-02-05,株式会社ＮＣＲ,,株式会社,愛知県,名古屋市港区,金船町２丁目１番地１,,23,111,4550063,,,2024-02-05,清算の結了等,,,2015-10-05,1,,,,,エヌシーアール,0
193,1180002090475,登記記録の閉鎖等,0,2024-02-08,2024-02-02,有限会社マッチワークス,,有限会社,愛知県,愛西市,町方町西大山田２１番地１,,23,232,4968014,,,2024-02-02,清算の結了等,,,2015-10-05,1,,,,,マッチワークス,0
199,1200001014705,登記記録の閉鎖等,0,2024-02-08,2024-02-05,株式会社セリノホームズ,,株式会社,岐阜県,不破郡関ケ原町,大字山中８６６番地,,21,362,5031544,,,2024-02-05,清算の結了等,,,2015-10-05,1,,,,,セリノホームズ,0
200,1200001025033,登記記録の閉鎖等,0,2024-02-08,2024-02-07,株式会社中日本トラベルサービス,,株式会社,岐阜県,高山市,石浦町７丁目４０４番地,,21,203,5060825,,,2024-02-07,清算の結了等,,,2015-10-05,1,,,,,ナカニホントラベルサービス,0
210,1240003002324,登記記録の閉鎖等,0,2024-02-08,2024-02-05,合同会社ブロード,,合同会社,広島県,広島市安佐南区,西原８丁目４１－１４－２０２,,34,105,7310113,,,2024-02-05,清算の結了等,,,2015-10-05,1,,,,,ブロード,0
260,2010003027104,登記記録の閉鎖等,0,2024-02-08,2024-02-01,合同会社梅田不動産,,合同会社,東京都,港区,南青山１丁目１番１号新青山ビル東館１９階,,13,103,1070062,,,2024-02-01,合併による解散等,2010003026270,令和６年２月１日東京都港区南青山一丁目１番１号新青山ビル東館１９階合同会社ＰＣ６（2010003026270）に合併し解散,2018-03-07,1,,,,,ウメダフドウサン,0
262,2010401080035,登記記録の閉鎖等,0,2024-02-08,2023-12-28,株式会社ひまわり,,株式会社,東京都,港区,芝５丁目２０番７号,,13,103,1080014,,,2023-12-28,清算の結了等,,,2015-10-05,1,,,,,,0
266,2010401149656,登記記録の閉鎖等,0,2024-02-08,2024-02-05,株式会社灣瑚寺,,株式会社,岩手県,陸前高田市,高田町字下和野１０５番地２,,03,210,0292205,,,2024-02-05,清算の結了等,,,2019-12-06,1,,,,,ワンコジ,0
315,2011602005177,登記記録の閉鎖等,0,2024-02-08,2024-01-31,有限会社石神井ローンテニスクラブ,,有限会社,東京都,練馬区,石神井町２丁目１３番３３号,,13,120,1770041,,,2024-01-31,合併による解散等,2011601016547,令和６年１月３１日東京都練馬区石神井町二丁目１３番３３号株式会社若葉商会（2011601016547）に合併し解散,2015-10-05,1,,,,,シャクジイローンテニスクラブ,0
318,2011702003618,登記記録の閉鎖等,0,2024-02-08,2024-02-05,有限会社山文,,有限会社,東京都,江戸川区,東小岩４丁目３０番１号,,13,123,1330052,,,2024-02-05,清算の結了等,,,2015-10-05,1,,,,,ヤマブン,0
346,2030002112318,登記記録の閉鎖等,0,2024-02-08,2024-02-01,有限会社ミルキー電気,,有限会社,埼玉県,川口市,大字芝４５７２番地,,11,203,3330866,,,2024-02-01,清算の結了等,,,2015-10-05,1,,,,,ミルキーデンキ,0
348,2030003014397,登記記録の閉鎖等,0,2024-02-08,2024-02-01,技術開発合同会社,,合同会社,埼玉県,上尾市,平塚１６６３番地２,00118243,11,219,3620000,,,2024-02-01,清算の結了等,,,2019-11-19,1,,,,,ギジュツカイハツ,0
352,2040002075811,登記記録の閉鎖等,0,2024-02-08,2024-02-02,有限会社安田保険プランニング,,有限会社,千葉県,市原市,千種１丁目１０番地７,,12,219,2990109,,,2024-02-02,清算の結了等,,,2015-10-05,1,,,,,ヤスダホケンプランニング,0
388,2130001046465,登記記録の閉鎖等,0,2024-02-08,2024-02-05,株式会社ハレノヒ,,株式会社,京都府,京都市中京区,東洞院通御池下る笹屋町４３６番地２,,26,104,6048187,,,2024-02-05,合併による解散等,4130001012845,令和６年１月２９日京都市中京区東洞院通御池下る笹屋町４３６番地２志方ホールディングス株式会社（4130001012845）に合併し解散,2015-10-05,1,,,,,ハレノヒ,0
390,2140003015517,登記記録の閉鎖等,0,2024-02-08,2024-02-07,わ・輪・Ｗａ尼崎合同会社,,合同会社,兵庫県,尼崎市,東園田町６丁目５０番地の１４,,28,202,6610953,,,2024-02-07,清算の結了等,,,2020-10-19,1,,,,,ワワワアマガサキ,0
401,2180301024769,登記記録の閉鎖等,0,2024-02-08,2024-02-05,株式会社ＨＵＲＳ,,株式会社,愛知県,田原市,御殿山１３２番地１,,23,231,4413419,,,2024-02-05,清算の結了等,,,2015-10-05,1,,,,,フルス,0
412,2260001023039,登記記録の閉鎖等,0,2024-02-08,2024-02-06,株式会社グロウ,,株式会社,岡山県,真庭市,中２１５番地,,33,214,7193115,,,2024-02-06,清算の結了等,,,2015-10-05,1,,,,,グロウ,0
417,2290001027152,登記記録の閉鎖等,0,2024-02-08,2024-01-31,株式会社ビジネスパートナー,,株式会社,福岡県,福岡市博多区,中洲中島町３番８号,,40,132,8100802,,,2024-01-31,清算の結了等,,,2015-10-05,1,,,,,ビジネスパートナー,0
421,2290002003607,登記記録の閉鎖等,0,2024-02-08,2024-02-06,有限会社星屋酒店,,有限会社,福岡県,福岡市南区,大橋４丁目４番６号,,40,134,8150033,,,2024-02-06,清算の結了等,,,2015-10-05,1,,,,,ホシヤサカテン,0
452,2370202000627,登記記録の閉鎖等,0,2024-02-08,2024-02-06,セル松倉株式会社,,株式会社,宮城県,大崎市,古川前田町４番６号,,04,215,9896172,,,2024-02-06,清算の結了等,,,2015-10-05,1,,,,,セルマツクラ,0
453,2380001018919,登記記録の閉鎖等,0,2024-02-08,2024-02-05,株式会社トータルメンテ,,株式会社,福島県,会津若松市,慶山１丁目１３番４３号,,07,202,9650812,,,2024-02-05,清算の結了等,,,2015-10-05,1,,,,,トータルメンテ,0
474,2480002000774,登記記録の閉鎖等,0,2024-02-08,2024-02-08,有限会社オーダーチェアー,,有限会社,徳島県,徳島市,国府町和田字七反田１７番地の１,,36,201,7793121,,,2024-02-08,清算の結了等,,,2015-10-05,1,,,,,オーダーチェアー,0
477,3010001012016,登記記録の閉鎖等,0,2024-02-08,2024-02-06,エス・エス・エンタープライズ株式会社,,株式会社,東京都,千代田区,外神田４丁目７番２号,,13,101,1010021,,,2024-02-06,合併による解散等,3010001017304,令和６年２月１日東京都千代田区外神田四丁目７番２号株式会社サタケ（3010001017304）に合併し解散,2015-10-05,1,,,,,エスエスエンタープライズ,0
479,3010001033755,登記記録の閉鎖等,0,2024-02-08,2024-02-02,日本マックス株式会社,,株式会社,東京都,中央区,日本橋人形町１丁目２番７号,,13,102,1030013,,,2024-02-02,清算の結了等,,,2015-10-05,1,,,,,ニホンマックス,0
507,3010602012488,登記記録の閉鎖等,0,2024-02-08,2024-02-02,東京モルトン製造有限会社,,有限会社,東京都,墨田区,緑１丁目６番７号,,13,107,1300021,,,2024-02-02,清算の結了等,,,2015-10-05,1,,,,,トウキョウモルトンセイゾウ,0
509,3010701030168,登記記録の閉鎖等,0,2024-02-08,2024-01-31,株式会社クルミー,,株式会社,東京都,豊島区,西池袋１丁目４番１０号,,13,116,1710021,,,2024-01-31,清算の結了等,,,2015-10-05,1,,,,,クルミー,0
513,3010801021125,登記記録の閉鎖等,0,2024-02-08,2024-02-05,株式会社スフィンクス,,株式会社,東京都,大田区,大森本町１丁目８番１２－Ｅ－５０２号,,13,111,1430011,,,2024-02-05,清算の結了等,,,2015-10-05,1,,,,,スフィンクス,0
518,3010902012881,登記記録の閉鎖等,0,2024-02-08,2024-02-06,有限会社フェスタ,,有限会社,東京都,世田谷区,用賀４丁目９番２３号,,13,112,1580097,,,2024-02-06,清算の結了等,,,2015-10-05,1,,,,,フェスタ,0
523,3011001132885,登記記録の閉鎖等,0,2024-02-08,2024-02-05,株式会社Ｇａｂｌｅ,,株式会社,東京都,港区,六本木７丁目１２－２３フォルトゥーナ２Ａ,,13,103,1060032,,,2024-02-05,清算の結了等,,,2020-03-13,1,,,,,ゲイブル,0
532,3011301004173,登記記録の閉鎖等,0,2024-02-08,2024-02-02,高橋商事株式会社,00054401,株式会社,東京都,杉並区,清水１丁目２１番３号,,13,115,1670033,,,2024-02-02,清算の結了等,,,2015-10-05,1,,,,,タカハシショウジ,0
535,3011501005938,登記記録の閉鎖等,0,2024-02-08,2024-02-02,株式会社カズ・コーポレーション,,株式会社,東京都,荒川区,西尾久７丁目４１番１０号,,13,118,1160011,,,2024-02-02,清算の結了等,,,2015-10-05,1,,,,,カズコーポレーション,0
536,3011502002810,登記記録の閉鎖等,0,2024-02-08,2024-02-02,有限会社シンコー製袋,,有限会社,東京都,北区,昭和町２丁目１０番１号,,13,117,1140011,,,2024-02-02,清算の結了等,,,2015-10-05,1,,,,,,0
538,3011601000780,登記記録の閉鎖等,0,2024-02-08,2024-02-02,株式会社ウエイブ,,株式会社,東京都,千代田区,東神田２丁目２番１０号,,13,101,1010031,,,2024-02-02,清算の結了等,,,2015-10-05,1,,,,,ウエイブ,0
547,3011801030933,登記記録の閉鎖等,0,2024-02-08,2024-02-06,株式会社スリーアローズ,,株式会社,東京都,足立区,梅田３丁目１８番４号,,13,121,1230851,,,2024-02-06,清算の結了等,,,2015-10-27,1,,,,,スリーアローズ,0
556,3013201015688,登記記録の閉鎖等,0,2024-02-08,2024-02-01,株式会社ウーノ,,株式会社,東京都,渋谷区,広尾４丁目１番３１－３０６号,,13,113,1500012,,,2024-02-01,合併による解散等,2011001121261,令和６年２月１日東京都渋谷区広尾四丁目１番３１－３０６号株式会社フェイス（2011001121261）に合併し解散,2015-10-05,1,,,,,ウーノ,0
580,3030001100603,登記記録の閉鎖等,0,2024-02-08,2024-02-01,株式会社ＳＯ２Ｄ,,株式会社,埼玉県,さいたま市大宮区,下町３丁目７番地１グランドミッドタワーズ大宮Ｆ２１０２,,11,103,3300844,,,2024-02-01,清算の結了等,,,2015-10-05,1,,,,,エスオーツーディー,0
583,3040001032036,登記記録の閉鎖等,0,2024-02-08,2024-02-01,株式会社アップドーミー,,株式会社,千葉県,浦安市,高洲７丁目１番１－１３０７号,,12,227,2790023,,,2024-02-01,清算の結了等,,,2015-10-05,1,,,,,アップドーミー,0
593,3040002090198,登記記録の閉鎖等,0,2024-02-08,2024-02-01,シルバーニット有限会社,,有限会社,千葉県,柏市,かやの町２番１３号,,12,217,2770846,,,2024-02-01,清算の結了等,,,2015-10-05,1,,,,,シルバーニット,0
605,3080102014094,登記記録の閉鎖等,0,2024-02-08,2024-02-06,有限会社静健サク井,,有限会社,静岡県,富士市,久沢４５３番地の２,,22,210,4190202,,,2024-02-06,清算の結了等,,,2015-10-05,1,,,,,シズケンサクイ,0
606,3080402006188,登記記録の閉鎖等,0,2024-02-08,2024-02-07,有限会社はままつ美術研究所,,有限会社,静岡県,浜松市中央区,富塚町１２０９番地の１６,,22,138,4328002,,,2024-02-07,清算の結了等,,,2015-10-05,1,,,,,ハママツビジュツケンキュウジョ,0
610,3110002008259,登記記録の閉鎖等,0,2024-02-08,2024-02-06,吉井塗装有限会社,,有限会社,新潟県,新潟市江南区,亀田東町１丁目３番３０号,,15,104,9500124,,,2024-02-06,清算の結了等,,,2015-10-05,1,,,,,ヨシイトソウ,0
612,3110002029750,登記記録の閉鎖等,0,2024-02-08,2024-02-05,有限会社関工務店,,有限会社,新潟県,長岡市,浦６４３９番地乙,,15,202,9495406,,,2024-02-05,清算の結了等,,,2015-10-05,1,,,,,セキコウムテン,0
619,3120002028413,登記記録の閉鎖等,0,2024-02-08,2024-02-07,有限会社マトバ酒販,,有限会社,大阪府,大阪市淀川区,西宮原２丁目７番４５－１０１号,,27,123,5320004,,,2024-02-07,清算の結了等,,,2015-10-05,1,,,,,,0
630,3140001029559,登記記録の閉鎖等,0,2024-02-08,2024-02-02,神戸ヒューマンパワー開発株式会社,,株式会社,兵庫県,神戸市西区,竹の台５丁目１９番地の６９,,28,111,6512274,,,2024-02-02,清算の結了等,,,2015-10-05,1,,,,,コウベヒューマンパワーカイハツ,0
634,3170002010102,登記記録の閉鎖等,0,2024-02-08,2024-02-06,有限会社岡光,,有限会社,和歌山県,御坊市,御坊２５６番地,,30,205,6440001,,,2024-02-06,清算の結了等,,,2015-10-05,1,,,,,オカミツ,0
637,3180001072596,登記記録の閉鎖等,0,2024-02-08,2024-02-05,ＧＬ株式会社,,株式会社,愛知県,名古屋市天白区,御前場町６２番地１,,23,116,4680023,,,2024-02-05,清算の結了等,,,2015-10-05,1,,,,,ジーエル,0
647,3180002064584,登記記録の閉鎖等,0,2024-02-08,2024-02-02,有限会社林商会,,有限会社,愛知県,豊明市,栄町西山１１番地グローリアス有松南２０４号,,23,229,4701161,,,2024-02-02,清算の結了等,,,2015-10-05,1,,,,,ハヤシショウカイ,0
655,3240002037526,登記記録の閉鎖等,0,2024-02-08,2024-02-05,有限会社アリス,,有限会社,広島県,大竹市,新町１丁目７番１４号,,34,211,7390611,,,2024-02-05,清算の結了等,,,2015-10-05,1,,,,,アリス,0
656,3250002003543,登記記録の閉鎖等,0,2024-02-08,2024-02-01,明行運送有限会社,,有限会社,山口県,防府市,新築地町２６番５号,,35,206,7470824,,,2024-02-01,清算の結了等,,,2015-10-05,1,,,,,メイコウウンソウ,0
668,3290001096353,登記記録の閉鎖等,0,2024-02-08,2024-02-02,株式会社ゴルフランドウエスト,,株式会社,福岡県,太宰府市,観世音寺１丁目１８番２７号,,40,221,8180101,,,2024-02-02,合併による解散等,8010001124905,令和６年２月１日東京都千代田区神田鍛冶町三丁目３番地株式会社ゴルフランド（8010001124905）に合併し解散,2022-02-08,1,,,,,ゴルフランドウエスト,0
683,3350001012857,登記記録の閉鎖等,0,2024-02-08,2024-02-05,株式会社ＪＫ．ＭＡＲＴ,,株式会社,宮崎県,宮崎市,新別府町雀田１１８５番地,,45,201,8800834,,,2024-02-05,清算の結了等,,,2015-10-05,1,,,,,ジェイケーマート,0
702,3430001055542,登記記録の閉鎖等,0,2024-02-08,2024-02-01,星水産株式会社,,株式会社,北海道,浦河郡浦河町,東町ちのみ３丁目１番３号,,01,607,0570007,,,2024-02-01,清算の結了等,,,2015-10-05,1,,,,,ホシスイサン,0
735,4010403019450,登記記録の閉鎖等,0,2024-02-08,2024-02-01,合同会社いちゃりばＪＡＰＡＮ,,合同会社,東京都,港区,三田１丁目１１番２号１－Ｂ,,13,103,1080073,,,2024-02-01,清算の結了等,,,2018-10-05,1,,,,,イチャリバジャパン,0
749,4010601056972,登記記録の閉鎖等,0,2024-02-08,2024-02-02,株式会社ちいふす,,株式会社,東京都,墨田区,京島３丁目１４番１３号,,13,107,1310046,,,2024-02-02,清算の結了等,,,2020-03-03,1,,,,,チイフス,0
776,4011301003331,登記記録の閉鎖等,0,2024-02-08,2024-02-02,秀工社建設工業株式会社,,株式会社,東京都,杉並区,高円寺南２丁目５番１２号,,13,115,1660003,,,2024-02-02,清算の結了等,,,2015-10-05,1,,,,,シュウコウシャケンセツコウギョウ,0
803,4020003018942,登記記録の閉鎖等,0,2024-02-08,2024-02-01,合同会社ＫＪプランニング,,合同会社,神奈川県,横浜市西区,高島２丁目１１番２号スカイメナー横浜５１９,,14,103,2200011,,,2024-02-01,清算の結了等,,,2020-12-14,1,,,,,ケージェープランニング,0
812,4030001053420,登記記録の閉鎖等,0,2024-02-08,2024-02-01,ＥＣ　ＲＥＳＯＵＲＣＥ　ＢＡＮＫ株式会社,,株式会社,東京都,港区,白金５丁目１２番１７号,,13,103,1080072,,,2024-02-01,合併による解散等,3010401116837,令和６年２月１日東京都港区白金五丁目１２番１７号クラウドハンドシステムズ株式会社（3010401116837）に合併し解散,2015-10-05,1,,,,,イーシーリソースバンク,0
814,4030001061299,登記記録の閉鎖等,0,2024-02-08,2024-02-01,株式会社ＫＫ,,株式会社,埼玉県,本庄市,前原２丁目７番１３号,,11,211,3670047,,,2024-02-01,合併による解散等,3030001060855,令和６年２月１日埼玉県本庄市児玉町秋山１８３１番地１株式会社中桝（3030001060855）に合併し解散,2015-10-05,1,,,,,ケーケー,0
819,4030002109378,登記記録の閉鎖等,0,2024-02-08,2024-02-01,古文化財工房有限会社,,有限会社,埼玉県,川口市,柳崎５丁目１７番１２号,,11,203,3330861,,,2024-02-01,合併による解散等,7030001078274,令和６年２月１日埼玉県川口市西青木三丁目３番３２号株式会社東都文化財保存研究所（7030001078274）に合併し解散,2015-10-05,1,,,,,コブンカザイコウボウ,0
823,4030005018840,登記記録の閉鎖等,0,2024-02-08,2024-01-31,一般社団法人人財育成ファーム,,その他の設立登記法人,埼玉県,さいたま市浦和区,大東１丁目１５番２５号,,11,107,3300043,,,2024-01-31,清算の結了等,,,2018-01-23,1,,,,,ジンザイイクセイファーム,0
842,4080102001174,登記記録の閉鎖等,0,2024-02-08,2024-02-07,有限会社ケー・ケー・サービス,,有限会社,静岡県,沼津市,大岡１５６１番地の４,,22,203,4100022,,,2024-02-07,清算の結了等,,,2015-10-05,1,,,,,ケーケーサービス,0
871,4120101034971,登記記録の閉鎖等,0,2024-02-08,2024-02-05,株式会社松本興産,,株式会社,大阪府,羽曳野市,栄町４番１号神谷ビル１０１,,27,222,5830853,,,2024-02-05,清算の結了等,,,2015-10-05,1,,,,,マツモトコウサン,0
872,4120101047346,登記記録の閉鎖等,0,2024-02-08,2024-02-05,株式会社アイラス,,株式会社,大阪府,和泉市,みずき台２丁目２番６号,,27,219,5941118,,,2024-02-05,清算の結了等,,,2015-10-05,1,,,,,アイラス,0
895,4180001047713,登記記録の閉鎖等,0,2024-02-08,2024-02-05,株式会社テクノアイ,,株式会社,愛知県,名古屋市中区,栄４丁目４番９号,,23,106,4600008,,,2024-02-05,清算の結了等,,,2015-10-05,1,,,,,テクノアイ,0
898,4180001144353,登記記録の閉鎖等,0,2024-02-08,2024-02-01,株式会社Ｔｉｅｒｒａ,,株式会社,愛知県,名古屋市中村区,名駅４丁目２４番５号第２森ビル４０１,,23,105,4500002,,,2024-02-01,清算の結了等,,,2021-01-08,1,,,,,ティエラ,0
904,4180002013929,登記記録の閉鎖等,0,2024-02-08,2024-02-02,有限会社信名工業,,有限会社,愛知県,名古屋市瑞穂区,佐渡町１丁目１８番地,,23,108,4670016,,,2024-02-02,清算の結了等,,,2015-10-05,1,,,,,シンメイコウギョウ,0
912,4190005009849,登記記録の閉鎖等,0,2024-02-08,2024-02-06,特定非営利活動法人未来への絆,,その他の設立登記法人,三重県,松阪市,五反田町２丁目１３２６番地７,,24,204,5150064,,,2024-02-06,清算の結了等,,,2015-10-05,1,,,,,,0
914,4200001013497,登記記録の閉鎖等,0,2024-02-08,2024-02-06,株式会社北村造園,,株式会社,岐阜県,大垣市,大島町２丁目２０番地１,,21,202,5030001,,,2024-02-06,清算の結了等,,,2015-10-05,1,,,,,キタムラゾウエン,0
921,4230001014237,登記記録の閉鎖等,0,2024-02-08,2024-02-06,株式会社エムズ,,株式会社,富山県,富山市,布瀬町南３丁目８番地１０,,16,201,9398208,,,2024-02-06,清算の結了等,,,2015-10-05,1,,,,,エムズ,0
922,4230002008898,登記記録の閉鎖等,0,2024-02-08,2024-02-06,有限会社小林建工,,有限会社,富山県,滑川市,四ツ屋２４番４号,,16,206,9360807,,,2024-02-06,清算の結了等,,,2015-10-05,1,,,,,コバヤシケンコウ,0
927,4250002014473,登記記録の閉鎖等,0,2024-02-08,2024-02-07,有限会社小川食品,,有限会社,山口県,周南市,鐘楼町３番３２号,,35,215,7450061,,,2024-02-07,清算の結了等,,,2015-10-05,1,,,,,オガワショクヒン,0
937,4290003004890,登記記録の閉鎖等,0,2024-02-08,2024-02-06,合同会社福岡ヘルスケアワン,,合同会社,福岡県,福岡市中央区,渡辺通１丁目９番１０号,,40,133,8100004,,,2024-02-06,清算の結了等,,,2015-10-05,1,,,,,フクオカヘルスケアワン,0
941,4290802000792,登記記録の閉鎖等,0,2024-02-08,2024-02-06,有限会社内海薬局,,有限会社,福岡県,北九州市戸畑区,天神１丁目９番２８号,,40,105,8040094,,,2024-02-06,清算の結了等,,,2015-10-05,1,,,,,ウツミヤッキョク,0
955,4350001009539,登記記録の閉鎖等,0,2024-02-08,2024-02-01,日南商業開発株式会社,,株式会社,宮崎県,日南市,材木町４番１号,,45,204,8870005,,,2024-02-01,清算の結了等,,,2015-10-05,1,,,,,ニチナンショウギョウカイハツ,0
964,4380002009171,登記記録の閉鎖等,0,2024-02-08,2024-02-05,有限会社コーミー,,有限会社,福島県,郡山市,富久山町久保田字石堂４５番地１０,,07,203,9638071,,,2024-02-05,清算の結了等,,,2015-10-05,1,,,,,コーミー,0
978,5010001058437,登記記録の閉鎖等,0,2024-02-08,2024-02-05,ミヤコシ紙興業株式会社,,株式会社,東京都,中央区,日本橋小網町３番１４号,,13,102,1030016,,,2024-02-05,清算の結了等,,,2015-10-05,1,,,,,ミヤコシカミコウギョウ,0
1020,5011005005152,登記記録の閉鎖等,0,2024-02-08,2024-02-01,一般財団法人睡眠健康科学財団,,その他の設立登記法人,東京都,渋谷区,代々木５丁目１０－１０ＳＹビル,,13,113,1510053,,,2024-02-01,清算の結了等,,,2015-10-05,1,,,,,スイミンケンコウカガクザイダン,0
1088,5110001005651,登記記録の閉鎖等,0,2024-02-08,2024-02-06,株式会社山徳加藤商店,,株式会社,新潟県,新潟市東区,山木戸７丁目１番３４号,,15,102,9500871,,,2024-02-06,清算の結了等,,,2015-10-05,1,,,,,ヤマトクカトウショウテン,0
1102,5120002047700,登記記録の閉鎖等,0,2024-02-08,2024-02-05,有限会社ジェイコーポレーション,,有限会社,大阪府,大阪市北区,中之島５丁目３番９２号,,27,127,5300005,,,2024-02-05,清算の結了等,,,2015-10-05,1,,,,,ジェイコーポレーション,0
1118,5140001045612,登記記録の閉鎖等,0,2024-02-08,2024-02-05,播磨ソーシャルサポート株式会社,,株式会社,東京都,港区,港南２丁目１５番２号,,13,103,1080075,,,2024-02-05,清算の結了等,,,2015-10-05,1,,,,,ハリマソーシャルサポート,0
1123,5160002001728,登記記録の閉鎖等,0,2024-02-08,2024-02-07,有限会社丸升,,有限会社,滋賀県,大津市,茶戸町１８番９号,,25,201,5200066,,,2024-02-07,清算の結了等,,,2015-10-05,1,,,,,マルショウ,0
1128,5180001006445,登記記録の閉鎖等,0,2024-02-08,2024-02-01,株式会社三幸,,株式会社,愛知県,名古屋市港区,津金２丁目９番１０号,,23,111,4550004,,,2024-02-01,合併による解散等,2180001006191,令和６年２月１日名古屋市港区津金二丁目９番１０号大村株式会社（2180001006191）に合併し解散,2015-10-05,1,,,,,サンコウ,0
1129,5180001019224,登記記録の閉鎖等,0,2024-02-08,2024-01-25,加納建機株式会社,,株式会社,愛知県,名古屋市中川区,細米町１丁目４８番地,,23,110,4540847,,,2024-01-25,清算の結了等,,,2015-10-05,1,,,,,カノウケンキ,0
1131,5180001094663,登記記録の閉鎖等,0,2024-02-08,2024-02-02,株式会社エヌシィシィ,,株式会社,愛知県,知多市,つつじが丘４丁目４番地の１５,,23,224,4780054,,,2024-02-02,清算の結了等,,,2015-10-05,1,,,,,エヌシィシィ,0
1144,5200001029113,登記記録の閉鎖等,0,2024-02-08,2024-02-05,ＭＵＲＡ株式会社,,株式会社,岐阜県,大垣市,南頬町１丁目１００番地４,,21,202,5030864,,,2024-02-05,合併による解散等,6010401164412,令和６年２月１日東京都港区芝公園一丁目１番１号住友不動産御成門タワー７階ＭＵＲＡ株式会社（6010401164412）に合併し解散,2015-10-05,1,,,,,ムラ,0
1147,5200002005674,登記記録の閉鎖等,0,2024-02-08,2024-02-07,有限会社コンテック,,有限会社,岐阜県,岐阜市,都通２丁目８番地,,21,201,5008309,,,2024-02-07,清算の結了等,,,2015-10-05,1,,,,,コンテック,0
1154,5220003002611,登記記録の閉鎖等,0,2024-02-08,2024-02-05,Ｊａｐａｎ　Ｗｉｎｇｓ合同会社,,合同会社,石川県,金沢市,高尾台１丁目３０３ＯｎｅＦＡＣＥ１０２,,17,201,9218155,,,2024-02-05,清算の結了等,,,2019-05-21,1,,,,,ジャパンウィングス,0
1156,5240001050643,登記記録の閉鎖等,0,2024-02-08,2024-02-07,株式会社オーイーデータ,,株式会社,広島県,広島市南区,比治山町４番１９－３０２号,,34,103,7320817,,,2024-02-07,清算の結了等,,,2017-02-14,1,,,,,,0
1161,5250002012419,登記記録の閉鎖等,0,2024-02-08,2024-02-05,有限会社つばさ寿司,,有限会社,山口県,下関市,長府土居の内町４番１号,,35,201,7520974,,,2024-02-05,清算の結了等,,,2015-10-05,1,,,,,ツバサズシ,0
1162,5260002019157,登記記録の閉鎖等,0,2024-02-08,2024-02-07,有限会社妹尾フーズ,,有限会社,岡山県,倉敷市,安江５２２番地の４,,33,202,7100825,,,2024-02-07,清算の結了等,,,2015-10-05,1,,,,,セノオフーズ,0
1170,5290002012035,登記記録の閉鎖等,0,2024-02-08,2024-02-06,有限会社ともゑ呉服店,,有限会社,福岡県,福岡市中央区,谷１丁目３番３５号,,40,133,8100031,,,2024-02-06,清算の結了等,,,2015-10-05,1,,,,,,0
1189,5340001017590,登記記録の閉鎖等,0,2024-02-08,2024-02-06,株式会社フェリア,,株式会社,鹿児島県,鹿児島市,新屋敷町４番２９号,,46,201,8920838,,,2024-02-06,清算の結了等,,,2015-10-05,1,,,,,,0
1194,5350005004080,登記記録の閉鎖等,0,2024-02-08,2024-02-01,協同組合日南ショッピングセンター,,その他の設立登記法人,宮崎県,日南市,材木町４番１号,,45,204,8870005,,,2024-02-01,清算の結了等,,,2015-10-05,1,,,,,ニチナンショッピングセンター,0
1201,5380002006977,登記記録の閉鎖等,0,2024-02-08,2024-02-01,有限会社シャダイ,,有限会社,福島県,福島市,野田町４丁目２番２号,,07,201,9608055,,,2024-02-01,合併による解散等,8380001001596,令和６年２月１日福島市野田町四丁目２番２号株式会社北星商事（8380001001596）に合併し解散,2015-10-05,1,,,,,シャダイ,0
1216,5470003001712,登記記録の閉鎖等,0,2024-02-08,2024-02-06,合同会社アイディリーズ,,合同会社,香川県,高松市,鍛冶屋町６－１１,,37,201,7600028,,,2024-02-06,清算の結了等,,,2020-01-31,1,,,,,アイディリーズ,0
1220,5500001024240,登記記録の閉鎖等,0,2024-02-08,2024-02-06,ハムスターランド株式会社,,株式会社,愛媛県,新居浜市,本郷１丁目１６番１８号,,38,205,7920042,,,2024-02-06,清算の結了等,,,2022-06-01,1,,,,,ハムスターランド,0
1237,6010001221605,登記記録の閉鎖等,0,2024-02-08,2024-02-02,ＪＯＭＹＡＫＵ株式会社,,株式会社,東京都,千代田区,四番町６番,,13,101,1020081,,,2024-02-02,合併による解散等,8010001208856,令和６年２月１日東京都千代田区四番町６番株式会社リテイギ（8010001208856）に合併し解散,2021-10-06,1,,,,,ジョウミャク,0
1244,6010401104723,登記記録の閉鎖等,0,2024-02-08,2024-02-06,株式会社ＳＨＩＮＥ－Ｄ,,株式会社,東京都,世田谷区,東玉川２丁目４番１６号レアール２４１６－１Ｆ,,13,112,1580084,,,2024-02-06,清算の結了等,,,2015-10-05,1,,,,,シャインディー,0
1246,6010401157903,登記記録の閉鎖等,0,2024-02-08,2024-02-01,株式会社ｉｂｅｅｅ,,株式会社,東京都,港区,浜松町２丁目２－１５浜松町ダイヤビル２Ｆ,,13,103,1050013,,,2024-02-01,清算の結了等,,,2021-02-03,1,,,,,アイビー,0
1258,6010405018886,登記記録の閉鎖等,0,2024-02-08,2024-02-01,一般社団法人ＳＡアルテシモレジデンシャル１,,その他の設立登記法人,東京都,港区,虎ノ門５丁目１番４号,,13,103,1050001,,,2024-02-01,清算の結了等,,,2020-07-09,1,,,,,エスエーアルテシモレジデンシャルワン,0
1262,6010601029794,登記記録の閉鎖等,0,2024-02-08,2024-02-05,株式会社スポーツ、ケーエフ,,株式会社,東京都,江東区,大島５丁目５０番７号メイト大島１０２,,13,108,1360072,,,2024-02-05,清算の結了等,,,2015-10-05,1,,,,,スポーツケーエフ,0
1269,6011001107851,登記記録の閉鎖等,0,2024-02-08,2024-01-17,株式会社Ａｄｖａｎｃｅ,,株式会社,東京都,目黒区,大橋１丁目５番１－５１３号,,13,110,1530044,,,2024-01-17,清算の結了等,,,2015-10-21,1,,,,,アドバンス,0
1282,6011801012037,登記記録の閉鎖等,0,2024-02-08,2024-02-06,株式会社マツシタ,,株式会社,東京都,足立区,舎人５丁目８番２２号,,13,121,1210831,,,2024-02-06,清算の結了等,,,2015-10-05,1,,,,,マツシタ,0
1291,6020001087673,登記記録の閉鎖等,0,2024-02-08,2024-02-05,株式会社ヨコハマコンサルティングサービス,,株式会社,神奈川県,横浜市西区,北幸２丁目６－２６,,14,103,2200004,,,2024-02-05,清算の結了等,,,2015-10-05,1,,,,,ヨコハマコンサルティングサービス,0
1314,6040001022224,登記記録の閉鎖等,0,2024-02-08,2024-02-01,株式会社甕槌,00018916,株式会社,千葉県,印西市,戸神台２丁目１番地５棟,,12,231,2701349,,,2024-02-01,清算の結了等,,,2015-10-05,1,,,,,ミカヅチ,0
1328,6050002007768,登記記録の閉鎖等,0,2024-02-08,2024-02-02,有限会社ＰＬＡＩＮ,,有限会社,茨城県,那珂市,菅谷７３８番地２２,,08,226,3110105,,,2024-02-02,清算の結了等,,,2015-10-05,1,,,,,プレイン,0
1334,6080001000416,登記記録の閉鎖等,0,2024-02-08,2024-02-07,株式会社伊東建具店,,株式会社,静岡県,静岡市葵区,大岩２丁目１６番１２号,,22,101,4200886,,,2024-02-07,清算の結了等,,,2015-10-05,1,,,,,イトウタテグテン,0
1336,6080002000539,登記記録の閉鎖等,0,2024-02-08,2024-02-06,有限会社伊藤商事,,有限会社,静岡県,静岡市葵区,北安東４丁目８番１０－１１号,,22,101,4200881,,,2024-02-06,清算の結了等,,,2015-10-05,1,,,,,イトウショウジ,0
1339,6080002012930,登記記録の閉鎖等,0,2024-02-08,2024-02-06,有限会社Ｔｉａ　Ｆｒａｇｅａ,,有限会社,静岡県,静岡市葵区,三番町５番地の１１,,22,101,4200073,,,2024-02-06,清算の結了等,,,2015-10-05,1,,,,,ティアフレイジア,0
1340,6080401015336,登記記録の閉鎖等,0,2024-02-08,2024-02-06,株式会社シンテック,,株式会社,静岡県,掛川市,本所６５０番地,,22,213,4360006,,,2024-02-06,清算の結了等,,,2015-10-05,1,,,,,シンテック,0
1348,6110001028759,登記記録の閉鎖等,0,2024-02-08,2024-02-06,株式会社丸佳産業,,株式会社,新潟県,新潟市中央区,姥ケ山４丁目１０番９号,,15,103,9500923,,,2024-02-06,清算の結了等,,,2015-10-05,1,,,,,マルヨシサンギョウ,0
1366,6120005021833,登記記録の閉鎖等,0,2024-02-08,2024-02-06,一般社団法人Ｓｈｉｎｅ　Ｖｉｌｌａｇｅ協会,,その他の設立登記法人,大阪府,大阪市北区,西天満３丁目７番１１－７０１号,,27,127,5300047,,,2024-02-06,清算の結了等,,,2020-09-07,1,,,,,シャインヴィレッジキョウカイ,0
1371,6130001075717,登記記録の閉鎖等,0,2024-02-08,2024-01-30,えいち株式会社,,株式会社,京都府,京都市右京区,太秦石垣町２１番地２Ｍ′ｓ太秦２Ｅ,,26,108,6168166,,,2024-01-30,清算の結了等,,,2023-11-17,1,,,,,エイチ,0
1383,6180001046523,登記記録の閉鎖等,0,2024-02-08,2024-02-05,ピー・エム・イー株式会社,,株式会社,愛知県,名古屋市北区,丸新町３７３番地,,23,103,4620063,,,2024-02-05,清算の結了等,,,2015-10-05,1,,,,,ピーエムイー,0
1386,6180001103134,登記記録の閉鎖等,0,2024-02-08,2024-02-02,山田清掃株式会社,,株式会社,愛知県,名古屋市中川区,服部３丁目５０３番地,,23,110,4540976,,,2024-02-02,清算の結了等,,,2015-10-05,1,,,,,ヤマダセイソウ,0
1391,6180002025195,登記記録の閉鎖等,0,2024-02-08,2024-02-05,有限会社アマノリミテッド,,有限会社,愛知県,名古屋市緑区,大高町字二番割６３番地,,23,114,4598001,,,2024-02-05,清算の結了等,,,2015-10-05,1,,,,,アマノリミテッド,0
1392,6180002059598,登記記録の閉鎖等,0,2024-02-08,2024-01-30,有限会社トマト,,有限会社,愛知県,名古屋市守山区,町南１番５号,,23,113,4630066,,,2024-01-30,清算の結了等,,,2015-10-05,1,,,,,トマト,0
1393,6180003019493,登記記録の閉鎖等,0,2024-02-08,2024-01-31,合同会社家守,,合同会社,愛知県,尾張旭市,井田町３丁目６０番地,,23,226,4880024,,,2024-01-31,清算の結了等,,,2018-12-06,1,,,,,ヤモリ,0
1396,6180301034822,登記記録の閉鎖等,0,2024-02-08,2024-02-01,株式会社Ｏｕｔｓｉｄｅｒ　Ｒｅｃｏｒｄｓ,,株式会社,愛知県,西尾市,熊味町大道南７２番地,,23,213,4450071,,,2024-02-01,清算の結了等,,,2021-04-13,1,,,,,アウトサイダーレコーズ,0
1399,6200005005885,登記記録の閉鎖等,0,2024-02-08,2024-02-02,池田町土地開発公社,,その他の設立登記法人,岐阜県,揖斐郡池田町,六之井１４６８番地の１,,21,404,5032425,,,2024-02-02,清算の結了等,,,2015-10-05,1,,,,,イケダチョウ,0
1426,6370001043187,登記記録の閉鎖等,0,2024-02-08,2024-02-06,相澤産業株式会社,,株式会社,宮城県,仙台市青葉区,昭和町５番５１－４０４号,,04,101,9810913,,,2024-02-06,清算の結了等,,,2018-06-19,1,,,,,,0
1432,6390001015787,登記記録の閉鎖等,0,2024-02-08,2024-02-06,株式会社ワークス,,株式会社,山形県,鶴岡市,桜新町１１番１１号,,06,203,9970861,,,2024-02-06,清算の結了等,,,2019-08-08,1,,,,,ワークス,0
1486,7010501038127,登記記録の閉鎖等,0,2024-02-08,2024-02-02,株式会社薬進塾,,株式会社,東京都,台東区,浅草橋３丁目２６番３号アコルデ浅草橋１０１号,,13,106,1110053,,,2024-02-02,清算の結了等,,,2015-10-05,1,,,,,,0
1493,7010701029223,登記記録の閉鎖等,0,2024-02-08,2024-02-06,株式会社４１１ＪＡＰＡＮ,,株式会社,東京都,世田谷区,東玉川２丁目４番１６号レアール２４１６－１Ｆ,,13,112,1580084,,,2024-02-06,清算の結了等,,,2015-10-05,1,,,,,フォーワンワンジャパン,0
1494,7010705002977,登記記録の閉鎖等,0,2024-02-08,2024-02-06,一般社団法人ローカル文化推進機構,,その他の設立登記法人,東京都,世田谷区,東玉川２丁目４番１６号レアール２４１６－１Ｆ,,13,112,1580084,,,2024-02-06,清算の結了等,,,2019-10-10,1,,,,,ローカルブンカスイシンキコウ,0
1511,7011101072557,登記記録の閉鎖等,0,2024-02-08,2024-02-02,株式会社Ｍ－ＣＡＲＲＹ,,株式会社,東京都,渋谷区,桜丘町１７－１２－４０１,,13,113,1500031,,,2024-02-02,清算の結了等,,,2015-10-05,1,,,,,,0
1529,7011502004654,登記記録の閉鎖等,0,2024-02-08,2024-01-26,株式会社プロ・アライブ,,株式会社,東京都,北区,王子２丁目３１番６号福島ビル５階,,13,117,1140002,,,2024-01-26,清算の結了等,,,2015-10-05,1,,,,,プロアライブ,0
1530,7011702016284,登記記録の閉鎖等,0,2024-02-08,2024-02-02,有限会社エムエス設備,,有限会社,東京都,江戸川区,篠崎町４丁目２１番３号,,13,123,1330061,,,2024-02-02,清算の結了等,,,2015-10-05,1,,,,,エムエスセツビ,0
1538,7020001138005,登記記録の閉鎖等,0,2024-02-08,2024-02-05,株式会社Ｄ－ａｒｌｙ,,株式会社,神奈川県,横浜市都筑区,茅ケ崎中央４６番４号ＳＦビル５階,,14,118,2240032,,,2024-02-05,清算の結了等,,,2020-10-08,1,,,,,ディーアリィ,0
1554,7030001112784,登記記録の閉鎖等,0,2024-02-08,2024-02-01,株式会社グリーンテクノス,,株式会社,埼玉県,さいたま市見沼区,大字蓮沼４０６番地４,,11,104,3370015,,,2024-02-01,合併による解散等,2030001006553,令和６年２月１日埼玉県さいたま市見沼区大和田町一丁目８２７番地１日本植物園株式会社（2030001006553）に合併し解散,2016-02-10,1,,,,,グリーンテクノス,0
1558,7030002037221,登記記録の閉鎖等,0,2024-02-08,2024-02-01,有限会社コンフォートライフ,,有限会社,埼玉県,所沢市,小手指町１丁目１８番地の７,,11,208,3591141,,,2024-02-01,清算の結了等,,,2015-10-05,1,,,,,コンフォートライフ,0
1559,7030002039473,登記記録の閉鎖等,0,2024-02-08,2024-02-02,有限会社まんぷく,,有限会社,埼玉県,久喜市,栗橋東４丁目１９番１１号,,11,232,3491103,,,2024-02-02,清算の結了等,,,2015-10-05,1,,,,,マンプク,0
1574,7040002074791,登記記録の閉鎖等,0,2024-02-08,2024-02-01,株式会社ダーナ,,株式会社,千葉県,市原市,牛久５４０番地,,12,219,2900225,,,2024-02-01,合併による解散等,4040001054459,令和６年２月１日千葉県市原市牛久５５５番地元気なまちづくり株式会社（4040001054459）に合併し解散,2015-10-05,1,,,,,ダーナ,0
1587,7090001014166,登記記録の閉鎖等,0,2024-02-08,2024-02-02,株式会社東,,株式会社,山梨県,富士吉田市,下吉田東３丁目２番１４号,,19,202,4030008,,,2024-02-02,清算の結了等,,,2015-10-05,1,,,,,アヅマ,0
1593,7110002024748,登記記録の閉鎖等,0,2024-02-08,2024-02-06,有限会社内山ハウジング,,有限会社,新潟県,上越市,大字上五貫野４９７番地１,,15,222,9420254,,,2024-02-06,清算の結了等,,,2015-10-05,1,,,,,ウチヤマハウジング,0
1600,7120001238950,登記記録の閉鎖等,0,2024-02-08,2024-02-07,株式会社ＴＯ‐ＳＫＹ,,株式会社,大阪府,吹田市,佐竹台１丁目２番１号,,27,205,5650855,,,2024-02-07,清算の結了等,,,2021-07-12,1,,,,,トゥースカイ,0
1628,7150002000043,登記記録の閉鎖等,0,2024-02-08,2024-02-05,有限会社アイダック,,有限会社,大阪府,堺市堺区,神南辺町４丁１３２番１,,27,141,5900984,,,2024-02-05,清算の結了等,,,2015-10-05,1,,,,,アイダック,0
1630,7180001006625,登記記録の閉鎖等,0,2024-02-08,2024-02-05,株式会社鈴鋼,,株式会社,愛知県,名古屋市港区,小碓２丁目５８番地,,23,111,4550801,,,2024-02-05,清算の結了等,,,2015-10-05,1,,,,,スズコウ,0
1632,7180001078251,登記記録の閉鎖等,0,2024-02-08,2024-02-05,株式会社Ｏｍｂａｋ,,株式会社,愛知県,春日井市,如意申町１丁目９番地６,,23,206,4860918,,,2024-02-05,清算の結了等,,,2015-10-05,1,,,,,オムバク,0
1634,7180001142899,登記記録の閉鎖等,0,2024-02-08,2024-02-05,株式会社中部住宅工房,,株式会社,愛知県,名古屋市天白区,梅が丘３丁目１７０２番地ヒルズトワニー２０１号室,,23,116,4680004,,,2024-02-05,清算の結了等,,,2020-09-24,1,,,,,チュウブジュウタクコウボウ,0
1642,7180002057725,登記記録の閉鎖等,0,2024-02-08,2024-02-05,有限会社トービック,,有限会社,愛知県,名古屋市南区,中割町１丁目４１番地,,23,112,4570826,,,2024-02-05,清算の結了等,,,2015-10-05,1,,,,,トビック,0
1644,7180002088118,登記記録の閉鎖等,0,2024-02-08,2024-02-05,有限会社ライトスタッフ　ネオ,,有限会社,愛知県,東海市,名和町高ノ宮前３番地の１,,23,222,4760002,,,2024-02-05,清算の結了等,,,2015-10-05,1,,,,,ライトスタッフネオ,0
1653,7200003000350,登記記録の閉鎖等,0,2024-02-08,2024-02-07,合名会社金章製菓,,合名会社,岐阜県,岐阜市,八ツ梅町１丁目１１番地,,21,201,5008817,,,2024-02-07,清算の結了等,,,2015-10-05,1,,,,,キンショウセイカ,0
1666,7240005011870,登記記録の閉鎖等,0,2024-02-08,2024-02-01,一般財団法人三原看護師養成事業団,,その他の設立登記法人,広島県,三原市,円一町４丁目１番２３号,,34,204,7230015,,,2024-02-01,清算の結了等,,,2015-10-05,1,,,,,ミハラカンゴシヨウセイジギョウダン,0
1667,7260001034857,登記記録の閉鎖等,0,2024-02-08,2024-02-01,株式会社イーボート,,株式会社,広島県,福山市,松浜町１丁目４－５－１１０１,,34,207,7200802,,,2024-02-01,清算の結了等,,,2020-10-29,1,,,,,イーボート,0
1689,7330003009701,登記記録の閉鎖等,0,2024-02-08,2024-02-02,合同会社訪問介護事業所さゆり,,合同会社,熊本県,熊本市南区,幸田１丁目６番１０号,,43,104,8614108,,,2024-02-02,清算の結了等,,,2023-02-03,1,,,,,ホウモンカイゴジギョウショサユリ,0
1696,7360002008965,登記記録の閉鎖等,0,2024-02-08,2024-02-02,有限会社ビート,,有限会社,沖縄県,中頭郡西原町,上原２丁目１２番地の８ホワイトテラス１０２,,47,329,9030125,,,2024-02-02,清算の結了等,,,2015-10-05,1,,,,,,0
1715,7500002015872,登記記録の閉鎖等,0,2024-02-08,2024-02-06,有限会社ＩＳＴ,,有限会社,愛媛県,新居浜市,中村４丁目７番３１号,,38,205,7920044,,,2024-02-06,清算の結了等,,,2015-10-05,1,,,,,アイエスティ,0
1719,8010001034154,登記記録の閉鎖等,0,2024-02-08,2024-02-01,ＴＣＳホールディングス株式会社,,株式会社,東京都,中央区,日本橋本町４丁目８番１４号,,13,102,1030023,,,2024-02-01,合併による解散等,9010001234777,令和６年２月１日東京都中央区日本橋本町四丁目８番１４号ＴＣＳホールディングス株式会社（9010001234777）に合併し解散,2015-10-05,1,,,,,ティーシーエスホールディングス,0
1747,8010403020594,登記記録の閉鎖等,0,2024-02-08,2024-02-01,合同会社Ｖｉｎｏｓｓｅｕｒ,,合同会社,東京都,港区,港南３丁目９番３３－３３１０号,,13,103,1080075,,,2024-02-01,清算の結了等,,,2019-04-22,1,,,,,ヴィノスル,0
1754,8010901040045,登記記録の閉鎖等,0,2024-02-08,2024-02-05,株式会社エンブレム,,株式会社,東京都,中央区,銀座１丁目２２番１１号銀座大竹ビジデンス２階,,13,102,1040061,,,2024-02-05,清算の結了等,,,2017-05-22,1,,,,,エンブレム,0
1759,8011001143746,登記記録の閉鎖等,0,2024-02-08,2024-02-02,トーンライフスタイル株式会社,,株式会社,東京都,渋谷区,円山町３番６号,,13,113,1500044,,,2024-02-02,合併による解散等,7011001054531,令和６年２月１日東京都渋谷区円山町３番６号株式会社ドリーム・トレイン・インターネット（7011001054531）に合併し解散,2021-11-02,1,,,,,トーンライフスタイル,0
1769,8011501027432,登記記録の閉鎖等,0,2024-02-08,2024-01-29,ＬＩＲ株式会社,,株式会社,東京都,北区,田端新町１丁目１４番地６,,13,117,1140012,,,2024-01-29,清算の結了等,,,2021-10-29,1,,,,,エルアイアール,0
1784,8012802004566,登記記録の閉鎖等,0,2024-02-08,2024-02-02,菅原管工事有限会社,,有限会社,東京都,武蔵村山市,三ツ木５丁目１６番地の５,,13,223,2080032,,,2024-02-02,清算の結了等,,,2015-10-05,1,,,,,スガハラカンコウジ,0
1795,8021001033987,登記記録の閉鎖等,0,2024-02-08,2024-02-05,富士急湘南バス株式会社,,株式会社,神奈川県,足柄上郡松田町,松田惣領３６０,,14,363,2580003,,,2024-02-05,合併による解散等,4080101021826,令和６年２月１日静岡県御殿場市新橋９９９番地富士急モビリティ株式会社（4080101021826）に合併し解散,2015-10-05,1,,,,,フジキュウショウナンバス,0
1802,8030001093264,登記記録の閉鎖等,0,2024-02-08,2024-02-01,株式会社拓人建装,,株式会社,埼玉県,入間郡三芳町,竹間沢東１番地１６,,11,324,3540046,,,2024-02-01,清算の結了等,,,2015-10-05,1,,,,,タクトケンソウ,0
1814,8040002099144,登記記録の閉鎖等,0,2024-02-08,2024-02-01,有限会社味華,,有限会社,千葉県,館山市,塩見２７８番地,,12,205,2940302,,,2024-02-01,清算の結了等,,,2015-10-05,1,,,,,アジハナ,0
1815,8040002102048,登記記録の閉鎖等,0,2024-02-08,2024-01-31,有限会社昭和オート,,有限会社,千葉県,いすみ市,岬町江場土１５０番地の１,,12,238,2994612,,,2024-01-31,清算の結了等,,,2015-10-05,1,,,,,ショウワオート,0
1829,8080402014194,登記記録の閉鎖等,0,2024-02-08,2024-02-07,有限会社電算ジェイピー,,有限会社,静岡県,浜松市中央区,高丘西３丁目３７番３号,,22,138,4338118,,,2024-02-07,清算の結了等,,,2015-10-05,1,,,,,デンサンジェイピー,0
1839,8110002023294,登記記録の閉鎖等,0,2024-02-08,2024-02-05,有限会社ハニーバニー,,有限会社,新潟県,上越市,春日山町３丁目２番３６号,,15,222,9430807,,,2024-02-05,清算の結了等,,,2015-10-05,1,,,,,ハニーバニー,0
1840,8120001019466,登記記録の閉鎖等,0,2024-02-08,2024-02-02,株式会社新井製作所,,株式会社,大阪府,大阪市平野区,加美北１丁目２１番４３号,,27,126,5470001,,,2024-02-02,清算の結了等,,,2015-10-05,1,,,,,アライセイサクショ,0
1842,8120001132475,登記記録の閉鎖等,0,2024-02-08,2024-02-05,株式会社エイティー・マイス,,株式会社,大阪府,大阪市中央区,平野町３丁目３番７号ニューライフ平野町５１２号,,27,128,5410046,,,2024-02-05,清算の結了等,,,2015-10-05,1,,,,,エイティーマイス,0
1860,8120101034943,登記記録の閉鎖等,0,2024-02-08,2024-02-06,ツジタオイル株式会社,,株式会社,大阪府,藤井寺市,大井４丁目６番２３号,,27,226,5830008,,,2024-02-06,清算の結了等,,,2015-10-05,1,,,,,ツジタオイル,0
1875,8122001014785,登記記録の閉鎖等,0,2024-02-08,2024-02-02,株式会社万代リテールホールディングス,,株式会社,大阪府,東大阪市,渋川町３丁目９番２５号,,27,227,5770836,,,2024-02-02,合併による解散等,1122001006789,令和６年２月１日大阪府東大阪市渋川町三丁目９番２５号株式会社万代リテールホールディングス（1122001006789）に合併し解散,2015-10-05,1,,,,,マンダイリテールホールディングス,0
1888,8140002003566,登記記録の閉鎖等,0,2024-02-08,2024-02-02,有限会社ネットワユーズ,,有限会社,兵庫県,神戸市灘区,大石南町１丁目８番１４号,,28,102,6570852,,,2024-02-02,清算の結了等,,,2015-10-05,1,,,,,ネットワユーズ,0
1898,8180001067039,登記記録の閉鎖等,0,2024-02-08,2024-02-01,矢野工業株式会社,,株式会社,愛知県,愛知郡東郷町,大字春木字勘右ヱ門新田９４番地,,23,302,4700162,,,2024-02-01,合併による解散等,7180001019115,令和６年２月１日名古屋市中川区月島町１１番５号株式会社大矢鋳造所（7180001019115）に合併し解散,2015-10-05,1,,,,,ヤノコウギョウ,0
1901,8180001108676,登記記録の閉鎖等,0,2024-02-08,2024-02-05,ワタナベ・デンキ株式会社,,株式会社,愛知県,名古屋市港区,稲永２丁目１３番６２号（ライオンズガーデン稲永１０１号）,,23,111,4550842,,,2024-02-05,清算の結了等,,,2015-10-05,1,,,,,ワタナベデンキ,0
1902,8180001144143,登記記録の閉鎖等,0,2024-02-08,2024-02-05,株式会社今福,,株式会社,愛知県,名古屋市東区,新出来２丁目７番２０号,,23,102,4610038,,,2024-02-05,清算の結了等,,,2020-12-24,1,,,,,イマフク,0
1910,8180002077202,登記記録の閉鎖等,0,2024-02-08,2024-02-05,布川工業有限会社,,有限会社,愛知県,一宮市,奥町字野越２４番地１,,23,203,4910201,,,2024-02-05,清算の結了等,,,2015-10-05,1,,,,,ヌノカワコウギョウ,0
1911,8180003011886,登記記録の閉鎖等,0,2024-02-08,2024-02-01,尾西クリーニング合資会社,,合資会社,愛知県,一宮市,玉野字上新田３２番地の６３,,23,203,4940013,,,2024-02-01,清算の結了等,,,2015-10-05,1,,,,,ビサイクリーニング,0
1912,8180003014914,登記記録の閉鎖等,0,2024-02-08,2024-02-06,合同会社ありんこ,,合同会社,愛知県,名古屋市昭和区,川名山町１番地の１７,,23,107,4660827,,,2024-02-06,清算の結了等,,,2015-10-05,1,,,,,アリンコ,0
1916,8180301004996,登記記録の閉鎖等,0,2024-02-08,2024-02-05,株式会社あんどう,,株式会社,愛知県,豊橋市,東田町２６９番地の２,,23,201,4400066,,,2024-02-05,清算の結了等,,,2015-10-05,1,,,,,アンドウ,0
1921,8220001010695,登記記録の閉鎖等,0,2024-02-08,2024-02-01,岡田商事株式会社,,株式会社,石川県,金沢市,京町２３番１１号,,17,201,9200848,,,2024-02-01,合併による解散等,5220001001623,令和６年２月１日石川県金沢市京町３１番１５号岡田研磨株式会社（5220001001623）に合併し解散,2015-10-05,1,,,,,オカダショウジ,0
1930,8280002008898,登記記録の閉鎖等,0,2024-02-08,2024-02-07,有限会社ホテル川隅,,有限会社,島根県,浜田市,旭町木田１００５番地１,,32,202,6970427,,,2024-02-07,清算の結了等,,,2015-10-05,1,,,,,ホテルカワスミ,0
1960,8380002017154,登記記録の閉鎖等,0,2024-02-08,2024-02-02,有限会社東北工業,,有限会社,福島県,安達郡大玉村,玉井字小高倉山３８６番地３６,,07,322,9691302,,,2024-02-02,清算の結了等,,,2015-10-05,1,,,,,トウホクコウギョウ,0
1988,9010001214275,登記記録の閉鎖等,0,2024-02-08,2024-02-02,株式会社レイ,,株式会社,東京都,中央区,銀座６丁目１３番１６号銀座ＷａｌｌビルＵＣＦ５階,,13,102,1040061,,,2024-02-02,清算の結了等,,,2020-12-09,1,,,,,レイ,0
1994,9010102003981,登記記録の閉鎖等,0,2024-02-08,2024-02-06,有限会社多摩薬品商会,,有限会社,東京都,八王子市,子安町２丁目１番１７号,,13,201,1920904,,,2024-02-06,清算の結了等,,,2015-10-05,1,,,,,タマヤクヒンショウカイ,0
1997,9010401137745,登記記録の閉鎖等,0,2024-02-08,2024-02-01,ＰｌｏｗＤａｙｓ株式会社,,株式会社,東京都,港区,芝５丁目３２番１２号,,13,103,1080014,,,2024-02-01,合併による解散等,7010401137747,令和６年２月１日東京都港区海岸二丁目６番３１号ＡＧＢＩＯＴＥＣＨ株式会社（7010401137747）に合併し解散,2018-04-16,1,,,,,プラウデイズ,0
2000,9010403006584,登記記録の閉鎖等,0,2024-02-08,2024-02-02,インタンジブルー合同会社,,合同会社,東京都,中央区,銀座１丁目３番３号,,13,102,1040061,,,2024-02-02,清算の結了等,,,2015-10-05,1,,,,,インタンジブルー,0
2031,9011501014826,登記記録の閉鎖等,0,2024-02-08,2024-02-02,株式会社エッジライン,,株式会社,東京都,台東区,三筋１丁目１４番１０号,,13,106,1110055,,,2024-02-02,清算の結了等,,,2015-10-05,1,,,,,エッジライン,0
2036,9012801020407,登記記録の閉鎖等,0,2024-02-08,2024-02-01,株式会社Ｎｅｓｓ,,株式会社,東京都,昭島市,中神町１３０４番地４８,,13,207,1960022,,,2024-02-01,清算の結了等,,,2020-10-13,1,,,,,ネス,0
2040,9020001015680,登記記録の閉鎖等,0,2024-02-08,2024-02-05,株式会社日建冷熱,,株式会社,神奈川県,横浜市保土ケ谷区,上菅田町４１８番地１８６,,14,106,2400051,,,2024-02-05,清算の結了等,,,2015-10-05,1,,,,,ニッケンレイネツ,0
2048,9021002045980,登記記録の閉鎖等,0,2024-02-08,2024-02-05,有限会社インテリアおくやま,,有限会社,神奈川県,綾瀬市,上土棚北４丁目３番４１号,,14,218,2521111,,,2024-02-05,清算の結了等,,,2015-10-05,1,,,,,インテリアオクヤマ,0
2055,9030001101744,登記記録の閉鎖等,0,2024-02-08,2024-01-31,ヴェイパーテクニクス株式会社,,株式会社,埼玉県,鴻巣市,生出塚１丁目１８番２０号,,11,217,3650033,,,2024-01-31,清算の結了等,,,2015-10-05,1,,,,,ヴェイパーテクニクス,0
2080,9080002015609,登記記録の閉鎖等,0,2024-02-08,2024-02-06,魚勝有限会社,,有限会社,静岡県,焼津市,方ノ上１９２番地の１,,22,212,4250005,,,2024-02-06,清算の結了等,,,2015-10-05,1,,,,,,0
2087,9090001017233,登記記録の閉鎖等,0,2024-02-08,2024-02-07,株式会社加羅,,株式会社,山梨県,甲府市,大里町４０６０－１,,19,201,4000053,,,2024-02-07,清算の結了等,,,2021-10-07,1,,,,,カラ,0
2088,9090002010237,登記記録の閉鎖等,0,2024-02-08,2024-02-07,有限会社サノヤ,,有限会社,山梨県,都留市,中央１丁目６番１１号,,19,204,4020052,,,2024-02-07,清算の結了等,,,2015-10-05,1,,,,,サノヤ,0
2094,9110001029218,登記記録の閉鎖等,0,2024-02-08,2024-02-06,Ｊ－ホールディングス株式会社,,株式会社,新潟県,上越市,柿崎区上下浜２６２番地,,15,222,9493255,,,2024-02-06,清算の結了等,,,2015-10-05,1,,,,,ジェイホールディングス,0
2106,9120901008435,登記記録の閉鎖等,0,2024-02-08,2024-02-05,毎日新聞北大阪販売株式会社,,株式会社,大阪府,吹田市,津雲台４丁目１番１５号,,27,205,5650862,,,2024-02-05,合併による解散等,2010001029969,令和６年２月１日東京都千代田区一ツ橋一丁目１番１号株式会社毎日新聞社（2010001029969）に合併し解散,2015-10-05,1,,,,,マイニチシンブンキタオオサカハンバイ,0
2109,9122001005585,登記記録の閉鎖等,0,2024-02-08,2024-01-24,鳴門自動車産業株式会社,,株式会社,大阪府,東大阪市,楠根３丁目３番２０号,,27,227,5770006,,,2024-01-24,清算の結了等,,,2015-10-05,1,,,,,ナルトジドウシャサンギョウ,0
2113,9130001042763,登記記録の閉鎖等,0,2024-02-08,2024-02-05,桂せんい株式会社,,株式会社,京都府,京丹後市,大宮町口大野９１５番地,,26,212,6292501,,,2024-02-05,清算の結了等,,,2015-10-05,1,,,,,カツラセンイ,0
2127,9140003018224,登記記録の閉鎖等,0,2024-02-08,2024-02-06,合同会社和,,合同会社,兵庫県,高砂市,米田町塩市８７番地の１０,,28,216,6760806,,,2024-02-06,清算の結了等,,,2022-10-11,1,,,,,ナギ,0
2132,9180001054548,登記記録の閉鎖等,0,2024-02-08,2024-02-05,株式会社アウレックティエラ,,株式会社,愛知県,名古屋市中村区,日ノ宮町２丁目９６番地の２,,23,105,4530823,,,2024-02-05,清算の結了等,,,2015-10-05,1,,,,,アウレックティエラ,0
2151,9240002032182,登記記録の閉鎖等,0,2024-02-08,2024-02-05,有限会社碓井米穀店,,有限会社,広島県,呉市,広中新開２丁目１０番６号,,34,202,7370124,,,2024-02-05,清算の結了等,,,2015-10-05,1,,,,,ウスイベイコクテン,0
2154,9250002015558,登記記録の閉鎖等,0,2024-02-08,2024-02-06,有限会社井上鉄工所,,有限会社,山口県,下松市,大字東豊井２９２番地の１５,,35,207,7440002,,,2024-02-06,清算の結了等,,,2015-10-05,1,,,,,イノウエテッコウショ,0
2183,9350002008857,登記記録の閉鎖等,0,2024-02-08,2024-02-05,有限会社オカザキ食品,,有限会社,宮崎県,宮崎市,新別府町雀田１１８５番地,,45,201,8800834,,,2024-02-05,清算の結了等,,,2015-10-05,1,,,,,オカザキショクヒン,0
2186,9360001013782,登記記録の閉鎖等,0,2024-02-08,2024-02-06,株式会社高揚開発,,株式会社,沖縄県,宮古島市,平良字西里９７６番地の８,,47,214,9060012,,,2024-02-06,清算の結了等,,,2015-10-05,1,,,,,コウヨウカイハツ,0
2209,9500002021778,登記記録の閉鎖等,0,2024-02-08,2024-02-06,有限会社富屋,,有限会社,愛媛県,四国中央市,川之江町１６５７番地の１,,38,213,7990101,,,2024-02-06,清算の結了等,,,2015-10-05,1,,,,,トミヤ,0
