sequenceNumber,corporateNumber,process,correct,updateDate,changeDate,name,nameImageId,kind,prefectureName,cityName,streetNumber,addressImageId,prefectureCode,cityCode,postCode,addressOutside,addressOutsideImageId,closeDate,closeCause,successorCorporateNumber,changeCause,assignmentDate,latest,enName,enPrefectureName,enCityName,enAddressOutside,furigana,hihyoji
4,1010001248066,登記記録の閉鎖等,0,2024-12-18,2024-12-05,株式会社ゲーム人事,,株式会社,東京都,中央区,銀座６丁目１３番１６号銀座ＷａｌｌビルＵＣＦ５階,,13,102,1040061,,,2024-12-05,清算の結了等,,,2024-09-09,1,,,,,ゲームジンジ,0
26,1010403015477,登記記録の閉鎖等,0,2024-12-18,2024-12-03,合同会社Ｕ－ｂｅｒｒｙ,,合同会社,東京都,港区,虎ノ門１丁目１６番６号虎ノ門ラポートビルＵＣＦ７０３,,13,103,1050001,,,2024-12-03,清算の結了等,,,2016-10-17,1,,,,,ユーベリー,0
43,1010802019062,登記記録の閉鎖等,0,2024-12-18,2024-12-09,有限会社エスティワイヤー,,有限会社,東京都,大田区,東糀谷５丁目９番６号,,13,111,1440033,,,2024-12-09,清算の結了等,,,2015-10-05,1,,,,,,0
50,1010903004616,登記記録の閉鎖等,0,2024-12-18,2024-12-11,合同会社ＡＬＬＥＶＩＡＴＩＯＮ,,合同会社,東京都,世田谷区,駒沢５丁目２６番７号駒沢パークサイドテラスノース３Ｆ,,13,112,1540012,,,2024-12-11,清算の結了等,,,2018-10-25,1,,,,,アリヴィエイション,0
56,1011001142408,登記記録の閉鎖等,0,2024-12-18,2024-11-26,村松・向井たてもの株式会社,,株式会社,東京都,目黒区,目黒３丁目７番１－９０４号,,13,110,1530063,,,2024-11-26,清算の結了等,,,2021-08-16,1,,,,,ムラマツムカイタテモノ,0
71,1012701009854,登記記録の閉鎖等,0,2024-12-18,2024-12-09,株式会社ＴＹプランニング,,株式会社,東京都,東村山市,栄町２丁目２４番地４１,,13,213,1890013,,,2024-12-09,清算の結了等,,,2015-10-05,1,,,,,ティーワイプランニング,0
74,1012801018937,登記記録の閉鎖等,0,2024-12-18,2024-12-12,株式会社ウィングウェーヴ,,株式会社,東京都,文京区,音羽１丁目１７番１１号,,13,105,1120013,,,2024-12-12,清算の結了等,,,2018-08-16,1,,,,,ウィングウェーヴ,0
84,1020002019069,登記記録の閉鎖等,0,2024-12-18,2024-12-09,有限会社関根工業,,有限会社,神奈川県,横浜市戸塚区,上柏尾町５５３番地１,,14,110,2440811,,,2024-12-09,清算の結了等,,,2015-10-05,1,,,,,セキネコウギョウ,0
91,1030001084823,登記記録の閉鎖等,0,2024-12-18,2024-12-12,サンデルタ株式会社,,株式会社,埼玉県,熊谷市,本石１丁目２０６番地,,11,202,3600815,,,2024-12-12,清算の結了等,,,2015-10-05,1,,,,,サンデルタ,0
120,1100002034217,登記記録の閉鎖等,0,2024-12-18,2024-12-13,有限会社ダイナ工業,,有限会社,長野県,上伊那郡飯島町,飯島１９５６番地１,,20,384,3993702,,,2024-12-13,清算の結了等,,,2015-10-05,1,,,,,ダイナコウギョウ,0
123,1110005016541,登記記録の閉鎖等,0,2024-12-18,2024-12-03,一般社団法人イノベーション産業研究会,,その他の設立登記法人,東京都,港区,南青山２丁目２番１５号ウィン青山９４２,,13,103,1070062,,,2024-12-03,清算の結了等,,,2020-05-19,1,,,,,イノベーションサンギョウケンキュウカイ,0
125,1120001205997,登記記録の閉鎖等,0,2024-12-18,2024-12-13,株式会社ジャドール,,株式会社,大阪府,大阪市北区,鶴野町４番１１号朝日プラザ１階,,27,127,5300014,,,2024-12-13,清算の結了等,,,2017-05-30,1,,,,,ジャドール,0
126,1120001217621,登記記録の閉鎖等,0,2024-12-18,2024-12-12,株式会社ＬＡＮＤ　ＭＡＲＫ,,株式会社,大阪府,門真市,下馬伏町１０番２０号,,27,223,5710009,,,2024-12-12,清算の結了等,,,2018-12-05,1,,,,,ランドマーク,0
135,1120003006964,登記記録の閉鎖等,0,2024-12-18,2024-12-16,合同会社ＳＯＪＩ,,合同会社,大阪府,大阪市西成区,天下茶屋１丁目２４番１０号,,27,122,5570014,,,2024-12-16,清算の結了等,,,2015-10-05,1,,,,,ソージ,0
150,1122001014180,登記記録の閉鎖等,0,2024-12-18,2024-12-10,株式会社インザウエスト,,株式会社,大阪府,東大阪市,加納７丁目２３番５－１２０５号,,27,227,5780901,,,2024-12-10,清算の結了等,,,2015-10-05,1,,,,,インザウエスト,0
153,1122005002784,登記記録の閉鎖等,0,2024-12-18,2024-12-12,公益財団法人八尾市文化財調査研究会,,その他の設立登記法人,大阪府,八尾市,幸町４丁目５８番地の２,,27,212,5810821,,,2024-12-12,清算の結了等,,,2015-10-05,1,,,,,ヤオシブンカザイチョウサケンキュウカイ,0
154,1130001041013,登記記録の閉鎖等,0,2024-12-18,2024-12-16,京栄木材株式会社,,株式会社,京都府,福知山市,字裏ノ５６番地の１,,26,201,6200000,,,2024-12-16,清算の結了等,,,2015-10-05,1,,,,,キョウエイモクザイ,0
164,1140005020391,登記記録の閉鎖等,0,2024-12-18,2024-12-16,一般社団法人兵庫県木材業特定退職金共済会,,その他の設立登記法人,兵庫県,姫路市,広畑区東新町２丁目６１－２・１階,,28,201,6711121,,,2024-12-16,清算の結了等,,,2015-10-05,1,,,,,ヒョウゴケンモクザイギョウトクテイタイショクキンキョウサイカイ,0
166,1150002007886,登記記録の閉鎖等,0,2024-12-18,2024-12-16,カワムラ運輸有限会社,,有限会社,奈良県,磯城郡川西町,大字梅戸３２７番地の１,,29,361,6360203,,,2024-12-16,清算の結了等,,,2015-10-05,1,,,,,カワムラウンユ,0
175,1180003021636,登記記録の閉鎖等,0,2024-12-18,2024-12-10,ヒマワリ合同会社,,合同会社,愛知県,名古屋市中川区,高畑１丁目３３サン・アベニュー３Ｂ号室,,23,110,4540911,,,2024-12-10,清算の結了等,,,2020-09-16,1,,,,,ヒマワリ,0
185,1200001031469,登記記録の閉鎖等,0,2024-12-18,2024-12-13,株式会社裕コーポレーション,,株式会社,岐阜県,高山市,桐生町２丁目２２８番地,,21,203,5060004,,,2024-12-13,清算の結了等,,,2015-10-05,1,,,,,ユタカコーポレーション,0
186,1220002004447,登記記録の閉鎖等,0,2024-12-18,2024-12-13,有限会社日成容器,,有限会社,石川県,金沢市,金石松前町７番１２号,,17,201,9200312,,,2024-12-13,清算の結了等,,,2015-10-05,1,,,,,ニッセイヨウキ,0
190,1240001026671,登記記録の閉鎖等,0,2024-12-18,2024-12-13,株式会社ユーシン,,株式会社,広島県,呉市,光町８番１１号,,34,202,7370831,,,2024-12-13,清算の結了等,,,2015-10-05,1,,,,,ユーシン,0
192,1240001031580,登記記録の閉鎖等,0,2024-12-18,2024-12-13,株式会社西平工作所,,株式会社,広島県,福山市,新涯町１丁目１４番５号,,34,207,7210955,,,2024-12-13,清算の結了等,,,2015-10-05,1,,,,,ニシヒラコウサクショ,0
200,1290001076472,登記記録の閉鎖等,0,2024-12-18,2024-11-26,株式会社華火,,株式会社,福岡県,久留米市,三潴町草場１１９番地,,40,203,8300105,,,2024-11-26,清算の結了等,,,2017-01-23,1,,,,,ハナビ,0
205,1290003014323,登記記録の閉鎖等,0,2024-12-18,2024-12-11,合同会社Ｎｏａ,,合同会社,大阪府,大阪市東成区,深江北１丁目５番１８－２０３号,,27,115,5370001,,,2024-12-11,清算の結了等,,,2023-09-06,1,,,,,ノア,0
215,1350002000284,登記記録の閉鎖等,0,2024-12-18,2024-12-12,有限会社あや宝飾店,,有限会社,宮崎県,宮崎市,船塚２丁目１５１番地,,45,201,8800031,,,2024-12-12,清算の結了等,,,2015-10-05,1,,,,,アヤホウショクテン,0
221,1370302003407,登記記録の閉鎖等,0,2024-12-18,2024-12-11,有限会社エスケーコーポレーション,,有限会社,宮城県,東松島市,小松字谷地７２番１,,04,214,9810504,,,2024-12-11,清算の結了等,,,2015-10-05,1,,,,,エスケーコーポレーション,0
229,1430001069478,登記記録の閉鎖等,0,2024-12-18,2024-12-16,株式会社ＧＬ　Ｈｏｓｈｉ,,株式会社,北海道,札幌市白石区,中央二条２丁目１番３５号,,01,104,0030012,,,2024-12-16,清算の結了等,,,2015-10-05,1,,,,,,0
244,2010001223877,登記記録の閉鎖等,0,2024-12-18,2024-12-04,株式会社Ｃｕｉｓｉｎｅ　Ｒｅｐｏｒｔ,,株式会社,東京都,中央区,八重洲１丁目８－１７新槇町ビル６Ｆビジネストランスファー内,,13,102,1030028,,,2024-12-04,清算の結了等,,,2022-01-20,1,,,,,クイジンレポート,0
257,2010401169464,登記記録の閉鎖等,0,2024-12-18,2024-12-03,株式会社ｙｕｒｉｈｉｎａ,,株式会社,東京都,港区,南青山７丁目４番１４号,,13,103,1070062,,,2024-12-03,清算の結了等,,,2022-09-05,1,,,,,ユリヒナ,0
260,2010405019145,登記記録の閉鎖等,0,2024-12-18,2024-12-03,一般社団法人スマートライフインテリジェンス振興協会,,その他の設立登記法人,東京都,港区,浜松町１丁目１２番８号,,13,103,1050013,,,2024-12-03,清算の結了等,,,2020-10-01,1,,,,,スマートライフインテリジェンスシンコウキョウカイ,0
294,2011703002949,登記記録の閉鎖等,0,2024-12-18,2024-12-16,合同会社ママンキッチン,,合同会社,東京都,江戸川区,北小岩２丁目１３－９,,13,123,1330051,,,2024-12-16,清算の結了等,,,2021-09-29,1,,,,,ママンキッチン,0
297,2012303000731,登記記録の閉鎖等,0,2024-12-18,2024-12-05,合同会社鷹睡,,合同会社,神奈川県,横浜市西区,北幸１丁目１１－５相鉄ＫＳビル９階,,14,103,2200004,,,2024-12-05,清算の結了等,,,2015-10-05,1,,,,,ヨウスイ,0
298,2012401004320,登記記録の閉鎖等,0,2024-12-18,2024-12-16,ケーピーイー株式会社,,株式会社,東京都,小金井市,緑町１丁目６番７号,,13,210,1840003,,,2024-12-16,清算の結了等,,,2015-10-05,1,,,,,ケーピーイー,0
305,2013301043409,登記記録の閉鎖等,0,2024-12-18,2024-12-09,株式会社うぇぶりょく,,株式会社,東京都,豊島区,南大塚２丁目１１番１０号３階,,13,116,1700005,,,2024-12-09,清算の結了等,,,2019-02-14,1,,,,,ウェブリョク,0
309,2020002109117,登記記録の閉鎖等,0,2024-12-18,2024-12-06,有限会社花月園前だるま薬局,,有限会社,神奈川県,横浜市鶴見区,生麦町１２０１番地,,14,101,2300000,,,2024-12-06,清算の結了等,,,2024-10-22,1,,,,,カゲツエンマエダルマヤッキョク,0
318,2030002013607,登記記録の閉鎖等,0,2024-12-18,2024-12-13,有限会社明洋商事,,有限会社,埼玉県,さいたま市北区,日進町２丁目１５９３番地,,11,102,3310823,,,2024-12-13,清算の結了等,,,2015-10-05,1,,,,,メイヨウショウジ,0
327,2030002122589,登記記録の閉鎖等,0,2024-12-18,2024-12-13,有限会社タナカコーポレーション,,有限会社,埼玉県,秩父郡小鹿野町,両神薄２０１８番地１,,11,365,3680201,,,2024-12-13,清算の結了等,,,2015-10-05,1,,,,,タナカコーポレーション,0
336,2040003001964,登記記録の閉鎖等,0,2024-12-18,2024-12-11,合同会社スズミ,,合同会社,千葉県,松戸市,上本郷２１１０番地,,12,207,2710064,,,2024-12-11,清算の結了等,,,2015-10-05,1,,,,,スズミ,0
345,2070005009425,登記記録の閉鎖等,0,2024-12-18,2024-12-16,ＮＰＯ法人みらい工房,,その他の設立登記法人,群馬県,太田市,前島町９３番地３,,10,205,3700416,,,2024-12-16,清算の結了等,,,2018-01-10,1,,,,,ミライコウボウ,0
347,2080005003229,登記記録の閉鎖等,0,2024-12-18,2024-12-12,医療法人社団三浦医院,,その他の設立登記法人,静岡県,静岡市清水区,折戸４９２番地の６,,22,103,4240902,,,2024-12-12,清算の結了等,,,2015-10-05,1,,,,,ミウライイン,0
353,2110001016783,登記記録の閉鎖等,0,2024-12-18,2024-12-12,株式会社ナガタプランニング,,株式会社,新潟県,燕市,又新９９８番地,,15,213,9591215,,,2024-12-12,清算の結了等,,,2015-10-05,1,,,,,ナガタプランニング,0
355,2110002034289,登記記録の閉鎖等,0,2024-12-18,2024-12-13,有限会社エイ・オン,,有限会社,新潟県,佐渡市,八幡２１６３番地４,,15,224,9521311,,,2024-12-13,清算の結了等,,,2015-10-05,1,,,,,エイオン,0
374,2120003025542,登記記録の閉鎖等,0,2024-12-18,2024-12-13,ＡＬＬトラスト合同会社,,合同会社,大阪府,枚方市,磯島南町１５番１,,27,210,5731186,,,2024-12-13,清算の結了等,,,2023-12-19,1,,,,,オールトラスト,0
383,2120902020486,登記記録の閉鎖等,0,2024-12-18,2024-12-12,有限会社レイテク,,有限会社,大阪府,豊中市,清風荘２丁目３番５－３０５号,,27,203,5600041,,,2024-12-12,清算の結了等,,,2015-10-05,1,,,,,レイテク,0
390,2140001109147,登記記録の閉鎖等,0,2024-12-18,2024-12-13,株式会社岡本塗建,,株式会社,兵庫県,尼崎市,南清水２９番２８号ネオヴェール９７、１０５号,,28,202,6610985,,,2024-12-13,清算の結了等,,,2018-02-23,1,,,,,オカモトトケン,0
401,2180001117971,登記記録の閉鎖等,0,2024-12-18,2024-12-09,株式会社アキヒロインテリア,,株式会社,愛知県,犬山市,大字橋爪字西浦３１番地１,,23,215,4840076,,,2024-12-09,清算の結了等,,,2015-10-05,1,,,,,アキヒロインテリア,0
404,2180002015646,登記記録の閉鎖等,0,2024-12-18,2024-12-09,有限会社覚王山ホームセンター,,有限会社,愛知県,名古屋市東区,芳野３丁目９番６号,,23,102,4610027,,,2024-12-09,清算の結了等,,,2015-10-05,1,,,,,カクオウザンホームセンター,0
410,2180003022583,登記記録の閉鎖等,0,2024-12-18,2024-12-11,ｚｅｎ－ｔａｉ合同会社,,合同会社,愛知県,北名古屋市,久地野河原１番地,,23,234,4810012,,,2024-12-11,清算の結了等,,,2021-06-09,1,,,,,ゼンタイ,0
413,2180303005486,登記記録の閉鎖等,0,2024-12-18,2024-12-12,ＴｅｃｈＡｇｅ合同会社,,合同会社,愛知県,西尾市,道光寺町郷中２９―９,,23,213,4450811,,,2024-12-12,清算の結了等,,,2022-10-25,1,,,,,テックエージ,0
415,2200001002733,登記記録の閉鎖等,0,2024-12-18,2024-12-13,鈴木工業株式会社,,株式会社,岐阜県,岐阜市,茜部大野２丁目５２番地,,21,201,5008261,,,2024-12-13,清算の結了等,,,2015-10-05,1,,,,,スズキコウギョウ,0
423,2210002001469,登記記録の閉鎖等,0,2024-12-18,2024-12-13,有限会社ピノリ,,有限会社,福井県,福井市,幾代２丁目１５０４番地,,18,201,9100013,,,2024-12-13,清算の結了等,,,2015-10-05,1,,,,,ピノリ,0
430,2250001007208,登記記録の閉鎖等,0,2024-12-18,2024-12-13,株式会社ＳＪＣ,,株式会社,山口県,下関市,彦島迫町３丁目１３番４１号,,35,201,7500092,,,2024-12-13,清算の結了等,,,2015-10-05,1,,,,,エスジェイシー,0
431,2250002016843,登記記録の閉鎖等,0,2024-12-18,2024-12-16,有限会社山本農場,,有限会社,山口県,周南市,富田２丁目１９番１号,,35,215,7460034,,,2024-12-16,清算の結了等,,,2015-10-05,1,,,,,ヤマモトノウジョウ,0
432,2260001016645,登記記録の閉鎖等,0,2024-12-18,2024-12-10,ＭＰ工業株式会社,,株式会社,岡山県,倉敷市,水島南亀島町３番４号,,33,202,7128004,,,2024-12-10,清算の結了等,,,2015-10-05,1,,,,,エムピーコウギョウ,0
434,2260001021125,登記記録の閉鎖等,0,2024-12-18,2024-12-12,株式会社アシスト岡山,,株式会社,岡山県,津山市,日本原３０６番地,,33,203,7081204,,,2024-12-12,清算の結了等,,,2015-10-05,1,,,,,アシストオカヤマ,0
436,2260001036585,登記記録の閉鎖等,0,2024-12-18,2024-12-05,株式会社カーデータシェアリング,,株式会社,岡山県,岡山市南区,泉田４２１番地２０,,33,104,7000944,,,2024-12-05,合併による解散等,8260001011483,令和６年１１月３０日岡山市南区泉田４２１番地２０株式会社ベルティス（8260001011483）に合併し解散,2022-03-02,1,,,,,カーデータシェアリング,0
442,2290001028209,登記記録の閉鎖等,0,2024-12-18,2024-11-25,株式会社未来企画,,株式会社,福岡県,福岡市博多区,祇園町４番３号,,40,132,8120038,,,2024-11-25,清算の結了等,,,2015-10-05,1,,,,,ミライキカク,0
444,2290001100776,登記記録の閉鎖等,0,2024-12-18,2024-11-26,ＣＲＯＳＳ　ＬＩＮＥ株式会社,,株式会社,福岡県,春日市,須玖北２丁目２０番地,,40,218,8160864,,,2024-11-26,清算の結了等,,,2023-03-07,1,,,,,クロスライン,0
458,2330001020094,登記記録の閉鎖等,0,2024-12-18,2024-12-11,牟田口総合保険株式会社,,株式会社,熊本県,荒尾市,原万田６３０番地１,,43,204,8640001,,,2024-12-11,清算の結了等,,,2015-10-05,1,,,,,ムタグチソウゴウホケン,0
467,2350002002412,登記記録の閉鎖等,0,2024-12-18,2024-12-16,有限会社すずらん薬局,,有限会社,宮崎県,宮崎市,恒久南３丁目２３７番地１,,45,201,8800915,,,2024-12-16,清算の結了等,,,2015-10-05,1,,,,,スズランヤッキョク,0
513,3010401129905,登記記録の閉鎖等,0,2024-12-18,2024-12-03,株式会社Ｎｅｘｔ　Ｇｅｎｅｒａｔｉｏｎ,,株式会社,東京都,港区,西新橋１丁目２番地９日比谷セントラルビル１４階,,13,103,1050003,,,2024-12-03,清算の結了等,,,2017-02-27,1,,,,,ネクストジェネレーション,0
519,3010403016226,登記記録の閉鎖等,0,2024-12-18,2024-12-03,合同会社Ｇｒｅｅｎ,,合同会社,東京都,港区,虎ノ門５丁目１番４号,,13,103,1050001,,,2024-12-03,清算の結了等,,,2017-03-06,1,,,,,グリーン,0
523,3010502022133,登記記録の閉鎖等,0,2024-12-18,2024-12-09,東京高橋パール有限会社,,有限会社,東京都,台東区,上野５丁目１６番１４号,,13,106,1100005,,,2024-12-09,清算の結了等,,,2015-10-05,1,,,,,トウキョウタカハシパール,0
525,3010602030003,登記記録の閉鎖等,0,2024-12-18,2024-12-12,向陽貿易有限会社,,有限会社,東京都,墨田区,業平５丁目１番１８号１１０３号,,13,107,1300002,,,2024-12-12,清算の結了等,,,2015-10-05,1,,,,,,0
533,3011001053132,登記記録の閉鎖等,0,2024-12-18,2024-12-03,株式会社ミュージックパブ２１,,株式会社,東京都,港区,南青山２丁目２２番１８号,,13,103,1070062,,,2024-12-03,清算の結了等,,,2015-10-05,1,,,,,ミュージックパブニジュウイチ,0
534,3011001073493,登記記録の閉鎖等,0,2024-12-18,2024-12-10,株式会社ポケットモバイル,,株式会社,東京都,台東区,上野１丁目１１番９号イマスサニービル７階ＪＴＡ内,,13,106,1100005,,,2024-12-10,合併による解散等,4011001059062,令和６年１２月１０日東京都台東区上野一丁目１１番９号イマスサニービル７階だれでもモバイル株式会社（4011001059062）に合併し解散,2015-10-05,1,,,,,ポケットモバイル,0
535,3011001127068,登記記録の閉鎖等,0,2024-12-18,2024-12-10,株式会社タイムマーケティング,,株式会社,東京都,台東区,上野１丁目１１番９号イマスサニービル７階ＪＴＡ内,,13,106,1100005,,,2024-12-10,合併による解散等,4011001059062,令和６年１２月１０日東京都台東区上野一丁目１１番９号イマスサニービル７階だれでもモバイル株式会社（4011001059062）に合併し解散,2019-03-19,1,,,,,タイムマーケティング,0
565,3012402015712,登記記録の閉鎖等,0,2024-12-18,2024-12-11,有限会社アット・ホームプランニング,,有限会社,東京都,国分寺市,南町３丁目８番２０号,,13,214,1850021,,,2024-12-11,清算の結了等,,,2015-10-05,1,,,,,,0
572,3012805002745,登記記録の閉鎖等,0,2024-12-18,2024-12-06,一般社団法人相続ファミリー・サポート・センター,,その他の設立登記法人,東京都,立川市,曙町２丁目３１番１５号日住金ビル３階,00112767,13,202,1900012,,,2024-12-06,清算の結了等,,,2018-03-09,1,,,,,ソウゾクファミリーサポートセンター,0
576,3020002012724,登記記録の閉鎖等,0,2024-12-18,2024-12-05,有限会社フクショウ,,有限会社,神奈川県,横浜市中区,初音町２丁目４２－１３,,14,104,2310053,,,2024-12-05,清算の結了等,,,2015-10-05,1,,,,,フクショウ,0
577,3021001046218,登記記録の閉鎖等,0,2024-12-18,2024-12-16,オーケージャパン株式会社,,株式会社,神奈川県,相模原市中央区,田名２５１４－５,,14,152,2520244,,,2024-12-16,清算の結了等,,,2015-10-05,1,,,,,オーケージャパン,0
584,3030001085035,登記記録の閉鎖等,0,2024-12-18,2024-12-13,東洋金属産業株式会社,,株式会社,埼玉県,深谷市,本郷２９番地２１,,11,218,3690214,,,2024-12-13,清算の結了等,,,2015-10-05,1,,,,,トウヨウキンゾクサンギョウ,0
588,3030003013381,登記記録の閉鎖等,0,2024-12-18,2024-12-13,トライアンフ合同会社,,合同会社,埼玉県,さいたま市中央区,下落合５丁目１０番５号,,11,105,3380002,,,2024-12-13,清算の結了等,,,2019-04-08,1,,,,,トライアンフ,0
603,3040002078004,登記記録の閉鎖等,0,2024-12-18,2024-12-11,有限会社セントクエコー,,有限会社,千葉県,山武郡九十九里町,小関２１７７番地の２,,12,403,2830102,,,2024-12-11,清算の結了等,,,2015-10-05,1,,,,,セントクエコー,0
626,3100003006948,登記記録の閉鎖等,0,2024-12-18,2024-12-13,合同会社エアーアシスト,,合同会社,長野県,駒ヶ根市,赤穂１６３９８番地７１,,20,210,3994117,,,2024-12-13,清算の結了等,,,2023-03-30,1,,,,,エアーアシスト,0
630,3120001157601,登記記録の閉鎖等,0,2024-12-18,2024-12-12,新栄ビル株式会社,,株式会社,大阪府,門真市,末広町３７番２３－１０２号,,27,223,5710030,,,2024-12-12,清算の結了等,,,2015-10-05,1,,,,,,0
643,3120003021251,登記記録の閉鎖等,0,2024-12-18,2024-12-13,合同会社ゆいまーる,,合同会社,大阪府,交野市,梅が枝５５番７号福井ビル１階,,27,230,5760042,,,2024-12-13,清算の結了等,,,2022-03-18,1,,,,,ユイマール,0
649,3120901045467,登記記録の閉鎖等,0,2024-12-18,2024-12-12,株式会社ＳＯＬＯ,,株式会社,大阪府,豊中市,上野東２丁目４番４１号,,27,203,5600013,,,2024-12-12,清算の結了等,,,2022-01-14,1,,,,,ソロ,0
653,3122002000500,登記記録の閉鎖等,0,2024-12-18,2024-12-12,有限会社石谷加工社,,有限会社,大阪府,東大阪市,森河内東１丁目３８番１３号,,27,227,5770062,,,2024-12-12,清算の結了等,,,2015-10-05,1,,,,,イシタニカコウシャ,0
654,3122005002774,登記記録の閉鎖等,0,2024-12-18,2024-12-12,特定非営利活動法人どれみ,,その他の設立登記法人,大阪府,東大阪市,岩田町５丁目２１番１７号,,27,227,5780941,,,2024-12-12,清算の結了等,,,2015-10-05,1,,,,,ドレミ,0
677,3180001065352,登記記録の閉鎖等,0,2024-12-18,2024-12-09,株式会社ＲＥＡＬ,,株式会社,愛知県,名古屋市千種区,今池５丁目３番３号－１ウインズいまいけ広小路５階,,23,101,4640850,,,2024-12-09,合併による解散等,7180001044534,令和６年１２月１日名古屋市北区成願寺一丁目６番Ａ－４３０３号株式会社イノテッグ企画（7180001044534）に合併し解散,2015-10-05,1,,,,,リアル,0
687,3180002007394,登記記録の閉鎖等,0,2024-12-18,2024-12-12,有限会社雄電工業,,有限会社,愛知県,名古屋市港区,当知３丁目２３０９番地,,23,111,4550804,,,2024-12-12,清算の結了等,,,2015-10-05,1,,,,,ユウデンコウギョウ,0
689,3180002056862,登記記録の閉鎖等,0,2024-12-18,2024-12-17,有限会社タカギプラスチック,,有限会社,愛知県,名古屋市北区,会所町１７７番地,,23,103,4620061,,,2024-12-17,清算の結了等,,,2015-10-05,1,,,,,タカギプラスチック,0
690,3180003020867,登記記録の閉鎖等,0,2024-12-18,2024-12-10,須成合同会社,,合同会社,愛知県,名古屋市港区,須成町３丁目５６番地の２,,23,111,4550072,,,2024-12-10,清算の結了等,,,2020-02-18,1,,,,,スナリ,0
695,3190001014515,登記記録の閉鎖等,0,2024-12-18,2024-12-16,株式会社オクダ電機商会,,株式会社,三重県,四日市市,西日野町４９８６番地の３,,24,202,5100943,,,2024-12-16,清算の結了等,,,2015-10-05,1,,,,,オクダデンキショウカイ,0
696,3190001025842,登記記録の閉鎖等,0,2024-12-18,2024-12-16,Ｉ’ｓプロモート株式会社,,株式会社,三重県,四日市市,赤堀３丁目３番１５号市営１３４号,,24,202,5100826,,,2024-12-16,清算の結了等,,,2018-09-06,1,,,,,アイズプロモート,0
700,3200001008548,登記記録の閉鎖等,0,2024-12-18,2024-12-13,株式会社プラウトインターナショナル,,株式会社,岐阜県,岐阜市,清７５２番地１０,,21,201,5008346,,,2024-12-13,清算の結了等,,,2015-10-05,1,,,,,プラウトインターナショナル,0
703,3220003002621,登記記録の閉鎖等,0,2024-12-18,2024-12-13,ナカノアセット合同会社,,合同会社,石川県,小松市,大和町１１２番,,17,203,9230952,,,2024-12-13,清算の結了等,,,2019-07-03,1,,,,,ナカノアセット,0
705,3240002013766,登記記録の閉鎖等,0,2024-12-18,2024-12-13,有限会社日の出屋,,有限会社,広島県,広島市中区,弥生町２番１３号,,34,101,7300023,,,2024-12-13,清算の結了等,,,2015-10-05,1,,,,,ヒノデヤ,0
722,3320002012487,登記記録の閉鎖等,0,2024-12-18,2024-12-16,有限会社まつや玩具店,,有限会社,大分県,別府市,中央町８番２５号,,44,202,8740936,,,2024-12-16,清算の結了等,,,2015-10-05,1,,,,,マツヤガングテン,0
723,3330001017065,登記記録の閉鎖等,0,2024-12-18,2024-12-13,株式会社九州介護福祉サービス,,株式会社,熊本県,荒尾市,高浜６１３番地１,,43,204,8640025,,,2024-12-13,清算の結了等,,,2015-10-05,1,,,,,キュウシュウカイゴフクシサービス,0
732,3430001024373,登記記録の閉鎖等,0,2024-12-18,2024-12-12,テクノハヤシ株式会社,,株式会社,北海道,札幌市厚別区,厚別中央三条６丁目２番１号,,01,108,0040053,,,2024-12-12,清算の結了等,,,2015-10-05,1,,,,,テクノハヤシ,0
736,3450002008010,登記記録の閉鎖等,0,2024-12-18,2024-12-12,有限会社ベストライフ,,有限会社,北海道,旭川市,忠和五条１丁目６番４号,,01,204,0708045,,,2024-12-12,清算の結了等,,,2015-10-05,1,,,,,,0
765,4010602013790,登記記録の閉鎖等,0,2024-12-18,2024-12-11,有限会社野谷酒店,,有限会社,東京都,墨田区,東向島１丁目１５番１１号,,13,107,1310032,,,2024-12-11,清算の結了等,,,2015-10-05,1,,,,,ノヤサケテン,0
766,4010701022197,登記記録の閉鎖等,0,2024-12-18,2024-12-09,ブレイン・ネットワークス株式会社,,株式会社,東京都,大田区,池上２丁目９番２１号,,13,111,1460082,,,2024-12-09,清算の結了等,,,2015-10-05,1,,,,,ブレインネットワークス,0
782,4011102029518,登記記録の閉鎖等,0,2024-12-18,2024-12-10,有限会社海洋ＧＩＳ研究所,,有限会社,東京都,東村山市,萩山町４丁目１番地６,,13,213,1890012,,,2024-12-10,清算の結了等,,,2015-10-05,1,,,,,カイヨウジーアイエスケンキュウジョ,0
797,4012402014647,登記記録の閉鎖等,0,2024-12-18,2024-12-17,有限会社土田煉瓦,00058145,有限会社,東京都,府中市,押立町４丁目１６番地の２３,,13,206,1830012,,,2024-12-17,清算の結了等,,,2015-10-05,1,,,,,ツチダレンガ,0
804,4020001113613,登記記録の閉鎖等,0,2024-12-18,2024-12-09,ｖｅｒｓ　ｌｉｂｒｅ株式会社,,株式会社,神奈川県,横浜市青葉区,荏田町７０番地クレッセントあざみ野ヒルズ６０６号,,14,117,2250013,,,2024-12-09,清算の結了等,,,2015-11-16,1,,,,,ベールリーブル,0
809,4021002052841,登記記録の閉鎖等,0,2024-12-18,2024-12-13,有限会社春山建設,,有限会社,神奈川県,小田原市,南板橋２丁目２２２番地,,14,206,2500035,,,2024-12-13,清算の結了等,,,2015-10-05,1,,,,,,0
810,4021003011227,登記記録の閉鎖等,0,2024-12-18,2024-12-16,合同会社トラスト,,合同会社,神奈川県,綾瀬市,寺尾台２丁目２番２号,,14,218,2521137,,,2024-12-16,清算の結了等,,,2021-12-24,1,,,,,トラスト,0
817,4030002013076,登記記録の閉鎖等,0,2024-12-18,2024-12-13,有限会社南浦和紙業,,有限会社,埼玉県,さいたま市南区,文蔵１丁目１２番３号,,11,108,3360025,,,2024-12-13,清算の結了等,,,2015-10-05,1,,,,,ミナミウラワシギョウ,0
822,4030005005054,登記記録の閉鎖等,0,2024-12-18,2024-12-12,埼玉医療生活協同組合,,その他の設立登記法人,埼玉県,羽生市,大字下岩瀬４４６番地,,11,216,3480045,,,2024-12-12,清算の結了等,,,2015-10-05,1,,,,,サイタマイリョウ,0
831,4040003000469,登記記録の閉鎖等,0,2024-12-18,2024-12-06,合同会社春の道,,合同会社,千葉県,千葉市緑区,おゆみ野３丁目２５番地１,,12,105,2660031,,,2024-12-06,清算の結了等,,,2015-10-05,1,,,,,ハルノミチ,0
847,4070002027758,登記記録の閉鎖等,0,2024-12-18,2024-12-13,有限会社青木金型,,有限会社,群馬県,太田市,山之神町５７３番地１,,10,205,3792302,,,2024-12-13,清算の結了等,,,2015-10-05,1,,,,,アオキカナガタ,0
848,4080001003230,登記記録の閉鎖等,0,2024-12-18,2024-12-13,株式会社田形鉄工所,,株式会社,静岡県,静岡市駿河区,用宗２丁目７番１０号,,22,102,4210122,,,2024-12-13,清算の結了等,,,2015-10-05,1,,,,,タガタテッコウジョ,0
858,4120001019759,登記記録の閉鎖等,0,2024-12-18,2024-12-10,株式会社太田商会,,株式会社,大阪府,大阪市平野区,瓜破西３丁目７番２４号,,27,126,5470025,,,2024-12-10,清算の結了等,,,2015-10-05,1,,,,,オオタショウカイ,0
889,4122001015671,登記記録の閉鎖等,0,2024-12-18,2024-12-13,株式会社仲佐,,株式会社,大阪府,大東市,灰塚３丁目８番２２号,,27,218,5740043,,,2024-12-13,清算の結了等,,,2015-10-05,1,,,,,ナカサ,0
899,4140001046818,登記記録の閉鎖等,0,2024-12-18,2024-12-11,株式会社正垣発條製作所,,株式会社,兵庫県,朝来市,和田山町宮内３４番地,,28,225,6695244,,,2024-12-11,清算の結了等,,,2015-10-05,1,,,,,ショウガキハツジョウセイサクショ,0
907,4150001015425,登記記録の閉鎖等,0,2024-12-18,2024-12-13,株式会社神田建設,,株式会社,奈良県,五條市,新町１丁目１０番４号,,29,207,6370043,,,2024-12-13,清算の結了等,,,2015-10-05,1,,,,,カンダケンセツ,0
908,4160001009351,登記記録の閉鎖等,0,2024-12-18,2024-12-17,株式会社ビワライト,,株式会社,滋賀県,彦根市,岡町５２番地,,25,202,5220037,,,2024-12-17,清算の結了等,,,2015-10-05,1,,,,,ビワライト,0
909,4160001016496,登記記録の閉鎖等,0,2024-12-18,2024-12-13,株式会社日世,,株式会社,石川県,加賀市,山中温泉塚谷町イ３７０番地,,17,206,9220111,,,2024-12-13,清算の結了等,,,2015-10-05,1,,,,,ニッセイ,0
912,4180001045048,登記記録の閉鎖等,0,2024-12-18,2024-12-11,株式会社映像設計,,株式会社,愛知県,名古屋市中区,新栄２丁目４番５号,,23,106,4600007,,,2024-12-11,清算の結了等,,,2015-10-05,1,,,,,エイゾウセッケイ,0
916,4180001072208,登記記録の閉鎖等,0,2024-12-18,2024-12-09,株式会社プレミアム,,株式会社,愛知県,名古屋市名東区,藤が丘１４４番地３,,23,115,4650032,,,2024-12-09,合併による解散等,7180001044534,令和６年１２月１日名古屋市北区成願寺一丁目６番Ａ－４３０３号株式会社イノテッグ企画（7180001044534）に合併し解散,2015-10-05,1,,,,,プレミアム,0
940,4200002011772,登記記録の閉鎖等,0,2024-12-18,2024-12-13,有限会社ゴヨウ,,有限会社,岐阜県,羽島郡笠松町,長池１０４番地の１３,,21,303,5016063,,,2024-12-13,清算の結了等,,,2015-10-05,1,,,,,ゴヨウ,0
941,4210001016607,登記記録の閉鎖等,0,2024-12-18,2024-12-16,株式会社タートルズ,,株式会社,福井県,坂井市,三国町米ケ脇第２６号４番地３７,,18,210,9130057,,,2024-12-16,清算の結了等,,,2017-01-31,1,,,,,タートルズ,0
950,4250001013360,登記記録の閉鎖等,0,2024-12-18,2024-12-13,美和環境コンサルタント株式会社,,株式会社,山口県,岩国市,下１００１５番地１１,,35,208,7400302,,,2024-12-13,清算の結了等,,,2015-10-05,1,,,,,ミワカンキョウコンサルタント,0
953,4260002033266,登記記録の閉鎖等,0,2024-12-18,2024-12-13,有限会社丸和工業,,有限会社,岡山県,玉野市,迫間３２１番地の３,,33,204,7060142,,,2024-12-13,清算の結了等,,,2015-10-05,1,,,,,マルワコウギョウ,0
963,4290005017098,登記記録の閉鎖等,0,2024-12-18,2024-12-02,一般社団法人喜一,,その他の設立登記法人,福岡県,福岡市南区,長住７丁目１番２７号,,40,134,8111362,,,2024-12-02,清算の結了等,,,2018-12-13,1,,,,,キイチ,0
969,4320002009846,登記記録の閉鎖等,0,2024-12-18,2024-12-16,有限会社食工房ヤマサキ,,有限会社,大分県,大分市,大字志生木６０８番地,,44,201,8792115,,,2024-12-16,清算の結了等,,,2015-10-05,1,,,,,,0
970,4320202000448,登記記録の閉鎖等,0,2024-12-18,2024-12-16,マ・ベル美容室有限会社,,有限会社,大分県,臼杵市,大字臼杵４６２番地,,44,206,8750041,,,2024-12-16,清算の結了等,,,2015-10-05,1,,,,,,0
971,4330001014706,登記記録の閉鎖等,0,2024-12-18,2024-12-12,株式会社儷郷プランニング,,株式会社,熊本県,熊本市中央区,白山３丁目１番５号,,43,101,8620959,,,2024-12-12,清算の結了等,,,2015-10-05,1,,,,,レイキョウプランニング,0
975,4330002024027,登記記録の閉鎖等,0,2024-12-18,2024-12-11,有限会社塚田製作所,,有限会社,熊本県,宇城市,不知火町高良１５５番地,,43,213,8690552,,,2024-12-11,清算の結了等,,,2015-10-05,1,,,,,ツカダセイサクジョ,0
978,4370002019171,登記記録の閉鎖等,0,2024-12-18,2024-12-11,有限会社ハピネス介護センター,,有限会社,宮城県,仙台市青葉区,小松島３丁目１０番１２－３０２号,,04,101,9810905,,,2024-12-11,清算の結了等,,,2015-10-05,1,,,,,ハピネスカイゴッセンター,0
994,4480001001920,登記記録の閉鎖等,0,2024-12-18,2024-12-16,株式会社治設計,,株式会社,徳島県,徳島市,八万町犬山２番地１,,36,201,7708070,,,2024-12-16,清算の結了等,,,2015-10-05,1,,,,,ハルセッケイ,0
995,4500002019513,登記記録の閉鎖等,0,2024-12-18,2024-12-13,有限会社丹下園芸,,有限会社,愛媛県,今治市,新谷甲１６６５番地,,38,202,7940850,,,2024-12-13,清算の結了等,,,2015-10-05,1,,,,,タンゲエンゲイ,0
1008,5010401094338,登記記録の閉鎖等,0,2024-12-18,2024-12-03,株式会社勝福不動産,,株式会社,東京都,港区,芝３丁目２１番１０号,,13,103,1050014,,,2024-12-03,清算の結了等,,,2015-10-05,1,,,,,ショウフクフドウサン,0
1014,5010602029308,登記記録の閉鎖等,0,2024-12-18,2024-12-13,有限会社チキンサービス,,有限会社,東京都,墨田区,東向島６丁目４２番１０－６０３号,,13,107,1310032,,,2024-12-13,清算の結了等,,,2015-10-05,1,,,,,チキンサービス,0
1016,5010603009977,登記記録の閉鎖等,0,2024-12-18,2024-12-13,合同会社ＨＭＣ,,合同会社,東京都,江東区,東砂７丁目１０－３ジオ南砂町６２０,,13,108,1360074,,,2024-12-13,清算の結了等,,,2023-02-02,1,,,,,エイチエムシー,0
1023,5010902023489,登記記録の閉鎖等,0,2024-12-18,2024-12-13,有限会社ＳＯＬＵＮＡ　ＤＯＭＩＮＧＯ,,有限会社,東京都,世田谷区,北沢２丁目２６番２号鯵坂ビル１Ｆ,,13,112,1550031,,,2024-12-13,清算の結了等,,,2015-10-05,1,,,,,ソルナドミンゴ,0
1038,5011101031069,登記記録の閉鎖等,0,2024-12-18,2024-12-02,株式会社ＮＪＳデザインセンター,,株式会社,東京都,港区,芝浦１丁目１番１号,,13,103,1050023,,,2024-12-02,清算の結了等,,,2015-10-05,1,,,,,エヌジェイエスデザインセンター,0
1050,5011801002443,登記記録の閉鎖等,0,2024-12-18,2024-12-13,カナディアングループ株式会社,,株式会社,東京都,葛飾区,堀切５丁目４２番１号,,13,122,1240006,,,2024-12-13,清算の結了等,,,2015-10-05,1,,,,,カナディアングループ,0
1054,5011803001906,登記記録の閉鎖等,0,2024-12-18,2024-12-16,合同会社成,,合同会社,東京都,葛飾区,鎌倉１丁目３６番１０号,,13,122,1250053,,,2024-12-16,合併による解散等,7010001247938,令和６年１０月３１日東京都千代田区大手町一丁目６番１号株式会社ＺＥＮ　ＰＬＡＣＥ　ＨＯＬＤＩＮＧＳ（7010001247938）に合併し解散,2015-10-05,1,,,,,ナル,0
1061,5020001037605,登記記録の閉鎖等,0,2024-12-18,2024-12-09,株式会社デザインの森,,株式会社,神奈川県,横浜市南区,弘明寺町字前田１８３番地,,14,105,2320067,,,2024-12-09,清算の結了等,,,2015-10-05,1,,,,,デザインノモリ,0
1062,5020002018447,登記記録の閉鎖等,0,2024-12-18,2024-12-13,有限会社カトレヤ,,有限会社,東京都,世田谷区,下馬６丁目１９番４－５０１号,,13,112,1540002,,,2024-12-13,清算の結了等,,,2015-10-05,1,,,,,カトレヤ,0
1066,5021005005283,登記記録の閉鎖等,0,2024-12-18,2024-12-06,特定非営利活動法人外装エコロジーシステム,,その他の設立登記法人,神奈川県,横浜市港北区,新横浜３丁目８番地１１,,14,109,2220033,,,2024-12-06,清算の結了等,,,2015-10-05,1,,,,,ガイソウエコロジーシステム,0
1068,5030001039848,登記記録の閉鎖等,0,2024-12-18,2024-12-05,株式会社鋼領,,株式会社,東京都,文京区,根津１丁目５番７号,,13,105,1130031,,,2024-12-05,清算の結了等,,,2015-10-05,1,,,,,コウリョウ,0
1074,5030005016356,登記記録の閉鎖等,0,2024-12-18,2024-12-10,特定非営利活動法人日本小児禁煙研究会,,その他の設立登記法人,東京都,世田谷区,経堂２丁目５番２１号,,13,112,1560052,,,2024-12-10,清算の結了等,,,2015-10-05,1,,,,,ニホンショウニキンエンケンキュウカイ,0
1095,5070003003286,登記記録の閉鎖等,0,2024-12-18,2024-12-16,合同会社北爪企画,,合同会社,群馬県,沼田市,東倉内町５１９番地９,,10,206,3780043,,,2024-12-16,清算の結了等,,,2018-11-06,1,,,,,キタヅメキカク,0
1104,5100001009819,登記記録の閉鎖等,0,2024-12-18,2024-12-13,株式会社塩田メカトロニクス,,株式会社,長野県,上田市,五加１３７６番地１,,20,203,3861324,,,2024-12-13,清算の結了等,,,2015-10-05,1,,,,,シオダメカトロニクス,0
1106,5100002018736,登記記録の閉鎖等,0,2024-12-18,2024-12-13,有限会社三沢建築,,有限会社,長野県,下高井郡山ノ内町,大字寒沢５４４番地の１,,20,561,3810403,,,2024-12-13,清算の結了等,,,2015-10-05,1,,,,,ミサワケンチク,0
1143,5140001085154,登記記録の閉鎖等,0,2024-12-18,2024-12-13,株式会社平田組,,株式会社,兵庫県,淡路市,大町上２６０番地の４９,,28,226,6562155,,,2024-12-13,清算の結了等,,,2015-10-05,1,,,,,ヒラタグミ,0
1156,5180001089003,登記記録の閉鎖等,0,2024-12-18,2024-12-09,増田管理株式会社,,株式会社,愛知県,北名古屋市,西之保字立石５１番地,,23,234,4810033,,,2024-12-09,清算の結了等,,,2015-10-05,1,,,,,マスダカンリ,0
1157,5180001103738,登記記録の閉鎖等,0,2024-12-18,2024-12-11,株式会社トラスト建設,,株式会社,愛知県,名古屋市千種区,今池南３２番１９号,,23,101,4640851,,,2024-12-11,清算の結了等,,,2015-10-05,1,,,,,トラストケンセツ,0
1163,5180002050624,登記記録の閉鎖等,0,2024-12-18,2024-12-11,有限会社伸和,,有限会社,愛知県,名古屋市中区,大井町５番２５号,,23,106,4600015,,,2024-12-11,清算の結了等,,,2015-10-05,1,,,,,シンワ,0
1165,5180002072866,登記記録の閉鎖等,0,2024-12-18,2024-12-10,有限会社中部装備,,有限会社,愛知県,尾張旭市,新居町下切戸１２５２番地の２０,,23,226,4880071,,,2024-12-10,清算の結了等,,,2015-10-05,1,,,,,チュウブソウビ,0
1170,5200001003654,登記記録の閉鎖等,0,2024-12-18,2024-12-13,トータル株式会社,,株式会社,岐阜県,岐阜市,清７５２番地１０,,21,201,5008346,,,2024-12-13,清算の結了等,,,2015-10-05,1,,,,,トータル,0
1189,5260002023638,登記記録の閉鎖等,0,2024-12-18,2024-12-13,有限会社工藤興業,,有限会社,岡山県,倉敷市,連島町連島１４２番地４３,,33,202,7128011,,,2024-12-13,清算の結了等,,,2015-10-05,1,,,,,クドウコウギョウ,0
1215,5400503000022,登記記録の閉鎖等,0,2024-12-18,2024-12-10,合資会社さとう屋楽器店,,合資会社,岩手県,一関市,字大町１５１番地,,03,209,0210000,,,2024-12-10,清算の結了等,,,2015-10-05,1,,,,,サトウヤガッキテン,0
1225,5430002043478,登記記録の閉鎖等,0,2024-12-18,2024-12-16,有限会社高田産業,,有限会社,北海道,石狩市,花川南八条３丁目８２番地,,01,235,0613208,,,2024-12-16,清算の結了等,,,2015-10-05,1,,,,,タカダサンギョウ,0
1227,5470001015854,登記記録の閉鎖等,0,2024-12-18,2024-12-13,株式会社ＭＴ,,株式会社,香川県,高松市,香西西町６０７番地３９,,37,201,7618015,,,2024-12-13,清算の結了等,,,2016-08-09,1,,,,,エムテイ,0
1228,5470005006164,登記記録の閉鎖等,0,2024-12-18,2024-12-13,一般社団法人ｐｅｕ　ａ　ｐｅｕ,,その他の設立登記法人,香川県,高松市,郷東町７８９番地８,,37,201,7618031,,,2024-12-13,清算の結了等,,,2019-01-30,1,,,,,プウアプウ,0
1243,6010403011307,登記記録の閉鎖等,0,2024-12-18,2024-12-03,第三Ｑソーラー合同会社,,合同会社,東京都,港区,芝４丁目１０番１号ハンファビル６階,,13,103,1080014,,,2024-12-03,清算の結了等,,,2015-10-05,1,,,,,ダイサンキューソーラー,0
1265,6011301016059,登記記録の閉鎖等,0,2024-12-18,2024-12-05,マコト工業株式会社,,株式会社,東京都,杉並区,高円寺南１丁目２０番１５号,,13,115,1660003,,,2024-12-05,清算の結了等,,,2015-10-05,1,,,,,マコトコウギョウ,0
1274,6011701014331,登記記録の閉鎖等,0,2024-12-18,2024-12-16,株式会社ＰＲＥＮＤＲＥ,,株式会社,東京都,江戸川区,一之江８丁目１５番１号,,13,123,1320024,,,2024-12-16,清算の結了等,,,2015-10-05,1,,,,,プレンドル,0
1275,6011701018191,登記記録の閉鎖等,0,2024-12-18,2024-12-16,ＢＩＧ　ＵＰ株式会社,,株式会社,東京都,江戸川区,中央１丁目２１番３－５１２号,,13,123,1320021,,,2024-12-16,清算の結了等,,,2015-10-05,1,,,,,ビッグアップ,0
1283,6012401003608,登記記録の閉鎖等,0,2024-12-18,2024-12-10,株式会社カワイメディカル,,株式会社,東京都,国立市,富士見台１丁目２１番地の１３,,13,215,1860003,,,2024-12-10,清算の結了等,,,2015-10-05,1,,,,,カワイメディカル,0
1285,6012701010213,登記記録の閉鎖等,0,2024-12-18,2024-12-09,株式会社湧縁地,,株式会社,東京都,西東京市,芝久保町５丁目４番５７号,,13,229,1880014,,,2024-12-09,清算の結了等,,,2015-10-05,1,,,,,ユウエンチ,0
1312,6030002031290,登記記録の閉鎖等,0,2024-12-18,2024-12-12,有限会社ミセ,,有限会社,埼玉県,所沢市,大字北秋津３４１番地,,11,208,3590038,,,2024-12-12,清算の結了等,,,2015-10-05,1,,,,,ミセ,0
1314,6030003015177,登記記録の閉鎖等,0,2024-12-18,2024-12-13,合同会社大成亭,,合同会社,埼玉県,東松山市,大字高坂１３０９番地１,,11,212,3550047,,,2024-12-13,清算の結了等,,,2020-04-23,1,,,,,オオナリテイ,0
1338,6070002004961,登記記録の閉鎖等,0,2024-12-18,2024-12-16,有限会社前田塗装,,有限会社,群馬県,前橋市,北代田町４８０番地,,10,201,3710055,,,2024-12-16,清算の結了等,,,2015-10-05,1,,,,,マエダトソウ,0
1340,6080001009226,登記記録の閉鎖等,0,2024-12-18,2024-12-13,港包装株式会社,,株式会社,静岡県,静岡市清水区,袖師町８８５番地の１,,22,103,4240037,,,2024-12-13,清算の結了等,,,2015-10-05,1,,,,,ミナトホウソウ,0
1345,6090002009703,登記記録の閉鎖等,0,2024-12-18,2024-12-12,タカトリ塗装有限会社,,有限会社,山梨県,上野原市,上野原３３３０番地,,19,212,4090112,,,2024-12-12,清算の結了等,,,2015-10-05,1,,,,,タカトリトソウ,0
1346,6100001018802,登記記録の閉鎖等,0,2024-12-18,2024-12-13,株式会社指南番研究所,,株式会社,長野県,諏訪郡下諏訪町,２６番地,,20,361,3930000,,,2024-12-13,清算の結了等,,,2015-10-05,1,,,,,シナンバンケンキュウジョ,0
1351,6100002025500,登記記録の閉鎖等,0,2024-12-18,2024-12-13,有限会社青沼塗装,,有限会社,長野県,東筑摩郡山形村,５０５４番地,,20,450,3901301,,,2024-12-13,清算の結了等,,,2015-10-05,1,,,,,アオヌマトソウ,0
1368,6120002000253,登記記録の閉鎖等,0,2024-12-18,2024-12-13,有限会社旭昇パック,,有限会社,大阪府,大阪市旭区,高殿４丁目１６番１号,,27,117,5350031,,,2024-12-13,清算の結了等,,,2015-10-05,1,,,,,キョクショウパック,0
1371,6120101057459,登記記録の閉鎖等,0,2024-12-18,2024-12-13,株式会社ＣＳカワカミ,,株式会社,大阪府,泉大津市,森町２丁目１１番７号,,27,206,5950005,,,2024-12-13,合併による解散等,4120101042231,令和６年１２月１日大阪府泉大津市森町二丁目１２番３７号株式会社川上自動車鈑金塗装（4120101042231）に合併し解散,2017-12-04,1,,,,,シーエスカワカミ,0
1374,6120901028832,登記記録の閉鎖等,0,2024-12-18,2024-12-12,株式会社ＩＤＥＡＳＩＩＮＥ,,株式会社,東京都,江東区,亀戸６丁目３番２号寺島ビル３０５号室,,13,108,1360071,,,2024-12-12,清算の結了等,,,2015-10-05,1,,,,,アイデアズイイネ,0
1379,6130001034359,登記記録の閉鎖等,0,2024-12-18,2024-12-16,株式会社ヤマモトホーム,,株式会社,京都府,宇治市,五ケ庄岡本１１番地３,,26,204,6110011,,,2024-12-16,清算の結了等,,,2015-10-05,1,,,,,,0
1389,6140001006778,登記記録の閉鎖等,0,2024-12-18,2024-12-13,株式会社カーアッシュ,,株式会社,兵庫県,神戸市中央区,栄町通３丁目１番７号栄町ビルディング,,28,110,6500023,,,2024-12-13,清算の結了等,,,2015-10-05,1,,,,,カーアッシュ,0
1399,6180001073848,登記記録の閉鎖等,0,2024-12-18,2024-12-10,株式会社岡鉄筋,,株式会社,愛知県,春日井市,長塚町１丁目９番地,,23,206,4860934,,,2024-12-10,清算の結了等,,,2015-10-05,1,,,,,オカテッキン,0
1404,6180001140185,登記記録の閉鎖等,0,2024-12-18,2024-12-11,株式会社マナ・マカナ,,株式会社,愛知県,名古屋市中村区,名駅３丁目４－１０アルティメイト名駅１ｓｔ２階,,23,105,4500002,,,2024-12-11,清算の結了等,,,2020-02-27,1,,,,,マナマカナ,0
1407,6180002011229,登記記録の閉鎖等,0,2024-12-18,2024-12-10,有限会社北薬調剤,,有限会社,愛知県,名古屋市北区,城東町１丁目３９番地の３,,23,103,4620831,,,2024-12-10,清算の結了等,,,2015-10-05,1,,,,,キタヤクチョウザイ,0
1408,6180002019445,登記記録の閉鎖等,0,2024-12-18,2024-12-12,有限会社丸八給食,,有限会社,愛知県,名古屋市中川区,吉津３丁目１７０１番地,,23,110,4540981,,,2024-12-12,清算の結了等,,,2015-10-05,1,,,,,マルハチキュウショク,0
1413,6180301020987,登記記録の閉鎖等,0,2024-12-18,2024-12-09,株式会社しゃるまん,,株式会社,愛知県,名古屋市千種区,今池５丁目３番３号－１ウインズいまいけ広小路５階,,23,101,4640850,,,2024-12-09,合併による解散等,7180001044534,令和６年１２月１日名古屋市北区成願寺一丁目６番Ａ－４３０３号株式会社イノテッグ企画（7180001044534）に合併し解散,2015-10-05,1,,,,,シャルマン,0
1424,6260005010500,登記記録の閉鎖等,0,2024-12-18,2024-12-13,一般社団法人早島まちづくり公社,,その他の設立登記法人,岡山県,都窪郡早島町,前潟２５番地,,33,423,7010303,,,2024-12-13,清算の結了等,,,2018-10-04,1,,,,,ハヤシママチヅクリコウシャ,0
1425,6270005000228,登記記録の閉鎖等,0,2024-12-18,2024-12-17,協同組合山陰商工信用,,その他の設立登記法人,鳥取県,鳥取市,二階町２丁目１１５番地,,31,201,6800033,,,2024-12-17,清算の結了等,,,2015-10-05,1,,,,,サンインショウコウシンヨウ,0
1439,6300001004930,登記記録の閉鎖等,0,2024-12-18,2024-12-16,株式会社白川会計,,株式会社,佐賀県,鹿島市,大字高津原７５０番地,,41,207,8491311,,,2024-12-16,清算の結了等,,,2015-10-05,1,,,,,シラカワカイケイ,0
1441,6310002004169,登記記録の閉鎖等,0,2024-12-18,2024-12-13,有限会社日栄湯,,有限会社,長崎県,長崎市,大浦町９番７号,,42,201,8500918,,,2024-12-13,清算の結了等,,,2015-10-05,1,,,,,ニチエイユ,0
1443,6320002007625,登記記録の閉鎖等,0,2024-12-18,2024-12-16,有限会社トーコー,,有限会社,大分県,大分市,新貝１２番５０パレスト高城エクシア２０５,,44,201,8700911,,,2024-12-16,清算の結了等,,,2015-10-05,1,,,,,,0
1458,6380002004014,登記記録の閉鎖等,0,2024-12-18,2024-12-06,ワイエス総合企画有限会社,,有限会社,福島県,福島市,南沢又字古舘３９番地の１１,,07,201,9608254,,,2024-12-06,清算の結了等,,,2015-10-05,1,,,,,ワイエスソウゴウキカク,0
1463,6400005004529,登記記録の閉鎖等,0,2024-12-18,2024-12-09,特定非営利活動法人ｅネット・リアス,,その他の設立登記法人,岩手県,釜石市,定内町１丁目１４番１５号,,03,211,0260053,,,2024-12-09,清算の結了等,,,2015-10-05,1,,,,,イーネットリアス,0
1475,6500002004827,登記記録の閉鎖等,0,2024-12-18,2024-12-16,有限会社冨永自動車工場,,有限会社,愛媛県,松山市,宮西２丁目９番４１号,,38,201,7900065,,,2024-12-16,清算の結了等,,,2015-10-05,1,,,,,トミナガジドウシャコウジョウ,0
1488,7010005012553,登記記録の閉鎖等,0,2024-12-18,2024-12-13,特定非営利活動法人地域安全マップ協会,,その他の設立登記法人,東京都,中央区,日本橋室町１丁目１３番１号ＤＫノア４Ｆ,,13,102,1030022,,,2024-12-13,清算の結了等,,,2015-10-05,1,,,,,チイキアンゼンマップキョウカイ,0
1496,7010102005006,登記記録の閉鎖等,0,2024-12-18,2024-12-12,有限会社中野製作所,,有限会社,東京都,八王子市,中野上町２丁目３１番１号,,13,201,1920041,,,2024-12-12,清算の結了等,,,2015-10-05,1,,,,,ナカノセイサクショ,0
1506,7010601057167,登記記録の閉鎖等,0,2024-12-18,2024-12-10,株式会社Ｒｅシンク,,株式会社,千葉県,浦安市,北栄１丁目１１番１号,,12,227,2790002,,,2024-12-10,清算の結了等,,,2020-04-06,1,,,,,リシンク,0
1526,7011201024020,登記記録の閉鎖等,0,2024-12-18,2024-12-16,株式会社ＣＬＯＶＥＲ,,株式会社,東京都,中野区,中野４丁目１番１号中野サンプラザ９階,,13,114,1640001,,,2024-12-16,清算の結了等,,,2022-08-08,1,,,,,クローバー,0
1529,7011202003106,登記記録の閉鎖等,0,2024-12-18,2024-12-13,有限会社新和印刷,,有限会社,東京都,中野区,弥生町５丁目１番１５号,,13,114,1640013,,,2024-12-13,清算の結了等,,,2015-10-05,1,,,,,シンワインサツ,0
1537,7012302002963,登記記録の閉鎖等,0,2024-12-18,2024-12-12,有限会社田中米穀店,,有限会社,東京都,町田市,旭町１丁目１５番１０号,,13,209,1940023,,,2024-12-12,清算の結了等,,,2015-10-05,1,,,,,タナカベイコクテン,0
1545,7012802006571,登記記録の閉鎖等,0,2024-12-18,2024-12-10,有限会社武蔵野綜合サービス,,有限会社,東京都,立川市,栄町４丁目３８番地の１４Ｋタウン立川３０３,,13,202,1900003,,,2024-12-10,清算の結了等,,,2015-10-05,1,,,,,ムサシノソウゴウサービス,0
1552,7020002047262,登記記録の閉鎖等,0,2024-12-18,2024-12-09,有限会社有誠商事,,有限会社,神奈川県,横浜市金沢区,釜利谷西２丁目６番１８号,,14,108,2360046,,,2024-12-09,清算の結了等,,,2015-10-05,1,,,,,ユウセイショウジ,0
1589,7110002006969,登記記録の閉鎖等,0,2024-12-18,2024-12-13,有限会社吉川急便,,有限会社,新潟県,新潟市東区,東明２丁目９番地２３,,15,102,9500853,,,2024-12-13,清算の結了等,,,2015-10-05,1,,,,,ヨシカワキュウビン,0
1597,7120002007504,登記記録の閉鎖等,0,2024-12-18,2024-12-16,有限会社山畑商店,,有限会社,大阪府,大阪市東成区,大今里西２丁目４番１４号,,27,115,5370014,,,2024-12-16,清算の結了等,,,2015-10-05,1,,,,,ヤマハタショウテン,0
1605,7120105003961,登記記録の閉鎖等,0,2024-12-18,2024-12-16,医療法人三雅会,,その他の設立登記法人,大阪府,高石市,取石６丁目１３番２２号,,27,225,5920013,,,2024-12-16,清算の結了等,,,2015-10-05,1,,,,,サンガカイ,0
1612,7130001050974,登記記録の閉鎖等,0,2024-12-18,2024-12-16,株式会社Ｍ・プロジェクト,,株式会社,京都府,京都市北区,西賀茂下庄田町１０２番地,,26,101,6038801,,,2024-12-16,清算の結了等,,,2015-10-05,1,,,,,エムプロジェクト,0
1625,7170001013102,登記記録の閉鎖等,0,2024-12-18,2024-12-09,オークス株式会社,,株式会社,東京都,北区,十条仲原３丁目２２番４号,,13,117,1140031,,,2024-12-09,清算の結了等,,,2015-10-05,1,,,,,オークス,0
1629,7180001113735,登記記録の閉鎖等,0,2024-12-18,2024-12-09,株式会社秀環,,株式会社,愛知県,名古屋市千種区,今池５丁目１０番１０号ウインズ今池３階,,23,101,4640850,,,2024-12-09,合併による解散等,7180001044534,令和６年１２月１日名古屋市北区成願寺一丁目６番Ａ－４３０３号株式会社イノテッグ企画（7180001044534）に合併し解散,2015-10-05,1,,,,,シュウワ,0
1634,7180002061702,登記記録の閉鎖等,0,2024-12-18,2024-12-11,有限会社愛知モータース,,有限会社,愛知県,愛知郡東郷町,大字春木字半ノ木２９８番地の６４,,23,302,4700162,,,2024-12-11,清算の結了等,,,2015-10-05,1,,,,,アイチモータース,0
1645,7200001014682,登記記録の閉鎖等,0,2024-12-18,2024-12-13,株式会社いづみや百貨店,,株式会社,岐阜県,不破郡関ケ原町,大字関ケ原９０４番地,,21,362,5031501,,,2024-12-13,清算の結了等,,,2015-10-05,1,,,,,イヅミヤヒャッカテン,0
1655,7240002038660,登記記録の閉鎖等,0,2024-12-18,2024-12-13,有限会社シラキ設備,,有限会社,広島県,福山市,神辺町字道上２９６０番地の２,,34,207,7202104,,,2024-12-13,清算の結了等,,,2015-10-05,1,,,,,シラキセツビ,0
1656,7240003003201,登記記録の閉鎖等,0,2024-12-18,2024-12-13,合同会社神村農園,,合同会社,広島県,福山市,藤江町４４０５番地１,,34,207,7200543,,,2024-12-13,清算の結了等,,,2016-02-05,1,,,,,カムラノウエン,0
1660,7250001019058,登記記録の閉鎖等,0,2024-12-18,2024-12-16,虹テクノ株式会社,,株式会社,山口県,光市,虹ケ丘６丁目１４番２６号,,35,210,7430031,,,2024-12-16,清算の結了等,,,2021-08-11,1,,,,,ニジテクノ,0
1677,7330001019149,登記記録の閉鎖等,0,2024-12-18,2024-12-10,伊津野建設株式会社,,株式会社,熊本県,人吉市,大畑麓町４１３２番地,,43,203,8680811,,,2024-12-10,清算の結了等,,,2015-10-05,1,,,,,イヅノケンセツ,0
1680,7340002005849,登記記録の閉鎖等,0,2024-12-18,2024-12-13,竹内建築板金塗装有限会社,,有限会社,鹿児島県,鹿児島市,谷山中央６丁目１７番３３号,,46,201,8910141,,,2024-12-13,清算の結了等,,,2015-10-05,1,,,,,タケウチケンチクバンキントソウ,0
1687,7400001012914,登記記録の閉鎖等,0,2024-12-18,2024-10-01,株式会社Ｎｅｘｕｓ,,株式会社,岩手県,盛岡市,大通２丁目７番１９号,,03,201,0200022,,,2024-10-01,合併による解散等,4400001004559,令和６年１０月１日岩手県盛岡市大通二丁目７番１９号株式会社マネジメント・ワン（4400001004559）に合併し解散,2015-10-05,1,,,,,ネクサス,0
1689,7420001010107,登記記録の閉鎖等,0,2024-12-18,2024-12-12,株式会社和光,,株式会社,青森県,平川市,新山早稲田１１５番地１,,02,210,0360231,,,2024-12-12,清算の結了等,,,2015-10-05,1,,,,,ワコウ,0
1699,7430003013569,登記記録の閉鎖等,0,2024-12-18,2024-12-13,合同会社リライアブル,,合同会社,北海道,札幌市手稲区,星置南３丁目３―３９―１０６,,01,109,0060050,,,2024-12-13,清算の結了等,,,2022-02-02,1,,,,,リライアブル,0
1704,7490003001592,登記記録の閉鎖等,0,2024-12-18,2024-12-13,合同会社ＢａＴＯＮ,,合同会社,高知県,高知市,桜井町１丁目１２番２号,,39,201,7800821,,,2024-12-13,清算の結了等,,,2021-10-12,1,,,,,バトン,0
1707,8010001050515,登記記録の閉鎖等,0,2024-12-18,2024-12-05,株式会社茶の木屋ビルデイング,,株式会社,東京都,中央区,日本橋室町３丁目２番１号,,13,102,1030022,,,2024-12-05,清算の結了等,,,2015-10-05,1,,,,,チャノキヤビルデイング,0
1708,8010001092664,登記記録の閉鎖等,0,2024-12-18,2024-10-01,株式会社ＵＡＣＪ押出加工,,株式会社,東京都,千代田区,大手町１丁目７番２号,,13,101,1000004,,,2024-10-01,合併による解散等,2010001154791,令和６年１０月１日東京都千代田区大手町一丁目７番２号株式会社ＵＡＣＪ鋳鍛（2010001154791）に合併し解散,2015-10-05,1,,,,,ユーエーシージェーオシダシカコウ,0
1719,8010401078164,登記記録の閉鎖等,0,2024-12-18,2024-12-04,株式会社スタジオゾリ,,株式会社,東京都,港区,六本木３丁目１３番３－３０２号,,13,103,1060032,,,2024-12-04,清算の結了等,,,2015-10-05,1,,,,,,0
1721,8010401176298,登記記録の閉鎖等,0,2024-12-18,2024-12-02,株式会社ＣＨＡＰＴＩＭ,,株式会社,東京都,港区,六本木７丁目１２－２Ｒ７ビルディングＳＰＡＣＥＳ六本木,,13,103,1060032,,,2024-12-02,合併による解散等,1011001123440,令和６年１２月１日東京都港区六本木七丁目１２番２号Ｒ７ビルディングＳＰＡＣＥＳ六本木ＳＡＩＣＯＯＬ株式会社（1011001123440）に合併し解散,2023-08-14,1,,,,,チャプティム,0
1724,8010403014547,登記記録の閉鎖等,0,2024-12-18,2024-12-03,合同会社竹山会計テクニカル研究所,,合同会社,東京都,港区,新橋２丁目１６番１号,,13,103,1050004,,,2024-12-03,清算の結了等,,,2016-03-15,1,,,,,タケヤマカイケイテクニカルケンキュウジョ,0
1725,8010403021683,登記記録の閉鎖等,0,2024-12-18,2024-12-03,東品川オフィスＭＬ合同会社,,合同会社,東京都,港区,六本木１丁目６番１号泉ガーデンタワー１２階,,13,103,1060032,,,2024-12-03,清算の結了等,,,2019-10-28,1,,,,,ヒガシシナガワオフィスエムエル,0
1754,8012402001468,登記記録の閉鎖等,0,2024-12-18,2024-12-16,有限会社住吉自動車,00058049,有限会社,東京都,府中市,四谷２丁目２番地の２,,13,206,1830035,,,2024-12-16,清算の結了等,,,2015-10-05,1,,,,,スミヨシジドウシャ,0
1772,8020002016506,登記記録の閉鎖等,0,2024-12-18,2024-12-06,有限会社河野印刷,,有限会社,神奈川県,横浜市瀬谷区,北町１番地４,,14,114,2460002,,,2024-12-06,清算の結了等,,,2015-10-05,1,,,,,コウノインサツ,0
1775,8021001022247,登記記録の閉鎖等,0,2024-12-18,2024-12-16,株式会社あいなライフネット,,株式会社,神奈川県,厚木市,愛名１２番地２,,14,212,2430038,,,2024-12-16,清算の結了等,,,2015-10-05,1,,,,,アイナライフネット,0
1778,8021001083512,登記記録の閉鎖等,0,2024-12-18,2024-12-13,シューワ興業株式会社,,株式会社,神奈川県,相模原市,中央３丁目７番１２号,,14,209,2290039,,,2024-12-13,清算の結了等,,,2024-10-22,1,,,,,シューワコウギョウ,0
1783,8021003010258,登記記録の閉鎖等,0,2024-12-18,2024-12-16,合同会社ｎｅｎｎｅ,,合同会社,神奈川県,藤沢市,鵠沼神明５丁目１２番２７号,,14,205,2510021,,,2024-12-16,清算の結了等,,,2021-03-18,1,,,,,ネンネ,0
1814,8060001031089,登記記録の閉鎖等,0,2024-12-18,2024-12-11,株式会社アクア,,株式会社,栃木県,宇都宮市,白沢町５７２番地１,,09,201,3291102,,,2024-12-11,清算の結了等,,,2018-11-15,1,,,,,アクア,0
1816,8060002010034,登記記録の閉鎖等,0,2024-12-18,2024-12-11,有限会社都市研究所ケイプラン,,有限会社,栃木県,宇都宮市,上戸祭町２９１０番地９６,,09,201,3200051,,,2024-12-11,清算の結了等,,,2015-10-05,1,,,,,トシケンキュウジョケイプラン,0
1818,8070002032218,登記記録の閉鎖等,0,2024-12-18,2024-12-17,有限会社エイジーオー,,有限会社,群馬県,太田市,新島町７２７番地,,10,205,3730819,,,2024-12-17,清算の結了等,,,2015-10-05,1,,,,,エイジーオー,0
1829,8110002006910,登記記録の閉鎖等,0,2024-12-18,2024-12-12,有限会社幸村,,有限会社,新潟県,新潟市中央区,上大川前通７番町１２４１番地１,,15,103,9518068,,,2024-12-12,清算の結了等,,,2015-10-05,1,,,,,ユキムラ,0
1833,8120001187825,登記記録の閉鎖等,0,2024-12-18,2024-12-13,株式会社鈴屋白衣大阪,,株式会社,大阪府,大阪市此花区,西九条１丁目１８番５号,,27,104,5540012,,,2024-12-13,清算の結了等,,,2015-10-05,1,,,,,,0
1842,8120002001984,登記記録の閉鎖等,0,2024-12-18,2024-12-11,有限会社正気屋,,有限会社,大阪府,大阪市西成区,鶴見橋３丁目６番８号,,27,122,5570031,,,2024-12-11,清算の結了等,,,2015-10-05,1,,,,,ショウキヤ,0
1843,8120002048852,登記記録の閉鎖等,0,2024-12-18,2024-12-13,有限会社ワンズジョブ,,有限会社,大阪府,大阪市西区,千代崎２丁目１７番１５号,,27,106,5500023,,,2024-12-13,清算の結了等,,,2015-10-05,1,,,,,,0
1848,8120902018351,登記記録の閉鎖等,0,2024-12-18,2024-12-12,宏和不動産有限会社,,有限会社,大阪府,豊中市,庄内東町２丁目７番２１号,,27,203,5610831,,,2024-12-12,清算の結了等,,,2015-10-05,1,,,,,コウワフドウサン,0
1853,8130001069717,登記記録の閉鎖等,0,2024-12-18,2024-12-17,株式会社サンド,,株式会社,京都府,京都市南区,東九条西山王町９－１,,26,107,6018003,,,2024-12-17,清算の結了等,,,2021-07-15,1,,,,,サンド,0
1859,8140001093220,登記記録の閉鎖等,0,2024-12-18,2024-12-13,Ｌｉｃ株式会社,,株式会社,兵庫県,西宮市,甲風園３丁目９番１２号,,28,204,6620832,,,2024-12-13,清算の結了等,,,2015-10-05,1,,,,,リック,0
1862,8150001010991,登記記録の閉鎖等,0,2024-12-18,2024-12-16,株式会社水口銘木店,,株式会社,奈良県,橿原市,曲川町６丁目１６番９号,,29,205,6340837,,,2024-12-16,清算の結了等,,,2015-10-05,1,,,,,ミズグチメイボクテン,0
1869,8170005000145,登記記録の閉鎖等,0,2024-12-18,2024-12-17,和歌山県家畜商業協同組合,,その他の設立登記法人,和歌山県,和歌山市,出島３番地,,30,201,6408306,,,2024-12-17,清算の結了等,,,2015-10-05,1,,,,,ワカヤマケンカチクショウギョウ,0
1870,8180001053278,登記記録の閉鎖等,0,2024-12-18,2024-12-13,株式会社中部イトウ商事運輸,,株式会社,愛知県,名古屋市中村区,名駅南１丁目１６番２５号,,23,105,4500003,,,2024-12-13,合併による解散等,4120901009487,令和６年１２月１日大阪府摂津市鳥飼中三丁目３番１７号株式会社滋賀・大阪イトウ商事運輸（4120901009487）に合併し解散,2015-10-05,1,,,,,チュウブイトウショウジウンユ,0
1872,8180001089529,登記記録の閉鎖等,0,2024-12-18,2024-12-09,株式会社きらぼし,,株式会社,愛知県,名古屋市千種区,今池５丁目３番３号－１ウインズいまいけ広小路５階,,23,101,4640850,,,2024-12-09,合併による解散等,7180001044534,令和６年１２月１日名古屋市北区成願寺一丁目６番Ａ－４３０３号株式会社イノテッグ企画（7180001044534）に合併し解散,2015-10-05,1,,,,,キラボシ,0
1873,8180001096070,登記記録の閉鎖等,0,2024-12-18,2024-12-10,Ｆ＆Ａｍａｐｓ株式会社,,株式会社,愛知県,知多郡武豊町,大字東大高字豊倉新田１０番地１イーメゾンズ豊倉４０７号,,23,447,4702521,,,2024-12-10,清算の結了等,,,2015-10-05,1,,,,,エフアンドエーマップス,0
1877,8180001145298,登記記録の閉鎖等,0,2024-12-18,2024-12-09,株式会社一番,,株式会社,愛知県,名古屋市千種区,今池５丁目３番３号－１ウインズいまいけ広小路３Ｆ,,23,101,4640850,,,2024-12-09,合併による解散等,7180001044534,令和６年１２月１日名古屋市北区成願寺一丁目６番Ａ－４３０３号株式会社イノテッグ企画（7180001044534）に合併し解散,2021-03-24,1,,,,,イチバン,0
1885,8180002085072,登記記録の閉鎖等,0,2024-12-18,2024-12-10,有限会社久井産業,,有限会社,愛知県,大府市,若草町４丁目４５番地,,23,223,4740022,,,2024-12-10,清算の結了等,,,2015-10-05,1,,,,,ヒサイサンギョウ,0
1891,8180302016090,登記記録の閉鎖等,0,2024-12-18,2024-12-12,有限会社龍勢丸砂利,,有限会社,愛知県,蒲郡市,三谷北通２丁目１７２番地,,23,214,4430022,,,2024-12-12,清算の結了等,,,2015-10-05,1,,,,,リュウセイマルジャリ,0
1894,8180305002377,登記記録の閉鎖等,0,2024-12-18,2024-12-12,医療法人横山皮膚科,,その他の設立登記法人,愛知県,豊橋市,曙町字松並２９番地の４,,23,201,4418151,,,2024-12-12,清算の結了等,,,2015-10-05,1,,,,,ヨコヤマヒフカ,0
1898,8230002009785,登記記録の閉鎖等,0,2024-12-18,2024-12-12,有限会社高野自動車整備工場,00079134,有限会社,富山県,南砺市,福光１４１３番地の４,,16,210,9391610,,,2024-12-12,清算の結了等,,,2015-10-05,1,,,,,タカノジドウシャセイビコウジョウ,0
1932,8370001006118,登記記録の閉鎖等,0,2024-12-18,2024-12-11,株式会社マルイフーズ,,株式会社,宮城県,仙台市宮城野区,扇町６丁目３番６号,,04,102,9830034,,,2024-12-11,清算の結了等,,,2015-10-05,1,,,,,マルイフーズ,0
1934,8380001032848,登記記録の閉鎖等,0,2024-12-18,2024-12-04,株式会社いまう,,株式会社,福島県,いわき市,泉町滝尻字東越地４２番地の１,,07,204,9718182,,,2024-12-04,清算の結了等,,,2022-05-31,1,,,,,イマウ,0
1942,8430001068770,登記記録の閉鎖等,0,2024-12-18,2024-12-16,株式会社ＩＮＣワークス,,株式会社,北海道,札幌市白石区,菊水元町七条２丁目７－１２,,01,104,0030827,,,2024-12-16,清算の結了等,,,2015-10-05,1,,,,,アイエヌシーワークス,0
1947,8440003000838,登記記録の閉鎖等,0,2024-12-18,2024-12-05,サヴァサヴァ合同会社,,合同会社,北海道,二海郡八雲町,落部２０２番地,,01,346,0492562,,,2024-12-05,清算の結了等,,,2015-10-05,1,,,,,サヴァサヴァ,0
1955,8500001007548,登記記録の閉鎖等,0,2024-12-18,2024-12-17,株式会社クレド,,株式会社,滋賀県,大津市,黒津２丁目２番１３号,,25,201,5202279,,,2024-12-17,清算の結了等,,,2015-10-05,1,,,,,クレド,0
1958,9010001238316,登記記録の閉鎖等,0,2024-12-18,2024-12-13,株式会社マインドポジション,,株式会社,静岡県,浜松市中央区,西ケ崎町１６４１－５,,22,138,4313115,,,2024-12-13,清算の結了等,,,2023-09-08,1,,,,,マインドポジション,0
1969,9010401153949,登記記録の閉鎖等,0,2024-12-18,2024-12-03,株式会社Ｌｏｏｐｅｒ,,株式会社,東京都,港区,六本木３丁目２－１住友不動産六本木グランドタワー,,13,103,1060032,,,2024-12-03,清算の結了等,,,2020-07-13,1,,,,,ルーパー,0
1970,9010401154419,登記記録の閉鎖等,0,2024-12-18,2024-12-03,株式会社セカンドモーメント,,株式会社,東京都,港区,南青山１丁目１番１号新青山ビル西館７階,,13,103,1070062,,,2024-12-03,清算の結了等,,,2020-08-07,1,,,,,セカンドモーメント,0
1971,9010401163254,登記記録の閉鎖等,0,2024-12-18,2024-12-02,株式会社ログポート,,株式会社,東京都,港区,虎ノ門５丁目９番１号,,13,103,1050001,,,2024-12-02,清算の結了等,,,2021-10-14,1,,,,,ログポート,0
1977,9010403012789,登記記録の閉鎖等,0,2024-12-18,2024-12-03,ＨＷソーラーパワー２合同会社,,合同会社,東京都,港区,芝４丁目１０番１号,,13,103,1080014,,,2024-12-03,清算の結了等,,,2015-10-05,1,,,,,エイチダブリューソーラーパワーニ,0
1981,9010602012350,登記記録の閉鎖等,0,2024-12-18,2024-12-11,有限会社常弘電気工事,,有限会社,東京都,墨田区,立川４丁目１５番５－７０２号,,13,107,1300023,,,2024-12-11,清算の結了等,,,2015-10-05,1,,,,,ジョウグデンキコウジ,0
1982,9010701043239,登記記録の閉鎖等,0,2024-12-18,2024-12-06,株式会社Ｏ,,株式会社,東京都,豊島区,東池袋１丁目３６－７アルテール池袋６１４,,13,116,1700013,,,2024-12-06,清算の結了等,,,2022-09-26,1,,,,,オー,0
1988,9010901012893,登記記録の閉鎖等,0,2024-12-18,2024-12-09,菱和コンサルタンツ株式会社,,株式会社,東京都,世田谷区,深沢１丁目３８番１０号,,13,112,1580081,,,2024-12-09,清算の結了等,,,2015-10-05,1,,,,,,0
2001,9011302000125,登記記録の閉鎖等,0,2024-12-18,2024-12-16,有限会社アーク,,有限会社,東京都,杉並区,堀ノ内２丁目６番２１－Ｃ００１号,,13,115,1660013,,,2024-12-16,清算の結了等,,,2015-10-05,1,,,,,アーク,0
2055,9080401026280,登記記録の閉鎖等,0,2024-12-18,2024-12-12,株式会社ｃｏｎｎｅｃｔ,,株式会社,静岡県,浜松市中央区,海老塚町８５０番地－２１１号室,,22,138,4328032,,,2024-12-12,清算の結了等,,,2023-01-30,1,,,,,コネクト,0
2061,9090002005170,登記記録の閉鎖等,0,2024-12-18,2024-12-12,有限会社音琴商事,,有限会社,山梨県,甲府市,中央２丁目１３番２０号川上ビル,,19,201,4000032,,,2024-12-12,清算の結了等,,,2015-10-05,1,,,,,オゴトショウジ,0
2066,9110002008022,登記記録の閉鎖等,0,2024-12-18,2024-12-12,有限会社木了食肉店,,有限会社,新潟県,新潟市江南区,東本町４丁目２番１号,,15,104,9500126,,,2024-12-12,清算の結了等,,,2015-10-05,1,,,,,キリョウショクニクテン,0
2068,9120001181133,登記記録の閉鎖等,0,2024-12-18,2024-12-16,株式会社Ｌａｉｋａ＆Ｃｏｍｐａｎｙ,,株式会社,大阪府,大阪市生野区,新今里６丁目１１番１７－４０２号,,27,116,5440001,,,2024-12-16,清算の結了等,,,2015-10-05,1,,,,,ライカアンドカンパニー,0
2080,9120002012056,登記記録の閉鎖等,0,2024-12-18,2024-12-13,有限会社マザキ店装,,有限会社,大阪府,大阪市平野区,加美東１丁目３番１９号,,27,126,5470002,,,2024-12-13,清算の結了等,,,2015-10-05,1,,,,,マザキテンソウ,0
2101,9150001001156,登記記録の閉鎖等,0,2024-12-18,2024-12-16,株式会社ソフトワークスアスカ,,株式会社,奈良県,奈良市,西包永町３１番地日興奈良公園スカイマンション５０１号,,29,201,6308287,,,2024-12-16,清算の結了等,,,2015-10-05,1,,,,,ソフトワークスアスカ,0
2109,9180001091938,登記記録の閉鎖等,0,2024-12-18,2024-12-10,株式会社新美,,株式会社,愛知県,半田市,栄町１丁目１３番地,,23,205,4750846,,,2024-12-10,清算の結了等,,,2015-10-05,1,,,,,ニイミ,0
2116,9180002063473,登記記録の閉鎖等,0,2024-12-18,2024-12-10,有限会社名川ガラス,,有限会社,愛知県,長久手市,菖蒲池１０１２番地,,23,238,4801115,,,2024-12-10,清算の結了等,,,2015-10-05,1,,,,,ナガワガラス,0
2123,9180302024373,登記記録の閉鎖等,0,2024-12-18,2024-12-12,有限会社古賀設計,,有限会社,愛知県,豊田市,西中山町十七屋４番地８１,,23,211,4700431,,,2024-12-12,清算の結了等,,,2015-10-05,1,,,,,コガセッケイ,0
2127,9210001011504,登記記録の閉鎖等,0,2024-12-18,2024-12-12,株式会社大野屋,,株式会社,福井県,越前市,本町６番１号,,18,209,9150823,,,2024-12-12,清算の結了等,,,2015-10-05,1,,,,,オオノヤ,0
2137,9260001031349,登記記録の閉鎖等,0,2024-12-18,2024-12-02,株式会社マルシン,,株式会社,岡山県,総社市,北溝手４０８番地４７,,33,208,7191117,,,2024-12-02,合併による解散等,5260001036046,令和６年１２月１日岡山県倉敷市中島４７７－８クラセン株式会社（5260001036046）に合併し解散,2017-10-13,1,,,,,マルシン,0
2144,9340002003883,登記記録の閉鎖等,0,2024-12-18,2024-12-12,有限会社光洋テント工業,,有限会社,鹿児島県,鹿児島市,新栄町１番１号,,46,201,8900072,,,2024-12-12,清算の結了等,,,2015-10-05,1,,,,,コウヨウテントコウギョウ,0
2156,9380002022137,登記記録の閉鎖等,0,2024-12-18,2024-12-06,有限会社いわき花壇,,有限会社,福島県,いわき市,内郷高坂町桜井９３番地の１８８,,07,204,9738408,,,2024-12-06,清算の結了等,,,2015-10-05,1,,,,,イワキカダン,0
2159,9420001009709,登記記録の閉鎖等,0,2024-12-18,2024-12-11,株式会社エフケーリンク,,株式会社,青森県,弘前市,大字大清水４丁目９番地３,,02,202,0368161,,,2024-12-11,清算の結了等,,,2015-10-05,1,,,,,エフケーリンク,0
2167,9430003009895,登記記録の閉鎖等,0,2024-12-18,2024-12-16,合同会社ＲＥＶＩＶＡＬ・ＬＩＦＥ,,合同会社,北海道,小樽市,最上１丁目３３番１７号,,01,203,0470023,,,2024-12-16,清算の結了等,,,2018-11-21,1,,,,,リバイバルライフ,0
2169,9450001010390,登記記録の閉鎖等,0,2024-12-18,2024-12-10,株式会社みんとさーびす,,株式会社,北海道,旭川市,神居三条１８丁目３番８号,,01,204,0708013,,,2024-12-10,合併による解散等,5450001012556,令和６年１２月１０日北海道旭川市神楽二条五丁目２番１５－２号株式会社ハピネス（5450001012556）に合併し解散,2015-10-05,1,,,,,ミントサービス,0
2174,9500002021836,登記記録の閉鎖等,0,2024-12-18,2024-12-12,有限会社フレンドケイ,,有限会社,愛媛県,四国中央市,金生町下分２２２番地２６,,38,213,7990111,,,2024-12-12,清算の結了等,,,2015-10-05,1,,,,,フレンドケイ,0
