sequenceNumber,corporateNumber,process,correct,updateDate,changeDate,name,nameImageId,kind,prefectureName,cityName,streetNumber,addressImageId,prefectureCode,cityCode,postCode,addressOutside,addressOutsideImageId,closeDate,closeCause,successorCorporateNumber,changeCause,assignmentDate,latest,enName,enPrefectureName,enCityName,enAddressOutside,furigana,hihyoji
9,1010001232961,新規,0,2023-02-14,2023-02-14,株式会社Ａｌｍｏｎｄｏ,,株式会社,東京都,文京区,本郷２丁目３５番１０号本郷瀬川ビル４Ｆ,,13,105,1130033,,,,,,,2023-02-14,1,,,,,アーモンド,0
20,1010401171834,新規,0,2023-02-14,2023-02-14,株式会社３１５６ｓｔｕｄｉｏ,,株式会社,東京都,港区,南青山２丁目２番１５号ウィン青山１２１４号,,13,103,1070062,,,,,,,2023-02-14,1,,,,,サイコロスタジオ,0
21,1010401172270,新規,0,2023-02-14,2023-02-14,株式会社ＣＢホールディングス,,株式会社,東京都,港区,赤坂２丁目１８番１４号赤坂ＳＴビル２階,,13,103,1070052,,,,,,,2023-02-14,1,,,,,シービーホールディングス,0
25,1010405021812,新規,0,2023-02-14,2023-02-14,ＹＡＹＯＩ一般社団法人,,その他の設立登記法人,東京都,港区,赤坂２丁目１０番５号税理士法人赤坂国際会計事務所内,,13,103,1070052,,,,,,,2023-02-14,1,,,,,ヤヨイ,0
27,1010601062610,新規,0,2023-02-14,2023-02-14,株式会社オレンジツアー,,株式会社,東京都,江東区,門前仲町１丁目１６番５号,,13,108,1350048,,,,,,,2023-02-14,1,,,,,オレンジツアー,0
40,1010903007973,新規,0,2023-02-14,2023-02-14,フォルスコンサルティング合同会社,,合同会社,東京都,世田谷区,駒沢２丁目７番１号－２１５号,,13,112,1540012,,,,,,,2023-02-14,1,,,,,フォルスコンサルティング,0
55,1011001152588,新規,0,2023-02-14,2023-02-14,株式会社Ｆｒｏｍ１．,,株式会社,東京都,目黒区,上目黒３丁目１９番１５－１０６号ＬＡＭＩＡＣＡＳＡＮＡＫＡＭＥＧＵＲＯ,,13,110,1530051,,,,,,,2023-02-14,1,,,,,フロムワン,0
56,1011001152605,新規,0,2023-02-14,2023-02-14,ＡＮＮＩＮ株式会社,,株式会社,東京都,渋谷区,桜丘町１７番１２号渋谷ジョンソンビル４０１,,13,113,1500031,,,,,,,2023-02-14,1,,,,,アンニン,0
60,1011003016254,新規,0,2023-02-14,2023-02-14,合同会社ステディリィ,,合同会社,東京都,渋谷区,代々木３丁目５９番１１号ブランズ代々木参宮橋５０５,,13,113,1510053,,,,,,,2023-02-14,1,,,,,ステディリィ,0
61,1011003016270,新規,0,2023-02-14,2023-02-14,親子のサードスペース合同会社,,合同会社,東京都,目黒区,下目黒２丁目９番２－２０９号パークホームズ目黒ザレジデンス,,13,110,1530064,,,,,,,2023-02-14,1,,,,,オヤコノサードスペース,0
69,1011103012665,新規,0,2023-02-14,2023-02-14,合同会社エントシャイン,,合同会社,東京都,新宿区,歌舞伎町２丁目１－２ＨＡＮＲＯＫＵビル８階,,13,104,1600021,,,,,,,2023-02-14,1,,,,,エントシャイン,0
70,1011201024414,新規,0,2023-02-14,2023-02-14,易成株式会社,,株式会社,東京都,中野区,若宮２丁目５番２０号コートハウス都立家政２０５,,13,114,1650033,,,,,,,2023-02-14,1,,,,,イセ,0
90,1013301050323,新規,0,2023-02-14,2023-02-14,株式会社ＳＩＯ,,株式会社,東京都,豊島区,東池袋３丁目１番４号メゾンサンシャイン１１５０室,,13,116,1700013,,,,,,,2023-02-14,1,,,,,エスアイオー,0
92,1013303006496,新規,0,2023-02-14,2023-02-14,合同会社琴,,合同会社,東京都,豊島区,東池袋２丁目３２番２０号１００１号室,,13,116,1700013,,,,,,,2023-02-14,1,,,,,コト,0
97,1020003023235,新規,0,2023-02-14,2023-02-14,ＴＥＴＥＩ合同会社,,合同会社,神奈川県,川崎市宮前区,有馬８丁目５番１１－５０６号,,14,136,2160003,,,,,,,2023-02-14,1,,,,,テテイ,0
102,1021003012756,新規,0,2023-02-14,2023-02-14,合同会社イシカワ,,合同会社,神奈川県,高座郡寒川町,大曲４丁目８番２３号,,14,321,2530113,,,,,,,2023-02-14,1,,,,,イシカワ,0
107,1030001152398,新規,0,2023-02-14,2023-02-14,株式会社北川,,株式会社,埼玉県,川口市,戸塚東４丁目２番１０号サンシティ東川口１０５号,,11,203,3330802,,,,,,,2023-02-14,1,,,,,,0
114,1040001127085,新規,0,2023-02-14,2023-02-14,ウルフテイル株式会社,,株式会社,千葉県,白井市,南山１丁目２番３号アーバンエクセルＣ棟５０４室,,12,232,2701423,,,,,,,2023-02-14,1,,,,,ウルフテイル,0
115,1040001127093,新規,0,2023-02-14,2023-02-14,シエンティア株式会社,,株式会社,千葉県,市川市,妙典４丁目１１番３０－５０７号,,12,203,2720111,,,,,,,2023-02-14,1,,,,,シエンティア,0
120,1040003021922,新規,0,2023-02-14,2023-02-14,合同会社房総サンフラワー,,合同会社,千葉県,長生郡長南町,棚毛２３０番地,,12,427,2970105,,,,,,,2023-02-14,1,,,,,ボウソウサンフラワー,0
124,1050003007243,新規,0,2023-02-14,2023-02-14,合同会社ＹＡＭＡＴＯ,,合同会社,茨城県,坂東市,半谷１９１５,,08,228,3060651,,,,,,,2023-02-14,1,,,,,ヤマト,0
127,1070001040129,新規,0,2023-02-14,2023-02-14,株式会社ＭｉＲＡｉＴｉ,,株式会社,群馬県,館林市,松原３丁目６番地の１２,,10,207,3740016,,,,,,,2023-02-14,1,,,,,ミライチ,0
131,1080105006314,新規,0,2023-02-14,2023-02-14,特定非営利活動法人ＬＩＣＡ,,その他の設立登記法人,静岡県,富士市,宮島２３１番地の６,,22,210,4160945,,,,,,,2023-02-14,1,,,,,ライカ,0
133,1080401026321,新規,0,2023-02-14,2023-02-14,株式会社中村総建,,株式会社,静岡県,掛川市,倉真８８０番地,,22,213,4360341,,,,,,,2023-02-14,1,,,,,ナカムラソウケン,0
137,1100001036156,新規,0,2023-02-14,2023-02-14,株式会社アイマニ,,株式会社,長野県,塩尻市,大門八番町１－２８スナバ,,20,215,3990737,,,,,,,2023-02-14,1,,,,,アイマニ,0
151,1120101066720,新規,0,2023-02-14,2023-02-14,ＤＡＩ株式会社,,株式会社,大阪府,堺市堺区,甲斐町東１丁２番２０号,,27,141,5900953,,,,,,,2023-02-14,1,,,,,ダイ,0
153,1120905006426,新規,0,2023-02-14,2023-02-14,医療法人一清会,,その他の設立登記法人,大阪府,高槻市,城北町２丁目１０番２０号,,27,207,5690071,,,,,,,2023-02-14,1,,,,,イッシンカイ,0
160,1140001129113,新規,0,2023-02-14,2023-02-14,創生テック株式会社,,株式会社,兵庫県,尼崎市,潮江１丁目１１番１－１３０６号,,28,202,6610976,,,,,,,2023-02-14,1,,,,,ソウセイテック,0
161,1140001129121,新規,0,2023-02-14,2023-02-14,株式会社八・光龍,,株式会社,兵庫県,加古川市,八幡町下村８９０番地の１,,28,210,6751203,,,,,,,2023-02-14,1,,,,,ハッコウリュウ,0
164,1140003018719,新規,0,2023-02-14,2023-02-14,Ｃｏｒｅｒｉｓｅ合同会社,,合同会社,兵庫県,宍粟市,山崎町段８５８番地２,,28,227,6712552,,,,,,,2023-02-14,1,,,,,コアライズ,0
170,1180001154982,新規,0,2023-02-14,2023-02-14,株式会社サイツ塗装,,株式会社,愛知県,名古屋市天白区,西入町１０２番地の５,,23,116,4680039,,,,,,,2023-02-14,1,,,,,サイツトソウ,0
171,1180001154990,新規,0,2023-02-14,2023-02-14,ミッカー鋼材株式会社,,株式会社,愛知県,名古屋市緑区,滝ノ水１丁目１８０２番地,,23,114,4580021,,,,,,,2023-02-14,1,,,,,ミッカーコウザイ,0
172,1180001154999,新規,0,2023-02-14,2023-02-14,株式会社はた楽,,株式会社,愛知県,瀬戸市,八幡台８丁目１５９番地,,23,204,4890861,,,,,,,2023-02-14,1,,,,,ハタラク,0
175,1180003024845,新規,0,2023-02-14,2023-02-14,ＬＣＫ合同会社,,合同会社,愛知県,名古屋市北区,山田２丁目３番２２号－１００５号,,23,103,4620810,,,,,,,2023-02-14,1,,,,,エルシーケイ,0
183,1200001040957,新規,0,2023-02-14,2023-02-14,株式会社シビルプラン,,株式会社,岐阜県,本巣市,神海３２３番地２,,21,218,5011235,,,,,,,2023-02-14,1,,,,,シビルプラン,0
185,1220001025254,新規,0,2023-02-14,2023-02-14,株式会社大徳商事,,株式会社,石川県,金沢市,大野町４丁目レ４０番１６９,,17,201,9200331,,,,,,,2023-02-14,1,,,,,ダイトクショウジ,0
186,1220001025270,新規,0,2023-02-14,2023-02-14,株式会社ＣＬＡＳＳ,,株式会社,石川県,小松市,八幡町７１番地３,,17,203,9230954,,,,,,,2023-02-14,1,,,,,クラス,0
191,1240001061090,新規,0,2023-02-14,2023-02-14,株式会社神原ＦＰ,,株式会社,広島県,広島市安佐南区,東原３丁目１６番１０－６号,,34,105,7310112,,,,,,,2023-02-14,1,,,,,カンバラエフピー,0
193,1250003003222,新規,0,2023-02-14,2023-02-14,合同会社リハスタイル,,合同会社,山口県,周南市,藤ヶ台２丁目２番１５号,,35,215,7450618,,,,,,,2023-02-14,1,,,,,リハスタイル,0
201,1290001100546,新規,0,2023-02-14,2023-02-14,株式会社コウスケ,,株式会社,福岡県,福岡市南区,大池１丁目１１番１５号,,40,134,8150073,,,,,,,2023-02-14,1,,,,,コウスケ,0
202,1290001100562,新規,0,2023-02-14,2023-02-14,株式会社福あーる訪問看護リハビリステーション,,株式会社,福岡県,福岡市博多区,博多駅前４丁目１８番１９号,,40,132,8120011,,,,,,,2023-02-14,1,,,,,フクアールホウモンカイゴリハビリステーション,0
203,1290001100570,新規,0,2023-02-14,2023-02-14,株式会社Ｇｌａｄ,,株式会社,福岡県,福岡市中央区,天神３丁目９番１０号天神松井ビル４０２号室,,40,133,8100001,,,,,,,2023-02-14,1,,,,,グラッド,0
205,1290003013523,新規,0,2023-02-14,2023-02-14,合同会社ＡＬＴ,,合同会社,福岡県,福岡市中央区,天神２丁目２番１２号Ｔ＆Ｊビルディング７Ｆ,,40,133,8100001,,,,,,,2023-02-14,1,,,,,オルト,0
210,1290803004341,新規,0,2023-02-14,2023-02-14,合同会社テトラアーチ,,合同会社,福岡県,北九州市小倉北区,神岳１丁目１番４４‐３号,,40,106,8020045,,,,,,,2023-02-14,1,,,,,テトラアーチ,0
211,1310003004511,新規,0,2023-02-14,2023-02-14,合同会社アドバンス,,合同会社,長崎県,佐世保市,木場田町３番３１号ビバシティ佐世保セントラルコート２０３号,,42,202,8570041,,,,,,,2023-02-14,1,,,,,アドバンス,0
213,1330001030598,新規,0,2023-02-14,2023-02-14,株式会社Ａｚｕｍａ,,株式会社,熊本県,八代市,西片町１９７６番地,,43,202,8660811,,,,,,,2023-02-14,1,,,,,アズマ,0
215,1330003009723,新規,0,2023-02-14,2023-02-14,合同会社海苔軍団,,合同会社,熊本県,熊本市西区,沖新町４８４３番地１,,43,103,8615273,,,,,,,2023-02-14,1,,,,,ノリグンダン,0
218,1350001018187,新規,0,2023-02-14,2023-02-14,ｍｍｃ．株式会社,,株式会社,宮崎県,宮崎市,源藤町堤下５０４番地２,,45,201,8800927,,,,,,,2023-02-14,1,,,,,エムエムシードット,0
221,1370001049593,新規,0,2023-02-14,2023-02-14,株式会社トータルサービス,,株式会社,宮城県,石巻市,前谷地字兀山谷地１９番地６,,04,202,9871101,,,,,,,2023-02-14,1,,,,,トータルサービス,0
226,1390001017160,新規,0,2023-02-14,2023-02-14,株式会社いちまん,,株式会社,山形県,南陽市,蒲生田１３７７－２１,,06,213,9992261,,,,,,,2023-02-14,1,,,,,イチマン,0
227,1410001013396,新規,0,2023-02-14,2023-02-14,クウネル株式会社,,株式会社,秋田県,秋田市,広面字鍋沼２７番地９,,05,201,0100041,,,,,,,2023-02-14,1,,,,,クウネル,0
232,1430001088429,新規,0,2023-02-14,2023-02-14,株式会社Ｆｏｒｅｓｉｇｈｔ,,株式会社,北海道,滝川市,江部乙町１８２９番地５１,,01,225,0790461,,,,,,,2023-02-14,1,,,,,フォーサイト,0
233,1430001088437,新規,0,2023-02-14,2023-02-14,株式会社ユージーン,,株式会社,北海道,札幌市東区,北三十一条東１６丁目４番３－１０３号,,01,103,0650031,,,,,,,2023-02-14,1,,,,,ユージーン,0
234,1430001088445,新規,0,2023-02-14,2023-02-14,株式会社わのまま,,株式会社,北海道,札幌市中央区,南四条東２丁目６番地３まさくらビル,,01,101,0600054,,,,,,,2023-02-14,1,,,,,ワノママ,0
242,1500001024764,新規,0,2023-02-14,2023-02-14,株式会社エニーシステム,,株式会社,愛媛県,西条市,朔日市８９３番地１７,,38,206,7930027,,,,,,,2023-02-14,1,,,,,エニーシステム,0
248,1700150114305,新規,0,2023-02-14,2023-02-14,Ｄａｌｉａｎ　Ｃｈｅｎｇｐｉｎｋｅｊｉ　ｙｏｕｘｉａｎｇｏｎｇｓｉ,,外国会社等,,,,,,,,Ｇａｏｘｉｎｊｉｅ１ｈａｏ，５ｃｅｎｇ５１７ｆａｎｇｊｉａｎ，Ｇａｏｘｉｎｊｉｓｈｕｃｈａｎｙｅｙｕａｎｑｕ，Ｄａｌｉａｎ，Ｌｉａｏｎｉｎｇ,,,,,,2023-02-14,1,,,,,ダイレンセイヒンカギユウゲンコウシ,0
249,1700150114313,新規,0,2023-02-14,2023-02-14,ｈａｉｎａｎｆｕｌｅｒｕｉ　ｇｕｏｊｉｍａｏｙｉ　ｙｏｕｘｉａｎｚｅｒｅｎｇｏｎｇｓｉ,,外国会社等,,,,,,,,Ａ１－７，５Ｆ，Ｇｕｏａｎ　Ｂｕｉｌｄｉｎｇ，Ｎｏ．１３，Ｇｕｏｍａｏ　Ｎｏｒｔｈ　Ｒｏａｄ，Ｌｏｎｇｈｕａ　Ｄｉｓｔｒｉｃｔ，Ｈａｉｋｏｕ　Ｃｉｔｙ，Ｈａｉｎａｎ　Ｐｒｏｖｉｎｃｅ，Ｃｈｉｎａ,,,,,,2023-02-14,1,,,,,ハイナンフレルイグオジマオイユウゲンゼレンコウシ,0
256,2010001232894,新規,0,2023-02-14,2023-02-14,スターパートナーズ株式会社,,株式会社,東京都,中央区,日本橋小網町１－５日本橋小網町ハイツ７０３,,13,102,1030016,,,,,,,2023-02-14,1,,,,,スターパートナーズ,0
257,2010001232960,新規,0,2023-02-14,2023-02-14,ＳＳＲ株式会社,,株式会社,東京都,神津島村,１６４１番地,,13,364,1000601,,,,,,,2023-02-14,1,,,,,エスエスアール,0
262,2010005036243,新規,0,2023-02-14,2023-02-14,一般社団法人日本幹細胞上清液品質協議会,,その他の設立登記法人,東京都,文京区,湯島２丁目１４番８号湯島ヒダビル２Ｆ,,13,105,1130034,,,,,,,2023-02-14,1,,,,,ニホンカンサイボウジョウセイエキヒンシツキョウギカイ,0
275,2010401172468,新規,0,2023-02-14,2023-02-14,株式会社Ｗｏｎｄｅｒ　Ｃａｍｅｌ　Ｃａｒｅｅｒ,,株式会社,東京都,港区,東麻布１丁目４－２ＴＨＥＷＯＲＫＥＲＳ＆ＣＯ５０１,,13,103,1060044,,,,,,,2023-02-14,1,,,,,ワンダーキャメルキャリア,0
276,2010401172501,新規,0,2023-02-14,2023-02-14,株式会社ＮＴＬ２１,,株式会社,東京都,港区,港南１丁目２番７０号,,13,103,1080075,,,,,,,2023-02-14,1,,,,,エヌティエルニジュウイチ,0
290,2010705003476,新規,0,2023-02-14,2023-02-14,一般社団法人リビング・クリエーターズ,,その他の設立登記法人,東京都,品川区,上大崎３丁目１番１号目黒セントラルスクエア１５階,,13,109,1410021,,,,,,,2023-02-14,1,,,,,リビングクリエーターズ,0
291,2010801033690,新規,0,2023-02-14,2023-02-14,アースコスモ株式会社,,株式会社,東京都,大田区,大森北４丁目１３番１０号,,13,111,1430016,,,,,,,2023-02-14,1,,,,,,0
293,2010901052517,新規,0,2023-02-14,2023-02-14,株式会社ＫＩＲＡ　ＫＩＲＡ,,株式会社,東京都,世田谷区,砧８丁目２９番６号,,13,112,1570073,,,,,,,2023-02-14,1,,,,,キラキラ,0
298,2011001152513,新規,0,2023-02-14,2023-02-14,株式会社ｃｒｅａｔｅ　ｔｈｅ　ｆｕｔｕｒｅ,,株式会社,東京都,渋谷区,渋谷３丁目１番９号ＹＡＺＡＷＡビル３階,,13,113,1500002,,,,,,,2023-02-14,1,,,,,クリエイトザフューチャー,0
307,2011101101790,新規,0,2023-02-14,2023-02-14,株式会社ＡＣＥ,,株式会社,東京都,新宿区,若松町２５番１９号１階,,13,104,1620056,,,,,,,2023-02-14,1,,,,,エース,0
308,2011101101816,新規,0,2023-02-14,2023-02-14,株式会社ゴーデルブロック,,株式会社,東京都,新宿区,新宿２丁目１２番１３号,,13,104,1600022,,,,,,,2023-02-14,1,,,,,ゴーデルブロック,0
309,2011105010550,新規,0,2023-02-14,2023-02-14,特定非営利活動法人プライドハウス東京,,その他の設立登記法人,東京都,新宿区,新宿１丁目２番９号ＪＦ新宿御苑ビル２階,,13,104,1600022,,,,,,,2023-02-14,1,,,,,プライドハウストウキョウ,0
316,2011401024907,新規,0,2023-02-14,2023-02-14,株式会社ＲＥＴＴＯ,,株式会社,東京都,板橋区,徳丸２丁目１８番２１号,,13,119,1750083,,,,,,,2023-02-14,1,,,,,レットー,0
318,2011603003824,新規,0,2023-02-14,2023-02-14,合同会社犀角独歩,,合同会社,東京都,練馬区,大泉学園町４丁目３０番９号,,13,120,1780061,,,,,,,2023-02-14,1,,,,,サイカクドクホ,0
321,2012401040183,新規,0,2023-02-14,2023-02-14,株式会社植勝絹山造園,,株式会社,東京都,狛江市,和泉本町１丁目２２番９号,,13,219,2010003,,,,,,,2023-02-14,1,,,,,ウエカツキヌヤマゾウエン,0
322,2012403005829,新規,0,2023-02-14,2023-02-14,ＰＮ　ｗｉｓｔｅｒｉａ．ｓ合同会社,,合同会社,東京都,府中市,住吉町２丁目２２番地の３７,,13,206,1830034,,,,,,,2023-02-14,1,,,,,ピーエヌウィステリアエス,0
323,2012405004829,新規,0,2023-02-14,2023-02-14,一般社団法人希歩,,その他の設立登記法人,東京都,武蔵野市,八幡町３丁目２３番８号カーサ井口,,13,203,1800011,,,,,,,2023-02-14,1,,,,,ノア,0
325,2012803003003,新規,0,2023-02-14,2023-02-14,小米嬌合同会社,,合同会社,東京都,日野市,日野本町３丁目１４－１８谷井ビル４Ｆ４０８室,,13,212,1910011,,,,,,,2023-02-14,1,,,,,ショウマイキョウ,0
335,2020001150071,新規,0,2023-02-14,2023-02-14,株式会社シンイェ,,株式会社,神奈川県,横浜市戸塚区,舞岡町２７３５番地１,,14,110,2440813,,,,,,,2023-02-14,1,,,,,シンイェ,0
336,2020001150220,新規,0,2023-02-14,2023-02-14,株式会社エムテゾーロ,,株式会社,神奈川県,横浜市青葉区,あざみ野４丁目１６番地３,,14,117,2250011,,,,,,,2023-02-14,1,,,,,エムテゾーロ,0
337,2020001150229,新規,0,2023-02-14,2023-02-14,ｅ万里株式会社,,株式会社,神奈川県,横浜市戸塚区,品濃町５５３番地１パークヒルズＬ棟５０４号,,14,110,2440801,,,,,,,2023-02-14,1,,,,,イーバンリ,0
338,2021001078204,新規,0,2023-02-14,2023-02-14,株式会社コンどマ,,株式会社,神奈川県,茅ヶ崎市,円蔵２２２１番地,,14,207,2530084,,,,,,,2023-02-14,1,,,,,コンドマ,0
342,2021003012672,新規,0,2023-02-14,2023-02-14,合同会社セレスタイト,,合同会社,神奈川県,相模原市南区,相武台１丁目１２番１５号エトワール相武台２０９,,14,153,2520324,,,,,,,2023-02-14,1,,,,,セレスタイト,0
343,2021003012755,新規,0,2023-02-14,2023-02-14,白木屋合同会社,,合同会社,神奈川県,足柄下郡箱根町,二ノ平１２７４番地９３箱根山ヴィラＱ－２４,,14,382,2500407,,,,,,,2023-02-14,1,,,,,シロキヤ,0
344,2021003012771,新規,0,2023-02-14,2023-02-14,ベラノ合同会社,,合同会社,神奈川県,平塚市,中堂２－２７,,14,203,2540026,,,,,,,2023-02-14,1,,,,,ベラノ,0
355,2030001152397,新規,0,2023-02-14,2023-02-14,フェリクス・リアルティ株式会社,,株式会社,埼玉県,さいたま市南区,白幡２丁目１２番１５号,,11,108,3360022,,,,,,,2023-02-14,1,,,,,フェリクスリアルティ,0
363,2030003021170,新規,0,2023-02-14,2023-02-14,合同会社ループ,,合同会社,埼玉県,所沢市,北中２丁目１６５番地の１０エクセレンスウィング２０２,,11,208,3591101,,,,,,,2023-02-14,1,,,,,,0
369,2040001127084,新規,0,2023-02-14,2023-02-14,株式会社エムケイティ消防設備,,株式会社,千葉県,千葉市若葉区,貝塚町６４８番地,,12,104,2640023,,,,,,,2023-02-14,1,,,,,エムケイティショウボウセツビ,0
373,2040005021903,新規,0,2023-02-14,2023-02-14,医療法人社団Ｋ,,その他の設立登記法人,千葉県,木更津市,瓜倉８６３番地３,,12,206,2920007,,,,,,,2023-02-14,1,,,,,ケイ,0
380,2050001052380,新規,0,2023-02-14,2023-02-14,株式会社フロンティア,,株式会社,茨城県,ひたちなか市,大字高野２３１８番地７,,08,221,3120002,,,,,,,2023-02-14,1,,,,,フロンティア,0
391,2080401026320,新規,0,2023-02-14,2023-02-14,株式会社ひので屋,,株式会社,静岡県,浜松市東区,小池町１８３５番地の１,,22,132,4350056,,,,,,,2023-02-14,1,,,,,ヒノデヤ,0
395,2090003002248,新規,0,2023-02-14,2023-02-14,合同会社ＡＦＥＥＬＡ,,合同会社,山梨県,中央市,下河東３０４９番地１,,19,214,4093821,,,,,,,2023-02-14,1,,,,,アフィーラ,0
396,2100001036155,新規,0,2023-02-14,2023-02-14,株式会社ＣＨＡＭＰＩＯＮ,,株式会社,長野県,小諸市,大字和田８３９番地６８,,20,208,3840093,,,,,,,2023-02-14,1,,,,,チャンピオン,0
397,2100003006882,新規,0,2023-02-14,2023-02-14,東御こもだ果樹園合同会社,,合同会社,長野県,東御市,祢津２８７２番地１,,20,219,3890506,,,,,,,2023-02-14,1,,,,,トウミコモダカジュエン,0
410,2120001252510,新規,0,2023-02-14,2023-02-14,啓富株式会社,,株式会社,大阪府,大阪市東成区,東小橋１丁目１７－３１－５０３,,27,115,5370024,,,,,,,2023-02-14,1,,,,,ケイトミ,0
417,2120003023348,新規,0,2023-02-14,2023-02-14,ＳＧ　Ｃｏｒｐｏｒａｔｉｏｎ合同会社,,合同会社,大阪府,大阪市淀川区,野中北１丁目２番３７号アメニティー新大阪３番館３－Ｂ号,,27,123,5320034,,,,,,,2023-02-14,1,,,,,エスジーコーポレーション,0
418,2120003023430,新規,0,2023-02-14,2023-02-14,合同会社ＢＥＡＴ,,合同会社,大阪府,大阪市浪速区,日本橋４丁目１０番７号栗原ビル３階,,27,111,5560005,,,,,,,2023-02-14,1,,,,,ベア,0
427,2122001036694,新規,0,2023-02-14,2023-02-14,株式会社アンディコーポレーション,,株式会社,大阪府,大東市,寺川３丁目９番２号,,27,218,5740014,,,,,,,2023-02-14,1,,,,,アンディコーポレーション,0
431,2140001129120,新規,0,2023-02-14,2023-02-14,株式会社ストレングスアスリード,,株式会社,兵庫県,尼崎市,武庫之荘５丁目３２番３０号,,28,202,6610035,,,,,,,2023-02-14,1,,,,,ストレングスアスリード,0
433,2160001024831,新規,0,2023-02-14,2023-02-14,株式会社ｔｉｍｔｉｍ,,株式会社,滋賀県,犬上郡豊郷町,大字吉田２３０番地１,,25,441,5291165,,,,,,,2023-02-14,1,,,,,ティムティム,0
435,2170001017479,新規,0,2023-02-14,2023-02-14,株式会社理合精進,,株式会社,和歌山県,和歌山市,新通３丁目３－１,,30,201,6408111,,,,,,,2023-02-14,1,,,,,リゴウショウジン,0
438,2180001154998,新規,0,2023-02-14,2023-02-14,株式会社ＩＲＯＨＡ,,株式会社,愛知県,稲沢市,小沢３丁目１２－２６,,23,220,4928212,,,,,,,2023-02-14,1,,,,,イロハ,0
440,2180003024844,新規,0,2023-02-14,2023-02-14,Ｌｕｃｙ合同会社,,合同会社,愛知県,名古屋市東区,筒井１丁目１２番２４号,,23,102,4610003,,,,,,,2023-02-14,1,,,,,ルーシー,0
454,2200003005841,新規,0,2023-02-14,2023-02-14,合同会社ＣＫＣインターナショナル,,合同会社,岐阜県,瑞穂市,生津９５４番地,,21,216,5010211,,,,,,,2023-02-14,1,,,,,シーケーシーインターナショナル,0
457,2220001025261,新規,0,2023-02-14,2023-02-14,株式会社Ｋ‐ｐａｙｓ　ｈｏｌｄｉｎｇｓ,,株式会社,石川県,河北郡内灘町,字大清台１,,17,365,9200267,,,,,,,2023-02-14,1,,,,,ケーペイズホールディングス,0
464,2240001061098,新規,0,2023-02-14,2023-02-14,株式会社緑の風,,株式会社,広島県,東広島市,八本松町飯田９１－１,,34,212,7390141,,,,,,,2023-02-14,1,,,,,ミドリノカゼ,0
466,2250003003221,新規,0,2023-02-14,2023-02-14,ＴＪ翻訳合同会社,,合同会社,山口県,光市,虹ケ浜３丁目６番１１号,,35,210,7430022,,,,,,,2023-02-14,1,,,,,ティージェイホンヤク,0
476,2290003013530,新規,0,2023-02-14,2023-02-14,合同会社ＡＶＡＮＴＩ,,合同会社,福岡県,福岡市東区,土井１丁目５番１２－４０１号,,40,131,8130032,,,,,,,2023-02-14,1,,,,,アヴァンティ,0
478,2290801029281,新規,0,2023-02-14,2023-02-14,株式会社北九州福祉総合センター,,株式会社,福岡県,北九州市戸畑区,千防３丁目１７番１０号,,40,105,8040081,,,,,,,2023-02-14,1,,,,,キタキュウシュウフクシソウゴウセンター,0
479,2290803004340,新規,0,2023-02-14,2023-02-14,合同会社ついき訪問看護ステーション,,合同会社,福岡県,築上郡築上町,大字上別府２５７番地３沖代アパート５号室,,40,647,8290105,,,,,,,2023-02-14,1,,,,,ツイキホウモンカンゴステーション,0
480,2310001018272,新規,0,2023-02-14,2023-02-14,株式会社早瀬クリエイティブサービス,,株式会社,長崎県,長崎市,小江原５丁目９番７号,,42,201,8511132,,,,,,,2023-02-14,1,,,,,ハヤセクリエイティブサービス,0
486,2350001018186,新規,0,2023-02-14,2023-02-14,株式会社ＫＫ‐ＰＬＡＮ,,株式会社,宮崎県,宮崎市,佐土原町上田島８６２８番地２１,,45,201,8800301,,,,,,,2023-02-14,1,,,,,ケイケイプラン,0
487,2360003012715,新規,0,2023-02-14,2023-02-14,Ｋｕｒｏｓｈｉｍａ　Ｆｏｒｅｓｔ合同会社,,合同会社,沖縄県,豊見城市,字豊崎１－１１７８Ｆステージ豊崎パークフロント７１０,,47,212,9010225,,,,,,,2023-02-14,1,,,,,クロシマフォレスト,0
492,2400003003032,新規,0,2023-02-14,2023-02-14,合同会社星野総業,,合同会社,岩手県,滝沢市,大釜風林５１９番地７,,03,216,0200757,,,,,,,2023-02-14,1,,,,,ホシノソウギョウ,0
493,2410005006503,新規,0,2023-02-14,2023-02-14,農事組合法人戸島絆ファーム,,その他の設立登記法人,秋田県,秋田市,河辺戸島字本町２５４番地,,05,201,0192611,,,,,,,2023-02-14,1,,,,,トシマキズナファーム,0
498,2430001088428,新規,0,2023-02-14,2023-02-14,株式会社未音堂,,株式会社,北海道,札幌市東区,北三十六条東２５丁目２番１０号,,01,103,0070836,,,,,,,2023-02-14,1,,,,,ミオンドウ,0
499,2430001088436,新規,0,2023-02-14,2023-02-14,株式会社Ｋ,,株式会社,北海道,札幌市中央区,南二条東１丁目１番地１２－１１０５号,,01,101,0600052,,,,,,,2023-02-14,1,,,,,ケイ,0
504,2480003001937,新規,0,2023-02-14,2023-02-14,トレンドリサーチ合同会社,,合同会社,徳島県,徳島市,大谷町長開８番地の６,,36,201,7708031,,,,,,,2023-02-14,1,,,,,トレンドリサーチ,0
506,2490001010402,新規,0,2023-02-14,2023-02-14,株式会社ジェネラス,,株式会社,高知県,高知市,春野町南ケ丘３丁目５番地９,,39,201,7810314,,,,,,,2023-02-14,1,,,,,ジェネラス,0
508,2500001024763,新規,0,2023-02-14,2023-02-14,株式会社サイクルドリームプラス,,株式会社,愛媛県,松山市,真砂町１１９番地,,38,201,7900021,,,,,,,2023-02-14,1,,,,,サイクルドリームプラス,0
510,2700150114304,新規,0,2023-02-14,2023-02-14,ＨＯＮＧＫＯＮＧ　ＳＴＡＲＯＣ　ＴＥＣＨＮＯＬＯＧＹ　ＣＯ．，ＬＩＭＩＴＥＤ,,外国会社等,,,,,,,,ＦＬＡＴ　５　７／Ｆ　ＹＩＰ　ＦＵＮＧ　ＩＮＤＵＳＴＲＩＡＬ　ＢＵＩＬＤＩＮＧ　７　ＳＨＥＵＮＧ　ＨＥＩ　ＳＴ　ＳＡＮ　ＰＯ　ＫＯＮＧ　ＫＬ,,,,,,2023-02-14,1,,,,,ホンコンスタロクテクノロジーカンパニーリミテツド,0
511,2700150114312,新規,0,2023-02-14,2023-02-14,Ｓｈｅｎｚｈｅｎｓｈｉ　Ａｙａｄａｄｉａｎｚｉｓｈａｎｇｗｕ　ｙｏｕｘｉａｎｇｏｎｇｓｉ,,外国会社等,,,,,,,,Ｌｏｎｇｈｕａｑｕ　Ｄａｌａｎｇｊｉｅｄａｏ　Ｙｕａｎｆｅｎｘｉｎｃｕｎ　３０　Ｄｏｎｇ　１２０４，Ｓｈｅｎｚｈｅｎ，Ｇｕａｎｇｄｏｎｇ，Ｃｈｉｎａ,,,,,,2023-02-14,1,,,,,シンセンシアヤダデンシショウムユウゲンコウシ,0
519,3010001232893,新規,0,2023-02-14,2023-02-14,株式会社ＳＷＬコーポレーション,,株式会社,東京都,中央区,銀座６丁目１３番１６号銀座Ｗａｌｌビル５０１,,13,102,1040061,,,,,,,2023-02-14,1,,,,,エスダブリューエルコーポレーション,0
521,3010005036242,新規,0,2023-02-14,2023-02-14,印西ファイブ特定目的会社,,その他の設立登記法人,東京都,千代田区,神田神保町１丁目１１番地さくら綜合事務所内,,13,101,1010051,,,,,,,2023-02-14,1,,,,,インザイファイブ,0
528,3010401172491,新規,0,2023-02-14,2023-02-14,株式会社ＴＯＤ　ＤＥＳＩＧＮ　ＳＴＵＤＩＯ,,株式会社,東京都,港区,東麻布２丁目２５番１０－３０１,,13,103,1060044,,,,,,,2023-02-14,1,,,,,トッドデザインスタジオ,0
529,3010403029525,新規,0,2023-02-14,2023-02-14,ユーリック合同会社,,合同会社,東京都,港区,高輪２丁目１番４号,,13,103,1080074,,,,,,,2023-02-14,1,,,,,ユーリック,0
539,3010705003475,新規,0,2023-02-14,2023-02-14,一般社団法人ＥＰＡＤ,,その他の設立登記法人,東京都,品川区,東品川２丁目６番１０号,,13,109,1400002,,,,,,,2023-02-14,1,,,,,イーパッド,0
550,3011001152644,新規,0,2023-02-14,2023-02-14,飛鳥株式会社,,株式会社,東京都,渋谷区,神宮前３丁目３番２号,,13,113,1500001,,,,,,,2023-02-14,1,,,,,アスカ,0
551,3011003016269,新規,0,2023-02-14,2023-02-14,Ａｌｔｏ　Ｃｏｎｓｕｌｔｉｎｇ合同会社,,合同会社,東京都,渋谷区,神宮前６丁目２３番４号桑野ビル２階,,13,113,1500001,,,,,,,2023-02-14,1,,,,,アルトコンサルティング,0
557,3011101101831,新規,0,2023-02-14,2023-02-14,株式会社Ｆｉｔ　Ｓｅｖｅｎ,,株式会社,東京都,新宿区,神楽坂６丁目４１,,13,104,1620825,,,,,,,2023-02-14,1,,,,,フィットセブン,0
558,3011103012671,新規,0,2023-02-14,2023-02-14,合同会社Ｏｆｆｉｃｅ　ＲＩＳＡ,,合同会社,東京都,新宿区,市谷仲之町３番３２号,,13,104,1620064,,,,,,,2023-02-14,1,,,,,オフィスリサ,0
560,3011303004667,新規,0,2023-02-14,2023-02-14,ＵＳＨＡ合同会社,,合同会社,東京都,杉並区,天沼１丁目３番１１号メゾンホワイト２０３,,13,115,1670032,,,,,,,2023-02-14,1,,,,,ウサ,0
561,3011401024880,新規,0,2023-02-14,2023-02-14,株式会社ＰＲＥＶＥＮＴ,,株式会社,東京都,板橋区,氷川町３２番５号レジデンス樹２０３,,13,119,1730013,,,,,,,2023-02-14,1,,,,,プリベント,0
563,3011403003908,新規,0,2023-02-14,2023-02-14,Ｃ　ＰＬＵＳ　Ｃ合同会社,,合同会社,東京都,板橋区,南常盤台１丁目１１番地６号レフア南常盤台１０１,,13,119,1740072,,,,,,,2023-02-14,1,,,,,シープラスシー,0
567,3011601026578,新規,0,2023-02-14,2023-02-14,株式会社アイエムシー,,株式会社,東京都,練馬区,光が丘３丁目９番３－２７０３号,,13,120,1790072,,,,,,,2023-02-14,1,,,,,アイエムシー,0
570,3011701026008,新規,0,2023-02-14,2023-02-14,株式会社Ｅｎｇｌｏｗ,,株式会社,東京都,江戸川区,春江町５丁目２１番８５号,,13,123,1340003,,,,,,,2023-02-14,1,,,,,エングロー,0
571,3011701026016,新規,0,2023-02-14,2023-02-14,ＭＡＪ株式会社,,株式会社,東京都,江戸川区,中央２丁目２０番２３号,,13,123,1320021,,,,,,,2023-02-14,1,,,,,エムエイジェイ,0
575,3012301013313,新規,0,2023-02-14,2023-02-14,株式会社アンカー,,株式会社,東京都,町田市,原町田４丁目１０番１９号ソフィア町田４０２,,13,209,1940013,,,,,,,2023-02-14,1,,,,,アンカー,0
579,3012401040182,新規,0,2023-02-14,2023-02-14,株式会社Ｒａｎｅ＆Ｂｌｏｏｍ,,株式会社,東京都,武蔵野市,吉祥寺本町１丁目２０番１号吉祥寺永谷シティプラザ１００２,,13,203,1800004,,,,,,,2023-02-14,1,,,,,レインアンドブルーム,0
580,3012401040190,新規,0,2023-02-14,2023-02-14,株式会社アップルハウス,,株式会社,東京都,調布市,西つつじケ丘１丁目３８番１８号,,13,208,1820006,,,,,,,2023-02-14,1,,,,,アップルハウス,0
583,3012403005828,新規,0,2023-02-14,2023-02-14,合同会社ＳＵＣＣＥＳＳ,,合同会社,東京都,武蔵野市,吉祥寺南町１丁目５番１１号丸善ビル６階,,13,203,1800003,,,,,,,2023-02-14,1,,,,,サクセス,0
593,3013303006494,新規,0,2023-02-14,2023-02-14,サニー合同会社,,合同会社,東京都,豊島区,東池袋１丁目４４番８号パークサイドビル５Ｄ,,13,116,1700013,,,,,,,2023-02-14,1,,,,,サニー,0
596,3020001150194,新規,0,2023-02-14,2023-02-14,株式会社オフィス蒼,,株式会社,神奈川県,横浜市青葉区,青葉台２丁目１５－２,,14,117,2270062,,,,,,,2023-02-14,1,,,,,オフィスアオ,0
597,3020001150203,新規,0,2023-02-14,2023-02-14,アクアノート株式会社,,株式会社,神奈川県,横浜市西区,高島２丁目１９番１２号横浜スカイビル２０Ｆ,,14,103,2200011,,,,,,,2023-02-14,1,,,,,アクアノート,0
601,3020003023324,新規,0,2023-02-14,2023-02-14,育都計画合同会社,,合同会社,神奈川県,川崎市中原区,井田三舞町９番７－３号,,14,133,2110037,,,,,,,2023-02-14,1,,,,,イクトケイカク,0
604,3021001078194,新規,0,2023-02-14,2023-02-14,株式会社Ｌｕｓｈ　Ｌｉｆｅ,,株式会社,神奈川県,相模原市南区,相模台２丁目１２番４号,,14,153,2520321,,,,,,,2023-02-14,1,,,,,ラッシュライフ,0
610,3030001152396,新規,0,2023-02-14,2023-02-14,株式会社花御縁,,株式会社,埼玉県,所沢市,東所沢２丁目２番地の１１,,11,208,3590021,,,,,,,2023-02-14,1,,,,,ハナゴエン,0
611,3030001152405,新規,0,2023-02-14,2023-02-14,株式会社オリーブハウス,,株式会社,埼玉県,入間郡毛呂山町,大字川角７番地１,,11,326,3500436,,,,,,,2023-02-14,1,,,,,オリーブハウス,0
612,3030001152413,新規,0,2023-02-14,2023-02-14,ｗｉｔｈＨＯＭＥ　Ｓａｉｔａｍａ株式会社,,株式会社,埼玉県,鶴ヶ島市,富士見２丁目２番１０号,,11,241,3502201,,,,,,,2023-02-14,1,,,,,ウィズホームサイタマ,0
615,3030003021104,新規,0,2023-02-14,2023-02-14,Ｈ＆Ｙマネジメントアドバイザリー合同会社,,合同会社,埼玉県,さいたま市南区,別所５丁目１１番１８号,,11,108,3360021,,,,,,,2023-02-14,1,,,,,エイチアンドワイマネジメントアドバイザリー,0
620,3040001127018,新規,0,2023-02-14,2023-02-14,株式会社リトラ,,株式会社,千葉県,市川市,東菅野３丁目２０番１号,,12,203,2720823,,,,,,,2023-02-14,1,,,,,リトラ,0
623,3040003021904,新規,0,2023-02-14,2023-02-14,合同会社ＳＩＹＡＴＨＡ　ＩＮＴＥＲＮＡＴＩＯＮＡＬ,,合同会社,千葉県,成田市,三里塚御料１番地１３６５,,12,211,2860116,,,,,,,2023-02-14,1,,,,,シヤタインターナショナル,0
628,3070001040127,新規,0,2023-02-14,2023-02-14,大陽産業株式会社,,株式会社,群馬県,太田市,安養寺町２９８番地１,,10,205,3700422,,,,,,,2023-02-14,1,,,,,ダイヨウサンギョウ,0
634,3080003002933,新規,0,2023-02-14,2023-02-14,合同会社ＭＹＫ,,合同会社,静岡県,静岡市駿河区,池田７３４番地,,22,102,4228005,,,,,,,2023-02-14,1,,,,,エムワイケー,0
637,3080103002750,新規,0,2023-02-14,2023-02-14,合同会社ＳＡＬＵＳ,,合同会社,静岡県,三島市,大宮町１丁目８番３９号,,22,206,4110035,,,,,,,2023-02-14,1,,,,,サルース,0
645,3100001036154,新規,0,2023-02-14,2023-02-14,株式会社ＫＡＷＡＲＵＫＡ,,株式会社,長野県,塩尻市,大字北小野１５８３番地５,,20,215,3990651,,,,,,,2023-02-14,1,,,,,カワルカ,0
651,3110001037300,新規,0,2023-02-14,2023-02-14,株式会社コバマイスター,,株式会社,新潟県,三条市,鬼木４４５１番地２,,15,204,9591135,,,,,,,2023-02-14,1,,,,,コバマイスター,0
658,3120001252476,新規,0,2023-02-14,2023-02-14,株式会社ＷＯＲＫ,,株式会社,大阪府,大阪市鶴見区,緑３丁目５番４号,,27,124,5380054,,,,,,,2023-02-14,1,,,,,ワーク,0
659,3120001252492,新規,0,2023-02-14,2023-02-14,株式会社ＳｙｎａｐｓｅＷｏｒｋ,,株式会社,大阪府,大阪市北区,梅田１丁目２番２号大阪駅前第２ビル１２－１２,,27,127,5300001,,,,,,,2023-02-14,1,,,,,シナプスワーク,0
660,3120003023355,新規,0,2023-02-14,2023-02-14,アメグレ合同会社,,合同会社,大阪府,大阪市城東区,東中浜４丁目１番３号,,27,118,5360023,,,,,,,2023-02-14,1,,,,,アメグレ,0
662,3120101066990,新規,0,2023-02-14,2023-02-14,あい不動産株式会社,,株式会社,大阪府,堺市中区,深井水池町３２２６番地,,27,142,5998237,,,,,,,2023-02-14,1,,,,,アイフドウサン,0
664,3120905006432,新規,0,2023-02-14,2023-02-14,関西グローバル協同組合,,その他の設立登記法人,大阪府,茨木市,清水１丁目２９番２０号,,27,211,5670059,,,,,,,2023-02-14,1,,,,,カンサイグローバル,0
665,3122005003665,新規,0,2023-02-14,2023-02-14,一般社団法人東大阪ＪＦＣスポーツクラブ,,その他の設立登記法人,大阪府,東大阪市,岩田町１丁目３番１３号,,27,227,5780941,,,,,,,2023-02-14,1,,,,,ヒガシオオサカジェイエフシースポーツクラブ,0
682,3160001024830,新規,0,2023-02-14,2023-02-14,株式会社宮本考務店,,株式会社,滋賀県,草津市,大路１丁目１５番３８－４０１号グランドパレス草津,,25,206,5250032,,,,,,,2023-02-14,1,,,,,ミヤモトコウムテン,0
717,3290001100552,新規,0,2023-02-14,2023-02-14,株式会社森榮,,株式会社,福岡県,福岡市博多区,西月隈５丁目１６番７号,,40,132,8120857,,,,,,,2023-02-14,1,,,,,モリエイ,0
720,3290003013521,新規,0,2023-02-14,2023-02-14,クロスオーバー合同会社,,合同会社,福岡県,福岡市東区,香椎照葉４丁目４－８パティオスタイル照葉１１０２号,,40,131,8130017,,,,,,,2023-02-14,1,,,,,クロスオーバー,0
730,3330001030596,新規,0,2023-02-14,2023-02-14,株式会社みのり,,株式会社,熊本県,合志市,栄３７９２番地１１２,,43,216,8611113,,,,,,,2023-02-14,1,,,,,ミノリ,0
733,3340001025372,新規,0,2023-02-14,2023-02-14,株式会社大鳥興業,,株式会社,鹿児島県,鹿児島市,東谷山６丁目２２番７号１０２,,46,201,8910113,,,,,,,2023-02-14,1,,,,,オオトリコウギョウ,0
745,3370001049600,新規,0,2023-02-14,2023-02-14,株式会社レジスタ,,株式会社,宮城県,仙台市青葉区,愛子東４丁目２番１３号,,04,101,9893127,,,,,,,2023-02-14,1,,,,,レジスタ,0
760,3460101007333,新規,0,2023-02-14,2023-02-14,株式会社ｓａｉ,,株式会社,北海道,河東郡音更町,十勝川温泉北１４丁目２番地３３,,01,631,0800262,,,,,,,2023-02-14,1,,,,,サイ,0
773,3700150114303,新規,0,2023-02-14,2023-02-14,ｓｈｅｎｚｈｅｎｓｈｉ　ｚａｉｍｉｎｇ　ｄｉａｎｚｉｓｈａｎｇｗｕ　ｙｏｕｘｉａｎｇｏｎｇｓｉ,,外国会社等,,,,,,,,Ｔｅｎｇｆｅｉｌｕ　９ｈａｏ　Ｃｈｕａｎｇｔｏｕｄａｓｈａ　１６０５　Ｌｏｎｇｇａｎｇｑｕ　Ｌｏｎｇｃｈｅｎｇｊｉｅｄａｏ　Ｈｕａｎｇｇｅｋｅｎｇｓｈｅｑｕ　Ｓｈｅｎｚｈｅｎ　Ｇｕａｎｇｄｏｎｇ　Ｃｈｉｎａ,,,,,,2023-02-14,1,,,,,シエンチエンシザイミンデンシシヨウムユウゲンコウシ,0
774,3700150114311,新規,0,2023-02-14,2023-02-14,ＪＰ＿Ｇｅｑｉｎｇ　Ｔｅｃｈｎｏｌｏｇｙ　Ｃｏ．Ｌｔｄ,,外国会社等,,,,,,,,ｓｈｅｎｚｈｅｎｓｈｉ，ｇｅｑｉｎｇｋｅｊｉｙｏｕｘｉａｎｇｏｎｇｓｉ，ｌｏｎｇｈｕａｘｉｎｑｕ，ｄａｌａｎｇｊｉｅｄａｏ９８ｄｏｎｇ９０２，ｓｈｅｎｚｈｅｎ　ｇｕａｎｇｄｏｎｇｓｈｅｎｇ，ｚｈｏｎｇｇｕｏ，Ｃｈｉｎａ,,,,,,2023-02-14,1,,,,,ジェイピーゲキンテクノロジーカンパニーリミテッド,0
787,4010001232892,新規,0,2023-02-14,2023-02-14,株式会社オーソエッジジャパン,,株式会社,東京都,中央区,日本橋３丁目９番１号,,13,102,1030027,,,,,,,2023-02-14,1,,,,,オーソエッジジャパン,0
797,4010401172499,新規,0,2023-02-14,2023-02-14,シティエステート株式会社,,株式会社,東京都,港区,高輪１丁目２３番２３号４１５号室,,13,103,1080074,,,,,,,2023-02-14,1,,,,,シティエステート,0
803,4010403029524,新規,0,2023-02-14,2023-02-14,北出ファクトリー合同会社,,合同会社,東京都,港区,芝浦４丁目１６番１４－１６０２号,,13,103,1080023,,,,,,,2023-02-14,1,,,,,キタデファクトリー,0
815,4010803004449,新規,0,2023-02-14,2023-02-14,ＪＣＣ合同会社,,合同会社,東京都,大田区,鵜の木２丁目３９番１－６０３号,,13,111,1460091,,,,,,,2023-02-14,1,,,,,ジェシーシー,0
817,4010901052515,新規,0,2023-02-14,2023-02-14,Ｐｅｔａ株式会社,,株式会社,東京都,世田谷区,北沢３丁目３０－２５アプローズ下北沢１０６,,13,112,1550031,,,,,,,2023-02-14,1,,,,,ペタ,0
818,4010901052523,新規,0,2023-02-14,2023-02-14,株式会社ＹＡＹＡ,,株式会社,東京都,世田谷区,北烏山１丁目４９番１２号,,13,112,1570061,,,,,,,2023-02-14,1,,,,,ヤヤ,0
826,4011001152643,新規,0,2023-02-14,2023-02-14,天馬株式会社,,株式会社,東京都,渋谷区,神宮前３丁目３番２号,,13,113,1500001,,,,,,,2023-02-14,1,,,,,ペガサス,0
833,4011103012670,新規,0,2023-02-14,2023-02-14,合同会社ストライク,,合同会社,東京都,新宿区,歌舞伎町２丁目９番１５号ダイヤモンドパレス６０３,,13,104,1600021,,,,,,,2023-02-14,1,,,,,ストライク,0
834,4011203004007,新規,0,2023-02-14,2023-02-14,合同会社Ｍ＆Ｍ,,合同会社,東京都,中野区,南台１丁目６番１７－８０３号,,13,114,1640014,,,,,,,2023-02-14,1,,,,,エムアンドエム,0
835,4011303004666,新規,0,2023-02-14,2023-02-14,合同会社Ｐｒｏｄｕｃｔｉｏｎ　Ｍｉｋａｎ,,合同会社,東京都,杉並区,荻窪４丁目２１－２２勝栄マンション１０３,,13,115,1670051,,,,,,,2023-02-14,1,,,,,プロダクションミカン,0
838,4011403003907,新規,0,2023-02-14,2023-02-14,合同会社Ｄ,,合同会社,東京都,板橋区,徳丸２丁目１８番２５号アカデミー徳丸２０５,,13,119,1750083,,,,,,,2023-02-14,1,,,,,ディー,0
840,4011503005480,新規,0,2023-02-14,2023-02-14,合同会社大家さんは針灸師,,合同会社,東京都,荒川区,南千住１丁目１０－１Ｄハイム２０１,,13,118,1160003,,,,,,,2023-02-14,1,,,,,オオヤサンハシンキュウシ,0
850,4012403005835,新規,0,2023-02-14,2023-02-14,ストローベイル合同会社,,合同会社,東京都,小金井市,本町１丁目３番１０号,,13,210,1840004,,,,,,,2023-02-14,1,,,,,ストローベイル,0
861,4020001150276,新規,0,2023-02-14,2023-02-14,東林株式会社,,株式会社,神奈川県,川崎市幸区,戸手４丁目７番１－３０３号ハイム川崎,,14,132,2120005,,,,,,,2023-02-14,1,,,,,トウリン,0
870,4020003023307,新規,0,2023-02-14,2023-02-14,ウイ・ウィン合同会社,,合同会社,神奈川県,川崎市宮前区,野川本町２丁目２６番４号ベルメゾン宮前１０９,,14,136,2160041,,,,,,,2023-02-14,1,,,,,ウイウィン,0
880,4021003012761,新規,0,2023-02-14,2023-02-14,合同会社ＭＩＮＡＭＯ,,合同会社,神奈川県,藤沢市,鵠沼海岸６丁目１７番２０号,,14,205,2510037,,,,,,,2023-02-14,1,,,,,ミナモ,0
892,4030001152404,新規,0,2023-02-14,2023-02-14,株式会社ブロックピース,,株式会社,埼玉県,川口市,大字西立野８１２番地の２,,11,203,3330813,,,,,,,2023-02-14,1,,,,,ブロックピース,0
896,4030003021160,新規,0,2023-02-14,2023-02-14,ベルフォレ合同会社,,合同会社,埼玉県,戸田市,上戸田５丁目１－３０８,,11,224,3350022,,,,,,,2023-02-14,1,,,,,ベルフォレ,0
897,4030003021169,新規,0,2023-02-14,2023-02-14,ｏｒａｎｇｅ．ｐｌａｎ合同会社,,合同会社,埼玉県,所沢市,東狭山ケ丘１丁目１番地の１ユアコート狭山ヶ丘２０１,,11,208,3591106,,,,,,,2023-02-14,1,,,,,オレンジプラン,0
922,4080401026319,新規,0,2023-02-14,2023-02-14,株式会社カワセ,,株式会社,静岡県,浜松市中区,蜆塚４丁目２２番５号,,22,131,4328018,,,,,,,2023-02-14,1,,,,,カワセ,0
924,4090003002246,新規,0,2023-02-14,2023-02-14,合同会社Ｌｕｐｉｎｕｓ,,合同会社,山梨県,甲府市,丸の内２丁目４番７号,,19,201,4000031,,,,,,,2023-02-14,1,,,,,ルピナス,0
925,4110001037299,新規,0,2023-02-14,2023-02-14,株式会社リ・デザイン,,株式会社,新潟県,新潟市中央区,水島町３番２３号,,15,103,9500904,,,,,,,2023-02-14,1,,,,,リデザイン,0
935,4120001252475,新規,0,2023-02-14,2023-02-14,株式会社ＵｍａＸ,,株式会社,大阪府,大阪市西区,江戸堀１丁目１０番１号肥後橋第２１松屋ビル７階田中隆資税理士事務所内,,27,106,5500002,,,,,,,2023-02-14,1,,,,,ウマックス,0
936,4120001252509,新規,0,2023-02-14,2023-02-14,澤文株式会社,,株式会社,大阪府,大阪市西区,南堀江４丁目３－１９－７０２,,27,106,5500015,,,,,,,2023-02-14,1,,,,,サワフミ,0
941,4120901047132,新規,0,2023-02-14,2023-02-14,株式会社ＣＬＡＰ,,株式会社,大阪府,池田市,空港１丁目８番７号,,27,204,5630034,,,,,,,2023-02-14,1,,,,,クラップ,0
944,4130001073689,新規,0,2023-02-14,2023-02-14,株式会社ＦＵＴＵＲＥ総合研究所,,株式会社,京都府,宇治市,志津川南組２４番地,,26,204,6110015,,,,,,,2023-02-14,1,,,,,フューチャーソウゴウケンキュウジョ,0
946,4130003008536,新規,0,2023-02-14,2023-02-14,ＯＬＩ　ＧＲＯＵＰ合同会社,,合同会社,京都府,京都市上京区,千本通笹屋町上る笹屋町３丁目６４１番地西陣セントラルハイツ４０５,,26,102,6028453,,,,,,,2023-02-14,1,,,,,オリグループ,0
950,4140001129085,新規,0,2023-02-14,2023-02-14,株式会社Ｆａｓｔ,,株式会社,兵庫県,西脇市,下戸田１５番地の１４,,28,213,6770043,,,,,,,2023-02-14,1,,,,,ファスト,0
951,4140001129119,新規,0,2023-02-14,2023-02-14,株式会社ｓｏｌ,,株式会社,兵庫県,姫路市,亀井町２３番地,,28,201,6700925,,,,,,,2023-02-14,1,,,,,ソル,0
959,4160003002800,新規,0,2023-02-14,2023-02-14,合同会社きたざと,,合同会社,滋賀県,近江八幡市,野村町１４６４番地,,25,204,5230075,,,,,,,2023-02-14,1,,,,,キタザト,0
960,4170001017477,新規,0,2023-02-14,2023-02-14,健仁会自然エネルギー株式会社,,株式会社,和歌山県,和歌山市,川辺１３３番地１,,30,201,6496312,,,,,,,2023-02-14,1,,,,,ケンジンカイシゼンエネルギー,0
961,4170005006996,新規,0,2023-02-14,2023-02-14,一般社団法人ｉｄｅＬ＆ｃｏ．,,その他の設立登記法人,和歌山県,和歌山市,西田井３１８番地５,,30,201,6496335,,,,,,,2023-02-14,1,,,,,アイデルトコ,0
965,4180001154880,新規,0,2023-02-14,2023-02-14,株式会社Ｎ．Ｒ．Ｉ,,株式会社,愛知県,名古屋市南区,加福町３丁目２番地の１－Ａ,,23,112,4570837,,,,,,,2023-02-14,1,,,,,エヌアールアイ,0
966,4180001154947,新規,0,2023-02-14,2023-02-14,株式会社ＮＳＰ技研,,株式会社,愛知県,名古屋市緑区,神沢３丁目１００１番地の２４,,23,114,4580014,,,,,,,2023-02-14,1,,,,,エヌエスピーギケン,0
970,4180005020096,新規,0,2023-02-14,2023-02-14,一般社団法人東海地域医療・介護連携推進センター,,その他の設立登記法人,愛知県,名古屋市昭和区,川名山町５６番地（社会福祉法人聖霊会聖霊病院内）,,23,107,4660827,,,,,,,2023-02-14,1,,,,,トウカイチイキイリョウカイゴレンケイスイシンセンター,0
976,4200001040962,新規,0,2023-02-14,2023-02-14,ＥＸＥＬ株式会社,,株式会社,岐阜県,岐阜市,日野東１丁目６番２０号コスモハウス２０２号,,21,201,5008211,,,,,,,2023-02-14,1,,,,,エクセル,0
987,4240001061088,新規,0,2023-02-14,2023-02-14,株式会社癸ホールディングス,,株式会社,広島県,広島市西区,楠木町４丁目７番１７号,,34,104,7330002,,,,,,,2023-02-14,1,,,,,ミズノトホールディングス,0
989,4240003006025,新規,0,2023-02-14,2023-02-14,合同会社ネオカナート,,合同会社,広島県,広島市東区,牛田早稲田４丁目１３－１－６１１,,34,102,7320062,,,,,,,2023-02-14,1,,,,,ネオカナート,0
991,4260001037648,新規,0,2023-02-14,2023-02-14,酒ショップ山本株式会社,,株式会社,岡山県,岡山市北区,広瀬町４番４号,,33,101,7000806,,,,,,,2023-02-14,1,,,,,サケショップヤマモト,0
995,4310003004517,新規,0,2023-02-14,2023-02-14,ＩＫＳＳ合同会社,,合同会社,長崎県,大村市,水主町１丁目９７８番地５９,,42,205,8560827,,,,,,,2023-02-14,1,,,,,アイケーエスエス,0
997,4320001019573,新規,0,2023-02-14,2023-02-14,株式会社藤羽,,株式会社,大分県,大分市,大字葛木４４２番地の７,,44,201,8700133,,,,,,,2023-02-14,1,,,,,トウワ,0
1001,4330001030595,新規,0,2023-02-14,2023-02-14,株式会社ＦＵＬＬＳＣＯＲＥ,,株式会社,熊本県,菊池郡菊陽町,光の森４丁目１２番２０号,,43,404,8691108,,,,,,,2023-02-14,1,,,,,フルスコア,0
1002,4330003009704,新規,0,2023-02-14,2023-02-14,合同会社Ｋ　Ｆｏｒｅｓｔ,,合同会社,熊本県,熊本市中央区,新市街１－２８ＴＨＥＰＬＡＣＥ花畑ビル６Ｆ,,43,101,8600803,,,,,,,2023-02-14,1,,,,,ケイフォレスト,0
1004,4360001031558,新規,0,2023-02-14,2023-02-14,とし建装株式会社,,株式会社,沖縄県,浦添市,字沢岻１１０８番地１、１０３号,,47,208,9012112,,,,,,,2023-02-14,1,,,,,トシケンソウ,0
1006,4360003012721,新規,0,2023-02-14,2023-02-14,合同会社ヨシケンソウ,,合同会社,沖縄県,うるま市,字川崎２１７番地７,,47,213,9042203,,,,,,,2023-02-14,1,,,,,ヨシケンソウ,0
1025,4480003001935,新規,0,2023-02-14,2023-02-14,合同会社みらい,,合同会社,徳島県,板野郡北島町,高房字百川田１８番地,,36,402,7710206,,,,,,,2023-02-14,1,,,,,ミライ,0
1032,4700150113023,新規,0,2023-02-14,2023-01-24,ふくしまインフラメンテナンス技術者育成協議会,,その他,福島県,福島市,五月町４－２５,,07,201,9608061,,,,,,,2023-01-24,1,,,,,フクシマインフラメンテナンスギジユツシヤイクセイキヨウギカイ,0
1033,4700150114302,新規,0,2023-02-14,2023-02-14,ＪｉａＸｉｎｇＳｈｉ　ＳｕｏＢｅｉＪｉｎＣｈｕＫｏｕＹｏｕＸｉａｎＧｏｎｇＳｉ,,外国会社等,,,,,,,,Ｂｕｉｌｄｉｎｇ　３２，Ｂｅｉｋｅｊｉａｎ　Ｉｎｎｏｖａｔｉｏｎ　Ｐａｒｋ，Ｎｏ．９６６，Ｘｉｕｙｕａｎ　Ｒｏａｄ，Ｘｉｕｚｈｏｕ　Ｄｉｓｔｒｉｃｔ　Ｊｉａｘｉｎｇ　Ｚｈｅｊｉａｎｇ,,,,,,2023-02-14,1,,,,,ジヤシンシソベシンシユツグチユウゲンコウシ,0
1034,4700150114310,新規,0,2023-02-14,2023-02-14,ＺＨＵＨＡＩ　ＨＡＮＧＳＨＥＮＧ　ＫＥＪＩ　ＹＯＵＸＩＡＮ　ＧＯＮＧＳＩ,,外国会社等,,,,,,,,ＺＨＵ　ＨＡＩ　ＳＨＩ　ＸＩＡＮＧ　ＺＨＯＵ　ＱＵ　ＱＩＡＮ　ＳＨＡＮ　ＣＵＩ　ＺＨＵ　ＳＩ　ＪＩＥ　１　ＨＡＯ　２　ＤＯＮＧ　２　ＬＯＵ　２０８,,,,,,2023-02-14,1,,,,,ヅウハイハンシエンカギユウゲンコウシ,0
1035,4700150114319,新規,0,2023-02-14,2023-02-14,相模原中央保護区保護司会,,その他,神奈川県,相模原市中央区,富士見６丁目１番２０号あじさい会館３階,,14,152,2520236,,,,,,,2023-02-14,1,,,,,サガミハラチュウオウホゴクホゴシカイ,0
1041,5010001232751,新規,0,2023-02-14,2023-02-14,株式会社ＡＣＰ,,株式会社,東京都,千代田区,神田佐久間町１丁目２６番地,,13,101,1010025,,,,,,,2023-02-14,1,,,,,エーシーピー,0
1042,5010001232900,新規,0,2023-02-14,2023-02-14,株式会社Ｏｒｃｈｉｄ,,株式会社,東京都,中央区,銀座７丁目１４番１３号,,13,102,1040061,,,,,,,2023-02-14,1,,,,,オーキッド,0
1049,5010401172515,新規,0,2023-02-14,2023-02-14,株式会社山吉,,株式会社,東京都,港区,赤坂３丁目１１番７号,,13,103,1070052,,,,,,,2023-02-14,1,,,,,サンキチ,0
1050,5010403029507,新規,0,2023-02-14,2023-02-14,合同会社ｅｐｏｑｕｅ,,合同会社,東京都,港区,南青山１丁目１７番１６号ミラフィール４０２,,13,103,1070062,,,,,,,2023-02-14,1,,,,,エポック,0
1057,5010801033688,新規,0,2023-02-14,2023-02-14,株式会社ＧＲＥ,,株式会社,東京都,大田区,中央８丁目２番４号,,13,111,1430024,,,,,,,2023-02-14,1,,,,,ジーアールイー,0
1067,5011001152592,新規,0,2023-02-14,2023-02-14,株式会社ｏｍｏｉｄｅｄｕｋｕｒｉ,,株式会社,東京都,渋谷区,桜丘町１４番６号黒松ビル４０２,,13,113,1500031,,,,,,,2023-02-14,1,,,,,オモイデヅクリ,0
1068,5011001152642,新規,0,2023-02-14,2023-02-14,ｐｉｇｌｅｔ株式会社,,株式会社,東京都,渋谷区,神宮前３丁目３番２号,,13,113,1500001,,,,,,,2023-02-14,1,,,,,ピグレット,0
1073,5011101101813,新規,0,2023-02-14,2023-02-14,株式会社ＢｒｕｎｃｈＭａｄｅ,,株式会社,東京都,新宿区,中落合２丁目２２番６号,,13,104,1610032,,,,,,,2023-02-14,1,,,,,ブランチメイド,0
1074,5011103012661,新規,0,2023-02-14,2023-02-14,合同会社ｖｉｒｔｕａｌ,,合同会社,東京都,新宿区,西新宿３丁目３番１３号西新宿水間ビル６階,,13,104,1600023,,,,,,,2023-02-14,1,,,,,バーチャル,0
1077,5011201024419,新規,0,2023-02-14,2023-02-14,Ｕ．Ｄ株式会社,,株式会社,東京都,中野区,松が丘２丁目１番１号,,13,114,1650024,,,,,,,2023-02-14,1,,,,,ユーディー,0
1083,5011801041937,新規,0,2023-02-14,2023-02-14,株式会社ＲｉｃｈＨｏｍｅ,,株式会社,東京都,葛飾区,奥戸８丁目１番１４号,,13,122,1240022,,,,,,,2023-02-14,1,,,,,リッチホーム,0
1085,5012401040172,新規,0,2023-02-14,2023-02-14,ＳＧＰ株式会社,,株式会社,東京都,府中市,清水が丘３丁目２３－１４清水ヶ丘ビル４０１,,13,206,1830015,,,,,,,2023-02-14,1,,,,,エスジーピー,0
1086,5012401040189,新規,0,2023-02-14,2023-02-14,株式会社ミクト,,株式会社,東京都,三鷹市,井の頭１丁目７番３９号,,13,204,1810001,,,,,,,2023-02-14,1,,,,,ミクト,0
1093,5013301050328,新規,0,2023-02-14,2023-02-14,株式会社ボクサーネット,,株式会社,東京都,豊島区,巣鴨４丁目９－１２,,13,116,1700002,,,,,,,2023-02-14,1,,,,,ボクサーネット,0
1097,5020003023306,新規,0,2023-02-14,2023-02-14,合同会社ＫＡＴＳＵＺＯ,,合同会社,神奈川県,川崎市中原区,下沼部１９２４番地ＴＡＩＫＯ１９２４－１０１,,14,133,2110011,,,,,,,2023-02-14,1,,,,,カツゾー,0
1100,5021001078201,新規,0,2023-02-14,2023-02-14,株式会社アグリライフ,,株式会社,神奈川県,横須賀市,長井６丁目３番３号,,14,201,2380316,,,,,,,2023-02-14,1,,,,,アグリライフ,0
1103,5030001152403,新規,0,2023-02-14,2023-02-14,株式会社ＤＩＪＷＡＲ,,株式会社,埼玉県,川口市,北園町１７番４号,,11,203,3330862,,,,,,,2023-02-14,1,,,,,ディジワル,0
1110,5030003021119,新規,0,2023-02-14,2023-02-14,合同会社ＴＡＮＡＴＷＯ　Ｃ＆Ｉ,,合同会社,埼玉県,入間市,高倉１丁目３番４号,,11,225,3580021,,,,,,,2023-02-14,1,,,,,タナトゥーシーアンドアイ,0
1113,5040001127065,新規,0,2023-02-14,2023-02-14,株式会社Ｔｒｕｅ　Ｃｏｌｏｒｓ,,株式会社,千葉県,船橋市,丸山３丁目１－２,,12,204,2730048,,,,,,,2023-02-14,1,,,,,トゥルーカラーズ,0
1119,5040003021919,新規,0,2023-02-14,2023-02-14,合同会社熊川ビル１８,,合同会社,千葉県,浦安市,北栄１丁目１５番２７号熊川ビル１８,,12,227,2790002,,,,,,,2023-02-14,1,,,,,クマカワビルジュウハチ,0
1120,5040003021943,新規,0,2023-02-14,2023-02-14,合同会社ＡＳＫ,,合同会社,千葉県,松戸市,五香７丁目４３番地の１２,,12,207,2702213,,,,,,,2023-02-14,1,,,,,エーエスケー,0
1124,5060001035695,新規,0,2023-02-14,2023-02-14,株式会社松由,,株式会社,栃木県,宇都宮市,上桑島町１４０７番地９,,09,201,3210913,,,,,,,2023-02-14,1,,,,,マツヨシ,0
1125,5070001040125,新規,0,2023-02-14,2023-02-14,出雲工業株式会社,,株式会社,群馬県,富岡市,下黒岩６３３番地,,10,210,3702341,,,,,,,2023-02-14,1,,,,,イズモコウギョウ,0
1126,5070001040133,新規,0,2023-02-14,2023-02-14,ワイケーム株式会社,,株式会社,群馬県,高崎市,日高町１１１８番地３,,10,202,3700002,,,,,,,2023-02-14,1,,,,,ワイケーム,0
1127,5080001025463,新規,0,2023-02-14,2023-02-14,株式会社宮本電装,,株式会社,静岡県,静岡市清水区,吉川１０６８番地の６,,22,103,4240055,,,,,,,2023-02-14,1,,,,,ミヤモトデンソウ,0
1133,5080103002749,新規,0,2023-02-14,2023-02-14,合同会社松尾観光研究所,,合同会社,静岡県,熱海市,下多賀７０８－１６,,22,205,4130102,,,,,,,2023-02-14,1,,,,,マツオカンコウケンキュウジョ,0
1137,5090003002245,新規,0,2023-02-14,2023-02-14,西川ＮＫＧ合同会社,,合同会社,山梨県,西八代郡市川三郷町,岩間５１６７番地,,19,346,4093244,,,,,,,2023-02-14,1,,,,,ニシカワノキグ,0
1138,5100001036152,新規,0,2023-02-14,2023-02-14,株式会社アールベース,,株式会社,長野県,茅野市,玉川４１８１番地２,,20,214,3910011,,,,,,,2023-02-14,1,,,,,アールベース,0
1139,5110003004981,新規,0,2023-02-14,2023-02-14,合同会社五条,,合同会社,新潟県,上越市,大字上源入３８０番地７,,15,222,9420052,,,,,,,2023-02-14,1,,,,,,0
1147,5120001252466,新規,0,2023-02-14,2023-02-14,木永株式会社,,株式会社,大阪府,大阪市東成区,大今里西３丁目２－２９アパートメント東成ＩＩ４０６号室,00129426,27,115,5370014,,,,,,,2023-02-14,1,,,,,モクエイ,0
1148,5120001252516,新規,0,2023-02-14,2023-02-14,株式会社ＲＯＯＴ,,株式会社,大阪府,大阪市中央区,島之内２丁目５番２７号,,27,128,5420082,,,,,,,2023-02-14,1,,,,,ルート,0
1151,5120003023436,新規,0,2023-02-14,2023-02-14,ＥＳＯＬＡ合同会社,,合同会社,大阪府,大阪市西区,南堀江１丁目１７番１１－１３０８,,27,106,5500015,,,,,,,2023-02-14,1,,,,,エソラ,0
1156,5120103005078,新規,0,2023-02-14,2023-02-14,ＤＯＬＭＡ合同会社,,合同会社,大阪府,松原市,天美東１丁目７番７号,,27,217,5800032,,,,,,,2023-02-14,1,,,,,ドルマ,0
1160,5120901047123,新規,0,2023-02-14,2023-02-14,株式会社Ｃｈａｎｇｅ　Ｏｖｅｒ,,株式会社,大阪府,茨木市,太田１丁目１番２６号ハイツ弥栄３０５号室,,27,211,5670018,,,,,,,2023-02-14,1,,,,,チェンジオーバー,0
1166,5130003008493,新規,0,2023-02-14,2023-02-14,合同会社トランスポートネオ,,合同会社,京都府,京田辺市,薪堀切谷７－１０５,,26,211,6100341,,,,,,,2023-02-14,1,,,,,トランスポートネオ,0
1172,5140001129150,新規,0,2023-02-14,2023-02-14,株式会社明日晴,,株式会社,兵庫県,姫路市,飾磨区富士見ケ丘町１０－９,,28,201,6728098,,,,,,,2023-02-14,1,,,,,アッパレ,0
1180,5170001017476,新規,0,2023-02-14,2023-02-14,株式会社ｂｅｃｏｍｅ,,株式会社,和歌山県,和歌山市,小雑賀７１４番地の１,,30,201,6410007,,,,,,,2023-02-14,1,,,,,ビカム,0
1186,5180001154979,新規,0,2023-02-14,2023-02-14,株式会社スミカカルム,,株式会社,愛知県,日進市,岩崎台３丁目１００８番地２,,23,230,4700135,,,,,,,2023-02-14,1,,,,,スミカカルム,0
1187,5180001155003,新規,0,2023-02-14,2023-02-14,エステート・リーガル株式会社,,株式会社,愛知県,名古屋市守山区,四軒家２丁目５０１番地,,23,113,4630034,,,,,,,2023-02-14,1,,,,,エステートリーガル,0
1192,5200001040953,新規,0,2023-02-14,2023-02-14,株式会社ＳｍａｒｔＶｉｓｉｏｎ研究所,,株式会社,岐阜県,郡上市,八幡町桜町２６９番地８,,21,219,5014228,,,,,,,2023-02-14,1,,,,,スマートヴィジョンケンキュウジョ,0
1193,5200001040961,新規,0,2023-02-14,2023-02-14,株式会社ＨＢＡＡ,,株式会社,岐阜県,羽島郡岐南町,石原瀬２丁目８３番地,,21,302,5016015,,,,,,,2023-02-14,1,,,,,ハブア,0
1195,5240001061087,新規,0,2023-02-14,2023-02-14,株式会社ヒノマエ３Ｒ,,株式会社,広島県,尾道市,御調町大蔵１６３番地,,34,205,7220323,,,,,,,2023-02-14,1,,,,,ヒノマエサンアール,0
1203,5290001100559,新規,0,2023-02-14,2023-02-14,株式会社ＴＲＩＮＩＴＹ,,株式会社,福岡県,糟屋郡新宮町,三代西２丁目１１－１０,,40,345,8110125,,,,,,,2023-02-14,1,,,,,トリニティ,0
1206,5290003013528,新規,0,2023-02-14,2023-02-14,ＢＬＵＥ　ＳＫＹ合同会社,,合同会社,福岡県,福岡市博多区,博多駅前１丁目２３番１号ＰａｒｋＦｒｏｎｔ博多駅前１丁目５Ｆ－Ｂ,,40,132,8120011,,,,,,,2023-02-14,1,,,,,ブルースカイ,0
1210,5330001030594,新規,0,2023-02-14,2023-02-14,株式会社ＦＵＺＩＭＵＲＡ,,株式会社,熊本県,熊本市中央区,下通１丁目１１番８号ＳＯＵＷＡビル５階,,43,101,8600807,,,,,,,2023-02-14,1,,,,,フジムラ,0
1212,5330003009703,新規,0,2023-02-14,2023-02-14,Ｊｕｍｂｏ合同会社,,合同会社,熊本県,宇土市,定府町１２番地,,43,211,8690436,,,,,,,2023-02-14,1,,,,,ジャンボ,0
1229,5430001088425,新規,0,2023-02-14,2023-02-14,斎泰株式会社,,株式会社,北海道,札幌市清田区,平岡九条１丁目１１番３８号,,01,110,0040879,,,,,,,2023-02-14,1,,,,,サイタイ,0
1231,5430003014734,新規,0,2023-02-14,2023-02-14,合同会社プラスパ,,合同会社,北海道,札幌市西区,琴似三条２丁目８番１８－４０５号,,01,107,0630813,,,,,,,2023-02-14,1,,,,,プラスパ,0
1232,5440005002744,新規,0,2023-02-14,2023-02-14,一般社団法人ナセバナルナニゴトモ,,その他の設立登記法人,北海道,函館市,千代台町２６番１６号,,01,202,0400013,,,,,,,2023-02-14,1,,,,,ナセバナルナニゴトモ,0
1248,5500003002979,新規,0,2023-02-14,2023-02-14,合同会社ＭＳＹ,,合同会社,愛媛県,松山市,東山町１２番２２号,,38,201,7918074,,,,,,,2023-02-14,1,,,,,エムエスワイ,0
1251,5700150114301,新規,0,2023-02-14,2023-02-14,ｙｉｗｕｓｈｉｙｉｘｉｎｇｍａｏｙｉｙｏｕｘｉａｎｇｏｎｇｓｉ,,外国会社等,,,,,,,,Ｎｏ．２，Ｂｕｉｌｄｉｎｇ　９，Ｈｏｕｃｈｅｎｇ　Ｓｅｃｏｎｄ　Ｄｉｓｔｒｉｃｔ，Ｊｉａｎｇｄｏｎｇ　Ｓｔｒｅｅｔ，Ｙｉｗｕ　Ｃｉｔｙ，Ｚｈｅｊｉａｎｇ　Ｐｒｏｖｉｎｃｅ,,,,,,2023-02-14,1,,,,,イウシイシンボウエキユウゲンコウシ,0
1252,5700150114318,新規,0,2023-02-14,2023-02-14,ｃｈｅｎｇｄｕ　ｗｅｉｎｕｏｗａｎｂｉｎ　ｄｉａｎｚｉｓｈａｎｇｗｕ　ｙｏｕｘｉａｎｇｏｎｇｓｉ,,外国会社等,,,,,,,,Ｈｕｉｙｕａｎ　Ｎｏｒｔｈ　Ｒｏａｄ　３２４　ｗｉｔｈ　２１，２ｎｄ　ｆｌｏｏｒ　ｗｉｔｈ　６３５３，Ｊｉｎｊｉａｎｇ　Ｄｉｓｔｒｉｃｔ，Ｃｈｅｎｇｄｕ　Ｐｒｏｖｉｎｃｅ，Ｃｈｉｎａ,,,,,,2023-02-14,1,,,,,チェンジュウェイノワンビンデンシショウムユウゲンコウシ,0
1265,6010401172506,新規,0,2023-02-14,2023-02-14,ＢＢＫ株式会社,,株式会社,東京都,港区,六本木５丁目１６－５－１００８号,,13,103,1060032,,,,,,,2023-02-14,1,,,,,ビービーケー,0
1270,6010601062597,新規,0,2023-02-14,2023-02-14,株式会社ＫＥＳ,,株式会社,東京都,江東区,豊洲３丁目４番１号,,13,108,1350061,,,,,,,2023-02-14,1,,,,,ケーイーエス,0
1274,6010901052521,新規,0,2023-02-14,2023-02-14,株式会社ｔｏｉｔｏ,,株式会社,東京都,世田谷区,三宿２丁目２８番２９－６０１号,,13,112,1540005,,,,,,,2023-02-14,1,,,,,トイト,0
1283,6011001151742,新規,0,2023-02-14,2023-02-14,株式会社ｍｅｌｔ,,株式会社,東京都,渋谷区,広尾５丁目３－１５ＨＨＢ３Ｆ,,13,113,1500012,,,,,,,2023-02-14,1,,,,,メルト,0
1284,6011001152550,新規,0,2023-02-14,2023-02-14,株式会社Ａｒｄｏｒ　Ｐａｒｉｓ,,株式会社,東京都,渋谷区,恵比寿１丁目３１番２－９０４号,,13,113,1500013,,,,,,,2023-02-14,1,,,,,アーダーパリ,0
1285,6011001152609,新規,0,2023-02-14,2023-02-14,フォルダボトリング株式会社,,株式会社,東京都,渋谷区,渋谷３丁目１０番１５号,,13,113,1500002,,,,,,,2023-02-14,1,,,,,フォルダボトリング,0
1289,6011101101812,新規,0,2023-02-14,2023-02-14,株式会社ｔｅｍｐｒａｎｏ,,株式会社,東京都,新宿区,西新宿３丁目３番１３号西新宿水間ビル２Ｆ,,13,104,1600023,,,,,,,2023-02-14,1,,,,,テンプラーノ,0
1290,6011101101829,新規,0,2023-02-14,2023-02-14,株式会社ＦＡＮＹ　Ｓｔｕｄｉｏ,,株式会社,東京都,新宿区,新宿５丁目１８番２１号,,13,104,1600022,,,,,,,2023-02-14,1,,,,,ファニースタジオ,0
1292,6011103012693,新規,0,2023-02-14,2023-02-14,ＬＵＣＫＹ合同会社,,合同会社,東京都,新宿区,百人町２丁目１６番５－２０３号,,13,104,1690073,,,,,,,2023-02-14,1,,,,,ラッキー,0
1296,6011301028450,新規,0,2023-02-14,2023-02-14,エイチ・アセットマネジメント株式会社,,株式会社,東京都,杉並区,南荻窪２丁目２９番８号,,13,115,1670052,,,,,,,2023-02-14,1,,,,,エイチアセットマネジメント,0
1297,6011501028969,新規,0,2023-02-14,2023-02-14,ＩＤＲ株式会社,,株式会社,東京都,荒川区,東尾久１丁目３４－６－１０２,,13,118,1160012,,,,,,,2023-02-14,1,,,,,アイディアル,0
1309,6013301050327,新規,0,2023-02-14,2023-02-14,株式会社ベスコム,,株式会社,東京都,豊島区,南大塚２丁目３８番１号,,13,116,1700005,,,,,,,2023-02-14,1,,,,,ベスコム,0
1323,6021003012768,新規,0,2023-02-14,2023-02-14,合同会社Ｆａｃｉｌｉｓ,,合同会社,神奈川県,秦野市,曲松１丁目４番１号中央商事ビル３０１号,,14,211,2591321,,,,,,,2023-02-14,1,,,,,ファシリス,0
1326,6030001152377,新規,0,2023-02-14,2023-02-14,Ｔｅｃｈｎｉｃａｌ　Ｔｏｕｃｈ　Ａｓｉａ株式会社,,株式会社,埼玉県,春日部市,下柳４３番地１,,11,214,3440122,,,,,,,2023-02-14,1,,,,,テクニカルタッチアジア,0
1333,6030003021175,新規,0,2023-02-14,2023-02-14,合同会社ステルク,,合同会社,埼玉県,川口市,北原台２丁目５番２３号北原台ガーデン１０１,,11,203,3330815,,,,,,,2023-02-14,1,,,,,ステルク,0
1343,6040003021901,新規,0,2023-02-14,2023-02-14,ＡＵＲＵＭ合同会社,,合同会社,千葉県,市原市,姉崎７９７番地１０,,12,219,2990111,,,,,,,2023-02-14,1,,,,,オーラム,0
1345,6050001052402,新規,0,2023-02-14,2023-02-14,株式会社グロワール,,株式会社,茨城県,かすみがうら市,稲吉２丁目１９番１５号－１０５,,08,230,3150054,,,,,,,2023-02-14,1,,,,,グロワール,0
1347,6050003007239,新規,0,2023-02-14,2023-02-14,ＡＢＩＭＡ合同会社,,合同会社,茨城県,筑西市,玉戸１２７０番地４００,,08,227,3080847,,,,,,,2023-02-14,1,,,,,アビマ,0
1348,6060001035694,新規,0,2023-02-14,2023-02-14,株式会社ＴＳＧ,,株式会社,栃木県,足利市,緑町２丁目２０番地３,,09,202,3260816,,,,,,,2023-02-14,1,,,,,ティエスジー,0
1349,6060003004417,新規,0,2023-02-14,2023-02-14,合同会社Ｗｉｎ堂,,合同会社,栃木県,宇都宮市,宿郷２丁目７番３号ＩＲビル宿郷３階Ｄ号室,,09,201,3210945,,,,,,,2023-02-14,1,,,,,ウィンドウ,0
1352,6070001040132,新規,0,2023-02-14,2023-02-14,株式会社アローム,,株式会社,群馬県,渋川市,吹屋６０６番地１６,,10,208,3770203,,,,,,,2023-02-14,1,,,,,アローム,0
1356,6080001025462,新規,0,2023-02-14,2023-02-14,株式会社ＴＯＫＡＩキッズタッチ,,株式会社,静岡県,静岡市葵区,常磐町２丁目６番地の８,,22,101,4200034,,,,,,,2023-02-14,1,,,,,トーカイキッズタッチ,0
1360,6080103002748,新規,0,2023-02-14,2023-02-14,合同会社Ｋ５,,合同会社,静岡県,三島市,文教町１丁目５番１５号,,22,206,4110033,,,,,,,2023-02-14,1,,,,,ケーファイブ,0
1361,6080401026317,新規,0,2023-02-14,2023-02-14,株式会社暖,,株式会社,静岡県,浜松市東区,上新屋町１７番地の１,,22,132,4350053,,,,,,,2023-02-14,1,,,,,ダン,0
1362,6100001036151,新規,0,2023-02-14,2023-02-14,株式会社ＢＯＡＧ,,株式会社,長野県,千曲市,大字戸倉１６５６－１,,20,218,3890804,,,,,,,2023-02-14,1,,,,,ボーグ,0
1364,6110001037297,新規,0,2023-02-14,2023-02-14,株式会社Ｍｉｌｅｓｔｏｎｅ,,株式会社,新潟県,長岡市,大手通２丁目２番地６,,15,202,9400062,,,,,,,2023-02-14,1,,,,,マイルストーン,0
1374,6120001252457,新規,0,2023-02-14,2023-02-14,株式会社大野,,株式会社,大阪府,大阪市東住吉区,駒川１丁目１番１９号,,27,121,5460043,,,,,,,2023-02-14,1,,,,,オオノ,0
1375,6120001252465,新規,0,2023-02-14,2023-02-14,株式会社エイチ,,株式会社,大阪府,大阪市中央区,安堂寺町２丁目６番１１－２０９号,,27,128,5420061,,,,,,,2023-02-14,1,,,,,エイチ,0
1379,6120101066996,新規,0,2023-02-14,2023-02-14,株式会社ＭＵＲＡＴＡ,,株式会社,大阪府,羽曳野市,高鷲７丁目４２番地の２,,27,222,5830882,,,,,,,2023-02-14,1,,,,,ムラタ,0
1380,6120103005077,新規,0,2023-02-14,2023-02-14,合同会社ＷＡＦＡＭ,,合同会社,大阪府,貝塚市,澤５９４番地５,,27,208,5970062,,,,,,,2023-02-14,1,,,,,ワーファム,0
1389,6122003002518,新規,0,2023-02-14,2023-02-14,合同会社アール・ユー・シー,,合同会社,大阪府,八尾市,大字大窪４５０番地の２,,27,212,5810863,,,,,,,2023-02-14,1,,,,,アールユーシー,0
1390,6130001073646,新規,0,2023-02-14,2023-02-14,株式会社おうちのかなめ,,株式会社,京都府,京都市伏見区,淀際目町４１８番地４,,26,109,6130915,,,,,,,2023-02-14,1,,,,,オウチノカナメ,0
1391,6130001073679,新規,0,2023-02-14,2023-02-14,株式会社ＷＨＥＥＬ,,株式会社,京都府,京都市上京区,今出川通七本松西入真盛町７２４番地,,26,102,6028381,,,,,,,2023-02-14,1,,,,,ウィール,0
1398,6140001129117,新規,0,2023-02-14,2023-02-14,株式会社ＪＫ　Ｂｒｏｔｈｅｒｓ　ＪＡＰＡＮ,,株式会社,兵庫県,神戸市北区,鈴蘭台東町４丁目５番１７メゾンＡＬＬ－ＩＮ３０７号,,28,109,6511112,,,,,,,2023-02-14,1,,,,,ジェイケーブラザーズジャパン,0
1413,6180001154796,新規,0,2023-02-14,2023-02-14,株式会社ＭＷＮ,,株式会社,愛知県,名古屋市中区,錦３丁目１２番１７号,,23,106,4600003,,,,,,,2023-02-14,1,,,,,エムダブリューエヌ,0
1414,6180001154953,新規,0,2023-02-14,2023-02-14,一条不動産株式会社,,株式会社,愛知県,名古屋市千種区,内山１丁目５番２８号,,23,101,4640075,,,,,,,2023-02-14,1,,,,,イチジョウフドウサン,0
1415,6180001154994,新規,0,2023-02-14,2023-02-14,株式会社ゆの字,,株式会社,愛知県,名古屋市名東区,代万町１丁目５７番地の１ミ・カーサＮ棟Ｎ－２Ｆ号,,23,115,4650086,,,,,,,2023-02-14,1,,,,,ユノジ,0
1417,6180003024816,新規,0,2023-02-14,2023-02-14,合同会社ＭＴＮ,,合同会社,愛知県,名古屋市西区,又穂町６丁目４２ミヒロハイツ１０８号室,,23,104,4510014,,,,,,,2023-02-14,1,,,,,エムティーエヌ,0
1418,6180005020111,新規,0,2023-02-14,2023-02-14,一般社団法人Ｋｏｔｏｎａ,,その他の設立登記法人,愛知県,名古屋市名東区,上社３丁目１８０７番地ＳＡＮ上社１０２,,23,115,4650025,,,,,,,2023-02-14,1,,,,,コトナ,0
1435,6200001040960,新規,0,2023-02-14,2023-02-14,株式会社マルケン,,株式会社,岐阜県,安八郡神戸町,大字神戸１４８０番地の３,,21,381,5032305,,,,,,,2023-02-14,1,,,,,マルケン,0
1438,6220003003451,新規,0,2023-02-14,2023-02-14,合同会社ＡＤＶＡＮＣＥ,,合同会社,石川県,かほく市,七窪ヨ４３番地２,,17,209,9291122,,,,,,,2023-02-14,1,,,,,アドバンス,0
1440,6230001019705,新規,0,2023-02-14,2023-02-14,株式会社ハリイ,,株式会社,富山県,富山市,蓮町１丁目７番３－３０７号ＳＣＯＰ　ＴＯＹＡＭＡセンター棟,00129425,16,201,9318333,,,,,,,2023-02-14,1,,,,,ハリイ,0
1456,6270003001491,新規,0,2023-02-14,2023-02-14,ＳＯＯ合同会社,,合同会社,鳥取県,倉吉市,関金町大鳥居１１３３－２７,,31,203,6820402,,,,,,,2023-02-14,1,,,,,ソウ,0
1461,6290001100558,新規,0,2023-02-14,2023-02-14,株式会社カルティベート,,株式会社,福岡県,福岡市南区,桧原１丁目２１番１８号,,40,134,8111355,,,,,,,2023-02-14,1,,,,,カルティベート,0
1462,6290001100582,新規,0,2023-02-14,2023-02-14,株式会社モーモームー,,株式会社,福岡県,福岡市中央区,大名１丁目３－４１プリオ大名ビル２Ｆ,,40,133,8100041,,,,,,,2023-02-14,1,,,,,モーモームー,0
1463,6290003013527,新規,0,2023-02-14,2023-02-14,合同会社タイゼン,,合同会社,福岡県,福岡市早良区,田村７丁目８番１８号,,40,137,8140175,,,,,,,2023-02-14,1,,,,,タイゼン,0
1469,6300001013221,新規,0,2023-02-14,2023-02-14,株式会社ハチロク,,株式会社,佐賀県,鳥栖市,酒井西町８２８番地１,,41,203,8410042,,,,,,,2023-02-14,1,,,,,ハチロク,0
1473,6330001030593,新規,0,2023-02-14,2023-02-14,株式会社バイポーラ・Ｎａｔｕｒａ,,株式会社,熊本県,熊本市南区,城南町鰐瀬１９７番地,,43,104,8614222,,,,,,,2023-02-14,1,,,,,バイポーラナチュラ,0
1476,6330003009719,新規,0,2023-02-14,2023-02-14,合同会社ＡＮＧＥＬＩＦＥ,,合同会社,熊本県,菊池郡大津町,大字室１１２６番地１３,,43,403,8691235,,,,,,,2023-02-14,1,,,,,エンジェライフ,0
1481,6360001031556,新規,0,2023-02-14,2023-02-14,ゆいパートナーサービス株式会社,,株式会社,沖縄県,浦添市,屋富祖３丁目３３番１号,,47,208,9012127,,,,,,,2023-02-14,1,,,,,ユイパートナーサービス,0
1487,6370001049597,新規,0,2023-02-14,2023-02-14,株式会社颯爽,,株式会社,宮城県,塩竈市,清水沢２丁目３１番１７号,,04,203,9850061,,,,,,,2023-02-14,1,,,,,サッソウ,0
1501,6430001088440,新規,0,2023-02-14,2023-02-14,株式会社プラットファーマー,,株式会社,北海道,札幌市東区,伏古十条２丁目１６－５左,,01,103,0070870,,,,,,,2023-02-14,1,,,,,プラットファーマー,0
1511,6490003001742,新規,0,2023-02-14,2023-02-14,合同会社大月開発,,合同会社,高知県,幡多郡大月町,大字赤泊５９０番地１９,,39,424,7880332,,,,,,,2023-02-14,1,,,,,オオツキカイハツ,0
1520,6500003002978,新規,0,2023-02-14,2023-02-14,大信頼任意後見総合コンサルタント合同会社,,合同会社,愛媛県,松山市,西長戸町３３５－１９,,38,201,7918017,,,,,,,2023-02-14,1,,,,,ダイシンライニンイコウケンソウゴウコンサルタント,0
1523,6700150045487,新規,0,2023-02-14,2015-10-09,伊東国際交流協会,,その他,静岡県,伊東市,松川町３－４太田ビル２階,,22,208,4140011,,,,,,,2015-10-09,1,,,,,イトウコクサイコウリユウキヨウカイ,0
1525,6700150114300,新規,0,2023-02-14,2023-02-14,杭州和悟実貿易有限公司　日本駐在員事務所,,外国会社等,東京都,台東区,浅草橋５丁目１－３１ロッキービル３階　ＤＡＯＳＰＡＣＥ３０９号室,,13,106,1110053,浙江省杭州市江区西興街道濱盛路１５０５号銀豊大厦６０３室,,,,,,2023-02-14,1,,,,,コウシユウワゴジツボウエキユウゲンコウシニホンチユウザイインジムシヨ,0
1526,6700150114309,新規,0,2023-02-14,2023-02-14,ＺＨＵ　ＨＡＩ　ＹＩＮＧ　ＱＵＥ　ＫＥ　ＪＩ　ＹＯＵ　ＸＩＡＮ　ＧＯＮＧ　ＳＩ,,外国会社等,,,,,,,,ｑｉａｎ　ｓｈａｎ　ｃｕｉ　ｚｈｕ　ｓｉ　ｊｉｅ　１　ｈａｏ　２　ｄｏｎｇ　ｅｒ　ｌｏｕ　２０３，Ｚｈｕ　ｈａｉ　ｓｈｉ，Ｇｕａｎｇｄｏｎｇ，Ｘｉａｎｇ　ｚｈｏｕ　ｑｕ，Ｃｈｉｎａ,,,,,,2023-02-14,1,,,,,ヅウハイインチエカギユウゲンコウシ,0
1527,6700150114317,新規,0,2023-02-14,2023-02-14,ｄｏｎｇｇｕａｎｓｈｉ　ｘｉａｎｇｊｉａｎｄｉａｎｚｉ　ｓｈａｎｇｗｕｙｏｕｘｉａｎｇｏｎｇｓｉ,,外国会社等,,,,,,,,Ｙｕａｎ　ｚｈｏｕ　ｄｏｎｇ　ｙｉ　ｌｕ　１５　ｈａｏ　２０１　ｆａｎｇ，ｄｏｎｇ　ｇｕａｎ　ｓｈｉ，ｇｕａｎｇ　ｄｏｎｇ　ｓｈｅｎｇ，ｈｏｕ　ｊｉｅ　ｚｈｅｎ，ｚｈｏｎｇ　ｇｕｏ，Ｃｈｉｎａ,,,,,,2023-02-14,1,,,,,ドンガンシシャングジアンデンシショウムユウゲンコウシ,0
1544,7010005036255,新規,0,2023-02-14,2023-02-14,一般社団法人ＩＦＡ,,その他の設立登記法人,東京都,千代田区,六番町６番地４ＬＨ番町スクエア５階,,13,101,1020085,,,,,,,2023-02-14,1,,,,,アイエフエー,0
1557,7010401172439,新規,0,2023-02-14,2023-02-14,株式会社縁しえいと,,株式会社,東京都,港区,浜松町２丁目２番１５号浜松町ダイヤビル２Ｆ,,13,103,1050013,,,,,,,2023-02-14,1,,,,,エンシエイト,0
1558,7010401172455,新規,0,2023-02-14,2023-02-14,Ｕ株式会社,,株式会社,東京都,港区,赤坂５丁目３－３赤坂ザレジデンス,,13,103,1070052,,,,,,,2023-02-14,1,,,,,ユー,0
1559,7010401172463,新規,0,2023-02-14,2023-02-14,株式会社オフィス皇,,株式会社,東京都,港区,浜松町２丁目７－１５三電舎ビル７０１号室,,13,103,1050013,,,,,,,2023-02-14,1,,,,,オフィススメラギ,0
1560,7010401172496,新規,0,2023-02-14,2023-02-14,株式会社プレストソリューション,,株式会社,東京都,港区,虎ノ門１丁目１６番９号,,13,103,1050001,,,,,,,2023-02-14,1,,,,,プレストソリューション,0
1563,7010405021815,新規,0,2023-02-14,2023-02-14,クイーンズウェイ一般社団法人,,その他の設立登記法人,東京都,港区,六本木１丁目６番１号泉ガーデンタワー,,13,103,1060032,,,,,,,2023-02-14,1,,,,,クイーンズウェイ,0
1570,7010603009991,新規,0,2023-02-14,2023-02-14,２Ａクリエイト合同会社,,合同会社,東京都,江東区,有明２丁目１－２－３０２１,,13,108,1350063,,,,,,,2023-02-14,1,,,,,ツーエークリエイト,0
1576,7011001152517,新規,0,2023-02-14,2023-02-14,株式会社ＣＯＬＯＲ,,株式会社,東京都,渋谷区,恵比寿西２丁目１７－１７Ｂ１Ｆ,,13,113,1500021,,,,,,,2023-02-14,1,,,,,カラー,0
1577,7011001152582,新規,0,2023-02-14,2023-02-14,株式会社ＰＡＬＳ　ｓｔｕｄｉｏ,,株式会社,東京都,目黒区,中目黒３丁目２２番１号,,13,110,1530061,,,,,,,2023-02-14,1,,,,,パルススタジオ,0
1578,7011001152599,新規,0,2023-02-14,2023-02-14,株式会社ネロリハーブ,,株式会社,東京都,渋谷区,上原３丁目２８番１号Ｂ２０２,,13,113,1510064,,,,,,,2023-02-14,1,,,,,ネロリハーブ,0
1581,7011003016232,新規,0,2023-02-14,2023-02-14,合同会社ＰＯＴＳ,,合同会社,東京都,渋谷区,元代々木町４９－２０代々木ハビテーション２０９,,13,113,1510062,,,,,,,2023-02-14,1,,,,,ポッツ,0
1582,7011005009944,新規,0,2023-02-14,2023-02-14,一般社団法人パープル,,その他の設立登記法人,東京都,目黒区,自由が丘２丁目２２番３号ＬｏｔｕｓＣａｌｙｘ１０２,,13,110,1520035,,,,,,,2023-02-14,1,,,,,パープル,0
1587,7011101101745,新規,0,2023-02-14,2023-02-14,ＭＪ企画株式会社,,株式会社,東京都,新宿区,神楽坂６丁目７６番地,,13,104,1620825,,,,,,,2023-02-14,1,,,,,エムジェイキカク,0
1596,7011701026012,新規,0,2023-02-14,2023-02-14,株式会社アロウ建業,,株式会社,東京都,江戸川区,新堀１丁目２７番２－２０４号,,13,123,1320001,,,,,,,2023-02-14,1,,,,,アロウケンギョウ,0
1598,7011801041935,新規,0,2023-02-14,2023-02-14,Ｓｕｃｃｅｓｓ　Ｆｏｒｃｅ株式会社,,株式会社,東京都,葛飾区,東立石４丁目１１－２９,,13,122,1240013,,,,,,,2023-02-14,1,,,,,サクセスフォース,0
1600,7012401040195,新規,0,2023-02-14,2023-02-14,株式会社Ｙ’ｓＰｒｏ,,株式会社,東京都,府中市,是政５丁目９番地の６８ルネ府中多摩川２０３,,13,206,1830014,,,,,,,2023-02-14,1,,,,,ワイズプロ,0
1601,7012703002637,新規,0,2023-02-14,2023-02-14,越高ビジネス合同会社,,合同会社,東京都,西東京市,南町３丁目２５番２－４０１号,,13,229,1880012,,,,,,,2023-02-14,1,,,,,コシダカビジネス,0
1604,7013301050326,新規,0,2023-02-14,2023-02-14,株式会社ＡＵＲＡ,,株式会社,東京都,豊島区,駒込２丁目４番９号ヒルサイドハウス３Ａ号,,13,116,1700003,,,,,,,2023-02-14,1,,,,,オーラ,0
1616,7020003023337,新規,0,2023-02-14,2023-02-14,スカイランズ合同会社,,合同会社,神奈川県,川崎市中原区,上平間３８８,,14,133,2110013,,,,,,,2023-02-14,1,,,,,スカイランズ,0
1617,7021001078199,新規,0,2023-02-14,2023-02-14,ＷｈｉｔｅＳｔｏｎｅ株式会社,,株式会社,神奈川県,厚木市,旭町１丁目２５番１－１３０８号,,14,212,2430014,,,,,,,2023-02-14,1,,,,,ホワイトストーン,0
1619,7021003012767,新規,0,2023-02-14,2023-02-14,合同会社ｗｉｎｇ,,合同会社,神奈川県,茅ヶ崎市,矢畑７８２番地３－１－３１９号ライオンズ茅ヶ崎ザ・アイランズ,,14,207,2530085,,,,,,,2023-02-14,1,,,,,ウィング,0
1625,7030003021117,新規,0,2023-02-14,2023-02-14,合同会社珪藻科学,,合同会社,埼玉県,川口市,芝１丁目２７番１５号岡崎ハウス２階,,11,203,3330866,,,,,,,2023-02-14,1,,,,,ケイソウカガク,0
1634,7040001127071,新規,0,2023-02-14,2023-02-14,株式会社Ｐｒｏｇｒａｍ　Ｔｅｃｈｎｉｃａ,,株式会社,千葉県,松戸市,松戸１１３９－２－１２０３,,12,207,2710092,,,,,,,2023-02-14,1,,,,,プログラムテクニカ,0
1635,7040001127088,新規,0,2023-02-14,2023-02-14,株式会社三江商事,,株式会社,千葉県,千葉市若葉区,富田町２３６番地,,12,104,2650041,,,,,,,2023-02-14,1,,,,,サンエショウジ,0
1643,7050001052384,新規,0,2023-02-14,2023-02-14,株式会社八郷始動,,株式会社,茨城県,石岡市,柿岡１８３４番地,,08,205,3150116,,,,,,,2023-02-14,1,,,,,ヤサトシドウ,0
1644,7050001052401,新規,0,2023-02-14,2023-02-14,株式会社Ｂｅｌｌｅｚｅｌｌ,,株式会社,茨城県,下妻市,本城町２丁目３９番地矢田部商事ビル１０１号室,,08,210,3040064,,,,,,,2023-02-14,1,,,,,ベルゼル,0
1650,7070001040123,新規,0,2023-02-14,2023-02-14,エヌエスコネクト株式会社,,株式会社,群馬県,渋川市,半田１９７９番地１,,10,208,3770004,,,,,,,2023-02-14,1,,,,,エヌエスコネクト,0
1659,7100003006886,新規,0,2023-02-14,2023-02-14,安啓合同会社,,合同会社,長野県,茅野市,城山５番地１５,,20,214,3910004,,,,,,,2023-02-14,1,,,,,アンケイ,0
1672,7120001252480,新規,0,2023-02-14,2023-02-14,株式会社ファルマリアン,,株式会社,大阪府,大阪市東住吉区,中野３丁目１番１１号グロー中野１階,,27,121,5460012,,,,,,,2023-02-14,1,,,,,ファルマリアン,0
1673,7120001252514,新規,0,2023-02-14,2023-02-14,株式会社ｆｉｖｅａｕｔｙ,,株式会社,大阪府,大阪市中央区,南船場４丁目１０番５号南船場ＳＯＨＯビル７０２,,27,128,5420081,,,,,,,2023-02-14,1,,,,,ファイビューティー,0
1675,7120003023442,新規,0,2023-02-14,2023-02-14,合同会社ミズホ運送,,合同会社,大阪府,門真市,千石東町１番５号２０４,,27,223,5710013,,,,,,,2023-02-14,1,,,,,ミズホウンソウ,0
1677,7120103005076,新規,0,2023-02-14,2023-02-14,合同会社ＲＢ　Ｊａｐａｎ,,合同会社,大阪府,藤井寺市,道明寺１丁目２２番３号村上文化２０１号室,,27,226,5830012,,,,,,,2023-02-14,1,,,,,アールビージャパン,0
1680,7120901047121,新規,0,2023-02-14,2023-02-14,Ｃｏｎｎｅｃｔ．Ｗｏｒｋｓ株式会社,,株式会社,大阪府,豊中市,南桜塚４丁目１０－１４,,27,203,5610882,,,,,,,2023-02-14,1,,,,,コネクトワークス,0
1681,7120901047138,新規,0,2023-02-14,2023-02-14,株式会社笠松堂,,株式会社,大阪府,吹田市,千里山松が丘１４番３号,,27,205,5650843,,,,,,,2023-02-14,1,,,,,カサマツドウ,0
1687,7122003002517,新規,0,2023-02-14,2023-02-14,合同会社サキシラズ,,合同会社,大阪府,東大阪市,弥生町１９番１６号,,27,227,5798026,,,,,,,2023-02-14,1,,,,,サキシラズ,0
1697,7140003018647,新規,0,2023-02-14,2023-02-14,合同会社ＧＯＯＤ　ＯＴＨＥＲ,,合同会社,兵庫県,尼崎市,築地３丁目４番１７－４０２号,,28,202,6600858,,,,,,,2023-02-14,1,,,,,グッドアザー,0
1701,7160003002797,新規,0,2023-02-14,2023-02-14,西村水道合同会社,,合同会社,滋賀県,大津市,和邇北浜５１２番地の３,,25,201,5200521,,,,,,,2023-02-14,1,,,,,ニシムラスイドウ,0
1704,7170001017474,新規,0,2023-02-14,2023-02-14,陽光商事株式会社,,株式会社,和歌山県,日高郡印南町,大字西ノ地１４９２番地の１,,30,390,6491528,,,,,,,2023-02-14,1,,,,,ヨウコウショウジ,0
1717,7180001154969,新規,0,2023-02-14,2023-02-14,株式会社廣瀬組,,株式会社,愛知県,名古屋市港区,稲永２丁目１３番６２号（ライオンズガーデン稲永２１５号）,,23,111,4550842,,,,,,,2023-02-14,1,,,,,ヒロセグミ,0
1718,7180001155001,新規,0,2023-02-14,2023-02-14,株式会社ＲＤＡ,,株式会社,愛知県,江南市,般若町南山６５番地１,,23,217,4838013,,,,,,,2023-02-14,1,,,,,アールディーエー,0
1727,7200001040968,新規,0,2023-02-14,2023-02-14,株式会社ＡＴＣ,,株式会社,岐阜県,関市,大杉５８２番地２,,21,205,5013922,,,,,,,2023-02-14,1,,,,,エーティーシー,0
1732,7240003005940,新規,0,2023-02-14,2023-02-14,ＷＨＹ　ＧＥＮ　ＧＯメディカルホールディングス合同会社,,合同会社,広島県,広島市西区,庚午中２丁目１６－１６,,34,104,7330822,,,,,,,2023-02-14,1,,,,,ワイゲンゴーメディカルホールディングス,0
1739,7260001037653,新規,0,2023-02-14,2023-02-14,株式会社ハコビー物流,,株式会社,岡山県,岡山市中区,倉富３６７番地１０,,33,102,7038264,,,,,,,2023-02-14,1,,,,,ハコビーブツリュウ,0
1747,7290003013526,新規,0,2023-02-14,2023-02-14,合同会社Ｔａｋａｋｅｎ,,合同会社,福岡県,福岡市南区,柏原５丁目１６番２５号１０２号室,,40,134,8111353,,,,,,,2023-02-14,1,,,,,タカケン,0
1748,7290005018952,新規,0,2023-02-14,2023-02-14,ピンチヒッター行政書士法人,,その他の設立登記法人,福岡県,福岡市東区,香椎駅前１丁目９番６－４０１号アクシス香椎,,40,131,8130013,,,,,,,2023-02-14,1,,,,,ピンチヒッター,0
1753,7360003012719,新規,0,2023-02-14,2023-02-14,合同会社蓮企画,,合同会社,沖縄県,宜野湾市,真志喜２丁目４－７－４０５,,47,205,9012224,,,,,,,2023-02-14,1,,,,,レンキカク,0
1756,7370001049596,新規,0,2023-02-14,2023-02-14,株式会社ＳＰＩＤＥＲ　ＦＯＲＣＥ,,株式会社,宮城県,仙台市太白区,郡山４丁目２番２５－１２０１号,,04,104,9820003,,,,,,,2023-02-14,1,,,,,スパイダーフォース,0
1766,7430001088431,新規,0,2023-02-14,2023-02-14,株式会社オールフォー,,株式会社,北海道,札幌市東区,北三十四条東２６丁目２番１０号,,01,103,0070834,,,,,,,2023-02-14,1,,,,,オールフォー,0
1773,7470001019473,新規,0,2023-02-14,2023-02-14,株式会社ラグナ,,株式会社,香川県,高松市,鶴市町２０１１番地１０,,37,201,7618032,,,,,,,2023-02-14,1,,,,,ラグナ,0
1783,7700150114299,新規,0,2023-02-14,2023-02-14,福州玖仕奇信息科技有限公司,,外国会社等,,,,,,,,中国福建省ビン候県上街鎮岐安村岐西路８８－２号,,,,,,2023-02-14,1,,,,,フクシユウキユウシキシンソクカギユウゲンコウシ,0
1784,7700150114308,新規,0,2023-02-14,2023-02-14,ｓｈｅｎｚｈｅｎｓｈｉｙｉｎｇｓｈａｎｇｙｉｋｅｊｉｙｏｕｘｉａｎｇｏｎｇｓｉ,,外国会社等,,,,,,,,ＳｈｅｎｚｈｅｎｓｈｉｌｏｎｇｇａｎｇｑｕｂｕｊｉｊｉｅｄａｏｄａｐｏｔａｏｃｕｎｌｏｎｇｘｉａｎｇｈｕａｙｕａｎＣ８ｄｏｎｇ３０４,,,,,,2023-02-14,1,,,,,シエンチエンシインシヤンイーカギユウゲンコウシ,0
1785,7700150114316,新規,0,2023-02-14,2023-02-14,ＣＨＡＲＭ　ＴＡＬＥＮＴ　ＩＮＴＥＲＮＡＴＩＯＮＡＬ　ＴＲＡＤＩＮＧ　ＬＩＭＩＴＥＤ,,外国会社等,,,,,,,,Ｎｏ．３　Ｂｌｄ　２，Ｘｉｎｉ　Ｂｕｓｉｎｅｓｓ　Ｓｔｒｅｅｔ，Ｎａｎｇｕｏａｏｙｕａｎ，Ｐａｎｙｕ，Ｇｕａｎｇｚｈｏｕ，Ｇｕａｎｇｄｏｎｇ，ＣＨＩＮＡ,,,,,,2023-02-14,1,,,,,チャームタレントインターナショナルトレーディングリミテッド,0
1794,8010001232971,新規,0,2023-02-14,2023-02-14,株式会社ｆの森,,株式会社,東京都,中央区,銀座１丁目２２番１１号銀座大竹ビジデンス２階,,13,102,1040061,,,,,,,2023-02-14,1,,,,,エフノモリ,0
1800,8010005036246,新規,0,2023-02-14,2023-02-14,一般社団法人エネグローバル太陽光１号,,その他の設立登記法人,東京都,千代田区,一ツ橋２丁目６番３号アクシスインベストメントアドバイザーズ株式会社内,,13,101,1010003,,,,,,,2023-02-14,1,,,,,エネグローバルタイヨウコウイチゴウ,0
1812,8010403029512,新規,0,2023-02-14,2023-02-14,合同会社エスエフロジ,,合同会社,東京都,港区,虎ノ門３丁目２２番１０－２０１号,,13,103,1050001,,,,,,,2023-02-14,1,,,,,エスエフロジ,0
1813,8010405021822,新規,0,2023-02-14,2023-02-14,一般社団法人ＫＤＳ,,その他の設立登記法人,東京都,港区,西新橋１丁目１８番１７号,,13,103,1050003,,,,,,,2023-02-14,1,,,,,ケーディーエス,0
1814,8010501050007,新規,0,2023-02-14,2023-02-14,リングアクラブ株式会社,,株式会社,東京都,台東区,浅草橋１丁目３５番８号ラミアカーサ１０１,,13,106,1110053,,,,,,,2023-02-14,1,,,,,リングアクラブ,0
1816,8010601062604,新規,0,2023-02-14,2023-02-14,Ｌｙｄｓｅｃ　Ｄｉｇｉｔａｌ　Ｔｅｃｈｎｏｌｏｇｙ　Ｊａｐａｎ株式会社,,株式会社,東京都,江東区,豊洲６丁目２番３１－１９１７号,,13,108,1350061,,,,,,,2023-02-14,1,,,,,リーセックデジタルテクノロジージャパン,0
1839,8011001152508,新規,0,2023-02-14,2023-02-14,Ｋ・Ｓ技研株式会社,,株式会社,東京都,渋谷区,宇田川町６番２０号パラシオン渋谷３階３０８号室,,13,113,1500042,,,,,,,2023-02-14,1,,,,,ケーエスギケン,0
1840,8011001152516,新規,0,2023-02-14,2023-02-14,株式会社ｕｎｉｎ,,株式会社,東京都,目黒区,大橋２丁目２４番８－２１２号駒場ネオパレス,,13,110,1530044,,,,,,,2023-02-14,1,,,,,ユニン,0
1841,8011001152524,新規,0,2023-02-14,2023-02-14,株式会社リ・パワー,,株式会社,東京都,渋谷区,道玄坂１丁目１０番８号渋谷道玄坂東急ビル２Ｆ－Ｃ,,13,113,1500043,,,,,,,2023-02-14,1,,,,,リパワー,0
1842,8011001152573,新規,0,2023-02-14,2023-02-14,株式会社ＧＰＫ,,株式会社,東京都,渋谷区,渋谷１丁目１番７号セントラル渋谷２４６ビル３階,,13,113,1500002,,,,,,,2023-02-14,1,,,,,ジーピーケー,0
1851,8011101101827,新規,0,2023-02-14,2023-02-14,株式会社アナハイム,,株式会社,東京都,新宿区,西新宿３丁目３番１３号西新宿水間ビル２Ｆ,,13,104,1600023,,,,,,,2023-02-14,1,,,,,アナハイム,0
1854,8011301028440,新規,0,2023-02-14,2023-02-14,株式会社ｍｅｅｐａ,,株式会社,東京都,杉並区,清水１丁目３８－１７シティドルチェＡ号,,13,115,1670033,,,,,,,2023-02-14,1,,,,,ミーパ,0
1865,8012401040194,新規,0,2023-02-14,2023-02-14,株式会社ＵＮＩＦＹ,,株式会社,東京都,府中市,府中町１丁目２６番地の１７メゾン２１－１階,,13,206,1830055,,,,,,,2023-02-14,1,,,,,ユニファイ,0
1867,8012403005823,新規,0,2023-02-14,2023-02-14,合同会社ＦＥＲＮＡ,,合同会社,東京都,調布市,布田４丁目４番地６調布イーストサイドコート１０２,,13,208,1820024,,,,,,,2023-02-14,1,,,,,フェルナ,0
1877,8020003023311,新規,0,2023-02-14,2023-02-14,合同会社ジェイ・テン,,合同会社,神奈川県,横浜市中区,北方町１丁目７７番地,,14,104,2310865,,,,,,,2023-02-14,1,,,,,ジェイテン,0
1882,8021001078173,新規,0,2023-02-14,2023-02-14,日本超電導応用開発株式会社,,株式会社,神奈川県,茅ヶ崎市,円蔵３７０番地,,14,207,2530084,,,,,,,2023-02-14,1,,,,,ニホンチョウデンドウオウヨウカイハツ,0
1883,8021003012758,新規,0,2023-02-14,2023-02-14,江差商会合同会社,,合同会社,神奈川県,厚木市,上依知４０番地４－２０２,,14,212,2430801,,,,,,,2023-02-14,1,,,,,エサシショウカイ,0
1884,8021003012766,新規,0,2023-02-14,2023-02-14,合同会社ＬＴＢ,,合同会社,神奈川県,小田原市,鴨宮１４番地宇佐美ハイツ１０１,,14,206,2500874,,,,,,,2023-02-14,1,,,,,エルティービー,0
1887,8030001152202,新規,0,2023-02-14,2023-02-14,一二三軽金属株式会社,,株式会社,埼玉県,所沢市,大字山口２６８２番地の９,,11,208,3591145,,,,,,,2023-02-14,1,,,,,ヒフミケイキンゾク,0
1888,8030001152383,新規,0,2023-02-14,2023-02-14,株式会社Ｆｉｓｈ　Ｈｏｏｋ,,株式会社,埼玉県,さいたま市南区,曲本１丁目８番１２－５号,,11,108,3360033,,,,,,,2023-02-14,1,,,,,フィッシュフック,0
1889,8030001152409,新規,0,2023-02-14,2023-02-14,株式会社Ｃｈａｎａ,,株式会社,埼玉県,越谷市,大字下間久里９０２番地５,,11,222,3430045,,,,,,,2023-02-14,1,,,,,チャナ,0
1890,8030001152417,新規,0,2023-02-14,2023-02-14,Ｍｉｒａｉｏｒ株式会社,,株式会社,埼玉県,富士見市,ふじみ野西２丁目１番１号,,11,235,3540035,,,,,,,2023-02-14,1,,,,,ミライオー,0
1896,8030003021173,新規,0,2023-02-14,2023-02-14,合同会社田畑,,合同会社,埼玉県,蓮田市,大字黒浜３１５７番地４,,11,238,3490101,,,,,,,2023-02-14,1,,,,,タバタ,0
1903,8040003021916,新規,0,2023-02-14,2023-02-14,合同会社訪問看護光,,合同会社,千葉県,山武郡横芝光町,宮川６９６９番地２５,,12,410,2891727,,,,,,,2023-02-14,1,,,,,ホウモンカンゴヒカリ,0
1904,8040003021932,新規,0,2023-02-14,2023-02-14,合同会社ＳＰＥＥＤ　ＲＡＣＩＮＧ　ＩＮＴＥＲＮＡＴＩＯＮＡＬ,,合同会社,千葉県,成田市,長沼３１９１番地,,12,211,2860804,,,,,,,2023-02-14,1,,,,,スピードレーシングインターナショナル,0
1917,8070001040122,新規,0,2023-02-14,2023-02-14,株式会社エーピーエス,,株式会社,群馬県,前橋市,石倉町５丁目１８番地２８,,10,201,3710841,,,,,,,2023-02-14,1,,,,,エーピーエス,0
1927,8080401026315,新規,0,2023-02-14,2023-02-14,株式会社久力社,,株式会社,静岡県,浜松市中区,早出町１０９６番地の２,,22,131,4350054,,,,,,,2023-02-14,1,,,,,キュウリキシャ,0
1928,8080403004731,新規,0,2023-02-14,2023-02-14,合同会社ホワイトウィンド,,合同会社,静岡県,浜松市中区,中央１丁目７番２１号アーシャ小杉ビル３Ｆ,,22,131,4300929,,,,,,,2023-02-14,1,,,,,ホワイトウィンド,0
1930,8090003002250,新規,0,2023-02-14,2023-02-14,合同会社ＳＫＹ,,合同会社,山梨県,南アルプス市,野牛島２４５４－１サンフォニア八田１０５,,19,208,4000205,,,,,,,2023-02-14,1,,,,,スカイ,0
1932,8100001036158,新規,0,2023-02-14,2023-02-14,株式会社ＯＥＣプロジェクト,,株式会社,長野県,松本市,七嵐２４６番地,,20,202,3997416,,,,,,,2023-02-14,1,,,,,オーイーシープロジェクト,0
1937,8110005016898,新規,0,2023-02-14,2023-02-14,農事組合法人カミーネ黒山,,その他の設立登記法人,新潟県,新潟市北区,太田２７７３番地,,15,101,9503313,,,,,,,2023-02-14,1,,,,,カミーネクロヤマ,0
1948,8120003023433,新規,0,2023-02-14,2023-02-14,合同会社ロイヤル,,合同会社,大阪府,大阪市港区,波除３丁目５番１０号,,27,107,5520001,,,,,,,2023-02-14,1,,,,,ロイヤル,0
1951,8120101066994,新規,0,2023-02-14,2023-02-14,株式会社Ｌｉｚ　Ｐｅｔ,,株式会社,大阪府,堺市堺区,翁橋町１丁９－３スウィングプラザ翁橋２０５,,27,141,5900061,,,,,,,2023-02-14,1,,,,,リズペット,0
1960,8130001073685,新規,0,2023-02-14,2023-02-14,スタジオ日々喜株式会社,,株式会社,京都府,京都市下京区,朱雀宝蔵町４４番地協栄ビル２階京都朱雀スタジオ,,26,106,6008846,,,,,,,2023-02-14,1,,,,,スタジオヒビキ,0
1961,8130003008532,新規,0,2023-02-14,2023-02-14,合同会社Ｔ＆Ｓ,,合同会社,京都府,京都市中京区,新京極通六角下る桜之町４３０番地８,,26,104,6048035,,,,,,,2023-02-14,1,,,,,ティーアンドエス,0
1968,8140001129123,新規,0,2023-02-14,2023-02-14,株式会社ヒロ,,株式会社,兵庫県,宝塚市,山本丸橋１丁目６番１９号,,28,214,6650815,,,,,,,2023-02-14,1,,,,,ヒロ,0
1972,8140003018720,新規,0,2023-02-14,2023-02-14,合同会社文と花,,合同会社,兵庫県,西宮市,大森町２番６５－１０号,,28,204,6638023,,,,,,,2023-02-14,1,,,,,フミトハナ,0
1974,8170003001830,新規,0,2023-02-14,2023-02-14,合同会社Ｊ・Ｍ,,合同会社,和歌山県,伊都郡高野町,大字高野山４９番地,,30,344,6480211,,,,,,,2023-02-14,1,,,,,ジェイエム,0
1977,8180001154984,新規,0,2023-02-14,2023-02-14,株式会社ＺＯＯ　ＡＩ,,株式会社,愛知県,名古屋市南区,石元町３丁目４５番地Ａ区画,,23,112,4570075,,,,,,,2023-02-14,1,,,,,ズーアイ,0
1981,8180003024847,新規,0,2023-02-14,2023-02-14,雙葉進学教室合同会社,,合同会社,愛知県,半田市,清城町１丁目３番５号パーク清城２階,,23,205,4750917,,,,,,,2023-02-14,1,,,,,フタバシンガクキョウシツ,0
1985,8180301037105,新規,0,2023-02-14,2023-02-14,株式会社横割商会,,株式会社,愛知県,豊橋市,多米中町１丁目１９番地５,,23,201,4400027,,,,,,,2023-02-14,1,,,,,ヨコワリショウカイ,0
1989,8180305009447,新規,0,2023-02-14,2023-02-14,一般社団法人くびきの会,,その他の設立登記法人,愛知県,豊田市,新町３丁目２２番地１,,23,211,4710044,,,,,,,2023-02-14,1,,,,,クビキノカイ,0
1994,8200001040967,新規,0,2023-02-14,2023-02-14,株式会社Ｌａｎｄ,,株式会社,岐阜県,揖斐郡揖斐川町,上野４５１番地１,,21,401,5010634,,,,,,,2023-02-14,1,,,,,ランド,0
2002,8240001061092,新規,0,2023-02-14,2023-02-14,株式会社広建,,株式会社,広島県,広島市西区,高須台１丁目７番３１号,,34,104,7330876,,,,,,,2023-02-14,1,,,,,ヒロケン,0
2005,8250001019957,新規,0,2023-02-14,2023-02-14,株式会社知音,,株式会社,山口県,光市,大字浅江１８２番地,,35,210,7430021,,,,,,,2023-02-14,1,,,,,チイン,0
2006,8250003003224,新規,0,2023-02-14,2023-02-14,Ｕｎｉｔｅ‐Ｃａｒｅ合同会社,,合同会社,山口県,岩国市,昭和町１丁目１番２３－１２０２号,,35,208,7400004,,,,,,,2023-02-14,1,,,,,ユナイトケア,0
2012,8290001100548,新規,0,2023-02-14,2023-02-14,三桜株式会社,,株式会社,福岡県,久留米市,日吉町１６番地４,,40,203,8300017,,,,,,,2023-02-14,1,,,,,サンオウ,0
2013,8290001100564,新規,0,2023-02-14,2023-02-14,株式会社風緑造園,,株式会社,福岡県,糸島市,志摩桜井１８３３番地１,,40,230,8191304,,,,,,,2023-02-14,1,,,,,フウリョクゾウエン,0
2028,8340003004048,新規,0,2023-02-14,2023-02-14,合同会社道,,合同会社,鹿児島県,霧島市,国分広瀬１丁目１６番４２－３号,,46,218,8994321,,,,,,,2023-02-14,1,,,,,ミチ,0
2031,8360003012718,新規,0,2023-02-14,2023-02-14,合同会社ＥＸＣＬＵＳＩＶＥ　ＯＫＩＮＡＷＡ,,合同会社,沖縄県,国頭郡今帰仁村,字渡喜仁４７１番地３,,47,306,9050402,,,,,,,2023-02-14,1,,,,,エクスクルーシブオキナワ,0
2039,8410003003760,新規,0,2023-02-14,2023-02-14,かつゆう合同会社,,合同会社,秋田県,大館市,沼館字藤蕪６番地,,05,204,0170057,,,,,,,2023-02-14,1,,,,,カツユウ,0
2043,8460103001511,新規,0,2023-02-14,2023-02-14,合同会社関口塗装,,合同会社,北海道,帯広市,西四条南２６丁目６番地１コーポ４２６－２０３号室,,01,207,0800014,,,,,,,2023-02-14,1,,,,,セキグチトソウ,0
2053,8700150114298,新規,0,2023-02-14,2023-02-14,ＳｋｙＰＡＤ　ＡｐＳ,,外国会社等,,,,,,,,Ｉｌｓｋｏｖ　Ｈｏｖｅｄｇａｄｅ　１４Ｂ　Ｉｌｓｋｏｖ，７４５１　Ｓｕｎｄｓ，Ｄｅｎｍａｒｋ,,,,,,2023-02-14,1,,,,,スカイパツドエーピーエス,0
2054,8700150114307,新規,0,2023-02-14,2023-02-14,Ｓｈｅｎｚｈｅｎ　Ｌａｎｈｕｉ　Ｔｒａｄｉｎｇ　Ｃｏ．，Ｌｔｄ,,外国会社等,,,,,,,,１８Ｂ，Ｕｎｉｔ　４，Ｂｕｉｌｄｉｎｇ　１７，Ｊｉｎｄｉ　Ｍｅｉｌｏｎｇ　Ｔｏｗｎ，Ｘｉｎｎｉｕ　Ｃｏｍｍｕｎ，ＳｈｅｎｚｈｅｎＣｉｔｙ　Ｌｏｎｇｈｕａ　Ｄｉｓｔｒｉｃｔ，ＧｕａｎｇＤｏｎｇ,,,,,,2023-02-14,1,,,,,シエンチエンランフイトレーデイングカンパニーリミテツド,0
2055,8700150114315,新規,0,2023-02-14,2023-02-14,ｇｕａｎｇｚｈｏｕ　ｗｕｂｉａｎｓｈａｎｇｍａｏ　ｙｏｕｘｉａｎｇｏｎｇｓｉ,,外国会社等,,,,,,,,Ｒｏｏｍ　２９０１（Ｏｆｆｉｃｅ　ｕｓｅ　ｏｎｌｙ），Ｎｏ．１３－１，Ｈａｉａｎ　Ｒｏａｄ，Ｔｉａｎｈｅ　Ｄｉｓｔｒｉｃｔ，Ｇｕａｎｇｚｈｏｕ，ｃｈｉｎａ,,,,,,2023-02-14,1,,,,,ゴンジョウウビアンシャンマオユウゲンコウシ,0
2061,9010001232871,新規,0,2023-02-14,2023-02-14,株式会社ＴＨＥＨＥＲＯ,,株式会社,東京都,中央区,銀座１丁目１２番４号Ｎ＆ＥＢＬＤ．６Ｆ,,13,102,1040061,,,,,,,2023-02-14,1,,,,,ザヒーロー,0
2072,9010401172453,新規,0,2023-02-14,2023-02-14,株式会社ａｃｅＬａｂ,,株式会社,東京都,港区,南青山３丁目１番３６号青山丸竹ビル６Ｆ,,13,103,1070062,,,,,,,2023-02-14,1,,,,,エースラブ,0
2082,9010801033684,新規,0,2023-02-14,2023-02-14,株式会社彩輪商店,,株式会社,東京都,大田区,南蒲田３丁目１０番２２号１階,,13,111,1440035,,,,,,,2023-02-14,1,,,,,サイワショウテン,0
2091,9010903007974,新規,0,2023-02-14,2023-02-14,合同会社Ｏｒａｎｇｅ　Ｊｅｌｌｉｅｓ,,合同会社,東京都,世田谷区,桜１丁目３１番１２号,,13,112,1560053,,,,,,,2023-02-14,1,,,,,オレンジジェリーズ,0
2096,9011001152597,新規,0,2023-02-14,2023-02-14,株式会社ｒａｐｉｄｕｓ,,株式会社,東京都,渋谷区,道玄坂１丁目１０番８号渋谷道玄坂東急ビル２Ｆ－Ｃ,,13,113,1500043,,,,,,,2023-02-14,1,,,,,ラピドゥス,0
2099,9011003016271,新規,0,2023-02-14,2023-02-14,１合同会社,,合同会社,東京都,渋谷区,渋谷２丁目１９番１５号宮益坂ビルディング６０９,,13,113,1500002,,,,,,,2023-02-14,1,,,,,イチ,0
2102,9011101101751,新規,0,2023-02-14,2023-02-14,Ｍａｘｍｉｌｌｉｏｎ　Ｉｎｖｅｓｔｍｅｎｔｓ　Ｊａｐａｎ株式会社,,株式会社,東京都,新宿区,北新宿１丁目８－２２,,13,104,1690074,,,,,,,2023-02-14,1,,,,,マックスミリオンインベストメンツジャパン,0
2103,9011101101818,新規,0,2023-02-14,2023-02-14,株式会社Ｎｏｎｐｙ,,株式会社,東京都,新宿区,高田馬場３丁目３５番１１号,,13,104,1690075,,,,,,,2023-02-14,1,,,,,ノンピー,0
2104,9011101101826,新規,0,2023-02-14,2023-02-14,Ｄｒｅａｍ　Ｈｏｍｅ株式会社,,株式会社,東京都,新宿区,新宿２丁目１２番１３号アントレサロンビル２階,,13,104,1600022,,,,,,,2023-02-14,1,,,,,ドリームホーム,0
2105,9011101101834,新規,0,2023-02-14,2023-02-14,株式会社後藤広一,,株式会社,東京都,新宿区,上落合３丁目９番２－７０５号,,13,104,1610034,,,,,,,2023-02-14,1,,,,,ゴトウヒロカズ,0
2112,9011601026531,新規,0,2023-02-14,2023-02-14,株式会社ワールドコネクトサムライ,,株式会社,東京都,練馬区,南田中１丁目１６番２号,,13,120,1770035,,,,,,,2023-02-14,1,,,,,ワールドコネクトサムライ,0
2122,9013303006489,新規,0,2023-02-14,2023-02-14,合同会社ＥＡＳＴ　ＢＬＵＥ西池袋店,,合同会社,東京都,豊島区,西池袋３丁目３１番１５号ロイヤルプラザＩＩ８階Ａ室,00129423,13,116,1710021,,,,,,,2023-02-14,1,,,,,イーストブルーニシイケブクロテン,0
2128,9021003012757,新規,0,2023-02-14,2023-02-14,合同会社ＲｂｙＳ,,合同会社,神奈川県,秦野市,室町７番２６号,,14,211,2570033,,,,,,,2023-02-14,1,,,,,アールバイエス,0
2134,9030001152399,新規,0,2023-02-14,2023-02-14,株式会社Ｏｗｌ　Ｍｉｇｈｔｙ,,株式会社,埼玉県,川口市,本蓮１丁目７番９号,00129434,11,203,3340076,,,,,,,2023-02-14,1,,,,,アウルマイティ,0
2135,9030001152408,新規,0,2023-02-14,2023-02-14,株式会社なき塗装店,,株式会社,埼玉県,日高市,大字高萩２１１４番地１,,11,242,3501213,,,,,,,2023-02-14,1,,,,,ナキトソウテン,0
2141,9040001127037,新規,0,2023-02-14,2023-02-14,ライフツリー株式会社,,株式会社,千葉県,富里市,根木名１３１番地１６,,12,233,2860205,,,,,,,2023-02-14,1,,,,,ライフツリー,0
2142,9040001127078,新規,0,2023-02-14,2023-02-14,株式会社わいずみファーム,,株式会社,千葉県,香取市,和泉５４番地５,,12,236,2890324,,,,,,,2023-02-14,1,,,,,ワイズミファーム,0
2151,9050001052366,新規,0,2023-02-14,2023-02-14,ハナウタ農機株式会社,,株式会社,茨城県,稲敷郡阿見町,大字荒川本郷２９２７,,08,443,3001152,,,,,,,2023-02-14,1,,,,,ハナウタノウキ,0
2159,9080401026314,新規,0,2023-02-14,2023-02-14,久晃サービス株式会社,,株式会社,静岡県,周智郡森町,一宮３５０６番地の１,,22,461,4370226,,,,,,,2023-02-14,1,,,,,キュウコウサービス,0
2162,9100001036157,新規,0,2023-02-14,2023-02-14,株式会社リナーク,,株式会社,長野県,長野市,稲里町中氷鉋１００２番地６,,20,201,3812215,,,,,,,2023-02-14,1,,,,,リナーク,0
2163,9100002034424,新規,0,2023-02-14,2023-02-14,有限会社堀内林業技術研究所,,有限会社,長野県,駒ヶ根市,中沢５０３７番地,,20,210,3994231,,,,,,,2023-02-14,1,,,,,ホリウチリンギョウギジュツケンキュウショ,0
2171,9120001252504,新規,0,2023-02-14,2023-02-14,ＹＳプランニング株式会社,,株式会社,大阪府,大阪市中央区,南船場２丁目１０番３０号,,27,128,5420081,,,,,,,2023-02-14,1,,,,,ワイエスプランニング,0
2174,9120003023374,新規,0,2023-02-14,2023-02-14,関西エコクリーン合同会社,,合同会社,大阪府,大阪市北区,大深町３番４０号グランフロント大阪オーナーズタワー１４０１号,,27,127,5300011,,,,,,,2023-02-14,1,,,,,カンサイエコクリーン,0
2175,9120005023315,新規,0,2023-02-14,2023-02-14,一般社団法人ｈａｎｄ　ｉｎ　ＨＡＮＤ,,その他の設立登記法人,大阪府,大阪市北区,国分寺２丁目３番２号－７０５,,27,127,5310064,,,,,,,2023-02-14,1,,,,,ハンドインハンド,0
2177,9120101066977,新規,0,2023-02-14,2023-02-14,株式会社マーキー,,株式会社,大阪府,和泉市,唐国町１丁目１１番２１号,,27,219,5941151,,,,,,,2023-02-14,1,,,,,マーキー,0
2190,9140001129122,新規,0,2023-02-14,2023-02-14,株式会社馳走侘助,,株式会社,兵庫県,西宮市,羽衣町１０番１９号,,28,204,6620051,,,,,,,2023-02-14,1,,,,,チソウワビスケ,0
2202,9180001154983,新規,0,2023-02-14,2023-02-14,株式会社ＣＣＯＰ,,株式会社,愛知県,弥富市,五之三川平２丁目１５番地,,23,235,4980018,,,,,,,2023-02-14,1,,,,,ココップ,0
2203,9180003024846,新規,0,2023-02-14,2023-02-14,合同会社ＮＥＸＴ,,合同会社,愛知県,名古屋市中区,丸の内３丁目５番３３号名古屋有楽ビル４０５,,23,106,4600002,,,,,,,2023-02-14,1,,,,,ネクスト,0
2216,9200001040958,新規,0,2023-02-14,2023-02-14,エムスライビング株式会社,,株式会社,岐阜県,岐阜市,須賀２丁目２番２７号メゾンスガ１０３号室,,21,201,5008289,,,,,,,2023-02-14,1,,,,,エムスライビング,0
2222,9220001025271,新規,0,2023-02-14,2023-02-14,株式会社Ｎｅｗ　Ｐａｔｈ,,株式会社,石川県,金沢市,上安原２丁目２６４番地１階,,17,201,9200370,,,,,,,2023-02-14,1,,,,,ニューパス,0
2229,9260001037651,新規,0,2023-02-14,2023-02-14,株式会社ＳＩＮＣＥＲＥＬ,,株式会社,岡山県,倉敷市,浜ノ茶屋２３３－５,,33,202,7100061,,,,,,,2023-02-14,1,,,,,シンシアル,0
2231,9270001008726,新規,0,2023-02-14,2023-02-14,株式会社Ｓ＆Ｙ,,株式会社,鳥取県,鳥取市,布勢４２１番地９,,31,201,6800944,,,,,,,2023-02-14,1,,,,,エスアンドワイ,0
2233,9290001100547,新規,0,2023-02-14,2023-02-14,株式会社ＪＴＬ　ＡＤＶＡＮＣＥ,,株式会社,福岡県,福岡市博多区,神屋町４－５ＫＳ神屋町ビル３０１,,40,132,8120022,,,,,,,2023-02-14,1,,,,,ジェイティエルアドヴァンス,0
2234,9290001100555,新規,0,2023-02-14,2023-02-14,ＦＵＫＩ　ＴＥＣＨＮＯ株式会社,,株式会社,福岡県,大川市,大字中古賀１０６４番地６,,40,212,8310006,,,,,,,2023-02-14,1,,,,,フキテクノ,0
2237,9300001013219,新規,0,2023-02-14,2023-02-14,株式会社ＩＳ‐ＢＥ,,株式会社,佐賀県,伊万里市,二里町大里甲１５１５番地３,,41,205,8480032,,,,,,,2023-02-14,1,,,,,イズビー,0
2240,9320001019569,新規,0,2023-02-14,2023-02-14,ＫＹＯＨＯ　ＪＡＰＡＮ株式会社,,株式会社,大分県,宇佐市,大字猿渡１１２０番地の３０,,44,211,8790314,,,,,,,2023-02-14,1,,,,,キョホウジャパン,0
2246,9340003004047,新規,0,2023-02-14,2023-02-14,合同会社有屋商店,,合同会社,鹿児島県,奄美市,名瀬有屋町１３－６－１０１,,46,222,8940062,,,,,,,2023-02-14,1,,,,,アリヤショウテン,0
2247,9360003012717,新規,0,2023-02-14,2023-02-14,合同会社トリニティ,,合同会社,沖縄県,浦添市,字港川２５４番地ピースタウン内,,47,208,9012134,,,,,,,2023-02-14,1,,,,,トリニティ,0
2248,9370001049594,新規,0,2023-02-14,2023-02-14,株式会社ＴＲＥ,,株式会社,宮城県,仙台市若林区,中倉２丁目１１番３－７０５号,,04,103,9840821,,,,,,,2023-02-14,1,,,,,ティーアールイー,0
2254,9410001013397,新規,0,2023-02-14,2023-02-14,ｅＳｏｃｉａｌ　Ｃｕｅ株式会社,,株式会社,秋田県,秋田市,中通２丁目２－３２　７階Ａ１,,05,201,0100001,,,,,,,2023-02-14,1,,,,,イーソシアルキュー,0
2260,9430001088438,新規,0,2023-02-14,2023-02-14,株式会社ＷＩＬＬＳ,,株式会社,北海道,札幌市白石区,栄通１４丁目２番５５－４０７号,,01,104,0030021,,,,,,,2023-02-14,1,,,,,ウィルズ,0
2263,9430003014739,新規,0,2023-02-14,2023-02-14,合同会社オンス,,合同会社,北海道,札幌市西区,西町南１丁目３番１０号,,01,107,0630062,,,,,,,2023-02-14,1,,,,,オンス,0
2264,9450001013906,新規,0,2023-02-14,2023-02-14,株式会社ルパンプロジェクト,,株式会社,北海道,旭川市,四条通６丁目４０３番地１,,01,204,0700034,,,,,,,2023-02-14,1,,,,,ルパンプロジェクト,0
2269,9480001012013,新規,0,2023-02-14,2023-02-14,株式会社ティーオーエフトレーディング,,株式会社,徳島県,徳島市,佐古五番町１０番１２号谷口ビル４階,,36,201,7700025,,,,,,,2023-02-14,1,,,,,ティーオーエフトレーディング,0
2275,9700150114297,新規,0,2023-02-14,2023-02-14,スカイパートナーリミテッド,,外国会社等,,,,,,,,サモア独立国アピア市ピーオーボックス１２２５、ポートクリスチャンバース,,,,,,2023-02-14,1,,,,,スカイパートナーリミテツド,0
2276,9700150114306,新規,0,2023-02-14,2023-02-14,Ｓｈｅｎｚｈｅｎｓｈｉ　Ｄｏｎｇｈｕａ　Ｗｅｎｈｕａｃｈｕａｎｂｏ　Ｙｏｕｘｉａｎｇｏｎｇｓｉ,,外国会社等,,,,,,,,Ｒｏｏｍ　４１５，Ｚｈｅｎｈｕａ　Ｂｕｉｌｄｉｎｇ，Ｈｕａｆａ　Ｎｏｒｔｈ　Ｒｏａｄ　Ｆｕｔｉａｎ　Ｄｉｓｔｒｉｃｔ，Ｓｈｅｎｚｈｅｎ　Ｃｉｔｙ，ＧｕａｎｇＤｏｎｇ,,,,,,2023-02-14,1,,,,,シエンチエンシドンフアウエンフアツアンボユウゲンコウシ,0
2277,9700150114314,新規,0,2023-02-14,2023-02-14,ＺＨＵＨＡＩ　ＨＯＮＧＪＩＡＮＧ　ＫＥＪＩ　ＹＯＵＸＩＡＮＧＯＮＧＳＩ,,外国会社等,,,,,,,,Ｚｈｕｈａｉ　Ｍｅｉｋｅ　Ｒｅｆｒｉｇｅｒａｔｉｏｎ　Ｅｑｕｉｐｍｅｎｔ　Ｃｏ．，Ｌｔｄ．Ｆａｃｔｏｒｙ　Ｂｕｉｌｄｉｎｇ　１－２，Ｊｉｎｗａｎ　Ｄｉｓｔｒｉｃｔ，Ｚｈｕｈａｉ　Ｃｉｔｙ，Ｇｕａｎｇｄｏｎｇ　Ｐｒｏｖｉｎｃｅ，Ｃｈｉｎａ,,,,,,2023-02-14,1,,,,,ズハイホンジャンケジユウゲンコウシ,0
