sequenceNumber,corporateNumber,process,correct,updateDate,changeDate,name,nameImageId,kind,prefectureName,cityName,streetNumber,addressImageId,prefectureCode,cityCode,postCode,addressOutside,addressOutsideImageId,closeDate,closeCause,successorCorporateNumber,changeCause,assignmentDate,latest,enName,enPrefectureName,enCityName,enAddressOutside,furigana,hihyoji
1,1010001082795,登記記録の閉鎖等,0,2023-02-13,2023-02-07,株式会社ＴＲＣ中部,,株式会社,愛知県,名古屋市中区,丸の内２丁目２番２８号,,23,106,4600002,,,2023-02-07,合併による解散等,3010001005556,令和５年２月１日東京都文京区大塚三丁目１番１号株式会社図書館流通センター（3010001005556）に合併し解散,2015-10-05,1,,,,,ティーアールシーチュウブ,0
15,1010405018742,登記記録の閉鎖等,0,2023-02-13,2023-01-31,一般社団法人再エネ振興機構,,その他の設立登記法人,東京都,港区,虎ノ門３丁目２２番１０－２０１号,,13,103,1050001,,,2023-01-31,清算の結了等,,,2020-05-28,1,,,,,サイエネシンコウキコウ,0
21,1010602005163,登記記録の閉鎖等,0,2023-02-13,2023-02-06,鶴見金属有限会社,,有限会社,東京都,江東区,亀戸５丁目４０番１３号,,13,108,1360071,,,2023-02-06,清算の結了等,,,2015-10-05,1,,,,,ツルミキンゾク,0
25,1010802013098,登記記録の閉鎖等,0,2023-02-13,2023-02-06,有限会社星野精工業社,,有限会社,東京都,大田区,東馬込２丁目３番６号,,13,111,1430022,,,2023-02-06,清算の結了等,,,2015-10-05,1,,,,,ホシノセイコウギョウシャ,0
45,1011501020088,登記記録の閉鎖等,0,2023-02-13,2023-02-06,エイプリルテンス株式会社,,株式会社,東京都,北区,西ケ原３丁目２番１号,,13,117,1140024,,,2023-02-06,清算の結了等,,,2015-10-05,1,,,,,エイプリルテンス,0
53,1011805001833,登記記録の閉鎖等,0,2023-02-13,2023-02-07,特定非営利活動法人シルバーエイジ・セーフテイシステムズ,,その他の設立登記法人,東京都,葛飾区,立石１丁目５番６号ＩＭＧビル１Ｆ,,13,122,1240012,,,2023-02-07,清算の結了等,,,2015-10-05,1,,,,,シルバーエイジセーフテイシステムズ,0
63,1020001104813,登記記録の閉鎖等,0,2023-02-13,2023-02-10,株式会社ＰｒｏｕｄＳｅｒｖｉｃｅ,,株式会社,神奈川県,横浜市中区,新山下１丁目８番９号,,14,104,2310801,,,2023-02-10,清算の結了等,,,2015-10-05,1,,,,,プラウドサービス,0
64,1020001107519,登記記録の閉鎖等,0,2023-02-13,2023-02-09,株式会社横濱元町洋菓子研究所,,株式会社,神奈川県,横浜市中区,元町５丁目２０９番地,,14,104,2310861,,,2023-02-09,合併による解散等,6080101012765,令和５年２月１日静岡県熱海市上多賀６８６番地株式会社ＴＴＣ（6080101012765）に合併し解散,2015-10-05,1,,,,,ヨコハマモトマチヨウガシケンキュウショ,0
76,1021002038050,登記記録の閉鎖等,0,2023-02-13,2023-02-07,有限会社ジーヨン工営,,有限会社,神奈川県,秦野市,曽屋３５７８番地の１０,,14,211,2570031,,,2023-02-07,清算の結了等,,,2015-10-05,1,,,,,ジーヨンコウエイ,0
84,1030002056111,登記記録の閉鎖等,0,2023-02-13,2023-02-09,丸高建設有限会社,00016820,有限会社,埼玉県,桶川市,大字川田谷２８１６番地１０,,11,231,3630027,,,2023-02-09,清算の結了等,,,2015-10-05,1,,,,,マルタカケンセツ,0
146,1130001005281,登記記録の閉鎖等,0,2023-02-13,2023-02-10,株式会社パームトラベル,,株式会社,京都府,京都市左京区,松ケ崎東山４８番地の２,,26,103,6060946,,,2023-02-10,清算の結了等,,,2015-10-05,1,,,,,パームトラベル,0
175,1180001011052,登記記録の閉鎖等,0,2023-02-13,2023-02-08,丸佳食品株式会社,,株式会社,愛知県,名古屋市瑞穂区,釜塚町２丁目７番地,,23,108,4670051,,,2023-02-08,清算の結了等,,,2015-10-05,1,,,,,マルカショクヒン,0
200,1240005007239,登記記録の閉鎖等,0,2023-02-13,2023-02-03,特定非営利活動法人Ｄｅｎ１０の会,,その他の設立登記法人,広島県,広島市南区,比治山町２番５号,,34,103,7320817,,,2023-02-03,清算の結了等,,,2015-10-05,1,,,,,デントウノカイ,0
202,1270002010184,登記記録の閉鎖等,0,2023-02-13,2023-02-03,有限会社松屋,,有限会社,鳥取県,倉吉市,堺町１丁目８９５番地,,31,203,6820885,,,2023-02-03,清算の結了等,,,2015-10-05,1,,,,,マツヤ,0
210,1350001006266,登記記録の閉鎖等,0,2023-02-13,2023-02-08,株式会社コクド,,株式会社,宮崎県,日向市,大字日知屋１５８３７番地５,,45,206,8830062,,,2023-02-08,清算の結了等,,,2015-10-05,1,,,,,コクド,0
291,2011601003776,登記記録の閉鎖等,0,2023-02-13,2023-02-08,株式会社大和工務店,,株式会社,東京都,練馬区,土支田２丁目１６番６号,,13,120,1790076,,,2023-02-08,清算の結了等,,,2015-10-05,1,,,,,ダイワコウムテン,0
296,2012801020421,登記記録の閉鎖等,0,2023-02-13,2023-02-09,藤綜合開発株式会社,,株式会社,東京都,台東区,東上野３丁目１５番３号あづまビル４０１,,13,106,1100015,,,2023-02-09,清算の結了等,,,2020-10-21,1,,,,,フジソウゴウカイハツ,0
302,2020001023517,登記記録の閉鎖等,0,2023-02-13,2023-02-08,積和建設神奈川株式会社,,株式会社,神奈川県,横浜市港北区,新羽町８１５番地,,14,109,2230057,,,2023-02-08,合併による解散等,9030001020399,令和５年２月１日埼玉県戸田市大字新曽１７６０番地の２積水ハウス建設東京株式会社（9030001020399）に合併し解散,2015-10-05,1,,,,,セキワケンセツカナガワ,0
310,2020001133753,登記記録の閉鎖等,0,2023-02-13,2023-02-08,株式会社ＢＥＬＬＯＮＡ,,株式会社,神奈川県,横浜市緑区,十日市場町８９７番地５,,14,113,2260025,,,2023-02-08,清算の結了等,,,2019-11-22,1,,,,,ベローナ,0
316,2020002094557,登記記録の閉鎖等,0,2023-02-13,2023-02-09,有限会社西食亭,,有限会社,神奈川県,川崎市麻生区,栗平２丁目１７番１１号,,14,137,2150031,,,2023-02-09,清算の結了等,,,2015-10-05,1,,,,,セイショクテイ,0
326,2021003008877,登記記録の閉鎖等,0,2023-02-13,2023-02-08,合同会社ライフ＆ワーク,,合同会社,神奈川県,逗子市,桜山５丁目２番３号,,14,208,2490005,,,2023-02-08,清算の結了等,,,2019-11-20,1,,,,,ライフアンドワーク,0
331,2040001027648,登記記録の閉鎖等,0,2023-02-13,2023-02-08,丸勇須藤商事株式会社,,株式会社,千葉県,船橋市,駿河台２丁目２０番３２号２０２号室,,12,204,2730862,,,2023-02-08,清算の結了等,,,2015-10-05,1,,,,,マルユウスドウショウジ,0
350,2080001023461,登記記録の閉鎖等,0,2023-02-13,2023-02-09,株式会社Ｈ・Ｉ・Ｍ,,株式会社,静岡県,藤枝市,大東町１０５２番地の３,,22,214,4260044,,,2023-02-09,清算の結了等,,,2020-04-03,1,,,,,エイチアイエム,0
351,2080003002777,登記記録の閉鎖等,0,2023-02-13,2023-02-10,合同会社葵華,,合同会社,静岡県,焼津市,与惣次１３９番地,,22,212,4250034,,,2023-02-10,清算の結了等,,,2022-04-07,1,,,,,アオイ,0
353,2080102003494,登記記録の閉鎖等,0,2023-02-13,2023-02-08,有限会社宮崎工務店,,有限会社,静岡県,沼津市,米山町１３番２６号,,22,203,4100046,,,2023-02-08,清算の結了等,,,2015-10-05,1,,,,,ミヤザキコウムテン,0
360,2110001033837,登記記録の閉鎖等,0,2023-02-13,2023-02-09,株式会社大吉観光開発,,株式会社,新潟県,南魚沼郡湯沢町,大字湯沢２１５０番地,,15,461,9496101,,,2023-02-09,清算の結了等,,,2019-02-22,1,,,,,ダイキチカンコウカイハツ,0
418,2180002019449,登記記録の閉鎖等,0,2023-02-13,2023-02-07,株式会社ネオロジ,,株式会社,愛知県,名古屋市港区,空見町１番地の２,,23,111,4550847,,,2023-02-07,清算の結了等,,,2015-10-05,1,,,,,ネオロジ,0
423,2180301023473,登記記録の閉鎖等,0,2023-02-13,2023-02-07,株式会社ＭＫ,,株式会社,愛知県,西尾市,西幡豆町南岡割４３番地,,23,213,4440703,,,2023-02-07,清算の結了等,,,2015-10-05,1,,,,,エムケイ,0
437,2250002013972,登記記録の閉鎖等,0,2023-02-13,2023-02-07,有限会社ながとプラザサービス,,有限会社,山口県,長門市,東深川８３４番地１,,35,211,7594101,,,2023-02-07,清算の結了等,,,2015-10-05,1,,,,,ナガトプラザサービス,0
454,2330005001859,登記記録の閉鎖等,0,2023-02-13,2023-02-08,特定非営利活動法人熊本元気っ子クラブ,,その他の設立登記法人,熊本県,熊本市東区,健軍本町２８番１２号,,43,102,8620910,,,2023-02-08,清算の結了等,,,2015-10-05,1,,,,,クマモトゲンキッコクラブ,0
466,2380001001817,登記記録の閉鎖等,0,2023-02-13,2023-02-09,株式会社ローカル・エリア・ネットワークス,,株式会社,福島県,福島市,曽根田町６番４１号,,07,201,9608051,,,2023-02-09,清算の結了等,,,2015-10-05,1,,,,,ローカルエリアネットワークス,0
489,3000030230027,登記記録の閉鎖等,0,2023-02-13,2018-06-26,新城市塩沢組財産区,,地方公共団体,愛知県,新城市,字東入船１１５番地,,23,221,4411383,,,2018-06-26,その他の清算の結了等,,,2015-10-05,1,shinshiroshishiosawagumizaisanku,Aichi,"115,Azahigashiirifune, shinshiro shi",,シンシロシシオサワグミザイサンク,0
495,3010001204827,登記記録の閉鎖等,0,2023-02-13,2023-02-06,株式会社クリダジャパン,,株式会社,東京都,千代田区,紀尾井町３番１０号紀尾井町ガーデンタワー２５０４（Ｃ／Ｏ・Ｓｈｉｍａｄａ・Ｏｆｆｉｃｅ）,,13,101,1020094,,,2023-02-06,清算の結了等,,,2019-10-24,1,,,,,クリダジャパン,0
496,3010001224593,登記記録の閉鎖等,0,2023-02-13,2023-02-09,株式会社Ｓｃｈｕｂｌａｄｅ,,株式会社,京都府,京都市下京区,中堂寺南町１３４番地８階,,26,106,6008813,,,2023-02-09,清算の結了等,,,2022-02-16,1,,,,,シュブラーデ,0
497,3010002022014,登記記録の閉鎖等,0,2023-02-13,2023-02-06,タカダ建築設計有限会社,,有限会社,東京都,中央区,築地４丁目１２番２号,,13,102,1040045,,,2023-02-06,清算の結了等,,,2015-10-05,1,,,,,タカダケンチクセッケイ,0
505,3010403013553,登記記録の閉鎖等,0,2023-02-13,2023-01-31,ザオウＭＬ　Ｔｒｕｓｔ合同会社,,合同会社,東京都,港区,虎ノ門３丁目２２番１０－２０１号,,13,103,1050001,,,2023-01-31,清算の結了等,,,2015-10-05,1,,,,,ザオウエムエルトラスト,0
530,3011103007424,登記記録の閉鎖等,0,2023-02-13,2023-02-10,Ｄｅｓｉｇｎ　Ｌｅｔｔｅｒｓ合同会社,,合同会社,東京都,新宿区,四谷４丁目６番１号四谷サンハイツ６１０号室,,13,104,1600004,,,2023-02-10,清算の結了等,,,2017-10-26,1,,,,,デザインレターズ,0
560,3020002092130,登記記録の閉鎖等,0,2023-02-13,2023-02-10,有限会社カツミ,,有限会社,神奈川県,川崎市多摩区,菅稲田堤１丁目１３番３０－１０１号,,14,135,2140003,,,2023-02-10,清算の結了等,,,2015-10-05,1,,,,,カツミ,0
624,3120105006761,登記記録の閉鎖等,0,2023-02-13,2023-02-10,神理真心教不動教会,,その他の設立登記法人,大阪府,和泉市,伏屋町２６０番地,,27,219,5940031,,,2023-02-10,清算の結了等,,,2015-10-05,1,,,,,,0
629,3130001001997,登記記録の閉鎖等,0,2023-02-13,2023-02-08,宮田鋳工株式会社,,株式会社,京都府,京都市右京区,西院北矢掛町５０番地,,26,108,6150026,,,2023-02-08,清算の結了等,,,2015-10-05,1,,,,,ミヤタチュウコウ,0
633,3140001047635,登記記録の閉鎖等,0,2023-02-13,2023-02-08,株式会社大和住宅,,株式会社,兵庫県,尼崎市,武庫之荘５丁目３６番４３号,,28,202,6610035,,,2023-02-08,清算の結了等,,,2015-10-05,1,,,,,ダイワジュウタク,0
646,3180001122780,登記記録の閉鎖等,0,2023-02-13,2023-02-08,東洋食品関西株式会社,,株式会社,大阪府,富田林市,若松町４丁目１５番１８号,,27,214,5840024,,,2023-02-08,合併による解散等,2180001076235,令和５年２月１日愛知県小牧市弥生町１２１番地東洋食品株式会社（2180001076235）に合併し解散,2016-04-12,1,,,,,トウヨウショクヒンカンサイ,0
661,3230002009427,登記記録の閉鎖等,0,2023-02-13,2023-02-09,有限会社丸井工業,,有限会社,富山県,砺波市,秋元２７８番地の１,,16,208,9391304,,,2023-02-09,清算の結了等,,,2015-10-05,1,,,,,マルイコウギョウ,0
672,3250001018559,登記記録の閉鎖等,0,2023-02-13,2023-02-08,株式会社ばさろＰｒｏｊｅｃｔ,,株式会社,山口県,防府市,天神１丁目５番２３号中村ビル１階,,35,206,7470034,,,2023-02-08,清算の結了等,,,2020-11-19,1,,,,,バサロプロジェクト,0
679,3290801013854,登記記録の閉鎖等,0,2023-02-13,2023-02-10,株式会社Ｄ－ＳＷＥＡＲ,,株式会社,福岡県,北九州市八幡西区,陣山２丁目２番１号,,40,109,8060012,,,2023-02-10,清算の結了等,,,2015-10-05,1,,,,,ディースウエア,0
691,3350002011643,登記記録の閉鎖等,0,2023-02-13,2023-02-08,有限会社ＡＢＣ,,有限会社,宮崎県,日向市,大字日知屋１５８５８番地８,,45,206,8830062,,,2023-02-08,清算の結了等,,,2015-10-05,1,,,,,エイビイシイ,0
709,3430002058809,登記記録の閉鎖等,0,2023-02-13,2023-02-08,有限会社真晃建機,,有限会社,北海道,勇払郡厚真町,表町２４番地,,01,581,0591602,,,2023-02-08,清算の結了等,,,2015-10-05,1,,,,,シンコウケンキ,0
722,4000030230042,登記記録の閉鎖等,0,2023-02-13,2018-06-26,新城市長篠財産区,,地方公共団体,愛知県,新城市,字東入船１１５番地,,23,221,4411383,,,2018-06-26,その他の清算の結了等,,,2015-10-05,1,shinshiroshinagashinozaisanku,Aichi,"115,Azahigashiirifune, shinshiro shi",,シンシロシナガシノザイサンク,0
749,4010401139531,登記記録の閉鎖等,0,2023-02-13,2023-01-31,株式会社サイレント,,株式会社,東京都,港区,浜松町２丁目２番１５号,,13,103,1050013,,,2023-01-31,清算の結了等,,,2018-07-12,1,,,,,サイレント,0
755,4010601060594,登記記録の閉鎖等,0,2023-02-13,2023-02-06,Ｔａｕｒｕｓ株式会社,,株式会社,東京都,江東区,東雲１丁目９番４３号,,13,108,1350062,,,2023-02-06,清算の結了等,,,2022-02-02,1,,,,,トーラス,0
771,4011002001262,登記記録の閉鎖等,0,2023-02-13,2023-02-06,有限会社エイシーエス,,有限会社,東京都,渋谷区,上原２丁目１番４号,,13,113,1510064,,,2023-02-06,清算の結了等,,,2015-10-05,1,,,,,エイシーエス,0
774,4011003005849,登記記録の閉鎖等,0,2023-02-13,2023-02-03,ファビラ・ネオ合同会社,,合同会社,東京都,渋谷区,代官山町２０番９号,,13,113,1500034,,,2023-02-03,清算の結了等,,,2015-10-05,1,,,,,ファビラネオ,0
806,4013301022757,登記記録の閉鎖等,0,2023-02-13,2023-02-07,株式会社御意見番,,株式会社,東京都,豊島区,東池袋２丁目６２番８号ビックオフィースプラザ池袋２０３,,13,116,1700013,,,2023-02-07,清算の結了等,,,2015-10-05,1,,,,,ゴイケンバン,0
818,4020003016293,登記記録の閉鎖等,0,2023-02-13,2023-02-09,合同会社ＳｕｎＣｒｅｖａ,,合同会社,神奈川県,横浜市港北区,日吉１丁目７番２７号,,14,109,2230061,,,2023-02-09,清算の結了等,,,2019-07-02,1,,,,,サンクレヴァ,0
833,4030001079647,登記記録の閉鎖等,0,2023-02-13,2023-02-09,株式会社Ｃｏｒｅ－Ｊａｐａｎ,,株式会社,埼玉県,川口市,大字西立野１１１９番地の１２,,11,203,3330813,,,2023-02-09,清算の結了等,,,2015-10-05,1,,,,,,0
860,4050003004139,登記記録の閉鎖等,0,2023-02-13,2023-02-06,合同会社サンパック,,合同会社,茨城県,つくば市,吉沼４０９１番地１,,08,220,3002617,,,2023-02-06,清算の結了等,,,2018-04-05,1,,,,,サンパック,0
903,4140001100640,登記記録の閉鎖等,0,2023-02-13,2023-02-09,株式会社ブキット,,株式会社,兵庫県,高砂市,阿弥陀町阿弥陀２８２６番地,,28,216,6760827,,,2023-02-09,清算の結了等,,,2016-01-12,1,,,,,ブキット,0
909,4180001044768,登記記録の閉鎖等,0,2023-02-13,2023-02-07,株式会社タカハシ工機,,株式会社,愛知県,名古屋市中村区,中島町２丁目２９番地,,23,105,4530022,,,2023-02-07,清算の結了等,,,2015-10-05,1,,,,,タカハシコウキ,0
916,4180002078220,登記記録の閉鎖等,0,2023-02-13,2023-02-06,有限会社後藤建材店,,有限会社,愛知県,一宮市,小信中島字西五反田１１番地,,23,203,4940007,,,2023-02-06,清算の結了等,,,2015-10-05,1,,,,,ゴトウケンザイテン,0
934,4240001051709,登記記録の閉鎖等,0,2023-02-13,2023-02-10,株式会社ＩＧＬみらいグループ,,株式会社,広島県,広島市安佐南区,上安６丁目２７番４０号,,34,105,7310154,,,2023-02-10,清算の結了等,,,2017-09-19,1,,,,,アイジーエルミライグループ,0
937,4250002019290,登記記録の閉鎖等,0,2023-02-13,2023-02-09,有限会社スリーエス山口,,有限会社,山口県,岩国市,南岩国町１丁目１７番３１号,,35,208,7400034,,,2023-02-09,清算の結了等,,,2015-10-05,1,,,,,スリーエスヤマグチ,0
965,4430005004767,登記記録の閉鎖等,0,2023-02-13,2023-02-07,医療法人社団吉田歯科医院,,その他の設立登記法人,北海道,北広島市,栄町１丁目５番地３北広島ビル,,01,234,0611133,,,2023-02-07,清算の結了等,,,2015-10-05,1,,,,,ヨシダシカイイン,0
977,5000030230041,登記記録の閉鎖等,0,2023-02-13,2018-06-26,新城市吉川下組財産区,,地方公共団体,愛知県,新城市,字東入船１１５番地,,23,221,4411383,,,2018-06-26,その他の清算の結了等,,,2015-10-05,1,shinshiroshiyoshikawashimogumizaisanku,Aichi,"115,Azahigashiirifune, shinshiro shi",,シンシロシヨシカワシモグミザイサンク,0
985,5010003031210,登記記録の閉鎖等,0,2023-02-13,2023-02-06,Ｇｏｒｏｒｉ合同会社,,合同会社,東京都,千代田区,神田小川町１丁目８番３号小川町北ビルＴＨＥ・ＯＦＦＩＣＥ神田３階,,13,101,1010052,,,2023-02-06,清算の結了等,,,2019-12-16,1,,,,,ゴロリ,0
988,5010401009262,登記記録の閉鎖等,0,2023-02-13,2023-01-30,株式会社ケイ・パック,,株式会社,東京都,港区,六本木３丁目１６番３３号,,13,103,1060032,,,2023-01-30,清算の結了等,,,2015-10-05,1,,,,,ケイパック,0
1005,5011001122711,登記記録の閉鎖等,0,2023-02-13,2023-02-08,株式会社ＴｉｍＥａｔ,,株式会社,東京都,渋谷区,渋谷２丁目１番１１号郁文堂ビル８Ｆ,,13,113,1500002,,,2023-02-08,清算の結了等,,,2018-06-13,1,,,,,,0
1009,5011003007745,登記記録の閉鎖等,0,2023-02-13,2023-02-03,フエルテ合同会社,,合同会社,東京都,渋谷区,代官山町２０番９号,,13,113,1500034,,,2023-02-03,清算の結了等,,,2017-06-08,1,,,,,フエルテ,0
1012,5011101088522,登記記録の閉鎖等,0,2023-02-13,2023-02-03,株式会社ユーフォリア,,株式会社,東京都,渋谷区,幡ヶ谷１丁目２３－１６－３０１,,13,113,1510072,,,2023-02-03,清算の結了等,,,2019-08-06,1,,,,,ユーフォリア,0
1047,5021001008810,登記記録の閉鎖等,0,2023-02-13,2023-02-08,株式会社イーエムジャパン,,株式会社,神奈川県,鎌倉市,大船３丁目１番３号,,14,204,2470056,,,2023-02-08,合併による解散等,3180001051864,令和５年２月１日名古屋市名東区極楽五丁目１４８番地ＥＭ生活通販株式会社（3180001051864）に合併し解散,2015-10-05,1,,,,,イーエムジャパン,0
1052,5021002047865,登記記録の閉鎖等,0,2023-02-13,2023-02-09,有限会社ビーアシスト,,有限会社,神奈川県,綾瀬市,吉岡東４丁目８番３号,,14,218,2521125,,,2023-02-09,清算の結了等,,,2015-10-05,1,,,,,ビーアシスト,0
1059,5030002038915,登記記録の閉鎖等,0,2023-02-13,2023-02-09,有限会社さどや洋品店,,有限会社,埼玉県,久喜市,菖蒲町菖蒲１６２番地,,11,232,3460106,,,2023-02-09,清算の結了等,,,2015-10-05,1,,,,,サドヤヨウヒンテン,0
1069,5040001125267,登記記録の閉鎖等,0,2023-02-13,2023-02-08,株式会社ニッケイ・プランニング,,株式会社,千葉県,千葉市花見川区,花園１丁目８番６号,,12,102,2620025,,,2023-02-08,合併による解散等,4030001011353,令和５年２月１日さいたま市南区文蔵二丁目１番１０号株式会社プランニング二十一（4030001011353）に合併し解散,2022-10-04,1,,,,,ニッケイプランニング,0
1089,5080001005655,登記記録の閉鎖等,0,2023-02-13,2023-02-10,株式会社ケミカル・リサーチ,,株式会社,静岡県,静岡市葵区,駒形通５丁目３番１９－６０２,,22,101,4200042,,,2023-02-10,清算の結了等,,,2015-10-05,1,,,,,ケミカルリサーチ,0
1090,5080001009796,登記記録の閉鎖等,0,2023-02-13,2023-02-10,株式会社サースネット,,株式会社,静岡県,静岡市葵区,南沼上９８８番地の３６,,22,101,4200905,,,2023-02-10,清算の結了等,,,2015-10-05,1,,,,,サースネット,0
1093,5080402001682,登記記録の閉鎖等,0,2023-02-13,2023-02-10,有限会社大友クリーニング本店,,有限会社,静岡県,浜松市中区,元目町１２８番地の１９,,22,131,4300948,,,2023-02-10,清算の結了等,,,2015-10-05,1,,,,,オオトモクリーニングホンテン,0
1113,5120002021663,登記記録の閉鎖等,0,2023-02-13,2023-02-09,有限会社北出事務商会,,有限会社,大阪府,大阪市西区,新町２丁目１４番１１号,,27,106,5500013,,,2023-02-09,清算の結了等,,,2015-10-05,1,,,,,キタデジムショウカイ,0
1118,5120101002977,登記記録の閉鎖等,0,2023-02-13,2023-02-08,三宝技術サービス株式会社,,株式会社,大阪府,大阪市北区,大淀中１丁目５番１号,,27,127,5310076,,,2023-02-08,合併による解散等,4010801011546,令和５年２月１日東京都大田区西蒲田六丁目３番１３号株式会社三ッ芳電気（4010801011546）に合併し解散,2015-10-05,1,,,,,サンポウギジュツサービス,0
1124,5130001054110,登記記録の閉鎖等,0,2023-02-13,2023-02-10,株式会社ｆａｇｕｓ,,株式会社,京都府,京都市左京区,岩倉幡枝町３０６番３２,,26,103,6060015,,,2023-02-10,清算の結了等,,,2015-10-05,1,,,,,ファーガス,0
1137,5140005004671,登記記録の閉鎖等,0,2023-02-13,2023-02-06,特定非営利活動法人和気あい愛,,その他の設立登記法人,兵庫県,神戸市西区,玉津町出合１７６番地５,,28,111,6512137,,,2023-02-06,清算の結了等,,,2015-10-05,1,,,,,ワキアイアイ,0
1145,5180001106757,登記記録の閉鎖等,0,2023-02-13,2023-02-06,日中文化国際旅行株式会社,,株式会社,愛知県,名古屋市東区,東大曽根町３番２１号,,23,102,4610022,,,2023-02-06,清算の結了等,,,2015-10-05,1,,,,,ニッチュウブンカコクサイリョコウ,0
1155,5180302002721,登記記録の閉鎖等,0,2023-02-13,2023-02-07,有限会社穂の佳,,有限会社,愛知県,岡崎市,上地町字宝六２４番地,,23,202,4440824,,,2023-02-07,清算の結了等,,,2015-10-05,1,,,,,ホノカ,0
1163,5230001003197,登記記録の閉鎖等,0,2023-02-13,2023-02-09,株式会社明友社,,株式会社,富山県,富山市,横内１番地の６,,16,201,9398033,,,2023-02-09,清算の結了等,,,2015-10-05,1,,,,,メイユウシャ,0
1172,5260001034405,登記記録の閉鎖等,0,2023-02-13,2023-02-06,株式会社ファミリーＴＤＫ,,株式会社,岡山県,倉敷市,児島下の町１０丁目３７６番地１９９,,33,202,7110906,,,2023-02-06,清算の結了等,,,2020-06-11,1,,,,,ファミリーティディケイ,0
1174,5290001048146,登記記録の閉鎖等,0,2023-02-13,2023-02-07,株式会社ＴＲＣ中四国,,株式会社,広島県,広島市南区,京橋町１番２３号,,34,103,7320828,,,2023-02-07,合併による解散等,3010001005556,令和５年２月１日東京都文京区大塚三丁目１番１号株式会社図書館流通センター（3010001005556）に合併し解散,2015-10-05,1,,,,,ティーアールシーチュウシコク,0
1180,5290002001748,登記記録の閉鎖等,0,2023-02-13,2023-02-09,有限会社甲斐電業社,,有限会社,福岡県,福岡市南区,鶴田２丁目２番７７号,,40,134,8111352,,,2023-02-09,清算の結了等,,,2015-10-05,1,,,,,カイデンギョウシャ,0
1181,5290002024939,登記記録の閉鎖等,0,2023-02-13,2023-02-09,有限会社イノウエスピークカンパニー,,有限会社,福岡県,福岡市中央区,舞鶴１丁目３番３３号１階,,40,133,8100073,,,2023-02-09,清算の結了等,,,2015-10-05,1,,,,,イノウエスピークカンパニー,0
1184,5320001010713,登記記録の閉鎖等,0,2023-02-13,2023-02-07,江渕建設株式会社,,株式会社,大分県,中津市,大字永添８２０番地の１１０,,44,203,8710162,,,2023-02-07,清算の結了等,,,2015-10-05,1,,,,,,0
1192,5350001014785,登記記録の閉鎖等,0,2023-02-13,2023-02-08,株式会社ＫＩＲＩＳＨＩＭＡ,,株式会社,宮崎県,都城市,丸谷町２７２５番地１,,45,202,8851105,,,2023-02-08,清算の結了等,,,2017-07-11,1,,,,,キリシマ,0
1196,5380001012142,登記記録の閉鎖等,0,2023-02-13,2023-02-09,株式会社伊藤ファーム,,株式会社,福島県,郡山市,中田町赤沼字中井田３１番地,,07,203,9630714,,,2023-02-09,清算の結了等,,,2015-10-05,1,,,,,イトウファーム,0
1210,5460005001232,登記記録の閉鎖等,0,2023-02-13,2023-02-08,一般社団法人浜中町風力発電所,,その他の設立登記法人,北海道,厚岸郡浜中町,大津屋沢３１番地,,01,663,0881408,,,2023-02-08,清算の結了等,,,2015-10-05,1,,,,,ハマナカチョウフウリョクハツデンショ,0
1219,6000030230040,登記記録の閉鎖等,0,2023-02-13,2018-06-26,新城市吉川上林組財産区,,地方公共団体,愛知県,新城市,字東入船１１５番地,,23,221,4411383,,,2018-06-26,その他の清算の結了等,,,2015-10-05,1,shinshiroshiyoshikawauebayashigumizaisanku,Aichi,"115,Azahigashiirifune, shinshiro shi",,シンシロシヨシカワウエバヤシグミザイサンク,0
1220,6010001040154,登記記録の閉鎖等,0,2023-02-13,2023-02-03,カシオ情報機器株式会社,,株式会社,東京都,千代田区,九段北４丁目１番７号,,13,101,1020073,,,2023-02-03,清算の結了等,,,2015-10-05,1,,,,,カシオジョウホウキキ,0
1221,6010001129311,登記記録の閉鎖等,0,2023-02-13,2023-02-03,株式会社ジェイ・エス・アビエーション５,,株式会社,東京都,千代田区,大手町２丁目３番２号,,13,101,1000004,,,2023-02-03,清算の結了等,,,2015-10-05,1,,,,,ジェイエスアビエーションファイブ,0
1246,6010702008631,登記記録の閉鎖等,0,2023-02-13,2023-02-08,有限会社ユースタジオ,,有限会社,東京都,品川区,西品川２丁目１０番１５号,,13,109,1410033,,,2023-02-08,清算の結了等,,,2015-10-05,1,,,,,ユースタジオ,0
1288,6021003001481,登記記録の閉鎖等,0,2023-02-13,2023-02-09,インクループ株式会社,,株式会社,神奈川県,相模原市中央区,中央３丁目１２番３号相模原商工会館本館４階,,14,152,2520239,,,2023-02-09,清算の結了等,,,2015-10-05,1,,,,,インクループ,0
1290,6030001066354,登記記録の閉鎖等,0,2023-02-13,2023-02-08,株式会社ＳＨＯＷ,,株式会社,埼玉県,北葛飾郡松伏町,大字上赤岩８０５番地３,,11,465,3430115,,,2023-02-08,清算の結了等,,,2015-10-05,1,,,,,ショウ,0
1295,6030001138260,登記記録の閉鎖等,0,2023-02-13,2023-02-08,株式会社埼玉パルプ,,株式会社,東京都,中央区,八重洲２丁目１０番８号,,13,102,1040028,,,2023-02-08,合併による解散等,1030001088989,令和５年２月１日埼玉県熊谷市上新田３０４番地株式会社熊谷紙業（1030001088989）に合併し解散,2020-09-11,1,,,,,サイタマパルプ,0
1299,6030002008644,登記記録の閉鎖等,0,2023-02-13,2023-02-08,竹井工業有限会社,,有限会社,埼玉県,さいたま市西区,大字西遊馬１１１５番地の２,,11,101,3310061,,,2023-02-08,清算の結了等,,,2015-10-05,1,,,,,タケイコウギョウ,0
1303,6040001038303,登記記録の閉鎖等,0,2023-02-13,2023-02-08,株式会社流山山崎薬局本店,00019050,株式会社,千葉県,流山市,流山５丁目９番地の１,,12,220,2700164,,,2023-02-08,清算の結了等,,,2015-10-05,1,,,,,ナガレヤマヤマザキヤッキョクホンテン,0
1305,6040001075800,登記記録の閉鎖等,0,2023-02-13,2023-02-07,株式会社ユウ・コーポレーション,,株式会社,千葉県,千葉市花見川区,検見川町３丁目３１２番地１２ハイライフ新検見川１０６号,,12,102,2620023,,,2023-02-07,清算の結了等,,,2015-10-05,1,,,,,ユウコーポレーション,0
1310,6040001110391,登記記録の閉鎖等,0,2023-02-13,2023-02-07,株式会社エイチアイエム,,株式会社,千葉県,習志野市,津田沼３丁目２２番１４号,,12,216,2750016,,,2023-02-07,合併による解散等,8010001014924,令和５年２月１日東京都千代田区東神田二丁目１０番１８号株式会社キングジム（8010001014924）に合併し解散,2019-08-16,1,,,,,エイチアイエム,0
1321,6060002004475,登記記録の閉鎖等,0,2023-02-13,2023-02-10,有限会社新栄,,有限会社,栃木県,宇都宮市,東宿郷３丁目１３番１２号,,09,201,3210953,,,2023-02-10,清算の結了等,,,2015-10-05,1,,,,,シンエイ,0
1328,6080102007087,登記記録の閉鎖等,0,2023-02-13,2023-02-09,有限会社杉原エーエヌディ,,有限会社,静岡県,御殿場市,御殿場２９０番地の３,,22,215,4120028,,,2023-02-09,清算の結了等,,,2015-10-05,1,,,,,スギハラエーエヌディ,0
1346,6120001137716,登記記録の閉鎖等,0,2023-02-13,2023-02-09,忠建興業株式会社,,株式会社,大阪府,大阪市東住吉区,矢田１丁目１１－２３,,27,121,5460023,,,2023-02-09,清算の結了等,,,2015-10-05,1,,,,,タダケンコウギョウ,0
1370,6160001012246,登記記録の閉鎖等,0,2023-02-13,2023-02-09,株式会社ＭＩＣ,,株式会社,滋賀県,高島市,今津町弘川２８６番地１,,25,212,5201611,,,2023-02-09,清算の結了等,,,2015-10-05,1,,,,,エムアイシー,0
1377,6180001140838,登記記録の閉鎖等,0,2023-02-13,2023-02-08,ＨｉＮＳ株式会社,,株式会社,愛知県,清須市,新清洲５丁目６番地３,,23,233,4520943,,,2023-02-08,清算の結了等,,,2020-04-08,1,,,,,ハインズ,0
1382,6180002000248,登記記録の閉鎖等,0,2023-02-13,2023-02-07,有限会社エポック,,有限会社,愛知県,名古屋市守山区,本地が丘１７０１番地,,23,113,4630031,,,2023-02-07,清算の結了等,,,2015-10-05,1,,,,,エポック,0
1394,6180303005251,登記記録の閉鎖等,0,2023-02-13,2023-02-07,合同会社Ｓｅｅｋｅｒ,,合同会社,愛知県,岡崎市,羽根町字若宮３０番地１,,23,202,4440813,,,2023-02-07,清算の結了等,,,2022-02-14,1,,,,,シーカー,0
1399,6210001017058,登記記録の閉鎖等,0,2023-02-13,2023-02-10,グランドアイル株式会社,,株式会社,福井県,福井市,高木北４丁目２０２番地,,18,201,9100807,,,2023-02-10,清算の結了等,,,2018-03-26,1,,,,,グランドアイル,0
1420,6290005000440,登記記録の閉鎖等,0,2023-02-13,2023-01-31,天理教本水喜分教会,,その他の設立登記法人,福岡県,福岡市東区,箱崎２丁目８番１０号,,40,131,8120053,,,2023-01-31,合併による解散等,4010605000448,令和５年１月２７日東京都墨田区本所一丁目１３番１７号天理教東本大教会（4010605000448）に合併し解散,2015-10-05,1,,,,,,0
1435,6370002006639,登記記録の閉鎖等,0,2023-02-13,2023-02-10,有限会社アマノ商会,,有限会社,宮城県,仙台市泉区,鶴が丘１丁目３２番地の１４号,,04,105,9813109,,,2023-02-10,清算の結了等,,,2015-10-05,1,,,,,アマノショウカイ,0
1438,6380001016142,登記記録の閉鎖等,0,2023-02-13,2023-02-08,株式会社はなつか,,株式会社,福島県,相馬郡飯舘村,臼石字町９６番地の２,,07,564,9601633,,,2023-02-08,清算の結了等,,,2015-10-05,1,,,,,ハナツカ,0
1443,6390001001738,登記記録の閉鎖等,0,2023-02-13,2023-02-09,株式会社ホンマ,,株式会社,山形県,山形市,あこや町３丁目２番２２号,,06,201,9900025,,,2023-02-09,清算の結了等,,,2015-10-05,1,,,,,ホンマ,0
1445,6400001005530,登記記録の閉鎖等,0,2023-02-13,2023-01-30,株式会社和光製材所,,株式会社,岩手県,花巻市,中根子字２２神明８番地の２,,03,205,0250036,,,2023-01-30,清算の結了等,,,2015-10-05,1,,,,,ワコウセイザイショ,0
1446,6420001007475,登記記録の閉鎖等,0,2023-02-13,2023-02-09,株式会社ユタカ加工,,株式会社,青森県,三戸郡五戸町,大字切谷内字淋代２３番地１,,02,442,0391502,,,2023-02-09,清算の結了等,,,2015-10-05,1,,,,,ユタカカコウ,0
1452,6440005002652,登記記録の閉鎖等,0,2023-02-13,2023-02-08,一般社団法人蝦夷新鮮組,,その他の設立登記法人,北海道,二海郡八雲町,落部４８５番地１,,01,346,0492562,,,2023-02-08,清算の結了等,,,2019-05-15,1,,,,,エゾシンセングミ,0
1456,6500002019726,登記記録の閉鎖等,0,2023-02-13,2023-02-10,有限会社クリーン産業,,有限会社,愛媛県,今治市,朝倉上乙１０３９番地２９,,38,202,7991607,,,2023-02-10,清算の結了等,,,2015-10-05,1,,,,,クリーンサンギョウ,0
1461,7010001002608,登記記録の閉鎖等,0,2023-02-13,2023-02-07,光北印刷株式会社,,株式会社,東京都,文京区,小石川２丁目２５番３号,,13,105,1120002,,,2023-02-07,清算の結了等,,,2015-10-05,1,,,,,コウホクインサツ,0
1463,7010001121060,登記記録の閉鎖等,0,2023-02-13,2023-02-08,株式会社全国賃貸保証,,株式会社,東京都,中央区,日本橋室町２丁目４番３号,,13,102,1030022,,,2023-02-08,合併による解散等,2120001137521,令和５年２月１日大阪市浪速区湊町一丁目２番３号株式会社アプラス（2120001137521）に合併し解散,2015-10-05,1,,,,,ゼンコクチンタイホショウ,0
1478,7010003018692,登記記録の閉鎖等,0,2023-02-13,2023-02-06,合同会社名古屋伏見プロジェクト,,合同会社,東京都,中央区,日本橋１丁目４番１号日本橋一丁目ビルディング,,13,102,1030027,,,2023-02-06,清算の結了等,,,2015-10-05,1,,,,,ナゴヤフシミプロジェクト,0
1501,7010801007186,登記記録の閉鎖等,0,2023-02-13,2023-02-01,田村工業株式会社,,株式会社,東京都,大田区,本羽田１丁目３番１５号,,13,111,1440044,,,2023-02-01,清算の結了等,,,2015-10-05,1,,,,,タムラコウギョウ,0
1504,7010901014041,登記記録の閉鎖等,0,2023-02-13,2023-02-08,株式会社三有エージェンシー,,株式会社,東京都,世田谷区,下馬１丁目２０番２１号,,13,112,1540002,,,2023-02-08,清算の結了等,,,2015-10-05,1,,,,,,0
1507,7010902007291,登記記録の閉鎖等,0,2023-02-13,2023-02-06,有限会社シグネット,,有限会社,東京都,世田谷区,瀬田４丁目２８番１２－１０４号,,13,112,1580095,,,2023-02-06,清算の結了等,,,2015-10-05,1,,,,,,0
1536,7020001046703,登記記録の閉鎖等,0,2023-02-13,2023-02-01,株式会社アピス,,株式会社,神奈川県,横浜市港南区,上大岡西１丁目１９番５号,,14,111,2330002,,,2023-02-01,合併による解散等,1020001108434,令和５年２月１日横浜市港南区上永谷一丁目３５番５号株式会社エスティーアール（1020001108434）に合併し解散,2015-10-05,1,,,,,アピス,0
1561,7040001051172,登記記録の閉鎖等,0,2023-02-13,2023-02-08,株式会社永野工務店,,株式会社,千葉県,袖ケ浦市,阿部１３６番地１,,12,229,2990216,,,2023-02-08,清算の結了等,,,2015-10-05,1,,,,,ナガノコウムテン,0
1563,7040001108617,登記記録の閉鎖等,0,2023-02-13,2023-02-07,株式会社ＳａｒａＢａｋｅｒｙ,,株式会社,千葉県,千葉市中央区,富士見２丁目１１番１号日土地千葉ビル１階,,12,101,2600015,,,2023-02-07,合併による解散等,4010001191858,令和５年２月１日東京都中央区銀座一丁目２７番１２号キャビネットビル株式会社銀座仁志川（4010001191858）に合併し解散,2019-04-05,1,,,,,サラベーカリー,0
1565,7040001124416,登記記録の閉鎖等,0,2023-02-13,2023-02-08,株式会社ＦＱｕＬｉ,,株式会社,千葉県,柏市,東上町２－２８第一水戸屋ビル３Ｆ,,12,217,2770011,,,2023-02-08,清算の結了等,,,2022-07-28,1,,,,,フクリ,0
1569,7040002055338,登記記録の閉鎖等,0,2023-02-13,2023-02-07,有限会社竹田水産,,有限会社,千葉県,成田市,飯仲３９番地１,,12,211,2860046,,,2023-02-07,清算の結了等,,,2015-10-05,1,,,,,タケダスイサン,0
1603,7120003010671,登記記録の閉鎖等,0,2023-02-13,2023-02-10,ｅ－Ｓｍａｒｔ　Ｏｆｆｉｃｅ合同会社,,合同会社,大阪府,大阪市中央区,内淡路町１丁目３番４号福智ビル５階５００号,,27,128,5400038,,,2023-02-10,清算の結了等,,,2015-10-05,1,,,,,イースマートオフィス,0
1606,7120101007289,登記記録の閉鎖等,0,2023-02-13,2023-02-09,株式会社森影製作所,,株式会社,大阪府,堺市堺区,九間町西２丁１番１９号,,27,141,5900939,,,2023-02-09,清算の結了等,,,2015-10-05,1,,,,,モリカゲセイサクショ,0
1611,7120103003955,登記記録の閉鎖等,0,2023-02-13,2023-02-06,合同会社まちの自転車店リコ鳳店,,合同会社,大阪府,堺市西区,鳳南町４丁３８４,,27,144,5938325,,,2023-02-06,清算の結了等,,,2020-12-18,1,,,,,マチノジテンシャテンリコオオトリテン,0
1639,7180001025864,登記記録の閉鎖等,0,2023-02-13,2023-02-07,株式会社アーバンコム,,株式会社,愛知県,一宮市,大和町妙興寺字出町前４７番地１,,23,203,4910922,,,2023-02-07,清算の結了等,,,2015-10-05,1,,,,,アーバンコム,0
1643,7180001075447,登記記録の閉鎖等,0,2023-02-13,2023-02-06,信興エレックス株式会社,,株式会社,愛知県,春日井市,岩成台７丁目２番地３,,23,206,4870033,,,2023-02-06,清算の結了等,,,2015-10-05,1,,,,,シンコウエレックス,0
1648,7180002074786,登記記録の閉鎖等,0,2023-02-13,2023-02-07,有限会社カクマン,,有限会社,愛知県,丹羽郡扶桑町,大字高雄字道塚２３６番地,,23,362,4800102,,,2023-02-07,清算の結了等,,,2015-10-05,1,,,,,カクマン,0
1649,7180003024476,登記記録の閉鎖等,0,2023-02-13,2023-02-02,木村合同会社,,合同会社,愛知県,名古屋市中村区,中村町５丁目５０番地,,23,105,4530053,,,2023-02-02,清算の結了等,,,2022-11-14,1,,,,,キムラ,0
1650,7180303005424,登記記録の閉鎖等,0,2023-02-13,2023-02-07,ＧＲＯＯＶＥ　ＰＲＯＤＵＣＴＩＯＮ合同会社,,合同会社,愛知県,額田郡幸田町,大字相見字阿原８３番地,,23,501,4440117,,,2023-02-07,清算の結了等,,,2022-08-15,1,,,,,グルーヴプロダクション,0
1663,7260001003309,登記記録の閉鎖等,0,2023-02-13,2023-02-02,株式会社シンフォーム,,株式会社,岡山県,岡山市北区,高柳東町１０番１号,,33,101,7000034,,,2023-02-02,合併による解散等,1260001011820,令和５年２月１日岡山市北区南方三丁目７番１７号株式会社ベネッセコーポレーション（1260001011820）に合併し解散,2015-10-05,1,,,,,シンフォーム,0
1669,7290001036537,登記記録の閉鎖等,0,2023-02-13,2023-02-10,横大路建設株式会社,,株式会社,福岡県,福津市,西福間３丁目３７番３４号,,40,224,8113219,,,2023-02-10,清算の結了等,,,2015-10-05,1,,,,,ヨコオオジケンセツ,0
1691,7370001013321,登記記録の閉鎖等,0,2023-02-13,2023-02-08,株式会社ビー・アライブ,,株式会社,宮城県,仙台市青葉区,五橋１丁目１番４５号五橋パークホームズ１１１号,,04,101,9800022,,,2023-02-08,清算の結了等,,,2015-10-05,1,,,,,ビーアライブ,0
1696,7420001012053,登記記録の閉鎖等,0,2023-02-13,2023-02-08,株式会社ＮＫＳ,,株式会社,青森県,十和田市,大字三本木字一本木沢２２９番地２,,02,206,0340001,,,2023-02-08,清算の結了等,,,2015-10-05,1,,,,,エヌケーエス,0
1705,7460102001703,登記記録の閉鎖等,0,2023-02-13,2023-02-07,有限会社清和有機生産組合,,有限会社,北海道,河東郡音更町,字東士狩西７線２１番地２５,,01,631,0800343,,,2023-02-07,清算の結了等,,,2015-10-05,1,,,,,セイワユウキセイサンクミアイ,0
1716,8000030230030,登記記録の閉鎖等,0,2023-02-13,2018-06-26,新城市吉川上組財産区,,地方公共団体,愛知県,新城市,字東入船１１５番地,,23,221,4411383,,,2018-06-26,その他の清算の結了等,,,2015-10-05,1,shinshiroshiyoshikawakamigumizaisanku,Aichi,"115,Azahigashiirifune, shinshiro shi",,シンシロシヨシカワカミグミザイサンク,0
1717,8000030230039,登記記録の閉鎖等,0,2023-02-13,2018-06-26,新城市塩沢下組財産区,,地方公共団体,愛知県,新城市,字東入船１１５番地,,23,221,4411383,,,2018-06-26,その他の清算の結了等,,,2015-10-05,1,shinshiroshishiosawasimogumizaisanku,Aichi,"115,Azahigashiirifune, shinshiro shi",,シンシロシシオサワシモグミザイサンク,0
1719,8010001098414,登記記録の閉鎖等,0,2023-02-13,2023-02-07,ＴＲＣ関西株式会社,,株式会社,大阪府,吹田市,広芝町１８番２４号,,27,205,5640052,,,2023-02-07,合併による解散等,3010001005556,令和５年２月１日東京都文京区大塚三丁目１番１号株式会社図書館流通センター（3010001005556）に合併し解散,2015-10-05,1,,,,,ティーアールシーカンサイ,0
1736,8010403018746,登記記録の閉鎖等,0,2023-02-13,2023-01-30,合同会社ＴＳＭ１４９,,合同会社,東京都,港区,元赤坂１丁目１番７号,,13,103,1070051,,,2023-01-30,清算の結了等,,,2018-06-13,1,,,,,ティーエスエムヒャクヨンジュウキュウ,0
1758,8011003012726,登記記録の閉鎖等,0,2023-02-13,2023-02-03,合同会社蟹工船,,合同会社,東京都,渋谷区,神宮前２丁目２６番１１号ＳＨレジデンス３０１,,13,113,1500001,,,2023-02-03,清算の結了等,,,2021-05-19,1,,,,,カニコウセン,0
1781,8020001128013,登記記録の閉鎖等,0,2023-02-13,2023-02-08,株式会社ＡｌｍａＬｕｃｉａ,,株式会社,石川県,かほく市,高松ク１８番地１６,,17,209,9291215,,,2023-02-08,清算の結了等,,,2018-09-20,1,,,,,アルマルチア,0
1785,8021001024524,登記記録の閉鎖等,0,2023-02-13,2023-02-09,株式会社リンセイ,,株式会社,神奈川県,厚木市,妻田南２丁目２番１９号,,14,212,2430814,,,2023-02-09,清算の結了等,,,2015-10-05,1,,,,,リンセイ,0
1791,8030001090501,登記記録の閉鎖等,0,2023-02-13,2023-02-09,株式会社サンエンジニアリング,,株式会社,埼玉県,日高市,大字旭ケ丘６４７番地５,,11,242,3501203,,,2023-02-09,清算の結了等,,,2015-10-05,1,,,,,サンエンジニアリング,0
1799,8040001001366,登記記録の閉鎖等,0,2023-02-13,2023-02-09,株式会社環境衛生コンサルタント,,株式会社,千葉県,千葉市若葉区,桜木２丁目８番２７号,,12,104,2640028,,,2023-02-09,清算の結了等,,,2015-10-05,1,,,,,カンキョウエイセイコンサルタント,0
1819,8070002019479,登記記録の閉鎖等,0,2023-02-13,2023-02-01,有限会社西生花店,,有限会社,群馬県,伊勢崎市,連取町３０８３番地９,,10,204,3720812,,,2023-02-01,清算の結了等,,,2015-10-05,1,,,,,ニシセイカテン,0
1823,8080402016604,登記記録の閉鎖等,0,2023-02-13,2023-02-13,有限会社丸森,,有限会社,静岡県,浜松市天竜区,佐久間町川合６８５番地,,22,137,4313907,,,2023-02-13,清算の結了等,,,2015-10-05,1,,,,,マルモリ,0
1828,8110001028633,登記記録の閉鎖等,0,2023-02-13,2023-02-09,株式会社赤川縫製,,株式会社,新潟県,新潟市西蒲区,曽根５９０番地１,,15,108,9590422,,,2023-02-09,清算の結了等,,,2015-10-05,1,,,,,アカガワホウセイ,0
1848,8120101050528,登記記録の閉鎖等,0,2023-02-13,2023-02-10,株式会社クレオ,,株式会社,大阪府,堺市北区,北花田町１丁５９番地３,,27,146,5918002,,,2023-02-10,清算の結了等,,,2015-10-05,1,,,,,クレオ,0
1857,8140001039784,登記記録の閉鎖等,0,2023-02-13,2023-02-09,クロバー工業株式会社,,株式会社,兵庫県,相生市,竜泉町２８０番地,,28,208,6780072,,,2023-02-09,清算の結了等,,,2015-10-05,1,,,,,クロバーコウギョウ,0
1872,8160005003900,登記記録の閉鎖等,0,2023-02-13,2023-02-09,宗舜寺,,その他の設立登記法人,滋賀県,米原市,須川３６９番地,,25,214,5210245,,,2023-02-09,清算の結了等,,,2015-10-05,1,,,,,ソウシュンジ,0
1885,8180002024534,登記記録の閉鎖等,0,2023-02-13,2023-02-07,有限会社古橋商店,,有限会社,愛知県,名古屋市西区,菊井１丁目３番６号,,23,104,4510044,,,2023-02-07,清算の結了等,,,2015-10-05,1,,,,,フルハシショウテン,0
1904,8240003003183,登記記録の閉鎖等,0,2023-02-13,2023-02-10,合同会社オコラボ,,合同会社,広島県,神石郡神石高原町,小野９０５番地,,34,545,7201901,,,2023-02-10,清算の結了等,,,2016-01-21,1,,,,,オコラボ,0
1907,8260002029789,登記記録の閉鎖等,0,2023-02-13,2023-02-09,さくら介護センター有限会社,,有限会社,岡山県,津山市,昭和町１丁目７番地,,33,203,7080886,,,2023-02-09,清算の結了等,,,2015-10-05,1,,,,,サクラカイゴセンター,0
1915,8290001080765,登記記録の閉鎖等,0,2023-02-13,2023-02-09,株式会社ＰＵＬＬＲＯＵＮＤ,,株式会社,福岡県,福岡市博多区,比恵町１１番７号,,40,132,8120014,,,2023-02-09,清算の結了等,,,2018-03-08,1,,,,,プルラウンド,0
1918,8290002012973,登記記録の閉鎖等,0,2023-02-13,2023-02-08,有限会社プリント中外社,,有限会社,福岡県,福岡市南区,長丘２丁目３番２５号,,40,134,8150075,,,2023-02-08,清算の結了等,,,2015-10-05,1,,,,,プリントチュウガイシャ,0
1938,8350002004238,登記記録の閉鎖等,0,2023-02-13,2023-02-06,有限会社ひなた,,有限会社,宮崎県,宮崎市,大橋２丁目８番地１,,45,201,8800022,,,2023-02-06,清算の結了等,,,2015-10-05,1,,,,,ヒナタ,0
1946,8380001019325,登記記録の閉鎖等,0,2023-02-13,2023-02-06,株式会社グリーンファーム・ＹＯＵ,,株式会社,福島県,南会津郡南会津町,高杖原３８０番地,,07,368,9670315,,,2023-02-06,清算の結了等,,,2015-10-05,1,,,,,,0
1967,8470005002012,登記記録の閉鎖等,0,2023-02-13,2023-02-10,医療法人仏生山クリニック,,その他の設立登記法人,香川県,高松市,出作町２０５番地１,,37,201,7618077,,,2023-02-10,清算の結了等,,,2015-10-05,1,,,,,ブッショウザンクリニック,0
1976,9000030230038,登記記録の閉鎖等,0,2023-02-13,2018-06-26,新城市塩沢上組財産区,,地方公共団体,愛知県,新城市,字東入船１１５番地,,23,221,4411383,,,2018-06-26,その他の清算の結了等,,,2015-10-05,1,shinshiroshishiosawakamigumizaisanku,Aichi,"115,Azahigashiirifune, shinshiro shi",,シンシロシシオサワカミグミザイサンク,0
1987,9010401147001,登記記録の閉鎖等,0,2023-02-13,2023-02-06,桜雪堂コスメティックス株式会社,,株式会社,東京都,渋谷区,恵比寿西２丁目１９－９フランセスビル１階,,13,113,1500021,,,2023-02-06,清算の結了等,,,2019-07-26,1,,,,,オウセツドウコスメティックス,0
2002,9010601014059,登記記録の閉鎖等,0,2023-02-13,2023-01-23,株式会社仁平鍍金工業所,,株式会社,東京都,墨田区,東向島４丁目２番１７号,,13,107,1310032,,,2023-01-23,清算の結了等,,,2015-10-05,1,,,,,ニヘイメッキコウギョウショ,0
2006,9010801006582,登記記録の閉鎖等,0,2023-02-13,2023-02-06,株式会社大華商亊,,株式会社,東京都,大田区,西糀谷１丁目１３番４号,,13,111,1440034,,,2023-02-06,清算の結了等,,,2015-10-05,1,,,,,タイカショウジ,0
2018,9011002006182,登記記録の閉鎖等,0,2023-02-13,2023-02-03,有限会社神東興業,,有限会社,東京都,渋谷区,千駄ヶ谷３丁目３８番３号,,13,113,1510051,,,2023-02-03,清算の結了等,,,2015-10-05,1,,,,,シントウコウギョウ,0
2022,9011003008723,登記記録の閉鎖等,0,2023-02-13,2023-02-03,ザ・デイ合同会社,,合同会社,東京都,渋谷区,代官山町２０番９号,,13,113,1500034,,,2023-02-03,清算の結了等,,,2018-04-23,1,,,,,ザデイ,0
2027,9011101012445,登記記録の閉鎖等,0,2023-02-13,2023-02-03,株式会社丹後屋染物店,,株式会社,東京都,渋谷区,恵比寿１丁目７番１３号只見ビル３Ｆ,,13,113,1500013,,,2023-02-03,清算の結了等,,,2015-10-05,1,,,,,タンゴヤソメモノテン,0
2032,9011102011479,登記記録の閉鎖等,0,2023-02-13,2023-02-03,有限会社藤村管理事務所,,有限会社,東京都,渋谷区,恵比寿１丁目７番１３号只見ビル３Ｆ,,13,113,1500013,,,2023-02-03,清算の結了等,,,2015-10-05,1,,,,,フジムラカンリジムショ,0
2047,9011803004566,登記記録の閉鎖等,0,2023-02-13,2023-02-07,合同会社ＴＯＭＯ,,合同会社,東京都,葛飾区,堀切７丁目２４番６号,,13,122,1240006,,,2023-02-07,清算の結了等,,,2021-04-06,1,,,,,トモ,0
2049,9012402011730,登記記録の閉鎖等,0,2023-02-13,2023-02-07,有限会社田中塗装所,,有限会社,東京都,調布市,東つつじケ丘１丁目８番地６,,13,208,1820005,,,2023-02-07,清算の結了等,,,2015-10-05,1,,,,,タナカトソウジョ,0
2057,9020002105233,登記記録の閉鎖等,0,2023-02-13,2023-02-09,有限会社フライングパブリッシャーズ,,有限会社,神奈川県,川崎市麻生区,岡上６丁目２番２５号,,14,137,2150027,,,2023-02-09,清算の結了等,,,2015-10-05,1,,,,,フライングパブリッシャーズ,0
2062,9021001039389,登記記録の閉鎖等,0,2023-02-13,2023-02-08,トータル環境システム株式会社,,株式会社,神奈川県,平塚市,桃浜町１４番１８号羽衣荘３号,,14,203,2540815,,,2023-02-08,清算の結了等,,,2015-10-05,1,,,,,,0
2066,9021002032847,登記記録の閉鎖等,0,2023-02-13,2023-02-07,株式会社Ｂ・Ｓ・Ｐ,,株式会社,神奈川県,厚木市,長谷２７番地,,14,212,2430036,,,2023-02-07,清算の結了等,,,2015-10-05,1,,,,,,0
2092,9050001019365,登記記録の閉鎖等,0,2023-02-13,2023-02-07,株式会社影通,,株式会社,茨城県,猿島郡五霞町,大字山王山７１８番地１,,08,542,3060301,,,2023-02-07,清算の結了等,,,2015-10-05,1,,,,,カゲツウ,0
2094,9050001032351,登記記録の閉鎖等,0,2023-02-13,2023-02-09,協立熱処理工業株式会社,,株式会社,茨城県,筑西市,三郷１２３９番地,,08,227,3091105,,,2023-02-09,合併による解散等,5010701002710,令和５年２月１日東京都品川区東中延一丁目２番１９号株式会社協立製作所（5010701002710）に合併し解散,2015-10-05,1,,,,,キョウリツネツショリコウギョウ,0
2096,9050002034751,登記記録の閉鎖等,0,2023-02-13,2023-02-07,有限会社みな介護サービス,,有限会社,茨城県,北相馬郡利根町,大字布川６１８番地１２５,,08,564,3001622,,,2023-02-07,清算の結了等,,,2015-10-05,1,,,,,ミナカイゴサービス,0
2099,9060001034784,登記記録の閉鎖等,0,2023-02-13,2023-02-07,株式会社ライブハピリー,,株式会社,栃木県,鹿沼市,上奈良部町２番地８０,,09,205,3220522,,,2023-02-07,清算の結了等,,,2022-04-19,1,,,,,ライブハピリー,0
2110,9100001034945,登記記録の閉鎖等,0,2023-02-13,2023-02-03,株式会社ｅｃｌａｔ　ｄｅ　ｌ’ａｕｂｅ,,株式会社,長野県,長野市,大字東和田８４２番地ＣＯＲＥＯＦＦＩＣＥ３０１,,20,201,3810038,,,2023-02-03,清算の結了等,,,2022-01-06,1,,,,,エクラドローブ,0
2125,9120001224882,登記記録の閉鎖等,0,2023-02-13,2023-02-09,株式会社エスバリュー,,株式会社,福岡県,福岡市中央区,大名２丁目１０番２９号,,40,133,8100041,,,2023-02-09,清算の結了等,,,2019-11-07,1,,,,,エスバリュー,0
2130,9120002032814,登記記録の閉鎖等,0,2023-02-13,2023-02-10,有限会社萬,,有限会社,大阪府,大阪市都島区,中野町５丁目１３番３－３６０６号,,27,102,5340027,,,2023-02-10,合併による解散等,1120002003731,令和５年２月１０日大阪市都島区中野町五丁目１３番３－３６０６号萬野トレーディング株式会社（1120002003731）に合併し解散,2015-10-05,1,,,,,マン,0
2138,9130001001579,登記記録の閉鎖等,0,2023-02-13,2023-02-10,株式会社日建工業,,株式会社,京都府,京都市山科区,大宅甲ノ辻町７６番地,00107329,26,110,6078184,,,2023-02-10,清算の結了等,,,2015-10-05,1,,,,,ニッケンコウギョウ,0
2146,9140002057041,登記記録の閉鎖等,0,2023-02-13,2023-02-08,有限会社タカダ,,有限会社,兵庫県,西宮市,久出ケ谷町１５番１６号,,28,204,6620077,,,2023-02-08,清算の結了等,,,2015-10-05,1,,,,,タカダ,0
2153,9180001045183,登記記録の閉鎖等,0,2023-02-13,2023-02-01,株式会社エースベーキング,,株式会社,愛知県,清須市,春日社子地６２番地,,23,233,4520962,,,2023-02-01,合併による解散等,1180001045182,令和５年２月１日愛知県清須市春日社子地６２番地株式会社エースベーキング（1180001045182）に合併し解散,2015-10-05,1,,,,,エースベーキング,0
2184,9240001029816,登記記録の閉鎖等,0,2023-02-13,2023-02-09,イケ商事株式会社,,株式会社,広島県,福山市,駅家町大字万能倉１０３６番地１,,34,207,7201131,,,2023-02-09,清算の結了等,,,2015-10-05,1,,,,,イケショウジ,0
2189,9240002037462,登記記録の閉鎖等,0,2023-02-13,2023-02-10,小川鉄工有限会社,,有限会社,広島県,廿日市市,木材港南９番３４号,,34,213,7380022,,,2023-02-10,清算の結了等,,,2015-10-05,1,,,,,オガワテッコウ,0
2202,9290801015614,登記記録の閉鎖等,0,2023-02-13,2023-02-08,株式会社マルタ,,株式会社,福岡県,京都郡苅田町,大字南原１０１３番地２,,40,621,8000355,,,2023-02-08,清算の結了等,,,2015-10-05,1,,,,,マルタ,0
2206,9310005008230,登記記録の閉鎖等,0,2023-02-13,2023-02-09,ポレスター時津管理組合法人,,その他の設立登記法人,長崎県,西彼杵郡時津町,浦郷３０３番地３,,42,308,8512105,,,2023-02-09,清算の結了等,,,2018-06-19,1,,,,,ポレスタートギツ,0
2208,9320005002380,登記記録の閉鎖等,0,2023-02-13,2023-02-09,特定非営利活動法人響,,その他の設立登記法人,大分県,大分市,豊町１丁目３番３０号,,44,201,8700042,,,2023-02-09,清算の結了等,,,2015-10-05,1,,,,,ヒビキ,0
2226,9430005014118,登記記録の閉鎖等,0,2023-02-13,2023-02-08,税理士法人ＤＥＴＡＩＬ,,その他の設立登記法人,北海道,札幌市中央区,北一条西１０丁目１番地３,,01,101,0600001,,,2023-02-08,清算の結了等,,,2021-03-04,1,,,,,ディテール,0
2228,9440002005770,登記記録の閉鎖等,0,2023-02-13,2023-02-06,有限会社ホームペイント,,有限会社,北海道,函館市,東山３丁目１６番１１号,,01,202,0410835,,,2023-02-06,清算の結了等,,,2015-10-05,1,,,,,ホームペイント,0
