sequenceNumber,corporateNumber,process,correct,updateDate,changeDate,name,nameImageId,kind,prefectureName,cityName,streetNumber,addressImageId,prefectureCode,cityCode,postCode,addressOutside,addressOutsideImageId,closeDate,closeCause,successorCorporateNumber,changeCause,assignmentDate,latest,enName,enPrefectureName,enCityName,enAddressOutside,furigana,hihyoji
8,1010001245039,新規,0,2024-05-24,2024-05-24,品川商事株式会社,,株式会社,東京都,千代田区,平河町１丁目６番１５号ＵＳビル８階,,13,101,1020093,,,,,,,2024-05-24,1,,,,,シナガワショウジ,0
9,1010001245071,新規,0,2024-05-24,2024-05-24,仟代株式会社,,株式会社,東京都,中央区,銀座１丁目１２番４号Ｎ＆Ｅ．ＢＬＤ．７階,,13,102,1040061,,,,,,,2024-05-24,1,,,,,センヨ,0
10,1010001245195,新規,0,2024-05-24,2024-05-24,ネイビー１株式会社,,株式会社,東京都,千代田区,丸の内１丁目８番３号丸の内トラストタワー本館２６階,,13,101,1000005,,,,,,,2024-05-24,1,,,,,ネイビーワン,0
19,1010005038331,新規,0,2024-05-24,2024-05-24,ソーラーサフランホールディングス一般社団法人,,その他の設立登記法人,東京都,中央区,京橋２丁目１２番６号ＡＯＪ税理士法人内,,13,102,1040031,,,,,,,2024-05-24,1,,,,,ソーラーサフランホールディングス,0
20,1010103002354,新規,0,2024-05-24,2024-05-24,合同会社ＳＯＲＡ＆ＡＣＯ,,合同会社,東京都,八王子市,明神町３丁目８－７サットンアリビオ八王子４０４,,13,201,1920046,,,,,,,2024-05-24,1,,,,,ソラアンドアコー,0
26,1010401182567,新規,0,2024-05-24,2024-05-24,Ｒｉｅｎ，Ｉｎｃ．株式会社,,株式会社,東京都,港区,北青山１丁目３番１号アールキューブ青山３階,,13,103,1070061,,,,,,,2024-05-24,1,,,,,リエン,0
27,1010401182658,新規,0,2024-05-24,2024-05-24,株式会社アステリズム,,株式会社,東京都,港区,赤坂９丁目７番１－８２４号,,13,103,1070052,,,,,,,2024-05-24,1,,,,,アステリズム,0
28,1010401182682,新規,0,2024-05-24,2024-05-24,プログレス株式会社,,株式会社,東京都,港区,愛宕１丁目６番８号,,13,103,1050002,,,,,,,2024-05-24,1,,,,,プログレス,0
29,1010401182724,新規,0,2024-05-24,2024-05-24,株式会社ｂｅｆｌｅｘ,,株式会社,東京都,港区,北青山１丁目３番１号アールキューブ青山３階,,13,103,1070061,,,,,,,2024-05-24,1,,,,,ビーフレックス,0
31,1010403032662,新規,0,2024-05-24,2024-05-24,合同会社Ｗｉｓｅｌｙ,,合同会社,東京都,港区,芝公園１丁目８番２１号芝公園リッジビル６Ｆ,,13,103,1050011,,,,,,,2024-05-24,1,,,,,ワイズリー,0
32,1010403032679,新規,0,2024-05-24,2024-05-24,合同会社ＲｅＢＯＲＮ,,合同会社,東京都,港区,北青山１丁目３番１号アールキューブ青山３階,,13,103,1070061,,,,,,,2024-05-24,1,,,,,リボーン,0
40,1010803004963,新規,0,2024-05-24,2024-05-24,Ｂｌａｃｋｄｒｉｌｌ　Ｒｅｓｅａｒｃｈ合同会社,,合同会社,東京都,大田区,石川町１丁目３－１８,,13,111,1450061,,,,,,,2024-05-24,1,,,,,ブラックドリルリサーチ,0
45,1010901055339,新規,0,2024-05-24,2024-05-24,株式会社ワイ・エム・ファシリティーズ,,株式会社,東京都,世田谷区,奥沢１丁目５２番１０号,,13,112,1580083,,,,,,,2024-05-24,1,,,,,ワイエムファシリティーズ,0
47,1010903009078,新規,0,2024-05-24,2024-05-24,合同会社ＢＵＬＬ,,合同会社,東京都,世田谷区,上馬１丁目１５番１８－１１０１号,,13,112,1540011,,,,,,,2024-05-24,1,,,,,ブル,0
48,1010903009086,新規,0,2024-05-24,2024-05-24,合同会社カハロ,,合同会社,東京都,世田谷区,桜新町２丁目２５－１２－２０３,,13,112,1540015,,,,,,,2024-05-24,1,,,,,カハロ,0
54,1011001162208,新規,0,2024-05-24,2024-05-24,山田商事株式会社,,株式会社,東京都,渋谷区,恵比寿西２丁目８番４号ＥＸ恵比寿西ビル５階,,13,113,1500021,,,,,,,2024-05-24,1,,,,,ヤマダショウジ,0
55,1011001162273,新規,0,2024-05-24,2024-05-24,株式会社ＲＩＭＡＴＥ,,株式会社,東京都,渋谷区,道玄坂１丁目７－１０新大宗渋谷道玄坂一丁目ビル５０２,,13,113,1500043,,,,,,,2024-05-24,1,,,,,リメイト,0
62,1011103014463,新規,0,2024-05-24,2024-05-24,合同会社おつまる,,合同会社,東京都,新宿区,新宿７丁目２７番１２号,,13,104,1600022,,,,,,,2024-05-24,1,,,,,オツマル,0
66,1011403004370,新規,0,2024-05-24,2024-05-24,合同会社Ａｌｏ　Ｆｏｏｄ,,合同会社,東京都,板橋区,大山町１０番７号,,13,119,1730023,,,,,,,2024-05-24,1,,,,,アロフーズ,0
79,1013105001844,新規,0,2024-05-24,2024-05-24,特定非営利活動法人和楽倶楽部,,その他の設立登記法人,東京都,青梅市,今井１丁目１６０番地の８,,13,205,1980023,,,,,,,2024-05-24,1,,,,,,0
85,1020001157381,新規,0,2024-05-24,2024-05-24,株式会社Ｄｒａｕｇｈｔ,,株式会社,神奈川県,横浜市南区,永田北１丁目８番２８号ヴィラＫ・Ｍ１０１,,14,105,2320071,,,,,,,2024-05-24,1,,,,,ドラフト,0
88,1020003026196,新規,0,2024-05-24,2024-05-24,ゴーストボット合同会社,,合同会社,神奈川県,横浜市西区,浅間町１丁目１４番地２ダイアパレスグランデージ横濱４０１号,,14,103,2200072,,,,,,,2024-05-24,1,,,,,ゴーストボット,0
89,1021001082256,新規,0,2024-05-24,2024-05-24,株式会社ＮＩＳＨＩＹＡＮ,,株式会社,神奈川県,海老名市,上今泉１丁目９番２４－１号,,14,215,2430431,,,,,,,2024-05-24,1,,,,,ニシヤン,0
92,1021003014562,新規,0,2024-05-24,2024-05-24,０４６ＭＯＴＯＲＳ合同会社,,合同会社,神奈川県,横須賀市,汐入町３丁目４０番地,,14,201,2380042,,,,,,,2024-05-24,1,,,,,ゼロフォーシックスモータース,0
97,1030001160541,新規,0,2024-05-24,2024-05-24,株式会社Ｆｌｅｕｒ　ｄｕ　ｂｏｎｈｅｕｒ,,株式会社,埼玉県,坂戸市,南町２番１３号森田ビル,,11,239,3500233,,,,,,,2024-05-24,1,,,,,フルールドボヌール,0
107,1040001133579,新規,0,2024-05-24,2024-05-24,日本恒晟天悦金属株式会社,,株式会社,千葉県,千葉市花見川区,横戸町９９８番地,,12,102,2620001,,,,,,,2024-05-24,1,,,,,ニホンコウセイテンエツキンゾク,0
112,1040003025007,新規,0,2024-05-24,2024-05-24,ＪＵＬＯＮＥ　ＪＡＰＡＮ合同会社,,合同会社,千葉県,いすみ市,岬町和泉３５１５番地,,12,238,2994503,,,,,,,2024-05-24,1,,,,,ジュローンジャパン,0
113,1040003025048,新規,0,2024-05-24,2024-05-24,ユニーク合同会社,,合同会社,千葉県,市川市,高谷１丁目１１－２６フラッツ宇田川２０２,,12,203,2720013,,,,,,,2024-05-24,1,,,,,ユニーク,0
114,1040003025064,新規,0,2024-05-24,2024-05-24,合同会社Ａｌｉｖｅ,,合同会社,千葉県,千葉市緑区,おゆみ野南３丁目３０番地サンクレイドルおゆみ野ステーションウィズ３１０号,,12,105,2660033,,,,,,,2024-05-24,1,,,,,アライブ,0
115,1050001054816,新規,0,2024-05-24,2024-05-24,株式会社ＫＩＺＵＮＡ,,株式会社,茨城県,坂東市,菅谷１４６６番地４,,08,228,3060505,,,,,,,2024-05-24,1,,,,,キズナ,0
118,1050003008398,新規,0,2024-05-24,2024-05-24,合同会社ミライエ,,合同会社,茨城県,水戸市,西原２丁目１２番１２号,,08,201,3100044,,,,,,,2024-05-24,1,,,,,ミライエ,0
120,1060001037134,新規,0,2024-05-24,2024-05-24,株式会社はなまる,,株式会社,栃木県,栃木市,国府町１１８４番地,,09,203,3280006,,,,,,,2024-05-24,1,,,,,ハナマル,0
127,1100001037484,新規,0,2024-05-24,2024-05-24,株式会社グー,,株式会社,長野県,駒ヶ根市,上穂北７番１７号,,20,210,3994116,,,,,,,2024-05-24,1,,,,,グー,0
129,1110001038440,新規,0,2024-05-24,2024-05-24,株式会社ゴールドバレイ,,株式会社,新潟県,新潟市中央区,南笹口１丁目１番３８号コープオリンピア８０８,,15,103,9500912,,,,,,,2024-05-24,1,,,,,ゴールドバレイ,0
136,1120001265050,新規,0,2024-05-24,2024-05-24,武匠建築株式会社,,株式会社,大阪府,大阪市東住吉区,西今川４丁目６番１３号,,27,121,5460042,,,,,,,2024-05-24,1,,,,,タケショウケンチク,0
137,1120001265249,新規,0,2024-05-24,2024-05-24,株式会社Ｎｅｏ,,株式会社,大阪府,大阪市北区,豊崎３丁目１６番１６－１８１０号,,27,127,5310072,,,,,,,2024-05-24,1,,,,,ネオ,0
138,1120101069640,新規,0,2024-05-24,2024-05-24,株式会社サンセット,,株式会社,大阪府,堺市西区,上野芝向ヶ丘町２丁１５番７８号,,27,144,5938303,,,,,,,2024-05-24,1,,,,,サンセット,0
141,1130001076991,新規,0,2024-05-24,2024-05-24,株式会社ＳＴＵＤＩＯ　ＦＯＣＵＳ,,株式会社,京都府,京都市下京区,烏丸通七条下る東塩小路町７３５番地１京阪京都ビル８階,,26,106,6008216,,,,,,,2024-05-24,1,,,,,スタジオフォーカス,0
142,1130001077123,新規,0,2024-05-24,2024-05-24,株式会社ＪＫＳ,,株式会社,京都府,京都市右京区,梅ケ畑高鼻町７番地１,,26,108,6168261,,,,,,,2024-05-24,1,,,,,ジェイケーエス,0
143,1130003009594,新規,0,2024-05-24,2024-05-24,合同会社Ｃｏｍｅｔ,,合同会社,京都府,京都市下京区,室町通り五条上がる坂東屋町２６２－１サンクトスコート五条室町１０５,,26,106,6000000,,,,,,,2024-05-24,1,,,,,コメット,0
148,1140001134526,新規,0,2024-05-24,2024-05-24,株式会社白石林業,00134892,株式会社,兵庫県,多可郡多可町,加美区多田４５４番地２７,,28,365,6791203,,,,,,,2024-05-24,1,,,,,シライシリンギョウ,0
149,1140001134550,新規,0,2024-05-24,2024-05-24,ＡＷＡＫＥＮＩＮＧ株式会社,,株式会社,兵庫県,神戸市東灘区,住吉山手５丁目２番２２号,,28,101,6580063,,,,,,,2024-05-24,1,,,,,アウェイクニング,0
154,1150001027299,新規,0,2024-05-24,2024-05-24,山本測量設計株式会社,,株式会社,奈良県,桜井市,大字出雲１２１３番地の１,,29,206,6330122,,,,,,,2024-05-24,1,,,,,ヤマモトソクリョウセッケイ,0
155,1150003003265,新規,0,2024-05-24,2024-05-24,合同会社スピカ不動産,,合同会社,奈良県,奈良市,中登美ヶ丘４丁目１番地ローレルスクエア登美ヶ丘第Ｉ期７－６０１号,00134903,29,201,6310003,,,,,,,2024-05-24,1,,,,,スピカフドウサン,0
156,1170001018156,新規,0,2024-05-24,2024-05-24,株式会社順,,株式会社,和歌山県,海南市,阪井９４８番地３,,30,202,6420024,,,,,,,2024-05-24,1,,,,,ジュン,0
164,1180001161541,新規,0,2024-05-24,2024-05-24,研究舎ヨハク株式会社,,株式会社,愛知県,一宮市,北小渕字中田１３番地１,,23,203,4910013,,,,,,,2024-05-24,1,,,,,ケンキュウシャヨハク,0
165,1180001161657,新規,0,2024-05-24,2024-05-24,ＧＯＬＤＥＮ　ＤＲＥＡＭ株式会社,,株式会社,愛知県,名古屋市千種区,吹上２丁目４番２５号,,23,101,4640856,,,,,,,2024-05-24,1,,,,,ゴールデンドリーム,0
166,1180001161665,新規,0,2024-05-24,2024-05-24,株式会社平星,,株式会社,愛知県,名古屋市西区,名駅２丁目３４番１７号,,23,104,4510045,,,,,,,2024-05-24,1,,,,,ヒラホシ,0
167,1180001161673,新規,0,2024-05-24,2024-05-24,煌建Ｒｅｎｏｖａｔｉｏｎ株式会社,,株式会社,愛知県,名古屋市千種区,京命１丁目２０番２号,,23,101,4640004,,,,,,,2024-05-24,1,,,,,コウケンリノベーション,0
168,1180001161681,新規,0,2024-05-24,2024-05-24,株式会社ＮＤ,,株式会社,愛知県,名古屋市中区,葵１丁目２７番３３号プレサンス葵デュリス６０２号,,23,106,4600006,,,,,,,2024-05-24,1,,,,,エヌディー,0
171,1180005020644,新規,0,2024-05-24,2024-05-24,一般社団法人健康福祉会,,その他の設立登記法人,愛知県,名古屋市北区,東味鋺１丁目７２２番地,,23,103,4620013,,,,,,,2024-05-24,1,,,,,ケンコウフクシカイ,0
174,1200001042540,新規,0,2024-05-24,2024-05-24,株式会社ＴＰＭ,,株式会社,岐阜県,大垣市,平町６３６番地１,,21,202,5030841,,,,,,,2024-05-24,1,,,,,ティーピーエム,0
196,1290001105826,新規,0,2024-05-24,2024-05-24,ユースフルクリーン株式会社,,株式会社,福岡県,飯塚市,柏の森５１４番地４,,40,205,8200011,,,,,,,2024-05-24,1,,,,,ユースフルクリーン,0
197,1290001105834,新規,0,2024-05-24,2024-05-24,株式会社トゥーンテイナー,,株式会社,福岡県,春日市,下白水南３丁目２７番地３,,40,218,8160846,,,,,,,2024-05-24,1,,,,,トゥーンテイナー,0
198,1290001105842,新規,0,2024-05-24,2024-05-24,株式会社テオネルワークス,,株式会社,福岡県,大牟田市,桜町１５９番地,,40,202,8360092,,,,,,,2024-05-24,1,,,,,テオネルワークス,0
199,1290001105891,新規,0,2024-05-24,2024-05-24,平和園株式会社,,株式会社,福岡県,福岡市博多区,住吉３丁目１６番２－４０５号,,40,132,8120018,,,,,,,2024-05-24,1,,,,,ヘイワエン,0
204,1290003015321,新規,0,2024-05-24,2024-05-24,合同会社エクスライズ,,合同会社,福岡県,福岡市南区,皿山３丁目１１番７９号,,40,134,8111365,,,,,,,2024-05-24,1,,,,,エクスライズ,0
205,1290003015354,新規,0,2024-05-24,2024-05-24,スリーシップス合同会社,,合同会社,福岡県,福岡市西区,今宿町５３９番地３８,,40,135,8190164,,,,,,,2024-05-24,1,,,,,スリーシップス,0
207,1290801030595,新規,0,2024-05-24,2024-05-24,スマイルファクトリー株式会社,,株式会社,福岡県,鞍手郡小竹町,大字勝野２８６７,,40,401,8201103,,,,,,,2024-05-24,1,,,,,スマイルファクトリー,0
209,1320001020484,新規,0,2024-05-24,2024-05-24,株式会社ＡＫＡＲＡ,,株式会社,大分県,大分市,都町２丁目６番４号第２ピカソ会館２０６,,44,201,8700034,,,,,,,2024-05-24,1,,,,,,0
210,1330003010383,新規,0,2024-05-24,2024-05-24,合同会社ｆｕｒｕｒｉ,,合同会社,熊本県,熊本市東区,月出２丁目６番１８号第二黄金荘２．３,,43,102,8620920,,,,,,,2024-05-24,1,,,,,フルリ,0
219,1370001051335,新規,0,2024-05-24,2024-05-24,株式会社ディシーエステート,,株式会社,宮城県,仙台市青葉区,一番町３丁目３番１６号,,04,101,9800811,,,,,,,2024-05-24,1,,,,,ディシーエステート,0
220,1370003006626,新規,0,2024-05-24,2024-05-24,合同会社ＮＯＳ,,合同会社,宮城県,仙台市青葉区,二日町２番２２－８０８号,,04,101,9800802,,,,,,,2024-05-24,1,,,,,エヌオーエス,0
234,1420005007906,新規,0,2024-05-24,2024-05-24,一般社団法人東通村建設業協会,,その他の設立登記法人,青森県,下北郡東通村,大字蒲野沢字十二沢７番地１,,02,424,0350004,,,,,,,2024-05-24,1,,,,,ヒガシドオリムラケンセツギョウキョウカイ,0
240,1430001091878,新規,0,2024-05-24,2024-05-24,田囲成株式会社,,株式会社,北海道,札幌市白石区,東札幌五条３丁目２番２０－１０１号,,01,104,0030005,,,,,,,2024-05-24,1,,,,,タイセイ,0
246,1430003016370,新規,0,2024-05-24,2024-05-24,蓄電コンクリート合同会社,,合同会社,北海道,札幌市東区,苗穂町１２丁目１番１号,,01,103,0650043,,,,,,,2024-05-24,1,,,,,チクデンコンクリート,0
247,1430005014991,新規,0,2024-05-24,2024-05-24,行政書士法人ドラゴンオフィス,,その他の設立登記法人,北海道,札幌市中央区,大通西１１丁目４番地登記センタービル３階,,01,101,0600042,,,,,,,2024-05-24,1,,,,,ドラゴンオフィス,0
250,1470001020222,新規,0,2024-05-24,2024-05-24,株式会社ｆｅｍｉｎｉｎｅ,,株式会社,香川県,高松市,観光通１丁目２－９ダイアパレス南瓦町１０１,,37,201,7600055,,,,,,,2024-05-24,1,,,,,フェミニン,0
252,1500003003246,新規,0,2024-05-24,2024-05-24,合同会社Ｍｏｔｌｅｙ　Ｊａｐａｎ,,合同会社,愛媛県,松山市,南江戸４丁目５－６サザン南江戸１００,,38,201,7900062,,,,,,,2024-05-24,1,,,,,モトリージャパン,0
253,1500003003254,新規,0,2024-05-24,2024-05-24,合同会社トータルビジネス,,合同会社,愛媛県,宇和島市,本町追手２丁目７番２号金子マンション４０２号室,,38,203,7980041,,,,,,,2024-05-24,1,,,,,トータルビジネス,0
254,1700150121524,新規,0,2024-05-24,2024-05-24,Ｊｉｎｊｉａｎｇｓｈｉ　Ｌｉｎｇｊｕｅｄｉｎｇ　Ｅ－ｃｏｍｍｅｒｃｅ　Ｃｏ．，Ｌｔｄ,,外国会社等,,,,,,,,ＦｕＪｉａｎＳｈｅｎｇ，ＱｕａｎＺｈｏｕＳｈｉ，ＪｉｎＪｉａｎｇＳｈｉ，ＣｈｅｎＤａｉＺｈｅｎ，ＨｕＺｈｏｎｇＣｕｎＨｕＸｉｎｇＬｕ１Ｈａｏ６Ｌｏｕ６０３Ｓｈｉ,,,,,,2024-05-24,1,,,,,シンコウシリヨウゼツチヨウデンシシヨウムユウゲンコウシ,0
255,1700150122381,新規,0,2024-05-24,2024-05-24,ＦＲＥＥＭＡＸ　ＴＥＣＨＮＯＬＯＧＹ　ＣＯＭＰＡＮＹ　ＬＩＭＩＴＥＤ,,外国会社等,,,,,,,,ＦＬＡＴ／ＲＭ　１２０３，１２／Ｆ，ＷＡＨ　ＳＨＩＮＧ　ＣＥＮＴＲＥ，１１－１３　ＳＨＩＮＧ　ＹＩＰ　ＳＴＲＥＥＴ，ＫＷＵＮ　ＴＯＮＧ，ＫＯＷＬＯＯＮ　ＨＯＮＧ　ＫＯＮＧ,,,,,,2024-05-24,1,,,,,フェイマシコァジヨウシエンゴンス,0
256,1700150122398,新規,0,2024-05-24,2024-05-24,ｓｈｅｎｚｈｅｎｓｈｉ　ｌｉｗｅｉ　ｄｉａｎｚｉｓｈａｎｇｗｕｙｏｕｘｉａｎｇｏｎｇｓｉ,,外国会社等,,,,,,,,２１８，４２４ｄｏｎｇ，ｂａｇｕａｌｉｎｇｇｏｎｇｙｅｑｕ　ｂａｇｕａｓａｎｌｕ１５０ｈａｏ，ｈｕａｌｉｎｓｈｅｑｕ，ｙｕａｎｌｉｎｇｊｉｅｄａｏ，ｆｕｔｉａｎｑｕ　ｓｈｅｎｚｈｅｎｓｈｉ　ｇｕａｎｇｄｏｎｇｓｈｅｎｇ,,,,,,2024-05-24,1,,,,,シェンジェンシリウエイディエンズシャンウヨウシエンゴンス,0
259,2010001245137,新規,0,2024-05-24,2024-05-24,株式会社Ｉｎｆａｎｔｒｙ　Ｍｅｄｉａ,,株式会社,東京都,中央区,銀座１丁目１２番４号Ｎ＆ＥＢＬＤ．６Ｆ,,13,102,1040061,,,,,,,2024-05-24,1,,,,,インファントリーメディア,0
260,2010001245186,新規,0,2024-05-24,2024-05-24,伸億実業日本株式会社,,株式会社,東京都,千代田区,内幸町２丁目２番２号富国生命ビルＡ＆Ｓフィナンシャルアドバイザリー株式会社内,,13,101,1000011,,,,,,,2024-05-24,1,,,,,シンオクジツギョウニホン,0
272,2010003043828,新規,0,2024-05-24,2024-05-24,合同会社Ｋａｍｅ＆Ｃｏｍｐａｎｙ,,合同会社,東京都,中央区,銀座１丁目１２番４号Ｎ＆Ｅ・ＢＬＤ．６Ｆ,,13,102,1040061,,,,,,,2024-05-24,1,,,,,カメアンドカンパニー,0
277,2010401182517,新規,0,2024-05-24,2024-05-24,ＷＯＬＦ　ｈｏｌｄｉｎｇｓ株式会社,,株式会社,東京都,港区,西麻布４丁目１４番２４号ｃｏｎｏｅ西麻布３０２,,13,103,1060031,,,,,,,2024-05-24,1,,,,,ウルフホールディングス,0
278,2010401182624,新規,0,2024-05-24,2024-05-24,株式会社Ｂｅｓｔ　Ｃｈｏｉｃｅ,,株式会社,東京都,港区,芝２丁目２７番１１－６０４号,,13,103,1050014,,,,,,,2024-05-24,1,,,,,ベストチョイス,0
279,2010401182649,新規,0,2024-05-24,2024-05-24,株式会社ＫＩＮＳＭＥＮ　ＪＡＰＡＮ,,株式会社,東京都,港区,北青山３丁目５番１７号Ｒ＆Ｍ２Ｆ,,13,103,1070061,,,,,,,2024-05-24,1,,,,,キンズメンジャパン,0
280,2010401182673,新規,0,2024-05-24,2024-05-24,株式会社ＨＯＳＯＮＩＣ　ＪＡＰＡＮ,,株式会社,東京都,港区,赤坂２丁目８番１４－４０７号,,13,103,1070052,,,,,,,2024-05-24,1,,,,,ホソニックジャパン,0
281,2010401182698,新規,0,2024-05-24,2024-05-24,アドバード株式会社,,株式会社,東京都,港区,北青山２丁目７番１３号プラセオ青山ビル３階,,13,103,1070061,,,,,,,2024-05-24,1,,,,,アドバード,0
282,2010401182723,新規,0,2024-05-24,2024-05-24,ＳＢＩ‐Ｍａｎアセットマネジメント株式会社,,株式会社,東京都,港区,六本木１丁目６番１号,,13,103,1060032,,,,,,,2024-05-24,1,,,,,エスビーアイマンアセットマネジメント,0
284,2010403032703,新規,0,2024-05-24,2024-05-24,合同会社みんなのピアノ,,合同会社,東京都,港区,南麻布４丁目１１番１７－１１３号,,13,103,1060047,,,,,,,2024-05-24,1,,,,,ミンナノピアノ,0
286,2010405023287,新規,0,2024-05-24,2024-05-24,一般社団法人ＳＵＣ目黒アセット１,,その他の設立登記法人,東京都,港区,元赤坂１丁目１番８号赤坂コミュニティビル４階,,13,103,1070051,,,,,,,2024-05-24,1,,,,,エスユーシーメグロアセットワン,0
287,2010501052322,新規,0,2024-05-24,2024-05-24,ＡＫＳＨＡＲ株式会社,,株式会社,東京都,台東区,橋場２丁目２番１５号,,13,106,1110023,,,,,,,2024-05-24,1,,,,,アクシャル,0
289,2010601065257,新規,0,2024-05-24,2024-05-24,ＪＥＣ株式会社,,株式会社,東京都,江東区,北砂１丁目１９番１６－９０７号,,13,108,1360073,,,,,,,2024-05-24,1,,,,,ジェイイーシー,0
293,2010701046017,新規,0,2024-05-24,2024-05-24,株式会社ＥＮ‐Ｌａｂ．,,株式会社,東京都,品川区,西大井１丁目７－２－４０２,,13,109,1400015,,,,,,,2024-05-24,1,,,,,イーエヌラボ,0
294,2010701046041,新規,0,2024-05-24,2024-05-24,株式会社クラム,,株式会社,東京都,品川区,荏原７丁目１６番２号,,13,109,1420063,,,,,,,2024-05-24,1,,,,,クラム,0
297,2010903009077,新規,0,2024-05-24,2024-05-24,合同会社アリッサム柳町,,合同会社,東京都,世田谷区,駒沢４丁目２３番１８号加瀬ビル１６６Ｎｏ．１０１０,,13,112,1540012,,,,,,,2024-05-24,1,,,,,アリッサムヤナギマチ,0
301,2011001162132,新規,0,2024-05-24,2024-05-24,株式会社Ａ‐ｓｉｇｎ　Ｂｏｘｉｎｇ＆Ｆｉｔｎｅｓｓ,,株式会社,東京都,目黒区,目黒本町３丁目１２番１７号,,13,110,1520002,,,,,,,2024-05-24,1,,,,,エーサインボクシングアンドフィットネス,0
302,2011003019256,新規,0,2024-05-24,2024-05-24,ブライトンＭＭ合同会社,,合同会社,東京都,渋谷区,円山町５番５号Ｎａｖｉ渋谷Ｖ３階,00134904,13,113,1500044,,,,,,,2024-05-24,1,,,,,ブライトンエムエム,0
303,2011005010543,新規,0,2024-05-24,2024-05-24,一般社団法人ペッツファーストプロジェクト,,その他の設立登記法人,東京都,目黒区,目黒１丁目２４番１２号,,13,110,1530063,,,,,,,2024-05-24,1,,,,,ペッツファーストプロジェクト,0
305,2011101107409,新規,0,2024-05-24,2024-05-24,株式会社野間研究所,,株式会社,東京都,新宿区,若宮町２６番地２９,,13,104,1620827,,,,,,,2024-05-24,1,,,,,ノマケンキュウジョ,0
307,2011103014454,新規,0,2024-05-24,2024-05-24,Ｅｃｈｅｌｌｅ‐１合同会社,,合同会社,東京都,新宿区,下宮比町２－１９,,13,104,1620822,,,,,,,2024-05-24,1,,,,,エシェルアン,0
313,2011403004378,新規,0,2024-05-24,2024-05-24,戸口合同会社,,合同会社,東京都,板橋区,成増１丁目１４番９－４０１号,,13,119,1750094,,,,,,,2024-05-24,1,,,,,トグチ,0
314,2011501030714,新規,0,2024-05-24,2024-05-24,株式会社エクラタン,,株式会社,東京都,北区,西ケ原１丁目３８番８号,,13,117,1140024,,,,,,,2024-05-24,1,,,,,エクラタン,0
315,2011501030722,新規,0,2024-05-24,2024-05-24,和邦株式会社,,株式会社,東京都,北区,東田端２丁目９番１７号三協マンション２０６号室,,13,117,1140013,,,,,,,2024-05-24,1,,,,,ワホウ,0
316,2011503006076,新規,0,2024-05-24,2024-05-24,合同会社ミヤザキ,,合同会社,東京都,荒川区,南千住８丁目８番１－１０１６号,,13,118,1160003,,,,,,,2024-05-24,1,,,,,ミヤザキ,0
318,2011701027320,新規,0,2024-05-24,2024-05-24,Ｖｅｃｏｗ　Ｊａｐａｎ株式会社,,株式会社,東京都,江戸川区,松島３丁目１４番７－２１０号若林ビル,,13,123,1320031,,,,,,,2024-05-24,1,,,,,ベコージャパン,0
321,2011801044281,新規,0,2024-05-24,2024-05-24,株式会社Ａｏｚｏｒａ,,株式会社,東京都,足立区,竹の塚５丁目３６番１８－２０１号,,13,121,1210813,,,,,,,2024-05-24,1,,,,,アオゾラ,0
325,2012401041909,新規,0,2024-05-24,2024-05-24,株式会社ＴＵＮＩＮＧ３６９,,株式会社,東京都,多摩市,関戸４丁目９番地の４,,13,224,2060011,,,,,,,2024-05-24,1,,,,,トゥニングサンロクキュウ,0
331,2020001157389,新規,0,2024-05-24,2024-05-24,株式会社Ａｂｉ．Ｌｉｔｙ,,株式会社,神奈川県,横浜市西区,北幸２丁目１０番４８号むつみビル３階,,14,103,2200004,,,,,,,2024-05-24,1,,,,,アビリティ,0
332,2020001157406,新規,0,2024-05-24,2024-05-24,金氏株式会社,,株式会社,神奈川県,川崎市中原区,上新城２丁目１－２７－１０１号室,,14,133,2110045,,,,,,,2024-05-24,1,,,,,キンシ,0
336,2020003026195,新規,0,2024-05-24,2024-05-24,合同会社ＴＡＭ,,合同会社,神奈川県,横浜市西区,花咲町６丁目１４３番地－１０１０号,,14,103,2200022,,,,,,,2024-05-24,1,,,,,ティーエーエム,0
337,2020003026204,新規,0,2024-05-24,2024-05-24,Ｏｆｆｉｃｅ　Ｍ合同会社,,合同会社,神奈川県,横浜市緑区,長津田１丁目２２番地６－３１号,,14,113,2260027,,,,,,,2024-05-24,1,,,,,オフィスエム,0
338,2020003026212,新規,0,2024-05-24,2024-05-24,明大合同会社,,合同会社,神奈川県,川崎市川崎区,港町１０番１４－４０３号グランイーグル川崎東ＩＩ,00134898,14,131,2100807,,,,,,,2024-05-24,1,,,,,メイダイ,0
339,2020005016426,新規,0,2024-05-24,2024-05-24,一般社団法人ＭＫ　ｍｅｄｉｃａｌ,,その他の設立登記法人,神奈川県,横浜市保土ケ谷区,権太坂２丁目３番１７号,,14,106,2400026,,,,,,,2024-05-24,1,,,,,エムケーメディカル,0
342,2021001082321,新規,0,2024-05-24,2024-05-24,株式会社クロスポイント,,株式会社,神奈川県,茅ヶ崎市,東海岸南３丁目１１－８,,14,207,2530054,,,,,,,2024-05-24,1,,,,,クロスポイント,0
345,2021003014561,新規,0,2024-05-24,2024-05-24,合同会社四季ｏｒｉｏｒｉ,,合同会社,神奈川県,相模原市中央区,上溝２丁目４番２５号,,14,152,2520243,,,,,,,2024-05-24,1,,,,,シキオリオリ,0
352,2030003024347,新規,0,2024-05-24,2024-05-24,合同会社マックス,,合同会社,埼玉県,三郷市,戸ケ崎１丁目１３６番地６－１号,,11,237,3410044,,,,,,,2024-05-24,1,,,,,マックス,0
358,2040001133751,新規,0,2024-05-24,2024-05-24,株式会社ビィー・ウォーター,,株式会社,千葉県,山武市,蓮沼ホの６１２番地,,12,237,2891803,,,,,,,2024-05-24,1,,,,,ビィーウォーター,0
362,2040003025047,新規,0,2024-05-24,2024-05-24,ＰＯＰＳ合同会社,,合同会社,千葉県,船橋市,上山町１丁目２１４－８３,,12,204,2730046,,,,,,,2024-05-24,1,,,,,ポップス,0
363,2040003025063,新規,0,2024-05-24,2024-05-24,Ｋ＆Ｍ合同会社,,合同会社,千葉県,千葉市稲毛区,天台５丁目１３番７号,,12,103,2630016,,,,,,,2024-05-24,1,,,,,ケーアンドエム,0
364,2050003008397,新規,0,2024-05-24,2024-05-24,ＮＳＰ　ＴＲＡＤＩＮＧ合同会社,,合同会社,茨城県,筑西市,西方１７７７番地９,,08,227,3080845,,,,,,,2024-05-24,1,,,,,エヌエスピートレーディング,0
374,2080401027203,新規,0,2024-05-24,2024-05-24,株式会社トークトレーナー,,株式会社,静岡県,浜松市中央区,城北３丁目５番１号静岡大学イノベーション社会連携推進機構棟内,,22,138,4328011,,,,,,,2024-05-24,1,,,,,トークトレーナー,0
386,2120001265207,新規,0,2024-05-24,2024-05-24,ＲＫクレンリネス株式会社,,株式会社,大阪府,大阪市生野区,田島２丁目１０番９号,,27,116,5440011,,,,,,,2024-05-24,1,,,,,アールケークレンリネス,0
387,2120001265248,新規,0,2024-05-24,2024-05-24,株式会社マンシュシリ,,株式会社,大阪府,大阪市中央区,谷町７丁目４－３１大南ビル３階Ｄ号室,,27,128,5420012,,,,,,,2024-05-24,1,,,,,マンシュシリ,0
388,2120001265256,新規,0,2024-05-24,2024-05-24,株式会社アドバンスラボ,,株式会社,大阪府,大阪市東住吉区,中野４丁目５番２４号ミヤコビル１０７号室,,27,121,5460012,,,,,,,2024-05-24,1,,,,,アドバンスラボ,0
389,2120001265264,新規,0,2024-05-24,2024-05-24,友真企画株式会社,,株式会社,大阪府,大阪市淀川区,西中島７丁目１番３－４０４号,,27,123,5320011,,,,,,,2024-05-24,1,,,,,ユウマキカク,0
390,2120001265280,新規,0,2024-05-24,2024-05-24,株式会社遊楽通商,,株式会社,大阪府,大阪市淀川区,田川北３丁目４番２号,,27,123,5320021,,,,,,,2024-05-24,1,,,,,ユウラクツウショウ,0
391,2120001265297,新規,0,2024-05-24,2024-05-24,株式会社三富,,株式会社,大阪府,大阪市淀川区,木川東４丁目１５番１号,,27,123,5320012,,,,,,,2024-05-24,1,,,,,ミツトミ,0
392,2120001265314,新規,0,2024-05-24,2024-05-24,海浩管理コンサルティング株式会社,,株式会社,大阪府,大阪市中央区,安土町３丁目４－９、４０１室,,27,128,5410052,,,,,,,2024-05-24,1,,,,,カイコウカンリコンサルティング,0
399,2120101069648,新規,0,2024-05-24,2024-05-24,株式会社ＪＵＮＩＴ,,株式会社,大阪府,堺市堺区,南三国ヶ丘町６丁２番１０号,,27,141,5900023,,,,,,,2024-05-24,1,,,,,ジュニット,0
401,2120103005857,新規,0,2024-05-24,2024-05-24,合同会社ＡＤＡＭＡＳ,,合同会社,大阪府,堺市東区,日置荘西町６丁４７番２０号,,27,143,5998114,,,,,,,2024-05-24,1,,,,,アダマス,0
410,2130001077114,新規,0,2024-05-24,2024-05-24,株式会社Ｎ’ｓスタイル,,株式会社,京都府,綴喜郡宇治田原町,大字贄田小字辻３番地１,00134895,26,344,6100253,,,,,,,2024-05-24,1,,,,,エヌズスタイル,0
411,2130003009577,新規,0,2024-05-24,2024-05-24,合同会社Ｃｏｚｙ,,合同会社,京都府,京都市北区,上賀茂菖蒲園町７９番地６６,,26,101,6038064,,,,,,,2024-05-24,1,,,,,コジー,0
412,2140001134525,新規,0,2024-05-24,2024-05-24,株式会社ＢＬＥＳＳ,,株式会社,兵庫県,小野市,大島町６８４番地の５,,28,218,6751334,,,,,,,2024-05-24,1,,,,,ブレス,0
413,2140001134533,新規,0,2024-05-24,2024-05-24,株式会社ＮｅｘｔＦｏｒｗａｒｄ,,株式会社,兵庫県,尼崎市,昭和通５丁目１６１番地第４神崎ビル,,28,202,6600881,,,,,,,2024-05-24,1,,,,,ネクストフォワード,0
415,2160001025945,新規,0,2024-05-24,2024-05-24,株式会社エムケイホールディングス,,株式会社,滋賀県,湖南市,岩根中央１丁目５１番地２Ｆ,,25,211,5203254,,,,,,,2024-05-24,1,,,,,エムケイホールディングス,0
421,2180001161631,新規,0,2024-05-24,2024-05-24,株式会社Ｌａｕｇｈ,,株式会社,愛知県,名古屋市天白区,福池１丁目１３８番地野並住宅Ｂ棟１０６号,,23,116,4680049,,,,,,,2024-05-24,1,,,,,ラフ,0
422,2180001161656,新規,0,2024-05-24,2024-05-24,株式会社絆,,株式会社,愛知県,清須市,阿原鴨池１９４番地Ｍｅｔｓａ１０１,,23,233,4520901,,,,,,,2024-05-24,1,,,,,キズナ,0
423,2180001161672,新規,0,2024-05-24,2024-05-24,悦也商事株式会社,,株式会社,愛知県,岩倉市,神野町中野５００番地１,,23,228,4820033,,,,,,,2024-05-24,1,,,,,エツヤショウジ,0
425,2180003026824,新規,0,2024-05-24,2024-05-24,合同会社ＣＤＳ,,合同会社,愛知県,名古屋市中村区,名駅４丁目２４番５号第二森ビル４０１,,23,105,4500002,,,,,,,2024-05-24,1,,,,,シーディーエス,0
426,2180003026832,新規,0,2024-05-24,2024-05-24,合同会社ウォータークリア,,合同会社,愛知県,名古屋市瑞穂区,堀田通７丁目１９番地プラウランド堀田７０７号,,23,108,4670862,,,,,,,2024-05-24,1,,,,,ウォータークリア,0
430,2190003004688,新規,0,2024-05-24,2024-05-24,合同会社ＪＡＣＫ,,合同会社,三重県,四日市市,西新地１３番１号,,24,202,5100087,,,,,,,2024-05-24,1,,,,,ジャック,0
449,2290001105817,新規,0,2024-05-24,2024-05-24,株式会社ＯＦＳ,,株式会社,福岡県,福岡市博多区,住吉５丁目７番８号,,40,132,8120018,,,,,,,2024-05-24,1,,,,,オーエフエス,0
450,2290001105825,新規,0,2024-05-24,2024-05-24,株式会社エムズテック,,株式会社,福岡県,糸島市,二丈福井５８６９番地１,,40,230,8191631,,,,,,,2024-05-24,1,,,,,エムズテック,0
451,2290001105833,新規,0,2024-05-24,2024-05-24,株式会社リオン,,株式会社,福岡県,福岡市東区,奈多３丁目２２番１号,,40,131,8110204,,,,,,,2024-05-24,1,,,,,リオン,0
452,2290001105916,新規,0,2024-05-24,2024-05-24,株式会社ＬａＬａＬａｎｄ,,株式会社,福岡県,福岡市博多区,西春町３丁目４番１１－４０５号ランブイエ南福岡ハイツ,,40,132,8120873,,,,,,,2024-05-24,1,,,,,ララランド,0
453,2290003015329,新規,0,2024-05-24,2024-05-24,合同会社Ｓｈｏｗ　Ｔｗｏ,,合同会社,福岡県,福岡市博多区,博多駅前１丁目２３番２号ＰａｒｋＦｒｏｎｔ博多駅前１丁目５Ｆ－Ｂ,,40,132,8120011,,,,,,,2024-05-24,1,,,,,ショートゥー,0
454,2290003015337,新規,0,2024-05-24,2024-05-24,おりたて合同会社,,合同会社,福岡県,福岡市南区,横手２丁目１－１１,,40,134,8111311,,,,,,,2024-05-24,1,,,,,オリタテ,0
455,2290003015345,新規,0,2024-05-24,2024-05-24,ＴＳ　Ｃａｒｚ合同会社,,合同会社,福岡県,福岡市東区,原田２丁目１７番４１号コーポラス後藤２０３号,,40,131,8120063,,,,,,,2024-05-24,1,,,,,ティエスカーズ,0
457,2290801030578,新規,0,2024-05-24,2024-05-24,株式会社ＰａｔｈｆｉｎｄｅｒＣａｒｅｅｒｓ,,株式会社,福岡県,北九州市小倉北区,大手町４－１－３Ｆ,,40,106,8030814,,,,,,,2024-05-24,1,,,,,パスファインダーキャリアーズ,0
461,2320001020483,新規,0,2024-05-24,2024-05-24,株式会社永井プランニング,,株式会社,大分県,大分市,公園通り４丁目１２番地の１４,,44,201,8700173,,,,,,,2024-05-24,1,,,,,ナガイプランニング,0
463,2340001026529,新規,0,2024-05-24,2024-05-24,株式会社ＭＳ,,株式会社,鹿児島県,垂水市,牛根麓１３０６番地,,46,214,8994632,,,,,,,2024-05-24,1,,,,,エムエス,0
466,2370001051334,新規,0,2024-05-24,2024-05-24,ＢＢ．ｍｅｄｉｃａｌ株式会社,,株式会社,宮城県,黒川郡大和町,杜の丘３丁目２番地の６,,04,421,9813628,,,,,,,2024-05-24,1,,,,,ビービーメディカル,0
473,2380001034569,新規,0,2024-05-24,2024-05-24,株式会社リフォラ,,株式会社,福島県,郡山市,富田町字天神林１１番地の３０,,07,203,9638041,,,,,,,2024-05-24,1,,,,,リフォラ,0
476,2380003005766,新規,0,2024-05-24,2024-05-24,合同会社Ａｎｄ１４,,合同会社,福島県,福島市,野田町６丁目４番７４－３号メゾンオーブＤ２０２,,07,201,9608055,,,,,,,2024-05-24,1,,,,,アンドフォーティーン,0
482,2430003016312,新規,0,2024-05-24,2024-05-24,合同会社裕晴商事,,合同会社,北海道,札幌市豊平区,西岡５３８番１２,,01,105,0620039,,,,,,,2024-05-24,1,,,,,ユウセイショウジ,0
483,2430005014990,新規,0,2024-05-24,2024-05-24,一般社団法人ＵＣＯコレクションＢＯＸ推進協会,,その他の設立登記法人,北海道,札幌市白石区,北郷２４０５番地２７,,01,104,0030849,,,,,,,2024-05-24,1,,,,,ユーシーオーコレクションボックススイシンキョウカイ,0
492,2500001025654,新規,0,2024-05-24,2024-05-24,株式会社モアビークル,,株式会社,愛媛県,伊予郡砥部町,高尾田１４２番地,,38,402,7912101,,,,,,,2024-05-24,1,,,,,モアビークル,0
493,2700150117876,新規,0,2024-05-24,2024-05-24,Ｒｏｎｇｙｉｎ（Ｆｕｊｉａｎ）Ｅｌｅｃｔｒｏｎｉｃｓ　Ｃｏ．，Ｌｔｄ,,外国会社等,,,,,,,,Ｎａｎａｎｓｈｉ　Ｘｉａｍｅｉｚｈｅｎ　Ｇｕａｎｇｆｕｘｉｎｘｉｃｈａｎｙｅｙｕａｎ　Ｃｈｕａｎｇｚａｏｂｅｉｌｕ　２０ｈａｏ　Ｑｕａｎｚｈｏｕｓｈｉ　Ｆｕｊｉａｎｓｈｅｎｇ,,,,,,2024-05-24,1,,,,,ロンインフージエンエレクトロニクスカンパニーリミテッド,0
494,2700150120748,新規,0,2024-05-24,2024-05-24,Ｓｈｅｎｚｈｅｎｓｈｉ　Ｂｏｓｉ　Ｋｅｊｉ　Ｙｏｕｘｉａｎ　Ｇｏｎｇｓｉ,,外国会社等,,,,,,,,Ｓｈｅｎｚｈｅｎｓｈｉ　Ｌｏｎｇｇａｎｇｇｕ　Ｂｕｊｉｊｉｅｄａｏ，Ｌｕｏｇａｎｇｓｈｅｇｕ，　Ｊｉｎｇｎａｎｌｕ　１０５　Ｈａｏ　Ｊｉｎｌｏｎｇｄａｓｈａ　Ａ　ｚｕｏ　Ｄｏｎｇ　６０１　Ｓｈｅｎｚｈｅｎ　Ｇｕａｎｇｄｏｎｇ,,,,,,2024-05-24,1,,,,,シェンジェンシボスコァジヨウシエンゴンス,0
495,2700150122397,新規,0,2024-05-24,2024-05-24,ｓｈｅｎｚｈｅｎｓｈｉｗａｎｋｅｄｉａｎｚｉｙｏｕｘｉａｎｇｏｎｇｓｉ,,外国会社等,,,,,,,,ｈｕａｑｉａｎｇｂｅｉｊｉｅｄａｏｌｉｃｕｎｓｈｅｑｕｚｈｅｎｘｉｎｇｌｕ１２０ｈａｏｓａｉｇｅｋｅｊｉｙｕａｎ２ｄｏｎｇｄｏｎｇ４ｃｅｎｇＡ４０３　ｓｈｅｎｚｈｅｎｓｈｉ，ｆｕｔｉａｎｑｕ，Ｇｕａｎｇｄｏｎｇ,,,,,,2024-05-24,1,,,,,シェンジェンシワンコァディエンズヨウシエンゴンス,0
496,2700150125581,新規,0,2024-05-24,2024-05-24,Ｓ．Ｍ．Ｓ．ＩＮＴＥＲＮＡＴＩＯＮＡＬ,,外国会社等,三重県,鈴鹿市,三日市１丁目１７番１２号エクセラン三日市２Ｅ,,24,207,5130807,スリランカ民主社会主義共和国、キャンディ、アクラナ、クルンドゥガハエラ、Ｎｏ．１８４,,,,,,2024-05-24,1,,,,,エスエムエスインターナシヨナル,0
508,3010001245177,新規,0,2024-05-24,2024-05-24,関東鎌長株式会社,,株式会社,東京都,中央区,日本橋１丁目１４番７号,,13,102,1030027,,,,,,,2024-05-24,1,,,,,カントウカマチョウ,0
509,3010001245193,新規,0,2024-05-24,2024-05-24,赤坂東京パートナーズ株式会社,,株式会社,東京都,千代田区,有楽町１丁目１３番２号第一生命日比谷ファースト１２階,,13,101,1000006,,,,,,,2024-05-24,1,,,,,アカサカトウキョウパートナーズ,0
520,3010401182623,新規,0,2024-05-24,2024-05-24,東京ＲＩＣＨ　ＰＲＯＶＩＳＩＯＮ株式会社,,株式会社,東京都,港区,南麻布２丁目７番３０号,,13,103,1060047,,,,,,,2024-05-24,1,,,,,トウキョウリッチプロビジョン,0
521,3010401182631,新規,0,2024-05-24,2024-05-24,ＷＡＧＭＩ　ＳＴＡＴＩＯＮ株式会社,,株式会社,東京都,港区,虎ノ門１丁目１７番１号,,13,103,1050001,,,,,,,2024-05-24,1,,,,,ワグミステーション,0
522,3010401182672,新規,0,2024-05-24,2024-05-24,株式会社リープ,,株式会社,東京都,港区,六本木４丁目１２番１０号グレイト綱ビル１階,,13,103,1060032,,,,,,,2024-05-24,1,,,,,リープ,0
523,3010401182722,新規,0,2024-05-24,2024-05-24,株式会社ＩＤＥＲ,,株式会社,東京都,港区,芝浦４丁目１６番１４号,,13,103,1080023,,,,,,,2024-05-24,1,,,,,アイダー,0
524,3010401182730,新規,0,2024-05-24,2024-05-24,慶快商事株式会社,,株式会社,東京都,港区,港南４丁目６番４－２６０８号,,13,103,1080075,,,,,,,2024-05-24,1,,,,,ケイカイショウジ,0
528,3010403032660,新規,0,2024-05-24,2024-05-24,ＲｏｖｉＳｙｓ　Ｊａｐａｎ合同会社,,合同会社,東京都,港区,元麻布３丁目１番６号,,13,103,1060046,,,,,,,2024-05-24,1,,,,,ロビシスジャパン,0
533,3010501052321,新規,0,2024-05-24,2024-05-24,金嘉達本株式会社,,株式会社,東京都,台東区,松が谷２丁目１５番８号浅草Ｋ２ビル４０１号室,,13,106,1110036,,,,,,,2024-05-24,1,,,,,キンカタッポン,0
534,3010503007455,新規,0,2024-05-24,2024-05-24,ストリートスマート合同会社,,合同会社,東京都,台東区,浅草４丁目１０番１号,,13,106,1110032,,,,,,,2024-05-24,1,,,,,ストリートスマート,0
538,3010601065256,新規,0,2024-05-24,2024-05-24,株式会社ＫＯＴＯＢＵＫＩ電気土木,,株式会社,東京都,江東区,北砂６丁目１番２号飯島ビル３階,,13,108,1360073,,,,,,,2024-05-24,1,,,,,コトブキデンキドボク,0
543,3010701046040,新規,0,2024-05-24,2024-05-24,株式会社ｂｌｏｓｓｏＭ,,株式会社,東京都,品川区,上大崎２丁目７番２５号－３０１,,13,109,1410021,,,,,,,2024-05-24,1,,,,,ブロッサム,0
544,3010701046049,新規,0,2024-05-24,2024-05-24,三御株式会社,,株式会社,東京都,品川区,小山３丁目１３－３－４０５Ｌ＆Ｃ武蔵小山ビル,,13,109,1420062,,,,,,,2024-05-24,1,,,,,ミツゴ,0
545,3010705003632,新規,0,2024-05-24,2024-05-24,一般社団法人近江会,,その他の設立登記法人,東京都,品川区,西五反田７丁目１７番５号,,13,109,1410031,,,,,,,2024-05-24,1,,,,,オウミカイ,0
550,3011001162172,新規,0,2024-05-24,2024-05-24,株式会社サンサン,,株式会社,東京都,渋谷区,神南１丁目１２番１４号渋谷宮田ビル６Ｆ,,13,113,1500041,,,,,,,2024-05-24,1,,,,,サンサン,0
551,3011001162222,新規,0,2024-05-24,2024-05-24,株式会社暮らすＡＩ,,株式会社,東京都,渋谷区,道玄坂１丁目１０番８号渋谷道玄坂東急ビル２Ｆ－Ｃ,,13,113,1500043,,,,,,,2024-05-24,1,,,,,クラスエーアイ,0
557,3011101107366,新規,0,2024-05-24,2024-05-24,智源株式会社,,株式会社,東京都,新宿区,新宿１丁目２４番７号ルネ御苑プラザ３０５号室,,13,104,1600022,,,,,,,2024-05-24,1,,,,,チゲン,0
559,3011103014453,新規,0,2024-05-24,2024-05-24,合同会社ウエダ,,合同会社,東京都,新宿区,新宿７丁目２７番９－１７０７号,,13,104,1600022,,,,,,,2024-05-24,1,,,,,ウエダ,0
577,3020001157388,新規,0,2024-05-24,2024-05-24,＿龍商事株式会社,00134896,株式会社,神奈川県,横浜市中区,長者町２丁目６番地１ライフレビュー横濱関内スクエアＩＩ９０４号室,00134897,14,104,2310033,,,,,,,2024-05-24,1,,,,,シンリュウショウジ,0
586,3021001082320,新規,0,2024-05-24,2024-05-24,株式会社Ｋ’ｓハウス,,株式会社,神奈川県,大和市,福田２３８４番地７９,,14,213,2420024,,,,,,,2024-05-24,1,,,,,ケーズハウス,0
587,3021002034114,新規,0,2024-05-24,2024-05-24,有限会社末吉工務店,00134857,有限会社,神奈川県,愛甲郡愛川町,中津２２１５番地,,14,401,2430303,,,,,,,2024-05-24,1,,,,,スエヨシコウムテン,0
588,3021003014552,新規,0,2024-05-24,2024-05-24,マサキマネージメント合同会社,,合同会社,神奈川県,藤沢市,西富１丁目５番７号,,14,205,2510001,,,,,,,2024-05-24,1,,,,,マサキマネージメント,0
597,3030003024346,新規,0,2024-05-24,2024-05-24,合同会社ハピネス,,合同会社,埼玉県,川越市,大字天沼新田３４７番地３サンスュプリームＩ,00134889,11,201,3500806,,,,,,,2024-05-24,1,,,,,ハピネス,0
598,3030003024362,新規,0,2024-05-24,2024-05-24,合同会社Ｙ．Ｓ．Ｋ,,合同会社,埼玉県,行田市,富士見町２丁目１２番地８,,11,206,3610021,,,,,,,2024-05-24,1,,,,,ワイエスケイ,0
606,3040001133726,新規,0,2024-05-24,2024-05-24,４ＳＧｒｏｕｐ株式会社,,株式会社,千葉県,千葉市中央区,今井１丁目２５－１２,,12,101,2600834,,,,,,,2024-05-24,1,,,,,フォエスグループ,0
607,3040001133750,新規,0,2024-05-24,2024-05-24,千秋株式会社,,株式会社,千葉県,我孫子市,布佐２７７３番地,,12,222,2701101,,,,,,,2024-05-24,1,,,,,センシュウ,0
608,3040001133775,新規,0,2024-05-24,2024-05-24,株式会社大山商会,,株式会社,千葉県,柏市,篠籠田１３０２番地２,,12,217,2770862,,,,,,,2024-05-24,1,,,,,オオヤマショウカイ,0
613,3040003025005,新規,0,2024-05-24,2024-05-24,合同会社Ｍテリア,,合同会社,千葉県,市川市,福栄３丁目６－１６プロパリース南行徳,,12,203,2720137,,,,,,,2024-05-24,1,,,,,エムテリア,0
614,3040003025021,新規,0,2024-05-24,2024-05-24,亀鶴屋ＨＯＭＥｃｒａｆｔ合同会社,,合同会社,千葉県,茂原市,東郷２１７１番地７,,12,210,2970017,,,,,,,2024-05-24,1,,,,,キカクヤホームクラフト,0
615,3040003025054,新規,0,2024-05-24,2024-05-24,合同会社サンフーグル,,合同会社,千葉県,柏市,西町９番１９号,,12,217,2770844,,,,,,,2024-05-24,1,,,,,サンフーグル,0
621,3050003008396,新規,0,2024-05-24,2024-05-24,合同会社ＳＨ　ＴＯＫＹＯ　ＩＮＴＥＲＮＡＴＩＯＮＡＬ,,合同会社,茨城県,龍ケ崎市,緑町２５８番地エステートピア２号棟２０３号室,,08,208,3010832,,,,,,,2024-05-24,1,,,,,エスエイチトーキョーインターナショナル,0
626,3060003005095,新規,0,2024-05-24,2024-05-24,合同会社ラナクティブ,,合同会社,栃木県,宇都宮市,下小池町５６０番地４６,,09,201,3212105,,,,,,,2024-05-24,1,,,,,ラナクティブ,0
628,3080103003071,新規,0,2024-05-24,2024-05-24,ＴＨＴＴ合同会社,,合同会社,静岡県,沼津市,大手町４丁目４番７号,,22,203,4100801,,,,,,,2024-05-24,1,,,,,ティエイチティティ,0
629,3080403005016,新規,0,2024-05-24,2024-05-24,合同会社Ｂｌｏｗ　ｕｐ　ＪＡＰＡＮ,,合同会社,静岡県,浜松市中央区,植松町５８－１８グレイス第５マンション５０８号,,22,138,4300803,,,,,,,2024-05-24,1,,,,,ブローアップジャパン,0
636,3110001038439,新規,0,2024-05-24,2024-05-24,株式会社ハイデフ,,株式会社,新潟県,上越市,南城町１丁目５番７号,,15,222,9430837,,,,,,,2024-05-24,1,,,,,ハイデフ,0
644,3120001265115,新規,0,2024-05-24,2024-05-24,株式会社今吉,,株式会社,大阪府,大阪市住吉区,山之内元町２番１号,,27,120,5580024,,,,,,,2024-05-24,1,,,,,イマヨシ,0
645,3120001265239,新規,0,2024-05-24,2024-05-24,申城株式会社,,株式会社,大阪府,大阪市旭区,清水１丁目１２番１４号モデラート千林１０１号室,,27,117,5350021,,,,,,,2024-05-24,1,,,,,シンジョウ,0
646,3120001265247,新規,0,2024-05-24,2024-05-24,吉岡電設株式会社,00134905,株式会社,大阪府,大阪市生野区,巽中３丁目１番２８号,00134906,27,116,5440013,,,,,,,2024-05-24,1,,,,,ヨシオカデンセツ,0
647,3120001265263,新規,0,2024-05-24,2024-05-24,株式会社ＡＬＬ　ＴＥＣ,,株式会社,大阪府,大阪市住之江区,西加賀屋３丁目２番１６号,,27,125,5590016,,,,,,,2024-05-24,1,,,,,オールテック,0
648,3120001265313,新規,0,2024-05-24,2024-05-24,松吉商事株式会社,,株式会社,大阪府,大阪市東成区,大今里南１丁目２３番２号,,27,115,5370013,,,,,,,2024-05-24,1,,,,,マツヨシショウジ,0
649,3120005024343,新規,0,2024-05-24,2024-05-24,特定非営利活動法人Ｇｏｏｄ　Ｍｏｒｎｉｎｇ　Ｊａｐａｎ＆Ｋｏｒｅａ,,その他の設立登記法人,大阪府,大阪市東成区,東小橋３丁目１８番８号,,27,115,5370024,,,,,,,2024-05-24,1,,,,,グッドモーニングジャパンアンドコリア,0
652,3120101069639,新規,0,2024-05-24,2024-05-24,株式会社ＲＥＭＯＩＳ,,株式会社,大阪府,貝塚市,三ツ松９１１番地１（１９号）,,27,208,5970105,,,,,,,2024-05-24,1,,,,,リモイス,0
654,3120901049212,新規,0,2024-05-24,2024-05-24,株式会社永楽,,株式会社,大阪府,茨木市,庄１丁目１５番２２号,,27,211,5670806,,,,,,,2024-05-24,1,,,,,エイラク,0
656,3122001038129,新規,0,2024-05-24,2024-05-24,株式会社Ｐｅａｃｅ,,株式会社,大阪府,東大阪市,横沼町３丁目６番３号,,27,227,5770808,,,,,,,2024-05-24,1,,,,,ピース,0
661,3130001077113,新規,0,2024-05-24,2024-05-24,株式会社ＴＲＥＡＴ　ＨＥＲ,,株式会社,京都府,京都市上京区,寺町通今出川下る西入真如堂突抜町１３５番地３セレナ御所東１００,,26,102,6020833,,,,,,,2024-05-24,1,,,,,トリートハー,0
665,3140001134524,新規,0,2024-05-24,2024-05-24,ＴｅｃｈｎｏＶａｔｉｏｎ　ＡＳＯＫＡ株式会社,,株式会社,兵庫県,たつの市,新宮町栗町７１０番地１,,28,229,6795155,,,,,,,2024-05-24,1,,,,,テクノベーションアソカ,0
666,3140001134532,新規,0,2024-05-24,2024-05-24,ＦＴＫホールディングス株式会社,,株式会社,兵庫県,神戸市東灘区,御影本町５丁目８番１号,,28,101,6580046,,,,,,,2024-05-24,1,,,,,エフティーケーホールディングス,0
667,3140003020615,新規,0,2024-05-24,2024-05-24,合同会社アリガトサン,,合同会社,兵庫県,尼崎市,東難波町５丁目８－２６リアライズ尼崎１００１,,28,202,6600892,,,,,,,2024-05-24,1,,,,,アリガトサン,0
681,3180001161515,新規,0,2024-05-24,2024-05-24,株式会社サワムラ,,株式会社,愛知県,常滑市,飛香台８丁目１１番地の２４,,23,216,4790868,,,,,,,2024-05-24,1,,,,,サワムラ,0
682,3180001161523,新規,0,2024-05-24,2024-05-24,株式会社安藤会計コンサルティング,,株式会社,愛知県,小牧市,間々本町２７７番地,,23,219,4850048,,,,,,,2024-05-24,1,,,,,アンドウカイケイコンサルティング,0
683,3180001161663,新規,0,2024-05-24,2024-05-24,株式会社ナルミヤ,,株式会社,愛知県,名古屋市東区,葵３丁目２３－１０千種ファーストビルかとう４階,,23,102,4610004,,,,,,,2024-05-24,1,,,,,ナルミヤ,0
684,3180001161671,新規,0,2024-05-24,2024-05-24,株式会社幸夢,,株式会社,愛知県,名古屋市中川区,細米町２丁目２５番地,,23,110,4540847,,,,,,,2024-05-24,1,,,,,コウム,0
686,3180003026823,新規,0,2024-05-24,2024-05-24,合同会社Ｉ‐１０,,合同会社,愛知県,名古屋市昭和区,塩付通６丁目５７番地の２,,23,107,4660022,,,,,,,2024-05-24,1,,,,,アイテン,0
687,3180003026831,新規,0,2024-05-24,2024-05-24,クロスポットアカウンティング合同会社,,合同会社,愛知県,瀬戸市,小金町７８番地の８,,23,204,4890064,,,,,,,2024-05-24,1,,,,,クロスポットアカウンティング,0
721,3290001105808,新規,0,2024-05-24,2024-05-24,株式会社ＶＩＶＩＥ,,株式会社,福岡県,福岡市中央区,六本松２丁目２番９－６０２号ＭＯＤＥＲＮＰＡＬＡＺＺＯ六本松ｓｔａｔｉｏｎ,,40,133,8100044,,,,,,,2024-05-24,1,,,,,ヴィヴィー,0
722,3290001105816,新規,0,2024-05-24,2024-05-24,タケヤ・コンサルティング株式会社,,株式会社,福岡県,糸島市,志摩小金丸２１６４番地４３,,40,230,8191323,,,,,,,2024-05-24,1,,,,,タケヤコンサルティング,0
723,3290001105824,新規,0,2024-05-24,2024-05-24,株式会社エヌ・エス設備,,株式会社,福岡県,那珂川市,仲３丁目１７番１－２１０号,,40,231,8111253,,,,,,,2024-05-24,1,,,,,エヌエスセツビ,0
724,3290001105832,新規,0,2024-05-24,2024-05-24,株式会社アマテラス,,株式会社,福岡県,福岡市東区,松島４丁目１番２２－３０３号,,40,131,8130062,,,,,,,2024-05-24,1,,,,,アマテラス,0
727,3290003015360,新規,0,2024-05-24,2024-05-24,背振バイオマス発電所合同会社,,合同会社,福岡県,福岡市早良区,百道浜２丁目４番２７号ＡＩビル６Ｆ,,40,137,8140001,,,,,,,2024-05-24,1,,,,,セフリバイオマスハツデンショ,0
733,3320001020482,新規,0,2024-05-24,2024-05-24,株式会社蓮華,,株式会社,大分県,別府市,大字鉄輪８２８番地の６,,44,202,8740000,,,,,,,2024-05-24,1,,,,,レンゲ,0
734,3320001020490,新規,0,2024-05-24,2024-05-24,株式会社山翔,,株式会社,大分県,由布市,湯布院町川上６６５番地１,,44,213,8795102,,,,,,,2024-05-24,1,,,,,ヤマト,0
735,3340001026528,新規,0,2024-05-24,2024-05-24,ユナイプ株式会社,,株式会社,鹿児島県,鹿児島市,山下町１７番１９号加世田ビル２階,,46,201,8920816,,,,,,,2024-05-24,1,,,,,ユナイプ,0
740,3340005009735,新規,0,2024-05-24,2024-05-24,特定非営利活動法人よいどころ,,その他の設立登記法人,鹿児島県,鹿児島市,郡元２丁目２３番１９号フラワーヒルズ郡元２０１号,,46,201,8900065,,,,,,,2024-05-24,1,,,,,ヨイドコロ,0
745,3370001051333,新規,0,2024-05-24,2024-05-24,株式会社ＰＯＣ．,,株式会社,宮城県,仙台市若林区,荒井３丁目２０番地の５アビタ２１荒井２０１,,04,103,9840032,,,,,,,2024-05-24,1,,,,,ピーオーシーピリオド,0
753,3410001013840,新規,0,2024-05-24,2024-05-24,かづのグリーンエネルギー株式会社,,株式会社,秋田県,鹿角市,花輪字下花輪３３番地２,,05,209,0185201,,,,,,,2024-05-24,1,,,,,カヅノグリーンエネルギー,0
758,3470001020220,新規,0,2024-05-24,2024-05-24,松暎電工株式会社,,株式会社,香川県,丸亀市,田村町５０２番地５,,37,202,7630071,,,,,,,2024-05-24,1,,,,,ショウエイデンコウ,0
764,3700150122396,新規,0,2024-05-24,2024-05-24,ｄｏｎｇ　ｇｕａｎ　ｓｈｉ　ｙｉ　ｈｏｎｇ　ｘｉａｎｇ　ｂａｏ　ｙｏｕ　ｘｉａｎ　ｇｏｎｇ　ｓｉ,,外国会社等,,,,,,,,ｌｉａｎ　ｈｕ　ｄｏｎｇ　ｗｕ　ｈｅｎｇ　ｌｕ　２　ｈａｏ，３　ｈａｏ　ｌｏｕ，２０２ｓｈｉ，ｄｏｎｇ　ｇｕａｎ　ｓｈｉ，ｔａｎｇ　ｘｉａ　ｚｈｅｎ，ｇｕａｎｇ　ｄｏｎｇ,,,,,,2024-05-24,1,,,,,ドングワンシイホンシアンバオヨウシエンゴンス,0
765,3700150125580,新規,0,2024-05-24,2024-05-24,ｓｈｅｎｚｈｅｎｓｈｉｈｅｚｈｏｎｇｍａｏｙｉｙｏｕｘｉａｎｇｏｎｇｓｉ,,外国会社等,,,,,,,,Ｓｈｅｎｚｈｅｎｓｈｉ，ｂａｏａｎｑｕ，ｓｏｎｇｇａｎｇｊｉｅｄａｏ，ｄｏｎｇｆａｎｇｓｈｅｑｕ，ｄｏｎｇｆａｎｇｙｉｌｕ３２ｈａｏｃｈａｎｇｆａｎｇＡｄｏｎｇ２０３,,,,,,2024-05-24,1,,,,,シェンジェンシーホーァジョーンマオイーヨウシエンゴーンスー,0
770,4010001245093,新規,0,2024-05-24,2024-05-24,グローバルキャピタルマネジメント株式会社,,株式会社,東京都,千代田区,丸の内２丁目３番１号,,13,101,1000005,,,,,,,2024-05-24,1,,,,,グローバルキャピタルマネジメント,0
771,4010001245119,新規,0,2024-05-24,2024-05-24,ｓｔｕｄｉｏ　ｐｏｃｋｅｔ株式会社,,株式会社,東京都,中央区,晴海３丁目１３番１号ＤＥＵＸＴＯＵＲＳ４４０２,,13,102,1040053,,,,,,,2024-05-24,1,,,,,スタジオポケット,0
772,4010001245192,新規,0,2024-05-24,2024-05-24,潤揚株式会社,,株式会社,東京都,文京区,小石川４丁目１番１４－１１０５号,,13,105,1120002,,,,,,,2024-05-24,1,,,,,ジュンアゲ,0
780,4010401182622,新規,0,2024-05-24,2024-05-24,株式会社Ｃａｎ’ｓ,,株式会社,東京都,港区,白金１丁目１４番１－７０１号,,13,103,1080072,,,,,,,2024-05-24,1,,,,,キャンズ,0
781,4010401182688,新規,0,2024-05-24,2024-05-24,復晟株式会社,,株式会社,東京都,港区,新橋５丁目３１番８－９０１号,,13,103,1050004,,,,,,,2024-05-24,1,,,,,フクセイ,0
790,4010501052329,新規,0,2024-05-24,2024-05-24,株式会社芸,,株式会社,東京都,台東区,上野１丁目１０番地８,,13,106,1100005,,,,,,,2024-05-24,1,,,,,ゲイ,0
795,4010703007196,新規,0,2024-05-24,2024-05-24,合同会社Ｔｈｅ会社,,合同会社,東京都,品川区,小山４丁目１番１０号メタセコイアキューブ４階,,13,109,1420062,,,,,,,2024-05-24,1,,,,,ザカイシャ,0
798,4010901055344,新規,0,2024-05-24,2024-05-24,株式会社Ｚｅｎｉｔ,,株式会社,東京都,世田谷区,砧１丁目２９番２号－８,,13,112,1570073,,,,,,,2024-05-24,1,,,,,ゼニト,0
808,4011003019205,新規,0,2024-05-24,2024-05-24,８５Ｇａｌｌｅｒｙ合同会社,,合同会社,東京都,渋谷区,神宮前６丁目２３番４号桑野ビル２階,,13,113,1500001,,,,,,,2024-05-24,1,,,,,ハチゴーギャラリー,0
812,4011101107365,新規,0,2024-05-24,2024-05-24,モッツカンパニー株式会社,,株式会社,東京都,新宿区,西早稲田１丁目１３番４号,,13,104,1690051,,,,,,,2024-05-24,1,,,,,モッツカンパニー,0
813,4011101107448,新規,0,2024-05-24,2024-05-24,株式会社ＳＡＬＥＳ　ＴＯＷＮ,,株式会社,東京都,新宿区,早稲田南町５２番地２,,13,104,1620043,,,,,,,2024-05-24,1,,,,,セールスタウン,0
821,4011401026117,新規,0,2024-05-24,2024-05-24,株式会社ロサン,,株式会社,東京都,板橋区,幸町４５－７－６０５,,13,119,1730034,,,,,,,2024-05-24,1,,,,,ロサン,0
823,4011501030720,新規,0,2024-05-24,2024-05-24,株式会社淵智社,,株式会社,東京都,北区,王子４丁目１６－５ライオンズマンション王子第三５階２０４号室,,13,117,1140002,,,,,,,2024-05-24,1,,,,,エンチシャ,0
828,4012401041907,新規,0,2024-05-24,2024-05-24,エイトツーインターナショナルジャパン株式会社,,株式会社,東京都,調布市,布田２丁目２５番地８,,13,208,1820024,,,,,,,2024-05-24,1,,,,,エイトツーインターナショナルジャパン,0
835,4012703003002,新規,0,2024-05-24,2024-05-24,アモリ合同会社,,合同会社,東京都,東村山市,本町３丁目２０番地６,,13,213,1890014,,,,,,,2024-05-24,1,,,,,アモリ,0
848,4020001157404,新規,0,2024-05-24,2024-05-24,株式会社結,,株式会社,神奈川県,横浜市鶴見区,向井町３丁目７９番地１０号ナイスアーバンスクエア２０９号,,14,101,2300037,,,,,,,2024-05-24,1,,,,,ムスビ,0
850,4020003026160,新規,0,2024-05-24,2024-05-24,合同会社リペアスマイル,,合同会社,神奈川県,川崎市川崎区,渡田山王町９番７号カーサＫ１－３０１,,14,131,2100845,,,,,,,2024-05-24,1,,,,,リペアスマイル,0
854,4021001082261,新規,0,2024-05-24,2024-05-24,株式会社Ｅｘｅ,,株式会社,神奈川県,南足柄市,岩原１４０番地１８,,14,217,2500113,,,,,,,2024-05-24,1,,,,,エグゼ,0
855,4021001082303,新規,0,2024-05-24,2024-05-24,株式会社Ｎａｔｕｒａｌ　Ｋ　ｆｏｒｍ,,株式会社,神奈川県,藤沢市,片瀬海岸２丁目１４番１５号,,14,205,2510035,,,,,,,2024-05-24,1,,,,,ナチュラルケイフォーム,0
861,4030001160506,新規,0,2024-05-24,2024-05-24,ＰＨアーチ株式会社,,株式会社,埼玉県,八潮市,大字大瀬１４４３番地,,11,234,3400822,,,,,,,2024-05-24,1,,,,,ピーエイチアーチ,0
862,4030001160547,新規,0,2024-05-24,2024-05-24,株式会社ＭＡＯＲＩ,,株式会社,埼玉県,羽生市,大字下川崎４２５－４,,11,216,3480034,,,,,,,2024-05-24,1,,,,,マオリ,0
871,4040001133683,新規,0,2024-05-24,2024-05-24,株式会社ＬＩＢＲＥ,,株式会社,千葉県,木更津市,久津間５１０番地プランドールＣ１０２,,12,206,2920004,,,,,,,2024-05-24,1,,,,,リブレ,0
872,4040001133782,新規,0,2024-05-24,2024-05-24,株式会社ＵＭＡＵＮＡ,,株式会社,千葉県,木更津市,新田１丁目４番４号ラッシングビル３Ｆ,,12,206,2920832,,,,,,,2024-05-24,1,,,,,ウマウナ,0
874,4040003025045,新規,0,2024-05-24,2024-05-24,合同会社ＩＷＩ,,合同会社,千葉県,船橋市,前原西８丁目５番８号メゾンルミネ２０１号,,12,204,2740825,,,,,,,2024-05-24,1,,,,,アイダブリューアイ,0
875,4040003025053,新規,0,2024-05-24,2024-05-24,ＡＣビジネスサービス合同会社,,合同会社,千葉県,千葉市中央区,東本町４番１７号,,12,101,2600004,,,,,,,2024-05-24,1,,,,,エーシービジネスサービス,0
876,4040003025061,新規,0,2024-05-24,2024-05-24,合同会社千葉県睦沢町甘藷生産組合,,合同会社,千葉県,長生郡睦沢町,上市場１９４８番地１,,12,422,2994403,,,,,,,2024-05-24,1,,,,,チバケンムツザワマチカンショセイサンクミアイ,0
878,4040005022404,新規,0,2024-05-24,2024-05-24,一般社団法人ＶＡＬＯＲＥＳ,,その他の設立登記法人,千葉県,四街道市,千代田５丁目３６番２号,,12,228,2840015,,,,,,,2024-05-24,1,,,,,ヴァローレス,0
881,4050001054821,新規,0,2024-05-24,2024-05-24,ＫＥＩＳＨＩＮ株式会社,,株式会社,茨城県,水戸市,城東３丁目３番２９号,,08,201,3100012,,,,,,,2024-05-24,1,,,,,ケイシン,0
890,4080001026322,新規,0,2024-05-24,2024-05-24,静岡札の辻不動産株式会社,,株式会社,静岡県,静岡市葵区,呉服町１丁目３０番地札の辻クロス７０７,,22,101,4200031,,,,,,,2024-05-24,1,,,,,シズオカフダノツジフドウサン,0
893,4100001037473,新規,0,2024-05-24,2024-05-24,株式会社Ｃａｐｉｔａｌ　Ｈｅａｒｔ,,株式会社,長野県,諏訪郡下諏訪町,５０３５番地１,,20,361,3930000,,,,,,,2024-05-24,1,,,,,キャピタルハート,0
895,4100003007565,新規,0,2024-05-24,2024-05-24,ＴＨＲＥＥＵＰ合同会社,,合同会社,長野県,北佐久郡軽井沢町,大字追分１５８７番地３,,20,321,3890115,,,,,,,2024-05-24,1,,,,,スリーアップ,0
899,4110001038438,新規,0,2024-05-24,2024-05-24,ＫＡＫＡＲ　ＴＲＡＤＩＮＧ株式会社,,株式会社,新潟県,新発田市,真野原８６１番地３Ａ－２,,15,206,9570233,,,,,,,2024-05-24,1,,,,,カカラトレーディング,0
905,4120001265072,新規,0,2024-05-24,2024-05-24,明澤株式会社,,株式会社,大阪府,大阪市旭区,森小路２丁目１７－６,,27,117,5350013,,,,,,,2024-05-24,1,,,,,メイタク,0
906,4120001265238,新規,0,2024-05-24,2024-05-24,北浜キャピタルパートナーズ株式会社,,株式会社,大阪府,大阪市中央区,北浜２丁目１番１７号,,27,128,5410041,,,,,,,2024-05-24,1,,,,,キタハマキャピタルパートナーズ,0
907,4120001265262,新規,0,2024-05-24,2024-05-24,Ｂｅａｒ　Ｔｅｃｈ　Ａｉｒ株式会社,,株式会社,大阪府,大阪市中央区,南船場３丁目２番２２号おおきに南船場ビル２０５,,27,128,5420081,,,,,,,2024-05-24,1,,,,,ベアテックエア,0
909,4120101069638,新規,0,2024-05-24,2024-05-24,ＪＰ・プレミアム株式会社,,株式会社,大阪府,和泉市,王子町１１２０番地の２２６,,27,219,5940004,,,,,,,2024-05-24,1,,,,,ジェイピープレミアム,0
912,4120903005187,新規,0,2024-05-24,2024-05-24,合同会社Ａ‐ＬＩＧＨＴ,,合同会社,大阪府,高槻市,日吉台一番町１８番１号,,27,207,5691022,,,,,,,2024-05-24,1,,,,,エーライト,0
919,4140001134523,新規,0,2024-05-24,2024-05-24,新豊鉄筋工業株式会社,,株式会社,兵庫県,豊岡市,正法寺６４７番地の１０,,28,209,6680063,,,,,,,2024-05-24,1,,,,,シンホウテッキンコウギョウ,0
921,4140005027087,新規,0,2024-05-24,2024-05-24,一般社団法人遠隔歯科治療研究会,,その他の設立登記法人,兵庫県,神戸市東灘区,住吉本町２丁目１３番１６－２０３号,,28,101,6580051,,,,,,,2024-05-24,1,,,,,エンカクシカチリョウケンキュウカイ,0
923,4150003003262,新規,0,2024-05-24,2024-05-24,合同会社Ｍ２ＳＯＵＬ　Ｐｒｏｄｕｃｔｉｏｎｓ,,合同会社,奈良県,奈良市,西千代ヶ丘２丁目１８番１４号,,29,201,6310046,,,,,,,2024-05-24,1,,,,,エムツーソウルプロダクション,0
924,4160001025943,新規,0,2024-05-24,2024-05-24,株式会社ＫＯＮＩＳＨＩ　ＧＲＯＵＰ,,株式会社,滋賀県,甲賀市,水口町下山６６６番地８５,,25,209,5280063,,,,,,,2024-05-24,1,,,,,コニシグループ,0
930,4180001161588,新規,0,2024-05-24,2024-05-24,株式会社ＺＥＲＯ,,株式会社,愛知県,海部郡蟹江町,八幡２丁目３４番地１,,23,425,4970056,,,,,,,2024-05-24,1,,,,,ゼロ,0
931,4180001161654,新規,0,2024-05-24,2024-05-24,ＢＩＮＡＲＹ　ＴＥＣＨＮＯＬＯＧＹ　ＳＥＲＶＩＣＥＳ株式会社,,株式会社,愛知県,一宮市,蓮池字郷西７９番地１,,23,203,4940019,,,,,,,2024-05-24,1,,,,,バイナリーテクノロジーサービス,0
932,4180001161670,新規,0,2024-05-24,2024-05-24,株式会社メオリンク,,株式会社,愛知県,東海市,富木島町道才９２番地の４,,23,222,4760011,,,,,,,2024-05-24,1,,,,,メオリンク,0
933,4180001161687,新規,0,2024-05-24,2024-05-24,ＪＦＧ株式会社,,株式会社,愛知県,名古屋市千種区,仲田２丁目１４番１６号中日本開発ビルディング,,23,101,4640074,,,,,,,2024-05-24,1,,,,,ジェイエフジー,0
937,4180003026806,新規,0,2024-05-24,2024-05-24,国際人材合同会社,,合同会社,愛知県,名古屋市中川区,江松２丁目１０１９番地クレセントＩＩ１０１号,00134890,23,110,4540954,,,,,,,2024-05-24,1,,,,,コクサイジンザイ,0
938,4180003026830,新規,0,2024-05-24,2024-05-24,合同会社ヴィヴィ,,合同会社,愛知県,名古屋市守山区,鼓が丘２丁目７０３番地,,23,113,4630807,,,,,,,2024-05-24,1,,,,,ヴィヴィ,0
962,4250001020662,新規,0,2024-05-24,2024-05-24,株式会社Ｔ＆Ｍ,,株式会社,山口県,宇部市,東平原２丁目６番２３号,,35,202,7550807,,,,,,,2024-05-24,1,,,,,ティーアンドエム,0
965,4260001039099,新規,0,2024-05-24,2024-05-24,株式会社ｐｉｌｉｎａ,,株式会社,岡山県,岡山市中区,藤原西町２丁目７番４０号苔口ビル１０２号室,,33,102,7038244,,,,,,,2024-05-24,1,,,,,ピリナ,0
969,4290001105815,新規,0,2024-05-24,2024-05-24,株式会社ＪＫ商事,,株式会社,福岡県,八女市,納楚４５８－２,,40,210,8340004,,,,,,,2024-05-24,1,,,,,ジェイケーショウジ,0
970,4290001105864,新規,0,2024-05-24,2024-05-24,株式会社ハセル,,株式会社,福岡県,福岡市中央区,長浜３丁目１７番１０－２０２号ＨＦ大濠レジデンスＢＡＹＳＩＤＥ,,40,133,8100072,,,,,,,2024-05-24,1,,,,,ハセル,0
971,4290001105872,新規,0,2024-05-24,2024-05-24,株式会社ハツキローズ,,株式会社,福岡県,福岡市早良区,野芥８丁目３０番２９号,,40,137,8140171,,,,,,,2024-05-24,1,,,,,ハツキローズ,0
972,4290001105880,新規,0,2024-05-24,2024-05-24,株式会社にぎわい,,株式会社,福岡県,糸島市,前原中央２丁目５番１号,,40,230,8191116,,,,,,,2024-05-24,1,,,,,ニギワイ,0
973,4290001105897,新規,0,2024-05-24,2024-05-24,みちのみち株式会社,,株式会社,福岡県,福岡市南区,三宅１丁目６番１７－１０１号,,40,134,8111344,,,,,,,2024-05-24,1,,,,,ミチノミチ,0
976,4290003015327,新規,0,2024-05-24,2024-05-24,合同会社ＲＡ,,合同会社,福岡県,大野城市,下大利４丁目１５番１２－８０６号,,40,219,8160952,,,,,,,2024-05-24,1,,,,,アールエー,0
977,4290003015335,新規,0,2024-05-24,2024-05-24,合同会社ＣｒｏｓｓＮｏｔｅ,,合同会社,福岡県,福岡市早良区,南庄２丁目５番７－４０２号,,40,137,8140031,,,,,,,2024-05-24,1,,,,,クロスノート,0
978,4290003015351,新規,0,2024-05-24,2024-05-24,合同会社ｄａｎｄｙ,,合同会社,福岡県,福岡市中央区,平尾１丁目１３－１９－２０５,,40,133,8100014,,,,,,,2024-05-24,1,,,,,ダンディ,0
981,4320003004375,新規,0,2024-05-24,2024-05-24,合同会社ＭＬＤ,,合同会社,大分県,大分市,府内町１丁目１番１５号府内センタービル３０１,,44,201,8700021,,,,,,,2024-05-24,1,,,,,エムエルディ,0
983,4320005010157,新規,0,2024-05-24,2024-05-24,一般社団法人アスレチックパフォーマンス機構,,その他の設立登記法人,大分県,別府市,浜町２３番５号,,44,202,8740945,,,,,,,2024-05-24,1,,,,,,0
985,4330001032088,新規,0,2024-05-24,2024-05-24,株式会社太月,,株式会社,熊本県,荒尾市,大正町１丁目６番２１号,,43,204,8640054,,,,,,,2024-05-24,1,,,,,タツキ,0
986,4330003010389,新規,0,2024-05-24,2024-05-24,合同会社Ｋｙｕ‐ｚｅｎ．,,合同会社,熊本県,熊本市南区,畠口町２６６５番地２,,43,104,8615265,,,,,,,2024-05-24,1,,,,,キューゼン,0
990,4360003014008,新規,0,2024-05-24,2024-05-24,Ｙｏｕ　ｂｅｉｎｇ　ｃｒｅａｔｉｖｅ合同会社,,合同会社,沖縄県,宮古島市,平良字東仲宗根８２１番地７,,47,214,9060007,,,,,,,2024-05-24,1,,,,,ユービーイングクリエイティブ,0
998,4380001034567,新規,0,2024-05-24,2024-05-24,株式会社Ｇｒｅｅｎ,,株式会社,福島県,いわき市,平字作町三丁目４番地１０リンクスサイト２Ｆ,,07,204,9708026,,,,,,,2024-05-24,1,,,,,グリーン,0
1010,4420001018739,新規,0,2024-05-24,2024-05-24,株式会社ＮｏｒｔｈＣｏａｓｔ,,株式会社,青森県,五所川原市,松島町１丁目５０３番地１２,,02,205,0370006,,,,,,,2024-05-24,1,,,,,ノースコースト,0
1013,4430001091883,新規,0,2024-05-24,2024-05-24,住吉設備株式会社,,株式会社,北海道,江別市,元江別８９０番地の１３,,01,217,0670032,,,,,,,2024-05-24,1,,,,,スミヨシセツビ,0
1021,4700150120746,新規,0,2024-05-24,2024-05-24,Ｓｈｅｎｚｈｅｎｓｈｉ　Ｙｏｕｙｏｕ　Ｋｅｊｉ　Ｙｏｕｘｉａｎ　Ｇｏｎｇｓｉ,,外国会社等,,,,,,,,Ｌｏｎｇｇａｎｇｑｕ　Ｌｏｎｇｃｅｎｇｊｉｅｄａｏ　Ｊｉｘｉａｎｇｓｈｅｑｕ　Ｚｈｏｎｇｘｉｎｃｈｅｎｇ４ｑｕ　Ｈｏｎｇｊｉｈｕａｙｕａｎ　３ｑｉ３ｄｏｎｇ　Ｂ１７０４　Ｓｈｅｎｚｈｅｎｓｈｉ　Ｇｕａｎｇｄｏｎｇ,,,,,,2024-05-24,1,,,,,シェンジェンシヨウヨウコァジヨウシエンゴンス,0
1022,4700150122395,新規,0,2024-05-24,2024-05-24,ｈｅｎａｎｃｈａｎｇｋｅｙｏｎｇｘｉｎ　Ｔｅｃｈｎｏｌｏｇｙ　Ｃｏ．，Ｌｔｄ,,外国会社等,,,,,,,,Ｅｒｑｉｑｕａｎｔａｉｌｕ３１ｈａｏ１ｈａｏｌｏｕ１ｄａｎｙｕａｎ１０ｃｅｎｇ１００３　ｚｈｅｎｚｈｏｕ　ｈｅｎａｎ,,,,,,2024-05-24,1,,,,,ホァナンチャンコァヨンシンゥルワンジエンコァジヨウシエンゴンス,0
1040,5010001245092,新規,0,2024-05-24,2024-05-24,株式会社呼炉凪来,,株式会社,東京都,千代田区,鍛冶町１丁目６番５号,,13,101,1010044,,,,,,,2024-05-24,1,,,,,コロナギライ,0
1041,5010001245191,新規,0,2024-05-24,2024-05-24,株式会社リプロヒューマン,,株式会社,東京都,中央区,勝どき４丁目６－２パークタワー勝どきミッド３１０６号室,,13,102,1040054,,,,,,,2024-05-24,1,,,,,リプロヒューマン,0
1049,5010401182621,新規,0,2024-05-24,2024-05-24,株式会社ＨＴＸ　ＪＡＰＡＮ,,株式会社,東京都,港区,南青山１丁目２－６ラティス青山スクエア２Ｆ,,13,103,1070062,,,,,,,2024-05-24,1,,,,,エイチティーエックスジャパン,0
1050,5010401182679,新規,0,2024-05-24,2024-05-24,株式会社ＭＡＫ　ＰＲＥＭＩＵＭ　ＧＲＯＵＰ,,株式会社,東京都,港区,南麻布３丁目２番７号,,13,103,1060047,,,,,,,2024-05-24,1,,,,,エムエーケープレミアムグループ,0
1051,5010401182720,新規,0,2024-05-24,2024-05-24,株式会社グッドウィル・パートナーズ,,株式会社,東京都,港区,虎ノ門３丁目１９番１０－１２０５号,,13,103,1050001,,,,,,,2024-05-24,1,,,,,グッドウィルパートナーズ,0
1059,5010601065238,新規,0,2024-05-24,2024-05-24,株式会社ＥＩＴＥＩ,,株式会社,東京都,墨田区,亀沢１丁目５番１５号,,13,107,1300014,,,,,,,2024-05-24,1,,,,,エイテイ,0
1060,5010601065246,新規,0,2024-05-24,2024-05-24,久越株式会社,,株式会社,東京都,墨田区,両国２丁目１７番１７号両国ダイヤハイツ２０２－Ｗ,,13,107,1300026,,,,,,,2024-05-24,1,,,,,クエツ,0
1063,5010703007195,新規,0,2024-05-24,2024-05-24,合同会社ＴＭＣ,,合同会社,東京都,品川区,中延２丁目１４番１４号,,13,109,1420053,,,,,,,2024-05-24,1,,,,,ティーエムシー,0
1065,5010801035081,新規,0,2024-05-24,2024-05-24,トライアーク株式会社,,株式会社,東京都,大田区,羽田５丁目３番１号スカイプラザオフィス１０階,,13,111,1440043,,,,,,,2024-05-24,1,,,,,トライアーク,0
1075,5011101107430,新規,0,2024-05-24,2024-05-24,株式会社ｆａｒ　ａｗａｙ,,株式会社,東京都,新宿区,新宿６丁目２３番７－２０５号,,13,104,1600022,,,,,,,2024-05-24,1,,,,,ファーアウェイ,0
1076,5011103014451,新規,0,2024-05-24,2024-05-24,ｒｏｕｔｅ合同会社,,合同会社,東京都,新宿区,西五軒町１番２号,,13,104,1620812,,,,,,,2024-05-24,1,,,,,ルート,0
1080,5011201025499,新規,0,2024-05-24,2024-05-24,株式会社ｐｌｅａｓｕｒｅ,,株式会社,東京都,中野区,鷺宮３丁目２８番８号Ｐｒｉｎｃｉｐａｌ２０１,,13,114,1650032,,,,,,,2024-05-24,1,,,,,プレジャー,0
1081,5011801044279,新規,0,2024-05-24,2024-05-24,キョラク株式会社,,株式会社,東京都,足立区,西新井本町３丁目７番６号ＬＰ大師前２０２室,,13,121,1230845,,,,,,,2024-05-24,1,,,,,キョラク,0
1084,5011803006260,新規,0,2024-05-24,2024-05-24,合同会社ｙｍ．ｈａｎｄｙｍａｎ,,合同会社,東京都,足立区,西綾瀬２丁目１８番５号ティニメントハウス１Ｃ,,13,121,1200014,,,,,,,2024-05-24,1,,,,,ワイエムハンディーマン,0
1085,5012301013922,新規,0,2024-05-24,2024-05-24,株式会社広電設,,株式会社,東京都,町田市,小山町２５３４番地４,,13,209,1940212,,,,,,,2024-05-24,1,,,,,ヒロイデンセツ,0
1098,5020001157353,新規,0,2024-05-24,2024-05-24,株式会社ＳＡＭＢＡ,,株式会社,神奈川県,横浜市青葉区,新石川３丁目２９番地１,,14,117,2250003,,,,,,,2024-05-24,1,,,,,サンバ,0
1099,5020005016431,新規,0,2024-05-24,2024-05-24,特定非営利活動法人ＹＯＲＵＢＡ　ＡＳＳＯＣＩＡＴＩＯＮ　ＪＡＰＡＮ,,その他の設立登記法人,神奈川県,川崎市多摩区,菅５丁目１番１０－１０２号,,14,135,2140001,,,,,,,2024-05-24,1,,,,,ヨルバアソシエーションジャパン,0
1110,5030001160546,新規,0,2024-05-24,2024-05-24,Ｏｃｔａｎｅ株式会社,,株式会社,埼玉県,川口市,幸町１丁目３番３１－２０３号,,11,203,3320016,,,,,,,2024-05-24,1,,,,,オクタン,0
1114,5030003024369,新規,0,2024-05-24,2024-05-24,合同会社優,,合同会社,埼玉県,新座市,馬場４丁目５－２８,,11,230,3520016,,,,,,,2024-05-24,1,,,,,ユウ,0
1120,5040001133740,新規,0,2024-05-24,2024-05-24,ＨＡＣＨＩＫＯＵ不動産株式会社,,株式会社,千葉県,佐倉市,上志津１６７３－９１ハイホーム志津駅前１１２号,,12,212,2850846,,,,,,,2024-05-24,1,,,,,ハチコウフドウサン,0
1121,5040001133765,新規,0,2024-05-24,2024-05-24,株式会社菊地設計,,株式会社,千葉県,鎌ケ谷市,東道野辺４丁目３番６３号,,12,224,2730115,,,,,,,2024-05-24,1,,,,,キクチセッケイ,0
1122,5040001133773,新規,0,2024-05-24,2024-05-24,明月商事株式会社,,株式会社,千葉県,松戸市,大橋１３８－１,,12,207,2702224,,,,,,,2024-05-24,1,,,,,メイゲツショウジ,0
1124,5040003025060,新規,0,2024-05-24,2024-05-24,合同会社ＰＲＯフィット,,合同会社,千葉県,東金市,台方４４９－８,,12,213,2830811,,,,,,,2024-05-24,1,,,,,プロフィット,0
1137,5100001037472,新規,0,2024-05-24,2024-05-24,ＲＯＹＡＬ　ＪＡＰＡＮ　ＭＯＴＯＲＳ株式会社,,株式会社,長野県,上田市,真田町本原１６７２番地,,20,203,3862202,,,,,,,2024-05-24,1,,,,,ロイヤルジャパンモーターズ,0
1141,5110001038437,新規,0,2024-05-24,2024-05-24,株式会社Ｓｈｉｎｋａｉ　Ｄｉｇｉｔａｌ　Ｔｒａｎｓｐｏｒｔ,,株式会社,新潟県,長岡市,城内町３丁目４番地１４,,15,202,9400061,,,,,,,2024-05-24,1,,,,,シンカイデジタルトランスポート,0
1151,5120001265212,新規,0,2024-05-24,2024-05-24,株式会社ＷＩＣＫＹ,,株式会社,大阪府,大阪市西区,江戸堀２丁目１番１号江戸堀センタービル９階,,27,106,5500002,,,,,,,2024-05-24,1,,,,,ウィッキー,0
1152,5120001265245,新規,0,2024-05-24,2024-05-24,Ｕｌｔｉｍａ　Ｂｕｉｌｄｉｎｇ株式会社,,株式会社,大阪府,大阪市北区,梅田１丁目２番２号大阪駅前第２ビル２階５－６号室,,27,127,5300001,,,,,,,2024-05-24,1,,,,,アルテマビルディング,0
1153,5120001265253,新規,0,2024-05-24,2024-05-24,株式会社Ｂｅｓｔ,,株式会社,大阪府,大阪市東成区,中本５丁目２３番８－７０１号,,27,115,5370022,,,,,,,2024-05-24,1,,,,,ベスト,0
1154,5120001265261,新規,0,2024-05-24,2024-05-24,株式会社ＬＥＯＮエステート,,株式会社,大阪府,大阪市東成区,東今里２丁目１２番３号メゾン水内３０１号,,27,115,5370011,,,,,,,2024-05-24,1,,,,,レオンエステート,0
1155,5120001265294,新規,0,2024-05-24,2024-05-24,株式会社デジタルサイネージ大阪,,株式会社,大阪府,大阪市住吉区,墨江２丁目２番３５号,,27,120,5580043,,,,,,,2024-05-24,1,,,,,デジタルサイネージオオサカ,0
1166,5120101069653,新規,0,2024-05-24,2024-05-24,株式会社北野設備,,株式会社,大阪府,和泉市,内田町４丁目９番３号,,27,219,5941156,,,,,,,2024-05-24,1,,,,,キタノセツビ,0
1174,5140001134522,新規,0,2024-05-24,2024-05-24,タカラ通信株式会社,,株式会社,兵庫県,宝塚市,長谷字北阿弥陀１６番地,,28,214,6691204,,,,,,,2024-05-24,1,,,,,タカラツウシン,0
1180,5170003002047,新規,0,2024-05-24,2024-05-24,合同会社ＴＴＭ,,合同会社,和歌山県,和歌山市,杭ノ瀬４４９番地２７,,30,201,6410001,,,,,,,2024-05-24,1,,,,,ティーティーエム,0
1187,5180001161653,新規,0,2024-05-24,2024-05-24,株式会社ＣＳＣ,,株式会社,愛知県,名古屋市中区,丸の内１丁目１４番２４号ライオンズビル第二丸の内４０２,,23,106,4600002,,,,,,,2024-05-24,1,,,,,シーエスシー,0
1188,5180001161661,新規,0,2024-05-24,2024-05-24,エムケイジャパン株式会社,,株式会社,愛知県,名古屋市緑区,大高町字北大高畑３０番地,,23,114,4598001,,,,,,,2024-05-24,1,,,,,エムケイジャパン,0
1194,5180003026813,新規,0,2024-05-24,2024-05-24,ブルーストーンエイド合同会社,,合同会社,愛知県,名古屋市東区,葵３丁目２５－２０ニューコーポ千種橋３０３,,23,102,4610004,,,,,,,2024-05-24,1,,,,,ブルーストーンエイド,0
1203,5200003006358,新規,0,2024-05-24,2024-05-24,合同会社ランナー,,合同会社,岐阜県,岐阜市,大黒町１丁目９番地ミワビル１階,,21,201,5008151,,,,,,,2024-05-24,1,,,,,,0
1208,5240001063265,新規,0,2024-05-24,2024-05-24,ＨＭＣ株式会社,,株式会社,広島県,広島市安佐南区,山本１丁目２５番２７号,,34,105,7310137,,,,,,,2024-05-24,1,,,,,エイチエムシー,0
1215,5260003004694,新規,0,2024-05-24,2024-05-24,合同会社トライ,,合同会社,岡山県,岡山市南区,北浦７７０番地１,,33,104,7028012,,,,,,,2024-05-24,1,,,,,トライ,0
1224,5290001105797,新規,0,2024-05-24,2024-05-24,株式会社加登住商店,,株式会社,福岡県,宗像市,桜１丁目２８０番地－７１,,40,220,8114166,,,,,,,2024-05-24,1,,,,,,0
1225,5290001105806,新規,0,2024-05-24,2024-05-24,ＣＪＭ株式会社,,株式会社,福岡県,福岡市中央区,春吉３丁目１１番１９－１０４号,,40,133,8100003,,,,,,,2024-05-24,1,,,,,シージェイエム,0
1226,5290001105855,新規,0,2024-05-24,2024-05-24,株式会社ふくほく商事,,株式会社,福岡県,福岡市中央区,天神４丁目６－２８天神ファーストビル７階,,40,133,8100001,,,,,,,2024-05-24,1,,,,,フクホクショウジ,0
1227,5290001105863,新規,0,2024-05-24,2024-05-24,株式会社ＧＯＬＡＮＤ,,株式会社,福岡県,糟屋郡新宮町,大字立花口７６７番地１１,,40,345,8110102,,,,,,,2024-05-24,1,,,,,ゴーランド,0
1228,5290001105871,新規,0,2024-05-24,2024-05-24,トラスト＆ライト株式会社,,株式会社,福岡県,福岡市南区,那の川２丁目４番３２－１１０８号,00134894,40,134,8150081,,,,,,,2024-05-24,1,,,,,トラストアンドライト,0
1229,5290001105896,新規,0,2024-05-24,2024-05-24,株式会社太平洋自動車,,株式会社,福岡県,古賀市,新原９８３番地１３,,40,223,8113127,,,,,,,2024-05-24,1,,,,,タイヘイヨウジドウシャ,0
1233,5290003015326,新規,0,2024-05-24,2024-05-24,合同会社Ｇｒｉｎｄ,,合同会社,福岡県,福岡市中央区,天神４丁目６番２８号７階,,40,133,8100001,,,,,,,2024-05-24,1,,,,,グラインド,0
1234,5290003015334,新規,0,2024-05-24,2024-05-24,合同会社ＴＳＵＥＮ　ＦＵ　ＡＵＴＯ　ＰＡＲＴＳ　ＪＡＰＡＮ,,合同会社,福岡県,福岡市博多区,祇園町８番１２－７２４号ロータリー大和,,40,132,8120038,,,,,,,2024-05-24,1,,,,,チュィンフーオートパーツジャパン,0
1235,5290003015359,新規,0,2024-05-24,2024-05-24,美里バイオマス発電所合同会社,,合同会社,福岡県,福岡市早良区,百道浜２丁目４番２７号ＡＩビル６Ｆ,,40,137,8140001,,,,,,,2024-05-24,1,,,,,ミサトバイオマスハツデンショ,0
1239,5290801030591,新規,0,2024-05-24,2024-05-24,株式会社ひばり,,株式会社,福岡県,鞍手郡鞍手町,大字中山２７６８番地１５,,40,402,8071312,,,,,,,2024-05-24,1,,,,,ヒバリ,0
1244,5370001051331,新規,0,2024-05-24,2024-05-24,株式会社Ｃ‐ＮＥＸＴ,,株式会社,宮城県,遠田郡美里町,字化粧坂１１番地４２,,04,505,9870034,,,,,,,2024-05-24,1,,,,,シーネクスト,0
1254,5420003002921,新規,0,2024-05-24,2024-05-24,トヨシマエンジニアリング合同会社,,合同会社,青森県,東津軽郡平内町,大字小湊字下タ田１‐５,,02,301,0393321,,,,,,,2024-05-24,1,,,,,トヨシマエンジニアリング,0
1256,5430001091874,新規,0,2024-05-24,2024-05-24,山洋設備株式会社,,株式会社,北海道,札幌市東区,北三十七条東６丁目３番１号１Ｆ,,01,103,0070837,,,,,,,2024-05-24,1,,,,,サンヨウセツビ,0
1257,5430001091882,新規,0,2024-05-24,2024-05-24,ＦＯＸ　Ａｃａｄｅｍｙ株式会社,,株式会社,北海道,札幌市中央区,北五条西１１丁目１５番地４,,01,101,0600005,,,,,,,2024-05-24,1,,,,,フォックスアカデミー,0
1263,5470001020219,新規,0,2024-05-24,2024-05-24,株式会社和みファクトリー,,株式会社,香川県,高松市,東山崎町８７番地１,,37,201,7610312,,,,,,,2024-05-24,1,,,,,ナゴミファクトリー,0
1266,5700150116735,新規,0,2024-05-24,2024-05-24,Ｂｅｖｅｒｌｙ　Ｇｌｅｎ　Ｌａｂｏｒａｔｏｒｉｅｓ，Ｉｎｃ．,,外国会社等,,,,,,,,４６７５　ＭａｃＡｒｔｈｕｒ　Ｃｏｕｒｔ　Ｓｕｉｔｅ　４７０，Ｎｅｗｐｏｒｔ　Ｂｅａｃｈ，ＣＡ,,,,,,2024-05-24,1,,,,,ビバリーグレンラボラトリーズインク,0
1267,5700150118558,新規,0,2024-05-24,2024-05-24,Ｓｈｅｎｚｈｅｎｓｈｉｓｅｎｄｅｘｉｎｋｅｊｉｙｏｕｘｉａｎｇｏｎｇｓｉ,,外国会社等,,,,,,,,Ｒｍ２０３，ＬｉｘｉｎＲｄ１６，Ｎａｎｗａｎ　Ｓｔｒｅｅｔ　Ｓｈｅｎｚｈｅｎ　ＬｏｎｇＧａｎｇ　ＧｕａｎｇＤｏｎｇ　５１８０００　ＣＮ,,,,,,2024-05-24,1,,,,,シェンジェンシスンダシンクージヨウシエンゴンス,0
1268,5700150120720,新規,0,2024-05-24,2024-05-24,ｓｈｅｎｚｈｅｎｓｈｉｙｏｕｄａｎｄｉａｎｚｉｋｅｊｉｙｏｕｘｉａｎｇｏｎｇｓｉ,,外国会社等,,,,,,,,ｂａｏａｎｑｕｘｉｘｉａｎｇｊｉｅｄａｏｌｅｑｕｎｓｈｅｑｕｂａｏｌｅｙｉｘｉａｎｇ１９ｈａｏ９０９　ｓｈｅｎｚｈｅｎｓｈｉ,,,,,,2024-05-24,1,,,,,シェンジェンシヨウダンディエンズコァジヨウシエンゴンス,0
1269,5700150122394,新規,0,2024-05-24,2024-05-24,ｚｈｏｎｇｓｈａｎｓｈｉ　Ｈａｉｎａ　Ｅ－ｃｏｍｍｅｒｃｅ　Ｓｅｖｉｃｅ　Ｌｔｄ．,,外国会社等,,,,,,,,ｚｈｏｎｇｓｈａｎｓｈｉ　ｈｕｏｊｕｋａｉｆａｑｕ　ｌｉｕｈｅｓｈｅｑｕ　ｊｉａｎｇｌｉｎｘｉｌｕ２ｈａｏ４ｄｏｎｇ５ｌｏｕＢ－２２８　ｚｈｏｎｇｓｈａｎｓｈｉ　ｇｕａｎｇｄｏｎｇ,,,,,,2024-05-24,1,,,,,ジョンシャンシハイナディエンズシャンウフゥウヨウシエンゴンス,0
1270,5700150125579,新規,0,2024-05-24,2024-05-24,ｈａｎｇｚｈｏｕｈｕａｙｕｄｉａｎｚｉｓｈａｎｇｗｕｙｏｕｘｉａｎｇｏｎｇｓｉ,,外国会社等,,,,,,,,ｚｈｅｊｉａｎｇｓｈｅｎｇ，ｈａｎｇｚｈｏｕｓｈｉ，ｘｉａｏｓｈａｎｑｕ，ｂｅｉｇａｎｊｉｅｄａｏ，ｚｈｏｎｇｙｉｎｇｓｈａｎｇｗｕｚｈｏｎｇｘｉｎ２０２ｓｈｉ,,,,,,2024-05-24,1,,,,,ハーンジョウホワユイディエンズーシャーンウーヨウシエンゴーンスー,0
1280,6010001244250,新規,0,2024-05-24,2024-05-24,株式会社ＣｉＹ,,株式会社,東京都,中央区,京橋３丁目１－１東京スクエアガーデン１４Ｆ,,13,102,1040031,,,,,,,2024-05-24,1,,,,,シーアイワイ,0
1281,6010001244762,新規,0,2024-05-24,2024-05-24,株式会社ＹＯＳＨＩＫＡＷＡ,,株式会社,東京都,文京区,千石２丁目３１－４,,13,105,1120011,,,,,,,2024-05-24,1,,,,,ヨシカワ,0
1282,6010001245091,新規,0,2024-05-24,2024-05-24,株式会社スミビトケムリ,,株式会社,東京都,千代田区,鍛冶町１丁目６番５号,,13,101,1010044,,,,,,,2024-05-24,1,,,,,スミビトケムリ,0
1283,6010001245117,新規,0,2024-05-24,2024-05-24,ｄｓプロパティマネジメント株式会社,,株式会社,東京都,中央区,東日本橋１丁目２番３－９０１号,,13,102,1030004,,,,,,,2024-05-24,1,,,,,ディーエスプロパティマネジメント,0
1284,6010001245125,新規,0,2024-05-24,2024-05-24,東京桜彩医療健康管理株式会社,,株式会社,東京都,中央区,日本橋小舟町１２番３号,,13,102,1030024,,,,,,,2024-05-24,1,,,,,トウキョウオウサイイリョウケンコウカンリ,0
1285,6010001245141,新規,0,2024-05-24,2024-05-24,株式会社ＭＩアドバンス,,株式会社,東京都,中央区,日本橋蛎殻町１丁目３番５号共同ビル５３号室,,13,102,1030014,,,,,,,2024-05-24,1,,,,,エムアイアドバンス,0
1287,6010003043849,新規,0,2024-05-24,2024-05-24,合同会社ＮｉＨｏ,,合同会社,東京都,中央区,銀座１丁目２２番１１号銀座大竹ビジデンス２Ｆ,,13,102,1040061,,,,,,,2024-05-24,1,,,,,ニホ,0
1288,6010005038335,新規,0,2024-05-24,2024-05-24,京都東山アセット特定目的会社,,その他の設立登記法人,東京都,千代田区,二番町３番地麹町スクエア株式会社シリウス・アドバイザリー内,,13,101,1020084,,,,,,,2024-05-24,1,,,,,キョウトヒガシヤマアセット,0
1289,6010101016153,新規,0,2024-05-24,2024-05-24,株式会社Ｏｃｅａｎ,,株式会社,東京都,八王子市,子安町１丁目３９番１－９１２号,,13,201,1920904,,,,,,,2024-05-24,1,,,,,オーシャン,0
1295,6010401182587,新規,0,2024-05-24,2024-05-24,株式会社Ａチーム,,株式会社,東京都,港区,南青山３丁目１番３６号青山丸竹ビル６Ｆ,,13,103,1070062,,,,,,,2024-05-24,1,,,,,エーチーム,0
1296,6010401182686,新規,0,2024-05-24,2024-05-24,株式会社ｃｒｒ,,株式会社,東京都,港区,南青山１丁目１５番１８号リーラ乃木坂１１０１,,13,103,1070062,,,,,,,2024-05-24,1,,,,,チロ,0
1297,6010401182694,新規,0,2024-05-24,2024-05-24,株式会社ラッフィナータ,,株式会社,東京都,港区,三田２丁目３番３４号,,13,103,1080073,,,,,,,2024-05-24,1,,,,,ラッフィナータ,0
1300,6010403032666,新規,0,2024-05-24,2024-05-24,Ｌキャタルトン・ジャパン・ファンド合同会社,,合同会社,東京都,港区,六本木１丁目９番１０号アークヒルズ仙石山森タワー４０階,,13,103,1060032,,,,,,,2024-05-24,1,,,,,エルキャタルトンジャパンファンド,0
1308,6010601065261,新規,0,2024-05-24,2024-05-24,株式会社ブルーム,,株式会社,東京都,江東区,青海２丁目７番４号ｔｈｅＳＯＨＯ,,13,108,1350064,,,,,,,2024-05-24,1,,,,,ブルーム,0
1309,6010701046046,新規,0,2024-05-24,2024-05-24,株式会社ＲＥＮ,,株式会社,東京都,品川区,西五反田３丁目１３番１１号２０２号室,,13,109,1410031,,,,,,,2024-05-24,1,,,,,レン,0
1311,6010901055326,新規,0,2024-05-24,2024-05-24,株式会社幸,,株式会社,東京都,世田谷区,野毛２丁目２０番２３－３１２号,,13,112,1580092,,,,,,,2024-05-24,1,,,,,コウ,0
1317,6011001161790,新規,0,2024-05-24,2024-05-24,株式会社ルミエール,,株式会社,東京都,渋谷区,渋谷３丁目２６番１７号,,13,113,1500002,,,,,,,2024-05-24,1,,,,,ルミエール,0
1318,6011001162203,新規,0,2024-05-24,2024-05-24,株式会社ＹＮＳ,,株式会社,東京都,渋谷区,渋谷２丁目１９－１５宮益坂ビルディング６０９,,13,113,1500002,,,,,,,2024-05-24,1,,,,,ワイエヌエス,0
1319,6011001162236,新規,0,2024-05-24,2024-05-24,株式会社Ｔｈｅ　Ｍｏｓｔ,,株式会社,東京都,渋谷区,神宮前４丁目３番４号Ｂａｒｂｉｚｏｎ７ＡＮＮＥＸＢ１Ｆ,,13,113,1500001,,,,,,,2024-05-24,1,,,,,ザモスト,0
1320,6011001162244,新規,0,2024-05-24,2024-05-24,株式会社くん,,株式会社,東京都,渋谷区,上原３丁目２３－５,,13,113,1510064,,,,,,,2024-05-24,1,,,,,クン,0
1322,6011003019194,新規,0,2024-05-24,2024-05-24,合同会社レイドバック,,合同会社,東京都,渋谷区,東２丁目３番４号,,13,113,1500011,,,,,,,2024-05-24,1,,,,,レイドバック,0
1323,6011003019260,新規,0,2024-05-24,2024-05-24,合同会社ＥＮＴＥＲＶＩＢＥ,,合同会社,東京都,目黒区,原町１丁目７番１０号メゾン・エルーセラ５０２,,13,110,1520011,,,,,,,2024-05-24,1,,,,,エンターバイブ,0
1324,6011101107413,新規,0,2024-05-24,2024-05-24,Ｎｅｘｔ　Ａｎｇｅｌ株式会社,,株式会社,東京都,新宿区,新宿７丁目２７番１２－７０７号,,13,104,1600022,,,,,,,2024-05-24,1,,,,,ネクストエンジェル,0
1325,6011105011033,新規,0,2024-05-24,2024-05-24,一般社団法人０１研究会,,その他の設立登記法人,東京都,新宿区,四谷２丁目９番地１５東京ユナイテッド綜合事務所内,,13,104,1600004,,,,,,,2024-05-24,1,,,,,ゼロワンケンキュウカイ,0
1331,6011505002631,新規,0,2024-05-24,2024-05-24,一般社団法人ガルヴィア,,その他の設立登記法人,東京都,北区,堀船２丁目２６番１８号,,13,117,1140004,,,,,,,2024-05-24,1,,,,,ガルヴィア,0
1339,6011801044278,新規,0,2024-05-24,2024-05-24,宇野商事株式会社,,株式会社,東京都,葛飾区,立石１丁目１－７－２０２京成立石ビル,,13,122,1240012,,,,,,,2024-05-24,1,,,,,ウノショウジ,0
1342,6011803006251,新規,0,2024-05-24,2024-05-24,合同会社Ｓｈｉｎｒａ,,合同会社,東京都,葛飾区,水元５丁目３－１６,,13,122,1250032,,,,,,,2024-05-24,1,,,,,シンラ,0
1345,6012801023197,新規,0,2024-05-24,2024-05-24,株式会社小嶋設備,,株式会社,東京都,武蔵村山市,三ツ木２丁目４５番地の１４,,13,223,2080032,,,,,,,2024-05-24,1,,,,,コジマセツビ,0
1346,6012803003412,新規,0,2024-05-24,2024-05-24,Ｓ・Ｓ・ＧＲＯＵＰ合同会社,,合同会社,東京都,立川市,錦町１丁目６番１０号,,13,202,1900022,,,,,,,2024-05-24,1,,,,,エスエスグループ,0
1347,6013101009424,新規,0,2024-05-24,2024-05-24,ファンタサイズ株式会社,,株式会社,東京都,青梅市,東青梅２丁目４番地の１７,,13,205,1980042,,,,,,,2024-05-24,1,,,,,ファンタサイズ,0
1352,6020001157328,新規,0,2024-05-24,2024-05-24,株式会社アスライト,,株式会社,神奈川県,横浜市港南区,港南台１丁目３６番２６号,,14,111,2340054,,,,,,,2024-05-24,1,,,,,アスライト,0
1355,6020005016430,新規,0,2024-05-24,2024-05-24,弁護士法人シーガル総合法律事務所,,その他の設立登記法人,神奈川県,横浜市中区,山下町１５５ＮＫビル３０１,,14,104,2310023,,,,,,,2024-05-24,1,,,,,シーガルソウゴウホウリツジムショ,0
1360,6021001082292,新規,0,2024-05-24,2024-05-24,株式会社あっこ,,株式会社,神奈川県,横須賀市,衣笠栄町１丁目２番地５－２階,,14,201,2380031,,,,,,,2024-05-24,1,,,,,アッコ,0
1363,6021003014558,新規,0,2024-05-24,2024-05-24,合同会社クエストフォーミッション,,合同会社,神奈川県,藤沢市,藤沢９７１番地の３パール湘南５Ｆ,,14,205,2510052,,,,,,,2024-05-24,1,,,,,クエストフォーミッション,0
1368,6030001160529,新規,0,2024-05-24,2024-05-24,株式会社ボーハン,,株式会社,埼玉県,深谷市,大塚３２５－１,,11,218,3660003,,,,,,,2024-05-24,1,,,,,ボーハン,0
1369,6030001160537,新規,0,2024-05-24,2024-05-24,株式会社久遠,,株式会社,埼玉県,入間市,小谷田１丁目７番２４号,,11,225,3580026,,,,,,,2024-05-24,1,,,,,クオン,0
1370,6030001160545,新規,0,2024-05-24,2024-05-24,株式会社ＷＯＬＦ,,株式会社,埼玉県,さいたま市北区,日進町２丁目６６８番地ル・シエロ２０２,,11,102,3310823,,,,,,,2024-05-24,1,,,,,ウルフ,0
1371,6030001160553,新規,0,2024-05-24,2024-05-24,株式会社ミラモグ,,株式会社,埼玉県,川口市,川口６丁目３番１４号３Ｆ,,11,203,3320015,,,,,,,2024-05-24,1,,,,,ミラモグ,0
1376,6030003024343,新規,0,2024-05-24,2024-05-24,合同会社Ｃ‐Ｃｏｌｌｅｃｔｉｏｎ,,合同会社,埼玉県,上尾市,春日１丁目３３－４,,11,219,3620074,,,,,,,2024-05-24,1,,,,,シーコレクション,0
1378,6040001133748,新規,0,2024-05-24,2024-05-24,株式会社ボタラシアンリゾート,,株式会社,千葉県,市川市,東大和田２丁目４番１０号,,12,203,2720026,,,,,,,2024-05-24,1,,,,,ボタラシアンリゾート,0
1379,6040001133756,新規,0,2024-05-24,2024-05-24,株式会社ＦＵＮ　ＷＡＶＥ　ＪＡＰＡＮ,,株式会社,千葉県,習志野市,本大久保３丁目９番２１号,,12,216,2750012,,,,,,,2024-05-24,1,,,,,ファンウェーブジャパン,0
1380,6040001133772,新規,0,2024-05-24,2024-05-24,ママクックホールディングス株式会社,,株式会社,千葉県,四街道市,大日２８４番地１７,,12,228,2840001,,,,,,,2024-05-24,1,,,,,ママクックホールディングス,0
1385,6040003025043,新規,0,2024-05-24,2024-05-24,Ｇｒｅｅｎ　Ｉｎｔｅｒｎａｔｉｏｎａｌ合同会社,,合同会社,千葉県,八千代市,下市場２丁目１９番８号,,12,221,2760026,,,,,,,2024-05-24,1,,,,,グリーンインターナショナル,0
1386,6040003025068,新規,0,2024-05-24,2024-05-24,合同会社Ｗｅｌｌ‐ｂｅａｕｔｙ,,合同会社,千葉県,船橋市,印内２丁目３番２－３０１号,,12,204,2730039,,,,,,,2024-05-24,1,,,,,ウェルビューティー,0
1389,6050003008402,新規,0,2024-05-24,2024-05-24,合同会社Ｇｒｅｅｎｉｒｉｓ,,合同会社,茨城県,取手市,下高井２４４９番１２－１０１,,08,217,3020038,,,,,,,2024-05-24,1,,,,,,0
1395,6060001037138,新規,0,2024-05-24,2024-05-24,扇屋株式会社,,株式会社,栃木県,那須郡那須町,大字高久甲５２３５番地１,,09,407,3250001,,,,,,,2024-05-24,1,,,,,オウギヤ,0
1398,6080001026320,新規,0,2024-05-24,2024-05-24,株式会社リアルフェイス,,株式会社,静岡県,焼津市,小川２５３８番地の２,,22,212,4250033,,,,,,,2024-05-24,1,,,,,リアルフェイス,0
1400,6100001037496,新規,0,2024-05-24,2024-05-24,株式会社ＥＮ４Ｃｏｎｎｅｃｔ,,株式会社,長野県,長野市,大字南長野新田町１１１０番地５,,20,201,3800835,,,,,,,2024-05-24,1,,,,,イーエヌフォーコネクト,0
1407,6120001265252,新規,0,2024-05-24,2024-05-24,ＭＲインターナショナル株式会社,,株式会社,大阪府,大阪市中央区,東心斎橋１丁目１２番１４号,,27,128,5420083,,,,,,,2024-05-24,1,,,,,エムアールインターナショナル,0
1408,6120001265260,新規,0,2024-05-24,2024-05-24,株式会社ＴＥＮ,,株式会社,大阪府,大阪市西成区,天下茶屋東２丁目１２番２１号,,27,122,5570011,,,,,,,2024-05-24,1,,,,,テン,0
1409,6120001265277,新規,0,2024-05-24,2024-05-24,株式会社Ｋｉｉｔｏｓ,,株式会社,大阪府,大阪市城東区,新喜多１丁目９番２号,,27,118,5360015,,,,,,,2024-05-24,1,,,,,キートス,0
1420,6120101069628,新規,0,2024-05-24,2024-05-24,株式会社プレスリリース,,株式会社,大阪府,和泉市,池田下町１０１５番地,,27,219,5940032,,,,,,,2024-05-24,1,,,,,プレスリリース,0
1421,6120101069644,新規,0,2024-05-24,2024-05-24,株式会社ＭＲＩ,,株式会社,大阪府,堺市北区,百舌鳥陵南町２丁６２６番地,,27,146,5918034,,,,,,,2024-05-24,1,,,,,ミライ,0
1422,6120101069652,新規,0,2024-05-24,2024-05-24,Ａｈｍｅｄ　Ｇｒｏｕｐ株式会社,,株式会社,大阪府,和泉市,青葉台１丁目１７－１３－２階,,27,219,5941153,,,,,,,2024-05-24,1,,,,,アハマドグループ,0
1424,6120905006611,新規,0,2024-05-24,2024-05-24,一般社団法人伊藤家の食卓,,その他の設立登記法人,大阪府,高槻市,氷室町２丁目３６番６号,,27,207,5691141,,,,,,,2024-05-24,1,,,,,イトウケノショクタク,0
1433,6140001134521,新規,0,2024-05-24,2024-05-24,第一メンテナー株式会社,,株式会社,兵庫県,神戸市灘区,灘北通６丁目３番地５・１階,,28,102,6570835,,,,,,,2024-05-24,1,,,,,ダイイチメンテナー,0
1442,6180001161594,新規,0,2024-05-24,2024-05-24,株式会社ＡｌｌｅｙＧｉｆｔ,,株式会社,愛知県,名古屋市東区,矢田２丁目１４－１６,,23,102,4610040,,,,,,,2024-05-24,1,,,,,アリーギフト,0
1443,6180001161652,新規,0,2024-05-24,2024-05-24,株式会社光南ホーム,,株式会社,愛知県,名古屋市中村区,名駅４丁目２４番５号第２森ビル４０１,,23,105,4500002,,,,,,,2024-05-24,1,,,,,コウナンホーム,0
1444,6180001161669,新規,0,2024-05-24,2024-05-24,株式会社エイチ・ディ,,株式会社,愛知県,尾張旭市,東本地ケ原町４丁目１１０番地１,,23,226,4880033,,,,,,,2024-05-24,1,,,,,エイチディ,0
1448,6180003026837,新規,0,2024-05-24,2024-05-24,ＳＡＫＩＹＡ合同会社,,合同会社,愛知県,名古屋市中区,千代田２丁目１５番１７号ＳＵＺＵＫＩビル２階Ｃ,,23,106,4600012,,,,,,,2024-05-24,1,,,,,サキヤ,0
1457,6200001042536,新規,0,2024-05-24,2024-05-24,株式会社リベルテ,,株式会社,岐阜県,多治見市,音羽町３丁目２１番地サンシティー音羽２０２号室,,21,204,5070037,,,,,,,2024-05-24,1,,,,,リベルテ,0
1458,6200003006357,新規,0,2024-05-24,2024-05-24,ケッティング合同会社,,合同会社,岐阜県,各務原市,桜木町４丁目１４番地,,21,213,5090127,,,,,,,2024-05-24,1,,,,,ケッティング,0
1460,6210001019764,新規,0,2024-05-24,2024-05-24,株式会社雲丸製作所,,株式会社,福井県,大飯郡おおい町,大島第１６８号１番地３３,,18,483,9192101,,,,,,,2024-05-24,1,,,,,クモマルセイサクショ,0
1461,6220003003757,新規,0,2024-05-24,2024-05-24,ｐｌｅｘ合同会社,,合同会社,石川県,能美市,荒屋町ヘ３３番地,,17,211,9231233,,,,,,,2024-05-24,1,,,,,プレックス,0
1463,6240001063272,新規,0,2024-05-24,2024-05-24,株式会社ＣａＬＴｅｔ,,株式会社,広島県,福山市,沖野上町２丁目８番４号,,34,207,7200825,,,,,,,2024-05-24,1,,,,,カルテット,0
1472,6290001105813,新規,0,2024-05-24,2024-05-24,株式会社ＡＳＳＩＳＴ　ＷＯＲＫＳ,,株式会社,福岡県,福岡市南区,大楠２丁目２３番２６号ＰＨＯＥＮＩＸ平尾南１０５号,,40,134,8150082,,,,,,,2024-05-24,1,,,,,,0
1473,6290001105846,新規,0,2024-05-24,2024-05-24,Ｂｌｕｅｓｋｙ株式会社,,株式会社,福岡県,福岡市城南区,片江２丁目１４番１９－６０４号,,40,136,8140142,,,,,,,2024-05-24,1,,,,,ブルースカイ,0
1474,6290001105862,新規,0,2024-05-24,2024-05-24,株式会社ＡＮＴＦ,,株式会社,福岡県,福岡市中央区,薬院３丁目７番８－８０１号スクエア薬院プレミアム,,40,133,8100022,,,,,,,2024-05-24,1,,,,,エーエヌティーエフ,0
1475,6290001105870,新規,0,2024-05-24,2024-05-24,株式会社リンク,,株式会社,福岡県,大牟田市,黄金町２丁目４９番地,,40,202,8360872,,,,,,,2024-05-24,1,,,,,リンク,0
1476,6290001105887,新規,0,2024-05-24,2024-05-24,株式会社未来エッグ,,株式会社,福岡県,福岡市中央区,舞鶴２丁目８番６号３０９,,40,133,8100073,,,,,,,2024-05-24,1,,,,,,0
1477,6290001105904,新規,0,2024-05-24,2024-05-24,エスペランサ湧株式会社,,株式会社,福岡県,筑紫野市,二日市中央５丁目１７番２７号,,40,217,8180072,,,,,,,2024-05-24,1,,,,,エスペランサユウ,0
1480,6290003015358,新規,0,2024-05-24,2024-05-24,合同会社ＭＡ　Ｌａｂｏ,,合同会社,福岡県,福岡市中央区,草香江１丁目８番１号,,40,133,8100045,,,,,,,2024-05-24,1,,,,,エムエーラボ,0
1481,6290003015366,新規,0,2024-05-24,2024-05-24,ｃｏｃｏｄｅｓｉｇｎ合同会社,,合同会社,福岡県,糟屋郡宇美町,原田１丁目１７－１,,40,341,8112132,,,,,,,2024-05-24,1,,,,,,0
1482,6320001020488,新規,0,2024-05-24,2024-05-24,玖珠オートモビリティ株式会社,,株式会社,大分県,玖珠郡玖珠町,大字山田２９１番地の１,,44,462,8794412,,,,,,,2024-05-24,1,,,,,クスオートモビリティ,0
1483,6330001032094,新規,0,2024-05-24,2024-05-24,大恵株式会社,,株式会社,熊本県,熊本市北区,麻生田４丁目３－３３,,43,105,8618081,,,,,,,2024-05-24,1,,,,,ダイケイ,0
1487,6340001026525,新規,0,2024-05-24,2024-05-24,株式会社ライト,,株式会社,鹿児島県,枕崎市,大塚南町２４２番地,,46,204,8980029,,,,,,,2024-05-24,1,,,,,ライト,0
1489,6360001033676,新規,0,2024-05-24,2024-05-24,株式会社ＲＦ,,株式会社,沖縄県,島尻郡与那原町,字板良敷５２３番地,,47,348,9011301,,,,,,,2024-05-24,1,,,,,アールエフ,0
1490,6360003013981,新規,0,2024-05-24,2024-05-24,合同会社はなさき,,合同会社,沖縄県,那覇市,前島３丁目６番１８号Ｔ氏店舗１０１,,47,201,9000016,,,,,,,2024-05-24,1,,,,,ハナサキ,0
1492,6370001051314,新規,0,2024-05-24,2024-05-24,株式会社Ｒａｉｓｅ,,株式会社,宮城県,仙台市太白区,富沢３丁目２３番２０号グレース・Ａ１０６,,04,104,9820032,,,,,,,2024-05-24,1,,,,,レイズ,0
1493,6370001051330,新規,0,2024-05-24,2024-05-24,株式会社商楽,,株式会社,宮城県,仙台市泉区,館２丁目１番地の１１０,,04,105,9813214,,,,,,,2024-05-24,1,,,,,ショウラク,0
1495,6380001034565,新規,0,2024-05-24,2024-05-24,Ｅ・Ｍ・Ｉ・スポーツ株式会社,,株式会社,福島県,須賀川市,大久保字花見堂１６２番地,,07,207,9620312,,,,,,,2024-05-24,1,,,,,イーエムアイスポーツ,0
1510,6470001020218,新規,0,2024-05-24,2024-05-24,株式会社マチなみ,,株式会社,香川県,高松市,塩上町１丁目３番７号,,37,201,7600062,,,,,,,2024-05-24,1,,,,,マチナミ,0
1519,6700150114845,新規,0,2024-05-24,2024-05-24,Ｉｎｓｉｔｕ　Ｐａｃｉｆｉｃ　Ｐｔｙ　Ｌｔｄ,,外国会社等,,,,,,,,９５　Ｍｉｎａ　Ｐａｒａｄｅ　Ａｌｄｅｒｌｅｙ，Ｑｕｅｅｎｓｌａｎｄ　４０５１，Ａｕｓｔｒａｌｉａ,,,,,,2024-05-24,1,,,,,インシツツパシフイツクピーテイワイエルテイデー,0
1520,6700150118400,新規,0,2024-05-24,2024-05-24,Ｎｉｎｇｂｏｃｈｅｎｇｆｅｎｇｄｉａｎｚｉｓｈａｎｇｗｕｙｏｕｘｉａｎｇｏｎｇｓｉ,,外国会社等,,,,,,,,Ｊｉａｎｇｂｅｉｑｕｔｏｎｇｊｉｌｕ２２７ｈａｏ１４－２　Ｎｉｎｇｂｏ　Ｚｈｅｊｉａｎｇ,,,,,,2024-05-24,1,,,,,ニンボーチョンフォンディエンズシャンウヨウシェンゴンス,0
1521,6700150125553,新規,0,2024-05-24,2024-05-24,Ｍ．Ｓ．Ｎ　ＦＩＳＨ　ＤＥＡＬＥＲＳ,,外国会社等,茨城県,龍ケ崎市,出し山町１１６番地２ロイヤル・コート１０５号,,08,208,3010839,スリランカ民主社会主義共和国、ネゴンボ、クダパドゥワ、セメタリーロードＮｏ．６２／８,,,,,,2024-05-24,1,,,,,エムエスエヌフイツシユデイーラーズ,0
1522,6700150125578,新規,0,2024-05-24,2024-05-24,Ｄｏｎｇｇｕａｎｓｈｉ　ｎｉｕｂｏ　ｄｉａｎｚｉ　ｋｅｊｉ　ｙｏｕｘｉａｎ　ｇｏｎｇｓｉ,,外国会社等,,,,,,,,ｈｅｎｇｌｉｚｈｅｎ，ｓｈｉｃｈｏｎｇｃｈａｎｇｈｏｎｇｓｉｌｕ　２７ｈａｏ　３ｈａｏｌｏｕ　２０５ｆａｎｇ，ｄｏｎｇｇｕａｎ，ｇｕａｎｇｄｏｎｇ,,,,,,2024-05-24,1,,,,,ドーングワンシーニウポーディエンズーコーァジーヨウシエンゴーンスー,0
1537,7010001244992,新規,0,2024-05-24,2024-05-24,株式会社ＴｒｅｅＫｏｍ,,株式会社,東京都,中央区,湊３丁目８－１－２２０１号,,13,102,1040043,,,,,,,2024-05-24,1,,,,,トゥリーコム,0
1546,7010101016136,新規,0,2024-05-24,2024-05-24,ＡＬＬＩＮ株式会社,,株式会社,東京都,八王子市,横川町７２番地２,,13,201,1930823,,,,,,,2024-05-24,1,,,,,,0
1556,7010401182479,新規,0,2024-05-24,2024-05-24,Ｄｏｇｅ　ＡＩ株式会社,,株式会社,東京都,港区,南青山４丁目１８番１１号フォレストヒルズイーストウィング２階,,13,103,1070062,,,,,,,2024-05-24,1,,,,,ドージエーアイ,0
1557,7010401182611,新規,0,2024-05-24,2024-05-24,ＴＯＮＯＭＥ株式会社,,株式会社,東京都,港区,北青山１丁目３－１アールキューブ青山３階,,13,103,1070061,,,,,,,2024-05-24,1,,,,,トノミー,0
1558,7010401182677,新規,0,2024-05-24,2024-05-24,株式会社アイレスト,,株式会社,東京都,港区,浜松町１丁目１８番１１号,,13,103,1050013,,,,,,,2024-05-24,1,,,,,アイレスト,0
1559,7010401182702,新規,0,2024-05-24,2024-05-24,株式会社アキレス,,株式会社,東京都,港区,新橋４丁目３１番３号第３名和ビル,,13,103,1050004,,,,,,,2024-05-24,1,,,,,アキレス,0
1565,7010501052301,新規,0,2024-05-24,2024-05-24,株式会社有禧,,株式会社,東京都,台東区,東上野３丁目１８－１－２０６,,13,106,1100015,,,,,,,2024-05-24,1,,,,,アリキ,0
1566,7010601065252,新規,0,2024-05-24,2024-05-24,株式会社ＳＬＧ,,株式会社,東京都,江東区,豊洲１丁目２番３３－３０５号,,13,108,1350061,,,,,,,2024-05-24,1,,,,,エスエルジー,0
1574,7010901055341,新規,0,2024-05-24,2024-05-24,株式会社ＴＨＥ　ＰＡＲＫ　ＳＨＯＰ,,株式会社,東京都,世田谷区,深沢４丁目３６番２４号,,13,112,1580081,,,,,,,2024-05-24,1,,,,,ザパークショップ,0
1581,7011001162004,新規,0,2024-05-24,2024-05-24,株式会社ＧＯＡＴ　ＢＲＡＮＤ,,株式会社,東京都,渋谷区,渋谷２丁目１９番１５号宮益坂ビルディング６０９,,13,113,1500002,,,,,,,2024-05-24,1,,,,,ゴートブランド,0
1582,7011001162111,新規,0,2024-05-24,2024-05-24,株式会社減災ソリューションズ,,株式会社,東京都,渋谷区,渋谷２丁目３番４号,,13,113,1500002,,,,,,,2024-05-24,1,,,,,ゲンサイソリューションズ,0
1584,7011005010530,新規,0,2024-05-24,2024-05-24,一般社団法人日本総合脱毛協会,,その他の設立登記法人,東京都,渋谷区,恵比寿４丁目２２番８－５０１号,,13,113,1500013,,,,,,,2024-05-24,1,,,,,ニホンソウゴウダツモウキョウカイ,0
1589,7011101107420,新規,0,2024-05-24,2024-05-24,Ｓａｍａｒａｉｚｕ株式会社,,株式会社,東京都,新宿区,大京町３１－４,,13,104,1600015,,,,,,,2024-05-24,1,,,,,サマライズ,0
1591,7011103014425,新規,0,2024-05-24,2024-05-24,合同会社プロジェクト０１,,合同会社,東京都,新宿区,四谷２丁目９番地１５東京ユナイテッド綜合事務所内,,13,104,1600004,,,,,,,2024-05-24,1,,,,,プロジェクトゼロワン,0
1599,7011701027316,新規,0,2024-05-24,2024-05-24,株式会社サン・ホーム,,株式会社,東京都,江戸川区,中葛西７丁目６番２３号,,13,123,1340083,,,,,,,2024-05-24,1,,,,,サンホーム,0
1601,7011703003827,新規,0,2024-05-24,2024-05-24,合同会社ｐｏｒｔｏ,,合同会社,東京都,江戸川区,谷河内２丁目１２番地８号,,13,123,1330002,,,,,,,2024-05-24,1,,,,,ポルト,0
1607,7011803006259,新規,0,2024-05-24,2024-05-24,合同会社ＳＧＮ,,合同会社,東京都,足立区,江北１丁目１番７号,,13,121,1230872,,,,,,,2024-05-24,1,,,,,エスジーエヌ,0
1608,7012401041912,新規,0,2024-05-24,2024-05-24,チサリスアート株式会社,,株式会社,東京都,調布市,東つつじケ丘２丁目３０番地４ＹＳコア１０２,,13,208,1820005,,,,,,,2024-05-24,1,,,,,チサリスアート,0
1610,7012801023196,新規,0,2024-05-24,2024-05-24,株式会社セーレンス,,株式会社,東京都,国分寺市,東元町２丁目２０－４ｐｒｅｄｉｏｓｏｒｔｅ１Ｆ,,13,214,1850022,,,,,,,2024-05-24,1,,,,,セーレンス,0
1615,7020001157392,新規,0,2024-05-24,2024-05-24,株式会社Ｇｏｏｄ　Ｓｍｉｌｅ,,株式会社,神奈川県,横浜市金沢区,富岡東５丁目１７－２１ＷＥＬＬＨＯＵＳＥ１０１,,14,108,2360051,,,,,,,2024-05-24,1,,,,,グッドスマイル,0
1616,7020001157401,新規,0,2024-05-24,2024-05-24,株式会社テンポスター,,株式会社,神奈川県,横浜市西区,伊勢町３丁目１３３番地２３,,14,103,2200045,,,,,,,2024-05-24,1,,,,,テンポスター,0
1620,7020003026199,新規,0,2024-05-24,2024-05-24,合同会社トゥルース,,合同会社,神奈川県,横浜市鶴見区,岸谷２丁目１２－１－１０３,,14,101,2300078,,,,,,,2024-05-24,1,,,,,トゥルース,0
1621,7021001021893,新規,0,2024-05-24,2024-05-24,株式会社コーヨー,,株式会社,神奈川県,伊勢原市,鈴川６番地,,14,214,2591146,,,,,,,2024-05-24,1,,,,,コーヨー,0
1628,7030001160528,新規,0,2024-05-24,2024-05-24,ＯＫ　ＴＲＡＤＥ　ＡＳＳＩＳＴ株式会社,,株式会社,埼玉県,児玉郡上里町,大字堤２９９番地１,,11,385,3690313,,,,,,,2024-05-24,1,,,,,オーケートレードアシスト,0
1629,7040001052014,新規,0,2024-05-24,2024-05-24,千葉緑化土木株式会社,,株式会社,千葉県,君津市,貞元９１５番地,,12,225,2991133,,,,,,,2024-05-24,1,,,,,チバリョクカドボク,0
1638,7040001133631,新規,0,2024-05-24,2024-05-24,株式会社ＷＥＬＬＶＹ,,株式会社,千葉県,柏市,高柳１４８３番地１３,,12,217,2770941,,,,,,,2024-05-24,1,,,,,ウェルビー,0
1639,7040001133722,新規,0,2024-05-24,2024-05-24,株式会社エボルファーマーズ,,株式会社,千葉県,香取市,高萩１番地１０,,12,236,2870101,,,,,,,2024-05-24,1,,,,,エボルファーマーズ,0
1640,7040001133747,新規,0,2024-05-24,2024-05-24,株式会社ＤＡＯＤＥＳＩＧＮ,,株式会社,千葉県,市川市,南八幡４丁目５番４号ＦＵＪＩビル３階,,12,203,2720023,,,,,,,2024-05-24,1,,,,,ダオデザイン,0
1641,7040001133771,新規,0,2024-05-24,2024-05-24,イー・スペック株式会社,,株式会社,千葉県,千葉市中央区,富士見１丁目１４番１３号千葉大栄ビル８Ｆ,,12,101,2600015,,,,,,,2024-05-24,1,,,,,イースペック,0
1645,7040003025001,新規,0,2024-05-24,2024-05-24,ｇｅｅｋ合同会社,,合同会社,千葉県,成田市,花崎町５２３,,12,211,2860033,,,,,,,2024-05-24,1,,,,,ギーク,0
1654,7060001037137,新規,0,2024-05-24,2024-05-24,株式会社Ｈｏｎｅｓｔ１,,株式会社,栃木県,足利市,西砂原後町１１６８番地５,,09,202,3260065,,,,,,,2024-05-24,1,,,,,ホーネストワン,0
1655,7060003005059,新規,0,2024-05-24,2024-05-24,合同会社エベレスト,,合同会社,栃木県,足利市,山下町１０４６番地１シャトー２２－１０１,,09,202,3260846,,,,,,,2024-05-24,1,,,,,エベレスト,0
1666,7110001038427,新規,0,2024-05-24,2024-05-24,株式会社Ｔｅｔｈｅｒ　Ｌｉｇｈｔ,,株式会社,新潟県,新潟市西区,五十嵐２の町８０５０番地産学連携共同研究棟１号棟ＮＯＴＴＨＥＵＮＩＶＥＲＳＩＴＹ,,15,107,9502102,,,,,,,2024-05-24,1,,,,,テザーライト,0
1667,7110001038435,新規,0,2024-05-24,2024-05-24,カンクマホールディングス株式会社,,株式会社,新潟県,燕市,杉柳９１２番地１,,15,213,9591272,,,,,,,2024-05-24,1,,,,,カンクマホールディングス,0
1681,7120001265243,新規,0,2024-05-24,2024-05-24,株式会社ｉｎｆｉｎｉｔｙ,,株式会社,大阪府,大阪市北区,曾根崎２丁目１５番３１－４４０７号,,27,127,5300057,,,,,,,2024-05-24,1,,,,,インフィニティ,0
1682,7120001265276,新規,0,2024-05-24,2024-05-24,株式会社ＣＲｅＬｅ,,株式会社,大阪府,大阪市北区,梅田１丁目１－３大阪駅前第３ビル２９階１－１－１号室,,27,127,5300001,,,,,,,2024-05-24,1,,,,,クリレ,0
1687,7120003026676,新規,0,2024-05-24,2024-05-24,東升合同会社,,合同会社,大阪府,大阪市西区,西本町１丁目１０番２２号ＡＸＩＳ西本町ビル１０２,,27,106,5500005,,,,,,,2024-05-24,1,,,,,トウショウ,0
1688,7120003026684,新規,0,2024-05-24,2024-05-24,合同会社Ｄｕｃｌｅ,,合同会社,大阪府,大阪市西区,北堀江３丁目５番５号,,27,106,5500014,,,,,,,2024-05-24,1,,,,,デュクレ,0
1693,7120101069651,新規,0,2024-05-24,2024-05-24,株式会社大和工業,,株式会社,大阪府,大阪狭山市,西山台２丁目６番１２号,,27,231,5890022,,,,,,,2024-05-24,1,,,,,ヤマトコウギョウ,0
1694,7120103005852,新規,0,2024-05-24,2024-05-24,合同会社こんど,,合同会社,大阪府,堺市堺区,山本町３丁７５番地１１,,27,141,5900983,,,,,,,2024-05-24,1,,,,,コンド,0
1702,7130003009589,新規,0,2024-05-24,2024-05-24,合同会社圓,,合同会社,京都府,京都市左京区,岡崎徳成町２８番地１５,,26,103,6068351,,,,,,,2024-05-24,1,,,,,エン,0
1705,7140001134520,新規,0,2024-05-24,2024-05-24,株式会社Ｆａｒｍ　ｐｌｕｓ　Ｓｋｙ＆Ｅａｒｔｈ,,株式会社,兵庫県,佐用郡佐用町,横坂１８７番地１,,28,501,6795341,,,,,,,2024-05-24,1,,,,,ファームプラススカイアンドアース,0
1706,7140001134553,新規,0,2024-05-24,2024-05-24,株式会社エヌプラス,,株式会社,兵庫県,尼崎市,東難波町４丁目４番１７号ニットー東難波２Ｆ,,28,202,6600892,,,,,,,2024-05-24,1,,,,,エヌプラス,0
1713,7180001161577,新規,0,2024-05-24,2024-05-24,株式会社ＫＥＬＬＹ　ＤＯＲ,,株式会社,愛知県,名古屋市中区,栄３丁目３５番３４号,,23,106,4600008,,,,,,,2024-05-24,1,,,,,ケリードール,0
1714,7180001161627,新規,0,2024-05-24,2024-05-24,株式会社メガンテ,,株式会社,愛知県,春日井市,朝宮町１丁目３番地３、３番地４、３番地５、３番地６、３番地７,,23,206,4860846,,,,,,,2024-05-24,1,,,,,メガンテ,0
1715,7180001161676,新規,0,2024-05-24,2024-05-24,株式会社黄海商事,,株式会社,愛知県,一宮市,奥町字野方７２番地２,,23,203,4910201,,,,,,,2024-05-24,1,,,,,コウカイショウジ,0
1723,7200001042543,新規,0,2024-05-24,2024-05-24,株式会社グッドラック,,株式会社,岐阜県,関市,倉知８３０,,21,205,5013936,,,,,,,2024-05-24,1,,,,,グッドラック,0
1724,7210001019771,新規,0,2024-05-24,2024-05-24,ネクストワイズプラン株式会社,,株式会社,福井県,福井市,中央３丁目４番２０号,,18,201,9100006,,,,,,,2024-05-24,1,,,,,ネクストワイズプラン,0
1733,7240003006682,新規,0,2024-05-24,2024-05-24,合同会社ＤＡＹ,,合同会社,広島県,広島市中区,鉄砲町７番２８－３０２号,,34,101,7300017,,,,,,,2024-05-24,1,,,,,ディーエーワイ,0
1737,7260001039096,新規,0,2024-05-24,2024-05-24,株式会社夢希,,株式会社,岡山県,倉敷市,片島町２９０番地６,,33,202,7100805,,,,,,,2024-05-24,1,,,,,ユメキ,0
1739,7260003004692,新規,0,2024-05-24,2024-05-24,合同会社ｋｕＲＥＩｓｕ,,合同会社,岡山県,岡山市南区,西市２９０番地３（４０５）,,33,104,7000953,,,,,,,2024-05-24,1,,,,,クレイス,0
1741,7280001009188,新規,0,2024-05-24,2024-05-24,アルファー株式会社,,株式会社,島根県,雲南市,三刀屋町三刀屋３７５番地１,,32,209,6902404,,,,,,,2024-05-24,1,,,,,アルファー,0
1746,7290001105820,新規,0,2024-05-24,2024-05-24,株式会社ＮＩＴＥＣ,,株式会社,福岡県,福岡市南区,花畑１丁目２０番４６号,,40,134,8111356,,,,,,,2024-05-24,1,,,,,エヌアイテック,0
1747,7290001105837,新規,0,2024-05-24,2024-05-24,株式会社ゆずひこ,,株式会社,福岡県,福岡市中央区,天神２丁目２番１２号,,40,133,8100001,,,,,,,2024-05-24,1,,,,,ユズヒコ,0
1748,7290001105853,新規,0,2024-05-24,2024-05-24,ＡＬＬＣＯＭＰＡＮＹ株式会社,,株式会社,福岡県,糟屋郡粕屋町,戸原東２丁目８番１６,,40,349,8112318,,,,,,,2024-05-24,1,,,,,オールカンパニー,0
1749,7290001105861,新規,0,2024-05-24,2024-05-24,株式会社ｓａｉｏ,,株式会社,福岡県,福津市,中央６丁目１１番２号,,40,224,8113217,,,,,,,2024-05-24,1,,,,,サイオウ,0
1750,7290001105878,新規,0,2024-05-24,2024-05-24,１９９０株式会社,,株式会社,福岡県,福岡市博多区,下呉服町９番２１－５０６号カルチェ恵比寿,,40,132,8120034,,,,,,,2024-05-24,1,,,,,ナインティーンナインティ,0
1751,7290001105886,新規,0,2024-05-24,2024-05-24,河喜多株式会社,,株式会社,福岡県,福岡市南区,五十川２丁目１２番２４－１０３号,,40,134,8150001,,,,,,,2024-05-24,1,,,,,カワキタ,0
1759,7320001020487,新規,0,2024-05-24,2024-05-24,ＹＭ　ＩＮＴＥＲＮＡＴＩＯＮＡＬ株式会社,,株式会社,大分県,別府市,大字鶴見８１７番地の２１,,44,202,8740840,,,,,,,2024-05-24,1,,,,,ワイエムインターナショナル,0
1766,7340001026532,新規,0,2024-05-24,2024-05-24,株式会社ファイブセル,,株式会社,鹿児島県,鹿児島市,西千石町１番３０号パークハイツ８０２号,,46,201,8920847,,,,,,,2024-05-24,1,,,,,ファイブセル,0
1780,7410005006589,新規,0,2024-05-24,2024-05-24,一般社団法人フォレストカルチャー,,その他の設立登記法人,秋田県,鹿角市,十和田大湯字下ノ湯７番地１,,05,209,0185421,,,,,,,2024-05-24,1,,,,,フォレストカルチャー,0
1790,7462501000995,新規,0,2024-05-24,2024-05-24,株式会社ＨＡＮＥＩＳＨＩ　ＤＡＩＲＹ　ＦＡＲＭ,,株式会社,北海道,野付郡別海町,中西別３９番地２１,,01,691,0860345,,,,,,,2024-05-24,1,,,,,ハネイシデーリィファーム,0
1796,7700150116345,新規,0,2024-05-24,2024-05-24,ＺＦ　Ｏｒｉｅｎｔａｌ　２　Ｌｉｍｉｔｅｄ,,外国会社等,,,,,,,,ＦＬＡＴ／ＲＭ　１９０６　１９／Ｆ　ＬＥＥ　ＧＡＲＤＥＮ　ＯＮＥ　３３　ＨＹＳＡＮ　ＡＶＥＮＵＥ　ＣＡＵＳＥＷＡＹ　ＢＡＹ，Ｈｏｎｇ　ｋｏｎｇ,,,,,,2024-05-24,1,,,,,ゼツトエフオリエンタルツーリミテツド,0
1797,7700150122376,新規,0,2024-05-24,2024-05-24,ＩＣ　ＢＯＳＳ　ＣＯＭ　ＴＥＣＨ　ＩＮＣ,,外国会社等,,,,,,,,４Ｆ　Ｎｏ１７０　Ｊｉａｎｋａｎｇ　Ｒｄ　Ｚｈｏｎｇｈｅ　Ｄｉｓｔ　Ｎｅｗ　Ｔａｉｐｅｉ　Ｃｉｔｙ　２３５８５　ＴＷ,,,,,,2024-05-24,1,,,,,ヤチイグワンディエングゥフェンヨウシエンゴンス,0
1798,7700150125552,新規,0,2024-05-24,2024-05-24,Ｉｎｓｐｉｒｅ　Ｉｎｔｅｇｒａｔｅｄ　Ｒｅｓｏｒｔ　Ｃｏ．，Ｌｔｄ．,,外国会社等,東京都,中央区,日本橋３丁目９番１号日本橋三丁目スクエア１１階,,13,102,1030027,大韓民国仁川広域市中区空港文化路１２７（雲西洞）,,,,,,2024-05-24,1,,,,,インスパイアインテグレーテツドリゾートシーオーエルテイーデイー,0
1799,7700150125577,新規,0,2024-05-24,2024-05-24,Ｂａｉ　Ｄｉａｎ　Ｉｎｔｅｌｌｅｃｔｕａｌ　Ｐｒｏｐｅｒｔｙ　Ａｇｅｎｃｙ　Ｌｔｄ．,,外国会社等,,,,,,,,ｂａｎｔｉａｎｊｉｅｄａｏ，ｎａｎｋｅｎｇｓｈｅｑｕ，ｗｕｈｅｄａｄａｏ（ｎａｎ）４１ｈａｏ，ｈｅｋａｎｇｏｎｇｙｅｑｕＡ３ｄｏｎｇ４ｃｅｎｇ４０２，Ｓｈｅｎｚｈｅｎｓｈｉ，ｌｏｎｇｇａｎｇｑｕ，Ｇｕａｎｇｄｏｎｇｓｈｅｎｇ,,,,,,2024-05-24,1,,,,,シェンジェンシーバイディエンジーシーチャンチュエンダイリーヨウシエンゴーンスー,0
1818,8010001245073,新規,0,2024-05-24,2024-05-24,ＣＭＦ株式会社,,株式会社,東京都,千代田区,飯田橋１丁目１２番７号ＭＳビル６階,,13,101,1020072,,,,,,,2024-05-24,1,,,,,シーエムエフ,0
1823,8010003043822,新規,0,2024-05-24,2024-05-24,合同会社ＧＥ　Ｍａｎａｇｅｍｅｎｔ,,合同会社,東京都,千代田区,外神田６丁目１４番７号ＶＯＲＴ末広町７階,,13,101,1010021,,,,,,,2024-05-24,1,,,,,ジーイーマネジメント,0
1824,8010005038333,新規,0,2024-05-24,2024-05-24,一般社団法人ＥＯ　Ｋａｎａｇａｗａ,,その他の設立登記法人,東京都,千代田区,神田多町２丁目１１番地２８中林ビル２階,,13,101,1010046,,,,,,,2024-05-24,1,,,,,イーオーカナガワ,0
1826,8010401182296,新規,0,2024-05-24,2024-05-24,国際自動車大阪株式会社,,株式会社,東京都,港区,赤坂２丁目８番６号,,13,103,1070052,,,,,,,2024-05-24,1,,,,,コクサイジドウシャオオサカ,0
1827,8010401182610,新規,0,2024-05-24,2024-05-24,株式会社ＴＨＯＵＳＡＮＤ　ＴＨＩＮＧＳ,,株式会社,東京都,港区,西新橋３丁目２４－９飯田ビル６階,,13,103,1050003,,,,,,,2024-05-24,1,,,,,サウザンドシングス,0
1828,8010401182627,新規,0,2024-05-24,2024-05-24,ＡＣＴＥＬＬＩＧＥＮＴ株式会社,,株式会社,東京都,港区,赤坂２丁目５－８，ヒューリックＪＰ赤坂ビル３Ｆ－６Ｆ,,13,103,1070052,,,,,,,2024-05-24,1,,,,,アクティリジェント,0
1831,8010403032672,新規,0,2024-05-24,2024-05-24,合同会社ＧＥ２,,合同会社,東京都,港区,東新橋２丁目６番６号,,13,103,1050021,,,,,,,2024-05-24,1,,,,,ジーイーツー,0
1836,8010601065251,新規,0,2024-05-24,2024-05-24,株式会社ＢＥＴＴＥＲ　ＴＥＸ　ＴＯＫＹＯ,,株式会社,東京都,江東区,森下３丁目１０番２６－４０５号,,13,108,1350004,,,,,,,2024-05-24,1,,,,,ベターテックストウキョウ,0
1839,8010701046044,新規,0,2024-05-24,2024-05-24,グリン株式会社,,株式会社,東京都,品川区,上大崎３丁目２－１,,13,109,1410021,,,,,,,2024-05-24,1,,,,,グリン,0
1842,8010801035079,新規,0,2024-05-24,2024-05-24,株式会社ＣＯＬＬＥＴ,,株式会社,東京都,大田区,上池台５丁目３８番１６号,,13,111,1450064,,,,,,,2024-05-24,1,,,,,コレット,0
1848,8010901055340,新規,0,2024-05-24,2024-05-24,Ｍ．Ｙ　Ｓｔｕｄｉｏ株式会社,,株式会社,東京都,世田谷区,桜１丁目２番１３号,,13,112,1560053,,,,,,,2024-05-24,1,,,,,エムワイスタジオ,0
1851,8011001162127,新規,0,2024-05-24,2024-05-24,株式会社ＫＯＭＥＴＥ,,株式会社,東京都,渋谷区,恵比寿南３丁目１０番１４－２１４号,,13,113,1500022,,,,,,,2024-05-24,1,,,,,コメテ,0
1852,8011001162135,新規,0,2024-05-24,2024-05-24,株式会社Ｌｉｅｎｔ,,株式会社,東京都,目黒区,八雲５丁目１１番１３号,,13,110,1520023,,,,,,,2024-05-24,1,,,,,リエント,0
1853,8011001162143,新規,0,2024-05-24,2024-05-24,株式会社０１プロダクション,,株式会社,東京都,渋谷区,道玄坂１丁目１０番８号渋谷道玄坂東急ビル２Ｆ－Ｃ,,13,113,1500043,,,,,,,2024-05-24,1,,,,,レイチプロダクション,0
1854,8011003019201,新規,0,2024-05-24,2024-05-24,合同会社ＩＸＳ,,合同会社,東京都,渋谷区,東４丁目６番２２号ビューノ南青山１０２,,13,113,1500011,,,,,,,2024-05-24,1,,,,,イクス,0
1855,8011003019250,新規,0,2024-05-24,2024-05-24,ブロート合同会社,,合同会社,東京都,渋谷区,道玄坂１丁目１６－６二葉ビル８ｂ,,13,113,1500043,,,,,,,2024-05-24,1,,,,,ブロート,0
1865,8011101107378,新規,0,2024-05-24,2024-05-24,株式会社マクスター,,株式会社,東京都,新宿区,西新宿５丁目１番１号ラ・トゥール新宿ファースト２４１０号室,,13,104,1600023,,,,,,,2024-05-24,1,,,,,マクスター,0
1866,8011101107394,新規,0,2024-05-24,2024-05-24,株式会社組織の左腕,,株式会社,東京都,新宿区,西新宿７丁目７番３３号新銘ビル２Ｆ,,13,104,1600023,,,,,,,2024-05-24,1,,,,,ソシキノヒダリウデ,0
1867,8011101107428,新規,0,2024-05-24,2024-05-24,百川株式会社,,株式会社,東京都,新宿区,百人町１丁目２０－５ＡＣＱＵＡビル１０２,,13,104,1690073,,,,,,,2024-05-24,1,,,,,モモカワ,0
1868,8011101107436,新規,0,2024-05-24,2024-05-24,ＡＫ　Ｇｌｏｂａｌ　Ｆｏｏｄｓ株式会社,,株式会社,東京都,新宿区,西新宿３丁目２－９新宿ワシントンホテルビル本館２Ｆ,,13,104,1600023,,,,,,,2024-05-24,1,,,,,エーケーグローバルフーズ,0
1869,8011101107444,新規,0,2024-05-24,2024-05-24,アジアンエンターテイメント株式会社,,株式会社,東京都,新宿区,歌舞伎町１丁目１７番１１号プレーンシティ新宿ビル２Ｆ,,13,104,1600021,,,,,,,2024-05-24,1,,,,,アジアンエンターテイメント,0
1874,8011503006079,新規,0,2024-05-24,2024-05-24,合同会社ＨＫＮキャピタル・パートナーズ,,合同会社,東京都,荒川区,東日暮里５丁目６番１１号ビラサンリーベ２０１,,13,118,1160014,,,,,,,2024-05-24,1,,,,,エイチケーエヌキャピタルパートナーズ,0
1876,8011701027298,新規,0,2024-05-24,2024-05-24,株式会社プリバーダ,,株式会社,東京都,江戸川区,平井１丁目１２番３－５０４号,,13,123,1320035,,,,,,,2024-05-24,1,,,,,プリバーダ,0
1877,8011701027307,新規,0,2024-05-24,2024-05-24,株式会社Ｅｎｄｌｅｓｓ,,株式会社,東京都,江戸川区,瑞江２丁目５番３号グレイス瑞江２Ｆ,,13,123,1320011,,,,,,,2024-05-24,1,,,,,エンドレス,0
1882,8012303001996,新規,0,2024-05-24,2024-05-24,合同会社エイトウェーブス,,合同会社,東京都,町田市,小山ヶ丘５丁目２１－３,,13,209,1940215,,,,,,,2024-05-24,1,,,,,エイトウェーブス,0
1889,8012805003276,新規,0,2024-05-24,2024-05-24,一般社団法人高次脳機能障がい協議会りんく,,その他の設立登記法人,東京都,国立市,中１丁目２０番３３号松澤方,,13,215,1860004,,,,,,,2024-05-24,1,,,,,コウジノウキノウショウガイキョウギカイリンク,0
1895,8020001157292,新規,0,2024-05-24,2024-05-24,株式会社エフミート,,株式会社,神奈川県,川崎市川崎区,東扇島２４番地日本食肉流通センター内Ｆ－３０４,,14,131,2100869,,,,,,,2024-05-24,1,,,,,エフミート,0
1896,8020001157391,新規,0,2024-05-24,2024-05-24,株式会社フィールドエイト,,株式会社,神奈川県,横浜市中区,竹之丸１４０－１６,,14,104,2310847,,,,,,,2024-05-24,1,,,,,フィールドエイト,0
1897,8020001157400,新規,0,2024-05-24,2024-05-24,タニホームエクステリア株式会社,,株式会社,神奈川県,横浜市金沢区,谷津町３１０番地エクセル金沢文庫２０３,,14,108,2360016,,,,,,,2024-05-24,1,,,,,タニホームエクステリア,0
1898,8020001157409,新規,0,2024-05-24,2024-05-24,ル・ヴァン・クレール株式会社,,株式会社,神奈川県,川崎市中原区,木月大町５－８－４０５,,14,133,2110031,,,,,,,2024-05-24,1,,,,,ルヴァンクレール,0
1899,8020003026198,新規,0,2024-05-24,2024-05-24,合同会社ａｌｏｎｅｅ,,合同会社,神奈川県,川崎市宮前区,有馬６丁目２１番２９号,,14,136,2160003,,,,,,,2024-05-24,1,,,,,アローニー,0
1903,8021001082324,新規,0,2024-05-24,2024-05-24,株式会社ＰＭ　ＧＯＬＤ,,株式会社,神奈川県,平塚市,田村９丁目５番４号,,14,203,2540013,,,,,,,2024-05-24,1,,,,,ピーエムゴールド,0
1904,8021003014523,新規,0,2024-05-24,2024-05-24,合同会社ＲＥＮＯＪＩ,,合同会社,神奈川県,藤沢市,亀井野１４１８番４号,,14,205,2520813,,,,,,,2024-05-24,1,,,,,レノジ,0
1909,8030001160535,新規,0,2024-05-24,2024-05-24,光進プロペラ株式会社,,株式会社,埼玉県,深谷市,黒田１８２９番地６,,11,218,3691244,,,,,,,2024-05-24,1,,,,,コウシンプロペラ,0
1910,8030001160543,新規,0,2024-05-24,2024-05-24,株式会社Ｈ＆Ｓ,,株式会社,埼玉県,久喜市,久喜中央１丁目１５番７３－５２１号,,11,232,3460003,,,,,,,2024-05-24,1,,,,,エイチアンドエス,0
1911,8030001160551,新規,0,2024-05-24,2024-05-24,株式会社ＺＥＲＯ’ｎｅ,,株式会社,埼玉県,和光市,白子１丁目２８番１号トキワコーポ１０２,,11,229,3510101,,,,,,,2024-05-24,1,,,,,ゼロワン,0
1919,8040001133746,新規,0,2024-05-24,2024-05-24,株式会社タカハシ,,株式会社,千葉県,松戸市,金ケ作３５９番地,,12,207,2702251,,,,,,,2024-05-24,1,,,,,タカハシ,0
1920,8040001133754,新規,0,2024-05-24,2024-05-24,株式会社創喜ホールディングス,,株式会社,千葉県,君津市,人見１５９３番地５４,,12,225,2991147,,,,,,,2024-05-24,1,,,,,ソウキホールディングス,0
1921,8040001133762,新規,0,2024-05-24,2024-05-24,株式会社Ｋ・Ｗ・Ｔ　ＷＯＲＫＳ,,株式会社,千葉県,市川市,日之出４番１６号ジュネス・アイ１０３号,,12,203,2720135,,,,,,,2024-05-24,1,,,,,ケーダブリューティーワークス,0
1929,8050001054818,新規,0,2024-05-24,2024-05-24,株式会社ＬａＹＬ,,株式会社,茨城県,結城市,大字結城１０３８３番地２,,08,207,3070001,,,,,,,2024-05-24,1,,,,,レイル,0
1931,8050003008400,新規,0,2024-05-24,2024-05-24,ＧＭＹ合同会社,,合同会社,茨城県,水戸市,本町３丁目１１番１８号,,08,201,3100815,,,,,,,2024-05-24,1,,,,,ジーエムワイ,0
1932,8050005013448,新規,0,2024-05-24,2024-05-24,一般社団法人ｒｅｃｈａｒｃ,,その他の設立登記法人,茨城県,鉾田市,鉾田１０９,,08,234,3111517,,,,,,,2024-05-24,1,,,,,リチャーク,0
1935,8060001037136,新規,0,2024-05-24,2024-05-24,株式会社Ｙ’ｓ,,株式会社,栃木県,佐野市,牧町８９２番地,,09,204,3270513,,,,,,,2024-05-24,1,,,,,ワイズ,0
1939,8060003005090,新規,0,2024-05-24,2024-05-24,ＳＵＬＴＡＮ　ＴＲＡＤＥＲＳ合同会社,,合同会社,栃木県,栃木市,岩舟町新里１３０４番地１号室,,09,203,3294316,,,,,,,2024-05-24,1,,,,,サルタントレーダーズ,0
1940,8070003005429,新規,0,2024-05-24,2024-05-24,ＢＯＯＭ合同会社,,合同会社,群馬県,高崎市,上大類町１２７５－１弐番ＮＡＧＡＹＡ丁号,,10,202,3700031,,,,,,,2024-05-24,1,,,,,ブーム,0
1945,8110001038434,新規,0,2024-05-24,2024-05-24,株式会社星辰,,株式会社,新潟県,佐渡市,水渡田６８８番地１,,15,224,9521205,,,,,,,2024-05-24,1,,,,,セイタツ,0
1953,8120001265242,新規,0,2024-05-24,2024-05-24,星月株式会社,,株式会社,大阪府,大阪市港区,港晴３丁目１番１１－５０３Ｂ,,27,107,5520023,,,,,,,2024-05-24,1,,,,,ホシヅキ,0
1954,8120001265267,新規,0,2024-05-24,2024-05-24,クラウドビーンズ株式会社,,株式会社,大阪府,大阪市淀川区,西中島５丁目７番１９－４０６号,,27,123,5320011,,,,,,,2024-05-24,1,,,,,クラウドビーンズ,0
1955,8120001265275,新規,0,2024-05-24,2024-05-24,株式会社ＨＥＡＲＴＳ,,株式会社,大阪府,大阪市淀川区,加島４丁目１４番１１号グリシーナ３０３号,,27,123,5320031,,,,,,,2024-05-24,1,,,,,ハーツ,0
1956,8120001265291,新規,0,2024-05-24,2024-05-24,株式会社アノパーク,,株式会社,大阪府,大阪市旭区,千林２丁目１１番３２号Ｌｕａｎａ２０１号室,,27,117,5350012,,,,,,,2024-05-24,1,,,,,アノパーク,0
1957,8120001265300,新規,0,2024-05-24,2024-05-24,株式会社ＹＦ,,株式会社,大阪府,大阪市港区,磯路３丁目２４－２５,,27,107,5520003,,,,,,,2024-05-24,1,,,,,ワイエフ,0
1958,8120003026675,新規,0,2024-05-24,2024-05-24,合同会社ｅｃｌａｔ,,合同会社,大阪府,大阪市北区,梅田１丁目２番２号大阪駅前第２ビル１２－１２,,27,127,5300001,,,,,,,2024-05-24,1,,,,,エクラ,0
1959,8120003026683,新規,0,2024-05-24,2024-05-24,ＯＧＴ合同会社,,合同会社,大阪府,大阪市中央区,西心斎橋２丁目１０番１０号,,27,128,5420086,,,,,,,2024-05-24,1,,,,,オージーティー,0
1963,8120101069650,新規,0,2024-05-24,2024-05-24,Ｋｅｍａｒｉ８７株式会社,,株式会社,大阪府,岸和田市,宮本町４１番２４号,,27,202,5960054,,,,,,,2024-05-24,1,,,,,ケマリハチジュウナナ,0
1965,8130001077109,新規,0,2024-05-24,2024-05-24,株式会社ＭＩＧ,,株式会社,京都府,京都市伏見区,竹田藁屋町５０番地,,26,109,6128443,,,,,,,2024-05-24,1,,,,,エムアイジー,0
1976,8140003020610,新規,0,2024-05-24,2024-05-24,合同会社ＬＯＣＯＭＯ,,合同会社,兵庫県,姫路市,南新在家１３番１７号,,28,201,6700093,,,,,,,2024-05-24,1,,,,,ロコモ,0
1977,8150003003267,新規,0,2024-05-24,2024-05-24,合同会社ネコアシサービス,,合同会社,奈良県,奈良市,押熊町４７９番地の３柳本住宅２０１号,,29,201,6310011,,,,,,,2024-05-24,1,,,,,ネコアシサービス,0
1978,8160001025948,新規,0,2024-05-24,2024-05-24,株式会社上村装蹄所,,株式会社,滋賀県,栗東市,林５６０番地１０,,25,208,5203043,,,,,,,2024-05-24,1,,,,,ウエムラソウテイショ,0
1986,8180001161601,新規,0,2024-05-24,2024-05-24,株式会社麗櫃映像プロダクション,,株式会社,愛知県,名古屋市中区,栄４丁目１２番１号栄グリーンマンション７０２号,,23,106,4600008,,,,,,,2024-05-24,1,,,,,レイキエイゾウプロダクション,0
1987,8180001161618,新規,0,2024-05-24,2024-05-24,株式会社ＥＭＡ,,株式会社,愛知県,津島市,愛宕町１丁目６４番地,,23,208,4960036,,,,,,,2024-05-24,1,,,,,イーエムエー,0
1988,8180001161667,新規,0,2024-05-24,2024-05-24,株式会社アセットホールディングス,,株式会社,愛知県,名古屋市中村区,草薙町１丁目５８番地の２,,23,105,4530064,,,,,,,2024-05-24,1,,,,,アセットホールディングス,0
1989,8180001161675,新規,0,2024-05-24,2024-05-24,株式会社ルーチェ,,株式会社,愛知県,名古屋市名東区,社台１丁目２２４番地の１,,23,115,4650092,,,,,,,2024-05-24,1,,,,,ルーチェ,0
1990,8180001161683,新規,0,2024-05-24,2024-05-24,ＡｉｒＢｅａｎｓ株式会社,,株式会社,愛知県,名古屋市中村区,名駅４丁目６－２３第三堀内ビル９Ｆ,,23,105,4500002,,,,,,,2024-05-24,1,,,,,エアビーンズ,0
1993,8180003026802,新規,0,2024-05-24,2024-05-24,合同会社スターランド,,合同会社,愛知県,一宮市,中町１丁目２番１０号,,23,203,4910913,,,,,,,2024-05-24,1,,,,,スターランド,0
1994,8180003026835,新規,0,2024-05-24,2024-05-24,合同会社ＫＩＺＵＮＡ,,合同会社,愛知県,名古屋市北区,楠味鋺４丁目１６１２番地の２,,23,103,4620014,,,,,,,2024-05-24,1,,,,,キズナ,0
2001,8220001026023,新規,0,2024-05-24,2024-05-24,栄くりえいと株式会社,,株式会社,石川県,金沢市,専光寺町ヲ１８０番地１,,17,201,9200356,,,,,,,2024-05-24,1,,,,,エイクリエイト,0
2004,8240001063262,新規,0,2024-05-24,2024-05-24,株式会社川崎アーキ,00134850,株式会社,広島県,広島市中区,銀山町３番１号ひろしまハイビル２１＿１６階,,34,101,7300022,,,,,,,2024-05-24,1,,,,,カワサキアーキ,0
2014,8290001105836,新規,0,2024-05-24,2024-05-24,株式会社Ｓｍｉｌｅ　Ｂｏｎｄ,,株式会社,福岡県,福岡市中央区,大宮１丁目６番３０号,,40,133,8100013,,,,,,,2024-05-24,1,,,,,スマイルボンド,0
2015,8290001105860,新規,0,2024-05-24,2024-05-24,ブラックムーンインベストメント株式会社,,株式会社,福岡県,大牟田市,新勝立町１丁目４８番地１渋谷ビル,,40,202,8360895,,,,,,,2024-05-24,1,,,,,ブラックムーンインベストメント,0
2016,8290001105869,新規,0,2024-05-24,2024-05-24,株式会社ネクストウェブ,,株式会社,福岡県,福岡市早良区,原６丁目１１－３０－２,,40,137,8140022,,,,,,,2024-05-24,1,,,,,ネクストウェブ,0
2017,8290001105885,新規,0,2024-05-24,2024-05-24,株式会社牛牛,,株式会社,福岡県,福岡市中央区,天神４丁目６－２８天神ファーストビル７階,,40,133,8100001,,,,,,,2024-05-24,1,,,,,ギュウギュウ,0
2021,8290003015331,新規,0,2024-05-24,2024-05-24,合同会社ｉｆｎ,,合同会社,福岡県,福岡市中央区,春吉３丁目２３番２７－４０７号,,40,133,8100003,,,,,,,2024-05-24,1,,,,,アイエフエヌ,0
2025,8320001020486,新規,0,2024-05-24,2024-05-24,株式会社Ａ＆Ｌ,,株式会社,大分県,別府市,大字鶴見１９７１番地の１エバーグレースムロヤＤ１０２号,,44,202,8740840,,,,,,,2024-05-24,1,,,,,エイアンドエル,0
2038,8370005010792,新規,0,2024-05-24,2024-05-24,一般社団法人運命統計学協会,,その他の設立登記法人,宮城県,仙台市太白区,西中田６丁目４－１０,,04,104,9811105,,,,,,,2024-05-24,1,,,,,ウンメイトウケイガクキョウカイ,0
2047,8400005008412,新規,0,2024-05-24,2024-05-24,農事組合法人やわた農産,,その他の設立登記法人,岩手県,奥州市,江刺広瀬字下西風４０番地,,03,215,0231133,,,,,,,2024-05-24,1,,,,,ヤワタノウサン,0
2048,8410005006588,新規,0,2024-05-24,2024-05-24,一般社団法人ＶＣ秋田バレーボールクラブ,,その他の設立登記法人,秋田県,横手市,朝日が丘３丁目１７番２号,,05,203,0130055,,,,,,,2024-05-24,1,,,,,ブイシーアキタバレーボールクラブ,0
2049,8420003002927,新規,0,2024-05-24,2024-05-24,みらいのすまい合同会社,,合同会社,青森県,弘前市,大字一町田字早稲田２０番地１,,02,202,0361325,,,,,,,2024-05-24,1,,,,,ミライノスマイ,0
2051,8430001091871,新規,0,2024-05-24,2024-05-24,株式会社札幌アクセス,,株式会社,北海道,札幌市中央区,南五条西５丁目２番地３,,01,101,0640805,,,,,,,2024-05-24,1,,,,,サッポロアクセス,0
2052,8430005014985,新規,0,2024-05-24,2024-05-24,一般社団法人ユアセル,,その他の設立登記法人,北海道,札幌市中央区,北一条西２４丁目２番２６号,,01,101,0640821,,,,,,,2024-05-24,1,,,,,ユアセル,0
2053,8460003001000,新規,0,2024-05-24,2024-05-24,合同会社絆,,合同会社,北海道,釧路市,昭和中央５丁目２１番１１号,,01,206,0840910,,,,,,,2024-05-24,1,,,,,キズナ,0
2055,8490003001889,新規,0,2024-05-24,2024-05-24,アイプレゼンツ合同会社,,合同会社,高知県,高知市,塚ノ原４３番地４,,39,201,7800952,,,,,,,2024-05-24,1,,,,,アイプレゼンツ,0
2056,8500001025649,新規,0,2024-05-24,2024-05-24,野村捺染株式会社,,株式会社,愛媛県,松山市,善応寺甲４７６番地,,38,201,7992443,,,,,,,2024-05-24,1,,,,,ノムラナセン,0
2058,8700150118506,新規,0,2024-05-24,2024-05-24,Ｓｈｅｎｚｈｅｎｓｈｉ　Ｌｉａｎｈｅｓｈｅｎｇｃｈｕａｎｇ　ｋｅｊｉ　ｙｏｕｘｉａｎ　ｇｏｎｇｓｉ,,外国会社等,,,,,,,,Ａｎｔｕｏｓｈａｎ　ｇａｏｘｉｎｋｅｊｉｙｕａｎ　１５ｈａｏ　ｃｈａｎｇｆａｎｇ　１　ｌｏｕＳｈａｊｉｎｇｊｉｅｄａｏ，Ｓｈａ’ｅｒｓｈｅｑｕ，Ｂａｏ’ａｎ　ＱｕＧｕａｎｇｄｏｎｇ　Ｓｈｅｎｚｈｅｎ５１８１０３ＣＮ,,,,,,2024-05-24,1,,,,,シェンジェンシリエンホァシュヨンチュワンコァジヨウシエンゴンス,0
2059,8700150120718,新規,0,2024-05-24,2024-05-24,ｙｉｗｕｓｈｉｃｈａｎｇｃｈｅｎｇｄｉａｎｚｉｓｈａｎｇｗｕｙｏｕｘｉａｎｇｏｎｇｓｉ,,外国会社等,,,,,,,,ｚｈｅｊｉａｎｇｓｈｅｎｇｙｉｗｕｓｈｉｂｅｉｙｕａｎｊｉｅｄａｏｙａｎｇｊｉｅｘｉａｏｑｕ６５ｄｏｎｇｓａｎｄａｎｙｕａｎ４０２,,,,,,2024-05-24,1,,,,,イウシチャンチュヨンディエンズシャンウヨウシエンゴンス,0
2060,8700150122375,新規,0,2024-05-24,2024-05-24,Ｄａｌｉａｎ　Ｊｉｕｊｉｕｔｏｎｇｙｉｎｇ　Ｔｒａｄｉｎｇ　Ｃｏ，Ｌｔｄ,,外国会社等,,,,,,,,７－１１，Ｎｏ．８８，Ｌｕｘｕｎ　Ｒｏａｄ，Ｚｈｏｎｇｓｈａｎ　Ｄｉｓｔｒｉｃｔ，Ｄａｌｉａｎ，Ｌｉａｏｎｉｎｇ,,,,,,2024-05-24,1,,,,,ダリエンジウジウトンインシャンマオヨウシエンゴンス,0
2061,8700150125551,新規,0,2024-05-24,2024-05-24,Ｍｉｎｄ　Ｃｒｕｉｓｅｒ（Ｓｈｅｎｚｈｅｎ）Ｎｅｔｗｏｒｋ　Ｔｅｃｈｎｏｌｏｇｙ　Ｃｏ．，Ｌｔｄ．,,外国会社等,,,,,,,,中華人民共和国広東省深＿市前海深港合作区前湾一路１号Ａ棟２０１室,00134888,,,,,2024-05-24,1,,,,,マインドクルーザーシンセンネツトワークテクノロジーユウゲンコウシ,0
2073,9010001244883,新規,0,2024-05-24,2024-05-24,ＡＲＡ株式会社,,株式会社,東京都,中央区,京橋２丁目８番２１号仁大ビル７Ｆ,,13,102,1040031,,,,,,,2024-05-24,1,,,,,アラ,0
2074,9010001245007,新規,0,2024-05-24,2024-05-24,隆吉株式会社,,株式会社,東京都,中央区,日本橋富沢町５番５号エクセルシオール日本橋３０３号室,,13,102,1030006,,,,,,,2024-05-24,1,,,,,タカヨシ,0
2075,9010001245097,新規,0,2024-05-24,2024-05-24,Ｓｕｓｔａｉｎａｂｌｅ　Ｓｈａｒｅｄ　Ｔｒａｎｓｐｏｒｔ株式会社,,株式会社,東京都,中央区,銀座２丁目１６番１０号,,13,102,1040061,,,,,,,2024-05-24,1,,,,,サステナブルシェアードトランスポート,0
2083,9010005038332,新規,0,2024-05-24,2024-05-24,ソーラーカトレアホールディングス一般社団法人,,その他の設立登記法人,東京都,中央区,京橋２丁目１２番６号ＡＯＪ税理士法人内,,13,102,1040031,,,,,,,2024-05-24,1,,,,,ソーラーカトレアホールディングス,0
2087,9010401182592,新規,0,2024-05-24,2024-05-24,株式会社ケルビム,,株式会社,東京都,港区,南麻布４丁目１１番１７－６２２号,,13,103,1060047,,,,,,,2024-05-24,1,,,,,ケルビム,0
2092,9010501052332,新規,0,2024-05-24,2024-05-24,株式会社ＢＵＮＮＹ　ＦＬＩＸ,,株式会社,東京都,台東区,上野２丁目１１番９号桂昇上野ビル５階,,13,106,1100005,,,,,,,2024-05-24,1,,,,,バニーブリックス,0
2094,9010801035086,新規,0,2024-05-24,2024-05-24,株式会社ＡＲＴＡＫ,,株式会社,東京都,大田区,雪谷大塚町１７番１号,,13,111,1450067,,,,,,,2024-05-24,1,,,,,アータック,0
2095,9010803004964,新規,0,2024-05-24,2024-05-24,ＯＭＴ　Ｉｎｉｔｉａｔｉｖｅ合同会社,,合同会社,東京都,大田区,南六郷３丁目１０－１６,,13,111,1440045,,,,,,,2024-05-24,1,,,,,オムティイニシアチブ,0
2097,9010903009087,新規,0,2024-05-24,2024-05-24,合同会社ａｋｕｔｓｕ　ｆａｍｉｌｉａｒ,,合同会社,東京都,世田谷区,成城３丁目１４番１１号,,13,112,1570066,,,,,,,2024-05-24,1,,,,,アクツファミリア,0
2104,9011001162118,新規,0,2024-05-24,2024-05-24,株式会社Ｏｆｒａｃｔａｌ,,株式会社,東京都,渋谷区,渋谷１丁目３－１８ビラ・モデルナＡ２０３,,13,113,1500002,,,,,,,2024-05-24,1,,,,,オフラクタル,0
2109,9011101107410,新規,0,2024-05-24,2024-05-24,株式会社３Ｄｉｍｅｎｓｉｏｎ,,株式会社,東京都,新宿区,新宿３丁目２２番１１号Ｒ・Ｓビル５階Ｒ,,13,104,1600022,,,,,,,2024-05-24,1,,,,,スリーディメンション,0
2110,9011101107451,新規,0,2024-05-24,2024-05-24,Ｒｅｔｕｒｎ　Ｈｅｌｐｅｒ株式会社,,株式会社,東京都,新宿区,西新宿３丁目３番１３号西新宿水間ビル２Ｆ,,13,104,1600023,,,,,,,2024-05-24,1,,,,,リターンヘルパー,0
2115,9011701027306,新規,0,2024-05-24,2024-05-24,株式会社プリスティス,,株式会社,東京都,江戸川区,中葛西５丁目２０番９号ＳＵＮＧＩＯＩＡＮｏｒｔｈ１０１,,13,123,1340083,,,,,,,2024-05-24,1,,,,,プリスティス,0
2117,9011801044275,新規,0,2024-05-24,2024-05-24,株式会社ＣＬＥＡＳ,,株式会社,東京都,足立区,伊興１丁目１８番１５号,,13,121,1210823,,,,,,,2024-05-24,1,,,,,クレアス,0
2120,9012401041902,新規,0,2024-05-24,2024-05-24,株式会社ｔｏｍｅ,,株式会社,東京都,稲城市,矢野口３５４番地矢野口住宅２０６号,,13,225,2060812,,,,,,,2024-05-24,1,,,,,トゥーミー,0
2121,9012403006580,新規,0,2024-05-24,2024-05-24,セヌウィー合同会社,,合同会社,東京都,三鷹市,野崎１丁目１６番２－３０３号,,13,204,1810014,,,,,,,2024-05-24,1,,,,,セヌウィー,0
2122,9012801023194,新規,0,2024-05-24,2024-05-24,株式会社ｓｗｅｌｌ,,株式会社,東京都,国立市,中３丁目３番地の２Ｒａｐｐｏｒｔ国立１０２,,13,215,1860004,,,,,,,2024-05-24,1,,,,,スウェル,0
2123,9012805003275,新規,0,2024-05-24,2024-05-24,特定非営利活動法人スミール,,その他の設立登記法人,東京都,立川市,一番町１丁目２０番地の２１,,13,202,1900033,,,,,,,2024-05-24,1,,,,,スミール,0
2129,9020001157399,新規,0,2024-05-24,2024-05-24,株式会社梁貫,,株式会社,神奈川県,横浜市青葉区,みたけ台２０番地３１,,14,117,2270047,,,,,,,2024-05-24,1,,,,,リョウカン,0
2130,9020001157408,新規,0,2024-05-24,2024-05-24,株式会社エムセク,,株式会社,神奈川県,横浜市旭区,市沢町８７１番地１アーブルテラスＣ２号室,,14,112,2410014,,,,,,,2024-05-24,1,,,,,エムセク,0
2131,9020001157424,新規,0,2024-05-24,2024-05-24,株式会社山塗,,株式会社,神奈川県,横浜市保土ケ谷区,仏向町４２４番地１,,14,106,2400044,,,,,,,2024-05-24,1,,,,,ヤマト,0
2132,9020001157449,新規,0,2024-05-24,2024-05-24,ジンベイ株式会社,,株式会社,神奈川県,横浜市西区,平沼１丁目４０番１７ー１００２号,,14,103,2200023,,,,,,,2024-05-24,1,,,,,ジンベイ,0
2136,9020003026197,新規,0,2024-05-24,2024-05-24,合同会社つながり,,合同会社,神奈川県,川崎市中原区,上丸子八幡町１４８８番地１,,14,133,2110001,,,,,,,2024-05-24,1,,,,,ツナガリ,0
2137,9020003026206,新規,0,2024-05-24,2024-05-24,ゆりコーポレーション合同会社,,合同会社,神奈川県,横浜市港南区,大久保１丁目２－５,,14,111,2330007,,,,,,,2024-05-24,1,,,,,ユリコーポレーション,0
2139,9020005016428,新規,0,2024-05-24,2024-05-24,非営利型一般社団法人グリーンコラボ,,その他の設立登記法人,神奈川県,横浜市港北区,新横浜３丁目２４番５号,,14,109,2220033,,,,,,,2024-05-24,1,,,,,グリーンコラボ,0
2141,9021001082323,新規,0,2024-05-24,2024-05-24,株式会社光千社,,株式会社,神奈川県,座間市,ひばりが丘１丁目８０番１６号,,14,216,2520003,,,,,,,2024-05-24,1,,,,,コウセンシャ,0
2142,9021003014555,新規,0,2024-05-24,2024-05-24,合同会社ＢＣＰ,,合同会社,神奈川県,厚木市,関口１８３－８,,14,212,2430804,,,,,,,2024-05-24,1,,,,,ビーシーピー,0
2143,9021005013118,新規,0,2024-05-24,2024-05-24,社会福祉法人ＰＥＫＯ　ＳＭＩＬＥ,,その他の設立登記法人,神奈川県,秦野市,堀川１０９番地の２,,14,211,2591305,,,,,,,2024-05-24,1,,,,,ペコスマイル,0
2152,9030003024357,新規,0,2024-05-24,2024-05-24,Ｓａｋｕｒａ合同会社,,合同会社,埼玉県,蕨市,中央３丁目２１番１１号コート・アベニュー３０１号,,11,223,3350004,,,,,,,2024-05-24,1,,,,,サクラ,0
2153,9030003024365,新規,0,2024-05-24,2024-05-24,エクスチェンジ合同会社,,合同会社,埼玉県,草加市,草加３丁目１２番７－９０２号,,11,221,3400043,,,,,,,2024-05-24,1,,,,,エクスチェンジ,0
2165,9040003025065,新規,0,2024-05-24,2024-05-24,合同会社ＷＡＮＰＯＩＮＴ,,合同会社,千葉県,東金市,日吉台７丁目１４番地１２,,12,213,2830803,,,,,,,2024-05-24,1,,,,,ワンポイント,0
2167,9050003008390,新規,0,2024-05-24,2024-05-24,合同会社フィライトインターナショナル,,合同会社,茨城県,水戸市,栄町１丁目１１－８Ｔｃｏｒｄビル１０１,,08,201,3100064,,,,,,,2024-05-24,1,,,,,フィライトインターナショナル,0
2191,9120001265241,新規,0,2024-05-24,2024-05-24,株式会社ＨＩＧＨ‐ＲＥＶＥ,,株式会社,大阪府,大阪市北区,豊崎２丁目７番９号,,27,127,5310072,,,,,,,2024-05-24,1,,,,,ハイレーヴ,0
2192,9120001265258,新規,0,2024-05-24,2024-05-24,株式会社Ｔ＆Ｙ　ＯＦＦＩＣＥ,,株式会社,大阪府,大阪市阿倍野区,昭和町２丁目１０番１４号,,27,119,5450011,,,,,,,2024-05-24,1,,,,,ティーアンドワイオフィス,0
2193,9120001265282,新規,0,2024-05-24,2024-05-24,株式会社ポラリス,,株式会社,大阪府,大阪市中央区,瓦町１丁目６番１－３００５号,,27,128,5410048,,,,,,,2024-05-24,1,,,,,ポラリス,0
2194,9120001265299,新規,0,2024-05-24,2024-05-24,株式会社ドリー,,株式会社,大阪府,大阪市中央区,久太郎町１丁目７番１１号,,27,128,5410056,,,,,,,2024-05-24,1,,,,,ドリー,0
2196,9120003026609,新規,0,2024-05-24,2024-05-24,ｎ‐ｓｔｙｌｅ合同会社,,合同会社,大阪府,大阪市淀川区,西中島３丁目１３番１号,,27,123,5320011,,,,,,,2024-05-24,1,,,,,エヌスタイル,0
2197,9120003026674,新規,0,2024-05-24,2024-05-24,合同会社やよい,,合同会社,大阪府,大阪市北区,梅田１丁目２番２号大阪駅前第２ビル１２－１２,,27,127,5300001,,,,,,,2024-05-24,1,,,,,ヤヨイ,0
2198,9120101069658,新規,0,2024-05-24,2024-05-24,株式会社皐月不動産,,株式会社,大阪府,羽曳野市,野々上１丁目１２番９－３０１号,,27,222,5830871,,,,,,,2024-05-24,1,,,,,サツキフドウサン,0
2201,9120901049173,新規,0,2024-05-24,2024-05-24,ＫＳＡ建匠株式会社,,株式会社,大阪府,高槻市,上牧北駅前町３番７号,,27,207,5690005,,,,,,,2024-05-24,1,,,,,ケーエスエケンタク,0
2203,9120905006609,新規,0,2024-05-24,2024-05-24,一般社団法人市民共同発電サンサンすいた,,その他の設立登記法人,大阪府,吹田市,泉町５丁目２８番３１号,,27,205,5640041,,,,,,,2024-05-24,1,,,,,シミンキョウドウハツデンサンサンスイタ,0
2211,9130001077116,新規,0,2024-05-24,2024-05-24,Ｏｃａｒｒｙ株式会社,,株式会社,京都府,京都市北区,小山中溝町３２番地１３,,26,101,6038156,,,,,,,2024-05-24,1,,,,,オーキャリー,0
2212,9130003009579,新規,0,2024-05-24,2024-05-24,合同会社バタータルト食品,,合同会社,京都府,京都市北区,衣笠街道町１７番１２号,,26,101,6038372,,,,,,,2024-05-24,1,,,,,バタータルトショクヒン,0
2213,9130003009595,新規,0,2024-05-24,2024-05-24,合同会社お蝶婦人６月６日誕生日おめでとう,,合同会社,京都府,相楽郡笠置町,大字笠置小字井尻１番地の２,,26,364,6191303,,,,,,,2024-05-24,1,,,,,オチョウフジンロクガツムイカタンジョウビオメデトウ,0
2217,9140001134469,新規,0,2024-05-24,2024-05-24,株式会社成田屋,,株式会社,兵庫県,尼崎市,久々知西町２丁目６番３０号,,28,202,6610978,,,,,,,2024-05-24,1,,,,,ナリタヤ,0
2218,9140001134543,新規,0,2024-05-24,2024-05-24,神幹ＬＩＮＥ株式会社,,株式会社,兵庫県,加古郡稲美町,六分一１１７８番地の２３８,,28,381,6751112,,,,,,,2024-05-24,1,,,,,シンカンライン,0
2223,9150001027300,新規,0,2024-05-24,2024-05-24,米道産業株式会社,,株式会社,奈良県,奈良市,大安寺５丁目９番１５－３号,,29,201,6308133,,,,,,,2024-05-24,1,,,,,ヨネミチサンギョウ,0
2230,9180001161575,新規,0,2024-05-24,2024-05-24,株式会社テミライ,,株式会社,愛知県,長久手市,香桶５０６番地,,23,238,4801176,,,,,,,2024-05-24,1,,,,,テミライ,0
2231,9180001161658,新規,0,2024-05-24,2024-05-24,株式会社縁,,株式会社,愛知県,豊明市,西川町長田４番地１４桜２０３,,23,229,4701122,,,,,,,2024-05-24,1,,,,,ユカリ,0
2232,9180001161674,新規,0,2024-05-24,2024-05-24,エーアイ株式会社,,株式会社,愛知県,名古屋市昭和区,御器所３丁目２３番１９号御器所パークマンション３０３号,,23,107,4660051,,,,,,,2024-05-24,1,,,,,エーアイ,0
2233,9180001161682,新規,0,2024-05-24,2024-05-24,株式会社日本警備スタッフ,,株式会社,愛知県,名古屋市西区,上小田井２丁目１１６番地,,23,104,4520821,,,,,,,2024-05-24,1,,,,,ニホンケイビスタッフ,0
2234,9180001161690,新規,0,2024-05-24,2024-05-24,株式会社倖一,,株式会社,愛知県,名古屋市中区,千代田２丁目１９番２０号トーカンマンション鶴舞３０７,,23,106,4600012,,,,,,,2024-05-24,1,,,,,コウイチ,0
2238,9180003026834,新規,0,2024-05-24,2024-05-24,匠ロジコム合同会社,,合同会社,愛知県,春日井市,牛山町１０１８番地６３,,23,206,4860901,,,,,,,2024-05-24,1,,,,,タクミロジコム,0
2243,9180303006131,新規,0,2024-05-24,2024-05-24,合同会社スクワッド,,合同会社,愛知県,岡崎市,真福寺町字落合４８番地２,,23,202,4442106,,,,,,,2024-05-24,1,,,,,スクワッド,0
2244,9190005011957,新規,0,2024-05-24,2024-05-24,志摩アーバンリゾート管理組合法人,,その他の設立登記法人,三重県,志摩市,大王町船越字深谷２９４番地３８,,24,215,5170604,,,,,,,2024-05-24,1,,,,,シマアーバンリゾート,0
2248,9220001026022,新規,0,2024-05-24,2024-05-24,株式会社瓦田工務店,,株式会社,石川県,金沢市,材木町９番５号,,17,201,9200921,,,,,,,2024-05-24,1,,,,,カワラダコウムテン,0
2256,9260001039078,新規,0,2024-05-24,2024-05-24,株式会社ＭＩＮＴＲＹ,,株式会社,岡山県,岡山市北区,野田４丁目１５番６３号,,33,101,7000971,,,,,,,2024-05-24,1,,,,,ミントリー,0
2266,9290001105827,新規,0,2024-05-24,2024-05-24,アークスホールディングス株式会社,,株式会社,福岡県,福岡市南区,高宮２丁目１５番２０号,,40,134,8150083,,,,,,,2024-05-24,1,,,,,アークスホールディングス,0
2267,9290001105835,新規,0,2024-05-24,2024-05-24,Ｌｏｇｉ　ｏｆｆｅｒ株式会社,,株式会社,福岡県,朝倉郡筑前町,久光１５５５番地５,,40,447,8380802,,,,,,,2024-05-24,1,,,,,ロジオファー,0
2268,9290001105868,新規,0,2024-05-24,2024-05-24,株式会社びびっと,,株式会社,福岡県,福岡市中央区,大名２丁目１－２０－７０３,,40,133,8100041,,,,,,,2024-05-24,1,,,,,ビビット,0
2269,9290001105876,新規,0,2024-05-24,2024-05-24,ＬＣＩ株式会社,,株式会社,福岡県,糸島市,志摩小富士２４９０番地,,40,230,8191321,,,,,,,2024-05-24,1,,,,,エルシーアイ,0
2270,9290001105892,新規,0,2024-05-24,2024-05-24,株式会社スカイ,,株式会社,福岡県,大野城市,中央２丁目５番２８号,,40,219,8160942,,,,,,,2024-05-24,1,,,,,スカイ,0
2272,9290003015322,新規,0,2024-05-24,2024-05-24,ナナハン合同会社,,合同会社,福岡県,三潴郡大木町,大字絵下古賀３７７番地２,,40,522,8300415,,,,,,,2024-05-24,1,,,,,ナナハン,0
2273,9290003015347,新規,0,2024-05-24,2024-05-24,Ｌｉｍ合同会社,,合同会社,福岡県,福岡市南区,大楠１丁目１５番２２－５０５号ピュアドーム高宮イースト,,40,134,8150082,,,,,,,2024-05-24,1,,,,,リム,0
2274,9290003015355,新規,0,2024-05-24,2024-05-24,合同会社ＺＥＲＯ,,合同会社,福岡県,大野城市,白木原１丁目１１番１３号栄晃ビル５Ｆ,,40,219,8160943,,,,,,,2024-05-24,1,,,,,ゼロ,0
2276,9290801030588,新規,0,2024-05-24,2024-05-24,株式会社影虎,,株式会社,福岡県,北九州市小倉北区,鍛冶町１丁目７番８号,,40,106,8020004,,,,,,,2024-05-24,1,,,,,カゲトラ,0
2277,9290801030596,新規,0,2024-05-24,2024-05-24,株式会社大溝コーポレーション,,株式会社,福岡県,北九州市小倉南区,下城野１丁目１２番２３号,,40,107,8020804,,,,,,,2024-05-24,1,,,,,オオミゾコーポレーション,0
2280,9320001020485,新規,0,2024-05-24,2024-05-24,株式会社ＲＯＯＴＳＲＡＤＩＣＡＬＳ,,株式会社,大分県,別府市,東荘園８丁目６番６号,,44,202,8740836,,,,,,,2024-05-24,1,,,,,ルーツラディカルズ,0
2282,9330003010392,新規,0,2024-05-24,2024-05-24,合同会社Ｒｋｃグループ,,合同会社,熊本県,熊本市南区,出仲間７丁目１５番１５号,,43,104,8620963,,,,,,,2024-05-24,1,,,,,アールケーシーグループ,0
2289,9360003013979,新規,0,2024-05-24,2024-05-24,合同会社ＭＩＮＧＬＥ,,合同会社,沖縄県,浦添市,沢岻１丁目３番７号,,47,208,9012112,,,,,,,2024-05-24,1,,,,,ミングル,0
2290,9360003014003,新規,0,2024-05-24,2024-05-24,合同会社ＳＫＫ,,合同会社,沖縄県,那覇市,泊１丁目３番地８ミルコマンション泊リヴィエラ９０１,,47,201,9000012,,,,,,,2024-05-24,1,,,,,エスケーケー,0
2291,9360005007038,新規,0,2024-05-24,2024-05-24,一般社団法人ツナグミライ,,その他の設立登記法人,沖縄県,うるま市,字赤道１０－１０Ａ－１ＮＲＧシェアオフィス内,,47,213,9042245,,,,,,,2024-05-24,1,,,,,ツナグミライ,0
2295,9370001051328,新規,0,2024-05-24,2024-05-24,株式会社ＹＳＲコンサルティング,,株式会社,宮城県,仙台市宮城野区,小田原１丁目８番２８－６０３号,,04,102,9830803,,,,,,,2024-05-24,1,,,,,ワイエスアールコンサルティング,0
2297,9380005012837,新規,0,2024-05-24,2024-05-24,一般社団法人ｃｏｄｏｍｏｐｍｅｎｔ,,その他の設立登記法人,福島県,石川郡浅川町,大字浅川字本町３８番地１,,07,504,9636204,,,,,,,2024-05-24,1,,,,,コドモップメント,0
2306,9430001091870,新規,0,2024-05-24,2024-05-24,株式会社柳助,,株式会社,北海道,小樽市,石山町３９番１２号,,01,203,0470038,,,,,,,2024-05-24,1,,,,,リュウスケ,0
2307,9430001091879,新規,0,2024-05-24,2024-05-24,株式会社ＥＭＯＣＫ　ｗｏｏｄ　ｗｏｒｋｓ,,株式会社,北海道,札幌市南区,真駒内本町５丁目２番１号オリンピアビル１Ｆ,,01,106,0050021,,,,,,,2024-05-24,1,,,,,エモックウッドワークス,0
2311,9430005014992,新規,0,2024-05-24,2024-05-24,一般社団法人北海道富良野地域森林環境等育成保全協会,,その他の設立登記法人,北海道,札幌市南区,川沿四条４丁目３番１６号,,01,106,0050804,,,,,,,2024-05-24,1,,,,,ホッカイドウフラノチイキシンリンカンキョウトウイクセイホゼンキョウカイ,0
2312,9450001014326,新規,0,2024-05-24,2024-05-24,株式会社ワタナベ,,株式会社,北海道,雨竜郡沼田町,字旭町１５番地９,,01,438,0782201,,,,,,,2024-05-24,1,,,,,ワタナベ,0
2321,9500001025648,新規,0,2024-05-24,2024-05-24,株式会社エルフィ,,株式会社,愛媛県,大洲市,大洲６７１番地３,,38,207,7950012,,,,,,,2024-05-24,1,,,,,エルフィ,0
2322,9700150113431,新規,0,2024-05-24,2024-05-24,Ｈａｐａｇ　Ｌｌｏｙｄ　ＡＧ,,外国会社等,,,,,,,,ＢＡＬＬＩＮＤＡＭＭ　２５　Ｄ－２００９５　ＨＡＭＢＵＲＧ，ＧＥＲＭＡＮＹ,,,,,,2024-05-24,1,,,,,ハパツクロイドアーゲー,0
2323,9700150114644,新規,0,2024-05-24,2024-05-24,Ｃｕｍｍｉｎｓ　Ｉｎｃ,,外国会社等,,,,,,,,Ｂｏｘ　３００５，Ｃｏｌｕｍｂｕｓ，ＩＮ　４７２０２－３００５　Ｕ．Ｓ．Ａ．,,,,,,2024-05-24,1,,,,,カミンズインク,0
2324,9700150122382,新規,0,2024-05-24,2024-05-24,ＢＫＳＮＡＩＬ　ＩＮＮＯＶＡＴＩＯＮＳ　ＬＩＭＩＴＥＤ,,外国会社等,,,,,,,,ＨＡＮＧ　ＷＡＩ　ＩＮＤ　ＣＴＲ　ＮＯ　６　ＫＩＮ　ＳＴ　ＳＨＯＰ　１８５　Ｇ／Ｆ　ＴＵＥＮ　ＭＵＮ　ＮＴ　９９９０７７　ＨＫ,,,,,,2024-05-24,1,,,,,ヘイルオニウチュワンシンヨウシエンゴンス,0
2325,9700150122399,新規,0,2024-05-24,2024-05-24,ａｉｔｉｗｅｎ（ｓｈｅｎｚｈｅｎ）ｍａｏｙｉｙｏｕｘｉａｎｇｏｎｇｓｉ,,外国会社等,,,,,,,,ｒｏｏｍ　２２３，４２４ｄｏｎｇ，ｂａｇｕａｌｉｎｇｇｏｎｇｙｅｑｕ　ｂａｇｕａ　３ｒｄ　ｒｄ　ｎｏ．１５０，ｈｕａｌｉｎｓｈｅｑｕ，ｙｕａｎｌｉｎｇｊｉｅｄａｏ，ｆｕｔｉａｎｑｕ　ｓｈｅｎｚｈｅｎｓｈｉ　ｇｕａｎｇｄｏｎｇｓｈｅｎｇ,,,,,,2024-05-24,1,,,,,アイティウエンマオイヨウシエンゴンス,0
