sequenceNumber,corporateNumber,process,correct,updateDate,changeDate,name,nameImageId,kind,prefectureName,cityName,streetNumber,addressImageId,prefectureCode,cityCode,postCode,addressOutside,addressOutsideImageId,closeDate,closeCause,successorCorporateNumber,changeCause,assignmentDate,latest,enName,enPrefectureName,enCityName,enAddressOutside,furigana,hihyoji
6,1010001233654,新規,0,2023-03-15,2023-03-15,株式会社イーマーチ,,株式会社,東京都,千代田区,九段南１丁目５番６号りそな九段ビル５階ＫＳフロア,,13,101,1020074,,,,,,,2023-03-15,1,,,,,イーマーチ,0
8,1010003040066,新規,0,2023-03-15,2023-03-15,合同会社ＳＥＭＳ,,合同会社,東京都,文京区,本駒込２丁目１０番１８号,,13,105,1130021,,,,,,,2023-03-15,1,,,,,セムス,0
9,1010003040082,新規,0,2023-03-15,2023-03-15,ＪＯＩＮＴ合同会社,,合同会社,東京都,中央区,東日本橋２丁目２８番４号日本橋ＣＥＴビル２階,,13,102,1030004,,,,,,,2023-03-15,1,,,,,ジョイント,0
12,1010101015556,新規,0,2023-03-15,2023-03-15,株式会社恵光,,株式会社,東京都,八王子市,犬目町４８２番地１,,13,201,1930802,,,,,,,2023-03-15,1,,,,,ケイコウ,0
16,1010401173087,新規,0,2023-03-15,2023-03-15,リャーマス株式会社,,株式会社,東京都,港区,浜松町２丁目２番１５号浜松町ダイヤビル２Ｆ,,13,103,1050013,,,,,,,2023-03-15,1,,,,,リャーマス,0
17,1010403029725,新規,0,2023-03-15,2023-03-15,合同会社Ｓｗｉｔｃｈ　Ｙｏｎ,,合同会社,東京都,港区,赤坂２丁目１７番４４号福吉坂ビル１階,,13,103,1070052,,,,,,,2023-03-15,1,,,,,スイッチョン,0
38,1010903008030,新規,0,2023-03-15,2023-03-15,合同会社大口,,合同会社,東京都,世田谷区,大原１丁目２４番１６号ルート大原ビル３０１,,13,112,1560041,,,,,,,2023-03-15,1,,,,,ビッグマウス,0
39,1010905004457,新規,0,2023-03-15,2023-03-15,一般社団法人経営者サポート協会,,その他の設立登記法人,東京都,世田谷区,宮坂２丁目８番１４号,,13,112,1560051,,,,,,,2023-03-15,1,,,,,,0
44,1011001153090,新規,0,2023-03-15,2023-03-15,株式会社ＣｕｂｅＷｏｒｋｓ,,株式会社,東京都,渋谷区,道玄坂１丁目１０番８号渋谷道玄坂東急ビル２Ｆ‐Ｃ,,13,113,1500043,,,,,,,2023-03-15,1,,,,,キューブワークス,0
45,1011001153173,新規,0,2023-03-15,2023-03-15,アティファイ株式会社,,株式会社,東京都,渋谷区,神宮前６丁目２３番４号桑野ビル２階,,13,113,1500001,,,,,,,2023-03-15,1,,,,,アティファイ,0
50,1011201024505,新規,0,2023-03-15,2023-03-15,株式会社Ｇｌｕｅｓｅ,,株式会社,東京都,中野区,新井１丁目１６番１４ＣＩＣＡＤＡ・ＮＡＫＡＮＯ２０３,,13,114,1650026,,,,,,,2023-03-15,1,,,,,グルース,0
51,1011301028538,新規,0,2023-03-15,2023-03-15,株式会社街サポート,,株式会社,東京都,杉並区,南荻窪１丁目２４番１３号,,13,115,1670052,,,,,,,2023-03-15,1,,,,,マチサポート,0
53,1011401024973,新規,0,2023-03-15,2023-03-15,風動株式会社,,株式会社,東京都,板橋区,小茂根１丁目２５－１６－２１１号室,,13,119,1730037,,,,,,,2023-03-15,1,,,,,フウドウ,0
54,1011401024981,新規,0,2023-03-15,2023-03-15,株式会社ＡＲＯＫ,,株式会社,東京都,板橋区,東坂下１丁目１９番２４－２０２号,,13,119,1740042,,,,,,,2023-03-15,1,,,,,アロカ,0
56,1011601026646,新規,0,2023-03-15,2023-03-15,スリーライクス株式会社,,株式会社,東京都,練馬区,大泉学園町７丁目１４－３４－２０３,,13,120,1780061,,,,,,,2023-03-15,1,,,,,スリーライクス,0
57,1011703003411,新規,0,2023-03-15,2023-03-15,合同会社ＫＬＳ,,合同会社,東京都,江戸川区,南小岩８丁目２５－５,,13,123,1330056,,,,,,,2023-03-15,1,,,,,ケイエルエス,0
59,1011801042088,新規,0,2023-03-15,2023-03-15,株式会社武澤商事,,株式会社,東京都,足立区,六月２丁目１０番２－７０２号,,13,121,1210814,,,,,,,2023-03-15,1,,,,,タケザワショウジ,0
63,1012401040283,新規,0,2023-03-15,2023-03-15,株式会社武蔵野テイクフード,,株式会社,東京都,武蔵野市,緑町１丁目６番２４号,,13,203,1800012,,,,,,,2023-03-15,1,,,,,ムサシノテイクフード,0
69,1013301050455,新規,0,2023-03-15,2023-03-15,株式会社ムービー,,株式会社,東京都,豊島区,南大塚３丁目３２番７号メッツ大塚８０３,,13,116,1700005,,,,,,,2023-03-15,1,,,,,ムービー,0
70,1013303006538,新規,0,2023-03-15,2023-03-15,ＲＥＮ合同会社,,合同会社,東京都,豊島区,高田３丁目３番１６号東方高田ビル３１４号室,,13,116,1710033,,,,,,,2023-03-15,1,,,,,レン,0
77,1020001150683,新規,0,2023-03-15,2023-03-15,ノストラムジャパン株式会社,,株式会社,神奈川県,横浜市西区,みなとみらい４丁目４番２号横浜ブルーアベニュー１２階,,14,103,2200012,,,,,,,2023-03-15,1,,,,,ノストラムジャパン,0
79,1020003023508,新規,0,2023-03-15,2023-03-15,合同会社Ｓａｆａｒｉ,,合同会社,神奈川県,川崎市川崎区,南町１１番地３１グランクオール川崎４０２,,14,131,2100015,,,,,,,2023-03-15,1,,,,,サファリ,0
82,1020005015882,新規,0,2023-03-15,2023-03-15,医療法人明峰会,,その他の設立登記法人,神奈川県,横浜市金沢区,能見台通２番６号能見台クオレ２０４号室,,14,108,2360053,,,,,,,2023-03-15,1,,,,,メイホウカイ,0
86,1021001078428,新規,0,2023-03-15,2023-03-15,株式会社ＲＥＡＣＥ,,株式会社,神奈川県,藤沢市,村岡東３丁目２９番地の２,,14,205,2510012,,,,,,,2023-03-15,1,,,,,,0
90,1030001152852,新規,0,2023-03-15,2023-03-15,河野建設株式会社,,株式会社,埼玉県,蓮田市,西城２丁目１６０番地７,,11,238,3490145,,,,,,,2023-03-15,1,,,,,コウノケンセツ,0
94,1030003021353,新規,0,2023-03-15,2023-03-15,合同会社西吉田興業,00129769,合同会社,埼玉県,熊谷市,四方寺３７番地,,11,202,3600006,,,,,,,2023-03-15,1,,,,,ニシヨシダコウギョウ,0
103,1040001127390,新規,0,2023-03-15,2023-03-15,株式会社松和,,株式会社,千葉県,松戸市,高柳新田２００番地の２０,,12,207,2702201,,,,,,,2023-03-15,1,,,,,ショウワ,0
104,1040001127523,新規,0,2023-03-15,2023-03-15,ＨＯＯＭ株式会社,,株式会社,千葉県,千葉市中央区,問屋町１４番７－１１０５号,,12,101,2600025,,,,,,,2023-03-15,1,,,,,ホーム,0
107,1050001052530,新規,0,2023-03-15,2023-03-15,株式会社ひばりアセット,,株式会社,茨城県,つくばみらい市,富士見ヶ丘１丁目２７番地９,,08,235,3002417,,,,,,,2023-03-15,1,,,,,ヒバリアセット,0
108,1050003007318,新規,0,2023-03-15,2023-03-15,合同会社ｍｉｌｌｅｎｎｉｕｍ,,合同会社,茨城県,取手市,西２丁目１０番１１号,,08,217,3020025,,,,,,,2023-03-15,1,,,,,ミレニアム,0
115,1070005010094,新規,0,2023-03-15,2023-03-15,一般社団法人外国人共生ネットワーク支援協会,,その他の設立登記法人,群馬県,前橋市,問屋町２丁目１４番地９,,10,201,3710855,,,,,,,2023-03-15,1,,,,,ガイコクジンキョウセイネットワークシエンキョウカイ,0
128,1120001253154,新規,0,2023-03-15,2023-03-15,株式会社ＳＭＡＲＴ,,株式会社,大阪府,大阪市中央区,高津１丁目３番２－２０５号,,27,128,5420072,,,,,,,2023-03-15,1,,,,,スマート,0
129,1120001253187,新規,0,2023-03-15,2023-03-15,株式会社Ｗ不動産,,株式会社,大阪府,大阪市住吉区,南住吉１丁目８番２２号,,27,120,5580041,,,,,,,2023-03-15,1,,,,,ダブリューフドウサン,0
130,1120001253245,新規,0,2023-03-15,2023-03-15,新光運輸ホールディングス株式会社,,株式会社,大阪府,大阪市此花区,桜島３丁目１０番３６号,,27,104,5540031,,,,,,,2023-03-15,1,,,,,シンコウウンユホールディングス,0
132,1120003023613,新規,0,2023-03-15,2023-03-15,合同会社山川コンサルティング,,合同会社,大阪府,守口市,西郷通１丁目１３番１３－７１０号,,27,209,5700034,,,,,,,2023-03-15,1,,,,,ヤマカワコンサルティング,0
133,1120101067140,新規,0,2023-03-15,2023-03-15,株式会社Ｍｊｕｐ,,株式会社,大阪府,岸和田市,大町４丁目６番３５号,,27,202,5960812,,,,,,,2023-03-15,1,,,,,エムジャップ,0
134,1120101067149,新規,0,2023-03-15,2023-03-15,株式会社ネクスプラス,,株式会社,大阪府,岸和田市,今木町１１４番地の６,,27,202,5960804,,,,,,,2023-03-15,1,,,,,ネクスプラス,0
146,1130001073849,新規,0,2023-03-15,2023-03-15,株式会社茶喜,,株式会社,京都府,宇治市,白川川上り谷５０番地,,26,204,6110022,,,,,,,2023-03-15,1,,,,,チャキ,0
147,1130001073857,新規,0,2023-03-15,2023-03-15,株式会社ｓｔａｔｓ　ｌｉｖｉｎｇ　ｃｏｍｐａｎｙ,,株式会社,京都府,宇治市,大久保町旦椋９番地の６,,26,204,6110033,,,,,,,2023-03-15,1,,,,,スタッツリビングカンパニー,0
152,1140001129451,新規,0,2023-03-15,2023-03-15,株式会社ＵＮＤＥＲ　ＩＭＰＡＣＴ,,株式会社,兵庫県,神戸市中央区,磯上通８丁目１番２９号カサベラビルＣ＆Ｍ４０３号,,28,110,6510086,,,,,,,2023-03-15,1,,,,,アンダーインパクト,0
154,1140003018850,新規,0,2023-03-15,2023-03-15,ＳＵＭコンサルティング合同会社,,合同会社,兵庫県,西宮市,大井手町１１番２７号,,28,204,6620036,,,,,,,2023-03-15,1,,,,,サムコンサルティング,0
155,1150001026235,新規,0,2023-03-15,2023-03-15,ＭＯＯＮ株式会社,,株式会社,奈良県,奈良市,月ヶ瀬桃香野３５６５番地の１０,,29,201,6302306,,,,,,,2023-03-15,1,,,,,ムーン,0
156,1160001024898,新規,0,2023-03-15,2023-03-15,リバティフィールド株式会社,,株式会社,滋賀県,東近江市,垣見町７６０番地２階,,25,213,5211221,,,,,,,2023-03-15,1,,,,,リバティフィールド,0
164,1180001155361,新規,0,2023-03-15,2023-03-15,株式会社Ｉｎｄｉｖｉｄｕａｌ,,株式会社,愛知県,名古屋市中村区,松重町４番５１号,,23,105,4500004,,,,,,,2023-03-15,1,,,,,インディヴィジュアル,0
165,1180001155394,新規,0,2023-03-15,2023-03-15,株式会社國島,,株式会社,愛知県,一宮市,新生２丁目２１番１８号,,23,203,4910912,,,,,,,2023-03-15,1,,,,,クニシマ,0
168,1180003024977,新規,0,2023-03-15,2023-03-15,合同会社ＭＡＴＵＲｅｅ,,合同会社,愛知県,名古屋市中村区,名駅４丁目２４番５号第２森ビル４０１,,23,105,4500002,,,,,,,2023-03-15,1,,,,,マツレ,0
171,1190001030241,新規,0,2023-03-15,2023-03-15,株式会社Ｍ＆Ｒ,,株式会社,三重県,松阪市,大津町８０１番地１,,24,204,5150031,,,,,,,2023-03-15,1,,,,,エムアンドアール,0
177,1200003005900,新規,0,2023-03-15,2023-03-15,笠原電気合同会社,,合同会社,岐阜県,中津川市,太田町２丁目１番１３号,,21,206,5080033,,,,,,,2023-03-15,1,,,,,カサハラデンキ,0
182,1220001025312,新規,0,2023-03-15,2023-03-15,株式会社Ｔｒａｃｅ‐Ｒ,,株式会社,石川県,河北郡津幡町,字庄ト１２番地１,,17,361,9290327,,,,,,,2023-03-15,1,,,,,トレースアール,0
189,1260001037741,新規,0,2023-03-15,2023-03-15,株式会社メイグレス,,株式会社,岡山県,岡山市北区,中牧４７８－５,,33,101,7012144,,,,,,,2023-03-15,1,,,,,メイグレス,0
201,1290003013655,新規,0,2023-03-15,2023-03-15,合同会社ＬＳ,,合同会社,福岡県,福岡市南区,三宅３丁目２３番５－２０２号ハミング大橋西Ａ,,40,134,8111344,,,,,,,2023-03-15,1,,,,,エルエス,0
202,1290003013663,新規,0,2023-03-15,2023-03-15,５Ｓ　ＳＨＯＰ合同会社,,合同会社,福岡県,福岡市東区,唐原５丁目１－４７イルマーレ産大前２０２号室,,40,131,8130001,,,,,,,2023-03-15,1,,,,,ゴーエスショップ,0
206,1320001019634,新規,0,2023-03-15,2023-03-15,Ｙ．Ｋ　ＬＡＢＯ株式会社,,株式会社,大分県,豊後高田市,田染真木１７３３番地,,44,209,8790855,,,,,,,2023-03-15,1,,,,,ワイケイラボ,0
218,1380005012687,新規,0,2023-03-15,2023-03-15,一般社団法人獅暁会,,その他の設立登記法人,福島県,いわき市,勿来町窪田町通２丁目１１４番地,,07,204,9790141,,,,,,,2023-03-15,1,,,,,シギョウカイ,0
222,1400001016177,新規,0,2023-03-15,2023-03-15,株式会社大将水産,,株式会社,岩手県,陸前高田市,高田町字大隅９３番地１,,03,210,0292205,,,,,,,2023-03-15,1,,,,,タイショウスイサン,0
224,1400003003041,新規,0,2023-03-15,2023-03-15,合同会社久慈ペレットバイオマスエネルギー,,合同会社,岩手県,久慈市,山形町荷軽部第３地割１８番地,,03,207,0288603,,,,,,,2023-03-15,1,,,,,クジペレットバイオマスエネルギー,0
228,1430001088627,新規,0,2023-03-15,2023-03-15,株式会社アイシンク,,株式会社,北海道,札幌市厚別区,青葉町８丁目３番３－１０３号,,01,108,0040021,,,,,,,2023-03-15,1,,,,,アイシンク,0
236,1460101007351,新規,0,2023-03-15,2023-03-15,株式会社ＴＨＡ　ＢＯＳ,,株式会社,北海道,帯広市,西六条南１０丁目５１番地４－２０１号,,01,207,0800016,,,,,,,2023-03-15,1,,,,,ザボース,0
247,1700150114825,新規,0,2023-03-15,2023-03-15,ＰＥＧＡＳＵＳ　ＪＥＴ　ＬＥＡＳＩＮＧ　６　ＬＩＭＩＴＥＤ,,外国会社等,,,,,,,,３２　Ｍｏｌｅｓｗｏｒｔｈ　Ｓｔｒｅｅｔ，Ｄｕｂｌｉｎ　２，Ｉｒｅｌａｎｄ,,,,,,2023-03-15,1,,,,,ペガサスジエツトリーシングシツクスリミテツド,0
251,2010003040065,新規,0,2023-03-15,2023-03-15,合同会社ＳＯＯＮＧ,,合同会社,東京都,中央区,銀座１丁目２２番１１号銀座大竹ビジデンス２Ｆ,,13,102,1040061,,,,,,,2023-03-15,1,,,,,スーン,0
252,2010003040081,新規,0,2023-03-15,2023-03-15,ＷＲＵＦＦ合同会社,,合同会社,東京都,中央区,日本橋２丁目１番１７号丹生ビル３階,,13,102,1030027,,,,,,,2023-03-15,1,,,,,ヴラフ,0
254,2010101015563,新規,0,2023-03-15,2023-03-15,株式会社よ組,,株式会社,東京都,八王子市,絹ケ丘３丁目２６番１０号,,13,201,1920912,,,,,,,2023-03-15,1,,,,,ヨグミ,0
259,2010401173086,新規,0,2023-03-15,2023-03-15,株式会社クラフトアークス,,株式会社,東京都,港区,南青山２丁目２番１５号ウィン青山９４２,,13,103,1070062,,,,,,,2023-03-15,1,,,,,クラフトアークス,0
260,2010401173111,新規,0,2023-03-15,2023-03-15,ＶＧ‐Ｃ株式会社,,株式会社,東京都,港区,南青山２丁目２番１５号ウィン青山９４２,,13,103,1070062,,,,,,,2023-03-15,1,,,,,ヴィージーシー,0
265,2010405021902,新規,0,2023-03-15,2023-03-15,ソリューション行政書士法人,,その他の設立登記法人,東京都,港区,港南２丁目１６番２号太陽生命品川ビル２８階,,13,103,1080075,,,,,,,2023-03-15,1,,,,,ソリューション,0
266,2010405021927,新規,0,2023-03-15,2023-03-15,一般社団法人東所沢インベストメント,,その他の設立登記法人,東京都,港区,西新橋１丁目２番９号メンターキャピタル税理士法人内,,13,103,1050003,,,,,,,2023-03-15,1,,,,,ヒガシトコロザワインベストメント,0
267,2010501050160,新規,0,2023-03-15,2023-03-15,株式会社ニューライフ,,株式会社,東京都,台東区,東上野２丁目４番１号,,13,106,1100015,,,,,,,2023-03-15,1,,,,,ニューライフ,0
273,2010701043971,新規,0,2023-03-15,2023-03-15,株式会社ホワイトボックス,,株式会社,東京都,品川区,西五反田２丁目１８番３号,,13,109,1410031,,,,,,,2023-03-15,1,,,,,ホワイトボックス,0
274,2010701043988,新規,0,2023-03-15,2023-03-15,株式会社ｂｅｌｌ,,株式会社,東京都,品川区,上大崎３丁目９－２０エクセルシオール目黒２０３,,13,109,1410021,,,,,,,2023-03-15,1,,,,,ベル,0
277,2010905004456,新規,0,2023-03-15,2023-03-15,北斗太陽光発電所一般社団法人,,その他の設立登記法人,東京都,世田谷区,経堂５丁目２０番７号,,13,112,1560052,,,,,,,2023-03-15,1,,,,,ホクトタイヨウコウハツデンショ,0
283,2011001153065,新規,0,2023-03-15,2023-03-15,株式会社ＡＰＳ,,株式会社,東京都,渋谷区,広尾３丁目８番２６号ブリーズプレース羽沢３０４,,13,113,1500012,,,,,,,2023-03-15,1,,,,,エーピーエス,0
284,2011001153156,新規,0,2023-03-15,2023-03-15,Ｆａｉｒｌｉｇｈｔ株式会社,,株式会社,東京都,目黒区,中目黒４丁目６番１７号,,13,110,1530061,,,,,,,2023-03-15,1,,,,,フェアライト,0
285,2011005009899,新規,0,2023-03-15,2023-03-15,一般社団法人日本アウトドアセラピー協会,,その他の設立登記法人,東京都,渋谷区,神宮前６丁目２３番４号桑野ビル２階,,13,113,1500001,,,,,,,2023-03-15,1,,,,,ニホンアウトドアセラピーキョウカイ,0
290,2011301028537,新規,0,2023-03-15,2023-03-15,天晴株式会社,,株式会社,東京都,杉並区,大宮２丁目７番１号サンヴェール西永福３０２,,13,115,1680061,,,,,,,2023-03-15,1,,,,,アッパレ,0
293,2011401024980,新規,0,2023-03-15,2023-03-15,株式会社ザンザス,,株式会社,東京都,板橋区,加賀１丁目８番１６－１３０５号,,13,119,1730003,,,,,,,2023-03-15,1,,,,,ザンザス,0
295,2011501029054,新規,0,2023-03-15,2023-03-15,株式会社たんぶん,,株式会社,東京都,北区,赤羽２丁目１７番５号コープ野村赤羽スイート２０２,,13,117,1150045,,,,,,,2023-03-15,1,,,,,タンブン,0
296,2011503005508,新規,0,2023-03-15,2023-03-15,ＬＵＬＵ　ＣＯＲＰＯＲＡＴＩＯＮ合同会社,,合同会社,東京都,荒川区,町屋７丁目１３番１２号,,13,118,1160001,,,,,,,2023-03-15,1,,,,,ルルコーポレーション,0
297,2011503005516,新規,0,2023-03-15,2023-03-15,合同会社ブリーズ,,合同会社,東京都,荒川区,西尾久５丁目１５番地４号グラップ２０１,,13,118,1160011,,,,,,,2023-03-15,1,,,,,ブリーズ,0
300,2011701026082,新規,0,2023-03-15,2023-03-15,株式会社舟渡,,株式会社,東京都,江戸川区,一之江３丁目２番２６号,,13,123,1320024,,,,,,,2023-03-15,1,,,,,,0
301,2011703003410,新規,0,2023-03-15,2023-03-15,ＱＨ国際貿易合同会社,,合同会社,東京都,江戸川区,西小岩２丁目２０－１６ライオンズマンション西小岩第３・４０７号室,,13,123,1330057,,,,,,,2023-03-15,1,,,,,キューエイチコクサイボウエキ,0
308,2011801042070,新規,0,2023-03-15,2023-03-15,株式会社ミナミ,,株式会社,東京都,足立区,保木間２丁目５番１１号,,13,121,1210064,,,,,,,2023-03-15,1,,,,,ミナミ,0
309,2011801042087,新規,0,2023-03-15,2023-03-15,華晨株式会社,,株式会社,東京都,足立区,興野１丁目１番１７－３０２号,,13,121,1230844,,,,,,,2023-03-15,1,,,,,カシン,0
317,2012401040282,新規,0,2023-03-15,2023-03-15,株式会社ブルーステップ,,株式会社,東京都,多摩市,永山１丁目９番地２３,,13,224,2060025,,,,,,,2023-03-15,1,,,,,ブルーステップ,0
327,2020001150690,新規,0,2023-03-15,2023-03-15,Ｋｎｏｗｌｅｄｇｅ　Ｂｒｉｄｇｅ株式会社,,株式会社,神奈川県,横浜市鶴見区,鶴見中央３丁目３番３４－６０３号,,14,101,2300051,,,,,,,2023-03-15,1,,,,,ナレッジブリッジ,0
331,2020003023523,新規,0,2023-03-15,2023-03-15,合同会社ＴＵＧＩＴＥ,,合同会社,神奈川県,横浜市港北区,綱島西４丁目１６番９－３０７号,,14,109,2230053,,,,,,,2023-03-15,1,,,,,ツギテ,0
332,2020005015873,新規,0,2023-03-15,2023-03-15,医療法人社団ＢＥＴＥＲＡＳ,,その他の設立登記法人,神奈川県,横浜市緑区,長津田５丁目３番７号Ｓａｌｔｕｓ　Ｎａｇａｔｓｕｔａ,,14,113,2260027,,,,,,,2023-03-15,1,,,,,ビーテラス,0
333,2020005015881,新規,0,2023-03-15,2023-03-15,医療法人ＰＬＴ,,その他の設立登記法人,神奈川県,横浜市緑区,長津田町３１６２番地,,14,113,2260026,,,,,,,2023-03-15,1,,,,,ピーエルティー,0
335,2021001078369,新規,0,2023-03-15,2023-03-15,株式会社ＬＩＯ,,株式会社,神奈川県,高座郡寒川町,倉見１７２４－３,,14,321,2530101,,,,,,,2023-03-15,1,,,,,リオ,0
337,2021005012745,新規,0,2023-03-15,2023-03-15,一般社団法人鎌倉わくわくサロン,,その他の設立登記法人,神奈川県,鎌倉市,十二所１３７,,14,204,2480001,,,,,,,2023-03-15,1,,,,,カマクラワクワクサロン,0
343,2030001152868,新規,0,2023-03-15,2023-03-15,株式会社Ｊ・Ｆ,,株式会社,埼玉県,三郷市,戸ケ崎２丁目２７２番地,,11,237,3410044,,,,,,,2023-03-15,1,,,,,ジェイエフ,0
345,2030003021369,新規,0,2023-03-15,2023-03-15,ｄｌｙ合同会社,,合同会社,埼玉県,さいたま市中央区,上落合９丁目９番４－６０１号,,11,105,3380001,,,,,,,2023-03-15,1,,,,,ディーエルワイ,0
346,2030003021377,新規,0,2023-03-15,2023-03-15,合同会社はないろ,,合同会社,埼玉県,川口市,大字東内野５２６番地の１７,,11,203,3330821,,,,,,,2023-03-15,1,,,,,ハナイロ,0
347,2030003021385,新規,0,2023-03-15,2023-03-15,彩アセットマネジメント合同会社,,合同会社,埼玉県,上尾市,中分１丁目１７番地１０,,11,219,3620067,,,,,,,2023-03-15,1,,,,,イロドリアセットマネジメント,0
351,2040001127506,新規,0,2023-03-15,2023-03-15,株式会社クリーンタッチ,,株式会社,千葉県,市川市,稲越１丁目２７番３０号,,12,203,2720831,,,,,,,2023-03-15,1,,,,,クリーンタッチ,0
352,2040001127530,新規,0,2023-03-15,2023-03-15,トータス株式会社,,株式会社,千葉県,千葉市花見川区,横戸町１１８８番地３,,12,102,2620001,,,,,,,2023-03-15,1,,,,,トータス,0
353,2040001127547,新規,0,2023-03-15,2023-03-15,株式会社オートタロー,,株式会社,千葉県,松戸市,東松戸３丁目４番地の３,,12,207,2702225,,,,,,,2023-03-15,1,,,,,オートタロー,0
354,2040003022143,新規,0,2023-03-15,2023-03-15,八女香味茶合同会社,,合同会社,千葉県,南房総市,白浜町白浜２５０７番地５,,12,234,2950102,,,,,,,2023-03-15,1,,,,,ヤメコウミチャ,0
355,2040003022176,新規,0,2023-03-15,2023-03-15,合同会社石原コルク,,合同会社,千葉県,東金市,北之幸谷９１番地３,,12,213,2830061,,,,,,,2023-03-15,1,,,,,イシハラコルク,0
356,2040003022184,新規,0,2023-03-15,2023-03-15,ＧＴ　ＴＯＵＲ合同会社,,合同会社,千葉県,千葉市美浜区,中瀬１丁目３番地幕張テクノガーデン,,12,106,2610023,,,,,,,2023-03-15,1,,,,,ジーティーツアー,0
357,2040005021928,新規,0,2023-03-15,2023-03-15,協同組合タスク,,その他の設立登記法人,千葉県,八街市,八街へ１９９番地９３７,,12,230,2891113,,,,,,,2023-03-15,1,,,,,タスク,0
361,2050003007309,新規,0,2023-03-15,2023-03-15,ＡＬ　ＳＨＡＨＥＥＮ　ＴＲＡＤＥＲＳ合同会社,,合同会社,茨城県,筑西市,赤浜４０１,,08,227,3004523,,,,,,,2023-03-15,1,,,,,アルシャヒーントレーダーズ,0
362,2050003007317,新規,0,2023-03-15,2023-03-15,合同会社Ｓｔｒｉｋｅ‐Ｕ,,合同会社,茨城県,下妻市,柴２６７－３ノースフロンティアＣ２０１,,08,210,3040006,,,,,,,2023-03-15,1,,,,,ストライクユー,0
364,2060001035797,新規,0,2023-03-15,2023-03-15,株式会社Ｔ＆Ｇ,,株式会社,栃木県,宇都宮市,西一の沢町１番４号,,09,201,3200046,,,,,,,2023-03-15,1,,,,,ティーアンドジー,0
369,2080001025516,新規,0,2023-03-15,2023-03-15,株式会社ＯＬＩＯＬＩＣＯＭＰＡＮＹ,,株式会社,静岡県,静岡市清水区,堀込３４５番地の９,,22,103,4240057,,,,,,,2023-03-15,1,,,,,オリオリカンパニー,0
372,2080403004753,新規,0,2023-03-15,2023-03-15,合同会社天水,,合同会社,静岡県,掛川市,七日町１７５番地,,22,213,4360058,,,,,,,2023-03-15,1,,,,,テンスイ,0
373,2090001018023,新規,0,2023-03-15,2023-03-15,株式会社上,,株式会社,山梨県,甲府市,中央４丁目４番３１号,,19,201,4000032,,,,,,,2023-03-15,1,,,,,ウエ,0
375,2100003006899,新規,0,2023-03-15,2023-03-15,合同会社ＨＴＳ,,合同会社,長野県,塩尻市,大字広丘野村１７８８－２８６－４,,20,215,3990702,,,,,,,2023-03-15,1,,,,,エイチティエス,0
380,2120001253203,新規,0,2023-03-15,2023-03-15,ＤＴＣ株式会社,,株式会社,大阪府,大阪市中央区,北久宝寺町４丁目３－８－５０３号,,27,128,5410057,,,,,,,2023-03-15,1,,,,,ディーティーシー,0
381,2120001253277,新規,0,2023-03-15,2023-03-15,株式会社Ｃｉｐｉｓ,,株式会社,大阪府,大阪市淀川区,西中島６丁目４－１３新堂新大阪ビル２０１,,27,123,5320011,,,,,,,2023-03-15,1,,,,,シピス,0
383,2120003023604,新規,0,2023-03-15,2023-03-15,合同会社Ｈ,,合同会社,大阪府,大阪市中央区,東心斎橋１丁目１９番１８号シンサイドビル３０２号,,27,128,5420083,,,,,,,2023-03-15,1,,,,,エイチ,0
389,2120103005114,新規,0,2023-03-15,2023-03-15,合同会社心音,,合同会社,大阪府,南河内郡河南町,大宝４丁目７番３号,,27,382,5850005,,,,,,,2023-03-15,1,,,,,ココロネ,0
391,2120901047258,新規,0,2023-03-15,2023-03-15,くわはら建設株式会社,,株式会社,大阪府,摂津市,南別府町３番２１号,,27,224,5660045,,,,,,,2023-03-15,1,,,,,クワハラケンセツ,0
392,2120903004538,新規,0,2023-03-15,2023-03-15,ＮＥＸＴ合同会社,,合同会社,大阪府,吹田市,佐竹台６丁目１０番７号,,27,205,5650855,,,,,,,2023-03-15,1,,,,,ネクスト,0
394,2130001073856,新規,0,2023-03-15,2023-03-15,ハロースマイル株式会社,,株式会社,京都府,京都市東山区,今熊野椥ノ森町５番地,,26,105,6050971,,,,,,,2023-03-15,1,,,,,ハロースマイル,0
395,2130001073872,新規,0,2023-03-15,2023-03-15,アップ株式会社,,株式会社,京都府,長岡京市,開田１丁目１９番２２号,,26,209,6170826,,,,,,,2023-03-15,1,,,,,アップ,0
400,2140003018817,新規,0,2023-03-15,2023-03-15,ＤＫワークス合同会社,,合同会社,兵庫県,南あわじ市,阿万塩屋町２２８５,,28,224,6560543,,,,,,,2023-03-15,1,,,,,ディーケーワークス,0
402,2150001026234,新規,0,2023-03-15,2023-03-15,株式会社スリーケイ,,株式会社,奈良県,奈良市,広岡町２０２番地１,,29,201,6301101,,,,,,,2023-03-15,1,,,,,スリーケイ,0
406,2160005011173,新規,0,2023-03-15,2023-03-15,行政書士法人盛武事務所,,その他の設立登記法人,滋賀県,大津市,打出浜１３－８,,25,201,5200806,,,,,,,2023-03-15,1,,,,,モリタケジムショ,0
407,2170001017512,新規,0,2023-03-15,2023-03-15,株式会社五栄,,株式会社,和歌山県,橋本市,紀ノ光台２丁目１７番地の１１,,30,203,6480007,,,,,,,2023-03-15,1,,,,,ゴエイ,0
411,2180001155237,新規,0,2023-03-15,2023-03-15,株式会社ブレイン・ゲートプラス,,株式会社,愛知県,名古屋市中村区,名駅４丁目２２番２２号,,23,105,4500002,,,,,,,2023-03-15,1,,,,,ブレインゲートプラス,0
412,2180001155369,新規,0,2023-03-15,2023-03-15,株式会社よし双,,株式会社,愛知県,名古屋市昭和区,石仏町１丁目５４番地,,23,107,4660023,,,,,,,2023-03-15,1,,,,,ヨシソウ,0
413,2180001155385,新規,0,2023-03-15,2023-03-15,株式会社Ｒａｂｂｉｔ　Ｆｉｖｅ,,株式会社,愛知県,名古屋市中区,丸の内３丁目２３番２３号,,23,106,4600002,,,,,,,2023-03-15,1,,,,,ラビットファイブ,0
417,2180003024992,新規,0,2023-03-15,2023-03-15,合同会社ＯＫＤ　Ｅｄｕｃａｔｉｏｎｓ,,合同会社,愛知県,名古屋市天白区,元植田２丁目４０３番地コーポルピナス１０１号,,23,116,4680009,,,,,,,2023-03-15,1,,,,,オーケーディーエデュケーションズ,0
427,2180305009452,新規,0,2023-03-15,2023-03-15,一般社団法人狸山ちびっ子広場管理組合,,その他の設立登記法人,愛知県,豊田市,若林西町上ノ山９２,,23,211,4730917,,,,,,,2023-03-15,1,,,,,タヌキヤマチビッコヒロバカンリクミアイ,0
430,2190001030249,新規,0,2023-03-15,2023-03-15,スカイパイロット株式会社,,株式会社,三重県,津市,東丸之内１７番１号,,24,201,5140028,,,,,,,2023-03-15,1,,,,,スカイパイロット,0
436,2250003003238,新規,0,2023-03-15,2023-03-15,合同会社インテリア技巧,,合同会社,山口県,山口市,吉田２６５０番地９,,35,203,7530841,,,,,,,2023-03-15,1,,,,,インテリアギコウ,0
439,2260003004235,新規,0,2023-03-15,2023-03-15,合同会社ユーティリティ設計,,合同会社,岡山県,岡山市南区,浦安本町７５番地３７,,33,104,7028026,,,,,,,2023-03-15,1,,,,,ユーティリティセッケイ,0
440,2270001008740,新規,0,2023-03-15,2023-03-15,ＯＲＣＡ遺言執行株式会社,,株式会社,鳥取県,米子市,上福原２３５番地９,,31,202,6830004,,,,,,,2023-03-15,1,,,,,オルカユイゴンシッコウ,0
446,2290003013662,新規,0,2023-03-15,2023-03-15,合同会社Ｕｈｈｏ,,合同会社,福岡県,福岡市中央区,高砂２丁目８番１５号ガットタカサゴプレチサメンテ１Ｆ,,40,133,8100011,,,,,,,2023-03-15,1,,,,,ウッホ,0
449,2320001019633,新規,0,2023-03-15,2023-03-15,株式会社アール・ベスト,,株式会社,大分県,別府市,野口中町８番２７号第１みどり荘１１号,,44,202,8740932,,,,,,,2023-03-15,1,,,,,アールベスト,0
452,2330001030671,新規,0,2023-03-15,2023-03-15,株式会社シールドマトリックス,,株式会社,熊本県,熊本市東区,東野４丁目１５番６３号エスポワールナカムラＢ２０５,,43,102,8612106,,,,,,,2023-03-15,1,,,,,シールドマトリックス,0
453,2330001030688,新規,0,2023-03-15,2023-03-15,株式会社宮川,,株式会社,熊本県,熊本市南区,八幡６丁目１番１３０号,,43,104,8614113,,,,,,,2023-03-15,1,,,,,ミヤガワ,0
462,2360001031700,新規,0,2023-03-15,2023-03-15,ＹＩＣ株式会社,,株式会社,沖縄県,浦添市,宮城２丁目３番１３号,,47,208,9012126,,,,,,,2023-03-15,1,,,,,ワイアイシー,0
463,2360001031725,新規,0,2023-03-15,2023-03-15,株式会社Ｆｌｏｓｔ,,株式会社,沖縄県,那覇市,おもろまち１丁目２番地１７、１０１号室,,47,201,9000006,,,,,,,2023-03-15,1,,,,,フロスト,0
466,2360003012789,新規,0,2023-03-15,2023-03-15,ＷＹＳ　ＳＯＬＵＴＩＯＮＳ合同会社,,合同会社,沖縄県,那覇市,西２丁目１２－１－８０４ファミール西町ポートサイド,,47,201,9000036,,,,,,,2023-03-15,1,,,,,ワイズソリューションズ,0
476,2400005008310,新規,0,2023-03-15,2023-03-15,医療法人オオサワメディカル,,その他の設立登記法人,岩手県,盛岡市,茶畑２丁目８番３号,,03,201,0200822,,,,,,,2023-03-15,1,,,,,オオサワメディカル,0
479,2420001018187,新規,0,2023-03-15,2023-03-15,ＺＡＨＩＤ　ＴＲＡＤＩＮＧ株式会社,,株式会社,青森県,十和田市,大字三本木字北平１１０番地５Ｄ－１号,,02,206,0340001,,,,,,,2023-03-15,1,,,,,ザヒドトレーディング,0
480,2430001088634,新規,0,2023-03-15,2023-03-15,株式会社ａｌｌ　ｗｅａｔｈｅｒ　ｂｅａｕｔｙ,,株式会社,北海道,札幌市厚別区,青葉町１１丁目１番１－７０３号,,01,108,0040021,,,,,,,2023-03-15,1,,,,,オールウェザービューティー,0
485,2480001012036,新規,0,2023-03-15,2023-03-15,株式会社ＡＲＣＨＥ,,株式会社,徳島県,徳島市,東船場町１丁目１７セゾン東船場３階Ｄ号室,,36,201,7700911,,,,,,,2023-03-15,1,,,,,アルケー,0
490,2500003002998,新規,0,2023-03-15,2023-03-15,合同会社川崎美術,,合同会社,愛媛県,松山市,南江戸５丁目４番１４号,,38,201,7900062,,,,,,,2023-03-15,1,,,,,カワサキビジュツ,0
495,2700150114824,新規,0,2023-03-15,2023-03-15,ナラダエネルギー有限会社,,外国会社等,東京都,中央区,晴海２丁目３番２－９０７号,,13,102,1040053,大韓民国ソウル特別市中区清渓川路１００、１１階１１２０号（水標洞、シグネチァタワー西館）,,,,,,2023-03-15,1,,,,,ナラダエネルギーユウゲンガイシヤ,0
513,3010401172855,新規,0,2023-03-15,2023-03-15,株式会社フュチュール,,株式会社,東京都,港区,浜松町１丁目２０番１０号ライオネス浜松町５０６号,,13,103,1050013,,,,,,,2023-03-15,1,,,,,フュチュール,0
520,3010501050110,新規,0,2023-03-15,2023-03-15,山海中文株式会社,,株式会社,東京都,台東区,浅草橋１丁目２５－７－２０２,,13,106,1110053,,,,,,,2023-03-15,1,,,,,サンカイチュウブン,0
521,3010501050151,新規,0,2023-03-15,2023-03-15,株式会社ＮＰＩホールディングス,,株式会社,東京都,台東区,東上野４丁目１番９号,,13,106,1100015,,,,,,,2023-03-15,1,,,,,エヌピーアイホールディングス,0
529,3010803004474,新規,0,2023-03-15,2023-03-15,ひかり合同会社,,合同会社,東京都,大田区,上池台１丁目１７番２号ハイツ上池３０３,,13,111,1450064,,,,,,,2023-03-15,1,,,,,ヒカリ,0
536,3010903008029,新規,0,2023-03-15,2023-03-15,ＡＫメディカルコンサルティング合同会社,,合同会社,東京都,世田谷区,祖師谷６丁目１５番３３号,,13,112,1570072,,,,,,,2023-03-15,1,,,,,エーケーメディカルコンサルティング,0
537,3010905004455,新規,0,2023-03-15,2023-03-15,一般社団法人オルガニッツァ,,その他の設立登記法人,東京都,世田谷区,中町２丁目３０番２２号,,13,112,1580091,,,,,,,2023-03-15,1,,,,,オルガニッツァ,0
542,3011001153147,新規,0,2023-03-15,2023-03-15,株式会社ラッシュ,,株式会社,東京都,渋谷区,渋谷２丁目１１番５号クロス渋谷ｍｅｄｉｏ,,13,113,1500002,,,,,,,2023-03-15,1,,,,,ラッシュ,0
543,3011001153163,新規,0,2023-03-15,2023-03-15,株式会社オリエンス,,株式会社,東京都,渋谷区,恵比寿南３丁目１１番２５－２１２号プラウド恵比寿ヒルサイドガーデン,,13,113,1500022,,,,,,,2023-03-15,1,,,,,オリエンス,0
545,3011003016450,新規,0,2023-03-15,2023-03-15,ＢＣＳ合同会社,,合同会社,東京都,渋谷区,広尾５丁目４番７－１２０１号,,13,113,1500012,,,,,,,2023-03-15,1,,,,,ビーシーエス,0
551,3011101102169,新規,0,2023-03-15,2023-03-15,ＬＳＡ　ＣＯＮＳＵＬＴｉＮＧ株式会社,,株式会社,東京都,新宿区,西新宿３丁目３番１３号西新宿水間ビル２Ｆ,,13,104,1600023,,,,,,,2023-03-15,1,,,,,エルエスエーコンサルティング,0
553,3011201024478,新規,0,2023-03-15,2023-03-15,株式会社ＫＳＯ,,株式会社,東京都,中野区,中野３丁目３８番２号ヒースローズ２０３号,,13,114,1640001,,,,,,,2023-03-15,1,,,,,ケーエスオー,0
554,3011301028544,新規,0,2023-03-15,2023-03-15,ＳＨＩＮＩＮＧ株式会社,,株式会社,東京都,杉並区,善福寺２丁目２４番８号,,13,115,1670041,,,,,,,2023-03-15,1,,,,,シャイニング,0
556,3011403003940,新規,0,2023-03-15,2023-03-15,合同会社たびのわ,,合同会社,東京都,板橋区,赤塚１丁目２１番１３号,,13,119,1750092,,,,,,,2023-03-15,1,,,,,タビノワ,0
559,3011605002501,新規,0,2023-03-15,2023-03-15,医療法人社団歯博会,,その他の設立登記法人,東京都,練馬区,旭町１丁目３８番１２号,,13,120,1790071,,,,,,,2023-03-15,1,,,,,シハクカイ,0
568,3011801042078,新規,0,2023-03-15,2023-03-15,株式会社０９３,,株式会社,東京都,葛飾区,小菅２丁目２０番１８－２０４号,,13,122,1240001,,,,,,,2023-03-15,1,,,,,オーナインスリー,0
573,3012401040257,新規,0,2023-03-15,2023-03-15,株式会社魁建設,,株式会社,東京都,稲城市,坂浜３３２２－６,,13,225,2060822,,,,,,,2023-03-15,1,,,,,サキガケケンセツ,0
576,3012405004844,新規,0,2023-03-15,2023-03-15,医療法人社団西季会,,その他の設立登記法人,東京都,調布市,下石原２丁目６番地１４ラ・メゾン１階,,13,208,1820034,,,,,,,2023-03-15,1,,,,,サイキカイ,0
577,3012801022202,新規,0,2023-03-15,2023-03-15,ＨＩＧＨ　ＢＲＩＤＧＥ　ＪＡＰＡＮ株式会社,,株式会社,東京都,立川市,砂川町８丁目７８番地の８グラース２０２,,13,202,1900031,,,,,,,2023-03-15,1,,,,,ハイブリッジジャパン,0
585,3020005015864,新規,0,2023-03-15,2023-03-15,一般社団法人日韓エチオピア友情の会,,その他の設立登記法人,神奈川県,川崎市宮前区,犬蔵３丁目５番１－４０３号,,14,136,2160011,,,,,,,2023-03-15,1,,,,,ニッカンエチオピアユウジョウノカイ,0
586,3020005015872,新規,0,2023-03-15,2023-03-15,一般社団法人ＥＮＴＬＩＮＫ,,その他の設立登記法人,神奈川県,川崎市宮前区,神木本町４丁目１２番２２号,,14,136,2160031,,,,,,,2023-03-15,1,,,,,エントリンク,0
587,3020005015880,新規,0,2023-03-15,2023-03-15,医療法人Ａｋａｔｓｕｋｉ,,その他の設立登記法人,神奈川県,横浜市青葉区,元石川町３７１６番地３スカイガーデン元石川１０３号室,,14,117,2250004,,,,,,,2023-03-15,1,,,,,,0
593,3021001078418,新規,0,2023-03-15,2023-03-15,株式会社ｃｏｃｏｌｅ,,株式会社,神奈川県,藤沢市,南藤沢１８番１号,,14,205,2510055,,,,,,,2023-03-15,1,,,,,ココレ,0
594,3021001078426,新規,0,2023-03-15,2023-03-15,株式会社清水,,株式会社,神奈川県,平塚市,寺田縄４３１番地の９,,14,203,2591215,,,,,,,2023-03-15,1,,,,,シミズ,0
595,3021001078459,新規,0,2023-03-15,2023-03-15,株式会社和田商事,,株式会社,神奈川県,厚木市,金田３９２番地,,14,212,2430807,,,,,,,2023-03-15,1,,,,,ワダショウジ,0
600,3021003012878,新規,0,2023-03-15,2023-03-15,合同会社ＰＨＹＳＥＳＴ　ＳＴＹＬＥ,,合同会社,神奈川県,綾瀬市,寺尾北２丁目１５番４号,,14,218,2521131,,,,,,,2023-03-15,1,,,,,フィゼストスタイル,0
601,3021005012752,新規,0,2023-03-15,2023-03-15,行政書士法人アシスト相模,,その他の設立登記法人,神奈川県,愛甲郡愛川町,中津７２７４番地２Ｆ－Ｂ,,14,401,2430303,,,,,,,2023-03-15,1,,,,,アシストサガミ,0
608,3030001152826,新規,0,2023-03-15,2023-03-15,株式会社サンイチマル,,株式会社,埼玉県,川越市,新富町１丁目５番地４,,11,201,3500043,,,,,,,2023-03-15,1,,,,,サンイチマル,0
613,3040001127521,新規,0,2023-03-15,2023-03-15,株式会社おかもと,,株式会社,千葉県,印西市,牧の原４丁目１８－１０４,,12,231,2701331,,,,,,,2023-03-15,1,,,,,オカモト,0
616,3040005021927,新規,0,2023-03-15,2023-03-15,灯かり税理士法人,,その他の設立登記法人,千葉県,千葉市花見川区,検見川町３丁目３００番地１３,,12,102,2620023,,,,,,,2023-03-15,1,,,,,アカリ,0
620,3050001052537,新規,0,2023-03-15,2023-03-15,株式会社マイプレシャスワン,,株式会社,茨城県,取手市,井野１丁目１０番３２号,,08,217,3020011,,,,,,,2023-03-15,1,,,,,マイプレシャスワン,0
622,3050005013221,新規,0,2023-03-15,2023-03-15,特定非営利活動法人ＮＰＯ日本農業推進人材育成機構,,その他の設立登記法人,茨城県,つくば市,吾妻１丁目５番７ダイワロイネットホテルつくばビル２Ｆ,,08,220,3050031,,,,,,,2023-03-15,1,,,,,,0
629,3080401026377,新規,0,2023-03-15,2023-03-15,ＳＨＯＤＡ　ＨＤ株式会社,,株式会社,静岡県,浜松市北区,新都田１丁目９番２号,,22,135,4312103,,,,,,,2023-03-15,1,,,,,ショーダエイチディ,0
644,3120001253202,新規,0,2023-03-15,2023-03-15,ＨＹ株式会社,,株式会社,大阪府,大阪市淀川区,新高１丁目１４－６１,,27,123,5320033,,,,,,,2023-03-15,1,,,,,エイチワイ,0
645,3120001253243,新規,0,2023-03-15,2023-03-15,株式会社ＷＩＮＧ　ＲＥＡＬ　ＥＳＴＡＴＥ,,株式会社,大阪府,門真市,舟田町１５番２１号,,27,223,5710021,,,,,,,2023-03-15,1,,,,,ウイングリアルエステート,0
656,3120105009698,新規,0,2023-03-15,2023-03-15,一般社団法人国際総合研究所,,その他の設立登記法人,大阪府,堺市堺区,砂道町１丁１０番１８号国際ビル,,27,141,5900002,,,,,,,2023-03-15,1,,,,,コクサイソウゴウケンキュウショ,0
661,3122001036792,新規,0,2023-03-15,2023-03-15,株式会社ＥＲＥＵＳ,,株式会社,大阪府,東大阪市,菱屋西１丁目１４番１７号,,27,227,5770807,,,,,,,2023-03-15,1,,,,,エレウス,0
662,3130001073847,新規,0,2023-03-15,2023-03-15,株式会社Ｋａｎｂｉ,,株式会社,京都府,亀岡市,西つつじケ丘雲仙台２丁目１１番６号,,26,206,6210842,,,,,,,2023-03-15,1,,,,,カンビ,0
663,3130001073863,新規,0,2023-03-15,2023-03-15,株式会社日下部農園,,株式会社,京都府,京丹後市,久美浜町鹿野１５４３番地,,26,212,6293431,,,,,,,2023-03-15,1,,,,,クサカベノウエン,0
670,3140001129458,新規,0,2023-03-15,2023-03-15,株式会社アール,,株式会社,兵庫県,西宮市,安井町５番２５－４号,,28,204,6620045,,,,,,,2023-03-15,1,,,,,アール,0
671,3140001129466,新規,0,2023-03-15,2023-03-15,株式会社ＫＵＲＥ４,,株式会社,兵庫県,神戸市長田区,腕塚町９丁目４番５号,,28,106,6530036,,,,,,,2023-03-15,1,,,,,クレヨン,0
674,3140003018849,新規,0,2023-03-15,2023-03-15,Ｓ・Ｋ国際音楽合同会社,,合同会社,兵庫県,明石市,魚住町金ケ崎１４４４番地の３,,28,203,6740071,,,,,,,2023-03-15,1,,,,,エスケイコクサイオンガク,0
676,3160001024896,新規,0,2023-03-15,2023-03-15,株式会社すおう,,株式会社,滋賀県,近江八幡市,新町４丁目３４番地,,25,204,5230871,,,,,,,2023-03-15,1,,,,,スオウ,0
686,3190001030248,新規,0,2023-03-15,2023-03-15,株式会社エクステリア森,,株式会社,三重県,鈴鹿市,石薬師町２４５８番地の１００,,24,207,5130012,,,,,,,2023-03-15,1,,,,,エクステリアモリ,0
688,3190003004266,新規,0,2023-03-15,2023-03-15,合同会社Ｂｅｌｉｅｖｅ,,合同会社,三重県,鈴鹿市,寺家２丁目１２番２２号,,24,207,5100254,,,,,,,2023-03-15,1,,,,,ビリーブ,0
693,3200003005898,新規,0,2023-03-15,2023-03-15,合同会社飛騨サポート,,合同会社,岐阜県,高山市,花里町１丁目１３７番地９ベルシエルＩＩＩ号室,00129753,21,203,5060026,,,,,,,2023-03-15,1,,,,,ヒダサポート,0
695,3220001025310,新規,0,2023-03-15,2023-03-15,ＨＡＲＵＫＡ株式会社,,株式会社,石川県,白山市,宮丸町８８番地,,17,210,9240033,,,,,,,2023-03-15,1,,,,,ハルカ,0
696,3230002000922,新規,0,2023-03-15,2023-03-15,有限会社喜多本建設,,有限会社,富山県,富山市,長江本町１６番２３号,,16,201,9300962,,,,,,,2023-03-15,1,,,,,キタモトケンセツ,0
706,3290001100866,新規,0,2023-03-15,2023-03-15,株式会社Ｖｉｒｉｓｅ,,株式会社,福岡県,福岡市博多区,中洲中島町３番１５－１４０７号ウェルリバービュー天神,,40,132,8100802,,,,,,,2023-03-15,1,,,,,ヴィライズ,0
707,3290001100899,新規,0,2023-03-15,2023-03-15,株式会社アルバ不動産,,株式会社,福岡県,久留米市,新合川１丁目５番５号,,40,203,8390865,,,,,,,2023-03-15,1,,,,,アルバフドウサン,0
711,3290801029371,新規,0,2023-03-15,2023-03-15,株式会社Ｉ・Ｍ電子パーツ,,株式会社,福岡県,田川市,大字伊田５０１５番地,,40,206,8250002,,,,,,,2023-03-15,1,,,,,アイエムデンシパーツ,0
716,3320001019632,新規,0,2023-03-15,2023-03-15,株式会社河村建設工業,,株式会社,大分県,大分市,田中町２丁目７番５３－２０６号カーサＳＨＩＮ,,44,201,8700852,,,,,,,2023-03-15,1,,,,,カワムラケンセツコウギョウ,0
720,3330005010636,新規,0,2023-03-15,2023-03-15,社会保険労務士法人ｅＲｉａ・ハート,,その他の設立登記法人,熊本県,熊本市北区,清水亀井町１６番１１号,,43,105,8618066,,,,,,,2023-03-15,1,,,,,エリアハート,0
726,3370001049708,新規,0,2023-03-15,2023-03-15,株式会社小川商店,,株式会社,宮城県,仙台市宮城野区,原町５丁目１３番２０号２０３,,04,102,9830841,,,,,,,2023-03-15,1,,,,,オガワショウテン,0
729,3390001017191,新規,0,2023-03-15,2023-03-15,株式会社太和装業,,株式会社,山形県,東村山郡山辺町,緑ケ丘３丁目３番地２,,06,301,9900302,,,,,,,2023-03-15,1,,,,,タイワソウギョウ,0
741,3470003002365,新規,0,2023-03-15,2023-03-15,合同会社コンサルテーション惠,,合同会社,香川県,高松市,牟礼町大町２３９１番地４５,,37,201,7610122,,,,,,,2023-03-15,1,,,,,コンサルテーションメグミ,0
742,3480001012035,新規,0,2023-03-15,2023-03-15,清水技研株式会社,,株式会社,徳島県,阿南市,見能林町青木２６５番地,,36,204,7740017,,,,,,,2023-03-15,1,,,,,シミズギケン,0
748,3700150114815,新規,0,2023-03-15,2023-03-15,智暉国際貿易有限公司,,外国会社等,群馬県,渋川市,伊香保町伊香保１６６－１７,,10,208,3770102,中華民国高雄市大社区大社路３４巷３之３号１楼,,,,,,2023-03-15,1,,,,,チキコクサイボウエキユウゲンコウシ,0
749,3700150114823,新規,0,2023-03-15,2023-03-15,ＳＣＳ　ＧＬＯＢＡＬ　ＰＲＯＦＥＳＳＩＯＮＡＬＳ・Ｓ・ＰＴＥ．ＬＴＤ．,,外国会社等,東京都,港区,虎ノ門２丁目２番５号共同通信会館４階ＳＣＳ国際税理士法人内,,13,103,1050001,シンガポール共和国０７９９０３　アンソン・ロード１０、インターナショナル・プラザ＃１４－０６,,,,,,2023-03-15,1,,,,,エスシーエスグローバルプロフェッショナルスエスピーティーイーエルティーディー,0
751,4010001233734,新規,0,2023-03-15,2023-03-15,株式会社ＲＭＲキャピタル,,株式会社,東京都,文京区,大塚６丁目１４番２０－１０４号,,13,105,1120012,,,,,,,2023-03-15,1,,,,,アールエムアールキャピタル,0
766,4010401173051,新規,0,2023-03-15,2023-03-15,株式会社ユーアイ・エステート,,株式会社,東京都,港区,芝浦１丁目６番４１号,,13,103,1050023,,,,,,,2023-03-15,1,,,,,ユーアイエステート,0
767,4010401173101,新規,0,2023-03-15,2023-03-15,ＭＢｒｉｄｇｅ株式会社,,株式会社,東京都,港区,浜松町２丁目２番１５号浜松町ダイヤビル２Ｆ,,13,103,1050013,,,,,,,2023-03-15,1,,,,,エムブリッジ,0
769,4010405021917,新規,0,2023-03-15,2023-03-15,医療法人社団貴吉会,,その他の設立登記法人,東京都,港区,高輪１丁目５番２１号ルート高輪ビル１階,,13,103,1080074,,,,,,,2023-03-15,1,,,,,タカヨシカイ,0
772,4010603010060,新規,0,2023-03-15,2023-03-15,Ｎｕｖｅｍ合同会社,,合同会社,東京都,墨田区,横網２丁目６－２,,13,107,1300015,,,,,,,2023-03-15,1,,,,,ヌーベン,0
775,4010701043978,新規,0,2023-03-15,2023-03-15,株式会社ＦＫＦＡＮ,,株式会社,東京都,品川区,西五反田２丁目２３番５号,,13,109,1410031,,,,,,,2023-03-15,1,,,,,エフケーファン,0
777,4010705003490,新規,0,2023-03-15,2023-03-15,一般社団法人ことばアートの会,,その他の設立登記法人,東京都,品川区,南大井３丁目３５番７－４０２号,,13,109,1400013,,,,,,,2023-03-15,1,,,,,コトバアートノカイ,0
779,4010803004473,新規,0,2023-03-15,2023-03-15,合同会社ＫＥＩＮＡｎ,,合同会社,東京都,大田区,仲六郷３丁目３番４号,,13,111,1440055,,,,,,,2023-03-15,1,,,,,ケイナン,0
781,4010905004454,新規,0,2023-03-15,2023-03-15,一般社団法人リカレントＲＥＣ,,その他の設立登記法人,東京都,世田谷区,若林３丁目２３－５－１０３,,13,112,1540023,,,,,,,2023-03-15,1,,,,,リカレントレック,0
794,4011001153146,新規,0,2023-03-15,2023-03-15,株式会社ｅｙｅｌｏｇ,,株式会社,東京都,渋谷区,恵比寿西１丁目３番１０号ＥＢＩＳＵＴＡＮＡＫＡＢＬＤＧ．７Ｆ,,13,113,1500021,,,,,,,2023-03-15,1,,,,,アイログ,0
795,4011001153154,新規,0,2023-03-15,2023-03-15,ｍｏｎ　ｅｎｆａｎｔ株式会社,,株式会社,東京都,渋谷区,道玄坂１丁目１０番８号渋谷道玄坂東急ビル２Ｆ－Ｃ,,13,113,1500043,,,,,,,2023-03-15,1,,,,,モーンアンファン,0
796,4011003016400,新規,0,2023-03-15,2023-03-15,合同会社サボテンワークス,,合同会社,東京都,渋谷区,本町３丁目２８番１４－１０２号,,13,113,1510071,,,,,,,2023-03-15,1,,,,,サボテンワークス,0
797,4011003016433,新規,0,2023-03-15,2023-03-15,みなで合同会社,,合同会社,東京都,渋谷区,道玄坂１丁目１６－６二葉ビル８ｂ,,13,113,1500043,,,,,,,2023-03-15,1,,,,,ミナデ,0
798,4011101102135,新規,0,2023-03-15,2023-03-15,株式会社アマルタ,,株式会社,東京都,新宿区,西新宿３丁目３番１３号西新宿水間ビル６階,,13,104,1600023,,,,,,,2023-03-15,1,,,,,アマルタ,0
799,4011101102151,新規,0,2023-03-15,2023-03-15,株式会社マルシェ,,株式会社,東京都,新宿区,河田町３番５１－３５１２号,,13,104,1620054,,,,,,,2023-03-15,1,,,,,マルシェ,0
803,4011301028535,新規,0,2023-03-15,2023-03-15,株式会社ＨＳＪ,,株式会社,東京都,杉並区,永福１丁目３９番１０号キャスル永福町２０１,,13,115,1680064,,,,,,,2023-03-15,1,,,,,エイチエスジェイ,0
807,4011501029052,新規,0,2023-03-15,2023-03-15,株式会社ＺＡＭＢＨＡＬＡ,,株式会社,東京都,荒川区,西日暮里５丁目１８－１１号パーク２ビル,,13,118,1160013,,,,,,,2023-03-15,1,,,,,ザンバラ,0
808,4011505002542,新規,0,2023-03-15,2023-03-15,一般社団法人さかなの会,,その他の設立登記法人,東京都,北区,王子５丁目２番２－６０１号,,13,117,1140002,,,,,,,2023-03-15,1,,,,,サカナノカイ,0
811,4011801042077,新規,0,2023-03-15,2023-03-15,株式会社三友コーポレーション,,株式会社,東京都,葛飾区,お花茶屋２丁目４番２７号,,13,122,1240003,,,,,,,2023-03-15,1,,,,,ミツトモコーポレーション,0
812,4011801042093,新規,0,2023-03-15,2023-03-15,株式会社Ｈ＆Ｙコーポレーション,,株式会社,東京都,葛飾区,鎌倉３丁目５３－４,,13,122,1250053,,,,,,,2023-03-15,1,,,,,エイチアンドワイコーポレーション,0
815,4012301013353,新規,0,2023-03-15,2023-03-15,株式会社ミウラ建設,,株式会社,東京都,町田市,南成瀬７丁目１番地８,,13,209,1940045,,,,,,,2023-03-15,1,,,,,ミウラケンセツ,0
818,4012403005884,新規,0,2023-03-15,2023-03-15,オモイカネストラテジー合同会社,,合同会社,東京都,多摩市,聖ヶ丘２丁目５２番地の５,,13,224,2060022,,,,,,,2023-03-15,1,,,,,オモイカネストラテジー,0
819,4012705002349,新規,0,2023-03-15,2023-03-15,医療法人社団Ｈｅｒｍｉｔｃｒａｂ,,その他の設立登記法人,東京都,小平市,津田町１丁目３番８号シティホーム鷹の台＃２－１階,,13,211,1870025,,,,,,,2023-03-15,1,,,,,ハーミットクラブ,0
820,4012801022201,新規,0,2023-03-15,2023-03-15,株式会社上総屋,,株式会社,東京都,東大和市,清水６丁目１１８２番地の２,,13,220,2070004,,,,,,,2023-03-15,1,,,,,カズサヤ,0
823,4013301050452,新規,0,2023-03-15,2023-03-15,ＲｅｄＦｉｒｅ株式会社,,株式会社,東京都,豊島区,池袋２丁目４７番１２号－１Ｆ,,13,116,1710014,,,,,,,2023-03-15,1,,,,,レッドファイアー,0
827,4020001150672,新規,0,2023-03-15,2023-03-15,鵬成商事株式会社,,株式会社,神奈川県,横浜市南区,中村町１丁目２８番地６,,14,105,2320033,,,,,,,2023-03-15,1,,,,,ホウセイショウジ,0
828,4020001150680,新規,0,2023-03-15,2023-03-15,千江株式会社,,株式会社,神奈川県,川崎市麻生区,高石４丁目１７番３０－７０２号,,14,137,2150003,,,,,,,2023-03-15,1,,,,,チエ,0
830,4020003023521,新規,0,2023-03-15,2023-03-15,合同会社梅沢園,,合同会社,神奈川県,横浜市戸塚区,小雀町２３５番地,,14,110,2440004,,,,,,,2023-03-15,1,,,,,ウメザワエン,0
831,4020005015888,新規,0,2023-03-15,2023-03-15,医療法人恵泉会,,その他の設立登記法人,神奈川県,横浜市金沢区,瀬戸４番３号恵泉ビル２階,,14,108,2360027,,,,,,,2023-03-15,1,,,,,ケイセンカイ,0
836,4021001078441,新規,0,2023-03-15,2023-03-15,株式会社ＴＯＮＯＭＡＳＵ,,株式会社,神奈川県,鎌倉市,大町６丁目１０番６号,,14,204,2480007,,,,,,,2023-03-15,1,,,,,トノマス,0
840,4021003012877,新規,0,2023-03-15,2023-03-15,Ｗｅｂ　ｏｆ　Ｌｉｆｅ合同会社,,合同会社,神奈川県,藤沢市,辻堂１丁目２番２,,14,205,2510047,,,,,,,2023-03-15,1,,,,,ウエブオブライフ,0
841,4021003012885,新規,0,2023-03-15,2023-03-15,ヘルシリア・マーケティング合同会社,,合同会社,神奈川県,小田原市,中町２丁目１７番１号グランシャリオ３０２,,14,206,2500005,,,,,,,2023-03-15,1,,,,,ヘルシリアマーケティング,0
850,4030001152841,新規,0,2023-03-15,2023-03-15,株式会社ＴＡＸライフ,,株式会社,埼玉県,蕨市,中央３丁目３番１５号オクダヤビル３階,,11,223,3350004,,,,,,,2023-03-15,1,,,,,タックスライフ,0
857,4040001127487,新規,0,2023-03-15,2023-03-15,株式会社エヌアイブレインズカンパニー,,株式会社,千葉県,八千代市,八千代台西３丁目９番地の１３,,12,221,2760034,,,,,,,2023-03-15,1,,,,,エヌアイブレインズカンパニー,0
858,4040001127512,新規,0,2023-03-15,2023-03-15,不死鳥株式会社,,株式会社,千葉県,八街市,八街ほ６０６－１７,,12,230,2891115,,,,,,,2023-03-15,1,,,,,フシチョウ,0
861,4040003022174,新規,0,2023-03-15,2023-03-15,合同会社ＬＩＮＫ,,合同会社,千葉県,千葉市美浜区,高浜１丁目１４番７棟９０１号,,12,106,2610003,,,,,,,2023-03-15,1,,,,,リンク,0
862,4050003007307,新規,0,2023-03-15,2023-03-15,合同会社目黒総業,,合同会社,茨城県,ひたちなか市,相金町３番地４,,08,221,3111246,,,,,,,2023-03-15,1,,,,,メグロソウギョウ,0
863,4050003007315,新規,0,2023-03-15,2023-03-15,合同会社Ｐａｒｉｓ,,合同会社,茨城県,水戸市,中央１丁目５番１８号ビラージュブルースカイ１０３号,,08,201,3100805,,,,,,,2023-03-15,1,,,,,パリス,0
867,4070001040225,新規,0,2023-03-15,2023-03-15,株式会社アウル,,株式会社,群馬県,高崎市,正観寺町４５９番地２メゾンＩＴＳ１０３号,,10,202,3700008,,,,,,,2023-03-15,1,,,,,アウル,0
868,4080001025514,新規,0,2023-03-15,2023-03-15,ＨＡＮＳ・ＪＡＰＡＮ株式会社,,株式会社,静岡県,藤枝市,藤枝５丁目１０番８号オリジナルハウスオフィスビル３Ｆ,,22,214,4260025,,,,,,,2023-03-15,1,,,,,ハンズジャパン,0
869,4080101023855,新規,0,2023-03-15,2023-03-15,株式会社Ｋキャピタル,,株式会社,静岡県,沼津市,岡宮１０１２番地の１,,22,203,4100011,,,,,,,2023-03-15,1,,,,,ケーキャピタル,0
872,4090003002279,新規,0,2023-03-15,2023-03-15,合同会社やなぎに猫,,合同会社,山梨県,笛吹市,御坂町栗合６２－３,,19,211,4060805,,,,,,,2023-03-15,1,,,,,ヤナギニネコ,0
877,4110001037373,新規,0,2023-03-15,2023-03-15,株式会社ＲＹＮ,,株式会社,新潟県,新潟市中央区,万代２丁目４番３４号１２０２号室,,15,103,9500088,,,,,,,2023-03-15,1,,,,,ライン,0
892,4120001253184,新規,0,2023-03-15,2023-03-15,株式会社Ｈｅｒｃｕｌｅｓ,,株式会社,大阪府,大阪市北区,梅田２丁目４－９ブリーゼタワー１階,,27,127,5300001,,,,,,,2023-03-15,1,,,,,ヘラクレス,0
893,4120001253201,新規,0,2023-03-15,2023-03-15,峻騰株式会社,,株式会社,大阪府,大阪市浪速区,日本橋４丁目１７－１４－３Ｆ,,27,111,5560005,,,,,,,2023-03-15,1,,,,,シュントウ,0
894,4120001253242,新規,0,2023-03-15,2023-03-15,米澤株式会社,,株式会社,大阪府,大阪市中央区,玉造２丁目２１番１０号,,27,128,5400004,,,,,,,2023-03-15,1,,,,,ヨネザワ,0
897,4120003023610,新規,0,2023-03-15,2023-03-15,ジェリーズオート合同会社,,合同会社,大阪府,枚方市,藤阪西町１番１－５０１号,,27,210,5730158,,,,,,,2023-03-15,1,,,,,ジェリーズオート,0
905,4130001073854,新規,0,2023-03-15,2023-03-15,株式会社しんわハウス,,株式会社,京都府,京田辺市,山手東１丁目８番地６メゾンエトワール１０１,,26,211,6100357,,,,,,,2023-03-15,1,,,,,シンワハウス,0
906,4130001073862,新規,0,2023-03-15,2023-03-15,株式会社ＣＯＣＯＹＯＫＡ,,株式会社,京都府,京都市伏見区,深草西浦町３丁目４番地１,,26,109,6120029,,,,,,,2023-03-15,1,,,,,ココヨカ,0
907,4130001073870,新規,0,2023-03-15,2023-03-15,キヅナ通信株式会社,,株式会社,京都府,木津川市,木津神田６番地１２７,,26,214,6190214,,,,,,,2023-03-15,1,,,,,キヅナツウシン,0
913,4140001129449,新規,0,2023-03-15,2023-03-15,Ｉｎｖｉｔａｔｉｏｎ株式会社,,株式会社,兵庫県,神戸市兵庫区,松原通３丁目４番１号,,28,105,6520881,,,,,,,2023-03-15,1,,,,,インビテーション,0
914,4140001129457,新規,0,2023-03-15,2023-03-15,株式会社仙,,株式会社,兵庫県,神戸市中央区,北長狭通１丁目２番１４号３Ｆ,,28,110,6500012,,,,,,,2023-03-15,1,,,,,セン,0
915,4140001129465,新規,0,2023-03-15,2023-03-15,株式会社マーレ,,株式会社,兵庫県,淡路市,浦１３４４番地,,28,226,6562305,,,,,,,2023-03-15,1,,,,,マーレ,0
921,4140005026510,新規,0,2023-03-15,2023-03-15,特定非営利活動法人ゆめいろ,,その他の設立登記法人,兵庫県,高砂市,伊保崎６丁目９番１４号,,28,216,6760076,,,,,,,2023-03-15,1,,,,,ユメイロ,0
922,4150003002900,新規,0,2023-03-15,2023-03-15,合同会社ＲＡＹＳ　ＩＮＴＥＲＮＡＴＩＯＮＡＬ,,合同会社,奈良県,生駒市,美鹿の台１０－８,,29,209,6300116,,,,,,,2023-03-15,1,,,,,レイズインターナショナル,0
924,4180001155367,新規,0,2023-03-15,2023-03-15,株式会社ＭＫＣ,,株式会社,愛知県,名古屋市中区,伊勢山１丁目９番１３号伊勢山ハイツ６０１号,,23,106,4600026,,,,,,,2023-03-15,1,,,,,エムケーシー,0
925,4180001155375,新規,0,2023-03-15,2023-03-15,オーモリホールディングス株式会社,,株式会社,愛知県,一宮市,丹陽町九日市場字中田１２９,,23,203,4910824,,,,,,,2023-03-15,1,,,,,オーモリホールディングス,0
926,4180001155400,新規,0,2023-03-15,2023-03-15,株式会社中啓不動産,,株式会社,愛知県,名古屋市西区,則武新町１丁目３番１９号,,23,104,4510051,,,,,,,2023-03-15,1,,,,,ナカヒロフドウサン,0
930,4180301037166,新規,0,2023-03-15,2023-03-15,株式会社マスターピース,,株式会社,愛知県,みよし市,打越町畦違２６３番地,,23,236,4700213,,,,,,,2023-03-15,1,,,,,マスターピース,0
933,4190001030247,新規,0,2023-03-15,2023-03-15,株式会社京和,,株式会社,三重県,津市,栗真町屋町８３番地２５フランドールＢ棟１０３号,,24,201,5140102,,,,,,,2023-03-15,1,,,,,キョウワ,0
936,4190003004265,新規,0,2023-03-15,2023-03-15,合同会社Ｍ　ａｎｄ　Ｋ　Ｃｏｍｐａｎｙ,,合同会社,三重県,桑名市,新西方７丁目２１－３１,,24,205,5110863,,,,,,,2023-03-15,1,,,,,エムアンドケイカンパニー,0
937,4200001041069,新規,0,2023-03-15,2023-03-15,株式会社ＧＩＦＵ　ＥＸＯＳＯＭＥ,,株式会社,岐阜県,岐阜市,薮田南１丁目１１番９号,,21,201,5008384,,,,,,,2023-03-15,1,,,,,ギフエクソソーム,0
946,4250001020010,新規,0,2023-03-15,2023-03-15,株式会社零翔,,株式会社,山口県,岩国市,門前町５丁目６番７２－２号,,35,208,7400031,,,,,,,2023-03-15,1,,,,,レイショウ,0
947,4260001037739,新規,0,2023-03-15,2023-03-15,ＤＳＯ株式会社,,株式会社,岡山県,倉敷市,水江１１６４番地１,,33,202,7100802,,,,,,,2023-03-15,1,,,,,ディーエスオー,0
948,4260003004241,新規,0,2023-03-15,2023-03-15,合同会社ＳＡＨＥＲ　ＴＲＡＤＩＮＧ,,合同会社,岡山県,久米郡美咲町,打穴西２２４番地９,,33,666,7093707,,,,,,,2023-03-15,1,,,,,サヘルトレーディング,0
952,4290001100898,新規,0,2023-03-15,2023-03-15,株式会社日昇,,株式会社,福岡県,春日市,大谷２丁目１１９番地,,40,218,8160831,,,,,,,2023-03-15,1,,,,,ヒショウ,0
953,4290001100907,新規,0,2023-03-15,2023-03-15,アイリス株式会社,,株式会社,福岡県,福岡市南区,塩原３丁目２１番３６号１Ｆ,,40,134,8150032,,,,,,,2023-03-15,1,,,,,アイリス,0
955,4290003013660,新規,0,2023-03-15,2023-03-15,ｃａｌｉｎｓ合同会社,,合同会社,福岡県,大野城市,平野台４丁目７番２５号,,40,219,8160972,,,,,,,2023-03-15,1,,,,,カランズ,0
958,4310001018312,新規,0,2023-03-15,2023-03-15,ＣＯＮＮＥ株式会社,,株式会社,長崎県,長崎市,上戸石町２１３０－７１,,42,201,8510111,,,,,,,2023-03-15,1,,,,,コンネ,0
960,4320001019631,新規,0,2023-03-15,2023-03-15,株式会社Ｗ．Ｈ．Ｐ,,株式会社,大分県,中津市,大字上宮永４４０番地１,,44,203,8710027,,,,,,,2023-03-15,1,,,,,ダブルエイチピー,0
965,4330001030686,新規,0,2023-03-15,2023-03-15,株式会社スマイルビー,,株式会社,熊本県,合志市,合生４２１８番地３,,43,216,8611101,,,,,,,2023-03-15,1,,,,,スマイルビー,0
968,4330005010635,新規,0,2023-03-15,2023-03-15,一般社団法人１０Ｔｏｋｉ３Ｔｏｋｉ,,その他の設立登記法人,熊本県,宇城市,小川町新田出４７６番地３,,43,213,8690636,,,,,,,2023-03-15,1,,,,,ジュットキサントキ,0
974,4350003004323,新規,0,2023-03-15,2023-03-15,合同会社ポテトの家,,合同会社,宮崎県,延岡市,緑ケ丘４丁目５番２３号,,45,203,8820863,,,,,,,2023-03-15,1,,,,,ポテトノイエ,0
979,4360003012795,新規,0,2023-03-15,2023-03-15,合同会社慎央ファーム,,合同会社,沖縄県,宮古島市,上野字野原３１２番地,,47,214,9060201,,,,,,,2023-03-15,1,,,,,シンオウファーム,0
980,4360005006795,新規,0,2023-03-15,2023-03-15,一般社団法人スポーツイノベーション沖縄,,その他の設立登記法人,沖縄県,浦添市,沢岻２丁目８番５号メゾンブランシェ１０２,,47,208,9012112,,,,,,,2023-03-15,1,,,,,スポーツイノベーション,0
981,4370001049707,新規,0,2023-03-15,2023-03-15,渡邊興業株式会社,,株式会社,宮城県,石巻市,桃生町寺崎字町４７番地５,,04,202,9860314,,,,,,,2023-03-15,1,,,,,ワタナベコウギョウ,0
988,4380001033552,新規,0,2023-03-15,2023-03-15,株式会社野辺商店,,株式会社,福島県,喜多方市,塩川町字東栄町二丁目１番地４,,07,208,9693512,,,,,,,2023-03-15,1,,,,,ノベショウテン,0
1012,4700150114814,新規,0,2023-03-15,2023-03-15,Ｓｈｅｎｚｈｅｎ　ＪｕｎＭａＢａｏ　Ｔｅｃｈｎｏｌｏｇｙ　Ｃｏ．，Ｌｔｄ．,,外国会社等,,,,,,,,ＧｅｎＹｕ　Ｒｄ，Ｙｅｍｉｎｇｍｏｊｕ　Ｉｎｄｕｓｔｒｉａｌ　Ｄｉｓｔｒｉｃｔ，Ｂｕｉｌｄｉｎｇ　Ｄ　ＳｈｅｎＺｈｅｎ　ＧｕａｎｇＤｏｎｇ　５１８１３２　ＣＮ,,,,,,2023-03-15,1,,,,,シェンジェンシージンマーバオコージーヨウシエンゴンスー,0
1042,5010801033787,新規,0,2023-03-15,2023-03-15,株式会社ＫＵＥＭＯＮ,,株式会社,東京都,大田区,田園調布４丁目１３番２号,,13,111,1450071,,,,,,,2023-03-15,1,,,,,クエモン,0
1045,5010901052712,新規,0,2023-03-15,2023-03-15,株式会社Ｍｅｒｃｈａｎｔ　ｏｆ　Ｊａｐａｎ,,株式会社,東京都,世田谷区,上北沢３丁目６番１８－３０９号,,13,112,1560057,,,,,,,2023-03-15,1,,,,,マーチャントオブジャパン,0
1046,5010903008010,新規,0,2023-03-15,2023-03-15,あかりサービス合同会社,,合同会社,東京都,世田谷区,喜多見５丁目１０－１６,,13,112,1570067,,,,,,,2023-03-15,1,,,,,アカリサービス,0
1052,5011001153178,新規,0,2023-03-15,2023-03-15,株式会社Ｈ＆Ｈ,,株式会社,東京都,目黒区,平町２丁目５番１１号,,13,110,1520032,,,,,,,2023-03-15,1,,,,,エイチアンドエイチ,0
1053,5011003016440,新規,0,2023-03-15,2023-03-15,ＩＧＵＡＮＡ合同会社,,合同会社,東京都,渋谷区,恵比寿西２丁目２０－８代官山パーフェクトルーム３１７,,13,113,1500021,,,,,,,2023-03-15,1,,,,,イグアナ,0
1060,5011101102142,新規,0,2023-03-15,2023-03-15,ビーフマーケティング株式会社,,株式会社,東京都,新宿区,神楽坂１丁目２番地研究社英語センタービル５階,,13,104,1620825,,,,,,,2023-03-15,1,,,,,ビーフマーケティング,0
1061,5011101102159,新規,0,2023-03-15,2023-03-15,株式会社ａ．ｚ,,株式会社,東京都,新宿区,西新宿３丁目３番１３号西新宿水間ビル６階,,13,104,1600023,,,,,,,2023-03-15,1,,,,,アズ,0
1062,5011101102175,新規,0,2023-03-15,2023-03-15,ＺＶＩＳＩＯＮ株式会社,,株式会社,東京都,新宿区,北新宿１丁目２７－１２グランドステータス北新宿３階,,13,104,1690074,,,,,,,2023-03-15,1,,,,,,0
1064,5011103012802,新規,0,2023-03-15,2023-03-15,合同会社Ｏｎｅ’ｓ　Ｅｘｐｅｒｉｅｎｃｅ,,合同会社,東京都,新宿区,西新宿３丁目３番１３号西新宿水間ビル２Ｆ,,13,104,1600023,,,,,,,2023-03-15,1,,,,,ワンズエクスペリエンス,0
1067,5011201024501,新規,0,2023-03-15,2023-03-15,株式会社ＳＭＡＬＬ,,株式会社,東京都,中野区,本町６丁目３５番２２号,,13,114,1640012,,,,,,,2023-03-15,1,,,,,スモール,0
1069,5011405002237,新規,0,2023-03-15,2023-03-15,医療法人社団徳耳会,,その他の設立登記法人,東京都,板橋区,徳丸３丁目１番２０号シャ・ノワールＮ１階,,13,119,1750083,,,,,,,2023-03-15,1,,,,,トクジカイ,0
1070,5011505002541,新規,0,2023-03-15,2023-03-15,一般社団法人共生共助の会,,その他の設立登記法人,東京都,荒川区,荒川４丁目３６番２－４０１号,,13,118,1160002,,,,,,,2023-03-15,1,,,,,キョウセイキョウジョノカイ,0
1072,5011601026659,新規,0,2023-03-15,2023-03-15,株式会社大勝,,株式会社,東京都,練馬区,富士見台２丁目３１番１８号,,13,120,1770034,,,,,,,2023-03-15,1,,,,,ダイショウ,0
1073,5011703003408,新規,0,2023-03-15,2023-03-15,合同会社Ａｌｈａｍｂｒａ　Ｓｈａｚｚ　Ｊａｐａｎ,,合同会社,東京都,江戸川区,船堀１丁目１番２－９０５号,,13,123,1340091,,,,,,,2023-03-15,1,,,,,アルハンブラシャズジャパン,0
1076,5011801042076,新規,0,2023-03-15,2023-03-15,株式会社安原商事,,株式会社,東京都,足立区,西新井５丁目３５番４号,,13,121,1230841,,,,,,,2023-03-15,1,,,,,ヤスハラショウジ,0
1077,5011801042084,新規,0,2023-03-15,2023-03-15,株式会社マサカツ,,株式会社,東京都,足立区,関原３丁目２７番２０号コーポ水上２０２,,13,121,1230852,,,,,,,2023-03-15,1,,,,,マサカツ,0
1079,5012301013352,新規,0,2023-03-15,2023-03-15,株式会社Ｌａｋａｎ,,株式会社,東京都,町田市,森野２丁目３１番１３号,,13,209,1940022,,,,,,,2023-03-15,1,,,,,ラカン,0
1083,5012403005883,新規,0,2023-03-15,2023-03-15,合同会社キルラウミ,,合同会社,東京都,狛江市,西野川１丁目２７番４－１０３号,,13,219,2010001,,,,,,,2023-03-15,1,,,,,キルラウミ,0
1085,5012705002348,新規,0,2023-03-15,2023-03-15,医療法人社団ＨＫＣ,,その他の設立登記法人,東京都,小平市,鈴木町２丁目８６５番地の９７－１階,,13,211,1870011,,,,,,,2023-03-15,1,,,,,エイチケイシー,0
1088,5012803003033,新規,0,2023-03-15,2023-03-15,合同会社ＳＹＮＣＵＲＡＴＥ,,合同会社,東京都,立川市,若葉町１丁目３番１号ライオンズヴィアーレ立川４０６,,13,202,1900001,,,,,,,2023-03-15,1,,,,,シンキュレート,0
1094,5020001150688,新規,0,2023-03-15,2023-03-15,株式会社ＮＥＸＴＡＫＥ,,株式会社,神奈川県,横浜市青葉区,みすずが丘１番地３１,,14,117,2250016,,,,,,,2023-03-15,1,,,,,ネクステイク,0
1100,5020005015879,新規,0,2023-03-15,2023-03-15,医療法人社団ＹＫＯ,,その他の設立登記法人,神奈川県,横浜市金沢区,能見台通４番１号ＭＱプラザ２階,,14,108,2360053,,,,,,,2023-03-15,1,,,,,ワイケーオー,0
1101,5020005015887,新規,0,2023-03-15,2023-03-15,医療法人社団れいわ,,その他の設立登記法人,神奈川県,横浜市緑区,鴨居１丁目９番１２号３階,,14,113,2260003,,,,,,,2023-03-15,1,,,,,レイワ,0
1106,5021003012884,新規,0,2023-03-15,2023-03-15,合同会社コンパス,,合同会社,神奈川県,厚木市,鳶尾４丁目２番６号,,14,212,2430204,,,,,,,2023-03-15,1,,,,,コンパス,0
1117,5030002098620,新規,0,2023-03-15,2023-03-15,有限会社石橋自動車運送,,有限会社,埼玉県,鳩ケ谷市,大字辻６４１番地の２,00129723,11,226,3340004,,,,,,,2023-03-15,1,,,,,イシバシジドウシャウンソウ,0
1119,5030005021166,新規,0,2023-03-15,2023-03-15,行政書士法人ジェイエムエス,,その他の設立登記法人,埼玉県,朝霞市,浜崎１丁目２番１０号アゴラ２１ビル８Ｆ,,11,227,3510033,,,,,,,2023-03-15,1,,,,,ジェイエムエス,0
1122,5040001127494,新規,0,2023-03-15,2023-03-15,株式会社ｈａｉｚｙ,,株式会社,千葉県,市川市,真間２丁目６番１号,,12,203,2720826,,,,,,,2023-03-15,1,,,,,ハイジー,0
1124,5050001052527,新規,0,2023-03-15,2023-03-15,ｈｏｕｓｅ．ＬＡＢ株式会社,,株式会社,茨城県,水戸市,南町２丁目６番１６号,,08,201,3100021,,,,,,,2023-03-15,1,,,,,ハウスラボ,0
1125,5050001052535,新規,0,2023-03-15,2023-03-15,中野建築工業株式会社,,株式会社,茨城県,行方市,次木１０８０番地,,08,233,3111722,,,,,,,2023-03-15,1,,,,,ナカノケンチクコウギョウ,0
1126,5050003007306,新規,0,2023-03-15,2023-03-15,ＢｉＣｏ合同会社,,合同会社,茨城県,つくば市,花畑３丁目２４－１ＹＳ－Ｉ１０４号室,,08,220,3003261,,,,,,,2023-03-15,1,,,,,ビコ,0
1128,5060001035778,新規,0,2023-03-15,2023-03-15,株式会社サンタモニカ,,株式会社,栃木県,下都賀郡壬生町,至宝２丁目１０番１６号,,09,361,3210217,,,,,,,2023-03-15,1,,,,,サンタモニカ,0
1129,5060001035786,新規,0,2023-03-15,2023-03-15,株式会社ＤＩグループホールディングス,,株式会社,栃木県,大田原市,紫塚１丁目１４番１３号,,09,210,3240058,,,,,,,2023-03-15,1,,,,,ディーアイグループホールディングス,0
1131,5080001025513,新規,0,2023-03-15,2023-03-15,大騰電器株式会社,,株式会社,静岡県,島田市,中河町２７０番地の３,,22,209,4270041,,,,,,,2023-03-15,1,,,,,ダイトウデンキ,0
1136,5110001037364,新規,0,2023-03-15,2023-03-15,株式会社庵野,,株式会社,新潟県,魚沼市,佐梨１１１１番地１３,,15,225,9460021,,,,,,,2023-03-15,1,,,,,イオノ,0
1146,5120001253183,新規,0,2023-03-15,2023-03-15,株式会社ＣＬＥＡＮ　ＩＮＮＯＶＡＴＩＯＮ,,株式会社,大阪府,大阪市北区,国分寺２丁目１番１４－６階Ｃ,,27,127,5310064,,,,,,,2023-03-15,1,,,,,クリーンイノベーション,0
1147,5120001253200,新規,0,2023-03-15,2023-03-15,ＹＴＺ株式会社,,株式会社,大阪府,大阪市中央区,日本橋２丁目８－１７ＳＯＬＥＩＬ難波３０２,,27,128,5420073,,,,,,,2023-03-15,1,,,,,ワイティーゼット,0
1148,5120001253225,新規,0,2023-03-15,2023-03-15,６９３ＭＤ株式会社,,株式会社,大阪府,大阪市中央区,難波３丁目２番２６号,,27,128,5420076,,,,,,,2023-03-15,1,,,,,ロクキューサンエムディー,0
1156,5120003023626,新規,0,2023-03-15,2023-03-15,合同会社ｓｍａｌｌ　ｓ,,合同会社,大阪府,大阪市旭区,中宮２丁目３番１２号,,27,117,5350003,,,,,,,2023-03-15,1,,,,,スモールエス,0
1166,5120901047255,新規,0,2023-03-15,2023-03-15,株式会社結,,株式会社,大阪府,箕面市,今宮４丁目８番２３号,,27,220,5620033,,,,,,,2023-03-15,1,,,,,ユイ,0
1167,5120901047263,新規,0,2023-03-15,2023-03-15,株式会社ウェルワークス,,株式会社,大阪府,豊中市,東泉丘４丁目５番５０号,,27,203,5610861,,,,,,,2023-03-15,1,,,,,ウェルワークス,0
1173,5130001073762,新規,0,2023-03-15,2023-03-15,株式会社Ｎｋファシリティ,,株式会社,京都府,久世郡久御山町,島田観音田３８番地,,26,322,6130043,,,,,,,2023-03-15,1,,,,,エヌケーファシリティ,0
1174,5130001073878,新規,0,2023-03-15,2023-03-15,株式会社カネット,,株式会社,京都府,京都市東山区,富永町１２３花見会館１階,,26,105,6050078,,,,,,,2023-03-15,1,,,,,カネット,0
1177,5130005016718,新規,0,2023-03-15,2023-03-15,農事組合法人五十河の里,,その他の設立登記法人,京都府,京丹後市,大宮町五十河３４０番地,,26,212,6292512,,,,,,,2023-03-15,1,,,,,イカガノサト,0
1186,5140001129472,新規,0,2023-03-15,2023-03-15,株式会社Ｇｅｎｔｌｅ　Ｐｒｏ,,株式会社,兵庫県,芦屋市,山手町１４番８－３０５号,,28,206,6590096,,,,,,,2023-03-15,1,,,,,ジェントルプロ,0
1190,5140003018847,新規,0,2023-03-15,2023-03-15,合同会社ｒｕｐｏ,,合同会社,兵庫県,丹波市,青垣町山垣１２５６－１,,28,223,6693833,,,,,,,2023-03-15,1,,,,,ルポ,0
1193,5150001026248,新規,0,2023-03-15,2023-03-15,株式会社マツダオフィス,,株式会社,奈良県,奈良市,三条町５４１番地,,29,201,6308244,,,,,,,2023-03-15,1,,,,,マツダオフィス,0
1200,5180001155358,新規,0,2023-03-15,2023-03-15,ＮＳ綜合警備保障株式会社,,株式会社,愛知県,名古屋市北区,大曽根３丁目４番１４号ポルト大曽根２階,,23,103,4620825,,,,,,,2023-03-15,1,,,,,エヌエスソウゴウケイビホショウ,0
1204,5180003024940,新規,0,2023-03-15,2023-03-15,合同会社点ゼミ,,合同会社,愛知県,名古屋市港区,七反野２丁目１９０１番地,,23,111,4550884,,,,,,,2023-03-15,1,,,,,トモルゼミ,0
1208,5180303005649,新規,0,2023-03-15,2023-03-15,合同会社ＡＸＩＳ,,合同会社,愛知県,豊川市,諏訪西町１丁目３９番地,,23,207,4420069,,,,,,,2023-03-15,1,,,,,アクシス,0
1210,5190001030238,新規,0,2023-03-15,2023-03-15,株式会社ｗｉｔｈ　ｙｏｕ,,株式会社,三重県,松阪市,垣鼻町７２４番地３,,24,204,5150033,,,,,,,2023-03-15,1,,,,,ウィズユー,0
1211,5190001030246,新規,0,2023-03-15,2023-03-15,株式会社ケーエムケー,,株式会社,三重県,鈴鹿市,石薬師町３１５３番地１１,,24,207,5130012,,,,,,,2023-03-15,1,,,,,ケーエームケー,0
1212,5190003004264,新規,0,2023-03-15,2023-03-15,合同会社ＣｒｏｓｓＡｒｋ,,合同会社,三重県,鈴鹿市,阿古曽町２２番３１号アズワン３Ａ,,24,207,5130828,,,,,,,2023-03-15,1,,,,,クロスアーク,0
1227,5260001037738,新規,0,2023-03-15,2023-03-15,株式会社カニスプレイス,,株式会社,岡山県,津山市,川崎１３６３番地２,,33,203,7080841,,,,,,,2023-03-15,1,,,,,カニスプレイス,0
1233,5290003013668,新規,0,2023-03-15,2023-03-15,レトラ合同会社,,合同会社,福岡県,福岡市早良区,荒江３丁目２４番１７－６０２号エンゼルハイム荒江,,40,137,8140021,,,,,,,2023-03-15,1,,,,,レトラ,0
1235,5290801029378,新規,0,2023-03-15,2023-03-15,株式会社永成,,株式会社,福岡県,北九州市八幡西区,吉祥寺町３番４号（２）,,40,109,8071114,,,,,,,2023-03-15,1,,,,,エイセイ,0
1236,5290803004370,新規,0,2023-03-15,2023-03-15,合同会社ＡＢＣ,,合同会社,福岡県,北九州市八幡西区,皇后崎町２－３３－３０２,,40,109,8060041,,,,,,,2023-03-15,1,,,,,エービーシー,0
1242,5320001019630,新規,0,2023-03-15,2023-03-15,株式会社Ｓｈｉｈｏｎ．,,株式会社,大分県,大分市,羽屋４丁目７番１２号,,44,201,8700854,,,,,,,2023-03-15,1,,,,,シホン,0
1246,5330002030321,新規,0,2023-03-15,2023-03-15,有限会社鶴田石油,,有限会社,熊本県,人吉市,鶴田町８６７番地,,43,203,8680024,,,,,,,2023-03-15,1,,,,,,0
1249,5330003009760,新規,0,2023-03-15,2023-03-15,合同会社高山,00129755,合同会社,熊本県,八代市,松崎町５１番地１（１－Ｂ）,,43,202,8660884,,,,,,,2023-03-15,1,,,,,タカヤマ,0
1250,5350001018233,新規,0,2023-03-15,2023-03-15,株式会社共創設備,,株式会社,宮崎県,宮崎市,大島町山田ケ窪１９３９番地２,,45,201,8800824,,,,,,,2023-03-15,1,,,,,キョウソウセツビ,0
1251,5350003004314,新規,0,2023-03-15,2023-03-15,合同会社ポノ・リコライフ,,合同会社,宮崎県,西諸県郡高原町,大字広原４９５２番地２４０,,45,361,8894411,,,,,,,2023-03-15,1,,,,,ポノリコライフ,0
1255,5360003012761,新規,0,2023-03-15,2023-03-15,合同会社Ｐｒｉｍａ　Ｄｏｎｎａ,,合同会社,沖縄県,沖縄市,比屋根６丁目３６番２８号,,47,211,9042173,,,,,,,2023-03-15,1,,,,,プリマドンナ,0
1257,5370001049714,新規,0,2023-03-15,2023-03-15,株式会社クラマナ,,株式会社,宮城県,仙台市太白区,長町南４丁目１８番２５号メゾンドール１階,,04,104,9820012,,,,,,,2023-03-15,1,,,,,クラマナ,0
1259,5370003006036,新規,0,2023-03-15,2023-03-15,Ｋ．ＲＩＧＨＴ合同会社,,合同会社,宮城県,仙台市青葉区,通町２丁目７番１５号,,04,101,9810915,,,,,,,2023-03-15,1,,,,,ケイライト,0
1264,5380005012683,新規,0,2023-03-15,2023-03-15,一般社団法人ＫＡＯＮ,,その他の設立登記法人,福島県,福島市,桜木町１２番１３号,,07,201,9608133,,,,,,,2023-03-15,1,,,,,カオン,0
1272,5430001088623,新規,0,2023-03-15,2023-03-15,株式会社ＮＥＳＴ,,株式会社,北海道,札幌市東区,北三十条東１５丁目１番１６号,,01,103,0650030,,,,,,,2023-03-15,1,,,,,ネスト,0
1274,5470001019517,新規,0,2023-03-15,2023-03-15,美合鉄工株式会社,,株式会社,香川県,仲多度郡まんのう町,川東８８１番地１,,37,406,7660203,,,,,,,2023-03-15,1,,,,,ミアイテッコウ,0
1279,5480001012033,新規,0,2023-03-15,2023-03-15,株式会社はなホールディングス,,株式会社,徳島県,板野郡北島町,中村字西ノ瀬３８番１１,,36,402,7710203,,,,,,,2023-03-15,1,,,,,ハナホールディングス,0
1281,5500001024819,新規,0,2023-03-15,2023-03-15,株式会社成川,,株式会社,愛媛県,上浮穴郡久万高原町,入野３２４番地１,,38,386,7911202,,,,,,,2023-03-15,1,,,,,ナルカワ,0
1288,5700150114813,新規,0,2023-03-15,2023-03-15,ｓｈｅｎｚｈｅｎｙａｍａｓｈｕｎｇｕｏｊｉｍａｏｙｉｙｏｕｘｉａｎｇｏｎｇｓｉ,,外国会社等,,,,,,,,ｓｈｅｎｚｈｅｎｓｈｉｌｏｎｇｈｕａｑｕｇｕａｎｈｕｊｉｅｄａｏｇｕａｎｃｈｅｎｇｓｈｅｑｕｍａｌｉｘｉｘｉｎｑｕ９４ｈａｏ３０３ＳｈｅｎｚｈｅｎＧｕａｎｇｄｏｎｇ５１８１１０ＣＮ,,,,,,2023-03-15,1,,,,,シェンジェンヤーマーシュングオジーマオイーヨウシエンゴンスー,0
1293,6010001233666,新規,0,2023-03-15,2023-03-15,ＯＨＡＹＯ株式会社,,株式会社,東京都,中央区,日本橋浜町２丁目１９番９号,,13,102,1030007,,,,,,,2023-03-15,1,,,,,オハヨー,0
1294,6010001233682,新規,0,2023-03-15,2023-03-15,株式会社Ｒ　ＫＩＮＧＤＯＭ,,株式会社,東京都,中央区,銀座１丁目１２番４号Ｎ＆ＥＢＬＤ．６Ｆ,,13,102,1040061,,,,,,,2023-03-15,1,,,,,ランニングキングダム,0
1295,6010001233749,新規,0,2023-03-15,2023-03-15,ｃｉｒｃｕＲＥ　ａｃｔ株式会社,,株式会社,東京都,千代田区,神田小川町３丁目２８番５号,,13,101,1010052,,,,,,,2023-03-15,1,,,,,サキュレアクト,0
1297,6010003040037,新規,0,2023-03-15,2023-03-15,合同会社桑名ロジスティクス,,合同会社,東京都,中央区,京橋３丁目１番１号,,13,102,1040031,,,,,,,2023-03-15,1,,,,,クワナロジスティクス,0
1298,6010003040045,新規,0,2023-03-15,2023-03-15,ジェニュイン・ジャパン合同会社,,合同会社,東京都,中央区,銀座１丁目２２番１１号銀座大竹ビジデンス２Ｆ,,13,102,1040061,,,,,,,2023-03-15,1,,,,,ジェニュインジャパン,0
1311,6010401173025,新規,0,2023-03-15,2023-03-15,株式会社ＳＫＲ,,株式会社,東京都,港区,赤坂４丁目１３番５号赤坂オフィスハイツ,,13,103,1070052,,,,,,,2023-03-15,1,,,,,エスケーアール,0
1312,6010401173033,新規,0,2023-03-15,2023-03-15,Ｏｍｎｉ　Ｐｏｗｅｒ　Ｊａｐａｎ株式会社,,株式会社,東京都,港区,元麻布３丁目１番６号,,13,103,1060046,,,,,,,2023-03-15,1,,,,,オムニパワージャパン,0
1313,6010401173108,新規,0,2023-03-15,2023-03-15,ＪＴ　ＳＰＡＣＥ株式会社,,株式会社,東京都,港区,三田１丁目２番１８号ＴＴＤビル,,13,103,1080073,,,,,,,2023-03-15,1,,,,,ジェーティースペース,0
1317,6010501050149,新規,0,2023-03-15,2023-03-15,株式会社エムージュ,,株式会社,東京都,台東区,上野１丁目２番１２号,,13,106,1100005,,,,,,,2023-03-15,1,,,,,エムージュ,0
1321,6010701043968,新規,0,2023-03-15,2023-03-15,株式会社ＬＱＴプラス,,株式会社,東京都,品川区,西五反田２丁目１４－１３リバーサイドニックハイム五反田２階,,13,109,1410031,,,,,,,2023-03-15,1,,,,,エルキューティープラス,0
1322,6010701043976,新規,0,2023-03-15,2023-03-15,株式会社ココトリ,,株式会社,東京都,品川区,西五反田４丁目３０番６号,,13,109,1410031,,,,,,,2023-03-15,1,,,,,ココトリ,0
1326,6010703006626,新規,0,2023-03-15,2023-03-15,合同会社真成,,合同会社,東京都,品川区,小山５丁目１３－１８,,13,109,1420062,,,,,,,2023-03-15,1,,,,,シンセイ,0
1333,6011001153053,新規,0,2023-03-15,2023-03-15,株式会社メタフィ,,株式会社,東京都,渋谷区,道玄坂１丁目１０番８号渋谷道玄坂東急ビル２Ｆ－Ｃ,,13,113,1500043,,,,,,,2023-03-15,1,,,,,メタフィ,0
1334,6011001153144,新規,0,2023-03-15,2023-03-15,株式会社ムラクラ・アセットマネジメント,,株式会社,東京都,渋谷区,代々木５丁目３４番６号代々木パークハウスＰＲＩＭＥＨＩＬＬＳ１０４,,13,113,1510053,,,,,,,2023-03-15,1,,,,,ムラクラアセットマネジメント,0
1335,6011003016456,新規,0,2023-03-15,2023-03-15,合同会社夜を使い果たして,,合同会社,東京都,渋谷区,道玄坂１丁目１０番８号渋谷道玄坂東急ビル２Ｆ－Ｃ,,13,113,1500043,,,,,,,2023-03-15,1,,,,,ヨルヲツカイハタシテ,0
1340,6011105010588,新規,0,2023-03-15,2023-03-15,一般社団法人ＣＰＰ,,その他の設立登記法人,東京都,新宿区,西新宿３丁目３番１３号西新宿水間ビル２Ｆ,,13,104,1600023,,,,,,,2023-03-15,1,,,,,シーピーピー,0
1343,6011501029059,新規,0,2023-03-15,2023-03-15,株式会社七星,,株式会社,東京都,荒川区,東日暮里５丁目５１番１２号日暮里安永ビル４階Ｂ号室,,13,118,1160014,,,,,,,2023-03-15,1,,,,,ナナホシ,0
1344,6011505002540,新規,0,2023-03-15,2023-03-15,医療法人社団深敬会,,その他の設立登記法人,東京都,北区,東田端１丁目１３番１０号ツインビル田端Ａ棟２階,,13,117,1140013,,,,,,,2023-03-15,1,,,,,ジンキョウカイ,0
1348,6011801042083,新規,0,2023-03-15,2023-03-15,株式会社久保田建測,,株式会社,東京都,葛飾区,東堀切２丁目２５番６－１０１号レジデンシャルお花茶屋,,13,122,1240004,,,,,,,2023-03-15,1,,,,,,0
1356,6012401040279,新規,0,2023-03-15,2023-03-15,株式会社ＡＫブリッジ,,株式会社,東京都,武蔵野市,御殿山１丁目１５番５号,,13,203,1800005,,,,,,,2023-03-15,1,,,,,エイケイブリッジ,0
1357,6012403005882,新規,0,2023-03-15,2023-03-15,合同会社空‐ｋｕｕ,,合同会社,東京都,府中市,矢崎町１丁目３５番地の４メゾンボヌール２‐１０１,,13,206,1830025,,,,,,,2023-03-15,1,,,,,クウ,0
1359,6012803003032,新規,0,2023-03-15,2023-03-15,合同会社Ｉ’Ｓトラスト,,合同会社,東京都,国分寺市,東元町４丁目２番１１号,,13,214,1850022,,,,,,,2023-03-15,1,,,,,アイズトラスト,0
1362,6013301050450,新規,0,2023-03-15,2023-03-15,新浦江株式会社,,株式会社,東京都,豊島区,東池袋４丁目８番１号エイチエックスビルＢ－１０１室,,13,116,1700013,,,,,,,2023-03-15,1,,,,,シンホコウ,0
1370,6020001150662,新規,0,2023-03-15,2023-03-15,クローバーヤード株式会社,,株式会社,神奈川県,横浜市泉区,緑園７丁目１５番地１,,14,116,2450002,,,,,,,2023-03-15,1,,,,,クローバーヤード,0
1374,6020003023511,新規,0,2023-03-15,2023-03-15,合同会社依羽,,合同会社,神奈川県,川崎市宮前区,潮見台７－４,,14,136,2160013,,,,,,,2023-03-15,1,,,,,イハネ,0
1375,6020005015878,新規,0,2023-03-15,2023-03-15,医療法人社団ふじみ会,,その他の設立登記法人,神奈川県,横浜市青葉区,藤が丘１丁目１４番地４９横浜藤が丘ＮＢＩビル２階２Ｂ,,14,117,2270043,,,,,,,2023-03-15,1,,,,,フジミカイ,0
1376,6020005015886,新規,0,2023-03-15,2023-03-15,医療法人静穂会,,その他の設立登記法人,神奈川県,川崎市宮前区,宮崎２丁目１０－２－３Ｆ,,14,136,2160033,,,,,,,2023-03-15,1,,,,,セイホカイ,0
1386,6030001152848,新規,0,2023-03-15,2023-03-15,ジャパン・テクニカル・サービス株式会社,,株式会社,埼玉県,上尾市,大字小敷谷６３１番地３６,,11,219,3620064,,,,,,,2023-03-15,1,,,,,,0
1387,6030001152856,新規,0,2023-03-15,2023-03-15,株式会社ＲｅＬｉｆｅ,,株式会社,埼玉県,越谷市,大字大杉７７－１３,,11,222,3430005,,,,,,,2023-03-15,1,,,,,リライフ,0
1388,6030001152864,新規,0,2023-03-15,2023-03-15,株式会社ライム,,株式会社,埼玉県,さいたま市大宮区,桜木町２丁目３番地大宮マルイ７階,,11,103,3300854,,,,,,,2023-03-15,1,,,,,ライム,0
1395,6030003021357,新規,0,2023-03-15,2023-03-15,合同会社ＹＴ,,合同会社,埼玉県,川口市,本蓮１８－５,,11,203,3320000,,,,,,,2023-03-15,1,,,,,ワイティ,0
1411,6080101023853,新規,0,2023-03-15,2023-03-15,レストリゾート株式会社,,株式会社,静岡県,熱海市,網代５９１番地の１０３,,22,205,4130103,,,,,,,2023-03-15,1,,,,,レストリゾート,0
1419,6110001037371,新規,0,2023-03-15,2023-03-15,株式会社リベール,,株式会社,新潟県,新潟市中央区,万代１丁目３番１号,,15,103,9500088,,,,,,,2023-03-15,1,,,,,リベール,0
1438,6120001253042,新規,0,2023-03-15,2023-03-15,株式会社ＲＵＮＵＳ,,株式会社,大阪府,大阪市城東区,東中浜５丁目２番７－３０３号,,27,118,5360023,,,,,,,2023-03-15,1,,,,,ルナス,0
1439,6120001253174,新規,0,2023-03-15,2023-03-15,信グループ株式会社,,株式会社,大阪府,大阪市中央区,森ノ宮中央２丁目１３番３５－１２５号,,27,128,5400003,,,,,,,2023-03-15,1,,,,,シングループ,0
1440,6120001253199,新規,0,2023-03-15,2023-03-15,Ｓｍｉｌｅ　Ｊａｐａｎ株式会社,,株式会社,大阪府,大阪市中央区,農人橋２丁目１－３１第６松屋ビル,,27,128,5400011,,,,,,,2023-03-15,1,,,,,スマイルジャパン,0
1441,6120001253249,新規,0,2023-03-15,2023-03-15,株式会社ＡＯＫＩ．ＴＣ,,株式会社,大阪府,大阪市生野区,田島６丁目１７番３０号,,27,116,5440011,,,,,,,2023-03-15,1,,,,,アオキドットティーシー,0
1442,6120001253257,新規,0,2023-03-15,2023-03-15,株式会社＿海子,00129759,株式会社,大阪府,大阪市西淀川区,野里１丁目３１番７－１０６号,,27,113,5550024,,,,,,,2023-03-15,1,,,,,ジカイコ,0
1443,6120001253273,新規,0,2023-03-15,2023-03-15,株式会社ＨＩＲＯコーポレーション,,株式会社,大阪府,大阪市東淀川区,淡路４丁目６番８号,,27,114,5330032,,,,,,,2023-03-15,1,,,,,ヒロコーポレーション,0
1446,6120003023583,新規,0,2023-03-15,2023-03-15,メディアフォース合同会社,,合同会社,大阪府,大阪市北区,梅田１丁目２番２号大阪駅前第２ビル１２－１２,,27,127,5300001,,,,,,,2023-03-15,1,,,,,メディアフォース,0
1447,6120003023617,新規,0,2023-03-15,2023-03-15,合同会社立誠,,合同会社,大阪府,大阪市東成区,大今里南１丁目１８番７号大宝今里ロイヤルハイツ４０７号室,,27,115,5370013,,,,,,,2023-03-15,1,,,,,リッセイ,0
1449,6120101067128,新規,0,2023-03-15,2023-03-15,株式会社ラ・ヴィータフェリーチェアパガンテ,,株式会社,大阪府,岸和田市,大手町８－１８－２０１,,27,202,5960063,,,,,,,2023-03-15,1,,,,,ラヴィータフェリーチェアパガンテ,0
1450,6120103005119,新規,0,2023-03-15,2023-03-15,合同会社なんくるないさ,,合同会社,大阪府,堺市東区,高松２２７番地２シティパーク北野田１４１０号,,27,143,5998121,,,,,,,2023-03-15,1,,,,,ナンクルナイサ,0
1452,6120903004534,新規,0,2023-03-15,2023-03-15,ジェイアシストホールディングス合同会社,,合同会社,大阪府,茨木市,東太田４丁目１番６８号の１０,,27,211,5670012,,,,,,,2023-03-15,1,,,,,ジェイアシストホールディングス,0
1453,6120903004542,新規,0,2023-03-15,2023-03-15,エブリ合同会社,,合同会社,大阪府,豊中市,豊南町西２丁目２番９号,,27,203,5610816,,,,,,,2023-03-15,1,,,,,エブリ,0
1455,6122001036781,新規,0,2023-03-15,2023-03-15,株式会社ＴＡＳＴ,,株式会社,大阪府,東大阪市,吉田本町１丁目５番２８号,,27,227,5780982,,,,,,,2023-03-15,1,,,,,タスト,0
1456,6130001073869,新規,0,2023-03-15,2023-03-15,株式会社和家,,株式会社,京都府,京都市下京区,西七条掛越町４０－１積亜ビル８Ｆ,,26,106,6008881,,,,,,,2023-03-15,1,,,,,ワガヤ,0
1463,6140003018838,新規,0,2023-03-15,2023-03-15,采本合同会社,,合同会社,兵庫県,神戸市長田区,本庄町２丁目６－４,,28,106,6530053,,,,,,,2023-03-15,1,,,,,ウネモト,0
1464,6140005026517,新規,0,2023-03-15,2023-03-15,一般社団法人食育支援機構,,その他の設立登記法人,兵庫県,豊岡市,九日市下町２７７番地３,,28,209,6680052,,,,,,,2023-03-15,1,,,,,ショクイクシエンキコウ,0
1471,6180001155365,新規,0,2023-03-15,2023-03-15,株式会社アクロハット,,株式会社,愛知県,名古屋市中川区,小塚町１０３番地の３,00129754,23,110,4540849,,,,,,,2023-03-15,1,,,,,アクロハット,0
1473,6180003024989,新規,0,2023-03-15,2023-03-15,合同会社ＳＳＩ,,合同会社,愛知県,清須市,阿原宮東１４９番地,,23,233,4520901,,,,,,,2023-03-15,1,,,,,エスエスアイ,0
1478,6190001030237,新規,0,2023-03-15,2023-03-15,株式会社叶,,株式会社,三重県,四日市市,野田２丁目１８番２２号,,24,202,5100815,,,,,,,2023-03-15,1,,,,,カナ,0
1479,6190003004263,新規,0,2023-03-15,2023-03-15,合同会社ＢＯＣＣＨＩ,,合同会社,三重県,四日市市,久保田２丁目１２番１９号,,24,202,5100821,,,,,,,2023-03-15,1,,,,,ボッチ,0
1486,6230001019746,新規,0,2023-03-15,2023-03-15,株式会社ウエルビーイング・プロ,,株式会社,富山県,富山市,新根塚町１丁目４番３２－７０２号,00129768,16,201,9398205,,,,,,,2023-03-15,1,,,,,ウエルビーイングプロ,0
1494,6250001020009,新規,0,2023-03-15,2023-03-15,株式会社ビーセレクト,,株式会社,山口県,下松市,生野屋３丁目４番２０号,,35,207,7440031,,,,,,,2023-03-15,1,,,,,ビーセレクト,0
1509,6290001100888,新規,0,2023-03-15,2023-03-15,丸英貿易株式会社,,株式会社,福岡県,福岡市中央区,天神４丁目６番２８号天神ファーストビル７階,,40,133,8100001,,,,,,,2023-03-15,1,,,,,マルエイボウエキ,0
1518,6320003004043,新規,0,2023-03-15,2023-03-15,合同会社稚鳥,,合同会社,大分県,別府市,大字内竈１８０番地の１２０,,44,202,8740011,,,,,,,2023-03-15,1,,,,,チドリ,0
1519,6320005010056,新規,0,2023-03-15,2023-03-15,おおいた県農産物加工企業組合,,その他の設立登記法人,大分県,由布市,挾間町時松１１１５番地,,44,213,8795524,,,,,,,2023-03-15,1,,,,,オオイタケンノウサンブツカコウ,0
1522,6330001030684,新規,0,2023-03-15,2023-03-15,株式会社松岡,,株式会社,熊本県,天草市,御所浦町御所浦４６９７番地,,43,215,8660313,,,,,,,2023-03-15,1,,,,,マツオカ,0
1528,6370001049713,新規,0,2023-03-15,2023-03-15,株式会社ＴＹＳ,,株式会社,宮城県,仙台市太白区,東郡山２丁目３９番１０号,,04,104,9820006,,,,,,,2023-03-15,1,,,,,ティーワイエス,0
1531,6380001033550,新規,0,2023-03-15,2023-03-15,株式会社山野辺エンジニアリング,,株式会社,福島県,いわき市,内郷御厩町３丁目７１番地,00129770,07,204,9738402,,,,,,,2023-03-15,1,,,,,ヤマノベエンジニアリング,0
1537,6390001017189,新規,0,2023-03-15,2023-03-15,株式会社Ｋ‐Ｐｌａｎｎｉｎｇ,,株式会社,山形県,新庄市,大字泉田字往還東３７４番地の４,,06,205,9995103,,,,,,,2023-03-15,1,,,,,ケイプランニング,0
1552,6430005014657,新規,0,2023-03-15,2023-03-15,医療法人社団ひばりが丘こどもクリニック,,その他の設立登記法人,北海道,札幌市厚別区,厚別中央二条２丁目２番３号ひばりが丘ドクタータウン２Ｆ,,01,108,0040052,,,,,,,2023-03-15,1,,,,,ヒバリガオカコドモクリニック,0
1557,6490001010431,新規,0,2023-03-15,2023-03-15,株式会社原田,,株式会社,高知県,吾川郡いの町,枝川２４５０番地１１８,,39,386,7812120,,,,,,,2023-03-15,1,,,,,ハラダ,0
1562,6700150114812,新規,0,2023-03-15,2023-03-15,ＳｕＺｈｏｕＹｏｎｇＳｈｅｎｇＸｉａｎｇＢａｏ　Ｃｏ．，Ｌｔｄ．,,外国会社等,,,,,,,,ｘｉａｎｇｃｈｅｎｇｑｕｙａｎｇｃｈｅｎｇｈｕｚｈｅｎｓｈｉｔｕｃｕｎｗａｎｇｈａｎｇ（ｈｅｎｇｆｅｎｇｆａｎｇｚｈｉｃｈａｎｇｎｅｉ６ｈａｏ）ＳｕｚｈｏｕＪｉａｎｇｓｕ２１５０００ＣＮ,,,,,,2023-03-15,1,,,,,スージョウヨンションシャンバオヨウシエンゴンスー,0
1565,7010001233681,新規,0,2023-03-15,2023-03-15,株式会社誠工建設,,株式会社,東京都,中央区,勝どき５丁目３－１勝どきザ・タワー４４１０号,,13,102,1040054,,,,,,,2023-03-15,1,,,,,セイコウケンセツ,0
1566,7010001233731,新規,0,2023-03-15,2023-03-15,株式会社ＷｅＬＬＢｅＩＮＧ,,株式会社,東京都,千代田区,神田錦町１丁目１７－１神田高木ビルＢＩＲＴＨＷＯＲＫ神田,00129756,13,101,1010054,,,,,,,2023-03-15,1,,,,,ウェルビーイング,0
1569,7010003040044,新規,0,2023-03-15,2023-03-15,ＫＮ　Ｃｏｎｓｕｌｔｉｎｇ合同会社,,合同会社,東京都,中央区,銀座７丁目１３番６号サガミビル２階,,13,102,1040061,,,,,,,2023-03-15,1,,,,,ケイエヌコンサルティング,0
1570,7010003040085,新規,0,2023-03-15,2023-03-15,合同会社アタユ,,合同会社,東京都,中央区,銀座１丁目２２‐１‐３０６,,13,102,1040061,,,,,,,2023-03-15,1,,,,,アタユ,0
1574,7010005036387,新規,0,2023-03-15,2023-03-15,一般財団法人佐々木秀吉育英財団,,その他の設立登記法人,東京都,中央区,日本橋久松町１２番８号,,13,102,1030005,,,,,,,2023-03-15,1,,,,,ササキヒデヨシイクエイザイダン,0
1575,7010101015567,新規,0,2023-03-15,2023-03-15,株式会社ＮＯＢＳ,,株式会社,東京都,八王子市,西寺方町１００６番地３９６,,13,201,1920153,,,,,,,2023-03-15,1,,,,,ノブス,0
1579,7010401173024,新規,0,2023-03-15,2023-03-15,株式会社ＦＵＬＬ　ＳＥＮＤ,,株式会社,東京都,港区,愛宕２丁目５番１号愛宕グリーンヒルズＭＯＲＩタワー株式会社ＡＫＪパートナーズ内,,13,103,1050002,,,,,,,2023-03-15,1,,,,,フルセンド,0
1581,7010403029728,新規,0,2023-03-15,2023-03-15,合同会社東所沢インベストメント,,合同会社,東京都,港区,西新橋１丁目２番９号メンターキャピタル税理士法人内,,13,103,1050003,,,,,,,2023-03-15,1,,,,,ヒガシトコロザワインベストメント,0
1591,7010703006625,新規,0,2023-03-15,2023-03-15,オーナーズクラブ合同会社,,合同会社,東京都,品川区,北品川１丁目２４番２０－４０４号,,13,109,1400001,,,,,,,2023-03-15,1,,,,,オーナーズクラブ,0
1593,7010801033777,新規,0,2023-03-15,2023-03-15,ＮＳＪ株式会社,,株式会社,東京都,大田区,南千束２丁目１１番４号,,13,111,1450063,,,,,,,2023-03-15,1,,,,,エヌエスジェイ,0
1594,7010801033785,新規,0,2023-03-15,2023-03-15,クルー株式会社,,株式会社,東京都,大田区,大森西４丁目１７番８号,,13,111,1430015,,,,,,,2023-03-15,1,,,,,クルー,0
1603,7011001153143,新規,0,2023-03-15,2023-03-15,株式会社Ｅｄｎｅｓｓ,,株式会社,東京都,目黒区,五本木１丁目３９番１９号プレジオ五本木１０１,,13,110,1530053,,,,,,,2023-03-15,1,,,,,エドネス,0
1604,7011003016430,新規,0,2023-03-15,2023-03-15,合同会社サポーター,,合同会社,東京都,渋谷区,代々木４丁目４７－９－２０１,,13,113,1510053,,,,,,,2023-03-15,1,,,,,サポーター,0
1605,7011003016447,新規,0,2023-03-15,2023-03-15,ｓｅｖｅｎ　ｂｅｌｌ　ｆｉｅｌｄｓ合同会社,,合同会社,東京都,目黒区,青葉台３丁目８番３号,,13,110,1530042,,,,,,,2023-03-15,1,,,,,セブンベルフィールズ,0
1608,7011101102140,新規,0,2023-03-15,2023-03-15,株式会社ｃｏｎｎｙｐｕｎｋ,,株式会社,東京都,新宿区,西新宿３丁目３番１３号西新宿水間ビル２Ｆ,,13,104,1600023,,,,,,,2023-03-15,1,,,,,コニーパンク,0
1609,7011101102157,新規,0,2023-03-15,2023-03-15,シェアフォース株式会社,,株式会社,東京都,新宿区,赤城下町８４番地ピアース神楽坂レジデンス５０３,,13,104,1620803,,,,,,,2023-03-15,1,,,,,シェアフォース,0
1613,7011401024976,新規,0,2023-03-15,2023-03-15,株式会社Ｅｎｆｉｎｉｘ,,株式会社,東京都,板橋区,前野町２丁目２８番１号,,13,119,1740063,,,,,,,2023-03-15,1,,,,,インフィニックス,0
1616,7011701026086,新規,0,2023-03-15,2023-03-15,株式会社ひで,,株式会社,東京都,江戸川区,中葛西５丁目１９－７,,13,123,1340083,,,,,,,2023-03-15,1,,,,,ヒデ,0
1619,7011801042025,新規,0,2023-03-15,2023-03-15,株式会社三晴,,株式会社,東京都,足立区,加賀１丁目２０番６号,,13,121,1230861,,,,,,,2023-03-15,1,,,,,サンセイ,0
1620,7011801042082,新規,0,2023-03-15,2023-03-15,株式会社ＧＯＯＤＳＷＡＶＥ,,株式会社,東京都,葛飾区,お花茶屋２丁目１４番２号,,13,122,1240003,,,,,,,2023-03-15,1,,,,,グッズウェーブ,0
1627,7012403005881,新規,0,2023-03-15,2023-03-15,合同会社三ツ矢堂,,合同会社,東京都,武蔵野市,西久保３丁目１１番１号都営西久保三丁目アパート１号棟１０４Ｃ,,13,203,1800013,,,,,,,2023-03-15,1,,,,,ミツヤドウ,0
1628,7012801022198,新規,0,2023-03-15,2023-03-15,株式会社ＪＹＨマネジメント,,株式会社,東京都,立川市,柴崎町３丁目１３番１９号,,13,202,1900023,,,,,,,2023-03-15,1,,,,,ジェイワイエイチマネジメント,0
1632,7013301050458,新規,0,2023-03-15,2023-03-15,株式会社フォルクス,,株式会社,東京都,豊島区,目白４丁目３１番地２５号,,13,116,1710031,,,,,,,2023-03-15,1,,,,,フォルクス,0
1636,7020001150645,新規,0,2023-03-15,2023-03-15,くまパン株式会社,,株式会社,神奈川県,横浜市戸塚区,戸塚町２７６８番地,,14,110,2440003,,,,,,,2023-03-15,1,,,,,クマパン,0
1637,7020001150678,新規,0,2023-03-15,2023-03-15,株式会社ＫＡＯＮ,,株式会社,神奈川県,横浜市青葉区,美しが丘３丁目４５－２５,,14,117,2250002,,,,,,,2023-03-15,1,,,,,カオン,0
1638,7020001150686,新規,0,2023-03-15,2023-03-15,株式会社ｍａｇｕ．,,株式会社,神奈川県,川崎市高津区,千年６６７番地リトリート６０２,,14,134,2130022,,,,,,,2023-03-15,1,,,,,マグ,0
1646,7020003023510,新規,0,2023-03-15,2023-03-15,合同会社岩下企画,,合同会社,神奈川県,横浜市泉区,領家３丁目２４番地８,,14,116,2450004,,,,,,,2023-03-15,1,,,,,イワシタキカク,0
1647,7020003023519,新規,0,2023-03-15,2023-03-15,合同会社ハルライフ,,合同会社,神奈川県,横浜市港北区,小机町１５３８番地２－１０５号,,14,109,2220036,,,,,,,2023-03-15,1,,,,,ハルライフ,0
1648,7020005015877,新規,0,2023-03-15,2023-03-15,医療法人ひのき歯科,,その他の設立登記法人,神奈川県,横浜市西区,西平沼町１番１２号１Ｆ,,14,103,2200024,,,,,,,2023-03-15,1,,,,,ヒノキシカ,0
1654,7021003012874,新規,0,2023-03-15,2023-03-15,合同会社マリンローズ,,合同会社,神奈川県,足柄上郡大井町,金手１０８９番地,,14,362,2580018,,,,,,,2023-03-15,1,,,,,マリンローズ,0
1663,7030001152830,新規,0,2023-03-15,2023-03-15,株式会社佐野金属,,株式会社,埼玉県,さいたま市岩槻区,諏訪３丁目２番地１高層１号４１９,,11,110,3390007,,,,,,,2023-03-15,1,,,,,サノキンゾク,0
1664,7030001152847,新規,0,2023-03-15,2023-03-15,株式会社ＦＦＦｉｎｅ,,株式会社,埼玉県,ふじみ野市,霞ケ丘１丁目４番１８棟１２０１号,,11,245,3560006,,,,,,,2023-03-15,1,,,,,エフエフファイン,0
1665,7030001152855,新規,0,2023-03-15,2023-03-15,株式会社ネクサスファッションロジテック,,株式会社,埼玉県,さいたま市大宮区,吉敷町１丁目１０９番地６,,11,103,3300843,,,,,,,2023-03-15,1,,,,,ネクサスファッションロジテック,0
1666,7030001152888,新規,0,2023-03-15,2023-03-15,株式会社チェシン,,株式会社,埼玉県,所沢市,日吉町１０番地の２２,,11,208,3591123,,,,,,,2023-03-15,1,,,,,チェシン,0
1671,7030003021372,新規,0,2023-03-15,2023-03-15,三立合同会社,,合同会社,埼玉県,坂戸市,南町３４番７号ＫＩＶオフィス南町Ｄ号室,,11,239,3500233,,,,,,,2023-03-15,1,,,,,ミツタテ,0
1674,7040001127484,新規,0,2023-03-15,2023-03-15,ＡＶＡＮＣＥ株式会社,,株式会社,千葉県,千葉市緑区,おゆみ野南５丁目１５番地１３,,12,105,2660033,,,,,,,2023-03-15,1,,,,,アヴァンセ,0
1675,7040001127542,新規,0,2023-03-15,2023-03-15,株式会社清水住建,,株式会社,千葉県,松戸市,松戸新田４４６番地の１８サンウィッシュ３０２号,,12,207,2702241,,,,,,,2023-03-15,1,,,,,シミズジュウケン,0
1679,7040003022188,新規,0,2023-03-15,2023-03-15,ＳＨＡＮＴＨＡ　ＥＮＴＥＲＰＲＩＳＥＳ合同会社,,合同会社,千葉県,旭市,蛇園２６４８番地Ａ－１階,,12,215,2892612,,,,,,,2023-03-15,1,,,,,シャンタエンタープライセズ,0
1681,7050001052533,新規,0,2023-03-15,2023-03-15,株式会社長南造園,,株式会社,茨城県,稲敷郡阿見町,大字青宿７１８番地,,08,443,3000301,,,,,,,2023-03-15,1,,,,,チョウナンゾウエン,0
1682,7050001052541,新規,0,2023-03-15,2023-03-15,株式会社Ｍｉｋａｎ,,株式会社,茨城県,かすみがうら市,下稲吉２２９６番地１３,,08,230,3150052,,,,,,,2023-03-15,1,,,,,ミカン,0
1690,7070001040230,新規,0,2023-03-15,2023-03-15,株式会社大聖工業,,株式会社,群馬県,館林市,花山町２１番地の２４,,10,207,3740005,,,,,,,2023-03-15,1,,,,,ダイセイコウギョウ,0
1691,7070001040239,新規,0,2023-03-15,2023-03-15,株式会社ＭＥＳ,,株式会社,群馬県,富岡市,宇田５４番地１,,10,210,3702451,,,,,,,2023-03-15,1,,,,,エムイーエス,0
1693,7080001025511,新規,0,2023-03-15,2023-03-15,コ・クリエイション株式会社,,株式会社,静岡県,静岡市清水区,江尻東１丁目４番１号,,22,103,4240815,,,,,,,2023-03-15,1,,,,,コクリエイション,0
1695,7080101023852,新規,0,2023-03-15,2023-03-15,株式会社サクヤ・シーエフ,,株式会社,静岡県,富士市,松岡５４５番地の４０,,22,210,4160909,,,,,,,2023-03-15,1,,,,,サクヤシーエフ,0
1698,7100001036225,新規,0,2023-03-15,2023-03-15,株式会社Ｌａｔｅｒｎｅ,,株式会社,長野県,松本市,大字島内４８９７番地７５,,20,202,3900851,,,,,,,2023-03-15,1,,,,,ラテルネ,0
1699,7110001037370,新規,0,2023-03-15,2023-03-15,株式会社こころばかり,,株式会社,新潟県,五泉市,駅前１丁目４番１８号,,15,218,9591823,,,,,,,2023-03-15,1,,,,,ココロバカリ,0
1708,7120001253124,新規,0,2023-03-15,2023-03-15,株式会社隼,,株式会社,大阪府,大阪市東住吉区,鷹合３丁目１１－２０,,27,121,5460014,,,,,,,2023-03-15,1,,,,,ハヤブサ,0
1709,7120001253173,新規,0,2023-03-15,2023-03-15,萬君株式会社,,株式会社,大阪府,大阪市大正区,三軒家西３丁目４番１６号中山ビル２１０Ａ,,27,108,5510001,,,,,,,2023-03-15,1,,,,,マンクン,0
1710,7120001253272,新規,0,2023-03-15,2023-03-15,株式会社ミスターシン,,株式会社,大阪府,大阪市中央区,東心斎橋１丁目１７番２７号,,27,128,5420083,,,,,,,2023-03-15,1,,,,,ミスターシン,0
1712,7120003023566,新規,0,2023-03-15,2023-03-15,合同会社ＬＩＶ　ＳＴＹＬＥ,,合同会社,大阪府,大阪市北区,大淀中２丁目１番３６号,,27,127,5310076,,,,,,,2023-03-15,1,,,,,リヴスタイル,0
1713,7120003023599,新規,0,2023-03-15,2023-03-15,合同会社ＭＳ．Ｃ,,合同会社,大阪府,大阪市北区,梅田１丁目１－３大阪駅前第３ビル２９階１－１－１号室,,27,127,5300001,,,,,,,2023-03-15,1,,,,,エムエスシー,0
1714,7120003023608,新規,0,2023-03-15,2023-03-15,ＭＥＨＡＫＥ合同会社,,合同会社,大阪府,門真市,大池町３１－２,,27,223,5710076,,,,,,,2023-03-15,1,,,,,メハケ,0
1717,7120101067143,新規,0,2023-03-15,2023-03-15,株式会社Ｂ‐Ｓｏｃｉｅｔｙ,,株式会社,大阪府,泉佐野市,高松北２丁目３番２７－３０６号,,27,213,5980011,,,,,,,2023-03-15,1,,,,,ビーソサエティ,0
1718,7120103005118,新規,0,2023-03-15,2023-03-15,ＳＡＯＲＩ　Ｇｌｏｂａｌ合同会社,,合同会社,大阪府,和泉市,弥生町２丁目１７番１４号,,27,219,5940061,,,,,,,2023-03-15,1,,,,,サヲリグローバル,0
1721,7122001036780,新規,0,2023-03-15,2023-03-15,株式会社Ｂｌｕｅ　ｅｇｇ,,株式会社,大阪府,八尾市,高砂町４丁目２番地の１１,,27,212,5810822,,,,,,,2023-03-15,1,,,,,ブルーエッグ,0
1723,7130001073876,新規,0,2023-03-15,2023-03-15,株式会社新翔工業,,株式会社,京都府,舞鶴市,字喜多３９３－５,,26,202,6240945,,,,,,,2023-03-15,1,,,,,シンショウコウギョウ,0
1728,7140001129462,新規,0,2023-03-15,2023-03-15,株式会社Ａｌｌｆｏｒｐｅ,,株式会社,兵庫県,尼崎市,北大物町１３番２１号,,28,202,6600804,,,,,,,2023-03-15,1,,,,,オールフォープ,0
1731,7140005026516,新規,0,2023-03-15,2023-03-15,医療法人悠心会,,その他の設立登記法人,兵庫県,尼崎市,立花町１丁目４番７号立花レジデンス１階,,28,202,6610025,,,,,,,2023-03-15,1,,,,,ユウシンカイ,0
1733,7170001017516,新規,0,2023-03-15,2023-03-15,株式会社ＣＳ‐ＴＯＰ,,株式会社,和歌山県,和歌山市,太田１３８番地５,,30,201,6408323,,,,,,,2023-03-15,1,,,,,シーエストップ,0
1735,7170003001848,新規,0,2023-03-15,2023-03-15,合同会社ＪＥＴ　ＤＲＥＡＭ,,合同会社,和歌山県,和歌山市,福町２８番地ハウスブルーネ３１１,,30,201,6408043,,,,,,,2023-03-15,1,,,,,ジェットドリーム,0
1744,7180003024971,新規,0,2023-03-15,2023-03-15,合同会社ＣｉｅＬ,,合同会社,愛知県,稲沢市,下津宮西町１１番地アヴァンジェ下津１０２,,23,220,4928076,,,,,,,2023-03-15,1,,,,,シエル,0
1749,7190001030244,新規,0,2023-03-15,2023-03-15,宝山株式会社,,株式会社,三重県,鈴鹿市,白子４丁目１２番１６号ダイムビル白子Ｃ棟１０３号,,24,207,5100243,,,,,,,2023-03-15,1,,,,,ホウザン,0
1750,7190003004262,新規,0,2023-03-15,2023-03-15,合同会社上野工房,,合同会社,三重県,鈴鹿市,下箕田４丁目１７番２５号,,24,207,5130052,,,,,,,2023-03-15,1,,,,,ウエノコウボウ,0
1766,7260003004239,新規,0,2023-03-15,2023-03-15,合同会社トライアース,,合同会社,岡山県,岡山市北区,平野９９８番地７コーポサンワ１０２,,33,101,7010151,,,,,,,2023-03-15,1,,,,,トライアース,0
1780,7290001100904,新規,0,2023-03-15,2023-03-15,株式会社Ｖｉｅｗ　Ｒｏｕｎｄ,,株式会社,福岡県,福岡市中央区,大手門１丁目２番２３－１３０３号コアマンション大手門タワー,,40,133,8100074,,,,,,,2023-03-15,1,,,,,ビューラウンド,0
1781,7290003013666,新規,0,2023-03-15,2023-03-15,シーバード合同会社,,合同会社,福岡県,筑後市,大字久富９９５番地３,,40,211,8330056,,,,,,,2023-03-15,1,,,,,シーバード,0
1784,7290801029376,新規,0,2023-03-15,2023-03-15,株式会社吉崎農園カフェａｎｄグリーン,,株式会社,福岡県,宮若市,原田１７２５番地１,,40,226,8220112,,,,,,,2023-03-15,1,,,,,ヨシザキノウエンカフェアンドグリーン,0
1792,7320001019629,新規,0,2023-03-15,2023-03-15,株式会社財津工務舎,,株式会社,大分県,日田市,大字有田１０７０番地８,,44,204,8770000,,,,,,,2023-03-15,1,,,,,ザイツコウムシャ,0
1798,7340003004073,新規,0,2023-03-15,2023-03-15,合同会社ＯＰＥＮＧＡＴＥ,,合同会社,鹿児島県,鹿児島市,坂之上４丁目４番１１号,,46,201,8910150,,,,,,,2023-03-15,1,,,,,オープンゲイト,0
1800,7360001031712,新規,0,2023-03-15,2023-03-15,株式会社ｅａｒｔｈ,,株式会社,沖縄県,宮古島市,平良字西里１１番地１、１階,,47,214,9060012,,,,,,,2023-03-15,1,,,,,アース,0
1809,7410005006507,新規,0,2023-03-15,2023-03-15,一般社団法人Ａｌｌｉａｎｃｅ　ｆｏｒ　ｔｈｅ　Ｆｕｔｕｒｅ　ａｎｄ　Ｓｕｓｔａｉｎａｂｌｅ　Ｓｏｃｉｅｔｙ,,その他の設立登記法人,秋田県,潟上市,昭和大久保字街道下１１９番地,,05,211,0181401,,,,,,,2023-03-15,1,,,,,アライアンスフォザフューチャアンドサスティナブルソサシエティ,0
1810,7420001018190,新規,0,2023-03-15,2023-03-15,株式会社ＳＡＴＯ　ＦＡＲＭ,,株式会社,青森県,西津軽郡鰺ヶ沢町,大字建石町字雲雀野１０９番地２,,02,321,0382702,,,,,,,2023-03-15,1,,,,,サトウファーム,0
1815,7430001088638,新規,0,2023-03-15,2023-03-15,株式会社Ｓｎａｔｃｈｅｄ,,株式会社,北海道,札幌市中央区,南二条西６丁目５－３－７０３,,01,101,0600062,,,,,,,2023-03-15,1,,,,,スナッチ,0
1817,7450003002306,新規,0,2023-03-15,2023-03-15,ＳＡＬＩＣＳ　ＡＵＴＯ　ＭＡＲＴ合同会社,,合同会社,北海道,富良野市,字東山２５番地,,01,229,0760202,,,,,,,2023-03-15,1,,,,,サリックスオートマート,0
1821,7500001024817,新規,0,2023-03-15,2023-03-15,ミライワークス株式会社,,株式会社,愛媛県,新居浜市,西喜光地町９番４３号,,38,205,7920827,,,,,,,2023-03-15,1,,,,,ミライワークス,0
1827,7700150114464,新規,0,2023-03-15,2023-02-24,きつきジュニアＡＣ,,その他,大分県,杵築市,山香町大字野原２４５０番地,,44,210,8791307,,,,,,,2023-02-24,1,,,,,キツキジユニアアスリートクラブ,0
1828,7700150114480,新規,0,2023-03-15,2023-02-24,海の士を育む会,,その他,島根県,隠岐郡海士町,大字豊田２－１あまんぼうハウス,,32,525,6840402,,,,,,,2023-02-24,1,,,,,ウミノヒトヲハグクムカイ,0
1829,7700150114811,新規,0,2023-03-15,2023-03-15,Ｑｉｎｇｄａｏ　Ｓｅａｇｒｏｎ　Ｔｒａｄｉｎｇ　Ｃｏ．，Ｌｔｄ．,,外国会社等,,,,,,,,Ｎｏ．６０２，Ｕｎｉｔ　１，Ｂｕｉｌｄｉｎｇ　１，Ｆｕｑｉｎｇ　Ｒｏａｄ，Ｓｈｉｎａｎ　Ｄｉｓｔｒｉｃｔ，Ｑｉｎｇｄａｏ　Ｃｉｔｙ，Ｓｈａｎｄｏｎｇ　Ｐｒｏｖｉｎｃｅ，Ｃｈｉｎａ．,,,,,,2023-03-15,1,,,,,チンダオシーゴーロンシャンマオヨウシエンゴンスー,0
1838,8010001233680,新規,0,2023-03-15,2023-03-15,株式会社ＣＥＲＧ,,株式会社,東京都,千代田区,神田和泉町１番地６－１６ヤマトビル４０５,,13,101,1010024,,,,,,,2023-03-15,1,,,,,シーイーアールジー,0
1839,8010003040051,新規,0,2023-03-15,2023-03-15,オウギ・シップ・ホールディング合同会社,,合同会社,東京都,中央区,京橋２丁目２番１号,,13,102,1040031,,,,,,,2023-03-15,1,,,,,オウギシップホールディング,0
1843,8010101015558,新規,0,2023-03-15,2023-03-15,株式会社アキカ,,株式会社,東京都,八王子市,平岡町２２番５号八王子ホワイトレジデンス１０５号室,,13,201,1920061,,,,,,,2023-03-15,1,,,,,アキカ,0
1851,8010403029685,新規,0,2023-03-15,2023-03-15,合同会社ＧＥＭ,,合同会社,東京都,港区,西麻布４丁目２－４ＴＨＥＷＡＬＬＢ２Ｆ,,13,103,1060031,,,,,,,2023-03-15,1,,,,,ジェム,0
1858,8010701043966,新規,0,2023-03-15,2023-03-15,株式会社エクペリ,,株式会社,東京都,品川区,東品川１丁目６番２３号サンイング東品川３０１,,13,109,1400002,,,,,,,2023-03-15,1,,,,,エクペリ,0
1860,8010801033776,新規,0,2023-03-15,2023-03-15,ＣＤＧＧ株式会社,,株式会社,東京都,大田区,南千束２丁目１１番４号,,13,111,1450063,,,,,,,2023-03-15,1,,,,,シーディージージー,0
1875,8011001153167,新規,0,2023-03-15,2023-03-15,ＨＦ　ＢＵＳＩＮＥＳＳ　ＣＯＮＳＵＬＴＡＮＴＳ株式会社,,株式会社,東京都,渋谷区,神宮前１丁目２３番２８号,,13,113,1500001,,,,,,,2023-03-15,1,,,,,エッチエフビジネスコンサルタンツ,0
1878,8011003016454,新規,0,2023-03-15,2023-03-15,合同会社ＯＮＥ　ＰＩＥＣＥ,,合同会社,東京都,渋谷区,渋谷２丁目９番８号日総第２５ビル６階,,13,113,1500002,,,,,,,2023-03-15,1,,,,,ワンピース,0
1879,8011003016470,新規,0,2023-03-15,2023-03-15,Ｓａｎｄｂｏｘ合同会社,,合同会社,東京都,渋谷区,神宮前６丁目２３番４号桑野ビル２階,,13,113,1500001,,,,,,,2023-03-15,1,,,,,サンドボックス,0
1880,8011005009984,新規,0,2023-03-15,2023-03-15,医療法人社団盛隆会,,その他の設立登記法人,東京都,渋谷区,神宮前３丁目５番２号地下１階,,13,113,1500001,,,,,,,2023-03-15,1,,,,,セイリュウカイ,0
1888,8011103012799,新規,0,2023-03-15,2023-03-15,合同会社Ｈｉｇｈｅｓｔａｒ,,合同会社,東京都,新宿区,新宿５丁目１４番１２号天翔オフィス新宿三丁目５階５０８号室,,13,104,1600022,,,,,,,2023-03-15,1,,,,,ハイエスター,0
1889,8011103012808,新規,0,2023-03-15,2023-03-15,合同会社ヤモ,,合同会社,東京都,新宿区,西新宿３丁目３番１３号西新宿水間ビル６階,,13,104,1600023,,,,,,,2023-03-15,1,,,,,ヤモ,0
1899,8011603003851,新規,0,2023-03-15,2023-03-15,合同会社ステラコマース,,合同会社,東京都,練馬区,桜台４丁目４番１０号ミナレット桜台１０２,,13,120,1760002,,,,,,,2023-03-15,1,,,,,ステラコマース,0
1903,8011801042081,新規,0,2023-03-15,2023-03-15,株式会社ライフホーム,,株式会社,東京都,足立区,伊興３丁目２３番３４号ファーストメゾン１０２,,13,121,1210823,,,,,,,2023-03-15,1,,,,,ライフホーム,0
1906,8012401040277,新規,0,2023-03-15,2023-03-15,株式会社ラフトア,,株式会社,東京都,三鷹市,牟礼３丁目９番６－１２２号,,13,204,1810002,,,,,,,2023-03-15,1,,,,,ラフトア,0
1911,8012801022197,新規,0,2023-03-15,2023-03-15,株式会社エコワスホールディングス,,株式会社,東京都,立川市,柴崎町３丁目１３番１９号,,13,202,1900023,,,,,,,2023-03-15,1,,,,,エコワスホールディングス,0
1915,8013301050432,新規,0,2023-03-15,2023-03-15,株式会社３６９,,株式会社,東京都,豊島区,西池袋１丁目４４番６号,,13,116,1710021,,,,,,,2023-03-15,1,,,,,ミロク,0
1916,8013301050457,新規,0,2023-03-15,2023-03-15,株式会社ＹＡＫＵＭＩ,,株式会社,東京都,豊島区,千川１丁目２１－８田口ビル２階,,13,116,1710041,,,,,,,2023-03-15,1,,,,,ヤクミ,0
1921,8020001150660,新規,0,2023-03-15,2023-03-15,株式会社京コーポレーション,,株式会社,神奈川県,川崎市川崎区,駅前本町１８番地１メルスサイトー６０１,,14,131,2100007,,,,,,,2023-03-15,1,,,,,キョウコーポーレーション,0
1922,8020001150669,新規,0,2023-03-15,2023-03-15,株式会社Ｎｏｆ,,株式会社,神奈川県,横浜市南区,平楽１４１番地１３,,14,105,2320035,,,,,,,2023-03-15,1,,,,,エヌオブ,0
1923,8020001150693,新規,0,2023-03-15,2023-03-15,株式会社エムズベスト,,株式会社,神奈川県,横浜市瀬谷区,相沢５丁目２６番地３,,14,114,2460013,,,,,,,2023-03-15,1,,,,,エムズベスト,0
1925,8020005015892,新規,0,2023-03-15,2023-03-15,医療法人朋樹会,,その他の設立登記法人,神奈川県,横浜市緑区,十日市場町８０１番地８ホーメストプラザ十日市場東館２０６号室,,14,113,2260025,,,,,,,2023-03-15,1,,,,,ホウジュカイ,0
1936,8021001078438,新規,0,2023-03-15,2023-03-15,株式会社ＫＴＳホールディングス,,株式会社,神奈川県,厚木市,上依知２６２６番地１,,14,212,2430801,,,,,,,2023-03-15,1,,,,,ケーティーエスホールディングス,0
1937,8021001078454,新規,0,2023-03-15,2023-03-15,株式会社ＧＯＬＦＷＯＯＤ,,株式会社,神奈川県,厚木市,田村町１番１０‐４０５号,,14,212,2430016,,,,,,,2023-03-15,1,,,,,ゴルフウッド,0
1940,8021003012873,新規,0,2023-03-15,2023-03-15,Ｓｈｏｚａｎ　Ｊａｐａｎ合同会社,,合同会社,神奈川県,鎌倉市,鎌倉山２丁目２８番２号,,14,204,2480031,,,,,,,2023-03-15,1,,,,,ショーザンジャパン,0
1949,8030001152838,新規,0,2023-03-15,2023-03-15,株式会社全一建業,,株式会社,埼玉県,富士見市,大字鶴馬２６０５番地の１ＯＤビル１Ｆ七海香,,11,235,3540021,,,,,,,2023-03-15,1,,,,,ゼンイチケンギョウ,0
1950,8030001152846,新規,0,2023-03-15,2023-03-15,株式会社ＭＶＣ,,株式会社,埼玉県,川越市,中台元町２丁目１５番地１４（レオネクストＦｒｅｅＯｎｅ１０１号室）,,11,201,3501138,,,,,,,2023-03-15,1,,,,,エムブイシー,0
1958,8040001127475,新規,0,2023-03-15,2023-03-15,ＲＭａｘ国際株式会社,,株式会社,千葉県,習志野市,谷津３丁目２９番３－４０６号,,12,216,2750026,,,,,,,2023-03-15,1,,,,,アールマックスコクサイ,0
1959,8040001127491,新規,0,2023-03-15,2023-03-15,日翔株式会社,,株式会社,千葉県,流山市,おおたかの森東４丁目４６番地の３カトリエームＢ,,12,220,2700138,,,,,,,2023-03-15,1,,,,,ニッショウ,0
1960,8040003022187,新規,0,2023-03-15,2023-03-15,合同会社ＯＮＥ,,合同会社,千葉県,船橋市,本町５丁目２番２号,,12,204,2730005,,,,,,,2023-03-15,1,,,,,ワン,0
1962,8050001052540,新規,0,2023-03-15,2023-03-15,株式会社ＭＳＧ,,株式会社,茨城県,鉾田市,勝下３３２番地２,,08,234,3111422,,,,,,,2023-03-15,1,,,,,エムエスジー,0
1967,8070001040238,新規,0,2023-03-15,2023-03-15,株式会社ＲＥＷＡＬＫ,,株式会社,群馬県,藤岡市,藤岡８４９番地,,10,209,3750024,,,,,,,2023-03-15,1,,,,,リウォーク,0
1984,8120001253123,新規,0,2023-03-15,2023-03-15,株式会社Ｂｅｌｌｖｅ,,株式会社,大阪府,大阪市西区,北堀江１丁目１０－１３,,27,106,5500014,,,,,,,2023-03-15,1,,,,,ベルブ,0
1985,8120001253180,新規,0,2023-03-15,2023-03-15,株式会社旅行一丁,,株式会社,大阪府,大阪市中央区,難波４丁目３番２１号ＺＡなんばビル４階,,27,128,5420076,,,,,,,2023-03-15,1,,,,,リョコウイッチョウ,0
1986,8120001253189,新規,0,2023-03-15,2023-03-15,株式会社Ｆｉｖｅ‐Ｍｉｘ,,株式会社,大阪府,大阪市中央区,北久宝寺町３丁目６番１号本町南ガーデンシティ７階,,27,128,5410057,,,,,,,2023-03-15,1,,,,,ファイブミックス,0
1990,8120003023623,新規,0,2023-03-15,2023-03-15,大川合同会社,,合同会社,大阪府,大阪市西成区,太子１丁目１５番２２号１０１号室,,27,122,5570002,,,,,,,2023-03-15,1,,,,,オオカワ,0
1993,8120101067068,新規,0,2023-03-15,2023-03-15,株式会社進スタジオ,,株式会社,大阪府,堺市南区,高尾１丁３２１番地の１８,,27,145,5900157,,,,,,,2023-03-15,1,,,,,ススムスタジオ,0
1994,8120101067134,新規,0,2023-03-15,2023-03-15,株式会社ビッグバーン,,株式会社,大阪府,南河内郡河南町,大宝２丁目２４番１０号,,27,382,5850005,,,,,,,2023-03-15,1,,,,,ビッグバーン,0
2000,8130001073842,新規,0,2023-03-15,2023-03-15,ＭＢ株式会社,,株式会社,京都府,京都市北区,小山下総町５１番地,,26,101,6038151,,,,,,,2023-03-15,1,,,,,エムビー,0
2003,8140001129354,新規,0,2023-03-15,2023-03-15,株式会社キズナネクスト,,株式会社,兵庫県,西宮市,今津野田町５番２０－３０２号,,28,204,6638212,,,,,,,2023-03-15,1,,,,,キズナネクスト,0
2004,8140001129461,新規,0,2023-03-15,2023-03-15,株式会社クオリアＡＧ,,株式会社,兵庫県,神戸市兵庫区,上沢通１丁目１番８号,,28,105,6520046,,,,,,,2023-03-15,1,,,,,クオリアエージー,0
2007,8140003018852,新規,0,2023-03-15,2023-03-15,合同会社４ＸＬ,,合同会社,兵庫県,神戸市中央区,山本通２丁目３番８号２０４号室,,28,110,6500003,,,,,,,2023-03-15,1,,,,,フォーバイエル,0
2014,8180001155355,新規,0,2023-03-15,2023-03-15,株式会社エーシーアイアセット,,株式会社,愛知県,名古屋市中区,栄３丁目２番３号,,23,106,4600008,,,,,,,2023-03-15,1,,,,,エーシーアイアセット,0
2015,8180001155363,新規,0,2023-03-15,2023-03-15,株式会社ＵＭＩ　ＮＡＧＯＹＡ,,株式会社,愛知県,名古屋市北区,大我麻町６７番地１第２三鈴ビル６階Ｂ,,23,103,4620064,,,,,,,2023-03-15,1,,,,,ユーエムアイナゴヤ,0
2018,8180003024970,新規,0,2023-03-15,2023-03-15,ｏｄａｎｇｏ日和合同会社,,合同会社,愛知県,名古屋市千種区,月ケ丘３丁目１番１３号,,23,101,4640043,,,,,,,2023-03-15,1,,,,,オダンゴビヨリ,0
2019,8180003024987,新規,0,2023-03-15,2023-03-15,合同会社睦菜,,合同会社,愛知県,名古屋市中区,栄１丁目２３番２９号サンハイツ伏見２Ｆ,,23,106,4600008,,,,,,,2023-03-15,1,,,,,ムツナ,0
2022,8180301037179,新規,0,2023-03-15,2023-03-15,株式会社ＦａｑｔｏｒｙＰｌｕｓ　Ｃｏｎｓｕｌｔｉｎｇ,,株式会社,愛知県,豊橋市,南大清水町字元町１９番地６,,23,201,4418132,,,,,,,2023-03-15,1,,,,,ファクトリープラスコンサルティング,0
2023,8180303005646,新規,0,2023-03-15,2023-03-15,タケマツ商事合同会社,,合同会社,愛知県,刈谷市,桜町２丁目４９番地レトア桜町１０２,,23,210,4480028,,,,,,,2023-03-15,1,,,,,タケマツショウジ,0
2024,8190001030243,新規,0,2023-03-15,2023-03-15,株式会社のぞみサプライ,,株式会社,三重県,四日市市,日永西５丁目６番地１号,,24,202,5100891,,,,,,,2023-03-15,1,,,,,ノゾミサプライ,0
2025,8200001041073,新規,0,2023-03-15,2023-03-15,株式会社大国,,株式会社,岐阜県,岐阜市,若宮町２丁目２８Ａｎ　Ｇｅｓ３０３号,,21,201,5008828,,,,,,,2023-03-15,1,,,,,ダイコク,0
2026,8200005013457,新規,0,2023-03-15,2023-03-15,一般社団法人スマイルケア,,その他の設立登記法人,岐阜県,山県市,岩佐字古々田１０５４番地,,21,215,5012259,,,,,,,2023-03-15,1,,,,,スマイルケア,0
2030,8240003006046,新規,0,2023-03-15,2023-03-15,ビビッド１合同会社,,合同会社,広島県,安芸高田市,高宮町原田２５０１－２,,34,214,7391805,,,,,,,2023-03-15,1,,,,,ビビッドワン,0
2033,8260003004238,新規,0,2023-03-15,2023-03-15,合同会社ナノハナ,,合同会社,岡山県,岡山市北区,一宮１８９番地５６,,33,101,7011211,,,,,,,2023-03-15,1,,,,,ナノハナ,0
2038,8290003013657,新規,0,2023-03-15,2023-03-15,合同会社ＭＩＹＡＫＵ　ＦＵＫＵＯＫＡ,,合同会社,福岡県,福岡市中央区,警固１丁目１５番３８号ＣＡＩＴＡＣＳＱＵＡＲＥＧＡＲＤＥＮ４０２号,,40,133,8100023,,,,,,,2023-03-15,1,,,,,ミャクフクオカ,0
2039,8290003013665,新規,0,2023-03-15,2023-03-15,合同会社セブンエイト,,合同会社,福岡県,福岡市中央区,黒門２－２９－１０２,,40,133,8100055,,,,,,,2023-03-15,1,,,,,セブンエイト,0
2044,8290801029375,新規,0,2023-03-15,2023-03-15,株式会社フレッシュプロパティ,,株式会社,福岡県,遠賀郡岡垣町,松ケ台１丁目１０番４号,,40,383,8114214,,,,,,,2023-03-15,1,,,,,フレッシュプロパティ,0
2045,8290805009638,新規,0,2023-03-15,2023-03-15,一般社団法人メビウスネットｐｌｕｓ,,その他の設立登記法人,福岡県,北九州市八幡東区,竹下町２番８号,,40,108,8050022,,,,,,,2023-03-15,1,,,,,メビウスネットプラス,0
2049,8310001018309,新規,0,2023-03-15,2023-03-15,株式会社宮山企画,,株式会社,長崎県,長崎市,深堀町１丁目７４番地１６,,42,201,8510301,,,,,,,2023-03-15,1,,,,,ミヤヤマキカク,0
2051,8320001019636,新規,0,2023-03-15,2023-03-15,コーポレイトマネージメント株式会社,,株式会社,大分県,大分市,希望が丘２丁目１３１９番地の６８,,44,201,8700959,,,,,,,2023-03-15,1,,,,,コーポレイトマネージメント,0
2057,8360001031678,新規,0,2023-03-15,2023-03-15,株式会社ＰＯＭ,,株式会社,沖縄県,宜野湾市,我如古４丁目８－３１－１０３号,,47,205,9012214,,,,,,,2023-03-15,1,,,,,ポム,0
2064,8380003005414,新規,0,2023-03-15,2023-03-15,合同会社アドベント,,合同会社,福島県,福島市,鎌田字御仮家１２－５,,07,201,9600102,,,,,,,2023-03-15,1,,,,,アドベント,0
2066,8390003002063,新規,0,2023-03-15,2023-03-15,合同会社荒生瓦工事店,,合同会社,山形県,飽海郡遊佐町,吉出字蕨野畑１番地の８９,,06,461,9998302,,,,,,,2023-03-15,1,,,,,アラオカワラコウジテン,0
2067,8410001013423,新規,0,2023-03-15,2023-03-15,ａｉｒ‐ｃｌｕｅ株式会社,,株式会社,秋田県,にかほ市,三森字高田２０番地,,05,214,0180403,,,,,,,2023-03-15,1,,,,,エアクルー,0
2074,8430001088629,新規,0,2023-03-15,2023-03-15,株式会社ＶＩＡＲＯ,,株式会社,北海道,札幌市豊平区,豊平八条１１丁目３番２９号,,01,105,0620908,,,,,,,2023-03-15,1,,,,,ビアロ,0
2081,8500001024816,新規,0,2023-03-15,2023-03-15,株式会社Ｂａｓｅ・Ｆ,,株式会社,愛媛県,宇和島市,中央町１丁目３番２２号,,38,203,7980040,,,,,,,2023-03-15,1,,,,,ベースエフ,0
2084,8700150104919,新規,0,2023-03-15,2021-09-29,弦楽を楽しむ会,,その他,東京都,杉並区,今川２丁目１４－２３,,13,115,1670035,,,,,,,2021-09-29,1,,,,,ゲンガクヲタノシムカイ,0
2085,8700150114827,新規,0,2023-03-15,2023-03-15,Ｌａｎｄｍａｒｋ　Ｇｒｏｕｐ　Ｈｏｌｄｉｎｇｓ　Ｌｔｄ．,,外国会社等,,,,,,,,Ｐａｌｍ　Ｇｒｏｖｅ　Ｈｏｕｓｅ．Ｐ．Ｏ．Ｂｏｘ　４３８，Ｒｏａｄ　Ｔｏｗｎ，Ｔｏｒｔｏｌａ．,,,,,,2023-03-15,1,,,,,ランドマークグループホールデイングスリミテツド,0
2092,9010001233639,新規,0,2023-03-15,2023-03-15,株式会社ＳＹＬＡＮ,,株式会社,東京都,中央区,銀座５丁目１４番３号,,13,102,1040061,,,,,,,2023-03-15,1,,,,,シーラン,0
2096,9010003040050,新規,0,2023-03-15,2023-03-15,ルリ・シップ・ホールディング合同会社,,合同会社,東京都,中央区,京橋２丁目２番１号,,13,102,1040031,,,,,,,2023-03-15,1,,,,,ルリシップホールディング,0
2097,9010005036385,新規,0,2023-03-15,2023-03-15,一般社団法人日本スポーツ広告協会,,その他の設立登記法人,東京都,中央区,日本橋兜町１７番２号兜町第六葉山ビル４Ｆ,,13,102,1030026,,,,,,,2023-03-15,1,,,,,ニホンスポーツコウコクキョウカイ,0
2101,9010401173088,新規,0,2023-03-15,2023-03-15,株式会社Ｃ＆Ｊ　ＨＤ,,株式会社,東京都,港区,虎ノ門１丁目２３番１号ジャフコグループ株式会社内,,13,103,1050001,,,,,,,2023-03-15,1,,,,,シーアンドジェイホールディングス,0
2107,9010403029742,新規,0,2023-03-15,2023-03-15,Ｎｅｗ　Ｍｏｕｎｔａｉｎ　Ｃａｐｉｔａｌ　Ｊａｐａｎ合同会社,,合同会社,東京都,港区,元麻布３丁目１番６号,,13,103,1060046,,,,,,,2023-03-15,1,,,,,ニューマウンテンキャピタルジャパン,0
2113,9010701043981,新規,0,2023-03-15,2023-03-15,株式会社ディー・プラス,,株式会社,東京都,品川区,中延４丁目２０番７号,,13,109,1420053,,,,,,,2023-03-15,1,,,,,ディープラス,0
2116,9010801033775,新規,0,2023-03-15,2023-03-15,ＲＫＳ株式会社,,株式会社,東京都,大田区,南千束２丁目１１番４号,,13,111,1450063,,,,,,,2023-03-15,1,,,,,アールケーエス,0
2118,9010901052675,新規,0,2023-03-15,2023-03-15,株式会社ＺＹＭ,,株式会社,東京都,世田谷区,奥沢１丁目４４番６号,,13,112,1580083,,,,,,,2023-03-15,1,,,,,ザイム,0
2125,9011001153001,新規,0,2023-03-15,2023-03-15,株式会社カッケー,,株式会社,東京都,渋谷区,桜丘町１８番４号二宮ビル１Ｆ－１４,,13,113,1500031,,,,,,,2023-03-15,1,,,,,カッケー,0
2126,9011001153100,新規,0,2023-03-15,2023-03-15,渋谷スクランブル交差点株式会社,,株式会社,東京都,渋谷区,神南１丁目２３－１４リージャス渋谷公園通りビル,,13,113,1500041,,,,,,,2023-03-15,1,,,,,シブヤスクランブルコウサテン,0
2127,9011001153166,新規,0,2023-03-15,2023-03-15,方魚宮株式会社,,株式会社,東京都,渋谷区,神宮前１丁目２３番２８号,,13,113,1500001,,,,,,,2023-03-15,1,,,,,ホウギョク,0
2129,9011003016429,新規,0,2023-03-15,2023-03-15,衣合同会社,,合同会社,東京都,渋谷区,道玄坂１丁目１０番８号渋谷道玄坂東急ビル２Ｆ－Ｃ,,13,113,1500043,,,,,,,2023-03-15,1,,,,,コロモ,0
2130,9011005009991,新規,0,2023-03-15,2023-03-15,弁理士法人福柳国際特許事務所,,その他の設立登記法人,東京都,渋谷区,渋谷１丁目１番３号,,13,113,1500002,,,,,,,2023-03-15,1,,,,,フクリュウコクサイトッキョジムショ,0
2134,9011101102155,新規,0,2023-03-15,2023-03-15,株式会社ＩＫエステート,,株式会社,東京都,新宿区,左門町３番地１,,13,104,1600017,,,,,,,2023-03-15,1,,,,,アイケーエステート,0
2136,9011105010585,新規,0,2023-03-15,2023-03-15,医療法人社団鶴会,,その他の設立登記法人,東京都,新宿区,西新宿６丁目８番１号住友不動産新宿オークタワー２階,,13,104,1600023,,,,,,,2023-03-15,1,,,,,ツルカイ,0
2138,9011301028539,新規,0,2023-03-15,2023-03-15,ｍｏａ建築計画株式会社,,株式会社,東京都,杉並区,宮前３丁目１７番１０号,,13,115,1680081,,,,,,,2023-03-15,1,,,,,エムオーエーケンチクケイカク,0
2139,9011501029048,新規,0,2023-03-15,2023-03-15,株式会社クルックブックス,,株式会社,東京都,北区,王子１丁目２８番８－６０２号トーカン王子マンション,,13,117,1140002,,,,,,,2023-03-15,1,,,,,,0
2140,9011505002538,新規,0,2023-03-15,2023-03-15,一般社団法人文化芸術協会,,その他の設立登記法人,東京都,荒川区,町屋７丁目３番８号,,13,118,1160001,,,,,,,2023-03-15,1,,,,,ブンカゲイジュツキョウカイ,0
2149,9011801042072,新規,0,2023-03-15,2023-03-15,株式会社人の和,,株式会社,東京都,葛飾区,堀切７丁目２５番３号,,13,122,1240006,,,,,,,2023-03-15,1,,,,,ヒトノワ,0
2150,9011801042080,新規,0,2023-03-15,2023-03-15,株式会社ハットウェル,,株式会社,東京都,足立区,花畑３丁目１４番１０号,,13,121,1210061,,,,,,,2023-03-15,1,,,,,ハットウェル,0
2154,9012301013349,新規,0,2023-03-15,2023-03-15,株式会社アルファ,,株式会社,東京都,町田市,金井２丁目３８番地９,,13,209,1950072,,,,,,,2023-03-15,1,,,,,アルファ,0
2159,9012401040276,新規,0,2023-03-15,2023-03-15,コハクル株式会社,,株式会社,東京都,武蔵野市,境南町２丁目９番２１－２０６号シティテラス武蔵境,,13,203,1800023,,,,,,,2023-03-15,1,,,,,コハクル,0
2161,9013303006539,新規,0,2023-03-15,2023-03-15,ＳＭ・Ｆａｒｍ合同会社,,合同会社,東京都,豊島区,池袋３丁目７番８－１０１号,,13,116,1710014,,,,,,,2023-03-15,1,,,,,エスエムファーム,0
2169,9020001150676,新規,0,2023-03-15,2023-03-15,株式会社蒼設備,,株式会社,神奈川県,横浜市西区,北幸２丁目１０番地２８,,14,103,2200004,,,,,,,2023-03-15,1,,,,,アオイセツビ,0
2175,9020003023517,新規,0,2023-03-15,2023-03-15,ピコブル合同会社,,合同会社,神奈川県,横浜市神奈川区,松本町５丁目３６－１－３０７,,14,102,2210841,,,,,,,2023-03-15,1,,,,,ピコブル,0
2176,9020003023525,新規,0,2023-03-15,2023-03-15,合同会社フィリップス,,合同会社,神奈川県,横浜市南区,永田北３丁目８番３－２０１号,,14,105,2320071,,,,,,,2023-03-15,1,,,,,フィリップス,0
2177,9020005015883,新規,0,2023-03-15,2023-03-15,医療法人社団凉育会,,その他の設立登記法人,神奈川県,横浜市港南区,芹が谷５丁目５５番１０号イルカメディカルＢＬＤＧ３階,,14,111,2330006,,,,,,,2023-03-15,1,,,,,リョウイクカイ,0
2178,9020005015891,新規,0,2023-03-15,2023-03-15,女性Ｗｅｂマーケティング協同組合,,その他の設立登記法人,神奈川県,横浜市栄区,桂台北２９番地１５号,,14,115,2470031,,,,,,,2023-03-15,1,,,,,ジョセイウェブマーケティング,0
2194,9030001152837,新規,0,2023-03-15,2023-03-15,株式会社Ｓｕｎｆｅｌｌｏｗ,,株式会社,埼玉県,さいたま市岩槻区,西原台１丁目７－８２,,11,110,3390082,,,,,,,2023-03-15,1,,,,,サンフェロー,0
2195,9030001152878,新規,0,2023-03-15,2023-03-15,株式会社マイクロベータ,,株式会社,埼玉県,川越市,日東町９番地５,,11,201,3501160,,,,,,,2023-03-15,1,,,,,マイクロベータ,0
2198,9030003021362,新規,0,2023-03-15,2023-03-15,フジグループ合同会社,,合同会社,埼玉県,幸手市,中４丁目２５番６５号,,11,240,3400115,,,,,,,2023-03-15,1,,,,,フジグループ,0
2199,9030003021370,新規,0,2023-03-15,2023-03-15,合同会社Ｒｏｃｋ　Ｓｏｌｉｄ,,合同会社,埼玉県,さいたま市浦和区,常盤９丁目１６－５－１２０３,,11,107,3300061,,,,,,,2023-03-15,1,,,,,ロックソリッド,0
2203,9040001127482,新規,0,2023-03-15,2023-03-15,株式会社樹宝通商,,株式会社,千葉県,柏市,柏９６１番地３,,12,217,2770005,,,,,,,2023-03-15,1,,,,,キホウツウショウ,0
2204,9040001127490,新規,0,2023-03-15,2023-03-15,株式会社Ｍ＆Ｏプロテクト,,株式会社,千葉県,四街道市,もねの里５丁目４番８号,,12,228,2840016,,,,,,,2023-03-15,1,,,,,エムアンドオープロテクト,0
2205,9040001127499,新規,0,2023-03-15,2023-03-15,スーベニア株式会社,,株式会社,千葉県,市川市,相之川３丁目１４番５号,,12,203,2720143,,,,,,,2023-03-15,1,,,,,スーベニア,0
2208,9050001052531,新規,0,2023-03-15,2023-03-15,株式会社トキワホールディングス,,株式会社,茨城県,水戸市,酒門町３２１８番地の１,,08,201,3100841,,,,,,,2023-03-15,1,,,,,トキワホールディングス,0
2209,9050003007310,新規,0,2023-03-15,2023-03-15,合同会社ＭＩＮＡＭＩ　ＩＮＴＥＲＮＡＴＩＯＮＡＬ,,合同会社,茨城県,稲敷郡美浦村,大字木原２８６９番地９,,08,442,3000421,,,,,,,2023-03-15,1,,,,,ミナミインターナショナル,0
2212,9070001040237,新規,0,2023-03-15,2023-03-15,株式会社ＴｅＳ,,株式会社,群馬県,前橋市,総社町桜が丘１０３７番地５７,,10,201,3710858,,,,,,,2023-03-15,1,,,,,テス,0
2215,9080003002944,新規,0,2023-03-15,2023-03-15,合同会社ブロードフィールド,,合同会社,静岡県,島田市,旭３丁目８番１６号,,22,209,4270018,,,,,,,2023-03-15,1,,,,,ブロードフィールド,0
2221,9090001018025,新規,0,2023-03-15,2023-03-15,株式会社ＦＭＶ,,株式会社,山梨県,甲府市,大里町１６８９,,19,201,4000053,,,,,,,2023-03-15,1,,,,,エフエムブイ,0
2227,9110001037369,新規,0,2023-03-15,2023-03-15,株式会社ＮＢ,,株式会社,新潟県,新潟市江南区,横越川根町２丁目３番２号,,15,104,9500211,,,,,,,2023-03-15,1,,,,,エヌビー,0
2231,9120001253188,新規,0,2023-03-15,2023-03-15,日本孕町医学研究株式会社,,株式会社,大阪府,大阪市浪速区,芦原１丁目１番７号フォレスト難波西１階,,27,111,5560029,,,,,,,2023-03-15,1,,,,,ニホンヨウティンイガクケンキュウ,0
2232,9120001253196,新規,0,2023-03-15,2023-03-15,ｐｌａｙ‐ｆｕｌｌ株式会社,,株式会社,大阪府,大阪市北区,梅田１丁目３番１－４００号,,27,127,5300001,,,,,,,2023-03-15,1,,,,,プレイフル,0
2233,9120001253246,新規,0,2023-03-15,2023-03-15,株式会社デイン,,株式会社,大阪府,大阪市中央区,本町橋５番１４号,,27,128,5400029,,,,,,,2023-03-15,1,,,,,デイン,0
2234,9120003023614,新規,0,2023-03-15,2023-03-15,ＤＨ．Ｇｌｏｕｐ合同会社,,合同会社,大阪府,大阪市平野区,平野西５丁目４番１１号平野駅前第一ビル４０３号,,27,126,5470033,,,,,,,2023-03-15,1,,,,,ディーエイチグループ,0
2235,9120003023622,新規,0,2023-03-15,2023-03-15,合同会社さくら,,合同会社,大阪府,大阪市西淀川区,佃１丁目１４番４号リーフ井上２０６号室,,27,113,5550001,,,,,,,2023-03-15,1,,,,,サクラ,0
2245,9122001036779,新規,0,2023-03-15,2023-03-15,株式会社ｈｅｇ,,株式会社,大阪府,東大阪市,御厨南２丁目１番３５号,,27,227,5770034,,,,,,,2023-03-15,1,,,,,エイチイージー,0
2247,9130001073874,新規,0,2023-03-15,2023-03-15,シンワホールディングス株式会社,,株式会社,京都府,京都市伏見区,景勝町５０番地の２,,26,109,6128307,,,,,,,2023-03-15,1,,,,,シンワホールディングス,0
2261,9140001129460,新規,0,2023-03-15,2023-03-15,株式会社アバタープラットフォーム,,株式会社,兵庫県,神戸市灘区,篠原南町５丁目５番９－２０２号,,28,102,6570059,,,,,,,2023-03-15,1,,,,,アバタープラットフォーム,0
2270,9180001155354,新規,0,2023-03-15,2023-03-15,株式会社イチバンスタディ,,株式会社,愛知県,名古屋市中川区,富田町大字千音寺字東福正４７８３番地の８,,23,110,4540971,,,,,,,2023-03-15,1,,,,,イチバンスタディ,0
2271,9180003024986,新規,0,2023-03-15,2023-03-15,合同会社円上商店,,合同会社,愛知県,名古屋市昭和区,円上町２９番２０号宇野ビル１階,,23,107,4660054,,,,,,,2023-03-15,1,,,,,エンジョウショウテン,0
2274,9180301037186,新規,0,2023-03-15,2023-03-15,株式会社ＳＴ,,株式会社,愛知県,額田郡幸田町,大字上六栗字中切２３番地１,,23,501,4440123,,,,,,,2023-03-15,1,,,,,エスティー,0
2277,9190001030242,新規,0,2023-03-15,2023-03-15,株式会社ＳＨＩＮＥＩ,,株式会社,三重県,四日市市,八王子町５０４番地,,24,202,5100947,,,,,,,2023-03-15,1,,,,,シンエイ,0
2278,9190001030250,新規,0,2023-03-15,2023-03-15,みつる株式会社,,株式会社,三重県,鈴鹿市,南長太町２４８１番地,,24,207,5130048,,,,,,,2023-03-15,1,,,,,ミツル,0
2289,9220001025313,新規,0,2023-03-15,2023-03-15,株式会社ＥＮＩＸＩＡ,,株式会社,石川県,珠洲市,野々江町キ部４番地１,,17,205,9271213,,,,,,,2023-03-15,1,,,,,エニシア,0
2290,9220003003473,新規,0,2023-03-15,2023-03-15,Ｔｇ２合同会社,,合同会社,石川県,小松市,今江町５丁目２８１‐１,,17,203,9230964,,,,,,,2023-03-15,1,,,,,ティージーツー,0
2310,9260003004237,新規,0,2023-03-15,2023-03-15,合同会社グラシアス,,合同会社,岡山県,岡山市南区,西市５８４番地１０,,33,104,7000953,,,,,,,2023-03-15,1,,,,,グラシアス,0
2318,9290001100745,新規,0,2023-03-15,2023-03-15,株式会社ヒロマサ設備,,株式会社,福岡県,福津市,宮司浜２丁目４番１５号,,40,224,8113311,,,,,,,2023-03-15,1,,,,,ヒロマサセツビ,0
2319,9290001100902,新規,0,2023-03-15,2023-03-15,株式会社大誠工業,,株式会社,福岡県,糟屋郡新宮町,美咲２丁目２－３,,40,345,8110121,,,,,,,2023-03-15,1,,,,,タイセイコウギョウ,0
2320,9290001100910,新規,0,2023-03-15,2023-03-15,株式会社１０８,,株式会社,福岡県,福岡市東区,唐原５丁目９－４２グランルーチェ参番館１０１号,,40,131,8130001,,,,,,,2023-03-15,1,,,,,トーヤ,0
2321,9290003013664,新規,0,2023-03-15,2023-03-15,合同会社立花,,合同会社,福岡県,うきは市,吉井町１３４８番地,,40,225,8391321,,,,,,,2023-03-15,1,,,,,タチバナ,0
2327,9320001019627,新規,0,2023-03-15,2023-03-15,ＦＡＲＭＥＮＴＳ株式会社,,株式会社,大分県,大分市,大字木上４１２番地の１,,44,201,8701161,,,,,,,2023-03-15,1,,,,,ファーメンツ,0
2328,9320001019635,新規,0,2023-03-15,2023-03-15,ペイント大分株式会社,,株式会社,大分県,大分市,大字皆春１６８番地２２,,44,201,8700131,,,,,,,2023-03-15,1,,,,,ペイントオオイタ,0
2331,9340001025433,新規,0,2023-03-15,2023-03-15,奄美エコシステム株式会社,,株式会社,鹿児島県,奄美市,名瀬大字浦上１１３３番地５,,46,222,8940008,,,,,,,2023-03-15,1,,,,,アマミエコシステム,0
2332,9340003004071,新規,0,2023-03-15,2023-03-15,合同会社ｆｉｌｅｒ,,合同会社,鹿児島県,出水市,高尾野町大久保７６６９番地４,,46,208,8990401,,,,,,,2023-03-15,1,,,,,フィレール,0
2339,9360003012808,新規,0,2023-03-15,2023-03-15,合同会社ベースボール,,合同会社,沖縄県,糸満市,字兼城３３９番地の１４Ｆステージ西崎９０５号室,,47,210,9010303,,,,,,,2023-03-15,1,,,,,ベースボール,0
2340,9360005006799,新規,0,2023-03-15,2023-03-15,一般社団法人宮古島市ひとり親家庭福祉会,,その他の設立登記法人,沖縄県,宮古島市,下地字上地４７２番地３９、１階,,47,214,9060304,,,,,,,2023-03-15,1,,,,,ミヤコジマシヒトリオヤカテイフクシカイ,0
2341,9370001049710,新規,0,2023-03-15,2023-03-15,株式会社ＢＡＴＴＩＮＧ　ＡＴＨＬＥＴＥ,,株式会社,宮城県,仙台市泉区,上谷刈６丁目１１‐６,,04,105,9813121,,,,,,,2023-03-15,1,,,,,バッティングアスリート,0
2358,9400001016178,新規,0,2023-03-15,2023-03-15,大通ホールディングス株式会社,,株式会社,岩手県,北上市,藤沢１３地割１４７番地３,,03,206,0240013,,,,,,,2023-03-15,1,,,,,ダイツウホールディングス,0
2359,9400005008312,新規,0,2023-03-15,2023-03-15,特定非営利活動法人はなのば,,その他の設立登記法人,岩手県,花巻市,桜町１丁目６２８番地,,03,205,0250084,,,,,,,2023-03-15,1,,,,,ハナノバ,0
2362,9420001018189,新規,0,2023-03-15,2023-03-15,株式会社Ｎ，Ｓｕｐｐｏｒｔ,,株式会社,青森県,三沢市,日の出３丁目９４番地１３２１号Ｈ６８Ｂ,,02,207,0330154,,,,,,,2023-03-15,1,,,,,エヌサポート,0
2376,9460101007352,新規,0,2023-03-15,2023-03-15,株式会社Ｐｉｌｉｎａ,,株式会社,北海道,帯広市,大空町１丁目１４番地５,,01,207,0800838,,,,,,,2023-03-15,1,,,,,ピリナ,0
2384,9500002024491,新規,0,2023-03-15,2023-03-15,有限会社丸福商店,,有限会社,愛媛県,四国中央市,川之江町２０２６番地,,38,213,7990101,,,,,,,2023-03-15,1,,,,,マルフクショウテン,0
2388,9700150114826,新規,0,2023-03-15,2023-03-15,ＰＥＧＡＳＵＳ　ＪＥＴ　ＬＥＡＳＩＮＧ　７　ＬＩＭＩＴＥＤ,,外国会社等,,,,,,,,３２　Ｍｏｌｅｓｗｏｒｔｈ　Ｓｔｒｅｅｔ，Ｄｕｂｌｉｎ　２，Ｉｒｅｌａｎｄ,,,,,,2023-03-15,1,,,,,ペガサスジエツトリーシングセブンリミテツド,0
