sequenceNumber,corporateNumber,process,correct,updateDate,changeDate,name,nameImageId,kind,prefectureName,cityName,streetNumber,addressImageId,prefectureCode,cityCode,postCode,addressOutside,addressOutsideImageId,closeDate,closeCause,successorCorporateNumber,changeCause,assignmentDate,latest,enName,enPrefectureName,enCityName,enAddressOutside,furigana,hihyoji
1,1010001033889,登記記録の閉鎖等,0,2024-08-01,2024-07-18,東京インダストリー株式会社,,株式会社,東京都,中央区,勝どき１丁目８番１号,,13,102,1040054,,,2024-07-18,清算の結了等,,,2015-10-05,1,,,,,トウキョウインダストリー,0
2,1010001053342,登記記録の閉鎖等,0,2024-08-01,2024-07-26,株式会社日陸,,株式会社,東京都,葛飾区,立石６丁目３５番１１号青砥ハイツ７０１号,,13,122,1240012,,,2024-07-26,清算の結了等,,,2015-10-05,1,,,,,ニチリク,0
11,1010003020992,登記記録の閉鎖等,0,2024-08-01,2024-07-25,日光１６８ベルピア安中合同会社,,合同会社,東京都,千代田区,丸の内３丁目１番１号東京共同会計事務所内,,13,101,1000005,,,2024-07-25,清算の結了等,,,2015-10-05,1,,,,,ニッコウワンハンドレッドシックスティーエイトベルピアアンナカ,0
16,1010403027415,登記記録の閉鎖等,0,2024-08-01,2024-07-10,赤坂ソーラー合同会社,,合同会社,東京都,港区,虎ノ門３丁目２２番１０－２０１号,,13,103,1050001,,,2024-07-10,清算の結了等,,,2022-04-07,1,,,,,アカサカソーラー,0
59,1011505002504,登記記録の閉鎖等,0,2024-08-01,2024-07-30,行政書士法人兆豊,,その他の設立登記法人,東京都,北区,浮間１丁目７番２３号兆豊浮間ビル,,13,117,1150051,,,2024-07-30,清算の結了等,,,2022-10-05,1,,,,,チョウホウ,0
84,1021002067636,登記記録の閉鎖等,0,2024-08-01,2024-07-29,有限会社横須賀テレビ商会,,有限会社,神奈川県,横須賀市,汐入町３丁目８４番地,,14,201,2380042,,,2024-07-29,清算の結了等,,,2015-10-05,1,,,,,ヨコスカテレビショウカイ,0
87,1030001054421,登記記録の閉鎖等,0,2024-08-01,2024-07-26,株式会社扇建窓,,株式会社,埼玉県,川越市,大字鯨井１７９７番地１,,11,201,3500815,,,2024-07-26,清算の結了等,,,2015-10-05,1,,,,,オウギケンソウ,0
88,1030001102048,登記記録の閉鎖等,0,2024-08-01,2024-07-24,株式会社アルファージ,,株式会社,埼玉県,鴻巣市,吹上富士見２丁目７番６－５０４号,,11,217,3690121,,,2024-07-24,清算の結了等,,,2015-10-05,1,,,,,アルファージ,0
101,1030002098723,登記記録の閉鎖等,0,2024-08-01,2024-07-25,有限会社大塚板金,00017526,有限会社,埼玉県,川口市,桜町２丁目６番１号,,11,203,3340001,,,2024-07-25,清算の結了等,,,2015-10-05,1,,,,,オオツカバンキン,0
105,1040001086356,登記記録の閉鎖等,0,2024-08-01,2024-07-17,株式会社ユーラシアリボン・アンド・マーケティング,,株式会社,千葉県,市川市,末広１丁目１３番１号,,12,203,2720121,,,2024-07-17,清算の結了等,,,2015-10-05,1,,,,,ユーラシアリボンアンドマーケティング,0
113,1070001000859,登記記録の閉鎖等,0,2024-08-01,2024-07-30,共和建設株式会社,,株式会社,群馬県,前橋市,富士見町時沢１９８２番地２,,10,201,3710104,,,2024-07-30,清算の結了等,,,2015-10-05,1,,,,,キョウワケンセツ,0
114,1070001032423,登記記録の閉鎖等,0,2024-08-01,2024-07-30,株式会社ＲＡファーム,,株式会社,群馬県,高崎市,北原町村西５５８番地１,,10,202,3703513,,,2024-07-30,清算の結了等,,,2016-07-15,1,,,,,アールエーファーム,0
128,1090002011795,登記記録の閉鎖等,0,2024-08-01,2024-07-25,有限会社岳麓レンタカー,,有限会社,山梨県,富士吉田市,富士見２丁目４番７号,,19,202,4030009,,,2024-07-25,清算の結了等,,,2015-10-05,1,,,,,ガクロクレンタカー,0
147,1120005008562,登記記録の閉鎖等,0,2024-08-01,2024-07-30,特定非営利活動法人世界のボードゲームを広める会ゆうもあ,,その他の設立登記法人,大阪府,大阪市西区,江戸堀１丁目２３番８号,,27,106,5500002,,,2024-07-30,清算の結了等,,,2015-10-05,1,,,,,セカイノボードゲームヲヒロメルカイユウモア,0
154,1120901001678,登記記録の閉鎖等,0,2024-08-01,2024-07-23,ハウジングネットワーク株式会社,,株式会社,大阪府,茨木市,耳原１丁目９番１９号,,27,211,5670006,,,2024-07-23,清算の結了等,,,2015-10-05,1,,,,,ハウジングネットワーク,0
173,1140005024285,登記記録の閉鎖等,0,2024-08-01,2024-07-26,特定非営利活動法人丹波医療介護連携推進機構,,その他の設立登記法人,兵庫県,丹波市,柏原町柏原４２８３番地３７,,28,223,6693309,,,2024-07-26,清算の結了等,,,2018-09-28,1,,,,,タンバイリョウカイゴレンケイスイシンキコウ,0
175,1160001009263,登記記録の閉鎖等,0,2024-08-01,2024-07-25,株式会社アールビーディー・ジャパン,,株式会社,滋賀県,長浜市,新庄寺町１５２番地,,25,203,5260013,,,2024-07-25,合併による解散等,5160002008987,令和６年７月２５日滋賀県長浜市新庄寺町１５２番地株式会社ＭＯＶＥ（5160002008987）に合併し解散,2015-10-05,1,,,,,アールビーディージャパン,0
195,1200005012234,登記記録の閉鎖等,0,2024-08-01,2024-07-26,一般社団法人太陽福祉会,,その他の設立登記法人,岐阜県,揖斐郡大野町,大字牛洞４４０番地１,,21,403,5010561,,,2024-07-26,清算の結了等,,,2015-10-05,1,,,,,タイヨウフクシカイ,0
200,1230002008199,登記記録の閉鎖等,0,2024-08-01,2024-07-30,有限会社宮腰工業所,,有限会社,富山県,黒部市,石田６９６６番地,,16,207,9380059,,,2024-07-30,清算の結了等,,,2015-10-05,1,,,,,ミヤコシコウギョウショ,0
205,1240001055035,登記記録の閉鎖等,0,2024-08-01,2024-07-29,株式会社万治建築設計事務所,,株式会社,広島県,広島市南区,元宇品町１２番２－９０２号,,34,103,7340012,,,2024-07-29,清算の結了等,,,2019-10-04,1,,,,,マンジケンチクセッケイジムショ,0
221,1330002029029,登記記録の閉鎖等,0,2024-08-01,2024-07-10,有限会社ベノキ電機,,有限会社,熊本県,天草市,牛深町１５３８番地の１５４,,43,215,8631901,,,2024-07-10,清算の結了等,,,2015-10-05,1,,,,,ベノキデンキ,0
239,1420002013527,登記記録の閉鎖等,0,2024-08-01,2024-07-29,有限会社すずめのお宿,,有限会社,青森県,弘前市,大字桶屋町５５番地４,,02,202,0368197,,,2024-07-29,清算の結了等,,,2015-10-05,1,,,,,スズメノオヤド,0
249,1460102000966,登記記録の閉鎖等,0,2024-08-01,2024-07-29,有限会社工藤農機,,有限会社,北海道,帯広市,大正町基線４５番地３,,01,207,0891242,,,2024-07-29,清算の結了等,,,2015-10-05,1,,,,,クドウノウキ,0
257,2010001159139,登記記録の閉鎖等,0,2024-08-01,2024-07-18,株式会社中央教育図書企画,,株式会社,東京都,文京区,白山１丁目１３番７号,,13,105,1130001,,,2024-07-18,清算の結了等,,,2015-10-05,1,,,,,チュウオウキョウイクトショキカク,0
268,2010003032698,登記記録の閉鎖等,0,2024-08-01,2024-07-25,日光Ｐｌｕｓ１３合同会社１５,,合同会社,東京都,千代田区,丸の内３丁目１番１号東京共同会計事務所内,,13,101,1000005,,,2024-07-25,清算の結了等,,,2020-07-30,1,,,,,ニッコウプラスサーティーンイチゴー,0
275,2010005029866,登記記録の閉鎖等,0,2024-08-01,2024-07-18,一般社団法人丸の内インフラストラクチャー,,その他の設立登記法人,東京都,千代田区,大手町１丁目５番１号,,13,101,1000004,,,2024-07-18,清算の結了等,,,2019-03-14,1,,,,,マルノウチインフラストラクチャー,0
293,2010701038303,登記記録の閉鎖等,0,2024-08-01,2024-07-18,株式会社テックアット,,株式会社,東京都,新宿区,西新宿２丁目６番１号新宿住友ビル１８階,,13,104,1600023,,,2024-07-18,清算の結了等,,,2019-10-09,1,,,,,テックアット,0
294,2010701042643,登記記録の閉鎖等,0,2024-08-01,2024-07-22,株式会社ＣＬＯＳＥＴ,,株式会社,東京都,品川区,西五反田２丁目９番７号ドルミ五反田アンメゾン４０７号,,13,109,1410031,,,2024-07-22,合併による解散等,2010401152866,令和６年７月１０日東京都品川区西五反田二丁目１８番２号ＣｏｃｏｒｏＧｏｔａｎｄａＢｌｄｇ．７階株式会社１ＬＤＫ（2010401152866）に合併し解散,2022-05-17,1,,,,,クローゼット,0
300,2010802010672,登記記録の閉鎖等,0,2024-08-01,2024-07-23,有限会社長田屋商店,,有限会社,東京都,大田区,蒲田４丁目１０番１４号あすとウィズ１階,,13,111,1440052,,,2024-07-23,清算の結了等,,,2015-10-05,1,,,,,,0
321,2011801023005,登記記録の閉鎖等,0,2024-08-01,2024-07-18,株式会社エコテクノ,,株式会社,東京都,千代田区,神田錦町１丁目１４番地立花日英ビル７階Ｂ,,13,101,1010054,,,2024-07-18,清算の結了等,,,2015-10-05,1,,,,,エコテクノ,0
336,2020002058297,登記記録の閉鎖等,0,2024-08-01,2024-07-10,有限会社ワイズコミュニケーション,,有限会社,神奈川県,横浜市青葉区,もえぎ野５番地２５,,14,117,2270044,,,2024-07-10,清算の結了等,,,2015-10-05,1,,,,,ワイズコミュニケーション,0
337,2020003011288,登記記録の閉鎖等,0,2024-08-01,2024-07-29,合同会社ニュートン,,合同会社,東京都,葛飾区,奥戸２丁目２４番２０－１０２号,,13,122,1240022,,,2024-07-29,清算の結了等,,,2016-05-11,1,,,,,ニュートン,0
343,2030001035164,登記記録の閉鎖等,0,2024-08-01,2024-07-26,大一工業株式会社,,株式会社,埼玉県,草加市,西町４４０番地１１,,11,221,3400035,,,2024-07-26,清算の結了等,,,2015-10-05,1,,,,,ダイイチコウギョウ,0
358,2030002093517,登記記録の閉鎖等,0,2024-08-01,2024-07-25,有限会社西根プロセス,,有限会社,埼玉県,川越市,神明町３６番地３５,,11,201,3500823,,,2024-07-25,清算の結了等,,,2015-10-05,1,,,,,ニシネプロセス,0
377,2070001025384,登記記録の閉鎖等,0,2024-08-01,2024-07-30,株式会社ＰＣサポート,,株式会社,群馬県,前橋市,大胡町３９９番地アイムショッピングセンター１階,,10,201,3710223,,,2024-07-30,清算の結了等,,,2015-10-05,1,,,,,ピーシーサポート,0
379,2070003004931,登記記録の閉鎖等,0,2024-08-01,2024-07-30,合同会社ライフクリエイト,,合同会社,群馬県,太田市,山之神町５３０番地７,,10,205,3792302,,,2024-07-30,清算の結了等,,,2023-05-09,1,,,,,ライフクリエイト,0
402,2120002039122,登記記録の閉鎖等,0,2024-08-01,2024-07-31,有限会社山本東洋医学社,,有限会社,大阪府,大阪市中央区,千日前１丁目３番５号,,27,128,5420074,,,2024-07-31,清算の結了等,,,2015-10-05,1,,,,,ヤマモトトウヨウイガクシャ,0
407,2120005006020,登記記録の閉鎖等,0,2024-08-01,2024-07-31,玉堀市場商業協同組合,,その他の設立登記法人,大阪府,大阪市東成区,中道３丁目２番１２号玉堀市場内,,27,115,5370025,,,2024-07-31,清算の結了等,,,2015-10-05,1,,,,,タマホリイチバ,0
428,2130001050772,登記記録の閉鎖等,0,2024-08-01,2024-07-29,株式会社Ｃ－ＬＡＢ,,株式会社,京都府,宇治市,槇島町一ノ坪３２１番地の３９,,26,204,6110041,,,2024-07-29,清算の結了等,,,2015-10-05,1,,,,,,0
459,2180005015040,登記記録の閉鎖等,0,2024-08-01,2024-07-18,特定非営利活動法人ライフサポートみわ,,その他の設立登記法人,愛知県,清須市,春日落合６８０,,23,233,4520961,,,2024-07-18,清算の結了等,,,2015-10-05,1,,,,,ライフサポートミワ,0
462,2180302020560,登記記録の閉鎖等,0,2024-08-01,2024-07-24,有限会社トネ美容室,,有限会社,愛知県,高浜市,呉竹町６丁目５番地１,,23,227,4441336,,,2024-07-24,清算の結了等,,,2015-10-05,1,,,,,トネビヨウシツ,0
473,2240001006482,登記記録の閉鎖等,0,2024-08-01,2024-07-30,ダブルピーシー株式会社,,株式会社,広島県,広島市中区,銀山町１１番１３号,,34,101,7300022,,,2024-07-30,清算の結了等,,,2015-10-05,1,,,,,ダブルピーシー,0
476,2250001009716,登記記録の閉鎖等,0,2024-08-01,2024-07-29,株式会社サンライズ,,株式会社,山口県,周南市,政所３丁目８番２１号,,35,215,7460012,,,2024-07-29,清算の結了等,,,2015-10-05,1,,,,,サンライズ,0
501,2370001044395,登記記録の閉鎖等,0,2024-08-01,2024-07-12,株式会社稲村仮設工業,,株式会社,宮城県,仙台市宮城野区,岩切字洞ノ口７５番地,,04,102,9830821,,,2024-07-12,清算の結了等,,,2019-05-21,1,,,,,,0
502,2370002010371,登記記録の閉鎖等,0,2024-08-01,2024-07-12,有限会社角忠建設,,有限会社,宮城県,仙台市青葉区,本町１丁目１２番２－３０２号,,04,101,9800014,,,2024-07-12,清算の結了等,,,2015-10-05,1,,,,,カドチュウケンセツ,0
507,2380002001097,登記記録の閉鎖等,0,2024-08-01,2024-07-24,有限会社國嶋建業,,有限会社,福島県,福島市,松川町字南諏訪原７２番地の１,,07,201,9601241,,,2024-07-24,清算の結了等,,,2015-10-05,1,,,,,クニシマケンギョウ,0
533,3010001060989,登記記録の閉鎖等,0,2024-08-01,2024-07-17,ワコーエンタープライズ株式会社,,株式会社,東京都,中央区,八丁堀３丁目５番４号,,13,102,1040032,,,2024-07-17,清算の結了等,,,2015-10-05,1,,,,,ワコーエンタープライズ,0
541,3010002033952,登記記録の閉鎖等,0,2024-08-01,2024-07-18,有限会社アン・ドゥ,,有限会社,東京都,文京区,水道１丁目１１番７－５０９号,,13,105,1120005,,,2024-07-18,清算の結了等,,,2015-10-05,1,,,,,アンドゥ,0
542,3010003037837,登記記録の閉鎖等,0,2024-08-01,2024-07-18,Ａｒｃｈｅｌｏｎ合同会社,,合同会社,東京都,中央区,銀座１丁目２２―１１銀座大竹ビジデンス２階,,13,102,1040061,,,2024-07-18,清算の結了等,,,2022-06-22,1,,,,,アーケロン,0
543,3010102006288,登記記録の閉鎖等,0,2024-08-01,2024-07-30,有限会社本多エンタープライズ,,有限会社,東京都,八王子市,本町２５番５号,,13,201,1920066,,,2024-07-30,清算の結了等,,,2015-10-05,1,,,,,ホンダエンタープライズ,0
551,3010501031812,登記記録の閉鎖等,0,2024-08-01,2024-07-29,株式会社ＪＴＳ,,株式会社,東京都,北区,昭和町２丁目１６番８号,,13,117,1140011,,,2024-07-29,合併による解散等,6370001020178,令和６年５月１日宮城県仙台市宮城野区東仙台四丁目２番７６号株式会社ガルドゥ（6370001020178）に合併し解散,2015-10-05,1,,,,,,0
554,3010601047980,登記記録の閉鎖等,0,2024-08-01,2024-07-26,株式会社富士グリーン,,株式会社,東京都,江東区,大島３丁目８番７－１１６号,,13,108,1360072,,,2024-07-26,清算の結了等,,,2015-10-05,1,,,,,フジグリーン,0
559,3010901041626,登記記録の閉鎖等,0,2024-08-01,2024-07-25,株式会社エニーロード,,株式会社,東京都,世田谷区,経堂３丁目３３番６号,,13,112,1560052,,,2024-07-25,清算の結了等,,,2018-02-27,1,,,,,エニーロード,0
581,3011701007726,登記記録の閉鎖等,0,2024-08-01,2024-07-30,株式会社＿ヤビ工務店,00056450,株式会社,東京都,江戸川区,東小松川３丁目３５番１３－４０４号,,13,123,1320033,,,2024-07-30,清算の結了等,,,2015-10-05,1,,,,,ミヤビコウムテン,0
583,3011702011933,登記記録の閉鎖等,0,2024-08-01,2024-07-24,有限会社山先興業,,有限会社,東京都,江戸川区,東葛西１丁目３４番４号,,13,123,1340084,,,2024-07-24,清算の結了等,,,2015-10-05,1,,,,,ヤマサキコウギョウ,0
599,3020001041856,登記記録の閉鎖等,0,2024-08-01,2024-07-10,フィルメトリクス株式会社,,株式会社,神奈川県,横浜市港北区,新横浜２丁目５番９号,,14,109,2220033,,,2024-07-10,清算の結了等,,,2015-10-05,1,,,,,フィルメトリクス,0
614,3030001060351,登記記録の閉鎖等,0,2024-08-01,2024-07-18,株式会社永井建設,,株式会社,東京都,東大和市,桜が丘１丁目１４４９番地の９,,13,220,2070022,,,2024-07-18,清算の結了等,,,2015-10-05,1,,,,,ナガイケンセツ,0
622,3040001089191,登記記録の閉鎖等,0,2024-08-01,2024-07-16,株式会社オータキ保険事務所,,株式会社,千葉県,茂原市,茂原５４４番地,,12,210,2970026,,,2024-07-16,清算の結了等,,,2015-10-05,1,,,,,オータキホケンジムショ,0
625,3040002029551,登記記録の閉鎖等,0,2024-08-01,2024-07-16,有限会社高橋土木,,有限会社,千葉県,八千代市,吉橋５７１番地,,12,221,2760047,,,2024-07-16,清算の結了等,,,2015-10-05,1,,,,,,0
633,3050005009005,登記記録の閉鎖等,0,2024-08-01,2024-07-26,医療法人社団園部医院,,その他の設立登記法人,茨城県,牛久市,南４丁目４３番地３,,08,219,3001222,,,2024-07-26,清算の結了等,,,2015-10-05,1,,,,,ソノベイイン,0
653,3120003010642,登記記録の閉鎖等,0,2024-08-01,2024-07-18,株式会社Ｅｐｉｇｅｎｅｒｏｎ,,株式会社,東京都,中央区,日本橋堀留町１丁目９番１０号,,13,102,1030012,,,2024-07-18,清算の結了等,,,2015-10-05,1,,,,,エピジェネロン,0
672,3170001011943,登記記録の閉鎖等,0,2024-08-01,2024-07-30,株式会社ユタカ興産,,株式会社,和歌山県,新宮市,船町３丁目２番地の１７,,30,207,6470002,,,2024-07-30,清算の結了等,,,2015-10-05,1,,,,,ユタカコウサン,0
679,3180005019016,登記記録の閉鎖等,0,2024-08-01,2024-07-18,一般社団法人ＨｙＭａｃ,,その他の設立登記法人,愛知県,半田市,州の崎町２番地２２６,,23,205,4750021,,,2024-07-18,清算の結了等,,,2020-11-11,1,,,,,ハイマック,0
695,3240002052590,登記記録の閉鎖等,0,2024-08-01,2024-07-29,有限会社奥呉服店,,有限会社,広島県,世羅郡世羅町,大字甲山２７８番地,,34,462,7221123,,,2024-07-29,清算の結了等,,,2015-10-05,1,,,,,オクゴフクテン,0
696,3240003005382,登記記録の閉鎖等,0,2024-08-01,2024-07-29,合同会社栄松,,合同会社,広島県,広島市西区,古江西町１４番４２－６０４号,,34,104,7330874,,,2024-07-29,清算の結了等,,,2021-11-29,1,,,,,エイショウ,0
699,3250002015101,登記記録の閉鎖等,0,2024-08-01,2024-07-29,有限会社ながぬま商店,,有限会社,山口県,周南市,政所３丁目８番２１号,,35,215,7460012,,,2024-07-29,清算の結了等,,,2015-10-05,1,,,,,ナガヌマショウテン,0
704,3290801009563,登記記録の閉鎖等,0,2024-08-01,2024-07-26,アルケン産業株式会社,,株式会社,福岡県,北九州市八幡西区,竹末１丁目２４番２８号,,40,109,8060045,,,2024-07-26,清算の結了等,,,2015-10-05,1,,,,,アルケンサンギョウ,0
713,3330002008633,登記記録の閉鎖等,0,2024-08-01,2024-07-22,有限会社ピンク・ピンク,,有限会社,熊本県,熊本市中央区,上通町５番２０号,,43,101,8600845,,,2024-07-22,清算の結了等,,,2015-10-05,1,,,,,ピンクピンク,0
719,3370001006898,登記記録の閉鎖等,0,2024-08-01,2024-07-12,株式会社アックスウィン,,株式会社,宮城県,仙台市青葉区,一番町２丁目５番２２号,,04,101,9800811,,,2024-07-12,清算の結了等,,,2015-10-05,1,,,,,,0
732,3400001008503,登記記録の閉鎖等,0,2024-08-01,2024-07-17,株式会社菊大総業,,株式会社,岩手県,上閉伊郡大槌町,大槌第１４地割１９５番地県営屋敷前アパート２号棟３０４号室,,03,461,0281131,,,2024-07-17,清算の結了等,,,2015-10-05,1,,,,,キクダイソウギョウ,0
733,3400002000112,登記記録の閉鎖等,0,2024-08-01,2024-07-17,有限会社赤坂商店,,有限会社,岩手県,盛岡市,名須川町７番３０号,,03,201,0200016,,,2024-07-17,清算の結了等,,,2015-10-05,1,,,,,アカサカショウテン,0
761,3500001021173,登記記録の閉鎖等,0,2024-08-01,2024-07-25,株式会社Ｌｉｎｏｗ,,株式会社,長崎県,北松浦郡佐々町,市場免１－５,,42,391,8570312,,,2024-07-25,清算の結了等,,,2018-02-14,1,,,,,リノー,0
772,4010003033190,登記記録の閉鎖等,0,2024-08-01,2024-07-01,合同会社Ｂｅｌｉｅｆ,,合同会社,東京都,中央区,銀座７丁目１５－８タンハイツ銀座４０６,,13,102,1040061,,,2024-07-01,清算の結了等,,,2020-10-05,1,,,,,ビリーフ,0
776,4010401060019,登記記録の閉鎖等,0,2024-08-01,2024-07-09,サクサ株式会社,,株式会社,東京都,港区,白金１丁目１７番３号ＮＢＦプラチナタワー,,13,103,1080072,,,2024-07-09,合併による解散等,2010401060020,令和６年７月１日東京都港区白金一丁目１７番３号ＮＢＦプラチナタワーサクサホールディングス株式会社（2010401060020）に合併し解散,2015-10-05,1,,,,,サクサ,0
779,4010401173943,登記記録の閉鎖等,0,2024-08-01,2024-07-09,株式会社ヘルメンス,,株式会社,東京都,港区,新橋４丁目２１番３号,,13,103,1050004,,,2024-07-09,清算の結了等,,,2023-04-25,1,,,,,ヘルメンス,0
788,4010602009756,登記記録の閉鎖等,0,2024-08-01,2024-07-30,有限会社オーダーワイシャツ黒田,,有限会社,東京都,墨田区,京島１丁目３０番１０号,,13,107,1310046,,,2024-07-30,清算の結了等,,,2015-10-05,1,,,,,オーダーワイシャツクロダ,0
789,4010602013114,登記記録の閉鎖等,0,2024-08-01,2024-07-31,有限会社筑波塗装工業所,,有限会社,東京都,墨田区,東向島２丁目１０番４号,,13,107,1310032,,,2024-07-31,清算の結了等,,,2015-10-05,1,,,,,ツクバトソウコウギョウショ,0
814,4011105007124,登記記録の閉鎖等,0,2024-08-01,2024-07-17,一般社団法人東京四谷理科実験クラブ,,その他の設立登記法人,東京都,新宿区,四谷三栄町１５番３２号フォレスト四谷３０１,,13,104,1600008,,,2024-07-17,清算の結了等,,,2016-02-05,1,,,,,トウキョウヨツヤリカジッケンクラブ,0
838,4020001035840,登記記録の閉鎖等,0,2024-08-01,2024-07-10,テクノサイエンス株式会社,,株式会社,神奈川県,横浜市鶴見区,小野町１０番地,,14,101,2300046,,,2024-07-10,清算の結了等,,,2015-10-05,1,,,,,テクノサイエンス,0
847,4030001113281,登記記録の閉鎖等,0,2024-08-01,2024-07-18,株式会社グッドホープ,,株式会社,栃木県,足利市,田島町１７８２番地１０,,09,202,3260061,,,2024-07-18,清算の結了等,,,2016-03-11,1,,,,,グッドホープ,0
858,4040001069416,登記記録の閉鎖等,0,2024-08-01,2024-07-16,エムアール株式会社,,株式会社,千葉県,我孫子市,青山台４丁目１０番１号,,12,222,2701175,,,2024-07-16,清算の結了等,,,2015-10-05,1,,,,,エムアール,0
864,4040002003893,登記記録の閉鎖等,0,2024-08-01,2024-07-16,有限会社京葉エクステリア,,有限会社,千葉県,八街市,八街は１０５番地２４７,,12,230,2891107,,,2024-07-16,清算の結了等,,,2015-10-05,1,,,,,,0
865,4040002062725,登記記録の閉鎖等,0,2024-08-01,2024-07-16,有限会社四街道薬局,,有限会社,千葉県,四街道市,大日４３７番地２４,,12,228,2840001,,,2024-07-16,清算の結了等,,,2015-10-05,1,,,,,ヨツカイドウヤッキョク,0
873,4050002027792,登記記録の閉鎖等,0,2024-08-01,2024-07-23,有限会社デザイアデンキ,,有限会社,茨城県,神栖市,柳川２７３０番地の９３,,08,232,3140252,,,2024-07-23,清算の結了等,,,2015-10-05,1,,,,,デザイアデンキ,0
876,4060002034615,登記記録の閉鎖等,0,2024-08-01,2024-07-17,有限会社壬鈴精機,,有限会社,栃木県,下都賀郡壬生町,大字安塚２０９８番地,,09,361,3210201,,,2024-07-17,清算の結了等,,,2015-10-05,1,,,,,ミスズセイキ,0
879,4080103000927,登記記録の閉鎖等,0,2024-08-01,2024-07-30,合資会社宮下商店,,合資会社,静岡県,伊東市,桜ガ丘２丁目３番１４号,,22,208,4140037,,,2024-07-30,清算の結了等,,,2015-10-05,1,,,,,ミヤシタショウテン,0
890,4090002002965,登記記録の閉鎖等,0,2024-08-01,2024-07-25,有限会社マルヨシ空調,,有限会社,山梨県,甲府市,国母８丁目２番２３号,,19,201,4000043,,,2024-07-25,清算の結了等,,,2015-10-05,1,,,,,,0
903,4120002079224,登記記録の閉鎖等,0,2024-08-01,2024-07-31,有限会社リモテック,,有限会社,大阪府,守口市,梶町１丁目１０番１７号,,27,209,5700015,,,2024-07-31,清算の結了等,,,2015-10-05,1,,,,,リモテック,0
914,4120905002926,登記記録の閉鎖等,0,2024-08-01,2024-07-23,ＮＰＯ法人たかつき市民活動ネットワーク,,その他の設立登記法人,大阪府,高槻市,高槻町２０番１８号まるい化粧品店内,,27,207,5690803,,,2024-07-23,清算の結了等,,,2015-10-05,1,,,,,タカツキシミンカツドウネットワーク,0
918,4130001012473,登記記録の閉鎖等,0,2024-08-01,2024-07-26,株式会社小野産業,,株式会社,京都府,京都市山科区,小野西浦３番地１０５号,,26,110,6078258,,,2024-07-26,清算の結了等,,,2015-10-05,1,,,,,オノサンギョウ,0
920,4130001062650,登記記録の閉鎖等,0,2024-08-01,2024-07-29,株式会社ドライヘルデン,,株式会社,京都府,宇治市,木幡熊小路１９－３４,,26,204,6110002,,,2024-07-29,清算の結了等,,,2018-07-31,1,,,,,ドライヘルデン,0
923,4140001005542,登記記録の閉鎖等,0,2024-08-01,2024-07-29,六甲精機株式会社,,株式会社,兵庫県,神戸市北区,南五葉６丁目１番２８号,,28,109,6511132,,,2024-07-29,清算の結了等,,,2015-10-05,1,,,,,ロッコウセイキ,0
942,4180002084268,登記記録の閉鎖等,0,2024-08-01,2024-07-16,有限会社竹内でんき,,有限会社,愛知県,知多郡武豊町,字迎戸５番地２３,,23,447,4702352,,,2024-07-16,清算の結了等,,,2015-10-05,1,,,,,タケウチデンキ,0
943,4180003011733,登記記録の閉鎖等,0,2024-08-01,2024-07-17,合資会社小川工業,,合資会社,愛知県,一宮市,開明字大橋北３５番地の７,,23,203,4940001,,,2024-07-17,清算の結了等,,,2015-10-05,1,,,,,オガワコウギョウ,0
944,4180003023299,登記記録の閉鎖等,0,2024-08-01,2024-07-17,Ｎａｔｕ８合同会社,,合同会社,愛知県,尾張旭市,新居町山の田３２０８番地２１,,23,226,4880076,,,2024-07-17,清算の結了等,,,2021-12-17,1,,,,,ナチュハチ,0
959,4220001009915,登記記録の閉鎖等,0,2024-08-01,2024-07-24,株式会社サンウェルソフトウェア,,株式会社,石川県,金沢市,元町１丁目３番１７号,,17,201,9200842,,,2024-07-24,清算の結了等,,,2015-10-05,1,,,,,サンウェルソフトウェア,0
975,4260005009949,登記記録の閉鎖等,0,2024-08-01,2024-07-18,特定非営利活動法人スマイル・つるみ,,その他の設立登記法人,岡山県,備前市,鶴海１５７７番地１,,33,211,7050025,,,2024-07-18,清算の結了等,,,2015-10-05,1,,,,,スマイルツルミ,0
979,4290005015507,登記記録の閉鎖等,0,2024-08-01,2024-06-24,ＮＰＯ法人福岡シニア支援協会,,その他の設立登記法人,福岡県,福岡市南区,柏原２丁目２１番１８号,,40,134,8111353,,,2024-06-24,清算の結了等,,,2015-10-05,1,,,,,フクオカシニアシエンキョウカイ,0
982,4290802005164,登記記録の閉鎖等,0,2024-08-01,2024-07-29,有限会社ハーモニー,,有限会社,福岡県,北九州市小倉北区,緑ケ丘１丁目１５番１号,,40,106,8030827,,,2024-07-29,清算の結了等,,,2015-10-05,1,,,,,ハーモニー,0
1014,4400002001497,登記記録の閉鎖等,0,2024-08-01,2024-07-19,有限会社三和水道工業所,,有限会社,岩手県,盛岡市,本町通１丁目１５番７号,,03,201,0200015,,,2024-07-19,清算の結了等,,,2015-10-05,1,,,,,,0
1017,4420002012195,登記記録の閉鎖等,0,2024-08-01,2024-07-29,有限会社エム・サプライ,,有限会社,青森県,五所川原市,大字持子沢字隠川５０８番地５,,02,205,0370642,,,2024-07-29,清算の結了等,,,2015-10-05,1,,,,,エムサプライ,0
1026,4490001007165,登記記録の閉鎖等,0,2024-08-01,2024-07-26,株式会社ＳＵＮ　ＳＨＯＷ,,株式会社,高知県,土佐郡土佐町,宮古野１番地４０,,39,363,7813403,,,2024-07-26,清算の結了等,,,2015-10-05,1,,,,,サンショウ,0
1035,4500002010819,登記記録の閉鎖等,0,2024-08-01,2024-07-23,有限会社芝電子,,有限会社,愛媛県,伊予郡砥部町,大南１６６６番地１１,,38,402,7912132,,,2024-07-23,清算の結了等,,,2015-10-05,1,,,,,シバデンシ,0
1095,5011101104790,登記記録の閉鎖等,0,2024-08-01,2024-07-17,株式会社Ｐｌｕｍｅ,,株式会社,東京都,新宿区,西新宿３丁目３番１３号水間ビル２Ｆ,,13,104,1600023,,,2024-07-17,清算の結了等,,,2023-10-18,1,,,,,プルーム,0
1098,5011102029681,登記記録の閉鎖等,0,2024-08-01,2024-07-17,有限会社ドリアン理容館,,有限会社,東京都,新宿区,市谷本村町５番１号,,13,104,1620845,,,2024-07-17,清算の結了等,,,2015-10-05,1,,,,,ドリアンリヨウカン,0
1099,5011302006423,登記記録の閉鎖等,0,2024-08-01,2024-07-26,有限会社Ｓｍｉｌｅ＆Ｓｕｐｐｏｒｔ,,有限会社,東京都,杉並区,清水３丁目７番３号,,13,115,1670033,,,2024-07-26,清算の結了等,,,2015-10-05,1,,,,,スマイルアンドサポート,0
1108,5011701022558,登記記録の閉鎖等,0,2024-08-01,2024-07-24,株式会社アダプト,,株式会社,東京都,江戸川区,松江２丁目３９番５号,,13,123,1320025,,,2024-07-24,清算の結了等,,,2019-04-03,1,,,,,アダプト,0
1122,5013402002087,登記記録の閉鎖等,0,2024-08-01,2024-07-30,有限会社ギャレット,,有限会社,東京都,多摩市,桜ヶ丘３丁目１１番地の１,,13,224,2060013,,,2024-07-30,清算の結了等,,,2015-10-05,1,,,,,ギャレット,0
1143,5030002052957,登記記録の閉鎖等,0,2024-08-01,2024-07-26,有限会社上尾動物病院,,有限会社,埼玉県,上尾市,春日１丁目２８番地の１２,,11,219,3620074,,,2024-07-26,清算の結了等,,,2015-10-05,1,,,,,アゲオドウブツビョウイン,0
1149,5040001124649,登記記録の閉鎖等,0,2024-08-01,2024-07-11,株式会社蓮堂商会,,株式会社,千葉県,柏市,中央２丁目２－１８ＭＡＫＥＢＬＤＧ３０１号室,,12,217,2770023,,,2024-07-11,清算の結了等,,,2022-08-15,1,,,,,レンドウショウカイ,0
1156,5050001040746,登記記録の閉鎖等,0,2024-08-01,2024-07-25,株式会社ＡＲＩ,,株式会社,茨城県,牛久市,中央２丁目１０番地１９（中央エステートＦ棟）,,08,219,3001234,,,2024-07-25,清算の結了等,,,2016-04-11,1,,,,,アライ,0
1160,5060002020647,登記記録の閉鎖等,0,2024-08-01,2024-07-17,有限会社奈良木工所,,有限会社,栃木県,鹿沼市,加園１７１４番地,,09,205,3220252,,,2024-07-17,清算の結了等,,,2015-10-05,1,,,,,ナラモッコウジョ,0
1189,5120902016374,登記記録の閉鎖等,0,2024-08-01,2024-07-24,有限会社ベスト・ブレーン,,有限会社,大阪府,箕面市,石丸３丁目４番５６号,,27,220,5620027,,,2024-07-24,清算の結了等,,,2015-10-05,1,,,,,ベストブレーン,0
1227,5200001005576,登記記録の閉鎖等,0,2024-08-01,2024-07-29,株式会社フューダック,,株式会社,岐阜県,岐阜市,徹明通８丁目２番地,,21,201,5008879,,,2024-07-29,清算の結了等,,,2015-10-05,1,,,,,,0
1228,5200001033239,登記記録の閉鎖等,0,2024-08-01,2024-07-29,株式会社Ｌｏｏｆａｓ,,株式会社,岐阜県,岐阜市,鏡島中１丁目２番３号,,21,201,5010124,,,2024-07-29,清算の結了等,,,2016-09-06,1,,,,,,0
1231,5200003005640,登記記録の閉鎖等,0,2024-08-01,2024-07-29,合同会社Ｆｕｚｉクリエイティブ,,合同会社,岐阜県,大垣市,西之川町１丁目１５７－１,,21,202,5030018,,,2024-07-29,清算の結了等,,,2022-08-10,1,,,,,フジイクリエイティブ,0
1233,5220001009245,登記記録の閉鎖等,0,2024-08-01,2024-07-23,株式会社タカマツエマグ,,株式会社,石川県,白山市,旭丘１丁目８番地,,17,210,9240004,,,2024-07-23,清算の結了等,,,2015-10-05,1,,,,,タカマツエマグ,0
1240,5240002023796,登記記録の閉鎖等,0,2024-08-01,2024-07-29,ＡＳＨアッシュ有限会社,,有限会社,広島県,広島市中区,東白島町７番１８号,,34,101,7300004,,,2024-07-29,清算の結了等,,,2015-10-05,1,,,,,エイエスエイチアッシュ,0
1264,5300002008304,登記記録の閉鎖等,0,2024-08-01,2024-07-26,有限会社越山製陶所,,有限会社,佐賀県,西松浦郡有田町,戸矢甲１６６５番地３,,41,401,8440014,,,2024-07-26,清算の結了等,,,2015-10-05,1,,,,,エツザンセイトウショ,0
1277,5350002009248,登記記録の閉鎖等,0,2024-08-01,2024-07-25,大久保石油商事有限会社,,有限会社,宮崎県,西都市,大字下三財３３７６番地１,,45,208,8810113,,,2024-07-25,清算の結了等,,,2015-10-05,1,,,,,オオクボセキユショウジ,0
1284,5370002017356,登記記録の閉鎖等,0,2024-08-01,2024-07-12,株式会社岩上商店,,株式会社,宮城県,仙台市宮城野区,榴岡２丁目１－２５ＢＩＶＩ仙台１Ｆ,,04,102,9830852,,,2024-07-12,清算の結了等,,,2015-10-05,1,,,,,,0
1286,5390001006564,登記記録の閉鎖等,0,2024-08-01,2024-07-16,本立不動産株式会社,,株式会社,山形県,酒田市,本町１丁目２番５５号,,06,204,9980043,,,2024-07-16,合併による解散等,6390001006563,令和６年７月１日山形県酒田市本町一丁目２番５５号本立信成株式会社（6390001006563）に合併し解散,2015-10-05,1,,,,,ホンリツフドウサン,0
1302,5440005000269,登記記録の閉鎖等,0,2024-08-01,2024-07-29,医療法人竹田皮膚科医院,,その他の設立登記法人,北海道,函館市,本町６番４号,,01,202,0400011,,,2024-07-29,清算の結了等,,,2015-10-05,1,,,,,タケダヒフカイイン,0
1304,5460402000299,登記記録の閉鎖等,0,2024-08-01,2024-07-30,株式会社ひろた塗装店,,株式会社,北海道,根室市,昭和町２丁目２５番地,,01,223,0870022,,,2024-07-30,清算の結了等,,,2015-10-05,1,,,,,ヒロタトソウテン,0
1326,6010101010742,登記記録の閉鎖等,0,2024-08-01,2024-07-23,東京邦衆株式会社,,株式会社,東京都,日野市,東豊田３丁目２２番地の１３豊田第２コーポラス５１６,,13,212,1910052,,,2024-07-23,清算の結了等,,,2015-10-05,1,,,,,トウキョウホウシュウ,0
1328,6010401066823,登記記録の閉鎖等,0,2024-08-01,2024-07-18,ウィズン・コンサルティング株式会社,,株式会社,東京都,中央区,新川２丁目８番１０号,,13,102,1040033,,,2024-07-18,清算の結了等,,,2015-10-05,1,,,,,ウィズンコンサルティング,0
1340,6010403027906,登記記録の閉鎖等,0,2024-08-01,2024-07-09,合同会社家の前,,合同会社,東京都,港区,浜松町２丁目２番１５号浜松町ダイヤビル２Ｆ,,13,103,1050013,,,2024-07-09,清算の結了等,,,2022-06-17,1,,,,,イエノマエ,0
1348,6010701044207,登記記録の閉鎖等,0,2024-08-01,2024-07-25,株式会社ＨＩＴＳ　ＦＯＯＤ,,株式会社,京都府,京都市中京区,裏寺町通蛸薬師上る裏寺町５９５番地グランレジェイド京都河原町７０４,,26,104,6048041,,,2024-07-25,清算の結了等,,,2023-05-10,1,,,,,ヒッツフード,0
1371,6011005003056,登記記録の閉鎖等,0,2024-08-01,2024-07-19,一般財団法人国際こども花基金,,その他の設立登記法人,東京都,中央区,銀座１丁目２７番８号セントラルビル７０３号,,13,102,1040061,,,2024-07-19,清算の結了等,,,2015-10-05,1,,,,,コクサイコドモハナキキン,0
1386,6011503003193,登記記録の閉鎖等,0,2024-08-01,2024-07-30,合同会社ＨＫ,,合同会社,東京都,荒川区,東尾久１丁目３０番１２－９０４号,,13,118,1160012,,,2024-07-30,清算の結了等,,,2017-02-21,1,,,,,エイチケー,0
1393,6012301000894,登記記録の閉鎖等,0,2024-08-01,2024-07-24,サトー石油販売株式会社,,株式会社,東京都,町田市,南つくし野４丁目１６番地１０,,13,209,1940002,,,2024-07-24,清算の結了等,,,2015-10-05,1,,,,,サトーセキユハンバイ,0
1409,6030001037215,登記記録の閉鎖等,0,2024-08-01,2024-07-25,株式会社ライト,,株式会社,埼玉県,三郷市,鷹野１丁目３８９番地,,11,237,3410035,,,2024-07-25,清算の結了等,,,2015-10-05,1,,,,,ライト,0
1427,6040002085187,登記記録の閉鎖等,0,2024-08-01,2024-07-12,有限会社石毛商店,,有限会社,千葉県,銚子市,浜町３番地の１２,,12,202,2880052,,,2024-07-12,清算の結了等,,,2015-10-05,1,,,,,イシゲショウテン,0
1441,6070002008649,登記記録の閉鎖等,0,2024-08-01,2024-07-30,有限会社飯塚モータース,,有限会社,群馬県,高崎市,大八木町９００番地,,10,202,3700072,,,2024-07-30,清算の結了等,,,2015-10-05,1,,,,,イイヅカモータース,0
1442,6080002009076,登記記録の閉鎖等,0,2024-08-01,2024-07-19,旭精工有限会社,,有限会社,静岡県,静岡市清水区,天王南７番１５号,,22,103,4240014,,,2024-07-19,清算の結了等,,,2015-10-05,1,,,,,,0
1452,6110001008075,登記記録の閉鎖等,0,2024-08-01,2024-07-24,渡辺建設株式会社,,株式会社,新潟県,新潟市西蒲区,金池９３番地,,15,108,9530144,,,2024-07-24,清算の結了等,,,2015-10-05,1,,,,,ワタナベケンセツ,0
1461,6120001203757,登記記録の閉鎖等,0,2024-08-01,2024-07-30,株式会社ＯＭＢ,,株式会社,大阪府,大阪市西区,北堀江１丁目１番７号,,27,106,5500014,,,2024-07-30,清算の結了等,,,2017-02-20,1,,,,,,0
1513,6200001022331,登記記録の閉鎖等,0,2024-08-01,2024-07-30,山峯陶器株式会社,,株式会社,岐阜県,土岐市,泉岩畑町３丁目１７番地,,21,212,5095141,,,2024-07-30,清算の結了等,,,2015-10-05,1,,,,,ヤマミネトウキ,0
1522,6220001016901,登記記録の閉鎖等,0,2024-08-01,2024-07-23,株式会社鹿肝工務店,,株式会社,石川県,珠洲市,飯田町１１部２８番地２,,17,205,9271214,,,2024-07-23,清算の結了等,,,2015-10-05,1,,,,,シカンコウムテン,0
1533,6240002034891,登記記録の閉鎖等,0,2024-08-01,2024-07-30,信成海運有限会社,,有限会社,広島県,呉市,倉橋町３６３１番地の１６,,34,202,7371377,,,2024-07-30,清算の結了等,,,2015-10-05,1,,,,,シンセイカイウン,0
1554,6310001012544,登記記録の閉鎖等,0,2024-08-01,2024-07-25,株式会社田崎ポートリー,,株式会社,長崎県,大村市,玖島２丁目３３３番地３,,42,205,8560834,,,2024-07-25,清算の結了等,,,2015-10-05,1,,,,,タサキポートリー,0
1558,6310002020793,登記記録の閉鎖等,0,2024-08-01,2024-07-25,有限会社一光,,有限会社,長崎県,五島市,富江町松尾１９１３番地１,,42,211,8530202,,,2024-07-25,清算の結了等,,,2015-10-05,1,,,,,イチコウ,0
1562,6350001018612,登記記録の閉鎖等,0,2024-08-01,2024-07-29,株式会社ケイズ,,株式会社,宮崎県,宮崎市,大塚町窪田３２４４番地２,,45,201,8800951,,,2024-07-29,清算の結了等,,,2023-10-13,1,,,,,ケイズ,0
1582,6430002054004,登記記録の閉鎖等,0,2024-08-01,2024-07-26,有限会社オートサービス小樽,,有限会社,北海道,小樽市,港町６番４号,,01,203,0470007,,,2024-07-26,清算の結了等,,,2015-10-05,1,,,,,オートサービスオタル,0
1595,7010001090289,登記記録の閉鎖等,0,2024-08-01,2024-07-17,株式会社エーディーエヌグループ,,株式会社,東京都,中央区,銀座６丁目６番１号,,13,102,1040061,,,2024-07-17,清算の結了等,,,2015-10-05,1,,,,,エーディーエヌグループ,0
1597,7010001178514,登記記録の閉鎖等,0,2024-08-01,2024-07-18,システマエステート株式会社,,株式会社,東京都,中央区,日本橋人形町２丁目７番２号,,13,102,1030013,,,2024-07-18,清算の結了等,,,2016-09-27,1,,,,,システマエステート,0
1608,7010003021060,登記記録の閉鎖等,0,2024-08-01,2024-07-25,日光１０８メゾン・ド・ショウ合同会社,,合同会社,東京都,千代田区,丸の内３丁目１番１号東京共同会計事務所内,,13,101,1000005,,,2024-07-25,清算の結了等,,,2015-10-05,1,,,,,ニッコウワンハンドレッドエイトメゾンドショウ,0
1619,7010402025604,登記記録の閉鎖等,0,2024-08-01,2024-07-26,有限会社イデアーレ,,有限会社,東京都,杉並区,浜田山３丁目３１番２号,,13,115,1680065,,,2024-07-26,清算の結了等,,,2015-10-05,1,,,,,,0
1644,7011001037899,登記記録の閉鎖等,0,2024-08-01,2024-07-10,株式会社ジープランニング,,株式会社,東京都,渋谷区,神宮前２丁目３３番１８号,,13,113,1500001,,,2024-07-10,清算の結了等,,,2015-10-05,1,,,,,ジープランニング,0
1651,7011005009283,登記記録の閉鎖等,0,2024-08-01,2024-07-10,一般社団法人天然繊維循環国際協会,,その他の設立登記法人,東京都,渋谷区,神宮前３丁目１８番２２号,,13,113,1500001,,,2024-07-10,清算の結了等,,,2021-11-11,1,,,,,テンネンセンイジュンカンコクサイキョウカイ,0
1652,7011101018337,登記記録の閉鎖等,0,2024-08-01,2024-07-18,株式会社ファースト・メディカル,,株式会社,東京都,新宿区,若松町３３番６号菱和パレス３Ｆ,,13,104,1620056,,,2024-07-18,清算の結了等,,,2015-10-05,1,,,,,ファーストメディカル,0
1664,7011702012300,登記記録の閉鎖等,0,2024-08-01,2024-07-22,有限会社ヨシザワ,,有限会社,東京都,江戸川区,西篠崎２丁目２１番１２号,,13,123,1330055,,,2024-07-22,清算の結了等,,,2015-10-05,1,,,,,ヨシザワ,0
1666,7011801005709,登記記録の閉鎖等,0,2024-08-01,2024-07-29,アド・グリーン企画出版株式会社,,株式会社,東京都,足立区,足立３丁目２２番１３号,,13,121,1200015,,,2024-07-29,清算の結了等,,,2015-10-05,1,,,,,アドグリーンキカクシュッパン,0
1668,7011802003117,登記記録の閉鎖等,0,2024-08-01,2024-07-29,有限会社坂井木型,,有限会社,東京都,葛飾区,東立石２丁目２７番１号,,13,122,1240013,,,2024-07-29,清算の結了等,,,2015-10-05,1,,,,,サカイキガタ,0
1678,7013105001582,登記記録の閉鎖等,0,2024-08-01,2024-07-30,特定非営利活動法人にこにこプロジェクト,,その他の設立登記法人,東京都,羽村市,小作台４丁目９番地２,,13,227,2050001,,,2024-07-30,清算の結了等,,,2015-10-05,1,,,,,ニコニコプロジェクト,0
1681,7020001025913,登記記録の閉鎖等,0,2024-08-01,2024-07-09,株式会社加賀建築設計,,株式会社,神奈川県,横浜市戸塚区,東俣野町９５７番地２２,,14,110,2450065,,,2024-07-09,清算の結了等,,,2015-10-05,1,,,,,カガケンチクセッケイ,0
1690,7021003013609,登記記録の閉鎖等,0,2024-08-01,2024-07-30,合同会社ＭｃＷｏｒｋｓ,,合同会社,神奈川県,厚木市,温水２２２８番地３,,14,212,2430033,,,2024-07-30,清算の結了等,,,2023-09-26,1,,,,,エムシーワークス,0
1701,7030002006382,登記記録の閉鎖等,0,2024-08-01,2024-07-22,有限会社繁原,,有限会社,埼玉県,さいたま市南区,鹿手袋６丁目５番２６号,,11,108,3360031,,,2024-07-22,清算の結了等,,,2015-10-05,1,,,,,,0
1731,7080401022810,登記記録の閉鎖等,0,2024-08-01,2024-07-25,株式会社バブスパ,,株式会社,静岡県,浜松市中央区,元城町２２２番地の２５アルスビル３０３,,22,138,4300946,,,2024-07-25,清算の結了等,,,2018-03-30,1,,,,,バブスパ,0
1732,7080402002530,登記記録の閉鎖等,0,2024-08-01,2024-07-26,有限会社クゼコーポレーション,,有限会社,静岡県,浜松市中央区,鴨江３丁目５３番１５号,,22,138,4328023,,,2024-07-26,清算の結了等,,,2015-10-05,1,,,,,クゼコーポレーション,0
1758,7120101023022,登記記録の閉鎖等,0,2024-08-01,2024-07-29,株式会社あおいホーム,,株式会社,大阪府,堺市美原区,青南台２丁目５番１６号,,27,147,5870043,,,2024-07-29,清算の結了等,,,2015-10-05,1,,,,,アオイホーム,0
1759,7120101052376,登記記録の閉鎖等,0,2024-08-01,2024-07-29,ワンクラフト株式会社,,株式会社,大阪府,岸和田市,下松町１丁目１０番１５号,,27,202,5960823,,,2024-07-29,清算の結了等,,,2015-10-05,1,,,,,ワンクラフト,0
1763,7120901000939,登記記録の閉鎖等,0,2024-08-01,2024-07-26,三和株式会社,,株式会社,大阪府,茨木市,元町１番１１号,,27,211,5670882,,,2024-07-26,清算の結了等,,,2015-10-05,1,,,,,サンワ,0
1767,7120903003543,登記記録の閉鎖等,0,2024-08-01,2024-07-25,合同会社ＧＳＯ,,合同会社,大阪府,吹田市,穂波町６番１－３０５号,,27,205,5640042,,,2024-07-25,清算の結了等,,,2021-03-01,1,,,,,ジーエスオー,0
1792,7180001102861,登記記録の閉鎖等,0,2024-08-01,2024-07-17,株式会社ＩＢＣ,,株式会社,愛知県,名古屋市守山区,小幡常燈１番１２号,,23,113,4630047,,,2024-07-17,清算の結了等,,,2015-10-05,1,,,,,アイビーシー,0
1803,7190002014493,登記記録の閉鎖等,0,2024-08-01,2024-07-30,有限会社松阪タワービル,,有限会社,三重県,松阪市,宮町３１９番地８,,24,204,5150015,,,2024-07-30,清算の結了等,,,2015-10-05,1,,,,,マツザカタワービル,0
1805,7200001013908,登記記録の閉鎖等,0,2024-08-01,2024-07-30,株式会社タカダ,,株式会社,岐阜県,大垣市,赤坂大門２丁目３６番地,,21,202,5032215,,,2024-07-30,清算の結了等,,,2015-10-05,1,,,,,タカダ,0
1809,7200002011407,登記記録の閉鎖等,0,2024-08-01,2024-07-29,有限会社渡辺食品,,有限会社,岐阜県,羽島市,堀津町２５９番地,,21,209,5016330,,,2024-07-29,清算の結了等,,,2015-10-05,1,,,,,,0
1811,7210002004599,登記記録の閉鎖等,0,2024-08-01,2024-07-30,有限会社アルファプラン,,有限会社,福井県,福井市,石盛町９１８番地,,18,201,9100122,,,2024-07-30,清算の結了等,,,2015-10-05,1,,,,,アルファプラン,0
1818,7240002046770,登記記録の閉鎖等,0,2024-08-01,2024-07-29,有限会社グリーンコンサートラインズ,,有限会社,広島県,府中市,土生町１５３０番地の９,,34,208,7260021,,,2024-07-29,清算の結了等,,,2015-10-05,1,,,,,グリーンコンサートラインズ,0
1819,7240002052546,登記記録の閉鎖等,0,2024-08-01,2024-07-26,有限会社旭電機,,有限会社,広島県,世羅郡世羅町,大字本郷１０３２番地の１,,34,462,7221112,,,2024-07-26,清算の結了等,,,2015-10-05,1,,,,,アサヒデンキ,0
1837,7350001011756,登記記録の閉鎖等,0,2024-08-01,2024-07-01,株式会社片平工業,,株式会社,宮崎県,都城市,高城町穂満坊２３８４番地,,45,202,8851202,,,2024-07-01,合併による解散等,8350003001548,令和６年７月１日宮崎県都城市鷹尾一丁目２５街区２７の３号合同会社逢生（8350003001548）に合併し解散,2015-10-05,1,,,,,カタヒラコウギョウ,0
1889,8010403025809,登記記録の閉鎖等,0,2024-08-01,2024-07-09,ＧＬＯＩＲＥ　ＬＩＮＫ合同会社,,合同会社,東京都,港区,北青山２丁目７－２０猪瀬ビル２Ｆ,,13,103,1070061,,,2024-07-09,清算の結了等,,,2021-08-02,1,,,,,グロワールリンク,0
1903,8010905002355,登記記録の閉鎖等,0,2024-08-01,2024-07-24,特定非営利活動法人ｍｏｔｈｅｒｂｏａｒｄ２０１１日本の道,,その他の設立登記法人,東京都,世田谷区,代田３丁目４８番５号,,13,112,1550033,,,2024-07-24,清算の結了等,,,2015-10-05,1,,,,,マザーボードニセンジュウイチニホンノミチ,0
1906,8011001128895,登記記録の閉鎖等,0,2024-08-01,2024-07-11,株式会社スカラパートナーズ,,株式会社,東京都,渋谷区,渋谷２丁目２１番１号,,13,113,1500002,,,2024-07-11,合併による解散等,3011001042250,令和６年６月３０日東京都渋谷区渋谷二丁目２１番１号株式会社スカラコミュニケーションズ（3011001042250）に合併し解散,2019-07-11,1,,,,,スカラパートナーズ,0
1935,8013301043353,登記記録の閉鎖等,0,2024-08-01,2024-07-29,株式会社ＦＵＮＫＹ　ＢＵＳＩＮＥＳＳ,,株式会社,東京都,豊島区,西池袋１丁目４１番地６号エスペランザ池袋３階,,13,116,1710021,,,2024-07-29,清算の結了等,,,2019-01-22,1,,,,,ファンキービジネス,0
1938,8020001086938,登記記録の閉鎖等,0,2024-08-01,2024-07-10,株式会社Ｌｉｇｈｔｓ　Ｌａｂｏ,,株式会社,神奈川県,横浜市神奈川区,西神奈川２丁目９番地５横浜東白楽シティタワー８０５号,,14,102,2210822,,,2024-07-10,清算の結了等,,,2015-10-05,1,,,,,ライツラボ,0
1952,8021002032245,登記記録の閉鎖等,0,2024-08-01,2024-07-30,有限会社大栄,,有限会社,神奈川県,厚木市,愛甲東２丁目４番５号,,14,212,2430027,,,2024-07-30,清算の結了等,,,2015-10-05,1,,,,,ダイエイ,0
1973,8050005005569,登記記録の閉鎖等,0,2024-08-01,2024-07-29,医療法人川島眼科院,,その他の設立登記法人,茨城県,古河市,本町１丁目３番４５号,,08,204,3060023,,,2024-07-29,清算の結了等,,,2015-10-05,1,,,,,カワシマガンカイン,0
1979,8080002016649,登記記録の閉鎖等,0,2024-08-01,2024-07-22,有限会社ヨシナガ化成,,有限会社,静岡県,焼津市,吉永２８５番地の１,,22,212,4210211,,,2024-07-22,清算の結了等,,,2015-10-05,1,,,,,ヨシナガカセイ,0
1998,8120002011389,登記記録の閉鎖等,0,2024-08-01,2024-07-30,有限会社製本機械サービス,,有限会社,大阪府,大阪市平野区,長吉長原２丁目２番８号,,27,126,5470016,,,2024-07-30,清算の結了等,,,2015-10-05,1,,,,,セイホンキカイサービス,0
2020,8130002019704,登記記録の閉鎖等,0,2024-08-01,2024-07-24,有限会社ケア・マインド,,有限会社,京都府,京都市南区,上鳥羽鍋ケ淵町６０７番地,,26,107,6018172,,,2024-07-24,清算の結了等,,,2015-10-05,1,,,,,ケアマインド,0
2025,8140001064403,登記記録の閉鎖等,0,2024-08-01,2024-07-29,株式会社エス・エス,,株式会社,兵庫県,加古川市,尾上町安田２８９番地１,,28,210,6750021,,,2024-07-29,清算の結了等,,,2015-10-05,1,,,,,エスエス,0
2036,8170005006670,登記記録の閉鎖等,0,2024-08-01,2024-07-31,一般社団法人ソーシャル・バリュー・デザイン・ラボ,,その他の設立登記法人,和歌山県,紀の川市,古和田２６８－２,,30,208,6496432,,,2024-07-31,清算の結了等,,,2018-04-11,1,,,,,ソーシャルバリューデザインラボ,0
2053,8200002020415,登記記録の閉鎖等,0,2024-08-01,2024-07-30,有限会社長和観光,,有限会社,三重県,松阪市,嬉野中川町１８５７番地３,,24,204,5152321,,,2024-07-30,清算の結了等,,,2015-10-05,1,,,,,チョウワカンコウ,0
2062,8240001053214,登記記録の閉鎖等,0,2024-08-01,2024-07-30,Ｓ物流株式会社,,株式会社,広島県,呉市,警固屋２丁目６番３４号,,34,202,7370012,,,2024-07-30,清算の結了等,,,2018-08-20,1,,,,,エスブツリュウ,0
2089,8330001010453,登記記録の閉鎖等,0,2024-08-01,2024-07-29,江富運輸株式会社,,株式会社,熊本県,熊本市北区,龍田陳内１丁目１番１号,,43,105,8618005,,,2024-07-29,清算の結了等,,,2015-10-05,1,,,,,エドミウンユ,0
2144,9010002035877,登記記録の閉鎖等,0,2024-08-01,2024-07-18,日本ハウスプランニング有限会社,,有限会社,東京都,中央区,月島４丁目８番１０－３２４号,,13,102,1040052,,,2024-07-18,清算の結了等,,,2015-10-05,1,,,,,ニホンハウスプランニング,0
2145,9010002038137,登記記録の閉鎖等,0,2024-08-01,2024-07-18,有限会社クープラス,,有限会社,東京都,千代田区,神田駿河台２丁目１番地１９,,13,101,1010062,,,2024-07-18,清算の結了等,,,2015-10-05,1,,,,,クープラス,0
2149,9010003020993,登記記録の閉鎖等,0,2024-08-01,2024-07-25,日光１６９ベルピア上之手合同会社,,合同会社,東京都,千代田区,丸の内３丁目１番１号東京共同会計事務所内,,13,101,1000005,,,2024-07-25,清算の結了等,,,2015-10-05,1,,,,,ニッコウワンハンドレッドシックスティーナインベルピアカミノテ,0
2150,9010003033310,登記記録の閉鎖等,0,2024-08-01,2024-07-25,日光Ｐｌｕｓ１４合同会社４,,合同会社,東京都,千代田区,丸の内３丁目１番１号東京共同会計事務所内,,13,101,1000005,,,2024-07-25,清算の結了等,,,2020-10-19,1,,,,,ニッコウプラスフォーティーンヨン,0
2153,9010005036393,登記記録の閉鎖等,0,2024-08-01,2024-07-19,一般社団法人ＫＳＴ４,,その他の設立登記法人,東京都,千代田区,内幸町２丁目１番６号,,13,101,1000011,,,2024-07-19,清算の結了等,,,2023-03-17,1,,,,,ケイエスティーフォー,0
2154,9010401082272,登記記録の閉鎖等,0,2024-08-01,2024-07-09,クロスコア・キャピタル株式会社,,株式会社,東京都,港区,南青山３丁目１番３６号青山丸竹ビル６Ｆ,,13,103,1070062,,,2024-07-09,清算の結了等,,,2015-10-05,1,,,,,クロスコアキャピタル,0
2165,9010602020592,登記記録の閉鎖等,0,2024-08-01,2024-07-30,有限会社アスクシステム,,有限会社,東京都,江東区,新大橋１丁目５番４号,,13,108,1350007,,,2024-07-30,清算の結了等,,,2015-10-05,1,,,,,アスクシステム,0
2176,9011001027122,登記記録の閉鎖等,0,2024-08-01,2024-07-11,株式会社プロト,,株式会社,東京都,渋谷区,富ヶ谷１丁目４２番１号５０３,,13,113,1510063,,,2024-07-11,清算の結了等,,,2015-10-05,1,,,,,プロト,0
2181,9011003016916,登記記録の閉鎖等,0,2024-08-01,2024-07-10,井上技術研究開発合同会社,,合同会社,東京都,渋谷区,道玄坂１丁目１０番８号渋谷道玄坂東急ビル２Ｆ－Ｃ,,13,113,1500043,,,2024-07-10,清算の結了等,,,2023-06-01,1,,,,,イノウエギジュツケンキュウカイハツ,0
2184,9011101095473,登記記録の閉鎖等,0,2024-08-01,2024-07-17,株式会社Ｏｎ　Ｙｏｕｒ　Ｍａｒｋ,,株式会社,東京都,新宿区,天神町３０番地８,,13,104,1620808,,,2024-07-17,清算の結了等,,,2021-06-22,1,,,,,オンユアマーク,0
2186,9011102022451,登記記録の閉鎖等,0,2024-08-01,2024-07-18,有限会社エスタビエン,,有限会社,東京都,新宿区,北新宿１丁目１番１７号,,13,104,1690074,,,2024-07-18,清算の結了等,,,2015-10-05,1,,,,,エスタビエン,0
2195,9011502009461,登記記録の閉鎖等,0,2024-08-01,2024-07-30,有限会社大憲商事,00055915,有限会社,東京都,荒川区,東日暮里４丁目１６番１－６０３号,,13,118,1160014,,,2024-07-30,清算の結了等,,,2015-10-05,1,,,,,ダイケンショウジ,0
2207,9020001018114,登記記録の閉鎖等,0,2024-08-01,2024-07-10,株式会社ディグ,,株式会社,神奈川県,横浜市鶴見区,矢向６丁目６番３６号,,14,101,2300001,,,2024-07-10,清算の結了等,,,2015-10-05,1,,,,,ディグ,0
2212,9020003009648,登記記録の閉鎖等,0,2024-08-01,2024-07-09,ＣＯＣＯ青葉合同会社,,合同会社,神奈川県,横浜市青葉区,あざみ野２丁目２３番２７号,,14,117,2250011,,,2024-07-09,清算の結了等,,,2015-10-05,1,,,,,ココアオバ,0
2233,9030002021487,登記記録の閉鎖等,0,2024-08-01,2024-07-26,有限会社トランスポートジュン,,有限会社,埼玉県,さいたま市岩槻区,大字鹿室３６０番地,,11,110,3390001,,,2024-07-26,清算の結了等,,,2015-10-05,1,,,,,トランスポートジュン,0
2235,9030002106354,登記記録の閉鎖等,0,2024-08-01,2024-07-22,有限会社ヒライワ,,有限会社,埼玉県,川口市,芝４丁目１６番１３号,,11,203,3330866,,,2024-07-22,清算の結了等,,,2015-10-05,1,,,,,ヒライワ,0
2247,9040002003600,登記記録の閉鎖等,0,2024-08-01,2024-07-16,有限会社グローバル,,有限会社,千葉県,四街道市,大日２８８－１マルエイビル１Ｆ,,12,228,2840001,,,2024-07-16,清算の結了等,,,2015-10-05,1,,,,,グローバル,0
2250,9040003009935,登記記録の閉鎖等,0,2024-08-01,2024-07-11,合同会社ティーアンドティーテック,,合同会社,千葉県,松戸市,新松戸３丁目１番地の１パークハウス新松戸３１１－１００７,,12,207,2700034,,,2024-07-11,清算の結了等,,,2017-04-19,1,,,,,ティーアンドティーテック,0
2254,9050001044891,登記記録の閉鎖等,0,2024-08-01,2024-07-18,ＣｏｌｌａｂＷｉｚ株式会社,,株式会社,茨城県,水戸市,笠原町１６８０番地の１,,08,201,3100852,,,2024-07-18,清算の結了等,,,2018-08-29,1,,,,,コラボウィズ,0
2259,9060001004028,登記記録の閉鎖等,0,2024-08-01,2024-07-18,株式会社豊明,,株式会社,栃木県,宇都宮市,御幸ケ原町４２番地２,,09,201,3210982,,,2024-07-18,清算の結了等,,,2015-10-05,1,,,,,ホウメイ,0
2266,9070005007100,登記記録の閉鎖等,0,2024-08-01,2024-07-29,恋越牧野農業協同組合,,その他の設立登記法人,群馬県,利根郡みなかみ町,西峰須川１４１８番地,,10,449,3791415,,,2024-07-29,清算の結了等,,,2015-10-05,1,,,,,コイコシボクヤ,0
2278,9120001061112,登記記録の閉鎖等,0,2024-08-01,2024-07-31,株式会社梅田センタービル,,株式会社,大阪府,大阪市北区,中崎西２丁目４番１２号,,27,127,5300015,,,2024-07-31,清算の結了等,,,2015-10-05,1,,,,,ウメダセンタービル,0
2300,9120901032716,登記記録の閉鎖等,0,2024-08-01,2024-07-26,ＳＭメディア株式会社,,株式会社,大阪府,豊中市,岡町南２丁目７番１４号,,27,203,5610883,,,2024-07-26,清算の結了等,,,2015-10-05,1,,,,,エスエムメディア,0
2303,9120903003368,登記記録の閉鎖等,0,2024-08-01,2024-07-24,合同会社ホルミシス,,合同会社,大阪府,吹田市,高浜町１６－２０佐々木ハイツ１階右側,,27,205,5640026,,,2024-07-24,清算の結了等,,,2020-09-29,1,,,,,ホルミシス,0
2309,9130001059072,登記記録の閉鎖等,0,2024-08-01,2024-07-17,株式会社ひびこれ,,株式会社,京都府,京都市左京区,岩倉東宮田町１７番地,,26,103,6060012,,,2024-07-17,清算の結了等,,,2017-01-24,1,,,,,ヒビコレ,0
2320,9140002061720,登記記録の閉鎖等,0,2024-08-01,2024-07-29,有限会社三玄,,有限会社,兵庫県,西脇市,野村町１７９６番地の２１９,,28,213,6770054,,,2024-07-29,清算の結了等,,,2015-10-05,1,,,,,,0
2325,9160001024825,登記記録の閉鎖等,0,2024-08-01,2024-07-30,株式会社恒泰,,株式会社,滋賀県,大津市,山上町７番８号山上ハイツ３０２,,25,201,5200038,,,2024-07-30,清算の結了等,,,2023-02-09,1,,,,,コウタイ,0
2336,9180003025456,登記記録の閉鎖等,0,2024-08-01,2024-07-18,合同会社加藤,,合同会社,愛知県,名古屋市名東区,本郷３丁目１１３ブライト本郷１０１号,,23,115,4650024,,,2024-07-18,清算の結了等,,,2023-07-11,1,,,,,カトウ,0
2339,9200001004574,登記記録の閉鎖等,0,2024-08-01,2024-07-29,舟橋印刷株式会社,,株式会社,岐阜県,岐阜市,西野町２丁目１４番地,,21,201,5008882,,,2024-07-29,清算の結了等,,,2015-10-05,1,,,,,,0
2346,9200005012094,登記記録の閉鎖等,0,2024-08-01,2024-07-29,一般社団法人岐阜創発研究会,,その他の設立登記法人,岐阜県,羽島郡岐南町,八剣北２丁目１２３番地,,21,302,5016011,,,2024-07-29,清算の結了等,,,2015-10-05,1,,,,,ギフソウハツケンキュウカイ,0
2366,9290001100076,登記記録の閉鎖等,0,2024-08-01,2024-06-25,物華天宝株式会社,,株式会社,福岡県,福岡市東区,筥松４丁目１１－４川鍋コーポ２号室,,40,131,8120061,,,2024-06-25,清算の結了等,,,2023-01-06,1,,,,,ブッカテンポウ,0
