sequenceNumber,corporateNumber,process,correct,updateDate,changeDate,name,nameImageId,kind,prefectureName,cityName,streetNumber,addressImageId,prefectureCode,cityCode,postCode,addressOutside,addressOutsideImageId,closeDate,closeCause,successorCorporateNumber,changeCause,assignmentDate,latest,enName,enPrefectureName,enCityName,enAddressOutside,furigana,hihyoji
1,1010001006985,登記記録の閉鎖等,0,2025-08-22,2025-07-24,株式会社ブレインズスクエア,,株式会社,東京都,文京区,千駄木３丁目２４番７号,,13,105,1130022,,,2025-07-24,清算の結了等,,,2015-10-05,1,,,,,ブレインズスクエア,0
5,1010001049638,登記記録の閉鎖等,0,2025-08-22,2025-07-24,株式会社巽仁正経営研究所,,株式会社,東京都,中央区,銀座１丁目８番２号,,13,102,1040061,,,2025-07-24,清算の結了等,,,2015-10-05,1,,,,,タツミジンセイケイエイケンキュウジヨ,0
11,1010003039728,登記記録の閉鎖等,0,2025-08-22,2025-07-23,神戸摩耶プロパティー合同会社,,合同会社,東京都,千代田区,丸の内１丁目１１番１号,,13,101,1000005,,,2025-07-23,清算の結了等,,,2023-01-31,1,,,,,コウベマヤプロパティー,0
17,1010401000646,登記記録の閉鎖等,0,2025-08-22,2025-07-24,株式会社相徳,,株式会社,東京都,文京区,本駒込６丁目１３番１号,,13,105,1130021,,,2025-07-24,清算の結了等,,,2015-10-05,1,,,,,アイトク,0
32,1010601034097,登記記録の閉鎖等,0,2025-08-22,2025-08-08,株式会社ＬＩＰミュージック本舗,,株式会社,東京都,江東区,古石場１丁目１２番３－８０７号,,13,108,1350045,,,2025-08-08,清算の結了等,,,2015-10-05,1,,,,,リップミュージックホンポ,0
39,1010901038285,登記記録の閉鎖等,0,2025-08-22,2025-08-13,株式会社ＴＡビジネスサポート,,株式会社,東京都,世田谷区,大原１丁目１９番１５号,,13,112,1560041,,,2025-08-13,清算の結了等,,,2016-06-10,1,,,,,ティーエービジネスサポート,0
44,1011001009879,登記記録の閉鎖等,0,2025-08-22,2025-07-22,株式会社ジーアンドケイ綜合設計,,株式会社,東京都,渋谷区,本町１丁目２５番１０号,,13,113,1510071,,,2025-07-22,清算の結了等,,,2015-10-05,1,,,,,ジーアンドケイソウゴウセッケイ,0
53,1011101004549,登記記録の閉鎖等,0,2025-08-22,2025-07-16,華清企業株式会社,,株式会社,東京都,新宿区,左門町１７番地,,13,104,1600017,,,2025-07-16,清算の結了等,,,2015-10-05,1,,,,,,0
59,1011202008465,登記記録の閉鎖等,0,2025-08-22,2025-08-13,有限会社中川商会,,有限会社,東京都,中野区,江古田２丁目１９番８号,,13,114,1650022,,,2025-08-13,清算の結了等,,,2015-10-05,1,,,,,ナカガワショウカイ,0
74,1020001062680,登記記録の閉鎖等,0,2025-08-22,2025-08-04,株式会社双星工業,,株式会社,神奈川県,横浜市港南区,日野中央１丁目５番１１号,,14,111,2340053,,,2025-08-04,清算の結了等,,,2015-10-05,1,,,,,ソウセイコウギョウ,0
82,1020001134728,登記記録の閉鎖等,0,2025-08-22,2025-08-04,立工業株式会社,,株式会社,神奈川県,横浜市都筑区,早渕１丁目１９－１４－Ｄ１０１,,14,118,2240025,,,2025-08-04,清算の結了等,,,2020-02-03,1,,,,,タチコウギョウ,0
90,1021001004409,登記記録の閉鎖等,0,2025-08-22,2025-08-07,株式会社カトレアプランニング,,株式会社,神奈川県,藤沢市,片瀬山２丁目１８番６号,,14,205,2510033,,,2025-08-07,清算の結了等,,,2015-10-05,1,,,,,カトレアプランニング,0
95,1021001065211,登記記録の閉鎖等,0,2025-08-22,2025-08-07,株式会社ＪＳ　Ａｓｓｅｔ,,株式会社,神奈川県,横浜市旭区,鶴ケ峰本町１丁目２６番１３号カームヒルズ３０３号室,,14,112,2410021,,,2025-08-07,清算の結了等,,,2018-07-11,1,,,,,ジェイエスアセット,0
97,1021002003079,登記記録の閉鎖等,0,2025-08-22,2025-08-05,有限会社ダイセン,,有限会社,神奈川県,藤沢市,南藤沢３番１２－５１０号,,14,205,2510055,,,2025-08-05,清算の結了等,,,2015-10-05,1,,,,,ダイセン,0
116,1040002018622,登記記録の閉鎖等,0,2025-08-22,2025-07-31,有限会社タケウチ,,有限会社,千葉県,習志野市,谷津１丁目１６番１号,,12,216,2750026,,,2025-07-31,清算の結了等,,,2015-10-05,1,,,,,タケウチ,0
128,1050003007557,登記記録の閉鎖等,0,2025-08-22,2025-08-08,合同会社Ｕｐ,,合同会社,茨城県,常総市,上蛇町１０１３－３,,08,211,3002502,,,2025-08-08,清算の結了等,,,2023-06-07,1,,,,,アップ,0
132,1070001017093,登記記録の閉鎖等,0,2025-08-22,2025-08-18,株式会社昭和撚糸,,株式会社,群馬県,みどり市,笠懸町鹿５６番地３,,10,212,3792313,,,2025-08-18,清算の結了等,,,2015-10-05,1,,,,,ショウワネンシ,0
138,1080101013842,登記記録の閉鎖等,0,2025-08-22,2025-08-08,株式会社リゾートライフサービス,,株式会社,静岡県,伊東市,松原６７２番地の１４,,22,208,4140006,,,2025-08-08,清算の結了等,,,2015-10-05,1,,,,,リゾートライフサービス,0
139,1080102018411,登記記録の閉鎖等,0,2025-08-22,2025-08-20,有限会社帝国産業,,有限会社,静岡県,熱海市,海光町１番７３号,,22,205,4130003,,,2025-08-20,清算の結了等,,,2015-10-05,1,,,,,テイコクサンギョウ,0
142,1090002006234,登記記録の閉鎖等,0,2025-08-22,2025-08-15,有限会社ファイヤーバード,,有限会社,山梨県,笛吹市,石和町河内５８番地,,19,211,4060043,,,2025-08-15,清算の結了等,,,2015-10-05,1,,,,,,0
144,1100001019788,登記記録の閉鎖等,0,2025-08-22,2025-08-20,株式会社明和電機,,株式会社,長野県,上伊那郡辰野町,大字伊那富字南原７３５３番地２,,20,382,3990428,,,2025-08-20,清算の結了等,,,2015-10-05,1,,,,,メイワデンキ,0
147,1100002038127,登記記録の閉鎖等,0,2025-08-22,2025-08-19,有限会社紀の国屋ガラス,,有限会社,長野県,下伊那郡松川町,元大島３１０４番地１,,20,402,3993303,,,2025-08-19,清算の結了等,,,2015-10-05,1,,,,,キノクニヤガラス,0
148,1110001015927,登記記録の閉鎖等,0,2025-08-22,2025-08-05,マサームズ株式会社,,株式会社,神奈川県,川崎市川崎区,鋼管通４丁目９番６号,,14,131,2100852,,,2025-08-05,清算の結了等,,,2015-10-05,1,,,,,マサームズ,0
166,1120002002089,登記記録の閉鎖等,0,2025-08-22,2025-08-06,有限会社セーコーホーム,,有限会社,大阪府,大阪市住吉区,長居２丁目５番２４号,,27,120,5580003,,,2025-08-06,清算の結了等,,,2015-10-05,1,,,,,セーコーホーム,0
167,1120003002435,登記記録の閉鎖等,0,2025-08-22,2025-08-04,合資会社サクラ産業,,合資会社,大阪府,大阪市住吉区,長居東３丁目１６番３９号,,27,120,5580004,,,2025-08-04,合併による解散等,7120001137822,令和７年８月１日大阪市住吉区長居東三丁目１６番３９号株式会社桜産業（7120001137822）に合併し解散,2015-10-05,1,,,,,サクラサンギョウ,0
175,1130001052019,登記記録の閉鎖等,0,2025-08-22,2025-08-05,株式会社秋村,,株式会社,京都府,京都市西京区,川島流田町８０番地１１５,,26,111,6158115,,,2025-08-05,清算の結了等,,,2015-10-05,1,,,,,アキムラ,0
183,1140001062727,登記記録の閉鎖等,0,2025-08-22,2025-08-18,フィールド開発株式会社,,株式会社,兵庫県,姫路市,岡田５７９番地３,,28,201,6700982,,,2025-08-18,清算の結了等,,,2015-10-05,1,,,,,フィールドカイハツ,0
206,1180002025150,登記記録の閉鎖等,0,2025-08-22,2025-07-30,有限会社アイケーテクノ,,有限会社,愛知県,名古屋市緑区,鳴海町字山ノ神９５番地の１４,,23,114,4580801,,,2025-07-30,清算の結了等,,,2015-10-05,1,,,,,アイケーテクノ,0
207,1180002033954,登記記録の閉鎖等,0,2025-08-22,2025-07-29,有限会社ティーアイエー,,有限会社,愛知県,名古屋市名東区,猪高台１丁目８３０番地,,23,115,4650028,,,2025-07-29,清算の結了等,,,2015-10-05,1,,,,,ティーアイエー,0
210,1180301025636,登記記録の閉鎖等,0,2025-08-22,2025-08-08,株式会社ＴＡＣＨＩＫＡ,,株式会社,愛知県,蒲郡市,竹谷町小山５８番地８,,23,214,4430046,,,2025-08-08,清算の結了等,,,2015-10-05,1,,,,,タチカ,0
215,1210002010413,登記記録の閉鎖等,0,2025-08-22,2025-08-20,有限会社中部塗装,,有限会社,福井県,敦賀市,野神１５号２番地の１２,,18,202,9140121,,,2025-08-20,清算の結了等,,,2015-10-05,1,,,,,チュウブトソウ,0
223,1290001068882,登記記録の閉鎖等,0,2025-08-22,2025-07-29,株式会社岩本事務所,,株式会社,福岡県,福岡市中央区,今泉１丁目２番３０号,,40,133,8100021,,,2025-07-29,清算の結了等,,,2015-10-05,1,,,,,イワモトジムショ,0
241,1360001015679,登記記録の閉鎖等,0,2025-08-22,2025-08-13,Ｏｐｅｎ　Ａｉｒ’ｓ株式会社,,株式会社,沖縄県,那覇市,高良３丁目６番８号,,47,201,9010145,,,2025-08-13,清算の結了等,,,2015-10-05,1,,,,,,0
242,1360001017312,登記記録の閉鎖等,0,2025-08-22,2025-08-15,株式会社輪枸,,株式会社,沖縄県,中頭郡嘉手納町,字水釜４７７番地ハウスナンバー７２５６,,47,325,9040204,,,2025-08-15,清算の結了等,,,2015-10-05,1,,,,,リンク,0
250,1380002008465,登記記録の閉鎖等,0,2025-08-22,2025-08-04,有限会社小川食品店,,有限会社,福島県,郡山市,湖南町福良字荒町１４１番地,,07,203,9631633,,,2025-08-04,清算の結了等,,,2015-10-05,1,,,,,オガワショクヒンテン,0
253,1400502000571,登記記録の閉鎖等,0,2025-08-22,2025-07-31,有限会社美研工房,,有限会社,岩手県,一関市,銅谷町５番６号,,03,209,0210023,,,2025-07-31,清算の結了等,,,2015-10-05,1,,,,,,0
256,1420001010319,登記記録の閉鎖等,0,2025-08-22,2025-08-08,株式会社澤製袋,,株式会社,青森県,黒石市,大字小屋敷字小屋敷村５番地１,,02,204,0360511,,,2025-08-08,清算の結了等,,,2015-10-05,1,,,,,サワセイタイ,0
257,1430001046394,登記記録の閉鎖等,0,2025-08-22,2025-07-31,角浪建設株式会社,,株式会社,北海道,岩見沢市,南町八条２丁目１番５号,,01,210,0680808,,,2025-07-31,清算の結了等,,,2015-10-05,1,,,,,,0
266,1470001015585,登記記録の閉鎖等,0,2025-08-22,2025-08-20,株式会社Ｐｏｎ＆Ｃｏｎ企画,,株式会社,香川県,高松市,成合町１４２９番１,,37,201,7618081,,,2025-08-20,清算の結了等,,,2016-03-07,1,,,,,,0
272,2010001110076,登記記録の閉鎖等,0,2025-08-22,2025-08-07,イー・プロダクト株式会社,,株式会社,茨城県,龍ケ崎市,小柴４丁目２番１８,,08,208,3010044,,,2025-08-07,清算の結了等,,,2015-10-05,1,,,,,イープロダクト,0
278,2010001203301,登記記録の閉鎖等,0,2025-08-22,2025-07-24,株式会社ビーネクサス,,株式会社,東京都,文京区,千駄木３丁目２４番７号,,13,105,1130022,,,2025-07-24,清算の結了等,,,2019-08-16,1,,,,,ビーネクサス,0
288,2010003040503,登記記録の閉鎖等,0,2025-08-22,2025-07-23,合同会社ｂｅｅ　ｆｉｖｅ,,合同会社,東京都,千代田区,神田和泉町１番地７の１３,,13,101,1010024,,,2025-07-23,清算の結了等,,,2023-05-02,1,,,,,ビーファイブ,0
308,2010601033123,登記記録の閉鎖等,0,2025-08-22,2025-08-14,オークラ情報サービス株式会社,,株式会社,東京都,江東区,白河２丁目２番９号,,13,108,1350021,,,2025-08-14,清算の結了等,,,2015-10-05,1,,,,,オークラジョウホウサービス,0
311,2010802002141,登記記録の閉鎖等,0,2025-08-22,2025-08-19,アルファサーチ株式会社,,株式会社,東京都,大田区,大森北１丁目２９番１１号大森エリメントビル８０１号室,,13,111,1430016,,,2025-08-19,清算の結了等,,,2015-10-05,1,,,,,アルファサーチ,0
312,2010803004649,登記記録の閉鎖等,0,2025-08-22,2025-08-13,合同会社ＱＴＡ,,合同会社,東京都,大田区,仲六郷４丁目３１番８号,,13,111,1440055,,,2025-08-13,清算の結了等,,,2023-08-22,1,,,,,キューティーエー,0
327,2011301018629,登記記録の閉鎖等,0,2025-08-22,2025-08-18,イースタウト株式会社,,株式会社,東京都,杉並区,今川４丁目１番１７－３０１号,,13,115,1670035,,,2025-08-18,清算の結了等,,,2015-10-05,1,,,,,イースタウト,0
330,2011502009435,登記記録の閉鎖等,0,2025-08-22,2025-08-19,有限会社ダイエー,,有限会社,東京都,荒川区,荒川２丁目４６番１０号,,13,118,1160002,,,2025-08-19,清算の結了等,,,2015-10-05,1,,,,,ダイエー,0
340,2012402002083,登記記録の閉鎖等,0,2025-08-22,2025-08-12,有限会社ノーサイド,,有限会社,東京都,国立市,泉３丁目２２番地の７,,13,215,1860012,,,2025-08-12,清算の結了等,,,2015-10-05,1,,,,,ノーサイド,0
348,2013201006036,登記記録の閉鎖等,0,2025-08-22,2025-07-18,山田電機株式会社,,株式会社,東京都,目黒区,下目黒５丁目１０番２７号,,13,110,1530064,,,2025-07-18,合併による解散等,3011001045113,令和７年７月１８日東京都渋谷区南平台町２番１７号Ａ－ＰＬＡＣＥ渋谷南平台６階株式会社アトラス総合事務所（3011001045113）に合併し解散,2015-10-05,1,,,,,ヤマダデンキ,0
356,2020001060089,登記記録の閉鎖等,0,2025-08-22,2025-08-04,株式会社ＨＡＹＡＭＩ,,株式会社,神奈川県,横浜市戸塚区,原宿２丁目５番１９号,,14,110,2450063,,,2025-08-04,清算の結了等,,,2015-10-05,1,,,,,ハヤミ,0
360,2020002046525,登記記録の閉鎖等,0,2025-08-22,2025-08-01,有限会社ペットヘブン,,有限会社,神奈川県,横浜市神奈川区,栄町２番地５,,14,102,2210052,,,2025-08-01,合併による解散等,9020001001094,令和７年８月１日横浜市泉区緑園二丁目９番地４株式会社モリヤ総合設備（9020001001094）に合併し解散,2015-10-05,1,,,,,ペットヘブン,0
362,2020003020776,登記記録の閉鎖等,0,2025-08-22,2025-08-07,Ｃａｒ　Ｐｒｉｄｅ　Ｉｎｔｅｒｎａｔｉｏｎａｌ合同会社,,合同会社,神奈川県,川崎市中原区,今井南町３０番１６号,,14,133,2110064,,,2025-08-07,清算の結了等,,,2021-11-05,1,,,,,カープライドインターナショナル,0
368,2021001059690,登記記録の閉鎖等,0,2025-08-22,2025-08-04,株式会社Ｐｒｅｍｉｅｒｅ,,株式会社,神奈川県,小田原市,栄町１丁目１４番５２号,,14,206,2500011,,,2025-08-04,清算の結了等,,,2016-07-07,1,,,,,プルミエール,0
369,2021001077734,登記記録の閉鎖等,0,2025-08-22,2025-08-06,株式会社ｒＡｄ,,株式会社,神奈川県,鎌倉市,岡本２丁目２番１－１０６号,,14,204,2470072,,,2025-08-06,清算の結了等,,,2022-12-16,1,,,,,ラッド,0
373,2021002037836,登記記録の閉鎖等,0,2025-08-22,2025-08-05,有限会社クローバー・マエダ,,有限会社,神奈川県,秦野市,南矢名５丁目２１番２３号,,14,211,2570003,,,2025-08-05,清算の結了等,,,2015-10-05,1,,,,,クローバーマエダ,0
381,2030002069772,登記記録の閉鎖等,0,2025-08-22,2025-08-14,有限会社東武塗料,,有限会社,埼玉県,南埼玉郡宮代町,大字須賀１４３２番地,,11,442,3450831,,,2025-08-14,清算の結了等,,,2015-10-05,1,,,,,トウブトリョウ,0
382,2030002090010,登記記録の閉鎖等,0,2025-08-22,2025-08-14,有限会社オカノ物流,,有限会社,埼玉県,吉川市,大字川藤３６１６番地４,,11,243,3420005,,,2025-08-14,清算の結了等,,,2015-10-05,1,,,,,,0
385,2030005019956,登記記録の閉鎖等,0,2025-08-22,2025-08-15,特定非営利活動法人紙芝居・大道芸ネットワーク,,その他の設立登記法人,埼玉県,狭山市,笹井１丁目５番１３号,,11,215,3501327,,,2025-08-15,清算の結了等,,,2020-06-09,1,,,,,カミシバイダイドウゲイネットワーク,0
392,2040001124684,登記記録の閉鎖等,0,2025-08-22,2025-07-28,株式会社王景コーポレーション,,株式会社,千葉県,八千代市,八千代台南１丁目７番４貝塚ビル２階,,12,221,2760033,,,2025-07-28,清算の結了等,,,2022-08-12,1,,,,,オウケイコーポレーション,0
398,2040003018777,登記記録の閉鎖等,0,2025-08-22,2025-08-13,合同会社ＴＡＮ　ＴＡＮ,,合同会社,東京都,江東区,大島３丁目１－１２－２Ｆ,,13,108,1360072,,,2025-08-13,清算の結了等,,,2021-10-19,1,,,,,タンタン,0
405,2050002000611,登記記録の閉鎖等,0,2025-08-22,2025-08-07,有限会社オオウチ,,有限会社,茨城県,水戸市,城東２丁目１１番２７号,,08,201,3100012,,,2025-08-07,清算の結了等,,,2015-10-05,1,,,,,オオウチ,0
412,2060005003957,登記記録の閉鎖等,0,2025-08-22,2025-08-12,特定非営利活動法人アスク,,その他の設立登記法人,栃木県,那須塩原市,松浦町１１８番地１８９,,09,213,3250074,,,2025-08-12,清算の結了等,,,2015-10-05,1,,,,,アスク,0
425,2100002024753,登記記録の閉鎖等,0,2025-08-22,2025-08-19,有限会社ティー・シー・エヌ,,有限会社,長野県,松本市,大字笹賀７０３６番地９,,20,202,3990033,,,2025-08-19,清算の結了等,,,2015-10-05,1,,,,,ティーシーエヌ,0
452,2130003003299,登記記録の閉鎖等,0,2025-08-22,2025-07-31,合同会社ワークアウト２１,,合同会社,京都府,綴喜郡宇治田原町,大字荒木小字西出３６番地の１,,26,344,6100252,,,2025-07-31,清算の結了等,,,2015-10-05,1,,,,,ワークアウトトゥエンティワン,0
457,2140001057486,登記記録の閉鎖等,0,2025-08-22,2025-08-07,株式会社アーバントランスポート,,株式会社,兵庫県,姫路市,飾磨区今在家４丁目６４番地の３,,28,201,6728079,,,2025-08-07,清算の結了等,,,2015-10-05,1,,,,,アーバントランスポート,0
461,2140002002689,登記記録の閉鎖等,0,2025-08-22,2025-08-18,神戸合同運輸有限会社,,有限会社,兵庫県,神戸市中央区,港島９丁目１１－１,,28,110,6500045,,,2025-08-18,清算の結了等,,,2015-10-05,1,,,,,コウベゴウドウウンユ,0
517,2370001045690,登記記録の閉鎖等,0,2025-08-22,2025-07-24,株式会社こいわ商店,,株式会社,宮城県,石巻市,前谷地字横須賀２４番地１,,04,202,9871101,,,2025-07-24,清算の結了等,,,2020-04-28,1,,,,,コイワショウテン,0
526,2380002023018,登記記録の閉鎖等,0,2025-08-22,2025-07-30,有限会社方波見自動車鈑金塗装,,有限会社,福島県,いわき市,内郷綴町金谷１３番地の１３,,07,204,9738403,,,2025-07-30,清算の結了等,,,2015-10-05,1,,,,,カタバミジドウシャバンキントソウ,0
535,2460301002366,登記記録の閉鎖等,0,2025-08-22,2025-08-15,渡瀬木材株式会社,,株式会社,北海道,紋別郡遠軽町,丸瀬布元町４１番地,,01,555,0990207,,,2025-08-15,合併による解散等,7460301002353,令和７年８月１日北海道紋別郡遠軽町丸瀬布元町４１番地株式会社ヤマハミュージッククラフト北海道（7460301002353）に合併し解散,2015-10-05,1,,,,,ワタセモクザイ,0
549,3010001170342,登記記録の閉鎖等,0,2025-08-22,2025-07-24,Ａｒｔ　Ａｓｓｅｔ　ｍａｎａｇｅｍｅｎｔ株式会社,,株式会社,東京都,中央区,佃２丁目２番１１－２２０５号,,13,102,1040051,,,2025-07-24,清算の結了等,,,2015-10-05,1,,,,,アートアセットマネージメント,0
589,3010602023246,登記記録の閉鎖等,0,2025-08-22,2025-08-08,有限会社請地,,有限会社,東京都,墨田区,押上１丁目１６番９号,,13,107,1310045,,,2025-08-08,清算の結了等,,,2015-10-05,1,,,,,ウケチ,0
591,3010605003897,登記記録の閉鎖等,0,2025-08-22,2025-08-12,一般社団法人国際美容業ＩＴ支援機構,,その他の設立登記法人,東京都,江東区,青海２丁目７番４号,,13,108,1350064,,,2025-08-12,清算の結了等,,,2020-11-16,1,,,,,コクサイビヨウギョウアイティシエンキコウ,0
594,3010801016026,登記記録の閉鎖等,0,2025-08-22,2025-08-15,株式会社ヴェール,,株式会社,東京都,大田区,下丸子４丁目２０番１４号タマリバーハイツ１１２,,13,111,1460092,,,2025-08-15,清算の結了等,,,2015-10-05,1,,,,,ヴェール,0
602,3011001000167,登記記録の閉鎖等,0,2025-08-22,2025-08-20,株式会社アーキテクト・アタック,,株式会社,東京都,世田谷区,太子堂３丁目６番１８号,,13,112,1540004,,,2025-08-20,清算の結了等,,,2015-10-05,1,,,,,アーキテクトアタック,0
612,3011101022557,登記記録の閉鎖等,0,2025-08-22,2025-08-19,株式会社リード・プロジェクト,,株式会社,東京都,新宿区,下落合３丁目１２番１１号,,13,104,1610033,,,2025-08-19,合併による解散等,7011601011898,令和７年８月１日東京都練馬区北町七丁目７番７号株式会社中田デンタル・センター（7011601011898）に合併し解散,2015-10-05,1,,,,,リードプロジェクト,0
634,3013105001644,登記記録の閉鎖等,0,2025-08-22,2025-08-20,特定非営利活動法人美術支援センター,,その他の設立登記法人,東京都,あきる野市,平沢５８８番地１,,13,228,1970812,,,2025-08-20,清算の結了等,,,2016-02-01,1,,,,,,0
635,3013301051971,登記記録の閉鎖等,0,2025-08-22,2025-08-07,株式会社ティーンポップテクノロジー,,株式会社,東京都,豊島区,千早１丁目３番３号メゾ・フォルテ２０３号,,13,116,1710044,,,2025-08-07,清算の結了等,,,2024-01-29,1,,,,,ティーンポップテクノロジー,0
640,3020001119883,登記記録の閉鎖等,0,2025-08-22,2025-08-01,三治警備保障株式会社,,株式会社,神奈川県,横浜市神奈川区,反町１丁目６番地１川口ビル２０１号室,,14,102,2210825,,,2025-08-01,合併による解散等,8020001023833,令和７年８月１日横浜市神奈川区反町一丁目６番地１川口ビル２０１号室ＫＳＳ神奈川株式会社（8020001023833）に合併し解散,2017-02-08,1,,,,,ミハルケイビホショウ,0
644,3021001057215,登記記録の閉鎖等,0,2025-08-22,2025-07-31,株式会社寄す処,,株式会社,神奈川県,小田原市,早川１丁目３番地の１,,14,206,2500021,,,2025-07-31,合併による解散等,7021001066195,令和７年７月３１日神奈川県小田原市蓮正寺１０３番地の２株式会社ｔｈｅｍ（7021001066195）に合併し解散,2015-10-05,1,,,,,ヨスガ,0
655,3030003004983,登記記録の閉鎖等,0,2025-08-22,2025-08-14,合同会社柳川建築,00018269,合同会社,埼玉県,鶴ヶ島市,大字藤金７７７番地１２,,11,241,3502206,,,2025-08-14,清算の結了等,,,2015-10-05,1,,,,,ヤナガワケンチク,0
679,3070005009597,登記記録の閉鎖等,0,2025-08-22,2025-08-18,一般社団法人財務相続対策協議会,,その他の設立登記法人,群馬県,前橋市,川原町１丁目２０番地１６,,10,201,3710046,,,2025-08-18,清算の結了等,,,2019-04-25,1,,,,,ザイムソウゾクタイサクキョウギカイ,0
685,3090002003221,登記記録の閉鎖等,0,2025-08-22,2025-08-13,有限会社八百竹美術品店,,有限会社,山梨県,甲府市,丸の内１丁目２１番２号,,19,201,4000031,,,2025-08-13,清算の結了等,,,2015-10-05,1,,,,,ヤオタケビジュツヒンテン,0
689,3100005011715,登記記録の閉鎖等,0,2025-08-22,2025-08-20,一般社団法人信州上田霊園,,その他の設立登記法人,長野県,上田市,常田１丁目９番１９号,,20,203,3860018,,,2025-08-20,清算の結了等,,,2015-10-05,1,,,,,シンシュウウエダレイエン,0
696,3120001083673,登記記録の閉鎖等,0,2025-08-22,2025-08-04,株式会社大洋軒,,株式会社,大阪府,大阪市中央区,内平野町１丁目２番６号,,27,128,5400037,,,2025-08-04,清算の結了等,,,2015-10-05,1,,,,,タイヨウケン,0
722,3130002010064,登記記録の閉鎖等,0,2025-08-22,2025-08-04,有限会社トバ米商店,,有限会社,京都府,京都市東山区,大和大路四条下ル四丁目小松町６０４番地,,26,105,6050000,,,2025-08-04,清算の結了等,,,2015-10-05,1,,,,,トバヨネショウテン,0
728,3140002041100,登記記録の閉鎖等,0,2025-08-22,2025-08-18,株式会社ジェイミック,,株式会社,兵庫県,尼崎市,長洲本通１丁目３番１号尼崎駅前川端ビル,,28,202,6600803,,,2025-08-18,清算の結了等,,,2015-10-05,1,,,,,ジェイミック,0
731,3140005022989,登記記録の閉鎖等,0,2025-08-22,2025-08-18,一般社団法人親白福祉会,,その他の設立登記法人,兵庫県,明石市,松の内１丁目９－１６ライオンズマンション西明石７０２,,28,203,6730016,,,2025-08-18,清算の結了等,,,2016-05-30,1,,,,,オヤシロフクシカイ,0
744,3190002001124,登記記録の閉鎖等,0,2025-08-22,2025-08-20,有限会社中島化粧品,,有限会社,三重県,津市,丸之内２９番１８号,,24,201,5140033,,,2025-08-20,清算の結了等,,,2015-10-05,1,,,,,ナカジマケショウヒン,0
746,3200001026979,登記記録の閉鎖等,0,2025-08-22,2025-08-19,株式会社アイエムエス,,株式会社,岐阜県,揖斐郡大野町,大字上秋３５７番地,,21,403,5010512,,,2025-08-19,清算の結了等,,,2015-10-05,1,,,,,アイエムエス,0
748,3200002001642,登記記録の閉鎖等,0,2025-08-22,2025-08-20,有限会社ケイテック,,有限会社,岐阜県,岐阜市,若竹町１丁目１２番地,,21,201,5020836,,,2025-08-20,清算の結了等,,,2015-10-05,1,,,,,ケイテック,0
752,3210002010320,登記記録の閉鎖等,0,2025-08-22,2025-08-20,有限会社サトーホームズ,,有限会社,福井県,敦賀市,昭和町１丁目２１番２８号,,18,202,9140812,,,2025-08-20,清算の結了等,,,2015-10-05,1,,,,,サトーホームズ,0
757,3240002053523,登記記録の閉鎖等,0,2025-08-22,2025-08-19,有限会社波止元寝具店,,有限会社,広島県,三原市,幸崎能地１丁目４番６号,,34,204,7292252,,,2025-08-19,清算の結了等,,,2015-10-05,1,,,,,ハトモトシングテン,0
760,3250002002842,登記記録の閉鎖等,0,2025-08-22,2025-08-20,有限会社石丸商店,,有限会社,山口県,防府市,大字上右田５４６番地の１,,35,206,7470062,,,2025-08-20,清算の結了等,,,2015-10-05,1,,,,,イシマルショウテン,0
775,3290801025189,登記記録の閉鎖等,0,2025-08-22,2025-08-19,株式会社ぢどり屋こた,,株式会社,福岡県,北九州市小倉北区,金鶏町８番２３号,,40,106,8030843,,,2025-08-19,清算の結了等,,,2018-12-26,1,,,,,ヂドリヤコタ,0
782,3340002001455,登記記録の閉鎖等,0,2025-08-22,2025-08-08,有限会社伊牟田コンピューター会計,,有限会社,鹿児島県,鹿児島市,住吉町１番７号,,46,201,8920823,,,2025-08-08,清算の結了等,,,2015-10-05,1,,,,,イムタコンピューターカイケイ,0
786,3360001019785,登記記録の閉鎖等,0,2025-08-22,2025-08-01,株式会社丸仁工業,,株式会社,沖縄県,豊見城市,字饒波５１番地チャームドコート１０２号室,,47,212,9010211,,,2025-08-01,合併による解散等,8360002000005,令和７年８月１日沖縄県豊見城市字饒波５１番地チャームドコート１０２号室株式会社沖縄ガス圧接（8360002000005）に合併し解散,2015-10-05,1,,,,,,0
792,3390001017992,登記記録の閉鎖等,0,2025-08-22,2025-08-14,株式会社ヤマゴ,,株式会社,山形県,村山市,楯岡十日町６番６号,,06,208,9950017,,,2025-08-14,清算の結了等,,,2025-05-26,1,,,,,,0
793,3390005002982,登記記録の閉鎖等,0,2025-08-22,2025-08-12,荘内トラックセンター協同組合,,その他の設立登記法人,山形県,酒田市,宮海字新林５７２番地１８,,06,204,9980005,,,2025-08-12,清算の結了等,,,2015-10-05,1,,,,,ショウナイトラックセンター,0
794,3390005004070,登記記録の閉鎖等,0,2025-08-22,2025-08-19,両羽プロパンガス配送協同組合,,その他の設立登記法人,山形県,鶴岡市,みどり町１４番１０号,,06,203,9970046,,,2025-08-19,清算の結了等,,,2015-10-05,1,,,,,リョウウプロパンガスハイソウ,0
800,3420002007460,登記記録の閉鎖等,0,2025-08-22,2025-07-31,株式会社ＫＳトランスポート,,株式会社,岩手県,一関市,千厩町磐清水字島越２番地１,00110030,03,209,0290804,,,2025-07-31,清算の結了等,,,2015-10-05,1,,,,,,0
809,3430002034883,登記記録の閉鎖等,0,2025-08-22,2025-07-28,バルシステム有限会社,,有限会社,北海道,札幌市豊平区,西岡二条１１丁目２番１８号,,01,105,0620032,,,2025-07-28,清算の結了等,,,2015-10-05,1,,,,,バルシステム,0
810,3430002045385,登記記録の閉鎖等,0,2025-08-22,2025-08-01,有限会社エムテック,,有限会社,北海道,江別市,豊幌美咲町５１番地の９,,01,217,0670027,,,2025-08-01,清算の結了等,,,2015-10-05,1,,,,,エムテック,0
812,3450001008993,登記記録の閉鎖等,0,2025-08-22,2025-08-12,堀建巧業株式会社,,株式会社,北海道,留萌市,高砂町１丁目４番１５号,,01,212,0770021,,,2025-08-12,清算の結了等,,,2015-10-05,1,,,,,ホリケンコウギョウ,0
813,3470002015748,登記記録の閉鎖等,0,2025-08-22,2025-08-20,有限会社有明高速印刷,,有限会社,香川県,観音寺市,栄町２丁目５番１２号,,37,205,7680072,,,2025-08-20,清算の結了等,,,2015-10-05,1,,,,,アリアケコウソクインサツ,0
817,3500005005585,登記記録の閉鎖等,0,2025-08-22,2025-07-10,特定非営利活動法人愛媛アカデメイア,,その他の設立登記法人,愛媛県,松山市,文京町３番愛媛大学教育学部４号館３２４室,,38,201,7900826,,,2025-07-10,清算の結了等,,,2015-10-05,1,,,,,エヒメアカデメイア,0
826,4010001245399,登記記録の閉鎖等,0,2025-08-22,2025-08-19,Ｆｕｔｕｒｅ　Ｓｈｉｆｔ　Ｐａｒｔｎｅｒｓ株式会社,,株式会社,東京都,中央区,入船１丁目８番５号ＫＤＸレジデンス八丁堀２０１号室,,13,102,1040042,,,2025-08-19,合併による解散等,3010401167946,令和７年６月６日東京都港区東新橋一丁目６番３号ザロイヤルパークホテルアイコニック東京汐留２４ＦＦａｃｅｔ　Ｂｒｉｄｇｅ株式会社（3010401167946）に合併し解散,2024-06-04,1,,,,,フューチャーシフトパートナーズ,0
827,4010001248360,登記記録の閉鎖等,0,2025-08-22,2025-07-23,Ｐホールディングス株式会社,,株式会社,東京都,千代田区,丸の内３丁目１－１国際ビル,,13,101,1000005,,,2025-07-23,清算の結了等,,,2024-09-18,1,,,,,ピーホールディングス,0
834,4010003026104,登記記録の閉鎖等,0,2025-08-22,2025-08-12,株式会社ＡＫ,,株式会社,沖縄県,那覇市,前島３丁目２５番２号泊ポートビル１Ｆ,,47,201,9000016,,,2025-08-12,清算の結了等,,,2017-09-20,1,,,,,エーケー,0
840,4010005010329,登記記録の閉鎖等,0,2025-08-22,2025-07-29,特定非営利活動法人東日本自警団,,その他の設立登記法人,東京都,中央区,銀座２丁目１４－１８ＲＡＹ銀座ビル,,13,102,1040061,,,2025-07-29,清算の結了等,,,2015-10-05,1,,,,,ヒガシニホンジケイダン,0
883,4011102020476,登記記録の閉鎖等,0,2025-08-22,2025-07-17,有限会社エー・ピー・プロテクト,,有限会社,東京都,新宿区,高田馬場１丁目３０番１４号コルティーレビル７階,,13,104,1690075,,,2025-07-17,清算の結了等,,,2015-10-05,1,,,,,エーピープロテクト,0
907,4020001020330,登記記録の閉鎖等,0,2025-08-22,2025-08-05,株式会社サカクラ,,株式会社,神奈川県,横浜市港北区,新吉田町５３７番地,,14,109,2230056,,,2025-08-05,清算の結了等,,,2015-10-05,1,,,,,サカクラ,0
925,4021001070464,登記記録の閉鎖等,0,2025-08-22,2025-08-13,株式会社ＰＯＩＮＴ,,株式会社,東京都,新宿区,早稲田鶴巻町５２１番２４－５０２号,,13,104,1620041,,,2025-08-13,清算の結了等,,,2020-07-30,1,,,,,ポイント,0
928,4030001109503,登記記録の閉鎖等,0,2025-08-22,2025-08-15,セネック株式会社,,株式会社,埼玉県,川越市,大字久下戸２８２５番地１,,11,201,3500011,,,2025-08-15,清算の結了等,,,2015-10-05,1,,,,,セネック,0
943,4040003015756,登記記録の閉鎖等,0,2025-08-22,2025-07-31,エクセレント合同会社,,合同会社,千葉県,船橋市,丸山１丁目３０－５,,12,204,2730048,,,2025-07-31,清算の結了等,,,2020-07-17,1,,,,,エクセレント,0
951,4050001009503,登記記録の閉鎖等,0,2025-08-22,2025-08-01,株式会社土浦ヤマハル,,株式会社,茨城県,土浦市,卸町１丁目１０番１号土浦公設市場内,,08,203,3000847,,,2025-08-01,清算の結了等,,,2015-10-05,1,,,,,ツチウラヤマハル,0
954,4050001046851,登記記録の閉鎖等,0,2025-08-22,2025-08-08,株式会社エムプロモーション,,株式会社,茨城県,水戸市,城南２丁目１０番６号Ｇａｒｄｅｎｓ水戸６０４号室,,08,201,3100803,,,2025-08-08,清算の結了等,,,2019-11-28,1,,,,,エムプロモーション,0
970,4090002003220,登記記録の閉鎖等,0,2025-08-22,2025-08-13,有限会社やおたけ,,有限会社,山梨県,甲府市,丸の内１丁目２１番２号,,19,201,4000031,,,2025-08-13,清算の結了等,,,2015-10-05,1,,,,,ヤオタケ,0
972,4100005007010,登記記録の閉鎖等,0,2025-08-22,2025-08-20,特定非営利活動法人アイネットＳＡＫＵＭＡ,,その他の設立登記法人,長野県,松本市,小屋北１丁目１５番２０号,,20,202,3990039,,,2025-08-20,清算の結了等,,,2015-10-05,1,,,,,アイネットサクマ,0
989,4120003016192,登記記録の閉鎖等,0,2025-08-22,2025-08-21,合同会社コタロウ,,合同会社,大阪府,東大阪市,西堤本通東１丁目１番１号,,27,227,5770045,,,2025-08-21,清算の結了等,,,2019-09-02,1,,,,,コタロウ,0
1000,4140001049564,登記記録の閉鎖等,0,2025-08-22,2025-08-18,ダイオー建設株式会社,,株式会社,兵庫県,尼崎市,南初島町８番地の１５７,,28,202,6600833,,,2025-08-18,清算の結了等,,,2015-10-05,1,,,,,,0
1010,4180001088476,登記記録の閉鎖等,0,2025-08-22,2025-07-29,株式会社マトカリップ,,株式会社,愛知県,名古屋市中区,丸の内１丁目５番３２号,,23,106,4600002,,,2025-07-29,清算の結了等,,,2015-10-05,1,,,,,マトカリップ,0
1015,4180005008595,登記記録の閉鎖等,0,2025-08-22,2025-08-14,小牧青果商業協同組合,,その他の設立登記法人,愛知県,小牧市,大字河内屋新田字上岩倉杁６３０番地,,23,219,4850085,,,2025-08-14,清算の結了等,,,2015-10-05,1,,,,,コマキセイカショウギョウ,0
1018,4190002004019,登記記録の閉鎖等,0,2025-08-22,2025-08-20,有限会社ルート西陣,,有限会社,三重県,津市,安濃町清水７５６番地１０９,,24,201,5142305,,,2025-08-20,清算の結了等,,,2015-10-05,1,,,,,ルートニシジン,0
1044,4320002021479,登記記録の閉鎖等,0,2025-08-22,2025-08-19,有限会社富士ジョイントオフィス,,有限会社,大分県,中津市,２１６８番地１,,44,203,8710099,,,2025-08-19,清算の結了等,,,2015-10-05,1,,,,,フジジョイントオフィス,0
1045,4320005007120,登記記録の閉鎖等,0,2025-08-22,2025-08-13,日田市三本松商店街振興組合,,その他の設立登記法人,大分県,日田市,三本松１丁目１２番８号,,44,204,8770016,,,2025-08-13,清算の結了等,,,2015-10-05,1,,,,,ヒタシサンボンマツ,0
1051,4340002027846,登記記録の閉鎖等,0,2025-08-22,2025-08-07,有限会社太陽グリ一ン,,有限会社,鹿児島県,志布志市,志布志町安楽３０９７番地８,,46,221,8997104,,,2025-08-07,清算の結了等,,,2015-10-05,1,,,,,,0
1057,4380001026787,登記記録の閉鎖等,0,2025-08-22,2025-08-04,株式会社鹿成架設,,株式会社,福島県,南相馬市,原町区大木戸字南東方９３番地の４５,,07,212,9750061,,,2025-08-04,清算の結了等,,,2016-04-21,1,,,,,カナリカセツ,0
1060,4430001043240,登記記録の閉鎖等,0,2025-08-22,2025-07-30,株式会社ウラカワメタル,,株式会社,北海道,江別市,野幌屯田町４３番地３,,01,217,0690803,,,2025-07-30,清算の結了等,,,2015-10-05,1,,,,,ウラカワメタル,0
1061,4430002056712,登記記録の閉鎖等,0,2025-08-22,2025-07-31,米田石材有限会社,,有限会社,北海道,余市郡余市町,梅川町３７３番地１,,01,408,0460023,,,2025-07-31,清算の結了等,,,2015-10-05,1,,,,,ヨネタセキザイ,0
1063,4470002014162,登記記録の閉鎖等,0,2025-08-22,2025-08-19,有限会社香川通信建設,,有限会社,香川県,丸亀市,飯山町真時３７４番地２,,37,202,7620086,,,2025-08-19,清算の結了等,,,2015-10-05,1,,,,,カガワツウシンケンセツ,0
1064,4470002015020,登記記録の閉鎖等,0,2025-08-22,2025-08-20,有限会社杉尾石油店,,有限会社,香川県,坂出市,府中町９６９番の１,,37,203,7620024,,,2025-08-20,清算の結了等,,,2015-10-05,1,,,,,スギオセキユテン,0
1082,5010003044088,登記記録の閉鎖等,0,2025-08-22,2025-07-24,合同会社ＧＭ２,,合同会社,東京都,中央区,銀座１丁目１２－４Ｎ＆ＥＢＬＤ７階,,13,102,1040061,,,2025-07-24,清算の結了等,,,2024-06-20,1,,,,,ジーエムツー,0
1084,5010005034112,登記記録の閉鎖等,0,2025-08-22,2025-07-29,Ｈｅｒｉｔａｇｅ　Ｈｏｌｄｉｎｇｓ一般社団法人,,その他の設立登記法人,東京都,中央区,八丁堀４丁目２番１０号ＡＯＪ税理士法人内,,13,102,1040032,,,2025-07-29,清算の結了等,,,2021-10-20,1,,,,,ヘリテージホールディングス,0
1087,5010401060455,登記記録の閉鎖等,0,2025-08-22,2025-07-24,株式会社バードＡＰアトリエ,,株式会社,東京都,中央区,勝どき１丁目１番１号,,13,102,1040054,,,2025-07-24,清算の結了等,,,2015-10-05,1,,,,,バードエーピーアトリエ,0
1105,5010802018424,登記記録の閉鎖等,0,2025-08-22,2025-08-04,株式会社山王薬局,,株式会社,神奈川県,横浜市緑区,中山１丁目２２番１３－３０２号,,14,113,2260019,,,2025-08-04,清算の結了等,,,2015-10-05,1,,,,,サンノウヤッキョク,0
1106,5010803001577,登記記録の閉鎖等,0,2025-08-22,2025-08-12,合同会社龍楽山,,合同会社,東京都,大田区,山王１丁目１番６号フロールデルラゴ１階,,13,111,1430023,,,2025-08-12,清算の結了等,,,2015-10-05,1,,,,,ルラクサン,0
1120,5011002016994,登記記録の閉鎖等,0,2025-08-22,2025-07-22,有限会社ボルカノ,,有限会社,東京都,渋谷区,代々木２丁目７番６号,,13,113,1510053,,,2025-07-22,清算の結了等,,,2015-10-05,1,,,,,ボルカノ,0
1132,5011101074217,登記記録の閉鎖等,0,2025-08-22,2025-07-24,株式会社ブイテック研究所,,株式会社,東京都,千代田区,神田佐久間町１丁目１６番地１大橋ビル５０３号,,13,101,1010025,,,2025-07-24,清算の結了等,,,2015-10-05,1,,,,,,0
1137,5011102020665,登記記録の閉鎖等,0,2025-08-22,2025-07-16,有限会社ケイフラット,,有限会社,東京都,新宿区,高田馬場１丁目２８番６号,,13,104,1690075,,,2025-07-16,清算の結了等,,,2015-10-05,1,,,,,ケイフラット,0
1152,5020001021195,登記記録の閉鎖等,0,2025-08-22,2025-08-05,南信産業株式会社,,株式会社,神奈川県,横浜市港北区,日吉本町５丁目６７番２３号,,14,109,2230062,,,2025-08-05,清算の結了等,,,2015-10-05,1,,,,,ナンシンサンギョウ,0
1153,5020001025642,登記記録の閉鎖等,0,2025-08-22,2025-08-05,株式会社エムダ,,株式会社,神奈川県,横浜市中区,山下町２４４番地（福華ビル）,,14,104,2310023,,,2025-08-05,清算の結了等,,,2015-10-05,1,,,,,エムダ,0
1154,5020001077659,登記記録の閉鎖等,0,2025-08-22,2025-08-06,株式会社イーサス,,株式会社,神奈川県,横浜市青葉区,美しが丘２丁目２５番１号,,14,117,2250002,,,2025-08-06,清算の結了等,,,2015-10-05,1,,,,,イーサス,0
1156,5020001162114,登記記録の閉鎖等,0,2025-08-22,2025-08-04,愛和株式会社,,株式会社,神奈川県,横浜市中区,桜木町１丁目１０１番地　１クロスゲート７階,,14,104,2310062,,,2025-08-04,清算の結了等,,,2025-04-09,1,,,,,アイワ,0
1160,5020002071727,登記記録の閉鎖等,0,2025-08-22,2025-08-04,有限会社やなこ,,有限会社,神奈川県,横浜市金沢区,柳町１９番地２９,,14,108,2360026,,,2025-08-04,清算の結了等,,,2015-10-05,1,,,,,ヤナコ,0
1173,5030001045994,登記記録の閉鎖等,0,2025-08-22,2025-08-13,株式会社トータル・ハウジング・サービス,,株式会社,埼玉県,新座市,堀ノ内３丁目７番３２号,,11,230,3520023,,,2025-08-13,清算の結了等,,,2015-10-05,1,,,,,トータルハウジングサービス,0
1174,5030001069928,登記記録の閉鎖等,0,2025-08-22,2025-08-15,株式会社熊谷メディアセンター,,株式会社,埼玉県,坂戸市,大字塚越１０７５番地１５,,11,239,3500209,,,2025-08-15,清算の結了等,,,2015-10-05,1,,,,,クマガヤメディアセンター,0
1176,5030001085669,登記記録の閉鎖等,0,2025-08-22,2025-08-15,拓伸開発株式会社,,株式会社,埼玉県,行田市,向町２６番３５号,,11,206,3610075,,,2025-08-15,清算の結了等,,,2015-10-05,1,,,,,タクシンカイハツ,0
1183,5030002063252,登記記録の閉鎖等,0,2025-08-22,2025-08-15,有限会社菅原タイル工業所,,有限会社,埼玉県,富士見市,大字水子４９７９番地３,,11,235,3540011,,,2025-08-15,清算の結了等,,,2015-10-05,1,,,,,スガワラタイルコウギョウショ,0
1184,5030002068160,登記記録の閉鎖等,0,2025-08-22,2025-08-12,有限会社共伸電設,,有限会社,埼玉県,春日部市,花積１２８番地,,11,214,3440044,,,2025-08-12,清算の結了等,,,2015-10-05,1,,,,,キョウシンデンセツ,0
1186,5030005006480,登記記録の閉鎖等,0,2025-08-22,2025-08-14,特定非営利活動法人伊奈総合型地域スポーツクラブ,,その他の設立登記法人,埼玉県,北足立郡伊奈町,寿１丁目２７６番地,,11,301,3620807,,,2025-08-14,清算の結了等,,,2015-10-05,1,,,,,イナソウゴウガタチイキスポーツクラブ,0
1187,5040001026449,登記記録の閉鎖等,0,2025-08-22,2025-08-20,神光自動車興業株式会社,,株式会社,千葉県,市川市,千鳥町１０番地,,12,203,2720126,,,2025-08-20,合併による解散等,7010001043998,令和７年８月１日東京都中央区新富一丁目１３番２４号交神運輸株式会社（7010001043998）に合併し解散,2015-10-05,1,,,,,シンコウジドウシャコウギョウ,0
1200,5040005021017,登記記録の閉鎖等,0,2025-08-22,2025-07-28,一般社団法人フィネラルライン協会,,その他の設立登記法人,千葉県,千葉市美浜区,中瀬１丁目３番地幕張テクノガーデンＢ棟５階,,12,106,2610023,,,2025-07-28,清算の結了等,,,2020-12-08,1,,,,,フィネラルラインキョウカイ,0
1206,5050003004121,登記記録の閉鎖等,0,2025-08-22,2025-08-05,イーホットラインズ合同会社,,合同会社,茨城県,牛久市,岡見町２７８８番地４,,08,219,3001204,,,2025-08-05,清算の結了等,,,2018-03-15,1,,,,,イーホットラインズ,0
1208,5070002026172,登記記録の閉鎖等,0,2025-08-22,2025-08-18,有限会社栗原自動車,,有限会社,群馬県,渋川市,祖母島９７６番地の１,,10,208,3770024,,,2025-08-18,清算の結了等,,,2015-10-05,1,,,,,クリバラジドウシャ,0
1211,5080101017105,登記記録の閉鎖等,0,2025-08-22,2025-08-20,株式会社ＩＳＬＥ,,株式会社,静岡県,駿東郡長泉町,中土狩８１３番２０号,,22,342,4110942,,,2025-08-20,清算の結了等,,,2015-10-05,1,,,,,イール,0
1213,5080102016403,登記記録の閉鎖等,0,2025-08-22,2025-08-19,有限会社伊藤倉庫,,有限会社,静岡県,富士宮市,矢立町１２６番地,,22,207,4180072,,,2025-08-19,清算の結了等,,,2015-10-05,1,,,,,イトウソウコ,0
1215,5080402006203,登記記録の閉鎖等,0,2025-08-22,2025-08-15,浜松マイカーセールス有限会社,,有限会社,静岡県,浜松市中央区,船越町１６番３号,,22,138,4300913,,,2025-08-15,清算の結了等,,,2015-10-05,1,,,,,ハママツマイカーセールス,0
1219,5100002033850,登記記録の閉鎖等,0,2025-08-22,2025-08-20,有限会社上村電設,,有限会社,長野県,上伊那郡中川村,大草３７２９番地１０,,20,386,3993801,,,2025-08-20,清算の結了等,,,2015-10-05,1,,,,,ウエムラデンセツ,0
1220,5100003006566,登記記録の閉鎖等,0,2025-08-22,2025-08-19,合同会社シャーンティ,,合同会社,長野県,上田市,常磐城５丁目１番２７号錦ハイツ２０２号,,20,203,3860027,,,2025-08-19,清算の結了等,,,2022-05-30,1,,,,,シャーンティ,0
1241,5120901043064,登記記録の閉鎖等,0,2025-08-22,2025-08-01,株式会社マックストレード,,株式会社,大阪府,大阪市北区,長柄中１丁目５番７－２１０号,,27,127,5310062,,,2025-08-01,清算の結了等,,,2020-08-07,1,,,,,マックストレード,0
1256,5140001009963,登記記録の閉鎖等,0,2025-08-22,2025-08-14,日成住宅株式会社,,株式会社,兵庫県,神戸市東灘区,岡本３丁目１０番１－６０４号,,28,101,6580072,,,2025-08-14,清算の結了等,,,2015-10-05,1,,,,,ニッセイジュウタク,0
1257,5140001045224,登記記録の閉鎖等,0,2025-08-22,2025-08-14,株式会社ほがらか,,株式会社,兵庫県,加古川市,野口町野口２７１番地の１３,,28,210,6750012,,,2025-08-14,清算の結了等,,,2015-10-05,1,,,,,ホガラカ,0
1261,5140001125323,登記記録の閉鎖等,0,2025-08-22,2025-08-18,株式会社アイホーム,,株式会社,兵庫県,明石市,別所町１８番１８号,,28,203,6730038,,,2025-08-18,清算の結了等,,,2022-03-25,1,,,,,アイホーム,0
1275,5180001141127,登記記録の閉鎖等,0,2025-08-22,2025-08-21,株式会社ＡＪ　Ｆｌｏｕｒｉｓｈ,,株式会社,愛知県,安城市,住吉町３丁目３番５号リコットタワー新安城２００１,,23,212,4460072,,,2025-08-21,清算の結了等,,,2020-05-13,1,,,,,エイジェイフローリッシュ,0
1279,5190001031657,登記記録の閉鎖等,0,2025-08-22,2025-08-19,株式会社ネットラチェック,,株式会社,三重県,桑名市,大字桑部９５０番地４,,24,205,5110923,,,2025-08-19,清算の結了等,,,2024-09-20,1,,,,,ネットラチェック,0
1288,5230001006506,登記記録の閉鎖等,0,2025-08-22,2025-08-20,株式会社デンソーシステム,,株式会社,富山県,中新川郡立山町,前沢２３３番地３,,16,323,9300221,,,2025-08-20,清算の結了等,,,2015-10-05,1,,,,,デンソーシステム,0
1289,5230005008829,登記記録の閉鎖等,0,2025-08-22,2025-08-19,特定非営利活動法人とやま糖尿病リサーチイノベーション,,その他の設立登記法人,富山県,富山市,杉谷２６３０番地,,16,201,9300152,,,2025-08-19,清算の結了等,,,2017-10-06,1,,,,,トヤマトウニョウビョウリサーチイノベーション,0
1292,5240001011496,登記記録の閉鎖等,0,2025-08-22,2025-08-20,株式会社三松屋,,株式会社,広島県,広島市中区,西白島町１７番２０号,,34,101,7300005,,,2025-08-20,清算の結了等,,,2015-10-05,1,,,,,ミマツヤ,0
1296,5240002035791,登記記録の閉鎖等,0,2025-08-22,2025-08-01,有限会社能美タクシー,,有限会社,広島県,江田島市,能美町鹿川２７２３番地の１,,34,215,7372302,,,2025-08-01,清算の結了等,,,2015-10-05,1,,,,,ノウミタクシー,0
1315,5290801007821,登記記録の閉鎖等,0,2025-08-22,2025-08-19,アペックコーポレーション株式会社,,株式会社,福岡県,北九州市戸畑区,沖台１丁目１１番１３－４０１号,,40,105,8040064,,,2025-08-19,清算の結了等,,,2015-10-05,1,,,,,アペックコーポレーション,0
1320,5340001026690,登記記録の閉鎖等,0,2025-08-22,2025-08-07,株式会社ＴｒａｎｓｆｏｒｍＴｒａｖｅｌ,,株式会社,鹿児島県,熊毛郡屋久島町,平内２５８番地２４,,46,505,8914406,,,2025-08-07,清算の結了等,,,2024-08-01,1,,,,,トランスフォームトラベル,0
1328,5370801000198,登記記録の閉鎖等,0,2025-08-22,2025-07-30,株式会社トーエープランニング,,株式会社,宮城県,名取市,上余田字千刈田１５６番地,,04,207,9811222,,,2025-07-30,清算の結了等,,,2015-10-05,1,,,,,トーエープランニング,0
1330,5380001029079,登記記録の閉鎖等,0,2025-08-22,2025-07-29,未来技研株式会社,,株式会社,福島県,南相馬市,小高区飯崎字南原６５番地の１,,07,212,9792162,,,2025-07-29,清算の結了等,,,2018-05-02,1,,,,,,0
1338,5470002013163,登記記録の閉鎖等,0,2025-08-22,2025-08-19,有限会社わたや,,有限会社,香川県,善通寺市,善通寺町２００４番地,,37,204,7650004,,,2025-08-19,清算の結了等,,,2015-10-05,1,,,,,ワタヤ,0
1344,6010001025270,登記記録の閉鎖等,0,2025-08-22,2025-07-24,株式会社波乗社,,株式会社,東京都,千代田区,飯田橋４丁目４番９号,,13,101,1020072,,,2025-07-24,清算の結了等,,,2015-10-05,1,,,,,ナミノリシャ,0
1352,6010001201846,登記記録の閉鎖等,0,2025-08-22,2025-07-28,日本生命２０１９基金流動化株式会社,,株式会社,東京都,千代田区,丸の内１丁目４番１号東京共同会計事務所内,,13,101,1000005,,,2025-07-28,清算の結了等,,,2019-06-21,1,,,,,ニホンセイメイニセンジュウキュウキキンリュウドウカ,0
1353,6010001205351,登記記録の閉鎖等,0,2025-08-22,2025-07-24,株式会社ｔｅａｋ．ｇ,,株式会社,東京都,文京区,音羽１丁目２５番１５－２０３号,,13,105,1120013,,,2025-07-24,清算の結了等,,,2019-11-14,1,,,,,ティーケージー,0
1363,6010005035142,登記記録の閉鎖等,0,2025-08-22,2025-08-19,一般社団法人ＡＭ　ａｌｐｈａ　Ｆｏｕｒ,,その他の設立登記法人,東京都,千代田区,霞が関３丁目２番５号,,13,101,1000013,,,2025-08-19,清算の結了等,,,2022-06-15,1,,,,,エーエムアルファフォー,0
1364,6010102000800,登記記録の閉鎖等,0,2025-08-22,2025-08-20,有限会社インテリア柳澤,,有限会社,東京都,八王子市,楢原町２０９番地１,,13,201,1930803,,,2025-08-20,清算の結了等,,,2015-10-05,1,,,,,,0
1367,6010401115794,登記記録の閉鎖等,0,2025-08-22,2025-08-14,株式会社トレス,,株式会社,埼玉県,草加市,栄町２丁目８番２６号,,11,221,3400011,,,2025-08-14,清算の結了等,,,2015-10-05,1,,,,,トレス,0
1384,6010702000695,登記記録の閉鎖等,0,2025-08-22,2025-08-12,有限会社石川光学造形研究所,,有限会社,東京都,品川区,西中延２丁目１５番１４号,,13,109,1420054,,,2025-08-12,清算の結了等,,,2015-10-05,1,,,,,イシカワコウガクゾウケイケンキュウジョ,0
1389,6010802010685,登記記録の閉鎖等,0,2025-08-22,2025-08-15,有限会社中野製作所,,有限会社,東京都,大田区,下丸子３丁目５番６号,,13,111,1460092,,,2025-08-15,清算の結了等,,,2015-10-05,1,,,,,ナカノセイサクジョ,0
1408,6011501025033,登記記録の閉鎖等,0,2025-08-22,2025-07-29,カーユ文化株式会社,,株式会社,東京都,中央区,日本橋２丁目１６番６号９階,,13,102,1030027,,,2025-07-29,清算の結了等,,,2019-08-13,1,,,,,カーユブンカ,0
1414,6012303000959,登記記録の閉鎖等,0,2025-08-22,2025-07-31,ローリエ町田アセットマネジメント合同会社,,合同会社,千葉県,船橋市,薬円台６丁目１７番１２号,,12,204,2740077,,,2025-07-31,清算の結了等,,,2016-09-23,1,,,,,ローリエマチダアセットマネジメント,0
1423,6020001019032,登記記録の閉鎖等,0,2025-08-22,2025-08-05,矢代工業株式会社,,株式会社,神奈川県,横浜市鶴見区,小野町４６番地３,,14,101,2300046,,,2025-08-05,清算の結了等,,,2015-10-05,1,,,,,ヤシロコウギョウ,0
1424,6020001058757,登記記録の閉鎖等,0,2025-08-22,2025-08-06,株式会社ＴＡＣ,,株式会社,神奈川県,横浜市港北区,富士塚２丁目２８番４７－２号,,14,109,2220012,,,2025-08-06,清算の結了等,,,2015-10-05,1,,,,,タック,0
1436,6020002038436,登記記録の閉鎖等,0,2025-08-22,2025-08-05,有限会社新栄ミート,,有限会社,神奈川県,横浜市鶴見区,佃野町１０番８号,,14,101,2300061,,,2025-08-05,清算の結了等,,,2015-10-05,1,,,,,シンエイミート,0
1452,6030002056651,登記記録の閉鎖等,0,2025-08-22,2025-08-13,有限会社訪問看護センターひかり,,有限会社,埼玉県,上尾市,大字原市１０１８番地２９,,11,219,3620021,,,2025-08-13,清算の結了等,,,2015-10-05,1,,,,,ホウモンカンゴセンターヒカリ,0
1454,6030003026323,登記記録の閉鎖等,0,2025-08-22,2025-08-05,合同会社レムリア,,合同会社,埼玉県,所沢市,大字上安松４９８番地の２,,11,208,3590025,,,2025-08-05,清算の結了等,,,2025-03-13,1,,,,,レムリア,0
1455,6040001031002,登記記録の閉鎖等,0,2025-08-22,2025-07-29,株式会社サンワエンタープライズ,,株式会社,千葉県,浦安市,港７６番地３,,12,227,2790024,,,2025-07-29,清算の結了等,,,2015-10-05,1,,,,,サンワエンタープライズ,0
1461,6040002038293,登記記録の閉鎖等,0,2025-08-22,2025-07-28,有限会社二幸鋼材店,,有限会社,千葉県,鎌ケ谷市,鎌ケ谷２丁目１７番３号,,12,224,2730105,,,2025-07-28,清算の結了等,,,2015-10-05,1,,,,,ニコウコウザイテン,0
1469,6050001041272,登記記録の閉鎖等,0,2025-08-22,2025-08-07,株式会社ハーケン,,株式会社,茨城県,古河市,仁連２０５０番５,,08,204,3060125,,,2025-08-07,清算の結了等,,,2016-07-13,1,,,,,ハーケン,0
1481,6080002006627,登記記録の閉鎖等,0,2025-08-22,2025-08-19,有限会社丸萬,,有限会社,静岡県,静岡市駿河区,登呂２丁目３番１２号,,22,102,4228033,,,2025-08-19,清算の結了等,,,2015-10-05,1,,,,,マルマン,0
1512,6140001003544,登記記録の閉鎖等,0,2025-08-22,2025-08-20,株式会社シンワ建装,,株式会社,兵庫県,神戸市中央区,橘通３丁目２番７号楠城ビル,,28,110,6500016,,,2025-08-20,清算の結了等,,,2015-10-05,1,,,,,シンワケンソウ,0
1515,6140001105191,登記記録の閉鎖等,0,2025-08-22,2025-08-18,株式会社ひとふくし会,,株式会社,兵庫県,尼崎市,長洲中通１丁目１２番２７号,,28,202,6600802,,,2025-08-18,清算の結了等,,,2017-02-27,1,,,,,ヒトフクシカイ,0
1518,6140005007946,登記記録の閉鎖等,0,2025-08-22,2025-07-18,特定非営利活動法人西播磨元気会,,その他の設立登記法人,兵庫県,相生市,矢野町下田４１３番地,,28,208,6780092,,,2025-07-18,清算の結了等,,,2015-10-05,1,,,,,ニシハリマゲンキカイ,0
1539,6190002000610,登記記録の閉鎖等,0,2025-08-22,2025-08-21,サカエ商事有限会社,,有限会社,三重県,津市,野田２１番地６３１,,24,201,5140826,,,2025-08-21,清算の結了等,,,2015-10-05,1,,,,,サカエショウジ,0
1544,6240001008608,登記記録の閉鎖等,0,2025-08-22,2025-08-18,新田ビル株式会社,,株式会社,広島県,広島市西区,中広町３丁目２４番１５－６０５号,,34,104,7330012,,,2025-08-18,清算の結了等,,,2015-10-05,1,,,,,ニッタビル,0
1547,6240002046912,登記記録の閉鎖等,0,2025-08-22,2025-08-13,有限会社松永工作所,,有限会社,広島県,府中市,久佐町３６番地の１,,34,208,7293222,,,2025-08-13,清算の結了等,,,2015-10-05,1,,,,,マツナガコウサクショ,0
1563,6310001017717,登記記録の閉鎖等,0,2025-08-22,2025-08-01,ＫＹＵＳＨＵリゾーツジャパン株式会社,,株式会社,長崎県,佐世保市,ハウステンボス町４番地３,,42,202,8593243,,,2025-08-01,清算の結了等,,,2022-02-21,1,,,,,キュウシュウリゾーツジャパン,0
1568,6330003004827,登記記録の閉鎖等,0,2025-08-22,2025-08-08,合同会社さざなみＲＳ,,合同会社,熊本県,熊本市北区,植木町今藤１８４番地１,,43,105,8610104,,,2025-08-08,清算の結了等,,,2015-10-05,1,,,,,サザナミアールエス,0
1570,6340002003440,登記記録の閉鎖等,0,2025-08-22,2025-08-07,有限会社熊川ボーリング,,有限会社,鹿児島県,鹿児島市,坂之上７丁目２８番７号,,46,201,8910150,,,2025-08-07,清算の結了等,,,2015-10-05,1,,,,,クマカワボーリング,0
1578,6360001032554,登記記録の閉鎖等,0,2025-08-22,2025-08-01,株式会社Ｍａｋｅ　Ｐｌａｃｅ,,株式会社,沖縄県,うるま市,石川東山２丁目３０番２１号,,47,213,9041102,,,2025-08-01,合併による解散等,8360001016803,令和７年８月１日沖縄県宜野湾市野嵩一丁目２番１５号株式会社ベストライフ（8360001016803）に合併し解散,2023-09-19,1,,,,,,0
1591,6400001015240,登記記録の閉鎖等,0,2025-08-22,2025-07-31,株式会社ＫＳロジスティックス,,株式会社,岩手県,一関市,東地主町１３番地１,,03,209,0210892,,,2025-07-31,清算の結了等,,,2020-12-18,1,,,,,,0
1593,6420002003250,登記記録の閉鎖等,0,2025-08-22,2025-08-08,有限会社村石商店,,有限会社,青森県,東津軽郡外ヶ浜町,字蟹田１５４番地,,02,307,0301303,,,2025-08-08,清算の結了等,,,2015-10-05,1,,,,,ムライシショウテン,0
1603,6500005000765,登記記録の閉鎖等,0,2025-08-22,2025-08-20,医療法人野井内科,,その他の設立登記法人,愛媛県,松山市,古川西２丁目７番２３号,,38,201,7900944,,,2025-08-20,清算の結了等,,,2015-10-05,1,,,,,ノイナイカ,0
1612,7010001218609,登記記録の閉鎖等,0,2025-08-22,2025-08-01,株式会社ＣｏｄｅＣｏａｃｈｉｎｇ,,株式会社,大阪府,大阪市天王寺区,上本町６丁目２－２２山崎製錬ビル５階東側室,,27,109,5430001,,,2025-08-01,合併による解散等,8010001218608,令和７年８月１日大阪府大阪市天王寺区上本町６－２－２２山崎製錬ビル５階東側室株式会社ＣｏａｃｈｉｎｇＴａｉｌｏｒ（8010001218608）に合併し解散,2021-06-07,1,,,,,コードコーチング,0
1622,7010003021234,登記記録の閉鎖等,0,2025-08-22,2025-07-25,ＳＵＮ和歌山合同会社,,合同会社,東京都,中央区,京橋２丁目１２番９号株式会社ＳＵＮホールディングス内,,13,102,1040031,,,2025-07-25,清算の結了等,,,2015-10-05,1,,,,,サンワカヤマ,0
1625,7010003034938,登記記録の閉鎖等,0,2025-08-22,2025-07-23,Ｓ－Ｐｏｗｅｒ西日本合同会社,,合同会社,東京都,中央区,日本橋１丁目４番１号,,13,102,1030027,,,2025-07-23,清算の結了等,,,2021-05-28,1,,,,,エスパワーニシニホン,0
1626,7010003043625,登記記録の閉鎖等,0,2025-08-22,2025-07-24,シルクル３合同会社,,合同会社,東京都,千代田区,九段南４丁目６番１－２０２号,,13,101,1020074,,,2025-07-24,清算の結了等,,,2024-05-02,1,,,,,シルクルスリー,0
1639,7010405015560,登記記録の閉鎖等,0,2025-08-22,2025-07-23,医療法人社団川村内科医院,,その他の設立登記法人,東京都,港区,新橋５丁目１０番６号川村ビル１階,,13,103,1050004,,,2025-07-23,清算の結了等,,,2017-03-10,1,,,,,カワムラナイカイイン,0
1647,7011001035861,登記記録の閉鎖等,0,2025-08-22,2025-07-23,株式会社ピー・エー・ピー,,株式会社,東京都,新宿区,四谷坂町１０番１４,,13,104,1600002,,,2025-07-23,清算の結了等,,,2015-10-05,1,,,,,ピーエーピー,0
1659,7011301000805,登記記録の閉鎖等,0,2025-08-22,2025-08-20,株式会社ヴァンウィングス,,株式会社,東京都,杉並区,高円寺南３丁目５５番１１号,,13,115,1660003,,,2025-08-20,清算の結了等,,,2015-10-05,1,,,,,ヴァンウィングス,0
1665,7011501008755,登記記録の閉鎖等,0,2025-08-22,2025-07-24,ＭＡＬ設計株式会社,,株式会社,東京都,港区,芝５丁目３３番１号,,13,103,1080014,,,2025-07-24,清算の結了等,,,2015-10-05,1,,,,,エムエーエルセッケイ,0
1674,7012305000270,登記記録の閉鎖等,0,2025-08-22,2025-08-15,医療法人社団菅井歯科医院,,その他の設立登記法人,東京都,町田市,常盤町３６０９番地１０,,13,209,1940213,,,2025-08-15,清算の結了等,,,2015-10-05,1,,,,,スガイシカイイン,0
1675,7012401038438,登記記録の閉鎖等,0,2025-08-22,2025-08-18,株式会社えをかく,,株式会社,大阪府,大阪市福島区,海老江７丁目２２番２２号,,27,103,5530001,,,2025-08-18,合併による解散等,8010901057329,令和７年８月１日東京都世田谷区北沢二丁目５番２号株式会社ＹＺ（8010901057329）に合併し解散,2021-10-21,1,,,,,エヲカク,0
1688,7020001031374,登記記録の閉鎖等,0,2025-08-22,2025-08-07,株式会社ホンビシ,,株式会社,神奈川県,横浜市戸塚区,下倉田町８２８番地１９,,14,110,2440815,,,2025-08-07,清算の結了等,,,2015-10-05,1,,,,,ホンビシ,0
1691,7020001127494,登記記録の閉鎖等,0,2025-08-22,2025-08-07,ｈ．株式会社,,株式会社,神奈川県,横浜市青葉区,美しが丘２丁目２９番地３－６０６号,,14,117,2250002,,,2025-08-07,清算の結了等,,,2018-08-07,1,,,,,エイチ,0
1692,7020001153846,登記記録の閉鎖等,0,2025-08-22,2025-08-04,株式会社ＫＯＤＵＫＡ,,株式会社,神奈川県,横浜市都筑区,川和町２４７番地,,14,118,2240057,,,2025-08-04,清算の結了等,,,2023-10-05,1,,,,,コヅカ,0
1717,7030001104906,登記記録の閉鎖等,0,2025-08-22,2025-08-14,ライズネクスト株式会社,,株式会社,埼玉県,さいたま市北区,宮原町１丁目２０２番大谷事務所１Ｆ,,11,102,3310812,,,2025-08-14,清算の結了等,,,2015-10-05,1,,,,,ライズネクスト,0
1744,7110002030465,登記記録の閉鎖等,0,2025-08-22,2025-08-01,有限会社Ｔ＆Ｓローズ美容室,,有限会社,新潟県,長岡市,台町１丁目７５番地１４,,15,202,9400048,,,2025-08-01,清算の結了等,,,2015-10-05,1,,,,,ティーアンドエスローズビヨウシツ,0
1748,7120001101266,登記記録の閉鎖等,0,2025-08-22,2025-08-08,株式会社生活・設備デザイン研究所,,株式会社,大阪府,大阪市都島区,都島中通２丁目２４番１０号,,27,102,5340022,,,2025-08-08,清算の結了等,,,2015-10-05,1,,,,,セイカツセツビデザインケンキュウショ,0
1780,7130001035372,登記記録の閉鎖等,0,2025-08-22,2025-08-06,株式会社葵建設,,株式会社,京都府,船井郡京丹波町,橋爪町田１番地の１９,,26,407,6220321,,,2025-08-06,清算の結了等,,,2015-10-05,1,,,,,アオイケンセツ,0
1797,7180001004067,登記記録の閉鎖等,0,2025-08-22,2025-07-30,サン工業株式会社,,株式会社,愛知県,名古屋市千種区,稲舟通２丁目２０番地,,23,101,4640824,,,2025-07-30,清算の結了等,,,2015-10-05,1,,,,,サンコウギョウ,0
1809,7180301025969,登記記録の閉鎖等,0,2025-08-22,2025-07-30,株式会社デンテック,,株式会社,愛知県,名古屋市名東区,引山２丁目１２０６番地の４,,23,115,4650002,,,2025-07-30,清算の結了等,,,2015-10-05,1,,,,,デンテック,0
1810,7180302027782,登記記録の閉鎖等,0,2025-08-22,2025-08-04,有限会社フルイチ,,有限会社,愛知県,新城市,杉山字道目記３７番地,,23,221,4411341,,,2025-08-04,清算の結了等,,,2015-10-05,1,,,,,フルイチ,0
1822,7290001091185,登記記録の閉鎖等,0,2025-08-22,2025-07-29,株式会社航路,,株式会社,福岡県,八女市,立花町下辺春１０７９番地,,40,210,8340073,,,2025-07-29,清算の結了等,,,2020-12-04,1,,,,,コウロ,0
1832,7320001018135,登記記録の閉鎖等,0,2025-08-22,2025-08-21,株式会社山崎牧場,00121959,株式会社,大分県,中津市,耶馬溪町大字金吉５１７５番地１６,,44,203,8710432,,,2025-08-21,清算の結了等,,,2021-01-21,1,,,,,ヤマサキボクジョウ,0
1837,7370001012538,登記記録の閉鎖等,0,2025-08-22,2025-08-01,株式会社センソク,,株式会社,宮城県,名取市,ゆりが丘２丁目９番地の１３,,04,207,9811245,,,2025-08-01,清算の結了等,,,2015-10-05,1,,,,,センソク,0
1840,7380001014979,登記記録の閉鎖等,0,2025-08-22,2025-08-01,株式会社Ｒ．ＲＡＹ,,株式会社,福島県,いわき市,小名浜岡小名字広畑５５番地の３,,07,204,9718151,,,2025-08-01,清算の結了等,,,2015-10-05,1,,,,,アールレイ,0
1845,7390005005536,登記記録の閉鎖等,0,2025-08-22,2025-08-19,特定非営利活動法人ＮＰＯもがみ,,その他の設立登記法人,山形県,新庄市,沖の町２番１５号,,06,205,9960023,,,2025-08-19,清算の結了等,,,2015-10-05,1,,,,,エヌピーオーモガミ,0
1850,7430002043162,登記記録の閉鎖等,0,2025-08-22,2025-07-30,有限会社石尾土質調査,,有限会社,北海道,石狩市,花川南四条３丁目７５番地,,01,235,0613204,,,2025-07-30,清算の結了等,,,2015-10-05,1,,,,,イシオドシツチョウサ,0
1857,7450002000112,登記記録の閉鎖等,0,2025-08-22,2025-08-20,有限会社アドヴァンス,,有限会社,北海道,旭川市,旭神三条３丁目１番５号,,01,204,0788373,,,2025-08-20,清算の結了等,,,2015-10-05,1,,,,,アドヴァンス,0
1863,7500002005659,登記記録の閉鎖等,0,2025-08-22,2025-08-21,有限会社フォーユー,,有限会社,愛媛県,松山市,持田町２丁目１番２０号,,38,201,7900855,,,2025-08-21,清算の結了等,,,2015-10-05,1,,,,,,0
1866,8010001164678,登記記録の閉鎖等,0,2025-08-22,2025-07-29,ＳＴＪ　Ａｄｖｉｓｏｒｓ株式会社,,株式会社,東京都,千代田区,永田町２丁目１７番１７号ＡｉＯＳ永田町５１０,,13,101,1000014,,,2025-07-29,清算の結了等,,,2015-10-05,1,,,,,エスティージェーアドバイザーズ,0
1875,8010003036149,登記記録の閉鎖等,0,2025-08-22,2025-07-23,合同会社ＷＥＢＪＩＴ,,合同会社,東京都,中央区,銀座１丁目２２－１１銀座大竹ビジデンス２階,,13,102,1040061,,,2025-07-23,清算の結了等,,,2021-11-09,1,,,,,ウェブジット,0
1878,8010101016151,登記記録の閉鎖等,0,2025-08-22,2025-08-20,株式会社長久,,株式会社,東京都,八王子市,川口町２５３４番地２９,,13,201,1930801,,,2025-08-20,清算の結了等,,,2024-05-21,1,,,,,チョウキュウ,0
1881,8010401108193,登記記録の閉鎖等,0,2025-08-22,2025-08-12,株式会社石和コーポレーション,,株式会社,東京都,品川区,二葉４丁目３番８号,,13,109,1420043,,,2025-08-12,清算の結了等,,,2015-10-05,1,,,,,イシワコーポレーション,0
1885,8010401176455,登記記録の閉鎖等,0,2025-08-22,2025-08-19,株式会社ＫＯＴＴＡ,,株式会社,東京都,港区,麻布台１丁目２番１－２１０６号,,13,103,1060041,,,2025-08-19,合併による解散等,6120001141024,令和７年８月１日大阪市北区西天満四丁目１４番３号株式会社クロス（6120001141024）に合併し解散,2023-08-16,1,,,,,コッタ,0
1905,8010801018050,登記記録の閉鎖等,0,2025-08-22,2025-08-15,株式会社ラ・ヴェール,,株式会社,東京都,大田区,下丸子４丁目２０番１４号タマリバーハイツ１１２,,13,111,1460092,,,2025-08-15,清算の結了等,,,2015-10-05,1,,,,,ラヴェール,0
1924,8011101083751,登記記録の閉鎖等,0,2025-08-22,2025-08-21,株式会社東駿産業,,株式会社,埼玉県,さいたま市浦和区,神明２丁目１２番１３－３号,,11,107,3300065,,,2025-08-21,清算の結了等,,,2018-04-06,1,,,,,トウシュンサンギョウ,0
1930,8011403002161,登記記録の閉鎖等,0,2025-08-22,2025-08-19,ＫＬＪ商事合同会社,,合同会社,東京都,板橋区,徳丸１丁目３６－４,,13,119,1750083,,,2025-08-19,清算の結了等,,,2017-08-21,1,,,,,ケーエルジェーショウジ,0
1940,8012401011815,登記記録の閉鎖等,0,2025-08-22,2025-08-07,株式会社弌七七,,株式会社,神奈川県,川崎市川崎区,大島３丁目１６番１５号,,14,131,2100834,,,2025-08-07,清算の結了等,,,2015-10-05,1,,,,,イチナナナナ,0
1942,8013105001144,登記記録の閉鎖等,0,2025-08-22,2025-08-21,千ヶ瀬食糧販売企業組合,,その他の設立登記法人,東京都,青梅市,千ヶ瀬町３丁目５５３番地,,13,205,1980043,,,2025-08-21,清算の結了等,,,2015-10-05,1,,,,,,0
1952,8020002011721,登記記録の閉鎖等,0,2025-08-22,2025-08-07,有限会社光和商事,,有限会社,神奈川県,横浜市戸塚区,下倉田町８２８番地１９,,14,110,2440815,,,2025-08-07,清算の結了等,,,2015-10-05,1,,,,,コウワショウジ,0
1961,8021001050875,登記記録の閉鎖等,0,2025-08-22,2025-07-28,ＭａｂｂｙＳ株式会社,,株式会社,神奈川県,茅ヶ崎市,東海岸北２丁目１４番４１号,,14,207,2530053,,,2025-07-28,合併による解散等,8021001046097,令和７年７月２７日神奈川県藤沢市片瀬山四丁目２０番１１号ＭａｂｂｙＳ株式会社（8021001046097）に合併し解散,2015-10-05,1,,,,,マビィズ,0
1971,8030002077299,登記記録の閉鎖等,0,2025-08-22,2025-08-14,武州冷熱有限会社,,有限会社,埼玉県,入間郡三芳町,大字上富１５５３番地３９,,11,324,3540045,,,2025-08-14,清算の結了等,,,2015-10-05,1,,,,,ブシュウレイネツ,0
1980,8040001119654,登記記録の閉鎖等,0,2025-08-22,2025-07-28,株式会社サクラテクノ,,株式会社,千葉県,野田市,桜の里３丁目３０番地の３,,12,208,2780048,,,2025-07-28,清算の結了等,,,2021-08-10,1,,,,,サクラテクノ,0
1986,8040002101140,登記記録の閉鎖等,0,2025-08-22,2025-07-28,有限会社和集フーズ,,有限会社,千葉県,鴨川市,北小町１８５９番地の３,,12,223,2960101,,,2025-07-28,清算の結了等,,,2015-10-05,1,,,,,ワシュウフーズ,0
1997,8070005001681,登記記録の閉鎖等,0,2025-08-22,2025-08-18,特定非営利活動法人ＮＰＯにこにこクラブ,,その他の設立登記法人,群馬県,前橋市,富士見町小暮５６５番地１２,,10,201,3710103,,,2025-08-18,清算の結了等,,,2015-10-05,1,,,,,エヌピーオーニコニコクラブ,0
2000,8080002012607,登記記録の閉鎖等,0,2025-08-22,2025-08-19,有限会社スルガ銘木,,有限会社,静岡県,静岡市清水区,北矢部町２丁目３番３４号,,22,103,4240937,,,2025-08-19,清算の結了等,,,2015-10-05,1,,,,,スルガメイボク,0
2004,8080102001740,登記記録の閉鎖等,0,2025-08-22,2025-08-20,有限会社植文堂印刷所,,有限会社,静岡県,沼津市,真砂町１４番地の２,,22,203,4100861,,,2025-08-20,清算の結了等,,,2015-10-05,1,,,,,ショクブンドウインサツショ,0
2021,8120001151566,登記記録の閉鎖等,0,2025-08-22,2025-08-08,株式会社フタバエンジニアリング,,株式会社,大阪府,枚方市,長尾元町３丁目３５番３３号,,27,210,5730163,,,2025-08-08,清算の結了等,,,2015-10-05,1,,,,,フタバエンジニアリング,0
2048,8122001019504,登記記録の閉鎖等,0,2025-08-22,2025-08-04,中西繊維株式会社,,株式会社,大阪府,八尾市,久宝寺４丁目４番３０号,,27,212,5810072,,,2025-08-04,清算の結了等,,,2015-10-05,1,,,,,ナカニシセンイ,0
2051,8122002013084,登記記録の閉鎖等,0,2025-08-22,2025-08-21,アロハテック有限会社,,有限会社,大阪府,八尾市,竹渕３丁目１２６番地,,27,212,5810052,,,2025-08-21,清算の結了等,,,2015-10-05,1,,,,,アロハテック,0
2059,8140002036657,登記記録の閉鎖等,0,2025-08-22,2025-08-12,株式会社ホームネット,,株式会社,兵庫県,加古川市,別府町石町７４番地の３,,28,210,6750127,,,2025-08-12,合併による解散等,1140001046192,令和７年８月１１日兵庫県加古川市別府町石町７４番地の３株式会社ファイン（1140001046192）に合併し解散,2015-10-05,1,,,,,ホームネット,0
2070,8180302001308,登記記録の閉鎖等,0,2025-08-22,2025-08-08,有限会社サントー建設工業,,有限会社,愛知県,岡崎市,井内町字下堤４６番地４,,23,202,4440203,,,2025-08-08,清算の結了等,,,2015-10-05,1,,,,,サントーケンセツコウギョウ,0
2077,8200001024805,登記記録の閉鎖等,0,2025-08-22,2025-08-20,株式会社金龍堂,,株式会社,岐阜県,高山市,下三之町１１３番地,,21,203,5060841,,,2025-08-20,清算の結了等,,,2015-10-05,1,,,,,キンリュウドウ,0
2095,8260005009821,登記記録の閉鎖等,0,2025-08-22,2025-07-30,特定非営利活動法人婚活アシスト,,その他の設立登記法人,岡山県,笠岡市,吉浜１００４番地１,,33,205,7140074,,,2025-07-30,清算の結了等,,,2015-10-05,1,,,,,コンカツアシスト,0
2096,8290001077530,登記記録の閉鎖等,0,2025-08-22,2025-07-29,株式会社ライジングサービスセンター,,株式会社,福岡県,福岡市早良区,城西１丁目５番３８－２０２号,,40,137,8140003,,,2025-07-29,清算の結了等,,,2017-04-14,1,,,,,ライジングサービスセンター,0
2097,8290001096605,登記記録の閉鎖等,0,2025-08-22,2025-07-29,株式会社ｔｒｉｐｌｅ,,株式会社,福岡県,福岡市博多区,博多駅東２丁目４番８号４Ｆ,,40,132,8120013,,,2025-07-29,清算の結了等,,,2022-03-04,1,,,,,トリプル,0
2099,8290002008427,登記記録の閉鎖等,0,2025-08-22,2025-07-29,有限会社タザキミート,,有限会社,福岡県,福岡市早良区,梅林７丁目１６番１５号,,40,137,8140172,,,2025-07-29,清算の結了等,,,2015-10-05,1,,,,,タザキミート,0
2100,8290002031148,登記記録の閉鎖等,0,2025-08-22,2025-07-29,有限会社イサコウ,,有限会社,福岡県,那珂川市,大字上梶原９３５番１,,40,231,8111223,,,2025-07-29,清算の結了等,,,2015-10-05,1,,,,,イサコウ,0
2103,8310002017433,登記記録の閉鎖等,0,2025-08-22,2025-08-18,有限会社トップドライ,,有限会社,長崎県,大村市,松並１丁目１９５番地２,,42,205,8560814,,,2025-08-18,清算の結了等,,,2015-10-05,1,,,,,トップドライ,0
2124,8380002025834,登記記録の閉鎖等,0,2025-08-22,2025-08-05,有限会社フルーツ久一,,有限会社,福島県,いわき市,小名浜字蛭川南５番地の６,,07,204,9718101,,,2025-08-05,清算の結了等,,,2015-10-05,1,,,,,フルーツキュウイチ,0
2127,8400001007046,登記記録の閉鎖等,0,2025-08-22,2025-08-19,株式会社斉藤工業所,,株式会社,岩手県,下閉伊郡山田町,荒川第８地割５７番地２,,03,482,0281303,,,2025-08-19,清算の結了等,,,2015-10-05,1,,,,,サイトウコウギョウショ,0
2136,8420005005531,登記記録の閉鎖等,0,2025-08-22,2025-08-07,一般社団法人上北地方教育会館,,その他の設立登記法人,青森県,十和田市,西三番町４番１０号,,02,206,0340083,,,2025-08-07,清算の結了等,,,2015-10-05,1,,,,,カミキタチホウキョウイクカイカン,0
2144,8480002001800,登記記録の閉鎖等,0,2025-08-22,2025-08-21,有限会社小林商店,,有限会社,徳島県,徳島市,国府町早淵４３１番地,,36,201,7793125,,,2025-08-21,清算の結了等,,,2015-10-05,1,,,,,,0
2145,9010001042825,登記記録の閉鎖等,0,2025-08-22,2025-07-23,株式会社ケーイー設計,,株式会社,東京都,文京区,小石川２丁目２２番２号,,13,105,1120002,,,2025-07-23,清算の結了等,,,2015-10-05,1,,,,,ケーイーセッケイ,0
2147,9010001078860,登記記録の閉鎖等,0,2025-08-22,2025-07-25,株式会社イグレックＳＳＤＩ,,株式会社,東京都,中央区,京橋２丁目７番１４号,,13,102,1040031,,,2025-07-25,清算の結了等,,,2015-10-05,1,,,,,イグレックエスエスディーアイ,0
2188,9010902005343,登記記録の閉鎖等,0,2025-08-22,2025-08-19,有限会社ケイ・アンド・ケイ,,有限会社,東京都,世田谷区,三軒茶屋２丁目４９番６－２０４号,,13,112,1540024,,,2025-08-19,清算の結了等,,,2015-10-05,1,,,,,ケイアンドケイ,0
2216,9013301002572,登記記録の閉鎖等,0,2025-08-22,2025-08-04,喜久良工業株式会社,,株式会社,東京都,豊島区,池袋２丁目７５番７号,,13,116,1710014,,,2025-08-04,清算の結了等,,,2015-10-05,1,,,,,キクラコウギョウ,0
2222,9020001072648,登記記録の閉鎖等,0,2025-08-22,2025-08-05,菊三建設株式会社,,株式会社,神奈川県,川崎市川崎区,藤崎４丁目２７番８号,,14,131,2100804,,,2025-08-05,清算の結了等,,,2015-10-05,1,,,,,キクサンケンセツ,0
2226,9020005004218,登記記録の閉鎖等,0,2025-08-22,2025-08-01,特定非営利活動法人地球温暖化防止協会,,その他の設立登記法人,神奈川県,横浜市金沢区,能見台２丁目３番１０,,14,108,2360057,,,2025-08-01,清算の結了等,,,2015-10-05,1,,,,,チキュウオンダンカボウシキョウカイ,0
2230,9021002013665,登記記録の閉鎖等,0,2025-08-22,2025-08-06,有限会社リワーク,,有限会社,神奈川県,茅ヶ崎市,浜之郷３９８番地,,14,207,2530086,,,2025-08-06,清算の結了等,,,2015-10-05,1,,,,,リワーク,0
2231,9021002039917,登記記録の閉鎖等,0,2025-08-22,2025-08-06,有限会社阿部電機製作所,,有限会社,神奈川県,大和市,南林間１丁目７番１２号,,14,213,2420006,,,2025-08-06,清算の結了等,,,2015-10-05,1,,,,,アベデンキセイサクジョ,0
2237,9030002026651,登記記録の閉鎖等,0,2025-08-22,2025-08-13,有限会社円興業,,有限会社,埼玉県,蕨市,錦町５丁目１番１１号,,11,223,3350005,,,2025-08-13,清算の結了等,,,2015-10-05,1,,,,,マドカコウギョウ,0
2248,9040003008821,登記記録の閉鎖等,0,2025-08-22,2025-07-31,コンフィアンサ合同会社,,合同会社,千葉県,船橋市,三咲６丁目２６番１０号,,12,204,2740812,,,2025-07-31,清算の結了等,,,2016-07-19,1,,,,,コンフィアンサ,0
2257,9060002019504,登記記録の閉鎖等,0,2025-08-22,2025-08-12,有限会社石川商事,,有限会社,栃木県,鹿沼市,上野町２０３番地１,,09,205,3220021,,,2025-08-12,清算の結了等,,,2015-10-05,1,,,,,イシカワショウジ,0
2264,9080401012529,登記記録の閉鎖等,0,2025-08-22,2025-08-15,ＫＳ電気株式会社,,株式会社,静岡県,浜松市浜名区,新都田２丁目３０番７号,,22,139,4312103,,,2025-08-15,清算の結了等,,,2015-10-05,1,,,,,ケイエスデンキ,0
2273,9100002029903,登記記録の閉鎖等,0,2025-08-22,2025-08-18,有限会社クドウ総業,,有限会社,長野県,茅野市,金沢２８１番地２,,20,214,3910012,,,2025-08-18,清算の結了等,,,2015-10-05,1,,,,,クドウソウギョウ,0
2275,9100005007047,登記記録の閉鎖等,0,2025-08-22,2025-08-20,特定非営利活動法人リビング,,その他の設立登記法人,長野県,松本市,野溝東１丁目４番２６号,,20,202,3990034,,,2025-08-20,清算の結了等,,,2015-10-05,1,,,,,リビング,0
2302,9130002011115,登記記録の閉鎖等,0,2025-08-22,2025-08-01,有限会社大成浄美社,,有限会社,京都府,京都市南区,吉祥院新田二ノ段町５８番地の２,,26,107,6010000,,,2025-08-01,合併による解散等,5130001042206,令和７年８月１日京都市北区平野上柳町１１０番地１株式会社ショウ・コーポレーション（5130001042206）に合併し解散,2015-10-05,1,,,,,タイセイジョウビシャ,0
2304,9130005007721,登記記録の閉鎖等,0,2025-08-22,2025-08-04,京都そのべ市場事業協同組合,,その他の設立登記法人,京都府,南丹市,園部町本町１０６番地田中方,,26,213,6220013,,,2025-08-04,清算の結了等,,,2015-10-05,1,,,,,キョウトソノベイチバ,0
2306,9140001046243,登記記録の閉鎖等,0,2025-08-22,2025-08-18,株式会社神洋,,株式会社,兵庫県,加古川市,加古川町稲屋４０６番地の１４,,28,210,6750034,,,2025-08-18,清算の結了等,,,2015-10-05,1,,,,,シンヨウ,0
2308,9140002055714,登記記録の閉鎖等,0,2025-08-22,2025-08-12,有限会社ウイングス,,有限会社,兵庫県,西宮市,高塚町７番２０－３１５号,,28,204,6620066,,,2025-08-12,清算の結了等,,,2015-10-05,1,,,,,ウイングス,0
2309,9140003007433,登記記録の閉鎖等,0,2025-08-22,2025-08-18,ＨＩＵコミュニケーションサービス工場合同会社,,合同会社,兵庫県,姫路市,大黒壱丁町５３番地コーポヨシダ３０２号室,,28,201,6700853,,,2025-08-18,清算の結了等,,,2015-10-05,1,,,,,エイチアイユーコミュニケーションサービスコウジョウ,0
2317,9180003019482,登記記録の閉鎖等,0,2025-08-22,2025-08-07,９０５Ｇａｒａｇｅ合同会社,,合同会社,愛知県,豊川市,牧野町１丁目９２番地フェイスピュア２０１号,,23,207,4420806,,,2025-08-07,清算の結了等,,,2018-12-04,1,,,,,キュウマルゴガレージ,0
2320,9190001001334,登記記録の閉鎖等,0,2025-08-22,2025-08-20,株式会社スギヤマ,,株式会社,三重県,津市,久居新町６８０番地の４,,24,201,5141118,,,2025-08-20,清算の結了等,,,2015-10-05,1,,,,,スギヤマ,0
2321,9190002002389,登記記録の閉鎖等,0,2025-08-22,2025-07-30,長谷川設備有限会社,,有限会社,三重県,津市,安濃町内多２５１６番地,,24,201,5142303,,,2025-07-30,清算の結了等,,,2015-10-05,1,,,,,ハセガワセツビ,0
2323,9210003000587,登記記録の閉鎖等,0,2025-08-22,2025-08-18,合同会社よし,,合同会社,福井県,福井市,高木町３２－１－１０,,18,201,9100806,,,2025-08-18,清算の結了等,,,2015-10-05,1,,,,,ヨシ,0
2324,9230002014207,登記記録の閉鎖等,0,2025-08-22,2025-08-20,ＨＴ興業有限会社,,有限会社,富山県,射水市,今開発４８２番地,,16,211,9390286,,,2025-08-20,清算の結了等,,,2015-10-05,1,,,,,エッチティーコウギョウ,0
2347,9360002020010,登記記録の閉鎖等,0,2025-08-22,2025-08-04,有限会社屋嘉運送,,有限会社,沖縄県,国頭郡金武町,字屋嘉２５５７番地,,47,314,9041203,,,2025-08-04,合併による解散等,5360001012747,令和７年８月１日沖縄県国頭郡金武町字屋嘉２５９８番地株式会社屋嘉実業（5360001012747）に合併し解散,2015-10-05,1,,,,,ヤカウンソウ,0
2351,9380001005670,登記記録の閉鎖等,0,2025-08-22,2025-08-04,株式会社大晃商事,,株式会社,福島県,郡山市,小原田１丁目５番１２号,,07,203,9638835,,,2025-08-04,清算の結了等,,,2015-10-05,1,,,,,タイコウショウジ,0
2358,9410002013644,登記記録の閉鎖等,0,2025-08-22,2025-08-19,有限会社北都測量設計,,有限会社,秋田県,横手市,大森町字大森３４番地,,05,203,0130521,,,2025-08-19,清算の結了等,,,2015-10-05,1,,,,,ホクトソクリョウセッケイ,0
2370,9470002009777,登記記録の閉鎖等,0,2025-08-22,2025-08-19,有限会社フラワー保険サービス,,有限会社,香川県,高松市,香川町浅野６５５番地５,,37,201,7611703,,,2025-08-19,清算の結了等,,,2015-10-05,1,,,,,フラワーホケンサービス,0
2372,9480005003644,登記記録の閉鎖等,0,2025-08-22,2025-08-21,特定非営利活動法人さわやか徳島,,その他の設立登記法人,徳島県,板野郡藍住町,東中富字龍池傍示７６番地の７,,36,403,7711220,,,2025-08-21,清算の結了等,,,2015-10-05,1,,,,,サワヤカトクシマ,0
