sequenceNumber,corporateNumber,process,correct,updateDate,changeDate,name,nameImageId,kind,prefectureName,cityName,streetNumber,addressImageId,prefectureCode,cityCode,postCode,addressOutside,addressOutsideImageId,closeDate,closeCause,successorCorporateNumber,changeCause,assignmentDate,latest,enName,enPrefectureName,enCityName,enAddressOutside,furigana,hihyoji
8,1010001261853,新規,0,2026-01-26,2026-01-26,株式会社金泰洋,,株式会社,東京都,文京区,湯島３丁目３５番１０号,,13,105,1130034,,,,,,,2026-01-26,1,,,,,キンタイヨウ,0
9,1010001262166,新規,0,2026-01-26,2026-01-26,株式会社ラピアス,,株式会社,東京都,千代田区,岩本町１丁目３番１号,,13,101,1010032,,,,,,,2026-01-26,1,,,,,ラピアス,0
10,1010001262199,新規,0,2026-01-26,2026-01-26,ＮＹＣＩ１９ＨＤ株式会社,,株式会社,東京都,中央区,新川１丁目６番１１号,,13,102,1040033,,,,,,,2026-01-26,1,,,,,エヌワイシーアイナインティーンエイチディー,0
11,1010001262208,新規,0,2026-01-26,2026-01-26,株式会社綯う,,株式会社,東京都,中央区,銀座１丁目１２番４号Ｎ＆ＥＢＬＤ．６Ｆ,,13,102,1040061,,,,,,,2026-01-26,1,,,,,ナウ,0
12,1010001262240,新規,0,2026-01-26,2026-01-26,ＴＣＧ２５１３株式会社,,株式会社,東京都,千代田区,丸の内１丁目５番１号,,13,101,1000005,,,,,,,2026-01-26,1,,,,,ティーシージーニーゴーイチサン,0
15,1010003050123,新規,0,2026-01-26,2026-01-26,合同会社Ｃａｓｔｅｌｂｌａｎｃｏ　Ｓｏｌｕｔｉｏｎｓ,,合同会社,東京都,文京区,本郷５丁目１番１１号ＫＩＩＨＯＵＳＥ（キーハウス）２０２,,13,105,1130033,,,,,,,2026-01-26,1,,,,,カステルブランコソリューションズ,0
16,1010003050148,新規,0,2026-01-26,2026-01-26,合同会社Ｋｉｒａｐｏ,,合同会社,東京都,千代田区,神田和泉町１番地６－１６ヤマトビル４０５,,13,101,1010024,,,,,,,2026-01-26,1,,,,,キラポ,0
17,1010003050156,新規,0,2026-01-26,2026-01-26,合同会社トラストデュアリス２,,合同会社,東京都,千代田区,丸の内１丁目４番１号東京共同会計事務所内,,13,101,1000005,,,,,,,2026-01-26,1,,,,,トラストデュアリスツー,0
20,1010005041277,新規,0,2026-01-26,2026-01-26,ホリデイホールディング一般社団法人,,その他の設立登記法人,東京都,千代田区,丸の内１丁目４番１号東京共同会計事務所内,,13,101,1000005,,,,,,,2026-01-26,1,,,,,ホリデイホールディング,0
35,1010403037125,新規,0,2026-01-26,2026-01-26,Ｋｏｓｋｉｓｅｎ合同会社,,合同会社,東京都,港区,西新橋１丁目２番９号日比谷セントラルビル１４階,,13,103,1050003,,,,,,,2026-01-26,1,,,,,コスキセン,0
42,1010501055318,新規,0,2026-01-26,2026-01-26,株式会社ジャパゲートシステムズ,,株式会社,東京都,台東区,竜泉２丁目６番８－３０４号コンフォリア上野入谷,,13,106,1100012,,,,,,,2026-01-26,1,,,,,ジャパゲートシステムズ,0
43,1010703008107,新規,0,2026-01-26,2026-01-26,合同会社ＲＳＥ,,合同会社,東京都,品川区,北品川２丁目２番２２号リプロン北品川２０２,,13,109,1400001,,,,,,,2026-01-26,1,,,,,アールエスイー,0
71,1010903010531,新規,0,2026-01-26,2026-01-26,スパイラルサン合同会社,,合同会社,東京都,世田谷区,世田谷２丁目１１－１６プロスペアー世田谷上町３０１,,13,112,1540017,,,,,,,2026-01-26,1,,,,,スパイラルサン,0
81,1011201026922,新規,0,2026-01-26,2026-01-26,株式会社広報,,株式会社,東京都,中野区,中野５丁目６７番７号プラザ中野８０１,,13,114,1640001,,,,,,,2026-01-26,1,,,,,コウホウ,0
84,1011403005006,新規,0,2026-01-26,2026-01-26,合同会社ＺＴＭＹ,,合同会社,東京都,板橋区,成増２丁目２６番３－４０３号,,13,119,1750094,,,,,,,2026-01-26,1,,,,,ジーティーエムワイ,0
175,1011803007295,新規,0,2026-01-26,2026-01-26,合同会社ＳＢＧＧ,,合同会社,東京都,足立区,梅田６丁目９番３－３０８号オーベル梅島グレースガーデン,,13,121,1230851,,,,,,,2026-01-26,1,,,,,エスビージージー,0
181,1012301014692,新規,0,2026-01-26,2026-01-26,グリーンプロジェクト株式会社,,株式会社,東京都,町田市,能ヶ谷１丁目１４番２６号,,13,209,1950053,,,,,,,2026-01-26,1,,,,,グリーンプロジェクト,0
193,1020001166746,新規,0,2026-01-26,2026-01-26,アイサミット株式会社,,株式会社,神奈川県,横浜市保土ケ谷区,川島町１１９９番地４,,14,106,2400045,,,,,,,2026-01-26,1,,,,,アイサミット,0
194,1020001166795,新規,0,2026-01-26,2026-01-26,株式会社イグナイトパートナーズ,,株式会社,神奈川県,川崎市麻生区,上麻生３丁目２２番６号,,14,137,2150021,,,,,,,2026-01-26,1,,,,,イグナイトパートナーズ,0
195,1020001166820,新規,0,2026-01-26,2026-01-26,株式会社ＤＣＴ,,株式会社,神奈川県,横浜市港北区,日吉本町１丁目１９番１２号ビッグガーデン日吉２階,,14,109,2230062,,,,,,,2026-01-26,1,,,,,ディーシーティー,0
196,1020001166861,新規,0,2026-01-26,2026-01-26,株式会社ＭＹＫ,,株式会社,神奈川県,川崎市宮前区,小台１丁目５番地６ザ・パークハウス鷲沼２１２,,14,136,2160007,,,,,,,2026-01-26,1,,,,,エムワイケー,0
200,1020003030090,新規,0,2026-01-26,2026-01-26,アドバンス・アセット・マネジメント合同会社,,合同会社,神奈川県,横浜市西区,北幸２丁目１０番４８号むつみビル３階,,14,103,2200004,,,,,,,2026-01-26,1,,,,,アドバンスアセットマネジメント,0
202,1020005017128,新規,0,2026-01-26,2026-01-26,特定非営利活動法人みらころ,,その他の設立登記法人,神奈川県,横浜市戸塚区,前田町５１１番地２前田ハイツ２棟２１４号,,14,110,2440804,,,,,,,2026-01-26,1,,,,,ミラコロ,0
204,1021001087247,新規,0,2026-01-26,2026-01-26,株式会社ＨＩＴＯＴＳＵＧＵ,,株式会社,神奈川県,海老名市,門沢橋２丁目５番２３－３号,,14,215,2430426,,,,,,,2026-01-26,1,,,,,ヒトツグ,0
205,1021001087313,新規,0,2026-01-26,2026-01-26,株式会社だいふく,,株式会社,神奈川県,相模原市中央区,光が丘２丁目１番６号,,14,152,2520227,,,,,,,2026-01-26,1,,,,,ダイフク,0
210,1030001170607,新規,0,2026-01-26,2026-01-26,株式会社ｋｏｃｃｈｉ,,株式会社,埼玉県,和光市,新倉２丁目６－８０カーサフィオーレ２１０３,,11,229,3510115,,,,,,,2026-01-26,1,,,,,コッチ,0
211,1030001170714,新規,0,2026-01-26,2026-01-26,株式会社グランドプランニング,,株式会社,埼玉県,さいたま市西区,大字西新井４６２－６,,11,101,3310049,,,,,,,2026-01-26,1,,,,,グランドプランニング,0
217,1030005022382,新規,0,2026-01-26,2026-01-26,一般社団法人ハルモニア,,その他の設立登記法人,埼玉県,所沢市,東住吉１８番地１４,,11,208,3591124,,,,,,,2026-01-26,1,,,,,ハルモニア,0
297,1040001142200,新規,0,2026-01-26,2026-01-26,株式会社ＩＭＣ,,株式会社,千葉県,流山市,南流山８丁目２３番地の６,,12,220,2700163,,,,,,,2026-01-26,1,,,,,アイエムシー,0
298,1040001142241,新規,0,2026-01-26,2026-01-26,株式会社Ｌｕｍｕ,,株式会社,千葉県,千葉市中央区,中央２丁目２番１６号エクセレントザタワー１０１２号,,12,101,2600013,,,,,,,2026-01-26,1,,,,,ルム,0
319,1040003029346,新規,0,2026-01-26,2026-01-26,合同会社シマ商事,,合同会社,千葉県,柏市,西原６丁目６番１５－１０４号,,12,217,2770885,,,,,,,2026-01-26,1,,,,,シマショウジ,0
335,1070001043767,新規,0,2026-01-26,2026-01-26,ＩＩＮＥ株式会社,,株式会社,群馬県,前橋市,千代田町１丁目１４番１７号,,10,201,3710022,,,,,,,2026-01-26,1,,,,,イイネ,0
336,1080001027397,新規,0,2026-01-26,2026-01-26,株式会社福工房ホールディングス,,株式会社,静岡県,静岡市駿河区,下川原６丁目２６番８号,,22,102,4210113,,,,,,,2026-01-26,1,,,,,フクコウボウホールディングス,0
338,1080103003511,新規,0,2026-01-26,2026-01-26,おくら寺子屋わくわくクラブ合同会社,,合同会社,静岡県,御殿場市,二枚橋２２番地,,22,215,4120021,,,,,,,2026-01-26,1,,,,,オクラテラコヤワクワククラブ,0
340,1090001019708,新規,0,2026-01-26,2026-01-26,株式会社ネオシャイン,,株式会社,山梨県,甲府市,上町９１０番地３,,19,201,4000831,,,,,,,2026-01-26,1,,,,,ネオシャイン,0
436,1110003006049,新規,0,2026-01-26,2026-01-26,合同会社Ｋ総合サービス,,合同会社,新潟県,見附市,新町１丁目８番１０号,,15,211,9540057,,,,,,,2026-01-26,1,,,,,ケイソウゴウサービス,0
452,1120001283630,新規,0,2026-01-26,2026-01-26,株式会社ル・セルク,,株式会社,大阪府,大阪市天王寺区,国分町１８－１９－１階,,27,109,5430044,,,,,,,2026-01-26,1,,,,,ルセルク,0
453,1120001283639,新規,0,2026-01-26,2026-01-26,株式会社ハナナハーツ,,株式会社,大阪府,大阪市北区,梅田１丁目２番２号大阪駅前第２ビル１２階１２号,,27,127,5300001,,,,,,,2026-01-26,1,,,,,ハナナハーツ,0
454,1120001283671,新規,0,2026-01-26,2026-01-26,株式会社古美術赤松,,株式会社,大阪府,大阪市西成区,千本南１丁目１２番１８号,,27,122,5570055,,,,,,,2026-01-26,1,,,,,コビジュツアカマツ,0
456,1120003031764,新規,0,2026-01-26,2026-01-26,合同会社天王寺スタッフィング,,合同会社,大阪府,大阪市阿倍野区,昭和町４丁目１１番４号,,27,119,5450011,,,,,,,2026-01-26,1,,,,,テンノウジスタッフィング,0
461,1120103006963,新規,0,2026-01-26,2026-01-26,合同会社Ｓｏｃｉａｌ　Ｗｅａｖｅｒｓ,,合同会社,大阪府,堺市西区,浜寺諏訪森町東１丁３４番地４アビテ諏訪森２０３号,,27,144,5928349,,,,,,,2026-01-26,1,,,,,ソーシャルウィーバーズ,0
466,1130003011105,新規,0,2026-01-26,2026-01-26,合同会社スタジオ禅,,合同会社,京都府,京都市左京区,下鴨梅ノ木町６４,,26,103,6060851,,,,,,,2026-01-26,1,,,,,スタジオゼン,0
471,1140001141456,新規,0,2026-01-26,2026-01-26,株式会社Ｒ,,株式会社,兵庫県,宝塚市,中山桜台７丁目１番１号,,28,214,6650877,,,,,,,2026-01-26,1,,,,,アール,0
472,1140001141480,新規,0,2026-01-26,2026-01-26,株式会社Ｋオート,,株式会社,兵庫県,西宮市,生瀬町１丁目２３番３号,,28,204,6691102,,,,,,,2026-01-26,1,,,,,ケイオート,0
473,1140001141489,新規,0,2026-01-26,2026-01-26,株式会社リオン,,株式会社,兵庫県,神戸市東灘区,住吉宮町６丁目１番５号,,28,101,6580053,,,,,,,2026-01-26,1,,,,,リオン,0
477,1180001170385,新規,0,2026-01-26,2026-01-26,津島株式会社,,株式会社,愛知県,津島市,牛田町字天越２６番地,,23,208,4960018,,,,,,,2026-01-26,1,,,,,ツシマ,0
478,1180001170393,新規,0,2026-01-26,2026-01-26,株式会社ＥＡＳＴ８,,株式会社,愛知県,半田市,東雲町１０番地の１,,23,205,4750872,,,,,,,2026-01-26,1,,,,,イーストエイト,0
479,1180001170402,新規,0,2026-01-26,2026-01-26,株式会社フジワラ,,株式会社,愛知県,名古屋市中川区,尾頭橋３丁目１４番１２号,,23,110,4540012,,,,,,,2026-01-26,1,,,,,フジワラ,0
480,1180001170410,新規,0,2026-01-26,2026-01-26,株式会社マイティー・スタッフ,,株式会社,愛知県,知多郡美浜町,大字河和字岡ノ脇１２８番地１５,,23,446,4702404,,,,,,,2026-01-26,1,,,,,マイティースタッフ,0
483,1180003029662,新規,0,2026-01-26,2026-01-26,シン・ビーズ合同会社,,合同会社,愛知県,江南市,飛高町泉１３７番地３ダイアパレス江南２０９号,,23,217,4838333,,,,,,,2026-01-26,1,,,,,シンビーズ,0
484,1180003029679,新規,0,2026-01-26,2026-01-26,合同会社高原川ＤＰ水力,,合同会社,愛知県,名古屋市名東区,小井堀町４０５番地の１,,23,115,4650044,,,,,,,2026-01-26,1,,,,,タカハラガワディーピースイリョク,0
491,1210001020470,新規,0,2026-01-26,2026-01-26,株式会社ＹＡＭＡＸ,,株式会社,福井県,福井市,和田東２丁目１２０３番地,,18,201,9188237,,,,,,,2026-01-26,1,,,,,ヤマックス,0
492,1210003001989,新規,0,2026-01-26,2026-01-26,合同会社ＡＲＩＫＡ　ＥＳＴＡＴＥ,,合同会社,福井県,福井市,下森田本町１－８,,18,201,9100144,,,,,,,2026-01-26,1,,,,,アリカエステート,0
502,1240005016033,新規,0,2026-01-26,2026-01-26,特定非営利活動法人ドリームサポート,,その他の設立登記法人,広島県,広島市佐伯区,石内南２丁目１３番７号,,34,108,7315108,,,,,,,2026-01-26,1,,,,,ドリームサポート,0
506,1250001021515,新規,0,2026-01-26,2026-01-26,株式会社Ｓｕｇａｒ,,株式会社,山口県,下関市,大字延行６８１番地２,,35,201,7510867,,,,,,,2026-01-26,1,,,,,シュガー,0
507,1260001040927,新規,0,2026-01-26,2026-01-26,Ｃｈｅｓ　Ｉｎ株式会社,,株式会社,岡山県,岡山市北区,下中野３２０―１０７,,33,101,7000973,,,,,,,2026-01-26,1,,,,,チェスイン,0
515,1290001112772,新規,0,2026-01-26,2026-01-26,株式会社ＮＯＭＡＤ’ｓ,,株式会社,福岡県,糟屋郡志免町,志免中央３丁目２番８－１０１号,,40,343,8112244,,,,,,,2026-01-26,1,,,,,ノマズ,0
516,1290001112896,新規,0,2026-01-26,2026-01-26,ＡＸＩＳ株式会社,,株式会社,福岡県,久留米市,諏訪野町２０２５番地１,,40,203,8300037,,,,,,,2026-01-26,1,,,,,アクシス,0
517,1290001112913,新規,0,2026-01-26,2026-01-26,株式会社ＴＯＩＲＯ,,株式会社,福岡県,宗像市,野坂２７３９番地５,,40,220,8113423,,,,,,,2026-01-26,1,,,,,トイロ,0
523,1290003017961,新規,0,2026-01-26,2026-01-26,合同会社ＣｈａｐｔｅｒＳｕｎ,,合同会社,福岡県,福岡市中央区,那の川２丁目１１番４号エトス平尾２１２,,40,133,8100015,,,,,,,2026-01-26,1,,,,,チャプターサン,0
524,1290003017978,新規,0,2026-01-26,2026-01-26,合同会社ＢＬＯＯＭ．,,合同会社,福岡県,福岡市中央区,六本松４丁目３－１１ビジネスワン６１２,,40,133,8100044,,,,,,,2026-01-26,1,,,,,ブルーム,0
528,1310001019932,新規,0,2026-01-26,2026-01-26,大和総合建設株式会社,,株式会社,長崎県,大村市,東大村２丁目１６１６番地９４,,42,205,8560032,,,,,,,2026-01-26,1,,,,,ヤマトソウゴウケンセツ,0
538,1340001027924,新規,0,2026-01-26,2026-01-26,創造研究デザイン機構株式会社,,株式会社,鹿児島県,奄美市,名瀬塩浜町１７番７号,,46,222,8940035,,,,,,,2026-01-26,1,,,,,ソウゾウケンキュウデザインキコウ,0
571,1410001014378,新規,0,2026-01-26,2026-01-26,千石Ｆ株式会社,,株式会社,秋田県,仙北市,田沢湖生保内字阿気１２８番地,,05,215,0141201,,,,,,,2026-01-26,1,,,,,センゴクエフ,0
573,1430001096118,新規,0,2026-01-26,2026-01-26,株式会社Ｎｏｒｔｈ　Ｓｙｎｅｒｇｙ,,株式会社,北海道,樺戸郡月形町,１０１１番地２８３,,01,430,0610500,,,,,,,2026-01-26,1,,,,,ノースシナジー,0
575,1450001014845,新規,0,2026-01-26,2026-01-26,株式会社絆里,,株式会社,北海道,旭川市,神楽岡十四条３丁目６番９号,,01,204,0788324,,,,,,,2026-01-26,1,,,,,バンリ,0
576,1450003002765,新規,0,2026-01-26,2026-01-26,マルカン漁業合同会社,,合同会社,北海道,稚内市,宗谷岬９番７２号,,01,214,0986758,,,,,,,2026-01-26,1,,,,,マルカンギョギョウ,0
578,1500001026744,新規,0,2026-01-26,2026-01-26,Ａｃｔｉｖａｔｉｏｎ　Ｐａｒｔｎｅｒｓ株式会社,,株式会社,愛媛県,西条市,小松町妙口甲２４番地７,,38,206,7991104,,,,,,,2026-01-26,1,,,,,アクティベーションパートナーズ,0
597,2010001261836,新規,0,2026-01-26,2026-01-26,株式会社ＫＴＩＧ　ＨＤ,,株式会社,東京都,千代田区,九段南１丁目６番１７号千代田会館３階,,13,101,1020074,,,,,,,2026-01-26,1,,,,,ケイティーアイジーホールディングス,0
598,2010001262124,新規,0,2026-01-26,2026-01-26,株式会社Ｓ‐Ｔｒｕｓｔプロパティーズ,,株式会社,東京都,千代田区,九段北１丁目６番５号,,13,101,1020073,,,,,,,2026-01-26,1,,,,,エストラストプロパティーズ,0
599,2010001262256,新規,0,2026-01-26,2026-01-26,株式会社ＦＡＮＧＯ,,株式会社,東京都,千代田区,神田小川町１丁目８番３号,,13,101,1010052,,,,,,,2026-01-26,1,,,,,ファンゴ,0
600,2010001262280,新規,0,2026-01-26,2026-01-26,株式会社Ｃａｔａｌｙｓｔ．,,株式会社,東京都,中央区,銀座１丁目１２番４号Ｎ＆ＥＢＬＤ．６Ｆ,,13,102,1040061,,,,,,,2026-01-26,1,,,,,カタリスト,0
603,2010003050155,新規,0,2026-01-26,2026-01-26,合同会社トラストデュアリス１,,合同会社,東京都,千代田区,丸の内１丁目４番１号東京共同会計事務所内,,13,101,1000005,,,,,,,2026-01-26,1,,,,,トラストデュアリスワン,0
608,2010401195568,新規,0,2026-01-26,2026-01-26,Ａｘｉｓｔ株式会社,,株式会社,東京都,港区,南青山２丁目２番１５号,,13,103,1070062,,,,,,,2026-01-26,1,,,,,アクシスト,0
609,2010401196021,新規,0,2026-01-26,2026-01-26,ＴＨＥＲＥ　ＩＳ株式会社,,株式会社,東京都,港区,芝３丁目２２番８号－１８０７,,13,103,1050014,,,,,,,2026-01-26,1,,,,,ゼアイズ,0
610,2010401196038,新規,0,2026-01-26,2026-01-26,株式会社ＦＯＲＥＳＴ　ＣＬＵＢ,,株式会社,東京都,港区,浜松町１丁目２０番１０号ライオネス浜松町５０６号,,13,103,1050013,,,,,,,2026-01-26,1,,,,,フォレストクラブ,0
611,2010403037099,新規,0,2026-01-26,2026-01-26,マルサネ合同会社,,合同会社,東京都,港区,高輪１丁目２７－３７－５０７,,13,103,1080074,,,,,,,2026-01-26,1,,,,,マルサネ,0
612,2010403037124,新規,0,2026-01-26,2026-01-26,合同会社ＡＣＴＡ,,合同会社,東京都,港区,芝浦４丁目１５番１－２１１１号,,13,103,1080023,,,,,,,2026-01-26,1,,,,,アクタ,0
613,2010405025283,新規,0,2026-01-26,2026-01-26,ＫＩＣ鳥栖特定目的会社,,その他の設立登記法人,東京都,港区,南青山４丁目２１番２６号リュエル青山Ｃ棟Ｂ１細谷総合会計事務所内,,13,103,1070062,,,,,,,2026-01-26,1,,,,,ケイアイシートス,0
616,2010501055283,新規,0,2026-01-26,2026-01-26,株式会社モジュール,,株式会社,東京都,台東区,浅草橋５丁目１９番８号１Ｆ,,13,106,1110053,,,,,,,2026-01-26,1,,,,,モジュール,0
617,2010503008149,新規,0,2026-01-26,2026-01-26,ドライブシティズ合同会社,,合同会社,東京都,台東区,小島２丁目２０番１１号,,13,106,1110056,,,,,,,2026-01-26,1,,,,,ドライブシティズ,0
619,2010601068615,新規,0,2026-01-26,2026-01-26,株式会社運転支援アカデミー,,株式会社,東京都,江東区,豊洲５丁目６番３６号豊洲プライムスクエア１０Ｆ,,13,108,1350061,,,,,,,2026-01-26,1,,,,,ウンテンシエンアカデミー,0
665,2011101114512,新規,0,2026-01-26,2026-01-26,尚輝株式会社,,株式会社,東京都,新宿区,西新宿３丁目３番１３号西新宿水間ビル２Ｆ,,13,104,1600023,,,,,,,2026-01-26,1,,,,,ショウキ,0
666,2011103016896,新規,0,2026-01-26,2026-01-26,オールブルー商事合同会社,,合同会社,東京都,新宿区,内藤町１－５５プライムアーバン新宿内藤町３０２,,13,104,1600014,,,,,,,2026-01-26,1,,,,,オールブルーショウジ,0
667,2011103016995,新規,0,2026-01-26,2026-01-26,Ｘａｏｓ　Ｈｏｌｄｉｎｇ合同会社,,合同会社,東京都,新宿区,四谷４丁目２９－３,,13,104,1600004,,,,,,,2026-01-26,1,,,,,カオスホールディング,0
674,2011503006844,新規,0,2026-01-26,2026-01-26,思義合同会社,,合同会社,東京都,荒川区,南千住３丁目２７－２浅草ビル５０８,,13,118,1160003,,,,,,,2026-01-26,1,,,,,シギ,0
675,2011601029301,新規,0,2026-01-26,2026-01-26,株式会社サン設計事務所,,株式会社,東京都,練馬区,関町南３丁目３１番１１－６０２号,,13,120,1770053,,,,,,,2026-01-26,1,,,,,サンセッケイジムショ,0
762,2011703004508,新規,0,2026-01-26,2026-01-26,メディカルアソシエーション合同会社,,合同会社,東京都,江戸川区,平井７丁目１３番１１－１０６号,,13,123,1320035,,,,,,,2026-01-26,1,,,,,メディカルアソシエーション,0
772,2012301014691,新規,0,2026-01-26,2026-01-26,株式会社ツカサ基工,,株式会社,東京都,町田市,大蔵町１４８９番地１４,,13,209,1950062,,,,,,,2026-01-26,1,,,,,ツカサキコウ,0
787,2013103001523,新規,0,2026-01-26,2026-01-26,リージョナルブランドマネジメント合同会社,,合同会社,東京都,青梅市,河辺町１丁目８１３－４アルシオン河辺４０５,,13,205,1980036,,,,,,,2026-01-26,1,,,,,リージョナルブランドマネジメント,0
796,2020001166828,新規,0,2026-01-26,2026-01-26,株式会社ｅｓｔ,,株式会社,神奈川県,横浜市中区,元町２丁目８７番９号ＫＯＹＯ元町ビル１Ｆ,,14,104,2310861,,,,,,,2026-01-26,1,,,,,エスト,0
808,2021005013520,新規,0,2026-01-26,2026-01-26,医療法人社団あめみや歯科医院,,その他の設立登記法人,神奈川県,秦野市,北矢名４９番地の１プラザＯＮＥＩ２階Ｂ号,00142330,14,211,2570006,,,,,,,2026-01-26,1,,,,,アメミヤシカイイン,0
813,2030001170696,新規,0,2026-01-26,2026-01-26,株式会社ＭａｓｔｅｒＰｉｅｃｅ,,株式会社,埼玉県,さいたま市南区,南浦和２丁目２２番１４－２０１号,,11,108,3360017,,,,,,,2026-01-26,1,,,,,マスターピース,0
823,2030003028521,新規,0,2026-01-26,2026-01-26,合同会社Ｌｕｐｉｃａ,,合同会社,埼玉県,狭山市,入間川３１４５番地の３２,,11,215,3501305,,,,,,,2026-01-26,1,,,,,ルピカ,0
824,2030005022398,新規,0,2026-01-26,2026-01-26,特定非営利活動法人フードバンク本庄４７,,その他の設立登記法人,埼玉県,本庄市,五十子３丁目８番１７号,,11,211,3670027,,,,,,,2026-01-26,1,,,,,フードバンクホンジョウヨンジュウナナ,0
913,2040001142216,新規,0,2026-01-26,2026-01-26,星隆地所株式会社,,株式会社,千葉県,千葉市中央区,中央４丁目１０番８号２０４号室,,12,101,2600013,,,,,,,2026-01-26,1,,,,,セイリュウジショ,0
914,2040001142240,新規,0,2026-01-26,2026-01-26,株式会社まりふれる,,株式会社,千葉県,船橋市,本町４丁目１３番２３号,,12,204,2730005,,,,,,,2026-01-26,1,,,,,マリフレル,0
954,2050001057900,新規,0,2026-01-26,2026-01-26,株式会社つむぎ不動産,,株式会社,茨城県,牛久市,女化町１０９８番地４,,08,219,3001214,,,,,,,2026-01-26,1,,,,,ツムギフドウサン,0
955,2050003009866,新規,0,2026-01-26,2026-01-26,合同会社優,,合同会社,茨城県,ひたちなか市,大字堀口７１－６,,08,221,3120034,,,,,,,2026-01-26,1,,,,,ユウ,0
957,2060001038957,新規,0,2026-01-26,2026-01-26,株式会社ＭＨ,,株式会社,栃木県,鹿沼市,上石川１０４０番地２,,09,205,3220015,,,,,,,2026-01-26,1,,,,,エムエイチ,0
963,2090001019707,新規,0,2026-01-26,2026-01-26,株式会社南アルプスパートナー,,株式会社,山梨県,南アルプス市,野牛島１８８２番地６１,,19,208,4000205,,,,,,,2026-01-26,1,,,,,ミナミアルプスパートナー,0
1060,2120001283596,新規,0,2026-01-26,2026-01-26,株式会社Ａｍｉｒ,,株式会社,大阪府,大阪市中央区,南船場３丁目２番２２号おおきに南船場ビル２０５,,27,128,5420081,,,,,,,2026-01-26,1,,,,,アミール,0
1061,2120001283654,新規,0,2026-01-26,2026-01-26,株式会社トール,,株式会社,大阪府,大阪市中央区,安堂寺町１丁目６番１４号モデラート上町台８０３号室,,27,128,5420061,,,,,,,2026-01-26,1,,,,,トール,0
1062,2120001283662,新規,0,2026-01-26,2026-01-26,叶隠商事株式会社,,株式会社,大阪府,大阪市西成区,梅南１丁目３番２１－１０２号,,27,122,5570033,,,,,,,2026-01-26,1,,,,,キョウインショウジ,0
1063,2120001283670,新規,0,2026-01-26,2026-01-26,株式会社リレイト,,株式会社,大阪府,大阪市西区,新町１丁目２番５号ケイエスビー新町ビル６階,,27,106,5500013,,,,,,,2026-01-26,1,,,,,リレイト,0
1068,2120903006047,新規,0,2026-01-26,2026-01-26,合同会社ふわふわのおうち,,合同会社,大阪府,茨木市,豊川１丁目３４番３号,,27,211,5670057,,,,,,,2026-01-26,1,,,,,フワフワノオウチ,0
1069,2120905006838,新規,0,2026-01-26,2026-01-26,医療法人ふじい歯科医院,,その他の設立登記法人,大阪府,箕面市,小野原西４丁目１番２７号,,27,220,5620032,,,,,,,2026-01-26,1,,,,,フジイシカイイン,0
1076,2130001081495,新規,0,2026-01-26,2026-01-26,株式会社マルタカ,,株式会社,京都府,京都市伏見区,羽束師志水町２０番地１６,,26,109,6128485,,,,,,,2026-01-26,1,,,,,マルタカ,0
1077,2130003011087,新規,0,2026-01-26,2026-01-26,ＥｎｊｏｙＬｉｆｅ１００合同会社,,合同会社,京都府,向日市,寺戸町八ノ坪１６６番地,,26,208,6170002,,,,,,,2026-01-26,1,,,,,エンジョイライフワンハンドレッド,0
1078,2130003011095,新規,0,2026-01-26,2026-01-26,合同会社ＨＯＰＥ,,合同会社,京都府,木津川市,木津宮ノ内１４－３,,26,214,6190214,,,,,,,2026-01-26,1,,,,,ホープ,0
1080,2140001141471,新規,0,2026-01-26,2026-01-26,株式会社エコ,,株式会社,兵庫県,神戸市西区,玉津町高津橋６３６番地１,,28,111,6512122,,,,,,,2026-01-26,1,,,,,エコ,0
1081,2140001141496,新規,0,2026-01-26,2026-01-26,株式会社大美クリーン,,株式会社,兵庫県,尼崎市,杭瀬南新町２丁目５番１７号Ｃ号,,28,202,6600822,,,,,,,2026-01-26,1,,,,,ダイビクリーン,0
1082,2150001028684,新規,0,2026-01-26,2026-01-26,株式会社ほそやＩＴパートナーズ,,株式会社,奈良県,生駒郡三郷町,城山台３丁目９番７号,,29,343,6360824,,,,,,,2026-01-26,1,,,,,ホソヤアイティーパートナーズ,0
1083,2170001018948,新規,0,2026-01-26,2026-01-26,株式会社時織,,株式会社,和歌山県,橋本市,あやの台２丁目３５－１,,30,203,6480019,,,,,,,2026-01-26,1,,,,,トキオリ,0
1086,2180001170137,新規,0,2026-01-26,2026-01-26,株式会社Ｏｎｅ　Ｎｅｓｔ,,株式会社,愛知県,名古屋市中区,丸の内３丁目１１番１４号,,23,106,4600002,,,,,,,2026-01-26,1,,,,,ワンネスト,0
1087,2180001170376,新規,0,2026-01-26,2026-01-26,ＡＳＴＥＲＩＳＥ株式会社,,株式会社,愛知県,名古屋市西区,名駅２丁目２７番８号名古屋プライムセントラルタワー３階,,23,104,4510045,,,,,,,2026-01-26,1,,,,,アステライズ,0
1088,2180001170418,新規,0,2026-01-26,2026-01-26,株式会社トリマ,,株式会社,愛知県,名古屋市東区,大松町６番１６号,,23,102,4610033,,,,,,,2026-01-26,1,,,,,トリマ,0
1100,2240001066080,新規,0,2026-01-26,2026-01-26,株式会社ＹＡＳＨＩＭＡ　Ｈｅｒｉｔａｇｅ　Ｈｏｌｄｉｎｇｓ,,株式会社,広島県,広島市中区,国泰寺町１丁目３番１５号,,34,101,7300042,,,,,,,2026-01-26,1,,,,,ヤシマヘリテージホールディングス,0
1104,2260001040926,新規,0,2026-01-26,2026-01-26,株式会社日本興林,,株式会社,岡山県,津山市,林田２３０番地１０,,33,203,7080822,,,,,,,2026-01-26,1,,,,,ニホンコウリン,0
1112,2290001112912,新規,0,2026-01-26,2026-01-26,株式会社Ｒｅｖ,,株式会社,福岡県,福岡市中央区,天神２丁目２番１２号Ｔ＆Ｊビルディング７Ｆ,,40,133,8100001,,,,,,,2026-01-26,1,,,,,レブ,0
1113,2290001112920,新規,0,2026-01-26,2026-01-26,株式会社Ｋ‐ＦＳ,,株式会社,福岡県,久留米市,山川町１３１９番地２２,,40,203,8390817,,,,,,,2026-01-26,1,,,,,ケイエフエス,0
1114,2290001112929,新規,0,2026-01-26,2026-01-26,Ｙ’ｓ　Ｈａｒｂｏｒ株式会社,,株式会社,福岡県,福岡市中央区,天神１丁目９番１７号福岡天神フコク生命ビル１５階,,40,133,8100001,,,,,,,2026-01-26,1,,,,,ワイズハーバー,0
1115,2290003017977,新規,0,2026-01-26,2026-01-26,合同会社ブルーベル,,合同会社,福岡県,福岡市中央区,大名２丁目１０番３８号１３１１号室,,40,133,8100041,,,,,,,2026-01-26,1,,,,,ブルーベル,0
1126,2360001036303,新規,0,2026-01-26,2026-01-26,株式会社美ら虹,,株式会社,沖縄県,那覇市,天久１丁目１６番８号,,47,201,9000005,,,,,,,2026-01-26,1,,,,,チュラヌージ,0
1153,2370001053421,新規,0,2026-01-26,2026-01-26,株式会社アゲイン,,株式会社,宮城県,仙台市青葉区,本町１丁目１４番１８－５０１号,,04,101,9800014,,,,,,,2026-01-26,1,,,,,アゲイン,0
1175,2380003006236,新規,0,2026-01-26,2026-01-26,合同会社ＺＥＮ,,合同会社,福島県,本宮市,糠沢字原１２７番,,07,214,9691204,,,,,,,2026-01-26,1,,,,,ゼン,0
1180,2430003018531,新規,0,2026-01-26,2026-01-26,笑實香合同会社,,合同会社,北海道,小樽市,銭函１丁目７－１００－１－３０６,,01,203,0470261,,,,,,,2026-01-26,1,,,,,エミカ,0
1184,2700150134129,新規,0,2026-01-26,2026-01-26,宇都宮駅西口大通り南地区市街地再開発組合,,その他,栃木県,宇都宮市,駅前通り３丁目１－１,,09,201,3210964,,,,,,,2026-01-26,1,,,,,ウツノミヤエキニシグチオオドオリミナミチクシガイチサイカイハツクミアイ,0
1187,3010001262197,新規,0,2026-01-26,2026-01-26,株式会社Ｔ’ｓコンサルティング,,株式会社,東京都,千代田区,神田神保町２丁目１０番３１号ＩＷビル１Ｆ,,13,101,1010051,,,,,,,2026-01-26,1,,,,,ティーズコンサルティング,0
1188,3010003050105,新規,0,2026-01-26,2026-01-26,サステナブルローンファンド３７号合同会社,,合同会社,東京都,中央区,京橋２丁目１２番６号ＡＯＪ税理士法人内,,13,102,1040031,,,,,,,2026-01-26,1,,,,,サステナブルローンファンドサンジュウナナゴウ,0
1189,3010003050113,新規,0,2026-01-26,2026-01-26,Ｆｕｎｃｔｉｏｎ　Ｏｎｅ　ＩＴ　Ｓｅｒｖｉｃｅｓ合同会社,,合同会社,東京都,中央区,日本橋３丁目９番１号日本橋三丁目スクエア１１階,,13,102,1030027,,,,,,,2026-01-26,1,,,,,ファンクションワンアイティーサービシーズ,0
1190,3010003050154,新規,0,2026-01-26,2026-01-26,合同会社朝日岳,,合同会社,東京都,千代田区,丸の内１丁目４番１号東京共同会計事務所内,,13,101,1000005,,,,,,,2026-01-26,1,,,,,アサヒダケ,0
1192,3010105002359,新規,0,2026-01-26,2026-01-26,一般社団法人Ｙａｙａｓａｎ　Ｋｅｓｅｊａｈｔｅｒａａｎ　Ｍａｄａｎｉ　Ｊｅｐａｎｇ,,その他の設立登記法人,東京都,八王子市,平岡町４０番９号,,13,201,1920061,,,,,,,2026-01-26,1,,,,,ヤヤサンケセジャフテラアンマダニジャパン,0
1200,3010401195848,新規,0,2026-01-26,2026-01-26,株式会社南の森,,株式会社,東京都,港区,西麻布３丁目１９番１０号,,13,103,1060031,,,,,,,2026-01-26,1,,,,,ミナミノモリ,0
1201,3010401196004,新規,0,2026-01-26,2026-01-26,株式会社ＮＥＸＴ　ＭＩＳＳＩＯＮ,,株式会社,東京都,港区,六本木６丁目１０番１号六本木ヒルズ森タワー１６階１７６３,,13,103,1060032,,,,,,,2026-01-26,1,,,,,ネクストミッション,0
1202,3010401196045,新規,0,2026-01-26,2026-01-26,石狩新電力株式会社,,株式会社,東京都,港区,高輪３丁目４番１号,,13,103,1080074,,,,,,,2026-01-26,1,,,,,イシカリシンデンリョク,0
1203,3010401196086,新規,0,2026-01-26,2026-01-26,Ｚｅｒｏｆｉｎｉｔｙ株式会社,,株式会社,東京都,港区,三田１丁目３番４０号天翔オフィス麻布十番３階３０５号室,,13,103,1080073,,,,,,,2026-01-26,1,,,,,ゼロフィニティ,0
1205,3010403037131,新規,0,2026-01-26,2026-01-26,合同会社ＬｏｋａｌＴｅａｍ,,合同会社,東京都,港区,北青山１丁目３‐３三橋ビル３階,,13,103,1070061,,,,,,,2026-01-26,1,,,,,ローカルチーム,0
1207,3010405025191,新規,0,2026-01-26,2026-01-26,一般社団法人ＳＩＧ,,その他の設立登記法人,東京都,港区,南青山３丁目１番３６号青山丸竹ビル６Ｆ,,13,103,1070062,,,,,,,2026-01-26,1,,,,,エスアイジー,0
1208,3010701048929,新規,0,2026-01-26,2026-01-26,ＹＨＤ株式会社,,株式会社,東京都,品川区,西大井５丁目１３番１７号,,13,109,1400015,,,,,,,2026-01-26,1,,,,,ワイエイチディー,0
1235,3010901058810,新規,0,2026-01-26,2026-01-26,株式会社ブレインスポーク・ジャパン,,株式会社,東京都,世田谷区,世田谷２丁目２７番７号,,13,112,1540017,,,,,,,2026-01-26,1,,,,,ブレインスポークジャパン,0
1236,3010901058819,新規,0,2026-01-26,2026-01-26,株式会社コペルス,,株式会社,東京都,世田谷区,太子堂４丁目１８番１５号マガザン三軒茶屋２－３階,,13,112,1540004,,,,,,,2026-01-26,1,,,,,コペルス,0
1239,3010903010570,新規,0,2026-01-26,2026-01-26,合同会社ＰＲＯＴＥＣＴ,,合同会社,東京都,世田谷区,奥沢１丁目１３番４号,,13,112,1580083,,,,,,,2026-01-26,1,,,,,プロテクト,0
1242,3011001175232,新規,0,2026-01-26,2026-01-26,株式会社Ｌｅａｄｅｃｋ,,株式会社,東京都,渋谷区,道玄坂１丁目１０番８号渋谷道玄坂東急ビル２Ｆ－Ｃ,,13,113,1500043,,,,,,,2026-01-26,1,,,,,リーデック,0
1246,3011103016912,新規,0,2026-01-26,2026-01-26,つむぐみらい合同会社,,合同会社,東京都,新宿区,西新宿３丁目３番１３号西新宿水間ビル２Ｆ,,13,104,1600023,,,,,,,2026-01-26,1,,,,,ツムグミライ,0
1247,3011301031218,新規,0,2026-01-26,2026-01-26,株式会社ＵＯＶＯ,,株式会社,東京都,杉並区,下高井戸５丁目９番４８号,,13,115,1680073,,,,,,,2026-01-26,1,,,,,ウォーヴォ,0
1353,3020001166744,新規,0,2026-01-26,2026-01-26,株式会社ルミナス,,株式会社,神奈川県,川崎市多摩区,登戸新町３２７番地ウィンベルリーク３０１号,,14,135,2140013,,,,,,,2026-01-26,1,,,,,ルミナス,0
1359,3021001087344,新規,0,2026-01-26,2026-01-26,ＮＥＳＴＯ株式会社,,株式会社,神奈川県,横須賀市,根岸町５丁目５番８号,,14,201,2390807,,,,,,,2026-01-26,1,,,,,ネスト,0
1366,3021003017035,新規,0,2026-01-26,2026-01-26,合同会社ＭＡＲＩＮＯＶＡ,,合同会社,神奈川県,横須賀市,長坂４丁目１３番１８号,,14,201,2400101,,,,,,,2026-01-26,1,,,,,マリノバ,0
1367,3021003017051,新規,0,2026-01-26,2026-01-26,合同会社三毛ラボラトリー,,合同会社,神奈川県,茅ヶ崎市,本村１丁目２番２０－９０３号エンゼル茅ヶ崎テラス,,14,207,2530042,,,,,,,2026-01-26,1,,,,,ミケラボラトリー,0
1374,3030001170431,新規,0,2026-01-26,2026-01-26,株式会社ワクワク計画,,株式会社,埼玉県,志木市,本町６丁目１８番５号,,11,228,3530004,,,,,,,2026-01-26,1,,,,,ワクワクケイカク,0
1375,3030001170662,新規,0,2026-01-26,2026-01-26,株式会社サンウェーブ,,株式会社,埼玉県,入間市,宮寺２８４５番地,,11,225,3580014,,,,,,,2026-01-26,1,,,,,サンウェーブ,0
1376,3030001170704,新規,0,2026-01-26,2026-01-26,株式会社ケーワプラマー,,株式会社,埼玉県,春日部市,中央７丁目１０番地３０,,11,214,3440067,,,,,,,2026-01-26,1,,,,,ケーワプラマー,0
1377,3030001170712,新規,0,2026-01-26,2026-01-26,株式会社サヒン,,株式会社,埼玉県,川口市,芝富士１丁目２６番９号フィオーレ１０２,,11,203,3330854,,,,,,,2026-01-26,1,,,,,サヒン,0
1384,3030003028504,新規,0,2026-01-26,2026-01-26,善和合同会社,,合同会社,埼玉県,和光市,白子２丁目１５－３９,,11,229,3510101,,,,,,,2026-01-26,1,,,,,ゼンワ,0
1385,3030003028512,新規,0,2026-01-26,2026-01-26,大熊商会合同会社,,合同会社,埼玉県,川口市,前川４丁目３０番３号,,11,203,3330842,,,,,,,2026-01-26,1,,,,,オオクマショウカイ,0
1386,3030003028520,新規,0,2026-01-26,2026-01-26,ＫＯＭＥＴ合同会社,,合同会社,埼玉県,新座市,野火止１丁目８番１８号,,11,230,3520011,,,,,,,2026-01-26,1,,,,,コメット,0
1388,3030005022397,新規,0,2026-01-26,2026-01-26,一般社団法人彩の国ハピネス会,,その他の設立登記法人,埼玉県,入間郡毛呂山町,大字毛呂本郷３８番地,,11,326,3500451,,,,,,,2026-01-26,1,,,,,サイノクニハピネスカイ,0
1497,3070001043765,新規,0,2026-01-26,2026-01-26,株式会社Ａｉｄｅａｌ　Ｓｏｌｕｔｉｏｎ,,株式会社,群馬県,高崎市,東貝沢町３丁目３９ー３,,10,202,3700041,,,,,,,2026-01-26,1,,,,,アイディールソリューション,0
1499,3080003003634,新規,0,2026-01-26,2026-01-26,合同会社ウェルメンタル,,合同会社,静岡県,静岡市駿河区,丸子５５４１番地の４５,,22,102,4210103,,,,,,,2026-01-26,1,,,,,ウェルメンタル,0
1508,3080401028398,新規,0,2026-01-26,2026-01-26,株式会社はぐめいど,,株式会社,静岡県,浜松市中央区,有玉南町１８６７－１,,22,138,4313122,,,,,,,2026-01-26,1,,,,,ハグメイド,0
1509,3090003002973,新規,0,2026-01-26,2026-01-26,合同会社ＰＬＵＳ,,合同会社,山梨県,甲府市,南口町１番５０号７０１,,19,201,4000863,,,,,,,2026-01-26,1,,,,,プラス,0
1590,3100003008580,新規,0,2026-01-26,2026-01-26,合同会社ふくろう,,合同会社,長野県,上伊那郡箕輪町,大字中箕輪７９９０番地２０プチハウスＭＩＫＩ１,,20,383,3994601,,,,,,,2026-01-26,1,,,,,フクロウ,0
1591,3100003008589,新規,0,2026-01-26,2026-01-26,合同会社ＴＡＸＥＬＬ,,合同会社,長野県,中野市,大字豊津４１９５－２１,,20,211,3892101,,,,,,,2026-01-26,1,,,,,タクセル,0
1601,3110003006047,新規,0,2026-01-26,2026-01-26,合同会社グランドフルール,,合同会社,新潟県,燕市,杣木２３５番地,,15,213,9591284,,,,,,,2026-01-26,1,,,,,グランドフルール,0
1608,3120103006961,新規,0,2026-01-26,2026-01-26,ｌｕｍｉ＆ｌｅａｆ合同会社,,合同会社,大阪府,堺市美原区,北余部１６番地ウエストクロスロード２０２号,,27,147,5870051,,,,,,,2026-01-26,1,,,,,ルミアンドリーフ,0
1610,3120903006046,新規,0,2026-01-26,2026-01-26,合同会社ＣＩＥＬ,,合同会社,大阪府,茨木市,鮎川１丁目１１番４号,,27,211,5670831,,,,,,,2026-01-26,1,,,,,シエル,0
1611,3120905006837,新規,0,2026-01-26,2026-01-26,一般社団法人ライズアース,,その他の設立登記法人,大阪府,豊中市,稲津町３丁目５番１０－３０１号,,27,203,5610854,,,,,,,2026-01-26,1,,,,,ライズアース,0
1612,3122001040150,新規,0,2026-01-26,2026-01-26,株式会社福田龍将,,株式会社,大阪府,八尾市,二俣１丁目７０番地,,27,212,5810024,,,,,,,2026-01-26,1,,,,,フクダタツマ,0
1622,3140001141504,新規,0,2026-01-26,2026-01-26,株式会社ｖｉｖｉｄ,,株式会社,兵庫県,神戸市中央区,北長狭通３丁目１１番１１号福一ビル３階,,28,110,6500012,,,,,,,2026-01-26,1,,,,,ビビット,0
1630,3180003029677,新規,0,2026-01-26,2026-01-26,合同会社アールエイチプラス,,合同会社,愛知県,名古屋市熱田区,一番２丁目４４番６号,,23,109,4560053,,,,,,,2026-01-26,1,,,,,アールエイチプラス,0
1631,3180003029685,新規,0,2026-01-26,2026-01-26,アドベンチャーナウ合同会社,,合同会社,愛知県,名古屋市中村区,名駅３丁目４－１０アルティメイト名駅１ｓｔ２階,,23,105,4500002,,,,,,,2026-01-26,1,,,,,アドベンチャーナウ,0
1633,3190001032756,新規,0,2026-01-26,2026-01-26,ＳＡＭＡＲＡ　ＩＮＴＥＲＮＡＴＩＯＮＡＬ株式会社,,株式会社,三重県,桑名市,大字上深谷部１３４２‐１,,24,205,5110809,,,,,,,2026-01-26,1,,,,,サマラインターナショナル,0
1634,3190001032855,新規,0,2026-01-26,2026-01-26,Ｏｎｔａｋｅ　Ｗａｋｅｉ．Ｌａｂ株式会社,,株式会社,三重県,津市,久居明神町風早２２２２番地２,,24,201,5141101,,,,,,,2026-01-26,1,,,,,オンタケワケイラボ,0
1638,3200005013841,新規,0,2026-01-26,2026-01-26,一般社団法人Ｉｎ　ｂｏｃｃａ　ａｌ　ｌｕｐｏ,,その他の設立登記法人,岐阜県,本巣市,上真桑１７６２番地８,,21,218,5010461,,,,,,,2026-01-26,1,,,,,インボッカアルルーポ,0
1639,3210001020469,新規,0,2026-01-26,2026-01-26,株式会社プラステリア,,株式会社,福井県,福井市,大願寺１丁目４番３５号,,18,201,9100001,,,,,,,2026-01-26,1,,,,,プラステリア,0
1658,3290001112903,新規,0,2026-01-26,2026-01-26,株式会社ひだまり,,株式会社,福岡県,福岡市東区,三苫２丁目１６番１５号１,,40,131,8110201,,,,,,,2026-01-26,1,,,,,ヒダマリ,0
1659,3290001112928,新規,0,2026-01-26,2026-01-26,Ｋ．Ｓ株式会社,,株式会社,福岡県,うきは市,浮羽町山北７８３番地７１,,40,225,8391408,,,,,,,2026-01-26,1,,,,,ケーズ,0
1661,3290003017893,新規,0,2026-01-26,2026-01-26,合同会社ＭＡＣＯＮ,,合同会社,福岡県,福岡市博多区,美野島１丁目５番１２－９０１号,,40,132,8120017,,,,,,,2026-01-26,1,,,,,マコン,0
1664,3290803005263,新規,0,2026-01-26,2026-01-26,合同会社Ｎａｔｕｒａｌ　Ｆｌｏｗ,,合同会社,福岡県,北九州市若松区,塩屋２丁目１３番１６号,,40,103,8080131,,,,,,,2026-01-26,1,,,,,ナチュラルフロー,0
1672,3330003011405,新規,0,2026-01-26,2026-01-26,合同会社Ｏｒｎａｍｅｎｔ,,合同会社,熊本県,宇土市,新町１丁目１９番地３,,43,211,8690444,,,,,,,2026-01-26,1,,,,,オーナメント,0
1679,3360003015551,新規,0,2026-01-26,2026-01-26,オフィスマツオ合同会社,,合同会社,沖縄県,島尻郡南風原町,字兼城６２６番地レーヴ南風原兼城９０３,,47,350,9011111,,,,,,,2026-01-26,1,,,,,オフィスマツオ,0
1735,3700150134128,新規,0,2026-01-26,2026-01-26,護持自治会,,その他,兵庫県,姫路市,夢前町護持１１９３番地,,28,201,6712136,,,,,,,2026-01-26,1,,,,,ゴジジチカイ,0
1742,4010001261702,新規,0,2026-01-26,2026-01-26,株式会社Ｔｒｙｓ,,株式会社,東京都,千代田区,大手町１丁目６番１号,,13,101,1000004,,,,,,,2026-01-26,1,,,,,トライス,0
1743,4010001262007,新規,0,2026-01-26,2026-01-26,株式会社ＯＮＯＤＥＲＡ　Ｆｏｏｄ　Ｓｅｒｖｉｃｅ　Ｈｏｌｄｉｎｇｓ,,株式会社,東京都,千代田区,大手町１丁目１番３号,,13,101,1000004,,,,,,,2026-01-26,1,,,,,オノデラフードサービスホールディングス,0
1744,4010001262147,新規,0,2026-01-26,2026-01-26,株式会社ＷＬ,,株式会社,東京都,中央区,入船２丁目２番２号,,13,102,1040042,,,,,,,2026-01-26,1,,,,,ダブリューエル,0
1745,4010001262205,新規,0,2026-01-26,2026-01-26,株式会社テックスノード,,株式会社,東京都,千代田区,神田和泉町１番地６－１６ヤマトビル４０５,,13,101,1010024,,,,,,,2026-01-26,1,,,,,テックスノード,0
1746,4010001262238,新規,0,2026-01-26,2026-01-26,Ｗｅａｌｔｈｙ　Ｉｎｖｅｓｔｍｅｎｔ株式会社,,株式会社,東京都,中央区,銀座１丁目２２番１１号銀座大竹ビジデンス２Ｆ,,13,102,1040061,,,,,,,2026-01-26,1,,,,,ウェルシーインベストメント,0
1748,4010003050153,新規,0,2026-01-26,2026-01-26,合同会社浜風プロパティ,,合同会社,東京都,千代田区,丸の内１丁目４番１号東京共同会計事務所内,,13,101,1000005,,,,,,,2026-01-26,1,,,,,ハマカゼプロパティ,0
1752,4010005041282,新規,0,2026-01-26,2026-01-26,一般社団法人ＴＮＦ,,その他の設立登記法人,東京都,千代田区,丸の内１丁目４番１号東京共同会計事務所内,,13,101,1000005,,,,,,,2026-01-26,1,,,,,ティーエヌエフ,0
1753,4010005041290,新規,0,2026-01-26,2026-01-26,中道改革連合,,その他の設立登記法人,東京都,千代田区,永田町１丁目１１番１号,,13,101,1000014,,,,,,,2026-01-26,1,,,,,チュウドウカイカクレンゴウ,0
1758,4010401196036,新規,0,2026-01-26,2026-01-26,ＧＣＪＧ６２株式会社,,株式会社,東京都,港区,元赤坂１丁目１番７－１２０９号株式会社赤坂国際会計内,,13,103,1070051,,,,,,,2026-01-26,1,,,,,ジーシージェイジーシックスティーツー,0
1759,4010401196044,新規,0,2026-01-26,2026-01-26,株式会社リンデン,,株式会社,東京都,港区,浜松町２丁目１２－１３－２Ｆ,,13,103,1050013,,,,,,,2026-01-26,1,,,,,リンデン,0
1760,4010403037130,新規,0,2026-01-26,2026-01-26,ＫＹ合同会社,,合同会社,東京都,港区,芝４丁目１６番２－２２０４号,,13,103,1080014,,,,,,,2026-01-26,1,,,,,ケイワイ,0
1761,4010403037139,新規,0,2026-01-26,2026-01-26,合同会社経営構造デザイン研究所,,合同会社,東京都,港区,北青山１丁目３－３三橋ビル３階,,13,103,1070061,,,,,,,2026-01-26,1,,,,,ケイエイコウゾウデザインケンキュウショ,0
1762,4010405025190,新規,0,2026-01-26,2026-01-26,一般社団法人ＡＩセーフティ推進機構,,その他の設立登記法人,東京都,港区,赤坂２丁目１６番７号,,13,103,1070052,,,,,,,2026-01-26,1,,,,,エーアイセーフティスイシンキコウ,0
1763,4010405025273,新規,0,2026-01-26,2026-01-26,一般社団法人瀬長島,,その他の設立登記法人,東京都,港区,虎ノ門１丁目３番１号,,13,103,1050001,,,,,,,2026-01-26,1,,,,,セナガジマ,0
1801,4010803005703,新規,0,2026-01-26,2026-01-26,合同会社つまみ,,合同会社,東京都,大田区,羽田３丁目１―３オーパス羽田１０１号室,,13,111,1440043,,,,,,,2026-01-26,1,,,,,ツマミ,0
1803,4010901058842,新規,0,2026-01-26,2026-01-26,株式会社佐藤戦略研究所,,株式会社,東京都,世田谷区,玉川４丁目１４番１２号,,13,112,1580094,,,,,,,2026-01-26,1,,,,,サトウセンリャクケンキュウジョ,0
1809,4011003023421,新規,0,2026-01-26,2026-01-26,合同会社ＫＫＲ　Ｃａｐｉｔａｌ,,合同会社,東京都,渋谷区,初台２丁目３１番５―４０１号,,13,113,1510061,,,,,,,2026-01-26,1,,,,,ケーケーアールキャピタル,0
1814,4011101114519,新規,0,2026-01-26,2026-01-26,株式会社アウトインフィット,,株式会社,東京都,新宿区,西新宿３丁目３番１３号西新宿水間ビル２Ｆ,,13,104,1600023,,,,,,,2026-01-26,1,,,,,アウトインフィット,0
1820,4011501033038,新規,0,2026-01-26,2026-01-26,株式会社かりん,,株式会社,東京都,北区,田端１丁目２０番３４号,,13,117,1140014,,,,,,,2026-01-26,1,,,,,カリン,0
1899,4011701029109,新規,0,2026-01-26,2026-01-26,株式会社ＳＩＫＡＭＡ,,株式会社,東京都,江戸川区,東瑞江１丁目２６－１４小原ビル２階,,13,123,1320014,,,,,,,2026-01-26,1,,,,,シカマ,0
1914,4012401044059,新規,0,2026-01-26,2026-01-26,株式会社ＳＡＮＶＩＡ,,株式会社,東京都,武蔵野市,吉祥寺北町３丁目１６－９,,13,203,1800001,,,,,,,2026-01-26,1,,,,,サンヴィア,0
1918,4020001166818,新規,0,2026-01-26,2026-01-26,株式会社Ｓｈｏｅｉ,,株式会社,神奈川県,横浜市都筑区,東山田１丁目２２番１６号,,14,118,2240023,,,,,,,2026-01-26,1,,,,,ショウエイ,0
1919,4020001166867,新規,0,2026-01-26,2026-01-26,株式会社卍解,,株式会社,神奈川県,横浜市鶴見区,上末吉４丁目７番９号,,14,101,2300011,,,,,,,2026-01-26,1,,,,,バンカイ,0
1923,4020003030229,新規,0,2026-01-26,2026-01-26,ＴＫソリューションズ合同会社,,合同会社,神奈川県,川崎市多摩区,登戸３０２５番地４,,14,135,2140014,,,,,,,2026-01-26,1,,,,,ティーケーソリューションズ,0
1926,4021001087260,新規,0,2026-01-26,2026-01-26,株式会社ミンピカ湘南,,株式会社,神奈川県,藤沢市,片瀬海岸３丁目５－５,,14,205,2510035,,,,,,,2026-01-26,1,,,,,ミンピカショウナン,0
1927,4021001087327,新規,0,2026-01-26,2026-01-26,株式会社ＢＥＹＯＮＤ,,株式会社,神奈川県,相模原市南区,鵜野森１丁目１番１７号,,14,153,2520301,,,,,,,2026-01-26,1,,,,,ビヨンド,0
1932,4030001170686,新規,0,2026-01-26,2026-01-26,株式会社ＳＷＡＰ　ＡＵＴＯ,,株式会社,埼玉県,熊谷市,三ヶ尻３４５１番地,,11,202,3600843,,,,,,,2026-01-26,1,,,,,スワップオート,0
1935,4030003028503,新規,0,2026-01-26,2026-01-26,合同会社ＡｃｔｉｖｅＬｉｎｋ,,合同会社,埼玉県,さいたま市大宮区,宮町５丁目３５番地４ｋａｙａ３０１号室,,11,103,3300802,,,,,,,2026-01-26,1,,,,,アクティブリンク,0
1936,4030003028511,新規,0,2026-01-26,2026-01-26,合同会社ＡＩエンターテイメント,,合同会社,埼玉県,さいたま市中央区,本町西４丁目７番１６号,,11,105,3380004,,,,,,,2026-01-26,1,,,,,エーアイエンターテイメント,0
2017,4040001142189,新規,0,2026-01-26,2026-01-26,株式会社ＯＦＦＩＣＥ　ＳＦＡ,,株式会社,千葉県,長生郡一宮町,一宮１０３２５番地３,,12,421,2994301,,,,,,,2026-01-26,1,,,,,オフィスエスエフエー,0
2018,4040001142222,新規,0,2026-01-26,2026-01-26,ｔｕｋｉｃｏ株式会社,,株式会社,千葉県,君津市,外箕輪３丁目１番２０号,,12,225,2991173,,,,,,,2026-01-26,1,,,,,ツキコ,0
2019,4040001142263,新規,0,2026-01-26,2026-01-26,つむぐ株式会社,,株式会社,千葉県,千葉市稲毛区,小中台町４８８番地１稲毛スカイタウン４棟１５０８号,,12,103,2630044,,,,,,,2026-01-26,1,,,,,ツムグ,0
2047,4040003029351,新規,0,2026-01-26,2026-01-26,合同会社大塚ビル,,合同会社,千葉県,松戸市,南花島３丁目４６番地の３,,12,207,2710065,,,,,,,2026-01-26,1,,,,,オオツカビル,0
2067,4060001038955,新規,0,2026-01-26,2026-01-26,株式会社Ｃｈａｌｌｉｎｋ,,株式会社,栃木県,日光市,大室１８３０番地１４６,,09,206,3212332,,,,,,,2026-01-26,1,,,,,チャリンク,0
2164,4110003006046,新規,0,2026-01-26,2026-01-26,合同会社キッズライフ,,合同会社,新潟県,新潟市中央区,旭町通２番町５２４１－１５－１０４,,15,103,9518122,,,,,,,2026-01-26,1,,,,,キッズライフ,0
2167,4120001283636,新規,0,2026-01-26,2026-01-26,株式会社Ｒ．ａｒｔｍａｋｅ,,株式会社,大阪府,大阪市生野区,巽東３丁目１１番２６－７０４号,00142324,27,116,5440014,,,,,,,2026-01-26,1,,,,,アールアートメイク,0
2169,4120003031712,新規,0,2026-01-26,2026-01-26,千誠国際合同会社,,合同会社,大阪府,大阪市平野区,加美正覚寺１丁目５番３－４Ｂ号室,,27,126,5470006,,,,,,,2026-01-26,1,,,,,センセイコクサイ,0
2170,4120103006960,新規,0,2026-01-26,2026-01-26,合同会社ＫＵＭＩＫＯ,,合同会社,大阪府,堺市美原区,大饗３３番地２２,00142331,27,147,5870063,,,,,,,2026-01-26,1,,,,,クミコ,0
2173,4120901052132,新規,0,2026-01-26,2026-01-26,株式会社クラフト,,株式会社,大阪府,吹田市,岸部北１丁目３番９号グランミュールＣ棟２０５号,,27,205,5640001,,,,,,,2026-01-26,1,,,,,クラフト,0
2181,4130001081477,新規,0,2026-01-26,2026-01-26,株式会社Ｓｐｒｉｎｇ　Ｇａｔｅ,,株式会社,京都府,京都市右京区,西京極大門町２１番地１Ｆ,,26,108,6150812,,,,,,,2026-01-26,1,,,,,スプリングゲート,0
2184,4130003011077,新規,0,2026-01-26,2026-01-26,森光企画開発合同会社,,合同会社,京都府,京都市左京区,岩倉花園町４８４番地２１,,26,103,6060024,,,,,,,2026-01-26,1,,,,,モリヒカリキカクカイハツ,0
2185,4130003011093,新規,0,2026-01-26,2026-01-26,合同会社木津川子ども支援,,合同会社,京都府,木津川市,城山台７丁目２４番地２,,26,214,6190218,,,,,,,2026-01-26,1,,,,,キヅガワコドモシエン,0
2186,4130005017568,新規,0,2026-01-26,2026-01-26,一般社団法人京都Ｍ＆Ａパートナーズ,,その他の設立登記法人,京都府,京都市右京区,西院平町２５番地ライフプラザ西大路四条８０１２号室,,26,108,6150022,,,,,,,2026-01-26,1,,,,,キョウトエムアンドエーパートナーズ,0
2191,4140001141453,新規,0,2026-01-26,2026-01-26,株式会社タカショウ,,株式会社,兵庫県,西宮市,西宮浜４丁目９番３－２０４号,,28,204,6620934,,,,,,,2026-01-26,1,,,,,タカショウ,0
2192,4140001141478,新規,0,2026-01-26,2026-01-26,株式会社ＪＳ,,株式会社,兵庫県,宝塚市,山本南３丁目９番１１号,,28,214,6650882,,,,,,,2026-01-26,1,,,,,ジェイエス,0
2205,4180001170416,新規,0,2026-01-26,2026-01-26,ＣａｓｔｌｅＲｏｃｋ株式会社,,株式会社,愛知県,名古屋市熱田区,旗屋２丁目２６番８号－１,,23,109,4560027,,,,,,,2026-01-26,1,,,,,キャスロック,0
2211,4180003029668,新規,0,2026-01-26,2026-01-26,スマイルリフォーム合同会社,,合同会社,愛知県,犬山市,大字橋爪字下地蔵下２６番地４,,23,215,4840076,,,,,,,2026-01-26,1,,,,,スマイルリフォーム,0
2212,4180301040624,新規,0,2026-01-26,2026-01-26,株式会社福食品,,株式会社,愛知県,豊橋市,牟呂町字室松崎２番地３サンシティ千代田Ａ２０３,,23,201,4418087,,,,,,,2026-01-26,1,,,,,フクショクヒン,0
2215,4190001032854,新規,0,2026-01-26,2026-01-26,ＳＣロジテック株式会社,,株式会社,三重県,いなべ市,大安町石榑下辻内１６４番地２,00142328,24,214,5110276,,,,,,,2026-01-26,1,,,,,エスシーロジテック,0
2218,4220001027140,新規,0,2026-01-26,2026-01-26,株式会社ＲＥＬ　Ｐａｒｔｎｅｒｓ,,株式会社,石川県,金沢市,諸江町上丁２３１番地２西田ビル２０１号,,17,201,9200015,,,,,,,2026-01-26,1,,,,,レルパートナーズ,0
2227,4250001021520,新規,0,2026-01-26,2026-01-26,株式会社ヴァルミネ,,株式会社,山口県,山口市,小郡明治２丁目４番８号エンタービル,,35,203,7540043,,,,,,,2026-01-26,1,,,,,ヴァルミネ,0
2229,4290001112927,新規,0,2026-01-26,2026-01-26,高木不動産管理株式会社,00142335,株式会社,福岡県,うきは市,浮羽町古川１１１５番地６,,40,225,8391405,,,,,,,2026-01-26,1,,,,,タカキフドウサンカンリ,0
2248,4340001027921,新規,0,2026-01-26,2026-01-26,株式会社ダイヤプラス,,株式会社,鹿児島県,伊佐市,菱刈重留１１４１番地,,46,224,8952705,,,,,,,2026-01-26,1,,,,,ダイヤプラス,0
2303,4390003002488,新規,0,2026-01-26,2026-01-26,リバーフィールド合同会社,,合同会社,山形県,酒田市,松原南２０番地の３,,06,204,9980841,,,,,,,2026-01-26,1,,,,,リバーフィールド,0
2314,4480005007121,新規,0,2026-01-26,2026-01-26,一般社団法人ＮＡＲＵＴＯ　ＢＬＵＥ　ＦＡＲＭ,,その他の設立登記法人,徳島県,鳴門市,鳴門町土佐泊浦字大毛１１２番地５７,,36,202,7720053,,,,,,,2026-01-26,1,,,,,ナルトブルーファーム,0
2317,4700150134127,新規,0,2026-01-26,2026-01-26,Ｄｅｌｏｉｔｔｅ＆Ｔｏｕｃｈｅ　Ｏｖｅｒｓｅａｓ　Ｐｒｏｊｅｃｔｓ　ＬＬＣ,,外国会社等,,,,,,,,２５１　Ｌｉｔｔｌｅ　Ｆａｌｌｓ　Ｄｒｉｖｅ，Ｗｉｌｍｉｎｇｔｏｎ，ＤＥ　１９８０８　ＵＳＡ,,,,,,2026-01-26,1,,,,,デロイトアンドトウシユオーバーシーズプロジエクツエルエルシー,0
2330,5010001262146,新規,0,2026-01-26,2026-01-26,株式会社Ｈｉｔｓｕｋｉ,,株式会社,東京都,中央区,築地２丁目１番１３－１００２号,,13,102,1040045,,,,,,,2026-01-26,1,,,,,ヒツキ,0
2332,5010003050037,新規,0,2026-01-26,2026-01-26,合同会社ＮＵ‐１２,,合同会社,東京都,千代田区,九段南３丁目７番７号成和綜合会計事務所内,,13,101,1020074,,,,,,,2026-01-26,1,,,,,エヌユージュウニ,0
2333,5010003050111,新規,0,2026-01-26,2026-01-26,長崎諫早蓄電合同会社,,合同会社,東京都,千代田区,神田東松下町１８番地高正ビル５階,,13,101,1010042,,,,,,,2026-01-26,1,,,,,ナガサキイサハヤチクデン,0
2334,5010003050128,新規,0,2026-01-26,2026-01-26,合同会社グローウィングサン,,合同会社,東京都,中央区,日本橋室町１丁目１１番１２号日本橋水野ビル７階,,13,102,1030022,,,,,,,2026-01-26,1,,,,,グローウィングサン,0
2335,5010003050136,新規,0,2026-01-26,2026-01-26,旭橋プロパティー合同会社,,合同会社,東京都,千代田区,丸の内１丁目１１番１号,,13,101,1000005,,,,,,,2026-01-26,1,,,,,アサヒバシプロパティー,0
2336,5010003050152,新規,0,2026-01-26,2026-01-26,ホリデイホールディング合同会社,,合同会社,東京都,千代田区,丸の内１丁目４番１号東京共同会計事務所内,,13,101,1000005,,,,,,,2026-01-26,1,,,,,ホリデイホールディング,0
2337,5010005041273,新規,0,2026-01-26,2026-01-26,一般社団法人ＮＣソディア,,その他の設立登記法人,東京都,千代田区,霞が関３丁目２番５号,,13,101,1000013,,,,,,,2026-01-26,1,,,,,エヌシーソディア,0
2338,5010005041281,新規,0,2026-01-26,2026-01-26,一般社団法人トラストデュアリス２,,その他の設立登記法人,東京都,千代田区,丸の内１丁目４番１号東京共同会計事務所内,,13,101,1000005,,,,,,,2026-01-26,1,,,,,トラストデュアリスツー,0
2341,5010103002739,新規,0,2026-01-26,2026-01-26,合同会社全国引越サービス,,合同会社,東京都,八王子市,寺田町４３２番地グリーンヒル寺田２６－３,,13,201,1930943,,,,,,,2026-01-26,1,,,,,ゼンコクヒッコシサービス,0
2348,5010401196051,新規,0,2026-01-26,2026-01-26,ＶｉａＦｉｔＥｓｔａｔｅ株式会社,,株式会社,東京都,港区,新橋５丁目１２－７東通新橋ビル３階,,13,103,1050004,,,,,,,2026-01-26,1,,,,,ヴィアフィットエステート,0
2349,5010401196068,新規,0,2026-01-26,2026-01-26,Ｐｏｒｅｉａ　Ｎｏｅｓｉｓ株式会社,,株式会社,東京都,港区,西麻布３丁目１７番３６号,,13,103,1060031,,,,,,,2026-01-26,1,,,,,ポレイアノエシス,0
2351,5010403037096,新規,0,2026-01-26,2026-01-26,合同会社弥生,,合同会社,東京都,港区,元赤坂１丁目１番７号,,13,103,1070051,,,,,,,2026-01-26,1,,,,,ヤヨイ,0
2377,5010901058841,新規,0,2026-01-26,2026-01-26,株式会社百年商事,,株式会社,東京都,世田谷区,祖師谷１丁目１１－８エルスクエア祖師ヶ谷大蔵１階,,13,112,1570072,,,,,,,2026-01-26,1,,,,,ヒャクネンショウジ,0
2378,5010903010569,新規,0,2026-01-26,2026-01-26,合同会社ＤＴＦ,,合同会社,東京都,世田谷区,太子堂４丁目１８番１５号マガザン三軒茶屋２―３Ｆ―３,,13,112,1540004,,,,,,,2026-01-26,1,,,,,ディーティーエフ,0
2379,5010903010577,新規,0,2026-01-26,2026-01-26,合同会社木曽設計,,合同会社,東京都,世田谷区,駒沢４丁目１８―１２―１４０６,,13,112,1540012,,,,,,,2026-01-26,1,,,,,キソセッケイ,0
2384,5011001175073,新規,0,2026-01-26,2026-01-26,スイスカノニカジャパン株式会社,,株式会社,東京都,渋谷区,神宮前６丁目１０番９号原宿董友ビル４階,,13,113,1500001,,,,,,,2026-01-26,1,,,,,スイスカノニカジャパン,0
2390,5011501033037,新規,0,2026-01-26,2026-01-26,株式会社ＫＧＯ　Ｐａｒｔｎｅｒｓ,,株式会社,東京都,北区,赤羽西６丁目２８－１エルフォルテ赤羽西５０６,,13,117,1150055,,,,,,,2026-01-26,1,,,,,ケージーオーパートナーズ,0
2493,5020001166882,新規,0,2026-01-26,2026-01-26,株式会社Ｍａｒｃｈｉｅｎ,,株式会社,神奈川県,横浜市西区,戸部町５丁目１８３－３０２,,14,103,2200042,,,,,,,2026-01-26,1,,,,,マルシエン,0
2501,5021001087219,新規,0,2026-01-26,2026-01-26,株式会社サカエヤプロパティー,,株式会社,神奈川県,平塚市,明石町２６番２７号,,14,203,2540042,,,,,,,2026-01-26,1,,,,,サカエヤプロパティー,0
2502,5021001087318,新規,0,2026-01-26,2026-01-26,株式会社ビッグバン,,株式会社,神奈川県,伊勢原市,下糟屋８４番地の２,,14,214,2591143,,,,,,,2026-01-26,1,,,,,ビッグバン,0
2503,5021001087326,新規,0,2026-01-26,2026-01-26,株式会社アールワイズ,,株式会社,神奈川県,厚木市,上荻野４４６８番地１,,14,212,2430201,,,,,,,2026-01-26,1,,,,,アールワイズ,0
2504,5021001087400,新規,0,2026-01-26,2026-01-26,大義建設株式会社,,株式会社,神奈川県,足柄上郡大井町,大井中央７－２,,14,362,2580010,,,,,,,2026-01-26,1,,,,,ダイギケンセツ,0
2509,5030001170652,新規,0,2026-01-26,2026-01-26,ＢｌｕｅＰｅａｋ　Ｃａｐｉｔａｌ株式会社,,株式会社,埼玉県,さいたま市大宮区,桜木町２丁目９０２番地７１４号室,,11,103,3300854,,,,,,,2026-01-26,1,,,,,ブルーピークキャピタル,0
2511,5030003028493,新規,0,2026-01-26,2026-01-26,合同会社華喜,,合同会社,埼玉県,富士見市,ふじみ野東１丁目２－１メローウィンドふじみ野４０４,,11,235,3540036,,,,,,,2026-01-26,1,,,,,ハナキ,0
2512,5030003028502,新規,0,2026-01-26,2026-01-26,合同会社ＩＭＡシステム,,合同会社,埼玉県,さいたま市南区,辻２丁目１２番１３号,00142329,11,108,3360026,,,,,,,2026-01-26,1,,,,,アイエムエーシステム,0
2513,5030003028519,新規,0,2026-01-26,2026-01-26,リンクス合同会社,,合同会社,埼玉県,草加市,新里町１０９０番地５,,11,221,3400031,,,,,,,2026-01-26,1,,,,,リンクス,0
2580,5040001142205,新規,0,2026-01-26,2026-01-26,株式会社サカエヤ学生堂,,株式会社,千葉県,習志野市,大久保２丁目７番２７号,,12,216,2750011,,,,,,,2026-01-26,1,,,,,サカエヤガクセイドウ,0
2601,5040003029350,新規,0,2026-01-26,2026-01-26,合同会社ＡＳＵＰＡＲＡ,,合同会社,千葉県,柏市,高柳１５６１番地２３２,,12,217,2770941,,,,,,,2026-01-26,1,,,,,アスパラ,0
2602,5040003029359,新規,0,2026-01-26,2026-01-26,合同会社コネクト,,合同会社,千葉県,浦安市,北栄３丁目３４番１９－２０２号ヴェルデシティ,,12,227,2790002,,,,,,,2026-01-26,1,,,,,コネクト,0
2612,5040005022997,新規,0,2026-01-26,2026-01-26,一般財団法人Ｍ＆Ｍスマイル財団,,その他の設立登記法人,千葉県,柏市,高田１２８８番地,,12,217,2770861,,,,,,,2026-01-26,1,,,,,エムアンドエムスマイルザイダン,0
2616,5050001057897,新規,0,2026-01-26,2026-01-26,株式会社ヘルスチャーム,,株式会社,茨城県,つくば市,千現２丁目１番６（号）,,08,220,3050047,,,,,,,2026-01-26,1,,,,,ヘルスチャーム,0
2621,5080005007755,新規,0,2026-01-26,2026-01-26,一般社団法人中部食支援ネットワーク,,その他の設立登記法人,静岡県,静岡市葵区,銭座町８０番地の１１,,22,101,4200842,,,,,,,2026-01-26,1,,,,,チュウブショクシエンネットワーク,0
2727,5120001283593,新規,0,2026-01-26,2026-01-26,ＬｉｍｉｎａＬａｂ株式会社,,株式会社,大阪府,大阪市北区,大深町５番５４号グラングリーン大阪南館ゲートタワー７階,,27,127,5300011,,,,,,,2026-01-26,1,,,,,リミナラボ,0
2728,5120001283651,新規,0,2026-01-26,2026-01-26,株式会社イノユニティー,,株式会社,大阪府,大阪市北区,梅田１丁目２番２号大阪駅前第２ビル１２－１２,,27,127,5300001,,,,,,,2026-01-26,1,,,,,イノユニティー,0
2733,5120903006052,新規,0,2026-01-26,2026-01-26,合同会社ＰＨＡＬＡＮＸ,,合同会社,大阪府,豊中市,庄内宝町２丁目５番３７号,,27,203,5610836,,,,,,,2026-01-26,1,,,,,ファランクス,0
2735,5130001081468,新規,0,2026-01-26,2026-01-26,株式会社Ｎ．ＴＩＡ,,株式会社,京都府,京都市下京区,七条通油小路東入大黒町２２７番地第２キョートビル４０２,,26,106,6008223,,,,,,,2026-01-26,1,,,,,エヌティア,0
2742,5140001141460,新規,0,2026-01-26,2026-01-26,株式会社リープオート,,株式会社,兵庫県,伊丹市,伊丹４丁目５番３０－１４０２号,,28,207,6640846,,,,,,,2026-01-26,1,,,,,リープオート,0
2747,5150001028632,新規,0,2026-01-26,2026-01-26,株式会社ｔｏｔｈｎａｒａ,,株式会社,奈良県,奈良市,松陽台３丁目１２番１３号,,29,201,6310007,,,,,,,2026-01-26,1,,,,,トスナラ,0
2748,5160001027377,新規,0,2026-01-26,2026-01-26,ナチュラエッジ株式会社,,株式会社,滋賀県,大津市,松原町８番１０－３０２号,,25,201,5200831,,,,,,,2026-01-26,1,,,,,ナチュラエッジ,0
2750,5180001170415,新規,0,2026-01-26,2026-01-26,株式会社ＨＥＲＯ不動産,,株式会社,愛知県,海部郡大治町,大字花常字本郷西２６－２,,23,424,4901136,,,,,,,2026-01-26,1,,,,,ヒーローフドウサン,0
2759,5190001032853,新規,0,2026-01-26,2026-01-26,株式会社下平組,,株式会社,三重県,熊野市,育生町長井６１５番地,,24,212,5194449,,,,,,,2026-01-26,1,,,,,シモダイラグミ,0
2762,5230001021265,新規,0,2026-01-26,2026-01-26,株式会社ウーベル,,株式会社,富山県,富山市,一番町６番１２号,,16,201,9300061,,,,,,,2026-01-26,1,,,,,ウーベル,0
2773,5290005019977,新規,0,2026-01-26,2026-01-26,一般社団法人児童発達ラボるりびたき,,その他の設立登記法人,福岡県,筑後市,大字山ノ井８６２番地２ロイヤルシャトー羽犬塚２１０号,,40,211,8330031,,,,,,,2026-01-26,1,,,,,ジドウハッタツラボルリビタキ,0
2774,5290005019985,新規,0,2026-01-26,2026-01-26,医療法人風の森,,その他の設立登記法人,福岡県,福岡市博多区,東月隈４丁目２番地１０号,,40,132,8120854,,,,,,,2026-01-26,1,,,,,カゼノモリ,0
2779,5320001021553,新規,0,2026-01-26,2026-01-26,株式会社エムズ,,株式会社,大分県,別府市,堀田町１５番７３号,,44,202,8740831,,,,,,,2026-01-26,1,,,,,エムズ,0
2797,5360003015582,新規,0,2026-01-26,2026-01-26,ＭＵＲＡＳＡＫＩ　ＧＲＯＵＰ合同会社,,合同会社,沖縄県,宜野湾市,真志喜２丁目１７番６－５０２号シティマンション松樹,,47,205,9012224,,,,,,,2026-01-26,1,,,,,ムラサキグループ,0
2839,5400005008539,新規,0,2026-01-26,2026-01-26,一般財団法人ヘラルボニー,,その他の設立登記法人,岩手県,花巻市,東宮野目１地割２番地,,03,205,0250003,,,,,,,2026-01-26,1,,,,,ヘラルボニー,0
2844,5470005006676,新規,0,2026-01-26,2026-01-26,一般財団法人少林寺拳法世界連合,,その他の設立登記法人,香川県,仲多度郡多度津町,本通３丁目１,,37,404,7640014,,,,,,,2026-01-26,1,,,,,,0
2863,6010001261683,新規,0,2026-01-26,2026-01-26,株式会社ジラソーレ,,株式会社,東京都,中央区,日本橋室町１丁目１１番１２号日本橋水野ビル７Ｆ,,13,102,1030022,,,,,,,2026-01-26,1,,,,,,0
2864,6010001261733,新規,0,2026-01-26,2026-01-26,株式会社ＬＵＮＥＲＡ,,株式会社,東京都,中央区,晴海３丁目１６－１ベイサイドタワー晴海１７０２,,13,102,1040053,,,,,,,2026-01-26,1,,,,,ルネラ,0
2865,6010001262153,新規,0,2026-01-26,2026-01-26,株式会社Ｔｅｒｒａ　Ｌｕｍｉ　Ｇｌｏｂａｌ,,株式会社,東京都,千代田区,丸の内１丁目８番３号丸の内トラストタワー本館２０階,,13,101,1000005,,,,,,,2026-01-26,1,,,,,テラルミグローバル,0
2866,6010001262186,新規,0,2026-01-26,2026-01-26,株式会社オリエンタルスター,,株式会社,東京都,中央区,新川２丁目３番９－１８０１号,,13,102,1040033,,,,,,,2026-01-26,1,,,,,オリエンタルスター,0
2867,6010001262203,新規,0,2026-01-26,2026-01-26,やまとエナジー株式会社,,株式会社,東京都,千代田区,永田町２丁目９番６号,,13,101,1000014,,,,,,,2026-01-26,1,,,,,ヤマトエナジー,0
2868,6010003049937,新規,0,2026-01-26,2026-01-26,合同会社カイリス,,合同会社,東京都,中央区,日本橋浜町３丁目８－１２－１３０８,,13,102,1030007,,,,,,,2026-01-26,1,,,,,カイリス,0
2869,6010005041280,新規,0,2026-01-26,2026-01-26,一般社団法人トラストデュアリス１,,その他の設立登記法人,東京都,千代田区,丸の内１丁目４番１号東京共同会計事務所内,,13,101,1000005,,,,,,,2026-01-26,1,,,,,トラストデュアリスワン,0
2879,6010401196034,新規,0,2026-01-26,2026-01-26,株式会社誠心不動産,,株式会社,東京都,港区,北青山２丁目１２番８号,,13,103,1070061,,,,,,,2026-01-26,1,,,,,セイシンフドウサン,0
2880,6010401196109,新規,0,2026-01-26,2026-01-26,カクタ株式会社,,株式会社,東京都,港区,南青山３丁目１番３６号青山丸竹ビル６Ｆ,,13,103,1070062,,,,,,,2026-01-26,1,,,,,カクタ,0
2882,6010403037120,新規,0,2026-01-26,2026-01-26,Ｕｎ‐ｌｅａｓｈ合同会社,,合同会社,東京都,港区,南青山５丁目１７番２号シドニービル５Ｆ－ＢＣ,,13,103,1070062,,,,,,,2026-01-26,1,,,,,アンリーシュ,0
2893,6010701048926,新規,0,2026-01-26,2026-01-26,ＲＥＶＯ　ＢＲＡＩＮ株式会社,,株式会社,東京都,品川区,西五反田１丁目２６－２五反田ハイツ３０８,,13,109,1410031,,,,,,,2026-01-26,1,,,,,レボブレイン,0
2923,6010801036995,新規,0,2026-01-26,2026-01-26,株式会社南洋アンビエンテ,,株式会社,東京都,大田区,大森東２丁目３４番７号,,13,111,1430012,,,,,,,2026-01-26,1,,,,,ナンヨウアンビエンテ,0
2933,6010803005692,新規,0,2026-01-26,2026-01-26,合同会社ＨＡＲＵＬＩＡＮ,,合同会社,東京都,大田区,石川町１丁目１３番２号,,13,111,1450061,,,,,,,2026-01-26,1,,,,,ハルリアン,0
2942,6011001174990,新規,0,2026-01-26,2026-01-26,株式会社ＢｅｃｋＳｔａｒＳｔｕｄｉｏ,,株式会社,東京都,渋谷区,神南１丁目１１－４ＦＰＧリンクス神南５階,,13,113,1500041,,,,,,,2026-01-26,1,,,,,ベックスタースタジオ,0
2948,6011101114517,新規,0,2026-01-26,2026-01-26,株式会社Ｓｐｏｒｄｉｕｍ,,株式会社,東京都,新宿区,西新宿７丁目５番５号３０９号室,,13,104,1600023,,,,,,,2026-01-26,1,,,,,スポーディアム,0
2950,6011301031215,新規,0,2026-01-26,2026-01-26,株式会社Ｙ’ｓコンサルティング,,株式会社,東京都,杉並区,南荻窪１丁目２４番９号,,13,115,1670052,,,,,,,2026-01-26,1,,,,,ワイズコンサルティング,0
2953,6011501033044,新規,0,2026-01-26,2026-01-26,ジェナ株式会社,,株式会社,東京都,荒川区,荒川１丁目２９－２,,13,118,1160002,,,,,,,2026-01-26,1,,,,,ジェナ,0
3039,6011705001929,新規,0,2026-01-26,2026-01-26,一般社団法人日本ナマコ研究会,,その他の設立登記法人,東京都,江戸川区,瑞江２丁目１５－８,,13,123,1320011,,,,,,,2026-01-26,1,,,,,ニッポンナマコケンキュウカイ,0
3044,6011801047322,新規,0,2026-01-26,2026-01-26,株式会社Ｄ５０,,株式会社,東京都,足立区,伊興２丁目１－２０,,13,121,1210823,,,,,,,2026-01-26,1,,,,,ディーゴジュウ,0
3045,6011801047363,新規,0,2026-01-26,2026-01-26,株式会社エムズホールディングス,,株式会社,東京都,足立区,本木北町３番２５号,,13,121,1230857,,,,,,,2026-01-26,1,,,,,エムズホールディングス,0
3052,6012403007581,新規,0,2026-01-26,2026-01-26,合同会社秋山,,合同会社,東京都,武蔵野市,吉祥寺南町２丁目２２番１２号,,13,203,1800003,,,,,,,2026-01-26,1,,,,,アキヤマ,0
3061,6020001166857,新規,0,2026-01-26,2026-01-26,株式会社Ｌｉｏｎｉａ,,株式会社,神奈川県,川崎市高津区,蟹ケ谷６３番地２８,,14,134,2130025,,,,,,,2026-01-26,1,,,,,リオニア,0
3067,6021001087259,新規,0,2026-01-26,2026-01-26,株式会社ＡＲＣＨＩＲＥＰＯＲＴ,,株式会社,神奈川県,相模原市中央区,田名４３６２番地,,14,152,2520244,,,,,,,2026-01-26,1,,,,,アーキレポート,0
3068,6021001087333,新規,0,2026-01-26,2026-01-26,株式会社ＳＨＩＲＯ　ＳＴＹＬＥ,,株式会社,神奈川県,相模原市中央区,横山２丁目２番１８号サンライズ横山１０２,,14,152,2520242,,,,,,,2026-01-26,1,,,,,シロスタイル,0
3076,6030001170668,新規,0,2026-01-26,2026-01-26,Ｂ‐ｙｏｕｒｓｅｌｆ株式会社,,株式会社,埼玉県,ふじみ野市,苗間２９３－１４,,11,245,3560052,,,,,,,2026-01-26,1,,,,,ビーユアセルフ,0
3152,6040001142138,新規,0,2026-01-26,2026-01-26,株式会社ラカウ,,株式会社,千葉県,いすみ市,万木１８９８番地８,,12,238,2980111,,,,,,,2026-01-26,1,,,,,ラカウ,0
3153,6040001142204,新規,0,2026-01-26,2026-01-26,株式会社ａｎｄ　ＬＵ,,株式会社,千葉県,銚子市,宮原町４０８番地,,12,202,2880877,,,,,,,2026-01-26,1,,,,,アンドエルユー,0
3154,6040001142245,新規,0,2026-01-26,2026-01-26,Ｓａｔｏｃｈｉｋａ株式会社,,株式会社,千葉県,長生郡長柄町,皿木１４１,,12,426,2970235,,,,,,,2026-01-26,1,,,,,サトチカ,0
3180,6040003029309,新規,0,2026-01-26,2026-01-26,ＡＩＺＵ　Ｇｌｏｂａｌ　Ｔｒａｄｉｎｇ合同会社,,合同会社,千葉県,香取郡神崎町,大貫１８３７番地,,12,342,2890203,,,,,,,2026-01-26,1,,,,,アイズグローバルトレーディング,0
3181,6040003029358,新規,0,2026-01-26,2026-01-26,合同会社ＪＸ　ＡＴＨＬＥＡＤ,,合同会社,千葉県,市原市,西広１丁目１０番地２６,,12,219,2900022,,,,,,,2026-01-26,1,,,,,ジェイエックスアスリード,0
3197,6070003006263,新規,0,2026-01-26,2026-01-26,合同会社ＭＳ　Ｃｏｍｐａｎｙ,,合同会社,群馬県,前橋市,富士見町市之木場３５８番地３,,10,201,3710106,,,,,,,2026-01-26,1,,,,,エムエスカンパニー,0
3206,6090003002970,新規,0,2026-01-26,2026-01-26,プラス合同会社,,合同会社,山梨県,甲斐市,竜王新町２３１０－６,,19,210,4000111,,,,,,,2026-01-26,1,,,,,プラス,0
3282,6100001039294,新規,0,2026-01-26,2026-01-26,株式会社ＴＲＫクロム,,株式会社,長野県,駒ヶ根市,上穂栄町１９－２５,,20,210,3994115,,,,,,,2026-01-26,1,,,,,ティーアールケイクロム,0
3294,6100003008586,新規,0,2026-01-26,2026-01-26,合同会社Ｆｉｘ,,合同会社,長野県,長野市,中御所２丁目１６番１０号,,20,201,3800935,,,,,,,2026-01-26,1,,,,,フィックス,0
3305,6120001283626,新規,0,2026-01-26,2026-01-26,Ｄｅｓａｆｉａｒ株式会社,,株式会社,大阪府,大阪市北区,梅田１丁目１１番４－１０００号,,27,127,5300001,,,,,,,2026-01-26,1,,,,,デサフィア,0
3306,6120001283634,新規,0,2026-01-26,2026-01-26,株式会社リデンス,,株式会社,大阪府,大阪市北区,梅田１丁目２番２号大阪駅前第２ビル１２－１２号,,27,127,5300001,,,,,,,2026-01-26,1,,,,,リデンス,0
3310,6120003031710,新規,0,2026-01-26,2026-01-26,瑞昇商事合同会社,,合同会社,大阪府,大阪市住吉区,南住吉２丁目６－２１ホワイトコーポ南住吉４０５号室,,27,120,5580041,,,,,,,2026-01-26,1,,,,,ズイショウショウジ,0
3311,6120103006959,新規,0,2026-01-26,2026-01-26,合同会社ＹｏｕＭｏｒｅ,,合同会社,大阪府,富田林市,若松町西３丁目１５５６－１グレイス１０１号室,,27,214,5840025,,,,,,,2026-01-26,1,,,,,ユーモア,0
3314,6120901052147,新規,0,2026-01-26,2026-01-26,株式会社寺田商事,,株式会社,大阪府,箕面市,小野原東４丁目１１番１３－５号,,27,220,5620031,,,,,,,2026-01-26,1,,,,,テラダショウジ,0
3315,6130003011109,新規,0,2026-01-26,2026-01-26,合同会社フルレバ,,合同会社,京都府,京都市下京区,梅小路本町７９番地１,,26,106,6008856,,,,,,,2026-01-26,1,,,,,フルレバ,0
3316,6130005017566,新規,0,2026-01-26,2026-01-26,一般社団法人ＥＯ　Ｋｙｏｔｏ,,その他の設立登記法人,京都府,京都市下京区,月鉾町３９番地１四条烏丸大西ビル８０５号室,,26,106,6008492,,,,,,,2026-01-26,1,,,,,イーオーキョウト,0
3323,6140001141476,新規,0,2026-01-26,2026-01-26,バーナーエンジニアリング株式会社,,株式会社,兵庫県,宝塚市,光明町３番１３号,,28,214,6650045,,,,,,,2026-01-26,1,,,,,バーナーエンジニアリング,0
3324,6140001141501,新規,0,2026-01-26,2026-01-26,株式会社ＢＯＮＤ,,株式会社,兵庫県,尼崎市,尾浜町３丁目３１番９号,,28,202,6610022,,,,,,,2026-01-26,1,,,,,ボンド,0
3334,6180001170397,新規,0,2026-01-26,2026-01-26,株式会社ミンティア,,株式会社,愛知県,名古屋市西区,上小田井１丁目４３番地２,,23,104,4520821,,,,,,,2026-01-26,1,,,,,ミンティア,0
3338,6180003029674,新規,0,2026-01-26,2026-01-26,日本バッテリー合同会社,,合同会社,愛知県,名古屋市千種区,今池５丁目２番６号今池センタービル５ｂ,,23,101,4640850,,,,,,,2026-01-26,1,,,,,ニホンバッテリー,0
3349,6220001027139,新規,0,2026-01-26,2026-01-26,株式会社ＮＯＴＯテクノソリューション,,株式会社,石川県,鳳珠郡能登町,字白丸４字５０番地１,,17,463,9270607,,,,,,,2026-01-26,1,,,,,ノトテクノソリューション,0
3356,6260001040930,新規,0,2026-01-26,2026-01-26,株式会社ＹＵＩＲＹＯＵ,,株式会社,岡山県,岡山市北区,東古松２０９番地１リベール大元駅前ＩＩ１３０３号室,00142327,33,101,7000921,,,,,,,2026-01-26,1,,,,,ユイリョウ,0
3357,6270003001830,新規,0,2026-01-26,2026-01-26,Ｃｏｍｍｏｎｓ　Ｓｐａｃｅ　Ｍａｎａｇｅｍｅｎｔ合同会社,,合同会社,鳥取県,米子市,天神町２丁目４８番地,,31,202,6830821,,,,,,,2026-01-26,1,,,,,コモンズスペースマネージメント,0
3363,6290003017973,新規,0,2026-01-26,2026-01-26,合同会社ｌｅｉ,,合同会社,福岡県,福岡市南区,大橋４丁目１４番２５号１０６号室,,40,134,8150033,,,,,,,2026-01-26,1,,,,,レイ,0
3365,6290801032199,新規,0,2026-01-26,2026-01-26,株式会社Ｗｉｐｅｌ,,株式会社,福岡県,北九州市小倉南区,曽根北町５番１９号,,40,107,8000229,,,,,,,2026-01-26,1,,,,,ウィペル,0
3366,6290805009904,新規,0,2026-01-26,2026-01-26,社会保険労務士法人豊友会,,その他の設立登記法人,福岡県,北九州市小倉北区,熊本２丁目１－１,,40,106,8020044,,,,,,,2026-01-26,1,,,,,ホウユウカイ,0
3373,6360003015573,新規,0,2026-01-26,2026-01-26,合同会社和加奈,,合同会社,沖縄県,那覇市,高良３丁目８番１９号,,47,201,9010145,,,,,,,2026-01-26,1,,,,,ワカナ,0
3416,6390003002486,新規,0,2026-01-26,2026-01-26,合同会社ナナクラフト,,合同会社,山形県,酒田市,藤塚字南畑４番地,,06,204,9980002,,,,,,,2026-01-26,1,,,,,ナナクラフト,0
3417,6420003003233,新規,0,2026-01-26,2026-01-26,合同会社ミッタ商店,,合同会社,青森県,八戸市,沼館１丁目２０番８号,,02,203,0310071,,,,,,,2026-01-26,1,,,,,ミッタショウテン,0
3425,6700150134125,新規,0,2026-01-26,2026-01-26,ＤＩＶＥ　ＬＡＮＫＡ　ＡＱＵＡＴＥＣＨ　ＰＶＴ　ＬＴＤ,,外国会社等,埼玉県,羽生市,大字今泉５４４番地イエロータウン２,,11,216,3480017,スリランカ民主社会主義共和国、キャンディ、アクラナ、ブルゴホテナ、１６／Ｅ番地,,,,,,2026-01-26,1,,,,,ダイブランカアクアテツクプライベートリミテツド,0
3431,7010001262103,新規,0,2026-01-26,2026-01-26,ＴＯＫＩ　ＡＩ株式会社,,株式会社,東京都,文京区,白山１丁目６番４号文京ＶｅｎｔｕｒｅＢａｓｅＡ０７,,13,105,1130001,,,,,,,2026-01-26,1,,,,,トキエイアイ,0
3432,7010001262284,新規,0,2026-01-26,2026-01-26,株式会社ｉ４３,,株式会社,東京都,文京区,関口１丁目２５－４ベリスタ文京関口１１０６号,,13,105,1120014,,,,,,,2026-01-26,1,,,,,アイフォースリー,0
3438,7010003050092,新規,0,2026-01-26,2026-01-26,Ｊａｐａｎ　Ｌｏｇｉｓｔｉｃｓ　ＤＨ５Ｏｐｅｒａｔｏｒ合同会社,,合同会社,東京都,中央区,八重洲２丁目２番１号,,13,102,1040028,,,,,,,2026-01-26,1,,,,,ジャパンロジスティックスディーエイチファイブオペレーター,0
3445,7010401195976,新規,0,2026-01-26,2026-01-26,コンステラアシスト株式会社,,株式会社,東京都,港区,浜松町１丁目２９番１０号東京ラインビル８階,,13,103,1050013,,,,,,,2026-01-26,1,,,,,コンステラアシスト,0
3448,7010403037103,新規,0,2026-01-26,2026-01-26,Ｓｔａｒ　Ｓｔａｔｅ合同会社,,合同会社,東京都,港区,白金台２丁目６番１７号マスターズホーム白金２０１,,13,103,1080071,,,,,,,2026-01-26,1,,,,,スターステート,0
3449,7010403037111,新規,0,2026-01-26,2026-01-26,合同会社ＦＪＡＭ,,合同会社,東京都,港区,芝浦１丁目１５－７－２０４,,13,103,1050023,,,,,,,2026-01-26,1,,,,,エフジェイエーエム,0
3450,7010403037136,新規,0,2026-01-26,2026-01-26,ＡＵＲＡ　ｗｅｒｅ合同会社,,合同会社,東京都,港区,東麻布２丁目２８番１号,,13,103,1060044,,,,,,,2026-01-26,1,,,,,アウラウェア,0
3459,7010601068619,新規,0,2026-01-26,2026-01-26,株式会社まめ,,株式会社,東京都,江東区,有明１丁目４―２０―２６２９,,13,108,1350063,,,,,,,2026-01-26,1,,,,,マメ,0
3460,7010605004545,新規,0,2026-01-26,2026-01-26,一般社団法人農業・再エネ地域推進機構,,その他の設立登記法人,東京都,江東区,塩浜２丁目５番２３号,,13,108,1350043,,,,,,,2026-01-26,1,,,,,ノウギョウサイエネチイキスイシンキコウ,0
3487,7011101114516,新規,0,2026-01-26,2026-01-26,Ｔｒａｎｓａ　Ｇｒｏｕｐ　Ｊａｐａｎ株式会社,,株式会社,東京都,新宿区,百人町２丁目２２番２号,,13,104,1690073,,,,,,,2026-01-26,1,,,,,トランサグループジャパン,0
3488,7011301031222,新規,0,2026-01-26,2026-01-26,バリューミンターラボ株式会社,,株式会社,東京都,杉並区,上荻３丁目１番１１号,,13,115,1670043,,,,,,,2026-01-26,1,,,,,バリューミンターラボ,0
3491,7011503006848,新規,0,2026-01-26,2026-01-26,合同会社ダイナマイト,,合同会社,東京都,荒川区,東日暮里５丁目５０－５－３Ｆ,,13,118,1160014,,,,,,,2026-01-26,1,,,,,ダイナマイト,0
3493,7011603004990,新規,0,2026-01-26,2026-01-26,合同会社トルトア,,合同会社,東京都,練馬区,練馬１丁目６－６カーサ・ポルタ７０２号室,,13,120,1760001,,,,,,,2026-01-26,1,,,,,トルトア,0
3607,7012801024491,新規,0,2026-01-26,2026-01-26,ホンダグローバルアセット株式会社,,株式会社,東京都,国分寺市,西元町３丁目３１番２１号パークハウス１０２,,13,214,1850023,,,,,,,2026-01-26,1,,,,,ホンダグローバルアセット,0
3611,7013301055589,新規,0,2026-01-26,2026-01-26,Ｔｏｐｓｕｎ　Ｎｅｗ　Ｅｎｅｒｇｙ　Ｍａｔｅｒｉａｌ株式会社,,株式会社,東京都,豊島区,東池袋２丁目３６番１２号レジェンド東池袋２０５,,13,116,1700013,,,,,,,2026-01-26,1,,,,,トップサンニューエナジーマテリアル,0
3618,7020001166773,新規,0,2026-01-26,2026-01-26,株式会社クロスイット,,株式会社,神奈川県,横浜市港北区,日吉本町３丁目２６番２８－３１４号,,14,109,2230062,,,,,,,2026-01-26,1,,,,,クロスイット,0
3623,7020003030143,新規,0,2026-01-26,2026-01-26,合同会社ｒａｋｔｕｓ,,合同会社,神奈川県,川崎市川崎区,小田６丁目１２―１４、１０１,,14,131,2100846,,,,,,,2026-01-26,1,,,,,ラクタス,0
3626,7021001087191,新規,0,2026-01-26,2026-01-26,Ｔｈｅ　Ｈｏｒｉｚｏｎ株式会社,,株式会社,神奈川県,藤沢市,鵠沼海岸６丁目１６番６号,,14,205,2510037,,,,,,,2026-01-26,1,,,,,ホライズン,0
3627,7021001087349,新規,0,2026-01-26,2026-01-26,ＡＣＲＯＳＳ　ＪＡＰＡＮ株式会社,,株式会社,神奈川県,藤沢市,石川５丁目２１番地の７,,14,205,2520815,,,,,,,2026-01-26,1,,,,,アクロスジャパン,0
3631,7030001170683,新規,0,2026-01-26,2026-01-26,サムマロン株式会社,,株式会社,埼玉県,川越市,大字上新河岸１９番地２,,11,201,3501135,,,,,,,2026-01-26,1,,,,,サムマロン,0
3632,7030001170691,新規,0,2026-01-26,2026-01-26,ウタ株式会社,,株式会社,埼玉県,北本市,下石戸７丁目１１３番地,,11,233,3640028,,,,,,,2026-01-26,1,,,,,ウタ,0
3636,7030003028517,新規,0,2026-01-26,2026-01-26,合同会社ペリドット,,合同会社,埼玉県,戸田市,川岸２丁目３番１８－５０５号（エマーユ蒼龍戸田公園）,,11,224,3350015,,,,,,,2026-01-26,1,,,,,ペリドット,0
3717,7040001142161,新規,0,2026-01-26,2026-01-26,株式会社ＴＫＨ,,株式会社,千葉県,千葉市花見川区,長作町１１１１番地１,,12,102,2620044,,,,,,,2026-01-26,1,,,,,ティーケーエイチ,0
3718,7040001142203,新規,0,2026-01-26,2026-01-26,株式会社ＨＳ　ＧＲＯＵＰ,,株式会社,千葉県,野田市,岩名２丁目５１番地の３３,,12,208,2780055,,,,,,,2026-01-26,1,,,,,エイチエスグループ,0
3719,7040001142211,新規,0,2026-01-26,2026-01-26,栗山ＨＤ株式会社,,株式会社,千葉県,四街道市,栗山１０８２番地,,12,228,2840027,,,,,,,2026-01-26,1,,,,,クリヤマホールディングス,0
3720,7040001142228,新規,0,2026-01-26,2026-01-26,株式会社ＩＦ,,株式会社,千葉県,鎌ケ谷市,鎌ケ谷３丁目８－７２,,12,224,2730105,,,,,,,2026-01-26,1,,,,,アイエフ,0
3721,7040001142244,新規,0,2026-01-26,2026-01-26,ＧＰＤＳ株式会社,,株式会社,千葉県,我孫子市,白山２丁目９番１２－１０６号パークシティ白扇,,12,222,2701154,,,,,,,2026-01-26,1,,,,,ジーピィーディーエス,0
3755,7040003029349,新規,0,2026-01-26,2026-01-26,興栄国際合同会社,,合同会社,千葉県,松戸市,下矢切８３番地の５－２０３号,,12,207,2710096,,,,,,,2026-01-26,1,,,,,コウエイコクサイ,0
3768,7050001057771,新規,0,2026-01-26,2026-01-26,株式会社スマイルデイズ,,株式会社,茨城県,古河市,東４丁目１５番１９号ライオンズマンション古河４０６号室,,08,204,3060011,,,,,,,2026-01-26,1,,,,,スマイルデイズ,0
3771,7050003009894,新規,0,2026-01-26,2026-01-26,合同会社ＹＭＴ,,合同会社,茨城県,つくば市,学園南２丁目６番地５レーベン研究学園ヴェルプレジオ８０８号,,08,220,3050818,,,,,,,2026-01-26,1,,,,,ワイエムティー,0
3774,7070001043761,新規,0,2026-01-26,2026-01-26,株式会社ＧｅｍｂａＳｈｉｆｔ,,株式会社,群馬県,高崎市,上並榎町４８９―１１,,10,202,3700801,,,,,,,2026-01-26,1,,,,,ゲンバシフト,0
3776,7080101026038,新規,0,2026-01-26,2026-01-26,株式会社Ｃ‐ＳＨＡＲＰ,,株式会社,静岡県,沼津市,高島町１５－５ぬましんＣＯＭＰＡＳＳ２Ｆ,,22,203,4100056,,,,,,,2026-01-26,1,,,,,シーシャープ,0
3872,7110001039854,新規,0,2026-01-26,2026-01-26,株式会社宏和ホールディングス,,株式会社,新潟県,新潟市東区,小金町１丁目７番１号ＮＴＴ小金ビル１階,,15,102,9500026,,,,,,,2026-01-26,1,,,,,コウワホールディングス,0
3880,7120103006958,新規,0,2026-01-26,2026-01-26,合同会社わんだぱる,,合同会社,大阪府,羽曳野市,西浦１丁目２０２０番地の３,,27,222,5830861,,,,,,,2026-01-26,1,,,,,ワンダパル,0
3881,7120105010108,新規,0,2026-01-26,2026-01-26,一般社団法人ＡＵＲＵＭ　ＹＯＵ,,その他の設立登記法人,大阪府,和泉市,万町２０２０番地いこいの家英,,27,219,5941104,,,,,,,2026-01-26,1,,,,,オーラムユー,0
3886,7130003011082,新規,0,2026-01-26,2026-01-26,Ｌｉｂｅｒａ合同会社,,合同会社,京都府,八幡市,橋本狩尾１番地の１７０,,26,210,6148322,,,,,,,2026-01-26,1,,,,,リベラ,0
3887,7130003011108,新規,0,2026-01-26,2026-01-26,合同会社古都里,,合同会社,京都府,京都市右京区,太秦安井西裏町６番地１１,,26,108,6168065,,,,,,,2026-01-26,1,,,,,コトリ,0
3894,7140001141459,新規,0,2026-01-26,2026-01-26,エルアンドエスコーポレーション株式会社,,株式会社,兵庫県,芦屋市,翠ケ丘町１０番１３号,,28,206,6590014,,,,,,,2026-01-26,1,,,,,エルアンドエスコーポレーション,0
3895,7140001141500,新規,0,2026-01-26,2026-01-26,ＭＡＲＵ　ＦＯＯＤＳ株式会社,,株式会社,兵庫県,神戸市東灘区,向洋町中１丁目４番地１２９号棟７０５号室,,28,101,6580032,,,,,,,2026-01-26,1,,,,,マルフーズ,0
3900,7180001170363,新規,0,2026-01-26,2026-01-26,株式会社ＨＲコンサルティング,,株式会社,愛知県,名古屋市中村区,名駅４丁目２４番５号第２森ビル４０１,,23,105,4500002,,,,,,,2026-01-26,1,,,,,エイチアールコンサルティング,0
3901,7180001170388,新規,0,2026-01-26,2026-01-26,株式会社ＳＡＣＯＮ,,株式会社,愛知県,名古屋市中村区,川前町５２４番地,,23,105,4530865,,,,,,,2026-01-26,1,,,,,サコン,0
3902,7180001170396,新規,0,2026-01-26,2026-01-26,株式会社ＧＲＡＣＥ,,株式会社,愛知県,名古屋市中区,丸の内１丁目７番１９号プラウドタワー名古屋丸の内ステーションマークス４０２号,,23,106,4600002,,,,,,,2026-01-26,1,,,,,グレイス,0
3904,7180003029681,新規,0,2026-01-26,2026-01-26,合同会社ＡＩＣＨＩ　ＴＲＡＤＥＲＳ,,合同会社,愛知県,名古屋市港区,春田野１丁目２２０６番地グランプリハイツ１０１,,23,111,4550873,,,,,,,2026-01-26,1,,,,,アイチトレーダース,0
3905,7180005021406,新規,0,2026-01-26,2026-01-26,一般社団法人Ｇ２ドリームグループ,,その他の設立登記法人,愛知県,東海市,加木屋町丸根１８－１,,23,222,4770032,,,,,,,2026-01-26,1,,,,,ジーツードリームグループ,0
3909,7190003005335,新規,0,2026-01-26,2026-01-26,サンケアライフ合同会社,,合同会社,三重県,四日市市,南垂坂町８１０番地３,,24,202,5108036,,,,,,,2026-01-26,1,,,,,サンケアライフ,0
3911,7200003007206,新規,0,2026-01-26,2026-01-26,日本ロータスメタル合同会社,,合同会社,岐阜県,大垣市,深池町字村内６０９番地２,,21,202,5030846,,,,,,,2026-01-26,1,,,,,ニホンロータスメタル,0
3919,7250001021518,新規,0,2026-01-26,2026-01-26,株式会社木同企画,,株式会社,山口県,下関市,元町９番２７号,,35,201,7500045,,,,,,,2026-01-26,1,,,,,コドウキカク,0
3924,7290001112858,新規,0,2026-01-26,2026-01-26,株式会社ＥＬＥＣＩＡ,,株式会社,福岡県,太宰府市,都府楼南４丁目２５番７－４０２号,,40,221,8180105,,,,,,,2026-01-26,1,,,,,エレシア,0
3925,7290001112899,新規,0,2026-01-26,2026-01-26,株式会社ＭＡＲＩＶＡ,,株式会社,福岡県,飯塚市,太郎丸８３１番地６,,40,205,8200076,,,,,,,2026-01-26,1,,,,,マリヴァ,0
3926,7290001112932,新規,0,2026-01-26,2026-01-26,シンセイオート株式会社,,株式会社,福岡県,筑紫野市,塔原東３丁目３番１１号,,40,217,8180059,,,,,,,2026-01-26,1,,,,,シンセイオート,0
3927,7290001112940,新規,0,2026-01-26,2026-01-26,株式会社ＣｏＬｉｖｅＯ,,株式会社,福岡県,福岡市中央区,清川１丁目１１－５－１３０１,,40,133,8100005,,,,,,,2026-01-26,1,,,,,コリヴォ,0
3929,7290003017972,新規,0,2026-01-26,2026-01-26,合同会社Ｆｏｏｄ　Ｓａｆｅｔｙ　Ｓｕｐｐｏｒｔ,,合同会社,福岡県,久留米市,梅満町１０３６番地１,,40,203,8300048,,,,,,,2026-01-26,1,,,,,,0
3932,7290805009903,新規,0,2026-01-26,2026-01-26,一般社団法人日本医療ＤＸ推進協会,,その他の設立登記法人,福岡県,北九州市小倉北区,古船場町７－１本多ビル３Ｆ,,40,106,8020082,,,,,,,2026-01-26,1,,,,,ニホンイリョウデラックススイシンキョウカイ,0
3933,7300003002411,新規,0,2026-01-26,2026-01-26,合同会社ＢａｎｇＢｅ,,合同会社,佐賀県,三養基郡基山町,大字小倉３３７―３４,,41,341,8410201,,,,,,,2026-01-26,1,,,,,バンビー,0
3948,7340001027927,新規,0,2026-01-26,2026-01-26,株式会社南九州メンテナンス,,株式会社,鹿児島県,熊毛郡中種子町,野間４３１１番地,,46,501,8913604,,,,,,,2026-01-26,1,,,,,ミナミキュウシュウメンテナンス,0
3952,7360001036298,新規,0,2026-01-26,2026-01-26,株式会社ＯＫＩＮＡＷＡ　ＳＨＩＮ　ＢＯＯ,,株式会社,沖縄県,那覇市,曙１丁目４番８号１０３号室,,47,201,9000002,,,,,,,2026-01-26,1,,,,,オキナワシンブー,0
3992,7410003004207,新規,0,2026-01-26,2026-01-26,合同会社ＹＭＢ,,合同会社,秋田県,大仙市,横堀字沖田１１５番地,,05,212,0140111,,,,,,,2026-01-26,1,,,,,ワイエムビー,0
3999,7470003003062,新規,0,2026-01-26,2026-01-26,合同会社晋立,,合同会社,香川県,高松市,中野町２９番地５号高松プラザビル３階４階,,37,201,7600008,,,,,,,2026-01-26,1,,,,,,0
4000,7480003002360,新規,0,2026-01-26,2026-01-26,合同会社１ｃｈｉ,,合同会社,徳島県,徳島市,南新町１丁目２８－１,,36,201,7700913,,,,,,,2026-01-26,1,,,,,イチ,0
4005,7700150134124,新規,0,2026-01-26,2026-01-26,ＩＮＤＲＡ　ＣＯＭＰＵＴＥＲＳ,,外国会社等,愛知県,名古屋市中村区,中村本町２丁目２４番地の２,,23,105,4530828,スリランカ民主社会主義共和国、ヌゲゴダ、ガンゴダウィラ、アンバガハワッタ道路、第１レーン、１１／２Ａ,,,,,,2026-01-26,1,,,,,インドラコンピユータース,0
4020,8010001262201,新規,0,2026-01-26,2026-01-26,ミャンマー・ユニティ株式会社,,株式会社,東京都,千代田区,岩本町１丁目２番１１号,,13,101,1010032,,,,,,,2026-01-26,1,,,,,ミャンマーユニティ,0
4021,8010001262218,新規,0,2026-01-26,2026-01-26,株式会社ＨＯＭＥＴＡＣＴ,,株式会社,東京都,千代田区,大手町１丁目６番１号大手町ビル１階,,13,101,1000004,,,,,,,2026-01-26,1,,,,,ホームタクト,0
4022,8010001262242,新規,0,2026-01-26,2026-01-26,ＴＣＧ２５１５株式会社,,株式会社,東京都,千代田区,丸の内１丁目５番１号,,13,101,1000005,,,,,,,2026-01-26,1,,,,,ティーシージーニーゴーイチゴー,0
4025,8010003050091,新規,0,2026-01-26,2026-01-26,Ｊａｐａｎ　Ｌｏｇｉｓｔｉｃｓ　ＤＨ５ＧＰ合同会社,,合同会社,東京都,中央区,八重洲２丁目２番１号,,13,102,1040028,,,,,,,2026-01-26,1,,,,,ジャパンロジスティックスディーエイチファイブジーピー,0
4026,8010003050174,新規,0,2026-01-26,2026-01-26,合同会社はやし,,合同会社,東京都,中央区,銀座１丁目１２番４号Ｎ＆ＥＢＬＤ．６Ｆ,,13,102,1040061,,,,,,,2026-01-26,1,,,,,ハヤシ,0
4027,8010005041279,新規,0,2026-01-26,2026-01-26,一般社団法人朝日岳,,その他の設立登記法人,東京都,千代田区,丸の内１丁目４番１号東京共同会計事務所内,,13,101,1000005,,,,,,,2026-01-26,1,,,,,アサヒダケ,0
4032,8010401195562,新規,0,2026-01-26,2026-01-26,株式会社ＴＯＫＩＥ,,株式会社,東京都,港区,南青山３丁目１番３６号青山丸竹ビル６Ｆ,,13,103,1070062,,,,,,,2026-01-26,1,,,,,トキエ,0
4033,8010401195991,新規,0,2026-01-26,2026-01-26,株式会社ＩＭＥＣ　ＪＡＰＡＮ,,株式会社,東京都,港区,虎ノ門２丁目３番１７号虎ノ門二丁目タワー１９階,,13,103,1050001,,,,,,,2026-01-26,1,,,,,アイメックジャパン,0
4034,8010401196065,新規,0,2026-01-26,2026-01-26,株式会社Ｓｏｌｉｘ,,株式会社,東京都,港区,北青山１丁目３番１号アールキューブ青山３階,,13,103,1070061,,,,,,,2026-01-26,1,,,,,ソリックス,0
4043,8010503008151,新規,0,2026-01-26,2026-01-26,合同会社福蔵,,合同会社,東京都,台東区,浅草１丁目６番２号,,13,106,1110032,,,,,,,2026-01-26,1,,,,,フククラ,0
4080,8010901058814,新規,0,2026-01-26,2026-01-26,Ｅｕｌｅｇａｃｙ　Ａｓｓｅｔ　Ｍａｎａｇｅｍｅｎｔ株式会社,,株式会社,東京都,世田谷区,北烏山９丁目１５番２号－１０,,13,112,1570061,,,,,,,2026-01-26,1,,,,,ユーレガシーアセットマネジメント,0
4082,8010903010574,新規,0,2026-01-26,2026-01-26,秒速企画合同会社,,合同会社,東京都,世田谷区,中町４丁目６－３,,13,112,1580091,,,,,,,2026-01-26,1,,,,,ビョウソクキカク,0
4083,8010905004888,新規,0,2026-01-26,2026-01-26,一般社団法人ゆだねの会,,その他の設立登記法人,東京都,世田谷区,北沢３丁目２５番４号,,13,112,1550031,,,,,,,2026-01-26,1,,,,,ユダネノカイ,0
4090,8011003023384,新規,0,2026-01-26,2026-01-26,合同会社Ｈｏｓｈｉｎｏ　Ｓｔｕｄｉｏ,,合同会社,東京都,渋谷区,恵比寿西２丁目４番８号ウィンド恵比寿ビル８Ｆ,,13,113,1500021,,,,,,,2026-01-26,1,,,,,ホシノスタジオ,0
4097,8011101114515,新規,0,2026-01-26,2026-01-26,株式会社Ｆｏｒｔｅ,,株式会社,東京都,新宿区,西新宿４丁目２番１５－９０９号,,13,104,1600023,,,,,,,2026-01-26,1,,,,,フォルテ,0
4098,8011101114738,新規,0,2026-01-26,2026-01-26,株式会社ＩＣＣＡＣＵ,,株式会社,東京都,新宿区,西新宿３丁目３番１３号西新宿水間ビル２Ｆ,,13,104,1600023,,,,,,,2026-01-26,1,,,,,イッカク,0
4099,8011103016908,新規,0,2026-01-26,2026-01-26,合同会社ＶＯＩＤ,,合同会社,東京都,新宿区,歌舞伎町１丁目１番５号メリス歌舞伎町７０４,,13,104,1600021,,,,,,,2026-01-26,1,,,,,ヴォイド,0
4104,8011601029329,新規,0,2026-01-26,2026-01-26,アイアンキャピタル株式会社,,株式会社,東京都,練馬区,豊玉中１丁目３０番９号,,13,120,1760013,,,,,,,2026-01-26,1,,,,,アイアンキャピタル,0
4105,8011603004981,新規,0,2026-01-26,2026-01-26,合同会社Ｙａｎｋｓ,,合同会社,東京都,練馬区,関町南４丁目３－２８,,13,120,1770053,,,,,,,2026-01-26,1,,,,,ヤンクス,0
4176,8011701029113,新規,0,2026-01-26,2026-01-26,株式会社大慈学苑,,株式会社,東京都,江戸川区,南小岩７丁目１４番２０号,,13,123,1330056,,,,,,,2026-01-26,1,,,,,ダイジガクエン,0
4200,8012801024490,新規,0,2026-01-26,2026-01-26,ＡＭＦＣプライベートバンキング株式会社,,株式会社,東京都,国分寺市,西元町３丁目３１番２１号パークハウス１０２,,13,214,1850023,,,,,,,2026-01-26,1,,,,,エーエムエフシープライベートバンキング,0
4213,8020001166847,新規,0,2026-01-26,2026-01-26,株式会社ＬＡＴＥＬＡ,,株式会社,神奈川県,横浜市中区,鷺山５５番地１テラスラファエルＤ号室,,14,104,2310848,,,,,,,2026-01-26,1,,,,,ラテラ,0
4214,8020001166863,新規,0,2026-01-26,2026-01-26,株式会社広発,,株式会社,神奈川県,横浜市中区,長者町９丁目１４７－２二階,,14,104,2310033,,,,,,,2026-01-26,1,,,,,コウハツ,0
4215,8020001166871,新規,0,2026-01-26,2026-01-26,株式会社ＡＩｖｏｌｖｅ,,株式会社,神奈川県,横浜市中区,日本大通１４番地ＫＮ日本大通ビル,,14,104,2310021,,,,,,,2026-01-26,1,,,,,アイヴォルヴ,0
4221,8021001087315,新規,0,2026-01-26,2026-01-26,株式会社ＪＵＮＯＶＡ　ＨＤ,,株式会社,神奈川県,平塚市,根坂間２８９番地３－１０３,,14,203,2540904,,,,,,,2026-01-26,1,,,,,ジュノバホールディングス,0
4222,8021001087356,新規,0,2026-01-26,2026-01-26,株式会社トリプレッタ,,株式会社,神奈川県,逗子市,久木５丁目２―１２パインヒルズ壱番館１０２,,14,208,2490001,,,,,,,2026-01-26,1,,,,,トリプレッタ,0
4226,8021003016973,新規,0,2026-01-26,2026-01-26,合同会社晴,,合同会社,神奈川県,逗子市,新宿１丁目２番３－５１５号,,14,208,2490007,,,,,,,2026-01-26,1,,,,,ハル,0
4227,8021003017030,新規,0,2026-01-26,2026-01-26,合同会社ＮｉｃｏＣｏｏｋｉｎｇ,,合同会社,神奈川県,藤沢市,羽鳥５丁目５番４１号,,14,205,2510056,,,,,,,2026-01-26,1,,,,,ニコクッキング,0
4228,8021005013515,新規,0,2026-01-26,2026-01-26,一般社団法人地域ケアネットほっとかんわ湘南,,その他の設立登記法人,神奈川県,藤沢市,大庭５５２６番地の２０ＭＩＮＡＳＩＡ湘南ライフタウンＨ２１０号,,14,205,2510861,,,,,,,2026-01-26,1,,,,,チイキケアネットホットカンワショウナン,0
4233,8030001170682,新規,0,2026-01-26,2026-01-26,株式会社リートコンサルティング,,株式会社,埼玉県,さいたま市大宮区,桜木町２丁目３番地大宮マルイ７階,,11,103,3300854,,,,,,,2026-01-26,1,,,,,リートコンサルティング,0
4234,8030001170708,新規,0,2026-01-26,2026-01-26,株式会社栄設備,,株式会社,埼玉県,新座市,栄２丁目９番１６－１１号,,11,230,3520014,,,,,,,2026-01-26,1,,,,,サカエセツビ,0
4314,8040001142152,新規,0,2026-01-26,2026-01-26,株式会社エーリビング,,株式会社,千葉県,千葉市中央区,弁天１丁目２１番３号石橋弁天ビル３階Ｅ号,,12,101,2600045,,,,,,,2026-01-26,1,,,,,エーリビング,0
4315,8040001142210,新規,0,2026-01-26,2026-01-26,株式会社エイリィ・スルー,,株式会社,千葉県,八千代市,下市場２丁目１番１６－８０４号,,12,221,2760026,,,,,,,2026-01-26,1,,,,,エイリィスルー,0
4358,8040005023002,新規,0,2026-01-26,2026-01-26,行政書士法人アブソルート,,その他の設立登記法人,千葉県,流山市,江戸川台西２丁目２９６番地の１,,12,220,2700115,,,,,,,2026-01-26,1,,,,,アブソルート,0
4361,8050001057886,新規,0,2026-01-26,2026-01-26,アイティカケル株式会社,,株式会社,茨城県,ひたちなか市,石川町６番５－１００４号アネージュ石川セオリア,,08,221,3120057,,,,,,,2026-01-26,1,,,,,アイティカケル,0
4362,8050001057894,新規,0,2026-01-26,2026-01-26,株式会社ＭＥＭＥＬＴＨ,,株式会社,茨城県,つくば市,竹園２丁目１１番地１０Ｇｏｏｄ竹園１０１,,08,220,3050032,,,,,,,2026-01-26,1,,,,,メメルス,0
4363,8050003009893,新規,0,2026-01-26,2026-01-26,合同会社ＣＨＥＺ　ＴＯＩ,,合同会社,茨城県,水戸市,見川３丁目１０９９番地１パークヒルズマルキ３－３０２号室,,08,201,3100912,,,,,,,2026-01-26,1,,,,,シェトワ,0
4366,8080101026045,新規,0,2026-01-26,2026-01-26,株式会社ｌｉｂｅｌ,,株式会社,静岡県,富士市,富士岡１４５２番地の１,,22,210,4170841,,,,,,,2026-01-26,1,,,,,リベル,0
4367,8080103003513,新規,0,2026-01-26,2026-01-26,Ｉｓａｍｉ　Ｉｎｎｏｖａｔｉｏｎｓ合同会社,,合同会社,静岡県,伊豆の国市,寺家６８７番地の２０セジュール藤乃２０５,,22,225,4102122,,,,,,,2026-01-26,1,,,,,イサミイノベーションズ,0
4475,8120001283608,新規,0,2026-01-26,2026-01-26,株式会社なぎファーマシー,,株式会社,大阪府,大阪市阿倍野区,三明町２丁目１０番２１－５０４号,,27,119,5450005,,,,,,,2026-01-26,1,,,,,ナギファーマシー,0
4476,8120001283640,新規,0,2026-01-26,2026-01-26,日綜メンテナンスエンジニアリング株式会社,,株式会社,大阪府,大阪市淀川区,西中島１丁目１５番２号,,27,123,5320011,,,,,,,2026-01-26,1,,,,,ニッソウメンテナンスエンジニアリング,0
4477,8120001283665,新規,0,2026-01-26,2026-01-26,星輝企画株式会社,,株式会社,大阪府,大阪市都島区,都島本通５丁目５番１号,,27,102,5340021,,,,,,,2026-01-26,1,,,,,セイキキカク,0
4478,8120001283673,新規,0,2026-01-26,2026-01-26,Ｈａｒｍｏｎｉｃ　Ａｓｓｅｔ株式会社,,株式会社,大阪府,大阪市西区,南堀江３丁目８番９－７０２号,,27,106,5500015,,,,,,,2026-01-26,1,,,,,ハーモニックアセット,0
4479,8120001283698,新規,0,2026-01-26,2026-01-26,株式会社Ｍａｉｓｏｎ　ｄｅ　Ｍｕｓｅ,,株式会社,大阪府,枚方市,南楠葉１丁目４５番２０‐４１３号,,27,210,5731105,,,,,,,2026-01-26,1,,,,,メゾンドゥミューズ,0
4480,8120003031709,新規,0,2026-01-26,2026-01-26,曄辰国際合同会社,,合同会社,大阪府,大阪市住吉区,長居２丁目３番１９号コーポコナカ３０３号室,,27,120,5580003,,,,,,,2026-01-26,1,,,,,ヨウシンコクサイ,0
4481,8120003031790,新規,0,2026-01-26,2026-01-26,合同会社ＬＩＮＫ配送サービス,,合同会社,大阪府,大阪市天王寺区,生玉町１０－２０－４０５号,,27,109,5430071,,,,,,,2026-01-26,1,,,,,リンクハイソウサービス,0
4482,8120105010115,新規,0,2026-01-26,2026-01-26,一般社団法人箱の浦まちづくり協議会,,その他の設立登記法人,大阪府,阪南市,箱の浦６０番地の３７,,27,232,5990235,,,,,,,2026-01-26,1,,,,,ハコノウラマチヅクリキョウギカイ,0
4487,8130003011107,新規,0,2026-01-26,2026-01-26,山川合同会社,,合同会社,京都府,京都市南区,吉祥院西ノ庄東屋敷町７６－３,,26,107,6018311,,,,,,,2026-01-26,1,,,,,ヤマカワ,0
4494,8140001141508,新規,0,2026-01-26,2026-01-26,株式会社文,,株式会社,兵庫県,神戸市中央区,中山手通２丁目１７－２,,28,110,6500004,,,,,,,2026-01-26,1,,,,,ブン,0
4499,8140003023118,新規,0,2026-01-26,2026-01-26,高曽みらいマネジメント合同会社,,合同会社,兵庫県,たつの市,揖保川町浦部２５０番地,,28,229,6711663,,,,,,,2026-01-26,1,,,,,コウソミライマネジメント,0
4500,8150003003820,新規,0,2026-01-26,2026-01-26,合同会社教材なら,,合同会社,奈良県,生駒郡三郷町,信貴ケ丘４丁目３番１０号,,29,343,6360813,,,,,,,2026-01-26,1,,,,,キョウザイナラ,0
4505,8180001170395,新規,0,2026-01-26,2026-01-26,Ｋｅｉ　Ｔｅｉ株式会社,,株式会社,愛知県,名古屋市北区,北久手町１３２番地の３,,23,103,4620001,,,,,,,2026-01-26,1,,,,,ケイテイ,0
4506,8180001170404,新規,0,2026-01-26,2026-01-26,株式会社ＡＳＩＴ,,株式会社,愛知県,名古屋市中区,栄２丁目１２番２２号,,23,106,4600008,,,,,,,2026-01-26,1,,,,,アシット,0
4508,8180003029680,新規,0,2026-01-26,2026-01-26,ＰＳＳ１号合同会社,,合同会社,愛知県,名古屋市名東区,小井堀町４０５番地の１,,23,115,4650044,,,,,,,2026-01-26,1,,,,,ピーエスエスイチゴウ,0
4511,8190001032859,新規,0,2026-01-26,2026-01-26,株式会社Ｓａｔｓｕｋｉ,,株式会社,三重県,津市,丸之内養正町１５番９号,,24,201,5140036,,,,,,,2026-01-26,1,,,,,サツキ,0
4513,8200003007205,新規,0,2026-01-26,2026-01-26,Ｔｒｅｅｐｕｌｓｅ　Ｔｒａｖｅｌｓ合同会社,,合同会社,岐阜県,高山市,上川原町一丁目１番地,,21,203,5060024,,,,,,,2026-01-26,1,,,,,ツリーパルストラベルス,0
4519,8230001021262,新規,0,2026-01-26,2026-01-26,株式会社西英,,株式会社,富山県,富山市,婦中町西本郷４３６番地３,,16,201,9392701,,,,,,,2026-01-26,1,,,,,ニシエイ,0
4523,8290001112873,新規,0,2026-01-26,2026-01-26,赤六花株式会社,,株式会社,福岡県,福岡市中央区,舞鶴１丁目１番１１天神グラスビルディング４０２号室,,40,133,8100073,,,,,,,2026-01-26,1,,,,,アカロッカ,0
4524,8290001112915,新規,0,2026-01-26,2026-01-26,株式会社さくら,,株式会社,福岡県,糟屋郡新宮町,緑ケ浜４丁目１４－１７,,40,345,8110119,,,,,,,2026-01-26,1,,,,,サクラ,0
4525,8290001112931,新規,0,2026-01-26,2026-01-26,ＡＣＥマネジメント株式会社,,株式会社,福岡県,太宰府市,向佐野４丁目５番１９号,,40,221,8180135,,,,,,,2026-01-26,1,,,,,エースマネジメント,0
4533,8300005007291,新規,0,2026-01-26,2026-01-26,一般社団法人セーフティネット,,その他の設立登記法人,佐賀県,佐賀市,神野東４丁目１－６－２Ｆ,,41,201,8400804,,,,,,,2026-01-26,1,,,,,セーフティネット,0
4540,8340001027926,新規,0,2026-01-26,2026-01-26,株式会社りんく,,株式会社,鹿児島県,鹿児島市,下荒田４丁目２１,,46,201,8900056,,,,,,,2026-01-26,1,,,,,リンク,0
4543,8350001019906,新規,0,2026-01-26,2026-01-26,アップステージ株式会社,,株式会社,宮崎県,宮崎市,大島町小玉１２６６番地,,45,201,8800824,,,,,,,2026-01-26,1,,,,,アップステージ,0
4588,8390001018227,新規,0,2026-01-26,2026-01-26,丸蒼建築株式会社,,株式会社,山形県,鶴岡市,羽黒町上野新田字上台３９番地,,06,203,9970142,,,,,,,2026-01-26,1,,,,,マルソウケンチク,0
4602,9010001262241,新規,0,2026-01-26,2026-01-26,ＴＣＧ２５１４株式会社,,株式会社,東京都,千代田区,丸の内１丁目５番１号,,13,101,1000005,,,,,,,2026-01-26,1,,,,,ティーシージーニーゴーイチヨン,0
4604,9010003050108,新規,0,2026-01-26,2026-01-26,ＲＩＳＥ　Ｂｕｉｌｄｅｒ合同会社,,合同会社,東京都,千代田区,神田神保町３丁目１１－６神保町ビル１０階,,13,101,1010051,,,,,,,2026-01-26,1,,,,,ライズビルダー,0
4605,9010003050124,新規,0,2026-01-26,2026-01-26,長崎島原蓄電合同会社,,合同会社,東京都,千代田区,神田東松下町１８番地高正ビル５階,,13,101,1010042,,,,,,,2026-01-26,1,,,,,ナガサキシマバラチクデン,0
4606,9010003050157,新規,0,2026-01-26,2026-01-26,ＴＮＦ合同会社,,合同会社,東京都,千代田区,丸の内１丁目４番１号東京共同会計事務所内,,13,101,1000005,,,,,,,2026-01-26,1,,,,,ティーエヌエフ,0
4607,9010005041261,新規,0,2026-01-26,2026-01-26,一般社団法人ＴＣＦ１,,その他の設立登記法人,東京都,千代田区,九段南３丁目７番７号成和綜合会計事務所内,,13,101,1020074,,,,,,,2026-01-26,1,,,,,ティーシーエフワン,0
4608,9010005041278,新規,0,2026-01-26,2026-01-26,一般社団法人浜風プロパティ,,その他の設立登記法人,東京都,千代田区,丸の内１丁目４番１号東京共同会計事務所内,,13,101,1000005,,,,,,,2026-01-26,1,,,,,ハマカゼプロパティ,0
4612,9010401196023,新規,0,2026-01-26,2026-01-26,株式会社ダイヤモンドネクター,,株式会社,東京都,港区,麻布十番２丁目１３－１１リバーレ麻布十番６０１,,13,103,1060045,,,,,,,2026-01-26,1,,,,,ダイヤモンドネクター,0
4613,9010401196130,新規,0,2026-01-26,2026-01-26,株式会社ＮＯＬＱ,,株式会社,東京都,港区,北青山１丁目３－３三橋ビル３階,,13,103,1070061,,,,,,,2026-01-26,1,,,,,ノルク,0
4615,9010403037134,新規,0,2026-01-26,2026-01-26,ＫＯＮＡＮ　ＭＡＲＩＮＥ合同会社,,合同会社,東京都,港区,海岸１丁目２番３号汐留芝離宮ビルディング２１階,,13,103,1050022,,,,,,,2026-01-26,1,,,,,コーナンマリン,0
4617,9010603012036,新規,0,2026-01-26,2026-01-26,ＫＳＳ日本部品合同会社,,合同会社,東京都,墨田区,江東橋４丁目２４－７キングズヴィリッジ８０１,,13,107,1300022,,,,,,,2026-01-26,1,,,,,,0
4653,9010903010573,新規,0,2026-01-26,2026-01-26,合同会社Ｊｉｒｏｂａｙ,,合同会社,東京都,世田谷区,太子堂５丁目３１番６号,,13,112,1540004,,,,,,,2026-01-26,1,,,,,ジロベイ,0
4661,9011005011329,新規,0,2026-01-26,2026-01-26,一般社団法人ＥＫＫＹＯ．ＨＵＢ,,その他の設立登記法人,東京都,渋谷区,円山町５番３号ＭＩＥＵＸ渋谷ビル８階,,13,113,1500044,,,,,,,2026-01-26,1,,,,,エッキョウハブ,0
4671,9011501033033,新規,0,2026-01-26,2026-01-26,株式会社Ｇｌｏｗｉｎｇ　ＵＰ,,株式会社,東京都,北区,上中里１丁目１番１７号,,13,117,1140016,,,,,,,2026-01-26,1,,,,,グローウィングアップ,0
4672,9011501033041,新規,0,2026-01-26,2026-01-26,宇星株式会社,,株式会社,東京都,荒川区,西日暮里１丁目３０番１０ユーユーハウス２１０号,,13,118,1160013,,,,,,,2026-01-26,1,,,,,ウセイ,0
4764,9011803007296,新規,0,2026-01-26,2026-01-26,合同会社Ａｒｋ,,合同会社,東京都,足立区,谷中１丁目５番３－２０３号,,13,121,1200006,,,,,,,2026-01-26,1,,,,,アーク,0
4789,9021001087388,新規,0,2026-01-26,2026-01-26,株式会社エルタイム,,株式会社,神奈川県,横須賀市,大滝町２丁目１４番地,,14,201,2380008,,,,,,,2026-01-26,1,,,,,エルタイム,0
4796,9030001170649,新規,0,2026-01-26,2026-01-26,株式会社稲作本舗,,株式会社,埼玉県,さいたま市北区,日進町１丁目７８６番地７,,11,102,3310823,,,,,,,2026-01-26,1,,,,,イナサクホンポ,0
4873,9040001142226,新規,0,2026-01-26,2026-01-26,ＪＭＴｒａｄｉｎｇ株式会社,,株式会社,千葉県,千葉市美浜区,中瀬１丁目３番地幕張テクノガーデンＣＢ棟３階,,12,106,2610023,,,,,,,2026-01-26,1,,,,,ジェイエムトレーディング,0
4874,9040001142242,新規,0,2026-01-26,2026-01-26,Ｎｉｃｏｒｅ株式会社,,株式会社,千葉県,大網白里市,駒込１２１２番地ファミリアエテルナ２０１号,,12,239,2993235,,,,,,,2026-01-26,1,,,,,ニコア,0
4875,9040001142309,新規,0,2026-01-26,2026-01-26,株式会社エイゼル,,株式会社,千葉県,流山市,西初石４丁目１４３５－９,,12,220,2700121,,,,,,,2026-01-26,1,,,,,エイゼル,0
4893,9040003029355,新規,0,2026-01-26,2026-01-26,Ｔｏｋｙｏ　Ａｄｖｅｎｔｕｒｅｓ合同会社,,合同会社,千葉県,南房総市,和田町１０４５,,12,234,2992400,,,,,,,2026-01-26,1,,,,,トウキョウアドベンチャーズ,0
4906,9050001057893,新規,0,2026-01-26,2026-01-26,株式会社ＵＳＫ,,株式会社,茨城県,牛久市,牛久町８９０番地５,,08,219,3001221,,,,,,,2026-01-26,1,,,,,ユーエスケー,0
4907,9050001057902,新規,0,2026-01-26,2026-01-26,株式会社寿心,,株式会社,茨城県,神栖市,神栖１丁目５番９号,,08,232,3140143,,,,,,,2026-01-26,1,,,,,ジュシン,0
4909,9070001043768,新規,0,2026-01-26,2026-01-26,株式会社Ｂｅｌｉｅｖｅ企画,,株式会社,群馬県,伊勢崎市,西小保方町３０２番地２４,,10,204,3792224,,,,,,,2026-01-26,1,,,,,ビリーヴキカク,0
4911,9080101026044,新規,0,2026-01-26,2026-01-26,株式会社あおまる,,株式会社,静岡県,富士宮市,中原町９２番地,,22,207,4180002,,,,,,,2026-01-26,1,,,,,アオマル,0
4913,9090001019709,新規,0,2026-01-26,2026-01-26,株式会社ＲＥ・ＬＩＦＥ,,株式会社,山梨県,中央市,極楽寺９１１番地２,,19,214,4093811,,,,,,,2026-01-26,1,,,,,リライフ,0
5018,9100003008575,新規,0,2026-01-26,2026-01-26,ＣｏｒｅＤｅｓｉｇｎＳｙｓｔｅｍ合同会社,,合同会社,長野県,長野市,大字栗田２１２５長栄長野東口ビル１Ｆ・２Ｆ,,20,201,3800921,,,,,,,2026-01-26,1,,,,,コアデザインシステム,0
5035,9120001283664,新規,0,2026-01-26,2026-01-26,株式会社ＢＵＹ　ＣＯＮＯＭＩ,,株式会社,大阪府,大阪市中央区,南久宝寺町４丁目５番８号清原第三ビル４階,,27,128,5410058,,,,,,,2026-01-26,1,,,,,バイコノミ,0
5038,9120101073032,新規,0,2026-01-26,2026-01-26,株式会社サニー,,株式会社,大阪府,高石市,西取石８丁目８番４０号,,27,225,5920012,,,,,,,2026-01-26,1,,,,,サニー,0
5039,9120105010114,新規,0,2026-01-26,2026-01-26,一般社団法人いのちとくらし支援ネットワーク,,その他の設立登記法人,大阪府,岸和田市,加守町４丁目２７番１号,,27,202,5960042,,,,,,,2026-01-26,1,,,,,イノチトクラシシエンネットワーク,0
5041,9122003003447,新規,0,2026-01-26,2026-01-26,合同会社東大阪機械制御,,合同会社,大阪府,大東市,赤井２丁目２番４１号,,27,218,5740046,,,,,,,2026-01-26,1,,,,,ヒガシオオサカキカイセイギョ,0
5044,9130003011106,新規,0,2026-01-26,2026-01-26,合同会社山口,,合同会社,京都府,京都市東山区,本町１丁目４１番地ルーシア清水五条２０１号,,26,105,6050981,,,,,,,2026-01-26,1,,,,,ヤマグチ,0
5045,9140003023117,新規,0,2026-01-26,2026-01-26,ステラ合同会社,,合同会社,兵庫県,神戸市東灘区,御影本町３丁目３－７－オーシャンビュー御影４０５,,28,101,6580046,,,,,,,2026-01-26,1,,,,,ステラ,0
5046,9140003023125,新規,0,2026-01-26,2026-01-26,合同会社Ｔｕｌｉｐａ　Ｄｅｓｉｇｎ,,合同会社,兵庫県,宝塚市,長尾台２丁目１７番１３号,,28,214,6650807,,,,,,,2026-01-26,1,,,,,チューリパデザイン,0
5050,9180001170394,新規,0,2026-01-26,2026-01-26,株式会社ＪＹＵＮＩＨＩＴＯＥ,,株式会社,愛知県,名古屋市昭和区,鶴舞１丁目２番３２号ＳＴＡＴＩＯＮ・Ａｉ,,23,107,4660064,,,,,,,2026-01-26,1,,,,,ジュウニヒトエ,0
5053,9190001032858,新規,0,2026-01-26,2026-01-26,株式会社ＷＡ,,株式会社,三重県,伊賀市,野間３９７,,24,216,5180023,,,,,,,2026-01-26,1,,,,,ワ,0
5060,9230001021261,新規,0,2026-01-26,2026-01-26,株式会社ヤマヤファーム,,株式会社,富山県,下新川郡朝日町,山崎４３０６番地,,16,343,9380162,,,,,,,2026-01-26,1,,,,,ヤマヤファーム,0
5067,9290001112914,新規,0,2026-01-26,2026-01-26,株式会社久福設備,,株式会社,福岡県,福岡市博多区,板付４丁目１２番４０号,,40,132,8120888,,,,,,,2026-01-26,1,,,,,クフクセツビ,0
5068,9290001112922,新規,0,2026-01-26,2026-01-26,株式会社太陽,,株式会社,福岡県,福岡市博多区,御供所町５番２７号グラムビル御供所町Ｂ棟５０１,,40,132,8120037,,,,,,,2026-01-26,1,,,,,タイヨウ,0
5069,9290001112930,新規,0,2026-01-26,2026-01-26,株式会社アグリード,,株式会社,福岡県,福岡市博多区,博多駅前３丁目２２番６号,,40,132,8120011,,,,,,,2026-01-26,1,,,,,アグリード,0
5070,9290001112939,新規,0,2026-01-26,2026-01-26,株式会社Ａｕｔｏ　Ｋｅｙ　Ｐｒｏ,,株式会社,福岡県,福岡市博多区,博多駅前１丁目１５番２０号ＮＭＦ博多駅前ビル２階,,40,132,8120011,,,,,,,2026-01-26,1,,,,,オートキープロ,0
5074,9300005007290,新規,0,2026-01-26,2026-01-26,特定非営利活動法人未来ギフト,,その他の設立登記法人,佐賀県,唐津市,西大島町１８番１７号,,41,202,8470872,,,,,,,2026-01-26,1,,,,,ミライギフト,0
5084,9340003005078,新規,0,2026-01-26,2026-01-26,合同会社丸鮮堂,,合同会社,鹿児島県,鹿児島市,東谷山１丁目５１番４－２号,,46,201,8910113,,,,,,,2026-01-26,1,,,,,マルセンドウ,0
5086,9350003005127,新規,0,2026-01-26,2026-01-26,霧島マウンテンコネクト合同会社,,合同会社,宮崎県,都城市,高崎町縄瀬４５７３,,45,202,8894503,,,,,,,2026-01-26,1,,,,,キリシママウンテンコネクト,0
5133,9410001014379,新規,0,2026-01-26,2026-01-26,ジャパン・サケ・カレッジ株式会社,,株式会社,秋田県,秋田市,山王４丁目６―２０合同ビル２階５号室,,05,201,0100951,,,,,,,2026-01-26,1,,,,,ジャパンサケカレッジ,0
5140,9450003002766,新規,0,2026-01-26,2026-01-26,合同会社プラント,,合同会社,北海道,旭川市,住吉四条１丁目５番３号,,01,204,0700864,,,,,,,2026-01-26,1,,,,,プラント,0
5141,9470003003060,新規,0,2026-01-26,2026-01-26,国土開発合同会社,,合同会社,香川県,丸亀市,富士見町５丁目１９番１１号,,37,202,7630011,,,,,,,2026-01-26,1,,,,,コクドカイハツ,0
