sequenceNumber,corporateNumber,process,correct,updateDate,changeDate,name,nameImageId,kind,prefectureName,cityName,streetNumber,addressImageId,prefectureCode,cityCode,postCode,addressOutside,addressOutsideImageId,closeDate,closeCause,successorCorporateNumber,changeCause,assignmentDate,latest,enName,enPrefectureName,enCityName,enAddressOutside,furigana,hihyoji
10,1010001225032,新規,0,2022-03-04,2022-03-04,株式会社ニューディレクション,,株式会社,東京都,中央区,銀座６丁目６－１銀座風月堂ビル５Ｆ,,13,102,1040061,,,,,,,2022-03-04,1,,,,,ニューディレクション,0
12,1010003037137,新規,0,2022-03-04,2022-03-04,合同会社ジェット,,合同会社,東京都,文京区,本駒込６丁目２２番２９号アルゴビル２０１,,13,105,1130021,,,,,,,2022-03-04,1,,,,,ジェット,0
13,1010005034644,新規,0,2022-03-04,2022-03-04,特定非営利活動法人日本科学振興協会,,その他の設立登記法人,東京都,千代田区,一ツ橋２丁目４番４号,,13,101,1010003,,,,,,,2022-03-04,1,,,,,ニホンカガクシンコウキョウカイ,0
14,1010005034677,新規,0,2022-03-04,2022-03-04,一般社団法人ハッピー安比,,その他の設立登記法人,東京都,千代田区,霞が関３丁目２番５号,,13,101,1000013,,,,,,,2022-03-04,1,,,,,ハッピーアッピ,0
20,1010401165943,新規,0,2022-03-04,2022-03-04,株式会社Ｂｕｆｆｅｔｔ　Ｌｉｆｅ,,株式会社,東京都,港区,新橋４丁目３１番３号第３名和ビル,,13,103,1050004,,,,,,,2022-03-04,1,,,,,バフェットライフ,0
21,1010401165968,新規,0,2022-03-04,2022-03-04,株式会社ｅｓａ,,株式会社,東京都,港区,高輪３丁目１９－２６,,13,103,1080074,,,,,,,2022-03-04,1,,,,,イーサ,0
23,1010403027200,新規,0,2022-03-04,2022-03-04,シャトンコミュニティー合同会社,,合同会社,東京都,港区,浜松町２丁目２番１５号浜松町ダイヤビル２Ｆ,,13,103,1050013,,,,,,,2022-03-04,1,,,,,シャトンコミュニティー,0
24,1010403027225,新規,0,2022-03-04,2022-03-04,合同会社心斎橋ホテル運営,,合同会社,東京都,港区,虎ノ門５丁目１番４号,,13,103,1050001,,,,,,,2022-03-04,1,,,,,シンサイバシホテルウンエイ,0
25,1010405020772,新規,0,2022-03-04,2022-03-04,行政書士法人つゆき合同事務所,,その他の設立登記法人,東京都,港区,赤坂３丁目１番１６号ＢＩビル,,13,103,1070052,,,,,,,2022-03-04,1,,,,,ツユキゴウドウジムショ,0
28,1010601060746,新規,0,2022-03-04,2022-03-04,鴻利株式会社,,株式会社,東京都,江東区,白河３丁目１－１６,,13,108,1350021,,,,,,,2022-03-04,1,,,,,コウリ,0
29,1010601060770,新規,0,2022-03-04,2022-03-04,株式会社ＡＺＡＮ,,株式会社,東京都,墨田区,立川３丁目１７番５号,,13,107,1300023,,,,,,,2022-03-04,1,,,,,アザン,0
30,1010601060779,新規,0,2022-03-04,2022-03-04,株式会社ＬＩＢＥＲＴＡ　ＢＥＥ,,株式会社,東京都,墨田区,向島３丁目９番３－７０４号,,13,107,1310033,,,,,,,2022-03-04,1,,,,,リベルタビー,0
31,1010601060795,新規,0,2022-03-04,2022-03-04,株式会社ＦａｖｏｒｉｔｅＤｒｉｖｅｎ,,株式会社,東京都,江東区,白河１丁目６－３,,13,108,1350021,,,,,,,2022-03-04,1,,,,,フェイバリットドリヴン,0
33,1010701042314,新規,0,2022-03-04,2022-03-04,ａｎｇｅｌａｓ株式会社,,株式会社,東京都,品川区,旗の台２丁目１１番６－１０１号,,13,109,1420064,,,,,,,2022-03-04,1,,,,,アンジェラス,0
35,1010801032776,新規,0,2022-03-04,2022-03-04,アナミ・ビジネス＆アカデミーコンサルタント株式会社,,株式会社,東京都,大田区,田園調布２丁目１８番７号,,13,111,1450071,,,,,,,2022-03-04,1,,,,,アナミビジネスアンドアカデミーコンサルタント,0
44,1011001146053,新規,0,2022-03-04,2022-03-04,ドリームターミナルリンク株式会社,,株式会社,東京都,渋谷区,千駄ヶ谷１丁目２１番１１号グリーンハイツ千駄ヶ谷２階,,13,113,1510051,,,,,,,2022-03-04,1,,,,,ドリームターミナルリンク,0
45,1011001146078,新規,0,2022-03-04,2022-03-04,株式会社ＴＲＩＣＥ,,株式会社,東京都,渋谷区,宇田川町３３番１０号５階,,13,113,1500042,,,,,,,2022-03-04,1,,,,,トライス,0
47,1011003014274,新規,0,2022-03-04,2022-03-04,合同会社ＴＫＣ,,合同会社,東京都,渋谷区,代々木５丁目２１番２２号,,13,113,1510053,,,,,,,2022-03-04,1,,,,,ティーケーシー,0
48,1011005009462,新規,0,2022-03-04,2022-03-04,一般社団法人Ｊａｐａｎｅｓｅ　Ｆｉｌｍ　Ｐｒｏｊｅｃｔ,,その他の設立登記法人,東京都,渋谷区,南平台町４番１３号南平台ハイツ２階,,13,113,1500036,,,,,,,2022-03-04,1,,,,,ジャパニーズフィルムプロジェクト,0
55,1011101098038,新規,0,2022-03-04,2022-03-04,株式会社ＭＩＲＡＩ,,株式会社,東京都,新宿区,西新宿２丁目７番１号,,13,104,1600023,,,,,,,2022-03-04,1,,,,,ミライ,0
60,1011203003762,新規,0,2022-03-04,2022-03-04,クリタ・コーポレートサービス合同会社,,合同会社,東京都,中野区,中野４丁目１０番１号,,13,114,1640001,,,,,,,2022-03-04,1,,,,,クリタコーポレートサービス,0
70,1011701025093,新規,0,2022-03-04,2022-03-04,サクセスホールディングス株式会社,,株式会社,東京都,江戸川区,北小岩６丁目１５番地１０－６０２号,,13,123,1330051,,,,,,,2022-03-04,1,,,,,サクセスホールディングス,0
76,1012301012903,新規,0,2022-03-04,2022-03-04,ホワイトベアー株式会社,,株式会社,東京都,町田市,山崎町１４２番地１０,,13,209,1950074,,,,,,,2022-03-04,1,,,,,ホワイトベアー,0
79,1012403005251,新規,0,2022-03-04,2022-03-04,ＣＯＹＯＴＥ合同会社,,合同会社,東京都,小金井市,梶野町１丁目２－３６,,13,210,1840002,,,,,,,2022-03-04,1,,,,,コヨーテ,0
80,1012701016958,新規,0,2022-03-04,2022-03-04,株式会社アユート美建,,株式会社,東京都,小平市,美園町１丁目６番１－６０７号,,13,211,1870041,,,,,,,2022-03-04,1,,,,,アユートビケン,0
82,1012801021429,新規,0,2022-03-04,2022-03-04,株式会社ＡＲＴＩＳＡＲＡＴＩＯＮ,,株式会社,東京都,立川市,柴崎町３丁目５番７号安田ビル３階,,13,202,1900023,,,,,,,2022-03-04,1,,,,,アルチザレーション,0
83,1012803002716,新規,0,2022-03-04,2022-03-04,Ｗｏｒｌｄ　Ｐｏｄ合同会社,,合同会社,東京都,国分寺市,本町２丁目９番１２号,,13,214,1850012,,,,,,,2022-03-04,1,,,,,ワールドポッド,0
86,1013303006067,新規,0,2022-03-04,2022-03-04,Ｋ＆Ｆコンサルティング合同会社,,合同会社,東京都,豊島区,南大塚３丁目３６―７,,13,116,1700005,,,,,,,2022-03-04,1,,,,,ケーアンドエフコンサルティング,0
90,1020001145452,新規,0,2022-03-04,2022-03-04,株式会社アマランス経理オフィス,,株式会社,神奈川県,横浜市中区,翁町１丁目６－７関内伊藤ビル２Ｆ,,14,104,2310028,,,,,,,2022-03-04,1,,,,,アマランスケイリオフィス,0
91,1020001145485,新規,0,2022-03-04,2022-03-04,Ｖｏｌｃａｎｏ株式会社,,株式会社,神奈川県,横浜市都筑区,桜並木７番１８－６号,,14,118,2240046,,,,,,,2022-03-04,1,,,,,ボルケーノ,0
92,1020001145502,新規,0,2022-03-04,2022-03-04,小宮株式会社,,株式会社,神奈川県,川崎市川崎区,渡田新町３丁目８番２号,,14,131,2100844,,,,,,,2022-03-04,1,,,,,コミヤ,0
93,1020001145527,新規,0,2022-03-04,2022-03-04,株式会社鈴木建設,,株式会社,神奈川県,横浜市鶴見区,平安町２丁目１０番地２,,14,101,2300031,,,,,,,2022-03-04,1,,,,,,0
94,1020001145535,新規,0,2022-03-04,2022-03-04,セカンドユニット株式会社,,株式会社,神奈川県,横浜市中区,元町４丁目１６８,,14,104,2310861,,,,,,,2022-03-04,1,,,,,セカンドユニット,0
98,1020003021362,新規,0,2022-03-04,2022-03-04,合同会社トライカンパニー,,合同会社,神奈川県,川崎市中原区,上小田中６丁目２２－８－２Ｆ,,14,133,2110053,,,,,,,2022-03-04,1,,,,,トライカンパニー,0
101,1021001075326,新規,0,2022-03-04,2022-03-04,協栄エコロジー株式会社,,株式会社,神奈川県,相模原市中央区,南橋本４丁目３番２７号,,14,152,2520253,,,,,,,2022-03-04,1,,,,,キョウエイエコロジー,0
102,1021001075334,新規,0,2022-03-04,2022-03-04,トゥルー株式会社,,株式会社,神奈川県,逗子市,山の根３丁目１５番４３号,,14,208,2490002,,,,,,,2022-03-04,1,,,,,トゥルー,0
106,1021003011444,新規,0,2022-03-04,2022-03-04,ぼくらの合同会社,,合同会社,神奈川県,相模原市南区,相模台２丁目１２番１７号,,14,153,2520321,,,,,,,2022-03-04,1,,,,,ボクラノ,0
111,1030001147027,新規,0,2022-03-04,2022-03-04,Ｍｅｄｅｓ株式会社,,株式会社,埼玉県,川口市,大字安行原２７８８番地,,11,203,3340057,,,,,,,2022-03-04,1,,,,,メデス,0
112,1030001147035,新規,0,2022-03-04,2022-03-04,鈴木冷熱株式会社,,株式会社,埼玉県,狭山市,大字水野１３０７番地の１３,,11,215,3501317,,,,,,,2022-03-04,1,,,,,スズキレイネツ,0
113,1030001147051,新規,0,2022-03-04,2022-03-04,株式会社サウスフィールド,,株式会社,埼玉県,ふじみ野市,霞ケ丘２丁目５番１－１０１０号,,11,245,3560006,,,,,,,2022-03-04,1,,,,,サウスフィールド,0
114,1030001147076,新規,0,2022-03-04,2022-03-04,株式会社ＴＨＲＥＥ　ＡＲＲＯＷＳ,,株式会社,埼玉県,さいたま市緑区,美園２丁目１２番地１,,11,109,3360967,,,,,,,2022-03-04,1,,,,,スリーアローズ,0
115,1030001147084,新規,0,2022-03-04,2022-03-04,株式会社キボウ,,株式会社,埼玉県,さいたま市岩槻区,大字本宿３３２番地４,,11,110,3390074,,,,,,,2022-03-04,1,,,,,キボウ,0
116,1030001147118,新規,0,2022-03-04,2022-03-04,ＫＡＧＡＷＡ株式会社,,株式会社,埼玉県,新座市,あたご３丁目４番地２１,,11,230,3520021,,,,,,,2022-03-04,1,,,,,カガワ,0
117,1030001147159,新規,0,2022-03-04,2022-03-04,株式会社ＲＡＴＥＬ,,株式会社,埼玉県,飯能市,大字岩沢８５５番地３,,11,209,3570023,,,,,,,2022-03-04,1,,,,,ラーテル,0
119,1030003018928,新規,0,2022-03-04,2022-03-04,アリトレーディング合同会社,,合同会社,埼玉県,春日部市,藤塚１９７７番地２０,,11,214,3440011,,,,,,,2022-03-04,1,,,,,アリトレーディング,0
120,1030003018960,新規,0,2022-03-04,2022-03-04,丸政架設合同会社,,合同会社,埼玉県,志木市,本町５丁目１８番２６号,,11,228,3530004,,,,,,,2022-03-04,1,,,,,マルマサカセツ,0
127,1040001122433,新規,0,2022-03-04,2022-03-04,株式会社清三郎,,株式会社,千葉県,千葉市稲毛区,長沼町１２０番地３,,12,103,2630005,,,,,,,2022-03-04,1,,,,,セイザブロウ,0
128,1040001122441,新規,0,2022-03-04,2022-03-04,株式会社Ｎｅｘｔ　ｉｎｎｏｖａｔｉｏｎ,,株式会社,千葉県,柏市,高田１０４２番地２６,,12,217,2770861,,,,,,,2022-03-04,1,,,,,ネクストイノベーション,0
129,1040001122466,新規,0,2022-03-04,2022-03-04,ＮＥＯ　ＦＬＯＷ株式会社,,株式会社,千葉県,松戸市,松戸１３０７－１松戸ビル１３Ｆ,,12,207,2710092,,,,,,,2022-03-04,1,,,,,ネオフロー,0
130,1040001122474,新規,0,2022-03-04,2022-03-04,株式会社デザイン間,,株式会社,千葉県,柏市,旭町２丁目８番２７－１０７号,,12,217,2770852,,,,,,,2022-03-04,1,,,,,デザインマ,0
131,1040001122508,新規,0,2022-03-04,2022-03-04,株式会社バロックス,,株式会社,千葉県,船橋市,坪井町７６５番地５０,,12,204,2740062,,,,,,,2022-03-04,1,,,,,バロックス,0
132,1040001122524,新規,0,2022-03-04,2022-03-04,サマ株式会社,,株式会社,千葉県,松戸市,西馬橋広手町６７番地パールマンション５０４号,,12,207,2710048,,,,,,,2022-03-04,1,,,,,サマ,0
138,1040003019611,新規,0,2022-03-04,2022-03-04,合同会社ＫＳ,,合同会社,千葉県,千葉市中央区,祐光４丁目７番６－２号モンターク東千葉２０１号,,12,101,2600007,,,,,,,2022-03-04,1,,,,,ケーエス,0
139,1040005021532,新規,0,2022-03-04,2022-03-04,一般社団法人ＱＢ道場,,その他の設立登記法人,千葉県,大網白里市,大網５７４０番地１０,,12,239,2993251,,,,,,,2022-03-04,1,,,,,キュービードウジョウ,0
142,1050001050724,新規,0,2022-03-04,2022-03-04,株式会社瀬尾電業,,株式会社,茨城県,笠間市,手越３８１,,08,216,3091621,,,,,,,2022-03-04,1,,,,,セオデンギョウ,0
143,1050001050732,新規,0,2022-03-04,2022-03-04,関東ビルサービス事業部株式会社,,株式会社,茨城県,水戸市,千波町１７９５番地１,,08,201,3100851,,,,,,,2022-03-04,1,,,,,カントウビルサービスジギョウブ,0
145,1060001034627,新規,0,2022-03-04,2022-03-04,株式会社福樹育林,,株式会社,栃木県,日光市,板橋６０６番地４,,09,206,3211102,,,,,,,2022-03-04,1,,,,,フクジュイクリン,0
147,1060003003968,新規,0,2022-03-04,2022-03-04,合同会社オフィースピカタウン,,合同会社,栃木県,塩谷郡高根沢町,大字花岡１５００番地３,,09,386,3291207,,,,,,,2022-03-04,1,,,,,オフィースピカタウン,0
150,1060005009955,新規,0,2022-03-04,2022-03-04,一般社団法人ココサポ,,その他の設立登記法人,栃木県,小山市,美しが丘３丁目２番地２,,09,208,3290207,,,,,,,2022-03-04,1,,,,,ココサポ,0
153,1070001039006,新規,0,2022-03-04,2022-03-04,株式会社高橋ガレージ,,株式会社,群馬県,吾妻郡東吾妻町,大字須賀尾９６０番地１,,10,429,3770934,,,,,,,2022-03-04,1,,,,,タカハシガレージ,0
154,1070001039014,新規,0,2022-03-04,2022-03-04,Ｔｓｕｂａｋｉ　Ｇｌｏｂａｌ　Ｔｒａｄｉｎｇ株式会社,,株式会社,群馬県,伊勢崎市,境５８７番地２,,10,204,3700124,,,,,,,2022-03-04,1,,,,,ツバキグローバルトレーディング,0
159,1090001017455,新規,0,2022-03-04,2022-03-04,株式会社信玄,,株式会社,山梨県,甲斐市,西八幡２１２２,,19,210,4000117,,,,,,,2022-03-04,1,,,,,シンゲン,0
162,1100001035117,新規,0,2022-03-04,2022-03-04,ＹＳＰ株式会社,,株式会社,長野県,上伊那郡箕輪町,大字中箕輪８４１１番地１,,20,383,3994601,,,,,,,2022-03-04,1,,,,,ワイエスピー,0
177,1120001243725,新規,0,2022-03-04,2022-03-04,大南サービス株式会社,,株式会社,大阪府,大阪市西成区,鶴見橋２丁目５－１１,,27,122,5570031,,,,,,,2022-03-04,1,,,,,ダイナンサービス,0
178,1120001244178,新規,0,2022-03-04,2022-03-04,株式会社ＡＩＳ,,株式会社,大阪府,大阪市福島区,鷺洲５丁目１１番２－８０３号,,27,103,5530002,,,,,,,2022-03-04,1,,,,,アイズ,0
179,1120001244194,新規,0,2022-03-04,2022-03-04,株式会社Ｌｉｂｒｅ,,株式会社,大阪府,大阪市北区,大淀南２丁目２番９－３０１５号,,27,127,5310075,,,,,,,2022-03-04,1,,,,,リブレ,0
180,1120001244228,新規,0,2022-03-04,2022-03-04,株式会社Ｒｅ－Ｗｏｒｋｓ,,株式会社,大阪府,大阪市中央区,南船場３丁目６番２５号,,27,128,5420081,,,,,,,2022-03-04,1,,,,,リワークス,0
181,1120001244236,新規,0,2022-03-04,2022-03-04,株式会社中村建装,,株式会社,大阪府,枚方市,町楠葉２丁目３番３－１０２号,,27,210,5731106,,,,,,,2022-03-04,1,,,,,ナカムラケンソウ,0
182,1120001244285,新規,0,2022-03-04,2022-03-04,株式会社清水組,,株式会社,大阪府,守口市,寺方元町３丁目８番２－１０６号,,27,209,5700047,,,,,,,2022-03-04,1,,,,,シミズグミ,0
183,1120001244293,新規,0,2022-03-04,2022-03-04,ＮＳプロスチール建材株式会社,,株式会社,大阪府,大阪市西区,南堀江３丁目１３番１４号,,27,106,5500015,,,,,,,2022-03-04,1,,,,,エヌエスプロスチールケンザイ,0
186,1120101065144,新規,0,2022-03-04,2022-03-04,株式会社大美野動物病院,,株式会社,大阪府,堺市東区,大美野１５９番地８,,27,143,5998126,,,,,,,2022-03-04,1,,,,,オオミノドウブツビョウイン,0
187,1120101065169,新規,0,2022-03-04,2022-03-04,株式会社セイス,,株式会社,大阪府,堺市堺区,翁橋町１丁９番１－１００３号,,27,141,5900061,,,,,,,2022-03-04,1,,,,,セイス,0
188,1120101065177,新規,0,2022-03-04,2022-03-04,システムデザイン株式会社,,株式会社,大阪府,高石市,高師浜１丁目３番３５－２０５号,,27,225,5920004,,,,,,,2022-03-04,1,,,,,システムデザイン,0
191,1120901045675,新規,0,2022-03-04,2022-03-04,株式会社アーキ・センス,,株式会社,大阪府,高槻市,岡本町６３番１７号,,27,207,5691137,,,,,,,2022-03-04,1,,,,,アーキセンス,0
192,1120901045683,新規,0,2022-03-04,2022-03-04,株式会社リノベアトリエ,,株式会社,大阪府,高槻市,真上町１丁目１番１８号Ｉｎｓｉｓｔ２１ＢＬＤ４Ｆ,,27,207,5691121,,,,,,,2022-03-04,1,,,,,リノベアトリエ,0
196,1122001035631,新規,0,2022-03-04,2022-03-04,リボーン経営株式会社,,株式会社,大阪府,東大阪市,小阪１丁目４番２２号,,27,227,5770801,,,,,,,2022-03-04,1,,,,,リボーンケイエイ,0
197,1122001035648,新規,0,2022-03-04,2022-03-04,株式会社オフィス山本,,株式会社,大阪府,八尾市,山本町北５丁目８番１４号,,27,212,5810831,,,,,,,2022-03-04,1,,,,,オフィスヤマモト,0
199,1122003002282,新規,0,2022-03-04,2022-03-04,合同会社Ｋｉｎｏ　Ｄｅｓｉｇｎ,,合同会社,大阪府,東大阪市,立花町１０番９号,,27,227,5798023,,,,,,,2022-03-04,1,,,,,キノデザイン,0
200,1130001071266,新規,0,2022-03-04,2022-03-04,株式会社ＫＯＹＯ,,株式会社,京都府,舞鶴市,字倉谷９２４番地５,,26,202,6240906,,,,,,,2022-03-04,1,,,,,コウヨウ,0
203,1130003007796,新規,0,2022-03-04,2022-03-04,合同会社アイ,,合同会社,京都府,京都市右京区,西京極前田町５番地１７,,26,108,6150823,,,,,,,2022-03-04,1,,,,,アイ,0
209,1140001125104,新規,0,2022-03-04,2022-03-04,株式会社長谷坂縫製,,株式会社,兵庫県,美方郡新温泉町,桐岡２３４番地,,28,586,6696815,,,,,,,2022-03-04,1,,,,,ハセサカホウセイ,0
210,1140001125120,新規,0,2022-03-04,2022-03-04,株式会社フードライフマネジメント,,株式会社,兵庫県,赤穂市,尾崎３１６１番地１３,,28,212,6780221,,,,,,,2022-03-04,1,,,,,フードライフマネジメント,0
212,1160001024023,新規,0,2022-03-04,2022-03-04,株式会社オーエスエープランニング,,株式会社,滋賀県,野洲市,市三宅１０５８番地,,25,210,5202362,,,,,,,2022-03-04,1,,,,,オーエスエープランニング,0
221,1180001150197,新規,0,2022-03-04,2022-03-04,株式会社システムダイナミクス,,株式会社,愛知県,春日井市,桃山町２丁目２６０番地,,23,206,4860802,,,,,,,2022-03-04,1,,,,,システムダイナミクス,0
222,1180001150214,新規,0,2022-03-04,2022-03-04,Ｎ９株式会社,,株式会社,愛知県,名古屋市港区,土古町１丁目６５番地の４,,23,111,4550068,,,,,,,2022-03-04,1,,,,,エヌナイン,0
223,1180001150305,新規,0,2022-03-04,2022-03-04,株式会社心建,,株式会社,愛知県,瀬戸市,共栄通６丁目８０番地の４,,23,204,4890809,,,,,,,2022-03-04,1,,,,,シンケン,0
237,1200001039801,新規,0,2022-03-04,2022-03-04,株式会社イノショク,,株式会社,岐阜県,中津川市,駒場１６６６番地の３７７６,,21,206,5080011,,,,,,,2022-03-04,1,,,,,イノショク,0
238,1200001039834,新規,0,2022-03-04,2022-03-04,株式会社Ａ．ｌａｂ,,株式会社,岐阜県,岐阜市,鍵屋西町１丁目７６番地,,21,201,5008314,,,,,,,2022-03-04,1,,,,,エーラボ,0
241,1220001024719,新規,0,2022-03-04,2022-03-04,株式会社Ｃａｒｂｏｎ　Ｖｅｎｔｕｒｅｓ,,株式会社,石川県,金沢市,玉川町１番５号,,17,201,9200863,,,,,,,2022-03-04,1,,,,,カーボンベンチャーズ,0
242,1220001024727,新規,0,2022-03-04,2022-03-04,株式会社リーフファーム加賀,,株式会社,石川県,加賀市,直下町ホ３５５番地２,,17,206,9220825,,,,,,,2022-03-04,1,,,,,リーフファームカガ,0
245,1230001019263,新規,0,2022-03-04,2022-03-04,株式会社ＡｒｃｏＢａｌｅｎｏ,,株式会社,富山県,富山市,常盤町４番１６号,,16,201,9300047,,,,,,,2022-03-04,1,,,,,アルコバレーノ,0
246,1230003001814,新規,0,2022-03-04,2022-03-04,太陽リース合同会社,,合同会社,富山県,高岡市,下麻生４９９番地２,,16,202,9391272,,,,,,,2022-03-04,1,,,,,タイヨウリース,0
249,1250003003016,新規,0,2022-03-04,2022-03-04,合同会社モリプランニング,,合同会社,山口県,下関市,岬之町１４番１号東武ビル１Ｆ,,35,201,7500014,,,,,,,2022-03-04,1,,,,,モリプランニング,0
253,1270001008469,新規,0,2022-03-04,2022-03-04,株式会社建築工房ＡＬＢＡ,,株式会社,鳥取県,米子市,東福原４丁目２番２７号,,31,202,6830802,,,,,,,2022-03-04,1,,,,,ケンチクコウボウアルバ,0
255,1290001096603,新規,0,2022-03-04,2022-03-04,株式会社Ｌｉｇｈｔｎｉｎｇ,,株式会社,福岡県,福岡市早良区,飯倉８丁目２９番８号,,40,137,8140161,,,,,,,2022-03-04,1,,,,,ライトニング,0
256,1290001096628,新規,0,2022-03-04,2022-03-04,ＣｏｔｏＣｏｔｏ工房株式会社,,株式会社,福岡県,糟屋郡粕屋町,大字内橋６０７番地１,,40,349,8112308,,,,,,,2022-03-04,1,,,,,コトコトコウボウ,0
257,1290001096636,新規,0,2022-03-04,2022-03-04,株式会社エフ・ジェイビジネスソリューションズ,,株式会社,福岡県,福岡市博多区,下川端町２番１号,,40,132,8120027,,,,,,,2022-03-04,1,,,,,エフジェイビジネスソリューションズ,0
258,1290001096644,新規,0,2022-03-04,2022-03-04,幸福工業株式会社,,株式会社,福岡県,福岡市西区,野方７丁目９３８番地１１,,40,135,8190043,,,,,,,2022-03-04,1,,,,,コウフクコウギョウ,0
259,1290001096652,新規,0,2022-03-04,2022-03-04,株式会社みくに不動産,,株式会社,福岡県,小郡市,大保１２１７番地１,,40,216,8380115,,,,,,,2022-03-04,1,,,,,ミクニフドウサン,0
260,1290001096660,新規,0,2022-03-04,2022-03-04,ＲＩＴＡ株式会社,,株式会社,福岡県,糟屋郡須惠町,大字旅石１７０－９８,,40,344,8112221,,,,,,,2022-03-04,1,,,,,リタ,0
261,1290001096685,新規,0,2022-03-04,2022-03-04,株式会社トライアンフ,,株式会社,福岡県,福岡市城南区,干隈２丁目５８番２６－８０５号,,40,136,8140132,,,,,,,2022-03-04,1,,,,,トライアンフ,0
265,1290003012236,新規,0,2022-03-04,2022-03-04,合同会社ｓｅｐｔ,,合同会社,福岡県,福岡市西区,北原１丁目１９番３号,,40,135,8190379,,,,,,,2022-03-04,1,,,,,セプト,0
266,1290801028318,新規,0,2022-03-04,2022-03-04,株式会社Ａｕｔｏ　ｒｅｐａｉｒ　ＰＥＮＧＵＩＮ,,株式会社,福岡県,遠賀郡水巻町,猪熊１０丁目１番３号,,40,382,8070001,,,,,,,2022-03-04,1,,,,,オートリペアペンギン,0
268,1300001012830,新規,0,2022-03-04,2022-03-04,株式会社創心,,株式会社,佐賀県,佐賀市,中央本町４－１６,,41,201,8400825,,,,,,,2022-03-04,1,,,,,ソウシン,0
270,1300003001798,新規,0,2022-03-04,2022-03-04,合同会社ＴＭＲ,,合同会社,佐賀県,佐賀市,中央本町９番２号,,41,201,8400825,,,,,,,2022-03-04,1,,,,,ティーエムアール,0
271,1310001017746,新規,0,2022-03-04,2022-03-04,株式会社ＴＫｃｏｍｐａｎｙ,,株式会社,長崎県,長崎市,西山２丁目１２番３号,,42,201,8500001,,,,,,,2022-03-04,1,,,,,ティーケーカンパニー,0
277,1330001029509,新規,0,2022-03-04,2022-03-04,株式会社ＣＷホールディングス,,株式会社,熊本県,熊本市南区,江越１丁目１２番１５号,,43,104,8600834,,,,,,,2022-03-04,1,,,,,シーダブリューホールディングス,0
281,1350001017619,新規,0,2022-03-04,2022-03-04,株式会社２ＮＤ　ＣＲＥＡ,,株式会社,宮崎県,延岡市,山下町２丁目５番地２３,,45,203,8820055,,,,,,,2022-03-04,1,,,,,セカンドクレア,0
286,1360001030067,新規,0,2022-03-04,2022-03-04,株式会社ドライブ,,株式会社,沖縄県,中頭郡中城村,字南上原９４０番地７,,47,328,9012424,,,,,,,2022-03-04,1,,,,,ドライブ,0
287,1360001030083,新規,0,2022-03-04,2022-03-04,株式会社ＢＨ企画,,株式会社,沖縄県,中頭郡北谷町,字宮城１番地８０ー１０１号,,47,326,9040113,,,,,,,2022-03-04,1,,,,,ビーエイチキカク,0
292,1370001048273,新規,0,2022-03-04,2022-03-04,小田部ワークス株式会社,,株式会社,宮城県,仙台市太白区,長町５丁目３番１－２７０３号,,04,104,9820011,,,,,,,2022-03-04,1,,,,,オタベワークス,0
293,1370001048281,新規,0,2022-03-04,2022-03-04,株式会社ＨＣ－Ｌｉｎｋ,,株式会社,宮城県,仙台市若林区,荒井南４番地の４,,04,103,9840039,,,,,,,2022-03-04,1,,,,,エイチシーリンク,0
298,1380001032615,新規,0,2022-03-04,2022-03-04,株式会社永和ファーム,,株式会社,福島県,会津若松市,高野町大字上高野字畑田６番地の１,,07,202,9650077,,,,,,,2022-03-04,1,,,,,エイワファーム,0
309,1430001086093,新規,0,2022-03-04,2022-03-04,山田総業株式会社,,株式会社,北海道,江別市,新栄台３８番地の４,,01,217,0690806,,,,,,,2022-03-04,1,,,,,ヤマダソウギョウ,0
310,1430001086127,新規,0,2022-03-04,2022-03-04,ｙｐｓｙｌｏｎ株式会社,,株式会社,北海道,虻田郡ニセコ町,字曽我７２０番地１,,01,395,0481522,,,,,,,2022-03-04,1,,,,,イプシロン,0
311,1430001086135,新規,0,2022-03-04,2022-03-04,名慈興業株式会社,,株式会社,北海道,恵庭市,黄金南６丁目６番地１６,,01,231,0611409,,,,,,,2022-03-04,1,,,,,メイジコウギョウ,0
312,1430001086143,新規,0,2022-03-04,2022-03-04,株式会社ワイズブランド,,株式会社,北海道,札幌市北区,西茨戸一条１丁目４番２０号,,01,102,0028031,,,,,,,2022-03-04,1,,,,,ワイズブランド,0
314,1460101007153,新規,0,2022-03-04,2022-03-04,ビルドライン株式会社,,株式会社,北海道,中川郡幕別町,札内桜町６６番地の３,,01,643,0890535,,,,,,,2022-03-04,1,,,,,ビルドライン,0
315,1462501000927,新規,0,2022-03-04,2022-03-04,株式会社Ｐｉｒｉｃａ　Ｇｅｎｅｔｉｃｓ,,株式会社,北海道,標津郡中標津町,桜ヶ丘２丁目５２番地１,,01,692,0861153,,,,,,,2022-03-04,1,,,,,ピリカジェネティクス,0
317,1470001018992,新規,0,2022-03-04,2022-03-04,共真ＧＲＥＥＮ株式会社,,株式会社,香川県,高松市,香西本町７００番地１７,,37,201,7618012,,,,,,,2022-03-04,1,,,,,キョウシングリーン,0
329,2010001224974,新規,0,2022-03-04,2022-03-04,ＶＡＳ　ＪＡＰＡＮ株式会社,,株式会社,東京都,千代田区,神田須田町２丁目２５－１６日宝秋葉原ビル１２階,,13,101,1010041,,,,,,,2022-03-04,1,,,,,バスジャパン,0
330,2010001225007,新規,0,2022-03-04,2022-03-04,株式会社ライズマークス,,株式会社,東京都,千代田区,神田小川町３丁目１１番地７エスペランサ小川町６階,,13,101,1010052,,,,,,,2022-03-04,1,,,,,ライズマークス,0
332,2010003037144,新規,0,2022-03-04,2022-03-04,合同会社ＳＡＩ,,合同会社,東京都,文京区,大塚３丁目３４－１２,,13,105,1120012,,,,,,,2022-03-04,1,,,,,エスエーアイ,0
333,2010003037152,新規,0,2022-03-04,2022-03-04,Ｐｅｐ合同会社,,合同会社,東京都,中央区,日本橋茅場町２丁目１番１０－８０５号,,13,102,1030025,,,,,,,2022-03-04,1,,,,,ペップ,0
343,2010401165934,新規,0,2022-03-04,2022-03-04,株式会社ｐｒｅｍｉｅｒ,,株式会社,東京都,港区,麻布十番２丁目１２番５－１０２号コンフォート麻布,,13,103,1060045,,,,,,,2022-03-04,1,,,,,プルミエール,0
344,2010401165942,新規,0,2022-03-04,2022-03-04,ＭＴＬ株式会社,,株式会社,東京都,港区,麻布十番３丁目１２番１号,,13,103,1060045,,,,,,,2022-03-04,1,,,,,エムティーエル,0
345,2010401165959,新規,0,2022-03-04,2022-03-04,株式会社応援バトル,,株式会社,東京都,港区,虎ノ門４丁目３番１号城山トラストタワー２７Ｆ,,13,103,1050001,,,,,,,2022-03-04,1,,,,,オウエンバトル,0
346,2010401165967,新規,0,2022-03-04,2022-03-04,株式会社すいか,,株式会社,東京都,港区,南麻布４丁目１２番４－２０２号,,13,103,1060047,,,,,,,2022-03-04,1,,,,,スイカ,0
347,2010401165975,新規,0,2022-03-04,2022-03-04,株式会社ＶＩＶＡ　ＬＡ　ＲＯＣＫＡ,,株式会社,東京都,港区,西麻布２丁目７番５号ハウス西麻布２Ｆ,,13,103,1060031,,,,,,,2022-03-04,1,,,,,ビバラロッカ,0
348,2010401165983,新規,0,2022-03-04,2022-03-04,株式会社シオン,,株式会社,東京都,港区,南麻布４丁目９番２２号,,13,103,1060047,,,,,,,2022-03-04,1,,,,,シオン,0
352,2010403027190,新規,0,2022-03-04,2022-03-04,ＮＳ－１合同会社,,合同会社,東京都,港区,南麻布５丁目２番５号ザ・ハウス南麻布１０１号室,,13,103,1060047,,,,,,,2022-03-04,1,,,,,エヌエスワン,0
353,2010403027216,新規,0,2022-03-04,2022-03-04,合同会社ＤＡＩＮ,,合同会社,東京都,港区,赤坂３丁目１１番１４－７０３号,,13,103,1070052,,,,,,,2022-03-04,1,,,,,ダイン,0
354,2010403027224,新規,0,2022-03-04,2022-03-04,合同会社名古屋栄ホテル運営,,合同会社,東京都,港区,虎ノ門５丁目１番４号,,13,103,1050001,,,,,,,2022-03-04,1,,,,,ナゴヤサカエホテルウンエイ,0
355,2010405020771,新規,0,2022-03-04,2022-03-04,司法書士法人つゆき合同事務所,,その他の設立登記法人,東京都,港区,赤坂３丁目１番１６号ＢＩビル,,13,103,1070052,,,,,,,2022-03-04,1,,,,,ツユキゴウドウジムショ,0
360,2010501048543,新規,0,2022-03-04,2022-03-04,ワイファ株式会社,,株式会社,東京都,台東区,上野７丁目４番９号細田ビル,,13,106,1100005,,,,,,,2022-03-04,1,,,,,ワイファ,0
361,2010505003296,新規,0,2022-03-04,2022-03-04,特定非営利活動法人スポサー,,その他の設立登記法人,東京都,台東区,柳橋２丁目１番５－１００３号ＧＥＮＯＶＩＡ浅草橋ｇｒｅｅｎｖｅｉｌ,,13,106,1110052,,,,,,,2022-03-04,1,,,,,スポサー,0
363,2010601060778,新規,0,2022-03-04,2022-03-04,株式会社ＺＩＰＡＮＧＵ,,株式会社,東京都,墨田区,両国１丁目３番１１号,,13,107,1300026,,,,,,,2022-03-04,1,,,,,ジパング,0
365,2010701042313,新規,0,2022-03-04,2022-03-04,みさきフィデューシャリー・エージェント株式会社,,株式会社,東京都,品川区,東品川２丁目２番４号,,13,109,1400002,,,,,,,2022-03-04,1,,,,,ミサキフィデューシャリーエージェント,0
366,2010701042321,新規,0,2022-03-04,2022-03-04,ミラインディア株式会社,,株式会社,東京都,品川区,上大崎２丁目１０番３４－３－１０２号,,13,109,1410021,,,,,,,2022-03-04,1,,,,,ミラインディア,0
372,2010801032783,新規,0,2022-03-04,2022-03-04,株式会社ＥＩＲＹＯ,,株式会社,東京都,大田区,田園調布５丁目５６番４号,,13,111,1450071,,,,,,,2022-03-04,1,,,,,エイリョウ,0
378,2010903007196,新規,0,2022-03-04,2022-03-04,合同会社Ｈ,,合同会社,東京都,世田谷区,池尻１丁目６番２号,,13,112,1540001,,,,,,,2022-03-04,1,,,,,エイチ,0
386,2011001146085,新規,0,2022-03-04,2022-03-04,ＦＬＯＷＥＲ株式会社,,株式会社,東京都,目黒区,三田１丁目１１番１号ＹＴタナカビルディング３Ｆ,,13,110,1530062,,,,,,,2022-03-04,1,,,,,フラワー,0
387,2011001146093,新規,0,2022-03-04,2022-03-04,株式会社エフバイキャピタル,,株式会社,東京都,渋谷区,渋谷１丁目８番３号,,13,113,1500002,,,,,,,2022-03-04,1,,,,,エフバイキャピタル,0
388,2011003014298,新規,0,2022-03-04,2022-03-04,合同会社ＪＹ,,合同会社,東京都,渋谷区,神宮前２丁目２番３９－１７１３号,,13,113,1500001,,,,,,,2022-03-04,1,,,,,ジェーワイ,0
389,2011005009461,新規,0,2022-03-04,2022-03-04,一般社団法人Ｋｅｙｓｔｏｎｅ,,その他の設立登記法人,東京都,渋谷区,道玄坂１丁目１６番５号大下ビル９階,,13,113,1500043,,,,,,,2022-03-04,1,,,,,キーストン,0
407,2011603003543,新規,0,2022-03-04,2022-03-04,合同会社ＳＯＷＡＭ,,合同会社,東京都,練馬区,高松２丁目２４－１１,,13,120,1790075,,,,,,,2022-03-04,1,,,,,ソワム,0
408,2011701025092,新規,0,2022-03-04,2022-03-04,株式会社ＭＯＡＮＡ,,株式会社,東京都,江戸川区,西葛西５丁目８番２４ー３１３号サンクタス西葛西,,13,123,1340088,,,,,,,2022-03-04,1,,,,,モアナ,0
416,2012801021428,新規,0,2022-03-04,2022-03-04,エム・ケーホールディングス株式会社,,株式会社,東京都,日野市,大坂上１丁目３０番地２８ＭＫビル,,13,212,1910061,,,,,,,2022-03-04,1,,,,,エムケーホールディングス,0
417,2012803002715,新規,0,2022-03-04,2022-03-04,合同会社エスアイ・オフィスＫ,,合同会社,東京都,国分寺市,東元町１丁目３９番１９号,,13,214,1850022,,,,,,,2022-03-04,1,,,,,エスアイオフィスケイ,0
431,2020001145518,新規,0,2022-03-04,2022-03-04,株式会社ｍｉｘｂｏｘ,,株式会社,神奈川県,横浜市都筑区,池辺町４４９２番地プランドール都筑３０１,,14,118,2240053,,,,,,,2022-03-04,1,,,,,ミックスボックス,0
432,2020001145534,新規,0,2022-03-04,2022-03-04,ｉ－Ｂｒｉｄｇｅ株式会社,,株式会社,神奈川県,横浜市港南区,大久保１丁目６番４６号,,14,111,2330007,,,,,,,2022-03-04,1,,,,,アイブリッジ,0
439,2020003021403,新規,0,2022-03-04,2022-03-04,合同会社Ａｉ　Ｆａｃｅ工房,,合同会社,神奈川県,川崎市麻生区,はるひ野４丁目６番２－４０３号,,14,137,2150036,,,,,,,2022-03-04,1,,,,,アイフェイスコウボウ,0
440,2021001075341,新規,0,2022-03-04,2022-03-04,株式会社Ｔｉｔｏｓ　Ｖｉｎｔａｇｅ,,株式会社,神奈川県,相模原市南区,古淵１丁目２１－１０,,14,153,2520344,,,,,,,2022-03-04,1,,,,,ティトスビンテージ,0
446,2030001147034,新規,0,2022-03-04,2022-03-04,株式会社ＳＵＭＩＹＡ,,株式会社,埼玉県,児玉郡上里町,大字嘉美５４７番地,,11,385,3690307,,,,,,,2022-03-04,1,,,,,スミヤ,0
447,2030001147042,新規,0,2022-03-04,2022-03-04,株式会社桜防災,,株式会社,埼玉県,春日部市,下蛭田２３３番地３（１０１）,,11,214,3440043,,,,,,,2022-03-04,1,,,,,サクラボウサイ,0
448,2030001147050,新規,0,2022-03-04,2022-03-04,ＭＩＤＯＲＥＥ　ＣＯＦＦＥＥ株式会社,,株式会社,埼玉県,戸田市,大字新曽２１７８番地フルール・ドゥ・ソレイユ,,11,224,3350021,,,,,,,2022-03-04,1,,,,,ミドリーコーヒー,0
449,2030001147067,新規,0,2022-03-04,2022-03-04,株式会社Ｂｌｕｅ　Ｆａｂｒｉｃ,,株式会社,埼玉県,所沢市,東町１５番２３－４０３号アイディーコート所沢ブリエ,,11,208,3591116,,,,,,,2022-03-04,1,,,,,ブルーファブリック,0
450,2030001147091,新規,0,2022-03-04,2022-03-04,フジミノデザイン株式会社,,株式会社,埼玉県,富士見市,ふじみ野西２丁目１番地１東２－２０２,,11,235,3540035,,,,,,,2022-03-04,1,,,,,フジミノデザイン,0
451,2030001147109,新規,0,2022-03-04,2022-03-04,リベラシオンコンサルティング株式会社,,株式会社,埼玉県,さいたま市浦和区,高砂３丁目７番８－６０６号,,11,107,3300063,,,,,,,2022-03-04,1,,,,,リベラシオンコンサルティング,0
452,2030001147117,新規,0,2022-03-04,2022-03-04,株式会社ディーフィールド,,株式会社,埼玉県,さいたま市見沼区,堀崎町１０７０番地２,,11,104,3370052,,,,,,,2022-03-04,1,,,,,ディーフィールド,0
453,2030001147125,新規,0,2022-03-04,2022-03-04,三ツ矢ホーム株式会社,,株式会社,埼玉県,さいたま市大宮区,土手町３丁目２５８番地３号ＴＰマンション３０１,,11,103,3300801,,,,,,,2022-03-04,1,,,,,ミツヤホーム,0
456,2030003018943,新規,0,2022-03-04,2022-03-04,合同会社Ｇｒａｎｄｅｕｒ　Ｒａｉｎｂｏｗ,,合同会社,埼玉県,春日部市,新宿新田３４２番地４９,,11,214,3440113,,,,,,,2022-03-04,1,,,,,グランドールレインボー,0
457,2030003018976,新規,0,2022-03-04,2022-03-04,かたばみ書房合同会社,,合同会社,埼玉県,所沢市,小手指南２丁目１１番地の１４,,11,208,3591146,,,,,,,2022-03-04,1,,,,,カタバミショボウ,0
463,2040001122424,新規,0,2022-03-04,2022-03-04,株式会社アネピス,,株式会社,千葉県,柏市,弥生町５番７号,,12,217,2770015,,,,,,,2022-03-04,1,,,,,アネピス,0
464,2040001122449,新規,0,2022-03-04,2022-03-04,株式会社片山建設,,株式会社,千葉県,八街市,富山１３１４番地３２８１,,12,230,2891141,,,,,,,2022-03-04,1,,,,,カタヤマケンセツ,0
465,2040001122457,新規,0,2022-03-04,2022-03-04,株式会社ＦＭグリ・コーポレーション,,株式会社,千葉県,船橋市,海神１丁目４番１７号,,12,204,2730021,,,,,,,2022-03-04,1,,,,,エフエムグリコーポレーション,0
466,2040001122465,新規,0,2022-03-04,2022-03-04,株式会社ＤＤ　ＩＮＴＥＲＩＯＲ,,株式会社,千葉県,松戸市,小金原１丁目２番地の４,,12,207,2700021,,,,,,,2022-03-04,1,,,,,ディーディーインテリア,0
467,2040001122473,新規,0,2022-03-04,2022-03-04,株式会社ＩＲ　ｅｓｔａｔｅ,,株式会社,千葉県,船橋市,本町７丁目２３－１０ガビアーノ船橋４０６,,12,204,2730005,,,,,,,2022-03-04,1,,,,,アイアールエステート,0
468,2040001122481,新規,0,2022-03-04,2022-03-04,ＲＳＫ株式会社,,株式会社,千葉県,市原市,菊間１６７６番地６,,12,219,2900007,,,,,,,2022-03-04,1,,,,,,0
469,2040001122498,新規,0,2022-03-04,2022-03-04,株式会社向日葵ホーム,,株式会社,千葉県,大網白里市,南玉３９９番地,,12,239,2993244,,,,,,,2022-03-04,1,,,,,ヒマワリホーム,0
470,2040001122507,新規,0,2022-03-04,2022-03-04,株式会社ライフボックス,,株式会社,千葉県,木更津市,太田４丁目２０番８号,,12,206,2920044,,,,,,,2022-03-04,1,,,,,ライフボックス,0
473,2040003019602,新規,0,2022-03-04,2022-03-04,合同会社エンワコーポレーション,,合同会社,千葉県,松戸市,上本郷２２３４番地の６,,12,207,2710064,,,,,,,2022-03-04,1,,,,,エンワコーポレーション,0
474,2040003019610,新規,0,2022-03-04,2022-03-04,合同会社ＬＰＪＳ,,合同会社,千葉県,市川市,行徳駅前１丁目１９－１３Ｔ．ＯＢＬＤＧ１ｓｔ２０５,,12,203,2720133,,,,,,,2022-03-04,1,,,,,エルピージェイエス,0
476,2060001034634,新規,0,2022-03-04,2022-03-04,株式会社音葵,,株式会社,栃木県,宇都宮市,江曽島３丁目２５７７番地２０,,09,201,3210107,,,,,,,2022-03-04,1,,,,,オトギ,0
479,2060003003967,新規,0,2022-03-04,2022-03-04,永豐商事合同会社,,合同会社,栃木県,大田原市,住吉町１丁目２番１９号,,09,210,3240057,,,,,,,2022-03-04,1,,,,,エイホウショウジ,0
482,2070001039013,新規,0,2022-03-04,2022-03-04,デュランダル株式会社,,株式会社,群馬県,利根郡みなかみ町,猿ヶ京温泉１２１９番地３,,10,449,3791403,,,,,,,2022-03-04,1,,,,,デュランダル,0
483,2070003004403,新規,0,2022-03-04,2022-03-04,合同会社エイコ,,合同会社,群馬県,伊勢崎市,今泉町１丁目２３番地１,,10,204,3720031,,,,,,,2022-03-04,1,,,,,エイコ,0
484,2070005009953,新規,0,2022-03-04,2022-03-04,一般社団法人紀集会,,その他の設立登記法人,群馬県,前橋市,上泉町１３５７番地２アイデルパレス３０３,,10,201,3710007,,,,,,,2022-03-04,1,,,,,キシュウカイ,0
488,2080101023139,新規,0,2022-03-04,2022-03-04,株式会社Ｄｒｅａｍ　ｌｉｎｅ,,株式会社,静岡県,富士市,本町８番１５号,,22,210,4160914,,,,,,,2022-03-04,1,,,,,ドリームライン,0
489,2080103002537,新規,0,2022-03-04,2022-03-04,合同会社美里,,合同会社,静岡県,御殿場市,中畑１７９１番地の６,,22,215,4120006,,,,,,,2022-03-04,1,,,,,ミサト,0
495,2100001035116,新規,0,2022-03-04,2022-03-04,株式会社上林ニット,,株式会社,長野県,岡谷市,川岸東２丁目３番２８号,,20,204,3940045,,,,,,,2022-03-04,1,,,,,カンバヤシニット,0
496,2100001035124,新規,0,2022-03-04,2022-03-04,株式会社ラトリエ・デ・サンス,,株式会社,長野県,安曇野市,穂高２５３０番地１,,20,220,3998303,,,,,,,2022-03-04,1,,,,,ラトリエデサンス,0
499,2100003006429,新規,0,2022-03-04,2022-03-04,合同会社Ｓｐｉｎ,,合同会社,長野県,松本市,白板１丁目６番１号,,20,202,3900863,,,,,,,2022-03-04,1,,,,,スピン,0
509,2120001244177,新規,0,2022-03-04,2022-03-04,株式会社Ｉｖｙ　Ｌｅａｐ,,株式会社,大阪府,大阪市浪速区,元町２丁目４番２３号ロックベイシスビル２階,,27,111,5560016,,,,,,,2022-03-04,1,,,,,アイビーリープ,0
510,2120001244185,新規,0,2022-03-04,2022-03-04,株式会社ウィンジーエフ,,株式会社,大阪府,大阪市北区,豊崎１丁目１１番１９号,,27,127,5310072,,,,,,,2022-03-04,1,,,,,ウィンジーエフ,0
511,2120001244193,新規,0,2022-03-04,2022-03-04,株式会社Ｓｐｒｉｎｔ　Ｃａｒｅｅｒ　Ｄｅｓｉｇｎ,,株式会社,大阪府,大阪市北区,堂島１丁目４番４号ＮＪビル７Ｆ,,27,127,5300003,,,,,,,2022-03-04,1,,,,,スプリントキャリアデザイン,0
512,2120001244268,新規,0,2022-03-04,2022-03-04,株式会社エン,,株式会社,大阪府,大阪市浪速区,敷津西２丁目１－１２,,27,111,5560015,,,,,,,2022-03-04,1,,,,,エン,0
513,2120001244292,新規,0,2022-03-04,2022-03-04,三生物株式会社,,株式会社,大阪府,大阪市中央区,北久宝寺町１丁目５番６号堺筋本町アーバンライフ３０８,,27,128,5410057,,,,,,,2022-03-04,1,,,,,サンセイブツ,0
514,2120001244318,新規,0,2022-03-04,2022-03-04,株式会社令和ｔｅｃ,,株式会社,大阪府,守口市,佐太中町６丁目８番６号山博倉庫１号,,27,209,5700002,,,,,,,2022-03-04,1,,,,,レイワテック,0
518,2120003021228,新規,0,2022-03-04,2022-03-04,合同会社Ｌｕｓｔｅｒ,,合同会社,大阪府,大阪市平野区,加美鞍作３丁目１２番９－１３０６号,,27,126,5470004,,,,,,,2022-03-04,1,,,,,ラスター,0
521,2120101065143,新規,0,2022-03-04,2022-03-04,株式会社英商,,株式会社,大阪府,羽曳野市,南古市２丁目１０番１７号,,27,222,5830858,,,,,,,2022-03-04,1,,,,,エイショウ,0
522,2120101065151,新規,0,2022-03-04,2022-03-04,株式会社プループラス,,株式会社,大阪府,富田林市,甲田２丁目１８番２６号,,27,214,5840036,,,,,,,2022-03-04,1,,,,,プループラス,0
525,2120901045674,新規,0,2022-03-04,2022-03-04,株式会社ＡＳＵＭＩ,,株式会社,大阪府,高槻市,西真上１丁目３６番３－２０２号,,27,207,5691127,,,,,,,2022-03-04,1,,,,,アスミ,0
529,2122001035630,新規,0,2022-03-04,2022-03-04,株式会社Ａ－Ｔｒｕｓ関西,,株式会社,大阪府,八尾市,天王寺屋１丁目５０番地天王寺屋コンパクトオフィスＤ号,,27,212,5810025,,,,,,,2022-03-04,1,,,,,アトラスカンサイ,0
538,2130001071224,新規,0,2022-03-04,2022-03-04,株式会社ＫＩＣＫＳ,,株式会社,京都府,京都市山科区,四ノ宮垣ノ内１５,,26,110,6070000,,,,,,,2022-03-04,1,,,,,キックス,0
539,2130001071273,新規,0,2022-03-04,2022-03-04,株式会社まきの,,株式会社,京都府,京都市右京区,御室小松野町２９番地１８,,26,108,6168094,,,,,,,2022-03-04,1,,,,,マキノ,0
543,2140001124963,新規,0,2022-03-04,2022-03-04,ジュニア牧場株式会社,,株式会社,兵庫県,加西市,中富町１４８５番地の５,,28,220,6752442,,,,,,,2022-03-04,1,,,,,ジュニアボクジョウ,0
544,2140001125086,新規,0,2022-03-04,2022-03-04,株式会社ＳＯＷＡＮホールディングス,,株式会社,兵庫県,三木市,本町１丁目４番７号,,28,215,6730431,,,,,,,2022-03-04,1,,,,,ソワンホールディングス,0
545,2140001125094,新規,0,2022-03-04,2022-03-04,ＫＥＩＴＯ商事株式会社,,株式会社,兵庫県,神戸市中央区,御幸通８丁目１番６号神戸国際会館２２階,,28,110,6510087,,,,,,,2022-03-04,1,,,,,ケイトショウジ,0
546,2140001125103,新規,0,2022-03-04,2022-03-04,株式会社みやこ福祉用具西宮店,,株式会社,兵庫県,西宮市,甲子園口４丁目１２番５号,,28,204,6638113,,,,,,,2022-03-04,1,,,,,ミヤコフクシヨウグニシノミヤテン,0
547,2140001125111,新規,0,2022-03-04,2022-03-04,株式会社ｃｈｅｓｓ,,株式会社,兵庫県,神戸市中央区,琴ノ緒町３丁目３番２０号,,28,110,6510094,,,,,,,2022-03-04,1,,,,,チェス,0
548,2140001125177,新規,0,2022-03-04,2022-03-04,株式会社らびっと・べあー,,株式会社,兵庫県,高砂市,米田町米田５７２－４,,28,216,6760805,,,,,,,2022-03-04,1,,,,,ラビットベアー,0
549,2140003017406,新規,0,2022-03-04,2022-03-04,合同会社つむぐ,,合同会社,兵庫県,洲本市,五色町広石下１３８３番地,,28,205,6561335,,,,,,,2022-03-04,1,,,,,ツムグ,0
552,2150001025376,新規,0,2022-03-04,2022-03-04,ヤマトファーム株式会社,,株式会社,奈良県,北葛城郡王寺町,畠田８丁目１５１１番地,,29,425,6360021,,,,,,,2022-03-04,1,,,,,ヤマトファーム,0
553,2150001025384,新規,0,2022-03-04,2022-03-04,株式会社ＮＩＩＹＡ,,株式会社,奈良県,奈良市,学園南３丁目９番４３号,,29,201,6310034,,,,,,,2022-03-04,1,,,,,ニイヤ,0
567,2180001150262,新規,0,2022-03-04,2022-03-04,株式会社ＺＡＫＵホールディングス,,株式会社,愛知県,名古屋市熱田区,沢上１丁目３番１４号ライオンズマンション金山ニューシティ８１５号室,,23,109,4560012,,,,,,,2022-03-04,1,,,,,ザクホールディングス,0
568,2180001150304,新規,0,2022-03-04,2022-03-04,株式会社Ａｔｒｅ,,株式会社,愛知県,名古屋市中区,栄３丁目７番５号,,23,106,4600008,,,,,,,2022-03-04,1,,,,,アトレ,0
569,2180001150312,新規,0,2022-03-04,2022-03-04,株式会社英幸堂,,株式会社,愛知県,名古屋市港区,港栄４丁目１６番２３号,,23,111,4550015,,,,,,,2022-03-04,1,,,,,エイコウドウ,0
571,2180003023565,新規,0,2022-03-04,2022-03-04,モンスプレッド合同会社,,合同会社,愛知県,瀬戸市,新郷町２５番地の１２,,23,204,4890873,,,,,,,2022-03-04,1,,,,,モンスプレッド,0
572,2180005019660,新規,0,2022-03-04,2022-03-04,一般社団法人トリクマＣＬＵＢ,,その他の設立登記法人,愛知県,名古屋市緑区,緑花台８０８番地,,23,114,4598005,,,,,,,2022-03-04,1,,,,,トリクマクラブ,0
575,2180301035980,新規,0,2022-03-04,2022-03-04,株式会社ジョイ,,株式会社,愛知県,岡崎市,大西３丁目７番地１,,23,202,4440871,,,,,,,2022-03-04,1,,,,,ジョイ,0
576,2180301035997,新規,0,2022-03-04,2022-03-04,ＡｎｄＧＡＭＥＲ株式会社,,株式会社,愛知県,豊田市,西町５丁目５番地Ｖｉｔｓ豊田タウン３Ｆ,,23,211,4710025,,,,,,,2022-03-04,1,,,,,アンドゲーマー,0
583,2200001039775,新規,0,2022-03-04,2022-03-04,株式会社丸雄農産,,株式会社,岐阜県,中津川市,福岡１７３０－１,,21,206,5080203,,,,,,,2022-03-04,1,,,,,マルユウノウサン,0
584,2200001039800,新規,0,2022-03-04,2022-03-04,株式会社土屋商会,,株式会社,岐阜県,中津川市,瀬戸１６５７番地の１７,,21,206,5080111,,,,,,,2022-03-04,1,,,,,ツチヤショウカイ,0
585,2200001039817,新規,0,2022-03-04,2022-03-04,株式会社安藤ビル,,株式会社,岐阜県,中津川市,手賀野３６６番地,,21,206,5080015,,,,,,,2022-03-04,1,,,,,アンドウビル,0
589,2230001019262,新規,0,2022-03-04,2022-03-04,株式会社ナカダＳＫ,,株式会社,富山県,氷見市,柳田１５４５番地２,,16,205,9350031,,,,,,,2022-03-04,1,,,,,ナカダエスケー,0
597,2240005015348,新規,0,2022-03-04,2022-03-04,一般社団法人運動栄養サポートセンター,,その他の設立登記法人,広島県,広島市安佐北区,深川３丁目１４番６号,,34,106,7391751,,,,,,,2022-03-04,1,,,,,ウンドウエイヨウサポートセンター,0
598,2250001019434,新規,0,2022-03-04,2022-03-04,株式会社うえもり,,株式会社,山口県,岩国市,麻里布町３丁目１３番２０号ポポロビル別館１Ｆ,,35,208,7400018,,,,,,,2022-03-04,1,,,,,ウエモリ,0
599,2260001036610,新規,0,2022-03-04,2022-03-04,株式会社ＺＥＮＳＨＩＮ,,株式会社,岡山県,岡山市北区,野田４丁目１２番１７号野田四丁目合同ビル２階,,33,101,7000971,,,,,,,2022-03-04,1,,,,,ゼンシン,0
600,2290001096602,新規,0,2022-03-04,2022-03-04,株式会社シーファースト,,株式会社,福岡県,久留米市,松ケ枝町５番地１－９０１号,,40,203,8300043,,,,,,,2022-03-04,1,,,,,シーファースト,0
601,2290001096610,新規,0,2022-03-04,2022-03-04,株式会社コスモソフトホールディングス,,株式会社,福岡県,福岡市南区,大楠２丁目２１番２０号,,40,134,8150082,,,,,,,2022-03-04,1,,,,,コスモソフトホールディングス,0
602,2290001096619,新規,0,2022-03-04,2022-03-04,株式会社たちろく,,株式会社,福岡県,福岡市博多区,店屋町３番３２号中村ビル４－Ｂ,,40,132,8120025,,,,,,,2022-03-04,1,,,,,タチロク,0
603,2290001096627,新規,0,2022-03-04,2022-03-04,株式会社マルイ,,株式会社,福岡県,福岡市東区,三苫１丁目１３番１２号,,40,131,8110201,,,,,,,2022-03-04,1,,,,,マルイ,0
604,2290001096635,新規,0,2022-03-04,2022-03-04,株式会社ＧＯ　ＮＥＸＴ,,株式会社,福岡県,福岡市中央区,渡辺通２丁目２番１４号エムズステージ６０１,,40,133,8100004,,,,,,,2022-03-04,1,,,,,ゴーネクスト,0
605,2290001096643,新規,0,2022-03-04,2022-03-04,株式会社松岡工業,,株式会社,福岡県,柳川市,上宮永町２３７番地,,40,207,8320058,,,,,,,2022-03-04,1,,,,,マツオカコウギョウ,0
606,2290001096668,新規,0,2022-03-04,2022-03-04,株式会社日本通信社,,株式会社,福岡県,福岡市博多区,博多駅前２丁目１９番１７号トーカン博多第５ビル３１２号室,,40,132,8120011,,,,,,,2022-03-04,1,,,,,ニホンツウシンシャ,0
609,2290003012219,新規,0,2022-03-04,2022-03-04,合同会社ＴＡＫＥＮＯＫＯ,,合同会社,福岡県,福岡市中央区,港２丁目１５－１３－２０３,,40,133,8100075,,,,,,,2022-03-04,1,,,,,タケノコ,0
610,2290003012235,新規,0,2022-03-04,2022-03-04,ニッポンブリッジ合同会社,,合同会社,福岡県,福岡市中央区,六本松２丁目１２番８－６０６号,,40,133,8100044,,,,,,,2022-03-04,1,,,,,ニッポンブリッジ,0
611,2290005018585,新規,0,2022-03-04,2022-03-04,一般社団法人ＣｏｍｍｕＮｅｋｋｏ,,その他の設立登記法人,福岡県,久留米市,田主丸町益生田２２９２番地１２,,40,203,8391213,,,,,,,2022-03-04,1,,,,,コミュネッコ,0
612,2290801028300,新規,0,2022-03-04,2022-03-04,株式会社ＭＡＫＯｃｈａｎ,,株式会社,福岡県,北九州市小倉南区,津田新町４丁目８番１９号Ｂ－１０１,,40,107,8000227,,,,,,,2022-03-04,1,,,,,マコチャン,0
616,2310001017753,新規,0,2022-03-04,2022-03-04,楠本珊瑚株式会社,,株式会社,長崎県,五島市,富江町岳５２６番地３,,42,211,8530213,,,,,,,2022-03-04,1,,,,,クスモトサンゴ,0
617,2310005008591,新規,0,2022-03-04,2022-03-04,一般社団法人にじいろの会わんぱくハウス,,その他の設立登記法人,長崎県,西彼杵郡時津町,日並郷２１９５番地１９,,42,308,8512108,,,,,,,2022-03-04,1,,,,,ニジイロノカイワンパクハウス,0
619,2320001018949,新規,0,2022-03-04,2022-03-04,株式会社アイファーテック,,株式会社,大分県,大分市,大字中戸次１２６１番地の６９,,44,201,8797761,,,,,,,2022-03-04,1,,,,,アイファーテック,0
621,2330001029516,新規,0,2022-03-04,2022-03-04,株式会社木口グループ,,株式会社,熊本県,熊本市北区,太郎迫町３３３番地,,43,105,8615532,,,,,,,2022-03-04,1,,,,,キグチグループ,0
629,2350003004036,新規,0,2022-03-04,2022-03-04,合同会社フルーリア,,合同会社,宮崎県,西諸県郡高原町,大字蒲牟田７８５番地,,45,361,8894414,,,,,,,2022-03-04,1,,,,,フルーリヤ,0
633,2360001030066,新規,0,2022-03-04,2022-03-04,株式会社ＭＫ,,株式会社,沖縄県,豊見城市,字高安９３３番地４（３０２）,,47,212,9010242,,,,,,,2022-03-04,1,,,,,エムケイ,0
634,2360001030074,新規,0,2022-03-04,2022-03-04,株式会社恵電設,,株式会社,沖縄県,糸満市,西崎６丁目５番５号ＳｕｚｕｙａＢＬＤ１Ｆ,,47,210,9010305,,,,,,,2022-03-04,1,,,,,メグミデンセツ,0
636,2360003011849,新規,0,2022-03-04,2022-03-04,合同会社うまなか,,合同会社,沖縄県,那覇市,字安里１０１番地丸京工芸ビル２０１,,47,201,9020067,,,,,,,2022-03-04,1,,,,,ウマナカ,0
640,2370001048264,新規,0,2022-03-04,2022-03-04,株式会社クローバージャパン,,株式会社,宮城県,大崎市,岩出山字通丁１０２番地,,04,215,9896441,,,,,,,2022-03-04,1,,,,,クローバージャパン,0
641,2370001048280,新規,0,2022-03-04,2022-03-04,株式会社Ｋ－ＳＨＯＰ,,株式会社,宮城県,仙台市宮城野区,中野４丁目５番地の３,,04,102,9830013,,,,,,,2022-03-04,1,,,,,ケーショップ,0
645,2380001032614,新規,0,2022-03-04,2022-03-04,株式会社宝泉林業,,株式会社,福島県,白河市,西三坂山２番地８１,,07,205,9610837,,,,,,,2022-03-04,1,,,,,ホウセンリンギョウ,0
646,2380001032622,新規,0,2022-03-04,2022-03-04,株式会社よこたファーム,,株式会社,福島県,双葉郡広野町,大字上北迫字一本松５０番地５,,07,541,9790401,,,,,,,2022-03-04,1,,,,,ヨコタファーム,0
647,2380003005114,新規,0,2022-03-04,2022-03-04,縁結び家系図や合同会社,,合同会社,福島県,福島市,渡利字沖町６２番地の３,,07,201,9608141,,,,,,,2022-03-04,1,,,,,エンムスビカケイズヤ,0
650,2380005012546,新規,0,2022-03-04,2022-03-04,特定非営利活動法人テゾーロ,,その他の設立登記法人,福島県,伊達郡桑折町,大字松原字弁天沢５,,07,301,9691653,,,,,,,2022-03-04,1,,,,,テゾーロ,0
654,2400001015797,新規,0,2022-03-04,2022-03-04,株式会社スタディー,,株式会社,岩手県,北上市,柳原町１丁目４番２３号ルミエール柳原Ａ１０１号,,03,206,0240083,,,,,,,2022-03-04,1,,,,,スタディー,0
655,2420001017750,新規,0,2022-03-04,2022-03-04,株式会社サンユナイテッド,,株式会社,青森県,八戸市,石堂２丁目２１番２号,,02,203,0391165,,,,,,,2022-03-04,1,,,,,サンユナイテッド,0
657,2430001086134,新規,0,2022-03-04,2022-03-04,株式会社アウトシェア,,株式会社,北海道,札幌市中央区,南二条西１２丁目３２３番地,,01,101,0600062,,,,,,,2022-03-04,1,,,,,アウトシェア,0
658,2430001086150,新規,0,2022-03-04,2022-03-04,株式会社トラバント,,株式会社,北海道,札幌市北区,拓北二条１丁目２番１号,,01,102,0028062,,,,,,,2022-03-04,1,,,,,トラバント,0
663,2470001018991,新規,0,2022-03-04,2022-03-04,株式会社尾崎ホールディングス,,株式会社,香川県,坂出市,加茂町１５６２番地,,37,203,7620023,,,,,,,2022-03-04,1,,,,,オザキホールディングス,0
665,2470003002143,新規,0,2022-03-04,2022-03-04,合同会社ＨＡＳＨＩＭＩ,,合同会社,香川県,丸亀市,西本町２丁目２番２０号,,37,202,7630047,,,,,,,2022-03-04,1,,,,,ハシミ,0
667,2480003001796,新規,0,2022-03-04,2022-03-04,合同会社アンズ,,合同会社,徳島県,那賀郡那賀町,水崎字兎ノ薮１９番地,,36,368,7715511,,,,,,,2022-03-04,1,,,,,アンズ,0
676,3010001224965,新規,0,2022-03-04,2022-03-04,ティー・シー・ピー不動産株式会社,,株式会社,東京都,千代田区,外神田６丁目８番１１号,,13,101,1010021,,,,,,,2022-03-04,1,,,,,ティーシーピーフドウサン,0
677,3010001224998,新規,0,2022-03-04,2022-03-04,天智通商株式会社,,株式会社,東京都,中央区,京橋２丁目７番１４号,,13,102,1040031,,,,,,,2022-03-04,1,,,,,テンチツウショウ,0
683,3010003037102,新規,0,2022-03-04,2022-03-04,カイキャピタル合同会社,,合同会社,東京都,文京区,目白台１丁目３－４,,13,105,1120015,,,,,,,2022-03-04,1,,,,,カイキャピタル,0
684,3010003037143,新規,0,2022-03-04,2022-03-04,合同会社ＴＳＫ,,合同会社,東京都,文京区,千駄木４丁目１３番６－６０３号,,13,105,1130022,,,,,,,2022-03-04,1,,,,,ティエスケィ,0
685,3010003037151,新規,0,2022-03-04,2022-03-04,合同会社アビーミュージックファクトリー,,合同会社,東京都,中央区,銀座１丁目１２番４号Ｎ＆ＥＢＬＤ．７階,,13,102,1040061,,,,,,,2022-03-04,1,,,,,アビーミュージックファクトリー,0
686,3010003037176,新規,0,2022-03-04,2022-03-04,ハッピー安比合同会社,,合同会社,東京都,千代田区,霞が関３丁目２番５号,,13,101,1000013,,,,,,,2022-03-04,1,,,,,ハッピーアッピ,0
689,3010005034675,新規,0,2022-03-04,2022-03-04,一般社団法人国民議会,,その他の設立登記法人,東京都,中央区,日本橋２丁目３－２１八重洲セントラルビル７階,,13,102,1030027,,,,,,,2022-03-04,1,,,,,コクミンギカイ,0
690,3010005034691,新規,0,2022-03-04,2022-03-04,一般社団法人ジャパン・トラベル・サーヴィス,,その他の設立登記法人,東京都,千代田区,有楽町１丁目６番４号千代田ビル７階,,13,101,1000006,,,,,,,2022-03-04,1,,,,,ジャパントラベルサーヴィス,0
699,3010401165917,新規,0,2022-03-04,2022-03-04,ＭｅｄｉＴｅｃｈ　Ｓｏｌｕｔｉｏｎｓ株式会社,,株式会社,東京都,港区,赤坂３丁目１６番１１号東海赤坂ビルＢ１階,,13,103,1070052,,,,,,,2022-03-04,1,,,,,メディテックソリューションズ,0
700,3010401165941,新規,0,2022-03-04,2022-03-04,株式会社ほくたいホールディングス,,株式会社,東京都,港区,西新橋３丁目２４番８号山内ビル４階,,13,103,1050003,,,,,,,2022-03-04,1,,,,,ホクタイホールディングス,0
701,3010401165958,新規,0,2022-03-04,2022-03-04,みやこシステムエンジニアリング株式会社,,株式会社,東京都,港区,海岸１丁目１３番１５－９０１号,,13,103,1050022,,,,,,,2022-03-04,1,,,,,ミヤコシステムエンジニアリング,0
702,3010401165966,新規,0,2022-03-04,2022-03-04,株式会社Ｉ－ＬＩＮＫ,,株式会社,東京都,港区,芝２丁目１６番１号,,13,103,1050014,,,,,,,2022-03-04,1,,,,,アイリンク,0
703,3010401165974,新規,0,2022-03-04,2022-03-04,レモンズ株式会社,,株式会社,東京都,港区,赤坂９丁目２番１３号７０１,,13,103,1070052,,,,,,,2022-03-04,1,,,,,レモンズ,0
704,3010401165982,新規,0,2022-03-04,2022-03-04,株式会社ワイズライト,,株式会社,東京都,港区,西麻布４丁目２０番６号,,13,103,1060031,,,,,,,2022-03-04,1,,,,,ワイズライト,0
706,3010403027223,新規,0,2022-03-04,2022-03-04,合同会社金沢ホテル運営,,合同会社,東京都,港区,虎ノ門５丁目１番４号,,13,103,1050001,,,,,,,2022-03-04,1,,,,,カナザワホテルウンエイ,0
710,3010701042312,新規,0,2022-03-04,2022-03-04,ステラエージェント株式会社,,株式会社,東京都,品川区,大井３丁目２５番１４号,,13,109,1400014,,,,,,,2022-03-04,1,,,,,ステラエージェント,0
711,3010701042329,新規,0,2022-03-04,2022-03-04,株式会社スコット,,株式会社,東京都,品川区,西中延１丁目２番４号ガリシア武蔵小山２０１,,13,109,1420054,,,,,,,2022-03-04,1,,,,,スコット,0
723,3011001146084,新規,0,2022-03-04,2022-03-04,株式会社日本ロジスティクスシステム,,株式会社,東京都,目黒区,柿の木坂１丁目１番９号,,13,110,1520022,,,,,,,2022-03-04,1,,,,,ニホンロジスティクスシステム,0
725,3011003014297,新規,0,2022-03-04,2022-03-04,合同会社ティーエイチ建築設計事務所,,合同会社,東京都,目黒区,緑が丘２丁目６番１５号繁栄ビル４０２,,13,110,1520034,,,,,,,2022-03-04,1,,,,,ティーエイチケンチクセッケイジムショ,0
731,3011301027604,新規,0,2022-03-04,2022-03-04,株式会社ＤＯＵＧ,,株式会社,東京都,杉並区,荻窪３丁目４５番２５号,,13,115,1670051,,,,,,,2022-03-04,1,,,,,ドウグ,0
733,3011303004329,新規,0,2022-03-04,2022-03-04,合同会社山吹,,合同会社,東京都,杉並区,阿佐谷南２丁目２番１３号,,13,115,1660004,,,,,,,2022-03-04,1,,,,,ヤマブキ,0
736,3011501027809,新規,0,2022-03-04,2022-03-04,ＳｍａｒｔＢＸ株式会社,,株式会社,東京都,北区,滝野川７丁目３９番７号,,13,117,1140023,,,,,,,2022-03-04,1,,,,,スマートビーエックス,0
737,3011503005093,新規,0,2022-03-04,2022-03-04,合同会社リンクスプラス,,合同会社,東京都,荒川区,南千住４丁目９－７トミンタワー・２６０３,,13,118,1160003,,,,,,,2022-03-04,1,,,,,リンクスプラス,0
738,3011505002452,新規,0,2022-03-04,2022-03-04,医療法人社団医食動健,,その他の設立登記法人,東京都,北区,西が丘３丁目１７番１０号西ヶ丘サニーハイツ１階,,13,117,1150056,,,,,,,2022-03-04,1,,,,,イショクドウケン,0
739,3011601025778,新規,0,2022-03-04,2022-03-04,株式会社ＹＳカンパニー,,株式会社,東京都,練馬区,石神井町２丁目１４番１－３１０４号,,13,120,1770041,,,,,,,2022-03-04,1,,,,,ワイエスカンパニー,0
740,3011603003542,新規,0,2022-03-04,2022-03-04,合同会社ビジュアライト,,合同会社,東京都,練馬区,関町南１丁目１２番３－３０７号,,13,120,1770053,,,,,,,2022-03-04,1,,,,,ビジュアライト,0
742,3011701025091,新規,0,2022-03-04,2022-03-04,株式会社ＣｕＢＥ　Ｊａｐａｎ,,株式会社,東京都,江戸川区,東葛西６丁目６番１２号木下ビル３Ｆ,,13,123,1340084,,,,,,,2022-03-04,1,,,,,キューブジャパン,0
750,3012701016956,新規,0,2022-03-04,2022-03-04,株式会社快誠,,株式会社,東京都,清瀬市,竹丘３丁目１８番２４号,,13,221,2040023,,,,,,,2022-03-04,1,,,,,カイセイ,0
754,3013101008858,新規,0,2022-03-04,2022-03-04,株式会社ｉｍｕｕ　ｄｅｓｉｇｎ　ｓｔｕｄｉｏ,,株式会社,東京都,あきる野市,引田４７９番地５,,13,228,1970834,,,,,,,2022-03-04,1,,,,,イミューデザインスタジオ,0
758,3013301048761,新規,0,2022-03-04,2022-03-04,株式会社Ｒ・Ｓ,,株式会社,東京都,豊島区,池袋２丁目１７番８号,,13,116,1710014,,,,,,,2022-03-04,1,,,,,アールエス,0
765,3020001145459,新規,0,2022-03-04,2022-03-04,株式会社Ｈａｌ,,株式会社,神奈川県,横浜市都筑区,加賀原１丁目５番２２号,,14,118,2240055,,,,,,,2022-03-04,1,,,,,ハル,0
766,3020001145483,新規,0,2022-03-04,2022-03-04,ＣＭＫ株式会社,,株式会社,神奈川県,横浜市中区,寿町１丁目１番地１４仲丸ビル,,14,104,2310026,,,,,,,2022-03-04,1,,,,,シーエムケー,0
767,3020001145500,新規,0,2022-03-04,2022-03-04,株式会社ＳｕｎＰｒｏ,,株式会社,神奈川県,川崎市中原区,市ノ坪５６番地１６,,14,133,2110016,,,,,,,2022-03-04,1,,,,,サンプロ,0
768,3020001145517,新規,0,2022-03-04,2022-03-04,リブレアセット株式会社,,株式会社,神奈川県,横浜市中区,尾上町１丁目６番地,,14,104,2310015,,,,,,,2022-03-04,1,,,,,リブレアセット,0
769,3020001145533,新規,0,2022-03-04,2022-03-04,株式会社エムホールディングス,,株式会社,神奈川県,横浜市都筑区,牛久保東１丁目２８番１号,,14,118,2240014,,,,,,,2022-03-04,1,,,,,エムホールディングス,0
778,3020005015402,新規,0,2022-03-04,2022-03-04,ｗｅｌｌ　ｆ．ｍ．一般社団法人,,その他の設立登記法人,神奈川県,横浜市中区,相生町３丁目６１泰生ビル２階,,14,104,2310012,,,,,,,2022-03-04,1,,,,,ウェルエフエム,0
783,3021001075299,新規,0,2022-03-04,2022-03-04,株式会社レイル,,株式会社,神奈川県,相模原市緑区,牧野８７１９番地,,14,151,2520186,,,,,,,2022-03-04,1,,,,,レイル,0
784,3021001075332,新規,0,2022-03-04,2022-03-04,ＭＹＫホールディングス株式会社,,株式会社,神奈川県,藤沢市,藤沢４３８番地の１藤沢ルミネ,,14,205,2510052,,,,,,,2022-03-04,1,,,,,エムワイケーホールディングス,0
790,3030001147009,新規,0,2022-03-04,2022-03-04,株式会社令建,,株式会社,埼玉県,所沢市,小手指台２８番地の１マーブル小手指２０７,,11,208,3591148,,,,,,,2022-03-04,1,,,,,レイケン,0
791,3030001147041,新規,0,2022-03-04,2022-03-04,株式会社季雲,,株式会社,埼玉県,川口市,桜町１丁目１１番５１号,,11,203,3340001,,,,,,,2022-03-04,1,,,,,キウン,0
792,3030001147074,新規,0,2022-03-04,2022-03-04,株式会社カムイ,,株式会社,埼玉県,川口市,飯塚２丁目２番１０－２４０３号ドリームタワーキュアレジデンス,,11,203,3320023,,,,,,,2022-03-04,1,,,,,カムイ,0
793,3030001147082,新規,0,2022-03-04,2022-03-04,イースタンコンサルティング株式会社,,株式会社,埼玉県,戸田市,上戸田１丁目２１番２３号,,11,224,3350022,,,,,,,2022-03-04,1,,,,,イースタンコンサルティング,0
794,3030001147099,新規,0,2022-03-04,2022-03-04,極ライフサービス株式会社,,株式会社,埼玉県,川口市,大字安行領根岸１１３８番地の１３,,11,203,3330834,,,,,,,2022-03-04,1,,,,,キワミライフサービス,0
795,3030003018942,新規,0,2022-03-04,2022-03-04,Ｎアソシエーション合同会社,,合同会社,埼玉県,吉川市,高久１丁目３４番地１８,,11,243,3420035,,,,,,,2022-03-04,1,,,,,エヌアソシエーション,0
796,3030003018967,新規,0,2022-03-04,2022-03-04,合同会社ＳＯＵＬ　ＪＡＭ,,合同会社,埼玉県,草加市,栄町３丁目４－８ヨシカワビル３０１,,11,221,3400011,,,,,,,2022-03-04,1,,,,,ソウルジャム,0
797,3040001122448,新規,0,2022-03-04,2022-03-04,株式会社美装,,株式会社,千葉県,木更津市,真里谷２３９７番地１,,12,206,2920201,,,,,,,2022-03-04,1,,,,,ビソウ,0
798,3040001122456,新規,0,2022-03-04,2022-03-04,株式会社Ｖａｌｏｒ,,株式会社,千葉県,習志野市,東習志野４丁目１０番２０号エミールハイツＢ棟２０２号,,12,216,2750001,,,,,,,2022-03-04,1,,,,,バロール,0
799,3040001122472,新規,0,2022-03-04,2022-03-04,株式会社ＰＡＤＤＬＥ,,株式会社,千葉県,浦安市,今川２丁目１４番２４－１０１号レクス１３３,,12,227,2790022,,,,,,,2022-03-04,1,,,,,パドル,0
800,3040001122480,新規,0,2022-03-04,2022-03-04,株式会社ＢＯＴＨ　ＲＩＳＥ,,株式会社,千葉県,八千代市,緑が丘西７丁目１７番地１,,12,221,2760040,,,,,,,2022-03-04,1,,,,,ボスライズ,0
801,3040001122497,新規,0,2022-03-04,2022-03-04,ひまわり株式会社,,株式会社,千葉県,千葉市中央区,弁天３丁目１１番２号,,12,101,2600045,,,,,,,2022-03-04,1,,,,,ヒマワリ,0
802,3040001122506,新規,0,2022-03-04,2022-03-04,株式会社ＫＲＥＳＴ,,株式会社,千葉県,松戸市,常盤平６丁目１１番地の２２,,12,207,2702261,,,,,,,2022-03-04,1,,,,,クレスト,0
805,3040003019576,新規,0,2022-03-04,2022-03-04,ＢＲＡＶＥ　ＯＮＥ合同会社,,合同会社,千葉県,柏市,若柴６－１９グレースパラッツォ柏の葉３０３,,12,217,2770871,,,,,,,2022-03-04,1,,,,,ブレイブワン,0
806,3040003019592,新規,0,2022-03-04,2022-03-04,寛田コーポレーション合同会社,,合同会社,千葉県,鎌ケ谷市,東道野辺５丁目２番３７号,,12,224,2730115,,,,,,,2022-03-04,1,,,,,カンタコーポレーション,0
807,3050001050714,新規,0,2022-03-04,2022-03-04,ＭＵＳＡ　ＴＲＡＤＩＮＧ株式会社,,株式会社,茨城県,結城市,大字江川新宿１９６８番地２３浜野住宅Ｆ号棟,,08,207,3070042,,,,,,,2022-03-04,1,,,,,ムサトレーディング,0
808,3050003006409,新規,0,2022-03-04,2022-03-04,合同会社環境エネルギー研究所,,合同会社,茨城県,ひたちなか市,春日町８番４,,08,221,3120048,,,,,,,2022-03-04,1,,,,,カンキョウエネルギーケンキュウショ,0
811,3060001034609,新規,0,2022-03-04,2022-03-04,株式会社ＪＩＮ電設,,株式会社,栃木県,塩谷郡塩谷町,大字上平６３１番地２,,09,384,3292335,,,,,,,2022-03-04,1,,,,,ジンデンセツ,0
812,3060001034625,新規,0,2022-03-04,2022-03-04,株式会社楊輝商事,,株式会社,栃木県,足利市,通５丁目３１９８番地,,09,202,3260814,,,,,,,2022-03-04,1,,,,,ヨウキショウジ,0
814,3070001039020,新規,0,2022-03-04,2022-03-04,株式会社ステップサポート,,株式会社,群馬県,太田市,由良町１０１８番地１０,,10,205,3730036,,,,,,,2022-03-04,1,,,,,ステップサポート,0
815,3070003004402,新規,0,2022-03-04,2022-03-04,合同会社ＧＷ’ｓ,,合同会社,群馬県,桐生市,新里町新川２５７－３,,10,203,3760121,,,,,,,2022-03-04,1,,,,,ジーダブルズ,0
817,3080001024806,新規,0,2022-03-04,2022-03-04,株式会社川口電機,,株式会社,静岡県,静岡市駿河区,広野３丁目１２番７号Ｍ’Ｓビル,,22,102,4210121,,,,,,,2022-03-04,1,,,,,カワグチデンキ,0
818,3080401025643,新規,0,2022-03-04,2022-03-04,Ｕ‐ＣＡＮ株式会社,,株式会社,静岡県,菊川市,大石３７８番地の３,,22,224,4371524,,,,,,,2022-03-04,1,,,,,ユーキャン,0
822,3100001035123,新規,0,2022-03-04,2022-03-04,株式会社花園,,株式会社,長野県,安曇野市,豊科田沢６４５１番地２,,20,220,3998203,,,,,,,2022-03-04,1,,,,,ハナゾノ,0
824,3110001036475,新規,0,2022-03-04,2022-03-04,株式会社高村建具,00125875,株式会社,新潟県,南魚沼市,塩沢１１７６番地１０,,15,226,9496408,,,,,,,2022-03-04,1,,,,,タカムラタテグ,0
825,3110001036483,新規,0,2022-03-04,2022-03-04,株式会社建材アルサ,,株式会社,新潟県,新潟市東区,材木町４番１６号,,15,102,9500811,,,,,,,2022-03-04,1,,,,,ケンザイアルサ,0
837,3120001244184,新規,0,2022-03-04,2022-03-04,株式会社ぴたり,,株式会社,大阪府,大阪市北区,豊崎１丁目１１番１９号,,27,127,5310072,,,,,,,2022-03-04,1,,,,,ピタリ,0
838,3120001244250,新規,0,2022-03-04,2022-03-04,カーボンニュートラルＭＭ株式会社,,株式会社,大阪府,大阪市北区,梅田１丁目１１番４－１０００号,,27,127,5300001,,,,,,,2022-03-04,1,,,,,カーボンニュートラルエムエム,0
839,3120001244267,新規,0,2022-03-04,2022-03-04,株式会社Ｄｅｅｐ,,株式会社,大阪府,大阪市北区,樋之口町３番１９号,,27,127,5300032,,,,,,,2022-03-04,1,,,,,ディープ,0
840,3120001244283,新規,0,2022-03-04,2022-03-04,株式会社ＴＡＥｙａＮｇ,,株式会社,大阪府,大阪市北区,天神橋７丁目１番１６－３９０６号,,27,127,5310041,,,,,,,2022-03-04,1,,,,,テヤン,0
851,3122005003608,新規,0,2022-03-04,2022-03-04,一般社団法人Ｓｔｏｒｋ　Ｂｅａｕｔｙ　Ｃｏｌｌｅｇｅ,,その他の設立登記法人,大阪府,東大阪市,長堂３丁目２０番１号,,27,227,5770056,,,,,,,2022-03-04,1,,,,,ストークビューティーカレッジ,0
853,3130001071264,新規,0,2022-03-04,2022-03-04,株式会社ｐａｌｍ,,株式会社,京都府,京都市北区,紫野十二坊町１６番地,,26,101,6038303,,,,,,,2022-03-04,1,,,,,パーム,0
854,3130001071272,新規,0,2022-03-04,2022-03-04,株式会社カクイアンドカンパニー,,株式会社,京都府,京都市中京区,元本能寺町３８３,,26,104,6048244,,,,,,,2022-03-04,1,,,,,カクイアンドカンパニー,0
855,3130001071280,新規,0,2022-03-04,2022-03-04,株式会社ケーズライフ,,株式会社,京都府,京都市中京区,綿屋町５３６番地ＡＬＢＡ烏丸御池１０１,,26,104,6048181,,,,,,,2022-03-04,1,,,,,ケーズライフ,0
858,3130003007786,新規,0,2022-03-04,2022-03-04,ツクリエル合同会社,,合同会社,京都府,相楽郡精華町,精華台４丁目１８番地１４,,26,366,6190238,,,,,,,2022-03-04,1,,,,,ツクリエル,0
862,3140001125093,新規,0,2022-03-04,2022-03-04,株式会社白井工業,,株式会社,兵庫県,姫路市,船津町１０４２番地,,28,201,6792101,,,,,,,2022-03-04,1,,,,,シライコウギョウ,0
863,3140001125102,新規,0,2022-03-04,2022-03-04,株式会社天,,株式会社,兵庫県,西宮市,高座町１２番７３号,,28,204,6620872,,,,,,,2022-03-04,1,,,,,テン,0
864,3140001125110,新規,0,2022-03-04,2022-03-04,株式会社阪神ストーン,,株式会社,兵庫県,西宮市,山口町船坂６６番地,,28,204,6511423,,,,,,,2022-03-04,1,,,,,ハンシンストーン,0
865,3140001125135,新規,0,2022-03-04,2022-03-04,株式会社シエステ,,株式会社,兵庫県,神戸市中央区,三宮町２丁目１１－１－３０１－１,,28,110,6500021,,,,,,,2022-03-04,1,,,,,シエステ,0
866,3140003017405,新規,0,2022-03-04,2022-03-04,合同会社ＭＹＥ,,合同会社,兵庫県,神戸市中央区,西町３５番地,,28,110,6500038,,,,,,,2022-03-04,1,,,,,エムワイイー,0
867,3140003017413,新規,0,2022-03-04,2022-03-04,合同会社こうち商会,,合同会社,兵庫県,姫路市,白浜町宇佐崎北２丁目２３１番地１,,28,201,6728013,,,,,,,2022-03-04,1,,,,,コウチショウカイ,0
871,3150001025383,新規,0,2022-03-04,2022-03-04,株式会社ティーエッジ,,株式会社,奈良県,橿原市,石原田町８８番地の６,,29,205,6340014,,,,,,,2022-03-04,1,,,,,ティーエッジ,0
882,3180001150187,新規,0,2022-03-04,2022-03-04,株式会社オガカンパニー,,株式会社,愛知県,東海市,加木屋町１丁目１２０番地,,23,222,4770032,,,,,,,2022-03-04,1,,,,,オガカンパニー,0
883,3180001150237,新規,0,2022-03-04,2022-03-04,ＴＫエンタープライズ株式会社,,株式会社,愛知県,小牧市,間々本町１２３番地,,23,219,4850048,,,,,,,2022-03-04,1,,,,,ティーケーエンタープライズ,0
884,3180001150278,新規,0,2022-03-04,2022-03-04,株式会社ＥｎＦｅｅｌ,,株式会社,愛知県,名古屋市緑区,鳴海町字小森４８番地の１,,23,114,4580841,,,,,,,2022-03-04,1,,,,,エンフィール,0
885,3180001150303,新規,0,2022-03-04,2022-03-04,株式会社ワイド,,株式会社,愛知県,稲沢市,祖父江町四貫中四貫２番地,,23,220,4950033,,,,,,,2022-03-04,1,,,,,ワイド,0
890,3180003023572,新規,0,2022-03-04,2022-03-04,みどりサポートワン合同会社,,合同会社,愛知県,名古屋市緑区,鳴子町４丁目１９番地の１,,23,114,4580041,,,,,,,2022-03-04,1,,,,,ミドリサポートワン,0
891,3180003023580,新規,0,2022-03-04,2022-03-04,合同会社寺村,,合同会社,愛知県,名古屋市南区,鳥山町３丁目２４番地の４,,23,112,4570057,,,,,,,2022-03-04,1,,,,,テラムラ,0
897,3190001029199,新規,0,2022-03-04,2022-03-04,株式会社牧野板金,,株式会社,三重県,四日市市,東日野２丁目８番９号,,24,202,5100941,,,,,,,2022-03-04,1,,,,,マキノバンキン,0
899,3200001039782,新規,0,2022-03-04,2022-03-04,株式会社ＥＤｗａｒｄ　Ｃｏ．,,株式会社,岐阜県,瑞穂市,本田８０１－１,,21,216,5010236,,,,,,,2022-03-04,1,,,,,エドワードカンパニー,0
900,3200001039816,新規,0,2022-03-04,2022-03-04,株式会社Ａ－Ｂ－Ｙ,,株式会社,岐阜県,羽島市,竹鼻町狐穴３２９４番地３,,21,209,5016232,,,,,,,2022-03-04,1,,,,,エービーワイ,0
904,3200003005485,新規,0,2022-03-04,2022-03-04,合同会社クローバー,,合同会社,岐阜県,中津川市,苗木３１９３番地,,21,206,5080101,,,,,,,2022-03-04,1,,,,,クローバー,0
906,3210003001467,新規,0,2022-03-04,2022-03-04,太陽の大人たち合同会社,,合同会社,福井県,越前市,行松町第５号７番地の５,,18,209,9150853,,,,,,,2022-03-04,1,,,,,タイヨウノオトナタチ,0
907,3220001024717,新規,0,2022-03-04,2022-03-04,株式会社安田造園,,株式会社,石川県,白山市,八ツ矢町５１０番地,,17,210,9240882,,,,,,,2022-03-04,1,,,,,ヤスダゾウエン,0
912,3240001059422,新規,0,2022-03-04,2022-03-04,森川工業株式会社,,株式会社,広島県,府中市,府川町５３３番地,,34,208,7260004,,,,,,,2022-03-04,1,,,,,,0
916,3250001019433,新規,0,2022-03-04,2022-03-04,株式会社ヒラジュウホールディングス,,株式会社,山口県,岩国市,周東町上久原１４番地８,,35,208,7420413,,,,,,,2022-03-04,1,,,,,ヒラジュウホールディングス,0
923,3280003001592,新規,0,2022-03-04,2022-03-04,合同会社勝馬屋,,合同会社,島根県,隠岐郡隠岐の島町,西町八尾の四・８０番地,,32,528,6850014,,,,,,,2022-03-04,1,,,,,カチマヤ,0
926,3290001096601,新規,0,2022-03-04,2022-03-04,株式会社千手建築工房,,株式会社,福岡県,福津市,中央３丁目５番１７－１０１号,,40,224,8113217,,,,,,,2022-03-04,1,,,,,センジュケンチクコウボウ,0
927,3290001096626,新規,0,2022-03-04,2022-03-04,株式会社平山工業,,株式会社,福岡県,福岡市南区,桧原５丁目２２番３－５０２号,,40,134,8111355,,,,,,,2022-03-04,1,,,,,ヒラヤマコウギョウ,0
928,3290001096634,新規,0,2022-03-04,2022-03-04,Ｋ・Ｋエンターテイメント株式会社,,株式会社,福岡県,福岡市中央区,大名１丁目１１番１３号,,40,133,8100041,,,,,,,2022-03-04,1,,,,,ケイケイエンターテイメント,0
929,3290001096642,新規,0,2022-03-04,2022-03-04,株式会社ＭＡＨＡＬＯ,,株式会社,福岡県,久留米市,藤光１丁目７番１５号,,40,203,8300057,,,,,,,2022-03-04,1,,,,,マハロ,0
930,3290001096650,新規,0,2022-03-04,2022-03-04,株式会社ＫＥＥＰ　ＵＰ,,株式会社,福岡県,福岡市南区,向新町２丁目４番４１号,,40,134,8111345,,,,,,,2022-03-04,1,,,,,キープアップ,0
931,3290001096659,新規,0,2022-03-04,2022-03-04,株式会社ネオトラスト不動産,,株式会社,福岡県,福岡市博多区,博多駅東２丁目４番６号,,40,132,8120013,,,,,,,2022-03-04,1,,,,,ネオトラストフドウサン,0
932,3290001096667,新規,0,2022-03-04,2022-03-04,株式会社Ｍｉｎｔ,,株式会社,福岡県,福岡市博多区,祇園町６番２６号,,40,132,8120038,,,,,,,2022-03-04,1,,,,,,0
933,3290001096675,新規,0,2022-03-04,2022-03-04,株式会社ＰＲＯＣ．Ｘ,,株式会社,福岡県,福岡市博多区,東比恵２丁目１番３号,,40,132,8120007,,,,,,,2022-03-04,1,,,,,プロックス,0
937,3290003012226,新規,0,2022-03-04,2022-03-04,合同会社ｎｏｚｏｍｉ,,合同会社,福岡県,福岡市南区,井尻５丁目２０番１５号,,40,134,8111302,,,,,,,2022-03-04,1,,,,,ノゾミ,0
939,3290801028299,新規,0,2022-03-04,2022-03-04,ハービス株式会社,,株式会社,福岡県,田川市,中央町６番５１号ＭＮＴビル２階右,,40,206,8250013,,,,,,,2022-03-04,1,,,,,ハービス,0
940,3290801028316,新規,0,2022-03-04,2022-03-04,株式会社志栄,,株式会社,福岡県,北九州市八幡西区,引野２丁目１２番３０号,,40,109,8060067,,,,,,,2022-03-04,1,,,,,シエイ,0
942,3300001012829,新規,0,2022-03-04,2022-03-04,株式会社ＯＨＲＩＳ,,株式会社,佐賀県,佐賀市,西与賀町厘外７３２－２３,,41,201,8490000,,,,,,,2022-03-04,1,,,,,オーリス,0
943,3310003004294,新規,0,2022-03-04,2022-03-04,合同会社ナガバル,,合同会社,長崎県,東彼杵郡波佐見町,長野郷１８３１番地,,42,323,8593725,,,,,,,2022-03-04,1,,,,,ナガバル,0
945,3330003009275,新規,0,2022-03-04,2022-03-04,合同会社瑞,,合同会社,熊本県,熊本市南区,近見８丁目１３番９２号,,43,104,8614101,,,,,,,2022-03-04,1,,,,,ズイ,0
950,3340001024548,新規,0,2022-03-04,2022-03-04,株式会社新和ファーム,,株式会社,鹿児島県,鹿屋市,串良町上小原３９２４番地,,46,203,8931605,,,,,,,2022-03-04,1,,,,,シンワファーム,0
951,3340001024556,新規,0,2022-03-04,2022-03-04,株式会社中翔工業,,株式会社,鹿児島県,鹿児島市,三和町３５番２号,,46,201,8900071,,,,,,,2022-03-04,1,,,,,ナカショウコウギョウ,0
952,3360001030065,新規,0,2022-03-04,2022-03-04,株式会社ＯＬＩＦＥ,,株式会社,沖縄県,浦添市,宮城１丁目２６番６－２０２号サンテラス,,47,208,9012126,,,,,,,2022-03-04,1,,,,,オーライフ,0
955,3360003011848,新規,0,2022-03-04,2022-03-04,ＤＲＥＡＭ・ＴＲＹ合同会社,,合同会社,沖縄県,那覇市,小禄１丁目１９番１２号マンションやちよ５０１,,47,201,9010152,,,,,,,2022-03-04,1,,,,,ドリームトライ,0
956,3360005006607,新規,0,2022-03-04,2022-03-04,一般社団法人沖縄ｗｅｌｌ‐ｂｅｉｎｇ推進協議会,,その他の設立登記法人,沖縄県,那覇市,牧志２丁目２番３０号９階,,47,201,9000013,,,,,,,2022-03-04,1,,,,,オキナワウェルビーイングスイシンキョウギカイ,0
959,3370001048263,新規,0,2022-03-04,2022-03-04,株式会社エスティー工業,,株式会社,宮城県,仙台市太白区,富沢西５丁目１３番地の３,,04,104,9820037,,,,,,,2022-03-04,1,,,,,エスティーコウギョウ,0
960,3370001048271,新規,0,2022-03-04,2022-03-04,株式会社オガル,,株式会社,宮城県,仙台市青葉区,五橋１丁目３番１号,,04,101,9800022,,,,,,,2022-03-04,1,,,,,オガル,0
963,3380001032613,新規,0,2022-03-04,2022-03-04,株式会社関矢工務店,,株式会社,福島県,須賀川市,宮の杜１００番地８６,,07,207,9620406,,,,,,,2022-03-04,1,,,,,セキヤコウムテン,0
964,3380001032621,新規,0,2022-03-04,2022-03-04,株式会社ｏｉｋｅ農Ｎｉｈｅｉ,,株式会社,福島県,河沼郡会津坂下町,大字御池田字小池６６番地,,07,421,9696519,,,,,,,2022-03-04,1,,,,,オイケノニヘイ,0
965,3380001032638,新規,0,2022-03-04,2022-03-04,株式会社ティエル,,株式会社,福島県,いわき市,洋向台４丁目５番地の３,,07,204,9700314,,,,,,,2022-03-04,1,,,,,ティエル,0
966,3390001016821,新規,0,2022-03-04,2022-03-04,株式会社ニュー・マウンテン,,株式会社,山形県,東田川郡庄内町,狩川字雁ケ原１５１番地７,,06,428,9996601,,,,,,,2022-03-04,1,,,,,ニューマウンテン,0
969,3400003002909,新規,0,2022-03-04,2022-03-04,合同会社エヌサポート,,合同会社,岩手県,盛岡市,中央通１丁目６番４０－６０３号,,03,201,0200021,,,,,,,2022-03-04,1,,,,,エヌサポート,0
972,3430001086083,新規,0,2022-03-04,2022-03-04,株式会社モンテッソーリ,,株式会社,北海道,札幌市西区,琴似四条６丁目２番２１号,,01,107,0630814,,,,,,,2022-03-04,1,,,,,モンテッソーリ,0
973,3430001086141,新規,0,2022-03-04,2022-03-04,トータルライフエステート株式会社,,株式会社,北海道,札幌市西区,二十四軒一条１丁目１番１２号,,01,107,0630801,,,,,,,2022-03-04,1,,,,,トータルライフエステート,0
975,3450001013630,新規,0,2022-03-04,2022-03-04,舟根ＦＡＲＭ株式会社,,株式会社,北海道,上川郡鷹栖町,１２線七号３番地,,01,452,0711252,,,,,,,2022-03-04,1,,,,,フナネファーム,0
980,3700150106853,新規,0,2022-03-04,2022-01-28,沖縄回復期リハビリテーション病棟協会,,その他,沖縄県,沖縄市,比屋根２丁目１５－１,,47,211,9042173,,,,,,,2022-01-28,1,,,,,オキナワカイフクキリハビリテーシヨンビヨウトウキヨウカイ,0
991,4010001225005,新規,0,2022-03-04,2022-03-04,株式会社ダイイチ不動産企画,,株式会社,東京都,千代田区,西神田２丁目５番７号神田中央ビル３０４,,13,101,1010065,,,,,,,2022-03-04,1,,,,,ダイイチフドウサンキカク,0
992,4010003037126,新規,0,2022-03-04,2022-03-04,Ｃｏｎｔｅｎｔｓｑｕａｒｅ　Ｊａｐａｎ合同会社,,合同会社,東京都,千代田区,霞が関３丁目２番６号東京倶楽部ビルディング１１階,,13,101,1000013,,,,,,,2022-03-04,1,,,,,コンテントスクエアジャパン,0
993,4010005034682,新規,0,2022-03-04,2022-03-04,一般社団法人ＤＵＭＦ３,,その他の設立登記法人,東京都,千代田区,丸の内３丁目１番１号東京共同会計事務所内,,13,101,1000005,,,,,,,2022-03-04,1,,,,,ディーユーエムエフスリー,0
994,4010005034690,新規,0,2022-03-04,2022-03-04,リテールクリエイト社会保険労務士法人,,その他の設立登記法人,東京都,千代田区,九段南３丁目５番２号九段南３丁目ビル,,13,101,1020074,,,,,,,2022-03-04,1,,,,,リテールクリエイト,0
1001,4010401165908,新規,0,2022-03-04,2022-03-04,株式会社ｔｓｕｍｅｐｌｕｓ,,株式会社,東京都,港区,北青山２丁目７番２８号ＮＡビル２階,,13,103,1070061,,,,,,,2022-03-04,1,,,,,ツメプラス,0
1002,4010401165932,新規,0,2022-03-04,2022-03-04,株式会社Ｏｎｅ　ａｎｄ　Ｏｎｌｙ,,株式会社,東京都,港区,港南３丁目６番２１号コスモポリス品川３０３,,13,103,1080075,,,,,,,2022-03-04,1,,,,,ワンアンドオンリー,0
1003,4010401165965,新規,0,2022-03-04,2022-03-04,株式会社ツムギレコード,,株式会社,東京都,港区,南青山５丁目４番４３号市来ビル１Ｆ,,13,103,1070062,,,,,,,2022-03-04,1,,,,,ツムギレコード,0
1004,4010401165973,新規,0,2022-03-04,2022-03-04,株式会社明健,,株式会社,東京都,港区,新橋１丁目１８番１２号新橋一丁目ビル８Ｆ,,13,103,1050004,,,,,,,2022-03-04,1,,,,,メイケン,0
1005,4010401166006,新規,0,2022-03-04,2022-03-04,株式会社ＢＯＮＤ,,株式会社,東京都,港区,芝浦２丁目１６－１１オアーゼ芝浦レジデンス１３０４,,13,103,1080023,,,,,,,2022-03-04,1,,,,,ボンド,0
1008,4010405020778,新規,0,2022-03-04,2022-03-04,ジャパンインフラホールディングス２１号一般社団法人,,その他の設立登記法人,東京都,港区,元赤坂１丁目１番７号,,13,103,1070051,,,,,,,2022-03-04,1,,,,,ジャパンインフラホールディングスニジュウイチゴウ,0
1011,4010601060776,新規,0,2022-03-04,2022-03-04,株式会社吉友,,株式会社,東京都,墨田区,八広６丁目４番６－１００２号,,13,107,1310041,,,,,,,2022-03-04,1,,,,,ヨシトモ,0
1012,4010601060784,新規,0,2022-03-04,2022-03-04,株式会社たすく,,株式会社,東京都,墨田区,東向島５丁目１番１－９０３号,,13,107,1310032,,,,,,,2022-03-04,1,,,,,タスク,0
1013,4010601060792,新規,0,2022-03-04,2022-03-04,株式会社アビエーションプロス,,株式会社,東京都,江東区,青海２丁目４－３２,,13,108,1350064,,,,,,,2022-03-04,1,,,,,アビエーションプロス,0
1016,4010703006140,新規,0,2022-03-04,2022-03-04,合同会社オリエンタルフーズネクスト,,合同会社,東京都,品川区,大崎４丁目１番７号,,13,109,1410032,,,,,,,2022-03-04,1,,,,,オリエンタルフーズネクスト,0
1017,4010705003326,新規,0,2022-03-04,2022-03-04,医療法人社団Ｏｔｉａｓ,,その他の設立登記法人,東京都,品川区,西五反田４丁目３１番２号目黒不動前マンション１０２,,13,109,1410031,,,,,,,2022-03-04,1,,,,,オティアス,0
1019,4010803004077,新規,0,2022-03-04,2022-03-04,誠悦合同会社,,合同会社,東京都,大田区,蒲田５丁目３２番８号１階,,13,111,1440052,,,,,,,2022-03-04,1,,,,,セイエツ,0
1020,4010803004085,新規,0,2022-03-04,2022-03-04,アースセカンド合同会社,,合同会社,東京都,大田区,北嶺町８番７号,,13,111,1450073,,,,,,,2022-03-04,1,,,,,アースセカンド,0
1037,4011001146034,新規,0,2022-03-04,2022-03-04,株式会社ＺＳＴＡＲ,,株式会社,東京都,渋谷区,道玄坂１丁目１０番８号渋谷道玄坂東急ビル２Ｆ－Ｃ,,13,113,1500043,,,,,,,2022-03-04,1,,,,,ゼットスター,0
1038,4011001146083,新規,0,2022-03-04,2022-03-04,ＧＳフォース株式会社,,株式会社,東京都,渋谷区,南平台町１－９,,13,113,1500036,,,,,,,2022-03-04,1,,,,,ジーエスフォース,0
1039,4011001146091,新規,0,2022-03-04,2022-03-04,株式会社ＳＡＭＵＲＡＩキャピタル,,株式会社,東京都,渋谷区,千駄ヶ谷３丁目３番３１－４０１号,,13,113,1510051,,,,,,,2022-03-04,1,,,,,サムライキャピタル,0
1041,4011003014296,新規,0,2022-03-04,2022-03-04,オルグアンドカンパニー合同会社,,合同会社,東京都,渋谷区,広尾１丁目７番２０号,,13,113,1500012,,,,,,,2022-03-04,1,,,,,オルグアンドカンパニー,0
1042,4011005009451,新規,0,2022-03-04,2022-03-04,一般社団法人アセンションクリスタル協会,,その他の設立登記法人,東京都,目黒区,上目黒２丁目２５番１３号エムス南４０１,,13,110,1530051,,,,,,,2022-03-04,1,,,,,アセンションクリスタルキョウカイ,0
1043,4011005009468,新規,0,2022-03-04,2022-03-04,医療法人社団ＢＲＩＧＨＴ,,その他の設立登記法人,東京都,渋谷区,上原３丁目３１番１９号Ｔｏｍ’ｓＧｒａｎｄｅ１階,,13,113,1510064,,,,,,,2022-03-04,1,,,,,ブライト,0
1047,4011101098027,新規,0,2022-03-04,2022-03-04,株式会社Ｓ’ｐｒｏｕｄ,,株式会社,東京都,新宿区,歌舞伎町２丁目２番２１号ライオンズマンション歌舞伎町７０１号,,13,104,1600021,,,,,,,2022-03-04,1,,,,,エスプラウド,0
1052,4011201023685,新規,0,2022-03-04,2022-03-04,株式会社球球,,株式会社,東京都,中野区,中野５丁目６０番２号ライオンズプラザ中野１０３号室,,13,114,1640001,,,,,,,2022-03-04,1,,,,,キュウキュウ,0
1055,4011303004328,新規,0,2022-03-04,2022-03-04,合同会社Ｐｌａｉｎ　Ｌｅａｆ,,合同会社,東京都,杉並区,阿佐谷南３丁目３５番８－６０７号パークハウス阿佐ヶ谷レジデンス,,13,115,1660004,,,,,,,2022-03-04,1,,,,,プレーンリーフ,0
1056,4011501027808,新規,0,2022-03-04,2022-03-04,株式会社弥栄,,株式会社,東京都,荒川区,東日暮里３丁目２８番５号ＣｒｙｓｔａｌＢｕｉｌｄｉｎｇ１階,,13,118,1160014,,,,,,,2022-03-04,1,,,,,ヤサカ,0
1060,4011505002451,新規,0,2022-03-04,2022-03-04,医療法人社団ひだまり,,その他の設立登記法人,東京都,荒川区,荒川５丁目１番１５号奥澤ビル１階１０１号室,,13,118,1160002,,,,,,,2022-03-04,1,,,,,ヒダマリ,0
1061,4011701025090,新規,0,2022-03-04,2022-03-04,株式会社川辺工業,,株式会社,東京都,江戸川区,西一之江２丁目１６番８号,,13,123,1320023,,,,,,,2022-03-04,1,,,,,カワベコウギョウ,0
1065,4011803004983,新規,0,2022-03-04,2022-03-04,合同会社アイエス企画,,合同会社,東京都,葛飾区,東水元１丁目４番６号,,13,122,1250033,,,,,,,2022-03-04,1,,,,,アイエスキカク,0
1067,4012403005257,新規,0,2022-03-04,2022-03-04,合同会社アルバソラーレ,,合同会社,東京都,調布市,柴崎２丁目８番地１－１０７号,,13,208,1820014,,,,,,,2022-03-04,1,,,,,アルバソラーレ,0
1070,4012701016955,新規,0,2022-03-04,2022-03-04,株式会社エイチ・ディー・シティ,,株式会社,東京都,西東京市,田無町１丁目８番２６号,,13,229,1880011,,,,,,,2022-03-04,1,,,,,エイチディーシティ,0
1071,4012701016963,新規,0,2022-03-04,2022-03-04,小形工業株式会社,,株式会社,東京都,東村山市,久米川町１丁目１９番地１４,,13,213,1890003,,,,,,,2022-03-04,1,,,,,オガタコウギョウ,0
1076,4013301048769,新規,0,2022-03-04,2022-03-04,株式会社ａｌｌａｔｔａｉｎ,,株式会社,東京都,豊島区,池袋２丁目３６番１号ＩＮＦＩＮＩＴＹ・ＩＫＥＢＵＫＵＲＯ６Ｆ,,13,116,1710014,,,,,,,2022-03-04,1,,,,,オーラテイン,0
1081,4020001145466,新規,0,2022-03-04,2022-03-04,ＫＷＤ・ＳＯＬＵＴＩＯＮＳ株式会社,,株式会社,神奈川県,横浜市旭区,柏町９３番地の１１,,14,112,2410835,,,,,,,2022-03-04,1,,,,,ケーダブリュディソリューションズ,0
1082,4020001145474,新規,0,2022-03-04,2022-03-04,パラドックス株式会社,,株式会社,神奈川県,横浜市港北区,新吉田東３丁目２番１２－１１４号,,14,109,2230058,,,,,,,2022-03-04,1,,,,,パラドックス,0
1083,4020001145482,新規,0,2022-03-04,2022-03-04,株式会社ＯＵＲ　ＬＩＦＥ　ＮＥＷ　ＥＶＥＲ,,株式会社,神奈川県,横浜市西区,南幸２丁目１２番１０号ＩＴＯビル８Ｆ,,14,103,2200005,,,,,,,2022-03-04,1,,,,,アワーライフニューエバー,0
1084,4020001145490,新規,0,2022-03-04,2022-03-04,株式会社Ａｒｓｃｉ,,株式会社,神奈川県,横浜市都筑区,中川中央１丁目３５番１６－７０３号,,14,118,2240003,,,,,,,2022-03-04,1,,,,,アルシ,0
1085,4020001145524,新規,0,2022-03-04,2022-03-04,株式会社ＩＺＭ,,株式会社,神奈川県,川崎市中原区,今井南町２８番２号,,14,133,2110064,,,,,,,2022-03-04,1,,,,,イズム,0
1087,4020003021384,新規,0,2022-03-04,2022-03-04,みらい貿易合同会社,,合同会社,神奈川県,横浜市港南区,上大岡西１丁目１５番１－９１２号,,14,111,2330002,,,,,,,2022-03-04,1,,,,,ミライボウエキ,0
1089,4021001075315,新規,0,2022-03-04,2022-03-04,株式会社佐藤心結,,株式会社,神奈川県,小田原市,栢山１９５１番地の１５,,14,206,2500852,,,,,,,2022-03-04,1,,,,,サトウミユ,0
1097,4030001146868,新規,0,2022-03-04,2022-03-04,サイゼン株式会社,,株式会社,埼玉県,さいたま市中央区,上落合５丁目１４番９号ＨＥＴＲＥ１０５号室,,11,105,3380001,,,,,,,2022-03-04,1,,,,,サイゼン,0
1098,4030001147032,新規,0,2022-03-04,2022-03-04,株式会社エレテクト,,株式会社,埼玉県,入間市,東町４丁目１番４１号７,,11,225,3580002,,,,,,,2022-03-04,1,,,,,エレテクト,0
1099,4030001147049,新規,0,2022-03-04,2022-03-04,株式会社ディーアイ,,株式会社,埼玉県,越谷市,大間野町５丁目１５５番地３,,11,222,3430844,,,,,,,2022-03-04,1,,,,,ディーアイ,0
1100,4030001147098,新規,0,2022-03-04,2022-03-04,株式会社ｌａｄ　ｐｒｉｍｅ,,株式会社,埼玉県,所沢市,大字久米１７０６番地の１富士ビル３０１,,11,208,3591131,,,,,,,2022-03-04,1,,,,,ラッドプライム,0
1101,4030001147115,新規,0,2022-03-04,2022-03-04,株式会社Ｆ．Ｓ．テック,,株式会社,埼玉県,児玉郡上里町,大字七本木１８５７番地４ビッグタウン２号,,11,385,3690306,,,,,,,2022-03-04,1,,,,,エフエステック,0
1103,4030003018933,新規,0,2022-03-04,2022-03-04,辰冬合同会社,,合同会社,埼玉県,春日部市,南４丁目９－１３,,11,214,3440064,,,,,,,2022-03-04,1,,,,,シントウ,0
1104,4030003018974,新規,0,2022-03-04,2022-03-04,合同会社ＡＺＬＥＡＰ,,合同会社,埼玉県,本庄市,けや木１丁目５番１号,,11,211,3670042,,,,,,,2022-03-04,1,,,,,アズリープ,0
1111,4040001122430,新規,0,2022-03-04,2022-03-04,株式会社ＴＳ,,株式会社,千葉県,袖ケ浦市,今井１丁目５８番地,,12,229,2990264,,,,,,,2022-03-04,1,,,,,ティーエス,0
1112,4040001122439,新規,0,2022-03-04,2022-03-04,株式会社繋,,株式会社,千葉県,柏市,高柳１６７０番地７１,,12,217,2770941,,,,,,,2022-03-04,1,,,,,ツナグ,0
1113,4040001122447,新規,0,2022-03-04,2022-03-04,株式会社ＯＷＫ,,株式会社,千葉県,船橋市,神保町２７８番地,,12,204,2740056,,,,,,,2022-03-04,1,,,,,オーダブリューケー,0
1114,4040001122455,新規,0,2022-03-04,2022-03-04,Ｓ－ＴＥＣ株式会社,,株式会社,千葉県,千葉市花見川区,幕張本郷１丁目１２番８－１０２号,,12,102,2620033,,,,,,,2022-03-04,1,,,,,エステック,0
1115,4040001122471,新規,0,2022-03-04,2022-03-04,株式会社Ｒｉｏｎｅｅｅｒ,,株式会社,千葉県,成田市,幸町４５４番地２４（シャーメゾン扇ＩＩＩ番館１０１）,00125869,12,211,2860028,,,,,,,2022-03-04,1,,,,,リオニア,0
1116,4040001122488,新規,0,2022-03-04,2022-03-04,株式会社ＷＥＡＲＥ,,株式会社,千葉県,松戸市,本町１７番地の１１芹澤ビル６階,,12,207,2710091,,,,,,,2022-03-04,1,,,,,ウィアー,0
1117,4040001122496,新規,0,2022-03-04,2022-03-04,株式会社ノイステート,,株式会社,千葉県,市原市,国分寺台中央６丁目８番地３セジュール矢沢２０１,,12,219,2900073,,,,,,,2022-03-04,1,,,,,ノイステート,0
1118,4040001122513,新規,0,2022-03-04,2022-03-04,株式会社ニセンゴヒャク,,株式会社,千葉県,成田市,新妻１３６番地,,12,211,2860837,,,,,,,2022-03-04,1,,,,,ニセンゴヒャク,0
1119,4040001122546,新規,0,2022-03-04,2022-03-04,株式会社根本耕育農場,,株式会社,千葉県,成田市,小浮２４４番地,,12,211,2890101,,,,,,,2022-03-04,1,,,,,ネモトコウイクノウジョウ,0
1121,4040003019600,新規,0,2022-03-04,2022-03-04,Ｅ　Ｐｒｏｄｕｃｔ合同会社,,合同会社,千葉県,松戸市,馬橋３３２３番地,,12,207,2710051,,,,,,,2022-03-04,1,,,,,イープロダクト,0
1122,4050001050738,新規,0,2022-03-04,2022-03-04,つくば医療介護サービス研究機構株式会社,,株式会社,茨城県,つくば市,天王台１丁目１番１,,08,220,3050006,,,,,,,2022-03-04,1,,,,,ツクバイリョウカイゴサービスケンキュウキコウ,0
1124,4050003006408,新規,0,2022-03-04,2022-03-04,合同会社ＡＩ進学ゼミナールひたちなか,,合同会社,茨城県,ひたちなか市,大字市毛４０４－３５,,08,221,3120033,,,,,,,2022-03-04,1,,,,,エーアイシンガクゼミナールヒタチナカ,0
1128,4060001034608,新規,0,2022-03-04,2022-03-04,株式会社生井工業,,株式会社,栃木県,真岡市,小林１４６４番地２,,09,209,3214321,,,,,,,2022-03-04,1,,,,,ナマイコウギョウ,0
1129,4060001034616,新規,0,2022-03-04,2022-03-04,株式会社ＳＶＦ,,株式会社,栃木県,足利市,寺岡町３５１番地,,09,202,3294213,,,,,,,2022-03-04,1,,,,,エスブイエフ,0
1130,4060001034632,新規,0,2022-03-04,2022-03-04,株式会社彩雲,,株式会社,栃木県,那須塩原市,上厚崎４１番地７,,09,213,3250026,,,,,,,2022-03-04,1,,,,,サイウン,0
1134,4070001038995,新規,0,2022-03-04,2022-03-04,ワールド・ビジネス株式会社,,株式会社,群馬県,伊勢崎市,三室町５９２４番地３,,10,204,3792235,,,,,,,2022-03-04,1,,,,,ワールドビジネス,0
1136,4070003004401,新規,0,2022-03-04,2022-03-04,アース合同会社,,合同会社,群馬県,高崎市,緑町１丁目６番地１高義マンション２０２号,,10,202,3700073,,,,,,,2022-03-04,1,,,,,アース,0
1139,4080101023137,新規,0,2022-03-04,2022-03-04,株式会社インテリアタムラ,,株式会社,静岡県,沼津市,大塚３７１番地の２,,22,203,4100306,,,,,,,2022-03-04,1,,,,,インテリアタムラ,0
1141,4080103002543,新規,0,2022-03-04,2022-03-04,Ｈｉｇｈ　Ａｍｂｉｔｉｏｎ合同会社,,合同会社,静岡県,御殿場市,中畑４７１番地の５‐１０２,,22,215,4120006,,,,,,,2022-03-04,1,,,,,ハイアンビション,0
1142,4080401025659,新規,0,2022-03-04,2022-03-04,ＮＭＧ株式会社,,株式会社,静岡県,磐田市,豊浜３５５３番地,,22,211,4371202,,,,,,,2022-03-04,1,,,,,エヌエムジー,0
1145,4090001017452,新規,0,2022-03-04,2022-03-04,株式会社ＥＳＴＡＳＩ,,株式会社,山梨県,甲府市,上阿原町１２２番地１,,19,201,4000814,,,,,,,2022-03-04,1,,,,,エスタジ,0
1146,4090001017460,新規,0,2022-03-04,2022-03-04,株式会社ハイメディック,,株式会社,山梨県,北杜市,須玉町大蔵１４２６番地４,,19,209,4080113,,,,,,,2022-03-04,1,,,,,ハイメディック,0
1150,4100001035114,新規,0,2022-03-04,2022-03-04,株式会社安栄工業,,株式会社,長野県,長野市,稲里町田牧１６３１番地９,,20,201,3812214,,,,,,,2022-03-04,1,,,,,ヤスエコウギョウ,0
1151,4100001035122,新規,0,2022-03-04,2022-03-04,株式会社りふろぎ,,株式会社,長野県,安曇野市,穂高牧１３７２番地,,20,220,3998305,,,,,,,2022-03-04,1,,,,,リフロギ,0
1153,4110001036474,新規,0,2022-03-04,2022-03-04,株式会社オルコア,,株式会社,新潟県,燕市,四ツ屋１４番地２,,15,213,9591224,,,,,,,2022-03-04,1,,,,,オルコア,0
1154,4110003004710,新規,0,2022-03-04,2022-03-04,明珠合同会社,,合同会社,新潟県,柏崎市,長浜町６番３５号,,15,205,9450042,,,,,,,2022-03-04,1,,,,,メイジュ,0
1162,4120001244126,新規,0,2022-03-04,2022-03-04,株式会社洒洒落落,,株式会社,大阪府,大阪市北区,豊崎５丁目１番１６－３０２号,,27,127,5310072,,,,,,,2022-03-04,1,,,,,シャシャラクラク,0
1163,4120001244200,新規,0,2022-03-04,2022-03-04,株式会社Ｇａｌａｘｙ,,株式会社,大阪府,寝屋川市,香里北之町９番２４号,,27,215,5720080,,,,,,,2022-03-04,1,,,,,ギャラクシー,0
1164,4120001244209,新規,0,2022-03-04,2022-03-04,株式会社ドギー企画,,株式会社,大阪府,大阪市浪速区,難波中１丁目９番１０号,,27,111,5560011,,,,,,,2022-03-04,1,,,,,ドギーキカク,0
1165,4120001244233,新規,0,2022-03-04,2022-03-04,株式会社タグボート,,株式会社,大阪府,大阪市生野区,勝山北２丁目１１番２６号,,27,116,5440033,,,,,,,2022-03-04,1,,,,,タグボート,0
1166,4120001244241,新規,0,2022-03-04,2022-03-04,株式会社きりん,,株式会社,大阪府,大阪市北区,梅田２丁目２番２号ヒルトンプラザウエスト１９階,,27,127,5300001,,,,,,,2022-03-04,1,,,,,キリン,0
1167,4120001244258,新規,0,2022-03-04,2022-03-04,畑尾工業所株式会社,,株式会社,大阪府,大阪市此花区,春日出北２丁目１８番１号,,27,104,5540021,,,,,,,2022-03-04,1,,,,,ハタオコウギョウショ,0
1168,4120001244274,新規,0,2022-03-04,2022-03-04,株式会社フードライフ,,株式会社,大阪府,大阪市北区,曾根崎新地１丁目１０番２２号,,27,127,5300002,,,,,,,2022-03-04,1,,,,,フードライフ,0
1169,4120001244282,新規,0,2022-03-04,2022-03-04,株式会社ＹＯＮＥＤＡ,,株式会社,大阪府,大阪市西区,西本町１丁目４－１オリックス本町４Ｆ,,27,106,5500005,,,,,,,2022-03-04,1,,,,,ヨネダ,0
1175,4120003021226,新規,0,2022-03-04,2022-03-04,合同会社ヴィラ枚方,,合同会社,大阪府,枚方市,渚西１丁目６番１－１０１号,,27,210,5731178,,,,,,,2022-03-04,1,,,,,ヴィラヒラカタ,0
1178,4120101065158,新規,0,2022-03-04,2022-03-04,Ｂｅａｕｔｙ　ａｌｉｖｅ株式会社,,株式会社,大阪府,和泉市,浦田町６２２番地の１１,,27,219,5941103,,,,,,,2022-03-04,1,,,,,ビューティアライブ,0
1179,4120101065182,新規,0,2022-03-04,2022-03-04,堺車輛株式会社,,株式会社,大阪府,堺市堺区,南瓦町１番２０号５０１号室,,27,141,5900078,,,,,,,2022-03-04,1,,,,,サカイシャリョウ,0
1181,4120901045664,新規,0,2022-03-04,2022-03-04,株式会社岩田航空,,株式会社,大阪府,池田市,鉢塚３丁目１１番９－２０３号,,27,204,5630024,,,,,,,2022-03-04,1,,,,,イワタコウクウ,0
1182,4120901045672,新規,0,2022-03-04,2022-03-04,カタライズラボ株式会社,,株式会社,大阪府,豊中市,岡上の町４丁目１番２３－３０６号,,27,203,5600023,,,,,,,2022-03-04,1,,,,,カタライズラボ,0
1183,4120901045680,新規,0,2022-03-04,2022-03-04,株式会社Ｆｅｒｉｓ,,株式会社,大阪府,池田市,石橋４丁目２２番４号,,27,204,5630032,,,,,,,2022-03-04,1,,,,,フェリス,0
1187,4120905006290,新規,0,2022-03-04,2022-03-04,一般社団法人ＢｒｉｄｇＥ,,その他の設立登記法人,大阪府,吹田市,江の木町２番３１号,,27,205,5640053,,,,,,,2022-03-04,1,,,,,ブリッジ,0
1188,4122001035629,新規,0,2022-03-04,2022-03-04,株式会社みらい,,株式会社,大阪府,八尾市,東本町１丁目３番４号,,27,212,5810004,,,,,,,2022-03-04,1,,,,,ミライ,0
1190,4130001071247,新規,0,2022-03-04,2022-03-04,株式会社五,,株式会社,京都府,京都市北区,上賀茂赤尾町１２－１６,,26,101,6038018,,,,,,,2022-03-04,1,,,,,イツ,0
1191,4130001071255,新規,0,2022-03-04,2022-03-04,株式会社ジェネラス,,株式会社,京都府,京都市右京区,嵯峨野開町２４番地２４,,26,108,6168313,,,,,,,2022-03-04,1,,,,,ジェネラス,0
1192,4130001071271,新規,0,2022-03-04,2022-03-04,株式会社Ｃ２,,株式会社,京都府,京都市中京区,三条通新町西入釜座町３１,,26,104,6048241,,,,,,,2022-03-04,1,,,,,シーツー,0
1195,4130003007785,新規,0,2022-03-04,2022-03-04,合同会社マナーアンドブランディングラボ,,合同会社,京都府,京都市上京区,宮垣町９１まむあん荒神口１０２,,26,102,6020853,,,,,,,2022-03-04,1,,,,,マナーアンドブランディングラボ,0
1199,4140001125084,新規,0,2022-03-04,2022-03-04,株式会社Ｋ．ｓｔ－ｒｙ,,株式会社,兵庫県,伊丹市,中野東３丁目１０７番地,,28,207,6640022,,,,,,,2022-03-04,1,,,,,ケイストーリー,0
1200,4140001125092,新規,0,2022-03-04,2022-03-04,株式会社三村工業,,株式会社,兵庫県,高砂市,曽根町２８３５番地の５,,28,216,6760082,,,,,,,2022-03-04,1,,,,,ミムラコウギョウ,0
1201,4140001125118,新規,0,2022-03-04,2022-03-04,ＯＲＡＮＧＥＮＩＵＳ株式会社,,株式会社,兵庫県,神戸市北区,有野中町１丁目３番１９フェアリー六甲２０５号室,,28,109,6511313,,,,,,,2022-03-04,1,,,,,オレンジニアス,0
1202,4140001125126,新規,0,2022-03-04,2022-03-04,株式会社杜産業,,株式会社,兵庫県,姫路市,飾磨区今在家１１４０番地５,,28,201,6728079,,,,,,,2022-03-04,1,,,,,トウサンギョウ,0
1203,4140001125134,新規,0,2022-03-04,2022-03-04,ノアグループホールディングス株式会社,,株式会社,兵庫県,姫路市,東山５２４番地,,28,201,6728014,,,,,,,2022-03-04,1,,,,,ノアグループホールディングス,0
1204,4140001125167,新規,0,2022-03-04,2022-03-04,株式会社ＡＫＭ２０２２,,株式会社,兵庫県,神戸市中央区,楠町２丁目３番１１号,,28,110,6500017,,,,,,,2022-03-04,1,,,,,エーケイエムニーゼロニーニー,0
1208,4140003017412,新規,0,2022-03-04,2022-03-04,合同会社ＧＲＯＷ,,合同会社,兵庫県,神戸市垂水区,向陽２丁目６番１８号向陽センタービル１０３,,28,108,6550012,,,,,,,2022-03-04,1,,,,,グロー,0
1209,4140003017420,新規,0,2022-03-04,2022-03-04,合同会社パチクリ,,合同会社,兵庫県,神戸市垂水区,塩屋町４丁目１０－１１,,28,108,6550872,,,,,,,2022-03-04,1,,,,,パチクリ,0
1210,4140005026056,新規,0,2022-03-04,2022-03-04,社会福祉法人みやびの杜,,その他の設立登記法人,兵庫県,尼崎市,戸ノ内町３丁目７５６番９５号,,28,202,6610961,,,,,,,2022-03-04,1,,,,,ミヤビノヤシロ,0
1212,4160001024029,新規,0,2022-03-04,2022-03-04,株式会社ＧＭＥ,,株式会社,滋賀県,栗東市,下戸山１０９４番地６,,25,208,5203011,,,,,,,2022-03-04,1,,,,,ジーエムイー,0
1213,4160001024037,新規,0,2022-03-04,2022-03-04,ＴＯＤＯＫＥＲＵ株式会社,,株式会社,滋賀県,長浜市,神照町３９７－６,,25,203,5260015,,,,,,,2022-03-04,1,,,,,トドケル,0
1218,4180001150178,新規,0,2022-03-04,2022-03-04,億永通商株式会社,,株式会社,愛知県,常滑市,久米字南沢２番地の１,,23,216,4790002,,,,,,,2022-03-04,1,,,,,オクナガツウショウ,0
1219,4180001150244,新規,0,2022-03-04,2022-03-04,株式会社ＮＨＤ,,株式会社,愛知県,春日井市,六軒屋町４丁目６３番地,,23,206,4860842,,,,,,,2022-03-04,1,,,,,エヌエイチディー,0
1220,4180001150252,新規,0,2022-03-04,2022-03-04,ワールドピース株式会社,,株式会社,愛知県,名古屋市緑区,大高町字鷲津１４１番地,,23,114,4598001,,,,,,,2022-03-04,1,,,,,ワールドピース,0
1221,4180001150285,新規,0,2022-03-04,2022-03-04,株式会社ＯＬＩＶＥ,,株式会社,愛知県,名古屋市昭和区,滝川町４７番地の６,,23,107,4660826,,,,,,,2022-03-04,1,,,,,オリーブ,0
1222,4180001150293,新規,0,2022-03-04,2022-03-04,株式会社ＳａｎｋａｋｕＬａｂ,,株式会社,愛知県,名古屋市天白区,原４丁目１３１１番地,,23,116,4680015,,,,,,,2022-03-04,1,,,,,サンカクラボ,0
1223,4180001150302,新規,0,2022-03-04,2022-03-04,株式会社セントフォース,,株式会社,愛知県,一宮市,猿海道１丁目９番７号,,23,203,4910838,,,,,,,2022-03-04,1,,,,,セントフォース,0
1224,4180001150310,新規,0,2022-03-04,2022-03-04,株式会社ＥＴＯＷＡ,,株式会社,愛知県,名古屋市中区,栄３丁目３１番１８号アルティメイトウエダ５Ｆ,,23,106,4600008,,,,,,,2022-03-04,1,,,,,エトワ,0
1230,4180301035962,新規,0,2022-03-04,2022-03-04,ｔｏｍａｔｏ　ｄｅ　ｈａｐｐｙ株式会社,,株式会社,愛知県,碧南市,葭生町１丁目７７番地,,23,209,4470826,,,,,,,2022-03-04,1,,,,,トマトデハッピー,0
1231,4180301035970,新規,0,2022-03-04,2022-03-04,ＴＫシステム株式会社,,株式会社,愛知県,安城市,東端町白萩２９番地１,,23,212,4441213,,,,,,,2022-03-04,1,,,,,ティーケーシステム,0
1235,4200001039815,新規,0,2022-03-04,2022-03-04,株式会社プラティ多治見,,株式会社,岐阜県,多治見市,栄町１丁目６番地の１,,21,204,5070035,,,,,,,2022-03-04,1,,,,,プラティタジミ,0
1237,4200003005484,新規,0,2022-03-04,2022-03-04,合同会社ＦｅＡＴ,,合同会社,岐阜県,岐阜市,静が丘町６２番地,,21,201,5013153,,,,,,,2022-03-04,1,,,,,フィート,0
1246,4240001059438,新規,0,2022-03-04,2022-03-04,株式会社沖元工務店,,株式会社,広島県,広島市佐伯区,五日市町大字上河内１６７６番地１０,,34,108,7315151,,,,,,,2022-03-04,1,,,,,オキモトコウムテン,0
1247,4240005015338,新規,0,2022-03-04,2022-03-04,特定非営利活動法人ワンチーム,,その他の設立登記法人,広島県,広島市佐伯区,石内北３丁目４番２号,,34,108,7315109,,,,,,,2022-03-04,1,,,,,ワンチーム,0
1248,4250001019432,新規,0,2022-03-04,2022-03-04,株式会社こころメディカル,,株式会社,山口県,岩国市,尾津町２丁目２２番１０号,,35,208,7400032,,,,,,,2022-03-04,1,,,,,ココロメディカル,0
1249,4250001019440,新規,0,2022-03-04,2022-03-04,株式会社キバルズ,,株式会社,山口県,熊毛郡田布施町,大字下田布施２９９３番地２０,,35,343,7421511,,,,,,,2022-03-04,1,,,,,キバルズ,0
1250,4250001019449,新規,0,2022-03-04,2022-03-04,株式会社Ｆアセット,,株式会社,山口県,岩国市,尾津町２丁目２２番１０号,,35,208,7400032,,,,,,,2022-03-04,1,,,,,エフアセット,0
1256,4280003001591,新規,0,2022-03-04,2022-03-04,合同会社にこる,,合同会社,島根県,出雲市,渡橋町１００,,32,203,6930004,,,,,,,2022-03-04,1,,,,,,0
1259,4290001096633,新規,0,2022-03-04,2022-03-04,南畑建工株式会社,,株式会社,福岡県,那珂川市,大字不入道５９６番地３,,40,231,8111231,,,,,,,2022-03-04,1,,,,,ミナミハタケンコウ,0
1260,4290001096674,新規,0,2022-03-04,2022-03-04,株式会社大世,,株式会社,福岡県,福岡市城南区,友丘２丁目４番２９号,,40,136,8140112,,,,,,,2022-03-04,1,,,,,タイセイ,0
1262,4290003012233,新規,0,2022-03-04,2022-03-04,合同会社スリーツリー,,合同会社,福岡県,古賀市,今の庄３丁目１８番１号,,40,223,8113117,,,,,,,2022-03-04,1,,,,,スリーツリー,0
1263,4290003012241,新規,0,2022-03-04,2022-03-04,Ｒａｄｉａｎｔ　Ｎａｔｕｒｅ合同会社,,合同会社,福岡県,福岡市中央区,渡辺通５丁目９番２－２０２号,,40,133,8100004,,,,,,,2022-03-04,1,,,,,ラディアントネイチャー,0
1266,4290801028298,新規,0,2022-03-04,2022-03-04,株式会社ソアラ,,株式会社,福岡県,豊前市,大字四郎丸３９１番地,,40,214,8280011,,,,,,,2022-03-04,1,,,,,ソアラ,0
1267,4290801028315,新規,0,2022-03-04,2022-03-04,株式会社久冨工務店,,株式会社,福岡県,行橋市,西泉３丁目９番３号,,40,213,8240038,,,,,,,2022-03-04,1,,,,,クドミコウムテン,0
1269,4300001012828,新規,0,2022-03-04,2022-03-04,株式会社ＳＴＥＰ,,株式会社,佐賀県,佐賀市,若宮１丁目１０番３－５０２号,,41,201,8490926,,,,,,,2022-03-04,1,,,,,ステップ,0
1271,4310001017743,新規,0,2022-03-04,2022-03-04,株式会社博多屋,,株式会社,長崎県,佐世保市,有福町２３１７番地２,,42,202,8593241,,,,,,,2022-03-04,1,,,,,ハカタヤ,0
1272,4310001017751,新規,0,2022-03-04,2022-03-04,株式会社Ｄ．Ｈ．Ｈ,,株式会社,長崎県,佐世保市,天神３丁目１番２２号,,42,202,8571174,,,,,,,2022-03-04,1,,,,,ディーエイチエイチ,0
1274,4320001018930,新規,0,2022-03-04,2022-03-04,神政電気工事株式会社,,株式会社,大分県,大分市,三佐６丁目７番２５号,,44,201,8700108,,,,,,,2022-03-04,1,,,,,シンセイデンキコウジ,0
1275,4320001018947,新規,0,2022-03-04,2022-03-04,株式会社ミヤコ屋,,株式会社,大分県,宇佐市,大字北宇佐２６４７番地,,44,211,8720103,,,,,,,2022-03-04,1,,,,,ミヤコヤ,0
1278,4320003003740,新規,0,2022-03-04,2022-03-04,合同会社シリウス,,合同会社,大分県,中津市,大字蛎瀬７５４番地１,,44,203,8710007,,,,,,,2022-03-04,1,,,,,シリウス,0
1286,4330003009274,新規,0,2022-03-04,2022-03-04,合同会社大林木,,合同会社,熊本県,球磨郡あさぎり町,深田西２３２３番地,,43,514,8680444,,,,,,,2022-03-04,1,,,,,タイリンボク,0
1289,4340001024555,新規,0,2022-03-04,2022-03-04,株式会社カノンホールディングス,,株式会社,鹿児島県,出水市,昭和町３５番２５号,,46,208,8990202,,,,,,,2022-03-04,1,,,,,カノンホールディングス,0
1291,4340005009412,新規,0,2022-03-04,2022-03-04,特定非営利活動法人ゆいむすび実行委員会,,その他の設立登記法人,鹿児島県,大島郡龍郷町,赤尾木２１９番地,,46,527,8940411,,,,,,,2022-03-04,1,,,,,ユイムスビジッコウイインカイ,0
1294,4370001048262,新規,0,2022-03-04,2022-03-04,株式会社あらきファーム,,株式会社,宮城県,登米市,中田町浅水字長谷山２４７番地２,,04,212,9870611,,,,,,,2022-03-04,1,,,,,アラキファーム,0
1295,4370001048279,新規,0,2022-03-04,2022-03-04,エイティープラン株式会社,,株式会社,宮城県,仙台市青葉区,みやぎ台２丁目１３番８号,,04,101,9893214,,,,,,,2022-03-04,1,,,,,エイティープラン,0
1296,4370001048287,新規,0,2022-03-04,2022-03-04,株式会社カレー,,株式会社,宮城県,仙台市青葉区,国分町３丁目１０番１７号相生ビル１１１号室,,04,101,9800803,,,,,,,2022-03-04,1,,,,,カレー,0
1297,4370003005609,新規,0,2022-03-04,2022-03-04,合同会社トップ・メディカル,,合同会社,宮城県,名取市,高舘吉田字東真坂１番地の１１,,04,207,9811242,,,,,,,2022-03-04,1,,,,,トップメディカル,0
1300,4380001032612,新規,0,2022-03-04,2022-03-04,株式会社ロイス,,株式会社,福島県,南相馬市,原町区小川町３３９番地,,07,212,9750011,,,,,,,2022-03-04,1,,,,,ロイス,0
1301,4380001032620,新規,0,2022-03-04,2022-03-04,株式会社源絆家,,株式会社,福島県,喜多方市,字小田付道下７１２２番地１,,07,208,9660813,,,,,,,2022-03-04,1,,,,,ゲンキヤ,0
1302,4380001032637,新規,0,2022-03-04,2022-03-04,株式会社創工房,,株式会社,福島県,会津若松市,白虎町１１６番地２９白虎ビル２０１,,07,202,9650024,,,,,,,2022-03-04,1,,,,,ツクリコウボウ,0
1304,4380003005112,新規,0,2022-03-04,2022-03-04,合同会社えんまん,,合同会社,福島県,郡山市,阿久津町字舘側１５番地,,07,203,9630667,,,,,,,2022-03-04,1,,,,,エンマン,0
1306,4400005008218,新規,0,2022-03-04,2022-03-04,一般社団法人ＨＫＳ,,その他の設立登記法人,岩手県,釜石市,新浜町１丁目２番１２号,,03,211,0260015,,,,,,,2022-03-04,1,,,,,エイチケーエス,0
1310,4430001086132,新規,0,2022-03-04,2022-03-04,進剛工業株式会社,,株式会社,北海道,札幌市北区,屯田八条１１丁目１番３０号,,01,102,0020858,,,,,,,2022-03-04,1,,,,,シンゴウコウギョウ,0
1313,4460001005667,新規,0,2022-03-04,2022-03-04,Ｍｅｔａ　Ｆａｒｍ株式会社,,株式会社,北海道,川上郡標茶町,字塘路原野北七線４９番地４４,,01,664,0882264,,,,,,,2022-03-04,1,,,,,メタファーム,0
1316,4480001011663,新規,0,2022-03-04,2022-03-04,株式会社やちよ,,株式会社,徳島県,阿波市,阿波町大道北２３３番地,,36,206,7711703,,,,,,,2022-03-04,1,,,,,ヤチヨ,0
1321,4490001010128,新規,0,2022-03-04,2022-03-04,株式会社青い鳥,,株式会社,高知県,南国市,篠原７０７番地,,39,204,7830006,,,,,,,2022-03-04,1,,,,,アオイトリ,0
1322,4490003001637,新規,0,2022-03-04,2022-03-04,合同会社スプレッド,,合同会社,高知県,高知市,上町３丁目１１－１６,,39,201,7800901,,,,,,,2022-03-04,1,,,,,スプレッド,0
1326,4500001024051,新規,0,2022-03-04,2022-03-04,株式会社ＮОＡＨ,,株式会社,愛媛県,宇和島市,津島町近家甲１６０７番地１３３,,38,203,7983303,,,,,,,2022-03-04,1,,,,,ノア,0
1339,5010001224947,新規,0,2022-03-04,2022-03-04,ＳＭＩＴＨ＆ＶＩＳＩＯＮ株式会社,,株式会社,東京都,文京区,本郷４丁目１－１菊花ビル７０１,,13,105,1130033,,,,,,,2022-03-04,1,,,,,スミスアンドビジョン,0
1345,5010003037059,新規,0,2022-03-04,2022-03-04,合同会社ＡＹＲＴＯＮ,,合同会社,東京都,中央区,銀座１丁目１２番４号Ｎ＆ＥＢＬＤ．７階,,13,102,1040061,,,,,,,2022-03-04,1,,,,,アイルトン,0
1346,5010003037141,新規,0,2022-03-04,2022-03-04,合同会社Ｋｉｄｓ　Ｒｏｃｋｅｔ　Ａｃａｄｅｍｙ,,合同会社,東京都,中央区,日本橋人形町２丁目１５番１１号,,13,102,1030013,,,,,,,2022-03-04,1,,,,,キッズロケットアカデミー,0
1351,5010401165931,新規,0,2022-03-04,2022-03-04,株式会社Ｌｉｂｅｒｔａｄ,,株式会社,東京都,港区,芝３丁目８番２－２７０６号,,13,103,1050014,,,,,,,2022-03-04,1,,,,,リベルタ,0
1352,5010401165980,新規,0,2022-03-04,2022-03-04,ｐｉｘｅｌ株式会社,,株式会社,東京都,港区,浜松町２丁目２－１５浜松町ダイヤビル２Ｆ,,13,103,1050013,,,,,,,2022-03-04,1,,,,,ピクセル,0
1353,5010401165989,新規,0,2022-03-04,2022-03-04,株式会社Ｔｉａ．,,株式会社,東京都,港区,南青山７丁目２番１０－３０６号,,13,103,1070062,,,,,,,2022-03-04,1,,,,,ティアドット,0
1357,5010403027221,新規,0,2022-03-04,2022-03-04,ジャパンインフラ２１号合同会社,,合同会社,東京都,港区,元赤坂１丁目１番７号,,13,103,1070051,,,,,,,2022-03-04,1,,,,,ジャパンインフラニジュウイチゴウ,0
1367,5010701042327,新規,0,2022-03-04,2022-03-04,株式会社ＬａｕｎｃｈＡｔ,,株式会社,東京都,品川区,西五反田８丁目２－１０五反田グリーンハイツ４０７,,13,109,1410031,,,,,,,2022-03-04,1,,,,,ローンチアット,0
1368,5010705003325,新規,0,2022-03-04,2022-03-04,医療法人社団ナイルチドリ,,その他の設立登記法人,東京都,品川区,戸越２丁目７番４号ウィン戸越２階,,13,109,1420041,,,,,,,2022-03-04,1,,,,,ナイルチドリ,0
1371,5010801032780,新規,0,2022-03-04,2022-03-04,株式会社プレコホールディングス,,株式会社,東京都,大田区,北千束１丁目３番５号,,13,111,1450062,,,,,,,2022-03-04,1,,,,,プレコホールディングス,0
1378,5011001146058,新規,0,2022-03-04,2022-03-04,株式会社Ｊｏｂ　Ｔｅｃｈｎｏｌｏｇｙ,,株式会社,東京都,渋谷区,神宮前３丁目４－５－３Ｆ,,13,113,1500001,,,,,,,2022-03-04,1,,,,,ジョブテクノロジー,0
1379,5011001146074,新規,0,2022-03-04,2022-03-04,株式会社ＫＫ　ＣＯＭＰＡＮＹ,,株式会社,東京都,渋谷区,恵比寿西１丁目３１番１６号アルス代官山４０５,,13,113,1500021,,,,,,,2022-03-04,1,,,,,ケーケーカンパニー,0
1380,5011001146090,新規,0,2022-03-04,2022-03-04,ブリケ株式会社,,株式会社,東京都,渋谷区,渋谷３丁目５番５号ＨＡＫＫＡビル４Ｆ,,13,113,1500002,,,,,,,2022-03-04,1,,,,,ブリケ,0
1381,5011001146099,新規,0,2022-03-04,2022-03-04,ＲＩＣＥ　ＲＥＰＵＢＬＩＣ株式会社,,株式会社,東京都,渋谷区,恵比寿西１丁目１５番１０号第６横芝ビル７階,,13,113,1500021,,,,,,,2022-03-04,1,,,,,ライスリパブリック,0
1385,5011101098067,新規,0,2022-03-04,2022-03-04,株式会社クラウド,,株式会社,東京都,新宿区,新宿１丁目３１番１２号御苑Ｋ－１ビル３Ｆ,,13,104,1600022,,,,,,,2022-03-04,1,,,,,クラウド,0
1387,5011201023692,新規,0,2022-03-04,2022-03-04,株式会社ウエスタンプランニング,,株式会社,東京都,中野区,江古田４丁目２０番２４号,,13,114,1650022,,,,,,,2022-03-04,1,,,,,ウエスタンプランニング,0
1390,5011501027807,新規,0,2022-03-04,2022-03-04,小川板金株式会社,,株式会社,東京都,北区,王子５丁目２５番１号,,13,117,1140002,,,,,,,2022-03-04,1,,,,,オガワバンキン,0
1392,5011503005091,新規,0,2022-03-04,2022-03-04,Ｔｈｅ　Ｒｈｅｔｏｒｉｃ　Ｓｔａｒ合同会社,,合同会社,東京都,荒川区,東日暮里３丁目２７番５号ＢＨビル７階,,13,118,1160014,,,,,,,2022-03-04,1,,,,,レトリックスター,0
1397,5012301012899,新規,0,2022-03-04,2022-03-04,株式会社Ｃ．ホーム,,株式会社,東京都,町田市,木曽西１丁目２番２７号フリードＫＩＳＯ１０２,,13,209,1940037,,,,,,,2022-03-04,1,,,,,シーホーム,0
1398,5012403005264,新規,0,2022-03-04,2022-03-04,合同会社ブラストアーツ,,合同会社,東京都,稲城市,平尾２丁目５７番１３号アムール１０２,,13,225,2060823,,,,,,,2022-03-04,1,,,,,ブラストアーツ,0
1400,5012701016962,新規,0,2022-03-04,2022-03-04,株式会社アイムレディ,,株式会社,東京都,西東京市,泉町６丁目１２番２６号,,13,229,2020011,,,,,,,2022-03-04,1,,,,,アイムレディ,0
1403,5013301048768,新規,0,2022-03-04,2022-03-04,株式会社ＴＥＡＭ　ＡＬＰＨＡ,,株式会社,東京都,豊島区,上池袋１丁目３７番２２号レジディアタワー上池袋（タワー棟）８０８号,,13,116,1700012,,,,,,,2022-03-04,1,,,,,チームアルファ,0
1413,5020001145523,新規,0,2022-03-04,2022-03-04,株式会社中村貴彦中小企業診断士事務所,,株式会社,神奈川県,横浜市都筑区,牛久保東２丁目８番２６－１０２号,,14,118,2240014,,,,,,,2022-03-04,1,,,,,ナカムラタカヒコチュウショウキギョウシンダンシジムショ,0
1414,5020001145531,新規,0,2022-03-04,2022-03-04,株式会社クラフトガレージ,,株式会社,神奈川県,横浜市保土ケ谷区,新桜ケ丘１丁目２３番２号,,14,106,2400036,,,,,,,2022-03-04,1,,,,,クラフトガレージ,0
1415,5020003021375,新規,0,2022-03-04,2022-03-04,合同会社寧正,,合同会社,神奈川県,横浜市神奈川区,六角橋６丁目６番３号,,14,102,2210802,,,,,,,2022-03-04,1,,,,,ネイセイ,0
1416,5020003021400,新規,0,2022-03-04,2022-03-04,インフィニティーバリュー合同会社,,合同会社,神奈川県,川崎市多摩区,西生田４丁目１８番８－４０３号,,14,135,2140037,,,,,,,2022-03-04,1,,,,,インフィニティーバリュー,0
1418,5021001075322,新規,0,2022-03-04,2022-03-04,株式会社蕪の会,,株式会社,神奈川県,相模原市緑区,太井１１５番地１,,14,151,2520152,,,,,,,2022-03-04,1,,,,,カブラノカイ,0
1419,5021001075339,新規,0,2022-03-04,2022-03-04,株式会社ｍｏｒｅｌｉｋｅ,,株式会社,神奈川県,三浦郡葉山町,堀内５９５番地の６,,14,301,2400112,,,,,,,2022-03-04,1,,,,,モアライク,0
1421,5021003011449,新規,0,2022-03-04,2022-03-04,合同会社さば,,合同会社,神奈川県,藤沢市,鵠沼松が岡２丁目１４番２１号レオパレス松が岡ハイツＩＩ１０１号,00125866,14,205,2510038,,,,,,,2022-03-04,1,,,,,サバ,0
1426,5030001147023,新規,0,2022-03-04,2022-03-04,株式会社ＭＯＭＳ　ＦＯＯＤ,,株式会社,埼玉県,川口市,三ツ和３丁目１２番地の１４,,11,203,3340011,,,,,,,2022-03-04,1,,,,,マムスフード,0
1427,5030001147056,新規,0,2022-03-04,2022-03-04,株式会社アビック首都圏事業部,,株式会社,埼玉県,さいたま市大宮区,大成町３丁目３３５番地ハイネス丸友３０９,,11,103,3300852,,,,,,,2022-03-04,1,,,,,アビックシュトケンジギョウブ,0
1428,5030001147064,新規,0,2022-03-04,2022-03-04,株式会社エム・ケイファクトリー,,株式会社,埼玉県,越谷市,大字三野宮６４３番地１,,11,222,3430036,,,,,,,2022-03-04,1,,,,,エムケイファクトリー,0
1429,5030001147106,新規,0,2022-03-04,2022-03-04,株式会社ケンタロウ不動産,,株式会社,埼玉県,さいたま市桜区,桜田２丁目２４番３号,,11,106,3380833,,,,,,,2022-03-04,1,,,,,ケンタロウフドウサン,0
1430,5030001147114,新規,0,2022-03-04,2022-03-04,株式会社ＪＨＯＳＨＯ,,株式会社,埼玉県,北葛飾郡杉戸町,大字堤根３９８１番地１,,11,464,3450024,,,,,,,2022-03-04,1,,,,,ジョウショウ,0
1431,5030001147122,新規,0,2022-03-04,2022-03-04,株式会社Ｎ－ｖｉｌｌａｇｅ,,株式会社,埼玉県,さいたま市北区,植竹町１丁目４１番地１,,11,102,3310813,,,,,,,2022-03-04,1,,,,,エヌヴィレッジ,0
1434,5030003018949,新規,0,2022-03-04,2022-03-04,瑞穂合同会社,,合同会社,埼玉県,川越市,野田町１丁目１３番地１０,,11,201,3501115,,,,,,,2022-03-04,1,,,,,ミズホ,0
1435,5030003018981,新規,0,2022-03-04,2022-03-04,合同会社シーズ,,合同会社,埼玉県,川口市,金山町２番６号,,11,203,3320014,,,,,,,2022-03-04,1,,,,,シーズ,0
1441,5040001122421,新規,0,2022-03-04,2022-03-04,株式会社丸田組,,株式会社,千葉県,君津市,南子安４丁目９番４３号１０２,,12,225,2991162,,,,,,,2022-03-04,1,,,,,マルタグミ,0
1442,5040001122438,新規,0,2022-03-04,2022-03-04,株式会社サクラウィンドウ,,株式会社,千葉県,東金市,下武射田１２８２番地１１,,12,213,2830012,,,,,,,2022-03-04,1,,,,,サクラウィンドウ,0
1443,5040001122462,新規,0,2022-03-04,2022-03-04,株式会社ＦＩＣＴ,,株式会社,千葉県,我孫子市,東我孫子１丁目２１番１９号,,12,222,2701144,,,,,,,2022-03-04,1,,,,,フィクト,0
1444,5040001122470,新規,0,2022-03-04,2022-03-04,株式会社ちゃんステップ,,株式会社,千葉県,浦安市,富士見４丁目４番４号,,12,227,2790043,,,,,,,2022-03-04,1,,,,,チャンステップ,0
1445,5040001122495,新規,0,2022-03-04,2022-03-04,株式会社オーランド不動産,,株式会社,千葉県,船橋市,丸山５丁目２６－１－２Ｆ,,12,204,2730048,,,,,,,2022-03-04,1,,,,,オーランドフドウサン,0
1446,5040001122520,新規,0,2022-03-04,2022-03-04,株式会社リトルモンスターズカンパニー,,株式会社,千葉県,千葉市美浜区,打瀬１丁目１１－１グリーナＡ１２２２,,12,106,2610013,,,,,,,2022-03-04,1,,,,,リトルモンスターズカンパニー,0
1447,5040001122545,新規,0,2022-03-04,2022-03-04,株式会社ｐｌｕｍｅ,,株式会社,千葉県,市原市,君塚４丁目１８番地１８,,12,219,2900051,,,,,,,2022-03-04,1,,,,,プリューム,0
1449,5040003019599,新規,0,2022-03-04,2022-03-04,合同会社福源,,合同会社,千葉県,千葉市中央区,神明町２０４番地１５,,12,101,2600022,,,,,,,2022-03-04,1,,,,,フクゲン,0
1450,5040003019608,新規,0,2022-03-04,2022-03-04,合同会社Ｒａｙ,,合同会社,千葉県,松戸市,八ケ崎緑町２５９吉岡ハイツ２０３,,12,207,2700024,,,,,,,2022-03-04,1,,,,,レイ,0
1451,5040005021537,新規,0,2022-03-04,2022-03-04,一般社団法人水田三喜男の功績を顕彰し，城西国際大学の創立の理念と伝統を守る会,,その他の設立登記法人,千葉県,東金市,小野１１０番地,,12,213,2830821,,,,,,,2022-03-04,1,,,,,ミズタミキオノコウセキヲケンショウシジョウサイコクサイダイガクノソウリツノリネントデントウヲマモルカイ,0
1454,5050001050720,新規,0,2022-03-04,2022-03-04,ミライデザインパワー株式会社,,株式会社,茨城県,つくば市,吾妻１丁目２番地４,,08,220,3050031,,,,,,,2022-03-04,1,,,,,ミライデザインパワー,0
1455,5050001050729,新規,0,2022-03-04,2022-03-04,株式会社石田組,,株式会社,茨城県,那珂市,菅谷３３３２番地１,,08,226,3110105,,,,,,,2022-03-04,1,,,,,イシダグミ,0
1456,5050001050737,新規,0,2022-03-04,2022-03-04,株式会社イリキ,,株式会社,茨城県,那珂市,鹿島３２７番地２,,08,226,3110135,,,,,,,2022-03-04,1,,,,,イリキ,0
1457,5050001050745,新規,0,2022-03-04,2022-03-04,株式会社ＹＫＨｏｌｄｉｎｇｓ,,株式会社,茨城県,日立市,東金沢町３丁目１番２５号,,08,202,3160014,,,,,,,2022-03-04,1,,,,,ワイケーホールディングス,0
1458,5050003006415,新規,0,2022-03-04,2022-03-04,合同会社ミトアス,,合同会社,茨城県,水戸市,元吉田町２６５２番地の２,,08,201,3100836,,,,,,,2022-03-04,1,,,,,ミトアス,0
1460,5060001034615,新規,0,2022-03-04,2022-03-04,株式会社ＳＶＤ,,株式会社,栃木県,足利市,寺岡町３５１番地,,09,202,3294213,,,,,,,2022-03-04,1,,,,,エスブイディー,0
1461,5060001034623,新規,0,2022-03-04,2022-03-04,株式会社サルバドールズ,,株式会社,栃木県,宇都宮市,鶴田町２６５５番地４,,09,201,3200851,,,,,,,2022-03-04,1,,,,,サルバドールズ,0
1465,5070001039010,新規,0,2022-03-04,2022-03-04,株式会社ＭＴＣ　ａｒｃｈｉｔｅｃｔ,,株式会社,群馬県,前橋市,川曲町２２番地３８,,10,201,3710823,,,,,,,2022-03-04,1,,,,,エムティーシーアーキテクト,0
1466,5070001039019,新規,0,2022-03-04,2022-03-04,株式会社Ｔ＆Ｙ,,株式会社,群馬県,太田市,東新町４９０番地１メゾンアヴェニールＡ－２０４号,,10,205,3730015,,,,,,,2022-03-04,1,,,,,ティーアンドワイ,0
1467,5070005009959,新規,0,2022-03-04,2022-03-04,特定非営利活動法人シルバーアクト,,その他の設立登記法人,群馬県,高崎市,大橋町９６番地３,,10,202,3700803,,,,,,,2022-03-04,1,,,,,シルバーアクト,0
1469,5080101023128,新規,0,2022-03-04,2022-03-04,株式会社ＴＫ,,株式会社,静岡県,沼津市,大諏訪４９４番地の４,,22,203,4100873,,,,,,,2022-03-04,1,,,,,ティーケイ,0
1472,5080103002542,新規,0,2022-03-04,2022-03-04,Ｓｈｏｗ　Ｐｌｕｓ合同会社,,合同会社,静岡県,三島市,光ケ丘１０‐９,,22,206,4110029,,,,,,,2022-03-04,1,,,,,ショウプラス,0
1480,5100001035121,新規,0,2022-03-04,2022-03-04,株式会社ウインズエム,,株式会社,長野県,松本市,井川城３丁目６番５１号ヤマキビル,,20,202,3900831,,,,,,,2022-03-04,1,,,,,ウインズエム,0
1484,5110001036481,新規,0,2022-03-04,2022-03-04,株式会社新朝通信社,,株式会社,新潟県,新潟市西区,坂井７３８番地１,,15,107,9502042,,,,,,,2022-03-04,1,,,,,シンチョウツウシンシャ,0
1498,5120001244199,新規,0,2022-03-04,2022-03-04,株式会社誉工業,,株式会社,大阪府,大阪市東住吉区,住道矢田５丁目１０番２５号,,27,121,5460022,,,,,,,2022-03-04,1,,,,,ホマレコウギョウ,0
1499,5120001244216,新規,0,2022-03-04,2022-03-04,株式会社ニッカタンブラ,,株式会社,大阪府,枚方市,長尾西町２丁目３８番９号,,27,210,5730162,,,,,,,2022-03-04,1,,,,,ニッカタンブラ,0
1500,5120001244232,新規,0,2022-03-04,2022-03-04,株式会社クリップ,,株式会社,大阪府,大阪市天王寺区,上汐３丁目２番１７号,,27,109,5430002,,,,,,,2022-03-04,1,,,,,クリップ,0
1501,5120001244249,新規,0,2022-03-04,2022-03-04,小林産業株式会社,,株式会社,大阪府,大阪市東成区,神路１丁目５番１号,,27,115,5370003,,,,,,,2022-03-04,1,,,,,コバヤシサンギョウ,0
1506,5120003021217,新規,0,2022-03-04,2022-03-04,合同会社ＦＬＡＰ,,合同会社,大阪府,大阪市此花区,四貫島２丁目１７番４号,,27,104,5540014,,,,,,,2022-03-04,1,,,,,フラップ,0
1507,5120003021225,新規,0,2022-03-04,2022-03-04,合同会社グロウススピリッツ,,合同会社,大阪府,大阪市淀川区,西中島３丁目８番１４号犬飼ビル１０１号,,27,123,5320011,,,,,,,2022-03-04,1,,,,,グロウススピリッツ,0
1510,5120101065165,新規,0,2022-03-04,2022-03-04,ＳＨＩＲＯ株式会社,,株式会社,大阪府,堺市南区,竹城台３丁９番４号,,27,145,5900105,,,,,,,2022-03-04,1,,,,,シロ,0
1513,5120901045663,新規,0,2022-03-04,2022-03-04,株式会社丸利不動産,,株式会社,大阪府,豊中市,庄内西町２丁目１番８号,,27,203,5610832,,,,,,,2022-03-04,1,,,,,マルトシフドウサン,0
1514,5120903004056,新規,0,2022-03-04,2022-03-04,合同会社ＩＯＣ,,合同会社,大阪府,豊中市,小曽根５丁目５番３－３１１号,,27,203,5610813,,,,,,,2022-03-04,1,,,,,アイオーシー,0
1515,5122001035636,新規,0,2022-03-04,2022-03-04,ＴＫコンサルティング株式会社,,株式会社,大阪府,八尾市,龍華町１丁目４番１－４００６号,,27,212,5810069,,,,,,,2022-03-04,1,,,,,ティーケーコンサルティング,0
1517,5130001071246,新規,0,2022-03-04,2022-03-04,株式会社ＨＡＮＺＯ　ＷＯＲＫ,,株式会社,京都府,京都市西京区,川島調子町９番地の３５,,26,111,6158125,,,,,,,2022-03-04,1,,,,,ハンゾウワーク,0
1518,5130001071254,新規,0,2022-03-04,2022-03-04,株式会社堀晃建設,,株式会社,京都府,京都市伏見区,深草大亀谷古御香町１１３番地１１,,26,109,6120843,,,,,,,2022-03-04,1,,,,,ホリコウケンセツ,0
1519,5130001071270,新規,0,2022-03-04,2022-03-04,株式会社アール,,株式会社,京都府,京都市北区,大森中町１２０番,,26,101,6010143,,,,,,,2022-03-04,1,,,,,アール,0
1522,5130003007784,新規,0,2022-03-04,2022-03-04,Ｈ＆Ｃｏ．合同会社,,合同会社,京都府,京都市伏見区,向島新上林３４番地１９,,26,109,6128152,,,,,,,2022-03-04,1,,,,,エイチアンドシーオー,0
1523,5130003007792,新規,0,2022-03-04,2022-03-04,合同会社Ｈａｎｄｓｈａｋｅ,,合同会社,京都府,京都市下京区,七条御所ノ内本町８８番地１西大路ビル,,26,106,6008863,,,,,,,2022-03-04,1,,,,,ハンドシェーク,0
1524,5130005016387,新規,0,2022-03-04,2022-03-04,一般社団法人次世代プログラミング教育研究会,,その他の設立登記法人,京都府,京都市下京区,西洞院通四条下る妙伝寺町７２０番地光悦ビル５Ｆ,,26,106,6008472,,,,,,,2022-03-04,1,,,,,ジセダイプログラミングキョウイクケンキュウカイ,0
1525,5140001125075,新規,0,2022-03-04,2022-03-04,株式会社きらり,,株式会社,兵庫県,西宮市,神園町１番１６－１号,,28,204,6620027,,,,,,,2022-03-04,1,,,,,キラリ,0
1526,5140001125083,新規,0,2022-03-04,2022-03-04,株式会社Ａｉｔｏ,,株式会社,兵庫県,明石市,魚住町清水３５９番地の２３,,28,203,6740074,,,,,,,2022-03-04,1,,,,,アイト,0
1527,5140001125100,新規,0,2022-03-04,2022-03-04,株式会社ＡＧＡテック,,株式会社,兵庫県,姫路市,飾磨区英賀西町２丁目７番地,,28,201,6728088,,,,,,,2022-03-04,1,,,,,アガテック,0
1528,5140001125109,新規,0,2022-03-04,2022-03-04,株式会社五一五一四,,株式会社,兵庫県,西宮市,甲子園口２丁目１７番６号,,28,204,6638113,,,,,,,2022-03-04,1,,,,,ゴイゴイスー,0
1529,5140001125117,新規,0,2022-03-04,2022-03-04,株式会社ＫＡＴＡＯＫＡ,,株式会社,兵庫県,神戸市東灘区,本山中町３丁目６番４号,,28,101,6580016,,,,,,,2022-03-04,1,,,,,カタオカ,0
1530,5140001125141,新規,0,2022-03-04,2022-03-04,株式会社松寅,,株式会社,兵庫県,神戸市灘区,王子町１丁目１－３,,28,102,6570838,,,,,,,2022-03-04,1,,,,,マツトラ,0
1531,5140001125166,新規,0,2022-03-04,2022-03-04,株式会社スマイル職業紹介所,,株式会社,兵庫県,神戸市兵庫区,湊町４丁目２番１２号リビース湊川２１５号,,28,105,6520812,,,,,,,2022-03-04,1,,,,,スマイルショクギョウショウカイショ,0
1534,5140003017403,新規,0,2022-03-04,2022-03-04,合同会社アレスｐｌｕｓ,,合同会社,兵庫県,加古川市,加古川町粟津４６９番地の１,,28,210,6750039,,,,,,,2022-03-04,1,,,,,アレスプラス,0
1536,5160001024036,新規,0,2022-03-04,2022-03-04,モビリティ＆サービス滋賀株式会社,,株式会社,滋賀県,草津市,南笠東３丁目１番３９号,,25,206,5250071,,,,,,,2022-03-04,1,,,,,モビリティアンドサービスシガ,0
1537,5160005011047,新規,0,2022-03-04,2022-03-04,能登川アミエリ漁業生産組合,,その他の設立登記法人,滋賀県,東近江市,福堂町１４０３番地１,,25,213,5211242,,,,,,,2022-03-04,1,,,,,ノトガワアミエリ,0
1538,5160005011055,新規,0,2022-03-04,2022-03-04,医療法人新有杏会,,その他の設立登記法人,滋賀県,大津市,におの浜３丁目１番７号,,25,201,5200801,,,,,,,2022-03-04,1,,,,,シンユウキョウカイ,0
1547,5180001150185,新規,0,2022-03-04,2022-03-04,株式会社Ｆ・Ｋ,,株式会社,愛知県,名古屋市中川区,東春田２丁目５２番地,,23,110,4540983,,,,,,,2022-03-04,1,,,,,エフケイ,0
1548,5180001150251,新規,0,2022-03-04,2022-03-04,株式会社Ｉ　ＦｅｅＬ　Ｆｉｎｅ,,株式会社,愛知県,日進市,五色園４丁目１０１６番地,,23,230,4700105,,,,,,,2022-03-04,1,,,,,アイフィールファイン,0
1549,5180001150284,新規,0,2022-03-04,2022-03-04,株式会社損害サポート,,株式会社,愛知県,稲沢市,七ツ寺町屋敷３１番地２,,23,220,4928439,,,,,,,2022-03-04,1,,,,,ソンガイサポート,0
1550,5180001150301,新規,0,2022-03-04,2022-03-04,株式会社ＰＯＰ　ＦＬＥＵＲ,,株式会社,愛知県,一宮市,三条字屋敷５４９番地,,23,203,4940003,,,,,,,2022-03-04,1,,,,,ポップフルール,0
1551,5180001150318,新規,0,2022-03-04,2022-03-04,ＤＩＡＮＤＩＢ株式会社,,株式会社,愛知県,名古屋市南区,前浜通７丁目３２番地蝶屋ビル１階,,23,112,4570058,,,,,,,2022-03-04,1,,,,,デイアンデイ,0
1555,5180003023579,新規,0,2022-03-04,2022-03-04,ＫＳウィル合同会社,,合同会社,愛知県,名古屋市名東区,新宿２丁目１５５番地の３,,23,115,4650063,,,,,,,2022-03-04,1,,,,,ケーエスウィル,0
1565,5200001039822,新規,0,2022-03-04,2022-03-04,株式会社ｇｒｏｕｐ　Ｓ,,株式会社,岐阜県,岐阜市,柳ケ瀬通３丁目１４番地柳ケ瀬ファイブスタービル５階,,21,201,5008875,,,,,,,2022-03-04,1,,,,,グループエス,0
1566,5210001018833,新規,0,2022-03-04,2022-03-04,株式会社ウォール,,株式会社,福井県,坂井市,三国町浜地第３４号１２番地,,18,210,9130005,,,,,,,2022-03-04,1,,,,,ウォール,0
1567,5220001024723,新規,0,2022-03-04,2022-03-04,株式会社Ｂｅｌｌｅ,,株式会社,石川県,金沢市,本町１丁目２番４５号プレミスト金沢本町・９０３号,,17,201,9200853,,,,,,,2022-03-04,1,,,,,ベル,0
1568,5220003003238,新規,0,2022-03-04,2022-03-04,合同会社Ｐｌａｔｙｐｕｓ,,合同会社,石川県,金沢市,御所町１丁目２４３番地,,17,201,9200813,,,,,,,2022-03-04,1,,,,,プラトプス,0
1577,5250001019431,新規,0,2022-03-04,2022-03-04,株式会社オーナー,,株式会社,山口県,岩国市,藤生町３丁目１番７号,,35,208,7400036,,,,,,,2022-03-04,1,,,,,オーナー,0
1582,5260001036582,新規,0,2022-03-04,2022-03-04,株式会社ファストック,,株式会社,岡山県,倉敷市,連島町西之浦２７９２－１（Ａ－１０３）,,33,202,7128001,,,,,,,2022-03-04,1,,,,,ファストック,0
1583,5260001036616,新規,0,2022-03-04,2022-03-04,ＭＫ技検株式会社,,株式会社,岡山県,倉敷市,水島福崎町８番２０号（２号室）,,33,202,7128056,,,,,,,2022-03-04,1,,,,,エムケイギケン,0
1584,5260005011045,新規,0,2022-03-04,2022-03-04,一般社団法人Ｃｒｅａｔｅ　Ｓｕｐｐｏｒｔ,,その他の設立登記法人,岡山県,倉敷市,茶屋町１２２７－３,,33,202,7101101,,,,,,,2022-03-04,1,,,,,クリエイトサポート,0
1587,5290001096574,新規,0,2022-03-04,2022-03-04,毛利商事‐Ｍｏｕｒｉ　Ｔｒａｄｉｎｇ　Ｇｒｏｕｐ株式会社,,株式会社,福岡県,福岡市西区,姪の浜４丁目７番９－２２０１号,,40,135,8190002,,,,,,,2022-03-04,1,,,,,モウリショウジモウリトレーデインググループ,0
1588,5290001096624,新規,0,2022-03-04,2022-03-04,株式会社ＳＮＵＧ,,株式会社,福岡県,福岡市中央区,大名１丁目１５番２２号２Ｆ,,40,133,8100041,,,,,,,2022-03-04,1,,,,,スナッグ,0
1589,5290001096649,新規,0,2022-03-04,2022-03-04,株式会社保全,,株式会社,福岡県,糟屋郡新宮町,大字立花口２２９２番地３６,,40,345,8110102,,,,,,,2022-03-04,1,,,,,ホゼン,0
1590,5290001096698,新規,0,2022-03-04,2022-03-04,株式会社ミンティール,,株式会社,福岡県,福岡市中央区,天神２丁目３番１０号天神パインクレスト７１９号,,40,133,8100001,,,,,,,2022-03-04,1,,,,,ミンティール,0
1591,5290001096723,新規,0,2022-03-04,2022-03-04,株式会社ＣＲＥＶｏ,,株式会社,福岡県,福岡市東区,和白東５丁目１８番１０号ローダンセ福工大前１０３,,40,131,8110214,,,,,,,2022-03-04,1,,,,,クレボ,0
1593,5290003012216,新規,0,2022-03-04,2022-03-04,合同会社ＮＥＸＩＡフーズ,,合同会社,福岡県,福津市,福間東一丁目２番２４号,,40,224,8113213,,,,,,,2022-03-04,1,,,,,ネクシアフーズ,0
1595,5290801028297,新規,0,2022-03-04,2022-03-04,株式会社ＡＬＷＡＹＳ　ＳＵＮＳＨＩＮＥ,,株式会社,福岡県,北九州市小倉北区,馬借２丁目１番２２－６０４号,,40,106,8020077,,,,,,,2022-03-04,1,,,,,オールウェイズサンシャイン,0
1596,5290801028306,新規,0,2022-03-04,2022-03-04,株式会社優進,,株式会社,福岡県,北九州市八幡西区,力丸町１６番２号,,40,109,8070802,,,,,,,2022-03-04,1,,,,,ユウシン,0
1599,5310001017742,新規,0,2022-03-04,2022-03-04,株式会社島建,,株式会社,長崎県,平戸市,紐差町８３６番地１,,42,207,8595361,,,,,,,2022-03-04,1,,,,,シマケン,0
1609,5350001017615,新規,0,2022-03-04,2022-03-04,エコテラス株式会社,,株式会社,宮崎県,東臼杵郡門川町,上町１丁目３６番地,,45,421,8890614,,,,,,,2022-03-04,1,,,,,エコテラス,0
1610,5360001030063,新規,0,2022-03-04,2022-03-04,株式会社千晶,,株式会社,沖縄県,うるま市,字豊原７５３番地１,,47,213,9042233,,,,,,,2022-03-04,1,,,,,センショウ,0
1611,5360001030071,新規,0,2022-03-04,2022-03-04,株式会社宮平農牧,,株式会社,沖縄県,南城市,玉城字前川１１３８番地,,47,215,9010616,,,,,,,2022-03-04,1,,,,,ミヤヒラノウボク,0
1630,5430001086131,新規,0,2022-03-04,2022-03-04,株式会社リール北海道,,株式会社,北海道,札幌市西区,西野四条１０丁目３番２５号,,01,107,0630034,,,,,,,2022-03-04,1,,,,,リールホッカイドウ,0
1634,5430003013661,新規,0,2022-03-04,2022-03-04,ＷＯＲＬＤ　ＷＩＤＥ　Ｓｔｙｌｅ合同会社,,合同会社,北海道,札幌市西区,八軒三条東１丁目７番２０号,,01,107,0630863,,,,,,,2022-03-04,1,,,,,ワールドワイルドスタイル,0
1635,5430003013678,新規,0,2022-03-04,2022-03-04,合同会社ＬＩＦＩＸ,,合同会社,北海道,札幌市豊平区,平岸六条１４丁目４番１－２０２号,,01,105,0620936,,,,,,,2022-03-04,1,,,,,リフィックス,0
1637,5450001013629,新規,0,2022-03-04,2022-03-04,株式会社宮下農園,,株式会社,北海道,旭川市,永山町１１丁目１９０番地,,01,204,0798431,,,,,,,2022-03-04,1,,,,,ミヤシタノウエン,0
1640,5470001018989,新規,0,2022-03-04,2022-03-04,株式会社Ｈｏｐｅ,,株式会社,香川県,仲多度郡多度津町,大字三井７６６番地１,,37,404,7640032,,,,,,,2022-03-04,1,,,,,ホープ,0
1647,5490003001636,新規,0,2022-03-04,2022-03-04,合同会社訪問看護ステーション詩,,合同会社,高知県,香南市,野市町下井５９３番地１,,39,211,7815235,,,,,,,2022-03-04,1,,,,,ホウモンカンゴステーションウタ,0
1656,6010001224921,新規,0,2022-03-04,2022-03-04,株式会社晃栄商事,,株式会社,東京都,千代田区,神田平河町１番地第３東ビル,,13,101,1010027,,,,,,,2022-03-04,1,,,,,コウエイショウジ,0
1657,6010001224954,新規,0,2022-03-04,2022-03-04,シグニホールディングス株式会社,,株式会社,東京都,中央区,八重洲２丁目４番１号,,13,102,1040028,,,,,,,2022-03-04,1,,,,,シグニホールディングス,0
1658,6010001224970,新規,0,2022-03-04,2022-03-04,ＮＳトレーディング株式会社,,株式会社,東京都,中央区,日本橋蛎殻町１丁目３８番１１号,,13,102,1030014,,,,,,,2022-03-04,1,,,,,エヌエストレーディング,0
1659,6010003037132,新規,0,2022-03-04,2022-03-04,神田合同会社,,合同会社,東京都,千代田区,神田小川町３丁目２６番８号神田小川町三丁目ビル６階,,13,101,1010052,,,,,,,2022-03-04,1,,,,,カンダ,0
1662,6010005034656,新規,0,2022-03-04,2022-03-04,一般社団法人日本相続あんしん協会,,その他の設立登記法人,東京都,千代田区,外神田５丁目２番５号,,13,101,1010021,,,,,,,2022-03-04,1,,,,,ニホンソウゾクアンシンキョウカイ,0
1673,6010401165906,新規,0,2022-03-04,2022-03-04,株式会社ＥｘＲｏａｄ,,株式会社,東京都,港区,南青山７丁目１３番２－３０７号,,13,103,1070062,,,,,,,2022-03-04,1,,,,,エクスロード,0
1674,6010401165914,新規,0,2022-03-04,2022-03-04,Ｂ．Ａ．Ｏ．Ｖ株式会社,,株式会社,東京都,港区,南青山２丁目２番１５号,,13,103,1070062,,,,,,,2022-03-04,1,,,,,バオヴ,0
1675,6010401165939,新規,0,2022-03-04,2022-03-04,株式会社ＳＫＴ,,株式会社,東京都,港区,南麻布２丁目８番１－３０２号,,13,103,1060047,,,,,,,2022-03-04,1,,,,,エスケーティー,0
1676,6010401165963,新規,0,2022-03-04,2022-03-04,株式会社ＣＳＷ,,株式会社,東京都,港区,麻布十番１丁目２番７号ラフィネ麻布十番７０１号室,,13,103,1060045,,,,,,,2022-03-04,1,,,,,シーエスダブリュー,0
1677,6010401165971,新規,0,2022-03-04,2022-03-04,株式会社お米物語,,株式会社,東京都,港区,浜松町２丁目２番１５号浜松町ダイヤビル２Ｆ,,13,103,1050013,,,,,,,2022-03-04,1,,,,,オコメモノガタリ,0
1678,6010401166012,新規,0,2022-03-04,2022-03-04,株式会社ｂｌｅｕｌｉｍｏｎ,,株式会社,東京都,港区,六本木３丁目６番９号,,13,103,1060032,,,,,,,2022-03-04,1,,,,,ブルリモン,0
1679,6010403027195,新規,0,2022-03-04,2022-03-04,小野総合研究所合同会社,,合同会社,東京都,港区,南青山２丁目２番１５号ウィン青山９４２号,,13,103,1070062,,,,,,,2022-03-04,1,,,,,オノソウゴウケンキュウジョ,0
1680,6010403027204,新規,0,2022-03-04,2022-03-04,さくらアセットコンサルティング合同会社,,合同会社,東京都,港区,南青山２丁目２番１５号ウィン青山１２１４号,,13,103,1070062,,,,,,,2022-03-04,1,,,,,サクラアセットコンサルティング,0
1681,6010403027212,新規,0,2022-03-04,2022-03-04,合同会社ＨｉｇｈＴｉｄｅ,,合同会社,東京都,港区,南青山２丁目２番１５－９４２号（ウィン青山）,,13,103,1070062,,,,,,,2022-03-04,1,,,,,ハイタイド,0
1689,6010601060774,新規,0,2022-03-04,2022-03-04,株式会社ＬａＬｕｇｏ,,株式会社,東京都,江東区,有明１丁目５番２－３１１号,,13,108,1350063,,,,,,,2022-03-04,1,,,,,ラルーゴ,0
1694,6010803004083,新規,0,2022-03-04,2022-03-04,ＲＩＯＮ合同会社,,合同会社,東京都,大田区,鵜の木２丁目１５番１５－３０２号,,13,111,1460091,,,,,,,2022-03-04,1,,,,,リオン,0
1707,6011001146040,新規,0,2022-03-04,2022-03-04,株式会社エピヌ,,株式会社,東京都,渋谷区,恵比寿４丁目１０番１３―１０１号,,13,113,1500013,,,,,,,2022-03-04,1,,,,,エピヌ,0
1708,6011001146081,新規,0,2022-03-04,2022-03-04,株式会社Ｓ,,株式会社,東京都,渋谷区,代官山町１８番４号,,13,113,1500034,,,,,,,2022-03-04,1,,,,,エス,0
1709,6011001146098,新規,0,2022-03-04,2022-03-04,ＩＧＩＥ株式会社,,株式会社,東京都,渋谷区,渋谷３丁目１６番５号ＳＨＯＫＡＩビル８０３,,13,113,1500002,,,,,,,2022-03-04,1,,,,,アイジーアイイー,0
1710,6011001146107,新規,0,2022-03-04,2022-03-04,ＣＨＥＥＲＳ株式会社,,株式会社,東京都,渋谷区,神宮前５丁目２９－９めぐみハイマンション１０２号室,,13,113,1500001,,,,,,,2022-03-04,1,,,,,チアーズ,0
1712,6011005009466,新規,0,2022-03-04,2022-03-04,税理士法人ライチャス,,その他の設立登記法人,東京都,渋谷区,代々木１丁目３８番１号タムラビル３Ｆ,,13,113,1510053,,,,,,,2022-03-04,1,,,,,ライチャス,0
1717,6011205002477,新規,0,2022-03-04,2022-03-04,医療法人社団翔鷺会,,その他の設立登記法人,東京都,中野区,鷺宮３丁目３２番５号２階,,13,114,1650032,,,,,,,2022-03-04,1,,,,,ショウロカイ,0
1719,6011403003590,新規,0,2022-03-04,2022-03-04,合同会社ＣＣＳ,,合同会社,東京都,板橋区,南常盤台１丁目１１番６号,,13,119,1740072,,,,,,,2022-03-04,1,,,,,シーシーエス,0
1720,6011501027806,新規,0,2022-03-04,2022-03-04,株式会社飯岡光一事務所,,株式会社,東京都,荒川区,東日暮里６丁目４９－１７－５０１号,,13,118,1160014,,,,,,,2022-03-04,1,,,,,イイオカコウイチジムショ,0
1721,6011601025775,新規,0,2022-03-04,2022-03-04,株式会社エントラスト,,株式会社,東京都,練馬区,土支田３丁目２９番２９号ラテ光が丘１０１,,13,120,1790076,,,,,,,2022-03-04,1,,,,,エントラスト,0
1725,6011805003148,新規,0,2022-03-04,2022-03-04,一般社団法人へその緒の会,,その他の設立登記法人,東京都,葛飾区,東金町２丁目２４番１３号,,13,122,1250041,,,,,,,2022-03-04,1,,,,,ヘソノオノカイ,0
1737,6013301048767,新規,0,2022-03-04,2022-03-04,株式会社Ｒｉｎｅｌｌ,,株式会社,東京都,豊島区,巣鴨１丁目１７番３号子野ビル７０２号,,13,116,1700002,,,,,,,2022-03-04,1,,,,,リネル,0
1742,6020001145431,新規,0,2022-03-04,2022-03-04,株式会社Ｃｏｍｍｕｎｉｔｙ　Ｈｏｕｓｅ,,株式会社,神奈川県,横浜市港北区,新横浜２丁目１５－１２共立新横浜ビル２Ｆ,,14,109,2220033,,,,,,,2022-03-04,1,,,,,コミュニティーハウス,0
1743,6020001145530,新規,0,2022-03-04,2022-03-04,グランブルー株式会社,,株式会社,神奈川県,川崎市中原区,新丸子東２丁目８９５番１５号,,14,133,2110004,,,,,,,2022-03-04,1,,,,,グランブルー,0
1750,6020003021399,新規,0,2022-03-04,2022-03-04,ライフタイムベンチャーズ合同会社,,合同会社,神奈川県,横浜市中区,桜木町１丁目１０１番地１クロスゲート７階,,14,104,2310062,,,,,,,2022-03-04,1,,,,,ライフタイムベンチャーズ,0
1761,6021005012452,新規,0,2022-03-04,2022-03-04,一般社団法人歯科保険診療研修会,,その他の設立登記法人,神奈川県,藤沢市,長後１２４９ー３,,14,205,2520801,,,,,,,2022-03-04,1,,,,,シカホケンシンリョウケンシュウカイ,0
1767,6030001146981,新規,0,2022-03-04,2022-03-04,株式会社ＡＭＧ,,株式会社,埼玉県,さいたま市桜区,栄和６丁目２０番１７号レ・セーナ１０１,,11,106,3380823,,,,,,,2022-03-04,1,,,,,エーエムジー,0
1768,6030001147022,新規,0,2022-03-04,2022-03-04,株式会社ＳＥＩＷＡ,,株式会社,埼玉県,川口市,東領家２丁目２１番１８号パル・スクェア参番館１０２号,,11,203,3320003,,,,,,,2022-03-04,1,,,,,セイワ,0
1769,6030001147030,新規,0,2022-03-04,2022-03-04,株式会社Ｅｖｅｒ　Ｆｒｉｅｎｄ　Ｊａｐａｎ,,株式会社,埼玉県,川口市,金山町１２番１号サウスゲートタワー川口２Ｆ,,11,203,3320014,,,,,,,2022-03-04,1,,,,,エバーフレンドジャパン,0
1770,6030001147055,新規,0,2022-03-04,2022-03-04,株式会社龍創商事,,株式会社,埼玉県,川口市,本町２丁目２番１５－１０３号クレール川口,,11,203,3320012,,,,,,,2022-03-04,1,,,,,リュウソウショウジ,0
1771,6030001147063,新規,0,2022-03-04,2022-03-04,株式会社伊澤工業所,,株式会社,埼玉県,川口市,東領家４丁目１９番１７号,,11,203,3320003,,,,,,,2022-03-04,1,,,,,イザワコウギョウショ,0
1772,6030001147113,新規,0,2022-03-04,2022-03-04,株式会社ＯＳＲ,,株式会社,埼玉県,春日部市,緑町４丁目１２番２６号うぇる１０３,,11,214,3440063,,,,,,,2022-03-04,1,,,,,オーエスアール,0
1773,6030001147121,新規,0,2022-03-04,2022-03-04,株式会社ピックルスファーム,,株式会社,埼玉県,入間郡三芳町,大字上富１０３１番地１,,11,324,3540045,,,,,,,2022-03-04,1,,,,,ピックルスファーム,0
1774,6030001147146,新規,0,2022-03-04,2022-03-04,株式会社Ｓａｌｍ,,株式会社,埼玉県,飯能市,大字双柳１５０－３２レイクシャイン２０２号,,11,209,3570021,,,,,,,2022-03-04,1,,,,,サルム,0
1777,6030003018948,新規,0,2022-03-04,2022-03-04,アイティ賃貸合同会社,,合同会社,埼玉県,さいたま市大宮区,堀の内町１丁目２８５番地２,,11,103,3300804,,,,,,,2022-03-04,1,,,,,アイティチンタイ,0
1785,6040001122429,新規,0,2022-03-04,2022-03-04,株式会社オールイン,,株式会社,千葉県,市原市,国分寺台中央７丁目６番地１９,,12,219,2900073,,,,,,,2022-03-04,1,,,,,オールイン,0
1786,6040001122437,新規,0,2022-03-04,2022-03-04,株式会社ＮＡＫＡＮＯ・ＫＴＫ,,株式会社,千葉県,鎌ケ谷市,初富９２９番地１６１,,12,224,2730121,,,,,,,2022-03-04,1,,,,,ナカノケーティーケー,0
1787,6040001122445,新規,0,2022-03-04,2022-03-04,株式会社ウェルズ,,株式会社,千葉県,市原市,西国分寺台１丁目１番地１２,,12,219,2900072,,,,,,,2022-03-04,1,,,,,ウェルズ,0
1788,6040001122461,新規,0,2022-03-04,2022-03-04,株式会社ビーテクノ,,株式会社,千葉県,千葉市緑区,おゆみ野中央８丁目１番地５９,,12,105,2660032,,,,,,,2022-03-04,1,,,,,ビーテクノ,0
1789,6040001122486,新規,0,2022-03-04,2022-03-04,株式会社Ｌａｄ　ｂｕｇ,,株式会社,千葉県,市川市,市川南３丁目５番２０号,,12,203,2720033,,,,,,,2022-03-04,1,,,,,レイディバグ,0
1790,6040001122494,新規,0,2022-03-04,2022-03-04,株式会社ＬＡＲＧＯ,,株式会社,千葉県,船橋市,みやぎ台１丁目２２番１２号,,12,204,2740804,,,,,,,2022-03-04,1,,,,,ラルゴ,0
1791,6040001122544,新規,0,2022-03-04,2022-03-04,株式会社ベジトル,,株式会社,千葉県,千葉市稲毛区,緑町１丁目２５－１１コーポ立花１０１,,12,103,2630023,,,,,,,2022-03-04,1,,,,,ベジトル,0
1793,6040003019598,新規,0,2022-03-04,2022-03-04,合同会社ＧＴＮ,,合同会社,千葉県,船橋市,海神２丁目２０番１３エスタンシア船橋５０３号,,12,204,2730021,,,,,,,2022-03-04,1,,,,,ジーティーエヌ,0
1794,6040005021536,新規,0,2022-03-04,2022-03-04,インターンシップ協同組合,,その他の設立登記法人,千葉県,千葉市花見川区,幕張町４丁目６６３番地,,12,102,2620032,,,,,,,2022-03-04,1,,,,,インターンシップ,0
1796,6050001050711,新規,0,2022-03-04,2022-03-04,株式会社ミトラ,,株式会社,茨城県,牛久市,刈谷町１丁目１８番地６,,08,219,3001235,,,,,,,2022-03-04,1,,,,,ミトラ,0
1798,6050003006397,新規,0,2022-03-04,2022-03-04,合同会社れもん商店,,合同会社,茨城県,土浦市,大畑３４８番地６,,08,203,3004111,,,,,,,2022-03-04,1,,,,,レモンショウテン,0
1802,6060003003971,新規,0,2022-03-04,2022-03-04,合同会社Ｄｉｋｍｏ,,合同会社,栃木県,宇都宮市,清原台１丁目２０－２３,,09,201,3213223,,,,,,,2022-03-04,1,,,,,ディクモ,0
1808,6090001017450,新規,0,2022-03-04,2022-03-04,株式会社シナリーｉＺｕＭｉ,,株式会社,山梨県,北杜市,大泉町西井出８３７０番地２,,19,209,4091501,,,,,,,2022-03-04,1,,,,,シナリーイズミ,0
1810,6100001035120,新規,0,2022-03-04,2022-03-04,タラワディ株式会社,,株式会社,長野県,中野市,大字吉田９３番地２,,20,211,3830015,,,,,,,2022-03-04,1,,,,,タラワディ,0
1813,6100003006433,新規,0,2022-03-04,2022-03-04,合同会社中嶋,,合同会社,長野県,南佐久郡川上村,大字大深山６６０番地,,20,304,3841405,,,,,,,2022-03-04,1,,,,,ナカジマ,0
1815,6100005012826,新規,0,2022-03-04,2022-03-04,一般社団法人長野県認知症介護指導者会,,その他の設立登記法人,長野県,上田市,緑が丘１丁目１７－１４,,20,203,3860022,,,,,,,2022-03-04,1,,,,,ナガノケンニンチショウカイゴシドウシャカイ,0
1819,6110003004709,新規,0,2022-03-04,2022-03-04,ミュウ合同会社,,合同会社,新潟県,長岡市,学校町１丁目８番５号,,15,202,9400041,,,,,,,2022-03-04,1,,,,,ミュウ,0
1835,6120001244165,新規,0,2022-03-04,2022-03-04,株式会社ＣＩＥＬＯ,,株式会社,大阪府,大阪市中央区,北久宝寺町２丁目６番１０－９０８号,,27,128,5410057,,,,,,,2022-03-04,1,,,,,シエロ,0
1836,6120001244173,新規,0,2022-03-04,2022-03-04,株式会社二和コーポレーション,,株式会社,大阪府,門真市,小路町１番１２号,,27,223,5710058,,,,,,,2022-03-04,1,,,,,ニワコーポレーション,0
1837,6120001244181,新規,0,2022-03-04,2022-03-04,株式会社松山メンテナンス,,株式会社,大阪府,守口市,大久保町２丁目２４番５号,,27,209,5700012,,,,,,,2022-03-04,1,,,,,マツヤマメンテナンス,0
1838,6120001244223,新規,0,2022-03-04,2022-03-04,株式会社ＡＮＴＬＥＲＳ,,株式会社,大阪府,大阪市北区,芝田２丁目８番１１号共栄ビル３階,,27,127,5300012,,,,,,,2022-03-04,1,,,,,アントラーズ,0
1839,6120001244289,新規,0,2022-03-04,2022-03-04,株式会社ＪＯＢｉｔ,,株式会社,大阪府,大阪市中央区,千日前２丁目１１番１７号,,27,128,5420074,,,,,,,2022-03-04,1,,,,,ジョビット,0
1843,6120003021216,新規,0,2022-03-04,2022-03-04,合同会社創・想・贈,,合同会社,大阪府,大阪市港区,三先１丁目１０－２３－３Ｆ,,27,107,5520016,,,,,,,2022-03-04,1,,,,,ソウソウソウ,0
1844,6120003021224,新規,0,2022-03-04,2022-03-04,クラッサオ合同会社,,合同会社,大阪府,大阪市北区,梅田１丁目１番３号大阪駅前第３ビル２９階１－１－１号室,,27,127,5300001,,,,,,,2022-03-04,1,,,,,クラッサオ,0
1845,6120003021232,新規,0,2022-03-04,2022-03-04,合同会社ＪＥＷＥＬ,,合同会社,大阪府,大阪市東淀川区,東淡路１丁目５番１－３０３号,,27,114,5330023,,,,,,,2022-03-04,1,,,,,ジュエル,0
1847,6120101065156,新規,0,2022-03-04,2022-03-04,前田推進工業株式会社,,株式会社,大阪府,大阪狭山市,今熊２丁目１７２３番地の５,,27,231,5890021,,,,,,,2022-03-04,1,,,,,マエダスイシンコウギョウ,0
1848,6120101065172,新規,0,2022-03-04,2022-03-04,株式会社改発,,株式会社,大阪府,泉南市,新家６７７番地の１３,,27,228,5900503,,,,,,,2022-03-04,1,,,,,カイハツ,0
1849,6120901045662,新規,0,2022-03-04,2022-03-04,株式会社ＴＲＵＳＴ　ＯＮＥ,,株式会社,大阪府,豊中市,庄内栄町１丁目５番１９号,,27,203,5610834,,,,,,,2022-03-04,1,,,,,トラストワン,0
1850,6120901045670,新規,0,2022-03-04,2022-03-04,ＹａＭａＭｏＴｏ浦堂株式会社,,株式会社,大阪府,高槻市,浦堂本町１５番４号,,27,207,5691028,,,,,,,2022-03-04,1,,,,,ヤマモトウラドウ,0
1851,6120901045687,新規,0,2022-03-04,2022-03-04,株式会社ｃｈｅｚ量,,株式会社,大阪府,吹田市,山田東４丁目３０番１８号,,27,205,5650821,,,,,,,2022-03-04,1,,,,,シェカズ,0
1854,6120903004055,新規,0,2022-03-04,2022-03-04,日惠合同会社,,合同会社,大阪府,箕面市,船場西２丁目２３番７－９２１号,,27,220,5620036,,,,,,,2022-03-04,1,,,,,ニチエ,0
1855,6122001035635,新規,0,2022-03-04,2022-03-04,株式会社エンプレッサ,,株式会社,大阪府,八尾市,西山本町５丁目７番２１号,,27,212,5810868,,,,,,,2022-03-04,1,,,,,エンプレッサ,0
1863,6130001071253,新規,0,2022-03-04,2022-03-04,株式会社ＰＩＮＳ,,株式会社,京都府,京都市上京区,小川通今出川上る中小川町２３４番地,,26,102,6020053,,,,,,,2022-03-04,1,,,,,ピンズ,0
1864,6130001071261,新規,0,2022-03-04,2022-03-04,株式会社Ｘｅｎｏ　Ｂｅｓｔ,,株式会社,京都府,京都市山科区,東野片下リ町２２番地１ときわぎ６０５,,26,110,6078156,,,,,,,2022-03-04,1,,,,,ゼノベスト,0
1865,6130001071278,新規,0,2022-03-04,2022-03-04,株式会社ａＮｙ,,株式会社,京都府,京都市右京区,西京極徳大寺団子田町２３番地２２Ｓｏｌａｒｅ西京極２０３号室,,26,108,6150846,,,,,,,2022-03-04,1,,,,,エニー,0
1866,6130003007783,新規,0,2022-03-04,2022-03-04,アドバンス合同会社,,合同会社,京都府,京都市山科区,東野森野町２３－９３ルシエル山科森野町４０７号,,26,110,6078147,,,,,,,2022-03-04,1,,,,,アドバンス,0
1871,6140001125041,新規,0,2022-03-04,2022-03-04,株式会社ユニ・コア,,株式会社,兵庫県,神戸市東灘区,岡本７丁目１２番１８－５０９号,,28,101,6580072,,,,,,,2022-03-04,1,,,,,ユニコア,0
1872,6140001125082,新規,0,2022-03-04,2022-03-04,株式会社ライフサポート,,株式会社,兵庫県,神戸市東灘区,向洋町中５丁目１番地５２４ウエストコート４番街１０１４,,28,101,6580032,,,,,,,2022-03-04,1,,,,,ライフサポート,0
1873,6140001125099,新規,0,2022-03-04,2022-03-04,株式会社ＨＴクリエイト,,株式会社,兵庫県,神戸市灘区,記田町３丁目１番２９－２０２号,,28,102,6570034,,,,,,,2022-03-04,1,,,,,エイチティークリエイト,0
1874,6140001125124,新規,0,2022-03-04,2022-03-04,Ｓ＆Ｅエンジニアリング株式会社,,株式会社,兵庫県,尼崎市,金楽寺町１丁目３番３０号,,28,202,6600806,,,,,,,2022-03-04,1,,,,,エスアンドイーエンジニアリング,0
1877,6140005026054,新規,0,2022-03-04,2022-03-04,一般社団法人一十土,,その他の設立登記法人,兵庫県,神戸市北区,大沢町上大沢２１４７番地の１０,,28,109,6511522,,,,,,,2022-03-04,1,,,,,イットウチ,0
1878,6160005011054,新規,0,2022-03-04,2022-03-04,一般社団法人ＣＯ２ネットゼロ推進協会,,その他の設立登記法人,滋賀県,彦根市,旭町１番２４号,,25,202,5220073,,,,,,,2022-03-04,1,,,,,シーオーツーネットゼロスイシンキョウカイ,0
1889,6180001149986,新規,0,2022-03-04,2022-03-04,キマテル株式会社,,株式会社,愛知県,名古屋市北区,上飯田東町４丁目３３,,23,103,4620803,,,,,,,2022-03-04,1,,,,,キマテル,0
1890,6180001150184,新規,0,2022-03-04,2022-03-04,株式会社ＥＣＯＬＡＢＯ,,株式会社,愛知県,名古屋市中区,丸の内３丁目１４番６号（御幸レジデンス丸の内１３０３号）,,23,106,4600002,,,,,,,2022-03-04,1,,,,,エコラボ,0
1891,6180001150234,新規,0,2022-03-04,2022-03-04,株式会社希伸ボーリング,,株式会社,愛知県,瀬戸市,窯町４２７番地の３,,23,204,4801219,,,,,,,2022-03-04,1,,,,,キシンボーリング,0
1892,6180001150242,新規,0,2022-03-04,2022-03-04,株式会社プルメリア不動産,,株式会社,愛知県,名古屋市中区,錦３丁目１１番２５号,,23,106,4600003,,,,,,,2022-03-04,1,,,,,プルメリアフドウサン,0
1893,6180001150275,新規,0,2022-03-04,2022-03-04,株式会社スマートインキュベータ,,株式会社,愛知県,名古屋市中区,丸の内２丁目１１番５カピス丸の内ビル６階,,23,106,4600002,,,,,,,2022-03-04,1,,,,,スマートインキュベータ,0
1894,6180001150309,新規,0,2022-03-04,2022-03-04,株式会社清和,,株式会社,愛知県,名古屋市中村区,稲葉地町５丁目６番地,,23,105,4530841,,,,,,,2022-03-04,1,,,,,セイワ,0
1899,6180003023578,新規,0,2022-03-04,2022-03-04,鈴木運輸サービス合同会社,,合同会社,愛知県,江南市,中奈良町本郷東１６番地,,23,217,4838256,,,,,,,2022-03-04,1,,,,,スズキウンユサービス,0
1901,6180301035993,新規,0,2022-03-04,2022-03-04,株式会社ＥＡＲＴＨ,,株式会社,愛知県,豊川市,麻生田町宮東７１番地,,23,207,4420802,,,,,,,2022-03-04,1,,,,,アース,0
1902,6180305009309,新規,0,2022-03-04,2022-03-04,農事組合法人小さなお米屋さん,,その他の設立登記法人,愛知県,豊田市,中当町ウトヲ１６７番地２,,23,211,4412514,,,,,,,2022-03-04,1,,,,,チイサナオコメヤサン,0
1904,6190003003918,新規,0,2022-03-04,2022-03-04,合同会社マゼンタ,,合同会社,三重県,四日市市,富士町５番１２号シャトレ愛松７０４,,24,202,5100013,,,,,,,2022-03-04,1,,,,,マゼンタ,0
1910,6220001024730,新規,0,2022-03-04,2022-03-04,株式会社弥栄フーズ,,株式会社,石川県,七尾市,矢田新町乙２９‐１０,,17,202,9260015,,,,,,,2022-03-04,1,,,,,ヤサカフーズ,0
1912,6220003003237,新規,0,2022-03-04,2022-03-04,合同会社望海,,合同会社,石川県,羽咋郡志賀町,高浜町ワの１７番地２,,17,384,9250141,,,,,,,2022-03-04,1,,,,,ノゾミ,0
1913,6230001019259,新規,0,2022-03-04,2022-03-04,株式会社つめあと,,株式会社,富山県,黒部市,宇奈月町下立２１番地２,,16,207,9380861,,,,,,,2022-03-04,1,,,,,ツメアト,0
1916,6240001059394,新規,0,2022-03-04,2022-03-04,アイプラス調剤薬局株式会社,,株式会社,広島県,福山市,草戸町１丁目２３番２１号,,34,207,7200831,,,,,,,2022-03-04,1,,,,,アイプラスチョウザイヤッキョク,0
1919,6240003005529,新規,0,2022-03-04,2022-03-04,合同会社海華水産,,合同会社,広島県,江田島市,江田島町宮ノ原３丁目４番１５号,,34,215,7372124,,,,,,,2022-03-04,1,,,,,カイカスイサン,0
1924,6250001019439,新規,0,2022-03-04,2022-03-04,三電板金工業株式会社,,株式会社,山口県,下松市,葉山２丁目９０４番地２９,,35,207,7440000,,,,,,,2022-03-04,1,,,,,サンデンバンキンコウギョウ,0
1935,6260001036581,新規,0,2022-03-04,2022-03-04,株式会社ＴＦホールディングス,,株式会社,岡山県,岡山市東区,瀬戸町瀬戸６２番地の５,,33,103,7090861,,,,,,,2022-03-04,1,,,,,ティーエフホールディングス,0
1937,6290001096417,新規,0,2022-03-04,2022-03-04,株式会社ＦＢＧ,,株式会社,福岡県,福岡市博多区,博多駅前３丁目２３番１２号博多光和ビル５０３,,40,132,8120011,,,,,,,2022-03-04,1,,,,,エフビージー,0
1938,6290001096607,新規,0,2022-03-04,2022-03-04,株式会社ＫｉＴ,,株式会社,福岡県,福岡市中央区,笹丘２丁目１９番３号,,40,133,8100034,,,,,,,2022-03-04,1,,,,,キット,0
1939,6290001096623,新規,0,2022-03-04,2022-03-04,株式会社ＭＩＺＵＴＡＭＡ,,株式会社,福岡県,福岡市南区,清水１丁目３番８－４０６号,,40,134,8150031,,,,,,,2022-03-04,1,,,,,ミズタマ,0
1940,6290001096648,新規,0,2022-03-04,2022-03-04,ジーズプランニング株式会社,,株式会社,福岡県,那珂川市,片縄東１丁目１１番２－１号,,40,231,8111204,,,,,,,2022-03-04,1,,,,,ジーズプランニング,0
1941,6290001096656,新規,0,2022-03-04,2022-03-04,株式会社白水ペイント,,株式会社,福岡県,糸島市,美咲が丘３丁目７－２０,,40,230,8191136,,,,,,,2022-03-04,1,,,,,シロウズペイント,0
1942,6290003012215,新規,0,2022-03-04,2022-03-04,ＯＫ合同会社,,合同会社,福岡県,福岡市博多区,竹下４丁目３－１９,,40,132,8120895,,,,,,,2022-03-04,1,,,,,オーケー,0
1943,6290003012223,新規,0,2022-03-04,2022-03-04,ｃｏｂａｃｏ　ｃｒｅａｔｅ合同会社,,合同会社,福岡県,久留米市,諏訪野町２１７５番地１,,40,203,8300037,,,,,,,2022-03-04,1,,,,,コバコクリエイト,0
1944,6290003012231,新規,0,2022-03-04,2022-03-04,合同会社ｃｈｉｃｃｈｉ,,合同会社,福岡県,福岡市中央区,大濠１丁目９番１７－５０１号,,40,133,8100052,,,,,,,2022-03-04,1,,,,,チッチ,0
1945,6290801028296,新規,0,2022-03-04,2022-03-04,株式会社征幸,,株式会社,福岡県,北九州市若松区,大字安屋３６８７番地２１,,40,103,8080124,,,,,,,2022-03-04,1,,,,,セイコウ,0
1946,6290801028305,新規,0,2022-03-04,2022-03-04,株式会社扶桑,,株式会社,福岡県,北九州市小倉北区,赤坂海岸５番２２号,,40,106,8020031,,,,,,,2022-03-04,1,,,,,フソウ,0
1949,6310005008588,新規,0,2022-03-04,2022-03-04,社会福祉法人ひまわり,,その他の設立登記法人,長崎県,長崎市,木鉢町１丁目４番地６,,42,201,8500076,,,,,,,2022-03-04,1,,,,,,0
1951,6320001018929,新規,0,2022-03-04,2022-03-04,あべ車体株式会社,,株式会社,大分県,速見郡日出町,大字川崎３１００番地１,,44,341,8791505,,,,,,,2022-03-04,1,,,,,アベシャタイ,0
1960,6330003009272,新規,0,2022-03-04,2022-03-04,Ａｃｔｉｆ合同会社,,合同会社,熊本県,熊本市東区,下江津２丁目５番３４号,,43,102,8620960,,,,,,,2022-03-04,1,,,,,アクティフ,0
1962,6340003003729,新規,0,2022-03-04,2022-03-04,合同会社ボヌール,,合同会社,鹿児島県,霧島市,国分中央４丁目１７番３７－１号,,46,218,8994332,,,,,,,2022-03-04,1,,,,,ボヌール,0
1965,6350001017614,新規,0,2022-03-04,2022-03-04,安藤電気株式会社,,株式会社,宮崎県,都城市,太郎坊町３５０３番地３,,45,202,8850002,,,,,,,2022-03-04,1,,,,,アンドウデンキ,0
1972,6360001030070,新規,0,2022-03-04,2022-03-04,株式会社養秀堂,,株式会社,沖縄県,宜野湾市,字真志喜５５５番地２－３０１,,47,205,9012224,,,,,,,2022-03-04,1,,,,,ヨウシュウドウ,0
1973,6360001030087,新規,0,2022-03-04,2022-03-04,株式会社ふるさと事業承継沖縄,,株式会社,沖縄県,那覇市,壺川１丁目１番地１５アルファビル３０２号,,47,201,9000025,,,,,,,2022-03-04,1,,,,,フルサトジギョウショウケイオキナワ,0
1974,6360003011812,新規,0,2022-03-04,2022-03-04,合同会社西原町公共衛生社,,合同会社,沖縄県,中頭郡西原町,字与那城１７１番地の１メゾン結１－Ａ号,,47,329,9030111,,,,,,,2022-03-04,1,,,,,ニシハラチョウコウキョウエイセイシャ,0
1975,6360003011845,新規,0,2022-03-04,2022-03-04,合同会社健康サポートｐｌｕｓ,,合同会社,沖縄県,那覇市,泉崎１丁目２０番１号,,47,201,9000021,,,,,,,2022-03-04,1,,,,,ケンコウサポートプラス,0
1976,6370001048285,新規,0,2022-03-04,2022-03-04,株式会社空装,,株式会社,宮城県,仙台市若林区,卸町５丁目２－１０卸町斎喜ビル３１２,,04,103,9840015,,,,,,,2022-03-04,1,,,,,クウソウ,0
1981,6380001032619,新規,0,2022-03-04,2022-03-04,株式会社フタバ保険企画,,株式会社,福島県,南相馬市,小高区岡田字天神前７４番地,,07,212,9792134,,,,,,,2022-03-04,1,,,,,フタバホケンキカク,0
1982,6380001032627,新規,0,2022-03-04,2022-03-04,株式会社ヤヨイ建設,,株式会社,福島県,福島市,太田町１番３号,,07,201,9608068,,,,,,,2022-03-04,1,,,,,ヤヨイケンセツ,0
1984,6380003005119,新規,0,2022-03-04,2022-03-04,合同会社Ｂｅｌｌファーム,,合同会社,福島県,会津若松市,町北町大字中沢字平沢５６５番地,,07,202,9650058,,,,,,,2022-03-04,1,,,,,ベルファーム,0
1987,6400001015802,新規,0,2022-03-04,2022-03-04,ＡＫＡＨＡＩ株式会社,,株式会社,岩手県,一関市,萩荘字大清水８３番地１,,03,209,0210902,,,,,,,2022-03-04,1,,,,,アカハイ,0
1989,6420001017755,新規,0,2022-03-04,2022-03-04,十和田市営住宅建設株式会社,,株式会社,青森県,十和田市,東十三番町１５番２７号,,02,206,0340023,,,,,,,2022-03-04,1,,,,,トワダシエイジュウタクケンセツ,0
1990,6430001086097,新規,0,2022-03-04,2022-03-04,株式会社ＴＳＵＺＡＫＡ,,株式会社,北海道,札幌市北区,北二十三条西５丁目１番３７号,,01,102,0010023,,,,,,,2022-03-04,1,,,,,ツザカ,0
1993,6450003002182,新規,0,2022-03-04,2022-03-04,合同会社中山農園,,合同会社,北海道,富良野市,字山部西２４線１１番地,,01,229,0791572,,,,,,,2022-03-04,1,,,,,ナカヤマノウエン,0
2007,6700150098452,新規,0,2022-03-04,2020-03-25,静岡市生涯現役促進地域連携協議会,,その他,静岡県,静岡市葵区,追手町５番１号,,22,101,4200853,,,,,,,2020-03-25,1,,,,,シズオカシシヨウガイゲンエキソクシンチイキレンケイキヨウギカイ,0
2008,6700150102668,新規,0,2022-03-04,2021-04-05,たねまくひとの会,,その他,岐阜県,飛騨市,宮川町種蔵２６２,,21,217,5094402,,,,,,,2021-04-05,1,,,,,タネマクヒトノカイ,0
2009,6700150107089,新規,0,2022-03-04,2022-02-15,ＲＡＫＵ,,その他,東京都,世田谷区,太子堂５丁目２－２,,13,112,1540004,,,,,,,2022-02-15,1,,,,,ラク,0
2017,7010001224961,新規,0,2022-03-04,2022-03-04,株式会社２ｆｏｒ１,,株式会社,東京都,中央区,銀座１丁目２２－１１銀座大竹ビジデンス２階,,13,102,1040061,,,,,,,2022-03-04,1,,,,,トゥーフォーワン,0
2021,7010003037107,新規,0,2022-03-04,2022-03-04,合同会社サポート４３号,,合同会社,東京都,千代田区,丸の内３丁目１番１号東京共同会計事務所内,,13,101,1000005,,,,,,,2022-03-04,1,,,,,サポートヨンジュウサンゴウ,0
2022,7010003037131,新規,0,2022-03-04,2022-03-04,晴海合同会社,,合同会社,東京都,千代田区,神田小川町３丁目２６番８号神田小川町三丁目ビル６階,,13,101,1010052,,,,,,,2022-03-04,1,,,,,ハルミ,0
2027,7010101015088,新規,0,2022-03-04,2022-03-04,株式会社カブキ,,株式会社,東京都,八王子市,石川町２６３１番地９,,13,201,1920032,,,,,,,2022-03-04,1,,,,,カブキ,0
2037,7010401165954,新規,0,2022-03-04,2022-03-04,株式会社ＥＭＥＥＲ,,株式会社,東京都,港区,元赤坂１丁目２－７赤坂Ｋタワー４Ｆ,,13,103,1070051,,,,,,,2022-03-04,1,,,,,エマ,0
2038,7010401165970,新規,0,2022-03-04,2022-03-04,株式会社ＦＩＮＥ　ＬＡＮＤ,,株式会社,東京都,港区,六本木４丁目８－７六本木嶋田ビル５Ｆ,,13,103,1060032,,,,,,,2022-03-04,1,,,,,ファインランド,0
2039,7010401165979,新規,0,2022-03-04,2022-03-04,株式会社Ｐｅｏｎｙ,,株式会社,東京都,港区,南青山２丁目２番１５号,,13,103,1070062,,,,,,,2022-03-04,1,,,,,ピオニー,0
2041,7010403027203,新規,0,2022-03-04,2022-03-04,合同会社４０８,,合同会社,東京都,港区,南青山７丁目５－１６第二高樹町ハイツ４０４,,13,103,1070062,,,,,,,2022-03-04,1,,,,,シオヤ,0
2047,7010601060781,新規,0,2022-03-04,2022-03-04,丸武運輸株式会社,,株式会社,東京都,江東区,新木場３丁目５番６号,,13,108,1360082,,,,,,,2022-03-04,1,,,,,マルタケウンユ,0
2051,7010701042317,新規,0,2022-03-04,2022-03-04,株式会社ｅｄｕｌｅａｐ,,株式会社,東京都,品川区,大崎１丁目２番２号,,13,109,1410032,,,,,,,2022-03-04,1,,,,,エドリープ,0
2052,7010701042325,新規,0,2022-03-04,2022-03-04,株式会社ひつじ,,株式会社,東京都,品川区,西五反田１丁目１１番１－１００９号,,13,109,1410031,,,,,,,2022-03-04,1,,,,,ヒツジ,0
2054,7010801032779,新規,0,2022-03-04,2022-03-04,ＮＴＫ　Ｈｏｌｄｉｎｇｓ株式会社,,株式会社,東京都,大田区,南雪谷３丁目１６番４号,,13,111,1450066,,,,,,,2022-03-04,1,,,,,エヌティケーホールディングス,0
2076,7011001145875,新規,0,2022-03-04,2022-03-04,月言株式会社,,株式会社,東京都,渋谷区,渋谷１丁目８番１３ＧＳハイム宮益坂１１０３号,,13,113,1500002,,,,,,,2022-03-04,1,,,,,ツキコト,0
2077,7011001146072,新規,0,2022-03-04,2022-03-04,ＡＲＴＨＵＲ’Ｓ　ＣＯＮＳＵＬＴＩＮＧ株式会社,,株式会社,東京都,渋谷区,広尾５丁目１番３８号,,13,113,1500012,,,,,,,2022-03-04,1,,,,,アーサーズコンサルティング,0
2078,7011001146097,新規,0,2022-03-04,2022-03-04,株式会社前田ホールディングス,,株式会社,東京都,渋谷区,道玄坂２丁目１９番６号スクエア渋谷,,13,113,1500043,,,,,,,2022-03-04,1,,,,,マエダホールディングス,0
2082,7011003014293,新規,0,2022-03-04,2022-03-04,アイデアルブランズ合同会社,,合同会社,東京都,渋谷区,神宮前６丁目２３番４号桑野ビル２階,,13,113,1500001,,,,,,,2022-03-04,1,,,,,アイデアルブランズ,0
2089,7011101097975,新規,0,2022-03-04,2022-03-04,ＳＲＺ株式会社,,株式会社,東京都,新宿区,西新宿３丁目９－７フロンティア新宿タワーオフィス,,13,104,1600023,,,,,,,2022-03-04,1,,,,,エスアールゼット,0
2091,7011201023690,新規,0,2022-03-04,2022-03-04,株式会社みなとテックス,,株式会社,東京都,中野区,新井５丁目１番２－３０１号,,13,114,1650026,,,,,,,2022-03-04,1,,,,,ミナトテックス,0
2097,7011601025774,新規,0,2022-03-04,2022-03-04,株式会社椎谷ガラス,,株式会社,東京都,練馬区,豊玉上１丁目８番１１号,,13,120,1760011,,,,,,,2022-03-04,1,,,,,シイヤガラス,0
2098,7011603003539,新規,0,2022-03-04,2022-03-04,合同会社ＴＤ,,合同会社,東京都,練馬区,石神井町７丁目１番１０－６１４号,,13,120,1770041,,,,,,,2022-03-04,1,,,,,ティーディー,0
2099,7011701025088,新規,0,2022-03-04,2022-03-04,株式会社Ｉｍｐｒｅｓｓ,,株式会社,東京都,江戸川区,本一色３丁目９番２２号,,13,123,1330044,,,,,,,2022-03-04,1,,,,,インプレス,0
2106,7012701016969,新規,0,2022-03-04,2022-03-04,株式会社ａｏ’ｓｄｅｓｉｇｎ,,株式会社,東京都,西東京市,北町１丁目４－１４,,13,229,2020003,,,,,,,2022-03-04,1,,,,,アオズデザイン,0
2107,7012801021431,新規,0,2022-03-04,2022-03-04,Ｐｒｏｓｐｅｃｔｉｖｅ　Ｉｎ　Ｌｉｆｅ株式会社,,株式会社,東京都,立川市,錦町１丁目４番２０号ＴＳＣビル５階,,13,202,1900022,,,,,,,2022-03-04,1,,,,,プロスペクティブインライフ,0
2108,7013301048758,新規,0,2022-03-04,2022-03-04,吉光株式会社,,株式会社,東京都,豊島区,東池袋１丁目３４番５号いちご東池袋ビル６階,,13,116,1700013,,,,,,,2022-03-04,1,,,,,ヨシミツ,0
2109,7013301048766,新規,0,2022-03-04,2022-03-04,株式会社ＹＧＲ,,株式会社,東京都,豊島区,池袋２丁目４７番１２号,,13,116,1710014,,,,,,,2022-03-04,1,,,,,ワイジーアール,0
2120,7020001145513,新規,0,2022-03-04,2022-03-04,おひとつ便株式会社,,株式会社,神奈川県,川崎市宮前区,小台２丁目１９番地２ライオンズマンション宮前平第３・Ｂ－４０３,,14,136,2160007,,,,,,,2022-03-04,1,,,,,オヒトツビン,0
2121,7020001145521,新規,0,2022-03-04,2022-03-04,隆建設株式会社,,株式会社,神奈川県,横浜市保土ケ谷区,今井町９１０,,14,106,2400035,,,,,,,2022-03-04,1,,,,,リュウケンセツ,0
2125,7020003021398,新規,0,2022-03-04,2022-03-04,梅屋合同会社,,合同会社,神奈川県,川崎市中原区,上小田中５丁目１４番８号ハイムハシモト２０３,,14,133,2110053,,,,,,,2022-03-04,1,,,,,ウメヤ,0
2126,7020003021407,新規,0,2022-03-04,2022-03-04,合同会社りん,,合同会社,神奈川県,横浜市泉区,和泉中央北３丁目２５番２３号,,14,116,2450024,,,,,,,2022-03-04,1,,,,,リン,0
2132,7021001075320,新規,0,2022-03-04,2022-03-04,株式会社正光電機,,株式会社,神奈川県,小田原市,千代４１９番地の１５,,14,206,2500215,,,,,,,2022-03-04,1,,,,,セイコウデンキ,0
2133,7021001075337,新規,0,2022-03-04,2022-03-04,株式会社井上建築塗装,,株式会社,神奈川県,藤沢市,葛原２３１８番地の４,,14,205,2520822,,,,,,,2022-03-04,1,,,,,イノウエケンチクトソウ,0
2136,7030001147038,新規,0,2022-03-04,2022-03-04,ＪＯＩＮＳ　ＴＲＡＤＥ株式会社,,株式会社,埼玉県,さいたま市大宮区,桜木町１丁目２６６－３番地シンワＫＩビル２Ｆ,,11,103,3300854,,,,,,,2022-03-04,1,,,,,ジョインズトレード,0
2137,7030001147054,新規,0,2022-03-04,2022-03-04,株式会社Ｄｅｓｉｒｅ,,株式会社,埼玉県,川口市,大字神戸５３３番地の１４,,11,203,3330832,,,,,,,2022-03-04,1,,,,,ディザイア,0
2138,7030001147079,新規,0,2022-03-04,2022-03-04,株式会社ニューロクリエイター,,株式会社,埼玉県,熊谷市,星川２丁目６番地,,11,202,3600043,,,,,,,2022-03-04,1,,,,,ニューロクリエイター,0
2139,7030001147087,新規,0,2022-03-04,2022-03-04,株式会社ＮＥＸＴ　ＯＮＥ,,株式会社,埼玉県,入間郡三芳町,大字上富１０５７番地,,11,324,3540045,,,,,,,2022-03-04,1,,,,,ネクストワン,0
2140,7030001147104,新規,0,2022-03-04,2022-03-04,株式会社イーチカラー,,株式会社,埼玉県,さいたま市浦和区,北浦和３丁目１番１１－８０２号,,11,107,3300074,,,,,,,2022-03-04,1,,,,,イーチカラー,0
2141,7030001147112,新規,0,2022-03-04,2022-03-04,株式会社育人,,株式会社,埼玉県,さいたま市緑区,芝原３丁目１０番地３,,11,109,3360917,,,,,,,2022-03-04,1,,,,,ハグンチュ,0
2142,7030001147120,新規,0,2022-03-04,2022-03-04,株式会社ＢＬＡＺＥＷＯＲＫ,,株式会社,埼玉県,ふじみ野市,富士見台１６－７富士見台ブルーハイツ峰３０６,,11,245,3560032,,,,,,,2022-03-04,1,,,,,ブレイズワーク,0
2146,7030003018947,新規,0,2022-03-04,2022-03-04,Ｋａｄｏｔａ　ａｒｔ合同会社,,合同会社,埼玉県,坂戸市,大字新堀１１１番地１,,11,239,3500262,,,,,,,2022-03-04,1,,,,,カドタアート,0
2147,7030003018955,新規,0,2022-03-04,2022-03-04,エスアールティンバー合同会社,,合同会社,埼玉県,草加市,新栄４丁目１０００番地新栄町団地４－１１－２０３,,11,221,3400056,,,,,,,2022-03-04,1,,,,,エスアールティンバー,0
2148,7030003018963,新規,0,2022-03-04,2022-03-04,合同会社ＥＣＯＳ技術士事務所,,合同会社,埼玉県,幸手市,香日向２丁目３０番９号,,11,240,3400164,,,,,,,2022-03-04,1,,,,,エコスギジュツシジムショ,0
2149,7030003018971,新規,0,2022-03-04,2022-03-04,合同会社ＣＡＭＰ,,合同会社,埼玉県,所沢市,上新井４丁目６４番地の７,,11,208,3591142,,,,,,,2022-03-04,1,,,,,キャンプ,0
2154,7040001122428,新規,0,2022-03-04,2022-03-04,Ｋ２電気工事株式会社,,株式会社,千葉県,習志野市,香澄１丁目１番４－３０２号,,12,216,2750022,,,,,,,2022-03-04,1,,,,,ケーツーデンキコウジ,0
2155,7040001122444,新規,0,2022-03-04,2022-03-04,れいわ株式会社,,株式会社,千葉県,君津市,大山野５４７－５,,12,225,2991123,,,,,,,2022-03-04,1,,,,,レイワ,0
2156,7040001122452,新規,0,2022-03-04,2022-03-04,株式会社ｔ．ｃ．ｖ．,,株式会社,千葉県,市原市,ちはら台南２丁目３２番地２,,12,219,2900142,,,,,,,2022-03-04,1,,,,,ティーシーブイ,0
2157,7040001122469,新規,0,2022-03-04,2022-03-04,株式会社ＳＫネオ,,株式会社,千葉県,東金市,広瀬５９１番地９９,,12,213,2830041,,,,,,,2022-03-04,1,,,,,エスケーネオ,0
2158,7040001122485,新規,0,2022-03-04,2022-03-04,株式会社ＬＯＲＲＹ　ＧＡＲＡＧＥ,,株式会社,千葉県,野田市,清水９０１番地の５,,12,208,2780043,,,,,,,2022-03-04,1,,,,,ローリーガレージ,0
2159,7040001122493,新規,0,2022-03-04,2022-03-04,株式会社トノマルホールディングス,,株式会社,千葉県,松戸市,小金きよしケ丘４丁目３番地１１,,12,207,2700013,,,,,,,2022-03-04,1,,,,,トノマルホールディングス,0
2160,7040001122502,新規,0,2022-03-04,2022-03-04,ＪＯＹ株式会社,,株式会社,千葉県,船橋市,前貝塚町４９９番地２１,,12,204,2730042,,,,,,,2022-03-04,1,,,,,ジョイ,0
2161,7040001122519,新規,0,2022-03-04,2022-03-04,レイアップ株式会社,,株式会社,千葉県,船橋市,西船２丁目１９－１－６０９,,12,204,2730031,,,,,,,2022-03-04,1,,,,,レイアップ,0
2165,7040003019606,新規,0,2022-03-04,2022-03-04,合同会社水建,,合同会社,千葉県,佐倉市,江原台２丁目７番地１６,,12,212,2850825,,,,,,,2022-03-04,1,,,,,スイケン,0
2166,7050001050710,新規,0,2022-03-04,2022-03-04,セラミック分割準備株式会社,,株式会社,茨城県,ひたちなか市,大字足崎１３８０番地１,,08,221,3120003,,,,,,,2022-03-04,1,,,,,セラミックブンカツジュンビ,0
2169,7050003006405,新規,0,2022-03-04,2022-03-04,合同会社カリン,,合同会社,茨城県,土浦市,桜町１丁目１５番１１号,,08,203,3000037,,,,,,,2022-03-04,1,,,,,カリン,0
2174,7070003004398,新規,0,2022-03-04,2022-03-04,ツムグ合同会社,,合同会社,群馬県,前橋市,若宮町４丁目８番１６号,,10,201,3710032,,,,,,,2022-03-04,1,,,,,ツムグ,0
2175,7070003004407,新規,0,2022-03-04,2022-03-04,合同会社ヒカリノマチ,,合同会社,群馬県,高崎市,貝沢町６２９番地１７,,10,202,3700042,,,,,,,2022-03-04,1,,,,,ヒカリノマチ,0
2182,7100001035111,新規,0,2022-03-04,2022-03-04,株式会社志水林業製材,,株式会社,長野県,木曽郡南木曽町,吾妻４４６１番地,,20,423,3995302,,,,,,,2022-03-04,1,,,,,シミズリンギョウセイザイ,0
2183,7100001035128,新規,0,2022-03-04,2022-03-04,株式会社モダンベース,,株式会社,長野県,千曲市,大字上徳間２３６番地フォンテーヌ１０４号室,,20,218,3890805,,,,,,,2022-03-04,1,,,,,モダンベース,0
2184,7100003006432,新規,0,2022-03-04,2022-03-04,合同会社フィールドワーク,,合同会社,長野県,中野市,大字竹原２４６番地２,,20,211,3830007,,,,,,,2022-03-04,1,,,,,フィールドワーク,0
2202,7120001244189,新規,0,2022-03-04,2022-03-04,西林プラント株式会社,,株式会社,大阪府,大阪市住之江区,浜口東３丁目１１番２３号モンシャトレ４０４号,,27,125,5590002,,,,,,,2022-03-04,1,,,,,ニシバヤシプラント,0
2203,7120001244197,新規,0,2022-03-04,2022-03-04,株式会社健御,,株式会社,大阪府,大阪市東淀川区,大桐４丁目４－６７Ｃ１４０７,,27,114,5330011,,,,,,,2022-03-04,1,,,,,ケンゴ,0
2204,7120001244230,新規,0,2022-03-04,2022-03-04,タカハシリース株式会社,,株式会社,大阪府,大阪市大正区,小林西１丁目３１番１６号,,27,108,5510013,,,,,,,2022-03-04,1,,,,,タカハシリース,0
2205,7120001244271,新規,0,2022-03-04,2022-03-04,株式会社和光,,株式会社,大阪府,大阪市浪速区,元町１丁目５－１５オカダウィーンビル５０１号,,27,111,5560016,,,,,,,2022-03-04,1,,,,,ワコウ,0
2209,7120003021215,新規,0,2022-03-04,2022-03-04,合同会社Ｎａｏコーポレーション,,合同会社,大阪府,大阪市城東区,中央１丁目８番３０－５０２号,,27,118,5360005,,,,,,,2022-03-04,1,,,,,ナオコーポレーション,0
2210,7120003021231,新規,0,2022-03-04,2022-03-04,合同会社ビオルーチェ,,合同会社,大阪府,大阪市住之江区,粉浜３丁目１０番３号,,27,125,5590001,,,,,,,2022-03-04,1,,,,,ビオルーチェ,0
2213,7120101065171,新規,0,2022-03-04,2022-03-04,株式会社Ａｓｖａｎｃｅ,,株式会社,大阪府,堺市北区,北花田町４丁９３番地２６－１０１,,27,146,5918002,,,,,,,2022-03-04,1,,,,,アスバンス,0
2221,7120901045678,新規,0,2022-03-04,2022-03-04,株式会社ＮＩＳＨＩＤＡ,,株式会社,大阪府,茨木市,上野町１１番１号,,27,211,5670064,,,,,,,2022-03-04,1,,,,,ニシダ,0
2222,7120901045686,新規,0,2022-03-04,2022-03-04,株式会社Ｊｉｌｌ,,株式会社,大阪府,高槻市,日吉台三番町７番１６号,,27,207,5691022,,,,,,,2022-03-04,1,,,,,ジル,0
2226,7122003002285,新規,0,2022-03-04,2022-03-04,合同会社坂屋,,合同会社,大阪府,東大阪市,御厨南２丁目１番４５号・富士ビル４０３号室,,27,227,5770034,,,,,,,2022-03-04,1,,,,,サカヤ,0
2227,7130001071244,新規,0,2022-03-04,2022-03-04,株式会社俊一産業,,株式会社,京都府,京都市右京区,京北周山町卯瀧谷５番地７,,26,108,6010251,,,,,,,2022-03-04,1,,,,,シュンイチサンギョウ,0
2228,7130001071285,新規,0,2022-03-04,2022-03-04,株式会社銀曜日,,株式会社,京都府,京都市下京区,早尾町３１３番地３,,26,106,6008114,,,,,,,2022-03-04,1,,,,,ギンヨウビ,0
2229,7130003007790,新規,0,2022-03-04,2022-03-04,合同会社Ｃｏｎｎｅｐ１,,合同会社,京都府,京都市左京区,下鴨宮崎町１１９番地１,,26,103,6060802,,,,,,,2022-03-04,1,,,,,コネップワン,0
2232,7140001125107,新規,0,2022-03-04,2022-03-04,株式会社関通ビジネスサービス,,株式会社,兵庫県,尼崎市,西向島町１１１番地の４,,28,202,6600857,,,,,,,2022-03-04,1,,,,,カンツウビジネスサービス,0
2233,7140001125123,新規,0,2022-03-04,2022-03-04,株式会社ラパンブラン,,株式会社,兵庫県,赤穂市,尾崎３１６１番地１３,,28,212,6780221,,,,,,,2022-03-04,1,,,,,ラパンブラン,0
2234,7140001125131,新規,0,2022-03-04,2022-03-04,株式会社アスエスタ,,株式会社,兵庫県,尼崎市,西御園町１１９番地３第一寺町ビル５階,,28,202,6600868,,,,,,,2022-03-04,1,,,,,アスエスタ,0
2235,7140001125148,新規,0,2022-03-04,2022-03-04,株式会社マルシェ,,株式会社,兵庫県,養父市,八鹿町宿南２３７０番地７,,28,222,6670003,,,,,,,2022-03-04,1,,,,,マルシェ,0
2236,7140001125156,新規,0,2022-03-04,2022-03-04,株式会社Ｒｅｂｏｒｎ,,株式会社,兵庫県,宝塚市,今里町１７番９号,,28,214,6650862,,,,,,,2022-03-04,1,,,,,リボーン,0
2237,7140001125172,新規,0,2022-03-04,2022-03-04,株式会社アドバンス,,株式会社,兵庫県,神戸市長田区,長田天神町３丁目３番２３－５０５号,,28,106,6530882,,,,,,,2022-03-04,1,,,,,アドバンス,0
2256,7180001150209,新規,0,2022-03-04,2022-03-04,株式会社シェノン,,株式会社,愛知県,小牧市,大字小牧１８５１番地１,,23,219,4850041,,,,,,,2022-03-04,1,,,,,シェノン,0
2257,7180001150258,新規,0,2022-03-04,2022-03-04,株式会社大岡建設,,株式会社,愛知県,春日井市,不二ガ丘３丁目６９番地,,23,206,4870023,,,,,,,2022-03-04,1,,,,,オオオカケンセツ,0
2258,7180001150282,新規,0,2022-03-04,2022-03-04,株式会社ＱＵＥＥＮ’Ｓ　ＤＡＹ,,株式会社,愛知県,稲沢市,小池３丁目２番７号,,23,220,4928144,,,,,,,2022-03-04,1,,,,,クイーンズデイ,0
2259,7180001150290,新規,0,2022-03-04,2022-03-04,株式会社ＣＬＳ．ｃｏｍ,,株式会社,愛知県,名古屋市緑区,相模郷二丁目６０２番地,,23,114,4580000,,,,,,,2022-03-04,1,,,,,シーエルエスドットコム,0
2260,7180001150316,新規,0,2022-03-04,2022-03-04,株式会社中村家,,株式会社,愛知県,名古屋市熱田区,六番３丁目１７番２号ドルフィン六番４１１号,,23,109,4560058,,,,,,,2022-03-04,1,,,,,ナカムラヤ,0
2265,7180003023585,新規,0,2022-03-04,2022-03-04,合同会社楽福,,合同会社,愛知県,名古屋市昭和区,鶴舞３丁目１２番２号,,23,107,4660064,,,,,,,2022-03-04,1,,,,,ラック,0
2268,7180301035976,新規,0,2022-03-04,2022-03-04,株式会社ナカガミハウス,,株式会社,愛知県,田原市,加治町新田６７番地の１,,23,231,4413427,,,,,,,2022-03-04,1,,,,,ナカガミハウス,0
2270,7180305009308,新規,0,2022-03-04,2022-03-04,税理士法人兵藤会計,,その他の設立登記法人,愛知県,豊橋市,佐藤２丁目１６番地の２６,,23,201,4400853,,,,,,,2022-03-04,1,,,,,ヒョウドウカイケイ,0
2271,7190001029162,新規,0,2022-03-04,2022-03-04,前田屋製菓株式会社,,株式会社,三重県,亀山市,関町坂下９８番地,,24,210,5191101,,,,,,,2022-03-04,1,,,,,マエダヤセイカ,0
2272,7190001029204,新規,0,2022-03-04,2022-03-04,株式会社エクモ,,株式会社,三重県,四日市市,松寺１丁目１０番３１号,,24,202,5108021,,,,,,,2022-03-04,1,,,,,エクモ,0
2274,7200001039795,新規,0,2022-03-04,2022-03-04,株式会社Ｖｒｅｎｏｓ,,株式会社,岐阜県,各務原市,つつじが丘５丁目６１番地,,21,213,5090131,,,,,,,2022-03-04,1,,,,,ヴィリノス,0
2280,7220001024713,新規,0,2022-03-04,2022-03-04,株式会社Ｔａｓｋ,,株式会社,石川県,白山市,相木町４５７番地１－２０５号,,17,210,9240022,,,,,,,2022-03-04,1,,,,,タスク,0
2281,7220001024721,新規,0,2022-03-04,2022-03-04,小松警備株式会社,,株式会社,石川県,能美市,上開発町イ６５番地,,17,211,9231231,,,,,,,2022-03-04,1,,,,,コマツケイビ,0
2285,7230001019258,新規,0,2022-03-04,2022-03-04,株式会社楽農志Ｆａｒｍ岩倉,,株式会社,富山県,南砺市,高瀬４３３番地,,16,210,9320252,,,,,,,2022-03-04,1,,,,,タノシファームイワクラ,0
2286,7230001019266,新規,0,2022-03-04,2022-03-04,株式会社ＶＯＩＣＥ,,株式会社,富山県,富山市,西荒屋４８２番地１,,16,201,9398251,,,,,,,2022-03-04,1,,,,,ボイス,0
2289,7240001059435,新規,0,2022-03-04,2022-03-04,株式会社タケシタ総業,,株式会社,広島県,広島市西区,南観音１丁目４番３７－４０３号,,34,104,7330035,,,,,,,2022-03-04,1,,,,,タケシタソウギョウ,0
2296,7250001019438,新規,0,2022-03-04,2022-03-04,株式会社ＦＫＥＮ,,株式会社,山口県,下松市,新川３丁目１番１６号,,35,207,7440008,,,,,,,2022-03-04,1,,,,,エフケン,0
2297,7250001019446,新規,0,2022-03-04,2022-03-04,Ｌｉｇ株式会社,,株式会社,山口県,下関市,後田町２丁目２番９号,,35,201,7510826,,,,,,,2022-03-04,1,,,,,リグ,0
2300,7290001096606,新規,0,2022-03-04,2022-03-04,株式会社ＦＧクラフト,,株式会社,福岡県,福岡市博多区,須崎町６番２号,,40,132,8120028,,,,,,,2022-03-04,1,,,,,エフジークラフト,0
2301,7290001096622,新規,0,2022-03-04,2022-03-04,株式会社ＺＥＡＬ,,株式会社,福岡県,飯塚市,平恒９６１番地８,,40,205,8200073,,,,,,,2022-03-04,1,,,,,ジール,0
2302,7290001096639,新規,0,2022-03-04,2022-03-04,セカンドステップ株式会社,,株式会社,福岡県,福岡市東区,八田２丁目１番５２－４０３号,,40,131,8130031,,,,,,,2022-03-04,1,,,,,セカンドステップ,0
2304,7290003012230,新規,0,2022-03-04,2022-03-04,合同会社ミライラボ,,合同会社,福岡県,久留米市,高良内町３７９８番地１,,40,203,8390852,,,,,,,2022-03-04,1,,,,,ミライラボ,0
2305,7290801028312,新規,0,2022-03-04,2022-03-04,株式会社Ｌ．Ｆ．Ｍ,,株式会社,福岡県,遠賀郡水巻町,吉田東５丁目１番１２号,,40,382,8070045,,,,,,,2022-03-04,1,,,,,エルエフエム,0
2309,7310005008587,新規,0,2022-03-04,2022-03-04,医療法人千帆会,,その他の設立登記法人,長崎県,長崎市,元船町５番４号メディカルモール元船２階,,42,201,8500035,,,,,,,2022-03-04,1,,,,,センポカイ,0
2312,7330001029503,新規,0,2022-03-04,2022-03-04,株式会社ＩＭＴ,,株式会社,熊本県,熊本市中央区,坪井３丁目８番３５号４０２号,,43,101,8600863,,,,,,,2022-03-04,1,,,,,アイエムティー,0
2317,7340003003728,新規,0,2022-03-04,2022-03-04,ＫＭＣ合同会社,,合同会社,鹿児島県,霧島市,国分重久１２４８－４,,46,218,8994301,,,,,,,2022-03-04,1,,,,,ケイエムシー,0
2320,7350001017613,新規,0,2022-03-04,2022-03-04,株式会社Ｖａｍｏｓ,,株式会社,宮崎県,北諸県郡三股町,大字樺山２７７７番地５,,45,341,8891901,,,,,,,2022-03-04,1,,,,,ヴァモス,0
2321,7360003011844,新規,0,2022-03-04,2022-03-04,合同会社グローイングキッチン,,合同会社,沖縄県,沖縄市,美里６丁目１５番１５号,,47,211,9042153,,,,,,,2022-03-04,1,,,,,グローイングキッチン,0
2322,7360003011852,新規,0,2022-03-04,2022-03-04,合同会社ＲａＢ,,合同会社,沖縄県,那覇市,宮城１丁目１８番１２－７０７号,,47,201,9010147,,,,,,,2022-03-04,1,,,,,ラボ,0
2324,7370001048268,新規,0,2022-03-04,2022-03-04,株式会社フォレスト,,株式会社,宮城県,仙台市宮城野区,中野字出花西１５番地の１ネオハイツ中野栄９０１,,04,102,9830013,,,,,,,2022-03-04,1,,,,,フォレスト,0
2325,7370001048276,新規,0,2022-03-04,2022-03-04,株式会社早坂建業,,株式会社,宮城県,仙台市太白区,秋保町湯向２番地の６,,04,104,9820245,,,,,,,2022-03-04,1,,,,,ハヤサカケンギョウ,0
2326,7370001048284,新規,0,2022-03-04,2022-03-04,株式会社クリーンアップ渋屋,,株式会社,宮城県,刈田郡蔵王町,宮字舘山５番地１,,04,301,9890701,,,,,,,2022-03-04,1,,,,,クリーンアップシブヤ,0
2328,7370003005614,新規,0,2022-03-04,2022-03-04,合同会社デュナミス,,合同会社,宮城県,仙台市青葉区,堤通雨宮町５－１０－７０１,,04,101,9810914,,,,,,,2022-03-04,1,,,,,デュナミス,0
2330,7380001032626,新規,0,2022-03-04,2022-03-04,株式会社ウェルカムファーム,,株式会社,福島県,郡山市,田村町徳定字才竹１６番地,,07,203,9631165,,,,,,,2022-03-04,1,,,,,ウェルカムファーム,0
2331,7380001032634,新規,0,2022-03-04,2022-03-04,株式会社カラーズ,,株式会社,福島県,郡山市,深沢２丁目２番６号,,07,203,9638874,,,,,,,2022-03-04,1,,,,,カラーズ,0
2334,7390001016801,新規,0,2022-03-04,2022-03-04,株式会社治五左衛門,,株式会社,山形県,鶴岡市,寺田乙１５３番地,,06,203,9970836,,,,,,,2022-03-04,1,,,,,ジゴザエモン,0
2335,7390001016818,新規,0,2022-03-04,2022-03-04,株式会社幸和工務店,,株式会社,山形県,新庄市,十日町８１５番地１,,06,205,9960091,,,,,,,2022-03-04,1,,,,,コウワコウムテン,0
2341,7410003003621,新規,0,2022-03-04,2022-03-04,村田楽園合同会社,,合同会社,秋田県,仙北郡美郷町,金沢字北川原田１０７番地,,05,434,0191302,,,,,,,2022-03-04,1,,,,,ムラタラクエン,0
2344,7430001086121,新規,0,2022-03-04,2022-03-04,株式会社彩羽工業,,株式会社,北海道,札幌市白石区,北郷九条８丁目３番１号,,01,104,0030839,,,,,,,2022-03-04,1,,,,,イロハコウギョウ,0
2345,7430001086138,新規,0,2022-03-04,2022-03-04,株式会社リノヴェック,,株式会社,北海道,札幌市西区,発寒二条３丁目３番７号,,01,107,0630822,,,,,,,2022-03-04,1,,,,,リノヴェック,0
2346,7430003013676,新規,0,2022-03-04,2022-03-04,Ａ－ＭＡＲＳ合同会社,,合同会社,北海道,札幌市清田区,平岡四条１丁目２番２－６０１号,,01,110,0040874,,,,,,,2022-03-04,1,,,,,エーマース,0
2349,7450001013635,新規,0,2022-03-04,2022-03-04,株式会社スマイルでんき,,株式会社,北海道,旭川市,東光四条１０丁目４番３号,,01,204,0788344,,,,,,,2022-03-04,1,,,,,スマイルデンキ,0
2355,7470005006419,新規,0,2022-03-04,2022-03-04,一般財団法人和納育英会,,その他の設立登記法人,香川県,丸亀市,田村町１１９番地１,,37,202,7630071,,,,,,,2022-03-04,1,,,,,ワノウイクエイカイ,0
2357,7480005006888,新規,0,2022-03-04,2022-03-04,一般社団法人徳島県マンション管理士会,,その他の設立登記法人,徳島県,徳島市,東大工町１丁目１９番地,,36,201,7700905,,,,,,,2022-03-04,1,,,,,トクシマケンマンションカンリシカイ,0
2360,7490003001634,新規,0,2022-03-04,2022-03-04,合同会社萩コーポレーション,,合同会社,高知県,宿毛市,萩原７番４８号,,39,208,7880005,,,,,,,2022-03-04,1,,,,,ハギコーポレーション,0
2362,7500003002787,新規,0,2022-03-04,2022-03-04,合同会社マルイチ,,合同会社,愛媛県,今治市,片山１丁目２番３７号,,38,202,7940063,,,,,,,2022-03-04,1,,,,,マルイチ,0
2366,7700150107278,新規,0,2022-03-04,2022-03-04,Ｋｒａｆｔ＆Ａｓｓｏｃｉａｔｅｓ，ＬＬＣ,,外国会社等,東京都,港区,赤坂２丁目２１－５ＡＢＣ,,13,103,1070052,アメリカ合衆国ミネソタ州ビクトリア、ゴールドポイント２２８５,,,,,,2022-03-04,1,,,,,クラフトアンドアソシエイツ,0
2372,8010001224936,新規,0,2022-03-04,2022-03-04,株式会社ＦＵＫＵ　ＥＸＰＲＥＳＳ,,株式会社,東京都,文京区,大塚３丁目１９番１０号文京ＫＳビル３階,,13,105,1120012,,,,,,,2022-03-04,1,,,,,フクエクスプレス,0
2373,8010001224944,新規,0,2022-03-04,2022-03-04,株式会社ＷＡＮＤＹ,,株式会社,東京都,中央区,銀座１丁目１２番４号,,13,102,1040061,,,,,,,2022-03-04,1,,,,,ワンディ,0
2374,8010001224969,新規,0,2022-03-04,2022-03-04,イーシステムデザイン株式会社,,株式会社,東京都,中央区,銀座７丁目１３番６号サガミビル２階,,13,102,1040061,,,,,,,2022-03-04,1,,,,,イーシステムデザイン,0
2375,8010001225001,新規,0,2022-03-04,2022-03-04,株式会社鈴木商会,,株式会社,東京都,中央区,日本橋２丁目２番３号リッシュビル５Ｆ,,13,102,1030027,,,,,,,2022-03-04,1,,,,,スズキショウカイ,0
2377,8010003037139,新規,0,2022-03-04,2022-03-04,合同会社向日葵信用サービス,,合同会社,東京都,千代田区,丸の内３丁目１番１号東京共同会計事務所内,,13,101,1000005,,,,,,,2022-03-04,1,,,,,ヒマワリシンヨウサービス,0
2380,8010005034662,新規,0,2022-03-04,2022-03-04,神田一般社団法人,,その他の設立登記法人,東京都,千代田区,神田小川町３丁目２６番８号神田小川町三丁目ビル６階,,13,101,1010052,,,,,,,2022-03-04,1,,,,,カンダ,0
2381,8010005034670,新規,0,2022-03-04,2022-03-04,一般社団法人ＰＣＢ処理工法協議会,,その他の設立登記法人,東京都,千代田区,東神田１丁目１７－９,,13,101,1010031,,,,,,,2022-03-04,1,,,,,ピーシービーショリコウホウキョウギカイ,0
2382,8010005034704,新規,0,2022-03-04,2022-03-04,一般社団法人京成稲毛駅前開発,,その他の設立登記法人,東京都,千代田区,平河町１丁目６番１５号シルスフィア会計事務所内,,13,101,1020093,,,,,,,2022-03-04,1,,,,,ケイセイイナゲエキマエカイハツ,0
2387,8010401165929,新規,0,2022-03-04,2022-03-04,株式会社ウェルコンパス,,株式会社,東京都,港区,赤坂９丁目７番１号ミッドタウン・タワー６階,,13,103,1070052,,,,,,,2022-03-04,1,,,,,ウェルコンパス,0
2388,8010401165953,新規,0,2022-03-04,2022-03-04,株式会社ＧＣＥ,,株式会社,東京都,港区,赤坂７丁目２番３号,,13,103,1070052,,,,,,,2022-03-04,1,,,,,ジーシーイー,0
2389,8010401165961,新規,0,2022-03-04,2022-03-04,株式会社ＰＲＴＬ,,株式会社,東京都,港区,三田１丁目１１番１５号三田ハラビル２０１,,13,103,1080073,,,,,,,2022-03-04,1,,,,,ピーアールティーエル,0
2390,8010401166010,新規,0,2022-03-04,2022-03-04,株式会社小西ＦＣ,,株式会社,東京都,港区,赤坂４丁目１４番１４－２９０４号,,13,103,1070052,,,,,,,2022-03-04,1,,,,,コニシエフシー,0
2392,8010403027193,新規,0,2022-03-04,2022-03-04,合同会社ラボ,,合同会社,東京都,港区,六本木４丁目５番２号六本木Ｕビル３Ｆ,,13,103,1060032,,,,,,,2022-03-04,1,,,,,ラボ,0
2393,8010403027202,新規,0,2022-03-04,2022-03-04,ＳＴ＆Ｃｏｍｐａｎｙ合同会社,,合同会社,東京都,港区,六本木７丁目７番７号Ｔｒｉ－ＳｅｖｅｎＲｏｐｐｏｎｇｉ８階,,13,103,1060032,,,,,,,2022-03-04,1,,,,,エスティアンドカンパニー,0
2394,8010601060772,新規,0,2022-03-04,2022-03-04,株式会社フジクラプリントサーキット,,株式会社,東京都,江東区,木場１丁目５番１号,,13,108,1350042,,,,,,,2022-03-04,1,,,,,フジクラプリントサーキット,0
2395,8010601060780,新規,0,2022-03-04,2022-03-04,株式会社ＪＳＭリフォーム,,株式会社,東京都,墨田区,東駒形２丁目２番２号,,13,107,1300005,,,,,,,2022-03-04,1,,,,,ジェイエスエムリフォーム,0
2398,8010701042316,新規,0,2022-03-04,2022-03-04,株式会社ＡＯ,,株式会社,東京都,品川区,西品川１丁目２番１－２００９号,,13,109,1410033,,,,,,,2022-03-04,1,,,,,エーオー,0
2399,8010701042324,新規,0,2022-03-04,2022-03-04,株式会社ＯｎＹｏｕｒＳｉｄｅ,,株式会社,東京都,品川区,西大井１丁目１－２Ｊタワー西大井イーストタワー２階ＰＯＲＴ２４０１,,13,109,1400015,,,,,,,2022-03-04,1,,,,,オンユアサイド,0
2402,8010705003330,新規,0,2022-03-04,2022-03-04,医療法人社団縁,,その他の設立登記法人,東京都,品川区,北品川２丁目９番１２号Ｍａｒｅ北品川１階,,13,109,1400001,,,,,,,2022-03-04,1,,,,,エン,0
2420,8011001145783,新規,0,2022-03-04,2022-03-04,ＣＡＮＳＨＡＬ株式会社,,株式会社,東京都,目黒区,東山３丁目１－１９－５０７,,13,110,1530043,,,,,,,2022-03-04,1,,,,,キャンシャル,0
2421,8011001146047,新規,0,2022-03-04,2022-03-04,株式会社Ｒｅｔｒｏ,,株式会社,東京都,渋谷区,神宮前６丁目１７番１５号,,13,113,1500001,,,,,,,2022-03-04,1,,,,,レトロ,0
2422,8011001146096,新規,0,2022-03-04,2022-03-04,ＰｒｏＧｕｉｌｄ株式会社,,株式会社,東京都,渋谷区,恵比寿西１丁目３３番６号ＪＰｎｏｉｅ恵比寿西１Ｆ・ｃｏ－ｂａ／ｅｂｉｓｕ,,13,113,1500021,,,,,,,2022-03-04,1,,,,,プロギルド,0
2423,8011001146113,新規,0,2022-03-04,2022-03-04,ＣＨＡＬ株式会社,,株式会社,東京都,渋谷区,広尾５丁目４番１６号ＥＡＴＰＬＡＹＷＯＲＫＳ３Ｆ,,13,113,1500012,,,,,,,2022-03-04,1,,,,,チャル,0
2425,8011003014235,新規,0,2022-03-04,2022-03-04,日本ＩＲ開発合同会社,,合同会社,東京都,渋谷区,道玄坂１丁目１２番１号渋谷マークシティウエスト２２階,,13,113,1500043,,,,,,,2022-03-04,1,,,,,ニホンアイアールカイハツ,0
2426,8011003014284,新規,0,2022-03-04,2022-03-04,まるせいゆ合同会社,,合同会社,東京都,目黒区,目黒２丁目１５番１２－９０７号,,13,110,1530063,,,,,,,2022-03-04,1,,,,,マルセイユ,0
2427,8011003014301,新規,0,2022-03-04,2022-03-04,合同会社ＣＡＬＭ,,合同会社,東京都,渋谷区,恵比寿１丁目１５番９号日宝恵比寿ビル４０３,,13,113,1500013,,,,,,,2022-03-04,1,,,,,カーム,0
2428,8011005009464,新規,0,2022-03-04,2022-03-04,医療法人社団ウィステリア,,その他の設立登記法人,東京都,目黒区,洗足２丁目２５番１９号アソルティ洗足１階,,13,110,1520012,,,,,,,2022-03-04,1,,,,,ウィステリア,0
2434,8011203003764,新規,0,2022-03-04,2022-03-04,合同会社ファイン,,合同会社,東京都,中野区,白鷺２丁目３８番８号カーサ・クレール１０３,,13,114,1650035,,,,,,,2022-03-04,1,,,,,ファイン,0
2435,8011301027599,新規,0,2022-03-04,2022-03-04,株式会社エムプロス,,株式会社,東京都,杉並区,井草１丁目２２番５号,,13,115,1670021,,,,,,,2022-03-04,1,,,,,エムプロス,0
2436,8011401024075,新規,0,2022-03-04,2022-03-04,ＮＳライト株式会社,,株式会社,東京都,板橋区,徳丸６丁目１４番６号,,13,119,1750083,,,,,,,2022-03-04,1,,,,,エヌエスライト,0
2438,8011501027804,新規,0,2022-03-04,2022-03-04,株式会社ＡＲＡＭＡ,,株式会社,東京都,荒川区,町屋１丁目３番１２－２０１号,,13,118,1160001,,,,,,,2022-03-04,1,,,,,アラマ,0
2439,8011501027812,新規,0,2022-03-04,2022-03-04,株式会社リワード,,株式会社,東京都,北区,滝野川６丁目１３番１５号スカイコートヌーベル巣鴨２０８,,13,117,1140023,,,,,,,2022-03-04,1,,,,,リワード,0
2448,8011801040408,新規,0,2022-03-04,2022-03-04,株式会社ドドンゴ,,株式会社,東京都,葛飾区,新小岩１丁目５１番１３号大栄ビル５階,,13,122,1240024,,,,,,,2022-03-04,1,,,,,ドドンゴ,0
2451,8012303001641,新規,0,2022-03-04,2022-03-04,Ｈｅａｒｔ　Ｃｒｏｓｓ　Ｏｖｅｒ合同会社,,合同会社,東京都,町田市,森野２丁目２７番８‐５０１号,,13,209,1940022,,,,,,,2022-03-04,1,,,,,ハートクロスオーバー,0
2452,8012401038924,新規,0,2022-03-04,2022-03-04,株式会社キャロット,,株式会社,東京都,狛江市,西野川２丁目２９番２１号,,13,219,2010001,,,,,,,2022-03-04,1,,,,,キャロット,0
2455,8012703002413,新規,0,2022-03-04,2022-03-04,合同会社和,,合同会社,東京都,東村山市,廻田町１丁目１７番地２６,,13,213,1890025,,,,,,,2022-03-04,1,,,,,カナウ,0
2463,8020001145462,新規,0,2022-03-04,2022-03-04,Ｒｅｇａｒｄ　Ｅｓｔａｔｅ株式会社,,株式会社,神奈川県,川崎市宮前区,馬絹４丁目７－１８,,14,136,2160035,,,,,,,2022-03-04,1,,,,,リガードエステイト,0
2464,8020001145470,新規,0,2022-03-04,2022-03-04,株式会社Ｏ,,株式会社,神奈川県,横浜市神奈川区,沢渡２番４号ＹＳビル２階,,14,102,2210844,,,,,,,2022-03-04,1,,,,,オ,0
2465,8020001145520,新規,0,2022-03-04,2022-03-04,ハニーミルク販売株式会社,,株式会社,神奈川県,横浜市西区,元久保町１１番６号,,14,103,2200063,,,,,,,2022-03-04,1,,,,,ハニーミルクハンバイ,0
2466,8020001145537,新規,0,2022-03-04,2022-03-04,株式会社ＶｉｅｔＣａｒｅ,,株式会社,神奈川県,横浜市都筑区,中川２丁目９番４－３０１号,,14,118,2240001,,,,,,,2022-03-04,1,,,,,ベトケア,0
2468,8020003021389,新規,0,2022-03-04,2022-03-04,合同会社ポリバレント,,合同会社,神奈川県,横浜市旭区,下川井町１５５６番地７,,14,112,2410806,,,,,,,2022-03-04,1,,,,,ポリバレント,0
2469,8020003021397,新規,0,2022-03-04,2022-03-04,ＲＯＹＡＬ　ＦＡＭＩＬＹ　ＫＥＮＮＥＬ合同会社,,合同会社,神奈川県,横浜市青葉区,美しが丘５丁目２７番地２７,,14,117,2250002,,,,,,,2022-03-04,1,,,,,ロイヤルファミリーケネル,0
2471,8021001075204,新規,0,2022-03-04,2022-03-04,株式会社Ｃｈａｎｃｅ＆Ｌｉｎｋ,,株式会社,神奈川県,茅ヶ崎市,赤羽根１３８０番地２８,,14,207,2530001,,,,,,,2022-03-04,1,,,,,チャンスアンドリンク,0
2472,8021001075328,新規,0,2022-03-04,2022-03-04,株式会社ＫＳＷ,,株式会社,神奈川県,厚木市,下荻野９９４番地３,,14,212,2430203,,,,,,,2022-03-04,1,,,,,ケーエスダブル,0
2473,8021001075336,新規,0,2022-03-04,2022-03-04,ＩＴＭ株式会社,,株式会社,神奈川県,相模原市中央区,東淵野辺５丁目２９番１９号,,14,152,2520203,,,,,,,2022-03-04,1,,,,,アイティエム,0
2479,8030001147037,新規,0,2022-03-04,2022-03-04,ヒカル工房株式会社,,株式会社,埼玉県,加須市,細間１８６番地３,,11,210,3491156,,,,,,,2022-03-04,1,,,,,ヒカルコウボウ,0
2480,8030001147045,新規,0,2022-03-04,2022-03-04,株式会社根本電気,,株式会社,埼玉県,狭山市,大字加佐志５３番地の１,,11,215,3501314,,,,,,,2022-03-04,1,,,,,ネモトデンキ,0
2481,8030001147053,新規,0,2022-03-04,2022-03-04,ワセダリフォーム株式会社,,株式会社,埼玉県,三郷市,早稲田４丁目２４番地４,,11,237,3410018,,,,,,,2022-03-04,1,,,,,ワセダリフォーム,0
2482,8030001147061,新規,0,2022-03-04,2022-03-04,株式会社ＧｏｏｄＷｉｎ,,株式会社,埼玉県,富士見市,山室２丁目２５番１０号,,11,235,3540022,,,,,,,2022-03-04,1,,,,,グッドウイン,0
2483,8030001147094,新規,0,2022-03-04,2022-03-04,株式会社内山商事,,株式会社,埼玉県,川口市,中青木３丁目１番１６－９１６号グリーンコーポ川口,,11,203,3320032,,,,,,,2022-03-04,1,,,,,ウチヤマショウジ,0
2484,8030001147103,新規,0,2022-03-04,2022-03-04,株式会社ビジネスアソシエイツ,,株式会社,埼玉県,熊谷市,別府４丁目１５４番地４,,11,202,3600856,,,,,,,2022-03-04,1,,,,,ビジネスアソシエイツ,0
2485,8030001147111,新規,0,2022-03-04,2022-03-04,株式会社金城電機,,株式会社,埼玉県,川越市,旭町３丁目２９番地２２,,11,201,3501126,,,,,,,2022-03-04,1,,,,,キンジョウデンキ,0
2486,8030001147128,新規,0,2022-03-04,2022-03-04,株式会社ｉｓｔ,,株式会社,埼玉県,深谷市,小前田１６４７番地１,,11,218,3691246,,,,,,,2022-03-04,1,,,,,イスト,0
2487,8030001147136,新規,0,2022-03-04,2022-03-04,株式会社ｗｏｏｄｓｍａｒｔ,,株式会社,埼玉県,上尾市,大字上１１２４－３,,11,219,3620001,,,,,,,2022-03-04,1,,,,,ウッズマート,0
2495,8030003018970,新規,0,2022-03-04,2022-03-04,和根合同会社,,合同会社,埼玉県,桶川市,南１丁目８番６号融興ビル４０８号,,11,231,3630015,,,,,,,2022-03-04,1,,,,,ワコン,0
2496,8030005020743,新規,0,2022-03-04,2022-03-04,一般社団法人埼玉グリーンエネルギー普及協会,,その他の設立登記法人,埼玉県,さいたま市大宮区,高鼻町２丁目１番１,,11,103,3300803,,,,,,,2022-03-04,1,,,,,サイタマグリーンエネルギーフキュウキョウカイ,0
2507,8040001122435,新規,0,2022-03-04,2022-03-04,ナガイ工業株式会社,,株式会社,千葉県,我孫子市,南新木１丁目２９番地の１４,,12,222,2701119,,,,,,,2022-03-04,1,,,,,ナガイコウギョウ,0
2508,8040001122451,新規,0,2022-03-04,2022-03-04,千葉工業所株式会社,,株式会社,千葉県,習志野市,屋敷４丁目３番１－３３５号,,12,216,2750004,,,,,,,2022-03-04,1,,,,,チバコウギョウショ,0
2509,8040001122476,新規,0,2022-03-04,2022-03-04,株式会社ＫＧＣ,,株式会社,千葉県,柏市,塚崎８９７ー１２ー１０１,,12,217,2770923,,,,,,,2022-03-04,1,,,,,ケイジーシー,0
2510,8040001122484,新規,0,2022-03-04,2022-03-04,松千代不動産株式会社,,株式会社,千葉県,君津市,泉５０２番地３,,12,225,2991112,,,,,,,2022-03-04,1,,,,,マツチヨフドウサン,0
2511,8040001122492,新規,0,2022-03-04,2022-03-04,株式会社八仙測量,,株式会社,千葉県,白井市,根１７２６番地の４ヴィラ西白井Ｂ号,,12,232,2701431,,,,,,,2022-03-04,1,,,,,ハッセンソクリョウ,0
2515,8040003019605,新規,0,2022-03-04,2022-03-04,合同会社ＫＳ工業,,合同会社,千葉県,銚子市,上野町１８６－２２,,12,202,2880805,,,,,,,2022-03-04,1,,,,,ケーエスコウギョウ,0
2516,8040003019613,新規,0,2022-03-04,2022-03-04,イーグル合同会社,,合同会社,千葉県,流山市,南流山８丁目３番地の１３第５千代田マンション２０６,,12,220,2700163,,,,,,,2022-03-04,1,,,,,イーグル,0
2517,8040003019621,新規,0,2022-03-04,2022-03-04,合同会社Ｅ・Ｙ・Ｕ,,合同会社,千葉県,千葉市花見川区,幕張本郷５丁目１５番４－２０２号,,12,102,2620033,,,,,,,2022-03-04,1,,,,,イーワイユー,0
2521,8060001034620,新規,0,2022-03-04,2022-03-04,ｓｕｎｗｏｒｋｓ株式会社,,株式会社,栃木県,那須郡那須町,大字芦野２６２３番地,,09,407,3293443,,,,,,,2022-03-04,1,,,,,サンワークス,0
2522,8060001034629,新規,0,2022-03-04,2022-03-04,株式会社メゾンドミューズ,,株式会社,栃木県,栃木市,寄居町３４０,,09,203,3280005,,,,,,,2022-03-04,1,,,,,メゾンドミューズ,0
2523,8060001034637,新規,0,2022-03-04,2022-03-04,株式会社晃大造園土木,,株式会社,栃木県,下野市,緑２丁目１３番地３,,09,216,3290433,,,,,,,2022-03-04,1,,,,,コウダイゾウエンドボク,0
2532,8080101023141,新規,0,2022-03-04,2022-03-04,株式会社甲寅,,株式会社,静岡県,沼津市,大手町５丁目７番５号つるかめ仲見世ビル３階‐３０１,,22,203,4100801,,,,,,,2022-03-04,1,,,,,コウボクノトラ,0
2536,8080405007435,新規,0,2022-03-04,2022-03-04,一般社団法人秋葉サカキの杜プロジェクト,,その他の設立登記法人,静岡県,浜松市天竜区,春野町宮川１７０６番地,,22,137,4370604,,,,,,,2022-03-04,1,,,,,アキハサカキノモリプロジェクト,0
2537,8090001017457,新規,0,2022-03-04,2022-03-04,株式会社ベジフードデザイン,,株式会社,山梨県,甲府市,中央１丁目１番地６号,,19,201,4000032,,,,,,,2022-03-04,1,,,,,ベジフードデザイン,0
2538,8090003002052,新規,0,2022-03-04,2022-03-04,合同会社金正の会,,合同会社,山梨県,富士吉田市,上暮地１丁目２番５号,,19,202,4030001,,,,,,,2022-03-04,1,,,,,キンセイノカイ,0
2547,8100001035119,新規,0,2022-03-04,2022-03-04,株式会社ｎａｔｕｒａ　Ａｓａｍａｋｏｊｉ,,株式会社,長野県,北佐久郡御代田町,大字馬瀬口４５１番地６アンベリール１－Ａ,,20,323,3890207,,,,,,,2022-03-04,1,,,,,ナチュラアサマコウジ,0
2548,8100003006431,新規,0,2022-03-04,2022-03-04,合同会社安曇野,,合同会社,長野県,安曇野市,豊科４４７４番地３,,20,220,3998205,,,,,,,2022-03-04,1,,,,,アヅミノ,0
2549,8110001036479,新規,0,2022-03-04,2022-03-04,希ＪＡＰＡＮ株式会社,,株式会社,新潟県,長岡市,表町４丁目４番地３号３Ｆ,,15,202,9400071,,,,,,,2022-03-04,1,,,,,ノゾミジャパン,0
2550,8110005016766,新規,0,2022-03-04,2022-03-04,一般社団法人にいがた子育て世代を応援する会,,その他の設立登記法人,新潟県,三条市,荒町２丁目２３番１０号シコービル３階２号室,,15,204,9550083,,,,,,,2022-03-04,1,,,,,ニイガタコソダテセダイヲオウエンスルカイ,0
2561,8120001244072,新規,0,2022-03-04,2022-03-04,株式会社ＡＹファーム,,株式会社,大阪府,大阪市西区,江戸堀３丁目６番２５号,,27,106,5500002,,,,,,,2022-03-04,1,,,,,エイワイファーム,0
2562,8120001244155,新規,0,2022-03-04,2022-03-04,株式会社ＬＢ,,株式会社,大阪府,大阪市都島区,中野町３丁目８番１５号２Ｆ,,27,102,5340027,,,,,,,2022-03-04,1,,,,,エルビー,0
2563,8120001244205,新規,0,2022-03-04,2022-03-04,株式会社グランリンク,,株式会社,大阪府,大阪市福島区,福島４丁目６番３５号４０４,,27,103,5530003,,,,,,,2022-03-04,1,,,,,グランリンク,0
2564,8120001244221,新規,0,2022-03-04,2022-03-04,株式会社ＨＡＲＩＳＴＡ,,株式会社,大阪府,大阪市平野区,加美北９丁目１４番２号,,27,126,5470001,,,,,,,2022-03-04,1,,,,,ハリスタ,0
2565,8120001244262,新規,0,2022-03-04,2022-03-04,ＮＡＤＯ株式会社,,株式会社,大阪府,大阪市淀川区,宮原１丁目１９－２３ステュディオ新御堂９１４,,27,123,5320003,,,,,,,2022-03-04,1,,,,,ナド,0
2567,8120003021230,新規,0,2022-03-04,2022-03-04,合同会社トリアヴェロス・キャピタル,,合同会社,大阪府,大阪市中央区,船越町１丁目６番６－１００２号,,27,128,5400036,,,,,,,2022-03-04,1,,,,,トリアヴェロスキャピタル,0
2569,8120101065146,新規,0,2022-03-04,2022-03-04,スリーピースロジ株式会社,,株式会社,大阪府,堺市美原区,小平尾８３５番地１,,27,147,5870021,,,,,,,2022-03-04,1,,,,,スリーピースロジ,0
2570,8120101065154,新規,0,2022-03-04,2022-03-04,株式会社ＣＬＥＡＲ,,株式会社,大阪府,堺市堺区,緑ヶ丘北町２丁３番４号,,27,141,5900806,,,,,,,2022-03-04,1,,,,,クリアー,0
2571,8120101065162,新規,0,2022-03-04,2022-03-04,ＡＣＥ．１０株式会社,,株式会社,大阪府,藤井寺市,小山９丁目７－３,,27,226,5830033,,,,,,,2022-03-04,1,,,,,エーステン,0
2572,8120101065170,新規,0,2022-03-04,2022-03-04,株式会社ＴＰＪ,,株式会社,大阪府,和泉市,下宮町２０１番地の３,,27,219,5941121,,,,,,,2022-03-04,1,,,,,ティーピージェイ,0
2573,8120103004589,新規,0,2022-03-04,2022-03-04,合同会社ＣＶＫプランニング,,合同会社,大阪府,堺市東区,引野町１丁８６番地２３,,27,143,5998104,,,,,,,2022-03-04,1,,,,,シーブイケープランニング,0
2574,8120103004597,新規,0,2022-03-04,2022-03-04,合同会社ぽぽたん,,合同会社,大阪府,堺市西区,浜寺南町２丁１２５番地１２,,27,144,5928344,,,,,,,2022-03-04,1,,,,,ポポタン,0
2576,8120901045644,新規,0,2022-03-04,2022-03-04,株式会社ＬＩＢＥＣＫ,,株式会社,大阪府,摂津市,東別府４丁目８番１９－４０７号,,27,224,5660042,,,,,,,2022-03-04,1,,,,,リベック,0
2577,8120901045677,新規,0,2022-03-04,2022-03-04,株式会社Ｆｒｅｅ,,株式会社,大阪府,三島郡島本町,百山５番２４号,,27,301,6180021,,,,,,,2022-03-04,1,,,,,フリー,0
2582,8122001035633,新規,0,2022-03-04,2022-03-04,株式会社大伸電鍍工業所,,株式会社,大阪府,東大阪市,高井田中４丁目８番２７号,,27,227,5770065,,,,,,,2022-03-04,1,,,,,ダイシンデントコウギョウショ,0
2584,8122003002284,新規,0,2022-03-04,2022-03-04,合同会社福のて,,合同会社,大阪府,東大阪市,大蓮東５丁目１４番２３号,,27,227,5770824,,,,,,,2022-03-04,1,,,,,フクノテ,0
2588,8130001071284,新規,0,2022-03-04,2022-03-04,Ｂｒｉｇｈｔ　Ｆｕｔｕｒｅ　Ｃｏｎｓｕｌｔｉｎｇ株式会社,,株式会社,京都府,京都市左京区,下鴨北芝町３０番地４,,26,103,6060842,,,,,,,2022-03-04,1,,,,,ブライトフューチャーコンサルティング,0
2599,8140001125080,新規,0,2022-03-04,2022-03-04,株式会社Ｒｏｓｅｍａｒｙ,,株式会社,兵庫県,宝塚市,栄町１丁目１１－１,,28,214,6650845,,,,,,,2022-03-04,1,,,,,ローズマリー,0
2600,8140001125097,新規,0,2022-03-04,2022-03-04,株式会社竜門建設,,株式会社,兵庫県,姫路市,白浜町宇佐崎中１丁目１５４番地１,,28,201,6728021,,,,,,,2022-03-04,1,,,,,リュウモンケンセツ,0
2601,8140001125106,新規,0,2022-03-04,2022-03-04,株式会社放示設計,,株式会社,兵庫県,川西市,中央町１３番８号,,28,217,6660016,,,,,,,2022-03-04,1,,,,,ホウジセッケイ,0
2602,8140001125114,新規,0,2022-03-04,2022-03-04,株式会社ＡＷＥＳＯＭＥ　ＬＩＦＥ　ＣＯＭＰＡＮＹ,,株式会社,兵庫県,明石市,川崎町２番１１－１１１９号,,28,203,6730014,,,,,,,2022-03-04,1,,,,,オーサムライフカンパニー,0
2603,8140001125122,新規,0,2022-03-04,2022-03-04,株式会社アイティワイ,,株式会社,兵庫県,明石市,西明石町２丁目５番６号,,28,203,6730011,,,,,,,2022-03-04,1,,,,,アイティワイ,0
2604,8140003017417,新規,0,2022-03-04,2022-03-04,合同会社ソムリエセツコ,,合同会社,兵庫県,姫路市,大塩町８５３番地５,,28,201,6710101,,,,,,,2022-03-04,1,,,,,ソムリエセツコ,0
2609,8150001025387,新規,0,2022-03-04,2022-03-04,株式会社Ｐｅａｃｅ＆Ｄａ－ｙ,,株式会社,奈良県,大和郡山市,植槻町３番５０号,,29,203,6391005,,,,,,,2022-03-04,1,,,,,ピースアンドダーワイ,0
2611,8160001024017,新規,0,2022-03-04,2022-03-04,株式会社緑研,,株式会社,滋賀県,大津市,山百合の丘２１－４０,,25,201,5200357,,,,,,,2022-03-04,1,,,,,リョッケン,0
2622,8180001150091,新規,0,2022-03-04,2022-03-04,株式会社ロジスタ,,株式会社,愛知県,稲沢市,増田北町１０９番地５,,23,220,4928425,,,,,,,2022-03-04,1,,,,,ロジスタ,0
2623,8180001150199,新規,0,2022-03-04,2022-03-04,株式会社ａｌｂｅｒｏ,,株式会社,愛知県,半田市,板山町６丁目９２番地の５,,23,205,4750936,,,,,,,2022-03-04,1,,,,,アルベロ,0
2624,8180001150208,新規,0,2022-03-04,2022-03-04,株式会社ハウスリノベーション名古屋,,株式会社,愛知県,名古屋市守山区,大森５丁目２２１３番地,,23,113,4630021,,,,,,,2022-03-04,1,,,,,ハウスリノベーションナゴヤ,0
2625,8180001150216,新規,0,2022-03-04,2022-03-04,Ｊａｐａｎ　Ｐｕｒｃｈａｓｅ株式会社,,株式会社,愛知県,愛知郡東郷町,白鳥２丁目１６番地１８,,23,302,4700155,,,,,,,2022-03-04,1,,,,,ジャパンパーチェス,0
2626,8180001150298,新規,0,2022-03-04,2022-03-04,株式会社Ｓｋｙ’ｓ　Ｔｈｅ　Ｌｉｍｉｔ,,株式会社,愛知県,津島市,昭和町１丁目２５番地,,23,208,4960809,,,,,,,2022-03-04,1,,,,,スカイズザリミット,0
2631,8180003023510,新規,0,2022-03-04,2022-03-04,合同会社ＨＡＲＵ,,合同会社,愛知県,名古屋市中区,栄１丁目２番３号プラウドタワー名古屋栄３０８号,,23,106,4600008,,,,,,,2022-03-04,1,,,,,ハル,0
2632,8180003023584,新規,0,2022-03-04,2022-03-04,合同会社家スタＤＡＹ,,合同会社,愛知県,名古屋市千種区,京命１丁目１１番２３号,,23,101,4640004,,,,,,,2022-03-04,1,,,,,イエスタデイ,0
2635,8180305009307,新規,0,2022-03-04,2022-03-04,一般社団法人西三河老人ホーム紹介センター,,その他の設立登記法人,愛知県,岡崎市,能見通１丁目６１番地ウメムラビル１Ｆ,,23,202,4440073,,,,,,,2022-03-04,1,,,,,ニシミカワロウジンホームショウカイセンター,0
2637,8210003001470,新規,0,2022-03-04,2022-03-04,合同会社エクシーズ,,合同会社,福井県,越前市,下四目町第９号６番地の９,,18,209,9150887,,,,,,,2022-03-04,1,,,,,エクシーズ,0
2638,8220001024712,新規,0,2022-03-04,2022-03-04,株式会社小西グリーンサービス,,株式会社,石川県,野々市市,新庄５丁目５３番地,,17,212,9218824,,,,,,,2022-03-04,1,,,,,コニシグリーンサービス,0
2639,8220001024720,新規,0,2022-03-04,2022-03-04,株式会社ｅｎｓｏ,,株式会社,石川県,金沢市,卯辰町チ１６番地１７,,17,201,9200832,,,,,,,2022-03-04,1,,,,,エンソウ,0
2640,8220001024729,新規,0,2022-03-04,2022-03-04,株式会社ふらっとビレッジ,,株式会社,石川県,金沢市,金石北１丁目１番４５号,,17,201,9200338,,,,,,,2022-03-04,1,,,,,フラットビレッジ,0
2641,8230001019265,新規,0,2022-03-04,2022-03-04,株式会社ＤＡＮ,,株式会社,富山県,富山市,太田２２１１番地１,,16,201,9398048,,,,,,,2022-03-04,1,,,,,ダン,0
2650,8250001019437,新規,0,2022-03-04,2022-03-04,株式会社まる福フーズ,,株式会社,山口県,下関市,長府金屋町２番１７号,,35,201,7520959,,,,,,,2022-03-04,1,,,,,マルフクフーズ,0
2651,8250001019445,新規,0,2022-03-04,2022-03-04,株式会社要会,,株式会社,山口県,山陽小野田市,大字郡３１９１番地１,,35,216,7570002,,,,,,,2022-03-04,1,,,,,カナメカイ,0
2655,8260001036588,新規,0,2022-03-04,2022-03-04,株式会社ＲｅｖｅＣｏｎｎｅｃｔ,,株式会社,岡山県,岡山市中区,乙多見２６番地４,,33,102,7038228,,,,,,,2022-03-04,1,,,,,レイヴコネクト,0
2656,8260001036613,新規,0,2022-03-04,2022-03-04,株式会社トラストウィン,,株式会社,岡山県,岡山市北区,吉備津１９２１番地１,,33,101,7011341,,,,,,,2022-03-04,1,,,,,トラストウィン,0
2657,8260005011042,新規,0,2022-03-04,2022-03-04,社会福祉法人奥津広済会,,その他の設立登記法人,岡山県,苫田郡鏡野町,杉７５０番地４,,33,606,7080424,,,,,,,2022-03-04,1,,,,,オクツコウサイカイ,0
2665,8290001096605,新規,0,2022-03-04,2022-03-04,株式会社ｔｒｉｐｌｅ,,株式会社,福岡県,福岡市中央区,今泉１丁目２番３０－１５０２号,,40,133,8100021,,,,,,,2022-03-04,1,,,,,トリプル,0
2666,8290001096613,新規,0,2022-03-04,2022-03-04,株式会社ＧＩＥＳ,,株式会社,福岡県,福岡市中央区,六本松４丁目３番１１－６１５号ビジネス・ワン六本松,,40,133,8100044,,,,,,,2022-03-04,1,,,,,ジーズ,0
2667,8290001096679,新規,0,2022-03-04,2022-03-04,株式会社クラトス,,株式会社,福岡県,福岡市中央区,春吉２丁目１８番６号,,40,133,8100003,,,,,,,2022-03-04,1,,,,,クラトス,0
2668,8290003012221,新規,0,2022-03-04,2022-03-04,合同会社ロイヤルコネクト,,合同会社,福岡県,糟屋郡粕屋町,大字仲原２６２４番地１－７０５号,,40,349,8112304,,,,,,,2022-03-04,1,,,,,ロイヤルコネクト,0
2669,8290801028294,新規,0,2022-03-04,2022-03-04,株式会社北健,,株式会社,福岡県,遠賀郡岡垣町,大字三吉５７０番地５７,,40,383,8114205,,,,,,,2022-03-04,1,,,,,キタケン,0
2670,8290801028311,新規,0,2022-03-04,2022-03-04,株式会社ベジＮＥＯ,,株式会社,福岡県,北九州市若松区,浜町２丁目１２番２０－１１０１号,,40,103,8080024,,,,,,,2022-03-04,1,,,,,ベジネオ,0
2673,8320001018943,新規,0,2022-03-04,2022-03-04,クリアジャパン株式会社,,株式会社,大分県,中津市,豊田町６番地２０,,44,203,8710058,,,,,,,2022-03-04,1,,,,,クリアジャパン,0
2674,8330001029510,新規,0,2022-03-04,2022-03-04,トップミル株式会社,,株式会社,熊本県,菊池郡菊陽町,大字原水１１４７番地４アルカディアＡ１０１号,,43,404,8691102,,,,,,,2022-03-04,1,,,,,トップミル,0
2682,8340001024535,新規,0,2022-03-04,2022-03-04,株式会社Ｔｓｕｎ,,株式会社,鹿児島県,鹿児島市,中央町２４－３７,,46,201,8900053,,,,,,,2022-03-04,1,,,,,ツン,0
2683,8340001024551,新規,0,2022-03-04,2022-03-04,株式会社笑喜,,株式会社,鹿児島県,鹿児島市,西坂元町４９番１４号,,46,201,8920863,,,,,,,2022-03-04,1,,,,,ショウキ,0
2687,8350003004039,新規,0,2022-03-04,2022-03-04,合同会社九州オールテック,,合同会社,宮崎県,西都市,大字右松２３２６番地,,45,208,8810003,,,,,,,2022-03-04,1,,,,,キュウシュウオールテック,0
2688,8360001030060,新規,0,2022-03-04,2022-03-04,株式会社フォーウィンズ倶楽部,,株式会社,沖縄県,島尻郡南風原町,字照屋２７７番地９Ａｓｕ・Ｔｉ－ＤＡ１０３号室,,47,350,9011116,,,,,,,2022-03-04,1,,,,,フォーウィンズクラブ,0
2689,8360001030069,新規,0,2022-03-04,2022-03-04,株式会社ＤＸフィッシャリー,,株式会社,沖縄県,那覇市,若狭２丁目１３番１３号,,47,201,9000031,,,,,,,2022-03-04,1,,,,,ディーエックスフィッシャリー,0
2690,8360003011843,新規,0,2022-03-04,2022-03-04,合同会社あらしろ,,合同会社,沖縄県,豊見城市,字高安１５６番地,,47,212,9010242,,,,,,,2022-03-04,1,,,,,アラシロ,0
2692,8370003005605,新規,0,2022-03-04,2022-03-04,合同会社農笑,,合同会社,宮城県,栗原市,一迫柳目字曽根高田４６８番地,,04,213,9872309,,,,,,,2022-03-04,1,,,,,ノウエン,0
2694,8380001032609,新規,0,2022-03-04,2022-03-04,株式会社東会ＨＴｃｏｒｐｏｒａｔｉｏｎ,,株式会社,福島県,会津若松市,表町１番３４号,,07,202,9650831,,,,,,,2022-03-04,1,,,,,トウカイエイチティコーポレーション,0
2695,8380001032617,新規,0,2022-03-04,2022-03-04,株式会社安田サッシ,,株式会社,福島県,郡山市,喜久田町字上尾池５１番地の２９３,,07,203,9630551,,,,,,,2022-03-04,1,,,,,ヤスダサッシ,0
2696,8380001032633,新規,0,2022-03-04,2022-03-04,株式会社アデット,,株式会社,福島県,いわき市,葉山３丁目１８番地の２１,,07,204,9718187,,,,,,,2022-03-04,1,,,,,アデット,0
2702,8420001017753,新規,0,2022-03-04,2022-03-04,株式会社大湯工務店,,株式会社,青森県,弘前市,大字石川字中川原４３番地２,,02,202,0368124,,,,,,,2022-03-04,1,,,,,オオユコウムテン,0
2709,8430001086137,新規,0,2022-03-04,2022-03-04,株式会社ホープライズ,,株式会社,北海道,札幌市北区,屯田七条１０丁目６番６号,,01,102,0020857,,,,,,,2022-03-04,1,,,,,ホープライズ,0
2712,8430003013675,新規,0,2022-03-04,2022-03-04,合同会社親和技建,,合同会社,北海道,札幌市白石区,川下７４１番地１１９,,01,104,0030869,,,,,,,2022-03-04,1,,,,,シンワギケン,0
2714,8450001013634,新規,0,2022-03-04,2022-03-04,株式会社グッドケアシステム,,株式会社,北海道,旭川市,春光三条７丁目２９０番地,,01,204,0700873,,,,,,,2022-03-04,1,,,,,グッドケアシステム,0
2717,8460103001429,新規,0,2022-03-04,2022-03-04,合同会社ＴＳ,,合同会社,北海道,帯広市,西十六条南１丁目１０番９号,,01,207,0800026,,,,,,,2022-03-04,1,,,,,ティーエス,0
2723,8470005006418,新規,0,2022-03-04,2022-03-04,一般社団法人老後安心なかわサポート,,その他の設立登記法人,香川県,丸亀市,金倉町１４３２番地３,,37,202,7630053,,,,,,,2022-03-04,1,,,,,ロウゴアンシンナカワサポート,0
2737,9010001224869,新規,0,2022-03-04,2022-03-04,株式会社ＴｒｉＣｅｅ,,株式会社,東京都,中央区,日本橋１丁目１８－１４クローバー日本橋１１階,,13,102,1030027,,,,,,,2022-03-04,1,,,,,トリシー,0
2738,9010001224935,新規,0,2022-03-04,2022-03-04,株式会社Ｒｏｂｏｔ　Ｂａｎｋ,,株式会社,東京都,中央区,日本橋本石町２丁目１－１アスパ日本橋オフィス,,13,102,1030021,,,,,,,2022-03-04,1,,,,,ロボットバンク,0
2739,9010001224976,新規,0,2022-03-04,2022-03-04,株式会社ＦｉｎａｎｃｉａｌＡｃａｄｅｍｙ,,株式会社,東京都,千代田区,丸の内３丁目１番１号,,13,101,1000005,,,,,,,2022-03-04,1,,,,,ファイナンシャルアカデミー,0
2740,9010001225000,新規,0,2022-03-04,2022-03-04,株式会社テミスプロダクション,,株式会社,東京都,千代田区,一番町９番地１４ユニパリス一番町７０３号,,13,101,1020082,,,,,,,2022-03-04,1,,,,,テミスプロダクション,0
2744,9010005034661,新規,0,2022-03-04,2022-03-04,晴海一般社団法人,,その他の設立登記法人,東京都,千代田区,神田小川町３丁目２６番８号神田小川町三丁目ビル６階,,13,101,1010052,,,,,,,2022-03-04,1,,,,,ハルミ,0
2745,9010005034694,新規,0,2022-03-04,2022-03-04,ＤＨ小牧開発特定目的会社,,その他の設立登記法人,東京都,千代田区,飯田橋４丁目７番１号結和税理士法人内,,13,101,1020072,,,,,,,2022-03-04,1,,,,,ディエイチコマキカイハツ,0
2748,9010103001869,新規,0,2022-03-04,2022-03-04,ウェルパイン不動産投資合同会社,,合同会社,東京都,八王子市,みなみ野４丁目１２番５号,,13,201,1920916,,,,,,,2022-03-04,1,,,,,ウェルパインフドウサントウシ,0
2751,9010401165911,新規,0,2022-03-04,2022-03-04,株式会社グラント・インテリジェンス,,株式会社,東京都,港区,芝４丁目７番７号ビラ・アペックス田町７Ｆ,,13,103,1080014,,,,,,,2022-03-04,1,,,,,グラントインテリジェンス,0
2752,9010401165952,新規,0,2022-03-04,2022-03-04,株式会社コスモス総合研究所,,株式会社,東京都,港区,麻布十番２丁目２０番２－８０２号,,13,103,1060045,,,,,,,2022-03-04,1,,,,,コスモスソウゴウケンキュウジョ,0
2753,9010401165960,新規,0,2022-03-04,2022-03-04,株式会社Ｃｌｅａｔｅｌ,,株式会社,東京都,港区,南青山２丁目２番１５号,,13,103,1070062,,,,,,,2022-03-04,1,,,,,クリーテル,0
2754,9010401165977,新規,0,2022-03-04,2022-03-04,株式会社ＫＩＮＧ,,株式会社,東京都,港区,港南４丁目１番１０号,,13,103,1080075,,,,,,,2022-03-04,1,,,,,キング,0
2755,9010403027226,新規,0,2022-03-04,2022-03-04,合同会社熊本ホテル運営,,合同会社,東京都,港区,虎ノ門５丁目１番４号,,13,103,1050001,,,,,,,2022-03-04,1,,,,,クマモトホテルウンエイ,0
2756,9010405020765,新規,0,2022-03-04,2022-03-04,医療法人社団マイクロデンタル,,その他の設立登記法人,東京都,港区,南青山２丁目７番２７号フォレストサイドＩ２階,00125867,13,103,1070062,,,,,,,2022-03-04,1,,,,,マイクロデンタル,0
2758,9010601060771,新規,0,2022-03-04,2022-03-04,和光アセットマネジメント株式会社,,株式会社,東京都,墨田区,緑２丁目８番９号,,13,107,1300021,,,,,,,2022-03-04,1,,,,,ワコウアセットマネジメント,0
2759,9010601060788,新規,0,2022-03-04,2022-03-04,アクシリオン株式会社,,株式会社,東京都,江東区,青海１丁目１番２０号,,13,108,1350064,,,,,,,2022-03-04,1,,,,,アクシリオン,0
2762,9010701042323,新規,0,2022-03-04,2022-03-04,品川ベース株式会社,,株式会社,東京都,品川区,豊町１丁目１番１１号,,13,109,1420042,,,,,,,2022-03-04,1,,,,,シナガワベース,0
2765,9010803004072,新規,0,2022-03-04,2022-03-04,Ｔｏｍｍｙ　Ｓｈａｒｉｎｇ合同会社,,合同会社,東京都,大田区,矢口２丁目２９－６,,13,111,1460093,,,,,,,2022-03-04,1,,,,,トミーシェアリング,0
2766,9010803004080,新規,0,2022-03-04,2022-03-04,合同会社ドリームプレイス,,合同会社,東京都,大田区,蒲田５丁目１５番２号サンプラザ蒲田駅前ビル７階,,13,111,1440052,,,,,,,2022-03-04,1,,,,,ドリームプレイス,0
2784,9011001146038,新規,0,2022-03-04,2022-03-04,株式会社ＢＢＢ,,株式会社,東京都,渋谷区,道玄坂２丁目１８－１１サンモール道玄坂２１８,,13,113,1500043,,,,,,,2022-03-04,1,,,,,ビービービー,0
2785,9011001146046,新規,0,2022-03-04,2022-03-04,株式会社ＲＯＯＴＳ,,株式会社,東京都,渋谷区,神宮前６丁目６番８－１０１号,,13,113,1500001,,,,,,,2022-03-04,1,,,,,ルーツ,0
2786,9011001146054,新規,0,2022-03-04,2022-03-04,株式会社コンパス,,株式会社,東京都,目黒区,碑文谷５丁目１９番１６号シャレー学芸大カワベ第１２－１０１,,13,110,1520003,,,,,,,2022-03-04,1,,,,,コンパス,0
2787,9011001146062,新規,0,2022-03-04,2022-03-04,株式会社ＣＨＡＲＧＥＳＰＯＴ　ＭＡＲＫＥＴＩＮＧ,,株式会社,東京都,渋谷区,神宮前６丁目３１－１５,,13,113,1500001,,,,,,,2022-03-04,1,,,,,チャージスポットマーケティング,0
2788,9011001146087,新規,0,2022-03-04,2022-03-04,株式会社ＰＹＡＬ　ｔｅｃｈｎｏｌｏｇｉｅｓ,,株式会社,東京都,渋谷区,宇田川町４０番１号,,13,113,1500042,,,,,,,2022-03-04,1,,,,,パイアルテクノロジーズ,0
2789,9011001146112,新規,0,2022-03-04,2022-03-04,株式会社トップリンクゲート,,株式会社,東京都,渋谷区,恵比寿１丁目８番１８号Ｋ－１ビル,,13,113,1500013,,,,,,,2022-03-04,1,,,,,トップリンクゲート,0
2799,9011105010164,新規,0,2022-03-04,2022-03-04,一般社団法人セッションハウス企画室,,その他の設立登記法人,東京都,新宿区,矢来町１５８番地３０１号室,,13,104,1620805,,,,,,,2022-03-04,1,,,,,セッションハウスキカクシツ,0
2800,9011201023689,新規,0,2022-03-04,2022-03-04,Ｇｌｏｂａｌ　Ａｓｉａ　Ｔｒａｄｅ株式会社,,株式会社,東京都,中野区,弥生町１丁目４３番１号２－Ｅ,,13,114,1640013,,,,,,,2022-03-04,1,,,,,グローバルアジアトレード,0
2803,9011505002455,新規,0,2022-03-04,2022-03-04,医療法人社団ＳＷＡＮ,,その他の設立登記法人,東京都,北区,王子４丁目２７番７号,,13,117,1140002,,,,,,,2022-03-04,1,,,,,スワン,0
2805,9011701025094,新規,0,2022-03-04,2022-03-04,株式会社Ｒｉｓｅ,,株式会社,東京都,江戸川区,西瑞江５丁目１５番地２,,13,123,1340015,,,,,,,2022-03-04,1,,,,,ライズ,0
2809,9011801040407,新規,0,2022-03-04,2022-03-04,株式会社ＭＳＣ,,株式会社,東京都,足立区,梅田４丁目９番１号,,13,121,1230851,,,,,,,2022-03-04,1,,,,,エムエスシー,0
2811,9012401038931,新規,0,2022-03-04,2022-03-04,株式会社ミラケン,,株式会社,東京都,府中市,西府町２丁目１４番地の１,,13,206,1830031,,,,,,,2022-03-04,1,,,,,ミラケン,0
2812,9012405004707,新規,0,2022-03-04,2022-03-04,医療法人社団かわせみ会,,その他の設立登記法人,東京都,狛江市,和泉本町３丁目２７番１０号,,13,219,2010003,,,,,,,2022-03-04,1,,,,,カワセミカイ,0
2814,9012703002412,新規,0,2022-03-04,2022-03-04,松本合同会社,,合同会社,東京都,西東京市,ひばりが丘北２丁目７－１２－１０３号室,,13,229,2020002,,,,,,,2022-03-04,1,,,,,マツモト,0
2817,9012803002717,新規,0,2022-03-04,2022-03-04,合同会社くにたち企画,,合同会社,東京都,国立市,東４丁目１２番地の９,,13,215,1860002,,,,,,,2022-03-04,1,,,,,クニタチキカク,0
2819,9013301048756,新規,0,2022-03-04,2022-03-04,株式会社ディープ・プランニング,,株式会社,東京都,豊島区,南大塚１丁目６０番２０号,,13,116,1700005,,,,,,,2022-03-04,1,,,,,ディーププランニング,0
2825,9020001145453,新規,0,2022-03-04,2022-03-04,株式会社ユウダチ,,株式会社,神奈川県,横浜市鶴見区,梶山２丁目２９番１４号,,14,101,2300072,,,,,,,2022-03-04,1,,,,,ユウダチ,0
2826,9020001145461,新規,0,2022-03-04,2022-03-04,株式会社せいじつリアルエステート,,株式会社,神奈川県,川崎市幸区,幸町４丁目３７番地幸徳ビル４０１号室,,14,132,2120011,,,,,,,2022-03-04,1,,,,,セイジツリアルエステート,0
2827,9020001145478,新規,0,2022-03-04,2022-03-04,株式会社サンケイエンジニアリングＨＤ,,株式会社,神奈川県,横浜市港北区,新横浜２丁目１４番２号,,14,109,2220033,,,,,,,2022-03-04,1,,,,,サンケイエンジニアリングホールディングス,0
2828,9020001145511,新規,0,2022-03-04,2022-03-04,株式会社ｕｎｉｃｏ,,株式会社,神奈川県,川崎市川崎区,砂子１丁目５番地１８,,14,131,2100006,,,,,,,2022-03-04,1,,,,,ユニコ,0
2829,9020001145528,新規,0,2022-03-04,2022-03-04,株式会社エン,,株式会社,神奈川県,横浜市南区,中村町１丁目４３,,14,105,2320033,,,,,,,2022-03-04,1,,,,,エン,0
2832,9020003021388,新規,0,2022-03-04,2022-03-04,合同会社Ｄｉｇｉｔａｌ　Ｏｒｃｈｅｓｔｒａｔｉｏｎ,,合同会社,神奈川県,川崎市麻生区,はるひ野５丁目１８番９号,,14,137,2150036,,,,,,,2022-03-04,1,,,,,デジタルオーケストレーション,0
2833,9020003021396,新規,0,2022-03-04,2022-03-04,Ｃａｃｈｉｎｎａｔｅ合同会社,,合同会社,神奈川県,横浜市瀬谷区,瀬谷２丁目５１番地１３坂口ビル２０２,,14,114,2460031,,,,,,,2022-03-04,1,,,,,カーカネイト,0
2834,9020003021405,新規,0,2022-03-04,2022-03-04,合同会社ＣＭＹＫ,,合同会社,神奈川県,川崎市中原区,井田３丁目３２－９,,14,133,2110035,,,,,,,2022-03-04,1,,,,,シーエムワイケー,0
2836,9021001075293,新規,0,2022-03-04,2022-03-04,株式会社ジュディー,,株式会社,神奈川県,小田原市,成田２８２番地の８,,14,206,2500862,,,,,,,2022-03-04,1,,,,,ジュディー,0
2843,9030001147028,新規,0,2022-03-04,2022-03-04,株式会社ワイズホーム,,株式会社,埼玉県,越谷市,東越谷６丁目６番地４トレフルハウスＤ棟,,11,222,3430023,,,,,,,2022-03-04,1,,,,,ワイズホーム,0
2844,9030001147044,新規,0,2022-03-04,2022-03-04,株式会社広瀬建築,,株式会社,埼玉県,北本市,中丸３丁目９９番地２,,11,233,3640013,,,,,,,2022-03-04,1,,,,,ヒロセケンチク,0
2845,9030001147052,新規,0,2022-03-04,2022-03-04,株式会社浦玉電飾工業,,株式会社,埼玉県,戸田市,大字新曽１８１４番地の１,,11,224,3350021,,,,,,,2022-03-04,1,,,,,ウラタマデンショクコウギョウ,0
2846,9030001147060,新規,0,2022-03-04,2022-03-04,株式会社アイユウ工務店,,株式会社,埼玉県,東松山市,美原町２丁目１２番地４,,11,212,3550010,,,,,,,2022-03-04,1,,,,,アイユウコウムテン,0
2847,9030001147093,新規,0,2022-03-04,2022-03-04,株式会社ｋｏｔｏ．ｋｏｔｏ．,,株式会社,埼玉県,狭山市,大字水野６００番地,,11,215,3501317,,,,,,,2022-03-04,1,,,,,コトコト,0
2848,9030001147110,新規,0,2022-03-04,2022-03-04,キラキラ株式会社,,株式会社,埼玉県,新座市,東北２丁目２９番１１号石塚ビル３階,,11,230,3520001,,,,,,,2022-03-04,1,,,,,キラキラ,0
2855,9030003018937,新規,0,2022-03-04,2022-03-04,安泰合同会社,,合同会社,埼玉県,東松山市,大字新郷３７１－６,,11,212,3550071,,,,,,,2022-03-04,1,,,,,アンタイ,0
2859,9040001122459,新規,0,2022-03-04,2022-03-04,株式会社ケーライフ,,株式会社,千葉県,千葉市若葉区,原町９２６番地５,,12,104,2640034,,,,,,,2022-03-04,1,,,,,ケーライフ,0
2860,9040001122483,新規,0,2022-03-04,2022-03-04,株式会社Ｙ－Ｔｉｅｓ,,株式会社,千葉県,柏市,東中新宿４丁目７番１－１０４号,,12,217,2770061,,,,,,,2022-03-04,1,,,,,タイズ,0
2861,9040001122500,新規,0,2022-03-04,2022-03-04,株式会社ＴＳＣ,,株式会社,千葉県,成田市,加良部２丁目２番地１（１６棟４０１号）,,12,211,2860036,,,,,,,2022-03-04,1,,,,,ティーエスシー,0
2862,9040001122525,新規,0,2022-03-04,2022-03-04,アーム検査株式会社,,株式会社,千葉県,木更津市,岩根４丁目６番２９号,,12,206,2920061,,,,,,,2022-03-04,1,,,,,アームケンサ,0
2863,9040001122541,新規,0,2022-03-04,2022-03-04,株式会社鳳鳴堂,,株式会社,千葉県,流山市,市野谷２００－２,,12,220,2700137,,,,,,,2022-03-04,1,,,,,ホウメイドウ,0
2864,9040003019604,新規,0,2022-03-04,2022-03-04,合同会社ノムラ,,合同会社,千葉県,野田市,岡田２８０番地２２,,12,208,2700223,,,,,,,2022-03-04,1,,,,,ノムラ,0
2865,9040003019612,新規,0,2022-03-04,2022-03-04,大一サービス合同会社,,合同会社,千葉県,松戸市,高塚新田２３４番地の１７,,12,207,2702222,,,,,,,2022-03-04,1,,,,,ダイイチサービス,0
2866,9040003019620,新規,0,2022-03-04,2022-03-04,合同会社ＰＴ,,合同会社,千葉県,船橋市,本町６丁目１８－１９第３山中ビル４０１号室,,12,204,2730005,,,,,,,2022-03-04,1,,,,,ピーティー,0
2867,9050001050717,新規,0,2022-03-04,2022-03-04,株式会社安重,,株式会社,茨城県,鹿嶋市,大字浜津賀１１９５番地１,,08,222,3112203,,,,,,,2022-03-04,1,,,,,アンジュウ,0
2868,9050001050741,新規,0,2022-03-04,2022-03-04,株式会社Ｐｅａｃｅ　ｇｒｏｕｐ,,株式会社,茨城県,土浦市,桜町１丁目６番４号福田ビル１Ｆ,,08,203,3000037,,,,,,,2022-03-04,1,,,,,ピースグループ,0
2872,9060001034636,新規,0,2022-03-04,2022-03-04,株式会社アドア,,株式会社,栃木県,宇都宮市,今泉２丁目７番８号,,09,201,3210966,,,,,,,2022-03-04,1,,,,,アドア,0
2874,9060003003969,新規,0,2022-03-04,2022-03-04,ｍｉｎｄｓ．ｃｒｅａｔｅ合同会社,,合同会社,栃木県,足利市,堀込町３００５番地,,09,202,3260831,,,,,,,2022-03-04,1,,,,,マインズクリエイト,0
2875,9070001039015,新規,0,2022-03-04,2022-03-04,株式会社レッカー白沢,,株式会社,群馬県,沼田市,白沢町上古語父７５１番地４,,10,206,3780126,,,,,,,2022-03-04,1,,,,,,0
2876,9070001039023,新規,0,2022-03-04,2022-03-04,株式会社ＫＲＳ,,株式会社,群馬県,館林市,諏訪町１０１３番地の４,,10,207,3740036,,,,,,,2022-03-04,1,,,,,ケーアールエス,0
2877,9070003004405,新規,0,2022-03-04,2022-03-04,合同会社昇和ホールディングス,,合同会社,群馬県,館林市,堀工町１０９５番地の２,,10,207,3740033,,,,,,,2022-03-04,1,,,,,ショウワホールディングス,0
2882,9080401025646,新規,0,2022-03-04,2022-03-04,株式会社さなる塗装,,株式会社,静岡県,浜松市西区,伊左地町２６３８番地の３,,22,133,4311111,,,,,,,2022-03-04,1,,,,,サナルトソウ,0
2890,9100001035118,新規,0,2022-03-04,2022-03-04,工商エレクトロ株式会社,,株式会社,長野県,上伊那郡箕輪町,大字中箕輪１２６６８番地１,,20,383,3994601,,,,,,,2022-03-04,1,,,,,コウショウエレクトロ,0
2891,9100001035126,新規,0,2022-03-04,2022-03-04,株式会社ＴＯＮＤＯＫＯＲＯ,,株式会社,長野県,中野市,大字小田中２８６番地,,20,211,3830037,,,,,,,2022-03-04,1,,,,,トンドコロ,0
2895,9110001036478,新規,0,2022-03-04,2022-03-04,松本工業株式会社,,株式会社,新潟県,上越市,大和４丁目８番２２号,,15,222,9430861,,,,,,,2022-03-04,1,,,,,マツモトコウギョウ,0
2896,9110001036486,新規,0,2022-03-04,2022-03-04,株式会社サンエッジ,,株式会社,新潟県,新潟市中央区,関新２丁目１番７３号新潟ダイカンプラザ遊学館３１１,,15,103,9518141,,,,,,,2022-03-04,1,,,,,サンエッジ,0
2898,9110005016765,新規,0,2022-03-04,2022-03-04,一般社団法人燦々七拍子,,その他の設立登記法人,新潟県,見附市,今町１丁目１５番１７号,,15,211,9540111,,,,,,,2022-03-04,1,,,,,,0
2911,9120001244179,新規,0,2022-03-04,2022-03-04,ＹＥエンターテイメント株式会社,,株式会社,大阪府,大阪市福島区,福島１丁目４番４０号ＪＢＳＬ梅田ビル２０１号室,,27,103,5530003,,,,,,,2022-03-04,1,,,,,ワイイーエンターテイメント,0
2912,9120001244212,新規,0,2022-03-04,2022-03-04,ＡＲＫ　Ｎｏ．９株式会社,,株式会社,大阪府,大阪市住之江区,西加賀屋１丁目２番５６－１０１４号,,27,125,5590016,,,,,,,2022-03-04,1,,,,,アークナンバーナイン,0
2913,9120001244220,新規,0,2022-03-04,2022-03-04,株式会社ＪＵＩＣＥＡＮＤＳＥＡ,,株式会社,大阪府,大阪市北区,梅田１丁目１番３号大阪駅前第３ビル,,27,127,5300001,,,,,,,2022-03-04,1,,,,,ジュウサンドシイ,0
2914,9120001244237,新規,0,2022-03-04,2022-03-04,植田ホールディングス株式会社,,株式会社,大阪府,枚方市,津田山手２丁目２番２０号,,27,210,5730128,,,,,,,2022-03-04,1,,,,,ウエダホールディングス,0
2918,9120003021238,新規,0,2022-03-04,2022-03-04,合同会社Ｆｌａｗｌｅｓｓ,,合同会社,大阪府,大阪市平野区,平野本町３丁目２番１１号,,27,126,5470044,,,,,,,2022-03-04,1,,,,,フロレス,0
2922,9120101065161,新規,0,2022-03-04,2022-03-04,株式会社Ｎ．ＳＹＳＴＥＭ,,株式会社,大阪府,阪南市,下出１０７番地の６辻エステート尾崎ビル１Ｆ,,27,232,5990202,,,,,,,2022-03-04,1,,,,,エヌシステム,0
2923,9120101065186,新規,0,2022-03-04,2022-03-04,株式会社ダイセプラント,,株式会社,大阪府,岸和田市,八阪町１丁目１３番９号,,27,202,5960049,,,,,,,2022-03-04,1,,,,,ダイセプラント,0
2926,9120901045668,新規,0,2022-03-04,2022-03-04,株式会社ＥＶＯ,,株式会社,大阪府,茨木市,郡３丁目１９番２号,,27,211,5670072,,,,,,,2022-03-04,1,,,,,エボ,0
2927,9120903004052,新規,0,2022-03-04,2022-03-04,合同会社ワンネス,,合同会社,大阪府,箕面市,森町中２丁目１８番１５号,,27,220,5630257,,,,,,,2022-03-04,1,,,,,ワンネス,0
2929,9122001035624,新規,0,2022-03-04,2022-03-04,版十印機株式会社,,株式会社,大阪府,東大阪市,楠根２丁目１２番６号,,27,227,5770006,,,,,,,2022-03-04,1,,,,,ハントインキ,0
2930,9122001035632,新規,0,2022-03-04,2022-03-04,アトシス株式会社,,株式会社,大阪府,東大阪市,昭和町９番１号１Ｆ,,27,227,5798046,,,,,,,2022-03-04,1,,,,,アトシス,0
2933,9122003002283,新規,0,2022-03-04,2022-03-04,吉田電機合同会社,,合同会社,大阪府,八尾市,西山本町３丁目１番１８号,,27,212,5810868,,,,,,,2022-03-04,1,,,,,ヨシダデンキ,0
2936,9130001071242,新規,0,2022-03-04,2022-03-04,株式会社Ｃｏｎｖａｌｌａｒｉａ,,株式会社,京都府,京都市上京区,今出川通烏丸東入相国寺門前町６９９番地２,,26,102,6020898,,,,,,,2022-03-04,1,,,,,コンヴァラリア,0
2937,9130001071259,新規,0,2022-03-04,2022-03-04,株式会社両丹金属,,株式会社,京都府,舞鶴市,字平小字小浦１５９５番地,,26,202,6250133,,,,,,,2022-03-04,1,,,,,リョウタンキンゾク,0
2938,9130003007789,新規,0,2022-03-04,2022-03-04,合同会社Ｒ＆Ｐ,,合同会社,京都府,京都市右京区,西京極長町３－１－２１７,,26,108,6150831,,,,,,,2022-03-04,1,,,,,アールアンドピー,0
2941,9140001125121,新規,0,2022-03-04,2022-03-04,株式会社アンティロープ,,株式会社,兵庫県,西宮市,小松西町２丁目３番１８号,,28,204,6638125,,,,,,,2022-03-04,1,,,,,アンティロープ,0
2942,9140001125154,新規,0,2022-03-04,2022-03-04,Ｗｅｌｌ－Ｗａｔｅｒ株式会社,,株式会社,兵庫県,三木市,平田２４番地７,,28,215,6730405,,,,,,,2022-03-04,1,,,,,ウェルウォーター,0
2943,9140001125162,新規,0,2022-03-04,2022-03-04,株式会社メイスａｎｄブレインズ,,株式会社,兵庫県,芦屋市,若葉町６番１－１８３２号,,28,206,6590041,,,,,,,2022-03-04,1,,,,,メイスアンドブレインズ,0
2944,9140001125179,新規,0,2022-03-04,2022-03-04,株式会社ＮＣグループ,,株式会社,兵庫県,神戸市中央区,浪花町５９番地,,28,110,6500035,,,,,,,2022-03-04,1,,,,,エヌシーグループ,0
2948,9150003002631,新規,0,2022-03-04,2022-03-04,合同会社インフィニ・プラス,,合同会社,奈良県,奈良市,南紀寺町３丁目３０７番地の１９,,29,201,6308303,,,,,,,2022-03-04,1,,,,,インフィニプラス,0
2949,9160001024032,新規,0,2022-03-04,2022-03-04,株式会社キンキホーム建物管理,,株式会社,滋賀県,大津市,一里山２丁目１８番１３号,,25,201,5202153,,,,,,,2022-03-04,1,,,,,キンキホームタテモノカンリ,0
2951,9170005006950,新規,0,2022-03-04,2022-03-04,一般社団法人日本ひと・まち・未来機構,,その他の設立登記法人,和歌山県,和歌山市,小松原通５丁目１５番地池尻テナント２０２号,,30,201,6408269,,,,,,,2022-03-04,1,,,,,ニホンヒトマチミライキコウ,0
2959,9180001150173,新規,0,2022-03-04,2022-03-04,株式会社アイエイチアール,,株式会社,愛知県,名古屋市天白区,一本松１丁目４０１番地,,23,116,4680008,,,,,,,2022-03-04,1,,,,,アイエイチアール,0
2960,9180001150223,新規,0,2022-03-04,2022-03-04,株式会社アーム社,,株式会社,愛知県,名古屋市名東区,上菅２丁目８０７番地,,23,115,4650014,,,,,,,2022-03-04,1,,,,,アームシャ,0
2961,9180001150272,新規,0,2022-03-04,2022-03-04,株式会社青春,,株式会社,愛知県,春日井市,穴橋町１丁目３番地１グランシャリオ穴橋Ａ棟３０１,,23,206,4860853,,,,,,,2022-03-04,1,,,,,セイシュン,0
2962,9180001150289,新規,0,2022-03-04,2022-03-04,株式会社ＣＬＳ,,株式会社,愛知県,名古屋市緑区,相模郷二丁目６０２番地,,23,114,4580000,,,,,,,2022-03-04,1,,,,,シーエルエス,0
2963,9180001150297,新規,0,2022-03-04,2022-03-04,株式会社丸五鈑金,,株式会社,愛知県,名古屋市中川区,法華西町５丁目２６番地の３,,23,110,4540937,,,,,,,2022-03-04,1,,,,,マルゴバンキン,0
2978,9200001039819,新規,0,2022-03-04,2022-03-04,Ａ’ｓグループホールディングス株式会社,,株式会社,岐阜県,高山市,本母町６３番地,,21,203,5060003,,,,,,,2022-03-04,1,,,,,エースグループホールディングス,0
2981,9220001024728,新規,0,2022-03-04,2022-03-04,株式会社機械安全実践技術,,株式会社,石川県,加賀市,山中温泉上原町カ２０７番地,,17,206,9220106,,,,,,,2022-03-04,1,,,,,キカイアンゼンジッセンギジュツ,0
2983,9230001019256,新規,0,2022-03-04,2022-03-04,株式会社ＳＥＮＤＯ,,株式会社,富山県,高岡市,姫野５０３番地１０,,16,202,9340093,,,,,,,2022-03-04,1,,,,,センド,0
2988,9240001059409,新規,0,2022-03-04,2022-03-04,株式会社アップ電工,,株式会社,広島県,三次市,十日市東６丁目９番２４号,,34,209,7280013,,,,,,,2022-03-04,1,,,,,アップデンコウ,0
2991,9250001019436,新規,0,2022-03-04,2022-03-04,アールオー西日本株式会社,,株式会社,山口県,宇部市,南小羽山町１丁目１番４号,,35,202,7550083,,,,,,,2022-03-04,1,,,,,アールオーニシニホン,0
2994,9260001036570,新規,0,2022-03-04,2022-03-04,株式会社カーシェイパー,,株式会社,岡山県,岡山市東区,竹原１６４６番地１,,33,103,7090614,,,,,,,2022-03-04,1,,,,,カーシェイパー,0
2995,9260001036612,新規,0,2022-03-04,2022-03-04,株式会社ＥＤＧＥ,,株式会社,岡山県,笠岡市,有田３３６４番地２,,33,205,7140075,,,,,,,2022-03-04,1,,,,,エッジ,0
2996,9260003003825,新規,0,2022-03-04,2022-03-04,合同会社ＧＲＥ備北,,合同会社,岡山県,新見市,足見１６６４番地,,33,210,7192642,,,,,,,2022-03-04,1,,,,,ジーアールイービホク,0
3003,9290001096604,新規,0,2022-03-04,2022-03-04,株式会社カタンナッセ,,株式会社,福岡県,福岡市中央区,那の津１丁目７番４号ｍａｒｕｈａｃｈｉ１階,,40,133,8100071,,,,,,,2022-03-04,1,,,,,カタンナッセ,0
3004,9290001096612,新規,0,2022-03-04,2022-03-04,株式会社彩３,,株式会社,福岡県,福岡市中央区,渡辺通５丁目１０番２８号,,40,133,8100004,,,,,,,2022-03-04,1,,,,,アヤサン,0
3005,9290001096620,新規,0,2022-03-04,2022-03-04,株式会社ＴＨＲＥＥ,,株式会社,福岡県,福岡市博多区,博多駅前４丁目３７番２号１Ｆ,,40,132,8120011,,,,,,,2022-03-04,1,,,,,スリー,0
3006,9290001096629,新規,0,2022-03-04,2022-03-04,株式会社シンエース,,株式会社,福岡県,古賀市,米多比１４１７番地８,,40,223,8113123,,,,,,,2022-03-04,1,,,,,シンエース,0
3007,9290001096653,新規,0,2022-03-04,2022-03-04,Ｆ．Ｂ．Ｄ．Ａ．福岡株式会社,,株式会社,福岡県,福岡市早良区,百道浜４丁目２番２－５０６号,,40,137,8140001,,,,,,,2022-03-04,1,,,,,エフビーディーエーフクオカ,0
3008,9290001096661,新規,0,2022-03-04,2022-03-04,株式会社ＧＥＮ企画,,株式会社,福岡県,大野城市,錦町１丁目２番５号,,40,219,8160935,,,,,,,2022-03-04,1,,,,,ゲンキカク,0
3009,9290001096686,新規,0,2022-03-04,2022-03-04,株式会社飛騨真莉,,株式会社,福岡県,福岡市西区,小戸１丁目２番２７－２０１号,,40,135,8190001,,,,,,,2022-03-04,1,,,,,ヒダマリ,0
3012,9290801028293,新規,0,2022-03-04,2022-03-04,株式会社ＴＫ総建,,株式会社,福岡県,鞍手郡鞍手町,大字古門１１９７番地１,,40,402,8071306,,,,,,,2022-03-04,1,,,,,ティーケイソウケン,0
3014,9300001012823,新規,0,2022-03-04,2022-03-04,株式会社ランドスケープ山崎ＨＤ,00125871,株式会社,佐賀県,武雄市,北方町大字芦原１２８０番地,,41,206,8492203,,,,,,,2022-03-04,1,,,,,ランドスケープヤマサキホールディングス,0
3015,9300001012831,新規,0,2022-03-04,2022-03-04,株式会社ケアホームビジョン,,株式会社,佐賀県,神埼市,千代田町境原２３６９番地１－１０２号,,41,210,8420056,,,,,,,2022-03-04,1,,,,,ケアホームビジョン,0
3017,9300003001799,新規,0,2022-03-04,2022-03-04,シブヤフォークリフト合同会社,,合同会社,佐賀県,小城市,三日月町堀江５７番地３,,41,208,8450031,,,,,,,2022-03-04,1,,,,,シブヤフォークリフト,0
3019,9310001017747,新規,0,2022-03-04,2022-03-04,株式会社オフィス・セラフＪＡＰＡＮ,,株式会社,長崎県,東彼杵郡波佐見町,岳辺田郷３５７番地１５,,42,323,8593722,,,,,,,2022-03-04,1,,,,,オフィスセラフジャパン,0
3033,9340001024550,新規,0,2022-03-04,2022-03-04,株式会社ｅｎｉｓｉａ,,株式会社,鹿児島県,鹿児島市,草牟田１丁目１番５－４０３号,,46,201,8900014,,,,,,,2022-03-04,1,,,,,エニシア,0
3040,9360001030068,新規,0,2022-03-04,2022-03-04,株式会社あお,,株式会社,沖縄県,沖縄市,美里１丁目１０番２４号,,47,211,9042153,,,,,,,2022-03-04,1,,,,,アオ,0
3041,9360001030092,新規,0,2022-03-04,2022-03-04,株式会社仲重,,株式会社,沖縄県,糸満市,字糸満１４４４番地の４ハピネスコートゴクミＩＩ２０２号,00125870,47,210,9010361,,,,,,,2022-03-04,1,,,,,ナカジュウ,0
3043,9360003011850,新規,0,2022-03-04,2022-03-04,悠々アイランド合同会社,,合同会社,沖縄県,宮古島市,上野字宮国５７１番地２,,47,214,9060203,,,,,,,2022-03-04,1,,,,,ユウユウアイランド,0
3046,9370001048258,新規,0,2022-03-04,2022-03-04,株式会社赤間,,株式会社,宮城県,仙台市宮城野区,萩野町２丁目１５番地の７－１０１,,04,102,9830043,,,,,,,2022-03-04,1,,,,,アカマ,0
3047,9370001048282,新規,0,2022-03-04,2022-03-04,株式会社高橋グリーン,,株式会社,宮城県,黒川郡大和町,鶴巣下草字迫２９番地,,04,421,9813418,,,,,,,2022-03-04,1,,,,,タカハシグリーン,0
3053,9380001032616,新規,0,2022-03-04,2022-03-04,株式会社Ａｌｉｖｅ,,株式会社,福島県,会津若松市,滝沢町７番２２号,,07,202,9650022,,,,,,,2022-03-04,1,,,,,アライブ,0
3054,9380001032632,新規,0,2022-03-04,2022-03-04,株式会社イーストファーム,,株式会社,福島県,白河市,東釜子字枇杷山６８番地１,,07,205,9610303,,,,,,,2022-03-04,1,,,,,イーストファーム,0
3064,9420001017752,新規,0,2022-03-04,2022-03-04,株式会社スーパー農場,,株式会社,青森県,弘前市,大字土堂字早川２７６番地１,,02,202,0368374,,,,,,,2022-03-04,1,,,,,スーパーノウジョウ,0
3070,9430003013682,新規,0,2022-03-04,2022-03-04,ＫＡＬＩＳ合同会社,,合同会社,北海道,札幌市豊平区,月寒西四条９丁目１番１５－２０３号,,01,105,0620024,,,,,,,2022-03-04,1,,,,,カリズ,0
3074,9460101007154,新規,0,2022-03-04,2022-03-04,株式会社アグリサポーター,,株式会社,北海道,中川郡幕別町,字猿別３０４番地,,01,643,0890625,,,,,,,2022-03-04,1,,,,,アグリサポーター,0
3077,9462501000928,新規,0,2022-03-04,2022-03-04,シーシーエス・プラス・ホールディングス株式会社,,株式会社,北海道,標津郡中標津町,北町２丁目２２番地,,01,692,0861152,,,,,,,2022-03-04,1,,,,,シーシーエスプラスホールディングス,0
3079,9470001018993,新規,0,2022-03-04,2022-03-04,株式会社フクビレ,,株式会社,香川県,高松市,福岡町４丁目２０番８号,,37,201,7600066,,,,,,,2022-03-04,1,,,,,フクビレ,0
3080,9480001011667,新規,0,2022-03-04,2022-03-04,株式会社ＹｓＫ,,株式会社,徳島県,徳島市,新浜本町１丁目７番３１号,,36,201,7708007,,,,,,,2022-03-04,1,,,,,ワイエスケイ,0
3082,9500001024047,新規,0,2022-03-04,2022-03-04,株式会社モノツク工業,,株式会社,愛媛県,松山市,湊町４丁目５番地６,,38,201,7900012,,,,,,,2022-03-04,1,,,,,モノツクコウギョウ,0
3089,9700150106781,新規,0,2022-03-04,2022-01-24,配色デザインスタジオ,,その他,神奈川県,相模原市緑区,三井１３５２－２８,,14,151,2520151,,,,,,,2022-01-24,1,,,,,ハイシヨクデザインスタジオ,0
