sequenceNumber,corporateNumber,process,correct,updateDate,changeDate,name,nameImageId,kind,prefectureName,cityName,streetNumber,addressImageId,prefectureCode,cityCode,postCode,addressOutside,addressOutsideImageId,closeDate,closeCause,successorCorporateNumber,changeCause,assignmentDate,latest,enName,enPrefectureName,enCityName,enAddressOutside,furigana,hihyoji
10,1010001262281,新規,0,2026-02-04,2026-02-04,株式会社ｉＳＥＬＬａｂ,,株式会社,東京都,中央区,銀座１丁目１２番４号Ｎ＆ＥＢＬＤ．６Ｆ,,13,102,1040061,,,,,,,2026-02-04,1,,,,,アイセルラボ,0
11,1010001262331,新規,0,2026-02-04,2026-02-04,株式会社ＫＯＧＡＳＨＯ,,株式会社,東京都,中央区,銀座１丁目２２番１１号銀座大竹ビジデンス２Ｆ,,13,102,1040061,,,,,,,2026-02-04,1,,,,,コガショウ,0
12,1010001262488,新規,0,2026-02-04,2026-02-04,ＳＫＳホールディングス株式会社,,株式会社,東京都,文京区,小石川１丁目２８番１号,,13,105,1120002,,,,,,,2026-02-04,1,,,,,エスケーエスホールディングス,0
13,1010001262496,新規,0,2026-02-04,2026-02-04,たなごころ水産株式会社,,株式会社,東京都,中央区,入船１丁目９番８号,,13,102,1040042,,,,,,,2026-02-04,1,,,,,タナゴコロスイサン,0
14,1010001262513,新規,0,2026-02-04,2026-02-04,ｅ‐３６５株式会社,,株式会社,東京都,千代田区,有楽町１丁目９番４号蚕糸会館４階,,13,101,1000006,,,,,,,2026-02-04,1,,,,,イーサンロクゴ,0
15,1010001262554,新規,0,2026-02-04,2026-02-04,株式会社ＡＩ　Ａｃｃｅｌｅｒａｔｏｒ,,株式会社,東京都,中央区,銀座５丁目１３番１６号,,13,102,1040061,,,,,,,2026-02-04,1,,,,,エーアイアクセラレーター,0
16,1010001262579,新規,0,2026-02-04,2026-02-04,ブランフォード株式会社,,株式会社,東京都,千代田区,大手町１丁目５番１号大手町ファーストスクエアイーストタワー４階,,13,101,1000004,,,,,,,2026-02-04,1,,,,,ブランフォード,0
17,1010001262587,新規,0,2026-02-04,2026-02-04,エンデバー・ユナイテッド・パートナーズ・４４株式会社,,株式会社,東京都,千代田区,丸の内２丁目５番１号丸の内二丁目ビル６階,,13,101,1000005,,,,,,,2026-02-04,1,,,,,エンデバーユナイテッドパートナーズフォーティーフォー,0
20,1010003050206,新規,0,2026-02-04,2026-02-04,ミュジニーホールディング合同会社,,合同会社,東京都,千代田区,霞が関３丁目２番５号,,13,101,1000013,,,,,,,2026-02-04,1,,,,,ミュジニーホールディング,0
21,1010003050230,新規,0,2026-02-04,2026-02-04,Ｔｅｒｒａｎｅｘ　Ｍａｎａｇｅｍｅｎｔ合同会社,,合同会社,東京都,千代田区,富士見２丁目２番１４号,,13,101,1020071,,,,,,,2026-02-04,1,,,,,テラネックスマネジメント,0
31,1010501055409,新規,0,2026-02-04,2026-02-04,株式会社伸栄,,株式会社,東京都,台東区,上野５丁目６番１１号ビリーフ御徒町,,13,106,1100005,,,,,,,2026-02-04,1,,,,,シンエイ,0
32,1010503008174,新規,0,2026-02-04,2026-02-04,合同会社アーキヴィスト,,合同会社,東京都,台東区,小島１丁目４番７－２０３号中銀上野小島マンシオン,,13,106,1110056,,,,,,,2026-02-04,1,,,,,アーキヴィスト,0
36,1010601068673,新規,0,2026-02-04,2026-02-04,株式会社ＩＬＢ,,株式会社,東京都,江東区,塩浜１丁目１－１３－８２５,,13,108,1350043,,,,,,,2026-02-04,1,,,,,アイエルビー,0
41,1010801037016,新規,0,2026-02-04,2026-02-04,株式会社ＫＹＣ,,株式会社,東京都,大田区,南馬込５丁目２８番１－２０６号,,13,111,1430025,,,,,,,2026-02-04,1,,,,,ケーワイシー,0
44,1010901058911,新規,0,2026-02-04,2026-02-04,ザルツベース株式会社,,株式会社,東京都,世田谷区,代沢５丁目３２番１０－３０３号,,13,112,1550032,,,,,,,2026-02-04,1,,,,,ザルツベース,0
46,1010903010589,新規,0,2026-02-04,2026-02-04,８ｐａｔｈｓ合同会社,,合同会社,東京都,世田谷区,太子堂４丁目１８番１５号マガザン三軒茶屋２－３Ｆ－３,,13,112,1540004,,,,,,,2026-02-04,1,,,,,エイトパース,0
52,1011001175267,新規,0,2026-02-04,2026-02-04,株式会社スカイ・アンダーソン,,株式会社,東京都,渋谷区,円山町１４番３号日興パレスビル２０２号室,,13,113,1500044,,,,,,,2026-02-04,1,,,,,スカイアンダーソン,0
53,1011001175291,新規,0,2026-02-04,2026-02-04,株式会社サニー・イノベーション,,株式会社,東京都,渋谷区,道玄坂１丁目１０番８号渋谷道玄坂東急ビル２Ｆ－Ｃ,,13,113,1500043,,,,,,,2026-02-04,1,,,,,サニーイノベーション,0
54,1011001175300,新規,0,2026-02-04,2026-02-04,ＳｍａｒｔＯＳＣ　ＪＰ株式会社,,株式会社,東京都,渋谷区,道玄坂１丁目１０番８号渋谷道玄坂東急ビル２Ｆ－Ｃ,,13,113,1500043,,,,,,,2026-02-04,1,,,,,スマートオーエスシージェイピー,0
59,1011101114604,新規,0,2026-02-04,2026-02-04,株式会社さきのいろ,,株式会社,東京都,新宿区,高田馬場４丁目１８番１０号,,13,104,1690075,,,,,,,2026-02-04,1,,,,,サキノイロ,0
60,1011101114612,新規,0,2026-02-04,2026-02-04,株式会社ＫＵＲＯＫＩ,,株式会社,東京都,新宿区,新宿４丁目１番２２－７０２号新宿コムロＢＬＤ,,13,104,1600022,,,,,,,2026-02-04,1,,,,,クロキ,0
61,1011101114637,新規,0,2026-02-04,2026-02-04,Ｃｈｏｎｄａｍ株式会社,,株式会社,東京都,新宿区,市谷田町２丁目３８番３号シティ市ヶ谷２０２,,13,104,1620843,,,,,,,2026-02-04,1,,,,,チョンダム,0
64,1011201026939,新規,0,2026-02-04,2026-02-04,株式会社けもの,,株式会社,東京都,中野区,中野３丁目１９番１０号カーサエコ１０４,,13,114,1640001,,,,,,,2026-02-04,1,,,,,ケモノ,0
67,1011401027778,新規,0,2026-02-04,2026-02-04,株式会社Ａｉｒ,,株式会社,東京都,板橋区,仲宿２６番地５号,,13,119,1730005,,,,,,,2026-02-04,1,,,,,アリア,0
68,1011403005014,新規,0,2026-02-04,2026-02-04,雨玉合同会社,,合同会社,東京都,板橋区,南町６－４０３号,,13,119,1730027,,,,,,,2026-02-04,1,,,,,アメダマ,0
70,1011601029351,新規,0,2026-02-04,2026-02-04,株式会社ＧＯ,,株式会社,東京都,練馬区,東大泉７丁目３５番２１号－１０２,,13,120,1780063,,,,,,,2026-02-04,1,,,,,ゴー,0
71,1011701029144,新規,0,2026-02-04,2026-02-04,桜扉株式会社,,株式会社,東京都,江戸川区,平井５丁目４４番６号２０２室,,13,123,1320035,,,,,,,2026-02-04,1,,,,,オウヒ,0
72,1011701029152,新規,0,2026-02-04,2026-02-04,ＳＨＹＡＭＡ　ＣＯＲＰＯＲＡＴＩＯＮ株式会社,,株式会社,東京都,江戸川区,船堀６丁目３番１号,,13,123,1340091,,,,,,,2026-02-04,1,,,,,シャマコーポレーション,0
74,1011703004517,新規,0,2026-02-04,2026-02-04,モンキーとバード合同会社,,合同会社,東京都,江戸川区,西葛西７丁目２９番－１０号,,13,123,1340088,,,,,,,2026-02-04,1,,,,,モンキートバード,0
77,1011803007312,新規,0,2026-02-04,2026-02-04,１００６Ｏｖｅｒ　Ｄｒｉｖｅ合同会社,,合同会社,東京都,足立区,神明３丁目１６番２号,,13,121,1210051,,,,,,,2026-02-04,1,,,,,センロクオーバードライブ,0
83,1012801024514,新規,0,2026-02-04,2026-02-04,株式会社永将,,株式会社,東京都,立川市,上砂町２丁目２４番地の３４,,13,202,1900032,,,,,,,2026-02-04,1,,,,,エイショウ,0
86,1013301055693,新規,0,2026-02-04,2026-02-04,Ｐａｒｉｍｅｎｔ株式会社,,株式会社,東京都,豊島区,南大塚２丁目２６番７号ＭＥ新大塚ビル４階,,13,116,1700005,,,,,,,2026-02-04,1,,,,,パリメント,0
87,1013301055710,新規,0,2026-02-04,2026-02-04,株式会社セルワイン,,株式会社,東京都,豊島区,東池袋５丁目４３番１０号,,13,116,1700013,,,,,,,2026-02-04,1,,,,,セルワイン,0
96,1020001166985,新規,0,2026-02-04,2026-02-04,モンターニュコリヌ株式会社,,株式会社,神奈川県,横浜市港南区,日野中央２丁目２２番５２号,,14,111,2340053,,,,,,,2026-02-04,1,,,,,モンターニュコリヌ,0
107,1030001170763,新規,0,2026-02-04,2026-02-04,株式会社ｂｅ‐ＭＡＸ,,株式会社,埼玉県,川口市,並木２丁目２４番２０－５０４号ＰＲＩＭＥ・ＲＥＳＩＤＥＮＣＥ・ＮＡＭＩＫＩ,,11,203,3320034,,,,,,,2026-02-04,1,,,,,ビーマックス,0
108,1030001170796,新規,0,2026-02-04,2026-02-04,株式会社つなぐ,,株式会社,埼玉県,川口市,戸塚境町３２番１８号エスプレンドビスタ２、３０７号,00142451,11,203,3330806,,,,,,,2026-02-04,1,,,,,ツナグ,0
109,1030001170821,新規,0,2026-02-04,2026-02-04,ライネクトエヌ株式会社,,株式会社,埼玉県,さいたま市緑区,松木１丁目３３番地４,,11,109,3360918,,,,,,,2026-02-04,1,,,,,ライネクトエヌ,0
114,1040001142448,新規,0,2026-02-04,2026-02-04,株式会社シンクロ,,株式会社,千葉県,松戸市,日暮５丁目１９０番地ドリーム八柱３０１号,,12,207,2702253,,,,,,,2026-02-04,1,,,,,シンクロ,0
121,1040003029404,新規,0,2026-02-04,2026-02-04,合同会社Ｆａｍｉｒｅｌａｔｉｏｎ,,合同会社,千葉県,市川市,湊新田１丁目１４－５、１階,,12,203,2720132,,,,,,,2026-02-04,1,,,,,ファミリレーション,0
122,1050001057942,新規,0,2026-02-04,2026-02-04,株式会社誠成,,株式会社,茨城県,土浦市,千束町３番１２号２階,,08,203,3000046,,,,,,,2026-02-04,1,,,,,セイセイ,0
129,1060001011683,新規,0,2026-02-04,2026-02-04,ＮＫプロパティ株式会社,,株式会社,栃木県,那須郡那須町,大字高久乙２７３０番地２７,,09,407,3250303,,,,,,,2026-02-04,1,,,,,エヌケープロパティ,0
132,1060003005948,新規,0,2026-02-04,2026-02-04,合同会社リンク,,合同会社,栃木県,栃木市,西方町金崎２４２－４ルレーブフルールＩ２０１,00142445,09,203,3220601,,,,,,,2026-02-04,1,,,,,リンク,0
140,1080401028417,新規,0,2026-02-04,2026-02-04,株式会社おたすけ不動産ＨＫ,,株式会社,静岡県,御前崎市,白羽３５７４番地の３５,,22,223,4371622,,,,,,,2026-02-04,1,,,,,オタスケフドウサンエイチケイ,0
141,1080401028425,新規,0,2026-02-04,2026-02-04,河合プロパティ株式会社,,株式会社,静岡県,浜松市中央区,鍛冶町１０５番地,,22,138,4300933,,,,,,,2026-02-04,1,,,,,カワイプロパティ,0
142,1080403005439,新規,0,2026-02-04,2026-02-04,やまさＣＮ住宅合同会社,,合同会社,静岡県,浜松市中央区,材木町４８０番地の２,,22,138,4350021,,,,,,,2026-02-04,1,,,,,ヤマサカーボンニュートラルジュウタク,0
149,1110003006065,新規,0,2026-02-04,2026-02-04,Ａｘｉｓ　Ｓｔｕｄｉｏ合同会社,,合同会社,新潟県,新潟市中央区,米山３丁目１番１３号ＤＥＳＩＧＮＭＡＩＳＯＮＮ．Ｓｔａ３ＳＢ棟３０３号,,15,103,9500916,,,,,,,2026-02-04,1,,,,,アクシススタジオ,0
161,1120001283820,新規,0,2026-02-04,2026-02-04,株式会社ＬＵＮＡＲ　ＡＲＣ,,株式会社,大阪府,寝屋川市,寝屋２丁目１番３１－７０５号,,27,215,5720801,,,,,,,2026-02-04,1,,,,,ルナアーク,0
162,1120001283886,新規,0,2026-02-04,2026-02-04,株式会社Ｅｎｖｉｓｉｏｎ,,株式会社,大阪府,大阪市都島区,都島中通２丁目１８番２４－３０４号,,27,102,5340022,,,,,,,2026-02-04,1,,,,,エンビジョン,0
163,1120001283903,新規,0,2026-02-04,2026-02-04,株式会社Ｎｅｕｔｒｅ　Ｃｏｒｅ,,株式会社,大阪府,大阪市浪速区,桜川２丁目４番１３－９０７号,,27,111,5560022,,,,,,,2026-02-04,1,,,,,ニュートルコア,0
164,1120001283928,新規,0,2026-02-04,2026-02-04,アーチ・アドバイザリー株式会社,,株式会社,大阪府,大阪市北区,梅田１丁目１番３号大阪駅前第３ビル１１階２号室,,27,127,5300001,,,,,,,2026-02-04,1,,,,,アーチアドバイザリー,0
177,1120905006847,新規,0,2026-02-04,2026-02-04,医療法人成友会,,その他の設立登記法人,大阪府,豊中市,上野東２丁目１７番４９号,,27,203,5600013,,,,,,,2026-02-04,1,,,,,セイユウカイ,0
185,1140001141571,新規,0,2026-02-04,2026-02-04,株式会社ｆｕｕ,,株式会社,兵庫県,姫路市,三左衛門堀東の町８７番地バレンシア三左衛門４０１,,28,201,6700949,,,,,,,2026-02-04,1,,,,,フー,0
186,1140001141588,新規,0,2026-02-04,2026-02-04,Ｆｕｒｔｈｅｒ　Ｗｅｌｌｎｅｓｓ株式会社,,株式会社,兵庫県,姫路市,勝原区山戸１２３番地４,,28,201,6711214,,,,,,,2026-02-04,1,,,,,ファーザーウェルネス,0
188,1150001028710,新規,0,2026-02-04,2026-02-04,Ｍｅｒｃｉ　ｃｏｒｐｏｒａｔｉｏｎ株式会社,,株式会社,奈良県,奈良市,学園南１丁目１番１５－３０１号,,29,201,6310034,,,,,,,2026-02-04,1,,,,,メルスィコーポレーション,0
190,1170003002380,新規,0,2026-02-04,2026-02-04,ＴＭＳ合同会社,,合同会社,和歌山県,和歌山市,鳴神１１４４番地,,30,201,6408303,,,,,,,2026-02-04,1,,,,,ティーエムエス,0
199,1180001170518,新規,0,2026-02-04,2026-02-04,株式会社マウンテンハウス,,株式会社,愛知県,春日井市,岩成台５丁目６番地１０,,23,206,4870033,,,,,,,2026-02-04,1,,,,,マウンテンハウス,0
200,1180001170534,新規,0,2026-02-04,2026-02-04,株式会社Ｖｅｓｔａ,,株式会社,愛知県,名古屋市中区,千代田３丁目３１番３０号サンパーク鶴舞公園南６０１号,,23,106,4600012,,,,,,,2026-02-04,1,,,,,ヴェスタ,0
201,1180001170567,新規,0,2026-02-04,2026-02-04,株式会社Ｌｉｂｅｒｔｅ,,株式会社,愛知県,名古屋市守山区,廿軒家３３番５号－３,,23,113,4630065,,,,,,,2026-02-04,1,,,,,リベルテ,0
202,1180001170575,新規,0,2026-02-04,2026-02-04,ブルーカラーＨＤ株式会社,,株式会社,愛知県,名古屋市中区,栄１丁目６番１５号グランドメゾン御園座タワー３６０４号,,23,106,4600008,,,,,,,2026-02-04,1,,,,,ブルーカラーホールディングス,0
204,1180003029737,新規,0,2026-02-04,2026-02-04,合同会社ＡｄｄＧｒａｃｅ,,合同会社,愛知県,名古屋市中区,丸の内２丁目１番１号プレサンス名古屋城前１３０３号,,23,106,4600002,,,,,,,2026-02-04,1,,,,,アドグレイス,0
206,1180301040651,新規,0,2026-02-04,2026-02-04,株式会社三田土木,,株式会社,愛知県,岡崎市,欠町字三田田北通２３番地６イーストガーデン杉の木Ｂ号室,,23,202,4440011,,,,,,,2026-02-04,1,,,,,ミタドボク,0
208,1200001044628,新規,0,2026-02-04,2026-02-04,一光商事株式会社,,株式会社,岐阜県,岐阜市,鏡島１５７９番地の１０,,21,201,5010111,,,,,,,2026-02-04,1,,,,,イッコウショウジ,0
209,1200001044685,新規,0,2026-02-04,2026-02-04,株式会社シュクラン,,株式会社,岐阜県,大垣市,赤坂新町２丁目１８番地５２,,21,202,5032206,,,,,,,2026-02-04,1,,,,,シュクラン,0
212,1220003004215,新規,0,2026-02-04,2026-02-04,合同会社ＡＬＬＬＡＳＴ,,合同会社,石川県,輪島市,河井町１７部４５番地１２メゾン諏訪１０１号室,,17,204,9280001,,,,,,,2026-02-04,1,,,,,オーラス,0
216,1240001066115,新規,0,2026-02-04,2026-02-04,株式会社Ｕｎｉ　Ｌｉｂｅｒｔｅ,,株式会社,広島県,福山市,駅家町近田９－２,,34,207,7210000,,,,,,,2026-02-04,1,,,,,ユニリベルテ,0
217,1240005016041,新規,0,2026-02-04,2026-02-04,一般社団法人家くら,,その他の設立登記法人,広島県,呉市,広駅前１丁目１番７－３０４号,,34,202,7370142,,,,,,,2026-02-04,1,,,,,イエクラ,0
225,1270001009384,新規,0,2026-02-04,2026-02-04,ハグクミ３０００株式会社,,株式会社,鳥取県,日野郡日南町,丸山２３９番地３,,31,401,6895213,,,,,,,2026-02-04,1,,,,,ハグクミサンゼン,0
231,1290001112995,新規,0,2026-02-04,2026-02-04,株式会社ＮＡＣ,,株式会社,福岡県,福岡市東区,原田１丁目２７番３号,,40,131,8120063,,,,,,,2026-02-04,1,,,,,エヌエーシー,0
232,1290001113011,新規,0,2026-02-04,2026-02-04,株式会社ｐａｌｍｉｓｔ,,株式会社,福岡県,福岡市東区,香椎照葉４丁目２番１号セントラルパーク香椎照葉壱番館６０６号室,,40,131,8130017,,,,,,,2026-02-04,1,,,,,パーミスト,0
233,1290001113044,新規,0,2026-02-04,2026-02-04,株式会社タタラ電気,,株式会社,福岡県,福岡市東区,土井４丁目２３番８－１号,,40,131,8130032,,,,,,,2026-02-04,1,,,,,タタラデンキ,0
236,1290003018010,新規,0,2026-02-04,2026-02-04,合同会社ゼロワン建設,,合同会社,福岡県,久留米市,東櫛原町２６０６番地１ｚｅｒｏＬｏｕｎｇｅ１階,,40,203,8300003,,,,,,,2026-02-04,1,,,,,ゼロワンケンセツ,0
237,1290003018019,新規,0,2026-02-04,2026-02-04,Ｂｏｎｏ合同会社,,合同会社,福岡県,福岡市東区,香椎台３丁目１９番１０号,,40,131,8130014,,,,,,,2026-02-04,1,,,,,ボーノ,0
238,1290003018035,新規,0,2026-02-04,2026-02-04,合同会社糸Ｌｉｎｋ,,合同会社,福岡県,福岡市中央区,天神４丁目６－２８いちご天神ノースビル７階,,40,133,8100001,,,,,,,2026-02-04,1,,,,,イトリンク,0
242,1290801032237,新規,0,2026-02-04,2026-02-04,Ａｕｒｅｏ　Ａｓｓｅｔ株式会社,,株式会社,福岡県,行橋市,行事２丁目６番６５号,,40,213,8240001,,,,,,,2026-02-04,1,,,,,オーレオアセット,0
245,1300001014505,新規,0,2026-02-04,2026-02-04,緑食品株式会社,,株式会社,佐賀県,佐賀市,本庄町大字本庄２４８番地５１,,41,201,8400027,,,,,,,2026-02-04,1,,,,,ミドリショクヒン,0
254,1320001021565,新規,0,2026-02-04,2026-02-04,マルイチホールディングス株式会社,,株式会社,大分県,大分市,豊海４丁目１番１号,,44,201,8700018,,,,,,,2026-02-04,1,,,,,マルイチホールディングス,0
263,1360001036320,新規,0,2026-02-04,2026-02-04,仲本ホールディングス株式会社,,株式会社,沖縄県,那覇市,字銘苅２３９番地２,,47,201,9000004,,,,,,,2026-02-04,1,,,,,ナカモトホールディングス,0
264,1360001036329,新規,0,2026-02-04,2026-02-04,株式会社山翔,,株式会社,沖縄県,沖縄市,泡瀬５丁目２３－２３－１Ｆ,,47,211,9042172,,,,,,,2026-02-04,1,,,,,ヤマショウ,0
269,1380001035832,新規,0,2026-02-04,2026-02-04,株式会社丸政総建,,株式会社,福島県,郡山市,横塚５丁目５番９３号,,07,203,9638803,,,,,,,2026-02-04,1,,,,,マルマサソウケン,0
270,1400001017308,新規,0,2026-02-04,2026-02-04,株式会社ＹＫＮ,,株式会社,岩手県,一関市,藤沢町増沢字日当４９番地３,,03,209,0293401,,,,,,,2026-02-04,1,,,,,ワイケーエヌ,0
271,1410005006677,新規,0,2026-02-04,2026-02-04,農事組合法人Ｋａｗａｓａｋｉ,,その他の設立登記法人,秋田県,横手市,雄物川町薄井字大見内１１４番地１,,05,203,0130481,,,,,,,2026-02-04,1,,,,,カワサキ,0
276,1430001096167,新規,0,2026-02-04,2026-02-04,株式会社花北海道,,株式会社,北海道,札幌市中央区,伏見１丁目１番１号,,01,101,0640942,,,,,,,2026-02-04,1,,,,,ハナホッカイドウ,0
280,1430005015404,新規,0,2026-02-04,2026-02-04,ＮＩＮＡＩＴＥ行政書士法人,,その他の設立登記法人,北海道,札幌市中央区,北五条西９丁目５番地ＭＴＩビル札幌,,01,101,0600005,,,,,,,2026-02-04,1,,,,,ニナイテ,0
281,1440005002814,新規,0,2026-02-04,2026-02-04,特定非営利活動法人フードバンク道南協議会,,その他の設立登記法人,北海道,函館市,五稜郭町２５番６号,,01,202,0400001,,,,,,,2026-02-04,1,,,,,,0
301,2010001262479,新規,0,2026-02-04,2026-02-04,株式会社ＢＬＡＮＣ,,株式会社,東京都,中央区,勝どき２丁目１０番１４－１１０７号,,13,102,1040054,,,,,,,2026-02-04,1,,,,,ブラン,0
302,2010001262487,新規,0,2026-02-04,2026-02-04,株式会社理壱,,株式会社,東京都,千代田区,富士見１丁目３番１１号富士見デュープレックスＢ’ｓ４階,,13,101,1020071,,,,,,,2026-02-04,1,,,,,リイチ,0
303,2010001262495,新規,0,2026-02-04,2026-02-04,株式会社ソラスメディカ,,株式会社,東京都,文京区,本駒込１丁目２番５－１００２号,,13,105,1130021,,,,,,,2026-02-04,1,,,,,ソラスメディカ,0
304,2010001262537,新規,0,2026-02-04,2026-02-04,株式会社ＮＵＫＥＭ　ＪＡＰＡＮ,,株式会社,東京都,中央区,日本橋本町４丁目１５番１号タカコービル４階,,13,102,1030023,,,,,,,2026-02-04,1,,,,,ニュケムジャパン,0
305,2010001262578,新規,0,2026-02-04,2026-02-04,株式会社グランベスタ,,株式会社,東京都,中央区,八丁堀４丁目１２番４号クイーンズパレス東京中央１００２号,,13,102,1040032,,,,,,,2026-02-04,1,,,,,グランベスタ,0
306,2010001262594,新規,0,2026-02-04,2026-02-04,アイリス・リサーチ・インスティテュート株式会社,,株式会社,東京都,千代田区,神田東松下町２８番地４,,13,101,1010042,,,,,,,2026-02-04,1,,,,,アイリスリサーチインスティテュート,0
310,2010003050171,新規,0,2026-02-04,2026-02-04,合同会社ヘルメス,,合同会社,東京都,千代田区,神田佐久間町１丁目１６大橋ビル５０３,,13,101,1010025,,,,,,,2026-02-04,1,,,,,ヘルメス,0
311,2010005041334,新規,0,2026-02-04,2026-02-04,一般社団法人レジデンスセブン,,その他の設立登記法人,東京都,千代田区,霞が関３丁目２番５号,,13,101,1000013,,,,,,,2026-02-04,1,,,,,レジデンスセブン,0
312,2010005041342,新規,0,2026-02-04,2026-02-04,一般社団法人ＨＥＬＩＸ,,その他の設立登記法人,東京都,千代田区,丸の内１丁目４番１号東京共同会計事務所内,,13,101,1000005,,,,,,,2026-02-04,1,,,,,ヘリクス,0
320,2010401196252,新規,0,2026-02-04,2026-02-04,株式会社桜和産業,,株式会社,東京都,港区,浜松町２丁目２番１５号浜松町ダイヤビル２Ｆ,,13,103,1050013,,,,,,,2026-02-04,1,,,,,オウワサンギョウ,0
321,2010401196302,新規,0,2026-02-04,2026-02-04,ＩＭエナジーソリューションズ株式会社,,株式会社,東京都,港区,赤坂７丁目１０番１－７０２号,,13,103,1070052,,,,,,,2026-02-04,1,,,,,アイエムエナジーソリューションズ,0
322,2010401196368,新規,0,2026-02-04,2026-02-04,株式会社ＳＨＩＮ,,株式会社,東京都,港区,南青山３丁目１番３６号青山丸竹ビル６Ｆ,,13,103,1070062,,,,,,,2026-02-04,1,,,,,シン,0
323,2010403036836,新規,0,2026-02-04,2026-02-04,合同会社Ａｒｃａ,,合同会社,東京都,港区,南青山３丁目１番３６号青山丸竹ビル６Ｆ,,13,103,1070062,,,,,,,2026-02-04,1,,,,,アルカ,0
326,2010503008173,新規,0,2026-02-04,2026-02-04,ＳＹＮＴＡＩ‐Ｘ合同会社,,合同会社,東京都,台東区,上野１丁目１７番６号広小路ビル８Ｆ－Ｂ,,13,106,1100005,,,,,,,2026-02-04,1,,,,,シンタイエックス,0
327,2010601068557,新規,0,2026-02-04,2026-02-04,Ｐｕｆｆｉｎ　Ｊｐｎ株式会社,,株式会社,東京都,墨田区,両国３丁目２１番１１－８０３号,,13,107,1300026,,,,,,,2026-02-04,1,,,,,パフィンジャパン,0
328,2010601068664,新規,0,2026-02-04,2026-02-04,株式会社ひまつぶし,,株式会社,東京都,江東区,枝川１丁目１４番２０－５０６号,,13,108,1350051,,,,,,,2026-02-04,1,,,,,ヒマツブシ,0
329,2010601068680,新規,0,2026-02-04,2026-02-04,ｔ．ｗｏｒｋｓ株式会社,,株式会社,東京都,江東区,豊洲５丁目６－３６豊洲プライムスクエア１０階－０４,,13,108,1350061,,,,,,,2026-02-04,1,,,,,ティーワークス,0
330,2010701048979,新規,0,2026-02-04,2026-02-04,世界をまるにする株式会社,,株式会社,東京都,品川区,大井１丁目６番３号,,13,109,1400014,,,,,,,2026-02-04,1,,,,,,0
334,2010903010605,新規,0,2026-02-04,2026-02-04,合同会社Ｙａｍａｓ,,合同会社,東京都,世田谷区,経堂５丁目２０番１３号久月コーポ２０１,,13,112,1560052,,,,,,,2026-02-04,1,,,,,ヤマス,0
339,2011001175266,新規,0,2026-02-04,2026-02-04,株式会社ＮＥＵＴＮ,,株式会社,東京都,目黒区,中町１丁目５番２１号,,13,110,1530065,,,,,,,2026-02-04,1,,,,,ニュートン,0
340,2011001175282,新規,0,2026-02-04,2026-02-04,Ｌｅｘｉｍａ株式会社,,株式会社,東京都,渋谷区,上原２丁目３５－５－２１０,,13,113,1510064,,,,,,,2026-02-04,1,,,,,レキシマ,0
345,2011403005013,新規,0,2026-02-04,2026-02-04,ＪｏＤ合同会社,,合同会社,東京都,板橋区,蓮沼町７１－１,,13,119,1740052,,,,,,,2026-02-04,1,,,,,ジョディ,0
349,2011701029119,新規,0,2026-02-04,2026-02-04,オーネストワークジャパン株式会社,,株式会社,東京都,江戸川区,西小岩２丁目１９番６号,,13,123,1330057,,,,,,,2026-02-04,1,,,,,オーネストワークジャパン,0
356,2012801024513,新規,0,2026-02-04,2026-02-04,株式会社土地未来総建,,株式会社,東京都,立川市,錦町５丁目１６番３号ジェンズハウス１Ｆ,,13,202,1900022,,,,,,,2026-02-04,1,,,,,トチミライソウケン,0
357,2012803003993,新規,0,2026-02-04,2026-02-04,合同会社乙幡アセットマネジメント,,合同会社,東京都,武蔵村山市,中央４丁目５１－１,,13,223,2080003,,,,,,,2026-02-04,1,,,,,オッパタアセットマネジメント,0
360,2013301055692,新規,0,2026-02-04,2026-02-04,株式会社ＳＨＯＤＡＩカルチャープレナーズ,,株式会社,東京都,豊島区,西巣鴨３丁目２０番１号,,13,116,1700001,,,,,,,2026-02-04,1,,,,,ショウダイカルチャープレナーズ,0
362,2013303008079,新規,0,2026-02-04,2026-02-04,Ｈ・Ａ合同会社,,合同会社,東京都,豊島区,東池袋２丁目６２番８号ＢＩＧオフィスプラザ池袋１２０６,,13,116,1700013,,,,,,,2026-02-04,1,,,,,エイチエー,0
368,2020001166968,新規,0,2026-02-04,2026-02-04,株式会社ＲＯＡＮＯ,,株式会社,神奈川県,川崎市幸区,幸町４丁目３７番地幸徳ビル１階,,14,132,2120011,,,,,,,2026-02-04,1,,,,,ロアノ,0
379,2030001170787,新規,0,2026-02-04,2026-02-04,株式会社アトリエキノア,,株式会社,埼玉県,志木市,柏町４丁目４番９号,,11,228,3530007,,,,,,,2026-02-04,1,,,,,アトリエキノア,0
380,2030001170820,新規,0,2026-02-04,2026-02-04,ＴＩＭ　ａｎｄ株式会社,,株式会社,埼玉県,所沢市,東住吉１１番１－１１０９号,,11,208,3591124,,,,,,,2026-02-04,1,,,,,ティムアンド,0
384,2030003028570,新規,0,2026-02-04,2026-02-04,合同会社Ｒｉｖｅｒ,,合同会社,埼玉県,さいたま市大宮区,三橋４丁目７８１－４,,11,103,3300856,,,,,,,2026-02-04,1,,,,,リバー,0
389,2040001142331,新規,0,2026-02-04,2026-02-04,株式会社グランライス,,株式会社,千葉県,香取郡神崎町,神崎本宿２１３５番地内２号,,12,342,2890221,,,,,,,2026-02-04,1,,,,,グランライス,0
393,2050001057941,新規,0,2026-02-04,2026-02-04,株式会社ＸＸＸＸ,,株式会社,茨城県,土浦市,木田余東台３丁目２１番１９号,,08,203,3000027,,,,,,,2026-02-04,1,,,,,フォーエックス,0
397,2050003009916,新規,0,2026-02-04,2026-02-04,ＤＱコマース合同会社,,合同会社,茨城県,取手市,戸頭８丁目７番９号,,08,217,3020034,,,,,,,2026-02-04,1,,,,,ディーキューコマース,0
403,2080005007758,新規,0,2026-02-04,2026-02-04,特定非営利活動法人静岡家族信託支援センター,,その他の設立登記法人,静岡県,静岡市駿河区,東静岡２丁目５－６ｉ－ＴＯＷＥＲ東静岡１Ｆ,,22,102,4228019,,,,,,,2026-02-04,1,,,,,シズオカカゾクシンタクシエンセンター,0
404,2080101026059,新規,0,2026-02-04,2026-02-04,株式会社晴‐Ｓｕｎｎｙ　Ｇｒａｃｅ,,株式会社,静岡県,富士市,松岡４７２番地の１２,,22,210,4160909,,,,,,,2026-02-04,1,,,,,ハルサニーグレイス,0
405,2080401028416,新規,0,2026-02-04,2026-02-04,株式会社加茂電気設備,,株式会社,静岡県,袋井市,堀越６９３番地の１,,22,216,4370065,,,,,,,2026-02-04,1,,,,,カモデンキセツビ,0
424,2120001283299,新規,0,2026-02-04,2026-02-04,株式会社大金星スピリット,,株式会社,大阪府,寝屋川市,美井元町２９番８号,,27,215,5720006,,,,,,,2026-02-04,1,,,,,ダイキンボシスピリット,0
425,2120001283720,新規,0,2026-02-04,2026-02-04,明天好株式会社,,株式会社,大阪府,大阪市西区,北堀江２丁目３番１０－４０２号,,27,106,5500014,,,,,,,2026-02-04,1,,,,,ミンテンコウ,0
426,2120001283745,新規,0,2026-02-04,2026-02-04,和心株式会社,,株式会社,大阪府,大阪市西区,北堀江２丁目３番１０－４０１号,,27,106,5500014,,,,,,,2026-02-04,1,,,,,ヘイシン,0
427,2120001283910,新規,0,2026-02-04,2026-02-04,株式会社Ｎｏａｈ’ｓ,,株式会社,大阪府,大阪市中央区,本町橋６－２１シャンボール内本町２０２,,27,128,5400029,,,,,,,2026-02-04,1,,,,,ノアーズ,0
436,2120903006055,新規,0,2026-02-04,2026-02-04,合同会社白玉食品,,合同会社,大阪府,吹田市,青山台２丁目８番５号,,27,205,5650875,,,,,,,2026-02-04,1,,,,,シラタマショクヒン,0
437,2122001040151,新規,0,2026-02-04,2026-02-04,株式会社正建,,株式会社,大阪府,東大阪市,衣摺５丁目１１番２２号,,27,227,5770827,,,,,,,2026-02-04,1,,,,,ショウケン,0
444,2140001141570,新規,0,2026-02-04,2026-02-04,株式会社ＺＯＯＮ,,株式会社,兵庫県,明石市,東野町２０４３－１５カサベラ大蔵谷７０７号,,28,203,6730844,,,,,,,2026-02-04,1,,,,,ズーン,0
445,2140001141579,新規,0,2026-02-04,2026-02-04,株式会社小野工業,,株式会社,兵庫県,姫路市,広畑区高浜町２丁目５０番地２アルジェント１０１,,28,201,6711153,,,,,,,2026-02-04,1,,,,,オノコウギョウ,0
446,2140003023172,新規,0,2026-02-04,2026-02-04,合同会社リスモ,,合同会社,兵庫県,宝塚市,川面３丁目１５番７号,,28,214,6650842,,,,,,,2026-02-04,1,,,,,リスモ,0
461,2180001170525,新規,0,2026-02-04,2026-02-04,株式会社タツキホールディングス,,株式会社,愛知県,名古屋市南区,寺部通４丁目２２番地の１,,23,112,4570072,,,,,,,2026-02-04,1,,,,,タツキホールディングス,0
468,2180301040667,新規,0,2026-02-04,2026-02-04,株式会社ＢＥ・ＦＩＲＳＴ,,株式会社,愛知県,豊橋市,曙町字宮前１４番地の１４,,23,201,4418151,,,,,,,2026-02-04,1,,,,,ビーファースト,0
469,2190001032880,新規,0,2026-02-04,2026-02-04,株式会社Ｏ．Ｐａｒｔｎｅｒｓ,,株式会社,三重県,亀山市,布気町６３４番地１９ブルースカイマンションＩＩ１Ｅ号,00142447,24,210,5190166,,,,,,,2026-02-04,1,,,,,オーパートナーズ,0
479,2220001027159,新規,0,2026-02-04,2026-02-04,株式会社ナッシング,,株式会社,石川県,金沢市,本町２丁目７番６号サイジョーエステートビル三階,,17,201,9200853,,,,,,,2026-02-04,1,,,,,ナッシング,0
482,2230001021276,新規,0,2026-02-04,2026-02-04,株式会社さにぃ,,株式会社,富山県,中新川郡上市町,稗田４９番地１１,,16,322,9300362,,,,,,,2026-02-04,1,,,,,サニィ,0
491,2240005016040,新規,0,2026-02-04,2026-02-04,一般社団法人はつかいち宮島ツーリズム,,その他の設立登記法人,広島県,廿日市市,下平良１丁目１１番１号,,34,213,7380023,,,,,,,2026-02-04,1,,,,,ハツカイチミヤジマツーリズム,0
493,2250001021530,新規,0,2026-02-04,2026-02-04,株式会社エイチエー,,株式会社,山口県,柳井市,新庄２１１番地５,,35,212,7420033,,,,,,,2026-02-04,1,,,,,エイチエー,0
495,2260001040959,新規,0,2026-02-04,2026-02-04,岡山県水ホールディングス株式会社,,株式会社,岡山県,岡山市南区,市場１丁目１番地,,33,104,7028052,,,,,,,2026-02-04,1,,,,,オカヤマケンスイホールディングス,0
496,2260003005497,新規,0,2026-02-04,2026-02-04,合同会社アンコール代行,,合同会社,岡山県,岡山市東区,西大寺中野本町９―２４―２,,33,103,7048192,,,,,,,2026-02-04,1,,,,,アンコールダイコウ,0
503,2290001113010,新規,0,2026-02-04,2026-02-04,株式会社ＢＬＩＮＫ,,株式会社,福岡県,福岡市中央区,渡辺通４丁目１番１－４０５号,,40,133,8100004,,,,,,,2026-02-04,1,,,,,ブリンク,0
504,2290001113027,新規,0,2026-02-04,2026-02-04,認知性先端研株式会社,,株式会社,福岡県,福岡市中央区,天神１丁目１０番２０号,,40,133,8100001,,,,,,,2026-02-04,1,,,,,ニンチセイセンタンケン,0
508,2290003017993,新規,0,2026-02-04,2026-02-04,合同会社Ｈａｒｎｉｘ,,合同会社,福岡県,福岡市中央区,大名２丁目７番２７号,,40,133,8100041,,,,,,,2026-02-04,1,,,,,ハルニクス,0
512,2290801032228,新規,0,2026-02-04,2026-02-04,小竹工業株式会社,,株式会社,福岡県,鞍手郡小竹町,大字勝野３６５８番地,,40,401,8201103,,,,,,,2026-02-04,1,,,,,コタケコウギョウ,0
517,2340001027948,新規,0,2026-02-04,2026-02-04,株式会社ＴＢＦ,,株式会社,鹿児島県,鹿児島市,東谷山６丁目２７番２２号,,46,201,8910113,,,,,,,2026-02-04,1,,,,,ティービーエフ,0
519,2350001019928,新規,0,2026-02-04,2026-02-04,株式会社ＫＯＭＯＮＯ　ＳＴＵＤＩＯ,,株式会社,宮崎県,都城市,鷹尾３丁目２６－８,,45,202,8850081,,,,,,,2026-02-04,1,,,,,コモノスタジオ,0
521,2360001036336,新規,0,2026-02-04,2026-02-04,美らミライ商事株式会社,,株式会社,沖縄県,うるま市,字田場２１２４－１Ｆ,,47,213,9042213,,,,,,,2026-02-04,1,,,,,チュラミライショウジ,0
525,2370001053446,新規,0,2026-02-04,2026-02-04,株式会社オールインワンプロ,,株式会社,宮城県,仙台市宮城野区,五輪２丁目９番１２－６１０号,,04,102,9830842,,,,,,,2026-02-04,1,,,,,オールインワンプロ,0
528,2380003006244,新規,0,2026-02-04,2026-02-04,Ｌｉｆｅ＆Ｇｏ合同会社,,合同会社,福島県,郡山市,富田東２丁目２３,,07,203,9638047,,,,,,,2026-02-04,1,,,,,ライフアンドゴウ,0
529,2390001018249,新規,0,2026-02-04,2026-02-04,株式会社スプリングレット,,株式会社,山形県,新庄市,五日町２６４２番地,,06,205,9960001,,,,,,,2026-02-04,1,,,,,スプリングレット,0
534,2400003003643,新規,0,2026-02-04,2026-02-04,合同会社カーサシエロ,,合同会社,岩手県,久慈市,寺里第２８地割１０５番地１,,03,207,0280032,,,,,,,2026-02-04,1,,,,,カーサシエロ,0
538,2430001096182,新規,0,2026-02-04,2026-02-04,株式会社ＢＥＹＯＮＤ　ＡＬＳ,,株式会社,北海道,札幌市白石区,平和通９丁目北１７番１号,,01,104,0030029,,,,,,,2026-02-04,1,,,,,ビヨンドエーエルエス,0
542,2450001014852,新規,0,2026-02-04,2026-02-04,株式会社サイクル,,株式会社,北海道,旭川市,永山六条１５丁目２番４号,,01,204,0798416,,,,,,,2026-02-04,1,,,,,サイクル,0
549,3010001262478,新規,0,2026-02-04,2026-02-04,ＪＰＭ第２号株式会社,,株式会社,東京都,千代田区,霞が関３丁目２番１号,,13,101,1000013,,,,,,,2026-02-04,1,,,,,ジェイピーエムダイニゴウ,0
550,3010001262486,新規,0,2026-02-04,2026-02-04,株式会社Ｗキャピタル,,株式会社,東京都,中央区,晴海２丁目３番２－９０８号,,13,102,1040053,,,,,,,2026-02-04,1,,,,,ダブリューキャピタル,0
551,3010001262494,新規,0,2026-02-04,2026-02-04,株式会社Ａｓｐｉｒａｔｉｏｎ,,株式会社,東京都,中央区,晴海２丁目３番２－２７１９号,,13,102,1040053,,,,,,,2026-02-04,1,,,,,アスピレーション,0
552,3010001262536,新規,0,2026-02-04,2026-02-04,株式会社ＴＨ２,,株式会社,東京都,中央区,築地３丁目７－１１ＣＵＢＥＴＳＵＫＩＪＩ３階,,13,102,1040045,,,,,,,2026-02-04,1,,,,,ティーエイチツー,0
553,3010001262560,新規,0,2026-02-04,2026-02-04,福安株式会社,,株式会社,東京都,中央区,入船１丁目９番８号,,13,102,1040042,,,,,,,2026-02-04,1,,,,,フクアン,0
557,3010003050261,新規,0,2026-02-04,2026-02-04,バディソリューションズ合同会社,,合同会社,東京都,千代田区,神田須田町１丁目７番８号ＶＯＲＴ秋葉原ＩＶ２Ｆ,00142441,13,101,1010041,,,,,,,2026-02-04,1,,,,,バディソリューションズ,0
558,3010003050294,新規,0,2026-02-04,2026-02-04,アニムテクノロジーズ合同会社,,合同会社,東京都,千代田区,神田神保町３丁目１１番６号神保町ビル１０階,,13,101,1010051,,,,,,,2026-02-04,1,,,,,アニムテクノロジーズ,0
562,3010005041341,新規,0,2026-02-04,2026-02-04,一般社団法人ＳＯ４号,,その他の設立登記法人,東京都,千代田区,丸の内１丁目４番１号東京共同会計事務所内,,13,101,1000005,,,,,,,2026-02-04,1,,,,,エスオーヨンゴウ,0
572,3010401196128,新規,0,2026-02-04,2026-02-04,ファミタム株式会社,,株式会社,東京都,港区,芝浦３丁目２－１６,,13,103,1080023,,,,,,,2026-02-04,1,,,,,ファミタム,0
573,3010401196251,新規,0,2026-02-04,2026-02-04,株式会社コモンズシップ,,株式会社,東京都,港区,北青山１丁目３－１アールキューブ青山３階,,13,103,1070061,,,,,,,2026-02-04,1,,,,,コモンズシップ,0
574,3010401196292,新規,0,2026-02-04,2026-02-04,株式会社ＡＮＤ　ＧＲＯＵＰ,,株式会社,東京都,港区,芝２丁目２番１２号３階,,13,103,1050014,,,,,,,2026-02-04,1,,,,,アンドグループ,0
577,3010403037230,新規,0,2026-02-04,2026-02-04,ｅｕｎｏｉａ　ｐａｒｔｎｅｒｓ合同会社,,合同会社,東京都,港区,芝２丁目２７番８号,,13,103,1050014,,,,,,,2026-02-04,1,,,,,ユノイアパートナーズ,0
578,3010405025217,新規,0,2026-02-04,2026-02-04,堺筋ホールディング２一般社団法人,,その他の設立登記法人,東京都,港区,虎ノ門３丁目２２番１０－２０１号,,13,103,1050001,,,,,,,2026-02-04,1,,,,,サカイスジホールディングツー,0
585,3010701048994,新規,0,2026-02-04,2026-02-04,岩上アセットマネジメント株式会社,,株式会社,東京都,品川区,東五反田５丁目２１番１３号７０１号,,13,109,1410022,,,,,,,2026-02-04,1,,,,,イワカミアセットマネジメント,0
591,3010903010604,新規,0,2026-02-04,2026-02-04,リビングプラス合同会社,,合同会社,東京都,世田谷区,砧４丁目５番１４号マロンハウス砧２０１,,13,112,1570073,,,,,,,2026-02-04,1,,,,,リビングプラス,0
595,3011001175298,新規,0,2026-02-04,2026-02-04,株式会社ＵＴａｇ,,株式会社,東京都,渋谷区,恵比寿西１丁目３３－６,,13,113,1500021,,,,,,,2026-02-04,1,,,,,ユータグ,0
596,3011001175406,新規,0,2026-02-04,2026-02-04,サブコリス株式会社,,株式会社,東京都,渋谷区,渋谷２丁目１９番１５－６０９号,,13,113,1500002,,,,,,,2026-02-04,1,,,,,サブコリス,0
598,3011003023488,新規,0,2026-02-04,2026-02-04,合同会社Ｔｗｉｌｌ,,合同会社,東京都,渋谷区,道玄坂１丁目１０番８号渋谷道玄坂東急ビル２Ｆ‐Ｃ,,13,113,1500043,,,,,,,2026-02-04,1,,,,,トゥウィル,0
604,3011101114619,新規,0,2026-02-04,2026-02-04,株式会社ウェーブ,,株式会社,東京都,新宿区,歌舞伎町２丁目４５番５号,,13,104,1600021,,,,,,,2026-02-04,1,,,,,ウェーブ,0
606,3011103017010,新規,0,2026-02-04,2026-02-04,ＣＲ１合同会社,,合同会社,東京都,新宿区,富久町８番２６号東京ユナイテッド綜合事務所内,,13,104,1620067,,,,,,,2026-02-04,1,,,,,シーアールワン,0
610,3011701029134,新規,0,2026-02-04,2026-02-04,株式会社３３７ＷＯＲＫＳ,,株式会社,東京都,江戸川区,清新町１丁目１番８－４０３号,,13,123,1340087,,,,,,,2026-02-04,1,,,,,サンサンナナワークス,0
614,3011801047390,新規,0,2026-02-04,2026-02-04,株式会社ＬＩＮＫ,,株式会社,東京都,足立区,竹の塚７丁目２－２１赤城フラッツ４０１号室,,13,121,1210813,,,,,,,2026-02-04,1,,,,,リンク,0
622,3013301055709,新規,0,2026-02-04,2026-02-04,株式会社ユイメディカルパートナーズ,,株式会社,東京都,豊島区,駒込１丁目４３番８号,,13,116,1700003,,,,,,,2026-02-04,1,,,,,ユイメディカルパートナーズ,0
628,3020001166991,新規,0,2026-02-04,2026-02-04,株式会社リフォームかがやき,,株式会社,神奈川県,横浜市金沢区,富岡東５丁目４番２３号東富岡ハイツＡ,,14,108,2360051,,,,,,,2026-02-04,1,,,,,リフォームカガヤキ,0
644,3030003028529,新規,0,2026-02-04,2026-02-04,合同会社リーダーズラボ,,合同会社,埼玉県,さいたま市大宮区,北袋町１丁目６０１番地１Ｃ棟１２３,,11,103,3300835,,,,,,,2026-02-04,1,,,,,リーダーズラボ,0
645,3030003028603,新規,0,2026-02-04,2026-02-04,合同会社ＭＡＲＥ,,合同会社,埼玉県,入間郡三芳町,大字北永井９７２番地,,11,324,3540044,,,,,,,2026-02-04,1,,,,,マーレ,0
659,3080001027412,新規,0,2026-02-04,2026-02-04,株式会社ＥＶ　ＨＯＬＤＩＮＧＳ,,株式会社,静岡県,静岡市葵区,紺屋町１７番地の１葵タワー１階,,22,101,4200852,,,,,,,2026-02-04,1,,,,,イーブイホールディングス,0
660,3080101026058,新規,0,2026-02-04,2026-02-04,株式会社ＩＤＥＡＬ,,株式会社,静岡県,三島市,大社町６番２号,,22,206,4110853,,,,,,,2026-02-04,1,,,,,イデアル,0
662,3080401028423,新規,0,2026-02-04,2026-02-04,株式会社松下園,,株式会社,静岡県,掛川市,満水５９２番地,,22,213,4360011,,,,,,,2026-02-04,1,,,,,マツシタエン,0
670,3110001039874,新規,0,2026-02-04,2026-02-04,株式会社吉田開発,,株式会社,新潟県,新発田市,山崎２０４番地１９,,15,206,9570028,,,,,,,2026-02-04,1,,,,,ヨシダカイハツ,0
684,3120001283471,新規,0,2026-02-04,2026-02-04,株式会社ＦＩＲＳＴ　ＧＡＴＥ,,株式会社,大阪府,大阪市北区,梅田１丁目１１番４号９２３大阪駅前第４ビル９Ｆ,,27,127,5300001,,,,,,,2026-02-04,1,,,,,ファーストゲート,0
685,3120001283793,新規,0,2026-02-04,2026-02-04,株式会社お仏壇手と手,,株式会社,大阪府,大阪市阿倍野区,阪南町４丁目１番２７号,,27,119,5450021,,,,,,,2026-02-04,1,,,,,オブツダンテトテ,0
686,3120001283918,新規,0,2026-02-04,2026-02-04,４０４株式会社,,株式会社,大阪府,大阪市北区,中崎西３丁目３番４３号,,27,127,5300015,,,,,,,2026-02-04,1,,,,,フォーオーフォー,0
687,3120001283926,新規,0,2026-02-04,2026-02-04,株式会社Ｆａｍｉｌｉｅ,,株式会社,大阪府,大阪市福島区,吉野１丁目２０番５号モード福島５０１号,,27,103,5530006,,,,,,,2026-02-04,1,,,,,ファミリエ,0
692,3120003031820,新規,0,2026-02-04,2026-02-04,Ｂ‐ｐｌａｎｎｉｎｇ合同会社,,合同会社,大阪府,大阪市浪速区,下寺３丁目２－２－１３０６,,27,111,5560001,,,,,,,2026-02-04,1,,,,,ビープランニング,0
695,3120101073129,新規,0,2026-02-04,2026-02-04,Ｂａｓｅｌｉｎｅ株式会社,,株式会社,大阪府,南河内郡太子町,大字春日１２１６－５寿ハイツ１０３号,,27,381,5830991,,,,,,,2026-02-04,1,,,,,ベースライン,0
698,3120903006062,新規,0,2026-02-04,2026-02-04,合同会社ＲＥＶＩＶＡＬ,,合同会社,大阪府,豊中市,豊南町西３丁目１３番１号,,27,203,5610816,,,,,,,2026-02-04,1,,,,,リバイバル,0
706,3130001081552,新規,0,2026-02-04,2026-02-04,株式会社Ｋｏｍ,,株式会社,京都府,宇治市,宇治大谷２３－１２,,26,204,6110021,,,,,,,2026-02-04,1,,,,,コム,0
707,3130001081560,新規,0,2026-02-04,2026-02-04,株式会社ラブライス,,株式会社,京都府,京都市下京区,八幡町５３４番地１,,26,106,6008455,,,,,,,2026-02-04,1,,,,,ラブライス,0
708,3130003011103,新規,0,2026-02-04,2026-02-04,合同会社ロクタン,,合同会社,京都府,京都市左京区,修学院山ノ鼻町１０番地２０,,26,103,6068025,,,,,,,2026-02-04,1,,,,,ロクタン,0
709,3130003011136,新規,0,2026-02-04,2026-02-04,Ｇｒａｃｅメディカルヘルスケア合同会社,,合同会社,京都府,京都市下京区,朱雀宝蔵町４４番地協栄ビル２階京都朱雀スタジオＡＶ－４０３,,26,106,6008846,,,,,,,2026-02-04,1,,,,,グレースメディカルヘルスケア,0
715,3140001141586,新規,0,2026-02-04,2026-02-04,株式会社緑開発,,株式会社,兵庫県,姫路市,飾磨区妻鹿７９１番地の１０,,28,201,6728031,,,,,,,2026-02-04,1,,,,,ミドリカイハツ,0
716,3140001141628,新規,0,2026-02-04,2026-02-04,株式会社ナラコ,,株式会社,兵庫県,尼崎市,大庄北４丁目３番１－４０７号,,28,202,6600063,,,,,,,2026-02-04,1,,,,,ナラコ,0
717,3140001141660,新規,0,2026-02-04,2026-02-04,シュクセビ株式会社,,株式会社,兵庫県,神戸市東灘区,魚崎中町２丁目１３番１４号,,28,101,6580083,,,,,,,2026-02-04,1,,,,,シュクセビ,0
718,3140003023171,新規,0,2026-02-04,2026-02-04,合同会社ＡｄＰｒｉｍａｓｅ,,合同会社,兵庫県,三木市,緑が丘町中２丁目１０番地の２６,,28,215,6730532,,,,,,,2026-02-04,1,,,,,アドプリマージュ,0
728,3170003002379,新規,0,2026-02-04,2026-02-04,北野合同会社,,合同会社,和歌山県,西牟婁郡すさみ町,周参見５３７０－１１,,30,406,6492621,,,,,,,2026-02-04,1,,,,,キタノ,0
741,3180001170490,新規,0,2026-02-04,2026-02-04,株式会社Ｂｌｕｅ　Ａｃｔｉｏｎ,,株式会社,愛知県,長久手市,市が洞３丁目２１０１番地クレストリッジアネックス１０２,,23,238,4801147,,,,,,,2026-02-04,1,,,,,ブルーアクション,0
742,3180001170508,新規,0,2026-02-04,2026-02-04,欣成ＪＡＰＡＮ株式会社,,株式会社,愛知県,名古屋市東区,泉２丁目２８番２４号東和高岳ビル６０３号室,,23,102,4610001,,,,,,,2026-02-04,1,,,,,キンセイジャパン,0
743,3180001170516,新規,0,2026-02-04,2026-02-04,ＢＡＭＳ株式会社,,株式会社,愛知県,東海市,名和町一本木４４番地ロワジール３号,,23,222,4760002,,,,,,,2026-02-04,1,,,,,バンズ,0
744,3180001170532,新規,0,2026-02-04,2026-02-04,株式会社Ｇｅｉｓｈａ　Ｂｌｕｅ,,株式会社,愛知県,名古屋市千種区,春岡１丁目４－２１Ｆｕｃｈｓｉａ２０３号室,,23,101,4640848,,,,,,,2026-02-04,1,,,,,ゲイシャブルー,0
745,3180003029735,新規,0,2026-02-04,2026-02-04,スリーワイ合同会社,,合同会社,愛知県,名古屋市緑区,鳴海町字古鳴海４２番地１,,23,114,4580801,,,,,,,2026-02-04,1,,,,,スリーワイ,0
748,3180301040658,新規,0,2026-02-04,2026-02-04,株式会社マルダイフーヅ,,株式会社,愛知県,蒲郡市,拾石町本郷７番地１,,23,214,4430038,,,,,,,2026-02-04,1,,,,,マルダイフーヅ,0
749,3180301040666,新規,0,2026-02-04,2026-02-04,株式会社イズレ,,株式会社,愛知県,岡崎市,戸崎町字榎ケ坪２６番地グラシオン仁大３０８,,23,202,4440840,,,,,,,2026-02-04,1,,,,,イズレ,0
755,3200001044667,新規,0,2026-02-04,2026-02-04,株式会社Ｄサービス,,株式会社,岐阜県,加茂郡川辺町,石神７９５番地４,,21,503,5090303,,,,,,,2026-02-04,1,,,,,ディーサービス,0
759,3200003007218,新規,0,2026-02-04,2026-02-04,こども子育て応援団合同会社,,合同会社,岐阜県,大垣市,枝郷４丁目４７番地２,,21,202,5032207,,,,,,,2026-02-04,1,,,,,コドモコソダテオウエンダン,0
760,3210001020485,新規,0,2026-02-04,2026-02-04,アウテリアＲ．Ｆ株式会社,,株式会社,福井県,福井市,東森田１丁目２６３０番地,,18,201,9100138,,,,,,,2026-02-04,1,,,,,アウテリアアールエフ,0
762,3210005010251,新規,0,2026-02-04,2026-02-04,一般社団法人ネクステクノキュー,,その他の設立登記法人,福井県,福井市,下森田新町５２５,,18,201,9100143,,,,,,,2026-02-04,1,,,,,ネクステクノキュー,0
772,3260001040958,新規,0,2026-02-04,2026-02-04,株式会社ベリグー,,株式会社,岡山県,岡山市南区,新保１０１５番地２６,,33,104,7000945,,,,,,,2026-02-04,1,,,,,ベリグー,0
782,3290001112977,新規,0,2026-02-04,2026-02-04,宮建工業株式会社,,株式会社,福岡県,八女郡広川町,大字久泉７４９番地１,,40,544,8340112,,,,,,,2026-02-04,1,,,,,ミヤケンコウギョウ,0
783,3290001113001,新規,0,2026-02-04,2026-02-04,彩彬商事株式会社,,株式会社,福岡県,福岡市東区,香椎照葉６丁目２番５１号アイランドシティオーシャン＆フォレストタワーレジデンスＥＡＳＴ３１０６号室,,40,131,8130017,,,,,,,2026-02-04,1,,,,,サイヒンショウジ,0
784,3290001113018,新規,0,2026-02-04,2026-02-04,株式会社ＬｉｆｅＢｏａ,,株式会社,福岡県,福岡市南区,大楠２丁目６番９号,,40,134,8150082,,,,,,,2026-02-04,1,,,,,ライフボア,0
785,3290001113026,新規,0,2026-02-04,2026-02-04,株式会社スカイクリア,,株式会社,福岡県,福岡市中央区,天神４丁目６－２８いちご天神ノースビル７階,,40,133,8100001,,,,,,,2026-02-04,1,,,,,スカイクリア,0
786,3290001113034,新規,0,2026-02-04,2026-02-04,株式会社ドリームエナジー,,株式会社,福岡県,福岡市博多区,博多駅前３丁目２３番１７号５階,,40,132,8120011,,,,,,,2026-02-04,1,,,,,ドリームエナジー,0
787,3290003018017,新規,0,2026-02-04,2026-02-04,合同会社Ｓ．Ａ．Ｃ,,合同会社,福岡県,福岡市中央区,今川１丁目１５番２号,,40,133,8100054,,,,,,,2026-02-04,1,,,,,サック,0
790,3310001019947,新規,0,2026-02-04,2026-02-04,株式会社ココボンド,,株式会社,長崎県,長崎市,銀屋町２番１６‐２０１号,,42,201,8500854,,,,,,,2026-02-04,1,,,,,ココボンド,0
797,3330005011023,新規,0,2026-02-04,2026-02-04,一般社団法人ＤＩＡ,,その他の設立登記法人,熊本県,人吉市,富ケ尾町１番地１,,43,203,8680048,,,,,,,2026-02-04,1,,,,,ディーアイエー,0
806,3390001018248,新規,0,2026-02-04,2026-02-04,株式会社草刈ファーム,,株式会社,山形県,北村山郡大石田町,大字豊田８５７番地１,,06,341,9994134,,,,,,,2026-02-04,1,,,,,クサカリファーム,0
810,3410001014384,新規,0,2026-02-04,2026-02-04,株式会社ＭＹＳ,,株式会社,秋田県,秋田市,広面字昼寝４３番地１,,05,201,0100041,,,,,,,2026-02-04,1,,,,,エムワイエス,0
816,3430005015402,新規,0,2026-02-04,2026-02-04,一般財団法人ピアプロ財団,,その他の設立登記法人,北海道,札幌市中央区,北三条西４丁目１番地１,,01,101,0600003,,,,,,,2026-02-04,1,,,,,ピアプロザイダン,0
822,3480001013074,新規,0,2026-02-04,2026-02-04,株式会社牛寅,,株式会社,徳島県,徳島市,安宅１丁目９番２４号,,36,201,7700863,,,,,,,2026-02-04,1,,,,,ウシトラ,0
823,3480003002380,新規,0,2026-02-04,2026-02-04,Ｙ‐ＮＥＸＴ合同会社,,合同会社,徳島県,板野郡松茂町,中喜来字堤外９７番地３,,36,401,7710212,,,,,,,2026-02-04,1,,,,,ワイネクスト,0
828,3500001026759,新規,0,2026-02-04,2026-02-04,株式会社山内水産,,株式会社,愛媛県,宇和島市,遊子２８４０番地,,38,203,7980103,,,,,,,2026-02-04,1,,,,,ヤマウチスイサン,0
844,4010001262320,新規,0,2026-02-04,2026-02-04,ＤＯＥＲＳ株式会社,,株式会社,東京都,中央区,銀座１丁目１２番４号Ｎ＆ＥＢＬＤ７階,,13,102,1040061,,,,,,,2026-02-04,1,,,,,ドゥアーズ,0
845,4010001262477,新規,0,2026-02-04,2026-02-04,ＪＰＭ第１号株式会社,,株式会社,東京都,千代田区,霞が関３丁目２番１号,,13,101,1000013,,,,,,,2026-02-04,1,,,,,ジェイピーエムダイイチゴウ,0
846,4010001262485,新規,0,2026-02-04,2026-02-04,株式会社ＲＥＰＬＵＳ,,株式会社,東京都,中央区,銀座８丁目１９番２－１００２号,,13,102,1040061,,,,,,,2026-02-04,1,,,,,リプラス,0
847,4010001262493,新規,0,2026-02-04,2026-02-04,株式会社Ｖｉｉ　Ｎｕｔｒｉｔｉｏｎ　Ｊａｐａｎ,,株式会社,東京都,中央区,銀座１丁目２０番１７号,,13,102,1040061,,,,,,,2026-02-04,1,,,,,ヴィニュートリションジャパン,0
848,4010001262535,新規,0,2026-02-04,2026-02-04,アクセン株式会社,,株式会社,東京都,中央区,日本橋室町１丁目１１番１２号日本橋水野ビル７階,,13,102,1030022,,,,,,,2026-02-04,1,,,,,アクセン,0
849,4010001262543,新規,0,2026-02-04,2026-02-04,中央住宅サービス株式会社,,株式会社,東京都,千代田区,神田和泉町１番地６の１インターナショナルビル７０２号室,,13,101,1010024,,,,,,,2026-02-04,1,,,,,チュウオウジュウタクサービス,0
850,4010001262592,新規,0,2026-02-04,2026-02-04,株式会社ゼウス,,株式会社,東京都,中央区,銀座８丁目１０番８号銀座八丁目１０番ビル３階Ｂ,,13,102,1040061,,,,,,,2026-02-04,1,,,,,ゼウス,0
853,4010003050236,新規,0,2026-02-04,2026-02-04,合同会社Ｋａｇｉｌｅ,,合同会社,東京都,中央区,銀座１丁目１２番４号Ｎ＆ＥＢＬＤ．６Ｆ,,13,102,1040061,,,,,,,2026-02-04,1,,,,,カジル,0
854,4010003050252,新規,0,2026-02-04,2026-02-04,ＡｏｚｏｒａＦｅｒｎ合同会社,,合同会社,東京都,中央区,銀座７丁目１３番２１号銀座ｓｉｎｒｏｋｕｓｙｕビル２階,,13,102,1040061,,,,,,,2026-02-04,1,,,,,アオゾラファーン,0
855,4010101017062,新規,0,2026-02-04,2026-02-04,株式会社ｕｎｎｓｕｉ,,株式会社,東京都,八王子市,絹ケ丘１丁目２８番３号,,13,201,1920912,,,,,,,2026-02-04,1,,,,,ウンスイ,0
865,4010401196250,新規,0,2026-02-04,2026-02-04,株式会社リケンホールディングス,,株式会社,東京都,港区,芝大門１丁目２番８号,,13,103,1050012,,,,,,,2026-02-04,1,,,,,リケンホールディングス,0
866,4010401196291,新規,0,2026-02-04,2026-02-04,株式会社ＲＥＡＬ　ＶＡＬＵＥ　ＳＴＵＤＥＮＴＳ,,株式会社,東京都,港区,芝２丁目２番１２号３階,,13,103,1050014,,,,,,,2026-02-04,1,,,,,リアルバリュースチューデント,0
867,4010401196300,新規,0,2026-02-04,2026-02-04,株式会社ハジマルシェ,,株式会社,東京都,港区,浜松町２丁目２番１５号浜松町ダイヤビル２Ｆ,,13,103,1050013,,,,,,,2026-02-04,1,,,,,ハジマルシェ,0
868,4010403037213,新規,0,2026-02-04,2026-02-04,ＭＹＮＯＲＩ合同会社,,合同会社,東京都,港区,芝浦１丁目１番１号,,13,103,1050023,,,,,,,2026-02-04,1,,,,,ミノリ,0
869,4010405025216,新規,0,2026-02-04,2026-02-04,堺筋ホールディング１一般社団法人,,その他の設立登記法人,東京都,港区,虎ノ門３丁目２２番１０－２０１号,,13,103,1050001,,,,,,,2026-02-04,1,,,,,サカイスジホールディングワン,0
870,4010405025265,新規,0,2026-02-04,2026-02-04,Ｊａｐａｎ３一般社団法人,,その他の設立登記法人,東京都,港区,西新橋２丁目２０番１号Ｎａｎ－ｏＢｌｄｇ．新虎５階,,13,103,1050003,,,,,,,2026-02-04,1,,,,,ジャパンスリー,0
871,4010503008155,新規,0,2026-02-04,2026-02-04,モアウェル合同会社,,合同会社,東京都,台東区,上野１丁目１７番６号広小路ビル８Ｆ－Ｂ,,13,106,1100005,,,,,,,2026-02-04,1,,,,,モアウェル,0
877,4010601068662,新規,0,2026-02-04,2026-02-04,株式会社エスフォート,,株式会社,東京都,江東区,東陽２丁目４番３９号４階,,13,108,1350016,,,,,,,2026-02-04,1,,,,,エスフォート,0
878,4010601068670,新規,0,2026-02-04,2026-02-04,株式会社ＫＳＪ,,株式会社,東京都,江東区,亀戸９丁目１０番１－１１０号,,13,108,1360071,,,,,,,2026-02-04,1,,,,,ケーエスジェイ,0
879,4010601068679,新規,0,2026-02-04,2026-02-04,株式会社ＫＵＲＯＮＯＯ,,株式会社,東京都,江東区,東陽３丁目１６―１３―６０３,,13,108,1350016,,,,,,,2026-02-04,1,,,,,クロノー,0
886,4010901058891,新規,0,2026-02-04,2026-02-04,Ｌｉｎｋ　ｒｉｓｅ株式会社,,株式会社,東京都,世田谷区,弦巻２丁目１２－２１、１０２,,13,112,1540016,,,,,,,2026-02-04,1,,,,,リンクライズ,0
887,4010903010611,新規,0,2026-02-04,2026-02-04,Ｆａｃｔｓ＆Ｔｒｕｔｈ合同会社,,合同会社,東京都,世田谷区,砧２丁目３番４号,,13,112,1570073,,,,,,,2026-02-04,1,,,,,ファクツアンドトゥルース,0
892,4011001175074,新規,0,2026-02-04,2026-02-04,株式会社鳥めい,,株式会社,東京都,目黒区,中央町１丁目４番１１号ラフィネ学芸大学３０１,,13,110,1520001,,,,,,,2026-02-04,1,,,,,トリメイ,0
893,4011001175306,新規,0,2026-02-04,2026-02-04,株式会社ネットワークソリューションズ,,株式会社,東京都,渋谷区,代々木２丁目２３番１号ニューステイトメナー１３４５,,13,113,1510053,,,,,,,2026-02-04,1,,,,,,0
894,4011003023405,新規,0,2026-02-04,2026-02-04,合同会社ＰＵＧ,,合同会社,東京都,渋谷区,神南１丁目１１－４ＦＰＧリンクス神南５階,,13,113,1500041,,,,,,,2026-02-04,1,,,,,パグ,0
898,4011101114601,新規,0,2026-02-04,2026-02-04,株式会社ストックアンフロー,,株式会社,東京都,新宿区,大久保１丁目２－１－７０６,,13,104,1690072,,,,,,,2026-02-04,1,,,,,ストックアンフロー,0
901,4011201026936,新規,0,2026-02-04,2026-02-04,株式会社手力プロダクション,,株式会社,東京都,中野区,上高田１丁目４０番４号,,13,114,1640002,,,,,,,2026-02-04,1,,,,,タジカラプロダクション,0
908,4011703004514,新規,0,2026-02-04,2026-02-04,合同会社Ｒｕｎｎｅｒ,,合同会社,東京都,江戸川区,西葛西２丁目２２番４５－８１２号,,13,123,1340088,,,,,,,2026-02-04,1,,,,,ランナー,0
911,4011801047398,新規,0,2026-02-04,2026-02-04,株式会社セレスト,,株式会社,東京都,葛飾区,東四つ木１丁目２２番１号,,13,122,1240014,,,,,,,2026-02-04,1,,,,,セレスト,0
914,4012401044083,新規,0,2026-02-04,2026-02-04,株式会社ＬＩＮＱＳ,,株式会社,東京都,三鷹市,野崎１丁目７番１号,,13,204,1810014,,,,,,,2026-02-04,1,,,,,リンクス,0
925,4020001166990,新規,0,2026-02-04,2026-02-04,株式会社はらっぱ,,株式会社,神奈川県,川崎市中原区,上小田中６丁目２６番１１号,,14,133,2110053,,,,,,,2026-02-04,1,,,,,ハラッパ,0
930,4020003030204,新規,0,2026-02-04,2026-02-04,Ｓｔｅｌｌａ　Ｉｎｓｔｉｔｕｔｅ合同会社,,合同会社,神奈川県,川崎市幸区,中幸町３丁目３２－６,,14,132,2120012,,,,,,,2026-02-04,1,,,,,ステラインスティチュート,0
931,4021003017133,新規,0,2026-02-04,2026-02-04,合同会社第三農産,,合同会社,神奈川県,三浦市,南下浦町菊名６３５,,14,210,2380102,,,,,,,2026-02-04,1,,,,,ダイサンノウサン,0
937,4030001170810,新規,0,2026-02-04,2026-02-04,株式会社ビビ,,株式会社,埼玉県,新座市,野火止３丁目９４３,,11,230,3520011,,,,,,,2026-02-04,1,,,,,ビビ,0
938,4030001170819,新規,0,2026-02-04,2026-02-04,株式会社ＳＵＩ　ＰＲＯＰＥＲＴＩＥＳ,,株式会社,埼玉県,川口市,在家町２０番１１号,,11,203,3330863,,,,,,,2026-02-04,1,,,,,スイプロパティーズ,0
941,4030003028585,新規,0,2026-02-04,2026-02-04,合同会社ミライリンク,,合同会社,埼玉県,入間郡毛呂山町,中央１丁目１３―２小室測量ビル２Ｆ,,11,326,3500461,,,,,,,2026-02-04,1,,,,,ミライリンク,0
943,4040001142362,新規,0,2026-02-04,2026-02-04,株式会社３Ｌｉｎｋ,,株式会社,千葉県,我孫子市,高野山６１０番地,,12,222,2701145,,,,,,,2026-02-04,1,,,,,スリンク,0
944,4040001142420,新規,0,2026-02-04,2026-02-04,株式会社エヌ・エム,,株式会社,千葉県,柏市,大島田２丁目５番地１,,12,217,2770922,,,,,,,2026-02-04,1,,,,,エヌエム,0
949,4040003029228,新規,0,2026-02-04,2026-02-04,合同会社スノー・エステート,,合同会社,千葉県,野田市,目吹２５３７－１０９,,12,208,2780001,,,,,,,2026-02-04,1,,,,,スノーエステート,0
951,4040003029401,新規,0,2026-02-04,2026-02-04,合同会社ＯＧＵ,,合同会社,千葉県,千葉市中央区,弁天１丁目１５－３リードシー千葉駅前ビルＢ１Ｆ－３１,,12,101,2600045,,,,,,,2026-02-04,1,,,,,オグ,0
955,4050001057948,新規,0,2026-02-04,2026-02-04,株式会社パートナーズ,,株式会社,茨城県,稲敷市,江戸崎甲４５８番地１７,,08,229,3000504,,,,,,,2026-02-04,1,,,,,パートナーズ,0
973,4080001027411,新規,0,2026-02-04,2026-02-04,株式会社鈴木クリーニング,,株式会社,静岡県,島田市,中央町１９６４番地の３,,22,209,4270042,,,,,,,2026-02-04,1,,,,,スズキクリーニング,0
975,4080101026057,新規,0,2026-02-04,2026-02-04,株式会社仁衛,,株式会社,静岡県,富士宮市,山本２１６番地の３２,,22,207,4180023,,,,,,,2026-02-04,1,,,,,ジンエイ,0
976,4080403005436,新規,0,2026-02-04,2026-02-04,合同会社有機茶の里いさがわ,,合同会社,静岡県,浜松市天竜区,春野町砂川５７番地の１,,22,140,4370621,,,,,,,2026-02-04,1,,,,,ユウキチャノサトイサガワ,0
981,4100001039313,新規,0,2026-02-04,2026-02-04,ＳＡＩＲＹＯ株式会社,,株式会社,長野県,長野市,大岡中牧３１２２,,20,201,3812701,,,,,,,2026-02-04,1,,,,,サイリョウ,0
993,4120001283859,新規,0,2026-02-04,2026-02-04,中日国際投資管理株式会社,,株式会社,大阪府,大阪市阿倍野区,阪南町１丁目５４番１９号,,27,119,5450021,,,,,,,2026-02-04,1,,,,,チュウニチコクサイトウシカンリ,0
994,4120001283867,新規,0,2026-02-04,2026-02-04,株式会社ＡｎＮａ,,株式会社,大阪府,大阪市天王寺区,筆ケ崎町２番５０－１２１１号,,27,109,5430027,,,,,,,2026-02-04,1,,,,,アンナ,0
996,4120003031836,新規,0,2026-02-04,2026-02-04,合同会社インダクションパートナーズ,,合同会社,大阪府,大阪市鶴見区,放出東３丁目９‐２７,,27,124,5380044,,,,,,,2026-02-04,1,,,,,インダクションパートナーズ,0
1000,4120101073136,新規,0,2026-02-04,2026-02-04,株式会社エースリー,,株式会社,大阪府,富田林市,桜井町１丁目６番４－３号,,27,214,5840013,,,,,,,2026-02-04,1,,,,,エースリー,0
1010,4130001081527,新規,0,2026-02-04,2026-02-04,株式会社ＴＤＯ　ＪＡＰＡＮ,,株式会社,京都府,京都市右京区,西京極東町３番地,,26,108,6150816,,,,,,,2026-02-04,1,,,,,ティーディーオージャパン,0
1011,4130001081576,新規,0,2026-02-04,2026-02-04,株式会社オーシャンズドリーム,,株式会社,京都府,京都市西京区,大枝東長町１番地５８６,,26,111,6101111,,,,,,,2026-02-04,1,,,,,オーシャンズドリーム,0
1016,4140001141585,新規,0,2026-02-04,2026-02-04,０７ＳｙｎＱ株式会社,,株式会社,兵庫県,神戸市東灘区,向洋町中６丁目９番地,,28,101,6580032,,,,,,,2026-02-04,1,,,,,ゼロナナシンク,0
1017,4140001141627,新規,0,2026-02-04,2026-02-04,株式会社Ｚｅｌ‐Ｍ,,株式会社,兵庫県,神戸市西区,伊川谷町有瀬６２０番地ボヌール有瀬ＩＩ３０５号,00142448,28,111,6512113,,,,,,,2026-02-04,1,,,,,ゼルム,0
1018,4140001141643,新規,0,2026-02-04,2026-02-04,イーストウェルス株式会社,,株式会社,兵庫県,神戸市東灘区,深江南町１丁目１１番１２－４０３号,,28,101,6580022,,,,,,,2026-02-04,1,,,,,イーストウェルス,0
1021,4140003023162,新規,0,2026-02-04,2026-02-04,ウィズ・サワモト合同会社,,合同会社,兵庫県,宝塚市,小林２丁目８－１１千種ヶ丘グランドハイツ２０１号,,28,214,6650034,,,,,,,2026-02-04,1,,,,,ウィズサワモト,0
1022,4140005027780,新規,0,2026-02-04,2026-02-04,すま税理士法人,,その他の設立登記法人,兵庫県,姫路市,飾磨区三宅１丁目１９４番地２今村ビル３階,,28,201,6728048,,,,,,,2026-02-04,1,,,,,スマ,0
1023,4140005027789,新規,0,2026-02-04,2026-02-04,一般社団法人きたはりまメディカルネットワーク,,その他の設立登記法人,兵庫県,小野市,市場町９２６番地の２５０,,28,218,6751327,,,,,,,2026-02-04,1,,,,,キタハリマメディカルネットワーク,0
1025,4160001027394,新規,0,2026-02-04,2026-02-04,株式会社プレイケアシステム,,株式会社,滋賀県,大津市,松が丘６丁目４番１０号,,25,201,5202102,,,,,,,2026-02-04,1,,,,,プレイケアシステム,0
1026,4160001027403,新規,0,2026-02-04,2026-02-04,株式会社Ｋ‐ＦＲＥＥコンサルティング,,株式会社,滋賀県,彦根市,外町２９１番地８９,,25,202,5220009,,,,,,,2026-02-04,1,,,,,ケーフリーコンサルティング,0
1030,4170003002378,新規,0,2026-02-04,2026-02-04,合同会社自由な旅びと,,合同会社,和歌山県,和歌山市,栄谷４５８番地５,,30,201,6408441,,,,,,,2026-02-04,1,,,,,ジユウナタビビト,0
1035,4180001170507,新規,0,2026-02-04,2026-02-04,株式会社ＩＦＣ,,株式会社,愛知県,津島市,高台寺町字尼ケ御堂１番地１,,23,208,4960015,,,,,,,2026-02-04,1,,,,,アイエフシー,0
1037,4180003029718,新規,0,2026-02-04,2026-02-04,合同会社よりそいサポート,,合同会社,愛知県,名古屋市昭和区,白金１丁目１８番１１号安藤ビル３０１号,,23,107,4660058,,,,,,,2026-02-04,1,,,,,ヨリソイサポート,0
1038,4180301040657,新規,0,2026-02-04,2026-02-04,株式会社心一重,,株式会社,愛知県,豊川市,中央通５丁目５４番地,,23,207,4420051,,,,,,,2026-02-04,1,,,,,ココロヒトエ,0
1040,4190001032879,新規,0,2026-02-04,2026-02-04,株式会社Ｐａｌ,,株式会社,三重県,津市,久居野村町２００６番地５,,24,201,5141113,,,,,,,2026-02-04,1,,,,,パル,0
1047,4210001020484,新規,0,2026-02-04,2026-02-04,ＰＬＵＳＣＡＲＳ　ＪＡＰＡＮ株式会社,,株式会社,福井県,鯖江市,五郎丸町１２４番地１,,18,207,9160044,,,,,,,2026-02-04,1,,,,,プラスカーズジャパン,0
1049,4230001021274,新規,0,2026-02-04,2026-02-04,株式会社Ｒ＆Ｋ,,株式会社,富山県,富山市,上庄町４３番地２号,,16,201,9300826,,,,,,,2026-02-04,1,,,,,アールアンドケー,0
1050,4240001066129,新規,0,2026-02-04,2026-02-04,株式会社Ｄコネクト,,株式会社,広島県,広島市西区,草津新町２丁目１４番９－２０２号,,34,104,7330834,,,,,,,2026-02-04,1,,,,,ディーコネクト,0
1051,4240001066137,新規,0,2026-02-04,2026-02-04,サンゴウォーター株式会社,,株式会社,広島県,広島市中区,舟入本町１－１－１００５,,34,101,7300843,,,,,,,2026-02-04,1,,,,,サンゴウォーター,0
1052,4240001066145,新規,0,2026-02-04,2026-02-04,ＳＩＧＮ株式会社,,株式会社,広島県,廿日市市,地御前５丁目２１番５号,,34,213,7380042,,,,,,,2026-02-04,1,,,,,サイン,0
1056,4260001040949,新規,0,2026-02-04,2026-02-04,株式会社ＬｉＬＡＳ,,株式会社,岡山県,岡山市中区,祇園９４番地５,00142457,33,102,7038207,,,,,,,2026-02-04,1,,,,,リラ,0
1057,4260001040965,新規,0,2026-02-04,2026-02-04,株式会社伸信装飾,,株式会社,岡山県,岡山市南区,泉田２丁目５番６号,,33,104,7000944,,,,,,,2026-02-04,1,,,,,シンシンソウショク,0
1065,4290001112976,新規,0,2026-02-04,2026-02-04,Ｍｉｄｏｒｉｅ株式会社,,株式会社,福岡県,久留米市,田主丸町常盤４６８番地３,,40,203,8391232,,,,,,,2026-02-04,1,,,,,ミドリエ,0
1066,4290001112992,新規,0,2026-02-04,2026-02-04,株式会社ＭＥＲ,,株式会社,福岡県,福岡市東区,香椎照葉７丁目１２番１号,,40,131,8130017,,,,,,,2026-02-04,1,,,,,エムイーアール,0
1067,4290001113033,新規,0,2026-02-04,2026-02-04,株式会社ブルーム動物病院,,株式会社,福岡県,福岡市早良区,南庄１丁目２２番１９号,,40,137,8140031,,,,,,,2026-02-04,1,,,,,ブルームドウブツビョウイン,0
1068,4290001113041,新規,0,2026-02-04,2026-02-04,株式会社ｇｕａｇｕａ,,株式会社,福岡県,福岡市中央区,天神２丁目８－３５天神住友生命ＦＪビジネスセンター６Ｆ,,40,133,8100001,,,,,,,2026-02-04,1,,,,,グアグア,0
1071,4290003018032,新規,0,2026-02-04,2026-02-04,ＦｉｉＸ合同会社,,合同会社,福岡県,福岡市中央区,天神２丁目９－１８,,40,133,8100001,,,,,,,2026-02-04,1,,,,,フィックス,0
1081,4340001027954,新規,0,2026-02-04,2026-02-04,株式会社ＨＩＧＨ‐ＳＴＡＮＤＡＲＤ,,株式会社,鹿児島県,鹿児島市,山田町２３２９番地１,,46,201,8910104,,,,,,,2026-02-04,1,,,,,ハイスタンダード,0
1088,4370001053428,新規,0,2026-02-04,2026-02-04,株式会社ＡＩテレアポパートナーズ,,株式会社,宮城県,仙台市青葉区,中央２丁目１１番１９仙南ビル４階‐Ａ,,04,101,9800021,,,,,,,2026-02-04,1,,,,,エーアイテレアポパートナーズ,0
1090,4380001035846,新規,0,2026-02-04,2026-02-04,星のグリーンファーム株式会社,,株式会社,福島県,相馬郡飯舘村,佐須字前乗２７５番地,,07,564,9601815,,,,,,,2026-02-04,1,,,,,ホシノグリーンファーム,0
1092,4390001018239,新規,0,2026-02-04,2026-02-04,株式会社西野建設工業,,株式会社,山形県,酒田市,千石町２丁目１２番３号,,06,204,9980843,,,,,,,2026-02-04,1,,,,,ニシノケンセツコウギョウ,0
1093,4390001018247,新規,0,2026-02-04,2026-02-04,株式会社さとうライス,,株式会社,山形県,鶴岡市,羽黒町野荒町字水上１４番地,,06,203,9970126,,,,,,,2026-02-04,1,,,,,,0
1094,4410001014383,新規,0,2026-02-04,2026-02-04,株式会社伊藤電工,,株式会社,秋田県,秋田市,河辺北野田高屋字上前田表７３番地４,,05,201,0192625,,,,,,,2026-02-04,1,,,,,イトウデンコウ,0
1101,4460101007811,新規,0,2026-02-04,2026-02-04,株式会社クレオ,,株式会社,北海道,帯広市,西十条南３９丁目５番２号,,01,207,0800020,,,,,,,2026-02-04,1,,,,,クレオ,0
1102,4470001021077,新規,0,2026-02-04,2026-02-04,株式会社Ｓｋｙ　Ｆｒｅｘｕｓ　ＨＤ,,株式会社,香川県,善通寺市,上吉田町４１８番地２,,37,204,7650012,,,,,,,2026-02-04,1,,,,,スカイフレクサスホールディングス,0
1103,4470001021085,新規,0,2026-02-04,2026-02-04,株式会社蕎麦カフェ華々,,株式会社,香川県,高松市,東山崎町９８６番地５,,37,201,7610312,,,,,,,2026-02-04,1,,,,,ソバカフェハナハナ,0
1104,4480001013073,新規,0,2026-02-04,2026-02-04,株式会社なごみ,,株式会社,徳島県,阿南市,橘町幸野１０番地７,,36,204,7740023,,,,,,,2026-02-04,1,,,,,ナゴミ,0
1110,4700150134259,新規,0,2026-02-04,2026-02-02,加賀しずくプロモーション実行委員会,,その他,石川県,金沢市,古府１丁目２２０,,17,201,9200362,,,,,,,2026-02-02,1,,,,,カガシズクプロモーシヨンジツコウイインカイ,0
1116,5010001262170,新規,0,2026-02-04,2026-02-04,リソースワーカーキャリア株式会社,,株式会社,東京都,千代田区,神田須田町１丁目１４－１ヒューリック神田須田町ビル１階,,13,101,1010041,,,,,,,2026-02-04,1,,,,,,0
1117,5010001262476,新規,0,2026-02-04,2026-02-04,ＣＫ．ＯＮＥパートナーズ株式会社,,株式会社,東京都,千代田区,四番町５番地４－３０５号,,13,101,1020081,,,,,,,2026-02-04,1,,,,,シーケーワンパートナーズ,0
1118,5010001262484,新規,0,2026-02-04,2026-02-04,株式会社ＣＯＶＡＬＩＯ,,株式会社,東京都,中央区,銀座１丁目１２番４号Ｎ＆ＥＢＬＤ．７階,,13,102,1040061,,,,,,,2026-02-04,1,,,,,コヴァリオ,0
1119,5010001262492,新規,0,2026-02-04,2026-02-04,Ｎａｖｙインテグラル２株式会社,,株式会社,東京都,千代田区,丸の内１丁目９番２号,,13,101,1000005,,,,,,,2026-02-04,1,,,,,ネイビーインテグラルツー,0
1122,5010003050235,新規,0,2026-02-04,2026-02-04,合同会社鹿屋市串良町蓄電所,,合同会社,東京都,中央区,日本橋浜町２丁目７番１号小田ビル３Ｆ,,13,102,1030007,,,,,,,2026-02-04,1,,,,,カノヤシクシラチョウチクデンショ,0
1123,5010003050243,新規,0,2026-02-04,2026-02-04,アーバンビスタ合同会社,,合同会社,東京都,千代田区,平河町２丁目１６番２号平河町森タワーレジデンス１６０２号,,13,101,1020093,,,,,,,2026-02-04,1,,,,,アーバンビスタ,0
1124,5010003050251,新規,0,2026-02-04,2026-02-04,ＬＰインベストメンツ４号合同会社,,合同会社,東京都,中央区,銀座１丁目２４－３ＢｉｚＦｅｅｌＧＩＮＺＡＰＡＲＫＳＩＤＥ４Ｆ,,13,102,1040061,,,,,,,2026-02-04,1,,,,,エルピーインベストメンツヨンゴウ,0
1125,5010003050276,新規,0,2026-02-04,2026-02-04,合同会社ラプター,,合同会社,東京都,千代田区,内幸町１丁目３番３号,,13,101,1000011,,,,,,,2026-02-04,1,,,,,ラプター,0
1136,5010401196241,新規,0,2026-02-04,2026-02-04,スカイオフショア・ジャパン株式会社,,株式会社,東京都,港区,新橋４丁目２１番３号新橋東急ビル２Ｆ・３Ｆ,,13,103,1050004,,,,,,,2026-02-04,1,,,,,スカイオフショアジャパン,0
1137,5010401196258,新規,0,2026-02-04,2026-02-04,Ｓａｖｉｙｎｔ　Ｊａｐａｎ株式会社,,株式会社,東京都,港区,六本木１丁目９番１０号アークヒルズ仙石山森タワー２８階ベーカー＆マッケンジー法律事務所（外国法共同事業）内,,13,103,1060032,,,,,,,2026-02-04,1,,,,,セイヴィエントジャパン,0
1138,5010401196274,新規,0,2026-02-04,2026-02-04,株式会社Ｗｅｂｂ,,株式会社,東京都,港区,赤坂６丁目９番１７号赤坂メープルヒル５階,,13,103,1070052,,,,,,,2026-02-04,1,,,,,ウェッブ,0
1142,5010403037154,新規,0,2026-02-04,2026-02-04,合同会社ＭＦ５,,合同会社,東京都,港区,赤坂４丁目１－２９赤坂赤菱ビル５階,,13,103,1070052,,,,,,,2026-02-04,1,,,,,エムエフファイブ,0
1143,5010403037220,新規,0,2026-02-04,2026-02-04,１００６Ｅｎｔｅｒｔａｉｎｍｅｎｔ　Ｇｒｏｕｐ合同会社,,合同会社,東京都,港区,芝５丁目２５番１号ＶＯＲＴ三田ＩＩ５階,00142452,13,103,1080014,,,,,,,2026-02-04,1,,,,,センロクエンターテイメントグループ,0
1148,5010601068653,新規,0,2026-02-04,2026-02-04,ｖｍｇｇ　ａｇｅｎｃｙ　ｊａｐａｎ株式会社,,株式会社,東京都,江東区,青海２丁目７番４－８０３号,,13,108,1350064,,,,,,,2026-02-04,1,,,,,ヴイエムジージーエージェンシージャパン,0
1151,5010701048968,新規,0,2026-02-04,2026-02-04,ＰＲＯＴＯＣＯＲＥ株式会社,,株式会社,東京都,品川区,西五反田４丁目３０－３－２０３,,13,109,1410031,,,,,,,2026-02-04,1,,,,,プロトコア,0
1152,5010701048984,新規,0,2026-02-04,2026-02-04,Ｐ．Ｋ．Ｌｔｇ株式会社,,株式会社,東京都,品川区,西五反田１丁目２６番２号五反田サンハイツビル９１１,,13,109,1410031,,,,,,,2026-02-04,1,,,,,ピーケーエルティージー,0
1157,5010901058916,新規,0,2026-02-04,2026-02-04,ｔｏｗａｒｅ株式会社,,株式会社,東京都,世田谷区,池尻２丁目４番５号ＨＯＭＥ／ＷＯＲＫＶＩＬＬＡＧＥ３１５,,13,112,1540001,,,,,,,2026-02-04,1,,,,,トワレ,0
1162,5011001175288,新規,0,2026-02-04,2026-02-04,株式会社ｔｅｔｏｔｔｅ,,株式会社,東京都,渋谷区,恵比寿西２丁目８－４ＥＸ恵比寿西ビル５階,,13,113,1500021,,,,,,,2026-02-04,1,,,,,テトッテ,0
1163,5011001175313,新規,0,2026-02-04,2026-02-04,株式会社Ｋ３,,株式会社,東京都,渋谷区,千駄ヶ谷４丁目１５番１１号,,13,113,1510051,,,,,,,2026-02-04,1,,,,,ケイスリー,0
1164,5011003023494,新規,0,2026-02-04,2026-02-04,合同会社ＲＡＬＩＥＥＥＳ,,合同会社,東京都,渋谷区,道玄坂１丁目１０番８号渋谷道玄坂東急ビル２Ｆ－Ｃ,,13,113,1500043,,,,,,,2026-02-04,1,,,,,ラリーズ,0
1165,5011003023552,新規,0,2026-02-04,2026-02-04,合同会社Ｔｒａｎｓｉｏ,,合同会社,東京都,渋谷区,道玄坂１丁目１０番８号渋谷道玄坂東急ビル２Ｆ‐Ｃ,,13,113,1500043,,,,,,,2026-02-04,1,,,,,トランシオ,0
1173,5011101114617,新規,0,2026-02-04,2026-02-04,株式会社アルファ,,株式会社,東京都,新宿区,四谷２丁目２－１８ＶＯＲＴ四谷１１階,,13,104,1600004,,,,,,,2026-02-04,1,,,,,アルファ,0
1179,5011701029149,新規,0,2026-02-04,2026-02-04,株式会社大阿久建築設計事務所,,株式会社,東京都,江戸川区,中葛西１丁目４３－１２－２Ｆ,,13,123,1340083,,,,,,,2026-02-04,1,,,,,オオアクケンチクセッケイジムショ,0
1181,5011801047397,新規,0,2026-02-04,2026-02-04,株式会社エヌコネクト,,株式会社,東京都,足立区,六木４丁目９番１６号ハイツ浜中２０６号室,,13,121,1210052,,,,,,,2026-02-04,1,,,,,エヌコネクト,0
1182,5011801047414,新規,0,2026-02-04,2026-02-04,株式会社エヌ・チームラボ,,株式会社,東京都,葛飾区,西新小岩５丁目１５－１９,,13,122,1240025,,,,,,,2026-02-04,1,,,,,エヌチームラボ,0
1184,5012401044090,新規,0,2026-02-04,2026-02-04,株式会社新,,株式会社,東京都,府中市,寿町２丁目９番地の１２,,13,206,1830056,,,,,,,2026-02-04,1,,,,,シン,0
1186,5012703003455,新規,0,2026-02-04,2026-02-04,合同会社オウル,,合同会社,東京都,西東京市,向台町１丁目２番２２号,,13,229,1880013,,,,,,,2026-02-04,1,,,,,オウル,0
1190,5013301055707,新規,0,2026-02-04,2026-02-04,株式会社ＵＪ　Ｃａｒｇｏ,,株式会社,東京都,豊島区,池袋２丁目１１番２号,,13,116,1710014,,,,,,,2026-02-04,1,,,,,ユージェーカーゴ,0
1197,5020003030236,新規,0,2026-02-04,2026-02-04,合同会社Ｓｐｒｏｕｔ　Ｒｏｏｔｓ,,合同会社,神奈川県,横浜市神奈川区,羽沢南２丁目４４番７－５０２号,,14,102,2210866,,,,,,,2026-02-04,1,,,,,スプラウトルーツ,0
1198,5020003030335,新規,0,2026-02-04,2026-02-04,ＲＡＤＩＡＮ合同会社,,合同会社,神奈川県,川崎市高津区,二子１丁目１１―３,,14,134,2130002,,,,,,,2026-02-04,1,,,,,ラジアン,0
1205,5030001170776,新規,0,2026-02-04,2026-02-04,株式会社ＡＫＩＲＡ,,株式会社,埼玉県,川口市,飯塚１丁目９番５２－１０３号ジオン川口,,11,203,3320023,,,,,,,2026-02-04,1,,,,,アキラ,0
1211,5040001142337,新規,0,2026-02-04,2026-02-04,株式会社Ｅｘｐａｎｄｉａ,,株式会社,千葉県,市川市,妙典２丁目１５番２１－１０１１号,,12,203,2720111,,,,,,,2026-02-04,1,,,,,エクスパンディア,0
1212,5040001142345,新規,0,2026-02-04,2026-02-04,庄次郎株式会社,,株式会社,千葉県,市川市,北方町４丁目２０６９番地,,12,203,2720811,,,,,,,2026-02-04,1,,,,,ショウジロウ,0
1214,5040003029417,新規,0,2026-02-04,2026-02-04,合同会社キサス,,合同会社,千葉県,習志野市,花咲２丁目９番４号,,12,216,2750013,,,,,,,2026-02-04,1,,,,,キサス,0
1217,5050001057922,新規,0,2026-02-04,2026-02-04,スイッチラーニング株式会社,,株式会社,茨城県,水戸市,泉町２丁目２番３３号水戸泉町ビル７階,,08,201,3100026,,,,,,,2026-02-04,1,,,,,スイッチラーニング,0
1227,5080401028421,新規,0,2026-02-04,2026-02-04,株式会社ＡｉＣＯＮ,,株式会社,静岡県,浜松市中央区,曳馬３丁目６番１２号,,22,138,4300901,,,,,,,2026-02-04,1,,,,,アイコン,0
1234,5100001039312,新規,0,2026-02-04,2026-02-04,株式会社角十,,株式会社,長野県,上伊那郡南箕輪村,２９２２番地５,,20,385,3994511,,,,,,,2026-02-04,1,,,,,カクジュウ,0
1247,5120001283858,新規,0,2026-02-04,2026-02-04,株式会社ＳＡＩ,,株式会社,大阪府,大阪市北区,梅田１丁目２番２号大阪駅前第２ビル１２－１２,,27,127,5300001,,,,,,,2026-02-04,1,,,,,サイ,0
1248,5120001283882,新規,0,2026-02-04,2026-02-04,株式会社ＯＮＥＲ,,株式会社,大阪府,枚方市,長尾家具町３丁目１番地の７,,27,210,5730102,,,,,,,2026-02-04,1,,,,,ワンアール,0
1250,5120003031827,新規,0,2026-02-04,2026-02-04,合同会社ミライクリエイト,,合同会社,大阪府,大阪市北区,梅田２丁目５番１３号桜橋第一ビル３０４号,,27,127,5300001,,,,,,,2026-02-04,1,,,,,ミライクリエイト,0
1253,5122003003450,新規,0,2026-02-04,2026-02-04,合同会社Ｒ　Ｄｅｓｉｇｎ,,合同会社,大阪府,八尾市,恩智北町４丁目４７７番地の４,,27,212,5810882,,,,,,,2026-02-04,1,,,,,アールデザイン,0
1257,5130001081526,新規,0,2026-02-04,2026-02-04,株式会社ＧｏｕＳｔｙｌｅ,,株式会社,京都府,長岡京市,開田３丁目８番１１号,,26,209,6170826,,,,,,,2026-02-04,1,,,,,ゴウスタイル,0
1262,5140001141576,新規,0,2026-02-04,2026-02-04,株式会社ＭＫＤ,,株式会社,兵庫県,神崎郡福崎町,八千種２８８７番地７,,28,443,6792202,,,,,,,2026-02-04,1,,,,,エムケーディー,0
1263,5140001141584,新規,0,2026-02-04,2026-02-04,株式会社ＣＨＡＩＮＯＮ．,,株式会社,兵庫県,神戸市長田区,片山町１丁目２３番４号,,28,106,6530805,,,,,,,2026-02-04,1,,,,,シェノン,0
1270,5150001028707,新規,0,2026-02-04,2026-02-04,株式会社ＹＫＰ,,株式会社,奈良県,橿原市,白橿町３丁目１１番１３－５０１号,,29,205,6340051,,,,,,,2026-02-04,1,,,,,ワイケーピー,0
1271,5160001027410,新規,0,2026-02-04,2026-02-04,株式会社ＢＦｉｒｓｔ,,株式会社,滋賀県,大津市,秋葉台９番３２号,,25,201,5200822,,,,,,,2026-02-04,1,,,,,ビーファースト,0
1278,5180001170522,新規,0,2026-02-04,2026-02-04,株式会社サン,,株式会社,愛知県,名古屋市中区,錦３丁目２番３０号淳彩庵ビル２階,,23,106,4600003,,,,,,,2026-02-04,1,,,,,サン,0
1279,5180001170547,新規,0,2026-02-04,2026-02-04,株式会社ＧＲＯＵＮＤ　ＦＬＡＧ,,株式会社,愛知県,北名古屋市,井瀬木五町１００番地,,23,234,4810014,,,,,,,2026-02-04,1,,,,,グラウンドフラッグ,0
1280,5180001170563,新規,0,2026-02-04,2026-02-04,アサヒグレイス株式会社,,株式会社,愛知県,日進市,折戸町定納１５６番地２,,23,230,4700115,,,,,,,2026-02-04,1,,,,,アサヒグレイス,0
1284,5180301040656,新規,0,2026-02-04,2026-02-04,株式会社カルモ,,株式会社,愛知県,安城市,住吉町６丁目５番地８,,23,212,4460072,,,,,,,2026-02-04,1,,,,,カルモ,0
1285,5180301040664,新規,0,2026-02-04,2026-02-04,株式会社スキーム,,株式会社,愛知県,安城市,今池町２丁目１番１号コープ野村Ｃ－１３０２,,23,212,4460071,,,,,,,2026-02-04,1,,,,,スキーム,0
1286,5180303006886,新規,0,2026-02-04,2026-02-04,合同会社ｙａｓｓｔｙｌｅ,,合同会社,愛知県,豊川市,長沢町大覚８３９番地,,23,207,4410203,,,,,,,2026-02-04,1,,,,,ヤススタイル,0
1290,5200003007216,新規,0,2026-02-04,2026-02-04,合同会社ダイコウＺ,,合同会社,岐阜県,高山市,中切町４７０番地,,21,203,5060043,,,,,,,2026-02-04,1,,,,,ダイコウゼット,0
1291,5200005013848,新規,0,2026-02-04,2026-02-04,白川郷わくわくワークス協同組合,,その他の設立登記法人,岐阜県,大野郡白川村,大字平瀬１２６番地の１１南部地区文化会館１階事務スペース,,21,604,5015507,,,,,,,2026-02-04,1,,,,,シラカワゴウワクワクワークス,0
1293,5210001020483,新規,0,2026-02-04,2026-02-04,株式会社まる秀商会,,株式会社,福井県,勝山市,郡町１丁目２番５１号,,18,206,9110035,,,,,,,2026-02-04,1,,,,,マルシュウショウカイ,0
1295,5220001027156,新規,0,2026-02-04,2026-02-04,株式会社ステイコネクト,,株式会社,石川県,金沢市,天神町１丁目３番３７号,,17,201,9200925,,,,,,,2026-02-04,1,,,,,ステイコネクト,0
1303,5260001040964,新規,0,2026-02-04,2026-02-04,株式会社亀福,,株式会社,岡山県,岡山市北区,幸町２－２４,,33,101,7000903,,,,,,,2026-02-04,1,,,,,カメフク,0
1316,5290001112983,新規,0,2026-02-04,2026-02-04,Ｈｅｌｆｅｎ・Ｃｏｎｓｕｌｔｉｎｇ株式会社,,株式会社,福岡県,福岡市早良区,原４丁目２０番６－３号,,40,137,8140022,,,,,,,2026-02-04,1,,,,,ヘルフェンコンサルティング,0
1317,5290001113016,新規,0,2026-02-04,2026-02-04,株式会社アイリビング,,株式会社,福岡県,福岡市早良区,野芥８丁目７－５Ａ２０３,,40,137,8140171,,,,,,,2026-02-04,1,,,,,アイリビング,0
1318,5290001113032,新規,0,2026-02-04,2026-02-04,株式会社ＡＸＩＳ　ＣＯＲＥ,,株式会社,福岡県,福岡市中央区,天神３丁目１５番１－４０２号フルール天神,,40,133,8100001,,,,,,,2026-02-04,1,,,,,アクシスコア,0
1324,5290801032217,新規,0,2026-02-04,2026-02-04,株式会社ＲＳライン,,株式会社,福岡県,中間市,土手ノ内２丁目１６番３号,,40,215,8090033,,,,,,,2026-02-04,1,,,,,アールエスライン,0
1325,5290801032233,新規,0,2026-02-04,2026-02-04,不二興産株式会社,,株式会社,福岡県,北九州市八幡東区,大宮町２０番１６号Ｂ１０１,,40,108,8050003,,,,,,,2026-02-04,1,,,,,フジコウサン,0
1330,5340001027953,新規,0,2026-02-04,2026-02-04,株式会社ｍｅｅｔ,,株式会社,鹿児島県,鹿児島市,山之口町１１番１２号高島ビル２階,00142458,46,201,8920844,,,,,,,2026-02-04,1,,,,,ミート,0
1333,5360001036317,新規,0,2026-02-04,2026-02-04,環宇世＿株式会社,00142442,株式会社,沖縄県,豊見城市,字豊崎１番地４７６－Ｂ,,47,212,9010225,,,,,,,2026-02-04,1,,,,,カンウセイシン,0
1334,5360001036333,新規,0,2026-02-04,2026-02-04,西原製麺株式会社,,株式会社,沖縄県,中頭郡西原町,字与那城３１８－１崎原ビル３０３号,,47,329,9030111,,,,,,,2026-02-04,1,,,,,ニシハラセイメン,0
1336,5360003015599,新規,0,2026-02-04,2026-02-04,Ｍｔ．コーポレーション合同会社,,合同会社,沖縄県,沖縄市,宮里４丁目２８番１２号,,47,211,9042165,,,,,,,2026-02-04,1,,,,,エムティコーポレーション,0
1339,5370001053451,新規,0,2026-02-04,2026-02-04,株式会社ＧＦＣ,,株式会社,宮城県,柴田郡村田町,大字村田字東７５番地１,,04,322,9891305,,,,,,,2026-02-04,1,,,,,ジーエフシー,0
1343,5390001018246,新規,0,2026-02-04,2026-02-04,株式会社Ｃｉｖｉｘ,,株式会社,山形県,酒田市,こがね町１丁目２３番地６,,06,204,9980852,,,,,,,2026-02-04,1,,,,,,0
1345,5410001014382,新規,0,2026-02-04,2026-02-04,クローズアップ株式会社,,株式会社,秋田県,秋田市,仁井田目長田２丁目１番２８号,,05,201,0101422,,,,,,,2026-02-04,1,,,,,クローズアップ,0
1348,5430003018553,新規,0,2026-02-04,2026-02-04,合同会社ブルーズコミュニケーション,,合同会社,北海道,札幌市東区,北二十条東１６丁目２－３ブリーズ元町１２０３,,01,103,0650020,,,,,,,2026-02-04,1,,,,,ブルーズコミュニケーション,0
1353,5450005004475,新規,0,2026-02-04,2026-02-04,一般社団法人丘のゆりかご,,その他の設立登記法人,北海道,上川郡美瑛町,字大村大久保第一,,01,459,0710216,,,,,,,2026-02-04,1,,,,,オカノユリカゴ,0
1363,5480001013072,新規,0,2026-02-04,2026-02-04,株式会社Ｎｏｓｔａｌ　ＬＡＢＯ,,株式会社,徳島県,徳島市,福島２丁目４番１１号,,36,201,7700868,,,,,,,2026-02-04,1,,,,,ノスタルラボ,0
1366,5500001026765,新規,0,2026-02-04,2026-02-04,株式会社ＫＹＡ,,株式会社,愛媛県,松山市,溝辺町１９４番地４,,38,201,7910101,,,,,,,2026-02-04,1,,,,,ケーワイエー,0
1376,6010001262327,新規,0,2026-02-04,2026-02-04,グロウエンジン株式会社,,株式会社,東京都,中央区,日本橋２丁目１６－４ｒｅｍｉｘ日本橋６階,,13,102,1030027,,,,,,,2026-02-04,1,,,,,グロウエンジン,0
1377,6010001262483,新規,0,2026-02-04,2026-02-04,証券業務基盤監理株式会社,,株式会社,東京都,中央区,日本橋２丁目１１番２号,,13,102,1030027,,,,,,,2026-02-04,1,,,,,ショウケンギョウムキバンカンリ,0
1378,6010001262491,新規,0,2026-02-04,2026-02-04,Ｎａｖｙインテグラル１株式会社,,株式会社,東京都,千代田区,丸の内１丁目９番２号,,13,101,1000005,,,,,,,2026-02-04,1,,,,,ネイビーインテグラルワン,0
1379,6010001262509,新規,0,2026-02-04,2026-02-04,株式会社バウヒニア・タマル,,株式会社,東京都,千代田区,外神田３丁目１６番１３号ＦＴビル７階,,13,101,1010021,,,,,,,2026-02-04,1,,,,,バウヒニアタマル,0
1382,6010003050234,新規,0,2026-02-04,2026-02-04,合同会社トライエース,,合同会社,東京都,中央区,日本橋２丁目２番２１号,,13,102,1030027,,,,,,,2026-02-04,1,,,,,トライエース,0
1383,6010003050267,新規,0,2026-02-04,2026-02-04,合同会社ＳＦ４号,,合同会社,東京都,千代田区,丸の内１丁目４番１号東京共同会計事務所内,,13,101,1000005,,,,,,,2026-02-04,1,,,,,エスエフヨンゴウ,0
1384,6010003050283,新規,0,2026-02-04,2026-02-04,合同会社ＨＥＬＩＸ,,合同会社,東京都,千代田区,丸の内１丁目４番１号東京共同会計事務所内,,13,101,1000005,,,,,,,2026-02-04,1,,,,,ヘリクス,0
1386,6010101017069,新規,0,2026-02-04,2026-02-04,株式会社Ｌｅａｆ．ｓ,,株式会社,東京都,八王子市,左入町９６４番地１４レオネクストプロムナード１０２号,,13,201,1920012,,,,,,,2026-02-04,1,,,,,リーフス,0
1393,6010401196265,新規,0,2026-02-04,2026-02-04,株式会社Ｋａｉｚｅｎ　ＡＩＸ　Ｃｏｎｓｕｌｔｉｎｇ,,株式会社,東京都,港区,白金１丁目２７番６号,,13,103,1080072,,,,,,,2026-02-04,1,,,,,カイゼンエーアイエックスコンサルティング,0
1398,6010403037153,新規,0,2026-02-04,2026-02-04,合同会社ＭＦ４,,合同会社,東京都,港区,赤坂４丁目１－２９赤坂赤菱ビル５階,,13,103,1070052,,,,,,,2026-02-04,1,,,,,エムエフフォー,0
1399,6010403037228,新規,0,2026-02-04,2026-02-04,グローバルエッジ合同会社,,合同会社,東京都,港区,南青山３丁目１番３６号青山丸竹ビル６Ｆ,,13,103,1070062,,,,,,,2026-02-04,1,,,,,グローバルエッジ,0
1400,6010403037236,新規,0,2026-02-04,2026-02-04,ソフィアデザイン合同会社,,合同会社,東京都,港区,南青山３丁目１番３６号６Ｆ,,13,103,1070062,,,,,,,2026-02-04,1,,,,,ソフィアデザイン,0
1401,6010405025239,新規,0,2026-02-04,2026-02-04,特定目的会社ＴＳＭＺ１８,,その他の設立登記法人,東京都,港区,元赤坂１丁目１番７号,,13,103,1070051,,,,,,,2026-02-04,1,,,,,ティーエスエムゼットエイティーン,0
1409,6010701048983,新規,0,2026-02-04,2026-02-04,株式会社米蔵,,株式会社,東京都,品川区,西五反田７丁目３番６号,,13,109,1410031,,,,,,,2026-02-04,1,,,,,コメクラ,0
1411,6010703008119,新規,0,2026-02-04,2026-02-04,合同会社オリオンシステムサービス,,合同会社,東京都,品川区,西五反田８丁目２番１２号アール五反田７Ａ,,13,109,1410031,,,,,,,2026-02-04,1,,,,,オリオンシステムサービス,0
1414,6010901058898,新規,0,2026-02-04,2026-02-04,ＴＥＮＹ株式会社,,株式会社,東京都,世田谷区,宇奈根３丁目１３番１４号,,13,112,1570068,,,,,,,2026-02-04,1,,,,,テニー,0
1421,6011001175295,新規,0,2026-02-04,2026-02-04,ヘルス・レコード・ＡＩエージェント株式会社,,株式会社,東京都,渋谷区,富ヶ谷１丁目３７番５号,,13,113,1510063,,,,,,,2026-02-04,1,,,,,ヘルスレコードエーアイエージェント,0
1422,6011001175436,新規,0,2026-02-04,2026-02-04,株式会社ＭａＢｕｌｌｚ,,株式会社,東京都,渋谷区,桜丘町２０番１号,,13,113,1500031,,,,,,,2026-02-04,1,,,,,マーブルズ,0
1424,6011003023477,新規,0,2026-02-04,2026-02-04,ｃｘｃ合同会社,,合同会社,東京都,渋谷区,幡ヶ谷１丁目２３番１６号,,13,113,1510072,,,,,,,2026-02-04,1,,,,,シーエックスシー,0
1425,6011003023493,新規,0,2026-02-04,2026-02-04,合同会社ＹＹ　ｗｏｒｋｓ,,合同会社,東京都,渋谷区,神南１丁目１１－４ＦＰＧリンクス神南５階,,13,113,1500041,,,,,,,2026-02-04,1,,,,,ワイワイワークス,0
1426,6011003023551,新規,0,2026-02-04,2026-02-04,合同会社Ｒｅｖｅａｌｆｌａｉｒ,,合同会社,東京都,渋谷区,神宮前６丁目２３番４号桑野ビル２階,,13,113,1500001,,,,,,,2026-02-04,1,,,,,リベアルフレア,0
1427,6011003023576,新規,0,2026-02-04,2026-02-04,ＶＡＣＩＬＡＮＤＯ合同会社,,合同会社,東京都,渋谷区,神南１丁目１１－４ＦＰＧリンクス神南５階,,13,113,1500041,,,,,,,2026-02-04,1,,,,,ヴァシランド,0
1428,6011103016950,新規,0,2026-02-04,2026-02-04,合同会社エムエスパワー,,合同会社,東京都,新宿区,北新宿４丁目９－１８東建柏木マンション５１５号室,,13,104,1690074,,,,,,,2026-02-04,1,,,,,エムエスパワー,0
1430,6011201026934,新規,0,2026-02-04,2026-02-04,株式会社Ａｕｒｕｍ,,株式会社,東京都,中野区,中野３丁目４０番２６号セレッソ中野１Ｆ,,13,114,1640001,,,,,,,2026-02-04,1,,,,,オーラム,0
1431,6011303005844,新規,0,2026-02-04,2026-02-04,合同会社Ｒｏｎ＆ｃｏ,,合同会社,東京都,杉並区,阿佐谷南１丁目４８－１０高橋ビル４Ｆ,,13,115,1660004,,,,,,,2026-02-04,1,,,,,ロンアンドコー,0
1433,6011501033052,新規,0,2026-02-04,2026-02-04,株式会社野村企画,,株式会社,東京都,北区,王子５丁目３０－１プレミスト王子神谷３０９,,13,117,1140002,,,,,,,2026-02-04,1,,,,,ノムラキカク,0
1434,6011503006849,新規,0,2026-02-04,2026-02-04,合同会社ｉｕｎｉ,,合同会社,東京都,北区,王子５丁目２番６－７２８号,,13,117,1140002,,,,,,,2026-02-04,1,,,,,アイユニ,0
1435,6011701029131,新規,0,2026-02-04,2026-02-04,華貿商事株式会社,,株式会社,東京都,江戸川区,北小岩８丁目２６－１－２０８号,,13,123,1330051,,,,,,,2026-02-04,1,,,,,カボウショウジ,0
1440,6011801047405,新規,0,2026-02-04,2026-02-04,株式会社ＭＫｐｌｕｓ,,株式会社,東京都,足立区,伊興本町２丁目２－４２－２０６,,13,121,1210807,,,,,,,2026-02-04,1,,,,,エムケープラス,0
1448,6013103001528,新規,0,2026-02-04,2026-02-04,ＮｅｘｔＣａｔａｌｙｓｔ合同会社,,合同会社,東京都,青梅市,新町９丁目２０５３番地の６ハイラーク青梅２０２号,,13,205,1980024,,,,,,,2026-02-04,1,,,,,ネクストカタリスト,0
1450,6013301055689,新規,0,2026-02-04,2026-02-04,株式会社ＳＯＲＡ,,株式会社,東京都,豊島区,東池袋３丁目１番１号サンシャイン６０．１２Ｆ,,13,116,1700013,,,,,,,2026-02-04,1,,,,,ソラ,0
1453,6013303008083,新規,0,2026-02-04,2026-02-04,合同会社ＭＧＭ,,合同会社,東京都,豊島区,東池袋２丁目６２番８号ＢＩＧオフィスプラザ池袋１２０６,,13,116,1700013,,,,,,,2026-02-04,1,,,,,エムジーエム,0
1461,6020001166980,新規,0,2026-02-04,2026-02-04,フィルディア加工株式会社,,株式会社,神奈川県,横浜市西区,高島２丁目１１番２号スカイメナー横浜７１０,,14,103,2200011,,,,,,,2026-02-04,1,,,,,フィルディアカコウ,0
1464,6020003030268,新規,0,2026-02-04,2026-02-04,合同会社開成,,合同会社,神奈川県,横浜市旭区,四季美台５３番地２５,,14,112,2410025,,,,,,,2026-02-04,1,,,,,カイセイ,0
1472,6030001170742,新規,0,2026-02-04,2026-02-04,株式会社比嘉建,,株式会社,埼玉県,川口市,芝高木２丁目３番１２号Ｅｌｙｓｉｏｎ芝高木２０３,,11,203,3330868,,,,,,,2026-02-04,1,,,,,ヒガケン,0
1473,6030001170759,新規,0,2026-02-04,2026-02-04,株式会社縁,,株式会社,埼玉県,上尾市,大字上１５１８番地５,,11,219,3620001,,,,,,,2026-02-04,1,,,,,エニシ,0
1474,6030001170783,新規,0,2026-02-04,2026-02-04,株式会社利翔,,株式会社,埼玉県,所沢市,花園１丁目２３３３番地１８,,11,208,3590047,,,,,,,2026-02-04,1,,,,,リショウ,0
1475,6030001170800,新規,0,2026-02-04,2026-02-04,株式会社ＥＧＡＯ,,株式会社,埼玉県,川口市,南鳩ヶ谷３丁目１８番３６－５２０号,,11,203,3340013,,,,,,,2026-02-04,1,,,,,エガオ,0
1479,6030003028542,新規,0,2026-02-04,2026-02-04,ＳＫオービット合同会社,,合同会社,埼玉県,川口市,幸町３丁目５番１１号,,11,203,3320016,,,,,,,2026-02-04,1,,,,,エスケイオービット,0
1490,6040005023012,新規,0,2026-02-04,2026-02-04,特定非営利活動法人青森ねぶた祭文化振興会,,その他の設立登記法人,千葉県,柏市,逆井藤ノ台１５番地の６,,12,217,2770041,,,,,,,2026-02-04,1,,,,,アオモリネブタマツリブンカシンコウカイ,0
1495,6060001038986,新規,0,2026-02-04,2026-02-04,株式会社セカンド,,株式会社,栃木県,宇都宮市,御幸ケ原町１３６番地４４,,09,201,3210982,,,,,,,2026-02-04,1,,,,,セカンド,0
1503,6080003003648,新規,0,2026-02-04,2026-02-04,かささぎ合同会社,,合同会社,静岡県,静岡市駿河区,高松１丁目５－４０,,22,102,4228034,,,,,,,2026-02-04,1,,,,,カササギ,0
1504,6080103003523,新規,0,2026-02-04,2026-02-04,合同会社ＣａｐｅＭｏｔｉｏｎ,,合同会社,静岡県,賀茂郡西伊豆町,宇久須３２０番地の７,,22,306,4103501,,,,,,,2026-02-04,1,,,,,ケープモーション,0
1507,6110001039871,新規,0,2026-02-04,2026-02-04,株式会社禹泉ファーム,,株式会社,新潟県,新発田市,板山２７２番地,,15,206,9570344,,,,,,,2026-02-04,1,,,,,ウズミファーム,0
1508,6110005017320,新規,0,2026-02-04,2026-02-04,一般社団法人ここびと,,その他の設立登記法人,新潟県,新潟市中央区,上大川前通１番町１５４番地新潟白山公園ビル２階,,15,103,9518068,,,,,,,2026-02-04,1,,,,,ココビト,0
1521,6120001283898,新規,0,2026-02-04,2026-02-04,株式会社竹澤ビル,,株式会社,大阪府,大阪市阿倍野区,旭町１丁目１番１０号,,27,119,5450051,,,,,,,2026-02-04,1,,,,,タケザワビル,0
1525,6120003031818,新規,0,2026-02-04,2026-02-04,ＴＧＫＥ合同会社,,合同会社,大阪府,大阪市北区,梅田１丁目２番２号大阪駅前第２ビル１２－１２,,27,127,5300001,,,,,,,2026-02-04,1,,,,,ティージーケーイー,0
1526,6120003031834,新規,0,2026-02-04,2026-02-04,青空ぽけっと合同会社,,合同会社,大阪府,大阪市東成区,東中本１丁目１１番１９号,,27,115,5370021,,,,,,,2026-02-04,1,,,,,アオゾラポケット,0
1527,6120003031850,新規,0,2026-02-04,2026-02-04,合同会社ＳＥ総研,,合同会社,大阪府,守口市,大日東町４番Ｄ－４００４,,27,209,5700016,,,,,,,2026-02-04,1,,,,,エスイーソウケン,0
1528,6120003031859,新規,0,2026-02-04,2026-02-04,ＴＲＳ商事合同会社,,合同会社,大阪府,大阪市生野区,中川西１丁目６番２１号,,27,116,5440032,,,,,,,2026-02-04,1,,,,,ティアールエスショウジ,0
1529,6120005025363,新規,0,2026-02-04,2026-02-04,一般社団法人きょうだい支援協会,,その他の設立登記法人,大阪府,大阪市西区,京町堀１丁目７番２１号Ｕ２ＢＢＬＤＧ３Ｆ,,27,106,5500003,,,,,,,2026-02-04,1,,,,,,0
1535,6130001081541,新規,0,2026-02-04,2026-02-04,株式会社ＥＩＪＵＮ,,株式会社,京都府,京都市中京区,東木屋町通四条上る２丁目下樵木町１９１番地８樵木ビル２階,,26,104,6048016,,,,,,,2026-02-04,1,,,,,エイジュン,0
1539,6140001141575,新規,0,2026-02-04,2026-02-04,株式会社名定エンジニアリング,,株式会社,兵庫県,姫路市,夢前町新庄１３９３番地１,,28,201,6712102,,,,,,,2026-02-04,1,,,,,ナサダエンジニアリング,0
1540,6140001141583,新規,0,2026-02-04,2026-02-04,株式会社ＶＥＴ・ＭＩＳ‐ＨＵＢ,,株式会社,兵庫県,姫路市,野里５６９番地の１,,28,201,6700811,,,,,,,2026-02-04,1,,,,,ベットエムアイエスハブ,0
1546,6140003023169,新規,0,2026-02-04,2026-02-04,合同会社ＴＹアセットオフィス,,合同会社,兵庫県,神戸市東灘区,本山南町３丁目６番１６－１３１３号,,28,101,6580015,,,,,,,2026-02-04,1,,,,,ティーワイアセットオフィス,0
1552,6170003002376,新規,0,2026-02-04,2026-02-04,合同会社ＳＢＣ,,合同会社,和歌山県,和歌山市,相坂５３９番地４,,30,201,6400341,,,,,,,2026-02-04,1,,,,,エスビーシー,0
1559,6180001170521,新規,0,2026-02-04,2026-02-04,株式会社ファームみなみちた,,株式会社,愛知県,知多郡南知多町,大字豊丘字浜見台９５番地,,23,445,4703411,,,,,,,2026-02-04,1,,,,,ファームミナミチタ,0
1561,6180003029724,新規,0,2026-02-04,2026-02-04,合同会社木村商事,,合同会社,愛知県,名古屋市中村区,中村町５丁目５０番地,,23,105,4530053,,,,,,,2026-02-04,1,,,,,キムラショウジ,0
1567,6200005013847,新規,0,2026-02-04,2026-02-04,社会保険労務士法人ふせや事務所,,その他の設立登記法人,岐阜県,岐阜市,南鶉４丁目４７番地,,21,201,5008285,,,,,,,2026-02-04,1,,,,,フセヤジムショ,0
1569,6220001027155,新規,0,2026-02-04,2026-02-04,株式会社ＡＰＥＸＣＯＲＥ,,株式会社,石川県,小松市,今江町１丁目４２８ＫＯＹＡビルヂングＴ０２,,17,203,9230964,,,,,,,2026-02-04,1,,,,,エイペックスコア,0
1574,6230005009520,新規,0,2026-02-04,2026-02-04,一般社団法人防災クリエイトＪＡＰＡＮ,,その他の設立登記法人,富山県,高岡市,和田１３０８番地,,16,202,9330832,,,,,,,2026-02-04,1,,,,,ボウサイクリエイトジャパン,0
1576,6240001066135,新規,0,2026-02-04,2026-02-04,株式会社ｄ３‐Ｗｏｒｋｓ,,株式会社,広島県,東広島市,八本松飯田５丁目１８番４６－１２号,,34,212,7390146,,,,,,,2026-02-04,1,,,,,ディースリーワークス,0
1578,6240005016037,新規,0,2026-02-04,2026-02-04,一般社団法人アトツギ支援センター,,その他の設立登記法人,広島県,広島市南区,大須賀町１７番５号,,34,103,7320821,,,,,,,2026-02-04,1,,,,,アトツギシエンセンター,0
1579,6250003003894,新規,0,2026-02-04,2026-02-04,合同会社山本工務サービス,,合同会社,山口県,山陽小野田市,大字郡３０６０番地１２,,35,216,7570002,,,,,,,2026-02-04,1,,,,,ヤマモトコウムサービス,0
1582,6260001040963,新規,0,2026-02-04,2026-02-04,株式会社ネクサス,,株式会社,岡山県,岡山市南区,浜野１丁目１２番２６号,,33,104,7000845,,,,,,,2026-02-04,1,,,,,ネクサス,0
1588,6280003002035,新規,0,2026-02-04,2026-02-04,合同会社ＬｕＲｕ,,合同会社,島根県,隠岐郡海士町,大字福井１３６５‐５（キンニャモニャセンター２階会議室）,,32,525,6840404,,,,,,,2026-02-04,1,,,,,ルル,0
1593,6290001112909,新規,0,2026-02-04,2026-02-04,豊帆株式会社,,株式会社,福岡県,福岡市東区,香住ヶ丘２丁目８番２号１０２－１号室,,40,131,8130003,,,,,,,2026-02-04,1,,,,,トヨホ,0
1594,6290001112974,新規,0,2026-02-04,2026-02-04,傑鑠株式会社,,株式会社,福岡県,福岡市東区,香椎照葉７丁目９番２０号,,40,131,8130017,,,,,,,2026-02-04,1,,,,,ケツシャク,0
1595,6290001113015,新規,0,2026-02-04,2026-02-04,株式会社美薬研,,株式会社,福岡県,久留米市,津福本町１６２０番地１１－１階,,40,203,8300047,,,,,,,2026-02-04,1,,,,,ビヤクケン,0
1596,6290001113023,新規,0,2026-02-04,2026-02-04,株式会社ＴＡＫＵＭＩ　ＧＡＲＡＧＥ,,株式会社,福岡県,那珂川市,大字別所１１４１－１,,40,231,8111245,,,,,,,2026-02-04,1,,,,,タクミガレージ,0
1599,6290003017874,新規,0,2026-02-04,2026-02-04,合同会社ＺｅｒｏＢａｓｅ,,合同会社,福岡県,糟屋郡須惠町,大字旅石１１５番地１５０,,40,344,8112221,,,,,,,2026-02-04,1,,,,,ゼロベース,0
1600,6290003018022,新規,0,2026-02-04,2026-02-04,合同会社凪,,合同会社,福岡県,筑紫野市,むさしヶ丘１丁目２０番１７号,,40,217,8180043,,,,,,,2026-02-04,1,,,,,ナギ,0
1601,6290005019984,新規,0,2026-02-04,2026-02-04,一般社団法人ＰＣＩ　ＭＵＨＡＭＭＡＤＩＹＡＨ　ＪＡＰＡＮ,,その他の設立登記法人,福岡県,福岡市東区,筥松３丁目２番１５－３０３号,,40,131,8120061,,,,,,,2026-02-04,1,,,,,ピーシーアイマハンマディヤジャパン,0
1603,6290803005269,新規,0,2026-02-04,2026-02-04,合同会社ＦＵＫＫＵＲＵ,,合同会社,福岡県,北九州市小倉北区,熊谷４丁目２番３７号,,40,106,8030864,,,,,,,2026-02-04,1,,,,,フックル,0
1611,6360005007354,新規,0,2026-02-04,2026-02-04,一般社団法人沖縄国際藝術機構ＭＩＡＴＹ,,その他の設立登記法人,沖縄県,那覇市,具志２丁目３１－１０,,47,201,9010146,,,,,,,2026-02-04,1,,,,,オキナワコクサイゲイジュツキコウミアティ,0
1612,6370001053459,新規,0,2026-02-04,2026-02-04,株式会社ワイルドライフ,,株式会社,宮城県,仙台市青葉区,落合６丁目７番地の１０,,04,101,9893126,,,,,,,2026-02-04,1,,,,,ワイルドライフ,0
1614,6390001018245,新規,0,2026-02-04,2026-02-04,アビリティ株式会社,,株式会社,山形県,寒河江市,新山町１番地１０,,06,206,9910012,,,,,,,2026-02-04,1,,,,,アビリティ,0
1617,6410001014381,新規,0,2026-02-04,2026-02-04,株式会社ＮＩＡＨＯ,,株式会社,秋田県,にかほ市,金浦字堀切６５―３,,05,214,0180311,,,,,,,2026-02-04,1,,,,,ニアホ,0
1621,6460301005340,新規,0,2026-02-04,2026-02-04,株式会社パナシェ,,株式会社,北海道,北見市,寿町１丁目４番１０号,,01,208,0900065,,,,,,,2026-02-04,1,,,,,パナシェ,0
1626,6470001021083,新規,0,2026-02-04,2026-02-04,株式会社早川治男商店,,株式会社,香川県,高松市,鹿角町５７８番地１８,,37,201,7618082,,,,,,,2026-02-04,1,,,,,ハヤカワハルオショウテン,0
1633,6490001011272,新規,0,2026-02-04,2026-02-04,株式会社表現や,,株式会社,高知県,高知市,池３２０６番地８,,39,201,7810111,,,,,,,2026-02-04,1,,,,,ヒョウゲヤ,0
1636,6500001026764,新規,0,2026-02-04,2026-02-04,株式会社創匠,,株式会社,愛媛県,伊予市,下吾川１９８６番地２,,38,210,7993111,,,,,,,2026-02-04,1,,,,,ソウショウ,0
1656,7010001262326,新規,0,2026-02-04,2026-02-04,エコテック株式会社,,株式会社,東京都,中央区,銀座１丁目２７番１１号,,13,102,1040061,,,,,,,2026-02-04,1,,,,,エコテック,0
1657,7010001262490,新規,0,2026-02-04,2026-02-04,株式会社ＣｏＬｉｆｅ　Ｃｅｌｌｕｌａｒ　ＢｉｏＴｅｃｈ,,株式会社,東京都,中央区,銀座５丁目１０番２号,,13,102,1040061,,,,,,,2026-02-04,1,,,,,コライフセルラーバイオテック,0
1658,7010001262508,新規,0,2026-02-04,2026-02-04,ＳＣＡＬＥ　ｐｈｏｔｏｎｉｃｓ株式会社,,株式会社,東京都,中央区,日本橋室町１丁目７番１号スルガビル７階,,13,102,1030022,,,,,,,2026-02-04,1,,,,,スケールフォトニクス,0
1659,7010001262516,新規,0,2026-02-04,2026-02-04,株式会社喜千,,株式会社,東京都,文京区,千石３丁目３６番２３号,,13,105,1120011,,,,,,,2026-02-04,1,,,,,キセン,0
1660,7010003050241,新規,0,2026-02-04,2026-02-04,ＡＬＭＩＴＥ１合同会社,,合同会社,東京都,中央区,日本橋１丁目４番１号日本橋一丁目ビルディング,,13,102,1030027,,,,,,,2026-02-04,1,,,,,アルマイトワン,0
1661,7010003050274,新規,0,2026-02-04,2026-02-04,合同会社駿河台マーケット経済研究所,,合同会社,東京都,千代田区,神田猿楽町２丁目４番１１－９０１号,,13,101,1010064,,,,,,,2026-02-04,1,,,,,スルガダイマーケットケイザイケンキュウショ,0
1662,7010103002753,新規,0,2026-02-04,2026-02-04,Ｅｄｇｅ　Ｏｎｅ合同会社,,合同会社,東京都,八王子市,七国４丁目４４番１４号,,13,201,1920919,,,,,,,2026-02-04,1,,,,,エッジワン,0
1669,7010403037152,新規,0,2026-02-04,2026-02-04,合同会社ＭＦ３,,合同会社,東京都,港区,赤坂４丁目１－２９赤坂赤菱ビル５階,,13,103,1070052,,,,,,,2026-02-04,1,,,,,エムエフスリー,0
1670,7010403037202,新規,0,2026-02-04,2026-02-04,合同会社エステートコンサルティング,,合同会社,東京都,港区,白金台４丁目７番８号ＫＤＸレジデンス白金Ｉ１１０２号室,00142446,13,103,1080071,,,,,,,2026-02-04,1,,,,,エステートコンサルティング,0
1671,7010403037219,新規,0,2026-02-04,2026-02-04,Ｍｉｎｏｒ　Ｖａｃａｔｉｏｎｓ　Ｋｙｏｔｏ合同会社,,合同会社,東京都,港区,虎ノ門５丁目１番５号,,13,103,1050001,,,,,,,2026-02-04,1,,,,,マイナーバケーションズキョウト,0
1673,7010501055394,新規,0,2026-02-04,2026-02-04,株式会社朱門,,株式会社,東京都,台東区,根岸１丁目６番１０号鶯谷スカイマンション４０１,,13,106,1100003,,,,,,,2026-02-04,1,,,,,シュモン,0
1676,7010601068676,新規,0,2026-02-04,2026-02-04,ＩＧＡ株式会社,,株式会社,東京都,墨田区,墨田５丁目５番２号３Ｆ－１７,,13,107,1310031,,,,,,,2026-02-04,1,,,,,アイジーエー,0
1678,7010701048974,新規,0,2026-02-04,2026-02-04,株式会社Ｅｎｏｖａ　Ｌｉｎｋ,,株式会社,東京都,品川区,西五反田２丁目９－７ドルミ五反田アンメゾン４０７号,,13,109,1410031,,,,,,,2026-02-04,1,,,,,エノヴァリンク,0
1682,7010901058914,新規,0,2026-02-04,2026-02-04,株式会社Ｈｅｉｏｎ,,株式会社,東京都,世田谷区,三宿２丁目２５番６号モンレーブ三宿２０５,,13,112,1540005,,,,,,,2026-02-04,1,,,,,ヘイオン,0
1686,7011001174916,新規,0,2026-02-04,2026-02-04,株式会社ＮＯＩＸ,,株式会社,東京都,渋谷区,恵比寿４丁目２７番７号ＳＨＩＢＡＴＡＢＬＤ７Ｆ,,13,113,1500013,,,,,,,2026-02-04,1,,,,,ノワ,0
1687,7011001175055,新規,0,2026-02-04,2026-02-04,株式会社ＡＵＲＡＳＰＨＥＲＥ,,株式会社,東京都,渋谷区,渋谷２丁目１９番１９号ワコー宮益坂ビル５階,,13,113,1500002,,,,,,,2026-02-04,1,,,,,オーラスフィア,0
1689,7011003023468,新規,0,2026-02-04,2026-02-04,合同会社ＴＴＲ,,合同会社,東京都,渋谷区,宇田川町２９番７Ｙ’ＭＥＺビル３階,,13,113,1500042,,,,,,,2026-02-04,1,,,,,ティーティーアール,0
1695,7011101114598,新規,0,2026-02-04,2026-02-04,株式会社Ｔｈｒｅｅ　Ｃｉｒｃｌｅ,,株式会社,東京都,新宿区,歌舞伎町１丁目２番１５号,,13,104,1600021,,,,,,,2026-02-04,1,,,,,スリーサークル,0
1696,7011101114607,新規,0,2026-02-04,2026-02-04,ＳＢＣメディカルＭ＆Ａアドバイザリー株式会社,,株式会社,東京都,新宿区,西新宿６丁目５番１号新宿アイランドタワー１２Ｆ,,13,104,1600023,,,,,,,2026-02-04,1,,,,,エスビーシーメディカルエムアンドエーアドバイザリー,0
1700,7011201026933,新規,0,2026-02-04,2026-02-04,株式会社ＫＫ,,株式会社,東京都,中野区,白鷺１丁目４番２－４０９号,,13,114,1650035,,,,,,,2026-02-04,1,,,,,ケーケー,0
1701,7011203004945,新規,0,2026-02-04,2026-02-04,合同会社オープンポケット,,合同会社,東京都,中野区,上鷺宮５丁目２７番１２号,,13,114,1650031,,,,,,,2026-02-04,1,,,,,オープンポケット,0
1703,7011501033068,新規,0,2026-02-04,2026-02-04,株式会社ティーワイエス,,株式会社,東京都,北区,十条仲原１丁目１６番１１号,,13,117,1140031,,,,,,,2026-02-04,1,,,,,ティーワイエス,0
1705,7011601029346,新規,0,2026-02-04,2026-02-04,株式会社ノアウェル,,株式会社,東京都,練馬区,向山４丁目１９番１０号,,13,120,1760022,,,,,,,2026-02-04,1,,,,,ノアウェル,0
1713,7011801047395,新規,0,2026-02-04,2026-02-04,株式会社ＶＯＬＴＩＶＥ,,株式会社,東京都,足立区,六町１丁目５番１４号,,13,121,1210073,,,,,,,2026-02-04,1,,,,,ヴォルティブ,0
1717,7012801024517,新規,0,2026-02-04,2026-02-04,株式会社アクチュアリー建託,,株式会社,東京都,国立市,富士見台３丁目８番地の４３,,13,215,1860003,,,,,,,2026-02-04,1,,,,,アクチュアリーケンタク,0
1722,7013301055688,新規,0,2026-02-04,2026-02-04,陽光株式会社,,株式会社,東京都,豊島区,南池袋３丁目１３番９号ビスハイム池袋１１０６,,13,116,1710022,,,,,,,2026-02-04,1,,,,,ヨウコウ,0
1729,7020001166897,新規,0,2026-02-04,2026-02-04,株式会社テリオス,,株式会社,神奈川県,横浜市保土ケ谷区,上星川３丁目１７－１－１０３,,14,106,2400042,,,,,,,2026-02-04,1,,,,,テリオス,0
1730,7020003030093,新規,0,2026-02-04,2026-02-04,合同会社ＢＵＬＬ,,合同会社,神奈川県,横浜市都筑区,川和町３０５２ザパークハウス横浜川和町ガーデン１１１,,14,118,2240057,,,,,,,2026-02-04,1,,,,,ブル,0
1738,7030001170758,新規,0,2026-02-04,2026-02-04,株式会社カクタス,,株式会社,埼玉県,川口市,青木２丁目１４番７号,,11,203,3320031,,,,,,,2026-02-04,1,,,,,カクタス,0
1739,7030001170774,新規,0,2026-02-04,2026-02-04,株式会社ヴィリッド,,株式会社,埼玉県,さいたま市浦和区,上木崎３丁目３－１８,,11,107,3300071,,,,,,,2026-02-04,1,,,,,ヴィリッド,0
1740,7030001170824,新規,0,2026-02-04,2026-02-04,ＪＡＰＡＮライフサイエンス株式会社,,株式会社,埼玉県,さいたま市浦和区,領家１丁目６番１０号,,11,107,3300072,,,,,,,2026-02-04,1,,,,,ジャパンライフサイエンス,0
1741,7030003028541,新規,0,2026-02-04,2026-02-04,合同会社大須賀商事,,合同会社,埼玉県,秩父市,黒谷８９２－１町田住宅１,,11,207,3680001,,,,,,,2026-02-04,1,,,,,,0
1742,7030003028599,新規,0,2026-02-04,2026-02-04,タカラ商事合同会社,,合同会社,埼玉県,春日部市,牛島２２２―５,,11,214,3440004,,,,,,,2026-02-04,1,,,,,タカラショウジ,0
1749,7040001142327,新規,0,2026-02-04,2026-02-04,ｍａｉｐｏ　ｗｏｒｋｓ株式会社,,株式会社,千葉県,千葉市稲毛区,天台１丁目１５番８号,,12,103,2630016,,,,,,,2026-02-04,1,,,,,マイポワークス,0
1753,7040003029398,新規,0,2026-02-04,2026-02-04,合同会社Ｅｖｅｎｔｙｒ,,合同会社,千葉県,船橋市,本町５丁目２－２０興和第六ビル２階,,12,204,2730005,,,,,,,2026-02-04,1,,,,,エヴァンチュール,0
1754,7040003029448,新規,0,2026-02-04,2026-02-04,鈴善アグリマネジメント合同会社,,合同会社,千葉県,茂原市,萱場２５１７番地３,,12,210,2994111,,,,,,,2026-02-04,1,,,,,スズゼンアグリマネジメント,0
1755,7050001057937,新規,0,2026-02-04,2026-02-04,株式会社吉田商事,,株式会社,茨城県,坂東市,駒跿９４７番地１１,,08,228,3060653,,,,,,,2026-02-04,1,,,,,ヨシタショウジ,0
1757,7060001038977,新規,0,2026-02-04,2026-02-04,株式会社ケイズ・ブリッジ,,株式会社,栃木県,小山市,神鳥谷５丁目５番５号,,09,208,3230034,,,,,,,2026-02-04,1,,,,,ケイズブリッジ,0
1758,7060001038985,新規,0,2026-02-04,2026-02-04,Ｋｕｕｓｉ　Ｎｅｘｔａｒ　Ｄｉｎｉｎｇ株式会社,,株式会社,栃木県,那須郡那須町,大字高久丙字海道下４３８８番地５,,09,407,3250302,,,,,,,2026-02-04,1,,,,,クーシネクスターダイニング,0
1767,7080001027409,新規,0,2026-02-04,2026-02-04,株式会社大村板金,,株式会社,静岡県,静岡市駿河区,みずほ１丁目１５番地の１,,22,102,4210115,,,,,,,2026-02-04,1,,,,,オオムラバンキン,0
1769,7080003003647,新規,0,2026-02-04,2026-02-04,１４１７ｐｒｏｍｏ合同会社,,合同会社,静岡県,静岡市清水区,七ツ新屋１丁目１１番１０号,,22,103,4240066,,,,,,,2026-02-04,1,,,,,イチヨンイチナナプロモ,0
1777,7110001039879,新規,0,2026-02-04,2026-02-04,株式会社ＳＵＩＫＯＵ,,株式会社,新潟県,上越市,大字野尻７６６番地,,15,222,9430116,,,,,,,2026-02-04,1,,,,,スイコウ,0
1786,7120001283880,新規,0,2026-02-04,2026-02-04,株式会社アズサ,,株式会社,大阪府,大阪市福島区,福島８丁目１３－２０,,27,103,5530003,,,,,,,2026-02-04,1,,,,,アズサ,0
1787,7120001283889,新規,0,2026-02-04,2026-02-04,株式会社ＬＵＰＣＥＲＡ,,株式会社,大阪府,大阪市北区,角田町８番１号大阪梅田ツインタワーズ・ノース１９階,,27,127,5300017,,,,,,,2026-02-04,1,,,,,ルプセラ,0
1793,7120101073133,新規,0,2026-02-04,2026-02-04,株式会社Ｎｅｘｙ,,株式会社,大阪府,堺市中区,新家町６番地９,,27,142,5998232,,,,,,,2026-02-04,1,,,,,ネクシー,0
1797,7120901052179,新規,0,2026-02-04,2026-02-04,株式会社永吉工務店,00142443,株式会社,大阪府,摂津市,鳥飼上１丁目１５番１１号,,27,224,5660062,,,,,,,2026-02-04,1,,,,,ナガヨシコウムテン,0
1798,7122001040171,新規,0,2026-02-04,2026-02-04,株式会社ＴＭＫ,,株式会社,大阪府,東大阪市,長堂１丁目１９－１４グランピア布施２０１,,27,227,5770056,,,,,,,2026-02-04,1,,,,,ティーエムケー,0
1801,7130001081532,新規,0,2026-02-04,2026-02-04,株式会社ＳＴＥＡ,,株式会社,京都府,京都市下京区,御影堂町５番地京都建物ビル４階,,26,106,6008101,,,,,,,2026-02-04,1,,,,,ステア,0
1802,7130001081549,新規,0,2026-02-04,2026-02-04,株式会社Ｋ＆Ｎ,,株式会社,京都府,相楽郡精華町,桜が丘１丁目６番地３,,26,366,6190232,,,,,,,2026-02-04,1,,,,,ケーアンドエヌ,0
1803,7130001081565,新規,0,2026-02-04,2026-02-04,株式会社グローボックス,,株式会社,京都府,京田辺市,田辺狐川３５番地２,,26,211,6100331,,,,,,,2026-02-04,1,,,,,グローボックス,0
1807,7140001141566,新規,0,2026-02-04,2026-02-04,株式会社セント,,株式会社,兵庫県,加古川市,東神吉町天下原３２８番地の３,,28,210,6750058,,,,,,,2026-02-04,1,,,,,セント,0
1808,7140001141574,新規,0,2026-02-04,2026-02-04,株式会社Ｃ・カーター,,株式会社,兵庫県,姫路市,飾磨区英賀宮町２丁目６８番地２,,28,201,6728080,,,,,,,2026-02-04,1,,,,,シーカーター,0
1809,7140001141590,新規,0,2026-02-04,2026-02-04,コトブキ電商株式会社,,株式会社,兵庫県,養父市,十二所２６８番地９,,28,222,6670102,,,,,,,2026-02-04,1,,,,,コトブキデンショウ,0
1810,7140001141624,新規,0,2026-02-04,2026-02-04,株式会社ＡＲＫ,,株式会社,兵庫県,神戸市西区,伊川谷町井吹２４５番地の１,,28,111,6512106,,,,,,,2026-02-04,1,,,,,アーク,0
1812,7140003023184,新規,0,2026-02-04,2026-02-04,ＤｅｋｉｒｕＤｅ合同会社,,合同会社,兵庫県,神戸市中央区,磯辺通１丁目１８番９号カサベラ国際プラザビル７０７号室,,28,110,6510084,,,,,,,2026-02-04,1,,,,,デキルデ,0
1813,7150001028705,新規,0,2026-02-04,2026-02-04,株式会社杣本電器製作所,,株式会社,奈良県,香芝市,良福寺３３８番地３,,29,210,6390235,,,,,,,2026-02-04,1,,,,,ソマモトデンキセイサクショ,0
1815,7160001027391,新規,0,2026-02-04,2026-02-04,株式会社リュッケラボ,,株式会社,滋賀県,大津市,松が丘５丁目１２－４,,25,201,5202102,,,,,,,2026-02-04,1,,,,,リュッケラボ,0
1816,7160001027400,新規,0,2026-02-04,2026-02-04,株式会社ＬＩＶＥＮ,,株式会社,滋賀県,大津市,南志賀３丁目７番２５号,,25,201,5200011,,,,,,,2026-02-04,1,,,,,リベン,0
1817,7160003003721,新規,0,2026-02-04,2026-02-04,合同会社Ｍ＆Ｐコンサルティング,,合同会社,滋賀県,愛知郡愛荘町,沓掛１３２－３,,25,425,5291315,,,,,,,2026-02-04,1,,,,,エムアンドピーコンサルティング,0
1821,7170003002375,新規,0,2026-02-04,2026-02-04,合同会社ハンブル,,合同会社,和歌山県,岩出市,相谷６２６番地の１,,30,209,6496257,,,,,,,2026-02-04,1,,,,,ハンブル,0
1831,7180001170446,新規,0,2026-02-04,2026-02-04,株式会社オセンユ,,株式会社,愛知県,名古屋市北区,上飯田南町３丁目５０番地２５棟５０６,,23,103,4620804,,,,,,,2026-02-04,1,,,,,オセンユ,0
1832,7180001170520,新規,0,2026-02-04,2026-02-04,ＪＳｃｏｒｐｏｒａｔｉｏｎ株式会社,,株式会社,愛知県,名古屋市天白区,植田山５丁目２３０１番地,,23,116,4680001,,,,,,,2026-02-04,1,,,,,ジェイエスコーポレーション,0
1839,7200001044688,新規,0,2026-02-04,2026-02-04,アイギ工業株式会社,,株式会社,岐阜県,安八郡輪之内町,大藪２４０７,,21,382,5030202,,,,,,,2026-02-04,1,,,,,アイギコウギョウ,0
1846,7240001066118,新規,0,2026-02-04,2026-02-04,株式会社モトリ,,株式会社,広島県,福山市,加茂町字百谷３０７番地２,,34,207,7202414,,,,,,,2026-02-04,1,,,,,モトリ,0
1847,7240001066126,新規,0,2026-02-04,2026-02-04,株式会社ＣＬＥＯ　ｃｏｒｐｏｒａｔｉｏｎ,,株式会社,広島県,福山市,新涯町２丁目４番２７号,,34,207,7210955,,,,,,,2026-02-04,1,,,,,クレオコーポレーション,0
1848,7240001066150,新規,0,2026-02-04,2026-02-04,株式会社マイキャッスル,,株式会社,広島県,尾道市,向島町４７９８番地１,,34,205,7220073,,,,,,,2026-02-04,1,,,,,マイキャッスル,0
1849,7240002020445,新規,0,2026-02-04,2026-02-04,有限会社ニプラ,,有限会社,広島県,広島市西区,山手町１番９号,,34,104,7330804,,,,,,,2026-02-04,1,,,,,ニプラ,0
1852,7250003003893,新規,0,2026-02-04,2026-02-04,合同会社ぶちおく物流,,合同会社,山口県,宇部市,大字西岐波２１９８番地１,,35,202,7550151,,,,,,,2026-02-04,1,,,,,ブチオクブツリュウ,0
1857,7260003005501,新規,0,2026-02-04,2026-02-04,合同会社渡辺農園,,合同会社,岡山県,倉敷市,玉島陶８９１番地,,33,202,7138112,,,,,,,2026-02-04,1,,,,,ワタナベノウエン,0
1858,7270001009379,新規,0,2026-02-04,2026-02-04,株式会社スマイル,,株式会社,鳥取県,東伯郡湯梨浜町,大字橋津１４６番地,,31,370,6820702,,,,,,,2026-02-04,1,,,,,スマイル,0
1861,7280005007683,新規,0,2026-02-04,2026-02-04,一般社団法人ＲｏｏｏｏｔｓＡｎｄ,,その他の設立登記法人,島根県,松江市,東本町２丁目２５番地６みらいＢＡＳＥ２階,,32,201,6900842,,,,,,,2026-02-04,1,,,,,ルーツアンド,0
1866,7290001112981,新規,0,2026-02-04,2026-02-04,株式会社ＰＡＬＤＯ　ＪＡＰＡＮ,,株式会社,福岡県,福岡市中央区,警固２丁目１９－１３警固ロイヤルビル,,40,133,8100023,,,,,,,2026-02-04,1,,,,,パルドジャパン,0
1867,7290001113022,新規,0,2026-02-04,2026-02-04,ＶＩＲＮＥＸＡ株式会社,,株式会社,福岡県,福岡市中央区,天神４丁目６－２８いちご天神ノースビル７階,,40,133,8100001,,,,,,,2026-02-04,1,,,,,ヴァーネクサ,0
1868,7290001113030,新規,0,2026-02-04,2026-02-04,株式会社ＳＨＡＲＫ,,株式会社,福岡県,福岡市博多区,立花寺２丁目１番１号,,40,132,8120862,,,,,,,2026-02-04,1,,,,,シャーク,0
1869,7290001113063,新規,0,2026-02-04,2026-02-04,ｉｉＰａｓｕ株式会社,,株式会社,福岡県,春日市,若葉台西７丁目１０番地オレンジハウス若葉台２０１号,,40,218,8160823,,,,,,,2026-02-04,1,,,,,イーパス,0
1870,7290001113071,新規,0,2026-02-04,2026-02-04,株式会社ミキネクスト,,株式会社,福岡県,福岡市東区,馬出６丁目１４番７－８０１号,,40,131,8120054,,,,,,,2026-02-04,1,,,,,ミキネクスト,0
1873,7290003018005,新規,0,2026-02-04,2026-02-04,Ｉ．Ｋ　Ｍａｎａｇｅｍｅｎｔ合同会社,,合同会社,福岡県,福岡市中央区,草香江２丁目１１番３０－１２０３号ネクサス大濠,,40,133,8100045,,,,,,,2026-02-04,1,,,,,アイケーマネジメント,0
1874,7300001014499,新規,0,2026-02-04,2026-02-04,株式会社グラスルーツ,,株式会社,佐賀県,佐賀市,長瀬町７番３２号日新ビル４０５,,41,201,8400853,,,,,,,2026-02-04,1,,,,,グラスルーツ,0
1881,7320003004892,新規,0,2026-02-04,2026-02-04,合同会社ＥＮＩＭＯＴＴＯ,,合同会社,大分県,大分市,大字中戸次５９２４－５,,44,201,8797761,,,,,,,2026-02-04,1,,,,,エニモット,0
1885,7350001019923,新規,0,2026-02-04,2026-02-04,株式会社トラストワン,,株式会社,宮崎県,小林市,細野５８１番地１１,,45,205,8860004,,,,,,,2026-02-04,1,,,,,トラストワン,0
1887,7370001053458,新規,0,2026-02-04,2026-02-04,株式会社Ｕｎｉｔ,,株式会社,宮城県,仙台市青葉区,本町２丁目１８番２３号勾当台パークビル２０１号室,,04,101,9800014,,,,,,,2026-02-04,1,,,,,ユニット,0
1889,7390001018244,新規,0,2026-02-04,2026-02-04,株式会社シードワークス,,株式会社,山形県,寒河江市,大字高松２５２,,06,206,9900524,,,,,,,2026-02-04,1,,,,,シードワークス,0
1890,7390003002493,新規,0,2026-02-04,2026-02-04,合同会社すず乃樹,,合同会社,山形県,山形市,城南町２丁目１１番１－６０４号ドゥエルイン霞城,,06,201,9900827,,,,,,,2026-02-04,1,,,,,,0
1891,7400001017310,新規,0,2026-02-04,2026-02-04,株式会社Ｎａｎａｉｒｏ　Ｃｒｅａｔｉｖｅ,,株式会社,岩手県,滝沢市,鵜飼笹森９６番地,,03,216,0200664,,,,,,,2026-02-04,1,,,,,ナナイロクリエイティブ,0
1898,7440003001754,新規,0,2026-02-04,2026-02-04,合同会社土地の記憶プロジェクト,,合同会社,北海道,函館市,西旭岡町３丁目２６番地５,,01,202,0420915,,,,,,,2026-02-04,1,,,,,,0
1899,7462501001060,新規,0,2026-02-04,2026-02-04,株式会社ＭＩＷＡコミュニケーションズ,,株式会社,北海道,野付郡別海町,中春別東町１０５番地,,01,691,0860651,,,,,,,2026-02-04,1,,,,,,0
1900,7470001021082,新規,0,2026-02-04,2026-02-04,株式会社Ｒｅｌｙ　Ｏｎ,,株式会社,香川県,高松市,西町２１番２３号,,37,201,7600003,,,,,,,2026-02-04,1,,,,,リリイオン,0
1919,8010001262366,新規,0,2026-02-04,2026-02-04,ＴＯ　ＪＯＵＲＮＥＹ株式会社,,株式会社,東京都,中央区,銀座１丁目２２番１１号銀座大竹ビジデンス２Ｆ,,13,102,1040061,,,,,,,2026-02-04,1,,,,,トゥージャーニー,0
1920,8010001262473,新規,0,2026-02-04,2026-02-04,ＬｉｇｈｔＢａｎｋ　Ｈｏｌｄｉｎｇｓ株式会社,,株式会社,東京都,千代田区,神田淡路町２丁目３番地淡路町トーセイビル４階,,13,101,1010063,,,,,,,2026-02-04,1,,,,,ライトバンクホールディングス,0
1921,8010001262548,新規,0,2026-02-04,2026-02-04,ルディ株式会社,,株式会社,東京都,中央区,銀座１丁目２２番１１号銀座大竹ビジデンス２階,,13,102,1040061,,,,,,,2026-02-04,1,,,,,ルディ,0
1922,8010001262580,新規,0,2026-02-04,2026-02-04,株式会社ＴＯＹＢＡＳＥ,,株式会社,東京都,千代田区,神田和泉町１番地６－１６ヤマトビル４０５,,13,101,1010024,,,,,,,2026-02-04,1,,,,,トイベース,0
1923,8010003050166,新規,0,2026-02-04,2026-02-04,合同会社ＵＮＩＴＥ企画,,合同会社,東京都,中央区,日本橋人形町２丁目１４番１３号１０階,,13,102,1030013,,,,,,,2026-02-04,1,,,,,ユナイトキカク,0
1924,8010003050208,新規,0,2026-02-04,2026-02-04,麻布台プロパティー合同会社,,合同会社,東京都,千代田区,丸の内１丁目１１番１号,,13,101,1000005,,,,,,,2026-02-04,1,,,,,アザブダイプロパティー,0
1925,8010003050232,新規,0,2026-02-04,2026-02-04,合同会社横浜市中区ビル運用企画２号,,合同会社,東京都,千代田区,霞が関３丁目２番５号,,13,101,1000013,,,,,,,2026-02-04,1,,,,,ヨコハマシナカクビルウンヨウキカクニゴウ,0
1926,8010003050257,新規,0,2026-02-04,2026-02-04,合同会社ｚｅｒｏ,,合同会社,東京都,中央区,銀座１丁目２２番１１号銀座大竹ビジデンス２Ｆ,,13,102,1040061,,,,,,,2026-02-04,1,,,,,ゼロ,0
1928,8010101017067,新規,0,2026-02-04,2026-02-04,株式会社まつの杜,,株式会社,東京都,八王子市,七国２丁目２５番６号,,13,201,1920919,,,,,,,2026-02-04,1,,,,,マツノモリ,0
1937,8010401196172,新規,0,2026-02-04,2026-02-04,ＫＡＬＭ　Ｅｎｔｅｒｔａｉｎｍｅｎｔ株式会社,,株式会社,東京都,港区,北青山３丁目４番３－１１０５号,,13,103,1070061,,,,,,,2026-02-04,1,,,,,カルムエンターテイメント,0
1938,8010401196321,新規,0,2026-02-04,2026-02-04,ＥＳＣ株式会社,,株式会社,東京都,港区,芝公園４丁目２番８号日本電波塔ビルディング４Ｆ,,13,103,1050011,,,,,,,2026-02-04,1,,,,,イーエスシー,0
1941,8010403037151,新規,0,2026-02-04,2026-02-04,合同会社ＭＦ２,,合同会社,東京都,港区,赤坂４丁目１－２９赤坂赤菱ビル５階,,13,103,1070052,,,,,,,2026-02-04,1,,,,,エムエフツー,0
1942,8010501055393,新規,0,2026-02-04,2026-02-04,一二三保育株式会社,,株式会社,東京都,台東区,根岸３丁目１番１０号鶯谷ウメザワビル５０１号室,,13,106,1100003,,,,,,,2026-02-04,1,,,,,ヒフミホイク,0
1943,8010501055410,新規,0,2026-02-04,2026-02-04,清和株式会社,,株式会社,東京都,台東区,台東２丁目２０番１３号古茂田ビル６０１号室,,13,106,1100016,,,,,,,2026-02-04,1,,,,,セイワ,0
1946,8010603012053,新規,0,2026-02-04,2026-02-04,合同会社Ｍ＆Ｍ,,合同会社,東京都,江東区,北砂７丁目７番１号,,13,108,1360073,,,,,,,2026-02-04,1,,,,,エムアンドエム,0
1954,8010803005699,新規,0,2026-02-04,2026-02-04,合同会社松岡運送,,合同会社,東京都,大田区,大森南２丁目６番２―６０２号,,13,111,1430013,,,,,,,2026-02-04,1,,,,,マツオカウンソウ,0
1958,8010901058905,新規,0,2026-02-04,2026-02-04,株式会社Ｔｏｉｒｏ,,株式会社,東京都,世田谷区,太子堂４丁目１８番１５号マガザン三軒茶屋２－３Ｆ－３,,13,112,1540004,,,,,,,2026-02-04,1,,,,,トイロ,0
1959,8010901058913,新規,0,2026-02-04,2026-02-04,株式会社Ｔａｔｌｅｒ　Ｊａｐａｎ,,株式会社,東京都,世田谷区,代田４丁目２１番３号,,13,112,1550033,,,,,,,2026-02-04,1,,,,,タトラージャパン,0
1964,8011001175137,新規,0,2026-02-04,2026-02-04,株式会社リシンク,,株式会社,東京都,渋谷区,東２丁目２４－２ダイコービル６Ｆ,,13,113,1500011,,,,,,,2026-02-04,1,,,,,リシンク,0
1965,8011003023467,新規,0,2026-02-04,2026-02-04,匠海Ｇｌｏｂａｌ　Ａｄｖｉｓｏｒｙ　Ｐａｒｔｎｅｒｓ合同会社,,合同会社,東京都,渋谷区,上原２丁目２２番１８号,,13,113,1510064,,,,,,,2026-02-04,1,,,,,タクミグローバルアドバイザリーパートナーズ,0
1976,8011101114614,新規,0,2026-02-04,2026-02-04,ＫＣＤ株式会社,,株式会社,東京都,新宿区,高田馬場２丁目１７番３号,,13,104,1690075,,,,,,,2026-02-04,1,,,,,ケーシーディー,0
1977,8011101114622,新規,0,2026-02-04,2026-02-04,株式会社ＹＭＤ,,株式会社,東京都,新宿区,舟町４番地２０三恵ルミエール四谷４０２,,13,104,1600006,,,,,,,2026-02-04,1,,,,,ワイエムディ,0
1981,8011501033067,新規,0,2026-02-04,2026-02-04,株式会社オースヤソリューションズ,,株式会社,東京都,北区,赤羽１丁目７－９赤羽台第一葉山ビル４Ｆ,,13,117,1150045,,,,,,,2026-02-04,1,,,,,オースヤソリューションズ,0
1982,8011501033075,新規,0,2026-02-04,2026-02-04,株式会社ＶＩＶＡＴＡ,,株式会社,東京都,荒川区,東尾久１丁目３０－４まる温ビル１Ｆ,,13,118,1160012,,,,,,,2026-02-04,1,,,,,ビバータ,0
1983,8011601029353,新規,0,2026-02-04,2026-02-04,株式会社ゆりかぁ,,株式会社,東京都,練馬区,上石神井２丁目２５番５号,,13,120,1770044,,,,,,,2026-02-04,1,,,,,ユリカァ,0
1988,8011801047411,新規,0,2026-02-04,2026-02-04,株式会社ペイフォワード,,株式会社,東京都,葛飾区,東金町３丁目１７－１０－２階ＫＢＳ－Ｆ－４３,,13,122,1250041,,,,,,,2026-02-04,1,,,,,ペイフォワード,0
1993,8013301055687,新規,0,2026-02-04,2026-02-04,株式会社ハートプランニング,,株式会社,東京都,豊島区,東池袋２丁目６２番８号ＢＩＧオフィスプラザ池袋１２０６,,13,116,1700013,,,,,,,2026-02-04,1,,,,,ハートプランニング,0
1997,8020001166896,新規,0,2026-02-04,2026-02-04,株式会社カツヒデ,,株式会社,神奈川県,川崎市宮前区,神木本町４丁目６番４８号,,14,136,2160031,,,,,,,2026-02-04,1,,,,,カツヒデ,0
2001,8020003030299,新規,0,2026-02-04,2026-02-04,合同会社湘南Ｍｅｄｉｘｉｓ,,合同会社,神奈川県,横浜市西区,浅間町１丁目４番地３ウィザードビル４０２,,14,103,2200072,,,,,,,2026-02-04,1,,,,,ショウナンメディクシス,0
2002,8021001087257,新規,0,2026-02-04,2026-02-04,はじまりの株式会社,,株式会社,神奈川県,足柄下郡湯河原町,土肥１丁目８番地５,,14,384,2590303,,,,,,,2026-02-04,1,,,,,ハジマリノ,0
2003,8021001087406,新規,0,2026-02-04,2026-02-04,ナツノネ株式会社,,株式会社,神奈川県,平塚市,中原１丁目６番５０号,,14,203,2540075,,,,,,,2026-02-04,1,,,,,ナツノネ,0
2013,8030001170807,新規,0,2026-02-04,2026-02-04,株式会社ＳＴＲ,,株式会社,埼玉県,さいたま市大宮区,仲町１丁目５０番地福田産業ビル２階２１０号室,,11,103,3300845,,,,,,,2026-02-04,1,,,,,エスティーアール,0
2014,8030001170823,新規,0,2026-02-04,2026-02-04,株式会社ファーストチャンネル,,株式会社,埼玉県,川越市,的場１丁目２７番地１,,11,201,3501101,,,,,,,2026-02-04,1,,,,,ファーストチャンネル,0
2028,8040001142202,新規,0,2026-02-04,2026-02-04,株式会社トミーブラザーズ,,株式会社,千葉県,市原市,西広６丁目４番地４９,,12,219,2900022,,,,,,,2026-02-04,1,,,,,トミーブラザーズ,0
2029,8040001142326,新規,0,2026-02-04,2026-02-04,クラブガーデン株式会社,,株式会社,千葉県,鎌ケ谷市,東初富６丁目９番７１号関口第一マンション１０１,,12,224,2730122,,,,,,,2026-02-04,1,,,,,クラブガーデン,0
2030,8040001142342,新規,0,2026-02-04,2026-02-04,株式会社ＦＯＬＡＸ,,株式会社,千葉県,いすみ市,日在２１４１番地１,,12,238,2980002,,,,,,,2026-02-04,1,,,,,フォラックス,0
2033,8050001057928,新規,0,2026-02-04,2026-02-04,横浜トレーディング＆ロジスティクス株式会社,,株式会社,茨城県,坂東市,逆井２８３３番地１６５,,08,228,3060501,,,,,,,2026-02-04,1,,,,,ヨコハマトレーディングアンドロジスティクス,0
2034,8050001057944,新規,0,2026-02-04,2026-02-04,株式会社Ｈｉｄｅ　Ｔｅｃｈｎｏｌｏｇｙ,,株式会社,茨城県,那珂郡東海村,大字石神外宿２５４８番地５,,08,341,3191101,,,,,,,2026-02-04,1,,,,,ハイドテクノロジー,0
2038,8060001038976,新規,0,2026-02-04,2026-02-04,株式会社井上損害保険事務所,,株式会社,栃木県,足利市,江川町４丁目７番地２９,,09,202,3260067,,,,,,,2026-02-04,1,,,,,イノウエソンガイホケンジムショ,0
2046,8080003003646,新規,0,2026-02-04,2026-02-04,合同会社アイルヴィー,,合同会社,静岡県,静岡市葵区,大岩本町８番９号,,22,101,4200884,,,,,,,2026-02-04,1,,,,,アイルヴィー,0
2061,8120001283896,新規,0,2026-02-04,2026-02-04,竹澤株式会社,,株式会社,大阪府,大阪市阿倍野区,旭町１丁目１番１０号,,27,119,5450051,,,,,,,2026-02-04,1,,,,,タケザワ,0
2065,8120003031799,新規,0,2026-02-04,2026-02-04,合同会社さくケア,,合同会社,大阪府,大阪市生野区,舎利寺１丁目６番１２号,,27,116,5440022,,,,,,,2026-02-04,1,,,,,サクケア,0
2068,8120103006973,新規,0,2026-02-04,2026-02-04,ｉｚｕｔａｎｉ合同会社,,合同会社,大阪府,堺市西区,浜寺諏訪森町東３丁２８４番地３,,27,144,5928349,,,,,,,2026-02-04,1,,,,,イズタニ,0
2075,8122001040154,新規,0,2026-02-04,2026-02-04,株式会社いざない,,株式会社,大阪府,東大阪市,高井田元町１丁目２番２号,,27,227,5770054,,,,,,,2026-02-04,1,,,,,イザナイ,0
2076,8122001040162,新規,0,2026-02-04,2026-02-04,ＨＫＴプロジェクト株式会社,,株式会社,大阪府,東大阪市,西石切町１丁目１１番３０号,,27,227,5798013,,,,,,,2026-02-04,1,,,,,エイチケイティープロジェクト,0
2078,8130003011081,新規,0,2026-02-04,2026-02-04,合同会社Ａｃｃｏｌａｄｅ　Ｊａｐａｎ　ＡＩＲ　ＬＩＮＥ,,合同会社,京都府,久世郡久御山町,下津屋川原１０８番地１、３Ｆ,,26,322,6130035,,,,,,,2026-02-04,1,,,,,アーコレードジャパンエアライン,0
2082,8140001141458,新規,0,2026-02-04,2026-02-04,株式会社ｅｎｓｅｍｂｌｅ,,株式会社,兵庫県,神戸市垂水区,上高丸１丁目６番３－１０３号,,28,108,6550017,,,,,,,2026-02-04,1,,,,,アンサンブル,0
2083,8140001141607,新規,0,2026-02-04,2026-02-04,みらいエステートＫＯＢＥ株式会社,,株式会社,兵庫県,神戸市中央区,磯辺通４丁目１番８号Ｉ．Ｔ．Ｃビル３０４号室,,28,110,6510084,,,,,,,2026-02-04,1,,,,,ミライエステートコウベ,0
2084,8140001141615,新規,0,2026-02-04,2026-02-04,オンリーカーズ株式会社,,株式会社,兵庫県,西宮市,両度町６番１１号,,28,204,6620841,,,,,,,2026-02-04,1,,,,,オンリーカーズ,0
2085,8140001141623,新規,0,2026-02-04,2026-02-04,ポラリスアセット株式会社,,株式会社,兵庫県,神戸市中央区,磯辺通１丁目１番１８号カサベラ国際プラザビル７０７号室,,28,110,6510084,,,,,,,2026-02-04,1,,,,,ポラリスアセット,0
2089,8140003023134,新規,0,2026-02-04,2026-02-04,ゲンズＡＭ合同会社,,合同会社,兵庫県,豊岡市,元町１０番２号,,28,209,6680026,,,,,,,2026-02-04,1,,,,,ゲンズエイエム,0
2096,8160001027399,新規,0,2026-02-04,2026-02-04,Ａｓｔｅｒ　Ｃｏｒｐｏｒａｔｉｏｎ株式会社,,株式会社,滋賀県,彦根市,平田町７０４番地,,25,202,5220041,,,,,,,2026-02-04,1,,,,,アスターコーポレーション,0
2097,8170001018967,新規,0,2026-02-04,2026-02-04,株式会社オカダ和歌山,,株式会社,和歌山県,和歌山市,鳴神９６８番地１１,,30,201,6408303,,,,,,,2026-02-04,1,,,,,オカダワカヤマ,0
2100,8180001170503,新規,0,2026-02-04,2026-02-04,株式会社名古屋リンクス,,株式会社,愛知県,名古屋市中区,錦３丁目１９番１７号,,23,106,4600003,,,,,,,2026-02-04,1,,,,,ナゴヤリンクス,0
2101,8180001170511,新規,0,2026-02-04,2026-02-04,Ｔ＆Ｓホールディングス株式会社,,株式会社,愛知県,半田市,住吉町３丁目１７８番地,,23,205,4750862,,,,,,,2026-02-04,1,,,,,ティーアンドエスホールディングス,0
2102,8180001170577,新規,0,2026-02-04,2026-02-04,株式会社サンハーツ,,株式会社,愛知県,愛西市,佐屋町宅地１５５番地,,23,232,4960901,,,,,,,2026-02-04,1,,,,,サンハーツ,0
2106,8190001032875,新規,0,2026-02-04,2026-02-04,ナイスマイル株式会社,,株式会社,三重県,三重郡川越町,大字北福崎６５番地６,,24,344,5108125,,,,,,,2026-02-04,1,,,,,ナイスマイル,0
2108,8190003005342,新規,0,2026-02-04,2026-02-04,合同会社セールスエージェンシー,,合同会社,三重県,四日市市,東坂部町１２６６番地１２Ｂ．ＮｈｏｕｓｅＢ‐１０１,,24,202,5120904,,,,,,,2026-02-04,1,,,,,セールスエージェンシー,0
2112,8220001027153,新規,0,2026-02-04,2026-02-04,株式会社寺田左官,,株式会社,石川県,河北郡内灘町,字鶴ケ丘２丁目６７番地１,,17,365,9200271,,,,,,,2026-02-04,1,,,,,テラダサカン,0
2118,8240001066125,新規,0,2026-02-04,2026-02-04,株式会社世良設備,,株式会社,広島県,広島市南区,大州２丁目１番１１－２号,,34,103,7320802,,,,,,,2026-02-04,1,,,,,セラセツビ,0
2119,8240001066133,新規,0,2026-02-04,2026-02-04,フランネルコーヒー株式会社,,株式会社,広島県,福山市,本庄町中３丁目２５番２１号,,34,207,7200076,,,,,,,2026-02-04,1,,,,,フランネルコーヒー,0
2120,8240003007580,新規,0,2026-02-04,2026-02-04,エコノミーワン合同会社,,合同会社,広島県,福山市,神辺町字上御領６０５番地３,,34,207,7202111,,,,,,,2026-02-04,1,,,,,エコノミーワン,0
2129,8260001040953,新規,0,2026-02-04,2026-02-04,株式会社Ｏ＆Ｐ,,株式会社,岡山県,倉敷市,船穂町水江１２００番地４,,33,202,7100262,,,,,,,2026-02-04,1,,,,,オーアンドピー,0
2130,8260001040961,新規,0,2026-02-04,2026-02-04,株式会社岸建,,株式会社,岡山県,岡山市南区,浜野３丁目１９番４４－４号,,33,104,7000845,,,,,,,2026-02-04,1,,,,,キシケン,0
2131,8270001009386,新規,0,2026-02-04,2026-02-04,株式会社メリッサ,,株式会社,鳥取県,米子市,天神町２丁目４８番地,,31,202,6830821,,,,,,,2026-02-04,1,,,,,メリッサ,0
2151,8290001112972,新規,0,2026-02-04,2026-02-04,株式会社Ｃｒｅａｔｅ　Ｒａｖｏ,,株式会社,福岡県,福岡市中央区,天神２丁目８番３５号,,40,133,8100001,,,,,,,2026-02-04,1,,,,,クリエイトラボ,0
2152,8290003018012,新規,0,2026-02-04,2026-02-04,公志堂キャピタル合同会社,,合同会社,福岡県,糟屋郡志免町,別府北４丁目１番４７号,,40,343,8112233,,,,,,,2026-02-04,1,,,,,コウシドウキャピタル,0
2153,8290003018020,新規,0,2026-02-04,2026-02-04,合同会社ＹＵ,,合同会社,福岡県,福岡市南区,大橋３丁目２０－９－２０３,,40,134,8150033,,,,,,,2026-02-04,1,,,,,ユー,0
2167,8370001053457,新規,0,2026-02-04,2026-02-04,エルマ株式会社,,株式会社,宮城県,仙台市青葉区,本町２丁目１７番１５号コマツビル２Ｆ,,04,101,9800014,,,,,,,2026-02-04,1,,,,,エルマ,0
2168,8390001018243,新規,0,2026-02-04,2026-02-04,株式会社壱縁,,株式会社,山形県,東根市,神町東１丁目２０番３３号,,06,211,9993764,,,,,,,2026-02-04,1,,,,,イチエン,0
2171,8390005009156,新規,0,2026-02-04,2026-02-04,おおぬま社会保険労務士法人,,その他の設立登記法人,山形県,鶴岡市,北茅原町２２番１０号,,06,203,9970038,,,,,,,2026-02-04,1,,,,,オオヌマ,0
2176,8440003001753,新規,0,2026-02-04,2026-02-04,合同会社Ｓｈｉｆｔｂａｓｅ,,合同会社,北海道,函館市,千代台町１９番１１号Ｌｉｎｅａｇｅ千代台２０５号室,,01,202,0400013,,,,,,,2026-02-04,1,,,,,,0
2177,8440005002816,新規,0,2026-02-04,2026-02-04,特定非営利活動法人スランガニ,,その他の設立登記法人,北海道,函館市,元町２０番１５号,,01,202,0400054,,,,,,,2026-02-04,1,,,,,,0
2186,8500001026762,新規,0,2026-02-04,2026-02-04,株式会社ソガベ,,株式会社,愛媛県,四国中央市,土居町入野２３７番地２,,38,213,7990712,,,,,,,2026-02-04,1,,,,,ソガベ,0
2193,9010001262258,新規,0,2026-02-04,2026-02-04,カテテアル株式会社,,株式会社,東京都,千代田区,神田須田町１丁目７番８号ＶＯＲＴ秋葉原ＩＶ２Ｆ,00142450,13,101,1010041,,,,,,,2026-02-04,1,,,,,カテテアル,0
2194,9010001262324,新規,0,2026-02-04,2026-02-04,株式会社みんラン,,株式会社,東京都,千代田区,神田和泉町１番地６－１６ヤマトビル４０５,,13,101,1010024,,,,,,,2026-02-04,1,,,,,ミンラン,0
2195,9010001262472,新規,0,2026-02-04,2026-02-04,株式会社ｔｅｎ．,,株式会社,東京都,中央区,銀座１丁目２２番１１号銀座大竹ビジデンス２Ｆ,,13,102,1040061,,,,,,,2026-02-04,1,,,,,テンドット,0
2196,9010001262489,新規,0,2026-02-04,2026-02-04,ＨｙｄｅＬｇｃ株式会社,,株式会社,東京都,文京区,西片２丁目８番３号,,13,105,1130024,,,,,,,2026-02-04,1,,,,,ハイドロジ,0
2197,9010001262497,新規,0,2026-02-04,2026-02-04,株式会社Ｆｒｅｅｄｏｍ　Ｊａｐａｎ,,株式会社,東京都,千代田区,紀尾井町４番１号新紀尾井町ビル２Ｆ,,13,101,1020094,,,,,,,2026-02-04,1,,,,,フリーダムジャパン,0
2198,9010001262506,新規,0,2026-02-04,2026-02-04,株式会社３５,,株式会社,東京都,中央区,銀座１丁目１２番４号Ｎ＆ＥＢＬＤ．６Ｆ,,13,102,1040061,,,,,,,2026-02-04,1,,,,,サーティーファイブ,0
2199,9010001262530,新規,0,2026-02-04,2026-02-04,ＲＥＶＩＣ復興キャピタル株式会社,,株式会社,東京都,千代田区,大手町１丁目６番１号,,13,101,1000004,,,,,,,2026-02-04,1,,,,,レビックフッコウキャピタル,0
2200,9010001262547,新規,0,2026-02-04,2026-02-04,株式会社Ａｒｕｍｉｒｕ,,株式会社,東京都,中央区,日本橋室町１丁目１１番１２号日本橋水野ビル７階,,13,102,1030022,,,,,,,2026-02-04,1,,,,,アルミル,0
2201,9010001262555,新規,0,2026-02-04,2026-02-04,株式会社Ｅｎ　Ｃａｓａ,,株式会社,東京都,中央区,銀座５丁目１３番１６号,,13,102,1040061,,,,,,,2026-02-04,1,,,,,エンカーサ,0
2204,9010003050297,新規,0,2026-02-04,2026-02-04,ＬＵＴＥＮ合同会社,,合同会社,東京都,中央区,銀座１丁目１２番４号Ｎ＆ＥＢＬＤ．６Ｆ,,13,102,1040061,,,,,,,2026-02-04,1,,,,,ルテン,0
2205,9010005041311,新規,0,2026-02-04,2026-02-04,アイジス税理士法人,,その他の設立登記法人,東京都,千代田区,丸の内１丁目８番２号,,13,101,1000005,,,,,,,2026-02-04,1,,,,,アイジス,0
2217,9010401196122,新規,0,2026-02-04,2026-02-04,ＦＯＲＭＥ株式会社,,株式会社,東京都,港区,港南４丁目６番３－１９０１号,,13,103,1080075,,,,,,,2026-02-04,1,,,,,フォーミー,0
2218,9010401196246,新規,0,2026-02-04,2026-02-04,株式会社ユリインベスト,,株式会社,東京都,港区,虎ノ門１丁目１７番１号虎ノ門ヒルズビジネスタワー５階,,13,103,1050001,,,,,,,2026-02-04,1,,,,,ユリインベスト,0
2219,9010403037150,新規,0,2026-02-04,2026-02-04,合同会社ＭＦ１,,合同会社,東京都,港区,赤坂４丁目１－２９赤坂赤菱ビル５階,,13,103,1070052,,,,,,,2026-02-04,1,,,,,エムエフワン,0
2222,9010405025252,新規,0,2026-02-04,2026-02-04,一般社団法人ＨＩＰＭＩ　ＪＡＰＡＮ,,その他の設立登記法人,東京都,港区,新橋２丁目９番１７号第二常盤ビル４階Ｂ号室,,13,103,1050004,,,,,,,2026-02-04,1,,,,,ヒップミージャパン,0
2226,9010601068674,新規,0,2026-02-04,2026-02-04,株式会社ｔｔｔ　ａｒｃｈｉｔｅｃｔｓ,,株式会社,東京都,江東区,平野３丁目６番３号,,13,108,1350023,,,,,,,2026-02-04,1,,,,,ティーティーティーアーキテクツ,0
2227,9010603012052,新規,0,2026-02-04,2026-02-04,クロエ合同会社,,合同会社,東京都,江東区,亀戸１丁目３０－１－３０１,,13,108,1360071,,,,,,,2026-02-04,1,,,,,クロエ,0
2233,9010701048980,新規,0,2026-02-04,2026-02-04,株式会社ネクストステージＭ,,株式会社,東京都,品川区,大崎４丁目８番９号,,13,109,1410032,,,,,,,2026-02-04,1,,,,,ネクストステージエム,0
2234,9010701048989,新規,0,2026-02-04,2026-02-04,株式会社ヴィオレ,,株式会社,東京都,品川区,小山３丁目１４番１号シティタワー武蔵小山２階２０１ー２号,,13,109,1420062,,,,,,,2026-02-04,1,,,,,ヴィオレ,0
2235,9010703008116,新規,0,2026-02-04,2026-02-04,八十森合同会社,,合同会社,東京都,品川区,大井１丁目５３番５号高山ハイツ４０２,,13,109,1400014,,,,,,,2026-02-04,1,,,,,ヤソモリ,0
2238,9011001175061,新規,0,2026-02-04,2026-02-04,株式会社バイティ,,株式会社,東京都,渋谷区,神南１丁目１４番７号ワイズ神南ビル２階,,13,113,1500041,,,,,,,2026-02-04,1,,,,,バイティ,0
2239,9011001175458,新規,0,2026-02-04,2026-02-04,Ｒｉｖｅｔｔ株式会社,,株式会社,東京都,渋谷区,神南１丁目１１―４ＦＰＧリンクス神南５階,,13,113,1500041,,,,,,,2026-02-04,1,,,,,リベット,0
2241,9011003023549,新規,0,2026-02-04,2026-02-04,合同会社ＮｅｕｒｏｎＷｏｒｘ,,合同会社,東京都,渋谷区,西原３丁目３６－３―２０１,,13,113,1510066,,,,,,,2026-02-04,1,,,,,ニューロンワークス,0
2245,9011101114621,新規,0,2026-02-04,2026-02-04,株式会社Ａｍｅｌｉａ,,株式会社,東京都,新宿区,西新宿３丁目３番１３号西新宿水間ビル２Ｆ,,13,104,1600023,,,,,,,2026-02-04,1,,,,,アメリア,0
2249,9011205002730,新規,0,2026-02-04,2026-02-04,一般社団法人オフィス１０,,その他の設立登記法人,東京都,中野区,新井１丁目６番４号－４０３号,,13,114,1650026,,,,,,,2026-02-04,1,,,,,オフィスジュウ,0
2253,9011501033066,新規,0,2026-02-04,2026-02-04,ネプチューンメディア株式会社,,株式会社,東京都,荒川区,南千住３丁目２７－２浅草ビル,,13,118,1160003,,,,,,,2026-02-04,1,,,,,ネプチューンメディア,0
2255,9011601029352,新規,0,2026-02-04,2026-02-04,株式会社サンライズ不動産,,株式会社,東京都,練馬区,関町北４丁目４番２号サンライズ吉田５階,,13,120,1770051,,,,,,,2026-02-04,1,,,,,サンライズフドウサン,0
2258,9011701029145,新規,0,2026-02-04,2026-02-04,株式会社ディスカバリー,,株式会社,東京都,江戸川区,南葛西３丁目１０番１５－６０１号,,13,123,1340085,,,,,,,2026-02-04,1,,,,,ディスカバリー,0
2259,9011701029153,新規,0,2026-02-04,2026-02-04,株式会社アークテック・ソリューションズ,,株式会社,東京都,江戸川区,西小岩３丁目３６番５号,,13,123,1330057,,,,,,,2026-02-04,1,,,,,アークテックソリューションズ,0
2261,9011801047385,新規,0,2026-02-04,2026-02-04,マイアークス株式会社,,株式会社,東京都,葛飾区,堀切１丁目３８番５号,,13,122,1240006,,,,,,,2026-02-04,1,,,,,マイアークス,0
2271,9012801024515,新規,0,2026-02-04,2026-02-04,Ｏｄａｋａ　Ｂａｓｅ株式会社,,株式会社,東京都,武蔵村山市,学園５丁目２６番地の１,,13,223,2080011,,,,,,,2026-02-04,1,,,,,オダカベース,0
2275,9013303008080,新規,0,2026-02-04,2026-02-04,Ｅｌｍ‐ｐｒｏｊｅｃｔ合同会社,,合同会社,東京都,豊島区,東池袋１丁目３４番５号いちご東池袋ビル６階,,13,116,1700013,,,,,,,2026-02-04,1,,,,,エルムプロジェクト,0
2276,9013305003823,新規,0,2026-02-04,2026-02-04,一般社団法人結いの杜日本会議,,その他の設立登記法人,東京都,豊島区,目白３丁目１番２０号,,13,116,1710031,,,,,,,2026-02-04,1,,,,,ユイノモリニホンカイギ,0
2284,9020001166895,新規,0,2026-02-04,2026-02-04,株式会社えぬ出版,,株式会社,神奈川県,横浜市西区,北幸１丁目１１番１号水信ビル７階,,14,103,2200004,,,,,,,2026-02-04,1,,,,,エヌシュッパン,0
2290,9021003017070,新規,0,2026-02-04,2026-02-04,ＦＡｓｋｙ合同会社,,合同会社,神奈川県,藤沢市,村岡東４丁目２４－６プレシュ村岡東２０１号,,14,205,2510012,,,,,,,2026-02-04,1,,,,,ファスキー,0
2296,9030001170789,新規,0,2026-02-04,2026-02-04,日本商事株式会社,,株式会社,埼玉県,川口市,大字峯６３９番地の１,,11,203,3340056,,,,,,,2026-02-04,1,,,,,ニホンショウジ,0
2297,9030001170822,新規,0,2026-02-04,2026-02-04,ｃｈｅｅ’ｓ　ＴＲＵＳＴ株式会社,,株式会社,埼玉県,さいたま市見沼区,堀崎町２４３番地４,,11,104,3370052,,,,,,,2026-02-04,1,,,,,チーズトラスト,0
2301,9030003028564,新規,0,2026-02-04,2026-02-04,合同会社ビッグラディッシュ,,合同会社,埼玉県,さいたま市桜区,南元宿２丁目２０番１号,,11,106,3380831,,,,,,,2026-02-04,1,,,,,ビッグラディッシュ,0
2309,9040001142341,新規,0,2026-02-04,2026-02-04,中央産業株式会社,,株式会社,千葉県,木更津市,吾妻２丁目７番２０号,,12,206,2920065,,,,,,,2026-02-04,1,,,,,チュウオウサンギョウ,0
2310,9040001142358,新規,0,2026-02-04,2026-02-04,株式会社ＲｅＳｔａｒｔ,,株式会社,千葉県,八街市,四木１０６８番地４,,12,230,2891122,,,,,,,2026-02-04,1,,,,,リスタート,0
2311,9040001142457,新規,0,2026-02-04,2026-02-04,東博グローバル株式会社,,株式会社,千葉県,柏市,中央１丁目５－２７－５１０,,12,217,2770023,,,,,,,2026-02-04,1,,,,,トウハクグローバル,0
2313,9040003029388,新規,0,2026-02-04,2026-02-04,さくらファミリーエクササイズ合同会社,,合同会社,千葉県,佐倉市,ユーカリが丘４丁目１－１スカイプラザ・モール３ＦＣＯ－ＬＡＢＯＳＡＫＵＲＡ内,,12,212,2850858,,,,,,,2026-02-04,1,,,,,サクラファミリーエクササイズ,0
2314,9040003029396,新規,0,2026-02-04,2026-02-04,ＹＯＳＨ最適連結合同会社,,合同会社,千葉県,山武市,横田１０７３番地５０,,12,237,2891226,,,,,,,2026-02-04,1,,,,,ヨッシュサイテキレンケツ,0
2315,9040003029405,新規,0,2026-02-04,2026-02-04,合同会社１６５５,,合同会社,千葉県,千葉市緑区,平山町１９２６番地１９２,,12,105,2660002,,,,,,,2026-02-04,1,,,,,イチロクゴウゴウ,0
2318,9060001038983,新規,0,2026-02-04,2026-02-04,豊明株式会社,,株式会社,栃木県,小山市,若木町２丁目１０番１７号,,09,208,3230028,,,,,,,2026-02-04,1,,,,,ホウメイ,0
2319,9060002028216,新規,0,2026-02-04,2026-02-04,有限会社北関東新聞社,,有限会社,栃木県,小山市,西城南４丁目３２番地２８,,09,208,3230820,,,,,,,2026-02-04,1,,,,,キタカントウシンブンシャ,0
2325,9070003006285,新規,0,2026-02-04,2026-02-04,合同会社萩原電工,,合同会社,群馬県,沼田市,上沼須町６５５番地３,,10,206,3780011,,,,,,,2026-02-04,1,,,,,ハギワラデンコウ,0
2326,9080001027407,新規,0,2026-02-04,2026-02-04,株式会社ＭＫ　ＳＡＮＩＴＥＣＨ,,株式会社,静岡県,静岡市清水区,渋川３７７番地の３,,22,103,4240053,,,,,,,2026-02-04,1,,,,,エムケイサニテック,0
2328,9080103003520,新規,0,2026-02-04,2026-02-04,エコライティングワークスぬまづ合同会社,,合同会社,静岡県,沼津市,下河原町１４１番地,,22,203,4100841,,,,,,,2026-02-04,1,,,,,エコライティングワークスヌマヅ,0
2329,9080401028418,新規,0,2026-02-04,2026-02-04,杉本農園株式会社,,株式会社,静岡県,掛川市,細谷１１６２番地の１８,,22,213,4360112,,,,,,,2026-02-04,1,,,,,スギモトノウエン,0
2337,9120001283920,新規,0,2026-02-04,2026-02-04,株式会社エレファント・リンケージ,,株式会社,大阪府,大阪市北区,梅田１丁目１番３号大阪駅前第３ビル１１階２号室,,27,127,5300001,,,,,,,2026-02-04,1,,,,,エレファントリンケージ,0
2342,9120005025393,新規,0,2026-02-04,2026-02-04,一般社団法人全日本学生拳法連盟,,その他の設立登記法人,大阪府,大阪市東淀川区,小松１丁目１１番２１号丸忠ビル１０１,,27,114,5330004,,,,,,,2026-02-04,1,,,,,ゼンニッポンガクセイケンポウレンメイ,0
2343,9120901052177,新規,0,2026-02-04,2026-02-04,株式会社ルーテッド,,株式会社,大阪府,吹田市,新芦屋上２番４号,,27,205,5650804,,,,,,,2026-02-04,1,,,,,ルーテッド,0
2346,9122001040153,新規,0,2026-02-04,2026-02-04,株式会社ＨＳＧ,,株式会社,大阪府,東大阪市,鴻池本町１０番３８号,,27,227,5780971,,,,,,,2026-02-04,1,,,,,エッチエスジー,0
2348,9130001081530,新規,0,2026-02-04,2026-02-04,株式会社Ｒ‐ｔｅｃｈ,,株式会社,京都府,宇治市,志津川北組５３番地３,,26,204,6110015,,,,,,,2026-02-04,1,,,,,アールテック,0
2349,9130001081563,新規,0,2026-02-04,2026-02-04,ソルジャー株式会社,,株式会社,京都府,京都市中京区,西ノ京新建町７番地プレサンスロジェ西大路御池４０１,,26,104,6048434,,,,,,,2026-02-04,1,,,,,ソルジャー,0
2355,9140001141572,新規,0,2026-02-04,2026-02-04,株式会社福家商会,,株式会社,兵庫県,宝塚市,武庫川町５番３６－１１０１,,28,214,6650844,,,,,,,2026-02-04,1,,,,,フクヤショウカイ,0
2356,9140001141580,新規,0,2026-02-04,2026-02-04,株式会社Ｗｅｌｌ　ｗｏｒｔｈ,,株式会社,兵庫県,川西市,大和西１丁目６番地の４,,28,217,6660112,,,,,,,2026-02-04,1,,,,,ウェルワース,0
2357,9140001141589,新規,0,2026-02-04,2026-02-04,株式会社楓建,,株式会社,兵庫県,尼崎市,水堂町２丁目８番４－３０２号,,28,202,6610026,,,,,,,2026-02-04,1,,,,,フウケン,0
2358,9140001141606,新規,0,2026-02-04,2026-02-04,株式会社Ｓｕ’ｓ,,株式会社,兵庫県,三田市,中央町１２番７号,,28,219,6691529,,,,,,,2026-02-04,1,,,,,スズ,0
2359,9140001141622,新規,0,2026-02-04,2026-02-04,株式会社セイカ,,株式会社,兵庫県,西宮市,古川町３番２０号,,28,204,6638185,,,,,,,2026-02-04,1,,,,,セイカ,0
2364,9140003023166,新規,0,2026-02-04,2026-02-04,合同会社Ｔｈｒｅｅ　Ｂａｓｅ,,合同会社,兵庫県,神戸市中央区,宮本通７丁目４番１１号,,28,110,6510063,,,,,,,2026-02-04,1,,,,,スリーベース,0
2365,9140003023174,新規,0,2026-02-04,2026-02-04,合同会社ケーエスライジング,,合同会社,兵庫県,明石市,西明石南町２丁目２２番７号ヴァンベール西明石６０２号,,28,203,6730041,,,,,,,2026-02-04,1,,,,,ケーエスライジング,0
2366,9150001028703,新規,0,2026-02-04,2026-02-04,株式会社創未内装,,株式会社,奈良県,奈良市,南紀寺町２丁目２６８番地の４,,29,201,6308303,,,,,,,2026-02-04,1,,,,,ソウミナイソウ,0
2368,9150003003828,新規,0,2026-02-04,2026-02-04,合同会社ワンド,,合同会社,奈良県,奈良市,押熊町１５４５番地の８,,29,201,6310011,,,,,,,2026-02-04,1,,,,,ワンド,0
2369,9160001027398,新規,0,2026-02-04,2026-02-04,ジャパンＳＴ株式会社,,株式会社,滋賀県,甲賀市,土山町大野５００７番地１,,25,209,5280235,,,,,,,2026-02-04,1,,,,,ジャパンエスティ,0
2370,9160001027407,新規,0,2026-02-04,2026-02-04,コアルク株式会社,,株式会社,滋賀県,近江八幡市,若宮町６０２番地１１,,25,204,5230034,,,,,,,2026-02-04,1,,,,,コアルク,0
2372,9170001018966,新規,0,2026-02-04,2026-02-04,株式会社颯建設,,株式会社,和歌山県,和歌山市,粟４２７番地１チサンマンション紀の川１０２号室,,30,201,6408462,,,,,,,2026-02-04,1,,,,,ソウケンセツ,0
2382,9180001170510,新規,0,2026-02-04,2026-02-04,株式会社紬,,株式会社,愛知県,名古屋市熱田区,比々野町５４番地の１カルティア日比野１００１号,,23,109,4560074,,,,,,,2026-02-04,1,,,,,ツムギ,0
2383,9180001170519,新規,0,2026-02-04,2026-02-04,株式会社Ｔ‐ＢＡＳＥ,,株式会社,愛知県,名古屋市中区,大須１丁目２４番１５号（プレサンス大須観音フィエスタ１５０１号）,,23,106,4600011,,,,,,,2026-02-04,1,,,,,ティーベース,0
2393,9200001044653,新規,0,2026-02-04,2026-02-04,株式会社チャイルドバンクホールディングス,,株式会社,岐阜県,岐阜市,加納栄町通７丁目２４,,21,201,5008455,,,,,,,2026-02-04,1,,,,,チャイルドバンクホールディングス,0
2396,9200005013844,新規,0,2026-02-04,2026-02-04,農事組合法人越佐みらい,,その他の設立登記法人,岐阜県,郡上市,白鳥町越佐５４１番地１,,21,219,5015125,,,,,,,2026-02-04,1,,,,,コッサミライ,0
2400,9220001027152,新規,0,2026-02-04,2026-02-04,株式会社モビパル,,株式会社,石川県,白山市,相滝町ハ１８９番地,,17,210,9202367,,,,,,,2026-02-04,1,,,,,モビパル,0
2403,9240001066116,新規,0,2026-02-04,2026-02-04,ＳＡＣＨＩ株式会社,,株式会社,広島県,広島市中区,上八丁堀７番８号,,34,101,7300012,,,,,,,2026-02-04,1,,,,,サチ,0
2413,9250001021532,新規,0,2026-02-04,2026-02-04,株式会社ランドエステート,,株式会社,山口県,山口市,湯田温泉１丁目９番１３号,,35,203,7530056,,,,,,,2026-02-04,1,,,,,ランドエステート,0
2416,9260003005499,新規,0,2026-02-04,2026-02-04,ケーエステート合同会社,,合同会社,岡山県,笠岡市,西大島新田１０９番地２,,33,205,7140031,,,,,,,2026-02-04,1,,,,,ケーエステート,0
2427,9290001112996,新規,0,2026-02-04,2026-02-04,株式会社ＵＴｈｉｎｋ,,株式会社,福岡県,福岡市博多区,博多駅前１丁目２３－２－５Ｆ－Ｂ,,40,132,8120011,,,,,,,2026-02-04,1,,,,,ユーシンク,0
2428,9290001113037,新規,0,2026-02-04,2026-02-04,福岡飼料株式会社,,株式会社,福岡県,福岡市東区,原田４丁目２４番４３号,,40,131,8120063,,,,,,,2026-02-04,1,,,,,フクオカシリョウ,0
2440,9290801032238,新規,0,2026-02-04,2026-02-04,株式会社リムリア,,株式会社,福岡県,北九州市小倉北区,若富士町５番２０号エスポワール城野２階,,40,106,8020063,,,,,,,2026-02-04,1,,,,,リムリア,0
2442,9290803005266,新規,0,2026-02-04,2026-02-04,合同会社ｍｉｙａｂｉ,,合同会社,福岡県,北九州市八幡西区,三ケ森１丁目５－１２－１０１,,40,109,8070843,,,,,,,2026-02-04,1,,,,,ミヤビ,0
2448,9320001021566,新規,0,2026-02-04,2026-02-04,白印堂株式会社,,株式会社,大分県,別府市,大字鉄輪２７８番地の１,,44,202,8740000,,,,,,,2026-02-04,1,,,,,ハクインドウ,0
2459,9340003005086,新規,0,2026-02-04,2026-02-04,合同会社ＧＵＲＩＮＴ,,合同会社,鹿児島県,鹿屋市,笠之原町４８－５,,46,203,8930023,,,,,,,2026-02-04,1,,,,,グリント,0
2460,9360001036346,新規,0,2026-02-04,2026-02-04,ＰｕｎＡメンテ株式会社,,株式会社,沖縄県,糸満市,字潮平７０８番地１８ＳＵＮハイツ２０１,,47,210,9010302,,,,,,,2026-02-04,1,,,,,プナメンテ,0
2462,9370001053456,新規,0,2026-02-04,2026-02-04,株式会社ＴＯＬＡＳＴ,,株式会社,宮城県,黒川郡大和町,学苑１番地１,,04,421,9813271,,,,,,,2026-02-04,1,,,,,トラスト,0
2467,9380001035858,新規,0,2026-02-04,2026-02-04,株式会社ＯＺ　ＧＲＯＵＰ,,株式会社,福島県,会津若松市,町北町大字上荒久田字古屋敷３番地Ａ１０２,,07,202,9650053,,,,,,,2026-02-04,1,,,,,オズグループ,0
2469,9390001018242,新規,0,2026-02-04,2026-02-04,ＭＢＳ株式会社,,株式会社,山形県,寒河江市,大字寒河江字赤田６５番地の１,,06,206,9910041,,,,,,,2026-02-04,1,,,,,エムビーエス,0
2470,9390001018250,新規,0,2026-02-04,2026-02-04,株式会社マルモト農産,,株式会社,山形県,西置賜郡飯豊町,大字黒沢７７２番地,,06,403,9990603,,,,,,,2026-02-04,1,,,,,マルモトノウサン,0
2474,9410005006678,新規,0,2026-02-04,2026-02-04,農事組合法人澁谷ファーム,,その他の設立登記法人,秋田県,潟上市,天王字不動台８５番地１,,05,211,0100201,,,,,,,2026-02-04,1,,,,,シブヤファーム,0
2477,9430005015405,新規,0,2026-02-04,2026-02-04,一般社団法人書峰社書道,,その他の設立登記法人,北海道,札幌市白石区,東札幌四条６丁目１番１号,,01,104,0030004,,,,,,,2026-02-04,1,,,,,ショホウシャショドウ,0
2481,9462501001059,新規,0,2026-02-04,2026-02-04,株式会社宝寿,,株式会社,北海道,目梨郡羅臼町,知昭町１２番地,,01,694,0861836,,,,,,,2026-02-04,1,,,,,ホウジュ,0
2483,9480001013069,新規,0,2026-02-04,2026-02-04,株式会社Ｌ．Ｆ．ｆｏｒｅｓｔ,,株式会社,徳島県,三好郡東みよし町,加茂４７５６番地５,,36,489,7794701,,,,,,,2026-02-04,1,,,,,エルエフフォレスト,0
2485,9500001026761,新規,0,2026-02-04,2026-02-04,株式会社進次元ＹＵＪＩＮ,,株式会社,愛媛県,松山市,鷹子町５７１番地１ふふる鷹子２０１号,,38,201,7900925,,,,,,,2026-02-04,1,,,,,シンジゲンユウジン,0
