sequenceNumber,corporateNumber,process,correct,updateDate,changeDate,name,nameImageId,kind,prefectureName,cityName,streetNumber,addressImageId,prefectureCode,cityCode,postCode,addressOutside,addressOutsideImageId,closeDate,closeCause,successorCorporateNumber,changeCause,assignmentDate,latest,enName,enPrefectureName,enCityName,enAddressOutside,furigana,hihyoji
13,1010001254741,新規,0,2025-05-08,2025-05-08,株式会社パン・インターナショナル,,株式会社,東京都,中央区,銀座１丁目１２番４号Ｎ＆ＥＢＬＤ．６Ｆ,,13,102,1040061,,,,,,,2025-05-08,1,,,,,パンインターナショナル,0
14,1010001254758,新規,0,2025-05-08,2025-05-08,株式会社Ｎｏｃｔ,,株式会社,東京都,中央区,勝どき４丁目６番２－１８０１号,,13,102,1040054,,,,,,,2025-05-08,1,,,,,ノクト,0
15,1010001254774,新規,0,2025-05-08,2025-05-08,株式会社ｄａｉ‐ｍａｒｕ,,株式会社,東京都,千代田区,神田北乗物町１８番地２朝比奈ビル３－Ａ,,13,101,1010036,,,,,,,2025-05-08,1,,,,,ダイマル,0
16,1010001254782,新規,0,2025-05-08,2025-05-08,株式会社ＳＨＩＲＡＳＵ　Ｈｅａｒｔ,,株式会社,東京都,千代田区,西神田１丁目３番６号,,13,101,1010065,,,,,,,2025-05-08,1,,,,,シラスハート,0
17,1010001254816,新規,0,2025-05-08,2025-05-08,株式会社ファムエンタテイメント,,株式会社,東京都,千代田区,麹町５丁目７番地１,,13,101,1020083,,,,,,,2025-05-08,1,,,,,ファムエンタテイメント,0
19,1010003047045,新規,0,2025-05-08,2025-05-08,合同会社Ｉａｍ,,合同会社,東京都,中央区,日本橋浜町２丁目６番５－４０１号,,13,102,1030007,,,,,,,2025-05-08,1,,,,,アイアム,0
20,1010003047202,新規,0,2025-05-08,2025-05-08,合同会社Ｑ‐Ｂｒｉｃｋ　Ｌａｂ,,合同会社,東京都,千代田区,神田和泉町一丁目６番１６号,,13,101,1010024,,,,,,,2025-05-08,1,,,,,キュウブリックラボ,0
21,1010003047268,新規,0,2025-05-08,2025-05-08,ゆしまエナジー合同会社,,合同会社,東京都,中央区,日本橋兜町１７番１号日本橋ロイヤルプラザ７０６,,13,102,1030026,,,,,,,2025-05-08,1,,,,,ユシマエナジー,0
22,1010003047276,新規,0,2025-05-08,2025-05-08,ＪＥキャピタルジャパン合同会社,,合同会社,東京都,中央区,八丁堀４丁目１番３号宝町ＴＡＴＳＵＭＩビル６階,,13,102,1040032,,,,,,,2025-05-08,1,,,,,ジェイイーキャピタルジャパン,0
23,1010003047301,新規,0,2025-05-08,2025-05-08,ブレーシスコンサルティング合同会社,,合同会社,東京都,中央区,銀座１丁目１２番４号Ｎ＆ＥＢＬＤ．６Ｆ,,13,102,1040061,,,,,,,2025-05-08,1,,,,,ブレーシスコンサルティング,0
25,1010005040015,新規,0,2025-05-08,2025-05-08,特定非営利活動法人希望の光中文学校,,その他の設立登記法人,東京都,中央区,勝どき５丁目１２番４―２３０６号,,13,102,1040054,,,,,,,2025-05-08,1,,,,,キボウノヒカリチュウブンガッコウ,0
26,1010005040023,新規,0,2025-05-08,2025-05-08,Ｂｒｕｎｏ一般社団法人,,その他の設立登記法人,東京都,千代田区,霞が関３丁目２番５号,,13,101,1000013,,,,,,,2025-05-08,1,,,,,ブルーノ,0
27,1010101016661,新規,0,2025-05-08,2025-05-08,サラ株式会社,,株式会社,東京都,八王子市,八木町３‐１５ライオンズマンション西八王子第参３０２号室,,13,201,1920055,,,,,,,2025-05-08,1,,,,,サラ,0
31,1010401190058,新規,0,2025-05-08,2025-05-08,株式会社Ａｎｌｉｎｋ,,株式会社,東京都,港区,北青山１丁目３番１号アールキューブ青山３階,,13,103,1070061,,,,,,,2025-05-08,1,,,,,エンリンク,0
32,1010401190090,新規,0,2025-05-08,2025-05-08,株式会社サケパッシオン,,株式会社,東京都,港区,芝公園３丁目１番１号,,13,103,1050011,,,,,,,2025-05-08,1,,,,,サケパッシオン,0
33,1010401190157,新規,0,2025-05-08,2025-05-08,株式会社ｗｅｏｕｒｕｓ,,株式会社,東京都,港区,南青山３丁目１番３６号青山丸竹ビル６Ｆ,,13,103,1070062,,,,,,,2025-05-08,1,,,,,ウィアラス,0
34,1010403034997,新規,0,2025-05-08,2025-05-08,Ｅｒｉｅ合同会社,,合同会社,東京都,港区,西新橋１丁目１番１号ＥＰコンサルティングサービス内,,13,103,1050003,,,,,,,2025-05-08,1,,,,,エリー,0
35,1010403035005,新規,0,2025-05-08,2025-05-08,ＰＲＯＢＥＴ合同会社,,合同会社,東京都,港区,北青山１丁目３番３号三橋ビル３階,,13,103,1070061,,,,,,,2025-05-08,1,,,,,プロベット,0
36,1010403035062,新規,0,2025-05-08,2025-05-08,ハチ２合同会社,,合同会社,東京都,港区,六本木１丁目９番１０号アークヒルズ仙石山森タワー４０階,,13,103,1060032,,,,,,,2025-05-08,1,,,,,ハチツー,0
41,1010405024369,新規,0,2025-05-08,2025-05-08,Ｍｏｒａｉｎｅ一般社団法人,,その他の設立登記法人,東京都,港区,西新橋１丁目１番１号ＥＰコンサルティングサービス内,,13,103,1050003,,,,,,,2025-05-08,1,,,,,モレーン,0
42,1010405024393,新規,0,2025-05-08,2025-05-08,一般社団法人ハチ２,,その他の設立登記法人,東京都,港区,六本木１丁目９番１０号アークヒルズ仙石山森タワー４０階,,13,103,1060032,,,,,,,2025-05-08,1,,,,,ハチツー,0
45,1010501054022,新規,0,2025-05-08,2025-05-08,Ｇｅｎｓｐａｒｋ株式会社,,株式会社,東京都,台東区,台東２丁目２７番３号ＮＳＫビル１０Ｆ,,13,106,1100016,,,,,,,2025-05-08,1,,,,,ジェンスパーク,0
46,1010501054030,新規,0,2025-05-08,2025-05-08,株式会社ウェイステリア,,株式会社,東京都,台東区,雷門２丁目３番１１号,,13,106,1110034,,,,,,,2025-05-08,1,,,,,ウェイステリア,0
51,1010601067262,新規,0,2025-05-08,2025-05-08,株式会社ＡＮＯＴＨＥＲ・ＢＡＳＥ,,株式会社,東京都,墨田区,太平１丁目１１番６号,,13,107,1300012,,,,,,,2025-05-08,1,,,,,アナザーベース,0
54,1010705003758,新規,0,2025-05-08,2025-05-08,一般財団法人モレキュールズ,,その他の設立登記法人,東京都,品川区,東五反田３丁目９番１８号カサドーロ２０１号室,,13,109,1410022,,,,,,,2025-05-08,1,,,,,モレキュールズ,0
60,1010903009895,新規,0,2025-05-08,2025-05-08,合同会社リヴァーブ,,合同会社,東京都,世田谷区,成城２丁目３３番３号,,13,112,1570066,,,,,,,2025-05-08,1,,,,,リヴァーブ,0
63,1011001169715,新規,0,2025-05-08,2025-05-08,株式会社ＮｅｕｒｏＮｕｂｉａｎ,,株式会社,東京都,渋谷区,千駄ヶ谷３丁目２番７－６０３号室,,13,113,1510051,,,,,,,2025-05-08,1,,,,,ニューロヌビアン,0
67,1011101111650,新規,0,2025-05-08,2025-05-08,株式会社カルラＢＸ,,株式会社,東京都,新宿区,高田馬場３丁目１番５号サンパティオ高田馬場３０９号室,,13,104,1690075,,,,,,,2025-05-08,1,,,,,カルラビーエックス,0
76,1011801046097,新規,0,2025-05-08,2025-05-08,株式会社まもる,,株式会社,東京都,足立区,保木間２丁目１６番５号,,13,121,1210064,,,,,,,2025-05-08,1,,,,,マモル,0
77,1012401043055,新規,0,2025-05-08,2025-05-08,株式会社アシタノ,,株式会社,東京都,府中市,府中町１丁目１番地の１,,13,206,1830055,,,,,,,2025-05-08,1,,,,,アシタノ,0
81,1012801023945,新規,0,2025-05-08,2025-05-08,株式会社キャスエース,,株式会社,東京都,立川市,高松町２丁目２７番地７ローズレジデンス４０１,,13,202,1900011,,,,,,,2025-05-08,1,,,,,キャスエース,0
87,1020001162670,新規,0,2025-05-08,2025-05-08,株式会社テクネワークス,,株式会社,神奈川県,横浜市中区,弥生町２丁目１５番１号,,14,104,2310058,,,,,,,2025-05-08,1,,,,,テクネワークス,0
88,1020001162687,新規,0,2025-05-08,2025-05-08,株式会社ＭＩＴＡアセットマネジメント,,株式会社,神奈川県,川崎市高津区,下作延４丁目１９番３５号,,14,134,2130033,,,,,,,2025-05-08,1,,,,,ミタアセットマネジメント,0
89,1020001162786,新規,0,2025-05-08,2025-05-08,株式会社居酒屋葉月,,株式会社,神奈川県,横浜市中区,石川町１丁目１２番地プラザセレス石川ＩＩ１Ｆ,00139059,14,104,2310868,,,,,,,2025-05-08,1,,,,,イザカヤハヅキ,0
91,1020003028416,新規,0,2025-05-08,2025-05-08,合同会社ユーシュンハウス,,合同会社,神奈川県,川崎市高津区,久末１００番地フォレスト久末Ｆ棟３号室,,14,134,2130026,,,,,,,2025-05-08,1,,,,,ユーシュンハウス,0
98,1021001085176,新規,0,2025-05-08,2025-05-08,株式会社木木,,株式会社,神奈川県,横須賀市,本町３丁目７番地,,14,201,2380041,,,,,,,2025-05-08,1,,,,,キキ,0
100,1021003015949,新規,0,2025-05-08,2025-05-08,Ｊｅｂａｌ合同会社,,合同会社,神奈川県,相模原市南区,新磯野２１６６－１,,14,153,2520325,,,,,,,2025-05-08,1,,,,,ジェバール,0
107,1030001166324,新規,0,2025-05-08,2025-05-08,春日建業株式会社,,株式会社,埼玉県,春日部市,備後東７丁目３５番３０号,,11,214,3440032,,,,,,,2025-05-08,1,,,,,カスガケンギョウ,0
108,1030001166340,新規,0,2025-05-08,2025-05-08,株式会社岩橋工業,,株式会社,埼玉県,さいたま市緑区,大字三室８１５番地９－Ａ,,11,109,3360911,,,,,,,2025-05-08,1,,,,,イワハシコウギョウ,0
109,1030001166373,新規,0,2025-05-08,2025-05-08,株式会社クラージュ,,株式会社,埼玉県,三郷市,ピアラシティ２丁目１３番地１５,,11,237,3410050,,,,,,,2025-05-08,1,,,,,クラージュ,0
110,1030001166415,新規,0,2025-05-08,2025-05-08,株式会社令和プランニング,,株式会社,埼玉県,桶川市,神明２丁目１９番１４号,,11,231,3630014,,,,,,,2025-05-08,1,,,,,レイワプランニング,0
112,1030003026724,新規,0,2025-05-08,2025-05-08,合同会社セールスサポート,,合同会社,埼玉県,志木市,中宗岡２丁目１１番２０号,,11,228,3530002,,,,,,,2025-05-08,1,,,,,セールスサポート,0
113,1030003026732,新規,0,2025-05-08,2025-05-08,合同会社スタジオＹＵ,,合同会社,埼玉県,朝霞市,本町１丁目２１番３８号メゾン・ドゥ・舞２０６,,11,227,3510011,,,,,,,2025-05-08,1,,,,,スタジオユー,0
130,1060001038173,新規,0,2025-05-08,2025-05-08,株式会社ＢＥＡＴ,,株式会社,栃木県,栃木市,大宮町２７０７番地３,,09,203,3280011,,,,,,,2025-05-08,1,,,,,ビート,0
133,1060003005535,新規,0,2025-05-08,2025-05-08,Ｆｌｅｃｔｉｓ合同会社,,合同会社,栃木県,栃木市,大宮町２０５０番地２,,09,203,3280011,,,,,,,2025-05-08,1,,,,,フレクティス,0
137,1070001042918,新規,0,2025-05-08,2025-05-08,株式会社丸山工務店,,株式会社,群馬県,太田市,粕川町２５３－１７,,10,205,3700421,,,,,,,2025-05-08,1,,,,,マルヤマコウムテン,0
140,1070003005914,新規,0,2025-05-08,2025-05-08,合同会社オリヒロ商事,,合同会社,群馬県,桐生市,菱町３丁目２７６９番地の２,,10,203,3760001,,,,,,,2025-05-08,1,,,,,オリヒロショウジ,0
142,1080001026894,新規,0,2025-05-08,2025-05-08,株式会社ケイエスダイニング,,株式会社,静岡県,静岡市葵区,呉服町２丁目８番３,,22,101,4200031,,,,,,,2025-05-08,1,,,,,ケイエスダイニング,0
151,1080403005257,新規,0,2025-05-08,2025-05-08,合同会社ＥＮＮ,,合同会社,静岡県,浜松市浜名区,小松２３１６－２,,22,139,4340042,,,,,,,2025-05-08,1,,,,,エン,0
153,1100001038573,新規,0,2025-05-08,2025-05-08,株式会社ａｎｄＯＮ,,株式会社,長野県,長野市,大字高田２２２０番地１,,20,201,3810034,,,,,,,2025-05-08,1,,,,,アンドオン,0
164,1120001275223,新規,0,2025-05-08,2025-05-08,東恒株式会社,,株式会社,大阪府,大阪市中央区,島之内１丁目４番２８号,,27,128,5420082,,,,,,,2025-05-08,1,,,,,トウコウ,0
165,1120001275248,新規,0,2025-05-08,2025-05-08,株式会社昌成,,株式会社,大阪府,大阪市西成区,玉出西２丁目２０番６３号,,27,122,5570045,,,,,,,2025-05-08,1,,,,,ショウセイ,0
168,1120003029305,新規,0,2025-05-08,2025-05-08,合同会社三日月,,合同会社,大阪府,大阪市平野区,喜連５丁目６番７号,,27,126,5470027,,,,,,,2025-05-08,1,,,,,ミカヅキ,0
169,1120003029313,新規,0,2025-05-08,2025-05-08,合同会社福咲,,合同会社,大阪府,大阪市港区,八幡屋１丁目９番２０号ＧｒａｎｄＰａｃｉｆｉｃ朝潮橋６０３号,,27,107,5520014,,,,,,,2025-05-08,1,,,,,フクサキ,0
170,1120005024898,新規,0,2025-05-08,2025-05-08,一般社団法人ＥＤＵＭＩＲＡＲ大阪,,その他の設立登記法人,大阪府,大阪市西区,南堀江４丁目１９－６－１００４,,27,106,5500015,,,,,,,2025-05-08,1,,,,,エデュミラールオオサカ,0
172,1120101071605,新規,0,2025-05-08,2025-05-08,株式会社カドヤ泉北不動産,,株式会社,大阪府,堺市西区,菱木３丁１９２８番地の２,,27,144,5938315,,,,,,,2025-05-08,1,,,,,カドヤセンボクフドウサン,0
173,1120101071613,新規,0,2025-05-08,2025-05-08,株式会社ティーワークス,,株式会社,大阪府,岸和田市,春木旭町３９番２８号,,27,202,5960005,,,,,,,2025-05-08,1,,,,,ティーワークス,0
174,1120101071621,新規,0,2025-05-08,2025-05-08,あんハート株式会社,,株式会社,大阪府,貝塚市,橋本６７番地２３,,27,208,5970043,,,,,,,2025-05-08,1,,,,,アンハート,0
175,1120103006427,新規,0,2025-05-08,2025-05-08,合同会社ヒュギエイア,,合同会社,大阪府,藤井寺市,小山１丁目１３－５,,27,226,5830033,,,,,,,2025-05-08,1,,,,,ヒュギエイア,0
177,1120901050808,新規,0,2025-05-08,2025-05-08,やまだ不動産株式会社,,株式会社,大阪府,吹田市,原町２丁目２１－１２,,27,205,5640004,,,,,,,2025-05-08,1,,,,,ヤマダフドウサン,0
179,1120903005644,新規,0,2025-05-08,2025-05-08,合同会社ブライト,,合同会社,大阪府,豊能郡豊能町,ときわ台６丁目１９番地の４,,27,321,5630102,,,,,,,2025-05-08,1,,,,,ブライト,0
180,1120903005660,新規,0,2025-05-08,2025-05-08,合同会社カズタカ,,合同会社,大阪府,吹田市,豊津町一丁目１８番エクラート江坂ビル３Ｆ,,27,205,5640051,,,,,,,2025-05-08,1,,,,,カズタカ,0
184,1130001079607,新規,0,2025-05-08,2025-05-08,株式会社ｂｌｕ,,株式会社,京都府,京都市中京区,西ノ京北聖町６８番地,,26,104,6048382,,,,,,,2025-05-08,1,,,,,ブル,0
185,1130001079623,新規,0,2025-05-08,2025-05-08,株式会社アップストーン,,株式会社,京都府,京都市東山区,下堀詰町２３５番地,,26,105,6050992,,,,,,,2025-05-08,1,,,,,アップストーン,0
193,1140001138452,新規,0,2025-05-08,2025-05-08,株式会社Ｔ’ｓＬＩＮＥ,,株式会社,兵庫県,姫路市,南町７６姫路城陽ビル４Ｆコワーキングスペースｍｏｃｃｏ姫路内,,28,201,6700912,,,,,,,2025-05-08,1,,,,,ティーズライン,0
197,1160001026738,新規,0,2025-05-08,2025-05-08,株式会社共栄ネットサービス,,株式会社,滋賀県,東近江市,岡田町７０番地２,,25,213,5270057,,,,,,,2025-05-08,1,,,,,キョウエイネットサービス,0
203,1180001166739,新規,0,2025-05-08,2025-05-08,株式会社カミムラメッキ,,株式会社,愛知県,瀬戸市,安戸町２１番地,,23,204,4890052,,,,,,,2025-05-08,1,,,,,カミムラメッキ,0
204,1180001166763,新規,0,2025-05-08,2025-05-08,ＶＪ‐Ｔｅｃｈ株式会社,,株式会社,愛知県,北名古屋市,久地野北浦２９番地１,,23,234,4810012,,,,,,,2025-05-08,1,,,,,ヴィジェイテック,0
205,1180003028417,新規,0,2025-05-08,2025-05-08,Ｋｏｒｋｅａ　ｐｕｕ合同会社,,合同会社,愛知県,名古屋市西区,牛島町６－１名古屋ルーセントタワー４０Ｆ,,23,104,4510046,,,,,,,2025-05-08,1,,,,,コールケアプー,0
209,1180005021080,新規,0,2025-05-08,2025-05-08,一般社団法人日本アートトーク教育振興会,,その他の設立登記法人,愛知県,名古屋市中村区,名駅４丁目２－１０日進ビル２階,,23,105,4500002,,,,,,,2025-05-08,1,,,,,ニホンアートトークキョウイクシンコウカイ,0
210,1180301039768,新規,0,2025-05-08,2025-05-08,株式会社ＴＫグローバルエンジニアリング,,株式会社,愛知県,安城市,東新町９番地１６,,23,212,4460018,,,,,,,2025-05-08,1,,,,,ティーケイグローバルエンジニアリング,0
211,1180301039784,新規,0,2025-05-08,2025-05-08,株式会社Ｍｅｗ,,株式会社,愛知県,安城市,御幸本町１１番１８号,,23,212,4460032,,,,,,,2025-05-08,1,,,,,ミュウ,0
212,1180303006568,新規,0,2025-05-08,2025-05-08,合同会社きぼう,,合同会社,愛知県,豊橋市,飯村南２丁目２０番地７,,23,201,4400835,,,,,,,2025-05-08,1,,,,,キボウ,0
216,1190001032196,新規,0,2025-05-08,2025-05-08,株式会社庭師川島,,株式会社,三重県,伊賀市,玉瀧１３５２番地の１,,24,216,5181322,,,,,,,2025-05-08,1,,,,,ニワシカワシマ,0
217,1190005012046,新規,0,2025-05-08,2025-05-08,一般社団法人妙法寺ハッピーファーム,,その他の設立登記法人,三重県,度会郡玉城町,妙法寺４２４番地,,24,461,5190413,,,,,,,2025-05-08,1,,,,,ミョウホウジハッピーファーム,0
222,1210001020157,新規,0,2025-05-08,2025-05-08,株式会社イソティブ,,株式会社,福井県,敦賀市,三島３６号８番地の４,,18,202,9140000,,,,,,,2025-05-08,1,,,,,イソティブ,0
225,1220001026673,新規,0,2025-05-08,2025-05-08,アール・アール・エス株式会社,,株式会社,石川県,金沢市,保古町ニ１２４番地３,,17,201,9218053,,,,,,,2025-05-08,1,,,,,アールアールエス,0
227,1230001020898,新規,0,2025-05-08,2025-05-08,株式会社ＭＩＹＡＴＡ,,株式会社,富山県,高岡市,石瀬４４４番地４,,16,202,9330011,,,,,,,2025-05-08,1,,,,,ミヤタ,0
233,1240001064911,新規,0,2025-05-08,2025-05-08,ＴＥＫＩ　ＤＥＳＩＧＮ株式会社,,株式会社,広島県,広島市中区,竹屋町３－２２－５０３,,34,101,7300048,,,,,,,2025-05-08,1,,,,,テキデザイン,0
242,1290001109934,新規,0,2025-05-08,2025-05-08,ミヤカワ建築株式会社,,株式会社,福岡県,福岡市中央区,荒戸３丁目６番２５－３０１号,,40,133,8100062,,,,,,,2025-05-08,1,,,,,ミヤカワケンチク,0
245,1290003016625,新規,0,2025-05-08,2025-05-08,合同会社Ｍａｒｃｈ,,合同会社,福岡県,福岡市博多区,博多駅前１丁目２３番２号ＰａｒｋＦｒｏｎｔ博多駅前１丁目５Ｆ－Ｂ,,40,132,8120011,,,,,,,2025-05-08,1,,,,,マーチ,0
249,1290005019725,新規,0,2025-05-08,2025-05-08,特定非営利活動法人夢かなえサポート,,その他の設立登記法人,福岡県,八女市,黒木町北大淵６６３４番地３,,40,210,8341201,,,,,,,2025-05-08,1,,,,,ユメカナエサポート,0
256,1320003004650,新規,0,2025-05-08,2025-05-08,Ｎｉｐｐｏｎ　Ｐａｋｅｚａ　Ｔｒａｄｉｎｇ合同会社,,合同会社,大分県,大分市,都町１丁目３番１５号藤コーポ３－２０７,,44,201,8700034,,,,,,,2025-05-08,1,,,,,ニッポンパキザトレーディング,0
258,1330003010994,新規,0,2025-05-08,2025-05-08,合同会社ケアＨＲサポート,,合同会社,熊本県,熊本市中央区,南坪井町１０番２４－１３０４号,,43,101,8600848,,,,,,,2025-05-08,1,,,,,ケアエイチアールサポート,0
259,1340001027305,新規,0,2025-05-08,2025-05-08,株式会社クリモトワークス,,株式会社,鹿児島県,肝属郡肝付町,富山１７１５番地,,46,492,8931204,,,,,,,2025-05-08,1,,,,,クリモトワークス,0
260,1340001027321,新規,0,2025-05-08,2025-05-08,株式会社マルマサ,,株式会社,鹿児島県,枕崎市,まかや町７０番地,,46,204,8980096,,,,,,,2025-05-08,1,,,,,マルマサ,0
261,1350001019516,新規,0,2025-05-08,2025-05-08,勝栄興業株式会社,,株式会社,宮崎県,宮崎市,佐土原町東上那珂４７６７番地,,45,201,8800303,,,,,,,2025-05-08,1,,,,,ショウエイコウギョウ,0
262,1360001035124,新規,0,2025-05-08,2025-05-08,文月株式会社,,株式会社,沖縄県,那覇市,松尾１丁目１０番２４号ホークシティ那覇ビル１階,,47,201,9000014,,,,,,,2025-05-08,1,,,,,フミヅキ,0
266,1360003014893,新規,0,2025-05-08,2025-05-08,Ｄｅｍｉｔｅｃｈ合同会社,,合同会社,沖縄県,豊見城市,字我那覇５５８番地,,47,212,9010231,,,,,,,2025-05-08,1,,,,,デミテク,0
267,1360003014910,新規,0,2025-05-08,2025-05-08,合同会社ピース・サンライズコーポレーション,,合同会社,沖縄県,宜野湾市,我如古３丁目３番９号,,47,205,9012214,,,,,,,2025-05-08,1,,,,,ピースサンライズコーポレーション,0
275,1390001017978,新規,0,2025-05-08,2025-05-08,株式会社エムビーシー,,株式会社,山形県,酒田市,こがね町２丁目１番地の２０モアクレストＡ,,06,204,9980852,,,,,,,2025-05-08,1,,,,,エムビーシー,0
278,1410001014155,新規,0,2025-05-08,2025-05-08,株式会社ＭｏｆｕＭｏｆｕ,,株式会社,秋田県,鹿角市,花輪字上台１０５番地,,05,209,0185201,,,,,,,2025-05-08,1,,,,,モフモフ,0
279,1410003004096,新規,0,2025-05-08,2025-05-08,合同会社ＫＵＭＡＳＡＮ,,合同会社,秋田県,由利本荘市,笹道２０番地１,,05,210,0150073,,,,,,,2025-05-08,1,,,,,クマサン,0
283,1420001019129,新規,0,2025-05-08,2025-05-08,株式会社ＫＮサービス,,株式会社,青森県,五所川原市,字烏森２１番地７,,02,205,0370032,,,,,,,2025-05-08,1,,,,,ケイエヌサービス,0
284,1420003003106,新規,0,2025-05-08,2025-05-08,合同会社響記,,合同会社,青森県,上北郡東北町,上北南１丁目３１番地３６７,,02,408,0392405,,,,,,,2025-05-08,1,,,,,ヒビキ,0
287,1430001094303,新規,0,2025-05-08,2025-05-08,株式会社ロータスライト,,株式会社,北海道,小樽市,見晴町３番３２号,,01,203,0470263,,,,,,,2025-05-08,1,,,,,ロータスライト,0
288,1430001094336,新規,0,2025-05-08,2025-05-08,株式会社ＭＡＫＥＲＳ　ＵＮＩＴＥＤ,,株式会社,北海道,石狩市,新港西３丁目７５０番地７,,01,235,0613241,,,,,,,2025-05-08,1,,,,,メイカーズユナイテッド,0
301,1490001011038,新規,0,2025-05-08,2025-05-08,株式会社包國,,株式会社,高知県,安芸市,赤野甲１９２番地,,39,203,7840033,,,,,,,2025-05-08,1,,,,,カネクニ,0
304,1700150130319,新規,0,2025-05-08,2025-05-08,Ｇｕａｎｇｚｈｏｕ　ＭｅｉｌｉＨｅｚｉ　Ｔｅｃｈｎｏｌｏｇｙ　Ｃｏ．，Ｌｔｄ．,,外国会社等,,,,,,,,Ｒｏｏｍ　２４７，Ｒｏｏｍ　１７Ｆ，Ｂｕｉｌｄｉｎｇ　Ａ，Ｎｏ．２９８　Ｙａｎｊｉａｎｇ　Ｍｉｄｄｌｅ　Ｒｏａｄ，Ｙｕｅｘｉｕ　Ｄｉｓｔｒｉｃｔ，Ｇｕａｎｇｚｈｏｕ,,,,,,2025-05-08,1,,,,,グアンジョウメイリヘジテクノロジーカンパニーリミテッド,0
316,2010001254162,新規,0,2025-05-08,2025-05-08,ここ株式会社,,株式会社,東京都,千代田区,九段南１丁目５－６りそな九段ビル５ＦＫＳフロア,,13,101,1020074,,,,,,,2025-05-08,1,,,,,ココ,0
317,2010001254757,新規,0,2025-05-08,2025-05-08,株式会社ＩＮＡ,,株式会社,東京都,中央区,銀座７丁目１３番２１号ＧｉｎｚａＲｏｋｕｓｈｕビル２階,,13,102,1040061,,,,,,,2025-05-08,1,,,,,イナ,0
318,2010001254798,新規,0,2025-05-08,2025-05-08,株式会社トレフル,,株式会社,東京都,中央区,日本橋浜町２丁目６２番１号浜町公園サンハイツ７０１号,,13,102,1030007,,,,,,,2025-05-08,1,,,,,トレフル,0
320,2010003047267,新規,0,2025-05-08,2025-05-08,合同会社ＵＷ８,,合同会社,東京都,中央区,日本橋蛎殻町１丁目１３番１号ユニゾ蛎殻町北島ビルＢ１Ｆ,,13,102,1030014,,,,,,,2025-05-08,1,,,,,ユーダブエイト,0
327,2010401189974,新規,0,2025-05-08,2025-05-08,ｎｅｏｔａｌｅｎｔ株式会社,,株式会社,東京都,港区,六本木７丁目１４番５号,,13,103,1060032,,,,,,,2025-05-08,1,,,,,ネオタレント,0
328,2010401190049,新規,0,2025-05-08,2025-05-08,株式会社エムジェイオーワイ,,株式会社,東京都,港区,三田２丁目１４－７ローレル三田１Ｆ,,13,103,1080073,,,,,,,2025-05-08,1,,,,,,0
329,2010401190073,新規,0,2025-05-08,2025-05-08,株式会社ＳＡＩＮＴＴＨＲＥＥ,,株式会社,東京都,港区,芝公園１丁目８番２０号,,13,103,1050011,,,,,,,2025-05-08,1,,,,,セイントスリー,0
330,2010401190098,新規,0,2025-05-08,2025-05-08,嘉孚株式会社,,株式会社,東京都,港区,三田３丁目２番１号弓和三田ビジデンス５１０号室,,13,103,1080073,,,,,,,2025-05-08,1,,,,,カフ,0
331,2010401190148,新規,0,2025-05-08,2025-05-08,株式会社ＴＡＫＳ,,株式会社,東京都,港区,港南３丁目５番２１－１２０８号,,13,103,1080075,,,,,,,2025-05-08,1,,,,,タクス,0
334,2010403034996,新規,0,2025-05-08,2025-05-08,Ｓｕｐｅｒｉｏｒ合同会社,,合同会社,東京都,港区,西新橋１丁目１番１号ＥＰコンサルティングサービス内,,13,103,1050003,,,,,,,2025-05-08,1,,,,,スペリオル,0
335,2010403035061,新規,0,2025-05-08,2025-05-08,合同会社ｍｅｄｉｆｉｔ,,合同会社,東京都,港区,北青山１丁目３番１号アールキューブ青山３階,,13,103,1070061,,,,,,,2025-05-08,1,,,,,メディフィット,0
336,2010405024368,新規,0,2025-05-08,2025-05-08,Ｂｏｌｓｅｎａ一般社団法人,,その他の設立登記法人,東京都,港区,西新橋１丁目１番１号ＥＰコンサルティングサービス内,,13,103,1050003,,,,,,,2025-05-08,1,,,,,ボルセーナ,0
339,2010501054038,新規,0,2025-05-08,2025-05-08,中小ビジネスサポート株式会社,,株式会社,東京都,台東区,浅草橋１丁目３３番６号浅草橋シティハイツ６０４号室,,13,106,1110053,,,,,,,2025-05-08,1,,,,,チュウショウビジネスサポート,0
342,2010701047659,新規,0,2025-05-08,2025-05-08,株式会社かわいいの,,株式会社,東京都,品川区,南品川１丁目９番１２号１階,,13,109,1400004,,,,,,,2025-05-08,1,,,,,カワイイノ,0
344,2010803005374,新規,0,2025-05-08,2025-05-08,合同会社Ｖ　Ｇｒｏｕｐ,,合同会社,東京都,大田区,西蒲田７丁目７－４ＭＳビルＩＩ５Ｆ,00139057,13,111,1440051,,,,,,,2025-05-08,1,,,,,ブイグループ,0
353,2011101111575,新規,0,2025-05-08,2025-05-08,ひととみらい株式会社,,株式会社,東京都,新宿区,新宿１丁目３６－２第七葉山ビル３Ｆ,,13,104,1600022,,,,,,,2025-05-08,1,,,,,ヒトトミライ,0
354,2011101111708,新規,0,2025-05-08,2025-05-08,株式会社オムニバス,,株式会社,東京都,新宿区,西新宿３丁目３番１３号西新宿水間ビル６階,,13,104,1600023,,,,,,,2025-05-08,1,,,,,オムニバス,0
356,2011103015881,新規,0,2025-05-08,2025-05-08,合同会社マルヨシ,,合同会社,東京都,新宿区,北新宿２丁目２番２７－４０７号,,13,104,1690074,,,,,,,2025-05-08,1,,,,,マルヨシ,0
358,2011201026335,新規,0,2025-05-08,2025-05-08,株式会社ＳＴＡＮＤ,,株式会社,東京都,中野区,中野５丁目１７－１０中野テラハウス,,13,114,1640001,,,,,,,2025-05-08,1,,,,,スタンド,0
359,2011301030567,新規,0,2025-05-08,2025-05-08,株式会社Ｂｉｋａｋｕ　Ｍａｆｉａ,,株式会社,東京都,杉並区,上荻１丁目２４番１２号第一浅賀ビル１０２,,13,115,1670043,,,,,,,2025-05-08,1,,,,,ビカクマフィア,0
368,2012403007107,新規,0,2025-05-08,2025-05-08,合同会社千鶴,,合同会社,東京都,府中市,宮西町５丁目７番地の４,,13,206,1830022,,,,,,,2025-05-08,1,,,,,チヅル,0
370,2012701018846,新規,0,2025-05-08,2025-05-08,株式会社都築解体,,株式会社,東京都,西東京市,富士町４丁目７番１８号,,13,229,2020014,,,,,,,2025-05-08,1,,,,,ツヅキカイタイ,0
375,2013303007650,新規,0,2025-05-08,2025-05-08,合同会社アズプロ,,合同会社,東京都,豊島区,上池袋１丁目３９番３－３０８号,,13,116,1700012,,,,,,,2025-05-08,1,,,,,アズプロ,0
384,2020001162629,新規,0,2025-05-08,2025-05-08,株式会社Ｋ＆Ｍ,,株式会社,神奈川県,横浜市都筑区,富士見が丘１７番５号グリーンヒル富士見が丘２０１号室,,14,118,2240051,,,,,,,2025-05-08,1,,,,,ケーアンドエム,0
385,2020001162728,新規,0,2025-05-08,2025-05-08,ＡＹＮＥＸＴ株式会社,,株式会社,神奈川県,川崎市中原区,下小田中５丁目２－２０ライズコート５０１,,14,133,2110041,,,,,,,2025-05-08,1,,,,,エーワイネクスト,0
395,2020003028398,新規,0,2025-05-08,2025-05-08,Ｌ．Ｏ．Ｈ．合同会社,,合同会社,神奈川県,横浜市旭区,さちが丘６５番地６８,,14,112,2410822,,,,,,,2025-05-08,1,,,,,,0
396,2020003028423,新規,0,2025-05-08,2025-05-08,合同会社ＳＹＯ企画,,合同会社,神奈川県,川崎市高津区,梶ケ谷４丁目１１番地２２、２０１,,14,134,2130015,,,,,,,2025-05-08,1,,,,,ショウキカク,0
397,2020003028431,新規,0,2025-05-08,2025-05-08,ジーエス設計合同会社,,合同会社,神奈川県,横浜市南区,南太田１丁目３番３０号,,14,105,2320006,,,,,,,2025-05-08,1,,,,,ジーエスセッケイ,0
411,2030001166372,新規,0,2025-05-08,2025-05-08,株式会社笑和住設,,株式会社,埼玉県,富士見市,西みずほ台２丁目４番地６－１０６,,11,235,3540018,,,,,,,2025-05-08,1,,,,,ショウワジュウセツ,0
412,2030001166389,新規,0,2025-05-08,2025-05-08,株式会社Ｆ．Ｔ．Ｂ,,株式会社,埼玉県,ふじみ野市,新田２丁目５番１９号アルカディアＩＩ２０３,00139046,11,245,3560033,,,,,,,2025-05-08,1,,,,,エフティービー,0
413,2030001166397,新規,0,2025-05-08,2025-05-08,株式会社岩崎商事,00139047,株式会社,埼玉県,草加市,新里町１４２２番地ヴイ・シティ草加４－７０３号,,11,221,3400031,,,,,,,2025-05-08,1,,,,,イワサキショウジ,0
414,2030001166422,新規,0,2025-05-08,2025-05-08,株式会社ＮＩＰＰＯＮ１ＡＬＦＡ,,株式会社,埼玉県,川口市,大字安行北谷６１２番地６,,11,203,3340054,,,,,,,2025-05-08,1,,,,,ニッポンイチアルファー,0
418,2030003026657,新規,0,2025-05-08,2025-05-08,合同会社ＧＲＯＳＳＡ,,合同会社,埼玉県,比企郡小川町,大字青山７３７－４,,11,343,3550324,,,,,,,2025-05-08,1,,,,,グロッサ,0
419,2030003026731,新規,0,2025-05-08,2025-05-08,合同会社高階電測,,合同会社,埼玉県,川越市,新宿町１丁目１７番地１７ウェスタ川越５０４号,,11,201,3501124,,,,,,,2025-05-08,1,,,,,タカシナデンソク,0
429,2060001038172,新規,0,2025-05-08,2025-05-08,リンクプラス株式会社,,株式会社,栃木県,小山市,城山町３丁目６番地２５号,,09,208,3230025,,,,,,,2025-05-08,1,,,,,リンクプラス,0
432,2060003005534,新規,0,2025-05-08,2025-05-08,合同会社Ａｒｖａ,,合同会社,栃木県,栃木市,大宮町２６７５番地７,,09,203,3280011,,,,,,,2025-05-08,1,,,,,アルバ,0
433,2070001042909,新規,0,2025-05-08,2025-05-08,株式会社ＡｒｉａＮｅｓｔ,,株式会社,群馬県,富岡市,七日市８３８番地,,10,210,3702343,,,,,,,2025-05-08,1,,,,,アリアネスト,0
434,2070001042917,新規,0,2025-05-08,2025-05-08,アーキテクトサポート群馬株式会社,,株式会社,群馬県,高崎市,福島町７１３番地１２,,10,202,3703523,,,,,,,2025-05-08,1,,,,,アーキテクトサポートグンマ,0
438,2070003005913,新規,0,2025-05-08,2025-05-08,合同会社ブルーカナール,,合同会社,群馬県,伊勢崎市,太田町５６４番地１プランニング大地ビル２－２,,10,204,3720006,,,,,,,2025-05-08,1,,,,,ブルーカナール,0
441,2080001026919,新規,0,2025-05-08,2025-05-08,株式会社石神工業,,株式会社,静岡県,島田市,井口１３４２番地,,22,209,4270104,,,,,,,2025-05-08,1,,,,,イシガミコウギョウ,0
452,2080401027863,新規,0,2025-05-08,2025-05-08,華彩ピアノ株式会社,,株式会社,静岡県,浜松市中央区,田町２２３－２１ビオラ田町３階,,22,138,4300944,,,,,,,2025-05-08,1,,,,,カサイピアノ,0
455,2080403005256,新規,0,2025-05-08,2025-05-08,合同会社あしのい,,合同会社,静岡県,浜松市中央区,和合町３１５番地の１６８７,,22,138,4338125,,,,,,,2025-05-08,1,,,,,アシノイ,0
458,2100001038572,新規,0,2025-05-08,2025-05-08,株式会社ＳＮＳホールディングス,,株式会社,長野県,長野市,大字稲葉２５６１番地,,20,201,3800911,,,,,,,2025-05-08,1,,,,,エスエヌエスホールディングス,0
459,2100001038580,新規,0,2025-05-08,2025-05-08,ＦＧ株式会社,,株式会社,長野県,長野市,広田２３９番地サンフラワー広田Ｂ１０１,,20,201,3812213,,,,,,,2025-05-08,1,,,,,エフジー,0
460,2100003008136,新規,0,2025-05-08,2025-05-08,合同会社ふくふく訪問看護ステーション,,合同会社,長野県,駒ヶ根市,上穂南１４番２２号,,20,210,3994114,,,,,,,2025-05-08,1,,,,,フクフクホウモンカンゴステーション,0
461,2100003008144,新規,0,2025-05-08,2025-05-08,合同会社ランドリサーチ,,合同会社,長野県,長野市,大字東和田７５８－１９,,20,201,3810038,,,,,,,2025-05-08,1,,,,,ランドリサーチ,0
467,2120001275123,新規,0,2025-05-08,2025-05-08,Ｎｅｔｌｉｎｋ株式会社,,株式会社,大阪府,大阪市西成区,鶴見橋１丁目１０番１４号３０４室,,27,122,5570031,,,,,,,2025-05-08,1,,,,,ネットリンク,0
468,2120001275239,新規,0,2025-05-08,2025-05-08,株式会社星宿,,株式会社,大阪府,大阪市中央区,島之内２丁目１番８号同拓ビル１階,,27,128,5420082,,,,,,,2025-05-08,1,,,,,ホシジュク,0
469,2120001275560,新規,0,2025-05-08,2025-05-08,ＲＩＮＤＯＷ株式会社,,株式会社,大阪府,大阪市北区,堂島浜１丁目４－４アクア堂島フォンターナ３階,,27,127,5300004,,,,,,,2025-05-08,1,,,,,リンドウ,0
470,2120001275627,新規,0,2025-05-08,2025-05-08,株式会社Ｌ‐ＣＲＥＡＴＥ,,株式会社,大阪府,大阪市北区,梅田１丁目２番２号大阪駅前第２ビル１２－１２,,27,127,5300001,,,,,,,2025-05-08,1,,,,,エルクリエイト,0
471,2120001275651,新規,0,2025-05-08,2025-05-08,ミチウォーク株式会社,,株式会社,大阪府,大阪市中央区,南船場３丁目２番２２号おおきに南船場ビル２０５,,27,128,5420081,,,,,,,2025-05-08,1,,,,,ミチウォーク,0
474,2120101071612,新規,0,2025-05-08,2025-05-08,株式会社ＳＯＹＩ,,株式会社,大阪府,堺市堺区,翁橋町１丁３番３号,,27,141,5900061,,,,,,,2025-05-08,1,,,,,ソーイ,0
475,2120101071620,新規,0,2025-05-08,2025-05-08,株式会社エイコー,,株式会社,大阪府,堺市南区,原山台５丁７番７－１００８号,,27,145,5900132,,,,,,,2025-05-08,1,,,,,エイコー,0
481,2120901050798,新規,0,2025-05-08,2025-05-08,株式会社Ｉ．Ｖ．Ｇ,,株式会社,大阪府,池田市,畑２丁目５番１００－１０４号,,27,204,5630021,,,,,,,2025-05-08,1,,,,,アイブイジー,0
482,2120901050807,新規,0,2025-05-08,2025-05-08,株式会社イワツキ,,株式会社,大阪府,摂津市,鳥飼八防１丁目２２番１３号１０２号室,,27,224,5660054,,,,,,,2025-05-08,1,,,,,イワツキ,0
486,2122001039185,新規,0,2025-05-08,2025-05-08,株式会社Ｔｓｔｅｅｌインダストリー,,株式会社,大阪府,東大阪市,南鴻池町２丁目１３番３２号,,27,227,5780961,,,,,,,2025-05-08,1,,,,,ティスチールインダストリー,0
489,2130001079580,新規,0,2025-05-08,2025-05-08,株式会社浄明堂,,株式会社,京都府,京都市伏見区,深草西浦町２丁目８７－９,,26,109,6120029,,,,,,,2025-05-08,1,,,,,ジョウメイドウ,0
493,2140001138385,新規,0,2025-05-08,2025-05-08,ＭＡＨＲＵ株式会社,,株式会社,兵庫県,淡路市,生穂新島５番地８,,28,226,6562225,,,,,,,2025-05-08,1,,,,,マール,0
494,2140001138451,新規,0,2025-05-08,2025-05-08,株式会社ＭＵ動物病院,,株式会社,兵庫県,小野市,片山町１０８８番地の９,,28,218,6751335,,,,,,,2025-05-08,1,,,,,ムードウブツビョウイン,0
495,2140001138526,新規,0,2025-05-08,2025-05-08,株式会社Ｓｈｉｆｔ　Ｍｅｎｔｏｒ,,株式会社,兵庫県,神戸市中央区,磯辺通１丁目１－１８カサベラ国際プラザビル７０７,,28,110,6510084,,,,,,,2025-05-08,1,,,,,シフトメンター,0
500,2170001018618,新規,0,2025-05-08,2025-05-08,株式会社リノスタッフ和歌山,,株式会社,和歌山県,和歌山市,小雑賀５６７－１,,30,201,6410007,,,,,,,2025-05-08,1,,,,,リノスタッフワカヤマ,0
504,2180001166589,新規,0,2025-05-08,2025-05-08,株式会社ＧＲｅｅｎ　Ｅｃｏ,,株式会社,愛知県,名古屋市名東区,牧の原３丁目５０２番地（ソレーユ牧の原１０３号）,,23,115,4650072,,,,,,,2025-05-08,1,,,,,グリーンエコ,0
505,2180001166713,新規,0,2025-05-08,2025-05-08,株式会社Ａ・ｄｏ,,株式会社,愛知県,海部郡大治町,大字砂子字馬捨場２５５番地,,23,424,4901143,,,,,,,2025-05-08,1,,,,,アド,0
510,2180301039767,新規,0,2025-05-08,2025-05-08,株式会社ＨＥＲＯ　ＡＲＣＨＩＴＥＣＴＳ,,株式会社,愛知県,西尾市,熊味町新畑１１７番地,,23,213,4450071,,,,,,,2025-05-08,1,,,,,ヒロアーキテクツ,0
520,2220001026672,新規,0,2025-05-08,2025-05-08,株式会社ひとすじ不動産,,株式会社,石川県,金沢市,芳斉２丁目１３番２３号,,17,201,9200862,,,,,,,2025-05-08,1,,,,,ヒトスジフドウサン,0
523,2220005008964,新規,0,2025-05-08,2025-05-08,一般社団法人能登ふるさと研究所,,その他の設立登記法人,石川県,輪島市,河井町４部６８番地,,17,204,9280001,,,,,,,2025-05-08,1,,,,,ノトフルサトケンキュウジョ,0
524,2230001020889,新規,0,2025-05-08,2025-05-08,ＫＩＦ　Ｆｏｏｄ’ｓ株式会社,,株式会社,富山県,砺波市,太郎丸６５６８番地１,,16,208,9391363,,,,,,,2025-05-08,1,,,,,ケイアイエフフーズ,0
525,2230001020897,新規,0,2025-05-08,2025-05-08,霧島リンク株式会社,,株式会社,富山県,滑川市,大浦６１番地,,16,206,9360811,,,,,,,2025-05-08,1,,,,,キリシマリンク,0
529,2240001064910,新規,0,2025-05-08,2025-05-08,株式会社ＫＤＭ,,株式会社,広島県,広島市南区,丹那町６０番１３号,,34,103,7340034,,,,,,,2025-05-08,1,,,,,ケーディーエム,0
530,2240001064919,新規,0,2025-05-08,2025-05-08,株式会社心樹の森,,株式会社,広島県,広島市安佐北区,落合１丁目４番２３－１０２号Ａ,,34,106,7391731,,,,,,,2025-05-08,1,,,,,シンジュノモリ,0
535,2270005005643,新規,0,2025-05-08,2025-05-08,学校法人淳心学園,,その他の設立登記法人,鳥取県,倉吉市,福吉町１３７６番６号,,31,203,6820872,,,,,,,2025-05-08,1,,,,,ジュンシンガクエン,0
545,2290003016772,新規,0,2025-05-08,2025-05-08,合同会社ＰＲ,,合同会社,福岡県,福岡市博多区,博多駅前１丁目２３番２号ＰａｒｋＦｒｏｎｔ博多駅前一丁目５Ｆ－Ｂ,,40,132,8120011,,,,,,,2025-05-08,1,,,,,ピーアール,0
551,2290005019740,新規,0,2025-05-08,2025-05-08,一般社団法人ママの楽笑アカデミー,,その他の設立登記法人,福岡県,福岡市東区,松香台１丁目２番１号,,40,131,8130004,,,,,,,2025-05-08,1,,,,,ママノラクショウアカデミー,0
552,2290801031527,新規,0,2025-05-08,2025-05-08,株式会社ｚｅｎ　ｓｐａｃｅ,,株式会社,福岡県,北九州市小倉北区,浅野３丁目８‐１ＡＩＭビル６階,,40,106,8020001,,,,,,,2025-05-08,1,,,,,ゼンスペース,0
554,2300001014181,新規,0,2025-05-08,2025-05-08,翔建工業株式会社,,株式会社,佐賀県,神埼市,千代田町黒井１３７７番地３,,41,210,8420051,,,,,,,2025-05-08,1,,,,,ショウケンコウギョウ,0
564,2330003010993,新規,0,2025-05-08,2025-05-08,合同会社ＧＡＫＵ,,合同会社,熊本県,熊本市中央区,花畑町１番１４号Ａ＆Ｍ・ＨＡＮＡＢＡＴＡ,,43,101,8600806,,,,,,,2025-05-08,1,,,,,ガク,0
567,2340001027304,新規,0,2025-05-08,2025-05-08,株式会社クリモト,,株式会社,鹿児島県,鹿児島市,東開町３番地１８,,46,201,8910115,,,,,,,2025-05-08,1,,,,,クリモト,0
571,2350003004928,新規,0,2025-05-08,2025-05-08,合同会社ＤＯＧ　ＤＡＹＳ．,,合同会社,宮崎県,児湯郡都農町,大字川北１５７５９番地１,,45,406,8891201,,,,,,,2025-05-08,1,,,,,ドッグデイズ,0
572,2360001035115,新規,0,2025-05-08,2025-05-08,株式会社ケーズ,,株式会社,沖縄県,那覇市,若狭３丁目１０番１８号,,47,201,9000031,,,,,,,2025-05-08,1,,,,,,0
573,2360003014892,新規,0,2025-05-08,2025-05-08,合同会社しずかな,,合同会社,沖縄県,沖縄市,桃原２丁目６番２１号,,47,211,9042164,,,,,,,2025-05-08,1,,,,,シズカナ,0
574,2360005007226,新規,0,2025-05-08,2025-05-08,一般社団法人癒やしと希望の森,,その他の設立登記法人,沖縄県,中頭郡北谷町,字桃原８－２－４０１,,47,326,9040104,,,,,,,2025-05-08,1,,,,,イヤシトキボウノモリ,0
577,2370001052563,新規,0,2025-05-08,2025-05-08,株式会社ニチニチ,,株式会社,宮城県,仙台市青葉区,桜ケ丘５丁目２９－８,,04,101,9810961,,,,,,,2025-05-08,1,,,,,ニチニチ,0
580,2390001017977,新規,0,2025-05-08,2025-05-08,株式会社ＨＯＯＰ　ＩＳ　ＬＩＦＥ,,株式会社,山形県,山形市,旅篭町２丁目１番５－１１０１号レーベン山形旅篭町ＣＲＯＳＳ・ＴＨＥ・ＴＯＷＥＲ,,06,201,9900047,,,,,,,2025-05-08,1,,,,,フープイズライフ,0
581,2390003002382,新規,0,2025-05-08,2025-05-08,合同会社ＶＡＲＳＴＹ,,合同会社,山形県,鶴岡市,日出２丁目３番５３号,,06,203,9970025,,,,,,,2025-05-08,1,,,,,バースティー,0
585,2410001014154,新規,0,2025-05-08,2025-05-08,株式会社大誠基礎,,株式会社,秋田県,大仙市,大曲飯田町１０番４号,,05,212,0140068,,,,,,,2025-05-08,1,,,,,タイセイキソ,0
586,2410003004095,新規,0,2025-05-08,2025-05-08,合同会社ＴＥＧＡＴＡ‐ＬＩＦＥ不動産事務所,,合同会社,秋田県,秋田市,広面字宮田３４番１の１,,05,201,0100041,,,,,,,2025-05-08,1,,,,,テガタライフフドウサンジムショ,0
594,2430001094285,新規,0,2025-05-08,2025-05-08,株式会社オフィスこいしかわ,,株式会社,北海道,札幌市白石区,北郷２３４６－５０,,01,104,0030849,,,,,,,2025-05-08,1,,,,,オフィスコイシカワ,0
595,2430001094302,新規,0,2025-05-08,2025-05-08,株式会社秋月,,株式会社,北海道,札幌市中央区,南五条西１３丁目１番２７－２０５号,,01,101,0640805,,,,,,,2025-05-08,1,,,,,アキヅキ,0
598,2430003017599,新規,0,2025-05-08,2025-05-08,合同会社にじふるひ,,合同会社,北海道,江別市,東光町１１５番地の５,,01,217,0670023,,,,,,,2025-05-08,1,,,,,ニジフルヒ,0
599,2430003017632,新規,0,2025-05-08,2025-05-08,澤井商事合同会社,,合同会社,北海道,札幌市中央区,大通西１７丁目２番６号,,01,101,0600042,,,,,,,2025-05-08,1,,,,,サワイショウジ,0
600,2450001014613,新規,0,2025-05-08,2025-05-08,道北油機株式会社,,株式会社,北海道,上川郡鷹栖町,南二条１丁目６番２号,,01,452,0711202,,,,,,,2025-05-08,1,,,,,ドウホクユキ,0
602,2460101007706,新規,0,2025-05-08,2025-05-08,高杉設備工業株式会社,00139048,株式会社,北海道,帯広市,西十六条南６丁目５番７号,,01,207,0800026,,,,,,,2025-05-08,1,,,,,タカスギセツビコウギョウ,0
605,2470001020700,新規,0,2025-05-08,2025-05-08,丸冨食品株式会社,,株式会社,香川県,丸亀市,土器町東９丁目１２０番地１,,37,202,7630082,,,,,,,2025-05-08,1,,,,,マルトミショクヒン,0
607,2480001012829,新規,0,2025-05-08,2025-05-08,株式会社ミレット,,株式会社,徳島県,徳島市,住吉４丁目５番５６号,,36,201,7700861,,,,,,,2025-05-08,1,,,,,ミレット,0
615,2700150130318,新規,0,2025-05-08,2025-05-08,ＭＪＳ　Ｍｏｔｏｒ　Ｐｖｔ　Ｌｔｄ,,外国会社等,静岡県,富士宮市,北山４９６３－８　ロイヤルコープ渡辺２０Ｂ,,22,207,4180112,スリランカ民主社会主義共和国キンニヤ市ジャワ通Ｎ１１０号,,,,,,2025-05-08,1,,,,,エムジエイエスモータープライベートリミテツド,0
616,2700150130350,新規,0,2025-05-08,2025-05-08,日本デューティー・フリー・ショップ協会,,その他,東京都,大田区,羽田空港３丁目３－２　第１旅客ターミナル　日本空港ビルデング（株）内,,13,111,1440041,,,,,,,2025-05-08,1,,,,,ニホンデューティーフリーショップキョウカイ,0
625,3010001254748,新規,0,2025-05-08,2025-05-08,株式会社露木事務所,,株式会社,東京都,千代田区,丸の内３丁目４番１号新国際ビル８階,,13,101,1000005,,,,,,,2025-05-08,1,,,,,ツユキジムショ,0
626,3010001254772,新規,0,2025-05-08,2025-05-08,株式会社ＳＡＫＩＧＡＫＥ＆Ｃｏ．,,株式会社,東京都,中央区,銀座１丁目１２番４号Ｎ＆ＥＢＬＤ．６Ｆ,,13,102,1040061,,,,,,,2025-05-08,1,,,,,サキガケアンドカンパニー,0
627,3010001254797,新規,0,2025-05-08,2025-05-08,ファランクスアンドカンパニー株式会社,,株式会社,東京都,中央区,日本橋蛎殻町１丁目１３番１号ＴＨＥＨＵＢ・Ｓ９,,13,102,1030014,,,,,,,2025-05-08,1,,,,,ファランクスアンドカンパニー,0
628,3010003047150,新規,0,2025-05-08,2025-05-08,ＨＯＵＳＥ　ＯＦ　ＴＡＫＡＫＯ合同会社,,合同会社,東京都,中央区,晴海５丁目１－１７－１００６,,13,102,1040053,,,,,,,2025-05-08,1,,,,,ハウスオブタカコ,0
629,3010003047290,新規,0,2025-05-08,2025-05-08,上和文化合同会社,,合同会社,東京都,中央区,新川１丁目７番１号天翔日本橋茅場町ビル８１５号室,,13,102,1040033,,,,,,,2025-05-08,1,,,,,ジョウワブンカ,0
630,3010005040013,新規,0,2025-05-08,2025-05-08,サードプレイス・ネットワーク社会保険労務士法人,,その他の設立登記法人,東京都,中央区,八丁堀４丁目１０番１１号,,13,102,1040032,,,,,,,2025-05-08,1,,,,,,0
633,3010103002567,新規,0,2025-05-08,2025-05-08,グリーンビジョン合同会社,,合同会社,東京都,八王子市,八日町８―１ビュータワー八王子２７０５,,13,201,1920071,,,,,,,2025-05-08,1,,,,,グリーンビジョン,0
636,3010401190056,新規,0,2025-05-08,2025-05-08,株式会社ハマダミツエオフィス,,株式会社,東京都,港区,南青山２丁目２番１５号,,13,103,1070062,,,,,,,2025-05-08,1,,,,,ハマダミツエオフィス,0
639,3010403035028,新規,0,2025-05-08,2025-05-08,ＲＧ蓄電所開発合同会社１,,合同会社,東京都,港区,六本木３丁目１６番１９－３０２号,,13,103,1060032,,,,,,,2025-05-08,1,,,,,アールジーチクデンショカイハツイチ,0
640,3010403035044,新規,0,2025-05-08,2025-05-08,合同会社アウロラ,,合同会社,東京都,港区,新橋２丁目１６番１号ニュー新橋ビル７０２,,13,103,1050004,,,,,,,2025-05-08,1,,,,,アウロラ,0
641,3010405024367,新規,0,2025-05-08,2025-05-08,Ｔｅｒｍｉｎｏｓ一般社団法人,,その他の設立登記法人,東京都,港区,西新橋１丁目１番１号ＥＰコンサルティングサービス内,,13,103,1050003,,,,,,,2025-05-08,1,,,,,テルミノス,0
643,3010501054020,新規,0,2025-05-08,2025-05-08,株式会社Ｄｒ．Ｈｅａｌｔｈ＆Ｂｅａｕｔｙ　Ｌａｂ,,株式会社,東京都,台東区,東上野１丁目１３番７号三井ビル１０１号室,,13,106,1100015,,,,,,,2025-05-08,1,,,,,ドクターヘルスアンドビューティーラボ,0
649,3010601067260,新規,0,2025-05-08,2025-05-08,ＳＤＹ株式会社,,株式会社,東京都,江東区,東砂３丁目１６番１－４０３号,,13,108,1360074,,,,,,,2025-05-08,1,,,,,エスディーワイ,0
659,3010901057300,新規,0,2025-05-08,2025-05-08,株式会社ＳＴＡＴＵＳ,,株式会社,東京都,世田谷区,豪徳寺１丁目４４番８号２Ｆ,,13,112,1540021,,,,,,,2025-05-08,1,,,,,ステイタス,0
660,3010901057317,新規,0,2025-05-08,2025-05-08,株式会社ＴＨＥ　ＪＵＩＣＹ,,株式会社,東京都,世田谷区,桜新町２丁目１７―１５サクラビル３階,,13,112,1540015,,,,,,,2025-05-08,1,,,,,ザジューシー,0
662,3010903009885,新規,0,2025-05-08,2025-05-08,合同会社ＫＵｔｏＲＡＫＵ,,合同会社,東京都,世田谷区,宇奈根２丁目１５番８号－８,,13,112,1570068,,,,,,,2025-05-08,1,,,,,クトラク,0
673,3011001169317,新規,0,2025-05-08,2025-05-08,Ａ＆Ｒ株式会社,,株式会社,東京都,渋谷区,代々木１丁目２１番５号ＭＵＳＩＫ北参道８０１,,13,113,1510053,,,,,,,2025-05-08,1,,,,,エーアンドアール,0
678,3011201026334,新規,0,2025-05-08,2025-05-08,ＲＪ　Ｉｎｖｅｓｔｍｅｎｔ株式会社,,株式会社,東京都,中野区,白鷺２丁目１８番１号,,13,114,1650035,,,,,,,2025-05-08,1,,,,,アールジェイインベストメント,0
682,3011303005533,新規,0,2025-05-08,2025-05-08,草帽未来合同会社,,合同会社,東京都,杉並区,高円寺南２丁目２番１３号アンビエンス高円寺３Ｆ―Ｄ,,13,115,1660003,,,,,,,2025-05-08,1,,,,,ソウボウミライ,0
690,3011603004697,新規,0,2025-05-08,2025-05-08,合同会社三丸健康研究所,,合同会社,東京都,練馬区,石神井町２丁目１５番７－２０１号,,13,120,1770041,,,,,,,2025-05-08,1,,,,,ミツマルケンコウケンキュウジョ,0
694,3012403007089,新規,0,2025-05-08,2025-05-08,Ｆｅａｔｚ合同会社,,合同会社,東京都,三鷹市,上連雀３丁目１１―１９,,13,204,1810012,,,,,,,2025-05-08,1,,,,,フィーツ,0
695,3012701018845,新規,0,2025-05-08,2025-05-08,株式会社ＫＯＲＥＳＴ,,株式会社,東京都,東久留米市,南沢５丁目１９番８－５１５号,,13,222,2030023,,,,,,,2025-05-08,1,,,,,コレスト,0
696,3012801023943,新規,0,2025-05-08,2025-05-08,株式会社ＴＡＥＨＯ,,株式会社,東京都,国分寺市,本町２丁目７番４号Ｍ．Ｈビル１Ｆ,,13,214,1850012,,,,,,,2025-05-08,1,,,,,テホ,0
697,3012803003729,新規,0,2025-05-08,2025-05-08,合同会社アップ,,合同会社,東京都,日野市,日野本町４丁目２２番地の８,,13,212,1910011,,,,,,,2025-05-08,1,,,,,アップ,0
708,3020001162735,新規,0,2025-05-08,2025-05-08,株式会社Ｏｃｅａｎ　Ｂｌｉｓｓ,,株式会社,神奈川県,横浜市神奈川区,金港町５－１４クアドリフォリオ８階,,14,102,2210056,,,,,,,2025-05-08,1,,,,,オーシャンブリス,0
713,3021001085109,新規,0,2025-05-08,2025-05-08,株式会社ｕｎｄｅｒｒｏｃｋ,,株式会社,神奈川県,中郡二宮町,山西７５７－４,,14,342,2590124,,,,,,,2025-05-08,1,,,,,アンダーロック,0
714,3021001085141,新規,0,2025-05-08,2025-05-08,富鵬国際株式会社,,株式会社,神奈川県,平塚市,真田１丁目１２番１３－２号,,14,203,2591206,,,,,,,2025-05-08,1,,,,,フウホウコクサイ,0
715,3021001085174,新規,0,2025-05-08,2025-05-08,株式会社栄進防水,,株式会社,神奈川県,座間市,相模が丘３丁目２５番５号,,14,216,2520001,,,,,,,2025-05-08,1,,,,,エイシンボウスイ,0
717,3021003015947,新規,0,2025-05-08,2025-05-08,ＹＵＫＩ　ＥＮＴＥＲＰＲＩＳＥＳ合同会社,,合同会社,神奈川県,藤沢市,宮原３１８８番１０２号,,14,205,2520826,,,,,,,2025-05-08,1,,,,,ユキエンタープライゼス,0
718,3021003015963,新規,0,2025-05-08,2025-05-08,合同会社令和乃ＳＷＡＧ‐３ＤＰ,,合同会社,神奈川県,小田原市,田島５１４番地の２,,14,206,2560811,,,,,,,2025-05-08,1,,,,,レイワノスワッグスリーディーピー,0
723,3030001166339,新規,0,2025-05-08,2025-05-08,株式会社Ｓｅａ　ｗｅｅｄ,,株式会社,埼玉県,桶川市,鴨川１丁目１０番４－２０２号,,11,231,3630024,,,,,,,2025-05-08,1,,,,,シーウィード,0
724,3030001166363,新規,0,2025-05-08,2025-05-08,佐々木建築株式会社,,株式会社,埼玉県,北本市,本町１丁目６４番地,,11,233,3640033,,,,,,,2025-05-08,1,,,,,ササキケンチク,0
725,3030001166371,新規,0,2025-05-08,2025-05-08,株式会社アプライズ,,株式会社,埼玉県,さいたま市大宮区,宮町１丁目５５番地ＡＢＣ小島ビル８Ｆ,,11,103,3300802,,,,,,,2025-05-08,1,,,,,アプライズ,0
726,3030001166413,新規,0,2025-05-08,2025-05-08,株式会社弓田測量,,株式会社,埼玉県,坂戸市,柳町４５番２５号,,11,239,3500216,,,,,,,2025-05-08,1,,,,,ユミタソクリョウ,0
727,3030001166421,新規,0,2025-05-08,2025-05-08,株式会社吉田建材,,株式会社,埼玉県,比企郡小川町,大字木部１３５番地１,,11,343,3550335,,,,,,,2025-05-08,1,,,,,ヨシダケンザイ,0
732,3030003026706,新規,0,2025-05-08,2025-05-08,ＭＸ合同会社,,合同会社,埼玉県,川越市,大字安比奈新田２番地１４,,11,201,3501173,,,,,,,2025-05-08,1,,,,,エムエックス,0
733,3030005022158,新規,0,2025-05-08,2025-05-08,一般社団法人保健室ＢＯＸ,,その他の設立登記法人,埼玉県,坂戸市,千代田３丁目９番２１号,,11,239,3500214,,,,,,,2025-05-08,1,,,,,ホケンシツボックス,0
741,3060001038171,新規,0,2025-05-08,2025-05-08,株式会社ふゆり,,株式会社,栃木県,栃木市,川原田町１２５４番地３,,09,203,3280123,,,,,,,2025-05-08,1,,,,,フユリ,0
743,3060003005541,新規,0,2025-05-08,2025-05-08,千田技術支援合同会社,,合同会社,栃木県,宇都宮市,西原町１９５番地６１,,09,201,3200826,,,,,,,2025-05-08,1,,,,,チダギジュツシエン,0
747,3070001042908,新規,0,2025-05-08,2025-05-08,株式会社松井興業,,株式会社,群馬県,富岡市,富岡７３１番地７,,10,210,3702316,,,,,,,2025-05-08,1,,,,,マツイコウギョウ,0
748,3070001042916,新規,0,2025-05-08,2025-05-08,株式会社グレド,,株式会社,群馬県,太田市,藪塚町２９１７番地３,,10,205,3792301,,,,,,,2025-05-08,1,,,,,グレド,0
749,3070003005912,新規,0,2025-05-08,2025-05-08,合同会社テイクオフ,,合同会社,群馬県,高崎市,飯玉町５５番地,,10,202,3700063,,,,,,,2025-05-08,1,,,,,テイクオフ,0
750,3080001026918,新規,0,2025-05-08,2025-05-08,株式会社ヤマシタ・アットホーム,,株式会社,静岡県,藤枝市,五十海４丁目１８番７号,,22,214,4260015,,,,,,,2025-05-08,1,,,,,ヤマシタアットホーム,0
757,3080401027887,新規,0,2025-05-08,2025-05-08,株式会社ＦＳＰＥＥＥＣＨ,,株式会社,静岡県,浜松市中央区,大平台４丁目２３番１６号,,22,138,4328068,,,,,,,2025-05-08,1,,,,,エフスピーチ,0
758,3080401027895,新規,0,2025-05-08,2025-05-08,一善エステート株式会社,,株式会社,静岡県,浜松市中央区,高丘西３丁目５６番１９号,,22,138,4338118,,,,,,,2025-05-08,1,,,,,イチゼンエステート,0
772,3080405007737,新規,0,2025-05-08,2025-05-08,一般社団法人ＡＩＲＩＯ,,その他の設立登記法人,静岡県,浜松市中央区,安松町８０番地の１,,22,138,4350034,,,,,,,2025-05-08,1,,,,,アイリオ,0
779,3100001038571,新規,0,2025-05-08,2025-05-08,株式会社はらたや,,株式会社,長野県,伊那市,中央４９２７番地１,,20,209,3960015,,,,,,,2025-05-08,1,,,,,ハラタヤ,0
782,3100003008135,新規,0,2025-05-08,2025-05-08,合同会社フフレ,,合同会社,長野県,長野市,大字長野横沢町７４９番地１,,20,201,3800861,,,,,,,2025-05-08,1,,,,,フフレ,0
784,3110001039239,新規,0,2025-05-08,2025-05-08,株式会社Ｍｏｎｒｏｅ,,株式会社,新潟県,長岡市,坂之上町１丁目２番地１第二笑月ビル２Ｆ,,15,202,9400065,,,,,,,2025-05-08,1,,,,,モンロー,0
791,3120001275535,新規,0,2025-05-08,2025-05-08,株式会社Ｋ‐ＳＴＥＬＬＡ,,株式会社,大阪府,大阪市北区,梅田１丁目２番２号大阪駅前第２ビル１２－１２,,27,127,5300001,,,,,,,2025-05-08,1,,,,,ケーステラ,0
792,3120001275551,新規,0,2025-05-08,2025-05-08,株式会社ハルダイニング,,株式会社,大阪府,大阪市淀川区,西中島３丁目２３番９号,,27,123,5320011,,,,,,,2025-05-08,1,,,,,ハルダイニング,0
793,3120001275642,新規,0,2025-05-08,2025-05-08,株式会社ＵＺＵＺ　Ｐｌｕｓ,,株式会社,大阪府,大阪市西区,阿波座１丁目１１番１７号西本町有楽ビル２階,,27,106,5500011,,,,,,,2025-05-08,1,,,,,ウズウズプラス,0
797,3120101071611,新規,0,2025-05-08,2025-05-08,株式会社ＰＲＯＯＦＷＯＲＫＳ,,株式会社,大阪府,羽曳野市,尺度１９５番地の５,,27,222,5830862,,,,,,,2025-05-08,1,,,,,プルーフワークス,0
807,3122001039176,新規,0,2025-05-08,2025-05-08,米小熊株式会社,,株式会社,大阪府,八尾市,大竹７丁目１６９番地２０２号室,,27,212,5810854,,,,,,,2025-05-08,1,,,,,コメコグマ,0
811,3130003010443,新規,0,2025-05-08,2025-05-08,合同会社Ａｔｅｌｉｅｒ　Ｎｉｃｏ,,合同会社,京都府,京都市下京区,七条通油小路東入大黒町２２７番地第２キョートビル４０２,,26,106,6008223,,,,,,,2025-05-08,1,,,,,アトリエニコ,0
817,3140001138450,新規,0,2025-05-08,2025-05-08,雅工業株式会社,,株式会社,兵庫県,姫路市,広畑区北河原町７６番地５北河原マンション５棟２０２号,,28,201,6711111,,,,,,,2025-05-08,1,,,,,マサコウギョウ,0
818,3140001138459,新規,0,2025-05-08,2025-05-08,株式会社ＦＩＶＥ,,株式会社,兵庫県,姫路市,駅前町２６６番地,,28,201,6700927,,,,,,,2025-05-08,1,,,,,ファイブ,0
819,3150001028106,新規,0,2025-05-08,2025-05-08,株式会社Ｋ‐Ｌｉｎｅ,,株式会社,奈良県,橿原市,山之坊町４１６番地の３,,29,205,6340071,,,,,,,2025-05-08,1,,,,,ケーライン,0
822,3160001026736,新規,0,2025-05-08,2025-05-08,株式会社ＭＯＲＥ,,株式会社,滋賀県,草津市,平井１丁目８番２号平井ＢＬＤＧ２Ｆ,,25,206,5250023,,,,,,,2025-05-08,1,,,,,モア,0
823,3160003003469,新規,0,2025-05-08,2025-05-08,合同会社サンクチュアリ,,合同会社,滋賀県,近江八幡市,西本郷町東７番地６,,25,204,5230818,,,,,,,2025-05-08,1,,,,,サンクチュアリ,0
838,3180001166638,新規,0,2025-05-08,2025-05-08,株式会社みわ,,株式会社,愛知県,あま市,蜂須賀西杁ノ下２１６１番地１,,23,237,4901225,,,,,,,2025-05-08,1,,,,,ミワ,0
839,3180001166646,新規,0,2025-05-08,2025-05-08,株式会社Ａｒｏｗａ,,株式会社,愛知県,名古屋市中区,金山２丁目６番１７号プラシードＹ’ｓ１０１,,23,106,4600022,,,,,,,2025-05-08,1,,,,,アロワ,0
840,3180001166704,新規,0,2025-05-08,2025-05-08,株式会社アイティコーポレーション,,株式会社,愛知県,岩倉市,大地町深田２５番地,,23,228,4820026,,,,,,,2025-05-08,1,,,,,アイティコーポレーション,0
841,3180001166712,新規,0,2025-05-08,2025-05-08,株式会社ファースト,,株式会社,愛知県,名古屋市南区,戸部下１丁目８番１８号,,23,112,4570842,,,,,,,2025-05-08,1,,,,,ファースト,0
842,3180001166729,新規,0,2025-05-08,2025-05-08,株式会社Ｎ’ｓテックサービス,,株式会社,愛知県,一宮市,木曽川町黒田七ノ通り２１１番地,,23,203,4930001,,,,,,,2025-05-08,1,,,,,エヌズテックサービス,0
843,3180003028431,新規,0,2025-05-08,2025-05-08,合同会社アップトレンド,,合同会社,愛知県,名古屋市緑区,熊の前１丁目１２１１番地,,23,114,4580851,,,,,,,2025-05-08,1,,,,,アップトレンド,0
852,3190001032194,新規,0,2025-05-08,2025-05-08,アポロスペースフラワー株式会社,,株式会社,三重県,松阪市,松ヶ島町１－４,,24,204,5152133,,,,,,,2025-05-08,1,,,,,アポロスペースフラワー,0
855,3190003005025,新規,0,2025-05-08,2025-05-08,合同会社ツバメ,,合同会社,三重県,亀山市,川合町７２１番地２,,24,210,5190103,,,,,,,2025-05-08,1,,,,,ツバメ,0
858,3210005010202,新規,0,2025-05-08,2025-05-08,一般社団法人夢サポート,,その他の設立登記法人,福井県,福井市,大願寺３丁目５番２号,,18,201,9100001,,,,,,,2025-05-08,1,,,,,ユメサポート,0
861,3220001026639,新規,0,2025-05-08,2025-05-08,株式会社セリシールポゼ,,株式会社,石川県,金沢市,南新保町リ７５番地１Ｎ．ティアラ・１０３号,,17,201,9200064,,,,,,,2025-05-08,1,,,,,セリシールポゼ,0
862,3220001026663,新規,0,2025-05-08,2025-05-08,株式会社福禄寿,,株式会社,石川県,金沢市,此花町５番６号ライフ金沢第１ビル６０１Ａ,,17,201,9200852,,,,,,,2025-05-08,1,,,,,フクロクジュ,0
863,3230001020888,新規,0,2025-05-08,2025-05-08,株式会社ＫＡ’Ｚ　ｃｏｒｐｏｒａｔｉｏｎ,,株式会社,富山県,砺波市,太郎丸６５６８番地１,,16,208,9391363,,,,,,,2025-05-08,1,,,,,カズコーポレーション,0
866,3240001064884,新規,0,2025-05-08,2025-05-08,株式会社ＡＸＬ,,株式会社,広島県,広島市安佐南区,東原２丁目５番８号,,34,105,7310112,,,,,,,2025-05-08,1,,,,,アクセル,0
869,3240003007197,新規,0,2025-05-08,2025-05-08,合同会社誠商事,,合同会社,広島県,廿日市市,城内３丁目１１番１５号ＩＩ,00139068,34,213,7380007,,,,,,,2025-05-08,1,,,,,マコトショウジ,0
872,3270001009201,新規,0,2025-05-08,2025-05-08,ＷＡＧＹＵＢＡＳＥ株式会社,,株式会社,鳥取県,鳥取市,湖山町東３丁目６０番地,,31,201,6800942,,,,,,,2025-05-08,1,,,,,ワギュウベース,0
883,3290001109908,新規,0,2025-05-08,2025-05-08,株式会社ＡＣＵＳ,,株式会社,福岡県,久留米市,山川神代１丁目７番７号,,40,203,8390811,,,,,,,2025-05-08,1,,,,,エーシーユーエス,0
884,3290001109916,新規,0,2025-05-08,2025-05-08,株式会社松下吉塾,,株式会社,福岡県,那珂川市,中原２丁目１２０博多南駅前ビル２Ｆ,,40,231,8111213,,,,,,,2025-05-08,1,,,,,マツシタキチジュク,0
885,3290001109932,新規,0,2025-05-08,2025-05-08,株式会社Ｗｅａｌｔｈｙ,,株式会社,福岡県,久留米市,日ノ出町１０７番地,,40,203,8300012,,,,,,,2025-05-08,1,,,,,ウェルシー,0
886,3290001109949,新規,0,2025-05-08,2025-05-08,株式会社ユイナス,,株式会社,福岡県,福岡市西区,室見が丘２丁目７番９号,,40,135,8190030,,,,,,,2025-05-08,1,,,,,ユイナス,0
890,3290801031526,新規,0,2025-05-08,2025-05-08,株式会社明生,,株式会社,福岡県,京都郡苅田町,大字稲光１３３３番地１,,40,621,8000337,,,,,,,2025-05-08,1,,,,,メイセイ,0
898,3310001019591,新規,0,2025-05-08,2025-05-08,株式会社松本工務店,,株式会社,長崎県,島原市,有明町大三東乙１１２８番地１,,42,203,8591412,,,,,,,2025-05-08,1,,,,,マツモトコウムテン,0
900,3320003004657,新規,0,2025-05-08,2025-05-08,合同会社桜花,,合同会社,大分県,大分市,城崎町２丁目１番７号,,44,201,8700045,,,,,,,2025-05-08,1,,,,,オウカ,0
901,3320005010240,新規,0,2025-05-08,2025-05-08,一般社団法人カタカムナ学会,,その他の設立登記法人,大分県,大分市,大字小池原１４００番地の３,,44,201,8700147,,,,,,,2025-05-08,1,,,,,カタカムナガッカイ,0
905,3340001027303,新規,0,2025-05-08,2025-05-08,株式会社呑みんちゅ,,株式会社,鹿児島県,奄美市,名瀬入舟町５番１号,,46,222,8940034,,,,,,,2025-05-08,1,,,,,ノミンチュ,0
908,3360003014900,新規,0,2025-05-08,2025-05-08,ＳＥＬＦ　ＰＡＲＴＮＥＲ合同会社,,合同会社,沖縄県,国頭郡恩納村,字真栄田７１２番地２真栄田岬グランブルー２０４号,,47,311,9040417,,,,,,,2025-05-08,1,,,,,セルフパートナー,0
909,3370001052546,新規,0,2025-05-08,2025-05-08,Ｏｎｅ　ｉｐ　ＴＯＨＯＫＵ株式会社,,株式会社,宮城県,仙台市青葉区,国分町１丁目４番地９,,04,101,9800803,,,,,,,2025-05-08,1,,,,,ワンアイピートウホク,0
914,3380001035277,新規,0,2025-05-08,2025-05-08,白電総株式会社,,株式会社,福島県,いわき市,久之浜町久之浜字水上８７番地の２,,07,204,9790333,,,,,,,2025-05-08,1,,,,,ハクデンソウ,0
919,3390001017976,新規,0,2025-05-08,2025-05-08,株式会社ナナミヤ,,株式会社,山形県,東根市,神町北２丁目１６番１１号レジデンスＩ’ｍＩ３０１,00139051,06,211,9993762,,,,,,,2025-05-08,1,,,,,ナナミヤ,0
921,3390003002381,新規,0,2025-05-08,2025-05-08,合同会社ＧＬＡＮＺ,,合同会社,山形県,鶴岡市,鳥居町２８番１４－５号ジャルダン鳥居Ｃ棟Ｃ－２,,06,203,9970023,,,,,,,2025-05-08,1,,,,,グランツ,0
924,3410001014153,新規,0,2025-05-08,2025-05-08,株式会社和エステート,,株式会社,秋田県,秋田市,河辺和田字上中野１２６番地４,,05,201,0192601,,,,,,,2025-05-08,1,,,,,カズエステート,0
930,3420001019127,新規,0,2025-05-08,2025-05-08,株式会社優真,,株式会社,青森県,青森市,篠田３丁目９番２３号,,02,201,0380011,,,,,,,2025-05-08,1,,,,,ユウシン,0
934,3430003017598,新規,0,2025-05-08,2025-05-08,合同会社Ｆ＆Ｆ,,合同会社,北海道,札幌市中央区,南二十八条西１２丁目３番２７－５０５号,,01,101,0640928,,,,,,,2025-05-08,1,,,,,エフアンドエフ,0
938,3450001014612,新規,0,2025-05-08,2025-05-08,カムイ空調株式会社,,株式会社,北海道,旭川市,神居五条１２丁目４番１２号,,01,204,0708015,,,,,,,2025-05-08,1,,,,,カムイクウチョウ,0
941,3470001020699,新規,0,2025-05-08,2025-05-08,株式会社キトルス,,株式会社,香川県,丸亀市,綾歌町岡田東６９番地２,,37,202,7612404,,,,,,,2025-05-08,1,,,,,キトルス,0
945,3500001026288,新規,0,2025-05-08,2025-05-08,株式会社ＧＲＷＩＮ,,株式会社,愛媛県,伊予郡砥部町,重光８９番地１,,38,402,7912112,,,,,,,2025-05-08,1,,,,,ジーアールウィン,0
949,3700150125102,新規,0,2025-05-08,2025-05-08,長崎開港記念会,,その他,長崎県,長崎市,桜町４番１号（長崎商工会議所内）,,42,201,8500031,,,,,,,2025-05-08,1,,,,,ナガサキカイコウキネンカイ,0
950,3700150130317,新規,0,2025-05-08,2025-05-08,ＡＹＡＡＤＨ　ＥＮＴＥＲＰＲＩＳＥＳ,,外国会社等,千葉県,山武市,大木６８９－８６ハッピーハイツＣ,,12,237,2891211,スリランカ民主社会主義共和国テルデニヤ・ガランバラマ・ワッタ２６番地,,,,,,2025-05-08,1,,,,,アヤードウエンタープライセス,0
951,3700150130325,新規,0,2025-05-08,2025-05-08,Ａｎｈｕｉ　Ｚｈｏｎｇｘｕ　Ｏｕｔｄｏｏｒ　Ｐｒｏｄｕｃｔｓ　Ｃｏ．，Ｌｔｄ,,外国会社等,,,,,,,,ａｎｈｕｉｓｈｅｎｇｌｉｕａｎｓｈｉｈｕｏｑｉｕｘｉａｎｃａｏｍｉａｏｚｈｅｎｗｕｙａｎｇｃｕｎ,,,,,,2025-05-08,1,,,,,アンホイジョンシュイアウトドアプロダクツカンパニーリミテッド,0
959,4010001254697,新規,0,2025-05-08,2025-05-08,株式会社Ｉｔ’ｓ　ＯＫ,,株式会社,東京都,中央区,晴海５丁目３番４－７３３号,,13,102,1040053,,,,,,,2025-05-08,1,,,,,イッツオーケー,0
960,4010001254714,新規,0,2025-05-08,2025-05-08,ＭＡＲＩＮＥＳＳ　ＣＬＵＢ株式会社,,株式会社,東京都,千代田区,六番町７－５０,,13,101,1020085,,,,,,,2025-05-08,1,,,,,マリネスクラブ,0
961,4010001254805,新規,0,2025-05-08,2025-05-08,Ｎｅｗｏｏｄ株式会社,,株式会社,東京都,千代田区,四番町９番地１０パークコート四番町１１０３号,,13,101,1020081,,,,,,,2025-05-08,1,,,,,ニューウッド,0
964,4010003047265,新規,0,2025-05-08,2025-05-08,ＴＳＵＫＵＮＥ　ＩＴ　Ｃｏｎｓｕｌｔｉｎｇ合同会社,,合同会社,東京都,中央区,銀座１丁目１２番４号Ｎ＆ＥＢＬＤ．６Ｆ,,13,102,1040061,,,,,,,2025-05-08,1,,,,,ツクネアイティーコンサルティング,0
965,4010003047281,新規,0,2025-05-08,2025-05-08,合同会社ＰＪＧ２,,合同会社,東京都,千代田区,内神田１丁目３番７号４０１あすな会計事務所内,,13,101,1010047,,,,,,,2025-05-08,1,,,,,ピージェイジーツー,0
971,4010401190006,新規,0,2025-05-08,2025-05-08,エコンテ株式会社,,株式会社,東京都,港区,赤坂３丁目１９番１号,,13,103,1070052,,,,,,,2025-05-08,1,,,,,エコンテ,0
972,4010401190047,新規,0,2025-05-08,2025-05-08,株式会社ＡＩ　ａｍ,,株式会社,東京都,港区,新橋４丁目１４番１新橋ＡＵＮＢＬＤＧ４階,,13,103,1050004,,,,,,,2025-05-08,1,,,,,アイアム,0
973,4010401190096,新規,0,2025-05-08,2025-05-08,パーソナルドクター株式会社,,株式会社,東京都,港区,西麻布３丁目１７－２２モダンフォルム西麻布２Ｆ,,13,103,1060031,,,,,,,2025-05-08,1,,,,,パーソナルドクター,0
974,4010401190187,新規,0,2025-05-08,2025-05-08,株式会社Ｍｏｏｎｒａｃｅｒ,,株式会社,東京都,港区,六本木６丁目１２番４－９０４号,,13,103,1060032,,,,,,,2025-05-08,1,,,,,ムーンレーサー,0
975,4010401190212,新規,0,2025-05-08,2025-05-08,株式会社産業メンタルバランス,,株式会社,東京都,港区,赤坂１丁目１２番３２号アーク森ビル,,13,103,1070052,,,,,,,2025-05-08,1,,,,,サンギョウメンタルバランス,0
976,4010403034846,新規,0,2025-05-08,2025-05-08,ＶＥＬＴＩＳ合同会社,,合同会社,東京都,港区,北青山１丁目３番１号アールキューブ青山３階,,13,103,1070061,,,,,,,2025-05-08,1,,,,,ヴェルティス,0
977,4010405024366,新規,0,2025-05-08,2025-05-08,Ｓｕｐｅｒｉｏｒ一般社団法人,,その他の設立登記法人,東京都,港区,西新橋１丁目１番１号ＥＰコンサルティングサービス内,,13,103,1050003,,,,,,,2025-05-08,1,,,,,スペリオル,0
990,4010803005380,新規,0,2025-05-08,2025-05-08,合同会社ジダイ,,合同会社,東京都,大田区,羽田旭町１３番２号２０２号室,,13,111,1440042,,,,,,,2025-05-08,1,,,,,ジダイ,0
993,4010901057274,新規,0,2025-05-08,2025-05-08,ＦＵＬＬＥＸ株式会社,,株式会社,東京都,世田谷区,宇奈根３丁目１３番２５号Ｄ－４,,13,112,1570068,,,,,,,2025-05-08,1,,,,,フレックス,0
994,4010901057299,新規,0,2025-05-08,2025-05-08,Ｍ＆Ｍ暮らしラボ株式会社,,株式会社,東京都,世田谷区,野沢３丁目１２番１５号,,13,112,1540003,,,,,,,2025-05-08,1,,,,,エムアンドエムクラシラボ,0
995,4010901057308,新規,0,2025-05-08,2025-05-08,株式会社ＷＥ‐ＲＩＣＨ,,株式会社,東京都,世田谷区,玉川台１丁目１４番１２－１０３号,,13,112,1580096,,,,,,,2025-05-08,1,,,,,ウイリッチ,0
1000,4011001169662,新規,0,2025-05-08,2025-05-08,株式会社ｗｏｒｄｒａｗ,,株式会社,東京都,渋谷区,東３丁目２５番１０号Ｔ＆Ｔビル８Ｆ,,13,113,1500011,,,,,,,2025-05-08,1,,,,,ワードロウ,0
1003,4011101111581,新規,0,2025-05-08,2025-05-08,ＫＵＲＯＢＯ株式会社,,株式会社,東京都,新宿区,原町２丁目５番地ＫＥＮ２１ビル８階,,13,104,1620053,,,,,,,2025-05-08,1,,,,,クロボ,0
1004,4011101111648,新規,0,2025-05-08,2025-05-08,ＦＮＤ株式会社,,株式会社,東京都,新宿区,戸山２丁目３０番１００５号,,13,104,1620052,,,,,,,2025-05-08,1,,,,,エフエヌディ,0
1007,4011301030557,新規,0,2025-05-08,2025-05-08,大田株式会社,,株式会社,東京都,杉並区,高円寺南５丁目２１番３号,,13,115,1660003,,,,,,,2025-05-08,1,,,,,,0
1009,4011701028300,新規,0,2025-05-08,2025-05-08,株式会社ＡＲＴｉＦＡＣＴ,,株式会社,東京都,江戸川区,西小岩５丁目１１番２４－１２０３号,,13,123,1330057,,,,,,,2025-05-08,1,,,,,アーティファクト,0
1013,4011801046086,新規,0,2025-05-08,2025-05-08,株式会社ＧＢＴ,,株式会社,東京都,葛飾区,東立石３丁目２２番５号３０１号室,,13,122,1240013,,,,,,,2025-05-08,1,,,,,ジービーティー,0
1021,4012701018844,新規,0,2025-05-08,2025-05-08,株式会社名古屋,,株式会社,東京都,西東京市,保谷町５丁目１４番３号,,13,229,2020015,,,,,,,2025-05-08,1,,,,,ナゴヤ,0
1022,4012803003728,新規,0,2025-05-08,2025-05-08,優莉Ｂ．Ｃ合同会社,,合同会社,東京都,立川市,一番町４丁目５９番地の１セザール立川一番町５０４号,,13,202,1900033,,,,,,,2025-05-08,1,,,,,ユウリビーシー,0
1024,4013301054189,新規,0,2025-05-08,2025-05-08,株式会社千夏,,株式会社,東京都,豊島区,東池袋２丁目６０番２１号フラッツ池袋６０４号,,13,116,1700013,,,,,,,2025-05-08,1,,,,,チナツ,0
1025,4013301054214,新規,0,2025-05-08,2025-05-08,株式会社ＫＣＣ,,株式会社,東京都,豊島区,池袋本町１丁目４５番１３号,,13,116,1700011,,,,,,,2025-05-08,1,,,,,ケイシーシー,0
1033,4020001162503,新規,0,2025-05-08,2025-05-08,奇躍雲図株式会社,,株式会社,神奈川県,川崎市中原区,小杉町１丁目５４７―２０５号室,,14,133,2110063,,,,,,,2025-05-08,1,,,,,キヤクウンズ,0
1034,4020001162552,新規,0,2025-05-08,2025-05-08,株式会社Ｉｖｙ,,株式会社,神奈川県,川崎市多摩区,寺尾台１丁目１０番地１２,,14,135,2140005,,,,,,,2025-05-08,1,,,,,アイビー,0
1035,4020001162619,新規,0,2025-05-08,2025-05-08,株式会社たのしや,,株式会社,神奈川県,横浜市南区,南太田１丁目３０番４－４０６号,,14,105,2320006,,,,,,,2025-05-08,1,,,,,タノシヤ,0
1036,4020001162726,新規,0,2025-05-08,2025-05-08,Ｖａｒｅｘ株式会社,,株式会社,神奈川県,横浜市青葉区,大場町３９５番地６５,,14,117,2250023,,,,,,,2025-05-08,1,,,,,バレックス,0
1037,4020001162759,新規,0,2025-05-08,2025-05-08,株式会社クシダ,,株式会社,神奈川県,川崎市中原区,小杉町１丁目４０３番地１１セイル武蔵小杉イースト６０１,,14,133,2110063,,,,,,,2025-05-08,1,,,,,クシダ,0
1038,4020001162767,新規,0,2025-05-08,2025-05-08,株式会社羅針盤,,株式会社,神奈川県,川崎市中原区,小杉町２丁目２９１番地１６－２０１号,,14,133,2110063,,,,,,,2025-05-08,1,,,,,ラシンバン,0
1043,4021001085140,新規,0,2025-05-08,2025-05-08,十色建築株式会社,,株式会社,神奈川県,平塚市,四之宮５丁目２７番１９号大洋平塚レジデンス１０１号室,,14,203,2540014,,,,,,,2025-05-08,1,,,,,トイロケンチク,0
1044,4021001085157,新規,0,2025-05-08,2025-05-08,ＮＡＬＵ株式会社,,株式会社,神奈川県,相模原市南区,麻溝台７丁目２４番５２号,,14,153,2520328,,,,,,,2025-05-08,1,,,,,ナル,0
1045,4021003015938,新規,0,2025-05-08,2025-05-08,合同会社ＴＯＵＴＡＫＵ,,合同会社,神奈川県,相模原市中央区,淵野辺３丁目１６番５号,,14,152,2520206,,,,,,,2025-05-08,1,,,,,トウタク,0
1052,4030001166362,新規,0,2025-05-08,2025-05-08,株式会社ｃｏｍｐｌｅｔｅ　ＳＲＳ,,株式会社,埼玉県,新座市,野火止６丁目１４番１６号パストラル１０１号室,,11,230,3520011,,,,,,,2025-05-08,1,,,,,コンプレートエスアールエス,0
1053,4030001166370,新規,0,2025-05-08,2025-05-08,株式会社祐,,株式会社,埼玉県,和光市,丸山台１丁目１１－５ダイカン２５ジェミニ６０６,,11,229,3510112,,,,,,,2025-05-08,1,,,,,ユウ,0
1054,4030001166387,新規,0,2025-05-08,2025-05-08,株式会社騎西エンジニア工業,,株式会社,埼玉県,加須市,牛重７０３番地,,11,210,3470103,,,,,,,2025-05-08,1,,,,,キサイエンジニアコウギョウ,0
1055,4030001166395,新規,0,2025-05-08,2025-05-08,株式会社ＢｉｚＳａａＳ,,株式会社,埼玉県,さいたま市中央区,新都心１１番地２,,11,105,3300081,,,,,,,2025-05-08,1,,,,,ビズサース,0
1061,4050005013625,新規,0,2025-05-08,2025-05-08,一般社団法人Ｍｅｔａ　Ｅｄｕｃａｔｉｏｎｓ,,その他の設立登記法人,茨城県,常総市,花島町２７７－１,,08,211,3002511,,,,,,,2025-05-08,1,,,,,メタエデュケーションズ,0
1062,4060001038154,新規,0,2025-05-08,2025-05-08,株式会社岡田架設,,株式会社,栃木県,小山市,大字間々田１６０７番地１シャーメゾン八幡Ｃ１０２号室,,09,208,3290205,,,,,,,2025-05-08,1,,,,,オカダカセツ,0
1066,4070001042915,新規,0,2025-05-08,2025-05-08,株式会社Ｔｉｍｅｌｙ,,株式会社,群馬県,高崎市,小八木町８１３番地１,,10,202,3700071,,,,,,,2025-05-08,1,,,,,タイムリー,0
1068,4080401027886,新規,0,2025-05-08,2025-05-08,株式会社ダイヤ,,株式会社,静岡県,浜松市中央区,天神町２１番１０号,,22,138,4300808,,,,,,,2025-05-08,1,,,,,ダイヤ,0
1069,4080401027903,新規,0,2025-05-08,2025-05-08,株式会社ＢＵＩＬＤ　ＣＯＮＮＥＣＴ,,株式会社,静岡県,浜松市中央区,入野町８８１５番地の１,,22,138,4328061,,,,,,,2025-05-08,1,,,,,ビルコネクト,0
1074,4100001038570,新規,0,2025-05-08,2025-05-08,エイチ・ティー・エー株式会社,,株式会社,長野県,下伊那郡高森町,山吹５１９７番地２,,20,403,3993101,,,,,,,2025-05-08,1,,,,,エイチティーエー,0
1076,4100003008134,新規,0,2025-05-08,2025-05-08,合同会社鎌倉,,合同会社,長野県,長野市,若里４丁目７番１３号,,20,201,3800928,,,,,,,2025-05-08,1,,,,,カマクラ,0
1077,4100003008142,新規,0,2025-05-08,2025-05-08,合同会社彩希グループ,,合同会社,長野県,小諸市,大字山浦２８４４番地１,,20,208,3840807,,,,,,,2025-05-08,1,,,,,サイキグループ,0
1079,4100005013347,新規,0,2025-05-08,2025-05-08,たかみさわ司法書士法人,,その他の設立登記法人,長野県,佐久市,野沢２２７番地１０,,20,217,3850053,,,,,,,2025-05-08,1,,,,,タカミサワ,0
1091,4120001275162,新規,0,2025-05-08,2025-05-08,株式会社マエノメリ,,株式会社,大阪府,大阪市東成区,東中本３丁目２２番１９号プロムナード春１０６号,,27,115,5370021,,,,,,,2025-05-08,1,,,,,マエノメリ,0
1092,4120001275179,新規,0,2025-05-08,2025-05-08,株式会社オープンサポート,,株式会社,大阪府,大阪市西区,京町堀３丁目４番２０－６０３号,,27,106,5500003,,,,,,,2025-05-08,1,,,,,オープンサポート,0
1093,4120001275220,新規,0,2025-05-08,2025-05-08,株式会社オフィスイシイ,,株式会社,大阪府,大阪市北区,中之島３丁目６番３２号ダイビル本館５階,,27,127,5300005,,,,,,,2025-05-08,1,,,,,オフィスイシイ,0
1094,4120001275261,新規,0,2025-05-08,2025-05-08,林溪株式会社,,株式会社,大阪府,大阪市淀川区,三津屋南２丁目１２番２１－４０２号,,27,123,5320035,,,,,,,2025-05-08,1,,,,,リンケイ,0
1095,4120001275352,新規,0,2025-05-08,2025-05-08,株式会社創真,,株式会社,大阪府,大阪市西成区,岸里東１丁目７番４号グレイス聖天坂３０３号,,27,122,5570042,,,,,,,2025-05-08,1,,,,,ソウシン,0
1096,4120001275609,新規,0,2025-05-08,2025-05-08,株式会社クリア,,株式会社,大阪府,大阪市平野区,長吉長原西２丁目１番２３号,,27,126,5470015,,,,,,,2025-05-08,1,,,,,クリア,0
1097,4120001275633,新規,0,2025-05-08,2025-05-08,株式会社Ｙｅｄｕｒａ,,株式会社,大阪府,大阪市北区,兎我野町１０番６－３０８号,,27,127,5300056,,,,,,,2025-05-08,1,,,,,イェドゥラ,0
1101,4120101071602,新規,0,2025-05-08,2025-05-08,株式会社ＴＫ,,株式会社,大阪府,泉大津市,池浦町５丁目１５番３９号,,27,206,5950024,,,,,,,2025-05-08,1,,,,,ティーケー,0
1102,4120101071610,新規,0,2025-05-08,2025-05-08,株式会社谷阪工業,,株式会社,大阪府,阪南市,箱作２８７５番地の１１９,,27,232,5990232,,,,,,,2025-05-08,1,,,,,タニサカコウギョウ,0
1103,4120101071619,新規,0,2025-05-08,2025-05-08,株式会社ＦａｒｍＲｏａｄ,,株式会社,大阪府,堺市北区,新金岡町３丁２番８－１０７号,,27,146,5918021,,,,,,,2025-05-08,1,,,,,ファームロード,0
1104,4120101071627,新規,0,2025-05-08,2025-05-08,株式会社ＴＹ２,,株式会社,大阪府,岸和田市,額原町３０１番地の３,,27,202,5960822,,,,,,,2025-05-08,1,,,,,ティーワイズ,0
1105,4120103006440,新規,0,2025-05-08,2025-05-08,合同会社ＵＣＨＵ,,合同会社,大阪府,羽曳野市,学園前１丁目１番１８号,,27,222,5830868,,,,,,,2025-05-08,1,,,,,ウチュウ,0
1106,4120103006449,新規,0,2025-05-08,2025-05-08,合同会社Ａ２Ｂ　Ｌａｂ,,合同会社,大阪府,堺市中区,土師町４丁５番１―２０１号,,27,142,5998238,,,,,,,2025-05-08,1,,,,,エーツービーラボ,0
1112,4120901050796,新規,0,2025-05-08,2025-05-08,グランシャリオ株式会社,,株式会社,大阪府,吹田市,藤白台４丁目２０－５,,27,205,5650873,,,,,,,2025-05-08,1,,,,,グランシャリオ,0
1113,4120901050805,新規,0,2025-05-08,2025-05-08,株式会社エクイア,,株式会社,大阪府,吹田市,千里山西６丁目３０－２５,,27,205,5650851,,,,,,,2025-05-08,1,,,,,エクイア,0
1117,4122001039175,新規,0,2025-05-08,2025-05-08,村庄故事株式会社,,株式会社,大阪府,八尾市,大竹７丁目１６９番地２０８号室,,27,212,5810854,,,,,,,2025-05-08,1,,,,,ヴィリッジストーリー,0
1118,4130001079579,新規,0,2025-05-08,2025-05-08,株式会社樹里,,株式会社,京都府,京都市伏見区,深草綿森町１４－１２－１０２,,26,109,6120022,,,,,,,2025-05-08,1,,,,,ジュリ,0
1119,4130001079620,新規,0,2025-05-08,2025-05-08,緋乃株式会社,,株式会社,京都府,京都市下京区,朱雀宝蔵町４４番地協栄ビル２階京都朱雀スタジオ,,26,106,6008846,,,,,,,2025-05-08,1,,,,,ヒノ,0
1120,4130001079637,新規,0,2025-05-08,2025-05-08,株式会社コトスピ,,株式会社,京都府,京都市北区,北野下白梅町４６プチラトゥール１階,,26,101,6038326,,,,,,,2025-05-08,1,,,,,コトスピ,0
1126,4140001138409,新規,0,2025-05-08,2025-05-08,株式会社三英鋼機,,株式会社,兵庫県,姫路市,広畑区蒲田５丁目７６番地,,28,201,6711102,,,,,,,2025-05-08,1,,,,,サンエイコウキ,0
1130,4150003003601,新規,0,2025-05-08,2025-05-08,合同会社ＣＲＯＷＮ　ＭＯＴＯＲ’Ｓ,,合同会社,奈良県,大和高田市,蔵之宮１０－２,,29,202,6350000,,,,,,,2025-05-08,1,,,,,クラウンモーターズ,0
1132,4160001026719,新規,0,2025-05-08,2025-05-08,株式会社Ｓｉｇｎ　Ｗｈｉｚ,,株式会社,滋賀県,大津市,平津１丁目２９番２１号,,25,201,5200862,,,,,,,2025-05-08,1,,,,,サインウィズ,0
1133,4160001026727,新規,0,2025-05-08,2025-05-08,Ａ＆Ｂ株式会社,,株式会社,滋賀県,野洲市,小篠原２１２０番地２４シャリエ野洲アクアガーデン７０３号,,25,210,5202331,,,,,,,2025-05-08,1,,,,,エーアンドビー,0
1134,4160003003468,新規,0,2025-05-08,2025-05-08,はやぶさ経営サポート合同会社,,合同会社,滋賀県,守山市,吉身５丁目１番１－５号,,25,207,5240021,,,,,,,2025-05-08,1,,,,,ハヤブサケイエイサポート,0
1143,4180001166678,新規,0,2025-05-08,2025-05-08,株式会社永建,,株式会社,愛知県,名古屋市南区,上浜町３８７番地,,23,112,4570067,,,,,,,2025-05-08,1,,,,,エイケン,0
1144,4180001166694,新規,0,2025-05-08,2025-05-08,株式会社日企設計,,株式会社,愛知県,名古屋市中区,丸の内３丁目１７番４号,,23,106,4600002,,,,,,,2025-05-08,1,,,,,ニッキセッケイ,0
1145,4180001166728,新規,0,2025-05-08,2025-05-08,株式会社Ｘｅｎｏｚ,,株式会社,愛知県,一宮市,奥町字宮前７２番地１,,23,203,4910201,,,,,,,2025-05-08,1,,,,,ゼノス,0
1149,4180301039773,新規,0,2025-05-08,2025-05-08,株式会社ｃｏｔｎａｓ．,,株式会社,愛知県,西尾市,緑町５丁目３５番地Ｇスクエア１Ｆ,,23,213,4450804,,,,,,,2025-05-08,1,,,,,コトナス,0
1155,4190001032193,新規,0,2025-05-08,2025-05-08,株式会社ネクシア,,株式会社,三重県,鈴鹿市,末広南３丁目８番３１号ＰＬＡＮＤＯ－Ｉ１１３,00139043,24,207,5130853,,,,,,,2025-05-08,1,,,,,ネクシア,0
1158,4200001043734,新規,0,2025-05-08,2025-05-08,安江商事株式会社,,株式会社,岐阜県,中津川市,福岡１３５６－２,,21,206,5080203,,,,,,,2025-05-08,1,,,,,ヤスエショウジ,0
1159,4200001043750,新規,0,2025-05-08,2025-05-08,サンマックスレーザー株式会社,,株式会社,岐阜県,岐阜市,中川原４丁目４７番,,21,201,5020013,,,,,,,2025-05-08,1,,,,,サンマックスレーザー,0
1160,4210003001912,新規,0,2025-05-08,2025-05-08,ＧＯＬＤ　ＵＮＩＴＥＤ合同会社,,合同会社,福井県,福井市,篠尾町９６－２－１７,,18,201,9102148,,,,,,,2025-05-08,1,,,,,ゴールドユナイテッド,0
1168,4240001064883,新規,0,2025-05-08,2025-05-08,株式会社わんぱく広場,,株式会社,広島県,福山市,光南町２丁目５番２３号,,34,207,7200814,,,,,,,2025-05-08,1,,,,,ワンパクヒロバ,0
1169,4240001064909,新規,0,2025-05-08,2025-05-08,アイデザインホールディングス株式会社,,株式会社,広島県,広島市西区,己斐本町３丁目１３番２１号,,34,104,7330812,,,,,,,2025-05-08,1,,,,,アイデザインホールディングス,0
1170,4240001064917,新規,0,2025-05-08,2025-05-08,三藤株式会社,,株式会社,広島県,福山市,柳津町４丁目４番６号,,34,207,7290114,,,,,,,2025-05-08,1,,,,,ミトウ,0
1180,4270001009200,新規,0,2025-05-08,2025-05-08,株式会社Ｂｌｏｏｍｉｎ,,株式会社,鳥取県,境港市,夕日ヶ丘２丁目３４番２号Ｃ棟２０１号,,31,204,6840076,,,,,,,2025-05-08,1,,,,,ブルーミン,0
1188,4290001109898,新規,0,2025-05-08,2025-05-08,株式会社ｓｔａｒ　ｆｉｅｌｄ,,株式会社,福岡県,福岡市東区,原田４丁目３１番１６号,,40,131,8120063,,,,,,,2025-05-08,1,,,,,スターフィールド,0
1189,4290001109907,新規,0,2025-05-08,2025-05-08,株式会社ｌｉｖａｒｅｉｔ,,株式会社,福岡県,福岡市博多区,博多駅前１丁目２３番２号ＰａｒｋＦｒｏｎｔ博多駅前一丁目５Ｆ－Ｂ,,40,132,8120011,,,,,,,2025-05-08,1,,,,,リバリート,0
1190,4290003016779,新規,0,2025-05-08,2025-05-08,合同会社キクフジ,,合同会社,福岡県,福岡市博多区,麦野６丁目９－１１,,40,132,8120882,,,,,,,2025-05-08,1,,,,,キクフジ,0
1192,4290005019739,新規,0,2025-05-08,2025-05-08,医療法人ふくろうの樹,,その他の設立登記法人,福岡県,福岡市早良区,荒江２丁目６番３７第２渡辺ビル１階,,40,137,8140021,,,,,,,2025-05-08,1,,,,,フクロウノキ,0
1196,4290801031517,新規,0,2025-05-08,2025-05-08,株式会社大栄,,株式会社,福岡県,遠賀郡水巻町,猪熊４丁目７番１号ロイヤルコート紬Ａ－２０５号,,40,382,8070001,,,,,,,2025-05-08,1,,,,,ダイエイ,0
1198,4310001019590,新規,0,2025-05-08,2025-05-08,株式会社壱岐美食企画,,株式会社,長崎県,壱岐市,郷ノ浦町郷ノ浦４０５番地１２,,42,210,8115135,,,,,,,2025-05-08,1,,,,,イキビショクキカク,0
1200,4330001033177,新規,0,2025-05-08,2025-05-08,株式会社Ｌ　ｎａｔｕｒｅ,,株式会社,熊本県,熊本市中央区,上通町７番２号いづみビル３階Ａ号,,43,101,8600845,,,,,,,2025-05-08,1,,,,,エルナチュール,0
1201,4330003011008,新規,0,2025-05-08,2025-05-08,合同会社草の葉企画,,合同会社,熊本県,熊本市中央区,草葉町１番２５－８０７号,,43,101,8600843,,,,,,,2025-05-08,1,,,,,クサノハキカク,0
1203,4340005009858,新規,0,2025-05-08,2025-05-08,一般社団法人ＨＡＲＥＬＵＹＡ輝石,,その他の設立登記法人,鹿児島県,鹿屋市,大浦町１４３７３番地２,,46,203,8930067,,,,,,,2025-05-08,1,,,,,ハレルヤキセキ,0
1206,4360001035113,新規,0,2025-05-08,2025-05-08,株式会社Ｍ‐ａＲｉｚｅプロダクション,,株式会社,沖縄県,宮古島市,下地字与那覇７４８番地１,,47,214,9060305,,,,,,,2025-05-08,1,,,,,エムアライズプロダクション,0
1207,4360001035121,新規,0,2025-05-08,2025-05-08,ＵＶシールドポリウレア琉球株式会社,,株式会社,沖縄県,浦添市,安波茶１丁目６番５号１Ｆ,,47,208,9012114,,,,,,,2025-05-08,1,,,,,ユーブイシールドポリウレアリュウキュウ,0
1210,4360005007216,新規,0,2025-05-08,2025-05-08,一般社団法人琉球尚国産業革新協会,,その他の設立登記法人,沖縄県,那覇市,首里金城町２丁目８６番４号,,47,201,9030815,,,,,,,2025-05-08,1,,,,,リュウキュウショウコクサンギョウカクシンキョウカイ,0
1221,4390003002380,新規,0,2025-05-08,2025-05-08,合同会社ＭＡＡＦ,,合同会社,山形県,最上郡真室川町,大字新町１２３,,06,364,9995312,,,,,,,2025-05-08,1,,,,,マアフ,0
1222,4400003003451,新規,0,2025-05-08,2025-05-08,合同会社上小友ファーム,,合同会社,岩手県,二戸郡一戸町,小友字大谷地１９５番地２,,03,524,0285303,,,,,,,2025-05-08,1,,,,,カミオトモファーム,0
1229,4420001019134,新規,0,2025-05-08,2025-05-08,株式会社山喜農産,,株式会社,青森県,つがる市,柏稲盛雲雀野２８番地１,,02,209,0383107,,,,,,,2025-05-08,1,,,,,ヤマキノウサン,0
1230,4420003003111,新規,0,2025-05-08,2025-05-08,合同会社ライフ・ジャパン,,合同会社,青森県,八戸市,八太郎３丁目５番６９号,,02,203,0391168,,,,,,,2025-05-08,1,,,,,ライフジャパン,0
1233,4430001094275,新規,0,2025-05-08,2025-05-08,株式会社Ｄｉａ　Ｔｏｗｅｒ,,株式会社,北海道,札幌市中央区,南九条西９丁目１－２６トネックス６０４号室,,01,101,0640809,,,,,,,2025-05-08,1,,,,,ダイアタワー,0
1234,4430001094300,新規,0,2025-05-08,2025-05-08,ＳｙｎｃＡｃｅ株式会社,,株式会社,北海道,札幌市中央区,南二条西５丁目３１番地１ＲＭＢｌｄ．７０２,,01,101,0600062,,,,,,,2025-05-08,1,,,,,シンクエース,0
1238,4430003017597,新規,0,2025-05-08,2025-05-08,ＲＫプランニング合同会社,,合同会社,北海道,札幌市東区,北六条東５丁目１番地３ＣＲ３０３号室,,01,103,0600906,,,,,,,2025-05-08,1,,,,,アールケイプランニング,0
1239,4430003017606,新規,0,2025-05-08,2025-05-08,合同会社ｏＲｄｅＲ,,合同会社,北海道,小樽市,銭函３丁目２６番地１Ｄ－２,,01,203,0470261,,,,,,,2025-05-08,1,,,,,オーダー,0
1242,4490003002016,新規,0,2025-05-08,2025-05-08,合同会社Ｆｏｓｓｅｔｔａ,,合同会社,高知県,高知市,一宮西町２丁目２－４,,39,201,7818136,,,,,,,2025-05-08,1,,,,,,0
1245,4500003003508,新規,0,2025-05-08,2025-05-08,トータルクリーンサービス大地合同会社,,合同会社,愛媛県,今治市,波方町樋口甲２２００番地２３７,00139065,38,202,7992102,,,,,,,2025-05-08,1,,,,,トータルクリーンサービスダイチ,0
1247,4700150129861,新規,0,2025-05-08,2025-05-08,Ｃｕｒｒｉｅ　＆　Ｂｒｏｗｎ　ＵＫ　Ｌｉｍｉｔｅｄ,,外国会社等,,,,,,,,１５０　Ｈｏｌｂｏｒｎ，Ｌｏｎｄｏｎ，ＥＣ１Ｎ　２ＮＳ,,,,,,2025-05-08,1,,,,,カリーアンドブラウンユーケーリミテツド,0
1248,4700150130324,新規,0,2025-05-08,2025-05-08,ｇｕａｎｇ　ｚｈｏｕ　ａｏ　ｊｉ　ｗｏ　ｓｈａｎｇ　ｍａｏ　ｙｏｕ　ｘｉａｎ　ｇｏｎｇ　ｓｉ,,外国会社等,,,,,,,,Ｓｈｏｐ　１０２，１９　Ｘｉａｎｇｈｅ　Ｒｏａｄ，Ｄａ　ｓｈｉ　Ｓｔｒｅｅｔ，ＰＡＮＹＵ　Ｄｉｓｔｒｉｃｔ，Ｇｕａｎｇｚｈｏｕ，ＣＮ,,,,,,2025-05-08,1,,,,,グゥアンゾウアオジヲシャンマオユウゲンコウシ,0
1252,5010001254688,新規,0,2025-05-08,2025-05-08,株式会社ＢｉｚＦｌｏｗ,,株式会社,東京都,千代田区,神田三崎町３丁目３番４号巴ビル２０１号,,13,101,1010061,,,,,,,2025-05-08,1,,,,,ビズフロウ,0
1253,5010001254795,新規,0,2025-05-08,2025-05-08,株式会社こしらえ,,株式会社,東京都,中央区,日本橋室町１丁目１１番１２号日本橋水野ビル７階,,13,102,1030022,,,,,,,2025-05-08,1,,,,,コシラエ,0
1254,5010001254804,新規,0,2025-05-08,2025-05-08,株式会社Ｉｎｆｌｅｒｓ,,株式会社,東京都,中央区,銀座１丁目１２番４号Ｎ＆Ｅ・ＢＬＤ．６Ｆ,,13,102,1040061,,,,,,,2025-05-08,1,,,,,インフラーズ,0
1255,5010001254812,新規,0,2025-05-08,2025-05-08,株式会社第三楽章,,株式会社,東京都,中央区,銀座６丁目１２番１６号２階,,13,102,1040061,,,,,,,2025-05-08,1,,,,,ダイサンガクショウ,0
1256,5010001254820,新規,0,2025-05-08,2025-05-08,株式会社ライトサインプラス,,株式会社,東京都,文京区,本駒込２丁目２７番１０号本駒込ＳＩビル３階株式会社ＮＴＴクリエイティブ内,,13,105,1130021,,,,,,,2025-05-08,1,,,,,ライトサインプラス,0
1258,5010003047264,新規,0,2025-05-08,2025-05-08,合同会社ＩＮＧスタジオ,,合同会社,東京都,千代田区,大手町１丁目２番１号,,13,101,1000004,,,,,,,2025-05-08,1,,,,,アイエヌジースタジオ,0
1259,5010101016666,新規,0,2025-05-08,2025-05-08,株式会社ＫＳＫ,,株式会社,東京都,八王子市,館町２０２４番地,,13,201,1930944,,,,,,,2025-05-08,1,,,,,ケーエスケー,0
1260,5010101016674,新規,0,2025-05-08,2025-05-08,株式会社ベル,,株式会社,東京都,八王子市,堀之内２５６番地２６９東山５３－１０,,13,201,1920355,,,,,,,2025-05-08,1,,,,,ベル,0
1273,5010401189690,新規,0,2025-05-08,2025-05-08,ナイアンティックスペーシャル株式会社,,株式会社,東京都,港区,北青山１丁目２番３号青山ビルヂング５階,,13,103,1070061,,,,,,,2025-05-08,1,,,,,ナイアンティックスペーシャル,0
1274,5010401189897,新規,0,2025-05-08,2025-05-08,嘉兆１１株式会社,,株式会社,東京都,港区,赤坂３丁目１１番１３号ＣＯＮＴＩＮＥＮＴＡＬＡＫＡＳＡＫＡＩＩＩ５Ｆ,00139055,13,103,1070052,,,,,,,2025-05-08,1,,,,,カチョウジュウイチ,0
1275,5010401190013,新規,0,2025-05-08,2025-05-08,株式会社ＮＥＸＴＳＴＡＧＥ,,株式会社,東京都,港区,浜松町１丁目１９－９ジャムメディアビル２Ｆ,,13,103,1050013,,,,,,,2025-05-08,1,,,,,ネクストステージ,0
1276,5010401190046,新規,0,2025-05-08,2025-05-08,株式会社Ａｓｍａｎｙ,,株式会社,東京都,港区,高輪１丁目２０－２,,13,103,1080074,,,,,,,2025-05-08,1,,,,,アスメニー,0
1277,5010401190087,新規,0,2025-05-08,2025-05-08,株式会社ＰＡＵＬ,,株式会社,東京都,港区,六本木４丁目３番１１号六本木ユニハウス２２３,,13,103,1060032,,,,,,,2025-05-08,1,,,,,ポール,0
1278,5010401190095,新規,0,2025-05-08,2025-05-08,ＯＲ．株式会社,,株式会社,東京都,港区,北青山１丁目３番１号アールキューブ青山３階,,13,103,1070061,,,,,,,2025-05-08,1,,,,,オーアールドット,0
1279,5010401190153,新規,0,2025-05-08,2025-05-08,未来食農ソリューションズ株式会社,,株式会社,東京都,港区,虎ノ門３丁目１８番１９号,,13,103,1050001,,,,,,,2025-05-08,1,,,,,ミライショクノウソリューションズ,0
1280,5010403034993,新規,0,2025-05-08,2025-05-08,合同会社Ａｐｒｉｌｉｓ,,合同会社,東京都,港区,海岸１丁目２－３－２１Ｆ,,13,103,1050022,,,,,,,2025-05-08,1,,,,,アプリリス,0
1281,5010403035001,新規,0,2025-05-08,2025-05-08,Ｂｌａｕｓｅｅ合同会社,,合同会社,東京都,港区,西新橋１丁目１番１号ＥＰコンサルティングサービス内,,13,103,1050003,,,,,,,2025-05-08,1,,,,,ブラウゼー,0
1283,5010405024308,新規,0,2025-05-08,2025-05-08,社会保険労務士法人ＩＭＳ,,その他の設立登記法人,東京都,港区,西新橋２丁目３番１号,,13,103,1050003,,,,,,,2025-05-08,1,,,,,アイエムエス,0
1284,5010405024365,新規,0,2025-05-08,2025-05-08,Ｅｒｉｅ一般社団法人,,その他の設立登記法人,東京都,港区,西新橋１丁目１番１号ＥＰコンサルティングサービス内,,13,103,1050003,,,,,,,2025-05-08,1,,,,,エリー,0
1286,5010503007817,新規,0,2025-05-08,2025-05-08,合同会社ＩＦＫ,,合同会社,東京都,台東区,台東４丁目２－３,,13,106,1100016,,,,,,,2025-05-08,1,,,,,アイエフケー,0
1287,5010503007825,新規,0,2025-05-08,2025-05-08,合同会社ｆｉｌｌｅｔ,,合同会社,東京都,台東区,清川１丁目１番１１号第二丸山ビル２階,,13,106,1110022,,,,,,,2025-05-08,1,,,,,フィレ,0
1297,5010903009900,新規,0,2025-05-08,2025-05-08,合同会社ブルーイングリーン,,合同会社,東京都,世田谷区,上北沢３丁目２５番１１号,,13,112,1560057,,,,,,,2025-05-08,1,,,,,ブルーイングリーン,0
1305,5011001169653,新規,0,2025-05-08,2025-05-08,株式会社Ｆ‐ＤＯＲＡＹＡＫＩ,,株式会社,東京都,渋谷区,神山町１３番１１号ＬａＢｅｒｇｅｒ渋谷神山町２Ｄ,,13,113,1500047,,,,,,,2025-05-08,1,,,,,エフドラヤキ,0
1306,5011003021449,新規,0,2025-05-08,2025-05-08,合同会社ＴＡＥ,,合同会社,東京都,渋谷区,恵比寿南１丁目１６－５－２０２,,13,113,1500022,,,,,,,2025-05-08,1,,,,,ティーエーイー,0
1308,5011005010961,新規,0,2025-05-08,2025-05-08,一般社団法人マンション外部監事協会,,その他の設立登記法人,東京都,渋谷区,千駄ヶ谷３丁目７番２号Ｔ・ＬＸビル２階,,13,113,1510051,,,,,,,2025-05-08,1,,,,,マンションガイブカンジキョウカイ,0
1315,5011401027064,新規,0,2025-05-08,2025-05-08,レクステラ株式会社,,株式会社,東京都,板橋区,小豆沢３丁目３番４号－３０５,,13,119,1740051,,,,,,,2025-05-08,1,,,,,レクステラ,0
1319,5011701028308,新規,0,2025-05-08,2025-05-08,架台ラボ株式会社,,株式会社,東京都,江戸川区,北葛西２丁目２０番１８号エスポワール１０１,,13,123,1340081,,,,,,,2025-05-08,1,,,,,カダイラボ,0
1321,5011703004216,新規,0,2025-05-08,2025-05-08,皓之悦合同会社,,合同会社,東京都,江戸川区,平井５丁目４４番６－３０４号,,13,123,1320035,,,,,,,2025-05-08,1,,,,,コウノエツ,0
1324,5011801046077,新規,0,2025-05-08,2025-05-08,日本栄進交通株式会社,,株式会社,東京都,足立区,宮城１丁目１６－２０,,13,121,1200047,,,,,,,2025-05-08,1,,,,,ニホンエイシンコウツウ,0
1327,5012401043051,新規,0,2025-05-08,2025-05-08,ＤＭスペース株式会社,,株式会社,東京都,調布市,富士見町４丁目１６番地２５,,13,208,1820033,,,,,,,2025-05-08,1,,,,,ディーエムスペース,0
1345,5020001162691,新規,0,2025-05-08,2025-05-08,株式会社Ｓｕｚｕｋｉ　Ｔｏｔａｌ　Ｓｅｒｖｉｃｅ,,株式会社,神奈川県,川崎市川崎区,渡田向町２１番１２号,,14,131,2100841,,,,,,,2025-05-08,1,,,,,スズキトータルサービス,0
1346,5020001162700,新規,0,2025-05-08,2025-05-08,川崎技研株式会社,,株式会社,神奈川県,川崎市幸区,小倉３丁目１０番２５号ｐｒｅｃｉｏｕｓＫ３０１,,14,132,2120054,,,,,,,2025-05-08,1,,,,,カワサキギケン,0
1347,5020001162725,新規,0,2025-05-08,2025-05-08,Ｃｌａｓｓ．ｑ株式会社,,株式会社,神奈川県,横浜市西区,みなとみらい３丁目７番１号オーシャンゲートみなとみらい８階,,14,103,2200012,,,,,,,2025-05-08,1,,,,,クラスドットキュウ,0
1348,5020001162733,新規,0,2025-05-08,2025-05-08,株式会社マコト紙業,,株式会社,神奈川県,横浜市泉区,和泉町６４７９番地１１,,14,116,2450016,,,,,,,2025-05-08,1,,,,,マコトシギョウ,0
1349,5020001162741,新規,0,2025-05-08,2025-05-08,株式会社Ｎｅｘｕｓ,,株式会社,神奈川県,川崎市幸区,東小倉５番３０－２号,,14,132,2120033,,,,,,,2025-05-08,1,,,,,ネクサス,0
1350,5020001162758,新規,0,2025-05-08,2025-05-08,株式会社鈴木工業,,株式会社,神奈川県,川崎市川崎区,大島１丁目２８番１５号グリーンプラザ川崎４１２,,14,131,2100834,,,,,,,2025-05-08,1,,,,,スズキコウギョウ,0
1354,5020003028429,新規,0,2025-05-08,2025-05-08,合同会社Ｆｉｃｕｓ,,合同会社,神奈川県,横浜市神奈川区,片倉２丁目５７番７号ロゼ－ル片倉１０１号,,14,102,2210865,,,,,,,2025-05-08,1,,,,,フィカス,0
1357,5021001085164,新規,0,2025-05-08,2025-05-08,株式会社ｃｏｌｏｒ,,株式会社,神奈川県,相模原市緑区,橋本台３丁目４番２０号１階,,14,151,2520132,,,,,,,2025-05-08,1,,,,,カラー,0
1359,5021003015945,新規,0,2025-05-08,2025-05-08,番場商店合同会社,,合同会社,神奈川県,藤沢市,鵠沼海岸２丁目４－１０,00139049,14,205,2510037,,,,,,,2025-05-08,1,,,,,バンバショウテン,0
1362,5030001166295,新規,0,2025-05-08,2025-05-08,永盛株式会社,,株式会社,埼玉県,川口市,川口２丁目９番１５号,,11,203,3320015,,,,,,,2025-05-08,1,,,,,ナガモリ,0
1363,5030001166345,新規,0,2025-05-08,2025-05-08,株式会社ジーラテック,,株式会社,埼玉県,白岡市,新白岡３丁目８番地１４,,11,246,3490212,,,,,,,2025-05-08,1,,,,,ジーラテック,0
1364,5030001166386,新規,0,2025-05-08,2025-05-08,株式会社ステラ,,株式会社,埼玉県,入間郡越生町,大字大谷３６２番地,,11,327,3500403,,,,,,,2025-05-08,1,,,,,,0
1365,5030001166428,新規,0,2025-05-08,2025-05-08,株式会社いづみナレッジ・サポート,,株式会社,埼玉県,さいたま市岩槻区,本町３丁目２１番２０号,,11,110,3390057,,,,,,,2025-05-08,1,,,,,イヅミナレッジサポート,0
1366,5030001166452,新規,0,2025-05-08,2025-05-08,株式会社燎,,株式会社,埼玉県,熊谷市,筑波２丁目８７番地１,,11,202,3600037,,,,,,,2025-05-08,1,,,,,カガリビ,0
1369,5030003026695,新規,0,2025-05-08,2025-05-08,グーグリーン合同会社,,合同会社,埼玉県,熊谷市,押切２５３７－１,,11,202,3600111,,,,,,,2025-05-08,1,,,,,グーグリーン,0
1370,5030003026704,新規,0,2025-05-08,2025-05-08,合同会社ドリーム,,合同会社,埼玉県,鶴ヶ島市,大字脚折１５９８番地１,,11,241,3502213,,,,,,,2025-05-08,1,,,,,ドリーム,0
1371,5030003026712,新規,0,2025-05-08,2025-05-08,合同会社フレイム,,合同会社,埼玉県,八潮市,大字南川崎３番地１１,,11,234,3400814,,,,,,,2025-05-08,1,,,,,フレイム,0
1372,5030003026720,新規,0,2025-05-08,2025-05-08,合同会社ＲＹ,,合同会社,埼玉県,坂戸市,大字森戸５３９番地の７,,11,239,3500244,,,,,,,2025-05-08,1,,,,,アールワイ,0
1373,5030003026737,新規,0,2025-05-08,2025-05-08,合同会社ＴＡＳコンサルティング,,合同会社,埼玉県,朝霞市,三原２丁目１０番２８号,,11,227,3510025,,,,,,,2025-05-08,1,,,,,タスコンサルティング,0
1393,5080001026924,新規,0,2025-05-08,2025-05-08,Ｙ．Ｋ．Ｔ株式会社,,株式会社,静岡県,静岡市清水区,楠新田３４４番地,,22,103,4240882,,,,,,,2025-05-08,1,,,,,ワイケイティー,0
1394,5080003003450,新規,0,2025-05-08,2025-05-08,合同会社Ｓｔｏｋｅｄ　Ｌｉｆｅ,,合同会社,静岡県,静岡市葵区,昭府２丁目２７番－１号,,22,101,4200871,,,,,,,2025-05-08,1,,,,,ストークライフ,0
1397,5080401027893,新規,0,2025-05-08,2025-05-08,株式会社正漁丸,,株式会社,静岡県,御前崎市,御前崎１４６６番地,,22,223,4371621,,,,,,,2025-05-08,1,,,,,セイギョマル,0
1398,5080401027902,新規,0,2025-05-08,2025-05-08,Ａｂｂｅｙ　Ｒｏａｄ株式会社,,株式会社,静岡県,浜松市中央区,西伊場町８３番１－１０１号一条レジデンス西伊場,,22,138,4328038,,,,,,,2025-05-08,1,,,,,アビーロード,0
1401,5100001038578,新規,0,2025-05-08,2025-05-08,株式会社Ｍｅｒｃｉ,,株式会社,長野県,北佐久郡軽井沢町,軽井沢４番地１１,,20,321,3890103,,,,,,,2025-05-08,1,,,,,メルシー,0
1402,5100003008133,新規,0,2025-05-08,2025-05-08,Ｋ２ＴＲＡＤＩＮＧ合同会社,,合同会社,長野県,上田市,菅平高原１２２３番地３２７０,,20,203,3862204,,,,,,,2025-05-08,1,,,,,ケイツートレーディング,0
1403,5110001039220,新規,0,2025-05-08,2025-05-08,株式会社Ａｎｄ　ｔｈｒｅｅ,,株式会社,新潟県,新潟市中央区,天神１丁目１プラーカ３、２Ｆ、ＨｕｂＳｔａｔｉｏｎＫＥＮＴＯ内,,15,103,9500917,,,,,,,2025-05-08,1,,,,,アンドスリー,0
1412,5120001275054,新規,0,2025-05-08,2025-05-08,彩虹文化伝媒株式会社,,株式会社,大阪府,大阪市東成区,中本３丁目８番２１号プレステイジ緑橋５０３号,,27,115,5370022,,,,,,,2025-05-08,1,,,,,サイコウブンカデンバイ,0
1413,5120001275079,新規,0,2025-05-08,2025-05-08,株式会社ｐａａｍ,,株式会社,大阪府,大阪市中央区,南船場４丁目１０番２１号,,27,128,5420081,,,,,,,2025-05-08,1,,,,,パーム,0
1414,5120001275178,新規,0,2025-05-08,2025-05-08,株式会社Ｓｈｉｎ補聴器,,株式会社,大阪府,大阪市北区,中崎３丁目３番５号なかざきスタット２０２,,27,127,5300016,,,,,,,2025-05-08,1,,,,,シンホチョウキ,0
1415,5120001275203,新規,0,2025-05-08,2025-05-08,株式会社広翔,,株式会社,大阪府,大阪市西淀川区,野里１丁目１９番２８号,,27,113,5550024,,,,,,,2025-05-08,1,,,,,ヒロショウ,0
1416,5120001275401,新規,0,2025-05-08,2025-05-08,株式会社Ｓｐｒｅａｄ,,株式会社,大阪府,大阪市北区,梅田１丁目１番３号大阪駅前第３ビル２５階,,27,127,5300001,,,,,,,2025-05-08,1,,,,,スプレッド,0
1418,5120003029251,新規,0,2025-05-08,2025-05-08,ＭａＲＫ．Ｏ合同会社,,合同会社,大阪府,大阪市中央区,南船場３丁目２番２２号おおきに南船場ビル２０５,,27,128,5420081,,,,,,,2025-05-08,1,,,,,マークオー,0
1419,5120003029359,新規,0,2025-05-08,2025-05-08,合同会社ａｔｓｃａｓｉｇｈ,,合同会社,大阪府,大阪市天王寺区,玉造元町５番３‐１１０４号,,27,109,5430014,,,,,,,2025-05-08,1,,,,,アッツキャシー,0
1420,5120101071618,新規,0,2025-05-08,2025-05-08,株式会社Ｙｓ’Ｍ＆Ｔ,,株式会社,大阪府,泉南郡熊取町,朝代台１－１,,27,361,5900459,,,,,,,2025-05-08,1,,,,,ワイズエムアンドティー,0
1421,5120101071626,新規,0,2025-05-08,2025-05-08,カイセイラッキング株式会社,,株式会社,大阪府,羽曳野市,河原城４６０番地の１９,,27,222,5830867,,,,,,,2025-05-08,1,,,,,カイセイラッキング,0
1423,5120901050804,新規,0,2025-05-08,2025-05-08,グリーン株式会社,,株式会社,大阪府,高槻市,津之江町１丁目１９番３号２０１,,27,207,5690822,,,,,,,2025-05-08,1,,,,,グリーン,0
1424,5120901050820,新規,0,2025-05-08,2025-05-08,株式会社紡ぐ,,株式会社,大阪府,吹田市,豊津町１０番７号７０７号室,,27,205,5640051,,,,,,,2025-05-08,1,,,,,ツムグ,0
1430,5122001039174,新規,0,2025-05-08,2025-05-08,霖瑞株式会社,,株式会社,大阪府,八尾市,大竹７丁目１６９番地２０６号室,,27,212,5810854,,,,,,,2025-05-08,1,,,,,リンズイ,0
1432,5130001079578,新規,0,2025-05-08,2025-05-08,ＫＡ　ｃｏｍｐａｎｙ株式会社,,株式会社,京都府,京都市下京区,玉津島町２９４,,26,106,6008427,,,,,,,2025-05-08,1,,,,,ケーエーカンパニー,0
1433,5130001079603,新規,0,2025-05-08,2025-05-08,ＣｌｏｖｅＲ株式会社,,株式会社,京都府,木津川市,梅美台６丁目４番地１５,,26,214,6190215,,,,,,,2025-05-08,1,,,,,クローバー,0
1434,5130001079636,新規,0,2025-05-08,2025-05-08,京都ルネサンス株式会社,,株式会社,京都府,宇治市,宇治壱番１２０－１宇治共栄ビル２０１,,26,204,6110021,,,,,,,2025-05-08,1,,,,,キョウトルネサンス,0
1440,5140001138440,新規,0,2025-05-08,2025-05-08,株式会社ブレイン,,株式会社,兵庫県,尼崎市,猪名寺２丁目６番１２－７０３号,,28,202,6610981,,,,,,,2025-05-08,1,,,,,ブレイン,0
1441,5140001138449,新規,0,2025-05-08,2025-05-08,株式会社ＥＳＬテック,,株式会社,兵庫県,神戸市中央区,磯上通８丁目１番１９号,,28,110,6510086,,,,,,,2025-05-08,1,,,,,イーエスエルテック,0
1442,5140001138465,新規,0,2025-05-08,2025-05-08,株式会社エスポワール,,株式会社,兵庫県,小野市,曽根町２５８番地の１,,28,218,6751302,,,,,,,2025-05-08,1,,,,,エスポワール,0
1446,5150001028087,新規,0,2025-05-08,2025-05-08,ＴＨＮ株式会社,,株式会社,奈良県,奈良市,脇戸町１２番地の２,,29,201,6308337,,,,,,,2025-05-08,1,,,,,ティーエイチエヌ,0
1448,5150003003600,新規,0,2025-05-08,2025-05-08,合同会社Ｔ＆Ｈ,,合同会社,奈良県,桜井市,大字粟殿１０２４－２,,29,206,6330062,,,,,,,2025-05-08,1,,,,,ティーアンドエイチ,0
1449,5160003003467,新規,0,2025-05-08,2025-05-08,合同会社ＭＡＳＨＩＲＯ,,合同会社,滋賀県,湖南市,石部東６丁目１－４,,25,211,5203107,,,,,,,2025-05-08,1,,,,,マシロ,0
1456,5180001166677,新規,0,2025-05-08,2025-05-08,株式会社ＩＳＨＩＫＡＷＡ,,株式会社,愛知県,名古屋市名東区,高間町２１２番地の１ブールヴァールＴＡＫＡＭＡ２０１号,,23,115,4650081,,,,,,,2025-05-08,1,,,,,イシカワ,0
1457,5180001166710,新規,0,2025-05-08,2025-05-08,株式会社ｆｏｏｄ　ｃｕｌｔｕｒｅ,,株式会社,愛知県,名古屋市中区,栄３丁目１０番２１号ワールドフラッグ住吉ビル１Ｆ,,23,106,4600008,,,,,,,2025-05-08,1,,,,,フードカルチャー,0
1458,5180001166727,新規,0,2025-05-08,2025-05-08,アフェック株式会社,,株式会社,愛知県,名古屋市中川区,千音寺３丁目１５０４番地,,23,110,4540977,,,,,,,2025-05-08,1,,,,,アフェック,0
1459,5180001166743,新規,0,2025-05-08,2025-05-08,株式会社心成,,株式会社,愛知県,北名古屋市,石橋郷２７６番地,,23,234,4810046,,,,,,,2025-05-08,1,,,,,シンセイ,0
1466,5180301039772,新規,0,2025-05-08,2025-05-08,アイデアルサポート株式会社,,株式会社,愛知県,豊橋市,旭町字餌指１番地４,,23,201,4400057,,,,,,,2025-05-08,1,,,,,アイデアルサポート,0
1467,5180301039780,新規,0,2025-05-08,2025-05-08,株式会社ポリムス,,株式会社,愛知県,岡崎市,井田町字１丁目２６４番地１,,23,202,4440076,,,,,,,2025-05-08,1,,,,,ポリムス,0
1468,5180301039789,新規,0,2025-05-08,2025-05-08,株式会社ｔｋＬｉｇｈｔ,,株式会社,愛知県,豊川市,御津町泙野新屋敷８２番地２,,23,207,4410313,,,,,,,2025-05-08,1,,,,,ティーケーライト,0
1476,5200001043733,新規,0,2025-05-08,2025-05-08,飛騨上宝わいわいクラブ株式会社,,株式会社,岐阜県,高山市,上宝町本郷２９０７番地,,21,203,5061317,,,,,,,2025-05-08,1,,,,,ヒダカミタカラワイワイクラブ,0
1477,5200001043766,新規,0,2025-05-08,2025-05-08,株式会社専心,,株式会社,岐阜県,岐阜市,六条江東１丁目１番３号,,21,201,5008356,,,,,,,2025-05-08,1,,,,,センシン,0
1479,5200003006812,新規,0,2025-05-08,2025-05-08,合同会社アール,,合同会社,岐阜県,大垣市,室村町１丁目１３１番地２,,21,202,5030026,,,,,,,2025-05-08,1,,,,,アール,0
1484,5230001020894,新規,0,2025-05-08,2025-05-08,株式会社コレクティブ,,株式会社,富山県,富山市,町村６４番地１ナチュラルビレッジ町村２Ａ棟６号室,,16,201,9300952,,,,,,,2025-05-08,1,,,,,コレクティブ,0
1490,5240001064890,新規,0,2025-05-08,2025-05-08,Ｐａｐｅｒ　Ｃｌｕｅ株式会社,,株式会社,広島県,東広島市,西条朝日町７番４５号コワーキングスペースＬａＰｌａｃｅ内,,34,212,7390012,,,,,,,2025-05-08,1,,,,,ペーパークロー,0
1491,5240001064899,新規,0,2025-05-08,2025-05-08,株式会社ＴＡＮＴＯ,,株式会社,広島県,広島市安芸区,矢野西４丁目８番１６号レジデンス矢野西１０２,,34,107,7360085,,,,,,,2025-05-08,1,,,,,タント,0
1492,5240001064916,新規,0,2025-05-08,2025-05-08,オウル電工株式会社,,株式会社,広島県,広島市中区,東白島町１６番１１－１００１号,,34,101,7300004,,,,,,,2025-05-08,1,,,,,オウルデンコウ,0
1494,5240003007195,新規,0,2025-05-08,2025-05-08,合同会社ファーストタッチ,,合同会社,広島県,広島市西区,打越町１７番３０－５０５号,,34,104,7330004,,,,,,,2025-05-08,1,,,,,ファーストタッチ,0
1498,5300001014170,新規,0,2025-05-08,2025-05-08,株式会社ベストパフォーマンス,,株式会社,佐賀県,鳥栖市,鎗田町３３１番地８,,41,203,8410031,,,,,,,2025-05-08,1,,,,,ベストパフォーマンス,0
1499,5300001014187,新規,0,2025-05-08,2025-05-08,Ｈ・Ｔアセット株式会社,,株式会社,佐賀県,唐津市,大名小路３番４号,,41,202,8470012,,,,,,,2025-05-08,1,,,,,エイチティアセット,0
1500,5300003002280,新規,0,2025-05-08,2025-05-08,合同会社れ・りあん,,合同会社,佐賀県,鹿島市,大字常広２４３６番地３,,41,207,8491301,,,,,,,2025-05-08,1,,,,,レリアン,0
1503,5310003005010,新規,0,2025-05-08,2025-05-08,合同会社ＢｅａｕｔｙＮ,,合同会社,長崎県,雲仙市,吾妻町栗林名３８７－５,,42,213,8591112,,,,,,,2025-05-08,1,,,,,ビューティーエヌ,0
1504,5320001021082,新規,0,2025-05-08,2025-05-08,ＥＶＥＲＧＲＥＥＮ株式会社,,株式会社,大分県,別府市,若草町３番４号,,44,202,8740925,,,,,,,2025-05-08,1,,,,,エバーグリーン,0
1505,5320001021090,新規,0,2025-05-08,2025-05-08,株式会社Ｄスタートル,,株式会社,大分県,大分市,王子西町６番８－５０３号テルセーロ王子,,44,201,8700008,,,,,,,2025-05-08,1,,,,,ディースタートル,0
1506,5320003004655,新規,0,2025-05-08,2025-05-08,合同会社ＬｅｃＫｅｒ,,合同会社,大分県,大分市,羽屋３丁目７番６８号,,44,201,8700854,,,,,,,2025-05-08,1,,,,,レッカー,0
1509,5330003010999,新規,0,2025-05-08,2025-05-08,アートハウス・ジャパン合同会社,,合同会社,熊本県,熊本市中央区,呉服町２丁目５番地６（４０２号）,,43,101,8600035,,,,,,,2025-05-08,1,,,,,アートハウスジャパン,0
1511,5350001019520,新規,0,2025-05-08,2025-05-08,高橋工業株式会社,00139067,株式会社,宮崎県,日向市,大字塩見１０９６０番地１,,45,206,8830033,,,,,,,2025-05-08,1,,,,,タカハシコウギョウ,0
1512,5360001035120,新規,0,2025-05-08,2025-05-08,株式会社沖縄ＡＥＤサポートセンター,,株式会社,沖縄県,南城市,佐敷字兼久７３番地,,47,215,9011411,,,,,,,2025-05-08,1,,,,,オキナワエーイーディーサポートセンター,0
1513,5360001035129,新規,0,2025-05-08,2025-05-08,株式会社エムエスケイ沖縄,,株式会社,沖縄県,国頭郡恩納村,字山田１９８７番地２,,47,311,9040416,,,,,,,2025-05-08,1,,,,,エムエスケイオキナワ,0
1514,5360001035137,新規,0,2025-05-08,2025-05-08,株式会社琉Ｓｏ,,株式会社,沖縄県,沖縄市,胡屋４丁目１番１４号１Ｆ,,47,211,9040021,,,,,,,2025-05-08,1,,,,,リュウソー,0
1517,5360005007223,新規,0,2025-05-08,2025-05-08,医療法人緑寿会,,その他の設立登記法人,沖縄県,那覇市,長田２丁目２５番１４号,,47,201,9020077,,,,,,,2025-05-08,1,,,,,リョクジュカイ,0
1522,5370003007083,新規,0,2025-05-08,2025-05-08,合同会社ＰＰＫサービス,,合同会社,宮城県,仙台市太白区,西多賀１丁目１６番４７号,,04,104,9820034,,,,,,,2025-05-08,1,,,,,ピーピーケーサービス,0
1523,5370005010952,新規,0,2025-05-08,2025-05-08,一般社団法人仙台猫団体連絡協議会,,その他の設立登記法人,宮城県,仙台市青葉区,中江１丁目１４番１号,,04,101,9800001,,,,,,,2025-05-08,1,,,,,センダイネコダンタイレンラクキョウギカイ,0
1528,5380003006027,新規,0,2025-05-08,2025-05-08,合同会社本家扇屋,,合同会社,福島県,南会津郡下郷町,大字大内字山本３６番地,,07,362,9695207,,,,,,,2025-05-08,1,,,,,ホンケオウギヤ,0
1531,5400001017031,新規,0,2025-05-08,2025-05-08,株式会社ＭＡＩＫＡＩ,,株式会社,岩手県,宮古市,花輪第８地割１７番地９,,03,202,0270035,,,,,,,2025-05-08,1,,,,,マイカイ,0
1532,5400003003450,新規,0,2025-05-08,2025-05-08,合同会社小友ファーム,,合同会社,岩手県,二戸郡一戸町,小友字山井７１番地１,,03,524,0285303,,,,,,,2025-05-08,1,,,,,オトモファーム,0
1534,5410001014151,新規,0,2025-05-08,2025-05-08,株式会社ＴＳＵＲＴＯＮ,,株式会社,秋田県,秋田市,南通宮田１３番３６号,,05,201,0100014,,,,,,,2025-05-08,1,,,,,ツートン,0
1540,5430001094299,新規,0,2025-05-08,2025-05-08,ＡＳＰＡＲＫ株式会社,,株式会社,北海道,札幌市豊平区,西岡四条５丁目８番１号,,01,105,0620034,,,,,,,2025-05-08,1,,,,,アスパーク,0
1544,5450001014619,新規,0,2025-05-08,2025-05-08,株式会社ＯＳＡＫＡ　ＣＯＭＰＡＮＹ,,株式会社,北海道,苫前郡羽幌町,港町２丁目１６番地の３２,,01,484,0784120,,,,,,,2025-05-08,1,,,,,オオサカカンパニー,0
1546,5460103001712,新規,0,2025-05-08,2025-05-08,合同会社マッシングワークス,,合同会社,北海道,河東郡鹿追町,瓜幕西３１線２５,,01,634,0810341,,,,,,,2025-05-08,1,,,,,マッシングワークス,0
1547,5470003002883,新規,0,2025-05-08,2025-05-08,合同会社彩進設備工業,,合同会社,香川県,高松市,春日町１７３４番地２５,,37,201,7610101,,,,,,,2025-05-08,1,,,,,サイシンセツビコウギョウ,0
1550,5490001011042,新規,0,2025-05-08,2025-05-08,株式会社誠,,株式会社,高知県,高知市,一宮中町１丁目３－５０,,39,201,7818134,,,,,,,2025-05-08,1,,,,,マコト,0
1552,5700150130323,新規,0,2025-05-08,2025-05-08,ＦｕＧｕｉＲｏｎｇＨｕａ　Ｔｒａｄｉｎｇ　Ｃｏｍｐａｎｙ　Ｌｉｍｉｔｅｄ,,外国会社等,,,,,,,,ＵＮＩＴ　６１６，６／Ｆ．，ＫＡＭ　ＴＥＥＭ　ＩＮＤＵＳＴＲＩＡＬ　ＢＵＩＬＤＩＮＧ，１３５　ＣＯＮＮＡＵＧＨＴ　ＲＯＡＤ　ＷＥＳＴ，ＳＡＩ　ＹＩＮＧ　ＰＵＮ，ＨＯＮＧ　ＫＯＮＧ,,,,,,2025-05-08,1,,,,,フゥグイロンファトレーディングカンパニーリミテッド,0
1561,6010001254687,新規,0,2025-05-08,2025-05-08,キーストン株式会社,,株式会社,東京都,中央区,日本橋大伝馬町１５番３号,,13,102,1030011,,,,,,,2025-05-08,1,,,,,キーストン,0
1562,6010001254720,新規,0,2025-05-08,2025-05-08,智会株式会社,,株式会社,東京都,中央区,勝どき６丁目３番２―５４１８号,,13,102,1040054,,,,,,,2025-05-08,1,,,,,トモカイ,0
1563,6010001254761,新規,0,2025-05-08,2025-05-08,株式会社ＴＳＵＫＵＭＯ　ｇｌｏｂａｌ,,株式会社,東京都,中央区,日本橋茅場町１丁目１３番１３号七宝ビルディング４Ｆ,,13,102,1030025,,,,,,,2025-05-08,1,,,,,ツクモグローバル,0
1564,6010001254778,新規,0,2025-05-08,2025-05-08,株式会社ＤｅｖＡＩｚ,,株式会社,東京都,千代田区,神田須田町１丁目７番地８ＶＯＲＴ秋葉原ＩＶ２Ｆ,00139052,13,101,1010041,,,,,,,2025-05-08,1,,,,,デバイズ,0
1565,6010001254803,新規,0,2025-05-08,2025-05-08,株式会社ｋａｈｏｏ,,株式会社,東京都,中央区,佃１丁目１１番６－２３０７号,,13,102,1040051,,,,,,,2025-05-08,1,,,,,カフー,0
1567,6010003047271,新規,0,2025-05-08,2025-05-08,Ｆｒｅｓｈａ．ｃｏｍ　Ｊａｐａｎ合同会社,,合同会社,東京都,中央区,日本橋３丁目９番１号日本橋三丁目スクエア１１階,,13,102,1030027,,,,,,,2025-05-08,1,,,,,フレッシャドットコムジャパン,0
1568,6010003047321,新規,0,2025-05-08,2025-05-08,合同会社ＡＦＣ,,合同会社,東京都,千代田区,丸の内１丁目４番１号東京共同会計事務所内,,13,101,1000005,,,,,,,2025-05-08,1,,,,,エイエフシー,0
1570,6010101016673,新規,0,2025-05-08,2025-05-08,株式会社ＶＯＲＴ,,株式会社,東京都,八王子市,東町１３番１２号ＣＲビルＢ１Ｆ,,13,201,1920082,,,,,,,2025-05-08,1,,,,,ヴォルト,0
1575,6010401190094,新規,0,2025-05-08,2025-05-08,株式会社玖粋,,株式会社,東京都,港区,南青山３丁目１番３６号青山丸竹ビル６Ｆ,,13,103,1070062,,,,,,,2025-05-08,1,,,,,キュウスイ,0
1576,6010401190103,新規,0,2025-05-08,2025-05-08,株式会社ＭＩＬＹ,,株式会社,東京都,港区,南青山６丁目１番３２－６１２号,,13,103,1070062,,,,,,,2025-05-08,1,,,,,ミリー,0
1577,6010403034984,新規,0,2025-05-08,2025-05-08,グリット合同会社,,合同会社,東京都,港区,浜松町２丁目２番１５号浜松町ダイヤビル２Ｆ,,13,103,1050013,,,,,,,2025-05-08,1,,,,,グリット,0
1578,6010403035000,新規,0,2025-05-08,2025-05-08,Ｖａｒｅｓｅ合同会社,,合同会社,東京都,港区,西新橋１丁目１番１号ＥＰコンサルティングサービス内,,13,103,1050003,,,,,,,2025-05-08,1,,,,,ヴァレーゼ,0
1579,6010403035009,新規,0,2025-05-08,2025-05-08,合同会社ＰＲＯｇｒｅｓｓ,,合同会社,東京都,港区,北青山１丁目３－３三橋ビル３階,,13,103,1070061,,,,,,,2025-05-08,1,,,,,プログレス,0
1581,6010405024389,新規,0,2025-05-08,2025-05-08,一般社団法人ＴＳＭ１７１,,その他の設立登記法人,東京都,港区,元赤坂１丁目１番７号,,13,103,1070051,,,,,,,2025-05-08,1,,,,,ティーエスエムヒャクナナジュウイチ,0
1583,6010501054042,新規,0,2025-05-08,2025-05-08,株式会社アクセルカンパニー,,株式会社,東京都,台東区,三筋２丁目１４番１号小市ビル１Ｆ,,13,106,1110055,,,,,,,2025-05-08,1,,,,,アクセルカンパニー,0
1589,6010601067266,新規,0,2025-05-08,2025-05-08,中村通信商事株式会社,,株式会社,東京都,墨田区,墨田１丁目１９番６号,,13,107,1310031,,,,,,,2025-05-08,1,,,,,ナカムラツウシンショウジ,0
1595,6010903009899,新規,0,2025-05-08,2025-05-08,ペアドリーム合同会社,,合同会社,東京都,世田谷区,南烏山３丁目１２番１－Ｔ４１９号,,13,112,1570062,,,,,,,2025-05-08,1,,,,,ペアドリーム,0
1599,6011001169628,新規,0,2025-05-08,2025-05-08,スカイ・イノベーター株式会社,,株式会社,東京都,渋谷区,松濤１丁目８番１６号,,13,113,1500046,,,,,,,2025-05-08,1,,,,,スカイイノベーター,0
1602,6011101111679,新規,0,2025-05-08,2025-05-08,グリティア株式会社,,株式会社,東京都,新宿区,高田馬場４丁目１０番８号ＨＩＫビル２０１,,13,104,1690075,,,,,,,2025-05-08,1,,,,,グリティア,0
1603,6011203004681,新規,0,2025-05-08,2025-05-08,日本キャリア・コンサルティング協会合同会社,,合同会社,東京都,中野区,本町２丁目４９番４号,,13,114,1640012,,,,,,,2025-05-08,1,,,,,ニホンキャリアコンサルティングキョウカイ,0
1604,6011301030571,新規,0,2025-05-08,2025-05-08,永誠株式会社,,株式会社,東京都,杉並区,堀ノ内２丁目１２番１７－４０５号,,13,115,1660013,,,,,,,2025-05-08,1,,,,,エイセイ,0
1607,6011401027071,新規,0,2025-05-08,2025-05-08,株式会社ＭＳ商会,,株式会社,東京都,板橋区,赤塚４丁目２３－２－１０３,,13,119,1750092,,,,,,,2025-05-08,1,,,,,エムエスショウカイ,0
1609,6011701028307,新規,0,2025-05-08,2025-05-08,株式会社あしたのこもれび,,株式会社,東京都,江戸川区,南葛西１丁目１５番６号,,13,123,1340085,,,,,,,2025-05-08,1,,,,,アシタノコモレビ,0
1613,6012301014366,新規,0,2025-05-08,2025-05-08,株式会社Ｃ‐ｃｒｅａｔｉｖｅ,,株式会社,東京都,町田市,原町田４丁目１１番１３号天野ビル４Ｆ,,13,209,1940013,,,,,,,2025-05-08,1,,,,,シークリエイティブ,0
1614,6012303002154,新規,0,2025-05-08,2025-05-08,ＢＬＥＳＳＥＤ　ＨＯＭＥ合同会社,,合同会社,東京都,町田市,大蔵町２９７７番地,,13,209,1950062,,,,,,,2025-05-08,1,,,,,ブレセッドホーム,0
1622,6012803003726,新規,0,2025-05-08,2025-05-08,合同会社クラルス,,合同会社,東京都,日野市,南平１丁目８番地の６,,13,212,1910041,,,,,,,2025-05-08,1,,,,,クラルス,0
1628,6013301054162,新規,0,2025-05-08,2025-05-08,株式会社ｉｋｅｇｏ,,株式会社,東京都,豊島区,池袋４丁目２８－１,,13,116,1710014,,,,,,,2025-05-08,1,,,,,イケゴ,0
1629,6013301054212,新規,0,2025-05-08,2025-05-08,株式会社ＬＩＦＩＸ,,株式会社,東京都,豊島区,東池袋２丁目４４番３号本堂ビル２０１号,,13,116,1700013,,,,,,,2025-05-08,1,,,,,リフィックス,0
1633,6020001162699,新規,0,2025-05-08,2025-05-08,杉田プラント株式会社,,株式会社,神奈川県,横浜市港南区,芹が谷２丁目６番３３－４号,,14,111,2330006,,,,,,,2025-05-08,1,,,,,スギタプラント,0
1634,6020001162724,新規,0,2025-05-08,2025-05-08,株式会社ＢＡＧＵＥ,,株式会社,神奈川県,川崎市多摩区,枡形４丁目４番８－１０５号,,14,135,2140032,,,,,,,2025-05-08,1,,,,,バーグ,0
1638,6020003028403,新規,0,2025-05-08,2025-05-08,欣瑶合同会社,00139060,合同会社,神奈川県,横浜市鶴見区,東寺尾中台２番１０号,,14,101,2300017,,,,,,,2025-05-08,1,,,,,,0
1639,6020003028436,新規,0,2025-05-08,2025-05-08,エンシス合同会社,,合同会社,神奈川県,横浜市港南区,上大岡東２丁目２４番４号,,14,111,2330001,,,,,,,2025-05-08,1,,,,,エンシス,0
1640,6021001085163,新規,0,2025-05-08,2025-05-08,カタチ株式会社,,株式会社,神奈川県,藤沢市,片瀬海岸２丁目１８番１７号ＥＮＯＴＯＫＩ,,14,205,2510035,,,,,,,2025-05-08,1,,,,,カタチ,0
1645,6030001166237,新規,0,2025-05-08,2025-05-08,株式会社Ｙ．Ｇ．Ｔ,,株式会社,埼玉県,草加市,新里町２１２番地１２,,11,221,3400031,,,,,,,2025-05-08,1,,,,,ワイジーティー,0
1646,6030001166344,新規,0,2025-05-08,2025-05-08,株式会社安孫子不動産,,株式会社,埼玉県,朝霞市,宮戸４丁目７番４３号,,11,227,3510031,,,,,,,2025-05-08,1,,,,,アビコフドウサン,0
1647,6030001166369,新規,0,2025-05-08,2025-05-08,株式会社ジールエクステリア,,株式会社,埼玉県,さいたま市緑区,大字三室２８番地９,,11,109,3360911,,,,,,,2025-05-08,1,,,,,ジールエクステリア,0
1648,6030001166385,新規,0,2025-05-08,2025-05-08,マイオランド株式会社,,株式会社,埼玉県,越谷市,北越谷２丁目４２番３号ミルトワ越谷３０１号室,,11,222,3430026,,,,,,,2025-05-08,1,,,,,マイオランド,0
1649,6030001166393,新規,0,2025-05-08,2025-05-08,マザーハウス株式会社,,株式会社,埼玉県,さいたま市南区,南浦和３丁目９番７号,,11,108,3360017,,,,,,,2025-05-08,1,,,,,マザーハウス,0
1650,6030001166410,新規,0,2025-05-08,2025-05-08,株式会社峰建,,株式会社,埼玉県,越谷市,川柳町４丁目３１２番地７,,11,222,3430827,,,,,,,2025-05-08,1,,,,,ホウケン,0
1651,6030001166419,新規,0,2025-05-08,2025-05-08,株式会社エスアンドシー,,株式会社,埼玉県,久喜市,菖蒲町菖蒲６１６番地５,,11,232,3460106,,,,,,,2025-05-08,1,,,,,エスアンドシー,0
1655,6030003026711,新規,0,2025-05-08,2025-05-08,合同会社トアク,,合同会社,埼玉県,川口市,芝塚原１丁目１２番１３号,,11,203,3330856,,,,,,,2025-05-08,1,,,,,トアク,0
1665,6040003027460,新規,0,2025-05-08,2025-05-08,Ｒ．Ｂ　ＥＮＴＥＲＰＲＩＳＥＳ合同会社,,合同会社,千葉県,銚子市,豊里台２丁目１１１０番１８０－Ｂ,,12,202,2880874,,,,,,,2025-05-08,1,,,,,アールビーエンタープライズ,0
1669,6060001038177,新規,0,2025-05-08,2025-05-08,ｃｕｔｔｉｎｇ‐ＨＮＳ株式会社,,株式会社,栃木県,宇都宮市,西刑部町２４８０番地８,,09,201,3210917,,,,,,,2025-05-08,1,,,,,カッティングエイチエヌエス,0
1673,6070001042905,新規,0,2025-05-08,2025-05-08,株式会社アオキ,,株式会社,群馬県,安中市,原市２６５４番地８,,10,211,3790133,,,,,,,2025-05-08,1,,,,,アオキ,0
1679,6080001026915,新規,0,2025-05-08,2025-05-08,株式会社Ｋｏｔｔｉ,,株式会社,静岡県,焼津市,駅北３丁目３番７号,,22,212,4250028,,,,,,,2025-05-08,1,,,,,コッチ,0
1682,6080103003309,新規,0,2025-05-08,2025-05-08,合同会社エスポワール,,合同会社,静岡県,富士市,檜新田３０８－２Ｆ,,22,210,4170844,,,,,,,2025-05-08,1,,,,,エスポワール,0
1683,6080103003317,新規,0,2025-05-08,2025-05-08,合同会社ハンドレッド,,合同会社,静岡県,富士市,今宮４７３番地の１,,22,210,4170802,,,,,,,2025-05-08,1,,,,,ハンドレッド,0
1685,6080401027901,新規,0,2025-05-08,2025-05-08,ＨＩＴ株式会社,,株式会社,静岡県,浜松市浜名区,引佐町井伊谷３７１２番地の２６６,,22,139,4312212,,,,,,,2025-05-08,1,,,,,ヒット,0
1688,6090001019249,新規,0,2025-05-08,2025-05-08,スモールワールドビル管理株式会社,,株式会社,山梨県,甲府市,善光寺１丁目２４番２９号,,19,201,4000806,,,,,,,2025-05-08,1,,,,,スモールワールドビル,0
1690,6100001038585,新規,0,2025-05-08,2025-05-08,株式会社ＳＴＡＲＳ,,株式会社,長野県,千曲市,大字内川１３１１番地１,,20,218,3890802,,,,,,,2025-05-08,1,,,,,スターズ,0
1691,6100005013345,新規,0,2025-05-08,2025-05-08,一般社団法人菅平高原スキークラブ,,その他の設立登記法人,長野県,上田市,菅平高原１２２３番地２９８０,,20,203,3862204,,,,,,,2025-05-08,1,,,,,スガダイラコウゲンスキークラブ,0
1692,6110001039228,新規,0,2025-05-08,2025-05-08,株式会社ＳＯＷＡＫＡ,,株式会社,新潟県,新潟市中央区,出来島１丁目１番２１号,,15,103,9500962,,,,,,,2025-05-08,1,,,,,ソワカ,0
1699,6120001275235,新規,0,2025-05-08,2025-05-08,株式会社Ｒｅｎｄｉｘ,,株式会社,大阪府,大阪市天王寺区,小宮町４番１３－２００３号,,27,109,5430036,,,,,,,2025-05-08,1,,,,,レンディックス,0
1704,6120101071609,新規,0,2025-05-08,2025-05-08,株式会社魁伸,,株式会社,大阪府,堺市堺区,田出井町１番３－１３０９号,,27,141,5900014,,,,,,,2025-05-08,1,,,,,カイシン,0
1705,6120101071617,新規,0,2025-05-08,2025-05-08,株式会社エムズデザイン,,株式会社,大阪府,堺市南区,岩室１６９番地,,27,145,5900112,,,,,,,2025-05-08,1,,,,,エムズデザイン,0
1706,6120103006439,新規,0,2025-05-08,2025-05-08,合同会社ツジモト,,合同会社,大阪府,南河内郡太子町,大字春日１６６８番地,,27,381,5830991,,,,,,,2025-05-08,1,,,,,ツジモト,0
1708,6120901050803,新規,0,2025-05-08,2025-05-08,歩電設株式会社,,株式会社,大阪府,豊中市,庄内栄町２丁目５番１５号,,27,203,5610834,,,,,,,2025-05-08,1,,,,,アユムデンセツ,0
1709,6120901050877,新規,0,2025-05-08,2025-05-08,株式会社ワンダフルプラス,,株式会社,大阪府,吹田市,泉町１丁目２２番４３－１００４号,,27,205,5640041,,,,,,,2025-05-08,1,,,,,ワンダフルプラス,0
1719,6140001138381,新規,0,2025-05-08,2025-05-08,京師同文株式会社,,株式会社,兵庫県,神戸市東灘区,森北町３丁目２－３８－１０２号室,,28,101,6580001,,,,,,,2025-05-08,1,,,,,キョウシドウブン,0
1720,6140001138398,新規,0,2025-05-08,2025-05-08,株式会社パーパス・パートナーズ,,株式会社,兵庫県,西宮市,仁川百合野町１０番５３号,,28,204,6620815,,,,,,,2025-05-08,1,,,,,パーパスパートナーズ,0
1721,6140001138472,新規,0,2025-05-08,2025-05-08,マルハ運輸建装株式会社,,株式会社,兵庫県,神戸市西区,北別府４丁目３番地の１２、２０３号,,28,111,6512117,,,,,,,2025-05-08,1,,,,,マルハウンユケンソウ,0
1723,6140005027498,新規,0,2025-05-08,2025-05-08,一般社団法人ラブリープロジェクト,,その他の設立登記法人,兵庫県,神戸市須磨区,東町３丁目１番９号,,28,107,6540033,,,,,,,2025-05-08,1,,,,,ラブリープロジェクト,0
1725,6150001028094,新規,0,2025-05-08,2025-05-08,株式会社中村,,株式会社,奈良県,高市郡高取町,５８８番地,,29,401,6350100,,,,,,,2025-05-08,1,,,,,ナカムラ,0
1727,6160003003474,新規,0,2025-05-08,2025-05-08,合同会社ソラ,,合同会社,滋賀県,彦根市,小泉町３１０－１６,,25,202,5220043,,,,,,,2025-05-08,1,,,,,ソラ,0
1728,6170003002211,新規,0,2025-05-08,2025-05-08,合同会社きのくに倉庫,,合同会社,和歌山県,和歌山市,松江東３丁目２－５０,,30,201,6408422,,,,,,,2025-05-08,1,,,,,キノクニソウコ,0
1733,6180001166503,新規,0,2025-05-08,2025-05-08,株式会社ヒミツキチ,,株式会社,愛知県,名古屋市中村区,名駅４丁目２４番５号第２森ビル４０１,,23,105,4500002,,,,,,,2025-05-08,1,,,,,ヒミツキチ,0
1734,6180001166668,新規,0,2025-05-08,2025-05-08,株式会社ＯｒｏＢｅａｒｅ,,株式会社,愛知県,名古屋市熱田区,波寄町１４番１２号,,23,109,4560003,,,,,,,2025-05-08,1,,,,,オロベアーレ,0
1735,6180001166684,新規,0,2025-05-08,2025-05-08,ＭＡＣＨＩＹＡ株式会社,,株式会社,愛知県,名古屋市天白区,高坂町２７５番地,,23,116,4680025,,,,,,,2025-05-08,1,,,,,マチヤ,0
1736,6180001166734,新規,0,2025-05-08,2025-05-08,株式会社Ｓｕｇｉｍｕｒａ　Ｎｅｘｔ　Ｓａｌｅｓ　Ｄｅｓｉｇｎ,,株式会社,愛知県,名古屋市瑞穂区,上山町２丁目２６番地の２,,23,108,4670022,,,,,,,2025-05-08,1,,,,,スギムラネクストセールスデザイン,0
1739,6180301039788,新規,0,2025-05-08,2025-05-08,株式会社エレクトリックソリューション,,株式会社,愛知県,豊橋市,平川本町１丁目９番地の１２,,23,201,4400038,,,,,,,2025-05-08,1,,,,,エレクトリックソリューション,0
1741,6190001032200,新規,0,2025-05-08,2025-05-08,伊賀トータルケア株式会社,,株式会社,三重県,伊賀市,上野田端町１１２５番地,,24,216,5180839,,,,,,,2025-05-08,1,,,,,イガトータルケア,0
1745,6220001026660,新規,0,2025-05-08,2025-05-08,桜花事務所株式会社,,株式会社,石川県,金沢市,武蔵町５番５号,,17,201,9200855,,,,,,,2025-05-08,1,,,,,オウカジムショ,0
1746,6220003004012,新規,0,2025-05-08,2025-05-08,合同会社ＡＲＬＩＮＫ,,合同会社,石川県,小松市,松崎町チ３１,,17,203,9230982,,,,,,,2025-05-08,1,,,,,エーアールリンク,0
1747,6230001020893,新規,0,2025-05-08,2025-05-08,株式会社ＴＮＴマネジメント,,株式会社,富山県,富山市,町村６４番地１ナチュラルビレッジ町村２Ａ棟６号室,,16,201,9300952,,,,,,,2025-05-08,1,,,,,ティーエヌティーマネジメント,0
1748,6240001064915,新規,0,2025-05-08,2025-05-08,浜田住託株式会社,,株式会社,広島県,豊田郡大崎上島町,木江５０６７番地１７,,34,431,7250401,,,,,,,2025-05-08,1,,,,,ハマダジュウタク,0
1751,6290001109905,新規,0,2025-05-08,2025-05-08,株式会社ＫＩＧ福岡,,株式会社,福岡県,福岡市城南区,七隈７丁目２番７号,,40,136,8140133,,,,,,,2025-05-08,1,,,,,ケーアイジーフクオカ,0
1753,6290003016777,新規,0,2025-05-08,2025-05-08,合同会社フラウン,,合同会社,福岡県,朝倉郡筑前町,東小田２３６５番地１０,,40,447,8380214,,,,,,,2025-05-08,1,,,,,フラウン,0
1758,6290801031498,新規,0,2025-05-08,2025-05-08,株式会社エール,,株式会社,福岡県,北九州市小倉北区,下到津３丁目６番５－２０２号,,40,106,8030846,,,,,,,2025-05-08,1,,,,,エール,0
1761,6300003002271,新規,0,2025-05-08,2025-05-08,合同会社Ｌｅａｐ,,合同会社,佐賀県,小城市,牛津町勝１３１３－１グランディールメゾン２０３,,41,208,8490306,,,,,,,2025-05-08,1,,,,,リープ,0
1765,6320005010238,新規,0,2025-05-08,2025-05-08,特定非営利活動法人心結,,その他の設立登記法人,大分県,佐伯市,駅前１丁目６番３４－６０３号サンパーク佐伯駅前レジデンス,,44,205,8760803,,,,,,,2025-05-08,1,,,,,ミユ,0
1769,6330003010998,新規,0,2025-05-08,2025-05-08,坂本コンサルティング合同会社,,合同会社,熊本県,熊本市中央区,草葉町２番２８－１２０１号ライオンズマンション上通,,43,101,8600843,,,,,,,2025-05-08,1,,,,,サカモトコンサルティング,0
1771,6340005009864,新規,0,2025-05-08,2025-05-08,一般社団法人えじつ,,その他の設立登記法人,鹿児島県,鹿児島市,山下町１２番１７号,,46,201,8920816,,,,,,,2025-05-08,1,,,,,エジツ,0
1775,6360001035128,新規,0,2025-05-08,2025-05-08,株式会社ＳＵＮＲＩＳＥ,,株式会社,沖縄県,島尻郡久米島町,字比嘉１６０番地７１,,47,361,9013108,,,,,,,2025-05-08,1,,,,,サンライズ,0
1780,6360003014889,新規,0,2025-05-08,2025-05-08,合同会社いのは,,合同会社,沖縄県,沖縄市,知花２丁目３番２０号,,47,211,9042143,,,,,,,2025-05-08,1,,,,,イノハ,0
1781,6360003014897,新規,0,2025-05-08,2025-05-08,合同会社琉愛舎,,合同会社,沖縄県,那覇市,牧志２丁目１９－１８,,47,201,9000013,,,,,,,2025-05-08,1,,,,,リュウアイシャ,0
1785,6380001035290,新規,0,2025-05-08,2025-05-08,株式会社辰野ファーム,,株式会社,福島県,喜多方市,塩川町吉沖字西村１５７０番地,,07,208,9693539,,,,,,,2025-05-08,1,,,,,タツノファーム,0
1791,6410001014150,新規,0,2025-05-08,2025-05-08,株式会社グリーンライズ,,株式会社,秋田県,横手市,大雄字高津野１７３番地４３,,05,203,0130443,,,,,,,2025-05-08,1,,,,,グリーンライズ,0
1794,6430001094389,新規,0,2025-05-08,2025-05-08,株式会社ＡＬＩＶＥ,,株式会社,北海道,札幌市中央区,南五条西４丁目７番地１Ｎ・ＳＱＵＡＲＥ６階,,01,101,0640805,,,,,,,2025-05-08,1,,,,,アライブ,0
1797,6440003001680,新規,0,2025-05-08,2025-05-08,合同会社サルパーレ,,合同会社,北海道,函館市,上野町３－５,,01,202,0420954,,,,,,,2025-05-08,1,,,,,サルパーレ,0
1799,6450003002653,新規,0,2025-05-08,2025-05-08,合同会社みらい,,合同会社,北海道,旭川市,東四条３丁目２番１５号,,01,204,0700024,,,,,,,2025-05-08,1,,,,,ミライ,0
1800,6460003001051,新規,0,2025-05-08,2025-05-08,合同会社コスモサイエンスＡＭ,,合同会社,北海道,釧路市,鳥取南５丁目１２番５号,,01,206,0840905,,,,,,,2025-05-08,1,,,,,コスモサイエンスエーエム,0
1807,6490003002014,新規,0,2025-05-08,2025-05-08,合同会社よりそい,,合同会社,高知県,高知市,南宝永町５番１４号１Ｆ,,39,201,7800816,,,,,,,2025-05-08,1,,,,,ヨリソイ,0
1810,6500001026285,新規,0,2025-05-08,2025-05-08,株式会社藤建,,株式会社,愛媛県,西条市,飯岡２５８７番地１,,38,206,7930010,,,,,,,2025-05-08,1,,,,,フジケン,0
1813,6700150129868,新規,0,2025-05-08,2025-05-08,Ｓｈａｎｇｈａｉｌｉｈａｊｉａｏｙｕｋｅｊｉｙｏｕｘｉａｎｇｏｎｇｓｉ,,外国会社等,,,,,,,,上海市閔行区平陽路２５８号１層,,,,,,2025-05-08,1,,,,,シヤンハイリハキヨウイクカギユウゲンコウシ,0
1814,6700150129991,新規,0,2025-05-08,2025-05-08,ＱＣ　Ｗａｒｅ　Ｃｏｒｐ．,,外国会社等,,,,,,,,１９５　Ｐａｇｅ　Ｍｉｌｌ　Ｒｄ．，Ｓｕｉｔｅ　１１３，Ｐａｌｏ　Ａｌｔｏ，ＣＡ　９４３０６，ＵＳＡ,,,,,,2025-05-08,1,,,,,キユーシーウエアーコープ,0
1815,6700150130322,新規,0,2025-05-08,2025-05-08,Ｄａｌｉａｎ　Ｙａｎｍｅｎｘｉ　Ｔｒａｄｉｎｇ　Ｃｏ．，Ｌｔｄ．,,外国会社等,,,,,,,,Ｂｏｎｄｅｄ　Ａｒｅａ　Ｒｏｏｍ　６３０－１，Ｆｒｅｅ　Ｔｒａｄｅ　Ｂｕｉｌｄｉｎｇ　Ｄａｌｉａｎ，Ｌｉａｏｎｉｎｇ　Ｃｈｉｎａ,,,,,,2025-05-08,1,,,,,ダレンヤンメンシートレーディングカンパニーリミテッド,0
1828,7010001254744,新規,0,2025-05-08,2025-05-08,ミウル・ヘルスケア株式会社,,株式会社,東京都,千代田区,有楽町１丁目２番２号,,13,101,1000006,,,,,,,2025-05-08,1,,,,,ミウルヘルスケア,0
1829,7010001254752,新規,0,2025-05-08,2025-05-08,株式会社リベンリ東京,,株式会社,東京都,千代田区,丸の内１丁目１１番１号パシフィックセンチュリープレイス丸の内８階,,13,101,1000005,,,,,,,2025-05-08,1,,,,,リベンリトウキョウ,0
1830,7010001254760,新規,0,2025-05-08,2025-05-08,株式会社リビス,,株式会社,東京都,中央区,京橋２丁目１１番６号京橋彌生ビル９階,,13,102,1040031,,,,,,,2025-05-08,1,,,,,リビス,0
1831,7010001254802,新規,0,2025-05-08,2025-05-08,ＳＯＬ株式会社,,株式会社,東京都,千代田区,神田松永町１番地,,13,101,1010023,,,,,,,2025-05-08,1,,,,,ソル,0
1832,7010001254819,新規,0,2025-05-08,2025-05-08,株式会社ＳｔｕｄｙＨｏｍｅ,,株式会社,東京都,中央区,銀座１丁目１２番４号Ｎ＆ＥＢＬＤ．６Ｆ,,13,102,1040061,,,,,,,2025-05-08,1,,,,,スタディホーム,0
1835,7010003047246,新規,0,2025-05-08,2025-05-08,アスニタクス合同会社,,合同会社,東京都,千代田区,九段南１丁目５番６号りそな九段ビル５Ｆ・ＫＳフロア,,13,101,1020074,,,,,,,2025-05-08,1,,,,,アスニタクス,0
1836,7010003047254,新規,0,2025-05-08,2025-05-08,Ｓ．Ｔコンサルティング合同会社,,合同会社,東京都,中央区,日本橋室町１丁目１１番１２号日本橋水野ビル７階,,13,102,1030022,,,,,,,2025-05-08,1,,,,,エスティコンサルティング,0
1837,7010003047320,新規,0,2025-05-08,2025-05-08,武蔵野時計合同会社,,合同会社,東京都,文京区,小日向２丁目２４番８－４０３号,,13,105,1120006,,,,,,,2025-05-08,1,,,,,ムサシノトケイ,0
1839,7010005040018,新規,0,2025-05-08,2025-05-08,一般社団法人ＰＪＧ２,,その他の設立登記法人,東京都,千代田区,内神田１丁目３番７号４０１あすな会計事務所内,,13,101,1010047,,,,,,,2025-05-08,1,,,,,ピージェイジーツー,0
1848,7010401189994,新規,0,2025-05-08,2025-05-08,Ｂｉｒｄ　Ｃａｌｌ株式会社,,株式会社,東京都,港区,南麻布５丁目２番４０号日興パレス南麻布５０８,,13,103,1060047,,,,,,,2025-05-08,1,,,,,バードコール,0
1849,7010401190077,新規,0,2025-05-08,2025-05-08,株式会社ＳＡＦＥＩＤ,,株式会社,東京都,港区,六本木６丁目１０－１六本木ヒルズ森タワー１５Ｆ,,13,103,1060032,,,,,,,2025-05-08,1,,,,,セイフアイディー,0
1850,7010401190085,新規,0,2025-05-08,2025-05-08,スクイグル株式会社,,株式会社,東京都,港区,北青山３丁目６番７号青山パラシオタワー１１階,,13,103,1070061,,,,,,,2025-05-08,1,,,,,スクイグル,0
1851,7010401190110,新規,0,2025-05-08,2025-05-08,株式会社自治体総研,,株式会社,東京都,港区,赤坂９丁目１番７号赤坂レジデンシャルホテル４７１号室,,13,103,1070052,,,,,,,2025-05-08,1,,,,,ジチタイソウケン,0
1852,7010403035008,新規,0,2025-05-08,2025-05-08,合同会社ファーストヴィレッジパートナーズ,,合同会社,東京都,港区,南青山３丁目１番３６号青山丸竹ビル６階,,13,103,1070062,,,,,,,2025-05-08,1,,,,,ファーストヴィレッジパートナーズ,0
1853,7010403035016,新規,0,2025-05-08,2025-05-08,リオリオグループ合同会社,,合同会社,東京都,港区,南青山３丁目１番３６号青山丸竹ビル６階,,13,103,1070062,,,,,,,2025-05-08,1,,,,,リオリオグループ,0
1854,7010403035040,新規,0,2025-05-08,2025-05-08,グレイル・インコーポレーテッド合同会社,,合同会社,東京都,港区,南青山２丁目２－１５,,13,103,1070062,,,,,,,2025-05-08,1,,,,,グレイルインコーポレーテッド,0
1855,7010403035049,新規,0,2025-05-08,2025-05-08,合同会社ＴＳＭ１７１,,合同会社,東京都,港区,元赤坂１丁目１番７号,,13,103,1070051,,,,,,,2025-05-08,1,,,,,ティーエスエムヒャクナナジュウイチ,0
1856,7010405024371,新規,0,2025-05-08,2025-05-08,Ｂｌａｕｓｅｅ一般社団法人,,その他の設立登記法人,東京都,港区,西新橋１丁目１番１号ＥＰコンサルティングサービス内,,13,103,1050003,,,,,,,2025-05-08,1,,,,,ブラウゼー,0
1859,7010501054025,新規,0,2025-05-08,2025-05-08,株式会社ＧＯ,,株式会社,東京都,台東区,柳橋１丁目１６－３ｇｒａｎ＋ＡＳＡＫＵＳＡＢＡＳＨＩＩＩＩ４Ｆ,00139045,13,106,1110052,,,,,,,2025-05-08,1,,,,,ゴー,0
1860,7010503007823,新規,0,2025-05-08,2025-05-08,合同会社勝色,,合同会社,東京都,台東区,浅草６丁目２－５－５０３アール・ケープラザ浅草,,13,106,1110032,,,,,,,2025-05-08,1,,,,,カチイロ,0
1862,7010605004454,新規,0,2025-05-08,2025-05-08,一般社団法人カラフルフォトリンピック,,その他の設立登記法人,東京都,江東区,古石場３丁目１１番１７号,,13,108,1350045,,,,,,,2025-05-08,1,,,,,カラフルフォトリンピック,0
1873,7011003021637,新規,0,2025-05-08,2025-05-08,ＭＭＳ合同会社,,合同会社,東京都,目黒区,青葉台４丁目７番１９－４０６号,,13,110,1530042,,,,,,,2025-05-08,1,,,,,エムエムエス,0
1875,7011101111587,新規,0,2025-05-08,2025-05-08,万居株式会社,,株式会社,東京都,新宿区,北新宿１丁目３０－３０柏木ハイツ１２７号,,13,104,1690074,,,,,,,2025-05-08,1,,,,,マンキョ,0
1876,7011101111595,新規,0,2025-05-08,2025-05-08,株式会社ｃｏｔｏ,,株式会社,東京都,新宿区,西新宿５丁目８－２惠徳ビル,,13,104,1600023,,,,,,,2025-05-08,1,,,,,コト,0
1877,7011101111736,新規,0,2025-05-08,2025-05-08,株式会社ポリスフィア,,株式会社,東京都,新宿区,西新宿７丁目７－２６ワコーレ新宿第一ビル,,13,104,1600023,,,,,,,2025-05-08,1,,,,,ポリスフィア,0
1878,7011103015860,新規,0,2025-05-08,2025-05-08,合同会社たかぴしすてむ,,合同会社,東京都,新宿区,新宿２丁目１２番１３号新宿アントレサロンビル２階,,13,104,1600022,,,,,,,2025-05-08,1,,,,,タカピシステム,0
1882,7011201026339,新規,0,2025-05-08,2025-05-08,株式会社ＨＥＡＲＴ　ｏｆ　ＧＯＬＤ,,株式会社,東京都,中野区,江原町２丁目２番１６号アザレアガーデン１０１,,13,114,1650023,,,,,,,2025-05-08,1,,,,,ハートオブゴールド,0
1890,7011705001894,新規,0,2025-05-08,2025-05-08,一般社団法人有機野菜協会,,その他の設立登記法人,東京都,江戸川区,南小岩８丁目２６番５号,,13,123,1330056,,,,,,,2025-05-08,1,,,,,ユウキヤサイキョウカイ,0
1892,7011801046075,新規,0,2025-05-08,2025-05-08,株式会社ｍａｋｅ‐ｅｆｆｏｒｔ,,株式会社,東京都,葛飾区,新宿６丁目２番１－３３０号シティタワー金町タワー棟,,13,122,1250051,,,,,,,2025-05-08,1,,,,,メイクエフォート,0
1893,7011803006837,新規,0,2025-05-08,2025-05-08,合同会社鶏笑軍,,合同会社,東京都,足立区,中川１丁目１７番１２号,,13,121,1200002,,,,,,,2025-05-08,1,,,,,トリショウグン,0
1896,7012303002153,新規,0,2025-05-08,2025-05-08,合同会社フォーシーズン,,合同会社,東京都,町田市,金井２丁目１４番地４,,13,209,1950072,,,,,,,2025-05-08,1,,,,,フォーシーズン,0
1902,7012401043058,新規,0,2025-05-08,2025-05-08,富哲株式会社,00139066,株式会社,東京都,三鷹市,上連雀３丁目４２番１３号２０７号室,,13,204,1810012,,,,,,,2025-05-08,1,,,,,トミテツ,0
1904,7012801023915,新規,0,2025-05-08,2025-05-08,株式会社ブルヴァール,,株式会社,東京都,国分寺市,並木町１丁目２０番地１ダイアパレス国分寺鷹の台ＩＩ３０４,00139058,13,214,1850005,,,,,,,2025-05-08,1,,,,,ブルヴァール,0
1905,7012803003725,新規,0,2025-05-08,2025-05-08,合同会社ＭＪＫ,,合同会社,東京都,国分寺市,南町３丁目２８番７号ラケットショップフジビル１Ｆ,,13,214,1850021,,,,,,,2025-05-08,1,,,,,エムジェイケイ,0
1908,7013301054203,新規,0,2025-05-08,2025-05-08,株式会社カエツ,,株式会社,東京都,豊島区,北大塚２丁目２３番２号北大塚ハイム１０２,,13,116,1700004,,,,,,,2025-05-08,1,,,,,カエツ,0
1911,7013303007638,新規,0,2025-05-08,2025-05-08,合同会社コピ・ミラージュ,,合同会社,東京都,豊島区,東池袋２丁目６２番８号ＢＩＧオフィスプラザ池袋１２０６,,13,116,1700013,,,,,,,2025-05-08,1,,,,,コピミラージュ,0
1916,7020001162698,新規,0,2025-05-08,2025-05-08,陽花株式会社,,株式会社,神奈川県,横浜市神奈川区,羽沢町９１３番地７８ニューハイム羽沢１０６号,,14,102,2210863,,,,,,,2025-05-08,1,,,,,ヨウカ,0
1917,7020001162715,新規,0,2025-05-08,2025-05-08,株式会社ストーンズホールディングス,,株式会社,神奈川県,川崎市高津区,溝口３丁目１番７号,,14,134,2130001,,,,,,,2025-05-08,1,,,,,ストーンズホールディングス,0
1920,7020003028419,新規,0,2025-05-08,2025-05-08,合同会社ｎｏｖｅｌ　ｗａｖｅ,,合同会社,神奈川県,川崎市多摩区,登戸３１０番地８,,14,135,2140014,,,,,,,2025-05-08,1,,,,,ノベルウェーブ,0
1924,7021001085146,新規,0,2025-05-08,2025-05-08,株式会社Ｄｏｌｃｅ,,株式会社,神奈川県,相模原市緑区,久保沢３丁目８番２４－６号,,14,151,2520105,,,,,,,2025-05-08,1,,,,,ドルチェ,0
1933,7030001166351,新規,0,2025-05-08,2025-05-08,リアルブレイン株式会社,,株式会社,埼玉県,さいたま市南区,文蔵４丁目２９番１９号ＦＬＡＴ－Ｂ１０６,,11,108,3360025,,,,,,,2025-05-08,1,,,,,リアルブレイン,0
1934,7030001166368,新規,0,2025-05-08,2025-05-08,株式会社桜の森,,株式会社,埼玉県,秩父市,小柱２７５番地４,,11,207,3680061,,,,,,,2025-05-08,1,,,,,サクラノモリ,0
1935,7030001166384,新規,0,2025-05-08,2025-05-08,株式会社ミナミ,,株式会社,埼玉県,狭山市,根岸２丁目８番１４号,,11,215,3501325,,,,,,,2025-05-08,1,,,,,ミナミ,0
1936,7030001166392,新規,0,2025-05-08,2025-05-08,株式会社ライフハーモニー,,株式会社,埼玉県,春日部市,梅田本町２丁目２６番地４,,11,214,3440053,,,,,,,2025-05-08,1,,,,,ライフハーモニー,0
1937,7030001166418,新規,0,2025-05-08,2025-05-08,天心商事株式会社,,株式会社,埼玉県,上尾市,大字上１６６番地１,,11,219,3620001,,,,,,,2025-05-08,1,,,,,テンシンショウジ,0
1938,7030001166450,新規,0,2025-05-08,2025-05-08,株式会社一芯,,株式会社,埼玉県,越谷市,大字大房１１３２番地１０,,11,222,3430027,,,,,,,2025-05-08,1,,,,,イッシン,0
1941,7030003026652,新規,0,2025-05-08,2025-05-08,合同会社久兵衛,,合同会社,埼玉県,春日部市,赤沼７１１番地１,,11,214,3440015,,,,,,,2025-05-08,1,,,,,キュウベイ,0
1942,7030003026693,新規,0,2025-05-08,2025-05-08,ＴＨＡＩ　ＢＩＮＨ合同会社,,合同会社,埼玉県,東松山市,新宿町８番地３ボナールＢ２０２,,11,212,3550032,,,,,,,2025-05-08,1,,,,,タイビン,0
1943,7030003026735,新規,0,2025-05-08,2025-05-08,合同会社レオン,,合同会社,埼玉県,さいたま市浦和区,上木崎３丁目３番５号,,11,107,3300071,,,,,,,2025-05-08,1,,,,,レオン,0
1952,7060001038168,新規,0,2025-05-08,2025-05-08,株式会社駐妻キャリアｎｅｔ,,株式会社,栃木県,宇都宮市,中央３丁目１－４栃木県産業会館３Ｆ宇都宮ベンチャーズ内,,09,201,3200806,,,,,,,2025-05-08,1,,,,,チュウヅマキャリアネット,0
1954,7060005010338,新規,0,2025-05-08,2025-05-08,関東移動販売キッチンカー協同組合,,その他の設立登記法人,栃木県,芳賀郡益子町,大字大沢１２５番地１,,09,342,3214104,,,,,,,2025-05-08,1,,,,,カントウイドウハンバイキッチンカー,0
1956,7070003005909,新規,0,2025-05-08,2025-05-08,合同会社匠,,合同会社,群馬県,伊勢崎市,境百々４８５番地９,,10,204,3700117,,,,,,,2025-05-08,1,,,,,タクミ,0
1961,7080103003316,新規,0,2025-05-08,2025-05-08,Ｗｉｎｇｓ　ｏｆ　Ｌｉｂｅｒｔｙ合同会社,,合同会社,静岡県,富士宮市,人穴６７５番地７７３号,,22,207,4180102,,,,,,,2025-05-08,1,,,,,ウィングスオブリバティ,0
1964,7080401027900,新規,0,2025-05-08,2025-05-08,マリングロースエステート株式会社,,株式会社,静岡県,御前崎市,御前崎１１９番地の６１,,22,223,4371621,,,,,,,2025-05-08,1,,,,,マリングロースエステート,0
1970,7100001038568,新規,0,2025-05-08,2025-05-08,株式会社ＤｅｅｐＲａｎｋｅｒ,,株式会社,長野県,長野市,大字鶴賀上千歳町１１３７番地２３,,20,201,3800821,,,,,,,2025-05-08,1,,,,,ディープランカー,0
1971,7100001038576,新規,0,2025-05-08,2025-05-08,株式会社Ｏｒｔｈｏａｓｓｅｔ,,株式会社,長野県,長野市,三輪４丁目６番３号,,20,201,3800803,,,,,,,2025-05-08,1,,,,,オルソアセット,0
1974,7100005013344,新規,0,2025-05-08,2025-05-08,一般社団法人トゥルカジャパン,,その他の設立登記法人,長野県,諏訪郡原村,１６２６７番地２１８５,,20,363,3910100,,,,,,,2025-05-08,1,,,,,トゥルカジャパン,0
1981,7120001275044,新規,0,2025-05-08,2025-05-08,龍譽株式会社,,株式会社,大阪府,大阪市北区,梅田１丁目２番２号大阪駅前第２ビル１２－１２,,27,127,5300001,,,,,,,2025-05-08,1,,,,,リュウヨ,0
1982,7120001275168,新規,0,2025-05-08,2025-05-08,金亨利株式会社,,株式会社,大阪府,大阪市大正区,平尾４丁目１１番７共栄ビル１０２号室,,27,108,5510012,,,,,,,2025-05-08,1,,,,,キンコウリ,0
1983,7120001275283,新規,0,2025-05-08,2025-05-08,コスモ株式会社,,株式会社,大阪府,大阪市平野区,加美鞍作３丁目６番２９号,,27,126,5470004,,,,,,,2025-05-08,1,,,,,コスモ,0
1985,7120003029423,新規,0,2025-05-08,2025-05-08,合同会社ＡＬＰＨＡＺ　Ｉｎｖｅｓｔｍｅｎｔ,,合同会社,大阪府,大阪市北区,梅田１丁目２番２号大阪駅前第２ビル１２‐１２,,27,127,5300001,,,,,,,2025-05-08,1,,,,,アルファズインベストメント,0
1987,7120005024926,新規,0,2025-05-08,2025-05-08,一般社団法人ＬＩＢＲＥ,,その他の設立登記法人,大阪府,大阪市北区,南森町２丁目１番１８－１２０２号,,27,127,5300054,,,,,,,2025-05-08,1,,,,,リブレ,0
1989,7120101071608,新規,0,2025-05-08,2025-05-08,株式会社ｈｕｉｔ,,株式会社,大阪府,藤井寺市,津堂１丁目２番４３号,,27,226,5830037,,,,,,,2025-05-08,1,,,,,ユイット,0
1990,7120101071616,新規,0,2025-05-08,2025-05-08,株式会社アヴニール,,株式会社,大阪府,藤井寺市,岡１丁目５番３５号,,27,226,5830027,,,,,,,2025-05-08,1,,,,,アヴニール,0
1994,7120901050810,新規,0,2025-05-08,2025-05-08,致和株式会社,,株式会社,大阪府,吹田市,古江台６丁目２番４７号,,27,205,5650874,,,,,,,2025-05-08,1,,,,,チワ,0
2000,7130001079618,新規,0,2025-05-08,2025-05-08,ＳＤＣ　Ｃｌａｒｉｔｙ株式会社,,株式会社,京都府,京都市山科区,御陵大津畑町１３メゾン・ド・リビエール１０５,,26,110,6078411,,,,,,,2025-05-08,1,,,,,エスディーシークラリティー,0
2006,7140001138389,新規,0,2025-05-08,2025-05-08,株式会社北野設備工業,,株式会社,兵庫県,尼崎市,大庄北３丁目２７番２７－４０７号,,28,202,6600063,,,,,,,2025-05-08,1,,,,,キタノセツビコウギョウ,0
2007,7140001138414,新規,0,2025-05-08,2025-05-08,株式会社グッドセキュリティ,,株式会社,兵庫県,丹波市,氷上町上成松３０番地１０２号,,28,223,6693606,,,,,,,2025-05-08,1,,,,,グッドセキュリティ,0
2008,7140001138439,新規,0,2025-05-08,2025-05-08,大栄クレアーレ株式会社,,株式会社,兵庫県,神戸市西区,王塚台６丁目８４番地,,28,111,6512135,,,,,,,2025-05-08,1,,,,,ダイエイクレアーレ,0
2018,7170001018621,新規,0,2025-05-08,2025-05-08,株式会社ＣＳＫファクトリー,,株式会社,和歌山県,紀の川市,豊田３８番地２,,30,208,6496445,,,,,,,2025-05-08,1,,,,,シーエスケーファクトリー,0
2026,7180001166618,新規,0,2025-05-08,2025-05-08,株式会社桂,,株式会社,愛知県,名古屋市中区,千代田４丁目２０番１０号,,23,106,4600012,,,,,,,2025-05-08,1,,,,,カツラ,0
2027,7180001166650,新規,0,2025-05-08,2025-05-08,株式会社ＦＤミライサポート,,株式会社,愛知県,名古屋市千種区,内山３丁目１７番１１号名古屋建商ビル,,23,101,4640075,,,,,,,2025-05-08,1,,,,,エフディミライサポート,0
2028,7180001166659,新規,0,2025-05-08,2025-05-08,株式会社近藤エステート,,株式会社,愛知県,名古屋市緑区,乗鞍３丁目１３６番地,,23,114,4580004,,,,,,,2025-05-08,1,,,,,コンドウエステート,0
2029,7180001166725,新規,0,2025-05-08,2025-05-08,株式会社やりがい搾取,,株式会社,愛知県,一宮市,本町３丁目３番１６号,,23,203,4910859,,,,,,,2025-05-08,1,,,,,ヤリガイサクシュ,0
2030,7180001166741,新規,0,2025-05-08,2025-05-08,矢野製作株式会社,,株式会社,愛知県,名古屋市北区,丸新町３７９番地,,23,103,4620063,,,,,,,2025-05-08,1,,,,,ヤノセイサク,0
2031,7180001166758,新規,0,2025-05-08,2025-05-08,中京エステーション株式会社,,株式会社,愛知県,名古屋市中区,大須３丁目５番４号,,23,106,4600011,,,,,,,2025-05-08,1,,,,,チュウキョウエステーション,0
2034,7180005021091,新規,0,2025-05-08,2025-05-08,一般社団法人雨の事故０,,その他の設立登記法人,愛知県,東海市,加木屋町陀々法師３３番地の１,,23,222,4770032,,,,,,,2025-05-08,1,,,,,アメノジコゼロ,0
2035,7180301039787,新規,0,2025-05-08,2025-05-08,株式会社ＡＴ　Ｆａｒｍ,,株式会社,愛知県,豊橋市,小島町字東峠３５番地の１３,,23,201,4413122,,,,,,,2025-05-08,1,,,,,エイティファーム,0
2037,7180303006562,新規,0,2025-05-08,2025-05-08,合同会社エネメンテ,,合同会社,愛知県,豊川市,宿町中島８８番地,,23,207,4410101,,,,,,,2025-05-08,1,,,,,エネメンテ,0
2040,7190001032199,新規,0,2025-05-08,2025-05-08,株式会社パシフィック,,株式会社,三重県,四日市市,市場町２７４４番地１０,,24,202,5121302,,,,,,,2025-05-08,1,,,,,パシフィック,0
2042,7190003005021,新規,0,2025-05-08,2025-05-08,合同会社ＰＲＩＭＥ商会,,合同会社,三重県,鈴鹿市,桜島町６丁目１４－６サンハウス吉澤２０２,,24,207,5130817,,,,,,,2025-05-08,1,,,,,プライムショウカイ,0
2046,7200003006810,新規,0,2025-05-08,2025-05-08,合同会社なかよし,,合同会社,岐阜県,高山市,曙町３丁目６９番地１４,,21,203,5060806,,,,,,,2025-05-08,1,,,,,ナカヨシ,0
2048,7220001026668,新規,0,2025-05-08,2025-05-08,株式会社Ｈａｍａｓａｋｉ,,株式会社,石川県,金沢市,白菊町８－１７,,17,201,9218024,,,,,,,2025-05-08,1,,,,,ハマサキ,0
2049,7240001064889,新規,0,2025-05-08,2025-05-08,ＫＲＳペイント株式会社,,株式会社,広島県,東広島市,黒瀬町宗近柳国１００３５－１８,,34,212,7392504,,,,,,,2025-05-08,1,,,,,ケーアールエスペイント,0
2050,7240001064906,新規,0,2025-05-08,2025-05-08,株式会社ＬＩＦＥ,,株式会社,広島県,福山市,千田町千田７０５番地２,,34,207,7200017,,,,,,,2025-05-08,1,,,,,ライフ,0
2051,7240001064914,新規,0,2025-05-08,2025-05-08,株式会社マイステラリンク,,株式会社,広島県,広島市南区,京橋町１－７アスティ広島京橋ビルディング,,34,103,7320828,,,,,,,2025-05-08,1,,,,,マイステラリンク,0
2052,7240001064922,新規,0,2025-05-08,2025-05-08,株式会社煌友電設,,株式会社,広島県,福山市,沖野上町３丁目１０－２７,,34,207,7200825,,,,,,,2025-05-08,1,,,,,アキトモデンセツ,0
2053,7240003007193,新規,0,2025-05-08,2025-05-08,合同会社ＧＩＧ　Ｌａｂ,,合同会社,広島県,広島市佐伯区,石内東２丁目１４－２,,34,108,7315162,,,,,,,2025-05-08,1,,,,,ギグラボ,0
2059,7290001109879,新規,0,2025-05-08,2025-05-08,株式会社Ｄｒｅａｍクリーンサービス,,株式会社,福岡県,福岡市東区,多の津４丁目１１番２５号,,40,131,8130034,,,,,,,2025-05-08,1,,,,,ドリームクリーンサービス,0
2063,7290003016776,新規,0,2025-05-08,2025-05-08,シャロ合同会社,,合同会社,福岡県,糟屋郡久山町,大字猪野７８８番地６,,40,348,8112503,,,,,,,2025-05-08,1,,,,,シャロ,0
2069,7300003002279,新規,0,2025-05-08,2025-05-08,合同会社Ｒｓ快晴,,合同会社,佐賀県,佐賀市,開成５丁目１３－４１,,41,201,8490934,,,,,,,2025-05-08,1,,,,,アールエスカイセイ,0
2071,7310001019588,新規,0,2025-05-08,2025-05-08,株式会社彩ハウス,,株式会社,長崎県,長崎市,平間町６３４番地６,,42,201,8510136,,,,,,,2025-05-08,1,,,,,サイハウス,0
2072,7310003005009,新規,0,2025-05-08,2025-05-08,合同会社ぬく森,,合同会社,長崎県,雲仙市,国見町多比良乙２２番地１,,42,213,8591322,,,,,,,2025-05-08,1,,,,,ヌクモリ,0
2074,7320001021089,新規,0,2025-05-08,2025-05-08,株式会社セーフティエステート,,株式会社,大分県,大分市,横尾東町３丁目１１番１５号,,44,201,8700130,,,,,,,2025-05-08,1,,,,,セーフティエステート,0
2075,7330001033174,新規,0,2025-05-08,2025-05-08,株式会社リュディックアーキテクトデザイン,,株式会社,熊本県,熊本市中央区,水前寺公園５番１１－９０１号,,43,101,8620956,,,,,,,2025-05-08,1,,,,,リュディックアーキテクトデザイン,0
2076,7330003010997,新規,0,2025-05-08,2025-05-08,合同会社ＳＯＵＲＥ,,合同会社,熊本県,天草市,宮地岳町６４５０番地５０,,43,215,8631161,,,,,,,2025-05-08,1,,,,,ソユール,0
2079,7340001027299,新規,0,2025-05-08,2025-05-08,株式会社ダイクナカムラ,,株式会社,鹿児島県,大島郡瀬戸内町,古仁屋瀬久井西１５番地１（Ｇ棟４０２）,,46,525,8941510,,,,,,,2025-05-08,1,,,,,ダイクナカムラ,0
2080,7340001027316,新規,0,2025-05-08,2025-05-08,株式会社ＱＵテック,,株式会社,鹿児島県,薩摩川内市,勝目町４１３７番地８,,46,215,8950031,,,,,,,2025-05-08,1,,,,,キューユーテック,0
2081,7350003004931,新規,0,2025-05-08,2025-05-08,合同会社ＴＥＲＲＡＣＥ,,合同会社,宮崎県,宮崎市,大字恒久６５６９番地８,,45,201,8800916,,,,,,,2025-05-08,1,,,,,テラス,0
2082,7360001035102,新規,0,2025-05-08,2025-05-08,株式会社ライフリンクサポート,,株式会社,沖縄県,那覇市,久米２丁目３－１５ＪＲ九州那覇ビル５Ｆ,,47,201,9000033,,,,,,,2025-05-08,1,,,,,ライフリンクサポート,0
2083,7360001035127,新規,0,2025-05-08,2025-05-08,株式会社ＹＩ,,株式会社,沖縄県,中頭郡読谷村,字伊良皆１３６番地,,47,324,9040303,,,,,,,2025-05-08,1,,,,,ワイアイ,0
2084,7360001035143,新規,0,2025-05-08,2025-05-08,株式会社ビレッジ沖縄,,株式会社,沖縄県,那覇市,宇栄原４丁目１９番１２号,,47,201,9010153,,,,,,,2025-05-08,1,,,,,ビレッジオキナワ,0
2086,7360003014888,新規,0,2025-05-08,2025-05-08,合同会社ｎ．ｈ．ｓ,,合同会社,沖縄県,南城市,佐敷字伊原４００番地３,,47,215,9011401,,,,,,,2025-05-08,1,,,,,エヌエイッチエス,0
2099,7380005012962,新規,0,2025-05-08,2025-05-08,一般社団法人ＰＯＮＯ,,その他の設立登記法人,福島県,郡山市,片平町字釜場２７番地の４,,07,203,9630211,,,,,,,2025-05-08,1,,,,,,0
2101,7390003002386,新規,0,2025-05-08,2025-05-08,洪福合同会社,,合同会社,山形県,米沢市,福田町２丁目３－５５,,06,202,9920033,,,,,,,2025-05-08,1,,,,,,0
2104,7400003003449,新規,0,2025-05-08,2025-05-08,合同会社長興寺,,合同会社,岩手県,九戸郡九戸村,大字長興寺第１３地割３４番地３,,03,506,0286504,,,,,,,2025-05-08,1,,,,,チョウコウジ,0
2118,7450001014617,新規,0,2025-05-08,2025-05-08,株式会社ながれ技術研究所,,株式会社,北海道,旭川市,中常盤町１丁目２４３４番地の２,,01,204,0700042,,,,,,,2025-05-08,1,,,,,,0
2119,7450003002652,新規,0,2025-05-08,2025-05-08,Ｐｏｃａｐｏｃａ合同会社,,合同会社,北海道,旭川市,春光一条８丁目６番１９号,,01,204,0700871,,,,,,,2025-05-08,1,,,,,ポカポカ,0
2120,7460005001593,新規,0,2025-05-08,2025-05-08,特定非営利活動法人うしとしごと,,その他の設立登記法人,北海道,釧路市,音羽２１５番地１２,,01,206,0850000,,,,,,,2025-05-08,1,,,,,,0
2124,7480001012824,新規,0,2025-05-08,2025-05-08,株式会社ＵｎｉｔｅＯｎｅ,,株式会社,徳島県,板野郡藍住町,富吉字中新田７５－１７,,36,403,7711230,,,,,,,2025-05-08,1,,,,,ユナイトワン,0
2126,7490001011024,新規,0,2025-05-08,2025-05-08,株式会社土佐林業機械製作所,,株式会社,高知県,高知市,桟橋通４丁目２番２０号,,39,201,7818010,,,,,,,2025-05-08,1,,,,,,0
2127,7490001011040,新規,0,2025-05-08,2025-05-08,株式会社ＰＥＲ,,株式会社,高知県,高知市,北本町２丁目２番８,,39,201,7800056,,,,,,,2025-05-08,1,,,,,ピーイーアール,0
2130,7700150130321,新規,0,2025-05-08,2025-05-08,Ｎａｎｃｈａｎｇ　Ｚｅｊｉａｎ　Ｗａｎｇｌｕｏ　Ｋｅｊｉ　Ｙｏｕｘｉａｎｇｏｎｇｓｉ,,外国会社等,,,,,,,,Ｒｏｏｍ　５３１，Ｂｕｉｌｄｉｎｇ　Ｂ，Ｂｕｉｌｄｉｎｇ　１，Ｈｕｉｇｕ　Ｃｒｅａｔｉｖｅ　Ｉｎｄｕｓｔｒｉａｌ　Ｐａｒｋ，Ｈｏｎｇｇｕｔａｎ　Ｄｉｓｔｒｉｃｔ，Ｎａｎｃｈａｎｇ　Ｃｉｔｙ，Ｊｉａｎｇｘｉ　Ｐｒｏｖｉｎｃｅ,,,,,,2025-05-08,1,,,,,ナンチャンゼジェンワンロウカギユウゲンコウシ,0
2143,8010001253778,新規,0,2025-05-08,2025-05-08,株式会社Ｇａ　Ｐｒｏｊｅｃｔ,,株式会社,東京都,千代田区,神田須田町１丁目７番８号ＶＯＲＴ秋葉原ＩＶ２Ｆ,00139053,13,101,1010041,,,,,,,2025-05-08,1,,,,,ジーエープロジェクト,0
2144,8010001254743,新規,0,2025-05-08,2025-05-08,株式会社ジョビン,,株式会社,東京都,文京区,湯島３丁目３８番１１号エスパス上野広小路７階,,13,105,1130034,,,,,,,2025-05-08,1,,,,,ジョビン,0
2145,8010001254751,新規,0,2025-05-08,2025-05-08,株式会社アイ・エス・コミュニケーションズ,,株式会社,東京都,千代田区,神田佐久間町３丁目３８番地第５東ビル５階,,13,101,1010025,,,,,,,2025-05-08,1,,,,,アイエスコミュニケーションズ,0
2146,8010001254801,新規,0,2025-05-08,2025-05-08,テックワン株式会社,,株式会社,東京都,千代田区,丸の内２丁目７番２号ＪＰタワー１４階,,13,101,1000005,,,,,,,2025-05-08,1,,,,,テックワン,0
2147,8010001254818,新規,0,2025-05-08,2025-05-08,はばたく株式会社,,株式会社,東京都,中央区,銀座１丁目２２番１１号銀座大竹ビジデンス２階,,13,102,1040061,,,,,,,2025-05-08,1,,,,,ハバタク,0
2148,8010001254875,新規,0,2025-05-08,2025-05-08,株式会社ＫＵＢＯＹＡ,,株式会社,東京都,中央区,日本橋富沢町３－１－７０５,,13,102,1030006,,,,,,,2025-05-08,1,,,,,クボヤ,0
2150,8010003047261,新規,0,2025-05-08,2025-05-08,エニコム合同会社,,合同会社,東京都,中央区,日本橋堀留町２丁目６番１１－２０４号,,13,102,1030012,,,,,,,2025-05-08,1,,,,,エニコム,0
2151,8010003047278,新規,0,2025-05-08,2025-05-08,合同会社ＮＡＩＣベンチャーサポート,,合同会社,東京都,千代田区,一番町９番地８,,13,101,1020082,,,,,,,2025-05-08,1,,,,,ナイクベンチャーサポート,0
2153,8010101016671,新規,0,2025-05-08,2025-05-08,株式会社Ｒｅｂｏｒｎ,,株式会社,東京都,八王子市,川口町４２３番地４,,13,201,1930801,,,,,,,2025-05-08,1,,,,,リボーン,0
2157,8010401190101,新規,0,2025-05-08,2025-05-08,株式会社Ｄｅｓｔｉｎｙ　Ｌｉｎｅ,,株式会社,東京都,港区,高輪２丁目１４番１７号グレイス高輪８Ｆ,,13,103,1080074,,,,,,,2025-05-08,1,,,,,ディスティニーライン,0
2158,8010401190159,新規,0,2025-05-08,2025-05-08,株式会社ライブコマーサー,,株式会社,東京都,港区,虎ノ門１丁目１６番１６号,,13,103,1050001,,,,,,,2025-05-08,1,,,,,ライブコマーサー,0
2159,8010403034999,新規,0,2025-05-08,2025-05-08,Ｍｏｒａｉｎｅ合同会社,,合同会社,東京都,港区,西新橋１丁目１番１号ＥＰコンサルティングサービス内,,13,103,1050003,,,,,,,2025-05-08,1,,,,,モレーン,0
2160,8010403035031,新規,0,2025-05-08,2025-05-08,合同会社ＯＪ,,合同会社,東京都,港区,南青山３丁目１番３６号青山丸竹ビル６Ｆ,,13,103,1070062,,,,,,,2025-05-08,1,,,,,オージェイ,0
2161,8010405024370,新規,0,2025-05-08,2025-05-08,Ｖａｒｅｓｅ一般社団法人,,その他の設立登記法人,東京都,港区,西新橋１丁目１番１号ＥＰコンサルティングサービス内,,13,103,1050003,,,,,,,2025-05-08,1,,,,,ヴァレーゼ,0
2165,8010501054024,新規,0,2025-05-08,2025-05-08,株式会社ノックス,,株式会社,東京都,台東区,根岸３丁目３－１８根岸ハイツ２０８,,13,106,1100003,,,,,,,2025-05-08,1,,,,,ノックス,0
2166,8010503007830,新規,0,2025-05-08,2025-05-08,合同会社Ａｒｃ　Ｃｏｒｐｏｒａｔｉｏｎ,,合同会社,東京都,台東区,東上野３丁目２６番１０号,,13,106,1100015,,,,,,,2025-05-08,1,,,,,アークコーポレーション,0
2190,8011001169139,新規,0,2025-05-08,2025-05-08,株式会社Ｗｏｒｌｄ　Ｃｏｒｅ,,株式会社,東京都,渋谷区,恵比寿西２丁目８番４号ＥＸ恵比寿西ビル５階,,13,113,1500021,,,,,,,2025-05-08,1,,,,,ワールドコア,0
2191,8011001169659,新規,0,2025-05-08,2025-05-08,ＢＲＯＷＳＥ株式会社,,株式会社,東京都,渋谷区,神宮前６丁目２３番４号,,13,113,1500001,,,,,,,2025-05-08,1,,,,,ブローズ,0
2203,8011305003043,新規,0,2025-05-08,2025-05-08,一般社団法人ＴＯＡＳＴ,,その他の設立登記法人,東京都,杉並区,西荻南３丁目６－２,,13,115,1670053,,,,,,,2025-05-08,1,,,,,,0
2204,8011401027078,新規,0,2025-05-08,2025-05-08,Ｊ＆Ｇアドバイザリー株式会社,,株式会社,東京都,板橋区,板橋１丁目３１番８号國府ビル２０１,,13,119,1730004,,,,,,,2025-05-08,1,,,,,ジェイアンドジーアドバイザリー,0
2208,8011603004701,新規,0,2025-05-08,2025-05-08,合同会社ＲＹＯＭＡ,,合同会社,東京都,練馬区,豊玉北５丁目３０番１－４０２号,,13,120,1760012,,,,,,,2025-05-08,1,,,,,リオマ,0
2212,8011701028305,新規,0,2025-05-08,2025-05-08,株式会社エンテルプラス,,株式会社,東京都,江戸川区,瑞江２丁目１番２４号Ｋ３４ビル３０２,,13,123,1320011,,,,,,,2025-05-08,1,,,,,エンテルプラス,0
2213,8011705001893,新規,0,2025-05-08,2025-05-08,一般社団法人Ｓｏｕｎｄ　Ｓｏｕｌｓ協会,,その他の設立登記法人,東京都,江戸川区,北小岩２丁目１３－５フレッシエン－Ｎ１０１号,,13,123,1330051,,,,,,,2025-05-08,1,,,,,サウンドソウルズキョウカイ,0
2217,8011805003451,新規,0,2025-05-08,2025-05-08,一般社団法人銀河市民の会,,その他の設立登記法人,東京都,足立区,江北４丁目２０番２８－２１２号,,13,121,1230872,,,,,,,2025-05-08,1,,,,,ギンガシミンノカイ,0
2218,8012301014364,新規,0,2025-05-08,2025-05-08,アムール株式会社,,株式会社,東京都,町田市,金森東２丁目６番３号,,13,209,1940015,,,,,,,2025-05-08,1,,,,,アムール,0
2219,8012401043057,新規,0,2025-05-08,2025-05-08,株式会社アトリエカルパス,,株式会社,東京都,府中市,宮西町５丁目２３番地の５柿の木コート３０２,,13,206,1830022,,,,,,,2025-05-08,1,,,,,アトリエカルパス,0
2220,8012401043065,新規,0,2025-05-08,2025-05-08,株式会社キャビディーズ,,株式会社,東京都,府中市,本町２丁目３１番地の１３東急ドエル府中ビレジＩＩ７０４,00139056,13,206,1830027,,,,,,,2025-05-08,1,,,,,キャビディーズ,0
2221,8012803003724,新規,0,2025-05-08,2025-05-08,合同会社ＬｙＳ,,合同会社,東京都,国分寺市,本町２丁目２番１０号久世ビルＢ１Ｆ,,13,214,1850012,,,,,,,2025-05-08,1,,,,,リス,0
2226,8013301054210,新規,0,2025-05-08,2025-05-08,株式会社ＰＬＡＮＥＴ　ＭＡＲＫ,,株式会社,東京都,豊島区,池袋２丁目５２番３号ルミナリータワー池袋２１０６号,,13,116,1710014,,,,,,,2025-05-08,1,,,,,プラネットマーク,0
2239,8020001162607,新規,0,2025-05-08,2025-05-08,株式会社石星重工,,株式会社,神奈川県,横浜市旭区,上白根町１３２番１８,,14,112,2410001,,,,,,,2025-05-08,1,,,,,イシホシジュウコウ,0
2240,8020001162714,新規,0,2025-05-08,2025-05-08,株式会社サスダ横浜,,株式会社,神奈川県,横浜市瀬谷区,目黒町６番地６２,,14,114,2460007,,,,,,,2025-05-08,1,,,,,サスダヨコハマ,0
2241,8020001162747,新規,0,2025-05-08,2025-05-08,セニアメディカル株式会社,,株式会社,神奈川県,横浜市中区,太田町５丁目６９－７０１,,14,104,2310011,,,,,,,2025-05-08,1,,,,,セニアメディカル,0
2248,8020003028442,新規,0,2025-05-08,2025-05-08,おまかせドット合同会社,,合同会社,神奈川県,横浜市港南区,日野２丁目９－１１,,14,111,2340051,,,,,,,2025-05-08,1,,,,,オマカセドット,0
2257,8030001166367,新規,0,2025-05-08,2025-05-08,入倉ジュエリー工芸株式会社,,株式会社,埼玉県,蕨市,南町１丁目２１番３号,,11,223,3350003,,,,,,,2025-05-08,1,,,,,イリクラジュエリーコウゲイ,0
2258,8030001166375,新規,0,2025-05-08,2025-05-08,株式会社ａｎｔ,,株式会社,埼玉県,蓮田市,大字井沼１１２５番地６,,11,238,3490135,,,,,,,2025-05-08,1,,,,,アント,0
2259,8030001166391,新規,0,2025-05-08,2025-05-08,株式会社Ｊｅａｎｏｓ,,株式会社,埼玉県,さいたま市大宮区,上小町１４６番地１,,11,103,3300855,,,,,,,2025-05-08,1,,,,,ジーノス,0
2260,8030001166400,新規,0,2025-05-08,2025-05-08,株式会社ミモズカンパニー,,株式会社,埼玉県,さいたま市南区,南浦和２丁目２８番１３－３１６,,11,108,3360017,,,,,,,2025-05-08,1,,,,,ミモズカンパニー,0
2261,8030001166417,新規,0,2025-05-08,2025-05-08,明星株式会社,,株式会社,埼玉県,川口市,青木３丁目２番２６－３号,,11,203,3320031,,,,,,,2025-05-08,1,,,,,メイセイ,0
2264,8030003026718,新規,0,2025-05-08,2025-05-08,ＮＫＢ合同会社,,合同会社,埼玉県,川口市,大字東内野６１１番地の２９,,11,203,3330821,,,,,,,2025-05-08,1,,,,,エヌケービー,0
2268,8040001138695,新規,0,2025-05-08,2025-05-08,株式会社臨,,株式会社,千葉県,千葉市若葉区,加曽利町７６７番地２オレンジサンシャイン２０１号,,12,104,2640017,,,,,,,2025-05-08,1,,,,,リン,0
2277,8070001042911,新規,0,2025-05-08,2025-05-08,株式会社モロダ塗装,,株式会社,群馬県,渋川市,北橘町上箱田１０番地８,,10,208,3770052,,,,,,,2025-05-08,1,,,,,モロダトソウ,0
2279,8080001026921,新規,0,2025-05-08,2025-05-08,静岡環境開発株式会社,,株式会社,静岡県,牧之原市,波津１丁目８１番地,,22,226,4210523,,,,,,,2025-05-08,1,,,,,シズオカカンキョウカイハツ,0
2281,8080101025484,新規,0,2025-05-08,2025-05-08,株式会社ウサミ建創,,株式会社,静岡県,富士宮市,内房１３０７番地,,22,207,4190317,,,,,,,2025-05-08,1,,,,,ウサミケンソウ,0
2286,8090003002812,新規,0,2025-05-08,2025-05-08,ＩＭＩ合同会社,,合同会社,山梨県,甲府市,朝気２丁目１番４号の３,,19,201,4000862,,,,,,,2025-05-08,1,,,,,アイエムアイ,0
2288,8100001038583,新規,0,2025-05-08,2025-05-08,株式会社Ｋｉｚｕｎａ　Ｗｏｒｋｓ,,株式会社,長野県,松本市,梓川倭７番地２９,,20,202,3901701,,,,,,,2025-05-08,1,,,,,キズナワークス,0
2289,8100003008122,新規,0,2025-05-08,2025-05-08,合同会社井出デザインルーム,,合同会社,長野県,佐久市,長土呂８６２番地５,,20,217,3850021,,,,,,,2025-05-08,1,,,,,イデデザインルーム,0
2290,8100003008130,新規,0,2025-05-08,2025-05-08,合同会社マルチ,,合同会社,長野県,中野市,大字竹原８８５番地,,20,211,3830007,,,,,,,2025-05-08,1,,,,,マルチ,0
2291,8110001039234,新規,0,2025-05-08,2025-05-08,株式会社Ｋ‐ウェルド,,株式会社,新潟県,燕市,吉田法花堂３８０番地１,,15,213,9590214,,,,,,,2025-05-08,1,,,,,ケーウェルド,0
2299,8120001274821,新規,0,2025-05-08,2025-05-08,Ｃｒｅｄｉｔ　Ｃｒｅａｔｉｏｎ株式会社,,株式会社,大阪府,大阪市中央区,本町２丁目３－９ＪＰＳ本町ビル５階,,27,128,5410053,,,,,,,2025-05-08,1,,,,,クレジットクリエーション,0
2300,8120001274912,新規,0,2025-05-08,2025-05-08,メビウスリングジャパン株式会社,,株式会社,大阪府,門真市,南野口町５番１号４０１号室,,27,223,5710005,,,,,,,2025-05-08,1,,,,,メビウスリングジャパン,0
2301,8120001275167,新規,0,2025-05-08,2025-05-08,株式会社Ｈ＆Ｉ,,株式会社,大阪府,大阪市中央区,上町１丁目２－２８－２６０４,,27,128,5400005,,,,,,,2025-05-08,1,,,,,エイチアンドアイ,0
2302,8120001275241,新規,0,2025-05-08,2025-05-08,株式会社ヒトプラット,,株式会社,大阪府,大阪市都島区,御幸町２丁目１２番１４号,,27,102,5340012,,,,,,,2025-05-08,1,,,,,ヒトプラット,0
2303,8120001275621,新規,0,2025-05-08,2025-05-08,リュウイツ株式会社,,株式会社,大阪府,大阪市西区,立売堀３丁目７－１６－３０１Ａ,,27,106,5500012,,,,,,,2025-05-08,1,,,,,リュウイツ,0
2305,8120101071607,新規,0,2025-05-08,2025-05-08,株式会社Ｔａｙｌｏｒ,,株式会社,大阪府,泉南市,樽井７丁目２番２４号,,27,228,5900521,,,,,,,2025-05-08,1,,,,,テイラー,0
2306,8120101071615,新規,0,2025-05-08,2025-05-08,株式会社Ｆ．ｉｎｔｉｍｅ,,株式会社,大阪府,堺市南区,桃山台４丁６番５号,,27,145,5900141,,,,,,,2025-05-08,1,,,,,アンティム,0
2307,8120101071623,新規,0,2025-05-08,2025-05-08,株式会社江面工務店,,株式会社,大阪府,堺市北区,八下北４番１９号,,27,146,5918014,,,,,,,2025-05-08,1,,,,,エヅラコウムテン,0
2310,8120103006437,新規,0,2025-05-08,2025-05-08,合同会社エムズ,,合同会社,大阪府,和泉市,箕形町６丁目４番９７号,,27,219,5940042,,,,,,,2025-05-08,1,,,,,エムズ,0
2319,8130001079600,新規,0,2025-05-08,2025-05-08,株式会社大慶,,株式会社,京都府,京都市東山区,泉涌寺東林町３７番地４６,,26,105,6050976,,,,,,,2025-05-08,1,,,,,タイケイ,0
2324,8140001138405,新規,0,2025-05-08,2025-05-08,株式会社Ｂｅａｃｏｎｅｓｔ,,株式会社,兵庫県,西宮市,甲子園口北町１２番５－３１１号,,28,204,6638112,,,,,,,2025-05-08,1,,,,,ビーコンネスト,0
2325,8140001138413,新規,0,2025-05-08,2025-05-08,笹原建物管理株式会社,,株式会社,兵庫県,宝塚市,安倉北３丁目５番３０号,,28,214,6650821,,,,,,,2025-05-08,1,,,,,ササハラタテモノカンリ,0
2327,8140003022020,新規,0,2025-05-08,2025-05-08,合同会社ＭｉｒａｉＸ,,合同会社,兵庫県,神戸市兵庫区,松原通４丁目４番２６－１０１号,,28,105,6520881,,,,,,,2025-05-08,1,,,,,ミライエクス,0
2330,8150003003597,新規,0,2025-05-08,2025-05-08,合同会社ティースタイル,,合同会社,奈良県,北葛城郡王寺町,太子３丁目１１番１２号,,29,425,6360023,,,,,,,2025-05-08,1,,,,,ティースタイル,0
2340,8180001166617,新規,0,2025-05-08,2025-05-08,株式会社イナンル,,株式会社,愛知県,あま市,森６丁目２４－２２,,23,237,4901107,,,,,,,2025-05-08,1,,,,,イナンル,0
2341,8180001166674,新規,0,2025-05-08,2025-05-08,株式会社ＭＳ‐ＰＩＴ,,株式会社,愛知県,名古屋市港区,藤前５丁目５１７番地,,23,111,4550855,,,,,,,2025-05-08,1,,,,,エムエスピット,0
2342,8180001166690,新規,0,2025-05-08,2025-05-08,株式会社インキュベーション,,株式会社,愛知県,名古屋市瑞穂区,瑞穂通７丁目８番地３サンメゾン新瑞橋ゲート７０１号,,23,108,4670806,,,,,,,2025-05-08,1,,,,,インキュベーション,0
2343,8180001166699,新規,0,2025-05-08,2025-05-08,株式会社松岡工業,,株式会社,愛知県,一宮市,奥町字宮東３１番地１－Ｆ号,,23,203,4910201,,,,,,,2025-05-08,1,,,,,マツオカコウギョウ,0
2344,8180001166724,新規,0,2025-05-08,2025-05-08,株式会社大優工業,,株式会社,愛知県,知多市,にしの台２丁目２６２９番地の１コタリィ１０１,,23,224,4780055,,,,,,,2025-05-08,1,,,,,ダイユウコウギョウ,0
2347,8180003028427,新規,0,2025-05-08,2025-05-08,合同会社インクブルーム,,合同会社,愛知県,名古屋市中村区,名駅４丁目２４番５号第２森ビル４０１,,23,105,4500002,,,,,,,2025-05-08,1,,,,,インクブルーム,0
2350,8180005021090,新規,0,2025-05-08,2025-05-08,一般社団法人国際文化福祉交流協会,,その他の設立登記法人,愛知県,名古屋市港区,名港２丁目９番１９号,,23,111,4550037,,,,,,,2025-05-08,1,,,,,コクサイブンカフクシコウリュウキョウカイ,0
2352,8180301039786,新規,0,2025-05-08,2025-05-08,株式会社Ｔ．Ｋ．Ｇａｒａｇｅ,,株式会社,愛知県,蒲郡市,一色町松葉３５番地２,,23,214,4430101,,,,,,,2025-05-08,1,,,,,ティーケーガレージ,0
2354,8180303006561,新規,0,2025-05-08,2025-05-08,合同会社ウォークオン,,合同会社,愛知県,豊橋市,野田町字野田４１番地３,,23,201,4418001,,,,,,,2025-05-08,1,,,,,ウォークオン,0
2355,8190001032207,新規,0,2025-05-08,2025-05-08,株式会社Ｆｌａｔ　Ｆｉｅｌｄ　Ｐａｒｔｎｅｒｓ,,株式会社,三重県,鈴鹿市,白子駅前４５番１０号,,24,207,5100241,,,,,,,2025-05-08,1,,,,,フラットフィールドパートナーズ,0
2360,8200005013762,新規,0,2025-05-08,2025-05-08,一般社団法人ＧＲＡＣＥ　ＧＯＳＰＥＬ　ＣＨＵＲＣＨ　ＪＡＰＡＮ,,その他の設立登記法人,岐阜県,瑞穂市,宝江１８３番地２,,21,216,5010233,,,,,,,2025-05-08,1,,,,,グレースゴスペルチャーチジャパン,0
2362,8230001020900,新規,0,2025-05-08,2025-05-08,株式会社晴天,,株式会社,富山県,富山市,道正３番地１２,,16,201,9318445,,,,,,,2025-05-08,1,,,,,ハレ,0
2364,8240001064888,新規,0,2025-05-08,2025-05-08,株式会社誠エンタープライズ,,株式会社,広島県,広島市南区,西蟹屋４丁目２番１９－７０１号,,34,103,7320804,,,,,,,2025-05-08,1,,,,,マコトエンタープライズ,0
2365,8240001064905,新規,0,2025-05-08,2025-05-08,株式会社広瀬不動産,,株式会社,広島県,福山市,加茂町字北山３９５９番地,,34,207,7202415,,,,,,,2025-05-08,1,,,,,ヒロセフドウサン,0
2366,8240001064913,新規,0,2025-05-08,2025-05-08,株式会社オリゾン,,株式会社,広島県,広島市中区,舟入川口町１４番２３号,,34,101,7300845,,,,,,,2025-05-08,1,,,,,オリゾン,0
2368,8240003007176,新規,0,2025-05-08,2025-05-08,合同会社アートミア,,合同会社,広島県,広島市中区,昭和町３番２６号,,34,101,7300046,,,,,,,2025-05-08,1,,,,,アートミア,0
2370,8250001021104,新規,0,2025-05-08,2025-05-08,株式会社一,,株式会社,山口県,宇部市,大字川上９４７番地１,,35,202,7550084,,,,,,,2025-05-08,1,,,,,イチ,0
2371,8250001021137,新規,0,2025-05-08,2025-05-08,株式会社Ｔｒｉｐｌｅ　Ｃｒｏｗｎ,,株式会社,山口県,山陽小野田市,大字厚狭２２９番地３,,35,216,7570001,,,,,,,2025-05-08,1,,,,,トリプルクラウン,0
2380,8290001109944,新規,0,2025-05-08,2025-05-08,株式会社Ｂ８,,株式会社,福岡県,福岡市南区,若久５丁目３５番２９号,,40,134,8150042,,,,,,,2025-05-08,1,,,,,ビーエイト,0
2382,8290003016775,新規,0,2025-05-08,2025-05-08,合同会社シュシュ,,合同会社,福岡県,福岡市城南区,別府３丁目４番２８－４０４号プランドール別府,,40,136,8140104,,,,,,,2025-05-08,1,,,,,シュシュ,0
2388,8300001014168,新規,0,2025-05-08,2025-05-08,株式会社もちのかみ,,株式会社,佐賀県,武雄市,武雄町大字富岡１２５１９番地１,,41,206,8430024,,,,,,,2025-05-08,1,,,,,モチノカミ,0
2391,8310001019587,新規,0,2025-05-08,2025-05-08,株式会社友栄フロア,,株式会社,長崎県,西彼杵郡長与町,嬉里郷５８６番地,,42,307,8512128,,,,,,,2025-05-08,1,,,,,ユウエイフロア,0
2394,8320001021088,新規,0,2025-05-08,2025-05-08,みどり牛乳東部販売店株式会社,,株式会社,大分県,日田市,田島２丁目１２番８号,,44,204,8770025,,,,,,,2025-05-08,1,,,,,ミドリギュウニュウトウブハンバイテン,0
2395,8330001033173,新規,0,2025-05-08,2025-05-08,株式会社天心海運,,株式会社,熊本県,上天草市,松島町阿村１１６４番地,,43,212,8616101,,,,,,,2025-05-08,1,,,,,テンシンカイウン,0
2400,8350003004930,新規,0,2025-05-08,2025-05-08,ＬＩＦＥｒｅｃｉｐｅ合同会社,,合同会社,宮崎県,宮崎市,吉村町曽師前甲３１７５番地５,,45,201,8800841,,,,,,,2025-05-08,1,,,,,ライフレシピ,0
2402,8360001035126,新規,0,2025-05-08,2025-05-08,株式会社ＯＳＩ,,株式会社,沖縄県,浦添市,牧港２丁目１番３－２０３号コーポレ・セーナ,,47,208,9012131,,,,,,,2025-05-08,1,,,,,オーエスアイ,0
2406,8380003006032,新規,0,2025-05-08,2025-05-08,合同会社サニーサイドアップ,,合同会社,福島県,福島市,佐原字後大木坂１６番地の１,,07,201,9602158,,,,,,,2025-05-08,1,,,,,サニーサイドアップ,0
2407,8390003002385,新規,0,2025-05-08,2025-05-08,合同会社Ｄｅｗａｔｒｅｋ,,合同会社,山形県,鶴岡市,昭和町１０―２５,,06,203,9970027,,,,,,,2025-05-08,1,,,,,デワトレック,0
2412,8410005006646,新規,0,2025-05-08,2025-05-08,農事組合法人かわぐち,,その他の設立登記法人,秋田県,大仙市,太田町川口字千本野１１６番地,,05,212,0191615,,,,,,,2025-05-08,1,,,,,,0
2413,8420001019130,新規,0,2025-05-08,2025-05-08,株式会社マシン商会,,株式会社,青森県,弘前市,大字松木平字松元１０６番地,,02,202,0368126,,,,,,,2025-05-08,1,,,,,マシンショウカイ,0
2415,8420002011813,新規,0,2025-05-08,2025-05-08,有限会社佐々木建業,,有限会社,青森県,つがる市,牛潟町大田光９６番地,,02,209,0383305,,,,,,,2025-05-08,1,,,,,ササキケンギョウ,0
2421,8430001094313,新規,0,2025-05-08,2025-05-08,株式会社エムズ企画,,株式会社,北海道,札幌市豊平区,西岡４９３番地１,,01,105,0620039,,,,,,,2025-05-08,1,,,,,エムズキカク,0
2422,8430001094321,新規,0,2025-05-08,2025-05-08,ＡＬＬＹＮＡＶ　ＪＡＰＡＮ株式会社,,株式会社,北海道,札幌市清田区,真栄四条３丁目１－５,,01,110,0040834,,,,,,,2025-05-08,1,,,,,アリナブジャパン,0
2423,8430001094379,新規,0,2025-05-08,2025-05-08,株式会社テックイトウ,,株式会社,北海道,石狩市,緑苑台東一条２丁目７３番地,,01,235,0613221,,,,,,,2025-05-08,1,,,,,テックイトウ,0
2428,8450003002651,新規,0,2025-05-08,2025-05-08,合同会社Ａｓａｈｉｋａｗａ　Ｒｉｄｅ,,合同会社,北海道,旭川市,六条通７丁目３１－１０日昇ビル２階ゲストハウスアサヒカワライド,,01,204,0700036,,,,,,,2025-05-08,1,,,,,アサヒカワライド,0
2429,8470003002880,新規,0,2025-05-08,2025-05-08,合同会社ＫＳ,,合同会社,香川県,高松市,上林町３４５番地１ビーンズヒルＤ棟Ｄ１０１,,37,201,7610302,,,,,,,2025-05-08,1,,,,,,0
2431,8480005007092,新規,0,2025-05-08,2025-05-08,特定非営利活動法人柴田育英会,,その他の設立登記法人,徳島県,吉野川市,鴨島町鴨島字大北６８４番地４,,36,205,7760010,,,,,,,2025-05-08,1,,,,,シバアチクエイカイ,0
2434,8700150130320,新規,0,2025-05-08,2025-05-08,Ｐｒａｅｓｔｏ　ＬＬＣ,,外国会社等,,,,,,,,１５５５　Ｗ　Ｄｏｍｅ　Ｒｏｃｋ　Ｒｄ　ＱＵＡＲＴＺＳＩＴＥ　ＡＺ　８５３４６　ＵＳ,,,,,,2025-05-08,1,,,,,プレストリミテッドライアビリティカンパニー,0
2451,9010001254445,新規,0,2025-05-08,2025-05-08,マンリーテックジャパン株式会社,,株式会社,東京都,千代田区,丸の内３丁目２－２丸の内二重橋ビル２階,,13,101,1000005,,,,,,,2025-05-08,1,,,,,,0
2452,9010001254734,新規,0,2025-05-08,2025-05-08,株式会社ＪＰＮ,,株式会社,東京都,文京区,本郷５丁目３３番１０号,,13,105,1130033,,,,,,,2025-05-08,1,,,,,ジェーピーエヌ,0
2453,9010001254825,新規,0,2025-05-08,2025-05-08,株式会社ＹＵＺＵ　ＪＡＰＡＮ,,株式会社,東京都,千代田区,一ツ橋１丁目１番１号,,13,101,1000003,,,,,,,2025-05-08,1,,,,,ユズジャパン,0
2458,9010003047269,新規,0,2025-05-08,2025-05-08,合同会社安藤企画,,合同会社,東京都,文京区,小石川２丁目１番１３－１１０４号,,13,105,1120002,,,,,,,2025-05-08,1,,,,,アンドウキカク,0
2459,9010003047277,新規,0,2025-05-08,2025-05-08,合同会社ＰＧＮＣ１号,,合同会社,東京都,千代田区,一番町９番地８,,13,101,1020082,,,,,,,2025-05-08,1,,,,,ピージーエヌシーイチゴウ,0
2464,9010401189992,新規,0,2025-05-08,2025-05-08,株式会社ＰＲＯＤＵＣＴ　ＢＡＳＥ,,株式会社,東京都,港区,南青山３丁目１番３６号青山丸竹ビル６Ｆ,,13,103,1070062,,,,,,,2025-05-08,1,,,,,プロダクトベース,0
2465,9010401190001,新規,0,2025-05-08,2025-05-08,株式会社八鴻ホールディングス,,株式会社,東京都,港区,赤坂４丁目１番４号堀江ビル４０１,,13,103,1070052,,,,,,,2025-05-08,1,,,,,ヤコウホールディングス,0
2466,9010401190067,新規,0,2025-05-08,2025-05-08,株式会社フロントセンシング,,株式会社,東京都,港区,北青山１丁目３－３三橋ビル３階,,13,103,1070061,,,,,,,2025-05-08,1,,,,,フロントセンシング,0
2467,9010401190075,新規,0,2025-05-08,2025-05-08,ＴＲ＆Ｙ株式会社,,株式会社,東京都,港区,白金１丁目２－２白金ザ・スカイウエストＷ１６１２,,13,103,1080072,,,,,,,2025-05-08,1,,,,,ティーアールアンドワイ,0
2468,9010401190232,新規,0,2025-05-08,2025-05-08,株式会社Ｕｎｌｏｃｋ　Ｐａｒｔｎｅｒｓ,,株式会社,東京都,港区,南青山３丁目１番３６号青山丸竹ビル６Ｆ,,13,103,1070062,,,,,,,2025-05-08,1,,,,,アンロックパートナーズ,0
2473,9010403034973,新規,0,2025-05-08,2025-05-08,しいる合同会社,,合同会社,東京都,港区,白金台３丁目３番５号,,13,103,1080071,,,,,,,2025-05-08,1,,,,,シイル,0
2474,9010403034998,新規,0,2025-05-08,2025-05-08,Ｔｅｒｍｉｎｏｓ合同会社,,合同会社,東京都,港区,西新橋１丁目１番１号ＥＰコンサルティングサービス内,,13,103,1050003,,,,,,,2025-05-08,1,,,,,テルミノス,0
2475,9010403035022,新規,0,2025-05-08,2025-05-08,岩間合同会社,,合同会社,東京都,港区,芝２丁目２番１５号,,13,103,1050014,,,,,,,2025-05-08,1,,,,,イワマ,0
2476,9010403035030,新規,0,2025-05-08,2025-05-08,合同会社人工知能防災研究所,,合同会社,東京都,港区,三田１丁目１１番２２号２１１,,13,103,1080073,,,,,,,2025-05-08,1,,,,,ジンコウチノウボウサイケンキュウジョ,0
2481,9010601067271,新規,0,2025-05-08,2025-05-08,株式会社Ｕ＆Ｉ,,株式会社,東京都,墨田区,江東橋４丁目１３番１４号,,13,107,1300022,,,,,,,2025-05-08,1,,,,,ユーアンドアイ,0
2487,9010901057261,新規,0,2025-05-08,2025-05-08,株式会社ＳＴＹＬＥ　ＬＩＮＫ,,株式会社,東京都,世田谷区,玉川４丁目５番５号フィールド２５－３０５,,13,112,1580094,,,,,,,2025-05-08,1,,,,,スタイルリンク,0
2499,9011103015883,新規,0,2025-05-08,2025-05-08,合同会社ＨＮ,,合同会社,東京都,新宿区,北新宿４丁目１２番４－６０１号,,13,104,1690074,,,,,,,2025-05-08,1,,,,,エイチエヌ,0
2507,9011701028312,新規,0,2025-05-08,2025-05-08,株式会社オフィスケー,,株式会社,東京都,江戸川区,西瑞江３丁目５番地１０ドエル１０７,,13,123,1320015,,,,,,,2025-05-08,1,,,,,オフィスケー,0
2508,9011703004229,新規,0,2025-05-08,2025-05-08,華福合同会社,,合同会社,東京都,江戸川区,西小岩１丁目３０番８号第２中正ビル５０５号室,,13,123,1330057,,,,,,,2025-05-08,1,,,,,カフク,0
2510,9011801046073,新規,0,2025-05-08,2025-05-08,拓普株式会社,,株式会社,東京都,足立区,栗原３丁目２２番１号,,13,121,1230842,,,,,,,2025-05-08,1,,,,,タクフ,0
2513,9011803006819,新規,0,2025-05-08,2025-05-08,合同会社インクルーシブラボラトリー,,合同会社,東京都,足立区,一ツ家４丁目１４－８メンバーズヒル一ツ家Ｆ２,,13,121,1210075,,,,,,,2025-05-08,1,,,,,インクルーシブラボラトリー,0
2515,9012301014363,新規,0,2025-05-08,2025-05-08,ＫＢＣ　ｐｒｏｐｅｒｔｙ株式会社,,株式会社,東京都,町田市,南成瀬６丁目２０番地１３,,13,209,1940045,,,,,,,2025-05-08,1,,,,,ケービーシープロパティー,0
2518,9012701018848,新規,0,2025-05-08,2025-05-08,Ｄｉｍｅｎｓｉｏｎ株式会社,,株式会社,東京都,小平市,小川町２丁目１３０２番地２サンクレスト８１２、１０３号室,,13,211,1870032,,,,,,,2025-05-08,1,,,,,ディメンション,0
2520,9012803003731,新規,0,2025-05-08,2025-05-08,合同会社ウチデノカンパニー,,合同会社,東京都,武蔵村山市,三ツ木１丁目５５－２、１Ｆ,,13,223,2080032,,,,,,,2025-05-08,1,,,,,ウチデノカンパニー,0
2527,9020001162705,新規,0,2025-05-08,2025-05-08,株式会社ＳＹ２,,株式会社,神奈川県,横浜市港南区,日限山１丁目６０番４２号,,14,111,2330015,,,,,,,2025-05-08,1,,,,,エスワイツー,0
2528,9020001162779,新規,0,2025-05-08,2025-05-08,Ｃｏｎｖｅｒｓａｔｉｏｎｓ株式会社,,株式会社,神奈川県,横浜市磯子区,森１丁目１２番７－１００６号,,14,107,2350023,,,,,,,2025-05-08,1,,,,,カンバセーションズ,0
2531,9020003028425,新規,0,2025-05-08,2025-05-08,合同会社ＪＡＸＹＡ,,合同会社,神奈川県,横浜市中区,長者町５丁目７１番地２ＫｙＭａｘビル５０４号室,,14,104,2310033,,,,,,,2025-05-08,1,,,,,ジャクシャ,0
2532,9020005016832,新規,0,2025-05-08,2025-05-08,一般社団法人ＡＷＡＺＵ　ＨＯＵＳＥ　ＡＲＴ　ＣＥＮＴＥＲ,,その他の設立登記法人,神奈川県,川崎市多摩区,南生田１丁目５番２４号,,14,135,2140036,,,,,,,2025-05-08,1,,,,,アワヅハウスアートセンター,0
2535,9021001085128,新規,0,2025-05-08,2025-05-08,株式会社山本商事,,株式会社,神奈川県,綾瀬市,寺尾本町１丁目１８番２２号,,14,218,2521133,,,,,,,2025-05-08,1,,,,,ヤマモトショウジ,0
2547,9030001166390,新規,0,2025-05-08,2025-05-08,株式会社カンデスキー,,株式会社,埼玉県,本庄市,緑１丁目１２番１３号,,11,211,3670043,,,,,,,2025-05-08,1,,,,,カンデスキー,0
2548,9030001166416,新規,0,2025-05-08,2025-05-08,株式会社ＪＧＩ,,株式会社,埼玉県,川口市,江戸袋１丁目３０番９号,,11,203,3340075,,,,,,,2025-05-08,1,,,,,ジェイジーアイ,0
2549,9030001166432,新規,0,2025-05-08,2025-05-08,株式会社宮下建設,,株式会社,埼玉県,さいたま市西区,大字西遊馬１６７２番地,,11,101,3310061,,,,,,,2025-05-08,1,,,,,ミヤシタケンセツ,0
2550,9030001166449,新規,0,2025-05-08,2025-05-08,創有株式会社,,株式会社,埼玉県,川口市,西青木４丁目１－２９若葉ハイツ２０１,,11,203,3320035,,,,,,,2025-05-08,1,,,,,ソウユウ,0
2556,9030003026709,新規,0,2025-05-08,2025-05-08,合同会社ＹＭＫ,,合同会社,埼玉県,熊谷市,御正新田３４５番地,,11,202,3600113,,,,,,,2025-05-08,1,,,,,ワイエムケイ,0
2558,9030005022160,新規,0,2025-05-08,2025-05-08,一般社団法人６月の花,,その他の設立登記法人,埼玉県,川口市,金山町１２番１－８１２号,,11,203,3320014,,,,,,,2025-05-08,1,,,,,ロクガツノハナ,0
2561,9040001138430,新規,0,2025-05-08,2025-05-08,株式会社ルセットブラン,,株式会社,千葉県,柏市,若柴１７８番地４柏の葉キャンパス１４８街区１パークシティ柏の葉キャンパスザ・ゲートタワーウェスト３階Ｖ１３７,,12,217,2770871,,,,,,,2025-05-08,1,,,,,ルセットブラン,0
2571,9060003005536,新規,0,2025-05-08,2025-05-08,合同会社コア・アクシス,,合同会社,栃木県,真岡市,荒町１０３９－１,,09,209,3214305,,,,,,,2025-05-08,1,,,,,コアアクシク,0
2579,9080101025483,新規,0,2025-05-08,2025-05-08,株式会社ＦＵＪＩアセットマネジメント,,株式会社,静岡県,富士市,今泉３４９５番地の１,,22,210,4170001,,,,,,,2025-05-08,1,,,,,フジアセットマネジメント,0
2580,9080103003306,新規,0,2025-05-08,2025-05-08,合同会社カツマタ,,合同会社,静岡県,駿東郡長泉町,下土狩４３３－１,,22,342,4110943,,,,,,,2025-05-08,1,,,,,カツマタ,0
2581,9080103003314,新規,0,2025-05-08,2025-05-08,合同会社ＬＩＮＫ,,合同会社,静岡県,駿東郡長泉町,南一色１６８番地の１４,,22,342,4110932,,,,,,,2025-05-08,1,,,,,リンク,0
2596,9090001019246,新規,0,2025-05-08,2025-05-08,株式会社セレクトシステム,,株式会社,山梨県,南アルプス市,小笠原１７７番地,,19,208,4000306,,,,,,,2025-05-08,1,,,,,セレクトシステム,0
2598,9100001038541,新規,0,2025-05-08,2025-05-08,株式会社ＯＭＩ,,株式会社,長野県,佐久市,長土呂１９２－１エクセレンスＺ１０００Ｒ、Ｒ２－１０１,,20,217,3850021,,,,,,,2025-05-08,1,,,,,オミ,0
2599,9100003008138,新規,0,2025-05-08,2025-05-08,合同会社こいちファーム,,合同会社,長野県,中野市,大字西条４２４番地１,,20,211,3830042,,,,,,,2025-05-08,1,,,,,コイチファーム,0
2609,9120001275166,新規,0,2025-05-08,2025-05-08,セイホウＴＥＣ株式会社,,株式会社,大阪府,大阪市中央区,平野町１丁目６－８メロディーハイム平野町６０６,,27,128,5410046,,,,,,,2025-05-08,1,,,,,セイホウテック,0
2610,9120003029297,新規,0,2025-05-08,2025-05-08,ウィズウッド川西合同会社,,合同会社,大阪府,大阪市中央区,北浜１丁目１番１４号,,27,128,5410041,,,,,,,2025-05-08,1,,,,,ウィズウッドカワニシ,0
2611,9120003029322,新規,0,2025-05-08,2025-05-08,合同会社ウェルフェア谷町４ケアーセンター,,合同会社,大阪府,大阪市西淀川区,花川２丁目１６番１８号,,27,113,5550023,,,,,,,2025-05-08,1,,,,,ウェルフェアタニマチヨンケアーセンター,0
2612,9120005024924,新規,0,2025-05-08,2025-05-08,一般社団法人ぎんのあかり,,その他の設立登記法人,大阪府,大阪市阿倍野区,阪南町５丁目２３－１５西田辺林ビル３０２号,,27,119,5450021,,,,,,,2025-05-08,1,,,,,ギンノアカリ,0
2613,9120101071606,新規,0,2025-05-08,2025-05-08,株式会社和敬ネスト,,株式会社,大阪府,堺市東区,白鷺町３丁２８番１３号,,27,143,5998107,,,,,,,2025-05-08,1,,,,,ワケイネスト,0
2614,9120101071614,新規,0,2025-05-08,2025-05-08,梅鉢工房株式会社,,株式会社,大阪府,岸和田市,上松町６５１番地の１０,,27,202,5960827,,,,,,,2025-05-08,1,,,,,ウメバチコウボウ,0
2615,9120101071639,新規,0,2025-05-08,2025-05-08,株式会社Ａｎａｚｉｔｔｉ工房,,株式会社,大阪府,堺市堺区,戎島町２丁５３番地１キッコービル３０２号室,,27,141,5900985,,,,,,,2025-05-08,1,,,,,アナゼィティコウボウ,0
2617,9120103006436,新規,0,2025-05-08,2025-05-08,合同会社Ｒｅｓｔａｒｔ,,合同会社,大阪府,貝塚市,半田４６番地２,,27,208,5970033,,,,,,,2025-05-08,1,,,,,リスタート,0
2621,9120901050825,新規,0,2025-05-08,2025-05-08,Ｙ’ｓエージェント株式会社,,株式会社,大阪府,豊中市,新千里東町３丁目３番２５－８０７号,,27,203,5600082,,,,,,,2025-05-08,1,,,,,ワイズエージェント,0
2622,9120903005645,新規,0,2025-05-08,2025-05-08,合同会社タイディー,,合同会社,大阪府,茨木市,学園南町２０番１３号,,27,211,5670834,,,,,,,2025-05-08,1,,,,,タイディー,0
2625,9122001039187,新規,0,2025-05-08,2025-05-08,株式会社明輝製作所,,株式会社,大阪府,東大阪市,御厨西ノ町２丁目１番２４号,,27,227,5770037,,,,,,,2025-05-08,1,,,,,メイキセイサクショ,0
2631,9130001079599,新規,0,2025-05-08,2025-05-08,株式会社ＫｏＡ企画,,株式会社,京都府,京都市左京区,下鴨狗子田町１０番地の７,,26,103,6060834,,,,,,,2025-05-08,1,,,,,コアキカク,0
2632,9130001079608,新規,0,2025-05-08,2025-05-08,Ｓ＆Ｃ　Ｔｅｃｈ株式会社,,株式会社,京都府,京都市右京区,太秦蜂岡町１０番地２３イニシア京都太秦５０５,,26,108,6168162,,,,,,,2025-05-08,1,,,,,エスアンドシーテック,0
2633,9130001079632,新規,0,2025-05-08,2025-05-08,株式会社アイ・テクノロジー,,株式会社,京都府,京都市伏見区,向島立河原町５９番地１９,,26,109,6128123,,,,,,,2025-05-08,1,,,,,アイテクノロジー,0
2636,9140001138437,新規,0,2025-05-08,2025-05-08,山崎建設興業株式会社,00139044,株式会社,兵庫県,神戸市長田区,五番町２丁目６番地の１９,,28,106,6530003,,,,,,,2025-05-08,1,,,,,ヤマサキケンセツコウギョウ,0
2654,9180001166657,新規,0,2025-05-08,2025-05-08,株式会社大和,,株式会社,愛知県,一宮市,多加木２丁目２３番８号,,23,203,4910837,,,,,,,2025-05-08,1,,,,,ヤマト,0
2655,9180001166698,新規,0,2025-05-08,2025-05-08,株式会社知多測量,,株式会社,愛知県,知多郡武豊町,字梨子ノ木１丁目１３番地,,23,447,4702309,,,,,,,2025-05-08,1,,,,,チタソクリョウ,0
2656,9180001166723,新規,0,2025-05-08,2025-05-08,株式会社ＷＩＮＧ,,株式会社,愛知県,知多市,にしの台４丁目２０番地の１ヴィレッジにしの台２０６,,23,224,4780055,,,,,,,2025-05-08,1,,,,,ウイング,0
2657,9180001166731,新規,0,2025-05-08,2025-05-08,株式会社ユティルビー,,株式会社,愛知県,名古屋市中村区,名駅４丁目２７ミュークスビル７階エマノン名古屋店５番,,23,105,4500002,,,,,,,2025-05-08,1,,,,,ユティルビー,0
2658,9180003028450,新規,0,2025-05-08,2025-05-08,合同会社ｐｅａｃｅ　ｏｆ　ｍｉｎｄ,,合同会社,愛知県,海部郡大治町,大字東條字高松５０番地の１ハートインＹＡＳＵＩ３Ｃ,,23,424,4901134,,,,,,,2025-05-08,1,,,,,ピースオブマインド,0
2660,9180301039769,新規,0,2025-05-08,2025-05-08,株式会社マルナカ塗装,,株式会社,愛知県,豊橋市,野依町字東新谷２７番地１０,,23,201,4418124,,,,,,,2025-05-08,1,,,,,マルナカトソウ,0
2668,9200001043762,新規,0,2025-05-08,2025-05-08,株式会社リニココ,,株式会社,岐阜県,大垣市,和合本町２丁目７０番地３,,21,202,5030005,,,,,,,2025-05-08,1,,,,,リニココ,0
2671,9210001020158,新規,0,2025-05-08,2025-05-08,株式会社Ｓｔｒａｔｅｇｉｓｔ,,株式会社,福井県,大飯郡おおい町,大島５１－２１,,18,483,9192101,,,,,,,2025-05-08,1,,,,,ストラテジスト,0
2678,9240001064887,新規,0,2025-05-08,2025-05-08,株式会社原田工業,,株式会社,広島県,尾道市,向東町３５３１番地１０,,34,205,7220062,,,,,,,2025-05-08,1,,,,,ハラダコウギョウ,0
2679,9240001064912,新規,0,2025-05-08,2025-05-08,株式会社ＹＡＮＯ,,株式会社,広島県,広島市南区,丹那町４９番４号,,34,103,7340034,,,,,,,2025-05-08,1,,,,,,0
2681,9250001021136,新規,0,2025-05-08,2025-05-08,株式会社翔志工業,,株式会社,山口県,下関市,王司神田５丁目１番８号,,35,201,7520911,,,,,,,2025-05-08,1,,,,,ショウシコウギョウ,0
2682,9250001021144,新規,0,2025-05-08,2025-05-08,株式会社真田炉工,,株式会社,山口県,山口市,小郡花園町１番１２号,,35,203,7540022,,,,,,,2025-05-08,1,,,,,サナダロコウ,0
2687,9260003005169,新規,0,2025-05-08,2025-05-08,合同会社あおもん,,合同会社,岡山県,小田郡矢掛町,東三成３５７１番地,,33,461,7141211,,,,,,,2025-05-08,1,,,,,アオモン,0
2690,9290001109902,新規,0,2025-05-08,2025-05-08,華栄国際株式会社,,株式会社,福岡県,福岡市東区,香椎照葉７丁目９番４号,,40,131,8130017,,,,,,,2025-05-08,1,,,,,カエイコクサイ,0
2697,9290003016782,新規,0,2025-05-08,2025-05-08,ＳＡＭＵＲＡＩ　ＬＡＢＥＬ合同会社,,合同会社,福岡県,福岡市中央区,天神４丁目６番２８号天神ＦＩＲＳＴＢＬＤＧ７Ｆ,,40,133,8100001,,,,,,,2025-05-08,1,,,,,サムライレーベル,0
2703,9300005007241,新規,0,2025-05-08,2025-05-08,一般社団法人日本ＯＳＡＴ連合会,,その他の設立登記法人,佐賀県,神埼郡吉野ヶ里町,立野９５０番地,,41,327,8420032,,,,,,,2025-05-08,1,,,,,ニホンオーサットレンゴウカイ,0
2704,9310001019586,新規,0,2025-05-08,2025-05-08,株式会社Ｇｕａｒｄｉａｎ長崎,,株式会社,長崎県,諫早市,西郷町１３５番地１,,42,204,8540044,,,,,,,2025-05-08,1,,,,,ガーディアンナガサキ,0
2706,9310003005007,新規,0,2025-05-08,2025-05-08,ＭＹＴＵＡＮ合同会社,,合同会社,長崎県,長崎市,元船町７番７号Ｋ２ビル１０２号,,42,201,8500035,,,,,,,2025-05-08,1,,,,,ミトン,0
2708,9320003004651,新規,0,2025-05-08,2025-05-08,合同会社ＢＡＮＳＯＵ,,合同会社,大分県,大分市,高松１丁目７番８号サンメゾン高城１０１－３号室,,44,201,8700917,,,,,,,2025-05-08,1,,,,,バンソウ,0
2709,9320005010243,新規,0,2025-05-08,2025-05-08,一般社団法人フリースクールあさひ,,その他の設立登記法人,大分県,日田市,大字小迫１３０１番地,,44,204,8770000,,,,,,,2025-05-08,1,,,,,フリースクールアサヒ,0
2710,9330001033172,新規,0,2025-05-08,2025-05-08,株式会社ＮＩＣＯ,,株式会社,熊本県,熊本市中央区,上通町５番２０－２１０号,,43,101,8600845,,,,,,,2025-05-08,1,,,,,ニコ,0
2711,9340003004848,新規,0,2025-05-08,2025-05-08,カイモンタウン合同会社,,合同会社,鹿児島県,指宿市,開聞仙田２５６３番地,,46,210,8910604,,,,,,,2025-05-08,1,,,,,カイモンタウン,0
2712,9350001019517,新規,0,2025-05-08,2025-05-08,Ｙ’Ｓ　ＧＡＲＡＧＥ株式会社,,株式会社,宮崎県,延岡市,粟野名町１９４５番地１,,45,203,8820025,,,,,,,2025-05-08,1,,,,,ワイズガレージ,0
2713,9360001035125,新規,0,2025-05-08,2025-05-08,株式会社ＬＩＮＸ,,株式会社,沖縄県,那覇市,松山２丁目１２番７号Ｉ．Ｓビル４Ａ,,47,201,9000032,,,,,,,2025-05-08,1,,,,,リンクス,0
2724,9400005008493,新規,0,2025-05-08,2025-05-08,税理士法人インディシー,,その他の設立登記法人,岩手県,盛岡市,本宮６丁目２番８号,,03,201,0200866,,,,,,,2025-05-08,1,,,,,インディシー,0
2726,9420001019121,新規,0,2025-05-08,2025-05-08,株式会社權之丞,,株式会社,青森県,弘前市,大字松木平字松元１４０番地,,02,202,0368126,,,,,,,2025-05-08,1,,,,,ゴンノジョウ,0
2734,9430001094320,新規,0,2025-05-08,2025-05-08,株式会社ソンドンＣＯＭＰＡＮＹ,,株式会社,北海道,千歳市,北栄２丁目１６番１６号,,01,224,0660036,,,,,,,2025-05-08,1,,,,,ソンドンカンパニー,0
2739,9450001014615,新規,0,2025-05-08,2025-05-08,アグリファーム高橋株式会社,00139050,株式会社,北海道,上川郡当麻町,緑郷１区,,01,454,0781335,,,,,,,2025-05-08,1,,,,,アグリファームタカハシ,0
2743,9460103001709,新規,0,2025-05-08,2025-05-08,納畜産合同会社,,合同会社,北海道,中川郡池田町,字千代田６７９番地の９,,01,644,0830042,,,,,,,2025-05-08,1,,,,,オサメチクサン,0
2744,9480001012822,新規,0,2025-05-08,2025-05-08,株式会社ｓｕｇａｒ,,株式会社,徳島県,徳島市,新浜本町３丁目６番３５－９号,,36,201,7708007,,,,,,,2025-05-08,1,,,,,シュガー,0
2746,9490001011039,新規,0,2025-05-08,2025-05-08,株式会社とさもん,,株式会社,高知県,土佐市,高岡町乙３５２０番地１３,,39,205,7811102,,,,,,,2025-05-08,1,,,,,トサモン,0
2749,9500001026266,新規,0,2025-05-08,2025-05-08,株式会社ネクステラ,,株式会社,愛媛県,新居浜市,坂井町１丁目３番３３号,,38,205,7920812,,,,,,,2025-05-08,1,,,,,ネクステラ,0
2757,9700150130352,新規,0,2025-05-08,2025-05-08,ＳＴＡＮＤＡＲＤ　ＴＲＡＤＩＮＧ,,外国会社等,神奈川県,綾瀬市,吉岡１７４５－１,,14,218,2521124,スリランカ民主社会主義共和国、ＮＯ．１５５／１／６、ビューティーアーカード、メインストリート、コロンボ,,,,,,2025-05-08,1,,,,,スタンダードトレーデイング,0
