sequenceNumber,corporateNumber,process,correct,updateDate,changeDate,name,nameImageId,kind,prefectureName,cityName,streetNumber,addressImageId,prefectureCode,cityCode,postCode,addressOutside,addressOutsideImageId,closeDate,closeCause,successorCorporateNumber,changeCause,assignmentDate,latest,enName,enPrefectureName,enCityName,enAddressOutside,furigana,hihyoji
6,1010001256630,新規,0,2025-07-09,2025-07-09,株式会社ＴＥＡＭ　ＭＴＲ,,株式会社,東京都,中央区,銀座６丁目１３番１６号銀座ＷａｌｌビルＵＣＦ５階,,13,102,1040061,,,,,,,2025-07-09,1,,,,,チームエムティーアール,0
7,1010001256663,新規,0,2025-07-09,2025-07-09,ａｓｓｅｔｍｏｌｅ株式会社,,株式会社,東京都,中央区,銀座２丁目１４番４号ＧＩＮＺＡＳＱＵＡＲＥ１階,,13,102,1040061,,,,,,,2025-07-09,1,,,,,アセットモール,0
8,1010003047895,新規,0,2025-07-09,2025-07-09,ＧＳＩ　Ｈａｋｏｄａｔｅ合同会社,,合同会社,東京都,中央区,日本橋１丁目４番１号日本橋一丁目ビルディング,,13,102,1030027,,,,,,,2025-07-09,1,,,,,ジーエスアイハコダテ,0
9,1010003047961,新規,0,2025-07-09,2025-07-09,合同会社くるみ堂,,合同会社,東京都,中央区,銀座１丁目１２－４Ｎ＆ＥＢＬＤ．７階,,13,102,1040061,,,,,,,2025-07-09,1,,,,,クルミドウ,0
10,1010003047986,新規,0,2025-07-09,2025-07-09,合同会社Ｂ．Ｕ．Ｓｙｓｔｅｍｓ,,合同会社,東京都,中央区,勝どき１丁目１３番６－３７０８号,,13,102,1040054,,,,,,,2025-07-09,1,,,,,ビーユーシステムズ,0
15,1010403035491,新規,0,2025-07-09,2025-07-09,ＡＹＵ　ＣＯＭＰＡＮＹ合同会社,,合同会社,東京都,港区,西麻布４丁目１０番１８号,,13,103,1060031,,,,,,,2025-07-09,1,,,,,アユカンパニー,0
18,1010501054352,新規,0,2025-07-09,2025-07-09,株式会社オフィスＧＥＮＫＹ,,株式会社,東京都,台東区,浅草橋４丁目２０番６－３０４号,,13,106,1110053,,,,,,,2025-07-09,1,,,,,オフィスゲンキー,0
30,1010903010060,新規,0,2025-07-09,2025-07-09,ＫＳアセスメンツ合同会社,,合同会社,東京都,世田谷区,深沢２丁目１番１３－１１０６号,,13,112,1580081,,,,,,,2025-07-09,1,,,,,ケイエスアセスメンツ,0
31,1011001170615,新規,0,2025-07-09,2025-07-09,株式会社ＨＡＰＰＹ,,株式会社,東京都,渋谷区,神宮前２丁目３１－１,,13,113,1500001,,,,,,,2025-07-09,1,,,,,ハッピー,0
32,1011001170805,新規,0,2025-07-09,2025-07-09,株式会社Ｅｌｐｉｓ,,株式会社,東京都,目黒区,下目黒１丁目１番１４号コノトラビル７Ｆ,,13,110,1530064,,,,,,,2025-07-09,1,,,,,エルピス,0
35,1011101112426,新規,0,2025-07-09,2025-07-09,株式会社Ｓ＆Ｒ,,株式会社,東京都,新宿区,弁天町１番富山ハイム１０２,,13,104,1620851,,,,,,,2025-07-09,1,,,,,エスアンドアール,0
41,1011403004742,新規,0,2025-07-09,2025-07-09,一栗合同会社,,合同会社,東京都,板橋区,小豆沢４丁目２７－１１兆豊小豆沢ビル４０４号室,,13,119,1740051,,,,,,,2025-07-09,1,,,,,イチクリ,0
43,1011601028782,新規,0,2025-07-09,2025-07-09,株式会社ＢＤ＆Ｓ,,株式会社,東京都,練馬区,関町南１丁目９番４５－３０９号,,13,120,1770053,,,,,,,2025-07-09,1,,,,,ビーディーアンドエス,0
49,1011801046411,新規,0,2025-07-09,2025-07-09,ＳＵＮ３ＳＨＯＷＥＲ株式会社,,株式会社,東京都,足立区,綾瀬１丁目３３－７ラ・スール３０１,,13,121,1200005,,,,,,,2025-07-09,1,,,,,サンサンサンシャワー,0
53,1011803006958,新規,0,2025-07-09,2025-07-09,合同会社ＯＭＯＴＥ,,合同会社,東京都,足立区,梅田２丁目１番３号ウィルローズ梅島ブリオ１００２号室,,13,121,1230851,,,,,,,2025-07-09,1,,,,,オモテ,0
55,1012301014461,新規,0,2025-07-09,2025-07-09,株式会社ＰＲＥＶＥＮＴＩＯＮ,,株式会社,東京都,町田市,玉川学園３丁目２６番９号,,13,209,1940041,,,,,,,2025-07-09,1,,,,,プリヴェンション,0
56,1012403007231,新規,0,2025-07-09,2025-07-09,合同会社湊座,,合同会社,東京都,小金井市,東町５丁目１８番２０号,,13,210,1840011,,,,,,,2025-07-09,1,,,,,ミナトザ,0
60,1012701018970,新規,0,2025-07-09,2025-07-09,株式会社ＳｏｌＳｔｅｌｌａ,,株式会社,東京都,西東京市,谷戸町３丁目１６―５,,13,229,1880001,,,,,,,2025-07-09,1,,,,,ソルステラ,0
63,1013303007750,新規,0,2025-07-09,2025-07-09,ＡＬＬ　ＩＮ　ＯＮＥ合同会社,,合同会社,東京都,豊島区,池袋本町１丁目３４－１１メゾン長谷川１０２号室,,13,116,1700011,,,,,,,2025-07-09,1,,,,,アルインワヌ,0
64,1013303007759,新規,0,2025-07-09,2025-07-09,合同会社ＣＹＮＱ,,合同会社,東京都,豊島区,池袋２丁目５４－２－６０１,,13,116,1710014,,,,,,,2025-07-09,1,,,,,シンク,0
69,1020001163751,新規,0,2025-07-09,2025-07-09,株式会社バルクワークス,,株式会社,神奈川県,横浜市青葉区,あざみ野１丁目４－１２－３０２,,14,117,2250011,,,,,,,2025-07-09,1,,,,,バルクワークス,0
73,1020003028886,新規,0,2025-07-09,2025-07-09,合同会社イノキャリア,,合同会社,神奈川県,横浜市西区,浅間町１丁目４番３号ウィザードビル４０２,,14,103,2200072,,,,,,,2025-07-09,1,,,,,イノキャリア,0
74,1020003028911,新規,0,2025-07-09,2025-07-09,合同会社ＲｅＸ　Ｃｏｒｐ　Ｇｌｏｂａｌ,,合同会社,神奈川県,川崎市川崎区,駅前本町１１番地２川崎フロンティアビル４階,,14,131,2100007,,,,,,,2025-07-09,1,,,,,レックスコープグローバル,0
91,1030001167487,新規,0,2025-07-09,2025-07-09,株式会社ＭＡ管工,,株式会社,埼玉県,八潮市,大字木曽根１２８３番地６,,11,234,3400813,,,,,,,2025-07-09,1,,,,,エムエーカンコウ,0
92,1030001167495,新規,0,2025-07-09,2025-07-09,株式会社Ｉｎ　Ｓｅｃｏｎｄｓ,,株式会社,埼玉県,さいたま市北区,吉野町２丁目２２０番地６１,,11,102,3310811,,,,,,,2025-07-09,1,,,,,インセカンズ,0
93,1030001167553,新規,0,2025-07-09,2025-07-09,株式会社Ｗｏｖｉ,,株式会社,埼玉県,川口市,大字芝６３０６－１２,,11,203,3330866,,,,,,,2025-07-09,1,,,,,ウォビー,0
94,1030001167594,新規,0,2025-07-09,2025-07-09,株式会社Ｃｏｌｏｒ　ｃｒａｆｔ,,株式会社,埼玉県,所沢市,西所沢１丁目４番１７－６０４号,,11,208,3591144,,,,,,,2025-07-09,1,,,,,カラークラフト,0
99,1030003027169,新規,0,2025-07-09,2025-07-09,合同会社ｍａｎｉ,,合同会社,埼玉県,川越市,菅原町１９－１伊勢原六番館７０２,,11,201,3500046,,,,,,,2025-07-09,1,,,,,マニ,0
105,1040001139510,新規,0,2025-07-09,2025-07-09,株式会社Ｓｉｎｃｅｒｅ．Ｍ,,株式会社,千葉県,市川市,大町７１番地１８４,,12,203,2720801,,,,,,,2025-07-09,1,,,,,シンシア,0
106,1040001139519,新規,0,2025-07-09,2025-07-09,株式会社ＡＫ　Ｈｕｍａｎ　Ｄｅｓｉｇｎ,,株式会社,千葉県,千葉市美浜区,中瀬１丁目３幕張テクノガーデンＣＢ棟３階ＭＢＰ,,12,106,2610023,,,,,,,2025-07-09,1,,,,,エーケーヒューマンデザイン,0
107,1040001139535,新規,0,2025-07-09,2025-07-09,株式会社ＳＵＫ,,株式会社,千葉県,松戸市,馬橋４９０－７,,12,207,2710051,,,,,,,2025-07-09,1,,,,,エスユーケー,0
108,1040001139659,新規,0,2025-07-09,2025-07-09,綜建レベック株式会社,,株式会社,千葉県,千葉市花見川区,さつきが丘２丁目３４番８棟４０２号,,12,102,2620014,,,,,,,2025-07-09,1,,,,,ソウケンレベック,0
111,1040003028001,新規,0,2025-07-09,2025-07-09,合同会社ＭＹＲＴＬＥ　ＬＡＢＯＲＡ,,合同会社,千葉県,松戸市,横須賀１丁目１９番地の４,,12,207,2700031,,,,,,,2025-07-09,1,,,,,マトルラボラ,0
115,1070001043098,新規,0,2025-07-09,2025-07-09,株式会社セグマノ,,株式会社,群馬県,伊勢崎市,南千木町１６１８番地２,,10,204,3720033,,,,,,,2025-07-09,1,,,,,セグマノ,0
116,1070001043107,新規,0,2025-07-09,2025-07-09,共栄商事株式会社,,株式会社,群馬県,高崎市,吉井町南陽台３丁目２番地１９,,10,202,3702101,,,,,,,2025-07-09,1,,,,,キョウエイショウジ,0
117,1070001043123,新規,0,2025-07-09,2025-07-09,株式会社Ｄｏ　Ｍ’ｓ　Ｂｅｓｔ　Ｎｅｘｔ,,株式会社,群馬県,伊勢崎市,上植木本町２６４８番地６,,10,204,3720013,,,,,,,2025-07-09,1,,,,,,0
118,1070001043131,新規,0,2025-07-09,2025-07-09,株式会社ハピエスト,,株式会社,群馬県,北群馬郡榛東村,大字長岡２０６番地１山王二番館１０１号,,10,344,3703501,,,,,,,2025-07-09,1,,,,,ハピエスト,0
119,1070003005996,新規,0,2025-07-09,2025-07-09,合同会社六合社,,合同会社,群馬県,高崎市,中泉町６２１番地９,,10,202,3703524,,,,,,,2025-07-09,1,,,,,リクゴウシャ,0
122,1080101025631,新規,0,2025-07-09,2025-07-09,株式会社昇電工,,株式会社,静岡県,熱海市,下多賀６８２番地の４,,22,205,4130102,,,,,,,2025-07-09,1,,,,,ショウデンコウ,0
123,1080103003370,新規,0,2025-07-09,2025-07-09,エフネット合同会社,,合同会社,静岡県,三島市,大場１３６番地の４,,22,206,4110803,,,,,,,2025-07-09,1,,,,,エフネット,0
124,1080105006520,新規,0,2025-07-09,2025-07-09,特定非営利活動法人シールエクステ協会きみけあ,,その他の設立登記法人,静岡県,富士市,横割２丁目２番２７号,,22,210,4160944,,,,,,,2025-07-09,1,,,,,シールエクステキョウカイキミケア,0
129,1100003008277,新規,0,2025-07-09,2025-07-09,合同会社ｌａｖｉｅ,,合同会社,長野県,安曇野市,穂高柏原１４３７番地３,,20,220,3998304,,,,,,,2025-07-09,1,,,,,ラヴィー,0
130,1110001039414,新規,0,2025-07-09,2025-07-09,株式会社結基建設,,株式会社,新潟県,新潟市江南区,横越中央７丁目１番４６号,,15,104,9500208,,,,,,,2025-07-09,1,,,,,ユウキケンセツ,0
139,1120001277401,新規,0,2025-07-09,2025-07-09,鼎盛株式会社,,株式会社,大阪府,大阪市浪速区,桜川２丁目１０－１３スティファースト１０６号室,,27,111,5560022,,,,,,,2025-07-09,1,,,,,テイセイ,0
140,1120001277450,新規,0,2025-07-09,2025-07-09,株式会社ひら卓屋,,株式会社,大阪府,枚方市,田口５丁目２番１号堀建ビル１階,,27,210,5731162,,,,,,,2025-07-09,1,,,,,ヒラタクヤ,0
141,1120001277517,新規,0,2025-07-09,2025-07-09,アラケム株式会社,,株式会社,大阪府,大阪市中央区,本町３丁目１番１０－３２３号,,27,128,5410053,,,,,,,2025-07-09,1,,,,,アラケム,0
142,1120001277582,新規,0,2025-07-09,2025-07-09,昇昊株式会社,,株式会社,大阪府,大阪市中央区,千日前１丁目９番１６号５階,,27,128,5420074,,,,,,,2025-07-09,1,,,,,ショウコウ,0
143,1120001277715,新規,0,2025-07-09,2025-07-09,株式会社しらいわペイント,,株式会社,大阪府,寝屋川市,田井西町２５番２号,,27,215,5720020,,,,,,,2025-07-09,1,,,,,シライワペイント,0
144,1120001277814,新規,0,2025-07-09,2025-07-09,株式会社ＥＱＵＩＮＯＸ,,株式会社,大阪府,大阪市北区,曾根崎新地１丁目１番２７号北新地梅田ビル地下１階,,27,127,5300002,,,,,,,2025-07-09,1,,,,,イクイノクス,0
145,1120001277839,新規,0,2025-07-09,2025-07-09,株式会社鹿瀬塗装工業,,株式会社,大阪府,大阪市城東区,新喜多東１丁目１２番１４号,,27,118,5360017,,,,,,,2025-07-09,1,,,,,カセトソウコウギョウ,0
147,1120003029949,新規,0,2025-07-09,2025-07-09,りずむかるに合同会社,,合同会社,大阪府,大阪市北区,梅田１丁目２番２号大阪駅前第２ビル１２―１２,,27,127,5300001,,,,,,,2025-07-09,1,,,,,リズムカルニ,0
148,1120003029981,新規,0,2025-07-09,2025-07-09,ＳＥＮＴＩＲ合同会社,,合同会社,大阪府,大阪市平野区,本町三丁目３番２３－１００４号,,27,126,5470000,,,,,,,2025-07-09,1,,,,,センティア,0
151,1120101072066,新規,0,2025-07-09,2025-07-09,テイクマートジャパン株式会社,,株式会社,大阪府,岸和田市,春木中町４番６号,,27,202,5960033,,,,,,,2025-07-09,1,,,,,テイクマートジャパン,0
152,1120101072082,新規,0,2025-07-09,2025-07-09,株式会社ＭＢＡ,,株式会社,大阪府,岸和田市,土生町２２７７番１,,27,202,5960825,,,,,,,2025-07-09,1,,,,,エムビーエー,0
156,1120901051161,新規,0,2025-07-09,2025-07-09,株式会社アイ・シー・エー,,株式会社,大阪府,吹田市,南金田１丁目１番４５号,,27,205,5640044,,,,,,,2025-07-09,1,,,,,アイシーエー,0
163,1130001080028,新規,0,2025-07-09,2025-07-09,藤井有隣館財団株式会社,,株式会社,京都府,京都市上京区,元誓願寺通千本東入元４丁目４０５番地１－４０１号,,26,102,6028464,,,,,,,2025-07-09,1,,,,,,0
164,1130001080060,新規,0,2025-07-09,2025-07-09,株式会社ＨＯＳＯＯ,,株式会社,京都府,京都市中京区,両替町通姉小路下る柿本町４１２番地,,26,104,6048173,,,,,,,2025-07-09,1,,,,,ホソオ,0
165,1130003010610,新規,0,2025-07-09,2025-07-09,合同会社生結,,合同会社,京都府,京都市南区,東九条宇賀辺町７７－５,,26,107,6018021,,,,,,,2025-07-09,1,,,,,イト,0
169,1140001139153,新規,0,2025-07-09,2025-07-09,株式会社Ｎｅｘｔ　Ｖｉｓｉｏｎ,,株式会社,兵庫県,西宮市,下大市東町４－２－１０１,,28,204,6638004,,,,,,,2025-07-09,1,,,,,ネクストヴィジョン,0
170,1140001139178,新規,0,2025-07-09,2025-07-09,株式会社Ｒｅｎｅｓｔｉａ,,株式会社,兵庫県,尼崎市,西立花町１丁目１－９－２０１,,28,202,6600054,,,,,,,2025-07-09,1,,,,,リネスティア,0
171,1140001139186,新規,0,2025-07-09,2025-07-09,株式会社坪田,,株式会社,兵庫県,たつの市,揖保町山下２７４番地,,28,229,6794151,,,,,,,2025-07-09,1,,,,,ツボタ,0
172,1140003022282,新規,0,2025-07-09,2025-07-09,メディバンビ合同会社,,合同会社,兵庫県,加古川市,野口町良野５６７－１－３,,28,210,6750017,,,,,,,2025-07-09,1,,,,,メディバンビ,0
175,1150001028256,新規,0,2025-07-09,2025-07-09,株式会社奈香,,株式会社,奈良県,香芝市,五位堂６丁目１７１番地３,,29,210,6390226,,,,,,,2025-07-09,1,,,,,ナコウ,0
178,1170001018701,新規,0,2025-07-09,2025-07-09,蔵出しみかんの藤原農園株式会社,,株式会社,和歌山県,海南市,下津町小畑９７９番地,,30,202,6490161,,,,,,,2025-07-09,1,,,,,クラダシミカンノフジワラノウエン,0
185,1180001167571,新規,0,2025-07-09,2025-07-09,ゴールドタイフーン株式会社,,株式会社,愛知県,名古屋市中川区,富田町大字榎津字東新海１４３０番地の７,,23,110,4540953,,,,,,,2025-07-09,1,,,,,ゴールドタイフーン,0
186,1180001167613,新規,0,2025-07-09,2025-07-09,株式会社ホワイトフォールスキャピタル,,株式会社,愛知県,名古屋市中区,栄３丁目１２番６号,,23,106,4600008,,,,,,,2025-07-09,1,,,,,ホワイトフォールスキャピタル,0
188,1180003028714,新規,0,2025-07-09,2025-07-09,ＭＵＳＴ　ＨＯＵＳＥ合同会社,,合同会社,愛知県,名古屋市中川区,尾頭橋４丁目１１番１１号－２,,23,110,4540012,,,,,,,2025-07-09,1,,,,,マストハウス,0
191,1180305009701,新規,0,2025-07-09,2025-07-09,医療法人皮フ科新栄クリニック,,その他の設立登記法人,愛知県,新城市,平井字新栄５０番地,,23,221,4411361,,,,,,,2025-07-09,1,,,,,ヒフカシンエイクリニック,0
192,1190001032378,新規,0,2025-07-09,2025-07-09,株式会社桜商事,,株式会社,三重県,四日市市,桜台２丁目５番地３８５,,24,202,5121214,,,,,,,2025-07-09,1,,,,,サクラショウジ,0
199,1220003004074,新規,0,2025-07-09,2025-07-09,Ｆａｒｍ竹内合同会社,,合同会社,石川県,金沢市,岸川町チ８番地１,,17,201,9200102,,,,,,,2025-07-09,1,,,,,ファームタケウチ,0
204,1240001065199,新規,0,2025-07-09,2025-07-09,株式会社リバティ,,株式会社,広島県,広島市安佐南区,祇園１丁目１９番５号,,34,105,7310138,,,,,,,2025-07-09,1,,,,,リバティ,0
205,1240001065208,新規,0,2025-07-09,2025-07-09,株式会社ｓｐｌｉｇｈｔ,,株式会社,広島県,尾道市,十四日元町３－２１Ｓビル３Ｆ,,34,205,7220034,,,,,,,2025-07-09,1,,,,,スプライト,0
206,1240001065216,新規,0,2025-07-09,2025-07-09,株式会社Ｃ．Ｐ．エステート,,株式会社,広島県,広島市中区,鉄砲町８番１１号,,34,101,7300017,,,,,,,2025-07-09,1,,,,,シーピーエステート,0
209,1250001021218,新規,0,2025-07-09,2025-07-09,株式会社ＳｅａＡｒｒａｎｇｅ,,株式会社,山口県,下関市,形山みどり町６番４号,,35,201,7510885,,,,,,,2025-07-09,1,,,,,シーアレンジ,0
211,1250003003767,新規,0,2025-07-09,2025-07-09,合同会社Ｘ‐Ｔｅｃｈ,,合同会社,山口県,防府市,大字鈴屋１３５０番地の１,,35,206,7470105,,,,,,,2025-07-09,1,,,,,クロステック,0
214,1280001009458,新規,0,2025-07-09,2025-07-09,Ｓｅｐｔ　Ｈｏｌｄｉｎｇｓ株式会社,,株式会社,島根県,出雲市,今市町１２９７番地,,32,203,6930001,,,,,,,2025-07-09,1,,,,,セプトホールディングス,0
218,1290801031701,新規,0,2025-07-09,2025-07-09,株式会社エポック,,株式会社,福岡県,北九州市小倉北区,足原１丁目５番９－２０２号,,40,106,8020043,,,,,,,2025-07-09,1,,,,,エポック,0
224,1330003011101,新規,0,2025-07-09,2025-07-09,合同会社奥村ＢＡＳＥ,,合同会社,熊本県,熊本市西区,田崎町４３０－９,,43,103,8600058,,,,,,,2025-07-09,1,,,,,オクムラベース,0
227,1340003004896,新規,0,2025-07-09,2025-07-09,合同会社ＡＲＣＫＹ,,合同会社,鹿児島県,鹿児島市,大明丘３丁目３７番５号有村アパートＣ号,,46,201,8920872,,,,,,,2025-07-09,1,,,,,アーキー,0
228,1350001019631,新規,0,2025-07-09,2025-07-09,株式会社ＨＯＯＤ‐ＡＲＲＯＷＳ,,株式会社,宮崎県,日向市,大字日知屋７６６０番地１,,45,206,8830062,,,,,,,2025-07-09,1,,,,,フッドーアロウズ,0
231,1360003015066,新規,0,2025-07-09,2025-07-09,琉球ホリデー合同会社,,合同会社,沖縄県,那覇市,前島２丁目２－７上原ビル３－Ｂ,,47,201,9000016,,,,,,,2025-07-09,1,,,,,リュウキュウホリデー,0
232,1360003015082,新規,0,2025-07-09,2025-07-09,合同会社ＨＡＬＵ,,合同会社,沖縄県,島尻郡八重瀬町,字志多伯３０４番地－３０１号室,,47,362,9010413,,,,,,,2025-07-09,1,,,,,ハル,0
233,1370001052770,新規,0,2025-07-09,2025-07-09,株式会社ＫＲＹＭ‐ＯＮ,,株式会社,宮城県,仙台市太白区,富沢西３丁目１３番地の３ガーデンコート富沢ＬＵＸＥ３０５,,04,104,9820037,,,,,,,2025-07-09,1,,,,,クライムオン,0
234,1370001052804,新規,0,2025-07-09,2025-07-09,ＣＡＲＯ　ＦＵＴＵＲＯ株式会社,,株式会社,宮城県,仙台市太白区,中田町字境４３番地の９,,04,104,9811103,,,,,,,2025-07-09,1,,,,,カーロフトゥーロ,0
235,1370001052820,新規,0,2025-07-09,2025-07-09,武田電気商会株式会社,,株式会社,宮城県,塩竈市,新浜町２丁目３番２６号ソレイユアミゴ２０３号,,04,203,9850001,,,,,,,2025-07-09,1,,,,,タケダデンキショウカイ,0
243,1420003003155,新規,0,2025-07-09,2025-07-09,合同会社広和デザイン,,合同会社,青森県,八戸市,根城９丁目２０番１号,,02,203,0391166,,,,,,,2025-07-09,1,,,,,コウワデザイン,0
246,1430001094798,新規,0,2025-07-09,2025-07-09,株式会社アンライン,,株式会社,北海道,札幌市中央区,南一条西５丁目１６番地プレジデント松井ビル１００　７０１Ａ,,01,101,0600061,,,,,,,2025-07-09,1,,,,,アンライン,0
247,1430001094823,新規,0,2025-07-09,2025-07-09,株式会社ＳＨｉＮＥ,,株式会社,北海道,札幌市豊平区,月寒東四条８丁目４番４号,,01,105,0620054,,,,,,,2025-07-09,1,,,,,シャイン,0
248,1430001094848,新規,0,2025-07-09,2025-07-09,株式会社ＫＳ　ＥＶＯＬＵＴＩＯＮ,,株式会社,北海道,札幌市厚別区,もみじ台北５丁目７番１１号,,01,108,0040014,,,,,,,2025-07-09,1,,,,,ケイエスエボリューション,0
252,1440001009648,新規,0,2025-07-09,2025-07-09,株式会社クロステック,,株式会社,北海道,函館市,石川町１３４番地１３４,,01,202,0410802,,,,,,,2025-07-09,1,,,,,クロステック,0
253,1450003002690,新規,0,2025-07-09,2025-07-09,合同会社てんぽ・るばーと,,合同会社,北海道,旭川市,忠和三条５丁目３番１１号,,01,204,0708043,,,,,,,2025-07-09,1,,,,,テンポルバート,0
257,1470003002920,新規,0,2025-07-09,2025-07-09,合同会社Ａｉｉｌａ,,合同会社,香川県,高松市,春日町１２１４－５,,37,201,7610101,,,,,,,2025-07-09,1,,,,,アイラ,0
263,1490001011104,新規,0,2025-07-09,2025-07-09,株式会社ＢＳＫ,,株式会社,高知県,高知市,比島町４丁目６番１０番,,39,201,7800066,,,,,,,2025-07-09,1,,,,,ビーエスケイ,0
276,2010001256365,新規,0,2025-07-09,2025-07-09,株式会社リージャー持株会,,株式会社,東京都,中央区,日本橋人形町２丁目３３番８号,,13,102,1030013,,,,,,,2025-07-09,1,,,,,リージャーモチカブカイ,0
277,2010001256563,新規,0,2025-07-09,2025-07-09,株式会社ＫＴリーガル・ソリューションズ,,株式会社,東京都,千代田区,平河町１丁目１番８号麹町市原ビル９階,,13,101,1020093,,,,,,,2025-07-09,1,,,,,ケーティーリーガルソリューションズ,0
278,2010001256571,新規,0,2025-07-09,2025-07-09,株式会社Ｅｌｙｓｉａ　ＢＡＳＥ,,株式会社,東京都,中央区,銀座１丁目１２番４号Ｎ＆ＥＢＬＤ．６Ｆ,,13,102,1040061,,,,,,,2025-07-09,1,,,,,エリシアベイス,0
279,2010001256605,新規,0,2025-07-09,2025-07-09,株式会社ＭＳ,,株式会社,東京都,中央区,入船３丁目１０－８塩谷入船ビル６０１,,13,102,1040042,,,,,,,2025-07-09,1,,,,,エムエス,0
280,2010001256613,新規,0,2025-07-09,2025-07-09,株式会社開運シナプス,,株式会社,東京都,中央区,銀座１丁目２２番１１号銀座大竹ビジデンス２Ｆ,,13,102,1040061,,,,,,,2025-07-09,1,,,,,カイウンシナプス,0
281,2010001256638,新規,0,2025-07-09,2025-07-09,駅達株式会社,,株式会社,東京都,文京区,千石４丁目４３－１２千石ハイム１０１,,13,105,1120011,,,,,,,2025-07-09,1,,,,,エキタツ,0
284,2010003047878,新規,0,2025-07-09,2025-07-09,合同会社Ｂｌｕｅ　Ｐｏｉｎｔ　Ｐａｒｔｎｅｒｓ,,合同会社,東京都,神津島村,６６８番２－２Ｆ,,13,364,1000601,,,,,,,2025-07-09,1,,,,,ブルーポイントパートナーズ,0
285,2010003047894,新規,0,2025-07-09,2025-07-09,Ｌｅａｔｈｅｒｍａｎ　Ｊａｐａｎ合同会社,,合同会社,東京都,千代田区,永田町２丁目１１番１号山王パークタワー４階永峰・三島コンサルティング内,,13,101,1000014,,,,,,,2025-07-09,1,,,,,レザーマンジャパン,0
286,2010003047936,新規,0,2025-07-09,2025-07-09,ＳＤＧｓ合同会社,,合同会社,東京都,千代田区,有楽町１丁目９番１号日比谷サンケイビル５階・小笠原国際総合法律事務所,,13,101,1000006,,,,,,,2025-07-09,1,,,,,エスディージーズ,0
287,2010003047944,新規,0,2025-07-09,2025-07-09,Ｂｅｙｏｎｄ・Ｉｂｅ合同会社,,合同会社,東京都,中央区,京橋１丁目１番５号セントラルビル２Ｆ,,13,102,1040031,,,,,,,2025-07-09,1,,,,,ビヨンドアイビー,0
288,2010003047960,新規,0,2025-07-09,2025-07-09,国際産業総合研究所合同会社,,合同会社,東京都,中央区,銀座１丁目１２番４号Ｎ＆ＥＢＬＤ．６Ｆ,,13,102,1040061,,,,,,,2025-07-09,1,,,,,コクサイサンギョウソウゴウケンキュウジョ,0
294,2010401191443,新規,0,2025-07-09,2025-07-09,ＣｉｔｒｏｎｙｍＣａｐｉｔａｌ株式会社,,株式会社,東京都,港区,南青山３丁目１番３６号青山丸竹ビル６Ｆ,,13,103,1070062,,,,,,,2025-07-09,1,,,,,シトロニームキャピタル,0
295,2010401191492,新規,0,2025-07-09,2025-07-09,株式会社ＤｏＤｏＤｏ,,株式会社,東京都,港区,六本木７丁目１４番２３号ラウンドクロス六本木４Ｆ,,13,103,1060032,,,,,,,2025-07-09,1,,,,,ドゥドゥドゥ,0
296,2010401191542,新規,0,2025-07-09,2025-07-09,ＪＯＥＳＨＯ株式会社,,株式会社,東京都,港区,新橋２丁目１６番１号ニュー新橋ビル９０３,,13,103,1050004,,,,,,,2025-07-09,1,,,,,ジョウショウ,0
297,2010401191617,新規,0,2025-07-09,2025-07-09,Ｍｏｂｉｌｉｔｙ　Ｃｙｂｅｒ　Ｌａｂｓ　Ｊａｐａｎ株式会社,,株式会社,東京都,港区,元麻布３丁目１番６号,,13,103,1060046,,,,,,,2025-07-09,1,,,,,モビリティサイバーラボジャパン,0
300,2010405024574,新規,0,2025-07-09,2025-07-09,一般社団法人ＫＥＴふくい１号,,その他の設立登記法人,東京都,港区,元赤坂１丁目１番７－１２０９号株式会社赤坂国際会計内,,13,103,1070051,,,,,,,2025-07-09,1,,,,,ケーイーティーフクイイチゴウ,0
305,2010905004794,新規,0,2025-07-09,2025-07-09,一般社団法人航空宇宙戦力研究所,,その他の設立登記法人,東京都,世田谷区,弦巻５丁目１１番２－１０４号,,13,112,1540016,,,,,,,2025-07-09,1,,,,,コウクウウチュウセンリョクケンキュウジョ,0
313,2011001170630,新規,0,2025-07-09,2025-07-09,株式会社ＪＯＫＥＳ,,株式会社,東京都,渋谷区,神宮前５丁目２６番１５－３０３号,,13,113,1500001,,,,,,,2025-07-09,1,,,,,ジョークス,0
314,2011001170787,新規,0,2025-07-09,2025-07-09,ＣＨＣ株式会社,,株式会社,東京都,渋谷区,恵比寿南３丁目９番１６号ガーデンヒル恵比寿南５階,,13,113,1500022,,,,,,,2025-07-09,1,,,,,シーエイチシー,0
315,2011001170804,新規,0,2025-07-09,2025-07-09,株式会社グリーンフューチャー,,株式会社,東京都,渋谷区,神宮前６丁目１７番１０号,,13,113,1500001,,,,,,,2025-07-09,1,,,,,グリーンフューチャー,0
316,2011001170985,新規,0,2025-07-09,2025-07-09,株式会社Ｋｒｙｏｓｐｈｅｒｅ,,株式会社,東京都,渋谷区,道玄坂１丁目１０番８号渋谷道玄坂東急ビル２Ｆ－Ｃ,,13,113,1500043,,,,,,,2025-07-09,1,,,,,クリオスフィア,0
322,2011101112219,新規,0,2025-07-09,2025-07-09,株式会社ＬＥＸ,,株式会社,東京都,新宿区,歌舞伎町２丁目２８番１６号ウイザードセブンビル２階ＡＢ室,,13,104,1600021,,,,,,,2025-07-09,1,,,,,レックス,0
323,2011101112409,新規,0,2025-07-09,2025-07-09,株式会社Ｄ＆Ｔ,,株式会社,東京都,新宿区,西新宿７丁目２２番２７号,,13,104,1600023,,,,,,,2025-07-09,1,,,,,ディーアンドティー,0
328,2011603004756,新規,0,2025-07-09,2025-07-09,合同会社グッドプライスカンパニー,,合同会社,東京都,練馬区,氷川台３丁目４１番１６－３０４号,,13,120,1790084,,,,,,,2025-07-09,1,,,,,グッドプライスカンパニー,0
331,2011701028500,新規,0,2025-07-09,2025-07-09,株式会社カドノ,,株式会社,東京都,江戸川区,北小岩２丁目２１番１２号,,13,123,1330051,,,,,,,2025-07-09,1,,,,,カドノ,0
332,2011701028509,新規,0,2025-07-09,2025-07-09,はなえみ株式会社,,株式会社,東京都,江戸川区,松江４丁目６－１４－６０６号室,,13,123,1320025,,,,,,,2025-07-09,1,,,,,ハナエミ,0
336,2011801046419,新規,0,2025-07-09,2025-07-09,富博株式会社,,株式会社,東京都,足立区,西新井２丁目４番６号ＡｎｄＰｌｕｓ西新井ビル２０１号,,13,121,1230841,,,,,,,2025-07-09,1,,,,,トミハカ,0
338,2011803006940,新規,0,2025-07-09,2025-07-09,禅合同会社,,合同会社,東京都,足立区,千住５丁目５番１４号,,13,121,1200034,,,,,,,2025-07-09,1,,,,,ゼン,0
339,2012301014452,新規,0,2025-07-09,2025-07-09,プレジール株式会社,,株式会社,東京都,町田市,小山町２５６０番地２１,,13,209,1940212,,,,,,,2025-07-09,1,,,,,プレジール,0
346,2012801024091,新規,0,2025-07-09,2025-07-09,株式会社ｐｌａｎ　Ａ,,株式会社,東京都,昭島市,もくせいの杜１丁目４－２コンフォール東中神７０４,,13,207,1960035,,,,,,,2025-07-09,1,,,,,プランエー,0
348,2013301054562,新規,0,2025-07-09,2025-07-09,株式会社イケール,,株式会社,東京都,豊島区,駒込４丁目８番１５号,,13,116,1700003,,,,,,,2025-07-09,1,,,,,イケール,0
353,2020001163783,新規,0,2025-07-09,2025-07-09,七海商事株式会社,,株式会社,神奈川県,横浜市西区,北幸２丁目１０番４８号むつみビル３階,,14,103,2200004,,,,,,,2025-07-09,1,,,,,ナナミショウジ,0
355,2021001085720,新規,0,2025-07-09,2025-07-09,株式会社Ｃｏｌｏｒｉｓ,,株式会社,神奈川県,藤沢市,片瀬海岸１丁目９－２５－２０６,,14,205,2510035,,,,,,,2025-07-09,1,,,,,カラリス,0
368,2030001167387,新規,0,2025-07-09,2025-07-09,蘭花株式会社,,株式会社,埼玉県,南埼玉郡宮代町,川端２丁目８番２７－２０２号,,11,442,3450804,,,,,,,2025-07-09,1,,,,,ランカ,0
369,2030001167478,新規,0,2025-07-09,2025-07-09,株式会社グルービーパレット,,株式会社,埼玉県,さいたま市浦和区,高砂３丁目３番２－６０１号,,11,107,3300063,,,,,,,2025-07-09,1,,,,,グルービーパレット,0
370,2030001167593,新規,0,2025-07-09,2025-07-09,マイアミエイリアンズ株式会社,,株式会社,埼玉県,川口市,北原台２丁目２０番６号,,11,203,3330815,,,,,,,2025-07-09,1,,,,,マイアミエイリアンズ,0
380,2040001139518,新規,0,2025-07-09,2025-07-09,株式会社Ｉ・Ｋ,,株式会社,千葉県,木更津市,貝渕４丁目１１番６号栄家店舗,,12,206,2920833,,,,,,,2025-07-09,1,,,,,アイケー,0
381,2040001139534,新規,0,2025-07-09,2025-07-09,アメニティネクスト株式会社,,株式会社,千葉県,市川市,市川２丁目２番１０号４０１室,,12,203,2720034,,,,,,,2025-07-09,1,,,,,アメニティネクスト,0
382,2040001139559,新規,0,2025-07-09,2025-07-09,東野商貿株式会社,,株式会社,千葉県,市川市,新田１丁目１４－１０笹マンション２０２室,,12,203,2720035,,,,,,,2025-07-09,1,,,,,トウノショウボウ,0
387,2070001043114,新規,0,2025-07-09,2025-07-09,株式会社Ｐｒｏｓｐｅｒ群馬,,株式会社,群馬県,太田市,大原町１０１６番地６,,10,205,3792304,,,,,,,2025-07-09,1,,,,,プロスパーグンマ,0
389,2070003005938,新規,0,2025-07-09,2025-07-09,ＤＡＮＡＮＪＡＹＡ　ＨＯＬＤＩＮＧ合同会社,,合同会社,群馬県,前橋市,三河町１丁目１９－２９登丸第７ビル１－Ｂ,,10,201,3710015,,,,,,,2025-07-09,1,,,,,,0
391,2080101025630,新規,0,2025-07-09,2025-07-09,ＢｌｕｅＯａｋパートナーズ株式会社,,株式会社,静岡県,駿東郡長泉町,本宿４４８番地の７,,22,342,4110945,,,,,,,2025-07-09,1,,,,,ブルーオークパートナーズ,0
392,2080101025639,新規,0,2025-07-09,2025-07-09,株式会社Ｉ‐ＣＲＡＦＴ,,株式会社,静岡県,沼津市,大岡３０２８番地の３,,22,203,4100022,,,,,,,2025-07-09,1,,,,,アイクラフト,0
400,2100003008251,新規,0,2025-07-09,2025-07-09,合同会社上総,,合同会社,長野県,佐久市,中込３２５３－４,,20,217,3850051,,,,,,,2025-07-09,1,,,,,ウエソウ,0
401,2100003008268,新規,0,2025-07-09,2025-07-09,合同会社エイトワン,,合同会社,長野県,長野市,中御所２丁目２３番１１号ホワイトアーバン２－１Ｆ,,20,201,3800935,,,,,,,2025-07-09,1,,,,,エイトワン,0
403,2110001039396,新規,0,2025-07-09,2025-07-09,株式会社カリヌ企画,,株式会社,新潟県,新潟市北区,名目所２丁目６６０番地１０,,15,101,9503114,,,,,,,2025-07-09,1,,,,,カリヌキカク,0
404,2110001039413,新規,0,2025-07-09,2025-07-09,あおぞら電設株式会社,,株式会社,新潟県,三条市,麻布１３番７号,,15,204,9550034,,,,,,,2025-07-09,1,,,,,アオゾラデンセツ,0
414,2120001277516,新規,0,2025-07-09,2025-07-09,株式会社ＩＯＴＡＨＤ,,株式会社,大阪府,大阪市中央区,本町４丁目２番５号,,27,128,5410053,,,,,,,2025-07-09,1,,,,,イオタホールディング,0
415,2120001277573,新規,0,2025-07-09,2025-07-09,Ｆｕｔｕｒｅ　Ｃａｒｅ株式会社,,株式会社,大阪府,大阪市平野区,加美北９丁目１４番２９号,,27,126,5470001,,,,,,,2025-07-09,1,,,,,フューチャーケア,0
416,2120001277631,新規,0,2025-07-09,2025-07-09,株式会社希,,株式会社,大阪府,大阪市西淀川区,御幣島１丁目１８－１４,,27,113,5550012,,,,,,,2025-07-09,1,,,,,ノゾミ,0
417,2120001277714,新規,0,2025-07-09,2025-07-09,株式会社たつみ商店,,株式会社,大阪府,大阪市旭区,赤川２丁目４番６号,,27,117,5350005,,,,,,,2025-07-09,1,,,,,タツミショウテン,0
418,2120001277763,新規,0,2025-07-09,2025-07-09,株式会社ナナトリー,,株式会社,大阪府,大阪市淀川区,宮原１丁目８番２７号,,27,123,5320003,,,,,,,2025-07-09,1,,,,,ナナトリー,0
420,2120003029898,新規,0,2025-07-09,2025-07-09,Ａ・Ｔｅｒａ合同会社,,合同会社,大阪府,大阪市北区,西天満６丁目８番２号,,27,127,5300047,,,,,,,2025-07-09,1,,,,,エイテラ,0
421,2120003029948,新規,0,2025-07-09,2025-07-09,金星合同会社,,合同会社,大阪府,大阪市西成区,萩之茶屋２丁目６番４号ニューかめや１７２号,,27,122,5570004,,,,,,,2025-07-09,1,,,,,キンセイ,0
422,2120003029980,新規,0,2025-07-09,2025-07-09,合同会社ＳＮＬ,,合同会社,大阪府,大阪市淀川区,十三本町１丁目１７番２４－９０１号,,27,123,5320024,,,,,,,2025-07-09,1,,,,,エスエヌエル,0
426,2120101072065,新規,0,2025-07-09,2025-07-09,株式会社Ｒ．ワークス,,株式会社,大阪府,堺市南区,美木多上５７番地１１,,27,145,5900136,,,,,,,2025-07-09,1,,,,,アールワークス,0
429,2120903005750,新規,0,2025-07-09,2025-07-09,茶柱合同会社,,合同会社,大阪府,豊中市,浜３丁目１９番１８号東光苑２０４号,,27,203,5610817,,,,,,,2025-07-09,1,,,,,チャバシラ,0
435,2130001080043,新規,0,2025-07-09,2025-07-09,株式会社Ｓｅｔｅｒｉａ,,株式会社,京都府,京都市北区,紫野南舟岡町２０－１７,,26,101,6038225,,,,,,,2025-07-09,1,,,,,セテリア,0
436,2130001080051,新規,0,2025-07-09,2025-07-09,源泉財拓株式会社,,株式会社,京都府,京都市山科区,四ノ宮山田町８－１３リバーサイド四ノ宮２０２号,,26,110,6078026,,,,,,,2025-07-09,1,,,,,ゲンセンザイタク,0
437,2130001080084,新規,0,2025-07-09,2025-07-09,株式会社ＭＡＬＣ,,株式会社,京都府,舞鶴市,字京田６３番地,,26,202,6240823,,,,,,,2025-07-09,1,,,,,マルク,0
443,2140001139144,新規,0,2025-07-09,2025-07-09,屋根内電気工業株式会社,,株式会社,兵庫県,宝塚市,小林３丁目１番２１号,,28,214,6650034,,,,,,,2025-07-09,1,,,,,ヤネウチデンキコウギョウ,0
444,2140001139177,新規,0,2025-07-09,2025-07-09,株式会社まごころハンドキャリー,,株式会社,兵庫県,尼崎市,田能４丁目１番２３号,,28,202,6610951,,,,,,,2025-07-09,1,,,,,,0
445,2140001139193,新規,0,2025-07-09,2025-07-09,株式会社ＡＩＲ,,株式会社,兵庫県,明石市,大久保町大窪３２５４番地クリスタルヴィラ２０４号,,28,203,6740051,,,,,,,2025-07-09,1,,,,,カブシガイシャエアー,0
450,2140003022273,新規,0,2025-07-09,2025-07-09,合同会社ＴＡＩ,,合同会社,兵庫県,神戸市東灘区,住吉山手８丁目１５番１７号,,28,101,6580063,,,,,,,2025-07-09,1,,,,,タイ,0
451,2140003022281,新規,0,2025-07-09,2025-07-09,合同会社Ｂｉｏ　Ｎａｔｕｒａｌ,,合同会社,兵庫県,神戸市灘区,宮山町２丁目７番２３号,,28,102,6570065,,,,,,,2025-07-09,1,,,,,ビオナチュラル,0
457,2170001018700,新規,0,2025-07-09,2025-07-09,株式会社折口組,,株式会社,和歌山県,海草郡紀美野町,神野市場２３２番地,,30,304,6401243,,,,,,,2025-07-09,1,,,,,オリクチクミ,0
463,2180001167546,新規,0,2025-07-09,2025-07-09,株式会社Ｍ測量,,株式会社,愛知県,名古屋市東区,葵１丁目２番１１号,,23,102,4610004,,,,,,,2025-07-09,1,,,,,エムソクリョウ,0
464,2180001167562,新規,0,2025-07-09,2025-07-09,株式会社ＮＡＧＡＲＡ,,株式会社,愛知県,名古屋市昭和区,鶴舞１丁目２番３２号ＳＴＡＴＩＯＮ・Ａｉ,,23,107,4660064,,,,,,,2025-07-09,1,,,,,ナガラ,0
465,2180001167579,新規,0,2025-07-09,2025-07-09,株式会社Ｒｉｚｏｔｙ,,株式会社,愛知県,稲沢市,下津片町１３５番地１,,23,220,4928054,,,,,,,2025-07-09,1,,,,,リゾティ,0
466,2180001167612,新規,0,2025-07-09,2025-07-09,株式会社ビジュライズ,,株式会社,愛知県,名古屋市緑区,六田１丁目３２５番地,,23,114,4580036,,,,,,,2025-07-09,1,,,,,ビジュライズ,0
467,2180001167620,新規,0,2025-07-09,2025-07-09,ピタットラボ株式会社,,株式会社,愛知県,瀬戸市,塩草が丘２丁目１２番地,,23,204,4890899,,,,,,,2025-07-09,1,,,,,ピタットラボ,0
470,2180003028713,新規,0,2025-07-09,2025-07-09,合同会社オレンジサポート,,合同会社,愛知県,一宮市,大赤見字市場東屋敷１番地１４,,23,203,4910015,,,,,,,2025-07-09,1,,,,,オレンジサポート,0
471,2180003028721,新規,0,2025-07-09,2025-07-09,合同会社エー・シー・エス,,合同会社,愛知県,名古屋市名東区,高針５丁目１２３９番地,,23,115,4650061,,,,,,,2025-07-09,1,,,,,エーシーエス,0
475,2190001032369,新規,0,2025-07-09,2025-07-09,株式会社伊勢志摩テック,,株式会社,三重県,伊勢市,小俣町本町３５４３番地１,,24,203,5190505,,,,,,,2025-07-09,1,,,,,,0
478,2200001043983,新規,0,2025-07-09,2025-07-09,共幸興産株式会社,,株式会社,岐阜県,大垣市,赤花町２丁目６３番地３,,21,202,5030013,,,,,,,2025-07-09,1,,,,,キョウコウコウサン,0
479,2200001044008,新規,0,2025-07-09,2025-07-09,株式会社丸警,,株式会社,岐阜県,岐阜市,西鶉３丁目２６番地１,,21,201,5008286,,,,,,,2025-07-09,1,,,,,マルケイ,0
482,2200003006914,新規,0,2025-07-09,2025-07-09,合同会社ＣａｒｅＲｙｕｕ,,合同会社,岐阜県,本巣市,数屋１００－２,,21,218,5010414,,,,,,,2025-07-09,1,,,,,ケアリュウ,0
484,2220001026796,新規,0,2025-07-09,2025-07-09,Ｐａｒｉｓ　Ｐａｒｋ株式会社,,株式会社,石川県,金沢市,広岡１丁目１７番２０号,,17,201,9200031,,,,,,,2025-07-09,1,,,,,パリスパーク,0
492,2240003007297,新規,0,2025-07-09,2025-07-09,ｌｅａｄ’ｓ合同会社,,合同会社,広島県,東広島市,黒瀬楢原北３丁目９番６号,,34,212,7392627,,,,,,,2025-07-09,1,,,,,,0
494,2240005015959,新規,0,2025-07-09,2025-07-09,税理士法人光パートナーズ,,その他の設立登記法人,広島県,広島市中区,寺町５番２０号,,34,101,7300801,,,,,,,2025-07-09,1,,,,,ヒカリパートナーズ,0
497,2270001009243,新規,0,2025-07-09,2025-07-09,株式会社花火,,株式会社,鳥取県,鳥取市,卯垣１３３番地１８,,31,201,6800074,,,,,,,2025-07-09,1,,,,,ハナビ,0
498,2280001009457,新規,0,2025-07-09,2025-07-09,株式会社Ｔ’ｚ鈑金,,株式会社,島根県,仁多郡奥出雲町,郡２６０番地７,,32,343,6991702,,,,,,,2025-07-09,1,,,,,ティーズバンキン,0
499,2280003001965,新規,0,2025-07-09,2025-07-09,合同会社Ｏｎｋａ,,合同会社,島根県,松江市,学園南２丁目１５番１３号,,32,201,6900826,,,,,,,2025-07-09,1,,,,,オンカ,0
503,2290001110602,新規,0,2025-07-09,2025-07-09,白閃株式会社,,株式会社,福岡県,筑後市,大字蔵数５１３番地６,,40,211,8330054,,,,,,,2025-07-09,1,,,,,ハクセン,0
504,2290001110610,新規,0,2025-07-09,2025-07-09,株式会社熱神,,株式会社,福岡県,筑後市,大字尾島６７５番地１,,40,211,8330014,,,,,,,2025-07-09,1,,,,,ネツシン,0
505,2290001110643,新規,0,2025-07-09,2025-07-09,株式会社吉松トリニティ,,株式会社,福岡県,糟屋郡須惠町,大字須恵６７４番地,,40,344,8112100,,,,,,,2025-07-09,1,,,,,ヨシマツトリニティ,0
506,2290001110651,新規,0,2025-07-09,2025-07-09,株式会社ＵＮＳ,,株式会社,福岡県,飯塚市,椿３０８－２,,40,205,8200084,,,,,,,2025-07-09,1,,,,,ユーエヌエス,0
511,2320003004708,新規,0,2025-07-09,2025-07-09,合同会社ココロアニマルクリニック,,合同会社,大分県,佐伯市,城南町１５番１８号,,44,205,8760834,,,,,,,2025-07-09,1,,,,,ココロアニマルクリニック,0
512,2330001033393,新規,0,2025-07-09,2025-07-09,Ｓａ企画株式会社,,株式会社,熊本県,熊本市南区,城南町藤山３２６５番地６－１０２号室,,43,104,8614223,,,,,,,2025-07-09,1,,,,,エスエイキカク,0
513,2330003011109,新規,0,2025-07-09,2025-07-09,合同会社ＴｈｅＤａｙ．,,合同会社,熊本県,熊本市中央区,大江本町２―７坂本ビル１Ｆ,,43,101,8620973,,,,,,,2025-07-09,1,,,,,ザデイ,0
515,2340001027493,新規,0,2025-07-09,2025-07-09,株式会社ＨＲＫ,,株式会社,鹿児島県,鹿児島市,鴨池１丁目３６番１６号,,46,201,8900063,,,,,,,2025-07-09,1,,,,,エイチアールケー,0
519,2360001035429,新規,0,2025-07-09,2025-07-09,株式会社スプリント,,株式会社,沖縄県,沖縄市,美里仲原町５番５号,,47,211,9042156,,,,,,,2025-07-09,1,,,,,スプリント,0
520,2360001035437,新規,0,2025-07-09,2025-07-09,株式会社沖城不動産,,株式会社,沖縄県,沖縄市,池原３丁目１番３号　仲本ビル２０２,,47,211,9042141,,,,,,,2025-07-09,1,,,,,オキシロフドウサン,0
524,2370001052811,新規,0,2025-07-09,2025-07-09,株式会社ユーティリティ,,株式会社,宮城県,仙台市泉区,七北田字大沢明通２１番１号,,04,105,9813131,,,,,,,2025-07-09,1,,,,,ユーティリティ,0
527,2400001017109,新規,0,2025-07-09,2025-07-09,株式会社増尾ファーム,,株式会社,岩手県,九戸郡軽米町,大字上舘第２９地割６８番地,,03,501,0286301,,,,,,,2025-07-09,1,,,,,マスオファーム,0
528,2400003003486,新規,0,2025-07-09,2025-07-09,合同会社ＯＬＤ　ＮＥＷ,,合同会社,岩手県,久慈市,中の橋１丁目２５,,03,207,0280066,,,,,,,2025-07-09,1,,,,,オールドニュー,0
529,2420005007962,新規,0,2025-07-09,2025-07-09,一般社団法人おいらせ町観光物産協会,,その他の設立登記法人,青森県,上北郡おいらせ町,上明堂６０番地６,,02,412,0392225,,,,,,,2025-07-09,1,,,,,オイラセチョウカンコウブッサンキョウカイ,0
532,2430001094780,新規,0,2025-07-09,2025-07-09,株式会社ソルト,,株式会社,北海道,札幌市中央区,北三条西２６丁目３番２８号,,01,101,0640823,,,,,,,2025-07-09,1,,,,,ソルト,0
533,2430001094822,新規,0,2025-07-09,2025-07-09,株式会社ＪＡＦＴＣ,,株式会社,北海道,札幌市中央区,南二条西５丁目３１番地１ＲＭＢｌｄ．７０１,,01,101,0600062,,,,,,,2025-07-09,1,,,,,ジャフテック,0
535,2440001009647,新規,0,2025-07-09,2025-07-09,株式会社杉谷工務店,,株式会社,北海道,函館市,高盛町２５番４号,,01,202,0400024,,,,,,,2025-07-09,1,,,,,スギヤコウムテン,0
537,2460101007730,新規,0,2025-07-09,2025-07-09,全道食販連株式会社,,株式会社,北海道,帯広市,西二条南２３丁目５番地,,01,207,0800012,,,,,,,2025-07-09,1,,,,,ゼンドウショクハンレン,0
538,2470001020790,新規,0,2025-07-09,2025-07-09,ありあとファーム株式会社,,株式会社,香川県,綾歌郡綾川町,陶５３１７－４,,37,387,7612103,,,,,,,2025-07-09,1,,,,,,0
541,2480001012886,新規,0,2025-07-09,2025-07-09,株式会社環境エネルギー会計事務所,,株式会社,徳島県,徳島市,中昭和町１丁目３番地,,36,201,7700943,,,,,,,2025-07-09,1,,,,,カンキョウエネルギーカイケイジムショ,0
542,2480003002282,新規,0,2025-07-09,2025-07-09,セイヴィアジャパン合同会社,,合同会社,徳島県,徳島市,南沖洲５丁目３番５５号,,36,201,7700874,,,,,,,2025-07-09,1,,,,,セイヴィアジャパン,0
546,2700150131349,新規,0,2025-07-09,2025-07-09,ＢｌｕｅＨｏｒｉｚｏｎ　Ｃｏｎｓｕｌｔｉｎｇ　Ｌ．Ｌ．Ｃ－ＦＺ,,外国会社等,,,,,,,,Ｍｅｙｄａｎ　Ｇｒａｎｄｓｔａｎｄ，６ｔｈ　ｆｌｏｏｒ，Ｍｅｙｄａｎ　Ｒｏａｄ，Ｎａｄ　Ａｌ　Ｓｈｅｂａ，Ｄｕｂａｉ，Ｕ．Ａ．Ｅ．,,,,,,2025-07-09,1,,,,,ブルーホライズンコンサルティングエルエルシーエフゼット,0
553,3010001256265,新規,0,2025-07-09,2025-07-09,株式会社チメスコンサルティング,,株式会社,東京都,千代田区,神田和泉町１番地６－１６ヤマトビル４０５,,13,101,1010024,,,,,,,2025-07-09,1,,,,,チメスコンサルティング,0
554,3010001256587,新規,0,2025-07-09,2025-07-09,株式会社ｔｅｋｔｏ,,株式会社,東京都,千代田区,神田須田町１丁目７番８号,,13,101,1010041,,,,,,,2025-07-09,1,,,,,テクト,0
556,3010003047951,新規,0,2025-07-09,2025-07-09,合同会社スターシップ,,合同会社,東京都,千代田区,富士見１丁目２番３７－３０１号,,13,101,1020071,,,,,,,2025-07-09,1,,,,,スターシップ,0
564,3010401191574,新規,0,2025-07-09,2025-07-09,株式会社Ｓｏｌａｒｉｓ　ａｎｄ　Ｖｉａ,,株式会社,東京都,港区,南青山２丁目２番１５号,,13,103,1070062,,,,,,,2025-07-09,1,,,,,ソラリスアンドヴィア,0
565,3010401191599,新規,0,2025-07-09,2025-07-09,株式会社マスダアンドアソシエイツ,,株式会社,東京都,港区,新橋２丁目１６番１号,,13,103,1050004,,,,,,,2025-07-09,1,,,,,マスダアンドアソシエイツ,0
567,3010501054367,新規,0,2025-07-09,2025-07-09,株式会社まほろば,,株式会社,東京都,台東区,松が谷３丁目１７番９号１２０３ルフォン上野松が谷,,13,106,1110036,,,,,,,2025-07-09,1,,,,,マホロバ,0
570,3010801036370,新規,0,2025-07-09,2025-07-09,株式会社エルマインド,,株式会社,東京都,大田区,下丸子１丁目１番１７号サン・ビルディス２０１,,13,111,1460092,,,,,,,2025-07-09,1,,,,,エルマインド,0
575,3010903010083,新規,0,2025-07-09,2025-07-09,Ｌｅｇａｍｅ合同会社,,合同会社,東京都,世田谷区,成城３丁目１０番２３号,,13,112,1570066,,,,,,,2025-07-09,1,,,,,レガーメ,0
582,3011001170530,新規,0,2025-07-09,2025-07-09,ＹＯＮＥＺＡ株式会社,,株式会社,東京都,渋谷区,道玄坂１丁目１０番８号渋谷道玄坂東急ビル２Ｆ－Ｃ,,13,113,1500043,,,,,,,2025-07-09,1,,,,,ヨネザ,0
583,3011001170761,新規,0,2025-07-09,2025-07-09,株式会社ＨＳ　Ｃｏｒｐｏｒａｔｉｏｎ,,株式会社,東京都,渋谷区,渋谷２丁目１９番１５号宮益坂ビルディング６０９,,13,113,1500002,,,,,,,2025-07-09,1,,,,,エイチエスコーポレーション,0
584,3011001171116,新規,0,2025-07-09,2025-07-09,ＺＥＲＯ　ＡＲＣＡＤＥ株式会社,,株式会社,東京都,渋谷区,道玄坂１丁目１０番８号渋谷道玄坂東急ビル２Ｆ‐Ｃ,,13,113,1500043,,,,,,,2025-07-09,1,,,,,ゼロアーケード,0
585,3011003022102,新規,0,2025-07-09,2025-07-09,合同会社ＳｏｙｌｅｎｔＳｙｓｔｅｍｓ,,合同会社,東京都,渋谷区,道玄坂１丁目１０番８号渋谷道玄坂東急ビル２Ｆ‐Ｃ,,13,113,1500043,,,,,,,2025-07-09,1,,,,,ソイレントシステムズ,0
590,3011503006604,新規,0,2025-07-09,2025-07-09,水森合同会社,,合同会社,東京都,北区,赤羽２丁目４７番８号大黒ビル３０１,,13,117,1150045,,,,,,,2025-07-09,1,,,,,ミズモリ,0
599,3011801046426,新規,0,2025-07-09,2025-07-09,足立工業株式会社,,株式会社,東京都,足立区,千住曙町２２番８号,,13,121,1200023,,,,,,,2025-07-09,1,,,,,アダチコウギョウ,0
600,3011805003464,新規,0,2025-07-09,2025-07-09,一般社団法人全日本学生応援団連盟,,その他の設立登記法人,東京都,足立区,谷在家１丁目１１番２－４１１号,,13,121,1230863,,,,,,,2025-07-09,1,,,,,ゼンニホンガクセイオウエンダンレンメイ,0
601,3012401043326,新規,0,2025-07-09,2025-07-09,株式会社ユナイティング,,株式会社,東京都,府中市,美好町１丁目１９番地の２,,13,206,1830045,,,,,,,2025-07-09,1,,,,,ユナイティング,0
603,3012701018952,新規,0,2025-07-09,2025-07-09,株式会社ＦＵＫＡＢＯＲＩ,,株式会社,東京都,西東京市,新町４丁目４番２７－８号,,13,229,2020023,,,,,,,2025-07-09,1,,,,,フカボリ,0
604,3012701018960,新規,0,2025-07-09,2025-07-09,株式会社Ｂｒｉｌｌａｎｔｅ,,株式会社,東京都,東久留米市,東本町１番９号富士見マンション３０１号,,13,222,2030014,,,,,,,2025-07-09,1,,,,,ブリランテ,0
605,3012703003309,新規,0,2025-07-09,2025-07-09,合同会社１２１５Ｐｒｏ,,合同会社,東京都,東村山市,萩山町４丁目１０－２５,,13,213,1890012,,,,,,,2025-07-09,1,,,,,トゥエルブフィフティーンプロ,0
617,3020001163659,新規,0,2025-07-09,2025-07-09,株式会社地道ラボ,,株式会社,神奈川県,横浜市都筑区,勝田南２丁目７番６－１号,,14,118,2240036,,,,,,,2025-07-09,1,,,,,ジミチラボ,0
618,3020001163709,新規,0,2025-07-09,2025-07-09,株式会社Ｓｏｌｅｎｔｒａ,,株式会社,神奈川県,横浜市青葉区,あざみ野南２丁目９－１６,,14,117,2250012,,,,,,,2025-07-09,1,,,,,ソレントラ,0
619,3020001163840,新規,0,2025-07-09,2025-07-09,Ｂｅｓｔ　Ｂｒｕｎｃｈ　Ｂｕｄｄｙ株式会社,,株式会社,神奈川県,横浜市西区,赤門町２丁目２０番地秀栄マンション１－Ｃ号,,14,103,2200034,,,,,,,2025-07-09,1,,,,,ベストブランチバディ,0
637,3021003016251,新規,0,2025-07-09,2025-07-09,合同会社ヤマボウシ,,合同会社,神奈川県,綾瀬市,大上３丁目２９番２１号,,14,218,2521104,,,,,,,2025-07-09,1,,,,,ヤマボウシ,0
638,3021005013395,新規,0,2025-07-09,2025-07-09,ＭＡＩＳＯＮ　ＣＡＣＡＯ一般財団法人,,その他の設立登記法人,神奈川県,鎌倉市,小町２丁目６番４３号,,14,204,2480006,,,,,,,2025-07-09,1,,,,,メゾンカカオ,0
642,3030001167493,新規,0,2025-07-09,2025-07-09,株式会社本多電気,,株式会社,埼玉県,越谷市,谷中町２丁目２６９番地１４,,11,222,3430856,,,,,,,2025-07-09,1,,,,,ホンダデンキ,0
650,3030003027167,新規,0,2025-07-09,2025-07-09,合同会社まぶはうす,,合同会社,埼玉県,さいたま市中央区,上峰３丁目８－１７－３０２,,11,105,3380014,,,,,,,2025-07-09,1,,,,,マブハウス,0
657,3040001139533,新規,0,2025-07-09,2025-07-09,株式会社エスプロ,,株式会社,千葉県,市原市,八幡６５２番地５,,12,219,2900062,,,,,,,2025-07-09,1,,,,,エスプロ,0
659,3040003027991,新規,0,2025-07-09,2025-07-09,合同会社ＨＡＹＡＳＨＩ,,合同会社,千葉県,東金市,北之幸谷１３２８番地２９,,12,213,2830061,,,,,,,2025-07-09,1,,,,,ハヤシ,0
660,3040003028008,新規,0,2025-07-09,2025-07-09,ＳＣＤ合同会社,,合同会社,千葉県,千葉市美浜区,磯辺６丁目１番８棟５０２号,,12,106,2610012,,,,,,,2025-07-09,1,,,,,エスシーディ,0
665,3070001043113,新規,0,2025-07-09,2025-07-09,株式会社松陽,,株式会社,群馬県,前橋市,荒牧町２丁目２番地１９,,10,201,3710044,,,,,,,2025-07-09,1,,,,,ショウヨウ,0
666,3070001043121,新規,0,2025-07-09,2025-07-09,株式会社ＬＩＢＥＲＴＡ,,株式会社,群馬県,太田市,新井町５２６番地２,,10,205,3730852,,,,,,,2025-07-09,1,,,,,リベルタ,0
667,3070001043138,新規,0,2025-07-09,2025-07-09,日翔陸運株式会社,,株式会社,群馬県,前橋市,富士見町原之郷４４６番地１,,10,201,3710116,,,,,,,2025-07-09,1,,,,,ニッショウリクウン,0
674,3080103003369,新規,0,2025-07-09,2025-07-09,合同会社ＦＢＩ　ＪＡＰＡＮ,,合同会社,静岡県,沼津市,東熊堂３３０番地１ヴィラ光南ＩＩ３０１号,00139878,22,203,4100013,,,,,,,2025-07-09,1,,,,,エフビーアイジャパン,0
677,3080401028019,新規,0,2025-07-09,2025-07-09,株式会社リプロ,,株式会社,静岡県,浜松市中央区,海老塚１丁目１０番２０号,,22,138,4328033,,,,,,,2025-07-09,1,,,,,リプロ,0
680,3100001038753,新規,0,2025-07-09,2025-07-09,西幸商会株式会社,,株式会社,長野県,長野市,檀田２丁目２７番８号,,20,201,3810052,,,,,,,2025-07-09,1,,,,,ニシコウショウカイ,0
687,3110001039395,新規,0,2025-07-09,2025-07-09,株式会社清水土木,,株式会社,新潟県,上越市,板倉区針３７９番地１２,,15,222,9440131,,,,,,,2025-07-09,1,,,,,シミズドボク,0
688,3110001039404,新規,0,2025-07-09,2025-07-09,ＢＨＤ株式会社,,株式会社,新潟県,三条市,篭場５番１８号,,15,204,9550036,,,,,,,2025-07-09,1,,,,,ビーエイチディー,0
689,3110001039412,新規,0,2025-07-09,2025-07-09,ＪＲＥＸ株式会社,,株式会社,新潟県,新潟市秋葉区,あおば通１丁目１番２０号,,15,105,9560017,,,,,,,2025-07-09,1,,,,,ジェイレックス,0
695,3120001277399,新規,0,2025-07-09,2025-07-09,Ｚｅｎｉｔｈ株式会社,,株式会社,大阪府,大阪市浪速区,桜川２丁目１０－１３スティファースト１０７号室,,27,111,5560022,,,,,,,2025-07-09,1,,,,,ゼニス,0
696,3120001277473,新規,0,2025-07-09,2025-07-09,株式会社Ｎａ‐ｕ,,株式会社,大阪府,寝屋川市,萱島東３丁目１６番１０号,,27,215,5720824,,,,,,,2025-07-09,1,,,,,ナーウ,0
697,3120001277597,新規,0,2025-07-09,2025-07-09,株式会社ＹＡＳＡＫＡ,,株式会社,大阪府,大阪市住之江区,御崎５丁目１４番１１号,,27,125,5590013,,,,,,,2025-07-09,1,,,,,ヤサカ,0
698,3120001277614,新規,0,2025-07-09,2025-07-09,株式会社ＪＩＮホールディングス,,株式会社,大阪府,大阪市中央区,南本町１丁目６番７号,,27,128,5410054,,,,,,,2025-07-09,1,,,,,ジンホールディングス,0
699,3120001277647,新規,0,2025-07-09,2025-07-09,しずくテクノロジーソリューションズ株式会社,,株式会社,大阪府,大阪市北区,梅田１丁目２番２号大阪駅前第２ビル１２－１２,,27,127,5300001,,,,,,,2025-07-09,1,,,,,シズクテクノロジーソリューションズ,0
700,3120001277721,新規,0,2025-07-09,2025-07-09,ｍｅｍｏｒｉｅｎｃｅ株式会社,,株式会社,大阪府,大阪市北区,天満４丁目１５番１２号,,27,127,5300043,,,,,,,2025-07-09,1,,,,,メモリエンス,0
701,3120001277746,新規,0,2025-07-09,2025-07-09,株式会社ちゅーりっぷ,,株式会社,大阪府,大阪市西区,新町１丁目３３番１１号藤和新町コープ４０２号,,27,106,5500013,,,,,,,2025-07-09,1,,,,,チューリップ,0
702,3120001277795,新規,0,2025-07-09,2025-07-09,泓鉞貿易株式会社,00139866,株式会社,大阪府,大阪市生野区,新今里３丁目１０番８－４０１号,,27,116,5440001,,,,,,,2025-07-09,1,,,,,コウセイボウエキ,0
703,3120003029906,新規,0,2025-07-09,2025-07-09,合同会社ＧＰサービス,,合同会社,大阪府,大阪市東成区,深江南３丁目２２番２７号,,27,115,5370002,,,,,,,2025-07-09,1,,,,,ジーピーサービス,0
704,3120003029939,新規,0,2025-07-09,2025-07-09,九州合同会社,,合同会社,大阪府,大阪市平野区,加美正覚寺１丁目５番３－４Ｃ,,27,126,5470006,,,,,,,2025-07-09,1,,,,,キュウシュウ,0
705,3120003029947,新規,0,2025-07-09,2025-07-09,海語江豊合同会社,,合同会社,大阪府,大阪市西成区,萩之茶屋２丁目６番４号ニューかめや１７８号,,27,122,5570004,,,,,,,2025-07-09,1,,,,,カイゴジョウホウ,0
706,3120005025011,新規,0,2025-07-09,2025-07-09,一般社団法人日本関西廣東同郷会,,その他の設立登記法人,大阪府,大阪市浪速区,難波中３丁目３－２４ＮＫ難波ビル２階,,27,111,5560011,,,,,,,2025-07-09,1,,,,,ニホンカンサイカントンドウキョウカイ,0
712,3130001080059,新規,0,2025-07-09,2025-07-09,株式会社細尾,,株式会社,京都府,京都市中京区,両替町通姉小路下る柿本町４１２番地,,26,104,6048173,,,,,,,2025-07-09,1,,,,,ホソオ,0
716,3140001139168,新規,0,2025-07-09,2025-07-09,株式会社川海,,株式会社,兵庫県,神戸市垂水区,桃山台３丁目６番地の１３,,28,108,6550854,,,,,,,2025-07-09,1,,,,,カワウミ,0
717,3140001139192,新規,0,2025-07-09,2025-07-09,株式会社ＲａｉｌＨｏｍｅ,,株式会社,兵庫県,姫路市,広畑区則直９８番地２３,,28,201,6711105,,,,,,,2025-07-09,1,,,,,レールホーム,0
718,3140001139201,新規,0,2025-07-09,2025-07-09,株式会社ＫＩＮＥ,,株式会社,兵庫県,芦屋市,茶屋之町７－７－１０１,,28,206,6590067,,,,,,,2025-07-09,1,,,,,キネ,0
722,3150003003651,新規,0,2025-07-09,2025-07-09,セブンス企画合同会社,,合同会社,奈良県,生駒市,真弓１丁目１２番９号,,29,209,6300122,,,,,,,2025-07-09,1,,,,,セブンスキカク,0
723,3170001018699,新規,0,2025-07-09,2025-07-09,株式会社堂前種苗園,,株式会社,和歌山県,御坊市,岩内２６２番地,,30,205,6440032,,,,,,,2025-07-09,1,,,,,ドウマエシュビョウエン,0
729,3180001167438,新規,0,2025-07-09,2025-07-09,株式会社アクアコモンズ,,株式会社,愛知県,名古屋市中村区,松原町５丁目４番地の２,,23,105,4530021,,,,,,,2025-07-09,1,,,,,アクアコモンズ,0
730,3180001167545,新規,0,2025-07-09,2025-07-09,株式会社ＢｅＲｏｏｔｓ,,株式会社,愛知県,名古屋市昭和区,石仏町２丁目６番地,,23,107,4660023,,,,,,,2025-07-09,1,,,,,ビールーツ,0
731,3180001167628,新規,0,2025-07-09,2025-07-09,株式会社和奏,,株式会社,愛知県,名古屋市西区,花の木３丁目１３－１４プチパレ２０５,,23,104,4510062,,,,,,,2025-07-09,1,,,,,ワカナ,0
733,3180003028704,新規,0,2025-07-09,2025-07-09,合同会社Ｓｉｇｎｅｓｓ,,合同会社,愛知県,半田市,東本町２丁目２４番地,,23,205,4750878,,,,,,,2025-07-09,1,,,,,シグネス,0
734,3180003028720,新規,0,2025-07-09,2025-07-09,合同会社オジサンジョウ,,合同会社,愛知県,名古屋市東区,代官町３４番１６号,,23,102,4610002,,,,,,,2025-07-09,1,,,,,オジサンジョウ,0
735,3180301039980,新規,0,2025-07-09,2025-07-09,株式会社ｃａｊｉｃａｊｉ,,株式会社,愛知県,岡崎市,桑谷町字堀切５番地１,,23,202,4443515,,,,,,,2025-07-09,1,,,,,カジカジ,0
736,3180303006649,新規,0,2025-07-09,2025-07-09,天竹ＣＲＥＡＴＥ合同会社,,合同会社,愛知県,岡崎市,山綱町字上中野５番地１１７,,23,202,4443513,,,,,,,2025-07-09,1,,,,,テンチククリエイト,0
737,3180305009699,新規,0,2025-07-09,2025-07-09,医療法人おがわ歯科医院,,その他の設立登記法人,愛知県,豊橋市,佐藤４丁目３９番地２,,23,201,4400853,,,,,,,2025-07-09,1,,,,,オガワシカイイン,0
738,3190001032384,新規,0,2025-07-09,2025-07-09,株式会社公建,,株式会社,三重県,津市,雲出島貫町５３１番地２,,24,201,5140305,,,,,,,2025-07-09,1,,,,,コウケン,0
740,3200001043999,新規,0,2025-07-09,2025-07-09,株式会社ＳＫＹ,,株式会社,岐阜県,多治見市,平井町２丁目３５番地,,21,204,5070058,,,,,,,2025-07-09,1,,,,,スカイ,0
743,3220001026795,新規,0,2025-07-09,2025-07-09,株式会社ＭＵＳＶＩＡ,,株式会社,石川県,河北郡津幡町,字潟端４７９番地５,,17,361,9290346,,,,,,,2025-07-09,1,,,,,ムスビア,0
748,3240001065189,新規,0,2025-07-09,2025-07-09,株式会社アイギス研究所,,株式会社,広島県,広島市東区,光町２丁目３番７－１５１１号,,34,102,7320052,,,,,,,2025-07-09,1,,,,,アイギスケンキュウショ,0
750,3240003007296,新規,0,2025-07-09,2025-07-09,合同会社ＭＯＮＤＯ,,合同会社,広島県,福山市,神辺町川南５４７－５,,34,207,7210000,,,,,,,2025-07-09,1,,,,,モンド,0
761,3290001110592,新規,0,2025-07-09,2025-07-09,ＳＨＩＴＡＳＡＫＩ　Ｃｒｅａｔｉｖｅ株式会社,,株式会社,福岡県,久留米市,合川町１８０番地１,,40,203,8390861,,,,,,,2025-07-09,1,,,,,シタサキクリエイティブ,0
762,3290001110626,新規,0,2025-07-09,2025-07-09,株式会社ＨＲ,,株式会社,福岡県,福岡市早良区,小田部１丁目１８番１０号,,40,137,8140032,,,,,,,2025-07-09,1,,,,,エイチアール,0
763,3290001110642,新規,0,2025-07-09,2025-07-09,株式会社ＥＬパートナーズ,,株式会社,福岡県,福岡市博多区,博多駅前２丁目１９番１７－５０３号,,40,132,8120011,,,,,,,2025-07-09,1,,,,,イーエルパートナーズ,0
764,3290001110659,新規,0,2025-07-09,2025-07-09,睦設備工業株式会社,,株式会社,福岡県,糟屋郡志免町,別府北１丁目６番８－１１１０号,,40,343,8112233,,,,,,,2025-07-09,1,,,,,マコトセツビコウギョウ,0
766,3290801031690,新規,0,2025-07-09,2025-07-09,株式会社輪宝,,株式会社,福岡県,直方市,大字感田２１３５番地３ガンダフォーレ１０１,,40,204,8220001,,,,,,,2025-07-09,1,,,,,リンホウ,0
767,3290805009840,新規,0,2025-07-09,2025-07-09,一般社団法人全国幸せ相続計画ネットワーク北九州,,その他の設立登記法人,福岡県,北九州市門司区,東港町４番６８号,,40,101,8010853,,,,,,,2025-07-09,1,,,,,ゼンコクシアワセソウゾクケイカクネットワークキタキュウシュウ,0
770,3310001019699,新規,0,2025-07-09,2025-07-09,株式会社ＣＬＡＩＲ,,株式会社,長崎県,長崎市,三景台町３０番２３号ファミールサンオウ１０２,,42,201,8500824,,,,,,,2025-07-09,1,,,,,クレール,0
771,3320001021200,新規,0,2025-07-09,2025-07-09,株式会社オーエムテック,,株式会社,大分県,大分市,大字旦野原１０１２番地の５,,44,201,8701124,,,,,,,2025-07-09,1,,,,,オーエムテック,0
772,3320001021209,新規,0,2025-07-09,2025-07-09,未来産業株式会社,,株式会社,大分県,国東市,国東町小原１９３１番地１,,44,214,8730511,,,,,,,2025-07-09,1,,,,,ミライサンギョウ,0
773,3330001033384,新規,0,2025-07-09,2025-07-09,株式会社白川自然農園,,株式会社,熊本県,阿蘇郡南小国町,大字満願寺６０３２番地２８,,43,423,8692402,,,,,,,2025-07-09,1,,,,,シラカワシゼンノウエン,0
774,3330001033392,新規,0,2025-07-09,2025-07-09,株式会社鉄駆グローバル,,株式会社,熊本県,宇城市,豊野町山崎１６４２番地１,,43,213,8614305,,,,,,,2025-07-09,1,,,,,テックグローバル,0
775,3330003011108,新規,0,2025-07-09,2025-07-09,合同会社サイレンス,,合同会社,熊本県,熊本市中央区,中央街１１番３－６０１号,,43,101,8600802,,,,,,,2025-07-09,1,,,,,サイレンス,0
776,3350003004968,新規,0,2025-07-09,2025-07-09,合同会社吉永内装,,合同会社,宮崎県,西臼杵郡高千穂町,大字三田井１９番地１３,,45,441,8821101,,,,,,,2025-07-09,1,,,,,ヨシナガナイソウ,0
778,3360001035452,新規,0,2025-07-09,2025-07-09,株式会社蘭Ｄｅｓｉｇｎ,,株式会社,沖縄県,南城市,玉城字前川１３１６番地１,,47,215,9010616,,,,,,,2025-07-09,1,,,,,ランデザイン,0
779,3360003015031,新規,0,2025-07-09,2025-07-09,合同会社ＫＡＬＥＥ　ＢＡＳＥ,,合同会社,沖縄県,那覇市,牧志１丁目２－３・１－Ａ,,47,201,9000013,,,,,,,2025-07-09,1,,,,,,0
780,3360003015064,新規,0,2025-07-09,2025-07-09,合同会社吉鉄工業,,合同会社,沖縄県,浦添市,西原６丁目１６番２４－３０３号ネクスコート棚原,,47,208,9012101,,,,,,,2025-07-09,1,,,,,ヨシテツ,0
783,3370003007184,新規,0,2025-07-09,2025-07-09,合同会社イブキ,,合同会社,宮城県,仙台市若林区,南鍛冶町８５番地アールアイ南鍛冶町１０５,,04,103,9840061,,,,,,,2025-07-09,1,,,,,イブキ,0
787,3400001017108,新規,0,2025-07-09,2025-07-09,株式会社エフティエス,,株式会社,岩手県,盛岡市,三本柳２３地割７５番地３０,,03,201,0200831,,,,,,,2025-07-09,1,,,,,エフティエス,0
794,3430003017838,新規,0,2025-07-09,2025-07-09,合同会社ＭＣ‐ｙｕｚｕ,,合同会社,北海道,札幌市白石区,南郷通１３丁目南５番１６号南郷サンハイツ７０３号,,01,104,0030022,,,,,,,2025-07-09,1,,,,,エムシーユズ,0
795,3430003017846,新規,0,2025-07-09,2025-07-09,ふらのりあるエステート合同会社,,合同会社,北海道,江別市,大麻高町１７番地６,,01,217,0690853,,,,,,,2025-07-09,1,,,,,フラノリアルエステート,0
797,3450003002689,新規,0,2025-07-09,2025-07-09,合同会社伊東商会,,合同会社,北海道,旭川市,東七条８丁目１番１６号,,01,204,0700027,,,,,,,2025-07-09,1,,,,,イトウショウカイ,0
804,3500001026404,新規,0,2025-07-09,2025-07-09,株式会社Ｍメンテナンス,,株式会社,愛媛県,松山市,柳井町３丁目７－３,,38,201,7900014,,,,,,,2025-07-09,1,,,,,エムメンテナンス,0
809,4010001256561,新規,0,2025-07-09,2025-07-09,日本信用データ株式会社,,株式会社,東京都,中央区,日本橋小舟町２番１１号日本橋アークビル２階,,13,102,1030024,,,,,,,2025-07-09,1,,,,,ニホンシンヨウデータ,0
810,4010001256586,新規,0,2025-07-09,2025-07-09,株式会社ＳＴＯＣＫ１９２,,株式会社,東京都,千代田区,永田町２丁目１２番４号,,13,101,1000014,,,,,,,2025-07-09,1,,,,,ストックヒャクキュウジュウニ,0
811,4010001256594,新規,0,2025-07-09,2025-07-09,株式会社ＲＩＮＴＥＮ,,株式会社,東京都,中央区,日本橋富沢町２番５号－１階,,13,102,1030006,,,,,,,2025-07-09,1,,,,,リンテン,0
812,4010001256628,新規,0,2025-07-09,2025-07-09,李維台湾株式会社,,株式会社,東京都,中央区,新富２丁目１４－６,,13,102,1040041,,,,,,,2025-07-09,1,,,,,リーウェイタイワン,0
813,4010003047892,新規,0,2025-07-09,2025-07-09,合同会社ＪＲＷＤファンド第１１号,,合同会社,東京都,中央区,日本橋１丁目４番１号日本橋一丁目ビルディング,,13,102,1030027,,,,,,,2025-07-09,1,,,,,ジェイアールダブリューディーファンドダイジュウイチゴウ,0
814,4010003047934,新規,0,2025-07-09,2025-07-09,ｊａｎｅ合同会社,,合同会社,東京都,文京区,湯島３丁目２８－１８－７０１,,13,105,1130034,,,,,,,2025-07-09,1,,,,,ジェーン,0
815,4010003047942,新規,0,2025-07-09,2025-07-09,水月資産管理合同会社,,合同会社,東京都,文京区,千駄木１丁目２２－２４,,13,105,1130022,,,,,,,2025-07-09,1,,,,,ミズツキシサンカンリ,0
817,4010101016758,新規,0,2025-07-09,2025-07-09,株式会社ヤマモト空調,,株式会社,東京都,八王子市,西寺方町３３７番地４,,13,201,1920153,,,,,,,2025-07-09,1,,,,,ヤマモトクウチョウ,0
819,4010401191573,新規,0,2025-07-09,2025-07-09,アクセリスファーマ株式会社,,株式会社,東京都,港区,南青山３丁目８番１４号,,13,103,1070062,,,,,,,2025-07-09,1,,,,,アクセリスファーマ,0
820,4010401191598,新規,0,2025-07-09,2025-07-09,株式会社ＷＨＩＴＥ　ＡＬＢＵＭ．,,株式会社,東京都,港区,南麻布２丁目１－１７白ビル２Ｆ,,13,103,1060047,,,,,,,2025-07-09,1,,,,,ホワイトアルバム,0
822,4010403035489,新規,0,2025-07-09,2025-07-09,コインネージ合同会社,,合同会社,東京都,港区,南青山３丁目１番３６号青山丸竹ビル６Ｆ,,13,103,1070062,,,,,,,2025-07-09,1,,,,,コインネージ,0
823,4010403035563,新規,0,2025-07-09,2025-07-09,ＫＥＴふくい１号合同会社,,合同会社,東京都,港区,元赤坂１丁目１番７－１２０９号株式会社赤坂国際会計内,,13,103,1070051,,,,,,,2025-07-09,1,,,,,ケーイーティーフクイイチゴウ,0
826,4010503007917,新規,0,2025-07-09,2025-07-09,ＥｙｍＺ合同会社,,合同会社,東京都,台東区,東上野１丁目２２－９プレールドゥーク御徒町７０５,,13,106,1100015,,,,,,,2025-07-09,1,,,,,エイム,0
827,4010601067549,新規,0,2025-07-09,2025-07-09,株式会社ＴＵＫＵＲＵ,,株式会社,東京都,江東区,富岡１丁目１２番８号,,13,108,1350047,,,,,,,2025-07-09,1,,,,,ツクル,0
830,4010701047979,新規,0,2025-07-09,2025-07-09,ＹｕＷｏｒｑ株式会社,,株式会社,東京都,品川区,西五反田８丁目１番１３号ＧＢＳ・Ｄ－１０号,,13,109,1410031,,,,,,,2025-07-09,1,,,,,ユーワーク,0
833,4010901057704,新規,0,2025-07-09,2025-07-09,株式会社Ａｍｍｏｎｉｔｅ,,株式会社,東京都,世田谷区,代田６丁目７番４号,,13,112,1550033,,,,,,,2025-07-09,1,,,,,アンモナイト,0
834,4010901057720,新規,0,2025-07-09,2025-07-09,株式会社えのさん,,株式会社,東京都,世田谷区,世田谷１丁目４１番２４号,,13,112,1540017,,,,,,,2025-07-09,1,,,,,エノサン,0
836,4010903010082,新規,0,2025-07-09,2025-07-09,合同会社流,,合同会社,東京都,世田谷区,豪徳寺１丁目１２－２０,,13,112,1540021,,,,,,,2025-07-09,1,,,,,ナガレ,0
842,4011001170777,新規,0,2025-07-09,2025-07-09,デジタイドクリエイターズ株式会社,,株式会社,東京都,目黒区,五本木２丁目１９番１１号,,13,110,1530053,,,,,,,2025-07-09,1,,,,,デジタイドクリエイターズ,0
843,4011001170802,新規,0,2025-07-09,2025-07-09,株式会社ＯＮＥＳＴＡＲプロダクション,,株式会社,東京都,目黒区,大橋１丁目２番１０－７１０号ライオンズプラザ池尻大橋,,13,110,1530044,,,,,,,2025-07-09,1,,,,,ワンスタープロダクション,0
844,4011001170876,新規,0,2025-07-09,2025-07-09,ＥＬＤＯＲ株式会社,,株式会社,東京都,渋谷区,神宮前６丁目２３番４号桑野ビル２階,,13,113,1500001,,,,,,,2025-07-09,1,,,,,エルドール,0
850,4011101112407,新規,0,2025-07-09,2025-07-09,ＳＴＡＹＡＮＤ株式会社,,株式会社,東京都,新宿区,箪笥町１８番地３,,13,104,1620833,,,,,,,2025-07-09,1,,,,,ステイアンド,0
854,4011201026498,新規,0,2025-07-09,2025-07-09,株式会社２８９,,株式会社,東京都,中野区,中央１丁目２０番３,,13,114,1640011,,,,,,,2025-07-09,1,,,,,ニハチキュウ,0
855,4011203004758,新規,0,2025-07-09,2025-07-09,ＮＫ　Ｓｔｕｄｉｏ合同会社,,合同会社,東京都,中野区,中央５丁目８－１１,,13,114,1640011,,,,,,,2025-07-09,1,,,,,エヌケースタジオ,0
861,4011501032304,新規,0,2025-07-09,2025-07-09,株式会社リーチリンク,,株式会社,東京都,北区,東田端２丁目１－１２アーキストビル田端４０１,,13,117,1140013,,,,,,,2025-07-09,1,,,,,リーチリンク,0
863,4011601028788,新規,0,2025-07-09,2025-07-09,株式会社Ｓｉｌｅｎｃｅ,,株式会社,東京都,練馬区,桜台４丁目５－８,,13,120,1760002,,,,,,,2025-07-09,1,,,,,サイレンス,0
864,4011703004308,新規,0,2025-07-09,2025-07-09,合同会社Ｗｉｎｇｓ　ＩｍＥｘ,,合同会社,東京都,江戸川区,西葛西７丁目２７番１１号,,13,123,1340088,,,,,,,2025-07-09,1,,,,,ウイングスアイメクス,0
867,4011801046425,新規,0,2025-07-09,2025-07-09,ＭＹ株式会社,,株式会社,東京都,足立区,足立４丁目３３番１号３０６号室,,13,121,1200015,,,,,,,2025-07-09,1,,,,,エムワイ,0
870,4012403007229,新規,0,2025-07-09,2025-07-09,合同会社クリエイティブエアー,,合同会社,東京都,武蔵野市,吉祥寺本町２丁目８番４号ｉ‐ｏｆｆｉｃｅ吉祥寺,,13,203,1800004,,,,,,,2025-07-09,1,,,,,クリエイティブエアー,0
879,4013301054560,新規,0,2025-07-09,2025-07-09,ＨＡＪＩＭＥアセットマネジメント株式会社,,株式会社,東京都,豊島区,南池袋２丁目２５番５号藤久ビル東５号館,,13,116,1710022,,,,,,,2025-07-09,1,,,,,ハジメアセットマネジメント,0
891,4020003028801,新規,0,2025-07-09,2025-07-09,ｇｒｅｅｎ合同会社,,合同会社,神奈川県,川崎市川崎区,渡田向町２９―１５へーベルメゾン３０２,,14,131,2100841,,,,,,,2025-07-09,1,,,,,グリーン,0
892,4020003028900,新規,0,2025-07-09,2025-07-09,合同会社仮想生産装置研究所,,合同会社,神奈川県,横浜市青葉区,市ケ尾町１６４７番地６,,14,117,2250024,,,,,,,2025-07-09,1,,,,,カソウセイサンソウチケンキュウジョ,0
902,4021003016242,新規,0,2025-07-09,2025-07-09,合同会社ＡＣＣ,,合同会社,神奈川県,鎌倉市,山崎１７９８番地１６,,14,204,2470066,,,,,,,2025-07-09,1,,,,,エーシーシー,0
916,4030001167575,新規,0,2025-07-09,2025-07-09,株式会社ＨＵＩＴ,,株式会社,埼玉県,新座市,野寺５丁目３番４１－７号,,11,230,3520034,,,,,,,2025-07-09,1,,,,,ユイット,0
927,4040003027999,新規,0,2025-07-09,2025-07-09,合同会社Ｒ．Ｃ．Ｓ,,合同会社,千葉県,野田市,船形２８３４番地の１３,,12,208,2700233,,,,,,,2025-07-09,1,,,,,アールシーエス,0
928,4040003028007,新規,0,2025-07-09,2025-07-09,合同会社ベレケの村,,合同会社,千葉県,南房総市,白浜町白浜９３５番地,,12,234,2950102,,,,,,,2025-07-09,1,,,,,ベレケノムラ,0
929,4040003028031,新規,0,2025-07-09,2025-07-09,合同会社Ｃ＆Ｍ　ＤＥＴＡＩＬ　Ｉｎｃ．,,合同会社,千葉県,流山市,平和台１丁目３番地の１６サニーウェル２０２,,12,220,2700157,,,,,,,2025-07-09,1,,,,,シーアンドエムディティールインク,0
931,4040005022809,新規,0,2025-07-09,2025-07-09,ＮＰＯ法人Ｓｅｅｄｉｎｇ,,その他の設立登記法人,千葉県,柏市,常盤台１番１５号,,12,217,2770087,,,,,,,2025-07-09,1,,,,,シーディング,0
938,4070001043104,新規,0,2025-07-09,2025-07-09,株式会社三宝プリンターズ,,株式会社,群馬県,太田市,丸山町１０１番地５,,10,205,3730018,,,,,,,2025-07-09,1,,,,,サンポウプリンターズ,0
939,4070001043112,新規,0,2025-07-09,2025-07-09,株式会社Ｋ．Ｉ．Ｚ,,株式会社,群馬県,伊勢崎市,境伊与久２６８８番地１,,10,204,3700105,,,,,,,2025-07-09,1,,,,,ケーアイゼット,0
940,4070001043137,新規,0,2025-07-09,2025-07-09,株式会社ＮＡＧＯＭＩ,,株式会社,群馬県,沼田市,栄町１７４番地４,,10,206,3780014,,,,,,,2025-07-09,1,,,,,ナゴミ,0
941,4070003005985,新規,0,2025-07-09,2025-07-09,合同会社まかせて斎藤,,合同会社,群馬県,高崎市,上豊岡町５７６番地７,,10,202,3700871,,,,,,,2025-07-09,1,,,,,,0
942,4070003005993,新規,0,2025-07-09,2025-07-09,ウェルネスリサーチプロジェクト合同会社,,合同会社,群馬県,佐波郡玉村町,大字角渕５２０８番地６,,10,464,3701124,,,,,,,2025-07-09,1,,,,,ウェルネスリサーチプロジェクト,0
944,4080101025637,新規,0,2025-07-09,2025-07-09,ネクストキャリア株式会社,,株式会社,静岡県,賀茂郡東伊豆町,奈良本１２４６番地５７,,22,301,4130302,,,,,,,2025-07-09,1,,,,,ネクストキャリア,0
945,4080103003368,新規,0,2025-07-09,2025-07-09,合同会社スクエア,,合同会社,静岡県,富士市,吉原４丁目２３番１２号,,22,210,4170051,,,,,,,2025-07-09,1,,,,,スクエア,0
946,4080401028018,新規,0,2025-07-09,2025-07-09,浜名株式会社,,株式会社,静岡県,浜松市浜名区,沼２６５番地の５,,22,139,4340037,,,,,,,2025-07-09,1,,,,,ハマナ,0
947,4080403005295,新規,0,2025-07-09,2025-07-09,スズキネクスト合同会社,,合同会社,静岡県,菊川市,西横地３１２番地の１,,22,224,4390026,,,,,,,2025-07-09,1,,,,,スズキネクスト,0
949,4100003008258,新規,0,2025-07-09,2025-07-09,ＦｉｖｅＴｗｏＦｉｖｅ合同会社,,合同会社,長野県,茅野市,北山４０３５番地,,20,214,3910301,,,,,,,2025-07-09,1,,,,,ファイブトゥーファイブ,0
950,4100003008282,新規,0,2025-07-09,2025-07-09,合同会社Ｙ’ｓカンパニー,,合同会社,長野県,長野市,三本柳西２丁目１５番地アメニティ三本柳Ａ１０４,,20,201,3812244,,,,,,,2025-07-09,1,,,,,ワイズカンパニー,0
951,4110001039411,新規,0,2025-07-09,2025-07-09,株式会社ＰＥＡＣＥ　ＨＩＬＬ,,株式会社,新潟県,燕市,松橋１９８番地１,,15,213,9591202,,,,,,,2025-07-09,1,,,,,ピースヒル,0
960,4120001277605,新規,0,2025-07-09,2025-07-09,匠源堂株式会社,,株式会社,大阪府,大阪市西区,阿波座２丁目２－２０６－Ａ,,27,106,5500011,,,,,,,2025-07-09,1,,,,,ショウゲンドウ,0
961,4120001277720,新規,0,2025-07-09,2025-07-09,ニューアヴァロン株式会社,,株式会社,大阪府,大阪市住之江区,南港北２丁目１番１０号,,27,125,5590034,,,,,,,2025-07-09,1,,,,,ニューアヴァロン,0
962,4120001277761,新規,0,2025-07-09,2025-07-09,株式会社Ｓｅｖｅｎ　Ｒｉｖｅｒｓ,,株式会社,大阪府,大阪市西区,阿波座１丁目３番１８号,,27,106,5500011,,,,,,,2025-07-09,1,,,,,セブンリバーズ,0
964,4120003029896,新規,0,2025-07-09,2025-07-09,合同会社旭商店,,合同会社,大阪府,大阪市都島区,内代町１丁目１番２２号５階,,27,102,5340013,,,,,,,2025-07-09,1,,,,,アサヒショウテン,0
965,4120003029987,新規,0,2025-07-09,2025-07-09,合同会社ＰＨリフォーム,,合同会社,大阪府,寝屋川市,対馬江西町２０番５号,,27,215,5720065,,,,,,,2025-07-09,1,,,,,ピーエイチリフォーム,0
972,4122001039407,新規,0,2025-07-09,2025-07-09,株式会社森江,,株式会社,大阪府,柏原市,大字高井田９５１－１２,,27,221,5820015,,,,,,,2025-07-09,1,,,,,モリエ,0
978,4130003010590,新規,0,2025-07-09,2025-07-09,合同会社夢雨霰,,合同会社,京都府,京都市伏見区,深草堀田町１０番地１ローズマンションＢ棟９０４号室,,26,109,6120026,,,,,,,2025-07-09,1,,,,,ユメアメアラレ,0
983,4140001139159,新規,0,2025-07-09,2025-07-09,新田開発株式会社,,株式会社,兵庫県,三木市,吉川町新田５８８番地,,28,215,6731101,,,,,,,2025-07-09,1,,,,,ニッタカイハツ,0
984,4140001139167,新規,0,2025-07-09,2025-07-09,株式会社ペットウィズデジタル,,株式会社,兵庫県,神戸市中央区,磯辺通１丁目１－１８カサベラ国際プラザビル７０７,,28,110,6510084,,,,,,,2025-07-09,1,,,,,ペットウィズデジタル,0
985,4140001139175,新規,0,2025-07-09,2025-07-09,株式会社ティー・アール,,株式会社,兵庫県,伊丹市,鴻池６丁目３番６号,,28,207,6640006,,,,,,,2025-07-09,1,,,,,ティーアール,0
986,4140001139191,新規,0,2025-07-09,2025-07-09,株式会社エイジア,,株式会社,兵庫県,宝塚市,逆瀬川１丁目１１番２８－６０１号,,28,214,6650035,,,,,,,2025-07-09,1,,,,,エイジア,0
990,4140003022288,新規,0,2025-07-09,2025-07-09,合同会社ＫＵＬＴＩＶＡ,,合同会社,兵庫県,丹波篠山市,不来坂２１４番地,,28,221,6692124,,,,,,,2025-07-09,1,,,,,カルティバ,0
991,4140003022296,新規,0,2025-07-09,2025-07-09,合同会社タイムシェアラボ,,合同会社,兵庫県,芦屋市,大原町１９番７号,,28,206,6590092,,,,,,,2025-07-09,1,,,,,タイムシェアラボ,0
992,4140003022313,新規,0,2025-07-09,2025-07-09,Ｓｍａｌｌ　Ｓｔｅｐｓ　Ｆｏｒｗａｒｄ合同会社,,合同会社,兵庫県,神戸市北区,広陵町６丁目１０９番地,,28,109,6511213,,,,,,,2025-07-09,1,,,,,スモールステップスフォーワード,0
993,4150001028261,新規,0,2025-07-09,2025-07-09,株式会社ミズノ姉妹,,株式会社,奈良県,大和高田市,神楽２丁目１３番４０号高田パインヒルズ店舗２－１,,29,202,6350025,,,,,,,2025-07-09,1,,,,,ミズノシマイ,0
994,4150003003650,新規,0,2025-07-09,2025-07-09,合同会社ＭＩＮＩＢＡＫＫＡ,,合同会社,奈良県,生駒市,東生駒４丁目５００番地９６,,29,209,6300213,,,,,,,2025-07-09,1,,,,,ミニバッカ,0
996,4170001018698,新規,0,2025-07-09,2025-07-09,株式会社ルピリア,,株式会社,和歌山県,新宮市,井の沢６番５７号,,30,207,6470045,,,,,,,2025-07-09,1,,,,,ルピリア,0
1000,4180001167560,新規,0,2025-07-09,2025-07-09,ヒカリマシナリー株式会社,,株式会社,愛知県,半田市,港町１丁目２６番地,,23,205,4750823,,,,,,,2025-07-09,1,,,,,ヒカリマシナリー,0
1001,4180001167619,新規,0,2025-07-09,2025-07-09,株式会社ＡＮＮＥＸ,,株式会社,愛知県,名古屋市熱田区,四番２丁目２番４号,,23,109,4560051,,,,,,,2025-07-09,1,,,,,アネックス,0
1002,4180001167627,新規,0,2025-07-09,2025-07-09,Ａ．Ｓ．Ａ株式会社,,株式会社,愛知県,日進市,米野木町下五反田５９番地４メゾン・シノノメ２０２,,23,230,4700111,,,,,,,2025-07-09,1,,,,,エーエスエー,0
1003,4180003028645,新規,0,2025-07-09,2025-07-09,合同会社Ｃｏａｋａｒｉ,,合同会社,愛知県,名古屋市中村区,名駅４丁目２４―５第２森ビル４０１,,23,105,4500002,,,,,,,2025-07-09,1,,,,,コアカリ,0
1004,4180003028703,新規,0,2025-07-09,2025-07-09,合同会社ＲＯＡＤ,,合同会社,愛知県,名古屋市緑区,東神の倉１丁目２３０４番地,,23,114,4580808,,,,,,,2025-07-09,1,,,,,ロード,0
1005,4180003028711,新規,0,2025-07-09,2025-07-09,ＫＩパートナーズ合同会社,,合同会社,愛知県,春日井市,妙慶町３丁目２０番地,,23,206,4860928,,,,,,,2025-07-09,1,,,,,ケイアイパートナーズ,0
1007,4180301039963,新規,0,2025-07-09,2025-07-09,株式会社阪本工業,,株式会社,愛知県,蒲郡市,竹谷町日山３２番地７,,23,214,4430046,,,,,,,2025-07-09,1,,,,,サカモトコウギョウ,0
1012,4200001043998,新規,0,2025-07-09,2025-07-09,株式会社しいの木屋,,株式会社,岐阜県,岐阜市,初日町２丁目２７番地１,,21,201,5020825,,,,,,,2025-07-09,1,,,,,シイノキヤ,0
1013,4200001044014,新規,0,2025-07-09,2025-07-09,株式会社ｍｉｒｅｉａ,,株式会社,岐阜県,下呂市,森１４８３－３サンパレス千田１０２号室,,21,220,5092202,,,,,,,2025-07-09,1,,,,,ミレイア,0
1015,4200003006912,新規,0,2025-07-09,2025-07-09,合同会社ｂｅａｓｔ,,合同会社,岐阜県,岐阜市,金町６丁目２１岐阜ステーションビル３０４,,21,201,5008842,,,,,,,2025-07-09,1,,,,,ビースト,0
1018,4210001020237,新規,0,2025-07-09,2025-07-09,株式会社シアターファクトリー,,株式会社,福井県,福井市,石盛町６１３番地,,18,201,9100122,,,,,,,2025-07-09,1,,,,,シアターファクトリー,0
1025,4240001065213,新規,0,2025-07-09,2025-07-09,株式会社ＮｉＫＡ　Ｗｅａｌｔｈ　Ｄｅｓｉｇｎ,,株式会社,広島県,東広島市,西条朝日町７番４５号コワーキングスペースＬａＰｌａｃｅ内,,34,212,7390012,,,,,,,2025-07-09,1,,,,,ニカウェルスデザイン,0
1031,4270003001766,新規,0,2025-07-09,2025-07-09,合同会社つなぐ,,合同会社,鳥取県,米子市,河岡１２８番地１,,31,202,6893521,,,,,,,2025-07-09,1,,,,,ツナグ,0
1034,4290001110609,新規,0,2025-07-09,2025-07-09,レイズクラフト株式会社,,株式会社,福岡県,福岡市中央区,天神２丁目３番１０号天神パインクレスト７１９号,,40,133,8100001,,,,,,,2025-07-09,1,,,,,レイズクラフト,0
1035,4290001110633,新規,0,2025-07-09,2025-07-09,株式会社化成堂,,株式会社,福岡県,福岡市早良区,西新３丁目１５番５号,,40,137,8140002,,,,,,,2025-07-09,1,,,,,カセイドウ,0
1036,4290001110658,新規,0,2025-07-09,2025-07-09,タケシタ工業株式会社,,株式会社,福岡県,八女市,黒木町桑原４０６番地,,40,210,8341216,,,,,,,2025-07-09,1,,,,,タケシタコウギョウ,0
1037,4290003017067,新規,0,2025-07-09,2025-07-09,ＮＫＧＭ合同会社,,合同会社,福岡県,福岡市博多区,博多駅東３丁目９番１７－４０１号,,40,132,8120013,,,,,,,2025-07-09,1,,,,,エヌケイジーエム,0
1038,4290003017100,新規,0,2025-07-09,2025-07-09,合同会社ファイブラック,,合同会社,福岡県,福岡市南区,長住２丁目４番３０号,,40,134,8111362,,,,,,,2025-07-09,1,,,,,ファイブラック,0
1041,4290005019788,新規,0,2025-07-09,2025-07-09,農事組合法人若獅子,,その他の設立登記法人,福岡県,八女市,新庄１６１５番地,,40,210,8340052,,,,,,,2025-07-09,1,,,,,ワカジシ,0
1044,4290801031698,新規,0,2025-07-09,2025-07-09,株式会社まごころでんき,,株式会社,福岡県,北九州市八幡西区,浅川２丁目１番１６号エーベース３号室,,40,109,8070872,,,,,,,2025-07-09,1,,,,,マゴコロデンキ,0
1046,4300005007254,新規,0,2025-07-09,2025-07-09,一般社団法人唐津わくわくカード会,,その他の設立登記法人,佐賀県,唐津市,浜玉町浜崎１１５１番地１,,41,202,8495131,,,,,,,2025-07-09,1,,,,,カラツワクワクカードカイ,0
1048,4330001033391,新規,0,2025-07-09,2025-07-09,株式会社Ｔ．Ｎ　ｗｏｒｋｓ,,株式会社,熊本県,球磨郡球磨村,大字渡甲１１３０番地１２５,,43,513,8696401,,,,,,,2025-07-09,1,,,,,ティーエヌワークス,0
1049,4340001027491,新規,0,2025-07-09,2025-07-09,株式会社福島総建,,株式会社,鹿児島県,鹿児島市,谷山中央４丁目１１１番地１２,,46,201,8910141,,,,,,,2025-07-09,1,,,,,フクシマソウケン,0
1050,4340003004893,新規,0,2025-07-09,2025-07-09,合同会社エース,,合同会社,鹿児島県,出水市,高尾野町下水流２２７０－１,,46,208,8990405,,,,,,,2025-07-09,1,,,,,エース,0
1051,4350001019629,新規,0,2025-07-09,2025-07-09,株式会社来輝水産,,株式会社,宮崎県,日向市,大字富高８５４番地,,45,206,8830034,,,,,,,2025-07-09,1,,,,,ライキスイサン,0
1052,4350001019645,新規,0,2025-07-09,2025-07-09,株式会社ボヤージュ,,株式会社,宮崎県,都城市,蓑原町３２２１番地１０,,45,202,8850095,,,,,,,2025-07-09,1,,,,,ボヤージュ,0
1054,4350003004967,新規,0,2025-07-09,2025-07-09,ＨＫ　ＯＮＥ合同会社,,合同会社,宮崎県,都城市,牟田町２－５Ｕビル２０２号,,45,202,8850079,,,,,,,2025-07-09,1,,,,,エイチケーワン,0
1055,4350003004975,新規,0,2025-07-09,2025-07-09,合同会社ＯＮｃｈａＮ堂,,合同会社,宮崎県,宮崎市,佐土原町東上那珂１５６６９番地２,,45,201,8800303,,,,,,,2025-07-09,1,,,,,オンチャンドウ,0
1058,4360001035443,新規,0,2025-07-09,2025-07-09,株式会社ＨｅａｒｔＬｉｎｋ,,株式会社,沖縄県,宜野湾市,宇地泊３丁目１１番１４－２０２号いさおハウスＩ,00139859,47,205,9012227,,,,,,,2025-07-09,1,,,,,ハートリンク,0
1059,4360003015063,新規,0,2025-07-09,2025-07-09,合同会社ｃｆｔｂ,,合同会社,沖縄県,那覇市,久茂地３丁目２６番３２号ＹＳＣビル２０２,,47,201,9000015,,,,,,,2025-07-09,1,,,,,シーエフティービー,0
1062,4370003007183,新規,0,2025-07-09,2025-07-09,合同会社喜楽,,合同会社,宮城県,仙台市青葉区,中央２丁目１１－１９仙南ビル４－Ａ,,04,101,9800021,,,,,,,2025-07-09,1,,,,,キラク,0
1063,4370003007191,新規,0,2025-07-09,2025-07-09,合同会社ＭＡＧＡＳＨＥＥ,,合同会社,宮城県,仙台市青葉区,広瀬町３―２４アールズ広瀬５０２,,04,101,9800873,,,,,,,2025-07-09,1,,,,,マガシェ,0
1067,4390001018049,新規,0,2025-07-09,2025-07-09,株式会社エイトテック,,株式会社,山形県,山形市,旅篭町１丁目１７番２０号,,06,201,9900047,,,,,,,2025-07-09,1,,,,,エイトテック,0
1070,4400001017107,新規,0,2025-07-09,2025-07-09,株式会社エニシング東北,,株式会社,岩手県,盛岡市,夕顔瀬町２３番１８号,,03,201,0200032,,,,,,,2025-07-09,1,,,,,エニシングトウホク,0
1074,4430001094804,新規,0,2025-07-09,2025-07-09,株式会社ＬＡＺＯ,,株式会社,北海道,札幌市豊平区,豊平五条３丁目２－２７,,01,105,0620905,,,,,,,2025-07-09,1,,,,,ラソ,0
1078,4430003017845,新規,0,2025-07-09,2025-07-09,青空建機サービス合同会社,,合同会社,北海道,歌志内市,字歌神６３番地１４,,01,227,0730404,,,,,,,2025-07-09,1,,,,,アオゾラケンキサービス,0
1079,4430003017861,新規,0,2025-07-09,2025-07-09,合同会社花そら,,合同会社,北海道,札幌市手稲区,前田五条１０丁目４番７号,,01,109,0060815,,,,,,,2025-07-09,1,,,,,ハナソラ,0
1080,4430003017878,新規,0,2025-07-09,2025-07-09,エムズコーポレーション合同会社,,合同会社,北海道,札幌市中央区,南十一条西１丁目５－１６,,01,101,0640811,,,,,,,2025-07-09,1,,,,,エムズコーポレーション,0
1098,5010001256494,新規,0,2025-07-09,2025-07-09,株式会社Ｋｏｎｎｅｃｔ　Ｆｒｏｎｔｉｅｒ　Ｌａｂ,,株式会社,東京都,千代田区,外神田５丁目２番１号外神田Ｓビル５階,,13,101,1010021,,,,,,,2025-07-09,1,,,,,コネクトフロンティアラボ,0
1099,5010001256511,新規,0,2025-07-09,2025-07-09,ヘリオステクノインベストメンツ株式会社,,株式会社,東京都,中央区,日本橋馬喰町１丁目１１番１０号,,13,102,1030002,,,,,,,2025-07-09,1,,,,,ヘリオステクノインベストメンツ,0
1100,5010001256528,新規,0,2025-07-09,2025-07-09,株式会社ＣＡＣ　ｉｄｅｎｔｉｔｙ,,株式会社,東京都,中央区,日本橋箱崎町２４番１号,,13,102,1030015,,,,,,,2025-07-09,1,,,,,シーエーシーアイデンティティ,0
1101,5010001256536,新規,0,2025-07-09,2025-07-09,ＤＡＲＥＢＡＳＥ株式会社,,株式会社,東京都,中央区,新富２丁目１１番１１号プラザ銀座新富ビル７０１号室,,13,102,1040041,,,,,,,2025-07-09,1,,,,,ダレベース,0
1102,5010001256552,新規,0,2025-07-09,2025-07-09,株式会社ＴＩＬＣ,,株式会社,東京都,千代田区,大手町１丁目５番１号大手町ファーストスクエアイーストタワー４Ｆ,,13,101,1000004,,,,,,,2025-07-09,1,,,,,ティーアイエルシー,0
1103,5010001256577,新規,0,2025-07-09,2025-07-09,株式会社夢パブリッシング,,株式会社,東京都,中央区,日本橋３丁目２番１４号日本橋ＫＮビル４Ｆ,,13,102,1030027,,,,,,,2025-07-09,1,,,,,ユメパブリッシング,0
1104,5010001256585,新規,0,2025-07-09,2025-07-09,株式会社ＳＴＯＣＫ１９１,,株式会社,東京都,千代田区,永田町２丁目１２番４号,,13,101,1000014,,,,,,,2025-07-09,1,,,,,ストックヒャクキュウジュウイチ,0
1105,5010001256627,新規,0,2025-07-09,2025-07-09,ビジネスタロット株式会社,,株式会社,東京都,中央区,銀座６丁目１３番１６号ヒューリック銀座ウォールビルＵＣＦ５階,,13,102,1040061,,,,,,,2025-07-09,1,,,,,ビジネスタロット,0
1106,5010001256635,新規,0,2025-07-09,2025-07-09,株式会社Ｎｅｃｏ,,株式会社,東京都,文京区,本郷４丁目１５番２３－５０２号,,13,105,1130033,,,,,,,2025-07-09,1,,,,,ネコ,0
1107,5010001256651,新規,0,2025-07-09,2025-07-09,ＴＣＢ‐１４株式会社,,株式会社,東京都,千代田区,大手町１丁目１番１号,,13,101,1000004,,,,,,,2025-07-09,1,,,,,ティーシービージュウヨン,0
1108,5010001256692,新規,0,2025-07-09,2025-07-09,株式会社ソラリゼ,,株式会社,東京都,中央区,銀座１丁目１２番４号Ｎ＆ＥＢＬＤ．６Ｆ,,13,102,1040061,,,,,,,2025-07-09,1,,,,,ソラリゼ,0
1109,5010003047909,新規,0,2025-07-09,2025-07-09,合同会社ＣＲ２,,合同会社,東京都,中央区,銀座２丁目１０番８号マニエラ銀座ビル４階,,13,102,1040061,,,,,,,2025-07-09,1,,,,,シーアールツー,0
1110,5010003047917,新規,0,2025-07-09,2025-07-09,ＦＴＲ合同会社,,合同会社,東京都,千代田区,神田錦町３丁目１５－１６錦町ブンカイサン４階,,13,101,1010054,,,,,,,2025-07-09,1,,,,,エフティーアール,0
1111,5010003047933,新規,0,2025-07-09,2025-07-09,合同会社Ｇｏｌｄｅｎ　Ｈｏｕｒ,,合同会社,東京都,中央区,日本橋室町１丁目１１番１２号日本橋水野ビル７階,,13,102,1030022,,,,,,,2025-07-09,1,,,,,ゴールデンアワー,0
1112,5010003047941,新規,0,2025-07-09,2025-07-09,合同会社リアルエステート,,合同会社,東京都,中央区,日本橋室町１丁目１１番１２号日本橋水野ビル７階,,13,102,1030022,,,,,,,2025-07-09,1,,,,,リアルエステート,0
1113,5010003047958,新規,0,2025-07-09,2025-07-09,Ｊ＆Ｃコンサルティング合同会社,,合同会社,東京都,千代田区,神田須田町１丁目７番１号,,13,101,1010041,,,,,,,2025-07-09,1,,,,,ジェーアンドシーコンサルティング,0
1122,5010401191548,新規,0,2025-07-09,2025-07-09,株式会社あきつ,,株式会社,東京都,港区,芝公園４丁目６－１山田ビル３階,,13,103,1050011,,,,,,,2025-07-09,1,,,,,アキツ,0
1123,5010401191597,新規,0,2025-07-09,2025-07-09,ＥＬＩＶＯＲ株式会社,,株式会社,東京都,港区,芝浦２丁目９番１－２７０１号,,13,103,1080023,,,,,,,2025-07-09,1,,,,,エリヴォール,0
1125,5010403035488,新規,0,2025-07-09,2025-07-09,金融新聞ＤＩＧＩＴＡＬ合同会社,,合同会社,東京都,港区,六本木３丁目１６番１２号六本木ＫＳビル５Ｆ,,13,103,1060032,,,,,,,2025-07-09,1,,,,,キンユウシンブンデジタル,0
1126,5010501054324,新規,0,2025-07-09,2025-07-09,徳恒株式会社,,株式会社,東京都,台東区,台東３丁目５番１０号１０２Ｎ,,13,106,1100016,,,,,,,2025-07-09,1,,,,,トクコウ,0
1127,5010501054365,新規,0,2025-07-09,2025-07-09,スワローズキャピタル株式会社,,株式会社,東京都,台東区,東上野３丁目１０番４－３０１号室,,13,106,1100015,,,,,,,2025-07-09,1,,,,,スワローズキャピタル,0
1128,5010501054373,新規,0,2025-07-09,2025-07-09,株式会社だいえい,,株式会社,東京都,台東区,根岸５丁目２１番５号２階,,13,106,1100003,,,,,,,2025-07-09,1,,,,,ダイエイ,0
1129,5010503007916,新規,0,2025-07-09,2025-07-09,合同会社Ｔｏｍ’ｓ,,合同会社,東京都,台東区,駒形１丁目１０番９号,,13,106,1110043,,,,,,,2025-07-09,1,,,,,トムズ,0
1131,5010601067548,新規,0,2025-07-09,2025-07-09,株式会社ＫＡＯＭＩＥ,,株式会社,東京都,江東区,富岡１丁目１２番８号,,13,108,1350047,,,,,,,2025-07-09,1,,,,,カオミエ,0
1132,5010603011669,新規,0,2025-07-09,2025-07-09,ＡＮＤ　ＵＰ合同会社,,合同会社,東京都,江東区,東砂７丁目１０番３－５０１号,,13,108,1360074,,,,,,,2025-07-09,1,,,,,アンドアップ,0
1141,5011001170529,新規,0,2025-07-09,2025-07-09,株式会社ＧＹＡＯＯＮ,,株式会社,東京都,渋谷区,南平台町２－６南平台ヒルス３０１,,13,113,1500036,,,,,,,2025-07-09,1,,,,,ギャオン,0
1142,5011001170768,新規,0,2025-07-09,2025-07-09,株式会社スタートオーバー,,株式会社,東京都,渋谷区,道玄坂１丁目１０番８号渋谷道玄坂東急ビル２Ｆ－Ｃ,,13,113,1500043,,,,,,,2025-07-09,1,,,,,スタートオーバー,0
1143,5011001170801,新規,0,2025-07-09,2025-07-09,Ｔｅｒａｖｏｌｔ株式会社,,株式会社,東京都,目黒区,目黒１丁目４番１６号目黒Ｇビル７Ｆ,,13,110,1530063,,,,,,,2025-07-09,1,,,,,テラボルト,0
1144,5011001170974,新規,0,2025-07-09,2025-07-09,株式会社ブリッジホールディングス,,株式会社,東京都,渋谷区,恵比寿４丁目２０－３恵比寿ガーデンプレイスタワー２１階,,13,113,1500013,,,,,,,2025-07-09,1,,,,,ブリッジホールディングス,0
1145,5011005011068,新規,0,2025-07-09,2025-07-09,一般社団法人Ｃｈｅｓｔｅｒｔｏｎ　Ａｃａｄｅｍｙ　ｏｆ　Ｔｏｋｙｏ,,その他の設立登記法人,東京都,渋谷区,代々木５丁目７番１２号ＴＨＥ・ＴＷＩＳＴ２００,,13,113,1510053,,,,,,,2025-07-09,1,,,,,チェスタートンアカデミーオブトウキョウ,0
1152,5011101112182,新規,0,2025-07-09,2025-07-09,株式会社ＰＭＧＣａｐｉｔａｌ,,株式会社,東京都,新宿区,西新宿２丁目４番１号新宿ＮＳビル２５Ｆ,,13,104,1600023,,,,,,,2025-07-09,1,,,,,ピーエムジーキャピタル,0
1156,5011203004757,新規,0,2025-07-09,2025-07-09,ＪＬ合同会社,,合同会社,東京都,中野区,上鷺宮５丁目１７番３５号,,13,114,1650031,,,,,,,2025-07-09,1,,,,,ジェイエル,0
1162,5011601028779,新規,0,2025-07-09,2025-07-09,株式会社ハートフル・アイ,,株式会社,東京都,練馬区,羽沢２丁目６番８号,,13,120,1760003,,,,,,,2025-07-09,1,,,,,ハートフルアイ,0
1163,5011601028787,新規,0,2025-07-09,2025-07-09,株式会社Ｎｅｘｏｒａ　Ｓｏｎｇ,,株式会社,東京都,練馬区,関町東１丁目２番７号,,13,120,1770052,,,,,,,2025-07-09,1,,,,,ネクソラソング,0
1164,5011601028795,新規,0,2025-07-09,2025-07-09,株式会社ＭＳＡ　Ｐａｒｔｎｅｒｓ,,株式会社,東京都,練馬区,関町南３丁目６番１０号,,13,120,1770053,,,,,,,2025-07-09,1,,,,,エムエスエーパートナーズ,0
1166,5011701028497,新規,0,2025-07-09,2025-07-09,株式会社さつき電設,,株式会社,東京都,江戸川区,小松川２丁目４－３,,13,123,1320034,,,,,,,2025-07-09,1,,,,,サツキデンセツ,0
1167,5011703004307,新規,0,2025-07-09,2025-07-09,合同会社Ｃｕｌｔｕｒｅ　Ｇｒｏｗｔｈ,,合同会社,東京都,江戸川区,中葛西７丁目４番１０号クレスト中葛西２０５,,13,123,1340083,,,,,,,2025-07-09,1,,,,,カルチャーグロウス,0
1168,5011801046424,新規,0,2025-07-09,2025-07-09,株式会社ｓｅｃｏｎｄ,,株式会社,東京都,足立区,興野２丁目５番１２号,,13,121,1230844,,,,,,,2025-07-09,1,,,,,セカンド,0
1178,5020003028800,新規,0,2025-07-09,2025-07-09,ＳｈｏｕＭｏｎＷｏｒｋｓ合同会社,,合同会社,神奈川県,横浜市鶴見区,馬場４丁目３０番２４号,,14,101,2300076,,,,,,,2025-07-09,1,,,,,ショウモンワークス,0
1179,5020003028899,新規,0,2025-07-09,2025-07-09,世紀俊程合同会社,,合同会社,神奈川県,横浜市南区,高根町１丁目４番４０号,,14,105,2320022,,,,,,,2025-07-09,1,,,,,セイキシュンテイ,0
1180,5020003028908,新規,0,2025-07-09,2025-07-09,ワイエヌリンク合同会社,,合同会社,神奈川県,横浜市港北区,樽町２丁目２番１－５１５号,,14,109,2220001,,,,,,,2025-07-09,1,,,,,ワイエヌリンク,0
1182,5021001085718,新規,0,2025-07-09,2025-07-09,株式会社ラブ,,株式会社,神奈川県,座間市,四ツ谷５９３－１,,14,216,2520025,,,,,,,2025-07-09,1,,,,,ラブ,0
1183,5021001085750,新規,0,2025-07-09,2025-07-09,株式会社ＴＩＡＬＯＨＡ　Ｈａｗａｉｉ,,株式会社,神奈川県,茅ヶ崎市,柳島海岸１４番１３号,,14,207,2530063,,,,,,,2025-07-09,1,,,,,ティアロハハワイ,0
1196,5030003027173,新規,0,2025-07-09,2025-07-09,合同会社すまいる３３,,合同会社,埼玉県,入間市,豊岡４丁目６番１４号,,11,225,3580003,,,,,,,2025-07-09,1,,,,,スマイルサンサン,0
1197,5030005022206,新規,0,2025-07-09,2025-07-09,一般社団法人所沢市下水道維持管理協会,,その他の設立登記法人,埼玉県,所沢市,東狭山ケ丘１丁目７番地５２,,11,208,3591106,,,,,,,2025-07-09,1,,,,,,0
1202,5040001139523,新規,0,2025-07-09,2025-07-09,株式会社ＲＤＴ,,株式会社,千葉県,八千代市,八千代台南１丁目３番１０号ＬａＬａビル４階,,12,221,2760033,,,,,,,2025-07-09,1,,,,,アールディーティー,0
1203,5040001139531,新規,0,2025-07-09,2025-07-09,株式会社蒼栄,,株式会社,千葉県,柏市,南逆井４丁目６－１６,,12,217,2770043,,,,,,,2025-07-09,1,,,,,ソウエイ,0
1204,5040001139548,新規,0,2025-07-09,2025-07-09,株式会社ＴＡＧ,,株式会社,千葉県,柏市,柏１丁目４番２７号柏第一ビル５Ｆ,,12,217,2770005,,,,,,,2025-07-09,1,,,,,タッグ,0
1206,5040003028006,新規,0,2025-07-09,2025-07-09,合同会社Ｃｒａｆｔ‐Ｘ,,合同会社,千葉県,船橋市,上山町１丁目１４４番地９ソレイユ上山ＩＩ－２０１号,00139879,12,204,2730046,,,,,,,2025-07-09,1,,,,,クラフトエックス,0
1210,5070001043094,新規,0,2025-07-09,2025-07-09,ＮＲＳ株式会社,,株式会社,群馬県,伊勢崎市,境女塚３０番地２,,10,204,3700121,,,,,,,2025-07-09,1,,,,,,0
1211,5070001043103,新規,0,2025-07-09,2025-07-09,株式会社岡田自動車,,株式会社,群馬県,伊勢崎市,富塚町２３７９番地８,,10,204,3720833,,,,,,,2025-07-09,1,,,,,オカダジドウシャ,0
1212,5070001043111,新規,0,2025-07-09,2025-07-09,株式会社Ｄ．ＷＯＲＫＳ,,株式会社,群馬県,伊勢崎市,曲沢町７６６番地１４,,10,204,3792203,,,,,,,2025-07-09,1,,,,,,0
1213,5070001043128,新規,0,2025-07-09,2025-07-09,株式会社ＳｅｅＳ,,株式会社,群馬県,前橋市,川原町１丁目２７番地３,,10,201,3710046,,,,,,,2025-07-09,1,,,,,シーズ,0
1214,5070001043136,新規,0,2025-07-09,2025-07-09,Ｓ＆Ａマネジメント株式会社,,株式会社,群馬県,高崎市,和田多中町６番１３号,,10,202,3700844,,,,,,,2025-07-09,1,,,,,エスアンドエーマネジメント,0
1215,5070003005984,新規,0,2025-07-09,2025-07-09,合同会社リズム,,合同会社,群馬県,前橋市,三河町１丁目１６－２０,,10,201,3710015,,,,,,,2025-07-09,1,,,,,リズム,0
1216,5070003005992,新規,0,2025-07-09,2025-07-09,合同会社ｎａｋａｗａｒｉ　ｓｅｒｖｉｃｅ,,合同会社,群馬県,高崎市,上豊岡町２８０番地２,,10,202,3700871,,,,,,,2025-07-09,1,,,,,ナカワリサービス,0
1221,5080401028017,新規,0,2025-07-09,2025-07-09,株式会社ＡＮＤＯ設備設計,,株式会社,静岡県,浜松市中央区,渡瀬町２５６番地ロジスティックコンビニエンスワタセ３号室,,22,138,4350036,,,,,,,2025-07-09,1,,,,,アンドウセツビセッケイ,0
1222,5080403005303,新規,0,2025-07-09,2025-07-09,合同会社オクト,,合同会社,静岡県,浜松市天竜区,山東３８４２番地,,22,140,4313303,,,,,,,2025-07-09,1,,,,,オクト,0
1226,5110001039410,新規,0,2025-07-09,2025-07-09,株式会社ＶＩＬＬＡＧＥ,,株式会社,新潟県,柏崎市,大字椎谷１８３９番地,,15,205,9450401,,,,,,,2025-07-09,1,,,,,ビレッジ,0
1228,5110003005815,新規,0,2025-07-09,2025-07-09,合同会社はつの不動産,,合同会社,新潟県,魚沼市,佐梨２０４番地１,,15,225,9460021,,,,,,,2025-07-09,1,,,,,ハツノフドウサン,0
1234,5120001277505,新規,0,2025-07-09,2025-07-09,Ｊｔｔ株式会社,,株式会社,大阪府,枚方市,楠葉花園町１２－２プラウド樟葉１４０３,,27,210,5731121,,,,,,,2025-07-09,1,,,,,ジェイティーティー,0
1235,5120001277612,新規,0,2025-07-09,2025-07-09,昊源実業株式会社,,株式会社,大阪府,大阪市平野区,長吉長原１丁目７番３１－５Ａ,,27,126,5470016,,,,,,,2025-07-09,1,,,,,コウゲンジツギョウ,0
1236,5120001277637,新規,0,2025-07-09,2025-07-09,株式会社サイバープラン,,株式会社,大阪府,大阪市住吉区,長居東２丁目９番７号,,27,120,5580004,,,,,,,2025-07-09,1,,,,,サイバープラン,0
1237,5120001277728,新規,0,2025-07-09,2025-07-09,株式会社ＴＣＯ,,株式会社,大阪府,大阪市西淀川区,姫島３丁目３番２６号,,27,113,5550033,,,,,,,2025-07-09,1,,,,,ティーシーオー,0
1247,5130003010598,新規,0,2025-07-09,2025-07-09,ＡＤＡＰＴ合同会社,,合同会社,京都府,京都市下京区,西七条東石ケ坪町５５番地２,,26,106,6008895,,,,,,,2025-07-09,1,,,,,アダプト,0
1251,5140001139158,新規,0,2025-07-09,2025-07-09,株式会社シマラボ,,株式会社,兵庫県,南あわじ市,八木鳥井４２９番地２,,28,224,6560433,,,,,,,2025-07-09,1,,,,,シマラボ,0
1252,5140001139182,新規,0,2025-07-09,2025-07-09,ワイエスケー株式会社,,株式会社,兵庫県,芦屋市,南浜町１０番１９号,,28,206,6590037,,,,,,,2025-07-09,1,,,,,ワイエスケー,0
1253,5140001139199,新規,0,2025-07-09,2025-07-09,株式会社エンゼルス,,株式会社,兵庫県,西宮市,常磐町１番２３－３０３号,,28,204,6620043,,,,,,,2025-07-09,1,,,,,エンゼルス,0
1254,5140001139240,新規,0,2025-07-09,2025-07-09,株式会社ブルー翔,,株式会社,兵庫県,姫路市,阿保乙３６７番地１,,28,201,6700944,,,,,,,2025-07-09,1,,,,,ブルート,0
1255,5140001139249,新規,0,2025-07-09,2025-07-09,株式会社ＲＥＡＬｉＺＥ１,,株式会社,兵庫県,神戸市中央区,京町８０番地クリエイト神戸３Ｆ,,28,110,6500034,,,,,,,2025-07-09,1,,,,,リアライズワン,0
1260,5140003022287,新規,0,2025-07-09,2025-07-09,合同会社Ｍａｙｄｏ,,合同会社,兵庫県,豊岡市,中央町１８－７,,28,209,6680033,,,,,,,2025-07-09,1,,,,,メイドゥー,0
1261,5140003022295,新規,0,2025-07-09,2025-07-09,ＳＥＡ合同会社,,合同会社,兵庫県,神戸市中央区,磯辺通１丁目１番１８号カサベラ国際プラザビル７０７号室,,28,110,6510084,,,,,,,2025-07-09,1,,,,,シー,0
1262,5140005027549,新規,0,2025-07-09,2025-07-09,一般社団法人夢叶,,その他の設立登記法人,兵庫県,伊丹市,野間５丁目９番１号,,28,207,6640873,,,,,,,2025-07-09,1,,,,,ユメカ,0
1267,5160003003533,新規,0,2025-07-09,2025-07-09,合同会社縁宸,,合同会社,滋賀県,湖南市,菩提寺東１丁目２番３８号,,25,211,5203247,,,,,,,2025-07-09,1,,,,,エンシン,0
1268,5170003002237,新規,0,2025-07-09,2025-07-09,合同会社紀成,,合同会社,和歌山県,西牟婁郡すさみ町,周参見４２１３番地,,30,406,6492621,,,,,,,2025-07-09,1,,,,,キセイ,0
1273,5180001167592,新規,0,2025-07-09,2025-07-09,株式会社Ｉｎｆｉｎｉｔｙ　Ｓｏａｒ,,株式会社,愛知県,名古屋市中区,丸の内２丁目１－３６Ｎｕｐ・フジサワ丸の内ビル８Ｆ,,23,106,4600002,,,,,,,2025-07-09,1,,,,,インフィニティソア,0
1274,5180001167618,新規,0,2025-07-09,2025-07-09,株式会社ＣｒｅＭａ,,株式会社,愛知県,名古屋市千種区,徳川山町６丁目２番２６号,,23,101,4640031,,,,,,,2025-07-09,1,,,,,クレマ,0
1275,5180001167626,新規,0,2025-07-09,2025-07-09,未来電建株式会社,,株式会社,愛知県,西春日井郡豊山町,大字豊場字流川１１２番地６,,23,342,4800202,,,,,,,2025-07-09,1,,,,,ミライデンケン,0
1276,5180001167634,新規,0,2025-07-09,2025-07-09,株式会社三方よし,,株式会社,愛知県,名古屋市中区,栄４丁目１３番１９号ＴＫビル６Ｆ,,23,106,4600008,,,,,,,2025-07-09,1,,,,,サンポウヨシ,0
1279,5180003028710,新規,0,2025-07-09,2025-07-09,登蘭建設合同会社,,合同会社,愛知県,岩倉市,大山寺町西出２４番地１,,23,228,4820014,,,,,,,2025-07-09,1,,,,,トランケンセツ,0
1282,5180301039962,新規,0,2025-07-09,2025-07-09,株式会社Ｋ‐ＤＥＮＫＯ,,株式会社,愛知県,豊橋市,東田町１８３番地２,,23,201,4400048,,,,,,,2025-07-09,1,,,,,ケーデンコー,0
1285,5190001032366,新規,0,2025-07-09,2025-07-09,株式会社荻野林業,,株式会社,三重県,津市,美杉町下之川５２５０番地,,24,201,5153203,,,,,,,2025-07-09,1,,,,,オギノリンギョウ,0
1286,5200001043956,新規,0,2025-07-09,2025-07-09,ＲＥＮＥＷ株式会社,,株式会社,岐阜県,可児市,川合２１４番地３,,21,214,5090201,,,,,,,2025-07-09,1,,,,,リニュー,0
1287,5200001043980,新規,0,2025-07-09,2025-07-09,株式会社ホダカ,,株式会社,岐阜県,岐阜市,北一色３丁目９番２１号,,21,201,5008227,,,,,,,2025-07-09,1,,,,,ホダカ,0
1288,5200003006911,新規,0,2025-07-09,2025-07-09,合同会社悠然,,合同会社,岐阜県,揖斐郡大野町,大字公郷１１１０‐１１３,,21,403,5010555,,,,,,,2025-07-09,1,,,,,ユウゼン,0
1289,5220001026793,新規,0,2025-07-09,2025-07-09,株式会社幸徳,,株式会社,石川県,金沢市,尾張町１丁目２番３２号,,17,201,9200902,,,,,,,2025-07-09,1,,,,,コウトク,0
1292,5240001065195,新規,0,2025-07-09,2025-07-09,ＳＨＯ通信株式会社,,株式会社,広島県,広島市佐伯区,観音台１丁目５番４号,,34,108,7315157,,,,,,,2025-07-09,1,,,,,エスエイチオーツウシン,0
1293,5240001065212,新規,0,2025-07-09,2025-07-09,株式会社ＧＯＬＤＥＮ　ＴＯＵＲ,,株式会社,広島県,広島市中区,幟町１２番５号２Ｆ,,34,101,7300016,,,,,,,2025-07-09,1,,,,,ゴールデンツアー,0
1297,5260001040345,新規,0,2025-07-09,2025-07-09,株式会社ＴＤＭ,,株式会社,岡山県,玉野市,槌ケ原２０９９番地１２,,33,204,7060141,,,,,,,2025-07-09,1,,,,,ティディエム,0
1301,5270001009240,新規,0,2025-07-09,2025-07-09,チュウブジャーナル株式会社,,株式会社,鳥取県,倉吉市,上井町２丁目５番地１,,31,203,6820022,,,,,,,2025-07-09,1,,,,,チュウブジャーナル,0
1310,5290001110640,新規,0,2025-07-09,2025-07-09,Ａ・Ｉコンサルティング株式会社,,株式会社,福岡県,福岡市博多区,博多駅前１丁目２３番２号ＰａｒｋＦｒｏｎｔ博多駅前１丁目５Ｆ－Ｂ,,40,132,8120011,,,,,,,2025-07-09,1,,,,,エーアイコンサルティング,0
1311,5290001110649,新規,0,2025-07-09,2025-07-09,株式会社拡分,,株式会社,福岡県,福岡市博多区,冷泉町１番３号エクセレンス祇園９１５号,,40,132,8120039,,,,,,,2025-07-09,1,,,,,カクブン,0
1313,5290801031689,新規,0,2025-07-09,2025-07-09,株式会社この町の不動産屋さん,,株式会社,福岡県,北九州市八幡西区,大浦１丁目４番１９号,,40,109,8070874,,,,,,,2025-07-09,1,,,,,コノマチノフドウサンヤサン,0
1316,5320001021198,新規,0,2025-07-09,2025-07-09,株式会社ｆｏｒｙｏｕ,,株式会社,大分県,大分市,都町３丁目５番２５号第５パルコ６１１,,44,201,8700034,,,,,,,2025-07-09,1,,,,,フォーユー,0
1317,5340003004892,新規,0,2025-07-09,2025-07-09,合同会社ＧＩＡ,,合同会社,鹿児島県,鹿児島市,紫原７丁目２０番１９号,,46,201,8900082,,,,,,,2025-07-09,1,,,,,ザー,0
1320,5360001035426,新規,0,2025-07-09,2025-07-09,株式会社沖縄墓じまいセンター,,株式会社,沖縄県,那覇市,字真地４２５番地１,,47,201,9020072,,,,,,,2025-07-09,1,,,,,オキナワハカジマイセンター,0
1321,5360001035434,新規,0,2025-07-09,2025-07-09,株式会社隆重機,,株式会社,沖縄県,うるま市,字兼箇段３６２番地２１,,47,213,9042241,,,,,,,2025-07-09,1,,,,,タカジュウキ,0
1322,5360001035442,新規,0,2025-07-09,2025-07-09,株式会社Ｔｉｄａｌｉｅｎ,,株式会社,沖縄県,浦添市,伊祖２丁目１０番８号,,47,208,9012132,,,,,,,2025-07-09,1,,,,,ティダリア,0
1323,5360001035450,新規,0,2025-07-09,2025-07-09,株式会社ＣａＡＲＳ　ＴＯＷＩＮＧ,,株式会社,沖縄県,宜野湾市,大謝名３丁目１４番１号,,47,205,9012225,,,,,,,2025-07-09,1,,,,,カーズトーイング,0
1324,5360003015070,新規,0,2025-07-09,2025-07-09,合同会社ウィン‐ウィン,,合同会社,沖縄県,那覇市,字国場２０９番地４－１Ｆ,,47,201,9020075,,,,,,,2025-07-09,1,,,,,ウィンウィン,0
1329,5380005012989,新規,0,2025-07-09,2025-07-09,特定非営利活動法人いいのみんなの食堂,,その他の設立登記法人,福島県,いわき市,平南白土２丁目３番地の１０,,07,204,9708025,,,,,,,2025-07-09,1,,,,,イイノミンナノショクドウ,0
1330,5390001018048,新規,0,2025-07-09,2025-07-09,株式会社晴郎工業,,株式会社,山形県,南陽市,松沢５７５番地の１,,06,213,9992213,,,,,,,2025-07-09,1,,,,,セイロウコウギョウ,0
1333,5400001017114,新規,0,2025-07-09,2025-07-09,株式会社阿部昭男商店,,株式会社,岩手県,盛岡市,乙部５地割４６番地７,,03,201,0200403,,,,,,,2025-07-09,1,,,,,アベアキオショウテン,0
1340,5430001094786,新規,0,2025-07-09,2025-07-09,株式会社内山技建,,株式会社,北海道,札幌市白石区,本通１４丁目南３－１１－１００１,,01,104,0030026,,,,,,,2025-07-09,1,,,,,ウチヤマギケン,0
1341,5430001094803,新規,0,2025-07-09,2025-07-09,株式会社リライズ,,株式会社,北海道,札幌市西区,福井４丁目１０番９号,,01,107,0630012,,,,,,,2025-07-09,1,,,,,リライズ,0
1342,5430001094811,新規,0,2025-07-09,2025-07-09,株式会社ＵＮｉｉ,,株式会社,北海道,小樽市,稲穂２丁目７番１号,,01,203,0470032,,,,,,,2025-07-09,1,,,,,ウニー,0
1343,5430001094828,新規,0,2025-07-09,2025-07-09,株式会社ＡＩ住まいる,,株式会社,北海道,札幌市東区,北三十九条東１丁目１番２５号,,01,103,0070839,,,,,,,2025-07-09,1,,,,,アイスマイル,0
1344,5430001094869,新規,0,2025-07-09,2025-07-09,株式会社ＺＯＨＡＮ　ＴＲＡＤＩＮＧ,,株式会社,北海道,苫小牧市,字錦岡４４３番地の８７３,,01,213,0591275,,,,,,,2025-07-09,1,,,,,ゾハントレーディング,0
1346,5450003002687,新規,0,2025-07-09,2025-07-09,合同会社ＴＭ,,合同会社,北海道,旭川市,神居三条１８丁目３－２１,,01,204,0708013,,,,,,,2025-07-09,1,,,,,ティーエム,0
1359,6010001256493,新規,0,2025-07-09,2025-07-09,株式会社Ｋｏｎｎｅｃｔ　ＡＩ‐Ｓｏｌｕｔｉｏｎｓ,,株式会社,東京都,千代田区,外神田５丁目２番１号外神田Ｓビル５階,,13,101,1010021,,,,,,,2025-07-09,1,,,,,コネクトエーアイソリューションズ,0
1360,6010001256519,新規,0,2025-07-09,2025-07-09,ＤＩＳＲＵＰＴ　Ｘ株式会社,,株式会社,東京都,中央区,銀座７丁目１３番２０号銀座ＴＨビル９階,,13,102,1040061,,,,,,,2025-07-09,1,,,,,ディスラプトエックス,0
1361,6010001256527,新規,0,2025-07-09,2025-07-09,ＭｉｎｄＮｏｗ　Ｃｏｎｓｕｌｔｉｎｇ株式会社,,株式会社,東京都,中央区,銀座１丁目１２－４Ｎ＆ＥＢＬＤ．７階,,13,102,1040061,,,,,,,2025-07-09,1,,,,,マインドナウコンサルティング,0
1362,6010001256551,新規,0,2025-07-09,2025-07-09,ＫＡＮＡＺＵアセットマネジメント株式会社,,株式会社,東京都,千代田区,外神田２丁目１番４号,,13,101,1010021,,,,,,,2025-07-09,1,,,,,カナヅアセットマネジメント,0
1363,6010001256584,新規,0,2025-07-09,2025-07-09,株式会社ＳＴＯＣＫ１９０,,株式会社,東京都,千代田区,永田町２丁目１２番４号,,13,101,1000014,,,,,,,2025-07-09,1,,,,,ストックヒャクキュウジュウ,0
1364,6010001256592,新規,0,2025-07-09,2025-07-09,株式会社ＭＥＩＳＨＯ,,株式会社,東京都,千代田区,神田錦町３丁目７－２東京堂錦町ビルディング９階,,13,101,1010054,,,,,,,2025-07-09,1,,,,,メイショウ,0
1365,6010001256601,新規,0,2025-07-09,2025-07-09,ＳａｉｌＳｔｅｐ株式会社,,株式会社,東京都,中央区,銀座１丁目１２番４号Ｎ＆Ｅ・ＢＬＤ．６Ｆ,,13,102,1040061,,,,,,,2025-07-09,1,,,,,セイルステップ,0
1366,6010001256618,新規,0,2025-07-09,2025-07-09,株式会社サラノア,,株式会社,東京都,中央区,銀座５丁目１５番１号南海東京ビルディング地下１階,,13,102,1040061,,,,,,,2025-07-09,1,,,,,サラノア,0
1367,6010001256626,新規,0,2025-07-09,2025-07-09,Ａｏｙａｍａ　Ｓｃｏｐｅ株式会社,,株式会社,東京都,中央区,日本橋茅場町２丁目８番１号ＢＲＩＣＫＧＡＴＥ茅場町Ｃ－２８,,13,102,1030025,,,,,,,2025-07-09,1,,,,,アオヤマスコープ,0
1368,6010001256642,新規,0,2025-07-09,2025-07-09,実用後楽園ホーム株式会社,,株式会社,東京都,文京区,小日向４丁目３番１３－２１３号,,13,105,1120006,,,,,,,2025-07-09,1,,,,,ジツヨウコウラクエンホーム,0
1369,6010001256659,新規,0,2025-07-09,2025-07-09,株式会社ＲＩＴＡ,,株式会社,東京都,中央区,銀座１丁目１２番４号ＮＥＢＬＤ６Ｆ,,13,102,1040061,,,,,,,2025-07-09,1,,,,,リタ,0
1370,6010001256790,新規,0,2025-07-09,2025-07-09,株式会社シャロニクス,,株式会社,東京都,文京区,本郷６丁目２５番１４号,,13,105,1130033,,,,,,,2025-07-09,1,,,,,シャロニクス,0
1371,6010003047858,新規,0,2025-07-09,2025-07-09,合同会社ジャパンパワーストレージ１,,合同会社,東京都,中央区,京橋２丁目１２番６号ＡＯＪ税理士法人内,,13,102,1040031,,,,,,,2025-07-09,1,,,,,ジャパンパワーストレージワン,0
1373,6010401191539,新規,0,2025-07-09,2025-07-09,株式会社ＰＨＯＳＬＯＯＰ,,株式会社,東京都,港区,虎ノ門３丁目１番１号虎の門三丁目ビルディング２階Ｑｕｅｓｔ虎ノ門,,13,103,1050001,,,,,,,2025-07-09,1,,,,,フォスループ,0
1374,6010401191588,新規,0,2025-07-09,2025-07-09,株式会社ＳＣホールディングス,,株式会社,東京都,港区,新橋２丁目１６番１－４２３号,,13,103,1050004,,,,,,,2025-07-09,1,,,,,エスシーホールディングス,0
1376,6010403035529,新規,0,2025-07-09,2025-07-09,合同会社ＡＧＳマネジメント,,合同会社,東京都,港区,芝浦４丁目１０番１‐３０４号,,13,103,1080023,,,,,,,2025-07-09,1,,,,,エージーエスマネジメント,0
1380,6010501054364,新規,0,2025-07-09,2025-07-09,ＥｑｕａｌＯｃｅａｎ株式会社,,株式会社,東京都,台東区,蔵前４丁目１６－６ストーク蔵前Ｍ＆Ｋ４階４１１,,13,106,1110051,,,,,,,2025-07-09,1,,,,,イコールオーシャン,0
1385,6010601067530,新規,0,2025-07-09,2025-07-09,嘉盛株式会社,,株式会社,東京都,墨田区,京島１丁目１番２－３５０５号イーストコア曳舟二番館,,13,107,1310046,,,,,,,2025-07-09,1,,,,,カセイ,0
1393,6010801036327,新規,0,2025-07-09,2025-07-09,ＥＳＥＮＣＩＡ株式会社,,株式会社,東京都,大田区,山王２丁目６番１４号山王ベイク１階Ｂ,,13,111,1430023,,,,,,,2025-07-09,1,,,,,エセンシア,0
1395,6010901057669,新規,0,2025-07-09,2025-07-09,ＴＩコーポレーション株式会社,,株式会社,東京都,世田谷区,奥沢４丁目６番９号,,13,112,1580083,,,,,,,2025-07-09,1,,,,,ティーアイコーポレーション,0
1396,6010901057677,新規,0,2025-07-09,2025-07-09,Ｗｉｔｈ　Ｕ株式会社,,株式会社,東京都,世田谷区,南烏山２丁目３０番１７－１１０２号,,13,112,1570062,,,,,,,2025-07-09,1,,,,,ウィズユー,0
1398,6011001170775,新規,0,2025-07-09,2025-07-09,株式会社Ｎｅｘｉａ,,株式会社,東京都,渋谷区,道玄坂１丁目１０番８号渋谷道玄坂東急ビル２Ｆ－Ｃ,,13,113,1500043,,,,,,,2025-07-09,1,,,,,ネクシア,0
1399,6011001170791,新規,0,2025-07-09,2025-07-09,ＵｎｉｚｏｎＸ株式会社,,株式会社,東京都,渋谷区,渋谷２丁目１９番１９号,,13,113,1500002,,,,,,,2025-07-09,1,,,,,ユニゾンエックス,0
1400,6011001171030,新規,0,2025-07-09,2025-07-09,株式会社Ｂｕｄｄｙ　Ｒｅａｌ　Ｅｓｔａｔｅ,,株式会社,東京都,目黒区,原町２丁目２４番８号,,13,110,1520011,,,,,,,2025-07-09,1,,,,,バディリアルエステート,0
1401,6011001171121,新規,0,2025-07-09,2025-07-09,株式会社ベネヴィア,,株式会社,東京都,渋谷区,円山町５番５号Ｎａｖｉ渋谷Ｖ３階,,13,113,1500044,,,,,,,2025-07-09,1,,,,,ベネヴィア,0
1402,6011003021910,新規,0,2025-07-09,2025-07-09,合同会社ＫＵＡＤＬＩＮＫ,,合同会社,東京都,目黒区,自由が丘２丁目１番１７－３０４号パーク・ハイム自由が丘二丁目,,13,110,1520035,,,,,,,2025-07-09,1,,,,,クアッドリンク,0
1404,6011101112355,新規,0,2025-07-09,2025-07-09,株式会社ＲｅＹｏｕｔｈ　Ｐａｒｔｎｅｒｓ,,株式会社,東京都,新宿区,西新宿３丁目３番１３号西新宿水間ビル６階,,13,104,1600023,,,,,,,2025-07-09,1,,,,,リユースパートナーズ,0
1406,6011601028778,新規,0,2025-07-09,2025-07-09,株式会社ＧＯＧＵＭＡ‐ＣＯＭＰＡＮＹ,,株式会社,東京都,練馬区,石神井町３丁目１８番４－Ｕビル５０２号室,,13,120,1770041,,,,,,,2025-07-09,1,,,,,ゴーグマカンパニー,0
1407,6011601028786,新規,0,2025-07-09,2025-07-09,株式会社ジザイ,,株式会社,東京都,練馬区,練馬１丁目５番１３号練馬駅前ビル３Ｆ,,13,120,1760001,,,,,,,2025-07-09,1,,,,,ジザイ,0
1408,6011703004306,新規,0,2025-07-09,2025-07-09,合同会社タクミテクノ,,合同会社,東京都,江戸川区,小松川３丁目２番１－３１１号,,13,123,1320034,,,,,,,2025-07-09,1,,,,,タクミテクノ,0
1409,6011703004314,新規,0,2025-07-09,2025-07-09,合同会社ＳＫ,,合同会社,東京都,江戸川区,中央２丁目１５－６,,13,123,1320021,,,,,,,2025-07-09,1,,,,,エスケー,0
1411,6011801046423,新規,0,2025-07-09,2025-07-09,ピースホーム株式会社,,株式会社,東京都,足立区,谷中３丁目１１番５－７０３号,,13,121,1200006,,,,,,,2025-07-09,1,,,,,ピースホーム,0
1412,6011801046431,新規,0,2025-07-09,2025-07-09,株式会社ＳＵＰＲＡＢ,,株式会社,東京都,足立区,本木１丁目２３番２４号,,13,121,1230853,,,,,,,2025-07-09,1,,,,,スプラブ,0
1424,6013101009746,新規,0,2025-07-09,2025-07-09,株式会社タスカルヒューマンエイド,,株式会社,東京都,青梅市,成木１丁目４２０番地,,13,205,1980001,,,,,,,2025-07-09,1,,,,,タスカルヒューマンエイド,0
1440,6020001163706,新規,0,2025-07-09,2025-07-09,中嶋科研株式会社,,株式会社,神奈川県,川崎市麻生区,虹ケ丘１丁目１６番１号,,14,137,2150015,,,,,,,2025-07-09,1,,,,,ナカジマカケン,0
1441,6020001163870,新規,0,2025-07-09,2025-07-09,株式会社ＴＫＭＢ,,株式会社,神奈川県,横浜市磯子区,磯子３丁目１３番Ｉ－５０２号,00139868,14,107,2350016,,,,,,,2025-07-09,1,,,,,ティーケーエムビー,0
1444,6020003028907,新規,0,2025-07-09,2025-07-09,合同会社グッドヴィレッジ,,合同会社,神奈川県,横浜市港南区,笹下４丁目１４番４４号,,14,111,2340052,,,,,,,2025-07-09,1,,,,,グッドヴィレッジ,0
1445,6020003028915,新規,0,2025-07-09,2025-07-09,合同会社リーフペアＫ,,合同会社,神奈川県,横浜市西区,北幸２丁目１０番４８号むつみビル３階,,14,103,2200004,,,,,,,2025-07-09,1,,,,,リーフペアケイ,0
1446,6020005016926,新規,0,2025-07-09,2025-07-09,一般社団法人ＪＡＰＡＮエネルギー協会,,その他の設立登記法人,神奈川県,横浜市西区,みなとみらい３丁目３番１号ＫＤＸみなとみらいタワー８階,,14,103,2200012,,,,,,,2025-07-09,1,,,,,ジャパンエネルギーキョウカイ,0
1448,6021001085642,新規,0,2025-07-09,2025-07-09,ＷＧ株式会社,,株式会社,神奈川県,海老名市,河原口４丁目１番１０－３０５号,,14,215,2430433,,,,,,,2025-07-09,1,,,,,ダブリュージー,0
1457,6030001167490,新規,0,2025-07-09,2025-07-09,株式会社山崎工業,00139865,株式会社,埼玉県,越谷市,大字平方５５５番地１,,11,222,3430002,,,,,,,2025-07-09,1,,,,,ヤマザキコウギョウ,0
1461,6030003027164,新規,0,2025-07-09,2025-07-09,はんぺん管財コミュニティ合同会社,,合同会社,埼玉県,朝霞市,根岸台７丁目３２番１９号,,11,227,3510005,,,,,,,2025-07-09,1,,,,,ハンペンカンザイコミュニティ,0
1462,6030005022205,新規,0,2025-07-09,2025-07-09,社会保険労務士法人小山労務管理事務所,,その他の設立登記法人,埼玉県,さいたま市北区,大成町４丁目６３９番地１,,11,102,3310815,,,,,,,2025-07-09,1,,,,,コヤマロウムカンリジムショ,0
1467,6040001139349,新規,0,2025-07-09,2025-07-09,株式会社ハルリオン,,株式会社,千葉県,千葉市花見川区,幕張本郷２丁目２番２０富澤ビル２０２号,,12,102,2620033,,,,,,,2025-07-09,1,,,,,ハルリオン,0
1468,6040001139555,新規,0,2025-07-09,2025-07-09,株式会社ＫＯＡ,,株式会社,千葉県,千葉市緑区,おゆみ野５丁目１３番地６０,,12,105,2660031,,,,,,,2025-07-09,1,,,,,コア,0
1470,6040003027997,新規,0,2025-07-09,2025-07-09,きづな合同会社,,合同会社,千葉県,千葉市花見川区,花園３丁目１６番１５号,,12,102,2620025,,,,,,,2025-07-09,1,,,,,キヅナ,0
1472,6060001038350,新規,0,2025-07-09,2025-07-09,株式会社日本冷凍いちご協会,,株式会社,栃木県,宇都宮市,平出町１０４４番地１,,09,201,3210901,,,,,,,2025-07-09,1,,,,,ニホンレイトウイチゴキョウカイ,0
1473,6070001043102,新規,0,2025-07-09,2025-07-09,株式会社ａｕｄｅａｍｕｓ,,株式会社,群馬県,太田市,新田木崎町１３２７番地６,,10,205,3700321,,,,,,,2025-07-09,1,,,,,オーデムス,0
1474,6070001043110,新規,0,2025-07-09,2025-07-09,株式会社ポケット,,株式会社,群馬県,前橋市,山王町１丁目１番地３,,10,201,3792123,,,,,,,2025-07-09,1,,,,,ポケット,0
1475,6070001043119,新規,0,2025-07-09,2025-07-09,株式会社パッチワーク,,株式会社,群馬県,高崎市,棟高町１０００‐３１,,10,202,3703521,,,,,,,2025-07-09,1,,,,,パッチワーク,0
1476,6070001043135,新規,0,2025-07-09,2025-07-09,株式会社ＥＡＳＴ,,株式会社,群馬県,太田市,金山町１２番１３号,,10,205,3730027,,,,,,,2025-07-09,1,,,,,イースト,0
1478,6080401028016,新規,0,2025-07-09,2025-07-09,株式会社Ｎａｔｕｒａｌ　Ｆａｒｍ浜松,,株式会社,静岡県,浜松市中央区,豊町３１１９番地,,22,138,4313101,,,,,,,2025-07-09,1,,,,,ナチュラルファームハママツ,0
1479,6080401028024,新規,0,2025-07-09,2025-07-09,株式会社ｒｅｗｒｉｔｅ,,株式会社,静岡県,浜松市中央区,砂山町３５２番地の１ケイズビル２階,,22,138,4300926,,,,,,,2025-07-09,1,,,,,リライト,0
1480,6080403005302,新規,0,2025-07-09,2025-07-09,Ｙ＆Ｋ合同会社,,合同会社,静岡県,浜松市中央区,古川町２５５番地,,22,138,4350032,,,,,,,2025-07-09,1,,,,,ワイアンドケイ,0
1485,6100001038759,新規,0,2025-07-09,2025-07-09,株式会社クリーブラット,,株式会社,長野県,飯田市,座光寺５６０１番地１,,20,205,3950001,,,,,,,2025-07-09,1,,,,,クリーブラット,0
1497,6120001277578,新規,0,2025-07-09,2025-07-09,株式会社ＪＸＹ,,株式会社,大阪府,大阪市中央区,内本町１丁目４番１０－５０１号,,27,128,5400026,,,,,,,2025-07-09,1,,,,,ジェイエックスワイ,0
1498,6120001277636,新規,0,2025-07-09,2025-07-09,ｉ　Ｐｕｒｅ　Ｌａｂ株式会社,,株式会社,大阪府,大阪市西区,江戸堀２丁目１番１号江戸堀センタービルＢ１,,27,106,5500002,,,,,,,2025-07-09,1,,,,,アイピュアラボ,0
1499,6120001277735,新規,0,2025-07-09,2025-07-09,株式会社Ｔｈｅ　Ｒｅｄ　Ｆｏｏｄ,,株式会社,大阪府,大阪市北区,大深町６番３８号グラングリーン大阪北館ＪＡＭＢＡＳＥ６階ＪＡＭ－ＤＥＳＫ,,27,127,5300011,,,,,,,2025-07-09,1,,,,,ザレッドフード,0
1500,6120001277751,新規,0,2025-07-09,2025-07-09,株式会社グリップ,,株式会社,大阪府,大阪市北区,梅田３丁目２番１２３号,,27,127,5300001,,,,,,,2025-07-09,1,,,,,グリップ,0
1501,6120001277768,新規,0,2025-07-09,2025-07-09,株式会社寿,,株式会社,大阪府,大阪市鶴見区,今津北４丁目１３番１４号ル・レーヴ今津ノース３０１,,27,124,5380041,,,,,,,2025-07-09,1,,,,,コトブキ,0
1502,6120003029944,新規,0,2025-07-09,2025-07-09,合同会社コミュニケーションサービス,,合同会社,大阪府,大阪市福島区,吉野１丁目１０番１６－６０１号,,27,103,5530006,,,,,,,2025-07-09,1,,,,,コミュニケーションサービス,0
1503,6120003029952,新規,0,2025-07-09,2025-07-09,合同会社ＵＣＲＥＳＴ,,合同会社,大阪府,寝屋川市,池田中町１４－１０池田マンション５０２,,27,215,5720074,,,,,,,2025-07-09,1,,,,,ユークレスト,0
1504,6120003029969,新規,0,2025-07-09,2025-07-09,合同会社ｍｕ,,合同会社,大阪府,大阪市中央区,松屋町１番１６－１６０４号,,27,128,5420067,,,,,,,2025-07-09,1,,,,,エムユー,0
1505,6120003029977,新規,0,2025-07-09,2025-07-09,ＡＫＩＲＡ合同会社,,合同会社,大阪府,大阪市東住吉区,駒川４丁目１３－７センチュリープラザ１０７号室,,27,121,5460043,,,,,,,2025-07-09,1,,,,,アキラ,0
1507,6120103006554,新規,0,2025-07-09,2025-07-09,ＡＧ　ＴＲＡＤＩＮＧ合同会社,,合同会社,大阪府,松原市,上田７丁目１８－２３－Ｊ’ｓＡｐａｒｔｍｅｎｔｓ２階１３号室,,27,217,5800016,,,,,,,2025-07-09,1,,,,,エージートレーディング,0
1518,6130001080023,新規,0,2025-07-09,2025-07-09,株式会社革靴をはいた子猫,,株式会社,京都府,京都市中京区,亀屋町３７０－１サンルミ御池１Ｆ,,26,104,6048253,,,,,,,2025-07-09,1,,,,,カワグツヲハイタコネコ,0
1520,6140001139181,新規,0,2025-07-09,2025-07-09,株式会社ＰＦマーケット,,株式会社,兵庫県,尼崎市,神田南通３丁目７３－２０１,,28,202,6600885,,,,,,,2025-07-09,1,,,,,ピーエフマーケット,0
1521,6140001139215,新規,0,2025-07-09,2025-07-09,株式会社そら,,株式会社,兵庫県,神戸市兵庫区,築地町３番７２号,,28,105,6520845,,,,,,,2025-07-09,1,,,,,ソラ,0
1522,6140003022278,新規,0,2025-07-09,2025-07-09,合同会社日の本発電,,合同会社,兵庫県,加古川市,野口町良野１０２２番地の２,,28,210,6750017,,,,,,,2025-07-09,1,,,,,ヒノモトハツデン,0
1523,6140003022286,新規,0,2025-07-09,2025-07-09,ロクマル合同会社,,合同会社,兵庫県,尼崎市,一丁目３３番１－１０１８号,,28,202,6600000,,,,,,,2025-07-09,1,,,,,ロクマル,0
1524,6150005009710,新規,0,2025-07-09,2025-07-09,一般社団法人みらいの杜,,その他の設立登記法人,奈良県,橿原市,木原町６５番地の１,,29,205,6340004,,,,,,,2025-07-09,1,,,,,ミライノモリ,0
1525,6170003002236,新規,0,2025-07-09,2025-07-09,合同会社イベファーム,,合同会社,和歌山県,海南市,下津町小南４１４番地,,30,202,6490141,,,,,,,2025-07-09,1,,,,,イベファーム,0
1529,6180001167550,新規,0,2025-07-09,2025-07-09,株式会社ｖｉｖｉＭｅ,,株式会社,愛知県,海部郡大治町,大字堀之内字中切６４７番地の４,,23,424,4901137,,,,,,,2025-07-09,1,,,,,ヴィヴィミー,0
1530,6180001167600,新規,0,2025-07-09,2025-07-09,ＭＩＲＡＩ株式会社,,株式会社,愛知県,名古屋市緑区,大高町字二番割８７番地の２,,23,114,4598001,,,,,,,2025-07-09,1,,,,,ミライ,0
1531,6180001167633,新規,0,2025-07-09,2025-07-09,株式会社ＹＯＩ,,株式会社,愛知県,名古屋市天白区,原３丁目１８０５番地,,23,116,4680015,,,,,,,2025-07-09,1,,,,,ヨイ,0
1532,6180001167641,新規,0,2025-07-09,2025-07-09,ＫＹＯＴＡＢＩ株式会社,,株式会社,愛知県,名古屋市中区,錦１丁目５番１１号名古屋伊藤忠ビル２階,,23,106,4600003,,,,,,,2025-07-09,1,,,,,キョウタビ,0
1533,6180001167658,新規,0,2025-07-09,2025-07-09,株式会社Ｓｔｅｌｌａ　Ｄｒｅａｍ,,株式会社,愛知県,東海市,中央町７丁目７１番地コーポふき島１０１号,,23,222,4760013,,,,,,,2025-07-09,1,,,,,ステラドリーム,0
1536,6190003005105,新規,0,2025-07-09,2025-07-09,合同会社ＺＥＲＯ　ＯＮＥ,,合同会社,三重県,津市,上浜町１丁目６１２番地,,24,201,5140008,,,,,,,2025-07-09,1,,,,,ゼロワン,0
1539,6200001043988,新規,0,2025-07-09,2025-07-09,株式会社ミモザ,,株式会社,岐阜県,各務原市,鵜沼台４丁目６２番地,,21,213,5090121,,,,,,,2025-07-09,1,,,,,ミモザ,0
1552,6240003007302,新規,0,2025-07-09,2025-07-09,合同会社ＰＧＰ,,合同会社,広島県,安芸郡熊野町,中溝２丁目１番１－２号,,34,307,7314214,,,,,,,2025-07-09,1,,,,,ピージーピー,0
1553,6240005015955,新規,0,2025-07-09,2025-07-09,一般社団法人アジア人財サポート共育会,,その他の設立登記法人,広島県,福山市,明王台５丁目３番２０号,,34,207,7200834,,,,,,,2025-07-09,1,,,,,アジアジンザイサポートキョウイクカイ,0
1556,6260001040352,新規,0,2025-07-09,2025-07-09,株式会社グローバル・リンク,,株式会社,岡山県,岡山市東区,可知２丁目２番５１号,,33,103,7048173,,,,,,,2025-07-09,1,,,,,グローバルリンク,0
1558,6260003005246,新規,0,2025-07-09,2025-07-09,エヌドット合同会社,,合同会社,岡山県,倉敷市,玉島２丁目８番２６号,,33,202,7138102,,,,,,,2025-07-09,1,,,,,エヌドット,0
1565,6290001110623,新規,0,2025-07-09,2025-07-09,株式会社すなば,,株式会社,福岡県,福岡市東区,奈多２丁目１２番１６号,,40,131,8110204,,,,,,,2025-07-09,1,,,,,スナバ,0
1566,6290001110730,新規,0,2025-07-09,2025-07-09,８グローバルワークス株式会社,,株式会社,福岡県,福岡市中央区,平尾２丁目１０番１６－７０３号,,40,133,8100014,,,,,,,2025-07-09,1,,,,,ハチグローバルワークス,0
1570,6290003017049,新規,0,2025-07-09,2025-07-09,合同会社みるて,,合同会社,福岡県,福岡市早良区,重留１丁目１番３１－５０３号キャメロットリブ,,40,137,8111101,,,,,,,2025-07-09,1,,,,,ミルテ,0
1571,6290003017065,新規,0,2025-07-09,2025-07-09,合同会社Ａｎｆｒａ,,合同会社,福岡県,福岡市博多区,中洲中島町４番９－４０２号,,40,132,8100802,,,,,,,2025-07-09,1,,,,,アンフラ,0
1574,6290801031696,新規,0,2025-07-09,2025-07-09,株式会社ＧＯＴＯ　ＤＥＮＫＯ,,株式会社,福岡県,豊前市,大字大村２１２０番地,,40,214,8280066,,,,,,,2025-07-09,1,,,,,ゴトウデンコウ,0
1579,6370001052808,新規,0,2025-07-09,2025-07-09,株式会社ラポールラウンジ,,株式会社,宮城県,仙台市太白区,長町７丁目１９番２３号ＴＫ７ビル２Ｆ,,04,104,9820011,,,,,,,2025-07-09,1,,,,,ラポールラウンジ,0
1580,6370003007181,新規,0,2025-07-09,2025-07-09,ＤＥＮＴＯ合同会社,,合同会社,宮城県,仙台市若林区,新寺３丁目５番１０－３０２号,,04,103,9840051,,,,,,,2025-07-09,1,,,,,デント,0
1584,6380001035448,新規,0,2025-07-09,2025-07-09,株式会社レイスト,,株式会社,福島県,いわき市,四倉町戸田字水押５８番地,,07,204,9790212,,,,,,,2025-07-09,1,,,,,レイスト,0
1587,6400001017113,新規,0,2025-07-09,2025-07-09,フォーサイト株式会社,,株式会社,岩手県,八幡平市,田頭第２地割２６番地１,,03,214,0287112,,,,,,,2025-07-09,1,,,,,フォーサイト,0
1598,6420001019207,新規,0,2025-07-09,2025-07-09,株式会社光電気,,株式会社,青森県,青森市,原別７丁目２番５５号,,02,201,0300921,,,,,,,2025-07-09,1,,,,,コウデンキ,0
1603,6430001094785,新規,0,2025-07-09,2025-07-09,株式会社ｋｉｔｏ,,株式会社,北海道,札幌市豊平区,平岸二条１７丁目１番１５－４０５号,,01,105,0620932,,,,,,,2025-07-09,1,,,,,キト,0
1605,6430003017868,新規,0,2025-07-09,2025-07-09,合同会社ＨＫＭ,,合同会社,北海道,札幌市中央区,宮の森二条１６丁目２－１５,,01,101,0640952,,,,,,,2025-07-09,1,,,,,エイチケーエム,0
1606,6430003017876,新規,0,2025-07-09,2025-07-09,合同会社Ｉ・Ｓ　Ｇｒｅｅｎ,,合同会社,北海道,札幌市西区,宮の沢一条４丁目１番１１号高橋ビル３階,,01,107,0630051,,,,,,,2025-07-09,1,,,,,アイエスグリーン,0
1610,6470003002924,新規,0,2025-07-09,2025-07-09,合同会社アドサービス,,合同会社,香川県,綾歌郡宇多津町,２３１番地（県営住宅９－２０５）,,37,386,7690210,,,,,,,2025-07-09,1,,,,,アドサービス,0
1620,7010001256559,新規,0,2025-07-09,2025-07-09,株式会社Ｔ＆Ｉネキストホールディングス,,株式会社,東京都,千代田区,神田須田町１丁目１６番地ＲＡＸＡ神田須田町４階,,13,101,1010041,,,,,,,2025-07-09,1,,,,,ティーアンドアイネキストホールディングス,0
1621,7010001256567,新規,0,2025-07-09,2025-07-09,株式会社ＴＯＮＹ,,株式会社,東京都,中央区,銀座１丁目１２番４号Ｎ＆ＥＢＬＤ．６Ｆ,,13,102,1040061,,,,,,,2025-07-09,1,,,,,トニー,0
1622,7010001256575,新規,0,2025-07-09,2025-07-09,三源盛戦略投資株式会社,,株式会社,東京都,千代田区,丸の内３丁目２－２丸の内二重橋ビル２Ｆ,,13,101,1000005,,,,,,,2025-07-09,1,,,,,サンゲンセイセンリャクトウシ,0
1623,7010001256583,新規,0,2025-07-09,2025-07-09,株式会社ＳＴＯＣＫ１８９,,株式会社,東京都,千代田区,永田町２丁目１２番４号,,13,101,1000014,,,,,,,2025-07-09,1,,,,,ストックヒャクハチジュウキュウ,0
1624,7010001256600,新規,0,2025-07-09,2025-07-09,京建不動産開発株式会社,,株式会社,東京都,中央区,日本橋３丁目７番７号日本橋アーバンビルヂング４階,,13,102,1030027,,,,,,,2025-07-09,1,,,,,キョウケンフドウサンカイハツ,0
1625,7010001256609,新規,0,2025-07-09,2025-07-09,株式会社ＡｌｔｅｒＳｋｙ,,株式会社,東京都,千代田区,平河町１丁目３番１３号,,13,101,1020093,,,,,,,2025-07-09,1,,,,,アルタースカイ,0
1626,7010001256625,新規,0,2025-07-09,2025-07-09,株式会社Ｌｉｂｅｓｔｙｌｅ,,株式会社,東京都,中央区,銀座１丁目１２番４号Ｎ＆ＥＢＬＤ．７階,,13,102,1040061,,,,,,,2025-07-09,1,,,,,リベスタイル,0
1627,7010001256666,新規,0,2025-07-09,2025-07-09,ＮＣＣＡＰ１‐４株式会社,,株式会社,東京都,千代田区,大手町１丁目３番１号,,13,101,1000004,,,,,,,2025-07-09,1,,,,,エヌシーキャップイチノヨン,0
1629,7010005040348,新規,0,2025-07-09,2025-07-09,一般社団法人九州クワトロ,,その他の設立登記法人,東京都,千代田区,丸の内１丁目４番１号東京共同会計事務所内,,13,101,1000005,,,,,,,2025-07-09,1,,,,,キュウシュウクワトロ,0
1631,7010401191546,新規,0,2025-07-09,2025-07-09,株式会社ＭＧＭ,,株式会社,東京都,港区,港南２丁目１６番１号品川イーストワンタワー４Ｆ,,13,103,1080075,,,,,,,2025-07-09,1,,,,,エムジーエム,0
1633,7010501054314,新規,0,2025-07-09,2025-07-09,ＪＪ’ｓ　Ｇｒｏｕｐ　ｈｏｌｄｉｎｇ株式会社,,株式会社,東京都,台東区,台東３丁目５番１０号－１０２－２Ｊ号室,,13,106,1100016,,,,,,,2025-07-09,1,,,,,ジェージェーエスグループホールディング,0
1634,7010501054347,新規,0,2025-07-09,2025-07-09,日柔株式会社,,株式会社,東京都,台東区,清川１丁目２１－５ＷＡＬＬａｐａｒｔｍｅｎｔ５階大区画号室,,13,106,1110022,,,,,,,2025-07-09,1,,,,,ニチジュウ,0
1635,7010501054363,新規,0,2025-07-09,2025-07-09,至能株式会社,,株式会社,東京都,台東区,蔵前４丁目１６－６ストーク蔵前Ｍ＆Ｋ４階４１３,,13,106,1110051,,,,,,,2025-07-09,1,,,,,シノウ,0
1636,7010501054371,新規,0,2025-07-09,2025-07-09,株式会社Ｉｎｔｅｌｌｉｚｅｎｓｅ,,株式会社,東京都,台東区,小島２丁目１０番７号,,13,106,1110056,,,,,,,2025-07-09,1,,,,,インテリゼンス,0
1645,7010903010063,新規,0,2025-07-09,2025-07-09,ＤＯＵＢＬＥ　Ｃ合同会社,,合同会社,東京都,世田谷区,上馬５丁目８番４号,,13,112,1540011,,,,,,,2025-07-09,1,,,,,ダブルシー,0
1653,7011001170535,新規,0,2025-07-09,2025-07-09,株式会社ＦＩＲＯＮ,,株式会社,東京都,渋谷区,神宮前３丁目１３－１８ヴェールコート表参道１０５号室,,13,113,1500001,,,,,,,2025-07-09,1,,,,,ファイロン,0
1654,7011003021983,新規,0,2025-07-09,2025-07-09,Ｒ・Ｅ・Ｘ・Ｘ合同会社,,合同会社,東京都,渋谷区,神泉町２０番２１号クロスシー渋谷神泉ビル,,13,113,1500045,,,,,,,2025-07-09,1,,,,,レックス,0
1655,7011003022115,新規,0,2025-07-09,2025-07-09,合同会社カップノトッテ,,合同会社,東京都,渋谷区,渋谷２丁目１９－１５宮益坂ビルディング６０９,,13,113,1500002,,,,,,,2025-07-09,1,,,,,カップノトッテ,0
1661,7011101112354,新規,0,2025-07-09,2025-07-09,ＨＭ　ＰＬＵＳ　ＪＡＰＡＮ株式会社,,株式会社,東京都,新宿区,大久保１丁目９－１７シルバービル１０１号,,13,104,1690072,,,,,,,2025-07-09,1,,,,,エイチエムプラスジャパン,0
1662,7011101112362,新規,0,2025-07-09,2025-07-09,株式会社Ｓａｉｌ　Ｃｌｅａｎ,,株式会社,東京都,新宿区,西新宿４丁目３１番３号永谷リヴュール新宿１１０４－Ｃ,,13,104,1600023,,,,,,,2025-07-09,1,,,,,セイルクリーン,0
1669,7011501032301,新規,0,2025-07-09,2025-07-09,株式会社ぺりかん,,株式会社,東京都,北区,中十条１丁目２１番１１号,,13,117,1140032,,,,,,,2025-07-09,1,,,,,ペリカン,0
1671,7011703004305,新規,0,2025-07-09,2025-07-09,合同会社ｋａｔａｄｅｖ,,合同会社,東京都,江戸川区,鹿骨１丁目５０番地１４号,,13,123,1330073,,,,,,,2025-07-09,1,,,,,カタデブ,0
1674,7012301014456,新規,0,2025-07-09,2025-07-09,株式会社ＦＯＲＴＵＮＡ,,株式会社,東京都,町田市,原町田６丁目２４－１７－３Ｆ,,13,209,1940013,,,,,,,2025-07-09,1,,,,,フォーチュナ,0
1680,7013301054574,新規,0,2025-07-09,2025-07-09,株式会社Ａｒｘ＆Ｃｏ．,,株式会社,東京都,豊島区,西池袋３丁目３０番１１号泰共フラットビル３１１号,,13,116,1710021,,,,,,,2025-07-09,1,,,,,アークスアンドコー,0
1686,7020001163663,新規,0,2025-07-09,2025-07-09,株式会社ＳＧテック,,株式会社,神奈川県,川崎市麻生区,上麻生７丁目２７番１０号,,14,137,2150021,,,,,,,2025-07-09,1,,,,,エスジーテック,0
1690,7021001085724,新規,0,2025-07-09,2025-07-09,株式会社ＳＴＯＣＫ‐ＵＰ,,株式会社,神奈川県,厚木市,泉町１－１本厚木ミロード１・６Ｆ,,14,212,2430013,,,,,,,2025-07-09,1,,,,,ストックアップ,0
1691,7021001085732,新規,0,2025-07-09,2025-07-09,株式会社２３,,株式会社,神奈川県,足柄下郡湯河原町,宮下３５１番地,,14,384,2590304,,,,,,,2025-07-09,1,,,,,フタミ,0
1692,7021003016248,新規,0,2025-07-09,2025-07-09,ＰＲプロモート合同会社,,合同会社,神奈川県,伊勢原市,高森２丁目１６番２２号,,14,214,2591114,,,,,,,2025-07-09,1,,,,,ピーアールプロモート,0
1693,7021003016256,新規,0,2025-07-09,2025-07-09,合同会社ＭＴＲＥ,,合同会社,神奈川県,藤沢市,片瀬５丁目１３番３５号,,14,205,2510032,,,,,,,2025-07-09,1,,,,,エムティーアールイー,0
1700,7030001167408,新規,0,2025-07-09,2025-07-09,株式会社ＭＯＪＡ’ｓ　ＦＡＣＴＯＲＹ,,株式会社,埼玉県,さいたま市北区,盆栽町９８,,11,102,3310805,,,,,,,2025-07-09,1,,,,,モジャーズファクトリー,0
1701,7030001167589,新規,0,2025-07-09,2025-07-09,Ｚｅｒｏ　Ｌｏｏｐ株式会社,,株式会社,埼玉県,川越市,大字中福９０２－１０,,11,201,3501156,,,,,,,2025-07-09,1,,,,,ゼロループ,0
1707,7030005022204,新規,0,2025-07-09,2025-07-09,税理士法人岡野会計,,その他の設立登記法人,埼玉県,川越市,六軒町２丁目２５番地６,,11,201,3500041,,,,,,,2025-07-09,1,,,,,オカノカイケイ,0
1714,7040001139513,新規,0,2025-07-09,2025-07-09,株式会社マルエイフードテック,,株式会社,千葉県,千葉市中央区,本町１丁目４番１号,,12,101,2600012,,,,,,,2025-07-09,1,,,,,マルエイフードテック,0
1715,7040001139521,新規,0,2025-07-09,2025-07-09,株式会社布施工業,,株式会社,千葉県,千葉市稲毛区,小中台町４２６番地１フローラ稲毛４１０号,,12,103,2630044,,,,,,,2025-07-09,1,,,,,フセコウギョウ,0
1716,7040001139554,新規,0,2025-07-09,2025-07-09,Ｍｏｖｉｄｏ株式会社,,株式会社,千葉県,船橋市,夏見５丁目５番４号,,12,204,2730865,,,,,,,2025-07-09,1,,,,,モビード,0
1717,7040001139562,新規,0,2025-07-09,2025-07-09,株式会社サカエサービス,,株式会社,千葉県,印旛郡栄町,安食台５丁目２３番１５号,,12,329,2701515,,,,,,,2025-07-09,1,,,,,サカエサービス,0
1723,7040005022814,新規,0,2025-07-09,2025-07-09,一般社団法人介護福祉教育コンソーシアム,,その他の設立登記法人,千葉県,千葉市中央区,新宿２丁目５番２号,,12,101,2600021,,,,,,,2025-07-09,1,,,,,カイゴフクシキョウイクコンソーシアム,0
1728,7070001043101,新規,0,2025-07-09,2025-07-09,株式会社ラスターズオートボディー,,株式会社,群馬県,前橋市,粕川町女渕１５０６番地３,,10,201,3710214,,,,,,,2025-07-09,1,,,,,ラスターズオートボディー,0
1729,7070001043118,新規,0,2025-07-09,2025-07-09,ＨＯＬＬＹ　ＨＯＣＫ株式会社,,株式会社,群馬県,藤岡市,上大塚１４１８番地５,,10,209,3750054,,,,,,,2025-07-09,1,,,,,ホリーホック,0
1730,7070001043126,新規,0,2025-07-09,2025-07-09,株式会社五十嵐工業,,株式会社,群馬県,伊勢崎市,東小保方町３８６６番地７,,10,204,3792234,,,,,,,2025-07-09,1,,,,,イガラシコウギョウ,0
1731,7070003005990,新規,0,2025-07-09,2025-07-09,合同会社ＨＭＴ,,合同会社,群馬県,高崎市,問屋町１丁目１番３号１階,,10,202,3700006,,,,,,,2025-07-09,1,,,,,,0
1737,7080101025601,新規,0,2025-07-09,2025-07-09,株式会社三恵,,株式会社,静岡県,富士宮市,大鹿窪三沢１０１８番地の３,,22,207,4190303,,,,,,,2025-07-09,1,,,,,サンケイ,0
1738,7080103003365,新規,0,2025-07-09,2025-07-09,石やと合同会社,,合同会社,静岡県,賀茂郡河津町,浜１４９番１,,22,302,4130513,,,,,,,2025-07-09,1,,,,,イシヤト,0
1740,7080403005301,新規,0,2025-07-09,2025-07-09,合同会社Ｋｏｂａ‐Ｏ,,合同会社,静岡県,磐田市,森下３３７番地３,,22,211,4380834,,,,,,,2025-07-09,1,,,,,コバオ,0
1742,7110005017245,新規,0,2025-07-09,2025-07-09,一般社団法人十郷,,その他の設立登記法人,新潟県,村上市,堀ノ内９５,,15,212,9593905,,,,,,,2025-07-09,1,,,,,ジュウゴウ,0
1748,7120001277354,新規,0,2025-07-09,2025-07-09,丹威株式会社,,株式会社,大阪府,大阪市中央区,久太郎町１丁目３番９－２６０３号,,27,128,5410056,,,,,,,2025-07-09,1,,,,,タンイ,0
1749,7120001277404,新規,0,2025-07-09,2025-07-09,秋堂風株式会社,,株式会社,大阪府,大阪市住吉区,杉本１丁目９－１６グランビルドアビコＩ５０３号室,00139867,27,120,5580022,,,,,,,2025-07-09,1,,,,,シュウドウフウ,0
1750,7120001277552,新規,0,2025-07-09,2025-07-09,ＨＳホールディングス株式会社,,株式会社,大阪府,大阪市鶴見区,横堤５丁目３番３３号,,27,124,5380052,,,,,,,2025-07-09,1,,,,,エイチエスホールディングス,0
1751,7120001277668,新規,0,2025-07-09,2025-07-09,株式会社達勝,,株式会社,大阪府,大阪市中央区,本町橋６番２１号シャンボ一ル内本町１１０５－Ａ,,27,128,5400029,,,,,,,2025-07-09,1,,,,,タツショウ,0
1752,7120001277750,新規,0,2025-07-09,2025-07-09,ＡｋｉＤｅｓｉｇｎ株式会社,,株式会社,大阪府,大阪市中央区,東高麗橋２番５号グラン・コープ東高麗橋１４０１号,,27,128,5400039,,,,,,,2025-07-09,1,,,,,アキデザイン,0
1753,7120001277759,新規,0,2025-07-09,2025-07-09,株式会社ｍｅｎｄ,,株式会社,大阪府,寝屋川市,香里南之町３３番２２号,,27,215,5720084,,,,,,,2025-07-09,1,,,,,メンド,0
1754,7120001277809,新規,0,2025-07-09,2025-07-09,株式会社ＲＥＶＥＬ,,株式会社,大阪府,大阪市中央区,難波３丁目４２番地２５ＧＰ－ＧＡＴＥビル９階,,27,128,5420076,,,,,,,2025-07-09,1,,,,,レベル,0
1758,7120003029935,新規,0,2025-07-09,2025-07-09,ＴＲＹ合同会社,,合同会社,大阪府,大阪市住吉区,万代６丁目１６番１６号－３０２号,,27,120,5580055,,,,,,,2025-07-09,1,,,,,トライ,0
1759,7120003029984,新規,0,2025-07-09,2025-07-09,合同会社オイラ,,合同会社,大阪府,大阪市中央区,西心斎橋２丁目３番２１号,,27,128,5420086,,,,,,,2025-07-09,1,,,,,オイラ,0
1760,7120101071979,新規,0,2025-07-09,2025-07-09,ＬＡＣＳ株式会社,,株式会社,大阪府,堺市堺区,三条通６番１７号２０１,,27,141,5900046,,,,,,,2025-07-09,1,,,,,ラックス,0
1761,7120101072069,新規,0,2025-07-09,2025-07-09,株式会社Ｅｎｅｃｔ,,株式会社,大阪府,松原市,小川５丁目４番２２号グレイス１（１０５）,,27,217,5800002,,,,,,,2025-07-09,1,,,,,エネクト,0
1763,7120103006545,新規,0,2025-07-09,2025-07-09,合同会社ＨＥＮＺ,,合同会社,大阪府,堺市堺区,戎之町西１－１－１－４０１,,27,141,5900000,,,,,,,2025-07-09,1,,,,,ヘンズ,0
1764,7120103006553,新規,0,2025-07-09,2025-07-09,合同会社蓮,,合同会社,大阪府,堺市北区,中百舌鳥町１丁１９番２号,,27,146,5918023,,,,,,,2025-07-09,1,,,,,レン,0
1765,7120103006561,新規,0,2025-07-09,2025-07-09,合同会社Ｌｉｌｙ　Ｎｉｇｈｔ　Ｍｅａ,,合同会社,大阪府,藤井寺市,北條町４－２７,,27,226,5830002,,,,,,,2025-07-09,1,,,,,リリーナイトメア,0
1772,7130001080030,新規,0,2025-07-09,2025-07-09,株式会社ＳＨＩＮ,,株式会社,京都府,京都市山科区,厨子奥矢倉町２５番５シャトーファミリー１０７号室,,26,110,6078452,,,,,,,2025-07-09,1,,,,,シン,0
1778,7140001139189,新規,0,2025-07-09,2025-07-09,アイビーサービス株式会社,,株式会社,兵庫県,神戸市北区,有野町唐櫃７４２－３,,28,109,6511331,,,,,,,2025-07-09,1,,,,,アイビーサービス,0
1779,7140001139263,新規,0,2025-07-09,2025-07-09,ジャパンハイポリマー株式会社,,株式会社,兵庫県,伊丹市,御願塚７丁目４番３５号,,28,207,6640855,,,,,,,2025-07-09,1,,,,,ジャパンハイポリマー,0
1783,7140003022277,新規,0,2025-07-09,2025-07-09,合同会社クラウン,,合同会社,兵庫県,神戸市兵庫区,塚本通５丁目１番１０号蓬莱ビル１階１０１号室,,28,105,6520804,,,,,,,2025-07-09,1,,,,,クラウン,0
1784,7140003022285,新規,0,2025-07-09,2025-07-09,合同会社ロジクル,,合同会社,兵庫県,伊丹市,池尻４丁目１番５－１２０４号,,28,207,6640027,,,,,,,2025-07-09,1,,,,,ロジクル,0
1785,7140003022293,新規,0,2025-07-09,2025-07-09,合同会社自啓塾,,合同会社,兵庫県,神戸市兵庫区,駅南通１丁目２－３,,28,105,6520897,,,,,,,2025-07-09,1,,,,,ジケイジュク,0
1787,7160003003531,新規,0,2025-07-09,2025-07-09,合同会社なすび,,合同会社,滋賀県,大津市,雄琴５丁目１１番８３号,,25,201,5200101,,,,,,,2025-07-09,1,,,,,ナスビ,0
1795,7180001167566,新規,0,2025-07-09,2025-07-09,株式会社エムシード,,株式会社,愛知県,名古屋市中村区,名駅３丁目４番１０号アルティメイト名駅１ｓｔ２階,,23,105,4500002,,,,,,,2025-07-09,1,,,,,エムシード,0
1796,7180001167590,新規,0,2025-07-09,2025-07-09,株式会社あたらよ,,株式会社,愛知県,名古屋市中区,栄３丁目１２番６号,,23,106,4600008,,,,,,,2025-07-09,1,,,,,アタラヨ,0
1797,7180001167599,新規,0,2025-07-09,2025-07-09,株式会社東海電波,,株式会社,愛知県,名古屋市天白区,植田山２丁目５０９番地,,23,116,4680001,,,,,,,2025-07-09,1,,,,,トウカイデンパ,0
1798,7180001167608,新規,0,2025-07-09,2025-07-09,ＳＨＷＥ　ＴＨＩＴ　ＳＡＲ株式会社,,株式会社,愛知県,名古屋市南区,内田橋２丁目１５番１６号,,23,112,4570862,,,,,,,2025-07-09,1,,,,,シュエティッサー,0
1799,7180001167616,新規,0,2025-07-09,2025-07-09,株式会社Ｒハウジング,,株式会社,愛知県,半田市,青山４丁目１６番地の２,,23,205,4750836,,,,,,,2025-07-09,1,,,,,アールハウジング,0
1800,7180001167624,新規,0,2025-07-09,2025-07-09,テクノプランニング株式会社,,株式会社,愛知県,尾張旭市,北山町北新田３１番地１,,23,226,4880057,,,,,,,2025-07-09,1,,,,,テクノプランニング,0
1804,7180003028717,新規,0,2025-07-09,2025-07-09,合同会社Ｍｙｔｈ　Ｄｉａｍｏｎｄ　Ｓａｌｏｎ,,合同会社,愛知県,愛西市,大井町宮新田１番地１７,,23,232,4960921,,,,,,,2025-07-09,1,,,,,ミスダイアモンドサロン,0
1805,7180303006637,新規,0,2025-07-09,2025-07-09,合同会社カワカミサービス,,合同会社,愛知県,豊田市,大清水町南岬１番地４４７,,23,211,4700342,,,,,,,2025-07-09,1,,,,,カワカミサービス,0
1809,7190003005112,新規,0,2025-07-09,2025-07-09,合同会社ＤＥＬＴＡ　ＰＡＩＮＴ,,合同会社,三重県,四日市市,大字羽津４３００番地１,,24,202,5100012,,,,,,,2025-07-09,1,,,,,デルタペイント,0
1811,7200001044003,新規,0,2025-07-09,2025-07-09,株式会社ＫＡＳＨＩＭＯＲＩ,,株式会社,岐阜県,中津川市,加子母８２５番地,,21,206,5080421,,,,,,,2025-07-09,1,,,,,カシモリ,0
1815,7220001026800,新規,0,2025-07-09,2025-07-09,株式会社ゴールドバーグ,,株式会社,石川県,能美市,三ツ口町６８番地,,17,211,9231203,,,,,,,2025-07-09,1,,,,,ゴールドバーグ,0
1816,7220003004077,新規,0,2025-07-09,2025-07-09,合同会社だおこれ,,合同会社,石川県,金沢市,堀川新町５番１号アリマビル３Ｆ,,17,201,9200849,,,,,,,2025-07-09,1,,,,,ダオコレ,0
1819,7240001065177,新規,0,2025-07-09,2025-07-09,株式会社Ｋｅｅｐ　Ｏｎ,,株式会社,広島県,福山市,今津町３丁目７－２５,,34,207,7290111,,,,,,,2025-07-09,1,,,,,キーポン,0
1820,7240001065193,新規,0,2025-07-09,2025-07-09,株式会社ＣＯＮＥＣＴＲＹ,,株式会社,広島県,三次市,三次町１２０６番地２,,34,209,7280021,,,,,,,2025-07-09,1,,,,,コネクトリー,0
1821,7240001065219,新規,0,2025-07-09,2025-07-09,ｍａｒｋ　ｓｉｄｅ株式会社,,株式会社,広島県,広島市南区,丹那町２０番２５号,,34,103,7340034,,,,,,,2025-07-09,1,,,,,マークサイド,0
1822,7240003007292,新規,0,2025-07-09,2025-07-09,合同会社リクエスト,,合同会社,広島県,広島市南区,大州５丁目５番３１号,,34,103,7320802,,,,,,,2025-07-09,1,,,,,リクエスト,0
1828,7260001040327,新規,0,2025-07-09,2025-07-09,株式会社ＥＸＴＲＡ,,株式会社,岡山県,岡山市南区,築港新町２丁目１５番１０号,,33,104,7028056,,,,,,,2025-07-09,1,,,,,エクストラ,0
1829,7260001040343,新規,0,2025-07-09,2025-07-09,株式会社ＮＡＭＩ．ＡＴＯ．,,株式会社,岡山県,岡山市中区,＿７３番地,00139877,33,102,7038248,,,,,,,2025-07-09,1,,,,,ナミアト,0
1830,7260003005253,新規,0,2025-07-09,2025-07-09,Ｇｕｊｊａｒ　Ｔｒａｄｉｎｇ合同会社,,合同会社,岡山県,赤磐市,町苅田２９７番地,,33,213,7012222,,,,,,,2025-07-09,1,,,,,グジャールトレーディング,0
1833,7270001009239,新規,0,2025-07-09,2025-07-09,豊西株式会社,,株式会社,鳥取県,岩美郡岩美町,大字浦富１３５８番地７,,31,302,6810003,,,,,,,2025-07-09,1,,,,,トヨニシ,0
1834,7270003001763,新規,0,2025-07-09,2025-07-09,ＡＰカンパニー合同会社,,合同会社,鳥取県,西伯郡大山町,末長２８６番地１４,,31,386,6893332,,,,,,,2025-07-09,1,,,,,エーピーカンパニー,0
1839,7290001110597,新規,0,2025-07-09,2025-07-09,東信建設株式会社,,株式会社,福岡県,朝倉郡筑前町,東小田３２２８番地３,,40,447,8380214,,,,,,,2025-07-09,1,,,,,トウシンケンセツ,0
1840,7290001110630,新規,0,2025-07-09,2025-07-09,株式会社ＲＩＳＴＡＬＩＡ,,株式会社,福岡県,八女市,本村３７７番地１１,,40,210,8340063,,,,,,,2025-07-09,1,,,,,リスタリア,0
1842,7290003017064,新規,0,2025-07-09,2025-07-09,貝熙合同会社,,合同会社,福岡県,福岡市西区,姪の浜６丁目１４番２８号ユーライフパーク３０２号室,,40,135,8190002,,,,,,,2025-07-09,1,,,,,カイキ,0
1845,7300001014268,新規,0,2025-07-09,2025-07-09,株式会社Ａｇｒｉ‐Ｎｅｏ,,株式会社,佐賀県,杵島郡白石町,大字福富下分２２５７番地,,41,425,8490402,,,,,,,2025-07-09,1,,,,,アグリネオ,0
1846,7310001019695,新規,0,2025-07-09,2025-07-09,株式会社むしし,,株式会社,長崎県,長崎市,桜馬場１丁目１２番２６号,,42,201,8500015,,,,,,,2025-07-09,1,,,,,ムシシ,0
1849,7330001033397,新規,0,2025-07-09,2025-07-09,株式会社日章建機,,株式会社,熊本県,上益城郡御船町,大字高木５０２番地４,,43,441,8613203,,,,,,,2025-07-09,1,,,,,ニッショウケンキ,0
1850,7340001027489,新規,0,2025-07-09,2025-07-09,株式会社オプティマ,,株式会社,鹿児島県,鹿児島市,下伊敷３丁目２２番２８号,,46,201,8900005,,,,,,,2025-07-09,1,,,,,オプティマ,0
1852,7350001019642,新規,0,2025-07-09,2025-07-09,株式会社佐伯木材,,株式会社,宮崎県,西臼杵郡五ヶ瀬町,大字桑野内３７２２番地３,,45,443,8821202,,,,,,,2025-07-09,1,,,,,サイキモクザイ,0
1853,7350003004972,新規,0,2025-07-09,2025-07-09,合同会社ｋ．サジェスション,,合同会社,宮崎県,北諸県郡三股町,大字宮村２７９７番地９,,45,341,8891912,,,,,,,2025-07-09,1,,,,,ケイサジェスション,0
1854,7360001035424,新規,0,2025-07-09,2025-07-09,株式会社Ｋｅｉ設計,,株式会社,沖縄県,中頭郡中城村,字南上原３２９番地１ＨＱＤＭ・ＴＡＵＲＵＳ・Ｊ・２０２号,,47,328,9012424,,,,,,,2025-07-09,1,,,,,ケイセッケイ,0
1855,7360001035440,新規,0,2025-07-09,2025-07-09,ＯＳＣ株式会社,,株式会社,沖縄県,宜野湾市,嘉数２丁目１８番１６号ヌーベル嘉数３０６号,,47,205,9012226,,,,,,,2025-07-09,1,,,,,オーエスシー,0
1856,7360003015069,新規,0,2025-07-09,2025-07-09,合同会社スカイワールド,,合同会社,沖縄県,島尻郡八重瀬町,字東風平２７１番地グレースハイム宮城Ｉ－３０３号,00139860,47,362,9010401,,,,,,,2025-07-09,1,,,,,スカイワールド,0
1860,7380003006082,新規,0,2025-07-09,2025-07-09,合同会社Ｗｅｓｔ　Ａｇｒｉ　Ｆａｒｍ　Ｆｕｔｕｒｅ,,合同会社,福島県,西白河郡西郷村,大字熊倉字風吹１５０番地,,07,461,9618091,,,,,,,2025-07-09,1,,,,,ウエストアグリファームフューチャー,0
1864,7420001019189,新規,0,2025-07-09,2025-07-09,株式会社吉和の森八戸ｗｅｂ制作集客,,株式会社,青森県,八戸市,大字十三日町１番地ヴィアノヴァビル３Ｆ,,02,203,0310042,,,,,,,2025-07-09,1,,,,,ヨシカズノモリハチノヘウェブセイサクシュウキャク,0
1867,7430001094842,新規,0,2025-07-09,2025-07-09,株式会社愛真,,株式会社,北海道,石狩市,親船東二条１丁目８０番地,,01,235,0613366,,,,,,,2025-07-09,1,,,,,アイシン,0
1869,7430003017859,新規,0,2025-07-09,2025-07-09,合同会社ＮＮ,,合同会社,北海道,江別市,野幌代々木町３７番地３４,,01,217,0690817,,,,,,,2025-07-09,1,,,,,エヌエヌ,0
1870,7430003017883,新規,0,2025-07-09,2025-07-09,ＧｒａｙＨｅｙａ合同会社,,合同会社,北海道,小樽市,緑４丁目１番１１号,,01,203,0470034,,,,,,,2025-07-09,1,,,,,グレイヘヤ,0
1875,7700150124802,新規,0,2025-07-09,2025-07-09,ＭＡＬＩＮＤＯ　ＡＩＲＷＡＹＳ　ＳＤＮ．ＢＨＤ．,,外国会社等,千葉県,成田市,古込字古込１番地１成田国際空港第二旅客ターミナル第二駐車場ビルＰ２０４７室,,12,211,2860104,マレーシア、クアラルンプール連邦直轄領、ブリックフィールズ、トゥン・サンバンタン通り２０１、メナラ１セントラム１３階,,,,,,2025-07-09,1,,,,,マリンドエアウエイズエスデイーエヌビーエイチデイ,0
1880,8010001256525,新規,0,2025-07-09,2025-07-09,株式会社新ピーアンドエム,,株式会社,東京都,中央区,日本橋浜町１丁目１番１２号,,13,102,1030007,,,,,,,2025-07-09,1,,,,,シンピーアンドエム,0
1881,8010001256582,新規,0,2025-07-09,2025-07-09,株式会社ＳＴＯＣＫ１８８,,株式会社,東京都,千代田区,永田町２丁目１２番４号,,13,101,1000014,,,,,,,2025-07-09,1,,,,,ストックヒャクハチジュウハチ,0
1882,8010001256590,新規,0,2025-07-09,2025-07-09,株式会社ＳＥＶＥＮＴＹ．Ｖ,,株式会社,東京都,千代田区,神田須田町１丁目７番８号ＶＯＲＴ秋葉原ＩＶ２Ｆ,00139863,13,101,1010041,,,,,,,2025-07-09,1,,,,,セブンティファイブ,0
1883,8010001256608,新規,0,2025-07-09,2025-07-09,ＩＢＩＳグローバリンク株式会社,,株式会社,東京都,中央区,東日本橋２丁目２７番９号,,13,102,1030004,,,,,,,2025-07-09,1,,,,,アイビスグローバリンク,0
1884,8010001256632,新規,0,2025-07-09,2025-07-09,株式会社ユヒーロ・ブロッサム,,株式会社,東京都,千代田区,神田須田町２丁目３番１２号,,13,101,1010041,,,,,,,2025-07-09,1,,,,,ユヒーロブロッサム,0
1885,8010001256657,新規,0,2025-07-09,2025-07-09,ＡｌｌＪｏｙ　Ｊａｐａｎ株式会社,,株式会社,東京都,中央区,日本橋兜町１７番２号兜町第６葉山ビル４Ｆ,,13,102,1030026,,,,,,,2025-07-09,1,,,,,オールジョイジャパン,0
1886,8010001256681,新規,0,2025-07-09,2025-07-09,株式会社Ｍａｍｂｕ,,株式会社,東京都,中央区,新川１丁目４－１六甲ビル９０５,,13,102,1040033,,,,,,,2025-07-09,1,,,,,マンブー,0
1890,8010003047914,新規,0,2025-07-09,2025-07-09,合同会社ＶＩＴＡＬＳ　Ｌａｂ,,合同会社,東京都,中央区,銀座１丁目２２番１１号銀座大竹ビジデンス２Ｆ,,13,102,1040061,,,,,,,2025-07-09,1,,,,,バイタルズラボ,0
1891,8010003047922,新規,0,2025-07-09,2025-07-09,Ｃ２Ｇｒｅｅｎ合同会社,,合同会社,東京都,文京区,水道２丁目６番５号,,13,105,1120005,,,,,,,2025-07-09,1,,,,,シーツーグリーン,0
1892,8010005040347,新規,0,2025-07-09,2025-07-09,一般社団法人ＮＮＲファンド第３号,,その他の設立登記法人,東京都,千代田区,丸の内１丁目４番１号東京共同会計事務所内,,13,101,1000005,,,,,,,2025-07-09,1,,,,,エヌエヌアールファンドダイサンゴウ,0
1897,8010401191561,新規,0,2025-07-09,2025-07-09,株式会社Ｇｕｔｉ,,株式会社,東京都,港区,西麻布３丁目１３番３－４０３号,,13,103,1060031,,,,,,,2025-07-09,1,,,,,グティ,0
1898,8010401191669,新規,0,2025-07-09,2025-07-09,株式会社ＩＯＲＩ,,株式会社,東京都,港区,白金３丁目１１番１７号‐１１４号,,13,103,1080072,,,,,,,2025-07-09,1,,,,,イオリ,0
1901,8010405024569,新規,0,2025-07-09,2025-07-09,スターズラボ社会保険労務士法人,,その他の設立登記法人,東京都,港区,南青山２丁目１３番１１号マストライフ南青山ビル４Ｆ,,13,103,1070062,,,,,,,2025-07-09,1,,,,,スターズラボ,0
1904,8010603011674,新規,0,2025-07-09,2025-07-09,合同会社東京キャナルネットワーク,,合同会社,東京都,江東区,塩浜１丁目１番１３－１３３４号,,13,108,1350043,,,,,,,2025-07-09,1,,,,,トウキョウキャナルネットワーク,0
1913,8011001170567,新規,0,2025-07-09,2025-07-09,株式会社ＤＸＴＲＬ,,株式会社,東京都,渋谷区,渋谷２丁目１９－１５宮益坂ビルディング６０９,,13,113,1500002,,,,,,,2025-07-09,1,,,,,デクストラル,0
1915,8011003021850,新規,0,2025-07-09,2025-07-09,合同会社パティスホーム,,合同会社,東京都,渋谷区,恵比寿西２丁目８番４号ＥＸ恵比寿西ビル５階,,13,113,1500021,,,,,,,2025-07-09,1,,,,,パティスホーム,0
1925,8011501032275,新規,0,2025-07-09,2025-07-09,株式会社ＹＧ,,株式会社,東京都,北区,東田端２丁目８番地１５号マンションニュー田端２０１,,13,117,1140013,,,,,,,2025-07-09,1,,,,,ワイジー,0
1926,8011501032300,新規,0,2025-07-09,2025-07-09,株式会社赤羽雪子,,株式会社,東京都,北区,赤羽２丁目２０番５号松浦ビル１階,,13,117,1150045,,,,,,,2025-07-09,1,,,,,アカバネユキコ,0
1928,8011701028494,新規,0,2025-07-09,2025-07-09,株式会社防災ファーム,,株式会社,東京都,江戸川区,中央４丁目１１番９号,,13,123,1320021,,,,,,,2025-07-09,1,,,,,ボウサイファーム,0
1929,8011701028511,新規,0,2025-07-09,2025-07-09,株式会社宇内工業,,株式会社,東京都,江戸川区,船堀１丁目４番１３－５０２号,,13,123,1340091,,,,,,,2025-07-09,1,,,,,ウナイコウギョウ,0
1931,8011703004304,新規,0,2025-07-09,2025-07-09,合同会社ひかり,,合同会社,東京都,江戸川区,東葛西２丁目５番２号小林ビル１階,,13,123,1340084,,,,,,,2025-07-09,1,,,,,ヒカリ,0
1934,8011801046421,新規,0,2025-07-09,2025-07-09,Ｍｏｖｅ　Ｂａｓｅ株式会社,,株式会社,東京都,足立区,西新井栄町１丁目１８番１－３０１号,,13,121,1230843,,,,,,,2025-07-09,1,,,,,ムーブベース,0
1936,8011803006968,新規,0,2025-07-09,2025-07-09,合同会社ウィーアワーズ,,合同会社,東京都,葛飾区,柴又３丁目１２－１２エクセレント高木１０２,,13,122,1250052,,,,,,,2025-07-09,1,,,,,ウィーアワーズ,0
1939,8012703003312,新規,0,2025-07-09,2025-07-09,合同会社ＭＡＲＫＥＥＺ,,合同会社,東京都,清瀬市,野塩１丁目４４０番地６,,13,221,2040004,,,,,,,2025-07-09,1,,,,,マーキーズ,0
1940,8012805003350,新規,0,2025-07-09,2025-07-09,一般社団法人Ｌｉｆｅ　Ｃｏｍｍｉｔ　Ｗｏｒｋｓ,,その他の設立登記法人,東京都,国分寺市,西町３丁目１５番地５,,13,214,1850035,,,,,,,2025-07-09,1,,,,,ライフコミットワークス,0
1941,8013301054557,新規,0,2025-07-09,2025-07-09,ＵＰＳＫＩＬＬ　ＷＯＲＫＳ株式会社,,株式会社,東京都,豊島区,東池袋１丁目１８番１号ＨａｒｅｚａＴｏｗｅｒ,,13,116,1700013,,,,,,,2025-07-09,1,,,,,アップスキルワークス,0
1942,8013301054565,新規,0,2025-07-09,2025-07-09,株式会社Ｌｉｂｅｒｔａ,,株式会社,東京都,豊島区,東池袋３丁目１９番１０－２８０１号ライオンズタワー池袋,,13,116,1700013,,,,,,,2025-07-09,1,,,,,リベルタ,0
1943,8013303007752,新規,0,2025-07-09,2025-07-09,ＨＹＨ合同会社,,合同会社,東京都,豊島区,東池袋４丁目２５番１２号,,13,116,1700013,,,,,,,2025-07-09,1,,,,,エイチワイエイチ,0
1950,8020003028599,新規,0,2025-07-09,2025-07-09,合同会社あざらしエステート,,合同会社,神奈川県,横浜市保土ケ谷区,桜ケ丘１丁目３７－６,,14,106,2400011,,,,,,,2025-07-09,1,,,,,アザラシエステート,0
1953,8021001085723,新規,0,2025-07-09,2025-07-09,創叶技建株式会社,,株式会社,神奈川県,綾瀬市,上土棚中４丁目３番１４号八千代２－１０１,,14,218,2521113,,,,,,,2025-07-09,1,,,,,ソウキョウギケン,0
1969,8030001167571,新規,0,2025-07-09,2025-07-09,株式会社リノ,,株式会社,埼玉県,所沢市,東所沢和田３丁目１１番地の５１,,11,208,3590023,,,,,,,2025-07-09,1,,,,,リノ,0
1979,8040001139529,新規,0,2025-07-09,2025-07-09,株式会社ツグミ,,株式会社,千葉県,松戸市,西馬橋蔵元町１４番地,,12,207,2710046,,,,,,,2025-07-09,1,,,,,ツグミ,0
1982,8040003027995,新規,0,2025-07-09,2025-07-09,合同会社ＹＵＡＮ,,合同会社,千葉県,流山市,流山９丁目８００番地２号ひろこうじ,,12,220,2700164,,,,,,,2025-07-09,1,,,,,ユアン,0
1983,8040005022813,新規,0,2025-07-09,2025-07-09,一般社団法人ＣＬＵＥ,,その他の設立登記法人,千葉県,山武市,木原１１２０番地２１,,12,237,2891212,,,,,,,2025-07-09,1,,,,,クルー,0
1986,8050003009415,新規,0,2025-07-09,2025-07-09,合同会社ルナモス,,合同会社,茨城県,守谷市,薬師寺三丁目１８番地４,,08,224,3020100,,,,,,,2025-07-09,1,,,,,ルナモス,0
1987,8070001043100,新規,0,2025-07-09,2025-07-09,株式会社田村牧場,,株式会社,群馬県,利根郡みなかみ町,入須川２４６６番地１４,,10,449,3791416,,,,,,,2025-07-09,1,,,,,タムラボクジョウ,0
1988,8070001043141,新規,0,2025-07-09,2025-07-09,株式会社Ｂａｋｅｒｙ　Ｃｏｒｏｎｅｏ,,株式会社,群馬県,前橋市,下新田町１０番地２２,,10,201,3710822,,,,,,,2025-07-09,1,,,,,ベーカリーコロネオ,0
1992,8080105006522,新規,0,2025-07-09,2025-07-09,一般社団法人本宿共有財産管理会,,その他の設立登記法人,静岡県,駿東郡長泉町,本宿３７９番地,,22,342,4110945,,,,,,,2025-07-09,1,,,,,ホンジュクキョウユウザイサンカンリカイ,0
1993,8080401028006,新規,0,2025-07-09,2025-07-09,株式会社日内地,,株式会社,静岡県,浜松市中央区,石原町６０１番地の１,,22,138,4350033,,,,,,,2025-07-09,1,,,,,ヒナイジ,0
1994,8090001019370,新規,0,2025-07-09,2025-07-09,株式会社ＥＶＥＮＴ　ＳＵＰＰＯＲＴ　ＳＨＩＭＡＤＡ,,株式会社,山梨県,笛吹市,境川町三椚３０－４,,19,211,4060846,,,,,,,2025-07-09,1,,,,,,0
1997,8100001038757,新規,0,2025-07-09,2025-07-09,ＦＲＯＮＴＩＥＲ　ＰＨＯＮＩＣＳ株式会社,,株式会社,長野県,長野市,大字安茂里９８４番地,,20,201,3800941,,,,,,,2025-07-09,1,,,,,フロンティアフォニックス,0
1999,8100003008279,新規,0,2025-07-09,2025-07-09,ＲＯＮＴＵＳ合同会社,,合同会社,長野県,上伊那郡宮田村,３１７１番地３,,20,388,3994301,,,,,,,2025-07-09,1,,,,,ロンタス,0
2001,8110001039408,新規,0,2025-07-09,2025-07-09,株式会社いしづき創建,,株式会社,新潟県,加茂市,大郷町１丁目１０番２１号,,15,209,9591385,,,,,,,2025-07-09,1,,,,,イシヅキソウケン,0
2006,8120001277403,新規,0,2025-07-09,2025-07-09,吉祥国際貿易株式会社,,株式会社,大阪府,大阪市西成区,萩之茶屋２丁目６－４ニューかめや６０号室,,27,122,5570004,,,,,,,2025-07-09,1,,,,,キッショウコクサイボウエキ,0
2007,8120001277436,新規,0,2025-07-09,2025-07-09,Ｓｔａｒｘ　Ｇｒｏｕｐ株式会社,,株式会社,大阪府,大阪市阿倍野区,丸山通１丁目５番２号－５０２号,,27,119,5450042,,,,,,,2025-07-09,1,,,,,スターエックスグループ,0
2008,8120001277510,新規,0,2025-07-09,2025-07-09,株式会社ソンボ,,株式会社,大阪府,大阪市東成区,中道１丁目７番１７号,,27,115,5370025,,,,,,,2025-07-09,1,,,,,ソンボ,0
2009,8120001277584,新規,0,2025-07-09,2025-07-09,天賜株式会社,,株式会社,大阪府,大阪市北区,西天満２丁目６番８号堂島ビルヂング６Ｆ新東京国際リーガル内,,27,127,5300047,,,,,,,2025-07-09,1,,,,,テンシ,0
2010,8120001277592,新規,0,2025-07-09,2025-07-09,株式会社Ｒｅｆｒｅｓｈ　Ｌａｂｏ,,株式会社,大阪府,大阪市住吉区,長居西１丁目１２番３６号,,27,120,5580002,,,,,,,2025-07-09,1,,,,,リフレッシュラボ,0
2011,8120001277667,新規,0,2025-07-09,2025-07-09,岸深国際株式会社,,株式会社,大阪府,大阪市大正区,三軒家西３丁目４番１６号中山ビル１０２１,,27,108,5510001,,,,,,,2025-07-09,1,,,,,ガンシンコクサイ,0
2012,8120001277700,新規,0,2025-07-09,2025-07-09,ａｉａ　ＧＲＯＵＰ株式会社,,株式会社,大阪府,大阪市中央区,島之内１丁目２１番３１号３Ｆ,,27,128,5420082,,,,,,,2025-07-09,1,,,,,アイアグループ,0
2013,8120001277832,新規,0,2025-07-09,2025-07-09,株式会社Ｄ＆Ａフードサービス,,株式会社,大阪府,大阪市淀川区,宮原２丁目１１番６－２０９号,,27,123,5320003,,,,,,,2025-07-09,1,,,,,ディーアンドエーフードサービス,0
2015,8120003029950,新規,0,2025-07-09,2025-07-09,ＫＩＺＵＮＡ合同会社,,合同会社,大阪府,大阪市中央区,北久宝寺町３丁目６番１号本町南ガーデンシティ７階,,27,128,5410057,,,,,,,2025-07-09,1,,,,,キズナ,0
2016,8120003029975,新規,0,2025-07-09,2025-07-09,合同会社ハッピーゴーラッキー,,合同会社,大阪府,大阪市北区,天神橋３丁目５番２０号,,27,127,5300041,,,,,,,2025-07-09,1,,,,,ハッピーゴーラッキー,0
2026,8120903005761,新規,0,2025-07-09,2025-07-09,合同会社賢輝電工,,合同会社,大阪府,豊中市,庄本町２丁目９番１号,,27,203,5610835,,,,,,,2025-07-09,1,,,,,ケンキデンコウ,0
2028,8130001080153,新規,0,2025-07-09,2025-07-09,コンフィダント株式会社,,株式会社,京都府,京都市中京区,丸太町通麩屋町西入昆布屋町３９４御所南ビル３０２号,,26,104,6040986,,,,,,,2025-07-09,1,,,,,コンフィダント,0
2031,8130003010587,新規,0,2025-07-09,2025-07-09,花笑合同会社,,合同会社,京都府,与謝郡与謝野町,字岩滝７７１番地,,26,465,6292262,,,,,,,2025-07-09,1,,,,,ハナエミ,0
2036,8140001139139,新規,0,2025-07-09,2025-07-09,ＫａＭｉＹａ株式会社,,株式会社,兵庫県,神戸市長田区,房王寺町４丁目７番１６－２号,,28,106,6530801,,,,,,,2025-07-09,1,,,,,カミヤ,0
2040,8140003022268,新規,0,2025-07-09,2025-07-09,Ｓｕｎｂａｔｈｅ合同会社,,合同会社,兵庫県,尼崎市,南七松町２丁目９番２８号南七松２ライゼホビー０５号,,28,202,6600053,,,,,,,2025-07-09,1,,,,,サンベイズ,0
2041,8140003022292,新規,0,2025-07-09,2025-07-09,ＣＨＩＫＡＲＡアカウンティング合同会社,,合同会社,兵庫県,神戸市垂水区,西舞子６丁目２番３０－８０２号,,28,108,6550048,,,,,,,2025-07-09,1,,,,,チカラアカウンティング,0
2042,8140003022301,新規,0,2025-07-09,2025-07-09,Ｓｍｉｌｅ　Ａｒｔ　Ｆｉｅｌｄ合同会社,,合同会社,兵庫県,三田市,あかしあ台１丁目５２番地２,,28,219,6691323,,,,,,,2025-07-09,1,,,,,スマイルアートフィールド,0
2043,8140005027562,新規,0,2025-07-09,2025-07-09,あまがさき環境未来協同組合,,その他の設立登記法人,兵庫県,尼崎市,下坂部３丁目７番１２号,,28,202,6610975,,,,,,,2025-07-09,1,,,,,アマガサキカンキョウミライ,0
2044,8150001028258,新規,0,2025-07-09,2025-07-09,株式会社梶谷ＨＤ,,株式会社,奈良県,天理市,西長柄町２７６番地,,29,204,6320063,,,,,,,2025-07-09,1,,,,,カジタニホールディングス,0
2047,8170001018703,新規,0,2025-07-09,2025-07-09,株式会社紀洋エナジー,,株式会社,和歌山県,田辺市,宝来町１４番２７号,,30,206,6460026,,,,,,,2025-07-09,1,,,,,キヨウエナジー,0
2053,8180001167549,新規,0,2025-07-09,2025-07-09,ＳＩＨ株式会社,,株式会社,愛知県,名古屋市守山区,金屋１丁目２４番１６号,,23,113,4630072,,,,,,,2025-07-09,1,,,,,エスアイエイチ,0
2054,8180001167623,新規,0,2025-07-09,2025-07-09,株式会社優企画,,株式会社,愛知県,一宮市,北小渕字八幡１８番地,,23,203,4910013,,,,,,,2025-07-09,1,,,,,マサルキカク,0
2056,8180003028699,新規,0,2025-07-09,2025-07-09,合同会社Ｍ’ｓ　Ｇｒｏｕｐ,,合同会社,愛知県,名古屋市北区,中丸町３丁目１番地（アーバニア志賀公園三番街７棟３０５号）,,23,103,4620056,,,,,,,2025-07-09,1,,,,,エムズグループ,0
2057,8180003028716,新規,0,2025-07-09,2025-07-09,合同会社松軒管理,,合同会社,愛知県,名古屋市千種区,松軒２丁目８２１番,,23,101,4640084,,,,,,,2025-07-09,1,,,,,ショウケンカンリ,0
2058,8180003028724,新規,0,2025-07-09,2025-07-09,合同会社ベルヴィー,,合同会社,愛知県,小牧市,大字北外山１８４８番地５ダンガリーズＢ号,,23,219,4850023,,,,,,,2025-07-09,1,,,,,ベルヴィー,0
2060,8190001032388,新規,0,2025-07-09,2025-07-09,株式会社エクスフォート,,株式会社,三重県,四日市市,川北３丁目３番２２号,,24,202,5108031,,,,,,,2025-07-09,1,,,,,エクスフォート,0
2063,8200001043994,新規,0,2025-07-09,2025-07-09,Ｍ４株式会社,,株式会社,岐阜県,岐阜市,高森町２丁目８番地,,21,201,5008171,,,,,,,2025-07-09,1,,,,,エムフォー,0
2064,8200001044002,新規,0,2025-07-09,2025-07-09,株式会社八神,,株式会社,岐阜県,関市,西神野６５４番地,,21,205,5013202,,,,,,,2025-07-09,1,,,,,ハッシン,0
2069,8220001026799,新規,0,2025-07-09,2025-07-09,株式会社もりの里林業,,株式会社,石川県,金沢市,若松町ツ９２番地２,,17,201,9201165,,,,,,,2025-07-09,1,,,,,モリノサトリンギョウ,0
2070,8220003004076,新規,0,2025-07-09,2025-07-09,合同会社エムスカイ,,合同会社,石川県,金沢市,城南２丁目３８番１８号,,17,201,9200966,,,,,,,2025-07-09,1,,,,,エムスカイ,0
2072,8230001020999,新規,0,2025-07-09,2025-07-09,株式会社Ｏｎｅ　Ｇｒｏｗａｒｄｓ,,株式会社,富山県,富山市,桜町２丁目６番１２号フクタビル３階,,16,201,9300003,,,,,,,2025-07-09,1,,,,,ワングロワーズ,0
2076,8240003007300,新規,0,2025-07-09,2025-07-09,合同会社ふくしっぽ,,合同会社,広島県,広島市西区,古江上１丁目１７５番地２,,34,104,7330875,,,,,,,2025-07-09,1,,,,,フクシッポ,0
2077,8260001040342,新規,0,2025-07-09,2025-07-09,株式会社オレノア,,株式会社,岡山県,倉敷市,玉島長尾１０１８番地１,,33,202,7100251,,,,,,,2025-07-09,1,,,,,オレノア,0
2082,8290001110638,新規,0,2025-07-09,2025-07-09,株式会社Ｊａｐａｎ　ＦＰ　Ａｓｓｅｔ,,株式会社,福岡県,福岡市早良区,昭代３丁目２番２号,,40,137,8140012,,,,,,,2025-07-09,1,,,,,ジャパンエフピーアセット,0
2083,8290001110646,新規,0,2025-07-09,2025-07-09,クレスコ・リアルエステート株式会社,,株式会社,福岡県,福岡市中央区,警固２丁目１７番３０号２Ｆ,,40,133,8100023,,,,,,,2025-07-09,1,,,,,クレスコリアルエステート,0
2084,8290001110662,新規,0,2025-07-09,2025-07-09,株式会社Ｃｒｅｌｉｃａ,,株式会社,福岡県,福岡市中央区,天神２丁目２番１２号Ｔ＆Ｊビルディング７Ｆ,,40,133,8100001,,,,,,,2025-07-09,1,,,,,クレリカ,0
2085,8290003017063,新規,0,2025-07-09,2025-07-09,ＥＣ　ｅｆｆｅｃｔ合同会社,,合同会社,福岡県,福岡市博多区,博多駅前１丁目２３番２号５Ｆ－Ｂ,,40,132,8120011,,,,,,,2025-07-09,1,,,,,イーシーエフェクト,0
2087,8290801031694,新規,0,2025-07-09,2025-07-09,株式会社ＫＣＭ,,株式会社,福岡県,行橋市,大字上津熊５７番地３,,40,213,8240064,,,,,,,2025-07-09,1,,,,,ケーシーエム,0
2088,8290801031703,新規,0,2025-07-09,2025-07-09,株式会社太陽の樹,,株式会社,福岡県,北九州市八幡西区,三ツ頭１丁目４番２３号,,40,109,8070878,,,,,,,2025-07-09,1,,,,,タイヨウノキ,0
2089,8290805009844,新規,0,2025-07-09,2025-07-09,一般社団法人愛ｅｙｅ,,その他の設立登記法人,福岡県,北九州市小倉北区,三萩野１丁目１２番２８－３０３号,,40,106,8020065,,,,,,,2025-07-09,1,,,,,アイアイ,0
2092,8310001019678,新規,0,2025-07-09,2025-07-09,ＧＨＩＳＩＮＧ株式会社,,株式会社,長崎県,東彼杵郡東彼杵町,彼杵宿郷６５９番地３坂井ハイツ２０１,,42,321,8593807,,,,,,,2025-07-09,1,,,,,ギシン,0
2093,8310001019694,新規,0,2025-07-09,2025-07-09,小笠原グループ株式会社,,株式会社,長崎県,長崎市,本石灰町４番１号,,42,201,8500901,,,,,,,2025-07-09,1,,,,,オガサワラグループ,0
2096,8330001033388,新規,0,2025-07-09,2025-07-09,株式会社テナリアＨＯＬＤＩＮＧＳ,,株式会社,熊本県,熊本市東区,山ノ神１丁目６番１４号,,43,102,8620915,,,,,,,2025-07-09,1,,,,,テナリアホールディングス,0
2099,8350001019641,新規,0,2025-07-09,2025-07-09,株式会社トライアングル,,株式会社,宮崎県,宮崎市,大字本郷北方２５３３番地３６,,45,201,8800925,,,,,,,2025-07-09,1,,,,,トライアングル,0
2101,8360001035448,新規,0,2025-07-09,2025-07-09,株式会社ＲＹＵＫＡ,,株式会社,沖縄県,うるま市,字川崎２３９番地１,,47,213,9042203,,,,,,,2025-07-09,1,,,,,リュウカ,0
2103,8380001035446,新規,0,2025-07-09,2025-07-09,株式会社ＳＯＮＩＣ　ＥＣ,,株式会社,福島県,いわき市,平谷川瀬１丁目１２番地の５,,07,204,9708036,,,,,,,2025-07-09,1,,,,,ソニックイーシー,0
2112,8430001094833,新規,0,2025-07-09,2025-07-09,株式会社ＴＡＪ,,株式会社,北海道,札幌市中央区,南五条西１５丁目２番３－５０３,,01,101,0640805,,,,,,,2025-07-09,1,,,,,ティーエージェイ,0
2113,8430001094841,新規,0,2025-07-09,2025-07-09,株式会社エターナルクオン,,株式会社,北海道,石狩郡当別町,対雁１３番地１４,,01,303,0610215,,,,,,,2025-07-09,1,,,,,エターナルクオン,0
2124,9010001256499,新規,0,2025-07-09,2025-07-09,株式会社Ｋｏｎｎｅｃｔ‐Ｋｏｍｐａｓｓ,,株式会社,東京都,千代田区,外神田５丁目２番１号外神田Ｓビル５階,,13,101,1010021,,,,,,,2025-07-09,1,,,,,コネクトコンパス,0
2125,9010001256508,新規,0,2025-07-09,2025-07-09,ＺＡＰＰ株式会社,,株式会社,東京都,千代田区,九段北１丁目１０番３－１３０１号ａｎｉｍｏｋｕｄａｎ,,13,101,1020073,,,,,,,2025-07-09,1,,,,,ザップ,0
2126,9010001256532,新規,0,2025-07-09,2025-07-09,オリエントコンサルティング株式会社,,株式会社,東京都,中央区,晴海３丁目１３番１号ドゥ・トゥールＥ４８１３号室,,13,102,1040053,,,,,,,2025-07-09,1,,,,,オリエントコンサルティング,0
2127,9010001256581,新規,0,2025-07-09,2025-07-09,株式会社大栄,,株式会社,東京都,中央区,銀座１丁目１２番４号Ｎ＆Ｅ　ＢＬＤ．７階,,13,102,1040061,,,,,,,2025-07-09,1,,,,,ダイエイ,0
2128,9010001256623,新規,0,2025-07-09,2025-07-09,株式会社Ｆｏｒｃｉｔｅ,,株式会社,東京都,千代田区,神田須田町１丁目７番８号ＶＯＲＴ秋葉原ＩＶ２Ｆ,00139876,13,101,1010041,,,,,,,2025-07-09,1,,,,,フォーサイト,0
2129,9010001256631,新規,0,2025-07-09,2025-07-09,株式会社ユヒーロ・キー,,株式会社,東京都,千代田区,神田須田町２丁目３番１２号,,13,101,1010041,,,,,,,2025-07-09,1,,,,,ユヒーロキー,0
2130,9010001256656,新規,0,2025-07-09,2025-07-09,株式会社ＦＯＲＣＥ,,株式会社,東京都,中央区,日本橋兜町１７－１,,13,102,1030026,,,,,,,2025-07-09,1,,,,,フォース,0
2131,9010001256722,新規,0,2025-07-09,2025-07-09,ＦｕｎｄａＭａｒｋ株式会社,,株式会社,東京都,中央区,銀座１丁目１２番４号Ｎ＆ＥＢＬＤ．６Ｆ,,13,102,1040061,,,,,,,2025-07-09,1,,,,,ファンダマーク,0
2132,9010001256747,新規,0,2025-07-09,2025-07-09,エグゾロンチジャパン株式会社,,株式会社,東京都,千代田区,丸の内１丁目１１番１号パシフィックセンチュリープレイス丸の内１３階,,13,101,1000005,,,,,,,2025-07-09,1,,,,,エグゾロンチジャパン,0
2135,9010003047921,新規,0,2025-07-09,2025-07-09,合同会社ＳＴ商会,,合同会社,東京都,文京区,千石１丁目１０番６号,,13,105,1120011,,,,,,,2025-07-09,1,,,,,エスティーショウカイ,0
2136,9010003047946,新規,0,2025-07-09,2025-07-09,ｉプロパティ２３合同会社,,合同会社,東京都,千代田区,永田町２丁目１４番２号－３階スリーアイズキャピタル株式会社内,,13,101,1000014,,,,,,,2025-07-09,1,,,,,アイプロパティトゥエンティスリー,0
2138,9010005040296,新規,0,2025-07-09,2025-07-09,一般社団法人Ｊａｐａｎ　Ｐｈａｒｍａｃｅｕｔｉｃａｌ＆ＢｉｏＳｃｉｅｎｃｅ　Ｓｏｃｉｅｔｙ,,その他の設立登記法人,東京都,中央区,銀座１丁目１２番４号Ｎ＆ＥＢＬＤ．６Ｆ,,13,102,1040061,,,,,,,2025-07-09,1,,,,,ジャパンファーマシューティカルアンドバイオサイエンスソサエティ,0
2148,9010401191552,新規,0,2025-07-09,2025-07-09,ＭＡＳｔｒａｔｅｇｙ株式会社,,株式会社,東京都,港区,北青山１丁目３－３三橋ビル３階,,13,103,1070061,,,,,,,2025-07-09,1,,,,,エムエーストラテジー,0
2149,9010401191577,新規,0,2025-07-09,2025-07-09,株式会社ＬＩＮＥＳ　ＭＯＢＩＬＥ,,株式会社,東京都,港区,南青山２丁目２番１５号ＷｉｎＡｏｙａｍａビルＵＣＦ６３５,,13,103,1070062,,,,,,,2025-07-09,1,,,,,ラインズモバイル,0
2151,9010403035542,新規,0,2025-07-09,2025-07-09,合同会社ナカモト,,合同会社,東京都,港区,六本木６丁目１２番３－２４０３号,,13,103,1060032,,,,,,,2025-07-09,1,,,,,ナカモト,0
2153,9010405024568,新規,0,2025-07-09,2025-07-09,スターズラボ税理士法人,,その他の設立登記法人,東京都,港区,南青山２丁目１３番１１号マストライフ南青山ビル４Ｆ,,13,103,1070062,,,,,,,2025-07-09,1,,,,,スターズラボ,0
2154,9010501054361,新規,0,2025-07-09,2025-07-09,株式会社Ｄｏｔ　Ｍ,,株式会社,東京都,台東区,上野５丁目７番７号,,13,106,1100005,,,,,,,2025-07-09,1,,,,,ドットエム,0
2162,9010701047966,新規,0,2025-07-09,2025-07-09,株式会社ＡＲＣエンパワーメント,,株式会社,東京都,品川区,東大井５丁目１１番２号,,13,109,1400011,,,,,,,2025-07-09,1,,,,,エーアールシーエンパワーメント,0
2163,9010701047982,新規,0,2025-07-09,2025-07-09,株式会社ＳＭＡＣＴ,,株式会社,東京都,品川区,南大井６丁目３番１８号,,13,109,1400013,,,,,,,2025-07-09,1,,,,,スマクト,0
2164,9010701048015,新規,0,2025-07-09,2025-07-09,株式会社ＥＲＡ,,株式会社,東京都,品川区,南大井２丁目１０番６－４０５号,,13,109,1400013,,,,,,,2025-07-09,1,,,,,エラ,0
2169,9010903010078,新規,0,2025-07-09,2025-07-09,合同会社ＡＳＤＯＲＹ,,合同会社,東京都,世田谷区,新町３丁目１６番９号,,13,112,1540014,,,,,,,2025-07-09,1,,,,,アスドリー,0
2176,9011001170566,新規,0,2025-07-09,2025-07-09,株式会社ジャパンパッケージ,,株式会社,東京都,渋谷区,神南１丁目１１－４ＦＰＧリンクス神南５階,,13,113,1500041,,,,,,,2025-07-09,1,,,,,ジャパンパッケージ,0
2177,9011001170640,新規,0,2025-07-09,2025-07-09,Ｙｏｔａ株式会社,,株式会社,東京都,渋谷区,神宮前６丁目２３番４号桑野ビル２階,,13,113,1500001,,,,,,,2025-07-09,1,,,,,ヨタ,0
2178,9011001170789,新規,0,2025-07-09,2025-07-09,株式会社ｙｏｕ,,株式会社,東京都,目黒区,下目黒１丁目１番１４号コノトラビル７Ｆ,,13,110,1530064,,,,,,,2025-07-09,1,,,,,ヨウ,0
2181,9011101112369,新規,0,2025-07-09,2025-07-09,Ｍ２Ｋインベストメント株式会社,,株式会社,東京都,新宿区,西新宿７丁目１番１２号クロスオフィス新宿３２０,,13,104,1600023,,,,,,,2025-07-09,1,,,,,エムツーケーインベストメント,0
2185,9011601028783,新規,0,2025-07-09,2025-07-09,株式会社ＭＳＯ,,株式会社,東京都,練馬区,羽沢３丁目２７番１号エクセル羽沢５０８,,13,120,1760003,,,,,,,2025-07-09,1,,,,,エムエスオー,0
2186,9011601028791,新規,0,2025-07-09,2025-07-09,株式会社Ｇｏｏｄ　Ｐｌａｃｅ,,株式会社,東京都,練馬区,北町８丁目１５番１１号パークフレア２０２号,,13,120,1790081,,,,,,,2025-07-09,1,,,,,グッドプレイス,0
2191,9011703004303,新規,0,2025-07-09,2025-07-09,合同会社ベルウッド,,合同会社,東京都,江戸川区,南葛西４丁目１４番２５号第２コーポ梅原２０１,,13,123,1340085,,,,,,,2025-07-09,1,,,,,ベルウッド,0
2192,9011801046429,新規,0,2025-07-09,2025-07-09,森盛株式会社,,株式会社,東京都,葛飾区,新宿６丁目２番１－７２５号シティタワー金町タワー棟,,13,122,1250051,,,,,,,2025-07-09,1,,,,,モリモリ,0
2193,9011803006959,新規,0,2025-07-09,2025-07-09,Ｌｅａｆ合同会社,,合同会社,東京都,葛飾区,東金町６丁目１１番３号,,13,122,1250041,,,,,,,2025-07-09,1,,,,,リーフ,0
2194,9012303002192,新規,0,2025-07-09,2025-07-09,合同会社八七七七,,合同会社,東京都,町田市,山崎町８０２番地７,,13,209,1950074,,,,,,,2025-07-09,1,,,,,ハナナナ,0
2195,9012401043304,新規,0,2025-07-09,2025-07-09,株式会社新関工業,,株式会社,東京都,稲城市,矢野口１７０９番地の１０ハイツオーギ２階,,13,225,2060812,,,,,,,2025-07-09,1,,,,,ニイゼキコウギョウ,0
2207,9020001163760,新規,0,2025-07-09,2025-07-09,株式会社グリシーヌ,,株式会社,神奈川県,横浜市中区,本郷町３丁目２４０番地７－２階,,14,104,2310843,,,,,,,2025-07-09,1,,,,,グリシーヌ,0
2208,9020001163785,新規,0,2025-07-09,2025-07-09,株式会社３ＷＩＤＥ,,株式会社,神奈川県,川崎市宮前区,馬絹２丁目６番６号,,14,136,2160035,,,,,,,2025-07-09,1,,,,,スリーワイド,0
2212,9020003028937,新規,0,2025-07-09,2025-07-09,合同会社ＴｅｃｈＤｒｉｖｅ,,合同会社,神奈川県,横浜市神奈川区,金港町５―１４クアドリフォリオ７ｆ,,14,102,2210056,,,,,,,2025-07-09,1,,,,,テックドライブ,0
2215,9021003016287,新規,0,2025-07-09,2025-07-09,合同会社ミディアム,,合同会社,神奈川県,逗子市,久木３丁目３番２９号,,14,208,2490001,,,,,,,2025-07-09,1,,,,,ミディアム,0
2221,9030001167554,新規,0,2025-07-09,2025-07-09,株式会社スタンフットエイジア,,株式会社,埼玉県,鶴ヶ島市,富士見５丁目４番１１－１０３号ダイアパレス若葉富士見公園,,11,241,3502201,,,,,,,2025-07-09,1,,,,,スタンフットエイジア,0
2222,9030001167570,新規,0,2025-07-09,2025-07-09,株式会社ＧｒａＨａＲＬ,,株式会社,埼玉県,さいたま市浦和区,岸町７丁目８番１０－８０３号,,11,107,3300064,,,,,,,2025-07-09,1,,,,,グラハル,0
2223,9030001167579,新規,0,2025-07-09,2025-07-09,のある株式会社,,株式会社,埼玉県,羽生市,中央４丁目９番３２号,,11,216,3480058,,,,,,,2025-07-09,1,,,,,ノアル,0
2224,9030001167587,新規,0,2025-07-09,2025-07-09,株式会社ＦＬＡＧ　ＴＯＫＹＯ,,株式会社,埼玉県,さいたま市桜区,大字白鍬３９８番地６リバーサイドヤマト２・１０３号室,,11,106,3380811,,,,,,,2025-07-09,1,,,,,フラッグトーキョー,0
2232,9040001139544,新規,0,2025-07-09,2025-07-09,株式会社ＷｏｏｄＢｅｌｌ,,株式会社,千葉県,柏市,北柏台１１番地２,,12,217,2770836,,,,,,,2025-07-09,1,,,,,ウッドベル,0
2233,9040001139560,新規,0,2025-07-09,2025-07-09,株式会社徳稲,,株式会社,千葉県,千葉市中央区,新宿２丁目２番５号藤ビル６階Ｆ号室,,12,101,2600021,,,,,,,2025-07-09,1,,,,,トクイナリ,0
2240,9040003027887,新規,0,2025-07-09,2025-07-09,合同会社常陸大宮３０,,合同会社,千葉県,八千代市,緑が丘西７丁目９番地１１,,12,221,2760040,,,,,,,2025-07-09,1,,,,,ヒタチオオミヤサンジュウ,0
2241,9040003027994,新規,0,2025-07-09,2025-07-09,合同会社トレサポ,,合同会社,千葉県,南房総市,和田町沼６４９番地,,12,234,2992714,,,,,,,2025-07-09,1,,,,,トレサポ,0
2242,9050001056953,新規,0,2025-07-09,2025-07-09,ＩＣＲホールディングス株式会社,,株式会社,茨城県,日立市,幸町１丁目２０番２号,,08,202,3170073,,,,,,,2025-07-09,1,,,,,アイシーアールホールディングス,0
2245,9060001038372,新規,0,2025-07-09,2025-07-09,株式会社Ｒｏｕｇｈ＆Ｄｉａｍｏｎｄｓ　Ｊａｐａｎ,,株式会社,栃木県,宇都宮市,鶴田町１９５２－６,,09,201,3200851,,,,,,,2025-07-09,1,,,,,ラフアンドダイアモンズジャパン,0
2246,9060003005619,新規,0,2025-07-09,2025-07-09,トレーディング小山合同会社,,合同会社,栃木県,小山市,大字喜沢１２０１番地１ＹＮＳハイツ２０８号,,09,208,3230014,,,,,,,2025-07-09,1,,,,,トレーディングオヤマ,0
2248,9070001043108,新規,0,2025-07-09,2025-07-09,ムシャ株式会社,,株式会社,群馬県,藤岡市,本郷８３２番地１,,10,209,3750023,,,,,,,2025-07-09,1,,,,,ムシャ,0
2249,9070001043132,新規,0,2025-07-09,2025-07-09,株式会社ＭＭＣ,,株式会社,群馬県,高崎市,飯塚町１７４９番地２６　Ｉｚ　Ｌｏｃａｔｉｏｎ　２Ｆ,,10,202,3700069,,,,,,,2025-07-09,1,,,,,エムエムシー,0
2250,9070001043140,新規,0,2025-07-09,2025-07-09,株式会社ｉｎ　ｔｈｅ　ｐａｒｔｙ,,株式会社,群馬県,前橋市,青梨子町１３８２番地１,,10,201,3703573,,,,,,,2025-07-09,1,,,,,インザパーティー,0
2251,9070003005972,新規,0,2025-07-09,2025-07-09,合同会社オフィス１１０,,合同会社,群馬県,太田市,大原町８６７番地６,,10,205,3792304,,,,,,,2025-07-09,1,,,,,オフィスイトウ,0
2252,9070003005989,新規,0,2025-07-09,2025-07-09,合同会社Ｎａｎａ　Ｅｎｔｅｒｐｒｉｓｅｓ,,合同会社,群馬県,前橋市,青梨子町１８１番,,10,201,3703573,,,,,,,2025-07-09,1,,,,,ナナエンタープライセス,0
2254,9080101025624,新規,0,2025-07-09,2025-07-09,小島パートナーズ＆クラフト株式会社,,株式会社,静岡県,三島市,本町７番２９号１５０４,,22,206,4110855,,,,,,,2025-07-09,1,,,,,コジマパートナーズアンドクラフト,0
2256,9080103003371,新規,0,2025-07-09,2025-07-09,合同会社ユーロトレーディング,,合同会社,静岡県,熱海市,上多賀９１７番地の１,,22,205,4130101,,,,,,,2025-07-09,1,,,,,,0
2266,9110001039407,新規,0,2025-07-09,2025-07-09,マグー＆カンパニー株式会社,,株式会社,新潟県,新潟市中央区,上大川前通７番町１２３０番地７ストークビル鏡橋７Ｆ,,15,103,9518068,,,,,,,2025-07-09,1,,,,,マグーアンドカンパニー,0
2274,9120001277402,新規,0,2025-07-09,2025-07-09,墨信株式会社,,株式会社,大阪府,大阪市淀川区,十三本町１丁目１８－７－１００３,,27,123,5320024,,,,,,,2025-07-09,1,,,,,ボクシン,0
2275,9120001277583,新規,0,2025-07-09,2025-07-09,株式会社飛上,,株式会社,大阪府,大阪市生野区,鶴橋２丁目１５番３１－３０１号,,27,116,5440031,,,,,,,2025-07-09,1,,,,,ビサン,0
2276,9120001277666,新規,0,2025-07-09,2025-07-09,ＧＯＰＨＥＲ　ＷＯＯＤ株式会社,,株式会社,大阪府,大阪市東成区,大今里３丁目１５番６号ＩｍａｚａｔｏＴｏｗｅｒ５０５Ｆ,,27,115,5370012,,,,,,,2025-07-09,1,,,,,ゴーファーウッド,0
2277,9120001277690,新規,0,2025-07-09,2025-07-09,株式会社スピリット,,株式会社,大阪府,大阪市中央区,南船場３丁目２番２２号おおきに南船場ビル２０５,,27,128,5420081,,,,,,,2025-07-09,1,,,,,スピリット,0
2278,9120001277732,新規,0,2025-07-09,2025-07-09,新地おみや株式会社,,株式会社,大阪府,大阪市北区,中崎１丁目４番８－１００４号,,27,127,5300016,,,,,,,2025-07-09,1,,,,,シンチオミヤ,0
2281,9120003029990,新規,0,2025-07-09,2025-07-09,富達合同会社,,合同会社,大阪府,大阪市西成区,萩之茶屋２丁目６番４号ニューかめや１７０号室,,27,122,5570004,,,,,,,2025-07-09,1,,,,,トミタツ,0
2283,9120005025006,新規,0,2025-07-09,2025-07-09,一般社団法人アジア文化交流経済促進会,,その他の設立登記法人,大阪府,大阪市中央区,本町３丁目３－９－９Ｆ,,27,128,5410053,,,,,,,2025-07-09,1,,,,,アジアブンカコウリュウケイザイソクシンカイ,0
2284,9120101072075,新規,0,2025-07-09,2025-07-09,グローバルリビルト株式会社,,株式会社,大阪府,堺市南区,釜室５９番地３,,27,145,5900122,,,,,,,2025-07-09,1,,,,,グローバルリビルト,0
2285,9120101072083,新規,0,2025-07-09,2025-07-09,ＫＭ科学株式会社,,株式会社,大阪府,堺市堺区,中三国ヶ丘町４丁６番１１号,,27,141,5900022,,,,,,,2025-07-09,1,,,,,ケイエムカガク,0
2286,9120101072091,新規,0,2025-07-09,2025-07-09,Ｂｕｎｎｙ　Ｃｈａｒｇｅ株式会社,,株式会社,大阪府,阪南市,箱作４４１番地の１１３,,27,232,5990232,,,,,,,2025-07-09,1,,,,,バニーチャージ,0
2289,9120901051138,新規,0,2025-07-09,2025-07-09,株式会社ＫＡＩＫＵ,,株式会社,大阪府,吹田市,末広町１６番１０号,,27,205,5640022,,,,,,,2025-07-09,1,,,,,カイク,0
2291,9120903005736,新規,0,2025-07-09,2025-07-09,サスケ合同会社,,合同会社,大阪府,高槻市,登町１３番５号,,27,207,5690046,,,,,,,2025-07-09,1,,,,,サスケ,0
2294,9130001080128,新規,0,2025-07-09,2025-07-09,株式会社ＷＡＮＴＬＥ,,株式会社,京都府,京都市左京区,下鴨貴船町１０３－１,,26,103,6060813,,,,,,,2025-07-09,1,,,,,ウォントル,0
2300,9140001139154,新規,0,2025-07-09,2025-07-09,株式会社ＩＨＢ,,株式会社,兵庫県,神戸市中央区,下山手通２丁目１１番５号,,28,110,6500011,,,,,,,2025-07-09,1,,,,,アイエイチビー,0
2301,9140001139170,新規,0,2025-07-09,2025-07-09,株式会社ツーワイズ,,株式会社,兵庫県,高砂市,伊保崎１丁目２番４号,,28,216,6760076,,,,,,,2025-07-09,1,,,,,ツーワイズ,0
2302,9140001139195,新規,0,2025-07-09,2025-07-09,株式会社ＴＳプランニング,,株式会社,兵庫県,神戸市長田区,若松町２丁目１番９号３Ｆ,,28,106,6530038,,,,,,,2025-07-09,1,,,,,ティーエスプランニング,0
2303,9140003022317,新規,0,2025-07-09,2025-07-09,合同会社神戸ＦＡ研究所,,合同会社,兵庫県,神戸市中央区,京町８０クリエイト神戸３階,,28,110,6500034,,,,,,,2025-07-09,1,,,,,コウベエフエーケンキュウショ,0
2310,9180001167507,新規,0,2025-07-09,2025-07-09,株式会社つながり,,株式会社,愛知県,名古屋市天白区,植田山４丁目２０９番地,,23,116,4680001,,,,,,,2025-07-09,1,,,,,ツナガリ,0
2311,9180001167597,新規,0,2025-07-09,2025-07-09,株式会社ＪＩＴＰ,,株式会社,愛知県,名古屋市北区,杉村１丁目１７番９号－１コンフォルタ杉村１０１号室,,23,103,4620835,,,,,,,2025-07-09,1,,,,,ジェイアイティーピー,0
2312,9180001167614,新規,0,2025-07-09,2025-07-09,株式会社ｎｏｃｈｉＡｋｅ　Ｈｏｌｄｉｎｇｓ,,株式会社,愛知県,常滑市,西之口７丁目９６番地の１,,23,216,4790863,,,,,,,2025-07-09,1,,,,,ノキアケホールディングス,0
2318,9180005021148,新規,0,2025-07-09,2025-07-09,一般社団法人住宅ローン問題救済機構,,その他の設立登記法人,愛知県,名古屋市中区,金山４丁目３番２０号,,23,106,4600022,,,,,,,2025-07-09,1,,,,,ジュウタクローンモンダイキュウサイキコウ,0
2319,9180301040009,新規,0,2025-07-09,2025-07-09,株式会社Ａ．Ｆ,,株式会社,愛知県,知立市,本町中通一丁目１番地,,23,225,4720038,,,,,,,2025-07-09,1,,,,,エーエフ,0
2321,9200001043993,新規,0,2025-07-09,2025-07-09,株式会社ＲＥＣＳ,,株式会社,岐阜県,本巣市,政田１６５８番地１０,,21,218,5010471,,,,,,,2025-07-09,1,,,,,レックス,0
2328,9240001065200,新規,0,2025-07-09,2025-07-09,Ｓｔａｒｔｕｐ株式会社,,株式会社,広島県,福山市,明王台３丁目３番１７号,,34,207,7200834,,,,,,,2025-07-09,1,,,,,スタートアップ,0
2329,9240005015960,新規,0,2025-07-09,2025-07-09,特定非営利活動法人縁,,その他の設立登記法人,広島県,広島市安佐北区,落合南６丁目１番３号,,34,106,7391732,,,,,,,2025-07-09,1,,,,,エン,0
2330,9250001021251,新規,0,2025-07-09,2025-07-09,カイゼンサポート株式会社,,株式会社,山口県,山陽小野田市,大字小野田６１０６番地７６,,35,216,7560817,,,,,,,2025-07-09,1,,,,,カイゼンサポート,0
2334,9270001009245,新規,0,2025-07-09,2025-07-09,株式会社Ｆｒｏｍ・ＲＡＧ,,株式会社,鳥取県,東伯郡三朝町,大字山田２５５番地３,,31,364,6820122,,,,,,,2025-07-09,1,,,,,フロムラグ,0
2338,9280003001967,新規,0,2025-07-09,2025-07-09,ｓｅｅｄｓ合同会社,,合同会社,島根県,松江市,東本町５丁目７番地サンライズマンション５０３,,32,201,6900842,,,,,,,2025-07-09,1,,,,,シーズ,0
2341,9290001110579,新規,0,2025-07-09,2025-07-09,株式会社舟悦,,株式会社,福岡県,福岡市博多区,博多駅中央街５番１１号,,40,132,8120012,,,,,,,2025-07-09,1,,,,,シュウエツ,0
2342,9290001110604,新規,0,2025-07-09,2025-07-09,Ｌｏｇｉａｎ株式会社,,株式会社,福岡県,福岡市博多区,博多駅前１丁目２３番２号ＰａｒｋＦｒｏｎｔ博多駅前１丁目５Ｆ－Ｂ,,40,132,8120011,,,,,,,2025-07-09,1,,,,,ロジアン,0
2343,9290001110612,新規,0,2025-07-09,2025-07-09,株式会社えにし工業,,株式会社,福岡県,八女市,本村８７２番地２,,40,210,8340063,,,,,,,2025-07-09,1,,,,,エニシコウギョウ,0
2344,9290001110629,新規,0,2025-07-09,2025-07-09,株式会社今村工業,,株式会社,福岡県,八女郡広川町,大字水原３２１番地１,,40,544,8340102,,,,,,,2025-07-09,1,,,,,イマムラコウギョウ,0
2345,9290003017087,新規,0,2025-07-09,2025-07-09,合同会社ＤＯｉ整骨院,,合同会社,福岡県,福岡市東区,土井４丁目２８番２号,,40,131,8130032,,,,,,,2025-07-09,1,,,,,ドイセイコツイン,0
2346,9290801031702,新規,0,2025-07-09,2025-07-09,株式会社鮨晄月,,株式会社,福岡県,北九州市小倉北区,魚町１丁目４番１１－２０２号,,40,106,8020006,,,,,,,2025-07-09,1,,,,,スシコウゲツ,0
2350,9310001019693,新規,0,2025-07-09,2025-07-09,株式会社マルナカ商店,,株式会社,長崎県,諫早市,小豆崎町１７３３番地６,,42,204,8590311,,,,,,,2025-07-09,1,,,,,マルナカショウテン,0
2351,9310001019702,新規,0,2025-07-09,2025-07-09,株式会社ＲＥＤ　ＢＬＵＧ,,株式会社,長崎県,長崎市,寄合町２番４－５０２号,,42,201,8500903,,,,,,,2025-07-09,1,,,,,レッドブルグ,0
2354,9320001021211,新規,0,2025-07-09,2025-07-09,株式会社ＳＨＩＰＲＩＳＥ,,株式会社,大分県,大分市,坂ノ市南１丁目１２番１２号,,44,201,8700308,,,,,,,2025-07-09,1,,,,,シップライズ,0
2356,9330001033362,新規,0,2025-07-09,2025-07-09,Ｍフィールド株式会社,,株式会社,熊本県,球磨郡五木村,甲６４８８番地１１１,,43,511,8680201,,,,,,,2025-07-09,1,,,,,エムフィールド,0
2359,9340001027495,新規,0,2025-07-09,2025-07-09,株式会社享栄電工,,株式会社,鹿児島県,鹿児島市,田上台２丁目１４番１１号,,46,201,8900036,,,,,,,2025-07-09,1,,,,,キョウエイデンコウ,0
2360,9340003004889,新規,0,2025-07-09,2025-07-09,合同会社オンパートナーズ,,合同会社,鹿児島県,鹿屋市,川西町３９８９番地５‐１０１号,,46,203,8930032,,,,,,,2025-07-09,1,,,,,オンパートナーズ,0
2361,9350001019632,新規,0,2025-07-09,2025-07-09,株式会社ひかりファーマ,,株式会社,宮崎県,東諸県郡国富町,大字本庄２０４８番地２,,45,382,8801101,,,,,,,2025-07-09,1,,,,,ヒカリファーマ,0
2363,9350003004970,新規,0,2025-07-09,2025-07-09,合同会社ＳＵＮ８　ＭＡＩＮＴＥ,,合同会社,宮崎県,日向市,大字財光寺１１５３番地６,,45,206,8830021,,,,,,,2025-07-09,1,,,,,サンエイトメンテ,0
2367,9400001017110,新規,0,2025-07-09,2025-07-09,株式会社オーテックプラス,,株式会社,岩手県,盛岡市,本宮３丁目２４番３号ジョイハウスフジムラ２０１号,,03,201,0200866,,,,,,,2025-07-09,1,,,,,オーテックプラス,0
2369,9400005008502,新規,0,2025-07-09,2025-07-09,特定非営利活動法人いわてエデュケーションｍｉｘｔｕｒｅ,,その他の設立登記法人,岩手県,盛岡市,高松２丁目６番３１号,,03,201,0200114,,,,,,,2025-07-09,1,,,,,イワテエデュケーションミクスチャー,0
2371,9430001094782,新規,0,2025-07-09,2025-07-09,株式会社ＣＩＲＣＵＬＡＴＥ,,株式会社,北海道,千歳市,信濃４丁目１１番４号２Ｆ－Ｂ,,01,224,0660038,,,,,,,2025-07-09,1,,,,,サーキュレイト,0
2372,9430001094799,新規,0,2025-07-09,2025-07-09,株式会社日企設計,,株式会社,北海道,札幌市中央区,大通西７丁目１番１号,,01,101,0600042,,,,,,,2025-07-09,1,,,,,ニッキセッケイ,0
2373,9430003017849,新規,0,2025-07-09,2025-07-09,合同会社ヒステリックシープ,,合同会社,北海道,札幌市厚別区,厚別東一条５丁目１６番７号,,01,108,0040001,,,,,,,2025-07-09,1,,,,,ヒステリックシープ,0
2374,9430003017898,新規,0,2025-07-09,2025-07-09,エムエーライフワークス合同会社,,合同会社,北海道,札幌市中央区,南五条西１５丁目２－３－５０３,,01,101,0640805,,,,,,,2025-07-09,1,,,,,エムエーライフワークス,0
2380,9500001026407,新規,0,2025-07-09,2025-07-09,株式会社ＫＯＫＯＰＥＬＬＩ　ｅｔｔｏ,,株式会社,愛媛県,西条市,大町１１７番地１,,38,206,7930030,,,,,,,2025-07-09,1,,,,,ココペリエット,0
2381,9700150131350,新規,0,2025-07-09,2025-07-09,Ｍｅｇａ　Ｐｒｉｖａｃｙ　Ｋｆｔ,,外国会社等,,,,,,,,２１６１　Ｃｓｏｍａｄ，Ｔｅｍｐｌｏｍ　ｕｔｃａ　１７，Ｈｕｎｇａｒｙ,,,,,,2025-07-09,1,,,,,メガプライバシーケーエフティー,0
