sequenceNumber,corporateNumber,process,correct,updateDate,changeDate,name,nameImageId,kind,prefectureName,cityName,streetNumber,addressImageId,prefectureCode,cityCode,postCode,addressOutside,addressOutsideImageId,closeDate,closeCause,successorCorporateNumber,changeCause,assignmentDate,latest,enName,enPrefectureName,enCityName,enAddressOutside,furigana,hihyoji
1,1010001005203,登記記録の閉鎖等,0,2025-03-28,2025-03-18,株式会社東京総研,,株式会社,東京都,文京区,本駒込２丁目２９番２２号,,13,105,1130021,,,2025-03-18,清算の結了等,,,2015-10-05,1,,,,,トウキョウソウケン,0
4,1010001132798,登記記録の閉鎖等,0,2025-03-28,2025-03-17,ティー・ダブリュー・エー株式会社,,株式会社,東京都,中央区,日本橋堀留町１丁目８番１１号,,13,102,1030012,,,2025-03-17,清算の結了等,,,2015-10-05,1,,,,,ティーダブリューエー,0
28,1010702005261,登記記録の閉鎖等,0,2025-03-28,2025-03-18,有限会社辻巧芸,00051992,有限会社,東京都,品川区,西品川３丁目２０番１１号,,13,109,1410033,,,2025-03-18,清算の結了等,,,2015-10-05,1,,,,,ツジコウゲイ,0
40,1011101083304,登記記録の閉鎖等,0,2025-03-28,2025-02-28,ｍａｔｓｕｒｉ　ｓｐａｃｅ株式会社,,株式会社,東京都,新宿区,高田馬場３丁目１８番３号,,13,104,1690075,,,2025-02-28,合併による解散等,6013301039246,令和７年２月２８日東京都新宿区高田馬場三丁目１８番３号ｍａｔｓｕｒｉ　ｔｅｃｈｎｏｌｏｇｉｅｓ株式会社（6013301039246）に合併し解散,2018-02-26,1,,,,,マツリスペース,0
54,1011605001604,登記記録の閉鎖等,0,2025-03-28,2025-03-14,一般社団法人ナインステップス,,その他の設立登記法人,東京都,練馬区,富士見台４丁目３６番１９号,,13,120,1770034,,,2025-03-14,清算の結了等,,,2015-10-05,1,,,,,ナインステップス,0
64,1012702000548,登記記録の閉鎖等,0,2025-03-28,2025-03-25,有限会社加藤バネ製作所,,有限会社,東京都,西多摩郡瑞穂町,大字武蔵３３８番地３,,13,303,1901213,,,2025-03-25,清算の結了等,,,2015-10-05,1,,,,,カトウバネセイサクショ,0
82,1030003020132,登記記録の閉鎖等,0,2025-03-28,2025-03-25,合同会社ｍａｒｒｏｇｌａ,,合同会社,埼玉県,飯能市,大字大河原７２番地５,,11,209,3570065,,,2025-03-25,清算の結了等,,,2022-09-06,1,,,,,マログラ,0
101,1070001021343,登記記録の閉鎖等,0,2025-03-28,2025-03-26,株式会社戸谷製作所,,株式会社,群馬県,太田市,西新町１０６番地６,,10,205,3730847,,,2025-03-26,清算の結了等,,,2015-10-05,1,,,,,トヤセイサクジョ,0
106,1080402014936,登記記録の閉鎖等,0,2025-03-28,2025-03-19,有限会社久米塗料店,,有限会社,静岡県,浜松市浜名区,貴布祢５２２番地の１,,22,139,4340038,,,2025-03-19,清算の結了等,,,2015-10-05,1,,,,,クメトリョウテン,0
119,1120001208513,登記記録の閉鎖等,0,2025-03-28,2025-03-26,株式会社アグリーブ,,株式会社,大阪府,大阪市福島区,福島６丁目４番１１号ラミ－ビル,,27,103,5530003,,,2025-03-26,清算の結了等,,,2017-10-03,1,,,,,アグリーブ,0
122,1120001243948,登記記録の閉鎖等,0,2025-03-28,2025-03-24,株式会社ハピネスゲート,,株式会社,兵庫県,姫路市,夢前町前之庄２３５－２,,28,201,6712103,,,2025-03-24,清算の結了等,,,2022-02-22,1,,,,,ハピネスゲート,0
137,1120005013488,登記記録の閉鎖等,0,2025-03-28,2025-03-26,特定非営利活動法人ラーバンプロジェクト,,その他の設立登記法人,大阪府,寝屋川市,高宮あさひ丘４５番１２号,,27,215,5720867,,,2025-03-26,清算の結了等,,,2015-10-05,1,,,,,ラーバンプロジェクト,0
154,1122001029204,登記記録の閉鎖等,0,2025-03-28,2025-03-26,ＧＰジャパン株式会社,,株式会社,大阪府,東大阪市,西堤本通西１丁目６番２９号,,27,227,5770046,,,2025-03-26,清算の結了等,,,2016-01-13,1,,,,,,0
159,1140001016914,登記記録の閉鎖等,0,2025-03-28,2025-03-24,株式会社ミード,,株式会社,兵庫県,神戸市長田区,細田町２丁目１番２０号,,28,106,6530835,,,2025-03-24,清算の結了等,,,2015-10-05,1,,,,,ミード,0
195,1260001036669,登記記録の閉鎖等,0,2025-03-28,2025-03-26,ワシントンホールディングス株式会社,,株式会社,岡山県,岡山市北区,平野１０９５番地,,33,101,7010151,,,2025-03-26,清算の結了等,,,2022-03-25,1,,,,,ワシントンホールディングス,0
223,1430002044083,登記記録の閉鎖等,0,2025-03-28,2025-03-25,有限会社シール工業,,有限会社,北海道,石狩市,花川北二条１丁目５番地７,,01,235,0613212,,,2025-03-25,清算の結了等,,,2015-10-05,1,,,,,シールコウギョウ,0
231,1470002003531,登記記録の閉鎖等,0,2025-03-28,2025-03-25,有限会社システムプラスワン,,有限会社,香川県,高松市,寺井町１１５１番地１０,,37,201,7618085,,,2025-03-25,清算の結了等,,,2015-10-05,1,,,,,システムプラスワン,0
248,2010002013872,登記記録の閉鎖等,0,2025-03-28,2025-03-18,有限会社福山写真製版所,,有限会社,東京都,千代田区,岩本町３丁目７番９号,,13,101,1010032,,,2025-03-18,清算の結了等,,,2015-10-05,1,,,,,フクヤマシャシンセイハンジョ,0
259,2010503003736,登記記録の閉鎖等,0,2025-03-28,2025-03-27,ＥＣＯ・Ｂｏａｒｄ合同会社,,合同会社,滋賀県,長浜市,元浜町１３番５－７０３号,,25,203,5260059,,,2025-03-27,清算の結了等,,,2015-10-05,1,,,,,エコボード,0
281,2011002004523,登記記録の閉鎖等,0,2025-03-28,2025-02-26,有限会社小島商店,,有限会社,東京都,渋谷区,円山町１番１９号,,13,113,1500044,,,2025-02-26,清算の結了等,,,2015-10-05,1,,,,,コジマショウテン,0
294,2011601016340,登記記録の閉鎖等,0,2025-03-28,2025-03-12,株式会社翼プラスター,,株式会社,東京都,練馬区,光が丘１丁目６番２－３０５号,,13,120,1790072,,,2025-03-12,清算の結了等,,,2015-10-05,1,,,,,ツバサプラスター,0
304,2012801008103,登記記録の閉鎖等,0,2025-03-28,2025-03-26,株式会社アズワークス,,株式会社,東京都,三鷹市,牟礼２丁目１５番１号,,13,204,1810002,,,2025-03-26,清算の結了等,,,2015-10-05,1,,,,,アズワークス,0
328,2030002003715,登記記録の閉鎖等,0,2025-03-28,2025-03-25,有限会社鐘塚ビル,,有限会社,埼玉県,さいたま市大宮区,上小町３５５番地,,11,103,3300855,,,2025-03-25,清算の結了等,,,2015-10-05,1,,,,,カネズカビル,0
329,2030002034603,登記記録の閉鎖等,0,2025-03-28,2025-03-18,有限会社吉田鉄工所,,有限会社,埼玉県,狭山市,大字堀兼１０１７番地,,11,215,3501312,,,2025-03-18,清算の結了等,,,2015-10-05,1,,,,,ヨシダテッコウショ,0
330,2030002086157,登記記録の閉鎖等,0,2025-03-28,2025-03-26,有限会社サンケイマシンズ,,有限会社,埼玉県,越谷市,千間台西３丁目１番地パークタウン７－３０５,,11,222,3430041,,,2025-03-26,清算の結了等,,,2015-10-05,1,,,,,サンケイマシンズ,0
338,2040005018024,登記記録の閉鎖等,0,2025-03-28,2025-03-18,特定非営利活動法人市川市ユネスコ協会,,その他の設立登記法人,千葉県,市川市,市川３丁目４番１９号,,12,203,2720034,,,2025-03-18,清算の結了等,,,2015-10-05,1,,,,,イチカワシユネスコキョウカイ,0
342,2050002023967,登記記録の閉鎖等,0,2025-03-28,2025-03-24,有限会社三進電機製作所,,有限会社,茨城県,古河市,小堤２０２６番地２,,08,204,3060231,,,2025-03-24,清算の結了等,,,2015-10-05,1,,,,,サンシンデンキセイサクショ,0
346,2060002003539,登記記録の閉鎖等,0,2025-03-28,2025-03-25,有限会社ケーユー経営コンサルタント,,有限会社,栃木県,宇都宮市,西川田５丁目１１番６号,,09,201,3210152,,,2025-03-25,清算の結了等,,,2015-10-05,1,,,,,ケーユーケイエイコンサルタント,0
347,2070001006913,登記記録の閉鎖等,0,2025-03-28,2025-03-25,株式会社児玉ガスセンター,,株式会社,群馬県,高崎市,貝沢町１０５７番地,,10,202,3700042,,,2025-03-25,清算の結了等,,,2015-10-05,1,,,,,コダマガスセンター,0
348,2070001012382,登記記録の閉鎖等,0,2025-03-28,2025-03-25,共栄商事株式会社,,株式会社,群馬県,藤岡市,上戸塚７番地１,,10,209,3750013,,,2025-03-25,清算の結了等,,,2015-10-05,1,,,,,キョウエイショウジ,0
357,2100001007676,登記記録の閉鎖等,0,2025-03-28,2025-03-21,株式会社プロジェクトドリーム,,株式会社,長野県,佐久市,臼田１７４番地,,20,217,3840301,,,2025-03-21,清算の結了等,,,2015-10-05,1,,,,,プロジェクトドリーム,0
389,2140001053873,登記記録の閉鎖等,0,2025-03-28,2025-03-27,株式会社染川建装,,株式会社,兵庫県,尼崎市,西難波町３丁目２０番２９号,,28,202,6600893,,,2025-03-27,清算の結了等,,,2015-10-05,1,,,,,,0
401,2180002062060,登記記録の閉鎖等,0,2025-03-28,2025-03-24,有限会社エムオー・テクニカル・ラボ,,有限会社,愛知県,日進市,東山６丁目１１１５番地,,23,230,4700116,,,2025-03-24,清算の結了等,,,2015-10-05,1,,,,,エムオーテクニカルラボ,0
408,2210001016690,登記記録の閉鎖等,0,2025-03-28,2025-03-25,株式会社ディーセントワーク北陸,,株式会社,福井県,福井市,二の宮３丁目３０番１１号,,18,201,9100015,,,2025-03-25,清算の結了等,,,2017-04-07,1,,,,,ディーセントワークホクリク,0
414,2240002012257,登記記録の閉鎖等,0,2025-03-28,2025-03-27,有限会社日恵商事,,有限会社,広島県,広島市安佐北区,亀山南５丁目３１番２４号,,34,106,7310232,,,2025-03-27,清算の結了等,,,2015-10-05,1,,,,,ニッケイショウジ,0
415,2250001005186,登記記録の閉鎖等,0,2025-03-28,2025-03-26,大隅商事株式会社,,株式会社,山口県,下関市,稗田南町１０番１７号リバティビル稗田１０２号室,,35,201,7510854,,,2025-03-26,清算の結了等,,,2015-10-05,1,,,,,オオスミショウジ,0
419,2260002006612,登記記録の閉鎖等,0,2025-03-28,2025-03-27,有限会社ティーズ,,有限会社,岡山県,岡山市南区,新保９３８番地の２サーパス北新保７０６,,33,104,7000945,,,2025-03-27,清算の結了等,,,2015-10-05,1,,,,,,0
426,2290005006623,登記記録の閉鎖等,0,2025-03-28,2025-03-24,協同組合ちくしのシール会,,その他の設立登記法人,福岡県,筑紫野市,湯町３丁目２番５号,,40,217,8180058,,,2025-03-24,清算の結了等,,,2015-10-05,1,,,,,チクシノシールカイ,0
439,2370302003190,登記記録の閉鎖等,0,2025-03-28,2025-03-21,有限会社アグリＪＡＰＡＮ,,有限会社,宮城県,東松島市,赤井字舘前１５０番地５,,04,214,9810501,,,2025-03-21,清算の結了等,,,2015-10-05,1,,,,,アグリジャパン,0
445,2430001031032,登記記録の閉鎖等,0,2025-03-28,2025-03-26,株式会社コミュニティーリース,,株式会社,北海道,札幌市豊平区,豊平四条３丁目１番１号,,01,105,0620904,,,2025-03-26,清算の結了等,,,2015-10-05,1,,,,,コミュニティーリース,0
456,2480005006521,登記記録の閉鎖等,0,2025-03-28,2025-03-26,一般社団法人西日本国際経済文化協力研究センター,,その他の設立登記法人,徳島県,名西郡石井町,高川原字天神７０９番地の１,,36,341,7793222,,,2025-03-26,清算の結了等,,,2016-10-31,1,,,,,ニシニホンコクサイケイザイブンカキョウリョクケンキュウセンター,0
476,3010401128452,登記記録の閉鎖等,0,2025-03-28,2025-03-17,日本風力開発アセットマネジメント株式会社,,株式会社,東京都,千代田区,霞が関３丁目２番５号,,13,101,1000013,,,2025-03-17,清算の結了等,,,2016-12-02,1,,,,,ニホンフウリョクカイハツアセットマネジメント,0
477,3010401136901,登記記録の閉鎖等,0,2025-03-28,2025-03-17,車力風力開発株式会社,,株式会社,東京都,千代田区,霞が関３丁目２番５号,,13,101,1000013,,,2025-03-17,清算の結了等,,,2018-02-28,1,,,,,シャリキフウリョクカイハツ,0
481,3010403020806,登記記録の閉鎖等,0,2025-03-28,2025-03-21,南関東キャピタル合同会社,,合同会社,東京都,中央区,銀座１丁目６番１１号,,13,102,1040061,,,2025-03-21,清算の結了等,,,2019-05-31,1,,,,,ミナミカントウキャピタル,0
482,3010403024930,登記記録の閉鎖等,0,2025-03-28,2025-03-06,グローリーテンプル合同会社,,合同会社,東京都,港区,元赤坂１丁目１番８号株式会社赤坂国際会計内,,13,103,1070051,,,2025-03-06,清算の結了等,,,2021-03-18,1,,,,,グローリーテンプル,0
487,3010602031661,登記記録の閉鎖等,0,2025-03-28,2025-03-24,株式会社オー・エム・エス,,株式会社,東京都,東村山市,秋津町１丁目１１番地６,,13,213,1890001,,,2025-03-24,清算の結了等,,,2015-10-05,1,,,,,オーエムエス,0
498,3011001143008,登記記録の閉鎖等,0,2025-03-28,2025-03-25,株式会社ＬＤ５,,株式会社,埼玉県,さいたま市大宮区,仲町２丁目２５番地,,11,103,3300845,,,2025-03-25,清算の結了等,,,2021-10-04,1,,,,,エルディーファイブ,0
503,3011003014371,登記記録の閉鎖等,0,2025-03-28,2025-02-27,テストベース合同会社,,合同会社,東京都,渋谷区,渋谷２丁目１９番地１５号宮益坂ビルディング６０９,,13,113,1500002,,,2025-02-27,清算の結了等,,,2022-03-23,1,Testbase LLC.,Tokyo,"609 Miyamasuzaka Building, 2-19-15 Shibuya, Shibuya ku",,テストベース,0
506,3011101050970,登記記録の閉鎖等,0,2025-03-28,2025-03-17,株式会社ＰＰＣ,,株式会社,東京都,千代田区,外神田６丁目６番１号,,13,101,1010021,,,2025-03-17,清算の結了等,,,2015-10-05,1,,,,,ピーピーシー,0
535,3021001080274,登記記録の閉鎖等,0,2025-03-28,2025-03-27,株式会社風雅,,株式会社,神奈川県,横須賀市,小矢部１丁目１８番１８号,,14,201,2380026,,,2025-03-27,清算の結了等,,,2023-09-28,1,,,,,フウガ,0
586,3120002070299,登記記録の閉鎖等,0,2025-03-28,2025-03-26,有限会社協信,,有限会社,大阪府,大阪市中央区,久太郎町２丁目１番３０号,,27,128,5410056,,,2025-03-26,清算の結了等,,,2015-10-05,1,,,,,キョウシン,0
594,3122001008544,登記記録の閉鎖等,0,2025-03-28,2025-03-27,日本レヂン工業株式会社,,株式会社,大阪府,東大阪市,御厨６丁目６番５号,,27,227,5770032,,,2025-03-27,清算の結了等,,,2015-10-05,1,,,,,ニホンレヂンコウギョウ,0
599,3140001125663,登記記録の閉鎖等,0,2025-03-28,2025-03-21,株式会社シアー・プロフェッショナル,,株式会社,兵庫県,神戸市中央区,下山手通５丁目５番５号,,28,110,6500011,,,2025-03-21,合併による解散等,7140001121196,令和７年３月２１日神戸市中央区下山手通五丁目５番５号株式会社アジュバンコスメジャパン（7140001121196）に合併し解散,2022-04-18,1,,,,,シアープロフェッショナル,0
601,3140002005823,登記記録の閉鎖等,0,2025-03-28,2025-03-24,有限会社北川設計事務所,,有限会社,兵庫県,神戸市垂水区,清水が丘３丁目３番１２号,,28,108,6550031,,,2025-03-24,清算の結了等,,,2015-10-05,1,,,,,キタガワセッケイジムショ,0
610,3180001139098,登記記録の閉鎖等,0,2025-03-28,2025-03-24,株式会社宗明工業,,株式会社,愛知県,名古屋市守山区,大字上志段味字海東４５３番地グランチェスタＩＩ１０２号,00118373,23,113,4630001,,,2025-03-24,清算の結了等,,,2019-12-04,1,,,,,ソウメイコウギョウ,0
613,3180002087809,登記記録の閉鎖等,0,2025-03-28,2025-03-21,有限会社貴,,有限会社,愛知県,東海市,高横須賀町呉天石１１５番地２,,23,222,4770037,,,2025-03-21,清算の結了等,,,2015-10-05,1,,,,,タカ,0
614,3180003025081,登記記録の閉鎖等,0,2025-03-28,2025-03-24,商和合同会社,,合同会社,愛知県,名古屋市中村区,名駅４丁目２４番５号第２森ビル４０１,,23,105,4500002,,,2025-03-24,清算の結了等,,,2023-04-10,1,,,,,ショウワ,0
632,3250001017940,登記記録の閉鎖等,0,2025-03-28,2025-03-21,株式会社大和美装,,株式会社,山口県,周南市,花陽１丁目３番１２号,,35,215,7450858,,,2025-03-21,清算の結了等,,,2019-10-04,1,,,,,,0
634,3260003004135,登記記録の閉鎖等,0,2025-03-28,2025-03-26,合同会社ホワイトグループ,,合同会社,岡山県,岡山市北区,青江４丁目３番７号アメリエコート青江１０３,,33,101,7000941,,,2025-03-26,清算の結了等,,,2023-01-05,1,,,,,ホワイトグループ,0
657,3390001016053,登記記録の閉鎖等,0,2025-03-28,2025-03-26,株式会社ＨＩＲＡＴＡ　ＳＩＧＮ,,株式会社,大阪府,大阪市福島区,福島６丁目４番１１号,,27,103,5530003,,,2025-03-26,清算の結了等,,,2020-04-10,1,,,,,ヒラタサイン,0
659,3430001019984,登記記録の閉鎖等,0,2025-03-28,2025-03-25,株式会社札幌システム開発,,株式会社,北海道,札幌市北区,篠路四条３丁目１０番２０号,,01,102,0028024,,,2025-03-25,清算の結了等,,,2015-10-05,1,,,,,サッポロシステムカイハツ,0
671,4010001184663,登記記録の閉鎖等,0,2025-03-28,2025-03-13,株式会社ＣＯＮＩＴ,,株式会社,東京都,新宿区,下宮比町２番１号,,13,104,1620822,,,2025-03-13,清算の結了等,,,2017-07-13,1,,,,,コニット,0
683,4010003024636,登記記録の閉鎖等,0,2025-03-28,2025-03-14,チュレオン合同会社,,合同会社,東京都,中央区,銀座７丁目１３番６号サガミビル２階,,13,102,1040061,,,2025-03-14,清算の結了等,,,2017-01-11,1,,,,,チュレオン,0
688,4010401033701,登記記録の閉鎖等,0,2025-03-28,2025-03-03,東京企業株式会社,,株式会社,東京都,港区,六本木５丁目２番３号,,13,103,1060032,,,2025-03-03,合併による解散等,7011101046890,令和７年３月１日東京都港区六本木五丁目２番３号株式会社モナミビル（7011101046890）に合併し解散,2015-10-05,1,,,,,トウキョウキギョウ,0
689,4010401077228,登記記録の閉鎖等,0,2025-03-28,2025-02-27,株式会社鑑定舎,,株式会社,東京都,渋谷区,渋谷１丁目１０番３号,,13,113,1500002,,,2025-02-27,清算の結了等,,,2015-10-05,1,,,,,カンテイシャ,0
692,4010402018585,登記記録の閉鎖等,0,2025-03-28,2025-03-13,有限会社サンバレー,,有限会社,東京都,千代田区,九段南１丁目５番６号りそな九段ビル５階ＫＳフロア,,13,101,1020074,,,2025-03-13,清算の結了等,,,2015-10-05,1,,,,,サンバレー,0
705,4011001143007,登記記録の閉鎖等,0,2025-03-28,2025-03-25,株式会社ＬＤ４,,株式会社,埼玉県,さいたま市大宮区,仲町２丁目２５番地,,11,103,3300845,,,2025-03-25,清算の結了等,,,2021-10-04,1,,,,,エルディーフォー,0
724,4011601025736,登記記録の閉鎖等,0,2025-03-28,2025-03-18,株式会社ハッピーテックスインターナショナル,,株式会社,宮城県,仙台市青葉区,花壇５番４１号,,04,101,9800815,,,2025-03-18,清算の結了等,,,2022-02-10,1,,,,,ハッピーテックスインターナショナル,0
728,4011801032904,登記記録の閉鎖等,0,2025-03-28,2025-03-13,アウルス株式会社,,株式会社,東京都,新宿区,西新宿６丁目５番１号,,13,104,1600023,,,2025-03-13,清算の結了等,,,2017-02-10,1,,,,,アウルス,0
757,4030003023090,登記記録の閉鎖等,0,2025-03-28,2025-03-25,Ｃｏｎｇ　ｔｙ　ＴＮＨＨ　ＫＩＴＥＸ合同会社,,合同会社,埼玉県,児玉郡上里町,大字七本木２５３６－１,,11,385,3690306,,,2025-03-25,清算の結了等,,,2023-12-01,1,,,,,コンティーキーテックス,0
760,4040001002500,登記記録の閉鎖等,0,2025-03-28,2025-03-17,山王興産株式会社,,株式会社,千葉県,千葉市稲毛区,山王町２７０番地の１,,12,103,2630002,,,2025-03-17,清算の結了等,,,2015-10-05,1,,,,,,0
771,4050001018017,登記記録の閉鎖等,0,2025-03-28,2025-03-13,株式会社ジェイ・アイ・エム,,株式会社,茨城県,つくば市,竹園２丁目１３番地３０,,08,220,3050032,,,2025-03-13,合併による解散等,7050001033698,令和７年３月１日茨城県つくば市竹園二丁目１３番地３０株式会社ジェイ・アイ・エム（7050001033698）に合併し解散,2015-10-05,1,,,,,ジェイアイエム,0
813,4120102003315,登記記録の閉鎖等,0,2025-03-28,2025-03-27,有限会社南海オート販売,,有限会社,大阪府,堺市北区,百舌鳥陵南町３丁４１６番地,,27,146,5918034,,,2025-03-27,清算の結了等,,,2015-10-05,1,,,,,,0
819,4130002008479,登記記録の閉鎖等,0,2025-03-28,2025-03-21,有限会社エラン,,有限会社,京都府,京都市西京区,桂下豆田町２１－３,,26,111,6158076,,,2025-03-21,合併による解散等,1130001058098,令和７年３月２０日京都市西京区大枝北沓掛町五丁目２０－３コンフィレイト株式会社（1130001058098）に合併し解散,2015-10-05,1,,,,,,0
830,4180001109678,登記記録の閉鎖等,0,2025-03-28,2025-03-24,株式会社カプラン,,株式会社,愛知県,名古屋市緑区,熊の前１丁目１３０１番地,,23,114,4580851,,,2025-03-24,清算の結了等,,,2015-10-05,1,,,,,カプラン,0
846,4200003001789,登記記録の閉鎖等,0,2025-03-28,2025-03-26,合資会社千歳楼,,合資会社,岐阜県,養老郡養老町,養老公園１０７９番地,,21,341,5031254,,,2025-03-26,清算の結了等,,,2015-10-05,1,,,,,チトセロウ,0
847,4200003005815,登記記録の閉鎖等,0,2025-03-28,2025-03-25,合同会社Ｇ‐ＴＯＰ,,合同会社,岐阜県,本巣郡北方町,小柳２丁目３３,,21,421,5010434,,,2025-03-25,清算の結了等,,,2023-01-25,1,,,,,ジートップ,0
849,4210005006802,登記記録の閉鎖等,0,2025-03-28,2025-03-18,嶺南木材協同組合,,その他の設立登記法人,福井県,三方上中郡若狭町,成願寺２２号１５番地２,,18,501,9191322,,,2025-03-18,清算の結了等,,,2015-10-05,1,,,,,レイナンモクザイ,0
855,4240002048530,登記記録の閉鎖等,0,2025-03-28,2025-03-27,有限会社機電エンジニアリング,,有限会社,広島県,安芸郡熊野町,石神８番２１号,,34,307,7314225,,,2025-03-27,清算の結了等,,,2015-10-05,1,,,,,キデンエンジニアリング,0
859,4260001008814,登記記録の閉鎖等,0,2025-03-28,2025-03-27,株式会社エム・エム・エス,,株式会社,岡山県,加賀郡吉備中央町,北７２２番地,,33,681,7161551,,,2025-03-27,清算の結了等,,,2015-10-05,1,,,,,エムエムエス,0
862,4280002010619,登記記録の閉鎖等,0,2025-03-28,2025-03-27,有限会社カスヤ,,有限会社,島根県,鹿足郡吉賀町,六日市７８５番地,,32,505,6995513,,,2025-03-27,清算の結了等,,,2015-10-05,1,,,,,カスヤ,0
863,4290001034304,登記記録の閉鎖等,0,2025-03-28,2025-03-17,株式会社メディカルアシスト,,株式会社,福岡県,福岡市南区,野間２丁目７番１号,,40,134,8150041,,,2025-03-17,清算の結了等,,,2015-10-05,1,,,,,メディカルアシスト,0
871,4290801009744,登記記録の閉鎖等,0,2025-03-28,2025-03-26,株式会社カント,,株式会社,福岡県,北九州市八幡西区,永犬丸４丁目１０番１１号,,40,109,8070851,,,2025-03-26,清算の結了等,,,2015-10-05,1,,,,,カント,0
878,4330003005843,登記記録の閉鎖等,0,2025-03-28,2025-03-17,合同会社ＩＭＣ－ＪＡＰＡＮ,,合同会社,熊本県,熊本市中央区,船場町２丁目４９番５号ハイムセラ船場９０１号,,43,101,8600019,,,2025-03-17,清算の結了等,,,2015-10-05,1,,,,,アイエムシージャパン,0
879,4340001025520,登記記録の閉鎖等,0,2025-03-28,2025-03-26,株式会社Ｂａｒｒｅｌ,,株式会社,鹿児島県,南さつま市,加世田小湊９０３５番地９,,46,220,8971122,,,2025-03-26,清算の結了等,,,2023-04-19,1,,,,,バレル,0
888,4370001049582,登記記録の閉鎖等,0,2025-03-28,2025-03-18,株式会社さいせい不動産,,株式会社,宮城県,遠田郡美里町,藤ケ崎１丁目６１番地,,04,505,9870001,,,2025-03-18,清算の結了等,,,2023-02-08,1,,,,,サイセイフドウサン,0
902,4470002018592,登記記録の閉鎖等,0,2025-03-28,2025-03-26,有限会社福馬建設,,有限会社,香川県,東かがわ市,落合４５５番地１,,37,207,7692512,,,2025-03-26,清算の結了等,,,2015-10-05,1,,,,,フクマケンセツ,0
912,4500001008780,登記記録の閉鎖等,0,2025-03-28,2025-03-26,株式会社リアルエステート松山,,株式会社,愛媛県,松山市,東石井６丁目１４番２０号,,38,201,7900932,,,2025-03-26,清算の結了等,,,2015-10-05,1,,,,,リアルエステートマツヤマ,0
914,5010001025049,登記記録の閉鎖等,0,2025-03-28,2025-03-17,株式会社中山建築デザイン研究所,,株式会社,東京都,千代田区,一番町２２番３号,,13,101,1020082,,,2025-03-17,清算の結了等,,,2015-10-05,1,,,,,ナカヤマケンチクデザインケンキュウジョ,0
917,5010001197532,登記記録の閉鎖等,0,2025-03-28,2025-03-17,株式会社Ｋ５,,株式会社,東京都,中央区,銀座１丁目６番１１号土志田ビルディング３Ｆ,,13,102,1040061,,,2025-03-17,清算の結了等,,,2019-01-09,1,,,,,ケーファイブ,0
928,5010003021839,登記記録の閉鎖等,0,2025-03-28,2025-03-17,合同会社ミキ,,合同会社,東京都,中央区,銀座１丁目３番３号東亜ビル９Ｆ,,13,102,1040061,,,2025-03-17,清算の結了等,,,2015-10-05,1,,,,,ミキ,0
929,5010003039757,登記記録の閉鎖等,0,2025-03-28,2025-03-19,合同会社ＩＡＰコンサルティング,,合同会社,東京都,中央区,銀座１丁目２２番１１号銀座大竹ビジデンス２階,,13,102,1040061,,,2025-03-19,清算の結了等,,,2023-02-10,1,,,,,アイエーピーコンサルティング,0
931,5010401033733,登記記録の閉鎖等,0,2025-03-28,2025-03-03,日新コンサルティング株式会社,,株式会社,東京都,港区,六本木５丁目２番３号,,13,103,1060032,,,2025-03-03,合併による解散等,7011101046890,令和７年３月１日東京都港区六本木五丁目２番３号株式会社モナミビル（7011101046890）に合併し解散,2015-10-05,1,,,,,ニッシンコンサルティング,0
980,5011801010405,登記記録の閉鎖等,0,2025-03-28,2025-03-25,東武信和産業株式会社,,株式会社,東京都,足立区,東和２丁目２４番４号,,13,121,1200003,,,2025-03-25,清算の結了等,,,2015-10-05,1,,,,,トウブシンワサンギョウ,0
981,5011802027365,登記記録の閉鎖等,0,2025-03-28,2025-03-25,有限会社　ビッグ・ディール,,有限会社,東京都,足立区,一ツ家３丁目２７番１１号,,13,121,1210075,,,2025-03-25,清算の結了等,,,2015-10-05,1,,,,,,0
982,5012401008137,登記記録の閉鎖等,0,2025-03-28,2025-03-17,多摩化工株式会社,,株式会社,千葉県,山武郡横芝光町,栗山２８９６番地４,,12,410,2891733,,,2025-03-17,清算の結了等,,,2015-10-05,1,,,,,タマカコウ,0
984,5012401015595,登記記録の閉鎖等,0,2025-03-28,2025-03-26,株式会社グートファーマシー,,株式会社,東京都,三鷹市,牟礼６丁目７番２３号,,13,204,1810002,,,2025-03-26,清算の結了等,,,2015-10-05,1,,,,,グートファーマシー,0
1005,5021002062914,登記記録の閉鎖等,0,2025-03-28,2025-03-27,有限会社岩澤建設,,有限会社,神奈川県,横須賀市,林５丁目２番３８号,,14,201,2380315,,,2025-03-27,清算の結了等,,,2015-10-05,1,,,,,,0
1008,5030001013448,登記記録の閉鎖等,0,2025-03-28,2025-03-26,株式会社ハートフィールド,,株式会社,埼玉県,さいたま市北区,東大成町２丁目１０５番地１,,11,102,3310814,,,2025-03-26,清算の結了等,,,2015-10-05,1,,,,,ハートフィールド,0
1037,5050001018164,登記記録の閉鎖等,0,2025-03-28,2025-03-19,グリーン株式会社,,株式会社,茨城県,つくば市,高崎１８６８番地４,,08,220,3001245,,,2025-03-19,清算の結了等,,,2015-10-05,1,,,,,グリーン,0
1050,5080002003674,登記記録の閉鎖等,0,2025-03-28,2025-03-24,竹中重機有限会社,,有限会社,静岡県,静岡市駿河区,登呂４丁目５番１１－１号,,22,102,4228033,,,2025-03-24,清算の結了等,,,2015-10-05,1,,,,,,0
1051,5090001009754,登記記録の閉鎖等,0,2025-03-28,2025-03-18,さざなみ産業株式会社,,株式会社,山梨県,南都留郡山中湖村,山中２０番地,,19,425,4010501,,,2025-03-18,清算の結了等,,,2015-10-05,1,,,,,サザナミサンギョウ,0
1057,5100005001607,登記記録の閉鎖等,0,2025-03-28,2025-03-21,医療法人松浦小児科医院,,その他の設立登記法人,長野県,長野市,篠ノ井布施高田２７１番地１,,20,201,3888007,,,2025-03-21,清算の結了等,,,2015-10-05,1,,,,,マツウラショウニカイイン,0
1061,5120001240850,登記記録の閉鎖等,0,2025-03-28,2025-03-17,Ｙａａｌａ株式会社,,株式会社,大阪府,大阪市北区,中之島３丁目６番１６号,,27,127,5300005,,,2025-03-17,清算の結了等,,,2021-10-06,1,,,,,ヤーラ,0
1073,5120101033816,登記記録の閉鎖等,0,2025-03-28,2025-03-21,株式会社長蔵,,株式会社,大阪府,河内長野市,小山田町１２１番地の３７,,27,216,5860094,,,2025-03-21,清算の結了等,,,2015-10-05,1,,,,,チョウゾウ,0
1075,5120101068143,登記記録の閉鎖等,0,2025-03-28,2025-03-21,株式会社Ｆａｍｉｌｙ　Ｏｆｆｉｃｅ１９３８,,株式会社,大阪府,堺市美原区,木材通２丁目２番８７号,,27,147,5870042,,,2025-03-21,合併による解散等,6120101067929,令和７年３月２０日大阪府堺市美原区木材通二丁目２番８７号株式会社Ｈｏｌｄｉｎｇｓ１９４４（6120101067929）に合併し解散,2023-09-04,1,,,,,ファミリーオフィスイチキュウサンハチ,0
1082,5130001011037,登記記録の閉鎖等,0,2025-03-28,2025-03-27,株式会社太治,,株式会社,京都府,城陽市,寺田宮ノ谷２９番地の２９９,,26,207,6100121,,,2025-03-27,清算の結了等,,,2015-10-05,1,,,,,タイチ,0
1088,5130003005111,登記記録の閉鎖等,0,2025-03-28,2025-03-26,合同会社Ｇｅｎｅｒａｔｉｏｎ,,合同会社,京都府,京都市中京区,東木屋町通四条上る鍋屋町２１７番地５階,,26,104,6048015,,,2025-03-26,清算の結了等,,,2017-07-19,1,,,,,ジェネレーション,0
1098,5140002051758,登記記録の閉鎖等,0,2025-03-28,2025-03-24,有限会社本城興業,,有限会社,兵庫県,姫路市,夢前町寺１２００番地８,,28,201,6712116,,,2025-03-24,清算の結了等,,,2015-10-05,1,,,,,ホンジョウコウギョウ,0
1112,5200002020327,登記記録の閉鎖等,0,2025-03-28,2025-03-26,有限会社センタースポーツ,,有限会社,岐阜県,多治見市,栄町２丁目５８番地の３,,21,204,5070035,,,2025-03-26,清算の結了等,,,2015-10-05,1,,,,,センタースポーツ,0
1135,5330002005133,登記記録の閉鎖等,0,2025-03-28,2025-03-25,有限会社城,,有限会社,熊本県,熊本市中央区,黒髪１丁目５番５４号,,43,101,8600862,,,2025-03-25,清算の結了等,,,2015-10-05,1,,,,,ジョウ,0
1140,5340002004588,登記記録の閉鎖等,0,2025-03-28,2025-03-25,有限会社ジェイ・エム・エス,,有限会社,鹿児島県,鹿児島市,荒田２丁目３４番２２号,,46,201,8900054,,,2025-03-25,清算の結了等,,,2015-10-05,1,,,,,ジェイエムエス,0
1149,5400005007722,登記記録の閉鎖等,0,2025-03-28,2025-03-07,一般社団法人せいゆう,,その他の設立登記法人,岩手県,盛岡市,清水町４番２５号,,03,201,0200875,,,2025-03-07,清算の結了等,,,2016-11-01,1,,,,,セイユウ,0
1152,5430001062826,登記記録の閉鎖等,0,2025-03-28,2025-03-12,株式会社Ｈ２,,株式会社,東京都,新宿区,西早稲田２丁目２０番９号,,13,104,1690051,,,2025-03-12,合併による解散等,3011101053437,令和７年１月１日東京都新宿区西早稲田二丁目２０番９号スマートモバイルコミュニケーションズ株式会社（3011101053437）に合併し解散,2015-10-05,1,,,,,エイチツー,0
1155,5460301000441,登記記録の閉鎖等,0,2025-03-28,2025-03-27,ＪＰ　ＭＯＬＤ株式会社,,株式会社,北海道,北見市,豊地１０７番地４,,01,208,0991587,,,2025-03-27,清算の結了等,,,2015-10-05,1,,,,,ジェイピーモールド,0
1178,6010003035788,登記記録の閉鎖等,0,2025-03-28,2025-03-17,合同会社ＡＬＥＲＯ５９,,合同会社,東京都,千代田区,神田錦町１丁目２１番１号,,13,101,1010054,,,2025-03-17,清算の結了等,,,2021-09-10,1,,,,,アレーロフィフティナイン,0
1194,6010701013839,登記記録の閉鎖等,0,2025-03-28,2025-03-04,株式会社エイ・ケイ・アイ,,株式会社,東京都,品川区,西五反田５丁目１番７号,,13,109,1410031,,,2025-03-04,清算の結了等,,,2015-10-05,1,,,,,エイケイアイ,0
1199,6010901007500,登記記録の閉鎖等,0,2025-03-28,2025-03-24,株式会社ちゅうりん,,株式会社,東京都,世田谷区,上野毛３丁目８番２８号,,13,112,1580093,,,2025-03-24,清算の結了等,,,2015-10-05,1,,,,,チュウリン,0
1222,6011601024364,登記記録の閉鎖等,0,2025-03-28,2025-03-12,株式会社Ｖｅｒ．０．９,,株式会社,東京都,練馬区,上石神井２丁目３７番８号８Ｆ,,13,120,1770044,,,2025-03-12,清算の結了等,,,2020-07-21,1,,,,,バーナイン,0
1223,6011601026484,登記記録の閉鎖等,0,2025-03-28,2025-03-27,シンカイ株式会社,,株式会社,東京都,練馬区,関町東１丁目１９番１１号イーストパーク１０２,,13,120,1770052,,,2025-03-27,清算の結了等,,,2023-01-17,1,,,,,シンカイ,0
1254,6021001050381,登記記録の閉鎖等,0,2025-03-28,2025-03-25,株式会社サンライズグリーン,,株式会社,神奈川県,相模原市中央区,東淵野辺４丁目５番５号,,14,152,2520203,,,2025-03-25,清算の結了等,,,2015-10-05,1,,,,,サンライズグリーン,0
1260,6030001123683,登記記録の閉鎖等,0,2025-03-28,2025-03-26,株式会社エムズ,,株式会社,東京都,葛飾区,奥戸７丁目６番１３号,,13,122,1240022,,,2025-03-26,清算の結了等,,,2018-01-05,1,,,,,エムズ,0
1270,6040002078042,登記記録の閉鎖等,0,2025-03-28,2025-03-13,有限会社戸村本店,,有限会社,千葉県,山武郡九十九里町,片貝６７３７番地,,12,403,2830104,,,2025-03-13,清算の結了等,,,2015-10-05,1,,,,,トムラホンテン,0
1282,6060001017833,登記記録の閉鎖等,0,2025-03-28,2025-03-26,株式会社アスミック,,株式会社,栃木県,栃木市,岩舟町小野寺１５７１番地,,09,203,3294314,,,2025-03-26,清算の結了等,,,2015-10-05,1,,,,,アスミック,0
1333,6180002001007,登記記録の閉鎖等,0,2025-03-28,2025-03-24,有限会社新中京,,有限会社,愛知県,名古屋市守山区,小幡千代田８番９号,,23,113,4630053,,,2025-03-24,清算の結了等,,,2015-10-05,1,,,,,シンチュウキョウ,0
1338,6190001003993,登記記録の閉鎖等,0,2025-03-28,2025-03-25,株式会社田中孝建築設計事務所,,株式会社,三重県,津市,三重町津興４３３番地４７,,24,201,5140802,,,2025-03-25,清算の結了等,,,2015-10-05,1,,,,,タナカタカシケンチクセッケイジムショ,0
1341,6220001018022,登記記録の閉鎖等,0,2025-03-28,2025-03-25,エイブイエヌ株式会社,,株式会社,石川県,かほく市,宇野気ト５０番地６３,,17,209,9291125,,,2025-03-25,清算の結了等,,,2015-10-05,1,,,,,エイブイエヌ,0
1351,6260002023249,登記記録の閉鎖等,0,2025-03-28,2025-03-27,有限会社ゆうやけ運送,,有限会社,岡山県,都窪郡早島町,矢尾６３８番地,,33,423,7010301,,,2025-03-27,清算の結了等,,,2015-10-05,1,,,,,,0
1366,6300005006816,登記記録の閉鎖等,0,2025-03-28,2025-03-27,医療法人さくら会,,その他の設立登記法人,福岡県,春日市,春日原北町３丁目５８番地１,,40,218,8160802,,,2025-03-27,清算の結了等,,,2019-05-15,1,,,,,サクラカイ,0
1372,6350003002696,登記記録の閉鎖等,0,2025-03-28,2025-03-26,合同会社宙藍,,合同会社,宮崎県,東諸県郡綾町,大字南俣５００番地２,,45,383,8801303,,,2025-03-26,清算の結了等,,,2016-05-11,1,,,,,ソラアイ,0
1381,6370003000896,登記記録の閉鎖等,0,2025-03-28,2025-03-19,合名会社神様のあくび,,合名会社,宮城県,仙台市青葉区,折立４丁目１０番１８号,,04,101,9820261,,,2025-03-19,清算の結了等,,,2015-10-05,1,,,,,カミサマノアクビ,0
1387,6380002029044,登記記録の閉鎖等,0,2025-03-28,2025-03-17,有限会社雄祥興業,,有限会社,福島県,相馬市,北小泉字権現前１６９番地,,07,209,9760012,,,2025-03-17,清算の結了等,,,2015-10-05,1,,,,,ユウショウコウギョウ,0
1395,6400002003120,登記記録の閉鎖等,0,2025-03-28,2025-03-13,有限会社マルサン建窓,,有限会社,岩手県,盛岡市,三本柳２３地割７５番地７,,03,201,0200831,,,2025-03-13,清算の結了等,,,2015-10-05,1,,,,,マルサンケンソウ,0
1408,6470002006174,登記記録の閉鎖等,0,2025-03-28,2025-03-26,有限会社ほていや製綿所,,有限会社,香川県,高松市,松並町５９１番地１,,37,201,7618052,,,2025-03-26,清算の結了等,,,2015-10-05,1,,,,,ホテイヤセイメンショ,0
1415,6500001001619,登記記録の閉鎖等,0,2025-03-28,2025-03-17,ＯＧ株式会社,,株式会社,大阪府,大阪市中央区,北浜２丁目３番９号,,27,128,5410041,,,2025-03-17,清算の結了等,,,2015-10-05,1,,,,,オージー,0
1421,7010001005255,登記記録の閉鎖等,0,2025-03-28,2025-03-18,株式会社東京通商,,株式会社,東京都,文京区,本駒込２丁目２９番２２号,,13,105,1130021,,,2025-03-18,清算の結了等,,,2015-10-05,1,,,,,トウキョウツウショウ,0
1428,7010001177813,登記記録の閉鎖等,0,2025-03-28,2025-03-17,インテグラル・オーエス株式会社,,株式会社,東京都,千代田区,丸の内１丁目９番２号,,13,101,1000005,,,2025-03-17,清算の結了等,,,2016-08-22,1,,,,,インテグラルオーエス,0
1445,7010401184970,登記記録の閉鎖等,0,2025-03-28,2025-03-05,株式会社リベラ,,株式会社,東京都,港区,西新橋３丁目１２番３－９０３号,,13,103,1050003,,,2025-03-05,清算の結了等,,,2024-09-12,1,,,,,リベラ,0
1446,7010402015514,登記記録の閉鎖等,0,2025-03-28,2025-03-03,有限会社オー・エー・ケー,,有限会社,東京都,港区,六本木５丁目２番３号,,13,103,1060032,,,2025-03-03,合併による解散等,7011101046890,令和７年３月１日東京都港区六本木五丁目２番３号株式会社モナミビル（7011101046890）に合併し解散,2015-10-05,1,,,,,,0
1450,7010601007213,登記記録の閉鎖等,0,2025-03-28,2025-03-25,株式会社山下工業所,,株式会社,東京都,江東区,千石２丁目８番１３号,,13,108,1350015,,,2025-03-25,清算の結了等,,,2015-10-05,1,,,,,ヤマシタコウギョウショ,0
1455,7011001025227,登記記録の閉鎖等,0,2025-03-28,2025-02-26,株式会社ルサージュ,,株式会社,東京都,渋谷区,代官山町１０番４号,,13,113,1500034,,,2025-02-26,清算の結了等,,,2015-10-05,1,,,,,ルサージュ,0
1464,7011101061139,登記記録の閉鎖等,0,2025-03-28,2025-03-25,株式会社デベロップ・ナビゲーター,,株式会社,埼玉県,川口市,末広３丁目１－１４－２０４,,11,203,3320006,,,2025-03-25,清算の結了等,,,2015-10-05,1,,,,,デベロップナビゲーター,0
1477,7011501021733,登記記録の閉鎖等,0,2025-03-28,2025-03-24,株式会社秀栄建設,,株式会社,東京都,荒川区,東日暮里３丁目２番１４号ガーデンヒルズ東日暮里１０３,,13,118,1160014,,,2025-03-24,清算の結了等,,,2016-07-06,1,,,,,シュウエイケンセツ,0
1480,7011601022383,登記記録の閉鎖等,0,2025-03-28,2025-03-25,株式会社ｗａｌｋｅｒｓ,,株式会社,東京都,練馬区,東大泉１丁目３２番３号,,13,120,1780063,,,2025-03-25,清算の結了等,,,2018-02-16,1,,,,,ウオーカーズ,0
1490,7012701011706,登記記録の閉鎖等,0,2025-03-28,2025-03-21,株式会社ＧＲＯＷ,,株式会社,東京都,東村山市,本町２丁目１７番地７,,13,213,1890014,,,2025-03-21,清算の結了等,,,2015-10-05,1,,,,,,0
1491,7012705001488,登記記録の閉鎖等,0,2025-03-28,2025-03-21,協同組合ハクセン,,その他の設立登記法人,東京都,小平市,小川東町５丁目１８番３３号,,13,211,1870031,,,2025-03-21,清算の結了等,,,2015-10-05,1,,,,,ハクセン,0
1498,7020003016919,登記記録の閉鎖等,0,2025-03-28,2025-03-11,アートウェイブ合同会社,,合同会社,神奈川県,横浜市西区,高島２丁目１１－２スカイメナー横浜４２２,,14,103,2200011,,,2025-03-11,清算の結了等,,,2019-11-13,1,,,,,アートウェイブ,0
1512,7040002083306,登記記録の閉鎖等,0,2025-03-28,2025-03-17,有限会社ギャラリー白鯨館スタジオ,,有限会社,千葉県,山武郡横芝光町,木戸９５７１番地の８０,,12,410,2891726,,,2025-03-17,清算の結了等,,,2015-10-05,1,,,,,,0
1531,7100005012395,登記記録の閉鎖等,0,2025-03-28,2025-03-17,特定非営利活動法人たかもり里山舎,,その他の設立登記法人,長野県,下伊那郡高森町,山吹３３５番地１,,20,403,3993101,,,2025-03-17,清算の結了等,,,2019-04-25,1,,,,,タカモリサトヤマシャ,0
1552,7120101036115,登記記録の閉鎖等,0,2025-03-28,2025-03-25,泉塗料株式会社,,株式会社,大阪府,岸和田市,額原町１０９番地の５,,27,202,5960822,,,2025-03-25,清算の結了等,,,2015-10-05,1,,,,,イズミトリョウ,0
1584,7150002008631,登記記録の閉鎖等,0,2025-03-28,2025-03-27,有限会社ヤマト産業,,有限会社,奈良県,大和高田市,土庫１丁目１３番１６号,,29,202,6350002,,,2025-03-27,清算の結了等,,,2015-10-05,1,,,,,ヤマトサンギョウ,0
1588,7180001107943,登記記録の閉鎖等,0,2025-03-28,2025-03-24,株式会社ＧＡＲＤＥＮ,,株式会社,愛知県,名古屋市中区,錦２丁目９番６号,,23,106,4600003,,,2025-03-24,清算の結了等,,,2015-10-05,1,,,,,ガーデン,0
1601,7200001018989,登記記録の閉鎖等,0,2025-03-28,2025-03-21,オオタ衛材株式会社,,株式会社,岐阜県,美濃市,上野１１８番地,,21,207,5013787,,,2025-03-21,清算の結了等,,,2024-11-26,1,,,,,オオタエイザイ,0
1606,7240003003878,登記記録の閉鎖等,0,2025-03-28,2025-03-19,合同会社エネルゲイア,,合同会社,山口県,宇部市,西中町１番２３号,,35,202,7550053,,,2025-03-19,合併による解散等,9290003006528,令和７年３月１２日福岡市東区原田二丁目１４番７号株式会社リアライフ（9290003006528）に合併し解散,2018-04-24,1,,,,,エネルゲイア,0
1607,7250005007505,登記記録の閉鎖等,0,2025-03-28,2025-03-26,特定非営利活動法人山口栄養サポートネットワーク,,その他の設立登記法人,山口県,下関市,上新地町３丁目３番８号下関医療センター内,,35,201,7500061,,,2025-03-26,清算の結了等,,,2015-10-05,1,,,,,ヤマグチエイヨウサポートネットワーク,0
1624,7310001006891,登記記録の閉鎖等,0,2025-03-28,2025-03-25,株式会社アイネット,,株式会社,長崎県,南松浦郡新上五島町,青方郷１８０６番地６１,,42,411,8574404,,,2025-03-25,清算の結了等,,,2023-09-12,1,,,,,アイネット,0
1626,7320001010851,登記記録の閉鎖等,0,2025-03-28,2025-03-26,株式会社東洋商事,,株式会社,大分県,中津市,大字大貞３７１番地の１７６,,44,203,8710153,,,2025-03-26,清算の結了等,,,2015-10-05,1,,,,,,0
1634,7360005003955,登記記録の閉鎖等,0,2025-03-28,2025-03-26,農事組合法人宮古島ドラゴンファーム,,その他の設立登記法人,沖縄県,宮古島市,上野字宮国９８９番地,,47,214,9060203,,,2025-03-26,清算の結了等,,,2015-10-05,1,,,,,ミヤコジマドラゴンファーム,0
1661,7430002056734,登記記録の閉鎖等,0,2025-03-28,2025-03-26,有限会社ＦＢＭ,,有限会社,北海道,札幌市中央区,南十五条西８丁目２番３６号,,01,101,0640915,,,2025-03-26,清算の結了等,,,2015-10-05,1,,,,,エフビーエム,0
1694,8010401142226,登記記録の閉鎖等,0,2025-03-28,2025-03-17,ｓａｓｒｙ株式会社,,株式会社,東京都,中央区,晴海５丁目３－４Ｄ棟１１２２号,,13,102,1040053,,,2025-03-17,清算の結了等,,,2018-11-21,1,,,,,サスリー,0
1736,8012403006301,登記記録の閉鎖等,0,2025-03-28,2025-03-26,合同会社ＪＮ開発,,合同会社,東京都,武蔵野市,吉祥寺本町１丁目１１番３０号,,13,203,1800004,,,2025-03-26,清算の結了等,,,2023-12-01,1,,,,,ジェイエヌカイハツ,0
1745,8021001080286,登記記録の閉鎖等,0,2025-03-28,2025-03-27,株式会社凛,,株式会社,神奈川県,横須賀市,小矢部１丁目１８番１８号,,14,201,2380026,,,2025-03-27,清算の結了等,,,2023-09-29,1,,,,,リン,0
1747,8030001036818,登記記録の閉鎖等,0,2025-03-28,2025-03-25,タカマサ化成工業株式会社,,株式会社,埼玉県,三郷市,谷口５２７番地６,,11,237,3410042,,,2025-03-25,清算の結了等,,,2015-10-05,1,,,,,タカマサカセイコウギョウ,0
1752,8030001160601,登記記録の閉鎖等,0,2025-03-28,2025-03-25,株式会社Ａｓｔｅｒ　ｐｒｏｍｏｔｉｏｎ,,株式会社,埼玉県,新座市,東北２丁目１７－１０トレスカーサス３０６,,11,230,3520001,,,2025-03-25,清算の結了等,,,2024-05-27,1,,,,,アスタープロモーション,0
1760,8040001012000,登記記録の閉鎖等,0,2025-03-28,2025-03-17,株式会社弁財天,,株式会社,東京都,中央区,勝どき２丁目８番１２－１５３５号,,13,102,1040054,,,2025-03-17,清算の結了等,,,2015-10-05,1,,,,,ベンザイテン,0
1764,8040003003138,登記記録の閉鎖等,0,2025-03-28,2025-03-12,合資会社鈴木商店,,合資会社,千葉県,山武市,松尾町木刀２２９番地,,12,237,2891531,,,2025-03-12,清算の結了等,,,2015-10-05,1,,,,,スズキショウテン,0
1766,8050001033879,登記記録の閉鎖等,0,2025-03-28,2025-03-21,京翔株式会社,,株式会社,茨城県,土浦市,都和１丁目１３番１２号メゾン都和１０２,,08,203,3000062,,,2025-03-21,清算の結了等,,,2015-10-05,1,,,,,キョウショウ,0
1772,8060001009176,登記記録の閉鎖等,0,2025-03-28,2025-03-26,株式会社ニチリン,,株式会社,栃木県,宇都宮市,富士見が丘３丁目１番７号,,09,201,3200011,,,2025-03-26,清算の結了等,,,2015-10-05,1,,,,,ニチリン,0
1774,8060002018655,登記記録の閉鎖等,0,2025-03-28,2025-03-26,有限会社直井工務店,,有限会社,栃木県,芳賀郡芳賀町,大字与能４１８番地,,09,345,3213316,,,2025-03-26,清算の結了等,,,2015-10-05,1,,,,,ナオイコウムテン,0
1777,8070002005727,登記記録の閉鎖等,0,2025-03-28,2025-03-26,有限会社吉元印刷工業,,有限会社,群馬県,前橋市,五代町６２７番地,,10,201,3710132,,,2025-03-26,清算の結了等,,,2015-10-05,1,,,,,ヨシモトインサツコウギョウ,0
1786,8110002010227,登記記録の閉鎖等,0,2025-03-28,2025-03-25,有限会社電子制御サービス,,有限会社,新潟県,新潟市南区,大通西９９０番地６,,15,106,9501204,,,2025-03-25,清算の結了等,,,2015-10-05,1,,,,,デンシセイギョサービス,0
1793,8120001132161,登記記録の閉鎖等,0,2025-03-28,2025-03-24,株式会社アイワ印刷,,株式会社,大阪府,大阪市東住吉区,今林４丁目１１番９号,,27,121,5460001,,,2025-03-24,清算の結了等,,,2015-10-05,1,,,,,アイワインサツ,0
1800,8120001246614,登記記録の閉鎖等,0,2025-03-28,2025-03-25,フレルゼ株式会社,,株式会社,大阪府,門真市,柳町８番１６号,,27,223,5710041,,,2025-03-25,清算の結了等,,,2022-06-14,1,,,,,フレルゼ,0
1818,8120101064998,登記記録の閉鎖等,0,2025-03-28,2025-03-27,株式会社ｃｏｃｏ,,株式会社,大阪府,堺市西区,浜寺公園町３丁２３３,,27,144,5928346,,,2025-03-27,清算の結了等,,,2022-01-25,1,,,,,ココ,0
1827,8130003008747,登記記録の閉鎖等,0,2025-03-28,2025-03-26,合同会社ｗａｄａｃｈｉ,,合同会社,京都府,京都市下京区,七条通油小路東入大黒町２２７番地第２キョートビル４０２,,26,106,6008223,,,2025-03-26,清算の結了等,,,2023-05-25,1,,,,,ワダチ,0
1833,8180001020294,登記記録の閉鎖等,0,2025-03-28,2025-03-24,冨田商店株式会社,,株式会社,愛知県,名古屋市中川区,十番町１丁目１２１番地,,23,110,4540055,,,2025-03-24,清算の結了等,,,2015-10-05,1,,,,,トミタショウテン,0
1841,8180302022064,登記記録の閉鎖等,0,2025-03-28,2025-03-25,有限会社サンエイ商事,,有限会社,愛知県,豊田市,小坂町４丁目１４番地２,,23,211,4710035,,,2025-03-25,清算の結了等,,,2015-10-05,1,,,,,サンエイショウジ,0
1844,8210002002874,登記記録の閉鎖等,0,2025-03-28,2025-03-25,林田織物有限会社,,有限会社,福井県,福井市,栗森２丁目１１０４番地,,18,201,9100137,,,2025-03-25,清算の結了等,,,2015-10-05,1,,,,,ハヤシダオリモノ,0
1849,8240002048163,登記記録の閉鎖等,0,2025-03-28,2025-03-27,有限会社サンエイ,,有限会社,広島県,安芸郡府中町,桃山２丁目６番１２号,,34,302,7350026,,,2025-03-27,清算の結了等,,,2015-10-05,1,,,,,サンエイ,0
1861,8290801005525,登記記録の閉鎖等,0,2025-03-28,2025-03-25,株式会社エヌ・ワイ,,株式会社,福岡県,北九州市門司区,柳町１丁目８番３０号,,40,101,8000025,,,2025-03-25,清算の結了等,,,2015-10-05,1,,,,,エヌワイ,0
1866,8370101000243,登記記録の閉鎖等,0,2025-03-28,2025-03-24,株式会社ヤサカ,,株式会社,宮城県,柴田郡大河原町,字錦町９番地の１,,04,321,9891217,,,2025-03-24,清算の結了等,,,2015-10-05,1,,,,,ヤサカ,0
1876,8460003000902,登記記録の閉鎖等,0,2025-03-28,2025-03-27,合同会社エアサプライ,,合同会社,北海道,釧路市,美原３丁目３６番１５号,,01,206,0850065,,,2025-03-27,清算の結了等,,,2022-06-02,1,,,,,エアサプライ,0
1878,8460102005926,登記記録の閉鎖等,0,2025-03-28,2025-03-21,有限会社沢井商店,,有限会社,北海道,上川郡新得町,屈足緑町２丁目１６番地,,01,635,0810163,,,2025-03-21,清算の結了等,,,2015-10-05,1,,,,,サワイショウテン,0
1897,9010401134511,登記記録の閉鎖等,0,2025-03-28,2025-03-17,田野畑風力開発株式会社,,株式会社,東京都,千代田区,霞が関３丁目２番５号,,13,101,1000013,,,2025-03-17,清算の結了等,,,2017-10-25,1,,,,,タノハタフウリョクカイハツ,0
1902,9010405004561,登記記録の閉鎖等,0,2025-03-28,2025-03-25,一般社団法人スレンダー,,その他の設立登記法人,東京都,千代田区,丸の内１丁目１番２号,,13,101,1000005,,,2025-03-25,清算の結了等,,,2015-10-05,1,,,,,スレンダー,0
1914,9010901040390,登記記録の閉鎖等,0,2025-03-28,2025-03-24,株式会社クラフトスタイル,,株式会社,東京都,世田谷区,野沢３丁目１３番１０号佐藤内,,13,112,1540003,,,2025-03-24,合併による解散等,9010902009187,令和７年３月２２日東京都世田谷区野沢三丁目１３番１０号アンジュリタ株式会社（9010902009187）に合併し解散,2017-06-30,1,,,,,クラフトスタイル,0
1924,9011003011215,登記記録の閉鎖等,0,2025-03-28,2025-02-26,日本メディカル＆ロジスティックス合同会社,,合同会社,東京都,渋谷区,恵比寿２丁目２８番１１号センチュリープラザ５０２,,13,113,1500013,,,2025-02-26,清算の結了等,,,2020-05-27,1,,,,,ニッポンメディカルアンドロジスティックス,0
1974,9040002049981,登記記録の閉鎖等,0,2025-03-28,2025-03-14,有限会社タイキハウス,,有限会社,千葉県,松戸市,松飛台１２２番地の１０,,12,207,2702214,,,2025-03-14,清算の結了等,,,2015-10-05,1,,,,,タイキハウス,0
1976,9040003003574,登記記録の閉鎖等,0,2025-03-28,2025-03-13,合資会社斉藤農進舎,,合資会社,千葉県,山武郡横芝光町,栗山２４３１番地の５,,12,410,2891733,,,2025-03-13,清算の結了等,,,2015-10-05,1,,,,,サイトウノウシンシャ,0
1986,9090005003972,登記記録の閉鎖等,0,2025-03-28,2025-03-25,松鶴院,,その他の設立登記法人,山梨県,甲州市,勝沼町休息１８７８番地の１０,,19,213,4091304,,,2025-03-25,清算の結了等,,,2015-10-05,1,,,,,ショウカクイン,0
2043,9190001015029,登記記録の閉鎖等,0,2025-03-28,2025-03-24,株式会社サビリア,,株式会社,三重県,四日市市,堀木１丁目２番２５－１３１２号,,24,202,5100076,,,2025-03-24,清算の結了等,,,2015-10-05,1,,,,,サビリア,0
2054,9240001006600,登記記録の閉鎖等,0,2025-03-28,2025-03-27,株式会社中国漢方センター,,株式会社,広島県,広島市中区,十日市町１丁目４番２０号,,34,101,7300805,,,2025-03-27,清算の結了等,,,2015-10-05,1,,,,,チュウゴクカンポウセンター,0
2059,9290001076969,登記記録の閉鎖等,0,2025-03-28,2025-03-13,ポストアンドポスト株式会社,,株式会社,福岡県,福岡市東区,多の津４丁目１４番１号,,40,131,8130034,,,2025-03-13,合併による解散等,6010001107754,令和７年３月１日福岡市中央区天神三丁目１番１号ソーシャルベンチャーＰＡＲＫ福岡株式会社ボーダレス・ジャパン（6010001107754）に合併し解散,2017-03-07,1,,,,,ポストアンドポスト,0
2076,9370002020315,登記記録の閉鎖等,0,2025-03-28,2025-03-24,有限会社ファインテック,,有限会社,宮城県,黒川郡大和町,落合蒜袋字古川一番１３番地の１,,04,421,9813406,,,2025-03-24,清算の結了等,,,2015-10-05,1,,,,,ファインテック,0
