sequenceNumber,corporateNumber,process,correct,updateDate,changeDate,name,nameImageId,kind,prefectureName,cityName,streetNumber,addressImageId,prefectureCode,cityCode,postCode,addressOutside,addressOutsideImageId,closeDate,closeCause,successorCorporateNumber,changeCause,assignmentDate,latest,enName,enPrefectureName,enCityName,enAddressOutside,furigana,hihyoji
10,1010001204449,登記記録の閉鎖等,0,2022-05-19,2022-04-28,高化学技術株式会社,,株式会社,東京都,港区,虎ノ門１丁目３番１号,,13,103,1050001,,,2022-04-28,清算の結了等,,,2019-10-08,1,,,,,コウカガクギジュツ,0
12,1010001206305,登記記録の閉鎖等,0,2022-05-19,2022-04-07,シグナビオ・ジャパン株式会社,,株式会社,東京都,千代田区,大手町１丁目６番１号ＳＰＡＣＥＳ大手町ビル１階,,13,101,1000004,,,2022-04-07,合併による解散等,4010001071259,令和４年４月１日東京都千代田区大手町一丁目２番１号ＳＡＰジャパン株式会社（4010001071259）に合併し解散,2019-12-25,1,,,,,シグナビオジャパン,0
15,1010002003619,登記記録の閉鎖等,0,2022-05-19,2022-04-28,有限会社大蓉,,有限会社,東京都,文京区,湯島２丁目２番５－２０１号,,13,105,1130034,,,2022-04-28,合併による解散等,1010001002539,令和４年４月１日東京都文京区本郷二丁目１２番６号株式会社工業技術研究所（1010001002539）に合併し解散,2015-10-05,1,,,,,タイヨウ,0
17,1010002004947,登記記録の閉鎖等,0,2022-05-19,2022-04-28,有限会社光,,有限会社,東京都,文京区,本郷２丁目１６番１０号三興ビル５Ｆ,,13,105,1130033,,,2022-04-28,合併による解散等,1010001002539,令和４年４月１日東京都文京区本郷二丁目１２番６号株式会社工業技術研究所（1010001002539）に合併し解散,2015-10-05,1,,,,,ヒカリ,0
20,1010003021834,登記記録の閉鎖等,0,2022-05-19,2022-04-21,Ｍｏｒｐｈｏ　Ｊａｐａｎ合同会社,,合同会社,東京都,中央区,東日本橋２丁目２８番４号日本橋ＣＥＴビル２階,,13,102,1030004,,,2022-04-21,清算の結了等,,,2015-10-05,1,,,,,モルフォジャパン,0
34,1010501015742,登記記録の閉鎖等,0,2022-05-19,2022-05-17,株式会社ボー・デツサン,,株式会社,東京都,台東区,今戸１丁目２３番１１号,,13,106,1110024,,,2022-05-17,清算の結了等,,,2015-10-05,1,,,,,ボーデツサン,0
59,1011101037573,登記記録の閉鎖等,0,2022-05-19,2022-05-17,株式会社Ｋ’ｓインテリジェンス,,株式会社,東京都,新宿区,早稲田町１２番地ニュー早稲田ビル６階,,13,104,1620042,,,2022-05-17,清算の結了等,,,2015-10-05,1,,,,,ケーズインテリジェンス,0
85,1020001127252,登記記録の閉鎖等,0,2022-05-19,2022-04-28,ＢＲＡＩＤ　ＪＡＰＡＮ株式会社,,株式会社,東京都,中央区,日本橋人形町３丁目３番６号人形町ファーストビル,,13,102,1030013,,,2022-04-28,清算の結了等,,,2018-07-24,1,,,,,ブレイドジャパン,0
93,1021002004952,登記記録の閉鎖等,0,2022-05-19,2022-05-17,有限会社メイビット,,有限会社,神奈川県,藤沢市,鵠沼藤が谷３丁目７番２２号,,14,205,2510031,,,2022-05-17,清算の結了等,,,2015-10-05,1,,,,,メイビット,0
102,1030002068874,登記記録の閉鎖等,0,2022-05-19,2022-05-12,有限会社東京計装,,有限会社,埼玉県,春日部市,増田新田４４７番地７５,,11,214,3440025,,,2022-05-12,清算の結了等,,,2015-10-05,1,,,,,トウキョウケイソウ,0
146,1120103003184,登記記録の閉鎖等,0,2022-05-19,2022-05-17,合同会社ｏｘｙｇｅｎ,,合同会社,大阪府,堺市堺区,甲斐町東６丁１番４号,,27,141,5900953,,,2022-05-17,清算の結了等,,,2018-11-20,1,,,,,オキシゲン,0
155,1140001009884,登記記録の閉鎖等,0,2022-05-19,2022-05-17,株式会社ニシダ商会,,株式会社,兵庫県,神戸市中央区,熊内町７丁目２番１３号,,28,110,6510056,,,2022-05-17,清算の結了等,,,2015-10-05,1,,,,,ニシダショウカイ,0
174,1180003021743,登記記録の閉鎖等,0,2022-05-19,2022-05-13,合同会社クリエイトパーソナルフューチャー,,合同会社,東京都,豊島区,南池袋１丁目１６－２０ぬかりやビル６Ｆ,,13,116,1710022,,,2022-05-13,清算の結了等,,,2020-10-19,1,,,,,クリエイトパーソナルフューチャー,0
193,1290001051203,登記記録の閉鎖等,0,2022-05-19,2022-05-18,株式会社ぐりーんはあと,,株式会社,福岡県,久留米市,国分町１９８７番地３,,40,203,8390863,,,2022-05-18,清算の結了等,,,2015-10-05,1,,,,,グリーンハアト,0
215,1340001016514,登記記録の閉鎖等,0,2022-05-19,2022-05-18,ＡＩＲ　ＳＴＹＬＥ株式会社,,株式会社,鹿児島県,鹿児島市,南郡元町６番８号市丸ビル３０１,,46,201,8900069,,,2022-05-18,清算の結了等,,,2015-10-05,1,,,,,エアスタイル,0
223,1380002031483,登記記録の閉鎖等,0,2022-05-19,2022-05-17,有限会社カイ建設,,有限会社,福島県,会津若松市,神指町橋本７９番地,,07,202,9650080,,,2022-05-17,清算の結了等,,,2015-10-05,1,,,,,,0
247,1470002003878,登記記録の閉鎖等,0,2022-05-19,2022-05-17,有限会社スミタニ通信,,有限会社,香川県,高松市,伏石町１０６９番地４,,37,201,7618071,,,2022-05-17,清算の結了等,,,2015-10-05,1,,,,,スミタニツウシン,0
256,2010001013799,登記記録の閉鎖等,0,2022-05-19,2022-05-02,株式会社柏屋,,株式会社,東京都,千代田区,内神田３丁目８番８号,,13,101,1010047,,,2022-05-02,清算の結了等,,,2015-10-05,1,,,,,カシワヤ,0
271,2010003026650,登記記録の閉鎖等,0,2022-05-19,2022-05-02,合同会社ユヴェール,,合同会社,東京都,中央区,日本橋２丁目２番３号ＲＩＳＨＥビルＵＣＦ４階,,13,102,1030027,,,2022-05-02,合併による解散等,1010003022683,令和４年５月１日東京都中央区日本橋二丁目２番３号ＲＩＳＨＥビルＵＣＦ４階株式会社ＭＥ－Ｃａｐｉｔａｌ（1010003022683）に合併し解散,2017-12-21,1,,,,,ユヴェール,0
291,2010501038239,登記記録の閉鎖等,0,2022-05-19,2022-05-02,ＫＡＮコーポレーション株式会社,,株式会社,東京都,千代田区,飯田橋１丁目１０番１号,,13,101,1020072,,,2022-05-02,清算の結了等,,,2015-10-05,1,,,,,カンコーポレーション,0
295,2010601050143,登記記録の閉鎖等,0,2022-05-19,2022-05-09,株式会社メディくる,,株式会社,東京都,江東区,東砂５丁目２番１３－５０６号,,13,108,1360074,,,2022-05-09,清算の結了等,,,2016-08-05,1,,,,,メディクル,0
298,2010701026175,登記記録の閉鎖等,0,2022-05-19,2022-05-16,株式会社キャリアインストール,,株式会社,東京都,品川区,上大崎２丁目１０番３４号,,13,109,1410021,,,2022-05-16,清算の結了等,,,2015-10-05,1,,,,,キャリアインストール,0
302,2010802013832,登記記録の閉鎖等,0,2022-05-19,2022-05-12,有限会社丸藤紙器工業所,,有限会社,東京都,大田区,田園調布１丁目４５番１１号,,13,111,1450071,,,2022-05-12,清算の結了等,,,2015-10-05,1,,,,,マルフジシキコウギョウショ,0
322,2011101085877,登記記録の閉鎖等,0,2022-05-19,2022-05-17,株式会社ＩＭＡ鎌倉,,株式会社,東京都,新宿区,西落合２丁目１４番２０号,,13,104,1610031,,,2022-05-17,清算の結了等,,,2018-11-06,1,,,,,イマカマクラ,0
324,2011105007679,登記記録の閉鎖等,0,2022-05-19,2022-05-17,一般社団法人ヒューマノミクス実行委員会,,その他の設立登記法人,東京都,新宿区,市谷田町２丁目７番地１５近代科学社ビル２階,,13,104,1620843,,,2022-05-17,清算の結了等,,,2017-03-06,1,,,,,ヒューマノミクスジッコウイインカイ,0
325,2011202006204,登記記録の閉鎖等,0,2022-05-19,2022-05-09,有限会社山脇タイル,,有限会社,東京都,中野区,上鷺宮１丁目２２番４号,,13,114,1650031,,,2022-05-09,清算の結了等,,,2015-10-05,1,,,,,ヤマワキタイル,0
337,2011805001056,登記記録の閉鎖等,0,2022-05-19,2022-05-11,新田商店街振興組合,,その他の設立登記法人,東京都,足立区,新田３丁目７番１３号,,13,121,1230865,,,2022-05-11,清算の結了等,,,2015-10-05,1,,,,,シンデン,0
364,2020005012391,登記記録の閉鎖等,0,2022-05-19,2022-05-12,一般社団法人劇団民藝,,その他の設立登記法人,神奈川県,川崎市麻生区,黒川６４９番地１,,14,137,2150035,,,2022-05-12,清算の結了等,,,2015-11-30,1,,,,,ゲキダンミンゲイ,0
365,2021001004572,登記記録の閉鎖等,0,2022-05-19,2022-05-02,株式会社ジェノバ横浜,,株式会社,神奈川県,川崎市川崎区,港町１３番１－１５０１号,,14,131,2100807,,,2022-05-02,合併による解散等,4030001030403,令和４年５月１日神奈川県川崎市川崎区港町１３番１－１５０１号株式会社ピー・エス通商（4030001030403）に合併し解散,2015-10-05,1,,,,,ジェノバヨコハマ,0
385,2040001112697,登記記録の閉鎖等,0,2022-05-19,2022-05-12,株式会社ダルセット,,株式会社,千葉県,松戸市,松戸２０８８番地あかりコーポ２０６号室,,12,207,2710092,,,2022-05-12,清算の結了等,,,2020-02-27,1,,,,,ダルセット,0
388,2040003000660,登記記録の閉鎖等,0,2022-05-19,2022-05-12,合資会社植銀商店,,合資会社,千葉県,船橋市,旭町２丁目２２番１６号,,12,204,2730041,,,2022-05-12,清算の結了等,,,2015-10-05,1,,,,,ウエギンショウテン,0
420,2120102018942,登記記録の閉鎖等,0,2022-05-19,2022-05-18,有限会社エムティー,,有限会社,大阪府,羽曳野市,白鳥３丁目３番３号,,27,222,5830856,,,2022-05-18,清算の結了等,,,2015-10-05,1,,,,,エムティー,0
422,2120105005211,登記記録の閉鎖等,0,2022-05-19,2022-05-17,医療法人園部医院,,その他の設立登記法人,大阪府,藤井寺市,道明寺２丁目１０番５号,,27,226,5830012,,,2022-05-17,清算の結了等,,,2015-10-05,1,,,,,ソノベイイン,0
425,2122001005204,登記記録の閉鎖等,0,2022-05-19,2022-05-16,中江運送株式会社,,株式会社,大阪府,東大阪市,西堤楠町３丁目１番３９号,,27,227,5770047,,,2022-05-16,清算の結了等,,,2015-10-05,1,,,,,ナカエウンソウ,0
426,2122001006474,登記記録の閉鎖等,0,2022-05-19,2022-05-12,株式会社フードビジネスサービス,,株式会社,大阪府,東大阪市,七軒家７番３号,,27,227,5770005,,,2022-05-12,清算の結了等,,,2015-10-05,1,,,,,フードビジネスサービス,0
455,2180001078702,登記記録の閉鎖等,0,2022-05-19,2022-05-09,大シマ株式会社,,株式会社,愛知県,瀬戸市,陶原町３丁目４０番地,,23,204,4890805,,,2022-05-09,合併による解散等,1180001079387,令和４年４月２８日愛知県瀬戸市陶原町三丁目３７番地株式会社建築工房空（1180001079387）に合併し解散,2015-10-05,1,,,,,オオシマ,0
467,2190002017559,登記記録の閉鎖等,0,2022-05-19,2022-05-16,有限会社ファル・ファーレ,,有限会社,三重県,桑名市,長島町松ケ島９１番地の１,,24,205,5111122,,,2022-05-16,清算の結了等,,,2015-10-05,1,,,,,ファルファーレ,0
477,2220005007041,登記記録の閉鎖等,0,2022-05-19,2022-05-12,石川県繊維資材工業組合,,その他の設立登記法人,石川県,かほく市,白尾ロ４４番地１,,17,209,9291177,,,2022-05-12,清算の結了等,,,2015-10-05,1,,,,,イシカワケンセンイシザイ,0
483,2260002024548,登記記録の閉鎖等,0,2022-05-19,2022-05-18,有限会社水島友興,,有限会社,岡山県,倉敷市,松江４丁目９番１号,,33,202,7128052,,,2022-05-18,清算の結了等,,,2015-10-05,1,,,,,ミズシマユウコウ,0
485,2290001088426,登記記録の閉鎖等,0,2022-05-19,2022-05-16,株式会社スカイ製薬,,株式会社,福岡県,福岡市博多区,博多駅東１丁目１番３３号７Ｆ,,40,132,8120013,,,2022-05-16,合併による解散等,3290001076743,令和４年５月１５日福岡市中央区舞鶴二丁目１－１０天神フロントスクエア５Ｆ株式会社ミスミ製薬（3290001076743）に合併し解散,2020-03-23,1,,,,,スカイセイヤク,0
498,2360001014696,登記記録の閉鎖等,0,2022-05-19,2022-05-09,株式会社Ｌｉｎｋ,,株式会社,沖縄県,糸満市,字照屋８０８番地１,,47,210,9010315,,,2022-05-09,清算の結了等,,,2015-10-05,1,,,,,リンク,0
547,2700150094686,削除,,2022-05-19,,,,,,,,,,,,,,,,,,,,,,,,,
554,3010001186710,登記記録の閉鎖等,0,2022-05-19,2022-04-14,株式会社ＯＳプラチナ,,株式会社,東京都,千代田区,丸の内１丁目８番３号,,13,101,1000005,,,2022-04-14,合併による解散等,9011001000137,令和４年４月１日東京都新宿区新宿四丁目１番２３号株式会社アーク警備システム（9011001000137）に合併し解散,2017-10-10,1,,,,,オーエスプラチナ,0
587,3011003009207,登記記録の閉鎖等,0,2022-05-19,2022-04-28,ａｕｄｉｏｆｏｒｃｅ　ｔｏｋｙｏ合同会社,,合同会社,東京都,渋谷区,神宮前６丁目１５番１３号カーサピッコラ４Ｆ,,13,113,1500001,,,2022-04-28,清算の結了等,,,2018-09-27,1,,,,,オーディオフォーストウキョウ,0
593,3011103006731,登記記録の閉鎖等,0,2022-05-19,2022-05-17,グローリー合同会社,,合同会社,東京都,新宿区,四谷２丁目１１番１７号ＭＹＫビル１０１,,13,104,1600004,,,2022-05-17,清算の結了等,,,2017-01-13,1,,,,,グローリー,0
622,3020001135550,登記記録の閉鎖等,0,2022-05-19,2022-05-10,株式会社マウシー,,株式会社,神奈川県,横浜市港北区,大豆戸町９３１番地１グリーンコーポ大倉山Ａ棟２１１,,14,109,2220032,,,2022-05-10,清算の結了等,,,2020-04-01,1,,,,,マウシー,0
682,3100002014621,登記記録の閉鎖等,0,2022-05-19,2022-05-17,有限会社廣瀬養豚場,,有限会社,長野県,上田市,十人１６３番地,,20,203,3861435,,,2022-05-17,清算の結了等,,,2015-10-05,1,,,,,ヒロセヨウトンジョウ,0
695,3120103002267,登記記録の閉鎖等,0,2022-05-19,2022-05-18,合同会社ＦＩＫＡ,,合同会社,大阪府,堺市堺区,向陵西町１丁５番５－７１１号,,27,141,5900026,,,2022-05-18,清算の結了等,,,2015-10-05,1,,,,,フィーカ,0
718,3180001128506,登記記録の閉鎖等,0,2022-05-19,2022-05-17,株式会社Ｗａｌｋ,,株式会社,愛知県,名古屋市西区,あし原町６６番地,,23,104,4520823,,,2022-05-17,清算の結了等,,,2017-07-10,1,,,,,ウォーク,0
722,3180003010158,登記記録の閉鎖等,0,2022-05-19,2022-05-13,合資会社伸光,,合資会社,愛知県,春日井市,高蔵寺町北１丁目７６番地の１,,23,206,4870016,,,2022-05-13,清算の結了等,,,2015-10-05,1,,,,,シンコウ,0
734,3210005000038,登記記録の閉鎖等,0,2022-05-19,2022-04-08,一般社団法人福井県配合飼料価格安定基金協会,,その他の設立登記法人,福井県,福井市,花堂中２丁目１７番３号,,18,201,9188014,,,2022-04-08,合併による解散等,6220005008655,令和４年４月１日石川県金沢市古府一丁目１９７番地一般社団法人石川県配合飼料価格安定基金協会（2220005000095）、富山市手屋三丁目１０番１５号一般社団法人富山県配合飼料価格安定基金協会（2230005000053）と合併して石川県金沢市古府一丁目１９７番地一般社団法人北陸配合飼料価格安定基金協会（6220005008655）を設立し解散,2015-10-05,1,,,,,フクイケンハイゴウシリョウカカクアンテイキキンキョウカイ,0
754,3290002024511,登記記録の閉鎖等,0,2022-05-19,2022-05-16,有限会社ランゲージプラス,,有限会社,福岡県,福岡市早良区,室見１丁目２０－１－１０３,,40,137,8140015,,,2022-05-16,清算の結了等,,,2015-10-05,1,,,,,ランゲージプラス,0
770,3360001007939,登記記録の閉鎖等,0,2022-05-19,2022-05-09,株式会社丸喜設備,,株式会社,沖縄県,沖縄市,胡屋７丁目２番３号グリーンヒルマンション３０８,,47,211,9040021,,,2022-05-09,清算の結了等,,,2015-10-05,1,,,,,,0
787,3430001042862,登記記録の閉鎖等,0,2022-05-19,2022-05-10,株式会社互洋設計,,株式会社,北海道,札幌市手稲区,前田八条１７丁目５番３２号,,01,109,0060818,,,2022-05-10,清算の結了等,,,2015-10-05,1,,,,,ゴヨウセッケイ,0
792,3490002000962,登記記録の閉鎖等,0,2022-05-19,2022-05-16,有限会社加茂屋,,有限会社,高知県,高知市,浦戸６番地,,39,201,7810262,,,2022-05-16,清算の結了等,,,2015-10-05,1,,,,,カモヤ,0
827,4011001047802,登記記録の閉鎖等,0,2022-05-19,2022-04-14,株式会社アークミライズ,,株式会社,東京都,千代田区,神田佐久間町１丁目１４番地,,13,101,1010025,,,2022-04-14,合併による解散等,9011001000137,令和４年４月１日東京都新宿区新宿四丁目１番２３号株式会社アーク警備システム（9011001000137）に合併し解散,2015-10-05,1,,,,,アークミライズ,0
854,4013305003258,登記記録の閉鎖等,0,2022-05-19,2022-05-11,ＮＰＯ法人しあわせバンク,,その他の設立登記法人,東京都,豊島区,池袋本町３丁目１７番２号,,13,116,1700011,,,2022-05-11,清算の結了等,,,2021-09-14,1,,,,,シアワセバンク,0
861,4020001139617,登記記録の閉鎖等,0,2022-05-19,2022-05-12,株式会社ＦＬＡＧＳ,,株式会社,神奈川県,横浜市神奈川区,沢渡１番地２菱興高島台第３ビル９階,,14,102,2210844,,,2022-05-12,清算の結了等,,,2021-01-22,1,,,,,フラッグス,0
874,4021002042652,登記記録の閉鎖等,0,2022-05-19,2022-05-17,有限会社最上川,,有限会社,神奈川県,大和市,中央４丁目４番４号,,14,213,2420021,,,2022-05-17,清算の結了等,,,2015-10-05,1,,,,,,0
875,4021003005146,登記記録の閉鎖等,0,2022-05-19,2022-05-17,合同会社信更設計事務所,,合同会社,神奈川県,藤沢市,藤沢１０９２番地の４,,14,205,2510052,,,2022-05-17,清算の結了等,,,2015-10-05,1,,,,,シンコウセッケイジムショ,0
885,4030002033603,登記記録の閉鎖等,0,2022-05-19,2022-05-13,有限会社小谷野板金,,有限会社,埼玉県,狭山市,柏原１９００番地の１,,11,215,3501335,,,2022-05-13,清算の結了等,,,2015-10-05,1,,,,,コヤノバンキン,0
887,4030003000817,登記記録の閉鎖等,0,2022-05-19,2022-04-28,合同会社ｅｇｅ　ｋｅｂａｂ,,合同会社,埼玉県,さいたま市南区,大字円正寺５０７番地１,,11,108,3360043,,,2022-04-28,清算の結了等,,,2015-10-05,1,,,,,,0
904,4060005005357,登記記録の閉鎖等,0,2022-05-19,2022-05-13,医療法人悠晃会,,その他の設立登記法人,栃木県,下野市,下古山３３７８番地１,,09,216,3290502,,,2022-05-13,清算の結了等,,,2015-10-05,1,,,,,ユウコウカイ,0
907,4080005005165,登記記録の閉鎖等,0,2022-05-19,2022-05-12,協同組合島田地区かかりつけ薬局会,,その他の設立登記法人,静岡県,島田市,中溝町１４１８番地の９,,22,209,4270047,,,2022-05-12,清算の結了等,,,2015-10-05,1,,,,,シマダチクカカリツケヤッキョクカイ,0
913,4080405004543,登記記録の閉鎖等,0,2022-05-19,2022-04-08,長寿院,,その他の設立登記法人,静岡県,掛川市,肴町７番地の９,,22,213,4360078,,,2022-04-08,合併による解散等,1080405004562,令和４年４月８日静岡県掛川市仁藤町５番地の１天然寺（1080405004562）に合併し解散,2015-10-05,1,,,,,チョウジュイン,0
916,4100002034511,登記記録の閉鎖等,0,2022-05-19,2022-05-16,有限会社モリヤ,,有限会社,長野県,上伊那郡宮田村,６８５９番地,,20,388,3994301,,,2022-05-16,清算の結了等,,,2015-10-05,1,,,,,モリヤ,0
937,4120105004087,登記記録の閉鎖等,0,2022-05-19,2022-04-12,天理教平南分教会,,その他の設立登記法人,大阪府,松原市,三宅中４丁目１６番２９号,,27,217,5800046,,,2022-04-12,合併による解散等,5120105004086,令和４年４月１２日大阪府松原市阿保六丁目１番１１号天理教平保分教会（5120105004086）に合併し解散,2015-10-05,1,,,,,テンリキョウヘイナンブンキョウカイ,0
949,4140001084578,登記記録の閉鎖等,0,2022-05-19,2022-05-16,淡路トーヨー株式会社,,株式会社,兵庫県,南あわじ市,榎列下幡多４８２番地２,,28,224,6560423,,,2022-05-16,清算の結了等,,,2015-10-05,1,,,,,アワジトーヨー,0
969,4180302027942,登記記録の閉鎖等,0,2022-05-19,2022-05-12,有限会社遊木,,有限会社,愛知県,新城市,下吉田字下田８１番地,,23,221,4411621,,,2022-05-12,清算の結了等,,,2015-10-05,1,,,,,ユウキ,0
970,4190002018349,登記記録の閉鎖等,0,2022-05-19,2022-05-17,有限会社前田商会,,有限会社,三重県,桑名郡木曽岬町,大字栄４８番地,,24,303,4980811,,,2022-05-17,清算の結了等,,,2015-10-05,1,,,,,マエダショウカイ,0
988,4280005002126,登記記録の閉鎖等,0,2022-05-19,2022-05-17,特定非営利活動法人島根県障害者スポーツ射撃協会,,その他の設立登記法人,島根県,松江市,雑賀町５９５番地７,,32,201,6900056,,,2022-05-17,清算の結了等,,,2015-10-05,1,,,,,シマネケンショウガイシャスポーツシャゲキキョウカイ,0
991,4290001016112,登記記録の閉鎖等,0,2022-05-19,2022-05-06,福岡実業株式会社,,株式会社,福岡県,福岡市博多区,祇園町１番２８号,,40,132,8120038,,,2022-05-06,清算の結了等,,,2021-04-30,1,,,,,フクオカジツギョウ,0
1012,4300002008742,登記記録の閉鎖等,0,2022-05-19,2022-05-17,有限会社マルトにしやま,,有限会社,佐賀県,西松浦郡有田町,蔵宿丙４０５０番地１,,41,401,8494161,,,2022-05-17,清算の結了等,,,2015-10-05,1,,,,,マルトニシヤマ,0
1041,4430001023829,登記記録の閉鎖等,0,2022-05-19,2022-05-10,マルヤ商事株式会社,,株式会社,北海道,札幌市中央区,北一条西２３丁目１番１０号,,01,101,0640821,,,2022-05-10,清算の結了等,,,2015-10-05,1,,,,,マルヤショウジ,0
1055,4500001011066,登記記録の閉鎖等,0,2022-05-19,2022-05-16,朝倉建設株式会社,,株式会社,愛媛県,今治市,朝倉下甲１７４番地,,38,202,7991603,,,2022-05-16,清算の結了等,,,2015-10-05,1,,,,,アサクラケンセツ,0
1062,5010001207299,登記記録の閉鎖等,0,2022-05-19,2022-04-28,株式会社ブルーウッド,,株式会社,東京都,中央区,銀座６丁目１２番１０号銀座龍岡ビル５Ｆ,,13,102,1040061,,,2022-04-28,清算の結了等,,,2020-02-07,1,,,,,ブルーウッド,0
1064,5010001223024,登記記録の閉鎖等,0,2022-05-19,2022-05-02,シーガル準備株式会社,,株式会社,東京都,千代田区,丸の内２丁目１番１号明治安田生命ビル１１階,,13,101,1000005,,,2022-05-02,合併による解散等,7010001032976,令和４年４月３０日東京都中央区日本橋堀留町二丁目２番１号セントラル・タンクターミナル株式会社（7010001032976）に合併し解散,2021-12-03,1,,,,,シーガルジュンビ,0
1087,5010402004064,登記記録の閉鎖等,0,2022-05-19,2022-05-11,有限会社キャラウェイ,,有限会社,東京都,杉並区,本天沼２丁目１４番１８号,,13,115,1670031,,,2022-05-11,清算の結了等,,,2015-10-05,1,,,,,,0
1105,5010603006982,登記記録の閉鎖等,0,2022-05-19,2022-05-09,津久井合同会社,,合同会社,東京都,江東区,南砂４丁目１７番２号,,13,108,1360076,,,2022-05-09,清算の結了等,,,2017-10-20,1,,,,,ツクイ,0
1118,5010903001691,登記記録の閉鎖等,0,2022-05-19,2022-05-13,合同会社ＰｈｉｌＭａコーポレーション,,合同会社,東京都,世田谷区,八幡山３丁目２２番３１号,,13,112,1560056,,,2022-05-13,清算の結了等,,,2015-10-05,1,,,,,フィルマコーポレーション,0
1137,5012301007040,登記記録の閉鎖等,0,2022-05-19,2022-05-11,株式会社ドット・ワン,,株式会社,東京都,町田市,木曽東４丁目１番２２号,,13,209,1940036,,,2022-05-11,清算の結了等,,,2015-10-05,1,,,,,ドットワン,0
1169,5030001061703,登記記録の閉鎖等,0,2022-05-19,2022-05-13,株式会社クリーンテック大栄,,株式会社,埼玉県,鴻巣市,ひばり野１丁目２５番５号,,11,217,3650031,,,2022-05-13,清算の結了等,,,2015-10-05,1,,,,,クリーンテックダイエイ,0
1182,5040001102126,登記記録の閉鎖等,0,2022-05-19,2022-05-13,株式会社ハヤカワ工業,,株式会社,千葉県,浦安市,富士見２丁目３番２６－６０２号,,12,227,2790043,,,2022-05-13,清算の結了等,,,2017-10-11,1,,,,,ハヤカワコウギョウ,0
1183,5040001106787,登記記録の閉鎖等,0,2022-05-19,2022-05-12,株式会社服部陶画工房,,株式会社,千葉県,柏市,柏２丁目９番７－８０５号,,12,217,2770005,,,2022-05-12,清算の結了等,,,2018-11-08,1,,,,,ハットリトウガコウボウ,0
1225,5130001012662,登記記録の閉鎖等,0,2022-05-19,2022-05-17,株式会社光田工務店,,株式会社,京都府,京都市山科区,東野中井ノ上町２０番地の８,,26,110,6078142,,,2022-05-17,清算の結了等,,,2015-10-05,1,,,,,ミツダコウムテン,0
1255,5190005011275,登記記録の閉鎖等,0,2022-05-19,2022-05-17,特定非営利活動法人未来図,,その他の設立登記法人,三重県,津市,久居西鷹跡町５０４番地２,,24,201,5141131,,,2022-05-17,清算の結了等,,,2019-02-08,1,,,,,ミライズ,0
1270,5260002021823,登記記録の閉鎖等,0,2022-05-19,2022-05-17,有限会社山三工業,,有限会社,岡山県,倉敷市,吉岡４３４番地の３,,33,202,7100842,,,2022-05-17,清算の結了等,,,2015-10-05,1,,,,,ヤマサンコウギョウ,0
1287,5360001005065,登記記録の閉鎖等,0,2022-05-19,2022-04-13,株式会社ウィルコム沖縄,,株式会社,沖縄県,那覇市,旭町１１４番地４,,47,201,9000029,,,2022-04-13,合併による解散等,9010401052465,令和４年４月１日東京都港区海岸一丁目７番１号ソフトバンク株式会社（9010401052465）に合併し解散,2015-10-05,1,,,,,ウィルコムオキナワ,0
1300,5380001003471,登記記録の閉鎖等,0,2022-05-19,2022-05-16,株式会社ラ・ポルト,,株式会社,福島県,郡山市,富田町字後久保４５－８,,07,203,9638041,,,2022-05-16,清算の結了等,,,2015-10-05,1,,,,,ラポルト,0
1322,5460305000909,登記記録の閉鎖等,0,2022-05-19,2022-04-14,天理教常利分教会,,その他の設立登記法人,北海道,網走郡美幌町,字東町２丁目１６番地１２,,01,543,0920011,,,2022-04-14,合併による解散等,8460305001243,令和４年４月１４日北海道北見市常呂町字常呂３４５番地天理教常呂分教会（8460305001243）に合併し解散,2015-10-05,1,,,,,,0
1348,6010401056618,登記記録の閉鎖等,0,2022-05-19,2022-04-28,株式会社ラーニングウェイ,,株式会社,東京都,港区,南青山６丁目１番６号パレス青山２０９号室,,13,103,1070062,,,2022-04-28,清算の結了等,,,2015-10-05,1,,,,,ラーニングウェイ,0
1361,6010601053051,登記記録の閉鎖等,0,2022-05-19,2022-05-06,株式会社８４Ｇｌｏｂａｌ　Ｆｏｏｄｓ　Ｊａｐａｎ,,株式会社,東京都,江東区,木場６丁目７番１－１０１号,,13,108,1350042,,,2022-05-06,清算の結了等,,,2018-03-26,1,,,,,エイティフォーグローバルフーズジャパン,0
1415,6020002104659,登記記録の閉鎖等,0,2022-05-19,2022-05-12,有限会社ｈ２フィールド,,有限会社,神奈川県,川崎市中原区,木月住吉町３番１９号,,14,133,2110021,,,2022-05-12,清算の結了等,,,2015-10-05,1,,,,,,0
1422,6030001059614,登記記録の閉鎖等,0,2022-05-19,2022-04-28,株式会社ひかりサポート,,株式会社,東京都,中央区,京橋２丁目８番２１号,,13,102,1040031,,,2022-04-28,清算の結了等,,,2015-10-05,1,,,,,ヒカリサポート,0
1430,6030002114153,登記記録の閉鎖等,0,2022-05-19,2022-05-12,有限会社宝石のヤナセ,,有限会社,埼玉県,熊谷市,拾六間５４６番地１,,11,202,3600846,,,2022-05-12,清算の結了等,,,2015-10-05,1,,,,,ホウセキノヤナセ,0
1445,6040002094460,登記記録の閉鎖等,0,2022-05-19,2022-05-13,有限会社ノースウエスト,,有限会社,千葉県,我孫子市,天王台２丁目１０番７号,,12,222,2701143,,,2022-05-13,清算の結了等,,,2015-10-05,1,,,,,ノースウエスト,0
1454,6080102022169,登記記録の閉鎖等,0,2022-05-19,2022-05-18,有限会社ライフサプリ,,有限会社,静岡県,田方郡函南町,平井１７５３番地の２１４９,,22,325,4190107,,,2022-05-18,清算の結了等,,,2015-10-05,1,,,,,ライフサプリ,0
1464,6110002027108,登記記録の閉鎖等,0,2022-05-19,2022-05-13,有限会社大原機械製作所,,有限会社,新潟県,長岡市,新保３丁目３番８号,,15,202,9400875,,,2022-05-13,清算の結了等,,,2015-10-05,1,,,,,オオハラキカイセイサクショ,0
1478,6120101060693,登記記録の閉鎖等,0,2022-05-19,2022-05-16,株式会社健康の都,,株式会社,大阪府,堺市堺区,石津町３丁７番９号,,27,141,5900814,,,2022-05-16,清算の結了等,,,2019-10-21,1,,,,,ケンコウノミヤコ,0
1490,6122002012914,登記記録の閉鎖等,0,2022-05-19,2022-05-12,有限会社誠キャリアサポート,,有限会社,大阪府,東大阪市,稲田新町３丁目４番１１号,,27,227,5770004,,,2022-05-12,清算の結了等,,,2015-10-05,1,,,,,マコトキャリアサポート,0
1498,6140001026891,登記記録の閉鎖等,0,2022-05-19,2022-05-16,株式会社浜野商店,,株式会社,兵庫県,神戸市長田区,大丸町１丁目１－５,,28,106,6530806,,,2022-05-16,清算の結了等,,,2015-10-05,1,,,,,ハマノショウテン,0
1505,6160001006462,登記記録の閉鎖等,0,2022-05-19,2022-05-17,株式会社ウッディホームミヤジマ,,株式会社,滋賀県,長浜市,小室町５７３番地,,25,203,5260263,,,2022-05-17,清算の結了等,,,2015-10-05,1,,,,,ウッディホームミヤジマ,0
1511,6180001113372,登記記録の閉鎖等,0,2022-05-19,2022-05-13,エアアジア・ジャパン株式会社,,株式会社,愛知県,常滑市,セントレア１丁目１番地,,23,216,4790881,,,2022-05-13,清算の結了等,,,2015-10-05,1,,,,,,0
1516,6180002057049,登記記録の閉鎖等,0,2022-05-19,2022-05-13,有限会社アパレルアシスト,,有限会社,愛知県,名古屋市中区,丸の内２丁目１０番１１号,,23,106,4600002,,,2022-05-13,清算の結了等,,,2015-10-05,1,,,,,アパレルアシスト,0
1518,6180003004165,登記記録の閉鎖等,0,2022-05-19,2022-04-28,合資会社丸勝食品店,,合資会社,愛知県,名古屋市緑区,亀が洞２丁目７２０番地,,23,114,4580804,,,2022-04-28,清算の結了等,,,2015-10-05,1,,,,,マルカツショクヒンテン,0
1526,6200002004576,登記記録の閉鎖等,0,2022-05-19,2022-05-12,有限会社丸吉不動産,,有限会社,岐阜県,岐阜市,西園町１０番地,,21,201,5008105,,,2022-05-12,清算の結了等,,,2015-10-05,1,,,,,マルヨシフドウサン,0
1541,6260002005981,登記記録の閉鎖等,0,2022-05-19,2022-05-18,有限会社大和工房,,有限会社,岡山県,岡山市北区,奥田西町４番１６号,,33,101,7000931,,,2022-05-18,清算の結了等,,,2015-10-05,1,,,,,ダイワコウボウ,0
1555,6290005013558,登記記録の閉鎖等,0,2022-05-19,2022-05-18,特定非営利活動法人日中企業振興協会,,その他の設立登記法人,福岡県,福岡市博多区,比恵町１－１８東カン福岡第２ビル１０２－２,,40,132,8120014,,,2022-05-18,清算の結了等,,,2015-10-05,1,,,,,ニッチュウキギョウシンコウキョウカイ,0
1561,6320005001154,登記記録の閉鎖等,0,2022-05-19,2022-05-18,大南ガス事業協同組合,,その他の設立登記法人,大分県,大分市,大字中戸次４３６７番地の１,,44,201,8797761,,,2022-05-18,清算の結了等,,,2015-10-05,1,,,,,ダイナンガス,0
1563,6330005007720,登記記録の閉鎖等,0,2022-05-19,2022-04-01,社会福祉法人むつみ保育園,,その他の設立登記法人,熊本県,球磨郡多良木町,大字多良木字友村１５８１番地の２,,43,505,8680501,,,2022-04-01,合併による解散等,1330005007725,令和４年４月１日熊本県球磨郡多良木町大字多良木２５７番地の１社会福祉法人多良木福祉会（1330005007725）に合併し解散,2015-10-05,1,,,,,ムツミホイクエン,0
1570,6360002009733,登記記録の閉鎖等,0,2022-05-19,2022-05-09,株式会社ユニティー,,株式会社,沖縄県,糸満市,字照屋８０８番地の１,,47,210,9010315,,,2022-05-09,清算の結了等,,,2015-10-05,1,,,,,ユニティー,0
1575,6390001014021,登記記録の閉鎖等,0,2022-05-19,2022-05-16,株式会社山形総合観光,,株式会社,山形県,山形市,蔵王温泉６番地,,06,201,9902301,,,2022-05-16,清算の結了等,,,2015-10-05,1,,,,,,0
1578,6430001005288,登記記録の閉鎖等,0,2022-05-19,2022-04-15,グロークリエート株式会社,,株式会社,北海道,北広島市,大曲緑ヶ丘１丁目１４番地１５,,01,234,0611276,,,2022-04-15,合併による解散等,9010001146700,令和４年４月１日東京都港区芝浦一丁目１番１号コスモ石油プロパティサービス株式会社（9010001146700）に合併し解散,2015-10-05,1,,,,,グロークリエート,0
1579,6430001029295,登記記録の閉鎖等,0,2022-05-19,2022-05-02,株式会社サン・エレックシステムズ,,株式会社,北海道,札幌市白石区,東札幌五条２丁目３番２０号,,01,104,0030005,,,2022-05-02,合併による解散等,2430001007569,令和４年５月１日札幌市東区北二十六条東十八丁目７番４号株式会社親熱電工（2430001007569）に合併し解散,2015-10-05,1,,,,,サンエレックシステムズ,0
1586,6430002062741,登記記録の閉鎖等,0,2022-05-19,2022-05-11,有限会社三友物産商会,,有限会社,北海道,沙流郡日高町,富川南５丁目１０番３号,,01,601,0550006,,,2022-05-11,清算の結了等,,,2015-10-05,1,,,,,サンユウブッサンショウカイ,0
1589,6440001001641,登記記録の閉鎖等,0,2022-05-19,2022-04-12,株式会社函館カール・レイモン,,株式会社,北海道,函館市,元町３０番３号,,01,202,0400054,,,2022-04-12,合併による解散等,3450001006188,令和４年４月１日北海道旭川市工業団地一条三丁目１番３７号日本ハム北海道ファクトリー株式会社（3450001006188）に合併し解散,2015-10-05,1,,,,,ハコダテカールレイモン,0
1592,6470005005000,登記記録の閉鎖等,0,2022-05-19,2022-04-14,天理教苗羽分教会,,その他の設立登記法人,香川県,小豆郡小豆島町,苗羽甲１３８４番地３４,,37,324,7614421,,,2022-04-14,合併による解散等,8470005004999,令和４年４月１４日香川県小豆郡小豆島町神懸通甲９１２番地２天理教小豆分教会（8470005004999）に合併し解散,2015-10-05,1,,,,,テンリキョウノウマブンキョウカイ,0
1623,7010601014291,登記記録の閉鎖等,0,2022-05-19,2022-05-09,廣瀬硝子株式会社,,株式会社,東京都,墨田区,墨田２丁目１０番８号,,13,107,1310031,,,2022-05-09,清算の結了等,,,2015-10-05,1,,,,,ヒロセガラス,0
1639,7011102030365,登記記録の閉鎖等,0,2022-05-19,2022-05-13,有限会社プラングル,,有限会社,東京都,新宿区,新宿１丁目３６番７号,,13,104,1600022,,,2022-05-13,清算の結了等,,,2015-10-05,1,,,,,プラングル,0
1685,7030002066781,登記記録の閉鎖等,0,2022-05-19,2022-05-13,美和エンジニアリング有限会社,,有限会社,埼玉県,新座市,石神５丁目１番８号,,11,230,3520033,,,2022-05-13,清算の結了等,,,2015-10-05,1,,,,,ミワエンジニアリング,0
1688,7040001031918,登記記録の閉鎖等,0,2022-05-19,2022-05-12,株式会社アース興産,,株式会社,千葉県,市川市,行徳駅前１丁目９番５号,,12,203,2720133,,,2022-05-12,清算の結了等,,,2015-10-05,1,,,,,アースコウサン,0
1713,7080401024963,登記記録の閉鎖等,0,2022-05-19,2022-05-11,株式会社無人島,,株式会社,神奈川県,横浜市鶴見区,東寺尾６丁目６－１,,14,101,2300077,,,2022-05-11,清算の結了等,,,2021-04-06,1,,,,,,0
1716,7100002033824,登記記録の閉鎖等,0,2022-05-19,2022-05-16,有限会社伊那光研,,有限会社,長野県,上伊那郡飯島町,飯島７０番地２９,,20,384,3993702,,,2022-05-16,清算の結了等,,,2015-10-05,1,,,,,イナコウケン,0
1749,7140001065699,登記記録の閉鎖等,0,2022-05-19,2022-05-17,株式会社グリッド,,株式会社,兵庫県,姫路市,御立東２丁目７番２２号,,28,201,6700072,,,2022-05-17,清算の結了等,,,2015-10-05,1,,,,,グリッド,0
1768,7180002040565,登記記録の閉鎖等,0,2022-05-19,2022-05-16,有限会社藤電技,,有限会社,愛知県,清須市,助七１丁目８７番地の８,,23,233,4520903,,,2022-05-16,清算の結了等,,,2015-10-05,1,,,,,フジデンシ,0
1769,7180002063715,登記記録の閉鎖等,0,2022-05-19,2022-05-11,株式会社サポートサービスセンター,,株式会社,愛知県,長久手市,山桶１１８番地,,23,238,4801164,,,2022-05-11,合併による解散等,9180001001863,令和４年４月３０日名古屋市名東区姫若町３番地の２株式会社ＫＴＣホールディングス（9180001001863）に合併し解散,2015-10-05,1,,,,,サポートサービスセンター,0
1775,7180302019359,登記記録の閉鎖等,0,2022-05-19,2022-05-13,有限会社呉服のすぎうら,,有限会社,愛知県,知立市,広見３丁目４３番地,,23,225,4720044,,,2022-05-13,清算の結了等,,,2015-10-05,1,,,,,ゴフクノスギウラ,0
1791,7270002004016,登記記録の閉鎖等,0,2022-05-19,2022-05-17,有限会社河崎商店,,有限会社,鳥取県,鳥取市,気高町酒津７９５番地１,,31,201,6890217,,,2022-05-17,清算の結了等,,,2015-10-05,1,,,,,カワサキショウテン,0
1792,7280001007134,登記記録の閉鎖等,0,2022-05-19,2022-05-17,株式会社ディー・イー・エス,,株式会社,島根県,松江市,殿町１１１番地,,32,201,6900887,,,2022-05-17,合併による解散等,3240001036479,令和４年５月２日広島県安芸郡府中町新地１番１４号デルタ工業株式会社（3240001036479）に合併し解散,2016-01-22,1,,,,,ディーイーエス,0
1811,7340002023859,登記記録の閉鎖等,0,2022-05-19,2022-05-17,有限会社南九エレベーター,,有限会社,鹿児島県,枕崎市,大塚北町２５５番地,,46,204,8980026,,,2022-05-17,清算の結了等,,,2015-10-05,1,,,,,ナンキュウエレベーター,0
1818,7370002004138,登記記録の閉鎖等,0,2022-05-19,2022-05-13,有限会社養命堂,,有限会社,宮城県,仙台市太白区,長町南３丁目３３番３３号,,04,104,9820012,,,2022-05-13,清算の結了等,,,2015-10-05,1,,,,,ヨウメイドウ,0
1822,7380002000268,登記記録の閉鎖等,0,2022-05-19,2022-05-16,有限会社阿部逸衛商店,,有限会社,福島県,福島市,荒井字荷渡１２番地,,07,201,9602156,,,2022-05-16,清算の結了等,,,2015-10-05,1,,,,,アベイツエショウテン,0
1845,7430003008759,登記記録の閉鎖等,0,2022-05-19,2022-05-02,合同会社マスカレード,,合同会社,北海道,札幌市清田区,清田一条２丁目５番６２号,,01,110,0040841,,,2022-05-02,合併による解散等,8430003007818,令和４年５月１日札幌市清田区清田一条二丁目５番６２号株式会社ユニオンセイバー（8430003007818）に合併し解散,2017-10-11,1,,,,,マスカレード,0
1855,8010001145166,登記記録の閉鎖等,0,2022-05-19,2022-04-07,ＰＳＴ株式会社,,株式会社,神奈川県,横浜市中区,山下町２番地産業貿易センタービル９０５号室,,14,104,2310023,,,2022-04-07,合併による解散等,7020001138756,令和４年４月１日神奈川県横浜市中区山下町２番地産業貿易センタービル９０５号室ＰＳＴ株式会社（7020001138756）に合併し解散,2015-10-05,1,,,,,ピーエスティー,0
1879,8010601048495,登記記録の閉鎖等,0,2022-05-19,2022-04-13,株式会社ブルケン松山,,株式会社,愛媛県,松山市,竹原２丁目３番１０号,,38,201,7900053,,,2022-04-13,合併による解散等,3490001004312,令和４年４月１日高知市萩町一丁目７番２１号株式会社ブルケン四国（3490001004312）に合併し解散,2015-10-05,1,,,,,ブルケンマツヤマ,0
1881,8010902000618,登記記録の閉鎖等,0,2022-05-19,2022-05-16,有限会社あすの星進学会,,有限会社,東京都,世田谷区,成城８丁目３０番２７号,,13,112,1570066,,,2022-05-16,清算の結了等,,,2015-10-05,1,,,,,アスノホシシンガクカイ,0
1900,8011102011034,登記記録の閉鎖等,0,2022-05-19,2022-05-13,有限会社文昭,,有限会社,東京都,杉並区,善福寺４丁目１９番１１号,,13,115,1670041,,,2022-05-13,清算の結了等,,,2015-10-05,1,,,,,ブンショウ,0
1903,8011301026254,登記記録の閉鎖等,0,2022-05-19,2022-05-13,ＳＨＵＧ　Ｖｉｄｅｏ　Ｍａｒｋｅｔｉｎｇ株式会社,,株式会社,東京都,杉並区,松庵１丁目１９番５号,,13,115,1670054,,,2022-05-13,清算の結了等,,,2020-09-28,1,,,,,シュグビデオマーケティング,0
1907,8011505000278,登記記録の閉鎖等,0,2022-05-19,2022-04-14,天理教西十条分教会,00056049,その他の設立登記法人,東京都,北区,西ケ原４丁目３５番７号,,13,117,1140024,,,2022-04-14,合併による解散等,8011505000253,令和４年４月１４日東京都北区滝野川一丁目８６番１号天理教麹町大教会（8011505000253）に合併し解散,2015-10-05,1,,,,,テンリキョウニシジュウジョウブンキョウカイ,0
1911,8012401019593,登記記録の閉鎖等,0,2022-05-19,2022-05-13,ＧＡＥ株式会社,,株式会社,東京都,府中市,武蔵台１丁目３５番地の１０,,13,206,1830042,,,2022-05-13,清算の結了等,,,2015-10-05,1,,,,,ジーエイイー,0
1921,8020001012282,登記記録の閉鎖等,0,2022-05-19,2022-05-11,株式会社ワールド・ジェイ・エヌ・イー,,株式会社,神奈川県,横浜市青葉区,寺家町１６８番地,,14,117,2270031,,,2022-05-11,清算の結了等,,,2015-10-05,1,,,,,ワールドジェイエヌイー,0
1933,8020005010472,登記記録の閉鎖等,0,2022-05-19,2022-05-11,特定非営利活動法人シェークハンド,,その他の設立登記法人,神奈川県,横浜市都筑区,川和町１８０２番地１サニーヒル１０１,,14,118,2240057,,,2022-05-11,清算の結了等,,,2015-10-05,1,,,,,シェークハンド,0
1967,8050002020562,登記記録の閉鎖等,0,2022-05-19,2022-05-13,有限会社ストローク,,有限会社,茨城県,下妻市,下妻乙８９２番地１,,08,210,3040067,,,2022-05-13,清算の結了等,,,2015-10-05,1,,,,,ストローク,0
1970,8060001006561,登記記録の閉鎖等,0,2022-05-19,2022-05-16,株式会社和味,,株式会社,栃木県,宇都宮市,雀の宮３丁目２番２０号,,09,201,3210132,,,2022-05-16,清算の結了等,,,2015-10-05,1,,,,,ナゴミ,0
1982,8100003005879,登記記録の閉鎖等,0,2022-05-19,2022-05-17,ゴークライム合同会社,,合同会社,長野県,松本市,大字里山辺３５１０番地１パルデンスＭ－Ｃ２０３号室,,20,202,3900221,,,2022-05-17,清算の結了等,,,2020-11-17,1,,,,,ゴークライム,0
1983,8110001012372,登記記録の閉鎖等,0,2022-05-19,2022-05-12,株式会社Ｓａｂ・ｓｔａｇｅ,,株式会社,新潟県,五泉市,南本町３丁目７番４号,,15,218,9591836,,,2022-05-12,清算の結了等,,,2015-10-05,1,,,,,サブステージ,0
1997,8120002046906,登記記録の閉鎖等,0,2022-05-19,2022-05-18,有限会社Ｓｙｎｅｒｇｙ　Ｓｙｓｔｅｍ,,有限会社,大阪府,大阪市中央区,谷町４丁目８番１２－１００３号,,27,128,5400012,,,2022-05-18,清算の結了等,,,2015-10-05,1,,,,,,0
2006,8120005000001,登記記録の閉鎖等,0,2022-05-19,2022-04-19,天理教安明分教会,,その他の設立登記法人,大阪府,大阪市旭区,赤川４丁目２９番３０号,,27,117,5350005,,,2022-04-19,合併による解散等,5122005000628,令和４年４月１１日大阪府東大阪市昭和町１４番１１号天理教河北分教会（5122005000628）に合併し解散,2015-10-05,1,,,,,,0
2010,8120102002560,登記記録の閉鎖等,0,2022-05-19,2022-05-17,有限会社スペーストロン,,有限会社,大阪府,堺市中区,土師町２丁３３番３４号,,27,142,5998238,,,2022-05-17,清算の結了等,,,2015-10-05,1,,,,,スペーストロン,0
2014,8122005000724,登記記録の閉鎖等,0,2022-05-19,2022-04-12,天理教明六十分教会,,その他の設立登記法人,大阪府,東大阪市,吉田３丁目１１番１０号,,27,227,5780924,,,2022-04-12,合併による解散等,4120005000541,令和４年４月５日大阪市東成区大今里二丁目２１番１１号天理教明六分教会（4120005000541）に合併し解散,2015-10-05,1,,,,,,0
2037,8180003012967,登記記録の閉鎖等,0,2022-05-19,2022-05-13,合資会社春陽堂,,合資会社,愛知県,知多郡東浦町,大字緒川字家下３番地の２,,23,442,4702102,,,2022-05-13,清算の結了等,,,2015-10-05,1,,,,,シュンヨウドウ,0
2054,8260002030210,登記記録の閉鎖等,0,2022-05-19,2022-05-18,有限会社ホームトップ,,有限会社,岡山県,津山市,東新町９２番地,,33,203,7080832,,,2022-05-18,清算の結了等,,,2015-10-05,1,,,,,,0
2066,8300001006999,登記記録の閉鎖等,0,2022-05-19,2022-05-16,光房ヨシダ株式会社,,株式会社,佐賀県,佐賀市,巨勢町大字牛島４３４番地５,,41,201,8400008,,,2022-05-16,清算の結了等,,,2015-10-05,1,,,,,コウボウヨシダ,0
2077,8390002001479,登記記録の閉鎖等,0,2022-05-19,2022-05-13,有限会社スズキコーポレーション,,有限会社,山形県,山形市,本町２丁目３番９号,,06,201,9900043,,,2022-05-13,清算の結了等,,,2015-10-05,1,,,,,スズキコーポレーション,0
2080,8400501000748,登記記録の閉鎖等,0,2022-05-19,2022-05-16,株式会社村上自動車整備工場,,株式会社,岩手県,一関市,大東町摺沢字八幡前４４番地１,00085489,03,209,0290523,,,2022-05-16,清算の結了等,,,2015-10-05,1,,,,,ムラカミジドウシャセイビコウジョウ,0
2081,8410001003309,登記記録の閉鎖等,0,2022-05-19,2022-04-28,株式会社伊藤建設,,株式会社,秋田県,秋田市,山王２丁目１０番１２号,,05,201,0100951,,,2022-04-28,清算の結了等,,,2022-04-08,1,,,,,イトウケンセツ,0
2084,8430001003728,登記記録の閉鎖等,0,2022-05-19,2022-05-09,株式会社かたおか,,株式会社,北海道,札幌市北区,新琴似一条１３丁目４番３号,,01,102,0010901,,,2022-05-09,清算の結了等,,,2015-10-05,1,,,,,カタオカ,0
2105,9010001083596,登記記録の閉鎖等,0,2022-05-19,2022-05-02,株式会社マルホ流通ネット,,株式会社,東京都,千代田区,飯田橋４丁目１番１１号,,13,101,1020072,,,2022-05-02,合併による解散等,4010001029240,令和４年５月１日東京都千代田区飯田橋四丁目１番１１号株式会社帆栄物流（4010001029240）に合併し解散,2015-10-05,1,,,,,マルホリュウツウネット,0
2106,9010001104187,登記記録の閉鎖等,0,2022-05-19,2022-05-13,株式会社イチレイヨン・ドットコム,,株式会社,東京都,世田谷区,太子堂２丁目１４番２０号,,13,112,1540004,,,2022-05-13,清算の結了等,,,2015-10-05,1,,,,,イチレイヨンドットコム,0
2109,9010001178652,登記記録の閉鎖等,0,2022-05-19,2022-05-12,株式会社ＤＳＫ,,株式会社,神奈川県,横浜市中区,本牧原１９番１－１１０８号,,14,104,2310821,,,2022-05-12,清算の結了等,,,2016-10-03,1,,,,,ディーエスケー,0
2117,9010003022016,登記記録の閉鎖等,0,2022-05-19,2022-05-02,ＲＩＣＯ合同会社,,合同会社,東京都,千代田区,神田駿河台１丁目７番地１－１３０１,,13,101,1010062,,,2022-05-02,清算の結了等,,,2015-10-05,1,,,,,リコ,0
2137,9010901020310,登記記録の閉鎖等,0,2022-05-19,2022-05-12,株式会社ディーケーオフィス,,株式会社,東京都,世田谷区,赤堤４丁目１２番２号,,13,112,1560044,,,2022-05-12,清算の結了等,,,2015-10-05,1,,,,,ディーケーオフィス,0
2165,9011501001205,登記記録の閉鎖等,0,2022-05-19,2022-05-16,株式会社協電社,,株式会社,東京都,北区,志茂５丁目１５番１０号,,13,117,1150042,,,2022-05-16,清算の結了等,,,2015-10-05,1,,,,,キョウデンシャ,0
2166,9011501005833,登記記録の閉鎖等,0,2022-05-19,2022-05-16,大室木工株式会社,,株式会社,東京都,荒川区,西尾久７丁目２７番１３号,,13,118,1160011,,,2022-05-16,清算の結了等,,,2015-10-05,1,,,,,オオムロモッコウ,0
2187,9020001037114,登記記録の閉鎖等,0,2022-05-19,2022-05-16,ＩＥＯ機構株式会社,,株式会社,神奈川県,大和市,西鶴間４丁目１番５号日神パレス６０２号,,14,213,2420005,,,2022-05-16,清算の結了等,,,2015-10-05,1,,,,,アイイーオーキコウ,0
2196,9020002079980,登記記録の閉鎖等,0,2022-05-19,2022-05-11,有限会社石山,,有限会社,神奈川県,横浜市港北区,大倉山６丁目３６番１－７０５号,,14,109,2220037,,,2022-05-11,清算の結了等,,,2015-10-05,1,,,,,イシヤマ,0
2211,9030001131667,登記記録の閉鎖等,0,2022-05-19,2022-05-12,株式会社フレンドサービス,,株式会社,埼玉県,さいたま市桜区,大字塚本１７１番地,,11,106,3380816,,,2022-05-12,清算の結了等,,,2019-06-27,1,,,,,フレンドサービス,0
2235,9060001026708,登記記録の閉鎖等,0,2022-05-19,2022-05-13,株式会社Ｆ＆Ｔ　ＪＡＰＡＮ,,株式会社,栃木県,宇都宮市,峰２丁目３番１２号,,09,201,3210942,,,2022-05-13,清算の結了等,,,2015-10-05,1,,,,,エフアンドテイジヤパン,0
2263,9120901036329,登記記録の閉鎖等,0,2022-05-19,2022-04-19,株式会社フォーサイト,,株式会社,大阪府,吹田市,津雲台５丁目８番２号,,27,205,5650862,,,2022-04-19,合併による解散等,7120001078208,令和４年３月３１日大阪市中央区内平野町二丁目４番７号株式会社共立不動産（7120001078208）に合併し解散,2016-01-04,1,,,,,,0
2265,9122005000723,登記記録の閉鎖等,0,2022-05-19,2022-04-12,天理教明五十五分教会,,その他の設立登記法人,大阪府,東大阪市,太平寺２丁目６番１１号,,27,227,5770844,,,2022-04-12,合併による解散等,3120005000518,令和４年４月４日大阪市生野区小路一丁目１６番１５号天理教明四十三分教会（3120005000518）に合併し解散,2015-10-05,1,,,,,テンリキョウメイゴジュウゴブンキョウカイ,0
2266,9130001019943,登記記録の閉鎖等,0,2022-05-19,2022-05-16,ウイルビー株式会社,,株式会社,京都府,京都市中京区,丸太町通衣棚西入る玉植町２２２番地の２,,26,104,6040000,,,2022-05-16,清算の結了等,,,2015-10-05,1,,,,,ウイルビー,0
2306,9190002019631,登記記録の閉鎖等,0,2022-05-19,2022-05-16,有限会社オフィスツー・ワン,,有限会社,三重県,四日市市,大矢知町２０７６番地の１２,,24,202,5108034,,,2022-05-16,清算の結了等,,,2015-10-05,1,,,,,オフィスツーワン,0
2320,9240005005978,登記記録の閉鎖等,0,2022-05-19,2022-04-15,天理教太廣分教会,00001928,その他の設立登記法人,広島県,呉市,東片山町１番６号,,34,202,7370805,,,2022-04-15,合併による解散等,8240005010954,令和４年４月１５日広島県尾道市向島町字新富浜１６０５８番地の６９天理教吉満分教会（8240005010954）に合併し解散,2015-10-05,1,,,,,,0
2343,9330001018347,登記記録の閉鎖等,0,2022-05-19,2022-04-11,シーアイアグロ株式会社,,株式会社,宮崎県,宮崎市,佐土原町下田島１０１３５,,45,201,8800211,,,2022-04-11,合併による解散等,1430001017858,令和４年４月１日札幌市中央区北二条東二十丁目６番地株式会社ヨコビ（1430001017858）に合併し解散,2015-10-05,1,,,,,シーアイアグロ,0
2353,9360001002042,登記記録の閉鎖等,0,2022-05-19,2022-05-02,株式会社みなと交通,,株式会社,沖縄県,那覇市,港町２丁目７番７号６階,,47,201,9000001,,,2022-05-02,清算の結了等,,,2015-10-05,1,,,,,ミナトコウツウ,0
2364,9370003001446,登記記録の閉鎖等,0,2022-05-19,2022-05-16,耐環境ハイブリット燃料生成装置プロジェクト合同会社,,合同会社,宮城県,仙台市青葉区,折立１丁目１４番９号,,04,101,9820261,,,2022-05-16,清算の結了等,,,2015-10-05,1,,,,,タイカンキョウハイブリットネンリョウセイセイソウチプロジェクト,0
2367,9380002013342,登記記録の閉鎖等,0,2022-05-19,2022-05-16,有限会社エンドーコーポレーション,,有限会社,福島県,郡山市,大槻町字下大谷５０番地の２,,07,203,9630201,,,2022-05-16,清算の結了等,,,2015-10-05,1,,,,,,0
2387,9450002009754,登記記録の閉鎖等,0,2022-05-19,2022-04-15,道北カンリ株式会社,,株式会社,北海道,名寄市,字徳田２４８番地１８,,01,221,0960071,,,2022-04-15,合併による解散等,7450002009748,令和４年４月１５日北海道名寄市字徳田２４８番地１８岩守産業株式会社（7450002009748）に合併し解散,2015-10-05,1,,,,,ドウホクカンリ,0
