sequenceNumber,corporateNumber,process,correct,updateDate,changeDate,name,nameImageId,kind,prefectureName,cityName,streetNumber,addressImageId,prefectureCode,cityCode,postCode,addressOutside,addressOutsideImageId,closeDate,closeCause,successorCorporateNumber,changeCause,assignmentDate,latest,enName,enPrefectureName,enCityName,enAddressOutside,furigana,hihyoji
53,1010905002568,登記記録の閉鎖等,0,2023-07-11,2023-06-26,一般財団法人市川森一脚本賞財団,,その他の設立登記法人,東京都,港区,芝浦２丁目１４番１３－６０２号加瀬ビル１６１,,13,103,1080023,,,2023-06-26,清算の結了等,,,2015-10-05,1,,,,,イチカワシンイチキャクホンショウザイダン,0
55,1011001097817,登記記録の閉鎖等,0,2023-07-11,2023-07-06,つむぐ工務店株式会社,,株式会社,東京都,渋谷区,神宮前２丁目１３番７号,,13,113,1500001,,,2023-07-06,清算の結了等,,,2015-10-05,1,,,,,ツムグコウムテン,0
91,1020001043053,登記記録の閉鎖等,0,2023-07-11,2023-07-03,株式会社サイエンス・ロード,,株式会社,神奈川県,横浜市旭区,南本宿町６８番地８２,,14,112,2410833,,,2023-07-03,清算の結了等,,,2015-10-05,1,,,,,サイエンスロード,0
98,1020003020199,登記記録の閉鎖等,0,2023-07-11,2023-06-30,合同会社ノクターン,,合同会社,神奈川県,横浜市中区,山下町２１１番地８ＡＬＰＳ山下町３０３号室,,14,104,2310023,,,2023-06-30,清算の結了等,,,2021-07-19,1,,,,,ノクターン,0
107,1021002027771,登記記録の閉鎖等,0,2023-07-11,2023-07-03,有限会社タイチ工務店,,有限会社,神奈川県,相模原市南区,大野台５丁目１４番２７－６号,,14,153,2520331,,,2023-07-03,清算の結了等,,,2015-10-05,1,,,,,タイチコウムテン,0
111,1021002059518,登記記録の閉鎖等,0,2023-07-11,2023-07-03,有限会社プライムコンタクト,,有限会社,神奈川県,平塚市,根坂間２１８番地の７,,14,203,2540904,,,2023-07-03,清算の結了等,,,2015-10-05,1,,,,,,0
122,1030002086199,登記記録の閉鎖等,0,2023-07-11,2023-06-22,有限会社さくらテクニカル,,有限会社,埼玉県,越谷市,東越谷２丁目１８番地２０,,11,222,3430023,,,2023-06-22,清算の結了等,,,2015-10-05,1,,,,,サクラテクニカル,0
131,1040001085325,登記記録の閉鎖等,0,2023-07-11,2023-06-22,株式会社オアシスワークス,,株式会社,千葉県,鎌ケ谷市,新鎌ケ谷３丁目４番６号,,12,224,2730107,,,2023-06-22,合併による解散等,4040001021599,令和５年５月３１日千葉県鎌ケ谷市新鎌ケ谷三丁目４番６号株式会社オアシス（4040001021599）に合併し解散,2015-10-05,1,,,,,オアシスワークス,0
137,1040002065540,登記記録の閉鎖等,0,2023-07-11,2023-06-23,有限会社花通,,有限会社,千葉県,四街道市,和良比２７６番地１４１,,12,228,2840044,,,2023-06-23,清算の結了等,,,2015-10-05,1,,,,,ハナツウ,0
148,1050002044080,登記記録の閉鎖等,0,2023-07-11,2023-07-03,有限会社小杉産業不動産,,有限会社,茨城県,桜川市,明日香２丁目３２番地,,08,231,3091216,,,2023-07-03,清算の結了等,,,2015-10-05,1,,,,,コスギサンギョウフドウサン,0
152,1070001016467,登記記録の閉鎖等,0,2023-07-11,2023-07-07,株式会社東群馬,,株式会社,群馬県,桐生市,巴町１丁目１１１６番地の１９,,10,203,3760021,,,2023-07-07,清算の結了等,,,2015-10-05,1,,,,,ヒガシグンマ,0
161,1080103002208,登記記録の閉鎖等,0,2023-07-11,2023-07-04,合同会社スポーツ開発研究所,,合同会社,静岡県,裾野市,深良２７９０番地の５,,22,220,4101102,,,2023-07-04,清算の結了等,,,2020-09-01,1,,,,,スポーツカイハツケンキュウジョ,0
189,1120101035634,登記記録の閉鎖等,0,2023-07-11,2023-07-03,株式会社ＧｒａｎｄＡＲＴ,,株式会社,大阪府,藤井寺市,小山新町９番１５号,,27,226,5830031,,,2023-07-03,合併による解散等,8120101032641,令和５年７月１日大阪府藤井寺市小山新町９番１５号株式会社アート，コーポレーション（8120101032641）に合併し解散,2015-10-05,1,,,,,グランドアート,0
203,1122002002960,登記記録の閉鎖等,0,2023-07-11,2023-07-10,有限会社田中建築設計事務所,,有限会社,大阪府,東大阪市,森河内西２丁目１４番４号,,27,227,5770061,,,2023-07-10,清算の結了等,,,2015-10-05,1,,,,,タナカケンチクセッケイジムショ,0
205,1130002029577,登記記録の閉鎖等,0,2023-07-11,2023-06-29,有限会社浦西建築,,有限会社,京都府,相楽郡精華町,大字東畑小字前坂６６番地,,26,366,6190235,,,2023-06-29,清算の結了等,,,2015-10-05,1,,,,,ウラニシケンチク,0
207,1140001010157,登記記録の閉鎖等,0,2023-07-11,2023-07-03,みなとビジネスサービス株式会社,,株式会社,兵庫県,神戸市西区,竹の台６丁目２番地,,28,111,6512274,,,2023-07-03,清算の結了等,,,2015-10-05,1,,,,,ミナトビジネスサービス,0
211,1140001083005,登記記録の閉鎖等,0,2023-07-11,2023-07-03,株式会社安楽工務店,,株式会社,兵庫県,宝塚市,安倉中５丁目１４番３号,,28,214,6650822,,,2023-07-03,清算の結了等,,,2015-10-05,1,,,,,アンラクコウムテン,0
216,1140002007532,登記記録の閉鎖等,0,2023-07-11,2023-07-03,株式会社Ａ・Ｒ・Ｏ・コーポレーション,,株式会社,兵庫県,神戸市須磨区,板宿町３丁目１２番５８号,,28,107,6540009,,,2023-07-03,合併による解散等,3140001009585,令和５年７月１日神戸市中央区御幸通三丁目１番８号株式会社トータル財務プラン（3140001009585）に合併し解散,2015-10-05,1,,,,,エーアールオーコーポレーション,0
234,1180005018548,登記記録の閉鎖等,0,2023-07-11,2023-06-29,一般社団法人イントロデュースアソシエーション,,その他の設立登記法人,愛知県,名古屋市中区,上前津２丁目４番６号伊正ビル東館２階,,23,106,4600013,,,2023-06-29,清算の結了等,,,2019-12-02,1,,,,,イントロデュースアソシエーション,0
246,1230001000074,登記記録の閉鎖等,0,2023-07-11,2023-07-10,旭木材株式会社,,株式会社,富山県,富山市,岩瀬諏訪町５８番地,,16,201,9318377,,,2023-07-10,清算の結了等,,,2015-10-05,1,,,,,アサヒモクザイ,0
258,1260001009897,登記記録の閉鎖等,0,2023-07-11,2023-07-04,株式会社ベルコム,,株式会社,岡山県,岡山市南区,福富西１丁目１７番３－３号,,33,104,7028031,,,2023-07-04,清算の結了等,,,2015-10-05,1,,,,,ベルコム,0
272,1290802005803,登記記録の閉鎖等,0,2023-07-11,2023-07-04,有限会社豊和産業,,有限会社,福岡県,北九州市小倉南区,葉山町２丁目４番８号,,40,107,8020837,,,2023-07-04,清算の結了等,,,2015-10-05,1,,,,,ホウワサンギョウ,0
291,1380002030659,登記記録の閉鎖等,0,2023-07-11,2023-07-03,有限会社メープルかつらお,,有限会社,福島県,双葉郡葛尾村,大字落合字西ノ内１８番地,,07,548,9791602,,,2023-07-03,清算の結了等,,,2015-10-05,1,,,,,メープルカツラオ,0
306,1440002002024,登記記録の閉鎖等,0,2023-07-11,2023-07-03,株式会社シグマ工業,,株式会社,北海道,函館市,浅野町５番３号,,01,202,0400076,,,2023-07-03,合併による解散等,4440001001841,令和５年７月１日北海道函館市浅野町５番３号原工業株式会社（4440001001841）に合併し解散,2015-10-05,1,,,,,シグマコウギョウ,0
316,1500002017949,登記記録の閉鎖等,0,2023-07-11,2023-07-07,有限会社梁原工業,00008123,有限会社,愛媛県,今治市,波方町樋口甲２２００番地１０６,00008124,38,202,7992102,,,2023-07-07,清算の結了等,,,2015-10-05,1,,,,,ヤナハラコウギョウ,0
336,2010005026789,登記記録の閉鎖等,0,2023-07-11,2023-07-03,一般社団法人日本ステビア普及協会,,その他の設立登記法人,東京都,中央区,東日本橋３丁目５番９号五東ビル４階,,13,102,1030004,,,2023-07-03,清算の結了等,,,2017-04-28,1,,,,,ニホンステビアフキュウキョウカイ,0
346,2010501021079,登記記録の閉鎖等,0,2023-07-11,2023-07-03,株式会社エスティシー,,株式会社,東京都,台東区,浅草橋５丁目２９番８号,,13,106,1110053,,,2023-07-03,合併による解散等,4010501024971,令和５年７月１日東京都台東区浅草橋五丁目２９番８号株式会社シモジマ（4010501024971）に合併し解散,2015-10-05,1,,,,,エスティシー,0
363,2011001123167,登記記録の閉鎖等,0,2023-07-11,2023-07-03,株式会社Ｃａ　Ｄｅｓｉｇｎ,,株式会社,東京都,渋谷区,渋谷２丁目２４番１２号,,13,113,1500002,,,2023-07-03,清算の結了等,,,2018-07-13,1,,,,,シーエーデザイン,0
381,2011503002488,登記記録の閉鎖等,0,2023-07-11,2023-07-05,合同会社ムソウ,,合同会社,東京都,武蔵野市,境２丁目２２番２５号,,13,203,1800022,,,2023-07-05,清算の結了等,,,2015-10-05,1,,,,,ムソウ,0
405,2020001120099,登記記録の閉鎖等,0,2023-07-11,2023-06-30,株式会社ハートタンク,,株式会社,神奈川県,横浜市西区,岡野２丁目１１番２６－２２２号,,14,103,2200073,,,2023-06-30,清算の結了等,,,2017-02-27,1,,,,,ハートタンク,0
413,2021001064914,登記記録の閉鎖等,0,2023-07-11,2023-07-03,株式会社ダブルエスカンパニー,,株式会社,神奈川県,藤沢市,片瀬海岸１丁目７番１－４０１号,,14,205,2510035,,,2023-07-03,合併による解散等,5021001002722,令和５年６月１日神奈川県藤沢市片瀬海岸一丁目７番１号株式会社デューク・インターナショナル（5021001002722）に合併し解散,2018-06-05,1,,,,,ダブルエスカンパニー,0
419,2030001049429,登記記録の閉鎖等,0,2023-07-11,2023-06-21,株式会社日本システム情報,,株式会社,埼玉県,和光市,新倉３丁目１番６０－３０６号,,11,229,3510115,,,2023-06-21,清算の結了等,,,2015-10-05,1,,,,,ニホンシステムジョウホウ,0
420,2030001133843,登記記録の閉鎖等,0,2023-07-11,2023-06-21,Ｃｈａｌｌｅｎｇｅ株式会社,,株式会社,埼玉県,新座市,栗原６丁目２番６号,,11,230,3520035,,,2023-06-21,清算の結了等,,,2019-11-21,1,,,,,チャレンジ,0
422,2030002031311,登記記録の閉鎖等,0,2023-07-11,2023-06-19,有限会社見沢商店,,有限会社,埼玉県,所沢市,東所沢５丁目１０番地１２,,11,208,3590021,,,2023-06-19,清算の結了等,,,2015-10-05,1,,,,,ミサワショウテン,0
432,2040003013472,登記記録の閉鎖等,0,2023-07-11,2023-06-23,ドテクノジャパン合同会社,,合同会社,千葉県,千葉市花見川区,横戸町５－４６,,12,102,2620001,,,2023-06-23,清算の結了等,,,2019-06-05,1,,,,,ドテクノジャパン,0
434,2050001013589,登記記録の閉鎖等,0,2023-07-11,2023-06-30,株式会社島屋百貨店,,株式会社,茨城県,下妻市,本宗道４７番地,,08,210,3040813,,,2023-06-30,清算の結了等,,,2015-10-05,1,,,,,シマヤヒャッカテン,0
445,2080102017701,登記記録の閉鎖等,0,2023-07-11,2023-07-06,有限会社マルイコーポレーション,,有限会社,静岡県,富士宮市,弓沢町５４０番地,,22,207,4180073,,,2023-07-06,清算の結了等,,,2015-10-05,1,,,,,マルイコーポレーション,0
446,2080401017170,登記記録の閉鎖等,0,2023-07-11,2023-07-04,株式会社ケイビーエフ,,株式会社,静岡県,掛川市,中３１０５番地,,22,213,4371405,,,2023-07-04,清算の結了等,,,2015-10-05,1,,,,,ケイビーエフ,0
458,2120001062736,登記記録の閉鎖等,0,2023-07-11,2023-07-05,北大阪サンケイ新聞販賣株式会社,,株式会社,大阪府,大阪市北区,梅田２丁目４番１５号,,27,127,5300001,,,2023-07-05,清算の結了等,,,2015-10-05,1,,,,,キタオオサカサンケイシンブンハンバイ,0
459,2120001098862,登記記録の閉鎖等,0,2023-07-11,2023-07-03,株式会社カツムラ,,株式会社,大阪府,大阪市中央区,南本町２丁目４番１０号,,27,128,5410054,,,2023-07-03,清算の結了等,,,2015-10-05,1,,,,,カツムラ,0
461,2120001140541,登記記録の閉鎖等,0,2023-07-11,2023-07-03,株式会社日本メディカル研究所,,株式会社,大阪府,大阪市淀川区,西中島７丁目９番５号,,27,123,5320011,,,2023-07-03,合併による解散等,4120001121473,令和５年７月１日大阪市淀川区西中島七丁目９番５号株式会社咲楽（4120001121473）に合併し解散,2015-10-05,1,,,,,ニホンメディカルケンキュウジョ,0
478,2120101025262,登記記録の閉鎖等,0,2023-07-11,2023-07-03,シンエイ産業株式会社,,株式会社,大阪府,松原市,三宅中３丁目２番３２号,,27,217,5800046,,,2023-07-03,清算の結了等,,,2015-10-05,1,,,,,シンエイサンギョウ,0
487,2140001007887,登記記録の閉鎖等,0,2023-07-11,2023-07-05,株式会社サクラ企業,,株式会社,兵庫県,神戸市中央区,新港町８番２号,,28,110,6500041,,,2023-07-05,清算の結了等,,,2015-10-05,1,,,,,サクラキギョウ,0
488,2140001030154,登記記録の閉鎖等,0,2023-07-11,2023-07-03,株式会社エス．オー．エンタテインメント,,株式会社,兵庫県,芦屋市,山手町２０番１７号,,28,206,6590096,,,2023-07-03,合併による解散等,4140001000766,令和５年７月１日兵庫県芦屋市山手町２０番１７号株式会社丸川（4140001000766）に合併し解散,2015-10-05,1,,,,,エスオーエンタテインメント,0
489,2140001059466,登記記録の閉鎖等,0,2023-07-11,2023-07-04,株式会社ジュントスコーポレーション,,株式会社,兵庫県,姫路市,白浜町宇佐崎中１丁目２２番地,,28,201,6728021,,,2023-07-04,清算の結了等,,,2015-10-05,1,,,,,ジュントスコーポレーション,0
490,2140001065282,登記記録の閉鎖等,0,2023-07-11,2023-07-03,大匠設計監理株式会社,,株式会社,兵庫県,神崎郡福崎町,南田原３２０番地,,28,443,6792203,,,2023-07-03,清算の結了等,,,2015-10-05,1,,,,,ダイショウセッケイカンリ,0
510,2180002001200,登記記録の閉鎖等,0,2023-07-11,2023-07-04,有限会社西脇組,,有限会社,愛知県,名古屋市守山区,菱池町２２番８号,,23,113,4630045,,,2023-07-04,清算の結了等,,,2015-10-05,1,,,,,ニシワキグミ,0
511,2180003012857,登記記録の閉鎖等,0,2023-07-11,2023-07-03,合資会社間瀬鉄工所,,合資会社,愛知県,半田市,亀崎町５丁目１２３番地,,23,205,4750023,,,2023-07-03,清算の結了等,,,2015-10-05,1,,,,,マセテッコウジョ,0
523,2210001010264,登記記録の閉鎖等,0,2023-07-11,2023-06-30,株式会社健美,,株式会社,福井県,大野市,庄林第２３号１番地４,,18,205,9120006,,,2023-06-30,清算の結了等,,,2015-10-05,1,,,,,ケンビ,0
524,2220001015072,登記記録の閉鎖等,0,2023-07-11,2023-07-06,株式会社ピシュラン,,株式会社,石川県,金沢市,松村町ヌ２１５番地,,17,201,9200347,,,2023-07-06,清算の結了等,,,2015-10-05,1,,,,,ピシュラン,0
572,2410001004130,登記記録の閉鎖等,0,2023-07-11,2023-07-03,株式会社モミセン,,株式会社,秋田県,男鹿市,船川港船川字海岸通り二号２の２１,,05,206,0100511,,,2023-07-03,清算の結了等,,,2015-10-05,1,,,,,モミセン,0
573,2410002004897,登記記録の閉鎖等,0,2023-07-11,2023-07-04,有限会社森元ベルコ葬祭,,有限会社,秋田県,秋田市,旭南１丁目２番２１号,,05,201,0100925,,,2023-07-04,清算の結了等,,,2015-10-05,1,,,,,モリモトベルコソウサイ,0
586,2430005013456,登記記録の閉鎖等,0,2023-07-11,2023-06-27,特定非営利活動法人北海道ダッタンソバ生産者協議会,,その他の設立登記法人,北海道,札幌市中央区,北三条西２８丁目２番１号,,01,101,0640823,,,2023-06-27,清算の結了等,,,2018-07-24,1,,,,,ホッカイドウダッタンソバセイサンシャキョウギカイ,0
589,2460005001268,登記記録の閉鎖等,0,2023-07-11,2023-07-07,特定非営利活動法人熊牛原野,,その他の設立登記法人,北海道,川上郡標茶町,字熊牛原野十二線東４番地の３,,01,664,0883145,,,2023-07-07,清算の結了等,,,2015-10-05,1,,,,,クマウシゲンヤ,0
590,2470002018297,登記記録の閉鎖等,0,2023-07-11,2023-07-03,有限会社ウエタニ,,有限会社,香川県,東かがわ市,馬篠８８９番地１,,37,207,7692520,,,2023-07-03,清算の結了等,,,2015-10-05,1,,,,,ウエタニ,0
593,3010001027682,登記記録の閉鎖等,0,2023-07-11,2023-06-30,富士整機工業株式会社,,株式会社,東京都,千代田区,神田松永町１７番地,,13,101,1010023,,,2023-06-30,清算の結了等,,,2015-10-05,1,,,,,フジセイキコウギョウ,0
595,3010001169921,登記記録の閉鎖等,0,2023-07-11,2023-07-04,株式会社カショウ,,株式会社,東京都,渋谷区,代々木２丁目３８番３－１０２号,,13,113,1510053,,,2023-07-04,清算の結了等,,,2015-10-05,1,,,,,カショウ,0
622,3011001040618,登記記録の閉鎖等,0,2023-07-11,2023-07-10,株式会社ＳＳＩ,,株式会社,東京都,渋谷区,猿楽町５番１４号,,13,113,1500033,,,2023-07-10,清算の結了等,,,2015-10-05,1,,,,,エスエスアイ,0
624,3011001115691,登記記録の閉鎖等,0,2023-07-11,2023-07-06,株式会社ロデア,,株式会社,東京都,渋谷区,渋谷２丁目５－１４ミュゼ表参道２０１,,13,113,1500002,,,2023-07-06,清算の結了等,,,2017-04-06,1,,,,,ロデア,0
643,3011301011954,登記記録の閉鎖等,0,2023-07-11,2023-07-03,株式会社共栄,,株式会社,東京都,杉並区,高井戸西２丁目１０番２号,,13,115,1680071,,,2023-07-03,合併による解散等,6011302016685,令和５年７月１日東京都杉並区高井戸西二丁目１０番２号丸武産業株式会社（6011302016685）に合併し解散,2015-10-05,1,,,,,,0
677,3020001113696,登記記録の閉鎖等,0,2023-07-11,2023-06-30,株式会社翔美,,株式会社,神奈川県,横浜市瀬谷区,宮沢３丁目１２番地９,,14,114,2460038,,,2023-06-30,清算の結了等,,,2015-11-25,1,,,,,ショウビ,0
685,3021002018083,登記記録の閉鎖等,0,2023-07-11,2023-07-03,有限会社岩崎機械彫刻工業,,有限会社,神奈川県,相模原市中央区,田名２７１０番地９,,14,152,2520244,,,2023-07-03,清算の結了等,,,2015-10-05,1,,,,,イワサキキカイチョウコクコウギョウ,0
688,3021002045359,登記記録の閉鎖等,0,2023-07-11,2023-07-03,有限会社トーヨコ建窓,,有限会社,神奈川県,海老名市,東柏ケ谷１丁目２７番１－２０２号,,14,215,2430401,,,2023-07-03,清算の結了等,,,2015-10-05,1,,,,,トーヨコケンソウ,0
699,3060002023701,登記記録の閉鎖等,0,2023-07-11,2023-06-29,有限会社三條屋,,有限会社,栃木県,那須塩原市,塩原６７８番地の２,,09,213,3292921,,,2023-06-29,清算の結了等,,,2015-10-05,1,,,,,サンジョウヤ,0
700,3070001005393,登記記録の閉鎖等,0,2023-07-11,2023-07-07,トゥモロー・ランド株式会社,,株式会社,群馬県,前橋市,紅雲町２丁目１番１６号,,10,201,3710025,,,2023-07-07,清算の結了等,,,2015-10-05,1,,,,,トゥモローランド,0
712,3100001016081,登記記録の閉鎖等,0,2023-07-11,2023-07-03,株式会社ガトーフレーズ,,株式会社,長野県,松本市,埋橋２丁目６番１号,,20,202,3900813,,,2023-07-03,合併による解散等,6100002019122,令和５年７月１日長野県松本市埋橋二丁目６番１７号サン・サント株式会社（6100002019122）に合併し解散,2015-10-05,1,,,,,ガトーフレーズ,0
718,3110002001032,登記記録の閉鎖等,0,2023-07-11,2023-06-30,有限会社薄田建設,,有限会社,新潟県,新潟市西区,流通センター４丁目１番地４,,15,107,9502031,,,2023-06-30,清算の結了等,,,2015-10-05,1,,,,,ウスダケンセツ,0
723,3120001178655,登記記録の閉鎖等,0,2023-07-11,2023-07-03,株式会社リバートラスト,,株式会社,大阪府,大阪市東住吉区,北田辺４丁目２２－６田辺ビル２階２０２号室,,27,121,5460044,,,2023-07-03,合併による解散等,9120001139346,令和５年７月１日大阪市東住吉区北田辺四丁目２２－６田辺ビル２階２０２号室株式会社ゼロファクター（9120001139346）に合併し解散,2015-10-05,1,,,,,リバートラスト,0
740,3120003017902,登記記録の閉鎖等,0,2023-07-11,2023-07-03,合同会社Ｍ‘ｓフロント實業,,合同会社,大阪府,守口市,東光町３丁目１１番９号,,27,209,5700035,,,2023-07-03,合併による解散等,5120001226222,令和５年７月１日大阪府寝屋川市八坂町１１番４号ミナ・コリーグ株式会社（5120001226222）に合併し解散,2020-08-07,1,,,,,エムズフロントジツギョウ,0
769,3160001016332,登記記録の閉鎖等,0,2023-07-11,2023-07-05,野洲自動車株式会社,,株式会社,滋賀県,野洲市,小篠原３７８番地３,,25,210,5202331,,,2023-07-05,清算の結了等,,,2015-10-05,1,,,,,ヤスジドウシャ,0
781,3180003022707,登記記録の閉鎖等,0,2023-07-11,2023-07-05,ＴＨＹ企画合同会社,,合同会社,愛知県,海部郡蟹江町,今西３丁目５０番地,,23,425,4970037,,,2023-07-05,清算の結了等,,,2021-07-09,1,,,,,ティエイチワイキカク,0
785,3180301023159,登記記録の閉鎖等,0,2023-07-11,2023-06-27,山金株式会社,,株式会社,愛知県,西尾市,西幡豆町池下７４番地,,23,213,4440703,,,2023-06-27,清算の結了等,,,2015-10-05,1,,,,,ヤマキン,0
793,3200002016780,登記記録の閉鎖等,0,2023-07-11,2023-07-05,有限会社星谷荘,,有限会社,岐阜県,加茂郡七宗町,神渕１３８６５番地の２,,21,504,5090511,,,2023-07-05,清算の結了等,,,2015-10-05,1,,,,,ホシタニソウ,0
795,3210002013991,登記記録の閉鎖等,0,2023-07-11,2023-06-30,有限会社吉岡酒販,,有限会社,福井県,小浜市,駅前町１５番２３号,,18,204,9170077,,,2023-06-30,清算の結了等,,,2015-10-05,1,,,,,ヨシオカシュハン,0
797,3230001002044,登記記録の閉鎖等,0,2023-07-11,2023-07-07,富山ウエスト開発株式会社,,株式会社,富山県,富山市,新桜町７番３８号,,16,201,9300005,,,2023-07-07,清算の結了等,,,2015-10-05,1,,,,,トヤマウエストカイハツ,0
810,3270002005554,登記記録の閉鎖等,0,2023-07-11,2023-06-30,有限会社勝部朝日会計,,有限会社,鳥取県,米子市,旗ヶ崎２丁目１４番４３号,,31,202,6830845,,,2023-06-30,清算の結了等,,,2015-10-05,1,,,,,カツベアサヒカイケイ,0
850,3430001025421,登記記録の閉鎖等,0,2023-07-11,2023-07-03,株式会社サーズ,,株式会社,北海道,札幌市北区,北九条西３丁目１０番１号小田ビル５Ｆ,,01,102,0600809,,,2023-07-03,合併による解散等,1430001081004,令和５年７月１日札幌市北区北九条西三丁目１０番１号小田ビル５Ｆ株式会社サーズホールディングス（1430001081004）に合併し解散,2015-10-05,1,,,,,サーズ,0
863,3500002017666,登記記録の閉鎖等,0,2023-07-11,2023-07-10,有限会社ｏｋｉｅｒａｋａｎｏｎ,,有限会社,愛媛県,松山市,鉄砲町３番地５メゾンみすか２０３号,,38,201,7900827,,,2023-07-10,清算の結了等,,,2015-10-05,1,,,,,オキエラカノン,0
866,4010001157314,登記記録の閉鎖等,0,2023-07-11,2023-07-03,日建ＩＴソリューション株式会社,,株式会社,東京都,千代田区,神田猿楽町２丁目７番８号,,13,101,1010064,,,2023-07-03,清算の結了等,,,2015-10-05,1,,,,,ニッケンアイティーソリューション,0
880,4010101007641,登記記録の閉鎖等,0,2023-07-11,2023-07-07,株式会社オーギス,,株式会社,東京都,八王子市,元八王子町２丁目１１８４番地４,,13,201,1930826,,,2023-07-07,清算の結了等,,,2015-10-05,1,,,,,オーギス,0
881,4010401053369,登記記録の閉鎖等,0,2023-07-11,2023-06-26,株式会社新世紀メディカル,,株式会社,東京都,港区,東新橋１丁目１０番２号,,13,103,1050021,,,2023-06-26,清算の結了等,,,2015-10-05,1,,,,,シンセイキメディカル,0
885,4010401123155,登記記録の閉鎖等,0,2023-07-11,2023-07-10,株式会社ＳＡＲＩＡ　ＴＯＫＹＯ,,株式会社,東京都,渋谷区,代官山町１４番９号,,13,113,1500034,,,2023-07-10,清算の結了等,,,2016-02-18,1,,,,,,0
924,4011402006687,登記記録の閉鎖等,0,2023-07-11,2023-07-06,有限会社中野建装,,有限会社,東京都,板橋区,徳丸６丁目４１番３号,,13,119,1750083,,,2023-07-06,清算の結了等,,,2015-10-05,1,,,,,ナカノケンソウ,0
947,4020002089571,登記記録の閉鎖等,0,2023-07-11,2023-06-30,タカハシ電機設備有限会社,,有限会社,神奈川県,川崎市高津区,明津１４番地,,14,134,2130024,,,2023-06-30,清算の結了等,,,2015-10-05,1,,,,,タカハシデンキセツビ,0
953,4021001025410,登記記録の閉鎖等,0,2023-07-11,2023-07-05,ストアエンジニアリング株式会社,,株式会社,神奈川県,大和市,中央林間３丁目２６番１１号,,14,213,2420007,,,2023-07-05,清算の結了等,,,2015-10-05,1,,,,,ストアエンジニアリング,0
978,4080101008864,登記記録の閉鎖等,0,2023-07-11,2023-07-05,株式会社静東,,株式会社,静岡県,富士市,宮島１２４番地の３５,,22,210,4160945,,,2023-07-05,清算の結了等,,,2015-10-05,1,,,,,セイトウ,0
981,4080102008070,登記記録の閉鎖等,0,2023-07-11,2023-07-05,有限会社ウエダ,,有限会社,静岡県,伊豆市,上船原４６６番地の１,,22,222,4103216,,,2023-07-05,清算の結了等,,,2015-10-05,1,,,,,ウエダ,0
982,4080401012715,登記記録の閉鎖等,0,2023-07-11,2023-07-04,株式会社ＨＡＫＥＮ,,株式会社,静岡県,浜松市浜北区,貴布祢１９９番地の７,,22,136,4340038,,,2023-07-04,清算の結了等,,,2015-10-05,1,,,,,ハケン,0
983,4080401024215,登記記録の閉鎖等,0,2023-07-11,2023-06-30,株式会社グリット,,株式会社,静岡県,浜松市中区,板屋町１１１番地の２アクトタワー１８階,,22,131,4300928,,,2023-06-30,清算の結了等,,,2020-04-07,1,,,,,グリット,0
986,4100001027573,登記記録の閉鎖等,0,2023-07-11,2023-07-03,株式会社Ｌ＆Ｔコンサルティング,,株式会社,長野県,伊那市,西箕輪１９３８番地１,,20,209,3994501,,,2023-07-03,清算の結了等,,,2015-10-05,1,,,,,エルアンドティコンサルティング,0
988,4110001016625,登記記録の閉鎖等,0,2023-07-11,2023-06-30,株式会社白倉自動車,,株式会社,新潟県,燕市,分水新町１丁目５番３９号,,15,213,9590128,,,2023-06-30,清算の結了等,,,2015-10-05,1,,,,,シラクラジドウシャ,0
991,4110002033041,登記記録の閉鎖等,0,2023-07-11,2023-06-30,有限会社田村組,,有限会社,新潟県,南魚沼市,島新田５０１番地,,15,226,9496407,,,2023-06-30,清算の結了等,,,2015-10-05,1,,,,,タムラグミ,0
995,4120001088201,登記記録の閉鎖等,0,2023-07-11,2023-07-05,株式会社フェスタ,,株式会社,大阪府,大阪市中央区,瓦町３丁目３番７号,,27,128,5410048,,,2023-07-05,清算の結了等,,,2015-10-05,1,,,,,,0
1009,4120003019534,登記記録の閉鎖等,0,2023-07-11,2023-07-03,合同会社ＦＭアイオンサンス,,合同会社,大阪府,門真市,小路町７番２５号,,27,223,5710058,,,2023-07-03,合併による解散等,5120001226222,令和５年７月１日大阪府寝屋川市八坂町１１番４号ミナ・コリーグ株式会社（5120001226222）に合併し解散,2021-06-07,1,,,,,エフエムアイオンサンス,0
1013,4120101058649,登記記録の閉鎖等,0,2023-07-11,2023-07-10,株式会社ＳＡＫＵＲＡ　ＩＮＴＥＲＮＡＴＩＯＮＡＬ,,株式会社,大阪府,和泉市,仏並町４４９番地の１６,,27,219,5941136,,,2023-07-10,清算の結了等,,,2018-08-17,1,,,,,サクラインターナショナル,0
1030,4140001029764,登記記録の閉鎖等,0,2023-07-11,2023-06-29,株式会社ドリーム・ワン,,株式会社,兵庫県,神戸市中央区,磯辺通２丁目２番１６号,,28,110,6510084,,,2023-06-29,清算の結了等,,,2015-10-05,1,,,,,ドリームワン,0
1058,4180002029644,登記記録の閉鎖等,0,2023-07-11,2023-07-07,有限会社あど考房,,有限会社,愛知県,名古屋市港区,福屋２丁目９９番地,,23,111,4550876,,,2023-07-07,清算の結了等,,,2015-10-05,1,,,,,アドコウボウ,0
1063,4180301008803,登記記録の閉鎖等,0,2023-07-11,2023-06-27,株式会社エヌ・ティー・アイ,,株式会社,愛知県,豊橋市,大村町字大賀里６３番地の１,,23,201,4400081,,,2023-06-27,清算の結了等,,,2015-10-05,1,,,,,エヌティーアイ,0
1123,4380001030764,登記記録の閉鎖等,0,2023-07-11,2023-07-03,株式会社鈴木総業ユニテハウス会津,,株式会社,福島県,喜多方市,関柴町三津井字原前１１２２番地２,,07,208,9660017,,,2023-07-03,合併による解散等,2380001022103,令和５年７月１日福島県会津若松市古川町１番２３号株式会社ヤマトコーポレーション（2380001022103）に合併し解散,2020-03-16,1,,,,,スズキソウギョウユニテハウスアイヅ,0
1150,4460001004784,登記記録の閉鎖等,0,2023-07-11,2023-07-10,株式会社阿寒産直センター,,株式会社,北海道,釧路市,阿寒町阿寒湖温泉６丁目２番１４号,,01,206,0850467,,,2023-07-10,清算の結了等,,,2015-10-05,1,,,,,アカンサンチョクセンター,0
1156,5010001019257,登記記録の閉鎖等,0,2023-07-11,2023-07-04,ジャパンリスクマネジメント東京株式会社,,株式会社,東京都,中央区,日本橋１丁目１４番７号明治安田生命江戸橋ビル９Ｆ,,13,102,1030027,,,2023-07-04,合併による解散等,2130001024768,令和５年７月１日京都市右京区花園藪ノ下町８番地の９ジャパンリスクマネジメント株式会社（2130001024768）に合併し解散,2015-10-05,1,,,,,ジャパンリスクマネジメントトウキョウ,0
1185,5010501033798,登記記録の閉鎖等,0,2023-07-11,2023-07-03,株式会社ライフセーバー,,株式会社,東京都,中央区,京橋３丁目１２番１号エコー京橋ビル５Ｆ,,13,102,1040031,,,2023-07-03,合併による解散等,7010001000990,令和５年７月１日東京都中央区京橋三丁目１２番１号エコー京橋ビル５Ｆ株式会社事業パートナー（7010001000990）に合併し解散,2015-10-05,1,,,,,ライフセーバー,0
1213,5011302016686,登記記録の閉鎖等,0,2023-07-11,2023-07-03,有限会社セーフマン,,有限会社,東京都,杉並区,高井戸西２丁目１０番２号,,13,115,1680071,,,2023-07-03,合併による解散等,6011302016685,令和５年７月１日東京都杉並区高井戸西二丁目１０番２号丸武産業株式会社（6011302016685）に合併し解散,2015-10-05,1,,,,,,0
1222,5011801029775,登記記録の閉鎖等,0,2023-07-11,2023-06-21,三上興業株式会社,,株式会社,埼玉県,吉川市,栄町１３９８番地６丸高ビル１０１,,11,243,3420050,,,2023-06-21,清算の結了等,,,2015-10-05,1,,,,,ミカミコウギョウ,0
1230,5012703002102,登記記録の閉鎖等,0,2023-07-11,2023-07-05,合同会社ＡＩ,,合同会社,東京都,清瀬市,松山１丁目１１番２１号ブリリアント１、２階,,13,221,2040022,,,2023-07-05,清算の結了等,,,2020-11-13,1,,,,,エーアイ,0
1237,5013201007279,登記記録の閉鎖等,0,2023-07-11,2023-07-04,バイロン株式会社,,株式会社,東京都,目黒区,目黒３丁目７番１４号,,13,110,1530063,,,2023-07-04,清算の結了等,,,2015-10-05,1,,,,,バイロン,0
1238,5013202013838,登記記録の閉鎖等,0,2023-07-11,2023-07-06,有限会社スタジオ・ビー,,有限会社,東京都,目黒区,自由が丘１丁目２１番１０号,,13,110,1520035,,,2023-07-06,清算の結了等,,,2015-10-05,1,,,,,スタジオビー,0
1242,5013401001783,登記記録の閉鎖等,0,2023-07-11,2023-07-03,株式会社オーケン,,株式会社,東京都,稲城市,矢野口７０６番地,,13,225,2060812,,,2023-07-03,合併による解散等,4013401001784,令和５年７月１日東京都稲城市矢野口７０６番地マブチモーターオーケン株式会社（4013401001784）に合併し解散,2015-10-05,1,,,,,オーケン,0
1273,5040003011597,登記記録の閉鎖等,0,2023-07-11,2023-07-03,星洋合同会社,,合同会社,神奈川県,相模原市中央区,矢部４丁目９－７クリオ矢部壱番館１０２,,14,152,2520232,,,2023-07-03,清算の結了等,,,2018-05-02,1,,,,,ホシヨウ,0
1281,5080001014540,登記記録の閉鎖等,0,2023-07-11,2023-07-04,ニューコムズ株式会社,,株式会社,静岡県,牧之原市,静波１６１４番地２,,22,226,4210422,,,2023-07-04,清算の結了等,,,2015-10-05,1,,,,,ニューコムズ,0
1297,5110005002315,登記記録の閉鎖等,0,2023-07-11,2023-06-30,学校法人ゆたか学園,,その他の設立登記法人,新潟県,新潟市北区,樋ノ入１１４０番地１,00071344,15,101,9503307,,,2023-06-30,清算の結了等,,,2015-10-05,1,,,,,ユタカガクエン,0
1308,5120002023024,登記記録の閉鎖等,0,2023-07-11,2023-07-03,有限会社リンクス,,有限会社,大阪府,大阪市西区,靱本町１丁目１３番２号,,27,106,5500004,,,2023-07-03,合併による解散等,1120001045254,令和５年７月１日大阪市西区靱本町一丁目１３番２号竹野株式会社（1120001045254）に合併し解散,2015-10-05,1,,,,,リンクス,0
1314,5120102020078,登記記録の閉鎖等,0,2023-07-11,2023-07-07,しばた商事有限会社,,有限会社,大阪府,堺市堺区,北花田口町１丁２番１５－９１６号,,27,141,5900074,,,2023-07-07,清算の結了等,,,2015-10-05,1,,,,,シバタショウジ,0
1356,5210005006347,登記記録の閉鎖等,0,2023-07-11,2023-06-30,岩屋教会,,その他の設立登記法人,福井県,三方郡美浜町,久々子７９号１番地,,18,442,9191123,,,2023-06-30,清算の結了等,,,2015-10-05,1,,,,,イワヤキョウカイ,0
1362,5230001007999,登記記録の閉鎖等,0,2023-07-11,2023-07-06,株式会社デキリージャ,,株式会社,富山県,魚津市,石垣新３０６６番地５,,16,204,9370813,,,2023-07-06,清算の結了等,,,2015-10-05,1,,,,,デキリージャ,0
1390,5370001042776,登記記録の閉鎖等,0,2023-07-11,2023-07-04,株式会社Ａｘｉｓ,,株式会社,宮城県,名取市,上余田字千刈田５０８番地の１,,04,207,9811222,,,2023-07-04,清算の結了等,,,2018-03-20,1,,,,,アクシス,0
1410,5430002057593,登記記録の閉鎖等,0,2023-07-11,2023-06-23,有限会社飛雄観光,,有限会社,北海道,岩内郡岩内町,字万代１９番地１４,,01,402,0450003,,,2023-06-23,清算の結了等,,,2015-10-05,1,,,,,,0
1421,5500002012896,登記記録の閉鎖等,0,2023-07-11,2023-07-05,有限会社サンマリーノ,,有限会社,愛媛県,大洲市,東大洲９１１番地１,,38,207,7950064,,,2023-07-05,清算の結了等,,,2015-10-05,1,,,,,サンマリーノ,0
1423,5500005002052,登記記録の閉鎖等,0,2023-07-11,2023-07-07,医療法人原瀬歯科医院,,その他の設立登記法人,愛媛県,松山市,清住１丁目５番２４号,,38,201,7918055,,,2023-07-07,清算の結了等,,,2015-10-05,1,,,,,ハラセシカイイン,0
1474,6010801022483,登記記録の閉鎖等,0,2023-07-11,2023-07-04,株式会社ハラダ,,株式会社,東京都,大田区,田園調布本町２１番２５号,,13,111,1450072,,,2023-07-04,清算の結了等,,,2015-10-05,1,,,,,ハラダ,0
1477,6010805001277,登記記録の閉鎖等,0,2023-07-11,2023-06-30,特定非営利活動法人一誠流一誠会,,その他の設立登記法人,東京都,大田区,大森本町２丁目８番９号,,13,111,1430011,,,2023-06-30,清算の結了等,,,2015-10-05,1,,,,,イッセイリュウイッセイカイ,0
1478,6010901038925,登記記録の閉鎖等,0,2023-07-11,2023-07-05,株式会社ヤスダ,,株式会社,東京都,世田谷区,桜上水４丁目１６番９号,,13,112,1560045,,,2023-07-05,清算の結了等,,,2016-10-14,1,,,,,ヤスダ,0
1492,6011005001811,登記記録の閉鎖等,0,2023-07-11,2023-07-04,特定非営利活動法人連の会,,その他の設立登記法人,東京都,渋谷区,桜丘町１６番１５号,,13,113,1500031,,,2023-07-04,清算の結了等,,,2015-10-05,1,,,,,レンノカイ,0
1544,6021002069801,登記記録の閉鎖等,0,2023-07-11,2023-07-03,有限会社ビッグベル・コーポレーション,,有限会社,神奈川県,横須賀市,若松町３丁目１２番地平成若松ビルＩＩ２Ｆ,00105936,14,201,2380007,,,2023-07-03,合併による解散等,1021002070160,令和５年７月１日神奈川県横須賀市若松町三丁目１２番株式会社フェニックス企画（1021002070160）に合併し解散,2015-10-05,1,,,,,ビッグベルコーポレーション,0
1546,6030002026480,登記記録の閉鎖等,0,2023-07-11,2023-06-23,有限会社亮,,有限会社,神奈川県,平塚市,虹ケ浜２４番２５ダイアパレス湘南虹ケ浜オーシャンビュー９０１号,,14,203,2540823,,,2023-06-23,清算の結了等,,,2015-10-05,1,,,,,リョウ,0
1560,6050003004987,登記記録の閉鎖等,0,2023-07-11,2023-07-03,合同会社神立総合サービス,,合同会社,茨城県,坂東市,辺田１０８９番地１０,,08,228,3060632,,,2023-07-03,清算の結了等,,,2020-01-20,1,,,,,カンダツソウゴウサービス,0
1561,6050003005886,登記記録の閉鎖等,0,2023-07-11,2023-07-03,合同会社岩井サービス,,合同会社,茨城県,坂東市,辺田１０８９番地１０,,08,228,3060632,,,2023-07-03,清算の結了等,,,2021-05-31,1,,,,,イワイサービス,0
1566,6080101000407,登記記録の閉鎖等,0,2023-07-11,2023-07-05,加登商事株式会社,,株式会社,静岡県,沼津市,御幸町１番２６号,,22,203,4100832,,,2023-07-05,清算の結了等,,,2015-10-05,1,,,,,カトウショウジ,0
1576,6110002034459,登記記録の閉鎖等,0,2023-07-11,2023-06-30,国府川砂利砂採取有限会社,,有限会社,新潟県,佐渡市,栗野江１８５３番地１１,,15,224,9520202,,,2023-06-30,清算の結了等,,,2015-10-05,1,,,,,コクフガワジャリスナサイシュ,0
1587,6120101043203,登記記録の閉鎖等,0,2023-07-11,2023-07-10,株式会社ギャラクシー,,株式会社,大阪府,和泉市,光明台３丁目２９番１３号,,27,219,5941111,,,2023-07-10,清算の結了等,,,2015-10-05,1,,,,,ギャラクシー,0
1631,6190001010180,登記記録の閉鎖等,0,2023-07-11,2023-06-27,株式会社木屋,,株式会社,三重県,松阪市,新町９３２番地,,24,204,5150075,,,2023-06-27,清算の結了等,,,2015-10-05,1,,,,,キヤ,0
1634,6210001007686,登記記録の閉鎖等,0,2023-07-11,2023-07-03,三和石油株式会社,,株式会社,福井県,坂井市,丸岡町下安田６字沢１２番１,,18,210,9100363,,,2023-07-03,清算の結了等,,,2015-10-05,1,,,,,ミツワセキユ,0
1681,6370001046339,登記記録の閉鎖等,0,2023-07-11,2023-07-03,タンジブルアセット株式会社,,株式会社,宮城県,仙台市青葉区,大町１丁目２番１７号ライオンズマンション青葉通第二２０３号室,,04,101,9800804,,,2023-07-03,清算の結了等,,,2020-11-06,1,,,,,タンジブルアセット,0
1713,6470001001077,登記記録の閉鎖等,0,2023-07-11,2023-06-30,株式会社ガステクノス,,株式会社,香川県,高松市,朝日町５丁目１４番１号,,37,201,7600065,,,2023-06-30,清算の結了等,,,2015-10-05,1,,,,,ガステクノス,0
1731,7010001216942,登記記録の閉鎖等,0,2023-07-11,2023-07-03,株式会社Ｂｌｏｏｍ,,株式会社,東京都,中央区,日本橋浜町３丁目３番１号,,13,102,1030007,,,2023-07-03,清算の結了等,,,2021-04-07,1,,,,,ブルーム,0
1748,7010402009879,登記記録の閉鎖等,0,2023-07-11,2023-06-28,有限会社ニューメドインターナショナル,,有限会社,東京都,港区,赤坂６丁目１０番１７号,,13,103,1070052,,,2023-06-28,清算の結了等,,,2015-10-05,1,,,,,ニューメドインターナショナル,0
1762,7010803000949,登記記録の閉鎖等,0,2023-07-11,2023-07-04,合同会社たくみ工房,,合同会社,東京都,大田区,南千束１丁目２２番８－１０６号,,13,111,1450063,,,2023-07-04,清算の結了等,,,2015-10-05,1,,,,,タクミコウボウ,0
1781,7011002025589,登記記録の閉鎖等,0,2023-07-11,2023-07-07,有限会社ポディウム,,有限会社,東京都,渋谷区,東１丁目１３番９号,,13,113,1500011,,,2023-07-07,清算の結了等,,,2015-10-05,1,,,,,ポディウム,0
1782,7011003007140,登記記録の閉鎖等,0,2023-07-11,2023-07-03,ＡＨＤＥＬＵ合同会社,,合同会社,茨城県,つくば市,南中妻１８０－１９,,08,220,3050065,,,2023-07-03,清算の結了等,,,2016-10-20,1,,,,,アデル,0
1805,7013202014479,登記記録の閉鎖等,0,2023-07-11,2023-07-10,ハイライズビルサービス有限会社,,有限会社,東京都,目黒区,洗足２丁目１４番１３号,,13,110,1520012,,,2023-07-10,清算の結了等,,,2015-10-05,1,,,,,,0
1806,7013302007275,登記記録の閉鎖等,0,2023-07-11,2023-07-03,有限会社鳥元本店,,有限会社,東京都,豊島区,池袋３丁目３９番３号,,13,116,1710014,,,2023-07-03,清算の結了等,,,2015-10-05,1,,,,,トリモトホンテン,0
1831,7021002060057,登記記録の閉鎖等,0,2023-07-11,2023-07-03,有限会社山中ダクト工業,,有限会社,神奈川県,平塚市,中堂１２番２３号,,14,203,2540026,,,2023-07-03,清算の結了等,,,2015-10-05,1,,,,,ヤマナカダクトコウギョウ,0
1835,7030001035498,登記記録の閉鎖等,0,2023-07-11,2023-06-20,株式会社フォーム社,,株式会社,埼玉県,草加市,谷塚上町４６９番１８,,11,221,3400024,,,2023-06-20,清算の結了等,,,2015-10-05,1,,,,,フォームシャ,0
1843,7030003002232,登記記録の閉鎖等,0,2023-07-11,2023-06-23,合同会社ティーエスアイ,,合同会社,埼玉県,さいたま市見沼区,大和田町２丁目４０３番地４,,11,104,3370053,,,2023-06-23,清算の結了等,,,2015-10-05,1,,,,,ティーエスアイ,0
1848,7050002041477,登記記録の閉鎖等,0,2023-07-11,2023-07-03,有限会社アネステイ,,有限会社,茨城県,常総市,本豊田５７７番地の１,,08,211,3002711,,,2023-07-03,清算の結了等,,,2015-10-05,1,,,,,アネステイ,0
1864,7080102017449,登記記録の閉鎖等,0,2023-07-11,2023-07-06,有限会社リブウェル,,有限会社,静岡県,富士宮市,宮原１２８番地の４,,22,207,4180005,,,2023-07-06,清算の結了等,,,2015-10-05,1,,,,,リブウェル,0
1870,7120001131726,登記記録の閉鎖等,0,2023-07-11,2023-07-07,株式会社アイ・エム・ケー・ライフサイエンス,,株式会社,大阪府,和泉市,いぶき野１丁目１５番１４号,,27,219,5940041,,,2023-07-07,清算の結了等,,,2015-10-05,1,,,,,アイエムケーライフサイエンス,0
1892,7120101027857,登記記録の閉鎖等,0,2023-07-11,2023-07-07,株式会社ダブルエイト,,株式会社,大阪府,高石市,千代田５丁目１４番５号,,27,225,5920005,,,2023-07-07,清算の結了等,,,2015-10-05,1,,,,,ダブルエイト,0
1896,7120101046626,登記記録の閉鎖等,0,2023-07-11,2023-07-05,株式会社みらくるグリーン,,株式会社,大阪府,大阪市淀川区,宮原３丁目５番２４号新大阪第一生命ビルディング４階,,27,123,5320003,,,2023-07-05,清算の結了等,,,2015-10-05,1,,,,,ミラクルグリーン,0
1898,7120101065907,登記記録の閉鎖等,0,2023-07-11,2023-07-07,株式会社ＳＫＣ,,株式会社,大阪府,阪南市,黒田４８番地の１,,27,232,5990203,,,2023-07-07,清算の結了等,,,2022-07-12,1,,,,,エスケーシー,0
1902,7122001025866,登記記録の閉鎖等,0,2023-07-11,2023-06-30,株式会社克己ＲＥＭ,,株式会社,大阪府,東大阪市,大蓮北２丁目１番２７号,00034576,27,227,5770826,,,2023-06-30,合併による解散等,1122001014882,令和５年６月３０日大阪府東大阪市大蓮北二丁目１番２７号株式会社シンシア（1122001014882）に合併し解散,2015-10-05,1,,,,,コッキアールイーエム,0
1913,7160001012559,登記記録の閉鎖等,0,2023-07-11,2023-07-06,株式会社ＤＣＲＳフードスタイル,,株式会社,滋賀県,大津市,大萱７丁目２１番３８号セジュールルピナスＦ棟,,25,201,5202144,,,2023-07-06,清算の結了等,,,2015-10-05,1,,,,,デクラスフードスタイル,0
1918,7180001141645,登記記録の閉鎖等,0,2023-07-11,2023-07-04,愛知除菌システム株式会社,,株式会社,愛知県,名古屋市緑区,桶狭間上の山３４２５番地,,23,114,4580926,,,2023-07-04,清算の結了等,,,2020-06-18,1,,,,,アイチジョキンシステム,0
1939,7220001012651,登記記録の閉鎖等,0,2023-07-11,2023-07-07,クラスター株式会社,,株式会社,石川県,能美市,粟生町西６０番地２,,17,211,9231101,,,2023-07-07,合併による解散等,8220001011999,令和５年７月１日石川県小松市工業団地一丁目９３番地コマニー株式会社（8220001011999）に合併し解散,2015-10-05,1,,,,,クラスター,0
1944,7230002008581,登記記録の閉鎖等,0,2023-07-11,2023-07-07,有限会社柳原電設,,有限会社,富山県,富山市,向新庄１３６４番地５,,16,201,9300916,,,2023-07-07,清算の結了等,,,2015-10-05,1,,,,,ヤナギハラデンセツ,0
1946,7240001001982,登記記録の閉鎖等,0,2023-07-11,2023-07-03,株式会社お多福や戸井商店,,株式会社,広島県,広島市中区,舟入南３丁目１０番３号,,34,101,7300847,,,2023-07-03,清算の結了等,,,2015-10-05,1,,,,,オタフクヤドイショウテン,0
1967,7330002009586,登記記録の閉鎖等,0,2023-07-11,2023-07-05,有限会社ホットハウス,,有限会社,熊本県,熊本市西区,城山下代１丁目１３番１０号,,43,103,8600066,,,2023-07-05,清算の結了等,,,2015-10-05,1,,,,,ホットハウス,0
1984,7380003001050,登記記録の閉鎖等,0,2023-07-11,2023-07-04,合資会社木田鉄工所,,合資会社,福島県,いわき市,平下神谷字後原３１番地,,07,204,9700101,,,2023-07-04,清算の結了等,,,2015-10-05,1,,,,,キダテッコウジョ,0
1992,7420003000378,登記記録の閉鎖等,0,2023-07-11,2023-06-27,合同会社青森コミュニティビジネス研究所,,合同会社,青森県,青森市,古川１丁目１５番５号,,02,201,0300862,,,2023-06-27,清算の結了等,,,2015-10-05,1,,,,,アオモリコミュニティビジネスケンキュウショ,0
2000,7460302000513,登記記録の閉鎖等,0,2023-07-11,2023-07-07,株式会社北見写真社,,株式会社,北海道,北見市,北三条西１丁目６番地１,,01,208,0900043,,,2023-07-07,清算の結了等,,,2015-10-05,1,,,,,キタミシャシンシャ,0
2001,7462501000087,登記記録の閉鎖等,0,2023-07-11,2023-07-06,株式会社サンワ,,株式会社,北海道,標津郡中標津町,東二条南９丁目４番地,,01,692,0861002,,,2023-07-06,清算の結了等,,,2015-10-05,1,,,,,サンワ,0
2025,8010001167012,登記記録の閉鎖等,0,2023-07-11,2023-07-03,丸紅テレコム株式会社,,株式会社,東京都,江東区,豊洲３丁目２番２４号,,13,108,1350061,,,2023-07-03,合併による解散等,1010001141097,令和５年７月１日東京都江東区豊洲三丁目２番２４号ＭＸモバイリング株式会社（1010001141097）に合併し解散,2015-10-05,1,,,,,マルベニテレコム,0
2049,8010403026369,登記記録の閉鎖等,0,2023-07-11,2023-07-03,Ｓｏｌａｒｉａｎｔ　Ｆｕｎｄ　ＳＰＣ　Ｆｏｕｒ合同会社,,合同会社,東京都,港区,六本木６丁目２番３１号六本木ヒルズノースタワー１５階,,13,103,1060032,,,2023-07-03,合併による解散等,5010401101449,令和５年７月１日東京都港区六本木六丁目２番３１号六本木ヒルズノースタワー１５階ジャパン・リニューアブル・エナジー株式会社（5010401101449）に合併し解散,2021-10-22,1,,,,,ソラリアントファンドエスピーシーフォー,0
2066,8011001134893,登記記録の閉鎖等,0,2023-07-11,2023-07-10,株式会社ＳＷＡＴ　Ｌａｂ,,株式会社,東京都,渋谷区,桜丘町２３番１７号シティコート桜丘４０８,,13,113,1500031,,,2023-07-10,清算の結了等,,,2020-07-22,1,,,,,スワットラボ,0
2088,8011501009397,登記記録の閉鎖等,0,2023-07-11,2023-07-03,株式会社攻文社,,株式会社,東京都,豊島区,雑司が谷２丁目５番１７号,,13,116,1710032,,,2023-07-03,清算の結了等,,,2015-10-05,1,,,,,コウブンシャ,0
2101,8020001027768,登記記録の閉鎖等,0,2023-07-11,2023-07-03,株式会社鳥秀,,株式会社,神奈川県,横浜市南区,真金町１丁目３番地,,14,105,2320021,,,2023-07-03,清算の結了等,,,2015-10-05,1,,,,,トリヒデ,0
2103,8020001114723,登記記録の閉鎖等,0,2023-07-11,2023-06-30,テクスチャーメーカージャパン株式会社,,株式会社,神奈川県,川崎市中原区,丸子通２丁目６８２番地１３,,14,133,2110006,,,2023-06-30,清算の結了等,,,2016-02-04,1,,,,,テクスチャーメーカージャパン,0
2104,8020001115358,登記記録の閉鎖等,0,2023-07-11,2023-06-30,株式会社きもの倶楽部,,株式会社,神奈川県,横浜市戸塚区,戸塚町４０９２－５エバーズ第２戸塚ビル１階,,14,110,2440003,,,2023-06-30,清算の結了等,,,2016-03-23,1,,,,,,0
2113,8020002074578,登記記録の閉鎖等,0,2023-07-11,2023-06-30,有限会社ＫＯＹＵ,,有限会社,神奈川県,横浜市緑区,三保町２７６１番地１５,,14,113,2260015,,,2023-06-30,清算の結了等,,,2015-10-05,1,,,,,コウユウ,0
2131,8030001086540,登記記録の閉鎖等,0,2023-07-11,2023-06-22,株式会社フジテック,,株式会社,埼玉県,深谷市,大谷２３４７番地,,11,218,3660814,,,2023-06-22,合併による解散等,9030001086399,令和５年６月２１日埼玉県深谷市田所町１５番１号株式会社セキネ（9030001086399）に合併し解散,2015-10-05,1,,,,,フジテック,0
2143,8040001105778,登記記録の閉鎖等,0,2023-07-11,2023-07-07,株式会社ライフテリング,,株式会社,千葉県,市原市,ちはら台東８丁目１７番地４,,12,219,2900141,,,2023-07-07,合併による解散等,8040001063019,令和５年７月１日東京都豊島区南池袋二丁目２７番２号株式会社ＳＴコーポレーション（8040001063019）に合併し解散,2018-08-14,1,,,,,ライフテリング,0
2149,8050001016958,登記記録の閉鎖等,0,2023-07-11,2023-07-03,株式会社フレンド,,株式会社,茨城県,つくば市,松代５丁目１５番地２４,,08,220,3050035,,,2023-07-03,清算の結了等,,,2015-10-05,1,,,,,フレンド,0
2162,8080002014578,登記記録の閉鎖等,0,2023-07-11,2023-07-05,有限会社久米,,有限会社,静岡県,榛原郡吉田町,片岡１６１０番地の１,,22,424,4210303,,,2023-07-05,清算の結了等,,,2015-10-05,1,,,,,クメ,0
2171,8100002019938,登記記録の閉鎖等,0,2023-07-11,2023-07-03,有限会社梧三荘,,有限会社,長野県,松本市,横田２丁目２番１０号,,20,202,3900804,,,2023-07-03,清算の結了等,,,2015-10-05,1,,,,,ゴサンソウ,0
2174,8120001018724,登記記録の閉鎖等,0,2023-07-11,2023-07-04,株式会社ペレサッカ,,株式会社,大阪府,大阪市生野区,新今里７丁目３番５号,,27,116,5440001,,,2023-07-04,清算の結了等,,,2015-10-05,1,,,,,ペレサッカ,0
2195,8120105009124,登記記録の閉鎖等,0,2023-07-11,2023-07-06,一般社団法人白内障ラボ,,その他の設立登記法人,大阪府,泉南郡熊取町,大久保北３丁目１７４番６号,,27,361,5900402,,,2023-07-06,清算の結了等,,,2019-11-19,1,,,,,ハクナイショウラボ,0
2222,8180001074621,登記記録の閉鎖等,0,2023-07-11,2023-07-06,株式会社中垣自動車,,株式会社,愛知県,春日井市,御幸町１丁目５番地１９,,23,206,4860953,,,2023-07-06,清算の結了等,,,2015-10-05,1,,,,,ナカガキジドウシャ,0
2242,8200001032106,登記記録の閉鎖等,0,2023-07-11,2023-07-07,株式会社コウケツ,,株式会社,岐阜県,美濃加茂市,古井町下古井２２８番地,,21,211,5050034,,,2023-07-07,清算の結了等,,,2015-10-05,1,,,,,コウケツ,0
2247,8220001016874,登記記録の閉鎖等,0,2023-07-11,2023-07-03,株式会社のと輪島屋,,株式会社,石川県,輪島市,杉平町蝦夷穴６５番地１,,17,204,9280011,,,2023-07-03,合併による解散等,4220001012704,令和５年７月１日石川県能美市三道山町オ５５番地１株式会社西脇水産（4220001012704）に合併し解散,2015-10-05,1,,,,,ノトワジマヤ,0
2256,8250001010049,登記記録の閉鎖等,0,2023-07-11,2023-06-29,株式会社南陽電工,,株式会社,山口県,周南市,平野２丁目１番６号,,35,215,7460029,,,2023-06-29,清算の結了等,,,2015-10-05,1,,,,,ナンヨウデンコウ,0
2260,8260002021515,登記記録の閉鎖等,0,2023-07-11,2023-07-03,有限会社三宅呉服店,00003704,有限会社,岡山県,倉敷市,茶屋町２４６番地の１,,33,202,7101101,,,2023-07-03,清算の結了等,,,2015-10-05,1,,,,,ミヤケゴフクテン,0
2282,8340002015500,登記記録の閉鎖等,0,2023-07-11,2023-07-03,有限会社アリムラウッドワーク,,有限会社,鹿児島県,姶良市,下名１０５４番地,,46,225,8995543,,,2023-07-03,合併による解散等,3340001009557,令和５年７月１日鹿児島県霧島市隼人町小浜２８番地株式会社住まいず（3340001009557）に合併し解散,2015-10-05,1,,,,,アリムラウッドワーク,0
2286,8360001017132,登記記録の閉鎖等,0,2023-07-11,2023-07-06,農業生産法人株式会社沖縄名護グローバルファーム,,株式会社,沖縄県,名護市,字為又７７３番地１プロフィット為又２０１号,,47,209,9050005,,,2023-07-06,合併による解散等,7170003001468,令和５年７月１日和歌山市本町二丁目９番地ジョイントアセットマネジメント合同会社（7170003001468）に合併し解散,2015-10-05,1,,,,,,0
2297,8390001001364,登記記録の閉鎖等,0,2023-07-11,2023-06-29,株式会社東北タオル店,,株式会社,山形県,山形市,旅篭町２丁目２番２５号,,06,201,9900047,,,2023-06-29,清算の結了等,,,2015-10-05,1,,,,,トウホクタオル,0
2337,9010005035189,登記記録の閉鎖等,0,2023-07-11,2023-07-04,エスティイズモ一般社団法人,,その他の設立登記法人,東京都,千代田区,丸の内３丁目１番１号東京共同会計事務所内,,13,101,1000005,,,2023-07-04,清算の結了等,,,2022-06-30,1,,,,,エスティイズモ,0
2348,9010403025295,登記記録の閉鎖等,0,2023-07-11,2023-07-03,Ｓｏｌａｒｉａｎｔ　Ｆｕｎｄ　ＳＰＣ　Ｔｈｒｅｅ合同会社,,合同会社,東京都,港区,六本木６丁目２番３１号六本木ヒルズノースタワー１５階,,13,103,1060032,,,2023-07-03,合併による解散等,5010401101449,令和５年７月１日東京都港区六本木六丁目２番３１号六本木ヒルズノースタワー１５階ジャパン・リニューアブル・エナジー株式会社（5010401101449）に合併し解散,2021-05-14,1,,,,,ソラリアントファンドエスピーシースリー,0
2353,9010501043372,登記記録の閉鎖等,0,2023-07-11,2023-07-06,株式会社ＳＥＶＥＮＡＳ,,株式会社,千葉県,茂原市,道表１４－１３,,12,210,2970028,,,2023-07-06,清算の結了等,,,2018-11-27,1,,,,,セバナス,0
2356,9010601034379,登記記録の閉鎖等,0,2023-07-11,2023-07-03,株式会社ローブル,,株式会社,東京都,墨田区,本所１丁目８番１０号,,13,107,1300004,,,2023-07-03,合併による解散等,2010601018132,令和５年７月１日東京都墨田区本所一丁目８番１０号株式会社アクセサリーマルタカ（2010601018132）に合併し解散,2015-10-05,1,,,,,ローブル,0
2378,9011101082521,登記記録の閉鎖等,0,2023-07-11,2023-07-03,株式会社エスエポック,,株式会社,東京都,渋谷区,宇田川町１３番１１号,,13,113,1500042,,,2023-07-03,合併による解散等,9370001023327,令和５年７月１日東京都渋谷区宇田川町１３番１１号株式会社クラウドエヌ（9370001023327）に合併し解散,2017-12-05,1,,,,,エスエポック,0
2382,9011103008994,登記記録の閉鎖等,0,2023-07-11,2023-07-06,パピルス合同会社,,合同会社,東京都,渋谷区,渋谷２丁目１９番１５号宮益坂ビルディング６０９,,13,113,1500002,,,2023-07-06,清算の結了等,,,2019-08-05,1,,,,,パピルス,0
2388,9011301023597,登記記録の閉鎖等,0,2023-07-11,2023-07-07,株式会社ギークトイズ,,株式会社,東京都,中野区,弥生町３丁目３５番１３号,,13,114,1640013,,,2023-07-07,合併による解散等,6011001060019,令和５年７月１日東京都渋谷区神宮前二丁目２７番５号株式会社ギークピクチュアズ（6011001060019）に合併し解散,2017-10-23,1,,,,,ギークトイズ,0
2401,9013101003507,登記記録の閉鎖等,0,2023-07-11,2023-07-05,株式会社大多摩製作所,,株式会社,東京都,青梅市,長淵１丁目９２７番地２,,13,205,1980052,,,2023-07-05,合併による解散等,3020001074088,令和５年７月１日新潟県長岡市寺泊竹森１５１０番地株式会社新潟マテリアル（3020001074088）に合併し解散,2015-10-05,1,,,,,オオタマセイサクジョ,0
2438,9030002003452,登記記録の閉鎖等,0,2023-07-11,2023-06-22,有限会社カミリー商会,,有限会社,埼玉県,さいたま市南区,大字広ヶ谷戸３０５番地１,,11,108,3360041,,,2023-06-22,清算の結了等,,,2015-10-05,1,,,,,カミリーショウカイ,0
2447,9040001067596,登記記録の閉鎖等,0,2023-07-11,2023-06-23,株式会社コネクト,,株式会社,千葉県,我孫子市,湖北台１丁目９番１６号,,12,222,2701132,,,2023-06-23,清算の結了等,,,2015-10-05,1,,,,,コネクト,0
2457,9050002018457,登記記録の閉鎖等,0,2023-07-11,2023-07-03,株式会社サンクリエイション,,株式会社,茨城県,猿島郡境町,２２８６番地の２,,08,546,3060433,,,2023-07-03,清算の結了等,,,2015-10-05,1,,,,,サンクリエイション,0
2464,9080101004058,登記記録の閉鎖等,0,2023-07-11,2023-07-06,御殿場第一再開発ビル株式会社,,株式会社,静岡県,御殿場市,新橋１９９０番地の１０,,22,215,4120043,,,2023-07-06,清算の結了等,,,2015-10-05,1,,,,,ゴテンバダイイチサイカイハツビル,0
2468,9080402018038,登記記録の閉鎖等,0,2023-07-11,2023-07-07,有限会社大須賀ガスサービス,,有限会社,静岡県,掛川市,横須賀９０３番地の２,,22,213,4371301,,,2023-07-07,合併による解散等,7080001001735,令和５年７月１日静岡市葵区常磐町二丁目６番地の８株式会社ザ・トーカイ（7080001001735）に合併し解散,2015-10-05,1,,,,,オオスカガスサービス,0
2479,9110001030992,登記記録の閉鎖等,0,2023-07-11,2023-06-30,株式会社屋根工房あんなか,,株式会社,新潟県,加茂市,陣ケ峰１３番１０号,,15,209,9591328,,,2023-06-30,清算の結了等,,,2015-10-05,1,,,,,ヤネコウボウアンナカ,0
2496,9120003018028,登記記録の閉鎖等,0,2023-07-11,2023-07-03,ｐｒｏｊｅｃｔ　ｃｈａｒｇｅ合同会社,,合同会社,大阪府,門真市,小路町７番２５号,,27,223,5710058,,,2023-07-03,合併による解散等,5120001226222,令和５年７月１日大阪府寝屋川市八坂町１１番４号ミナ・コリーグ株式会社（5120001226222）に合併し解散,2020-09-04,1,,,,,プロジェクトチャージ,0
2525,9180002055685,登記記録の閉鎖等,0,2023-07-11,2023-07-07,有限会社弘陽水急,,有限会社,愛知県,名古屋市港区,船頭場２丁目７０４番地,,23,111,4550881,,,2023-07-07,清算の結了等,,,2015-10-05,1,,,,,コウヨウスイキュウ,0
2528,9180003024441,登記記録の閉鎖等,0,2023-07-11,2023-07-06,合同会社Ｒ＆Ｒ,,合同会社,愛知県,春日井市,勝川町７丁目３番地７ネクシティパレッタＲｏｏｍ８,,23,206,4860945,,,2023-07-06,清算の結了等,,,2022-11-07,1,,,,,アールアンドアール,0
2530,9180005017294,登記記録の閉鎖等,0,2023-07-11,2023-07-04,一般社団法人かみさわ福祉会,,その他の設立登記法人,愛知県,名古屋市緑区,神沢２丁目１９０６番地,,23,114,4580014,,,2023-07-04,清算の結了等,,,2017-04-27,1,,,,,カミサワフクシカイ,0
2532,9180302026923,登記記録の閉鎖等,0,2023-07-11,2023-06-27,有限会社岩瀬鉄工所,,有限会社,愛知県,西尾市,一色町大塚上古新５番地,,23,213,4440402,,,2023-06-27,清算の結了等,,,2015-10-05,1,,,,,イワセテッコウショ,0
2546,9230002005866,登記記録の閉鎖等,0,2023-07-11,2023-07-10,有限会社ツルギ設備工業,,有限会社,富山県,中新川郡上市町,北島６番地の３３,,16,322,9300351,,,2023-07-10,清算の結了等,,,2015-10-05,1,,,,,ツルギセツビコウギョウ,0
2567,9320002002458,登記記録の閉鎖等,0,2023-07-11,2023-07-06,有限会社経営コンパス,,有限会社,大分県,大分市,豊町２丁目３番４号,,44,201,8700042,,,2023-07-06,清算の結了等,,,2015-10-05,1,,,,,,0
2572,9360002019424,登記記録の閉鎖等,0,2023-07-11,2023-07-07,有限会社沖縄サンコースト,,有限会社,沖縄県,名護市,字幸喜１０８番地,,47,209,9050025,,,2023-07-07,合併による解散等,9120001225864,令和５年７月１日大阪市天王寺区四天王寺二丁目１番９号株式会社ＨＥＲＯＥＳ（9120001225864）に合併し解散,2015-10-05,1,,,,,オキナワサンコースト,0
2600,9460101004597,登記記録の閉鎖等,0,2023-07-11,2023-07-06,株式会社大和警備保障,,株式会社,北海道,河東郡音更町,新通６丁目５番７,,01,631,0800104,,,2023-07-06,清算の結了等,,,2015-10-05,1,,,,,ヤマトケイビホショウ,0
