sequenceNumber,corporateNumber,process,correct,updateDate,changeDate,name,nameImageId,kind,prefectureName,cityName,streetNumber,addressImageId,prefectureCode,cityCode,postCode,addressOutside,addressOutsideImageId,closeDate,closeCause,successorCorporateNumber,changeCause,assignmentDate,latest,enName,enPrefectureName,enCityName,enAddressOutside,furigana,hihyoji
7,1010001254584,新規,0,2025-05-01,2025-05-01,株式会社ミヤタ２,,株式会社,東京都,中央区,日本橋浜町３丁目４３番９－１１０５号,,13,102,1030007,,,,,,,2025-05-01,1,,,,,ミヤタツー,0
8,1010001254642,新規,0,2025-05-01,2025-05-01,株式会社ｉｎｔ．,,株式会社,東京都,中央区,京橋３丁目１２番１号エコー京橋ビル１０階,,13,102,1040031,,,,,,,2025-05-01,1,,,,,イント,0
9,1010003047235,新規,0,2025-05-01,2025-05-01,日出スキー合同会社,,合同会社,東京都,中央区,銀座１丁目１９番１４号銀座ＯＮＥビル６階,,13,102,1040061,,,,,,,2025-05-01,1,,,,,ヒノデスキー,0
21,1010401189876,新規,0,2025-05-01,2025-05-01,５５ＳＪＬＨ株式会社,,株式会社,東京都,港区,赤坂２丁目１４番１１号,,13,103,1070052,,,,,,,2025-05-01,1,,,,,フィフティファイヴエスジェイエルエイチ,0
22,1010401189991,新規,0,2025-05-01,2025-05-01,株式会社ＰＲＳ高岡,,株式会社,東京都,港区,虎ノ門５丁目９番１号,,13,103,1050001,,,,,,,2025-05-01,1,,,,,ピーアールエスタカオカ,0
23,1010401190000,新規,0,2025-05-01,2025-05-01,株式会社リバーススタイル,,株式会社,東京都,港区,北青山１丁目３番１号アールキューブ青山３階,,13,103,1070061,,,,,,,2025-05-01,1,,,,,リバーススタイル,0
24,1010401190074,新規,0,2025-05-01,2025-05-01,株式会社ＳＡＩＮＴＨＯＭＥＳ,,株式会社,東京都,港区,芝公園１丁目８番２０号,,13,103,1050011,,,,,,,2025-05-01,1,,,,,セイントホームズ,0
25,1010403035013,新規,0,2025-05-01,2025-05-01,合同会社Ｌｉｂ＆Ｃ,,合同会社,東京都,港区,北青山３丁目４番３号クラス青山１３０１,,13,103,1070061,,,,,,,2025-05-01,1,,,,,リブアンドシー,0
30,1010601067213,新規,0,2025-05-01,2025-05-01,株式会社ＹＧＳＣ,,株式会社,東京都,江東区,大島３丁目１０番５号,,13,108,1360072,,,,,,,2025-05-01,1,,,,,ワイジーエスシー,0
31,1010601067221,新規,0,2025-05-01,2025-05-01,株式会社たまらない予感,,株式会社,東京都,墨田区,東向島５丁目２０番１３号,,13,107,1310032,,,,,,,2025-05-01,1,,,,,タマラナイヨカン,0
34,1010801036125,新規,0,2025-05-01,2025-05-01,クレフィット株式会社,,株式会社,東京都,大田区,南久が原２丁目１６番１号マイキャッスル南久が原Ａ号室,,13,111,1460084,,,,,,,2025-05-01,1,,,,,クレフィット,0
36,1010901057203,新規,0,2025-05-01,2025-05-01,株式会社ＤＩＭＯ　Ｊａｐａｎ,,株式会社,東京都,世田谷区,南烏山１丁目１０番１－７０４号,,13,112,1570062,,,,,,,2025-05-01,1,,,,,ディーモジャパン,0
43,1011001169236,新規,0,2025-05-01,2025-05-01,ＬＯＧＵＥ株式会社,,株式会社,東京都,渋谷区,神南１丁目１１番地４号ＦＰＧリンクス神南５階,,13,113,1500041,,,,,,,2025-05-01,1,,,,,ローグ,0
51,1011101111576,新規,0,2025-05-01,2025-05-01,株式会社ラフライン,,株式会社,東京都,新宿区,西新宿３丁目３番１３号西新宿水間ビル６階,,13,104,1600023,,,,,,,2025-05-01,1,,,,,ラフライン,0
54,1011103015833,新規,0,2025-05-01,2025-05-01,合同会社木村総合研究所,,合同会社,東京都,新宿区,西新宿３丁目３番１３号西新宿水間ビル２Ｆ,,13,104,1600023,,,,,,,2025-05-01,1,,,,,キムラソウゴウケンキュウジョ,0
55,1011305003041,新規,0,2025-05-01,2025-05-01,一般社団法人手作りペプチド酵素協会,,その他の設立登記法人,東京都,杉並区,阿佐谷北４丁目７番９号ＭＳマンション１０１号,,13,115,1660001,,,,,,,2025-05-01,1,,,,,テヅクリペプチドコウソキョウカイ,0
57,1011401027043,新規,0,2025-05-01,2025-05-01,株式会社リテンセ,,株式会社,東京都,板橋区,前野町１丁目４７番３号,,13,119,1740063,,,,,,,2025-05-01,1,,,,,リテンセ,0
58,1011403004684,新規,0,2025-05-01,2025-05-01,合同会社スペランツァ,,合同会社,東京都,板橋区,小茂根２丁目２０－１２ダイアパレス小竹向原１２０１,,13,119,1730037,,,,,,,2025-05-01,1,,,,,スペランツァ,0
60,1011503006515,新規,0,2025-05-01,2025-05-01,合同会社ＯｃｅａｎＴｒｅｅ,,合同会社,東京都,北区,滝野川３丁目８－２Ｆｌｅｘ１０１,,13,117,1140023,,,,,,,2025-05-01,1,,,,,オーシャンツリー,0
66,1011601028618,新規,0,2025-05-01,2025-05-01,株式会社ＤＣＴイノベーション,,株式会社,東京都,練馬区,練馬３丁目３番１１号ツモルハイツ練馬７０１号室,,13,120,1760001,,,,,,,2025-05-01,1,,,,,ディーシーティーイノベーション,0
67,1011701028303,新規,0,2025-05-01,2025-05-01,ＨＡＲＵＫＡＺＥ株式会社,,株式会社,東京都,江戸川区,平井３丁目２９番７－１００２号,,13,123,1320035,,,,,,,2025-05-01,1,,,,,ハルカゼ,0
74,1012703003260,新規,0,2025-05-01,2025-05-01,フレーム合同会社,,合同会社,東京都,西東京市,田無町４丁目６番１１号,,13,229,1880011,,,,,,,2025-05-01,1,,,,,フレーム,0
76,1012801023937,新規,0,2025-05-01,2025-05-01,株式会社フリースタイル,,株式会社,東京都,東大和市,中央４丁目１０２９番地の４７－１０３号室,,13,220,2070015,,,,,,,2025-05-01,1,,,,,フリースタイル,0
77,1013103001441,新規,0,2025-05-01,2025-05-01,合同会社ＢｕｔｔｅｒＤａｎｃｅ,,合同会社,東京都,西多摩郡奥多摩町,境９５２,,13,308,1980222,,,,,,,2025-05-01,1,,,,,バターダンス,0
95,1020003028399,新規,0,2025-05-01,2025-05-01,合同会社イースト,,合同会社,神奈川県,横浜市神奈川区,菅田町１５７１番１５号,,14,102,2210864,,,,,,,2025-05-01,1,,,,,イースト,0
100,1021001085011,新規,0,2025-05-01,2025-05-01,株式会社Ｒｅｓａｌｅ　Ｍｉｌｌｅ,,株式会社,神奈川県,平塚市,纒４７９番地の１４,,14,203,2540901,,,,,,,2025-05-01,1,,,,,リセールミル,0
101,1021001085127,新規,0,2025-05-01,2025-05-01,株式会社Ｌａｎｉ　Ａｉｎａ,,株式会社,神奈川県,藤沢市,鵠沼海岸３丁目１番８号,,14,205,2510037,,,,,,,2025-05-01,1,,,,,ラニアイナ,0
102,1021005013315,新規,0,2025-05-01,2025-05-01,特定非営利活動法人スマイルライフ,,その他の設立登記法人,神奈川県,座間市,座間１丁目４１９４番地の１２,,14,216,2520027,,,,,,,2025-05-01,1,,,,,スマイルライフ,0
110,1030001166241,新規,0,2025-05-01,2025-05-01,株式会社中丸商店,,株式会社,埼玉県,上尾市,大字大谷本郷８１９番地１３,,11,219,3620044,,,,,,,2025-05-01,1,,,,,ナカマルショウテン,0
111,1030001166274,新規,0,2025-05-01,2025-05-01,株式会社シアン,,株式会社,埼玉県,新座市,片山１丁目２０番９－２３号,,11,230,3520025,,,,,,,2025-05-01,1,,,,,シアン,0
112,1030001166299,新規,0,2025-05-01,2025-05-01,恒優株式会社,,株式会社,埼玉県,川口市,南町２丁目２番３号,,11,203,3320026,,,,,,,2025-05-01,1,,,,,コウユウ,0
118,1030003026690,新規,0,2025-05-01,2025-05-01,ＴＡＩＭＢＡ合同会社,,合同会社,埼玉県,三郷市,彦成４丁目２番２－３０１号,,11,237,3410003,,,,,,,2025-05-01,1,,,,,タインバ,0
119,1030005022151,新規,0,2025-05-01,2025-05-01,医療法人社団マリア寿会,,その他の設立登記法人,埼玉県,さいたま市南区,白幡４丁目２１番７号武蔵浦和医療ビル１階,,11,108,3360022,,,,,,,2025-05-01,1,,,,,マリアジュカイ,0
124,1040001138529,新規,0,2025-05-01,2025-05-01,株式会社ＬｉｎｏＥｄｇｅ,,株式会社,千葉県,千葉市美浜区,若葉３丁目１－１８幕張ベイパーククロスレジデンスＳ２－１,,12,106,2610014,,,,,,,2025-05-01,1,,,,,リノエッジ,0
125,1040003027449,新規,0,2025-05-01,2025-05-01,イーストライフサポート合同会社,,合同会社,千葉県,松戸市,常盤平７丁目１９番地の３０クレスト常盤平４０８号,,12,207,2702261,,,,,,,2025-05-01,1,,,,,イーストライフサポート,0
127,1040005022745,新規,0,2025-05-01,2025-05-01,医療法人社団紀治会,,その他の設立登記法人,千葉県,成田市,囲護台１丁目４番地３フィールドホーム第４ビル１階,,12,211,2860035,,,,,,,2025-05-01,1,,,,,キジカイ,0
146,1120001274844,新規,0,2025-05-01,2025-05-01,株式会社ＴＹホールディングス,,株式会社,大阪府,大阪市東住吉区,鷹合１丁目１番２号,,27,121,5460014,,,,,,,2025-05-01,1,,,,,ティーワイホールディングス,0
148,1120003029271,新規,0,2025-05-01,2025-05-01,合同会社ＮＯＢＵＨＩＲＯ,,合同会社,大阪府,枚方市,山之上５丁目３０番３号,,27,210,5730047,,,,,,,2025-05-01,1,,,,,ノブヒロ,0
149,1120005024915,新規,0,2025-05-01,2025-05-01,一般社団法人国際再生医療ヘルスケア推進協会,,その他の設立登記法人,大阪府,大阪市天王寺区,上本町７丁目１番１６－１００７号,,27,109,5430001,,,,,,,2025-05-01,1,,,,,コクサイサイセイイリョウヘルスケアスイシンキョウカイ,0
152,1120103006369,新規,0,2025-05-01,2025-05-01,ＰｌｅｄｇｅＷｏｒｋｓ合同会社,,合同会社,大阪府,堺市堺区,錦綾町３丁８番１―４０４号,,27,141,5900006,,,,,,,2025-05-01,1,,,,,プレッジワークス,0
155,1130001079532,新規,0,2025-05-01,2025-05-01,ＢＹＥ‐ＫＡＢＯＳＥＮ日本株式会社,,株式会社,京都府,久世郡久御山町,田井向野２７番地１,,26,322,6130036,,,,,,,2025-05-01,1,,,,,ビーワイイーカボセンニホン,0
156,1130001079549,新規,0,2025-05-01,2025-05-01,株式会社ＴＯＡＩアセットマネジメント,,株式会社,京都府,京都市中京区,三条通烏丸西入御倉町８５番地１烏丸ビル５階,,26,104,6048166,,,,,,,2025-05-01,1,,,,,トウアイアセットマネジメント,0
157,1130001079565,新規,0,2025-05-01,2025-05-01,株式会社三誠,,株式会社,京都府,京都市左京区,田中上柳町７８－１１０３号,,26,103,6068205,,,,,,,2025-05-01,1,,,,,サンセイ,0
164,1140001138329,新規,0,2025-05-01,2025-05-01,まほろば農園株式会社,,株式会社,兵庫県,淡路市,長畠３９６番地,,28,226,6561733,,,,,,,2025-05-01,1,,,,,マホロバノウエン,0
165,1140001138353,新規,0,2025-05-01,2025-05-01,株式会社凌彩,,株式会社,兵庫県,神戸市須磨区,白川台４丁目２３番９号,,28,107,6540103,,,,,,,2025-05-01,1,,,,,リョウサイ,0
166,1140001138361,新規,0,2025-05-01,2025-05-01,株式会社Ｆｌｙｗａｙ,,株式会社,兵庫県,神戸市中央区,磯辺通４丁目２番８号,,28,110,6510084,,,,,,,2025-05-01,1,,,,,フライウェイ,0
168,1140003022002,新規,0,2025-05-01,2025-05-01,合同会社そよ風,,合同会社,兵庫県,丹波篠山市,大沢１丁目２０番地１,,28,221,6692212,,,,,,,2025-05-01,1,,,,,ソヨカゼ,0
184,1180001166607,新規,0,2025-05-01,2025-05-01,株式会社Ｆｌｏｒａｌｉｇｅ,,株式会社,愛知県,瀬戸市,八幡台８丁目２００番地,,23,204,4890861,,,,,,,2025-05-01,1,,,,,フロラリッジ,0
188,1180003028400,新規,0,2025-05-01,2025-05-01,ＰＨＵＣ　ＬＯＮＧ合同会社,,合同会社,愛知県,名古屋市千種区,神田町１番２－６０２号,,23,101,4640077,,,,,,,2025-05-01,1,,,,,フックロン,0
191,1200001043695,新規,0,2025-05-01,2025-05-01,株式会社葵,,株式会社,岐阜県,多治見市,笠原町４１０６番地の２３２,,21,204,5070901,,,,,,,2025-05-01,1,,,,,アオイ,0
192,1200001043712,新規,0,2025-05-01,2025-05-01,株式会社Ｌｉｆｅ　Ｗｏｒｋ,,株式会社,岐阜県,加茂郡八百津町,野上８０２番地２,,21,505,5050307,,,,,,,2025-05-01,1,,,,,ライフワーク,0
193,1200003006799,新規,0,2025-05-01,2025-05-01,Ｉｎｔｅｒｎａｔｉｏｎａｌ　Ｇｏｎｄａｌ　Ｔｒａｄｉｎｇ合同会社,,合同会社,岐阜県,岐阜市,黒野南３番５長屋マンション３０５号,,21,201,5000000,,,,,,,2025-05-01,1,,,,,インターナショナルゴンダルトレーディング,0
199,1220001026649,新規,0,2025-05-01,2025-05-01,株式会社Ｅｃｌａｔ,,株式会社,石川県,金沢市,藤江南２丁目９８番地１,,17,201,9200346,,,,,,,2025-05-01,1,,,,,エクラ,0
213,1290801031486,新規,0,2025-05-01,2025-05-01,こでまり株式会社,,株式会社,福岡県,北九州市小倉北区,下到津１丁目２番８－１０５号,,40,106,8030846,,,,,,,2025-05-01,1,,,,,コデマリ,0
216,1330005010910,新規,0,2025-05-01,2025-05-01,医療法人行徳,00138982,その他の設立登記法人,熊本県,熊本市中央区,内坪井町２番２号,,43,101,8600077,,,,,,,2025-05-01,1,,,,,ギョウトク,0
217,1340001027296,新規,0,2025-05-01,2025-05-01,株式会社エースワン,,株式会社,鹿児島県,鹿児島市,中央町１９番地４０Ｌｉ－Ｋａ１９２０・６Ｆ,,46,201,8900053,,,,,,,2025-05-01,1,,,,,エースワン,0
218,1340003004839,新規,0,2025-05-01,2025-05-01,合同会社ＲＡＮＡ．,,合同会社,鹿児島県,鹿児島市,宇宿２丁目２５番１－１２０７号,,46,201,8900073,,,,,,,2025-05-01,1,,,,,ラナ,0
219,1350001019508,新規,0,2025-05-01,2025-05-01,株式会社ファンドベース,,株式会社,宮崎県,宮崎市,吉村町今村甲４１８３番地１,,45,201,8800841,,,,,,,2025-05-01,1,,,,,ファンドベース,0
220,1360001035108,新規,0,2025-05-01,2025-05-01,株式会社ジョイクリエイト沖縄,,株式会社,沖縄県,那覇市,泊２丁目１３番地４号メゾン泊１Ｆ,,47,201,9000012,,,,,,,2025-05-01,1,,,,,ジョイクリエイトオキナワ,0
224,1370003007062,新規,0,2025-05-01,2025-05-01,合同会社ＬＡＰＡＺ,,合同会社,宮城県,仙台市泉区,南光台４丁目４番１号,,04,105,9818003,,,,,,,2025-05-01,1,,,,,ラパス,0
228,1420005007955,新規,0,2025-05-01,2025-05-01,一般財団法人創匠学園設立準備財団,,その他の設立登記法人,青森県,青森市,大字浜田字玉川２４６番地１,,02,201,0300843,,,,,,,2025-05-01,1,,,,,ソウショウガクエンセツリツジュンビザイダン,0
230,1430001094286,新規,0,2025-05-01,2025-05-01,株式会社ＯＨＡＮＡ,,株式会社,北海道,苫小牧市,宮の森町２丁目４番４８号,,01,213,0530844,,,,,,,2025-05-01,1,,,,,オハナ,0
233,1440003001685,新規,0,2025-05-01,2025-05-01,合同会社一,,合同会社,北海道,北斗市,追分４丁目１番３７号,,01,236,0490101,,,,,,,2025-05-01,1,,,,,ハジメ,0
235,1470001020692,新規,0,2025-05-01,2025-05-01,株式会社ジョイフル・ホーム,,株式会社,香川県,高松市,十川西町７８６番地１２,,37,201,7610433,,,,,,,2025-05-01,1,,,,,ジョイフルホーム,0
237,1470003002879,新規,0,2025-05-01,2025-05-01,立合同会社,,合同会社,香川県,高松市,川島東町１２９２番地７,,37,201,7610443,,,,,,,2025-05-01,1,,,,,リツ,0
238,1480005007090,新規,0,2025-05-01,2025-05-01,ＮＰＯ法人ＲＩＶＥＲ　ＳＩＤＥ　ＣＩＴＹ,,その他の設立登記法人,徳島県,吉野川市,鴨島町中島４８２番地１５,,36,205,7760004,,,,,,,2025-05-01,1,,,,,リバーサイドシティー,0
239,1700150130285,新規,0,2025-05-01,2025-05-01,Ｅｎｅｒｇｙ　Ｏｒｉｇｉｎ（Ｎａｎｊｉｎｇ）Ｔｅｃｈｎｏｌｏｇｙ　Ｃｏ．，Ｌｔｄ,,外国会社等,,,,,,,,ｎａｎｊｉｎｇｓｈｉｊｉａｎｙｅｑｕｙｉｎｇｔｉａｎｄａｊｉｅ８８８ｈａｏＡｚｕｏ１１ｃｅｎｇ１１７ｓｈｉ,,,,,,2025-05-01,1,,,,,ノンリャンチーユエンナンジンコージーヨウシエンゴンスー,0
240,1700150130293,新規,0,2025-05-01,2025-05-01,Ｈｙｐｅ３Ｇｒｏｕｐ　Ｉｎｃ．,,外国会社等,,,,,,,,ＴｏｒｔｏｌａＰｉｅｒＰａｒｋ，Ｂｕｉｌｄｉｎｇ１，Ｓｅｃｏｎｄ　Ｆｌｏｏｒ，ＷｉｃｋｈａｍｓＣａｙ１，ＲｏａｄＴｏｗｎ，Ｔｏｒｔｏｌａ，ＢｒｉｔｉｓｈＶｉｒｇｉｎＩｓｌａｎｄｓ,,,,,,2025-05-01,1,,,,,ハイプスリーグループインコーポレーテツド,0
243,2010001254633,新規,0,2025-05-01,2025-05-01,株式会社ファルファーラ,,株式会社,東京都,中央区,日本橋蛎殻町１丁目３３番６号,,13,102,1030014,,,,,,,2025-05-01,1,,,,,ファルファーラ,0
244,2010001254641,新規,0,2025-05-01,2025-05-01,株式会社華音,,株式会社,東京都,中央区,月島１丁目２２番１－２８１４号,,13,102,1040052,,,,,,,2025-05-01,1,,,,,カノン,0
250,2010003047218,新規,0,2025-05-01,2025-05-01,アイオロス・ウィンドエナジー合同会社,,合同会社,東京都,千代田区,神田神保町２丁目１７番地神田神保町ビル７階,,13,101,1010051,,,,,,,2025-05-01,1,,,,,アイオロスウィンドエナジー,0
254,2010005039989,新規,0,2025-05-01,2025-05-01,一般社団法人ニッポン・ウエルス・ファンド,,その他の設立登記法人,東京都,中央区,銀座１丁目２０番１４号,,13,102,1040061,,,,,,,2025-05-01,1,,,,,ニッポンウエルスファンド,0
261,2010401189842,新規,0,2025-05-01,2025-05-01,ＤＡＴＥエンターテイメント株式会社,,株式会社,東京都,港区,南青山３丁目１番３６号青山丸竹ビル６Ｆ,,13,103,1070062,,,,,,,2025-05-01,1,,,,,ダテエンターテイメント,0
262,2010401190032,新規,0,2025-05-01,2025-05-01,株式会社オカザキホールディングス,,株式会社,東京都,港区,南青山２丁目２番８号,,13,103,1070062,,,,,,,2025-05-01,1,,,,,オカザキホールディングス,0
263,2010403035004,新規,0,2025-05-01,2025-05-01,合同会社Ｓ＆Ｍ,,合同会社,東京都,港区,赤坂２丁目１８番１９－３０２号,,13,103,1070052,,,,,,,2025-05-01,1,,,,,エスアンドエム,0
271,2010601067212,新規,0,2025-05-01,2025-05-01,ＨＭＫ株式会社,,株式会社,東京都,江東区,永代２丁目３番８号,,13,108,1350034,,,,,,,2025-05-01,1,,,,,エイチエムケイ,0
272,2010603011531,新規,0,2025-05-01,2025-05-01,合同会社ＪＩＮ,,合同会社,東京都,墨田区,緑４丁目４番１１－２０３号Ｓ・１マンション,,13,107,1300021,,,,,,,2025-05-01,1,,,,,ジン,0
277,2010901057284,新規,0,2025-05-01,2025-05-01,株式会社ＦＲＤ,,株式会社,東京都,世田谷区,祖師谷１丁目１２番１０号,,13,112,1570072,,,,,,,2025-05-01,1,,,,,エフアールディー,0
280,2011001169243,新規,0,2025-05-01,2025-05-01,就労移行ＩＴスクール大阪株式会社,,株式会社,東京都,渋谷区,道玄坂１丁目１５番１４号ＳＴ渋谷ビル６階,,13,113,1500043,,,,,,,2025-05-01,1,,,,,シュウロウイコウアイティースクールオオサカ,0
282,2011101111542,新規,0,2025-05-01,2025-05-01,株式会社ＧｒｏｗＴｒｕｓｔ　Ｄｅｓｉｇｎ,,株式会社,東京都,新宿区,西新宿３丁目３番１３号西新宿水間ビル６Ｆ,,13,104,1600023,,,,,,,2025-05-01,1,,,,,グロウトラストデザイン,0
286,2011203004677,新規,0,2025-05-01,2025-05-01,合同会社カモメ,,合同会社,東京都,中野区,中野２丁目２９番１７号西条ビル３階,,13,114,1640001,,,,,,,2025-05-01,1,,,,,カモメ,0
288,2011301030542,新規,0,2025-05-01,2025-05-01,鹿奈株式会社,,株式会社,東京都,杉並区,梅里１丁目２２－２６－２１２号室,,13,115,1660011,,,,,,,2025-05-01,1,,,,,カナ,0
289,2011301030550,新規,0,2025-05-01,2025-05-01,株式会社ＢＲＥＥＺＥ,,株式会社,東京都,杉並区,下高井戸５丁目１４番６号,,13,115,1680073,,,,,,,2025-05-01,1,,,,,ブリーズ,0
293,2011403004683,新規,0,2025-05-01,2025-05-01,Ｂｏａｒ合同会社,,合同会社,東京都,板橋区,南町６０番２号,,13,119,1730027,,,,,,,2025-05-01,1,,,,,ボア,0
297,2011501032017,新規,0,2025-05-01,2025-05-01,上吉兆業株式会社,,株式会社,東京都,北区,中里１丁目２１番２号中里ビル１Ｆ,,13,117,1140015,,,,,,,2025-05-01,1,,,,,ジョウキチチョウギョウ,0
298,2011503006514,新規,0,2025-05-01,2025-05-01,Ｓｐａｃｅｍａｒｋｅｔ　ｍｉｎｉ合同会社,,合同会社,東京都,北区,田端１丁目３番９号メゾン田端２０１号,,13,117,1140014,,,,,,,2025-05-01,1,,,,,スペースマーケットミニ,0
301,2011703004202,新規,0,2025-05-01,2025-05-01,合同会社Ａｔｌａｓ,,合同会社,東京都,江戸川区,松島３丁目７番４号シャルロット２０１,,13,123,1320031,,,,,,,2025-05-01,1,,,,,アトラス,0
317,2020001162645,新規,0,2025-05-01,2025-05-01,株式会社シーセンス,,株式会社,神奈川県,横浜市港北区,大豆戸町１１４番地１,,14,109,2220032,,,,,,,2025-05-01,1,,,,,シーセンス,0
318,2020001162661,新規,0,2025-05-01,2025-05-01,ＡｑｕａＧｒｅｅｎ株式会社,,株式会社,神奈川県,川崎市中原区,宮内４丁目１８―１４―３,,14,133,2110051,,,,,,,2025-05-01,1,,,,,アクアグリーン,0
332,2021003015907,新規,0,2025-05-01,2025-05-01,将軍族合同会社,,合同会社,神奈川県,愛甲郡愛川町,春日台４丁目２番地２０６号Ａ,,14,401,2430302,,,,,,,2025-05-01,1,,,,,ショウグンゾク,0
339,2030001166249,新規,0,2025-05-01,2025-05-01,株式会社村岡ハウス工業,,株式会社,埼玉県,深谷市,東方町５丁目１４番地１,,11,218,3660042,,,,,,,2025-05-01,1,,,,,ムラオカハウスコウギョウ,0
340,2030001166273,新規,0,2025-05-01,2025-05-01,株式会社Ｅｍｉｒｙ＆Ｃｏ．,,株式会社,埼玉県,川口市,大字芝６９９０－８２堀内ビル１０１,,11,203,3330866,,,,,,,2025-05-01,1,,,,,エミリーアンドコー,0
341,2030001166315,新規,0,2025-05-01,2025-05-01,株式会社ヒロノコーポレーション,,株式会社,埼玉県,深谷市,本田１８２２番地,,11,218,3691105,,,,,,,2025-05-01,1,,,,,ヒロノコーポレーション,0
343,2030005022150,新規,0,2025-05-01,2025-05-01,労働者協同組合ｃｏｃｏ,,その他の設立登記法人,埼玉県,南埼玉郡宮代町,宮代３丁目１－２０,,11,442,3450823,,,,,,,2025-05-01,1,,,,,ココ,0
347,2040001138528,新規,0,2025-05-01,2025-05-01,開運不動産株式会社,,株式会社,千葉県,茂原市,八千代１丁目２０番地の１０,,12,210,2970024,,,,,,,2025-05-01,1,,,,,カイウンフドウサン,0
354,2040003027448,新規,0,2025-05-01,2025-05-01,ＴＪ３合同会社,,合同会社,千葉県,千葉市中央区,松波２丁目８番２号,,12,101,2600044,,,,,,,2025-05-01,1,,,,,ティージェイスリー,0
363,2070003005905,新規,0,2025-05-01,2025-05-01,合同会社ＴＨＥ　ＯＢＲＩＧＥ,,合同会社,群馬県,伊勢崎市,連取町３２９５番地３,,10,204,3720812,,,,,,,2025-05-01,1,,,,,ザオブリージュ,0
369,2080103003304,新規,0,2025-05-01,2025-05-01,ＪＮＴ２ｐｌａｎｎｉｎｇ合同会社,,合同会社,静岡県,熱海市,渚町２０２０－３６,,22,205,4130014,,,,,,,2025-05-01,1,,,,,ジェイエヌティーツープランニング,0
370,2080103003312,新規,0,2025-05-01,2025-05-01,ＡＪ合同会社,,合同会社,静岡県,富士宮市,小泉１４４９－２５,,22,207,4180022,,,,,,,2025-05-01,1,,,,,エージェー,0
380,2120001274959,新規,0,2025-05-01,2025-05-01,啓雲株式会社,,株式会社,大阪府,大阪市淀川区,十三本町１丁目９番２０－３０８号,,27,123,5320024,,,,,,,2025-05-01,1,,,,,ケイウン,0
381,2120001275057,新規,0,2025-05-01,2025-05-01,株式会社海外国際,,株式会社,大阪府,大阪市生野区,勝山南４丁目５番２－３０１号,,27,116,5440021,,,,,,,2025-05-01,1,,,,,カイガイコクサイ,0
382,2120001275098,新規,0,2025-05-01,2025-05-01,早苗株式会社,,株式会社,大阪府,大阪市生野区,新今里５丁目１５－１７－４Ｃ,,27,116,5440001,,,,,,,2025-05-01,1,,,,,サナエ,0
384,2120003029254,新規,0,2025-05-01,2025-05-01,合同会社レッカー屋サカイ,,合同会社,大阪府,枚方市,長尾谷町１丁目３０７番地の６ルミエール長尾５０８,,27,210,5730164,,,,,,,2025-05-01,1,,,,,レッカーヤサカイ,0
385,2120003029279,新規,0,2025-05-01,2025-05-01,Ｍｅｌｏｄｙ合同会社,,合同会社,大阪府,大阪市中央区,谷町６丁目１７－１２,,27,128,5420012,,,,,,,2025-05-01,1,,,,,メロディー,0
389,2122001039152,新規,0,2025-05-01,2025-05-01,株式会社もろ,,株式会社,大阪府,東大阪市,布市町１丁目６番１０号アジュール西端４０３号,,27,227,5798004,,,,,,,2025-05-01,1,,,,,モロ,0
398,2140001138336,新規,0,2025-05-01,2025-05-01,株式会社スリーミ,,株式会社,兵庫県,高砂市,荒井町小松原１丁目１８番３０号,,28,216,6760011,,,,,,,2025-05-01,1,,,,,スリーミ,0
399,2140001138344,新規,0,2025-05-01,2025-05-01,Ｍ＆Ｒオフィス株式会社,,株式会社,兵庫県,神戸市兵庫区,駅前通５丁目１番４号,,28,105,6520898,,,,,,,2025-05-01,1,,,,,エムアンドアールオフィス,0
406,2180001166597,新規,0,2025-05-01,2025-05-01,株式会社ＲＩＮＺＯ,,株式会社,愛知県,名古屋市北区,清水３丁目３番２２号,,23,103,4620844,,,,,,,2025-05-01,1,,,,,リンゾウ,0
407,2180001166614,新規,0,2025-05-01,2025-05-01,株式会社ＴＥＮＷＯＲＫＳ,,株式会社,愛知県,一宮市,大和町毛受字西屋敷２５番地３,,23,203,4910932,,,,,,,2025-05-01,1,,,,,テンワークス,0
417,2180301039759,新規,0,2025-05-01,2025-05-01,株式会社ＳＵＮ　ＲＩＳＥ,,株式会社,愛知県,豊田市,栄町１丁目３６番地２グランデール栄Ａ２０２,,23,211,4710066,,,,,,,2025-05-01,1,,,,,サンライズ,0
427,2200003006807,新規,0,2025-05-01,2025-05-01,合同会社ＫＴ,,合同会社,岐阜県,中津川市,駒場３９番地の９,,21,206,5080011,,,,,,,2025-05-01,1,,,,,ケーティー,0
432,2220001026648,新規,0,2025-05-01,2025-05-01,金沢ひばり株式会社,,株式会社,石川県,金沢市,平和町３丁目１２番８号,,17,201,9218105,,,,,,,2025-05-01,1,,,,,カナザワヒバリ,0
448,2290003016764,新規,0,2025-05-01,2025-05-01,ＣＡＲＬＩＦＥ合同会社,,合同会社,福岡県,福岡市博多区,吉塚１丁目３－６－２０３,,40,132,8120041,,,,,,,2025-05-01,1,,,,,,0
452,2290005019724,新規,0,2025-05-01,2025-05-01,特定非営利活動法人愛燦燦ｐｒｏｊｅｃｔ,,その他の設立登記法人,福岡県,福岡市中央区,渡辺通５丁目６番１８－６１０号,,40,133,8100004,,,,,,,2025-05-01,1,,,,,アイサンサンプロジェクト,0
455,2290801031493,新規,0,2025-05-01,2025-05-01,株式会社Ｃｒａｗｌ　ｕｐ,,株式会社,福岡県,遠賀郡水巻町,吉田南４丁目２番１１号,,40,382,8070048,,,,,,,2025-05-01,1,,,,,クロールアップ,0
468,2370001052530,新規,0,2025-05-01,2025-05-01,株式会社菊地竹材,,株式会社,宮城県,白石市,大鷹沢三沢字落合３６番地,,04,206,9890213,,,,,,,2025-05-01,1,,,,,キクチタケザイ,0
470,2380001035286,新規,0,2025-05-01,2025-05-01,ＴＷＩＮＳＴＡＲ株式会社,,株式会社,福島県,相馬市,中村字田町１８,,07,209,9760042,,,,,,,2025-05-01,1,,,,,ツインスター,0
477,2430001094293,新規,0,2025-05-01,2025-05-01,株式会社ソルクリエイト,,株式会社,北海道,札幌市東区,北三十八条東１７丁目１番８－２号,,01,103,0070838,,,,,,,2025-05-01,1,,,,,ソルクリエイト,0
478,2430001094319,新規,0,2025-05-01,2025-05-01,株式会社ＮＲＣ,,株式会社,北海道,札幌市白石区,北郷七条８丁目４番７号,,01,104,0030837,,,,,,,2025-05-01,1,,,,,エヌアールシー,0
481,2462501001032,新規,0,2025-05-01,2025-05-01,株式会社ＣＦＶ,,株式会社,北海道,標津郡中標津町,西十条北３丁目１番地３,,01,692,0861130,,,,,,,2025-05-01,1,,,,,シーエフブイ,0
482,2470003002878,新規,0,2025-05-01,2025-05-01,合同会社中津商店,,合同会社,香川県,高松市,築地町１６番地１０ダイアパレス築地６０５,,37,201,7600061,,,,,,,2025-05-01,1,,,,,ナカツショウテン,0
483,2480001012820,新規,0,2025-05-01,2025-05-01,株式会社ＲＳ　Ｄｅｓｉｇｎ,,株式会社,徳島県,徳島市,北田宮２丁目１２番１９号,,36,201,7700003,,,,,,,2025-05-01,1,,,,,アールエスデザイン,0
488,2700150130284,新規,0,2025-05-01,2025-05-01,Ｒｅｄｓｈｉｆｔ　Ｓｐｏｒｔｓ　ＬＬＣ,,外国会社等,,,,,,,,１９０１　Ｓ　９ｔｈ　Ｓｔ，ＳＴＥ　６０１Ａ，Ｐｈｉｌａｄｅｌｐｈｉａ，ＰＡ　１９１４８，ＵＳＡ,,,,,,2025-05-01,1,,,,,レツドシフトスポーツエルエルシー,0
499,3010001254616,新規,0,2025-05-01,2025-05-01,株式会社Ｐｒｏｏｆ,,株式会社,東京都,中央区,晴海２丁目３番３０－１２０８号,,13,102,1040053,,,,,,,2025-05-01,1,,,,,プルーフ,0
500,3010001254640,新規,0,2025-05-01,2025-05-01,株式会社ホワイトホール,,株式会社,東京都,中央区,銀座１丁目１２－４Ｎ＆ＥＢＬＤ．７階,,13,102,1040061,,,,,,,2025-05-01,1,,,,,ホワイトホール,0
501,3010001254657,新規,0,2025-05-01,2025-05-01,キネトロールジャパン株式会社,,株式会社,東京都,中央区,日本橋３丁目９番１号日本橋三丁目スクエア１１階,,13,102,1030027,,,,,,,2025-05-01,1,,,,,キネトロールジャパン,0
502,3010001254698,新規,0,2025-05-01,2025-05-01,大盛国際株式会社,,株式会社,東京都,中央区,銀座１丁目１２番４号Ｎ＆Ｅ－ＢＬＤ．６Ｆ,,13,102,1040061,,,,,,,2025-05-01,1,,,,,タイセイコクサイ,0
505,3010003047035,新規,0,2025-05-01,2025-05-01,ＯＪアーキテクト合同会社,,合同会社,東京都,中央区,銀座１丁目１２番４号Ｎ＆ＥＢＬＤ．６Ｆ,,13,102,1040061,,,,,,,2025-05-01,1,,,,,オージェイアーキテクト,0
507,3010005040005,新規,0,2025-05-01,2025-05-01,女満別ソーラー一般社団法人,,その他の設立登記法人,東京都,千代田区,霞が関３丁目２番５号霞が関ビルディング３１階,,13,101,1000013,,,,,,,2025-05-01,1,,,,,メマンベツソーラー,0
517,3010401189890,新規,0,2025-05-01,2025-05-01,恵通スマートテック株式会社,,株式会社,東京都,港区,新橋５丁目１３番１０号,,13,103,1050004,,,,,,,2025-05-01,1,,,,,ケイツウスマートテック,0
518,3010401190023,新規,0,2025-05-01,2025-05-01,株式会社ＫＢ　Ｃｏｎｎｅｃｔ,,株式会社,東京都,港区,芝５丁目３６番４号札の辻スクエア９階,,13,103,1080014,,,,,,,2025-05-01,1,,,,,ケービーコネクト,0
519,3010401190031,新規,0,2025-05-01,2025-05-01,株式会社Ｚｅｎ＆Ｃｏ．,,株式会社,東京都,港区,赤坂８丁目４番１４号青山タワープレイス８Ｆ,,13,103,1070052,,,,,,,2025-05-01,1,,,,,ゼンアンドカンパニー,0
520,3010401190072,新規,0,2025-05-01,2025-05-01,株式会社Ｔ＆Ｓホールディングス,,株式会社,東京都,港区,港南２丁目１５番１号,,13,103,1080075,,,,,,,2025-05-01,1,,,,,ティアンドエスホールディングス,0
522,3010403034839,新規,0,2025-05-01,2025-05-01,合同会社ＧＦＡファンド,,合同会社,東京都,港区,南青山２丁目２番１５号,,13,103,1070062,,,,,,,2025-05-01,1,,,,,ジーエフエーファンド,0
523,3010403035003,新規,0,2025-05-01,2025-05-01,合同会社ＨＯＬＯＳ,,合同会社,東京都,港区,麻布台３丁目２番６号２階,,13,103,1060041,,,,,,,2025-05-01,1,,,,,ホロス,0
525,3010501054029,新規,0,2025-05-01,2025-05-01,株式会社Ｐａｙ　ｉｔ　Ｆｏｒｗａｒｄ,,株式会社,東京都,台東区,蔵前３丁目６番６－７０２号Ｓ－ＲＥＳＩＤＥＮＣＥ蔵前,,13,106,1110051,,,,,,,2025-05-01,1,,,,,ペイイットフォワード,0
527,3010603011539,新規,0,2025-05-01,2025-05-01,合同会社Ｖａｉｋａｉ,,合同会社,東京都,江東区,富岡２丁目７番６号矢野第二ビル３０３,,13,108,1350047,,,,,,,2025-05-01,1,,,,,ヴァイカイ,0
537,3010901057218,新規,0,2025-05-01,2025-05-01,ＯＮＹＵ　ＳＴＵＤＩＯ株式会社,,株式会社,東京都,世田谷区,奥沢６丁目２８番１７－２０２号,,13,112,1580083,,,,,,,2025-05-01,1,,,,,オンユウスタジオ,0
538,3010901057275,新規,0,2025-05-01,2025-05-01,ＳＥ　Ｇｒｏｕｐ株式会社,,株式会社,東京都,世田谷区,太子堂４丁目１８番１５号マガザン三軒茶２－３Ｆ－３,,13,112,1540004,,,,,,,2025-05-01,1,,,,,エスイーグループ,0
539,3010901057283,新規,0,2025-05-01,2025-05-01,株式会社ＮｅｏＰｅｌ,,株式会社,東京都,世田谷区,若林１丁目４番１１号ハイム三軒茶屋,,13,112,1540023,,,,,,,2025-05-01,1,,,,,ネオペル,0
554,3011501032008,新規,0,2025-05-01,2025-05-01,株式会社互恵,,株式会社,東京都,北区,王子１丁目３０番７－８０２号,,13,117,1140002,,,,,,,2025-05-01,1,,,,,ゴケイ,0
555,3011501032024,新規,0,2025-05-01,2025-05-01,旭炎株式会社,,株式会社,東京都,荒川区,東日暮里４丁目９番２号,,13,118,1160014,,,,,,,2025-05-01,1,,,,,アサヒエン,0
557,3011801046046,新規,0,2025-05-01,2025-05-01,株式会社Ｓｅｃｒｅｔ　Ｍｉｎｄ,,株式会社,東京都,葛飾区,亀有２丁目３２番４号,,13,122,1250061,,,,,,,2025-05-01,1,,,,,シークレットマインド,0
559,3012701018837,新規,0,2025-05-01,2025-05-01,株式会社たろう社,,株式会社,東京都,東村山市,廻田町１丁目７番地４,,13,213,1890025,,,,,,,2025-05-01,1,,,,,タロウシャ,0
566,3013303007658,新規,0,2025-05-01,2025-05-01,ＨＯ　Ｃｏｎｓｕｌｔｉｎｇ合同会社,,合同会社,東京都,豊島区,南大塚２丁目６－１２,,13,116,1700005,,,,,,,2025-05-01,1,,,,,エイチオーコンサルティング,0
573,3020001162578,新規,0,2025-05-01,2025-05-01,シンライ株式会社,,株式会社,神奈川県,横浜市中区,長者町９丁目１７３番地,,14,104,2310033,,,,,,,2025-05-01,1,,,,,シンライ,0
574,3020001162628,新規,0,2025-05-01,2025-05-01,株式会社スマイルエム,,株式会社,神奈川県,横浜市都筑区,中川５丁目１８番８号,,14,118,2240001,,,,,,,2025-05-01,1,,,,,スマイルエム,0
575,3020001162636,新規,0,2025-05-01,2025-05-01,株式会社Ｈａｎｄ　Ｌｉｎｋ,,株式会社,神奈川県,横浜市鶴見区,鶴見中央５丁目７－２プラーズ鶴見中央３－２０５号室,,14,101,2300051,,,,,,,2025-05-01,1,,,,,ハンドリンク,0
576,3020003028389,新規,0,2025-05-01,2025-05-01,ＦＲＩＯＵＬＤ合同会社,,合同会社,神奈川県,横浜市青葉区,たちばな台１丁目１１番地４カドリル青葉台２０１,,14,117,2270046,,,,,,,2025-05-01,1,,,,,フリオールド,0
578,3020005016821,新規,0,2025-05-01,2025-05-01,一般社団法人学修協創協議会ＧＲＥＣＫ,,その他の設立登記法人,神奈川県,横浜市神奈川区,鶴屋町１丁目４１番ＴＨＥ・ＹＯＫＯＨＡＭＡ・ＦＲＯＮＴ４２階,,14,102,2210835,,,,,,,2025-05-01,1,,,,,ガクシュウキョウソウキョウギカイグレック,0
584,3021001085075,新規,0,2025-05-01,2025-05-01,株式会社ロンド,,株式会社,神奈川県,藤沢市,湘南台２丁目１２番１号らうらうじ湘南台Ｌ棟３階,,14,205,2520804,,,,,,,2025-05-01,1,,,,,ロンド,0
585,3021001085125,新規,0,2025-05-01,2025-05-01,株式会社英智阿蘇,,株式会社,神奈川県,藤沢市,湘南台２丁目２７番地１－３０４,,14,205,2520804,,,,,,,2025-05-01,1,,,,,エイチアソ,0
600,3030001166248,新規,0,2025-05-01,2025-05-01,株式会社ウィスラー,,株式会社,埼玉県,川口市,芝中田２丁目３９番２１号,,11,203,3330847,,,,,,,2025-05-01,1,,,,,ウィスラー,0
601,3030001166256,新規,0,2025-05-01,2025-05-01,株式会社ＫＩＢＯＵ,,株式会社,埼玉県,越谷市,宮前１丁目４番地６－２０１,,11,222,3430014,,,,,,,2025-05-01,1,,,,,キボウ,0
602,3030001166264,新規,0,2025-05-01,2025-05-01,株式会社Ｑｒｅｅｔ,,株式会社,埼玉県,ふじみ野市,苗間３３５番地１カーサカスターニャＣ１０２,,11,245,3560052,,,,,,,2025-05-01,1,,,,,クレート,0
603,3030001166272,新規,0,2025-05-01,2025-05-01,株式会社アルファリバース,,株式会社,埼玉県,草加市,柿木町１１２０,,11,221,3400001,,,,,,,2025-05-01,1,,,,,アルファリバース,0
604,3030001166289,新規,0,2025-05-01,2025-05-01,株式会社Ａｚｘｓ,,株式会社,埼玉県,所沢市,大字上安松６３５番地４号,,11,208,3590025,,,,,,,2025-05-01,1,,,,,アザス,0
605,3030001166306,新規,0,2025-05-01,2025-05-01,株式会社ＪＦＫｔｒａｄｉｎｇ,,株式会社,埼玉県,さいたま市南区,根岸２丁目２２番１６号メゾンフェニックス２０２号,,11,108,3360024,,,,,,,2025-05-01,1,,,,,ジェイエフケートレーディング,0
611,3030003026680,新規,0,2025-05-01,2025-05-01,ＬＵＭＩＡＢＬＯＯＭＳ合同会社,,合同会社,埼玉県,新座市,新座３丁目６番３－４０２号,,11,230,3520006,,,,,,,2025-05-01,1,,,,,ルミアブルームス,0
616,3040003027447,新規,0,2025-05-01,2025-05-01,ＴＪ２合同会社,,合同会社,千葉県,千葉市中央区,松波２丁目８番２号,,12,101,2600044,,,,,,,2025-05-01,1,,,,,ティージェイツー,0
621,3050001056587,新規,0,2025-05-01,2025-05-01,株式会社大前商事,,株式会社,茨城県,鉾田市,汲上３９５９番地５,,08,234,3112103,,,,,,,2025-05-01,1,,,,,オオマエショウジ,0
626,3070001042882,新規,0,2025-05-01,2025-05-01,株式会社アリカタ,,株式会社,群馬県,高崎市,白銀町９白銀ビル３階,,10,202,3700825,,,,,,,2025-05-01,1,,,,,アリカタ,0
627,3080101025456,新規,0,2025-05-01,2025-05-01,株式会社ロングブックス,,株式会社,静岡県,三島市,谷田３０番１２号,,22,206,4110801,,,,,,,2025-05-01,1,,,,,ロングブックス,0
628,3080101025472,新規,0,2025-05-01,2025-05-01,株式会社熔和工業,,株式会社,静岡県,富士市,厚原１２８９番地の７,,22,210,4190201,,,,,,,2025-05-01,1,,,,,ヨウワコウギョウ,0
650,3120001275015,新規,0,2025-05-01,2025-05-01,株式会社ワアカーゴ,,株式会社,大阪府,大阪市中央区,南久宝寺町２丁目５番３号南久宝寺ときわビル５０１号室,,27,128,5410058,,,,,,,2025-05-01,1,,,,,ワアカーゴ,0
651,3120001275056,新規,0,2025-05-01,2025-05-01,ＭＵＭＵ株式会社,,株式会社,大阪府,大阪市平野区,長吉六反３丁目１７番２５号２Ｆ－Ｄ,,27,126,5470012,,,,,,,2025-05-01,1,,,,,ムム,0
653,3120003029278,新規,0,2025-05-01,2025-05-01,合同会社テレ商事,,合同会社,大阪府,大阪市東淀川区,豊里５丁目９－３－７０３,,27,114,5330013,,,,,,,2025-05-01,1,,,,,テレショウジ,0
654,3120105010004,新規,0,2025-05-01,2025-05-01,一般社団法人ワンちゃんの歯みがき推進委員会,,その他の設立登記法人,大阪府,堺市北区,百舌鳥本町１丁１８番地２,,27,146,5918036,,,,,,,2025-05-01,1,,,,,ワンチャンノハミガキスイシンイインカイ,0
660,3122003003188,新規,0,2025-05-01,2025-05-01,合同会社エース,,合同会社,大阪府,東大阪市,菱江５丁目２番１０号,,27,227,5780984,,,,,,,2025-05-01,1,,,,,エース,0
663,3130001079340,新規,0,2025-05-01,2025-05-01,株式会社Ｋｕｐｐｙ,,株式会社,京都府,京田辺市,松井ケ丘１丁目６番地４,,26,211,6100353,,,,,,,2025-05-01,1,,,,,クッピー,0
665,3130001079563,新規,0,2025-05-01,2025-05-01,株式会社Ｋｉｚａｋｕ,,株式会社,京都府,京都市下京区,大黒町２２７番地第２キョートビル４０２,,26,106,6008043,,,,,,,2025-05-01,1,,,,,キザク,0
666,3130003010410,新規,0,2025-05-01,2025-05-01,合同会社ありのまま,,合同会社,京都府,南丹市,園部町小桜町１５２番地２,,26,213,6220004,,,,,,,2025-05-01,1,,,,,アリノママ,0
670,3140003022017,新規,0,2025-05-01,2025-05-01,合同会社アジア学生就労支援センター,,合同会社,兵庫県,西宮市,林田町１番５－３０７号,,28,204,6638014,,,,,,,2025-05-01,1,,,,,アジアガクセイシュウロウシエンセンター,0
681,3180001166605,新規,0,2025-05-01,2025-05-01,株式会社フォーチュン,,株式会社,愛知県,一宮市,新生１丁目１０番１５号,,23,203,4910912,,,,,,,2025-05-01,1,,,,,フォーチュン,0
682,3180001166621,新規,0,2025-05-01,2025-05-01,株式会社ノルヤキ,,株式会社,愛知県,江南市,古知野町桃源４８番地,,23,217,4838271,,,,,,,2025-05-01,1,,,,,ノルヤキ,0
688,3180003028398,新規,0,2025-05-01,2025-05-01,合同会社ＫＹＵ　ＹＡＫＩＮＩＫＵ,,合同会社,愛知県,春日井市,白山町３丁目１４番地１ベルテール１０２号,,23,206,4870034,,,,,,,2025-05-01,1,,,,,キューヤキニク,0
689,3180005021079,新規,0,2025-05-01,2025-05-01,一般社団法人えがおたいむ,,その他の設立登記法人,愛知県,名古屋市緑区,鳴子町２丁目６８番地,,23,114,4580041,,,,,,,2025-05-01,1,,,,,エガオタイム,0
708,3200001043693,新規,0,2025-05-01,2025-05-01,株式会社ＩＲＵＹＯ,,株式会社,岐阜県,多治見市,明和町５丁目１１－１明和プラザ２Ｆ・Ｃ,,21,204,5070072,,,,,,,2025-05-01,1,,,,,イルヨ,0
715,3220003004007,新規,0,2025-05-01,2025-05-01,合同会社焼塩エイミー,,合同会社,石川県,珠洲市,飯田町１５―２０―１奥能登ブリッジ,,17,205,9271214,,,,,,,2025-05-01,1,,,,,ヤキシオエイミー,0
724,3240001064876,新規,0,2025-05-01,2025-05-01,株式会社Ａグローバル,,株式会社,広島県,福山市,奈良津町１丁目１番２２号,,34,207,7200022,,,,,,,2025-05-01,1,,,,,エーグローバル,0
725,3240003007172,新規,0,2025-05-01,2025-05-01,合同会社ｓａｆａｒｉ８０８,,合同会社,広島県,広島市中区,上八丁堀３番１２号新興ビル５０２,,34,101,7300012,,,,,,,2025-05-01,1,,,,,サファリハチマルハチ,0
731,3260003005158,新規,0,2025-05-01,2025-05-01,ＦＵＪＩ　ＴＲＡＤＩＮＧ合同会社,,合同会社,岡山県,岡山市北区,御津草生１６２２の２,,33,101,7092132,,,,,,,2025-05-01,1,,,,,フジトレーディング,0
732,3260005011476,新規,0,2025-05-01,2025-05-01,一般社団法人イングサポート協会,,その他の設立登記法人,岡山県,岡山市北区,西辛川８８８番地５,,33,101,7011213,,,,,,,2025-05-01,1,,,,,イングサポートキョウカイ,0
736,3290001109890,新規,0,2025-05-01,2025-05-01,株式会社ライズ,,株式会社,福岡県,福岡市中央区,平尾２丁目１２番１８－２０２号,,40,133,8100014,,,,,,,2025-05-01,1,,,,,ライズ,0
737,3290003016788,新規,0,2025-05-01,2025-05-01,合同会社Ｍｉｍｏｓ,,合同会社,福岡県,福岡市中央区,天神２丁目２番１２号Ｔ＆Ｊビルディング７Ｆ,,40,133,8100001,,,,,,,2025-05-01,1,,,,,ミモス,0
739,3290005019731,新規,0,2025-05-01,2025-05-01,一般社団法人赤間塾,,その他の設立登記法人,福岡県,宗像市,三郎丸１丁目３番１２号,,40,220,8114143,,,,,,,2025-05-01,1,,,,,アカマジュク,0
741,3290803005040,新規,0,2025-05-01,2025-05-01,合同会社ほほえみ中間,,合同会社,福岡県,中間市,東中間１丁目３番５号,,40,215,8090019,,,,,,,2025-05-01,1,,,,,ホホエミナカマ,0
743,3310001019583,新規,0,2025-05-01,2025-05-01,株式会社ダブルベリー,,株式会社,長崎県,長崎市,住吉町１番９号,,42,201,8528154,,,,,,,2025-05-01,1,,,,,ダブルベリー,0
744,3320003004608,新規,0,2025-05-01,2025-05-01,合同会社ＢＡＧＵＳ．,,合同会社,大分県,別府市,船小路町６番１４号ボストンハウス船小路Ａ棟,,44,202,8740922,,,,,,,2025-05-01,1,,,,,バグース,0
750,3400003003444,新規,0,2025-05-01,2025-05-01,合同会社佐々木設備,,合同会社,岩手県,盛岡市,みたけ３丁目１３番２５号,,03,201,0200122,,,,,,,2025-05-01,1,,,,,ササキセツビ,0
766,3700150130283,新規,0,2025-05-01,2025-05-01,協紡有限公司,,外国会社等,,,,,,,,台北市松山区敦化北路２０７號７棲之６,,,,,,2025-05-01,1,,,,,キヨウボウユウゲンコウシ,0
776,4010001254623,新規,0,2025-05-01,2025-05-01,藏色株式会社,,株式会社,東京都,中央区,東日本橋３丁目９番１０号ＤＩＮＯ日本橋ビル,,13,102,1030004,,,,,,,2025-05-01,1,,,,,クラシキ,0
777,4010001254656,新規,0,2025-05-01,2025-05-01,ＳＵＰＥＲＩＯＲ二世古株式会社,,株式会社,東京都,中央区,銀座４丁目１３番８号岩藤ビル５階,,13,102,1040061,,,,,,,2025-05-01,1,,,,,スーペリアニセコ,0
778,4010001254664,新規,0,2025-05-01,2025-05-01,株式会社Ｏｎ　Ｌｉｖｅ,,株式会社,東京都,中央区,東日本橋２丁目５番１０号６Ｆ,,13,102,1030004,,,,,,,2025-05-01,1,,,,,オンライブ,0
782,4010003047224,新規,0,2025-05-01,2025-05-01,長崎畝刈蓄電合同会社,,合同会社,東京都,千代田区,神田練塀町３番地,,13,101,1010022,,,,,,,2025-05-01,1,,,,,ナガサキアゼカリチクデン,0
783,4010003047232,新規,0,2025-05-01,2025-05-01,中目セントラル合同会社,,合同会社,東京都,千代田区,丸の内１丁目４番１号東京共同会計事務所内,,13,101,1000005,,,,,,,2025-05-01,1,,,,,ナカメセントラル,0
788,4010401189857,新規,0,2025-05-01,2025-05-01,ＴＰＬ株式会社,,株式会社,東京都,港区,赤坂８丁目１１番１９号６０１号室,,13,103,1070052,,,,,,,2025-05-01,1,,,,,テピエル,0
789,4010401189865,新規,0,2025-05-01,2025-05-01,元気株式会社,,株式会社,東京都,港区,白金台３丁目１５－１１,,13,103,1080071,,,,,,,2025-05-01,1,,,,,ゲンキ,0
790,4010401189898,新規,0,2025-05-01,2025-05-01,株式会社ＭｏＵＰ,,株式会社,東京都,港区,北青山１丁目３－１アールキューブ青山３階,,13,103,1070061,,,,,,,2025-05-01,1,,,,,モアップ,0
791,4010401189989,新規,0,2025-05-01,2025-05-01,株式会社Ｃｈａｎｎｅｌ　Ｆａｃｔｏｒｙ　Ｊａｐａｎ,,株式会社,東京都,港区,北青山１丁目３番１号３階,,13,103,1070061,,,,,,,2025-05-01,1,,,,,チャンネルファクトリージャパン,0
792,4010401190014,新規,0,2025-05-01,2025-05-01,株式会社オプティズム,,株式会社,東京都,港区,南青山３丁目１番３６号青山丸竹ビル６Ｆ,,13,103,1070062,,,,,,,2025-05-01,1,,,,,オプティズム,0
793,4010401190022,新規,0,2025-05-01,2025-05-01,Ｓｅａｓｏｎｌｙ　Ｊａｐａｎ株式会社,,株式会社,東京都,港区,北青山１丁目３番１号アールキューブ青山３階,,13,103,1070061,,,,,,,2025-05-01,1,,,,,シーズンリージャパン,0
794,4010401190030,新規,0,2025-05-01,2025-05-01,株式会社ミライジング,,株式会社,東京都,港区,南青山３丁目１番３６号青山丸竹ビル６Ｆ,,13,103,1070062,,,,,,,2025-05-01,1,,,,,ミライジング,0
797,4010403034912,新規,0,2025-05-01,2025-05-01,合同会社系統蓄電所１号,,合同会社,東京都,港区,赤坂２丁目１６番１９号,,13,103,1070052,,,,,,,2025-05-01,1,,,,,ケイトウチクデンショイチゴウ,0
798,4010403035019,新規,0,2025-05-01,2025-05-01,合同会社ａｓｈｙ,,合同会社,東京都,港区,北青山２丁目７番１３号３階,,13,103,1070061,,,,,,,2025-05-01,1,,,,,エーシャイン,0
799,4010403035035,新規,0,2025-05-01,2025-05-01,合同会社Ｐｈｉ,,合同会社,東京都,港区,南青山３丁目１番３６号青山丸竹ビル６Ｆ,,13,103,1070062,,,,,,,2025-05-01,1,,,,,ファイ,0
801,4010501053970,新規,0,2025-05-01,2025-05-01,シンジンユェン株式会社,,株式会社,東京都,台東区,東浅草２丁目２６－１３藤澤ビル１階,,13,106,1110025,,,,,,,2025-05-01,1,,,,,シンジンユェン,0
807,4010601067227,新規,0,2025-05-01,2025-05-01,株式会社ネガポジ,,株式会社,東京都,墨田区,押上２丁目９－１８,,13,107,1310045,,,,,,,2025-05-01,1,,,,,ネガポジ,0
822,4011001169142,新規,0,2025-05-01,2025-05-01,株式会社スマートネスト,,株式会社,東京都,渋谷区,神南１丁目１１番４号ＦＰＧリンクス神南５階,,13,113,1500041,,,,,,,2025-05-01,1,,,,,スマートネスト,0
823,4011001169522,新規,0,2025-05-01,2025-05-01,株式会社ＡＩＵＥＯ,,株式会社,東京都,渋谷区,代々木４丁目５９番３号１１０３号,,13,113,1510053,,,,,,,2025-05-01,1,,,,,アイウエオ,0
824,4011001169555,新規,0,2025-05-01,2025-05-01,株式会社ＳＳＳ,,株式会社,東京都,渋谷区,初台１丁目４０番５号,,13,113,1510061,,,,,,,2025-05-01,1,,,,,エスエスエス,0
827,4011101111573,新規,0,2025-05-01,2025-05-01,株式会社Ｄ＆Ｔ,,株式会社,東京都,新宿区,百人町１丁目１８－８大久保カドビルＬｉｎｋ　Ｓｐａｃｅ百人町Ａ１４,,13,104,1690073,,,,,,,2025-05-01,1,,,,,ディーアンドティー,0
832,4011301030540,新規,0,2025-05-01,2025-05-01,ＧＯＯＤＰＥＯＰＬＥ株式会社,,株式会社,東京都,杉並区,高円寺南１丁目４番１０－２１０号レ・ベント高円寺,,13,115,1660003,,,,,,,2025-05-01,1,,,,,グッドピープル,0
833,4011301030549,新規,0,2025-05-01,2025-05-01,株式会社東京クリエイトグループ,,株式会社,東京都,杉並区,永福２丁目１４番２２号,,13,115,1680064,,,,,,,2025-05-01,1,,,,,トウキョウクリエイトグループ,0
836,4011701028317,新規,0,2025-05-01,2025-05-01,株式会社富士ゴリラトラベル,,株式会社,東京都,江戸川区,平井５丁目４４番６号ＣＷＨ平井ビルディング２階２０５号室,,13,123,1320035,,,,,,,2025-05-01,1,,,,,フジゴリラトラベル,0
838,4011703004217,新規,0,2025-05-01,2025-05-01,Ｒａｓｈｉｋｕｌ合同会社,,合同会社,東京都,江戸川区,南小岩２丁目８番１５号,,13,123,1330056,,,,,,,2025-05-01,1,,,,,ラシクル,0
840,4012401043036,新規,0,2025-05-01,2025-05-01,ＰｌｅａｓｅＰａｒｔｎｅｒｓ株式会社,,株式会社,東京都,稲城市,矢野口３０００番地ヒルサイドテラスＢ棟１０２,,13,225,2060812,,,,,,,2025-05-01,1,,,,,プリーズパートナーズ,0
842,4012403007096,新規,0,2025-05-01,2025-05-01,合同会社テネイシャス,,合同会社,東京都,三鷹市,野崎３丁目３番１４号－１０１,,13,204,1810014,,,,,,,2025-05-01,1,,,,,テネイシャス,0
843,4012701018836,新規,0,2025-05-01,2025-05-01,株式会社ＷＥＳＴ,,株式会社,東京都,清瀬市,松山３丁目３番９号,,13,221,2040022,,,,,,,2025-05-01,1,,,,,ウエスト,0
847,4013301054148,新規,0,2025-05-01,2025-05-01,アドバンス株式会社,,株式会社,東京都,豊島区,東池袋２丁目３２番４号２０１号,,13,116,1700013,,,,,,,2025-05-01,1,,,,,アドバンス,0
850,4020001162610,新規,0,2025-05-01,2025-05-01,株式会社キヨシホールディングス,,株式会社,神奈川県,横浜市港南区,港南中央通８番２２号,,14,111,2330004,,,,,,,2025-05-01,1,,,,,キヨシホールディングス,0
851,4020001162635,新規,0,2025-05-01,2025-05-01,株式会社バルム,,株式会社,神奈川県,川崎市幸区,柳町６９番地プラウド川崎柳町１２０７,,14,132,2120015,,,,,,,2025-05-01,1,,,,,バルム,0
852,4020001162643,新規,0,2025-05-01,2025-05-01,株式会社マイパニエ・ジャパン,,株式会社,神奈川県,横浜市中区,尾上町４丁目５７番地横浜尾上町ビルディング８Ｆ８６１,,14,104,2310015,,,,,,,2025-05-01,1,,,,,マイパニエジャパン,0
853,4020001162651,新規,0,2025-05-01,2025-05-01,株式会社Ｄｉｓｃｏｖｅｒｙ,,株式会社,神奈川県,川崎市中原区,中丸子１３番地７リエトコート武蔵小杉イーストタワー２７０３,,14,133,2110012,,,,,,,2025-05-01,1,,,,,ディスカバリー,0
859,4021001085132,新規,0,2025-05-01,2025-05-01,株式会社ｓａｎｋｈａ,,株式会社,神奈川県,藤沢市,湘南台１丁目１１番１０号八千代ビル２０１,,14,205,2520804,,,,,,,2025-05-01,1,,,,,シャンカ,0
861,4021003015888,新規,0,2025-05-01,2025-05-01,Ｈｅａｒｔｓ＆Ｍｉｎｄｓ合同会社,,合同会社,神奈川県,藤沢市,柄沢２丁目３９番地の２デルニエＫ３０１号,,14,205,2510003,,,,,,,2025-05-01,1,,,,,ハーツアンドマインズ,0
862,4021003015921,新規,0,2025-05-01,2025-05-01,合同会社ｇｉｆｔ,,合同会社,神奈川県,厚木市,妻田北１丁目３番地９号,,14,212,2430812,,,,,,,2025-05-01,1,,,,,ギフト,0
865,4030001166288,新規,0,2025-05-01,2025-05-01,ＨＡＴＳＵＹＵＭＥ株式会社,,株式会社,埼玉県,入間郡三芳町,大字藤久保３４９番地２６,,11,324,3540041,,,,,,,2025-05-01,1,,,,,ハツユメ,0
866,4030001166296,新規,0,2025-05-01,2025-05-01,＿邦企業株式会社,00138985,株式会社,埼玉県,川口市,西川口６丁目４－６第二荻島ビル２１０,,11,203,3320021,,,,,,,2025-05-01,1,,,,,キンホウキギョウ,0
870,4030003026639,新規,0,2025-05-01,2025-05-01,合同会社マルシン,,合同会社,埼玉県,草加市,瀬崎５丁目２８番１４－３１２号,,11,221,3400022,,,,,,,2025-05-01,1,,,,,マルシン,0
875,4040001138427,新規,0,2025-05-01,2025-05-01,株式会社Ｌａｍａｌｉ,,株式会社,千葉県,鎌ケ谷市,東初富１丁目１６番２１号,,12,224,2730122,,,,,,,2025-05-01,1,,,,,ラマリ,0
877,4040003027446,新規,0,2025-05-01,2025-05-01,ＴＪ１合同会社,,合同会社,千葉県,千葉市中央区,松波２丁目８番２号,,12,101,2600044,,,,,,,2025-05-01,1,,,,,ティージェイワン,0
878,4040003027454,新規,0,2025-05-01,2025-05-01,合同会社ＡＮ　ＫＨＡＮＧ,,合同会社,千葉県,船橋市,海神町東１丁目１３８３番地入江コーポＢ棟１０２号,,12,204,2730028,,,,,,,2025-05-01,1,,,,,アンカン,0
887,4050001056578,新規,0,2025-05-01,2025-05-01,株式会社アップエナジー,,株式会社,茨城県,稲敷郡阿見町,よしわら２丁目２番地９,,08,443,3001161,,,,,,,2025-05-01,1,,,,,アップエナジー,0
891,4050003009229,新規,0,2025-05-01,2025-05-01,合同会社ソフトイージス,,合同会社,茨城県,つくば市,谷田部６９２３番地３,,08,220,3050861,,,,,,,2025-05-01,1,,,,,ソフトイージス,0
897,4070003005903,新規,0,2025-05-01,2025-05-01,合同会社Ａ　ｃｒｅａｔｅ,,合同会社,群馬県,前橋市,元総社町１２６８番地１オークスＤ１０１,,10,201,3710846,,,,,,,2025-05-01,1,,,,,エースクリエイト,0
899,4080101025471,新規,0,2025-05-01,2025-05-01,株式会社ＴＳＵＮＡＧＵ,,株式会社,静岡県,富士市,入山瀬９６０番地の１,,22,210,4190204,,,,,,,2025-05-01,1,,,,,ツナグ,0
901,4080401027878,新規,0,2025-05-01,2025-05-01,株式会社メモリア,,株式会社,静岡県,浜松市中央区,高丘西１丁目１番５０号,,22,138,4338118,,,,,,,2025-05-01,1,,,,,メモリア,0
905,4090001019234,新規,0,2025-05-01,2025-05-01,株式会社ＬＡＧＯＯＮ　ＫＡＷＡＧＵＣＨＩＫＯ,,株式会社,山梨県,南都留郡忍野村,忍草２５６０番地７,,19,424,4010511,,,,,,,2025-05-01,1,,,,,ラグーンカワグチコ,0
911,4100003008126,新規,0,2025-05-01,2025-05-01,雪ご飯合同会社,,合同会社,長野県,北安曇郡白馬村,大字北城２２９３番地１グレイスプラザ３０４号室,,20,485,3999301,,,,,,,2025-05-01,1,,,,,ユキゴハン,0
928,4120001274932,新規,0,2025-05-01,2025-05-01,株式会社ｅａｕ,,株式会社,大阪府,大阪市中央区,宗右衛門町６－３０豊の家ビル３Ｆ,,27,128,5420084,,,,,,,2025-05-01,1,,,,,オー,0
929,4120001274998,新規,0,2025-05-01,2025-05-01,添美貿易株式会社,,株式会社,大阪府,大阪市西成区,山王２丁目１３番２１号,,27,122,5570001,,,,,,,2025-05-01,1,,,,,テンビボウエキ,0
930,4120001275088,新規,0,2025-05-01,2025-05-01,紫芯山株式会社,,株式会社,大阪府,大阪市生野区,鶴橋２丁目１９番１３号コンフォート鶴橋２０１号室,,27,116,5440031,,,,,,,2025-05-01,1,,,,,シシンザン,0
931,4120001275096,新規,0,2025-05-01,2025-05-01,光智株式会社,,株式会社,大阪府,大阪市西区,立売堀５丁目１番１１－５０１号,,27,106,5500012,,,,,,,2025-05-01,1,,,,,ミツトモ,0
937,4120003029203,新規,0,2025-05-01,2025-05-01,三石国際貿易合同会社,,合同会社,大阪府,大阪市西成区,山王２丁目５－１１－２０３室,,27,122,5570001,,,,,,,2025-05-01,1,,,,,ミツイシコクサイボウエキ,0
938,4120003029269,新規,0,2025-05-01,2025-05-01,合同会社裕英,,合同会社,大阪府,門真市,末広町１番１１号,,27,223,5710030,,,,,,,2025-05-01,1,,,,,ユウエイ,0
939,4120003029277,新規,0,2025-05-01,2025-05-01,ＴＫＳ合同会社,,合同会社,大阪府,大阪市淀川区,東三国３丁目１３－３１５１４,,27,123,5320002,,,,,,,2025-05-01,1,,,,,ティケーエス,0
944,4120901050788,新規,0,2025-05-01,2025-05-01,プルアゼ株式会社,,株式会社,大阪府,箕面市,船場東１丁目８－５１モンリベルテ箕面３０３号室,,27,220,5620035,,,,,,,2025-05-01,1,,,,,プルアゼ,0
957,4140001138326,新規,0,2025-05-01,2025-05-01,阪神エアクリエイション株式会社,,株式会社,兵庫県,神戸市兵庫区,東出町３丁目２３番９,,28,105,6520823,,,,,,,2025-05-01,1,,,,,ハンシンエアクリエイション,0
958,4140001138367,新規,0,2025-05-01,2025-05-01,株式会社なごみ,,株式会社,兵庫県,宍粟市,山崎町田井５４４番地２,,28,227,6712514,,,,,,,2025-05-01,1,,,,,ナゴミ,0
961,4140003022008,新規,0,2025-05-01,2025-05-01,合同会社楽寿,,合同会社,兵庫県,丹波市,氷上町絹山１２５番地７,,28,223,6693641,,,,,,,2025-05-01,1,,,,,ラクジュ,0
963,4150003003592,新規,0,2025-05-01,2025-05-01,合同会社日本動物霊園,,合同会社,奈良県,天理市,福住町９２５９番地,,29,204,6320122,,,,,,,2025-05-01,1,,,,,ニホンドウブツレイエン,0
974,4180001166604,新規,0,2025-05-01,2025-05-01,株式会社ＭＡＴＳＵＲＩホールディングス,,株式会社,愛知県,名古屋市中区,丸の内１丁目７番２１号,,23,106,4600002,,,,,,,2025-05-01,1,,,,,マツリホールディングス,0
984,4200001043692,新規,0,2025-05-01,2025-05-01,株式会社シーランドスカイ,,株式会社,岐阜県,関市,平賀町３丁目５番地１,,21,205,5013821,,,,,,,2025-05-01,1,,,,,シーランドスカイ,0
986,4210001020146,新規,0,2025-05-01,2025-05-01,株式会社オプトコンサルティング,,株式会社,福井県,丹生郡越前町,小曽原第２６号１０番地１,,18,423,9160273,,,,,,,2025-05-01,1,,,,,オプトコンサルティング,0
990,4220005008962,新規,0,2025-05-01,2025-05-01,一般社団法人石川県自動車販売店人材交流協会,,その他の設立登記法人,石川県,金沢市,直江東２丁目１２２番地１,,17,201,9208213,,,,,,,2025-05-01,1,,,,,イシカワケンジドウシャハンバイテンジンザイコウリュウキョウカイ,0
991,4230001020870,新規,0,2025-05-01,2025-05-01,株式会社寿泉,,株式会社,富山県,氷見市,柳田１２０７番地１,,16,205,9350031,,,,,,,2025-05-01,1,,,,,ジュセン,0
999,4240001064875,新規,0,2025-05-01,2025-05-01,株式会社リンク,,株式会社,広島県,福山市,瀬戸町大字地頭分４１４番地１０,,34,207,7200837,,,,,,,2025-05-01,1,,,,,,0
1012,4290001109808,新規,0,2025-05-01,2025-05-01,株式会社つちのかおり,,株式会社,福岡県,糸島市,大門８８番地２,,40,230,8191564,,,,,,,2025-05-01,1,,,,,ツチノカオリ,0
1013,4290001109873,新規,0,2025-05-01,2025-05-01,株式会社キュリオコネクト,,株式会社,福岡県,福岡市南区,皿山１丁目４番２号,,40,134,8111365,,,,,,,2025-05-01,1,,,,,キュリオコネクト,0
1014,4290001109881,新規,0,2025-05-01,2025-05-01,いちまい株式会社,,株式会社,福岡県,福岡市中央区,輝国２丁目２－９０－５０２,,40,133,8100032,,,,,,,2025-05-01,1,,,,,イチマイ,0
1019,4290801031491,新規,0,2025-05-01,2025-05-01,クロキ不動産株式会社,,株式会社,福岡県,北九州市八幡西区,樋口町５番１０号オフィスビルＳＡＴＯ１階,,40,109,8060048,,,,,,,2025-05-01,1,,,,,クロキフドウサン,0
1021,4310001019582,新規,0,2025-05-01,2025-05-01,株式会社アイプラス,,株式会社,長崎県,壱岐市,芦辺町箱崎大左右触５０８番地６,00138984,42,210,8115462,,,,,,,2025-05-01,1,,,,,アイプラス,0
1026,4350003004926,新規,0,2025-05-01,2025-05-01,合同会社１０５３,,合同会社,宮崎県,都城市,南横市町３７３０番地１３,,45,202,8850092,,,,,,,2025-05-01,1,,,,,トウゴーサン,0
1027,4370003007076,新規,0,2025-05-01,2025-05-01,ＤＥＥＰ合同会社,,合同会社,宮城県,石巻市,大橋１丁目４番地１０トラディション石巻１０１号,,04,202,9860805,,,,,,,2025-05-01,1,,,,,ディープ,0
1029,4380001035268,新規,0,2025-05-01,2025-05-01,株式会社Ｓ・Ｋテクノ,,株式会社,福島県,いわき市,小名浜字滝尻道５０番地の１２,,07,204,9718101,,,,,,,2025-05-01,1,,,,,エスケイテクノ,0
1033,4400001017024,新規,0,2025-05-01,2025-05-01,株式会社平泉いろどりファーム,,株式会社,岩手県,西磐井郡平泉町,平泉字更の上１８番地,,03,402,0294102,,,,,,,2025-05-01,1,,,,,ヒライズミイロドリファーム,0
1042,4420001019118,新規,0,2025-05-01,2025-05-01,株式会社法建,,株式会社,青森県,上北郡横浜町,字舘ノ後７６番６,,02,406,0394133,,,,,,,2025-05-01,1,,,,,ノリケン,0
1045,4430001094291,新規,0,2025-05-01,2025-05-01,株式会社ＳＡＩＴＯホールディングス,,株式会社,北海道,札幌市東区,苗穂町４丁目１番２３号,,01,103,0650043,,,,,,,2025-05-01,1,,,,,サイトーホールディングス,0
1055,4700150130282,新規,0,2025-05-01,2025-05-01,ＭｅｒｔｏｎＤｏｗｎｉｎｇＨｏｌｄｉｎｇｓＬｉｍｉｔｅｄ,,外国会社等,,,,,,,,Ｒｏｏｍ９０１，Ｃｅｎｔｒｅ　Ｐｏｉｎｔ，１８１－１８５　Ｇｌｏｕｃｅｓｔｅｒ　Ｒｏａｄ，Ｗａｎｃｈａｉ，Ｈｏｎｇ　Ｋｏｎｇ,,,,,,2025-05-01,1,,,,,マートンダウニングホールデイングスリミテツド,0
1056,4700150130290,新規,0,2025-05-01,2025-05-01,ＳＡＮＷＡ　ＭＯＴＯＲＳ　ＡＮＤ　ＳＰＡＲＥ　ＰＡＲＴＳ,,外国会社等,茨城県,神栖市,須田２９７８番地Ａ,,08,232,3140253,スリランカ民主社会主義共和国、カトゥガストタ、ヤティワワラ、Ｎｏ．４１２／Ｂ,,,,,,2025-05-01,1,,,,,サンワモータースアンドスペアパーツ,0
1064,5010001254572,新規,0,2025-05-01,2025-05-01,株式会社ＰＡＮ,,株式会社,東京都,中央区,銀座１丁目２２番１１号銀座大竹ビジデンス２Ｆ,,13,102,1040061,,,,,,,2025-05-01,1,,,,,ピーエーエヌ,0
1065,5010001254597,新規,0,2025-05-01,2025-05-01,株式会社ＰｌａｔＦＯＲＣＥ,,株式会社,東京都,中央区,新富１丁目３番１３号ベルファース新富町７０２号,,13,102,1040041,,,,,,,2025-05-01,1,,,,,プラットフォース,0
1066,5010001254639,新規,0,2025-05-01,2025-05-01,株式会社ＰｒｉｍａｒｙＴｏｕｃｈ,,株式会社,東京都,千代田区,西神田２丁目５番７号神田中央ビル７０１号,,13,101,1010065,,,,,,,2025-05-01,1,,,,,プライマリータッチ,0
1067,5010003047198,新規,0,2025-05-01,2025-05-01,合同会社ととね,,合同会社,東京都,千代田区,神田須田町２丁目１５番３号２１５ビル２０５室,,13,101,1010041,,,,,,,2025-05-01,1,,,,,トトネ,0
1068,5010003047215,新規,0,2025-05-01,2025-05-01,Ｓｅｉｄｏ　Ｂｉｏｐｈａｒｍａ合同会社,,合同会社,東京都,文京区,向丘２丁目３番１０号東大前ＨｉＲＡＫＵＧＡＴＥ,,13,105,1130023,,,,,,,2025-05-01,1,,,,,セイドウバイオファーマ,0
1072,5010101016658,新規,0,2025-05-01,2025-05-01,株式会社Ａｉｄａ　Ｃｒｅａｔｉｏｎ,,株式会社,東京都,八王子市,三崎町４番１１号トーネンビル５Ｆ,,13,201,1920084,,,,,,,2025-05-01,1,,,,,アイダクリエイション,0
1075,5010401189625,新規,0,2025-05-01,2025-05-01,株式会社ＫＹＡ８１,,株式会社,東京都,港区,元赤坂１丁目１番７－１２０９号株式会社赤坂国際会計内,,13,103,1070051,,,,,,,2025-05-01,1,,,,,ケイワイエーハチジュウイチ,0
1076,5010401190021,新規,0,2025-05-01,2025-05-01,イグニサス株式会社,,株式会社,東京都,港区,南青山１丁目１番１号新青山ビル西館７階,,13,103,1070062,,,,,,,2025-05-01,1,,,,,イグニサス,0
1077,5010401190062,新規,0,2025-05-01,2025-05-01,Ｓｔａｒｋｗｅｌｌ株式会社,,株式会社,東京都,港区,赤坂３丁目９番４号サカタニビル５階,,13,103,1070052,,,,,,,2025-05-01,1,,,,,スタークウェル,0
1078,5010401190079,新規,0,2025-05-01,2025-05-01,猫に小腹株式会社,,株式会社,東京都,港区,浜松町１丁目３番２号,,13,103,1050013,,,,,,,2025-05-01,1,,,,,ネコニコバラ,0
1084,5010601067218,新規,0,2025-05-01,2025-05-01,株式会社コンフォートキャリア,,株式会社,東京都,江東区,富岡２丁目１１番１８号リードシー門前仲町ビル４Ｆ,,13,108,1350047,,,,,,,2025-05-01,1,,,,,コンフォートキャリア,0
1094,5010905004775,新規,0,2025-05-01,2025-05-01,一般社団法人日本獣医心エコー図学会,,その他の設立登記法人,東京都,世田谷区,玉川１丁目１７番２１号,,13,112,1580094,,,,,,,2025-05-01,1,,,,,ニホンジュウイシンエコーズガッカイ,0
1099,5011003021597,新規,0,2025-05-01,2025-05-01,ＬｎＸ合同会社,,合同会社,東京都,渋谷区,恵比寿西２丁目４番８号ウィンド恵比寿ビル８Ｆ,,13,113,1500021,,,,,,,2025-05-01,1,,,,,リンクス,0
1104,5011301030548,新規,0,2025-05-01,2025-05-01,ワイズパートナーズ株式会社,,株式会社,東京都,杉並区,和田１丁目２２番８号,,13,115,1660012,,,,,,,2025-05-01,1,,,,,ワイズパートナーズ,0
1108,5011601028622,新規,0,2025-05-01,2025-05-01,株式会社ＫＳＭ　ＪＡＰＡＮ,,株式会社,東京都,練馬区,豊玉北１丁目９番２－５０１号,,13,120,1760012,,,,,,,2025-05-01,1,,,,,ケィエスエムジャパン,0
1114,5012403007104,新規,0,2025-05-01,2025-05-01,ニゴロ合同会社,,合同会社,東京都,武蔵野市,吉祥寺本町１丁目２０番１号　吉祥寺永谷シティプラザ１００２,,13,203,1800004,,,,,,,2025-05-01,1,,,,,ニゴロ,0
1116,5012701018835,新規,0,2025-05-01,2025-05-01,株式会社ＬＥＧ,,株式会社,東京都,西東京市,芝久保町１丁目２６番１５号,,13,229,1880014,,,,,,,2025-05-01,1,,,,,レグ,0
1119,5013301054147,新規,0,2025-05-01,2025-05-01,株式会社ソルビア,,株式会社,東京都,豊島区,池袋２丁目３６番１号ＩＮＦＩＮＩＴＹＩＫＥＢＵＫＵＲＯ６Ｆ,,13,116,1710014,,,,,,,2025-05-01,1,,,,,ソルビア,0
1126,5020001162626,新規,0,2025-05-01,2025-05-01,株式会社ＲＥＸ,,株式会社,神奈川県,横浜市中区,桜木町１丁目１０１番地１クロスゲート７階,,14,104,2310062,,,,,,,2025-05-01,1,,,,,レックス,0
1127,5020001162650,新規,0,2025-05-01,2025-05-01,株式会社Ｆｉｒｓｔ　Ｌａｎｄ,,株式会社,神奈川県,横浜市南区,中村町５丁目３１９番地３ワコーレ吉野町ガーデン５０７号,,14,105,2320033,,,,,,,2025-05-01,1,,,,,ファーストランド,0
1132,5020005016844,新規,0,2025-05-01,2025-05-01,行政書士法人ＫＳＣ,,その他の設立登記法人,神奈川県,横浜市神奈川区,沢渡３番地１東興ビル５０１,,14,102,2210844,,,,,,,2025-05-01,1,,,,,,0
1135,5021001085081,新規,0,2025-05-01,2025-05-01,ＵＫＪＰ　ＴＲＡＤＩＮＧ株式会社,,株式会社,神奈川県,平塚市,南金目３７５－１,,14,203,2591201,,,,,,,2025-05-01,1,,,,,ユーケージェイピートレーディング,0
1136,5021001085098,新規,0,2025-05-01,2025-05-01,株式会社武井,,株式会社,神奈川県,秦野市,柳川４８９番地,,14,211,2591334,,,,,,,2025-05-01,1,,,,,タケイ,0
1138,5021003015929,新規,0,2025-05-01,2025-05-01,合同会社Ｍｅｌｏｄｉｅｓ　ｏｆ　Ｌｉｆｅ,,合同会社,神奈川県,横須賀市,ハイランド４丁目２３番９号プチハウスＵＮＯ２０１,,14,201,2390833,,,,,,,2025-05-01,1,,,,,メロディーズオブライフ,0
1140,5030001166238,新規,0,2025-05-01,2025-05-01,株式会社ＴＡＫＥ　ＵＰ,,株式会社,埼玉県,川越市,三久保町４番地９,,11,201,3500054,,,,,,,2025-05-01,1,,,,,テイクアップ,0
1141,5030001166304,新規,0,2025-05-01,2025-05-01,株式会社Ｋ．縁迎,,株式会社,埼玉県,越谷市,レイクタウン１丁目２６番地１２,,11,222,3430828,,,,,,,2025-05-01,1,,,,,ケードットエンゲイ,0
1145,5030003026646,新規,0,2025-05-01,2025-05-01,金陽合同会社,,合同会社,埼玉県,戸田市,中町２丁目１６番２８号,,11,224,3350012,,,,,,,2025-05-01,1,,,,,キンヨウ,0
1146,5030003026670,新規,0,2025-05-01,2025-05-01,合同会社かるむケア,,合同会社,埼玉県,熊谷市,今井９３９番地１０,,11,202,3600005,,,,,,,2025-05-01,1,,,,,カルムケア,0
1147,5030003026679,新規,0,2025-05-01,2025-05-01,合同会社ＨＡＣＫ,,合同会社,埼玉県,さいたま市南区,別所５丁目１５番地２,,11,108,3360021,,,,,,,2025-05-01,1,,,,,ハック,0
1148,5030003026687,新規,0,2025-05-01,2025-05-01,ソーシンテクノロジージャパン合同会社,,合同会社,埼玉県,さいたま市大宮区,吉敷町１丁目６４番地１、６０３号,,11,103,3300843,,,,,,,2025-05-01,1,,,,,ソーシンテクノロジージャパン,0
1150,5030005022148,新規,0,2025-05-01,2025-05-01,医療法人社団ソリーゾ,,その他の設立登記法人,埼玉県,さいたま市大宮区,吉敷町４丁目２６２番地１４ニューキャピタルビル１階,,11,103,3300843,,,,,,,2025-05-01,1,,,,,ソリーゾ,0
1157,5040001138525,新規,0,2025-05-01,2025-05-01,晴翔株式会社,,株式会社,千葉県,千葉市緑区,おゆみ野中央７丁目２０番地２,,12,105,2660032,,,,,,,2025-05-01,1,,,,,セイショウ,0
1158,5040005022741,新規,0,2025-05-01,2025-05-01,一般社団法人灯火,,その他の設立登記法人,千葉県,市川市,湊新田２丁目２番１４－１０３号,,12,203,2720132,,,,,,,2025-05-01,1,,,,,,0
1163,5050001056627,新規,0,2025-05-01,2025-05-01,株式会社ユーファクトリー,,株式会社,茨城県,坂東市,神田山１６０１番地１,,08,228,3060617,,,,,,,2025-05-01,1,,,,,ユーファクトリー,0
1169,5060003005523,新規,0,2025-05-01,2025-05-01,Ｔ＆Ｙ合同会社,,合同会社,栃木県,真岡市,熊倉町４８３４番地８,,09,209,3214362,,,,,,,2025-05-01,1,,,,,ティーアンドワイ,0
1181,5100003008125,新規,0,2025-05-01,2025-05-01,合同会社ｅＮ,,合同会社,長野県,上田市,天神４丁目５番６号２Ｆ,,20,203,3860025,,,,,,,2025-05-01,1,,,,,エン,0
1186,5120001275038,新規,0,2025-05-01,2025-05-01,Ｗａ　Ｔａｂｌｅ株式会社,,株式会社,大阪府,大阪市北区,天神橋２丁目１番２３号３階,,27,127,5300041,,,,,,,2025-05-01,1,,,,,ワテーブル,0
1187,5120001275062,新規,0,2025-05-01,2025-05-01,株式会社三豊,,株式会社,大阪府,大阪市中央区,安土町２丁目２番１５号４階,,27,128,5410052,,,,,,,2025-05-01,1,,,,,サンポウ,0
1188,5120001275087,新規,0,2025-05-01,2025-05-01,日本ＬＬ株式会社,,株式会社,大阪府,大阪市東淀川区,東中島４丁目５番１４号,,27,114,5330033,,,,,,,2025-05-01,1,,,,,ニホンエルエル,0
1189,5120001275104,新規,0,2025-05-01,2025-05-01,７号国際貿易株式会社,,株式会社,大阪府,大阪市西成区,萩之茶屋２丁目６番４号、１５３号室,,27,122,5570004,,,,,,,2025-05-01,1,,,,,ナナゴウコクサイボウエキ,0
1190,5120001275153,新規,0,2025-05-01,2025-05-01,株式会社リヴォラ,,株式会社,大阪府,大阪市中央区,南本町２丁目４番１１号第一住建本町ビル４０１Ｂ,,27,128,5410054,,,,,,,2025-05-01,1,,,,,リヴォラ,0
1197,5120003029268,新規,0,2025-05-01,2025-05-01,合同会社Ｓ　ｃｌｏｕｄ,,合同会社,大阪府,門真市,東江端町１１番１－２Ｇ号,,27,223,5710008,,,,,,,2025-05-01,1,,,,,エスクラウド,0
1201,5120101071584,新規,0,2025-05-01,2025-05-01,大鵬株式会社,,株式会社,大阪府,堺市西区,浜寺石津町東３丁１番６号,,27,144,5928335,,,,,,,2025-05-01,1,,,,,タイホウ,0
1204,5120903005640,新規,0,2025-05-01,2025-05-01,合同会社アールソリューション・ジャパン,,合同会社,大阪府,箕面市,桜井３丁目１番２４号,,27,220,5620043,,,,,,,2025-05-01,1,,,,,アールソリューションジャパン,0
1207,5122001039158,新規,0,2025-05-01,2025-05-01,新想拓株式会社,,株式会社,大阪府,東大阪市,若江西新町４丁目６番１０－１０２号,,27,227,5780944,,,,,,,2025-05-01,1,,,,,シンソウタク,0
1211,5130001079545,新規,0,2025-05-01,2025-05-01,ライトジェネレーションジャパン株式会社,,株式会社,京都府,京都市南区,吉祥院観音堂南町１番１,,26,107,6018347,,,,,,,2025-05-01,1,,,,,ライトジェネレーションジャパン,0
1213,5130003010425,新規,0,2025-05-01,2025-05-01,合同会社暦日,,合同会社,京都府,京都市右京区,京北下熊田町泓ケ９－３,,26,108,6010272,,,,,,,2025-05-01,1,,,,,コヨミビ,0
1219,5140001138242,新規,0,2025-05-01,2025-05-01,株式会社ＳＯＵ,,株式会社,兵庫県,西宮市,甲子園八番町５番２０号,,28,204,6638178,,,,,,,2025-05-01,1,,,,,ソウ,0
1220,5140001138358,新規,0,2025-05-01,2025-05-01,株式会社ｕｎｉｏｎ,,株式会社,兵庫県,神戸市西区,学園東町７丁目２１番９号,,28,111,6512102,,,,,,,2025-05-01,1,,,,,ユニオン,0
1221,5140003022007,新規,0,2025-05-01,2025-05-01,合同会社ファーストライン,,合同会社,兵庫県,尼崎市,塚口町３丁目４１番地の２０,,28,202,6610002,,,,,,,2025-05-01,1,,,,,ファーストライン,0
1222,5140003022015,新規,0,2025-05-01,2025-05-01,合同会社ＫＭ,,合同会社,兵庫県,神戸市西区,玉津町西河原１４６番地,,28,111,6512127,,,,,,,2025-05-01,1,,,,,ケーエム,0
1233,5180001166561,新規,0,2025-05-01,2025-05-01,株式会社Ｃｏｍｐａｓｓ,,株式会社,愛知県,名古屋市中村区,名駅４丁目２４番５号第２森ビル４０１,,23,105,4500002,,,,,,,2025-05-01,1,,,,,コンパス,0
1234,5180001166594,新規,0,2025-05-01,2025-05-01,株式会社ＦＡＳＴＥＣＨ　ＪＡＰＡＮ,,株式会社,愛知県,名古屋市中村区,那古野１丁目４７番１号名古屋国際センタービル１８Ｆ（ＧＰＣｅｎｔｅｒ内）,00138981,23,105,4500001,,,,,,,2025-05-01,1,,,,,ファステックジャパン,0
1235,5180001166611,新規,0,2025-05-01,2025-05-01,株式会社ＳＫＹ,,株式会社,愛知県,名古屋市中川区,江松３丁目１１４番地,,23,110,4540954,,,,,,,2025-05-01,1,,,,,スカイ,0
1243,5180003028413,新規,0,2025-05-01,2025-05-01,合同会社ＭＡＣＨＩＫＡ,,合同会社,愛知県,名古屋市中村区,名駅４丁目２４番５号,,23,105,4500002,,,,,,,2025-05-01,1,,,,,マチカ,0
1247,5180303006548,新規,0,2025-05-01,2025-05-01,ＴＮＴ合同会社,,合同会社,愛知県,豊田市,朝日町２丁目２２番地３,,23,211,4710031,,,,,,,2025-05-01,1,,,,,ティエヌティ,0
1249,5190001032192,新規,0,2025-05-01,2025-05-01,株式会社パラレルレゾナンス,,株式会社,三重県,津市,栗真町屋町４８７番地１２上杉マンション３階３０２号室,,24,201,5140102,,,,,,,2025-05-01,1,,,,,パラレルレゾナンス,0
1259,5200001043709,新規,0,2025-05-01,2025-05-01,株式会社天装,,株式会社,岐阜県,美濃市,２９４０番地１８,,21,207,5013701,,,,,,,2025-05-01,1,,,,,テンソウ,0
1260,5200001043717,新規,0,2025-05-01,2025-05-01,株式会社ＡＫＥＨＡＲｕ,,株式会社,岐阜県,岐阜市,尻毛２丁目２６番地１メゾンＳＳ,,21,201,5011147,,,,,,,2025-05-01,1,,,,,アケハル,0
1261,5200003006804,新規,0,2025-05-01,2025-05-01,白長須運輸機工合同会社,,合同会社,岐阜県,岐阜市,宇佐南３丁目９－５－２０２,,21,201,5008367,,,,,,,2025-05-01,1,,,,,クジラウンユキコウ,0
1266,5240001064874,新規,0,2025-05-01,2025-05-01,株式会社ｄｏｕｒｉｎ,,株式会社,広島県,広島市東区,二葉の里３丁目５－７ＧＲＡＮＯＤＥ広島３Ｆ,,34,102,7320057,,,,,,,2025-05-01,1,,,,,ドウリン,0
1270,5240003007170,新規,0,2025-05-01,2025-05-01,微笑合同会社,,合同会社,広島県,安芸郡熊野町,神田２０番１９号,,34,307,7314224,,,,,,,2025-05-01,1,,,,,ホホエミ,0
1271,5250001021123,新規,0,2025-05-01,2025-05-01,山口健康サービス株式会社,,株式会社,山口県,周南市,銀座１丁目３１番地ＴＯＫＵＹＡＭＡＤＥＣＫ２Ｆ,,35,215,7450032,,,,,,,2025-05-01,1,,,,,ヤマグチケンコウサービス,0
1272,5250001021131,新規,0,2025-05-01,2025-05-01,株式会社Ｂｌｕｅ　Ｗａｔｅｒ　Ｅｎｅｒｇｙ,,株式会社,山口県,宇部市,常盤台２丁目１６番１号,,35,202,7550097,,,,,,,2025-05-01,1,,,,,ブルーウォーターエナジー,0
1276,5290001109889,新規,0,2025-05-01,2025-05-01,株式会社りすらむ工房,,株式会社,福岡県,筑紫野市,二日市北２丁目１３番１０号,,40,217,8180056,,,,,,,2025-05-01,1,,,,,リスラムコウボウ,0
1278,5290003016778,新規,0,2025-05-01,2025-05-01,ＢｒｉｇｈｔＢｒｉｄｇｅ合同会社,,合同会社,福岡県,福岡市早良区,城西２丁目９番ー１４ー５０４号,,40,137,8140003,,,,,,,2025-05-01,1,,,,,ブライトブリッジ,0
1279,5290803005039,新規,0,2025-05-01,2025-05-01,いろんな窓口合同会社,,合同会社,福岡県,北九州市小倉北区,赤坂２丁目２０番１０－８０１,,40,106,8020032,,,,,,,2025-05-01,1,,,,,イロンナマドグチ,0
1287,5380001035283,新規,0,2025-05-01,2025-05-01,株式会社ネクサス,,株式会社,福島県,いわき市,小川町上平字以後内１３番６,,07,204,9793112,,,,,,,2025-05-01,1,,,,,ネクサス,0
1290,5390001017974,新規,0,2025-05-01,2025-05-01,株式会社ＮＥＷ　ＰＡＫ　ＭＯＴＯＲ,,株式会社,山形県,飽海郡遊佐町,小原田字木ノ下９番地の６,,06,461,9998311,,,,,,,2025-05-01,1,,,,,ニューパクモーター,0
1291,5400001017023,新規,0,2025-05-01,2025-05-01,紫波長岡果樹園株式会社,,株式会社,岩手県,紫波郡紫波町,西長岡字中ノ沢７１番地,,03,321,0283326,,,,,,,2025-05-01,1,,,,,シワナガオカカジュエン,0
1293,5420003003110,新規,0,2025-05-01,2025-05-01,合同会社Ｒｅｓｏｎａｔｅ,,合同会社,青森県,八戸市,根城２丁目２０番５号サザンコートＡ１２号室,,02,203,0391166,,,,,,,2025-05-01,1,,,,,リゾネート,0
1296,5430001094290,新規,0,2025-05-01,2025-05-01,えべつのまちづくり株式会社,,株式会社,北海道,江別市,大麻東町１３番地の３２,,01,217,0690852,,,,,,,2025-05-01,1,,,,,エベツノマチヅクリ,0
1305,5700150130281,新規,0,2025-05-01,2025-05-01,Ｍｉｚｕｙｕｋｉ　Ｐｔｅ．Ｌｔｄ．,,外国会社等,,,,,,,,１４ＲＯＢＩＮＳＯＮＲＯＡＤ，＃０２－０１，ＦＡＲＥＡＳＴＦＩＮＡＮＣＥＢＵＩＬＤＩＮＧ，ＳＩＮＧＡＰＯＲＥ０４８５４５,,,,,,2025-05-01,1,,,,,ミズユキピーテイイーリミテツド,0
1313,6010001254613,新規,0,2025-05-01,2025-05-01,ピューラスジャパン株式会社,,株式会社,東京都,千代田区,内幸町１丁目１番１号帝国ホテルタワー６階６２０号室,,13,101,1000011,,,,,,,2025-05-01,1,,,,,ピューラスジャパン,0
1315,6010003047214,新規,0,2025-05-01,2025-05-01,ＴａｌｅｎｔＨｕｂ合同会社,,合同会社,東京都,文京区,本郷４丁目１６－６天翔オフィス後楽園,,13,105,1130033,,,,,,,2025-05-01,1,,,,,タレントハブ,0
1316,6010003047230,新規,0,2025-05-01,2025-05-01,逸堂コンサルティング合同会社,,合同会社,東京都,中央区,銀座１丁目１２－４Ｎ＆Ｅ・ＢＬＤ．７階,,13,102,1040061,,,,,,,2025-05-01,1,,,,,イツドウコンサルティング,0
1318,6010005039993,新規,0,2025-05-01,2025-05-01,一般社団法人シルバーエイト,,その他の設立登記法人,東京都,中央区,銀座２丁目１０番８号マニエラ銀座ビル４階,,13,102,1040061,,,,,,,2025-05-01,1,,,,,シルバーエイト,0
1322,6010401190012,新規,0,2025-05-01,2025-05-01,株式会社ｉｄｙｌｌｉｃｓ,,株式会社,東京都,港区,芝１丁目２番１－２２０２号,,13,103,1050014,,,,,,,2025-05-01,1,,,,,アイデリックス,0
1323,6010401190020,新規,0,2025-05-01,2025-05-01,株式会社Ｆｒａｃｔｏｒａ,,株式会社,東京都,港区,北青山２丁目１２－４ＶＯＲＴ青山Ｌｅａｐ３Ｆ,,13,103,1070061,,,,,,,2025-05-01,1,,,,,フラクトラ,0
1324,6010401190037,新規,0,2025-05-01,2025-05-01,Ｍｏｎｅｔａ株式会社,,株式会社,東京都,港区,浜松町２丁目２番１５号浜松町ダイヤビル２Ｆ,,13,103,1050013,,,,,,,2025-05-01,1,,,,,モネタ,0
1325,6010401190053,新規,0,2025-05-01,2025-05-01,株式会社ナノバサラ,,株式会社,東京都,港区,東新橋１丁目５番２号,,13,103,1050021,,,,,,,2025-05-01,1,,,,,ナノバサラ,0
1327,6010405024307,新規,0,2025-05-01,2025-05-01,一般社団法人ＫＩ,,その他の設立登記法人,東京都,港区,白金４丁目１３番１０－５０１号,,13,103,1080072,,,,,,,2025-05-01,1,,,,,ケイアイ,0
1346,6011001169396,新規,0,2025-05-01,2025-05-01,株式会社ＳＴ・ＶＩＳＩＯＮ,,株式会社,東京都,渋谷区,恵比寿西２丁目９－９クリスタルスクエア代官山３－Ｂ,,13,113,1500021,,,,,,,2025-05-01,1,,,,,エスティビジョン,0
1347,6011003021497,新規,0,2025-05-01,2025-05-01,合同会社ｌｕｎａｒｅａｒ,,合同会社,東京都,渋谷区,道玄坂１丁目１０番８号渋谷道玄坂東急ビル２Ｆ－Ｃ,,13,113,1500043,,,,,,,2025-05-01,1,,,,,ルナーリア,0
1355,6011501032013,新規,0,2025-05-01,2025-05-01,株式会社ＡＲＲＯＷＳ,,株式会社,東京都,荒川区,南千住３丁目４０番１０－１５０５号,,13,118,1160003,,,,,,,2025-05-01,1,,,,,アローズ,0
1358,6011601028621,新規,0,2025-05-01,2025-05-01,北辰保険事務所株式会社,,株式会社,東京都,練馬区,豊玉北６丁目３番３号３０２号室,,13,120,1760012,,,,,,,2025-05-01,1,,,,,ホクシンホケンジムショ,0
1360,6011603004678,新規,0,2025-05-01,2025-05-01,合同会社ＭＳＴ,,合同会社,東京都,練馬区,練馬３丁目２番８号,,13,120,1760001,,,,,,,2025-05-01,1,,,,,エムエスティー,0
1363,6011703004198,新規,0,2025-05-01,2025-05-01,ドリームフライ合同会社,,合同会社,東京都,江戸川区,西葛西６丁目９番１０－３０４号,,13,123,1340088,,,,,,,2025-05-01,1,,,,,ドリームフライ,0
1366,6012403007103,新規,0,2025-05-01,2025-05-01,Ａｌａｆｏｓｓ＆Ｃｏ．合同会社,,合同会社,東京都,武蔵野市,中町２丁目２５番１１号,,13,203,1800006,,,,,,,2025-05-01,1,,,,,アラフォスアンドコー,0
1378,6020001162625,新規,0,2025-05-01,2025-05-01,株式会社コネクト,,株式会社,神奈川県,横浜市鶴見区,豊岡町２３５番地１鶴見コーリンビル５階,,14,101,2300062,,,,,,,2025-05-01,1,,,,,コネクト,0
1381,6020003028270,新規,0,2025-05-01,2025-05-01,横浜ＴＲＩＮＩＴＹ合同会社,,合同会社,神奈川県,横浜市鶴見区,本町通２丁目８４－１,,14,101,2300048,,,,,,,2025-05-01,1,,,,,ヨコハマトリニティ,0
1382,6020003028320,新規,0,2025-05-01,2025-05-01,ＥｖａＴｅｃｈ合同会社,,合同会社,神奈川県,横浜市西区,浅間町１丁目４－３ウィザードビル４０２,,14,103,2200072,,,,,,,2025-05-01,1,,,,,エヴァテック,0
1387,6021001085114,新規,0,2025-05-01,2025-05-01,株式会社サイトウ,,株式会社,神奈川県,中郡大磯町,石神台２丁目９番５号,,14,341,2590113,,,,,,,2025-05-01,1,,,,,サイトウ,0
1395,6030001166229,新規,0,2025-05-01,2025-05-01,株式会社ＡＷＳ,,株式会社,埼玉県,さいたま市北区,本郷町９３２番地１－２０１号,,11,102,3310802,,,,,,,2025-05-01,1,,,,,エーダブリューエス,0
1396,6030001166311,新規,0,2025-05-01,2025-05-01,ＳＵＰＷＥＬＬ株式会社,,株式会社,埼玉県,越谷市,レイクタウン８丁目１３番地１グランアルト越谷レイクタウン５１６号,,11,222,3430828,,,,,,,2025-05-01,1,,,,,サプウェル,0
1405,6040001138516,新規,0,2025-05-01,2025-05-01,株式会社ＹＳＩＲ,,株式会社,千葉県,流山市,東初石３丁目１２８番地の２グランディヴィラＩＩ－３０６,00138987,12,220,2700114,,,,,,,2025-05-01,1,,,,,ワイエスアイアール,0
1411,6050001056601,新規,0,2025-05-01,2025-05-01,株式会社つかさ,,株式会社,茨城県,かすみがうら市,深谷３３６番地４,,08,230,3000134,,,,,,,2025-05-01,1,,,,,ツカサ,0
1414,6050003009243,新規,0,2025-05-01,2025-05-01,合同会社ＲＯＣＯ,,合同会社,茨城県,龍ケ崎市,松ケ丘３丁目１３番地８０,,08,208,3010853,,,,,,,2025-05-01,1,,,,,ロコ,0
1420,6090001019240,新規,0,2025-05-01,2025-05-01,丸哲商事株式会社,,株式会社,山梨県,山梨市,鴨居寺５１５番地ファミーユＫプラス３－３０４号室,,19,205,4050013,,,,,,,2025-05-01,1,,,,,マルテツショウジ,0
1423,6110005017213,新規,0,2025-05-01,2025-05-01,上越南商工会,,その他の設立登記法人,新潟県,上越市,板倉区針９４１番地,,15,222,9440131,,,,,,新潟県上越市三和区井ノ口３２９番地１三和商工会（4110005008164）、新潟県上越市中郷区板橋５６９番地１中郷商工会（6110005009623）、新潟県上越市清里区荒牧１０番地５清里牧商工会（3110005008165）、新潟県上越市板倉区針９３８番地板倉商工会（5110005009541）の合併により設立,2025-05-01,1,,,,,ジョウエツミナミ,0
1430,6120001274963,新規,0,2025-05-01,2025-05-01,睿欽実業株式会社,,株式会社,大阪府,大阪市西区,江戸堀１丁目２３－１３肥後橋ビル３号館１２０１－Ｋ,,27,106,5500002,,,,,,,2025-05-01,1,,,,,エイキンジツギョウ,0
1431,6120001275004,新規,0,2025-05-01,2025-05-01,アトムメッシュ株式会社,,株式会社,大阪府,大阪市住之江区,南港北２丁目１－１０ＡＴＣビルＩＴＭ棟４階Ｎ－２,,27,125,5590034,,,,,,,2025-05-01,1,,,,,アトムメッシュ,0
1432,6120001275037,新規,0,2025-05-01,2025-05-01,株式会社Ｎ‐ＳＵＰＰＯＲＴ,,株式会社,大阪府,大阪市中央区,淡路町３丁目４番１号第２加地ビル２０８号室,,27,128,5410047,,,,,,,2025-05-01,1,,,,,エヌサポート,0
1433,6120001275053,新規,0,2025-05-01,2025-05-01,Ｅ　Ｔｒａｄｉｎｇ株式会社,,株式会社,大阪府,寝屋川市,黒原橘町２６番１１号,,27,215,5720058,,,,,,,2025-05-01,1,,,,,イートレーディング,0
1434,6120001275160,新規,0,2025-05-01,2025-05-01,コンパス株式会社,,株式会社,大阪府,大阪市平野区,加美東１丁目２番３０号,,27,126,5470002,,,,,,,2025-05-01,1,,,,,コンパス,0
1438,6120003029267,新規,0,2025-05-01,2025-05-01,合同会社ＫＡＮＰＡＩ,,合同会社,大阪府,大阪市北区,梅田１丁目２番２号大阪駅前第２ビル１２－１２,,27,127,5300001,,,,,,,2025-05-01,1,,,,,カンパイ,0
1451,6122001039108,新規,0,2025-05-01,2025-05-01,双奇株式会社,,株式会社,大阪府,東大阪市,小阪２丁目１０番１０号４０３室,,27,227,5770801,,,,,,,2025-05-01,1,,,,,ソウキ,0
1455,6130001079560,新規,0,2025-05-01,2025-05-01,株式会社ＶＡＰＡＵＳ,,株式会社,京都府,長岡京市,城の里２２－６,,26,209,6170835,,,,,,,2025-05-01,1,,,,,バパウス,0
1456,6130001079577,新規,0,2025-05-01,2025-05-01,株式会社未来創造研究所,,株式会社,京都府,京都市伏見区,桃山町松平筑前１番地１ユニハイム桃山御陵５０７号,,26,109,6128031,,,,,,,2025-05-01,1,,,,,ミライソウゾウケンキュウジョ,0
1463,6140001138340,新規,0,2025-05-01,2025-05-01,株式会社ｓｈｉｒｏ,,株式会社,兵庫県,神戸市中央区,旭通４丁目１番３－４０６号,,28,110,6510095,,,,,,,2025-05-01,1,,,,,シロ,0
1464,6140001138365,新規,0,2025-05-01,2025-05-01,孚美行株式会社,,株式会社,兵庫県,芦屋市,奥池南町２２番８号,,28,206,6590004,,,,,,,2025-05-01,1,,,,,ウビコウ,0
1468,6140003022006,新規,0,2025-05-01,2025-05-01,多享好物ネットワーク合同会社,,合同会社,兵庫県,神戸市東灘区,向洋町中５丁目１番地５２４号棟７１０号室,,28,101,6580032,,,,,,,2025-05-01,1,,,,,タキョウコウブツネットワーク,0
1472,6160001026717,新規,0,2025-05-01,2025-05-01,Ｌ‐Ｐｒｅｃｉｏｕｓ株式会社,,株式会社,滋賀県,彦根市,南川瀬町１４３０番地２,,25,202,5220222,,,,,,,2025-05-01,1,,,,,エルプレシャス,0
1481,6180003028395,新規,0,2025-05-01,2025-05-01,合同会社想,,合同会社,愛知県,名古屋市緑区,大清水東３２５番地,,23,114,4580849,,,,,,,2025-05-01,1,,,,,ソウ,0
1487,6180301039763,新規,0,2025-05-01,2025-05-01,株式会社山一,,株式会社,愛知県,蒲郡市,海陽町２丁目２番地,,23,214,4430014,,,,,,,2025-05-01,1,,,,,ヤマイチ,0
1488,6180303006555,新規,0,2025-05-01,2025-05-01,コナーズ合同会社,,合同会社,愛知県,豊川市,足山田町柴崎２１番,,23,207,4411203,,,,,,,2025-05-01,1,,,,,コナーズ,0
1490,6190001032191,新規,0,2025-05-01,2025-05-01,株式会社マイグラスト,,株式会社,三重県,津市,桜橋３丁目８３番地アトレ桜橋テラスフォート１４０４,,24,201,5140003,,,,,,,2025-05-01,1,,,,,マイグラスト,0
1491,6190003005022,新規,0,2025-05-01,2025-05-01,ＺＥＲＯ　ＯＮＥ合同会社,,合同会社,三重県,四日市市,桜台１丁目５３―４,,24,202,5121214,,,,,,,2025-05-01,1,,,,,ゼロワン,0
1501,6230005009470,新規,0,2025-05-01,2025-05-01,医療法人社団宗玄医院,,その他の設立登記法人,富山県,高岡市,東下関１番１号,,16,202,9330033,,,,,,,2025-05-01,1,,,,,ソウゲンイイン,0
1512,6290001109797,新規,0,2025-05-01,2025-05-01,株式会社社長のミカタ,,株式会社,福岡県,久留米市,国分町９９５―１２,,40,203,8390863,,,,,,,2025-05-01,1,,,,,シャチョウノミカタ,0
1513,6290001109871,新規,0,2025-05-01,2025-05-01,株式会社山本商事,,株式会社,福岡県,福岡市博多区,博多駅前２丁目１９番１７号トーカン博多第５ビル３１２号室,,40,132,8120011,,,,,,,2025-05-01,1,,,,,ヤマモトショウジ,0
1515,6290803005038,新規,0,2025-05-01,2025-05-01,ＭＭ　ＪＡＰＡＮ合同会社,,合同会社,福岡県,北九州市若松区,下原町５番１３号,,40,103,8080005,,,,,,,2025-05-01,1,,,,,エムエムジャパン,0
1522,6330005010906,新規,0,2025-05-01,2025-05-01,一般社団法人Ｕｎｉｖｅｒｓｅ　Ｑｕｅｓｔ,,その他の設立登記法人,熊本県,熊本市東区,上南部２丁目５－３６ＩＩ－１０５,00138983,43,102,8618010,,,,,,,2025-05-01,1,,,,,ユニバースクエスト,0
1523,6350003004924,新規,0,2025-05-01,2025-05-01,合同会社優貴,,合同会社,宮崎県,宮崎市,花山手東２丁目９番地１,,45,201,8800930,,,,,,,2025-05-01,1,,,,,ユキ,0
1527,6370001052527,新規,0,2025-05-01,2025-05-01,株式会社青空ホーム,,株式会社,宮城県,名取市,飯野坂字南沖３５番地の１,,04,207,9811225,,,,,,,2025-05-01,1,,,,,アオゾラホーム,0
1529,6380001035282,新規,0,2025-05-01,2025-05-01,いノ一建設株式会社,,株式会社,福島県,伊達市,梁川町白根字落合８１番地,,07,213,9600721,,,,,,,2025-05-01,1,,,,,イノイチケンセツ,0
1531,6400001017022,新規,0,2025-05-01,2025-05-01,コルノ東北株式会社,,株式会社,岩手県,二戸市,福岡字前田１６番地３クリスタルアロージョＣ１０２号,,03,213,0286101,,,,,,,2025-05-01,1,,,,,コルノトウホク,0
1533,6420001019116,新規,0,2025-05-01,2025-05-01,株式会社ＡＫ　ｒｉｃｅ　Ｃｏｍｐａｎｙ,,株式会社,青森県,北津軽郡中泊町,大字深郷田字富森１１４番地６,,02,387,0370308,,,,,,,2025-05-01,1,,,,,エーケイライスカンパニー,0
1544,6500001026269,新規,0,2025-05-01,2025-05-01,株式会社工務店サポート,,株式会社,愛媛県,松山市,千舟町５丁目３番地１７,,38,201,7900011,,,,,,,2025-05-01,1,,,,,コウムテンサポート,0
1546,6700150130280,新規,0,2025-05-01,2025-05-01,ＣＪＷ　Ｃｏｌｌｅｃｔｉｏｎ　Ｉ　Ｌｉｍｉｔｅｄ,,外国会社等,,,,,,,,Ｗｉｃｋｈａｍｓ　ＣａｙＩＩ，Ｒｏａｄ　Ｔｏｗｎ，Ｔｏｒｔｏｌａ，ＶＧ１１１０，Ｂｒｉｔｉｓｈ　Ｖｉｒｇｉｎ　Ｉｓｌａｎｄｓ,,,,,,2025-05-01,1,,,,,シージエイダブリユーコレクシヨンワンリミテツド,0
1547,6700150130289,新規,0,2025-05-01,2025-05-01,ＪＵＮＡＩＤ　ＣＯＲＰＯＲＡＴＩＯＮ,,外国会社等,千葉県,東金市,上布田５３８－１－Ｊ,,12,213,2830834,スリランカ民主社会主義共和国、ＮＯ．１０３、アンバガムワロード、ガンポラ,,,,,,2025-05-01,1,,,,,ジユナイドコーポレーシヨン,0
1556,7010001254488,新規,0,2025-05-01,2025-05-01,マスターズスタイル株式会社,,株式会社,東京都,中央区,新川１丁目２４番４号,,13,102,1040033,,,,,,,2025-05-01,1,,,,,マスターズスタイル,0
1557,7010001254570,新規,0,2025-05-01,2025-05-01,ＴＥＰＣＯデジタルインフラ株式会社,,株式会社,東京都,千代田区,内幸町１丁目５番３号,,13,101,1000011,,,,,,,2025-05-01,1,,,,,テプコデジタルインフラ,0
1558,7010001254612,新規,0,2025-05-01,2025-05-01,株式会社異世界ラボ,,株式会社,東京都,千代田区,外神田４丁目１４番１号ＬＩＦＯＲＫ秋葉原,,13,101,1010021,,,,,,,2025-05-01,1,,,,,イセカイラボ,0
1559,7010001254637,新規,0,2025-05-01,2025-05-01,株式会社ＥａＣａｒｅ,,株式会社,東京都,中央区,日本橋室町１丁目１１番１２号日本橋水野ビル７階,,13,102,1030022,,,,,,,2025-05-01,1,,,,,エアケアー,0
1560,7010001254678,新規,0,2025-05-01,2025-05-01,株式会社ＡＧｅｎ　Ｉｎｎｏｖｅｎｔｏｒｉａ,,株式会社,東京都,中央区,銀座１丁目２２番１１号銀座大竹ビジデンス２Ｆ,,13,102,1040061,,,,,,,2025-05-01,1,,,,,エージェンイノベントリア,0
1561,7010003047205,新規,0,2025-05-01,2025-05-01,合同会社Ｌｉｎｋ,,合同会社,東京都,中央区,銀座８丁目８番７号第三ソワレ・ド・ビル地上４階,,13,102,1040061,,,,,,,2025-05-01,1,,,,,リンク,0
1562,7010005039902,新規,0,2025-05-01,2025-05-01,ＳｏＶａ税理士法人,,その他の設立登記法人,東京都,千代田区,神田紺屋町１５番地グランファースト神田紺屋町２Ｆ,,13,101,1010035,,,,,,,2025-05-01,1,,,,,ソバ,0
1563,7010005039984,新規,0,2025-05-01,2025-05-01,一般社団法人国際未来医学研究会,,その他の設立登記法人,東京都,中央区,湊３丁目６番１号,,13,102,1040043,,,,,,,2025-05-01,1,,,,,コクサイミライイガクケンキュウカイ,0
1564,7010005039992,新規,0,2025-05-01,2025-05-01,一般社団法人一ツ橋コンテンツアーカイブ協会,,その他の設立登記法人,東京都,千代田区,一ツ橋２丁目３番１号,,13,101,1010003,,,,,,,2025-05-01,1,,,,,ヒトツバシコンテンツアーカイブキョウカイ,0
1567,7010401190011,新規,0,2025-05-01,2025-05-01,ＯＰＩ・１８株式会社,,株式会社,東京都,港区,浜松町２丁目４番１号,,13,103,1050013,,,,,,,2025-05-01,1,,,,,オーピーアイエイティーン,0
1568,7010401190028,新規,0,2025-05-01,2025-05-01,株式会社ＴＡＫＥ３,,株式会社,東京都,港区,北青山２丁目７番２８号ＮＡビル９階,,13,103,1070061,,,,,,,2025-05-01,1,,,,,テイクスリー,0
1569,7010401190044,新規,0,2025-05-01,2025-05-01,株式会社ニュー,,株式会社,東京都,港区,南麻布２丁目１番３号南麻布アパートメント２０２,,13,103,1060047,,,,,,,2025-05-01,1,,,,,ニュー,0
1570,7010401190052,新規,0,2025-05-01,2025-05-01,株式会社ＡＭＡＴＥＲＡＳ,,株式会社,東京都,港区,虎ノ門３丁目１８番６号朝日虎ノ門マンション６１４号室,,13,103,1050001,,,,,,,2025-05-01,1,,,,,アマテラス,0
1571,7010401190060,新規,0,2025-05-01,2025-05-01,株式会社ジーエムクレスト,,株式会社,東京都,港区,虎ノ門３丁目１８番６号朝日虎ノ門マンション６１４号室,,13,103,1050001,,,,,,,2025-05-01,1,,,,,ジーエムクレスト,0
1572,7010403034991,新規,0,2025-05-01,2025-05-01,ハーバー合同会社,,合同会社,東京都,港区,赤坂８丁目１１番１６号,,13,103,1070052,,,,,,,2025-05-01,1,,,,,ハーバー,0
1591,7011101111570,新規,0,2025-05-01,2025-05-01,ＰＲＴ株式会社,,株式会社,東京都,新宿区,下落合１丁目２番１６号４Ｆ,,13,104,1610033,,,,,,,2025-05-01,1,,,,,ピーアールティー,0
1592,7011201026314,新規,0,2025-05-01,2025-05-01,丸廣株式会社,,株式会社,東京都,中野区,中央１丁目４４番１２号,,13,114,1640011,,,,,,,2025-05-01,1,,,,,マルヒロ,0
1598,7011601028620,新規,0,2025-05-01,2025-05-01,株式会社一二三,,株式会社,東京都,練馬区,桜台１丁目４番１１－４０５号,,13,120,1760002,,,,,,,2025-05-01,1,,,,,ヒフミ,0
1600,7011801046059,新規,0,2025-05-01,2025-05-01,株式会社シャーラ,,株式会社,東京都,葛飾区,立石８丁目４１番１３号,,13,122,1240012,,,,,,,2025-05-01,1,,,,,シャーラ,0
1602,7012301014357,新規,0,2025-05-01,2025-05-01,株式会社よつば情報システム,,株式会社,東京都,町田市,山崎町１６１１番地６,,13,209,1950074,,,,,,,2025-05-01,1,,,,,ヨツバジョウホウシステム,0
1604,7012701018833,新規,0,2025-05-01,2025-05-01,株式会社ＭＩＹＡＳＡＫＡ,,株式会社,東京都,小平市,上水本町６丁目１９番３１号,,13,211,1870022,,,,,,,2025-05-01,1,,,,,ミヤサカ,0
1607,7013303007646,新規,0,2025-05-01,2025-05-01,合同会社ＡＬＣ,,合同会社,東京都,豊島区,上池袋１丁目３７番２２号レジディアタワー上池袋（タワー棟）５１４号,,13,116,1700012,,,,,,,2025-05-01,1,,,,,エーエルシー,0
1614,7020001162640,新規,0,2025-05-01,2025-05-01,株式会社Ａｎｄｗｈｏ　Ｐｒｏｊｅｃｔ,,株式会社,神奈川県,横浜市港北区,大倉山１丁目２４番１－５０６号,,14,109,2220037,,,,,,,2025-05-01,1,,,,,アンドフープロジェクト,0
1617,7020003028377,新規,0,2025-05-01,2025-05-01,スマイルシード合同会社,,合同会社,神奈川県,横浜市青葉区,奈良２丁目３３―４,,14,117,2270038,,,,,,,2025-05-01,1,,,,,スマイルシード,0
1618,7020003028385,新規,0,2025-05-01,2025-05-01,ＭａｒｉｐｏｓａＪａｐａｎ合同会社,,合同会社,神奈川県,横浜市青葉区,美しが丘４丁目２１番地１４,,14,117,2250002,,,,,,,2025-05-01,1,,,,,マリポーサジャパン,0
1625,7021003015893,新規,0,2025-05-01,2025-05-01,合同会社Ｒｅａｌ　Ｄｅａｌ　Ｍｕｓｉｃ,,合同会社,神奈川県,大和市,林間２丁目２０－２６サンビレッジ南林間４１０,,14,213,2420003,,,,,,,2025-05-01,1,,,,,リアルディールミュージック,0
1631,7030001166112,新規,0,2025-05-01,2025-05-01,株式会社ＳＩＳ,,株式会社,埼玉県,八潮市,大字西袋５７４番地プロスベール１０６,,11,234,3400833,,,,,,,2025-05-01,1,,,,,エスアイエス,0
1632,7030001166203,新規,0,2025-05-01,2025-05-01,株式会社大明,,株式会社,埼玉県,志木市,上宗岡５丁目１２番９－４号,,11,228,3530001,,,,,,,2025-05-01,1,,,,,ダイメイ,0
1633,7030001166228,新規,0,2025-05-01,2025-05-01,株式会社Ｆｒｏｍ　ｍｅ,,株式会社,埼玉県,入間郡越生町,大字上谷２９８番地１,,11,327,3500407,,,,,,,2025-05-01,1,,,,,フロムミー,0
1634,7030001166285,新規,0,2025-05-01,2025-05-01,インテルナ株式会社,,株式会社,埼玉県,越谷市,レイクタウン１丁目１４番地２１,,11,222,3430828,,,,,,,2025-05-01,1,,,,,インテルナ,0
1635,7030001166302,新規,0,2025-05-01,2025-05-01,株式会社オーパス,,株式会社,埼玉県,羽生市,南羽生２丁目１９番地４,,11,216,3480071,,,,,,,2025-05-01,1,,,,,オーパス,0
1636,7030001166310,新規,0,2025-05-01,2025-05-01,株式会社ゴールデンベル,,株式会社,埼玉県,富士見市,ふじみ野西２丁目１－１アイムふじみ野西二番館１２０５,,11,235,3540035,,,,,,,2025-05-01,1,,,,,ゴールデンベル,0
1641,7040001138465,新規,0,2025-05-01,2025-05-01,株式会社シバイ,,株式会社,千葉県,柏市,旭町２丁目１０番３０号,,12,217,2770852,,,,,,,2025-05-01,1,,,,,シバイ,0
1642,7040001138523,新規,0,2025-05-01,2025-05-01,株式会社ＣＯＬＯＲｅ,,株式会社,千葉県,印旛郡栄町,和田３５５－３,,12,329,2701521,,,,,,,2025-05-01,1,,,,,コロレ,0
1646,7040005022756,新規,0,2025-05-01,2025-05-01,一般社団法人リュッカ,,その他の設立登記法人,千葉県,南房総市,富浦町宮本１０９番地１,,12,234,2992413,,,,,,,2025-05-01,1,,,,,リュッカ,0
1647,7050001056600,新規,0,2025-05-01,2025-05-01,株式会社ソラリス,,株式会社,茨城県,水戸市,酒門町２９４４番地の５,,08,201,3100841,,,,,,,2025-05-01,1,,,,,ソラリス,0
1651,7070003005900,新規,0,2025-05-01,2025-05-01,合同会社スマイルフォー,,合同会社,群馬県,高崎市,石原町３２９０－１（１０１号）,,10,202,3700864,,,,,,,2025-05-01,1,,,,,スマイルフォー,0
1657,7100001038551,新規,0,2025-05-01,2025-05-01,株式会社ＴＺ芝生事務所,,株式会社,長野県,北佐久郡軽井沢町,大字長倉１５５３番地１１,,20,321,3890111,,,,,,,2025-05-01,1,,,,,ティーゼットシバフジムショ,0
1658,7110001039219,新規,0,2025-05-01,2025-05-01,株式会社レストアショップカタギリ,,株式会社,新潟県,阿賀野市,上高田６５９番地１,,15,223,9591973,,,,,,,2025-05-01,1,,,,,レストアショップカタギリ,0
1668,7120001275060,新規,0,2025-05-01,2025-05-01,株式会社ＢＡＣＫＳＴＡＧＥ,,株式会社,大阪府,大阪市北区,梅田１丁目１－３大阪駅前第３ビル２９階１－１－１号室,,27,127,5300001,,,,,,,2025-05-01,1,,,,,バックステージ,0
1669,7120001275085,新規,0,2025-05-01,2025-05-01,株式会社ゼニスアセット,,株式会社,大阪府,大阪市中央区,備後町１丁目４－１６－４０１号室,,27,128,5410051,,,,,,,2025-05-01,1,,,,,ゼニスアセット,0
1670,7120003029209,新規,0,2025-05-01,2025-05-01,大黒合同会社,,合同会社,大阪府,大阪市北区,西天満３丁目６番１０号リーガル西天満６０２号室,,27,127,5300047,,,,,,,2025-05-01,1,,,,,ダイコク,0
1671,7120003029266,新規,0,2025-05-01,2025-05-01,ＴＤ合同会社,,合同会社,大阪府,大阪市西成区,松１丁目１０－２９Ｋ２マンション２０９号,,27,122,5570034,,,,,,,2025-05-01,1,,,,,テイデイ,0
1672,7120003029274,新規,0,2025-05-01,2025-05-01,合同会社森と湖,,合同会社,大阪府,大阪市中央区,本町４丁目８番１号ＳＤ本町ビル７０２号,,27,128,5410053,,,,,,,2025-05-01,1,,,,,モリトミズウミ,0
1673,7120003029349,新規,0,2025-05-01,2025-05-01,ＥＲＥｐｒａｉｓｅ合同会社,,合同会社,大阪府,大阪市西成区,松３丁目３番３９‐３０１号,,27,122,5570034,,,,,,,2025-05-01,1,,,,,エレプライズ,0
1676,7120101071590,新規,0,2025-05-01,2025-05-01,Ｔｗｏ　Ｔｗｏ　Ｐｒｏｊｅｃｔｓ株式会社,,株式会社,大阪府,岸和田市,山直中町１７９,,27,202,5960102,,,,,,,2025-05-01,1,,,,,トゥートゥープロジェクト,0
1678,7120901050785,新規,0,2025-05-01,2025-05-01,株式会社折原建装,,株式会社,大阪府,豊中市,豊南町東３丁目６番１２－１０１号,,27,203,5610814,,,,,,,2025-05-01,1,,,,,オリハラケンソウ,0
1679,7120901050793,新規,0,2025-05-01,2025-05-01,株式会社ＭＴ技研,,株式会社,大阪府,豊中市,千成町３丁目７番２号,,27,203,5610829,,,,,,,2025-05-01,1,,,,,エムティギケン,0
1680,7120901050827,新規,0,2025-05-01,2025-05-01,株式会社スクラッチ,,株式会社,大阪府,豊中市,桜の町１丁目７番１８号,,27,203,5600054,,,,,,,2025-05-01,1,,,,,スクラッチ,0
1682,7122001039107,新規,0,2025-05-01,2025-05-01,吉良株式会社,,株式会社,大阪府,東大阪市,小阪２丁目１０番１０号４０５室,,27,227,5770801,,,,,,,2025-05-01,1,,,,,キラ,0
1685,7130001079543,新規,0,2025-05-01,2025-05-01,株式会社ＴＳＵＮＡＧＵ,,株式会社,京都府,京都市上京区,堀川通上立売下る北舟橋町８３５番地,,26,102,6020056,,,,,,,2025-05-01,1,,,,,ツナグ,0
1686,7130003010398,新規,0,2025-05-01,2025-05-01,金海合同会社,,合同会社,京都府,京都市下京区,御幸町通高辻下る桝屋町４７８番地２,00138988,26,106,6008046,,,,,,,2025-05-01,1,,,,,キンカイ,0
1694,7170001018596,新規,0,2025-05-01,2025-05-01,三陽工業株式会社,,株式会社,和歌山県,有田市,宮崎町６８５番地,,30,204,6490316,,,,,,,2025-05-01,1,,,,,サンヨウコウギョウ,0
1696,7170003002202,新規,0,2025-05-01,2025-05-01,合同会社叡智,,合同会社,和歌山県,橋本市,小原田７８,,30,203,6480071,,,,,,,2025-05-01,1,,,,,エイチ,0
1704,7180001166576,新規,0,2025-05-01,2025-05-01,株式会社アイ・テック,,株式会社,愛知県,愛知郡東郷町,大字春木字勘右ヱ門新田１１３番地１５４,,23,302,4700162,,,,,,,2025-05-01,1,,,,,アイテック,0
1705,7180001166592,新規,0,2025-05-01,2025-05-01,株式会社バーンスピリット,,株式会社,愛知県,一宮市,北小渕字南切１４６１番地２,,23,203,4910013,,,,,,,2025-05-01,1,,,,,バーンスピリット,0
1706,7180001166634,新規,0,2025-05-01,2025-05-01,株式会社Ｂｌｏｓｓｏｍ,,株式会社,愛知県,名古屋市中川区,若山町３丁目３４番地の１,,23,110,4540876,,,,,,,2025-05-01,1,,,,,ブロッサム,0
1708,7180003028394,新規,0,2025-05-01,2025-05-01,合同会社ＴＲＯＮＣ,,合同会社,愛知県,名古屋市瑞穂区,牛巻町１３番１６号２０２,,23,108,4670863,,,,,,,2025-05-01,1,,,,,トロン,0
1709,7180003028403,新規,0,2025-05-01,2025-05-01,シュタム企画合同会社,,合同会社,愛知県,尾張旭市,印場元町北山４３２４,,23,226,4880841,,,,,,,2025-05-01,1,,,,,シュタムキカク,0
1713,7180301039762,新規,0,2025-05-01,2025-05-01,株式会社宇竜,,株式会社,愛知県,豊田市,久保町２丁目３番地１０,,23,211,4710076,,,,,,,2025-05-01,1,,,,,ウタツ,0
1723,7190005012049,新規,0,2025-05-01,2025-05-01,一般社団法人トコトコ,,その他の設立登記法人,三重県,四日市市,朝日町１２番２号,,24,202,5100061,,,,,,,2025-05-01,1,,,,,トコトコ,0
1726,7200001043698,新規,0,2025-05-01,2025-05-01,株式会社アルミックアドシステム,,株式会社,岐阜県,岐阜市,薮田南４丁目１番１５号,,21,201,5008384,,,,,,,2025-05-01,1,,,,,アルミックアドシステム,0
1728,7200003006793,新規,0,2025-05-01,2025-05-01,合同会社Ａｘｅｎａ,,合同会社,岐阜県,岐阜市,六条南２丁目１０番１８－３０１号,,21,201,5008358,,,,,,,2025-05-01,1,,,,,アクセナ,0
1733,7220001026651,新規,0,2025-05-01,2025-05-01,株式会社ｆｒａｎｋ,,株式会社,石川県,金沢市,千木１丁目３８番地,,17,201,9200002,,,,,,,2025-05-01,1,,,,,フランク,0
1737,7240001064872,新規,0,2025-05-01,2025-05-01,ＨＧ　Ｗｏｏｄ　Ｐｏｗｅｒ株式会社,,株式会社,広島県,廿日市市,大野２丁目１１番４３号,,34,213,7390434,,,,,,,2025-05-01,1,,,,,エイチジーウッドパワー,0
1738,7240001064880,新規,0,2025-05-01,2025-05-01,株式会社ＫＹＫＮＤ,,株式会社,広島県,広島市西区,井口５丁目１番１４号,,34,104,7330842,,,,,,,2025-05-01,1,,,,,ケイワイケイエヌデー,0
1740,7240003007169,新規,0,2025-05-01,2025-05-01,合同会社Ｂａｓｅ,,合同会社,広島県,広島市東区,牛田東２丁目１６－１４,,34,102,7320063,,,,,,,2025-05-01,1,,,,,ベース,0
1746,7290001109821,新規,0,2025-05-01,2025-05-01,株式会社Ａｉ　ｓｔｏｒｙ,,株式会社,福岡県,福岡市博多区,博多駅前１丁目２３番２号ＰａｒｋＦｒｏｎｔ博多駅前１丁目５Ｆ－Ｂ,,40,132,8120011,,,,,,,2025-05-01,1,,,,,アイストーリー,0
1747,7290001109887,新規,0,2025-05-01,2025-05-01,株式会社Ｃ＆Ｌ,,株式会社,福岡県,福岡市東区,箱崎２丁目２０番５－７０３号,,40,131,8120053,,,,,,,2025-05-01,1,,,,,シーアンドエル,0
1751,7310003005000,新規,0,2025-05-01,2025-05-01,合同会社ＥＦＣ,,合同会社,長崎県,長崎市,飽の浦町４番３号２階,,42,201,8500063,,,,,,,2025-05-01,1,,,,,イーエフシー,0
1753,7360001035110,新規,0,2025-05-01,2025-05-01,株式会社アイランドベース,,株式会社,沖縄県,中頭郡嘉手納町,字水釜１８９－１,,47,325,9040204,,,,,,,2025-05-01,1,,,,,アイランドベース,0
1760,7380001035281,新規,0,2025-05-01,2025-05-01,株式会社Ｌａｎｄ　Ｌｏｒｄ,,株式会社,福島県,本宮市,荒井字東学壇５番地２,,07,214,9691104,,,,,,,2025-05-01,1,,,,,ランドロード,0
1764,7390001017972,新規,0,2025-05-01,2025-05-01,株式会社丸徳,,株式会社,山形県,最上郡最上町,大字志茂字宮下３４６番地３,,06,362,9996212,,,,,,,2025-05-01,1,,,,,マルトク,0
1766,7420001019115,新規,0,2025-05-01,2025-05-01,株式会社戸山エンジニア,,株式会社,青森県,青森市,大字上野字山辺２０番地２,,02,201,0300141,,,,,,,2025-05-01,1,,,,,トヤマエンジニア,0
1767,7420003003109,新規,0,2025-05-01,2025-05-01,絆将合同会社,,合同会社,青森県,八戸市,大字鮫町字上鮫１７番地１,,02,203,0310841,,,,,,,2025-05-01,1,,,,,バンショウ,0
1774,7470003002881,新規,0,2025-05-01,2025-05-01,合同会社みのり,,合同会社,香川県,丸亀市,綾歌町富熊３７２番地１４,,37,202,7612407,,,,,,,2025-05-01,1,,,,,ミノリ,0
1776,7490001011032,新規,0,2025-05-01,2025-05-01,株式会社巧製作所,,株式会社,高知県,幡多郡黒潮町,入野２０６番地４,,39,428,7891931,,,,,,,2025-05-01,1,,,,,タクミセイサクシヨ,0
1782,7700150130288,新規,0,2025-05-01,2025-05-01,ＧＵＮＡＷＡＲＤＡＮＡ　ＭＯＴＯＲＳ,,外国会社等,千葉県,東金市,上布田５３８－１－Ｈ,,12,213,2830834,スリランカ民主社会主義共和国、Ｎｏ．１４８、オイムマーワタ、コビラムドゥナ、ガルヒンナ,,,,,,2025-05-01,1,,,,,グナワルダナモータース,0
1797,8010001254520,新規,0,2025-05-01,2025-05-01,株式会社３９パートナーズ,,株式会社,東京都,千代田区,一番町１４番地２－３０２号,,13,101,1020082,,,,,,,2025-05-01,1,,,,,ミクパートナーズ,0
1798,8010001254594,新規,0,2025-05-01,2025-05-01,株式会社やるしかねーしか,,株式会社,東京都,千代田区,神田須田町１丁目７－８ＶＯＲＴ秋葉原ＩＶ２Ｆ,00138992,13,101,1010041,,,,,,,2025-05-01,1,,,,,ヤルシカネーシカ,0
1799,8010001254603,新規,0,2025-05-01,2025-05-01,株式会社ＧＥＢＥＮ　ＷＯＲＫ,,株式会社,東京都,中央区,銀座８丁目１７番５－８０２号,,13,102,1040061,,,,,,,2025-05-01,1,,,,,ゲーベンワーク,0
1800,8010001254611,新規,0,2025-05-01,2025-05-01,株式会社ＪＳＳ０３,,株式会社,東京都,千代田区,大手町２丁目３番１号,,13,101,1000004,,,,,,,2025-05-01,1,,,,,ジェイエスエスゼロサン,0
1801,8010001254636,新規,0,2025-05-01,2025-05-01,フラモア株式会社,,株式会社,東京都,千代田区,麹町２丁目２番地３,,13,101,1020083,,,,,,,2025-05-01,1,,,,,フラモア,0
1802,8010001254644,新規,0,2025-05-01,2025-05-01,株式会社ＷｉｎＸ,,株式会社,東京都,中央区,勝どき５丁目３番１－５２１６号,,13,102,1040054,,,,,,,2025-05-01,1,,,,,ウィンクス,0
1803,8010003047212,新規,0,2025-05-01,2025-05-01,合同会社穂高岳,,合同会社,東京都,千代田区,丸の内１丁目４番１号東京共同会計事務所内,,13,101,1000005,,,,,,,2025-05-01,1,,,,,ホタカダケ,0
1811,8010401189969,新規,0,2025-05-01,2025-05-01,株式会社ＮＯＡＨ,,株式会社,東京都,港区,赤坂２丁目１６番６号ＢＩＺＭＡＲＫＳ赤坂１階,,13,103,1070052,,,,,,,2025-05-01,1,,,,,ノア,0
1812,8010401189977,新規,0,2025-05-01,2025-05-01,ＶＯＲＴＥＸ株式会社,,株式会社,東京都,港区,南麻布４丁目１１番２２号,,13,103,1060047,,,,,,,2025-05-01,1,,,,,ヴォルテックス,0
1813,8010401189985,新規,0,2025-05-01,2025-05-01,株式会社ＧＮ＆Ｒ　Ｃｏｎｓｕｌｔｉｎｇ,,株式会社,東京都,港区,新橋４丁目１４番１号新橋ＡＵＮＢＬＤＧ４階,,13,103,1050004,,,,,,,2025-05-01,1,,,,,ジーエヌアンドアールコンサルティング,0
1814,8010401190019,新規,0,2025-05-01,2025-05-01,創新フード・サービス株式会社,,株式会社,東京都,港区,赤坂３丁目１１番１５号ＶＯＲＴ赤坂見附４階,,13,103,1070052,,,,,,,2025-05-01,1,,,,,ソウシンフードサービス,0
1815,8010401190027,新規,0,2025-05-01,2025-05-01,株式会社ＴＡＴＡＮＡＮＡ,,株式会社,東京都,港区,南青山３丁目１番３６号青山丸竹ビル６Ｆ,,13,103,1070062,,,,,,,2025-05-01,1,,,,,タタナナ,0
1816,8010401190043,新規,0,2025-05-01,2025-05-01,株式会社ＬＩＢＡＲ,,株式会社,東京都,港区,新橋２丁目１５番１３号,,13,103,1050004,,,,,,,2025-05-01,1,,,,,リバー,0
1817,8010401190051,新規,0,2025-05-01,2025-05-01,Ｒｕｅ　ｄｕ　Ｂａｓｅｂａｌｌ株式会社,,株式会社,東京都,港区,南青山１丁目１５番１６号山城ビル３階,,13,103,1070062,,,,,,,2025-05-01,1,,,,,リュドゥベースボール,0
1818,8010401190068,新規,0,2025-05-01,2025-05-01,株式会社ジャパンフーズ,,株式会社,東京都,港区,南青山２丁目２番１５号,,13,103,1070062,,,,,,,2025-05-01,1,,,,,ジャパンフーズ,0
1819,8010401190084,新規,0,2025-05-01,2025-05-01,Ｅａｒｎ　Ｐｏｋｅｒ株式会社,,株式会社,東京都,港区,六本木６丁目８番１０号ステップ六本木５階,,13,103,1060032,,,,,,,2025-05-01,1,,,,,アーンポーカー,0
1823,8010403034990,新規,0,2025-05-01,2025-05-01,合同会社目指せ脱炭素１号,,合同会社,東京都,港区,南青山４丁目２１番２６号リュエル青山Ｃ棟Ｂ１細谷総合会計事務所内,,13,103,1070062,,,,,,,2025-05-01,1,,,,,メザセダツタンソイチゴウ,0
1824,8010403035007,新規,0,2025-05-01,2025-05-01,ＴｅａｍＮＯＢＢＹ合同会社,,合同会社,東京都,港区,北青山１丁目３番３号三橋ビル３階,,13,103,1070061,,,,,,,2025-05-01,1,,,,,チームノビー,0
1828,8010503007814,新規,0,2025-05-01,2025-05-01,Ｙ＆Ｋ　ＡＫＡＲＩ合同会社,,合同会社,東京都,台東区,台東３丁目３０－９クリオラベルヴィ新御徒町１１０４,,13,106,1100016,,,,,,,2025-05-01,1,,,,,ワイアンドケーアカリ,0
1829,8010601067223,新規,0,2025-05-01,2025-05-01,株式会社カタツムリカンパニー,,株式会社,東京都,江東区,越中島１丁目３番１２－１１０５号,,13,108,1350044,,,,,,,2025-05-01,1,,,,,カタツムリカンパニー,0
1842,8010901057254,新規,0,2025-05-01,2025-05-01,Ａ＆Ｆ　Ｊａｐａｎ株式会社,,株式会社,東京都,世田谷区,上野毛４丁目９番９号１０,,13,112,1580093,,,,,,,2025-05-01,1,,,,,エーアンドエフジャパン,0
1843,8010901057279,新規,0,2025-05-01,2025-05-01,株式会社ＵＰＤＡＴＥ　ＭＡＲＫＥＴ,,株式会社,東京都,世田谷区,岡本３丁目５番１０号,,13,112,1570076,,,,,,,2025-05-01,1,,,,,アップデートマーケット,0
1844,8010903009880,新規,0,2025-05-01,2025-05-01,合同会社アンドリーニャ,,合同会社,東京都,世田谷区,池尻３丁目２１－１６アトラス池尻レジデンス２１０,,13,112,1540001,,,,,,,2025-05-01,1,,,,,アンドリーニャ,0
1857,8011103015835,新規,0,2025-05-01,2025-05-01,合同会社Ｅｍｉｍｉ,,合同会社,東京都,新宿区,西新宿３丁目３番１３号西新宿水間ビル６階,,13,104,1600023,,,,,,,2025-05-01,1,,,,,エミミ,0
1858,8011105011411,新規,0,2025-05-01,2025-05-01,一般社団法人キャッスルツーリズム協会,,その他の設立登記法人,東京都,新宿区,新宿５丁目１５－１４－３３０株式会社バケット内,,13,104,1600022,,,,,,,2025-05-01,1,,,,,キャッスルツーリズムキョウカイ,0
1863,8011301030545,新規,0,2025-05-01,2025-05-01,日本彦霖株式会社,,株式会社,東京都,杉並区,梅里２丁目２５番１３号高円寺プラザ２０２号,,13,115,1660011,,,,,,,2025-05-01,1,,,,,ニホンゲンリン,0
1868,8011501032011,新規,0,2025-05-01,2025-05-01,株式会社エンカラ,,株式会社,東京都,荒川区,西日暮里５丁目１８番１１号３Ｆ,,13,118,1160013,,,,,,,2025-05-01,1,,,,,エンカラ,0
1874,8011603004692,新規,0,2025-05-01,2025-05-01,合同会社ＵＯＤＯＮ,,合同会社,東京都,練馬区,栄町４１番１１号マンション・スペリア２０１,,13,120,1760006,,,,,,,2025-05-01,1,,,,,ウオドン,0
1877,8011703004221,新規,0,2025-05-01,2025-05-01,合同会社ＲＩ企画,,合同会社,東京都,江戸川区,篠崎町２丁目７番１号,,13,123,1330061,,,,,,,2025-05-01,1,,,,,アールアイキカク,0
1881,8012401043040,新規,0,2025-05-01,2025-05-01,株式会社ＧＯＤ　ＶＩＮＴＡＧＥ,,株式会社,東京都,三鷹市,井の頭１丁目２０番６号,,13,204,1810001,,,,,,,2025-05-01,1,,,,,ゴッドビンテージ,0
1883,8012701018832,新規,0,2025-05-01,2025-05-01,株式会社西部土木ＨＤ,,株式会社,東京都,西東京市,向台町６丁目５番１４号,,13,229,1880013,,,,,,,2025-05-01,1,,,,,セイブドボクエイチディー,0
1893,8020001162631,新規,0,2025-05-01,2025-05-01,ハチロク株式会社,,株式会社,神奈川県,川崎市宮前区,小台１丁目１番地１,,14,136,2160007,,,,,,,2025-05-01,1,,,,,ハチロク,0
1898,8020003028384,新規,0,2025-05-01,2025-05-01,合同会社くまけん,,合同会社,神奈川県,横浜市保土ケ谷区,上菅田町１６５９番地７,,14,106,2400051,,,,,,,2025-05-01,1,,,,,クマケン,0
1900,8021003015827,新規,0,2025-05-01,2025-05-01,合同会社ハピネスプラス,,合同会社,神奈川県,大和市,上和田２４１２番地上和田団地３－７－４０５,,14,213,2420014,,,,,,,2025-05-01,1,,,,,ハピネスプラス,0
1904,8030001166210,新規,0,2025-05-01,2025-05-01,イーランドスペース株式会社,,株式会社,埼玉県,さいたま市北区,宮原町４丁目５７番地７,,11,102,3310812,,,,,,,2025-05-01,1,,,,,イーランドスペース,0
1905,8030001166243,新規,0,2025-05-01,2025-05-01,株式会社中村ビルメンテナンス,,株式会社,埼玉県,川口市,飯塚３丁目５番２３－５０８号,,11,203,3320023,,,,,,,2025-05-01,1,,,,,ナカムラビルメンテナンス,0
1906,8030001166268,新規,0,2025-05-01,2025-05-01,株式会社ＯＲＣＡ　ＪＡＰＡＮ,,株式会社,埼玉県,所沢市,緑町４丁目３８番５号,,11,208,3591111,,,,,,,2025-05-01,1,,,,,オルカジャパン,0
1907,8030001166292,新規,0,2025-05-01,2025-05-01,株式会社Ａｖｉｓ,,株式会社,埼玉県,さいたま市大宮区,桜木町２丁目３番地大宮マルイ７階,,11,103,3300854,,,,,,,2025-05-01,1,,,,,アヴィス,0
1918,8030003026676,新規,0,2025-05-01,2025-05-01,雲龍合同会社,,合同会社,埼玉県,さいたま市桜区,西堀４丁目１番１－１２０号,,11,106,3380832,,,,,,,2025-05-01,1,,,,,ウンリュウ,0
1919,8030003026684,新規,0,2025-05-01,2025-05-01,ＭＹＢ合同会社,,合同会社,埼玉県,川越市,大字笠幡４８１８－９ヴィラハイツ２０１,,11,201,3501175,,,,,,,2025-05-01,1,,,,,エムワイビー,0
1920,8030003026692,新規,0,2025-05-01,2025-05-01,佐藤商事合同会社,,合同会社,埼玉県,羽生市,大字羽生１４７番地１－２０２号室,,11,216,3480055,,,,,,,2025-05-01,1,,,,,サトウショウジ,0
1921,8040001138357,新規,0,2025-05-01,2025-05-01,株式会社ＣＡＴＩＥＮ　ＧＬＯＢＡＬ,,株式会社,千葉県,船橋市,西船１丁目２２番１６号ジョイフル西船２－１０１号,,12,204,2730031,,,,,,,2025-05-01,1,,,,,カティエングローバル,0
1941,8080101025468,新規,0,2025-05-01,2025-05-01,株式会社ヨネヤマホビーセンター,,株式会社,静岡県,駿東郡長泉町,上土狩１８８番地の１,,22,342,4110941,,,,,,,2025-05-01,1,,,,,ヨネヤマホビーセンター,0
1949,8090003002804,新規,0,2025-05-01,2025-05-01,ワンライフ合同会社,,合同会社,山梨県,韮崎市,下祖母石２１４２番地細田ハイツ１０４号,,19,207,4070006,,,,,,,2025-05-01,1,,,,,ワンライフ,0
1950,8100001038550,新規,0,2025-05-01,2025-05-01,株式会社ＳＫＴ,,株式会社,長野県,飯田市,松尾久井２５７８番地,,20,205,3950816,,,,,,,2025-05-01,1,,,,,エスケーティー,0
1951,8100001038559,新規,0,2025-05-01,2025-05-01,株式会社ＥｉＥｉＫｉｄｓ,,株式会社,長野県,岡谷市,３２５番地２,,20,204,3940091,,,,,,,2025-05-01,1,,,,,エイエイキッズ,0
1963,8120001275076,新規,0,2025-05-01,2025-05-01,ＧＲＥＥＮＡＲＵ株式会社,,株式会社,大阪府,大阪市城東区,鴫野西５丁目１５番７－３０１号,,27,118,5360014,,,,,,,2025-05-01,1,,,,,グリーンアル,0
1964,8120001275092,新規,0,2025-05-01,2025-05-01,森の金株式会社,,株式会社,大阪府,大阪市淀川区,宮原１丁目８番３号ユニーブル新大阪４０２号室,,27,123,5320003,,,,,,,2025-05-01,1,,,,,モリノカネ,0
1965,8120001275101,新規,0,2025-05-01,2025-05-01,株式会社ｉｎｇ,,株式会社,大阪府,大阪市中央区,本町１丁目１番３号,,27,128,5410053,,,,,,,2025-05-01,1,,,,,イング,0
1968,8120003029273,新規,0,2025-05-01,2025-05-01,ＭＣＴ合同会社,,合同会社,大阪府,大阪市北区,梅田１丁目２番２号１２－１２,,27,127,5300001,,,,,,,2025-05-01,1,,,,,エムシーティー,0
1972,8120101071573,新規,0,2025-05-01,2025-05-01,ｋｅｎｓａｋｕ株式会社,,株式会社,大阪府,和泉市,青葉台３丁目３０番１９号,,27,219,5941153,,,,,,,2025-05-01,1,,,,,ケンサク,0
1973,8120101071581,新規,0,2025-05-01,2025-05-01,株式会社ＵＰ　ＤＡＴＥ,,株式会社,大阪府,堺市堺区,北向陽町１丁１番３４号３階,,27,141,5900071,,,,,,,2025-05-01,1,,,,,アップデート,0
1976,8120901050784,新規,0,2025-05-01,2025-05-01,株式会社禄,,株式会社,大阪府,箕面市,粟生間谷西７丁目１１番３号,,27,220,5620023,,,,,,,2025-05-01,1,,,,,ロク,0
1980,8122001039130,新規,0,2025-05-01,2025-05-01,株式会社モノス,,株式会社,大阪府,東大阪市,長田西２丁目７番１７－４１１号,,27,227,5770016,,,,,,,2025-05-01,1,,,,,モノス,0
1981,8122001039163,新規,0,2025-05-01,2025-05-01,Ｄ＆Ｉ　Ｓｔａｎｄａｒｄ株式会社,,株式会社,大阪府,東大阪市,長栄寺９番６号,,27,227,5770055,,,,,,,2025-05-01,1,,,,,ディーアンドアイスタンダード,0
1992,8130005017358,新規,0,2025-05-01,2025-05-01,一般社団法人青少年更生育成会,,その他の設立登記法人,京都府,京都市山科区,音羽稲芝４４番地,,26,110,6078068,,,,,,,2025-05-01,1,,,,,セイショウネンコウセイイクセイカイ,0
1997,8140001138330,新規,0,2025-05-01,2025-05-01,株式会社ＭＰＡＣ,,株式会社,兵庫県,南あわじ市,志知飯山寺２５０番地,,28,224,6560323,,,,,,,2025-05-01,1,,,,,エムピーエーシー,0
1998,8140001138388,新規,0,2025-05-01,2025-05-01,ダッタラ株式会社,,株式会社,兵庫県,加古川市,加古川町美乃利４６７－５,,28,210,6750062,,,,,,,2025-05-01,1,,,,,ダッタラ,0
2001,8160001026715,新規,0,2025-05-01,2025-05-01,草津栗東火葬サービス株式会社,,株式会社,滋賀県,栗東市,上鈎４８０番地,,25,208,5203022,,,,,,,2025-05-01,1,,,,,クサツリットウカソウサービス,0
2005,8180001166591,新規,0,2025-05-01,2025-05-01,株式会社Ｅ‐ＳＯＬＡ,,株式会社,愛知県,名古屋市北区,黒川本通３丁目５５番地マーブルミニ１０２号,,23,103,4620841,,,,,,,2025-05-01,1,,,,,エソラ,0
2011,8180003028410,新規,0,2025-05-01,2025-05-01,澄川産業合同会社,,合同会社,愛知県,一宮市,丹陽町九日市場字東五反畑３１１４番地２,,23,203,4910824,,,,,,,2025-05-01,1,,,,,スミカワサンギョウ,0
2016,8200001043714,新規,0,2025-05-01,2025-05-01,ワザデザイン株式会社,,株式会社,岐阜県,美濃加茂市,野笹町２丁目３番２８号,,21,211,5050023,,,,,,,2025-05-01,1,,,,,ワザデザイン,0
2018,8200003006792,新規,0,2025-05-01,2025-05-01,オフィス３１２合同会社,,合同会社,岐阜県,美濃市,もみじが丘３丁目１２番地,,21,207,5013773,,,,,,,2025-05-01,1,,,,,オフィスサンイチニ,0
2020,8210001020150,新規,0,2025-05-01,2025-05-01,パープルテクノロジ株式会社,,株式会社,福井県,福井市,大手３丁目１番１３号,,18,201,9100005,,,,,,,2025-05-01,1,,,,,パープルテクノロジ,0
2022,8220003004019,新規,0,2025-05-01,2025-05-01,合同会社ベラニモマトム,,合同会社,石川県,白山市,明島町山８５番地２４,,17,210,9202132,,,,,,,2025-05-01,1,,,,,ベラニモマトム,0
2028,8240005015937,新規,0,2025-05-01,2025-05-01,学校法人みらい学園,,その他の設立登記法人,広島県,三原市,本郷町上北方２９２２番地,,34,204,7290415,,,,,,,2025-05-01,1,,,,,ミライガクエン,0
2033,8290001109861,新規,0,2025-05-01,2025-05-01,株式会社未来マーケット,,株式会社,福岡県,福岡市博多区,博多駅東１丁目１４番３４号,,40,132,8120013,,,,,,,2025-05-01,1,,,,,ミライマーケット,0
2041,8340001027298,新規,0,2025-05-01,2025-05-01,株式会社サンラク,,株式会社,鹿児島県,鹿児島市,千日町６番１４号ファーストビル天文館,,46,201,8920843,,,,,,,2025-05-01,1,,,,,サンラク,0
2043,8340003004824,新規,0,2025-05-01,2025-05-01,合同会社Ｔｅａｎｏｙａ,,合同会社,鹿児島県,鹿屋市,川東町８０２８－６,,46,203,8930031,,,,,,,2025-05-01,1,,,,,ティノヤ,0
2044,8340003004840,新規,0,2025-05-01,2025-05-01,合同会社ＴｅｒｒａＢｌｅｓｓ,,合同会社,鹿児島県,垂水市,田神３５１０番地１,,46,214,8912104,,,,,,,2025-05-01,1,,,,,テラブレス,0
2045,8350001019501,新規,0,2025-05-01,2025-05-01,ＳＯＵＬＭＡＫＥ株式会社,,株式会社,宮崎県,日南市,岩崎３丁目４１４７―１,,45,204,8870014,,,,,,,2025-05-01,1,,,,,ソウルメイク,0
2050,8370003007064,新規,0,2025-05-01,2025-05-01,合同会社Ｎａｌｕ,,合同会社,宮城県,柴田郡大河原町,字広表１３番地１８,,04,321,9891225,,,,,,,2025-05-01,1,,,,,ナル,0
2056,8390001017971,新規,0,2025-05-01,2025-05-01,株式会社宮川農園,,株式会社,山形県,新庄市,大字飛田３８番地,,06,205,9960061,,,,,,,2025-05-01,1,,,,,ミヤカワノウエン,0
2061,8420001019114,新規,0,2025-05-01,2025-05-01,株式会社ＴＪサポート,,株式会社,青森県,十和田市,大字三本木字千歳森５０８番地１８,,02,206,0340001,,,,,,,2025-05-01,1,,,,,ティージェーサポート,0
2065,8420003003108,新規,0,2025-05-01,2025-05-01,合同会社良信,,合同会社,青森県,青森市,大字油川字大浜１４６番地３,,02,201,0380059,,,,,,,2025-05-01,1,,,,,リョウシン,0
2069,8430003017585,新規,0,2025-05-01,2025-05-01,合同会社ふれ愛,,合同会社,北海道,江別市,向ケ丘５６－９,,01,217,0670075,,,,,,,2025-05-01,1,,,,,フレアイ,0
2070,8450001014608,新規,0,2025-05-01,2025-05-01,株式会社化石,,株式会社,北海道,中川郡中川町,字中川２１７番地４,,01,471,0982802,,,,,,,2025-05-01,1,,,,,カセキ,0
2072,8470001020694,新規,0,2025-05-01,2025-05-01,株式会社ＫＩＭＵＲＡ,,株式会社,香川県,木田郡三木町,大字下高岡１６６８番地１,,37,341,7610704,,,,,,,2025-05-01,1,,,,,キムラ,0
2075,8490003002012,新規,0,2025-05-01,2025-05-01,ネクサスラボ合同会社,,合同会社,高知県,吾川郡いの町,小川西津賀才１１７１,,39,386,7812322,,,,,,,2025-05-01,1,,,,,ネクサスラボ,0
2080,8700150130279,新規,0,2025-05-01,2025-05-01,Ｂｒａｎｎａｎ　Ｉｎｖｅｓｔｍｅｎｔ　Ｌｉｍｉｔｅｄ,,外国会社等,,,,,,,,Ｒｏｏｍ　１９Ａ　２３　Ｓｅｙｍｏｕｒ　Ｒｏａｄ　Ｍｉｄ－ｌｅｖｅｌｓ　Ｈｏｎｇ　Ｋｏｎｇ,,,,,,2025-05-01,1,,,,,ブラナンインベストメントリミテツド,0
2081,8700150130287,新規,0,2025-05-01,2025-05-01,Ｗｙｎｉｓｔ　Ｒｅｔａｉｌ　Ｓｏｌｕｔｉｏｎｓ　Ｉｎｃ．,,外国会社等,,,,,,,,５Ｆ．，Ｎｏ．６６，Ｓｅｃ．２，Ｎａｎｊｉｎｇ　Ｅ．Ｒｄ．，Ｔａｉｐｅｉ　１０４５７，Ｔａｉｗａｎ,,,,,,2025-05-01,1,,,,,ウイニストリテイルソリユーシヨンズ,0
2086,9010001254635,新規,0,2025-05-01,2025-05-01,虹のかけ橋株式会社,,株式会社,東京都,中央区,銀座１丁目２２番１１号銀座大竹ビジデンス２Ｆ,,13,102,1040061,,,,,,,2025-05-01,1,,,,,ニジノカケハシ,0
2087,9010001254701,新規,0,2025-05-01,2025-05-01,東京ビジョン投資株式会社,,株式会社,東京都,中央区,八丁堀１丁目７－７八重洲レザンビル６階,,13,102,1040032,,,,,,,2025-05-01,1,,,,,トウキョウビジョントウシ,0
2097,9010401189893,新規,0,2025-05-01,2025-05-01,Ｔｒａｎｓ‐ｔｏｕｒ株式会社,,株式会社,東京都,港区,芝浦２丁目３番２６－５０５号,,13,103,1080023,,,,,,,2025-05-01,1,,,,,トランスツアー,0
2098,9010401189935,新規,0,2025-05-01,2025-05-01,株式会社３ＬＭ,,株式会社,東京都,港区,南青山２丁目２番１５号ウィン青山９４２,,13,103,1070062,,,,,,,2025-05-01,1,,,,,モルマ,0
2099,9010401190050,新規,0,2025-05-01,2025-05-01,株式会社メルリンク,,株式会社,東京都,港区,北青山１丁目３番３号三橋ビル３階,,13,103,1070061,,,,,,,2025-05-01,1,,,,,メルリンク,0
2102,9010403035006,新規,0,2025-05-01,2025-05-01,合同会社ＹＵＲＩＫＥＹ,,合同会社,東京都,港区,赤坂４丁目１４番１４ー４００８号,,13,103,1070052,,,,,,,2025-05-01,1,,,,,ユリキー,0
2107,9010601067107,新規,0,2025-05-01,2025-05-01,東京鋼獣ゲームズ株式会社,,株式会社,東京都,江東区,東砂５丁目５番６号Ｋビル３０２,,13,108,1360074,,,,,,,2025-05-01,1,,,,,トウキョウコウジュウゲームズ,0
2108,9010601067206,新規,0,2025-05-01,2025-05-01,スマイル・リアルエステート株式会社,,株式会社,東京都,江東区,牡丹２丁目１３番４－１１０２号,,13,108,1350046,,,,,,,2025-05-01,1,,,,,スマイルリアルエステート,0
2109,9010601067222,新規,0,2025-05-01,2025-05-01,株式会社Ｒｅｎａｔｕｓ,,株式会社,東京都,墨田区,緑３丁目１３番１１－１５０３号,,13,107,1300021,,,,,,,2025-05-01,1,,,,,レナトゥス,0
2110,9010705003759,新規,0,2025-05-01,2025-05-01,一般社団法人東京城南ＢＡＳＥ．,,その他の設立登記法人,東京都,品川区,西大井２丁目４－１４,,13,109,1400015,,,,,,,2025-05-01,1,,,,,トウキョウジョウナンベース,0
2117,9011001169559,新規,0,2025-05-01,2025-05-01,株式会社シロクロ,,株式会社,東京都,渋谷区,千駄ヶ谷４丁目１２番８号ＳＳＵ１Ｆ,,13,113,1510051,,,,,,,2025-05-01,1,,,,,シロクロ,0
2119,9011003021503,新規,0,2025-05-01,2025-05-01,合同会社空間建築設計,,合同会社,東京都,渋谷区,渋谷１丁目１０番７号グローリア宮益坂ＩＩＩ４０５,00138986,13,113,1500002,,,,,,,2025-05-01,1,,,,,クウカンケンチクセッケイ,0
2123,9011101111354,新規,0,2025-05-01,2025-05-01,株式会社Ｍｙｏｓｈｉｎ,,株式会社,東京都,新宿区,西新宿６丁目２０‐７‐１４０３,,13,104,1600023,,,,,,,2025-05-01,1,,,,,ミョウシン,0
2124,9011101111569,新規,0,2025-05-01,2025-05-01,Ｉｃｈｉｓ株式会社,,株式会社,東京都,新宿区,新宿５丁目１８番２０号ルックハイツ新宿８０３号,,13,104,1600022,,,,,,,2025-05-01,1,,,,,イチズ,0
2125,9011101111585,新規,0,2025-05-01,2025-05-01,株式会社ＩＳＴ　ＪＡＰＡＮ,,株式会社,東京都,新宿区,新宿７丁目２６番３７－７０１号,,13,104,1600022,,,,,,,2025-05-01,1,,,,,アイストジャパン,0
2128,9011301030544,新規,0,2025-05-01,2025-05-01,Ｗｏｖｅ株式会社,,株式会社,東京都,杉並区,今川１丁目１２番２１号,,13,115,1670035,,,,,,,2025-05-01,1,,,,,ウォーヴ,0
2134,9011601028619,新規,0,2025-05-01,2025-05-01,株式会社ＢＩＧ　ＦＡＭＩＬＹ,,株式会社,東京都,練馬区,早宮３丁目４４番１号エクセルねり善１０２号,,13,120,1790085,,,,,,,2025-05-01,1,,,,,ビッグファミリー,0
2138,9011801046065,新規,0,2025-05-01,2025-05-01,株式会社ＩＳＫ,,株式会社,東京都,足立区,鹿浜３丁目９番３号,,13,121,1230864,,,,,,,2025-05-01,1,,,,,アイエスケー,0
2140,9012401043048,新規,0,2025-05-01,2025-05-01,リアライズフィット株式会社,,株式会社,東京都,小金井市,本町４丁目１４番２２号２Ｆ,,13,210,1840004,,,,,,,2025-05-01,1,,,,,リアライズフィット,0
2143,9012403007100,新規,0,2025-05-01,2025-05-01,合同会社ロビンソンＳＴＵＤＩＯ,,合同会社,東京都,三鷹市,新川６丁目３６－２２－１０５,,13,204,1810004,,,,,,,2025-05-01,1,,,,,ロビンソンスタジオ,0
2146,9013301054168,新規,0,2025-05-01,2025-05-01,株式会社ココロ,,株式会社,東京都,豊島区,北大塚３丁目２５番１５号,,13,116,1700004,,,,,,,2025-05-01,1,,,,,ココロ,0
2157,9020001162630,新規,0,2025-05-01,2025-05-01,株式会社ＲＥＰＬＡＹ,,株式会社,神奈川県,川崎市川崎区,渡田向町１７番６号カーサシルエラ３０２,,14,131,2100841,,,,,,,2025-05-01,1,,,,,リプレイ,0
2161,9020003028400,新規,0,2025-05-01,2025-05-01,合同会社エバレス,,合同会社,神奈川県,横浜市金沢区,富岡西１丁目１７番７号,,14,108,2360052,,,,,,,2025-05-01,1,,,,,エバレス,0
2162,9020005016824,新規,0,2025-05-01,2025-05-01,一般社団法人ＳＣＹ,,その他の設立登記法人,神奈川県,横浜市中区,山下町１０６番地３３ＬＩＬＹビル２階,,14,104,2310023,,,,,,,2025-05-01,1,,,,,エスシーワイ,0
2165,9021001085111,新規,0,2025-05-01,2025-05-01,株式会社ｔ‐ｔｈｒｅｅ,,株式会社,神奈川県,座間市,栗原中央１丁目２７番６号,,14,216,2520014,,,,,,,2025-05-01,1,,,,,ティースリー,0
2168,9021003015925,新規,0,2025-05-01,2025-05-01,合同会社ＡＡＩ商会,,合同会社,神奈川県,厚木市,上荻野１７９７番地１,,14,212,2430201,,,,,,,2025-05-01,1,,,,,エーエーアイショウカイ,0
2174,9030001166242,新規,0,2025-05-01,2025-05-01,株式会社ＹＭＳ,,株式会社,埼玉県,川口市,三ツ和１丁目１番地の６,,11,203,3340011,,,,,,,2025-05-01,1,,,,,ワイエムエス,0
2175,9030001166259,新規,0,2025-05-01,2025-05-01,株式会社杉田鋼業,,株式会社,埼玉県,加須市,道地１３６３番地１,,11,210,3470121,,,,,,,2025-05-01,1,,,,,スギタコウギョウ,0
2176,9030001166267,新規,0,2025-05-01,2025-05-01,株式会社鈴木機械サービス,,株式会社,埼玉県,川口市,大字木曽呂７９１番地の１－１０１号室,,11,203,3330831,,,,,,,2025-05-01,1,,,,,スズキキカイサービス,0
2177,9030001166300,新規,0,2025-05-01,2025-05-01,２ｎｄ　Ｓｔｏｒｙ株式会社,,株式会社,埼玉県,三郷市,新三郷ららシティ３丁目２番１号ＧＬＰ三郷２,,11,237,3410009,,,,,,,2025-05-01,1,,,,,セカンドストーリー,0
2180,9030003026675,新規,0,2025-05-01,2025-05-01,宏美合同会社,,合同会社,埼玉県,さいたま市岩槻区,大字小溝１３６３,,11,110,3390003,,,,,,,2025-05-01,1,,,,,ヒロミ,0
2181,9030003026683,新規,0,2025-05-01,2025-05-01,合同会社さかみん企画,,合同会社,埼玉県,坂戸市,千代田４丁目１４番４号,,11,239,3500214,,,,,,,2025-05-01,1,,,,,サカミンキカク,0
2199,9080401027881,新規,0,2025-05-01,2025-05-01,株式会社フレンドキャリア,,株式会社,静岡県,菊川市,下平川２１５４番地の１,,22,224,4371514,,,,,,,2025-05-01,1,,,,,フレンドキャリア,0
2208,9110005017227,新規,0,2025-05-01,2025-05-01,一般社団法人佐渡共生推進機構,,その他の設立登記法人,新潟県,佐渡市,河原田諏訪町４番地,,15,224,9521315,,,,,,,2025-05-01,1,,,,,サドキョウセイスイシンキコウ,0
2216,9120001275018,新規,0,2025-05-01,2025-05-01,株式会社ＸＥＬＩＯＮ,,株式会社,大阪府,大阪市生野区,中川東２丁目１６番７－１０５号,,27,116,5440006,,,,,,,2025-05-01,1,,,,,ゼリオン,0
2217,9120001275042,新規,0,2025-05-01,2025-05-01,ＹＤＤ株式会社,,株式会社,大阪府,大阪市浪速区,日本橋３丁目７番３－１２０１号,,27,111,5560005,,,,,,,2025-05-01,1,,,,,ワイディーディー,0
2218,9120001275091,新規,0,2025-05-01,2025-05-01,意洋株式会社,,株式会社,大阪府,大阪市中央区,東平１丁目４番５－８０２号,,27,128,5420063,,,,,,,2025-05-01,1,,,,,イヨウ,0
2221,9120003029256,新規,0,2025-05-01,2025-05-01,ＢＡＲＡＴＯ　ＪＡＰＡＮ合同会社,,合同会社,大阪府,大阪市中央区,島之内２丁目８番７－８０２号,,27,128,5420082,,,,,,,2025-05-01,1,,,,,バラトジャパン,0
2222,9120003029264,新規,0,2025-05-01,2025-05-01,ＢＥＯ合同会社,,合同会社,大阪府,大阪市西成区,松１丁目１０－２９－２０８号室,,27,122,5570034,,,,,,,2025-05-01,1,,,,,ベオ,0
2223,9120003029272,新規,0,2025-05-01,2025-05-01,合同会社ａｍＣ,,合同会社,大阪府,大阪市北区,豊崎３丁目２０番９号三栄ビル７Ｆ１Ｂ号,,27,127,5310072,,,,,,,2025-05-01,1,,,,,エイエムシー,0
2224,9120003029280,新規,0,2025-05-01,2025-05-01,合同会社エース,,合同会社,大阪府,大阪市生野区,鶴橋２丁目１５番１４号,,27,116,5440031,,,,,,,2025-05-01,1,,,,,エース,0
2226,9120101071572,新規,0,2025-05-01,2025-05-01,株式会社Ｋｏｋｏｓａｋｕ,,株式会社,大阪府,堺市中区,楢葉４０番地１,,27,142,5998252,,,,,,,2025-05-01,1,,,,,ココサク,0
2241,9140001138346,新規,0,2025-05-01,2025-05-01,株式会社Ｃｌａｓｓｐｉａ,,株式会社,兵庫県,姫路市,南今宿８番３０号今宿甲南ビル１Ｆ,,28,201,6700054,,,,,,,2025-05-01,1,,,,,クラスピア,0
2242,9140001138362,新規,0,2025-05-01,2025-05-01,光陽住工株式会社,,株式会社,兵庫県,尼崎市,東園田町２丁目７６番地の３、ＣＡＦＵ－Ａ号室,,28,202,6610953,,,,,,,2025-05-01,1,,,,,コウヨウジュウコウ,0
2243,9150001028059,新規,0,2025-05-01,2025-05-01,株式会社ｓｅｅｋｏｕｔ,,株式会社,奈良県,奈良市,学園大和町３丁目１５４,,29,201,6310041,,,,,,,2025-05-01,1,,,,,シークアウト,0
2249,9180001166533,新規,0,2025-05-01,2025-05-01,Ｓ＆Ｓ株式会社,,株式会社,愛知県,名古屋市中村区,名駅４丁目２４番５号第２森ビル４０１,,23,105,4500002,,,,,,,2025-05-01,1,,,,,エスアンドエス,0
2250,9180001166582,新規,0,2025-05-01,2025-05-01,Ｔ＆Ｍジャパン株式会社,,株式会社,愛知県,名古屋市天白区,元八事１丁目１８番地の２,,23,116,4680066,,,,,,,2025-05-01,1,,,,,ティーアンドエムジャパン,0
2256,9180005021081,新規,0,2025-05-01,2025-05-01,医療法人いわつか歯科クリニック,,その他の設立登記法人,愛知県,名古屋市中村区,岩塚本通４丁目３７番地,,23,105,4530861,,,,,,,2025-05-01,1,,,,,イワツカシカクリニック,0
2260,9180303006552,新規,0,2025-05-01,2025-05-01,合同会社ＴＡスタイル,,合同会社,愛知県,豊橋市,石巻町字上屋敷２０番地１,,23,201,4411112,,,,,,,2025-05-01,1,,,,,ティーエースタイル,0
2266,9200001043696,新規,0,2025-05-01,2025-05-01,ＦｏｒｔｕｎｅＧａｔａ株式会社,,株式会社,岐阜県,中津川市,蛭川２１６９番地３,,21,206,5098301,,,,,,,2025-05-01,1,,,,,フォーチュンゲート,0
2270,9250001021128,新規,0,2025-05-01,2025-05-01,株式会社ＭＩＹＡＢＩ,,株式会社,山口県,宇部市,大字際波４１７番地５９,,35,202,7590207,,,,,,,2025-05-01,1,,,,,ミヤビ,0
2272,9280005007657,新規,0,2025-05-01,2025-05-01,一般社団法人みんなの暮らしＨａｒＮａｔｕ,,その他の設立登記法人,島根県,出雲市,大社町修理免８４－５,,32,203,6990721,,,,,,,2025-05-01,1,,,,,ミンナノクラシハルナツ,0
2275,9290001109794,新規,0,2025-05-01,2025-05-01,ＣＥＡＳ株式会社,,株式会社,福岡県,福岡市東区,多の津１丁目９番１号,,40,131,8130034,,,,,,,2025-05-01,1,,,,,シアーズ,0
2282,9290005019726,新規,0,2025-05-01,2025-05-01,一般社団法人まちフロント,,その他の設立登記法人,福岡県,みやま市,瀬高町上庄１３６,,40,229,8350025,,,,,,,2025-05-01,1,,,,,マチフロント,0
2283,9290803005043,新規,0,2025-05-01,2025-05-01,アンカーポイント合同会社,,合同会社,福岡県,北九州市小倉北区,江南町８番６－９０６号,,40,106,8020083,,,,,,,2025-05-01,1,,,,,アンカーポイント,0
2290,9330005010911,新規,0,2025-05-01,2025-05-01,一般社団法人熊本県テコンドー協会,,その他の設立登記法人,熊本県,阿蘇市,内牧６２６番地８,,43,214,8692301,,,,,,,2025-05-01,1,,,,,クマモトケンテコンドーキョウカイ,0
2294,9340003004823,新規,0,2025-05-01,2025-05-01,合同会社仏英会話ラーム,,合同会社,鹿児島県,霧島市,国分中央４丁目１０番１１号南国ビル３０３号室,,46,218,8994332,,,,,,,2025-05-01,1,,,,,フツエイカイワラーム,0
2301,9370003007063,新規,0,2025-05-01,2025-05-01,合同会社ティーエム,,合同会社,宮城県,柴田郡大河原町,字広表１３番地１８,,04,321,9891225,,,,,,,2025-05-01,1,,,,,ティーエム,0
2302,9370003007071,新規,0,2025-05-01,2025-05-01,ＯＮＥＵＮＩＴＹ合同会社,,合同会社,宮城県,仙台市泉区,泉中央３丁目３１‐１パークサイド４１１,,04,105,9813133,,,,,,,2025-05-01,1,,,,,ワンユニティ,0
2307,9420003003107,新規,0,2025-05-01,2025-05-01,合同会社コーポ寺川,,合同会社,青森県,弘前市,大字城東中央１丁目９番地１５シャーメゾンホワイトリリー１０２号,,02,202,0368093,,,,,,,2025-05-01,1,,,,,コーポテラカワ,0
2308,9430001094287,新規,0,2025-05-01,2025-05-01,千福株式会社,,株式会社,北海道,札幌市西区,八軒十条西３丁目４番３０号,,01,107,0630850,,,,,,,2025-05-01,1,,,,,センフク,0
2309,9430005015231,新規,0,2025-05-01,2025-05-01,一般社団法人ＮＫＦＡＭ,,その他の設立登記法人,北海道,札幌市中央区,南一条西７丁目１２番地３都市ビル７Ｆ,,01,101,0600061,,,,,,,2025-05-01,1,,,,,エヌケーファム,0
2310,9450001014607,新規,0,2025-05-01,2025-05-01,株式会社ＰＲＩＭＥＰＬＵＳ,,株式会社,北海道,旭川市,末広東一条７丁目１番５号,,01,204,0718121,,,,,,,2025-05-01,1,,,,,プライムプラス,0
2314,9700150130071,新規,0,2025-05-01,2025-05-01,ＶＥＮＴＡＩＲ　ＡＰＰＬＩＡＮＣＥＳ　ＣＯ．，ＬＩＭＩＴＥＤ,,外国会社等,,,,,,,,ＦＬＡＴ　４０４Ａ，４／Ｆ，ＢＥＶＥＲＬＥＹ　ＣＯＭＭＥＲＣＩＡＬ　ＣＥＮＴＲＥ，８７－１０５　ＣＨＡＴＨＡＭ　ＲＯＡＤ　ＳＯＵＴＨ，ＴＳＩＭ　ＳＨＡ　ＴＳＵＩ　ＨＯＮＧ　ＫＯＮＧ,,,,,,2025-05-01,1,,,,,ベントエアアーアプライアンスカンパニーリミテツド,0
2315,9700150130278,新規,0,2025-05-01,2025-05-01,金華得原貿易有限公司,,外国会社等,,,,,,,,中華人民共和国浙江省義烏市仏堂鎮大士路４５－２号二号楼七楼,,,,,,2025-05-01,1,,,,,キンカトクゲンボウエキユウゲンコウシ,0
2316,9700150130286,新規,0,2025-05-01,2025-05-01,Ｓｈｅｎｚｈｅｎ　Ｄｅｄｅｌｏｎｇ　Ｔｒａｄｉｎｇ　Ｃｏ．，Ｌｔｄ．,,外国会社等,,,,,,,,Ａ２０１，Ｂｕｉｌｄｉｎｇ　１，Ｆａｃｔｏｒｙ　Ｂｕｉｌｄｉｎｇ　１，Ｌｉａｎｃｈｕａｎｇ　Ｔｅｃｈｎｏｌｏｇｙ　Ｐａｒｋ，Ｎｏ．２１　Ｂｕｌａｎ　Ｒｏａｄ，Ｌｉｌａｎｇ　Ｃｏｍｍｕｎｉｔｙ，Ｎａｎｗａｎ　Ｓｔｒｅｅｔ，Ｌｏｎｇｇａｎｇ　Ｄｉｓｔｒｉｃｔ，Ｓｈｅｎｚｈｅｎ　Ｃｉｔｙ，Ａ２０１,,,,,,2025-05-01,1,,,,,シェンジェンシーダーダーロンシャンマオヨウシエンゾーレンゴンスー,0
2317,9700150130294,新規,0,2025-05-01,2025-05-01,香港雷霆信息技術有限公司,,外国会社等,,,,,,,,ＦＬＡＴ／ＲＭ　６０４，６／Ｆ，ＥＡＳＥＹ　ＣＯＭＭＥＲＣＩＡＬ　ＢＵＩＬＤＩＮＧ　２５３ー２６１　ＨＥＮＮＥＳＳＹ　ＲＯＡＤ，ＷＡＮＣＨＡＩ，ＨＫ,,,,,,2025-05-01,1,,,,,ホンコンレイテイングインフオメーシヨンテクノロジーカンパニーリミテツド,0
