sequenceNumber,corporateNumber,process,correct,updateDate,changeDate,name,nameImageId,kind,prefectureName,cityName,streetNumber,addressImageId,prefectureCode,cityCode,postCode,addressOutside,addressOutsideImageId,closeDate,closeCause,successorCorporateNumber,changeCause,assignmentDate,latest,enName,enPrefectureName,enCityName,enAddressOutside,furigana,hihyoji
8,1010001237366,新規,0,2023-08-04,2023-08-04,株式会社武田リペアガラス,,株式会社,東京都,千代田区,岩本町３丁目８番８号,,13,101,1010032,,,,,,,2023-08-04,1,,,,,タケダリペアガラス,0
9,1010001237399,新規,0,2023-08-04,2023-08-04,株式会社リノエステート,,株式会社,東京都,中央区,日本橋中洲１０－７,,13,102,1030008,,,,,,,2023-08-04,1,,,,,リノエステート,0
10,1010001237416,新規,0,2023-08-04,2023-08-04,株式会社Ｔｏｋｙｏ　Ｃｏｎｓｕｌｔｉｎｇ　Ｈｕｂ,,株式会社,東京都,中央区,銀座１丁目１２－４,,13,102,1040061,,,,,,,2023-08-04,1,,,,,トウキョウコンサルティングハブ,0
11,1010001237432,新規,0,2023-08-04,2023-08-04,株式会社味幸,,株式会社,東京都,中央区,湊３丁目４番２号,,13,102,1040043,,,,,,,2023-08-04,1,,,,,アジユキ,0
13,1010003041246,新規,0,2023-08-04,2023-08-04,ソーラープリズム合同会社,,合同会社,東京都,中央区,八丁堀４丁目２番１０号ＡＯＪ税理士法人内,,13,102,1040032,,,,,,,2023-08-04,1,,,,,ソーラープリズム,0
14,1010003041254,新規,0,2023-08-04,2023-08-04,合同会社麹町セカンドリース,,合同会社,東京都,千代田区,麹町１丁目４番地半蔵門ファーストビル５階株式会社ファンドクリエーション内,,13,101,1020083,,,,,,,2023-08-04,1,,,,,コウジマチセカンドリース,0
17,1010005037044,新規,0,2023-08-04,2023-08-04,デジタル大阪６特定目的会社,,その他の設立登記法人,東京都,中央区,新富１丁目１５番３号ジパングアウトソーシングサービス株式会社内,,13,102,1040041,,,,,,,2023-08-04,1,,,,,デジタルオオサカシックス,0
18,1010005037052,新規,0,2023-08-04,2023-08-04,一般財団法人ＭＡＩＣＯＭミライを応援学生奨学財団,,その他の設立登記法人,東京都,千代田区,大手町２丁目１番１号,,13,101,1000004,,,,,,,2023-08-04,1,,,,,マイコムミライヲオウエンガクセイショウガクザイダン,0
27,1010401176081,新規,0,2023-08-04,2023-08-04,東成メカテク株式会社,,株式会社,東京都,港区,虎ノ門３丁目１８番６号朝日虎ノ門マンション５Ｆ,,13,103,1050001,,,,,,,2023-08-04,1,,,,,トウセイメカテク,0
28,1010401176148,新規,0,2023-08-04,2023-08-04,株式会社ＴＲＹ＆ＡＮＧＬＥ,,株式会社,東京都,港区,虎ノ門４丁目１番２８号,,13,103,1050001,,,,,,,2023-08-04,1,,,,,トライアングル,0
29,1010401176222,新規,0,2023-08-04,2023-08-04,株式会社ワンツースリーパートナーズ,,株式会社,東京都,港区,南青山５丁目４番１１－１１７号,,13,103,1070062,,,,,,,2023-08-04,1,,,,,ワンツースリーパートナーズ,0
31,1010403030641,新規,0,2023-08-04,2023-08-04,ＤＨＦ合同会社,,合同会社,東京都,港区,元赤坂１丁目３番１０号エル・セレーノ元赤坂レジデンス１９０２,,13,103,1070051,,,,,,,2023-08-04,1,,,,,ディーエイチエフ,0
32,1010501050847,新規,0,2023-08-04,2023-08-04,宜高貿易株式会社,,株式会社,東京都,台東区,上野６丁目７番１６号川久保ビル８０１号,,13,106,1100005,,,,,,,2023-08-04,1,,,,,ヨシタカボウエキ,0
35,1010603010286,新規,0,2023-08-04,2023-08-04,合同会社三好Ｂｉｚアドバ,,合同会社,東京都,江東区,木場６丁目８番１３号,,13,108,1350042,,,,,,,2023-08-04,1,,,,,ミヨシビズアドバ,0
38,1010701044665,新規,0,2023-08-04,2023-08-04,株式会社Ｗｈｉｓｋｙ　Ｔｏｕｒｉｓｍ　Ｊａｐａｎ,,株式会社,東京都,品川区,西五反田５丁目２３番３号ＢＬＯＣＫＳ目黒不動前１０８,,13,109,1410031,,,,,,,2023-08-04,1,,,,,ウイスキーツーリズムジャパン,0
39,1010703006795,新規,0,2023-08-04,2023-08-04,バリューカタリスト合同会社,,合同会社,東京都,品川区,上大崎３丁目９－３７－３０３,,13,109,1410021,,,,,,,2023-08-04,1,,,,,バリューカタリスト,0
40,1010901053565,新規,0,2023-08-04,2023-08-04,株式会社ＡＭＵ　Ｅｎｔｅｒｔａｉｎｍｅｎｔ,,株式会社,東京都,世田谷区,豪徳寺２丁目２７番１３号,,13,112,1540021,,,,,,,2023-08-04,1,,,,,アムエンターテインメント,0
41,1010903008360,新規,0,2023-08-04,2023-08-04,ＲＡＭＪＡＮＡＫＩ合同会社,,合同会社,東京都,世田谷区,大原２丁目２２番３号若松コーポ３０１号室,,13,112,1560041,,,,,,,2023-08-04,1,,,,,ラムジャナキ,0
49,1011001156052,新規,0,2023-08-04,2023-08-04,ＭＥＲＯ　Ｔｏｋｙｏ株式会社,,株式会社,東京都,渋谷区,初台１丁目３８番１２号,,13,113,1510061,,,,,,,2023-08-04,1,,,,,,0
50,1011001156093,新規,0,2023-08-04,2023-08-04,株式会社サカイアセット,,株式会社,東京都,渋谷区,道玄坂１丁目１７番１１号,,13,113,1500043,,,,,,,2023-08-04,1,,,,,サカイアセット,0
51,1011001156102,新規,0,2023-08-04,2023-08-04,株式会社ｐａｔｔｅｒｎ．,,株式会社,東京都,渋谷区,渋谷２丁目１９番１５号宮益坂ビルディング６０９,,13,113,1500002,,,,,,,2023-08-04,1,,,,,パターン,0
52,1011001156127,新規,0,2023-08-04,2023-08-04,松栄インダストリー株式会社,,株式会社,東京都,渋谷区,道玄坂１丁目１０番８号渋谷道玄坂東急ビル２Ｆ－Ｃ,,13,113,1500043,,,,,,,2023-08-04,1,,,,,ショウエイインダストリー,0
54,1011003017293,新規,0,2023-08-04,2023-08-04,スポーティングニュースジャパン合同会社,,合同会社,東京都,渋谷区,神宮前６丁目２３番４号桑野ビル２階,,13,113,1500001,,,,,,,2023-08-04,1,,,,,スポーティングニュースジャパン,0
58,1011101103846,新規,0,2023-08-04,2023-08-04,株式会社ＦＬＣ,,株式会社,東京都,新宿区,歌舞伎町２丁目４１番１２号,,13,104,1600021,,,,,,,2023-08-04,1,,,,,エフエルシー,0
59,1011101103854,新規,0,2023-08-04,2023-08-04,Ｇｌｏｂａｌ　Ｒｅｃｒｕｉｔ　Ｐａｒｔｎｅｒｓ株式会社,,株式会社,東京都,新宿区,山吹町２６５番地１１プレミスト山吹神楽坂１３０２,,13,104,1620801,,,,,,,2023-08-04,1,,,,,グローバルリクルートパートナーズ,0
61,1011103013333,新規,0,2023-08-04,2023-08-04,合同会社Ｗａｙｆｉｎｄｅｒ,,合同会社,東京都,新宿区,市谷八幡町２番地１ＤＳ市ヶ谷ビル３階,,13,104,1620844,,,,,,,2023-08-04,1,,,,,ウェイファインダー,0
62,1011103013341,新規,0,2023-08-04,2023-08-04,合同会社Ｏｆｆｉｃｅ１１２０,,合同会社,東京都,新宿区,新宿１丁目３６－２新宿第七葉山ビル３階,,13,104,1600022,,,,,,,2023-08-04,1,,,,,オフィスイチイチニゼロ,0
69,1011501029617,新規,0,2023-08-04,2023-08-04,株式会社ＪＵＮＥ,,株式会社,東京都,北区,堀船４丁目１１番８号,,13,117,1140004,,,,,,,2023-08-04,1,,,,,ジューン,0
70,1011501029625,新規,0,2023-08-04,2023-08-04,アズマンスリアルティ株式会社,,株式会社,東京都,荒川区,西日暮里２丁目２２番１号,,13,118,1160013,,,,,,,2023-08-04,1,,,,,アズマンスリアルティ,0
71,1011701026488,新規,0,2023-08-04,2023-08-04,株式会社コラクティブ,,株式会社,東京都,江戸川区,東小岩５丁目５番９－７０２号パルロイヤル小岩,,13,123,1330052,,,,,,,2023-08-04,1,,,,,コラクティブ,0
74,1011801042815,新規,0,2023-08-04,2023-08-04,Ｊ・Ｙ　Ｉｎｔｅｒｎａｔｉｏｎａｌ株式会社,,株式会社,東京都,足立区,島根２丁目３２－２１いづみハイツ竹ノ塚２Ｆ,,13,121,1210815,,,,,,,2023-08-04,1,,,,,ジェイワイインターナショナル,0
75,1011801042831,新規,0,2023-08-04,2023-08-04,株式会社スター・ライト,,株式会社,東京都,葛飾区,四つ木５丁目１８番３号,,13,122,1240011,,,,,,,2023-08-04,1,,,,,,0
80,1012403006092,新規,0,2023-08-04,2023-08-04,コンパルティ・エル・ヴァロ合同会社,,合同会社,東京都,府中市,八幡町１丁目１４番地の４２,,13,206,1830016,,,,,,,2023-08-04,1,,,,,コンパルティエルヴァロ,0
81,1012801022542,新規,0,2023-08-04,2023-08-04,Ｂｏｎｇｏ株式会社,,株式会社,東京都,立川市,錦町６丁目５番７号,,13,202,1900022,,,,,,,2023-08-04,1,,,,,ボンゴ,0
86,1013301051156,新規,0,2023-08-04,2023-08-04,株式会社ＫＡＹ６２３,,株式会社,東京都,豊島区,目白１丁目３番１７号,,13,116,1710031,,,,,,,2023-08-04,1,,,,,ケーエーワイロクニサン,0
99,1020003024316,新規,0,2023-08-04,2023-08-04,合同会社ｔｗｏｈａｎｄｓ,,合同会社,神奈川県,川崎市中原区,木月３丁目４―２８,,14,133,2110025,,,,,,,2023-08-04,1,,,,,トゥーハンズ,0
104,1021001079814,新規,0,2023-08-04,2023-08-04,株式会社ホリコシ,,株式会社,神奈川県,藤沢市,用田２１４６番地の１０,,14,205,2520821,,,,,,,2023-08-04,1,,,,,ホリコシ,0
111,1030001154956,新規,0,2023-08-04,2023-08-04,株式会社Ｉｃｒａ,,株式会社,埼玉県,さいたま市浦和区,高砂４丁目３番１１－１号,,11,107,3300063,,,,,,,2023-08-04,1,,,,,イクラ,0
117,1030003022327,新規,0,2023-08-04,2023-08-04,合同会社ＦｕｌｌＳｔａｃｋ,,合同会社,埼玉県,川口市,大字安行慈林４８０－１,,11,203,3340071,,,,,,,2023-08-04,1,,,,,フルスタック,0
120,1040001129478,新規,0,2023-08-04,2023-08-04,株式会社高森工業,00131393,株式会社,千葉県,市原市,白金町３丁目４０番地１クレア２０５,,12,219,2900059,,,,,,,2023-08-04,1,,,,,タカモリコウギョウ,0
121,1040001129486,新規,0,2023-08-04,2023-08-04,株式会社キワミ管工,,株式会社,千葉県,千葉市若葉区,御殿町２１７７番地１,,12,104,2650074,,,,,,,2023-08-04,1,,,,,キワミカンコウ,0
122,1040001129503,新規,0,2023-08-04,2023-08-04,ＪＵＳＴ　ＢＥ株式会社,,株式会社,千葉県,市川市,加藤新田２０２番地１,,12,203,2720124,,,,,,,2023-08-04,1,,,,,ジャストビー,0
123,1040001129511,新規,0,2023-08-04,2023-08-04,株式会社ＴＡＣＴ,,株式会社,千葉県,千葉市中央区,富士見１丁目７番４号富士見ビル３階,,12,101,2600015,,,,,,,2023-08-04,1,,,,,タクト,0
127,1040003023051,新規,0,2023-08-04,2023-08-04,ＡＩＢ合同会社,,合同会社,千葉県,市川市,南八幡４丁目４番２０号市川ルーフガーデンハイツ３０６,,12,203,2720023,,,,,,,2023-08-04,1,,,,,エーアイビー,0
135,1060001036202,新規,0,2023-08-04,2023-08-04,竜進工業株式会社,,株式会社,栃木県,佐野市,栃本町１１０５番地１２,,09,204,3270312,,,,,,,2023-08-04,1,,,,,リュウシンコウギョウ,0
138,1070001040715,新規,0,2023-08-04,2023-08-04,株式会社ｙａｍａｋｅｎ,,株式会社,群馬県,伊勢崎市,豊城町２２６７番地１,,10,204,3720012,,,,,,,2023-08-04,1,,,,,ヤマケン,0
140,1080003003025,新規,0,2023-08-04,2023-08-04,ＶＩＳＯＲ　ＪＡＰＡＮ合同会社,,合同会社,静岡県,静岡市清水区,草薙杉道３丁目１７－１０－２,,22,103,4240885,,,,,,,2023-08-04,1,,,,,バイザージャパン,0
141,1080005007552,新規,0,2023-08-04,2023-08-04,一般社団法人相良白子シラスウナギ,,その他の設立登記法人,静岡県,榛原郡吉田町,片岡７４３番地の１,,22,424,4210303,,,,,,,2023-08-04,1,,,,,サガラシラコシラスウナギ,0
145,1080401026643,新規,0,2023-08-04,2023-08-04,株式会社ティエムエス,,株式会社,静岡県,浜松市南区,倉松町４３５－６シーサイドコーポ１０３,,22,134,4328064,,,,,,,2023-08-04,1,,,,,ティエムエス,0
146,1080401026651,新規,0,2023-08-04,2023-08-04,株式会社ワールドトレード,,株式会社,静岡県,浜松市中区,砂山町３４０番地の７ＴＯＭＯビル１０２,,22,131,4300926,,,,,,,2023-08-04,1,,,,,ワールドトレード,0
150,1100001036651,新規,0,2023-08-04,2023-08-04,ナガク株式会社,,株式会社,長野県,長野市,西後町６１０－１２,,20,201,3810000,,,,,,,2023-08-04,1,,,,,ナガク,0
165,1120001256917,新規,0,2023-08-04,2023-08-04,簡致株式会社,,株式会社,大阪府,大阪市中央区,島之内１丁目１１番２９号,,27,128,5420082,,,,,,,2023-08-04,1,,,,,カンチ,0
166,1120001256941,新規,0,2023-08-04,2023-08-04,株式会社ヱイコー建設,,株式会社,大阪府,大阪市住吉区,長居東五丁目２９番地,,27,120,5580000,,,,,,,2023-08-04,1,,,,,エイコーケンセツ,0
167,1120001256974,新規,0,2023-08-04,2023-08-04,株式会社リアライズ,,株式会社,大阪府,大阪市東淀川区,大道南２丁目１０番２１号,,27,114,5330012,,,,,,,2023-08-04,1,,,,,リアライズ,0
168,1120001256999,新規,0,2023-08-04,2023-08-04,藤田電気株式会社,,株式会社,大阪府,大阪市東住吉区,桑津３丁目３３番１９－２０２号,,27,121,5460041,,,,,,,2023-08-04,1,,,,,フジタデンキ,0
174,1120003024636,新規,0,2023-08-04,2023-08-04,ＡＣＮ合同会社,,合同会社,大阪府,大阪市平野区,瓜破７丁目５番３号,,27,126,5470024,,,,,,,2023-08-04,1,,,,,エーシーエヌ,0
175,1120101067982,新規,0,2023-08-04,2023-08-04,株式会社ＡＬＴＡ,,株式会社,大阪府,大阪狭山市,狭山２丁目９７４番地の３６,,27,231,5890005,,,,,,,2023-08-04,1,,,,,アルタ,0
176,1120901047878,新規,0,2023-08-04,2023-08-04,Ａｌｐｈａ　Ｐｒｏｊｅｃｔ　Ｉｍｐｏｒｔｓ株式会社,,株式会社,大阪府,豊中市,中桜塚２丁目１６番２９－１０２号,,27,203,5610881,,,,,,,2023-08-04,1,,,,,アルファプロジェクトインポーツ,0
177,1120901047886,新規,0,2023-08-04,2023-08-04,株式会社ブラックプール,,株式会社,大阪府,豊中市,庄内栄町５丁目１１番１０号,,27,203,5610834,,,,,,,2023-08-04,1,,,,,ブラックプール,0
181,1122001037207,新規,0,2023-08-04,2023-08-04,株式会社ティースリー,,株式会社,大阪府,東大阪市,稲田本町２丁目２４番１９号,,27,227,5770007,,,,,,,2023-08-04,1,,,,,ティースリー,0
183,1122005003700,新規,0,2023-08-04,2023-08-04,司法書士法人プラム,,その他の設立登記法人,大阪府,東大阪市,足代２丁目３番６号,,27,227,5770841,,,,,,,2023-08-04,1,,,,,プラム,0
185,1130001074863,新規,0,2023-08-04,2023-08-04,株式会社光条,,株式会社,京都府,京都市西京区,大枝塚原町５番地５４,00131410,26,111,6101105,,,,,,,2023-08-04,1,,,,,コウジョウ,0
186,1130001074888,新規,0,2023-08-04,2023-08-04,ＡＤ電設株式会社,,株式会社,京都府,向日市,物集女町北ノ口３２番地の９,,26,208,6170001,,,,,,,2023-08-04,1,,,,,エーディーデンセツ,0
187,1130003008877,新規,0,2023-08-04,2023-08-04,インスパイアパス合同会社,,合同会社,京都府,京都市下京区,東洞院通五条上る深草町５８６番地レ・ジェイド京都東洞院９０１号,,26,106,6008408,,,,,,,2023-08-04,1,,,,,インスパイアパス,0
194,1140003019378,新規,0,2023-08-04,2023-08-04,ジニアリンクス合同会社,,合同会社,兵庫県,宝塚市,雲雀丘２丁目９番２号,,28,214,6650805,,,,,,,2023-08-04,1,,,,,ジニアリンクス,0
195,1150001026598,新規,0,2023-08-04,2023-08-04,株式会社Ｓｐｉｎ　Ｔｈｏｕｇｈｔｓ,,株式会社,奈良県,奈良市,疋田町２５４番地の８,,29,201,6310843,,,,,,,2023-08-04,1,,,,,スピンソート,0
197,1150003003018,新規,0,2023-08-04,2023-08-04,合同会社水中映像工房・凪,,合同会社,奈良県,奈良市,学園赤松町２４４５－７－４０７号,,29,201,6310027,,,,,,,2023-08-04,1,,,,,スイチュウエイゾウコウボウナギ,0
198,1160001025228,新規,0,2023-08-04,2023-08-04,株式会社Ｂｉｒｄｉｅ　Ｓｔｙｌｅ,,株式会社,滋賀県,近江八幡市,竹町９９７番地２,,25,204,5230036,,,,,,,2023-08-04,1,,,,,バーディスタイル,0
199,1160001025236,新規,0,2023-08-04,2023-08-04,株式会社Ｒａｍｐ,,株式会社,滋賀県,草津市,平井１丁目１４－１－５０６,,25,206,5250023,,,,,,,2023-08-04,1,,,,,ランプ,0
200,1160005011216,新規,0,2023-08-04,2023-08-04,一般社団法人みどりのドクターズ,,その他の設立登記法人,滋賀県,湖南市,石部中央４丁目８番２７－８号,,25,211,5203106,,,,,,,2023-08-04,1,,,,,ミドリノドクターズ,0
211,1180001157432,新規,0,2023-08-04,2023-08-04,株式会社みやび,,株式会社,愛知県,北名古屋市,九之坪上吉田１１５番地,,23,234,4810041,,,,,,,2023-08-04,1,,,,,ミヤビ,0
212,1180001157440,新規,0,2023-08-04,2023-08-04,ティウエスト高針工場株式会社,,株式会社,愛知県,名古屋市名東区,高針４丁目９０７番地,,23,115,4650061,,,,,,,2023-08-04,1,,,,,ティウエストタカバリコウジョウ,0
213,1180003025570,新規,0,2023-08-04,2023-08-04,合同会社アグリラ,,合同会社,愛知県,名古屋市港区,泰明町１丁目６番地の１シーズンコート泰明町５０３号,,23,111,4550069,,,,,,,2023-08-04,1,,,,,アグリラ,0
214,1180003025579,新規,0,2023-08-04,2023-08-04,合同会社Ｂｅ　ｇｌｏｗ,,合同会社,愛知県,名古屋市中村区,上石川町１丁目５５番地５,,23,105,4530835,,,,,,,2023-08-04,1,,,,,ビーグロウ,0
215,1180301037623,新規,0,2023-08-04,2023-08-04,タナカソーラー株式会社,,株式会社,愛知県,豊橋市,向山台町１５番地１７,,23,201,4400865,,,,,,,2023-08-04,1,,,,,タナカソーラー,0
216,1180301037648,新規,0,2023-08-04,2023-08-04,ＢＥＡＣＨ株式会社,,株式会社,愛知県,豊橋市,駒形町字駒郷９５番地（３Ｂ）,,23,201,4418145,,,,,,,2023-08-04,1,,,,,ビーチ,0
217,1180303005792,新規,0,2023-08-04,2023-08-04,合同会社ｂｉｚｚｇｕｉｌｄ,,合同会社,愛知県,豊川市,御津町広石祓田８番地３,,23,207,4410321,,,,,,,2023-08-04,1,,,,,ビズギルド,0
220,1200001041559,新規,0,2023-08-04,2023-08-04,株式会社竹中モータース,,株式会社,岐阜県,揖斐郡池田町,八幡１３９７番地の４,,21,404,5032426,,,,,,,2023-08-04,1,,,,,タケナカモータース,0
221,1200001041567,新規,0,2023-08-04,2023-08-04,株式会社ＳＡＫＵ,,株式会社,岐阜県,岐阜市,五反田町１０番地２０８号室,,21,201,5008328,,,,,,,2023-08-04,1,,,,,サク,0
224,1210001019406,新規,0,2023-08-04,2023-08-04,株式会社川道商店,,株式会社,福井県,福井市,門前２丁目８０５番地,,18,201,9188021,,,,,,,2023-08-04,1,,,,,カワミチショウテン,0
225,1220001025527,新規,0,2023-08-04,2023-08-04,ＫＭＡ株式会社,,株式会社,石川県,金沢市,四十万町リ４１４番地,,17,201,9218133,,,,,,,2023-08-04,1,,,,,ケーエムエー,0
227,1230003002060,新規,0,2023-08-04,2023-08-04,前田産業合同会社,,合同会社,富山県,富山市,大町４８番地７,,16,201,9398073,,,,,,,2023-08-04,1,,,,,マエタサンギョウ,0
231,1240001061900,新規,0,2023-08-04,2023-08-04,株式会社Ｎ’ｓ　Ｈｙｐｅｒｉｏｎ,,株式会社,広島県,尾道市,高須町４７９２番地１ＭＲＫ１０３,,34,205,7290141,,,,,,,2023-08-04,1,,,,,エヌズハイペリオン,0
232,1240001061925,新規,0,2023-08-04,2023-08-04,株式会社えあー,,株式会社,広島県,呉市,三条３丁目５番９号,,34,202,7370821,,,,,,,2023-08-04,1,,,,,エアー,0
239,1250001020228,新規,0,2023-08-04,2023-08-04,ＴＳＵＫＡＳＡパートナーズ株式会社,,株式会社,山口県,山陽小野田市,大字厚狭１２番３６号,,35,216,7570001,,,,,,,2023-08-04,1,,,,,ツカサパートナーズ,0
244,1260001038161,新規,0,2023-08-04,2023-08-04,株式会社ディアフィールド,,株式会社,岡山県,笠岡市,十一番町８番地６,,33,205,7140098,,,,,,,2023-08-04,1,,,,,ディアフィールド,0
245,1260001038178,新規,0,2023-08-04,2023-08-04,Ｋｕｒｏ　ｓｔｙｌｅ株式会社,,株式会社,岡山県,岡山市北区,磨屋町７番７号,,33,101,7000826,,,,,,,2023-08-04,1,,,,,クロスタイル,0
253,1290001102451,新規,0,2023-08-04,2023-08-04,ジェジー株式会社,,株式会社,福岡県,福岡市博多区,博多駅南１丁目３番８号,,40,132,8120016,,,,,,,2023-08-04,1,,,,,ジェジー,0
255,1290003014182,新規,0,2023-08-04,2023-08-04,合同会社ＳＣコンサルタント,,合同会社,福岡県,福岡市博多区,千代１丁目２１番７－１１１２号,,40,132,8120044,,,,,,,2023-08-04,1,,,,,エスシーコンサルタント,0
256,1290003014190,新規,0,2023-08-04,2023-08-04,合同会社水落コンサル,,合同会社,福岡県,三潴郡大木町,大字八町牟田６８６番地,,40,522,8300416,,,,,,,2023-08-04,1,,,,,ミズオチコンサル,0
259,1300001013416,新規,0,2023-08-04,2023-08-04,ＦＡＮメディカル株式会社,,株式会社,佐賀県,唐津市,浜玉町浜崎１０６７番地１,,41,202,8495131,,,,,,,2023-08-04,1,,,,,ファンメディカル,0
264,1320001019915,新規,0,2023-08-04,2023-08-04,株式会社Ｔｅ‐Ｒｉｔａ,,株式会社,大分県,別府市,朝見１丁目３番１４号,,44,202,8740812,,,,,,,2023-08-04,1,,,,,テリタ,0
265,1320001019923,新規,0,2023-08-04,2023-08-04,株式会社桜花,,株式会社,大分県,大分市,大字金谷迫６３９番地の１,,44,201,8700879,,,,,,,2023-08-04,1,,,,,オウカ,0
266,1330001031092,新規,0,2023-08-04,2023-08-04,株式会社ピカイチＳＳ,,株式会社,熊本県,熊本市西区,春日３丁目２４－１－１０６,,43,103,8600047,,,,,,,2023-08-04,1,,,,,ピカイチエスエス,0
278,1370005010667,新規,0,2023-08-04,2023-08-04,社会福祉法人永遊舎,,その他の設立登記法人,宮城県,塩竈市,字石田３６番地１,,04,203,9850081,,,,,,,2023-08-04,1,,,,,エイユウシャ,0
282,1380003005528,新規,0,2023-08-04,2023-08-04,合同会社ワイズケアリー,,合同会社,福島県,いわき市,桜ケ丘２丁目３番地の３,,07,204,9728324,,,,,,,2023-08-04,1,,,,,ワイズケアリー,0
286,1390001017334,新規,0,2023-08-04,2023-08-04,株式会社尾崎工務店,,株式会社,山形県,尾花沢市,大字鶴巻田８４８番地,,06,212,9994337,,,,,,,2023-08-04,1,,,,,オザキコウムテン,0
295,1430001089690,新規,0,2023-08-04,2023-08-04,ライフトランス株式会社,,株式会社,北海道,石狩市,花川南九条４丁目９２番地,,01,235,0613209,,,,,,,2023-08-04,1,,,,,ライフトランス,0
299,1430003015315,新規,0,2023-08-04,2023-08-04,合同会社ささやか丸,,合同会社,北海道,恵庭市,恵み野南４丁目１６番１８,,01,231,0611372,,,,,,,2023-08-04,1,,,,,ササヤカマル,0
303,1460301005163,新規,0,2023-08-04,2023-08-04,ＮＥＷＨＵＭＢＥＲ株式会社,,株式会社,北海道,紋別郡湧別町,栄町３７番地１３,,01,559,0996404,,,,,,,2023-08-04,1,,,,,ニューハンバー,0
306,1470001019727,新規,0,2023-08-04,2023-08-04,株式会社ＢＩＲＣＨ　ＤＥＳＩＮＧ,,株式会社,香川県,高松市,鹿角町２７番地１７,,37,201,7618082,,,,,,,2023-08-04,1,,,,,バーチデザイン,0
307,1470003002466,新規,0,2023-08-04,2023-08-04,合同会社生駒出版,,合同会社,香川県,三豊市,三野町吉津甲２２番地,,37,208,7670033,,,,,,,2023-08-04,1,,,,,イコマシュッパン,0
309,1500001025102,新規,0,2023-08-04,2023-08-04,株式会社サンサポート,,株式会社,愛媛県,喜多郡内子町,内子２８７７番地,,38,422,7913301,,,,,,,2023-08-04,1,,,,,サンサポート,0
313,1700150118784,新規,0,2023-08-04,2023-08-04,ＧＵＡＮＧＺＨＯＵ　ＬＥ　ＳＨＩ　ＫＥ　ＪＩ　ＹＯＵ　ＸＩＡＮ　ＧＯＮＧ　ＳＩ,,外国会社等,,,,,,,,Ｒｏｏｍ　０３１，Ｚｏｎｅ　Ｂ，２ｎｄ　Ｆｌｏｏｒ，Ｎｏ．３８　Ｓｈｅｎｇｔａｎｇ　Ｓｔｒｅｅｔ　Ｉｎｄｕｓｔｒｉａｌ　Ｚｏｎｅ，Ｃｅｎｃｕｎ，Ｔｉａｎｈｅ（ｏｆｆｌｃｅ　ｏｎｌｙ）ＧＵＡＮＧＺＨＯＵ　ＧＵＡＮＧＤＯＮＧ　５１００００　ＣＮ,,,,,,2023-08-04,1,,,,,グァンジョウラシーカージヨウシェンゴンスー,0
314,1700150118792,新規,0,2023-08-04,2023-08-04,Ｃｈａｎｇｙｕａｎ　Ｑｉｎｇｈｕａｃｉ　Ｃｈｕａｎｇｙｉ（Ｓｕｚｈｏｕ）ｃｏ．，ＬＴＤ,,外国会社等,,,,,,,,Ｇａｏｘｉｎ　Ｄｉｓｔｒｉｃｔ，Ｔａｉｓｈａｎ　ＲｏａｄＢｕｉｌｄｉｎｇＡ，Ｎｏ．６，Ｒｏｏｍ１０３　Ｓｕｚｈｏｕ　Ｊｉａｎｇｓｕ　２１５０００　ＣＮ,,,,,,2023-08-04,1,,,,,ジャンユェンチンホアツーチュァンイースウジョウヨウシェンゴンスー,0
320,2010001237407,新規,0,2023-08-04,2023-08-04,株式会社ＳｋｉｐＣＯＭＰＡＳＳ,,株式会社,東京都,中央区,日本橋小舟町１番３号,,13,102,1030024,,,,,,,2023-08-04,1,,,,,スキップコンパス,0
321,2010001237448,新規,0,2023-08-04,2023-08-04,ＨＥＩＮＥ　Ｊａｐａｎ株式会社,,株式会社,東京都,中央区,日本橋箱崎町２７－９オフィスヴェラ日本橋箱崎１Ｆ,00131407,13,102,1030015,,,,,,,2023-08-04,1,,,,,ハイネジャパン,0
322,2010003041245,新規,0,2023-08-04,2023-08-04,ソーラーシグマ合同会社,,合同会社,東京都,中央区,八丁堀４丁目２番１０号ＡＯＪ税理士法人内,,13,102,1040032,,,,,,,2023-08-04,1,,,,,ソーラーシグマ,0
323,2010003041253,新規,0,2023-08-04,2023-08-04,３２８合同会社,,合同会社,東京都,文京区,関口１丁目３２番３－１４０２号,,13,105,1120014,,,,,,,2023-08-04,1,,,,,サンニイハチ,0
324,2010003041261,新規,0,2023-08-04,2023-08-04,ＦＩＮＤ合同会社,,合同会社,東京都,中央区,銀座１丁目１２番４号,,13,102,1040061,,,,,,,2023-08-04,1,,,,,ファインド,0
327,2010005037043,新規,0,2023-08-04,2023-08-04,一般社団法人奄美唄ノ島,,その他の設立登記法人,東京都,中央区,築地２丁目１１番１２号,,13,102,1040045,,,,,,,2023-08-04,1,,,,,アマミウタノシマ,0
328,2010005037051,新規,0,2023-08-04,2023-08-04,一般財団法人ＭＡＩＣＯＭひとり暮らし学生奨学財団,,その他の設立登記法人,東京都,千代田区,大手町２丁目１番１号,,13,101,1000004,,,,,,,2023-08-04,1,,,,,マイコムヒトリグラシガクセイショウガクザイダン,0
335,2010401176089,新規,0,2023-08-04,2023-08-04,株式会社桂榕,,株式会社,東京都,港区,新橋４丁目１５番８号９Ｆ,,13,103,1050004,,,,,,,2023-08-04,1,,,,,ケイヨウ,0
336,2010401176097,新規,0,2023-08-04,2023-08-04,株式会社ニューカナール,,株式会社,東京都,港区,芝２丁目１番２３号,,13,103,1050014,,,,,,,2023-08-04,1,,,,,ニューカナール,0
337,2010401176130,新規,0,2023-08-04,2023-08-04,株式会社レイボート,,株式会社,東京都,港区,北青山２丁目１４番４号ｔｈｅＡＲＧＹＬＥａｏｙａｍａ６Ｆ,,13,103,1070061,,,,,,,2023-08-04,1,,,,,レイボート,0
338,2010401176139,新規,0,2023-08-04,2023-08-04,三和機材ホールディングス株式会社,,株式会社,東京都,港区,港南４丁目２番３２号,,13,103,1080075,,,,,,,2023-08-04,1,,,,,サンワキザイホールディングス,0
339,2010401176147,新規,0,2023-08-04,2023-08-04,株式会社ＭＩＳＣ,,株式会社,東京都,港区,虎ノ門４丁目１番２８号,,13,103,1050001,,,,,,,2023-08-04,1,,,,,ミスク,0
341,2010405022330,新規,0,2023-08-04,2023-08-04,一般社団法人ＮＵＤＧＥ,,その他の設立登記法人,東京都,港区,南青山２丁目２番１５号ウィン青山９４２,,13,103,1070062,,,,,,,2023-08-04,1,,,,,ナッジ,0
343,2010601063541,新規,0,2023-08-04,2023-08-04,株式会社ＭＡＮ‐ＮＡＫＡ,,株式会社,東京都,墨田区,緑１丁目４番６号,,13,107,1300021,,,,,,,2023-08-04,1,,,,,マンナカ,0
349,2010801034219,新規,0,2023-08-04,2023-08-04,株式会社ＡＣ,,株式会社,東京都,大田区,田園調布２丁目３９番５号ミスズハイツ２０１,,13,111,1450071,,,,,,,2023-08-04,1,,,,,エーシー,0
350,2010901053548,新規,0,2023-08-04,2023-08-04,株式会社ｔｗｅｅｄ,,株式会社,東京都,世田谷区,奥沢２丁目８番１０－１０３号,,13,112,1580083,,,,,,,2023-08-04,1,,,,,ツイード,0
357,2011001156068,新規,0,2023-08-04,2023-08-04,株式会社Ｆｉｖｅ,,株式会社,東京都,渋谷区,東３丁目２０番４号３Ｆ,,13,113,1500011,,,,,,,2023-08-04,1,,,,,ファイヴ,0
358,2011001156076,新規,0,2023-08-04,2023-08-04,株式会社ｅｇｏｐｒｅｓｓｉｏｎ,,株式会社,東京都,渋谷区,恵比寿４丁目５番１２号,,13,113,1500013,,,,,,,2023-08-04,1,,,,,エゴプレッション,0
359,2011001156084,新規,0,2023-08-04,2023-08-04,株式会社アペルトパートナーズ,,株式会社,東京都,渋谷区,道玄坂１丁目１０－８渋谷道玄坂東急ビル２Ｆ－Ｃ,,13,113,1500043,,,,,,,2023-08-04,1,,,,,アペルトパートナーズ,0
360,2011003017284,新規,0,2023-08-04,2023-08-04,ザ・プロパティーズ合同会社,,合同会社,東京都,目黒区,上目黒１丁目８番１０－４０６号キングホームズ,,13,110,1530051,,,,,,,2023-08-04,1,,,,,ザプロパティーズ,0
361,2011003017292,新規,0,2023-08-04,2023-08-04,合同会社Ｙ’ｓ,,合同会社,東京都,渋谷区,道玄坂１丁目１０番８号渋谷道玄坂東急ビル２Ｆ－Ｃ,,13,113,1500043,,,,,,,2023-08-04,1,,,,,ワイズ,0
366,2011101103845,新規,0,2023-08-04,2023-08-04,スカエフ株式会社,,株式会社,東京都,新宿区,西新宿７丁目５番９－１２０８号,,13,104,1600023,,,,,,,2023-08-04,1,,,,,スカエフ,0
368,2011103013316,新規,0,2023-08-04,2023-08-04,合同会社大森駅前,,合同会社,東京都,新宿区,四谷２丁目９番地１５東京ユナイテッド綜合事務所内,,13,104,1600004,,,,,,,2023-08-04,1,,,,,オオモリエキマエ,0
371,2011201024818,新規,0,2023-08-04,2023-08-04,株式会社エナジーテックインターナショナル,,株式会社,東京都,中野区,中央４丁目４番２号ヘリオス６新中野４Ｆ,,13,114,1640011,,,,,,,2023-08-04,1,,,,,エナジーテックインターナショナル,0
376,2011401025335,新規,0,2023-08-04,2023-08-04,株式会社Ｂｌｉｓｓ,,株式会社,東京都,板橋区,常盤台２丁目５番４号Ｖａｌｉａｎｔビル２Ｆ,,13,119,1740071,,,,,,,2023-08-04,1,,,,,ブリス,0
379,2011501029624,新規,0,2023-08-04,2023-08-04,第二相互株式会社,,株式会社,東京都,北区,滝野川７丁目１番８号,,13,117,1140023,,,,,,,2023-08-04,1,,,,,ダイニソウゴ,0
380,2011503005706,新規,0,2023-08-04,2023-08-04,ジーモ合同会社,,合同会社,東京都,北区,赤羽南１丁目２３番地３,,13,117,1150044,,,,,,,2023-08-04,1,,,,,ジーモ,0
386,2011701026479,新規,0,2023-08-04,2023-08-04,株式会社ミヤサト組,,株式会社,東京都,江戸川区,松江３丁目３番１６号キャビンタウンＢ２０８,,13,123,1320025,,,,,,,2023-08-04,1,,,,,ミヤサトグミ,0
387,2011801042830,新規,0,2023-08-04,2023-08-04,株式会社葛飾重設,,株式会社,東京都,葛飾区,東堀切１丁目３番１－２０３号,,13,122,1240004,,,,,,,2023-08-04,1,,,,,カツシカジュウセツ,0
390,2012301013537,新規,0,2023-08-04,2023-08-04,株式会社ＰＨＩＬ,,株式会社,東京都,町田市,南成瀬１丁目２番地１成瀬駅前ハイツ２－１１０３,,13,209,1940045,,,,,,,2023-08-04,1,,,,,フィル,0
391,2012303001853,新規,0,2023-08-04,2023-08-04,合同会社ソフトグラフィ,,合同会社,東京都,町田市,原町田４丁目１１－１３天野ビル４Ｆ,,13,209,1940013,,,,,,,2023-08-04,1,,,,,ソフトグラフィ,0
393,2012403006091,新規,0,2023-08-04,2023-08-04,せきさとカンパニー合同会社,,合同会社,東京都,狛江市,西野川４丁目１７番１２号,,13,219,2010001,,,,,,,2023-08-04,1,,,,,セキサトカンパニー,0
394,2012801022541,新規,0,2023-08-04,2023-08-04,千手クラフト株式会社,,株式会社,東京都,国立市,北１丁目３番の１１国立デュープレックスＩ－６０４,00131395,13,215,1860001,,,,,,,2023-08-04,1,,,,,センジュクラフト,0
397,2013301051163,新規,0,2023-08-04,2023-08-04,株式会社スターゴールド,,株式会社,東京都,豊島区,北大塚２丁目２７番１号吉松ビル５０２号室,,13,116,1700004,,,,,,,2023-08-04,1,,,,,スターゴールド,0
403,2020001152786,新規,0,2023-08-04,2023-08-04,株式会社ＴＩＳ産業,,株式会社,神奈川県,横浜市栄区,鍛冶ケ谷１丁目２８番７号,,14,115,2470009,,,,,,,2023-08-04,1,,,,,ティーアイエスサンギョウ,0
404,2020001152794,新規,0,2023-08-04,2023-08-04,株式会社スマイルフレーム,,株式会社,神奈川県,横浜市港北区,綱島東２丁目１－５泉山ビル３０１号,,14,109,2230052,,,,,,,2023-08-04,1,,,,,スマイルフレーム,0
405,2020001152869,新規,0,2023-08-04,2023-08-04,ＧＲＡＰＨＩＣＡＬ　ＣＲＥＡＴＯＲ株式会社,,株式会社,神奈川県,横浜市西区,北幸２丁目１０番地２８むつみビル３Ｆ,,14,103,2200004,,,,,,,2023-08-04,1,,,,,グラフィカルクリエイター,0
409,2021001079763,新規,0,2023-08-04,2023-08-04,株式会社フィールドスター,,株式会社,神奈川県,相模原市南区,松が枝町２３番３－４０１号,,14,153,2520313,,,,,,,2023-08-04,1,,,,,フィールドスター,0
410,2021001079821,新規,0,2023-08-04,2023-08-04,株式会社ｍａｖｉｅ,,株式会社,神奈川県,鎌倉市,大船１丁目１１番７号,,14,204,2470056,,,,,,,2023-08-04,1,,,,,メヴィ,0
425,2030005021342,新規,0,2023-08-04,2023-08-04,ｔｈｉｃｋ　ｌｉｆｅ　ｔｅｎｄｅｒ一般社団法人,,その他の設立登記法人,埼玉県,戸田市,中町２丁目６番１１号シャーメゾン中町１０３号,,11,224,3350012,,,,,,,2023-08-04,1,,,,,スィックライフテンダー,0
430,2040001129469,新規,0,2023-08-04,2023-08-04,株式会社ＥＭＩＲＡＴＥＳ　ＳＨＩＰＰＩＮＧ　ＡＮＤ　ＬＯＧＩＳＴＩＣＳ,,株式会社,千葉県,船橋市,西習志野１丁目９番２ＦＥＬＩＡ西習志野２０１号,,12,204,2740815,,,,,,,2023-08-04,1,,,,,エミレーツシッピングアンドロジスティックス,0
431,2040001129477,新規,0,2023-08-04,2023-08-04,株式会社ウィステリア,,株式会社,千葉県,松戸市,日暮１丁目２番地の８（５階）,,12,207,2702253,,,,,,,2023-08-04,1,,,,,ウィステリア,0
432,2040001129485,新規,0,2023-08-04,2023-08-04,株式会社ＫＲＬ,,株式会社,千葉県,市原市,能満２０８９番地９２,,12,219,2900011,,,,,,,2023-08-04,1,,,,,ケーアールエル,0
433,2040001129510,新規,0,2023-08-04,2023-08-04,株式会社Ｇ．Ｉ．Ｃ,,株式会社,千葉県,市原市,南岩崎６５４番地５１,,12,219,2900244,,,,,,,2023-08-04,1,,,,,ジーアイシー,0
435,2040003023059,新規,0,2023-08-04,2023-08-04,合同会社オカモト,,合同会社,千葉県,柏市,藤心３丁目１２番１８号,,12,217,2770034,,,,,,,2023-08-04,1,,,,,オカモト,0
448,2050001053247,新規,0,2023-08-04,2023-08-04,株式会社坂場工務店,,株式会社,茨城県,東茨城郡茨城町,大字上石崎５９５７番地４,,08,302,3113122,,,,,,,2023-08-04,1,,,,,サカバコウムテン,0
454,2060001036218,新規,0,2023-08-04,2023-08-04,株式会社アンシャンテ,,株式会社,栃木県,足利市,寿町１８番地２２,,09,202,3260025,,,,,,,2023-08-04,1,,,,,アンシャンテ,0
455,2060001036226,新規,0,2023-08-04,2023-08-04,株式会社ＭＴＳ,,株式会社,栃木県,大田原市,加治屋８３番地６４２,,09,210,3240046,,,,,,,2023-08-04,1,,,,,エムティエス,0
464,2080005007551,新規,0,2023-08-04,2023-08-04,一般社団法人榛原シラスウナギ,,その他の設立登記法人,静岡県,榛原郡吉田町,片岡７４３番地の１,,22,424,4210303,,,,,,,2023-08-04,1,,,,,ハイバラシラスウナギ,0
468,2080101024145,新規,0,2023-08-04,2023-08-04,株式会社幸栄美創,,株式会社,静岡県,沼津市,大岡３２８７番地の７,,22,203,4100022,,,,,,,2023-08-04,1,,,,,コウエイビソウ,0
469,2080101024153,新規,0,2023-08-04,2023-08-04,株式会社結,,株式会社,静岡県,御殿場市,竈１９５６番地の２４,,22,215,4120039,,,,,,,2023-08-04,1,,,,,ユイ,0
472,2080401026642,新規,0,2023-08-04,2023-08-04,株式会社ノズコン空き家活用,,株式会社,静岡県,湖西市,鷲津４７１番地の３,,22,221,4310431,,,,,,,2023-08-04,1,,,,,ノズコンアキヤカツヨウ,0
474,2100001036642,新規,0,2023-08-04,2023-08-04,村田造園株式会社,,株式会社,長野県,茅野市,湖東６５２０番地１,,20,214,3910211,,,,,,,2023-08-04,1,,,,,ムラタゾウエン,0
475,2100001036650,新規,0,2023-08-04,2023-08-04,株式会社ｃｏｚｙ設備設計,,株式会社,長野県,安曇野市,穂高有明７４１０番地３,,20,220,3998301,,,,,,,2023-08-04,1,,,,,コゥジィセツビセッケイ,0
477,2110001037730,新規,0,2023-08-04,2023-08-04,三光株式会社,,株式会社,新潟県,三条市,尾崎３８５２番地,,15,204,9591148,,,,,,,2023-08-04,1,,,,,サンコウ,0
478,2110001037739,新規,0,2023-08-04,2023-08-04,株式会社ＭＳＡ,,株式会社,新潟県,新潟市西区,小新２丁目２２－２６,,15,107,9502023,,,,,,,2023-08-04,1,,,,,エムエスエー,0
487,2120001256973,新規,0,2023-08-04,2023-08-04,株式会社ｈｉｇｈｌｉｇｈｔ,,株式会社,大阪府,大阪市北区,西天満６丁目２番３号ユーアイビル１０５号室,,27,127,5300047,,,,,,,2023-08-04,1,,,,,ハイライト,0
488,2120001256998,新規,0,2023-08-04,2023-08-04,株式会社ＫａｎＰｒｏ,,株式会社,大阪府,大阪市城東区,諏訪１丁目３番２３号,,27,118,5360021,,,,,,,2023-08-04,1,,,,,カンプロ,0
489,2120001257006,新規,0,2023-08-04,2023-08-04,株式会社Ｍコンサルティング,,株式会社,大阪府,寝屋川市,大利元町２２番８号,,27,215,5720047,,,,,,,2023-08-04,1,,,,,エムコンサルティング,0
490,2120001257014,新規,0,2023-08-04,2023-08-04,株式会社Ｔｕｒｎｉｎｇ,,株式会社,大阪府,大阪市中央区,平野町３丁目１－６ビズミックス淀屋橋,,27,128,5410046,,,,,,,2023-08-04,1,,,,,ターニング,0
491,2120001257030,新規,0,2023-08-04,2023-08-04,株式会社司工業,,株式会社,大阪府,大阪市住吉区,苅田２丁目９番４１号エクシオ長居公園５０３号,,27,120,5580011,,,,,,,2023-08-04,1,,,,,ツカサコウギョウ,0
492,2120001257039,新規,0,2023-08-04,2023-08-04,株式会社Ｖ・Ｒ・Ｅ・２,,株式会社,大阪府,大阪市北区,曾根崎新地１丁目１０－１６永楽ビル５Ｆ,,27,127,5300002,,,,,,,2023-08-04,1,,,,,ヴイアールイーツー,0
496,2120003024635,新規,0,2023-08-04,2023-08-04,合同会社ＣＦＮ,,合同会社,大阪府,大阪市中央区,高麗橋２丁目４番６号大拓ビル１１－６階,,27,128,5410043,,,,,,,2023-08-04,1,,,,,シーエフエヌ,0
500,2120103005353,新規,0,2023-08-04,2023-08-04,合同会社グッドライフ,,合同会社,大阪府,泉大津市,末広町２丁目５番１１－３０３号,,27,206,5950002,,,,,,,2023-08-04,1,,,,,グッドライフ,0
502,2120901047869,新規,0,2023-08-04,2023-08-04,ファブインテリジェンス株式会社,,株式会社,大阪府,摂津市,香露園３２番１２号,,27,224,5660034,,,,,,,2023-08-04,1,,,,,ファブインテリジェンス,0
503,2120901047885,新規,0,2023-08-04,2023-08-04,株式会社ＬＥＡトレーディング,,株式会社,大阪府,豊中市,宮山町３丁目１番３０の１号,,27,203,5600056,,,,,,,2023-08-04,1,,,,,レアトレーディング,0
504,2120903004769,新規,0,2023-08-04,2023-08-04,ＤＤＫ合同会社,,合同会社,大阪府,箕面市,森町中２丁目２４番１８号,,27,220,5630257,,,,,,,2023-08-04,1,,,,,ディディケイ,0
507,2122001037230,新規,0,2023-08-04,2023-08-04,株式会社ＦＵＫＵ,,株式会社,大阪府,八尾市,宮町１丁目５番１０号産経新聞近鉄八尾専売所,,27,212,5810815,,,,,,,2023-08-04,1,,,,,フク,0
508,2122005003699,新規,0,2023-08-04,2023-08-04,弁護士法人はなぞの綜合法律事務所,,その他の設立登記法人,大阪府,東大阪市,花園東町１丁目１番２２号オノデマンション２Ｃ,,27,227,5780931,,,,,,,2023-08-04,1,,,,,ハナゾノソウゴウホウリツジムショ,0
512,2130003008892,新規,0,2023-08-04,2023-08-04,合同会社ＭＯＳＫＹ,,合同会社,京都府,舞鶴市,字引土２７５番地の１,,26,202,6240841,,,,,,,2023-08-04,1,,,,,モスキー,0
517,2140001131084,新規,0,2023-08-04,2023-08-04,株式会社ＩＭＡＩホールディングス,,株式会社,兵庫県,尼崎市,大浜町１丁目４９番地,,28,202,6600095,,,,,,,2023-08-04,1,,,,,イマイホールディングス,0
520,2150001026589,新規,0,2023-08-04,2023-08-04,関西Ａ．Ｉ．Ｃ株式会社,,株式会社,奈良県,生駒市,北大和３丁目２番地３,,29,209,6300121,,,,,,,2023-08-04,1,,,,,カンサイエーアイシー,0
521,2150003003017,新規,0,2023-08-04,2023-08-04,合同会社ｒｙｎａｒｉａ,,合同会社,奈良県,大和郡山市,下三橋町１６７番地１０,,29,203,6391101,,,,,,,2023-08-04,1,,,,,リナリア,0
524,2160001025227,新規,0,2023-08-04,2023-08-04,株式会社ハートカンパニー,,株式会社,滋賀県,彦根市,東沼波町１３４番地１,,25,202,5220027,,,,,,,2023-08-04,1,,,,,ハートカンパニー,0
525,2160001025235,新規,0,2023-08-04,2023-08-04,株式会社ＳＨＩＵＮ,,株式会社,滋賀県,守山市,浮気町３６番地９,,25,207,5240033,,,,,,,2023-08-04,1,,,,,シウン,0
527,2160005011215,新規,0,2023-08-04,2023-08-04,一般社団法人大樹の芽,,その他の設立登記法人,滋賀県,東近江市,八日市緑町二丁目１番,,25,213,5270023,,,,,,,2023-08-04,1,,,,,タイジュノメ,0
529,2170001017710,新規,0,2023-08-04,2023-08-04,株式会社グリーンバスター,,株式会社,和歌山県,西牟婁郡白浜町,富田１６４７番地の１１,,30,401,6492325,,,,,,,2023-08-04,1,,,,,グリーンバスター,0
542,2180001157381,新規,0,2023-08-04,2023-08-04,株式会社広柳,,株式会社,愛知県,稲沢市,祖父江町中牧北川原７０番地２,,23,220,4950032,,,,,,,2023-08-04,1,,,,,ヒロヤナギ,0
547,2180301037622,新規,0,2023-08-04,2023-08-04,株式会社Ｔ‐ｍａｘ,,株式会社,愛知県,岡崎市,柱町字下荒子４１番地１,,23,202,4440834,,,,,,,2023-08-04,1,,,,,ティーマックス,0
549,2190003004399,新規,0,2023-08-04,2023-08-04,合同会社河丸,,合同会社,三重県,鈴鹿市,白子駅前８番１２号,,24,207,5100241,,,,,,,2023-08-04,1,,,,,カワマル,0
553,2210001019405,新規,0,2023-08-04,2023-08-04,株式会社ゼスク,,株式会社,福井県,福井市,高木中央２丁目５１９番地,,18,201,9100804,,,,,,,2023-08-04,1,,,,,ゼスク,0
554,2210001019413,新規,0,2023-08-04,2023-08-04,株式会社匠コンタクト,,株式会社,福井県,越前市,平出３丁目２５－２４,,18,209,9150803,,,,,,,2023-08-04,1,,,,,タクミコンタクト,0
558,2240001061890,新規,0,2023-08-04,2023-08-04,株式会社ＫＡＮＢＥＸ,,株式会社,広島県,広島市中区,小町５番２９－８０２号,,34,101,7300041,,,,,,,2023-08-04,1,,,,,カンベックス,0
559,2240001061908,新規,0,2023-08-04,2023-08-04,岡田建設株式会社,,株式会社,広島県,三原市,小泉町５６６２番地１６,,34,204,7292361,,,,,,,2023-08-04,1,,,,,オカダケンセツ,0
567,2260001038160,新規,0,2023-08-04,2023-08-04,アシダホールディングス株式会社,,株式会社,岡山県,津山市,神戸５０８番地２,,33,203,7080015,,,,,,,2023-08-04,1,,,,,アシダホールディングス,0
569,2290001102475,新規,0,2023-08-04,2023-08-04,株式会社新光工務店,,株式会社,福岡県,糟屋郡須惠町,大字旅石８７６番地１４,,40,344,8112221,,,,,,,2023-08-04,1,,,,,シンコウコウムテン,0
570,2290001102500,新規,0,2023-08-04,2023-08-04,ネスト‐インテリア株式会社,,株式会社,福岡県,福岡市東区,松島３丁目１４－７Ａ棟３号,,40,131,8130062,,,,,,,2023-08-04,1,,,,,ネストインテリア,0
580,2300001013415,新規,0,2023-08-04,2023-08-04,株式会社副島園,,株式会社,佐賀県,嬉野市,嬉野町大字下野甲４２７番地,,41,209,8430302,,,,,,,2023-08-04,1,,,,,ソエジマエン,0
581,2300003002003,新規,0,2023-08-04,2023-08-04,合同会社めぶき,,合同会社,佐賀県,鳥栖市,曽根崎町１４０７－１,,41,203,8410025,,,,,,,2023-08-04,1,,,,,メブキ,0
588,2340001025778,新規,0,2023-08-04,2023-08-04,アリムラ株式会社,,株式会社,鹿児島県,日置市,伊集院町下谷口２３８８番地５,,46,216,8992501,,,,,,,2023-08-04,1,,,,,アリムラ,0
593,2380001033892,新規,0,2023-08-04,2023-08-04,株式会社Ｏｌｉｖｅ,,株式会社,福島県,いわき市,泉玉露７丁目２番地の６,,07,204,9718172,,,,,,,2023-08-04,1,,,,,オリーブ,0
598,2390001017333,新規,0,2023-08-04,2023-08-04,株式会社もん建,,株式会社,山形県,長井市,九野本３０８番地,,06,209,9930041,,,,,,,2023-08-04,1,,,,,モンケン,0
599,2400001016333,新規,0,2023-08-04,2023-08-04,株式会社木山,,株式会社,岩手県,二戸市,金田一字馬場２４番地１,,03,213,0285711,,,,,,,2023-08-04,1,,,,,モクサン,0
602,2420001018352,新規,0,2023-08-04,2023-08-04,株式会社Ｓｏｌｕｔ,,株式会社,青森県,八戸市,根城５丁目１４番２４号,,02,203,0391166,,,,,,,2023-08-04,1,,,,,ソルト,0
604,2430001089632,新規,0,2023-08-04,2023-08-04,株式会社ヴェリタ,,株式会社,北海道,札幌市中央区,南二十四条西８丁目２番２３号,,01,101,0640924,,,,,,,2023-08-04,1,,,,,ヴェリタ,0
605,2430001089649,新規,0,2023-08-04,2023-08-04,株式会社弥桜,,株式会社,北海道,札幌市豊平区,西岡一条９丁目２番１０号,,01,105,0620031,,,,,,,2023-08-04,1,,,,,ミオウ,0
609,2430003015033,新規,0,2023-08-04,2023-08-04,合同会社ＲＣ　ＡＩＲ　ＪＡＰＡＮ,,合同会社,北海道,札幌市東区,東雁来九条２丁目１０番２２号,,01,103,0070829,,,,,,,2023-08-04,1,,,,,アールシーエアージャパン,0
610,2440001009300,新規,0,2023-08-04,2023-08-04,株式会社白川工業,,株式会社,北海道,函館市,桔梗１丁目１２－２２－２０２,,01,202,0410808,,,,,,,2023-08-04,1,,,,,シラカワコウギョウ,0
612,2470001019726,新規,0,2023-08-04,2023-08-04,株式会社Ｍａｒｉｎｅ　Ｅｎｇｉｎｅｅｒ,,株式会社,香川県,丸亀市,三条町９９８番地１,,37,202,7630094,,,,,,,2023-08-04,1,,,,,マリンエンジニア,0
614,2470003002465,新規,0,2023-08-04,2023-08-04,合同会社ＳＯ‐ＳＵ,,合同会社,香川県,高松市,塩上町７番地２ＴＢＮＣビル１階,,37,201,7600062,,,,,,,2023-08-04,1,,,,,ソース,0
616,2480001012168,新規,0,2023-08-04,2023-08-04,株式会社ＲｅｖｅｕｒＨｏｕｓｅ,,株式会社,徳島県,名西郡石井町,石井字城ノ内５０６番地３,,36,341,7793232,,,,,,,2023-08-04,1,,,,,レヴールハウス,0
618,2500001025101,新規,0,2023-08-04,2023-08-04,株式会社ＡＩＧ警備保障,,株式会社,愛媛県,松山市,正円寺３丁目５番５０号,,38,201,7900904,,,,,,,2023-08-04,1,,,,,エーアイジーケイビホショウ,0
621,2700150118783,新規,0,2023-08-04,2023-08-04,Ｈｕｉｚｈｏｕ　Ｃｈｕｗｕｙｕ　Ｔｒａｄｉｎｇ　Ｃｏ．，Ｌｔｄ,,外国会社等,,,,,,,,２Ｆ，Ｎｏ．８，Ｘｉａｊｉａｏ　Ｅａｓｔ　Ｒｏａｄ　Ｈｕｉｚｈｏｕ　Ｇｕａｎｄｏｎｇ５１６００１ＣＮ,,,,,,2023-08-04,1,,,,,ホイジョウシチュウウユィシャンマオヨウシェンゴンスー,0
622,2700150118791,新規,0,2023-08-04,2023-08-04,ＧｕａｎｇＺｈｏｕ　ＳｉＭａｎＬｉ　ＦｕＳｈｉ　ＹｏｕＸｉａｎ　ＧｏｎｇＳｉ,,外国会社等,,,,,,,,ＴｉａｎＨｅＱｕＨｅＧｕａｎｇＬｕ１３７ｈａｏ１０３ｆａｎｇ２２２４ｈａｏ　ＧｕａｎｇＺｈｏｕＳｈｉ　５１０６３０　ＣＮ,,,,,,2023-08-04,1,,,,,グァンジョウスーマンリーフゥシヨウシェンゴンスー,0
623,2700150118800,新規,0,2023-08-04,2023-08-04,ＳＵＴＴＯＮＳ　ＩＮＴＥＲＮＡＴＩＯＮＡＬ　ＬＩＭＩＴＥＤ,,外国会社等,,,,,,,,Ｇｏｒｓｅｙ　Ｌａｎｅ，Ｗｉｄｎｅｓ，ＷＡ８　０ＧＧ，ＵＫ,,,,,,2023-08-04,1,,,,,サトンズインターナショナルユウゲンガイシャ,0
631,3010001237348,新規,0,2023-08-04,2023-08-04,ＭＳＤ企業投資五号株式会社,,株式会社,東京都,千代田区,大手町１丁目９番２号,,13,101,1000004,,,,,,,2023-08-04,1,,,,,エムエスディーキギョウトウシゴゴウ,0
632,3010001237389,新規,0,2023-08-04,2023-08-04,ＮＬ２株式会社,,株式会社,東京都,千代田区,丸の内２丁目４番１号,,13,101,1000005,,,,,,,2023-08-04,1,,,,,エヌエルツー,0
633,3010001237414,新規,0,2023-08-04,2023-08-04,東京申和デジタル株式会社,,株式会社,東京都,中央区,日本橋人形町１丁目２番２号ＢｏｕｒｎＭａｒｋＮｉｎｇｙｏｃｈｏビル３階,,13,102,1030013,,,,,,,2023-08-04,1,,,,,トウキョウシンワデジタル,0
634,3010001237430,新規,0,2023-08-04,2023-08-04,株式会社イノワンテック,,株式会社,東京都,文京区,白山２丁目２６番１８号２Ｆ,,13,105,1120001,,,,,,,2023-08-04,1,,,,,イノワンテック,0
635,3010001237455,新規,0,2023-08-04,2023-08-04,奎芯科技株式会社,,株式会社,東京都,中央区,日本橋小舟町１２番９－４０１号,,13,102,1030024,,,,,,,2023-08-04,1,,,,,ケイシンカギ,0
636,3010003041244,新規,0,2023-08-04,2023-08-04,ソーラーエテルナ合同会社,,合同会社,東京都,中央区,八丁堀４丁目２番１０号ＡＯＪ税理士法人内,,13,102,1040032,,,,,,,2023-08-04,1,,,,,ソーラーエテルナ,0
637,3010003041277,新規,0,2023-08-04,2023-08-04,アーキテクト・アドバタイズ合同会社,,合同会社,東京都,千代田区,神田和泉町１番地６－１６ヤマトビル４０５,,13,101,1010024,,,,,,,2023-08-04,1,,,,,アーキテクトアドバタイズ,0
639,3010005037050,新規,0,2023-08-04,2023-08-04,一般社団法人社会資本整備支援機構,,その他の設立登記法人,東京都,千代田区,神田三崎町２丁目４番１号,,13,101,1010061,,,,,,,2023-08-04,1,,,,,シャカイシホンセイビシエンキコウ,0
642,3010401176063,新規,0,2023-08-04,2023-08-04,Ｑｕｅｔｔａ　Ｗｅｂ株式会社,,株式会社,東京都,港区,港南１丁目７番１号,,13,103,1080075,,,,,,,2023-08-04,1,,,,,クエッタウェブ,0
643,3010401176105,新規,0,2023-08-04,2023-08-04,株式会社イーストニンジャ,,株式会社,東京都,港区,六本木１丁目６番１号,,13,103,1060032,,,,,,,2023-08-04,1,,,,,イーストニンジャ,0
644,3010401176138,新規,0,2023-08-04,2023-08-04,株式会社エイベックス・フィルムレーベルズ,,株式会社,東京都,港区,三田１丁目４番１号,,13,103,1080073,,,,,,,2023-08-04,1,,,,,エイベックスフィルムレーベルズ,0
645,3010401176195,新規,0,2023-08-04,2023-08-04,株式会社バトン,,株式会社,東京都,港区,虎ノ門１丁目１番１０号第２ローレルビル３階,,13,103,1050001,,,,,,,2023-08-04,1,,,,,バトン,0
646,3010405022370,新規,0,2023-08-04,2023-08-04,一般社団法人アラベスク,,その他の設立登記法人,東京都,港区,虎ノ門３丁目２２番１０－２０１号,,13,103,1050001,,,,,,,2023-08-04,1,,,,,アラベスク,0
648,3010601063540,新規,0,2023-08-04,2023-08-04,株式会社共成電気通信,,株式会社,東京都,江東区,東砂５丁目１７番９号,,13,108,1360074,,,,,,,2023-08-04,1,,,,,キョウセイデンキツウシン,0
650,3010701044655,新規,0,2023-08-04,2023-08-04,株式会社Ａｎｙｏｎｔ,,株式会社,東京都,品川区,小山４丁目１１番７－６０３号,,13,109,1420062,,,,,,,2023-08-04,1,,,,,エニオン,0
656,3010903008359,新規,0,2023-08-04,2023-08-04,合同会社Ｂｅ　Ｃｏｎｎｅｃｔ,,合同会社,東京都,世田谷区,代沢５丁目３番１６号,,13,112,1550032,,,,,,,2023-08-04,1,,,,,ビコネクト,0
657,3010905004513,新規,0,2023-08-04,2023-08-04,一般社団法人古流東洋会,,その他の設立登記法人,東京都,世田谷区,若林４丁目３０番５号,,13,112,1540023,,,,,,,2023-08-04,1,,,,,コリュウトウヨウカイ,0
668,3011001156075,新規,0,2023-08-04,2023-08-04,株式会社Ｔｙｃｏｏｎ３７,,株式会社,東京都,渋谷区,恵比寿４丁目２０番２－３０２号,,13,113,1500013,,,,,,,2023-08-04,1,,,,,タイクーンサナ,0
669,3011001156083,新規,0,2023-08-04,2023-08-04,株式会社サンアローズ,,株式会社,東京都,目黒区,上目黒３丁目１番１０号ヴェルデナポリ２０３,,13,110,1530051,,,,,,,2023-08-04,1,,,,,サンアローズ,0
670,3011003017300,新規,0,2023-08-04,2023-08-04,合同会社十年後,,合同会社,東京都,渋谷区,広尾５丁目９番２７号,,13,113,1500012,,,,,,,2023-08-04,1,,,,,ジュウネンゴ,0
675,3011101103844,新規,0,2023-08-04,2023-08-04,株式会社ＢｌｅｎｄＤｉｇｉ,,株式会社,東京都,新宿区,西新宿３丁目３番１３号西新宿水間ビル６階,,13,104,1600023,,,,,,,2023-08-04,1,,,,,ブレンドデジ,0
676,3011101103852,新規,0,2023-08-04,2023-08-04,オークルー株式会社,,株式会社,東京都,新宿区,富久町１６番５号新宿高砂ビル５Ｆ,,13,104,1620067,,,,,,,2023-08-04,1,,,,,オークルー,0
677,3011101103877,新規,0,2023-08-04,2023-08-04,８１ｃｏｄｅ株式会社,,株式会社,東京都,新宿区,新宿２丁目１３番１０号武蔵野ビル５階２７,,13,104,1600022,,,,,,,2023-08-04,1,,,,,ハチジュウイチコーデ,0
678,3011101103885,新規,0,2023-08-04,2023-08-04,株式会社Ｓｔａｒｔｉｎ　Ｌａｂ,,株式会社,東京都,新宿区,西新宿３丁目３番１３号西新宿水間ビル６階,,13,104,1600023,,,,,,,2023-08-04,1,,,,,スターティンラボ,0
681,3011103013315,新規,0,2023-08-04,2023-08-04,合同会社八丁堀,,合同会社,東京都,新宿区,四谷２丁目９番地１５東京ユナイテッド綜合事務所内,,13,104,1600004,,,,,,,2023-08-04,1,,,,,ハッチョウボリ,0
682,3011301028908,新規,0,2023-08-04,2023-08-04,ＡＮＺＥ株式会社,,株式会社,東京都,杉並区,上井草２丁目４３番１５号,,13,115,1670023,,,,,,,2023-08-04,1,,,,,アンゼ,0
685,3011401025334,新規,0,2023-08-04,2023-08-04,株式会社Ｒｅｄｉｅｍ,,株式会社,東京都,板橋区,常盤台２丁目５番４号Ｖａｌｉａｎｔビル２Ｆ,,13,119,1740071,,,,,,,2023-08-04,1,,,,,リディエム,0
688,3011501029623,新規,0,2023-08-04,2023-08-04,株式会社正宝,,株式会社,東京都,北区,上十条３丁目１９番２７号パナホーム上十条３－１０２号,,13,117,1140034,,,,,,,2023-08-04,1,,,,,ショウホウ,0
689,3011503005705,新規,0,2023-08-04,2023-08-04,合同会社叶屋,,合同会社,東京都,北区,滝野川５丁目６番５－１２０１号プロスペクト西巣鴨,,13,117,1140023,,,,,,,2023-08-04,1,,,,,カノウヤ,0
698,3011803005768,新規,0,2023-08-04,2023-08-04,合同会社ＩＳ,,合同会社,東京都,足立区,竹の塚６丁目１０－９Ａｇｅｒａｔｅ竹ノ塚４号室,,13,121,1210813,,,,,,,2023-08-04,1,,,,,アイエス,0
699,3012405004885,新規,0,2023-08-04,2023-08-04,エムエフジェイ土地家屋調査士法人,,その他の設立登記法人,東京都,武蔵野市,境２丁目１４番１号スイングビル６０３,,13,203,1800022,,,,,,,2023-08-04,1,,,,,エムエフジェイ,0
700,3012701017772,新規,0,2023-08-04,2023-08-04,名もなき株式会社,,株式会社,東京都,東久留米市,下里５丁目１８番２５号,,13,222,2030043,,,,,,,2023-08-04,1,,,,,ナモナキ,0
703,3012801022540,新規,0,2023-08-04,2023-08-04,株式会社レスタリペア,,株式会社,東京都,武蔵村山市,三ツ木２丁目２７番地の６,,13,223,2080032,,,,,,,2023-08-04,1,,,,,レスタリペア,0
704,3012803003142,新規,0,2023-08-04,2023-08-04,合同会社山崎通信,00131399,合同会社,東京都,立川市,富士見町５丁目１１番１４号,,13,202,1900013,,,,,,,2023-08-04,1,,,,,ヤマザキツウシン,0
709,3013301051162,新規,0,2023-08-04,2023-08-04,株式会社ＨＲＦ,,株式会社,東京都,豊島区,池袋本町３丁目１７番１８号,,13,116,1700011,,,,,,,2023-08-04,1,,,,,エイチアールエフ,0
710,3013301051170,新規,0,2023-08-04,2023-08-04,株式会社ＤＡＹＺ,,株式会社,東京都,豊島区,東池袋４丁目２番１－１８０８号,,13,116,1700013,,,,,,,2023-08-04,1,,,,,デイズ,0
718,3020001152827,新規,0,2023-08-04,2023-08-04,株式会社ＰＥＴＩＴ‐ＰＥＲＦＯＲＭＩＮＧ‐ＡＲＴＳ,,株式会社,神奈川県,横浜市港北区,箕輪町２丁目９番６号石井工務店２Ｆ,,14,109,2230051,,,,,,,2023-08-04,1,,,,,プティパフォーミングアーツ,0
725,3021001079812,新規,0,2023-08-04,2023-08-04,株式会社Ｖｅｔ　Ｄｅｒｍ　Ｔｏｋｙｏ,,株式会社,神奈川県,藤沢市,菖蒲沢９１０番地,,14,205,2520823,,,,,,,2023-08-04,1,,,,,ベットダームトウキョウ,0
726,3021001079820,新規,0,2023-08-04,2023-08-04,湘南不動産株式会社,,株式会社,神奈川県,鎌倉市,腰越３丁目３番７号,,14,204,2480033,,,,,,,2023-08-04,1,,,,,ショウナンフドウサン,0
735,3021003013397,新規,0,2023-08-04,2023-08-04,合同会社菊地動画製作所,,合同会社,神奈川県,平塚市,札場町１１番１５－３０２号インペリアル湘南,,14,203,2540802,,,,,,,2023-08-04,1,,,,,キクチドウガセイサクジョ,0
747,3040001129476,新規,0,2023-08-04,2023-08-04,株式会社宮本や,,株式会社,千葉県,船橋市,駿河台２丁目１４番１０号,,12,204,2730862,,,,,,,2023-08-04,1,,,,,ミヤモトヤ,0
750,3040003023058,新規,0,2023-08-04,2023-08-04,合同会社カモシーレナイ,,合同会社,千葉県,千葉市中央区,富士見２丁目７番９号富士見ビル６０９号,,12,101,2600015,,,,,,,2023-08-04,1,,,,,カモシーレナイ,0
751,3040003023066,新規,0,2023-08-04,2023-08-04,盃企画合同会社,,合同会社,千葉県,千葉市中央区,末広３丁目１４－９,,12,101,2600843,,,,,,,2023-08-04,1,,,,,サカズキキカク,0
757,3050003007695,新規,0,2023-08-04,2023-08-04,ＫＡＩ　ＰＬＡＮＮＩＮＧ合同会社,,合同会社,茨城県,日立市,川尻町４丁目１番１４号,,08,202,3191411,,,,,,,2023-08-04,1,,,,,カイプランニング,0
765,3070001040713,新規,0,2023-08-04,2023-08-04,株式会社フィールＨＤ,,株式会社,群馬県,藤岡市,中栗須３９０番地,,10,209,3750015,,,,,,,2023-08-04,1,,,,,,0
769,3080001025770,新規,0,2023-08-04,2023-08-04,株式会社シンク,,株式会社,静岡県,静岡市葵区,西草深町１０番１号,,22,101,4200866,,,,,,,2023-08-04,1,,,,,シンク,0
772,3080005007550,新規,0,2023-08-04,2023-08-04,一般社団法人吉田シラスウナギ,,その他の設立登記法人,静岡県,榛原郡吉田町,片岡７４３番地の１,,22,424,4210303,,,,,,,2023-08-04,1,,,,,ヨシダシラスウナギ,0
777,3110001037738,新規,0,2023-08-04,2023-08-04,株式会社熊倉商店,,株式会社,新潟県,五泉市,村松甲２２２１番地,,15,218,9591704,,,,,,,2023-08-04,1,,,,,クマクラショウテン,0
790,3120001256923,新規,0,2023-08-04,2023-08-04,青田株式会社,,株式会社,大阪府,大阪市東住吉区,鷹合４丁目２１番１６号３Ｆ－Ｂ,,27,121,5460014,,,,,,,2023-08-04,1,,,,,アオタ,0
791,3120001256989,新規,0,2023-08-04,2023-08-04,株式会社ジャムズ,,株式会社,大阪府,大阪市中央区,高麗橋４丁目８番６号,,27,128,5410043,,,,,,,2023-08-04,1,,,,,ジャムズ,0
792,3120001256997,新規,0,2023-08-04,2023-08-04,株式会社ソウキン・ジャパン,,株式会社,大阪府,大阪市生野区,勝山北５丁目３番１８号,,27,116,5440033,,,,,,,2023-08-04,1,,,,,ソウキンジャパン,0
793,3120001257038,新規,0,2023-08-04,2023-08-04,株式会社辰美工業,,株式会社,大阪府,大阪市北区,長柄西１丁目５番１－１１３号,,27,127,5310061,,,,,,,2023-08-04,1,,,,,タツミコウギョウ,0
794,3120001257046,新規,0,2023-08-04,2023-08-04,株式会社Ａｄｒａｓｔｉａ,,株式会社,大阪府,大阪市中央区,久太郎町１丁目９－１７－９０４,,27,128,5410056,,,,,,,2023-08-04,1,,,,,アドラスティア,0
795,3120001257054,新規,0,2023-08-04,2023-08-04,ＪＤ‐ＬＩＮＫ　ＪＡＰＡＮ株式会社,,株式会社,大阪府,大阪市中央区,安土町２丁目３番１３号大阪国際ビルディング,,27,128,5410052,,,,,,,2023-08-04,1,,,,,,0
797,3120003024634,新規,0,2023-08-04,2023-08-04,リタウェルフェア合同会社,,合同会社,大阪府,大阪市北区,梅田１丁目２番２号大阪駅前第２ビル１２－１２,,27,127,5300001,,,,,,,2023-08-04,1,,,,,リタウェルフェア,0
799,3120101067989,新規,0,2023-08-04,2023-08-04,株式会社ＷｏｎｄｅｒＢｅｉｎｇ,,株式会社,大阪府,堺市西区,下田町２５番２８－１１０３号,,27,144,5938329,,,,,,,2023-08-04,1,,,,,ワンダービーイング,0
803,3120103005360,新規,0,2023-08-04,2023-08-04,合同会社ＷＥＬＬｉＴＹ,,合同会社,大阪府,泉大津市,条南町５番７－１０４号,,27,206,5950016,,,,,,,2023-08-04,1,,,,,ウェリティ,0
805,3120901047868,新規,0,2023-08-04,2023-08-04,株式会社ＲＲＤ,,株式会社,大阪府,池田市,旭丘３丁目７番１６号,,27,204,5630022,,,,,,,2023-08-04,1,,,,,アールアールディ,0
806,3120901047892,新規,0,2023-08-04,2023-08-04,株式会社ハレエコル,,株式会社,大阪府,吹田市,垂水町１丁目５６番２１－９０４,,27,205,5640062,,,,,,,2023-08-04,1,,,,,ハレエコル,0
807,3120903004768,新規,0,2023-08-04,2023-08-04,合同会社ミヤビ,,合同会社,大阪府,豊中市,螢池北町２丁目１番２５－２０５号,,27,203,5600031,,,,,,,2023-08-04,1,,,,,ミヤビ,0
810,3122001037213,新規,0,2023-08-04,2023-08-04,村山工業株式会社,,株式会社,大阪府,東大阪市,池之端町５番２２号,,27,227,5798002,,,,,,,2023-08-04,1,,,,,ムラヤマコウギョウ,0
813,3130001074886,新規,0,2023-08-04,2023-08-04,株式会社Ｐｕｌｉｔｅ　Ｐｌａｎ,,株式会社,京都府,京都市南区,東九条西札辻町１１番地１,00131409,26,107,6018043,,,,,,,2023-08-04,1,,,,,プリートプラン,0
817,3140001131117,新規,0,2023-08-04,2023-08-04,株式会社有馬設備,,株式会社,兵庫県,西宮市,上田東町４番１－２０７号,,28,204,6638133,,,,,,,2023-08-04,1,,,,,アリマセツビ,0
818,3140001131125,新規,0,2023-08-04,2023-08-04,株式会社てぃだくくる,,株式会社,兵庫県,明石市,魚住町西岡１１１１番地の３,,28,203,6740084,,,,,,,2023-08-04,1,,,,,ティダククル,0
820,3140003019376,新規,0,2023-08-04,2023-08-04,合同会社ｈａｎａつむぎ,,合同会社,兵庫県,姫路市,豊富町豊富３５８２番地,,28,201,6792123,,,,,,,2023-08-04,1,,,,,ハナツムギ,0
821,3140003019384,新規,0,2023-08-04,2023-08-04,合同会社小倉設計事務所,,合同会社,兵庫県,伊丹市,寺本東１丁目３番１２号,,28,207,6640020,,,,,,,2023-08-04,1,,,,,オグラセッケイジムショ,0
825,3150001026588,新規,0,2023-08-04,2023-08-04,株式会社河井工務店,,株式会社,奈良県,天理市,佐保庄町５１０番地,,29,204,6320043,,,,,,,2023-08-04,1,,,,,カワイコウムテン,0
826,3150001026596,新規,0,2023-08-04,2023-08-04,ブロレリンクス株式会社,,株式会社,奈良県,御所市,大字茅原７８番地の１,,29,208,6392241,,,,,,,2023-08-04,1,,,,,ブロレリンクス,0
827,3150001026605,新規,0,2023-08-04,2023-08-04,セタ洋服店株式会社,,株式会社,奈良県,生駒市,元町１丁目７番１０号,,29,209,6300257,,,,,,,2023-08-04,1,,,,,セタヨウフクテン,0
831,3160001025226,新規,0,2023-08-04,2023-08-04,株式会社蒼心,,株式会社,滋賀県,野洲市,小篠原１７３０番地１４,,25,210,5202331,,,,,,,2023-08-04,1,,,,,ソウシン,0
840,3180001157447,新規,0,2023-08-04,2023-08-04,株式会社ａｐｒｅｃｉｏ,,株式会社,愛知県,名古屋市緑区,大高町字巳新田２４番地の６,,23,114,4598001,,,,,,,2023-08-04,1,,,,,アプレシオ,0
849,3180003025569,新規,0,2023-08-04,2023-08-04,合同会社くらしプラス,,合同会社,愛知県,名古屋市東区,泉１丁目１８番３０号プラウドタワー名古屋久屋大通公園１６０２号,,23,102,4610001,,,,,,,2023-08-04,1,,,,,クラシプラス,0
853,3180301037613,新規,0,2023-08-04,2023-08-04,三河港３ＰＬ株式会社,,株式会社,愛知県,蒲郡市,港町１８番２３号コワーキングＥＧＧ内,,23,214,4430034,,,,,,,2023-08-04,1,,,,,ミカワコウサンピーエル,0
854,3180301037646,新規,0,2023-08-04,2023-08-04,ミカワテクニカルサービス株式会社,,株式会社,愛知県,豊田市,若林東町上外根８１番地２,,23,211,4730914,,,,,,,2023-08-04,1,,,,,ミカワテクニカルサービス,0
862,3200001041565,新規,0,2023-08-04,2023-08-04,日本経営革新株式会社,,株式会社,岐阜県,多治見市,本町５丁目６番地の１Ｒ．ｏｆｆｉｃｅ３０７,,21,204,5070033,,,,,,,2023-08-04,1,,,,,ニホンケイエイカクシン,0
864,3200003006038,新規,0,2023-08-04,2023-08-04,菅原会計サービス合同会社,,合同会社,岐阜県,岐阜市,菅原町２丁目１０番地,,21,201,5008816,,,,,,,2023-08-04,1,,,,,スガハラカイケイサービス,0
865,3210001019412,新規,0,2023-08-04,2023-08-04,株式会社ウィズアドバンス,,株式会社,福井県,福井市,大手３丁目７番１号福井県繊協ビル７０５Ａ,,18,201,9100005,,,,,,,2023-08-04,1,,,,,ウィズアドバンス,0
866,3220001025533,新規,0,2023-08-04,2023-08-04,株式会社ｐｉａｚｚａ,,株式会社,石川県,小松市,長崎町２丁目１０３番地,,17,203,9230004,,,,,,,2023-08-04,1,,,,,ピアッツァ,0
874,3240001061915,新規,0,2023-08-04,2023-08-04,ガッツ島田株式会社,,株式会社,広島県,広島市南区,向洋中町２番１３号,,34,103,7340061,,,,,,,2023-08-04,1,,,,,ガッツシマダ,0
875,3240001061923,新規,0,2023-08-04,2023-08-04,株式会社広島美装,,株式会社,広島県,広島市安佐北区,可部１丁目７番５－１０２号Ｃ,,34,106,7310221,,,,,,,2023-08-04,1,,,,,ヒロシマビソウ,0
880,3250001020226,新規,0,2023-08-04,2023-08-04,株式会社コネクションパートナーズ,,株式会社,山口県,下関市,竹崎町４丁目４番１０号大丸下関店７階ＪＯＩＮ０８３,,35,201,7500025,,,,,,,2023-08-04,1,,,,,コネクションパートナーズ,0
884,3270001008822,新規,0,2023-08-04,2023-08-04,株式会社ＧＡＲＤＥＮ,,株式会社,鳥取県,西伯郡大山町,鈑戸１５７０番地,,31,386,6893317,,,,,,,2023-08-04,1,,,,,ガーデン,0
885,3270003001544,新規,0,2023-08-04,2023-08-04,合同会社山印,,合同会社,鳥取県,米子市,西福原４丁目５番５０号,,31,202,6830805,,,,,,,2023-08-04,1,,,,,サンイン,0
895,3290001102458,新規,0,2023-08-04,2023-08-04,株式会社ＣｏｒｅＬａｂｏ,,株式会社,福岡県,筑紫野市,大字原１６６番地９０,,40,217,8180005,,,,,,,2023-08-04,1,,,,,コアラボ,0
896,3290001102474,新規,0,2023-08-04,2023-08-04,株式会社ステラ,,株式会社,福岡県,福岡市博多区,上川端町５－１１３ＴＡＣメディカルビル３階,,40,132,8120026,,,,,,,2023-08-04,1,,,,,ステラ,0
897,3290001102499,新規,0,2023-08-04,2023-08-04,株式会社ベジファーム平山,,株式会社,福岡県,小郡市,山隈１２０２番地２,,40,216,8380113,,,,,,,2023-08-04,1,,,,,ベジファームヒラヤマ,0
898,3290001102508,新規,0,2023-08-04,2023-08-04,株式会社ＥＲパートナーズ,,株式会社,福岡県,福岡市中央区,天神２丁目２番１２号Ｔ＆Ｊビルディング７Ｆ,,40,133,8100001,,,,,,,2023-08-04,1,,,,,イーアールパートナーズ,0
900,3290003014180,新規,0,2023-08-04,2023-08-04,合同会社板井技建,,合同会社,福岡県,糟屋郡志免町,田富１丁目１８番１０号,,40,343,8112204,,,,,,,2023-08-04,1,,,,,イタイギケン,0
905,3290005019104,新規,0,2023-08-04,2023-08-04,一般社団法人Ｏｒｋａ,,その他の設立登記法人,福岡県,春日市,春日原北町２丁目２０番地１７－５０２号,,40,218,8160802,,,,,,,2023-08-04,1,,,,,オルカ,0
908,3300003002002,新規,0,2023-08-04,2023-08-04,合同会社ＥＡＧＬＥ,,合同会社,佐賀県,鹿島市,大字井手６６１番地１,,41,207,8491302,,,,,,,2023-08-04,1,,,,,イーグル,0
922,3340005009636,新規,0,2023-08-04,2023-08-04,一般社団法人ＬＮＳ,,その他の設立登記法人,鹿児島県,姶良市,池島町３４番地４,,46,225,8995653,,,,,,,2023-08-04,1,,,,,エルエヌエス,0
924,3360001032359,新規,0,2023-08-04,2023-08-04,株式会社尚産業,,株式会社,沖縄県,宮古島市,城辺字西里添１２５６番地１１,,47,214,9060106,,,,,,,2023-08-04,1,,,,,ショウサンギョウ,0
928,3380001033891,新規,0,2023-08-04,2023-08-04,株式会社Ｉｍｐｅｒｉａｌ　Ｃｏｒｐｏｒａｔｉｏｎ,,株式会社,福島県,郡山市,三穂田町駒屋字四十坦原１６番地の７０,,07,203,9630128,,,,,,,2023-08-04,1,,,,,インペリアルコーポレーション,0
932,3400001016332,新規,0,2023-08-04,2023-08-04,Ｒｉｃｈ　Ｒｉｃｈ東北株式会社,,株式会社,岩手県,奥州市,水沢字東町４０番地１Ｆ,,03,215,0230818,,,,,,,2023-08-04,1,,,,,リッチリッチトウホク,0
938,3430001089648,新規,0,2023-08-04,2023-08-04,株式会社造美舎,,株式会社,北海道,札幌市北区,屯田八条８丁目９番５号,,01,102,0020858,,,,,,,2023-08-04,1,,,,,ゾウビシャ,0
939,3430001089656,新規,0,2023-08-04,2023-08-04,株式会社Ｂｒｉｃｋ　Ｂｒｉｄｅ,,株式会社,北海道,空知郡南幌町,東町１丁目９番８号,,01,423,0690233,,,,,,,2023-08-04,1,,,,,ブリックブライド,0
941,3430003015321,新規,0,2023-08-04,2023-08-04,合同会社ＳＤＹ,,合同会社,北海道,札幌市厚別区,厚別北五条５丁目１０番１号,,01,108,0040075,,,,,,,2023-08-04,1,,,,,エスディーワイ,0
942,3470001019725,新規,0,2023-08-04,2023-08-04,株式会社へそホールディングス,,株式会社,香川県,高松市,瀬戸内町３０番７３号,,37,201,7600012,,,,,,,2023-08-04,1,,,,,ヘソホールディングス,0
944,3470003002464,新規,0,2023-08-04,2023-08-04,合同会社大安屋,,合同会社,香川県,高松市,国分寺町福家甲１１５１番地２,,37,201,7690103,,,,,,,2023-08-04,1,,,,,オオヤスヤ,0
948,3500001025109,新規,0,2023-08-04,2023-08-04,株式会社ＰＬＡＹＣＲＥＷ,,株式会社,愛媛県,松山市,味酒町１丁目５番地４,,38,201,7900814,,,,,,,2023-08-04,1,,,,,プレイクルー,0
950,3700150108734,新規,0,2023-08-04,2022-05-16,角田健一ビッグバンド事務所,,その他,東京都,杉並区,高円寺北１丁目６－１０,,13,115,1660002,,,,,,,2022-05-16,1,,,,,ツノダケンイチビツグバンドジムシヨ,0
951,3700150117784,新規,0,2023-08-04,2023-06-26,東急鎌倉城廻ハイム管理組合,,その他,神奈川県,鎌倉市,城廻５０２番地,,14,204,2470074,,,,,,,2023-06-26,1,,,,,トウキユウカマクラシロメグリハイムカンリクミアイ,0
952,3700150118782,新規,0,2023-08-04,2023-08-04,Ｓｈｅｎｚｈｅｎ　Ｃｈｅｎｙｕａｎ　Ｃｕｌｔｕｒｅ　Ｃｏｍｍｕｎｉｃａｔｉｏｎ　Ｃｏ．，Ｌｔｄ,,外国会社等,,,,,,,,ＬＩＵＷＵ　ＣＵＮ　ＬＩＵＷＵ　ＬＵ　８４　ＨＡＯ　ＳＨＥＮＺＨＥＮ　ＬＯＮＧＧＡＮＧ　５１８１１６　ＣＮ,,,,,,2023-08-04,1,,,,,シェンジェンシチェンユェンウェンホアチュアンボーヨウシェンゴンスー,0
953,3700150118790,新規,0,2023-08-04,2023-08-04,ｘｉａｎｇｈｅｔｉｎｇｍｅｉｓｈｉｐｉｎｙｏｕｘｉａｎｇｏｎｇｓｉ,,外国会社等,,,,,,,,Ｊｉａｎｇｘｉｎｔｕｎ　Ｔｏｗｎ　Ｎｏ．１５７，Ｊｉｚｈｕａｎｇ　Ｖｉｌｌａｇｅ　Ｌａｎｇｆａｎｇ　Ｃｉｔｙ　Ｈｅｂｅｉ　Ｐｒｏｖｉｎｃｅ　０６５４００　ＣＮ,,,,,,2023-08-04,1,,,,,シァンホーティンメイシーピンシァオショウヨウシェンゴンスー,0
954,3700150118799,新規,0,2023-08-04,2023-08-04,ｓｈｅｎｚｈｅｎｓｈｉｈｕｉｆｅｎｇｙｕａｎｋｅｊｉｙｏｕｘｉａｎｇｏｎｇｓｉ,,外国会社等,,,,,,,,ｇｕａｎｇｄｏｎｇｓｈｅｎｇｓｈｅｎｚｈｅｎｓｈｉｌｏｎｇｈｕａｑｕｇｕａｎｈｕｊｉｅｄａｏｓｏｎｇｙｕａｎｘｉａｓｈｅｑｕｈｕａｎｇｕａｎｚｈｏｎｇｌｕ１１１ｈａｏｃｈａｎｇｆａｎｇｓａｎ３１０,,,,,,2023-08-04,1,,,,,シェンジェンシーフイフォンユエンコージーヨウシエンゴンスー,0
957,4010001237322,新規,0,2023-08-04,2023-08-04,株式会社アリ商社,,株式会社,東京都,中央区,京橋２丁目８番２１号仁大ビル７２７,,13,102,1040031,,,,,,,2023-08-04,1,,,,,アリショウシャ,0
958,4010001237363,新規,0,2023-08-04,2023-08-04,マニエスインベストメント株式会社,,株式会社,東京都,千代田区,霞が関３丁目２番５号,,13,101,1000013,,,,,,,2023-08-04,1,,,,,マニエスインベストメント,0
959,4010001237388,新規,0,2023-08-04,2023-08-04,株式会社ゴールドアンドバウンシー,,株式会社,東京都,文京区,千駄木２丁目３３番６号,,13,105,1130022,,,,,,,2023-08-04,1,,,,,ゴールドアンドバウンシー,0
960,4010001237405,新規,0,2023-08-04,2023-08-04,ＰＯＰＯＰＯ株式会社,,株式会社,東京都,中央区,銀座１丁目１２番４号,,13,102,1040061,,,,,,,2023-08-04,1,,,,,ポポポ,0
961,4010003041094,新規,0,2023-08-04,2023-08-04,Ｔｈｅ　Ｍｏｏｎ　Ｌｉｇｈｔｓ合同会社,,合同会社,東京都,中央区,日本橋兜町１７番地２兜町第６葉山ビル４階,,13,102,1030026,,,,,,,2023-08-04,1,,,,,ザムーンライツ,0
962,4010003041251,新規,0,2023-08-04,2023-08-04,合同会社うさぎ,,合同会社,東京都,千代田区,神田佐久間町１丁目１６番１号大橋ビル２０４,,13,101,1010025,,,,,,,2023-08-04,1,,,,,ウサギ,0
963,4010003041276,新規,0,2023-08-04,2023-08-04,ｈｍｃｍ合同会社,,合同会社,東京都,中央区,日本橋浜町３丁目８番１２－２１２号,,13,102,1030007,,,,,,,2023-08-04,1,,,,,エイチエムシーエム,0
965,4010005037033,新規,0,2023-08-04,2023-08-04,一般社団法人美術品情報管理推進機構,,その他の設立登記法人,東京都,中央区,日本橋室町４丁目３－１５三渓洞ビル８階,,13,102,1030022,,,,,,,2023-08-04,1,,,,,ビジュツヒンジョウホウカンリスイシンキコウ,0
974,4010401176244,新規,0,2023-08-04,2023-08-04,ＩＢＰ株式会社,,株式会社,東京都,港区,芝浦４丁目１５－１,,13,103,1080023,,,,,,,2023-08-04,1,,,,,アイビーピー,0
982,4010603010283,新規,0,2023-08-04,2023-08-04,グローバルリバイブ合同会社,,合同会社,東京都,江東区,豊洲４丁目１１番２５号,,13,108,1350061,,,,,,,2023-08-04,1,,,,,グローバルリバイブ,0
984,4010701044654,新規,0,2023-08-04,2023-08-04,株式会社ＵＰＸ,,株式会社,東京都,品川区,上大崎３丁目１番１号,,13,109,1410021,,,,,,,2023-08-04,1,,,,,ユーピーエックス,0
985,4010801034217,新規,0,2023-08-04,2023-08-04,株式会社Ｓｔｕｄｉｏ　Ｚｕｇａ,,株式会社,東京都,大田区,石川町１丁目１６番５号,,13,111,1450061,,,,,,,2023-08-04,1,,,,,スタジオズガ,0
991,4011001156058,新規,0,2023-08-04,2023-08-04,株式会社ｓｃｅｎａｒｉｏ,,株式会社,東京都,目黒区,五本木２丁目６番１０号ボナール祐天寺１０３,,13,110,1530053,,,,,,,2023-08-04,1,,,,,シナリオ,0
992,4011001156074,新規,0,2023-08-04,2023-08-04,株式会社フード・コム,,株式会社,東京都,渋谷区,恵比寿南２丁目１番１号,,13,113,1500022,,,,,,,2023-08-04,1,,,,,フードコム,0
1002,4011101103851,新規,0,2023-08-04,2023-08-04,株式会社ＨＡＭＯＮＤ,,株式会社,東京都,新宿区,西新宿７丁目１９番１５号,,13,104,1600023,,,,,,,2023-08-04,1,,,,,ハモンド,0
1003,4011103013330,新規,0,2023-08-04,2023-08-04,合同会社Ａ　ｇｏｎｎａ,,合同会社,東京都,新宿区,上落合３丁目２０番５号,,13,104,1610034,,,,,,,2023-08-04,1,,,,,エーガナ,0
1008,4011401025333,新規,0,2023-08-04,2023-08-04,株式会社Ａｒｓ,,株式会社,東京都,板橋区,常盤台２丁目５番４号Ｖａｌｉａｎｔビル２Ｆ,,13,119,1740071,,,,,,,2023-08-04,1,,,,,アルス,0
1009,4011501029614,新規,0,2023-08-04,2023-08-04,欧索化粧品株式会社,,株式会社,東京都,北区,浮間１丁目７－２３兆豊浮間ビル５０３号室,,13,117,1150051,,,,,,,2023-08-04,1,,,,,オウサクケショウヒン,0
1010,4011501029622,新規,0,2023-08-04,2023-08-04,株式会社ＭＥＫＵ,,株式会社,東京都,北区,志茂１丁目３３番８号,,13,117,1150042,,,,,,,2023-08-04,1,,,,,メク,0
1012,4011801042820,新規,0,2023-08-04,2023-08-04,株式会社稲澤工務店,,株式会社,東京都,葛飾区,東金町４丁目３３番１４号マーベラスガーデン１０２,,13,122,1250041,,,,,,,2023-08-04,1,,,,,イナザワコウムテン,0
1013,4011801042829,新規,0,2023-08-04,2023-08-04,新海商事株式会社,,株式会社,東京都,葛飾区,東新小岩１丁目１０番２号２０２室,,13,122,1240023,,,,,,,2023-08-04,1,,,,,シンカイショウジ,0
1014,4011801042837,新規,0,2023-08-04,2023-08-04,株式会社ＳＡＺＡ‐Ａ,,株式会社,東京都,足立区,谷中２丁目５番３－３０７号,,13,121,1200006,,,,,,,2023-08-04,1,,,,,サザエー,0
1016,4011803005767,新規,0,2023-08-04,2023-08-04,Ｍｉｎｇｌｅ合同会社,,合同会社,東京都,足立区,神明南２丁目６番２４号,,13,121,1210057,,,,,,,2023-08-04,1,,,,,ミングル,0
1019,4012801022531,新規,0,2023-08-04,2023-08-04,三盛建設株式会社,,株式会社,東京都,立川市,錦町１丁目１５番２８号,,13,202,1900022,,,,,,,2023-08-04,1,,,,,ミツモリケンセツ,0
1032,4020001152792,新規,0,2023-08-04,2023-08-04,株式会社ＪＧＳ,,株式会社,神奈川県,横浜市西区,中央２丁目４６番１９号－２０２,,14,103,2200051,,,,,,,2023-08-04,1,,,,,ジェイジーエス,0
1033,4020001152801,新規,0,2023-08-04,2023-08-04,株式会社ＴＦＴジャパン,,株式会社,神奈川県,横浜市神奈川区,台町２番地５－２０１,,14,102,2210834,,,,,,,2023-08-04,1,,,,,ティーエフティージャパン,0
1034,4020001152867,新規,0,2023-08-04,2023-08-04,株式会社Ｒｕｎｕｐ・Ｊ,,株式会社,神奈川県,川崎市川崎区,東田町１１番地１エンゼル川崎グランディア１３Ｆ,,14,131,2100005,,,,,,,2023-08-04,1,,,,,ランアップジェィ,0
1049,4021001079811,新規,0,2023-08-04,2023-08-04,Ｈ・Ｏ　ｈｉｓｔｏｒｙ株式会社,,株式会社,神奈川県,海老名市,大谷南４丁目１４番２０号,,14,215,2430418,,,,,,,2023-08-04,1,,,,,エイチオーヒストリー,0
1060,4040001129475,新規,0,2023-08-04,2023-08-04,株式会社奥山工業,,株式会社,千葉県,富津市,大堀２丁目２４番地４,,12,226,2930001,,,,,,,2023-08-04,1,,,,,オクヤマコウギョウ,0
1061,4040001129483,新規,0,2023-08-04,2023-08-04,株式会社アシスト,,株式会社,千葉県,成田市,高１９８番１,,12,211,2890103,,,,,,,2023-08-04,1,,,,,アシスト,0
1062,4040001129491,新規,0,2023-08-04,2023-08-04,東京シティソリューション株式会社,,株式会社,千葉県,我孫子市,中峠３０５４－１４,,12,222,2701121,,,,,,,2023-08-04,1,,,,,トウキョウシティソリューション,0
1063,4040001129517,新規,0,2023-08-04,2023-08-04,株式会社ＫＳＡ,,株式会社,千葉県,千葉市中央区,亀井町１６番１号,,12,101,2600011,,,,,,,2023-08-04,1,,,,,ケーエスエー,0
1065,4040003023049,新規,0,2023-08-04,2023-08-04,ツェルメグヌ・ツェンゲグ合同会社,,合同会社,千葉県,八街市,四木３１２－１,,12,230,2891122,,,,,,,2023-08-04,1,,,,,ツェルメグヌツェンゲグ,0
1066,4040003023057,新規,0,2023-08-04,2023-08-04,ＳＡＭＥＰＡＧＥ合同会社,,合同会社,千葉県,船橋市,前原西２丁目１４番２号津田沼駅前安田ビル別館２階Ｃ２９,,12,204,2740825,,,,,,,2023-08-04,1,,,,,セイムページ,0
1067,4040003023065,新規,0,2023-08-04,2023-08-04,Ｍ２ＳＴ合同会社,,合同会社,千葉県,山武市,木原２３１番地８,,12,237,2891212,,,,,,,2023-08-04,1,,,,,エムツーエスティー,0
1073,4050001053237,新規,0,2023-08-04,2023-08-04,株式会社プロアーム,,株式会社,茨城県,那珂市,堤９２０番地１,,08,226,3110104,,,,,,,2023-08-04,1,,,,,プロアーム,0
1074,4050003007694,新規,0,2023-08-04,2023-08-04,合同会社ＳＵＢＴＩＴＬＥ,,合同会社,茨城県,潮来市,潮来６０３４番地３,,08,223,3112424,,,,,,,2023-08-04,1,,,,,サブタイトル,0
1077,4060001036208,新規,0,2023-08-04,2023-08-04,株式会社ＥＤＥＮ,,株式会社,栃木県,小山市,八幡町２丁目１２－２９,,09,208,3230031,,,,,,,2023-08-04,1,,,,,エデン,0
1079,4060003004666,新規,0,2023-08-04,2023-08-04,合同会社山加商事,,合同会社,栃木県,日光市,柄倉７３６番地,,09,206,3212524,,,,,,,2023-08-04,1,,,,,ヤマカショウジ,0
1082,4070001040712,新規,0,2023-08-04,2023-08-04,株式会社ＫＡＭＩＮＡ安中,,株式会社,群馬県,安中市,郷原５２２番地,,10,211,3790135,,,,,,,2023-08-04,1,,,,,カミナアンナカ,0
1086,4080001025778,新規,0,2023-08-04,2023-08-04,株式会社よろず屋フルサン,,株式会社,静岡県,焼津市,小川新町１丁目２番２９号,,22,212,4250031,,,,,,,2023-08-04,1,,,,,ヨロズヤフルサン,0
1089,4080103002865,新規,0,2023-08-04,2023-08-04,タクティックスＶＣ合同会社,,合同会社,静岡県,熱海市,西熱海町２丁目３６‐２５,,22,205,4130038,,,,,,,2023-08-04,1,,,,,タクティックスビップクラブ,0
1091,4080401026649,新規,0,2023-08-04,2023-08-04,株式会社リブラフ,,株式会社,静岡県,浜松市中区,住吉３丁目１８番３号,,22,131,4300906,,,,,,,2023-08-04,1,,,,,リブラフ,0
1093,4100001036649,新規,0,2023-08-04,2023-08-04,株式会社ＷＢ長野,,株式会社,長野県,長野市,大字鶴賀上千歳町１１３７番地２３長野１１３７ビル２階ＢＰＮ,,20,201,3800821,,,,,,,2023-08-04,1,,,,,ダブリュービーナガノ,0
1099,4110001037729,新規,0,2023-08-04,2023-08-04,株式会社テクドライブ,,株式会社,新潟県,燕市,井土巻３丁目１１５番地,,15,213,9591232,,,,,,,2023-08-04,1,,,,,テクドライブ,0
1109,4120001256922,新規,0,2023-08-04,2023-08-04,ｄｒｅａｍ　ｓｔａｒ株式会社,,株式会社,大阪府,大阪市東住吉区,鷹合４丁目２１番１６号３Ｆ－Ｃ,,27,121,5460014,,,,,,,2023-08-04,1,,,,,ドリームスター,0
1110,4120001256963,新規,0,2023-08-04,2023-08-04,株式会社ＴＧＷホールディングス,,株式会社,大阪府,大阪市淀川区,西三国１丁目２番３９号,,27,123,5320006,,,,,,,2023-08-04,1,,,,,ティージーダブリューホールディングス,0
1111,4120001256996,新規,0,2023-08-04,2023-08-04,株式会社一方,,株式会社,大阪府,大阪市中央区,南新町１丁目４番９号谷町ビル４０１号,,27,128,5400024,,,,,,,2023-08-04,1,,,,,イッポウ,0
1112,4120001257020,新規,0,2023-08-04,2023-08-04,Ｍａｘｘ株式会社,,株式会社,大阪府,大阪市中央区,心斎橋筋１丁目４番１号ＳＴ心斎橋ビル４階ＣＨＡＩＮ内,,27,128,5420085,,,,,,,2023-08-04,1,,,,,マックス,0
1113,4120001257037,新規,0,2023-08-04,2023-08-04,株式会社かさむか,,株式会社,大阪府,交野市,森南２丁目２６番７号,,27,230,5760031,,,,,,,2023-08-04,1,,,,,カサムカ,0
1121,4120101067971,新規,0,2023-08-04,2023-08-04,株式会社ＷＩＮ,,株式会社,大阪府,岸和田市,春木泉町１０番２４号,,27,202,5960035,,,,,,,2023-08-04,1,,,,,ウィン,0
1123,4120901047867,新規,0,2023-08-04,2023-08-04,株式会社ＳＣＡ,,株式会社,大阪府,豊中市,新千里東町２丁目５番４番館４０１号,,27,203,5600082,,,,,,,2023-08-04,1,,,,,エスシーエー,0
1124,4120901047883,新規,0,2023-08-04,2023-08-04,株式会社スキップ,,株式会社,大阪府,吹田市,長野西１７番１２－Ｃ３１３号,,27,205,5650817,,,,,,,2023-08-04,1,,,,,スキップ,0
1126,4120903004767,新規,0,2023-08-04,2023-08-04,オフィスアキヤマ合同会社,,合同会社,大阪府,吹田市,山田西４丁目１４番１号パレス千里山田２１０,,27,205,5650824,,,,,,,2023-08-04,1,,,,,オフィスアキヤマ,0
1127,4122001037212,新規,0,2023-08-04,2023-08-04,株式会社西岡商事,,株式会社,大阪府,四條畷市,砂３丁目８番２６号,,27,229,5750001,,,,,,,2023-08-04,1,,,,,ニシオカショウジ,0
1128,4122001037220,新規,0,2023-08-04,2023-08-04,株式会社Ｕｍｂｉｌｉｃ,,株式会社,大阪府,大東市,御領３丁目４番２４号,,27,218,5740064,,,,,,,2023-08-04,1,,,,,アンビリック,0
1130,4122003002635,新規,0,2023-08-04,2023-08-04,合同会社ＴＯＳＨ　ＤＥＳＩＧＮ,,合同会社,大阪府,八尾市,南太子堂２丁目３番３３号,,27,212,5810056,,,,,,,2023-08-04,1,,,,,トシュデザイン,0
1134,4130001074869,新規,0,2023-08-04,2023-08-04,株式会社ｇｕｐｐｉｅ,,株式会社,京都府,京都市右京区,嵯峨釈迦堂門前瀬戸川町７番地１６,,26,108,6168421,,,,,,,2023-08-04,1,,,,,グッピー,0
1135,4130003008817,新規,0,2023-08-04,2023-08-04,合同会社フラテーロ,,合同会社,京都府,京都市右京区,嵯峨広沢御所ノ内町５番地４,,26,108,6168305,,,,,,,2023-08-04,1,,,,,フラテーロ,0
1136,4130003008899,新規,0,2023-08-04,2023-08-04,合同会社ジュピター,,合同会社,京都府,宇治市,槇島町大幡２５番地の６,,26,204,6110041,,,,,,,2023-08-04,1,,,,,ジュピター,0
1139,4130005016834,新規,0,2023-08-04,2023-08-04,特定非営利活動法人日本インド文化経済センター,,その他の設立登記法人,京都府,京都市中京区,河原町御池下る下丸屋町３９０－２ＱＵＥＳＴＩＯＮ内,,26,104,6040000,,,,,,,2023-08-04,1,,,,,ニホンインドブンカケイザイセンター,0
1141,4140001131074,新規,0,2023-08-04,2023-08-04,株式会社フォース,,株式会社,兵庫県,神戸市兵庫区,羽坂通４丁目１番１号,,28,105,6520805,,,,,,,2023-08-04,1,,,,,フォース,0
1142,4140001131082,新規,0,2023-08-04,2023-08-04,ＭＰ株式会社,,株式会社,兵庫県,神戸市東灘区,深江浜町１５９番地,,28,101,6580023,,,,,,,2023-08-04,1,,,,,エムピー,0
1143,4140001131124,新規,0,2023-08-04,2023-08-04,メディックスプロパティ株式会社,,株式会社,兵庫県,西宮市,六湛寺町９番７号創建ビル６階,,28,204,6620918,,,,,,,2023-08-04,1,,,,,メディックスプロパティ,0
1144,4140001131132,新規,0,2023-08-04,2023-08-04,株式会社淡山海,,株式会社,兵庫県,淡路市,佐野９２８番地,,28,226,6562212,,,,,,,2023-08-04,1,,,,,アワサンカイ,0
1147,4140003019375,新規,0,2023-08-04,2023-08-04,合同会社スイーツラボ,,合同会社,兵庫県,尼崎市,尾浜町２丁目６番１１号,,28,202,6610022,,,,,,,2023-08-04,1,,,,,スイーツラボ,0
1149,4150001026595,新規,0,2023-08-04,2023-08-04,株式会社セーフティプロジェクト,,株式会社,奈良県,桜井市,大字箸中８４６番地,00131396,29,206,6330072,,,,,,,2023-08-04,1,,,,,セーフティプロジェクト,0
1152,4160001025225,新規,0,2023-08-04,2023-08-04,古川化成株式会社,,株式会社,滋賀県,野洲市,市三宅６９４番地１３,,25,210,5202362,,,,,,,2023-08-04,1,,,,,フルカワカセイ,0
1153,4160001025233,新規,0,2023-08-04,2023-08-04,株式会社マイベスト,,株式会社,滋賀県,守山市,吉身３丁目５番２２号,,25,207,5240021,,,,,,,2023-08-04,1,,,,,マイベスト,0
1154,4160003002949,新規,0,2023-08-04,2023-08-04,合同会社Ｐ‐Ｐｌａｎｎｉｎｇ,,合同会社,滋賀県,大津市,湖城が丘５番１５号,,25,201,5200821,,,,,,,2023-08-04,1,,,,,ピープランニング,0
1162,4180001157355,新規,0,2023-08-04,2023-08-04,株式会社トラスト,,株式会社,愛知県,春日井市,前並町１丁目３番地５,,23,206,4860903,,,,,,,2023-08-04,1,,,,,トラスト,0
1163,4180001157396,新規,0,2023-08-04,2023-08-04,株式会社ＡＫＡＬＡ,,株式会社,愛知県,名古屋市緑区,鳴丘３丁目６０１番地の３ポレスター滝の水グリーンテラス９０４号,,23,114,4580005,,,,,,,2023-08-04,1,,,,,アカラ,0
1164,4180001157438,新規,0,2023-08-04,2023-08-04,メドイットＬＤ株式会社,,株式会社,愛知県,名古屋市瑞穂区,弥富通五丁目５６番地,,23,108,4670000,,,,,,,2023-08-04,1,,,,,メドイットエルディー,0
1170,4180301037620,新規,0,2023-08-04,2023-08-04,小島ホールディングス株式会社,,株式会社,愛知県,豊田市,下市場三丁目３０番地,,23,211,4710000,,,,,,,2023-08-04,1,,,,,コジマホールディングス,0
1171,4180301037637,新規,0,2023-08-04,2023-08-04,株式会社ライフアシストサービス,,株式会社,愛知県,岡崎市,福岡町字北西仲９番地１グリンヒル福岡２０５号室,,23,202,4440825,,,,,,,2023-08-04,1,,,,,ライフアシストサービス,0
1176,4200001041556,新規,0,2023-08-04,2023-08-04,株式会社ドットエム,,株式会社,岐阜県,可児市,東帷子７９０番地１,,21,214,5090256,,,,,,,2023-08-04,1,,,,,ドットエム,0
1182,4220003003560,新規,0,2023-08-04,2023-08-04,合同会社ノラス,,合同会社,石川県,七尾市,町屋町リ‐６６‐１,,17,202,9260836,,,,,,,2023-08-04,1,,,,,ノラス,0
1183,4230001019946,新規,0,2023-08-04,2023-08-04,株式会社ＥＣＲＵ,,株式会社,富山県,富山市,千代田町８番１４号,,16,201,9300811,,,,,,,2023-08-04,1,,,,,エクリュ,0
1185,4240001061906,新規,0,2023-08-04,2023-08-04,株式会社ＴＤＡ,,株式会社,広島県,広島市中区,上幟町５番２６－１２０１号,,34,101,7300014,,,,,,,2023-08-04,1,,,,,ティーディーエー,0
1186,4240001061914,新規,0,2023-08-04,2023-08-04,マインドフルハピネス株式会社,,株式会社,広島県,福山市,花園町２丁目６番１６号,,34,207,7200803,,,,,,,2023-08-04,1,,,,,マインドフルハピネス,0
1197,4250001020217,新規,0,2023-08-04,2023-08-04,株式会社本田計画,,株式会社,山口県,熊毛郡田布施町,中央南１５番地１５,,35,343,7421517,,,,,,,2023-08-04,1,,,,,ホンダケイカク,0
1198,4250001020225,新規,0,2023-08-04,2023-08-04,株式会社ＤＳＣ,,株式会社,山口県,下関市,生野町２丁目９番３－３号,,35,201,7510832,,,,,,,2023-08-04,1,,,,,ディーエスシー,0
1205,4270005005559,新規,0,2023-08-04,2023-08-04,一般社団法人さかくろ,,その他の設立登記法人,鳥取県,西伯郡伯耆町,上野７６０－１２９,,31,390,6894212,,,,,,,2023-08-04,1,,,,,サカクロ,0
1208,4290001102498,新規,0,2023-08-04,2023-08-04,株式会社ＩｎｈｅｒｉｔＸ　Ｌａｂ．,,株式会社,福岡県,福岡市中央区,渡辺通５丁目１０番１８号,,40,133,8100004,,,,,,,2023-08-04,1,,,,,インヘリテックスラボ,0
1209,4290001102507,新規,0,2023-08-04,2023-08-04,株式会社マリチ,,株式会社,福岡県,福岡市中央区,桜坂２丁目１０番２２－Ｂ２０１号,,40,133,8100024,,,,,,,2023-08-04,1,,,,,マリチ,0
1210,4290001102515,新規,0,2023-08-04,2023-08-04,株式会社ＹＲエステート,,株式会社,福岡県,福岡市東区,筥松４丁目８番８８‐２０２号,,40,131,8120061,,,,,,,2023-08-04,1,,,,,ワイアール,0
1211,4290003014188,新規,0,2023-08-04,2023-08-04,合同会社ＢＡＧＩＳＭ,,合同会社,福岡県,福岡市中央区,春吉１丁目７番１７号第一大橋ビル２階,,40,133,8100003,,,,,,,2023-08-04,1,,,,,バギズム,0
1214,4300001013413,新規,0,2023-08-04,2023-08-04,株式会社池田,,株式会社,佐賀県,鹿島市,浜町甲４５３７番地,,41,207,8491322,,,,,,,2023-08-04,1,,,,,イケダ,0
1215,4310001018535,新規,0,2023-08-04,2023-08-04,九州興産株式会社,,株式会社,長崎県,諫早市,津久葉町６番地１０,,42,204,8540065,,,,,,,2023-08-04,1,,,,,キュウシュウコウサン,0
1220,4340001025776,新規,0,2023-08-04,2023-08-04,株式会社誠,,株式会社,鹿児島県,鹿児島市,西伊敷６丁目３２番７号,,46,201,8911202,,,,,,,2023-08-04,1,,,,,マコト,0
1223,4340003004191,新規,0,2023-08-04,2023-08-04,合同会社ＫＩＹＯ,,合同会社,鹿児島県,薩摩川内市,向田本町９番１０号フランス川畑ビル１階,,46,215,8950021,,,,,,,2023-08-04,1,,,,,キヨ,0
1232,4370001050235,新規,0,2023-08-04,2023-08-04,株式会社ランドロード,,株式会社,宮城県,仙台市太白区,柳生６丁目９番地の４,,04,104,9811106,,,,,,,2023-08-04,1,,,,,ランドロード,0
1233,4370001050251,新規,0,2023-08-04,2023-08-04,株式会社芸者快進撃,,株式会社,宮城県,仙台市太白区,羽黒台３３番１１号,,04,104,9820817,,,,,,,2023-08-04,1,,,,,ゲイシャカイシンゲキ,0
1235,4370003006227,新規,0,2023-08-04,2023-08-04,合同会社あいわ,,合同会社,宮城県,東松島市,上下堤字上南谷地４６番地,,04,214,9810305,,,,,,,2023-08-04,1,,,,,アイワ,0
1237,4380001033890,新規,0,2023-08-04,2023-08-04,株式会社高原カンパニー,,株式会社,福島県,郡山市,三穂田町駒屋字西畑１３１番地,,07,203,9630128,,,,,,,2023-08-04,1,,,,,タカハラカンパニー,0
1238,4380001033899,新規,0,2023-08-04,2023-08-04,株式会社ふらゆもり,,株式会社,福島県,いわき市,常磐湯本町天王崎１番地の１６８,,07,204,9728321,,,,,,,2023-08-04,1,,,,,フラユモリ,0
1250,4420001018350,新規,0,2023-08-04,2023-08-04,株式会社梶浦新聞販売,,株式会社,青森県,青森市,浪岡大字浪岡字浅井１１９番地１,,02,201,0381311,,,,,,,2023-08-04,1,,,,,カジウラシンブンハンバイ,0
1251,4420003002765,新規,0,2023-08-04,2023-08-04,合同会社Ｔ．Ｓ．Ｈ,,合同会社,青森県,弘前市,大字新鍛冶町５１番地カネヨセンター,,02,202,0368193,,,,,,,2023-08-04,1,,,,,ティーエスエイチ,0
1254,4430001089671,新規,0,2023-08-04,2023-08-04,株式会社和崎建装,,株式会社,北海道,石狩市,花川北三条５丁目５８番地,,01,235,0613213,,,,,,,2023-08-04,1,,,,,ワザキケンソウ,0
1257,4450003002366,新規,0,2023-08-04,2023-08-04,ＪＫＩ合同会社,,合同会社,北海道,富良野市,西町２－１０１,,01,229,0760037,,,,,,,2023-08-04,1,,,,,ジェイケーアイ,0
1259,4460101007415,新規,0,2023-08-04,2023-08-04,株式会社小川架設,,株式会社,北海道,帯広市,西十七条南４丁目１８番１５号,,01,207,0800027,,,,,,,2023-08-04,1,,,,,オガワカセツ,0
1261,4470001019732,新規,0,2023-08-04,2023-08-04,株式会社ＦＫサービス,,株式会社,香川県,小豆郡小豆島町,福田甲６３７番地６,,37,324,7614402,,,,,,,2023-08-04,1,,,,,エフケーサービス,0
1269,4490001010557,新規,0,2023-08-04,2023-08-04,株式会社エスティプランニング,,株式会社,高知県,高知市,上町３丁目４番２－１３０１号,,39,201,7800901,,,,,,,2023-08-04,1,,,,,エスティプランニング,0
1273,4700150118781,新規,0,2023-08-04,2023-08-04,Ｓｈｅｎｚｈｅｎ　Ｘｉｎｐｉｎｇｌｅ　Ｅｌｅｃｔｒｏｎｉｃ　Ｔｅｃｈｎｏｌｏｇｙ　Ｃｏ．，ＬＴＤ,,外国会社等,,,,,,,,ＬＯＮＧＧＡＮＧ　ＮＡＮＬＩＡＮ　ＬＩＵＷＵ　ＶＩＬＬＡＧＥ　ＷＵ　ＸＩＡＮＧ　３　ＨＡＯ　４０１　ＳＨＥＮＺＨＥＮ　ＧＵＡＮＧＤＯＮＧ　５１８１１６　ＣＮ,,,,,,2023-08-04,1,,,,,シェンジェンシシンピンラディエンズーカージヨウシェンゴンスー,0
1274,4700150118798,新規,0,2023-08-04,2023-08-04,Ｓｈｅｎｚｈｅｎ　Ｗｏｄｅｆｅｎｇ　Ｔｅｃｈｎｏｌｏｇｙ　Ｃｏ．，Ｌｔｄ,,外国会社等,,,,,,,,Ｒｏｏｍ　Ｄ００１，３ｒｄ　Ｆｌｏｏｒ，Ｔｅｃｈｎｏｌｏｇｙ　Ｉｎｃｕｂａｔｉｏｎ　Ｃｅｎｔｅｒ，Ｇａｎｇｚｈｉｌｏｎｇ　Ｓｃｉｅｎｃｅ　ａｎｄ　Ｔｅｃｈｎｏｌｏｇｙ　Ｐａｒｋ，Ｎｏ．６　Ｑｉａｎｌｏｎｇ　Ｒｏａｄ，Ｔｓｉｎｇｈｕａ　Ｃｏｍｍｕｎｉｔｙ，Ｌｏｎｇｈｕａ　Ｓｔｒｅｅｔ．Ｓｈｅｎｚｈｅｎ,,,,,,2023-08-04,1,,,,,シェンジェンシーウオダーフォンコージーヨウシエンゴンスー,0
1275,4700150118807,新規,0,2023-08-04,2023-08-04,追内区,,その他,宮崎県,延岡市,追内町４８３番地１,,45,203,8820013,,,,,,,2023-08-04,1,,,,,オイウチク,0
1282,5010001237362,新規,0,2023-08-04,2023-08-04,ＥＶｏｌｉｔｙ株式会社,,株式会社,東京都,中央区,銀座８丁目２１番１号,,13,102,1040061,,,,,,,2023-08-04,1,,,,,エヴォリティ,0
1283,5010001237370,新規,0,2023-08-04,2023-08-04,株式会社シチズンシップ,,株式会社,東京都,文京区,音羽１丁目１０番４号,,13,105,1120013,,,,,,,2023-08-04,1,,,,,シチズンシップ,0
1284,5010001237387,新規,0,2023-08-04,2023-08-04,アカツキグローバル株式会社,,株式会社,東京都,千代田区,神田淡路町１丁目９番５号天翔御茶ノ水ビル,,13,101,1010063,,,,,,,2023-08-04,1,,,,,アカツキグローバル,0
1285,5010001237429,新規,0,2023-08-04,2023-08-04,ＳＹＬＡ　ＨＯＴＥＬ第１号株式会社,,株式会社,東京都,千代田区,九段南１丁目５番６号りそな九段ビル５階ＫＳフロア,,13,101,1020074,,,,,,,2023-08-04,1,,,,,シーラホテルダイイチゴウ,0
1286,5010001237445,新規,0,2023-08-04,2023-08-04,コンパス・アセットマネジメント株式会社,,株式会社,東京都,千代田区,神田神保町３丁目２－１サンライトビル２階,,13,101,1010051,,,,,,,2023-08-04,1,,,,,コンパスアセットマネジメント,0
1290,5010005037040,新規,0,2023-08-04,2023-08-04,一般社団法人ブロッサム信用ホールディングス,,その他の設立登記法人,東京都,千代田区,丸の内３丁目１番１号東京共同会計事務所内,,13,101,1000005,,,,,,,2023-08-04,1,,,,,ブロッサムシンヨウホールディングス,0
1296,5010401176111,新規,0,2023-08-04,2023-08-04,株式会社オムケインバーグ,,株式会社,東京都,港区,六本木２丁目４番１３－１４０１号,,13,103,1060032,,,,,,,2023-08-04,1,,,,,オムケインバーグ,0
1297,5010403030654,新規,0,2023-08-04,2023-08-04,ＯＧＯ合同会社,,合同会社,東京都,港区,北青山１丁目３－１アールキューブ青山３階,,13,103,1070061,,,,,,,2023-08-04,1,,,,,オゴ,0
1300,5010501050851,新規,0,2023-08-04,2023-08-04,恩田株式会社,,株式会社,東京都,台東区,浅草橋１丁目３６番５号,,13,106,1110053,,,,,,,2023-08-04,1,,,,,オンダ,0
1302,5010601063539,新規,0,2023-08-04,2023-08-04,デジタル・ティンバー・ワークス株式会社,,株式会社,東京都,江東区,富岡２丁目１１番６号,,13,108,1350047,,,,,,,2023-08-04,1,,,,,デジタルティンバーワークス,0
1303,5010603010266,新規,0,2023-08-04,2023-08-04,合同会社にじいろ保健室,,合同会社,東京都,墨田区,墨田３丁目２５－１０,,13,107,1310031,,,,,,,2023-08-04,1,,,,,ニジイロホケンシツ,0
1304,5010605004225,新規,0,2023-08-04,2023-08-04,弁理士法人そらおと,,その他の設立登記法人,東京都,江東区,亀戸２丁目３４番８号ウィンド亀戸ビル５Ｆ,,13,108,1360071,,,,,,,2023-08-04,1,,,,,ソラオト,0
1307,5010701044653,新規,0,2023-08-04,2023-08-04,株式会社ＪＡＰＡＮ　ＴＲＡＤＥ　ＣＯＭＰＡＮＹ,,株式会社,東京都,品川区,上大崎３丁目１４番４６－２０７号,,13,109,1410021,,,,,,,2023-08-04,1,,,,,ジャパントレードカンパニー,0
1310,5010801034216,新規,0,2023-08-04,2023-08-04,株式会社ＫＡＭＡＭＥＳＨＩ,,株式会社,東京都,大田区,南六郷３丁目１０番１６号,,13,111,1440045,,,,,,,2023-08-04,1,,,,,カマメシ,0
1318,5010901053553,新規,0,2023-08-04,2023-08-04,株式会社ｈａｃｈｉ,,株式会社,東京都,世田谷区,船橋１丁目１番７号林ビル２０１,,13,112,1560055,,,,,,,2023-08-04,1,,,,,ハチ,0
1319,5010905004511,新規,0,2023-08-04,2023-08-04,ブランズシティ世田谷中町団地管理組合法人,,その他の設立登記法人,東京都,世田谷区,中町５丁目９番２号,,13,112,1580091,,,,,,,2023-08-04,1,,,,,ブランズシティセタガヤナカマチ,0
1326,5011001156073,新規,0,2023-08-04,2023-08-04,株式会社ＮＥＷ　ＧＡＴＥ,,株式会社,東京都,目黒区,鷹番３丁目６番８号Ｔｓビル２Ｆ,,13,110,1520004,,,,,,,2023-08-04,1,,,,,ニューゲート,0
1327,5011001156131,新規,0,2023-08-04,2023-08-04,ＲＥＸＴ　ＪＡＰＡＮ株式会社,,株式会社,東京都,渋谷区,道玄坂１丁目１０番８号渋谷道玄坂東急ビル２Ｆ－Ｃ,,13,113,1500043,,,,,,,2023-08-04,1,,,,,レクストジャパン,0
1331,5011101103792,新規,0,2023-08-04,2023-08-04,ＧＥＭＳ　Ｈｏｍｅ株式会社,,株式会社,東京都,新宿区,西早稲田３丁目２９－８ビューネ高田馬場６０３号室,,13,104,1690051,,,,,,,2023-08-04,1,,,,,ジェムズホーム,0
1332,5011101103850,新規,0,2023-08-04,2023-08-04,ＴＨＯＥＮ　ＳＥＫＡＩ株式会社,,株式会社,東京都,新宿区,四谷坂町１１番６－１０６号,,13,104,1600002,,,,,,,2023-08-04,1,,,,,トーエンセカイ,0
1333,5011101103883,新規,0,2023-08-04,2023-08-04,株式会社インストライド,,株式会社,東京都,新宿区,西新宿３丁目３番１３号西新宿水間ビル２Ｆ,,13,104,1600023,,,,,,,2023-08-04,1,,,,,インストライド,0
1334,5011201024815,新規,0,2023-08-04,2023-08-04,ＴＭコンサルティングサービス株式会社,,株式会社,東京都,中野区,江原町１丁目２番４号,,13,114,1650023,,,,,,,2023-08-04,1,,,,,ティーエムコンサルティングサービス,0
1338,5011501029613,新規,0,2023-08-04,2023-08-04,ＪＢＤ株式会社,,株式会社,東京都,北区,浮間１丁目１番１４号リムジンビル１２２,,13,117,1150051,,,,,,,2023-08-04,1,,,,,ジェービーディ,0
1339,5011501029621,新規,0,2023-08-04,2023-08-04,いしざわ食品株式会社,,株式会社,東京都,北区,滝野川１丁目１４番１０号,,13,117,1140023,,,,,,,2023-08-04,1,,,,,イシザワショクヒン,0
1341,5011603004002,新規,0,2023-08-04,2023-08-04,Ｎａｎｄｉ合同会社,,合同会社,東京都,練馬区,東大泉３丁目３３－２１,,13,120,1780063,,,,,,,2023-08-04,1,,,,,ナンディ,0
1346,5011801042828,新規,0,2023-08-04,2023-08-04,株式会社龍鵬国際,,株式会社,東京都,足立区,東和３丁目１３番１－３３０号,,13,121,1200003,,,,,,,2023-08-04,1,,,,,タツホウコクサイ,0
1350,5012403006089,新規,0,2023-08-04,2023-08-04,タムラ防災合同会社,,合同会社,東京都,狛江市,岩戸南４丁目１番１８号,,13,219,2010005,,,,,,,2023-08-04,1,,,,,タムラボウサイ,0
1352,5012801022539,新規,0,2023-08-04,2023-08-04,株式会社ＬＯＶＥＳＴＲＵＣＫ,,株式会社,東京都,立川市,錦町１丁目２番５号三浦ビル２階,,13,202,1900022,,,,,,,2023-08-04,1,,,,,ラブストラック,0
1355,5020001152783,新規,0,2023-08-04,2023-08-04,株式会社ハイミライ,,株式会社,神奈川県,川崎市多摩区,生田６丁目１１番１０‐２０１号,,14,135,2140038,,,,,,,2023-08-04,1,,,,,ハイミライ,0
1356,5020001152800,新規,0,2023-08-04,2023-08-04,ＲＯＵＴＥ３５８株式会社,,株式会社,神奈川県,横浜市戸塚区,平戸町３１３番地坂本ビル１Ｆ,,14,110,2440803,,,,,,,2023-08-04,1,,,,,ルートサンゴーハチ,0
1357,5020001152866,新規,0,2023-08-04,2023-08-04,株式会社ＳＳＳ‐ｈｏｕｓｅ　ｄｅｓｉｇｎ,,株式会社,神奈川県,川崎市川崎区,桜本２丁目３８番２１－１号,,14,131,2100833,,,,,,,2023-08-04,1,,,,,スリーエスハウスデザイン,0
1367,5021001079819,新規,0,2023-08-04,2023-08-04,株式会社野島,,株式会社,神奈川県,座間市,入谷西３丁目４番１８号,,14,216,2520029,,,,,,,2023-08-04,1,,,,,ノジマ,0
1385,5040001129482,新規,0,2023-08-04,2023-08-04,ＦＰ・ＬＡＢ株式会社,,株式会社,千葉県,市川市,曽谷１丁目２３番２４号,,12,203,2720832,,,,,,,2023-08-04,1,,,,,エフピーラボ,0
1386,5040001129490,新規,0,2023-08-04,2023-08-04,株式会社ＫｉｎｄＰｌａｃｅ,,株式会社,千葉県,松戸市,常盤平６丁目２６番地の３１,,12,207,2702261,,,,,,,2023-08-04,1,,,,,カインドプレイス,0
1387,5040001129508,新規,0,2023-08-04,2023-08-04,株式会社ＳＫＹ‐ｈｏｕｓｅ,,株式会社,千葉県,船橋市,南本町２番１０号,,12,204,2730004,,,,,,,2023-08-04,1,,,,,スカイハウス,0
1388,5040001129516,新規,0,2023-08-04,2023-08-04,文教科学株式会社,,株式会社,千葉県,習志野市,本大久保１丁目７番７号地域交流会館,,12,216,2750012,,,,,,,2023-08-04,1,,,,,ブンキョウカガク,0
1389,5040001129524,新規,0,2023-08-04,2023-08-04,株式会社スリーＨプロジェクト,,株式会社,千葉県,千葉市花見川区,瑞穂２丁目１番地１,,12,102,2620026,,,,,,,2023-08-04,1,,,,,スリーエイチプロジェクト,0
1394,5040003023064,新規,0,2023-08-04,2023-08-04,合同会社大多喜やさい,,合同会社,千葉県,夷隅郡大多喜町,紙敷１３６２番地２,,12,441,2980241,,,,,,,2023-08-04,1,,,,,オオタキヤサイ,0
1404,5060001036207,新規,0,2023-08-04,2023-08-04,株式会社与多呂建設,,株式会社,栃木県,小山市,東間々田１丁目１１－９,,09,208,3290206,,,,,,,2023-08-04,1,,,,,ヨタロケンセツ,0
1405,5060001036215,新規,0,2023-08-04,2023-08-04,株式会社宇賀神工業,,株式会社,栃木県,宇都宮市,鶴田町１９５番地１８,,09,201,3200851,,,,,,,2023-08-04,1,,,,,ウガジンコウギョウ,0
1406,5060001036223,新規,0,2023-08-04,2023-08-04,永田株式会社,,株式会社,栃木県,足利市,大月町４２０番地１,,09,202,3260005,,,,,,,2023-08-04,1,,,,,ナガタ,0
1416,5070003005051,新規,0,2023-08-04,2023-08-04,ＤＭＧ合同会社,,合同会社,群馬県,邑楽郡大泉町,坂田４丁目２番１５号パークハウスモリＩ－１０２号,,10,524,3700532,,,,,,,2023-08-04,1,,,,,ディーエムジー,0
1418,5080001025769,新規,0,2023-08-04,2023-08-04,株式会社ＯＫ加工,,株式会社,静岡県,静岡市清水区,清水町４番１号,,22,103,4240947,,,,,,,2023-08-04,1,,,,,オーケーカコウ,0
1420,5080101024142,新規,0,2023-08-04,2023-08-04,ＭＡ　ＪＡＰＡＮ株式会社,,株式会社,静岡県,賀茂郡東伊豆町,稲取９１８番地,,22,301,4130411,,,,,,,2023-08-04,1,,,,,エムエージャバン,0
1422,5110001037736,新規,0,2023-08-04,2023-08-04,株式会社イワシタ,,株式会社,新潟県,燕市,佐渡２３９８番地１,,15,213,9591228,,,,,,,2023-08-04,1,,,,,イワシタ,0
1430,5120001256921,新規,0,2023-08-04,2023-08-04,株式会社東岸方林,,株式会社,大阪府,大阪市中央区,谷町７丁目１番３９号新谷町第２ビル３１３号室,,27,128,5420012,,,,,,,2023-08-04,1,,,,,トウガンホウリン,0
1431,5120001256970,新規,0,2023-08-04,2023-08-04,株式会社ギンギラギン,,株式会社,大阪府,大阪市天王寺区,小橋町１４番７８－１０３号,,27,109,5430028,,,,,,,2023-08-04,1,,,,,ギンギラギン,0
1432,5120001257003,新規,0,2023-08-04,2023-08-04,株式会社Ｏｓｈｉ機械設備,,株式会社,大阪府,大阪市大正区,三軒家東５丁目１６番１０号,,27,108,5510002,,,,,,,2023-08-04,1,,,,,オシキカイセツビ,0
1438,5120101067970,新規,0,2023-08-04,2023-08-04,株式会社ナナキ,,株式会社,大阪府,堺市東区,引野町２丁２０番９号,,27,143,5998104,,,,,,,2023-08-04,1,,,,,ナナキ,0
1440,5120901047866,新規,0,2023-08-04,2023-08-04,株式会社Ｂｉｇｉｅｒｍｎ,,株式会社,大阪府,豊中市,上新田２丁目２２番５,,27,203,5600085,,,,,,,2023-08-04,1,,,,,ビジェルム,0
1441,5120901047882,新規,0,2023-08-04,2023-08-04,株式会社みそら訪問看護ステーション,,株式会社,大阪府,箕面市,坊島４丁目９番１０－３０１,,27,220,5620013,,,,,,,2023-08-04,1,,,,,ミソラホウモンカンゴステーション,0
1443,5120903004766,新規,0,2023-08-04,2023-08-04,合同会社耕蔵,,合同会社,大阪府,豊中市,東豊中町６丁目６番２８－１１０号,,27,203,5600003,,,,,,,2023-08-04,1,,,,,コウゾウ,0
1444,5120905006505,新規,0,2023-08-04,2023-08-04,医療法人おひさまファミリークリニック,,その他の設立登記法人,大阪府,吹田市,竹見台４丁目２番１－２０２号,,27,205,5650863,,,,,,,2023-08-04,1,,,,,オヒサマファミリークリニック,0
1446,5122001037211,新規,0,2023-08-04,2023-08-04,株式会社大創,,株式会社,大阪府,大東市,灰塚４丁目６番６７号,,27,218,5740043,,,,,,,2023-08-04,1,,,,,ダイソウ,0
1451,5130001074868,新規,0,2023-08-04,2023-08-04,株式会社フカミ,,株式会社,京都府,京都市南区,吉祥院嶋樫山町２５番地,,26,107,6018371,,,,,,,2023-08-04,1,,,,,フカミ,0
1458,5140001131098,新規,0,2023-08-04,2023-08-04,エスターク株式会社,,株式会社,兵庫県,加古川市,加古川町稲屋７０７番地の２,,28,210,6750034,,,,,,,2023-08-04,1,,,,,エスターク,0
1459,5140001131115,新規,0,2023-08-04,2023-08-04,株式会社中央水道,,株式会社,兵庫県,芦屋市,業平町７番２号,,28,206,6590068,,,,,,,2023-08-04,1,,,,,チュウオウスイドウ,0
1462,5140003019382,新規,0,2023-08-04,2023-08-04,合同会社モアスマイリィー,,合同会社,兵庫県,神戸市須磨区,白川台５丁目５３番地の２０,,28,107,6540103,,,,,,,2023-08-04,1,,,,,モアスマイリィー,0
1465,5150001026594,新規,0,2023-08-04,2023-08-04,株式会社福助屋,,株式会社,奈良県,大和高田市,片塩町１５番３５号,,29,202,6350085,,,,,,,2023-08-04,1,,,,,フクスケヤ,0
1466,5150001026603,新規,0,2023-08-04,2023-08-04,株式会社セントエムホーム,,株式会社,奈良県,奈良市,神殿町６８５番地の４,,29,201,6308441,,,,,,,2023-08-04,1,,,,,セントエムホーム,0
1468,5160001025232,新規,0,2023-08-04,2023-08-04,株式会社大和,,株式会社,滋賀県,東近江市,林町２９４番地,,25,213,5211224,,,,,,,2023-08-04,1,,,,,ヤマト,0
1469,5160003002948,新規,0,2023-08-04,2023-08-04,合同会社ナベテクノ,,合同会社,滋賀県,栗東市,中沢２丁目５番１－５０５号,,25,208,5203025,,,,,,,2023-08-04,1,,,,,ナベテクノ,0
1478,5180001157387,新規,0,2023-08-04,2023-08-04,株式会社Ｗｉｓｔｅｒｉａ,,株式会社,愛知県,名古屋市中川区,百船町１５番１３号３Ｆ,,23,110,4540801,,,,,,,2023-08-04,1,,,,,ウィステリア,0
1479,5180001157404,新規,0,2023-08-04,2023-08-04,株式会社ＳＴＴ,,株式会社,愛知県,名古屋市名東区,牧の里２丁目２００３番地,,23,115,4650068,,,,,,,2023-08-04,1,,,,,エスティーティー,0
1480,5180001157429,新規,0,2023-08-04,2023-08-04,株式会社ＮＥＸＳＩＡ,,株式会社,愛知県,名古屋市中村区,岩塚町字郷中１０８－３,,23,105,4530862,,,,,,,2023-08-04,1,,,,,ネクシア,0
1481,5180001157437,新規,0,2023-08-04,2023-08-04,Ｙｏｒｋ株式会社,,株式会社,愛知県,名古屋市中川区,愛知町９番４号,,23,110,4540807,,,,,,,2023-08-04,1,,,,,ヨーク,0
1482,5180001157445,新規,0,2023-08-04,2023-08-04,株式会社花街道農園,,株式会社,愛知県,名古屋市守山区,白山４丁目９１１番地,,23,113,4630032,,,,,,,2023-08-04,1,,,,,,0
1484,5180003025567,新規,0,2023-08-04,2023-08-04,ＡＵＸ合同会社,,合同会社,愛知県,名古屋市北区,大曽根１丁目８番１８号,,23,103,4620825,,,,,,,2023-08-04,1,,,,,エーユーエックス,0
1485,5180003025575,新規,0,2023-08-04,2023-08-04,合同会社Ｌｉｎｋ,,合同会社,愛知県,あま市,森東町長１３番地７３,,23,237,4901107,,,,,,,2023-08-04,1,,,,,リンク,0
1489,5180301037628,新規,0,2023-08-04,2023-08-04,天野農園株式会社,,株式会社,愛知県,西尾市,吉良町吉田上浜５７番地,,23,213,4440516,,,,,,,2023-08-04,1,,,,,アマノノウエン,0
1490,5180303005789,新規,0,2023-08-04,2023-08-04,合同会社真我,,合同会社,愛知県,田原市,田原町南新地６６番地１,,23,231,4413421,,,,,,,2023-08-04,1,,,,,シンガ,0
1498,5200001041555,新規,0,2023-08-04,2023-08-04,株式会社マイスター,,株式会社,岐阜県,恵那市,長島町正家３丁目１８番地５,,21,210,5097203,,,,,,,2023-08-04,1,,,,,マイスター,0
1499,5200001041563,新規,0,2023-08-04,2023-08-04,株式会社セルフィルム研究所,,株式会社,岐阜県,海津市,海津町福江２８６－１－１０１,,21,221,5030628,,,,,,,2023-08-04,1,,,,,セルフィルムケンキュウショ,0
1502,5220005008771,新規,0,2023-08-04,2023-08-04,一般社団法人ＧＥＭＩＮＩＳ,,その他の設立登記法人,石川県,金沢市,疋田１丁目１７５番地,,17,201,9200003,,,,,,,2023-08-04,1,,,,,ヘミニス,0
1503,5230001019945,新規,0,2023-08-04,2023-08-04,株式会社炭谷三郎商店,,株式会社,富山県,高岡市,問屋町７６番地,,16,202,9330804,,,,,,,2023-08-04,1,,,,,スミタニサブロウショウテン,0
1505,5240001061896,新規,0,2023-08-04,2023-08-04,株式会社ＳＴＥＣ　ＯＮＥ,,株式会社,広島県,呉市,中央５丁目９番４号朝枝ビル２０１,,34,202,7370051,,,,,,,2023-08-04,1,,,,,エステックワン,0
1506,5240001061905,新規,0,2023-08-04,2023-08-04,教育開発出版株式会社,,株式会社,広島県,広島市東区,光町１丁目１０番１９号,,34,102,7320052,,,,,,,2023-08-04,1,,,,,キョウイクカイハツシュッパン,0
1510,5250003003326,新規,0,2023-08-04,2023-08-04,合同会社おうちサロンふわり,,合同会社,山口県,下関市,一の宮住吉２丁目８番２８号,,35,201,7510805,,,,,,,2023-08-04,1,,,,,オウチサロンフワリ,0
1512,5260003004380,新規,0,2023-08-04,2023-08-04,合同会社タスク,,合同会社,岡山県,倉敷市,中庄３５１８番地１３,,33,202,7100016,,,,,,,2023-08-04,1,,,,,タスク,0
1514,5270001008820,新規,0,2023-08-04,2023-08-04,株式会社ＥＩＧＨＴ　ＣＯＲＰＯＲＡＴＩＯＮ,,株式会社,鳥取県,鳥取市,浜坂２９７番地１,,31,201,6800001,,,,,,,2023-08-04,1,,,,,エイトコーポレーション,0
1521,5290001102464,新規,0,2023-08-04,2023-08-04,ホリデー福岡株式会社,,株式会社,福岡県,福岡市中央区,大名２丁目６番１１号,,40,133,8100041,,,,,,,2023-08-04,1,,,,,ホリデーフクオカ,0
1522,5290001102472,新規,0,2023-08-04,2023-08-04,マチディア株式会社,,株式会社,福岡県,福岡市中央区,大名２丁目４番２２号,,40,133,8100041,,,,,,,2023-08-04,1,,,,,マチディア,0
1530,5290003014179,新規,0,2023-08-04,2023-08-04,Ｅｍｂｏｒｄ合同会社,,合同会社,福岡県,那珂川市,五郎丸１丁目２２－２,,40,231,8111252,,,,,,,2023-08-04,1,,,,,エンボルド,0
1531,5290003014187,新規,0,2023-08-04,2023-08-04,合同会社ＮＢＥ,,合同会社,福岡県,福岡市東区,香椎照葉５丁目１番１２－２６０７号,,40,131,8130017,,,,,,,2023-08-04,1,,,,,エヌビーイー,0
1545,5320003004135,新規,0,2023-08-04,2023-08-04,ＡＺＳ合同会社,,合同会社,大分県,別府市,野口元町１番３号富士吉ビル７１号,,44,202,8740933,,,,,,,2023-08-04,1,,,,,エーゼットエス,0
1547,5330001031106,新規,0,2023-08-04,2023-08-04,フィネステクノロジー株式会社,,株式会社,熊本県,菊池郡大津町,大字陣内１８４２番地３,,43,403,8691221,,,,,,,2023-08-04,1,,,,,フィネステクノロジー,0
1548,5330001031114,新規,0,2023-08-04,2023-08-04,株式会社ＨｉＲａＫａＷａ,,株式会社,熊本県,球磨郡あさぎり町,免田西１３７６番地１,,43,514,8680415,,,,,,,2023-08-04,1,,,,,ヒラカワ,0
1549,5330001031130,新規,0,2023-08-04,2023-08-04,株式会社瑞光,,株式会社,熊本県,熊本市東区,保田窪３丁目４番１５号,,43,102,8620926,,,,,,,2023-08-04,1,,,,,ズイコウ,0
1552,5340001025775,新規,0,2023-08-04,2023-08-04,株式会社かごしま有機生産クラブ,,株式会社,鹿児島県,鹿児島市,川上町３３３４番地１,,46,201,8920875,,,,,,,2023-08-04,1,,,,,カゴシマユウキセイサンクラブ,0
1556,5360001032373,新規,0,2023-08-04,2023-08-04,株式会社ＪＵＭＰＩＮＧ　ＤＥＳＩＧＮ　ＲＹＵ　ＵＭＥＨＡＲＡ,,株式会社,沖縄県,南城市,知念字久手堅６３１番地１,,47,215,9011511,,,,,,,2023-08-04,1,,,,,ジャンピングデザインリュウウメハラ,0
1559,5370001050234,新規,0,2023-08-04,2023-08-04,株式会社ＨＩＹＡＫＵ‐ＳＨＡ,,株式会社,宮城県,仙台市太白区,長町３丁目３番９号,,04,104,9820011,,,,,,,2023-08-04,1,,,,,ヒヤクシャ,0
1575,5410005006533,新規,0,2023-08-04,2023-08-04,ＮＰＯ法人ファミリーネットワーク,,その他の設立登記法人,秋田県,大館市,清水町一丁目３番３４号,,05,204,0170000,,,,,,,2023-08-04,1,,,,,ファミリーネットワーク,0
1578,5420001018358,新規,0,2023-08-04,2023-08-04,株式会社津軽りんご組合,,株式会社,青森県,弘前市,大字高杉字神原２５０番地１１,,02,202,0368302,,,,,,,2023-08-04,1,,,,,ツガルリンゴクミアイ,0
1581,5430001089638,新規,0,2023-08-04,2023-08-04,フラワーヒルズ株式会社,,株式会社,北海道,勇払郡むかわ町,花岡５４６番地,,01,586,0540013,,,,,,,2023-08-04,1,,,,,フラワーヒルズ,0
1583,5460101007414,新規,0,2023-08-04,2023-08-04,株式会社リアルワークス,,株式会社,北海道,帯広市,西十九条北２丁目１３番地１６,,01,207,0802459,,,,,,,2023-08-04,1,,,,,リアルワークス,0
1584,5470001019731,新規,0,2023-08-04,2023-08-04,ナカザキテクニカルサービス株式会社,,株式会社,香川県,高松市,高松町７５１番地１,,37,201,7610104,,,,,,,2023-08-04,1,,,,,ナカザキテクニカルサービス,0
1586,5490001010556,新規,0,2023-08-04,2023-08-04,株式会社リオ・イーリオ,,株式会社,高知県,高知市,北高見町４６番地４,,39,201,7808028,,,,,,,2023-08-04,1,,,,,リオイーリオ,0
1589,5700150118780,新規,0,2023-08-04,2023-08-04,ＪＩＮＢＯＧＯＮＧＹＩＮＧＬＩＡＮ（ＳＨＥＮＺＨＥＮ）ＹＯＵＸＩＡＮＧＯＮＧＳＩ,,外国会社等,,,,,,,,ＦＵ　ＴＩＡＮ　ＱＵ　ＨＵＡ　ＱＩＡＮＧ　ＢＥＩ　ＪＩＥ　ＤＡＯ　ＬＩ　ＣＵＮ　ＳＨＥ　ＱＵ　ＨＯＮＧ　ＬＩ　ＬＵ　３８　ＨＡＯ　ＱＵＮ　ＸＩＮＧ　ＧＵＡＮＧ　ＳＨＥＮ　ＺＨＥＮ　ＳＨＩ　ＧＵＡＮＧ　ＤＯＮＧ　ＳＨＥＮＧ　５１８０２８　ＣＮ,,,,,,2023-08-04,1,,,,,ジンボーゴンインリェンシェンジェンヨウシェンゴンスー,0
1590,5700150118789,新規,0,2023-08-04,2023-08-04,Ｄｏｎｇｇｕａｎ　Ｌｅｉｌｅｉ　Ｐａｃｋａｇｉｎｇ　Ｓｅｒｖｉｃｅｓ　Ｃｏ．，Ｌｔｄ．,,外国会社等,,,,,,,,Ｒｏｏｍ　２０５，Ｂｕｉｌｄｉｎｇ　Ｎｏ．１，Ｑｉｎｇｘｉｂｅｉｈｕａｎ　Ｒｏａｄ　Ｎｏ．１５６　Ｑｉｎｇｘｉ　Ｔｏｗｎ　Ｄｏｎｇｇｕａｎ　Ｇｕａｎｇｄｏｎｇ　５２３６６０　ＣＮ,,,,,,2023-08-04,1,,,,,ドンワンシレイレイバオジュァンフゥウヨウシェンゴンスー,0
1591,5700150118797,新規,0,2023-08-04,2023-08-04,Ｓｈｅｎｚｈｅｎ　Ｈｅｎｇ　Ｃｈｕａｎｇ　Ｔｉａｎ　Ｘｉａ　Ｋｅ　Ｊｉ　Ｃｏ．，Ｌｔｄ．,,外国会社等,,,,,,,,ＣＮ，Ｇｕａｎｇｄｏｎｇｓｈｅｎｇ，ＳｈｅｎＺｈｅｎＳｈｉ，Ｂａｏａｎ　Ｆｕｙｏｎｇ　Ｈｕａｌｉ　Ｉｎｄｕｓｔｒｉａｌ　Ｐａｒｋ　Ｂｕｉｌｄｉｎｇ　３　５０３,,,,,,2023-08-04,1,,,,,シンセンヘンツゥアンテェンシャケジカンパニーリミテッド,0
1592,5700150118806,新規,0,2023-08-04,2023-08-04,ＮＩＮＧＢＯ　ＦＵＬＡＩＬＥ　ＪＩＮＣＨＵＫＯＵ　ＹＯＵＸＩＡＮ　ＧＯＮＧＳＩ,,外国会社等,,,,,,,,ＧＡＯ　ＸＩＮ　ＱＵ　ＪＩＡＮＧ　ＮＡＮ　ＬＵ　５９９ＨＡＯ　ＫＥ　ＪＩ　ＤＡ　ＳＨＡ　ＮＩＮＧＢＯ　ＺＨＥＪＩＡＮＧ,,,,,,2023-08-04,1,,,,,ニンボーフーライラジンチユウコウヨウシエンゴンス,0
1597,6010001237072,新規,0,2023-08-04,2023-08-04,株式会社ＢＥＬＬＥＴ,,株式会社,東京都,千代田区,丸の内１丁目１１番１号１３階,,13,101,1000005,,,,,,,2023-08-04,1,,,,,ベレット,0
1598,6010001237361,新規,0,2023-08-04,2023-08-04,株式会社小石川企画,,株式会社,東京都,文京区,小石川３丁目３２番６号,,13,105,1120002,,,,,,,2023-08-04,1,,,,,コイシカワキカク,0
1599,6010001237386,新規,0,2023-08-04,2023-08-04,ウィングス分割準備株式会社,,株式会社,東京都,中央区,銀座６丁目４番１７号,,13,102,1040061,,,,,,,2023-08-04,1,,,,,ウィングスブンカツジュンビ,0
1600,6010001237394,新規,0,2023-08-04,2023-08-04,株式会社Ｍｏｖｅｅ,,株式会社,東京都,中央区,銀座１丁目１２番４号Ｎ＆ＥＢＬＤ．７階,,13,102,1040061,,,,,,,2023-08-04,1,,,,,ムービー,0
1601,6010001237403,新規,0,2023-08-04,2023-08-04,株式会社Ｔｏｙｏｓｅｉ　Ｄｉｇｉｔａｌ　Ｂａｎｋ,,株式会社,東京都,千代田区,永田町２丁目１７番１７号４０６号室,,13,101,1000014,,,,,,,2023-08-04,1,,,,,トヨセイデジタルバンク,0
1602,6010001237436,新規,0,2023-08-04,2023-08-04,アルフェスティナ株式会社,,株式会社,東京都,中央区,日本橋２丁目１番１７号丹生ビル２階,,13,102,1030027,,,,,,,2023-08-04,1,,,,,アルフェスティナ,0
1604,6010003041084,新規,0,2023-08-04,2023-08-04,合同会社ｍｏｍｅｙ,,合同会社,東京都,中央区,銀座１丁目１２番４号Ｎ＆ＥＢＬＤ．６Ｆ,,13,102,1040061,,,,,,,2023-08-04,1,,,,,モメイ,0
1605,6010003041241,新規,0,2023-08-04,2023-08-04,Ｎｏｒｔｈ　Ｓｕｎ合同会社,,合同会社,東京都,中央区,日本橋室町１丁目２番６号日本橋大栄ビル７階,,13,102,1030022,,,,,,,2023-08-04,1,,,,,ノースサン,0
1608,6010005037048,新規,0,2023-08-04,2023-08-04,一般社団法人イクオリティ・みやび,,その他の設立登記法人,東京都,千代田区,大手町１丁目６番１号大手町ビルＳｐａｃｅｓ１Ｆ,,13,101,1000004,,,,,,,2023-08-04,1,,,,,イクオリティミヤビ,0
1609,6010005037056,新規,0,2023-08-04,2023-08-04,全東京葬祭業協同組合連合会,,その他の設立登記法人,東京都,文京区,目白台２丁目１４番１３号,,13,105,1120015,,,,,,,2023-08-04,1,,,,,ゼントウキョウソウサイギョウ,0
1614,6010401176110,新規,0,2023-08-04,2023-08-04,株式会社東京ザウルス,,株式会社,東京都,港区,西新橋１丁目１５番５号内幸町ケイズビル９階,,13,103,1050003,,,,,,,2023-08-04,1,,,,,トウキョウザウルス,0
1619,6010403030604,新規,0,2023-08-04,2023-08-04,ＯＦＦＩＣＥ　ＯＫＡＺＡＫＩ合同会社,,合同会社,東京都,港区,東麻布２丁目３５番１号ＫＣビル６Ｆ,,13,103,1060044,,,,,,,2023-08-04,1,,,,,オフィスオカザキ,0
1620,6010403030612,新規,0,2023-08-04,2023-08-04,合同会社リエゾン,,合同会社,東京都,港区,新橋１丁目１２番９号７Ｆ,,13,103,1050004,,,,,,,2023-08-04,1,,,,,リエゾン,0
1621,6010501050842,新規,0,2023-08-04,2023-08-04,株式会社アレックロード,,株式会社,東京都,台東区,竜泉１丁目２５番１０号土屋ビル２０２,,13,106,1100012,,,,,,,2023-08-04,1,,,,,アレックロード,0
1622,6010501050859,新規,0,2023-08-04,2023-08-04,ＥＦＩ株式会社,,株式会社,東京都,台東区,浅草橋５丁目２４番６号,,13,106,1110053,,,,,,,2023-08-04,1,,,,,イーエフアイ,0
1629,6010901053536,新規,0,2023-08-04,2023-08-04,ウリカイエステート株式会社,,株式会社,東京都,世田谷区,岡本２丁目１６番５－２０７号,,13,112,1570076,,,,,,,2023-08-04,1,,,,,ウリカイエステート,0
1630,6010903008348,新規,0,2023-08-04,2023-08-04,合同会社ワーク＆プレイ・イノベーションズ,,合同会社,東京都,世田谷区,船橋１丁目２８－１３第一富貴荘１０１,,13,112,1560055,,,,,,,2023-08-04,1,,,,,ワークアンドプレイイノベーションズ,0
1639,6011003017289,新規,0,2023-08-04,2023-08-04,合同会社オレンジ,,合同会社,東京都,渋谷区,円山町２番１６号ハーベストハウス円山,,13,113,1500044,,,,,,,2023-08-04,1,,,,,オレンジ,0
1646,6011103013337,新規,0,2023-08-04,2023-08-04,ＪＡＨＡＮＡＲＡ合同会社,,合同会社,東京都,新宿区,百人町２丁目１８番１８号ＭＴ３－１０７,,13,104,1690073,,,,,,,2023-08-04,1,,,,,ジャハナラ,0
1647,6011103013345,新規,0,2023-08-04,2023-08-04,合同会社エピジェネ,,合同会社,東京都,新宿区,西新宿３丁目３番１３号西新宿水間ビル６階,,13,104,1600023,,,,,,,2023-08-04,1,,,,,エピジェネ,0
1650,6011201024814,新規,0,2023-08-04,2023-08-04,株式会社ｍｉｒｕｋｉａ,,株式会社,東京都,中野区,弥生町２丁目４１番１７号東京コンテンツインキュベーションセンター,,13,114,1640013,,,,,,,2023-08-04,1,,,,,ミルキア,0
1658,6011801042827,新規,0,2023-08-04,2023-08-04,株式会社ＳＯＬＩＴＯ,,株式会社,東京都,葛飾区,東新小岩２丁目２１番６号,,13,122,1240023,,,,,,,2023-08-04,1,,,,,ソリト,0
1662,6012303001858,新規,0,2023-08-04,2023-08-04,ＱＵＩＮＫ合同会社,,合同会社,東京都,町田市,木曽東１丁目２６－２８,,13,209,1940036,,,,,,,2023-08-04,1,,,,,クインク,0
1670,6012801022546,新規,0,2023-08-04,2023-08-04,久盛株式会社,,株式会社,東京都,立川市,錦町１丁目１５－２０パークアベニュー立川２０７号,,13,202,1900022,,,,,,,2023-08-04,1,,,,,キュウセイ,0
1671,6012803003148,新規,0,2023-08-04,2023-08-04,合同会社ＪＡＰＡＮマネジメント,,合同会社,東京都,国立市,谷保４丁目２０－１ＪＵＮメビウス国立１Ｆ,,13,215,1860011,,,,,,,2023-08-04,1,,,,,ジャパンマネジメント,0
1695,6020001152824,新規,0,2023-08-04,2023-08-04,東洋リフォーム株式会社,,株式会社,神奈川県,横浜市戸塚区,柏尾町１４２１番地３７,,14,110,2440812,,,,,,,2023-08-04,1,,,,,トウヨウリフォーム,0
1696,6020001152873,新規,0,2023-08-04,2023-08-04,株式会社帝,,株式会社,神奈川県,横浜市港北区,新羽町９８８番地,,14,109,2230057,,,,,,,2023-08-04,1,,,,,ミカド,0
1702,6020003024328,新規,0,2023-08-04,2023-08-04,合同会社ＡＮＳＷＥＲ,,合同会社,神奈川県,横浜市神奈川区,新浦島町１丁目１番地１,,14,102,2210031,,,,,,,2023-08-04,1,,,,,アンサー,0
1703,6020003024336,新規,0,2023-08-04,2023-08-04,合同会社Ｂｒｏｔｈｅｒ　Ｃｏａｃｈｉｎｇ,,合同会社,神奈川県,横浜市西区,浅間町１丁目４番地３ウィザードビル４０２,,14,103,2200072,,,,,,,2023-08-04,1,,,,,ブラザーコーチング,0
1711,6021002074108,新規,0,2023-08-04,2023-08-04,有限会社三留工務店,,有限会社,神奈川県,藤沢市,藤沢３３１０番地５５,,14,205,2510052,,,,,,,2023-08-04,1,,,,,ミトメコウムテン,0
1720,6040001129449,新規,0,2023-08-04,2023-08-04,株式会社作旬,,株式会社,千葉県,木更津市,中里２丁目６番２０号,,12,206,2920064,,,,,,,2023-08-04,1,,,,,,0
1721,6040001129465,新規,0,2023-08-04,2023-08-04,株式会社トラスト,,株式会社,千葉県,市川市,南八幡３丁目６番１８号,,12,203,2720023,,,,,,,2023-08-04,1,,,,,トラスト,0
1722,6040001129473,新規,0,2023-08-04,2023-08-04,株式会社ＩＳＴ,,株式会社,千葉県,野田市,みずき４丁目１９番地の１６７,,12,208,2780027,,,,,,,2023-08-04,1,,,,,アイエスティー,0
1723,6040001129481,新規,0,2023-08-04,2023-08-04,株式会社ｌｉｖｉ,,株式会社,千葉県,千葉市美浜区,磯辺７丁目２７番９号,,12,106,2610012,,,,,,,2023-08-04,1,,,,,リヴィ,0
1724,6040001129523,新規,0,2023-08-04,2023-08-04,株式会社サンビルト,,株式会社,千葉県,習志野市,津田沼２丁目３番２１号,,12,216,2750016,,,,,,,2023-08-04,1,,,,,サンビルト,0
1725,6040003023055,新規,0,2023-08-04,2023-08-04,ＡＳＦＡ　ＭＩＮＥＲＡＬ　ＳＡＮＤＳ合同会社,,合同会社,千葉県,八街市,朝日２２６番地２２コーポ朝日ＩＩ１０１,00131408,12,230,2891101,,,,,,,2023-08-04,1,,,,,アスファミネラルサンズ,0
1733,6050003007692,新規,0,2023-08-04,2023-08-04,ＨＧビジネス合同会社,,合同会社,茨城県,常総市,水海道橋本町３２９１番地９,,08,211,3030003,,,,,,,2023-08-04,1,,,,,エイチジービジネス,0
1737,6060003004664,新規,0,2023-08-04,2023-08-04,合同会社和商,,合同会社,栃木県,那須塩原市,鍋掛１０８５番地６４２,,09,213,3250013,,,,,,,2023-08-04,1,,,,,カズショウ,0
1741,6080001025776,新規,0,2023-08-04,2023-08-04,株式会社ＳＮＡＩＬＳ,,株式会社,静岡県,静岡市葵区,伝馬町３番地の３クレストビルＢ１Ｆ,,22,101,4200858,,,,,,,2023-08-04,1,,,,,スネイルズ,0
1751,6110001037727,新規,0,2023-08-04,2023-08-04,株式会社モトスポーツ金沢,,株式会社,新潟県,南魚沼市,万条新田４８９番地５,,15,226,9496424,,,,,,,2023-08-04,1,,,,,モトスポーツカナザワ,0
1752,6110001037735,新規,0,2023-08-04,2023-08-04,ツバコー北陸販売株式会社,,株式会社,新潟県,新潟市中央区,東大通２丁目４番１０号,,15,103,9500087,,,,,,,2023-08-04,1,,,,,ツバコーホクリクハンバイ,0
1762,6120001256929,新規,0,2023-08-04,2023-08-04,株式会社Ｌａ　Ｃｏｅｕｒ,,株式会社,大阪府,大阪市西区,江戸堀１丁目６番１７－７０１号,,27,106,5500002,,,,,,,2023-08-04,1,,,,,ラクール,0
1763,6120001256945,新規,0,2023-08-04,2023-08-04,ハンシンメディ株式会社,,株式会社,大阪府,大阪市中央区,高津３丁目１４番１１－２００１号,,27,128,5420072,,,,,,,2023-08-04,1,,,,,ハンシンメディ,0
1764,6120001257010,新規,0,2023-08-04,2023-08-04,ＬＣＬ　Ｉｎｖｅｓｔｍｅｎｔ株式会社,,株式会社,大阪府,大阪市浪速区,浪速西３丁目５番１９号,,27,111,5560026,,,,,,,2023-08-04,1,,,,,エルシーエルインベストメント,0
1765,6120001257019,新規,0,2023-08-04,2023-08-04,コウパートナー株式会社,,株式会社,大阪府,大阪市住吉区,我孫子３丁目１１番２６号,,27,120,5580014,,,,,,,2023-08-04,1,,,,,コウパートナー,0
1766,6120001257027,新規,0,2023-08-04,2023-08-04,株式会社元璋朱,,株式会社,大阪府,大阪市中央区,瓦屋町２丁目２番２－１３０５号,,27,128,5420066,,,,,,,2023-08-04,1,,,,,ゲンショウシュ,0
1767,6120001257035,新規,0,2023-08-04,2023-08-04,マエカワＴ＆Ｓ株式会社,,株式会社,大阪府,大阪市阿倍野区,阪南町３丁目２７番６号,,27,119,5450021,,,,,,,2023-08-04,1,,,,,マエカワティアンドエス,0
1773,6120103005341,新規,0,2023-08-04,2023-08-04,ＨＹ合同会社,,合同会社,大阪府,阪南市,黒田３０１番地,,27,232,5990203,,,,,,,2023-08-04,1,,,,,エチワイ,0
1774,6120903004765,新規,0,2023-08-04,2023-08-04,合同会社ジェイエスエイチエー,,合同会社,大阪府,高槻市,日吉台五番町１０―４,,27,207,5691022,,,,,,,2023-08-04,1,,,,,ジェイエスエイチエー,0
1776,6122001037210,新規,0,2023-08-04,2023-08-04,株式会社戎工務店,,株式会社,大阪府,東大阪市,吉田本町２丁目４番４８号,,27,227,5780982,,,,,,,2023-08-04,1,,,,,エビスコウムテン,0
1777,6122001037219,新規,0,2023-08-04,2023-08-04,八光化学工業株式会社,,株式会社,大阪府,大東市,氷野３丁目１６番２６号,,27,218,5740062,,,,,,,2023-08-04,1,,,,,ハッコウカガクコウギョウ,0
1778,6122001037235,新規,0,2023-08-04,2023-08-04,株式会社ＮＡＫＡＨＩＲＯ,,株式会社,大阪府,大東市,深野北３丁目１番８号,,27,218,5740071,,,,,,,2023-08-04,1,,,,,ナカヒロ,0
1782,6130001074859,新規,0,2023-08-04,2023-08-04,明瀚堂株式会社,,株式会社,京都府,京都市左京区,上高野東山７１番地１－１Ｆ,,26,103,6060067,,,,,,,2023-08-04,1,,,,,メイカンドウ,0
1783,6130001074891,新規,0,2023-08-04,2023-08-04,株式会社ＡＲＵＭＯＮ,,株式会社,京都府,京都市伏見区,醍醐下山口町８番地Ａ３棟５１２号,,26,109,6011343,,,,,,,2023-08-04,1,,,,,アルモン,0
1784,6130001074900,新規,0,2023-08-04,2023-08-04,株式会社三和,,株式会社,京都府,相楽郡南山城村,大字北大河原小字釜ノ子２９番４３０,,26,367,6191411,,,,,,,2023-08-04,1,,,,,サンワ,0
1788,6140001131080,新規,0,2023-08-04,2023-08-04,株式会社埼玉商会,,株式会社,兵庫県,尼崎市,北大物町１４番１４号,,28,202,6600804,,,,,,,2023-08-04,1,,,,,サイタマショウカイ,0
1789,6140001131122,新規,0,2023-08-04,2023-08-04,株式会社Ｃｒａｖｅ,,株式会社,兵庫県,神戸市兵庫区,西出町２丁目１６－２３プレサンスＴＨＥ神戸１４０８,,28,105,6520822,,,,,,,2023-08-04,1,,,,,クレイヴ,0
1790,6140001131130,新規,0,2023-08-04,2023-08-04,株式会社ＭＫ３,,株式会社,兵庫県,神戸市灘区,記田町４丁目２番２６－２０１号,,28,102,6570034,,,,,,,2023-08-04,1,,,,,エムケイスリイ,0
1793,6150001026602,新規,0,2023-08-04,2023-08-04,Ｆｒｅａｔｅ株式会社,,株式会社,奈良県,北葛城郡王寺町,明神３丁目１４番７号,,29,425,6360022,,,,,,,2023-08-04,1,,,,,フリエイト,0
1794,6150003003021,新規,0,2023-08-04,2023-08-04,合同会社河野不動産管理,,合同会社,奈良県,生駒市,門前町２番２１号,,29,209,6300266,,,,,,,2023-08-04,1,,,,,カワノフドウサンカンリ,0
1797,6160001025231,新規,0,2023-08-04,2023-08-04,株式会社喜左エ門,,株式会社,滋賀県,栗東市,出庭２０６８番地２,,25,208,5203041,,,,,,,2023-08-04,1,,,,,キザエモン,0
1804,6180001157386,新規,0,2023-08-04,2023-08-04,株式会社ＺＯＯＭＴＥＣＨ,,株式会社,愛知県,名古屋市熱田区,三番町５番１３号－１ラファージュ東海通２０３号,,23,109,4560056,,,,,,,2023-08-04,1,,,,,ズームテック,0
1805,6180001157411,新規,0,2023-08-04,2023-08-04,さんこうじゅ株式会社,,株式会社,愛知県,名古屋市北区,楠味鋺２丁目８０２番地,,23,103,4620014,,,,,,,2023-08-04,1,,,,,サンコウジュ,0
1806,6180001157436,新規,0,2023-08-04,2023-08-04,株式会社Ｄｅａｒ　Ｍｅ,,株式会社,愛知県,名古屋市西区,那古野２丁目１４番１号,,23,104,4510042,,,,,,,2023-08-04,1,,,,,ディアミー,0
1808,6180003025566,新規,0,2023-08-04,2023-08-04,合同会社ニコニコ,,合同会社,愛知県,尾張旭市,新居町明才切２７１７番地,,23,226,4880074,,,,,,,2023-08-04,1,,,,,ニコニコ,0
1809,6180003025574,新規,0,2023-08-04,2023-08-04,合同会社サクラ２２,,合同会社,愛知県,名古屋市北区,楠２丁目３６５番地,,23,103,4620012,,,,,,,2023-08-04,1,,,,,サクラニジュウニ,0
1810,6180301037619,新規,0,2023-08-04,2023-08-04,株式会社Ｙ＆ＫＳコーポレーション,,株式会社,愛知県,豊田市,高岡町池端８１番地,,23,211,4730933,,,,,,,2023-08-04,1,,,,,ワイアンドケイエス,0
1811,6180301037643,新規,0,2023-08-04,2023-08-04,株式会社岩瀬商会,,株式会社,愛知県,豊川市,為当町市木３６番地の６,,23,207,4420845,,,,,,,2023-08-04,1,,,,,イワセショウカイ,0
1827,6210003001679,新規,0,2023-08-04,2023-08-04,合同会社ティアンティマネジメント,,合同会社,福井県,坂井市,丸岡町板倉第３３号２４番地,,18,210,9100325,,,,,,,2023-08-04,1,,,,,ティアンティマネジメント,0
1828,6220001025530,新規,0,2023-08-04,2023-08-04,株式会社ＢＣメンテ,,株式会社,石川県,金沢市,才田町甲２０３番地,,17,201,9203101,,,,,,,2023-08-04,1,,,,,ビーシーメンテ,0
1831,6240001061912,新規,0,2023-08-04,2023-08-04,株式会社オオタ電工,,株式会社,広島県,竹原市,下野町２９８５番地１０,,34,203,7250012,,,,,,,2023-08-04,1,,,,,オオタデンコウ,0
1832,6250001020223,新規,0,2023-08-04,2023-08-04,誠和商事株式会社,,株式会社,山口県,宇部市,山門４丁目６－１５,,35,202,7550077,,,,,,,2023-08-04,1,,,,,セイワショウジ,0
1839,6260001038165,新規,0,2023-08-04,2023-08-04,株式会社Ｌｉｅｎ,,株式会社,岡山県,倉敷市,浜ノ茶屋１５３番地２,,33,202,7100061,,,,,,,2023-08-04,1,,,,,リアン,0
1840,6260001038173,新規,0,2023-08-04,2023-08-04,株式会社ＥＭ企画,,株式会社,岡山県,真庭市,開田６２１番地１０,,33,214,7193111,,,,,,,2023-08-04,1,,,,,イーエムキカク,0
1849,6290001102471,新規,0,2023-08-04,2023-08-04,サンアセット株式会社,,株式会社,福岡県,福岡市中央区,平和３丁目１８番１号,,40,133,8100016,,,,,,,2023-08-04,1,,,,,サンアセット,0
1850,6290001102505,新規,0,2023-08-04,2023-08-04,宇航人キャピタル株式会社,,株式会社,福岡県,福岡市博多区,博多駅南２丁目８－３５,,40,132,8120016,,,,,,,2023-08-04,1,,,,,ウコウジンキャピタル,0
1854,6290003014129,新規,0,2023-08-04,2023-08-04,合同会社イイハマキカク,,合同会社,福岡県,福岡市東区,香椎浜３丁目３－５－３２０８,,40,131,8130016,,,,,,,2023-08-04,1,,,,,イイハマキカク,0
1855,6290003014194,新規,0,2023-08-04,2023-08-04,オオタニ合同会社,,合同会社,福岡県,宗像市,自由ヶ丘４丁目９番地４,,40,220,8114163,,,,,,,2023-08-04,1,,,,,オオタニ,0
1861,6310003004614,新規,0,2023-08-04,2023-08-04,合同会社Ｓｐｉｒｉｔ,,合同会社,長崎県,西彼杵郡時津町,浜田郷６８１番地１,,42,308,8512102,,,,,,,2023-08-04,1,,,,,スピリット,0
1863,6320001019919,新規,0,2023-08-04,2023-08-04,株式会社岳,,株式会社,大分県,玖珠郡玖珠町,大字太田１４７３番地の１,,44,462,8794521,,,,,,,2023-08-04,1,,,,,ガク,0
1869,6340001025766,新規,0,2023-08-04,2023-08-04,株式会社ナノ,,株式会社,鹿児島県,鹿児島市,武２丁目２７番７号,,46,201,8900045,,,,,,,2023-08-04,1,,,,,ナノ,0
1888,6420001018349,新規,0,2023-08-04,2023-08-04,株式会社大山農園,,株式会社,青森県,三戸郡五戸町,大字切谷内字佐野前谷地７８番地１,,02,442,0391502,,,,,,,2023-08-04,1,,,,,オオヤマノウエン,0
1893,6460101007413,新規,0,2023-08-04,2023-08-04,株式会社ＴＫサポート,,株式会社,北海道,広尾郡広尾町,公園通南２丁目５番地１,,01,642,0892622,,,,,,,2023-08-04,1,,,,,ティーケーサポート,0
1898,6470001019730,新規,0,2023-08-04,2023-08-04,株式会社エントラスト,,株式会社,香川県,高松市,鬼無町藤井６２５番地１,,37,201,7618024,,,,,,,2023-08-04,1,,,,,エントラスト,0
1900,6490001010555,新規,0,2023-08-04,2023-08-04,株式会社ＢｅｓｔＯｎｅ,,株式会社,高知県,高知市,神田１０４９番地１シャーメゾンフラーリッシュＩ－２０２号室,00131394,39,201,7808040,,,,,,,2023-08-04,1,,,,,ベストワン,0
1906,6500001025106,新規,0,2023-08-04,2023-08-04,にしうわフーズ株式会社,,株式会社,愛媛県,八幡浜市,五反田２番耕地１３３８番地９２,,38,204,7968010,,,,,,,2023-08-04,1,,,,,ニシウワフーズ,0
1910,6700150109440,新規,0,2023-08-04,2022-06-10,奄美大島世界遺産センター管理運営協議会,,その他,鹿児島県,奄美市,住用町大字石原４６７番地１,,46,222,8941201,,,,,,,2022-06-10,1,,,,,アマミオオシマセカイイサンセンターカンリウンエイキヨウギカイ,0
1911,6700150118788,新規,0,2023-08-04,2023-08-04,ｗｕｘｉｍｕｚｉｘｉｎｇｄｉａｎｚｉｓｈａｎｇｗｕｙｏｕｘｉａｎｇｏｎｇｓｉ,,外国会社等,,,,,,,,ｈｕｉｓｈａｎｑｕｇａｏｌｉｑｉｃｈｅｂｏｌａｎｃｈｅｎｇ　２－２０９　Ｗｕｘｉ　Ｊｉａｎｇｓｕ　２１４０００　ＣＮ,,,,,,2023-08-04,1,,,,,ウーシームゥズーシンディエンズーシャンウヨウシェンゴンスー,0
1912,6700150118796,新規,0,2023-08-04,2023-08-04,ｓｈｅｎｚｈｅｎｓｈｉ　ｋｕｂｉｌｅ　ｄｉａｎｚｉ　ｋｅｊｉ　ｙｏｕｘｉａｎ　ｇｏｎｇｓｉ,,外国会社等,,,,,,,,ｂａｏａｎｑｕ　ｘｉｘｉａｎｇｊｉｅｄａｏ　ｇｕｓｈｕｓｈｅｑｕ　ｈｏｎｇｗａｎ　ｄｉｅｒｇｏｎｇｙｅｑｕ　Ｃ５＃　ｃｈａｎｇｆａｎｇ４０１　Ｓｈｅｎｚｈｅｎｓｈｉ　Ｇｕａｎｇｄｏｎｇｓｈｅｎｇ　Ｃｈｉｎａ,,,,,,2023-08-04,1,,,,,シンセンシクビレデンシケジユウゲンコウシ,0
1913,6700150118805,新規,0,2023-08-04,2023-08-04,ｊｉｎｈｕａｇａｉｌｉｓｈｉｓｈａｎｇｍａｏｙｏｕｘｉａｎｇｏｎｇｓｉ,,外国会社等,,,,,,,,ｂａｉｌｏｎｇｑｉａｏｚｈｅｎ　ｌｏｎｇｑｉａｎｎａｎｊｉｅ　１１５８　ｈａｏ　ＪＩＮＨＵＡ　ＺＨＥＪＩＡＮＧ　３２１０２５　ＣＮ,,,,,,2023-08-04,1,,,,,ジンホアガイリーシシヤンマオヨウシエンゴンス,0
1915,7010001237377,新規,0,2023-08-04,2023-08-04,Ｌｏｎｇｋａｒｍａ株式会社,,株式会社,東京都,中央区,入船１丁目８番５号,,13,102,1040042,,,,,,,2023-08-04,1,,,,,ロンカルマ,0
1916,7010001237385,新規,0,2023-08-04,2023-08-04,ダイワロイネットマネジメント株式会社,,株式会社,東京都,千代田区,飯田橋２丁目１８番２号,,13,101,1020072,,,,,,,2023-08-04,1,,,,,ダイワロイネットマネジメント,0
1917,7010001237393,新規,0,2023-08-04,2023-08-04,株式会社プラットローム,,株式会社,東京都,中央区,新川１丁目３番２１号,,13,102,1040033,,,,,,,2023-08-04,1,,,,,プラットローム,0
1918,7010001237443,新規,0,2023-08-04,2023-08-04,株式会社豊藤,,株式会社,東京都,中央区,日本橋箱崎町１４番７号２０２室,,13,102,1030015,,,,,,,2023-08-04,1,,,,,トヨフジ,0
1919,7010003041257,新規,0,2023-08-04,2023-08-04,合同会社スペース・フォルティア,,合同会社,東京都,文京区,春日１丁目９番２７－３０２号,,13,105,1120003,,,,,,,2023-08-04,1,,,,,スペースフォルティア,0
1920,7010003041273,新規,0,2023-08-04,2023-08-04,ａｎｄＡパートナーズ合同会社,,合同会社,東京都,千代田区,東神田３丁目２－４東神田サマリヤマンション４０６,,13,101,1010031,,,,,,,2023-08-04,1,,,,,アンドエーパートナーズ,0
1921,7010003041281,新規,0,2023-08-04,2023-08-04,麒麟３合同会社,,合同会社,東京都,中央区,八丁堀４丁目２番１０号ＡＯＪ税理士法人内,,13,102,1040032,,,,,,,2023-08-04,1,,,,,キリンスリー,0
1927,7010005037055,新規,0,2023-08-04,2023-08-04,一般社団法人ムラサキ,,その他の設立登記法人,東京都,中央区,銀座１丁目６番１１号土志田ビルディング３Ｆ,,13,102,1040061,,,,,,,2023-08-04,1,,,,,ムラサキ,0
1930,7010401176167,新規,0,2023-08-04,2023-08-04,株式会社ＳＵＮＮＹ　ＲＯＡＤ,,株式会社,東京都,港区,六本木６丁目１２番２－８０７号,,13,103,1060032,,,,,,,2023-08-04,1,,,,,サニーロード,0
1933,7010403030611,新規,0,2023-08-04,2023-08-04,合同会社ＦｌｙＨｉｇｈ,,合同会社,東京都,港区,新橋１丁目１２番９号７Ｆ,,13,103,1050004,,,,,,,2023-08-04,1,,,,,フライハイ,0
1939,7010601063545,新規,0,2023-08-04,2023-08-04,株式会社ＺＯＺＥ,,株式会社,東京都,江東区,大島４丁目１８番１０号,,13,108,1360072,,,,,,,2023-08-04,1,,,,,ゾゼ,0
1942,7010701044668,新規,0,2023-08-04,2023-08-04,ＣＲＡＳＳＵＬＡ株式会社,,株式会社,東京都,品川区,西五反田１丁目２６番２号五反田サンハイツ９１１,,13,109,1410031,,,,,,,2023-08-04,1,,,,,クラッスラ,0
1949,7010901053543,新規,0,2023-08-04,2023-08-04,株式会社Ｕ,,株式会社,東京都,世田谷区,玉堤１丁目２０番２２号フェリーチェ２０１,,13,112,1580087,,,,,,,2023-08-04,1,,,,,ユー,0
1950,7010901053551,新規,0,2023-08-04,2023-08-04,株式会社のざわ緑耕,,株式会社,東京都,世田谷区,野沢３丁目２９番２３号,,13,112,1540003,,,,,,,2023-08-04,1,,,,,ノザワリョクコウ,0
1951,7010903008355,新規,0,2023-08-04,2023-08-04,合同会社あべや,,合同会社,東京都,世田谷区,等々力２丁目２０番１３号,,13,112,1580082,,,,,,,2023-08-04,1,,,,,アベヤ,0
1954,7011001156063,新規,0,2023-08-04,2023-08-04,株式会社ｔ‐Ｒｏｕｔｅ,,株式会社,東京都,目黒区,八雲３丁目１１－１６,,13,110,1520023,,,,,,,2023-08-04,1,,,,,ティールート,0
1955,7011001156071,新規,0,2023-08-04,2023-08-04,株式会社オルトブレイン,,株式会社,東京都,渋谷区,神宮前６丁目２３番４号桑野ビル２階,,13,113,1500001,,,,,,,2023-08-04,1,,,,,オルトブレイン,0
1958,7011003017296,新規,0,2023-08-04,2023-08-04,合同会社Ｓｕｎ　ｆｏｒ　ＡＬＬ,,合同会社,東京都,渋谷区,広尾５丁目１４番２号,,13,113,1500012,,,,,,,2023-08-04,1,,,,,サンフォーオール,0
1961,7011101103849,新規,0,2023-08-04,2023-08-04,株式会社ヒトタス,,株式会社,東京都,新宿区,西新宿６丁目３番１号,,13,104,1600023,,,,,,,2023-08-04,1,,,,,ヒトタス,0
1962,7011101103873,新規,0,2023-08-04,2023-08-04,ＧｏＧｅｎ　Ｌａｎｇｕａｇｅｓ株式会社,,株式会社,東京都,新宿区,新宿２丁目１３番１０号,,13,104,1600022,,,,,,,2023-08-04,1,,,,,ゴゲンランゲージズ,0
1967,7011201024813,新規,0,2023-08-04,2023-08-04,株式会社イレリオ,,株式会社,東京都,中野区,中野４丁目１０番２号２階,,13,114,1640001,,,,,,,2023-08-04,1,,,,,イレリオ,0
1969,7011401025339,新規,0,2023-08-04,2023-08-04,株式会社橋川興業,,株式会社,東京都,板橋区,小豆沢４丁目２２番１２号,,13,119,1740051,,,,,,,2023-08-04,1,,,,,ハシカワコウギョウ,0
1970,7011403004068,新規,0,2023-08-04,2023-08-04,合同会社Ｆｕｊｉ,,合同会社,東京都,板橋区,西台３丁目２２番８号,,13,119,1750045,,,,,,,2023-08-04,1,,,,,フジ,0
1976,7011801042826,新規,0,2023-08-04,2023-08-04,株式会社ｅｐｃ,,株式会社,東京都,足立区,竹の塚６丁目１４番２号,,13,121,1210813,,,,,,,2023-08-04,1,,,,,エピック,0
1977,7012303001857,新規,0,2023-08-04,2023-08-04,合同会社ｃａｌｍｅ,,合同会社,東京都,町田市,広袴２丁目１０番地１３ビオスいせづくり１０１,,13,209,1950056,,,,,,,2023-08-04,1,,,,,カルム,0
1991,7020001152831,新規,0,2023-08-04,2023-08-04,株式会社エミネンス,,株式会社,神奈川県,横浜市泉区,和泉町７８９７番地,,14,116,2450016,,,,,,,2023-08-04,1,,,,,エミネンス,0
1992,7020003024319,新規,0,2023-08-04,2023-08-04,ＫＴ合同会社,,合同会社,神奈川県,横浜市磯子区,磯子２丁目２番１６号,,14,107,2350016,,,,,,,2023-08-04,1,,,,,カテ,0
1994,7021001079809,新規,0,2023-08-04,2023-08-04,ＩＺＮＡ　ＩＮＴＥＲＮＡＴＩＯＮＡＬ株式会社,,株式会社,神奈川県,相模原市中央区,田名４２７６番地１サニーハイツＡ１０１,,14,152,2520244,,,,,,,2023-08-04,1,,,,,イズナインターナショナル,0
2012,7040001129472,新規,0,2023-08-04,2023-08-04,ｍａｓｓｅｎｔｍｔ株式会社,,株式会社,千葉県,千葉市中央区,富士見２丁目７－９富士見ビル６０４号,,12,101,2600015,,,,,,,2023-08-04,1,,,,,マスエンターテイメント,0
2013,7040001129506,新規,0,2023-08-04,2023-08-04,株式会社ＬＡＮＹ,,株式会社,千葉県,千葉市花見川区,幕張町５丁目４１７番地１０５ダイアパレス幕張１１０３号,,12,102,2620032,,,,,,,2023-08-04,1,,,,,レイニー,0
2014,7040001129530,新規,0,2023-08-04,2023-08-04,株式会社ブルースカイサービス,,株式会社,千葉県,船橋市,高野台５丁目１９１番地２２,,12,204,2740801,,,,,,,2023-08-04,1,,,,,ブルースカイサービス,0
2016,7040003023054,新規,0,2023-08-04,2023-08-04,合同会社輝,,合同会社,千葉県,船橋市,二子町４８６番１０号ハイツニュートーク２０１,,12,204,2730034,,,,,,,2023-08-04,1,,,,,アキラ,0
2024,7070001040684,新規,0,2023-08-04,2023-08-04,株式会社ＦＴＳ,,株式会社,群馬県,高崎市,島野町１０８１番地４,,10,202,3700015,,,,,,,2023-08-04,1,,,,,エフティエス,0
2029,7100001036638,新規,0,2023-08-04,2023-08-04,株式会社アルファーム,,株式会社,長野県,東御市,八重原４５０番地１,,20,219,3890406,,,,,,,2023-08-04,1,,,,,アルファーム,0
2030,7100001036646,新規,0,2023-08-04,2023-08-04,ＥｉｓｅｉＭｅｔａｌ株式会社,,株式会社,長野県,佐久市,下小田切５０１番地７,,20,217,3840303,,,,,,,2023-08-04,1,,,,,エイセイメタル,0
2031,7100001036654,新規,0,2023-08-04,2023-08-04,信州山麓株式会社,,株式会社,長野県,諏訪郡下諏訪町,４７０５番地２,,20,361,3930000,,,,,,,2023-08-04,1,,,,,シンシュウサンロク,0
2034,7110001037726,新規,0,2023-08-04,2023-08-04,株式会社Ｓ‐ＣＲＥＡＴＥ,,株式会社,新潟県,新潟市北区,彩野２丁目３番地１４,,15,101,9503377,,,,,,,2023-08-04,1,,,,,エスクリエイト,0
2048,7120001256944,新規,0,2023-08-04,2023-08-04,トーケイメディ株式会社,,株式会社,大阪府,大阪市中央区,高津３丁目１４番１１－２００１号,,27,128,5420072,,,,,,,2023-08-04,1,,,,,トーケイメディ,0
2049,7120001256960,新規,0,2023-08-04,2023-08-04,株式会社たま商事,,株式会社,大阪府,大阪市城東区,今福西６丁目２番２－９０２号,,27,118,5360004,,,,,,,2023-08-04,1,,,,,タマショウジ,0
2050,7120001256985,新規,0,2023-08-04,2023-08-04,株式会社メタリティ,,株式会社,大阪府,大阪市中央区,大手前１丁目４番２－１００３号,,27,128,5400008,,,,,,,2023-08-04,1,,,,,メタリティ,0
2051,7120001257018,新規,0,2023-08-04,2023-08-04,株式会社ｖｉｖｉａｎａ,,株式会社,大阪府,大阪市西区,北堀江２丁目８－１７オービットステージ北堀江９０１,,27,106,5500014,,,,,,,2023-08-04,1,,,,,ヴィヴィアナ,0
2052,7120001257042,新規,0,2023-08-04,2023-08-04,株式会社ウイズメルク,,株式会社,大阪府,大阪市中央区,博労町３丁目６－１４ＴＡＧ北心斎橋ビル５０３,,27,128,5410059,,,,,,,2023-08-04,1,,,,,ウイズメルク,0
2053,7120001257075,新規,0,2023-08-04,2023-08-04,株式会社ｃｒｅａｔｅ,,株式会社,大阪府,大阪市北区,大淀中３丁目１－１９－７０１,,27,127,5310076,,,,,,,2023-08-04,1,,,,,クリエイト,0
2056,7120003024639,新規,0,2023-08-04,2023-08-04,合同会社ＣＵＴＶＩＳＩＯＮ,,合同会社,大阪府,大阪市住之江区,粉浜１丁目１５－１８,,27,125,5590001,,,,,,,2023-08-04,1,,,,,カットビジョン,0
2057,7120003024647,新規,0,2023-08-04,2023-08-04,合同会社ＨＯＮＥＹ　ＭＥＤＩＡ,,合同会社,大阪府,大阪市北区,梅田１丁目２番２号大阪駅前第２ビル１２－１２,,27,127,5300001,,,,,,,2023-08-04,1,,,,,ハニーメディア,0
2058,7120005023795,新規,0,2023-08-04,2023-08-04,一般社団法人大阪防災,,その他の設立登記法人,大阪府,寝屋川市,打上新町１２番１号,,27,215,5720859,,,,,,,2023-08-04,1,,,,,オオサカボウサイ,0
2060,7120101067960,新規,0,2023-08-04,2023-08-04,株式会社ＭＯＴＨＥＲ　ＴＲＥＥ,,株式会社,大阪府,和泉市,箕形町２丁目１１番４０号,,27,219,5940042,,,,,,,2023-08-04,1,,,,,マザーツリー,0
2063,7120903004764,新規,0,2023-08-04,2023-08-04,クリーバルネットワークス合同会社,,合同会社,大阪府,茨木市,井口台９番１０号,,27,211,5670076,,,,,,,2023-08-04,1,,,,,クリーバルネットワークス,0
2066,7122001037218,新規,0,2023-08-04,2023-08-04,三城株式会社,,株式会社,大阪府,東大阪市,御厨南２丁目４番４５号北野ビル３１１号室,,27,227,5770034,,,,,,,2023-08-04,1,,,,,サンジョウ,0
2067,7122001037226,新規,0,2023-08-04,2023-08-04,株式会社ＮＶ　ＡＵＴＯ,,株式会社,大阪府,東大阪市,弥生町１５番１１号,,27,227,5798026,,,,,,,2023-08-04,1,,,,,エヌブイオート,0
2068,7122001037234,新規,0,2023-08-04,2023-08-04,株式会社白鯉,,株式会社,大阪府,八尾市,久宝寺６丁目６番１８号,,27,212,5810072,,,,,,,2023-08-04,1,,,,,シロコイ,0
2077,7140001131096,新規,0,2023-08-04,2023-08-04,株式会社ｓｏａｒｓ,,株式会社,兵庫県,姫路市,神子岡前４丁目１０番１７号前田メゾネットＣ,,28,201,6700055,,,,,,,2023-08-04,1,,,,,ソアーズ,0
2078,7140001131105,新規,0,2023-08-04,2023-08-04,株式会社建徳,,株式会社,兵庫県,神戸市兵庫区,兵庫町１丁目２－１２－５０４,,28,105,6520813,,,,,,,2023-08-04,1,,,,,ケントク,0
2085,7150001026601,新規,0,2023-08-04,2023-08-04,株式会社万葉建設,,株式会社,奈良県,香芝市,旭ケ丘３丁目４番２６,,29,210,6390266,,,,,,,2023-08-04,1,,,,,マンヨウケンセツ,0
2086,7150003003020,新規,0,2023-08-04,2023-08-04,合同会社リジョイス・ファミリー,,合同会社,奈良県,橿原市,雲梯町３９０番地の２９,,29,205,6340834,,,,,,,2023-08-04,1,,,,,リジョイスファミリー,0
2087,7160001025230,新規,0,2023-08-04,2023-08-04,エスワンサポート株式会社,,株式会社,滋賀県,大津市,浜大津２丁目１番２８号森田ビル５Ｆ,,25,201,5200047,,,,,,,2023-08-04,1,,,,,エスワンサポート,0
2088,7160001025239,新規,0,2023-08-04,2023-08-04,ＥＩＷＡ　ＨＯＭＥ株式会社,,株式会社,滋賀県,栗東市,小柿６丁目１番２２号１階,,25,208,5203024,,,,,,,2023-08-04,1,,,,,エイワホーム,0
2100,7180003025549,新規,0,2023-08-04,2023-08-04,合同会社ＭＡＩＴＡＳＴＵＤＩＯ,,合同会社,愛知県,春日井市,堀ノ内町北１丁目６８番地,,23,206,4860828,,,,,,,2023-08-04,1,,,,,マイタスタジオ,0
2101,7180003025565,新規,0,2023-08-04,2023-08-04,合同会社ノックオン,,合同会社,愛知県,清須市,一場福島１２３７番地,,23,233,4520000,,,,,,,2023-08-04,1,,,,,ノックオン,0
2103,7180301037642,新規,0,2023-08-04,2023-08-04,株式会社ｃｏｌｏｒ　ｏｆ　ｌｉｆｅ,,株式会社,愛知県,岡崎市,日名南町１番地４５,,23,202,4440915,,,,,,,2023-08-04,1,,,,,カラーオブライフ,0
2104,7180301037650,新規,0,2023-08-04,2023-08-04,株式会社クリエーション,,株式会社,愛知県,豊橋市,大崎町字西里中９番地１,,23,201,4418073,,,,,,,2023-08-04,1,,,,,クリエーション,0
2105,7180303005787,新規,0,2023-08-04,2023-08-04,合同会社リカーシブ,,合同会社,愛知県,碧南市,三宅町１丁目５３番地,,23,209,4470026,,,,,,,2023-08-04,1,,,,,リカーシブ,0
2107,7190001030624,新規,0,2023-08-04,2023-08-04,きたざわ農園株式会社,,株式会社,三重県,津市,神納町４番４６－２号,,24,201,5140052,,,,,,,2023-08-04,1,,,,,キタザワノウエン,0
2116,7240001061903,新規,0,2023-08-04,2023-08-04,ひさやま建設株式会社,,株式会社,広島県,呉市,阿賀南６丁目７番３６号,,34,202,7370004,,,,,,,2023-08-04,1,,,,,ヒサヤマケンセツ,0
2123,7260001038180,新規,0,2023-08-04,2023-08-04,株式会社ＳｕＬｅａＤ,,株式会社,岡山県,岡山市南区,藤田６６６番地５１,,33,104,7010221,,,,,,,2023-08-04,1,,,,,スリード,0
2131,7290001102487,新規,0,2023-08-04,2023-08-04,株式会社トライ,,株式会社,福岡県,福岡市早良区,田村４丁目１９番３４号,,40,137,8140175,,,,,,,2023-08-04,1,,,,,トライ,0
2132,7290003014177,新規,0,2023-08-04,2023-08-04,合同会社ラポール,,合同会社,福岡県,飯塚市,幸袋７８１番地２５８,,40,205,8200066,,,,,,,2023-08-04,1,,,,,ラポール,0
2135,7290801029756,新規,0,2023-08-04,2023-08-04,株式会社中野運送,,株式会社,福岡県,田川郡添田町,大字庄２３９１番地１,,40,602,8240601,,,,,,,2023-08-04,1,,,,,ナカノウンソウ,0
2149,7360001032355,新規,0,2023-08-04,2023-08-04,株式会社メンテナンスパーツＥＣＯ,,株式会社,沖縄県,南城市,大里字稲嶺５０３番地,,47,215,9011204,,,,,,,2023-08-04,1,,,,,メンテナンスパーツエコ,0
2155,7370001050249,新規,0,2023-08-04,2023-08-04,株式会社賢栄,,株式会社,宮城県,刈田郡蔵王町,大字曲竹字欠山２０番地１１,,04,301,9890851,,,,,,,2023-08-04,1,,,,,ケンエイ,0
2162,7380003005530,新規,0,2023-08-04,2023-08-04,ホシエステート合同会社,,合同会社,福島県,南会津郡南会津町,和泉田字稲場５６０８番地,,07,368,9670641,,,,,,,2023-08-04,1,,,,,ホシエステート,0
2163,7400003003127,新規,0,2023-08-04,2023-08-04,合同会社たかみ屋,,合同会社,岩手県,盛岡市,肴町３番２０号,,03,201,0200878,,,,,,,2023-08-04,1,,,,,タカミヤ,0
2166,7420001018348,新規,0,2023-08-04,2023-08-04,株式会社大新,,株式会社,青森県,上北郡七戸町,字森ノ下３１番地２２,,02,402,0392815,,,,,,,2023-08-04,1,,,,,ダイシン,0
2169,7430001089545,新規,0,2023-08-04,2023-08-04,株式会社ＴＨＥ　ＬＯＢＳ,,株式会社,北海道,虻田郡喜茂別町,字喜茂別１６３‐７,,01,398,0440201,,,,,,,2023-08-04,1,,,,,ザロブス,0
2174,7460103001545,新規,0,2023-08-04,2023-08-04,合同会社ＴＳトレーディング,,合同会社,北海道,帯広市,西十六条南１丁目５番７号,,01,207,0800026,,,,,,,2023-08-04,1,,,,,ティーエストレーディング,0
2179,7700150118779,新規,0,2023-08-04,2023-08-04,Ｚｈｏｎｇｓｈａｎｓｈｉｓｈａｎｈｕｆａｎｇｄｉａｎｚｉｓｈａｎｇｗｕｙｏｕｘｉａｎｇｏｎｇｓｉ,,外国会社等,,,,,,,,Ｚｈｏｎｇｓｈａｎｓｈｉｈｕｏｊｕｋａｉｆａｑｕｇｕａｎｇｊｉｘｉｌｕ３ｈａｏＢ３ｚｈｕａｎｇｙｉｌｏｕｄｉ８ｋａ　５２８４３７　ＣＮ,,,,,,2023-08-04,1,,,,,ジョンシャンシシャンフゥファンディエンズーシャンウヨウシェンゴンスー,0
2180,7700150118787,新規,0,2023-08-04,2023-08-04,Ｗｅｎｚｈｏｕ　Ｌｕｏｃｈｅｎｇ　Ｔｅｃｈｎｏｌｏｇｙ　Ｃｏ．，Ｌｔｄ．,,外国会社等,,,,,,,,ＲＵＩＡＮＳＨＩ，ＨＵＬＩＮＧＺＨＥＮ，ＳＨＩＣＨＡＮＧＬＵ２６ＨＡＯ　ＷＥＮＺＨＯＵ　ＺＨＥＪＩＡＮＧ　３２５２１３　ＣＮ,,,,,,2023-08-04,1,,,,,ウェンジョウシルオチョンカージヨウシェンゴンスー,0
2181,7700150118795,新規,0,2023-08-04,2023-08-04,Ｓｈｅｎｚｈｅｎ　Ｓｈｅｎｇｄｉｄａ　Ｔｅｃｈｎｏｌｏｇｙ　Ｃｏ．，Ｌｔｄ,,外国会社等,,,,,,,,ｌｏｎｇｇａｎｇｑｕ　ｐｉｎｇｈｕｊｉｅｄａｏ　ｈｅｈｕａｓｈｅｑｕ　ｈｕａｎａｎｄａｄａｏ　１ｈａｏ　ｈｕａｎａｎｃｈｅｎｇ　ｈｕａｎｑｉｕｗｕｌｉｕｚｈｏｎｇｘｉｎ　５０７　ｓｈｅｎｚｈｅｎ，ｇｕａｎｇｄｏｎｇ　Ｃｈｉｎａ,,,,,,2023-08-04,1,,,,,シンセンセンディダテクノロジーカンパニーリミテッド,0
2182,7700150118804,新規,0,2023-08-04,2023-08-04,Ｎｏｋｔａ　Ｅｎｇｉｎｅｅｒｉｎｇ　ＧＭＢＨ,,外国会社等,,,,,,,,ＢＵＮＤＥ－ＷＥＳＴ　２８，２６８３１　ＧＥＲＭＡＮＹ,,,,,,2023-08-04,1,,,,,ノクタエンジニアリングジーエムビーエイチ,0
2186,8010001237401,新規,0,2023-08-04,2023-08-04,Ｋａｒａｋｏｒａｍ準備株式会社,,株式会社,東京都,千代田区,丸の内３丁目３番１号新東京ビル,,13,101,1000005,,,,,,,2023-08-04,1,,,,,カラコラムジュンビ,0
2187,8010001237418,新規,0,2023-08-04,2023-08-04,株式会社ＥｖｏＸ,,株式会社,東京都,千代田区,神田岩本町１５－１ＣＹＫ神田岩本町Ｂ１Ｆ２２番,,13,101,1010033,,,,,,,2023-08-04,1,,,,,エヴォックス,0
2188,8010001237434,新規,0,2023-08-04,2023-08-04,株式会社ＢＥＡＲ,,株式会社,東京都,中央区,日本橋横山町１０－９,,13,102,1030003,,,,,,,2023-08-04,1,,,,,ベア,0
2189,8010003041248,新規,0,2023-08-04,2023-08-04,合同会社Ｍ’ｓ　Ｊｏｉｅ,,合同会社,東京都,千代田区,神田和泉町一丁目６番１６号ヤマトビル４０５,,13,101,1010024,,,,,,,2023-08-04,1,,,,,エムズジョワ,0
2190,8010003041256,新規,0,2023-08-04,2023-08-04,ＷＬＪＳＨ合同会社,,合同会社,東京都,千代田区,丸の内３丁目１番１号東京共同会計事務所内,,13,101,1000005,,,,,,,2023-08-04,1,,,,,ダブリューエルジェイエスエイチ,0
2192,8010005037038,新規,0,2023-08-04,2023-08-04,一般社団法人中部太陽光開発,,その他の設立登記法人,東京都,中央区,日本橋１丁目４番１号,,13,102,1030027,,,,,,,2023-08-04,1,,,,,チュウブタイヨウコウカイハツ,0
2193,8010005037046,新規,0,2023-08-04,2023-08-04,一般社団法人７代目タイガーマスク・プロジェクト,,その他の設立登記法人,東京都,千代田区,三崎町二丁目９番５号,,13,101,1000000,,,,,,,2023-08-04,1,,,,,ナナダイメタイガーマスクプロジェクト,0
2194,8010005037062,新規,0,2023-08-04,2023-08-04,麒麟３ホールディング一般社団法人,,その他の設立登記法人,東京都,中央区,八丁堀４丁目２番１０号ＡＯＪ税理士法人内,,13,102,1040032,,,,,,,2023-08-04,1,,,,,キリンスリーホールディング,0
2199,8010401176091,新規,0,2023-08-04,2023-08-04,Ｙｏｌｏ　Ｔｅｃｈｎｏｌｏｇｙ株式会社,,株式会社,東京都,港区,浜松町２丁目４－１世界貿易センタービルディング南館１７階,,13,103,1050013,,,,,,,2023-08-04,1,,,,,ヨロテクノロジー,0
2202,8010403030619,新規,0,2023-08-04,2023-08-04,合同会社Ｋ,,合同会社,東京都,港区,赤坂７丁目６番５６号エクセル赤坂３０４,,13,103,1070052,,,,,,,2023-08-04,1,,,,,ケイ,0
2203,8010403030627,新規,0,2023-08-04,2023-08-04,萬代人事経営コンサルティング合同会社,,合同会社,東京都,港区,南青山７丁目１番２７－７１２号,,13,103,1070062,,,,,,,2023-08-04,1,,,,,マンダイジンジケイエイコンサルティング,0
2209,8010701044667,新規,0,2023-08-04,2023-08-04,株式会社日本音響広告社,,株式会社,東京都,品川区,西大井１丁目１番２号Ｊタワー西大井イーストタワー２階,,13,109,1400015,,,,,,,2023-08-04,1,,,,,ニホンオンキョウコウコクシャ,0
2213,8010901053550,新規,0,2023-08-04,2023-08-04,株式会社かわしま電気商会,,株式会社,東京都,世田谷区,喜多見２丁目７番７号,,13,112,1570067,,,,,,,2023-08-04,1,,,,,カワシマデンキショウカイ,0
2214,8010903008354,新規,0,2023-08-04,2023-08-04,合同会社大澤,,合同会社,東京都,世田谷区,下馬１丁目６番６－１０３号,,13,112,1540002,,,,,,,2023-08-04,1,,,,,オオサワ,0
2220,8011001155997,新規,0,2023-08-04,2023-08-04,株式会社絆マーケティング,,株式会社,東京都,渋谷区,道玄坂２丁目１１番６号ＴＯＰ・ＨＩＬＬＳ・ＧＡＲＤＥＮ道玄坂１１階０１号室,,13,113,1500043,,,,,,,2023-08-04,1,,,,,キズナマーケティング,0
2221,8011001156054,新規,0,2023-08-04,2023-08-04,Ｎｅｋｏｎｏｍｉｋｏｎ株式会社,,株式会社,東京都,渋谷区,神宮前６丁目２８－９東武ビル３Ｆ,,13,113,1500001,,,,,,,2023-08-04,1,,,,,ネコノミコン,0
2222,8011001156062,新規,0,2023-08-04,2023-08-04,株式会社Ｌａｙｅｒｓ,,株式会社,東京都,渋谷区,鶯谷町３番４,,13,113,1500032,,,,,,,2023-08-04,1,,,,,レイヤーズ,0
2223,8011001156087,新規,0,2023-08-04,2023-08-04,株式会社ＷＡＫＡ,,株式会社,東京都,目黒区,自由が丘１丁目１３番１０号,,13,110,1520035,,,,,,,2023-08-04,1,,,,,ワカ,0
2224,8011003017295,新規,0,2023-08-04,2023-08-04,合同会社Ｌｅａｆ　Ｃｒａｆｔ,,合同会社,東京都,渋谷区,道玄坂１丁目１０番８号渋谷道玄坂東急ビル２Ｆ－Ｃ,,13,113,1500043,,,,,,,2023-08-04,1,,,,,リーフクラフト,0
2225,8011003017304,新規,0,2023-08-04,2023-08-04,合同会社ｍｏｉ,,合同会社,東京都,渋谷区,渋谷２丁目１９番１５号宮益坂ビルディング６０９,,13,113,1500002,,,,,,,2023-08-04,1,,,,,モイ,0
2226,8011003017312,新規,0,2023-08-04,2023-08-04,合同会社ＭＩＹＩＭ,,合同会社,東京都,渋谷区,渋谷２丁目１９‐１５宮益坂ビルディング６０９,,13,113,1500002,,,,,,,2023-08-04,1,,,,,ミィム,0
2227,8011005010166,新規,0,2023-08-04,2023-08-04,一般社団法人環境まちづくり支援機構,,その他の設立登記法人,東京都,渋谷区,道玄坂１丁目２１番１号,,13,113,1500043,,,,,,,2023-08-04,1,,,,,カンキョウマチヅクリシエンキコウ,0
2232,8011105010743,新規,0,2023-08-04,2023-08-04,ＮＰＯ法人百歳現役,,その他の設立登記法人,東京都,新宿区,西新宿１丁目８番１号新宿ビルディング７階,,13,104,1600023,,,,,,,2023-08-04,1,,,,,ヒャクサイゲンエキ,0
2233,8011201024812,新規,0,2023-08-04,2023-08-04,株式会社ハーベストライズ,,株式会社,東京都,中野区,中央１丁目２６番６－４０４号,,13,114,1640011,,,,,,,2023-08-04,1,,,,,ハーベストライズ,0
2239,8011501029593,新規,0,2023-08-04,2023-08-04,株式会社リライブ東京,,株式会社,東京都,荒川区,西日暮里２丁目３２番１８号１階,,13,118,1160013,,,,,,,2023-08-04,1,,,,,リライブトウキョウ,0
2240,8011501029619,新規,0,2023-08-04,2023-08-04,株式会社エイトスタイル,,株式会社,東京都,荒川区,町屋２丁目１６番１５－２０２号,,13,118,1160001,,,,,,,2023-08-04,1,,,,,エイトスタイル,0
2241,8011501029627,新規,0,2023-08-04,2023-08-04,和生商事株式会社,,株式会社,東京都,北区,滝野川７丁目３８番１１－１０１号,,13,117,1140023,,,,,,,2023-08-04,1,,,,,ワセイショウジ,0
2249,8011801042817,新規,0,2023-08-04,2023-08-04,ＳＡＫＵＲＡ　ＪＡＰＡＮ株式会社,,株式会社,東京都,足立区,入谷２丁目２４番１９号,,13,121,1210836,,,,,,,2023-08-04,1,,,,,サクラジャパン,0
2253,8012303001856,新規,0,2023-08-04,2023-08-04,合同会社アールアイ,,合同会社,東京都,町田市,南町田２丁目２３－３３,,13,209,1940005,,,,,,,2023-08-04,1,,,,,アールアイ,0
2254,8012401040814,新規,0,2023-08-04,2023-08-04,株式会社赤川工業,,株式会社,東京都,調布市,多摩川３丁目２番地１ブライトヒルズ調布４０６,,13,208,1820025,,,,,,,2023-08-04,1,,,,,アカガワコウギョウ,0
2261,8012801022544,新規,0,2023-08-04,2023-08-04,株式会社タイムアドバンテージ,,株式会社,東京都,東大和市,南街６丁目１２番地の８,,13,220,2070014,,,,,,,2023-08-04,1,,,,,タイムアドバンテージ,0
2263,8013301051158,新規,0,2023-08-04,2023-08-04,株式会社アクロビジョンイノベーションズ,,株式会社,東京都,豊島区,東池袋１丁目３５番３号池袋センタービル８階,,13,116,1700013,,,,,,,2023-08-04,1,,,,,アクロビジョンイノベーションズ,0
2269,8020001152806,新規,0,2023-08-04,2023-08-04,株式会社三矢,,株式会社,神奈川県,横浜市港北区,日吉１丁目１０番２６号,,14,109,2230061,,,,,,,2023-08-04,1,,,,,ミツヤ,0
2277,8021001079799,新規,0,2023-08-04,2023-08-04,株式会社あかつき,,株式会社,神奈川県,鎌倉市,御成町１５番３９号,,14,204,2480012,,,,,,,2023-08-04,1,,,,,アカツキ,0
2285,8030001155205,新規,0,2023-08-04,2023-08-04,株式会社悠悠ホーム,,株式会社,埼玉県,春日部市,大枝８９武里団地第１街区第８号棟第５０８号室,,11,214,3440023,,,,,,,2023-08-04,1,,,,,ハルハルホーム,0
2289,8040001129471,新規,0,2023-08-04,2023-08-04,株式会社ＡＴラボ,,株式会社,千葉県,松戸市,松戸１３０７－１松戸ビル１３階１３０２,,12,207,2710092,,,,,,,2023-08-04,1,,,,,エーティーラボ,0
2296,8040003023053,新規,0,2023-08-04,2023-08-04,エムドット合同会社,,合同会社,千葉県,茂原市,茂原西７番地１７,,12,210,2970039,,,,,,,2023-08-04,1,,,,,エムドット,0
2302,8050003007690,新規,0,2023-08-04,2023-08-04,合同会社秋桜,,合同会社,茨城県,坂東市,中里９７３番地３,,08,228,3060634,,,,,,,2023-08-04,1,,,,,コスモス,0
2314,8080401026629,新規,0,2023-08-04,2023-08-04,株式会社ＯＮＥ　Ｇｒｏｕｐ,,株式会社,静岡県,袋井市,神長８番地の１２,,22,216,4370028,,,,,,,2023-08-04,1,,,,,ワングループ,0
2316,8100005013054,新規,0,2023-08-04,2023-08-04,一般社団法人信州アライアンス,,その他の設立登記法人,長野県,松本市,旭３丁目１番１号,,20,202,3900802,,,,,,,2023-08-04,1,,,,,シンシュウアライアンス,0
2317,8110001037733,新規,0,2023-08-04,2023-08-04,株式会社包’寿,,株式会社,新潟県,燕市,杉名９６８番地１,,15,213,9591273,,,,,,,2023-08-04,1,,,,,ホウジュ,0
2326,8120001256935,新規,0,2023-08-04,2023-08-04,株式会社ＷＡＶＥ,,株式会社,大阪府,大阪市浪速区,恵美須西２丁目１４番９－１００２号,,27,111,5560003,,,,,,,2023-08-04,1,,,,,ウェーブ,0
2327,8120001256976,新規,0,2023-08-04,2023-08-04,株式会社鰻家,,株式会社,大阪府,大阪市淀川区,西中島４丁目５番２２号,,27,123,5320011,,,,,,,2023-08-04,1,,,,,ウナギヤ,0
2328,8120001256984,新規,0,2023-08-04,2023-08-04,株式会社ブレッシング,,株式会社,大阪府,門真市,脇田町３１－２０,,27,223,5710011,,,,,,,2023-08-04,1,,,,,ブレッシング,0
2329,8120001257000,新規,0,2023-08-04,2023-08-04,株式会社とばり,,株式会社,大阪府,大阪市中央区,島之内１丁目７－１７－３０２,,27,128,5420082,,,,,,,2023-08-04,1,,,,,トバリ,0
2330,8120001257009,新規,0,2023-08-04,2023-08-04,ＭａｎｎａＷｏｒｌｄ株式会社,,株式会社,大阪府,大阪市中央区,瓦屋町２丁目１５番４号,,27,128,5420066,,,,,,,2023-08-04,1,,,,,マナワールド,0
2331,8120001257017,新規,0,2023-08-04,2023-08-04,株式会社アルバ,,株式会社,大阪府,大阪市東成区,中本３丁目９番２０－８０６号,,27,115,5370022,,,,,,,2023-08-04,1,,,,,アルバ,0
2332,8120001257025,新規,0,2023-08-04,2023-08-04,和信商事株式会社,,株式会社,大阪府,大阪市浪速区,日本橋東３丁目７－７,,27,111,5560006,,,,,,,2023-08-04,1,,,,,ワシンショウジ,0
2333,8120001257033,新規,0,2023-08-04,2023-08-04,株式会社ＢｔｏＡｌｌ,,株式会社,大阪府,大阪市西区,南堀江１丁目１６番１１号,,27,106,5500015,,,,,,,2023-08-04,1,,,,,ビートゥーオール,0
2334,8120001257041,新規,0,2023-08-04,2023-08-04,オニミン株式会社,,株式会社,大阪府,大阪市住之江区,南港北１丁目２９番１－５０３号,,27,125,5590034,,,,,,,2023-08-04,1,,,,,オニミン,0
2335,8120001257058,新規,0,2023-08-04,2023-08-04,Ｆ＆Ｍ株式会社,,株式会社,大阪府,大阪市城東区,東中浜１丁目１２番９号,,27,118,5360023,,,,,,,2023-08-04,1,,,,,エフアンドエム,0
2336,8120001257066,新規,0,2023-08-04,2023-08-04,株式会社煌進,,株式会社,大阪府,大阪市生野区,中川西１丁目１７番２１号,,27,116,5440032,,,,,,,2023-08-04,1,,,,,コウシン,0
2337,8120003024638,新規,0,2023-08-04,2023-08-04,合同会社メタクリエイト,,合同会社,大阪府,寝屋川市,中木田町３１－２２－３０１,,27,215,5720820,,,,,,,2023-08-04,1,,,,,メタクリエイト,0
2341,8120101067968,新規,0,2023-08-04,2023-08-04,株式会社ＫＵＢＯＴＡ,,株式会社,大阪府,堺市中区,深井清水町３５１０,,27,142,5998273,,,,,,,2023-08-04,1,,,,,クボタ,0
2342,8120101067976,新規,0,2023-08-04,2023-08-04,スイートレモン株式会社,,株式会社,大阪府,富田林市,桜井町１丁目１２番５７－２号,,27,214,5840013,,,,,,,2023-08-04,1,,,,,スイートレモン,0
2343,8120101067984,新規,0,2023-08-04,2023-08-04,株式会社ラポール,,株式会社,大阪府,羽曳野市,誉田６丁目１１番２０号,,27,222,5830857,,,,,,,2023-08-04,1,,,,,ラポール,0
2346,8120103005356,新規,0,2023-08-04,2023-08-04,益岡興産合同会社,,合同会社,大阪府,岸和田市,荒木町１丁目２５番１３号,,27,202,5960004,,,,,,,2023-08-04,1,,,,,マスオカコウサン,0
2347,8120901047863,新規,0,2023-08-04,2023-08-04,株式会社Ｄｉｂｅｒｔａｓ,,株式会社,大阪府,摂津市,東正雀１９番１６－１０５号,,27,224,5660025,,,,,,,2023-08-04,1,,,,,ディベルタス,0
2348,8122001037209,新規,0,2023-08-04,2023-08-04,株式会社ＧＬＯＷ,,株式会社,大阪府,東大阪市,西堤本通西２丁目２番１８号,,27,227,5770046,,,,,,,2023-08-04,1,,,,,グロー,0
2349,8122001037217,新規,0,2023-08-04,2023-08-04,大林設備株式会社,,株式会社,大阪府,八尾市,北木の本４丁目６２番地の１,,27,212,5810041,,,,,,,2023-08-04,1,,,,,オオバヤシセツビ,0
2352,8130001074873,新規,0,2023-08-04,2023-08-04,株式会社ａｖａｎｚａｒ,,株式会社,京都府,宇治市,槇島町幡貫１８番地,,26,204,6110041,,,,,,,2023-08-04,1,,,,,アヴァンサール,0
2353,8130003008895,新規,0,2023-08-04,2023-08-04,合同会社インデックス,,合同会社,京都府,京都市西京区,川島松ノ木本町６－４－３０３,,26,111,6158102,,,,,,,2023-08-04,1,,,,,インデックス,0
2361,8140001131095,新規,0,2023-08-04,2023-08-04,株式会社ＳＡＫＩＧＡＫＥ,,株式会社,兵庫県,小野市,浄谷町字寺山２３０番地の５７,,28,218,6751317,,,,,,,2023-08-04,1,,,,,サキガケ,0
2362,8140001131104,新規,0,2023-08-04,2023-08-04,株式会社ＣＬＪ,,株式会社,兵庫県,尼崎市,塚口本町２丁目２８－１８,,28,202,6610001,,,,,,,2023-08-04,1,,,,,シーエルジェー,0
2367,8150001026591,新規,0,2023-08-04,2023-08-04,株式会社Ｌ．Ｈ．Ｔ．,,株式会社,奈良県,奈良市,帝塚山１丁目２６番１６号,00131392,29,201,6310062,,,,,,,2023-08-04,1,,,,,エルエイチティー,0
2376,8180001157392,新規,0,2023-08-04,2023-08-04,株式会社昭和不動産サービス,,株式会社,愛知県,名古屋市昭和区,阿由知通３丁目１８番地の２向田ビル２０１,,23,107,4660027,,,,,,,2023-08-04,1,,,,,ショウワフドウサンサービス,0
2377,8180001157401,新規,0,2023-08-04,2023-08-04,株式会社新晃鉄工,,株式会社,愛知県,稲沢市,千代３丁目３３番地,,23,220,4928403,,,,,,,2023-08-04,1,,,,,シンコウテッコウ,0
2378,8180001157418,新規,0,2023-08-04,2023-08-04,株式会社アースまもる,,株式会社,愛知県,瀬戸市,池田町２０６番地の５,,23,204,4890952,,,,,,,2023-08-04,1,,,,,アースマモル,0
2379,8180001157426,新規,0,2023-08-04,2023-08-04,ＭＯＣ　ＪＡＰＡＮ株式会社,,株式会社,愛知県,一宮市,大江１丁目１番１０号,,23,203,4910851,,,,,,,2023-08-04,1,,,,,モックジャパン,0
2380,8180001157434,新規,0,2023-08-04,2023-08-04,株式会社長谷川工務店,,株式会社,愛知県,一宮市,桜２丁目９番１０号,,23,203,4910036,,,,,,,2023-08-04,1,,,,,ハセガワコウムテン,0
2384,8180005020316,新規,0,2023-08-04,2023-08-04,社会保険労務士法人いとう労務経営事務所,,その他の設立登記法人,愛知県,春日井市,石尾台４丁目１番地１,,23,206,4870006,,,,,,,2023-08-04,1,,,,,イトウロウムケイエイジムショ,0
2387,8180301037633,新規,0,2023-08-04,2023-08-04,株式会社コノユビトマレ,,株式会社,愛知県,額田郡幸田町,大字久保田字一之小屋６４番地,,23,501,4440102,,,,,,,2023-08-04,1,,,,,コノユビトマレ,0
2388,8180303005794,新規,0,2023-08-04,2023-08-04,合同会社エムエスジー,,合同会社,愛知県,岡崎市,真伝吉祥１丁目２７番地９,,23,202,4443176,,,,,,,2023-08-04,1,,,,,エムエスジー,0
2389,8190001030623,新規,0,2023-08-04,2023-08-04,株式会社ジュリル,,株式会社,三重県,四日市市,西新地７番３号,,24,202,5100087,,,,,,,2023-08-04,1,,,,,ジュリル,0
2390,8190001030631,新規,0,2023-08-04,2023-08-04,株式会社ＬＭプロパティ,,株式会社,三重県,四日市市,新正４丁目１番１号Ａｎｔｉｎａ３階,,24,202,5100064,,,,,,,2023-08-04,1,,,,,エルエムプロパティ,0
2394,8210003001677,新規,0,2023-08-04,2023-08-04,合同会社Ｂｅｓｔ　ｌｉｆｅ,,合同会社,福井県,越前市,平林町第１９号６０番地,,18,209,9150044,,,,,,,2023-08-04,1,,,,,ベストライフ,0
2395,8220001025529,新規,0,2023-08-04,2023-08-04,ＡＬＣ株式会社,,株式会社,石川県,七尾市,石崎町タ部４番地２５,,17,202,9260171,,,,,,,2023-08-04,1,,,,,エーエルシー,0
2407,8250001020221,新規,0,2023-08-04,2023-08-04,大輝建設株式会社,,株式会社,山口県,光市,光井８丁目２４番１３号サンミッシェル光井１０１号,,35,210,7430011,,,,,,,2023-08-04,1,,,,,ダイキケンセツ,0
2416,8290001102461,新規,0,2023-08-04,2023-08-04,株式会社３ｐｅａｃｅ福岡,,株式会社,福岡県,糟屋郡久山町,大字山田１２３８番地トリアスＣＤ棟０６Ａ,,40,348,8112502,,,,,,,2023-08-04,1,,,,,スリーピースフクオカ,0
2417,8290001102478,新規,0,2023-08-04,2023-08-04,株式会社土地未来,,株式会社,福岡県,福岡市中央区,渡辺通１丁目１１番１１号,,40,133,8100004,,,,,,,2023-08-04,1,,,,,トチミライ,0
2418,8290001102486,新規,0,2023-08-04,2023-08-04,株式会社中島組,,株式会社,福岡県,柳川市,弥四郎町１７４番地２,,40,207,8320057,,,,,,,2023-08-04,1,,,,,ナカシマグミ,0
2419,8290001102503,新規,0,2023-08-04,2023-08-04,株式会社ＳｔａｒｔＵｓ,,株式会社,福岡県,福岡市中央区,大名２丁目１番３０号ＡＩビルＡ館２０２,,40,133,8100041,,,,,,,2023-08-04,1,,,,,スタータス,0
2420,8290001102511,新規,0,2023-08-04,2023-08-04,株式会社山口工芸,,株式会社,福岡県,福岡市南区,向新町２丁目７番１号,,40,134,8111345,,,,,,,2023-08-04,1,,,,,ヤマグチコウゲイ,0
2441,8370001050231,新規,0,2023-08-04,2023-08-04,株式会社小野寺グリーンファーム,,株式会社,宮城県,大崎市,古川沢田字中門１８番地,,04,215,9896232,,,,,,,2023-08-04,1,,,,,オノデラグリーンファーム,0
2442,8370001050248,新規,0,2023-08-04,2023-08-04,ＡＬＩＳＯＮＳ　ＴＲＡＤＩＮＧ株式会社,,株式会社,宮城県,仙台市太白区,八木山松波町２番２１号アカデミックハイツ２０７,,04,104,9820836,,,,,,,2023-08-04,1,,,,,アリソンズトレーディング,0
2446,8380001033887,新規,0,2023-08-04,2023-08-04,株式会社ワイズファクトリー,,株式会社,福島県,郡山市,大槻町字仁池向９番地の１０６,,07,203,9630201,,,,,,,2023-08-04,1,,,,,ワイズファクトリー,0
2447,8380001033895,新規,0,2023-08-04,2023-08-04,株式会社樹工房古張建設,,株式会社,福島県,東白川郡矢祭町,大字関岡字天神沢９３番地２,,07,482,9635321,,,,,,,2023-08-04,1,,,,,ミキコウボウコバリケンセツ,0
2457,8400003003126,新規,0,2023-08-04,2023-08-04,合同会社ＹＳＣ,,合同会社,岩手県,一関市,萩荘字境ノ神３１６番地,,03,209,0210902,,,,,,,2023-08-04,1,,,,,ワイエスシー,0
2458,8410001013563,新規,0,2023-08-04,2023-08-04,株式会社リバーフィールド,,株式会社,秋田県,横手市,山内土渕字茂竹１００番地,,05,203,0191108,,,,,,,2023-08-04,1,,,,,,0
2469,8460103001544,新規,0,2023-08-04,2023-08-04,合同会社ＫＯＡ,,合同会社,北海道,帯広市,西二条南６丁目１番地,,01,207,0800012,,,,,,,2023-08-04,1,,,,,コア,0
2471,8470003002468,新規,0,2023-08-04,2023-08-04,さぬきクラフト合同会社,,合同会社,香川県,高松市,元山町６１２番地１３,,37,201,7610311,,,,,,,2023-08-04,1,,,,,サヌキクラフト,0
2477,8700150113845,新規,0,2023-08-04,2023-01-20,白川村シルバ－人材センタ－,,その他,岐阜県,大野郡白川村,大字鳩谷５１７,,21,604,5015629,,,,,,,2023-01-20,1,,,,,シラカワムラシルバージンザイセンター,0
2478,8700150118786,新規,0,2023-08-04,2023-08-04,Ｇｕａｎｇｚｈｏｕ　Ｈｏｐｋｉｎｋｓ　Ｔｒａｄｉｎｇ　Ｃｏｍｐａｎｙ　Ｌｔｄ,,外国会社等,,,,,,,,４０３３，Ｂｕｉｌｄｉｎｇ　１，Ｎｏ．２，Ｚｈｕａｎｃｈａｎｇ　Ｒｏａｄ，Ｚｈｏｎｇｙｉ　Ｖｉｌｌａｇｅ　Ｉｎｄｕｓｔｒｉａｌ　Ｚｏｎｅ，Ｚｈｏｎｇｃｕｎ　Ｓｔｒｅｅｔ，Ｐａｎｙｕ　Ｄｉｓｔｒｉｃｔ　Ｇｕａｎｇｚｈｏｕ　Ｇｕａｎｇｄｏｎｇ　５１１４００　ＣＮ,,,,,,2023-08-04,1,,,,,グァンジョウホジンスーマオイーヨウシェンゴンスー,0
2479,8700150118794,新規,0,2023-08-04,2023-08-04,Ｇｕａｎｇｄｏｎｇ　Ｍｉｌｅａｇｅ　Ｉｎｄｕｓｔｒｉａｌ　Ｉｎｖｅｓｔｍｅｎｔ　Ｃｏ．，Ｌｔｄ．,,外国会社等,,,,,,,,Ｂ３１１，Ｂｕｉｌｄｉｎｇ　Ｂ，Ｆｕｈａｉ　Ｓｃｉｅｎｃｅ　ａｎｄ　Ｔｅｃｈｎｏｌｏｇｙ　Ｉｎｄｕｓｔｒｉａｌ　Ｐａｒｋ，Ｈｕａｆｅｎｇ　Ｚｈｉｇｕ　Ｈｏｎｇｐａｉ　Ｉｎｄｕｓｔｒｉａｌ　Ｐａｒｋ，Ｘｉｎｈｅ　Ｃｏｍｍｕｎｉｔｙ，Ｆｕｈａｉ　Ｓｔｒｅｅｔ，Ｂａｏａｎ　Ｄｉｓｔｒｉｃｔ，Ｓｈｅｎｚｈｅｎ，Ｇｕａｎｇｄｏｎｇ，Ｃｈｉｎａ,,,,,,2023-08-04,1,,,,,カントンマイリジインダストリアルインヴェストメントカンパニーリミテッド,0
2480,8700150118803,新規,0,2023-08-04,2023-08-04,Ｆｉｇｍａ，Ｉｎｃ．,,外国会社等,,,,,,,,７６０　Ｍａｒｋｅｔ　Ｓｔｒｅｅｔ，１０ｔｈ　Ｆｌｏｏｒ，Ｓａｎ　Ｆｒａｎｃｉｓｃｏ，ＣＡ　９４１０２　ＵＳ,,,,,,2023-08-04,1,,,,,フイグマインク,0
2484,9010001237318,新規,0,2023-08-04,2023-08-04,Ｉｎｆｏｌｉｎｅ　Ｔｅｃ　Ｊａｐａｎ株式会社,,株式会社,東京都,中央区,日本橋３丁目９番１号日本橋三丁目スクエア１１階,,13,102,1030027,,,,,,,2023-08-04,1,,,,,インフォラインテックジャパン,0
2485,9010001237326,新規,0,2023-08-04,2023-08-04,Ｋａｗａｇｕｃｈｉ　Ｍｉｎａｍｉｈａｔｏｇａｙａ　Ｒｅａｌ　Ｅｓｔａｔｅ株式会社,,株式会社,東京都,千代田区,西神田３丁目８番１号,,13,101,1010065,,,,,,,2023-08-04,1,,,,,カワグチミナミハトガヤリアルエステート,0
2486,9010001237367,新規,0,2023-08-04,2023-08-04,株式会社ケイツーブレインズ,,株式会社,東京都,中央区,日本橋小舟町８番１３号,,13,102,1030024,,,,,,,2023-08-04,1,,,,,ケイツーブレインズ,0
2487,9010001237375,新規,0,2023-08-04,2023-08-04,株式会社ｆｕｃａｎ,,株式会社,東京都,中央区,東日本橋２丁目２８番４号日本橋ＣＥＴビル２階,,13,102,1030004,,,,,,,2023-08-04,1,,,,,フカン,0
2488,9010001237391,新規,0,2023-08-04,2023-08-04,株式会社ＵｓＴＯ,,株式会社,東京都,千代田区,麹町６丁目２番地６ＰＭＯ麹町４階,,13,101,1020083,,,,,,,2023-08-04,1,,,,,アスト,0
2489,9010001237400,新規,0,2023-08-04,2023-08-04,ＯＭＳ株式会社,,株式会社,東京都,文京区,本郷４丁目１０番６－４０２号,,13,105,1130033,,,,,,,2023-08-04,1,,,,,オーエムエス,0
2490,9010001237409,新規,0,2023-08-04,2023-08-04,帝人リジェネット株式会社,,株式会社,東京都,千代田区,霞が関３丁目２番１号霞が関コモンゲート西館,,13,101,1000013,,,,,,,2023-08-04,1,,,,,テイジンリジェネット,0
2491,9010001237417,新規,0,2023-08-04,2023-08-04,株式会社メディファコネクト,,株式会社,東京都,中央区,日本橋室町１丁目１２－１２水島ビル３Ｆ,,13,102,1030022,,,,,,,2023-08-04,1,,,,,メディファコネクト,0
2496,9010003041247,新規,0,2023-08-04,2023-08-04,ソーラーリバティ合同会社,,合同会社,東京都,中央区,八丁堀４丁目２番１０号ＡＯＪ税理士法人内,,13,102,1040032,,,,,,,2023-08-04,1,,,,,ソーラーリバティ,0
2497,9010003041296,新規,0,2023-08-04,2023-08-04,合同会社Ｋ＆Ｚ　Ｓｙｓｔｅｍｓ,,合同会社,東京都,千代田区,神田和泉町１番地６－１６ヤマトビル４０５,,13,101,1010024,,,,,,,2023-08-04,1,,,,,ケーアンドゼットシステムズ,0
2500,9010005037053,新規,0,2023-08-04,2023-08-04,一般社団法人ＷＬＪＳＨ,,その他の設立登記法人,東京都,千代田区,丸の内３丁目１番１号東京共同会計事務所内,,13,101,1000005,,,,,,,2023-08-04,1,,,,,ダブリューエルジェイエスエイチ,0
2501,9010005037061,新規,0,2023-08-04,2023-08-04,一般社団法人法律書デジタル図書館,,その他の設立登記法人,東京都,千代田区,神田神保町２丁目１２番４号エスペランサ神田神保町ＩＩＩ,00131400,13,101,1010051,,,,,,,2023-08-04,1,,,,,ホウリツショデジタルトショカン,0
2514,9010401176082,新規,0,2023-08-04,2023-08-04,Ｖａｌｃｏ　Ｍｅｌｔｏｎ　Ｊａｐａｎ株式会社,,株式会社,東京都,港区,六本木５丁目１８番２３号ＩＮＡＣビル４階,,13,103,1060032,,,,,,,2023-08-04,1,,,,,ヴァルコメルトンジャパン,0
2515,9010401176099,新規,0,2023-08-04,2023-08-04,株式会社ジーライズ,,株式会社,東京都,港区,東麻布２丁目１８番３－２０１号,,13,103,1060044,,,,,,,2023-08-04,1,,,,,ジーライズ,0
2516,9010401176165,新規,0,2023-08-04,2023-08-04,ＫＴＳＳ株式会社,,株式会社,東京都,港区,南麻布４丁目９番９号,,13,103,1060047,,,,,,,2023-08-04,1,,,,,ケーティーエスエス,0
2524,9010601063543,新規,0,2023-08-04,2023-08-04,株式会社ＷＥＬＬＮＥＳＳ　ＴＯＫＹＯ,,株式会社,東京都,江東区,辰巳１丁目７番２６－３１６号,,13,108,1350053,,,,,,,2023-08-04,1,,,,,ウェルネストウキョウ,0
2530,9010801034220,新規,0,2023-08-04,2023-08-04,株式会社ＵＦ　Ｐａｒｔｎｅｒｓ,,株式会社,東京都,大田区,南雪谷４丁目８番１５号,,13,111,1450066,,,,,,,2023-08-04,1,,,,,ユーエフパートナーズ,0
2532,9010903008353,新規,0,2023-08-04,2023-08-04,合同会社ＬＳＳサービス,,合同会社,東京都,世田谷区,玉川１丁目９番２０号,,13,112,1580094,,,,,,,2023-08-04,1,,,,,エルエスエスサービス,0
2539,9011001155971,新規,0,2023-08-04,2023-08-04,ワールドリンク株式会社,,株式会社,東京都,目黒区,目黒４丁目１６番１０号,,13,110,1530063,,,,,,,2023-08-04,1,,,,,ワールドリンク,0
2540,9011001156061,新規,0,2023-08-04,2023-08-04,株式会社ＳＩＣ,,株式会社,東京都,渋谷区,広尾１丁目１４－１５クオリア広尾１３０４,,13,113,1500012,,,,,,,2023-08-04,1,,,,,エスアイシー,0
2541,9011001156111,新規,0,2023-08-04,2023-08-04,株式会社タフティ,,株式会社,東京都,渋谷区,松濤２丁目８番８号,,13,113,1500046,,,,,,,2023-08-04,1,,,,,タフティ,0
2543,9011003017303,新規,0,2023-08-04,2023-08-04,合同会社Ｆｏｒｅｓｔ　Ｏｎｅ,,合同会社,東京都,渋谷区,渋谷２丁目１６番５号,,13,113,1500002,,,,,,,2023-08-04,1,,,,,フォレストワン,0
2553,9011101103830,新規,0,2023-08-04,2023-08-04,株式会社Ｈａｇｉｎｏ,,株式会社,東京都,新宿区,西新宿７丁目１８－５ＶＯＲＴ西新宿５０２,,13,104,1600023,,,,,,,2023-08-04,1,,,,,ハギノ,0
2554,9011101103847,新規,0,2023-08-04,2023-08-04,株式会社クリーンカンパニー,,株式会社,東京都,新宿区,新宿１丁目３６番５号新宿ホテルパークイン１０２号室,,13,104,1600022,,,,,,,2023-08-04,1,,,,,クリーンカンパニー,0
2555,9011101103855,新規,0,2023-08-04,2023-08-04,株式会社ｆｕｋｕｃａｌｅ,,株式会社,東京都,新宿区,山吹町３６０番地１７リッツ神楽坂２０２,,13,104,1620801,,,,,,,2023-08-04,1,,,,,フクカレ,0
2556,9011101103888,新規,0,2023-08-04,2023-08-04,株式会社ひやむぎこ,,株式会社,東京都,新宿区,西新宿３丁目２－９新宿ワシントンホテルビル本館２Ｆ,,13,104,1600023,,,,,,,2023-08-04,1,,,,,ヒヤムギコ,0
2557,9011105010742,新規,0,2023-08-04,2023-08-04,監査法人Ｇｒｏｗｔｈ,,その他の設立登記法人,東京都,新宿区,四谷１丁目１５番アーバンビルディングサカス８Ａ棟３階,,13,104,1600004,,,,,,,2023-08-04,1,,,,,グロウス,0
2562,9011401025337,新規,0,2023-08-04,2023-08-04,株式会社ＢＥＥＳＷＩＬＬ,,株式会社,東京都,板橋区,赤塚６丁目１３番５号,,13,119,1750092,,,,,,,2023-08-04,1,,,,,ビーズウィル,0
2564,9011501029618,新規,0,2023-08-04,2023-08-04,株式会社トラスドリーム,,株式会社,東京都,北区,赤羽１丁目３番１号友の会赤羽ビル２階,,13,117,1150045,,,,,,,2023-08-04,1,,,,,トラスドリーム,0
2565,9011501029626,新規,0,2023-08-04,2023-08-04,株式会社丸木,,株式会社,東京都,北区,赤羽西６丁目２６番４号,,13,117,1150055,,,,,,,2023-08-04,1,,,,,マルキ,0
2572,9011803005770,新規,0,2023-08-04,2023-08-04,合同会社美冠堂,,合同会社,東京都,葛飾区,お花茶屋１丁目１５番１０号,,13,122,1240003,,,,,,,2023-08-04,1,,,,,ビカンドウ,0
2575,9012403006093,新規,0,2023-08-04,2023-08-04,モーランタンク合同会社,,合同会社,東京都,稲城市,向陽台４丁目２番地みはらしの家Ｂ－７０７号,,13,225,2060803,,,,,,,2023-08-04,1,,,,,モーランタンク,0
2578,9012801022551,新規,0,2023-08-04,2023-08-04,株式会社Ｙｅｌｌ　ｉｎ　Ｏｎｅ,,株式会社,東京都,東大和市,狭山５丁目１６１４番地の９,,13,220,2070003,,,,,,,2023-08-04,1,,,,,エールインワン,0
2590,9020001152788,新規,0,2023-08-04,2023-08-04,株式会社ノムノム,,株式会社,神奈川県,横浜市中区,石川町２丁目７２番地,,14,104,2310868,,,,,,,2023-08-04,1,,,,,ノムノム,0
2596,9020005016080,新規,0,2023-08-04,2023-08-04,一般社団法人彩実研究所,,その他の設立登記法人,神奈川県,横浜市泉区,岡津町１１０番地３グレーシアパーク山手台ＥＡＳＴ壱番館３０２号,,14,116,2450003,,,,,,,2023-08-04,1,,,,,サイミケンキュウジョ,0
2598,9021001079807,新規,0,2023-08-04,2023-08-04,株式会社Ｐｅｎｅｔｒａｔｅ,,株式会社,神奈川県,伊勢原市,田中８９９番地の１,,14,214,2591142,,,,,,,2023-08-04,1,,,,,ペネトレイト,0
2599,9021001079815,新規,0,2023-08-04,2023-08-04,株式会社ＨＩＲＯＤＥＮ,,株式会社,神奈川県,座間市,栗原中央１丁目３４番２７号,,14,216,2520014,,,,,,,2023-08-04,1,,,,,ヒロデン,0
2617,9040001129462,新規,0,2023-08-04,2023-08-04,帆記株式会社,,株式会社,千葉県,千葉市中央区,長洲１丁目１０番２４号,,12,101,2600854,,,,,,,2023-08-04,1,,,,,ハンキ,0
2618,9040001129470,新規,0,2023-08-04,2023-08-04,株式会社メデル,,株式会社,千葉県,千葉市中央区,宮崎町４７番地１ライオンズマンション蘇我２－７０３号,,12,101,2600805,,,,,,,2023-08-04,1,,,,,メデル,0
2619,9040001129479,新規,0,2023-08-04,2023-08-04,株式会社総政工業,,株式会社,千葉県,市原市,千種２丁目７番地１７,,12,219,2990109,,,,,,,2023-08-04,1,,,,,ソウセイコウギョウ,0
2620,9040001129487,新規,0,2023-08-04,2023-08-04,株式会社リノピリナ,,株式会社,千葉県,船橋市,丸山２丁目３１番５号,,12,204,2730048,,,,,,,2023-08-04,1,,,,,リノピリナ,0
2621,9040001129495,新規,0,2023-08-04,2023-08-04,株式会社Ｓｏｕｋｅｎ,,株式会社,千葉県,市原市,姉崎１２０５番地１,,12,219,2990111,,,,,,,2023-08-04,1,,,,,ソウケン,0
2622,9040001129504,新規,0,2023-08-04,2023-08-04,株式会社博商学院,,株式会社,千葉県,印西市,東の原３丁目１番地１３５,,12,231,2701336,,,,,,,2023-08-04,1,,,,,ハクショウガクイン,0
2623,9040001129520,新規,0,2023-08-04,2023-08-04,鈴和貿易株式会社,,株式会社,千葉県,佐倉市,藤治台１６番地１０,,12,212,2850816,,,,,,,2023-08-04,1,,,,,レイワボウエキ,0
2626,9040003023060,新規,0,2023-08-04,2023-08-04,合同会社ＦＢ,,合同会社,千葉県,千葉市中央区,川戸町４１０番地１０,,12,101,2600802,,,,,,,2023-08-04,1,,,,,,0
2627,9050001053240,新規,0,2023-08-04,2023-08-04,株式会社鳥らんど,,株式会社,茨城県,水戸市,宮町２丁目５番６号,,08,201,3100015,,,,,,,2023-08-04,1,,,,,トリランド,0
2629,9050003007707,新規,0,2023-08-04,2023-08-04,グリュック・レーベン合同会社,,合同会社,茨城県,守谷市,みずき野５丁目１２番地１１,,08,224,3020121,,,,,,,2023-08-04,1,,,,,グリュックレーベン,0
2638,9080001025773,新規,0,2023-08-04,2023-08-04,しずおか中央不動産販売株式会社,,株式会社,静岡県,静岡市清水区,清水町６番１０号,,22,103,4240947,,,,,,,2023-08-04,1,,,,,シズオカチュウオウフドウサンハンバイ,0
2644,9090003002357,新規,0,2023-08-04,2023-08-04,合同会社ＯＲＩＧＡＭＩ,,合同会社,山梨県,都留市,夏狩１６４１番地１,,19,204,4020035,,,,,,,2023-08-04,1,,,,,オリガミ,0
2646,9100001036644,新規,0,2023-08-04,2023-08-04,株式会社浅間ルーフテック,,株式会社,長野県,上田市,諏訪形９５２番地１４,,20,203,3860032,,,,,,,2023-08-04,1,,,,,アサマルーフテック,0
2647,9100001036652,新規,0,2023-08-04,2023-08-04,株式会社億豪餐飲,,株式会社,長野県,東御市,田中５２番地６,,20,219,3890516,,,,,,,2023-08-04,1,,,,,オクゴウサンイン,0
2649,9110001037732,新規,0,2023-08-04,2023-08-04,株式会社飯塚テレビ電化,00131397,株式会社,新潟県,十日町市,本町２丁目３３１番地,,15,210,9480082,,,,,,,2023-08-04,1,,,,,イイヅカテレビデンカ,0
2660,9120001256942,新規,0,2023-08-04,2023-08-04,東吉株式会社,,株式会社,大阪府,大阪市大正区,三軒家西３丁目４番１６号中山ビル１０１６,,27,108,5510001,,,,,,,2023-08-04,1,,,,,トウキチ,0
2661,9120001256959,新規,0,2023-08-04,2023-08-04,株式会社ハイキューブ,,株式会社,大阪府,寝屋川市,梅が丘１丁目１１番５－４０５号,,27,215,5720803,,,,,,,2023-08-04,1,,,,,ハイキューブ,0
2662,9120001257032,新規,0,2023-08-04,2023-08-04,株式会社カスタマーズリンク,,株式会社,大阪府,大阪市北区,本庄東３丁目５番１３－８０７号,,27,127,5310074,,,,,,,2023-08-04,1,,,,,カスタマーズリンク,0
2663,9120001257040,新規,0,2023-08-04,2023-08-04,株式会社Ｃｉｎｄｅｒｅｌｌａ　ｅｎｔｅｒｔａｉｎｍｅｎｔ,,株式会社,大阪府,大阪市中央区,南久宝寺町１丁目９－８ダイキビル７０１,,27,128,5410058,,,,,,,2023-08-04,1,,,,,シンデレラエンターテインメント,0
2667,9120003024521,新規,0,2023-08-04,2023-08-04,合同会社Ｔｅｎｄｅｒ　Ｔｏｕｃｈ　Ｇｉｖｅｒｓ,,合同会社,大阪府,大阪市中央区,南久宝寺町４丁目４－１３－３０５,,27,128,5410058,,,,,,,2023-08-04,1,,,,,テンダータッチギバーズ,0
2668,9120101067975,新規,0,2023-08-04,2023-08-04,株式会社ＭＩＺＵＫＩ,,株式会社,大阪府,堺市堺区,大浜中町２丁６番３２号,,27,141,5900975,,,,,,,2023-08-04,1,,,,,ミズキ,0
2672,9120901047870,新規,0,2023-08-04,2023-08-04,株式会社大起不動産,,株式会社,大阪府,吹田市,寿町１丁目２１番４号,,27,205,5640036,,,,,,,2023-08-04,1,,,,,ダイキフドウサン,0
2673,9120901047879,新規,0,2023-08-04,2023-08-04,ＴＡＫＥＳプランニング株式会社,,株式会社,大阪府,高槻市,古曽部町４丁目２番５号,,27,207,5691115,,,,,,,2023-08-04,1,,,,,テイクスプランニング,0
2678,9120903004770,新規,0,2023-08-04,2023-08-04,合同会社アシスト,,合同会社,大阪府,高槻市,西真上１丁目３２－６,,27,207,5691127,,,,,,,2023-08-04,1,,,,,アシスト,0
2679,9122001037208,新規,0,2023-08-04,2023-08-04,株式会社Ｋ’ｓテック,,株式会社,大阪府,東大阪市,鴻池徳庵町１０番３３号,,27,227,5780977,,,,,,,2023-08-04,1,,,,,ケーズテック,0
2680,9122001037232,新規,0,2023-08-04,2023-08-04,株式会社Ｍ・Ｋサービス,,株式会社,大阪府,東大阪市,鳥居町７番１６号,,27,227,5798035,,,,,,,2023-08-04,1,,,,,エムケーサービス,0
2687,9130003008894,新規,0,2023-08-04,2023-08-04,ミライフホームズ合同会社,,合同会社,京都府,京都市伏見区,新中町７１５番地ペルル伏見桃山３１２号,,26,109,6128215,,,,,,,2023-08-04,1,,,,,ミライフホームズ,0
2688,9130005016846,新規,0,2023-08-04,2023-08-04,一般社団法人ＫＹＯＴＡＮＧＯ　ＴＨＲＥＡＤ　ＣＡＲＡＶＡＮ,,その他の設立登記法人,京都府,京丹後市,網野町網野３４０番地,,26,212,6293101,,,,,,,2023-08-04,1,,,,,キョウタンゴスレッドキャラバン,0
2696,9140001131103,新規,0,2023-08-04,2023-08-04,株式会社７,,株式会社,兵庫県,西宮市,久出ケ谷町２番１７号,,28,204,6620077,,,,,,,2023-08-04,1,,,,,ナナ,0
2697,9140003019362,新規,0,2023-08-04,2023-08-04,合同会社ＫＯＭＥＴＯＰＡＮ,,合同会社,兵庫県,西宮市,枝川町８番１－２０５号,,28,204,6638143,,,,,,,2023-08-04,1,,,,,コメトパン,0
2699,9140005026704,新規,0,2023-08-04,2023-08-04,一般社団法人ルカ環境研究所,,その他の設立登記法人,兵庫県,芦屋市,公光町４番２８号Ｃ７,,28,206,6590065,,,,,,,2023-08-04,1,,,,,ルカカンキョウケンキュウジョ,0
2701,9150001026590,新規,0,2023-08-04,2023-08-04,ｅｎｊｏｙ株式会社,,株式会社,奈良県,葛城市,南花内１６３番地２１,,29,211,6392126,,,,,,,2023-08-04,1,,,,,エンジョイ,0
2702,9150001026599,新規,0,2023-08-04,2023-08-04,株式会社ゴールドヴェイン,,株式会社,奈良県,磯城郡川西町,大字結崎５９５番地の１,,29,361,6360202,,,,,,,2023-08-04,1,,,,,ゴールドヴェイン,0
2703,9150003003019,新規,0,2023-08-04,2023-08-04,合同会社ＢＳＭ,,合同会社,奈良県,奈良市,疋田町５丁目２４０番地の１３,,29,201,6310843,,,,,,,2023-08-04,1,,,,,ビーエスエム,0
2705,9160001025237,新規,0,2023-08-04,2023-08-04,株式会社清水鉄工,,株式会社,滋賀県,蒲生郡日野町,大字別所８３番地,,25,383,5291647,,,,,,,2023-08-04,1,,,,,シミズテッコウ,0
2712,9180001157391,新規,0,2023-08-04,2023-08-04,株式会社ＴＡＫＵＭＩ,,株式会社,愛知県,名古屋市西区,牛島町６番１号名古屋ルーセントタワー４０階,,23,104,4510046,,,,,,,2023-08-04,1,,,,,タクミ,0
2713,9180003025563,新規,0,2023-08-04,2023-08-04,合同会社Ｈ＆Ｍ,,合同会社,愛知県,稲沢市,駅前３丁目８番５号,,23,220,4928143,,,,,,,2023-08-04,1,,,,,エイチアンドエム,0
2714,9180003025571,新規,0,2023-08-04,2023-08-04,合同会社菊川労務アシスト,,合同会社,愛知県,名古屋市緑区,高根山１丁目９０２番地,,23,114,4598013,,,,,,,2023-08-04,1,,,,,キクカワロウムアシスト,0
2715,9180301037632,新規,0,2023-08-04,2023-08-04,吉本電工株式会社,00131398,株式会社,愛知県,安城市,東栄町６丁目１９番地１,,23,212,4460007,,,,,,,2023-08-04,1,,,,,ヨシモトデンコウ,0
2716,9180301037649,新規,0,2023-08-04,2023-08-04,三吉電機株式会社,,株式会社,愛知県,豊橋市,石巻本町字口明塚２１番地３,,23,201,4411115,,,,,,,2023-08-04,1,,,,,サンキチデンキ,0
2718,9180303005793,新規,0,2023-08-04,2023-08-04,合同会社こはるソフトウェア,,合同会社,愛知県,岡崎市,舞木町字岡ノ入３０番地１３,,23,202,4443511,,,,,,,2023-08-04,1,,,,,コハルソフトウェア,0
2720,9190001030630,新規,0,2023-08-04,2023-08-04,株式会社水谷リース,,株式会社,三重県,桑名市,大字福島３７６番地,,24,205,5110002,,,,,,,2023-08-04,1,,,,,ミズタニリース,0
2723,9200001041568,新規,0,2023-08-04,2023-08-04,株式会社ロハス,,株式会社,岐阜県,土岐市,鶴里町細野１１７６番地の１の５,,21,212,5095311,,,,,,,2023-08-04,1,,,,,ロハス,0
2730,9220001025528,新規,0,2023-08-04,2023-08-04,株式会社ライジングサン,,株式会社,石川県,金沢市,寺中町ホ６番地西田ビル１Ｆ‐４号,,17,201,9200341,,,,,,,2023-08-04,1,,,,,ライジングサン,0
2732,9230001019941,新規,0,2023-08-04,2023-08-04,株式会社ＬＩＦＡＣＴ,,株式会社,富山県,富山市,中間島１丁目１３番地４,,16,201,9300921,,,,,,,2023-08-04,1,,,,,リファクト,0
2740,9240001061901,新規,0,2023-08-04,2023-08-04,しまなみＦＡＲＭｓｉｄｅ株式会社,,株式会社,広島県,尾道市,土堂２丁目１０番２４号,,34,205,7220035,,,,,,,2023-08-04,1,,,,,シマナミファームサイド,0
2743,9250001020220,新規,0,2023-08-04,2023-08-04,株式会社藤野バラ園,,株式会社,山口県,長門市,俵山４９１番地２,,35,211,7594211,,,,,,,2023-08-04,1,,,,,フジノバラエン,0
2748,9290001102469,新規,0,2023-08-04,2023-08-04,株式会社めとき動物病院,,株式会社,福岡県,福岡市博多区,比恵町７番２０号１Ｆ,,40,132,8120014,,,,,,,2023-08-04,1,,,,,メトキドウブツビョウイン,0
2749,9290001102485,新規,0,2023-08-04,2023-08-04,株式会社いのくち不動産相談,,株式会社,福岡県,福岡市西区,拾六町４丁目２番１１号,,40,135,8190041,,,,,,,2023-08-04,1,,,,,イノクチフドウサンソウダン,0
2750,9290001102510,新規,0,2023-08-04,2023-08-04,株式会社ＪＨＹ,,株式会社,福岡県,福岡市博多区,神屋町５番９－１００２号ルネッサンス２１博多,,40,132,8120022,,,,,,,2023-08-04,1,,,,,ジェーエイチワイ,0
2752,9290003014175,新規,0,2023-08-04,2023-08-04,合同会社ＦＭＹ,,合同会社,福岡県,福岡市中央区,渡辺通５丁目１４番１２号南天神ビル３階,,40,133,8100004,,,,,,,2023-08-04,1,,,,,エフエムワイ,0
2756,9290801029746,新規,0,2023-08-04,2023-08-04,株式会社ケイエス機工,,株式会社,福岡県,北九州市八幡西区,野面１丁目１２番９号,,40,109,8071262,,,,,,,2023-08-04,1,,,,,ケイエスキコウ,0
2757,9290803004474,新規,0,2023-08-04,2023-08-04,合同会社空,,合同会社,福岡県,田川郡川崎町,大字川崎８３９番地の１,,40,605,8270003,,,,,,,2023-08-04,1,,,,,ソラ,0
2759,9320001019924,新規,0,2023-08-04,2023-08-04,株式会社昇瑛,,株式会社,大分県,大分市,大字城原２５３２番地の２,,44,201,8700267,,,,,,,2023-08-04,1,,,,,ショウエイ,0
2762,9330001031119,新規,0,2023-08-04,2023-08-04,株式会社Ｃｅｄａｒ　Ｖｉｌｌａｇｅ,,株式会社,熊本県,熊本市中央区,本荘３丁目２番１３号,,43,101,8600811,,,,,,,2023-08-04,1,,,,,セダーヴィレッジ,0
2771,9340003004195,新規,0,2023-08-04,2023-08-04,合同会社Ｋ２,,合同会社,鹿児島県,鹿児島市,田上３丁目１６番２２号,,46,201,8900034,,,,,,,2023-08-04,1,,,,,ケーツー,0
2773,9350001018485,新規,0,2023-08-04,2023-08-04,株式会社ＮＥＡＤ,,株式会社,宮崎県,宮崎市,橘通西１丁目２番２２号中店ビル１Ｆ,,45,201,8800001,,,,,,,2023-08-04,1,,,,,ニード,0
2776,9380001033886,新規,0,2023-08-04,2023-08-04,株式会社緑川重機,,株式会社,福島県,南相馬市,原町区押釜字原１８４－５,,07,212,9750064,,,,,,,2023-08-04,1,,,,,ミドリカワジュウキ,0
2781,9390001017335,新規,0,2023-08-04,2023-08-04,令和工業株式会社,,株式会社,山形県,鶴岡市,井岡字和田３０４番地５,,06,203,9970842,,,,,,,2023-08-04,1,,,,,レイワコウギョウ,0
2782,9400001002228,新規,0,2023-08-04,2023-08-04,株式会社正光画廊,,株式会社,岩手県,盛岡市,青山４丁目４４番１０号,,03,201,0200133,,,,,,,2023-08-04,1,,,,,セイコウガロウ,0
2783,9400001016335,新規,0,2023-08-04,2023-08-04,尾田川農園株式会社,,株式会社,岩手県,九戸郡軽米町,大字軽米第１９地割７３番地,,03,501,0286302,,,,,,,2023-08-04,1,,,,,オダカワノウエン,0
2784,9400003003125,新規,0,2023-08-04,2023-08-04,合同会社ササキクリエイト,,合同会社,岩手県,遠野市,宮守町上鱒沢１地割８番地２,00131406,03,208,0280302,,,,,,,2023-08-04,1,,,,,ササキクリエイト,0
2795,9470002019685,新規,0,2023-08-04,2023-08-04,有限会社みのり,,有限会社,香川県,善通寺市,南町３丁目１７番２０号,,37,204,7650002,,,,,,,2023-08-04,1,,,,,,0
2798,9500001025103,新規,0,2023-08-04,2023-08-04,ＲＥＯＮ　ＷＯＲＫＳ株式会社,,株式会社,愛媛県,松山市,竹原４丁目４番１２号,,38,201,7900053,,,,,,,2023-08-04,1,,,,,レオンワークス,0
2801,9700150118785,新規,0,2023-08-04,2023-08-04,ｓｈｅｎ　ｚｈｅｎ　ｓｈｉ　ｑｉｃａｉ　ｊｉｇｕａｎｇ　ｋｅｊｉ　ｙｏｕｘｉａｎ　ｇｏｎｇｓｉ,,外国会社等,,,,,,,,Ｂｕｉｌｄｉｎｇ　９Ｉ，Ｎｏ．４８，Ｊｉｎｊｉｎｇ　Ｒｏａｄ　Ｌｏｎｇｄｏｎｇ　Ｃｏｍｍｕｎｉｔｙ，Ｌｏｎｇｇａｎｇ　Ｓｔｒｅｅｔ，Ｌｏｎｇｇａｎｇ　Ｄｉｓｔｒｉｃｔ　Ｓｈｅｎｚｈｅｎ　Ｇｕａｎｇｄｏｎｇ　５１８１１６　ＣＮ,,,,,,2023-08-04,1,,,,,シェンジェンシチーツァイジーグァンカージヨウシェンゴンスー,0
2802,9700150118793,新規,0,2023-08-04,2023-08-04,Ｓｈａｏｘｉｎｇ　Ｙｏｕｌｅｉ　Ｔｅｘｔｉｌｅ　Ｃｏ．，Ｌｔｄ,,外国会社等,,,,,,,,Ｙｕｌａｎｇｕｏｊｉ　Ｂｕｉｌｄｉｎｇ　Ｒｏｏｍ　１２０３－３　ＳＨＡＯＸＩＮＧ　３１２０３０　ＣＮ,,,,,,2023-08-04,1,,,,,シャオシンヨウレイファンジーピンヨウシェンゴンスー,0
2803,9700150118802,新規,0,2023-08-04,2023-08-04,９３００－２６６５　Ｑｕｅｂｅｃ　Ｉｎｃ．,,外国会社等,,,,,,,,２８１４　ａｖ．Ｗｉｌｌｏｗｄａｌｅ　Ｍｏｎｔｒｅａｌ，Ｑｕｅｂｅｃ，Ｃａｎａｄａ,,,,,,2023-08-04,1,,,,,ケベツクインク,0
