sequenceNumber,corporateNumber,process,correct,updateDate,changeDate,name,nameImageId,kind,prefectureName,cityName,streetNumber,addressImageId,prefectureCode,cityCode,postCode,addressOutside,addressOutsideImageId,closeDate,closeCause,successorCorporateNumber,changeCause,assignmentDate,latest,enName,enPrefectureName,enCityName,enAddressOutside,furigana,hihyoji
6,1010001227301,新規,0,2022-06-10,2022-06-10,株式会社エクスファ,,株式会社,東京都,千代田区,神田錦町２丁目７番地,,13,101,1010054,,,,,,,2022-06-10,1,,,,,エクスファ,0
8,1010003037797,新規,0,2022-06-10,2022-06-10,セデリス合同会社,,合同会社,東京都,千代田区,九段南１丁目５番６号りそな九段ビル５階ＫＳフロア,,13,101,1020074,,,,,,,2022-06-10,1,,,,,セデリス,0
9,1010005035122,新規,0,2022-06-10,2022-06-10,一般社団法人ライラックマネジメント,,その他の設立登記法人,東京都,千代田区,丸の内３丁目１番１号東京共同会計事務所内,,13,101,1000005,,,,,,,2022-06-10,1,,,,,ライラックマネジメント,0
15,1010401167782,新規,0,2022-06-10,2022-06-10,株式会社ＮＹＨ,,株式会社,東京都,港区,北青山３丁目４－１－７０６,,13,103,1070061,,,,,,,2022-06-10,1,,,,,エヌワイエイチ,0
22,1010501048932,新規,0,2022-06-10,2022-06-10,ＨＲ株式会社,,株式会社,東京都,台東区,根岸４丁目１５番１４号１Ｆ,,13,106,1100003,,,,,,,2022-06-10,1,,,,,エイチアール,0
25,1010601061307,新規,0,2022-06-10,2022-06-10,株式会社宏承,,株式会社,東京都,江東区,亀戸７丁目９番１６号ベルグコート亀戸中央公園５０２,,13,108,1360071,,,,,,,2022-06-10,1,,,,,ヒロショウ,0
32,1010803004204,新規,0,2022-06-10,2022-06-10,合同会社森貿易,,合同会社,東京都,大田区,南馬込５丁目５－１１,,13,111,1430025,,,,,,,2022-06-10,1,,,,,モリボウエキ,0
44,1011003014844,新規,0,2022-06-10,2022-06-10,合同会社センターフィールド,,合同会社,東京都,目黒区,中目黒１丁目１番４４号,,13,110,1530061,,,,,,,2022-06-10,1,,,,,センターフィールド,0
46,1011101099184,新規,0,2022-06-10,2022-06-10,株式会社ＧＳＴ,,株式会社,東京都,新宿区,新宿１丁目１３番８号,,13,104,1600022,,,,,,,2022-06-10,1,,,,,ジーエスティ,0
56,1011401024305,新規,0,2022-06-10,2022-06-10,プライムメディア株式会社,,株式会社,東京都,板橋区,南常盤台１丁目１１番６号レフア南常盤台１０１号室,,13,119,1740072,,,,,,,2022-06-10,1,,,,,プライムメディア,0
58,1011501028115,新規,0,2022-06-10,2022-06-10,日本金融サービス株式会社,,株式会社,東京都,荒川区,南千住３丁目４１番４－３０１号,,13,118,1160003,,,,,,,2022-06-10,1,,,,,ニホンキンユウサービス,0
60,1011701025374,新規,0,2022-06-10,2022-06-10,Ｍ’ｓ　Ｂｅａｕｔｙ株式会社,,株式会社,東京都,江戸川区,東葛西５丁目１番１５号第２瀬長ビル３０１号,,13,123,1340084,,,,,,,2022-06-10,1,,,,,エムズビューティー,0
62,1011801040802,新規,0,2022-06-10,2022-06-10,濱和株式会社,,株式会社,東京都,足立区,千住緑町１丁目２１番１０号ジャパンステイ千住３０５号室,,13,121,1200044,,,,,,,2022-06-10,1,,,,,ハマワ,0
63,1011801040835,新規,0,2022-06-10,2022-06-10,株式会社ファニーリンク,,株式会社,東京都,足立区,千住橋戸町１１番地２１,,13,121,1200038,,,,,,,2022-06-10,1,,,,,ファニーリンク,0
64,1012401039284,新規,0,2022-06-10,2022-06-10,Ｗａｒｅ　Ｆｏｒｅｓｔ株式会社,,株式会社,東京都,府中市,緑町２丁目３番地の１ヒルクレスト堀江４０２号,,13,206,1830006,,,,,,,2022-06-10,1,,,,,ウエアフォレスト,0
66,1012403005425,新規,0,2022-06-10,2022-06-10,合同会社ＩＫＫＩ,,合同会社,東京都,三鷹市,下連雀８丁目２番２号,,13,204,1810013,,,,,,,2022-06-10,1,,,,,イッキ,0
70,1013301049209,新規,0,2022-06-10,2022-06-10,株式会社アジル,,株式会社,東京都,豊島区,北大塚２丁目１６番４号Ｊ・Ｔ大塚ビル４０２,,13,116,1700004,,,,,,,2022-06-10,1,,,,,アジル,0
102,1030003019579,新規,0,2022-06-10,2022-06-10,ＴＫ‐ＣＯＭＰＡＮＹ合同会社,,合同会社,埼玉県,富士見市,ふじみ野東２丁目７番地１シティヴェールふじみ野一番館１００５,,11,235,3540036,,,,,,,2022-06-10,1,,,,,ティーケーカンパニー,0
111,1040001123729,新規,0,2022-06-10,2022-06-10,株式会社ＡＳＨ　Ｔｅｃｈ,,株式会社,千葉県,松戸市,二ツ木９６番地の１５,,12,207,2700027,,,,,,,2022-06-10,1,,,,,アシュテック,0
122,1070005010004,新規,0,2022-06-10,2022-06-10,社会保険労務士法人富岡労務管理事務所,,その他の設立登記法人,群馬県,前橋市,三俣町１丁目９番地１,,10,201,3710018,,,,,,,2022-06-10,1,,,,,トミオカロウムカンリジムショ,0
133,1100001035414,新規,0,2022-06-10,2022-06-10,株式会社追分工務店,,株式会社,長野県,北佐久郡軽井沢町,大字長倉５４６３番地２,,20,321,3890111,,,,,,,2022-06-10,1,,,,,オイワケコウムテン,0
138,1110003004787,新規,0,2022-06-10,2022-06-10,合同会社リーベンスティル,,合同会社,新潟県,燕市,横田３４１３番地,,15,213,9590111,,,,,,,2022-06-10,1,,,,,リーベンスティル,0
149,1120001246505,新規,0,2022-06-10,2022-06-10,株式会社リバイス,,株式会社,大阪府,大阪市東成区,中道３丁目２番２８号,,27,115,5370025,,,,,,,2022-06-10,1,,,,,リバイス,0
150,1120001246521,新規,0,2022-06-10,2022-06-10,上六商工株式会社,,株式会社,大阪府,大阪市天王寺区,上本町５丁目２番地の６,,27,109,5430001,,,,,,,2022-06-10,1,,,,,ウエロクショウコク,0
151,1120001246538,新規,0,2022-06-10,2022-06-10,近畿観光物産株式会社,,株式会社,大阪府,大阪市住之江区,東加賀屋３丁目２番８号,,27,125,5590012,,,,,,,2022-06-10,1,,,,,キンキカンコウブッサン,0
152,1120001246554,新規,0,2022-06-10,2022-06-10,武和商事株式会社,,株式会社,大阪府,大阪市中央区,千日前１丁目５番１９－１００５号,,27,128,5420074,,,,,,,2022-06-10,1,,,,,ブワショウジ,0
155,1120003021815,新規,0,2022-06-10,2022-06-10,ｓａｋｅ　ｂｉｌｌｙ合同会社,,合同会社,大阪府,大阪市中央区,北久宝寺町１丁目５－８－６階,,27,128,5410057,,,,,,,2022-06-10,1,,,,,サケビリー,0
157,1120005022984,新規,0,2022-06-10,2022-06-10,あやめ監査法人,,その他の設立登記法人,大阪府,大阪市北区,天満２丁目１番２７号,,27,127,5300043,,,,,,,2022-06-10,1,,,,,アヤメ,0
179,1140001126309,新規,0,2022-06-10,2022-06-10,株式会社キックオフ,,株式会社,兵庫県,尼崎市,開明町２丁目１１番地神鋼建設ビル３階３０１号,,28,202,6600862,,,,,,,2022-06-10,1,,,,,キックオフ,0
180,1140003017761,新規,0,2022-06-10,2022-06-10,合同会社麒麟トラベラー,,合同会社,兵庫県,美方郡新温泉町,諸寄３２１０番地７,,28,586,6696753,,,,,,,2022-06-10,1,,,,,キリントラベラー,0
183,1140005026208,新規,0,2022-06-10,2022-06-10,一般社団法人ミラクルバロン,,その他の設立登記法人,兵庫県,南あわじ市,八木寺内７７０番地,,28,224,6560446,,,,,,,2022-06-10,1,,,,,ミラクルバロン,0
201,1180001151690,新規,0,2022-06-10,2022-06-10,Ｏｆｆｉｃｅ．Ｓｔｏｎｅ　Ｂｅａｃｈ株式会社,,株式会社,愛知県,知多郡東浦町,大字石浜字菰蓋１番地の１３８,,23,442,4702103,,,,,,,2022-06-10,1,,,,,オフィスストーンビーチ,0
204,1180301036311,新規,0,2022-06-10,2022-06-10,株式会社セレナ・ヴィラ,,株式会社,愛知県,岡崎市,竜美台２丁目１番地２,,23,202,4440873,,,,,,,2022-06-10,1,,,,,セレナヴィラ,0
229,1240001059903,新規,0,2022-06-10,2022-06-10,株式会社杉野伸不動産事務所,,株式会社,広島県,福山市,東川口町５丁目１７番２９号コーポ森山２階Ｂ号室,,34,207,7200821,,,,,,,2022-06-10,1,,,,,スギノシンフドウサンジムショ,0
230,1240001059911,新規,0,2022-06-10,2022-06-10,株式会社廣眞,,株式会社,広島県,廿日市市,大東５番２３号,,34,213,7380006,,,,,,,2022-06-10,1,,,,,ヒロマサ,0
240,1260005011098,新規,0,2022-06-10,2022-06-10,一般社団法人コノヒトカン,,その他の設立登記法人,岡山県,倉敷市,笹沖１２４０番地３,,33,202,7100834,,,,,,,2022-06-10,1,,,,,コノヒトカン,0
268,1320003003826,新規,0,2022-06-10,2022-06-10,合同会社インサイド,,合同会社,大分県,大分市,長浜町１丁目２番５リビングハイツ長浜Ａ５０８,,44,201,8700023,,,,,,,2022-06-10,1,,,,,インサイド,0
269,1330001029814,新規,0,2022-06-10,2022-06-10,熊本不動産コンサルタント株式会社,,株式会社,熊本県,熊本市東区,月出２丁目６番３０号１０１,,43,102,8620920,,,,,,,2022-06-10,1,,,,,クマモトフドウサンコンサルタント,0
276,1340003003824,新規,0,2022-06-10,2022-06-10,合同会社ａｒｒｉｖｅ　ａｔ．,,合同会社,鹿児島県,鹿児島市,東谷山２丁目１５番１０号やぐるま荘２０２号,,46,201,8910113,,,,,,,2022-06-10,1,,,,,アライブアット,0
277,1350001017800,新規,0,2022-06-10,2022-06-10,株式会社ＰＵＲＰＯＳＥ,,株式会社,宮崎県,宮崎市,松橋２丁目４番３１号宮崎県中小企業会館５階５０１号,,45,201,8800013,,,,,,,2022-06-10,1,,,,,パーパス,0
303,1430001086804,新規,0,2022-06-10,2022-06-10,ジャパンメディカルネットワーク株式会社,,株式会社,北海道,札幌市中央区,北三条西４丁目１番１号日本生命札幌ビル３階,,01,101,0600003,,,,,,,2022-06-10,1,,,,,ジャパンメディカルネットワーク,0
306,1430003014003,新規,0,2022-06-10,2022-06-10,合同会社ヒフティファイブ,,合同会社,北海道,札幌市北区,太平七条７丁目６番２号,,01,102,0028007,,,,,,,2022-06-10,1,,,,,ヒフティファイブ,0
307,1440005002723,新規,0,2022-06-10,2022-06-10,特定非営利活動法人ＰＥＡＣＥ＆ＳＭＩＬＥ,,その他の設立登記法人,北海道,函館市,千代台町２３番７号,,01,202,0400013,,,,,,,2022-06-10,1,,,,,,0
312,1480003001839,新規,0,2022-06-10,2022-06-10,合同会社もりづくりファクトリー,,合同会社,徳島県,徳島市,八万町下福万１９０番地の２０,,36,201,7708074,,,,,,,2022-06-10,1,,,,,モノヅクリファクトリー,0
317,1700150108926,新規,0,2022-06-10,2022-05-23,尾道薪能実行委員会,,その他,広島県,尾道市,東土堂町９－１９,,34,205,7220033,,,,,,,2022-05-23,1,,,,,オノミチタキギノウジツコウイインカイ,0
318,1700150109379,新規,0,2022-06-10,2022-06-10,積極国際集團有限公司,,外国会社等,大阪府,大阪市北区,東天満２丁目２－３－ダイヤパレス南森町２０１,,27,127,5300044,Ｒｏｏｍ　１３０５，１３／Ｆ．，Ｇｏｌｄｅｎ　Ｇａｔｅ　Ｃｏｍｍｅｒｃｉａｌ　Ｂｕｉｌｄｉｎｇ，１３６－１３８　Ａｕｓｔｉｎ　Ｒｏａｄ，Ｔｓｉｍｓｈａｔｓｕｉ，Ｈｏｎｇ　Ｋｏｎｇ,,,,,,2022-06-10,1,,,,,セツキヨクコクサイシユウダンユウゲンコウシ,0
319,1700150109437,新規,0,2022-06-10,2022-06-10,Ｓｈｉｎｊｉｍｏｒｕ　Ｃｏ．，Ｌｔｄ．,,外国会社等,,,,,,,,１９Ｆ，３９６，Ｗｏｒｌｄ　Ｃｕｐ　ｂｕｋ－ｒｏ，Ｍａｐｏ－ｇｕ，Ｓｅｏｕｌ０３９２５，Ｒｅｐｕｂｌｉｃ　ｏｆ　Ｋｏｒｅａ,,,,,,2022-06-10,1,,,,,シンジモルカンパニーリミテツド,0
325,2010001227110,新規,0,2022-06-10,2022-06-10,株式会社管理バンク,,株式会社,東京都,中央区,入船３丁目１番４号,,13,102,1040042,,,,,,,2022-06-10,1,,,,,カンリバンク,0
329,2010005035113,新規,0,2022-06-10,2022-06-10,弁護士法人八重洲日本橋法律事務所,,その他の設立登記法人,東京都,中央区,日本橋３丁目１５番７号,,13,102,1030027,,,,,,,2022-06-10,1,,,,,ヤエスニホンバシホウリツジムショ,0
332,2010401167848,新規,0,2022-06-10,2022-06-10,コア株式会社,,株式会社,東京都,港区,南青山６丁目１３番１５号,,13,103,1070062,,,,,,,2022-06-10,1,,,,,コア,0
334,2010403027810,新規,0,2022-06-10,2022-06-10,Ｌｅｏｅｌ合同会社,,合同会社,東京都,港区,六本木４丁目２－８パークハウス六本木２０８,,13,103,1060032,,,,,,,2022-06-10,1,,,,,リオル,0
335,2010405021076,新規,0,2022-06-10,2022-06-10,弁理士法人愛宕綜合特許事務所,,その他の設立登記法人,東京都,港区,西新橋３丁目５番２号,,13,103,1050003,,,,,,,2022-06-10,1,,,,,アタゴソウゴウトッキョジムショ,0
336,2010501048931,新規,0,2022-06-10,2022-06-10,Ｐｅｒｍａｎｅｎｔ　Ａｆｆｌｕｅｎｃｅ株式会社,,株式会社,東京都,台東区,入谷２丁目１６番１０－２０２号,,13,106,1100013,,,,,,,2022-06-10,1,,,,,パーマネントアフルーエンス,0
341,2010603009583,新規,0,2022-06-10,2022-06-10,合同会社梅田テクノロジー,,合同会社,東京都,江東区,豊洲４丁目７－６－１００２室,,13,108,1350061,,,,,,,2022-06-10,1,,,,,ウメダテクノロジー,0
353,2010803004203,新規,0,2022-06-10,2022-06-10,合同会社森商事,,合同会社,東京都,大田区,南馬込５丁目５－１１,,13,111,1430025,,,,,,,2022-06-10,1,,,,,モリショウジ,0
372,2011005009610,新規,0,2022-06-10,2022-06-10,一般社団法人アーティストピアノで豊かな世界をつくる会,,その他の設立登記法人,東京都,渋谷区,恵比寿南３丁目９番３５号ワクセル恵比寿１０１,,13,113,1500022,,,,,,,2022-06-10,1,,,,,アーティストピアノデユタカナセカイヲツクルカイ,0
376,2011101099101,新規,0,2022-06-10,2022-06-10,株式会社ＦＬＡＳＨ　ＴＥＣＨＮＯＬＯＧＹ,,株式会社,東京都,新宿区,西新宿２丁目１番１号新宿三井ビルディング４９階,,13,104,1600023,,,,,,,2022-06-10,1,,,,,フラッシュテクノロジー,0
377,2011101099175,新規,0,2022-06-10,2022-06-10,株式会社ファントムクォーツ,,株式会社,東京都,新宿区,西新宿８丁目１７番２－１７０２号,,13,104,1600023,,,,,,,2022-06-10,1,,,,,ファントムクォーツ,0
386,2011401024279,新規,0,2022-06-10,2022-06-10,株式会社Ｗｉｚｉｔ,,株式会社,東京都,板橋区,赤塚２丁目３６－２８シック赤塚１０３,,13,119,1750092,,,,,,,2022-06-10,1,,,,,ウィジット,0
387,2011401024304,新規,0,2022-06-10,2022-06-10,株式会社ルプス,,株式会社,東京都,板橋区,坂下２丁目２４番７－５０７号,,13,119,1740043,,,,,,,2022-06-10,1,,,,,ルプス,0
388,2011401024312,新規,0,2022-06-10,2022-06-10,株式会社アサヒコーポレーション,,株式会社,東京都,板橋区,上板橋３丁目１１番１１号－３０１,,13,119,1740076,,,,,,,2022-06-10,1,,,,,アサヒコーポレーション,0
389,2011403003685,新規,0,2022-06-10,2022-06-10,飛躍貿易合同会社,,合同会社,東京都,板橋区,幸町４５番１４－２０３号,,13,119,1730034,,,,,,,2022-06-10,1,,,,,ヒヤクボウエキ,0
394,2011601026026,新規,0,2022-06-10,2022-06-10,ゆかりハウジング株式会社,,株式会社,東京都,練馬区,南大泉６丁目１８番１号,,13,120,1780064,,,,,,,2022-06-10,1,,,,,ユカリハウジング,0
399,2011703003162,新規,0,2022-06-10,2022-06-10,ドリームワークス合同会社,,合同会社,東京都,江戸川区,南小岩８丁目１６－１７ハイツヤマトミ３０１,,13,123,1330056,,,,,,,2022-06-10,1,,,,,ドリームワークス,0
401,2011803005117,新規,0,2022-06-10,2022-06-10,合同会社ソアー,,合同会社,東京都,葛飾区,高砂５丁目５０番８－１３０２号Ｄ’クラディア高砂,,13,122,1250054,,,,,,,2022-06-10,1,,,,,ソアー,0
413,2013303006181,新規,0,2022-06-10,2022-06-10,ＴＭＣ合同会社,,合同会社,東京都,豊島区,池袋本町２丁目３９番１６号,,13,116,1700011,,,,,,,2022-06-10,1,,,,,ティーエムシー,0
428,2020001146821,新規,0,2022-06-10,2022-06-10,株式会社シアノロジー,,株式会社,神奈川県,川崎市多摩区,登戸１９１９エムアンドアールビル５階,,14,135,2140014,,,,,,,2022-06-10,1,,,,,シアノロジー,0
433,2021001076190,新規,0,2022-06-10,2022-06-10,株式会社あおば東京,,株式会社,神奈川県,鎌倉市,大船１丁目１１番２３号上木ビル５Ｆ,,14,204,2470056,,,,,,,2022-06-10,1,,,,,アオバトウキョウ,0
434,2021001076208,新規,0,2022-06-10,2022-06-10,株式会社ＴＨＫ,,株式会社,神奈川県,茅ヶ崎市,平太夫新田１１－１レオパレスグレイスＩＩ１０３,00126826,14,207,2530074,,,,,,,2022-06-10,1,,,,,ティーエイチケー,0
441,2030001148494,新規,0,2022-06-10,2022-06-10,アイル・ホールディングス株式会社,,株式会社,埼玉県,さいたま市浦和区,常盤５丁目２番１８号,,11,107,3300061,,,,,,,2022-06-10,1,,,,,アイルホールディングス,0
442,2030001148503,新規,0,2022-06-10,2022-06-10,アットパーチ株式会社,,株式会社,埼玉県,さいたま市大宮区,宮町１丁目８６番地１,,11,103,3300802,,,,,,,2022-06-10,1,,,,,アットパーチ,0
456,2050001051218,新規,0,2022-06-10,2022-06-10,株式会社日本事業承継推進協会,,株式会社,茨城県,水戸市,笠原町６００番地４１,,08,201,3100852,,,,,,,2022-06-10,1,,,,,ニホンジギョウショウケイスイシンキョウカイ,0
460,2070001039319,新規,0,2022-06-10,2022-06-10,ミニティ株式会社,,株式会社,群馬県,高崎市,和田町８番３号,,10,202,3700847,,,,,,,2022-06-10,1,,,,,ミニティ,0
463,2080103002603,新規,0,2022-06-10,2022-06-10,合同会社和,,合同会社,静岡県,富士宮市,万野原新田３０４０番地の２９,,22,207,4180001,,,,,,,2022-06-10,1,,,,,ナゴミ,0
483,2120001246504,新規,0,2022-06-10,2022-06-10,株式会社ＴＭコーポレーション,,株式会社,大阪府,大阪市鶴見区,放出東３丁目３３番１０号,,27,124,5380044,,,,,,,2022-06-10,1,,,,,ティーエムコーポレーション,0
484,2120001246529,新規,0,2022-06-10,2022-06-10,クロス株式会社,,株式会社,大阪府,大阪市東住吉区,桑津３丁目７番１５号,,27,121,5460041,,,,,,,2022-06-10,1,,,,,クロス,0
485,2120001246537,新規,0,2022-06-10,2022-06-10,正泉新技術株式会社,,株式会社,大阪府,大阪市北区,太融寺町２番２１－１１０７号,,27,127,5300051,,,,,,,2022-06-10,1,,,,,セイセンシンギジュツ,0
486,2120001246545,新規,0,2022-06-10,2022-06-10,株式会社リードエイジ管理,,株式会社,大阪府,大阪市中央区,安土町１丁目５番８号,,27,128,5410052,,,,,,,2022-06-10,1,,,,,リードエイジカンリ,0
487,2120001246553,新規,0,2022-06-10,2022-06-10,株式会社Ｒｉｎｇ　ｗｉｔｈ,,株式会社,大阪府,大阪市平野区,西脇１丁目８－１２グランドパレス平野１５０３号室,,27,126,5470035,,,,,,,2022-06-10,1,,,,,リングウィズ,0
488,2120001246561,新規,0,2022-06-10,2022-06-10,株式会社Ｆｄｉ,,株式会社,大阪府,大阪市天王寺区,寺田町２丁目５番１０号,,27,109,5430045,,,,,,,2022-06-10,1,,,,,エフジー,0
492,2120003021855,新規,0,2022-06-10,2022-06-10,＿宝合同会社,00126837,合同会社,大阪府,大阪市中央区,博労町３丁目１番８号チサンマンション心斎橋二番館７１１号室,,27,128,5410059,,,,,,,2022-06-10,1,,,,,ニホウ,0
493,2120003021863,新規,0,2022-06-10,2022-06-10,ロックンロールドリーマー合同会社,,合同会社,大阪府,大阪市浪速区,難波中３丁目７番１７－１４１３号,,27,111,5560011,,,,,,,2022-06-10,1,,,,,ロックンロールドリーマー,0
494,2120005022983,新規,0,2022-06-10,2022-06-10,特定非営利活動法人大阪工芸会,,その他の設立登記法人,大阪府,大阪市阿倍野区,文の里１丁目７番２号大阪府立工芸高等学校内,,27,119,5450004,,,,,,,2022-06-10,1,,,,,オオサカコウゲイカイ,0
498,2120101065721,新規,0,2022-06-10,2022-06-10,株式会社アオソリューションズ,,株式会社,大阪府,堺市南区,原山台１丁１４番８－２号,,27,145,5900132,,,,,,,2022-06-10,1,,,,,アオソリューションズ,0
501,2120901046086,新規,0,2022-06-10,2022-06-10,株式会社Ｒｅｒｉ’ｓ,,株式会社,大阪府,高槻市,古曽部町３丁目２０番２５－３０２号,,27,207,5691115,,,,,,,2022-06-10,1,,,,,リライズ,0
504,2120903004182,新規,0,2022-06-10,2022-06-10,合同会社ＥＣＵ,,合同会社,大阪府,豊中市,上野西２丁目４番２７号,,27,203,5600011,,,,,,,2022-06-10,1,,,,,イーシーユー,0
519,2140001126282,新規,0,2022-06-10,2022-06-10,株式会社ＢｉｓｔｒｏＣａｍｐ,,株式会社,兵庫県,神戸市須磨区,潮見台町２丁目１－１３グルーブ須磨潮見台プレミアム５０４号,,28,107,6540075,,,,,,,2022-06-10,1,,,,,ビストロキャンプ,0
530,2180001151657,新規,0,2022-06-10,2022-06-10,株式会社Ｒｏｃｋ　Ｓｐａｃｅ,,株式会社,愛知県,春日井市,松河戸町５丁目２番１６－１０２号,,23,206,4860932,,,,,,,2022-06-10,1,,,,,ロックスペース,0
535,2180003023904,新規,0,2022-06-10,2022-06-10,合同会社Ｆｒｅｅｄｓ,,合同会社,愛知県,名古屋市昭和区,広路町字石坂８０番地の１８,,23,107,4660834,,,,,,,2022-06-10,1,,,,,フリーズ,0
539,2180005019792,新規,0,2022-06-10,2022-06-10,特定非営利活動法人ＧＬＯＢＡＬ　ＣＩＴＩＺＥＮ,,その他の設立登記法人,愛知県,名古屋市東区,葵１丁目１番５号プラザフェニックス葵７階,,23,102,4610004,,,,,,,2022-06-10,1,,,,,グローバルシチズン,0
540,2180301036319,新規,0,2022-06-10,2022-06-10,株式会社Ｈｏｕｓｅ　ａｇｅｎｔ,,株式会社,愛知県,西尾市,米津町１９‐３,,23,213,4450802,,,,,,,2022-06-10,1,,,,,ハウスエージェント,0
541,2180303005354,新規,0,2022-06-10,2022-06-10,合同会社ＥＪ　ＳＵＰＰＯＲＴ,,合同会社,愛知県,豊橋市,飯村南４丁目１１番地１６,,23,201,4400835,,,,,,,2022-06-10,1,,,,,イージェーサポート,0
553,2230003001862,新規,0,2022-06-10,2022-06-10,合同会社オプション保険企画,,合同会社,富山県,富山市,婦中町田島９８４番地６,,16,201,9392702,,,,,,,2022-06-10,1,,,,,オプションホケンキカク,0
565,2260005011097,新規,0,2022-06-10,2022-06-10,一般社団法人アーツハブ岡山,,その他の設立登記法人,岡山県,岡山市北区,南中央町１番８号,,33,101,7000837,,,,,,,2022-06-10,1,,,,,アーツハブオカヤマ,0
567,2290001097724,新規,0,2022-06-10,2022-06-10,株式会社青空ミツバチ,,株式会社,福岡県,朝倉市,桑原３３３番地１,,40,228,8380039,,,,,,,2022-06-10,1,,,,,アオゾラミツバチ,0
568,2290001097856,新規,0,2022-06-10,2022-06-10,清松不動産株式会社,,株式会社,福岡県,久留米市,螢川町１番地７,,40,203,8300015,,,,,,,2022-06-10,1,,,,,キヨマツフドウサン,0
569,2290001097864,新規,0,2022-06-10,2022-06-10,森山林業株式会社,,株式会社,福岡県,八女市,矢部村北矢部１２０７５番地１０,,40,210,8341401,,,,,,,2022-06-10,1,,,,,モリヤマリンギョウ,0
573,2290003012607,新規,0,2022-06-10,2022-06-10,メグサポート合同会社,,合同会社,福岡県,久留米市,東合川町４２４－１－Ｂ２０３号,,40,203,8390807,,,,,,,2022-06-10,1,,,,,メグサポート,0
579,2310005008617,新規,0,2022-06-10,2022-06-10,一般社団法人ノーザンクロス,,その他の設立登記法人,長崎県,長崎市,片淵１丁目１番４号長崎バプテスト教会,,42,201,8500003,,,,,,,2022-06-10,1,,,,,ノーザンクロス,0
584,2340005009471,新規,0,2022-06-10,2022-06-10,一般社団法人阿久根エネルギー,,その他の設立登記法人,鹿児島県,阿久根市,栄町１２７番地,,46,206,8991616,,,,,,,2022-06-10,1,,,,,アクネエネルギー,0
592,2380005012595,新規,0,2022-06-10,2022-06-10,一般社団法人奥会津ＦＤＳ,,その他の設立登記法人,福島県,大沼郡三島町,大字西方字中田上１８１３番地１,,07,444,9697401,,,,,,,2022-06-10,1,,,,,オクアイヅエフディーエス,0
602,2430001086794,新規,0,2022-06-10,2022-06-10,ＳＡＴＯＳＯ株式会社,,株式会社,北海道,札幌市東区,東苗穂十一条２丁目２２番１６号,,01,103,0070811,,,,,,,2022-06-10,1,,,,,サトソウ,0
604,2430003013994,新規,0,2022-06-10,2022-06-10,合同会社小原設備,,合同会社,北海道,札幌市東区,北十八条東１３丁目１番１７－１１２号,,01,103,0650018,,,,,,,2022-06-10,1,,,,,オバラセツビ,0
612,2470001019115,新規,0,2022-06-10,2022-06-10,株式会社優一,,株式会社,香川県,三豊市,高瀬町新名１８２４番地１,,37,208,7670002,,,,,,,2022-06-10,1,,,,,ユウイツ,0
628,2700150109361,新規,0,2022-06-10,2022-06-10,Ｈａｋｕｂａ　Ｈｏｔｅｌｓ　Ｇｒｏｕｐ　Ｐｔｅ　Ｌｔｄ,,外国会社等,長野県,北安曇郡白馬村,大字北城４０７５,,20,485,3999301,シンガポール共和国０９－０５トンエンビルディング１０１セシル・ストリート,,,,,,2022-06-10,1,,,,,ハクバホテルズグループピーテイーイーリミテツド,0
629,2700150109378,新規,0,2022-06-10,2022-06-10,ＹＧ－ＴＯＭＳ　ＣＯ．，Ｌｔｄ,,外国会社等,東京都,港区,港南２丁目１６－１品川Ｅａｓｔ　Ｏｎｅ　Ｔｏｗｅｒ　８Ｆ　８１３,,13,103,1080075,釜山廣域市沙上区沙上路３５６番４１－１０,,,,,,2022-06-10,1,,,,,ワイジートムズコーポレーテツド,0
630,2700150109436,新規,0,2022-06-10,2022-06-10,Ｓｔｉｐｅｎｄａ　Ｌｉｍｉｔｅｄ,,外国会社等,東京都,港区,虎ノ門５丁目１３－１－７Ｆ,,13,103,1050001,ＸＰ　Ｈｏｕｓｅ，Ｔｏｕｒｎａｍｅｎｔ　Ｃｏｕｒｔ　Ｅｄｇｅｈｉｌｌ　Ｄｒｉｖｅ　Ｗａｒｗｉｃｋ，Ｅｎｇｌａｎｄ　ＣＶ３４　６ＬＧ,,,,,,2022-06-10,1,,,,,ステイベンダリミテツド,0
642,3010001227225,新規,0,2022-06-10,2022-06-10,Ａｐｐｌｉｅｄ　Ｎａｎｏｔｅｋ　Ｊａｐａｎ株式会社,,株式会社,東京都,千代田区,三番町２４番地２５,,13,101,1020075,,,,,,,2022-06-10,1,,,,,アプライドナノテック,0
643,3010001227241,新規,0,2022-06-10,2022-06-10,ＡＬＭＡ株式会社,,株式会社,東京都,文京区,小石川３丁目２０番２号,,13,105,1120002,,,,,,,2022-06-10,1,,,,,アルマ,0
655,3010403027850,新規,0,2022-06-10,2022-06-10,合同会社満月,,合同会社,東京都,港区,白金３丁目３番５号ＮＴマリーン２Ｄ,,13,103,1080072,,,,,,,2022-06-10,1,,,,,マンゲツ,0
657,3010501048947,新規,0,2022-06-10,2022-06-10,株式会社桜の森ホテル＆リゾーツ,,株式会社,東京都,台東区,東上野１丁目１４番４号,,13,106,1100015,,,,,,,2022-06-10,1,,,,,サクラノモリホテルアンドリゾーツ,0
663,3010601061296,新規,0,2022-06-10,2022-06-10,ＤＳＪ株式会社,,株式会社,東京都,江東区,塩浜２丁目５番１－４１８号,,13,108,1350043,,,,,,,2022-06-10,1,,,,,ディーエスジェイ,0
664,3010603009582,新規,0,2022-06-10,2022-06-10,合同会社横田テクノロジー,,合同会社,東京都,江東区,豊洲４丁目７－６－１００２室,,13,108,1350061,,,,,,,2022-06-10,1,,,,,ヨコタテクノロジー,0
667,3010701042782,新規,0,2022-06-10,2022-06-10,株式会社ＳＤ,,株式会社,東京都,品川区,東五反田５丁目２２番３７号,,13,109,1410022,,,,,,,2022-06-10,1,,,,,エスディー,0
668,3010701042790,新規,0,2022-06-10,2022-06-10,株式会社クロニカメディカルジャパン,,株式会社,東京都,品川区,北品川５丁目５番２５号ＳＵＭビル３０１,,13,109,1410001,,,,,,,2022-06-10,1,,,,,クロニカメディカルジャパン,0
681,3011001148015,新規,0,2022-06-10,2022-06-10,アイマネ株式会社,,株式会社,東京都,渋谷区,東１丁目２番２０－２３０４号,,13,113,1500011,,,,,,,2022-06-10,1,,,,,アイマネ,0
683,3011003014792,新規,0,2022-06-10,2022-06-10,Ｒｅｃａｌｍｏ合同会社,,合同会社,東京都,渋谷区,渋谷２丁目１９番１５号宮益坂ビルディング６０９,,13,113,1500002,,,,,,,2022-06-10,1,,,,,リカルモ,0
691,3011101099158,新規,0,2022-06-10,2022-06-10,株式会社Ｌｉｎｋｕｐ,,株式会社,東京都,新宿区,西新宿３丁目３番１３号西新宿水間ビル６階,,13,104,1600023,,,,,,,2022-06-10,1,,,,,リンクアップ,0
692,3011101099166,新規,0,2022-06-10,2022-06-10,株式会社エボ,,株式会社,東京都,新宿区,新宿１丁目１４番１０松山ビル５階,,13,104,1600022,,,,,,,2022-06-10,1,,,,,エボ,0
694,3011103011839,新規,0,2022-06-10,2022-06-10,Ａｎｕｇｒａｈａ　Ｃ．Ｐｖｔ．Ｌｔｄ．合同会社,,合同会社,東京都,新宿区,百人町３丁目９番１号岡マンション３０３,,13,104,1690073,,,,,,,2022-06-10,1,,,,,アヌグラハシープライベートリミテッド,0
695,3011105010269,新規,0,2022-06-10,2022-06-10,一般財団法人防犯警備指導訓練推進機構,,その他の設立登記法人,東京都,新宿区,西新宿３丁目９番１号西新宿ティーオービル２階,,13,104,1600023,,,,,,,2022-06-10,1,,,,,ボウハンケイビシドウクンレンスイシンキコウ,0
703,3011501028121,新規,0,2022-06-10,2022-06-10,株式会社アンパサンドラボ,,株式会社,東京都,北区,中里３丁目２４番１号,,13,117,1140015,,,,,,,2022-06-10,1,,,,,アンパサンドラボ,0
708,3011801040833,新規,0,2022-06-10,2022-06-10,株式会社川口トレーディング,,株式会社,東京都,葛飾区,西亀有２丁目３６番１０号,,13,122,1240002,,,,,,,2022-06-10,1,,,,,カワグチトレーディング,0
716,3012803002805,新規,0,2022-06-10,2022-06-10,合同会社セプテンバー,,合同会社,東京都,東大和市,狭山２丁目８７９番地の７,,13,220,2070003,,,,,,,2022-06-10,1,,,,,セプテンバー,0
720,3013303006189,新規,0,2022-06-10,2022-06-10,合同会社ｓｈｉｎ　ｍａｓｕ,,合同会社,東京都,豊島区,北大塚２丁目２５番２－８０３号,,13,116,1700004,,,,,,,2022-06-10,1,,,,,シンマス,0
745,3030001148626,新規,0,2022-06-10,2022-06-10,竜泉発展株式会社,,株式会社,埼玉県,蕨市,中央６丁目１４番１３号,,11,223,3350004,,,,,,,2022-06-10,1,,,,,リュウセンハッテン,0
746,3030001148650,新規,0,2022-06-10,2022-06-10,株式会社希デザイン,,株式会社,埼玉県,川口市,大字安行原１４番地の１３,,11,203,3340057,,,,,,,2022-06-10,1,,,,,ノゾミデザイン,0
762,3040005021646,新規,0,2022-06-10,2022-06-10,医療法人社団雄成会,,その他の設立登記法人,千葉県,木更津市,真里谷２５０番地,,12,206,2920201,,,,,,,2022-06-10,1,,,,,ユウセイカイ,0
765,3050003006598,新規,0,2022-06-10,2022-06-10,合同会社ＯＥＣ,,合同会社,茨城県,日立市,小木津町５丁目３－７,,08,202,3191413,,,,,,,2022-06-10,1,,,,,オーイーシー,0
769,3070001039318,新規,0,2022-06-10,2022-06-10,株式会社スマット,,株式会社,群馬県,高崎市,菅谷町２１２番地,,10,202,3703522,,,,,,,2022-06-10,1,,,,,スマット,0
772,3080001025003,新規,0,2022-06-10,2022-06-10,池ヶ谷造園株式会社,,株式会社,静岡県,静岡市清水区,小河内４０４７番地,,22,103,4240302,,,,,,,2022-06-10,1,,,,,イケガヤゾウエン,0
781,3100003006551,新規,0,2022-06-10,2022-06-10,Ｓａｋｕｒａ３９合同会社,,合同会社,長野県,上田市,古里１６６０－４グランドハウス上田Ｉ・１０１号,00126831,20,203,3860005,,,,,,,2022-06-10,1,,,,,サクラサク,0
795,3120001246511,新規,0,2022-06-10,2022-06-10,株式会社ＳｔａｒＢｏｗ,,株式会社,大阪府,大阪市中央区,玉造２丁目２６番６９号,,27,128,5400004,,,,,,,2022-06-10,1,,,,,スターボー,0
796,3120001246536,新規,0,2022-06-10,2022-06-10,株式会社友,,株式会社,大阪府,大阪市此花区,島屋６丁目２番９０－１９０７号,,27,104,5540024,,,,,,,2022-06-10,1,,,,,トモ,0
797,3120001246552,新規,0,2022-06-10,2022-06-10,Ｏｎｂｌｏｏｍ株式会社,,株式会社,大阪府,大阪市北区,中崎西２丁目５番９－１５０５号,,27,127,5300015,,,,,,,2022-06-10,1,,,,,オンブルーム,0
804,3120003021838,新規,0,2022-06-10,2022-06-10,３３合同会社,,合同会社,大阪府,大阪市都島区,毛馬町２丁目３－９２０５,,27,102,5340001,,,,,,,2022-06-10,1,,,,,ササ,0
835,3140001126298,新規,0,2022-06-10,2022-06-10,株式会社テレササポート,,株式会社,兵庫県,たつの市,神岡町西鳥井１９６番地５,,28,229,6794105,,,,,,,2022-06-10,1,,,,,テレササポート,0
836,3140001126307,新規,0,2022-06-10,2022-06-10,株式会社新神戸コンサルティング,,株式会社,兵庫県,神戸市中央区,上筒井通６丁目１番１０－２号,,28,110,6510061,,,,,,,2022-06-10,1,,,,,シンコウベコンサルティング,0
842,3170001017148,新規,0,2022-06-10,2022-06-10,株式会社戸次工業,,株式会社,和歌山県,和歌山市,松江北６丁目１１番１２号,,30,201,6408425,,,,,,,2022-06-10,1,,,,,ヘツギコウギョウ,0
843,3170003001736,新規,0,2022-06-10,2022-06-10,合同会社富源,,合同会社,和歌山県,和歌山市,築港３丁目６番地,,30,201,6408287,,,,,,,2022-06-10,1,,,,,フゲン,0
850,3180001151689,新規,0,2022-06-10,2022-06-10,株式会社アサイインテリアワークス,,株式会社,愛知県,名古屋市天白区,中坪町８５番地,,23,116,4680048,,,,,,,2022-06-10,1,,,,,アサイインテリアワークス,0
851,3180001151697,新規,0,2022-06-10,2022-06-10,都喜トータルサポート株式会社,,株式会社,愛知県,名古屋市昭和区,円上町５番１４号,,23,107,4660054,,,,,,,2022-06-10,1,,,,,トキトータルサポート,0
856,3180301036318,新規,0,2022-06-10,2022-06-10,株式会社ＲＫＥ,,株式会社,愛知県,岡崎市,竜泉寺町字西山畑４２番地３,,23,202,4443524,,,,,,,2022-06-10,1,,,,,アールケイイー,0
864,3200001040146,新規,0,2022-06-10,2022-06-10,株式会社ＳＮＳマーケティング,,株式会社,岐阜県,岐阜市,加納新本町３丁目１番地１ＳＰＡＺＩＯ１階Ｄ号,,21,201,5008463,,,,,,,2022-06-10,1,,,,,エスエヌエスマーケティング,0
865,3200001040154,新規,0,2022-06-10,2022-06-10,シェアグレイン株式会社,,株式会社,岐阜県,岐阜市,香取町３丁目３８番地,,21,201,5008322,,,,,,,2022-06-10,1,,,,,シェアグレイン,0
875,3230003001861,新規,0,2022-06-10,2022-06-10,だいせん丸合同会社,,合同会社,富山県,富山市,四方２１３番地４,,16,201,9302243,,,,,,,2022-06-10,1,,,,,ダイセンマル,0
881,3240003005647,新規,0,2022-06-10,2022-06-10,ヒウラ設計合同会社,,合同会社,広島県,広島市中区,南千田東町５番４－３号,,34,101,7300054,,,,,,,2022-06-10,1,,,,,ヒウラセッケイ,0
887,3260001036923,新規,0,2022-06-10,2022-06-10,株式会社Ｌｅ　ＬｉｅＮ,,株式会社,岡山県,倉敷市,西中新田２９５番地１－６０２,,33,202,7100833,,,,,,,2022-06-10,1,,,,,ルリアン,0
888,3260003003938,新規,0,2022-06-10,2022-06-10,合同会社ＧＯ‐ＡＣＴ,,合同会社,岡山県,岡山市北区,問屋町５番地１０１,,33,101,7000977,,,,,,,2022-06-10,1,,,,,,0
902,3290003012606,新規,0,2022-06-10,2022-06-10,フィズ合同会社,,合同会社,福岡県,福岡市中央区,薬院１丁目１０番２－２０６号レジディア薬院大通,,40,133,8100022,,,,,,,2022-06-10,1,,,,,フィズ,0
909,3320003003824,新規,0,2022-06-10,2022-06-10,ＴＯＹＯライフスタイル合同会社,,合同会社,大分県,大分市,坂ノ市南４丁目１番５号,,44,201,8700308,,,,,,,2022-06-10,1,,,,,トーヨーライフスタイル,0
913,3340001024795,新規,0,2022-06-10,2022-06-10,株式会社グリーンスタイルファーム,,株式会社,鹿児島県,鹿児島市,西別府町３２００番地８,,46,201,8900033,,,,,,,2022-06-10,1,,,,,グリーンスタイルファーム,0
914,3350001017798,新規,0,2022-06-10,2022-06-10,株式会社シンクリッチ,,株式会社,宮崎県,宮崎市,元宮町９番３２号ルルグみさき４０５号室,,45,201,8800004,,,,,,,2022-06-10,1,,,,,シンクリッチ,0
919,3380002036324,新規,0,2022-06-10,2022-06-10,源海水産有限会社,,有限会社,福島県,いわき市,中之作字勝見ケ浦４８番地,,07,204,9700313,,,,,,,2022-06-10,1,,,,,ゲンカイスイサン,0
920,3380003005187,新規,0,2022-06-10,2022-06-10,合同会社らく楽工房,,合同会社,福島県,二本松市,大久保２丁目８７番地,,07,210,9640963,,,,,,,2022-06-10,1,,,,,ラクラクコウボウ,0
935,3430003013993,新規,0,2022-06-10,2022-06-10,合同会社淺賀,,合同会社,北海道,北広島市,虹ヶ丘４丁目１番地１０,,01,234,0611103,,,,,,,2022-06-10,1,,,,,アサガ,0
936,3430003014018,新規,0,2022-06-10,2022-06-10,合同会社さわだ工務,,合同会社,北海道,札幌市豊平区,平岸二条８丁目５番６２－３１８号,,01,105,0620932,,,,,,,2022-06-10,1,,,,,サワダコウム,0
938,3500001024267,新規,0,2022-06-10,2022-06-10,株式会社ＦＩＲＥ,,株式会社,愛媛県,新居浜市,中村４丁目２番３９号,,38,205,7920044,,,,,,,2022-06-10,1,,,,,ファイア,0
948,4010003037869,新規,0,2022-06-10,2022-06-10,ミライフデザイン合同会社,,合同会社,東京都,中央区,銀座７丁目１３番６号サガミビル２階,,13,102,1040061,,,,,,,2022-06-10,1,,,,,ミライフデザイン,0
949,4010005035111,新規,0,2022-06-10,2022-06-10,Ｒｉｎｄ税理士法人,,その他の設立登記法人,東京都,中央区,日本橋１丁目２番地１０号,,13,102,1030027,,,,,,,2022-06-10,1,,,,,リンド,0
956,4010401167862,新規,0,2022-06-10,2022-06-10,株式会社Ｒｅｂｅｌ　Ｈｅａｒｔ,,株式会社,東京都,港区,白金３丁目１番１３号日恵ビル２階,,13,103,1080072,,,,,,,2022-06-10,1,,,,,レベルハート,0
957,4010403027701,新規,0,2022-06-10,2022-06-10,ＣＩＴＲＵＳ合同会社,,合同会社,東京都,港区,南青山２丁目２番１５号,,13,103,1070062,,,,,,,2022-06-10,1,,,,,シトラス,0
959,4010405021099,新規,0,2022-06-10,2022-06-10,ＪＭアヴィオール一般社団法人,,その他の設立登記法人,東京都,港区,六本木１丁目９番１０号アークヒルズ仙石山森タワー４０階,,13,103,1060032,,,,,,,2022-06-10,1,,,,,ジェイエムアヴィオール,0
969,4010703006272,新規,0,2022-06-10,2022-06-10,ａｒｕｃｏ　ｄｅｓｉｇｎ合同会社,,合同会社,東京都,品川区,南品川４丁目４番１７号品川サウスタワー,,13,109,1400004,,,,,,,2022-06-10,1,,,,,アルコデザイン,0
974,4010803004201,新規,0,2022-06-10,2022-06-10,合同会社矢澤貿易,,合同会社,東京都,大田区,南馬込５丁目５－１１,,13,111,1430025,,,,,,,2022-06-10,1,,,,,ヤザワボウエキ,0
975,4010901051021,新規,0,2022-06-10,2022-06-10,株式会社ＳＡＳＡＭＯＴＯ,,株式会社,東京都,世田谷区,玉川３丁目２０番２号マノア玉川第３ビル５０１号室,,13,112,1580094,,,,,,,2022-06-10,1,,,,,ササモト,0
982,4011001148022,新規,0,2022-06-10,2022-06-10,株式会社アールスリー,,株式会社,東京都,渋谷区,神宮前６丁目２３番６号,,13,113,1500001,,,,,,,2022-06-10,1,,,,,アールスリー,0
983,4011003014841,新規,0,2022-06-10,2022-06-10,合同会社Ｏｌｉｇａｒｃｈ,,合同会社,東京都,渋谷区,渋谷２丁目１９番１５－６０９号宮益坂ビルディング,,13,113,1500002,,,,,,,2022-06-10,1,,,,,オリガルヒ,0
990,4011101099132,新規,0,2022-06-10,2022-06-10,日貴東京株式会社,,株式会社,東京都,新宿区,西新宿６丁目１０番１号日土地西新宿ビル８階,,13,104,1600023,,,,,,,2022-06-10,1,,,,,ニキトーキョー,0
991,4011201023875,新規,0,2022-06-10,2022-06-10,株式会社スモールソーラー石岡,,株式会社,東京都,中野区,中野５丁目３６番２号,,13,114,1640001,,,,,,,2022-06-10,1,,,,,スモールソーラーイシオカ,0
992,4011401024302,新規,0,2022-06-10,2022-06-10,株式会社エターナルギリア,,株式会社,東京都,板橋区,坂下１丁目２８番２号,,13,119,1740043,,,,,,,2022-06-10,1,,,,,エターナルギリア,0
994,4011501028120,新規,0,2022-06-10,2022-06-10,株式会社ＥＡＲＵ,,株式会社,東京都,北区,西ケ原１丁目４３番３号アシュレ駒込１０１号室,,13,117,1140024,,,,,,,2022-06-10,1,,,,,エアル,0
1000,4011701025371,新規,0,2022-06-10,2022-06-10,株式会社Ｃｌａｕｇｈ,,株式会社,東京都,江戸川区,松島２丁目３０番７－３０４号マリンコート,,13,123,1320031,,,,,,,2022-06-10,1,,,,,クラーフ,0
1005,4011801040824,新規,0,2022-06-10,2022-06-10,株式会社ＰＲＰＲ,,株式会社,東京都,足立区,千住旭町３８番１号０４１９号室,,13,121,1200026,,,,,,,2022-06-10,1,,,,,プルプル,0
1006,4011801040832,新規,0,2022-06-10,2022-06-10,株式会社Ｙ・Ｋプラン,,株式会社,東京都,葛飾区,亀有４丁目１９番７－２０４号,,13,122,1250061,,,,,,,2022-06-10,1,,,,,ワイケイプラン,0
1012,4012801021640,新規,0,2022-06-10,2022-06-10,株式会社スタンド,,株式会社,東京都,立川市,錦町２丁目１番地３２号山崎ビル１１１号室,,13,202,1900022,,,,,,,2022-06-10,1,,,,,スタンド,0
1028,4020001146885,新規,0,2022-06-10,2022-06-10,株式会社シーフキャット,,株式会社,神奈川県,横浜市緑区,鴨居町８１９番地,,14,113,2260004,,,,,,,2022-06-10,1,,,,,シーフキャット,0
1031,4020005015558,新規,0,2022-06-10,2022-06-10,一般社団法人日本ｅスポーツ施設協会,,その他の設立登記法人,神奈川県,横浜市神奈川区,鶴屋町３丁目３３番地の８アサヒビル３Ｆ,,14,102,2210835,,,,,,,2022-06-10,1,,,,,ニホンイースポーツシセツキョウカイ,0
1040,4021001076197,新規,0,2022-06-10,2022-06-10,株式会社湘南シェアリング,,株式会社,神奈川県,茅ヶ崎市,浜竹４丁目１番７３号アメニティー湘南１Ｆ,,14,207,2530021,,,,,,,2022-06-10,1,,,,,ショウナンシェアリング,0
1044,4021003011805,新規,0,2022-06-10,2022-06-10,合同会社ｔａｉｋａｉｎｏｉｔｉｇｅｋｉ,,合同会社,神奈川県,藤沢市,片瀬海岸３丁目５番５号,,14,205,2510035,,,,,,,2022-06-10,1,,,,,,0
1050,4030001148617,新規,0,2022-06-10,2022-06-10,株式会社ストーン・フラワー,,株式会社,埼玉県,川口市,西川口１丁目１７番１６号,,11,203,3320021,,,,,,,2022-06-10,1,,,,,ストーンフラワー,0
1059,4040005021645,新規,0,2022-06-10,2022-06-10,一般社団法人環境土木研究所,,その他の設立登記法人,千葉県,千葉市若葉区,中野町２１７１番地２,,12,104,2650051,,,,,,,2022-06-10,1,,,,,カンキョウドボクケンキュウジョ,0
1065,4050003006589,新規,0,2022-06-10,2022-06-10,合同会社ミルダ,,合同会社,茨城県,下妻市,亀崎３８２７番地,,08,210,3040050,,,,,,,2022-06-10,1,,,,,ミルダ,0
1074,4070003004509,新規,0,2022-06-10,2022-06-10,合同会社ＳＡＴＯ　ＭＯＴＯＲＳ,,合同会社,群馬県,太田市,新田木崎町１４４４番地５明興マンション３０１号,,10,205,3700321,,,,,,,2022-06-10,1,,,,,サトウモターズ,0
1093,4110001036730,新規,0,2022-06-10,2022-06-10,株式会社信越工具,,株式会社,新潟県,新潟市中央区,東出来島１４番２４号,,15,103,9500961,,,,,,,2022-06-10,1,,,,,シンエツコウグ,0
1109,4120001246485,新規,0,2022-06-10,2022-06-10,株式会社Ｃｏｏｌ　Ｃｏｎｎｅｃｔ,,株式会社,大阪府,大阪市北区,梅田１丁目１－３大阪駅前第３ビル２９階１－１－１号室,,27,127,5300001,,,,,,,2022-06-10,1,,,,,クールコネクト,0
1112,4120003021861,新規,0,2022-06-10,2022-06-10,合同会社ひだまりパートナーズ,,合同会社,大阪府,大阪市中央区,瓦町１丁目３番２号ＨＩＧＡＳＨＩＢＬＤ２２１号室,,27,128,5410048,,,,,,,2022-06-10,1,,,,,ヒダマリパートナーズ,0
1124,4130003007967,新規,0,2022-06-10,2022-06-10,合同会社シャ・キャリコ,,合同会社,京都府,京都市伏見区,新中町７１５番地,,26,109,6128215,,,,,,,2022-06-10,1,,,,,シャキャリコ,0
1145,4180001151647,新規,0,2022-06-10,2022-06-10,Ｔ‐Ｍａｒｋ株式会社,,株式会社,愛知県,名古屋市天白区,福池２丁目３０９番地,,23,116,4680049,,,,,,,2022-06-10,1,,,,,ティーマーク,0
1146,4180001151696,新規,0,2022-06-10,2022-06-10,ＫＩＮＤ　ＬＩＮＫ株式会社,,株式会社,愛知県,津島市,神守町字古道４５番地,,23,208,4960005,,,,,,,2022-06-10,1,,,,,カインドリンク,0
1149,4180003023910,新規,0,2022-06-10,2022-06-10,合同会社淺井園芸,,合同会社,愛知県,知多市,八幡字左り脇７９番地の３,,23,224,4780001,,,,,,,2022-06-10,1,,,,,アサイエンゲイ,0
1151,4180301036317,新規,0,2022-06-10,2022-06-10,株式会社愛産ホーム,,株式会社,愛知県,安城市,緑町１丁目１３番地５フリーポケット緑町Ｂ,,23,212,4460055,,,,,,,2022-06-10,1,,,,,アイサンホーム,0
1152,4180303005352,新規,0,2022-06-10,2022-06-10,合同会社スリーアローズ,,合同会社,愛知県,安城市,三河安城本町１丁目５番地１,,23,212,4460059,,,,,,,2022-06-10,1,,,,,スリーアローズ,0
1153,4180305009351,新規,0,2022-06-10,2022-06-10,一般社団法人愛知西三河子ども応援ステーション,,その他の設立登記法人,愛知県,豊田市,古瀬間町森下３４８番地１４,,23,211,4710801,,,,,,,2022-06-10,1,,,,,アイチニシミカワコドモオウエンステーション,0
1155,4190001029504,新規,0,2022-06-10,2022-06-10,株式会社マイソル,,株式会社,三重県,津市,藤方２２１５－５,,24,201,5140815,,,,,,,2022-06-10,1,,,,,マイソル,0
1160,4200001040153,新規,0,2022-06-10,2022-06-10,Ｆｒｏｍ　ｎｏｗ株式会社,,株式会社,岐阜県,関市,迫間１６５２,,21,205,5013924,,,,,,,2022-06-10,1,,,,,フロムナウ,0
1168,4240001059909,新規,0,2022-06-10,2022-06-10,株式会社アールテクノ広島,,株式会社,広島県,福山市,新市町相方２６１４番地,,34,207,7210000,,,,,,,2022-06-10,1,,,,,アールテクノヒロシマ,0
1171,4240003005654,新規,0,2022-06-10,2022-06-10,合同会社グラスドア,,合同会社,広島県,福山市,草戸町４丁目１６番１２号,,34,207,7200831,,,,,,,2022-06-10,1,,,,,グラスドア,0
1179,4260001036922,新規,0,2022-06-10,2022-06-10,株式会社ページ・ゼロ,,株式会社,岡山県,岡山市北区,下石井２丁目１０番３０号,,33,101,7000907,,,,,,,2022-06-10,1,,,,,ページゼロ,0
1180,4270001008540,新規,0,2022-06-10,2022-06-10,株式会社ひなた,,株式会社,鳥取県,鳥取市,国安２３７番地１,,31,201,6801132,,,,,,,2022-06-10,1,,,,,ヒナタ,0
1184,4290001097854,新規,0,2022-06-10,2022-06-10,ＨＳ　Ｊａｐａｎ　Ｍｏｔｏｒｓ株式会社,,株式会社,福岡県,福岡市南区,塩原４丁目１９番３８号ＰＬＥＡＳＴ大橋Ｖ３０５号,,40,134,8150032,,,,,,,2022-06-10,1,,,,,エイチエスジャパンモーターズ,0
1185,4290001097870,新規,0,2022-06-10,2022-06-10,株式会社プラタナスコーポレーション,,株式会社,福岡県,福岡市東区,高美台２丁目３９番７号,,40,131,8110215,,,,,,,2022-06-10,1,,,,,プラタナスコーポレーション,0
1189,4290003012613,新規,0,2022-06-10,2022-06-10,ＧｅｎＺ合同会社,,合同会社,福岡県,福岡市博多区,住吉２丁目１５番１０－６１４号カーサ博多,,40,132,8120018,,,,,,,2022-06-10,1,,,,,ゲンツ,0
1193,4290803004140,新規,0,2022-06-10,2022-06-10,合同会社ＴＰＮ,,合同会社,福岡県,北九州市小倉北区,中津口１丁目１０－２３Ｎビル１０３号,,40,106,8020018,,,,,,,2022-06-10,1,,,,,ティーピーエヌ,0
1196,4340001024794,新規,0,2022-06-10,2022-06-10,株式会社アジアンエコテック,,株式会社,鹿児島県,鹿児島市,西別府町３２００番地８,,46,201,8900033,,,,,,,2022-06-10,1,,,,,アジアンエコテック,0
1197,4350001017797,新規,0,2022-06-10,2022-06-10,株式会社ＭＯＡＩ,,株式会社,宮崎県,延岡市,若葉町１丁目２７７０番地,,45,203,8820875,,,,,,,2022-06-10,1,,,,,モアイ,0
1217,4420003002534,新規,0,2022-06-10,2022-06-10,さあふらっと合同会社,,合同会社,青森県,上北郡六戸町,大字犬落瀬字金矢７６番地１,,02,405,0330071,,,,,,,2022-06-10,1,,,,,サアフラット,0
1219,4430001086801,新規,0,2022-06-10,2022-06-10,株式会社ＳＭコーポレーション,,株式会社,北海道,札幌市手稲区,新発寒六条２丁目１番６号,,01,109,0060806,,,,,,,2022-06-10,1,,,,,エスエムコーポレーション,0
1223,4430003013927,新規,0,2022-06-10,2022-06-10,合同会社ＬＥＶＥＣＨＩ,,合同会社,北海道,札幌市豊平区,中の島二条３丁目５番２５－４０１号,,01,105,0620922,,,,,,,2022-06-10,1,,,,,レベチ,0
1224,4430003013984,新規,0,2022-06-10,2022-06-10,合同会社フィランソロフィー,,合同会社,北海道,札幌市清田区,平岡公園東１０丁目１１番２号,,01,110,0040882,,,,,,,2022-06-10,1,,,,,フィランソロフィー,0
1225,4430003013992,新規,0,2022-06-10,2022-06-10,合同会社高家,,合同会社,北海道,千歳市,栄町１丁目２０番地の３８,,01,224,0660061,,,,,,,2022-06-10,1,,,,,タキベ,0
1226,4430003014017,新規,0,2022-06-10,2022-06-10,合同会社番匠,,合同会社,北海道,札幌市豊平区,水車町２丁目５番１０－９０６号,,01,105,0620912,,,,,,,2022-06-10,1,,,,,バンジョウ,0
1232,4480001011762,新規,0,2022-06-10,2022-06-10,株式会社ニシムラ建築,,株式会社,徳島県,徳島市,津田本町４丁目３番７４－２号,,36,201,7708003,,,,,,,2022-06-10,1,,,,,ニシムラケンチク,0
1233,4700150109095,新規,0,2022-06-10,2022-05-27,～ＯＨＡＮＡ　ＳＴＯＲＹ～,,その他,大阪府,大阪市淀川区,十八条１丁目１３－１６,,27,123,5320001,,,,,,,2022-05-27,1,,,,,オハナストーリー,0
1241,5010001227215,新規,0,2022-06-10,2022-06-10,株式会社エルクラフト,,株式会社,東京都,中央区,銀座１丁目１２－４－７階,,13,102,1040061,,,,,,,2022-06-10,1,,,,,エルクラフト,0
1250,5010401167696,新規,0,2022-06-10,2022-06-10,株式会社ＭＳＡ,,株式会社,東京都,港区,六本木５丁目１６番５号インペリアル六本木１００１,,13,103,1060032,,,,,,,2022-06-10,1,,,,,エムエスエー,0
1251,5010401167713,新規,0,2022-06-10,2022-06-10,ＲＭＴＦ株式会社,,株式会社,東京都,港区,西新橋１丁目１－１日比谷ＦＯＲＴＴＯＷＥＲ１０Ｆ,,13,103,1050003,,,,,,,2022-06-10,1,,,,,アールエムティーエフ,0
1252,5010403027873,新規,0,2022-06-10,2022-06-10,合同会社嬉野,,合同会社,東京都,港区,元赤坂１丁目１番８号赤坂コミュニティビル４階,,13,103,1070051,,,,,,,2022-06-10,1,,,,,ウレシノ,0
1255,5010405021098,新規,0,2022-06-10,2022-06-10,ＪＭカノープス一般社団法人,,その他の設立登記法人,東京都,港区,六本木１丁目９番１０号アークヒルズ仙石山森タワー４０階,,13,103,1060032,,,,,,,2022-06-10,1,,,,,ジェイエムカノープス,0
1259,5010601061253,新規,0,2022-06-10,2022-06-10,株式会社井上,,株式会社,東京都,江東区,潮見１丁目２９－１５－１７０１,,13,108,1350052,,,,,,,2022-06-10,1,,,,,イノウエ,0
1265,5010701042789,新規,0,2022-06-10,2022-06-10,株式会社エステート＆インシュアランステクノロジーズ,,株式会社,東京都,品川区,北品川２丁目２４－９,,13,109,1400001,,,,,,,2022-06-10,1,,,,,エステートアンドインシュアランステクノロジーズ,0
1274,5010903007433,新規,0,2022-06-10,2022-06-10,ユートピアジャパン合同会社,,合同会社,東京都,世田谷区,深沢８丁目９番１８号,,13,112,1580081,,,,,,,2022-06-10,1,,,,,ユートピアジャパン,0
1283,5011003014840,新規,0,2022-06-10,2022-06-10,合同会社ｉＲｈｙｔｈｍ　Ｊａｐａｎ,,合同会社,東京都,渋谷区,渋谷２丁目２４番１２号,,13,113,1500002,,,,,,,2022-06-10,1,,,,,アイリズムジャパン,0
1286,5011101098983,新規,0,2022-06-10,2022-06-10,株式会社ｂｒｉｃｋｓ,,株式会社,東京都,新宿区,西新宿６丁目１２－１６天空ＭＵＲＡ３０２,,13,104,1600023,,,,,,,2022-06-10,1,,,,,ブリックス,0
1287,5011101099156,新規,0,2022-06-10,2022-06-10,株式会社神津,,株式会社,東京都,新宿区,新宿５丁目１８番９号ステージ新宿４階,,13,104,1600022,,,,,,,2022-06-10,1,,,,,コウヅ,0
1289,5011103011837,新規,0,2022-06-10,2022-06-10,鴻巣プロパティーズ合同会社,,合同会社,東京都,新宿区,四谷２丁目９番地１５東京ユナイテッド綜合事務所内,,13,104,1600004,,,,,,,2022-06-10,1,,,,,コウノスプロパティーズ,0
1299,5011803005089,新規,0,2022-06-10,2022-06-10,ｃｉｉｒｏｎ　ＴＯＫＹＯ合同会社,,合同会社,東京都,足立区,梅田６丁目２４－１１,,13,121,1230851,,,,,,,2022-06-10,1,,,,,シーロントウキョウ,0
1308,5013303006187,新規,0,2022-06-10,2022-06-10,夢ネット合同会社,,合同会社,東京都,豊島区,高田３丁目１０番２２号,,13,116,1710033,,,,,,,2022-06-10,1,,,,,ユメネット,0
1314,5020001146793,新規,0,2022-06-10,2022-06-10,一石二鳥株式会社,,株式会社,神奈川県,川崎市多摩区,長尾５丁目２２番地１４号プルミエール壱番館４０７号室,,14,135,2140023,,,,,,,2022-06-10,1,,,,,,0
1317,5020003021862,新規,0,2022-06-10,2022-06-10,辻野クラフトスピリッツ合同会社,,合同会社,神奈川県,横浜市磯子区,岡村４丁目２２番１６号,,14,107,2350021,,,,,,,2022-06-10,1,,,,,ツジノクラフトスピリッツ,0
1318,5020005015565,新規,0,2022-06-10,2022-06-10,特定非営利活動法人横浜芸妓組合,,その他の設立登記法人,神奈川県,横浜市港北区,篠原北２丁目１４番１５号,,14,109,2220021,,,,,,,2022-06-10,1,,,,,ヨコハマゲイギクミアイ,0
1321,5021001076196,新規,0,2022-06-10,2022-06-10,株式会社ｈｉｒｏ　ＤＥＳＩＧＮ,,株式会社,神奈川県,茅ヶ崎市,浜竹１丁目１０－３０－１,,14,207,2530021,,,,,,,2022-06-10,1,,,,,ヒロデザイン,0
1336,5030003019567,新規,0,2022-06-10,2022-06-10,東興合同会社,,合同会社,埼玉県,上尾市,本町３丁目３番９号華瀛ビル１０１,,11,219,3620014,,,,,,,2022-06-10,1,,,,,トウコウ,0
1351,5060001034937,新規,0,2022-06-10,2022-06-10,株式会社大笹工務店,,株式会社,栃木県,那須烏山市,中山８６７番地１,,09,215,3210604,,,,,,,2022-06-10,1,,,,,オオササコウムテン,0
1359,5080401025872,新規,0,2022-06-10,2022-06-10,株式会社奥浜名湖フードカンパニー,,株式会社,静岡県,浜松市北区,根洗町１３９０番地,,22,135,4338108,,,,,,,2022-06-10,1,,,,,オクハマナコフードカンパニー,0
1362,5100001035427,新規,0,2022-06-10,2022-06-10,株式会社ぱおず屋,,株式会社,長野県,諏訪市,大字豊田１５２１番地４,,20,206,3920016,,,,,,,2022-06-10,1,,,,,パオズヤ,0
1379,5120001246518,新規,0,2022-06-10,2022-06-10,株式会社ワークサポート,,株式会社,大阪府,大阪市中央区,釣鐘町２丁目３－９－９０２,,27,128,5400035,,,,,,,2022-06-10,1,,,,,ワークサポート,0
1380,5120001246534,新規,0,2022-06-10,2022-06-10,元一株式会社,,株式会社,大阪府,大阪市中央区,谷町７丁目３番４－２１５号Ａ,,27,128,5420012,,,,,,,2022-06-10,1,,,,,ゲンイチ,0
1381,5120001246550,新規,0,2022-06-10,2022-06-10,株式会社ディストピア,,株式会社,大阪府,大阪市北区,天神橋２丁目２番１０号ハイマウントビル３階,,27,127,5300041,,,,,,,2022-06-10,1,,,,,ディストピア,0
1398,5122001035941,新規,0,2022-06-10,2022-06-10,株式会社外為システムジャパン,,株式会社,大阪府,八尾市,桜ヶ丘１丁目９４,,27,212,5810869,,,,,,,2022-06-10,1,,,,,ガイタメシステムジャパン,0
1400,5122005003622,新規,0,2022-06-10,2022-06-10,一般社団法人パークフェスティバル協会,,その他の設立登記法人,大阪府,八尾市,東山本新町７丁目２番１５号,,27,212,5810866,,,,,,,2022-06-10,1,,,,,パークフェスティバルキョウカイ,0
1415,5160001024259,新規,0,2022-06-10,2022-06-10,株式会社Ｆ‐ＷＡＶＥ,,株式会社,滋賀県,草津市,南笠東２丁目７－１８,,25,206,5250071,,,,,,,2022-06-10,1,,,,,エフウェイヴ,0
1428,5180005019798,新規,0,2022-06-10,2022-06-10,一般社団法人アーネストインターナショナル,,その他の設立登記法人,愛知県,名古屋市中区,錦２丁目１３－２８龍屋ビル４Ｆ,,23,106,4600003,,,,,,,2022-06-10,1,,,,,アーネストインターナショナル,0
1430,5180305009350,新規,0,2022-06-10,2022-06-10,一般社団法人終活の窓口,,その他の設立登記法人,愛知県,岡崎市,真福寺町字越田２２２番地１,,23,202,4442106,,,,,,,2022-06-10,1,,,,,シュウカツノマドグチ,0
1431,5190001029503,新規,0,2022-06-10,2022-06-10,株式会社エーカン,,株式会社,三重県,鈴鹿市,八野町９２３番地７,,24,207,5130837,,,,,,,2022-06-10,1,,,,,エーカン,0
1433,5190003004009,新規,0,2022-06-10,2022-06-10,合同会社巴庵津店,,合同会社,三重県,津市,西阿漕町岩田２４番地１２,,24,201,5140833,,,,,,,2022-06-10,1,,,,,トモエアンツテン,0
1442,5230005009232,新規,0,2022-06-10,2022-06-10,特定非営利活動法人ぶどうの花,,その他の設立登記法人,富山県,砺波市,池原７８１番地,,16,208,9391415,,,,,,,2022-06-10,1,,,,,,0
1448,5240003005653,新規,0,2022-06-10,2022-06-10,オケアノス合同会社,,合同会社,広島県,広島市中区,東白島町１６番８－５０２号,,34,101,7300004,,,,,,,2022-06-10,1,,,,,オケアノス,0
1453,5260001036921,新規,0,2022-06-10,2022-06-10,株式会社Ｊｏｙｃｙ,,株式会社,岡山県,岡山市北区,東古松南町４－３０－８０１,,33,101,7000922,,,,,,,2022-06-10,1,,,,,,0
1458,5290001097853,新規,0,2022-06-10,2022-06-10,株式会社ベネボ,,株式会社,福岡県,福岡市中央区,港１丁目８番４－１３０１号,,40,133,8100075,,,,,,,2022-06-10,1,,,,,ベネボ,0
1459,5290001097861,新規,0,2022-06-10,2022-06-10,株式会社オフィスファイン,,株式会社,福岡県,飯塚市,川津４５４－９,,40,205,8200067,,,,,,,2022-06-10,1,,,,,オフィスファイン,0
1463,5290003012612,新規,0,2022-06-10,2022-06-10,合同会社ＪＧＭマネジメント,,合同会社,福岡県,福岡市城南区,長尾３丁目８番２１号,,40,136,8140123,,,,,,,2022-06-10,1,,,,,ジェージーエムマネジメント,0
1464,5290801028594,新規,0,2022-06-10,2022-06-10,株式会社ＭＣ,,株式会社,福岡県,北九州市小倉南区,西貫２丁目３番５号,,40,107,8000243,,,,,,,2022-06-10,1,,,,,エムシー,0
1480,5350001017796,新規,0,2022-06-10,2022-06-10,株式会社１８Ｗｏｏｏｒｌｄ,,株式会社,宮崎県,宮崎市,橘通東３丁目５番２６号カサディ２．４ビル,,45,201,8800805,,,,,,,2022-06-10,1,,,,,イチハチワールド,0
1483,5360001030542,新規,0,2022-06-10,2022-06-10,株式会社Ｊａｚｚ,,株式会社,沖縄県,沖縄市,与儀３丁目１４番９－８０１号,,47,211,9042174,,,,,,,2022-06-10,1,,,,,ジャズ,0
1498,5430003013983,新規,0,2022-06-10,2022-06-10,Ｇ‐ＣＯＮ合同会社,,合同会社,北海道,札幌市北区,あいの里三条５丁目３番２５号,,01,102,0028073,,,,,,,2022-06-10,1,,,,,ジーコン,0
1511,5700150109350,新規,0,2022-06-10,2022-06-10,深＿市易碩科技有限公司,00126754,外国会社等,,,,,,,,深＿市龍華区民治街道民治社区１９７０科技園８棟６１５,00126755,,,,,2022-06-10,1,,,,,シンセンシイセキカギユウゲンコウシ,0
1512,5700150109433,新規,0,2022-06-10,2022-06-10,株式会社新世界　東京事務所,,外国会社等,東京都,港区,虎ノ門１丁目１６－６虎ノ門ラポートビル４階,,13,103,1050001,韓国ソウル市中欧忠武路１街２５－５,,,,,,2022-06-10,1,,,,,カブシキガイシヤシンセカイトウキヨウジムシヨ,0
1526,6010001227239,新規,0,2022-06-10,2022-06-10,ＰＲＯＬＩＢＹＳ　ＥＮＴＥＲＰＲＩＳＥ株式会社,,株式会社,東京都,千代田区,内幸町２丁目２番２号富国生命ビルヤンセン外国法事務弁護士事務所内,,13,101,1000011,,,,,,,2022-06-10,1,,,,,プロリビスエンタープライズ,0
1528,6010003037859,新規,0,2022-06-10,2022-06-10,ルートキャリア合同会社,,合同会社,東京都,中央区,銀座１丁目１５番７号ＭＡＣ銀座ビル３階,,13,102,1040061,,,,,,,2022-06-10,1,,,,,ルートキャリア,0
1530,6010101015205,新規,0,2022-06-10,2022-06-10,グランドクリエイト株式会社,,株式会社,東京都,八王子市,中野山王１丁目５番４２号ジュネスガレージハウス八王子Ａ号室,,13,201,1920042,,,,,,,2022-06-10,1,,,,,グランドクリエイト,0
1534,6010401167778,新規,0,2022-06-10,2022-06-10,ＮＡホールディングス株式会社,,株式会社,東京都,港区,赤坂１丁目１２番３２号アーク森ビル３０階,,13,103,1070052,,,,,,,2022-06-10,1,,,,,エヌホールディングス,0
1535,6010401167869,新規,0,2022-06-10,2022-06-10,Ｒｅｂｏｏｔ株式会社,,株式会社,東京都,港区,赤坂９丁目７番２号東京ミッドタウン・レジデンシィズ１８１３,,13,103,1070052,,,,,,,2022-06-10,1,,,,,リブート,0
1537,6010403027864,新規,0,2022-06-10,2022-06-10,ＪＭアヴィオール２合同会社,,合同会社,東京都,港区,六本木１丁目９番１０号アークヒルズ仙石山森タワー４０階,,13,103,1060032,,,,,,,2022-06-10,1,,,,,ジェイエムアヴィオールツー,0
1538,6010405021056,新規,0,2022-06-10,2022-06-10,一般社団法人日本のり面建設・運搬技術協会,,その他の設立登記法人,東京都,港区,新橋４丁目２７番９号新橋スズキビル２階,,13,103,1050004,,,,,,,2022-06-10,1,,,,,ニホンノリメンケンセツウンパンギジュツキョウカイ,0
1539,6010405021064,新規,0,2022-06-10,2022-06-10,一般財団法人ＴＣＢ財団,,その他の設立登記法人,東京都,港区,西新橋３丁目２５番３３号,,13,103,1050003,,,,,,,2022-06-10,1,,,,,ティーシービーザイダン,0
1548,6010703006270,新規,0,2022-06-10,2022-06-10,合同会社Ｔａｌｅ,,合同会社,東京都,品川区,東五反田１丁目６番３号,,13,109,1410022,,,,,,,2022-06-10,1,,,,,テイル,0
1554,6010903007424,新規,0,2022-06-10,2022-06-10,合同会社イーエヌコーポレーション,,合同会社,東京都,世田谷区,奥沢７丁目４６―１９,,13,112,1580083,,,,,,,2022-06-10,1,,,,,イーエヌコーポレーション,0
1570,6011103011836,新規,0,2022-06-10,2022-06-10,合同会社リーフペア,,合同会社,東京都,新宿区,西新宿３丁目３番１３号,,13,104,1600023,,,,,,,2022-06-10,1,,,,,リーフペア,0
1574,6011203003832,新規,0,2022-06-10,2022-06-10,合同会社南部建匠,,合同会社,東京都,中野区,鷺宮６丁目８番６号,,13,114,1650032,,,,,,,2022-06-10,1,,,,,ナンブケンショウ,0
1575,6011203003840,新規,0,2022-06-10,2022-06-10,合同会社Ａｔｔｅｎｇｅｒ,,合同会社,東京都,中野区,本町４丁目１９番１３－３０１号,,13,114,1640012,,,,,,,2022-06-10,1,,,,,アテンジャー,0
1576,6011401024291,新規,0,2022-06-10,2022-06-10,株式会社ＨＡＴ　ＡＳＳＯＣＩＡＴＥＳ,,株式会社,東京都,板橋区,小茂根３丁目９番８－５０９号,,13,119,1730037,,,,,,,2022-06-10,1,,,,,ハットアソシエイツ,0
1577,6011401024300,新規,0,2022-06-10,2022-06-10,株式会社ＡＭＧ,,株式会社,東京都,板橋区,板橋４丁目５０番４号,,13,119,1730004,,,,,,,2022-06-10,1,,,,,エーエムジー,0
1583,6011703003159,新規,0,2022-06-10,2022-06-10,Ｔ．Ｍ．ＪＡＰＡＮ合同会社,,合同会社,東京都,江戸川区,船堀７丁目３番１１号,,13,123,1340091,,,,,,,2022-06-10,1,,,,,ティーエムジャパン,0
1585,6011801040839,新規,0,2022-06-10,2022-06-10,株式会社じゃんぷ,,株式会社,東京都,足立区,扇２丁目１０番２号,,13,121,1230873,,,,,,,2022-06-10,1,,,,,ジャンプ,0
1587,6011803005121,新規,0,2022-06-10,2022-06-10,合同会社アメリ,,合同会社,東京都,足立区,西伊興４丁目８番２０号２階,,13,121,1210824,,,,,,,2022-06-10,1,,,,,アメリ,0
1589,6012401039288,新規,0,2022-06-10,2022-06-10,株式会社スゴイクレアル,,株式会社,東京都,三鷹市,下連雀３丁目３－３２,,13,204,1810013,,,,,,,2022-06-10,1,,,,,スゴイクレアル,0
1591,6013101008938,新規,0,2022-06-10,2022-06-10,株式会社フォレ・プラ,,株式会社,東京都,あきる野市,戸倉２０５番地,,13,228,1900173,,,,,,,2022-06-10,1,,,,,フォレプラ,0
1599,6020001146850,新規,0,2022-06-10,2022-06-10,株式会社アートファイブ,,株式会社,神奈川県,横浜市港北区,綱島台１５番５号,,14,109,2230054,,,,,,,2022-06-10,1,,,,,アートファイブ,0
1602,6020003021894,新規,0,2022-06-10,2022-06-10,合同会社グリシーヌ・コトリ,,合同会社,神奈川県,川崎市川崎区,港町５－２－７１７,,14,131,2100807,,,,,,,2022-06-10,1,,,,,グリシーヌコトリ,0
1615,6030001148565,新規,0,2022-06-10,2022-06-10,株式会社フジヤマテクノインターナショナル,,株式会社,埼玉県,熊谷市,西野３７９番地１,,11,202,3600216,,,,,,,2022-06-10,1,,,,,フジヤマテクノインターナショナル,0
1618,6030003019558,新規,0,2022-06-10,2022-06-10,Ｂｌｕｅ　Ｋｅｔｔｌｅ合同会社,,合同会社,埼玉県,川口市,北原台２丁目１２－３２アルモニー北原台２０３,,11,203,3330815,,,,,,,2022-06-10,1,,,,,ブルーケトル,0
1619,6030003019566,新規,0,2022-06-10,2022-06-10,合同会社ＤＲ　ＩＮＴＥＲＮＡＴＩＯＮＡＬ,,合同会社,埼玉県,所沢市,緑町４丁目３番１９号緑ハイツ１０２号室,,11,208,3591111,,,,,,,2022-06-10,1,,,,,ディーアールインターナショナル,0
1621,6030005020885,新規,0,2022-06-10,2022-06-10,特定非営利活動法人桶川アフタースクール,,その他の設立登記法人,埼玉県,桶川市,若宮１丁目６番地４１号,,11,231,3630022,,,,,,,2022-06-10,1,,,,,オケガワアフタースクール,0
1632,6050001051197,新規,0,2022-06-10,2022-06-10,Ｔ．Ｊ　ＴＲＡＤＩＮＧ株式会社,,株式会社,茨城県,常総市,大生郷町１０５２番地２,,08,211,3002521,,,,,,,2022-06-10,1,,,,,ティージェートレーディング,0
1642,6070001039307,新規,0,2022-06-10,2022-06-10,インテリアコバヤシ株式会社,,株式会社,群馬県,太田市,龍舞町２８２番地２,,10,205,3730806,,,,,,,2022-06-10,1,,,,,インテリアコバヤシ,0
1658,6120001246533,新規,0,2022-06-10,2022-06-10,ＲＵＢＹＤＯ株式会社,,株式会社,大阪府,大阪市中央区,谷町７丁目３番４－２１５号Ｄ,,27,128,5420012,,,,,,,2022-06-10,1,,,,,ルビード,0
1659,6120001246566,新規,0,2022-06-10,2022-06-10,株式会社康健,,株式会社,大阪府,大阪市西成区,天下茶屋東１丁目１８番１７号,,27,122,5570011,,,,,,,2022-06-10,1,,,,,コウケン,0
1669,6120101065718,新規,0,2022-06-10,2022-06-10,株式会社Ｐｅｔｉｔ　ｘ　Ｌｕｘｅ,,株式会社,大阪府,和泉市,箕形町１丁目１番２号,,27,219,5940042,,,,,,,2022-06-10,1,,,,,プティリュクス,0
1678,6130001071939,新規,0,2022-06-10,2022-06-10,株式会社久保田,,株式会社,京都府,京都市伏見区,石田大山町５８番２号,,26,109,6011433,,,,,,,2022-06-10,1,,,,,クボタ,0
1689,6140001126295,新規,0,2022-06-10,2022-06-10,株式会社みらいマーケティング本舗,,株式会社,兵庫県,加古川市,平岡町新在家５１４番地の１９号,,28,210,6750101,,,,,,,2022-06-10,1,,,,,ミライマーケティングホンポ,0
1690,6140001126312,新規,0,2022-06-10,2022-06-10,株式会社福渝,,株式会社,兵庫県,伊丹市,稲野町３丁目１０番地,,28,207,6640861,,,,,,,2022-06-10,1,,,,,フクユ,0
1691,6140003017765,新規,0,2022-06-10,2022-06-10,ＴＨＩＥＮ　ＡＮ布袋合同会社,,合同会社,兵庫県,神戸市中央区,三宮町１丁目８－１－００６,,28,110,6500021,,,,,,,2022-06-10,1,,,,,ティエンアンホテイ,0
1694,6150003002700,新規,0,2022-06-10,2022-06-10,合同会社Ｋ＆Ａ,,合同会社,奈良県,北葛城郡河合町,彩りの杜５６８番地２２０,,29,427,6360057,,,,,,,2022-06-10,1,,,,,ケーアンドエー,0
1709,6180301036323,新規,0,2022-06-10,2022-06-10,株式会社のんほい・ほうらい,,株式会社,愛知県,新城市,大野字下野３４番地２,,23,221,4411615,,,,,,,2022-06-10,1,,,,,ノンホイホウライ,0
1710,6200001040151,新規,0,2022-06-10,2022-06-10,ギフト株式会社,,株式会社,岐阜県,岐阜市,長良東２丁目１０９番地ＤｅｅｐＩｍｐａｃｔＣ,,21,201,5020082,,,,,,,2022-06-10,1,,,,,ギフト,0
1724,6240001059915,新規,0,2022-06-10,2022-06-10,株式会社ＳａｌｌｙＳｔｙｌｅ,,株式会社,広島県,広島市中区,吉島東１丁目５番７号,,34,101,7300822,,,,,,,2022-06-10,1,,,,,サリースタイル,0
1727,6250003003085,新規,0,2022-06-10,2022-06-10,合同会社ＭＯＫＯ,,合同会社,山口県,山口市,佐山９４５－９８,,35,203,7540894,,,,,,,2022-06-10,1,,,,,モコ,0
1728,6250003003093,新規,0,2022-06-10,2022-06-10,合同会社ＳＫフィールド,,合同会社,山口県,山陽小野田市,大字山野井１８２３番地７,,35,216,7570003,,,,,,,2022-06-10,1,,,,,エスケイフィールド,0
1732,6260001036920,新規,0,2022-06-10,2022-06-10,株式会社Ｓａｐｐｈｉｒｅ,,株式会社,岡山県,岡山市北区,田町２丁目８番１８号１Ｆ,,33,101,7000825,,,,,,,2022-06-10,1,,,,,サファイア,0
1737,6290001097860,新規,0,2022-06-10,2022-06-10,株式会社Ｐｒｉｍｅ,,株式会社,福岡県,福岡市中央区,天神３丁目１６番１５号,,40,133,8100001,,,,,,,2022-06-10,1,,,,,プライム,0
1742,6290003012611,新規,0,2022-06-10,2022-06-10,ブライトクルー合同会社,,合同会社,福岡県,福岡市南区,井尻４丁目４５番１０号,,40,134,8111302,,,,,,,2022-06-10,1,,,,,ブライトクルー,0
1752,6320001019126,新規,0,2022-06-10,2022-06-10,株式会社ＥＤＥＮ,,株式会社,大分県,別府市,楠町７番３０号,,44,202,8740943,,,,,,,2022-06-10,1,,,,,エデン,0
1753,6320003003821,新規,0,2022-06-10,2022-06-10,合同会社あんどう,,合同会社,大分県,別府市,亀川四の湯町２０番８号,,44,202,8740025,,,,,,,2022-06-10,1,,,,,アンドウ,0
1768,6400003002947,新規,0,2022-06-10,2022-06-10,いちごホーム合同会社,,合同会社,岩手県,盛岡市,土淵字四ツ屋６８番地２,,03,201,0200144,,,,,,,2022-06-10,1,,,,,イチゴホーム,0
1773,6430001086766,新規,0,2022-06-10,2022-06-10,株式会社リアルマネジメント,,株式会社,北海道,札幌市中央区,南三条西１２丁目３２０番地８,,01,101,0600063,,,,,,,2022-06-10,1,,,,,リアルマネジメント,0
1774,6430001086782,新規,0,2022-06-10,2022-06-10,株式会社エムサン,,株式会社,北海道,札幌市清田区,清田二条３丁目７番２７,,01,110,0040842,,,,,,,2022-06-10,1,,,,,エムサン,0
1775,6430001086799,新規,0,2022-06-10,2022-06-10,株式会社伊佐久,,株式会社,北海道,三笠市,高美町２番地３,,01,222,0682154,,,,,,,2022-06-10,1,,,,,イサク,0
1777,6430003013982,新規,0,2022-06-10,2022-06-10,合同会社Ｒ’ｓ　Ｔｏｗｎ,,合同会社,北海道,札幌市手稲区,稲穂五条７丁目８番１号,,01,109,0060035,,,,,,,2022-06-10,1,,,,,アールズタウン,0
1782,6470003002197,新規,0,2022-06-10,2022-06-10,合同会社笠井,,合同会社,香川県,高松市,下田井町６３３番地２,,37,201,7610313,,,,,,,2022-06-10,1,,,,,カサイ,0
1784,6490003001668,新規,0,2022-06-10,2022-06-10,合同会社アシスト,,合同会社,高知県,香美市,土佐山田町４１８番地３,,39,212,7820047,,,,,,,2022-06-10,1,,,,,アシスト,0
1793,7010001227196,新規,0,2022-06-10,2022-06-10,株式会社ＶＥＮＥ,,株式会社,東京都,中央区,銀座１丁目１２番４号Ｎ＆Ｅ・ＢＬＤ．７階,,13,102,1040061,,,,,,,2022-06-10,1,,,,,ベネ,0
1799,7010003037825,新規,0,2022-06-10,2022-06-10,合同会社ＨＯＭＵＲＡ,,合同会社,東京都,中央区,銀座８丁目１５番３号,,13,102,1040061,,,,,,,2022-06-10,1,,,,,ホムラ,0
1814,7010403027863,新規,0,2022-06-10,2022-06-10,ＪＭアヴィオール１合同会社,,合同会社,東京都,港区,六本木１丁目９番１０号アークヒルズ仙石山森タワー４０階,,13,103,1060032,,,,,,,2022-06-10,1,,,,,ジェイエムアヴィオールワン,0
1817,7010501048951,新規,0,2022-06-10,2022-06-10,株式会社Ｓｎｏｏ,,株式会社,東京都,台東区,元浅草２丁目７番１０号,,13,106,1110041,,,,,,,2022-06-10,1,,,,,スヌー,0
1835,7011001147962,新規,0,2022-06-10,2022-06-10,株式会社ＯｎｅＷａｙＤｏｏｒ,,株式会社,東京都,渋谷区,渋谷２丁目１９－１５宮益坂ビルディング６０９,,13,113,1500002,,,,,,,2022-06-10,1,,,,,ワンウェイドア,0
1836,7011003014789,新規,0,2022-06-10,2022-06-10,ナチュールプルミエ合同会社,,合同会社,東京都,渋谷区,神宮前６丁目１９番１５号,,13,113,1500001,,,,,,,2022-06-10,1,,,,,ナチュールプルミエ,0
1837,7011003014814,新規,0,2022-06-10,2022-06-10,合同会社Ｃｙｂｅｒｂｕｎｋ,,合同会社,東京都,渋谷区,渋谷２丁目１９－１５宮益坂ビルディング６０９,,13,113,1500002,,,,,,,2022-06-10,1,,,,,サイバーバンク,0
1842,7011101099146,新規,0,2022-06-10,2022-06-10,１０４株式会社,,株式会社,東京都,新宿区,西新宿５丁目５番１－２７１７号,,13,104,1600023,,,,,,,2022-06-10,1,,,,,イチゼロヨン,0
1843,7011105010281,新規,0,2022-06-10,2022-06-10,鴻巣ホールディングス一般社団法人,,その他の設立登記法人,東京都,新宿区,四谷２丁目９番地１５東京ユナイテッド綜合事務所内,,13,104,1600004,,,,,,,2022-06-10,1,,,,,コウノスホールディングス,0
1857,7011801040796,新規,0,2022-06-10,2022-06-10,木下建設株式会社,,株式会社,東京都,足立区,東和４丁目２３－８－３Ｆ,,13,121,1200003,,,,,,,2022-06-10,1,,,,,キノシタケンセツ,0
1859,7011803005120,新規,0,2022-06-10,2022-06-10,ロンサール合同会社,,合同会社,東京都,足立区,鹿浜８丁目１９番１０号,,13,121,1230864,,,,,,,2022-06-10,1,,,,,ロンサール,0
1862,7012803002801,新規,0,2022-06-10,2022-06-10,エボックス合同会社,,合同会社,東京都,国分寺市,西恋ヶ窪２丁目１０番地４５,,13,214,1850013,,,,,,,2022-06-10,1,,,,,エボックス,0
1863,7013103001139,新規,0,2022-06-10,2022-06-10,合同会社一瀬建築設計事務所,,合同会社,東京都,青梅市,河辺町８丁目７番地の１０,,13,205,1980036,,,,,,,2022-06-10,1,,,,,イチノセケンチクセッケイジムショ,0
1873,7013305003354,新規,0,2022-06-10,2022-06-10,一般財団法人吉岡文化教育協会,,その他の設立登記法人,東京都,豊島区,高田３丁目１０番２２号安斎ビル３階,,13,116,1710033,,,,,,,2022-06-10,1,,,,,ヨシオカブンカキョウイクキョウカイ,0
1885,7021001076194,新規,0,2022-06-10,2022-06-10,ＹＢ　ＪＡＰＡＮ株式会社,,株式会社,神奈川県,座間市,西栗原２丁目１－４１－５ＹＢＪＡＰＡＮ（株）,,14,216,2520016,,,,,,,2022-06-10,1,,,,,ワイビージャパン,0
1897,7030001148614,新規,0,2022-06-10,2022-06-10,株式会社ヨロズラボ,,株式会社,埼玉県,川口市,前川４丁目３８番地１４号,,11,203,3330842,,,,,,,2022-06-10,1,,,,,ヨロズラボ,0
1905,7030003019573,新規,0,2022-06-10,2022-06-10,合同会社ともゑ,,合同会社,埼玉県,所沢市,西所沢１丁目４番１８号,,11,208,3591144,,,,,,,2022-06-10,1,,,,,トモエ,0
1914,7050001051196,新規,0,2022-06-10,2022-06-10,Ａｌｉｔｏｍｏ　Ａｕｔｏ株式会社,,株式会社,茨城県,結城市,大字結城１５４１番地ハイム安井Ｂ棟２０１号室,,08,207,3070001,,,,,,,2022-06-10,1,,,,,アリトモオート,0
1916,7070001039314,新規,0,2022-06-10,2022-06-10,株式会社さんびゃくしゃ,,株式会社,群馬県,前橋市,南町２丁目４２番６号,,10,201,3710805,,,,,,,2022-06-10,1,,,,,サンビャクシャ,0
1922,7080403004559,新規,0,2022-06-10,2022-06-10,Ａ‐ＲＩＳＥ合同会社,,合同会社,静岡県,菊川市,堀之内１６１３番地の５,,22,224,4390006,,,,,,,2022-06-10,1,,,,,エーライズ,0
1940,7120001246524,新規,0,2022-06-10,2022-06-10,日本オリジン株式会社,,株式会社,大阪府,大阪市阿倍野区,松崎町４丁目５番３８－２Ｆ,,27,119,5450053,,,,,,,2022-06-10,1,,,,,ニホンオリジン,0
1941,7120001246557,新規,0,2022-06-10,2022-06-10,ＣＹＧＮＵＸ株式会社,,株式会社,大阪府,大阪市住吉区,大領４丁目１６番４－５０１号,,27,120,5580001,,,,,,,2022-06-10,1,,,,,シグナックス,0
1957,7140001126286,新規,0,2022-06-10,2022-06-10,株式会社Ｇ．ｓｐａｃｅ,,株式会社,兵庫県,姫路市,砥堀１１７６番地２４,,28,201,6700802,,,,,,,2022-06-10,1,,,,,ジースペース,0
1971,7180001151693,新規,0,2022-06-10,2022-06-10,秋田株式会社,,株式会社,愛知県,名古屋市西区,又穂町３丁目３８番地の１,,23,104,4510014,,,,,,,2022-06-10,1,,,,,アキタ,0
1982,7180301036322,新規,0,2022-06-10,2022-06-10,株式会社浜島ホールディングス,,株式会社,愛知県,豊川市,本野ケ原１丁目１００番地,,23,207,4420005,,,,,,,2022-06-10,1,,,,,ハマジマホールディングス,0
1986,7200001040167,新規,0,2022-06-10,2022-06-10,株式会社マーチハウジング,,株式会社,岐阜県,各務原市,蘇原興亜町５丁目２７番地,,21,213,5040814,,,,,,,2022-06-10,1,,,,,マーチハウジング,0
2015,7290001097851,新規,0,2022-06-10,2022-06-10,株式会社ミライズ,,株式会社,福岡県,筑紫野市,大字原１３９番地１４５,,40,217,8180005,,,,,,,2022-06-10,1,,,,,ミライズ,0
2023,7320003003829,新規,0,2022-06-10,2022-06-10,合同会社大海組,,合同会社,大分県,大分市,大字羽田５６４番地の４,,44,201,8700942,,,,,,,2022-06-10,1,,,,,タイカグミ,0
2032,7370003005721,新規,0,2022-06-10,2022-06-10,合同会社３ＳＸ,,合同会社,宮城県,仙台市青葉区,中央４丁目８番１７号,,04,101,9800021,,,,,,,2022-06-10,1,,,,,スリーエスエックス,0
2040,7390001016925,新規,0,2022-06-10,2022-06-10,株式会社カーズプラス,,株式会社,山形県,上山市,弁天１丁目８番１０号,,06,207,9993161,,,,,,,2022-06-10,1,,,,,カーズプラス,0
2044,7430001086798,新規,0,2022-06-10,2022-06-10,株式会社リフネ,,株式会社,北海道,札幌市北区,あいの里三条７丁目１５番１号,,01,102,0028073,,,,,,,2022-06-10,1,,,,,リフネ,0
2045,7430001086848,新規,0,2022-06-10,2022-06-10,札幌アセット会計法人株式会社,,株式会社,北海道,札幌市中央区,北二条西２７丁目２番１５号,,01,101,0640822,,,,,,,2022-06-10,1,,,,,サッポロアセットカイケイホウジン,0
2047,7430003013998,新規,0,2022-06-10,2022-06-10,合同会社ｉＶＥＳ,,合同会社,北海道,札幌市中央区,北四条西４丁目１－７ＭＭＳ札幌駅前ビル,,01,101,0600004,,,,,,,2022-06-10,1,,,,,イーヴェス,0
2048,7430003014022,新規,0,2022-06-10,2022-06-10,合同会社イールパートナーズ,,合同会社,北海道,札幌市白石区,平和通１丁目北８番１２－１０５号,,01,104,0030029,,,,,,,2022-06-10,1,,,,,イールパートナーズ,0
2050,7450001013718,新規,0,2022-06-10,2022-06-10,株式会社イヤクル,,株式会社,北海道,枝幸郡浜頓別町,北四条４丁目１番地,,01,512,0985714,,,,,,,2022-06-10,1,,,,,イヤクル,0
2056,7500001024263,新規,0,2022-06-10,2022-06-10,株式会社ＯＵＫＩ,,株式会社,愛媛県,松山市,南土居町９９番地１,,38,201,7911116,,,,,,,2022-06-10,1,,,,,オウキ,0
2058,7500003002845,新規,0,2022-06-10,2022-06-10,合同会社リトルモア,,合同会社,愛媛県,宇和島市,三間町成家８４５番地,,38,203,7981103,,,,,,,2022-06-10,1,,,,,リトルモア,0
2065,7700150109381,新規,0,2022-06-10,2022-06-10,ＰＡＣＩＦＩＣ　ＭＡＮＳＩＯＮ　ＬＩＭＩＴＥＤ,,外国会社等,東京都,港区,西麻布４丁目３９番地１,,13,103,1060031,Ｍｏｒｇａｎ　＆　Ｍｏｒｇａｎ　Ｂｕｉｌｄｉｎｇ，Ｐａｓｅａ　Ｅｓｔａｔｅ，Ｒｏａｄ　Ｔｏｗｎ，Ｔｏｒｔｏｌａ，Ｂｒｉｔｉｓｈ　Ｖｉｒｇｉｎ　Ｉｓｌａｎｄ,,,,,,2022-06-10,1,,,,,パシフイツクマンシヨンリミテツド,0
2066,7700150109423,新規,0,2022-06-10,2022-06-10,Ｐｉｘｅｌ　Ｃｏｍｐｕｔｅｒ　Ｃｏｎｓｕｌｔａｎｃｙ　Ｓｅｒｖｉｘｅｓ,,外国会社等,東京都,中野区,沼袋２丁目１２番１０号,,13,114,1650025,ネパール連邦民主共和国ジャワラケル郡ラリトプル副都心の１３,,,,,,2022-06-10,1,,,,,ピクセルコンピユーターコンサルタンシーサービスセス,0
2077,8010001227278,新規,0,2022-06-10,2022-06-10,ＴＧ　Ｐａｒｔｎｅｒｓ株式会社,,株式会社,東京都,中央区,日本橋３丁目９番１号,,13,102,1030027,,,,,,,2022-06-10,1,,,,,ティージーパートナーズ,0
2079,8010003037865,新規,0,2022-06-10,2022-06-10,合同会社ライラックマネジメント,,合同会社,東京都,千代田区,丸の内３丁目１番１号東京共同会計事務所内,,13,101,1000005,,,,,,,2022-06-10,1,,,,,ライラックマネジメント,0
2081,8010103001936,新規,0,2022-06-10,2022-06-10,合同会社虹,,合同会社,東京都,八王子市,三崎町９－１３東盛ビル３階,,13,201,1920084,,,,,,,2022-06-10,1,,,,,ニジ,0
2087,8010401167859,新規,0,2022-06-10,2022-06-10,株式会社スリー・テン,,株式会社,東京都,港区,三田１丁目１１番４５号,,13,103,1080073,,,,,,,2022-06-10,1,,,,,スリーテン,0
2088,8010401167883,新規,0,2022-06-10,2022-06-10,株式会社Ｇｒｏｗｐａｌ,,株式会社,東京都,港区,南麻布４丁目４番６－２１０号,,13,103,1060047,,,,,,,2022-06-10,1,,,,,グローパル,0
2089,8010403027854,新規,0,2022-06-10,2022-06-10,ＳｉｌｋＲｏａｄ合同会社,,合同会社,東京都,港区,六本木１丁目６番１号泉ガーデンタワーＫＰＭＧ税理士法人内,,13,103,1060032,,,,,,,2022-06-10,1,,,,,シルクロード,0
2090,8010403027862,新規,0,2022-06-10,2022-06-10,ＪＭカノープス合同会社,,合同会社,東京都,港区,六本木１丁目９番１０号アークヒルズ仙石山森タワー４０階,,13,103,1060032,,,,,,,2022-06-10,1,,,,,ジェイエムカノープス,0
2094,8010501048934,新規,0,2022-06-10,2022-06-10,鏡速堂株式会社,,株式会社,東京都,台東区,上野６丁目７番１６号川久保ビル４１０室,,13,106,1100005,,,,,,,2022-06-10,1,,,,,キョウソクドウ,0
2105,8010701042778,新規,0,2022-06-10,2022-06-10,株式会社Ｓｅｃｏｎｄ,,株式会社,東京都,品川区,大井２丁目２４番５号イルソーレ大井１０１,,13,109,1400014,,,,,,,2022-06-10,1,,,,,セカンド,0
2106,8010701042786,新規,0,2022-06-10,2022-06-10,株式会社オアーズ,,株式会社,東京都,品川区,東五反田２丁目５番１１ー３０３号,,13,109,1410022,,,,,,,2022-06-10,1,,,,,オアーズ,0
2107,8010701042794,新規,0,2022-06-10,2022-06-10,株式会社ワイズランド,,株式会社,東京都,品川区,東五反田３丁目１７番１６号ネオハイツ・ヴェルビュ島津山,,13,109,1410022,,,,,,,2022-06-10,1,,,,,ワイズランド,0
2124,8011001148035,新規,0,2022-06-10,2022-06-10,株式会社ワイズアソシエイト,,株式会社,東京都,渋谷区,渋谷２丁目１０番３号大成不動産２Ｆ,,13,113,1500002,,,,,,,2022-06-10,1,,,,,ワイズアソシエイト,0
2129,8011101099137,新規,0,2022-06-10,2022-06-10,博安株式会社,,株式会社,東京都,新宿区,歌舞伎町２丁目２５番８号エコプレイス新宿２４６,,13,104,1600021,,,,,,,2022-06-10,1,,,,,ボーアン,0
2130,8011101099145,新規,0,2022-06-10,2022-06-10,株式会社北斗,,株式会社,東京都,新宿区,若葉３丁目８番地,,13,104,1600011,,,,,,,2022-06-10,1,,,,,ホクト,0
2131,8011101099178,新規,0,2022-06-10,2022-06-10,株式会社ＪＣＯＬＬＥＣＴ,,株式会社,東京都,新宿区,歌舞伎町１丁目１４番５号金鳥３ビル８階,,13,104,1600021,,,,,,,2022-06-10,1,,,,,ジェイコレクト,0
2134,8011401024307,新規,0,2022-06-10,2022-06-10,勇恒株式会社,,株式会社,東京都,板橋区,南常盤台１丁目２７番２号２Ｆ,,13,119,1740072,,,,,,,2022-06-10,1,,,,,オツネ,0
2138,8011501028117,新規,0,2022-06-10,2022-06-10,株式会社ＦＴＥ,,株式会社,東京都,北区,西ケ原１丁目６番４－３０４号,,13,117,1140024,,,,,,,2022-06-10,1,,,,,エフティーイー,0
2143,8012401039286,新規,0,2022-06-10,2022-06-10,株式会社リライフ,,株式会社,東京都,三鷹市,大沢６丁目２番６号サンフォーリア２０２,,13,204,1810015,,,,,,,2022-06-10,1,,,,,リライフ,0
2145,8012701017099,新規,0,2022-06-10,2022-06-10,株式会社ＹＴＣ,,株式会社,東京都,小平市,鈴木町１丁目７２－１ＧＳ一橋学園１－５１５,,13,211,1870011,,,,,,,2022-06-10,1,,,,,ワイティーシー,0
2153,8013303006184,新規,0,2022-06-10,2022-06-10,ＨＣＣジャパン合同会社,,合同会社,東京都,豊島区,高田２丁目１６番１３号,,13,116,1710033,,,,,,,2022-06-10,1,,,,,エイチシーシージャパン,0
2159,8020001146832,新規,0,2022-06-10,2022-06-10,株式会社ＭＭ放射線,,株式会社,神奈川県,横浜市都筑区,南山田２丁目２４－６－４２０,,14,118,2240029,,,,,,,2022-06-10,1,,,,,エムエムホウシャセン,0
2162,8020003021876,新規,0,2022-06-10,2022-06-10,合同会社Ｂｅｓ,,合同会社,神奈川県,横浜市西区,南幸２丁目９番９号アネックス横浜３１３,,14,103,2200005,,,,,,,2022-06-10,1,,,,,ベス,0
2174,8030001148638,新規,0,2022-06-10,2022-06-10,株式会社マルケン総社,,株式会社,埼玉県,久喜市,栗橋北１丁目１番１１号,,11,232,3491101,,,,,,,2022-06-10,1,,,,,マルケンソウシャ,0
2177,8030003019564,新規,0,2022-06-10,2022-06-10,合同会社ＲＩＳＨＵ,,合同会社,埼玉県,三郷市,彦成３丁目１０番９－８０４号,,11,237,3410003,,,,,,,2022-06-10,1,,,,,リシュー,0
2178,8030003019572,新規,0,2022-06-10,2022-06-10,Ｔ‐ＭＯＶＥ合同会社,,合同会社,埼玉県,草加市,松江１丁目４番２号,,11,221,3400013,,,,,,,2022-06-10,1,,,,,ティームーブ,0
2194,8040005021641,新規,0,2022-06-10,2022-06-10,一般社団法人建築工事検査機構,,その他の設立登記法人,千葉県,鎌ケ谷市,中沢５５５－５,,12,224,2730118,,,,,,,2022-06-10,1,,,,,ケンチクコウジケンサキコウ,0
2202,8070001039296,新規,0,2022-06-10,2022-06-10,株式会社ＬＡＱＵＩＲＥ,,株式会社,群馬県,みどり市,笠懸町阿左美７３５番地１３,,10,212,3792311,,,,,,,2022-06-10,1,,,,,ラクワイア,0
2208,8100001035424,新規,0,2022-06-10,2022-06-10,株式会社ＷＥＢＺＹ,,株式会社,長野県,長野市,大字柳原２４１８－１,,20,201,3810012,,,,,,,2022-06-10,1,,,,,ウェブジー,0
2221,8120001246498,新規,0,2022-06-10,2022-06-10,株式会社共栄不動産,,株式会社,大阪府,大阪市福島区,福島７丁目２１番１７－１３０１号,,27,103,5530003,,,,,,,2022-06-10,1,,,,,キョウエイフドウサン,0
2222,8120001246507,新規,0,2022-06-10,2022-06-10,株式会社Ｇ　ＢＡＳＥ,,株式会社,大阪府,大阪市阿倍野区,阪南町１丁目５０番５号,,27,119,5450021,,,,,,,2022-06-10,1,,,,,ジーベース,0
2223,8120001246523,新規,0,2022-06-10,2022-06-10,株式会社ＨＴＰ,,株式会社,大阪府,大阪市北区,天神橋６丁目３番２８号堀ビル２０１号,,27,127,5300041,,,,,,,2022-06-10,1,,,,,エイチティピィ,0
2224,8120001246531,新規,0,2022-06-10,2022-06-10,株式会社多和人事コンサルティング,,株式会社,大阪府,大阪市住之江区,御崎４丁目７番１３－１４０５号,,27,125,5590013,,,,,,,2022-06-10,1,,,,,タワジンジコンサルティング,0
2225,8120001246556,新規,0,2022-06-10,2022-06-10,株式会社Ｙ．Ｋ,,株式会社,大阪府,大阪市北区,兎我野町１０番６号平田第二レジャービル４０１号室,,27,127,5300056,,,,,,,2022-06-10,1,,,,,ワイケー,0
2226,8120001246564,新規,0,2022-06-10,2022-06-10,ＡＩＮＡ株式会社,,株式会社,大阪府,大阪市住吉区,千躰２丁目２番３５－７０１号,,27,120,5580047,,,,,,,2022-06-10,1,,,,,アイナ,0
2230,8120003021833,新規,0,2022-06-10,2022-06-10,合同会社フードプラス,,合同会社,大阪府,大阪市生野区,新今里５丁目５－１５,,27,116,5440001,,,,,,,2022-06-10,1,,,,,フードプラス,0
2234,8120101065724,新規,0,2022-06-10,2022-06-10,株式会社Ｓｈｏｒｔ,,株式会社,大阪府,高石市,東羽衣２丁目１番２４号,,27,225,5920003,,,,,,,2022-06-10,1,,,,,ショート,0
2238,8120901046080,新規,0,2022-06-10,2022-06-10,株式会社さくら,,株式会社,大阪府,池田市,畑１丁目１６番１５号,,27,204,5630021,,,,,,,2022-06-10,1,,,,,サクラ,0
2251,8140001126319,新規,0,2022-06-10,2022-06-10,株式会社中塚水設,,株式会社,兵庫県,姫路市,下手野６丁目７番３－４号,,28,201,6700063,,,,,,,2022-06-10,1,,,,,ナカツカスイセツ,0
2256,8150001025610,新規,0,2022-06-10,2022-06-10,株式会社ネクストライフ,,株式会社,奈良県,奈良市,西登美ヶ丘２丁目１－２８,,29,201,6310006,,,,,,,2022-06-10,1,,,,,ネクストライフ,0
2259,8160001024272,新規,0,2022-06-10,2022-06-10,株式会社ＪＯＩＮＴＷＯＲＫＳ　Ｉｎｃ．,,株式会社,滋賀県,東近江市,三津屋町１０５９番地５,,25,213,5270075,,,,,,,2022-06-10,1,,,,,ジョイントワークスインク,0
2267,8180001151676,新規,0,2022-06-10,2022-06-10,株式会社ハピラン,,株式会社,愛知県,名古屋市中村区,名駅３丁目６番２５号（コアレジデンス１３０５）,,23,105,4500002,,,,,,,2022-06-10,1,,,,,ハピラン,0
2268,8180001151692,新規,0,2022-06-10,2022-06-10,株式会社ＬＵＢＴＥＣＨ,,株式会社,愛知県,名古屋市千種区,豊年町１３番８号,,23,101,4640076,,,,,,,2022-06-10,1,,,,,ルブテック,0
2275,8180003023898,新規,0,2022-06-10,2022-06-10,合同会社マガリ,,合同会社,愛知県,名古屋市中区,伊勢山１丁目５番３０号,,23,106,4600026,,,,,,,2022-06-10,1,,,,,マガリ,0
2279,8180301036313,新規,0,2022-06-10,2022-06-10,株式会社スキップ,,株式会社,愛知県,岡崎市,欠町字下口１６番地１,,23,202,4440011,,,,,,,2022-06-10,1,,,,,スキップ,0
2295,8230001019406,新規,0,2022-06-10,2022-06-10,清清商事株式会社,,株式会社,富山県,富山市,桜町１丁目５番１５－７０８号プレミア富山駅前,,16,201,9300003,,,,,,,2022-06-10,1,,,,,セイセイショウジ,0
2301,8290001097850,新規,0,2022-06-10,2022-06-10,株式会社なつめ,,株式会社,福岡県,久留米市,通町１０番地４ＴＫ久留米ビル６階西,,40,203,8300018,,,,,,,2022-06-10,1,,,,,ナツメ,0
2302,8290001097859,新規,0,2022-06-10,2022-06-10,株式会社ＣＨＥＥＲＦＵＬ,,株式会社,福岡県,福岡市中央区,谷１丁目９番１９号メディカルビル谷ＩＩ,00126838,40,133,8100031,,,,,,,2022-06-10,1,,,,,チアフル,0
2303,8290001097867,新規,0,2022-06-10,2022-06-10,株式会社ＦｏｒＲｏｏｔｓ,,株式会社,福岡県,大野城市,筒井１丁目１７番２－１号,,40,219,8160931,,,,,,,2022-06-10,1,,,,,フォールーツ,0
2305,8290801028617,新規,0,2022-06-10,2022-06-10,大澤組株式会社,,株式会社,福岡県,北九州市小倉南区,東貫２丁目７番２－２０２号,,40,107,8000224,,,,,,,2022-06-10,1,,,,,オオサワグミ,0
2308,8310001017905,新規,0,2022-06-10,2022-06-10,株式会社エスアイ,,株式会社,長崎県,長崎市,田中町１０２７番地６－１００７号,,42,201,8510134,,,,,,,2022-06-10,1,,,,,エスアイ,0
2311,8320001019124,新規,0,2022-06-10,2022-06-10,裕昇工業株式会社,,株式会社,大分県,大分市,横塚２丁目５番２３号エスペランサ竹下通りＡ,,44,201,8700254,,,,,,,2022-06-10,1,,,,,ユウショウコウギョウ,0
2312,8320003003828,新規,0,2022-06-10,2022-06-10,合同会社ＡＤＡＣＨＩ,,合同会社,大分県,豊後大野市,大野町後田７１,,44,212,8796404,,,,,,,2022-06-10,1,,,,,アダチ,0
2314,8330001029816,新規,0,2022-06-10,2022-06-10,株式会社ポンペイウス,,株式会社,熊本県,熊本市中央区,下通１丁目９番１５号,,43,101,8600807,,,,,,,2022-06-10,1,,,,,ポンペイウス,0
2320,8350001017793,新規,0,2022-06-10,2022-06-10,株式会社明誠,,株式会社,宮崎県,延岡市,永池町１丁目５番地１延岡参番館１００５,,45,203,8820843,,,,,,,2022-06-10,1,,,,,メイセイ,0
2344,8430001086806,新規,0,2022-06-10,2022-06-10,チュウケイテック株式会社,,株式会社,北海道,札幌市中央区,南一条西８丁目１０番３第２８桂和ビル７階,,01,101,0600061,,,,,,,2022-06-10,1,,,,,チュウケイテック,0
2345,8430003013989,新規,0,2022-06-10,2022-06-10,大貴建設合同会社,,合同会社,北海道,古平郡古平町,大字浜町６７９番地１４,,01,406,0460121,,,,,,,2022-06-10,1,,,,,ダイキケンセツ,0
2351,8700150109026,新規,0,2022-06-10,2022-05-26,長崎県地域公共交通活性化協議会,,その他,長崎県,長崎市,尾上町３－１長崎県地域振興部交通政策課内,,42,201,8500058,,,,,,,2022-05-26,1,,,,,ナガサキケンチイキコウキヨウコウツウカツセイカキヨウギカイ,0
2352,8700150109364,新規,0,2022-06-10,2022-06-10,ＳＨＡＩＦＡ　ＥＮＴＥＲＰＲＩＳＥＳ,,外国会社等,千葉県,山武郡九十九里町,西野１４０４番地１０８,,12,403,2830116,スリランカ民主社会主義共和国、アクラナ、ニーレラ、マタレロード、６６０－６,,,,,,2022-06-10,1,,,,,シヤイフアエンタープライセス,0
2353,8700150109380,新規,0,2022-06-10,2022-06-10,ＳＵＮ　ＡＢＳ　ＵＫ　０１　ＬＩＭＩＴＥＤ,,外国会社等,,,,,,,,１１ｔｈ　Ｆｌｏｏｒ，２００　Ａｌｄｅｒｓｇａｔｅ　Ｓｔｒｅｅｔ，Ｌｏｎｄｏｎ　ＥＣ１Ａ　４ＨＤ,,,,,,2022-06-10,1,,,,,サンエービーエスユーケーゼロイチリミテツド,0
2354,8700150109422,新規,0,2022-06-10,2022-06-10,Ｍａｈａｌａｘｍｉ　Ｍｏｂｉｌｅ　Ａｃｃｅｓｓｏｒｉｅｓ　Ｓｕｐｐｌｉｅｒｓ,,外国会社等,東京都,中野区,野方１丁目５番１０－１０３号,,13,114,1650027,ネパール連邦民主共和国ジャワラケル郡ラリトプル副都心の１３,,,,,,2022-06-10,1,,,,,マハラクシユミモバイルアクセサリーズサプライヤーズ,0
2361,9010001227129,新規,0,2022-06-10,2022-06-10,ハウスケープ株式会社,,株式会社,東京都,文京区,本駒込１丁目１番２７－６０４号,,13,105,1130021,,,,,,,2022-06-10,1,,,,,ハウスケープ,0
2367,9010101015210,新規,0,2022-06-10,2022-06-10,株式会社藤企画,,株式会社,東京都,八王子市,散田町４丁目１３番１６号,,13,201,1930832,,,,,,,2022-06-10,1,,,,,フジキカク,0
2369,9010401167809,新規,0,2022-06-10,2022-06-10,株式会社佐々木紀彦事務所,,株式会社,東京都,港区,赤坂４丁目１４番１４－８０４号,,13,103,1070052,,,,,,,2022-06-10,1,,,,,ササキノリヒコジムショ,0
2370,9010401167817,新規,0,2022-06-10,2022-06-10,嘉樹株式会社,,株式会社,東京都,港区,高輪２丁目１３－１品川泉岳寺オフィス０３室,,13,103,1080074,,,,,,,2022-06-10,1,,,,,ヨシキ,0
2371,9010401167858,新規,0,2022-06-10,2022-06-10,ＭＡＣＨＩＮＡ株式会社,,株式会社,東京都,港区,赤坂９丁目６－２８アルベルゴ乃木坂６０６,,13,103,1070052,,,,,,,2022-06-10,1,,,,,マチナ,0
2373,9010403027721,新規,0,2022-06-10,2022-06-10,合同会社Ｂａｓｅｂａｌｌ　Ｔｒａｉｎｅｒ’ｓ　Ｌａｂｏ,,合同会社,東京都,港区,南青山２丁目２番１５号ウィン青山１２１４号,,13,103,1070062,,,,,,,2022-06-10,1,,,,,ベースボールトレーナーズラボ,0
2377,9010501048933,新規,0,2022-06-10,2022-06-10,悦熹株式会社,,株式会社,東京都,台東区,上野６丁目７番１６号川久保ビル４０９室,,13,106,1100005,,,,,,,2022-06-10,1,,,,,エツキ,0
2378,9010505003315,新規,0,2022-06-10,2022-06-10,一般社団法人グラフィックレコーディング協会,,その他の設立登記法人,東京都,台東区,谷中６丁目４番５号,,13,106,1100001,,,,,,,2022-06-10,1,,,,,グラフィックレコーディングキョウカイ,0
2380,9010701042777,新規,0,2022-06-10,2022-06-10,株式会社セリカ,,株式会社,東京都,品川区,戸越３丁目１１番１３号Ｋ＆ＭハイツＩＩＩ３０５,00126827,13,109,1420041,,,,,,,2022-06-10,1,,,,,セリカ,0
2381,9010701042793,新規,0,2022-06-10,2022-06-10,株式会社ザ・カール,,株式会社,東京都,品川区,上大崎２丁目９番６号ミュゼ白金長者丸２０７,,13,109,1410021,,,,,,,2022-06-10,1,,,,,ザカール,0
2391,9010901051017,新規,0,2022-06-10,2022-06-10,株式会社Ｎｏｄｏｕｂｔ,,株式会社,東京都,世田谷区,代田５丁目３３－１８カーサスッド２３０３号室,,13,112,1550033,,,,,,,2022-06-10,1,,,,,ノーダウト,0
2393,9010903007438,新規,0,2022-06-10,2022-06-10,ツールマレー合同会社,,合同会社,東京都,世田谷区,尾山台３丁目２２番１１－７０３号,,13,112,1580086,,,,,,,2022-06-10,1,,,,,ツールマレー,0
2395,9010905004326,新規,0,2022-06-10,2022-06-10,一般社団法人辛夷会事務センター,,その他の設立登記法人,東京都,世田谷区,下馬４丁目１番５号東京学芸大学附属高等学校内,,13,112,1540002,,,,,,,2022-06-10,1,,,,,コブシカイジムセンター,0
2401,9011001147944,新規,0,2022-06-10,2022-06-10,株式会社スペース・エナジー,,株式会社,東京都,渋谷区,富ヶ谷１丁目１４番１４号スタンフォードアネックスビル３Ｆ,,13,113,1510063,,,,,,,2022-06-10,1,,,,,スペースエナジー,0
2402,9011001147960,新規,0,2022-06-10,2022-06-10,株式会社レザボア・コンサルティング,,株式会社,東京都,渋谷区,神宮前６丁目２３番４号桑野ビル２階,,13,113,1500001,,,,,,,2022-06-10,1,,,,,レザボアコンサルティング,0
2403,9011003014770,新規,0,2022-06-10,2022-06-10,合同会社Ｌｉｌ　ａｐｅ,,合同会社,東京都,渋谷区,神宮前６丁目２３番４号桑野ビル２階,,13,113,1500001,,,,,,,2022-06-10,1,,,,,リルエイプ,0
2404,9011101099144,新規,0,2022-06-10,2022-06-10,株式会社ＥＭＡＫＥ,,株式会社,東京都,新宿区,西新宿３丁目３番１３号,,13,104,1600023,,,,,,,2022-06-10,1,,,,,イーメイク,0
2405,9011101099160,新規,0,2022-06-10,2022-06-10,株式会社Ｃｅｄａｒ,,株式会社,東京都,新宿区,大京町２１番地１ＢＥＬＩＳＴＡ四谷大京町５０４,,13,104,1600015,,,,,,,2022-06-10,1,,,,,シーダー,0
2408,9011103011841,新規,0,2022-06-10,2022-06-10,富嶽合同会社,,合同会社,東京都,新宿区,西新宿３丁目３－１３西新宿水間ビル６Ｆ,,13,104,1600023,,,,,,,2022-06-10,1,,,,,フガク,0
2413,9011401024306,新規,0,2022-06-10,2022-06-10,株式会社キューブ・ティアズ,,株式会社,東京都,板橋区,西台３丁目５６番４－９０８号,,13,119,1750045,,,,,,,2022-06-10,1,,,,,キューブティアズ,0
2418,9011601026028,新規,0,2022-06-10,2022-06-10,株式会社アンダンテ,,株式会社,東京都,練馬区,石神井台３丁目３４－５,,13,120,1770045,,,,,,,2022-06-10,1,,,,,アンダンテ,0
2422,9011701025375,新規,0,2022-06-10,2022-06-10,株式会社ＤＯＮＩ,,株式会社,東京都,江戸川区,西小岩１丁目２７番１５号相國ビル１階,,13,123,1330057,,,,,,,2022-06-10,1,,,,,ドニ,0
2432,9012801021628,新規,0,2022-06-10,2022-06-10,株式会社マリンゴ,,株式会社,東京都,立川市,栄町５丁目４３番地の４６,,13,202,1900003,,,,,,,2022-06-10,1,,,,,マリンゴ,0
2439,9020001146848,新規,0,2022-06-10,2022-06-10,株式会社ＩＣ　Ｃｏｒｐｏｒａｔｉｏｎ,,株式会社,神奈川県,横浜市港南区,大久保１丁目１０番２０－４０２号,,14,111,2330007,,,,,,,2022-06-10,1,,,,,アイシーコーポレーション,0
2445,9021001076127,新規,0,2022-06-10,2022-06-10,株式会社創健,,株式会社,神奈川県,秦野市,西田原１０９番地の７,,14,211,2570027,,,,,,,2022-06-10,1,,,,,ソウケン,0
2446,9021001076201,新規,0,2022-06-10,2022-06-10,株式会社アーバンデポ,,株式会社,神奈川県,相模原市南区,相模大野７丁目３５番２－１７０８号,,14,153,2520303,,,,,,,2022-06-10,1,,,,,アーバンデポ,0
2458,9030001148612,新規,0,2022-06-10,2022-06-10,Ｅｘｃｅｌｌｅｎｔｉａ株式会社,,株式会社,埼玉県,三郷市,上彦名３番地７,,11,237,3410004,,,,,,,2022-06-10,1,,,,,エクセレンティア,0
2468,9040001123713,新規,0,2022-06-10,2022-06-10,ハイハイクン株式会社,,株式会社,千葉県,市川市,北方２丁目３４番１５号,,12,203,2720815,,,,,,,2022-06-10,1,,,,,ハイハイクン,0
2479,9050005013091,新規,0,2022-06-10,2022-06-10,社会保険労務士法人吉田労務行政事務所,,その他の設立登記法人,茨城県,古河市,仁連１９１４番地４,,08,204,3060125,,,,,,,2022-06-10,1,,,,,ヨシダロウムギョウセイジムショ,0
2484,9070005010005,新規,0,2022-06-10,2022-06-10,一般社団法人Ａｒｔ　Ｌｉｎｋ　Ｊａｐａｎ,,その他の設立登記法人,群馬県,前橋市,大手町１丁目６番地９アッコラビル２Ｆ,,10,201,3710026,,,,,,,2022-06-10,1,,,,,アートリンクジャパン,0
2487,9080001025006,新規,0,2022-06-10,2022-06-10,株式会社ＳＫＣ,,株式会社,静岡県,藤枝市,高柳２丁目１１番１５号フレイムス３０２号,,22,214,4260041,,,,,,,2022-06-10,1,,,,,セスケイシー,0
2498,9110001036692,新規,0,2022-06-10,2022-06-10,株式会社大地,,株式会社,新潟県,胎内市,野中字江下４９０番地３,,15,227,9592627,,,,,,,2022-06-10,1,,,,,ダイチ,0
2499,9110003004788,新規,0,2022-06-10,2022-06-10,合同会社ＢＯＮＤ,,合同会社,新潟県,村上市,新町８番３５号,,15,212,9580834,,,,,,,2022-06-10,1,,,,,ボンド,0
2512,9120001246497,新規,0,2022-06-10,2022-06-10,株式会社ビーエスオー,,株式会社,大阪府,大阪市淀川区,十三東４丁目２番１５号,,27,123,5320023,,,,,,,2022-06-10,1,,,,,ビーエスオー,0
2513,9120001246539,新規,0,2022-06-10,2022-06-10,ＳＮＰインテリジェンスサービス株式会社,,株式会社,大阪府,大阪市中央区,南本町２丁目４番１１号第一住建本町ビル７階,,27,128,5410054,,,,,,,2022-06-10,1,,,,,エスエヌピーインテリジェンスサービス,0
2514,9120001246571,新規,0,2022-06-10,2022-06-10,株式会社宝来,,株式会社,大阪府,大阪市北区,鶴野町４番１１－１３１０号,,27,127,5300014,,,,,,,2022-06-10,1,,,,,ホウライ,0
2516,9120003021857,新規,0,2022-06-10,2022-06-10,合同会社シード・プランニング,,合同会社,大阪府,大阪市北区,西天満３丁目８番４－８０４号,,27,127,5300047,,,,,,,2022-06-10,1,,,,,シードプランニング,0
2527,9122001035921,新規,0,2022-06-10,2022-06-10,ペットショップＫＩＫＩ株式会社,,株式会社,大阪府,八尾市,中田１丁目２８番地の１,,27,212,5810014,,,,,,,2022-06-10,1,,,,,ペットショップキキ,0
2529,9130001071936,新規,0,2022-06-10,2022-06-10,株式会社ＭＩＺＵＨＡ工業,,株式会社,京都府,木津川市,州見台１丁目１７番地１３,,26,214,6190216,,,,,,,2022-06-10,1,,,,,ミズハコウギョウ,0
2539,9140001126318,新規,0,2022-06-10,2022-06-10,株式会社真陽,,株式会社,兵庫県,明石市,東朝霧丘３０－１０－１２０４,,28,203,6730854,,,,,,,2022-06-10,1,,,,,シンヨウ,0
2543,9140003017770,新規,0,2022-06-10,2022-06-10,ファイブアイズ合同会社,,合同会社,兵庫県,姫路市,花田町小川４０３番地４,,28,201,6710255,,,,,,,2022-06-10,1,,,,,ファイブアイズ,0
2551,9160005011092,新規,0,2022-06-10,2022-06-10,一般社団法人くわくわ企画,,その他の設立登記法人,滋賀県,彦根市,稲部町２６３番地７,,25,202,5211113,,,,,,,2022-06-10,1,,,,,クワクワキカク,0
2557,9180001151675,新規,0,2022-06-10,2022-06-10,株式会社ＳＥＩＫＯ　ＩＮＴＥＲＮＡＴＩＯＮＡＬ,,株式会社,愛知県,名古屋市守山区,大字吉根字太鼓ケ根３２１１番地の１５９,,23,113,4630004,,,,,,,2022-06-10,1,,,,,セイコーインターナショナル,0
2558,9180001151691,新規,0,2022-06-10,2022-06-10,ａｒｃ株式会社,,株式会社,愛知県,名古屋市瑞穂区,軍水町１丁目８２番地三井新瑞橋ハイツ１０３号,,23,108,4670059,,,,,,,2022-06-10,1,,,,,アーク,0
2561,9180303005356,新規,0,2022-06-10,2022-06-10,合同会社四季,,合同会社,愛知県,豊田市,明和町３丁目７番地４,,23,211,4710825,,,,,,,2022-06-10,1,,,,,シキ,0
2572,9230001019405,新規,0,2022-06-10,2022-06-10,ＤＥＲＡ　ＩＮＴＥＲＮＡＴＩＯＮＡＬ株式会社,,株式会社,富山県,射水市,作道３３番地５,,16,211,9340042,,,,,,,2022-06-10,1,,,,,デラインターナショナル,0
2577,9240001059879,新規,0,2022-06-10,2022-06-10,株式会社松浦鉄工,,株式会社,広島県,福山市,新市町大字相方１０４番地,,34,207,7293102,,,,,,,2022-06-10,1,,,,,マツウラテッコウ,0
2578,9240001059912,新規,0,2022-06-10,2022-06-10,株式会社徳島瓦工業,,株式会社,広島県,安芸郡海田町,三迫２丁目３番１９－６号,,34,304,7360014,,,,,,,2022-06-10,1,,,,,トクシマカワラコウギョウ,0
2588,9260001036918,新規,0,2022-06-10,2022-06-10,株式会社ＭａｉＧｒｉｔｙ,,株式会社,岡山県,岡山市北区,問屋町５－１０２リビンコート問屋町５０３,,33,101,7000977,,,,,,,2022-06-10,1,,,,,マイグリティ,0
2601,9300001012963,新規,0,2022-06-10,2022-06-10,株式会社ルート,,株式会社,佐賀県,唐津市,肥前町切木甲７８３番地１１,,41,202,8471501,,,,,,,2022-06-10,1,,,,,ルート,0
2602,9320001019123,新規,0,2022-06-10,2022-06-10,株式会社安藤産業,,株式会社,大分県,大分市,大字下判田２０５番地の２４,,44,201,8701112,,,,,,,2022-06-10,1,,,,,アンドウサンギョウ,0
2607,9330001029807,新規,0,2022-06-10,2022-06-10,株式会社武蔵建装,,株式会社,熊本県,合志市,御代志２０９１番地１４７,,43,216,8611104,,,,,,,2022-06-10,1,,,,,ムサシケンソウ,0
2614,9360001030514,新規,0,2022-06-10,2022-06-10,株式会社松長興業,,株式会社,沖縄県,豊見城市,字上田５９番地４,,47,212,9010243,,,,,,,2022-06-10,1,,,,,マツナガコウギョウ,0
2615,9370003005728,新規,0,2022-06-10,2022-06-10,ｇｌｏｗ合同会社,,合同会社,宮城県,柴田郡川崎町,大字川内字荒羽賀３０７番２号,,04,324,9891503,,,,,,,2022-06-10,1,,,,,グロー,0
2630,9420001017892,新規,0,2022-06-10,2022-06-10,株式会社日本海臨港,,株式会社,青森県,五所川原市,大字太刀打字早蕨９８番地４,,02,205,0370091,,,,,,,2022-06-10,1,,,,,ニホンカイリンコウ,0
2634,9430003013996,新規,0,2022-06-10,2022-06-10,アイエスデザイン合同会社,,合同会社,北海道,室蘭市,高砂町１丁目１７番１３－２０３号,,01,205,0500072,,,,,,,2022-06-10,1,,,,,アイエスデザイン,0
2635,9430003014004,新規,0,2022-06-10,2022-06-10,合同会社ケーエムシー,,合同会社,北海道,札幌市北区,屯田九条８丁目６番１６号,,01,102,0020859,,,,,,,2022-06-10,1,,,,,ケーエムシー,0
2637,9460001005704,新規,0,2022-06-10,2022-06-10,大和林業株式会社,,株式会社,北海道,釧路市,鶴野東２丁目６番２号,,01,206,0840923,,,,,,,2022-06-10,1,,,,,ヤマトリンギョウ,0
