sequenceNumber,corporateNumber,process,correct,updateDate,changeDate,name,nameImageId,kind,prefectureName,cityName,streetNumber,addressImageId,prefectureCode,cityCode,postCode,addressOutside,addressOutsideImageId,closeDate,closeCause,successorCorporateNumber,changeCause,assignmentDate,latest,enName,enPrefectureName,enCityName,enAddressOutside,furigana,hihyoji
18,1010401129287,登記記録の閉鎖等,0,2023-02-17,2023-02-02,株式会社ツーステップ,,株式会社,東京都,港区,六本木３丁目４番３３号マルマン六本木ビル３階,,13,103,1060032,,,2023-02-02,清算の結了等,,,2017-01-24,1,,,,,ツーステップ,0
19,1010401143098,登記記録の閉鎖等,0,2023-02-17,2023-02-06,タレンタコ株式会社,,株式会社,東京都,港区,赤坂２丁目２３番１号アークヒルズ・フロントタワーＲｏＰ８０６号室,,13,103,1070052,,,2023-02-06,清算の結了等,,,2019-01-11,1,,,,,タレンタコ,0
21,1010403004273,登記記録の閉鎖等,0,2023-02-17,2023-02-06,合資会社アレックス,,合資会社,東京都,港区,芝浦３丁目１４番１２－６０３号,,13,103,1080023,,,2023-02-06,清算の結了等,,,2015-10-05,1,,,,,,0
26,1010502010503,登記記録の閉鎖等,0,2023-02-17,2023-02-15,有限会社松村塗装店,,有限会社,東京都,台東区,竜泉３丁目３９番６号,,13,106,1100012,,,2023-02-15,清算の結了等,,,2015-10-05,1,,,,,マツムラトソウテン,0
41,1011001098757,登記記録の閉鎖等,0,2023-02-17,2023-02-13,株式会社ヨカタス,,株式会社,東京都,渋谷区,恵比寿１丁目２０番２２号,,13,113,1500013,,,2023-02-13,清算の結了等,,,2015-10-05,1,,,,,ヨカタス,0
52,1011305001895,登記記録の閉鎖等,0,2023-02-17,2023-02-14,一般社団法人日本障害者ゴルフ育成協会,,その他の設立登記法人,東京都,杉並区,西荻南２丁目１７番８号,,13,115,1670053,,,2023-02-14,清算の結了等,,,2015-10-05,1,,,,,ニッポンショウガイシャゴルフイクセイキョウカイ,0
63,1020001001382,登記記録の閉鎖等,0,2023-02-17,2023-02-15,三協商事株式会社,,株式会社,神奈川県,横浜市瀬谷区,五貫目町２８番地１５,,14,114,2460008,,,2023-02-15,清算の結了等,,,2015-10-05,1,,,,,サンキョウショウジ,0
64,1020001085013,登記記録の閉鎖等,0,2023-02-17,2023-02-15,株式会社横浜インターナショナル貿易,,株式会社,神奈川県,横浜市戸塚区,品濃町１７８９番地７,,14,110,2440801,,,2023-02-15,清算の結了等,,,2015-10-05,1,,,,,ヨコハマインターナショナルボウエキ,0
80,1030002002528,登記記録の閉鎖等,0,2023-02-17,2023-02-16,有限会社エルドヴェール,,有限会社,埼玉県,さいたま市大宮区,上小町４６８番地エルドヴェール５０１号室,,11,103,3300855,,,2023-02-16,清算の結了等,,,2015-10-05,1,,,,,エルドヴェール,0
112,1080403004424,登記記録の閉鎖等,0,2023-02-17,2023-02-16,合同会社Ｍ＆Ｐ,,合同会社,静岡県,袋井市,高尾２１３番地の１オーチャード３０２号室,,22,216,4370023,,,2023-02-16,清算の結了等,,,2021-12-06,1,,,,,エムアンドピー,0
118,1110001003361,登記記録の閉鎖等,0,2023-02-17,2023-02-17,株式会社ティーネットシステム,,株式会社,新潟県,新潟市中央区,米山２丁目４番地１,,15,103,9500916,,,2023-02-17,清算の結了等,,,2015-10-05,1,,,,,ティーネットシステム,0
126,1120001188144,登記記録の閉鎖等,0,2023-02-17,2023-02-15,株式会社ｍａｍａロマン,,株式会社,大阪府,大阪市西区,西本町１丁目２番１号ＡＸＩＳ本町ビル,,27,106,5500005,,,2023-02-15,清算の結了等,,,2015-10-05,1,,,,,ママロマン,0
157,1170001006318,登記記録の閉鎖等,0,2023-02-17,2023-02-13,株式会社ブロンズマート,,株式会社,大阪府,大阪市北区,野崎町９番１３号,,27,127,5300055,,,2023-02-13,合併による解散等,3120001203504,令和５年２月１日大阪市北区野崎町９番１３号株式会社コズミックダイナー（3120001203504）に合併し解散,2015-10-05,1,,,,,ブロンズマート,0
180,1240001043790,登記記録の閉鎖等,0,2023-02-17,2023-02-16,松原産業株式会社,,株式会社,広島県,三原市,長谷５丁目４番１８号,,34,204,7230132,,,2023-02-16,清算の結了等,,,2015-10-05,1,,,,,マツバラサンギョウ,0
181,1240002051090,登記記録の閉鎖等,0,2023-02-17,2023-02-16,有限会社中屋本舖,,有限会社,広島県,尾道市,久保１丁目２番４号,,34,205,7220045,,,2023-02-16,清算の結了等,,,2015-10-05,1,,,,,,0
183,1280002006883,登記記録の閉鎖等,0,2023-02-17,2023-02-15,有限会社アルマック,,有限会社,島根県,出雲市,天神町３番地１（花嫁センター草谷出雲店２Ｆ）,,32,203,6930005,,,2023-02-15,清算の結了等,,,2015-10-05,1,,,,,アルマック,0
210,1370601000633,登記記録の閉鎖等,0,2023-02-17,2023-02-15,日本建設株式会社,,株式会社,宮城県,塩竈市,新浜町２丁目４番１２号,,04,203,9850001,,,2023-02-15,清算の結了等,,,2015-10-05,1,,,,,ニホンケンセツ,0
213,1380001009992,登記記録の閉鎖等,0,2023-02-17,2023-02-14,株式会社二本松三和運送,,株式会社,福島県,二本松市,向作田１８番地の４,,07,210,9640801,,,2023-02-14,合併による解散等,4380001011376,令和５年２月１日福島県須賀川市森宿字辰根沢１８８番地２福島第一物流株式会社（4380001011376）に合併し解散,2015-10-05,1,,,,,ニホンマツサンワウンソウ,0
225,1470001017334,登記記録の閉鎖等,0,2023-02-17,2023-02-16,株式会社都工業,,株式会社,香川県,高松市,屋島西町１８１５番地５,,37,201,7610113,,,2023-02-16,清算の結了等,,,2019-03-26,1,,,,,ミヤココウギョウ,0
262,2010401110980,登記記録の閉鎖等,0,2023-02-17,2023-02-13,株式会社ＫＩＷＩ,,株式会社,東京都,渋谷区,恵比寿１丁目２０番２２号,,13,113,1500013,,,2023-02-13,清算の結了等,,,2015-10-05,1,,,,,キウイ,0
273,2010502017943,登記記録の閉鎖等,0,2023-02-17,2023-02-13,有限会社日信,,有限会社,東京都,渋谷区,西原１丁目３０番１号,,13,113,1510066,,,2023-02-13,清算の結了等,,,2015-10-05,1,,,,,ニッシン,0
331,2020001144387,登記記録の閉鎖等,0,2023-02-17,2023-02-15,株式会社ＫＲＭ,,株式会社,神奈川県,横浜市瀬谷区,相沢５丁目５５番地３,,14,114,2460013,,,2023-02-15,清算の結了等,,,2021-12-20,1,,,,,ケーアールエム,0
349,2030002122606,登記記録の閉鎖等,0,2023-02-17,2023-02-16,有限会社石渡象牙彫刻,00018140,有限会社,埼玉県,秩父市,寺尾３５２,,11,207,3680056,,,2023-02-16,清算の結了等,,,2015-10-05,1,,,,,イシワタリゾウゲチョウコク,0
379,2100002013558,登記記録の閉鎖等,0,2023-02-17,2023-02-14,有限会社有賀工業所,,有限会社,長野県,上田市,蒼久保１１３３番地,,20,203,3860155,,,2023-02-14,清算の結了等,,,2015-10-05,1,,,,,アリガコウギョウショ,0
381,2110002015537,登記記録の閉鎖等,0,2023-02-17,2023-02-15,有限会社丸喜,,有限会社,新潟県,新発田市,住吉町１丁目６番７号,,15,206,9570061,,,2023-02-15,清算の結了等,,,2015-10-05,1,,,,,マルキ,0
400,2120901015735,登記記録の閉鎖等,0,2023-02-17,2023-02-16,株式会社ＦＰ相談センター,,株式会社,大阪府,大阪市淀川区,西中島７丁目６－１２新大阪駅前和光ビル５Ｆ,,27,123,5320011,,,2023-02-16,清算の結了等,,,2015-10-05,1,,,,,エフピーソウダンセンター,0
410,2130002001832,登記記録の閉鎖等,0,2023-02-17,2023-02-13,株式会社由利,,株式会社,京都府,京都市右京区,宇多野御屋敷町１３番地の１,,26,108,6168205,,,2023-02-13,清算の結了等,,,2015-10-05,1,,,,,ユリ,0
427,2180001034325,登記記録の閉鎖等,0,2023-02-17,2023-02-10,株式会社イマジン,,株式会社,愛知県,名古屋市中区,千代田１丁目８番２１号,,23,106,4600012,,,2023-02-10,清算の結了等,,,2022-09-07,1,,,,,イマジン,0
441,2200005000626,登記記録の閉鎖等,0,2023-02-17,2023-02-03,瑞昌寺,,その他の設立登記法人,岐阜県,岐阜市,打越３８番地,,21,201,5020802,,,2023-02-03,合併による解散等,4200005000624,令和５年２月３日岐阜市長良福光２４０３番地の１崇福寺（4200005000624）に合併し解散,2015-10-05,1,,,,,ズイショウジ,0
449,2260001015036,登記記録の閉鎖等,0,2023-02-17,2023-02-16,株式会社モリヤテクノ,,株式会社,岡山県,倉敷市,茶屋町１６１８番地の６,,33,202,7101101,,,2023-02-16,清算の結了等,,,2015-10-05,1,,,,,,0
452,2290001026889,登記記録の閉鎖等,0,2023-02-17,2023-02-15,株式会社Ａｌｐｈａ,,株式会社,福岡県,福岡市中央区,天神４丁目８番２号天神ビルプラス４Ｆ,,40,133,8100001,,,2023-02-15,清算の結了等,,,2015-10-05,1,,,,,アルファ,0
476,2370001019001,登記記録の閉鎖等,0,2023-02-17,2023-02-15,株式会社宮城ペレット,,株式会社,宮城県,仙台市泉区,南光台１丁目１２番２９号,,04,105,9818003,,,2023-02-15,清算の結了等,,,2015-10-05,1,,,,,ミヤギペレット,0
485,2370305000945,登記記録の閉鎖等,0,2023-02-17,2023-02-14,稲井石材商工業協同組合,,その他の設立登記法人,宮城県,石巻市,不動町２丁目１６番９号,,04,202,9860017,,,2023-02-14,清算の結了等,,,2015-10-05,1,,,,,イナイセキザイショウコウギョウ,0
494,2430002006529,登記記録の閉鎖等,0,2023-02-17,2023-02-01,有限会社熊谷電機製作所,,有限会社,北海道,札幌市白石区,東米里２１８９番９９,,01,104,0030876,,,2023-02-01,清算の結了等,,,2015-10-05,1,,,,,クマガイデンキセイサクショ,0
516,3010002041583,登記記録の閉鎖等,0,2023-02-17,2023-02-09,有限会社スタッシュ,,有限会社,東京都,中央区,日本橋２丁目５番３号,,13,102,1030027,,,2023-02-09,清算の結了等,,,2015-10-05,1,,,,,スタッシュ,0
538,3010602031926,登記記録の閉鎖等,0,2023-02-17,2023-02-09,有限会社荒井堂,,有限会社,東京都,江東区,木場５丁目９番１０－１０３号,,13,108,1350042,,,2023-02-09,清算の結了等,,,2015-10-05,1,,,,,アライドウ,0
572,3020001066242,登記記録の閉鎖等,0,2023-02-17,2023-02-15,株式会社サンネット,,株式会社,神奈川県,川崎市中原区,宮内２丁目２９番５号,,14,133,2110051,,,2023-02-15,清算の結了等,,,2015-10-05,1,,,,,サンネット,0
591,3040001009827,登記記録の閉鎖等,0,2023-02-17,2023-02-14,株式会社グローイング,,株式会社,千葉県,千葉市中央区,要町５番７号,,12,101,2600017,,,2023-02-14,合併による解散等,1040001004623,令和５年２月１日千葉市中央区要町５番７号千葉県酒類販売株式会社（1040001004623）に合併し解散,2015-10-05,1,,,,,グローイング,0
598,3040003015385,登記記録の閉鎖等,0,2023-02-17,2023-02-10,ラボの森合同会社,,合同会社,東京都,渋谷区,道玄坂１丁目１０番８号渋谷道玄坂東急ビル２Ｆ－Ｃ,,13,113,1500043,,,2023-02-10,清算の結了等,,,2020-07-09,1,,,,,ラボノモリ,0
608,3070001013891,登記記録の閉鎖等,0,2023-02-17,2023-02-15,ニューサンピア株式会社,,株式会社,群馬県,高崎市,島野町１３３３番地,,10,202,3700015,,,2023-02-15,清算の結了等,,,2015-10-05,1,,,,,ニューサンピア,0
614,3070005007865,登記記録の閉鎖等,0,2023-02-17,2023-02-15,特定非営利活動法人前橋芸術週間,,その他の設立登記法人,群馬県,前橋市,敷島町２４０番地４１,,10,201,3710036,,,2023-02-15,清算の結了等,,,2015-10-05,1,,,,,マエバシゲイジュツシュウカン,0
615,3070005009548,登記記録の閉鎖等,0,2023-02-17,2023-02-15,医療法人さとみ会,,その他の設立登記法人,群馬県,前橋市,駒形町１６１番地１,,10,201,3792122,,,2023-02-15,清算の結了等,,,2018-12-13,1,,,,,サトミカイ,0
617,3080101021232,登記記録の閉鎖等,0,2023-02-17,2023-02-15,平和人材株式会社,,株式会社,静岡県,裾野市,深良５３３番地の１－１０２,,22,220,4101102,,,2023-02-15,清算の結了等,,,2019-07-04,1,,,,,ヘイワジンザイ,0
645,3120005000006,登記記録の閉鎖等,0,2023-02-17,2023-02-06,天理教芦水分教会,00031647,その他の設立登記法人,大阪府,大阪市淀川区,木川西１丁目３番４号,,27,123,5320013,,,2023-02-06,合併による解散等,3120005000014,令和５年２月６日大阪市淀川区木川西一丁目１０番３号天理教芦池分教会（3120005000014）に合併し解散,2015-10-05,1,,,,,テンリキョウアシミズブンキョウカイ,0
699,3290001004984,登記記録の閉鎖等,0,2023-02-17,2023-02-15,株式会社アイ・エル・シー,,株式会社,福岡県,福岡市中央区,今川１丁目１２番３５号,,40,133,8100054,,,2023-02-15,合併による解散等,8010001098042,令和５年２月１日北九州市小倉北区浅野二丁目１４番１号新ケミカル商事株式会社（8010001098042）に合併し解散,2015-10-05,1,,,,,アイエルシー,0
701,3290001081289,登記記録の閉鎖等,0,2023-02-17,2023-02-15,株式会社テイクワン,,株式会社,福岡県,福岡市東区,香椎浜４丁目８番１－７１０号,,40,131,8130016,,,2023-02-15,清算の結了等,,,2018-04-25,1,,,,,テイクワン,0
706,3290003011260,登記記録の閉鎖等,0,2023-02-17,2023-02-08,智霖合同会社,,合同会社,福岡県,福岡市南区,大橋３丁目５番１１－４０３号,,40,134,8150033,,,2023-02-08,清算の結了等,,,2021-05-31,1,,,,,チリン,0
722,3370001019099,登記記録の閉鎖等,0,2023-02-17,2023-02-15,株式会社北東ファーム,,株式会社,宮城県,仙台市若林区,日辺字宅地１０５番地の２,,04,103,9840837,,,2023-02-15,清算の結了等,,,2015-10-05,1,,,,,ホクトウファーム,0
729,3370201003175,登記記録の閉鎖等,0,2023-02-17,2023-02-15,株式会社東北クレーン工事,,株式会社,宮城県,栗原市,瀬峰泉谷４７番地２,,04,213,9894534,,,2023-02-15,清算の結了等,,,2015-10-05,1,,,,,トウホククレーンコウジ,0
734,3400001001862,登記記録の閉鎖等,0,2023-02-17,2023-02-14,株式会社フルヤ,,株式会社,沖縄県,石垣市,浜崎町３丁目３番地２０コーラルベイ石垣島弐番館１００２号,,47,207,9070013,,,2023-02-14,清算の結了等,,,2015-10-05,1,,,,,フルヤ,0
735,3400003002157,登記記録の閉鎖等,0,2023-02-17,2023-02-14,合同会社是色,,合同会社,岩手県,盛岡市,高松１丁目２０番１号,,03,201,0200114,,,2023-02-14,清算の結了等,,,2017-02-21,1,,,,,ゼシキ,0
748,3480005005431,登記記録の閉鎖等,0,2023-02-17,2023-02-15,農事組合法人頼広茶業組合,,その他の設立登記法人,徳島県,三好市,山城町頼広４５１番地,,36,208,7795335,,,2023-02-15,清算の結了等,,,2015-10-05,1,,,,,ヨリヒロチャギョウクミアイ,0
761,4010003035030,登記記録の閉鎖等,0,2023-02-17,2023-02-10,合同会社プレート,,合同会社,東京都,中央区,勝どき１丁目１３番６－４００３号,,13,102,1040054,,,2023-02-10,清算の結了等,,,2021-06-10,1,,,,,プレート,0
763,4010005031580,登記記録の閉鎖等,0,2023-02-17,2023-02-09,特定非営利活動法人Ｗａｎｎａｂｅ,,その他の設立登記法人,東京都,文京区,本郷４丁目１番３号明和本郷ビル７階,,13,105,1130033,,,2023-02-09,清算の結了等,,,2020-03-12,1,,,,,ワナビー,0
769,4010103001262,登記記録の閉鎖等,0,2023-02-17,2023-02-10,Ｈ＆Ｙデジタルアソシエイツ合同会社,,合同会社,東京都,八王子市,めじろ台３丁目１０番６号,,13,201,1930833,,,2023-02-10,清算の結了等,,,2018-05-23,1,,,,,エイチアンドワイデジタルアソシエイツ,0
770,4010401106564,登記記録の閉鎖等,0,2023-02-17,2023-02-06,エッジトーク株式会社,,株式会社,東京都,港区,南青山２丁目４－１５,,13,103,1070062,,,2023-02-06,清算の結了等,,,2015-10-05,1,,,,,エッジトーク,0
774,4010503006340,登記記録の閉鎖等,0,2023-02-17,2023-02-15,合同会社ハロールフィ,,合同会社,東京都,台東区,上野３丁目７番１０－２０３号室,,13,106,1100005,,,2023-02-15,清算の結了等,,,2021-08-05,1,,,,,ハロールフィ,0
789,4011001134583,登記記録の閉鎖等,0,2023-02-17,2023-02-03,ＡＣＴ株式会社,,株式会社,東京都,渋谷区,渋谷３丁目１０番５号,,13,113,1500002,,,2023-02-03,合併による解散等,6011001112629,令和５年１月４日東京都渋谷区渋谷三丁目１０番５号株式会社ＳＥＫＡＩＳＨＡ（6011001112629）に合併し解散,2020-07-07,1,,,,,アクト,0
796,4011002035302,登記記録の閉鎖等,0,2023-02-17,2023-02-14,有限会社橙樹会,,有限会社,神奈川県,横浜市都筑区,茅ケ崎東１丁目１番１－８０８号,,14,118,2240033,,,2023-02-14,清算の結了等,,,2015-10-05,1,,,,,トウキカイ,0
800,4011102007481,登記記録の閉鎖等,0,2023-02-17,2023-02-15,有限会社大榮,,有限会社,東京都,新宿区,住吉町８番８号,,13,104,1620065,,,2023-02-15,清算の結了等,,,2015-10-05,1,,,,,ダイエイ,0
813,4011801027004,登記記録の閉鎖等,0,2023-02-17,2023-02-15,株式会社ｒｏｐａ,,株式会社,東京都,福生市,大字福生６７９番地,,13,218,1970011,,,2023-02-15,清算の結了等,,,2015-10-05,1,,,,,ロパ,0
839,4021002019097,登記記録の閉鎖等,0,2023-02-17,2023-02-15,有限会社加藤商事,,有限会社,神奈川県,相模原市中央区,共和１丁目１４番４号,,14,152,2520234,,,2023-02-15,清算の結了等,,,2015-10-05,1,,,,,カトウショウジ,0
852,4040001006435,登記記録の閉鎖等,0,2023-02-17,2023-02-15,株式会社平塚工務店,00018799,株式会社,千葉県,千葉市若葉区,源町５４４番地の８,,12,104,2640037,,,2023-02-15,清算の結了等,,,2015-10-05,1,,,,,ヒラツカコウムテン,0
862,4060001003579,登記記録の閉鎖等,0,2023-02-17,2023-02-16,日豊開発株式会社,,株式会社,栃木県,宇都宮市,中戸祭１丁目１３番２７号,,09,201,3200057,,,2023-02-16,清算の結了等,,,2015-10-05,1,,,,,ニッポウカイハツ,0
864,4060003001192,登記記録の閉鎖等,0,2023-02-17,2023-02-15,合同会社高木藥局,00109720,合同会社,栃木県,佐野市,万町４３番地,,09,204,3270028,,,2023-02-15,清算の結了等,,,2015-10-05,1,,,,,タカギヤッキョク,0
875,4120001160819,登記記録の閉鎖等,0,2023-02-17,2023-02-15,大阪通関株式会社,,株式会社,大阪府,大阪市港区,築港３丁目７番１５号,,27,107,5520021,,,2023-02-15,清算の結了等,,,2015-10-05,1,,,,,,0
897,4122001023468,登記記録の閉鎖等,0,2023-02-17,2023-02-16,ＴＦＧ株式会社,,株式会社,大阪府,東大阪市,鷹殿町１１番２３号,,27,227,5798036,,,2023-02-16,清算の結了等,,,2015-10-05,1,,,,,ティーエフジー,0
907,4140001115341,登記記録の閉鎖等,0,2023-02-17,2023-02-13,Ｔｒｕｍａｎ株式会社,,株式会社,兵庫県,神戸市東灘区,向洋町中１丁目１７番地アジアワンセンター２９階,,28,101,6580032,,,2023-02-13,清算の結了等,,,2019-10-31,1,,,,,トルマン,0
925,4180001045634,登記記録の閉鎖等,0,2023-02-17,2023-02-13,株式会社多賀,,株式会社,愛知県,清須市,西枇杷島町古城１丁目４番地の１,,23,233,4520001,,,2023-02-13,清算の結了等,,,2015-10-05,1,,,,,タガ,0
936,4200003005402,登記記録の閉鎖等,0,2023-02-17,2023-02-15,合同会社ＵＭＣ,,合同会社,岐阜県,岐阜市,夕陽丘１２－３,,21,201,5008014,,,2023-02-15,清算の結了等,,,2021-12-22,1,,,,,ユーエムシー,0
953,4260002029545,登記記録の閉鎖等,0,2023-02-17,2023-02-13,有限会社宮本鋳造,,有限会社,岡山県,津山市,種３３５番地の３,,33,203,7080874,,,2023-02-13,清算の結了等,,,2015-10-05,1,,,,,ミヤモトチュウゾウ,0
954,4260002034108,登記記録の閉鎖等,0,2023-02-17,2023-02-14,有限会社久世相互,,有限会社,岡山県,真庭市,富尾１７番地,,33,214,7193203,,,2023-02-14,清算の結了等,,,2015-10-05,1,,,,,クセソウゴ,0
981,4380001000404,登記記録の閉鎖等,0,2023-02-17,2023-02-13,株式会社共立地所,,株式会社,福島県,福島市,豊田町１番３３号,,07,201,9608104,,,2023-02-13,清算の結了等,,,2015-10-05,1,,,,,キョウリツチショ,0
1027,5010402003017,登記記録の閉鎖等,0,2023-02-17,2023-02-06,有限会社オフィス・ケイ,,有限会社,東京都,港区,南青山２丁目２２番１４号１４０３,,13,103,1070062,,,2023-02-06,清算の結了等,,,2015-10-05,1,,,,,,0
1048,5011001069671,登記記録の閉鎖等,0,2023-02-17,2023-02-15,エクレスタ株式会社,,株式会社,東京都,渋谷区,幡ヶ谷３丁目３９番１２号渋谷ウェストビル１階,,13,113,1510072,,,2023-02-15,清算の結了等,,,2015-10-05,1,,,,,エクレスタ,0
1095,5021001068870,登記記録の閉鎖等,0,2023-02-17,2023-02-14,株式会社ａｓｖａｌｌ,,株式会社,神奈川県,小田原市,成田５２番地の７,,14,206,2500862,,,2023-02-14,清算の結了等,,,2019-12-23,1,,,,,,0
1099,5021005003337,登記記録の閉鎖等,0,2023-02-17,2023-02-15,特定非営利活動法人アフリカ支援協会,,その他の設立登記法人,神奈川県,相模原市南区,若松５丁目２１番５号,,14,153,2520334,,,2023-02-15,清算の結了等,,,2015-10-05,1,,,,,アフリカシエンキョウカイ,0
1124,5040002005385,登記記録の閉鎖等,0,2023-02-17,2023-02-15,有限会社システム総研,,有限会社,千葉県,千葉市美浜区,幸町１丁目７番１棟５０５号,,12,106,2610001,,,2023-02-15,清算の結了等,,,2015-10-05,1,,,,,システムソウケン,0
1125,5040002056957,登記記録の閉鎖等,0,2023-02-17,2023-02-15,有限会社五十嵐商店,,有限会社,千葉県,印西市,造谷６６７番地の３,,12,231,2701611,,,2023-02-15,清算の結了等,,,2015-10-05,1,,,,,イガラシショウテン,0
1128,5050002014690,登記記録の閉鎖等,0,2023-02-17,2023-02-14,有限会社旭企画,,有限会社,茨城県,石岡市,東田中１３１８番地４,,08,205,3150034,,,2023-02-14,清算の結了等,,,2015-10-05,1,,,,,アサヒキカク,0
1132,5060001020615,登記記録の閉鎖等,0,2023-02-17,2023-02-14,フナダ株式会社,,株式会社,栃木県,佐野市,万町６２番地,,09,204,3270028,,,2023-02-14,清算の結了等,,,2015-10-05,1,,,,,フナダ,0
1138,5070005006997,登記記録の閉鎖等,0,2023-02-17,2023-02-14,医療法人明皓会,,その他の設立登記法人,群馬県,沼田市,東原新町１８４５番地３,,10,206,3780053,,,2023-02-14,清算の結了等,,,2015-10-05,1,,,,,メイコウカイ,0
1147,5120001080339,登記記録の閉鎖等,0,2023-02-17,2023-02-13,三王薬品株式会社,,株式会社,大阪府,大阪市中央区,鎗屋町１丁目３番５号,,27,128,5400027,,,2023-02-13,清算の結了等,,,2015-10-05,1,,,,,,0
1169,5120905005226,登記記録の閉鎖等,0,2023-02-17,2023-02-15,一般社団法人ライフデザインジャパン,,その他の設立登記法人,兵庫県,川西市,栄町２５番１－１１１号,,28,217,6660033,,,2023-02-15,清算の結了等,,,2015-10-05,1,,,,,ライフデザインジャパン,0
1181,5180001048537,登記記録の閉鎖等,0,2023-02-17,2023-02-13,株式会社田中会計事務所,,株式会社,愛知県,名古屋市北区,清水２丁目１９番９号,,23,103,4620844,,,2023-02-13,清算の結了等,,,2015-10-05,1,,,,,タナカカイケイジムショ,0
1187,5210002002670,登記記録の閉鎖等,0,2023-02-17,2023-02-15,有限会社西野商会,,有限会社,福井県,福井市,田原２丁目２４番３号,,18,201,9100018,,,2023-02-15,清算の結了等,,,2015-10-05,1,,,,,ニシノショウカイ,0
1199,5260002023992,登記記録の閉鎖等,0,2023-02-17,2023-02-15,有限会社平和モータース,,有限会社,岡山県,総社市,総社２丁目１５番１号,,33,208,7191126,,,2023-02-15,清算の結了等,,,2015-10-05,1,,,,,ヘイワモータース,0
1225,5370401000037,登記記録の閉鎖等,0,2023-02-17,2023-02-13,佐久田建設株式会社,,株式会社,宮城県,登米市,登米町寺池三日町５１番地の６,,04,212,9870702,,,2023-02-13,清算の結了等,,,2015-10-05,1,,,,,,0
1226,5380001019906,登記記録の閉鎖等,0,2023-02-17,2023-02-14,株式会社ビーム,,株式会社,福島県,会津若松市,花春町７番６７号,,07,202,9650804,,,2023-02-14,清算の結了等,,,2015-10-05,1,,,,,ビーム,0
1232,5430002057065,登記記録の閉鎖等,0,2023-02-17,2023-02-15,有限会社第一グリーン,,有限会社,北海道,虻田郡留寿都村,字留寿都６７番地,,01,397,0481731,,,2023-02-15,清算の結了等,,,2015-10-05,1,,,,,ダイイチグリーン,0
1263,6010403019688,登記記録の閉鎖等,0,2023-02-17,2023-02-06,ＤＡＺＮ　Ｊａｐａｎ合同会社,,合同会社,東京都,港区,芝公園１丁目７番６号ＫＤＸ浜松町プレイス７階,,13,103,1050011,,,2023-02-06,清算の結了等,,,2018-11-15,1,,,,,ダゾーンジャパン,0
1273,6010603009084,登記記録の閉鎖等,0,2023-02-17,2023-02-10,ＪＣＴＩ合同会社,,合同会社,東京都,墨田区,立花４丁目２３－５,,13,107,1310043,,,2023-02-10,清算の結了等,,,2021-08-06,1,,,,,ジェーシーティーアイ,0
1274,6010701007782,登記記録の閉鎖等,0,2023-02-17,2023-02-14,日本ディーエスピーグループ株式会社,,株式会社,東京都,中野区,中野４丁目１０番２号シナプティクス・ジャパン合同会社内,,13,114,1640001,,,2023-02-14,清算の結了等,,,2015-10-05,1,,,,,ニホンディーエスピーグループ,0
1326,6020002068747,登記記録の閉鎖等,0,2023-02-17,2023-02-15,有限会社山の手台ケアサービス,,有限会社,神奈川県,横浜市青葉区,奈良３丁目８番地２８,,14,117,2270038,,,2023-02-15,清算の結了等,,,2015-10-05,1,,,,,ヤマノテダイケアサービス,0
1327,6020002091014,登記記録の閉鎖等,0,2023-02-17,2023-02-14,有限会社山口ダイヤモンドボーリング,,有限会社,神奈川県,川崎市高津区,久末１５６６番地１,,14,134,2130026,,,2023-02-14,清算の結了等,,,2015-10-05,1,,,,,ヤマグチダイヤモンドボーリング,0
1331,6021003003619,登記記録の閉鎖等,0,2023-02-17,2023-02-15,合同会社アトム,,合同会社,神奈川県,相模原市南区,相模台１丁目１５番２３号,,14,153,2520321,,,2023-02-15,清算の結了等,,,2015-10-05,1,,,,,アトム,0
1341,6030002061008,登記記録の閉鎖等,0,2023-02-17,2023-02-13,有限会社クリエーティブ中島,,有限会社,埼玉県,新座市,栗原３丁目８番２５号,,11,230,3520035,,,2023-02-13,清算の結了等,,,2015-10-05,1,,,,,クリエーティブナカジマ,0
1353,6040002047476,登記記録の閉鎖等,0,2023-02-17,2023-02-15,有限会社藤和ガス圧接,,有限会社,千葉県,市川市,大野町３丁目１７２７番地１（アトリオ２０１号）,,12,203,2720805,,,2023-02-15,清算の結了等,,,2015-10-05,1,,,,,トウワガスアッセツ,0
1365,6080103000693,登記記録の閉鎖等,0,2023-02-17,2023-02-15,合名会社田中梱包資材,,合名会社,静岡県,富士市,伝法３８２番地の５,,22,210,4170061,,,2023-02-15,清算の結了等,,,2015-10-05,1,,,,,タナカコンポウシザイ,0
1369,6080405003691,登記記録の閉鎖等,0,2023-02-17,2023-02-03,天理教鎭玉分教会,,その他の設立登記法人,静岡県,浜松市北区,引佐町渋川３４１５番地の３,,22,135,4312537,,,2023-02-03,合併による解散等,5080405000979,令和５年２月３日静岡県浜松市中区北田町１３０番地の１３天理教西大濱分教会（5080405000979）に合併し解散,2015-10-05,1,,,,,,0
1400,6130005016436,登記記録の閉鎖等,0,2023-02-17,2023-02-03,特定非営利活動法人Ｊａｐａｎ　Ｔａｘ　Ｐａｙｅｒ　Ｓｕｐｐｏｒｔｅｒｓ,,その他の設立登記法人,京都府,京都市中京区,錦小路通室町西入天神山町２８０石勘ビル４階,,26,104,6048221,,,2023-02-03,清算の結了等,,,2022-04-11,1,,,,,ジャパンタックスペイヤーサポーターズ,0
1405,6140002053910,登記記録の閉鎖等,0,2023-02-17,2023-02-13,有限会社ヤスギテック,,有限会社,兵庫県,姫路市,別所町別所９３１番地,,28,201,6710221,,,2023-02-13,清算の結了等,,,2015-10-05,1,,,,,ヤスギテック,0
1409,6160002000217,登記記録の閉鎖等,0,2023-02-17,2023-02-15,有限会社魚伊商店,,有限会社,滋賀県,大津市,唐橋町１６番４号,,25,201,5200851,,,2023-02-15,清算の結了等,,,2015-10-05,1,,,,,ウオイショウテン,0
1423,6200002006044,登記記録の閉鎖等,0,2023-02-17,2023-02-16,有限会社浪真笠原土建,,有限会社,岐阜県,岐阜市,長良３丁目１９７番地,,21,201,5020081,,,2023-02-16,清算の結了等,,,2015-10-05,1,,,,,ナミシンカサハラドケン,0
1424,6200005010308,登記記録の閉鎖等,0,2023-02-17,2023-02-15,医療法人清心会,,その他の設立登記法人,岐阜県,飛騨市,神岡町殿７８９番地の４,,21,217,5061121,,,2023-02-15,清算の結了等,,,2015-10-05,1,,,,,セイシンカイ,0
1426,6210001013767,登記記録の閉鎖等,0,2023-02-17,2023-02-15,株式会社服部薬局,,株式会社,福井県,鯖江市,河和田町第１９号５番地１,,18,207,9161222,,,2023-02-15,清算の結了等,,,2015-10-05,1,,,,,ハットリヤッキョク,0
1429,6240001003410,登記記録の閉鎖等,0,2023-02-17,2023-02-06,広陽家電販売株式会社,,株式会社,広島県,広島市中区,舟入幸町２５番５号,,34,101,7300844,,,2023-02-06,合併による解散等,1290001002890,令和５年２月１日福岡市東区社領一丁目２番５号株式会社九州大和（1290001002890）に合併し解散,2015-10-05,1,,,,,コウヨウカデンハンバイ,0
1432,6280002007092,登記記録の閉鎖等,0,2023-02-17,2023-02-14,有限会社キサ商事,,有限会社,島根県,出雲市,国富町１２４番地,,32,203,6910011,,,2023-02-14,清算の結了等,,,2015-10-05,1,,,,,キサショウジ,0
1440,6290802007068,登記記録の閉鎖等,0,2023-02-17,2023-02-15,渡辺建設工業有限会社,,有限会社,福岡県,北九州市小倉南区,若園２丁目１５番８号,,40,107,8020816,,,2023-02-15,清算の結了等,,,2015-10-05,1,,,,,ワタナベケンセツコウギョウ,0
1503,7010602030924,登記記録の閉鎖等,0,2023-02-17,2023-02-08,有限会社まいちもん,,有限会社,東京都,江東区,東陽５丁目７番６号,,13,108,1350016,,,2023-02-08,清算の結了等,,,2015-10-05,1,,,,,マイチモン,0
1514,7010901026945,登記記録の閉鎖等,0,2023-02-17,2023-02-14,株式会社美山商事,,株式会社,東京都,世田谷区,弦巻１丁目２０番１９号,,13,112,1540016,,,2023-02-14,清算の結了等,,,2015-10-05,1,,,,,ビザンショウジ,0
1536,7011501002411,登記記録の閉鎖等,0,2023-02-17,2023-02-10,株式会社誠和,,株式会社,東京都,北区,赤羽南１丁目２１番９号,,13,117,1150044,,,2023-02-10,清算の結了等,,,2015-10-05,1,,,,,セイワ,0
1540,7011701011641,登記記録の閉鎖等,0,2023-02-17,2023-02-13,クワスチール工業株式会社,,株式会社,東京都,江東区,森下４丁目１９番１４号,,13,108,1350004,,,2023-02-13,清算の結了等,,,2015-10-05,1,,,,,クワスチールコウギョウ,0
1542,7011702001443,登記記録の閉鎖等,0,2023-02-17,2023-02-03,ヴィベールジャパン有限会社,,有限会社,秋田県,大仙市,神宮寺字宇留井谷地３０４－１,,05,212,0191701,,,2023-02-03,清算の結了等,,,2015-10-05,1,,,,,ヴィベールジャパン,0
1580,7030005003294,登記記録の閉鎖等,0,2023-02-17,2023-02-08,医療法人秀瑩会,,その他の設立登記法人,埼玉県,さいたま市北区,宮原町１丁目３３１番地１,,11,102,3310812,,,2023-02-08,合併による解散等,2430005013340,令和５年２月１日札幌市清田区平岡一条五丁目３番８号医療法人社団みらい（2430005013340）に合併し解散,2015-10-05,1,,,,,シュウエイカイ,0
1588,7050001026099,登記記録の閉鎖等,0,2023-02-17,2023-02-14,株式会社めぐみ,,株式会社,茨城県,龍ケ崎市,小柴２丁目１番地３、６－４０３,,08,208,3010044,,,2023-02-14,清算の結了等,,,2015-10-05,1,,,,,メグミ,0
1621,7120101032378,登記記録の閉鎖等,0,2023-02-17,2023-02-15,株式会社濱田製作所,,株式会社,大阪府,羽曳野市,駒ケ谷７４２番１,,27,222,5830841,,,2023-02-15,清算の結了等,,,2015-10-05,1,,,,,ハマダセイサクショ,0
1643,7200001017272,登記記録の閉鎖等,0,2023-02-17,2023-02-14,株式会社ハイエスト,,株式会社,岐阜県,美濃加茂市,川合町１丁目１３番３９号,,21,211,5050022,,,2023-02-14,清算の結了等,,,2023-01-13,1,,,,,ハイエスト,0
1650,7220002012378,登記記録の閉鎖等,0,2023-02-17,2023-02-15,有限会社コダキ,,有限会社,石川県,加賀市,山代温泉幸町４５番地,,17,206,9220255,,,2023-02-15,清算の結了等,,,2015-10-05,1,,,,,コダキ,0
1654,7240001055863,登記記録の閉鎖等,0,2023-02-17,2023-02-08,株式会社せとうち備後,,株式会社,広島県,福山市,沼隈町大字中山南字勝負迫８８－２４,,34,207,7200402,,,2023-02-08,合併による解散等,6130001060859,令和５年２月１日京都市右京区西京極南大入町７２スポーツＸ株式会社（6130001060859）に合併し解散,2020-03-27,1,,,,,セトウチビンゴ,0
1655,7240002033612,登記記録の閉鎖等,0,2023-02-17,2023-02-14,有限会社仁方書房,,有限会社,広島県,呉市,仁方本町１丁目２番２８号,,34,202,7370152,,,2023-02-14,清算の結了等,,,2015-10-05,1,,,,,,0
1676,7340001015312,登記記録の閉鎖等,0,2023-02-17,2023-02-14,太志建設株式会社,,株式会社,鹿児島県,曽於郡大崎町,菱田９０９番地,,46,468,8997301,,,2023-02-14,清算の結了等,,,2015-10-05,1,,,,,タイシケンセツ,0
1678,7360001014527,登記記録の閉鎖等,0,2023-02-17,2023-02-01,株式会社ＲＰＭ,,株式会社,沖縄県,那覇市,樋川１丁目１１番１１号,00101318,47,201,9000022,,,2023-02-01,合併による解散等,5360001024172,令和５年２月１日沖縄県那覇市宇栄原四丁目１０番１３号株式会社那覇土地住宅（5360001024172）に合併し解散,2015-10-05,1,,,,,アールピーエム,0
1683,7370202005167,登記記録の閉鎖等,0,2023-02-17,2023-02-15,有限会社狩野電設,,有限会社,宮城県,栗原市,築館字下宮野町５２番地,,04,213,9872203,,,2023-02-15,清算の結了等,,,2015-10-05,1,,,,,,0
1686,7380002009359,登記記録の閉鎖等,0,2023-02-17,2023-02-13,有限会社ＫＫＰ,,有限会社,福島県,郡山市,安積町荒井字上屋敷４５番地の３,,07,203,9630111,,,2023-02-13,清算の結了等,,,2015-10-05,1,,,,,ケーケーピー,0
1694,7430002038088,登記記録の閉鎖等,0,2023-02-17,2023-02-16,有限会社テクノクラフト,,有限会社,北海道,札幌市東区,北十三条東７丁目５番１０－４０８号,,01,103,0650013,,,2023-02-16,清算の結了等,,,2015-10-05,1,,,,,テクノクラフト,0
1695,7430003014030,登記記録の閉鎖等,0,2023-02-17,2023-02-15,合同会社ＲｅＭｏｏｄ,,合同会社,北海道,石狩市,樽川五条２丁目２５番地,,01,235,0613255,,,2023-02-15,清算の結了等,,,2022-06-23,1,,,,,リムード,0
1709,8010001119525,登記記録の閉鎖等,0,2023-02-17,2023-02-14,株式会社スキーマ,,株式会社,東京都,中央区,東日本橋２丁目１４番４号,,13,102,1030004,,,2023-02-14,清算の結了等,,,2015-10-05,1,,,,,スキーマ,0
1714,8010001146890,登記記録の閉鎖等,0,2023-02-17,2023-02-14,株式会社ＡＲＭＯＲ　ＥＮＴＥＲＴＡＩＮＭＥＮＴ,,株式会社,東京都,中央区,勝どき６丁目３番２－２２１５号,,13,102,1040054,,,2023-02-14,合併による解散等,6010501047566,令和５年２月１日東京都台東区上野三丁目１５番７号株式会社ｋ９（6010501047566）に合併し解散,2015-10-05,1,,,,,アーマーエンターテイメント,0
1721,8010003023295,登記記録の閉鎖等,0,2023-02-17,2023-02-13,ＡＤＸジャパン合同会社,,合同会社,東京都,千代田区,有楽町１丁目６番３号日比谷潁川ビル８階,,13,101,1000006,,,2023-02-13,清算の結了等,,,2016-03-25,1,,,,,エーディエックスジャパン,0
1723,8010101000923,登記記録の閉鎖等,0,2023-02-17,2023-02-13,株式会社金生,,株式会社,東京都,八王子市,大楽寺町６４５番地,,13,201,1930816,,,2023-02-13,清算の結了等,,,2015-10-05,1,,,,,キンセイ,0
1752,8011001135066,登記記録の閉鎖等,0,2023-02-17,2023-02-06,株式会社ｌａｍｉｒｅ,,株式会社,東京都,渋谷区,渋谷２丁目１２番９号,,13,113,1500002,,,2023-02-06,清算の結了等,,,2020-08-03,1,,,,,ラミレ,0
1760,8011101071896,登記記録の閉鎖等,0,2023-02-17,2023-02-15,株式会社トミーズ・コーポレーション,,株式会社,東京都,新宿区,北町２４番地１,,13,104,1620834,,,2023-02-15,清算の結了等,,,2015-10-05,1,,,,,トミーズコーポレーション,0
1773,8011801027958,登記記録の閉鎖等,0,2023-02-17,2023-02-14,株式会社ツシマ,,株式会社,東京都,足立区,梅田５丁目２２番１号,,13,121,1230851,,,2023-02-14,清算の結了等,,,2015-10-05,1,,,,,ツシマ,0
1789,8021002014771,登記記録の閉鎖等,0,2023-02-17,2023-02-14,有限会社ボンネルフ,,有限会社,神奈川県,川崎市宮前区,東有馬１丁目３番１号,,14,136,2160002,,,2023-02-14,清算の結了等,,,2015-10-05,1,,,,,ボンネルフ,0
1799,8030002069180,登記記録の閉鎖等,0,2023-02-17,2023-02-13,ファミリーベル有限会社,,有限会社,埼玉県,春日部市,大枝５９４番地１,,11,214,3440023,,,2023-02-13,清算の結了等,,,2015-10-05,1,,,,,ファミリーベル,0
1874,8190005004532,登記記録の閉鎖等,0,2023-02-17,2023-02-15,特定非営利活動法人コスモス,,その他の設立登記法人,三重県,鈴鹿市,国府町２２６１番地の３,,24,207,5130836,,,2023-02-15,清算の結了等,,,2015-10-05,1,,,,,コスモス,0
1877,8220001023219,登記記録の閉鎖等,0,2023-02-17,2023-02-15,株式会社高美装,00118284,株式会社,石川県,金沢市,示野町西１１３番地２,,17,201,9200059,,,2023-02-15,清算の結了等,,,2019-11-25,1,,,,,タカビソウ,0
1883,8240003002771,登記記録の閉鎖等,0,2023-02-17,2023-02-14,合同会社向日葵,,合同会社,広島県,広島市南区,南蟹屋２丁目３番２－８０２号,,34,103,7320803,,,2023-02-14,清算の結了等,,,2015-10-05,1,,,,,ヒマワリ,0
1935,9010101014162,登記記録の閉鎖等,0,2023-02-17,2023-02-13,新宝株式会社,,株式会社,東京都,八王子市,八木町３番１５号ライオンズマンション西八王子第３－３０２号室,,13,201,1920055,,,2023-02-13,清算の結了等,,,2020-04-27,1,,,,,シンホウ,0
1960,9011001014921,登記記録の閉鎖等,0,2023-02-17,2023-02-13,株式会社デザインスタジオアド・ツー,,株式会社,東京都,渋谷区,幡ヶ谷１丁目２５番５号アド・ツービル,,13,113,1510072,,,2023-02-13,清算の結了等,,,2015-10-05,1,,,,,デザインスタジオアドツー,0
1974,9011002010424,登記記録の閉鎖等,0,2023-02-17,2023-02-13,有限会社ブーム,,有限会社,東京都,渋谷区,恵比寿南１丁目１８番１１号,,13,113,1500022,,,2023-02-13,清算の結了等,,,2015-10-05,1,,,,,ブーム,0
1998,9020001066427,登記記録の閉鎖等,0,2023-02-17,2023-02-15,株式会社スタジオ・ミュージカル・サービス,,株式会社,神奈川県,川崎市中原区,宮内２丁目２９番５号,,14,133,2110051,,,2023-02-15,清算の結了等,,,2015-10-05,1,,,,,スタジオミュージカルサービス,0
2026,9030001144248,登記記録の閉鎖等,0,2023-02-17,2023-02-16,株式会社ＳＹ,,株式会社,埼玉県,川口市,幸町２丁目１７番９号川口ＳＫビル３Ｆ,,11,203,3320016,,,2023-02-16,清算の結了等,,,2021-09-07,1,,,,,エスワイ,0
2055,9090002005229,登記記録の閉鎖等,0,2023-02-17,2023-02-15,有限会社グリーン開発,,有限会社,山梨県,甲府市,善光寺２丁目１５番１８号,,19,201,4000806,,,2023-02-15,清算の結了等,,,2015-10-05,1,,,,,グリーンカイハツ,0
2072,9120002046236,登記記録の閉鎖等,0,2023-02-17,2023-02-15,有限会社トップスポット,,有限会社,大阪府,大阪市此花区,酉島１丁目１５－１３,,27,104,5540051,,,2023-02-15,清算の結了等,,,2015-10-05,1,,,,,,0
2079,9122001018001,登記記録の閉鎖等,0,2023-02-17,2023-02-15,株式会社エフ・ビー・リース,,株式会社,大阪府,八尾市,太田３丁目１９５番地,,27,212,5810037,,,2023-02-15,清算の結了等,,,2015-10-05,1,,,,,エフビーリース,0
2094,9140005021820,登記記録の閉鎖等,0,2023-02-17,2023-02-13,特定非営利活動法人ＫＩＤ　ＨＯＵＳＥジョン,,その他の設立登記法人,兵庫県,川西市,南花屋敷４丁目２１番６号,,28,217,6660026,,,2023-02-13,清算の結了等,,,2015-10-05,1,,,,,キッズハウスジョン,0
2098,9180001044986,登記記録の閉鎖等,0,2023-02-17,2023-02-13,株式会社エリプスガイド,,株式会社,愛知県,日進市,浅田町茶園９番地８,,23,230,4700124,,,2023-02-13,清算の結了等,,,2015-10-05,1,,,,,エリプスガイド,0
2112,9230001005371,登記記録の閉鎖等,0,2023-02-17,2023-02-16,立山食品株式会社,,株式会社,富山県,富山市,婦中町中名２１２１番地,,16,201,9392741,,,2023-02-16,清算の結了等,,,2015-10-05,1,,,,,タテヤマショクヒン,0
2121,9250001002862,登記記録の閉鎖等,0,2023-02-17,2023-02-15,株式会社キヨクニ,,株式会社,山口県,防府市,大字下右田９４５番地の１,,35,206,7470063,,,2023-02-15,清算の結了等,,,2015-10-05,1,,,,,キヨクニ,0
2137,9310001014331,登記記録の閉鎖等,0,2023-02-17,2023-02-17,株式会社ポップアート,,株式会社,長崎県,長崎市,西海町１１７０番地１,,42,201,8513101,,,2023-02-17,清算の結了等,,,2016-07-08,1,,,,,,0
2160,9440005001676,登記記録の閉鎖等,0,2023-02-17,2023-02-01,北檜山町農業協同組合,,その他の設立登記法人,北海道,久遠郡せたな町,北檜山区北檜山２０番地,,01,371,0494501,,,2023-02-01,合併による解散等,6440005000978,令和５年２月１日北海道北斗市本町一丁目１番２１号新函館農業協同組合（6440005000978）に合併し解散,2015-10-05,1,,,,,キタヒヤマチョウ,0
