sequenceNumber,corporateNumber,process,correct,updateDate,changeDate,name,nameImageId,kind,prefectureName,cityName,streetNumber,addressImageId,prefectureCode,cityCode,postCode,addressOutside,addressOutsideImageId,closeDate,closeCause,successorCorporateNumber,changeCause,assignmentDate,latest,enName,enPrefectureName,enCityName,enAddressOutside,furigana,hihyoji
11,1010401185306,新規,0,2024-09-26,2024-09-26,株式会社ＣＨＡＩＮＯＮ,,株式会社,東京都,港区,高輪１丁目１番１１－６０６号,,13,103,1080074,,,,,,,2024-09-26,1,,,,,シェノン,0
12,1010401185339,新規,0,2024-09-26,2024-09-26,アクス・マネージメント・パートナーズ・ジャパン株式会社,,株式会社,東京都,港区,六本木１丁目９番１０号アークヒルズ仙石山森タワー２６０３,,13,103,1060032,,,,,,,2024-09-26,1,,,,,アクスマネージメントパートナーズジャパン,0
13,1010403033446,新規,0,2024-09-26,2024-09-26,メドハブ・ジャパン合同会社,,合同会社,東京都,港区,南青山２丁目７番５－２０７号,,13,103,1070062,,,,,,,2024-09-26,1,,,,,メドハブジャパン,0
14,1010403033479,新規,0,2024-09-26,2024-09-26,ｔｅｎｓｉｏ合同会社,,合同会社,東京都,港区,西麻布４丁目１５番地２－１３０２,,13,103,1060031,,,,,,,2024-09-26,1,,,,,テンシオ,0
22,1010605004385,新規,0,2024-09-26,2024-09-26,弁理士法人ＭＡＯＡＮＤ,,その他の設立登記法人,東京都,江東区,豊洲６丁目２番３１号９１０号室,,13,108,1350061,,,,,,,2024-09-26,1,,,,,マオアンド,0
27,1010703007364,新規,0,2024-09-26,2024-09-26,ＲＥＤ　ＦＲＡＭＥ合同会社,,合同会社,東京都,品川区,旗の台１丁目１０番２３号,,13,109,1420064,,,,,,,2024-09-26,1,,,,,レッドフレーム,0
29,1010801035424,新規,0,2024-09-26,2024-09-26,株式会社ＣｕｕＳｅｅ,,株式会社,東京都,大田区,北嶺町４３番６号,,13,111,1450073,,,,,,,2024-09-26,1,,,,,クーシー,0
42,1011001164872,新規,0,2024-09-26,2024-09-26,株式会社ＳＡＬＶＡＴＯＲＥ,,株式会社,東京都,渋谷区,恵比寿西２丁目４番８号ウィンド恵比寿ビル８Ｆ,,13,113,1500021,,,,,,,2024-09-26,1,,,,,サルヴァトーレ,0
43,1011001164880,新規,0,2024-09-26,2024-09-26,株式会社Ｃｏｒｅ　Ｌｏｇｉｃ,,株式会社,東京都,渋谷区,恵比寿西２丁目４番８号ウィンド恵比寿ビル８Ｆ,,13,113,1500021,,,,,,,2024-09-26,1,,,,,コアロジック,0
44,1011001164922,新規,0,2024-09-26,2024-09-26,株式会社カラフィリア,,株式会社,東京都,渋谷区,恵比寿西２丁目８番４号ＥＸ恵比寿西ビル５階,,13,113,1500021,,,,,,,2024-09-26,1,,,,,カラフィリア,0
47,1011003020074,新規,0,2024-09-26,2024-09-26,合同会社記憶プラス,,合同会社,東京都,渋谷区,神宮前６丁目２３－４桑野ビル２階,,13,113,1500001,,,,,,,2024-09-26,1,,,,,キオクプラス,0
53,1011101108886,新規,0,2024-09-26,2024-09-26,株式会社Ｒｅｌｉｎｋ,,株式会社,東京都,新宿区,西新宿３丁目３番１３号,,13,104,1600023,,,,,,,2024-09-26,1,,,,,リリンク,0
54,1011103014876,新規,0,2024-09-26,2024-09-26,合同会社ＢＹＡＫＵＹＡ,,合同会社,東京都,新宿区,神楽坂３丁目６－２２ｔｈｅｒｏｏｍ神楽坂地下一階,,13,104,1620825,,,,,,,2024-09-26,1,,,,,ビャクヤ,0
57,1011301030023,新規,0,2024-09-26,2024-09-26,株式会社Ｂｌｕｅ　Ｖｉｓｔａ,,株式会社,東京都,杉並区,阿佐谷北１丁目２７番９号パラッツォデルソル５０２,,13,115,1660001,,,,,,,2024-09-26,1,,,,,ブルービスタ,0
58,1011503006234,新規,0,2024-09-26,2024-09-26,合同会社アンコール,,合同会社,東京都,北区,赤羽南１丁目８番５号ＴＳビル５階,,13,117,1150044,,,,,,,2024-09-26,1,,,,,アンコール,0
59,1011601028072,新規,0,2024-09-26,2024-09-26,株式会社ＪＩＹＵＲＡ,,株式会社,東京都,練馬区,錦２丁目１０番５号,,13,120,1790082,,,,,,,2024-09-26,1,,,,,ジユラ,0
64,1012401042321,新規,0,2024-09-26,2024-09-26,株式会社ＤＩＶＡ,,株式会社,東京都,調布市,深大寺東町３丁目１１番地１２セラヴィノースコート２０２,,13,208,1820012,,,,,,,2024-09-26,1,,,,,ディーバ,0
66,1012403006761,新規,0,2024-09-26,2024-09-26,スカビオサ合同会社,,合同会社,東京都,府中市,四谷５丁目８番地の１－２１２,,13,206,1830035,,,,,,,2024-09-26,1,,,,,スカビオサ,0
80,1020003026923,新規,0,2024-09-26,2024-09-26,合同会社バグズドントライク,,合同会社,神奈川県,横浜市西区,浅間町１丁目４番３号ウィザードビル４０２,,14,103,2200072,,,,,,,2024-09-26,1,,,,,バグズドントライク,0
84,1021001083304,新規,0,2024-09-26,2024-09-26,株式会社ＥＴＨＩＣＡＬ,,株式会社,神奈川県,相模原市中央区,上溝２３４６番地１８－１Ｆ,,14,152,2520243,,,,,,,2024-09-26,1,,,,,エシカル,0
88,1030001162554,新規,0,2024-09-26,2024-09-26,株式会社八尾興業,,株式会社,埼玉県,越谷市,新越谷１丁目６３番地２,,11,222,3430857,,,,,,,2024-09-26,1,,,,,ヤオコウギョウ,0
93,1030003025180,新規,0,2024-09-26,2024-09-26,鼎啻合同会社,,合同会社,埼玉県,さいたま市浦和区,上木崎４丁目６番８－２号,,11,107,3300071,,,,,,,2024-09-26,1,,,,,カナエ,0
97,1040001135526,新規,0,2024-09-26,2024-09-26,株式会社まつながふぁーむ,,株式会社,千葉県,市川市,原木２丁目１番８号,,12,203,2720004,,,,,,,2024-09-26,1,,,,,マツナガファーム,0
102,1040003025849,新規,0,2024-09-26,2024-09-26,合同会社ＯＮＯＥ,,合同会社,千葉県,柏市,新柏１丁目１２番地１サンパセオ新柏Ｄ－１３０７号,,12,217,2770084,,,,,,,2024-09-26,1,,,,,オノエ,0
103,1040005022514,新規,0,2024-09-26,2024-09-26,一般社団法人千葉県在日ベトナム人協会,,その他の設立登記法人,千葉県,市川市,宮久保３丁目２２番１７号,,12,203,2720822,,,,,,,2024-09-26,1,,,,,チバケンザイニチベトナムジンキョウカイ,0
104,1060001037506,新規,0,2024-09-26,2024-09-26,株式会社鷹ノ羽,,株式会社,栃木県,那須烏山市,田野倉３０６番地,,09,215,3210526,,,,,,,2024-09-26,1,,,,,タカノハ,0
115,1100003007790,新規,0,2024-09-26,2024-09-26,合同会社空木,,合同会社,長野県,塩尻市,大字広丘高出１８１９番地８,,20,215,3990703,,,,,,,2024-09-26,1,,,,,ウツギ,0
119,1120001268697,新規,0,2024-09-26,2024-09-26,如喜株式会社,,株式会社,大阪府,大阪市生野区,生野西４丁目１２－３ハイツ西村２０５号室,,27,116,5440024,,,,,,,2024-09-26,1,,,,,ジョキ,0
125,1130003009875,新規,0,2024-09-26,2024-09-26,合同会社ＦＩＲＥＷＯＲＫ,,合同会社,京都府,京都市北区,大宮薬師山東町１３番地４５,,26,101,6038474,,,,,,,2024-09-26,1,,,,,ファイヤーワーク,0
126,1140001135862,新規,0,2024-09-26,2024-09-26,株式会社ＷＥＳＴＡＧＥ,,株式会社,兵庫県,西宮市,清瀬台８番７号,,28,204,6691131,,,,,,,2024-09-26,1,,,,,ウェステージ,0
127,1140001135904,新規,0,2024-09-26,2024-09-26,株式会社Ｍａｕｌｏａ,,株式会社,兵庫県,西宮市,上甲東園１丁目１４番３号,,28,204,6620813,,,,,,,2024-09-26,1,,,,,マウルア,0
130,1140003021128,新規,0,2024-09-26,2024-09-26,ＭＡＮＤＡ合同会社,,合同会社,兵庫県,加古川市,尾上町池田４７５－１０,,28,210,6750023,,,,,,,2024-09-26,1,,,,,マンダ,0
132,1150003003380,新規,0,2024-09-26,2024-09-26,合同会社レガーメ,,合同会社,奈良県,桜井市,大字外山１７４番地の１１,,29,206,6330007,,,,,,,2024-09-26,1,,,,,レガーメ,0
134,1160003003289,新規,0,2024-09-26,2024-09-26,合同会社ＪＩＮＥＮ,,合同会社,滋賀県,大津市,栄町３番１７号,,25,201,5200855,,,,,,,2024-09-26,1,,,,,ジネン,0
140,1180005020784,新規,0,2024-09-26,2024-09-26,医療法人もものき会,,その他の設立登記法人,愛知県,小牧市,篠岡１丁目４６番地２,,23,219,4850815,,,,,,,2024-09-26,1,,,,,モモノキカイ,0
143,1180301039082,新規,0,2024-09-26,2024-09-26,株式会社グランアーキテクツ一級建築士事務所,,株式会社,愛知県,西尾市,駒場町四石目５８－１,,23,213,4450021,,,,,,,2024-09-26,1,,,,,グランアーキテクツイッキュウケンチクシジムショ,0
145,1190001031669,新規,0,2024-09-26,2024-09-26,株式会社ＨＣＲ,,株式会社,三重県,桑名市,長島町西外面２１９６番地１,,24,205,5111143,,,,,,,2024-09-26,1,,,,,エッチシーアール,0
147,1200003006519,新規,0,2024-09-26,2024-09-26,合同会社３ＰＥＡＣＥ,,合同会社,岐阜県,各務原市,那加西野町７８番地,,21,213,5040968,,,,,,,2024-09-26,1,,,,,スリーピース,0
150,1220005008882,新規,0,2024-09-26,2024-09-26,一般社団法人新村新友会,,その他の設立登記法人,石川県,鳳珠郡能登町,字宇出津ヘ字８７番地２,,17,463,9270433,,,,,,,2024-09-26,1,,,,,シムラシンユウカイ,0
152,1240001063855,新規,0,2024-09-26,2024-09-26,株式会社宙,,株式会社,広島県,廿日市市,対厳山２丁目９－４,,34,213,7390402,,,,,,,2024-09-26,1,,,,,ソラ,0
153,1240001063863,新規,0,2024-09-26,2024-09-26,株式会社エッセンスリー,,株式会社,広島県,広島市東区,二葉の里１丁目１番６７－２０５号,,34,102,7320057,,,,,,,2024-09-26,1,,,,,エッセンスリー,0
156,1240005015836,新規,0,2024-09-26,2024-09-26,社会保険労務士法人キャリアーチ,,その他の設立登記法人,広島県,広島市中区,西白島町８番３号,,34,101,7300005,,,,,,,2024-09-26,1,,,,,キャリアーチ,0
157,1260003004905,新規,0,2024-09-26,2024-09-26,合同会社金龍堂,,合同会社,岡山県,岡山市北区,表町３丁目７番２８号,,33,101,7000822,,,,,,,2024-09-26,1,,,,,キンリュウドウ,0
161,1290001107310,新規,0,2024-09-26,2024-09-26,株式会社ＮｕＡＩ,,株式会社,福岡県,福岡市東区,香住ヶ丘２丁目１５番２１－２０５号しのはらビル,,40,131,8130003,,,,,,,2024-09-26,1,,,,,ヌアイ,0
163,1290801030901,新規,0,2024-09-26,2024-09-26,ＳＯＡＲ株式会社,,株式会社,福岡県,北九州市小倉南区,朽網西２丁目３番１１号,,40,107,8000233,,,,,,,2024-09-26,1,,,,,ソアー,0
166,1330001032479,新規,0,2024-09-26,2024-09-26,株式会社ＴＡＳＵＫＩ,,株式会社,熊本県,熊本市中央区,上通町２－１７びぷれす熊日会館７階,,43,101,8600845,,,,,,,2024-09-26,1,,,,,タスキ,0
172,1360003014316,新規,0,2024-09-26,2024-09-26,合同会社むみんプランニング,,合同会社,沖縄県,石垣市,字登野城５１０番地,,47,207,9070004,,,,,,,2024-09-26,1,,,,,ムミンプランニング,0
173,1360003014324,新規,0,2024-09-26,2024-09-26,合同会社ワンスモア,,合同会社,沖縄県,うるま市,字仲嶺３３１番地１ヴィラフレーサ３０２号室,,47,213,9042226,,,,,,,2024-09-26,1,,,,,ワンスモア,0
174,1370001051756,新規,0,2024-09-26,2024-09-26,ソーシャルデザイン株式会社,,株式会社,宮城県,仙台市太白区,郡山７丁目９番２３号,,04,104,9820003,,,,,,,2024-09-26,1,,,,,ソーシャルデザイン,0
178,1410001013941,新規,0,2024-09-26,2024-09-26,株式会社ドラマチックワンダー,,株式会社,秋田県,横手市,前郷一番町９番６号,,05,203,0130038,,,,,,,2024-09-26,1,,,,,ドラマチックワンダー,0
181,1430001092736,新規,0,2024-09-26,2024-09-26,株式会社ＡＺＬＡＮ　ＴＲＡＤＩＮＧ,,株式会社,北海道,石狩郡当別町,蕨岱９４６番地５,,01,303,0610214,,,,,,,2024-09-26,1,,,,,アズラントレーディング,0
182,1430003016809,新規,0,2024-09-26,2024-09-26,ＣＣ．弘ＧＡ合同会社,,合同会社,北海道,札幌市豊平区,月寒西二条８丁目３番１６,,01,105,0620022,,,,,,,2024-09-26,1,,,,,シーダブルコウガ,0
192,1500001025886,新規,0,2024-09-26,2024-09-26,アンカーデザイン株式会社,,株式会社,愛媛県,今治市,常盤町５丁目２番３９号若宮ビル２Ｆ,,38,202,7940015,,,,,,,2024-09-26,1,,,,,アンカーデザイン,0
193,1700150126655,新規,0,2024-09-26,2024-08-02,羅臼町水産加工振興協会,,その他,北海道,目梨郡羅臼町,松法町１３番地,,01,694,0861835,,,,,,,2024-08-02,1,,,,,ラウスチヨウスイサンカコウシンコウキヨウカイ,0
196,2010001248437,新規,0,2024-09-26,2024-09-26,株式会社ＡＬＩＶＥ　Ｃｏｎｓｕｌｔｉｎｇ,,株式会社,東京都,中央区,勝どき４丁目６番２号パークタワー勝どきミッド,,13,102,1040054,,,,,,,2024-09-26,1,,,,,アライヴコンサルティング,0
199,2010003044974,新規,0,2024-09-26,2024-09-26,合同会社ｏｖｅｒｒｉｄｅ,,合同会社,東京都,千代田区,神田錦町１丁目１１－２－６１０,,13,101,1010054,,,,,,,2024-09-26,1,,,,,オーバーライド,0
200,2010003044982,新規,0,2024-09-26,2024-09-26,合同会社ＭＡＤＥ,,合同会社,東京都,文京区,本駒込２丁目１８番１２－４０１号,,13,105,1130021,,,,,,,2024-09-26,1,,,,,メイド,0
204,2010401185288,新規,0,2024-09-26,2024-09-26,株式会社Ｂｌｏｏｍ　Ｍｕｓｉｃ,,株式会社,東京都,港区,南青山３丁目１番３６号青山丸竹ビル６Ｆ,,13,103,1070062,,,,,,,2024-09-26,1,,,,,ブルームミュージック,0
205,2010403033486,新規,0,2024-09-26,2024-09-26,合同会社ＣＨＥＧＡＮＧ,,合同会社,東京都,港区,赤坂４丁目２番２－４０２号,,13,103,1070052,,,,,,,2024-09-26,1,,,,,チェーガン,0
206,2010405023543,新規,0,2024-09-26,2024-09-26,一般社団法人ＯＨＡＮＡ,,その他の設立登記法人,東京都,港区,赤坂５丁目３番３－９０６号,,13,103,1070052,,,,,,,2024-09-26,1,,,,,オハナ,0
211,2010601065942,新規,0,2024-09-26,2024-09-26,美楽ガーデン株式会社,,株式会社,東京都,墨田区,業平３丁目４番５号２０３号室,,13,107,1300002,,,,,,,2024-09-26,1,,,,,ビラクガーデン,0
212,2010701046586,新規,0,2024-09-26,2024-09-26,株式会社識学グロースキャピタルパートナーズ,,株式会社,東京都,品川区,大崎２丁目９番３号大崎ウエストシティビル１階,,13,109,1410032,,,,,,,2024-09-26,1,,,,,シキガクグロースキャピタルパートナーズ,0
215,2010801035415,新規,0,2024-09-26,2024-09-26,株式会社旭ホールディングス,,株式会社,東京都,大田区,中央６丁目２８番５号,,13,111,1430024,,,,,,,2024-09-26,1,,,,,アサヒホールディングス,0
217,2010803005069,新規,0,2024-09-26,2024-09-26,合資会社西本合金鑄造所,,合資会社,東京都,大田区,本羽田３丁目１６番３号,,13,111,1440044,,,,,,,2024-09-26,1,,,,,ニシモトコウキンチュウゾウショ,0
224,2011001164789,新規,0,2024-09-26,2024-09-26,株式会社Ｃｒｕｍｉｉ,,株式会社,東京都,渋谷区,恵比寿南３丁目７－３ミュール代官山４Ｆ,,13,113,1500022,,,,,,,2024-09-26,1,,,,,クルミー,0
225,2011001164797,新規,0,2024-09-26,2024-09-26,株式会社サンカクケイ,,株式会社,東京都,渋谷区,渋谷２丁目１２番９号,,13,113,1500002,,,,,,,2024-09-26,1,,,,,サンカクケイ,0
226,2011001164806,新規,0,2024-09-26,2024-09-26,ＴＷＩＮ　ＣＩＴＩＥＳ株式会社,,株式会社,東京都,目黒区,目黒１丁目５－２４エステートヤマザキＩＶ２０３,00136400,13,110,1530063,,,,,,,2024-09-26,1,,,,,ツインシティーズ,0
227,2011003020065,新規,0,2024-09-26,2024-09-26,Ｔａｕｒｕｓ合同会社,,合同会社,東京都,渋谷区,道玄坂１丁目１０－８渋谷道玄坂東急ビル２Ｆ－Ｃ,,13,113,1500043,,,,,,,2024-09-26,1,,,,,タウラス,0
232,2011101108836,新規,0,2024-09-26,2024-09-26,株式会社Ｐｏｌｙｍｅｔｒｉｃ,,株式会社,東京都,新宿区,中落合３丁目１３番３号,,13,104,1610032,,,,,,,2024-09-26,1,,,,,ポリメトリック,0
237,2011403004502,新規,0,2024-09-26,2024-09-26,Ｃｅｐａｇｅ合同会社,,合同会社,東京都,板橋区,中台３丁目１９－５－１０２号室幸福ハウス,,13,119,1740064,,,,,,,2024-09-26,1,,,,,セパージ,0
239,2011503006233,新規,0,2024-09-26,2024-09-26,合同会社ＫＨＨＭ　ＥＮＴＥＲＰＲＩＳＥＳ,,合同会社,東京都,北区,東田端２丁目９番１７号三協マンション１０１,,13,117,1140013,,,,,,,2024-09-26,1,,,,,ケイエイチエイチエムエンタープライズ,0
241,2011703003971,新規,0,2024-09-26,2024-09-26,合資会社ドッチモ,,合資会社,東京都,江戸川区,西葛西３丁目２２番４５－３０１号コスモアージュ西葛西,,13,123,1340088,,,,,,,2024-09-26,1,,,,,,0
247,2012403006760,新規,0,2024-09-26,2024-09-26,合同会社ＵＰＤＲＡＦＴ,,合同会社,東京都,三鷹市,大沢５丁目１２番１２号,,13,204,1810015,,,,,,,2024-09-26,1,,,,,アップドラフト,0
254,2020001028301,新規,0,2024-09-26,2024-09-26,株式会社野中商会,,株式会社,神奈川県,横浜市中区,海岸通４丁目２１番地,,14,104,2310002,,,,,,,2024-09-26,1,,,,,ノナカショウカイ,0
262,2020001159146,新規,0,2024-09-26,2024-09-26,Ｓ２ＮＭ株式会社,,株式会社,神奈川県,横浜市西区,浅間町１丁目４番地３ウィザードビル４０２,,14,103,2200072,,,,,,,2024-09-26,1,,,,,エスツーエヌエム,0
269,2030003025163,新規,0,2024-09-26,2024-09-26,エミネス合同会社,,合同会社,埼玉県,川口市,南鳩ヶ谷７丁目３０番２号コーワ・ルミエール弐番館１０５号,,11,203,3340013,,,,,,,2024-09-26,1,,,,,エミネス,0
274,2040001135491,新規,0,2024-09-26,2024-09-26,Ｓｕｎｓｈｉｎｅ　Ｓｐｏｒｔｓ株式会社,,株式会社,千葉県,富里市,七栄５３２番地１６８,,12,233,2860221,,,,,,,2024-09-26,1,,,,,サンシャインスポーツ,0
280,2050003008686,新規,0,2024-09-26,2024-09-26,Ｕｎｄｅｒｗａｔｅｒ　Ｃｏｎｓｔｒｕｃｔｉｏｎ　Ｃｏｒｐｏｒａｔｉｏｎ合同会社,,合同会社,茨城県,那珂郡東海村,大字村松８８５－２,,08,341,3191112,,,,,,,2024-09-26,1,,,,,,0
282,2070001042198,新規,0,2024-09-26,2024-09-26,株式会社草津かりんと,,株式会社,群馬県,吾妻郡草津町,大字草津字泉水５０５番地,,10,426,3771711,,,,,,,2024-09-26,1,,,,,クサツカリント,0
287,2070003005582,新規,0,2024-09-26,2024-09-26,合同会社ＳＩＮＹＡ,,合同会社,群馬県,佐波郡玉村町,大字板井９０１－３,,10,464,3701135,,,,,,,2024-09-26,1,,,,,シンヤ,0
289,2080001026506,新規,0,2024-09-26,2024-09-26,ＲＩＹＡｃ株式会社,,株式会社,静岡県,藤枝市,岡出山２丁目１０－１７こばやしビル１ＦＤ,,22,214,4260026,,,,,,,2024-09-26,1,,,,,リヤック,0
291,2080401027459,新規,0,2024-09-26,2024-09-26,株式会社ＢＯＯＴＰＬＵＳ,,株式会社,静岡県,浜松市中央区,小池町１３６３番地の１,,22,138,4350056,,,,,,,2024-09-26,1,,,,,ブートプラス,0
293,2090003002644,新規,0,2024-09-26,2024-09-26,ＹＭＧ．ＤＡＯ合同会社,,合同会社,山梨県,甲府市,住吉３丁目１０番１３号コーポ甲南２０１,,19,201,4000851,,,,,,,2024-09-26,1,,,,,ワイエムジーダオ,0
303,2120001268762,新規,0,2024-09-26,2024-09-26,株式会社ＡＹＧ,,株式会社,大阪府,大阪市淀川区,新高６丁目１番１４号３０２号,,27,123,5320033,,,,,,,2024-09-26,1,,,,,エーワイジー,0
304,2120003027613,新規,0,2024-09-26,2024-09-26,合同会社プレジール,,合同会社,大阪府,大阪市北区,大淀中３丁目５番２７‐２０１号,,27,127,5310076,,,,,,,2024-09-26,1,,,,,プレジール,0
310,2120901049790,新規,0,2024-09-26,2024-09-26,株式会社ＩＤＥＡ,,株式会社,大阪府,池田市,石橋１丁目８番１号,,27,204,5630032,,,,,,,2024-09-26,1,,,,,イデア,0
311,2120901049808,新規,0,2024-09-26,2024-09-26,株式会社クワッズ,,株式会社,大阪府,吹田市,津雲台５丁目１７番Ｄ５９－４０１号,,27,205,5650862,,,,,,,2024-09-26,1,,,,,クワッズ,0
314,2120903005346,新規,0,2024-09-26,2024-09-26,ＺＥＥ　ＴＲＡＤＩＮＧ合同会社,,合同会社,大阪府,高槻市,南平台４丁目２６－１,,27,207,5691042,,,,,,,2024-09-26,1,,,,,ジートレーディング,0
324,2130001077997,新規,0,2024-09-26,2024-09-26,和贏株式会社,00136403,株式会社,京都府,京都市右京区,西院東今田町３７－４ラトゥール西院３０１,,26,108,6160000,,,,,,,2024-09-26,1,,,,,ワエイ,0
326,2130003009874,新規,0,2024-09-26,2024-09-26,Ｔａｔａｍｉ合同会社,,合同会社,京都府,京都市東山区,宮川筋２丁目２５５番地,,26,105,6050801,,,,,,,2024-09-26,1,,,,,タタミ,0
327,2130005017181,新規,0,2024-09-26,2024-09-26,行政書士法人大久保総合,,その他の設立登記法人,京都府,京都市中京区,三条通烏丸西入御倉町８５番地１ＫＤＸ烏丸ビル４階,,26,104,6048166,,,,,,,2024-09-26,1,,,,,,0
332,2140001135886,新規,0,2024-09-26,2024-09-26,株式会社オーオー,,株式会社,兵庫県,三田市,八景町１２７９番地の１,,28,219,6691524,,,,,,,2024-09-26,1,,,,,オーオー,0
334,2140005027213,新規,0,2024-09-26,2024-09-26,一般社団法人はっぴぃハーバー,,その他の設立登記法人,兵庫県,高砂市,曽根町７４６－６,,28,216,6760082,,,,,,,2024-09-26,1,,,,,ハッピィハーバー,0
353,2190003004804,新規,0,2024-09-26,2024-09-26,大輝合同会社,,合同会社,三重県,伊勢市,神久４丁目１２番１１号,,24,203,5160017,,,,,,,2024-09-26,1,,,,,ダイキ,0
355,2200001042952,新規,0,2024-09-26,2024-09-26,株式会社富信ホールディングス,,株式会社,岐阜県,加茂郡八百津町,野上１６０５番地２０,,21,505,5050307,,,,,,,2024-09-26,1,,,,,トミシンホールディングス,0
356,2200001042969,新規,0,2024-09-26,2024-09-26,株式会社川上,,株式会社,岐阜県,岐阜市,六条東１丁目６番１号,,21,201,5008353,,,,,,,2024-09-26,1,,,,,カワカミ,0
358,2240001039532,新規,0,2024-09-26,2024-09-26,関西薬品株式会社,,株式会社,広島県,三原市,城町１丁目８番７号,,34,204,7230014,,,,,,,2024-09-26,1,,,,,カンサイヤクヒン,0
361,2260001039480,新規,0,2024-09-26,2024-09-26,株式会社ｍｉｌｌｅ,,株式会社,岡山県,岡山市中区,倉益１３１番地１９,,33,102,7038263,,,,,,,2024-09-26,1,,,,,ミル,0
362,2260003004904,新規,0,2024-09-26,2024-09-26,合同会社ライフオンリーワンス,,合同会社,岡山県,岡山市北区,奥田１丁目５番３０－１０１号,,33,101,7000933,,,,,,,2024-09-26,1,,,,,ライフオンリーワンス,0
366,2290001107268,新規,0,2024-09-26,2024-09-26,アダプチュア株式会社,,株式会社,福岡県,福岡市博多区,中呉服町３番２５号,,40,132,8120035,,,,,,,2024-09-26,1,,,,,アダプチュア,0
368,2290003015782,新規,0,2024-09-26,2024-09-26,合同会社オルドリバ商会,,合同会社,福岡県,久留米市,高良内町１４９番地１０,,40,203,8390852,,,,,,,2024-09-26,1,,,,,,0
369,2290003015832,新規,0,2024-09-26,2024-09-26,合同会社みのうてらす,,合同会社,福岡県,久留米市,山本町耳納１６９０番地１,,40,203,8390826,,,,,,,2024-09-26,1,,,,,ミノウテラス,0
371,2320001020715,新規,0,2024-09-26,2024-09-26,株式会社みのり,,株式会社,大分県,大分市,大字田原５４１番地の２,,44,201,8701154,,,,,,,2024-09-26,1,,,,,ミノリ,0
372,2320001020731,新規,0,2024-09-26,2024-09-26,株式会社ＮＣクリエイト,,株式会社,大分県,別府市,石垣東８丁目２番１７号,,44,202,8740919,,,,,,,2024-09-26,1,,,,,エヌシークリエイト,0
373,2320003004476,新規,0,2024-09-26,2024-09-26,合同会社３２１,,合同会社,大分県,大分市,公園通り４丁目３４番地の１８,,44,201,8700173,,,,,,,2024-09-26,1,,,,,サンニイイチ,0
378,2330001032478,新規,0,2024-09-26,2024-09-26,株式会社ＧＯＯＮＥマーケティング,,株式会社,熊本県,熊本市中央区,白山１丁目６番１５号林ビル２－Ｄ,,43,101,8620959,,,,,,,2024-09-26,1,,,,,ゴーワンマーケティング,0
380,2350001019192,新規,0,2024-09-26,2024-09-26,株式会社ハーベスタ,,株式会社,宮崎県,宮崎市,太田４丁目４番１６号,,45,201,8800903,,,,,,,2024-09-26,1,,,,,ハーベスタ,0
385,2380003005857,新規,0,2024-09-26,2024-09-26,合同会社碧,,合同会社,福島県,二本松市,表１丁目５５４番地５,,07,210,9640901,,,,,,,2024-09-26,1,,,,,アオ,0
390,2420001018872,新規,0,2024-09-26,2024-09-26,株式会社ＬＭ,,株式会社,青森県,上北郡七戸町,字森ノ上１３０番地１２,,02,402,0392827,,,,,,,2024-09-26,1,,,,,エルエム,0
391,2430003016816,新規,0,2024-09-26,2024-09-26,合同会社コネクト,,合同会社,北海道,札幌市豊平区,豊平一条１０丁目３番１６－５０２号,,01,105,0620901,,,,,,,2024-09-26,1,,,,,コネクト,0
392,2430003016824,新規,0,2024-09-26,2024-09-26,合同会社Ｂｅｌｌｅｃｈｉ,,合同会社,北海道,札幌市北区,北二十条西４丁目１番２７－１０１号,,01,102,0010020,,,,,,,2024-09-26,1,,,,,ベルチ,0
393,2450001014415,新規,0,2024-09-26,2024-09-26,株式会社城守商店,,株式会社,北海道,旭川市,末広東二条１丁目５番１６号,,01,204,0718122,,,,,,,2024-09-26,1,,,,,ジョウモリショウテン,0
398,2500001025893,新規,0,2024-09-26,2024-09-26,エイアンドエルホールディングス株式会社,,株式会社,愛媛県,今治市,東村１丁目１３番３号,,38,202,7991506,,,,,,,2024-09-26,1,,,,,エイアンドエルホールディングス,0
406,3010003044973,新規,0,2024-09-26,2024-09-26,合同会社わくてぃぶ,,合同会社,東京都,中央区,銀座１丁目１２番４号Ｎ＆ＥＢＬＤ．６Ｆ,,13,102,1040061,,,,,,,2024-09-26,1,,,,,ワクティブ,0
407,3010003045006,新規,0,2024-09-26,2024-09-26,バジルコンサルティング合同会社,,合同会社,東京都,千代田区,岩本町３丁目８番８号中和秋葉原ビル７Ｆ－３７,,13,101,1010032,,,,,,,2024-09-26,1,,,,,バジルコンサルティング,0
412,3010401185270,新規,0,2024-09-26,2024-09-26,Ｓａｋｕｒａｚａｋａ＆Ｓｏｎｓ株式会社,,株式会社,東京都,港区,赤坂１丁目１１番１２―１００３号,,13,103,1070052,,,,,,,2024-09-26,1,,,,,サクラザカアンドサンズ,0
413,3010401185279,新規,0,2024-09-26,2024-09-26,用友システム株式会社,,株式会社,東京都,港区,赤坂２丁目２３番１号アークヒルズ・フロントタワーＩｎＣｏｎｔｒｏｌ内,,13,103,1070052,,,,,,,2024-09-26,1,,,,,ヨウユウシステム,0
414,3010401185287,新規,0,2024-09-26,2024-09-26,ＬＳ‐Ａｖｉａｔｉｏｎ第６８号株式会社,,株式会社,東京都,港区,六本木１丁目６番１号,,13,103,1060032,,,,,,,2024-09-26,1,,,,,エルエスアビエーションダイロクジュウハチゴウ,0
415,3010401185345,新規,0,2024-09-26,2024-09-26,株式会社ライトアングル,,株式会社,東京都,港区,新橋４丁目２６番５－８０２号,,13,103,1050004,,,,,,,2024-09-26,1,,,,,ライトアングル,0
416,3010403033469,新規,0,2024-09-26,2024-09-26,合同会社源貴,,合同会社,東京都,港区,南青山３丁目１番３６号青山丸竹ビル６Ｆ,,13,103,1070062,,,,,,,2024-09-26,1,,,,,ゲンキ,0
418,3010501052949,新規,0,2024-09-26,2024-09-26,株式会社イースト,,株式会社,東京都,台東区,蔵前４丁目２１番９号,,13,106,1110051,,,,,,,2024-09-26,1,,,,,イースト,0
421,3010601065974,新規,0,2024-09-26,2024-09-26,ＳＭＰジャパン株式会社,,株式会社,東京都,江東区,青海２丁目７番４号,,13,108,1350064,,,,,,,2024-09-26,1,,,,,エスエムピージャパン,0
425,3010701046593,新規,0,2024-09-26,2024-09-26,株式会社コバルトピア,,株式会社,東京都,品川区,北品川５丁目５番１５号,,13,109,1410001,,,,,,,2024-09-26,1,,,,,コバルトピア,0
426,3010801035414,新規,0,2024-09-26,2024-09-26,株式会社ＣＡＳＡ,,株式会社,東京都,大田区,山王１丁目１２番４号ＶＩＮＧＴ－ＥＴ－ＵＮ１０９,,13,111,1430023,,,,,,,2024-09-26,1,,,,,カーサ,0
427,3010801035422,新規,0,2024-09-26,2024-09-26,株式会社早稲田商店,,株式会社,東京都,大田区,東六郷１丁目８番１２号,,13,111,1440046,,,,,,,2024-09-26,1,,,,,ワセダショウテン,0
438,3011003019916,新規,0,2024-09-26,2024-09-26,合同会社ミノダミュージッククリエイティブ,,合同会社,東京都,渋谷区,西原２丁目１４番２０－３０３号,,13,113,1510066,,,,,,,2024-09-26,1,,,,,ミノダミュージッククリエイティブ,0
439,3011003019981,新規,0,2024-09-26,2024-09-26,合同会社ＫＩＫＵＹＯ,,合同会社,東京都,渋谷区,渋谷２丁目１９－１５宮益坂ビルディング６０９,,13,113,1500002,,,,,,,2024-09-26,1,,,,,キクヨ,0
440,3011003020089,新規,0,2024-09-26,2024-09-26,ＥＡＲＴＨ　ＣＯＮＮＥＣＴ合同会社,,合同会社,東京都,渋谷区,恵比寿３丁目２１番６号恵比寿ガーデンヒルズ１０３,,13,113,1500013,,,,,,,2024-09-26,1,,,,,アースコネクト,0
441,3011003020114,新規,0,2024-09-26,2024-09-26,合同会社ｅｇｇ,,合同会社,東京都,渋谷区,恵比寿西２丁目８番４号ＥＸ恵比寿西ビル５階,,13,113,1500021,,,,,,,2024-09-26,1,,,,,エッグ,0
445,3011301030021,新規,0,2024-09-26,2024-09-26,株式会社フミタカホールディングス,,株式会社,東京都,杉並区,西荻北２丁目５番１号都ビルディング２０２号室,,13,115,1670042,,,,,,,2024-09-26,1,,,,,フミタカホールディングス,0
448,3011501031174,新規,0,2024-09-26,2024-09-26,Ｙ＆Ｋ株式会社,,株式会社,東京都,北区,滝野川７丁目３３番１２－４０２号メゾンド・栄,,13,117,1140023,,,,,,,2024-09-26,1,,,,,ワイアンドケイ,0
449,3011501031182,新規,0,2024-09-26,2024-09-26,株式会社はなクマ,,株式会社,東京都,荒川区,東尾久３丁目１２番１号,,13,118,1160012,,,,,,,2024-09-26,1,,,,,ハナクマ,0
451,3012305002106,新規,0,2024-09-26,2024-09-26,特定非営利活動法人ねこの和,,その他の設立登記法人,東京都,町田市,真光寺町１３５７番地１,,13,209,1950051,,,,,,,2024-09-26,1,,,,,ネコノワ,0
466,3020001159260,新規,0,2024-09-26,2024-09-26,株式会社ディスカバー,,株式会社,神奈川県,横浜市中区,尾上町４丁目５７番地横浜尾上町ビルディング８階,,14,104,2310015,,,,,,,2024-09-26,1,,,,,ディスカバー,0
471,3021001083335,新規,0,2024-09-26,2024-09-26,株式会社Ｐｉｑｑｕｅ,,株式会社,神奈川県,藤沢市,鵠沼松が岡４丁目１０－１０,00136406,14,205,2510038,,,,,,,2024-09-26,1,,,,,ピケ,0
474,3021003015047,新規,0,2024-09-26,2024-09-26,合同会社Ｍｏｍｏｋｏ　ｉＴ　Ｌａｂ．,,合同会社,神奈川県,高座郡寒川町,小谷２丁目４番４２－１号,,14,321,2530103,,,,,,,2024-09-26,1,,,,,モモコアイティーラボ,0
479,3030001162536,新規,0,2024-09-26,2024-09-26,陸商事株式会社,,株式会社,埼玉県,入間郡毛呂山町,大字毛呂本郷１５４９番地３,,11,326,3500451,,,,,,,2024-09-26,1,,,,,リクショウジ,0
480,3030001162602,新規,0,2024-09-26,2024-09-26,株式会社Ｏｌｕ’Ｏｌｕ,,株式会社,埼玉県,蓮田市,上２丁目１０番１５－２号,,11,238,3490122,,,,,,,2024-09-26,1,,,,,オルオル,0
481,3030001162619,新規,0,2024-09-26,2024-09-26,星月株式会社,,株式会社,埼玉県,所沢市,緑町２丁目１３－２日高ビル２０１室,,11,208,3591111,,,,,,,2024-09-26,1,,,,,ホシツキ,0
484,3030003025179,新規,0,2024-09-26,2024-09-26,合同会社角金,,合同会社,埼玉県,所沢市,松が丘１丁目１５番地の５,,11,208,3591132,,,,,,,2024-09-26,1,,,,,カドキン,0
491,3040005022470,新規,0,2024-09-26,2024-09-26,ＮＰＯ法人Ｒｕｎｗａｙｓ,,その他の設立登記法人,千葉県,四街道市,大日１６０番地７８,,12,228,2840001,,,,,,,2024-09-26,1,,,,,ランウェイズ,0
492,3040005022495,新規,0,2024-09-26,2024-09-26,税理士法人かとう,,その他の設立登記法人,千葉県,松戸市,新松戸２丁目１２１番地６Ｆ,,12,207,2700034,,,,,,,2024-09-26,1,,,,,カトウ,0
495,3050001055309,新規,0,2024-09-26,2024-09-26,株式会社須摩３３９,,株式会社,茨城県,水戸市,宮町１丁目２－４ＭＹＭビル３Ｆ「須摩３３９」,,08,201,3100015,,,,,,,2024-09-26,1,,,,,スマサンサンキュー,0
496,3050003008685,新規,0,2024-09-26,2024-09-26,合同会社穂歩,,合同会社,茨城県,つくば市,田倉５１９２番地１５,,08,220,3002615,,,,,,,2024-09-26,1,,,,,,0
497,3050003008702,新規,0,2024-09-26,2024-09-26,合同会社エクステンドコンサルティング,,合同会社,茨城県,つくば市,みどりの２丁目１８番地９５,,08,220,3050881,,,,,,,2024-09-26,1,,,,,エクステンドコンサルティング,0
500,3060003005260,新規,0,2024-09-26,2024-09-26,Ｇｌｏｒｙ　Ｒｉｓｅ合同会社,,合同会社,栃木県,宇都宮市,徳次郎町５番地２,,09,201,3212116,,,,,,,2024-09-26,1,,,,,グローリーライズ,0
507,3070001042197,新規,0,2024-09-26,2024-09-26,株式会社ティーティーエス,,株式会社,群馬県,桐生市,本町６丁目７番地１本町ＨＩＬＬＳ１０５号,,10,203,3760031,,,,,,,2024-09-26,1,,,,,ティーティーエス,0
508,3070001042206,新規,0,2024-09-26,2024-09-26,株式会社ＦＵＪＩＫＥＮ,,株式会社,群馬県,高崎市,箕郷町生原１３２９番地１アトランティス２０１号,,10,202,3703102,,,,,,,2024-09-26,1,,,,,フジケン,0
515,3100003007789,新規,0,2024-09-26,2024-09-26,Ｋ＆Ｈ　ＦＯＯＤＳ合同会社,,合同会社,長野県,大町市,大町２５１３番地３,,20,212,3980002,,,,,,,2024-09-26,1,,,,,ケイアンドエイチフーズ,0
521,3120001268737,新規,0,2024-09-26,2024-09-26,株式会社Ｅｒｉｃａ　Ｌｅｅ,,株式会社,大阪府,大阪市東住吉区,北田辺５丁目９番３６号ルンルン桃ケ池３０５室,,27,121,5460044,,,,,,,2024-09-26,1,,,,,エリカリー,0
522,3120001268753,新規,0,2024-09-26,2024-09-26,ＦＰコンサルティング株式会社,,株式会社,大阪府,大阪市北区,南森町２丁目２番９号,,27,127,5300054,,,,,,,2024-09-26,1,,,,,エフピーコンサルティング,0
523,3120001268778,新規,0,2024-09-26,2024-09-26,生野商事株式会社,,株式会社,大阪府,大阪市生野区,鶴橋２丁目１９番３号,,27,116,5440031,,,,,,,2024-09-26,1,,,,,イクノショウジ,0
525,3120003027579,新規,0,2024-09-26,2024-09-26,大江石材合同会社,,合同会社,大阪府,大阪市西区,立売堀１丁目６番１３－２０８号,,27,106,5500012,,,,,,,2024-09-26,1,,,,,オオエセキザイ,0
527,3120901049798,新規,0,2024-09-26,2024-09-26,株式会社豊中,,株式会社,大阪府,吹田市,千里山西４丁目３７番３号,,27,205,5650851,,,,,,,2024-09-26,1,,,,,トヨナカ,0
531,3130001077996,新規,0,2024-09-26,2024-09-26,株式会社ＫＲＴ,,株式会社,京都府,久世郡久御山町,佐山北代２番地５６,,26,322,6130034,,,,,,,2024-09-26,1,,,,,ケーアールティ,0
534,3130003009881,新規,0,2024-09-26,2024-09-26,システムヘルパー合同会社,,合同会社,京都府,京都市下京区,朱雀宝蔵町４４番地協栄ビル２階京都朱雀スタジオ,,26,106,6008846,,,,,,,2024-09-26,1,,,,,システムヘルパー,0
540,3140001135902,新規,0,2024-09-26,2024-09-26,株式会社ＹＯＺＡＮ,,株式会社,兵庫県,伊丹市,荒牧２丁目２番９号グリーンフォーレスト伊丹Ｂ２０３号,,28,207,6640001,,,,,,,2024-09-26,1,,,,,ヨウザン,0
541,3140001135910,新規,0,2024-09-26,2024-09-26,株式会社ｂｅ　Ｒａｄｉａｎｔ,,株式会社,兵庫県,西宮市,剣谷町１４番９号,,28,204,6620099,,,,,,,2024-09-26,1,,,,,ビーレイディアント,0
542,3140003021101,新規,0,2024-09-26,2024-09-26,合同会社未来創造,,合同会社,兵庫県,神戸市東灘区,深江南町３丁目２番２３－１号,,28,101,6580022,,,,,,,2024-09-26,1,,,,,ミライソウゾウ,0
543,3140003021126,新規,0,2024-09-26,2024-09-26,イイ合同会社,,合同会社,兵庫県,芦屋市,涼風町１９番６号,,28,206,6590036,,,,,,,2024-09-26,1,,,,,イイ,0
546,3140005027212,新規,0,2024-09-26,2024-09-26,一般社団法人ＡＷＥＳＯＭＥ,,その他の設立登記法人,兵庫県,神戸市中央区,海岸通３丁目１番１号ＫＣＣビル４Ｆ,,28,110,6500024,,,,,,,2024-09-26,1,,,,,オーサム,0
548,3150003003379,新規,0,2024-09-26,2024-09-26,合同会社まちづくり明日香,,合同会社,奈良県,高市郡明日香村,大字岡７,,29,402,6340111,,,,,,,2024-09-26,1,,,,,マチヅクリアスカ,0
550,3160003003287,新規,0,2024-09-26,2024-09-26,合同会社Ｒｅ,,合同会社,滋賀県,野洲市,小篠原１９６４番地１ドーミトゥリィ原田２０２号室,,25,210,5202331,,,,,,,2024-09-26,1,,,,,アールイー,0
551,3170003002107,新規,0,2024-09-26,2024-09-26,合同会社Ｕ‐ＤＲＯ,,合同会社,和歌山県,和歌山市,藤田１６番地３４,,30,201,6496318,,,,,,,2024-09-26,1,,,,,ユードロ,0
555,3180001163379,新規,0,2024-09-26,2024-09-26,株式会社木曽駒,,株式会社,愛知県,名古屋市守山区,幸心１丁目１２１番地,,23,113,4630079,,,,,,,2024-09-26,1,,,,,キソコマ,0
560,3190001031667,新規,0,2024-09-26,2024-09-26,株式会社川口塗装店,,株式会社,三重県,四日市市,西坂部町３７２１番地６,,24,202,5120913,,,,,,,2024-09-26,1,,,,,カワグチトソウテン,0
569,3230003002298,新規,0,2024-09-26,2024-09-26,合同会社リシャーダの港,,合同会社,富山県,富山市,長柄町３丁目７番５号,,16,201,9300076,,,,,,,2024-09-26,1,,,,,,0
570,3240001063861,新規,0,2024-09-26,2024-09-26,株式会社トポス,,株式会社,広島県,東広島市,西条町寺家６５８６番地３,,34,212,7390041,,,,,,,2024-09-26,1,,,,,トポス,0
572,3250001020829,新規,0,2024-09-26,2024-09-26,株式会社ＬａＭｅｒ,,株式会社,山口県,周南市,昭和通１丁目２９番地ソニアビル２Ｆ,,35,215,7450013,,,,,,,2024-09-26,1,,,,,ラメール,0
573,3250005008952,新規,0,2024-09-26,2024-09-26,一般社団法人山口建設安全教育センター,,その他の設立登記法人,山口県,山口市,湯田温泉５丁目２番３２号,,35,203,7530056,,,,,,,2024-09-26,1,,,,,ヤマグチケンセツアンゼンキョウイクセンター,0
574,3260001039488,新規,0,2024-09-26,2024-09-26,リタ株式会社,,株式会社,岡山県,倉敷市,児島柳田町５７６番地７４,,33,202,7110936,,,,,,,2024-09-26,1,,,,,リタ,0
576,3260003004903,新規,0,2024-09-26,2024-09-26,合同会社サンヒル,,合同会社,岡山県,岡山市北区,庭瀬９９７番地１,,33,101,7010153,,,,,,,2024-09-26,1,,,,,サンヒル,0
578,3270001009060,新規,0,2024-09-26,2024-09-26,ＣＬＯＶＥＲ株式会社,,株式会社,鳥取県,米子市,大篠津町５５２番地１,,31,202,6830101,,,,,,,2024-09-26,1,,,,,クローバー,0
585,3290001107309,新規,0,2024-09-26,2024-09-26,みずのいろシステムズ株式会社,,株式会社,福岡県,福岡市博多区,博多駅前３丁目７番１０号佐藤ビル２１１号室,,40,132,8120011,,,,,,,2024-09-26,1,,,,,ミズノイロシステムズ,0
587,3320001020730,新規,0,2024-09-26,2024-09-26,株式会社海翔,,株式会社,大分県,佐伯市,蒲江大字畑野浦１７８３番地１,,44,205,8762201,,,,,,,2024-09-26,1,,,,,カイショウ,0
588,3330001032477,新規,0,2024-09-26,2024-09-26,株式会社椎田興業,,株式会社,熊本県,熊本市南区,八幡１１丁目１８番１１号,,43,104,8614113,,,,,,,2024-09-26,1,,,,,シイダコウギョウ,0
592,3350003004745,新規,0,2024-09-26,2024-09-26,合同会社大平工業,,合同会社,宮崎県,宮崎市,鶴島２丁目９番７号サンシャインコートＩ－１０５号,00136399,45,201,8800014,,,,,,,2024-09-26,1,,,,,オオヒラコウギョウ,0
596,3360003014330,新規,0,2024-09-26,2024-09-26,サンクマリン合同会社,,合同会社,沖縄県,那覇市,首里石嶺町２丁目１８７番地７,,47,201,9030804,,,,,,,2024-09-26,1,,,,,サンクマリン,0
597,3370001051746,新規,0,2024-09-26,2024-09-26,株式会社ＨＳ,,株式会社,宮城県,仙台市青葉区,中山台２丁目２５番地の１０,,04,101,9893202,,,,,,,2024-09-26,1,,,,,エイチエス,0
598,3370001051754,新規,0,2024-09-26,2024-09-26,株式会社昊,,株式会社,宮城県,仙台市青葉区,一番町１丁目１番３１号山口ビル９階,,04,101,9800811,,,,,,,2024-09-26,1,,,,,ソラ,0
601,3370003006756,新規,0,2024-09-26,2024-09-26,合同会社フレンドアップ,,合同会社,宮城県,大崎市,古川中里１丁目５番２２号,,04,215,9896143,,,,,,,2024-09-26,1,,,,,フレンドアップ,0
609,3430001092692,新規,0,2024-09-26,2024-09-26,喜１号株式会社,,株式会社,北海道,札幌市南区,真駒内泉町２丁目１番１２号真駒内ロジュマン２０５,,01,106,0050015,,,,,,,2024-09-26,1,,,,,キイチゴウ,0
610,3430001092734,新規,0,2024-09-26,2024-09-26,株式会社協同Ｗｏｒｋｓ,,株式会社,北海道,室蘭市,祝津町２丁目４番１号,,01,205,0510036,,,,,,,2024-09-26,1,,,,,キョウドウワークス,0
611,3430001092742,新規,0,2024-09-26,2024-09-26,株式会社Ｊａｐａｎ　Ｂｅｙｏｎｄ,,株式会社,北海道,札幌市北区,北二十五条西１６丁目５番３２号新宅新興ビル３階,,01,102,0010025,,,,,,,2024-09-26,1,,,,,ジャパンビヨンド,0
618,3490003001935,新規,0,2024-09-26,2024-09-26,合同会社サン工務店,,合同会社,高知県,高知市,口細山２番地１２５,,39,201,7800963,,,,,,,2024-09-26,1,,,,,,0
629,4010001248336,新規,0,2024-09-26,2024-09-26,ＤＵＣ　Ｒｅａｌ　Ｅｓｔａｔｅ株式会社,,株式会社,東京都,千代田区,九段南２丁目４番９第三早川屋ビル１０階,,13,101,1020074,,,,,,,2024-09-26,1,,,,,ディーユーシーリアルエステート,0
636,4010005038865,新規,0,2024-09-26,2024-09-26,一般社団法人日本医療ダイエット協会,,その他の設立登記法人,東京都,千代田区,内神田１丁目１８番１２号内神田東誠ビル４階,,13,101,1010047,,,,,,,2024-09-26,1,,,,,ニホンイリョウダイエットキョウカイ,0
643,4010401185286,新規,0,2024-09-26,2024-09-26,ＬＳ‐Ａｖｉａｔｉｏｎ第６７号株式会社,,株式会社,東京都,港区,六本木１丁目６番１号,,13,103,1060032,,,,,,,2024-09-26,1,,,,,エルエスアビエーションダイロクジュウナナゴウ,0
644,4010401185328,新規,0,2024-09-26,2024-09-26,株式会社ＰａｒｒｏｔＷｏｒｋｓ,,株式会社,東京都,港区,浜松町２丁目２番１５号浜松町ダイヤビル２Ｆ,,13,103,1050013,,,,,,,2024-09-26,1,,,,,パロットワークス,0
646,4010501052948,新規,0,2024-09-26,2024-09-26,株式会社プレジデント,,株式会社,東京都,台東区,松が谷１丁目１２番１１号,,13,106,1110036,,,,,,,2024-09-26,1,,,,,プレジデント,0
647,4010501052956,新規,0,2024-09-26,2024-09-26,晟宇株式会社,,株式会社,東京都,台東区,根岸３丁目２５番１２号インセンス上野根岸１０１号室,,13,106,1100003,,,,,,,2024-09-26,1,,,,,セイウ,0
652,4010701046584,新規,0,2024-09-26,2024-09-26,株式会社Ｓｍｉｌｅ　Ｇａｒａｇｅ,,株式会社,東京都,品川区,戸越３丁目８番６号グランエルブ１０２,,13,109,1420041,,,,,,,2024-09-26,1,,,,,スマイルガレージ,0
653,4010703007361,新規,0,2024-09-26,2024-09-26,トッコ合同会社,,合同会社,東京都,品川区,豊町２丁目１０－２,,13,109,1420042,,,,,,,2024-09-26,1,,,,,トッコ,0
655,4010801035421,新規,0,2024-09-26,2024-09-26,株式会社ＤＲＥＡＭ　ＨＯＵＳＥ,,株式会社,東京都,大田区,羽田５丁目２０番５号,,13,111,1440043,,,,,,,2024-09-26,1,,,,,ドリームハウス,0
657,4010803005109,新規,0,2024-09-26,2024-09-26,合同会社Ｒ３３０,,合同会社,東京都,大田区,西蒲田３丁目２２番７号Ｒ３３０Ａ,,13,111,1440051,,,,,,,2024-09-26,1,,,,,アールサンサンゼロ,0
667,4011003020071,新規,0,2024-09-26,2024-09-26,合同会社ＦＤｃｏｍｐａｎｙ,,合同会社,東京都,渋谷区,渋谷２丁目１９－１５宮益坂ビルディング６０９,,13,113,1500002,,,,,,,2024-09-26,1,,,,,エフディーカンパニー,0
668,4011003020113,新規,0,2024-09-26,2024-09-26,合同会社Ｌｅｍｏｎ,,合同会社,東京都,渋谷区,神宮前６丁目２３番４号桑野ビル２階,,13,113,1500001,,,,,,,2024-09-26,1,,,,,レモン,0
678,4011101108909,新規,0,2024-09-26,2024-09-26,株式会社宏恩,,株式会社,東京都,新宿区,西新宿３丁目３－１３西新宿水間ビル６Ｆ,,13,104,1600023,,,,,,,2024-09-26,1,,,,,ヒロオキ,0
679,4011103014650,新規,0,2024-09-26,2024-09-26,合同会社ａｓｉｓ,,合同会社,東京都,新宿区,西新宿３丁目９番７－２３１４号,,13,104,1600023,,,,,,,2024-09-26,1,,,,,アズイズ,0
684,4011303005301,新規,0,2024-09-26,2024-09-26,合同会社レミエル,,合同会社,東京都,杉並区,成田西１丁目１番３２号,,13,115,1660016,,,,,,,2024-09-26,1,,,,,,0
697,4012301014095,新規,0,2024-09-26,2024-09-26,Ｒｅａｌ　Ｗｏｒｌｄ株式会社,,株式会社,東京都,町田市,南町田３丁目３０－１デュオヒルズ南町田ザ・ガーデン１２１,,13,209,1940005,,,,,,,2024-09-26,1,,,,,リアルワールド,0
698,4012401042302,新規,0,2024-09-26,2024-09-26,株式会社間ＮＡＶＩ,,株式会社,東京都,三鷹市,牟礼１丁目３番２５号,,13,204,1810002,,,,,,,2024-09-26,1,,,,,マナビ,0
700,4012801023471,新規,0,2024-09-26,2024-09-26,株式会社エイチエスワイ,,株式会社,東京都,昭島市,宮沢町４９４－１１プレイシア１２４号,,13,207,1960024,,,,,,,2024-09-26,1,,,,,エイチエスワイ,0
708,4020001159094,新規,0,2024-09-26,2024-09-26,株式会社すむまち,,株式会社,神奈川県,横浜市南区,中里４丁目３１－２０,,14,105,2320063,,,,,,,2024-09-26,1,,,,,スムマチ,0
709,4020003026887,新規,0,2024-09-26,2024-09-26,メープルドラゴンＭ．ＪＡＰＡＮ合同会社,,合同会社,神奈川県,川崎市中原区,新丸子東２丁目９０６番地,,14,133,2110004,,,,,,,2024-09-26,1,,,,,メープルドラゴンエムジャパン,0
714,4021003015046,新規,0,2024-09-26,2024-09-26,ｓｔａｒｒｙ　ｓｋｙ　ｔｒａｉｎ合同会社,,合同会社,神奈川県,横須賀市,岩戸４丁目２７番１４号,,14,201,2390844,,,,,,,2024-09-26,1,,,,,スターリースカイトレイン,0
721,4030001162568,新規,0,2024-09-26,2024-09-26,株式会社ＦＪ工業,,株式会社,埼玉県,吉川市,大字保９７３番地６,,11,243,3420041,,,,,,,2024-09-26,1,,,,,エフジェイコウギョウ,0
724,4040001135515,新規,0,2024-09-26,2024-09-26,株式会社一成ホールディングス,,株式会社,千葉県,千葉市若葉区,千城台西１丁目４番２号ミズノヤ第一ビル,,12,104,2640004,,,,,,,2024-09-26,1,,,,,イッセイホールディングス,0
725,4040001135531,新規,0,2024-09-26,2024-09-26,株式会社アジアパーキング,,株式会社,千葉県,成田市,新田８８番地３,,12,211,2870224,,,,,,,2024-09-26,1,,,,,アジアパーキング,0
736,4060001037511,新規,0,2024-09-26,2024-09-26,アライブアップ株式会社,,株式会社,栃木県,宇都宮市,兵庫塚２丁目２１番１７号,,09,201,3210138,,,,,,,2024-09-26,1,,,,,アライブアップ,0
740,4070003005589,新規,0,2024-09-26,2024-09-26,合同会社ＨＥＹ,,合同会社,群馬県,高崎市,通町１１０番地,,10,202,3700053,,,,,,,2024-09-26,1,,,,,ヘイ,0
741,4080001026512,新規,0,2024-09-26,2024-09-26,株式会社ＣｈＬ,,株式会社,静岡県,静岡市駿河区,大谷８４２番地ＶｉｌｌａＳｏｌｅｉｌ１０３号,,22,102,4228017,,,,,,,2024-09-26,1,,,,,シーエイチエル,0
744,4080401027465,新規,0,2024-09-26,2024-09-26,株式会社小田,,株式会社,静岡県,浜松市中央区,砂山町６２６番地の１プレサンスロジェ浜松７０２号室,,22,138,4300926,,,,,,,2024-09-26,1,,,,,オダ,0
749,4110001038719,新規,0,2024-09-26,2024-09-26,株式会社エフブンノイチ,,株式会社,新潟県,新潟市中央区,南笹口１丁目９‐８クレセントヨコイ１０３,,15,103,9500912,,,,,,,2024-09-26,1,,,,,エフブンノイチ,0
756,4120001268694,新規,0,2024-09-26,2024-09-26,和風智宅株式会社,,株式会社,大阪府,大阪市北区,天満２丁目１－１２天満橋ＳＥビル４Ｆ,,27,127,5300043,,,,,,,2024-09-26,1,,,,,ワフウチタク,0
757,4120001268752,新規,0,2024-09-26,2024-09-26,株式会社一旦,,株式会社,大阪府,大阪市浪速区,湊町１丁目２番１７号,,27,111,5560017,,,,,,,2024-09-26,1,,,,,イッタン,0
758,4120001268769,新規,0,2024-09-26,2024-09-26,株式会社ＩＴ　ＫＩＤＯ,,株式会社,大阪府,大阪市城東区,鴫野西４丁目２番２４号,,27,118,5360014,,,,,,,2024-09-26,1,,,,,アイティーキド,0
759,4120001268785,新規,0,2024-09-26,2024-09-26,株式会社リーベル,,株式会社,大阪府,大阪市中央区,南船場３丁目２番２２号おおきに南船場ビル２０５,,27,128,5420081,,,,,,,2024-09-26,1,,,,,リーベル,0
762,4120003027578,新規,0,2024-09-26,2024-09-26,合同会社Ｔ’ｓ,,合同会社,大阪府,大阪市浪速区,下寺１丁目１－２３リッツグランテフユキ１０１号,,27,111,5560001,,,,,,,2024-09-26,1,,,,,ティーズ,0
763,4120003027586,新規,0,2024-09-26,2024-09-26,マカルスパイスマート合同会社,,合同会社,大阪府,大阪市東住吉区,今川５丁目４番１６号,,27,121,5460003,,,,,,,2024-09-26,1,,,,,マカルスパイスマート,0
764,4120003027594,新規,0,2024-09-26,2024-09-26,合同会社川上建築設計事務所,,合同会社,大阪府,大阪市中央区,南久宝寺町４丁目４－１３－大東ビル６０５号,,27,128,5410058,,,,,,,2024-09-26,1,,,,,カワカミケンチクセッケイジムショ,0
767,4120905006646,新規,0,2024-09-26,2024-09-26,一般社団法人北摂情報流通機構,,その他の設立登記法人,大阪府,箕面市,白島２丁目１９番２３号（１１５号）,,27,220,5620012,,,,,,,2024-09-26,1,,,,,,0
769,4130001077987,新規,0,2024-09-26,2024-09-26,株式会社まるよし,,株式会社,京都府,相楽郡精華町,大字祝園小字堀殿城２４番地,,26,366,6190241,,,,,,,2024-09-26,1,,,,,マルヨシ,0
770,4130001077995,新規,0,2024-09-26,2024-09-26,株式会社エデュケーションワールド,,株式会社,京都府,京都市下京区,東塩小路６００－５２,,26,106,6000000,,,,,,,2024-09-26,1,,,,,エデュケーションワールド,0
771,4130003009872,新規,0,2024-09-26,2024-09-26,Ｎ２Ｇａｒａｇｅ合同会社,,合同会社,京都府,京田辺市,薪長尾谷５１番地２５,,26,211,6100341,,,,,,,2024-09-26,1,,,,,エヌツーガレージ,0
778,4140003021125,新規,0,2024-09-26,2024-09-26,Ｂａｈａｄｕｒ合同会社,,合同会社,兵庫県,神戸市中央区,北本町通２丁目１番１号３階,,28,110,6510075,,,,,,,2024-09-26,1,,,,,バハドル,0
779,4140005027211,新規,0,2024-09-26,2024-09-26,一般社団法人兵庫体験活動ネットワーク,,その他の設立登記法人,兵庫県,西宮市,清瀬台１８番４号,,28,204,6691131,,,,,,,2024-09-26,1,,,,,ヒョウゴタイケンカツドウネットワーク,0
782,4180001163403,新規,0,2024-09-26,2024-09-26,株式会社Ｋ・Ｒ・Ｈ,,株式会社,愛知県,名古屋市中川区,元中野町２丁目６８番地,,23,110,4540048,,,,,,,2024-09-26,1,,,,,ケイアールエイチ,0
785,4180005020773,新規,0,2024-09-26,2024-09-26,一般社団法人愛知県日越友好協会,,その他の設立登記法人,愛知県,名古屋市西区,城西４丁目１１－６,,23,104,4510031,,,,,,,2024-09-26,1,,,,,アイチケンニチエツユウコウキョウカイ,0
795,4210001019923,新規,0,2024-09-26,2024-09-26,株式会社ＪｉＴａｎ,,株式会社,福井県,坂井市,三国町覚善１２－５５－７,,18,210,9130041,,,,,,,2024-09-26,1,,,,,ジタン,0
798,4230003002297,新規,0,2024-09-26,2024-09-26,Ｄｅｓｉｇｎｏｌｏｇｉｅ合同会社,,合同会社,富山県,富山市,今市３２４‐１８,,16,201,9302221,,,,,,,2024-09-26,1,,,,,デザイノロジー,0
800,4240001063844,新規,0,2024-09-26,2024-09-26,株式会社Ｓｔｒａｔｅｇｉｃ　ｌａｂｏｒａｔｏｒｙｓ,,株式会社,広島県,広島市西区,南観音３丁目１２番１０号,,34,104,7330035,,,,,,,2024-09-26,1,,,,,ストラテジックラボラトリーズ,0
801,4240001063852,新規,0,2024-09-26,2024-09-26,株式会社ネクステア,,株式会社,広島県,広島市安佐北区,深川５丁目４４番２０号,,34,106,7391751,,,,,,,2024-09-26,1,,,,,ネクステア,0
802,4240001063860,新規,0,2024-09-26,2024-09-26,株式会社Ｌｅｇａｍｅ,,株式会社,広島県,広島市中区,袋町４番１号袋町産業ビル２階,,34,101,7300036,,,,,,,2024-09-26,1,,,,,レガーメ,0
803,4250003003566,新規,0,2024-09-26,2024-09-26,合同会社心,,合同会社,山口県,周南市,秋月３丁目１９番６号－１０１号,,35,215,7450825,,,,,,,2024-09-26,1,,,,,ココロ,0
805,4260001039479,新規,0,2024-09-26,2024-09-26,株式会社ｆｏｒ　ｂｏｎｄ,,株式会社,岡山県,倉敷市,川西町１５番２０―１号ａｔ川西町２０１,,33,202,7100821,,,,,,,2024-09-26,1,,,,,フォーバウンド,0
810,4290001107308,新規,0,2024-09-26,2024-09-26,株式会社ＯｕＯ,,株式会社,福岡県,大牟田市,宝坂町１丁目１－２０,,40,202,8360861,,,,,,,2024-09-26,1,,,,,オーユーオー,0
811,4290001107365,新規,0,2024-09-26,2024-09-26,株式会社Ｇｉｆｔ　Ｔｒａｄｅ,,株式会社,福岡県,久留米市,御井町１５９８番地－４１２号,,40,203,8390851,,,,,,,2024-09-26,1,,,,,ギフトトレード,0
822,4370001051729,新規,0,2024-09-26,2024-09-26,中国の力株式会社,,株式会社,宮城県,仙台市青葉区,中央２丁目８－１１、０３２号室,,04,101,9800021,,,,,,,2024-09-26,1,,,,,チュウゴクノチカラ,0
823,4370001051745,新規,0,2024-09-26,2024-09-26,株式会社縁ジョイ,,株式会社,宮城県,仙台市青葉区,上杉３丁目４番４５－２１０号,,04,101,9800011,,,,,,,2024-09-26,1,,,,,エンジョイ,0
824,4370001051753,新規,0,2024-09-26,2024-09-26,株式会社ごしゅらん松島,,株式会社,宮城県,宮城郡松島町,磯崎字華園９３番地,,04,401,9810212,,,,,,,2024-09-26,1,,,,,ゴシュランマツシマ,0
825,4370301002530,新規,0,2024-09-26,2024-09-26,株式会社ジェプト,,株式会社,宮城県,石巻市,山下町１丁目１番１４号,,04,202,9860873,,,,,,,2024-09-26,1,,,,,ジェプト,0
835,4430001092733,新規,0,2024-09-26,2024-09-26,Ａｓｔｉｒｉｓ株式会社,,株式会社,北海道,札幌市西区,琴似二条３丁目１番３号,,01,107,0630812,,,,,,,2024-09-26,1,,,,,アスティリス,0
836,4430001092741,新規,0,2024-09-26,2024-09-26,ＰＲＥＣＩＳＩＯＮ　ＷＯＲＫＳ株式会社,,株式会社,北海道,札幌市北区,屯田七条６丁目４番３２号,,01,102,0020857,,,,,,,2024-09-26,1,,,,,プレシジョンワークス,0
837,4430003016806,新規,0,2024-09-26,2024-09-26,合同会社ブルーフォレスト,,合同会社,北海道,小樽市,入船２丁目８番８号,,01,203,0470021,,,,,,,2024-09-26,1,,,,,ブルーフォレスト,0
838,4430003016814,新規,0,2024-09-26,2024-09-26,合同会社ＦＧ,,合同会社,北海道,札幌市中央区,南六条西３丁目６番地１１第一すすきのビル３階,,01,101,0640806,,,,,,,2024-09-26,1,,,,,エフジー,0
839,4430003016822,新規,0,2024-09-26,2024-09-26,合同会社ｉＲｏｈａ,,合同会社,北海道,札幌市白石区,菊水七条４丁目４番４２－３０１号,,01,104,0030807,,,,,,,2024-09-26,1,,,,,イロハ,0
841,4460003001012,新規,0,2024-09-26,2024-09-26,合同会社ＲＥＳＵＬＴｇｒｏｕｐ,,合同会社,北海道,釧路市,春採１丁目１４番８号１０１,,01,206,0850813,,,,,,,2024-09-26,1,,,,,リザルトグループ,0
857,5010001248467,新規,0,2024-09-26,2024-09-26,サンフロンティアアセットマネジメント株式会社,,株式会社,東京都,千代田区,有楽町１丁目２番２号,,13,101,1000006,,,,,,,2024-09-26,1,,,,,サンフロンティアアセットマネジメント,0
860,5010003044971,新規,0,2024-09-26,2024-09-26,合同会社ＢｅｎｎｙＬｅｏ,,合同会社,東京都,中央区,銀座１丁目１６－７銀座大栄ビル５Ｆ・６Ｆ,,13,102,1040061,,,,,,,2024-09-26,1,,,,,ベニーレオ,0
861,5010101016328,新規,0,2024-09-26,2024-09-26,ＢＬＵＥ株式会社,,株式会社,東京都,八王子市,鑓水２丁目８１番地２、１－３１２,,13,201,1920375,,,,,,,2024-09-26,1,,,,,ブルー,0
862,5010101016336,新規,0,2024-09-26,2024-09-26,株式会社Ｐｅｎｐｅｎ　Ｐａｉｎｔ,,株式会社,東京都,八王子市,谷野町２０７番地１５,,13,201,1920016,,,,,,,2024-09-26,1,,,,,ペンペンペイント,0
863,5010103002417,新規,0,2024-09-26,2024-09-26,合同会社ＪＩＮ経営サポート,,合同会社,東京都,八王子市,打越町３４４番地４北野シティプラザ１０２,,13,201,1920911,,,,,,,2024-09-26,1,,,,,ジンケイエイサポート,0
870,5010401185285,新規,0,2024-09-26,2024-09-26,ＬＳ‐Ａｖｉａｔｉｏｎ第６６号株式会社,,株式会社,東京都,港区,六本木１丁目６番１号,,13,103,1060032,,,,,,,2024-09-26,1,,,,,エルエスアビエーションダイロクジュウロクゴウ,0
871,5010401185310,新規,0,2024-09-26,2024-09-26,八内株式会社,,株式会社,東京都,港区,白金台３丁目１３番２３号Ｃ３,,13,103,1080071,,,,,,,2024-09-26,1,,,,,,0
872,5010401185335,新規,0,2024-09-26,2024-09-26,ＡＫＡ　Ｖｉｒｔｕａｌ株式会社,,株式会社,東京都,港区,南青山２丁目２番１５号ウィン青山１２１４号,,13,103,1070062,,,,,,,2024-09-26,1,,,,,エイケイエイバーチャル,0
873,5010401185343,新規,0,2024-09-26,2024-09-26,株式会社ＲＳホーム,,株式会社,東京都,港区,芝大門１丁目１６番６号新雅ビル７階,,13,103,1050012,,,,,,,2024-09-26,1,,,,,アールエスホーム,0
874,5010401185418,新規,0,2024-09-26,2024-09-26,Ｋｏｒｅａｎ　Ａｉｒ　Ｉｎｖｅｓｔｍｅｎｔ　Ｊａｐａｎ株式会社,,株式会社,東京都,港区,芝３丁目４番１５号,,13,103,1050014,,,,,,,2024-09-26,1,,,,,コリアンエアーインベストメントジャパン,0
876,5010403033475,新規,0,2024-09-26,2024-09-26,Ｆｕｋｕｓａｎ合同会社,,合同会社,東京都,港区,芝浦３丁目１７－１１－７０８,,13,103,1080023,,,,,,,2024-09-26,1,,,,,フクサン,0
884,5010601065972,新規,0,2024-09-26,2024-09-26,株式会社ＯＮ　ＢＡＳＥ,,株式会社,東京都,墨田区,両国４丁目１０番５号,,13,107,1300026,,,,,,,2024-09-26,1,,,,,オンベース,0
887,5010701046583,新規,0,2024-09-26,2024-09-26,杜フードサービス株式会社,,株式会社,東京都,品川区,東品川４丁目５番２２－７１０号,,13,109,1400002,,,,,,,2024-09-26,1,,,,,モリフードサービス,0
892,5010801035420,新規,0,2024-09-26,2024-09-26,株式会社雪代興業,,株式会社,東京都,大田区,南六郷２丁目２－４－１Ｆ,,13,111,1440045,,,,,,,2024-09-26,1,,,,,ユキシロコウギョウ,0
893,5010805003134,新規,0,2024-09-26,2024-09-26,一般社団法人ＬＭＣ,,その他の設立登記法人,東京都,大田区,北馬込２丁目２２番３号,,13,111,1430021,,,,,,,2024-09-26,1,,,,,エルエムシー,0
895,5010901056036,新規,0,2024-09-26,2024-09-26,株式会社ライジング,,株式会社,東京都,世田谷区,船橋７丁目１番１－５０２号,,13,112,1560055,,,,,,,2024-09-26,1,,,,,ライジング,0
899,5011003020104,新規,0,2024-09-26,2024-09-26,ＳＨＩＧＥＨＡＲＡ合同会社,,合同会社,東京都,渋谷区,道玄坂１丁目１０番８号渋谷道玄坂東急ビル２Ｆ‐Ｃ,,13,113,1500043,,,,,,,2024-09-26,1,,,,,シゲハラ,0
906,5011201025813,新規,0,2024-09-26,2024-09-26,株式会社ＴＹ,,株式会社,東京都,中野区,沼袋３丁目１９番７号,,13,114,1650025,,,,,,,2024-09-26,1,,,,,ティーワイ,0
908,5011403004508,新規,0,2024-09-26,2024-09-26,合同会社マルチスポット,,合同会社,東京都,板橋区,成増２丁目３２番７－３０３号,,13,119,1750094,,,,,,,2024-09-26,1,,,,,マルチスポット,0
913,5012301014094,新規,0,2024-09-26,2024-09-26,株式会社ＲＹＳ,,株式会社,東京都,町田市,金井５丁目２０番５号,,13,209,1950072,,,,,,,2024-09-26,1,,,,,,0
914,5012401042318,新規,0,2024-09-26,2024-09-26,株式会社ＯＭＡＫＥ,,株式会社,東京都,三鷹市,牟礼２丁目１８番４５－４０７号久我山ガーデンヒルズ一番館,,13,204,1810002,,,,,,,2024-09-26,1,,,,,オマケ,0
925,5020001159317,新規,0,2024-09-26,2024-09-26,株式会社アスワン,,株式会社,神奈川県,横浜市都筑区,池辺町３３２４番地,,14,118,2240053,,,,,,,2024-09-26,1,,,,,アスワン,0
928,5020003026655,新規,0,2024-09-26,2024-09-26,合同会社プティボヌール,,合同会社,神奈川県,横浜市青葉区,荏田北１丁目１７番地１４,,14,117,2250015,,,,,,,2024-09-26,1,,,,,プティボヌール,0
929,5020003026985,新規,0,2024-09-26,2024-09-26,９ｒａｐｈｉｃ合同会社,,合同会社,神奈川県,横浜市神奈川区,金港町５‐１４クアドリフォリオ８階,,14,102,2210056,,,,,,,2024-09-26,1,,,,,クラフィック,0
941,5030001162492,新規,0,2024-09-26,2024-09-26,北埼ツバメ石油株式会社,,株式会社,埼玉県,行田市,大字下須戸２４３９番地１,,11,206,3610012,,,,,,,2024-09-26,1,,,,,ホクサイツバメセキユ,0
942,5030001162550,新規,0,2024-09-26,2024-09-26,株式会社サーベイランスエンジニアリング,,株式会社,埼玉県,草加市,谷塚町５４４番地１・２階,00136395,11,221,3400023,,,,,,,2024-09-26,1,,,,,サーベイランスエンジニアリング,0
943,5030001162567,新規,0,2024-09-26,2024-09-26,株式会社Ｍｉｎｏａｋａ,,株式会社,埼玉県,さいたま市大宮区,桜木町２丁目３番地,,11,103,3300854,,,,,,,2024-09-26,1,,,,,ミノアカ,0
944,5030001162591,新規,0,2024-09-26,2024-09-26,株式会社ゴールドプラマー,,株式会社,埼玉県,坂戸市,鶴舞４丁目２２番１１号,,11,239,3500241,,,,,,,2024-09-26,1,,,,,ゴールドプラマー,0
947,5030003025177,新規,0,2024-09-26,2024-09-26,ＲＴ　ＫＡＴＡＯＫＡ合同会社,,合同会社,埼玉県,川口市,西川口３丁目３３番７号,,11,203,3320021,,,,,,,2024-09-26,1,,,,,アールティーカタオカ,0
950,5040001135480,新規,0,2024-09-26,2024-09-26,株式会社フルスイング,,株式会社,千葉県,柏市,酒井根５丁目２３番９－７号,,12,217,2770053,,,,,,,2024-09-26,1,,,,,フルスイング,0
955,5040003025853,新規,0,2024-09-26,2024-09-26,合同会社グランビル,,合同会社,千葉県,長生郡長生村,七井土１５６９番地５,,12,423,2994333,,,,,,,2024-09-26,1,,,,,グランビル,0
961,5050001055463,新規,0,2024-09-26,2024-09-26,松浦ホールディングス株式会社,,株式会社,茨城県,稲敷郡阿見町,大字阿見６０８番地の３,,08,443,3000331,,,,,,,2024-09-26,1,,,,,マツウラホールディングス,0
963,5050003008691,新規,0,2024-09-26,2024-09-26,令和ステンレス合同会社,,合同会社,茨城県,龍ケ崎市,貝原塚町３４８０番地２,,08,208,3010856,,,,,,,2024-09-26,1,,,,,レイワステンレス,0
966,5060001037510,新規,0,2024-09-26,2024-09-26,４Ｓ　ｗｏｏｄ　ｅｎｇｉｎｅｅｒｉｎｇ株式会社,,株式会社,栃木県,下都賀郡野木町,大字友沼４６４６－１５－Ａ１０２,,09,364,3290101,,,,,,,2024-09-26,1,,,,,フォーエスウッドエンジニアリング,0
967,5060001037519,新規,0,2024-09-26,2024-09-26,株式会社アドガーデン,,株式会社,栃木県,宇都宮市,双葉１丁目９番３３号,,09,201,3210164,,,,,,,2024-09-26,1,,,,,アドガーデン,0
981,5120001268719,新規,0,2024-09-26,2024-09-26,株式会社ＮｅｘａＴｅｃｈ,,株式会社,大阪府,大阪市北区,豊崎３丁目１９－３ピアスタワー６０３号,,27,127,5310072,,,,,,,2024-09-26,1,,,,,ネクサテック,0
982,5120001268743,新規,0,2024-09-26,2024-09-26,日新株式会社,,株式会社,大阪府,大阪市城東区,蒲生４丁目２０番１６号グランデール蒲生６０５号室,,27,118,5360016,,,,,,,2024-09-26,1,,,,,ニッシン,0
983,5120001268768,新規,0,2024-09-26,2024-09-26,株式会社ＭＯＲＩＫＩＮ,,株式会社,大阪府,大阪市西成区,鶴見橋３丁目１０番３２号２階,,27,122,5570031,,,,,,,2024-09-26,1,,,,,モリキン,0
994,5120901049796,新規,0,2024-09-26,2024-09-26,株式会社ビースト林,,株式会社,大阪府,箕面市,石丸３丁目２６番Ｗ－６１０号,,27,220,5620027,,,,,,,2024-09-26,1,,,,,ビーストハヤシ,0
1001,5130001077994,新規,0,2024-09-26,2024-09-26,華夏安邦株式会社,,株式会社,京都府,京都市南区,西九条川原城町５９番地２６,,26,107,6018424,,,,,,,2024-09-26,1,,,,,カカアンボウ,0
1002,5130001078002,新規,0,2024-09-26,2024-09-26,株式会社ｓｍｉｔｈ　ｂｅａｕｔｙ,,株式会社,京都府,京都市下京区,下松屋町通五条上る下長福寺町２６０番地,,26,106,6008375,,,,,,,2024-09-26,1,,,,,スミスビューティー,0
1003,5130001078010,新規,0,2024-09-26,2024-09-26,株式会社ソーシャルウィーヴ,,株式会社,京都府,宇治市,広野町尖山二丁目６４番,,26,204,6110031,,,,,,,2024-09-26,1,,,,,ソーシャルウィーヴ,0
1004,5130003009871,新規,0,2024-09-26,2024-09-26,合同会社Ｏｒｉｅｎｓ　Ｍ,,合同会社,京都府,京都市山科区,栗栖野打越町３３番地,,26,110,6078203,,,,,,,2024-09-26,1,,,,,オリエンスエム,0
1010,5140001135891,新規,0,2024-09-26,2024-09-26,株式会社Ｕ,,株式会社,兵庫県,神戸市兵庫区,笠松通５丁目４番９号,,28,105,6520864,,,,,,,2024-09-26,1,,,,,ウー,0
1011,5140001135917,新規,0,2024-09-26,2024-09-26,Ｈａｐｐｙ　Ｌｉｖｉｎｇ株式会社,,株式会社,兵庫県,神戸市長田区,水笠通３丁目５番９号,,28,106,6530842,,,,,,,2024-09-26,1,,,,,ハッピーリビング,0
1013,5150003003377,新規,0,2024-09-26,2024-09-26,合同会社ＭＯＩ　ＭＥ,,合同会社,奈良県,磯城郡田原本町,１３２番地の７,,29,363,6360300,,,,,,,2024-09-26,1,,,,,モイミー,0
1015,5160001026239,新規,0,2024-09-26,2024-09-26,株式会社ＶＩＡＢＥＮＴＥＮ・ＳＨＩＧＡ,,株式会社,滋賀県,守山市,播磨田町９８５番地,,25,207,5240012,,,,,,,2024-09-26,1,,,,,ヴィアベンテンシガ,0
1024,5180005020780,新規,0,2024-09-26,2024-09-26,医療法人愛清会,,その他の設立登記法人,愛知県,犬山市,楽田小針１４番地１,,23,215,4840841,,,,,,,2024-09-26,1,,,,,アイセイカイ,0
1025,5180301039079,新規,0,2024-09-26,2024-09-26,株式会社おかざき総合事務所,,株式会社,愛知県,岡崎市,梅園町字２丁目４番地１７,,23,202,4440031,,,,,,,2024-09-26,1,,,,,オカザキソウゴウジムショ,0
1027,5190001031665,新規,0,2024-09-26,2024-09-26,ＩＳＫ株式会社,,株式会社,三重県,四日市市,東新町６番２６号,,24,202,5100025,,,,,,,2024-09-26,1,,,,,アイエスケー,0
1029,5190003004801,新規,0,2024-09-26,2024-09-26,ＯＳＤ　ＪＡＰＡＮ合同会社,,合同会社,三重県,松阪市,田村町９６７,,24,204,5150055,,,,,,,2024-09-26,1,,,,,オエスディジャパン,0
1033,5240001063851,新規,0,2024-09-26,2024-09-26,株式会社ビーイング,,株式会社,広島県,広島市中区,弥生町３番１０－２０１号,,34,101,7300023,,,,,,,2024-09-26,1,,,,,ビーイング,0
1035,5240003006866,新規,0,2024-09-26,2024-09-26,Ｖｏｒｔａｌａｂｓ合同会社,,合同会社,広島県,広島市安佐南区,相田３丁目２５番２３号,,34,105,7310141,,,,,,,2024-09-26,1,,,,,ヴォルタラボ,0
1043,5270001009059,新規,0,2024-09-26,2024-09-26,株式会社テクノワークス,,株式会社,鳥取県,米子市,大篠津町７６１番地３,,31,202,6830101,,,,,,,2024-09-26,1,,,,,テクノワークス,0
1044,5280001009264,新規,0,2024-09-26,2024-09-26,播磨屋ホールディングス株式会社,,株式会社,島根県,江津市,松川町下河戸１８０番地２,,32,207,6950003,,,,,,,2024-09-26,1,,,,,ハリマヤホールディングス,0
1050,5290001107315,新規,0,2024-09-26,2024-09-26,ＣＯＮＮＥＣＴ　ＡＳＩＡ　ＩＮＴＥＲＦＯＯＤ　ＪＡＰＡＮ株式会社,,株式会社,福岡県,筑紫野市,美しが丘南４丁目１６番地１５,,40,217,8180034,,,,,,,2024-09-26,1,,,,,コネクトアジアインターフードジャパン,0
1051,5290003015821,新規,0,2024-09-26,2024-09-26,音合同会社,,合同会社,福岡県,福岡市東区,松島２丁目１－１０－２０５ル・シエル箱崎,,40,131,8120062,,,,,,,2024-09-26,1,,,,,ソリ,0
1055,5320001020729,新規,0,2024-09-26,2024-09-26,株式会社ＫＲＯＮＥ,,株式会社,大分県,大分市,王子西町９番１１号,,44,201,8700008,,,,,,,2024-09-26,1,,,,,クローネ,0
1061,5370001051744,新規,0,2024-09-26,2024-09-26,株式会社和建,,株式会社,宮城県,仙台市泉区,館１丁目１７番地の８,,04,105,9813214,,,,,,,2024-09-26,1,,,,,カズケン,0
1062,5370001051752,新規,0,2024-09-26,2024-09-26,株式会社ケイフィールド,,株式会社,宮城県,亘理郡亘理町,荒浜字鳥の海１０番地８,,04,361,9892311,,,,,,,2024-09-26,1,,,,,ケイフィールド,0
1065,5390003002289,新規,0,2024-09-26,2024-09-26,合同会社はな幸,,合同会社,山形県,鶴岡市,末広町１８番１２号,,06,203,9970015,,,,,,,2024-09-26,1,,,,,ハナコウ,0
1066,5400003003327,新規,0,2024-09-26,2024-09-26,合同会社デンサン商事,,合同会社,岩手県,滝沢市,巣子１９８番地１９ＰＬＵＭＴＲＥＥ弐番館３０２号,,03,216,0200611,,,,,,,2024-09-26,1,,,,,,0
1073,5430001092732,新規,0,2024-09-26,2024-09-26,株式会社ウィングザ・スカイ,,株式会社,北海道,札幌市豊平区,豊平三条６丁目１番２７－１００１号,,01,105,0620903,,,,,,,2024-09-26,1,,,,,ウィングザスカイ,0
1076,5430003016813,新規,0,2024-09-26,2024-09-26,合同会社ＥＮ,,合同会社,北海道,札幌市西区,山の手一条１３丁目２番１６号,,01,107,0630001,,,,,,,2024-09-26,1,,,,,エン,0
1081,5470001020391,新規,0,2024-09-26,2024-09-26,株式会社燕,,株式会社,香川県,高松市,中間町４１１－９,,37,201,7618043,,,,,,,2024-09-26,1,,,,,ツバメ,0
1083,5480001012603,新規,0,2024-09-26,2024-09-26,株式会社アルデナ,,株式会社,徳島県,板野郡上板町,鍛冶屋原字居屋敷南２５番地の１５,,36,405,7711301,,,,,,,2024-09-26,1,,,,,アルデナ,0
1086,5700150127303,新規,0,2024-09-26,2024-09-26,ｆｏｓｈａｎｓｈｉｗｕｄｉｄｉａｎｚｉｓｈａｎｇｗｕｙｏｕｘｉａｎｇｏｎｇｓｉ,,外国会社等,,,,,,,,Ｒｏｏｍ　２０３４，２ｎｄ　Ｆｌｏｏｒ，Ｂｕｉｌｄｉｎｇ　３，Ｎｏ．１１　Ｚｈａｎｇｃｈａ　Ｔｈｉｒｄ　Ｒｏａｄ，Ｚｈａｎｇｃｈａ　Ｓｕｂ－ｄｉｓｔｒｉｃｔ，Ｃｈａｎｃｈｅｎｇ　Ｄｉｓｔｒｉｃｔ，Ｆｏｓｈａｎ　Ｃｉｔｙ，Ｇｕａｎｇｄｏｎｇ　Ｐｒｏｖｉｎｃｅ．,,,,,,2024-09-26,1,,,,,ブツザンシゴテキデンシショウムユウゲンコウシ,0
1093,6010001248441,新規,0,2024-09-26,2024-09-26,株式会社Ｒｕｎｗｉｚ,,株式会社,東京都,千代田区,神田鍛冶町３丁目７番２１号,,13,101,1010045,,,,,,,2024-09-26,1,,,,,ランウィズ,0
1094,6010001248474,新規,0,2024-09-26,2024-09-26,株式会社メディアガーズ,,株式会社,東京都,中央区,銀座１丁目１２－４Ｎ＆ＥＢＬＤ７階,,13,102,1040061,,,,,,,2024-09-26,1,,,,,メディアガーズ,0
1097,6010003044995,新規,0,2024-09-26,2024-09-26,ンニマニティ合同会社,,合同会社,東京都,中央区,新川１丁目６番１２号ＡＩビル茅場町４０３,,13,102,1040033,,,,,,,2024-09-26,1,,,,,ンニマニティ,0
1098,6010003045011,新規,0,2024-09-26,2024-09-26,合同会社ＮＯＭＵＲＡＹＡ　ＥＦ　ＦＩＴ３号,,合同会社,東京都,千代田区,丸の内２丁目２番１号岸本ビルヂング１０階株式会社レイズ内,,13,101,1000005,,,,,,,2024-09-26,1,,,,,ノムラヤイーエフフィットサンゴウ,0
1099,6010005038863,新規,0,2024-09-26,2024-09-26,一般社団法人Ｎ２Ｃｅｌｌ　Ａｃｔ,,その他の設立登記法人,東京都,中央区,銀座６丁目６番５号ＨＵＬＩＣ＆ＮｅｗＧＩＮＺＡＮＡＭＩＫＩ６、１１階,,13,102,1040061,,,,,,,2024-09-26,1,,,,,エヌツーセルアクト,0
1101,6010101016335,新規,0,2024-09-26,2024-09-26,株式会社丸吉建設,,株式会社,東京都,八王子市,中野町２１５８番地１４,,13,201,1920015,,,,,,,2024-09-26,1,,,,,マルヨシケンセツ,0
1109,6010401185284,新規,0,2024-09-26,2024-09-26,ＬＳ‐Ａｖｉａｔｉｏｎ第６５号株式会社,,株式会社,東京都,港区,六本木１丁目６番１号,,13,103,1060032,,,,,,,2024-09-26,1,,,,,エルエスアビエーションダイロクジュウゴゴウ,0
1110,6010401185292,新規,0,2024-09-26,2024-09-26,株式会社ＭＫＴ,,株式会社,東京都,港区,南青山３丁目１番３６号青山丸竹ビル６Ｆ,,13,103,1070062,,,,,,,2024-09-26,1,,,,,エムケイティ,0
1111,6010401185318,新規,0,2024-09-26,2024-09-26,株式会社エルケイベンチャーズジャパン,,株式会社,東京都,港区,南青山２丁目２番１５号ウィン青山９４２,,13,103,1070062,,,,,,,2024-09-26,1,,,,,エルケイベンチャーズジャパン,0
1112,6010401185342,新規,0,2024-09-26,2024-09-26,Ａｍｍｉａ　Ｊａｐａｎ株式会社,,株式会社,東京都,港区,北青山２丁目９番１４号,,13,103,1070061,,,,,,,2024-09-26,1,,,,,アミーアジャパン,0
1114,6010403033482,新規,0,2024-09-26,2024-09-26,合同会社リンクアンドシンク,,合同会社,東京都,港区,南青山２丁目２番１５号,,13,103,1070062,,,,,,,2024-09-26,1,,,,,リンクアンドシンク,0
1124,6010601065971,新規,0,2024-09-26,2024-09-26,株式会社ＤＥＥＰＥＲ,,株式会社,東京都,江東区,三好２丁目８番５号,,13,108,1350022,,,,,,,2024-09-26,1,,,,,ディーパー,0
1128,6010603011115,新規,0,2024-09-26,2024-09-26,合同会社ＡｎｙＤｒｅａｍ,,合同会社,東京都,江東区,塩浜２丁目１６－４－３０５,,13,108,1350043,,,,,,,2024-09-26,1,,,,,エニードリーム,0
1130,6010701046574,新規,0,2024-09-26,2024-09-26,株式会社ＣＨ　Ｉｎｖｅｓｔ,,株式会社,東京都,品川区,大崎２丁目９番１号,,13,109,1410032,,,,,,,2024-09-26,1,,,,,シーエッチインベスト,0
1131,6010701046590,新規,0,2024-09-26,2024-09-26,株式会社パーツマルケ,,株式会社,東京都,品川区,西五反田８丁目２番１２号７Ａ,,13,109,1410031,,,,,,,2024-09-26,1,,,,,パーツマルケ,0
1139,6011001163275,新規,0,2024-09-26,2024-09-26,株式会社新冒険社,,株式会社,東京都,渋谷区,代々木１丁目２４番１０号,,13,113,1510053,,,,,,,2024-09-26,1,,,,,シンボウケンシャ,0
1140,6011001164728,新規,0,2024-09-26,2024-09-26,ＦａｎＣａｌｌ株式会社,,株式会社,東京都,渋谷区,渋谷２丁目１９－１５宮益坂ビルディング６０９,,13,113,1500002,,,,,,,2024-09-26,1,,,,,ファンコール,0
1141,6011001164793,新規,0,2024-09-26,2024-09-26,株式会社律櫻会,,株式会社,東京都,渋谷区,東３丁目１２－４,,13,113,1500011,,,,,,,2024-09-26,1,,,,,リツオウカイ,0
1142,6011001164819,新規,0,2024-09-26,2024-09-26,ＸＬｉｎｋ　Ｊａｐａｎ株式会社,,株式会社,東京都,渋谷区,円山町５番５号Ｎａｖｉ渋谷Ｖ３階,,13,113,1500044,,,,,,,2024-09-26,1,,,,,クロスリンクジャパン,0
1143,6011001164851,新規,0,2024-09-26,2024-09-26,株式会社ｙｅｔｅｒａ,,株式会社,東京都,渋谷区,千駄ヶ谷３丁目１６－３,,13,113,1510051,,,,,,,2024-09-26,1,,,,,エテラ,0
1144,6011001164876,新規,0,2024-09-26,2024-09-26,株式会社Ｎｅｆｅｌｉｂａｔａ,,株式会社,東京都,渋谷区,道玄坂１丁目１０番８号,,13,113,1500043,,,,,,,2024-09-26,1,,,,,ネフェリバタ,0
1152,6011303005299,新規,0,2024-09-26,2024-09-26,合同会社摘星舎,,合同会社,東京都,杉並区,桃井２丁目１９－８－９０４,,13,115,1670034,,,,,,,2024-09-26,1,,,,,,0
1155,6011701027639,新規,0,2024-09-26,2024-09-26,ＡＪＳｏｌｕｔｉｏｎ株式会社,,株式会社,東京都,江戸川区,臨海町２丁目２番４－８０２号,,13,123,1340086,,,,,,,2024-09-26,1,,,,,アージェージソリューション,0
1156,6012301014093,新規,0,2024-09-26,2024-09-26,株式会社ＧＳＴ,,株式会社,東京都,町田市,森野６丁目９１番地２,,13,209,1940022,,,,,,,2024-09-26,1,,,,,ジーエスティー,0
1164,6020001159258,新規,0,2024-09-26,2024-09-26,株式会社アブラヤコーポレーション,,株式会社,神奈川県,横浜市旭区,今宿東町１６１９番地,,14,112,2410032,,,,,,,2024-09-26,1,,,,,アブラヤコーポレーション,0
1166,6021001083324,新規,0,2024-09-26,2024-09-26,株式会社ＦＩＮＣＬＵ,,株式会社,神奈川県,横須賀市,大滝町１丁目２１番地ジュネス横須賀６０７号室,,14,201,2380008,,,,,,,2024-09-26,1,,,,,フィンクル,0
1170,6021003015011,新規,0,2024-09-26,2024-09-26,合同会社ｔｙ,,合同会社,神奈川県,茅ヶ崎市,浜之郷４５５番地３湘南ブルーバーグＡ１０６,,14,207,2530086,,,,,,,2024-09-26,1,,,,,ティーワイ,0
1171,6021005013186,新規,0,2024-09-26,2024-09-26,事業協同組合ビルズ,,その他の設立登記法人,神奈川県,相模原市中央区,中央３丁目１４番７－６０１号,,14,152,2520239,,,,,,,2024-09-26,1,,,,,,0
1176,6030001162608,新規,0,2024-09-26,2024-09-26,株式会社國士,,株式会社,埼玉県,川越市,的場新町１４番地２,,11,201,3501107,,,,,,,2024-09-26,1,,,,,コクシ,0
1177,6030001162624,新規,0,2024-09-26,2024-09-26,株式会社未来美装,,株式会社,埼玉県,春日部市,東中野１６３５番地３９,,11,214,3440114,,,,,,,2024-09-26,1,,,,,ミライビソウ,0
1180,6030003025143,新規,0,2024-09-26,2024-09-26,ＮＥＷ　ＰＯＩＮＴ合同会社,,合同会社,埼玉県,本庄市,銀座２丁目１番１号,,11,211,3670052,,,,,,,2024-09-26,1,,,,,ニューポイント,0
1181,6030003025168,新規,0,2024-09-26,2024-09-26,星空合同会社,,合同会社,埼玉県,越谷市,東越谷１丁目１番１－２０１号,,11,222,3430023,,,,,,,2024-09-26,1,,,,,ホシゾラ,0
1182,6030003025176,新規,0,2024-09-26,2024-09-26,合同会社フレッシュメロン,,合同会社,埼玉県,さいたま市浦和区,木崎２丁目２５番２７号ピノメゾン１０２,,11,107,3300042,,,,,,,2024-09-26,1,,,,,フレッシュメロン,0
1198,6070001042203,新規,0,2024-09-26,2024-09-26,株式会社ＴＨＥ　ＨＡＲＲＩＳ,,株式会社,群馬県,前橋市,城東町１丁目１番地１シティテラス前橋広瀬川１１０８号,,10,201,3710016,,,,,,,2024-09-26,1,,,,,ザハリス,0
1203,6080401027463,新規,0,2024-09-26,2024-09-26,株式会社ａｎｄＭＡＴＣＨＡ,,株式会社,静岡県,菊川市,堀之内１４４６番地１階,,22,224,4390006,,,,,,,2024-09-26,1,,,,,アンドマッチャ,0
1207,6100003007786,新規,0,2024-09-26,2024-09-26,合同会社レッドグレープ,,合同会社,長野県,飯田市,座光寺１７８１番地,,20,205,3950001,,,,,,,2024-09-26,1,,,,,レッドグレープ,0
1211,6110003005525,新規,0,2024-09-26,2024-09-26,ＴＭＣ　ＡＩ合同会社,,合同会社,新潟県,新潟市中央区,南笹口１丁目１番３８号コープオリンピア８０８,,15,103,9500912,,,,,,,2024-09-26,1,,,,,ティーエムシーエーアイ,0
1218,6120001268668,新規,0,2024-09-26,2024-09-26,仁平株式会社,,株式会社,大阪府,大阪市東淀川区,東中島４丁目１－１１シャンボール第３新大阪８０７号室,,27,114,5330033,,,,,,,2024-09-26,1,,,,,ジンヘイ,0
1219,6120001268701,新規,0,2024-09-26,2024-09-26,株式会社ＴＯＮＯＴＯＫＥＲＡＩ,,株式会社,大阪府,大阪市北区,芝田２丁目８－１１共栄ビル３階,,27,127,5300012,,,,,,,2024-09-26,1,,,,,トノトケライ,0
1220,6120001268750,新規,0,2024-09-26,2024-09-26,ＮＨＢ　ＪＡＰＡＮ株式会社,,株式会社,大阪府,大阪市中央区,北久宝寺町２丁目１番３号,,27,128,5410057,,,,,,,2024-09-26,1,,,,,エヌエイチビージャパン,0
1221,6120001268783,新規,0,2024-09-26,2024-09-26,株式会社バイコネクト,,株式会社,大阪府,大阪市福島区,福島６丁目８番１３－１２０２号,,27,103,5530003,,,,,,,2024-09-26,1,,,,,バイコネクト,0
1222,6120001268800,新規,0,2024-09-26,2024-09-26,立羽株式会社,,株式会社,大阪府,大阪市西成区,千本北１丁目１０番２４号エリートパレス天下茶屋Ｉ３Ｆ,00136396,27,122,5570053,,,,,,,2024-09-26,1,,,,,タテバ,0
1223,6120003027601,新規,0,2024-09-26,2024-09-26,合同会社オプラーナ,,合同会社,大阪府,寝屋川市,打上元町２１番－１６－１０５号,,27,215,5720858,,,,,,,2024-09-26,1,,,,,オプラーナ,0
1232,6120901049787,新規,0,2024-09-26,2024-09-26,株式会社風あざみ,,株式会社,大阪府,高槻市,春日町２８番１２号,,27,207,5690053,,,,,,,2024-09-26,1,,,,,カゼアザミ,0
1234,6122001038415,新規,0,2024-09-26,2024-09-26,株式会社Ｇｅｏｍｅｔｒｉｃ　Ｃｕｂｅ,,株式会社,大阪府,東大阪市,足代１丁目１２番２３号グランドゥール布施４０２号,,27,227,5770841,,,,,,,2024-09-26,1,,,,,ジオメトリックキューブ,0
1240,6130003009862,新規,0,2024-09-26,2024-09-26,Ｆｒｏｍ　Ｗｏｒｄ　Ｏｎｅ合同会社,,合同会社,京都府,京都市右京区,西京極堤下町２０－７０,,26,108,6150835,,,,,,,2024-09-26,1,,,,,フロムワードワン,0
1241,6130005017186,新規,0,2024-09-26,2024-09-26,一般社団法人ＣＨＯ‐ＷＡ,,その他の設立登記法人,京都府,京都市下京区,塩屋町１７５－１－１１１号,,26,106,6008144,,,,,,,2024-09-26,1,,,,,チョウワ,0
1244,6140001135858,新規,0,2024-09-26,2024-09-26,株式会社ルーツファクトリー,,株式会社,兵庫県,加古川市,加古川町本町２１番地の５アルファステイツ加古川本町１２０１号,,28,210,6750037,,,,,,,2024-09-26,1,,,,,ルーツファクトリー,0
1245,6140001135916,新規,0,2024-09-26,2024-09-26,株式会社ヴィータル,,株式会社,兵庫県,西宮市,菊谷町１２番１６号グランヒル夙川菊谷町１０７号,,28,204,6620078,,,,,,,2024-09-26,1,,,,,ヴィータル,0
1250,6140003021107,新規,0,2024-09-26,2024-09-26,合同会社ＩＦ＆Ｋ,,合同会社,兵庫県,姫路市,東雲町６丁目１番地２ファイブマンション７Ｆ,,28,201,6700046,,,,,,,2024-09-26,1,,,,,アイエフアンドケー,0
1251,6140003021123,新規,0,2024-09-26,2024-09-26,合同会社ユニコーン商会,,合同会社,兵庫県,姫路市,網干区興浜４１０－６７,,28,201,6711241,,,,,,,2024-09-26,1,,,,,ユニコーンショウカイ,0
1262,6180301039078,新規,0,2024-09-26,2024-09-26,株式会社ふくふくろう,,株式会社,愛知県,額田郡幸田町,大字菱池字前田１１８番地１,,23,501,4440113,,,,,,,2024-09-26,1,,,,,フクフクロウ,0
1263,6180303006282,新規,0,2024-09-26,2024-09-26,レフト合同会社,,合同会社,愛知県,豊橋市,中郷町１７２番地２－３Ｂ,,23,201,4418031,,,,,,,2024-09-26,1,,,,,レフト,0
1265,6190001031664,新規,0,2024-09-26,2024-09-26,株式会社日本ビルダーズ,,株式会社,三重県,四日市市,安島２丁目８番１０号ＳＨＧヤスジマビル１Ｂ,,24,202,5100075,,,,,,,2024-09-26,1,,,,,ニホンビルダーズ,0
1270,6200001042973,新規,0,2024-09-26,2024-09-26,株式会社ＷＥＬＬ‐ＢＥＩＮＧ,,株式会社,岐阜県,山県市,葛原２８４１番地,,21,215,5012331,,,,,,,2024-09-26,1,,,,,ウェルビィーイング,0
1274,6220005008886,新規,0,2024-09-26,2024-09-26,一般社団法人建築都市文化協会,,その他の設立登記法人,石川県,金沢市,泉野町５丁目１６番２６号,,17,201,9218034,,,,,,,2024-09-26,1,,,,,,0
1277,6230003002304,新規,0,2024-09-26,2024-09-26,チューリップ合同会社,,合同会社,富山県,富山市,問屋町１丁目１１‐４１‐５０１ウェルシィ上冨居,,16,201,9300834,,,,,,,2024-09-26,1,,,,,チューリップ,0
1278,6240001063859,新規,0,2024-09-26,2024-09-26,株式会社ＬｅｖＣｏ,,株式会社,広島県,広島市西区,小河内町２丁目１４－２０－１０４,,34,104,7330025,,,,,,,2024-09-26,1,,,,,レブコ,0
1279,6250001020834,新規,0,2024-09-26,2024-09-26,株式会社Ｌｉｂｏｎ,,株式会社,山口県,山口市,吉敷中東４丁目４番１号（スリーハウス２号）,,35,203,7530813,,,,,,,2024-09-26,1,,,,,リボン,0
1285,6260001039493,新規,0,2024-09-26,2024-09-26,株式会社アムール,,株式会社,岡山県,岡山市東区,西大寺東２丁目１－２８,,33,103,7048114,,,,,,,2024-09-26,1,,,,,アムール,0
1291,6290801030905,新規,0,2024-09-26,2024-09-26,株式会社プロアランス,,株式会社,福岡県,北九州市八幡西区,黒崎３丁目１０番２号,,40,109,8060021,,,,,,,2024-09-26,1,,,,,プロアランス,0
1301,6370003006761,新規,0,2024-09-26,2024-09-26,三井薬局合同会社,,合同会社,宮城県,仙台市青葉区,栗生５丁目１８－８,,04,101,9893122,,,,,,,2024-09-26,1,,,,,ミツイヤッキョク,0
1307,6390003002288,新規,0,2024-09-26,2024-09-26,合同会社峯田賃貸管理,,合同会社,山形県,山形市,青田１丁目６番１２号,,06,201,9902435,,,,,,,2024-09-26,1,,,,,ミネタチンタイカンリ,0
1312,6430001092731,新規,0,2024-09-26,2024-09-26,株式会社ＳＩＤＥ,,株式会社,北海道,札幌市東区,北十八条東１丁目６番２７号,,01,103,0650018,,,,,,,2024-09-26,1,,,,,サイド,0
1313,6430001092748,新規,0,2024-09-26,2024-09-26,株式会社フレイハウス,,株式会社,北海道,札幌市中央区,南二十二条西９丁目１番１９－１０１号,,01,101,0640922,,,,,,,2024-09-26,1,,,,,フレイハウス,0
1314,6430001092756,新規,0,2024-09-26,2024-09-26,Ｅｎｎ　Ｅｉｇｈｔ株式会社,,株式会社,北海道,登別市,登別温泉町７６番地,,01,230,0590551,,,,,,,2024-09-26,1,,,,,エンエイト,0
1319,6430003016762,新規,0,2024-09-26,2024-09-26,合同会社星野旅行,,合同会社,北海道,札幌市東区,北七条東５丁目１－３ルラシオン北７条３０３号,,01,103,0600907,,,,,,,2024-09-26,1,,,,,ホシノリョコウ,0
1320,6430003016795,新規,0,2024-09-26,2024-09-26,合同会社ユナイト,,合同会社,北海道,苫小牧市,もえぎ町１丁目１３番１２号,,01,213,0591274,,,,,,,2024-09-26,1,,,,,ユナイト,0
1321,6430003016804,新規,0,2024-09-26,2024-09-26,ユニエ合同会社,,合同会社,北海道,札幌市中央区,南二条東２丁目７番１号ビルセススクエア大通,,01,101,0600052,,,,,,,2024-09-26,1,,,,,ユニエ,0
1322,6430003016820,新規,0,2024-09-26,2024-09-26,合同会社ＳＲＥ　Ｓｏｌｕｔｉｏｎｓ,,合同会社,北海道,札幌市北区,新琴似八条９丁目７番１８号,,01,102,0010908,,,,,,,2024-09-26,1,,,,,エスアールイーソリューションズ,0
1325,6430005015077,新規,0,2024-09-26,2024-09-26,弁護士法人フレイ法律事務所,,その他の設立登記法人,北海道,札幌市中央区,南一条西１１丁目３２７－１２センターパーキングビル５０１号,,01,101,0600061,,,,,,,2024-09-26,1,,,,,フレイホウリツジムショ,0
1333,6700150127302,新規,0,2024-09-26,2024-09-26,ｆｏｓｈａｎｓｈｉｙｉｌｉａｎｇｊｉａｊｕｋｅｊｉｙｏｕｘｉａｎｇｏｎｇｓｉ,,外国会社等,,,,,,,,ＦｏｓｈａｎＳｈｉ　ＮａｎｈａｉＱｕ　ＪｉｕｊｉａｎｇＺｈｅｎ　ＳｈａＺｕｉＧｏｎｇｙｅＹｕａｎｑｕ　ＤｕｎＳｈａｎｇＤａＤａｏ　９Ｈａｏ　Ｃｈａｎｇｆａｎｇ　ＬｉｕＬｏｕ　６０３Ｆａｎｇ,,,,,,2024-09-26,1,,,,,フォサンシイリャンジャジュカギユウゲンコウシ,0
1337,7010001248465,新規,0,2024-09-26,2024-09-26,株式会社カネザキグループ,,株式会社,東京都,千代田区,鍛冶町２丁目７番１５号ＡＤ神田駅東口ビル,,13,101,1010044,,,,,,,2024-09-26,1,,,,,カネザキグループ,0
1338,7010001248523,新規,0,2024-09-26,2024-09-26,セントラルビジネスグループ株式会社,,株式会社,東京都,千代田区,神田神保町２丁目３４－１鳴海ビル２２３号室,,13,101,1010051,,,,,,,2024-09-26,1,,,,,セントラルビジネスグループ,0
1342,7010003044805,新規,0,2024-09-26,2024-09-26,合資会社賀田組,,合資会社,東京都,中央区,日本橋本石町３丁目２番２号,,13,102,1030021,,,,,,,2024-09-26,1,,,,,カダグミ,0
1343,7010003044978,新規,0,2024-09-26,2024-09-26,ミュアフィールド・プロパティー合同会社,,合同会社,東京都,千代田区,九段南３丁目７番７号,,13,101,1020074,,,,,,,2024-09-26,1,,,,,,0
1344,7010101016334,新規,0,2024-09-26,2024-09-26,株式会社チャレンジパートナーズ,,株式会社,東京都,八王子市,旭町１０番３号安嶋中央ビル３Ｆ,,13,201,1920083,,,,,,,2024-09-26,1,,,,,チャレンジパートナーズ,0
1345,7010105002306,新規,0,2024-09-26,2024-09-26,一般社団法人ほんがくＬＡＢＯ,,その他の設立登記法人,東京都,八王子市,横山町５番１３号３階,,13,201,1920081,,,,,,,2024-09-26,1,,,,,ホンガクラボ,0
1347,7010401185234,新規,0,2024-09-26,2024-09-26,美容企画株式会社,,株式会社,東京都,港区,赤坂５丁目２－３３ＩｓａＩＡｋａｓａｋＡ８１１号室,,13,103,1070052,,,,,,,2024-09-26,1,,,,,ビヨウキカク,0
1348,7010401185283,新規,0,2024-09-26,2024-09-26,ＬＳ‐Ａｖｉａｔｉｏｎ第６４号株式会社,,株式会社,東京都,港区,六本木１丁目６番１号,,13,103,1060032,,,,,,,2024-09-26,1,,,,,エルエスアビエーションダイロクジュウヨンゴウ,0
1349,7010401185341,新規,0,2024-09-26,2024-09-26,株式会社エーブル,,株式会社,東京都,港区,虎ノ門４丁目１番１号ＷｅＷｏｒｋ神谷町トラストタワー２２－１２２号室,,13,103,1050001,,,,,,,2024-09-26,1,,,,,エーブル,0
1351,7010403033473,新規,0,2024-09-26,2024-09-26,合同会社Ｐｌａｕｄｉｔ,,合同会社,東京都,港区,六本木１丁目９番１０号アークヒルズ仙石山森タワー４０階,,13,103,1060032,,,,,,,2024-09-26,1,,,,,プローディト,0
1355,7010601065987,新規,0,2024-09-26,2024-09-26,株式会社Ｏｎ　Ｔｈｅ　Ｌｉｎｅ,,株式会社,東京都,墨田区,向島５丁目１９番７号,,13,107,1310033,,,,,,,2024-09-26,1,,,,,オンライン,0
1360,7010701046573,新規,0,2024-09-26,2024-09-26,ＧＭＹＴ株式会社,,株式会社,東京都,品川区,上大崎２丁目１番３－４０４号,,13,109,1410021,,,,,,,2024-09-26,1,,,,,ジーエムワイティー,0
1361,7010801035419,新規,0,2024-09-26,2024-09-26,株式会社千京,,株式会社,東京都,大田区,西蒲田７丁目４番３－８０７号,,13,111,1440051,,,,,,,2024-09-26,1,,,,,センキョウ,0
1364,7010901056026,新規,0,2024-09-26,2024-09-26,ライムロック株式会社,,株式会社,東京都,世田谷区,砧２丁目７番２号,,13,112,1570073,,,,,,,2024-09-26,1,,,,,ライムロック,0
1368,7011001163274,新規,0,2024-09-26,2024-09-26,株式会社Ｖ３,,株式会社,東京都,渋谷区,代々木１丁目２４番１０号,,13,113,1510053,,,,,,,2024-09-26,1,,,,,ブイスリー,0
1369,7011001164818,新規,0,2024-09-26,2024-09-26,株式会社ＨＫＹ,,株式会社,東京都,目黒区,青葉台１丁目１４－１５,,13,110,1530042,,,,,,,2024-09-26,1,,,,,エイチケイワイ,0
1370,7011001164875,新規,0,2024-09-26,2024-09-26,宝麗株式会社,,株式会社,東京都,渋谷区,神宮前１丁目２３番２８号,,13,113,1500001,,,,,,,2024-09-26,1,,,,,ホウレイ,0
1371,7011003019929,新規,0,2024-09-26,2024-09-26,合同会社ＡＹＵＭＵ,,合同会社,東京都,渋谷区,渋谷２丁目１９－１５宮益坂ビルディング６０９,,13,113,1500002,,,,,,,2024-09-26,1,,,,,アユム,0
1375,7011101108880,新規,0,2024-09-26,2024-09-26,株式会社美Ｎｅ,,株式会社,東京都,新宿区,市谷甲良町２番１９号,,13,104,1620856,,,,,,,2024-09-26,1,,,,,ミネ,0
1376,7011101108906,新規,0,2024-09-26,2024-09-26,ＥＣＯＬＩＦＥ　ＪＡＰＡＮ　ＴＥＣＨＮＯＬＯＧＹ株式会社,,株式会社,東京都,新宿区,四谷坂町２番４１号メゾン・ド・四谷２０１号室,,13,104,1600002,,,,,,,2024-09-26,1,,,,,エコライフジャパンテクノロジー,0
1378,7011303005298,新規,0,2024-09-26,2024-09-26,合同会社Ｍｉｘ＆Ｙｏｕ,,合同会社,東京都,杉並区,高井戸東３丁目３３－５・４０３,,13,115,1680072,,,,,,,2024-09-26,1,,,,,,0
1381,7011501031170,新規,0,2024-09-26,2024-09-26,八田株式会社,,株式会社,東京都,荒川区,東尾久２丁目２－９－２４０号室,,13,118,1160012,,,,,,,2024-09-26,1,,,,,ハッタ,0
1382,7011501031179,新規,0,2024-09-26,2024-09-26,ＴａｂｉＧｏ株式会社,,株式会社,東京都,北区,滝野川４丁目１５－３－２０１,,13,117,1140023,,,,,,,2024-09-26,1,,,,,タビゴー,0
1383,7011501031187,新規,0,2024-09-26,2024-09-26,株式会社ＨｏｏＫ,,株式会社,東京都,荒川区,東日暮里６丁目１７番６号５階イデタチ東京,,13,118,1160014,,,,,,,2024-09-26,1,,,,,フック,0
1393,7012401042299,新規,0,2024-09-26,2024-09-26,株式会社Ｃｉｅｌ　ｌｉｎｋｓ,,株式会社,東京都,調布市,国領町４丁目９番地４九曜国領駅前ビル５階Ｂ,,13,208,1820022,,,,,,,2024-09-26,1,,,,,シエルリンクス,0
1396,7012403006764,新規,0,2024-09-26,2024-09-26,合同会社ほうえい,,合同会社,東京都,小金井市,緑町５丁目４番１６－３０３号,,13,210,1840003,,,,,,,2024-09-26,1,,,,,ホウエイ,0
1398,7013301053122,新規,0,2024-09-26,2024-09-26,緑騎士株式会社,,株式会社,東京都,豊島区,池袋４丁目１４－１１－１０６ａＬＡＴＯＩＫＥＢＵＫＵＲＯ,,13,116,1710014,,,,,,,2024-09-26,1,,,,,ミドリキシ,0
1401,7020001159257,新規,0,2024-09-26,2024-09-26,株式会社太陽システムホールディングス,,株式会社,神奈川県,横浜市中区,富士見町３番地２,,14,104,2310037,,,,,,,2024-09-26,1,,,,,タイヨウシステムホールディングス,0
1403,7020003026959,新規,0,2024-09-26,2024-09-26,合同会社ルリアン,,合同会社,神奈川県,横浜市港北区,新羽町９３５番地シャロール港北２０２号,,14,109,2230057,,,,,,,2024-09-26,1,,,,,ルリアン,0
1408,7021003015043,新規,0,2024-09-26,2024-09-26,きせつや合同会社,,合同会社,神奈川県,南足柄市,壗下４２９番地５,,14,217,2500103,,,,,,,2024-09-26,1,,,,,キセツヤ,0
1413,7030001162549,新規,0,2024-09-26,2024-09-26,株式会社ＤＹＴ,,株式会社,埼玉県,蕨市,塚越４丁目１１番３号ＫＬＥＩＳ蕨３０２号,00136397,11,223,3350002,,,,,,,2024-09-26,1,,,,,ディーワイティー,0
1420,7040001135529,新規,0,2024-09-26,2024-09-26,株式会社ＸＱＲ,,株式会社,千葉県,船橋市,芝山７丁目３２番１１号,,12,204,2740816,,,,,,,2024-09-26,1,,,,,エックスキューアール,0
1432,7060001037509,新規,0,2024-09-26,2024-09-26,こどもスタジオバンビ株式会社,,株式会社,栃木県,宇都宮市,豊郷台２丁目１番地１,,09,201,3200003,,,,,,,2024-09-26,1,,,,,コドモスタジオバンビ,0
1434,7060003005257,新規,0,2024-09-26,2024-09-26,合同会社ＬＥＯ,,合同会社,栃木県,小山市,大字大本９８０,,09,208,3230009,,,,,,,2024-09-26,1,,,,,レオ,0
1438,7070001042202,新規,0,2024-09-26,2024-09-26,株式会社日本豊麦,,株式会社,群馬県,高崎市,並榎町１３５番地３２,,10,202,3700802,,,,,,,2024-09-26,1,,,,,ニホンホウバク,0
1443,7080401027462,新規,0,2024-09-26,2024-09-26,株式会社Ｔｈｉｎｋ　ｒｅｅｄ,,株式会社,静岡県,浜松市中央区,鍛冶町１００番地の１中央館Ｂ１Ｆザザシティ浜松ＦＵＳＥ,,22,138,4300933,,,,,,,2024-09-26,1,,,,,シンクリード,0
1458,7120001268741,新規,0,2024-09-26,2024-09-26,株式会社ＩＳＳＥＮ,,株式会社,大阪府,大阪市北区,大淀中２丁目１１番１７号エスリードレジデンス梅田マークス１１０２,,27,127,5310076,,,,,,,2024-09-26,1,,,,,イッセン,0
1459,7120001268758,新規,0,2024-09-26,2024-09-26,株式会社ｅｔｅｐａｌ,,株式会社,大阪府,大阪市中央区,難波２丁目３番７号,,27,128,5420076,,,,,,,2024-09-26,1,,,,,エタパル,0
1464,7120901049811,新規,0,2024-09-26,2024-09-26,ＴＧＩＹａｓｕｍｉ株式会社,,株式会社,大阪府,高槻市,城北町２丁目２番６号２階,,27,207,5690071,,,,,,,2024-09-26,1,,,,,ティージーアイヤスミ,0
1468,7130001078000,新規,0,2024-09-26,2024-09-26,株式会社ｅｍｏｕ,,株式会社,京都府,宇治市,五ケ庄大林２５－８０,,26,204,6110011,,,,,,,2024-09-26,1,,,,,エム,0
1469,7130001078017,新規,0,2024-09-26,2024-09-26,株式会社ぎおん鮨尚充,,株式会社,京都府,京都市南区,西九条豊田町１番地,,26,107,6018448,,,,,,,2024-09-26,1,,,,,ギオンスシタカミツ,0
1479,7140003021122,新規,0,2024-09-26,2024-09-26,合同会社ＫＥＮＲＡＮ,,合同会社,兵庫県,神戸市中央区,琴ノ緒町５丁目７－７西山ビル３Ｆ,,28,110,6510094,,,,,,,2024-09-26,1,,,,,ケンラン,0
1482,7160003003291,新規,0,2024-09-26,2024-09-26,合同会社グラシアスアーシャ,,合同会社,滋賀県,守山市,今浜町２４９８番地の３,,25,207,5240101,,,,,,,2024-09-26,1,,,,,グラシアスアーシャ,0
1493,7180003027396,新規,0,2024-09-26,2024-09-26,東昇合同会社,,合同会社,愛知県,名古屋市千種区,猪高町大字猪子石猪々道１４４番１,00136401,23,101,4640000,,,,,,,2024-09-26,1,,,,,トウショウ,0
1494,7180005020779,新規,0,2024-09-26,2024-09-26,一般社団法人日本ＳＰＩＣＥネットワーク,,その他の設立登記法人,愛知県,名古屋市中村区,名駅３丁目４番１０号アルティメイト名駅１ｓｔ２階ＤＭＭ．ｃｏｍ内,,23,105,4500002,,,,,,,2024-09-26,1,,,,,ニッポンスパイスネットワーク,0
1499,7190001031663,新規,0,2024-09-26,2024-09-26,株式会社ＧＩＬ,,株式会社,三重県,桑名市,星見ヶ丘３丁目１０５番地,,24,205,5110912,,,,,,,2024-09-26,1,,,,,ギル,0
1502,7200001042964,新規,0,2024-09-26,2024-09-26,株式会社Ｉ＆Ｅ,,株式会社,岐阜県,岐阜市,領下６丁目４６番地,,21,201,5008241,,,,,,,2024-09-26,1,,,,,アイアンドイー,0
1505,7200003006521,新規,0,2024-09-26,2024-09-26,合同会社にしき,,合同会社,岐阜県,揖斐郡池田町,白鳥５４１番地,,21,404,5032413,,,,,,,2024-09-26,1,,,,,ニシキ,0
1509,7240001063858,新規,0,2024-09-26,2024-09-26,株式会社チェリーエンパレット,,株式会社,広島県,福山市,明神町１丁目５番８号,,34,207,7210961,,,,,,,2024-09-26,1,,,,,チェリーエンパレット,0
1517,7290003015836,新規,0,2024-09-26,2024-09-26,合同会社ＨＡコープ,,合同会社,福岡県,福岡市東区,青葉５丁目２６番２０号,,40,131,8130025,,,,,,,2024-09-26,1,,,,,エイチエーコープ,0
1524,7330003010568,新規,0,2024-09-26,2024-09-26,合同会社アリーヤ,,合同会社,熊本県,宇城市,三角町郡浦５８番地３,,43,213,8693202,,,,,,,2024-09-26,1,,,,,アリーヤ,0
1527,7330005010830,新規,0,2024-09-26,2024-09-26,一般社団法人みちラボラトリー,,その他の設立登記法人,熊本県,熊本市中央区,新屋敷２丁目２６番２号,,43,101,8620975,,,,,,,2024-09-26,1,,,,,ミチラボラトリー,0
1533,7360003014327,新規,0,2024-09-26,2024-09-26,Ｖａｓｕｄｈａｉｖａ　Ｋｕｔｕｍｂａｋａｍ合同会社,,合同会社,沖縄県,うるま市,みどり町４丁目２０番２０号,,47,213,9042215,,,,,,,2024-09-26,1,,,,,ヴァスダイヴァクトゥンバカム,0
1536,7370001051742,新規,0,2024-09-26,2024-09-26,株式会社うおまち,,株式会社,宮城県,気仙沼市,八日町２丁目３―３０,,04,205,9880084,,,,,,,2024-09-26,1,,,,,ウオマチ,0
1537,7370001051750,新規,0,2024-09-26,2024-09-26,株式会社インヘリタンスオフィスＫ,,株式会社,宮城県,仙台市若林区,上飯田１丁目９番１９号,,04,103,9840838,,,,,,,2024-09-26,1,,,,,インヘリタンスオフィスケイ,0
1540,7370003006760,新規,0,2024-09-26,2024-09-26,合同会社マイティ,,合同会社,宮城県,仙台市若林区,木ノ下１丁目１２番７号,,04,103,9840047,,,,,,,2024-09-26,1,,,,,マイティ,0
1548,7430001092714,新規,0,2024-09-26,2024-09-26,株式会社オオバ,,株式会社,北海道,札幌市中央区,北七条西２５丁目晋南貿易ビル２Ｆ,,01,101,0600007,,,,,,,2024-09-26,1,,,,,オオバ,0
1549,7430001092730,新規,0,2024-09-26,2024-09-26,株式会社ＪＴＳ,,株式会社,北海道,千歳市,柏陽３丁目９番１０,,01,224,0660054,,,,,,,2024-09-26,1,,,,,ジェイティエス,0
1550,7430001092739,新規,0,2024-09-26,2024-09-26,株式会社Ｈｅａｌｉｎｇ　ｉｎｎｏｖａｔｉｏｎ,,株式会社,北海道,札幌市中央区,南八条西１２丁目１番３０号,,01,101,0640808,,,,,,,2024-09-26,1,,,,,ヒーリングイノベーション,0
1552,7440003001630,新規,0,2024-09-26,2024-09-26,合同会社Ｌａｕｇｈ,,合同会社,北海道,函館市,中道２丁目１番１３‐３０２号アジュール中道,,01,202,0410853,,,,,,,2024-09-26,1,,,,,ラフ,0
1554,7450001014410,新規,0,2024-09-26,2024-09-26,株式会社Ｂｉｅｉ　Ｐｏｔａｔｏ＆Ｃｏ．,,株式会社,北海道,上川郡美瑛町,大町２丁目６番３号,,01,459,0710204,,,,,,,2024-09-26,1,,,,,ビエイポテトアンドコー,0
1556,7470003002717,新規,0,2024-09-26,2024-09-26,合同会社芽光,,合同会社,香川県,高松市,伏石町２０９４番地４,,37,201,7618071,,,,,,,2024-09-26,1,,,,,メノヒカリ,0
1557,7480001012601,新規,0,2024-09-26,2024-09-26,株式会社ＴＲＹＩＮＧ,,株式会社,徳島県,徳島市,国府町日開２５３番地の６,,36,201,7793117,,,,,,,2024-09-26,1,,,,,トライング,0
1563,8010001248448,新規,0,2024-09-26,2024-09-26,株式会社ＴＢＳ,,株式会社,東京都,中央区,日本橋人形町３丁目３番５号天翔日本橋人形町ビル９階,,13,102,1030013,,,,,,,2024-09-26,1,,,,,ティービーエス,0
1564,8010101016333,新規,0,2024-09-26,2024-09-26,株式会社ミストラルデザイン,,株式会社,東京都,八王子市,下恩方町１９４１番地,,13,201,1920154,,,,,,,2024-09-26,1,,,,,ミストラルデザイン,0
1565,8010401016438,新規,0,2024-09-26,2024-09-26,株式会社大行社,,株式会社,東京都,港区,芝４丁目５番１２号,,13,103,1080014,,,,,,,2024-09-26,1,,,,,タイコウシャ,0
1568,8010401185340,新規,0,2024-09-26,2024-09-26,富淇株式会社,,株式会社,東京都,港区,赤坂４丁目１３番８－２０４号室,,13,103,1070052,,,,,,,2024-09-26,1,,,,,フチー,0
1569,8010401185365,新規,0,2024-09-26,2024-09-26,株式会社エボリューション・エンタテインメント・ジャパン,,株式会社,東京都,港区,西新橋１丁目１８番６号,,13,103,1050003,,,,,,,2024-09-26,1,,,,,エボリューションエンタテインメントジャパン,0
1572,8010501052952,新規,0,2024-09-26,2024-09-26,ＯＷＬ　ＷＥＬＬ株式会社,,株式会社,東京都,台東区,上野３丁目１６－２－９０６,,13,106,1100005,,,,,,,2024-09-26,1,,,,,オウルウェル,0
1574,8010601065978,新規,0,2024-09-26,2024-09-26,源創ＮＥＴ株式会社,,株式会社,東京都,江東区,東砂８丁目６番２－４１３号,,13,108,1360074,,,,,,,2024-09-26,1,,,,,ゲンソウネット,0
1583,8010903009377,新規,0,2024-09-26,2024-09-26,ミル・プランタン合同会社,,合同会社,東京都,世田谷区,野沢４丁目１６番８号,,13,112,1540003,,,,,,,2024-09-26,1,,,,,ミルプランタン,0
1586,8011001164817,新規,0,2024-09-26,2024-09-26,株式会社ＥｔｏＡ,,株式会社,東京都,目黒区,下目黒２丁目２３番２１－１３０７号ザ・マジェスティコート目黒,,13,110,1530064,,,,,,,2024-09-26,1,,,,,エトア,0
1587,8011001164825,新規,0,2024-09-26,2024-09-26,株式会社ＴＨＥ　ＰＨＯＥＮＩＸ,,株式会社,東京都,渋谷区,上原２丁目２２番５号,,13,113,1510064,,,,,,,2024-09-26,1,,,,,ザフェニックス,0
1588,8011001164833,新規,0,2024-09-26,2024-09-26,Ｋｏｍｌｏｃｋ　ｌａｂ株式会社,,株式会社,東京都,渋谷区,神宮前６丁目２３番４号桑野ビル２階,,13,113,1500001,,,,,,,2024-09-26,1,,,,,コムロックラボ,0
1591,8011003020076,新規,0,2024-09-26,2024-09-26,合同会社ナレッジ・アドベンチャー・ラボ,,合同会社,東京都,渋谷区,初台２丁目３１‐５パルテールアージュ７０２,,13,113,1510061,,,,,,,2024-09-26,1,,,,,ナレッジアドベンチャーラボ,0
1596,8011101108888,新規,0,2024-09-26,2024-09-26,株式会社ｅｌｌｅｃｙ,,株式会社,東京都,新宿区,舟町１５番地シャモニーマンション６０１,,13,104,1600006,,,,,,,2024-09-26,1,,,,,エルシー,0
1600,8011105011163,新規,0,2024-09-26,2024-09-26,社会保険労務士法人ＮＥＸＴパートナーズ,,その他の設立登記法人,東京都,新宿区,新宿１丁目１５番１２号千寿ビル２Ｆ,,13,104,1600022,,,,,,,2024-09-26,1,,,,,ネクストパートナーズ,0
1606,8011603004461,新規,0,2024-09-26,2024-09-26,合同会社エニシ,,合同会社,東京都,練馬区,関町東２丁目１３番３－１０５号,,13,120,1770052,,,,,,,2024-09-26,1,,,,,エニシ,0
1610,8012401042298,新規,0,2024-09-26,2024-09-26,株式会社Ｄｒａｇｏｎ　Ｂａｂｙ,,株式会社,東京都,小金井市,貫井南町５丁目２１番３１－１０１号,,13,210,1840014,,,,,,,2024-09-26,1,,,,,ドラゴンベイビー,0
1611,8012401042307,新規,0,2024-09-26,2024-09-26,株式会社デュアリズム,,株式会社,東京都,三鷹市,牟礼２丁目３番４号,,13,204,1810002,,,,,,,2024-09-26,1,,,,,デュアリズム,0
1612,8012401042323,新規,0,2024-09-26,2024-09-26,株式会社ａｒｃｏｉｒｉｓ,,株式会社,東京都,小金井市,本町２丁目１７番３２号,,13,210,1840004,,,,,,,2024-09-26,1,,,,,アルコイリス,0
1614,8012405005045,新規,0,2024-09-26,2024-09-26,一般社団法人人形劇団ひぽぽたあむ,,その他の設立登記法人,東京都,府中市,八幡町２丁目１９番地の６オークヒルズ３０３,,13,206,1830016,,,,,,,2024-09-26,1,,,,,ニンギョウゲキダンヒポポタアム,0
1628,8021001083306,新規,0,2024-09-26,2024-09-26,株式会社ＪＤＣ,,株式会社,神奈川県,藤沢市,川名２丁目１番２号,,14,205,2510015,,,,,,,2024-09-26,1,,,,,ジェイディーシー,0
1629,8021001083314,新規,0,2024-09-26,2024-09-26,株式会社Ｗｏｒｌｄ　Ｗｉｄｅ,,株式会社,神奈川県,横須賀市,小矢部１丁目１９番１５号,,14,201,2380026,,,,,,,2024-09-26,1,,,,,ワールドワイド,0
1630,8021001083322,新規,0,2024-09-26,2024-09-26,株式会社Ｈ．Ｎ．Ｋ,,株式会社,神奈川県,平塚市,東真土４丁目２番５２号,,14,203,2540018,,,,,,,2024-09-26,1,,,,,ハンク,0
1631,8021001083330,新規,0,2024-09-26,2024-09-26,株式会社縁起,,株式会社,神奈川県,平塚市,代官町６－５平塚代官町ビル４０１,,14,203,2540807,,,,,,,2024-09-26,1,,,,,エンギ,0
1641,8030001162622,新規,0,2024-09-26,2024-09-26,株式会社ファーマイースト,,株式会社,埼玉県,東松山市,材木町２３番１０号,,11,212,3550016,,,,,,,2024-09-26,1,,,,,ファーマイースト,0
1646,8030003025190,新規,0,2024-09-26,2024-09-26,合同会社アストラ,,合同会社,埼玉県,春日部市,下蛭田２９６番地１コスモ春日部豊春６０６号,,11,214,3440043,,,,,,,2024-09-26,1,,,,,アストラ,0
1650,8040001135503,新規,0,2024-09-26,2024-09-26,龍寿社中株式会社,,株式会社,千葉県,船橋市,田喜野井４丁目３番１８号,,12,204,2740073,,,,,,,2024-09-26,1,,,,,ロンジュシャチュウ,0
1655,8060003005256,新規,0,2024-09-26,2024-09-26,合同会社ホワイトエース,,合同会社,栃木県,さくら市,狹間田１４８１番地２,,09,214,3291305,,,,,,,2024-09-26,1,,,,,ホワイトエース,0
1657,8080001026509,新規,0,2024-09-26,2024-09-26,アイアンＰＣ株式会社,,株式会社,静岡県,静岡市清水区,山切１３６２－３,,22,103,4240105,,,,,,,2024-09-26,1,,,,,アイアンピーシー,0
1665,8100003007784,新規,0,2024-09-26,2024-09-26,合名会社鈴木靴店,,合名会社,長野県,松本市,大手２丁目２番１１号,,20,202,3900874,,,,,,,2024-09-26,1,,,,,スズキクツテン,0
1676,8120001268674,新規,0,2024-09-26,2024-09-26,ＭＪＭＹ株式会社,,株式会社,大阪府,大阪市生野区,林寺２丁目８番２号Ａ１０２号室,,27,116,5440023,,,,,,,2024-09-26,1,,,,,エムジェイエムワイ,0
1677,8120001268740,新規,0,2024-09-26,2024-09-26,株式会社Ｋｏｋｕｓｈｏ,,株式会社,大阪府,大阪市都島区,東野田町２丁目９番２３号晃進ビル７階,,27,102,5340024,,,,,,,2024-09-26,1,,,,,コクショー,0
1678,8120001268765,新規,0,2024-09-26,2024-09-26,株式会社ビッグロム,,株式会社,大阪府,大阪市北区,茶屋町１６番１号,,27,127,5300013,,,,,,,2024-09-26,1,,,,,ビッグロム,0
1684,8120901049793,新規,0,2024-09-26,2024-09-26,株式会社リブシード,,株式会社,大阪府,吹田市,佐井寺４丁目３０番１号,,27,205,5650836,,,,,,,2024-09-26,1,,,,,リブシード,0
1685,8120901049810,新規,0,2024-09-26,2024-09-26,株式会社ＪＯＪＯＣＨＡＮ,,株式会社,大阪府,高槻市,天神町２丁目３０－２０,,27,207,5691117,,,,,,,2024-09-26,1,,,,,ジョジョチャン,0
1687,8120903005349,新規,0,2024-09-26,2024-09-26,合同会社ラピスラズリ,,合同会社,大阪府,豊中市,上新田３丁目４番１７－３０３号,,27,203,5600085,,,,,,,2024-09-26,1,,,,,ラピスラズリ,0
1692,8130005017184,新規,0,2024-09-26,2024-09-26,一般財団法人中央アジア高等教育奨学金財団,,その他の設立登記法人,京都府,京都市山科区,大宅山田３４番地,,26,110,6078175,,,,,,,2024-09-26,1,,,,,チュウオウアジアコウトウキョウイクショウガクキンザイダン,0
1703,8140001135872,新規,0,2024-09-26,2024-09-26,株式会社ｆｉｒｓｔ,,株式会社,兵庫県,加古川市,平岡町高畑４５１番地４,,28,210,6750103,,,,,,,2024-09-26,1,,,,,ファースト,0
1707,8140005027208,新規,0,2024-09-26,2024-09-26,一般社団法人ＡＳＡＧＯステーション・桜,,その他の設立登記法人,兵庫県,朝来市,和田山町和田山２８３番地,,28,225,6695201,,,,,,,2024-09-26,1,,,,,アサゴステーションサクラ,0
1708,8160001026236,新規,0,2024-09-26,2024-09-26,株式会社ＴＳＵＪＩＭＯＴＯ,,株式会社,滋賀県,大津市,雄琴６丁目１８番５０－２０２号,,25,201,5200101,,,,,,,2024-09-26,1,,,,,ツジモト,0
1709,8160003003290,新規,0,2024-09-26,2024-09-26,合同会社ＲｅＬｅａｆ,,合同会社,滋賀県,大津市,島の関２番８号ミシガンハウス浜大津６０１,,25,201,5200042,,,,,,,2024-09-26,1,,,,,リリーフ,0
1722,8190003004807,新規,0,2024-09-26,2024-09-26,合同会社リンクアップ,,合同会社,三重県,四日市市,釆女町１６７番地１,,24,202,5100954,,,,,,,2024-09-26,1,,,,,リンクアップ,0
1724,8200003006520,新規,0,2024-09-26,2024-09-26,キャンド合同会社,,合同会社,岐阜県,本巣市,仏生寺５８７番地（Ｒハウス仏生寺Ｂ－１２号）,,21,218,5010407,,,,,,,2024-09-26,1,,,,,キャンド,0
1726,8240003006863,新規,0,2024-09-26,2024-09-26,合同会社やまね,,合同会社,広島県,広島市安佐北区,可部町大字桐原１６０６番地,,34,106,7310214,,,,,,,2024-09-26,1,,,,,ヤマネ,0
1727,8240003006871,新規,0,2024-09-26,2024-09-26,合同会社Ｍ＆Ｉ　Ｌａｎｄｓｔａｒ,,合同会社,広島県,福山市,西町１丁目６番２３号,,34,207,7200067,,,,,,,2024-09-26,1,,,,,エムアンドアイランドスター,0
1729,8260001039483,新規,0,2024-09-26,2024-09-26,ＳＡＮＥＩ　ＭＡＲＫＥＴＩＮＧ株式会社,,株式会社,岡山県,岡山市北区,弓之町１２番５号ケイジェイ弓之町ビル２階,,33,101,7000817,,,,,,,2024-09-26,1,,,,,サンエイマーケティング,0
1730,8270003001671,新規,0,2024-09-26,2024-09-26,Ｅｌｅｇａｎｃｅ合同会社,,合同会社,鳥取県,米子市,新開７丁目９番２号,,31,202,6830801,,,,,,,2024-09-26,1,,,,,エレガンス,0
1731,8270005005613,新規,0,2024-09-26,2024-09-26,一般社団法人桜鴨文華祭,,その他の設立登記法人,鳥取県,倉吉市,福守町７２番地１６,,31,203,6820922,,,,,,,2024-09-26,1,,,,,オウガモブンカサイ,0
1737,8290801030903,新規,0,2024-09-26,2024-09-26,株式会社ＷＡＣ,,株式会社,福岡県,北九州市八幡西区,鷹の巣１丁目１５番１１－１０２号,,40,109,8060047,,,,,,,2024-09-26,1,,,,,ワック,0
1738,8290803004847,新規,0,2024-09-26,2024-09-26,合同会社ニシハラ,,合同会社,福岡県,遠賀郡岡垣町,中央台１丁目８番２号,,40,383,8114218,,,,,,,2024-09-26,1,,,,,ニシハラ,0
1740,8320001020726,新規,0,2024-09-26,2024-09-26,株式会社Ｎ‐ｓｔｙｌｅ,,株式会社,大分県,大分市,日吉町１１番２３号第１峯野ビル１０２号室,,44,201,8700918,,,,,,,2024-09-26,1,,,,,エヌスタイル,0
1743,8330001032489,新規,0,2024-09-26,2024-09-26,株式会社ｕ．,,株式会社,熊本県,熊本市中央区,帯山３丁目３９‐１３‐１０３,,43,101,8620924,,,,,,,2024-09-26,1,,,,,ユー,0
1746,8350001019195,新規,0,2024-09-26,2024-09-26,株式会社Ａｓｈ＆ｒ,,株式会社,宮崎県,宮崎市,霧島３丁目６番地,,45,201,8800032,,,,,,,2024-09-26,1,,,,,アッシュアンドアール,0
1750,8390001017749,新規,0,2024-09-26,2024-09-26,株式会社サガエゴルフクラブ,,株式会社,山形県,寒河江市,大字寒河江字赤田１４２番地の２,,06,206,9910041,,,,,,,2024-09-26,1,,,,,サガエゴルフクラブ,0
1755,8430001092721,新規,0,2024-09-26,2024-09-26,株式会社一輝,,株式会社,北海道,札幌市南区,南三十五条西１１丁目４番１号,,01,106,0050035,,,,,,,2024-09-26,1,,,,,イチキ,0
1756,8430001092738,新規,0,2024-09-26,2024-09-26,株式会社クリーンワークス札幌,,株式会社,北海道,札幌市西区,発寒五条８丁目１２番２号三浦ビル１階,,01,107,0630825,,,,,,,2024-09-26,1,,,,,クリーンワークスサッポロ,0
1757,8430001092746,新規,0,2024-09-26,2024-09-26,株式会社富田金属,,株式会社,北海道,石狩市,花畔三条１丁目２５５－２０１,,01,235,0613283,,,,,,,2024-09-26,1,,,,,トミタキンゾク,0
1758,8430001092754,新規,0,2024-09-26,2024-09-26,株式会社キノエネ,,株式会社,北海道,札幌市中央区,南九条西１５丁目３番１－３０２号,,01,101,0640809,,,,,,,2024-09-26,1,,,,,キノエネ,0
1764,8480001012600,新規,0,2024-09-26,2024-09-26,株式会社群青丸,,株式会社,徳島県,徳島市,新浜町１丁目２番３９号,,36,201,7708006,,,,,,,2024-09-26,1,,,,,グンジョウマル,0
1769,9010001248471,新規,0,2024-09-26,2024-09-26,株式会社ＯＮ　ＧＲＯＵＰ,,株式会社,東京都,中央区,銀座６丁目７番１６号岩月ビル７０８号室ＣＡＰＥＬ銀座内,,13,102,1040061,,,,,,,2024-09-26,1,,,,,オングループ,0
1775,9010003044927,新規,0,2024-09-26,2024-09-26,合同会社Ｌｕｐｉｎｕｓ　Ｉｎｓｔｉｔｕｔｅ,,合同会社,東京都,中央区,銀座１丁目１２－４Ｎ＆ＥＢＬＤ．７階,,13,102,1040061,,,,,,,2024-09-26,1,,,,,ルピナスインスティテュート,0
1776,9010005038844,新規,0,2024-09-26,2024-09-26,社会保険労務士法人エースクルー,,その他の設立登記法人,東京都,中央区,銀座６丁目３－９銀座高松ビル９階,,13,102,1040061,,,,,,,2024-09-26,1,,,,,エースクルー,0
1782,9010401185323,新規,0,2024-09-26,2024-09-26,アーバンファシリティーズ株式会社,,株式会社,東京都,港区,浜松町２丁目２番１５号浜松町ダイヤビル２階,,13,103,1050013,,,,,,,2024-09-26,1,,,,,アーバンファシリティーズ,0
1783,9010401185331,新規,0,2024-09-26,2024-09-26,４Ｓ株式会社,,株式会社,東京都,港区,芝浦４丁目１９番１－３２０９号,,13,103,1080023,,,,,,,2024-09-26,1,,,,,フォース,0
1792,9010601065977,新規,0,2024-09-26,2024-09-26,株式会社レボナナ,,株式会社,東京都,江東区,亀戸６丁目４６番１１号４０２,,13,108,1360071,,,,,,,2024-09-26,1,,,,,レボナナ,0
1793,9010601065985,新規,0,2024-09-26,2024-09-26,株式会社花溪,,株式会社,東京都,江東区,東陽４丁目６番３号栗林ビル２０２号室,,13,108,1350016,,,,,,,2024-09-26,1,,,,,カケイ,0
1794,9010701046588,新規,0,2024-09-26,2024-09-26,Ｌａｂｄｅｍｙ株式会社,,株式会社,東京都,品川区,上大崎３丁目４－１サンリオンインターナショナルビル３Ｆ,,13,109,1410021,,,,,,,2024-09-26,1,,,,,ラボデミー,0
1796,9010801035417,新規,0,2024-09-26,2024-09-26,株式会社ＣＲＩＤＥＲ,,株式会社,東京都,大田区,南馬込３丁目２２番２２－１０５号,,13,111,1430025,,,,,,,2024-09-26,1,,,,,クライダー,0
1798,9010901056024,新規,0,2024-09-26,2024-09-26,２５ａｎｄ株式会社,,株式会社,東京都,世田谷区,成城２丁目６番４号成城テラスＦ,,13,112,1570066,,,,,,,2024-09-26,1,,,,,ニコアンド,0
1799,9010901056032,新規,0,2024-09-26,2024-09-26,ちの運輸株式会社,,株式会社,東京都,世田谷区,尾山台２丁目４番１５号,,13,112,1580086,,,,,,,2024-09-26,1,,,,,チノウンユ,0
1800,9010903009376,新規,0,2024-09-26,2024-09-26,合同会社ハニャン,,合同会社,東京都,世田谷区,赤堤４丁目４５番１５号２Ｆ,,13,112,1560044,,,,,,,2024-09-26,1,,,,,ハニャン,0
1807,9011001164824,新規,0,2024-09-26,2024-09-26,株式会社ＬＩＧＨＴ　ＡＮＤ　ＰＬＡＹ,,株式会社,東京都,渋谷区,千駄ヶ谷４丁目２０－１Ｖｅｒｄｅｘ神宮北参道６Ｆ,,13,113,1510051,,,,,,,2024-09-26,1,,,,,ライトアンドプレイ,0
1808,9011001164923,新規,0,2024-09-26,2024-09-26,ＵＮＩＱＵＥ　ＴＲＡＶＥＬ　ＪＡＰＡＮ株式会社,,株式会社,東京都,渋谷区,恵比寿西２丁目８番４号ＥＸ恵比寿西ビル５階,,13,113,1500021,,,,,,,2024-09-26,1,,,,,ユニークトラベルジャパン,0
1810,9011003020091,新規,0,2024-09-26,2024-09-26,Ｋａｍｄａｒ　Ｇｒｏｕｐ合同会社,,合同会社,東京都,渋谷区,神山町３番１０号代々木公園プラザ３０１,,13,113,1500047,,,,,,,2024-09-26,1,,,,,カンダーグループ,0
1813,9011101108862,新規,0,2024-09-26,2024-09-26,株式会社山々工務店,,株式会社,東京都,新宿区,西新宿７丁目３番１０－２１山京ビル４０３号,,13,104,1600023,,,,,,,2024-09-26,1,,,,,サンサンコウムテン,0
1814,9011103014976,新規,0,2024-09-26,2024-09-26,合同会社リターンチャンス,,合同会社,東京都,新宿区,西新宿７丁目１９－２２－５０７,,13,104,1600023,,,,,,,2024-09-26,1,,,,,リターンチャンス,0
1816,9011203004489,新規,0,2024-09-26,2024-09-26,合同会社トータルアソシエイツ,,合同会社,東京都,中野区,江古田３丁目１４－１３－１１０５,,13,114,1650022,,,,,,,2024-09-26,1,,,,,トータルアソシエイツ,0
1817,9011301030008,新規,0,2024-09-26,2024-09-26,株式会社ＬＵＸＥ,,株式会社,東京都,杉並区,西荻北４丁目１番９－３０３号,,13,115,1670042,,,,,,,2024-09-26,1,,,,,リュクス,0
1818,9011303005296,新規,0,2024-09-26,2024-09-26,合同会社Ｙ．Ｋ．パートナーズ,,合同会社,東京都,杉並区,和田３丁目３０－１０－２１０,,13,115,1660012,,,,,,,2024-09-26,1,,,,,ワイケイパートナーズ,0
1822,9011703003973,新規,0,2024-09-26,2024-09-26,合同会社翔真設備,,合同会社,東京都,江戸川区,本一色１丁目３４番２０号,,13,123,1330044,,,,,,,2024-09-26,1,,,,,ショウシンセツビ,0
1823,9012303002052,新規,0,2024-09-26,2024-09-26,合同会社ＫＨＲ,,合同会社,東京都,町田市,中町１丁目２番５号,,13,209,1940021,,,,,,,2024-09-26,1,,,,,ケーエイチアール,0
1827,9012401042297,新規,0,2024-09-26,2024-09-26,株式会社ＴＺ,,株式会社,東京都,武蔵野市,吉祥寺東町２丁目２１番１７号,,13,203,1800002,,,,,,,2024-09-26,1,,,,,ティーゼット,0
1840,9021001083288,新規,0,2024-09-26,2024-09-26,たまエンパワー生活クラブ前戸発電株式会社,,株式会社,神奈川県,相模原市緑区,三ケ木２５０番地１カサグランデ津久井２０２,,14,151,2520159,,,,,,,2024-09-26,1,,,,,タマエンパワーセイカツクラブマエドハツデン,0
1843,9021003015033,新規,0,2024-09-26,2024-09-26,豊松合同会社,,合同会社,神奈川県,藤沢市,善行１丁目２２番５号４０３,,14,205,2510871,,,,,,,2024-09-26,1,,,,,トヨマツ,0
1851,9030001162506,新規,0,2024-09-26,2024-09-26,株式会社ｆｉｌｍｙ,,株式会社,埼玉県,所沢市,中新井３丁目２０番Ｃ－４０８号,,11,208,3590041,,,,,,,2024-09-26,1,,,,,フィルミー,0
1852,9030001162555,新規,0,2024-09-26,2024-09-26,株式会社Ｔｏｋｙｏ　Ｔｅｃｈｎｏｌｏｇｉｅｓ,,株式会社,埼玉県,戸田市,喜沢南２丁目３番２６号,,11,224,3350014,,,,,,,2024-09-26,1,,,,,トウキョウテクノロジーズ,0
1853,9030001162596,新規,0,2024-09-26,2024-09-26,エージェントリンク株式会社,,株式会社,埼玉県,さいたま市北区,日進町２丁目４２２－１０２,,11,102,3310823,,,,,,,2024-09-26,1,,,,,エージェントリンク,0
1854,9030001162613,新規,0,2024-09-26,2024-09-26,株式会社朋浩,,株式会社,埼玉県,春日部市,粕壁東５丁目５番１－３号,,11,214,3440062,,,,,,,2024-09-26,1,,,,,トモヒロ,0
1859,9030003025157,新規,0,2024-09-26,2024-09-26,旭商会合同会社,,合同会社,埼玉県,朝霞市,浜崎４丁目１番１５号,,11,227,3510033,,,,,,,2024-09-26,1,,,,,アサヒショウカイ,0
1864,9040001135477,新規,0,2024-09-26,2024-09-26,株式会社ウェストサイン,,株式会社,千葉県,柏市,塚崎１０５８番地９,,12,217,2770923,,,,,,,2024-09-26,1,,,,,ウェストサイン,0
1865,9040001135527,新規,0,2024-09-26,2024-09-26,ＣＤＸ株式会社,,株式会社,千葉県,千葉市中央区,富士見２丁目７番９号富士見ビル６０９号,,12,101,2600015,,,,,,,2024-09-26,1,,,,,,0
1875,9060001037515,新規,0,2024-09-26,2024-09-26,株式会社ブリッジワイズ,,株式会社,栃木県,栃木市,都賀町家中４６６５番地１,,09,203,3280111,,,,,,,2024-09-26,1,,,,,ブリッジワイズ,0
1879,9080001026508,新規,0,2024-09-26,2024-09-26,株式会社ＵＭＢＥＲ,,株式会社,静岡県,焼津市,石津２２５９番地の１５１,,22,212,4250041,,,,,,,2024-09-26,1,,,,,アンバー,0
1892,9110005017136,新規,0,2024-09-26,2024-09-26,一般社団法人エベレスト,,その他の設立登記法人,新潟県,上越市,大字七ケ所新田５３２番地１,,15,222,9430865,,,,,,,2024-09-26,1,,,,,エベレスト,0
1897,9120001268665,新規,0,2024-09-26,2024-09-26,株式会社星嘉ホールディングス,,株式会社,大阪府,大阪市福島区,鷺洲３丁目６番１０－６０４号,,27,103,5530002,,,,,,,2024-09-26,1,,,,,セイカホールディングス,0
1899,9120003027474,新規,0,2024-09-26,2024-09-26,合同会社ＹＴＭＫ,,合同会社,大阪府,大阪市平野区,喜連東５丁目１－４６,,27,126,5470021,,,,,,,2024-09-26,1,,,,,ワイティーエムケー,0
1903,9120901049792,新規,0,2024-09-26,2024-09-26,株式会社Ｇｅｎｔｉａ,,株式会社,大阪府,吹田市,豊津町１２－２４中村ビル（Ｒｅ：ＺＯＮＥ江坂０１）２１２号室,,27,205,5640051,,,,,,,2024-09-26,1,,,,,ジェンティア,0
1908,9140001135806,新規,0,2024-09-26,2024-09-26,Ｍ・ＵＳＥＤ株式会社,,株式会社,兵庫県,西宮市,西宮浜４丁目１０番３－２０３号,,28,204,6620934,,,,,,,2024-09-26,1,,,,,エムユーズド,0
1909,9140001135905,新規,0,2024-09-26,2024-09-26,株式会社ｃｏｒｎｆｉｅｌｄ,,株式会社,兵庫県,神戸市中央区,相生町２丁目３番９号石川ビル３階,,28,110,6500025,,,,,,,2024-09-26,1,,,,,コーンフィールド,0
1910,9140001135913,新規,0,2024-09-26,2024-09-26,ＫＡＮＳＨＩＮ株式会社,,株式会社,兵庫県,神戸市須磨区,友が丘１丁目６６番地,,28,107,6540142,,,,,,,2024-09-26,1,,,,,カンシン,0
1912,9150003003381,新規,0,2024-09-26,2024-09-26,合同会社ＲＪ,,合同会社,奈良県,生駒郡斑鳩町,服部２丁目８番１９号,,29,344,6360131,,,,,,,2024-09-26,1,,,,,アールジェイ,0
1930,9230003002301,新規,0,2024-09-26,2024-09-26,合同会社ウィズ・ケィ,,合同会社,富山県,砺波市,野村島２３０番地,,16,208,9391334,,,,,,,2024-09-26,1,,,,,ウィズケイ,0
1933,9240005015837,新規,0,2024-09-26,2024-09-26,マラナタフェローシップキリスト教会,,その他の設立登記法人,広島県,安芸郡坂町,北新地２丁目３番４０号,,34,309,7314311,,,,,,,2024-09-26,1,,,,,マラナタフェローシップキリストキョウカイ,0
1936,9260001039490,新規,0,2024-09-26,2024-09-26,株式会社Ｂｌｕｅｐｒｉｎｔ,,株式会社,岡山県,岡山市北区,中央町９番１４号５Ｆ,,33,101,7000836,,,,,,,2024-09-26,1,,,,,ブループリント,0
1939,9290003015826,新規,0,2024-09-26,2024-09-26,合同会社ＣａｒｅＮａｋａｓｈｉｍａ,,合同会社,福岡県,福岡市早良区,重留４丁目１４番２６－３号,,40,137,8111101,,,,,,,2024-09-26,1,,,,,ケアナカシマ,0
1940,9290003015859,新規,0,2024-09-26,2024-09-26,柊コンサルティング合同会社,,合同会社,福岡県,福岡市中央区,六本松３丁目１６－１６－３１１,,40,133,8100044,,,,,,,2024-09-26,1,,,,,ヒイラギコンサルティング,0
1944,9290801030902,新規,0,2024-09-26,2024-09-26,マナインターナショナル株式会社,,株式会社,福岡県,豊前市,大字八屋３２２番地２８,,40,214,8280021,,,,,,,2024-09-26,1,,,,,マナインターナショナル,0
1948,9340001026803,新規,0,2024-09-26,2024-09-26,株式会社ＥＬ,,株式会社,鹿児島県,鹿児島市,山之口町８番２０号３階,,46,201,8920844,,,,,,,2024-09-26,1,,,,,エル,0
1949,9370001051749,新規,0,2024-09-26,2024-09-26,株式会社ｌｉｖｅｌｙ,,株式会社,宮城県,仙台市青葉区,大町２丁目１１番３５号ＳｔａｒＰｌａｔｉｎｕｍ１０２,,04,101,9800804,,,,,,,2024-09-26,1,,,,,ライブリー,0
1958,9380003005859,新規,0,2024-09-26,2024-09-26,合同会社郷花,,合同会社,福島県,郡山市,富久山町久保田字郷花１９番地の２,,07,203,9638071,,,,,,,2024-09-26,1,,,,,ゴウハナ,0
1961,9390001017748,新規,0,2024-09-26,2024-09-26,アイワンホーム株式会社,,株式会社,山形県,東根市,神町東３丁目５番７８号シャトー・オリエント２１５号,,06,211,9993764,,,,,,,2024-09-26,1,,,,,アイワンホーム,0
1963,9400001016797,新規,0,2024-09-26,2024-09-26,レイダイテック株式会社,,株式会社,岩手県,北上市,大通り２丁目５番２０号,,03,206,0240061,,,,,,,2024-09-26,1,,,,,,0
1970,9430001092720,新規,0,2024-09-26,2024-09-26,株式会社エーライン,,株式会社,北海道,札幌市北区,北二十三条西６丁目１番２６号グリーンパーク２３－１０３,,01,102,0010023,,,,,,,2024-09-26,1,,,,,エーライン,0
1971,9430001092745,新規,0,2024-09-26,2024-09-26,株式会社ＲａｉＣａｉ,,株式会社,北海道,札幌市中央区,北十条西１５丁目２８番地１０６－１４０８号,,01,101,0600010,,,,,,,2024-09-26,1,,,,,ライカイ,0
1972,9430001092753,新規,0,2024-09-26,2024-09-26,株式会社ＡＺ　ＰＬＡＮＮＩＮＧ,,株式会社,北海道,札幌市中央区,南五条西３丁目１０番地,,01,101,0640805,,,,,,,2024-09-26,1,,,,,アズプランニング,0
1974,9430003016818,新規,0,2024-09-26,2024-09-26,合同会社ｚｉｇｚａｇ,,合同会社,北海道,札幌市白石区,北郷三条７丁目８－２２,,01,104,0030833,,,,,,,2024-09-26,1,,,,,ジグザク,0
1980,9460103001650,新規,0,2024-09-26,2024-09-26,合同会社クレスタ,,合同会社,北海道,帯広市,西十六条南５丁目３番地１４号キャスターヴィレッジサウスウイング１０３号室,,01,207,0800026,,,,,,,2024-09-26,1,,,,,クレスタ,0
1984,9700150074780,新規,0,2024-09-26,2016-08-01,本部町赤土等流出防止営農対策地域協議会,,その他,沖縄県,国頭郡本部町,字東５番地,,47,308,9050211,,,,,,,2016-08-01,1,,,,,モトブチヨウアカツチトウリユウシユツボウシエイノウタイサクチイキキヨウギカイ,0
