sequenceNumber,corporateNumber,process,correct,updateDate,changeDate,name,nameImageId,kind,prefectureName,cityName,streetNumber,addressImageId,prefectureCode,cityCode,postCode,addressOutside,addressOutsideImageId,closeDate,closeCause,successorCorporateNumber,changeCause,assignmentDate,latest,enName,enPrefectureName,enCityName,enAddressOutside,furigana,hihyoji
25,1010401116905,登記記録の閉鎖等,0,2021-09-08,2021-09-01,株式会社ヴェルソー,,株式会社,東京都,中央区,日本橋富沢町３番１－１２０６号,,13,102,1030006,,,2021-09-01,合併による解散等,3120002047586,令和３年９月１日東京都中央区日本橋富沢町３番１－１２０６号株式会社キトプランニング（3120002047586）に合併し解散,2015-10-05,1,,,,,ヴェルソー,0
50,1011001011109,登記記録の閉鎖等,0,2021-09-08,2021-09-01,株式会社首都圏ファイナンス,,株式会社,東京都,渋谷区,代々木１丁目３０番６号,,13,113,1510053,,,2021-09-01,清算の結了等,,,2021-08-05,1,,,,,シュトケンファイナンス,0
74,1013101007721,登記記録の閉鎖等,0,2021-09-08,2021-08-31,近藤資産管理株式会社,,株式会社,東京都,あきる野市,山田７３３番地の１,,13,228,1900144,,,2021-08-31,合併による解散等,7013101003277,令和３年８月１日東京都あきる野市山田７３３番地の１近藤醸造株式会社（7013101003277）に合併し解散,2017-11-01,1,,,,,コンドウシサンカンリ,0
80,1020001019557,登記記録の閉鎖等,0,2021-09-08,2021-09-02,株式会社ウエルネス,,株式会社,神奈川県,横浜市港北区,大曽根１丁目５番３－３３号,,14,109,2220003,,,2021-09-02,清算の結了等,,,2015-10-05,1,,,,,ウエルネス,0
85,1020001134265,登記記録の閉鎖等,0,2021-09-08,2021-09-01,のぞみ埼玉株式会社,,株式会社,神奈川県,横浜市中区,山下町２３番地日土地山下町ビル９階,,14,104,2310023,,,2021-09-01,合併による解散等,4020001086446,令和３年９月１日神奈川県横浜市中区山下町２３番地日土地山下町ビル９階のぞみ株式会社（4020001086446）に合併し解散,2020-01-06,1,,,,,ノゾミサイタマ,0
104,1030002080219,登記記録の閉鎖等,0,2021-09-08,2021-08-30,有限会社城北防水,,有限会社,埼玉県,入間郡三芳町,大字竹間沢字北側７０４番６,,11,324,3540043,,,2021-08-30,清算の結了等,,,2015-10-05,1,,,,,ジョウホクボウスイ,0
115,1050001007666,登記記録の閉鎖等,0,2021-09-08,2021-08-31,株式会社アムズプロジェクト,,株式会社,鳥取県,米子市,米原５丁目２番２５号,,31,202,6830804,,,2021-08-31,合併による解散等,8030001070643,令和３年８月３１日鳥取県米子市米原五丁目２番２５号株式会社デルパラ（8030001070643）に合併し解散,2015-10-05,1,,,,,アムズプロジェクト,0
129,1080101006086,登記記録の閉鎖等,0,2021-09-08,2021-09-01,株式会社パテントアイランド,,株式会社,静岡県,三島市,大場４４９番地,,22,206,4110803,,,2021-09-01,合併による解散等,7080101006312,令和３年９月１日静岡県三島市大場４４９番地株式会社ミロク（7080101006312）に合併し解散,2015-10-05,1,,,,,パテントアイランド,0
134,1080402003955,登記記録の閉鎖等,0,2021-09-08,2021-09-06,有限会社ズーム,,有限会社,静岡県,浜松市中区,中央１丁目３番６－４０２号,,22,131,4300929,,,2021-09-06,清算の結了等,,,2015-10-05,1,,,,,ズーム,0
138,1100001024870,登記記録の閉鎖等,0,2021-09-08,2021-09-03,株式会社アイジェット,,株式会社,長野県,塩尻市,大字片丘今泉９８２８番地２６,,20,215,3990711,,,2021-09-03,清算の結了等,,,2015-10-05,1,,,,,アイジェット,0
139,1100002026288,登記記録の閉鎖等,0,2021-09-08,2021-09-03,有限会社片瀬塗装,,有限会社,長野県,北安曇郡松川村,５７２５番地１２０,,20,482,3998501,,,2021-09-03,清算の結了等,,,2015-10-05,1,,,,,カタセトソウ,0
146,1120001161803,登記記録の閉鎖等,0,2021-09-08,2021-09-02,株式会社ヤマショウ,,株式会社,大阪府,大阪市東住吉区,照ケ丘矢田２丁目６番７号第８ルーム１１号,,27,121,5460021,,,2021-09-02,清算の結了等,,,2015-10-05,1,,,,,,0
161,1120901018004,登記記録の閉鎖等,0,2021-09-08,2021-09-07,株式会社ｌｉｋｅｌｉｋｅ,,株式会社,大阪府,吹田市,岸部中４丁目１番５号,,27,205,5640002,,,2021-09-07,清算の結了等,,,2015-10-05,1,,,,,,0
162,1120901023722,登記記録の閉鎖等,0,2021-09-08,2021-09-06,互幸商事株式会社,,株式会社,大阪府,豊中市,東豊中町２丁目５番１４号,,27,203,5600003,,,2021-09-06,清算の結了等,,,2015-10-05,1,,,,,ゴコウショウジ,0
165,1130001049213,登記記録の閉鎖等,0,2021-09-08,2021-09-03,株式会社メゾンＭ＆Ａ,,株式会社,京都府,京都市左京区,下鴨梅ノ木町５１番地,,26,103,6060851,,,2021-09-03,清算の結了等,,,2015-10-05,1,,,,,メゾンエムアンドエー,0
204,1180002069123,登記記録の閉鎖等,0,2021-09-08,2021-09-01,サトウ・オートサービス有限会社,,有限会社,愛知県,北名古屋市,久地野北浦１番地２,,23,234,4810012,,,2021-09-01,合併による解散等,9180001109153,令和３年９月１日愛知県北名古屋市久地野北浦１番地２株式会社龍穂（9180001109153）に合併し解散,2015-10-05,1,,,,,サトウオートサービス,0
207,1180003008732,登記記録の閉鎖等,0,2021-09-08,2021-09-02,合同会社ＡＰ－ＧＲＥＥＮ,,合同会社,愛知県,名古屋市中川区,伏屋４丁目１３０９番地の１,,23,110,4540996,,,2021-09-02,清算の結了等,,,2015-10-05,1,,,,,エーピーグリーン,0
215,1180301026568,登記記録の閉鎖等,0,2021-09-08,2021-09-07,株式会社インテリア和広,,株式会社,愛知県,安城市,姫小川町鹿乗１番地２鹿乗団地１６０,,23,212,4441161,,,2021-09-07,清算の結了等,,,2015-10-05,1,,,,,インテリアワコウ,0
218,1180302002717,登記記録の閉鎖等,0,2021-09-08,2021-09-07,有限会社本多襖材木工所,,有限会社,愛知県,岡崎市,東本郷町字桑ノ木３６番地,,23,202,4440945,,,2021-09-07,清算の結了等,,,2015-10-05,1,,,,,ホンダフスマザイモッコウジョ,0
250,1290001088674,登記記録の閉鎖等,0,2021-09-08,2021-08-23,ドクタークロ販売株式会社,,株式会社,福岡県,福岡市中央区,西中洲６番２７号,,40,133,8100002,,,2021-08-23,清算の結了等,,,2020-04-20,1,,,,,ドクタークロハンバイ,0
260,1290005014197,登記記録の閉鎖等,0,2021-09-08,2021-09-07,ＮＰＯ法人福岡中央福祉会クロス,,その他の設立登記法人,福岡県,福岡市城南区,鳥飼５丁目６番３８号,,40,136,8140103,,,2021-09-07,清算の結了等,,,2015-10-05,1,,,,,フクオカチュウオウフクシカイクロス,0
290,1370002000084,登記記録の閉鎖等,0,2021-09-08,2021-09-02,有限会社アステックシステム,,有限会社,宮城県,仙台市泉区,山の寺２丁目３８番２号,,04,105,9813103,,,2021-09-02,清算の結了等,,,2015-10-05,1,,,,,アステックシステム,0
294,1380001001198,登記記録の閉鎖等,0,2021-09-08,2021-09-01,株式会社半澤紙店,,株式会社,福島県,福島市,鎌田字卸町２２番地の３,,07,201,9600102,,,2021-09-01,合併による解散等,2380001017854,令和３年９月１日福島県会津若松市花畑東３番２０号丸善商事株式会社（2380001017854）に合併し解散,2015-10-05,1,,,,,ハンザワカカミテン,0
295,1380001003764,登記記録の閉鎖等,0,2021-09-08,2021-09-01,株式会社今井会計事務所,,株式会社,福島県,福島市,八木田字神明６番地の１,,07,201,9608164,,,2021-09-01,清算の結了等,,,2015-10-05,1,,,,,イマイカイケイジムショ,0
296,1380001005851,登記記録の閉鎖等,0,2021-09-08,2021-09-01,株式会社でんきの店ニツコー,,株式会社,福島県,郡山市,並木３丁目３番６号,,07,203,9638026,,,2021-09-01,清算の結了等,,,2015-10-05,1,,,,,デンキノミセニツコー,0
297,1380001013929,登記記録の閉鎖等,0,2021-09-08,2021-09-01,株式会社マルミツ建設,,株式会社,福島県,いわき市,四倉町上仁井田字南姥田８番地の１,,07,204,9790202,,,2021-09-01,合併による解散等,5380001014527,令和３年９月１日福島県いわき市四倉町上仁井田字南姥田８番地の１株式会社ファーストホーム（5380001014527）に合併し解散,2015-10-05,1,,,,,マルミツケンセツ,0
298,1380002017805,登記記録の閉鎖等,0,2021-09-08,2021-09-01,有限会社相楽建築研究室,,有限会社,福島県,白河市,北中川原１３６番地２,,07,205,9610054,,,2021-09-01,清算の結了等,,,2015-10-05,1,,,,,サガラケンチクケンキュウシツ,0
307,1420001010913,登記記録の閉鎖等,0,2021-09-08,2021-09-02,青森カンコー販売株式会社,,株式会社,青森県,弘前市,大字城東中央３丁目７番地８,,02,202,0368093,,,2021-09-02,清算の結了等,,,2015-10-05,1,,,,,アオモリカンコーハンバイ,0
319,1480002008439,登記記録の閉鎖等,0,2021-09-08,2021-09-02,有限会社三宅ビル,,有限会社,徳島県,徳島市,住吉４丁目１０番５７号,,36,201,7700861,,,2021-09-02,清算の結了等,,,2015-10-05,1,,,,,ミヤケビル,0
322,1500001013172,登記記録の閉鎖等,0,2021-09-08,2021-09-06,株式会社坂本工業,,株式会社,愛媛県,今治市,石井町３丁目４番３号,,38,202,7940006,,,2021-09-06,清算の結了等,,,2015-10-05,1,,,,,サカモトコウギョウ,0
336,2010001192172,登記記録の閉鎖等,0,2021-09-08,2021-09-03,恒耀置地株式会社,,株式会社,東京都,千代田区,霞が関３丁目２番５号,,13,101,1000013,,,2021-09-03,清算の結了等,,,2018-05-29,1,,,,,コウヨウオキチ,0
369,2010602021416,登記記録の閉鎖等,0,2021-09-08,2021-08-24,コンサルト・アイ有限会社,,有限会社,東京都,墨田区,太平２丁目７番８号栄ビル３階,,13,107,1300012,,,2021-08-24,清算の結了等,,,2015-10-05,1,,,,,コンサルトアイ,0
400,2011103006559,登記記録の閉鎖等,0,2021-09-08,2021-09-01,合同会社ｌｏｇｉｃ,,合同会社,東京都,新宿区,新宿３丁目１２番４号新宿Ｎタウンプラザ３０９号,,13,104,1600022,,,2021-09-01,清算の結了等,,,2016-10-05,1,,,,,,0
404,2011301013877,登記記録の閉鎖等,0,2021-09-08,2021-09-02,リアルＡＳＰ株式会社,,株式会社,東京都,杉並区,善福寺１丁目２４番１５号,,13,115,1670041,,,2021-09-02,清算の結了等,,,2015-10-05,1,,,,,リアルエーエスピー,0
417,2013101007720,登記記録の閉鎖等,0,2021-09-08,2021-08-31,ＫＪホールディングス株式会社,,株式会社,東京都,あきる野市,山田７３３番地の１,,13,228,1900144,,,2021-08-31,合併による解散等,7013101003277,令和３年８月１日東京都あきる野市山田７３３番地の１近藤醸造株式会社（7013101003277）に合併し解散,2017-10-30,1,,,,,ケイジェイホールディングス,0
422,2020001000680,登記記録の閉鎖等,0,2021-09-08,2021-08-25,坂本不動産株式会社,,株式会社,神奈川県,横浜市泉区,上飯田町３９８番地の７,,14,116,2450018,,,2021-08-25,清算の結了等,,,2015-10-05,1,,,,,サカモトフドウサン,0
426,2020001134264,登記記録の閉鎖等,0,2021-09-08,2021-09-01,のぞみ東神奈川株式会社,,株式会社,神奈川県,横浜市中区,山下町２３番地日土地山下町ビル９階,,14,104,2310023,,,2021-09-01,合併による解散等,4020001086446,令和３年９月１日神奈川県横浜市中区山下町２３番地日土地山下町ビル９階のぞみ株式会社（4020001086446）に合併し解散,2020-01-06,1,,,,,ノゾミヒガシカナガワ,0
449,2030001100397,登記記録の閉鎖等,0,2021-09-08,2021-08-11,株式会社ユピジビジネス,,株式会社,埼玉県,朝霞市,膝折町２丁目９朝霞膝折２－８１６,,11,227,3510014,,,2021-08-11,清算の結了等,,,2015-10-05,1,,,,,ユピジビジネス,0
453,2030002010117,登記記録の閉鎖等,0,2021-09-08,2021-08-31,有限会社長島食料品店,,有限会社,埼玉県,さいたま市北区,本郷町１０６６番地１,,11,102,3310802,,,2021-08-31,清算の結了等,,,2015-10-05,1,,,,,ナガシマショクリョウヒンテン,0
478,2080101015846,登記記録の閉鎖等,0,2021-09-08,2021-09-01,株式会社ワンタン,,株式会社,静岡県,三島市,一番町９番４１号,,22,206,4110036,,,2021-09-01,合併による解散等,3080102006208,令和３年９月１日静岡県沼津市春日町１１番地２株式会社ＤＢＳ（3080102006208）に合併し解散,2015-10-05,1,,,,,ワンタン,0
508,2140001003746,登記記録の閉鎖等,0,2021-09-08,2021-08-30,トモエ運送株式会社,,株式会社,兵庫県,神戸市灘区,新在家南町５丁目２番３号,,28,102,6570864,,,2021-08-30,清算の結了等,,,2021-06-18,1,,,,,トモエウンソウ,0
536,2180001087637,登記記録の閉鎖等,0,2021-09-08,2021-09-03,ペーパーカン株式会社,,株式会社,愛知県,江南市,村久野町寺東１３８番地,,23,217,4838319,,,2021-09-03,清算の結了等,,,2015-10-05,1,,,,,ペーパーカン,0
545,2180002037335,登記記録の閉鎖等,0,2021-09-08,2021-09-01,株式会社ハリウッド,,株式会社,愛知県,名古屋市中村区,中村本町１丁目６７番地,,23,105,4530828,,,2021-09-01,合併による解散等,1180001005442,令和３年９月１日名古屋市千種区香流橋一丁目２番９２号株式会社マルト（1180001005442）に合併し解散,2015-10-05,1,,,,,ハリウッド,0
568,2230001005155,登記記録の閉鎖等,0,2021-09-08,2021-09-02,株式会社構造技術研究所,,株式会社,富山県,富山市,下大久保１０２０番地,,16,201,9392251,,,2021-09-02,清算の結了等,,,2015-10-05,1,,,,,コウゾウギジュツケンキュウジョ,0
586,2240003002653,登記記録の閉鎖等,0,2021-09-08,2021-09-03,合同会社村上接骨はりきゅう院,,合同会社,広島県,尾道市,向島町５５４１番地９,,34,205,7220073,,,2021-09-03,清算の結了等,,,2015-10-05,1,,,,,ムラカミセッコツハリキュウイン,0
609,2290802009027,登記記録の閉鎖等,0,2021-09-08,2021-08-30,有限会社アイ・エム測量設計,,有限会社,福岡県,北九州市門司区,羽山２丁目６番１２号,,40,101,8000005,,,2021-08-30,清算の結了等,,,2015-10-05,1,,,,,,0
616,2310001016499,登記記録の閉鎖等,0,2021-09-08,2021-08-31,株式会社シアターエンターテイメント,,株式会社,長崎県,佐世保市,広田４丁目１０番１号ビレッジハウス広田５号棟４０１,,42,202,8593223,,,2021-08-31,清算の結了等,,,2020-01-15,1,,,,,シアターエンターテイメント,0
618,2310002002886,登記記録の閉鎖等,0,2021-09-08,2021-09-06,有限会社ダイケン・ホーム,,有限会社,長崎県,長崎市,鳴見町６３３番地１,,42,201,8512214,,,2021-09-06,清算の結了等,,,2015-10-05,1,,,,,ダイケンホーム,0
626,2330001024896,登記記録の閉鎖等,0,2021-09-08,2021-09-03,株式会社千寿庵本舗,,株式会社,熊本県,葦北郡芦北町,大字宮浦７４番地,,43,482,8695432,,,2021-09-03,清算の結了等,,,2018-01-15,1,,,,,センジュアンホンポ,0
648,2380002030798,登記記録の閉鎖等,0,2021-09-08,2021-08-31,有限会社ふたば薬局,,有限会社,福島県,双葉郡富岡町,大字本岡字本町２７番地１,,07,543,9791151,,,2021-08-31,清算の結了等,,,2015-10-05,1,,,,,フタバヤッキョク,0
657,2430001074279,登記記録の閉鎖等,0,2021-09-08,2021-08-31,株式会社ＤＣラボ,,株式会社,北海道,札幌市清田区,真栄四条２丁目９番１４号,,01,110,0040834,,,2021-08-31,清算の結了等,,,2017-06-07,1,,,,,デーシーラボ,0
673,3010001131047,登記記録の閉鎖等,0,2021-09-08,2021-09-02,株式会社月のひかり,,株式会社,東京都,武蔵野市,吉祥寺本町２丁目６番８号４階,,13,203,1800004,,,2021-09-02,清算の結了等,,,2015-10-05,1,,,,,ツキノヒカリ,0
690,3010005019370,登記記録の閉鎖等,0,2021-09-08,2021-09-03,印西ホールディングス一般社団法人,,その他の設立登記法人,東京都,中央区,日本橋１丁目４番１号,,13,102,1030027,,,2021-09-03,清算の結了等,,,2015-10-05,1,,,,,インザイホールディングス,0
708,3010402020030,登記記録の閉鎖等,0,2021-09-08,2021-08-31,有限会社プランニングケイ,,有限会社,東京都,港区,西麻布４丁目１１番７号,,13,103,1060031,,,2021-08-31,清算の結了等,,,2015-10-05,1,,,,,プランニングケイ,0
709,3010402024675,登記記録の閉鎖等,0,2021-09-08,2021-09-01,有限会社アンジェ,,有限会社,東京都,港区,白金台４丁目２番１０号,,13,103,1080071,,,2021-09-01,清算の結了等,,,2015-10-05,1,,,,,アンジェ,0
740,3011101066604,登記記録の閉鎖等,0,2021-09-08,2021-09-01,飛鳥ＲＥ株式会社,,株式会社,東京都,新宿区,新宿６丁目２７番４８号,,13,104,1600022,,,2021-09-01,合併による解散等,7011101040051,令和３年９月１日東京都新宿区新宿六丁目２７番４８号飛鳥ビジネスセンター株式会社（7011101040051）に合併し解散,2015-10-05,1,,,,,アスカアールイー,0
763,3020001104398,登記記録の閉鎖等,0,2021-09-08,2021-09-02,菊丸商店株式会社,,株式会社,神奈川県,横浜市中区,長者町８丁目１２５番,,14,104,2310033,,,2021-09-02,合併による解散等,1020001063282,令和３年８月１８日東京都港区六本木六丁目１番３号株式会社ＡＭＹ（1020001063282）に合併し解散,2015-10-05,1,,,,,キクマルショウテン,0
765,3020001134263,登記記録の閉鎖等,0,2021-09-08,2021-09-01,のぞみ西神奈川株式会社,,株式会社,神奈川県,横浜市中区,山下町２３番地日土地山下町ビル９階,,14,104,2310023,,,2021-09-01,合併による解散等,4020001086446,令和３年９月１日神奈川県横浜市中区山下町２３番地日土地山下町ビル９階のぞみ株式会社（4020001086446）に合併し解散,2020-01-06,1,,,,,ノゾミニシカナガワ,0
783,3030002040848,登記記録の閉鎖等,0,2021-09-08,2021-08-27,有限会社アイ・エス・ケイ,,有限会社,埼玉県,白岡市,小久喜２７５番地１３,,11,246,3490217,,,2021-08-27,清算の結了等,,,2015-10-05,1,,,,,,0
786,3040001015296,登記記録の閉鎖等,0,2021-09-08,2021-08-31,株式会社白鳥フーズ,,株式会社,千葉県,習志野市,津田沼６丁目１１番２４号,,12,216,2750016,,,2021-08-31,清算の結了等,,,2015-10-05,1,,,,,シラトリフーズ,0
806,3060003001474,登記記録の閉鎖等,0,2021-09-08,2021-09-01,合同会社柾木,,合同会社,栃木県,宇都宮市,北若松原２丁目１０番２６号,,09,201,3210153,,,2021-09-01,清算の結了等,,,2015-10-05,1,,,,,マサキ,0
882,3180001102015,登記記録の閉鎖等,0,2021-09-08,2021-09-01,株式会社デザインワークス,,株式会社,愛知県,名古屋市中区,丸の内２丁目１７番４号,,23,106,4600002,,,2021-09-01,合併による解散等,3180002052259,令和３年９月１日名古屋市中区丸の内二丁目１７番４号株式会社エストプランニング（3180002052259）に合併し解散,2015-10-05,1,,,,,デザインワークス,0
892,3180301003912,登記記録の閉鎖等,0,2021-09-08,2021-09-06,株式会社３．Ｋインターナショナル,,株式会社,愛知県,岡崎市,福岡町字宮池９番地２,,23,202,4440825,,,2021-09-06,清算の結了等,,,2015-10-05,1,,,,,スリーケーインターナショナル,0
924,3260002003435,登記記録の閉鎖等,0,2021-09-08,2021-09-06,株式会社ケイ・アイ堂薬局,,株式会社,岡山県,岡山市北区,伊福町１丁目１番６号,,33,101,7000013,,,2021-09-06,合併による解散等,5270002000140,令和３年９月１日鳥取市今町一丁目３２３番地株式会社池田薬局（5270002000140）に合併し解散,2015-10-05,1,,,,,,0
938,3290002039889,登記記録の閉鎖等,0,2021-09-08,2021-08-19,有限会社白美舎,,有限会社,福岡県,筑紫野市,石崎２丁目６番２０号,,40,217,8180068,,,2021-08-19,清算の結了等,,,2015-10-05,1,,,,,ハクビシャ,0
962,3400001015012,登記記録の閉鎖等,0,2021-09-08,2021-09-06,株式会社ＺＥＨＩ,,株式会社,岩手県,盛岡市,中央通３丁目１４番４－５０７号,,03,201,0200021,,,2021-09-06,清算の結了等,,,2020-04-24,1,,,,,ゼヒ,0
972,3430002006651,登記記録の閉鎖等,0,2021-09-08,2021-08-30,有限会社クリーンスペース,,有限会社,北海道,札幌市南区,常盤四条２丁目５番１６号,,01,106,0050854,,,2021-08-30,清算の結了等,,,2015-10-05,1,,,,,クリーンスペース,0
974,3430005010535,登記記録の閉鎖等,0,2021-09-08,2021-08-30,特定非営利活動法人北海道有機農業研究協議会,,その他の設立登記法人,北海道,札幌市中央区,北二条西１丁目１０番地ピア２・１　５階,,01,101,0600002,,,2021-08-30,清算の結了等,,,2015-10-05,1,,,,,ホッカイドウユウキノウギョウケンキュウキョウギカイ,0
987,4010001090408,登記記録の閉鎖等,0,2021-09-08,2021-09-01,ヤマトマネージメントサービス株式会社,,株式会社,東京都,中央区,銀座２丁目１６番７号,,13,102,1040061,,,2021-09-01,合併による解散等,1010001092605,令和３年９月１日東京都中央区銀座二丁目１６番１０号ヤマト運輸株式会社（1010001092605）に合併し解散,2015-10-05,1,,,,,ヤマトマネージメントサービス,0
996,4010001181009,登記記録の閉鎖等,0,2021-09-08,2021-09-03,株式会社Ｏｒａｎｇｅ　Ｊａｐａｎ,,株式会社,東京都,中央区,築地５丁目４番１９号４０３,,13,102,1040045,,,2021-09-03,清算の結了等,,,2017-01-25,1,,,,,オレンジジャパン,0
1011,4010401081527,登記記録の閉鎖等,0,2021-09-08,2021-08-31,シックス株式会社,,株式会社,東京都,港区,西麻布１丁目１１番１０号,,13,103,1060031,,,2021-08-31,清算の結了等,,,2015-10-05,1,,,,,シックス,0
1024,4010402018040,登記記録の閉鎖等,0,2021-09-08,2021-08-31,有限会社六本木飲食店協会,,有限会社,東京都,港区,赤坂６丁目１５番１－６０３号,,13,103,1070052,,,2021-08-31,清算の結了等,,,2015-10-05,1,,,,,ロッポンギインショクテンキョウカイ,0
1026,4010403013610,登記記録の閉鎖等,0,2021-09-08,2021-09-01,合同会社西切間,,合同会社,東京都,港区,虎ノ門１丁目２番８号リニューアブル・ジャパン株式会社内,,13,103,1050001,,,2021-09-01,清算の結了等,,,2015-10-05,1,,,,,ニシキリマ,0
1028,4010405012684,登記記録の閉鎖等,0,2021-09-08,2021-08-31,一般社団法人ロケーション・エンタテインメント学会,,その他の設立登記法人,東京都,港区,愛宕１丁目３番４号,,13,103,1050002,,,2021-08-31,清算の結了等,,,2015-10-05,1,,,,,ロケーションエンタテインメントガッカイ,0
1046,4010902015041,登記記録の閉鎖等,0,2021-09-08,2021-09-02,有限会社村木興産,,有限会社,東京都,世田谷区,成城２丁目１２番７号,,13,112,1570066,,,2021-09-02,清算の結了等,,,2015-10-05,1,,,,,ムラキコウサン,0
1058,4011201020344,登記記録の閉鎖等,0,2021-09-08,2021-09-01,株式会社Ｊ＆Ｋオフィス,,株式会社,東京都,中野区,野方４丁目４０番１０号,,13,114,1650027,,,2021-09-01,清算の結了等,,,2017-12-21,1,,,,,ジェイアンドケイオフィス,0
1066,4011602000060,登記記録の閉鎖等,0,2021-09-08,2021-09-03,有限会社大陽工業,,有限会社,東京都,練馬区,南大泉２丁目４番６号,,13,120,1780064,,,2021-09-03,清算の結了等,,,2015-10-05,1,,,,,タイヨウコウギョウ,0
1111,4040002074877,登記記録の閉鎖等,0,2021-09-08,2021-08-26,有限会社平野畜産,,有限会社,千葉県,市原市,石神１２８４番地,,12,219,2900534,,,2021-08-26,清算の結了等,,,2015-10-05,1,,,,,ヒラノチクサン,0
1119,4060002026307,登記記録の閉鎖等,0,2021-09-08,2021-08-31,有限会社朝野建設,,有限会社,栃木県,大田原市,黒羽向町８６８番地,,09,210,3240241,,,2021-08-31,清算の結了等,,,2015-10-05,1,,,,,,0
1129,4080101000739,登記記録の閉鎖等,0,2021-09-08,2021-09-01,静岡日東エース株式会社,,株式会社,静岡県,沼津市,大岡５８６番地の１８,,22,203,4100022,,,2021-09-01,清算の結了等,,,2015-10-05,1,,,,,シズオカニットウエース,0
1141,4120001133312,登記記録の閉鎖等,0,2021-09-08,2021-09-01,株式会社コンセプト,,株式会社,大阪府,大阪市北区,堂島浜１丁目１番１５号,,27,127,5300004,,,2021-09-01,合併による解散等,4120001061463,令和３年９月１日大阪市北区堂島浜一丁目１番１５号株式会社エンテック（4120001061463）に合併し解散,2015-10-05,1,,,,,コンセプト,0
1148,4120002021887,登記記録の閉鎖等,0,2021-09-08,2021-09-01,有限会社さつま,,有限会社,大阪府,大阪市西区,立売堀３丁目８番１４号,,27,106,5500012,,,2021-09-01,清算の結了等,,,2015-10-05,1,,,,,サツマ,0
1155,4120101022480,登記記録の閉鎖等,0,2021-09-08,2021-09-06,ヒュー・コム株式会社,,株式会社,大阪府,堺市堺区,南三国ヶ丘町１丁６番１１号,,27,141,5900023,,,2021-09-06,清算の結了等,,,2015-10-05,1,,,,,ヒューコム,0
1164,4122001029432,登記記録の閉鎖等,0,2021-09-08,2021-09-01,株式会社エムシーツール,,株式会社,大阪府,東大阪市,長田西４丁目２番３号,,27,227,5770016,,,2021-09-01,合併による解散等,2122001001079,令和３年９月１日大阪府東大阪市長田西四丁目２番３号株式会社エム・ティ・エス（2122001001079）に合併し解散,2016-03-25,1,,,,,エムシーツール,0
1168,4130001058871,登記記録の閉鎖等,0,2021-09-08,2021-09-06,三商株式会社,,株式会社,京都府,京都市上京区,寺町通鞍馬口下る高徳寺町３５８番地,,26,102,6020801,,,2021-09-06,清算の結了等,,,2016-12-15,1,,,,,サンショウ,0
1195,4180002017038,登記記録の閉鎖等,0,2021-09-08,2021-09-02,有限会社森製本所,,有限会社,愛知県,名古屋市東区,徳川１丁目７３６番地,,23,102,4610025,,,2021-09-02,清算の結了等,,,2015-10-05,1,,,,,モリセイホンジョ,0
1209,4190002013936,登記記録の閉鎖等,0,2021-09-08,2021-09-06,城北自工有限会社,,有限会社,三重県,松阪市,山室町１１３３番地６,,24,204,5150052,,,2021-09-06,清算の結了等,,,2015-10-05,1,,,,,ジョウホクジコウ,0
1248,4290002032439,登記記録の閉鎖等,0,2021-09-08,2021-08-19,有限会社ＣＥＡＳ,,有限会社,福岡県,福岡市博多区,博多駅前４丁目１１番１８号,,40,132,8120011,,,2021-08-19,合併による解散等,9290001044926,令和３年７月３１日福岡市中央区大手門三丁目３番１４号株式会社サンラインズ（9290001044926）に合併し解散,2015-10-05,1,,,,,シーズ,0
1261,4300005003360,登記記録の閉鎖等,0,2021-09-08,2021-09-01,立野川内生産森林組合,,その他の設立登記法人,佐賀県,武雄市,山内町大字宮野２５３７５番地３,,41,206,8492305,,,2021-09-01,清算の結了等,,,2015-10-05,1,,,,,タテノカワチ,0
1279,4370001025550,登記記録の閉鎖等,0,2021-09-08,2021-09-06,株式会社セルサイエンス,,株式会社,宮城県,仙台市青葉区,芋沢字権現森山８２－１６,,04,101,9893212,,,2021-09-06,合併による解散等,5370001042925,令和３年９月１日東京都品川区大崎３－２０－１０株式会社ボルドバイオテクノロジー（5370001042925）に合併し解散,2015-10-05,1,,,,,セルサイエンス,0
1295,4430001053347,登記記録の閉鎖等,0,2021-09-08,2021-09-01,東興交通株式会社,,株式会社,北海道,苫小牧市,日吉町２丁目８番４号,,01,213,0530816,,,2021-09-01,清算の結了等,,,2015-10-05,1,,,,,トウコウコウツウ,0
1296,4430001059419,登記記録の閉鎖等,0,2021-09-08,2021-08-31,ジェイサップ株式会社,,株式会社,北海道,札幌市清田区,真栄四条２丁目９番１４号,,01,110,0040834,,,2021-08-31,清算の結了等,,,2015-10-05,1,,,,,ジェイサップ,0
1302,4430002060375,登記記録の閉鎖等,0,2021-09-08,2021-08-31,有限会社ライフサービス,,有限会社,北海道,苫小牧市,日吉町３丁目１４番１３号,,01,213,0530816,,,2021-08-31,清算の結了等,,,2015-10-05,1,,,,,ライフサービス,0
1307,4490002012016,登記記録の閉鎖等,0,2021-09-08,2021-09-03,有限会社吉本交通,,有限会社,高知県,南国市,大埇甲１９１３番地２,00006818,39,204,7830004,,,2021-09-03,清算の結了等,,,2015-10-05,1,,,,,ヨシモトコウツウ,0
1309,4490003000564,登記記録の閉鎖等,0,2021-09-08,2021-09-06,ＴＤＢ合同会社,,合同会社,高知県,土佐市,高岡町丙３２３番地５,,39,205,7811103,,,2021-09-06,清算の結了等,,,2015-10-05,1,,,,,,0
1314,4500002010736,登記記録の閉鎖等,0,2021-09-08,2021-09-06,有限会社東陸送,,有限会社,愛媛県,伊予郡砥部町,大南１１０２番地２,,38,402,7912132,,,2021-09-06,清算の結了等,,,2015-10-05,1,,,,,アズマリクソウ,0
1323,5010003030856,登記記録の閉鎖等,0,2021-09-08,2021-08-31,合同会社ひだうし,,合同会社,東京都,中央区,日本橋１丁目４番１号,,13,102,1030027,,,2021-08-31,清算の結了等,,,2019-10-11,1,,,,,ヒダウシ,0
1327,5010102006633,登記記録の閉鎖等,0,2021-09-08,2021-09-02,美鈴商事有限会社,,有限会社,東京都,八王子市,北野町３９番地の１,,13,201,1920906,,,2021-09-02,清算の結了等,,,2015-10-05,1,,,,,ミスズショウジ,0
1392,5020001121367,登記記録の閉鎖等,0,2021-09-08,2021-09-02,株式会社ＪＴＫ,,株式会社,神奈川県,横浜市神奈川区,二ツ谷町９番地４,,14,102,2210823,,,2021-09-02,合併による解散等,1020001063282,令和３年８月１８日東京都港区六本木六丁目１番３号株式会社ＡＭＹ（1020001063282）に合併し解散,2017-05-17,1,,,,,ジェイティーケー,0
1398,5020005012439,登記記録の閉鎖等,0,2021-09-08,2021-09-02,一般社団法人生きる,,その他の設立登記法人,神奈川県,横浜市旭区,笹野台２丁目３番１４号,,14,112,2410816,,,2021-09-02,清算の結了等,,,2016-01-08,1,,,,,イキル,0
1401,5021001045440,登記記録の閉鎖等,0,2021-09-08,2021-08-30,株式会社平敏丸漁業,,株式会社,神奈川県,横須賀市,佐島２丁目４番１号,,14,201,2400103,,,2021-08-30,清算の結了等,,,2015-10-05,1,,,,,ヒラトシマルギョギョウ,0
1412,5030001043635,登記記録の閉鎖等,0,2021-09-08,2021-08-30,株式会社ｓａｉｎｏ　ｍｕｓｉｃ　ｓｃｈｏｏｌ,,株式会社,埼玉県,桶川市,末広２丁目４－２０,,11,231,3630012,,,2021-08-30,清算の結了等,,,2015-10-05,1,,,,,サイノオミュージックスクール,0
1417,5030002087805,登記記録の閉鎖等,0,2021-09-08,2021-09-01,有限会社富士見世商店,,有限会社,埼玉県,越谷市,大字西新井６６３番地１,,11,222,3430855,,,2021-09-01,清算の結了等,,,2015-10-05,1,,,,,フジミセショウテン,0
1422,5030003013487,登記記録の閉鎖等,0,2021-09-08,2021-08-30,合同会社ＭＴ,,合同会社,埼玉県,さいたま市大宮区,桜木町２丁目３２８－２ロケットビル３階,,11,103,3300854,,,2021-08-30,清算の結了等,,,2019-05-08,1,,,,,エムティー,0
1424,5030005018286,登記記録の閉鎖等,0,2021-09-08,2021-08-26,ＮＰＯ法人Ｊ．Ｂ．ハウス,,その他の設立登記法人,埼玉県,熊谷市,宮本町７７番地１セントラルハイツ熊谷８０８,,11,202,3600822,,,2021-08-26,清算の結了等,,,2017-01-06,1,,,,,,0
1445,5080001008344,登記記録の閉鎖等,0,2021-09-08,2021-09-06,株式会社松栄,,株式会社,静岡県,静岡市清水区,中之郷２丁目４番１８号,,22,103,4240888,,,2021-09-06,清算の結了等,,,2015-10-05,1,,,,,ショウエイ,0
1479,5120901021953,登記記録の閉鎖等,0,2021-09-08,2021-09-06,豊進建設株式会社,,株式会社,大阪府,箕面市,西宿３丁目８番１０号,,27,220,5620034,,,2021-09-06,清算の結了等,,,2015-10-05,1,,,,,トヨシンケンセツ,0
1488,5140001012637,登記記録の閉鎖等,0,2021-09-08,2021-09-03,オー・エス観光株式会社,,株式会社,兵庫県,神戸市兵庫区,駅前通１丁目２番１４号,,28,105,6520898,,,2021-09-03,清算の結了等,,,2015-10-05,1,,,,,オーエスカンコウ,0
1507,5180003017531,登記記録の閉鎖等,0,2021-09-08,2021-09-02,山デザインルーム合同会社,,合同会社,愛知県,犬山市,大字犬山字西古券２８番地１,,23,215,4840085,,,2021-09-02,清算の結了等,,,2016-11-29,1,,,,,ヤマデザインルーム,0
1512,5180301027736,登記記録の閉鎖等,0,2021-09-08,2021-09-03,株式会社創光,,株式会社,愛知県,岡崎市,大門２丁目１３番地１０,,23,202,4442135,,,2021-09-03,清算の結了等,,,2015-10-05,1,,,,,ソウコウ,0
1513,5180302010443,登記記録の閉鎖等,0,2021-09-08,2021-09-06,有限会社陽華楼飯店,,有限会社,愛知県,豊橋市,下五井町捨田７番地,,23,201,4400091,,,2021-09-06,清算の結了等,,,2015-10-05,1,,,,,ヨウカロウハンテン,0
1514,5180302012720,登記記録の閉鎖等,0,2021-09-08,2021-09-03,葵精機有限会社,,有限会社,愛知県,豊川市,美園３丁目３番地４,,23,207,4410106,,,2021-09-03,清算の結了等,,,2015-10-05,1,,,,,アオイセイキ,0
1516,5180303004064,登記記録の閉鎖等,0,2021-09-08,2021-09-03,合同会社西蔵前接骨院,,合同会社,愛知県,岡崎市,西蔵前町字新屋敷７番地１２,,23,202,4442147,,,2021-09-03,清算の結了等,,,2018-05-07,1,,,,,ニシクラマエセッコツイン,0
1517,5180303004254,登記記録の閉鎖等,0,2021-09-08,2021-09-06,合同会社Ｓ－ｏｆｆｉｃｅ,,合同会社,愛知県,額田郡幸田町,大字大草字馬場８７番地１,,23,501,4440103,,,2021-09-06,清算の結了等,,,2019-01-30,1,,,,,エスオフィス,0
1521,5200005007404,登記記録の閉鎖等,0,2021-09-08,2021-09-06,特定非営利活動法人御嵩町葦の会,,その他の設立登記法人,岐阜県,可児郡御嵩町,御嵩１６０番地,,21,521,5050116,,,2021-09-06,清算の結了等,,,2015-10-05,1,,,,,ミタケチョウアシノカイ,0
1539,5290001001906,登記記録の閉鎖等,0,2021-09-08,2021-08-20,西日本ポリマー産業株式会社,,株式会社,福岡県,福岡市博多区,金の隈３丁目１０番７号,,40,132,8120863,,,2021-08-20,清算の結了等,,,2015-10-05,1,,,,,ニシニホンポリマーサンギョウカブシキガイシャ,0
1548,5290002050489,登記記録の閉鎖等,0,2021-09-08,2021-08-23,有限会社造型社,,有限会社,福岡県,久留米市,城島町楢津８８１番地の１,,40,203,8300211,,,2021-08-23,清算の結了等,,,2015-10-05,1,,,,,ゾウケイシャ,0
1558,5310001006869,登記記録の閉鎖等,0,2021-09-08,2021-09-01,株式会社ハルフードシステム,,株式会社,長崎県,佐世保市,卸本町１６番２号,,42,202,8571162,,,2021-09-01,合併による解散等,1310001014157,令和３年９月１日長崎県佐世保市卸本町１６番地２株式会社庄屋フードシステム（1310001014157）に合併し解散,2015-10-05,1,,,,,ハルフードシステム,0
1579,5370501000176,登記記録の閉鎖等,0,2021-09-08,2021-09-01,気仙沼小型運送株式会社,,株式会社,宮城県,気仙沼市,河原田２丁目１番１６号,,04,205,9880022,,,2021-09-01,清算の結了等,,,2015-10-05,1,,,,,ケセンヌマコガタウンソウ,0
1584,5390001002084,登記記録の閉鎖等,0,2021-09-08,2021-09-02,株式会社山形県農協保養所,,株式会社,山形県,山形市,七日町３丁目１番１６号,,06,201,9900042,,,2021-09-02,清算の結了等,,,2015-10-05,1,,,,,ヤマガタケンノウキョウホヨウジョ,0
1592,5420002003771,登記記録の閉鎖等,0,2021-09-08,2021-09-03,有限会社佐藤建築事務所,,有限会社,青森県,青森市,大字浦町字奥野８２番地７,,02,201,0300842,,,2021-09-03,清算の結了等,,,2015-10-05,1,,,,,サトウケンチクジムショ,0
1596,5430001071034,登記記録の閉鎖等,0,2021-09-08,2021-09-06,株式会社ホームドクター,,株式会社,北海道,北広島市,大曲緑ヶ丘４丁目１２番地１７,,01,234,0611276,,,2021-09-06,清算の結了等,,,2016-03-07,1,,,,,ホームドクター,0
1604,5460001000287,登記記録の閉鎖等,0,2021-09-08,2021-09-06,株式会社川島商店,,株式会社,北海道,釧路市,鶴ケ岱３丁目１０番１２号,,01,206,0850821,,,2021-09-06,清算の結了等,,,2015-10-05,1,,,,,カワシマショウテン,0
1643,6010005032949,登記記録の閉鎖等,0,2021-09-08,2021-09-03,作東ソーラー一般社団法人,,その他の設立登記法人,東京都,千代田区,丸の内３丁目１番１号東京共同会計事務所内,,13,101,1000005,,,2021-09-03,清算の結了等,,,2021-02-17,1,,,,,サクトウソーラー,0
1686,6010901039122,登記記録の閉鎖等,0,2021-09-08,2021-08-31,デリフランス・ジャパン株式会社,,株式会社,東京都,港区,赤坂２丁目１１番７号ＡＴＴ新館１１階ＭａｚａｒｓＪａｐａｎ株式会社内,,13,103,1070052,,,2021-08-31,清算の結了等,,,2016-11-24,1,,,,,デリフランスジャパン,0
1692,6011001028370,登記記録の閉鎖等,0,2021-09-08,2021-08-23,インターナショナル・カード・システム株式会社,,株式会社,東京都,渋谷区,渋谷３丁目２９番１０号,,13,113,1500002,,,2021-08-23,清算の結了等,,,2015-10-05,1,,,,,インターナショナルカードシステム,0
1766,6040002071757,登記記録の閉鎖等,0,2021-09-08,2021-09-01,有限会社千葉ワークシップ,,有限会社,千葉県,君津市,人見１５９３番地５４,,12,225,2991147,,,2021-09-01,清算の結了等,,,2015-10-05,1,,,,,チバワークシップ,0
1796,6100001024684,登記記録の閉鎖等,0,2021-09-08,2021-09-06,トラベルマルシェ株式会社,,株式会社,長野県,安曇野市,明科中川手３６１０－７,,20,220,3997102,,,2021-09-06,清算の結了等,,,2015-10-05,1,,,,,トラベルマルシェ,0
1802,6110002024476,登記記録の閉鎖等,0,2021-09-08,2021-09-01,有限会社レジポートいわふち,,有限会社,新潟県,上越市,頸城区望ケ丘１２５０番地の１４,,15,222,9420138,,,2021-09-01,清算の結了等,,,2015-10-05,1,,,,,レジポートイワフチ,0
1821,6120003018690,登記記録の閉鎖等,0,2021-09-08,2021-08-26,合同会社ファイブスターアセットマネジメント大阪,,合同会社,大阪府,大阪市北区,梅田１丁目２－２－２００大阪駅前第２ビル２階３の１の２,,27,127,5300001,,,2021-08-26,清算の結了等,,,2021-01-12,1,,,,,ファイブスターアセットマネジメントオオサカ,0
1838,6140001023170,登記記録の閉鎖等,0,2021-09-08,2021-09-03,福泉工業株式会社,,株式会社,兵庫県,神戸市西区,学園東町３丁目６５９番地７３,,28,111,6512102,,,2021-09-03,清算の結了等,,,2015-10-05,1,,,,,フクセンコウギョウ,0
1871,6190002012787,登記記録の閉鎖等,0,2021-09-08,2021-09-03,有限会社松田和装,,有限会社,三重県,伊賀市,妙楽地６４１番地,,24,216,5180202,,,2021-09-03,清算の結了等,,,2021-04-23,1,,,,,マツダワソウ,0
1877,6230001007503,登記記録の閉鎖等,0,2021-09-08,2021-09-01,株式会社島田工務店,,株式会社,富山県,下新川郡入善町,板屋７６番地,,16,342,9390654,,,2021-09-01,清算の結了等,,,2015-10-05,1,,,,,シマダコウムテン,0
1896,6270003001070,登記記録の閉鎖等,0,2021-09-08,2021-08-31,合同会社にじいろぐるーぷ,,合同会社,鳥取県,境港市,渡町８７８番地３,,31,204,6840072,,,2021-08-31,清算の結了等,,,2018-06-18,1,,,,,ニジイログループ,0
1906,6290001089668,登記記録の閉鎖等,0,2021-09-08,2021-08-31,株式会社高橋商店,,株式会社,福岡県,太宰府市,宰府２丁目６番１６号,,40,221,8180117,,,2021-08-31,合併による解散等,6290001038237,令和３年８月３１日福岡県糟屋郡宇美町神武原二丁目５番１７号株式会社小林食品（6290001038237）に合併し解散,2020-07-22,1,,,,,タカハシショウテン,0
1924,6300001010549,登記記録の閉鎖等,0,2021-09-08,2021-09-02,株式会社ＹＳＹ,,株式会社,佐賀県,佐賀市,大財４丁目５番８４　３０６号,,41,201,8400811,,,2021-09-02,清算の結了等,,,2016-11-07,1,,,,,,0
1929,6320001006470,登記記録の閉鎖等,0,2021-09-08,2021-09-02,株式会社花菱ホテル,,株式会社,大分県,別府市,北浜２丁目１４番２９号,,44,202,8740920,,,2021-09-02,清算の結了等,,,2015-10-05,1,,,,,ハナビシホテル,0
1937,6330002027630,登記記録の閉鎖等,0,2021-09-08,2021-09-03,球磨吉工業有限会社,,有限会社,熊本県,葦北郡芦北町,大字道川内７２番地１,,43,482,8695451,,,2021-09-03,清算の結了等,,,2015-10-05,1,,,,,クマヨシコウギョウ,0
1959,6410002012780,登記記録の閉鎖等,0,2021-09-08,2021-09-02,有限会社ムラショウ,,有限会社,秋田県,仙北市,田沢湖生保内字小先達１６番地の５,,05,215,0141201,,,2021-09-02,清算の結了等,,,2015-10-05,1,,,,,ムラショウ,0
1967,6460001005574,登記記録の閉鎖等,0,2021-09-08,2021-08-31,双葉建設株式会社,,株式会社,北海道,釧路市,春採４丁目１１番４号,,01,206,0850813,,,2021-08-31,清算の結了等,,,2021-07-27,1,,,,,フタバケンセツ,0
1990,7010003028130,登記記録の閉鎖等,0,2021-09-08,2021-09-01,合同会社北本プロジェクト,,合同会社,東京都,千代田区,有楽町２丁目１０番１号株式会社アセットソリューション内,,13,101,1000006,,,2021-09-01,合併による解散等,2010003027418,令和３年９月１日東京都千代田区有楽町二丁目１０番１号株式会社アセットソリューション内株式会社ＡＳインベスト（2010003027418）に合併し解散,2018-08-20,1,,,,,キタモトプロジェクト,0
1994,7010005014640,登記記録の閉鎖等,0,2021-09-08,2021-09-02,ＫＳビルキャピタル特定目的会社,,その他の設立登記法人,東京都,千代田区,内神田２丁目２番６号５階あすな会計事務所内,,13,101,1010047,,,2021-09-02,清算の結了等,,,2015-10-05,1,,,,,ケイエスビルキャピタル,0
1995,7010005019326,登記記録の閉鎖等,0,2021-09-08,2021-09-03,堺ホールディングス一般社団法人,,その他の設立登記法人,東京都,中央区,日本橋１丁目４番１号,,13,102,1030027,,,2021-09-03,清算の結了等,,,2015-10-05,1,,,,,サカイホールディングス,0
2005,7010403021593,登記記録の閉鎖等,0,2021-09-08,2021-08-30,合同会社アインソフト研究所,,合同会社,東京都,港区,浜松町２丁目２番１５号,,13,103,1050013,,,2021-08-30,清算の結了等,,,2019-10-09,1,,,,,アインソフトケンキュウジョ,0
2011,7010502014688,登記記録の閉鎖等,0,2021-09-08,2021-09-03,有限会社堀友,,有限会社,東京都,台東区,北上野２丁目１８番１号,,13,106,1100014,,,2021-09-03,清算の結了等,,,2015-10-05,1,,,,,ホリトモ,0
2014,7010703000280,登記記録の閉鎖等,0,2021-09-08,2021-09-06,合資会社惠比寿湯,,合資会社,東京都,品川区,荏原４丁目５番８－８０２号,,13,109,1420063,,,2021-09-06,清算の結了等,,,2015-10-05,1,,,,,エビスユ,0
2022,7011001060034,登記記録の閉鎖等,0,2021-09-08,2021-09-03,アヴォリン・ジャパン株式会社,,株式会社,東京都,千代田区,霞が関３丁目２番５号隼あすか法律事務所気付,,13,101,1000013,,,2021-09-03,清算の結了等,,,2015-10-05,1,,,,,アヴォリンジャパン,0
2026,7011001111258,登記記録の閉鎖等,0,2021-09-08,2021-08-24,Ａ＆Ｓ高島屋デューティーフリー株式会社,00106912,株式会社,東京都,渋谷区,千駄ヶ谷５丁目１７番１４号,,13,113,1510051,,,2021-08-24,清算の結了等,,,2016-06-06,1,,,,,エーアンドエスタカシマヤデューティーフリー,0
2052,7012402019701,登記記録の閉鎖等,0,2021-09-08,2021-09-02,有限会社ますかわ,,有限会社,東京都,三鷹市,新川４丁目７番１２号,,13,204,1810004,,,2021-09-02,清算の結了等,,,2015-10-05,1,,,,,マスカワ,0
2105,7040002052434,登記記録の閉鎖等,0,2021-09-08,2021-09-01,有限会社夢叶,,有限会社,千葉県,流山市,江戸川台東３丁目６番地２,,12,220,2700111,,,2021-09-01,合併による解散等,2040002051325,令和３年９月１日千葉県流山市江戸川台東二丁目３１番地株式会社カドヤインベストメント（2040002051325）に合併し解散,2015-10-05,1,,,,,ユメカ,0
2106,7040002068034,登記記録の閉鎖等,0,2021-09-08,2021-08-31,有限会社ラーメン富士屋,,有限会社,千葉県,木更津市,清見台東２丁目２番１５号,,12,206,2920041,,,2021-08-31,清算の結了等,,,2015-10-05,1,,,,,,0
2107,7040003013427,登記記録の閉鎖等,0,2021-09-08,2021-09-01,合同会社新樹,,合同会社,千葉県,柏市,千代田１丁目６番５－６０５号,,12,217,2770025,,,2021-09-01,清算の結了等,,,2019-05-29,1,,,,,アラギ,0
2116,7060001030240,登記記録の閉鎖等,0,2021-09-08,2021-08-31,株式会社アルバ,,株式会社,栃木県,小山市,大字萱橋４３３番地１,,09,208,3230804,,,2021-08-31,合併による解散等,2050001032548,令和３年８月２３日茨城県結城市大字小田林字立ノ山２６５７番地の２株式会社新榮電設工業（2050001032548）に合併し解散,2018-02-14,1,,,,,,0
2121,7070002006445,登記記録の閉鎖等,0,2021-09-08,2021-09-01,有限会社創研,,有限会社,群馬県,前橋市,富士見町山口甲１１２番地１,,10,201,3710107,,,2021-09-01,清算の結了等,,,2015-10-05,1,,,,,ソウケン,0
2128,7080401011689,登記記録の閉鎖等,0,2021-09-08,2021-09-06,株式会社プラス,,株式会社,静岡県,浜松市中区,茄子町３５５番地の１,,22,131,4300912,,,2021-09-06,清算の結了等,,,2015-10-05,1,,,,,プラス,0
2131,7090002002764,登記記録の閉鎖等,0,2021-09-08,2021-09-02,有限会社古屋建築工業,,有限会社,山梨県,甲府市,青葉町８番３号,,19,201,4000828,,,2021-09-02,清算の結了等,,,2015-10-05,1,,,,,,0
2170,7130005007698,登記記録の閉鎖等,0,2021-09-08,2021-08-30,特定非営利活動法人丹波ネット,,その他の設立登記法人,京都府,南丹市,日吉町上胡麻広野８６番地２,,26,213,6290312,,,2021-08-30,清算の結了等,,,2015-10-05,1,,,,,タンバネット,0
2179,7140002003286,登記記録の閉鎖等,0,2021-09-08,2021-09-01,有限会社鮨七福,,有限会社,兵庫県,神戸市灘区,篠原南町５丁目５番３号,,28,102,6570059,,,2021-09-01,清算の結了等,,,2015-10-05,1,,,,,スシシチフク,0
2190,7160002009728,登記記録の閉鎖等,0,2021-09-08,2021-09-07,有限会社飛永書店,,有限会社,滋賀県,東近江市,能登川町８５番地,,25,213,5211231,,,2021-09-07,清算の結了等,,,2015-10-05,1,,,,,トビナガショテン,0
2193,7180001077996,登記記録の閉鎖等,0,2021-09-08,2021-09-01,株式会社アイティー企画,,株式会社,愛知県,春日井市,西山町１５９９番地２０８,,23,206,4860803,,,2021-09-01,清算の結了等,,,2015-10-05,1,,,,,アイティーキカク,0
2200,7180001119105,登記記録の閉鎖等,0,2021-09-08,2021-09-02,株式会社クレアヴァンス,,株式会社,愛知県,名古屋市中川区,松年町３丁目５０,,23,110,4540854,,,2021-09-02,清算の結了等,,,2015-10-05,1,,,,,,0
2208,7180002049425,登記記録の閉鎖等,0,2021-09-08,2021-09-02,有限会社ライフテック,,有限会社,愛知県,名古屋市中川区,上高畑１丁目７５番地,,23,110,4540873,,,2021-09-02,清算の結了等,,,2015-10-05,1,,,,,,0
2219,7200005012600,登記記録の閉鎖等,0,2021-09-08,2021-09-02,一般社団法人ストレッチ骨盤背骨調整協会,,その他の設立登記法人,岐阜県,岐阜市,黒野４７１番地１,,21,201,5011131,,,2021-09-02,清算の結了等,,,2017-01-20,1,,,,,ストレッチコツバンセボネチョウセイキョウカイ,0
2221,7220002011280,登記記録の閉鎖等,0,2021-09-08,2021-09-02,有限会社ムロタ,,有限会社,石川県,小松市,白松町３番地１３,,17,203,9230814,,,2021-09-02,清算の結了等,,,2015-10-05,1,,,,,ムロタ,0
2242,7260001025674,登記記録の閉鎖等,0,2021-09-08,2021-09-06,株式会社新見庄あしだち本店,,株式会社,岡山県,新見市,足立３８９３番地,,33,210,7180006,,,2021-09-06,清算の結了等,,,2015-10-05,1,,,,,ニイミノショウアシダチホンテン,0
2253,7290001090781,登記記録の閉鎖等,0,2021-09-08,2021-08-24,株式会社三建工,,株式会社,福岡県,春日市,白水ヶ丘４丁目１０１番地,,40,218,8160845,,,2021-08-24,清算の結了等,,,2020-11-09,1,,,,,サンケンコウ,0
2269,7320001002683,登記記録の閉鎖等,0,2021-09-08,2021-09-03,株式会社メイゾンホーム,,株式会社,大分県,大分市,明野高尾３丁目１番１号,,44,201,8700162,,,2021-09-03,清算の結了等,,,2016-11-21,1,,,,,メイゾンホーム,0
2310,7480002010018,登記記録の閉鎖等,0,2021-09-08,2021-09-01,有限会社猪井工務店,,有限会社,徳島県,吉野川市,鴨島町西麻植字新田８３番地４,,36,205,7760020,,,2021-09-01,清算の結了等,,,2015-10-05,1,,,,,イノイコウムテン,0
2316,8010001109377,登記記録の閉鎖等,0,2021-09-08,2021-09-01,株式会社ＧＰＭパートナーズ,,株式会社,東京都,千代田区,永田町２丁目１７番１０－６０２号,,13,101,1000014,,,2021-09-01,清算の結了等,,,2015-10-05,1,,,,,ジーピーエムパートナーズ,0
2318,8010001198800,登記記録の閉鎖等,0,2021-09-08,2021-09-06,優佳株式会社,,株式会社,東京都,中央区,日本橋大伝馬町１３番１０－６０２号,,13,102,1030011,,,2021-09-06,清算の結了等,,,2019-02-27,1,,,,,ユウカ,0
2327,8010003029268,登記記録の閉鎖等,0,2021-09-08,2021-09-03,合同会社ＡＬＥＲＯ３９,,合同会社,東京都,千代田区,神田美土代町９番１号,,13,101,1010053,,,2021-09-03,清算の結了等,,,2019-02-13,1,,,,,アレーロサーティーナイン,0
2408,8020002007216,登記記録の閉鎖等,0,2021-09-08,2021-09-03,有限会社山口産業,00010199,有限会社,神奈川県,横浜市都筑区,池辺町３７５１番地８,,14,118,2240053,,,2021-09-03,清算の結了等,,,2015-10-05,1,,,,,ヤマグチサンギョウ,0
2444,8040002097619,登記記録の閉鎖等,0,2021-09-08,2021-08-31,有限会社マルヤ,,有限会社,千葉県,野田市,野田７７８番地,,12,208,2780037,,,2021-08-31,清算の結了等,,,2015-10-05,1,,,,,マルヤ,0
2449,8050001027195,登記記録の閉鎖等,0,2021-09-08,2021-09-01,株式会社ベストランドフードクリエイト,,株式会社,茨城県,つくば市,研究学園５丁目８番地４,,08,220,3050817,,,2021-09-01,合併による解散等,9050001016429,令和３年９月１日茨城県つくば市研究学園五丁目１２番地１０株式会社ベストランド（9050001016429）に合併し解散,2015-10-05,1,,,,,ベストランドフードクリエイト,0
2463,8080401011993,登記記録の閉鎖等,0,2021-09-08,2021-09-06,株式会社サポートさち,,株式会社,静岡県,浜松市西区,篠原町１１４８番地の２,,22,133,4310201,,,2021-09-06,清算の結了等,,,2015-10-05,1,,,,,サポートサチ,0
2466,8080405006874,登記記録の閉鎖等,0,2021-09-08,2021-09-06,特定非営利活動法人伝統文化・芸能・屋台囃子学習会,,その他の設立登記法人,静岡県,浜松市中区,元魚町１３７番地,,22,131,4328026,,,2021-09-06,清算の結了等,,,2016-06-24,1,,,,,デントウブンカゲイノウヤタイバヤシガクシュウカイ,0
2467,8100002010517,登記記録の閉鎖等,0,2021-09-08,2021-09-06,有限会社エイエイオー,,有限会社,長野県,佐久市,平賀２３８６番地１５,,20,217,3850034,,,2021-09-06,清算の結了等,,,2015-10-05,1,,,,,エイエイオー,0
2472,8110002025175,登記記録の閉鎖等,0,2021-09-08,2021-09-01,有限会社エムイーサービス,,有限会社,新潟県,妙高市,大字大鹿９３１番地８,,15,217,9492221,,,2021-09-01,清算の結了等,,,2015-10-05,1,,,,,エムイーサービス,0
2491,8120901009665,登記記録の閉鎖等,0,2021-09-08,2021-09-06,谷金木材株式会社,,株式会社,大阪府,茨木市,横江２丁目１番８号,,27,211,5670865,,,2021-09-06,清算の結了等,,,2015-10-05,1,,,,,タニキンモクザイ,0
2505,8150005002787,登記記録の閉鎖等,0,2021-09-08,2021-09-01,法蔵寺,,その他の設立登記法人,奈良県,大和郡山市,城町２５０番地,,29,203,6391051,,,2021-09-01,清算の結了等,,,2015-10-05,1,,,,,ホウゾウジ,0
2509,8180001004512,登記記録の閉鎖等,0,2021-09-08,2021-09-03,太陽建設株式会社,,株式会社,愛知県,名古屋市千種区,仲田２丁目１４番１７号,,23,101,4640074,,,2021-09-03,清算の結了等,,,2015-10-05,1,,,,,タイヨウケンセツ,0
2520,8180005002652,登記記録の閉鎖等,0,2021-09-08,2021-09-06,医療法人藤原クリニック,,その他の設立登記法人,愛知県,名古屋市中川区,万場１丁目１１５番地,,23,110,4540997,,,2021-09-06,清算の結了等,,,2015-10-05,1,,,,,フジワラクリニック,0
2522,8180301010937,登記記録の閉鎖等,0,2021-09-08,2021-09-03,株式会社蒲サ食品,,株式会社,愛知県,蒲郡市,西浦町川東３１番地,,23,214,4430105,,,2021-09-03,清算の結了等,,,2015-10-05,1,,,,,ガマサショクヒン,0
2528,8190002010343,登記記録の閉鎖等,0,2021-09-08,2021-09-03,有限会社高村,,有限会社,三重県,伊勢市,河崎１丁目３番８号,,24,203,5160009,,,2021-09-03,清算の結了等,,,2015-10-05,1,,,,,タカムラ,0
2533,8210001014128,登記記録の閉鎖等,0,2021-09-08,2021-09-02,矢野商事株式会社,,株式会社,福井県,大飯郡高浜町,中津海第２４号１８番地８,,18,481,9192211,,,2021-09-02,清算の結了等,,,2015-10-05,1,,,,,ヤノショウジ,0
2535,8220001004251,登記記録の閉鎖等,0,2021-09-08,2021-09-06,株式会社中央生鮮食品,,株式会社,石川県,金沢市,新竪町３丁目３８番地,,17,201,9200995,,,2021-09-06,清算の結了等,,,2015-10-05,1,,,,,チュウオウセイセンショクヒン,0
2541,8240001015981,登記記録の閉鎖等,0,2021-09-08,2021-09-03,テック電設株式会社,,株式会社,広島県,広島市西区,楠木町１丁目２番２５号,,34,104,7330002,,,2021-09-03,清算の結了等,,,2015-10-05,1,,,,,,0
2551,8280001007001,登記記録の閉鎖等,0,2021-09-08,2021-09-06,株式会社プローバ島根,,株式会社,島根県,浜田市,浅井町８６４番地１,,32,202,6970022,,,2021-09-06,合併による解散等,3240001026521,令和３年９月１日広島市安佐南区相田一丁目１番３３号株式会社プローバ（3240001026521）に合併し解散,2015-10-05,1,,,,,プローバシマネ,0
2556,8290001090780,登記記録の閉鎖等,0,2021-09-08,2021-08-24,株式会社山二,,株式会社,福岡県,春日市,白水ヶ丘４丁目１００番地,,40,218,8160845,,,2021-08-24,清算の結了等,,,2020-11-05,1,,,,,ヤマニ,0
2586,8360001014451,登記記録の閉鎖等,0,2021-09-08,2021-08-31,琉球バイオリソース販売株式会社,,株式会社,沖縄県,うるま市,字栄野比１２１２－４,,47,213,9042205,,,2021-08-31,合併による解散等,2360001007840,令和３年８月３１日沖縄県うるま市字栄野比１２１２番地４農業生産法人株式会社熱帯資源植物研究所（2360001007840）に合併し解散,2015-10-05,1,,,,,リュウキュウバイオリソースハンバイ,0
2595,8370001002158,登記記録の閉鎖等,0,2021-09-08,2021-09-01,株式会社富士音楽事務所,,株式会社,宮城県,仙台市太白区,向山４丁目２１番５号,,04,104,9820841,,,2021-09-01,清算の結了等,,,2015-10-05,1,,,,,フジオンガクジムショ,0
2606,8410002013298,登記記録の閉鎖等,0,2021-09-08,2021-09-06,有限会社佐藤養助平鹿工場,,有限会社,秋田県,横手市,平鹿町醍醐字宮東１番１,,05,203,0130102,,,2021-09-06,清算の結了等,,,2015-10-05,1,,,,,サトウヨウスケヒラカコウジョウ,0
2612,8430002061007,登記記録の閉鎖等,0,2021-09-08,2021-08-24,有限会社華一番,,有限会社,北海道,苫小牧市,柏木町１丁目９番３号,,01,213,0530823,,,2021-08-24,清算の結了等,,,2015-10-05,1,,,,,ハナイチバン,0
2617,8450001008130,登記記録の閉鎖等,0,2021-09-08,2021-09-06,株式会社白岩設備工業,,株式会社,北海道,稚内市,中央３丁目１４番２４号,,01,214,0970022,,,2021-09-06,合併による解散等,5450001008109,令和３年８月３０日北海道稚内市大黒五丁目６番１６号桜井冷熱機械株式会社（5450001008109）に合併し解散,2015-10-05,1,,,,,シロイワセツビコウギョウ,0
2622,8490002006179,登記記録の閉鎖等,0,2021-09-08,2021-09-06,有限会社サロン・ド・ボヌール,,有限会社,高知県,南国市,十市２２４１番地１,,39,204,7830085,,,2021-09-06,清算の結了等,,,2015-10-05,1,,,,,サロンドボヌール,0
2633,9010001175253,登記記録の閉鎖等,0,2021-09-08,2021-08-31,老行家株式会社,,株式会社,東京都,港区,西新橋２丁目２番３号,,13,103,1050003,,,2021-08-31,清算の結了等,,,2016-04-25,1,,,,,ロウホンカ,0
2650,9010401157000,登記記録の閉鎖等,0,2021-09-08,2021-08-31,株式会社ライニング,,株式会社,東京都,港区,六本木７丁目１４番２３号クロスオフィス六本木５１１,,13,103,1060032,,,2021-08-31,清算の結了等,,,2020-12-09,1,,,,,ライニング,0
2654,9010403012228,登記記録の閉鎖等,0,2021-09-08,2021-08-30,合同会社エムシーキャピタル・ナイン,,合同会社,東京都,港区,新橋２丁目１３番８号新橋東和ビル５階,,13,103,1050004,,,2021-08-30,清算の結了等,,,2015-10-05,1,,,,,エムシーキャピタルナイン,0
2661,9010601020321,登記記録の閉鎖等,0,2021-09-08,2021-09-06,株式会社ヘルス企画,,株式会社,東京都,江東区,住吉１丁目１９番１号ツインタワー住利、住吉館１０２,,13,108,1350002,,,2021-09-06,合併による解散等,2010001012074,令和３年９月１日東京都文京区西片一丁目１５番１５号株式会社トモズ（2010001012074）に合併し解散,2015-10-05,1,,,,,ヘルスキカク,0
2669,9010802009304,登記記録の閉鎖等,0,2021-09-08,2021-08-31,有限会社中国料理彩園,,有限会社,東京都,大田区,南馬込５丁目３２番２号,,13,111,1430025,,,2021-08-31,清算の結了等,,,2015-10-05,1,,,,,チュウゴクリョウリサイエン,0
2684,9011105003589,登記記録の閉鎖等,0,2021-09-08,2021-09-01,医療法人財団康悦会,,その他の設立登記法人,東京都,新宿区,西新宿２丁目３番１号新宿モノリス２階,,13,104,1600023,,,2021-09-01,清算の結了等,,,2015-10-05,1,,,,,,0
2685,9011302016617,登記記録の閉鎖等,0,2021-09-08,2021-09-01,有限会社ユニソンソフト,,有限会社,東京都,杉並区,高円寺南１丁目１９番８号竹嶋ビルＡＣＴ－３、８０２号,,13,115,1660003,,,2021-09-01,清算の結了等,,,2015-10-05,1,,,,,ユニソンソフト,0
2703,9011802015242,登記記録の閉鎖等,0,2021-09-08,2021-09-06,有限会社高木商店,00057427,有限会社,東京都,足立区,西新井本町４丁目３０番２号,,13,121,1230845,,,2021-09-06,清算の結了等,,,2015-10-05,1,,,,,タカギショウテン,0
2719,9020002060610,登記記録の閉鎖等,0,2021-09-08,2021-09-02,有限会社大東鋼機,,有限会社,神奈川県,横浜市港北区,新羽町８５４番地,,14,109,2230057,,,2021-09-02,清算の結了等,,,2015-10-05,1,,,,,ダイトウコウキ,0
2729,9021002067067,登記記録の閉鎖等,0,2021-09-08,2021-09-02,有限会社三笠コンサルタンツ,,有限会社,神奈川県,横須賀市,小川町２５番地３、税理士合同ビル２０１,,14,201,2380004,,,2021-09-02,清算の結了等,,,2015-10-05,1,,,,,ミカサコンサルタンツ,0
2747,9030003012519,登記記録の閉鎖等,0,2021-09-08,2021-08-30,合同会社ネクサス,,合同会社,埼玉県,三郷市,早稲田１丁目３番地１０号ＫＴＴ６ビル４Ｆ,,11,237,3410018,,,2021-08-30,清算の結了等,,,2018-10-05,1,,,,,ネクサス,0
2789,9100001020177,登記記録の閉鎖等,0,2021-09-08,2021-09-03,株式会社塩崎,,株式会社,長野県,諏訪郡富士見町,富士見３３０２番地,,20,362,3990211,,,2021-09-03,清算の結了等,,,2015-10-05,1,,,,,シオザキ,0
2804,9120002014077,登記記録の閉鎖等,0,2021-09-08,2021-08-23,有限会社喜畑工務店,,有限会社,大阪府,大阪市此花区,四貫島２丁目１０番５号,,27,104,5540014,,,2021-08-23,清算の結了等,,,2015-10-05,1,,,,,キハタコウムテン,0
2807,9120005005057,登記記録の閉鎖等,0,2021-09-08,2021-09-06,医療法人敬和会,,その他の設立登記法人,大阪府,大阪市東淀川区,豊里４丁目８番２３号第３高光マンション１階１０９号,,27,114,5330013,,,2021-09-06,清算の結了等,,,2015-10-05,1,,,,,ケイワカイ,0
2819,9122001005115,登記記録の閉鎖等,0,2021-09-08,2021-09-02,株式会社つかはら園,,株式会社,大阪府,東大阪市,藤戸新田２丁目８番１７号,,27,227,5770017,,,2021-09-02,清算の結了等,,,2015-10-05,1,,,,,ツカハラエン,0
2847,9180001143862,登記記録の閉鎖等,0,2021-09-08,2021-08-27,株式会社ラミアール,,株式会社,愛知県,名古屋市守山区,幸心３丁目１５０５番地７,,23,113,4630079,,,2021-08-27,清算の結了等,,,2020-12-04,1,,,,,ラミアール,0
2854,9180003006035,登記記録の閉鎖等,0,2021-09-08,2021-09-01,合資会社山本屋,,合資会社,愛知県,名古屋市中区,栄３丁目１２番１９号,,23,106,4600008,,,2021-09-01,合併による解散等,3180001041650,令和３年９月１日名古屋市中区栄三丁目１２番１９号株式会社山本屋総本家（3180001041650）に合併し解散,2015-10-05,1,,,,,ヤマモトヤ,0
2859,9180302008054,登記記録の閉鎖等,0,2021-09-08,2021-09-02,有限会社鈴盛,,有限会社,愛知県,豊橋市,築地町２５番地,,23,201,4418015,,,2021-09-02,合併による解散等,6180301011086,令和３年９月１日愛知県蒲郡市神明町１７番４号鈴豊株式会社（6180301011086）に合併し解散,2015-10-05,1,,,,,スズモリ,0
2861,9180302026262,登記記録の閉鎖等,0,2021-09-08,2021-09-07,有限会社タカスホームサービス,,有限会社,愛知県,西尾市,徳次町小薮４７番地,,23,213,4450072,,,2021-09-07,清算の結了等,,,2015-10-05,1,,,,,タカスホームサービス,0
2862,9190001006894,登記記録の閉鎖等,0,2021-09-08,2021-09-03,株式会社ヌートリヤ,,株式会社,三重県,伊勢市,小木町７３９番地１,,24,203,5160007,,,2021-09-03,清算の結了等,,,2015-10-05,1,,,,,ヌートリヤ,0
2866,9200002000498,登記記録の閉鎖等,0,2021-09-08,2021-09-06,有限会社ヴァレンチノ,,有限会社,岐阜県,岐阜市,芥見３丁目３３７番地,,21,201,5013134,,,2021-09-06,清算の結了等,,,2015-10-05,1,,,,,ヴァレンチノ,0
2901,9310002020659,登記記録の閉鎖等,0,2021-09-08,2021-09-06,五島牧場有限会社,,有限会社,長崎県,五島市,三井楽町浜窄４５３番地,,42,211,8530000,,,2021-09-06,清算の結了等,,,2015-10-05,1,,,,,ゴトウボクジョウ,0
2912,9360002005317,登記記録の閉鎖等,0,2021-09-08,2021-09-02,有限会社サンパチック,,有限会社,沖縄県,那覇市,若狭２丁目４番１１号２階,,47,201,9000031,,,2021-09-02,清算の結了等,,,2015-10-05,1,,,,,サンパチック,0
2925,9380002033191,登記記録の閉鎖等,0,2021-09-08,2021-09-01,有限会社丸光開発,,有限会社,福島県,会津若松市,桧町７番４１号,,07,202,9650008,,,2021-09-01,清算の結了等,,,2015-10-05,1,,,,,マルミツカイハツ,0
2934,9420003000558,登記記録の閉鎖等,0,2021-09-08,2021-09-02,株式会社サク・スィード,,株式会社,青森県,八戸市,吹上１丁目１５番８１号,,02,203,0310003,,,2021-09-02,清算の結了等,,,2015-10-05,1,,,,,サクスィード,0
2937,9430001067631,登記記録の閉鎖等,0,2021-09-08,2021-09-06,株式会社札幌薬剤,,株式会社,北海道,札幌市厚別区,大谷地東２丁目５番１５号,,01,108,0040041,,,2021-09-06,清算の結了等,,,2015-10-05,1,,,,,サッポロヤクザイ,0
