sequenceNumber,corporateNumber,process,correct,updateDate,changeDate,name,nameImageId,kind,prefectureName,cityName,streetNumber,addressImageId,prefectureCode,cityCode,postCode,addressOutside,addressOutsideImageId,closeDate,closeCause,successorCorporateNumber,changeCause,assignmentDate,latest,enName,enPrefectureName,enCityName,enAddressOutside,furigana,hihyoji
15,1010403020147,登記記録の閉鎖等,0,2022-04-22,2022-04-18,ＧＣＩマーケティング合同会社,,合同会社,東京都,港区,赤坂６丁目１２番４－８０１号,,13,103,1070052,,,2022-04-18,合併による解散等,9010003029630,令和４年４月１日東京都千代田区麹町三丁目２番９号Ｌ－ＤＸ株式会社（9010003029630）に合併し解散,2019-02-08,1,,,,,ジーシーアイマーケティング,0
19,1010502005619,登記記録の閉鎖等,0,2022-04-22,2022-04-21,有限会社祥文社,,有限会社,東京都,台東区,日本堤２丁目２４番１号,,13,106,1110021,,,2022-04-21,清算の結了等,,,2015-10-05,1,,,,,ショウブンシャ,0
28,1010901038896,登記記録の閉鎖等,0,2022-04-22,2022-04-11,株式会社ビープラスアイ,,株式会社,東京都,世田谷区,玉川３丁目２０番２号,,13,112,1580094,,,2022-04-11,清算の結了等,,,2016-10-12,1,,,,,ビープラスアイ,0
49,1011502005955,登記記録の閉鎖等,0,2022-04-22,2022-04-18,有限会社メイコー企画,,有限会社,東京都,北区,赤羽１丁目３９番５号,,13,117,1150045,,,2022-04-18,清算の結了等,,,2015-10-05,1,,,,,メイコーキカク,0
63,1020001059859,登記記録の閉鎖等,0,2022-04-22,2022-04-15,株式会社湘南テクノ,,株式会社,神奈川県,鎌倉市,台２丁目２番６号,,14,204,2470061,,,2022-04-15,清算の結了等,,,2015-10-05,1,,,,,シュナンテクノ,0
67,1020002075723,登記記録の閉鎖等,0,2022-04-22,2022-04-14,ワイズファクトリー有限会社,,有限会社,神奈川県,横浜市青葉区,青葉台２丁目２９番地１Ｆ－４０２,,14,117,2270062,,,2022-04-14,清算の結了等,,,2015-10-05,1,,,,,ワイズファクトリー,0
92,1030002027871,登記記録の閉鎖等,0,2022-04-22,2022-04-14,有限会社堀工務店,,有限会社,埼玉県,戸田市,笹目７丁目５番５３号,,11,224,3350034,,,2022-04-14,清算の結了等,,,2015-10-05,1,,,,,ホリコウムテン,0
110,1050002045236,登記記録の閉鎖等,0,2022-04-22,2022-04-15,有限会社イーガートランス,,有限会社,茨城県,筑西市,舟生１８０番地１４,,08,227,3080111,,,2022-04-15,清算の結了等,,,2015-10-05,1,,,,,イーガートランス,0
117,1080002002688,登記記録の閉鎖等,0,2022-04-22,2022-04-20,有限会社尚学社出版,,有限会社,静岡県,静岡市葵区,竜南１丁目２４番７号,,22,101,4200804,,,2022-04-20,清算の結了等,,,2015-10-05,1,,,,,ショウガクシャシュッパン,0
132,1120001053827,登記記録の閉鎖等,0,2022-04-22,2022-04-13,一心産業株式会社,,株式会社,大阪府,大阪市淀川区,塚本２丁目２１番１号,,27,123,5320026,,,2022-04-13,清算の結了等,,,2015-10-05,1,,,,,イッシンサンギョウ,0
138,1120001229311,登記記録の閉鎖等,0,2022-04-22,2022-04-14,ＴＥＡＭ１８株式会社,,株式会社,大阪府,大阪市東成区,大今里南４丁目１７番２６－１００２号,,27,115,5370013,,,2022-04-14,清算の結了等,,,2020-05-26,1,,,,,チームエイティーン,0
146,1120002074566,登記記録の閉鎖等,0,2022-04-22,2022-04-15,有限会社万寿開発,,有限会社,大阪府,寝屋川市,池田新町１１番５号,,27,215,5720038,,,2022-04-15,清算の結了等,,,2015-10-05,1,,,,,マンジュカイハツ,0
149,1120105008512,登記記録の閉鎖等,0,2022-04-22,2022-04-20,日本ビジネスソリューションズ協同組合,,その他の設立登記法人,大阪府,堺市中区,深井清水町３５５５番地,,27,142,5998273,,,2022-04-20,清算の結了等,,,2016-05-31,1,,,,,ニホンビジネスソリューションズ,0
161,1130002024900,登記記録の閉鎖等,0,2022-04-22,2022-04-18,有限会社ハーベスト,,有限会社,京都府,長岡京市,今里更ノ町１３番地１（４－４０１）,,26,209,6170814,,,2022-04-18,清算の結了等,,,2015-10-05,1,,,,,ハーベスト,0
162,1140001005198,登記記録の閉鎖等,0,2022-04-22,2022-04-15,則武精機株式会社,,株式会社,兵庫県,神戸市西区,玉津町高津橋８９３番地の５,,28,111,6512122,,,2022-04-15,清算の結了等,,,2015-10-05,1,,,,,ノリタケセイキ,0
178,1180001088470,登記記録の閉鎖等,0,2022-04-22,2022-04-13,株式会社ドラゴンコンセプトジャパン,,株式会社,愛知県,名古屋市中区,大須３丁目１５番３８号,,23,106,4600011,,,2022-04-13,清算の結了等,,,2015-10-05,1,,,,,ドラゴンコンセプトジャパン,0
233,1340002019292,登記記録の閉鎖等,0,2022-04-22,2022-04-20,有限会社林田商事,,有限会社,鹿児島県,熊毛郡中種子町,野間５２００番地,,46,501,8913604,,,2022-04-20,清算の結了等,,,2015-10-05,1,,,,,ハヤシダショウジ,0
239,1370001041402,登記記録の閉鎖等,0,2022-04-22,2022-04-13,株式会社イグニスブレイン,,株式会社,宮城県,仙台市青葉区,木町通２丁目１－１８,,04,101,9800801,,,2022-04-13,清算の結了等,,,2017-05-08,1,,,,,,0
242,1370201000133,登記記録の閉鎖等,0,2022-04-22,2022-04-07,株式会社みどりのサービス,,株式会社,宮城県,遠田郡美里町,字素山町１番地,,04,505,9870012,,,2022-04-07,合併による解散等,4370201003208,令和４年４月１日宮城県栗原市志波姫沼崎南沖４３８番地株式会社新みやぎサービス（4370201003208）に合併し解散,2015-10-05,1,,,,,ミドリノサービス,0
243,1370402001748,登記記録の閉鎖等,0,2022-04-22,2022-04-06,有限会社三京,,有限会社,宮城県,登米市,迫町佐沼字中江４丁目８番地５,,04,212,9870511,,,2022-04-06,合併による解散等,2370402001755,令和４年４月１日宮城県登米市迫町佐沼字中江四丁目８番地５株式会社サンキョウ（2370402001755）に合併し解散,2015-10-05,1,,,,,サンキョウ,0
256,1400602000208,登記記録の閉鎖等,0,2022-04-22,2022-04-20,有限会社久宝堂,,有限会社,岩手県,奥州市,水沢羽田町宝生６３番地２,,03,215,0230105,,,2022-04-20,清算の結了等,,,2015-10-05,1,,,,,キュウホウドウ,0
269,1460101001395,登記記録の閉鎖等,0,2022-04-22,2022-04-12,株式会社長谷川物産,,株式会社,北海道,帯広市,西十条南１丁目１０番地,,01,207,0800020,,,2022-04-12,清算の結了等,,,2019-03-12,1,,,,,ハセガワブッサン,0
273,1480003000584,登記記録の閉鎖等,0,2022-04-22,2022-04-15,あわや合同会社,,合同会社,徳島県,三好郡東みよし町,中庄２１４６番地,,36,489,7794703,,,2022-04-15,清算の結了等,,,2015-10-05,1,,,,,アワヤ,0
299,2010005000216,登記記録の閉鎖等,0,2022-04-22,2022-04-15,一般社団法人ジョフカ,,その他の設立登記法人,東京都,文京区,本郷２丁目３８番４号本郷弓町ビル３階,,13,105,1130033,,,2022-04-15,清算の結了等,,,2015-10-05,1,,,,,ジョフカ,0
302,2010005013408,登記記録の閉鎖等,0,2022-04-22,2022-04-15,文京区商店街振興組合連合会,,その他の設立登記法人,東京都,文京区,春日１丁目１６番２１号文京シビックセンター地下２階,,13,105,1120003,,,2022-04-15,清算の結了等,,,2015-10-05,1,,,,,ブンキョウク,0
313,2010601027819,登記記録の閉鎖等,0,2022-04-22,2022-04-18,株式会社カンタベリーオブニュージーランドジャパン,,株式会社,東京都,新宿区,岩戸町４番地,,13,104,1620832,,,2022-04-18,合併による解散等,3230001008974,令和４年４月１日富山県小矢部市清沢２１０番地株式会社ゴールドウイン（3230001008974）に合併し解散,2015-10-05,1,,,,,カンタベリーオブニュージーランドジャパン,0
314,2010601042677,登記記録の閉鎖等,0,2022-04-22,2022-04-07,株式会社東京八粋堂,,株式会社,東京都,中央区,日本橋茅場町２丁目８番７号,,13,102,1030025,,,2022-04-07,清算の結了等,,,2015-10-05,1,,,,,トウキョウハッスイドウ,0
316,2010601055266,登記記録の閉鎖等,0,2022-04-22,2022-04-20,株式会社エスペランド,,株式会社,東京都,千代田区,神田小川町２丁目８－２１下田ビル,,13,101,1010052,,,2022-04-20,合併による解散等,3060001026003,令和４年４月１日栃木県宇都宮市西川田本町二丁目６－１８株式会社エスぺランド（3060001026003）に合併し解散,2019-04-02,1,,,,,エスペランド,0
319,2010602003851,登記記録の閉鎖等,0,2022-04-22,2022-04-07,有限会社スズキ商事,,有限会社,東京都,江東区,海辺２１番９号,,13,108,1350012,,,2022-04-07,清算の結了等,,,2015-10-05,1,,,,,,0
335,2011101080291,登記記録の閉鎖等,0,2022-04-22,2022-04-20,株式会社プラスＡＩホールディングス,,株式会社,東京都,新宿区,西新宿７丁目２０番１号プラティーヌ西新宿１３階,,13,104,1600023,,,2022-04-20,合併による解散等,4011601023500,令和４年４月１日東京都練馬区上石神井一丁目７番３６号アスティー２０３株式会社ＮＥＸＴ（4011601023500）に合併し解散,2017-04-24,1,,,,,プラスエイアイホールディングス,0
336,2011101093681,登記記録の閉鎖等,0,2022-04-22,2022-04-18,株式会社Ｓａｔｉｏ,,株式会社,東京都,新宿区,新宿５丁目１１番１３号富士新宿ビル４階,,13,104,1600022,,,2022-04-18,清算の結了等,,,2021-01-08,1,,,,,サティオ,0
365,2020001033219,登記記録の閉鎖等,0,2022-04-22,2022-04-18,株式会社クリーンメイト,,株式会社,千葉県,千葉市中央区,登戸４丁目３番９号,,12,101,2600032,,,2022-04-18,合併による解散等,3010001032864,令和４年４月１日東京都港区港南一丁目７番１８号株式会社ソラスト（3010001032864）に合併し解散,2015-10-05,1,,,,,クリーンメイト,0
370,2020001110439,登記記録の閉鎖等,0,2022-04-22,2022-04-14,株式会社ＳＫＳ,,株式会社,神奈川県,横浜市鶴見区,鶴見中央２丁目７番６－３０２号,,14,101,2300051,,,2022-04-14,清算の結了等,,,2015-10-05,1,,,,,エスケーエス,0
378,2021001041954,登記記録の閉鎖等,0,2022-04-22,2022-04-15,相信地建株式会社,,株式会社,神奈川県,横須賀市,森崎１丁目１番２０号,,14,201,2380023,,,2022-04-15,清算の結了等,,,2015-10-05,1,,,,,ソウシンチケン,0
382,2021002017557,登記記録の閉鎖等,0,2022-04-22,2022-04-18,有限会社アズマ機設,,有限会社,神奈川県,相模原市南区,大野台６丁目８番１４号,,14,153,2520331,,,2022-04-18,清算の結了等,,,2015-10-05,1,,,,,アズマキセツ,0
383,2021002037621,登記記録の閉鎖等,0,2022-04-22,2022-04-15,有限会社オザワ電子,,有限会社,神奈川県,秦野市,蓑毛４０８番地の３,,14,211,2570021,,,2022-04-15,清算の結了等,,,2015-10-05,1,,,,,オザワデンシ,0
392,2030001090944,登記記録の閉鎖等,0,2022-04-22,2022-04-13,株式会社丸稻工務店,,株式会社,埼玉県,秩父市,下宮地町１８番２１号,,11,207,3680021,,,2022-04-13,清算の結了等,,,2015-10-05,1,,,,,マルトウコウムテン,0
397,2030002082866,登記記録の閉鎖等,0,2022-04-22,2022-04-14,有限会社パネック,,有限会社,埼玉県,鴻巣市,堤町１番３号,,11,217,3650056,,,2022-04-14,清算の結了等,,,2015-10-05,1,,,,,パネック,0
423,2080402018762,登記記録の閉鎖等,0,2022-04-22,2022-04-20,有限会社丸政建材,,有限会社,静岡県,菊川市,半済９４７番地の４,,22,224,4390019,,,2022-04-20,清算の結了等,,,2015-10-05,1,,,,,,0
427,2100001012057,登記記録の閉鎖等,0,2022-04-22,2022-04-19,株式会社信越商会,,株式会社,長野県,中野市,大字草間１０４５番地８,,20,211,3830053,,,2022-04-19,清算の結了等,,,2015-10-05,1,,,,,シンエツショウカイ,0
441,2120003019354,登記記録の閉鎖等,0,2022-04-22,2022-04-15,合同会社Ｇ＆Ｏ　ｐｌａｎｎｉｎｇ,,合同会社,大阪府,大阪市中央区,備後町３丁目３番９号備後町コイズミビル６階６６号室,,27,128,5410051,,,2022-04-15,清算の結了等,,,2021-05-12,1,,,,,ジーアンドオープランニング,0
458,2130001033216,登記記録の閉鎖等,0,2022-04-22,2022-04-19,ユニチカ設備技術株式会社,,株式会社,京都府,宇治市,宇治戸ノ内５番地,,26,204,6110021,,,2022-04-19,合併による解散等,8140001051822,令和４年４月１日大阪市中央区久太郎町四丁目１番３号ユニチカ株式会社（8140001051822）に合併し解散,2015-10-05,1,,,,,ユニチカセツビギジュツ,0
489,2180001120975,登記記録の閉鎖等,0,2022-04-22,2022-04-12,株式会社ＩＮＴＥＲ　ＬＩＮＫ　ＪＡＰＡＮ,,株式会社,愛知県,名古屋市中川区,馬手町２丁目８０番地,,23,110,4540845,,,2022-04-12,清算の結了等,,,2015-11-13,1,,,,,インターリンクジャパン,0
499,2180003015967,登記記録の閉鎖等,0,2022-04-22,2022-04-12,石川花見月１合同会社,,合同会社,東京都,港区,芝公園１丁目３番１号留園ビル６階,,13,103,1050011,,,2022-04-12,合併による解散等,6010403024093,令和４年４月１２日東京都港区芝公園一丁目３番１号留園ビル６階石川花見月１合同会社（6010403024093）に合併し解散,2015-10-05,1,,,,,イシカワハナミヅキイチ,0
516,2200005008537,登記記録の閉鎖等,0,2022-04-22,2022-04-22,木曽御嶽本教紅葉日ノ出教会,,その他の設立登記法人,岐阜県,瑞浪市,釜戸町字七子２２４７番地１,,21,208,5096472,,,2022-04-22,清算の結了等,,,2015-10-05,1,,,,,キソオンタケホンキョウモミジヒノデキョウカイ,0
519,2220001013638,登記記録の閉鎖等,0,2022-04-22,2022-04-19,京福リムジンバス株式会社,,株式会社,石川県,加賀市,伊切町い４０番地１,,17,206,9220406,,,2022-04-19,合併による解散等,8210001007536,令和４年４月１日福井市日之出五丁目３番３０号京福バス株式会社（8210001007536）に合併し解散,2015-10-05,1,,,,,ケイフクリムジンバス,0
529,2240002048383,登記記録の閉鎖等,0,2022-04-22,2022-04-18,有限会社出来庭,,有限会社,広島県,安芸郡熊野町,出来庭４丁目１６番２号,,34,307,7314221,,,2022-04-18,清算の結了等,,,2015-10-05,1,,,,,デキニワ,0
564,2300005006712,登記記録の閉鎖等,0,2022-04-22,2022-04-15,一般財団法人地域在宅医療財団,,その他の設立登記法人,佐賀県,佐賀市,川副町大字鹿江２２１番地５の１,,41,201,8402213,,,2022-04-15,清算の結了等,,,2018-03-01,1,,,,,チイキザイタクイリョウザイダン,0
571,2360001002362,登記記録の閉鎖等,0,2022-04-22,2022-04-11,株式会社越智アトリエ,,株式会社,沖縄県,那覇市,首里崎山町３丁目３４番地,,47,201,9030814,,,2022-04-11,清算の結了等,,,2015-10-05,1,,,,,,0
612,3010001217127,登記記録の閉鎖等,0,2022-04-22,2022-04-07,株式会社ゲットイットホールディングス,,株式会社,東京都,中央区,築地３丁目７番１０号ＪＳ築地ビル４階,,13,102,1040045,,,2022-04-07,合併による解散等,3010001096109,令和４年４月１日東京都中央区築地三丁目７番１０号ＪＳ築地ビル４Ｆ株式会社ゲットイット（3010001096109）に合併し解散,2021-04-05,1,,,,,ゲットイットホールディングス,0
616,3010002003773,登記記録の閉鎖等,0,2022-04-22,2022-04-07,有限会社ダダ,,有限会社,東京都,文京区,小日向１丁目２６番５－２０４号,,13,105,1120006,,,2022-04-07,清算の結了等,,,2015-10-05,1,,,,,ダダ,0
656,3011101068369,登記記録の閉鎖等,0,2022-04-22,2022-04-20,株式会社富士,,株式会社,東京都,新宿区,西新宿７丁目３－４アソルティ西新宿ビル２階,,13,104,1600023,,,2022-04-20,合併による解散等,7011201017783,令和４年４月１５日東京都荒川区南千住三丁目４番２３号株式会社未来ビジョン（7011201017783）に合併し解散,2015-10-05,1,,,,,,0
665,3011602004582,登記記録の閉鎖等,0,2022-04-22,2022-04-21,有限会社三雄幹設備工業,,有限会社,東京都,練馬区,北町２丁目３１番１６号,,13,120,1790081,,,2022-04-21,清算の結了等,,,2015-10-05,1,,,,,ミユキセツビコウギョウ,0
680,3013201006076,登記記録の閉鎖等,0,2022-04-22,2022-04-05,株式会社裕伸,,株式会社,東京都,目黒区,駒場１丁目４０番１６号,,13,110,1530041,,,2022-04-05,清算の結了等,,,2015-10-05,1,,,,,ユウシン,0
681,3013201014970,登記記録の閉鎖等,0,2022-04-22,2022-04-13,株式会社ＳＭＩＲＡＬ,,株式会社,東京都,品川区,上大崎３丁目１番１号,,13,109,1410021,,,2022-04-13,合併による解散等,3011001103060,令和４年３月３１日東京都品川区上大崎三丁目１番１号カルチュア・エンタテインメント株式会社（3011001103060）に合併し解散,2015-10-05,1,,,,,スマイラル,0
683,3013301008377,登記記録の閉鎖等,0,2022-04-22,2022-04-15,東北産業株式会社,,株式会社,東京都,豊島区,南池袋２丁目４７番６号,,13,116,1710022,,,2022-04-15,清算の結了等,,,2015-10-05,1,,,,,トウホクサンギョウ,0
725,3040001017937,登記記録の閉鎖等,0,2022-04-22,2022-04-15,株式会社高橋材木店,,株式会社,千葉県,船橋市,三咲９丁目７番１１号,,12,204,2740812,,,2022-04-15,清算の結了等,,,2015-10-05,1,,,,,,0
731,3040002047553,登記記録の閉鎖等,0,2022-04-22,2022-04-08,有限会社トモ,,有限会社,千葉県,松戸市,松戸１２２８番地,,12,207,2710092,,,2022-04-08,清算の結了等,,,2015-10-05,1,,,,,トモ,0
742,3070002020581,登記記録の閉鎖等,0,2022-04-22,2022-04-12,有限会社ヨシカワ,,有限会社,群馬県,伊勢崎市,境伊与久３２６９番地の１,,10,204,3700105,,,2022-04-12,清算の結了等,,,2015-10-05,1,,,,,ヨシカワ,0
751,3110001016254,登記記録の閉鎖等,0,2022-04-22,2022-04-20,株式会社美容クリーム,,株式会社,新潟県,燕市,秋葉町３丁目１０番２５号,,15,213,9591261,,,2022-04-20,清算の結了等,,,2015-10-05,1,,,,,ビヨウクリーム,0
760,3120001149458,登記記録の閉鎖等,0,2022-04-22,2022-04-18,クボタ機工株式会社,,株式会社,大阪府,枚方市,中宮大池１丁目１番１号,,27,210,5730004,,,2022-04-18,合併による解散等,7010501003238,令和４年４月１日東京都中央区京橋二丁目１番３号クボタ環境エンジニアリング株式会社（7010501003238）に合併し解散,2015-10-05,1,,,,,,0
767,3120001210814,登記記録の閉鎖等,0,2022-04-22,2022-04-13,株式会社ＡＮＳ　ＰＥＲＳＯＮＡＬ,,株式会社,大阪府,守口市,本町１丁目６－１３守口駅前ビル６０５号室,,27,209,5700028,,,2022-04-13,清算の結了等,,,2018-01-22,1,,,,,,0
775,3120003006483,登記記録の閉鎖等,0,2022-04-22,2022-04-13,合同会社ＤＲＥＡＭ　ＯＮ,,合同会社,大阪府,大阪市平野区,背戸口３丁目９番３０号幸和セントラルビル平野,,27,126,5470034,,,2022-04-13,清算の結了等,,,2015-10-05,1,,,,,,0
788,3140001090461,登記記録の閉鎖等,0,2022-04-22,2022-04-19,株式会社上原ソフトウェア工学研究所,,株式会社,兵庫県,神戸市東灘区,深江本町２丁目５番１２号,,28,101,6580021,,,2022-04-19,清算の結了等,,,2015-10-05,1,,,,,ウエハラソフトウェアコウガクケンキュウショ,0
795,3170001015408,登記記録の閉鎖等,0,2022-04-22,2022-04-21,株式会社クリーンサービス匠和,,株式会社,和歌山県,海草郡紀美野町,小西３５６番地２,,30,304,6401475,,,2022-04-21,清算の結了等,,,2018-11-27,1,,,,,クリーンサービスショウワ,0
806,3180001135122,登記記録の閉鎖等,0,2022-04-22,2022-04-15,株式会社保険のすばる,,株式会社,愛知県,名古屋市中区,錦１丁目７番１５号５０ＫＴ中駒ビル６Ｆ,,23,106,4600003,,,2022-04-15,合併による解散等,5180001130864,令和４年４月１日東京都港区浜松町二丁目４番１号世界貿易センタービルディング南館１７階株式会社Ｍ＆Ａ　ＤＸ（5180001130864）に合併し解散,2019-01-15,1,,,,,ホケンノスバル,0
827,3220001011640,登記記録の閉鎖等,0,2022-04-22,2022-04-08,株式会社プチマリア,,株式会社,石川県,金沢市,田井町１０番２４号,,17,201,9200924,,,2022-04-08,合併による解散等,8180001078151,令和４年４月１日愛知県春日井市大泉寺町２９２－３４２株式会社犬の家（8180001078151）に合併し解散,2015-10-05,1,,,,,,0
851,3290801000869,登記記録の閉鎖等,0,2022-04-22,2022-04-19,北九州地所株式会社,,株式会社,福岡県,北九州市八幡西区,的場町１３番１０号,,40,109,8070841,,,2022-04-19,清算の結了等,,,2015-10-05,1,,,,,キタキュウシュウジショ,0
867,3350002001925,登記記録の閉鎖等,0,2022-04-22,2022-04-18,有限会社坂井自動車整備工場,,有限会社,宮崎県,宮崎市,大字瓜生野２２３３番地７０,,45,201,8800044,,,2022-04-18,清算の結了等,,,2015-10-05,1,,,,,サカイジドウシャセイビコウジョウ,0
879,3370201000420,登記記録の閉鎖等,0,2022-04-22,2022-04-06,ホンダオート販売株式会社,,株式会社,宮城県,大崎市,古川駅東１丁目５番１号,,04,215,9896115,,,2022-04-06,清算の結了等,,,2015-10-05,1,,,,,ホンダオートハンバイ,0
881,3380002021078,登記記録の閉鎖等,0,2022-04-22,2022-04-18,有限会社矢内石材工業,,有限会社,福島県,石川郡石川町,字高田９４番地,,07,501,9637845,,,2022-04-18,清算の結了等,,,2015-10-05,1,,,,,ヤナイセキザイコウギョウ,0
918,4010401124104,登記記録の閉鎖等,0,2022-04-22,2022-04-14,株式会社メディカルワン,,株式会社,福岡県,福岡市博多区,住吉３丁目１４番１１号,,40,132,8120018,,,2022-04-14,清算の結了等,,,2016-04-13,1,,,,,メディカルワン,0
925,4010403018097,登記記録の閉鎖等,0,2022-04-22,2022-04-07,Ｓｅｖｅｎ　Ｓｅｎｓｅ合同会社,,合同会社,東京都,港区,南青山６丁目２番１０号,,13,103,1070062,,,2022-04-07,清算の結了等,,,2018-02-15,1,,,,,セブンセンス,0
932,4010602020259,登記記録の閉鎖等,0,2022-04-22,2022-04-11,有限会社小田切商店,,有限会社,東京都,江東区,高橋１０番５号,,13,108,1350005,,,2022-04-11,清算の結了等,,,2015-10-05,1,,,,,オダギリショウテン,0
933,4010801029613,登記記録の閉鎖等,0,2022-04-22,2022-04-15,ＯＧＳ株式会社,,株式会社,東京都,大田区,羽田２丁目１９番３号,,13,111,1440043,,,2022-04-15,清算の結了等,,,2019-02-19,1,,,,,オージーエス,0
945,4011101062742,登記記録の閉鎖等,0,2022-04-22,2022-04-08,株式会社コンコード,,株式会社,東京都,新宿区,西新宿７丁目１８番２０号,,13,104,1600023,,,2022-04-08,合併による解散等,8011101001085,令和４年４月２日東京都新宿区西新宿七丁目１８番２０号アニストジャパン株式会社（8011101001085）に合併し解散,2015-10-05,1,,,,,コンコード,0
990,4030002006088,登記記録の閉鎖等,0,2022-04-22,2022-04-15,有限会社三協塩ビ工業,,有限会社,埼玉県,さいたま市北区,宮原町２丁目１１２番地の２６,,11,102,3310812,,,2022-04-15,清算の結了等,,,2015-10-05,1,,,,,サンキョウエンビコウギョウ,0
1087,4180001006974,登記記録の閉鎖等,0,2022-04-22,2022-04-11,藤洋株式会社,,株式会社,愛知県,名古屋市港区,入船２丁目２番１４号,,23,111,4550032,,,2022-04-11,合併による解散等,7180001006435,令和４年４月１日名古屋市港区入船二丁目２番１４号三英運輸株式会社（7180001006435）に合併し解散,2015-10-05,1,,,,,トウヨウ,0
1091,4180001101890,登記記録の閉鎖等,0,2022-04-22,2022-04-18,Ｆレンタカー中部株式会社,,株式会社,愛知県,名古屋市港区,小碓４丁目５５４番地,,23,111,4550801,,,2022-04-18,合併による解散等,6120001165246,令和４年４月１日大阪市浪速区桜川二丁目１１番１０号Ｆレンタカー株式会社（6120001165246）に合併し解散,2015-10-05,1,,,,,エフレンタカーチュウブ,0
1133,4290801015197,登記記録の閉鎖等,0,2022-04-22,2022-04-18,株式会社門吉,,株式会社,福岡県,行橋市,大橋３丁目５番２０号,,40,213,8240003,,,2022-04-18,清算の結了等,,,2015-10-05,1,,,,,,0
1137,4290803002755,登記記録の閉鎖等,0,2022-04-22,2022-04-15,合名会社ミスミ,,合名会社,福岡県,行橋市,行事５丁目１２番１３号,,40,213,8240001,,,2022-04-15,合併による解散等,3290803002789,令和４年３月３０日福岡県行橋市行事五丁目１２番１３号合名会社リアン（3290803002789）に合併し解散,2016-09-23,1,,,,,ミスミ,0
1155,4350001013144,登記記録の閉鎖等,0,2022-04-22,2022-04-20,株式会社シイカトウ,,株式会社,宮崎県,小林市,野尻町東麓２８１９番地８,,45,205,8860212,,,2022-04-20,清算の結了等,,,2015-10-05,1,,,,,シイカトウ,0
1203,5010001012484,登記記録の閉鎖等,0,2022-04-22,2022-04-08,株式会社エフ・ネット,,株式会社,東京都,千代田区,麹町５丁目１番地１,,13,101,1020083,,,2022-04-08,合併による解散等,4010001028713,令和４年４月１日東京都千代田区麹町五丁目１番地１株式会社ＦＧＬサーキュラー・ネットワーク（4010001028713）に合併し解散,2015-10-05,1,,,,,エフネット,0
1253,5011303003650,登記記録の閉鎖等,0,2022-04-22,2022-04-19,合同会社Ｄｏｇ　Ｌｉｆｅ　Ｉｎｎｏｖａｔｉｏｎ,,合同会社,東京都,杉並区,和泉２丁目２７番１号イニシアイオ杉並和泉４０５,,13,115,1680063,,,2022-04-19,清算の結了等,,,2020-06-03,1,,,,,ドッグライフイノベーション,0
1268,5011801026137,登記記録の閉鎖等,0,2022-04-22,2022-04-14,株式会社イーイーアイ,,株式会社,千葉県,松戸市,本町１７－１１芹澤ビル６Ｆ,,12,207,2710091,,,2022-04-14,清算の結了等,,,2015-10-05,1,,,,,イーイーアイ,0
1272,5012301012783,登記記録の閉鎖等,0,2022-04-22,2022-04-07,日本ハウス工業株式会社,,株式会社,東京都,町田市,玉川学園５丁目１４番２２号,,13,209,1940041,,,2022-04-07,清算の結了等,,,2021-12-07,1,,,,,,0
1298,5021001032463,登記記録の閉鎖等,0,2022-04-22,2022-04-18,株式会社オール・プランナー,,株式会社,神奈川県,小田原市,寿町１丁目９番１７号,,14,206,2500002,,,2022-04-18,清算の結了等,,,2022-01-28,1,,,,,オールプランナー,0
1330,5040001015939,登記記録の閉鎖等,0,2022-04-22,2022-04-18,トヨタホームちば株式会社,,株式会社,千葉県,千葉市美浜区,中瀬１丁目３番地,,12,106,2610023,,,2022-04-18,合併による解散等,7010001024718,令和４年４月１日東京都千代田区九段南二丁目３番１８号トヨタホーム東京株式会社（7010001024718）に合併し解散,2015-10-05,1,,,,,トヨタホームチバ,0
1333,5040001037132,登記記録の閉鎖等,0,2022-04-22,2022-04-15,株式会社山形運輸,,株式会社,千葉県,松戸市,南花島３丁目４１番２１号,,12,207,2710065,,,2022-04-15,清算の結了等,,,2015-10-05,1,,,,,ヤマガタウンユ,0
1334,5040001041027,登記記録の閉鎖等,0,2022-04-22,2022-04-15,株式会社サトーデバイス,,株式会社,千葉県,松戸市,稔台６丁目５番地１,,12,207,2702231,,,2022-04-15,清算の結了等,,,2015-10-05,1,,,,,サトーデバイス,0
1359,5080102011338,登記記録の閉鎖等,0,2022-04-22,2022-04-21,林田樹脂有限会社,,有限会社,静岡県,三島市,長伏５８８番地の１,,22,206,4110824,,,2022-04-21,清算の結了等,,,2015-10-05,1,,,,,ハヤシダジュシ,0
1361,5080401003408,登記記録の閉鎖等,0,2022-04-22,2022-04-19,株式会社アーレスティプリテック,,株式会社,静岡県,浜松市中区,高丘東３丁目８番３８号,,22,131,4338117,,,2022-04-19,合併による解散等,7011201010490,令和４年４月１日愛知県豊橋市三弥町中原１番２号株式会社アーレスティ（7011201010490）に合併し解散,2015-10-05,1,,,,,アーレスティプリテック,0
1362,5080401016203,登記記録の閉鎖等,0,2022-04-22,2022-04-18,松本工業株式会社,,株式会社,静岡県,磐田市,福田中島７０９番地１,,22,211,4371204,,,2022-04-18,清算の結了等,,,2015-10-05,1,,,,,,0
1364,5100001024553,登記記録の閉鎖等,0,2022-04-22,2022-04-18,株式会社工房四季,,株式会社,長野県,松本市,大字中山５１０８番地１,,20,202,3900823,,,2022-04-18,清算の結了等,,,2015-10-05,1,,,,,コウボウシキ,0
1367,5110001002500,登記記録の閉鎖等,0,2022-04-22,2022-04-19,信善ビル株式会社,,株式会社,新潟県,新潟市中央区,信濃町２番１０号,,15,103,9518152,,,2022-04-19,清算の結了等,,,2015-10-05,1,,,,,シンゼンビル,0
1370,5110001028875,登記記録の閉鎖等,0,2022-04-22,2022-04-18,株式会社ＨＩＦコーポレーション,,株式会社,新潟県,長岡市,本町２丁目２番地１６レクセル長岡１０１１号室,,15,202,9400076,,,2022-04-18,清算の結了等,,,2015-10-05,1,,,,,エイチアイエフコーポレーション,0
1394,5130002028666,登記記録の閉鎖等,0,2022-04-22,2022-04-15,有限会社ＣＲＬ,,有限会社,京都府,亀岡市,大井町土田１丁目２１番１－３０４号,,26,206,6210011,,,2022-04-15,清算の結了等,,,2015-10-05,1,,,,,シーアールエル,0
1428,5180001117028,登記記録の閉鎖等,0,2022-04-22,2022-04-13,株式会社ｇａｒｄｅｎ,,株式会社,愛知県,名古屋市西区,中小田井２丁目９６番地の２,,23,104,4520822,,,2022-04-13,清算の結了等,,,2015-10-05,1,,,,,ガーデン,0
1443,5190001008597,登記記録の閉鎖等,0,2022-04-22,2022-04-19,日本ニードルローラー製造株式会社,,株式会社,三重県,伊賀市,佐那具町字沢１５３５番地の１,,24,216,5180001,,,2022-04-19,合併による解散等,9060001000613,令和４年４月１日栃木県宇都宮市雀宮町５８５番地株式会社ジェイテクトファインテック（9060001000613）に合併し解散,2015-10-05,1,,,,,ニホンニードルローラーセイゾウ,0
1455,5240002043927,登記記録の閉鎖等,0,2022-04-22,2022-04-18,有限会社福山サウンドシステム,,有限会社,広島県,福山市,青葉台４丁目５番２０号,,34,207,7210911,,,2022-04-18,清算の結了等,,,2015-10-05,1,,,,,フクヤマサウンドシステム,0
1462,5260005008140,登記記録の閉鎖等,0,2022-04-22,2022-04-21,特定非営利活動法人ケアグループそよかぜ,,その他の設立登記法人,岡山県,玉野市,長尾２０４番地の３,,33,204,7060151,,,2022-04-21,清算の結了等,,,2015-10-05,1,,,,,ケアグループソヨカゼ,0
1477,5290002033320,登記記録の閉鎖等,0,2022-04-22,2022-04-15,有限会社まるた,,有限会社,福岡県,糸島市,潤４丁目１４番２２号,,40,230,8191105,,,2022-04-15,清算の結了等,,,2015-10-05,1,,,,,マルタ,0
1487,5310001004253,登記記録の閉鎖等,0,2022-04-22,2022-04-21,株式会社魚げん,,株式会社,長崎県,西彼杵郡長与町,高田郷２３０８番地,,42,307,8512127,,,2022-04-21,清算の結了等,,,2015-10-05,1,,,,,ウオゲン,0
1488,5310002005390,登記記録の閉鎖等,0,2022-04-22,2022-04-21,有限会社丸友岡田,,有限会社,長崎県,長崎市,京泊３丁目３番１号,,42,201,8512211,,,2022-04-21,清算の結了等,,,2015-10-05,1,,,,,マルトモオカダ,0
1533,5440002000296,登記記録の閉鎖等,0,2022-04-22,2022-04-21,有限会社石山畳内装店,,有限会社,北海道,函館市,千歳町１１番７号,,01,202,0400033,,,2022-04-21,清算の結了等,,,2015-10-05,1,,,,,イシヤマタタミナイソウテン,0
1540,5480005005891,登記記録の閉鎖等,0,2022-04-22,2022-04-20,農事組合法人種穂,,その他の設立登記法人,徳島県,吉野川市,山川町川田１８７番地１,,36,205,7793404,,,2022-04-20,清算の結了等,,,2015-10-05,1,,,,,タナボ,0
1546,5500001005876,登記記録の閉鎖等,0,2022-04-22,2022-04-18,株式会社リンダリージャパン,,株式会社,愛媛県,伊予郡松前町,大字西古泉６４６番地４,,38,401,7913134,,,2022-04-18,清算の結了等,,,2015-10-05,1,,,,,,0
1548,5500002009595,登記記録の閉鎖等,0,2022-04-22,2022-04-18,有限会社兵頭商店,,有限会社,愛媛県,松山市,東野５丁目甲９１１番地６９,,38,201,7900903,,,2022-04-18,清算の結了等,,,2015-10-05,1,,,,,ヒョウドウショウテン,0
1569,6010401089155,登記記録の閉鎖等,0,2022-04-22,2022-04-06,ＡＴシリカ株式会社,,株式会社,東京都,港区,虎ノ門３丁目１８番１９号,,13,103,1050001,,,2022-04-06,清算の結了等,,,2015-10-05,1,,,,,エーティーシリカ,0
1598,6011101021853,登記記録の閉鎖等,0,2022-04-22,2022-04-20,株式会社ユニワールド産業,,株式会社,東京都,新宿区,高田馬場２丁目１１番２号,,13,104,1690075,,,2022-04-20,清算の結了等,,,2015-10-05,1,,,,,ユニワールドサンギョウ,0
1603,6011303001983,登記記録の閉鎖等,0,2022-04-22,2022-04-18,ＵＬコンサルティング合同会社,,合同会社,東京都,杉並区,南荻窪１丁目７番２号,,13,115,1670052,,,2022-04-18,清算の結了等,,,2015-10-05,1,,,,,ユーエルコンサルティング,0
1638,6020001017580,登記記録の閉鎖等,0,2022-04-22,2022-04-15,品川工事株式会社,,株式会社,神奈川県,横浜市鶴見区,潮田町１丁目１４番地,,14,101,2300041,,,2022-04-15,合併による解散等,7240001040741,令和４年４月１日広島県福山市鋼管町１番地品川ロコー株式会社（7240001040741）に合併し解散,2015-10-05,1,,,,,シナガワコウジ,0
1645,6021001035102,登記記録の閉鎖等,0,2022-04-22,2022-04-14,株式会社クレッシェンド,,株式会社,神奈川県,小田原市,栢山３２４６番地の５,,14,206,2500852,,,2022-04-14,清算の結了等,,,2015-10-05,1,,,,,クレッシェンド,0
1658,6030002001632,登記記録の閉鎖等,0,2022-04-22,2022-04-15,有限会社浦和実用電器,,有限会社,埼玉県,さいたま市桜区,田島５丁目２０番１４号,,11,106,3380837,,,2022-04-15,清算の結了等,,,2015-10-05,1,,,,,ウラワジツギョウデンキ,0
1668,6040002002992,登記記録の閉鎖等,0,2022-04-22,2022-04-15,カミウラ創美有限会社,,有限会社,千葉県,千葉市若葉区,桜木３丁目５番１１号,,12,104,2640028,,,2022-04-15,清算の結了等,,,2015-10-05,1,,,,,カミウラソウビ,0
1676,6050001028022,登記記録の閉鎖等,0,2022-04-22,2022-04-14,株式会社梶井建設産業,,株式会社,茨城県,牛久市,さくら台２丁目１０番地２２,,08,219,3001217,,,2022-04-14,清算の結了等,,,2015-10-05,1,,,,,カジイケンセツサンギョウ,0
1683,6070001000862,登記記録の閉鎖等,0,2022-04-22,2022-04-12,群馬アスコンセンター株式会社,,株式会社,群馬県,前橋市,上大島町字西の山１４０番地の３,,10,201,3792153,,,2022-04-12,清算の結了等,,,2015-10-05,1,,,,,グンマアスコンセンター,0
1691,6080002011949,登記記録の閉鎖等,0,2022-04-22,2022-04-21,有限会社アット,,有限会社,静岡県,静岡市駿河区,登呂６丁目１番２号,,22,102,4228033,,,2022-04-21,清算の結了等,,,2015-10-05,1,,,,,アット,0
1714,6120001138788,登記記録の閉鎖等,0,2022-04-22,2022-04-18,株式会社ワンダーエンポリウム消滅会社,,株式会社,東京都,豊島区,上池袋１丁目２９番１５号,,13,116,1700012,,,2022-04-18,清算の結了等,,,2015-10-05,1,,,,,ワンダーエンポリウムショウメツカイシャ,0
1735,6120102005301,登記記録の閉鎖等,0,2022-04-22,2022-04-19,有限会社和田商会,,有限会社,大阪府,堺市西区,上野芝町５丁１１番２３号,,27,144,5938301,,,2022-04-19,清算の結了等,,,2015-10-05,1,,,,,ワダショウカイ,0
1737,6120902011366,登記記録の閉鎖等,0,2022-04-22,2022-04-20,有限会社三木ビル,,有限会社,大阪府,高槻市,千代田町３１番６号,,27,207,5690087,,,2022-04-20,清算の結了等,,,2015-10-05,1,,,,,ミキビル,0
1752,6160002014217,登記記録の閉鎖等,0,2022-04-22,2022-04-21,有限会社エフテック,,有限会社,滋賀県,野洲市,野洲坂田１６４４番地の１,,25,210,5202342,,,2022-04-21,清算の結了等,,,2015-10-05,1,,,,,エフテック,0
1777,6240001026808,登記記録の閉鎖等,0,2022-04-22,2022-04-18,富士栄工業株式会社,,株式会社,広島県,呉市,音戸町高須３丁目１１番６号,,34,202,7371206,,,2022-04-18,合併による解散等,1290801004095,令和４年４月１日北九州市若松区響町一丁目１１０番地１０株式会社アソートフジ（1290801004095）に合併し解散,2015-10-05,1,,,,,フジエイコウギョウ,0
1792,6290003005482,登記記録の閉鎖等,0,2022-04-22,2022-04-14,合同会社アビタシオン由布の里,,合同会社,福岡県,福岡市博多区,住吉３丁目１４番１１号,,40,132,8120018,,,2022-04-14,清算の結了等,,,2015-10-05,1,,,,,アビタシオンユフノサト,0
1796,6300002004319,登記記録の閉鎖等,0,2022-04-22,2022-04-18,有限会社佐賀の山,,有限会社,佐賀県,小城市,小城町４４８番地,,41,208,8450001,,,2022-04-18,清算の結了等,,,2022-02-18,1,,,,,サガノヤマ,0
1799,6300005005958,登記記録の閉鎖等,0,2022-04-22,2022-04-15,一般財団法人九州道路交通公安財団,,その他の設立登記法人,佐賀県,佐賀市,川副町鹿江６７０番地８,,41,201,8490000,,,2022-04-15,清算の結了等,,,2015-10-05,1,,,,,キュウシュウドウロコウツウコウアンザイダン,0
1806,6330001007724,登記記録の閉鎖等,0,2022-04-22,2022-04-11,株式会社トーナン・トレーディング,,株式会社,熊本県,熊本市南区,良町３丁目９番１９号,,43,104,8620969,,,2022-04-11,清算の結了等,,,2015-10-05,1,,,,,トーナントレーディング,0
1820,6370301000078,登記記録の閉鎖等,0,2022-04-22,2022-04-11,株式会社石巻青写真センター,,株式会社,宮城県,石巻市,大街道西１丁目１２番５１号,,04,202,9860859,,,2022-04-11,清算の結了等,,,2015-10-05,1,,,,,イシノマキアオジャシンセンター,0
1831,6380002016819,登記記録の閉鎖等,0,2022-04-22,2022-04-14,有限会社村三,,有限会社,福島県,二本松市,上川崎字昆布内４１番地,,07,210,9691512,,,2022-04-14,清算の結了等,,,2015-10-05,1,,,,,ムラゾウ,0
1850,7010001002888,登記記録の閉鎖等,0,2022-04-22,2022-04-08,三和エンジニアリング株式会社,,株式会社,東京都,文京区,根津２丁目３１番５号,,13,105,1130031,,,2022-04-08,清算の結了等,,,2015-10-05,1,,,,,サンワエンジニアリング,0
1875,7010601008442,登記記録の閉鎖等,0,2022-04-22,2022-04-11,株式会社アートヴィレッヂ,,株式会社,東京都,墨田区,太平１丁目３０番１０号中村ビル１階,,13,107,1300012,,,2022-04-11,清算の結了等,,,2015-10-05,1,,,,,,0
1893,7011001026209,登記記録の閉鎖等,0,2022-04-22,2022-04-07,株式会社マックスアンドコー・ジャパン,,株式会社,東京都,港区,南青山６丁目１２番１号ＴＴＳ南青山ビル４階,,13,103,1070062,,,2022-04-07,合併による解散等,1010001029838,令和４年４月１日東京都港区北青山三丁目６番７号株式会社マックスマーラジャパン（1010001029838）に合併し解散,2015-10-05,1,,,,,マックスアンドコージャパン,0
1895,7011001124301,登記記録の閉鎖等,0,2022-04-22,2022-04-08,株式会社Ｓａｍｕｒａｉ　Ｓｗｏｒｄ,,株式会社,東京都,渋谷区,渋谷３丁目６番２号エクラート渋谷５Ｆ,,13,113,1500002,,,2022-04-08,清算の結了等,,,2018-09-20,1,,,,,サムライソード,0
1916,7012702014204,登記記録の閉鎖等,0,2022-04-22,2022-04-15,有限会社大高建設,,有限会社,埼玉県,ふじみ野市,新田２丁目３番２３号,,11,245,3560033,,,2022-04-15,清算の結了等,,,2015-10-05,1,,,,,オオタカケンセツ,0
1928,7020001106390,登記記録の閉鎖等,0,2022-04-22,2022-04-14,株式会社ＴＫ　Ｆａｃｔｏｒｙ,,株式会社,神奈川県,横浜市保土ケ谷区,権太坂１丁目２番１２－１１０号,,14,106,2400026,,,2022-04-14,清算の結了等,,,2015-10-05,1,,,,,ティーケイファクトリー,0
1941,7021002054249,登記記録の閉鎖等,0,2022-04-22,2022-04-13,有限会社かんまん,,有限会社,神奈川県,足柄下郡湯河原町,吉浜６８番地の１,,14,384,2590312,,,2022-04-13,清算の結了等,,,2015-10-05,1,,,,,カンマン,0
1959,7040002010540,登記記録の閉鎖等,0,2022-04-22,2022-04-18,有限会社細川商事,,有限会社,千葉県,千葉市中央区,富士見２丁目２５番１号,,12,101,2600015,,,2022-04-18,清算の結了等,,,2015-10-05,1,,,,,,0
1991,7120001148596,登記記録の閉鎖等,0,2022-04-22,2022-04-15,富士産業機器株式会社,,株式会社,大阪府,寝屋川市,新家１丁目１０番５号,,27,215,5720812,,,2022-04-15,清算の結了等,,,2015-10-05,1,,,,,フジサンギョウキキ,0
2022,7122002004027,登記記録の閉鎖等,0,2022-04-22,2022-04-14,藤井庄建物有限会社,,有限会社,大阪府,東大阪市,箕輪１丁目５番２４号,,27,227,5780914,,,2022-04-14,清算の結了等,,,2015-10-05,1,,,,,フジイショウタテモノ,0
2044,7170001002542,登記記録の閉鎖等,0,2022-04-22,2022-04-20,日章建設株式会社,,株式会社,和歌山県,和歌山市,宇治鉄砲場１１２番地６,,30,201,6408078,,,2022-04-20,清算の結了等,,,2015-10-05,1,,,,,ニッショウケンセツ,0
2051,7180001087970,登記記録の閉鎖等,0,2022-04-22,2022-04-18,ＵＴプログレス株式会社,,株式会社,愛知県,岩倉市,大地新町３丁目７１番地,,23,228,4820025,,,2022-04-18,合併による解散等,3140001041142,令和４年４月１日東京都品川区東五反田一丁目１１番１５号ＵＴコネクト株式会社（3140001041142）に合併し解散,2015-10-05,1,,,,,ユーティープログレス,0
2058,7180002050630,登記記録の閉鎖等,0,2022-04-22,2022-04-14,有限会社マルビシ,,有限会社,愛知県,名古屋市北区,上飯田南町３丁目５０番地の２上飯田ハイツ１棟５０７号,,23,103,4620804,,,2022-04-14,清算の結了等,,,2015-10-05,1,,,,,マルビシ,0
2064,7180301028484,登記記録の閉鎖等,0,2022-04-22,2022-04-14,モアソリューション株式会社,,株式会社,愛知県,高浜市,豊田町１丁目２１４番地１０,,23,227,4441304,,,2022-04-14,清算の結了等,,,2015-10-05,1,,,,,モアソリューション,0
2068,7200002002133,登記記録の閉鎖等,0,2022-04-22,2022-04-21,有限会社シーエーピー,,有限会社,岐阜県,岐阜市,五反田町１０番地,,21,201,5008328,,,2022-04-21,清算の結了等,,,2015-10-05,1,,,,,シーエーピー,0
2069,7200003005242,登記記録の閉鎖等,0,2022-04-22,2022-04-20,合同会社マルス・モガ,,合同会社,岐阜県,恵那市,東野１０５６番地１,,21,210,5097202,,,2022-04-20,清算の結了等,,,2021-06-23,1,,,,,マルスモガ,0
2090,7270001006715,登記記録の閉鎖等,0,2022-04-22,2022-04-08,山陰ニチレキ株式会社,,株式会社,鳥取県,米子市,富益町２２番地３,,31,202,6830103,,,2022-04-08,合併による解散等,3240001022727,令和４年４月１日広島県東広島市志和町別府８１６番地中国ニチレキ工事株式会社（3240001022727）に合併し解散,2015-10-05,1,,,,,サンインニチレキ,0
2104,7290003011595,登記記録の閉鎖等,0,2022-04-22,2022-04-14,合同会社Ｋアセットマネジメント,,合同会社,福岡県,福岡市中央区,薬院１丁目１２－１０,,40,133,8100022,,,2022-04-14,清算の結了等,,,2021-09-09,1,,,,,ケーアセットマネジメント,0
2109,7300001008690,登記記録の閉鎖等,0,2022-04-22,2022-04-18,株式会社麺匠,,株式会社,佐賀県,鳥栖市,古賀町３４６番地１,,41,203,8410083,,,2022-04-18,清算の結了等,,,2015-10-05,1,,,,,メンショウ,0
2132,7380002018211,登記記録の閉鎖等,0,2022-04-22,2022-04-06,有限会社奈良屋,,有限会社,福島県,白河市,一番町５番地,,07,205,9610947,,,2022-04-06,清算の結了等,,,2015-10-05,1,,,,,ナラヤ,0
2178,8010602006873,登記記録の閉鎖等,0,2022-04-22,2022-04-08,有限会社藤乃,,有限会社,東京都,江東区,大島４丁目５番１１号,,13,108,1360072,,,2022-04-08,清算の結了等,,,2015-10-05,1,,,,,フジノ,0
2180,8010703003794,登記記録の閉鎖等,0,2022-04-22,2022-04-18,ミドルリバー合同会社,,合同会社,東京都,豊島区,西池袋３丁目２１番１３号,,13,116,1710021,,,2022-04-18,清算の結了等,,,2017-09-01,1,,,,,ミドルリバー,0
2187,8010901021152,登記記録の閉鎖等,0,2022-04-22,2022-04-20,株式会社ＳＤＩコンサルティング,,株式会社,東京都,世田谷区,野毛１丁目１４番１１号Ｄ棟,,13,112,1580092,,,2022-04-20,合併による解散等,1010001087150,令和４年４月１日東京都新宿区新宿二丁目８番８号株式会社シーベース（1010001087150）に合併し解散,2015-10-05,1,,,,,エスディーアイコンサルティング,0
2192,8011001068794,登記記録の閉鎖等,0,2022-04-22,2022-04-13,株式会社アイビーレコード,,株式会社,東京都,品川区,上大崎３丁目１番１号,,13,109,1410021,,,2022-04-13,合併による解散等,3011001103060,令和４年３月３１日東京都品川区上大崎三丁目１番１号カルチュア・エンタテインメント株式会社（3011001103060）に合併し解散,2015-10-05,1,,,,,アイビーレコード,0
2209,8011301007865,登記記録の閉鎖等,0,2022-04-22,2022-04-15,株式会社東京公衆衛生研究所,,株式会社,東京都,文京区,後楽２丁目１５番３号,,13,105,1120004,,,2022-04-15,合併による解散等,7011001019237,令和４年４月１日東京都渋谷区千駄ケ谷五丁目２１番３号株式会社ビー・エム・エル（7011001019237）に合併し解散,2015-10-05,1,,,,,トウキョウコウシュウエイセイケンキュウジョ,0
2234,8020002007959,登記記録の閉鎖等,0,2022-04-22,2022-04-11,有限会社クボタ電気商会,,有限会社,神奈川県,横浜市金沢区,東朝比奈１丁目２３番１７号,,14,108,2360033,,,2022-04-11,清算の結了等,,,2015-10-05,1,,,,,クボタデンキショウカイ,0
2246,8021002054173,登記記録の閉鎖等,0,2022-04-22,2022-04-15,有限会社オレンジ技研,,有限会社,神奈川県,足柄下郡湯河原町,宮下３８２番地の１,,14,384,2590304,,,2022-04-15,清算の結了等,,,2015-10-05,1,,,,,オレンジギケン,0
2247,8021002055840,登記記録の閉鎖等,0,2022-04-22,2022-04-15,有限会社丸善露木商店,,有限会社,神奈川県,足柄上郡山北町,山北１８８９番地１６,,14,364,2580113,,,2022-04-15,清算の結了等,,,2015-10-05,1,,,,,マルゼンツユキショウテン,0
2265,8040002000474,登記記録の閉鎖等,0,2022-04-22,2022-04-15,有限会社旭ビル,,有限会社,千葉県,千葉市中央区,富士見１丁目１０番８号,,12,101,2600015,,,2022-04-15,清算の結了等,,,2015-10-05,1,,,,,アサヒビル,0
2274,8050001020002,登記記録の閉鎖等,0,2022-04-22,2022-04-14,株式会社ナゴシ,,株式会社,茨城県,坂東市,猫実１０６１番地７,,08,228,3060616,,,2022-04-14,清算の結了等,,,2015-10-05,1,,,,,ナゴシ,0
2298,8110002000070,登記記録の閉鎖等,0,2022-04-22,2022-04-20,有限会社黒埼不動産,,有限会社,新潟県,新潟市西区,金巻１０９８番地１,,15,107,9501112,,,2022-04-20,清算の結了等,,,2022-03-01,1,,,,,クロサキフドウサン,0
2321,8120902021719,登記記録の閉鎖等,0,2022-04-22,2022-04-20,有限会社エンジニアリングサポート,,有限会社,大阪府,豊中市,新千里東町１丁目２番１－４７０１号,,27,203,5600082,,,2022-04-20,清算の結了等,,,2015-10-05,1,,,,,エンジニアリングサポート,0
2325,8130001047490,登記記録の閉鎖等,0,2022-04-22,2022-04-18,Ｆレンタカーみやこ株式会社,,株式会社,京都府,京都市右京区,梅津石灘町４６番１,00036558,26,108,6150905,,,2022-04-18,合併による解散等,6120001165246,令和４年４月１日大阪市浪速区桜川二丁目１１番１０号Ｆレンタカー株式会社（6120001165246）に合併し解散,2015-10-05,1,,,,,エフレンタカーミヤコ,0
2359,8180002069959,登記記録の閉鎖等,0,2022-04-22,2022-04-12,株式会社マイドフードサービス,,株式会社,愛知県,春日井市,如意申町５丁目１２番地８,,23,206,4860918,,,2022-04-12,合併による解散等,7180001073665,令和４年４月１日愛知県春日井市如意申町五丁目１２番地の８株式会社あみやき亭（7180001073665）に合併し解散,2015-10-05,1,,,,,マイドフードサービス,0
2363,8180301009822,登記記録の閉鎖等,0,2022-04-22,2022-04-18,株式会社桑原商事,,株式会社,愛知県,豊川市,豊川町波通２６番地６,,23,207,4420033,,,2022-04-18,清算の結了等,,,2015-10-05,1,,,,,クワハラショウジ,0
2364,8180302007321,登記記録の閉鎖等,0,2022-04-22,2022-04-12,有限会社建築請負スズツネ,,有限会社,愛知県,豊橋市,東岩田２丁目１６番地の１５,,23,201,4400033,,,2022-04-12,清算の結了等,,,2015-10-05,1,,,,,ケンチクウケオイスズツネ,0
2400,8330002016061,登記記録の閉鎖等,0,2022-04-22,2022-04-11,有限会社外輪山バーベキュー,,有限会社,熊本県,阿蘇郡西原村,大字河原３５１５番地２,,43,432,8612404,,,2022-04-11,清算の結了等,,,2015-10-05,1,,,,,ガイリンザンバーベキュー,0
2414,8380005001808,登記記録の閉鎖等,0,2022-04-22,2022-04-14,川俣クレハ絹織協同組合,,その他の設立登記法人,福島県,伊達郡川俣町,大字鶴沢字馬場６－１,,07,308,9601406,,,2022-04-14,清算の結了等,,,2015-10-05,1,,,,,カワマタクレハキヌオリ,0
2437,8500001003472,登記記録の閉鎖等,0,2022-04-22,2022-04-18,株式会社ファジイ,,株式会社,愛媛県,松山市,福音寺町２９９番地２,,38,201,7900921,,,2022-04-18,清算の結了等,,,2015-10-05,1,,,,,ファジィ,0
2452,9010001178974,登記記録の閉鎖等,0,2022-04-22,2022-04-08,ティーエムジー株式会社,,株式会社,愛知県,名古屋市南区,丹後通４丁目８番地１,,23,112,4570801,,,2022-04-08,合併による解散等,3180002059683,令和４年４月１日名古屋市南区丹後通四丁目８番地１ティーエムジーインターナショナル株式会社（3180002059683）に合併し解散,2016-10-17,1,,,,,ティーエムジー,0
2472,9010403019743,登記記録の閉鎖等,0,2022-04-22,2022-04-18,ジーシーアイ合同会社,,合同会社,東京都,港区,赤坂６丁目１２番４－８０１号,,13,103,1070052,,,2022-04-18,合併による解散等,9010003029630,令和４年４月１日東京都千代田区麹町三丁目２番９号Ｌ－ＤＸ株式会社（9010003029630）に合併し解散,2018-11-27,1,,,,,ジーシーアイ,0
2490,9010801001435,登記記録の閉鎖等,0,2022-04-22,2022-04-15,エイチエムティエレクトロニクス株式会社,,株式会社,東京都,大田区,大森中２丁目２１番１０号,,13,111,1430014,,,2022-04-15,清算の結了等,,,2015-10-05,1,,,,,エイチエムティエレクトロニクス,0
2498,9011101074048,登記記録の閉鎖等,0,2022-04-22,2022-04-20,株式会社サンデー,,株式会社,東京都,新宿区,西新宿７丁目２０番１６号,,13,104,1600023,,,2022-04-20,合併による解散等,7011201017783,令和４年４月１５日東京都荒川区南千住三丁目４番２３号株式会社未来ビジョン（7011201017783）に合併し解散,2015-10-05,1,,,,,サンデー,0
2504,9011202005224,登記記録の閉鎖等,0,2022-04-22,2022-04-12,有限会社藤竜之介音楽事務所,,有限会社,東京都,中野区,中央２丁目４１番９号,,13,114,1640011,,,2022-04-12,清算の結了等,,,2015-10-05,1,,,,,フジリュウノスケオンガクジムショ,0
2513,9012303001491,登記記録の閉鎖等,0,2022-04-22,2022-04-08,合同会社縁咲,,合同会社,東京都,町田市,南成瀬４丁目１３番地２１,,13,209,1940045,,,2022-04-08,合併による解散等,1420003002017,令和４年３月１日青森県弘前市大字高屋字安田６５９番地１９合同会社ＯＳＡ（1420003002017）に合併し解散,2021-01-04,1,,,,,エニシサク,0
2558,9030005019470,登記記録の閉鎖等,0,2022-04-22,2022-04-15,一般社団法人Ｗｅｌｌ‐ｂｅｉｎｇ　Ｍａｋｅ,,その他の設立登記法人,埼玉県,狭山市,入間川１４７１－８０,,11,215,3501305,,,2022-04-15,清算の結了等,,,2019-05-28,1,,,,,ウェルビーイングメイク,0
2564,9040002054825,登記記録の閉鎖等,0,2022-04-22,2022-04-14,千代田興産有限会社,,有限会社,千葉県,成田市,三里塚御料牧場１－１番地,,12,211,2820011,,,2022-04-14,清算の結了等,,,2015-10-05,1,,,,,チヨダコウサン,0
2580,9080405004225,登記記録の閉鎖等,0,2022-04-22,2022-04-18,特定非営利活動法人浜松市身体障害者福祉協議会,,その他の設立登記法人,静岡県,浜松市北区,三ヶ日町都筑４８番地の２,,22,135,4311402,,,2022-04-18,清算の結了等,,,2015-10-05,1,,,,,ハママツシシンタイショウガイシャフクシキョウギカイ,0
2604,9120101002420,登記記録の閉鎖等,0,2022-04-22,2022-04-18,小走石油株式会社,,株式会社,大阪府,堺市堺区,寺地町東１丁１番２４号,,27,141,5900962,,,2022-04-18,清算の結了等,,,2015-10-05,1,,,,,,0
2605,9120101007386,登記記録の閉鎖等,0,2022-04-22,2022-04-19,株式会社山本無線電気商会,,株式会社,大阪府,堺市堺区,御陵通２９番２号,,27,141,5900057,,,2022-04-19,清算の結了等,,,2015-10-05,1,,,,,ヤマモトムセンデンキショウカイ,0
2623,9150001018539,登記記録の閉鎖等,0,2022-04-22,2022-04-19,株式会社新栄企画,,株式会社,奈良県,吉野郡下市町,大字阿知賀２４８４番地の８,,29,443,6380001,,,2022-04-19,清算の結了等,,,2015-10-05,1,,,,,シンエイキカク,0
2642,9180003016190,登記記録の閉鎖等,0,2022-04-22,2022-04-13,合同会社ちんかなスタジオ,,合同会社,愛知県,名古屋市守山区,大字下志段味字釼当先９７５番地の１インフィニティーＩＩ１０１号室,00073988,23,113,4630003,,,2022-04-13,清算の結了等,,,2015-10-05,1,,,,,チンカナスタジオ,0
2653,9220001012179,登記記録の閉鎖等,0,2022-04-22,2022-04-15,株式会社築田商店,,株式会社,石川県,小松市,宝町１９番地,,17,203,9230803,,,2022-04-15,清算の結了等,,,2015-10-05,1,,,,,チクダショウテン,0
2654,9220002014133,登記記録の閉鎖等,0,2022-04-22,2022-04-18,有限会社みばやしコンタクト,,有限会社,石川県,七尾市,国分町ラ部１３番地の９,,17,202,9260821,,,2022-04-18,清算の結了等,,,2015-10-05,1,,,,,ミバヤシコンタクト,0
2659,9240001006121,登記記録の閉鎖等,0,2022-04-22,2022-04-20,大松建設工業株式会社,,株式会社,広島県,広島市中区,本川町２丁目２番１７号,,34,101,7300802,,,2022-04-20,清算の結了等,,,2015-10-05,1,,,,,ダイマツケンセツコウギョウ,0
2671,9260001019658,登記記録の閉鎖等,0,2022-04-22,2022-04-19,金井商事株式会社,,株式会社,岡山県,津山市,山下５８番地１０,,33,203,7080022,,,2022-04-19,清算の結了等,,,2015-10-05,1,,,,,カナイショウジ,0
2674,9280002006414,登記記録の閉鎖等,0,2022-04-22,2022-04-20,有限会社ヒカワサンド,,有限会社,島根県,出雲市,斐川町名島５１７番地１,,32,203,6990622,,,2022-04-20,清算の結了等,,,2015-10-05,1,,,,,ヒカワサンド,0
2678,9290001060576,登記記録の閉鎖等,0,2022-04-22,2022-04-14,株式会社コスモネット,,株式会社,福岡県,福岡市博多区,浦田２丁目１４番１５号,,40,132,8120861,,,2022-04-14,清算の結了等,,,2015-10-05,1,,,,,コスモネット,0
