sequenceNumber,corporateNumber,process,correct,updateDate,changeDate,name,nameImageId,kind,prefectureName,cityName,streetNumber,addressImageId,prefectureCode,cityCode,postCode,addressOutside,addressOutsideImageId,closeDate,closeCause,successorCorporateNumber,changeCause,assignmentDate,latest,enName,enPrefectureName,enCityName,enAddressOutside,furigana,hihyoji
9,1010001183635,登記記録の閉鎖等,0,2024-06-28,2024-06-17,ＡＫＡ　Ｈｏｓｐｉｔａｌｉｔｙ株式会社,,株式会社,東京都,中央区,銀座２丁目１２－５銀座ＮＦビル４Ｆ,,13,102,1040061,,,2024-06-17,清算の結了等,,,2017-05-19,1,,,,,エーケーエーホスピタリティ,0
11,1010001240923,登記記録の閉鎖等,0,2024-06-28,2024-06-24,ＪＰｉＸ２号株式会社,,株式会社,東京都,千代田区,丸の内１丁目９番２号グラントウキョウサウスタワー８階,,13,101,1000005,,,2024-06-24,合併による解散等,3090001005573,令和６年６月１日山梨県甲府市丸の内二丁目２１番１号株式会社ランド開発（3090001005573）に合併し解散,2023-12-18,1,,,,,ジェイピックスニゴウ,0
23,1010401158484,登記記録の閉鎖等,0,2024-06-28,2024-06-14,株式会社ＴＢＩ,,株式会社,東京都,港区,東麻布１丁目９－１１ＧＲＯＷＴＨ１４０５,,13,103,1060044,,,2024-06-14,清算の結了等,,,2021-03-04,1,,,,,ティービーアイ,0
28,1010405019996,登記記録の閉鎖等,0,2024-06-28,2024-06-14,シカゴホールディング２一般社団法人,,その他の設立登記法人,東京都,港区,虎ノ門３丁目２２番１０－２０１号,,13,103,1050001,,,2024-06-14,清算の結了等,,,2021-07-20,1,,,,,シカゴホールディングツー,0
39,1011005002310,登記記録の閉鎖等,0,2024-06-28,2024-06-14,特定非営利活動法人まちづくり相談所,,その他の設立登記法人,東京都,渋谷区,猿楽町２９番１８号,,13,113,1500033,,,2024-06-14,清算の結了等,,,2015-10-05,1,,,,,マチヅクリソウダンジョ,0
40,1011101062729,登記記録の閉鎖等,0,2024-06-28,2024-06-13,ＳＫ　ｐｌａｎｅｔ　Ｊａｐａｎ株式会社,,株式会社,東京都,港区,六本木３丁目２番１号,,13,103,1060032,,,2024-06-13,清算の結了等,,,2015-10-05,1,,,,,エスケイプラネットジャパン,0
48,1011501005972,登記記録の閉鎖等,0,2024-06-28,2024-06-17,関東ツバメ株式会社,,株式会社,東京都,荒川区,西日暮里５丁目３６番９号,,13,118,1160013,,,2024-06-17,清算の結了等,,,2015-10-05,1,,,,,カントウツバメ,0
56,1012702006207,登記記録の閉鎖等,0,2024-06-28,2024-06-17,有限会社五十嵐水道工業,,有限会社,東京都,東久留米市,八幡町２丁目８番２０号,,13,222,2030042,,,2024-06-17,清算の結了等,,,2015-10-05,1,,,,,,0
71,1020002077463,登記記録の閉鎖等,0,2024-06-28,2024-06-17,有限会社柔整戸塚居宅介護サービスセンター,,有限会社,神奈川県,横浜市戸塚区,鳥が丘７９番地１３,,14,110,2440001,,,2024-06-17,清算の結了等,,,2015-10-05,1,,,,,ジュウセイトツカキョタクカイゴサービスセンター,0
95,1040001042400,登記記録の閉鎖等,0,2024-06-28,2024-06-17,株式会社ヤスダ,,株式会社,千葉県,松戸市,東松戸１丁目７番地の１－１３１８号,,12,207,2702225,,,2024-06-17,清算の結了等,,,2015-10-05,1,,,,,ヤスダ,0
97,1040001065277,登記記録の閉鎖等,0,2024-06-28,2024-06-17,株式会社エフ・ジー・ショップ加藤園,,株式会社,千葉県,柏市,十余二２８７番地１８,,12,217,2770872,,,2024-06-17,清算の結了等,,,2015-10-05,1,,,,,エフジーショップカトウ,0
117,1060005000930,登記記録の閉鎖等,0,2024-06-28,2024-06-21,社団医療法人成美会,,その他の設立登記法人,栃木県,宇都宮市,長岡町１２１７番地５,,09,201,3200004,,,2024-06-21,清算の結了等,,,2015-10-05,1,,,,,セイビカイ,0
126,1100002035710,登記記録の閉鎖等,0,2024-06-28,2024-06-13,有限会社イトウ,,有限会社,長野県,飯田市,桐林１７３７番地１,,20,205,3992565,,,2024-06-13,清算の結了等,,,2015-10-05,1,,,,,イトウ,0
138,1120003017598,登記記録の閉鎖等,0,2024-06-28,2024-06-25,エクスパタイズ合同会社,,合同会社,大阪府,大阪市城東区,諏訪４丁目１０番１号,,27,118,5360021,,,2024-06-25,清算の結了等,,,2020-06-16,1,,,,,エクスパタイズ,0
148,1140002009520,登記記録の閉鎖等,0,2024-06-28,2024-06-25,有限会社神戸スキッパー,,有限会社,兵庫県,神戸市長田区,西代通４丁目３番７号,,28,106,6530844,,,2024-06-25,清算の結了等,,,2015-10-05,1,,,,,コウベスキッパー,0
157,1180001044184,登記記録の閉鎖等,0,2024-06-28,2024-06-17,株式会社センゴク,,株式会社,愛知県,名古屋市守山区,八剣２丁目１８０５番地,,23,113,4630022,,,2024-06-17,清算の結了等,,,2015-10-05,1,,,,,センゴク,0
165,1180002083124,登記記録の閉鎖等,0,2024-06-28,2024-06-14,伊藤興業有限会社,,有限会社,愛知県,半田市,向山町２丁目４８番地,,23,205,4750084,,,2024-06-14,清算の結了等,,,2015-10-05,1,,,,,イトウコウギョウ,0
170,1180302008086,登記記録の閉鎖等,0,2024-06-28,2024-06-25,有限会社スピリッツ・インターナショナル,,有限会社,愛知県,豊橋市,西岩田６丁目１６番地の９,,23,201,4400831,,,2024-06-25,清算の結了等,,,2015-10-05,1,,,,,スピリッツインターナショナル,0
175,1200002002428,登記記録の閉鎖等,0,2024-06-28,2024-06-19,杉谷運輸有限会社,,有限会社,岐阜県,岐阜市,岩地１丁目９番２号,,21,201,5008225,,,2024-06-19,清算の結了等,,,2015-10-05,1,,,,,スギタニウンユ,0
182,1230005007751,登記記録の閉鎖等,0,2024-06-28,2024-06-14,一般社団法人縄文文化ふれあい塾,,その他の設立登記法人,富山県,砺波市,幸町５番１１号,,16,208,9391386,,,2024-06-14,清算の結了等,,,2015-10-05,1,,,,,,0
187,1290001056953,登記記録の閉鎖等,0,2024-06-28,2024-06-27,株式会社ＭＭコンサルタント,,株式会社,山口県,下関市,彦島緑町１１番１５号,,35,201,7500091,,,2024-06-27,清算の結了等,,,2015-10-05,1,,,,,,0
236,2010401142578,登記記録の閉鎖等,0,2024-06-28,2024-06-26,ＴＴソリューション株式会社,,株式会社,東京都,中央区,日本橋２丁目５番１号,,13,102,1030027,,,2024-06-26,合併による解散等,5180001088789,令和６年６月１３日名古屋市中村区名駅四丁目７番１号東海東京証券株式会社（5180001088789）に合併し解散,2018-12-13,1,,,,,ティーティーソリューション,0
237,2010401150291,登記記録の閉鎖等,0,2024-06-28,2024-06-24,株式会社Ｐｉｎｎａｃｌｅ,,株式会社,東京都,杉並区,西荻北５丁目９番９号,,13,115,1670042,,,2024-06-24,清算の結了等,,,2020-01-10,1,,,,,ピナクル,0
243,2010405019995,登記記録の閉鎖等,0,2024-06-28,2024-06-14,シカゴホールディング１一般社団法人,,その他の設立登記法人,東京都,港区,虎ノ門３丁目２２番１０－２０１号,,13,103,1050001,,,2024-06-14,清算の結了等,,,2021-07-20,1,,,,,シカゴホールディングワン,0
255,2010801028625,登記記録の閉鎖等,0,2024-06-28,2024-06-19,株式会社ありがとう学童進化塾,,株式会社,東京都,大田区,山王４丁目１２番５号ＴＹ山王４０１,,13,111,1430023,,,2024-06-19,清算の結了等,,,2018-03-09,1,,,,,アリガトウガクドウシンカジュク,0
267,2011101054774,登記記録の閉鎖等,0,2024-06-28,2024-06-20,株式会社Ｈｅｐ　Ｊａｐａｎ　Ｉｎｔｅｒｎａｔｉｏｎａｌ,,株式会社,東京都,新宿区,新宿６丁目７－１エルプリメント新宿＃５０８,,13,104,1600022,,,2024-06-20,清算の結了等,,,2015-10-05,1,,,,,ヘップジャパンインターナショナル,0
274,2011501016795,登記記録の閉鎖等,0,2024-06-28,2024-06-26,株式会社コクア,,株式会社,東京都,荒川区,荒川３丁目３３番２号,,13,118,1160002,,,2024-06-26,清算の結了等,,,2015-10-05,1,,,,,コクア,0
313,2050002027844,登記記録の閉鎖等,0,2024-06-28,2024-06-25,有限会社藤代商店,,有限会社,茨城県,神栖市,波崎１１１８番地の５,,08,232,3140408,,,2024-06-25,清算の結了等,,,2015-10-05,1,,,,,フジシロショウテン,0
317,2070002019658,登記記録の閉鎖等,0,2024-06-28,2024-06-26,有限会社藤井電気商会,,有限会社,群馬県,伊勢崎市,平和町１５番９号,,10,204,3720041,,,2024-06-26,清算の結了等,,,2015-10-05,1,,,,,フジイデンキショウカイ,0
335,2130001012500,登記記録の閉鎖等,0,2024-06-28,2024-06-25,株式会社カトレヤ,,株式会社,京都府,京都市山科区,西野広見町４６番地の１１,,26,110,6078348,,,2024-06-25,合併による解散等,9130001053273,令和６年６月２５日京都市東山区祇園町南側５７０番地の１１８株式会社カトレヤ（9130001053273）に合併し解散,2015-10-05,1,,,,,カトレヤ,0
356,2180001009715,登記記録の閉鎖等,0,2024-06-28,2024-06-18,株式会社アオイ,,株式会社,愛知県,名古屋市瑞穂区,上坂町２丁目２２番地,,23,108,4670821,,,2024-06-18,清算の結了等,,,2015-10-05,1,,,,,アオイ,0
358,2180001155889,登記記録の閉鎖等,0,2024-06-28,2024-06-18,株式会社いちか,,株式会社,愛知県,一宮市,緑５丁目２－１８,,23,203,4910862,,,2024-06-18,清算の結了等,,,2023-04-18,1,,,,,イチカ,0
368,2200001021725,登記記録の閉鎖等,0,2024-06-28,2024-06-26,株式会社エスアンドエス,,株式会社,岐阜県,瑞浪市,土岐町２６番地の１,,21,208,5096101,,,2024-06-26,合併による解散等,5120001001831,令和６年６月２１日大阪市鶴見区今津南一丁目５番３２号株式会社コノミヤ（5120001001831）に合併し解散,2015-10-05,1,,,,,エスアンドエス,0
391,2340005004365,登記記録の閉鎖等,0,2024-06-28,2024-06-24,特定非営利活動法人宇宙船種子島,,その他の設立登記法人,鹿児島県,熊毛郡南種子町,中之上２５４８番地,,46,502,8913701,,,2024-06-24,清算の結了等,,,2015-10-05,1,,,,,ウチュウセンタネガシマ,0
416,2470002002730,登記記録の閉鎖等,0,2024-06-28,2024-06-25,有限会社河野鉄工所,,有限会社,香川県,高松市,香西北町３７番地の１０,,37,201,7618011,,,2024-06-25,清算の結了等,,,2015-10-05,1,,,,,コウノテッコウショ,0
419,2500002002215,登記記録の閉鎖等,0,2024-06-28,2024-06-21,有限会社木証,,有限会社,愛媛県,松山市,志津川町１５２番地１０,,38,201,7918003,,,2024-06-21,清算の結了等,,,2015-10-05,1,,,,,キショウ,0
423,3010001085490,登記記録の閉鎖等,0,2024-06-28,2024-06-17,日本リニアック株式会社,,株式会社,東京都,千代田区,岩本町１丁目９番４号,,13,101,1010032,,,2024-06-17,清算の結了等,,,2015-10-05,1,,,,,ニホンリニアック,0
426,3010001154790,登記記録の閉鎖等,0,2024-06-28,2024-06-17,株式会社小田商事,,株式会社,東京都,千代田区,東神田１丁目１２番９号,,13,101,1010031,,,2024-06-17,清算の結了等,,,2015-10-05,1,,,,,オダショウジ,0
445,3010402029724,登記記録の閉鎖等,0,2024-06-28,2024-06-14,有限会社アリゼインターナショナル,,有限会社,東京都,港区,赤坂７丁目９番５号,,13,103,1070052,,,2024-06-14,清算の結了等,,,2015-10-05,1,,,,,アリゼインターナショナル,0
446,3010501030005,登記記録の閉鎖等,0,2024-06-28,2024-06-24,株式会社フードプラネット,,株式会社,東京都,台東区,台東２丁目１２番６号,,13,106,1100016,,,2024-06-24,清算の結了等,,,2015-10-05,1,,,,,フードプラネット,0
449,3010505003329,登記記録の閉鎖等,0,2024-06-28,2024-06-20,一般社団法人フリーウェイ,,その他の設立登記法人,東京都,台東区,台東４丁目２９番１３－８０２号,,13,106,1100016,,,2024-06-20,清算の結了等,,,2022-08-10,1,,,,,フリーウェイ,0
451,3010601060109,登記記録の閉鎖等,0,2024-06-28,2024-06-24,株式会社Ｘ３,,株式会社,東京都,江東区,豊洲６丁目２番３１－２１０８号,,13,108,1350061,,,2024-06-24,清算の結了等,,,2021-10-26,1,,,,,エックススリー,0
471,3011301024188,登記記録の閉鎖等,0,2024-06-28,2024-06-24,バンドパワー株式会社,,株式会社,東京都,杉並区,高井戸西１丁目２７番２１号月村ビル１０３,,13,115,1680071,,,2024-06-24,清算の結了等,,,2018-06-06,1,,,,,バンドパワー,0
475,3011701009920,登記記録の閉鎖等,0,2024-06-28,2024-06-24,株式会社アラバスター,,株式会社,東京都,台東区,浅草橋２丁目２９番１４号,,13,106,1110053,,,2024-06-24,清算の結了等,,,2015-10-05,1,,,,,アラバスター,0
477,3011703002824,登記記録の閉鎖等,0,2024-06-28,2024-06-26,合同会社ＳＭＳＰ,,合同会社,東京都,江戸川区,江戸川３丁目４０番地１５,,13,123,1320013,,,2024-06-26,清算の結了等,,,2021-04-08,1,,,,,エスエムエスピー,0
479,3013301044728,登記記録の閉鎖等,0,2024-06-28,2024-06-18,ＴＫラプラス株式会社,,株式会社,東京都,豊島区,池袋２丁目５番１０号ＯＺビルディング３Ｆ,,13,116,1710014,,,2024-06-18,清算の結了等,,,2019-11-06,1,,,,,ティーケーラプラス,0
499,3021002036151,登記記録の閉鎖等,0,2024-06-28,2024-06-25,有限会社アイビジョン,,有限会社,神奈川県,厚木市,愛名１２５番地６,,14,212,2430038,,,2024-06-25,清算の結了等,,,2015-10-05,1,,,,,アイビジョン,0
509,3030002091370,登記記録の閉鎖等,0,2024-06-28,2024-06-17,有限会社ジョージーポージー,,有限会社,千葉県,野田市,みずき２丁目２０番地の１８６,,12,208,2780027,,,2024-06-17,清算の結了等,,,2015-10-05,1,,,,,ジョージーポージー,0
510,3030002098597,登記記録の閉鎖等,0,2024-06-28,2024-06-25,有限会社池田機械,,有限会社,埼玉県,川口市,鳩ヶ谷緑町１丁目６番地の５,,11,203,3340015,,,2024-06-25,清算の結了等,,,2015-10-05,1,,,,,イケダキカイ,0
533,3080102018847,登記記録の閉鎖等,0,2024-06-28,2024-06-26,有限会社アタミ土地開発,,有限会社,静岡県,熱海市,泉２７１番地の１３,,22,205,4130001,,,2024-06-26,清算の結了等,,,2015-10-05,1,,,,,アタミトチカイハツ,0
534,3080401013739,登記記録の閉鎖等,0,2024-06-28,2024-06-27,株式会社ドリーミーワーク,,株式会社,静岡県,浜松市浜名区,新原３９１２番地,,22,139,4340003,,,2024-06-27,清算の結了等,,,2015-10-05,1,,,,,,0
546,3120001109008,登記記録の閉鎖等,0,2024-06-28,2024-06-26,株式会社ナカニシマリン,,株式会社,大阪府,大阪市港区,福崎２丁目８番３９号,,27,107,5520013,,,2024-06-26,清算の結了等,,,2015-10-05,1,,,,,ナカニシマリン,0
567,3130001042802,登記記録の閉鎖等,0,2024-06-28,2024-06-26,水無瀬産業株式会社,,株式会社,京都府,京丹後市,大宮町周枳１４６３番地,,26,212,6292503,,,2024-06-26,清算の結了等,,,2015-10-05,1,,,,,ミナセサンギョウ,0
590,3180001061062,登記記録の閉鎖等,0,2024-06-28,2024-06-18,株式会社カミングセンチュリー,,株式会社,愛知県,名古屋市瑞穂区,大喜町４丁目１５２番地,,23,108,4670822,,,2024-06-18,清算の結了等,,,2015-10-05,1,,,,,カミングセンチュリー,0
596,3180002020694,登記記録の閉鎖等,0,2024-06-28,2024-06-17,有限会社フィッシングショップイトウ,,有限会社,愛知県,名古屋市熱田区,森後町９番１号,,23,109,4560024,,,2024-06-17,清算の結了等,,,2015-10-05,1,,,,,フィッシングショップイトウ,0
599,3180301018084,登記記録の閉鎖等,0,2024-06-28,2024-06-17,加茂家庭用品販売株式会社,,株式会社,愛知県,豊田市,西山町２丁目２２番地１０,,23,211,4710062,,,2024-06-17,清算の結了等,,,2015-10-05,1,,,,,カモカテイヨウヒンハンバイ,0
603,3180305005260,登記記録の閉鎖等,0,2024-06-28,2024-06-20,特定非営利活動法人人の環ネットあんじょう,,その他の設立登記法人,愛知県,安城市,花ノ木町７番６号コミュニテイ住宅花ノ木２０１,,23,212,4460039,,,2024-06-20,清算の結了等,,,2015-10-05,1,,,,,ヒトノワネットアンジョウ,0
614,3240001051833,登記記録の閉鎖等,0,2024-06-28,2024-06-17,株式会社グラティテュード,,株式会社,東京都,中央区,日本橋室町１丁目１１番１２号日本橋水野ビル７階,,13,102,1030022,,,2024-06-17,清算の結了等,,,2017-10-17,1,,,,,グラティテュード,0
616,3250005004943,登記記録の閉鎖等,0,2024-06-28,2024-06-24,農事組合法人ファーム上ゲ,,その他の設立登記法人,山口県,長門市,三隅下２８８１番地,,35,211,7593803,,,2024-06-24,清算の結了等,,,2015-10-05,1,,,,,ファームアゲ,0
618,3260001014499,登記記録の閉鎖等,0,2024-06-28,2024-06-14,株式会社ハラダ商事,,株式会社,岡山県,倉敷市,新田３２１８番地,,33,202,7100038,,,2024-06-14,清算の結了等,,,2015-10-05,1,,,,,ハラダショウジ,0
647,3350002008409,登記記録の閉鎖等,0,2024-06-28,2024-06-21,有限会社クラーズ,,有限会社,宮崎県,宮崎市,霧島４丁目５４番地,,45,201,8800032,,,2024-06-21,清算の結了等,,,2015-10-05,1,,,,,クラーズ,0
650,3370002009644,登記記録の閉鎖等,0,2024-06-28,2024-06-27,有限会社五橋企画,,有限会社,宮城県,仙台市青葉区,五橋１丁目１番５８－１０１０号,,04,101,9800022,,,2024-06-27,清算の結了等,,,2015-10-05,1,,,,,イツツバシキカク,0
653,3380001017069,登記記録の閉鎖等,0,2024-06-28,2024-06-21,株式会社オープンワークス,,株式会社,福島県,いわき市,南台１丁目４番地の１１,,07,204,9748242,,,2024-06-21,清算の結了等,,,2015-10-05,1,,,,,オープンワークス,0
656,3380002014222,登記記録の閉鎖等,0,2024-06-28,2024-06-21,有限会社世亜建設機械,,有限会社,福島県,郡山市,中野１丁目２２番４号,,07,203,9630206,,,2024-06-21,清算の結了等,,,2015-10-05,1,,,,,セアケンセツキカイ,0
659,3390002007778,登記記録の閉鎖等,0,2024-06-28,2024-06-13,有限会社日本エアーツール社,,有限会社,山形県,酒田市,御成町１２番１０号,,06,204,9980024,,,2024-06-13,清算の結了等,,,2015-10-05,1,,,,,ニホンエアーツールシャ,0
671,3500001007461,登記記録の閉鎖等,0,2024-06-28,2024-06-25,旭東経営サポート株式会社,,株式会社,愛媛県,松山市,千舟町５丁目５番地１５,,38,201,7900011,,,2024-06-25,清算の結了等,,,2015-10-05,1,,,,,アサヒケイエイサポート,0
672,3500002023152,登記記録の閉鎖等,0,2024-06-28,2024-06-24,有限会社丸ノ内精肉店,,有限会社,愛媛県,宇和島市,御殿町４番２３号,,38,203,7980061,,,2024-06-24,清算の結了等,,,2015-10-05,1,,,,,マルノウチセイニクテン,0
674,4010001133538,登記記録の閉鎖等,0,2024-06-28,2024-06-17,フーズリンク株式会社,,株式会社,神奈川県,横浜市港北区,綱島東３丁目５－３０Ａ３０１,,14,109,2230052,,,2024-06-17,清算の結了等,,,2015-10-05,1,,,,,フーズリンク,0
676,4010001223636,登記記録の閉鎖等,0,2024-06-28,2024-06-18,佩科株式会社,,株式会社,東京都,千代田区,内神田１丁目２番２号小川ビル５階,,13,101,1010047,,,2024-06-18,清算の結了等,,,2022-01-12,1,,,,,ペキ,0
680,4010005008661,登記記録の閉鎖等,0,2024-06-28,2024-06-20,特定非営利活動法人グッドヘルスコミュニケーションズ,,その他の設立登記法人,東京都,中央区,日本橋１丁目２１番３号,,13,102,1030027,,,2024-06-20,清算の結了等,,,2015-10-05,1,,,,,グッドヘルスコミュニケーションズ,0
681,4010005032769,登記記録の閉鎖等,0,2024-06-28,2024-06-20,一般社団法人湯津上,,その他の設立登記法人,東京都,千代田区,丸の内３丁目１番１号東京共同会計事務所内,,13,101,1000005,,,2024-06-20,清算の結了等,,,2021-01-13,1,,,,,ユヅカミ,0
691,4010403025498,登記記録の閉鎖等,0,2024-06-28,2024-06-17,ＭＡＲ　ＩＯＪ　ＧＰ合同会社,,合同会社,東京都,中央区,銀座１丁目６番１１号アースタックス税理士法人内,,13,102,1040061,,,2024-06-17,清算の結了等,,,2021-06-14,1,,,,,エムエーアールアイオージェージーピー,0
699,4011001024289,登記記録の閉鎖等,0,2024-06-28,2024-06-14,ワイ・ケー電子株式会社,,株式会社,東京都,渋谷区,千駄ヶ谷５丁目３２番６号大西ビル４０３,,13,113,1510051,,,2024-06-14,清算の結了等,,,2015-10-05,1,,,,,ワイケーデンシ,0
709,4011101046051,登記記録の閉鎖等,0,2024-06-28,2024-06-21,株式会社イーフリークス,,株式会社,東京都,新宿区,高田馬場３丁目２番５号,,13,104,1690075,,,2024-06-21,清算の結了等,,,2015-10-05,1,,,,,イーフリークス,0
729,4012803003034,登記記録の閉鎖等,0,2024-06-28,2024-06-18,ＴＡＮＳＴＡＡＦＬ合同会社,,合同会社,東京都,立川市,西砂町２丁目１８番地の２４,,13,202,1900034,,,2024-06-18,清算の結了等,,,2023-03-16,1,,,,,タンスターフル,0
735,4013402002600,登記記録の閉鎖等,0,2024-06-28,2024-06-26,有限会社テニスピーアール,,有限会社,東京都,多摩市,中沢２丁目１１番地４－１０２,,13,224,2060036,,,2024-06-26,清算の結了等,,,2015-10-05,1,,,,,テニスピーアール,0
738,4020001094151,登記記録の閉鎖等,0,2024-06-28,2024-06-13,株式会社まとい,,株式会社,神奈川県,横浜市戸塚区,小雀町１１３７番地,,14,110,2440004,,,2024-06-13,合併による解散等,3020001007799,令和６年６月１２日横浜市戸塚区小雀町１１３７番地株式会社長野工務店（3020001007799）に合併し解散,2015-10-05,1,,,,,マトイ,0
750,4030001039238,登記記録の閉鎖等,0,2024-06-28,2024-06-25,株式会社モデル,,株式会社,埼玉県,八潮市,中央２丁目２７番地２０,,11,234,3400816,,,2024-06-25,清算の結了等,,,2015-10-05,1,,,,,モデル,0
758,4030002004422,登記記録の閉鎖等,0,2024-06-28,2024-06-25,有限会社クラサキ工業,,有限会社,埼玉県,さいたま市見沼区,大字風渡野１１０番地の２,,11,104,3370017,,,2024-06-25,清算の結了等,,,2015-10-05,1,,,,,クラサキコウギョウ,0
768,4040002080990,登記記録の閉鎖等,0,2024-06-28,2024-06-17,有限会社北木建築積算,,有限会社,千葉県,茂原市,本納２４１２番地８,,12,210,2994114,,,2024-06-17,清算の結了等,,,2015-10-05,1,,,,,キタキケンチクセキサン,0
769,4040003015871,登記記録の閉鎖等,0,2024-06-28,2024-06-14,Ｆｌｅｕｒ＆Ｃｏ合同会社,,合同会社,千葉県,千葉市中央区,新田町５番１０号わかちく千葉ビル１Ｆ,,12,101,2600027,,,2024-06-14,合併による解散等,8040001060874,令和６年６月１日千葉市中央区新田町５番１０号わかちく千葉ビル１Ｆ株式会社ｆｌｅｕｒ　ｈａｉｒ（8040001060874）に合併し解散,2020-08-11,1,,,,,フルールアンドコー,0
774,4050005000078,登記記録の閉鎖等,0,2024-06-28,2024-06-25,医療法人社団加畑医院,,その他の設立登記法人,茨城県,水戸市,千波町２８６７番地の８２,,08,201,3100851,,,2024-06-25,清算の結了等,,,2015-10-05,1,,,,,カハタイイン,0
779,4070001026265,登記記録の閉鎖等,0,2024-06-28,2024-06-25,株式会社リトルサン,,株式会社,群馬県,伊勢崎市,市場町２丁目３５８番地３,,10,204,3792211,,,2024-06-25,清算の結了等,,,2015-10-05,1,,,,,リトルサン,0
788,4080401010941,登記記録の閉鎖等,0,2024-06-28,2024-06-25,株式会社しんふぉにい,,株式会社,静岡県,浜松市中央区,板屋町２番地,,22,138,4300928,,,2024-06-25,清算の結了等,,,2015-10-05,1,,,,,シンフォニイ,0
792,4100002001148,登記記録の閉鎖等,0,2024-06-28,2024-06-13,有限会社神田商店,,有限会社,長野県,長野市,篠ノ井布施高田１２９４番地,,20,201,3888007,,,2024-06-13,清算の結了等,,,2015-10-05,1,,,,,カンダショウテン,0
800,4120001002830,登記記録の閉鎖等,0,2024-06-28,2024-06-27,日本陸運株式会社,,株式会社,大阪府,大阪市鶴見区,横堤４丁目２６番２号,,27,124,5380052,,,2024-06-27,清算の結了等,,,2015-10-05,1,,,,,ニホンリクウン,0
806,4120001155471,登記記録の閉鎖等,0,2024-06-28,2024-06-26,門真機工株式会社,,株式会社,大阪府,守口市,金田町２丁目１９番２０号,,27,209,5700011,,,2024-06-26,清算の結了等,,,2015-10-05,1,,,,,カドマキコウ,0
814,4120002079496,登記記録の閉鎖等,0,2024-06-28,2024-06-26,カエミ興産有限会社,,有限会社,大阪府,門真市,元町１２番２９号,,27,223,5710057,,,2024-06-26,清算の結了等,,,2015-10-05,1,,,,,カエミコウサン,0
822,4122001003874,登記記録の閉鎖等,0,2024-06-28,2024-06-24,第一合金工具株式会社,,株式会社,大阪府,東大阪市,中小阪２丁目３番３号,,27,227,5770804,,,2024-06-24,清算の結了等,,,2015-10-05,1,,,,,ダイイチゴウキンコウグ,0
831,4140001078662,登記記録の閉鎖等,0,2024-06-28,2024-06-25,株式会社トゥルーラブヨシイ,,株式会社,兵庫県,伊丹市,奥畑２丁目３６番地,,28,207,6640025,,,2024-06-25,清算の結了等,,,2015-10-05,1,,,,,トゥルーラブヨシイ,0
844,4180001115263,登記記録の閉鎖等,0,2024-06-28,2024-06-18,株式会社アップハンド,,株式会社,愛知県,名古屋市瑞穂区,大喜町４丁目１５２番地,,23,108,4670822,,,2024-06-18,清算の結了等,,,2015-10-05,1,,,,,アップハンド,0
851,4180301017390,登記記録の閉鎖等,0,2024-06-28,2024-06-20,株式会社ハセファーム,,株式会社,愛知県,刈谷市,小垣江町東中根８番地,,23,210,4480813,,,2024-06-20,清算の結了等,,,2015-10-05,1,,,,,ハセファーム,0
864,4240001014921,登記記録の閉鎖等,0,2024-06-28,2024-06-17,株式会社コイ・テック,,株式会社,東京都,中央区,新川２丁目１８番４号八重洲マンション４０１,,13,102,1040033,,,2024-06-17,清算の結了等,,,2015-10-05,1,,,,,コイテック,0
872,4290001048551,登記記録の閉鎖等,0,2024-06-28,2024-06-03,神原製粉株式会社,,株式会社,福岡県,久留米市,荒木町荒木１９６３番地の７,,40,203,8300063,,,2024-06-03,清算の結了等,,,2015-10-05,1,,,,,カンバラセイフン,0
882,4310001010847,登記記録の閉鎖等,0,2024-06-28,2024-06-19,上県タクシー株式会社,,株式会社,長崎県,対馬市,上対馬町比田勝６８７番地４,,42,209,8171701,,,2024-06-19,清算の結了等,,,2015-10-05,1,,,,,カミアガタタクシー,0
887,4330001015852,登記記録の閉鎖等,0,2024-06-28,2024-06-21,株式会社青柳,,株式会社,熊本県,人吉市,中青井町３２１番地の１,,43,203,8680008,,,2024-06-21,清算の結了等,,,2015-10-05,1,,,,,アオヤギ,0
892,4370005001820,登記記録の閉鎖等,0,2024-06-28,2024-06-14,医療法人社団結城産婦人科医院,,その他の設立登記法人,宮城県,仙台市青葉区,台原２丁目１２番８号,,04,101,9810911,,,2024-06-14,清算の結了等,,,2015-10-05,1,,,,,ユウキサンフジンカイイン,0
903,4380005001803,登記記録の閉鎖等,0,2024-06-28,2024-06-18,財団法人福島市開発公社,,その他の設立登記法人,福島県,福島市,五老内町３番１号,,07,201,9608111,,,2024-06-18,清算の結了等,,,2015-10-05,1,,,,,,0
905,4390001005518,登記記録の閉鎖等,0,2024-06-28,2024-06-13,株式会社毎日新聞山形中央専売所,,株式会社,山形県,山形市,錦町１５番６８号,,06,201,9900056,,,2024-06-13,清算の結了等,,,2015-10-05,1,,,,,マイニチシンブンヤマガタチュウオウセンバイショ,0
908,4410001010548,登記記録の閉鎖等,0,2024-06-28,2024-06-17,株式会社ボヌール,,株式会社,秋田県,大仙市,戸蒔字錨１７番地１,,05,212,0140044,,,2024-06-17,清算の結了等,,,2015-10-05,1,,,,,ボヌール,0
913,4430001002576,登記記録の閉鎖等,0,2024-06-28,2024-06-21,エヌ・ティ・ティ・システムサポート株式会社,,株式会社,北海道,札幌市中央区,南八条西７丁目,,01,101,0640808,,,2024-06-21,清算の結了等,,,2015-10-05,1,,,,,エヌティティシステムサポート,0
916,4430001064922,登記記録の閉鎖等,0,2024-06-28,2024-06-21,株式会社ケービーエフシー,,株式会社,北海道,札幌市白石区,中央二条３丁目１番１５号,,01,104,0030012,,,2024-06-21,清算の結了等,,,2015-10-05,1,,,,,ケービーエフシー,0
926,4480002016281,登記記録の閉鎖等,0,2024-06-28,2024-06-25,有限会社祖川時計店,,有限会社,徳島県,海部郡海陽町,奥浦字町内１８２番地,,36,388,7750302,,,2024-06-25,清算の結了等,,,2024-05-21,1,,,,,ソガワトケイテン,0
928,4490002012552,登記記録の閉鎖等,0,2024-06-28,2024-06-24,有限会社のいち動物病院,,有限会社,高知県,香南市,野市町西野１０６９番地１４,,39,211,7815232,,,2024-06-24,清算の結了等,,,2015-10-05,1,,,,,ノイチドウブツビョウイン,0
944,5010002018423,登記記録の閉鎖等,0,2024-06-28,2024-06-18,有限会社オフイスアール,,有限会社,東京都,中央区,築地３丁目１７番１０号築地バンキヤビオン６０５,,13,102,1040045,,,2024-06-18,清算の結了等,,,2015-10-05,1,,,,,オフイスアール,0
945,5010002020263,登記記録の閉鎖等,0,2024-06-28,2024-06-18,有限会社さんぱん,,有限会社,東京都,中央区,晴海１丁目６番１－７１２号,,13,102,1040053,,,2024-06-18,清算の結了等,,,2015-10-05,1,,,,,サンパン,0
968,5010901021766,登記記録の閉鎖等,0,2024-06-28,2024-06-17,株式会社Ｏ’ｓ＆Ｃｏｎｓｕｌｔｉｎｇ,,株式会社,東京都,千代田区,永田町２丁目１７番１７号,,13,101,1000014,,,2024-06-17,清算の結了等,,,2015-10-05,1,,,,,オズアンドコンサルティング,0
986,5012301007560,登記記録の閉鎖等,0,2024-06-28,2024-06-25,株式会社アイベール,,株式会社,東京都,町田市,真光寺３丁目２番地３‐３‐３０４,,13,209,1950057,,,2024-06-25,清算の結了等,,,2015-10-05,1,,,,,アイベール,0
987,5012401032459,登記記録の閉鎖等,0,2024-06-28,2024-06-26,株式会社ＡＪ　ＧＡＲＡＧＥ,,株式会社,東京都,三鷹市,上連雀３丁目６番２号,,13,204,1810012,,,2024-06-26,清算の結了等,,,2017-03-06,1,,,,,エージェーガレージ,0
993,5020001137355,登記記録の閉鎖等,0,2024-06-28,2024-06-14,株式会社ビライズ,,株式会社,神奈川県,横浜市旭区,上白根町７８４番地３７,,14,112,2410001,,,2024-06-14,清算の結了等,,,2020-08-26,1,,,,,ビライズ,0
998,5020002078912,登記記録の閉鎖等,0,2024-06-28,2024-06-14,有限会社クイックシフト,,有限会社,神奈川県,横浜市鶴見区,鶴見中央３丁目２１番７号１Ｆ,,14,101,2300051,,,2024-06-14,清算の結了等,,,2015-10-05,1,,,,,クイックシフト,0
1014,5030002073417,登記記録の閉鎖等,0,2024-06-28,2024-06-25,有限会社埼北工業,,有限会社,埼玉県,川越市,大字大仙波３４７番地１６,,11,201,3500032,,,2024-06-25,清算の結了等,,,2015-10-05,1,,,,,サイホクコウギョウ,0
1019,5040001107273,登記記録の閉鎖等,0,2024-06-28,2024-06-14,株式会社クラベル,,株式会社,千葉県,松戸市,松戸１２２８番地の１松戸ステーションビル５Ｆ,,12,207,2710092,,,2024-06-14,清算の結了等,,,2018-12-13,1,,,,,クラベル,0
1048,5120001048096,登記記録の閉鎖等,0,2024-06-28,2024-06-26,山田鋼機株式会社,,株式会社,大阪府,大阪市西区,九条南３丁目１１番９号,,27,106,5500025,,,2024-06-26,清算の結了等,,,2015-10-05,1,,,,,ヤマダコウキ,0
1055,5120001187712,登記記録の閉鎖等,0,2024-06-28,2024-06-21,株式会社ＤＯＲＥＩＳ,,株式会社,大阪府,大阪市中央区,材木町１－６・４０１号室,,27,128,5400010,,,2024-06-21,清算の結了等,,,2015-10-05,1,,,,,ドレイス,0
1063,5120101066444,登記記録の閉鎖等,0,2024-06-28,2024-06-23,株式会社ピーナッツ,,株式会社,大阪府,泉南郡岬町,深日２４５０－６４,,27,366,5990303,,,2024-06-23,清算の結了等,,,2022-11-01,1,,,,,ピーナッツ,0
1079,5140002009145,登記記録の閉鎖等,0,2024-06-28,2024-06-25,有限会社福昌,,有限会社,兵庫県,神戸市長田区,大道通１丁目７番地,,28,106,6530833,,,2024-06-25,清算の結了等,,,2015-10-05,1,,,,,フクショウ,0
1096,5190001023308,登記記録の閉鎖等,0,2024-06-28,2024-06-25,株式会社長瀬不動産,,株式会社,三重県,桑名市,新築町１０番地１,,24,205,5110064,,,2024-06-25,清算の結了等,,,2016-01-05,1,,,,,ナガセフドウサン,0
1098,5200002009213,登記記録の閉鎖等,0,2024-06-28,2024-06-24,可児建設有限会社,,有限会社,岐阜県,岐阜市,本荘中ノ町９丁目４７番地,,21,201,5008364,,,2024-06-24,清算の結了等,,,2015-10-05,1,,,,,カニケンセツ,0
1106,5280005005375,登記記録の閉鎖等,0,2024-06-28,2024-06-27,石鎚本教琴彈山石見教会,00004964,その他の設立登記法人,島根県,鹿足郡津和野町,山下１１９０番地内１,,32,501,6995635,,,2024-06-27,清算の結了等,,,2015-10-05,1,,,,,イシヅチホンキョウコトビキヤマイワミキョウカイ,0
1115,5290002020566,登記記録の閉鎖等,0,2024-06-28,2024-06-04,有限会社ＦＩ物流サービス,,有限会社,福岡県,福岡市東区,松島１丁目２９番１０号,,40,131,8120062,,,2024-06-04,清算の結了等,,,2015-10-05,1,,,,,エフワンブツリュウサービス,0
1121,5330001002503,登記記録の閉鎖等,0,2024-06-28,2024-06-19,株式会社セイ・エンタープライズ,,株式会社,熊本県,熊本市南区,江越１丁目８番２４号,,43,104,8600834,,,2024-06-19,清算の結了等,,,2015-10-05,1,,,,,セイエンタープライズ,0
1137,5380002004460,登記記録の閉鎖等,0,2024-06-28,2024-06-20,有限会社スクスク,,有限会社,福島県,福島市,松川町浅川字真田２番地の６,,07,201,9601245,,,2024-06-20,清算の結了等,,,2015-10-05,1,,,,,スクスク,0
1147,5420002001544,登記記録の閉鎖等,0,2024-06-28,2024-06-24,有限会社スマル建築総合企画事務所,,有限会社,青森県,青森市,栄町２丁目１１番１３号,,02,201,0300903,,,2024-06-24,清算の結了等,,,2015-10-05,1,,,,,スマルケンチクソウゴウキカクジムショ,0
1159,5500001020727,登記記録の閉鎖等,0,2024-06-28,2024-06-24,三和電信株式会社,,株式会社,愛媛県,松山市,宮西１丁目５番２０号,,38,201,7900065,,,2024-06-24,清算の結了等,,,2017-07-06,1,,,,,サンワデンシン,0
1167,6010001057033,登記記録の閉鎖等,0,2024-06-28,2024-06-26,シーゲイトクラウドシステムズジャパン株式会社,,株式会社,東京都,品川区,東品川２丁目５番８号天王洲パークサイドビル,,13,109,1400002,,,2024-06-26,清算の結了等,,,2015-10-05,1,,,,,シーゲイトクラウドシステムズジャパン,0
1169,6010001203140,登記記録の閉鎖等,0,2024-06-28,2024-06-17,株式会社ｉ－ｔｅｃｈ,,株式会社,東京都,文京区,西片１丁目１９番５号,,13,105,1130024,,,2024-06-17,清算の結了等,,,2019-08-09,1,,,,,アイテック,0
1181,6010005031117,登記記録の閉鎖等,0,2024-06-28,2024-06-20,一般社団法人さざんか,,その他の設立登記法人,東京都,千代田区,丸の内３丁目１番１号東京共同会計事務所内,,13,101,1000005,,,2024-06-20,清算の結了等,,,2019-11-26,1,,,,,サザンカ,0
1191,6010403025406,登記記録の閉鎖等,0,2024-06-28,2024-06-17,ＭＡＲ　ＩＯＪ合同会社,,合同会社,東京都,中央区,銀座１丁目６番１１号アースタックス税理士法人内,,13,102,1040061,,,2024-06-17,清算の結了等,,,2021-05-28,1,,,,,エムエーアールアイオージェー,0
1197,6010501038623,登記記録の閉鎖等,0,2024-06-28,2024-06-24,株式会社シナジアパワー,,株式会社,東京都,台東区,北上野１丁目９番１２号,,13,106,1100014,,,2024-06-24,清算の結了等,,,2015-10-05,1,,,,,シナジアパワー,0
1199,6010503006685,登記記録の閉鎖等,0,2024-06-28,2024-06-20,合同会社フリーウェイ,,合同会社,東京都,台東区,台東４丁目２９番１３－８０２号,,13,106,1100016,,,2024-06-20,清算の結了等,,,2022-08-15,1,,,,,フリーウェイ,0
1206,6010802016641,登記記録の閉鎖等,0,2024-06-28,2024-06-20,有限会社ナミキ企画,,有限会社,東京都,大田区,南久が原１丁目１０番１号,,13,111,1460084,,,2024-06-20,合併による解散等,3010801004880,令和６年６月２０日東京都大田区千鳥一丁目１９番１号三弥商事株式会社（3010801004880）に合併し解散,2015-10-05,1,,,,,ナミキキカク,0
1207,6010901014389,登記記録の閉鎖等,0,2024-06-28,2024-06-25,株式会社大栄テクノサービス,,株式会社,東京都,世田谷区,喜多見８丁目１２番１８号,,13,112,1570067,,,2024-06-25,清算の結了等,,,2015-10-05,1,,,,,ダイエイテクノサービス,0
1210,6011001103875,登記記録の閉鎖等,0,2024-06-28,2024-06-17,株式会社ディライヴ,,株式会社,東京都,渋谷区,桜丘町２９番３１号,,13,113,1500031,,,2024-06-17,清算の結了等,,,2015-10-05,1,,,,,ディライヴ,0
1236,6020001046547,登記記録の閉鎖等,0,2024-06-28,2024-06-17,株式会社トラストステージ,,株式会社,神奈川県,横浜市都筑区,茅ケ崎中央５１番１３号森ビル９０２,,14,118,2240032,,,2024-06-17,清算の結了等,,,2015-10-05,1,,,,,トラストステージ,0
1241,6020002018578,登記記録の閉鎖等,0,2024-06-28,2024-06-17,有限会社ケーエムエフ,,有限会社,神奈川県,横浜市港南区,港南台７丁目８番５０号,,14,111,2340054,,,2024-06-17,清算の結了等,,,2015-10-05,1,,,,,ケーエムエフ,0
1242,6020002032166,登記記録の閉鎖等,0,2024-06-28,2024-06-17,有限会社ロイヤルドッグサロン,,有限会社,神奈川県,横浜市南区,宮元町３丁目５１番地,,14,105,2320016,,,2024-06-17,清算の結了等,,,2015-10-05,1,,,,,ロイヤルドッグサロン,0
1250,6030001050449,登記記録の閉鎖等,0,2024-06-28,2024-06-20,株式会社クリーンアップ,,株式会社,埼玉県,志木市,上宗岡１丁目８番３６号,,11,228,3530001,,,2024-06-20,清算の結了等,,,2015-10-05,1,,,,,クリーンアップ,0
1269,6040002060883,登記記録の閉鎖等,0,2024-06-28,2024-06-17,有限会社塩川産業,,有限会社,千葉県,佐倉市,山王１丁目３番地１４,,12,212,2850807,,,2024-06-17,清算の結了等,,,2015-10-05,1,,,,,シオカワサンギョウ,0
1273,6050001042477,登記記録の閉鎖等,0,2024-06-28,2024-06-12,株式会社じんと,,株式会社,茨城県,土浦市,港町３丁目２９番２号,,08,203,3000034,,,2024-06-12,清算の結了等,,,2017-03-24,1,,,,,ジント,0
1282,6080002001801,登記記録の閉鎖等,0,2024-06-28,2024-06-20,有限会社くらち,,有限会社,静岡県,静岡市駿河区,丸子４丁目２番１５号,,22,102,4210103,,,2024-06-20,清算の結了等,,,2015-10-05,1,,,,,クラチ,0
1283,6080103002525,登記記録の閉鎖等,0,2024-06-28,2024-06-25,プリンセスメイク合同会社,,合同会社,静岡県,沼津市,白銀町２‐１６メゾングランツ白銀,,22,203,4100805,,,2024-06-25,清算の結了等,,,2022-02-15,1,,,,,プリンセスメイク,0
1302,6120003014748,登記記録の閉鎖等,0,2024-06-28,2024-06-18,フードコンサルジャパン合同会社,,合同会社,愛知県,名古屋市中区,錦３丁目２２－２４,,23,106,4600003,,,2024-06-18,清算の結了等,,,2018-09-28,1,,,,,フードコンサルジャパン,0
1313,6120903002661,登記記録の閉鎖等,0,2024-06-28,2024-06-25,合同会社えんプランニング,,合同会社,大阪府,高槻市,津之江北町１１番２１号,,27,207,5690821,,,2024-06-25,清算の結了等,,,2018-11-16,1,,,,,エンプランニング,0
1326,6160003001288,登記記録の閉鎖等,0,2024-06-28,2024-06-24,エム・ハウス合同会社,,合同会社,滋賀県,近江八幡市,鷹飼町１５２０番地,,25,204,5230891,,,2024-06-24,清算の結了等,,,2015-10-05,1,,,,,エムハウス,0
1334,6180005017677,登記記録の閉鎖等,0,2024-06-28,2024-06-18,特定非営利活動法人グライツ,,その他の設立登記法人,愛知県,海部郡大治町,大字砂子字中割２番地の２コンフォール１０２号,,23,424,4901143,,,2024-06-18,清算の結了等,,,2018-02-06,1,,,,,グライツ,0
1343,6240001042697,登記記録の閉鎖等,0,2024-06-28,2024-06-25,株式会社後宮,,株式会社,広島県,竹原市,本町３丁目９番２号,,34,203,7250022,,,2024-06-25,清算の結了等,,,2015-10-05,1,,,,,ゴキュウ,0
1345,6240002039494,登記記録の閉鎖等,0,2024-06-28,2024-06-25,有限会社内田寿司,,有限会社,広島県,福山市,西深津町２丁目６番１８号,,34,207,7210975,,,2024-06-25,清算の結了等,,,2015-10-05,1,,,,,ウチダズシ,0
1346,6250005005179,登記記録の閉鎖等,0,2024-06-28,2024-06-24,医療法人社団中村整形外科クリニック,,その他の設立登記法人,山口県,周南市,桜木２丁目２番６号,,35,215,7450806,,,2024-06-24,清算の結了等,,,2015-10-05,1,,,,,ナカムラセイケイゲカクリニック,0
1368,6330001005777,登記記録の閉鎖等,0,2024-06-28,2024-06-19,株式会社セイリンク,,株式会社,熊本県,熊本市南区,江越１丁目８番２４号,,43,104,8600834,,,2024-06-19,清算の結了等,,,2015-10-05,1,,,,,セイリンク,0
1372,6360001024080,登記記録の閉鎖等,0,2024-06-28,2024-06-24,株式会社石垣島工房,,株式会社,沖縄県,石垣市,字登野城６３０番地１３,,47,207,9070004,,,2024-06-24,清算の結了等,,,2018-06-04,1,,,,,イシガキジマコウボウ,0
1394,7010001026499,登記記録の閉鎖等,0,2024-06-28,2024-06-17,株式会社パスインターナショナル,,株式会社,東京都,千代田区,九段南３丁目２番４号アシスト麹町ビル,,13,101,1020074,,,2024-06-17,清算の結了等,,,2015-10-05,1,,,,,パスインターナショナル,0
1444,7011102027262,登記記録の閉鎖等,0,2024-06-28,2024-06-17,有限会社テーエストゥー,,有限会社,東京都,千代田区,霞が関３丁目２番１号,,13,101,1000013,,,2024-06-17,清算の結了等,,,2015-10-05,1,,,,,テーエストゥー,0
1447,7011202010374,登記記録の閉鎖等,0,2024-06-28,2024-06-26,有限会社耐震計画一級建築士事務所,,有限会社,東京都,中野区,中央２丁目２３番５号,,13,114,1640011,,,2024-06-26,清算の結了等,,,2015-10-05,1,,,,,,0
1468,7020001012795,登記記録の閉鎖等,0,2024-06-28,2024-06-17,株式会社クローバー,,株式会社,神奈川県,横浜市南区,蒔田町９０５番地,,14,105,2320043,,,2024-06-17,清算の結了等,,,2015-10-05,1,,,,,クローバー,0
1469,7020001047288,登記記録の閉鎖等,0,2024-06-28,2024-06-17,株式会社宮野商事,,株式会社,神奈川県,横浜市保土ケ谷区,瀬戸ケ谷町９０番地,,14,106,2400024,,,2024-06-17,清算の結了等,,,2015-10-05,1,,,,,ミヤノショウジ,0
1476,7020002096284,登記記録の閉鎖等,0,2024-06-28,2024-06-17,有限会社金子青果店,,有限会社,神奈川県,川崎市川崎区,京町１丁目９番１１号,,14,131,2100848,,,2024-06-17,清算の結了等,,,2015-10-05,1,,,,,,0
1478,7021002030992,登記記録の閉鎖等,0,2024-06-28,2024-06-26,有限会社エヌ・プランニング,,有限会社,神奈川県,厚木市,中町１丁目６番１号,,14,212,2430018,,,2024-06-26,清算の結了等,,,2015-10-05,1,,,,,エヌプランニング,0
1480,7030001066898,登記記録の閉鎖等,0,2024-06-28,2024-06-25,株式会社ＱＵＥＥＮコーポレーション,,株式会社,埼玉県,越谷市,レイクタウン９丁目２３番地１,,11,222,3430828,,,2024-06-25,清算の結了等,,,2015-10-05,1,,,,,クイーンコーポレーション,0
1487,7030002016035,登記記録の閉鎖等,0,2024-06-28,2024-06-26,有限会社プロフィット,,有限会社,埼玉県,さいたま市大宮区,土手町１丁目４６番地１,,11,103,3300801,,,2024-06-26,清算の結了等,,,2015-10-05,1,,,,,プロフィット,0
1497,7040003004896,登記記録の閉鎖等,0,2024-06-28,2024-06-17,合同会社エアーバックス,,合同会社,千葉県,印西市,高花３丁目９－２,,12,231,2701342,,,2024-06-17,清算の結了等,,,2015-10-05,1,,,,,エアーバックス,0
1507,7060001001415,登記記録の閉鎖等,0,2024-06-28,2024-06-21,共和設備工業株式会社,,株式会社,栃木県,宇都宮市,清原台２丁目２２番２６号,,09,201,3213223,,,2024-06-21,清算の結了等,,,2015-10-05,1,,,,,キョウワセツビコウギョウ,0
1531,7100001005345,登記記録の閉鎖等,0,2024-06-28,2024-06-13,株式会社つかだ介護支援室,,株式会社,長野県,長野市,大字小島７４２番地３７,,20,201,3810017,,,2024-06-13,清算の結了等,,,2015-10-05,1,,,,,ツカダカイゴシエンシツ,0
1570,7130001041973,登記記録の閉鎖等,0,2024-06-28,2024-06-26,株式会社アダチ,,株式会社,京都府,福知山市,字篠尾１０５５番地の４,,26,201,6200000,,,2024-06-26,清算の結了等,,,2015-10-05,1,,,,,アダチ,0
1578,7140001075590,登記記録の閉鎖等,0,2024-06-28,2024-06-26,篠原縫工株式会社,,株式会社,兵庫県,西脇市,小坂町３４８番地,,28,213,6770017,,,2024-06-26,清算の結了等,,,2015-10-05,1,,,,,シノハラホウコウ,0
1583,7140001131006,登記記録の閉鎖等,0,2024-06-28,2024-06-25,株式会社アトム電器神和台,,株式会社,兵庫県,神戸市垂水区,神和台１丁目９番地の５,,28,108,6550851,,,2024-06-25,清算の結了等,,,2023-07-31,1,,,,,アトムデンキシンワダイ,0
1591,7150003000810,登記記録の閉鎖等,0,2024-06-28,2024-06-26,合同会社吉野リラス,,合同会社,奈良県,吉野郡吉野町,大字南大野２１５番地の５,,29,441,6393437,,,2024-06-26,清算の結了等,,,2015-10-05,1,,,,,ヨシノリラス,0
1598,7180002064985,登記記録の閉鎖等,0,2024-06-28,2024-06-18,有限会社あじ美,,有限会社,愛知県,春日井市,桃山町１丁目３４５番地,,23,206,4860802,,,2024-06-18,清算の結了等,,,2015-10-05,1,,,,,アジヨシ,0
1611,7210001000021,登記記録の閉鎖等,0,2024-06-28,2024-06-25,アークシェア株式会社,,株式会社,福井県,福井市,新保１丁目１６０９番地,,18,201,9100833,,,2024-06-25,清算の結了等,,,2015-10-05,1,,,,,アークシェア,0
1614,7260001028660,登記記録の閉鎖等,0,2024-06-28,2024-06-12,株式会社いし田,,株式会社,岡山県,岡山市中区,長岡４４５番地の１,,33,102,7038221,,,2024-06-12,清算の結了等,,,2015-10-05,1,,,,,イシダ,0
1618,7280001000535,登記記録の閉鎖等,0,2024-06-28,2024-06-27,株式会社西日本ダイナミツク・サニート,,株式会社,島根県,松江市,古志原５丁目１５番７号,,32,201,6900012,,,2024-06-27,清算の結了等,,,2015-10-05,1,,,,,ニシニホンダイナミツクサニート,0
1623,7290801008363,登記記録の閉鎖等,0,2024-06-28,2024-06-18,株式会社かんり,,株式会社,福岡県,北九州市小倉南区,蜷田若園１丁目４番１５号,,40,107,8020814,,,2024-06-18,清算の結了等,,,2015-10-05,1,,,,,カンリ,0
1624,7310001009333,登記記録の閉鎖等,0,2024-06-28,2024-06-21,株式会社プリンシプル,,株式会社,長崎県,諫早市,多良見町中里１９６番地,,42,204,8590405,,,2024-06-21,清算の結了等,,,2015-10-05,1,,,,,プリンシプル,0
1632,7380001001845,登記記録の閉鎖等,0,2024-06-28,2024-06-21,株式会社渡辺コンサルタンツ,,株式会社,福島県,福島市,八木田字神明９４番地の１,,07,201,9608164,,,2024-06-21,清算の結了等,,,2015-10-05,1,,,,,ワタナベコンサルタンツ,0
1642,7430001009874,登記記録の閉鎖等,0,2024-06-28,2024-06-24,たくぎん保証株式会社,,株式会社,北海道,札幌市中央区,南一条西１丁目１番地,,01,101,0600061,,,2024-06-24,清算の結了等,,,2015-11-17,1,,,,,,0
1644,7430002040969,登記記録の閉鎖等,0,2024-06-28,2024-06-25,有限会社札新設備工業,,有限会社,北海道,札幌市手稲区,前田四条８丁目５番１－７１２号,,01,109,0060814,,,2024-06-25,清算の結了等,,,2015-10-05,1,,,,,サッシンセツビコウギョウ,0
1648,7490002003433,登記記録の閉鎖等,0,2024-06-28,2024-06-24,有限会社テイ・エム・エス,,有限会社,高知県,高知市,九反田４番２６号,,39,201,7800832,,,2024-06-24,清算の結了等,,,2015-10-05,1,,,,,,0
1664,8010002045654,登記記録の閉鎖等,0,2024-06-28,2024-06-21,ジュンヤ・ケイ有限会社,,有限会社,東京都,板橋区,高島平１丁目２７番１０号,,13,119,1750082,,,2024-06-21,清算の結了等,,,2015-10-05,1,,,,,ジュンヤケイ,0
1667,8010005026478,登記記録の閉鎖等,0,2024-06-28,2024-06-20,特定非営利活動法人炭の木植え隊,,その他の設立登記法人,東京都,中央区,新川２丁目２番１号いずみハイツ茅場町６０９号室,,13,102,1040033,,,2024-06-20,清算の結了等,,,2017-02-27,1,,,,,スミノキウエタイ,0
1691,8010802003068,登記記録の閉鎖等,0,2024-06-28,2024-06-24,オクヤ・ハイテック有限会社,,有限会社,東京都,大田区,西蒲田１丁目１７番１号,,13,111,1440051,,,2024-06-24,清算の結了等,,,2015-10-05,1,,,,,オクヤハイテック,0
1715,8011301007618,登記記録の閉鎖等,0,2024-06-28,2024-06-25,株式会社利研,,株式会社,神奈川県,鎌倉市,佐助２丁目１０番１２号,,14,204,2480017,,,2024-06-25,清算の結了等,,,2015-10-05,1,,,,,リケン,0
1730,8011801042701,登記記録の閉鎖等,0,2024-06-28,2024-06-21,博泰盛葉株式会社,,株式会社,東京都,台東区,北上野２丁目２６番１１－１０１号,,13,106,1100014,,,2024-06-21,清算の結了等,,,2023-07-13,1,,,,,ハクタイセイバ,0
1732,8012302004422,登記記録の閉鎖等,0,2024-06-28,2024-06-26,有限会社マルカワイズ,,有限会社,東京都,町田市,原町田２丁目２９番５号,,13,209,1940013,,,2024-06-26,清算の結了等,,,2015-10-05,1,,,,,,0
1737,8020001000279,登記記録の閉鎖等,0,2024-06-28,2024-06-17,株式会社太郎丸物産,,株式会社,神奈川県,横浜市栄区,柏陽６番１２号,,14,115,2470004,,,2024-06-17,清算の結了等,,,2015-10-05,1,,,,,タロウマルブッサン,0
1756,8030001050570,登記記録の閉鎖等,0,2024-06-28,2024-06-26,株式会社タカノ製本,,株式会社,埼玉県,新座市,野火止２丁目１番１号,,11,230,3520011,,,2024-06-26,清算の結了等,,,2015-10-05,1,,,,,,0
1768,8030003022790,登記記録の閉鎖等,0,2024-06-28,2024-06-25,合同会社笹尾産業グループ,,合同会社,埼玉県,さいたま市緑区,大字大間木１８３０番地３,,11,109,3360923,,,2024-06-25,清算の結了等,,,2023-10-17,1,,,,,ササオサンギョウグループ,0
1775,8040002045767,登記記録の閉鎖等,0,2024-06-28,2024-06-17,有限会社寿センターシノダ,,有限会社,千葉県,松戸市,松戸１８３４番地の２,,12,207,2710092,,,2024-06-17,清算の結了等,,,2015-10-05,1,,,,,コトブキセンターシノダ,0
1781,8050002020637,登記記録の閉鎖等,0,2024-06-28,2024-06-25,有限会社アルファサービス,,有限会社,茨城県,坂東市,神田山９３５番１,,08,228,3060617,,,2024-06-25,清算の結了等,,,2015-10-05,1,,,,,アルファサービス,0
1797,8080401016992,登記記録の閉鎖等,0,2024-06-28,2024-06-27,東海クラフト株式会社,,株式会社,神奈川県,高座郡寒川町,宮山３４１４番地８,,14,321,2530106,,,2024-06-27,清算の結了等,,,2015-10-05,1,,,,,トウカイクラフト,0
1801,8100005012064,登記記録の閉鎖等,0,2024-06-28,2024-06-13,一般社団法人蚕都会,,その他の設立登記法人,長野県,上田市,下塩尻１４３番地５,,20,203,3860043,,,2024-06-13,清算の結了等,,,2017-05-12,1,,,,,サントカイ,0
1802,8110002012207,登記記録の閉鎖等,0,2024-06-28,2024-06-21,有限会社東洋リビルト,,有限会社,新潟県,新潟市中央区,清五郎２２０番地,,15,103,9500933,,,2024-06-21,清算の結了等,,,2015-10-05,1,,,,,,0
1840,8200001041437,登記記録の閉鎖等,0,2024-06-28,2024-06-25,株式会社ととと,,株式会社,岐阜県,多治見市,精華町６８番地,,21,204,5070031,,,2024-06-25,清算の結了等,,,2023-06-30,1,,,,,トトト,0
1843,8210002009614,登記記録の閉鎖等,0,2024-06-28,2024-06-25,有限会社芙容垣崎,,有限会社,福井県,大野市,中野第２８号７番地,,18,205,9120021,,,2024-06-25,清算の結了等,,,2015-10-05,1,,,,,フヨウカキザキ,0
1876,8380001018384,登記記録の閉鎖等,0,2024-06-28,2024-06-20,黒沢電設工業株式会社,,株式会社,福島県,河沼郡会津坂下町,字上口５７８番地１,,07,421,9696531,,,2024-06-20,清算の結了等,,,2015-10-05,1,,,,,クロサワデンセツコウギョウ,0
1889,8420002015616,登記記録の閉鎖等,0,2024-06-28,2024-06-24,有限会社住府建築設計事務所,,有限会社,青森県,黒石市,緑町２丁目２４７番地,,02,204,0360383,,,2024-06-24,清算の結了等,,,2015-10-05,1,,,,,スフケンチクセッケイジムショ,0
1910,8500001008612,登記記録の閉鎖等,0,2024-06-28,2024-06-24,株式会社プログレード,,株式会社,愛媛県,松山市,東方町甲１７７８番地１,,38,201,7911123,,,2024-06-24,清算の結了等,,,2015-10-05,1,,,,,プログレード,0
1933,9010705003239,登記記録の閉鎖等,0,2024-06-28,2024-06-26,一般社団法人コロワくんサポーターズ,,その他の設立登記法人,東京都,品川区,東五反田２丁目１６番２－１００３号,,13,109,1410022,,,2024-06-26,清算の結了等,,,2021-07-27,1,,,,,コロワクンサポーターズ,0
1942,9011101059156,登記記録の閉鎖等,0,2024-06-28,2024-06-20,ターミナルワーク株式会社,,株式会社,東京都,新宿区,新宿２丁目２番１０号サニープラザ１００３号,,13,104,1600022,,,2024-06-20,清算の結了等,,,2015-10-05,1,,,,,ターミナルワーク,0
1978,9021002059097,登記記録の閉鎖等,0,2024-06-28,2024-06-25,有限会社日新堂薬局,,有限会社,神奈川県,平塚市,八重咲町５番１号,,14,203,2540811,,,2024-06-25,清算の結了等,,,2015-10-05,1,,,,,ニッシンドウ,0
1998,9030005014736,登記記録の閉鎖等,0,2024-06-28,2024-06-21,医療法人三顕会,,その他の設立登記法人,埼玉県,飯能市,柳町２３番１９号,,11,209,3570035,,,2024-06-21,清算の結了等,,,2015-10-05,1,,,,,サンケンカイ,0
2015,9080405005289,登記記録の閉鎖等,0,2024-06-28,2024-06-24,医療法人社団将和会,,その他の設立登記法人,静岡県,磐田市,西貝塚２２４２番地１,,22,211,4380026,,,2024-06-24,清算の結了等,,,2015-10-05,1,,,,,ショウワカイ,0
2026,9120101032566,登記記録の閉鎖等,0,2024-06-28,2024-06-25,株式会社山崎工務店,,株式会社,大阪府,羽曳野市,誉田７丁目１番１２号,,27,222,5830857,,,2024-06-25,清算の結了等,,,2015-10-05,1,,,,,ヤマザキコウムテン,0
2041,9140005011887,登記記録の閉鎖等,0,2024-06-28,2024-06-18,特定非営利活動法人こころ・あんしんＬｉｇｈｔ,,その他の設立登記法人,兵庫県,尼崎市,東園田町２丁目８４番地パークアベニューＩ６０３号,00127619,28,202,6610953,,,2024-06-18,清算の結了等,,,2015-10-05,1,,,,,ココロアンシンライト,0
2058,9180003024185,登記記録の閉鎖等,0,2024-06-28,2024-06-18,ストロボちょっぷ合同会社,,合同会社,愛知県,尾張旭市,瀬戸川町１丁目４８番地コーポ富丘１０３号室,,23,226,4880023,,,2024-06-18,清算の結了等,,,2022-09-01,1,,,,,ストロボチョップ,0
2063,9180302019398,登記記録の閉鎖等,0,2024-06-28,2024-06-19,有限会社酒井硝子,,有限会社,愛知県,知立市,弘栄２丁目２９番地の２,,23,225,4720034,,,2024-06-19,清算の結了等,,,2015-10-05,1,,,,,サカイガラス,0
2065,9180305003291,登記記録の閉鎖等,0,2024-06-28,2024-06-19,特定非営利活動法人ＴＴＲｕｎｎｅｒｓ,,その他の設立登記法人,愛知県,豊橋市,向山東町８２番地,,23,201,4400863,,,2024-06-19,清算の結了等,,,2015-10-05,1,,,,,ティーティーランナーズ,0
2073,9240002004710,登記記録の閉鎖等,0,2024-06-28,2024-06-26,有限会社協栄電設,,有限会社,広島県,広島市西区,田方２丁目１６番１８号,,34,104,7330851,,,2024-06-26,清算の結了等,,,2015-10-05,1,,,,,キョウエイデンセツ,0
2120,9500002004304,登記記録の閉鎖等,0,2024-06-28,2024-06-24,田野印刷有限会社,,有限会社,愛媛県,伊予郡松前町,大字永田３４６番地２,,38,401,7913152,,,2024-06-24,清算の結了等,,,2015-10-05,1,,,,,,0
