sequenceNumber,corporateNumber,process,correct,updateDate,changeDate,name,nameImageId,kind,prefectureName,cityName,streetNumber,addressImageId,prefectureCode,cityCode,postCode,addressOutside,addressOutsideImageId,closeDate,closeCause,successorCorporateNumber,changeCause,assignmentDate,latest,enName,enPrefectureName,enCityName,enAddressOutside,furigana,hihyoji
2,1010001198071,登記記録の閉鎖等,0,2025-11-17,2025-11-04,株式会社Ｍｙ　ＭＥＮＴＯＲ,,株式会社,東京都,中央区,銀座７丁目１３番６号,,13,102,1040061,,,2025-11-04,清算の結了等,,,2019-01-28,1,,,,,マイメンター,0
11,1010401049626,登記記録の閉鎖等,0,2025-11-17,2025-10-27,株式会社アオイ・インベストメント札幌,,株式会社,東京都,港区,虎ノ門２丁目１０番４号,,13,103,1050001,,,2025-10-27,清算の結了等,,,2015-10-05,1,,,,,アオイインベストメントサッポロ,0
13,1010401124131,登記記録の閉鎖等,0,2025-11-17,2025-10-21,株式会社ＴＯＫＩ,,株式会社,東京都,港区,南青山３丁目１番３６号青山丸竹ビル６Ｆ,,13,103,1070062,,,2025-10-21,清算の結了等,,,2016-04-11,1,,,,,トキ,0
15,1010401149038,登記記録の閉鎖等,0,2025-11-17,2025-10-23,株式会社シンビオーズ,,株式会社,東京都,港区,芝４丁目１６番２－１００４号,,13,103,1080014,,,2025-10-23,清算の結了等,,,2019-11-08,1,,,,,シンビオーズ,0
40,1011001159773,登記記録の閉鎖等,0,2025-11-17,2025-10-24,株式会社アルアイ,,株式会社,東京都,港区,赤坂７丁目２番２１号草月会館９Ｆ,,13,103,1070052,,,2025-10-24,清算の結了等,,,2024-02-02,1,,,,,アルアイ,0
56,1011102007377,登記記録の閉鎖等,0,2025-11-17,2025-10-16,有限会社創学社,,有限会社,東京都,新宿区,神楽坂６丁目３８番地,,13,104,1620825,,,2025-10-16,清算の結了等,,,2015-10-05,1,,,,,ソウガクシャ,0
60,1011301007302,登記記録の閉鎖等,0,2025-11-17,2025-11-11,株式会社悠輝積算,,株式会社,東京都,杉並区,宮前４丁目８番１５号,,13,115,1680081,,,2025-11-11,清算の結了等,,,2015-10-05,1,,,,,ユウキセキサン,0
84,1021001006058,登記記録の閉鎖等,0,2025-11-17,2025-10-31,株式会社優葉,,株式会社,神奈川県,藤沢市,菖蒲沢１２６０番地県営菖蒲沢団地４－２０４,,14,205,2520823,,,2025-10-31,清算の結了等,,,2015-10-05,1,,,,,ユウハ,0
96,1030005015452,登記記録の閉鎖等,0,2025-11-17,2025-11-10,特定非営利活動法人災害支援団体ネットワーク,,その他の設立登記法人,埼玉県,東松山市,大字柏崎５３４番５埼玉ＮＰＯハウス,,11,212,3550034,,,2025-11-10,清算の結了等,,,2015-10-05,1,,,,,サイガイシエンダンタイネットワーク,0
122,1120001162594,登記記録の閉鎖等,0,2025-11-17,2025-11-13,シャルール株式会社,,株式会社,大阪府,大阪市中央区,東心斎橋１丁目１１番１３号Ｂ１０１,,27,128,5420083,,,2025-11-13,清算の結了等,,,2015-10-05,1,,,,,シャルール,0
123,1120001189761,登記記録の閉鎖等,0,2025-11-17,2025-11-12,アグリＺｅｎ株式会社,,株式会社,大阪府,寝屋川市,菅相塚町１１番５号,,27,215,5720008,,,2025-11-12,清算の結了等,,,2015-10-05,1,,,,,アグリゼン,0
133,1120002015611,登記記録の閉鎖等,0,2025-11-17,2025-11-12,有限会社杉本電工,,有限会社,大阪府,大阪市港区,波除３丁目３番３号,,27,107,5520001,,,2025-11-12,清算の結了等,,,2015-10-05,1,,,,,スギモトデンコウ,0
138,1120003027705,登記記録の閉鎖等,0,2025-11-17,2025-11-13,合同会社エンカルム,,合同会社,大阪府,大阪市都島区,友渕町１丁目６番１－１３０２号,,27,102,5340016,,,2025-11-13,清算の結了等,,,2024-10-09,1,,,,,エンカルム,0
144,1120905000239,登記記録の閉鎖等,0,2025-11-17,2025-10-31,医療法人国里整形外科,,その他の設立登記法人,大阪府,茨木市,永代町８番８号,,27,211,5670816,,,2025-10-31,清算の結了等,,,2015-10-05,1,,,,,クニサトセイケイゲカ,0
179,1180001158752,登記記録の閉鎖等,0,2025-11-17,2025-11-11,Ｔ‐ＰＡＬＫホールディングス株式会社,,株式会社,愛知県,名古屋市緑区,大高町字寅新田３７番地１,,23,114,4598001,,,2025-11-11,清算の結了等,,,2023-11-02,1,,,,,ティーパルクホールディングス,0
185,1180002074131,登記記録の閉鎖等,0,2025-11-17,2025-11-11,有限会社紫雲,,有限会社,愛知県,瀬戸市,山脇町２４番地の４,,23,204,4890811,,,2025-11-11,清算の結了等,,,2015-10-05,1,,,,,シウン,0
187,1190001005755,登記記録の閉鎖等,0,2025-11-17,2025-11-10,株式会社ＴＯＰＡＳ,,株式会社,三重県,鈴鹿市,稲生４丁目１６番３号,,24,207,5100205,,,2025-11-10,合併による解散等,1190001010499,令和７年１１月１０日三重県松阪市東町６２３番地１東海パトロール株式会社（1190001010499）に合併し解散,2015-10-05,1,,,,,トパス,0
189,1190001030984,登記記録の閉鎖等,0,2025-11-17,2025-11-07,株式会社パートナー,,株式会社,三重県,津市,上浜町６丁目６４番地,,24,201,5140008,,,2025-11-07,清算の結了等,,,2023-12-27,1,,,,,パートナー,0
191,1190002013682,登記記録の閉鎖等,0,2025-11-17,2025-11-11,オクダ建設有限会社,,有限会社,三重県,松阪市,田村町７２９番地,,24,204,5150055,,,2025-11-11,清算の結了等,,,2015-10-05,1,,,,,オクダケンセツ,0
201,1220003003472,登記記録の閉鎖等,0,2025-11-17,2025-11-12,ＡＮ　ＫＯＭＡＫＩ合同会社,,合同会社,石川県,金沢市,七ツ屋町１２番地２,,17,201,9200021,,,2025-11-12,清算の結了等,,,2023-03-16,1,,,,,アンコマキ,0
208,1260002033104,登記記録の閉鎖等,0,2025-11-17,2025-11-12,有限会社テクノホーム,,有限会社,岡山県,玉野市,槌ケ原１１１４番地の３,,33,204,7060141,,,2025-11-12,清算の結了等,,,2015-10-05,1,,,,,テクノホーム,0
233,1370001044330,登記記録の閉鎖等,0,2025-11-17,2025-11-07,株式会社ｐｌａｚａグループ,,株式会社,宮城県,宮城郡七ヶ浜町,汐見台１丁目１番５号,,04,404,9850821,,,2025-11-07,清算の結了等,,,2019-05-08,1,,,,,プラザグループ,0
235,1370301000685,登記記録の閉鎖等,0,2025-11-17,2025-11-07,株式会社すが原,,株式会社,宮城県,石巻市,中央２丁目４番１８号,,04,202,9860822,,,2025-11-07,清算の結了等,,,2015-10-05,1,,,,,スガワラ,0
238,1380002033562,登記記録の閉鎖等,0,2025-11-17,2025-11-07,有限会社渡部電気工事店,,有限会社,福島県,会津若松市,亀賀２丁目１０番地の１４,,07,202,9650028,,,2025-11-07,清算の結了等,,,2015-10-05,1,,,,,ワタナベデンキコウジテン,0
240,1400001008265,登記記録の閉鎖等,0,2025-11-17,2025-11-10,みちのくエコランドマネジメント株式会社,,株式会社,岩手県,九戸郡洋野町,種市第４２地割１４７番地,,03,507,0287911,,,2025-11-10,清算の結了等,,,2015-10-05,1,,,,,ミチノクエコランドマネジメント,0
243,1430001004591,登記記録の閉鎖等,0,2025-11-17,2025-11-12,京一商事株式会社,,株式会社,北海道,札幌市南区,真駒内上町３丁目２番地の９,,01,106,0050012,,,2025-11-12,清算の結了等,,,2015-10-05,1,,,,,キョウイチショウジ,0
250,1430002019969,登記記録の閉鎖等,0,2025-11-17,2025-11-11,メディック有限会社,,有限会社,北海道,札幌市中央区,北三条西１１丁目１番地２－８０１,,01,101,0600003,,,2025-11-11,清算の結了等,,,2015-10-05,1,,,,,メディック,0
257,2010001139842,登記記録の閉鎖等,0,2025-11-17,2025-11-05,株式会社タンポポ,,株式会社,東京都,中央区,東日本橋２丁目１２番５号,,13,102,1030004,,,2025-11-05,清算の結了等,,,2015-10-05,1,,,,,タンポポ,0
259,2010001247554,登記記録の閉鎖等,0,2025-11-17,2025-11-12,株式会社ＳＴＯＣＫ１５９,,株式会社,東京都,千代田区,永田町２丁目１２番４号,,13,101,1000014,,,2025-11-12,合併による解散等,7290001007190,令和７年１０月１４日福岡市中央区天神二丁目８番３８号株式会社協和ビル（7290001007190）に合併し解散,2024-08-20,1,,,,,ストックヒャクゴジュウキュウ,0
260,2010005039691,登記記録の閉鎖等,0,2025-11-17,2025-11-12,一般社団法人ブルーレジ２,,その他の設立登記法人,東京都,千代田区,丸の内１丁目４番１号東京共同会計事務所内,,13,101,1000005,,,2025-11-12,清算の結了等,,,2025-03-05,1,,,,,ブルーレジツー,0
263,2010401016526,登記記録の閉鎖等,0,2025-11-17,2025-10-23,株式会社大捷,,株式会社,東京都,港区,六本木３丁目１４番１７号,,13,103,1060032,,,2025-10-23,清算の結了等,,,2015-10-05,1,,,,,ダイショウ,0
289,2011001159772,登記記録の閉鎖等,0,2025-11-17,2025-10-24,株式会社カーワン,,株式会社,東京都,港区,赤坂７丁目２番２１号草月会館９Ｆ,,13,103,1070052,,,2025-10-24,清算の結了等,,,2024-02-02,1,,,,,カーワン,0
304,2011101110593,登記記録の閉鎖等,0,2025-11-17,2025-10-08,東京文易株式会社,,株式会社,東京都,新宿区,富久町３２－３東新富久町ビル１０６号室,,13,104,1620067,,,2025-10-08,清算の結了等,,,2025-02-14,1,,,,,トウキョウブンエキ,0
333,2021001019604,登記記録の閉鎖等,0,2025-11-17,2025-10-28,川野トレデイング株式会社,,株式会社,神奈川県,厚木市,三田１丁目６番８号,,14,212,2430211,,,2025-10-28,清算の結了等,,,2015-10-05,1,,,,,カワノトレデイング,0
334,2021001073502,登記記録の閉鎖等,0,2025-11-17,2025-11-12,株式会社ひかり薬局,,株式会社,神奈川県,茅ヶ崎市,みずき４丁目１８番２号,,14,207,2530088,,,2025-11-12,合併による解散等,6030001066965,令和７年１０月１日大阪府茨木市西駅前町１３番２５号株式会社ウィーズ（6030001066965）に合併し解散,2021-07-26,1,,,,,ヒカリヤッキョク,0
340,2021005010633,登記記録の閉鎖等,0,2025-11-17,2025-10-30,一般社団法人日本橋事業承継パートナーズ,,その他の設立登記法人,神奈川県,大和市,下鶴間１５４７番地１９,,14,213,2420001,,,2025-10-30,清算の結了等,,,2016-04-25,1,,,,,ニホンバシジギョウショウケイパートナーズ,0
342,2030001103458,登記記録の閉鎖等,0,2025-11-17,2025-11-10,株式会社柴田工業,,株式会社,埼玉県,川口市,芝２丁目２６番２７号,,11,203,3330866,,,2025-11-10,清算の結了等,,,2015-10-05,1,,,,,シバタコウギョウ,0
356,2040002039015,登記記録の閉鎖等,0,2025-11-17,2025-10-17,有限会社ファインウェーブ,,有限会社,千葉県,市川市,大和田４丁目１４番８－５０１号,,12,203,2720025,,,2025-10-17,清算の結了等,,,2015-10-05,1,,,,,ファインウェーブ,0
363,2050005013131,登記記録の閉鎖等,0,2025-11-17,2025-11-07,特定非営利活動法人ステップＵＰ,,その他の設立登記法人,茨城県,坂東市,長谷６８９番地３,,08,228,3060642,,,2025-11-07,清算の結了等,,,2022-08-26,1,,,,,ステップアップ,0
365,2060003002779,登記記録の閉鎖等,0,2025-11-17,2025-11-13,合同会社数学屋ほん舗,,合同会社,栃木県,宇都宮市,中岡本町２９１９番地２９４,,09,201,3291105,,,2025-11-13,清算の結了等,,,2018-03-09,1,,,,,スウガクヤホンポ,0
369,2090005004861,登記記録の閉鎖等,0,2025-11-17,2025-11-05,企業組合ふるさと旬菜森樹,,その他の設立登記法人,山梨県,北杜市,小淵沢町字上阿原２９６８番地１,,19,209,4080044,,,2025-11-05,清算の結了等,,,2015-10-05,1,,,,,フルサトシュンサイシンジュ,0
379,2120001185000,登記記録の閉鎖等,0,2025-11-17,2025-11-13,株式会社ザ・テーブル,,株式会社,大阪府,寝屋川市,香里新町２５－１４香里日光ハイツ１１４,,27,215,5720085,,,2025-11-13,清算の結了等,,,2015-10-05,1,,,,,ザテーブル,0
415,2150001009255,登記記録の閉鎖等,0,2025-11-17,2025-11-14,株式会社オーク,,株式会社,奈良県,桜井市,大字谷１０５７番地の１,,29,206,6330053,,,2025-11-14,清算の結了等,,,2015-10-05,1,,,,,オーク,0
429,2180002032864,登記記録の閉鎖等,0,2025-11-17,2025-11-11,有限会社マスアンドフィットネス,,有限会社,愛知県,名古屋市北区,池花町２８７番地,,23,103,4620005,,,2025-11-11,清算の結了等,,,2015-10-05,1,,,,,マスアンドフィットネス,0
430,2180002077050,登記記録の閉鎖等,0,2025-11-17,2025-11-12,有限会社とんかつ加賀ノ井,,有限会社,愛知県,一宮市,森本１丁目３番３０号,,23,203,4910831,,,2025-11-12,清算の結了等,,,2015-10-05,1,,,,,トンカツカガノイ,0
432,2180302000546,登記記録の閉鎖等,0,2025-11-17,2025-11-06,有限会社岡崎浄化槽管理センター,,有限会社,愛知県,岡崎市,大樹寺１丁目１１番地１０,,23,202,4442134,,,2025-11-06,清算の結了等,,,2015-10-05,1,,,,,オカザキジョウカソウカンリセンター,0
449,2230001007655,登記記録の閉鎖等,0,2025-11-17,2025-11-11,株式会社ホテル宇奈月館,,株式会社,富山県,黒部市,宇奈月温泉２６７番地,,16,207,9380282,,,2025-11-11,清算の結了等,,,2015-10-05,1,,,,,ホテルウナヅキカン,0
453,2250005008359,登記記録の閉鎖等,0,2025-11-17,2025-11-14,一般社団法人じねんじょうプロジェクト,,その他の設立登記法人,山口県,周南市,大字湯野４２３８番地,,35,215,7451132,,,2025-11-14,清算の結了等,,,2017-11-14,1,,,,,ジネンジョウプロジェクト,0
466,2300002010782,登記記録の閉鎖等,0,2025-11-17,2025-11-13,有限会社夢貝童,,有限会社,佐賀県,唐津市,鏡１２４３番地９,,41,202,8470022,,,2025-11-13,清算の結了等,,,2015-10-05,1,,,,,,0
470,2330002003908,登記記録の閉鎖等,0,2025-11-17,2025-11-10,有限会社小岩井ドリーム,,有限会社,熊本県,熊本市北区,清水東町７番５０号,,43,105,8618065,,,2025-11-10,清算の結了等,,,2015-10-05,1,,,,,コイワイドリーム,0
473,2330005004738,登記記録の閉鎖等,0,2025-11-17,2025-11-07,九州コンストラクチャーズ協同組合,,その他の設立登記法人,熊本県,荒尾市,大島字角田１０４番地５,,43,204,8640057,,,2025-11-07,清算の結了等,,,2015-10-05,1,,,,,キュウシュウコンストラクチャーズ,0
476,2350002003567,登記記録の閉鎖等,0,2025-11-17,2025-11-12,有限会社野崎住宅,00100685,有限会社,宮崎県,宮崎市,大字田吉３０３番地,,45,201,8800911,,,2025-11-12,清算の結了等,,,2015-10-05,1,,,,,ノサキジュウタク,0
498,2430001071177,登記記録の閉鎖等,0,2025-11-17,2025-11-11,Ａｎｎｕｐｕｒｉ　Ｇａｒｄｅｎ株式会社,,株式会社,北海道,虻田郡ニセコ町,字ニセコ４２３番地９,,01,395,0481511,,,2025-11-11,清算の結了等,,,2016-03-30,1,,,,,アンヌプリガーデン,0
533,3010401082716,登記記録の閉鎖等,0,2025-11-17,2025-10-24,株式会社ＳＨＩＭＭＯＴＯ,,株式会社,東京都,港区,虎ノ門４丁目１番３４号,,13,103,1050001,,,2025-10-24,清算の結了等,,,2015-10-05,1,,,,,シンモト,0
545,3010501046934,登記記録の閉鎖等,0,2025-11-17,2025-11-07,株式会社ＢｉＧｈｏｌｙ,,株式会社,東京都,台東区,東上野５丁目４番１９号,,13,106,1100015,,,2025-11-07,清算の結了等,,,2021-02-22,1,,,,,ビゴリー,0
569,3011003019057,登記記録の閉鎖等,0,2025-11-17,2025-10-15,合同会社ケイショー,,合同会社,東京都,渋谷区,道玄坂１丁目１６－６二葉ビル８ｂ,,13,113,1500043,,,2025-10-15,清算の結了等,,,2024-05-08,1,,,,,ケイショー,0
610,3020001129305,登記記録の閉鎖等,0,2025-11-17,2025-10-31,株式会社ＬＩＢ,,株式会社,神奈川県,川崎市多摩区,長沢３丁目１１番１号,,14,135,2140035,,,2025-10-31,清算の結了等,,,2018-12-28,1,,,,,リブ,0
615,3020002010769,登記記録の閉鎖等,0,2025-11-17,2025-11-04,有限会社ミツワ,,有限会社,神奈川県,横浜市磯子区,洋光台５丁目４番２５－１０１号,,14,107,2350045,,,2025-11-04,清算の結了等,,,2015-10-05,1,,,,,ミツワ,0
618,3020003001593,登記記録の閉鎖等,0,2025-11-17,2025-11-04,合資会社小泉製作所,,合資会社,神奈川県,横浜市南区,永田東１丁目２番３号,,14,105,2320072,,,2025-11-04,清算の結了等,,,2015-10-05,1,,,,,コイズミセイサクショ,0
634,3040001041549,登記記録の閉鎖等,0,2025-11-17,2025-10-17,株式会社イーホーム,,株式会社,千葉県,松戸市,金ケ作４１９番地４０,,12,207,2702251,,,2025-10-17,清算の結了等,,,2015-10-05,1,,,,,イーホーム,0
646,3050002043964,登記記録の閉鎖等,0,2025-11-17,2025-11-10,有限会社奥村工業,,有限会社,茨城県,桜川市,友部２１９番地の１,,08,231,3091453,,,2025-11-10,清算の結了等,,,2015-10-05,1,,,,,オクムラコウギョウ,0
657,3110001021064,登記記録の閉鎖等,0,2025-11-17,2025-11-07,株式会社清華,,株式会社,新潟県,十日町市,学校町１丁目４０７番地１,,15,210,9480022,,,2025-11-07,清算の結了等,,,2015-10-05,1,,,,,セイカ,0
660,3110002006725,登記記録の閉鎖等,0,2025-11-17,2025-11-10,有限会社山口写真機店,,有限会社,新潟県,新潟市中央区,東中通１番町２１８番地,,15,103,9518116,,,2025-11-10,清算の結了等,,,2015-10-05,1,,,,,ヤマグチシャシンキテン,0
694,3170001003890,登記記録の閉鎖等,0,2025-11-17,2025-11-12,和歌山理水株式会社,,株式会社,和歌山県,和歌山市,布施屋５８６番地の１１,,30,201,6496321,,,2025-11-12,合併による解散等,6180001002971,令和７年１１月１日名古屋市千種区上野三丁目９番１１号丸石テクノ株式会社（6180001002971）に合併し解散,2015-10-05,1,,,,,ワカヤマリスイ,0
724,3200001001536,登記記録の閉鎖等,0,2025-11-17,2025-11-12,金華青果株式会社,,株式会社,岐阜県,岐阜市,茜部新所２丁目５番地,,21,201,5008263,,,2025-11-12,清算の結了等,,,2015-10-05,1,,,,,キンカセイカ,0
725,3200001007921,登記記録の閉鎖等,0,2025-11-17,2025-11-10,シーリングシステムズ株式会社,,株式会社,岐阜県,各務原市,テクノプラザ２丁目１５番地,,21,213,5090109,,,2025-11-10,清算の結了等,,,2015-10-05,1,,,,,シーリングシステムズ,0
727,3200001015189,登記記録の閉鎖等,0,2025-11-17,2025-11-04,ヤマノウチ産業株式会社,,株式会社,大阪府,大阪市中央区,平野町４丁目２番３号,,27,128,5410046,,,2025-11-04,合併による解散等,1200001016692,令和７年１１月１日大阪市中央区平野町四丁目２番３号アストブリッジ株式会社（1200001016692）に合併し解散,2015-10-05,1,,,,,ヤマノウチサンギョウ,0
733,3230002000575,登記記録の閉鎖等,0,2025-11-17,2025-11-12,有限会社エールロビン,,有限会社,富山県,富山市,太田５６番地の１３,,16,201,9398048,,,2025-11-12,清算の結了等,,,2015-10-05,1,,,,,エールロビン,0
735,3240001018758,登記記録の閉鎖等,0,2025-11-17,2025-11-10,株式会社友田会計,,株式会社,広島県,広島市南区,皆実町６丁目１４番２５号,,34,103,7340007,,,2025-11-10,清算の結了等,,,2015-10-05,1,,,,,トモダカイケイ,0
738,3240002023237,登記記録の閉鎖等,0,2025-11-17,2025-11-12,有限会社美麗,,有限会社,広島県,広島市安佐南区,大町西１丁目４－３８－７０１,,34,105,7310125,,,2025-11-12,清算の結了等,,,2015-10-05,1,,,,,ミレイ,0
740,3260001036246,登記記録の閉鎖等,0,2025-11-17,2025-11-04,株式会社Ａｌｍｏｓｔ,,株式会社,岡山県,玉野市,築港１丁目２４番６号,,33,204,7060002,,,2025-11-04,合併による解散等,7120001163918,令和７年１１月１日岡山県玉野市築港一丁目２４番６号株式会社ｉ　ｈｅａｒｔ（7120001163918）に合併し解散,2021-11-29,1,,,,,オウルモスト,0
745,3290001031780,登記記録の閉鎖等,0,2025-11-17,2025-10-17,株式会社ＰＴＡ支援機構,,株式会社,福岡県,福岡市東区,多の津１丁目１８番７－３０１号,,40,131,8130034,,,2025-10-17,清算の結了等,,,2015-10-05,1,,,,,ピーティーエーシエンキコウ,0
748,3290001088920,登記記録の閉鎖等,0,2025-11-17,2025-10-17,株式会社ｂｕｒｎｉｎｇ　ＩＮＴＥＲＮＡＴＩＯＮＡＬ,,株式会社,福岡県,福岡市東区,多の津１丁目１８番７号福岡流通あけぼのビル３０１号室,,40,131,8130034,,,2025-10-17,清算の結了等,,,2020-05-29,1,,,,,バーニングインターナショナル,0
749,3290001095108,登記記録の閉鎖等,0,2025-11-17,2025-10-16,株式会社リバストン,,株式会社,福岡県,糟屋郡篠栗町,和田３丁目４番２０号,,40,342,8112414,,,2025-10-16,清算の結了等,,,2021-10-26,1,,,,,リバストン,0
765,3340001018319,登記記録の閉鎖等,0,2025-11-17,2025-11-07,株式会社ヨーソロ,,株式会社,鹿児島県,志布志市,志布志町安楽１３５番地１稚児松ハイツＣ棟,,46,221,8997104,,,2025-11-07,清算の結了等,,,2015-10-05,1,,,,,ヨーソロ,0
777,3390001006137,登記記録の閉鎖等,0,2025-11-17,2025-10-23,株式会社加賀屋,,株式会社,山形県,酒田市,二番町２番１８号,,06,204,9980045,,,2025-10-23,清算の結了等,,,2015-10-05,1,,,,,カガヤ,0
781,3400602000065,登記記録の閉鎖等,0,2025-11-17,2025-11-07,有限会社伊藤工業,,有限会社,岩手県,奥州市,胆沢小山字龍ケ馬場９２番地１,,03,215,0230402,,,2025-11-07,清算の結了等,,,2015-10-05,1,,,,,イトウコウギョウ,0
799,4010001194530,登記記録の閉鎖等,0,2025-11-17,2025-11-04,ボルテックス合人社建物管理株式会社,,株式会社,東京都,千代田区,神田駿河台２丁目９番地１３,,13,101,1010062,,,2025-11-04,清算の結了等,,,2018-09-07,1,,,,,ボルテックスゴウジンシャタテモノカンリ,0
806,4010005031201,登記記録の閉鎖等,0,2025-11-17,2025-11-14,一般社団法人ハウス３４,,その他の設立登記法人,東京都,千代田区,丸の内１丁目４番１号東京共同会計事務所内,,13,101,1000005,,,2025-11-14,清算の結了等,,,2019-12-17,1,,,,,ハウスサンジュウヨン,0
807,4010401027950,登記記録の閉鎖等,0,2025-11-17,2025-10-22,万造工務所株式会社,,株式会社,東京都,港区,南青山３丁目１５番１９号フラット竹田２０５号,,13,103,1070062,,,2025-10-22,清算の結了等,,,2015-10-05,1,,,,,,0
810,4010401162673,登記記録の閉鎖等,0,2025-11-17,2025-10-22,株式会社ユナイテッドウィズダム,,株式会社,東京都,港区,六本木６丁目２番３１号六本木ヒルズノースタワー９階,,13,103,1060032,,,2025-10-22,清算の結了等,,,2021-09-15,1,,,,,ユナイテッドウィズダム,0
816,4010403032164,登記記録の閉鎖等,0,2025-11-17,2025-10-22,合同会社オリーブキャピタル,,合同会社,東京都,港区,虎ノ門２丁目６番１号虎ノ門ヒルズステーションタワー,,13,103,1050001,,,2025-10-22,清算の結了等,,,2024-03-14,1,,,,,オリーブキャピタル,0
826,4010602033698,登記記録の閉鎖等,0,2025-11-17,2025-10-15,有限会社福助サービス,,有限会社,千葉県,長生郡一宮町,船頭給２５１２番地６６,,12,421,2994313,,,2025-10-15,清算の結了等,,,2015-10-05,1,,,,,フクスケサービス,0
828,4010801023005,登記記録の閉鎖等,0,2025-11-17,2025-11-04,富士メディック日本株式会社,,株式会社,東京都,大田区,山王２丁目１２番６号,,13,111,1430023,,,2025-11-04,合併による解散等,3010801018121,令和７年１１月１日東京都大田区山王二丁目１２番６号富士メディック株式会社（3010801018121）に合併し解散,2015-10-05,1,,,,,フジメディックニホン,0
848,4011101022119,登記記録の閉鎖等,0,2025-11-17,2025-11-10,株式会社ラウンドアイ,,株式会社,東京都,中野区,江原町１丁目１４番１３号,,13,114,1650023,,,2025-11-10,清算の結了等,,,2015-10-05,1,,,,,ラウンドアイ,0
854,4011301001475,登記記録の閉鎖等,0,2025-11-17,2025-11-11,大野建設工業株式会社,,株式会社,東京都,杉並区,堀ノ内３丁目２番１７号,,13,115,1660013,,,2025-11-11,清算の結了等,,,2015-10-05,1,,,,,オオノケンセツコウギョウ,0
858,4011501032072,登記記録の閉鎖等,0,2025-11-17,2025-11-10,望川株式会社,,株式会社,東京都,荒川区,南千住２丁目１６番９号,,13,118,1160003,,,2025-11-10,清算の結了等,,,2025-05-19,1,,,,,ボウセン,0
880,4020002039139,登記記録の閉鎖等,0,2025-11-17,2025-08-22,有限会社塚原組,00010790,有限会社,神奈川県,横浜市鶴見区,諏訪坂１８番２５号,,14,101,2300014,,,2025-08-22,清算の結了等,,,2015-10-05,1,,,,,ツカハラグミ,0
885,4021001045029,登記記録の閉鎖等,0,2025-11-17,2025-10-28,光洋漁業株式会社,,株式会社,神奈川県,三浦市,三崎２丁目２２番１３号,,14,210,2380243,,,2025-10-28,清算の結了等,,,2015-10-05,1,,,,,,0
890,4021002068111,登記記録の閉鎖等,0,2025-11-17,2025-10-31,有限会社菊池米店,,有限会社,神奈川県,逗子市,逗子３丁目２番３３号,,14,208,2490006,,,2025-10-31,清算の結了等,,,2015-10-05,1,,,,,キクチコメテン,0
909,4040002087185,登記記録の閉鎖等,0,2025-11-17,2025-10-14,有限会社宮本ポンプ店,,有限会社,千葉県,香取市,佐原イ１７５５番地９,,12,236,2870003,,,2025-10-14,清算の結了等,,,2015-10-05,1,,,,,ミヤモトポンプテン,0
928,4080001009450,登記記録の閉鎖等,0,2025-11-17,2025-11-12,株式会社渡邊工業,,株式会社,静岡県,静岡市清水区,石川新町６番５号,,22,103,4240007,,,2025-11-12,清算の結了等,,,2015-10-05,1,,,,,ワタナベコウギョウ,0
931,4080101021074,登記記録の閉鎖等,0,2025-11-17,2025-11-11,ライスネクスト株式会社,,株式会社,静岡県,富士市,蓼原７８番地の２,,22,210,4160931,,,2025-11-11,合併による解散等,7080101009298,令和７年１１月１日静岡県富士市蓼原７８番地の２長谷川倉庫株式会社（7080101009298）に合併し解散,2019-04-08,1,,,,,ライスネクスト,0
938,4110002022234,登記記録の閉鎖等,0,2025-11-17,2025-11-10,有限会社飯塚達治建設,00070915,有限会社,新潟県,上越市,大字三田新田３２９番地,,15,222,9420053,,,2025-11-10,清算の結了等,,,2015-10-05,1,,,,,イイヅカタツジケンセツ,0
939,4110003003547,登記記録の閉鎖等,0,2025-11-17,2025-11-10,合同会社サトウ精研,,合同会社,新潟県,魚沼市,三渕沢１４５番地１,,15,225,9460225,,,2025-11-10,清算の結了等,,,2017-08-18,1,,,,,サトウセイケン,0
948,4120001263522,登記記録の閉鎖等,0,2025-11-17,2025-11-07,株式会社ＯＧ‐ＴＥＣＨ,,株式会社,大阪府,交野市,妙見東４丁目１１番１号,,27,230,5760012,,,2025-11-07,清算の結了等,,,2024-04-01,1,,,,,オージーテック,0
956,4120003020913,登記記録の閉鎖等,0,2025-11-17,2025-11-07,ＬＯＫＩ　ＡＣＡＤＥＭＩＣＡ合同会社,,合同会社,大阪府,大阪市北区,大深町３番地１号,,27,127,5300011,,,2025-11-07,清算の結了等,,,2022-01-12,1,,,,,ロキアカデミカ,0
972,4120902005262,登記記録の閉鎖等,0,2025-11-17,2025-11-04,有限会社石田商事,,有限会社,大阪府,吹田市,豊津町２２番１０号,,27,205,5640051,,,2025-11-04,清算の結了等,,,2015-10-05,1,,,,,イシダショウジ,0
981,4130002019674,登記記録の閉鎖等,0,2025-11-17,2025-11-12,有限会社京都しょうざんホンマ,,有限会社,愛知県,名古屋市中区,錦２丁目１１－６,,23,106,4600003,,,2025-11-12,清算の結了等,,,2015-10-05,1,,,,,,0
990,4140005021404,登記記録の閉鎖等,0,2025-11-17,2025-11-05,第２シーサイドパレス塩屋管理組合法人,,その他の設立登記法人,兵庫県,神戸市垂水区,塩屋町１丁目５番８号,,28,108,6550872,,,2025-11-05,清算の結了等,,,2015-10-05,1,,,,,ダイニシーサイドパレスシオヤ,0
995,4170001013443,登記記録の閉鎖等,0,2025-11-17,2025-11-14,株式会社萩金物,,株式会社,和歌山県,和歌山市,湊１８２３番地,,30,201,6408404,,,2025-11-14,清算の結了等,,,2015-10-05,1,,,,,ハギカナモノ,0
1006,4200002021904,登記記録の閉鎖等,0,2025-11-17,2025-11-10,有限会社稲津陶苑,,有限会社,岐阜県,瑞浪市,稲津町小里１６９番地の１,,21,208,5096103,,,2025-11-10,清算の結了等,,,2015-10-05,1,,,,,イナツトウエン,0
1026,4290002024345,登記記録の閉鎖等,0,2025-11-17,2025-10-17,有限会社マットトレーディング,,有限会社,福岡県,福岡市中央区,那の津２丁目６番４号,,40,133,8100071,,,2025-10-17,清算の結了等,,,2015-10-05,1,,,,,マットトレーディング,0
1031,4300002008668,登記記録の閉鎖等,0,2025-11-17,2025-11-12,有限会社竹川設計,,有限会社,佐賀県,西松浦郡有田町,蔵宿丙４０９４番地１,,41,401,8494161,,,2025-11-12,清算の結了等,,,2015-10-05,1,,,,,タケカワセッケイ,0
1045,4380003000352,登記記録の閉鎖等,0,2025-11-17,2025-11-07,ふくしまビジネスネットワーク合同会社,,合同会社,福島県,福島市,飯坂町平野字谷地田一丁目６０番地,,07,201,9600231,,,2025-11-07,清算の結了等,,,2015-10-05,1,,,,,,0
1046,4400002012726,登記記録の閉鎖等,0,2025-11-17,2025-11-07,有限会社アールケージー,,有限会社,岩手県,久慈市,栄町第３１地割１８９番地２,,03,207,0280024,,,2025-11-07,清算の結了等,,,2015-10-05,1,,,,,アールケージー,0
1047,4400501000909,登記記録の閉鎖等,0,2025-11-17,2025-11-07,重機建販サービス株式会社,,株式会社,岩手県,一関市,三関字小沢３０番地８３,,03,209,0210821,,,2025-11-07,清算の結了等,,,2015-10-05,1,,,,,ジュウキケンパンサービス,0
1056,4430002022763,登記記録の閉鎖等,0,2025-11-17,2025-11-04,有限会社三条商事,,有限会社,北海道,札幌市西区,二十四軒三条７丁目３番３５号,,01,107,0630803,,,2025-11-04,合併による解散等,1430001014376,令和７年１１月１日札幌市西区二十四軒三条七丁目３番３５号福山石油株式会社（1430001014376）に合併し解散,2015-10-05,1,,,,,サンジョウショウジ,0
1058,4440002008687,登記記録の閉鎖等,0,2025-11-17,2025-11-10,有限会社若山鉄工所,,有限会社,北海道,二海郡八雲町,東雲町６２番地,,01,346,0493105,,,2025-11-10,清算の結了等,,,2015-10-05,1,,,,,ワカヤマテッコウショ,0
1075,5010001173293,登記記録の閉鎖等,0,2025-11-17,2025-11-05,経営文化フォーラム株式会社,,株式会社,宮城県,富谷市,日吉台２丁目３５番地６,,04,216,9813362,,,2025-11-05,清算の結了等,,,2016-02-03,1,,,,,ケイエイブンカフォーラム,0
1076,5010001196063,登記記録の閉鎖等,0,2025-11-17,2025-11-04,株式会社マイクロスタッフィングサービス,,株式会社,東京都,中央区,銀座２丁目１２番３号,,13,102,1040061,,,2025-11-04,合併による解散等,3010001057597,令和７年１１月１日東京都中央区新富一丁目３番７号株式会社マイクロハウス（3010001057597）に合併し解散,2018-11-07,1,,,,,マイクロスタッフィングサービス,0
1093,5010601000905,登記記録の閉鎖等,0,2025-11-17,2025-11-11,株式会社ＩＨＩインフラ建設,,株式会社,東京都,江東区,豊洲３丁目１番１号,,13,108,1350061,,,2025-11-11,合併による解散等,5120101023932,令和７年１１月１日大阪府堺市堺区大浜西町３番地株式会社ＩＨＩインフラシステム（5120101023932）に合併し解散,2015-10-05,1,,,,,,0
1102,5010901030750,登記記録の閉鎖等,0,2025-11-17,2025-11-13,株式会社プロミスト,,株式会社,東京都,世田谷区,深沢１丁目２０番１４号,,13,112,1580081,,,2025-11-13,清算の結了等,,,2015-10-05,1,,,,,プロミスト,0
1108,5011001119369,登記記録の閉鎖等,0,2025-11-17,2025-10-14,株式会社ウィングオブエイジ,,株式会社,東京都,新宿区,新宿１丁目３６番２号,,13,104,1600022,,,2025-10-14,清算の結了等,,,2017-11-24,1,,,,,ウィングオブエイジ,0
1121,5011102001962,登記記録の閉鎖等,0,2025-11-17,2025-10-15,有限会社江戸一,,有限会社,東京都,新宿区,若葉２丁目１２番地,,13,104,1600011,,,2025-10-15,清算の結了等,,,2015-10-05,1,,,,,,0
1134,5011701022013,登記記録の閉鎖等,0,2025-11-17,2025-11-11,ＥＬＩＴＥ株式会社,,株式会社,東京都,江戸川区,松島１丁目４３番１４号小森ビル１階,,13,123,1320031,,,2025-11-11,合併による解散等,5010602032006,令和７年１１月１日東京都江東区大島四丁目１番２－１０９号株式会社ＴＣＳわかば（5010602032006）に合併し解散,2018-08-24,1,,,,,エリート,0
1143,5013302014661,登記記録の閉鎖等,0,2025-11-17,2025-11-05,有限会社エム．アイ．イー．コーポレーション,,有限会社,東京都,豊島区,池袋本町１丁目２５番１０号,,13,116,1700011,,,2025-11-05,清算の結了等,,,2015-10-05,1,,,,,エムアイイーコーポレーション,0
1156,5020002012359,登記記録の閉鎖等,0,2025-11-17,2025-11-04,有限会社ディ・ワールド,,有限会社,神奈川県,横浜市南区,六ツ川２丁目６３番地１８,,14,105,2320066,,,2025-11-04,清算の結了等,,,2015-10-05,1,,,,,ディワールド,0
1162,5021002055851,登記記録の閉鎖等,0,2025-11-17,2025-10-31,有限会社宮本林産,,有限会社,神奈川県,足柄上郡山北町,向原１７番地の２５,,14,364,2580111,,,2025-10-31,清算の結了等,,,2015-10-05,1,,,,,ミヤモトリンサン,0
1165,5030001051654,登記記録の閉鎖等,0,2025-11-17,2025-11-10,株式会社杉戸計算センター,,株式会社,埼玉県,南埼玉郡宮代町,中央２丁目１番４号松本ビル１０２号室,,11,442,3450821,,,2025-11-10,清算の結了等,,,2015-10-05,1,,,,,スギトケイサンセンター,0
1190,5110002024972,登記記録の閉鎖等,0,2025-11-17,2025-11-10,有限会社ヒラノ食堂,,有限会社,新潟県,妙高市,月岡１丁目１６番５号,,15,217,9440003,,,2025-11-10,清算の結了等,,,2015-10-05,1,,,,,ヒラノショクドウ,0
1192,5120001015625,登記記録の閉鎖等,0,2025-11-17,2025-11-13,株式会社デジタルマップス,,株式会社,大阪府,大阪市鶴見区,緑１丁目５番７号,,27,124,5380054,,,2025-11-13,清算の結了等,,,2015-10-05,1,,,,,デジタルマップス,0
1196,5120001172185,登記記録の閉鎖等,0,2025-11-17,2025-11-13,株式会社エル・バランス,,株式会社,大阪府,大阪市阿倍野区,阿倍野筋２丁目４番３７－９０６号,,27,119,5450052,,,2025-11-13,清算の結了等,,,2015-10-05,1,,,,,エルバランス,0
1198,5120001232682,登記記録の閉鎖等,0,2025-11-17,2025-11-13,株式会社ラトリモ,,株式会社,大阪府,大阪市浪速区,難波中３丁目７番８－７０１号,,27,111,5560011,,,2025-11-13,清算の結了等,,,2020-10-23,1,,,,,ラトリモ,0
1206,5120002015962,登記記録の閉鎖等,0,2025-11-17,2025-11-13,清和三崎陸運有限会社,,有限会社,大阪府,大阪市港区,波除５丁目４番５号,,27,107,5520001,,,2025-11-13,清算の結了等,,,2015-10-05,1,,,,,セイワミサキリクウン,0
1208,5120003027783,登記記録の閉鎖等,0,2025-11-17,2025-11-13,合同会社旬天,,合同会社,大阪府,大阪市住吉区,長居西１丁目１２番２３号,,27,120,5580002,,,2025-11-13,清算の結了等,,,2024-10-22,1,,,,,シュンテン,0
1228,5140003022205,登記記録の閉鎖等,0,2025-11-17,2025-11-11,合同会社湊商会,,合同会社,兵庫県,神戸市中央区,相生町４丁目７－１３第２神戸サンクレバー４Ｃ,,28,110,6500025,,,2025-11-11,清算の結了等,,,2025-06-19,1,,,,,ミナトショウカイ,0
1233,5170002008350,登記記録の閉鎖等,0,2025-11-17,2025-11-14,有限会社弘幸,,有限会社,和歌山県,紀の川市,北長田７１番地の１３,,30,208,6496502,,,2025-11-14,清算の結了等,,,2015-10-05,1,,,,,ヒロコウ,0
1235,5170005001468,登記記録の閉鎖等,0,2025-11-17,2025-11-14,一般社団法人全和歌山県鍼灸マッサージ師会,,その他の設立登記法人,和歌山県,和歌山市,太田４９番地の１小川コーポ１階,,30,201,6408323,,,2025-11-14,清算の結了等,,,2015-10-05,1,,,,,ゼンワカヤマケンシンキュウマッサージシカイ,0
1245,5180301019980,登記記録の閉鎖等,0,2025-11-17,2025-11-12,稲武観光開発株式会社,,株式会社,愛知県,豊田市,武節町ソト田８０番地３,,23,211,4412522,,,2025-11-12,清算の結了等,,,2015-10-05,1,,,,,イナブカンコウカイハツ,0
1248,5180302018610,登記記録の閉鎖等,0,2025-11-17,2025-11-06,有限会社テクノ・パスカル,,有限会社,愛知県,刈谷市,野田町馬池３番地１８,,23,210,4480803,,,2025-11-06,清算の結了等,,,2015-10-05,1,,,,,テクノパスカル,0
1256,5220001016563,登記記録の閉鎖等,0,2025-11-17,2025-11-13,株式会社ハリカ輪島,,株式会社,石川県,輪島市,杉平町蝦夷穴６２番８,,17,204,9280011,,,2025-11-13,清算の結了等,,,2015-10-05,1,,,,,ハリカワジマ,0
1264,5260002025923,登記記録の閉鎖等,0,2025-11-17,2025-11-11,池田チップ有限会社,,有限会社,岡山県,小田郡矢掛町,東川面１２０１番地,,33,461,7141223,,,2025-11-11,清算の結了等,,,2015-10-05,1,,,,,イケダチップ,0
1269,5290001009701,登記記録の閉鎖等,0,2025-11-17,2025-10-17,ベースメント株式会社,,株式会社,福岡県,福岡市中央区,舞鶴１丁目６番１２－９０４号,,40,133,8100073,,,2025-10-17,清算の結了等,,,2015-10-05,1,,,,,ベースメント,0
1293,5360003002399,登記記録の閉鎖等,0,2025-11-17,2025-11-12,合同会社マキシ・エンタープライズ,,合同会社,沖縄県,那覇市,曙２丁目２５番１１号,,47,201,9000002,,,2025-11-12,清算の結了等,,,2015-10-05,1,,,,,,0
1300,5400005003572,登記記録の閉鎖等,0,2025-11-17,2025-11-07,正覚院,,その他の設立登記法人,岩手県,北上市,更木２９地割１４５番地の内イ号,,03,206,0240103,,,2025-11-07,清算の結了等,,,2015-10-05,1,,,,,ショウカクイン,0
1310,5470002008130,登記記録の閉鎖等,0,2025-11-17,2025-11-07,有限会社マッドソイルセメント工業,,有限会社,香川県,高松市,屋島西町２１０７番地４１,,37,201,7610113,,,2025-11-07,清算の結了等,,,2015-10-05,1,,,,,マッドソイルセメントコウギョウ,0
1317,5500003002244,登記記録の閉鎖等,0,2025-11-17,2025-11-12,アルティメイト合同会社,,合同会社,愛媛県,今治市,泉川町２丁目５番６号,,38,202,7940057,,,2025-11-12,清算の結了等,,,2019-03-29,1,,,,,アルティメイト,0
1323,6010001169539,登記記録の閉鎖等,0,2025-11-17,2025-11-10,株式会社ハヤクタ屋,,株式会社,東京都,台東区,上野４丁目１番７号ＭＹＳ御徒町,,13,106,1100005,,,2025-11-10,清算の結了等,,,2015-10-05,1,,,,,ハヤクタヤ,0
1329,6010003017761,登記記録の閉鎖等,0,2025-11-17,2025-11-05,ベイソーラープロジェクト合同会社,,合同会社,東京都,千代田区,大手町１丁目５番１号大手町ファーストスクエアイーストタワー４階,,13,101,1000004,,,2025-11-05,清算の結了等,,,2015-10-05,1,,,,,ベイソーラープロジェクト,0
1347,6010403032245,登記記録の閉鎖等,0,2025-11-17,2025-10-22,合同会社オリーブキャピタルツー,,合同会社,東京都,港区,虎ノ門２丁目６番１号虎ノ門ヒルズステーションタワー,,13,103,1050001,,,2025-10-22,清算の結了等,,,2024-03-25,1,,,,,オリーブキャピタルツー,0
1348,6010405000927,登記記録の閉鎖等,0,2025-11-17,2025-10-23,公益財団法人日本学術協力財団,,その他の設立登記法人,東京都,港区,赤坂４丁目９番３号,,13,103,1070052,,,2025-10-23,清算の結了等,,,2015-10-05,1,,,,,ニホンガクジュツキョウリョクザイダン,0
1350,6010501036817,登記記録の閉鎖等,0,2025-11-17,2025-11-11,株式会社ユウトナス,,株式会社,東京都,台東区,蔵前２丁目４番３号蔵前永谷ビル第７Ｆ－Ｄ号室,,13,106,1110051,,,2025-11-11,清算の結了等,,,2015-10-05,1,,,,,ユウトナス,0
1352,6010502017353,登記記録の閉鎖等,0,2025-11-17,2025-11-11,有限会社プロスパー二十一,,有限会社,東京都,台東区,花川戸２丁目８番１３号,,13,106,1110033,,,2025-11-11,清算の結了等,,,2015-10-05,1,,,,,プロスパーニジュウイチ,0
1356,6010802005710,登記記録の閉鎖等,0,2025-11-17,2025-11-05,有限会社三愛技研工業,,有限会社,東京都,大田区,西六郷３丁目１４番９号,,13,111,1440056,,,2025-11-05,清算の結了等,,,2015-10-05,1,,,,,サンアイギケンコウギョウ,0
1362,6011001135670,登記記録の閉鎖等,0,2025-11-17,2025-11-12,株式会社ＹＳＰ３,,株式会社,東京都,千代田区,麹町２丁目６番地５,,13,101,1020083,,,2025-11-12,合併による解散等,6270002009701,令和７年１１月１日鳥取県東伯郡琴浦町大字赤碕１９８５番地１株式会社足立水道設備（6270002009701）に合併し解散,2020-09-04,1,,,,,ワイエスピースリー,0
1363,6011001148342,登記記録の閉鎖等,0,2025-11-17,2025-11-12,ｆｏ２株式会社,,株式会社,東京都,渋谷区,円山町５番５号Ｎａｖｉ渋谷Ｖ３階,00126999,13,113,1500044,,,2025-11-12,合併による解散等,5290003007645,令和７年１０月１日福岡市中央区天神一丁目１番１号アクロス福岡１Ｆ福岡商事株式会社（5290003007645）に合併し解散,2022-06-24,1,,,,,エフオーツー,0
1369,6011101017868,登記記録の閉鎖等,0,2025-11-17,2025-10-15,株式会社ピー・ポート,,株式会社,東京都,新宿区,西早稲田３丁目１３番２号,,13,104,1690051,,,2025-10-15,清算の結了等,,,2015-10-05,1,,,,,ピーポート,0
1370,6011101077697,登記記録の閉鎖等,0,2025-11-17,2025-10-15,株式会社ＢＵＬＬＭＯＯＳＥ,,株式会社,千葉県,市川市,南大野１丁目２３番３号,,12,203,2720804,,,2025-10-15,清算の結了等,,,2016-07-22,1,,,,,ブルムース,0
1385,6011802024411,登記記録の閉鎖等,0,2025-11-17,2025-11-12,有限会社東洋ガラス工芸,,有限会社,東京都,足立区,大谷田３丁目２２番１５号,,13,121,1200001,,,2025-11-12,清算の結了等,,,2015-10-05,1,,,,,トウヨウガラスコウゲイ,0
1414,6030001083647,登記記録の閉鎖等,0,2025-11-17,2025-10-31,エーサットインダストリー株式会社,,株式会社,東京都,中央区,日本橋小伝馬町４番３号フジスター小伝馬町ビル２階Ｂ号室,,13,102,1030001,,,2025-10-31,合併による解散等,8030001083190,令和７年１０月３１日東京都中央区日本橋小伝馬町４番３号フジスター小伝馬町ビル２階Ｂ号室エーサット株式会社（8030001083190）に合併し解散,2015-10-05,1,,,,,エーサットインダストリー,0
1426,6040001080619,登記記録の閉鎖等,0,2025-11-17,2025-10-14,株式会社ウェルフェア千葉,,株式会社,千葉県,千葉市若葉区,大井戸町６２９番地,,12,104,2650075,,,2025-10-14,清算の結了等,,,2015-10-05,1,,,,,ウェルフェアチバ,0
1436,6050001050612,登記記録の閉鎖等,0,2025-11-17,2025-11-04,株式会社波崎ハイミール,,株式会社,茨城県,神栖市,波崎６０９５番地３４,,08,232,3140408,,,2025-11-04,合併による解散等,6050001022108,令和７年１１月１日茨城県神栖市波崎９０５７番地の２株式会社石田丸漁業（6050001022108）に合併し解散,2022-02-15,1,,,,,ハサキハイミール,0
1446,6120001027207,登記記録の閉鎖等,0,2025-11-17,2025-11-13,株式会社折正,,株式会社,大阪府,大阪市大正区,三軒家東１丁目１４番１５号,,27,108,5510002,,,2025-11-13,清算の結了等,,,2015-10-05,1,,,,,オリマサ,0
1448,6120001036141,登記記録の閉鎖等,0,2025-11-17,2025-11-13,株式会社春次商店,,株式会社,大阪府,大阪市福島区,野田１丁目１番８６号,,27,103,5530005,,,2025-11-13,清算の結了等,,,2015-10-05,1,,,,,,0
1453,6120001236518,登記記録の閉鎖等,0,2025-11-17,2025-11-13,株式会社ＲＥＶＩＥ,,株式会社,大阪府,大阪市都島区,東野田町２丁目９番２３号３階,,27,102,5340024,,,2025-11-13,清算の結了等,,,2021-04-09,1,,,,,レヴィ,0
1463,6120002004543,登記記録の閉鎖等,0,2025-11-17,2025-11-14,テエケエテンポラリー有限会社,,有限会社,大阪府,大阪市都島区,大東町１丁目６４番５号,,27,102,5340002,,,2025-11-14,清算の結了等,,,2025-08-29,1,,,,,テエケエテンポラリー,0
1485,6130002028517,登記記録の閉鎖等,0,2025-11-17,2025-11-12,有限会社白石工務店,,有限会社,京都府,南丹市,美山町白石中野１番地,,26,213,6010704,,,2025-11-12,清算の結了等,,,2015-10-05,1,,,,,シライシコウムテン,0
1502,6160001008145,登記記録の閉鎖等,0,2025-11-17,2025-11-12,株式会社大菅産業,,株式会社,滋賀県,彦根市,中央町４番３９号,,25,202,5220063,,,2025-11-12,清算の結了等,,,2015-10-05,1,,,,,オオスガサンギョウ,0
1509,6180002019940,登記記録の閉鎖等,0,2025-11-17,2025-11-12,有限会社旭産業,,有限会社,愛知県,名古屋市熱田区,桜田町１１番１７号,,23,109,4560004,,,2025-11-12,清算の結了等,,,2015-10-05,1,,,,,アサヒサンギョウ,0
1510,6180002054483,登記記録の閉鎖等,0,2025-11-17,2025-11-13,有限会社アットライフ,,有限会社,愛知県,名古屋市東区,東大曽根町２－２０,,23,102,4610022,,,2025-11-13,清算の結了等,,,2015-10-05,1,,,,,アットライフ,0
1512,6180002065621,登記記録の閉鎖等,0,2025-11-17,2025-11-11,有限会社加藤建具店,,有限会社,愛知県,春日井市,高蔵寺町北２丁目２６番地,,23,206,4870016,,,2025-11-11,清算の結了等,,,2015-10-05,1,,,,,カトウタテグテン,0
1513,6180002074829,登記記録の閉鎖等,0,2025-11-17,2025-11-11,有限会社小林ヘルスケア,,有限会社,愛知県,犬山市,天神町２丁目３２番地,,23,215,4840073,,,2025-11-11,清算の結了等,,,2015-10-05,1,,,,,コバヤシヘルスケア,0
1517,6180301037420,登記記録の閉鎖等,0,2025-11-17,2025-10-28,ＶａｒｂｅｎＦｉｌｌｉ株式会社,,株式会社,愛知県,瀬戸市,西原町２丁目１番地１せと丸ビル２階２Ａ号室,,23,204,4890972,,,2025-10-28,清算の結了等,,,2023-05-26,1,,,,,ヴァルベンフィリ,0
1520,6210002002298,登記記録の閉鎖等,0,2025-11-17,2025-11-12,有限会社千順,,有限会社,福井県,福井市,高柳町第８号４番地の１９,,18,201,9100803,,,2025-11-12,清算の結了等,,,2015-10-05,1,,,,,チヨリ,0
1526,6250002002212,登記記録の閉鎖等,0,2025-11-17,2025-11-13,有限会社トランスポートＫＩＷＡＭＩ,,有限会社,山口県,山口市,下小鯖２８５８－１,,35,203,7530212,,,2025-11-13,清算の結了等,,,2015-10-05,1,,,,,,0
1528,6270001006427,登記記録の閉鎖等,0,2025-11-17,2025-11-14,株式会社エイコー電機,,株式会社,鳥取県,鳥取市,賀露町北２丁目１０－２３,,31,201,6800907,,,2025-11-14,清算の結了等,,,2015-10-05,1,,,,,エイコーデンキ,0
1533,6290001039227,登記記録の閉鎖等,0,2025-11-17,2025-10-17,株式会社博栄物流,,株式会社,福岡県,福岡市東区,原田１丁目２２番４０号,,40,131,8120063,,,2025-10-17,清算の結了等,,,2015-10-05,1,,,,,ハクエイブツリュウ,0
1545,6330001004424,登記記録の閉鎖等,0,2025-11-17,2025-11-10,株式会社丸本本店,,株式会社,熊本県,熊本市中央区,花畑町１０番３３号,,43,101,8600806,,,2025-11-10,清算の結了等,,,2015-10-05,1,,,,,マルモトホンテン,0
1582,7010001213774,登記記録の閉鎖等,0,2025-11-17,2025-08-14,株式会社ディリジェント,,株式会社,東京都,千代田区,二番町９－３,,13,101,1020084,,,2025-08-14,清算の結了等,,,2020-11-17,1,,,,,ディリジェント,0
1597,7010403029364,登記記録の閉鎖等,0,2025-11-17,2025-10-01,ユニクレイジー合同会社,,合同会社,東京都,港区,南青山３丁目１番３６号青山丸竹ビル,,13,103,1070062,,,2025-10-01,清算の結了等,,,2023-02-01,1,,,,,ユニクレイジー,0
1604,7010701042267,登記記録の閉鎖等,0,2025-11-17,2025-11-12,株式会社Ｓｔｒｅｅｔ　Ｊｏｕｒｎｅｙ,,株式会社,東京都,品川区,上大崎１丁目８番１０号エスアイハイム１０１,,13,109,1410021,,,2025-11-12,清算の結了等,,,2022-02-25,1,,,,,ストリートジャーニー,0
1639,7020001087359,登記記録の閉鎖等,0,2025-11-17,2025-11-14,株式会社Ｔｒｕｅ　Ｎａｔｕｒｅ,,株式会社,大阪府,大阪市中央区,道修町４丁目４番１０号,,27,128,5410045,,,2025-11-14,清算の結了等,,,2015-10-05,1,,,,,トゥルーネイチャー,0
1668,7050002035495,登記記録の閉鎖等,0,2025-11-17,2025-11-11,有限会社ウエノ自動車,,有限会社,茨城県,常陸大宮市,泉３９９番地の３,,08,225,3192144,,,2025-11-11,清算の結了等,,,2015-10-05,1,,,,,ウエノジドウシャ,0
1678,7080402009253,登記記録の閉鎖等,0,2025-11-17,2025-11-10,有限会社湖西調剤センター,,有限会社,静岡県,湖西市,鷲津１２１９番地の１,,22,221,4310431,,,2025-11-10,清算の結了等,,,2015-10-05,1,,,,,コサイチョウザイセンター,0
1681,7110001006714,登記記録の閉鎖等,0,2025-11-17,2025-11-11,新潟造船株式会社,,株式会社,新潟県,新潟市中央区,入船町４丁目３７７６番地,,15,103,9518011,,,2025-11-11,合併による解散等,1080001009214,令和７年１１月１日静岡市清水区三保３７９７番地常石三保造船株式会社（1080001009214）に合併し解散,2015-10-05,1,,,,,ニイガタゾウセン,0
1682,7110001031836,登記記録の閉鎖等,0,2025-11-17,2025-10-20,株式会社レジスタイル,,株式会社,東京都,港区,南青山２丁目２番１５号,,13,103,1070062,,,2025-10-20,清算の結了等,,,2016-10-04,1,,,,,レジスタイル,0
1683,7110002019657,登記記録の閉鎖等,0,2025-11-17,2025-11-05,有限会社土田製作所,,有限会社,新潟県,燕市,殿島２丁目９番２３号,,15,213,9591233,,,2025-11-05,清算の結了等,,,2015-10-05,1,,,,,ツチダセイサクショ,0
1687,7120001149082,登記記録の閉鎖等,0,2025-11-17,2025-11-14,梅沢建設株式会社,,株式会社,大阪府,枚方市,北山１丁目５７番７号,,27,210,5730171,,,2025-11-14,清算の結了等,,,2015-10-05,1,,,,,ウメザワケンセツ,0
1696,7120002015250,登記記録の閉鎖等,0,2025-11-17,2025-11-12,有限会社岩井製作所,,有限会社,大阪府,大阪市港区,磯路３丁目２７番６－３０２号,,27,107,5520003,,,2025-11-12,清算の結了等,,,2015-10-05,1,,,,,イワイセイサクショ,0
1698,7120003020290,登記記録の閉鎖等,0,2025-11-17,2025-10-29,合同会社Ａｋａｎｂｏｕ,,合同会社,大阪府,大阪市西区,立売堀４丁目６番１２－７０５号,,27,106,5500012,,,2025-10-29,清算の結了等,,,2021-09-28,1,,,,,アカンボウ,0
1714,7130001038342,登記記録の閉鎖等,0,2025-11-17,2025-11-12,株式会社京洛,,株式会社,京都府,城陽市,寺田宮ノ平１７番地の１７,,26,207,6100121,,,2025-11-12,清算の結了等,,,2015-10-05,1,,,,,キョウラク,0
1723,7140001137614,登記記録の閉鎖等,0,2025-11-17,2025-11-07,ケースリーワークス株式会社,,株式会社,兵庫県,神戸市兵庫区,荒田町４丁目１番２３号,,28,105,6520032,,,2025-11-07,清算の結了等,,,2025-03-05,1,,,,,ケースリーワークス,0
1728,7140002029372,登記記録の閉鎖等,0,2025-11-17,2025-11-07,有限会社名村商店,,有限会社,兵庫県,明石市,大蔵天神町６番５号,,28,203,6730875,,,2025-11-07,清算の結了等,,,2015-10-05,1,,,,,ナムラショウテン,0
1739,7200002024846,登記記録の閉鎖等,0,2025-11-17,2025-11-10,あきら建設有限会社,,有限会社,岐阜県,高山市,下岡本町１６９３番地,,21,203,5060052,,,2025-11-10,清算の結了等,,,2015-10-05,1,,,,,アキラケンセツ,0
1750,7240001026690,登記記録の閉鎖等,0,2025-11-17,2025-11-11,株式会社米田塗装店,,株式会社,広島県,呉市,和庄１丁目２番２３号,,34,202,7370041,,,2025-11-11,清算の結了等,,,2015-10-05,1,,,,,ヨネダトソウテン,0
1752,7250001018828,登記記録の閉鎖等,0,2025-11-17,2025-11-13,株式会社Ｆｏｏｄ’ｓ　Ｒｏａｄ,,株式会社,山口県,山口市,米屋町２番４号,,35,203,7530087,,,2025-11-13,清算の結了等,,,2021-04-20,1,,,,,フーズロード,0
1756,7250005008528,登記記録の閉鎖等,0,2025-11-17,2025-11-12,恭朋事業協同組合,,その他の設立登記法人,山口県,下松市,東陽１丁目５番地２,,35,207,7440043,,,2025-11-12,清算の結了等,,,2019-10-24,1,,,,,キョウトモ,0
1757,7280002001409,登記記録の閉鎖等,0,2025-11-17,2025-11-14,有限会社田中酒店,,有限会社,島根県,松江市,雑賀町１０１番地,,32,201,6900056,,,2025-11-14,清算の結了等,,,2015-10-05,1,,,,,,0
1765,7310002007757,登記記録の閉鎖等,0,2025-11-17,2025-11-14,有限会社チャイルド長崎,,有限会社,長崎県,長崎市,琴海戸根町２６５５番地１,,42,201,8513103,,,2025-11-14,清算の結了等,,,2015-10-05,1,,,,,チャイルドナガサキ,0
1777,7360002022768,登記記録の閉鎖等,0,2025-11-17,2025-11-12,有限会社ピー・アイ・ジー・コーポレーション,,有限会社,沖縄県,宮古島市,下地字与那覇９６７番地１,,47,214,9060305,,,2025-11-12,清算の結了等,,,2015-10-05,1,,,,,ピーアイジーコーポレーション,0
1779,7360005001249,登記記録の閉鎖等,0,2025-11-17,2025-11-12,医療法人平愛会,,その他の設立登記法人,沖縄県,うるま市,字喜屋武１６９番地５,,47,213,9042225,,,2025-11-12,清算の結了等,,,2015-10-05,1,,,,,ヘイアイカイ,0
1780,7370001006548,登記記録の閉鎖等,0,2025-11-17,2025-11-06,みやぎの興業株式会社,,株式会社,宮城県,仙台市宮城野区,小田原１丁目１番１８号,,04,102,9830803,,,2025-11-06,清算の結了等,,,2015-10-05,1,,,,,ミヤギノコウギョウ,0
1786,7430001019948,登記記録の閉鎖等,0,2025-11-17,2025-11-11,株式会社札幌総輪,,株式会社,北海道,札幌市西区,発寒八条９丁目３番３号,,01,107,0630828,,,2025-11-11,清算の結了等,,,2015-10-05,1,,,,,サッポロソウワ,0
1787,7430001047255,登記記録の閉鎖等,0,2025-11-17,2025-11-11,環境テクノロジー株式会社,,株式会社,北海道,夕張郡栗山町,中央４丁目３６０番地,,01,429,0691511,,,2025-11-11,清算の結了等,,,2015-10-05,1,,,,,カンキョウテクノロジー,0
1808,8010001212081,登記記録の閉鎖等,0,2025-11-17,2025-11-06,株式会社ｅ．デパートマーケティング,,株式会社,東京都,豊島区,南池袋１丁目１８番２１号,,13,116,1710022,,,2025-11-06,合併による解散等,6010001127026,令和７年１１月１日東京都豊島区南池袋一丁目１８番２１号株式会社そごう・西武（6010001127026）に合併し解散,2020-09-07,1,,,,,イーデパートマーケティング,0
1813,8010003020177,登記記録の閉鎖等,0,2025-11-17,2025-11-11,合同会社ノウム,,合同会社,静岡県,静岡市駿河区,曲金４丁目４番７号,,22,102,4228006,,,2025-11-11,清算の結了等,,,2015-10-05,1,,,,,ノウム,0
1817,8010401155228,登記記録の閉鎖等,0,2025-11-17,2025-10-24,ＳＥＮＴＲＡＬ株式会社,,株式会社,東京都,港区,浜松町２丁目２番１５号浜松町ダイヤビル２Ｆ,,13,103,1050013,,,2025-10-24,清算の結了等,,,2020-09-16,1,,,,,セントラル,0
1820,8010401174038,登記記録の閉鎖等,0,2025-11-17,2025-10-22,株式会社ＪＧ１８,,株式会社,東京都,港区,虎ノ門１丁目３番１号,,13,103,1050001,,,2025-10-22,清算の結了等,,,2023-04-27,1,,,,,ジェージージュウハチ,0
1835,8010603006971,登記記録の閉鎖等,0,2025-11-17,2025-11-06,Ａｃｔｉｖｅ　Ｄｅｓｉｇｎ合同会社,,合同会社,東京都,江東区,豊洲４丁目１０番４号,,13,108,1350061,,,2025-11-06,清算の結了等,,,2017-10-17,1,,,,,アクティブデザイン,0
1868,8011702000163,登記記録の閉鎖等,0,2025-11-17,2025-11-10,有限会社アーバン,,有限会社,東京都,江戸川区,南小岩２丁目４番３９号,,13,123,1330056,,,2025-11-10,清算の結了等,,,2015-10-05,1,,,,,,0
1892,8020001112586,登記記録の閉鎖等,0,2025-11-17,2025-11-04,株式会社アイウィル,,株式会社,神奈川県,横浜市中区,吉浜町２番地３６,,14,104,2310024,,,2025-11-04,合併による解散等,3020001051698,令和７年１１月１日横浜市中区吉浜町２番地３６株式会社ＳＨＵＷＡエステート（3020001051698）に合併し解散,2015-10-05,1,,,,,アイウィル,0
1905,8021001055370,登記記録の閉鎖等,0,2025-11-17,2025-10-31,株式会社湘南カッター,,株式会社,神奈川県,厚木市,下川入２９１番地６,,14,212,2430206,,,2025-10-31,清算の結了等,,,2015-10-05,1,,,,,ショウナンカッター,0
1914,8030002070329,登記記録の閉鎖等,0,2025-11-17,2025-11-10,有限会社木村酒店,,有限会社,埼玉県,北葛飾郡杉戸町,清地２丁目５番２２号,,11,464,3450025,,,2025-11-10,清算の結了等,,,2015-10-05,1,,,,,キムラサケテン,0
1923,8040002081688,登記記録の閉鎖等,0,2025-11-17,2025-10-17,ミナカワ洋装縫製有限会社,,有限会社,千葉県,茂原市,墨田字南口７２３番地,,12,210,2970053,,,2025-10-17,清算の結了等,,,2015-10-05,1,,,,,ミナカワヨウソウホウセイ,0
1933,8080402019004,登記記録の閉鎖等,0,2025-11-17,2025-11-07,有限会社カットサロンむらまつ,,有限会社,静岡県,御前崎市,新野９５６番地の４,,22,223,4371611,,,2025-11-07,清算の結了等,,,2015-10-05,1,,,,,カットサロンムラマツ,0
1937,8110001035852,登記記録の閉鎖等,0,2025-11-17,2025-11-10,ＳＣ・Ｃｌａｓｓ株式会社,,株式会社,新潟県,新潟市北区,濁川３９８３番地１,,15,101,9503131,,,2025-11-10,清算の結了等,,,2021-06-11,1,,,,,エスシークラス,0
1951,8120002003320,登記記録の閉鎖等,0,2025-11-17,2025-11-14,有限会社泰盛,,有限会社,大阪府,大阪市阿倍野区,昭和町２丁目２０番１号,,27,119,5450011,,,2025-11-14,清算の結了等,,,2015-10-05,1,,,,,タイセイ,0
1952,8120002048761,登記記録の閉鎖等,0,2025-11-17,2025-10-31,有限会社平岡美術,,有限会社,大阪府,池田市,五月丘３丁目３番３１号,,27,204,5630029,,,2025-10-31,清算の結了等,,,2015-10-05,1,,,,,ヒラオカビジュツ,0
1966,8130001002215,登記記録の閉鎖等,0,2025-11-17,2025-11-13,株式会社リーヤル・コーポレーション,,株式会社,京都府,京都市南区,吉祥院大河原町３３－３０８,,26,107,6018391,,,2025-11-13,清算の結了等,,,2015-10-05,1,,,,,リーヤルコーポレーション,0
1981,8160001013556,登記記録の閉鎖等,0,2025-11-17,2025-11-13,中井プラスチック株式会社,,株式会社,滋賀県,栗東市,小柿２丁目１２番９号,,25,208,5203024,,,2025-11-13,清算の結了等,,,2015-10-05,1,,,,,,0
2003,8210001009697,登記記録の閉鎖等,0,2025-11-17,2025-11-11,石田建設株式会社,,株式会社,福井県,大野市,中野５３号１０番地の３,,18,205,9120021,,,2025-11-11,清算の結了等,,,2015-10-05,1,,,,,イシダケンセツ,0
2006,8210002012857,登記記録の閉鎖等,0,2025-11-17,2025-11-12,有限会社川上金型,,有限会社,福井県,鯖江市,南井町５号１５番地２,,18,207,9161107,,,2025-11-12,清算の結了等,,,2015-10-05,1,,,,,カワカミカナガタ,0
2009,8230001003062,登記記録の閉鎖等,0,2025-11-17,2025-11-11,北陸ユニツト販売株式会社,,株式会社,富山県,富山市,吉岡１０５番地,,16,201,9398153,,,2025-11-11,清算の結了等,,,2015-10-05,1,,,,,ホクリクユニットハンバイ,0
2010,8230005005872,登記記録の閉鎖等,0,2025-11-17,2025-11-10,医療法人社団内科東医院,,その他の設立登記法人,富山県,高岡市,通町５２番地,,16,202,9330937,,,2025-11-10,清算の結了等,,,2015-10-05,1,,,,,ナイカアズマイイン,0
2011,8240001011510,登記記録の閉鎖等,0,2025-11-17,2025-11-11,株式会社みやけ,,株式会社,広島県,広島市南区,宇品神田２丁目１９番６号,,34,103,7340004,,,2025-11-11,清算の結了等,,,2015-10-05,1,,,,,ミヤケ,0
2034,8300001011628,登記記録の閉鎖等,0,2025-11-17,2025-11-13,株式会社ＡＳＯＢＯ,,株式会社,佐賀県,佐賀市,水ヶ江２丁目８番１４号,,41,201,8400054,,,2025-11-13,清算の結了等,,,2019-03-06,1,,,,,アソボ,0
2037,8310002018596,登記記録の閉鎖等,0,2025-11-17,2025-11-14,有限会社大津硝子店,,有限会社,長崎県,島原市,大手原町甲２１３０番地２９,,42,203,8550012,,,2025-11-14,清算の結了等,,,2015-10-05,1,,,,,オオツガラステン,0
2042,8340002009436,登記記録の閉鎖等,0,2025-11-17,2025-11-06,有限会社みらい,,有限会社,鹿児島県,鹿児島市,南新町２８番８号,,46,201,8900085,,,2025-11-06,清算の結了等,,,2015-10-05,1,,,,,ミライ,0
2049,8360003010218,登記記録の閉鎖等,0,2025-11-17,2025-11-13,合同会社オーシャンスカイアドベンチャー,,合同会社,沖縄県,宮古島市,城辺字保良９４０番地１,,47,214,9060101,,,2025-11-13,清算の結了等,,,2020-04-10,1,,,,,オーシャンスカイアドベンチャー,0
2056,8380005001956,登記記録の閉鎖等,0,2025-11-17,2025-11-07,社会福祉法人ゆず福祉会,,その他の設立登記法人,福島県,福島市,泉字台１番１,,07,201,9608253,,,2025-11-07,合併による解散等,2380005010087,令和７年１１月１日福島市太平寺字町ノ内３０社会福祉法人なごみ（2380005010087）に合併し解散,2015-10-05,1,,,,,ユズフクシカイ,0
2058,8400002007788,登記記録の閉鎖等,0,2025-11-17,2025-11-10,有限会社鈴木商店,,有限会社,岩手県,岩手郡葛巻町,葛巻第２８地割２５番地,,03,302,0285402,,,2025-11-10,清算の結了等,,,2015-10-05,1,,,,,スズキショウテン,0
2071,9010003028566,登記記録の閉鎖等,0,2025-11-17,2025-11-13,ＡＦ１７合同会社,,合同会社,東京都,中央区,京橋１丁目１１番１号,,13,102,1040031,,,2025-11-13,清算の結了等,,,2018-10-26,1,,,,,エーエフセブンティーン,0
2085,9010501022046,登記記録の閉鎖等,0,2025-11-17,2025-11-10,アミ・インペックス株式会社,,株式会社,東京都,台東区,三筋１丁目１２番６号シャヒヤビル５階,,13,106,1110055,,,2025-11-10,清算の結了等,,,2015-10-05,1,,,,,アミインペックス,0
2092,9010901041208,登記記録の閉鎖等,0,2025-11-17,2025-11-14,ルノハ株式会社,,株式会社,東京都,新宿区,西新宿３丁目３番１３号西新宿水間ビル２Ｆ,,13,104,1600023,,,2025-11-14,清算の結了等,,,2017-12-06,1,,,,,ルノハ,0
2110,9011101100919,登記記録の閉鎖等,0,2025-11-17,2025-10-10,Ｐｒｏｔｒｉｓｅ株式会社,,株式会社,東京都,新宿区,新宿１丁目１１番３号エクセル新宿御苑ビル６Ｆ,,13,104,1600022,,,2025-10-10,清算の結了等,,,2022-11-24,1,,,,,プロトライズ,0
2114,9011103010406,登記記録の閉鎖等,0,2025-11-17,2025-11-10,三友共合同会社,,合同会社,東京都,中野区,中央２丁目３０番９号２２６,,13,114,1640011,,,2025-11-10,清算の結了等,,,2021-02-25,1,,,,,サンユウトモ,0
2124,9011802020696,登記記録の閉鎖等,0,2025-11-17,2025-11-10,有限会社クラフト,,有限会社,東京都,足立区,東和５丁目１０番２３号,,13,121,1200003,,,2025-11-10,清算の結了等,,,2015-10-05,1,,,,,クラフト,0
2128,9012402001236,登記記録の閉鎖等,0,2025-11-17,2025-11-11,有限会社三立精工,,有限会社,福島県,岩瀬郡鏡石町,境１００番地,,07,342,9690401,,,2025-11-11,清算の結了等,,,2015-10-05,1,,,,,サンリツセイコウ,0
2132,9012701000153,登記記録の閉鎖等,0,2025-11-17,2025-09-30,オークラ物産株式会社,,株式会社,東京都,小平市,学園東町３丁目８番１４号,,13,211,1870043,,,2025-09-30,清算の結了等,,,2015-10-05,1,,,,,オークラブッサン,0
2167,9030001092166,登記記録の閉鎖等,0,2025-11-17,2025-11-10,株式会社マコト不動産,,株式会社,埼玉県,久喜市,栗原３丁目２－９,,11,232,3460012,,,2025-11-10,清算の結了等,,,2015-10-05,1,,,,,マコトフドウサン,0
2172,9030002033499,登記記録の閉鎖等,0,2025-11-17,2025-11-10,有限会社協和工業,,有限会社,埼玉県,狭山市,新狭山３丁目５番地３,,11,215,3501331,,,2025-11-10,清算の結了等,,,2015-10-05,1,,,,,,0
2185,9060001021980,登記記録の閉鎖等,0,2025-11-17,2025-11-13,株式会社ＫＬＣ,,株式会社,栃木県,宇都宮市,西３丁目２番３６号,,09,201,3200861,,,2025-11-13,清算の結了等,,,2015-10-05,1,,,,,ケイエルシー,0
2186,9060002010859,登記記録の閉鎖等,0,2025-11-17,2025-11-13,ハシモトＦＳ有限会社,,有限会社,栃木県,宇都宮市,平出町１２１７番地３,,09,201,3210901,,,2025-11-13,清算の結了等,,,2015-10-05,1,,,,,ハシモトエフエス,0
2203,9120001236580,登記記録の閉鎖等,0,2025-11-17,2025-11-10,株式会社ネクストエージ,,株式会社,大阪府,大阪市鶴見区,放出東２丁目１６番２８号,,27,124,5380044,,,2025-11-10,清算の結了等,,,2021-04-12,1,,,,,ネクストエージ,0
2221,9122001002756,登記記録の閉鎖等,0,2025-11-17,2025-11-04,三星油研株式会社,,株式会社,大阪府,東大阪市,東石切町１丁目３番１６号,,27,227,5798011,,,2025-11-04,合併による解散等,4122001007306,令和７年１１月１日大阪府東大阪市東石切町一丁目２番３２号株式会社三星（4122001007306）に合併し解散,2015-10-05,1,,,,,ミツボシユケン,0
2231,9130002013706,登記記録の閉鎖等,0,2025-11-17,2025-11-05,有限会社黒川造園土木,,有限会社,京都府,京都市伏見区,羽束師菱川町６２８番地１,,26,109,6128487,,,2025-11-05,合併による解散等,9130001032252,令和７年１１月１日京都市伏見区羽束師菱川町１０４番地株式会社黒川（9130001032252）に合併し解散,2015-10-05,1,,,,,クロカワゾウエンドボク,0
2239,9160002001583,登記記録の閉鎖等,0,2025-11-17,2025-11-11,有限会社ブライダルアーチストグループ,,有限会社,滋賀県,大津市,馬場１丁目８番地,,25,201,5200802,,,2025-11-11,清算の結了等,,,2015-10-05,1,,,,,ブライダルアーチストグループ,0
2244,9180001071428,登記記録の閉鎖等,0,2025-11-17,2025-11-11,株式会社ＵＲＩ,,株式会社,東京都,千代田区,神田紺屋町８番２号,,13,101,1010035,,,2025-11-11,合併による解散等,1180001088636,令和７年１０月１日名古屋市中村区名駅二丁目４２番１０号株式会社シェルパ（1180001088636）に合併し解散,2015-10-05,1,,,,,ユーアールアイ,0
2253,9180002064067,登記記録の閉鎖等,0,2025-11-17,2025-11-12,有限会社寿司レストゆたか,,有限会社,愛知県,豊明市,西川町広原５３番地,,23,229,4701121,,,2025-11-12,清算の結了等,,,2015-10-05,1,,,,,,0
2263,9190002008642,登記記録の閉鎖等,0,2025-11-17,2025-11-11,有限会社伊勢屋精肉店,,有限会社,三重県,伊勢市,小俣町宮前１１５番地２,,24,203,5190504,,,2025-11-11,清算の結了等,,,2015-10-05,1,,,,,イセヤセイニクテン,0
2272,9210002011899,登記記録の閉鎖等,0,2025-11-17,2025-11-12,有限会社福井新聞武生西販売店,,有限会社,福井県,越前市,岡本町第４号５番地の５,,18,209,9150835,,,2025-11-12,清算の結了等,,,2015-10-05,1,,,,,フクイシンブンタケフニシハンバイテン,0
2312,9370001020175,登記記録の閉鎖等,0,2025-11-17,2025-11-05,株式会社ライフアシスト,,株式会社,宮城県,仙台市太白区,八木山香澄町５番１０－３１２号,,04,104,9820831,,,2025-11-05,清算の結了等,,,2015-10-05,1,,,,,ライフアシスト,0
2316,9370003005240,登記記録の閉鎖等,0,2025-11-17,2025-11-06,合同会社せんだん福祉会,,合同会社,宮城県,仙台市太白区,富沢１丁目５番１号山本ビル２階,,04,104,9820032,,,2025-11-06,清算の結了等,,,2021-05-14,1,,,,,センダンフクシカイ,0
2320,9400001013984,登記記録の閉鎖等,0,2025-11-17,2025-11-10,株式会社Ｆ－ＳＴＹＬＥ,,株式会社,岩手県,盛岡市,南仙北２丁目２６番１０号,,03,201,0200863,,,2025-11-10,清算の結了等,,,2018-01-09,1,,,,,エフスタイル,0
2329,9430002017676,登記記録の閉鎖等,0,2025-11-17,2025-11-04,有限会社ベル商事,,有限会社,北海道,札幌市西区,二十四軒三条７丁目３番３５号,,01,107,0630803,,,2025-11-04,合併による解散等,1430001014376,令和７年１１月１日札幌市西区二十四軒三条七丁目３番３５号福山石油株式会社（1430001014376）に合併し解散,2015-10-05,1,,,,,ベルショウジ,0
