sequenceNumber,corporateNumber,process,correct,updateDate,changeDate,name,nameImageId,kind,prefectureName,cityName,streetNumber,addressImageId,prefectureCode,cityCode,postCode,addressOutside,addressOutsideImageId,closeDate,closeCause,successorCorporateNumber,changeCause,assignmentDate,latest,enName,enPrefectureName,enCityName,enAddressOutside,furigana,hihyoji
10,1010001262182,新規,0,2026-02-02,2026-02-02,ＷｉＳＥ株式会社,,株式会社,東京都,千代田区,神田三崎町３丁目４－１０－２階ＫＳＢＳ－Ｂ－３号,,13,101,1010061,,,,,,,2026-02-02,1,,,,,ワイズ,0
11,1010001262397,新規,0,2026-02-02,2026-02-02,株式会社ＡＣ‐１２ホールディングス,,株式会社,東京都,千代田区,麹町３丁目５番地２,,13,101,1020083,,,,,,,2026-02-02,1,,,,,エーシートゥエルブホールディングス,0
12,1010001262430,新規,0,2026-02-02,2026-02-02,株式会社ＢＣＪ‐１０２,,株式会社,東京都,千代田区,丸の内１丁目１番１号パレスビル５階,,13,101,1000005,,,,,,,2026-02-02,1,,,,,ビーシージェイワンハンドレッドトゥー,0
13,1010001262471,新規,0,2026-02-02,2026-02-02,株式会社ＭＢ　Ａｉｒｐｏｒｔ　Ｐａｒｔｎｅｒｓ,,株式会社,東京都,千代田区,大手町１丁目４番２号,,13,101,1000004,,,,,,,2026-02-02,1,,,,,エムビーエアポートパートナーズ,0
15,1010003050214,新規,0,2026-02-02,2026-02-02,大和アセットオルタナティブファンド１号マネジメント合同会社,,合同会社,東京都,千代田区,丸の内１丁目９番１号グラントウキョウノースタワー,,13,101,1000005,,,,,,,2026-02-02,1,,,,,ダイワアセットオルタナティブファンドイチゴウマネジメント,0
17,1010005041319,新規,0,2026-02-02,2026-02-02,一般社団法人横浜市中区ビル運用企画２号,,その他の設立登記法人,東京都,千代田区,霞が関３丁目２番５号,,13,101,1000013,,,,,,,2026-02-02,1,,,,,ヨコハマシナカクビルウンヨウキカクニゴウ,0
18,1010005041327,新規,0,2026-02-02,2026-02-02,一般社団法人介友会,,その他の設立登記法人,東京都,中央区,東日本橋３丁目６番１２号,,13,102,1030004,,,,,,,2026-02-02,1,,,,,カイユウカイ,0
25,1010401196212,新規,0,2026-02-02,2026-02-02,Ｅｎｅｒｇｙ　Ｐａｒｔｎｅｒ株式会社,,株式会社,東京都,港区,西新橋１丁目１０番１号日美ビル,,13,103,1050003,,,,,,,2026-02-02,1,,,,,エナジーパートナー,0
27,1010403037182,新規,0,2026-02-02,2026-02-02,合同会社玉響,,合同会社,東京都,港区,三田５丁目８番８－９１１号,,13,103,1080073,,,,,,,2026-02-02,1,,,,,タマユラ,0
28,1010403037199,新規,0,2026-02-02,2026-02-02,ＡＰ　Ｘ８合同会社,,合同会社,東京都,港区,虎ノ門４丁目１－１７アリサ・パートナーズ・ジャパン株式会社内,,13,103,1050001,,,,,,,2026-02-02,1,,,,,エーピーエックスエイト,0
30,1010405025276,新規,0,2026-02-02,2026-02-02,ＡＣＰレジデンス３特定目的会社,,その他の設立登記法人,東京都,港区,六本木１丁目６番１号泉ガーデンタワー,,13,103,1060032,,,,,,,2026-02-02,1,,,,,エーシーピーレジデンススリー,0
37,1010701048971,新規,0,2026-02-02,2026-02-02,株式会社深輝,,株式会社,東京都,品川区,西五反田２丁目２２番６号アトラスタワー五反田２２０４,,13,109,1410031,,,,,,,2026-02-02,1,,,,,シンコウ,0
39,1010703008115,新規,0,2026-02-02,2026-02-02,グテ合同会社,,合同会社,東京都,品川区,旗の台６丁目１８番１０－２０６号,,13,109,1420064,,,,,,,2026-02-02,1,,,,,グテ,0
44,1011001175135,新規,0,2026-02-02,2026-02-02,株式会社Ｎｏｏｄｌｅ　Ｄｅｓｉｇｎ　Ｗｏｒｋｓ,,株式会社,東京都,渋谷区,広尾５丁目４－１６,,13,113,1500012,,,,,,,2026-02-02,1,,,,,ヌードルデザインワークス,0
45,1011001175143,新規,0,2026-02-02,2026-02-02,ｍｕｒａｋｏ株式会社,,株式会社,東京都,渋谷区,円山町５番３号ＭＩＥＵＸ渋谷ビル８階,,13,113,1500044,,,,,,,2026-02-02,1,,,,,ムラコ,0
46,1011001175226,新規,0,2026-02-02,2026-02-02,日本住宅ローン不動産株式会社,,株式会社,東京都,渋谷区,代々木２丁目１番１号,,13,113,1510053,,,,,,,2026-02-02,1,,,,,ニホンジュウタクローンフドウサン,0
47,1011001175250,新規,0,2026-02-02,2026-02-02,ＳＴＵＤＩＯ　ｅｓ株式会社,,株式会社,東京都,渋谷区,本町３丁目２番１０号ＣＯＮＳＯＬＡＲＥ７２０号室,,13,113,1510071,,,,,,,2026-02-02,1,,,,,スタジオエス,0
50,1011003023440,新規,0,2026-02-02,2026-02-02,合同会社Ｈａｐｔｉｃｓ‐Ｊ,,合同会社,東京都,渋谷区,恵比寿２丁目４番８号ウィンド恵比寿ビル８Ｆ,,13,113,1500013,,,,,,,2026-02-02,1,,,,,ハプティクスジェー,0
51,1011003023457,新規,0,2026-02-02,2026-02-02,暮らし価値創造委員会合同会社,,合同会社,東京都,目黒区,下目黒２丁目２２番２１号,,13,110,1530064,,,,,,,2026-02-02,1,,,,,クラシカチソウゾウイインカイ,0
52,1011003023498,新規,0,2026-02-02,2026-02-02,ＬａｓｔＭｉｌｅ合同会社,,合同会社,東京都,渋谷区,道玄坂１丁目１０番８号渋谷道玄坂東急ビル２Ｆ－Ｃ,,13,113,1500043,,,,,,,2026-02-02,1,,,,,ラストマイル,0
56,1011101114570,新規,0,2026-02-02,2026-02-02,株式会社エンリクス,,株式会社,東京都,新宿区,西新宿３丁目２番７号ＫＤＸ新宿ビル,,13,104,1600023,,,,,,,2026-02-02,1,,,,,エンリクス,0
57,1011101114579,新規,0,2026-02-02,2026-02-02,株式会社ＢＢ,,株式会社,東京都,新宿区,新宿５丁目１２番１６号正剛ビル４階,,13,104,1600022,,,,,,,2026-02-02,1,,,,,ビービー,0
58,1011103016947,新規,0,2026-02-02,2026-02-02,Ｍ＆Ｌ合同会社,,合同会社,東京都,新宿区,西新宿３丁目３番１３号,,13,104,1600023,,,,,,,2026-02-02,1,,,,,エムアンドエル,0
65,1011401027761,新規,0,2026-02-02,2026-02-02,ＨＩＧＨ　ＢＲＩＤＧＥ株式会社,,株式会社,東京都,板橋区,赤塚新町３丁目２７番１０号,,13,119,1750093,,,,,,,2026-02-02,1,,,,,ハイブリッジ,0
70,1011701029136,新規,0,2026-02-02,2026-02-02,株式会社ＩＭＦ,,株式会社,東京都,江戸川区,上篠崎２丁目１７番３号,,13,123,1330054,,,,,,,2026-02-02,1,,,,,アイエムエフ,0
72,1011801047368,新規,0,2026-02-02,2026-02-02,株式会社ＪＩコーポレーション,,株式会社,東京都,葛飾区,東水元６丁目２番１４号ヴォラーレ１０３,,13,122,1250033,,,,,,,2026-02-02,1,,,,,ジェーアイコーポレーション,0
75,1012301014701,新規,0,2026-02-02,2026-02-02,株式会社プロデュースパートナー,,株式会社,東京都,町田市,中町３丁目６番１号,,13,209,1940021,,,,,,,2026-02-02,1,,,,,プロデュースパートナー,0
76,1012303002282,新規,0,2026-02-02,2026-02-02,黄金ライツ合同会社,,合同会社,東京都,町田市,鶴川２丁目１７番４５号,,13,209,1950061,,,,,,,2026-02-02,1,,,,,オウゴンライツ,0
77,1012701019300,新規,0,2026-02-02,2026-02-02,株式会社スタジオＺ,,株式会社,東京都,西東京市,泉町６丁目１０番２２－３０６号,,13,229,2020011,,,,,,,2026-02-02,1,,,,,スタジオゼット,0
80,1013303008071,新規,0,2026-02-02,2026-02-02,合同会社ファイナンスナビゲーター,,合同会社,東京都,豊島区,高田１丁目１８－６－１２２０,,13,116,1710033,,,,,,,2026-02-02,1,,,,,ファイナンスナビゲーター,0
82,1020001007685,新規,0,2026-02-02,2026-02-02,株式会社テクノハウジング,,株式会社,神奈川県,横浜市戸塚区,戸塚町１６７番地栄光ビル３階,,14,110,2440003,,,,,,,2026-02-02,1,,,,,,0
89,1020001166928,新規,0,2026-02-02,2026-02-02,株式会社財門,,株式会社,神奈川県,川崎市川崎区,京町２丁目２４番４セソール１０７号,,14,131,2100848,,,,,,,2026-02-02,1,,,,,ザイモン,0
90,1020001166936,新規,0,2026-02-02,2026-02-02,株式会社ＣＨＡＲＭ,,株式会社,神奈川県,横浜市戸塚区,下倉田町１２７８,,14,110,2440815,,,,,,,2026-02-02,1,,,,,シャルム,0
91,1020003030248,新規,0,2026-02-02,2026-02-02,合同会社Ｍｉｅｕｘ,,合同会社,神奈川県,横浜市港北区,綱島西４丁目９番４号リトス綱島３０１,,14,109,2230053,,,,,,,2026-02-02,1,,,,,ミュー,0
99,1021003017094,新規,0,2026-02-02,2026-02-02,合同会社リュクスティア,,合同会社,神奈川県,足柄上郡大井町,金手１５番地８,,14,362,2580018,,,,,,,2026-02-02,1,,,,,リュクスティア,0
102,1030001170540,新規,0,2026-02-02,2026-02-02,株式会社ＬＶＮＡ,,株式会社,埼玉県,川越市,大字山田１８５３番地８,,11,201,3500822,,,,,,,2026-02-02,1,,,,,ルナ,0
104,1030003028563,新規,0,2026-02-02,2026-02-02,合同会社ｓｏｌａｒｅ,,合同会社,埼玉県,東松山市,大字早俣７６番地２,,11,212,3550043,,,,,,,2026-02-02,1,,,,,ソラレ,0
107,1040001142282,新規,0,2026-02-02,2026-02-02,ＴｅｒｒａＲｉｓｅ株式会社,,株式会社,千葉県,船橋市,三咲５丁目２３番２３号,,12,204,2740812,,,,,,,2026-02-02,1,,,,,テラライス,0
108,1040001142290,新規,0,2026-02-02,2026-02-02,株式会社アースガルド,,株式会社,千葉県,柏市,岩井３４０番地１エレガントヒルＩＩＩＢ－２０２号,00142414,12,217,2701445,,,,,,,2026-02-02,1,,,,,アースガルド,0
109,1040001142316,新規,0,2026-02-02,2026-02-02,株式会社ＪＰマネジメント,,株式会社,千葉県,柏市,東柏１丁目１１番１５号,,12,217,2770017,,,,,,,2026-02-02,1,,,,,ジェイピーマネジメント,0
115,1040005023017,新規,0,2026-02-02,2026-02-02,医療法人社団スリジエ,,その他の設立登記法人,千葉県,千葉市中央区,本千葉町７番地２Ｔ’ＳＢＲＩＧＨＴＩＡ千葉中央３階,,12,101,2600014,,,,,,,2026-02-02,1,,,,,スリジエ,0
116,1040005023025,新規,0,2026-02-02,2026-02-02,一般社団法人木更津市農業支援センター,,その他の設立登記法人,千葉県,木更津市,長須賀３８２番地,,12,206,2920054,,,,,,,2026-02-02,1,,,,,キサラヅシノウギョウシエンセンター,0
119,1060001038974,新規,0,2026-02-02,2026-02-02,株式会社ヨシカン,,株式会社,栃木県,さくら市,馬場１８８６番地,,09,214,3291321,,,,,,,2026-02-02,1,,,,,ヨシカン,0
195,1120001283589,新規,0,2026-02-02,2026-02-02,株式会社ヴァリオネスト,,株式会社,大阪府,大阪市東成区,神路１丁目７番２号,,27,115,5370003,,,,,,,2026-02-02,1,,,,,ヴァリオネスト,0
196,1120001283812,新規,0,2026-02-02,2026-02-02,株式会社オアシスサポート,,株式会社,大阪府,大阪市生野区,巽西３丁目１８番１７－１０２号,00142409,27,116,5440012,,,,,,,2026-02-02,1,,,,,オアシスサポート,0
197,1120001283829,新規,0,2026-02-02,2026-02-02,株式会社コトカ,,株式会社,大阪府,枚方市,御殿山南町３－５６－５０３,,27,210,5731193,,,,,,,2026-02-02,1,,,,,コトカ,0
198,1120001283894,新規,0,2026-02-02,2026-02-02,ＡＲＫ不動産株式会社,,株式会社,大阪府,大阪市中央区,今橋２丁目５番８号,,27,128,5410042,,,,,,,2026-02-02,1,,,,,エーアールケーフドウサン,0
202,1120101073139,新規,0,2026-02-02,2026-02-02,株式会社ＩＫＩＧＡＩ,,株式会社,大阪府,堺市中区,伏尾３番１,,27,142,5998254,,,,,,,2026-02-02,1,,,,,イキガイ,0
206,1130001081538,新規,0,2026-02-02,2026-02-02,株式会社ヴァリアス,,株式会社,京都府,長岡京市,開田４丁目３０－１０,,26,209,6170826,,,,,,,2026-02-02,1,,,,,ヴァリアス,0
211,1140001141530,新規,0,2026-02-02,2026-02-02,ＭｅｄＯＲ株式会社,,株式会社,兵庫県,神戸市中央区,磯辺通１丁目１番１８号カサベラ国際プラザビル７０７号室,,28,110,6510084,,,,,,,2026-02-02,1,,,,,メドオーアール,0
215,1140003023157,新規,0,2026-02-02,2026-02-02,合同会社千武,,合同会社,兵庫県,姫路市,飾東町八重畑９２６番地,,28,201,6710208,,,,,,,2026-02-02,1,,,,,センブ,0
225,1180001170501,新規,0,2026-02-02,2026-02-02,株式会社ホバーテック,,株式会社,愛知県,名古屋市中川区,新家２丁目７０９番地ボン・レポン新家４０５号,,23,110,4540972,,,,,,,2026-02-02,1,,,,,ホバーテック,0
229,1180003029670,新規,0,2026-02-02,2026-02-02,合同会社ワンダー,,合同会社,愛知県,小牧市,大字西之島字烏海道３５－１レオパレスアローハ１０４号,,23,219,4850077,,,,,,,2026-02-02,1,,,,,ワンダー,0
236,1210001020479,新規,0,2026-02-02,2026-02-02,株式会社アグリ高木,,株式会社,福井県,越前市,高木町第４１号９番地,,18,209,9150091,,,,,,,2026-02-02,1,,,,,アグリタカギ,0
241,1220001027151,新規,0,2026-02-02,2026-02-02,株式会社ナラティブＣａｒｅｅｒ,,株式会社,石川県,金沢市,堀川新町５番１号アリマビル３Ｆ,,17,201,9200849,,,,,,,2026-02-02,1,,,,,ナラティブキャリア,0
247,1260001040943,新規,0,2026-02-02,2026-02-02,株式会社Ｍｅｔａｌ　ｂｏｘ,,株式会社,岡山県,倉敷市,昭和１丁目１番３５－６０３号,,33,202,7100057,,,,,,,2026-02-02,1,,,,,メタルボックス,0
248,1260001040951,新規,0,2026-02-02,2026-02-02,株式会社吉Ｅｓｔａｔｅ,00142421,株式会社,岡山県,岡山市北区,田中１３９番地１０８アークヒルマンション２０３号,,33,101,7000951,,,,,,,2026-02-02,1,,,,,ヨシエステート,0
254,1290001112954,新規,0,2026-02-02,2026-02-02,ＦＤテック株式会社,,株式会社,福岡県,福岡市南区,桧原２丁目２７番２０号,,40,134,8111355,,,,,,,2026-02-02,1,,,,,エフディーテック,0
255,1290001112962,新規,0,2026-02-02,2026-02-02,株式会社はなび,,株式会社,福岡県,太宰府市,都府楼南４丁目７番８号,,40,221,8180105,,,,,,,2026-02-02,1,,,,,ハナビ,0
256,1290001112979,新規,0,2026-02-02,2026-02-02,高濱貿易株式会社,00142419,株式会社,福岡県,糸島市,志摩松隈字田ノ浦２８７番１,,40,230,8191306,,,,,,,2026-02-02,1,,,,,タカハマボウエキ,0
257,1290003017986,新規,0,2026-02-02,2026-02-02,こうばこ不動産合同会社,,合同会社,福岡県,福岡市博多区,博多駅前１丁目２３番２号ＰａｒｋＦｒｏｎｔ博多駅前１丁目５Ｆ－Ｂ,,40,132,8120011,,,,,,,2026-02-02,1,,,,,,0
266,1320001021557,新規,0,2026-02-02,2026-02-02,株式会社レガーレ,,株式会社,大分県,大分市,大字岡川東ツル９６１番地１,,44,201,8701131,,,,,,,2026-02-02,1,,,,,レガーレ,0
273,1330001033964,新規,0,2026-02-02,2026-02-02,株式会社クゥラージュ,,株式会社,熊本県,熊本市北区,弓削６丁目２７番１２号,,43,105,8618002,,,,,,,2026-02-02,1,,,,,クゥラージュ,0
277,1370001053430,新規,0,2026-02-02,2026-02-02,あのつ牧場株式会社,,株式会社,宮城県,遠田郡涌谷町,成沢字古清水１５番地,,04,501,9870286,,,,,,,2026-02-02,1,,,,,アノツボクジョウ,0
284,1430003018540,新規,0,2026-02-02,2026-02-02,合同会社Ｄ．Ｍ．Ｔ,,合同会社,北海道,札幌市中央区,南一条西９丁目５番１号札幌１９Ｌビル３階,,01,101,0600061,,,,,,,2026-02-02,1,,,,,ディエムティ,0
286,1480001013068,新規,0,2026-02-02,2026-02-02,株式会社Ｔａｐａｚ,,株式会社,徳島県,名西郡神山町,神領字西上角１７５番地１,,36,342,7713310,,,,,,,2026-02-02,1,,,,,タパズ,0
288,1500001026760,新規,0,2026-02-02,2026-02-02,株式会社愛媛ライフ保険,,株式会社,愛媛県,松山市,空港通１丁目６番２８号２Ｆ,,38,201,7900054,,,,,,,2026-02-02,1,,,,,エヒメライフホケン,0
291,1700150134261,新規,0,2026-02-02,2026-02-02,Ｖｅｎｔｕｒｅ　Ｇｒｅｅｎｓ　Ｐｖｔ　Ｌｔｄ,,外国会社等,福岡県,飯塚市,忠隈２４９番地５,,40,205,8200071,スリランカ民主社会主義共和国、ペピリヤナ、デヒワラ・ロードＮｏ．４、ＷＵＳビル,,,,,,2026-02-02,1,,,,,ベンチヤーグリーンズピーブイテイーエルテイーデイ,0
295,2010001261992,新規,0,2026-02-02,2026-02-02,株式会社ストレヴィア,,株式会社,東京都,千代田区,丸の内１丁目８－３丸の内トラストタワー本館２０階,,13,101,1000005,,,,,,,2026-02-02,1,,,,,ストレヴィア,0
296,2010001262099,新規,0,2026-02-02,2026-02-02,Ｐａｐｏｔｅｒ株式会社,,株式会社,東京都,中央区,銀座１丁目１２番４号６階,,13,102,1040061,,,,,,,2026-02-02,1,,,,,パポテ,0
297,2010001262264,新規,0,2026-02-02,2026-02-02,株式会社宇楽,,株式会社,東京都,中央区,銀座１丁目２２番１１号銀座大竹ビジデンス２Ｆ,,13,102,1040061,,,,,,,2026-02-02,1,,,,,ウラク,0
298,2010001262355,新規,0,2026-02-02,2026-02-02,株式会社小日向コーポレーション,,株式会社,東京都,文京区,小日向２丁目２－９,,13,105,1120006,,,,,,,2026-02-02,1,,,,,コヒナタコーポレーション,0
299,2010001262396,新規,0,2026-02-02,2026-02-02,株式会社ＡＣ‐１２,,株式会社,東京都,千代田区,麹町３丁目５番地２,,13,101,1020083,,,,,,,2026-02-02,1,,,,,エーシートゥエルブ,0
300,2010001262413,新規,0,2026-02-02,2026-02-02,株式会社遠藤顧問,,株式会社,東京都,中央区,晴海３丁目１３番１号Ｅ４１０,,13,102,1040053,,,,,,,2026-02-02,1,,,,,エンドウコモン,0
301,2010001262421,新規,0,2026-02-02,2026-02-02,株式会社ユキノシタ,,株式会社,東京都,千代田区,神田錦町１丁目１４番地１１,,13,101,1010054,,,,,,,2026-02-02,1,,,,,ユキノシタ,0
304,2010003050106,新規,0,2026-02-02,2026-02-02,トリプルエクセレント合同会社,,合同会社,東京都,中央区,銀座１丁目１２番４号Ｎ＆ＥＢＬＤ．６Ｆ,,13,102,1040061,,,,,,,2026-02-02,1,,,,,トリプルエクセレント,0
305,2010003050139,新規,0,2026-02-02,2026-02-02,合同会社青梅ＰＧ,,合同会社,東京都,中央区,日本橋箱崎町１６－１東益ビル６階,,13,102,1030015,,,,,,,2026-02-02,1,,,,,オウメピージー,0
306,2010003050188,新規,0,2026-02-02,2026-02-02,合同会社ＨＢＮ,,合同会社,東京都,千代田区,内神田３丁目１２－８神田第３ビル３階Ｅ号室,,13,101,1010047,,,,,,,2026-02-02,1,,,,,エイチビーエヌ,0
313,2010401196203,新規,0,2026-02-02,2026-02-02,Ｘ株式会社,,株式会社,東京都,港区,北青山１丁目３番１号アールキューブ青山３階,,13,103,1070061,,,,,,,2026-02-02,1,,,,,エックス,0
314,2010403037173,新規,0,2026-02-02,2026-02-02,オブリガート合同会社,,合同会社,東京都,港区,六本木４丁目１０番２号荒川ビル２階,,13,103,1060032,,,,,,,2026-02-02,1,,,,,オブリガート,0
315,2010403037198,新規,0,2026-02-02,2026-02-02,ＡＰ　Ｘ７合同会社,,合同会社,東京都,港区,虎ノ門４丁目１－１７アリサ・パートナーズ・ジャパン株式会社内,,13,103,1050001,,,,,,,2026-02-02,1,,,,,エーピーエックスセブン,0
316,2010405025317,新規,0,2026-02-02,2026-02-02,一般社団法人Ｃ＆Ｅ箱根,,その他の設立登記法人,東京都,港区,六本木１丁目６番１号泉ガーデンタワーＫＰＭＧ税理士法人内,,13,103,1060032,,,,,,,2026-02-02,1,,,,,シーアンドイーハコネ,0
322,2010703008097,新規,0,2026-02-02,2026-02-02,シェリーズ合同会社,,合同会社,東京都,品川区,小山３丁目７番１２号サンハイツ１０１号室,,13,109,1420062,,,,,,,2026-02-02,1,,,,,シェリーズ,0
332,2010901058877,新規,0,2026-02-02,2026-02-02,ＫＥＮＪＩ　ＫＵＢＯＴＡ　ＡＲＴ　ＯＦＦＩＣＥ株式会社,,株式会社,東京都,世田谷区,駒沢１丁目１２番６号－２,,13,112,1540012,,,,,,,2026-02-02,1,,,,,ケンジクボタアートオフィス,0
336,2011001174961,新規,0,2026-02-02,2026-02-02,レバレジーズ・コンサルティング・グループ株式会社,,株式会社,東京都,渋谷区,渋谷２丁目２４番１２号,,13,113,1500002,,,,,,,2026-02-02,1,,,,,レバレジーズコンサルティンググループ,0
337,2011001175150,新規,0,2026-02-02,2026-02-02,ＩＲＯＤＯＲＩ　Ｌａｂ株式会社,,株式会社,東京都,渋谷区,恵比寿西２丁目４番８号ウィンド恵比寿ビル８Ｆ,,13,113,1500021,,,,,,,2026-02-02,1,,,,,イロドリラボ,0
338,2011001175175,新規,0,2026-02-02,2026-02-02,株式会社ＲＥＲ,,株式会社,東京都,渋谷区,大山町４番１－３０９号グランドゥールプレミアム代々木大山,,13,113,1510065,,,,,,,2026-02-02,1,,,,,アールイーアール,0
339,2011001175191,新規,0,2026-02-02,2026-02-02,ｒｅｓｉｌ株式会社,,株式会社,東京都,渋谷区,西原１丁目９番４号,,13,113,1510066,,,,,,,2026-02-02,1,,,,,リシル,0
340,2011001175225,新規,0,2026-02-02,2026-02-02,株式会社組間合,,株式会社,東京都,渋谷区,円山町５番３号ＭＩＥＵＸ渋谷ビル８階,,13,113,1500044,,,,,,,2026-02-02,1,,,,,クリマアイ,0
341,2011001175241,新規,0,2026-02-02,2026-02-02,株式会社タレントテール,,株式会社,東京都,渋谷区,恵比寿西２丁目８番４号ＥＸ恵比寿西ビル５階,,13,113,1500021,,,,,,,2026-02-02,1,,,,,タレントテール,0
342,2011003023357,新規,0,2026-02-02,2026-02-02,ＶＩＳＩＯＮＡＸ合同会社,,合同会社,東京都,渋谷区,神宮前６丁目２３番４号桑野ビル２階,,13,113,1500001,,,,,,,2026-02-02,1,,,,,ヴィジョナックス,0
343,2011003023464,新規,0,2026-02-02,2026-02-02,合同会社ＢＩＧＦＯＲＥＳＴ,,合同会社,東京都,渋谷区,円山町２２,,13,113,1500044,,,,,,,2026-02-02,1,,,,,ビッグフォレスト,0
344,2011003023472,新規,0,2026-02-02,2026-02-02,合同会社プルル,,合同会社,東京都,渋谷区,代々木１丁目１９番８号,,13,113,1510053,,,,,,,2026-02-02,1,,,,,プルル,0
349,2011101114586,新規,0,2026-02-02,2026-02-02,格致音楽株式会社,,株式会社,東京都,新宿区,高田馬場２丁目１７番１５号唐橋ビル５階,,13,104,1690075,,,,,,,2026-02-02,1,,,,,カクチオンガク,0
351,2011103016938,新規,0,2026-02-02,2026-02-02,合同会社ＧｏＥｎｂａ,,合同会社,東京都,新宿区,西新宿３丁目３番１３号西新宿水間ビル６階,,13,104,1600023,,,,,,,2026-02-02,1,,,,,ゴエンバ,0
352,2011103016946,新規,0,2026-02-02,2026-02-02,合同会社ｙｏｈａｋｕ,,合同会社,東京都,新宿区,四谷１丁目１７－１１ＦＴビル２０２,,13,104,1600004,,,,,,,2026-02-02,1,,,,,ヨハク,0
353,2011103016979,新規,0,2026-02-02,2026-02-02,ＲＩＳＥ合同会社,,合同会社,東京都,新宿区,西新宿３丁目３番１３号西新宿水間ビル２Ｆ,,13,104,1600023,,,,,,,2026-02-02,1,,,,,ライズ,0
367,2012403007585,新規,0,2026-02-02,2026-02-02,ひかりナース合同会社,,合同会社,東京都,三鷹市,下連雀５丁目１番１－３４０号,,13,204,1810013,,,,,,,2026-02-02,1,,,,,ヒカリナース,0
368,2012803003985,新規,0,2026-02-02,2026-02-02,Ｐｒｕｎｕｓ　Ｌｉｂｅｒ合同会社,,合同会社,東京都,国分寺市,本町４丁目１７番２－３０７号都営国分寺本町四丁目アパ－ト,,13,214,1850012,,,,,,,2026-02-02,1,,,,,プラナスリベル,0
376,2020001166893,新規,0,2026-02-02,2026-02-02,株式会社はないろ,,株式会社,神奈川県,横浜市青葉区,あざみ野４丁目２１番地１０カーサプレーヌＳ－１,,14,117,2250011,,,,,,,2026-02-02,1,,,,,ハナイロ,0
377,2020001166927,新規,0,2026-02-02,2026-02-02,株式会社Ｗｅｌｌ‐ｂｅｉｎｇ　Ｐｌｕｓ,,株式会社,神奈川県,横浜市青葉区,市ケ尾町４７６番地１７,,14,117,2250024,,,,,,,2026-02-02,1,,,,,ウェルビーイングプラス,0
379,2020003030247,新規,0,2026-02-02,2026-02-02,合同会社ゼロカラ,,合同会社,神奈川県,川崎市高津区,久地２丁目２番１７－５０２号マンションエナジー,,14,134,2130032,,,,,,,2026-02-02,1,,,,,ゼロカラ,0
382,2021001087436,新規,0,2026-02-02,2026-02-02,ＰＪｒａｉｎｂｏｗ株式会社,,株式会社,神奈川県,厚木市,三田南３丁目１３番７号,,14,212,2430217,,,,,,,2026-02-02,1,,,,,ピージェイレインボウ,0
391,2040001142323,新規,0,2026-02-02,2026-02-02,株式会社千輝土地開発,,株式会社,千葉県,市原市,五井中央西１丁目３３番地１５五井イワナビル５Ｆ,,12,219,2900081,,,,,,,2026-02-02,1,,,,,センキトチカイハツ,0
394,2040005023032,新規,0,2026-02-02,2026-02-02,一般社団法人つかさ福祉サービス,,その他の設立登記法人,千葉県,野田市,下三ケ尾４３７番地,,12,208,2780014,,,,,,,2026-02-02,1,,,,,ツカサフクシサービス,0
400,2060003005939,新規,0,2026-02-02,2026-02-02,ＶＺ　ＭＯＴＯＲＳ合同会社,,合同会社,栃木県,真岡市,下高間木２丁目１４番地８,,09,209,3214335,,,,,,,2026-02-02,1,,,,,ビーゼットモーターズ,0
404,2080103003519,新規,0,2026-02-02,2026-02-02,アグリベースマルヤマ合同会社,,合同会社,静岡県,御殿場市,東田中１７９０番地の３,,22,215,4120026,,,,,,,2026-02-02,1,,,,,アグリベースマルヤマ,0
489,2110001039875,新規,0,2026-02-02,2026-02-02,株式会社ｈｍｓ,,株式会社,新潟県,新潟市中央区,下大川前通７ノ町２２３０番地,,15,103,9518052,,,,,,,2026-02-02,1,,,,,エイチエムエス,0
492,2110003006048,新規,0,2026-02-02,2026-02-02,合同会社アールイーコロン,,合同会社,新潟県,三条市,月岡１丁目３７番３０号,,15,204,9550803,,,,,,,2026-02-02,1,,,,,アールイーコロン,0
501,2120001283811,新規,0,2026-02-02,2026-02-02,株式会社オリオン,,株式会社,大阪府,大阪市生野区,巽西３丁目１８番１７－１０２号,00142408,27,116,5440012,,,,,,,2026-02-02,1,,,,,オリオン,0
502,2120001283860,新規,0,2026-02-02,2026-02-02,株式会社ディアフィールド,,株式会社,大阪府,大阪市福島区,玉川２丁目１２番３７号,,27,103,5530004,,,,,,,2026-02-02,1,,,,,ディアフィールド,0
503,2120001283877,新規,0,2026-02-02,2026-02-02,富康株式会社,,株式会社,大阪府,大阪市西成区,千本中２丁目４番９号,,27,122,5570054,,,,,,,2026-02-02,1,,,,,フウカン,0
506,2120103006970,新規,0,2026-02-02,2026-02-02,合同会社レリコール,,合同会社,大阪府,岸和田市,土生町２丁目３０番１２号,,27,202,5960825,,,,,,,2026-02-02,1,,,,,レリコール,0
508,2120901052159,新規,0,2026-02-02,2026-02-02,ＴＲＵＳＴｉａ株式会社,,株式会社,大阪府,箕面市,箕面５丁目１番５２号箕面アルコス２０１号室－Ａ,,27,220,5620001,,,,,,,2026-02-02,1,,,,,トラスティア,0
513,2130001081545,新規,0,2026-02-02,2026-02-02,羽倉茶園株式会社,,株式会社,京都府,宇治市,五ケ庄上村６番地,,26,204,6110011,,,,,,,2026-02-02,1,,,,,ハグラチャエン,0
514,2130001081553,新規,0,2026-02-02,2026-02-02,株式会社Ａｓｔｒａ,,株式会社,京都府,亀岡市,三宅町１丁目６番１８号,,26,206,6210814,,,,,,,2026-02-02,1,,,,,アストラ,0
521,2140001141521,新規,0,2026-02-02,2026-02-02,株式会社ゲンズジャパン,,株式会社,兵庫県,神戸市灘区,水道筋５丁目３番１５－５０６号,,28,102,6570831,,,,,,,2026-02-02,1,,,,,ゲンズジャパン,0
522,2140001141554,新規,0,2026-02-02,2026-02-02,フィックス株式会社,,株式会社,兵庫県,芦屋市,東芦屋町１６番２０号,00142420,28,206,6590095,,,,,,,2026-02-02,1,,,,,フィックス,0
525,2170001018964,新規,0,2026-02-02,2026-02-02,ｋａｓｈｉｍａｒｕ建築株式会社,,株式会社,和歌山県,日高郡日高川町,大字高津尾６８８番地１,,30,392,6441122,,,,,,,2026-02-02,1,,,,,カシマルケンチク,0
532,2180001170459,新規,0,2026-02-02,2026-02-02,株式会社蔵乃和,,株式会社,愛知県,稲沢市,祖父江町高熊西５９番地２,,23,220,4950003,,,,,,,2026-02-02,1,,,,,クラノワ,0
533,2180001170491,新規,0,2026-02-02,2026-02-02,株式会社かわいいデザイン研究所,,株式会社,愛知県,名古屋市千種区,見附町１丁目３番地の４ボギービル２Ｆ,,23,101,4640817,,,,,,,2026-02-02,1,,,,,カワイイデザインケンキュウジョ,0
534,2180001170500,新規,0,2026-02-02,2026-02-02,株式会社ＣＲＩＡ,,株式会社,愛知県,名古屋市中村区,上ノ宮町１丁目２藤井ビル２０１,,23,105,4530043,,,,,,,2026-02-02,1,,,,,クリア,0
536,2180003029604,新規,0,2026-02-02,2026-02-02,合同会社千寿,,合同会社,愛知県,名古屋市中村区,名駅４丁目２４番５号第２森ビル４０１,,23,105,4500002,,,,,,,2026-02-02,1,,,,,センジュ,0
541,2190001032864,新規,0,2026-02-02,2026-02-02,株式会社ＭＫ,,株式会社,三重県,津市,羽所町５０８番地,,24,201,5140009,,,,,,,2026-02-02,1,,,,,エムケー,0
542,2190001032872,新規,0,2026-02-02,2026-02-02,株式会社永野運送,,株式会社,三重県,松阪市,伊勢場町２２６番地,,24,204,5150213,,,,,,,2026-02-02,1,,,,,ナガノウンソウ,0
543,2200001044668,新規,0,2026-02-02,2026-02-02,株式会社真興業,,株式会社,岐阜県,羽島市,江吉良町１６９３番地３,,21,209,5016236,,,,,,,2026-02-02,1,,,,,マコトコウギョウ,0
545,2220003004214,新規,0,2026-02-02,2026-02-02,マナビヤ合同会社,,合同会社,石川県,河北郡内灘町,字向粟崎５丁目１６５―３,,17,365,9200274,,,,,,,2026-02-02,1,,,,,マナビヤ,0
546,2230003002571,新規,0,2026-02-02,2026-02-02,合同会社ＩＳ日本,,合同会社,富山県,高岡市,伏木国分１丁目３０９番地,,16,202,9330101,,,,,,,2026-02-02,1,,,,,アイエスニッポン,0
548,2240001066122,新規,0,2026-02-02,2026-02-02,株式会社平和デンキ,,株式会社,広島県,広島市安芸区,船越５丁目３０番２１号,,34,107,7360081,,,,,,,2026-02-02,1,,,,,ヘイワデンキ,0
554,2260001040950,新規,0,2026-02-02,2026-02-02,株式会社Ｋ・Ｔ,,株式会社,岡山県,倉敷市,中島２２４６番地３１１,,33,202,7100803,,,,,,,2026-02-02,1,,,,,ケイティー,0
557,2290001112961,新規,0,2026-02-02,2026-02-02,５０５１株式会社,,株式会社,福岡県,春日市,春日３丁目５５番地,,40,218,8160814,,,,,,,2026-02-02,1,,,,,ゴーマルゴーイチ,0
558,2290001112978,新規,0,2026-02-02,2026-02-02,株式会社Ｙｓホールディングス,,株式会社,福岡県,久留米市,荒木町藤田１１３０番地１,,40,203,8300064,,,,,,,2026-02-02,1,,,,,ワイズホールディングス,0
559,2290001112994,新規,0,2026-02-02,2026-02-02,幸せをカタチにする株式会社,,株式会社,福岡県,福岡市南区,玉川町６－５西島ビル１０１号室,,40,134,8150037,,,,,,,2026-02-02,1,,,,,シアワセヲカタチニスル,0
560,2290001113002,新規,0,2026-02-02,2026-02-02,株式会社ＶＩＴＡＬ　ＤＡＹ,,株式会社,福岡県,福岡市中央区,天神２丁目２番１２号Ｔ＆Ｊビルディング７Ｆ,,40,133,8100001,,,,,,,2026-02-02,1,,,,,バイタルデイ,0
563,2290003017985,新規,0,2026-02-02,2026-02-02,合同会社すがコンサルティング＆パートナーズ,,合同会社,福岡県,福岡市博多区,博多駅南４丁目４番１５－５０５号ＬａＦｏｎｔｅ博多駅南,,40,132,8120016,,,,,,,2026-02-02,1,,,,,スガコンサルティングアンドパートナーズ,0
575,2330001033947,新規,0,2026-02-02,2026-02-02,アミ・キャピタル株式会社,,株式会社,熊本県,熊本市中央区,新大江１丁目１９－１０クレアドール水前寺５０２号室,,43,101,8620972,,,,,,,2026-02-02,1,,,,,アミキャピタル,0
579,2370001053438,新規,0,2026-02-02,2026-02-02,東日本ＯＳＴ株式会社,,株式会社,宮城県,仙台市青葉区,春日町９番８－１６０３号,,04,101,9800821,,,,,,,2026-02-02,1,,,,,ヒガシニホンオーエスティー,0
586,2390001018240,新規,0,2026-02-02,2026-02-02,株式会社エンライト,,株式会社,山形県,山形市,大字山寺４２７４番地１,,06,201,9993301,,,,,,,2026-02-02,1,,,,,エンライト,0
588,2410005006676,新規,0,2026-02-02,2026-02-02,一般社団法人ハイラボ,,その他の設立登記法人,秋田県,南秋田郡五城目町,大川大川字東屋布１３７番地２,,05,361,0181734,,,,,,,2026-02-02,1,,,,,ハイラボ,0
589,2430001096158,新規,0,2026-02-02,2026-02-02,株式会社ＳＫプランニング,,株式会社,北海道,虻田郡洞爺湖町,入江３９番地１９４,,01,584,0495603,,,,,,,2026-02-02,1,,,,,エスケープランニング,0
601,2700150020007,新規,0,2026-02-02,2015-10-09,群馬県年金協会,,その他,群馬県,前橋市,紅雲町１丁目７－１２　群馬県住宅供給公社ビル４Ｆ,,10,201,3710025,,,,,,,2015-10-09,1,,,,,グンマケンネンキンキヨウカイ,0
606,3010001262098,新規,0,2026-02-02,2026-02-02,株式会社Ｍ＆Ａｉ,,株式会社,東京都,中央区,八重洲２丁目１番１号ＹＡＮＭＡＲＴＯＫＹＯ１２階,,13,102,1040028,,,,,,,2026-02-02,1,,,,,エムアンドエーアイ,0
607,3010001262420,新規,0,2026-02-02,2026-02-02,京和医科機器株式会社,,株式会社,東京都,中央区,日本橋小伝馬町７番１０号ウィンド小伝馬町ＩＩビル４Ｆ,00142407,13,102,1030001,,,,,,,2026-02-02,1,,,,,キョウワイカキキ,0
608,3010003050195,新規,0,2026-02-02,2026-02-02,ＣＳＷＫホールディングス合同会社,,合同会社,東京都,千代田区,丸の内３丁目２番３号,,13,101,1000005,,,,,,,2026-02-02,1,,,,,シーエスダブルケーホールディングス,0
609,3010003050237,新規,0,2026-02-02,2026-02-02,ＭＪ　Ｍｉｄ‐ｒｅｔｕｒｎＩ合同会社,,合同会社,東京都,千代田区,丸の内１丁目４番１号東京共同会計事務所内,,13,101,1000005,,,,,,,2026-02-02,1,,,,,エムジェイミッドリターンワン,0
610,3010005041317,新規,0,2026-02-02,2026-02-02,一般社団法人白岡ホールディングス,,その他の設立登記法人,東京都,千代田区,丸の内１丁目６番５号,,13,101,1000005,,,,,,,2026-02-02,1,,,,,シラオカホールディング,0
615,3010403037172,新規,0,2026-02-02,2026-02-02,合同会社Ｌｉｎｋｓｅｅｄｓ,,合同会社,東京都,港区,北青山１丁目３－３三橋ビル３階,,13,103,1070061,,,,,,,2026-02-02,1,,,,,リンクシーズ,0
616,3010403037197,新規,0,2026-02-02,2026-02-02,ＡＰ　Ｘ６合同会社,,合同会社,東京都,港区,虎ノ門４丁目１－１７アリサ・パートナーズ・ジャパン株式会社内,,13,103,1050001,,,,,,,2026-02-02,1,,,,,エーピーエックスシックス,0
617,3010403037214,新規,0,2026-02-02,2026-02-02,Ｒａｏｈ　ｃａｐｉｔａｌ合同会社,,合同会社,東京都,港区,芝浦１丁目１番１号,,13,103,1050023,,,,,,,2026-02-02,1,,,,,ラオウキャピタル,0
621,3010703008113,新規,0,2026-02-02,2026-02-02,合同会社ＳＵＧＩＭＵＲＡ,,合同会社,東京都,品川区,東品川１丁目３番１８号キャナルテラス品川３０４,,13,109,1400002,,,,,,,2026-02-02,1,,,,,スギムラ,0
624,3010901058884,新規,0,2026-02-02,2026-02-02,Ｈａｍａ　Ｈｅａｌｔｈ株式会社,,株式会社,東京都,世田谷区,奥沢７丁目５番１２－３０５号,,13,112,1580083,,,,,,,2026-02-02,1,,,,,ハマヘルス,0
627,3011001175117,新規,0,2026-02-02,2026-02-02,株式会社プラクシス,,株式会社,東京都,渋谷区,恵比寿西１丁目３３番６号ＪＰｎｏｉｅ恵比寿西１Ｆ,,13,113,1500021,,,,,,,2026-02-02,1,,,,,プラクシス,0
628,3011001175199,新規,0,2026-02-02,2026-02-02,株式会社ＭＰＲ,,株式会社,東京都,渋谷区,松濤２丁目８番１０－６０２号,,13,113,1500046,,,,,,,2026-02-02,1,,,,,エムピーアール,0
629,3011003023447,新規,0,2026-02-02,2026-02-02,マニッチ合同会社,,合同会社,東京都,目黒区,中目黒４丁目８番２５プライムメゾン中目黒７０１号室,,13,110,1530061,,,,,,,2026-02-02,1,,,,,マニッチ,0
630,3011003023455,新規,0,2026-02-02,2026-02-02,星子プロデュース合同会社,,合同会社,東京都,目黒区,中目黒４丁目７番３－４０１号中目黒ガーデン,,13,110,1530061,,,,,,,2026-02-02,1,,,,,ホシコプロデュース,0
634,3011101114577,新規,0,2026-02-02,2026-02-02,株式会社ｓｈｏｂｏｂｏ,,株式会社,東京都,新宿区,西新宿３丁目３番１３号西新宿水間ビル２Ｆ,,13,104,1600023,,,,,,,2026-02-02,1,,,,,ショボボ,0
645,3012303002280,新規,0,2026-02-02,2026-02-02,合同会社渡邉施工管理,,合同会社,東京都,町田市,上小山田町２７２０番地４,,13,209,1940201,,,,,,,2026-02-02,1,,,,,ワタナベセコウカンリ,0
647,3012401044084,新規,0,2026-02-02,2026-02-02,株式会社加来美装,,株式会社,東京都,多摩市,乞田１０９２番地の１グランメール３０３,,13,224,2060014,,,,,,,2026-02-02,1,,,,,カクビソウ,0
651,3020001166819,新規,0,2026-02-02,2026-02-02,株式会社ＵＮＩＦＹ　ＧＣ,,株式会社,神奈川県,横浜市港北区,新横浜３丁目２４番地１１,,14,109,2220033,,,,,,,2026-02-02,1,,,,,ユニファイジーシー,0
652,3020001166892,新規,0,2026-02-02,2026-02-02,株式会社ＭＭ設備設計,,株式会社,神奈川県,横浜市西区,北幸２丁目１０番４８号むつみビル３階,,14,103,2200004,,,,,,,2026-02-02,1,,,,,,0
658,3020003030221,新規,0,2026-02-02,2026-02-02,ＳＣＬ合同会社,,合同会社,神奈川県,横浜市港北区,新吉田町３３３１番地,,14,109,2230056,,,,,,,2026-02-02,1,,,,,エスシーエル,0
659,3020003030270,新規,0,2026-02-02,2026-02-02,合同会社インパス,,合同会社,神奈川県,横浜市神奈川区,台町７番地１４横浜テラス３１１号,,14,102,2210834,,,,,,,2026-02-02,1,,,,,インパス,0
660,3021001087377,新規,0,2026-02-02,2026-02-02,株式会社日本ＣＦＯファンクションサービス,,株式会社,神奈川県,逗子市,逗子７丁目１４番１号,,14,208,2490006,,,,,,,2026-02-02,1,,,,,ニホンシーエフオーファンクションサービス,0
661,3021001087435,新規,0,2026-02-02,2026-02-02,株式会社何でも本舗こうじ,,株式会社,神奈川県,相模原市緑区,下九沢１２４７番地１５,,14,151,2520134,,,,,,,2026-02-02,1,,,,,ナンデモホンポコウジ,0
665,3021003017084,新規,0,2026-02-02,2026-02-02,合同会社黒川工務店,,合同会社,神奈川県,藤沢市,円行１７８２番地ソレイユ湘南台ＩＩ１０３号,00142411,14,205,2520805,,,,,,,2026-02-02,1,,,,,クロカワコウムテン,0
673,3030001170761,新規,0,2026-02-02,2026-02-02,エムテック株式会社,,株式会社,埼玉県,三郷市,彦成１丁目３９２番地３３,,11,237,3410003,,,,,,,2026-02-02,1,,,,,エムテック,0
674,3030001170778,新規,0,2026-02-02,2026-02-02,株式会社ＡＲＵＡＩＹＵ,,株式会社,埼玉県,川口市,朝日５丁目１４－１６,,11,203,3320001,,,,,,,2026-02-02,1,,,,,アルアイユ,0
679,3040003029360,新規,0,2026-02-02,2026-02-02,合同会社Ｓｐｒｏｕｔ,,合同会社,千葉県,柏市,大井９１０番地５３,,12,217,2770902,,,,,,,2026-02-02,1,,,,,スプラウト,0
680,3040003029385,新規,0,2026-02-02,2026-02-02,清水設計合同会社,,合同会社,千葉県,千葉市稲毛区,天台１丁目３番１１号グラン・コート天台駅前１０１号,,12,103,2630016,,,,,,,2026-02-02,1,,,,,シミズセッケイ,0
686,3070001043781,新規,0,2026-02-02,2026-02-02,高瀬テクノ株式会社,00142413,株式会社,群馬県,邑楽郡明和町,新里３５３番地３,,10,522,3700708,,,,,,,2026-02-02,1,,,,,タカセテクノ,0
687,3070003006282,新規,0,2026-02-02,2026-02-02,合同会社ＧＥＫＫＯＳＴＡＴＥ,,合同会社,群馬県,館林市,西高根町１９番地の１９,,10,207,3740075,,,,,,,2026-02-02,1,,,,,ゲッコーステイト,0
757,3120001283827,新規,0,2026-02-02,2026-02-02,株式会社Ｙ　ｍａｎａｇｅｍｅｎｔ,,株式会社,大阪府,大阪市北区,曾根崎２丁目１５番３１－５３０５号,,27,127,5300057,,,,,,,2026-02-02,1,,,,,ワイマネージメント,0
758,3120001283835,新規,0,2026-02-02,2026-02-02,株式会社ひいき,,株式会社,大阪府,大阪市淀川区,新高６丁目１４番７号,,27,123,5320033,,,,,,,2026-02-02,1,,,,,ヒイキ,0
765,3120101073137,新規,0,2026-02-02,2026-02-02,株式会社ＨＥＡＲＴ　ＦＩＥＬＤ,,株式会社,大阪府,富田林市,中野町３丁目３番２１号（１０２）,,27,214,5840021,,,,,,,2026-02-02,1,,,,,ハートフィールド,0
766,3120101073145,新規,0,2026-02-02,2026-02-02,株式会社夢品商事,,株式会社,大阪府,堺市中区,東山１７４番地１５,,27,142,5998247,,,,,,,2026-02-02,1,,,,,ユメシナショウジ,0
773,3150001028683,新規,0,2026-02-02,2026-02-02,仁株式会社,,株式会社,奈良県,北葛城郡上牧町,服部台１丁目１１番３５号ヴィルヌーブＢ－２０２号室,,29,424,6390212,,,,,,,2026-02-02,1,,,,,ジン,0
774,3150001028700,新規,0,2026-02-02,2026-02-02,株式会社ユーアイテック,,株式会社,奈良県,生駒市,高山町１１４４７番地,,29,209,6300101,,,,,,,2026-02-02,1,,,,,ユーアイテック,0
775,3150003003825,新規,0,2026-02-02,2026-02-02,合同会社リープゴート,,合同会社,奈良県,奈良市,五条西１丁目３６番１２－１－２０２号,,29,201,6308034,,,,,,,2026-02-02,1,,,,,リープゴート,0
778,3170005007186,新規,0,2026-02-02,2026-02-02,一般社団法人清川くらし探究舎,,その他の設立登記法人,和歌山県,日高郡みなべ町,清川３１８６番地,,30,391,6450201,,,,,,,2026-02-02,1,,,,,キヨカワクラシタンキュウシャ,0
790,3180003029693,新規,0,2026-02-02,2026-02-02,合同会社ルートプラス,,合同会社,愛知県,一宮市,三条字大平４１番地８,,23,203,4940003,,,,,,,2026-02-02,1,,,,,ルートプラス,0
791,3180003029702,新規,0,2026-02-02,2026-02-02,タスリンク合同会社,,合同会社,愛知県,名古屋市港区,正保町７丁目１番地１,,23,111,4550074,,,,,,,2026-02-02,1,,,,,タスリンク,0
792,3180301040641,新規,0,2026-02-02,2026-02-02,株式会社Ｐｌｕｍ,,株式会社,愛知県,知立市,宝３丁目１１番地５ル・ラピュタ３０５号,,23,225,4720056,,,,,,,2026-02-02,1,,,,,プラム,0
800,3230003002570,新規,0,2026-02-02,2026-02-02,合同会社ＥＧＡＲＩＡＨ,,合同会社,富山県,富山市,羽根１７４番地２,,16,201,9300864,,,,,,,2026-02-02,1,,,,,エガリア,0
803,3240001066113,新規,0,2026-02-02,2026-02-02,株式会社Ｌｉｎｋプラス,,株式会社,広島県,東広島市,志和町別府４７７番地５,,34,212,7390267,,,,,,,2026-02-02,1,,,,,リンクプラス,0
818,3290001112960,新規,0,2026-02-02,2026-02-02,株式会社セイカ不動産,,株式会社,福岡県,福岡市早良区,祖原２９番１９号,,40,137,8140005,,,,,,,2026-02-02,1,,,,,セイカフドウサン,0
820,3290003017984,新規,0,2026-02-02,2026-02-02,合同会社六月,,合同会社,福岡県,福岡市早良区,田隈１丁目２０番２号,,40,137,8140174,,,,,,,2026-02-02,1,,,,,ジュン,0
821,3290003018000,新規,0,2026-02-02,2026-02-02,アトムテック合同会社,,合同会社,福岡県,糟屋郡須惠町,上須恵７５３－８９,,40,344,8112100,,,,,,,2026-02-02,1,,,,,アトムテック,0
825,3290005019987,新規,0,2026-02-02,2026-02-02,一般社団法人そなえる,,その他の設立登記法人,福岡県,宗像市,東郷２丁目４番１１号,,40,220,8113436,,,,,,,2026-02-02,1,,,,,ソナエル,0
832,3310001019939,新規,0,2026-02-02,2026-02-02,株式会社Ｌｉｎｏｈａ,,株式会社,長崎県,佐世保市,日宇町２１４４番地１,,42,202,8571151,,,,,,,2026-02-02,1,,,,,リノハ,0
835,3320001021563,新規,0,2026-02-02,2026-02-02,株式会社新,,株式会社,大分県,由布市,庄内町櫟木７１８番地,,44,213,8795404,,,,,,,2026-02-02,1,,,,,シン,0
838,3330001033954,新規,0,2026-02-02,2026-02-02,株式会社ＭＥＶＩＵＳ,,株式会社,熊本県,熊本市中央区,下通１丁目８番９号ＡＩＧＩＮＺＡ下通１Ｆ－Ａ１,,43,101,8600807,,,,,,,2026-02-02,1,,,,,メビウス,0
843,3360001036319,新規,0,2026-02-02,2026-02-02,株式会社Ａｌｂｕｓ　Ｗｏｒｋｓ,,株式会社,沖縄県,宜野湾市,普天間２丁目４３番１３－１０１号,,47,205,9012202,,,,,,,2026-02-02,1,,,,,アルバスワークス,0
845,3370001053429,新規,0,2026-02-02,2026-02-02,株式会社阿蘇ファーム,,株式会社,宮城県,遠田郡涌谷町,成沢字古清水１５番地,,04,501,9870286,,,,,,,2026-02-02,1,,,,,アソファーム,0
850,3410003004210,新規,0,2026-02-02,2026-02-02,合同会社ＳＫＹ‐Ｎ,,合同会社,秋田県,鹿角郡小坂町,荒谷字上ノ平２７‐１,,05,303,0170204,,,,,,,2026-02-02,1,,,,,,0
854,3450001014851,新規,0,2026-02-02,2026-02-02,ＡｇｒｉＰｌｕｓ株式会社,,株式会社,北海道,旭川市,東光十七条４丁目１番１９号,,01,204,0788357,,,,,,,2026-02-02,1,,,,,アグリプラス,0
862,4010001262436,新規,0,2026-02-02,2026-02-02,ウェルナイト株式会社,,株式会社,東京都,千代田区,岩本町３丁目１番９号ＮＯＶＥＬＷＯＲＫＩｗａｍｏｔｏｃｈｏ３Ｆ,,13,101,1010032,,,,,,,2026-02-02,1,,,,,ウェルナイト,0
864,4010003050070,新規,0,2026-02-02,2026-02-02,合同会社ａｓａｎｅ．,,合同会社,東京都,中央区,日本橋室町１丁目１１番１２号日本橋水野ビル７階,,13,102,1030022,,,,,,,2026-02-02,1,,,,,アサネ,0
865,4010003050087,新規,0,2026-02-02,2026-02-02,合同会社天＿生技科技,00142406,合同会社,東京都,中央区,築地５丁目６－１０浜離宮ガーデンプレイス２Ｆ,,13,102,1040045,,,,,,,2026-02-02,1,,,,,テンキセイギカギ,0
866,4010003050194,新規,0,2026-02-02,2026-02-02,ＢＳＷＫホールディングス合同会社,,合同会社,東京都,千代田区,丸の内３丁目２番３号,,13,101,1000005,,,,,,,2026-02-02,1,,,,,ビーエスダブルケーホールディングス,0
867,4010005041324,新規,0,2026-02-02,2026-02-02,一般社団法人日比谷音楽祭,,その他の設立登記法人,東京都,中央区,日本橋兜町１７番２号,,13,102,1030026,,,,,,,2026-02-02,1,,,,,ヒビヤオンガクサイ,0
868,4010401196143,新規,0,2026-02-02,2026-02-02,株式会社アークル,,株式会社,東京都,港区,南青山３丁目１番３６号青山丸竹ビル６Ｆ青山オフィス,,13,103,1070062,,,,,,,2026-02-02,1,,,,,アークル,0
869,4010401196267,新規,0,2026-02-02,2026-02-02,株式会社ＭＲＭＫ,,株式会社,東京都,港区,赤坂８丁目３番２０号グランフォルム赤坂５０１号室,,13,103,1070052,,,,,,,2026-02-02,1,,,,,エムアールエムケイ,0
871,4010403037163,新規,0,2026-02-02,2026-02-02,ミレオンアセット合同会社,,合同会社,東京都,港区,北青山１丁目３－３三橋ビル３階,,13,103,1070061,,,,,,,2026-02-02,1,,,,,ミレオンアセット,0
872,4010403037196,新規,0,2026-02-02,2026-02-02,ＡＰ　Ｘ５合同会社,,合同会社,東京都,港区,虎ノ門４丁目１－１７アリサ・パートナーズ・ジャパン株式会社内,,13,103,1050001,,,,,,,2026-02-02,1,,,,,エーピーエックスファイブ,0
873,4010405025224,新規,0,2026-02-02,2026-02-02,一般社団法人ＢｒｅａｋＴｈｒｏｕｇｈ,,その他の設立登記法人,東京都,港区,南青山３丁目１番３６号青山丸竹ビル６Ｆ,,13,103,1070062,,,,,,,2026-02-02,1,,,,,ブレイクスルー,0
879,4010603012040,新規,0,2026-02-02,2026-02-02,Ｐ＆Ｃ合同会社,,合同会社,東京都,墨田区,緑４丁目２７番４－４０１号,,13,107,1300021,,,,,,,2026-02-02,1,,,,,ピーアンドシー,0
880,4010701048969,新規,0,2026-02-02,2026-02-02,ＣＭＩパートナーズジャパン株式会社,,株式会社,東京都,品川区,東品川２丁目２番４号天王洲ファーストタワー７階,,13,109,1400002,,,,,,,2026-02-02,1,,,,,シーエムアイパートナーズジャパン,0
882,4010903010594,新規,0,2026-02-02,2026-02-02,奥義合同会社,,合同会社,東京都,世田谷区,野毛１丁目１８－１５－１０４,,13,112,1580092,,,,,,,2026-02-02,1,,,,,オウギ,0
888,4011001175116,新規,0,2026-02-02,2026-02-02,暮らしと株式会社,,株式会社,東京都,渋谷区,道玄坂１丁目１０番８号渋谷道玄坂東急ビル２Ｆ－Ｃ,,13,113,1500043,,,,,,,2026-02-02,1,,,,,クラシト,0
889,4011001175198,新規,0,2026-02-02,2026-02-02,Ｈｏｋｉｎａｗａ株式会社,,株式会社,東京都,渋谷区,道玄坂１丁目１０番８号渋谷道玄坂東急ビル２Ｆ－Ｃ,,13,113,1500043,,,,,,,2026-02-02,1,,,,,ホキナワ,0
890,4011001175207,新規,0,2026-02-02,2026-02-02,株式会社ｍａｒｑｕｅ　ｓｔｕｄｉｏ,,株式会社,東京都,渋谷区,恵比寿西２丁目４番８号ウィンド恵比寿ビル８Ｆ,,13,113,1500021,,,,,,,2026-02-02,1,,,,,マルクスタジオ,0
891,4011001175223,新規,0,2026-02-02,2026-02-02,イノチ細胞研究株式会社,,株式会社,東京都,渋谷区,神宮前１丁目８番２４号３０２・１７５番館別館,,13,113,1500001,,,,,,,2026-02-02,1,,,,,イノチサイボウケンキュウ,0
899,4011301031233,新規,0,2026-02-02,2026-02-02,株式会社成宗ロッジ,,株式会社,東京都,杉並区,成田西３丁目５番７号,,13,115,1660016,,,,,,,2026-02-02,1,,,,,ナリムネロッジ,0
912,4012803003991,新規,0,2026-02-02,2026-02-02,合同会社鬼豚,,合同会社,東京都,昭島市,玉川町３丁目２６番３－１０７号,,13,207,1960034,,,,,,,2026-02-02,1,,,,,オニブタ,0
916,4013303008077,新規,0,2026-02-02,2026-02-02,セカンドナイン合同会社,,合同会社,東京都,豊島区,南池袋３丁目１４－１０アゼリア南池袋１０４号室,,13,116,1710022,,,,,,,2026-02-02,1,,,,,セカンドナイン,0
918,4020001166784,新規,0,2026-02-02,2026-02-02,株式会社Ｐｉｆｔｅｅ,,株式会社,神奈川県,横浜市西区,北幸２丁目１０番４８号むつみビル３階,,14,103,2200004,,,,,,,2026-02-02,1,,,,,ピフティ,0
919,4020003030162,新規,0,2026-02-02,2026-02-02,シンクレス合同会社,,合同会社,神奈川県,横浜市西区,北幸２丁目１０番４８号,,14,103,2200004,,,,,,,2026-02-02,1,,,,,シンクレス,0
920,4020003030261,新規,0,2026-02-02,2026-02-02,合同会社ユジン,,合同会社,神奈川県,横浜市中区,曙町３丁目４２番地１ストークパレス横浜４０１,,14,104,2310057,,,,,,,2026-02-02,1,,,,,ユジン,0
923,4021003017075,新規,0,2026-02-02,2026-02-02,合同会社ＩｎｔｅｇｒｉＸ,,合同会社,神奈川県,藤沢市,辻堂新町２丁目１２番２７－１０１号,,14,205,2510042,,,,,,,2026-02-02,1,,,,,インテグリックス,0
929,4030001170769,新規,0,2026-02-02,2026-02-02,株式会社浅野アセット,,株式会社,埼玉県,さいたま市中央区,円阿弥４丁目１０番２６号,,11,105,3380007,,,,,,,2026-02-02,1,,,,,アサノアセット,0
949,4070001043789,新規,0,2026-02-02,2026-02-02,株式会社なかむらサポート,,株式会社,群馬県,伊勢崎市,安堀町１９１０番地１２,,10,204,3720007,,,,,,,2026-02-02,1,,,,,ナカムラサポート,0
951,4070003006257,新規,0,2026-02-02,2026-02-02,合同会社ｃｏｃｏＬｉａｎ,,合同会社,群馬県,前橋市,荒子町１１８５番地２,,10,201,3792106,,,,,,,2026-02-02,1,,,,,,0
952,4070003006281,新規,0,2026-02-02,2026-02-02,合同会社レアーレ岩宿,,合同会社,群馬県,みどり市,笠懸町鹿９９番地１,,10,212,3792313,,,,,,,2026-02-02,1,,,,,レアーレイワジュク,0
953,4070005010463,新規,0,2026-02-02,2026-02-02,一般社団法人地域連携Ｐｒｏｊｅｃｔ１９,,その他の設立登記法人,群馬県,北群馬郡吉岡町,大字陣場４３番地２,,10,345,3703603,,,,,,,2026-02-02,1,,,,,チイキレンケイプロジェクトナインティーン,0
1012,4110001039873,新規,0,2026-02-02,2026-02-02,弥彦スイーツ株式会社,,株式会社,新潟県,西蒲原郡弥彦村,大字弥彦１１２１番地,,15,342,9590323,,,,,,,2026-02-02,1,,,,,ヤヒコスイーツ,0
1024,4120901052157,新規,0,2026-02-02,2026-02-02,株式会社慶心建装,,株式会社,大阪府,茨木市,沢良宜浜３丁目１０番１１号,,27,211,5670864,,,,,,,2026-02-02,1,,,,,ケイシンケンソウ,0
1029,4140001141552,新規,0,2026-02-02,2026-02-02,株式会社Ｏｎｅｉｒｏｉ,,株式会社,兵庫県,神戸市中央区,山本通４丁目２６番２８号,,28,110,6500003,,,,,,,2026-02-02,1,,,,,オネイロイ,0
1042,4190001032870,新規,0,2026-02-02,2026-02-02,まゆこ企画株式会社,,株式会社,三重県,桑名市,大字安永８２３番地１０,,24,205,5110839,,,,,,,2026-02-02,1,,,,,マユコキカク,0
1049,4200001044674,新規,0,2026-02-02,2026-02-02,株式会社ＮＯＭＵＲＡ,,株式会社,岐阜県,大垣市,赤坂町３０５５番地１０,,21,202,5032213,,,,,,,2026-02-02,1,,,,,ノムラ,0
1057,4240001066112,新規,0,2026-02-02,2026-02-02,株式会社小丹吾,,株式会社,広島県,広島市中区,三川町１０番２６号,,34,101,7300029,,,,,,,2026-02-02,1,,,,,コタンゴ,0
1059,4240003007576,新規,0,2026-02-02,2026-02-02,合同会社仁心笑来,,合同会社,広島県,広島市西区,己斐本町２丁目１３番２６－６０４号,,34,104,7330812,,,,,,,2026-02-02,1,,,,,ニコニコ,0
1065,4250003003888,新規,0,2026-02-02,2026-02-02,ＪＤＣ合同会社,,合同会社,山口県,下関市,彦島福浦町２丁目２４番１２号,,35,201,7500087,,,,,,,2026-02-02,1,,,,,ジェイディシィ,0
1067,4260001040932,新規,0,2026-02-02,2026-02-02,株式会社ＰｒｉｍｉＰｉｌｕｓ,,株式会社,岡山県,岡山市北区,高松９１８番地１２,,33,101,7011335,,,,,,,2026-02-02,1,,,,,プリミピルス,0
1073,4290001112951,新規,0,2026-02-02,2026-02-02,新日産商事リブライト株式会社,,株式会社,福岡県,福岡市城南区,七隈８丁目２番１－２０９号,,40,136,8140133,,,,,,,2026-02-02,1,,,,,シンニッサンショウジリブライト,0
1074,4290001112984,新規,0,2026-02-02,2026-02-02,株式会社池田創建,,株式会社,福岡県,福津市,東福間２丁目１２番７号,,40,224,8113225,,,,,,,2026-02-02,1,,,,,イケダソウケン,0
1076,4290003018008,新規,0,2026-02-02,2026-02-02,合同会社Ｓｕｎｒｉｓｅ　Ｏｒａｎｇｅ,,合同会社,福岡県,福岡市中央区,天神２丁目２番１２号Ｔ＆Ｊビルディング７Ｆ,,40,133,8100001,,,,,,,2026-02-02,1,,,,,サンライズオレンジ,0
1080,4310001019946,新規,0,2026-02-02,2026-02-02,Ｐｏｔｅｎｔｉａｌ　Ｐｒｏｆｉｔｔｅｒ１株式会社,,株式会社,長崎県,佐世保市,谷郷町４番３号,,42,202,8570027,,,,,,,2026-02-02,1,,,,,ポテンシャルプロフィッターワン,0
1081,4320001021562,新規,0,2026-02-02,2026-02-02,シナリオゼロ株式会社,,株式会社,大分県,大分市,碩田町３丁目１番３５号,,44,201,8700048,,,,,,,2026-02-02,1,,,,,シナリオゼロ,0
1083,4320003004862,新規,0,2026-02-02,2026-02-02,合同会社敬大,,合同会社,大分県,大分市,大字政所３４９５番地１コーポサンモール１０１,,44,201,8700268,,,,,,,2026-02-02,1,,,,,ケイダイ,0
1088,4330003011412,新規,0,2026-02-02,2026-02-02,合同会社ＡＫＲ,,合同会社,熊本県,熊本市中央区,手取本町３番１号,,43,101,8600808,,,,,,,2026-02-02,1,,,,,エーケーアール,0
1089,4360001036318,新規,0,2026-02-02,2026-02-02,株式会社ＫＤＵＢホールディングス,,株式会社,沖縄県,那覇市,東町２０－１８比嘉ビル１階,,47,201,9000034,,,,,,,2026-02-02,1,,,,,ケーダブホールディングス,0
1105,4430001096148,新規,0,2026-02-02,2026-02-02,株式会社高洋商事,,株式会社,北海道,札幌市東区,伏古三条５丁目３番２号,,01,103,0070863,,,,,,,2026-02-02,1,,,,,コウヨウショウジ,0
1107,4430003018546,新規,0,2026-02-02,2026-02-02,合同会社律勝,,合同会社,北海道,札幌市厚別区,厚別東二条６丁目３番１号,,01,108,0040002,,,,,,,2026-02-02,1,,,,,リッショウ,0
1109,4430005015401,新規,0,2026-02-02,2026-02-02,一般社団法人北大サッカー部ｓｕｓｔａｉｎａｂｌｅ　ｓｕｐｐｏｒｔ,,その他の設立登記法人,北海道,札幌市中央区,北五条西１１丁目１５－４ＢＹＹＡＲＤ,,01,101,0600005,,,,,,,2026-02-02,1,,,,,ホクダイサッカーブサステナブルサポート,0
1112,4470001021069,新規,0,2026-02-02,2026-02-02,株式会社ＡＲＣＨ,,株式会社,香川県,高松市,林町２５７０番５,,37,201,7610301,,,,,,,2026-02-02,1,,,,,,0
1115,4490001011266,新規,0,2026-02-02,2026-02-02,株式会社ほっこりゆにばーす,,株式会社,高知県,須崎市,神田１６１０番地,,39,206,7850051,,,,,,,2026-02-02,1,,,,,ホッコリユニバース,0
1123,5010001262261,新規,0,2026-02-02,2026-02-02,株式会社Ｎａｒｒａｔｉｖｕｓ,,株式会社,東京都,中央区,銀座１丁目２２番１１号銀座大竹ビジデンス２Ｆ,,13,102,1040061,,,,,,,2026-02-02,1,,,,,ナラティバス,0
1126,5010003050078,新規,0,2026-02-02,2026-02-02,ポルテ・ボヌール・アセットマネジメント合同会社,,合同会社,東京都,中央区,東日本橋２丁目２８番４号日本橋ＣＥＴビル２階,,13,102,1030004,,,,,,,2026-02-02,1,,,,,ポルテボヌールアセットマネジメント,0
1127,5010003050144,新規,0,2026-02-02,2026-02-02,合同会社プラス５号,,合同会社,東京都,中央区,日本橋箱崎町１６－１東益ビル６階,,13,102,1030015,,,,,,,2026-02-02,1,,,,,プラスゴゴウ,0
1128,5010003050169,新規,0,2026-02-02,2026-02-02,ラムダ合同会社,,合同会社,東京都,中央区,日本橋１丁目４番１号,,13,102,1030027,,,,,,,2026-02-02,1,,,,,ラムダ,0
1129,5010003050193,新規,0,2026-02-02,2026-02-02,ＡＳＷＫホールディングス合同会社,,合同会社,東京都,千代田区,丸の内３丁目２番３号,,13,101,1000005,,,,,,,2026-02-02,1,,,,,エーエスダブルケーホールディングス,0
1130,5010003050210,新規,0,2026-02-02,2026-02-02,合同会社共食,,合同会社,東京都,中央区,日本橋蛎殻町１丁目３８番９号,,13,102,1030014,,,,,,,2026-02-02,1,,,,,キョウショク,0
1133,5010005041315,新規,0,2026-02-02,2026-02-02,一般財団法人セントルシア盛諾基金,,その他の設立登記法人,東京都,中央区,新富１丁目５番１２号エスパシオ新富町７階,,13,102,1040041,,,,,,,2026-02-02,1,,,,,セントルシアセイダクキキン,0
1141,5010405025248,新規,0,2026-02-02,2026-02-02,一般財団法人ノジマ出る杭財団,,その他の設立登記法人,東京都,港区,港南２丁目１５－３品川インターシティＣ棟,,13,103,1080075,,,,,,,2026-02-02,1,,,,,ノジマデルクイザイダン,0
1149,5010901058858,新規,0,2026-02-02,2026-02-02,株式会社フィーカ,,株式会社,東京都,世田谷区,奥沢２丁目１２番１２号,,13,112,1580083,,,,,,,2026-02-02,1,,,,,フィーカ,0
1152,5011001175032,新規,0,2026-02-02,2026-02-02,株式会社ＥｎＧｉｉ,,株式会社,東京都,渋谷区,神宮前５丁目４７番８号,,13,113,1500001,,,,,,,2026-02-02,1,,,,,エンギー,0
1153,5011001175057,新規,0,2026-02-02,2026-02-02,株式会社スコップ,,株式会社,東京都,渋谷区,上原２丁目１番３－３０４号,,13,113,1510064,,,,,,,2026-02-02,1,,,,,スコップ,0
1154,5011001175131,新規,0,2026-02-02,2026-02-02,株式会社ＡＺＡＫ,,株式会社,東京都,目黒区,柿の木坂３丁目２番２３号,,13,110,1520022,,,,,,,2026-02-02,1,,,,,アザック,0
1155,5011001175206,新規,0,2026-02-02,2026-02-02,ワンダークラフトカンパニー株式会社,,株式会社,東京都,渋谷区,広尾１丁目２番１号ヒカリビル４階,,13,113,1500012,,,,,,,2026-02-02,1,,,,,ワンダークラフトカンパニー,0
1156,5011001175271,新規,0,2026-02-02,2026-02-02,株式会社ＥＩＮＳ,,株式会社,東京都,渋谷区,代々木１丁目５８番７号ヴェラハイツ代々木７０４,,13,113,1510053,,,,,,,2026-02-02,1,,,,,アインス,0
1160,5011003023420,新規,0,2026-02-02,2026-02-02,合同会社Ａｍｉｒａ　Ａｄｖｉｓｏｒｙ,,合同会社,東京都,渋谷区,宇田川町１番１２－３００４号,,13,113,1500042,,,,,,,2026-02-02,1,,,,,アミラアドバイザリー,0
1164,5011101114583,新規,0,2026-02-02,2026-02-02,株式会社Ａｌｌ　ｉｎ,,株式会社,東京都,新宿区,早稲田鶴巻町５３０番地１１,,13,104,1620041,,,,,,,2026-02-02,1,,,,,オールイン,0
1165,5011101114591,新規,0,2026-02-02,2026-02-02,株式会社ＬｏｂａＴｅｋ,,株式会社,東京都,新宿区,西新宿３丁目３番１３号西新宿水間ビル２Ｆ,,13,104,1600023,,,,,,,2026-02-02,1,,,,,ロバテック,0
1167,5011103016951,新規,0,2026-02-02,2026-02-02,Ｔｓｕｎａｇｕ　Ｗｏｒｋｓ合同会社,,合同会社,東京都,新宿区,西新宿３丁目３番１３号西新宿水間ビル６階,,13,104,1600023,,,,,,,2026-02-02,1,,,,,ツナグワークス,0
1172,5011601029348,新規,0,2026-02-02,2026-02-02,株式会社白,,株式会社,東京都,練馬区,三原台３丁目２８番５号,,13,120,1770031,,,,,,,2026-02-02,1,,,,,ハク,0
1176,5011801047389,新規,0,2026-02-02,2026-02-02,株式会社ＭｅｍｏｒｉａＬａｂ,,株式会社,東京都,足立区,千住旭町３８－１東京電機大学東京千住アネックス４０６,,13,121,1200026,,,,,,,2026-02-02,1,,,,,メモリアラボ,0
1185,5013303008076,新規,0,2026-02-02,2026-02-02,合同会社ＺＵＮＡ,,合同会社,東京都,豊島区,東池袋２丁目６２番８号ＢＩＧオフィスプラザ池袋１２０６,,13,116,1700013,,,,,,,2026-02-02,1,,,,,ズーナ,0
1194,5020001166924,新規,0,2026-02-02,2026-02-02,株式会社ふらっとにいこう,,株式会社,神奈川県,横浜市旭区,中希望が丘９４－５１ＴＡＮＡＢＥＮＯ．５ビル２０１号室,,14,112,2410825,,,,,,,2026-02-02,1,,,,,フラットニイコウ,0
1197,5021001087409,新規,0,2026-02-02,2026-02-02,株式会社來煌,,株式会社,神奈川県,伊勢原市,沼目３丁目２６番２３号,,14,214,2591126,,,,,,,2026-02-02,1,,,,,ライコウ,0
1206,5030003028535,新規,0,2026-02-02,2026-02-02,ＷＳ　Ｅｎｔｅｒｐｒｉｓｅｓ合同会社,,合同会社,埼玉県,本庄市,朝日町２丁目８－３３,,11,211,3670026,,,,,,,2026-02-02,1,,,,,ダブリューエスエンタープライゼス,0
1207,5030003028551,新規,0,2026-02-02,2026-02-02,ＤＥＥＥ合同会社,,合同会社,埼玉県,戸田市,新曽南３丁目２－６ヴィルヌーブ戸田公園８０１号,,11,224,3350026,,,,,,,2026-02-02,1,,,,,デイイ,0
1213,5040001142246,新規,0,2026-02-02,2026-02-02,テックオーシャン株式会社,,株式会社,千葉県,松戸市,古ケ崎１９２番６号,,12,207,2710068,,,,,,,2026-02-02,1,,,,,テックオーシャン,0
1214,5040001142262,新規,0,2026-02-02,2026-02-02,株式会社まめの木,,株式会社,千葉県,印西市,小林北２丁目６番地２６,,12,231,2701313,,,,,,,2026-02-02,1,,,,,マメノキ,0
1215,5040001142279,新規,0,2026-02-02,2026-02-02,ドリーム・Ｋ株式会社,,株式会社,千葉県,東金市,東金１００２番地,,12,213,2830802,,,,,,,2026-02-02,1,,,,,ドリームケイ,0
1216,5040001142287,新規,0,2026-02-02,2026-02-02,株式会社さご米,,株式会社,千葉県,富津市,青木８４７番地,,12,226,2930012,,,,,,,2026-02-02,1,,,,,サゴベイ,0
1217,5040001142295,新規,0,2026-02-02,2026-02-02,株式会社１０２０,,株式会社,千葉県,鴨川市,竹平３７１番地２,,12,223,2960021,,,,,,,2026-02-02,1,,,,,イチゼロニイゼロ,0
1220,5040003029425,新規,0,2026-02-02,2026-02-02,ＣＨＥＥＲ合同会社,,合同会社,千葉県,松戸市,六高台７丁目７１番地３,,12,207,2702203,,,,,,,2026-02-02,1,,,,,チアー,0
1228,5070003006280,新規,0,2026-02-02,2026-02-02,合同会社鳥海,,合同会社,群馬県,邑楽郡板倉町,大字板倉４２２８番地の１２,,10,521,3740132,,,,,,,2026-02-02,1,,,,,トリウミ,0
1233,5080401028413,新規,0,2026-02-02,2026-02-02,株式会社ソーシャルエステート,,株式会社,静岡県,浜松市中央区,和合町９３６番地の３３７,,22,138,4338125,,,,,,,2026-02-02,1,,,,,ソーシャルエステート,0
1300,5110001039872,新規,0,2026-02-02,2026-02-02,株式会社保盛軒,,株式会社,新潟県,新潟市西区,寺地５５６番地９,,15,107,9501104,,,,,,,2026-02-02,1,,,,,ホセイケン,0
1308,5120001283817,新規,0,2026-02-02,2026-02-02,株式会社ＮＥＸＴ,,株式会社,大阪府,大阪市中央区,南船場３丁目２番２２号おおきに南船場ビル２０５,,27,128,5420081,,,,,,,2026-02-02,1,,,,,ネクスト,0
1309,5120001283825,新規,0,2026-02-02,2026-02-02,株式会社ＨＯＫＯＣＨＡ,,株式会社,大阪府,門真市,三ツ島１丁目２３番１５号,,27,223,5710015,,,,,,,2026-02-02,1,,,,,ホコチャ,0
1310,5120001283833,新規,0,2026-02-02,2026-02-02,ソリッド都市開発株式会社,,株式会社,大阪府,大阪市東成区,中本３丁目１５番１６号フィエルメンテ７０１号,,27,115,5370022,,,,,,,2026-02-02,1,,,,,ソリッドトシカイハツ,0
1312,5120003031819,新規,0,2026-02-02,2026-02-02,Ｋａｓｈｉ　Ｍａｒｃｋｅｔ合同会社,,合同会社,大阪府,枚方市,渚西１丁目２１番１２号,,27,210,5731178,,,,,,,2026-02-02,1,,,,,カシマーケット,0
1325,5140001141551,新規,0,2026-02-02,2026-02-02,ＫＭＫ株式会社,,株式会社,兵庫県,神戸市西区,糀台２丁目２６番地２－９１１号,,28,111,6512273,,,,,,,2026-02-02,1,,,,,ケーエムケー,0
1330,5150003003823,新規,0,2026-02-02,2026-02-02,合同会社コモドケア,,合同会社,奈良県,北葛城郡広陵町,馬見南３丁目１３－２９,,29,426,6350833,,,,,,,2026-02-02,1,,,,,コモドケア,0
1338,5180001170480,新規,0,2026-02-02,2026-02-02,株式会社Ｈａｋｕｂａ　Ｂａｓｅｃａｍｐ　Ｅｓｔａｔｅ,,株式会社,愛知県,名古屋市中区,錦１丁目５番１１号名古屋伊藤忠ビル２階,,23,106,4600003,,,,,,,2026-02-02,1,,,,,ハクバベースキャンプエステート,0
1341,5180005021416,新規,0,2026-02-02,2026-02-02,社会保険労務士法人タスクマネジメント,,その他の設立登記法人,愛知県,名古屋市千種区,仲田２丁目１４番２４号,,23,101,4640074,,,,,,,2026-02-02,1,,,,,タスクマネジメント,0
1355,5240001066128,新規,0,2026-02-02,2026-02-02,株式会社アマテラス,,株式会社,広島県,安芸郡府中町,緑ケ丘２１番１１号,,34,302,7350024,,,,,,,2026-02-02,1,,,,,アマテラス,0
1358,5240003007575,新規,0,2026-02-02,2026-02-02,合同会社ＪＡＤＥ,,合同会社,広島県,東広島市,西条町助実１５３０番地１５,,34,212,7390021,,,,,,,2026-02-02,1,,,,,ジェイド,0
1360,5260001040948,新規,0,2026-02-02,2026-02-02,株式会社新興事業,,株式会社,岡山県,岡山市北区,北方１丁目１０番１２号メープルタウン１０１,,33,101,7000803,,,,,,,2026-02-02,1,,,,,シンコウジギョウ,0
1363,5290001112918,新規,0,2026-02-02,2026-02-02,株式会社アサヒ,,株式会社,福岡県,糟屋郡須惠町,大字植木１２６５番地の９,,40,344,8112112,,,,,,,2026-02-02,1,,,,,アサヒ,0
1364,5290001112959,新規,0,2026-02-02,2026-02-02,グランフーズ株式会社,,株式会社,福岡県,福岡市東区,箱崎１丁目５番２２－４０２号,,40,131,8120053,,,,,,,2026-02-02,1,,,,,グランフーズ,0
1365,5290001112967,新規,0,2026-02-02,2026-02-02,株式会社ＦＳ,,株式会社,福岡県,福岡市東区,香椎照葉６丁目２－５１－１９０７,,40,131,8130017,,,,,,,2026-02-02,1,,,,,エフエス,0
1367,5290003018007,新規,0,2026-02-02,2026-02-02,ＳＫＹ合同会社,,合同会社,福岡県,福岡市西区,小戸４丁目９番１２号,,40,135,8190001,,,,,,,2026-02-02,1,,,,,スカイ,0
1368,5300003002413,新規,0,2026-02-02,2026-02-02,合同会社ピエール・ガストン,,合同会社,佐賀県,西松浦郡有田町,白川２丁目５番１号,,41,401,8440007,,,,,,,2026-02-02,1,,,,,ピエールガストン,0
1390,5370001053443,新規,0,2026-02-02,2026-02-02,株式会社Ｙ　ＳＰＥＣ,,株式会社,宮城県,仙台市宮城野区,鶴ケ谷字坂下１０番地,,04,102,9830824,,,,,,,2026-02-02,1,,,,,ワイスペック,0
1394,5400003003599,新規,0,2026-02-02,2026-02-02,合同会社てる・タイムス,,合同会社,岩手県,西磐井郡平泉町,平泉字鈴沢７３番地２,,03,402,0294102,,,,,,,2026-02-02,1,,,,,テルタイムス,0
1395,5410003004209,新規,0,2026-02-02,2026-02-02,合同会社ティーエム,,合同会社,秋田県,秋田市,八橋大畑２丁目８－３,,05,201,0100962,,,,,,,2026-02-02,1,,,,,ティーエム,0
1403,5430001096163,新規,0,2026-02-02,2026-02-02,株式会社ＮＨ２マネジメント,,株式会社,北海道,千歳市,みどり台北２丁目８番４号,,01,224,0660083,,,,,,,2026-02-02,1,,,,,エヌエイチツーマネジメント,0
1406,5470003003064,新規,0,2026-02-02,2026-02-02,合同会社香川おさき農場,,合同会社,香川県,東かがわ市,入野山６８２番地１,,37,207,7692714,,,,,,,2026-02-02,1,,,,,カガワオサキノウジョウ,0
1415,6010001261898,新規,0,2026-02-02,2026-02-02,株式会社ＴＨＸ　ＭＡＫＥＲＳ,,株式会社,東京都,文京区,千駄木２丁目４４－１８,,13,105,1130022,,,,,,,2026-02-02,1,,,,,サンクスメーカーズ,0
1416,6010001262104,新規,0,2026-02-02,2026-02-02,Ｐｏｌａｎｙｉ株式会社,,株式会社,東京都,千代田区,神田須田町１丁目７番８号ＶＯＲＴ秋葉原ＩＶ２Ｆ,00142418,13,101,1010041,,,,,,,2026-02-02,1,,,,,ポランニー,0
1417,6010001262112,新規,0,2026-02-02,2026-02-02,坂倉技研株式会社,,株式会社,東京都,文京区,本郷３丁目２５番６号ルフォンプログレ本郷三丁目１３０３号,,13,105,1130033,,,,,,,2026-02-02,1,,,,,サカクラギケン,0
1418,6010001262194,新規,0,2026-02-02,2026-02-02,株式会社プロシナジア,,株式会社,東京都,中央区,銀座１丁目１２番４号Ｎ＆ＥＢＬＤ．６Ｆ,,13,102,1040061,,,,,,,2026-02-02,1,,,,,プロシナジア,0
1419,6010001262236,新規,0,2026-02-02,2026-02-02,株式会社ＨＡＮＡＮＤ,,株式会社,東京都,中央区,銀座４丁目１４－６ウィンド銀座８ビル３階,,13,102,1040061,,,,,,,2026-02-02,1,,,,,ハナンド,0
1420,6010001262252,新規,0,2026-02-02,2026-02-02,株式会社ＭＩＫＡＲＥ,,株式会社,東京都,中央区,晴海２丁目２番４２－４２２４号,,13,102,1040053,,,,,,,2026-02-02,1,,,,,ミカレ,0
1421,6010001262434,新規,0,2026-02-02,2026-02-02,株式会社Ｅａｒｔｈ,,株式会社,東京都,千代田区,有楽町１丁目７番１号有楽町電気ビル南館４階,,13,101,1000006,,,,,,,2026-02-02,1,,,,,アース,0
1425,6010003050143,新規,0,2026-02-02,2026-02-02,合同会社プラス４号,,合同会社,東京都,中央区,日本橋箱崎町１６－１東益ビル６階,,13,102,1030015,,,,,,,2026-02-02,1,,,,,プラスヨンゴウ,0
1426,6010003050218,新規,0,2026-02-02,2026-02-02,合同会社ＪＡＰＡＮ　ＩＮＮＯＶＡＴＯＲＳ３,,合同会社,東京都,千代田区,五番町６番地２,,13,101,1020076,,,,,,,2026-02-02,1,,,,,ジャパンイノベーターズスリー,0
1429,6010401196174,新規,0,2026-02-02,2026-02-02,プロデリア・パートナーズ株式会社,,株式会社,東京都,港区,南青山３丁目１番３６号青山丸竹ビル６Ｆ,,13,103,1070062,,,,,,,2026-02-02,1,,,,,プロデリアパートナーズ,0
1430,6010401196257,新規,0,2026-02-02,2026-02-02,株式会社タワマンエージェント,,株式会社,東京都,港区,赤坂９丁目７番１号ミッドタウン・タワー１８階,,13,103,1070052,,,,,,,2026-02-02,1,,,,,タワマンエージェント,0
1443,6010901058799,新規,0,2026-02-02,2026-02-02,株式会社エスカレイトキャリア,,株式会社,東京都,世田谷区,上祖師谷６丁目９番５－８号,,13,112,1570065,,,,,,,2026-02-02,1,,,,,エスカレイトキャリア,0
1444,6010901058865,新規,0,2026-02-02,2026-02-02,ｉＬｅａｄ株式会社,,株式会社,東京都,世田谷区,上北沢４丁目２３番２５号３０１１,,13,112,1560057,,,,,,,2026-02-02,1,,,,,アイリード,0
1450,6010903010592,新規,0,2026-02-02,2026-02-02,Ｇａｆｆｕｎ合同会社,,合同会社,東京都,世田谷区,新町２丁目３番２０,,13,112,1540014,,,,,,,2026-02-02,1,,,,,ギャフン,0
1453,6011001175130,新規,0,2026-02-02,2026-02-02,株式会社ＡＵＲＩＺＥ,,株式会社,東京都,渋谷区,道玄坂１丁目１０番８号渋谷道玄坂東急ビル２Ｆ－Ｃ,,13,113,1500043,,,,,,,2026-02-02,1,,,,,オライズ,0
1454,6011001175163,新規,0,2026-02-02,2026-02-02,Ｈｅｌｉｓ株式会社,,株式会社,東京都,渋谷区,広尾１丁目２番地１号ヒカリビル４階,,13,113,1500012,,,,,,,2026-02-02,1,,,,,ヘリス,0
1455,6011003023428,新規,0,2026-02-02,2026-02-02,緊急連絡先代行合同会社,,合同会社,東京都,目黒区,中目黒２丁目１０－５中目黒ＮＫビル２階,,13,110,1530061,,,,,,,2026-02-02,1,,,,,キンキュウレンラクサキダイコウ,0
1456,6011003023452,新規,0,2026-02-02,2026-02-02,合同会社Ｈａｎｇｂａｓｅ,,合同会社,東京都,渋谷区,神宮前６丁目２３番４号桑野ビル２階,,13,113,1500001,,,,,,,2026-02-02,1,,,,,ハングベース,0
1457,6011101015450,新規,0,2026-02-02,2026-02-02,株式会社仲良商店,,株式会社,東京都,新宿区,北新宿４丁目１５番３号,,13,104,1690074,,,,,,,2026-02-02,1,,,,,ナカヨシショウテン,0
1462,6011101114599,新規,0,2026-02-02,2026-02-02,株式会社Ｓｕｃｃｅｅｄグループ,,株式会社,東京都,新宿区,西新宿３丁目３番１３号西新宿水間ビル６階,,13,104,1600023,,,,,,,2026-02-02,1,,,,,サクシードグループ,0
1478,6013301055664,新規,0,2026-02-02,2026-02-02,株式会社Ｒｅペアレント,,株式会社,東京都,豊島区,巣鴨３丁目４番４号,,13,116,1700002,,,,,,,2026-02-02,1,,,,,リペアレント,0
1479,6013301055680,新規,0,2026-02-02,2026-02-02,株式会社ＩＳＡＭＵ商事,,株式会社,東京都,豊島区,上池袋１丁目１１番８バンコート池袋２０３,,13,116,1700012,,,,,,,2026-02-02,1,,,,,イサムショウジ,0
1483,6020001166881,新規,0,2026-02-02,2026-02-02,株式会社トラストアーツ,,株式会社,神奈川県,横浜市旭区,善部町６８番地１６,,14,112,2410823,,,,,,,2026-02-02,1,,,,,トラストアーツ,0
1484,6020001166956,新規,0,2026-02-02,2026-02-02,株式会社ＳＯＮＯＲＥミュージックアカデミー,,株式会社,神奈川県,横浜市西区,みなとみらい４丁目４―２　横浜ブルーアベニュー１２Ｆ,,14,103,2200012,,,,,,,2026-02-02,1,,,,,ソノールミュージックアカデミー,0
1487,6020003030235,新規,0,2026-02-02,2026-02-02,合同会社ＤＮＴ,,合同会社,神奈川県,横浜市中区,初音町３丁目６２番地黄金ビル２０１号,,14,104,2310053,,,,,,,2026-02-02,1,,,,,ディーエヌティー,0
1492,6021001087399,新規,0,2026-02-02,2026-02-02,ＰｅａｋＰｏｉｎｔ株式会社,,株式会社,神奈川県,小田原市,西大友３１９番地,,14,206,2500212,,,,,,,2026-02-02,1,,,,,ピークポイント,0
1493,6021001087416,新規,0,2026-02-02,2026-02-02,フライングチキンワークス株式会社,,株式会社,神奈川県,鎌倉市,極楽寺２丁目１１番１８号,,14,204,2480023,,,,,,,2026-02-02,1,,,,,フライングチキンワークス,0
1494,6021001087424,新規,0,2026-02-02,2026-02-02,ＣＯＣＯ　ＳＴＹＬＥ株式会社,,株式会社,神奈川県,茅ヶ崎市,高田４丁目２０番１８号,,14,207,2530002,,,,,,,2026-02-02,1,,,,,ココスタイル,0
1497,6021003017073,新規,0,2026-02-02,2026-02-02,合同会社ジョイ,,合同会社,神奈川県,大和市,下和田１２４６番地５,,14,213,2420015,,,,,,,2026-02-02,1,,,,,ジョイ,0
1520,6040001142261,新規,0,2026-02-02,2026-02-02,株式会社からだにいいこと,,株式会社,千葉県,船橋市,西習志野４丁目３番１０号,,12,204,2740815,,,,,,,2026-02-02,1,,,,,カラダニイイコト,0
1521,6040001142278,新規,0,2026-02-02,2026-02-02,株式会社サントスＭＧＴ,,株式会社,千葉県,市川市,行徳駅前４丁目１番４号光和ビル,,12,203,2720133,,,,,,,2026-02-02,1,,,,,サントスマネジメント,0
1522,6040003029382,新規,0,2026-02-02,2026-02-02,合同会社杉幸コーポレーション,,合同会社,千葉県,柏市,松ケ崎５８２番地の１,,12,217,2770835,,,,,,,2026-02-02,1,,,,,スギサチコーポレーション,0
1527,6060001038978,新規,0,2026-02-02,2026-02-02,株式会社アリアティアラコーポレーション,,株式会社,栃木県,宇都宮市,陽南３丁目４番１８号,,09,201,3200834,,,,,,,2026-02-02,1,,,,,アリアティアラコーポレーション,0
1591,6090003002979,新規,0,2026-02-02,2026-02-02,合同会社ライフサポート,,合同会社,山梨県,甲府市,千塚３丁目７番３１号,,19,201,4000074,,,,,,,2026-02-02,1,,,,,ライフサポート,0
1594,6110001039814,新規,0,2026-02-02,2026-02-02,株式会社ＣｏｒｅＤｅｔｅｃｔ,,株式会社,新潟県,新潟市中央区,南笹口１丁目１－３８コープオリンピア８０８,,15,103,9500912,,,,,,,2026-02-02,1,,,,,コアディテクト,0
1595,6110003006060,新規,0,2026-02-02,2026-02-02,合同会社ＰＯＬＩクリエイト,,合同会社,新潟県,中魚沼郡津南町,大字下船渡戊７４番地３,,15,482,9498201,,,,,,,2026-02-02,1,,,,,ポリクリエイト,0
1604,6120001283857,新規,0,2026-02-02,2026-02-02,株式会社ヒカリエ,,株式会社,大阪府,枚方市,東香里元町１４番２４号,,27,210,5730076,,,,,,,2026-02-02,1,,,,,ヒカリエ,0
1607,6120003031826,新規,0,2026-02-02,2026-02-02,合同会社ＰＡＲＵ,,合同会社,大阪府,大阪市中央区,南船場４丁目１０番５号南船場ＳＯＨＯビル７０２,,27,128,5420081,,,,,,,2026-02-02,1,,,,,パル,0
1609,6120101073134,新規,0,2026-02-02,2026-02-02,株式会社Ｍ’ｓＣＲＡＦＴ,,株式会社,大阪府,貝塚市,久保３丁目６－２９－１,,27,208,5970031,,,,,,,2026-02-02,1,,,,,エムズクラフト,0
1615,6130001081525,新規,0,2026-02-02,2026-02-02,株式会社Ｓｉｂｌｉｎｇｓ,,株式会社,京都府,京都市南区,西九条東島町２９－１３,,26,107,6018432,,,,,,,2026-02-02,1,,,,,シビリン,0
1616,6130001081533,新規,0,2026-02-02,2026-02-02,株式会社クローバー,,株式会社,京都府,宇治市,小倉町春日森１１番地の１,,26,204,6110042,,,,,,,2026-02-02,1,,,,,クローバー,0
1620,6140001141559,新規,0,2026-02-02,2026-02-02,株式会社アールイー,,株式会社,兵庫県,尼崎市,稲葉元町２丁目１番２０号,,28,202,6600055,,,,,,,2026-02-02,1,,,,,アールイー,0
1623,6140003023152,新規,0,2026-02-02,2026-02-02,合同会社トータスリアルティ,,合同会社,兵庫県,川西市,水明台３丁目５番地の４４,,28,217,6660116,,,,,,,2026-02-02,1,,,,,トータスリアルティ,0
1630,6180301040647,新規,0,2026-02-02,2026-02-02,株式会社ＡＩｂｅｘ,,株式会社,愛知県,高浜市,田戸町４丁目５番地３４,,23,227,4441323,,,,,,,2026-02-02,1,,,,,アイベックス,0
1631,6190001032869,新規,0,2026-02-02,2026-02-02,モリコシ企画株式会社,,株式会社,三重県,桑名市,柳原１３５番地３,,24,205,5110042,,,,,,,2026-02-02,1,,,,,モリコシキカク,0
1633,6190005012116,新規,0,2026-02-02,2026-02-02,一般財団法人ハウスクラフト建築財団,,その他の設立登記法人,三重県,四日市市,西浦１丁目７番７号尾西ビル４階,,24,202,5100071,,,,,,,2026-02-02,1,,,,,ハウスクラフトケンチクザイダン,0
1636,6240001066119,新規,0,2026-02-02,2026-02-02,株式会社あおぞら経営アドバイザリー,,株式会社,広島県,広島市中区,上幟町１番１６号,,34,101,7300014,,,,,,,2026-02-02,1,,,,,アオゾラケイエイアドバイザリー,0
1639,6240003007574,新規,0,2026-02-02,2026-02-02,合同会社リマックスピリット,,合同会社,広島県,広島市中区,西平塚町２－１６リマックビル,,34,101,7300024,,,,,,,2026-02-02,1,,,,,リマックスピリット,0
1640,6260001040947,新規,0,2026-02-02,2026-02-02,あっとほうむプラス株式会社,,株式会社,岡山県,倉敷市,真備町岡田８１５番地,,33,202,7101311,,,,,,,2026-02-02,1,,,,,アットホウムプラス,0
1646,6290001112941,新規,0,2026-02-02,2026-02-02,株式会社ＴＫＳ,,株式会社,福岡県,久留米市,天神町５２番地４ＴＳＵＫＡＳＡＢＬＤ．１Ｆ,,40,203,8300033,,,,,,,2026-02-02,1,,,,,ティーケイエス,0
1647,6290001112958,新規,0,2026-02-02,2026-02-02,プレナ株式会社,,株式会社,福岡県,福岡市中央区,薬院４丁目１８番５－１００２号エステートモア浄水通り,,40,133,8100022,,,,,,,2026-02-02,1,,,,,プレナ,0
1648,6290001112966,新規,0,2026-02-02,2026-02-02,株式会社Ｌｕｚｏｒａ,,株式会社,福岡県,久留米市,宮ノ陣４丁目２９番１１号,,40,203,8390801,,,,,,,2026-02-02,1,,,,,ルゾーラ,0
1649,6290001112982,新規,0,2026-02-02,2026-02-02,株式会社Ｓ,,株式会社,福岡県,春日市,春日原北町２丁目２４番地２ロワール春日原駅前弐番館６０２号,,40,218,8160802,,,,,,,2026-02-02,1,,,,,エス,0
1650,6290001112990,新規,0,2026-02-02,2026-02-02,株式会社オオカミの口,,株式会社,福岡県,福岡市西区,姪の浜６丁目３番３５号,,40,135,8190002,,,,,,,2026-02-02,1,,,,,オオカミノクチ,0
1654,6310001019944,新規,0,2026-02-02,2026-02-02,株式会社Ｎ．ＳＴＹＬＥ,,株式会社,長崎県,佐世保市,塩浜町７番１８号,,42,202,8570876,,,,,,,2026-02-02,1,,,,,エヌスタイル,0
1655,6310003005174,新規,0,2026-02-02,2026-02-02,合同会社一瀬瓦,,合同会社,長崎県,西海市,西彼町平山郷２２０３番地６,,42,212,8513425,,,,,,,2026-02-02,1,,,,,イチノセカワラ,0
1657,6320001021560,新規,0,2026-02-02,2026-02-02,株式会社ザイム,,株式会社,大分県,大分市,大字下郡３０５５番地の５パークサイド下ごおり北１５０４,,44,201,8700951,,,,,,,2026-02-02,1,,,,,ザイム,0
1665,6340005009939,新規,0,2026-02-02,2026-02-02,一般社団法人姶良・霧島を元気にする会,,その他の設立登記法人,鹿児島県,霧島市,隼人町見次１８６４番地２,,46,218,8995117,,,,,,,2026-02-02,1,,,,,アイラキリシマヲゲンキニスルカイ,0
1671,6370001053442,新規,0,2026-02-02,2026-02-02,株式会社トレジャーハント,,株式会社,宮城県,名取市,相互台東１丁目５番地の１,,04,207,9811248,,,,,,,2026-02-02,1,,,,,トレジャーハント,0
1675,6390001018237,新規,0,2026-02-02,2026-02-02,株式会社ＨＡＺＡＭＡ,,株式会社,山形県,山形市,上桜田１丁目１０番２３号フルラージュ西,,06,201,9902421,,,,,,,2026-02-02,1,,,,,ハザマ,0
1678,6400001017303,新規,0,2026-02-02,2026-02-02,株式会社ｉｍａ,,株式会社,岩手県,大船渡市,大船渡町字地ノ森２７番地１１Ｂ号棟,,03,203,0220002,,,,,,,2026-02-02,1,,,,,,0
1685,6430001096162,新規,0,2026-02-02,2026-02-02,株式会社ＳＨＥＥＰ　ＨＯＰＥ,,株式会社,北海道,札幌市中央区,北一条西１８丁目１番４１号クレバージャパン大通ビル２Ｆ,,01,101,0600001,,,,,,,2026-02-02,1,,,,,シープホープ,0
1686,6480001013071,新規,0,2026-02-02,2026-02-02,Ｈａｊｉｍｅ株式会社,,株式会社,徳島県,徳島市,かちどき橋３丁目１５番地の１４,,36,201,7700939,,,,,,,2026-02-02,1,,,,,ハジメ,0
1696,7010001262144,新規,0,2026-02-02,2026-02-02,宏地株式会社,,株式会社,東京都,中央区,新川２丁目１１－１八丁堀東豊エステート６０４,,13,102,1040033,,,,,,,2026-02-02,1,,,,,コウチ,0
1697,7010001262202,新規,0,2026-02-02,2026-02-02,ＡＬＣＯＭＯＴ株式会社,,株式会社,東京都,中央区,晴海５丁目５番３－１３０９号,,13,102,1040053,,,,,,,2026-02-02,1,,,,,アルコモット,0
1700,7010003050142,新規,0,2026-02-02,2026-02-02,合同会社プラス３号,,合同会社,東京都,中央区,日本橋箱崎町１６－１東益ビル６階,,13,102,1030015,,,,,,,2026-02-02,1,,,,,プラスサンゴウ,0
1701,7010003050217,新規,0,2026-02-02,2026-02-02,合同会社ＪＡＰＡＮ　ＩＮＮＯＶＡＴＯＲＳ２,,合同会社,東京都,千代田区,五番町６番地２,,13,101,1020076,,,,,,,2026-02-02,1,,,,,ジャパンイノベーターズツー,0
1702,7010003050225,新規,0,2026-02-02,2026-02-02,ホリデイＭＬ合同会社,,合同会社,東京都,千代田区,丸の内１丁目４番１号東京共同会計事務所内,,13,101,1000005,,,,,,,2026-02-02,1,,,,,ホリデイエムエル,0
1710,7010503008160,新規,0,2026-02-02,2026-02-02,合同会社ＳＯＴＥ,,合同会社,東京都,台東区,東上野３丁目３６番１０号佳家ヒルズ５０２号,,13,106,1100015,,,,,,,2026-02-02,1,,,,,ソート,0
1712,7010601068643,新規,0,2026-02-02,2026-02-02,株式会社Ｂｌｕｅ　Ｂｒｉｄｇｅ,,株式会社,東京都,墨田区,石原３丁目２番３号４階,,13,107,1300011,,,,,,,2026-02-02,1,,,,,ブルーブリッジ,0
1716,7010901058848,新規,0,2026-02-02,2026-02-02,株式会社いなび,,株式会社,東京都,世田谷区,等々力６丁目３番２０号,,13,112,1580082,,,,,,,2026-02-02,1,,,,,イナビ,0
1717,7010901058856,新規,0,2026-02-02,2026-02-02,ＰＲＡＣＥ株式会社,,株式会社,東京都,世田谷区,北沢５丁目３２番１７号ベール・ドゥーズ１０２,,13,112,1550031,,,,,,,2026-02-02,1,,,,,プレイス,0
1719,7010903010591,新規,0,2026-02-02,2026-02-02,合同会社ＫＯＫＹＯ　Ｔｒａｖｅｌ,,合同会社,東京都,世田谷区,桜新町２丁目１２番２３－１０８号,,13,112,1540015,,,,,,,2026-02-02,1,,,,,コキョウトラベル,0
1720,7010903010600,新規,0,2026-02-02,2026-02-02,合同会社ＥＮ,,合同会社,東京都,世田谷区,三宿１丁目４番７号,,13,112,1540005,,,,,,,2026-02-02,1,,,,,イーエン,0
1730,7011001175195,新規,0,2026-02-02,2026-02-02,株式会社トランショア,,株式会社,東京都,渋谷区,道玄坂１丁目１０番８号渋谷道玄坂東急ビル２Ｆ－Ｃ,,13,113,1500043,,,,,,,2026-02-02,1,,,,,トランショア,0
1731,7011001175220,新規,0,2026-02-02,2026-02-02,株式会社Ｋｏｓｈｏｍｅ,,株式会社,東京都,渋谷区,広尾１丁目２番地１号ヒカリビル４階,,13,113,1500012,,,,,,,2026-02-02,1,,,,,コスホーム,0
1733,7011003023443,新規,0,2026-02-02,2026-02-02,合同会社ハピハピレボリューション,,合同会社,東京都,渋谷区,円山町５番３号ＭＩＥＵＸ渋谷ビル８階,,13,113,1500044,,,,,,,2026-02-02,1,,,,,ハピハピレボリューション,0
1735,7011101114631,新規,0,2026-02-02,2026-02-02,株式会社食のめぶき,,株式会社,東京都,新宿区,西新宿３丁目３番１３号西新宿水間ビル６階,,13,104,1600023,,,,,,,2026-02-02,1,,,,,ショクノメブキ,0
1736,7011103016941,新規,0,2026-02-02,2026-02-02,合同会社ＬｉｏｎＲｏｃｋｅｔ　Ｊａｐａｎ,,合同会社,東京都,新宿区,西新宿３丁目３番１３号西新宿水間ビル６階,,13,104,1600023,,,,,,,2026-02-02,1,,,,,ライオンロケットジャパン,0
1753,7020003030003,新規,0,2026-02-02,2026-02-02,合同会社めぐみアミューズメント,,合同会社,神奈川県,横浜市西区,北幸２丁目１０番４８号むつみビル３階,,14,103,2200004,,,,,,,2026-02-02,1,,,,,メグミアミューズメント,0
1754,7020003030267,新規,0,2026-02-02,2026-02-02,サンライズ合同会社,,合同会社,神奈川県,横浜市神奈川区,斎藤分町２３番１７号,,14,102,2210811,,,,,,,2026-02-02,1,,,,,サンライズ,0
1755,7020003030275,新規,0,2026-02-02,2026-02-02,Ｍスタイル合同会社,,合同会社,神奈川県,横浜市港南区,日野２丁目４８番２７－３号,,14,111,2340051,,,,,,,2026-02-02,1,,,,,エムスタイル,0
1756,7020003030283,新規,0,2026-02-02,2026-02-02,合同会社Ｐｒｏｖｉｄｅｎｔｉａｌ　Ｍｏｍｅｎｔ,,合同会社,神奈川県,横浜市神奈川区,金港町５‐１４クアドリフォリオ８階,,14,102,2210056,,,,,,,2026-02-02,1,,,,,プロヴィデンシャルモーメント,0
1758,7021001087258,新規,0,2026-02-02,2026-02-02,株式会社リアンパートナーズ,,株式会社,神奈川県,藤沢市,高倉６３９番地８コスモＡｏｉ長後１－Ａ,,14,205,2520802,,,,,,,2026-02-02,1,,,,,リアンパートナーズ,0
1770,7030001170766,新規,0,2026-02-02,2026-02-02,株式会社永和フーズ,,株式会社,埼玉県,入間郡毛呂山町,大字川角１３０１－１,,11,326,3500436,,,,,,,2026-02-02,1,,,,,エイワフーズ,0
1788,7040005023003,新規,0,2026-02-02,2026-02-02,司法書士法人長谷川事務所,,その他の設立登記法人,千葉県,松戸市,根本４４７番地１長谷川ビル３階,,12,207,2710077,,,,,,,2026-02-02,1,,,,,ハセガワジムショ,0
1798,7070001043786,新規,0,2026-02-02,2026-02-02,株式会社フロース,,株式会社,群馬県,高崎市,小八木町３１２番地１５ビジネスパーク小八木２Ｆ,,10,202,3700071,,,,,,,2026-02-02,1,,,,,フロース,0
1867,7100001039310,新規,0,2026-02-02,2026-02-02,ＡＬＳ　Ｈｏｌｄｉｎｇｓ株式会社,,株式会社,長野県,北佐久郡軽井沢町,大字長倉３０３７番地１１,,20,321,3890111,,,,,,,2026-02-02,1,,,,,エーエルエスホールディングス,0
1872,7110001039870,新規,0,2026-02-02,2026-02-02,株式会社ＩＫＫＯＭＥ,,株式会社,新潟県,新潟市西区,善久８２３番地,,15,107,9501102,,,,,,,2026-02-02,1,,,,,イッコメ,0
1877,7120001283798,新規,0,2026-02-02,2026-02-02,ＨＥＦ株式会社,,株式会社,大阪府,大阪市平野区,平野本町３丁目５番１６号,,27,126,5470044,,,,,,,2026-02-02,1,,,,,エイチイーエフ,0
1878,7120001283872,新規,0,2026-02-02,2026-02-02,池田泉州インベストメント株式会社,,株式会社,大阪府,大阪市北区,茶屋町１８番１４号,,27,127,5300013,,,,,,,2026-02-02,1,,,,,イケダセンシュウインベストメント,0
1881,7120101073141,新規,0,2026-02-02,2026-02-02,千惠健康管理株式会社,,株式会社,大阪府,堺市南区,三木閉５７番地,,27,145,5900154,,,,,,,2026-02-02,1,,,,,チエケンコウカンリ,0
1886,7130001081400,新規,0,2026-02-02,2026-02-02,株式会社ＧＬＡＮＭＡ,,株式会社,京都府,京都市伏見区,深草北蓮池町９１５－２ルネ墨染７１２,,26,109,6120035,,,,,,,2026-02-02,1,,,,,グランマ,0
1905,7180301040646,新規,0,2026-02-02,2026-02-02,株式会社ＳＨＩＫＩＳＡＩ　ＨＯＭＥ,,株式会社,愛知県,豊橋市,石巻町字上屋敷２０番地１,,23,201,4411112,,,,,,,2026-02-02,1,,,,,シキサイホーム,0
1908,7200001044671,新規,0,2026-02-02,2026-02-02,株式会社源電気,,株式会社,岐阜県,可児市,下恵土７８８番地７,,21,214,5090203,,,,,,,2026-02-02,1,,,,,ミナモトデンキ,0
1909,7200003007214,新規,0,2026-02-02,2026-02-02,わんわん合同会社,,合同会社,岐阜県,高山市,花岡町３丁目５４番地６フラワーヒルズＥ棟Ｆ号室,,21,203,5060009,,,,,,,2026-02-02,1,,,,,ワンワン,0
1911,7220001027146,新規,0,2026-02-02,2026-02-02,株式会社ＣＣＩエンタベース,,株式会社,石川県,金沢市,広岡２丁目１２番６号,,17,201,9200031,,,,,,,2026-02-02,1,,,,,シーシーアイエンタベース,0
1917,7240003007573,新規,0,2026-02-02,2026-02-02,ＴＭＧ合同会社,,合同会社,広島県,尾道市,久保２丁目１４－１４,,34,205,7220045,,,,,,,2026-02-02,1,,,,,ティーエムジー,0
1921,7260001040946,新規,0,2026-02-02,2026-02-02,ストラタム株式会社,,株式会社,岡山県,倉敷市,平田７００番地１０,,33,202,7100003,,,,,,,2026-02-02,1,,,,,ストラタム,0
1922,7270003001838,新規,0,2026-02-02,2026-02-02,合同会社ＵＳＡＧＩ　ＬＡＢＯ,,合同会社,鳥取県,米子市,祇園町２丁目２４－１７,,31,202,6830047,,,,,,,2026-02-02,1,,,,,,0
1923,7280003002034,新規,0,2026-02-02,2026-02-02,合同会社ＶＩＳＩＯＮ　ＯＮＥ,,合同会社,島根県,出雲市,斐川町上直江３２９番地１,,32,203,6990624,,,,,,,2026-02-02,1,,,,,ビジョンワン,0
1934,7290003017989,新規,0,2026-02-02,2026-02-02,Ｋａｉｚｅｎ合同会社,,合同会社,福岡県,福岡市中央区,天神４丁目８番２号天神ビルプラス３階,,40,133,8100001,,,,,,,2026-02-02,1,,,,,カイゼン,0
1935,7290803005268,新規,0,2026-02-02,2026-02-02,合同会社ＢＬＣ,,合同会社,福岡県,直方市,大字中泉１１２０番地,,40,204,8220011,,,,,,,2026-02-02,1,,,,,ビーエルシー,0
1946,7360001036323,新規,0,2026-02-02,2026-02-02,株式会社ＯＲＡＮＧＥ　ＬＡＢＯ,,株式会社,沖縄県,うるま市,字西原６８番地１,,47,213,9042204,,,,,,,2026-02-02,1,,,,,オレンジラボ,0
1950,7370001053441,新規,0,2026-02-02,2026-02-02,株式会社Ｃｒｏｗｎ　Ｃｏａｓｔ,,株式会社,宮城県,仙台市泉区,南光台２丁目３番５号コーポファミリー２０６,,04,105,9818003,,,,,,,2026-02-02,1,,,,,クラウンコースト,0
1961,7430001096153,新規,0,2026-02-02,2026-02-02,株式会社ＴＫＣ,,株式会社,北海道,札幌市白石区,本通３丁目北４番１２－１０１号,,01,104,0030027,,,,,,,2026-02-02,1,,,,,テイケイシイ,0
1965,7480001013070,新規,0,2026-02-02,2026-02-02,株式会社Ｈａｊｉｍｅ　Ｆｏｏｄ,,株式会社,徳島県,徳島市,かちどき橋３丁目１５番地の１４,,36,201,7700939,,,,,,,2026-02-02,1,,,,,ハジメフード,0
1976,8010001262168,新規,0,2026-02-02,2026-02-02,株式会社Ｆｏｇｗａｒｄ,,株式会社,東京都,中央区,銀座１丁目１２番４号Ｎ＆ＥＢＬＤ．６Ｆ,,13,102,1040061,,,,,,,2026-02-02,1,,,,,フォグワード,0
1977,8010001262234,新規,0,2026-02-02,2026-02-02,株式会社Ｒｅｂｌｅｓｓ,,株式会社,東京都,千代田区,神田須田町１丁目７番８号ＶＯＲＴ秋葉原ＩＶ２Ｆ,00142412,13,101,1010041,,,,,,,2026-02-02,1,,,,,レブレス,0
1981,8010003050141,新規,0,2026-02-02,2026-02-02,合同会社プラス２号,,合同会社,東京都,中央区,日本橋箱崎町１６－１東益ビル６階,,13,102,1030015,,,,,,,2026-02-02,1,,,,,プラスニゴウ,0
1982,8010003050182,新規,0,2026-02-02,2026-02-02,ＢｌｕｅＭａｔｒｉｘ合同会社,,合同会社,東京都,千代田区,丸の内１丁目８番３号丸の内トラストタワー本館２０階,,13,101,1000005,,,,,,,2026-02-02,1,,,,,ブルーマトリックス,0
1985,8010005041312,新規,0,2026-02-02,2026-02-02,ＤＣ６一般社団法人,,その他の設立登記法人,東京都,中央区,新富１丁目１５番３号ジパングアウトソーシングサービス株式会社内,,13,102,1040041,,,,,,,2026-02-02,1,,,,,ディーシーシックス,0
1986,8010005041320,新規,0,2026-02-02,2026-02-02,エムエムワン一般社団法人,,その他の設立登記法人,東京都,千代田区,丸の内１丁目４番１号東京共同会計事務所内,,13,101,1000005,,,,,,,2026-02-02,1,,,,,エムエムワン,0
1991,8010403037184,新規,0,2026-02-02,2026-02-02,ネクストチャプター合同会社,,合同会社,東京都,港区,浜松町２丁目２番１５号浜松町ダイヤビル２Ｆ,,13,103,1050013,,,,,,,2026-02-02,1,,,,,ネクストチャプター,0
1992,8010403037201,新規,0,2026-02-02,2026-02-02,ＳＨＥＬＤＯＮ合同会社,,合同会社,東京都,港区,北青山１丁目３－３三橋ビル３階,,13,103,1070061,,,,,,,2026-02-02,1,,,,,シェルドン,0
1994,8010405025311,新規,0,2026-02-02,2026-02-02,ＷＬＪＭＦ４特定目的会社,,その他の設立登記法人,東京都,港区,虎ノ門５丁目１番４号,,13,103,1050001,,,,,,,2026-02-02,1,,,,,ダブリューエルジェイエムエフフォー,0
1995,8010601068626,新規,0,2026-02-02,2026-02-02,株式会社ＲＥＬＵＡ,,株式会社,東京都,江東区,豊洲５丁目１番１３－４６０４号,,13,108,1350061,,,,,,,2026-02-02,1,,,,,レルア,0
1996,8010601068650,新規,0,2026-02-02,2026-02-02,株式会社ＴＡＫグリーンエナジー,,株式会社,東京都,江東区,新砂１丁目１番１号,,13,108,1360075,,,,,,,2026-02-02,1,,,,,タックグリーンエナジー,0
1998,8010701048957,新規,0,2026-02-02,2026-02-02,株式会社アイガー,,株式会社,東京都,品川区,上大崎４丁目５番３３号,,13,109,1410021,,,,,,,2026-02-02,1,,,,,アイガー,0
1999,8010703008117,新規,0,2026-02-02,2026-02-02,ＩｔｅＯｐｔｉ合同会社,,合同会社,東京都,品川区,大井１丁目３１番１－１２１０号,,13,109,1400014,,,,,,,2026-02-02,1,,,,,イテオプティ,0
2001,8010801037018,新規,0,2026-02-02,2026-02-02,株式会社Ｒｅ　Ｖａｌｕｅ　Ｌａｂ,,株式会社,東京都,大田区,大森北６丁目７番４号,,13,111,1430016,,,,,,,2026-02-02,1,,,,,リバリューラボ,0
2004,8010901058855,新規,0,2026-02-02,2026-02-02,株式会社Ｈｕｂｂ,,株式会社,東京都,世田谷区,瀬田４丁目３５－１８,,13,112,1580095,,,,,,,2026-02-02,1,,,,,ハブ,0
2005,8010903010599,新規,0,2026-02-02,2026-02-02,ＥＫＭ合同会社,,合同会社,東京都,世田谷区,成城２丁目１８番７号,,13,112,1570066,,,,,,,2026-02-02,1,,,,,イーケーエム,0
2011,8011001175161,新規,0,2026-02-02,2026-02-02,株式会社ナニゴルフ,,株式会社,東京都,渋谷区,神宮前２丁目３２番３号ニチハタビルＢ１,,13,113,1500001,,,,,,,2026-02-02,1,,,,,ナニゴルフ,0
2012,8011001175178,新規,0,2026-02-02,2026-02-02,株式会社ＢＬＵＥＤＯＧ,,株式会社,東京都,渋谷区,道玄坂１丁目１０番８号渋谷道玄坂東急ビル２Ｆ－Ｃ,,13,113,1500043,,,,,,,2026-02-02,1,,,,,ブルードッグ,0
2013,8011001175269,新規,0,2026-02-02,2026-02-02,株式会社ＬＹＮＸ,,株式会社,東京都,渋谷区,広尾１丁目２番地１号ヒカリビル４階,,13,113,1500012,,,,,,,2026-02-02,1,,,,,リンクス,0
2019,8011101114829,新規,0,2026-02-02,2026-02-02,株式会社ビルゲート,,株式会社,東京都,新宿区,西新宿３丁目３番１３号西新宿水間ビル６階,,13,104,1600023,,,,,,,2026-02-02,1,,,,,ビルゲート,0
2020,8011103016940,新規,0,2026-02-02,2026-02-02,合同会社Ａｖｅｎｕｅ,,合同会社,東京都,新宿区,市谷薬王寺町４番８号１３０４号室,,13,104,1620063,,,,,,,2026-02-02,1,,,,,アヴェニュー,0
2021,8011103017039,新規,0,2026-02-02,2026-02-02,合同会社水軍,,合同会社,東京都,新宿区,西新宿７丁目２２番３１号柏木ＭＵＲＡ５０９,,13,104,1600023,,,,,,,2026-02-02,1,,,,,スイグン,0
2022,8011105011709,新規,0,2026-02-02,2026-02-02,一般社団法人ＳＰＣＡ　Ｔｏｋｙｏ,,その他の設立登記法人,東京都,新宿区,四谷坂町１２番２１号,,13,104,1600002,,,,,,,2026-02-02,1,,,,,エスピーシーエートウキョウ,0
2023,8011201026932,新規,0,2026-02-02,2026-02-02,株式会社ｓｔａｇｅ　Ｗ,,株式会社,東京都,中野区,中野５丁目６５番５号ＳＫ中野ビル２階,,13,114,1640001,,,,,,,2026-02-02,1,,,,,ステージダブリュー,0
2031,8011503006855,新規,0,2026-02-02,2026-02-02,アルブルアセットマネジメント合同会社,,合同会社,東京都,北区,滝野川６丁目２１番１－４０１号,,13,117,1140023,,,,,,,2026-02-02,1,,,,,アルブルアセットマネジメント,0
2033,8011801047394,新規,0,2026-02-02,2026-02-02,株式会社Ｄ‐ＳＣＯＰＥ,,株式会社,東京都,葛飾区,東金町６丁目１７－１５,,13,122,1250041,,,,,,,2026-02-02,1,,,,,ディースコープ,0
2039,8013103001526,新規,0,2026-02-02,2026-02-02,合同会社トラセント,,合同会社,東京都,西多摩郡奥多摩町,川井５９４,,13,308,1980102,,,,,,,2026-02-02,1,,,,,トラセント,0
2047,8020001166888,新規,0,2026-02-02,2026-02-02,株式会社ＵＲＵ,,株式会社,神奈川県,横浜市栄区,元大橋１丁目２７番１５号,,14,115,2470011,,,,,,,2026-02-02,1,,,,,ウル,0
2048,8020001166962,新規,0,2026-02-02,2026-02-02,株式会社ＳＳＪ,,株式会社,神奈川県,横浜市港北区,新吉田東７丁目２番１４号,,14,109,2230058,,,,,,,2026-02-02,1,,,,,エスエスジェイ,0
2053,8020003030233,新規,0,2026-02-02,2026-02-02,合同会社ＭＯＤＡＮ,,合同会社,神奈川県,川崎市多摩区,菅馬場１丁目２４番１６号,,14,135,2140004,,,,,,,2026-02-02,1,,,,,モダン,0
2054,8021001087397,新規,0,2026-02-02,2026-02-02,株式会社Ｙ＆Ｍ　ｐｌａｎｎｉｎｇ,,株式会社,神奈川県,藤沢市,川名１丁目３番２０～８０９号,,14,205,2510015,,,,,,,2026-02-02,1,,,,,ワイアンドエムプランニング,0
2058,8021003017096,新規,0,2026-02-02,2026-02-02,合同会社フラムソリューションズ,,合同会社,神奈川県,横須賀市,小川町１８番地３０ベルシャトゥ横須賀中央７０３,,14,201,2380004,,,,,,,2026-02-02,1,,,,,フラムソリューションズ,0
2063,8030001170765,新規,0,2026-02-02,2026-02-02,株式会社穂電,,株式会社,埼玉県,狭山市,大字南入曽７００番地の１０,,11,215,3501316,,,,,,,2026-02-02,1,,,,,ホノデン,0
2064,8030003028557,新規,0,2026-02-02,2026-02-02,合同会社グローバルアセット,,合同会社,埼玉県,ふじみ野市,元福岡２丁目９－１２,,11,245,3560008,,,,,,,2026-02-02,1,,,,,グローバルアセット,0
2067,8040001142284,新規,0,2026-02-02,2026-02-02,アイアイ不動産株式会社,,株式会社,千葉県,船橋市,本中山２丁目２３番６号ジュネパレス５階,,12,204,2730035,,,,,,,2026-02-02,1,,,,,アイアイフドウサン,0
2068,8040001142301,新規,0,2026-02-02,2026-02-02,Ｔａｏｃａｒｓ　Ｊａｐａｎ株式会社,,株式会社,千葉県,松戸市,西馬橋蔵元町５５番地,,12,207,2710046,,,,,,,2026-02-02,1,,,,,トーカースジャパン,0
2069,8040005023019,新規,0,2026-02-02,2026-02-02,医療法人社団應美会,,その他の設立登記法人,千葉県,袖ケ浦市,袖ケ浦駅前２丁目３６番地４,,12,229,2990269,,,,,,,2026-02-02,1,,,,,オウビカイ,0
2074,8080101026053,新規,0,2026-02-02,2026-02-02,株式会社ＳＵＮＮＹ,,株式会社,静岡県,熱海市,渚町１１番１３号,,22,205,4130014,,,,,,,2026-02-02,1,,,,,サニー,0
2076,8080401028419,新規,0,2026-02-02,2026-02-02,大獅子株式会社,,株式会社,静岡県,掛川市,肴町１０－２,,22,213,4360078,,,,,,,2026-02-02,1,,,,,オオジシ,0
2135,8110005017319,新規,0,2026-02-02,2026-02-02,一般社団法人プレイフル,,その他の設立登記法人,新潟県,糸魚川市,大字東川原３４番地２,,15,216,9410027,,,,,,,2026-02-02,1,,,,,プレイフル,0
2141,8120001283797,新規,0,2026-02-02,2026-02-02,ＴＯＫＩＷＡ株式会社,,株式会社,大阪府,大阪市中央区,鎗屋町１丁目１－３－５Ｆ,,27,128,5400027,,,,,,,2026-02-02,1,,,,,トキワ,0
2142,8120001283814,新規,0,2026-02-02,2026-02-02,株式会社リーチオペレーション,,株式会社,大阪府,大阪市淀川区,木川西３丁目３番１８－６０４号,,27,123,5320013,,,,,,,2026-02-02,1,,,,,リーチオペレーション,0
2143,8120001283839,新規,0,2026-02-02,2026-02-02,ＩＮＢＡＹＪＡＮ株式会社,,株式会社,大阪府,大阪市西区,新町３丁目６番３号ジオタワー新町２１０３号室,,27,106,5500013,,,,,,,2026-02-02,1,,,,,エイベイジェン,0
2144,8120001283855,新規,0,2026-02-02,2026-02-02,株式会社スリーサイド,,株式会社,大阪府,大阪市福島区,福島２丁目６番５号ＡＫパレス１Ｆ,,27,103,5530003,,,,,,,2026-02-02,1,,,,,スリーサイド,0
2147,8120003031675,新規,0,2026-02-02,2026-02-02,オヤスミアイスホテル合同会社,,合同会社,大阪府,大阪市中央区,難波２丁目３－２,,27,128,5420076,,,,,,,2026-02-02,1,,,,,オヤスミアイスホテル,0
2148,8120003031816,新規,0,2026-02-02,2026-02-02,合同会社ＫＳ．Ｅｆｆｏｒｔ,,合同会社,大阪府,枚方市,宮之阪５丁目１８番５号,,27,210,5730022,,,,,,,2026-02-02,1,,,,,ケーズエフォート,0
2149,8120003031824,新規,0,2026-02-02,2026-02-02,合同会社イノヴァーレ,,合同会社,大阪府,大阪市北区,中崎西３丁目１番１２－８３１号,,27,127,5300015,,,,,,,2026-02-02,1,,,,,イノヴァーレ,0
2152,8120101073124,新規,0,2026-02-02,2026-02-02,株式会社ＡＢＣ,,株式会社,大阪府,泉大津市,板原町３丁目５番２３号,,27,206,5950033,,,,,,,2026-02-02,1,,,,,エービーシー,0
2153,8120101073140,新規,0,2026-02-02,2026-02-02,翔宇健康管理株式会社,,株式会社,大阪府,堺市南区,三木閉５７番地,,27,145,5900154,,,,,,,2026-02-02,1,,,,,ショウウケンコウカンリ,0
2160,8130001081531,新規,0,2026-02-02,2026-02-02,株式会社Ｊｕｎｗａ,,株式会社,京都府,亀岡市,安町釜ケ前２３－５アイディール・アザレア５０４,,26,206,6210805,,,,,,,2026-02-02,1,,,,,ジュンワ,0
2167,8140005027785,新規,0,2026-02-02,2026-02-02,一般社団法人加古川ＢＵＫＡＴＳＵユナイテッド,,その他の設立登記法人,兵庫県,神戸市中央区,磯辺通１丁目１番１８号カサベラ国際プラザビル７０７号室,,28,110,6510084,,,,,,,2026-02-02,1,,,,,カコガワブカツユナイテッド,0
2172,8180003029689,新規,0,2026-02-02,2026-02-02,合同会社Ｙ＆Ｋ,,合同会社,愛知県,稲沢市,平和町勝幡新田１９７－１,,23,220,4901323,,,,,,,2026-02-02,1,,,,,ワイアンドケイ,0
2173,8180003029714,新規,0,2026-02-02,2026-02-02,合同会社ＲＩＳＥ,,合同会社,愛知県,名古屋市中区,錦２丁目６番６号名和丸の内ビル４Ｃ,,23,106,4600003,,,,,,,2026-02-02,1,,,,,ライズ,0
2176,8200001044670,新規,0,2026-02-02,2026-02-02,株式会社麺屋赤橙ＣＫ,,株式会社,岐阜県,岐阜市,安良田町４丁目４１番地１ＣＳビル１Ｆ,,21,201,5008401,,,,,,,2026-02-02,1,,,,,メンヤアカダイダイシーケー,0
2180,8210001020480,新規,0,2026-02-02,2026-02-02,ルーツワン株式会社,,株式会社,福井県,坂井市,春江町西長田第４７号２５番地１,,18,210,9190404,,,,,,,2026-02-02,1,,,,,ルーツワン,0
2183,8230001021270,新規,0,2026-02-02,2026-02-02,株式会社ＩＣＨＩ,,株式会社,富山県,射水市,布目沢３６３,,16,211,9390418,,,,,,,2026-02-02,1,,,,,イチ,0
2188,8240001066117,新規,0,2026-02-02,2026-02-02,エマーリンク株式会社,,株式会社,広島県,広島市安佐南区,東野３丁目２４番７号Ｃ－２,,34,105,7310111,,,,,,,2026-02-02,1,,,,,エマーリンク,0
2189,8250003003892,新規,0,2026-02-02,2026-02-02,合同会社風見鶏,,合同会社,山口県,山口市,大内千坊２丁目８番５号,,35,203,7530251,,,,,,,2026-02-02,1,,,,,カザミドリ,0
2190,8260001040945,新規,0,2026-02-02,2026-02-02,株式会社岡山県貸切バス手配センター,,株式会社,岡山県,岡山市北区,柳町２丁目６番２５号朝日生命岡山柳町ビル５階,,33,101,7000904,,,,,,,2026-02-02,1,,,,,オカヤマケンカシキリバステハイセンター,0
2191,8260005011570,新規,0,2026-02-02,2026-02-02,マリンファーム協同組合,,その他の設立登記法人,岡山県,岡山市北区,西古松２丁目３－８オムＩＶビル２Ｆ,00142422,33,101,7000927,,,,,,,2026-02-02,1,,,,,マリンファーム,0
2200,8290001112956,新規,0,2026-02-02,2026-02-02,株式会社ＮＡＧＡＴＯＭＯ,,株式会社,福岡県,久留米市,東合川３丁目１０番１０号,,40,203,8390809,,,,,,,2026-02-02,1,,,,,ナガトモ,0
2201,8290001112964,新規,0,2026-02-02,2026-02-02,３ＸＮＥＴ株式会社,,株式会社,福岡県,福岡市早良区,次郎丸６丁目５番１－２０６号,,40,137,8140165,,,,,,,2026-02-02,1,,,,,スリーエックスネット,0
2202,8290001112980,新規,0,2026-02-02,2026-02-02,株式会社Ｎｅｘｔ　Ｕｔｉｌｉｔｙ　Ｋｎｏｗｌｅｄｇｅ　Ｉｎｎｏｖａｔｉｏｎ　Ｃｏｎｓｕｌｔｉｎｇ,,株式会社,福岡県,福岡市中央区,天神４丁目６番２８号いちご天神ノースビル７階,,40,133,8100001,,,,,,,2026-02-02,1,,,,,ネクストユーティリティナレッジイノベーションコンサルティング,0
2203,8290003017996,新規,0,2026-02-02,2026-02-02,アトモスフィア合同会社,,合同会社,福岡県,福岡市博多区,博多駅前１丁目２３番２号ＰａｒｋＦｒｏｎｔ博多駅前１丁目５Ｆ－Ｂ,,40,132,8120011,,,,,,,2026-02-02,1,,,,,アトモスフィア,0
2210,8320003004891,新規,0,2026-02-02,2026-02-02,Ｍｅｔｔｉｔｅｃｈ　Ｇｒｏｕｐ　Ｊａｐａｎ合同会社,,合同会社,大分県,別府市,田の湯町３番７号６Ｆ５,,44,202,8740909,,,,,,,2026-02-02,1,,,,,メティテックグループジャパン,0
2216,8360003015588,新規,0,2026-02-02,2026-02-02,合同会社果報,,合同会社,沖縄県,宜野湾市,長田１丁目１５番２８号,,47,205,9012212,,,,,,,2026-02-02,1,,,,,カホウ,0
2222,8370001053432,新規,0,2026-02-02,2026-02-02,さいと高原牧場株式会社,,株式会社,宮城県,遠田郡涌谷町,成沢字古清水１５番地,,04,501,9870286,,,,,,,2026-02-02,1,,,,,サイトコウゲンボクジョウ,0
2235,8450003002767,新規,0,2026-02-02,2026-02-02,合同会社ＭＭＨ,,合同会社,北海道,旭川市,七条通２１丁目１０６番地の１５,,01,204,0788217,,,,,,,2026-02-02,1,,,,,,0
2240,8700150134263,新規,0,2026-02-02,2026-02-02,ＭＭＭ７実行委員会,,その他,沖縄県,八重山郡竹富町,字上原８７０　琉球大学熱帯生物圏研究センター西表研究施設内　ＭＭＭ７実行委員会事務局,,47,381,9071541,,,,,,,2026-02-02,1,,,,,エムエムエムセブンジッコウイインカイ,0
2248,9010001262084,新規,0,2026-02-02,2026-02-02,株式会社ＤｉＡｎｃｈｏｒ,,株式会社,東京都,中央区,銀座１丁目１２番４号Ｎ＆ＥＢＬＤ．６Ｆ,,13,102,1040061,,,,,,,2026-02-02,1,,,,,ディアンカー,0
2249,9010001262308,新規,0,2026-02-02,2026-02-02,ＫＯＫＯＲＯＩＤＯ株式会社,,株式会社,東京都,文京区,千石４丁目３９番１４号,,13,105,1120011,,,,,,,2026-02-02,1,,,,,ココロイド,0
2250,9010001262365,新規,0,2026-02-02,2026-02-02,株式会社ＣＨＡＲＧＥ,,株式会社,東京都,千代田区,神田須田町１丁目７番地８－２Ｆ,,13,101,1010041,,,,,,,2026-02-02,1,,,,,チャージ,0
2251,9010001262407,新規,0,2026-02-02,2026-02-02,アセットプラス株式会社,,株式会社,東京都,千代田区,丸の内１丁目６番６号日本生命丸の内ビル２１Ｆ,,13,101,1000005,,,,,,,2026-02-02,1,,,,,アセットプラス,0
2252,9010001262431,新規,0,2026-02-02,2026-02-02,株式会社ＢＣＪ‐１０１,,株式会社,東京都,千代田区,丸の内１丁目１番１号パレスビル５階,,13,101,1000005,,,,,,,2026-02-02,1,,,,,ビーシージェイワンハンドレッドワン,0
2254,9010003050074,新規,0,2026-02-02,2026-02-02,ＡｉＣ合同会社,,合同会社,東京都,千代田区,二番町１番地２号番町ハイム４０４号室,,13,101,1020084,,,,,,,2026-02-02,1,,,,,エイアイシー,0
2255,9010003050140,新規,0,2026-02-02,2026-02-02,合同会社プラス１号,,合同会社,東京都,中央区,日本橋箱崎町１６－１東益ビル６階,,13,102,1030015,,,,,,,2026-02-02,1,,,,,プラスイチゴウ,0
2262,9010401196205,新規,0,2026-02-02,2026-02-02,株式会社星空オフィス,,株式会社,東京都,港区,元赤坂１丁目６番２－１９０４号,,13,103,1070051,,,,,,,2026-02-02,1,,,,,ホシゾラオフィス,0
2271,9010701048964,新規,0,2026-02-02,2026-02-02,株式会社アーク,,株式会社,東京都,品川区,大崎４丁目１２番２号,,13,109,1410032,,,,,,,2026-02-02,1,,,,,アーク,0
2272,9010701048972,新規,0,2026-02-02,2026-02-02,株式会社ＴＡＴＡＭＵ,,株式会社,東京都,品川区,西品川３丁目２１番８号インザガーデン１１０２,,13,109,1410033,,,,,,,2026-02-02,1,,,,,タタム,0
2276,9011001175152,新規,0,2026-02-02,2026-02-02,株式会社ｏｄｅｕｒ　ｄｅ　ｔｒａｃｅ,,株式会社,東京都,渋谷区,恵比寿４丁目２０－３ガーデンプレイスタワー１８階,,13,113,1500013,,,,,,,2026-02-02,1,,,,,オデュールデトレース,0
2277,9011001175169,新規,0,2026-02-02,2026-02-02,株式会社日本価値創造パートナーズ,,株式会社,東京都,渋谷区,円山町５番３号ＭＩＥＵＸ渋谷ビル８階,,13,113,1500044,,,,,,,2026-02-02,1,,,,,ニホンカチソウゾウパートナーズ,0
2278,9011001175185,新規,0,2026-02-02,2026-02-02,株式会社メンズビオ,,株式会社,東京都,渋谷区,神南１丁目１１番４号ＦＰＧリンクス神南５階,,13,113,1500041,,,,,,,2026-02-02,1,,,,,メンズビオ,0
2279,9011001175193,新規,0,2026-02-02,2026-02-02,株式会社エストゥルース・インシュアランス,,株式会社,東京都,渋谷区,円山町３番６号Ｅ・スペースタワー５階,,13,113,1500044,,,,,,,2026-02-02,1,,,,,エストゥルースインシュアランス,0
2280,9011001175210,新規,0,2026-02-02,2026-02-02,株式会社ＲｉＳＥ‐Ｂｅ,,株式会社,東京都,目黒区,目黒１丁目１１－２,,13,110,1530063,,,,,,,2026-02-02,1,,,,,ライズビー,0
2281,9011001175227,新規,0,2026-02-02,2026-02-02,Ｇｅｎｉｅ株式会社,,株式会社,東京都,渋谷区,恵比寿１丁目２０番２号,,13,113,1500013,,,,,,,2026-02-02,1,,,,,ジーニー,0
2282,9011001175243,新規,0,2026-02-02,2026-02-02,株式会社青空企画,,株式会社,東京都,渋谷区,道玄坂１丁目１０番８号渋谷道玄坂東急ビル２Ｆ－Ｃ,,13,113,1500043,,,,,,,2026-02-02,1,,,,,アオゾラキカク,0
2283,9011001175268,新規,0,2026-02-02,2026-02-02,株式会社コンテンツメーカー,,株式会社,東京都,渋谷区,神南１丁目１１－４ＦＰＧリンクス神南５階,,13,113,1500041,,,,,,,2026-02-02,1,,,,,コンテンツメーカー,0
2285,9011003023425,新規,0,2026-02-02,2026-02-02,合同会社４ｔｈ　ｄｅｓｉｇｎ．ｓｔｕｄｉｏ,,合同会社,東京都,渋谷区,道玄坂１丁目１０番８号渋谷道玄坂東急ビル２Ｆ－Ｃ,,13,113,1500043,,,,,,,2026-02-02,1,,,,,フォースデザインスタジオ,0
2286,9011003023466,新規,0,2026-02-02,2026-02-02,Ｍｏｔｏ合同会社,,合同会社,東京都,渋谷区,広尾１丁目２番地１号ヒカリビル４階,,13,113,1500012,,,,,,,2026-02-02,1,,,,,モト,0
2291,9011101114571,新規,0,2026-02-02,2026-02-02,株式会社ＤＧ　Ｌａｂ,,株式会社,東京都,新宿区,西新宿３丁目３番１３号西新宿水間ビル２Ｆ,,13,104,1600023,,,,,,,2026-02-02,1,,,,,ディージーラボ,0
2292,9011101114605,新規,0,2026-02-02,2026-02-02,アルプロス・ティーチライズメディア株式会社,,株式会社,東京都,新宿区,西新宿３丁目７番３０号フロンティアグラン西新宿８階,,13,104,1600023,,,,,,,2026-02-02,1,,,,,アルプロスティーチライズメディア,0
2293,9011103017038,新規,0,2026-02-02,2026-02-02,合同会社カタカナ事務所,,合同会社,東京都,新宿区,新宿５丁目１０番１０号海老沢ビル２０２,,13,104,1600022,,,,,,,2026-02-02,1,,,,,カタカナジムショ,0
2297,9011405002423,新規,0,2026-02-02,2026-02-02,一般社団法人ノヴァエナジー,,その他の設立登記法人,東京都,板橋区,上板橋１丁目１９番１６号,,13,119,1740076,,,,,,,2026-02-02,1,,,,,ノヴァエナジー,0
2299,9011701029137,新規,0,2026-02-02,2026-02-02,株式会社ＩＴＦ,,株式会社,東京都,江戸川区,上篠崎２丁目１７番３号,,13,123,1330054,,,,,,,2026-02-02,1,,,,,アイティーエフ,0
2309,9012805003390,新規,0,2026-02-02,2026-02-02,一般社団法人百草ＬＡＢＯ協議会,,その他の設立登記法人,東京都,日野市,三沢１２９１番地の１ルイシャトレ百草園ヒルズ８０６,,13,212,1910032,,,,,,,2026-02-02,1,,,,,モグサラボキョウギカイ,0
2312,9020001166887,新規,0,2026-02-02,2026-02-02,ＩＭ株式会社,,株式会社,神奈川県,横浜市港南区,大久保２丁目２番２１号,,14,111,2330007,,,,,,,2026-02-02,1,,,,,アイエム,0
2316,9020003030265,新規,0,2026-02-02,2026-02-02,合同会社航真海,,合同会社,神奈川県,横浜市緑区,三保町１９１６番地２８,,14,113,2260015,,,,,,,2026-02-02,1,,,,,コウマカイ,0
2319,9021001087405,新規,0,2026-02-02,2026-02-02,株式会社湘南しり餅,,株式会社,神奈川県,鎌倉市,津西１丁目１１番１号,,14,204,2480034,,,,,,,2026-02-02,1,,,,,ショウナンシリモチ,0
2320,9021001087421,新規,0,2026-02-02,2026-02-02,株式会社ｍｕｒｕ,,株式会社,神奈川県,藤沢市,立石２丁目５番５号,,14,205,2510872,,,,,,,2026-02-02,1,,,,,ムル,0
2324,9021003017095,新規,0,2026-02-02,2026-02-02,合同会社谷戸の風社,,合同会社,神奈川県,海老名市,望地２丁目２０番２号,,14,215,2430403,,,,,,,2026-02-02,1,,,,,ヤトノカゼシャ,0
2330,9030001170772,新規,0,2026-02-02,2026-02-02,株式会社ヤマショウアグリＴＥＣ,,株式会社,埼玉県,上尾市,日の出２丁目８番５号,,11,219,3620032,,,,,,,2026-02-02,1,,,,,ヤマショウアグリテック,0
2337,9030003028556,新規,0,2026-02-02,2026-02-02,合同会社モアリス,,合同会社,埼玉県,ふじみ野市,福岡３丁目１１－１５,,11,245,3560011,,,,,,,2026-02-02,1,,,,,モアリス,0
2339,9040001142283,新規,0,2026-02-02,2026-02-02,株式会社翠ワークス,,株式会社,千葉県,千葉市花見川区,こてはし台４丁目１１番１号,,12,102,2620005,,,,,,,2026-02-02,1,,,,,スイワークス,0
2350,9080003003645,新規,0,2026-02-02,2026-02-02,合同会社馬走プランニング,,合同会社,静岡県,静岡市清水区,北脇２０３番地の１,,22,103,4240052,,,,,,,2026-02-02,1,,,,,マバセプランニング,0
2405,9090005007759,新規,0,2026-02-02,2026-02-02,一般社団法人五条ヶ丘活性化推進協議会,,その他の設立登記法人,山梨県,南巨摩郡身延町,常葉４３９番地,,19,365,4092936,,,,,,,2026-02-02,1,,,,,ゴジョウガオカカッセイカスイシンキョウギカイ,0
2416,9120005025377,新規,0,2026-02-02,2026-02-02,医療法人津村会,,その他の設立登記法人,大阪府,大阪市北区,曾根崎２丁目３番２号梅新スクエアビル７階,,27,127,5300057,,,,,,,2026-02-02,1,,,,,ツムラカイ,0
2421,9122001040145,新規,0,2026-02-02,2026-02-02,株式会社ＺＯＯ,,株式会社,大阪府,東大阪市,西鴻池町１丁目２－３４,,27,227,5780976,,,,,,,2026-02-02,1,,,,,ズー,0
2428,9130001081539,新規,0,2026-02-02,2026-02-02,株式会社阪田製茶場,,株式会社,京都府,久世郡久御山町,佐山栗ノ脇２９番地,,26,322,6130034,,,,,,,2026-02-02,1,,,,,サカタセイチャジョウ,0
2434,9140001141548,新規,0,2026-02-02,2026-02-02,株式会社グロウパス,,株式会社,兵庫県,明石市,魚住町清水１１１番地の１ライオンズマンション４０１号,,28,203,6740074,,,,,,,2026-02-02,1,,,,,グロウパス,0
2435,9140001141564,新規,0,2026-02-02,2026-02-02,株式会社オト・ランドロード,,株式会社,兵庫県,加古川市,加古川町寺家町６２１ＪＡビル２Ｆ,,28,210,6750066,,,,,,,2026-02-02,1,,,,,オトランドロード,0
2438,9140003023141,新規,0,2026-02-02,2026-02-02,合同会社恵美酒商会,,合同会社,兵庫県,姫路市,青山北３丁目２１－２－２０３号,,28,201,6712221,,,,,,,2026-02-02,1,,,,,エビスショウカイ,0
2446,9180001170428,新規,0,2026-02-02,2026-02-02,株式会社ＦＡＳＲｉｎｇｓ,,株式会社,愛知県,名古屋市中村区,名駅３丁目４－１０アルティメイト名駅１ｓｔ２階,,23,105,4500002,,,,,,,2026-02-02,1,,,,,ファスリングス,0
2448,9190003005341,新規,0,2026-02-02,2026-02-02,合同会社一番星,,合同会社,三重県,津市,久居西鷹跡町５５８番地,,24,201,5141131,,,,,,,2026-02-02,1,,,,,イチバンボシ,0
2452,9220003004216,新規,0,2026-02-02,2026-02-02,合同会社エヌトラスコ,,合同会社,石川県,河北郡津幡町,字横浜い３３番地１,,17,361,9290341,,,,,,,2026-02-02,1,,,,,エヌトラスコ,0
2454,9240001066124,新規,0,2026-02-02,2026-02-02,株式会社地域経営推進機構,,株式会社,広島県,広島市中区,橋本町９番７号５階,,34,101,7300015,,,,,,,2026-02-02,1,,,,,チイキケイザイスイシンキコウ,0
2456,9260001040936,新規,0,2026-02-02,2026-02-02,株式会社Ｇｌｏｗ,,株式会社,岡山県,倉敷市,林５１８番地８,,33,202,7100142,,,,,,,2026-02-02,1,,,,,グロウ,0
2464,9290001112947,新規,0,2026-02-02,2026-02-02,株式会社ＷＡＢＢＹ,,株式会社,福岡県,福岡市早良区,百道浜３丁目９－３３グランドメゾン百道浜オーシャン＆フォレスト１６０６,,40,137,8140001,,,,,,,2026-02-02,1,,,,,ワビー,0
2465,9290001112963,新規,0,2026-02-02,2026-02-02,株式会社クライン,,株式会社,福岡県,福岡市中央区,天神２丁目２番１２号Ｔ＆Ｊビルディング７Ｆ,,40,133,8100001,,,,,,,2026-02-02,1,,,,,クライン,0
2466,9290001112971,新規,0,2026-02-02,2026-02-02,株式会社木場機材,,株式会社,福岡県,久留米市,東合川４丁目１２番２号,,40,203,8390809,,,,,,,2026-02-02,1,,,,,コバキザイ,0
2469,9290003017995,新規,0,2026-02-02,2026-02-02,合同会社健,,合同会社,福岡県,うきは市,浮羽町新川４０３５番地１,,40,225,8391413,,,,,,,2026-02-02,1,,,,,ケン,0
2471,9290005019981,新規,0,2026-02-02,2026-02-02,一般社団法人Ｕｎｉｖｅｒｓｉｔｙ　Ｃｌｕｂ　Ｆｕｎｄ,,その他の設立登記法人,福岡県,福岡市中央区,六本松２丁目５－１ＴＨＥ・ＧＲＯＶＥ５Ｆ,,40,133,8100044,,,,,,,2026-02-02,1,,,,,ユニバーシティクラブファンド,0
2478,9320001021558,新規,0,2026-02-02,2026-02-02,株式会社一廣,,株式会社,大分県,臼杵市,野津町大字野津市２３７２番地,,44,206,8750201,,,,,,,2026-02-02,1,,,,,イチヒロ,0
2483,9330003011408,新規,0,2026-02-02,2026-02-02,合同会社Ｒａｄｉａｎｔ　Ｍ　Ｍｅｄｉｃａｌ,,合同会社,熊本県,合志市,豊岡２５２７番地４８９,,43,216,8611115,,,,,,,2026-02-02,1,,,,,ラディアントエムメディカル,0
2484,9350001019921,新規,0,2026-02-02,2026-02-02,株式会社ヒザシテラス,,株式会社,宮崎県,宮崎市,瀬頭１丁目１番１８号オーシャン瀬頭４０２号,,45,201,8800867,,,,,,,2026-02-02,1,,,,,ヒザシテラス,0
2488,9360001036313,新規,0,2026-02-02,2026-02-02,株式会社ＣＯＲＥ　ＴＲＵＳＴ,,株式会社,沖縄県,名護市,大中１丁目３番１５号山島マンション２０３,,47,209,9050017,,,,,,,2026-02-02,1,,,,,コアトラスト,0
2489,9370001053431,新規,0,2026-02-02,2026-02-02,じんせき高原牧場株式会社,,株式会社,宮城県,遠田郡涌谷町,成沢字古清水１５番地,,04,501,9870286,,,,,,,2026-02-02,1,,,,,ジンセキコウゲンボクジョウ,0
2492,9380001035791,新規,0,2026-02-02,2026-02-02,ＢｏｎＢｏｎ株式会社,,株式会社,福島県,福島市,飯坂町字星宮５１番地の６星宮荘３号室,,07,201,9600201,,,,,,,2026-02-02,1,,,,,ボンボン,0
2494,9390003002491,新規,0,2026-02-02,2026-02-02,合同会社Ｎｅｘｕｓ,,合同会社,山形県,酒田市,みずほ１丁目１５番地の１,,06,204,9980853,,,,,,,2026-02-02,1,,,,,ネクサス,0
2495,9390005009155,新規,0,2026-02-02,2026-02-02,一般社団法人ＤＲＴ‐ＪＡＰＡＮ　ＹＡＭＡＧＡＴＡ,,その他の設立登記法人,山形県,米沢市,八幡原２丁目４４４番地の７,,06,202,9921128,,,,,,,2026-02-02,1,,,,,ディーアールティージャパンヤマガタ,0
