sequenceNumber,corporateNumber,process,correct,updateDate,changeDate,name,nameImageId,kind,prefectureName,cityName,streetNumber,addressImageId,prefectureCode,cityCode,postCode,addressOutside,addressOutsideImageId,closeDate,closeCause,successorCorporateNumber,changeCause,assignmentDate,latest,enName,enPrefectureName,enCityName,enAddressOutside,furigana,hihyoji
13,1010001220561,新規,0,2021-08-20,2021-08-20,株式会社ハングリープライド,,株式会社,東京都,千代田区,内神田２丁目４－３アムス大手町１１０２,,13,101,1010047,,,,,,,2021-08-20,1,,,,,ハングリープライド,0
15,1010003035636,新規,0,2021-08-20,2021-08-20,エクセレント・ドラゴン合同会社,,合同会社,東京都,中央区,晴海３丁目１３－２Ｗ４１１４,,13,102,1040053,,,,,,,2021-08-20,1,,,,,エクセレントドラゴン,0
26,1010401162206,新規,0,2021-08-20,2021-08-20,株式会社大入ホールディングス,,株式会社,東京都,港区,愛宕２丁目５番１号,,13,103,1050002,,,,,,,2021-08-20,1,,,,,オオイリホールディングス,0
29,1010405020129,新規,0,2021-08-20,2021-08-20,虎ノ門ワン特定目的会社,,その他の設立登記法人,東京都,港区,虎ノ門３丁目２２番１０－２０１号,,13,103,1050001,,,,,,,2021-08-20,1,,,,,トラノモンワン,0
30,1010501047686,新規,0,2021-08-20,2021-08-20,サンソニック東京株式会社,,株式会社,東京都,台東区,入谷２丁目２７－８ハイツゆう１階,,13,106,1100013,,,,,,,2021-08-20,1,,,,,サンソニックトウキョウ,0
44,1010901049299,新規,0,2021-08-20,2021-08-20,株式会社マイ・ライフワーク,,株式会社,東京都,世田谷区,深沢４丁目１番１－２０２号,,13,112,1580081,,,,,,,2021-08-20,1,,,,,マイライフワーク,0
48,1011001142341,新規,0,2021-08-20,2021-08-20,株式会社Ｘホールディングス,,株式会社,東京都,渋谷区,渋谷３丁目１０番１３号,,13,113,1500002,,,,,,,2021-08-20,1,,,,,テンホールディングス,0
49,1011003013235,新規,0,2021-08-20,2021-08-20,ＳＣＲＩＴＡＳ合同会社,,合同会社,東京都,渋谷区,円山町５番１８号道玄坂スクエア９０３号,,13,113,1500044,,,,,,,2021-08-20,1,,,,,スクリタス,0
61,1011801039605,新規,0,2021-08-20,2021-08-20,フリップコード株式会社,,株式会社,東京都,葛飾区,新小岩２丁目２－２２,,13,122,1240024,,,,,,,2021-08-20,1,,,,,フリップコード,0
64,1012401038220,新規,0,2021-08-20,2021-08-20,株式会社Ｎ,,株式会社,東京都,武蔵野市,吉祥寺本町１丁目３１番１３号アサカビル６Ｆ,,13,203,1800004,,,,,,,2021-08-20,1,,,,,エヌ,0
75,1020001142664,新規,0,2021-08-20,2021-08-20,株式会社Ｂ９．ｅｄｕｃａｔｉｏｎ,,株式会社,神奈川県,横浜市鶴見区,元宮１丁目９－３９,,14,101,2300004,,,,,,,2021-08-20,1,,,,,ビーナインエデュケーション,0
76,1020005015172,新規,0,2021-08-20,2021-08-20,一般社団法人ＢＵＹ　ＯＮＥ　ＳＡＶＥ　ＯＮＥ,,その他の設立登記法人,神奈川県,川崎市麻生区,片平２丁目６番３０号バースシティー柿生ヒルズ５０２,,14,137,2150023,,,,,,,2021-08-20,1,,,,,バイワンセーブワン,0
85,1030001143892,新規,0,2021-08-20,2021-08-20,株式会社ＣＡＣ,,株式会社,埼玉県,さいたま市大宮区,三橋１丁目７８４－３,,11,103,3300856,,,,,,,2021-08-20,1,,,,,シーエーシー,0
86,1030001143934,新規,0,2021-08-20,2021-08-20,株式会社イサム,,株式会社,埼玉県,さいたま市桜区,西堀７丁目１７番１２号,,11,106,3380832,,,,,,,2021-08-20,1,,,,,イサム,0
91,1030003017789,新規,0,2021-08-20,2021-08-20,ＲＯＳＨＡＮＩ　ＩＮＴＥＲＮＡＴＩＯＮＡＬ合同会社,,合同会社,埼玉県,さいたま市岩槻区,東岩槻１丁目９－３０,,11,110,3390005,,,,,,,2021-08-20,1,,,,,ロサニインターナショナル,0
105,1070001038370,新規,0,2021-08-20,2021-08-20,株式会社お家のみかた,,株式会社,群馬県,伊勢崎市,本町６番地１,,10,204,3720047,,,,,,,2021-08-20,1,,,,,オウチノミカタ,0
111,1080103002406,新規,0,2021-08-20,2021-08-20,社長をつくる合同会社,,合同会社,静岡県,熱海市,桜木町１０番１９号熱海パークマンション５３２,,22,205,4130025,,,,,,,2021-08-20,1,,,,,シャチョウヲツクル,0
114,1100005012756,新規,0,2021-08-20,2021-08-20,一般社団法人Ｓｏｃｉａｌ　Ｆｉｒｍ　Ｊａｐａｎ,,その他の設立登記法人,長野県,佐久市,八幡２２２番地１,,20,217,3842106,,,,,,,2021-08-20,1,,,,,ソーシャルファームジャパン,0
115,1110003004556,新規,0,2021-08-20,2021-08-20,高穂合同会社,,合同会社,新潟県,長岡市,槇山町１７５７番地,,15,202,9402002,,,,,,,2021-08-20,1,,,,,タカホ,0
123,1120001239855,新規,0,2021-08-20,2021-08-20,株式会社イルカ,,株式会社,大阪府,大阪市中央区,道修町１丁目５番７号,,27,128,5410045,,,,,,,2021-08-20,1,,,,,イルカ,0
124,1120001239871,新規,0,2021-08-20,2021-08-20,美住ハウス株式会社,,株式会社,大阪府,大阪市生野区,中川４丁目１２－１５,,27,116,5440005,,,,,,,2021-08-20,1,,,,,ミスミハウス,0
125,1120001239896,新規,0,2021-08-20,2021-08-20,ＰＥＮＹ株式会社,,株式会社,大阪府,大阪市東住吉区,杭全１丁目１４番８－１２０３号,,27,121,5460002,,,,,,,2021-08-20,1,,,,,ペニー,0
128,1120003020032,新規,0,2021-08-20,2021-08-20,プラスワン合同会社,,合同会社,大阪府,大阪市此花区,朝日２丁目１８番８号３Ｆ－６０１,,27,104,5540011,,,,,,,2021-08-20,1,,,,,プラスワン,0
129,1120003020057,新規,0,2021-08-20,2021-08-20,ＥＮＶＲ合同会社,,合同会社,大阪府,大阪市北区,梅田１丁目１１番４号大阪駅前第４ビル９階９２３－１５８６号,,27,127,5300001,,,,,,,2021-08-20,1,,,,,エンバー,0
131,1120101064170,新規,0,2021-08-20,2021-08-20,Ｄｒａｗ・Ｐａｉｎｔ株式会社,,株式会社,大阪府,松原市,大堀３丁目１２番１－２０１号,,27,217,5800006,,,,,,,2021-08-20,1,,,,,ドローペイント,0
132,1120101064179,新規,0,2021-08-20,2021-08-20,株式会社ＳＯＲＴＥ,,株式会社,大阪府,和泉市,一条院町１４１－１２,,27,219,5940054,,,,,,,2021-08-20,1,,,,,ソルテ,0
134,1120901044792,新規,0,2021-08-20,2021-08-20,株式会社ＮＬＣ,,株式会社,大阪府,豊中市,東泉丘４丁目５番５０－２３５号,,27,203,5610861,,,,,,,2021-08-20,1,,,,,エヌエルシー,0
151,1140001122745,新規,0,2021-08-20,2021-08-20,株式会社ゴールドウェル,,株式会社,兵庫県,神戸市灘区,水道筋３丁目４番７号,,28,102,6570831,,,,,,,2021-08-20,1,,,,,ゴールドウェル,0
152,1140001122753,新規,0,2021-08-20,2021-08-20,株式会社オーエスケー,,株式会社,兵庫県,神戸市西区,井吹台西町１丁目６番地６－１１０１号,,28,111,6512243,,,,,,,2021-08-20,1,,,,,オーエスケー,0
155,1140003016656,新規,0,2021-08-20,2021-08-20,合同会社Ｐａｄｄｌｅ,,合同会社,兵庫県,神戸市東灘区,深江北町４丁目１１番６－１００１号,,28,101,6580013,,,,,,,2021-08-20,1,,,,,パドル,0
160,1180001147441,新規,0,2021-08-20,2021-08-20,株式会社山口電気,,株式会社,愛知県,名古屋市中川区,荒江町２３番１８号,,23,110,4540032,,,,,,,2021-08-20,1,,,,,ヤマグチデンキ,0
161,1180001147524,新規,0,2021-08-20,2021-08-20,株式会社ＴＨＡＬＡＳＳＩＣ　ＣＡＰＩＴＡＬ,,株式会社,愛知県,名古屋市西区,樋の口町１番１５号ホーワビル２Ｆ,,23,104,4510034,,,,,,,2021-08-20,1,,,,,セラシックキャピタル,0
168,1190001028616,新規,0,2021-08-20,2021-08-20,株式会社ＭＳラボ,,株式会社,三重県,鈴鹿市,神戸６丁目４番３０号メイトカンベ２Ａ,,24,207,5130801,,,,,,,2021-08-20,1,,,,,エムエスラボ,0
173,1210001018548,新規,0,2021-08-20,2021-08-20,株式会社マツバラ,,株式会社,福井県,鯖江市,東鯖江２丁目７番１２号,,18,207,9160041,,,,,,,2021-08-20,1,,,,,マツバラ,0
177,1230005009161,新規,0,2021-08-20,2021-08-20,一般社団法人なかのま,,その他の設立登記法人,富山県,高岡市,東上関３８９番,,16,202,9330878,,,,,,,2021-08-20,1,,,,,ナカノマ,0
191,1290001094202,新規,0,2021-08-20,2021-08-20,株式会社ＭＩＲＡＩ,,株式会社,福岡県,福岡市早良区,飯倉２丁目１番４号,,40,137,8140161,,,,,,,2021-08-20,1,,,,,ミライ,0
192,1290001094268,新規,0,2021-08-20,2021-08-20,ｓｕｎｎｙ　ｎｏｏｋ株式会社,,株式会社,福岡県,福岡市南区,三宅１丁目１３番３８号,,40,134,8111344,,,,,,,2021-08-20,1,,,,,サニーノック,0
206,1330001028923,新規,0,2021-08-20,2021-08-20,メディカル・テート株式会社,,株式会社,熊本県,熊本市中央区,川端町１１番地１,,43,101,8600039,,,,,,,2021-08-20,1,,,,,,0
211,1360001029258,新規,0,2021-08-20,2021-08-20,株式会社ｐｌａｔ,,株式会社,沖縄県,那覇市,牧志一１番３９号ＳＴＥＰビル１－Ｇ,,47,201,9000000,,,,,,,2021-08-20,1,,,,,プラット,0
219,1420003002371,新規,0,2021-08-20,2021-08-20,合同会社Ｙｏｕｋｉｃｈｉ,,合同会社,青森県,平川市,猿賀石林１１８番地１,,02,210,0360242,,,,,,,2021-08-20,1,,,,,ユーキチ,0
251,2010001220486,新規,0,2021-08-20,2021-08-20,株式会社ＳＳＫ,,株式会社,東京都,中央区,晴海２丁目３番３０－３１０９号,,13,102,1040053,,,,,,,2021-08-20,1,,,,,エスエスケー,0
252,2010001220585,新規,0,2021-08-20,2021-08-20,株式会社Ｍ－ｂｏｎｄ,,株式会社,東京都,文京区,根津１丁目１６番８号,,13,105,1130031,,,,,,,2021-08-20,1,,,,,エムボンド,0
257,2010005033819,新規,0,2021-08-20,2021-08-20,一般社団法人コンパクトスマートシティプラットフォーム協議会,,その他の設立登記法人,東京都,千代田区,紀尾井町３番２９号,,13,101,1020094,,,,,,,2021-08-20,1,,,,,コンパクトスマートシティプラットフォームキョウギカイ,0
258,2010005033843,新規,0,2021-08-20,2021-08-20,一般社団法人Ｅｄｇｅｙ,,その他の設立登記法人,東京都,中央区,京橋３丁目７番１０号東宣ビル,,13,102,1040031,,,,,,,2021-08-20,1,,,,,エッジー,0
264,2010403025946,新規,0,2021-08-20,2021-08-20,ＩＡＭ合同会社,,合同会社,東京都,港区,南青山３丁目１０番３２号８０１,,13,103,1070062,,,,,,,2021-08-20,1,,,,,アイエーエム,0
265,2010403025962,新規,0,2021-08-20,2021-08-20,紅娘合同会社,,合同会社,東京都,港区,南青山２丁目２番１５号ウィン青山１２１４号,,13,103,1070062,,,,,,,2021-08-20,1,,,,,テントウムシ,0
278,2010701041414,新規,0,2021-08-20,2021-08-20,株式会社ｏｆｆｉｃｅＬｉｅｎ,,株式会社,東京都,品川区,大井４丁目２番４号,,13,109,1400014,,,,,,,2021-08-20,1,,,,,オフィスリエン,0
283,2010901049281,新規,0,2021-08-20,2021-08-20,株式会社スマートシティプランニング,,株式会社,東京都,世田谷区,下馬６丁目１８番２－３０３号,,13,112,1540002,,,,,,,2021-08-20,1,,,,,スマートシティプランニング,0
284,2010901049298,新規,0,2021-08-20,2021-08-20,ＺＩＴＡＮ株式会社,,株式会社,東京都,世田谷区,松原２丁目４２－７菱和パレス明大前５０４,,13,112,1560043,,,,,,,2021-08-20,1,,,,,ジタン,0
285,2010903006743,新規,0,2021-08-20,2021-08-20,合同会社シーブロック,,合同会社,東京都,世田谷区,桜丘３丁目２８番２号桜丘パレス２０２,,13,112,1560054,,,,,,,2021-08-20,1,,,,,シーブロック,0
291,2011001142209,新規,0,2021-08-20,2021-08-20,株式会社ｓｔｕｄｉｏｈｕａ,,株式会社,東京都,渋谷区,神宮前６丁目２９番４号原宿ｋｏｍｉｙａビル６階,,13,113,1500001,,,,,,,2021-08-20,1,,,,,スタジオフア,0
292,2011001142217,新規,0,2021-08-20,2021-08-20,株式会社Ｆａｒｍ　Ｉｎｔｅｒｎａｔｉｏｎａｌ,,株式会社,東京都,渋谷区,広尾５丁目１番１４－７０８号,,13,113,1500012,,,,,,,2021-08-20,1,,,,,ファームインターナショナル,0
293,2011003013242,新規,0,2021-08-20,2021-08-20,レッドビーンズエンタテインメント合同会社,,合同会社,東京都,渋谷区,幡ヶ谷３丁目３９番１２号渋谷ウェストビル１階,,13,113,1510072,,,,,,,2021-08-20,1,,,,,レッドビーンズエンタテインメント,0
301,2011103010949,新規,0,2021-08-20,2021-08-20,合同会社ことぶき,,合同会社,東京都,新宿区,早稲田町８３番地９,,13,104,1620042,,,,,,,2021-08-20,1,,,,,コトブキ,0
303,2011203003621,新規,0,2021-08-20,2021-08-20,大日本食品合同会社,,合同会社,東京都,中野区,沼袋３丁目２番１２号,,13,114,1650025,,,,,,,2021-08-20,1,,,,,ダイニホンショクヒン,0
308,2011303004131,新規,0,2021-08-20,2021-08-20,ｌｕｃｉｏｌｅ合同会社,,合同会社,東京都,杉並区,和田１丁目５７番Ｓ－１０３号,,13,115,1660012,,,,,,,2021-08-20,1,,,,,リュシュオール,0
310,2011401023611,新規,0,2021-08-20,2021-08-20,嘉娜宝生物テクノロジー株式会社,,株式会社,東京都,板橋区,成増１丁目１４－９成増グリーンハイツ４０１,,13,119,1750094,,,,,,,2021-08-20,1,,,,,カナホセイブツテクノロジー,0
311,2011503004864,新規,0,2021-08-20,2021-08-20,合同会社アップデートフォーエバー,,合同会社,東京都,荒川区,南千住５丁目３２－８,,13,118,1160003,,,,,,,2021-08-20,1,,,,,アップデートフォーエバー,0
317,2013301047888,新規,0,2021-08-20,2021-08-20,株式会社Ｂｅｌｌｆｌｏｗｅｒ,,株式会社,東京都,豊島区,池袋２丁目５－１０,,13,116,1710014,,,,,,,2021-08-20,1,,,,,ベルフラワー,0
330,2020001142647,新規,0,2021-08-20,2021-08-20,株式会社スカイフォース,,株式会社,神奈川県,横浜市鶴見区,鶴見中央１丁目３１番２２－１００１号,,14,101,2300051,,,,,,,2021-08-20,1,,,,,スカイフォース,0
331,2020001142663,新規,0,2021-08-20,2021-08-20,株式会社ＩＳＨ,,株式会社,神奈川県,横浜市港北区,下田町１丁目９番５号,,14,109,2230064,,,,,,,2021-08-20,1,,,,,アイエスエイチ,0
332,2020001142671,新規,0,2021-08-20,2021-08-20,株式会社アミス,,株式会社,神奈川県,川崎市幸区,南加瀬３丁目１３番３８－２号,,14,132,2120055,,,,,,,2021-08-20,1,,,,,アミス,0
333,2020001142688,新規,0,2021-08-20,2021-08-20,ｂｉｇｓｔｏｎｅ株式会社,,株式会社,神奈川県,川崎市幸区,中幸町３丁目３１ー２Ｌｏｃ’ｓＫＡＷＡＳＡＫＩＢＬＤＧ７－２３,,14,132,2120012,,,,,,,2021-08-20,1,,,,,ビックストーン,0
339,2020005015155,新規,0,2021-08-20,2021-08-20,一般社団法人横浜ウーマンズライツ協会,,その他の設立登記法人,神奈川県,横浜市金沢区,六浦１丁目１－１３,,14,108,2360031,,,,,,,2021-08-20,1,,,,,ヨコハマウーマンズライツキョウカイ,0
340,2020005015171,新規,0,2021-08-20,2021-08-20,一般社団法人Ｙ・ＳＤＧｓ智恵と創造・横浜研究会,,その他の設立登記法人,神奈川県,横浜市金沢区,富岡西７丁目２４番２１号,,14,108,2360052,,,,,,,2021-08-20,1,,,,,ワイエスディージーズチエトソウゾウヨコハマケンキュウカイ,0
351,2030003017805,新規,0,2021-08-20,2021-08-20,ＡＳＡ　Ｔｒａｄｉｎｇ合同会社,,合同会社,埼玉県,和光市,白子２丁目１番２１号シャトレー小川２０１,,11,229,3510101,,,,,,,2021-08-20,1,,,,,アサトレーディング,0
362,2040001119858,新規,0,2021-08-20,2021-08-20,株式会社三浦建設,,株式会社,千葉県,佐倉市,上座５２８番地１１－１０２号,,12,212,2850854,,,,,,,2021-08-20,1,,,,,ミウラケンセツ,0
363,2040001119866,新規,0,2021-08-20,2021-08-20,株式会社Ａｍｂｉｔｉｏ,,株式会社,千葉県,松戸市,三矢小台５丁目２０番地の１,,12,207,2710087,,,,,,,2021-08-20,1,,,,,アンビティオ,0
364,2040001119874,新規,0,2021-08-20,2021-08-20,株式会社クリアワン,,株式会社,千葉県,木更津市,菅生７９９,,12,206,2920036,,,,,,,2021-08-20,1,,,,,クリアワン,0
377,2080103002405,新規,0,2021-08-20,2021-08-20,合同会社カンデカデ,,合同会社,静岡県,富士宮市,杉田１１３０番地の１,,22,207,4180021,,,,,,,2021-08-20,1,,,,,カンデカデ,0
379,2080401025280,新規,0,2021-08-20,2021-08-20,株式会社ＫＩＭ　ＡＮ,,株式会社,静岡県,浜松市西区,雄踏町山崎４６７０番地の５,,22,133,4310101,,,,,,,2021-08-20,1,,,,,キムアン,0
380,2080403004349,新規,0,2021-08-20,2021-08-20,合同会社こどもネット,,合同会社,静岡県,浜松市中区,板屋町１００番地の１０,,22,131,4300928,,,,,,,2021-08-20,1,,,,,コドモネット,0
398,2120001239846,新規,0,2021-08-20,2021-08-20,株式会社ｃａｌｍ,,株式会社,大阪府,大阪市浪速区,元町１丁目７番５号,,27,111,5560016,,,,,,,2021-08-20,1,,,,,カーム,0
400,2120003020072,新規,0,2021-08-20,2021-08-20,合同会社アールズ,,合同会社,大阪府,大阪市東淀川区,東中島１丁目１７－５,,27,114,5330033,,,,,,,2021-08-20,1,,,,,アールズ,0
404,2120101064178,新規,0,2021-08-20,2021-08-20,株式会社樹創家,,株式会社,大阪府,岸和田市,南町６番４号,,27,202,5960067,,,,,,,2021-08-20,1,,,,,キヅクリヤ,0
405,2120103004297,新規,0,2021-08-20,2021-08-20,合同会社ＧＬ,,合同会社,大阪府,泉佐野市,高松西２丁目２５２０番地の７,,27,213,5980016,,,,,,,2021-08-20,1,,,,,ジーエル,0
406,2120103004306,新規,0,2021-08-20,2021-08-20,合同会社ＮＥＸＴ－ＴＩＥ,,合同会社,大阪府,堺市北区,百舌鳥赤畑町２丁７２番地グランドパレス堺三国ヶ丘７０３号,,27,146,5918037,,,,,,,2021-08-20,1,,,,,ネクストティーアイイー,0
421,2140001122752,新規,0,2021-08-20,2021-08-20,株式会社コガネブリュワリー,,株式会社,兵庫県,姫路市,南町７６番地姫路城陽ビル４階,,28,201,6700912,,,,,,,2021-08-20,1,,,,,コガネブリュワリー,0
422,2140001122769,新規,0,2021-08-20,2021-08-20,株式会社Ｍ’ｓ　Ａｌｆａ,,株式会社,兵庫県,姫路市,飾磨区構５丁目８４,,28,201,6728071,,,,,,,2021-08-20,1,,,,,エムズアルファ,0
424,2140003016655,新規,0,2021-08-20,2021-08-20,合同会社ＪＣ商事,,合同会社,兵庫県,尼崎市,神田北通１丁目８番地の１,,28,202,6600883,,,,,,,2021-08-20,1,,,,,ジェーシーショウジ,0
425,2150001024865,新規,0,2021-08-20,2021-08-20,シュエット株式会社,,株式会社,奈良県,大和郡山市,泉原町７５番地１,,29,203,6391056,,,,,,,2021-08-20,1,,,,,シュエット,0
426,2150003002464,新規,0,2021-08-20,2021-08-20,合同会社Ｆｕｒａｎ,,合同会社,奈良県,香芝市,旭ケ丘５丁目１番地１シャーメゾンストーンヒルズ旭ケ丘２０１号,,29,210,6390266,,,,,,,2021-08-20,1,,,,,フラン,0
442,2180001147523,新規,0,2021-08-20,2021-08-20,株式会社Ｄ＆Ｄコンサルティング,,株式会社,愛知県,名古屋市天白区,植田３丁目１３０４番地２パルティール植田アネックス７０３号,,23,116,4680051,,,,,,,2021-08-20,1,,,,,ディーアンドディーコンサルティング,0
449,2190001028598,新規,0,2021-08-20,2021-08-20,ノースライジング株式会社,,株式会社,三重県,多気郡明和町,大字明星１７５８番地,,24,442,5150313,,,,,,,2021-08-20,1,,,,,ノースライジング,0
450,2190001028615,新規,0,2021-08-20,2021-08-20,株式会社三重インターナショナル,,株式会社,三重県,四日市市,末永町１２番１８－１号,,24,202,5100807,,,,,,,2021-08-20,1,,,,,ミエインターナショナル,0
451,2190003003748,新規,0,2021-08-20,2021-08-20,伊勢あおい農園合同会社,,合同会社,三重県,伊勢市,小俣町明野１７２０番地１,,24,203,5190501,,,,,,,2021-08-20,1,,,,,イセアオイノウエン,0
465,2240001058466,新規,0,2021-08-20,2021-08-20,共栄キャピタル株式会社,,株式会社,広島県,広島市西区,南観音４丁目１０番２２号,,34,104,7330035,,,,,,,2021-08-20,1,,,,,キョウエイキャピタル,0
466,2240001058474,新規,0,2021-08-20,2021-08-20,株式会社花岡組,,株式会社,広島県,広島市中区,舟入川口町３番１４号,,34,101,7300845,,,,,,,2021-08-20,1,,,,,ハナオカグミ,0
476,2260001035884,新規,0,2021-08-20,2021-08-20,ＢＲＡＶＯ株式会社,,株式会社,岡山県,岡山市北区,田町１丁目１番３号７０１,,33,101,7000825,,,,,,,2021-08-20,1,,,,,ブラボー,0
478,2290001094333,新規,0,2021-08-20,2021-08-20,ＥＶパーク株式会社,,株式会社,福岡県,福岡市中央区,舞鶴１丁目４番１号,,40,133,8100073,,,,,,,2021-08-20,1,,,,,イーヴイパーク,0
484,2300001012598,新規,0,2021-08-20,2021-08-20,株式会社アナウンサーチーム・ＡｎｃｈｏｒｓＲｏｏｍ・九州,,株式会社,佐賀県,鳥栖市,原町７４２番地１,,41,203,8410024,,,,,,,2021-08-20,1,,,,,アナウンサーチームアンカーズルームキュウシュウ,0
487,2310001017423,新規,0,2021-08-20,2021-08-20,株式会社Ｋ’Ｓサービス,,株式会社,長崎県,長崎市,樺島町６番１２号,,42,201,8500034,,,,,,,2021-08-20,1,,,,,ケーエスサービス,0
489,2330001028914,新規,0,2021-08-20,2021-08-20,株式会社エル・クリエイト,,株式会社,熊本県,熊本市中央区,九品寺２丁目２番５１号ベルメゾン１１６,,43,101,8620976,,,,,,,2021-08-20,1,,,,,エルクリエイト,0
492,2330003009012,新規,0,2021-08-20,2021-08-20,合同会社天草海士宴,,合同会社,熊本県,天草郡苓北町,志岐１５００番地８,,43,531,8632503,,,,,,,2021-08-20,1,,,,,アマクサカイシエン,0
496,2360001029240,新規,0,2021-08-20,2021-08-20,株式会社ｏｋｉｎａｗａ,,株式会社,沖縄県,那覇市,前島３丁目２５番２号泊ポートビル１Ｆ,,47,201,9000016,,,,,,,2021-08-20,1,,,,,オキナワ,0
497,2360001029257,新規,0,2021-08-20,2021-08-20,ＩＴＲ株式会社,,株式会社,沖縄県,那覇市,字大道１６９番地９－４０３,,47,201,9020066,,,,,,,2021-08-20,1,,,,,アイティアール,0
498,2360001029265,新規,0,2021-08-20,2021-08-20,株式会社ＩＲＯＨＡ,,株式会社,沖縄県,浦添市,字前田６３６番地ＡＬＬＵＲＥ５０１,,47,208,9012102,,,,,,,2021-08-20,1,,,,,イロハ,0
503,2370001047506,新規,0,2021-08-20,2021-08-20,株式会社Ｅｓｐоｌｉａ,,株式会社,宮城県,仙台市若林区,沖野２丁目９番４０－６０３号,,04,103,9840831,,,,,,,2021-08-20,1,,,,,エスポリア,0
514,2430003013045,新規,0,2021-08-20,2021-08-20,合同会社ａｔ　ｈｏｍｅ,,合同会社,北海道,札幌市白石区,菊水上町四条４丁目５１番地４－２０３号,,01,104,0030814,,,,,,,2021-08-20,1,,,,,アットホーム,0
515,2430005014248,新規,0,2021-08-20,2021-08-20,一般財団法人田中記念劇場財団,,その他の設立登記法人,北海道,札幌市東区,北十条東７丁目１番１０号,,01,103,0650010,,,,,,,2021-08-20,1,,,,,タナカキネンゲキジョウザイダン,0
546,3010003035650,新規,0,2021-08-20,2021-08-20,合同会社ガウボン,,合同会社,東京都,文京区,湯島３丁目２７－１４、ＯＬＩＯ湯島４０５号室,,13,105,1130034,,,,,,,2021-08-20,1,,,,,ガウボン,0
556,3010403025961,新規,0,2021-08-20,2021-08-20,ＴＯＰＤＯＧｓ合同会社,,合同会社,東京都,港区,白金台４丁目４－７,,13,103,1080071,,,,,,,2021-08-20,1,,,,,トップドッグス,0
557,3010601059803,新規,0,2021-08-20,2021-08-20,ＫＭ－ＥＸＰＥＲＴ株式会社,,株式会社,東京都,江東区,木場５丁目１２番８号ＫＤＸ木場ビル,,13,108,1350042,,,,,,,2021-08-20,1,,,,,ケイエムエキスパート,0
559,3010701041405,新規,0,2021-08-20,2021-08-20,株式会社エージェントファンテック,,株式会社,東京都,品川区,大井７丁目１８番１１号,,13,109,1400014,,,,,,,2021-08-20,1,,,,,エージェントファンテック,0
560,3010701041413,新規,0,2021-08-20,2021-08-20,株式会社ＡＯＫＩＳＩ,,株式会社,東京都,品川区,旗の台５丁目１５－１,,13,109,1420064,,,,,,,2021-08-20,1,,,,,アオキシ,0
567,3011001142430,新規,0,2021-08-20,2021-08-20,株式会社グリーンライフ,,株式会社,東京都,渋谷区,神宮前１丁目４番２０号パークコート神宮前３１６号室,,13,113,1500001,,,,,,,2021-08-20,1,,,,,グリーンライフ,0
573,3011101096097,新規,0,2021-08-20,2021-08-20,株式会社アトラスシーズ,,株式会社,東京都,新宿区,河田町３番５１－３５０７号,,13,104,1620054,,,,,,,2021-08-20,1,,,,,アトラスシーズ,0
578,3011501027230,新規,0,2021-08-20,2021-08-20,株式会社ＴＨワールド,,株式会社,東京都,北区,滝野川３丁目８番１号,,13,117,1140023,,,,,,,2021-08-20,1,,,,,ティーエイチワールド,0
579,3011801039603,新規,0,2021-08-20,2021-08-20,株式会社メディコ,,株式会社,東京都,葛飾区,青戸５丁目２０番２３号,,13,122,1250062,,,,,,,2021-08-20,1,,,,,メディコ,0
583,3012801021022,新規,0,2021-08-20,2021-08-20,株式会社ＮＡＩＬＳ　ＯＮ,,株式会社,東京都,国分寺市,光町１丁目３８番地７－２ａ,,13,214,1850034,,,,,,,2021-08-20,1,,,,,ネイルズオン,0
584,3012801021030,新規,0,2021-08-20,2021-08-20,株式会社ＤＤホールディングス,,株式会社,東京都,昭島市,中神町１３０４番地１６,,13,207,1960022,,,,,,,2021-08-20,1,,,,,ディーディーホールディングス,0
585,3013101008701,新規,0,2021-08-20,2021-08-20,株式会社三和,,株式会社,東京都,羽村市,小作台２丁目１２－１－３０３号,,13,227,2050001,,,,,,,2021-08-20,1,,,,,サンワ,0
595,3020001142670,新規,0,2021-08-20,2021-08-20,ＺｅＴａ企画株式会社,,株式会社,神奈川県,横浜市旭区,今宿東町８３２番地１－２９棟３０３号,,14,112,2410032,,,,,,,2021-08-20,1,,,,,ゼタキカク,0
604,3021005012281,新規,0,2021-08-20,2021-08-20,ＫＴ税理士法人,,その他の設立登記法人,神奈川県,鎌倉市,大船３丁目１２番２５号ルミエール１０２,,14,204,2470056,,,,,,,2021-08-20,1,,,,,ケーティー,0
607,3030001143924,新規,0,2021-08-20,2021-08-20,承曄商事株式会社,,株式会社,埼玉県,白岡市,寺塚字仙在４１０番１,,11,246,3490214,,,,,,,2021-08-20,1,,,,,ショウショウショウジ,0
608,3030001143932,新規,0,2021-08-20,2021-08-20,株式会社アース技研,,株式会社,埼玉県,さいたま市西区,大字内野本郷４２１番地６,,11,101,3310045,,,,,,,2021-08-20,1,,,,,アースギケン,0
611,3030003017804,新規,0,2021-08-20,2021-08-20,フォレストサイド・トレード＆サプライ合同会社,,合同会社,埼玉県,さいたま市桜区,西堀３丁目２－１５,,11,106,3380832,,,,,,,2021-08-20,1,,,,,フォレストサイドトレードアンドサプライ,0
620,3050001049731,新規,0,2021-08-20,2021-08-20,株式会社おかげさま,,株式会社,茨城県,取手市,岡１０８９番地１,,08,217,3001546,,,,,,,2021-08-20,1,,,,,オカゲサマ,0
628,3060001033998,新規,0,2021-08-20,2021-08-20,株式会社大成クリーンメンテナンス,,株式会社,栃木県,宇都宮市,二番町１番１０号,,09,201,3200813,,,,,,,2021-08-20,1,,,,,タイセイクリーンメンテナンス,0
631,3070001038369,新規,0,2021-08-20,2021-08-20,株式会社Ｃａｒｐｅｄｉａ,,株式会社,群馬県,前橋市,表町２丁目２０－７－５１２リブグリーンロード,,10,201,3710024,,,,,,,2021-08-20,1,,,,,カーペディア,0
654,3120001239804,新規,0,2021-08-20,2021-08-20,株式会社Ｇ－ａｃｔ,,株式会社,大阪府,大阪市北区,中崎町四丁目３番３２号タカ大阪梅田ビル８０２号室,,27,127,5300000,,,,,,,2021-08-20,1,,,,,ジーアクト,0
655,3120001239845,新規,0,2021-08-20,2021-08-20,株式会社びっくりマット,,株式会社,大阪府,大阪市天王寺区,悲田院町１番３８－１２１８号,,27,109,5430055,,,,,,,2021-08-20,1,,,,,ビックリマット,0
660,3120003020071,新規,0,2021-08-20,2021-08-20,合同会社リーンアウト,,合同会社,大阪府,大阪市北区,豊崎３丁目１５－５,,27,127,5310072,,,,,,,2021-08-20,1,,,,,リーンアウト,0
662,3120101064160,新規,0,2021-08-20,2021-08-20,株式会社Ｆｒｏｎｔｉｅｒ,,株式会社,大阪府,羽曳野市,樫山２４８番地の９,,27,222,5830875,,,,,,,2021-08-20,1,,,,,フロンティア,0
667,3120901044790,新規,0,2021-08-20,2021-08-20,ＣＯＵＦｉＸ株式会社,,株式会社,大阪府,吹田市,上山手町３番１４－１０２号,,27,205,5650841,,,,,,,2021-08-20,1,,,,,コウフィックス,0
673,3130001069960,新規,0,2021-08-20,2021-08-20,株式会社Ａ－ＧＯ,,株式会社,京都府,京都市山科区,西野今屋敷町１９－１,,26,110,6078341,,,,,,,2021-08-20,1,,,,,エイゴウ,0
679,3140001122768,新規,0,2021-08-20,2021-08-20,株式会社ＴｕＫｕＮｅＹａ　ＷＯＲＬＤ,,株式会社,兵庫県,尼崎市,南七松町１丁目２番６号３Ｆ,,28,202,6600053,,,,,,,2021-08-20,1,,,,,ツクネヤワールド,0
713,3240003005250,新規,0,2021-08-20,2021-08-20,合同会社ＴＫＹクリエイション,,合同会社,広島県,広島市西区,三滝本町２丁目１６番４号,,34,104,7330802,,,,,,,2021-08-20,1,,,,,ティーケイワイクリエイション,0
727,3290001094332,新規,0,2021-08-20,2021-08-20,株式会社ＪＩＪＩ,,株式会社,福岡県,福岡市西区,女原北１１－１２－２０１,,40,135,8190377,,,,,,,2021-08-20,1,,,,,ジジ,0
732,3300001012597,新規,0,2021-08-20,2021-08-20,株式会社ウェルテック,,株式会社,佐賀県,伊万里市,二里町八谷搦８６５番地４エスポワールⅡ２０３号室,00123978,41,205,8480031,,,,,,,2021-08-20,1,,,,,ウェルテック,0
740,3330001028921,新規,0,2021-08-20,2021-08-20,アルカンジュ株式会社,,株式会社,熊本県,熊本市中央区,新市街２番６号サンタカラヤビル２階Ａ号,,43,101,8600803,,,,,,,2021-08-20,1,,,,,アルカンジュ,0
744,3360001029264,新規,0,2021-08-20,2021-08-20,株式会社周一,,株式会社,沖縄県,那覇市,久茂地２丁目２０番７号ルミエールミナオ６０２,,47,201,9000015,,,,,,,2021-08-20,1,,,,,シュウイチ,0
755,3400001015573,新規,0,2021-08-20,2021-08-20,ＴＹキャリアクルー株式会社,,株式会社,岩手県,盛岡市,中太田屋敷田１０８番地,,03,201,0200052,,,,,,,2021-08-20,1,,,,,ティーワイキャリアクルー,0
768,3430003013069,新規,0,2021-08-20,2021-08-20,合同会社イゼルローンソフトウェア,,合同会社,北海道,札幌市中央区,大通西１丁目１４番２号桂和大通ビル５０・９Ｆ,,01,101,0600042,,,,,,,2021-08-20,1,,,,,イゼルローンソフトウェア,0
772,3450001013449,新規,0,2021-08-20,2021-08-20,戸屋興産株式会社,,株式会社,北海道,留萌市,錦町１丁目７番１９号,,01,212,0770044,,,,,,,2021-08-20,1,,,,,トヤコウサン,0
777,3500001023632,新規,0,2021-08-20,2021-08-20,株式会社ａｎｎｉｖｅｒｓａｒｙ,,株式会社,愛媛県,松山市,来住町１４９７番地１,,38,201,7911102,,,,,,,2021-08-20,1,,,,,アニバーサリー,0
778,3500003002683,新規,0,2021-08-20,2021-08-20,ＧＰＳ　ＣＲＥＷ合同会社,,合同会社,愛媛県,大洲市,長浜甲３９６番地の１,,38,207,7993401,,,,,,,2021-08-20,1,,,,,ジーピーエスクルー,0
790,4010001220501,新規,0,2021-08-20,2021-08-20,株式会社ストロベリーサウンド,,株式会社,東京都,中央区,銀座６丁目１３番１６号銀座ｗａｌｌビルＵＣＦ５０１,,13,102,1040061,,,,,,,2021-08-20,1,,,,,ストロベリーサウンド,0
791,4010001220583,新規,0,2021-08-20,2021-08-20,ＴＯＳＳ　Ｉｎｔｅｒｎａｔｉｏｎａｌ株式会社,,株式会社,東京都,中央区,銀座６丁目１３番１６号銀座ＷａｌｌビルＵＣＦ５０１,,13,102,1040061,,,,,,,2021-08-20,1,,,,,トスインターナショナル,0
794,4010005033817,新規,0,2021-08-20,2021-08-20,特定非営利活動法人東京つばめ無料塾,,その他の設立登記法人,東京都,千代田区,大手町１丁目３番２号経団連会館Ｂ１株式会社ケイエヌケイ内,,13,101,1000004,,,,,,,2021-08-20,1,,,,,トウキョウツバメムリョウジュク,0
795,4010101014803,新規,0,2021-08-20,2021-08-20,株式会社アシスト,,株式会社,東京都,八王子市,三崎町３番９号福屋ビル１Ｆ,,13,201,1920084,,,,,,,2021-08-20,1,,,,,アシスト,0
811,4010901049296,新規,0,2021-08-20,2021-08-20,株式会社ｗｉｔｈ　Ｍａｒｃｈ,,株式会社,東京都,世田谷区,駒沢４丁目１９番１２号,,13,112,1540012,,,,,,,2021-08-20,1,,,,,ウィズマーチ,0
818,4011001142347,新規,0,2021-08-20,2021-08-20,株式会社Ａｖｅｃ２０６,,株式会社,東京都,目黒区,五本木２丁目１番１４号ＣＯＭＰＬＥＸ２６ビル１Ｆ,,13,110,1530053,,,,,,,2021-08-20,1,,,,,アベックニマルロク,0
819,4011001142388,新規,0,2021-08-20,2021-08-20,株式会社ＹＫフューチャーコンサルティング,,株式会社,東京都,渋谷区,渋谷２丁目１９－１５宮益坂ビルディング６０９,,13,113,1500002,,,,,,,2021-08-20,1,,,,,ワイケーフューチャーコンサルティング,0
820,4011001142446,新規,0,2021-08-20,2021-08-20,株式会社アジュール,,株式会社,東京都,目黒区,八雲３丁目２５番１４－１０３号,,13,110,1520023,,,,,,,2021-08-20,1,,,,,アジュール,0
821,4011003013190,新規,0,2021-08-20,2021-08-20,合同会社ｗｅｓｔｖａｌｌｅｙ,,合同会社,東京都,目黒区,祐天寺１丁目１番１号,,13,110,1530052,,,,,,,2021-08-20,1,,,,,ウェストバレー,0
829,4011201023198,新規,0,2021-08-20,2021-08-20,株式会社Ｗｉｎｓｔａｒ,,株式会社,東京都,中野区,松が丘１丁目３２番６号,,13,114,1650024,,,,,,,2021-08-20,1,,,,,ウィンスター,0
846,4020001142595,新規,0,2021-08-20,2021-08-20,８６モーターズ株式会社,,株式会社,神奈川県,横浜市鶴見区,本町通４丁目１７７番地５,,14,101,2300048,,,,,,,2021-08-20,1,,,,,ハチロクモーターズ,0
849,4020003020353,新規,0,2021-08-20,2021-08-20,合同会社縁の心,,合同会社,神奈川県,横浜市戸塚区,原宿２丁目４９番１０－１０１号,,14,110,2450063,,,,,,,2021-08-20,1,,,,,エノゴコロ,0
854,4021001073715,新規,0,2021-08-20,2021-08-20,株式会社ｒａｉ－ｚｏｕ,,株式会社,神奈川県,藤沢市,藤沢１０５７番地の２７－３０５,,14,205,2510052,,,,,,,2021-08-20,1,,,,,,0
858,4021003010807,新規,0,2021-08-20,2021-08-20,合同会社Ｆｕｔｕｒｅ＆Ｓｅｅｄ,,合同会社,神奈川県,足柄上郡中井町,井ノ口２３５１番地１２６,,14,361,2590151,,,,,,,2021-08-20,1,,,,,フューチャーアンドシード,0
876,4040001119600,新規,0,2021-08-20,2021-08-20,株式会社ＲＩＴ,,株式会社,千葉県,市川市,入船３番１２号,,12,203,2720134,,,,,,,2021-08-20,1,,,,,アールアイティ,0
877,4040001119856,新規,0,2021-08-20,2021-08-20,株式会社Ｍ　ｅｔ　Ｋ,,株式会社,千葉県,千葉市中央区,中央２丁目７番１０号シャンボール千葉中央７０８号,,12,101,2600013,,,,,,,2021-08-20,1,,,,,エメク,0
878,4040001119864,新規,0,2021-08-20,2021-08-20,株式会社植介,,株式会社,千葉県,市原市,国分寺台中央５丁目４－６,,12,219,2900073,,,,,,,2021-08-20,1,,,,,ウエスケ,0
890,4070001038368,新規,0,2021-08-20,2021-08-20,株式会社石井商会,,株式会社,群馬県,館林市,大街道１丁目７番３７号,,10,207,3740066,,,,,,,2021-08-20,1,,,,,イシイショウカイ,0
891,4080105006170,新規,0,2021-08-20,2021-08-20,一般社団法人松野地区まちづくり協議会,,その他の設立登記法人,静岡県,富士市,南松野１７９２番地の２,,22,210,4213303,,,,,,,2021-08-20,1,,,,,マツノチクマチヅクリキョウギカイ,0
892,4080401025279,新規,0,2021-08-20,2021-08-20,株式会社おひさま,,株式会社,静岡県,浜松市北区,新都田２丁目２６番１５号,,22,135,4312103,,,,,,,2021-08-20,1,,,,,オヒサマ,0
913,4120001239852,新規,0,2021-08-20,2021-08-20,株式会社ココラク,,株式会社,大阪府,大阪市北区,角田町８－４７阪急グランドビル２０Ｆ,,27,127,5300017,,,,,,,2021-08-20,1,,,,,ココラク,0
914,4120001239869,新規,0,2021-08-20,2021-08-20,株式会社若葉,,株式会社,大阪府,枚方市,上島町１７番２８号,,27,210,5731127,,,,,,,2021-08-20,1,,,,,ワカバ,0
915,4120001239877,新規,0,2021-08-20,2021-08-20,株式会社ＤＩＶＥＲＳＥ・Ｋ,,株式会社,大阪府,大阪市阿倍野区,阪南町５丁目１７番３号西田辺駅前ビル,,27,119,5450021,,,,,,,2021-08-20,1,,,,,ディバースケー,0
922,4120101064184,新規,0,2021-08-20,2021-08-20,株式会社ＨＲＳ,,株式会社,大阪府,堺市北区,長曽根町１１９９番地３,,27,146,5918025,,,,,,,2021-08-20,1,,,,,エイチアールエス,0
935,4140001122750,新規,0,2021-08-20,2021-08-20,株式会社あきあかね,,株式会社,兵庫県,たつの市,揖西町南山３丁目２７番地,,28,229,6794016,,,,,,,2021-08-20,1,,,,,アキアカネ,0
936,4140001122759,新規,0,2021-08-20,2021-08-20,株式会社Ｇ２ＰＲＯＤＵＣＴ,,株式会社,兵庫県,佐用郡佐用町,佐用２８９８番地４,,28,501,6795301,,,,,,,2021-08-20,1,,,,,ジーツープロダクト,0
937,4140001122767,新規,0,2021-08-20,2021-08-20,株式会社Ｍ・Ｓｕｍｍｅｒ－Ｃｏｎｎｅｃｔ,,株式会社,兵庫県,神戸市灘区,鶴甲３丁目６番８号,,28,102,6570011,,,,,,,2021-08-20,1,,,,,エムサマーコネクト,0
938,4140001122775,新規,0,2021-08-20,2021-08-20,株式会社ＫＡＮＡＥＲＵ,,株式会社,兵庫県,明石市,二見町西二見７２８番地の１,,28,203,6740094,,,,,,,2021-08-20,1,,,,,カナエル,0
945,4180001147513,新規,0,2021-08-20,2021-08-20,株式会社ピクシス,,株式会社,愛知県,春日井市,宮町字宮町１６１番地６,,23,206,4860904,,,,,,,2021-08-20,1,,,,,ピクシス,0
957,4190005011615,新規,0,2021-08-20,2021-08-20,一般社団法人みえ林業総合支援機構,,その他の設立登記法人,三重県,津市,桜橋１丁目１０４番地,,24,201,5140003,,,,,,,2021-08-20,1,,,,,ミエリンギョウソウゴウシエンキコウ,0
960,4210001018578,新規,0,2021-08-20,2021-08-20,株式会社リンコー,,株式会社,福井県,坂井市,三国町池見第２７号２３番地,,18,210,9130024,,,,,,,2021-08-20,1,,,,,リンコー,0
961,4210003001400,新規,0,2021-08-20,2021-08-20,合同会社Ｈｏｐｅ,,合同会社,福井県,福井市,殿下町第３５号２３番地,,18,201,9188216,,,,,,,2021-08-20,1,,,,,ホープ,0
975,4240001058472,新規,0,2021-08-20,2021-08-20,株式会社Ｉｒｉｅ,,株式会社,広島県,広島市中区,東千田町１丁目１番１０４－３－２２０１号,,34,101,7300053,,,,,,,2021-08-20,1,,,,,アイリー,0
984,4280001008498,新規,0,2021-08-20,2021-08-20,株式会社あやまち,,株式会社,島根県,松江市,浜佐田町９７４番地１,,32,201,6900855,,,,,,,2021-08-20,1,,,,,アヤマチ,0
993,4290003011499,新規,0,2021-08-20,2021-08-20,アバーター貿易合同会社,,合同会社,福岡県,大野城市,栄町３丁目１番２４号クラブ春日原２Ｆ－５,,40,219,8160924,,,,,,,2021-08-20,1,,,,,アバータボウエキ,0
995,4290005018303,新規,0,2021-08-20,2021-08-20,一般社団法人シーソンズ,,その他の設立登記法人,福岡県,宗像市,赤間４丁目１０番地９号,,40,220,8114146,,,,,,,2021-08-20,1,,,,,シーソンズ,0
1001,4330001028920,新規,0,2021-08-20,2021-08-20,株式会社ＫＤＳコミュニティカレッジ,,株式会社,熊本県,熊本市北区,楠６丁目６番２５号,,43,105,8618003,,,,,,,2021-08-20,1,,,,,ケイディエスコミュニティカレッジ,0
1027,4500003002682,新規,0,2021-08-20,2021-08-20,愛媛ケイアンドエム合同会社,,合同会社,愛媛県,新居浜市,八雲町１３番２号,,38,205,7920805,,,,,,,2021-08-20,1,,,,,エヒメケイアンドエム,0
1037,5010001220566,新規,0,2021-08-20,2021-08-20,珊トレーディング株式会社,,株式会社,東京都,中央区,銀座７丁目３番１３号,,13,102,1040061,,,,,,,2021-08-20,1,,,,,サントレーディング,0
1040,5010003035657,新規,0,2021-08-20,2021-08-20,合同会社ジオング,,合同会社,東京都,千代田区,内神田１丁目１８番１１号東京ロイヤルプラザ９１０号,,13,101,1010047,,,,,,,2021-08-20,1,,,,,ジオング,0
1049,5010401162243,新規,0,2021-08-20,2021-08-20,株式会社ＭＡＮＤＮ,,株式会社,東京都,港区,六本木４丁目５番９号２階,,13,103,1060032,,,,,,,2021-08-20,1,,,,,エムアンドエヌ,0
1056,5010701041403,新規,0,2021-08-20,2021-08-20,株式会社セトラス,,株式会社,東京都,品川区,東五反田２丁目３－５五反田中央ビル７Ｆ,,13,109,1410022,,,,,,,2021-08-20,1,,,,,セトラス,0
1057,5010701041411,新規,0,2021-08-20,2021-08-20,キュラット株式会社,,株式会社,東京都,品川区,東品川４丁目１１番３６号,,13,109,1400002,,,,,,,2021-08-20,1,,,,,キュラット,0
1067,5011001142189,新規,0,2021-08-20,2021-08-20,株式会社Ｃｈａｋｏｒｉｃｈ,,株式会社,東京都,渋谷区,鶯谷町１３番１号ラ・トゥール代官山Ｄ－６０１,,13,113,1500032,,,,,,,2021-08-20,1,,,,,チャコリッチ,0
1068,5011001142346,新規,0,2021-08-20,2021-08-20,株式会社ＭＦＣ,,株式会社,東京都,渋谷区,代々木１丁目５２番４号ベルテ南新宿３０３,,13,113,1510053,,,,,,,2021-08-20,1,,,,,エムエフシー,0
1069,5011001142404,新規,0,2021-08-20,2021-08-20,株式会社きしけん,,株式会社,東京都,渋谷区,神宮前３丁目３７番１号,,13,113,1500001,,,,,,,2021-08-20,1,,,,,キシケン,0
1070,5011001142453,新規,0,2021-08-20,2021-08-20,株式会社シダー,,株式会社,東京都,目黒区,自由が丘２丁目９番２４号,,13,110,1520035,,,,,,,2021-08-20,1,,,,,シダー,0
1075,5011301027123,新規,0,2021-08-20,2021-08-20,株式会社Ｆ．Ａ．Ｓ,,株式会社,東京都,杉並区,高円寺北４丁目１４番１２号,,13,115,1660002,,,,,,,2021-08-20,1,,,,,エフエーエス,0
1076,5011303004129,新規,0,2021-08-20,2021-08-20,合同会社ＧＯ,,合同会社,東京都,杉並区,本天沼３丁目３１番１１号コーポ森福１０３,,13,115,1670031,,,,,,,2021-08-20,1,,,,,ゴウ,0
1078,5011501027229,新規,0,2021-08-20,2021-08-20,株式会社ロケロ,,株式会社,東京都,荒川区,東尾久４丁目１５番２号,,13,118,1160012,,,,,,,2021-08-20,1,,,,,ロケロ,0
1079,5011601025339,新規,0,2021-08-20,2021-08-20,株式会社Ｋｏｍｅｔｓｕｂｕ　Ｅｎｔｅｒｔａｉｎｍｅｎｔ,,株式会社,東京都,練馬区,高松５丁目２２番１１号ビームス光が丘３０１,,13,120,1790075,,,,,,,2021-08-20,1,,,,,コメツブエンタテインメント,0
1085,5012401038217,新規,0,2021-08-20,2021-08-20,レストインレコーズ株式会社,,株式会社,東京都,小金井市,梶野町１丁目２－３６ＫＯ－ＴＯ,,13,210,1840002,,,,,,,2021-08-20,1,,,,,レストインレコーズ,0
1088,5013101008699,新規,0,2021-08-20,2021-08-20,株式会社ＯＳＵ,,株式会社,東京都,福生市,大字福生１１５９番地３９,,13,218,1970011,,,,,,,2021-08-20,1,,,,,オス,0
1091,5013301047869,新規,0,2021-08-20,2021-08-20,株式会社Ｍｕｔａｎ　Ｉｎｓｉｇｈｔ,,株式会社,東京都,豊島区,東池袋３丁目９番７号東池袋織本ビル２階,,13,116,1700013,,,,,,,2021-08-20,1,,,,,ミュータンインサイト,0
1108,5021003010814,新規,0,2021-08-20,2021-08-20,合同会社リテールアイ,,合同会社,神奈川県,相模原市中央区,淵野辺本町１丁目３番３１－４号,,14,152,2520202,,,,,,,2021-08-20,1,,,,,リテールアイ,0
1113,5030001143906,新規,0,2021-08-20,2021-08-20,カラカサ株式会社,,株式会社,埼玉県,坂戸市,西坂戸１丁目７番２８号,,11,239,3500247,,,,,,,2021-08-20,1,,,,,カラカサ,0
1114,5030001143922,新規,0,2021-08-20,2021-08-20,株式会社オートガレージ・タケヨシ,,株式会社,埼玉県,草加市,新栄３丁目３９番地３,,11,221,3400056,,,,,,,2021-08-20,1,,,,,オートガレージタケヨシ,0
1132,5070001038367,新規,0,2021-08-20,2021-08-20,株式会社論,,株式会社,群馬県,邑楽郡板倉町,大字岩田２２５９番地４,,10,521,3740133,,,,,,,2021-08-20,1,,,,,ロン,0
1158,5120001239835,新規,0,2021-08-20,2021-08-20,株式会社ＫＲＳ,,株式会社,大阪府,枚方市,宮之阪１丁目１０番２号,,27,210,5730022,,,,,,,2021-08-20,1,,,,,ケーアールエス,0
1159,5120001239851,新規,0,2021-08-20,2021-08-20,株式会社Ａ．Ｇ．Ｏファーマシー,,株式会社,大阪府,大阪市旭区,生江３丁目２８番３８号,,27,117,5350004,,,,,,,2021-08-20,1,,,,,エージーオーファーマシー,0
1166,5120101064167,新規,0,2021-08-20,2021-08-20,株式会社腸能力開発機構,,株式会社,大阪府,富田林市,南旭ケ丘町１８番１６号,,27,214,5840007,,,,,,,2021-08-20,1,,,,,チョウノウリョクカイハツキコウ,0
1167,5120101064175,新規,0,2021-08-20,2021-08-20,芸博株式会社,,株式会社,大阪府,阪南市,自然田２７３－１３,,27,232,5990212,,,,,,,2021-08-20,1,,,,,ゲイハク,0
1168,5120101064183,新規,0,2021-08-20,2021-08-20,株式会社田中リサイクル,,株式会社,大阪府,泉大津市,板原町５丁目８番１５号,,27,206,5950033,,,,,,,2021-08-20,1,,,,,タナカリサイクル,0
1181,5140001122667,新規,0,2021-08-20,2021-08-20,ｓｆｉｄａマネジメント株式会社,,株式会社,兵庫県,神戸市垂水区,星が丘３丁目４番１７号,,28,108,6550032,,,,,,,2021-08-20,1,,,,,スフィーダマネジメント,0
1182,5160001023566,新規,0,2021-08-20,2021-08-20,Ｌ．Ｓ．Ｄ．ｅｎｇｉｎｅｅｒ株式会社,,株式会社,滋賀県,東近江市,宮川町６５１番地５１,,25,213,5291551,,,,,,,2021-08-20,1,,,,,エルエスディーエンジニア,0
1184,5180001147495,新規,0,2021-08-20,2021-08-20,株式会社澤田組,,株式会社,愛知県,半田市,東郷町２丁目１１２番地,,23,205,4750924,,,,,,,2021-08-20,1,,,,,サワダグミ,0
1191,5190001028620,新規,0,2021-08-20,2021-08-20,株式会社Ｔ＆Ｙフーズ,,株式会社,三重県,津市,一身田平野４３０番地２０,,24,201,5140111,,,,,,,2021-08-20,1,,,,,ティーアンドワイフーズ,0
1212,5240003005249,新規,0,2021-08-20,2021-08-20,あんしん補聴器合同会社,,合同会社,広島県,広島市佐伯区,五日市中央５丁目１８番地５号高田ビル１０１号,,34,108,7315128,,,,,,,2021-08-20,1,,,,,アンシンホチョウキ,0
1215,5260001035881,新規,0,2021-08-20,2021-08-20,株式会社インシュアライフ,,株式会社,岡山県,岡山市中区,門田屋敷４丁目１番２１号,,33,102,7038275,,,,,,,2021-08-20,1,,,,,インシュアライフ,0
1229,5290003011523,新規,0,2021-08-20,2021-08-20,合同会社佐敦,,合同会社,福岡県,福岡市博多区,博多駅前２丁目１９番１７号,,40,132,8120011,,,,,,,2021-08-20,1,,,,,ジョーダン,0
1233,5310003004144,新規,0,2021-08-20,2021-08-20,合同会社ＳＯＡＲＥ,,合同会社,長崎県,長崎市,浜町２番１７－２０２号,,42,201,8500853,,,,,,,2021-08-20,1,,,,,ソアレ,0
1239,5330001028928,新規,0,2021-08-20,2021-08-20,株式会社Ｏｚ,,株式会社,熊本県,八代市,松江本町７番２９号,,43,202,8660882,,,,,,,2021-08-20,1,,,,,オズ,0
1242,5350001017268,新規,0,2021-08-20,2021-08-20,株式会社西和,,株式会社,宮崎県,都城市,中原町４１街区８号,,45,202,8850032,,,,,,,2021-08-20,1,,,,,セイワ,0
1245,5360003011342,新規,0,2021-08-20,2021-08-20,シンクタンクゴッドマウンテン合同会社,,合同会社,沖縄県,宜野湾市,字宇地泊７５９番地,,47,205,9012227,,,,,,,2021-08-20,1,,,,,,0
1246,5360003011375,新規,0,2021-08-20,2021-08-20,合同会社藍琉,,合同会社,沖縄県,うるま市,与那城饒辺７２７－４０ＥａｓｔＢｌｕｅ２－Ｃ,,47,213,9042307,,,,,,,2021-08-20,1,,,,,アイル,0
1257,5400001015571,新規,0,2021-08-20,2021-08-20,ｎｅｘｔｄａｙｓ株式会社,,株式会社,岩手県,花巻市,上町３番１０号金子ビル１階北,,03,205,0250087,,,,,,,2021-08-20,1,,,,,ネクストデイズ,0
1267,5430003013067,新規,0,2021-08-20,2021-08-20,合同会社ＮＫｃｏｍｐａｎｙ,,合同会社,北海道,江別市,ゆめみ野南町８番地の５,,01,217,0670066,,,,,,,2021-08-20,1,,,,,エヌケイカンパニー,0
1288,6010001220474,新規,0,2021-08-20,2021-08-20,株式会社ＦＭネットワーク,,株式会社,東京都,中央区,新川２丁目２０番７号,,13,102,1040033,,,,,,,2021-08-20,1,,,,,エフエムネットワーク,0
1296,6010003035648,新規,0,2021-08-20,2021-08-20,合同会社フォレスト,,合同会社,東京都,中央区,銀座１丁目１２－４Ｎ＆ＥＢＬＤ．７Ｆ,,13,102,1040061,,,,,,,2021-08-20,1,,,,,フォレスト,0
1308,6010403025934,新規,0,2021-08-20,2021-08-20,合同会社ｎａｖｙ　ｓｔｒａｎｇｅ　ｗｏｒｋｓ,,合同会社,東京都,港区,六本木２丁目３－７－１２０２,,13,103,1060032,,,,,,,2021-08-20,1,,,,,ネイビーストレンジワークス,0
1312,6010701041402,新規,0,2021-08-20,2021-08-20,株式会社ＮｉｃｈｅＮｉｃｈｅ,,株式会社,東京都,品川区,西五反田７丁目１３番５号ＤＫ五反田４Ｆ,,13,109,1410031,,,,,,,2021-08-20,1,,,,,ニッチニッチ,0
1317,6010903006748,新規,0,2021-08-20,2021-08-20,合同会社ラクーン,,合同会社,東京都,世田谷区,豪徳寺１丁目４５番２号,,13,112,1540021,,,,,,,2021-08-20,1,,,,,ラクーン,0
1327,6011001142139,新規,0,2021-08-20,2021-08-20,Ａｌｗａｙｓ　Ｐｕｒｅ　Ｏｒｇａｎｉｃｓ　Ｊａｐａｎ株式会社,,株式会社,東京都,渋谷区,富ヶ谷１丁目１４番１４号,,13,113,1510063,,,,,,,2021-08-20,1,,,,,オルウェイズピュアオーガニクスジャパン,0
1328,6011001142213,新規,0,2021-08-20,2021-08-20,株式会社Ｖｏｌｃａｎａ　Ｈ．,,株式会社,東京都,渋谷区,神宮前４丁目８番６号,,13,113,1500001,,,,,,,2021-08-20,1,,,,,ボルケーニャハラジュク,0
1329,6011001142353,新規,0,2021-08-20,2021-08-20,染める株式会社,,株式会社,東京都,渋谷区,道玄坂１丁目１６－６二葉ビル３Ｆ,,13,113,1500043,,,,,,,2021-08-20,1,,,,,ソメル,0
1330,6011001142386,新規,0,2021-08-20,2021-08-20,株式会社ＯＯＱ,,株式会社,東京都,渋谷区,松濤１丁目２８番２号,,13,113,1500046,,,,,,,2021-08-20,1,,,,,ウーク,0
1334,6011003013189,新規,0,2021-08-20,2021-08-20,合同会社ｒｉｃｅｌｅａｆ,,合同会社,東京都,目黒区,中目黒５丁目２７番１８号,,13,110,1530061,,,,,,,2021-08-20,1,,,,,ライスリーフ,0
1335,6011003013239,新規,0,2021-08-20,2021-08-20,ＴＩＧＥＲ　ＣＯＮＳＵＬＴＩＮＧ合同会社,,合同会社,東京都,目黒区,洗足２丁目１３－３,,13,110,1520012,,,,,,,2021-08-20,1,,,,,タイガーコンサルティング,0
1336,6011005009177,新規,0,2021-08-20,2021-08-20,一般社団法人ＬｅａＬ,,その他の設立登記法人,東京都,渋谷区,神山町５番２号ルート神山町ビル２Ｆ,,13,113,1500047,,,,,,,2021-08-20,1,,,,,リール,0
1342,6011201023188,新規,0,2021-08-20,2021-08-20,株式会社ＥＺＯ,,株式会社,東京都,中野区,上高田５丁目２０番７号アーバンプレイス１０２号室,,13,114,1640002,,,,,,,2021-08-20,1,,,,,エゾ,0
1348,6011801039600,新規,0,2021-08-20,2021-08-20,株式会社ｅａｒｔｈ,,株式会社,東京都,足立区,東綾瀬３丁目８番２４号,,13,121,1200004,,,,,,,2021-08-20,1,,,,,アース,0
1353,6012703002290,新規,0,2021-08-20,2021-08-20,エルスト合同会社,,合同会社,東京都,西東京市,田無町３丁目１番３号パールコート４０１,,13,229,1880011,,,,,,,2021-08-20,1,,,,,エルスト,0
1362,6020001142668,新規,0,2021-08-20,2021-08-20,株式会社ＣｏｄｙＣｏｄｅ,,株式会社,神奈川県,川崎市中原区,下小田中６丁目７－１,,14,133,2110041,,,,,,,2021-08-20,1,,,,,コーディーコード,0
1368,6020003020343,新規,0,2021-08-20,2021-08-20,ユニ・クラウン合同会社,,合同会社,神奈川県,横浜市保土ケ谷区,西谷３丁目１７－１８,,14,106,2400054,,,,,,,2021-08-20,1,,,,,ユニクラウン,0
1369,6020005015176,新規,0,2021-08-20,2021-08-20,一般社団法人日本音楽振興協会,,その他の設立登記法人,神奈川県,川崎市幸区,北加瀬３丁目１９番７号,,14,132,2120057,,,,,,,2021-08-20,1,,,,,ニホンオンガクシンコウキョウカイ,0
1374,6021003010821,新規,0,2021-08-20,2021-08-20,合同会社環境エピジェネティクス研究所,,合同会社,神奈川県,足柄下郡湯河原町,吉浜１９３３番地の４５,,14,384,2590312,,,,,,,2021-08-20,1,,,,,カンキョウエピジェネティクスケンキュウジョ,0
1410,6080401025277,新規,0,2021-08-20,2021-08-20,株式会社北斗,,株式会社,静岡県,浜松市北区,細江町気賀１８３３番地の１フォンテーヌ２０２号室,,22,135,4311305,,,,,,,2021-08-20,1,,,,,ホクト,0
1411,6090001017161,新規,0,2021-08-20,2021-08-20,株式会社アトラスジュエリー,,株式会社,山梨県,中巨摩郡昭和町,西条５１０５番地堀之内ビル２０２号,,19,384,4093866,,,,,,,2021-08-20,1,,,,,,0
1427,6120001239834,新規,0,2021-08-20,2021-08-20,株式会社ファーストペンギン,,株式会社,大阪府,大阪市天王寺区,筆ケ崎町６番１２－１３０３号,,27,109,5430027,,,,,,,2021-08-20,1,,,,,ファーストペンギン,0
1428,6120001239842,新規,0,2021-08-20,2021-08-20,株式会社８８８,,株式会社,大阪府,大阪市浪速区,塩草３丁目１０－２２小川ビル２０１,,27,111,5560024,,,,,,,2021-08-20,1,,,,,トリプルエイト,0
1429,6120001239875,新規,0,2021-08-20,2021-08-20,株式会社太陽,,株式会社,大阪府,大阪市西成区,中開２丁目５番２６号,,27,122,5570022,,,,,,,2021-08-20,1,,,,,タイヨウ,0
1432,6120003020060,新規,0,2021-08-20,2021-08-20,合同会社フォートラン,,合同会社,大阪府,大阪市中央区,南船場２丁目７－１３,,27,128,5420081,,,,,,,2021-08-20,1,,,,,フォートラン,0
1433,6120003020069,新規,0,2021-08-20,2021-08-20,合同会社エビス,,合同会社,大阪府,大阪市西成区,山王３丁目２番１号,,27,122,5570001,,,,,,,2021-08-20,1,,,,,エビス,0
1434,6120003020077,新規,0,2021-08-20,2021-08-20,合同会社ＲＩＳＵＬＴ,,合同会社,大阪府,大阪市東成区,東小橋３丁目１７番１１号,,27,115,5370024,,,,,,,2021-08-20,1,,,,,リザルト,0
1455,6140001122749,新規,0,2021-08-20,2021-08-20,株式会社大きな森,,株式会社,兵庫県,明石市,松が丘３丁目２８番２号,,28,203,6730862,,,,,,,2021-08-20,1,,,,,オオキナモリ,0
1456,6140001122765,新規,0,2021-08-20,2021-08-20,株式会社絆サンセリテ,,株式会社,兵庫県,加古郡稲美町,国岡３丁目３１番地６,,28,381,6751115,,,,,,,2021-08-20,1,,,,,キズナサンセリテ,0
1457,6140003016651,新規,0,2021-08-20,2021-08-20,合同会社ぷーさん,,合同会社,兵庫県,西宮市,荒戎町２番２４号,,28,204,6620946,,,,,,,2021-08-20,1,,,,,プーサン,0
1462,6180301035283,新規,0,2021-08-20,2021-08-20,株式会社ニットーネジコム,,株式会社,愛知県,豊田市,明和町７丁目５８番地,,23,211,4710825,,,,,,,2021-08-20,1,,,,,,0
1492,6290001094040,新規,0,2021-08-20,2021-08-20,福英マテリアルズ株式会社,,株式会社,福岡県,福岡市博多区,東光１丁目３番１１号やますえ東光ビル９０２号,,40,132,8120008,,,,,,,2021-08-20,1,,,,,フクエイマテリアルズ,0
1493,6290001094164,新規,0,2021-08-20,2021-08-20,株式会社愛甲設備,,株式会社,福岡県,糟屋郡宇美町,四王寺坂３丁目１２番２号,,40,341,8112103,,,,,,,2021-08-20,1,,,,,アイコウセツビ,0
1494,6290001094263,新規,0,2021-08-20,2021-08-20,株式会社ウィズ・プロダクト,,株式会社,福岡県,福岡市西区,野方５丁目５８番１０号,,40,135,8190043,,,,,,,2021-08-20,1,,,,,ウィズプロダクト,0
1495,6290001094271,新規,0,2021-08-20,2021-08-20,株式会社エスエヌジー,,株式会社,福岡県,宗像市,王丸１０９１番地１２,,40,220,8113422,,,,,,,2021-08-20,1,,,,,エスエヌジー,0
1497,6290003011506,新規,0,2021-08-20,2021-08-20,合同会社ＡＵＲＯＲＡ・ＦＥＡＬＴＹ,,合同会社,福岡県,福岡市中央区,天神２丁目３番１０号天神パインクレスト７１９号,,40,133,8100001,,,,,,,2021-08-20,1,,,,,アウローラフィルティ,0
1503,6310003004143,新規,0,2021-08-20,2021-08-20,合同会社千穂,,合同会社,長崎県,佐世保市,もみじが丘町４１－６０,,42,202,8571153,,,,,,,2021-08-20,1,,,,,チホ,0
1509,6330001028919,新規,0,2021-08-20,2021-08-20,８１８株式会社,,株式会社,熊本県,熊本市西区,池田１丁目２１番３０号,,43,103,8600082,,,,,,,2021-08-20,1,,,,,ハイパー,0
1512,6330005010377,新規,0,2021-08-20,2021-08-20,五木村複業協同組合,,その他の設立登記法人,熊本県,球磨郡五木村,乙１５３２番地１号,,43,511,8680202,,,,,,,2021-08-20,1,,,,,イツキムラフクギョウ,0
1519,6360001029253,新規,0,2021-08-20,2021-08-20,株式会社Ｔ＆Ｏ沖縄,,株式会社,沖縄県,中頭郡読谷村,字瀬名波２０８番地１,,47,324,9040325,,,,,,,2021-08-20,1,,,,,ティーアンドオーオキナワ,0
1524,6360003011341,新規,0,2021-08-20,2021-08-20,アレティ合同会社,,合同会社,沖縄県,那覇市,泊２丁目１番地１８号４階,,47,201,9000012,,,,,,,2021-08-20,1,,,,,アレティ,0
1529,6370003005359,新規,0,2021-08-20,2021-08-20,合同会社ＶＩＴＡ,,合同会社,宮城県,仙台市青葉区,錦ケ丘１丁目３番地の１ヒルサイドモール１Ｆ,,04,101,9893123,,,,,,,2021-08-20,1,,,,,ヴィータ,0
1550,6470001018666,新規,0,2021-08-20,2021-08-20,株式会社ＩＳ,,株式会社,香川県,坂出市,久米町１丁目２番３８号,,37,203,7620003,,,,,,,2021-08-20,1,,,,,アイエス,0
1566,7010001220473,新規,0,2021-08-20,2021-08-20,株式会社フォーメンバーズホールディングス,,株式会社,東京都,中央区,新川２丁目２０番７号,,13,102,1040033,,,,,,,2021-08-20,1,,,,,フォーメンバーズホールディングス,0
1569,7010003035663,新規,0,2021-08-20,2021-08-20,合同会社シートスマート,,合同会社,東京都,千代田区,九段南１丁目５番６号りそな九段ビル５階ＫＳフロア,,13,101,1020074,,,,,,,2021-08-20,1,,,,,シートスマート,0
1579,7010405020107,新規,0,2021-08-20,2021-08-20,一般社団法人日本食中毒防止協会,,その他の設立登記法人,東京都,港区,南青山５丁目１７番６号青山グリーンハイツ５０２,,13,103,1070062,,,,,,,2021-08-20,1,,,,,ニホンショクチュウドクボウシキョウカイ,0
1587,7010901049293,新規,0,2021-08-20,2021-08-20,株式会社Ｑｕｏｌｌｉｏ　Ｔｅｃｈｎｏｌｏｇｉｅｓ,,株式会社,東京都,世田谷区,代沢４丁目４０番１３号,,13,112,1550032,,,,,,,2021-08-20,1,,,,,クオリオテクノロジーズ,0
1588,7010903006747,新規,0,2021-08-20,2021-08-20,ｎｊｕｋ合同会社,,合同会社,東京都,世田谷区,上馬４丁目８番８号ミュゼ駒沢３０１,,13,112,1540011,,,,,,,2021-08-20,1,,,,,ニューク,0
1592,7011001142162,新規,0,2021-08-20,2021-08-20,株式会社１０２１,,株式会社,東京都,渋谷区,渋谷３丁目６番４号プライア渋谷１６０６号室,,13,113,1500002,,,,,,,2021-08-20,1,,,,,センニジュウイチ,0
1593,7011001142419,新規,0,2021-08-20,2021-08-20,株式会社ブループラム,,株式会社,東京都,渋谷区,渋谷３丁目１０番１８－２１０号パークハビオ渋谷,,13,113,1500002,,,,,,,2021-08-20,1,,,,,ブループラム,0
1596,7011003013221,新規,0,2021-08-20,2021-08-20,合同会社ＤｉＡＸＳ,,合同会社,東京都,渋谷区,渋谷２丁目７番１３号ネオメット青山３階,,13,113,1500002,,,,,,,2021-08-20,1,,,,,ディグアス,0
1597,7011003013246,新規,0,2021-08-20,2021-08-20,合同会社ＳＨＣ厚木,,合同会社,東京都,目黒区,洗足２丁目１６番１９号,,13,110,1520012,,,,,,,2021-08-20,1,,,,,エスエイチシーアツギ,0
1598,7011005009176,新規,0,2021-08-20,2021-08-20,一般社団法人一本松,,その他の設立登記法人,東京都,渋谷区,神宮前６丁目２３番４号桑野ビル２階,,13,113,1500001,,,,,,,2021-08-20,1,,,,,イッポンマツ,0
1601,7011201023204,新規,0,2021-08-20,2021-08-20,株式会社ＦＲＯＮＴＯＮＬＩＮＥ,,株式会社,東京都,中野区,本町１丁目２３番９号ＮＩＤビル４階,,13,114,1640012,,,,,,,2021-08-20,1,,,,,フロントオンライン,0
1611,7012801021035,新規,0,2021-08-20,2021-08-20,株式会社Ｇｅｍｉｎｉ,,株式会社,東京都,日野市,平山３丁目６番地の２,,13,212,1910043,,,,,,,2021-08-20,1,,,,,ジェミニ,0
1627,7020001142320,新規,0,2021-08-20,2021-08-20,株式会社田中商会,,株式会社,神奈川県,横浜市中区,長者町３丁目８－１３－４０３Ｂ,,14,104,2310033,,,,,,,2021-08-20,1,,,,,タナカショウカイ,0
1628,7020001142667,新規,0,2021-08-20,2021-08-20,株式会社ＩＮＦＩＮＩＴＹ,,株式会社,神奈川県,横浜市中区,曙町４丁目５６番地Ｌｉｂｅｒｔｙ大通り公園８０４,,14,104,2310057,,,,,,,2021-08-20,1,,,,,インフィニティ,0
1643,7021001073729,新規,0,2021-08-20,2021-08-20,株式会社ＡＫｓｅｒｖｉｃｅ,,株式会社,神奈川県,相模原市南区,下溝２０２９番地７,,14,153,2520335,,,,,,,2021-08-20,1,,,,,エーケーサービス,0
1647,7021005012278,新規,0,2021-08-20,2021-08-20,特定非営利活動法人ここも,,その他の設立登記法人,神奈川県,伊勢原市,板戸５９３番地の１ルミエールＢＢ１０１号,,14,214,2591145,,,,,,,2021-08-20,1,,,,,ココモ,0
1652,7030001143879,新規,0,2021-08-20,2021-08-20,株式会社相続財産経営,,株式会社,埼玉県,富士見市,ふじみ野東１丁目１１番地４オリンピア１階,,11,235,3540036,,,,,,,2021-08-20,1,,,,,ソウゾクザイサンケイエイ,0
1655,7030003017809,新規,0,2021-08-20,2021-08-20,合同会社カインド,,合同会社,埼玉県,新座市,道場２丁目１５番１０号,,11,230,3520024,,,,,,,2021-08-20,1,,,,,カインド,0
1661,7040001119861,新規,0,2021-08-20,2021-08-20,株式会社ｍｏｉｓｔｅａｎｅ　ｂｅ　ｃｌａｓｓｉｃ,,株式会社,千葉県,木更津市,金田東６丁目２６番地５,,12,206,2920009,,,,,,,2021-08-20,1,,,,,モイスティーヌビークラシック,0
1662,7040001119878,新規,0,2021-08-20,2021-08-20,株式会社Ｓａｉｌｓｅａ,,株式会社,千葉県,船橋市,本町７丁目２１番６号,,12,204,2730005,,,,,,,2021-08-20,1,,,,,セイルシー,0
1668,7040003018368,新規,0,2021-08-20,2021-08-20,合同会社Ｓ・Ｔファームビレッジ,,合同会社,千葉県,佐倉市,吉見６７３番地,,12,212,2850834,,,,,,,2021-08-20,1,,,,,エステーファームビレッジ,0
1686,7070001038373,新規,0,2021-08-20,2021-08-20,株式会社Ｖａｒｉｏｓ,,株式会社,群馬県,高崎市,新町３２６４番地３,,10,202,3701301,,,,,,,2021-08-20,1,,,,,バリオス,0
1689,7080101022722,新規,0,2021-08-20,2021-08-20,カワマタファーム株式会社,,株式会社,静岡県,富士宮市,下条２９８番地の１,,22,207,4180114,,,,,,,2021-08-20,1,,,,,カワマタファーム,0
1696,7110001035985,新規,0,2021-08-20,2021-08-20,紀州ワグラース株式会社,,株式会社,新潟県,新潟市中央区,沼垂西１丁目１３番１８号ホポロ東万代４０３号,,15,103,9500076,,,,,,,2021-08-20,1,,,,,キシュウワグラース,0
1697,7110005016701,新規,0,2021-08-20,2021-08-20,医療法人社団徳新会,,その他の設立登記法人,新潟県,上越市,大豆１丁目１３番１９号,,15,222,9430802,,,,,,,2021-08-20,1,,,,,トクシンカイ,0
1715,7120003020076,新規,0,2021-08-20,2021-08-20,ＭＩＮＡＭＩ　ＪＰ合同会社,,合同会社,大阪府,大阪市中央区,平野町３丁目３－７ニューライフ平野町９０８,,27,128,5410046,,,,,,,2021-08-20,1,,,,,ミナミジェイピー,0
1730,7130005016253,新規,0,2021-08-20,2021-08-20,特定非営利活動法人ＦＲＥＥ　ＢＯＸ,,その他の設立登記法人,京都府,京都市伏見区,山崎町３５０番地,,26,109,6128367,,,,,,,2021-08-20,1,,,,,フリーボックス,0
1734,7140001122748,新規,0,2021-08-20,2021-08-20,株式会社ネクサス,,株式会社,兵庫県,姫路市,勝原区熊見３６５番地１８,,28,201,6711211,,,,,,,2021-08-20,1,,,,,ネクサス,0
1735,7140001122756,新規,0,2021-08-20,2021-08-20,ＢＶアセット株式会社,,株式会社,兵庫県,西宮市,産所町１５番１３号,,28,204,6620978,,,,,,,2021-08-20,1,,,,,ビーブイアセット,0
1736,7140001122764,新規,0,2021-08-20,2021-08-20,株式会社明陽運輸,,株式会社,兵庫県,淡路市,大谷８９３番地の９,,28,226,6562224,,,,,,,2021-08-20,1,,,,,メイヨウウンユ,0
1737,7140001122772,新規,0,2021-08-20,2021-08-20,アオイサービス株式会社,,株式会社,兵庫県,神戸市兵庫区,今出在家町３丁目４番１５号,,28,105,6520853,,,,,,,2021-08-20,1,,,,,アオイサービス,0
1738,7140003016650,新規,0,2021-08-20,2021-08-20,合同会社ＫＡＺ,,合同会社,兵庫県,西宮市,松ケ丘町１２番１３号,,28,204,6620061,,,,,,,2021-08-20,1,,,,,カズ,0
1742,7160001023564,新規,0,2021-08-20,2021-08-20,株式会社近江之花,,株式会社,滋賀県,大津市,萱野浦２５番２４－２０１号,,25,201,5202143,,,,,,,2021-08-20,1,,,,,オウミノハナ,0
1745,7180001147502,新規,0,2021-08-20,2021-08-20,株式会社ＫＴコンサルティング,,株式会社,愛知県,瀬戸市,幡西町１５８番地の１,,23,204,4890938,,,,,,,2021-08-20,1,,,,,ケーティーコンサルティング,0
1754,7200001039036,新規,0,2021-08-20,2021-08-20,志栄株式会社,,株式会社,岐阜県,美濃加茂市,田島町３丁目９番地８,,21,211,5050032,,,,,,,2021-08-20,1,,,,,シエイ,0
1783,7290801027719,新規,0,2021-08-20,2021-08-20,株式会社小田電工,,株式会社,福岡県,中間市,中尾１丁目１０番５号,,40,215,8090032,,,,,,,2021-08-20,1,,,,,オダデンコウ,0
1786,7330001028918,新規,0,2021-08-20,2021-08-20,株式会社ボンテック,,株式会社,熊本県,上益城郡益城町,大字小池１３９２番地,,43,443,8612223,,,,,,,2021-08-20,1,,,,,ボンテック,0
1787,7330001028926,新規,0,2021-08-20,2021-08-20,株式会社武田商事,,株式会社,熊本県,熊本市中央区,八王寺町１３番２１号星寿八王寺ビル１号室,,43,101,8600831,,,,,,,2021-08-20,1,,,,,タケダショウジ,0
1793,7360003011373,新規,0,2021-08-20,2021-08-20,合同会社ＳＶＰコーポレーション,,合同会社,沖縄県,沖縄市,明道１丁目１－２５,,47,211,9042152,,,,,,,2021-08-20,1,,,,,エスブイピーコーポレーション,0
1806,7400003002822,新規,0,2021-08-20,2021-08-20,安心・永眠プランニング合同会社,,合同会社,岩手県,八幡平市,柏台１丁目１９－１,,03,214,0287303,,,,,,,2021-08-20,1,,,,,アンミンエイミンプランニング,0
1822,7450003002116,新規,0,2021-08-20,2021-08-20,合同会社一燈照隅舎,,合同会社,北海道,旭川市,春光台一条１丁目２番２３号,,01,204,0718141,,,,,,,2021-08-20,1,,,,,イットウショウグウシャ,0
1826,7500001023629,新規,0,2021-08-20,2021-08-20,耕力農園株式会社,,株式会社,愛媛県,新居浜市,阿島乙１７４番地,,38,205,7920897,,,,,,,2021-08-20,1,,,,,コウリョクノウエン,0
1834,8010003035522,新規,0,2021-08-20,2021-08-20,神田錦町合同会社,,合同会社,東京都,中央区,八丁堀４丁目２番１０号ＡＯＪ税理士法人内,,13,102,1040032,,,,,,,2021-08-20,1,,,,,カンダニシキチョウ,0
1835,8010003035596,新規,0,2021-08-20,2021-08-20,東京オフィスＥａｓｔ１合同会社,,合同会社,東京都,千代田区,丸の内３丁目１番１号東京共同会計事務所内,,13,101,1000005,,,,,,,2021-08-20,1,,,,,トウキョウオフィスイーストワン,0
1837,8010005033821,新規,0,2021-08-20,2021-08-20,一般社団法人ＫＲＦ９９,,その他の設立登記法人,東京都,千代田区,内幸町２丁目１番６号,,13,101,1000011,,,,,,,2021-08-20,1,,,,,ケイアールエフナインティナイン,0
1845,8010401162125,新規,0,2021-08-20,2021-08-20,株式会社グローバル企業,,株式会社,東京都,港区,三田５丁目１３番４－６０３号,,13,103,1080073,,,,,,,2021-08-20,1,,,,,,0
1846,8010401162208,新規,0,2021-08-20,2021-08-20,株式会社アイバランス,,株式会社,東京都,港区,南青山２丁目２番１５号ウィン青山９４２号室,,13,103,1070062,,,,,,,2021-08-20,1,,,,,アイバランス,0
1853,8010701041409,新規,0,2021-08-20,2021-08-20,株式会社アレゲニインサイト,,株式会社,東京都,品川区,上大崎３丁目１番３０号,,13,109,1410021,,,,,,,2021-08-20,1,,,,,アレゲニインサイト,0
1856,8010903006746,新規,0,2021-08-20,2021-08-20,ａｉｄ　ｐｅｒｓｏｎ　ｊａｐａｎ合同会社,,合同会社,東京都,世田谷区,粕谷２丁目２４番１－６２５号,,13,112,1570063,,,,,,,2021-08-20,1,,,,,エイドパーソンジャパン,0
1862,8011001142186,新規,0,2021-08-20,2021-08-20,株式会社ＨＡＮＡ．,,株式会社,東京都,目黒区,祐天寺１丁目９番２３号,,13,110,1530052,,,,,,,2021-08-20,1,,,,,ハナ,0
1863,8011001142368,新規,0,2021-08-20,2021-08-20,株式会社ＤＥＰＯＲＴＥ,,株式会社,東京都,渋谷区,神宮前６丁目２３番４号桑野ビル２階,,13,113,1500001,,,,,,,2021-08-20,1,,,,,デポルテ,0
1871,8011101096076,新規,0,2021-08-20,2021-08-20,株式会社Ｓ－Ｐｌａｙ,,株式会社,東京都,新宿区,西新宿６丁目１５番１号,,13,104,1600023,,,,,,,2021-08-20,1,,,,,スプレー,0
1875,8011103010951,新規,0,2021-08-20,2021-08-20,ＭＩＲＡＩ　ＭＯＢＩＬＥ合同会社,,合同会社,東京都,新宿区,高田馬場４丁目１番６寿美ビル３０２号,,13,104,1690075,,,,,,,2021-08-20,1,,,,,ミライモバイル,0
1876,8011105009892,新規,0,2021-08-20,2021-08-20,特定非営利活動法人ＴＤＵ・雫穿大学,,その他の設立登記法人,東京都,新宿区,西早稲田２丁目４番７号,,13,104,1690051,,,,,,,2021-08-20,1,,,,,ティーディーユーテキセンダイガク,0
1886,8011801039598,新規,0,2021-08-20,2021-08-20,株式会社Ｋ’ｓフィールド,,株式会社,東京都,葛飾区,新宿４丁目５番６号,,13,122,1250051,,,,,,,2021-08-20,1,,,,,ケーズフィールド,0
1895,8013301047882,新規,0,2021-08-20,2021-08-20,リテックス株式会社,,株式会社,東京都,豊島区,南池袋１丁目１６番１５号ダイヤゲート池袋,,13,116,1710022,,,,,,,2021-08-20,1,,,,,リテックス,0
1911,8021001073703,新規,0,2021-08-20,2021-08-20,株式会社ｋｘｓ８．ｐｒｏｊｅｃｔ,,株式会社,神奈川県,鎌倉市,稲村ガ崎２丁目１０－２１,,14,204,2480024,,,,,,,2021-08-20,1,,,,,キックスエイトプロジェクト,0
1924,8030001143952,新規,0,2021-08-20,2021-08-20,株式会社小山土建工業,,株式会社,埼玉県,行田市,大字埼玉１１６２番地,,11,206,3610025,,,,,,,2021-08-20,1,,,,,コヤマドケンコウギョウ,0
1931,8040001119852,新規,0,2021-08-20,2021-08-20,鎌形春畝堂株式会社,,株式会社,千葉県,千葉市中央区,浜野町６６６番地グリーンビレッジ浜野５０６号,,12,101,2600824,,,,,,,2021-08-20,1,,,,,カマガタシュンポドウ,0
1935,8050001049727,新規,0,2021-08-20,2021-08-20,株式会社太心建設,,株式会社,茨城県,つくば市,天宝喜２７４番地５,,08,220,3001253,,,,,,,2021-08-20,1,,,,,タイシンケンセツ,0
1936,8050001049735,新規,0,2021-08-20,2021-08-20,柴﨑ビジネスパートナーズ株式会社,00123979,株式会社,茨城県,筑西市,門井１８００番地１６,,08,227,3091107,,,,,,,2021-08-20,1,,,,,シバサキビジネスパートナーズ,0
1943,8070001038372,新規,0,2021-08-20,2021-08-20,株式会社ＥＮＤＯ,,株式会社,群馬県,桐生市,広沢町６丁目８９８番地の６,,10,203,3760013,,,,,,,2021-08-20,1,,,,,エンドー,0
1956,8100001034541,新規,0,2021-08-20,2021-08-20,ＧＬＳスワ株式会社,,株式会社,長野県,諏訪市,大字豊田１０２０番地４,,20,206,3920016,,,,,,,2021-08-20,1,,,,,ジーエルエススワ,0
1964,8110003004558,新規,0,2021-08-20,2021-08-20,合同会社みらい都市開発,,合同会社,新潟県,三条市,神明町３番７号,,15,204,9550063,,,,,,,2021-08-20,1,,,,,ミライトシカイハツ,0
1966,8110005016700,新規,0,2021-08-20,2021-08-20,医療法人社団幸晴会,,その他の設立登記法人,新潟県,新潟市秋葉区,新津東町３丁目４番３号,,15,105,9560816,,,,,,,2021-08-20,1,,,,,コウセイカイ,0
1975,8120001239832,新規,0,2021-08-20,2021-08-20,株式会社Ｄｏ　Ｇｏｏｄ,,株式会社,大阪府,大阪市中央区,島之内１丁目１５番２５号カスタリアタワー長堀橋２００２号室,,27,128,5420082,,,,,,,2021-08-20,1,,,,,ドゥーグッド,0
1976,8120001239865,新規,0,2021-08-20,2021-08-20,株式会社ラペーシュ,,株式会社,大阪府,大阪市北区,曾根崎新地１丁目７番１９号４Ｆ,,27,127,5300002,,,,,,,2021-08-20,1,,,,,ラペーシュ,0
1977,8120001239881,新規,0,2021-08-20,2021-08-20,株式会社ＧＲＡＮＩＳ,,株式会社,大阪府,大阪市浪速区,日本橋東３丁目１４番１０号,,27,111,5560006,,,,,,,2021-08-20,1,,,,,グラニス,0
1980,8120003020059,新規,0,2021-08-20,2021-08-20,合同会社マモルドージョー,,合同会社,大阪府,大阪市浪速区,幸町２丁目３番７－６０３号,,27,111,5560021,,,,,,,2021-08-20,1,,,,,マモルドージョー,0
1982,8120103004300,新規,0,2021-08-20,2021-08-20,合同会社ｌｉｎｏ,,合同会社,大阪府,高石市,西取石７丁目３番６号,,27,225,5920012,,,,,,,2021-08-20,1,,,,,リノ,0
1991,8140001122747,新規,0,2021-08-20,2021-08-20,株式会社石戸建設工業,,株式会社,兵庫県,豊岡市,日高町鶴岡５４７番地の１,,28,209,6695313,,,,,,,2021-08-20,1,,,,,イシドケンセツコウギョウ,0
1992,8140001122755,新規,0,2021-08-20,2021-08-20,株式会社美・紫・音,,株式会社,兵庫県,神戸市中央区,下山手通３丁目１１番５号永安ビル１Ｆ,,28,110,6500011,,,,,,,2021-08-20,1,,,,,ヴィジョン,0
1994,8140003016641,新規,0,2021-08-20,2021-08-20,合同会社ＹＵＩ,,合同会社,兵庫県,神戸市中央区,旭通４丁目１番３－９０５号,,28,110,6510095,,,,,,,2021-08-20,1,,,,,ユイ,0
1995,8140005025789,新規,0,2021-08-20,2021-08-20,特定非営利活動法人茅葺座,,その他の設立登記法人,兵庫県,神戸市北区,花山東町２番１５号１０７号室,,28,109,6511204,,,,,,,2021-08-20,1,,,,,,0
1996,8160001023563,新規,0,2021-08-20,2021-08-20,ｐｕｒｇｅ株式会社,,株式会社,滋賀県,大津市,枝４丁目２番６号,,25,201,5202275,,,,,,,2021-08-20,1,,,,,パージ,0
1998,8180301035281,新規,0,2021-08-20,2021-08-20,株式会社ｍｏｏｍｉｎ,,株式会社,愛知県,刈谷市,桜町１丁目７番地丸四ビル１Ｆ,,23,210,4480028,,,,,,,2021-08-20,1,,,,,ムーミン,0
2012,8260001035879,新規,0,2021-08-20,2021-08-20,株式会社ナカシマ・プランニング,,株式会社,岡山県,倉敷市,中島１１２３番地１,,33,202,7100803,,,,,,,2021-08-20,1,,,,,ナカシマプランニング,0
2027,8310003004141,新規,0,2021-08-20,2021-08-20,合同会社千,,合同会社,長崎県,諫早市,八天町２０番５－１０４号ユートピア八天,,42,204,8540011,,,,,,,2021-08-20,1,,,,,セン,0
2029,8320001018547,新規,0,2021-08-20,2021-08-20,ＨＱテクノ株式会社,,株式会社,大分県,宇佐市,大字岩崎４５８番地の３,,44,211,8791132,,,,,,,2021-08-20,1,,,,,エイチキュウテクノ,0
2032,8330001028925,新規,0,2021-08-20,2021-08-20,株式会社ニュープラス,,株式会社,熊本県,熊本市東区,御領８丁目８番８８号,,43,102,8618035,,,,,,,2021-08-20,1,,,,,ニュープラス,0
2045,8360001029235,新規,0,2021-08-20,2021-08-20,株式会社沖縄カーメンテナンスサービス,,株式会社,沖縄県,島尻郡南風原町,字津嘉山９３６番３,,47,350,9011117,,,,,,,2021-08-20,1,,,,,オキナワカーメンテナンスサービス,0
2057,8400003002821,新規,0,2021-08-20,2021-08-20,小友太陽光発電合同会社,,合同会社,岩手県,陸前高田市,気仙町字町１１０番地,,03,210,0292204,,,,,,,2021-08-20,1,,,,,オトモタイヨウコウハツデン,0
2059,8430001084735,新規,0,2021-08-20,2021-08-20,株式会社ＢＩＴＴ,,株式会社,北海道,札幌市中央区,南六条西１丁目５番地,,01,101,0640806,,,,,,,2021-08-20,1,,,,,ビット,0
2069,8470003002014,新規,0,2021-08-20,2021-08-20,合同会社鬼の畠,,合同会社,香川県,高松市,女木町２８９番地,,37,201,7600092,,,,,,,2021-08-20,1,,,,,オニノハタケ,0
2070,8500001023628,新規,0,2021-08-20,2021-08-20,白石商機株式会社,,株式会社,愛媛県,大洲市,徳森２４１３番地６,,38,207,7950061,,,,,,,2021-08-20,1,,,,,シライシショウキ,0
2076,9010001220471,新規,0,2021-08-20,2021-08-20,株式会社ＥＤＩＭＡＳＳ,,株式会社,東京都,千代田区,九段南１丁目５番６号りそな九段ビル５ＦＫＳフロア,,13,101,1020074,,,,,,,2021-08-20,1,,,,,エディマス,0
2077,9010001220538,新規,0,2021-08-20,2021-08-20,株式会社ａｔｅｌｉｅｒ　ｈｏｋｏ,,株式会社,東京都,中央区,銀座１丁目２２番１１号銀座大竹ビジデンス２階,,13,102,1040061,,,,,,,2021-08-20,1,,,,,アトリエホコ,0
2079,9010003035521,新規,0,2021-08-20,2021-08-20,越智メディカルサービス合同会社,,合同会社,東京都,文京区,白山１丁目１７番４号,,13,105,1130001,,,,,,,2021-08-20,1,,,,,オチメディカルサービス,0
2080,9010003035653,新規,0,2021-08-20,2021-08-20,Ｓｕｓｔｔｙ合同会社,,合同会社,東京都,中央区,東日本橋２丁目２８番４号日本橋ＣＥＴビル２階,,13,102,1030004,,,,,,,2021-08-20,1,,,,,サスティ,0
2081,9010003035661,新規,0,2021-08-20,2021-08-20,ＷＥＬＬ－ＢＥＩＮＧ　ＳＴＹＬＥ合同会社,,合同会社,東京都,中央区,日本橋富沢町３番７号,,13,102,1030006,,,,,,,2021-08-20,1,,,,,ウェルビーイングスタイル,0
2083,9010005033779,新規,0,2021-08-20,2021-08-20,賀山社会保険労務士法人,,その他の設立登記法人,東京都,中央区,銀座８丁目１５番１０号,,13,102,1040061,,,,,,,2021-08-20,1,,,,,カヤマ,0
2084,9010005033820,新規,0,2021-08-20,2021-08-20,一般社団法人ＫＲＦ９８,,その他の設立登記法人,東京都,千代田区,内幸町２丁目１番６号,,13,101,1000011,,,,,,,2021-08-20,1,,,,,ケイアールエフナインティエイト,0
2099,9010903006737,新規,0,2021-08-20,2021-08-20,ＸＲＯＳＳＣＯＵＮＴＥＲ合同会社,,合同会社,東京都,世田谷区,松原３丁目３－１１,,13,112,1560043,,,,,,,2021-08-20,1,,,,,クロスカウンター,0
2103,9011001142243,新規,0,2021-08-20,2021-08-20,ＳＯ－ＣＯＮＳＵＬＴ株式会社,,株式会社,東京都,渋谷区,桜丘町２６番１号セルリアンタワー１５階,,13,113,1500031,,,,,,,2021-08-20,1,,,,,エスオーコンサルト,0
2104,9011001142367,新規,0,2021-08-20,2021-08-20,株式会社Ｌｉｓｍｏａ,,株式会社,東京都,渋谷区,渋谷１丁目２０番１号,,13,113,1500002,,,,,,,2021-08-20,1,,,,,リスモア,0
2106,9011003013252,新規,0,2021-08-20,2021-08-20,合同会社サポーターズファクトリー,,合同会社,東京都,渋谷区,神泉町１４番１２号アームスコマ１０１,,13,113,1500045,,,,,,,2021-08-20,1,,,,,サポーターズファクトリー,0
2107,9011005009190,新規,0,2021-08-20,2021-08-20,一般社団法人ＳＨＣ厚木,,その他の設立登記法人,東京都,目黒区,洗足２丁目１６番１９号,,13,110,1520012,,,,,,,2021-08-20,1,,,,,エスエイチシーアツギ,0
2111,9011103010950,新規,0,2021-08-20,2021-08-20,合同会社Ｖｉｓｉｏｎ,,合同会社,東京都,新宿区,中落合４丁目２１－１１－２Ｆ,,13,104,1610032,,,,,,,2021-08-20,1,,,,,ヴィジョン,0
2112,9011105009925,新規,0,2021-08-20,2021-08-20,一般社団法人アーティストユニオン,,その他の設立登記法人,東京都,新宿区,新宿３丁目１番２４号,,13,104,1600022,,,,,,,2021-08-20,1,,,,,アーティストユニオン,0
2113,9011201023202,新規,0,2021-08-20,2021-08-20,株式会社ＤＡＭＯＡ,,株式会社,東京都,中野区,野方６丁目３０番１号野方店舗１階,,13,114,1650027,,,,,,,2021-08-20,1,,,,,ダモア,0
2114,9011203003623,新規,0,2021-08-20,2021-08-20,合同会社プリンシア,,合同会社,東京都,中野区,若宮２丁目３３番２号,,13,114,1650033,,,,,,,2021-08-20,1,,,,,プリンシア,0
2116,9011501027225,新規,0,2021-08-20,2021-08-20,サンセイ株式会社,,株式会社,東京都,北区,浮間１丁目７－２３兆豊浮間ビル５０２号室,,13,117,1150051,,,,,,,2021-08-20,1,,,,,サンセイ,0
2117,9011501027241,新規,0,2021-08-20,2021-08-20,株式会社英広告製作所,,株式会社,東京都,荒川区,東尾久４丁目５１番２号クレスト１Ｆ,,13,118,1160012,,,,,,,2021-08-20,1,,,,,ハナブサコウコクセイサクジョ,0
2120,9011801039606,新規,0,2021-08-20,2021-08-20,株式会社Ｔ．Ｋ．Ｐｒｏｄｕｃｔｉｏｎ,,株式会社,東京都,足立区,東綾瀬１丁目１２番１－１０４号レジデンス梶本,,13,121,1200004,,,,,,,2021-08-20,1,,,,,ティーケープロダクション,0
2124,9012801021025,新規,0,2021-08-20,2021-08-20,株式会社すばる,,株式会社,東京都,国分寺市,南町３丁目１８番４号浅見ビル３Ｆ,,13,214,1850021,,,,,,,2021-08-20,1,,,,,スバル,0
2134,9013301047824,新規,0,2021-08-20,2021-08-20,株式会社紫灯,,株式会社,東京都,豊島区,千川１丁目２８番８号,,13,116,1710041,,,,,,,2021-08-20,1,,,,,シトウ,0
2135,9013303005796,新規,0,2021-08-20,2021-08-20,ＡＰＳＡＲＡ合同会社,,合同会社,東京都,豊島区,西池袋３丁目３３番２８号池袋グリーンコーポ３０１号,,13,116,1710021,,,,,,,2021-08-20,1,,,,,アプサラ,0
2139,9020001142632,新規,0,2021-08-20,2021-08-20,株式会社ＳＴＥＬＬＡ,,株式会社,神奈川県,横浜市保土ケ谷区,坂本町３２４番地１,,14,106,2400043,,,,,,,2021-08-20,1,,,,,ステラ,0
2148,9020005015173,新規,0,2021-08-20,2021-08-20,一般社団法人日中友好文化交流協会,,その他の設立登記法人,神奈川県,川崎市川崎区,東田町９番地６－７Ｆ,,14,131,2100005,,,,,,,2021-08-20,1,,,,,ニッチュウユウコウブンカコウリュウキョウカイ,0
2151,9030001143844,新規,0,2021-08-20,2021-08-20,株式会社Ｅｓ,,株式会社,埼玉県,戸田市,笹目８丁目７－１２,,11,224,3350034,,,,,,,2021-08-20,1,,,,,イーズ,0
2152,9030001143935,新規,0,2021-08-20,2021-08-20,株式会社Ｒ・Ｆ,,株式会社,埼玉県,草加市,弁天５丁目２１番１８号,,11,221,3400004,,,,,,,2021-08-20,1,,,,,アールエフ,0
2157,9030003017815,新規,0,2021-08-20,2021-08-20,合同会社ＳｔｏｒｙＣｏｌｏｒ,,合同会社,埼玉県,さいたま市岩槻区,大字岩槻４９４７－１,,11,110,3390061,,,,,,,2021-08-20,1,,,,,ストーリーカラー,0
2161,9040001119851,新規,0,2021-08-20,2021-08-20,株式会社グレート・ベア,,株式会社,千葉県,船橋市,西船２丁目１２番９－１号,,12,204,2730031,,,,,,,2021-08-20,1,,,,,グレートベア,0
2162,9040001119884,新規,0,2021-08-20,2021-08-20,ＣＨＥＥＲ株式会社,,株式会社,千葉県,浦安市,入船６丁目１番３０１号,,12,227,2790012,,,,,,,2021-08-20,1,,,,,チアー,0
2168,9040005021319,新規,0,2021-08-20,2021-08-20,一般社団法人オリーブコミューン,,その他の設立登記法人,千葉県,市原市,中野８３番地,,12,219,2900153,,,,,,,2021-08-20,1,,,,,オリーブコミユーン,0
2172,9050001049734,新規,0,2021-08-20,2021-08-20,株式会社アプロ,,株式会社,茨城県,水戸市,元台町１５５４番地１,,08,201,3100835,,,,,,,2021-08-20,1,,,,,アプロ,0
2179,9070001038371,新規,0,2021-08-20,2021-08-20,株式会社雨宮商事,,株式会社,群馬県,高崎市,倉賀野町２４５９番地１,,10,202,3701201,,,,,,,2021-08-20,1,,,,,アマミヤショウジ,0
2181,9080101022720,新規,0,2021-08-20,2021-08-20,永進警備株式会社,,株式会社,静岡県,伊豆市,修善寺１４７番地３、１Ｆ,,22,222,4102416,,,,,,,2021-08-20,1,,,,,エイシンケイビ,0
2182,9080103002407,新規,0,2021-08-20,2021-08-20,合同会社化粧師,,合同会社,静岡県,伊東市,広野３丁目３番２５号広野シティ１Ｆ,,22,208,4140038,,,,,,,2021-08-20,1,,,,,ケワイシ,0
2184,9080403004350,新規,0,2021-08-20,2021-08-20,合同会社Ｇ・Ｍ・Ａ,,合同会社,静岡県,浜松市中区,幸１丁目９番１７号,,22,131,4338123,,,,,,,2021-08-20,1,,,,,ジーエムエー,0
2185,9090001017159,新規,0,2021-08-20,2021-08-20,株式会社芝草ドットコム商店,,株式会社,山梨県,笛吹市,石和町松本８２９番地３,,19,211,4060021,,,,,,,2021-08-20,1,,,,,シバクサドットコムショウテン,0
2188,9100001034540,新規,0,2021-08-20,2021-08-20,株式会社真田自動車学校,,株式会社,長野県,上田市,秋和８６番地,,20,203,3860041,,,,,,,2021-08-20,1,,,,,サナダジドウシャガッコウ,0
2205,9120001239856,新規,0,2021-08-20,2021-08-20,株式会社佐々木商事,,株式会社,大阪府,大阪市都島区,都島北通２丁目７番１３号佐々木マンション５０１号,,27,102,5340014,,,,,,,2021-08-20,1,,,,,ササキショウジ,0
2206,9120001239864,新規,0,2021-08-20,2021-08-20,株式会社ＨＩＳＡＮＯ,,株式会社,大阪府,大阪市北区,本庄東１丁目１１番９号,,27,127,5310074,,,,,,,2021-08-20,1,,,,,ヒサノ,0
2207,9120001239880,新規,0,2021-08-20,2021-08-20,株式会社ｆｕｋｕｉｃｈｉ,,株式会社,大阪府,大阪市港区,市岡元町３丁目６番２０号１Ｆ,,27,107,5520002,,,,,,,2021-08-20,1,,,,,フクイチ,0
2214,9120101064171,新規,0,2021-08-20,2021-08-20,株式会社心華,,株式会社,大阪府,和泉市,緑ケ丘１丁目１３番７号,,27,219,5941155,,,,,,,2021-08-20,1,,,,,ココハナ,0
2216,9120903003789,新規,0,2021-08-20,2021-08-20,トーヨー合同会社,,合同会社,大阪府,摂津市,一津屋１丁目３２番３号,,27,224,5660043,,,,,,,2021-08-20,1,,,,,トーヨー,0
2227,9140001122721,新規,0,2021-08-20,2021-08-20,株式会社協栄ビジネス,,株式会社,兵庫県,尼崎市,武庫之荘西２丁目３３番２２号,,28,202,6610034,,,,,,,2021-08-20,1,,,,,キョウエイビジネス,0
2228,9140001122754,新規,0,2021-08-20,2021-08-20,株式会社ヒマワリ,,株式会社,兵庫県,尼崎市,南塚口町３丁目１番２０－２０３号,,28,202,6610012,,,,,,,2021-08-20,1,,,,,ヒマワリ,0
2230,9140003016649,新規,0,2021-08-20,2021-08-20,Ｅａｓｔ　Ｐｌａｎｎｉｎｇ合同会社,,合同会社,兵庫県,宝塚市,山手台西４丁目２１番５号,,28,214,6650886,,,,,,,2021-08-20,1,,,,,イーストプランニング,0
2232,9170001016722,新規,0,2021-08-20,2021-08-20,株式会社みくまのクリーン,,株式会社,和歌山県,新宮市,千穂２丁目１番１３号ローズハイツ３０１号,,30,207,6470015,,,,,,,2021-08-20,1,,,,,ミクマノクリーン,0
2237,9190001028617,新規,0,2021-08-20,2021-08-20,株式会社ｆｏｕｒ　ｌｅａｆ．ｃ,,株式会社,三重県,亀山市,小野町７７７番地３,,24,210,5190167,,,,,,,2021-08-20,1,,,,,フォーリーフドットシー,0
2242,9220003003102,新規,0,2021-08-20,2021-08-20,合同会社スマイルカンパニー,,合同会社,石川県,河北郡津幡町,字潟端４１６番地２０,,17,361,9290346,,,,,,,2021-08-20,1,,,,,スマイルカンパニー,0
2250,9240001058468,新規,0,2021-08-20,2021-08-20,株式会社Ｌｕｎａ,,株式会社,広島県,広島市西区,己斐上３丁目３３番１号,,34,104,7330815,,,,,,,2021-08-20,1,,,,,ルーナ,0
2263,9290001094269,新規,0,2021-08-20,2021-08-20,アジア・バオアン株式会社,,株式会社,福岡県,福岡市南区,横手４丁目１２番２号,,40,134,8111311,,,,,,,2021-08-20,1,,,,,アジアバオアン,0
2268,9290005018315,新規,0,2021-08-20,2021-08-20,特定非営利活動法人緑で地球を救う会,,その他の設立登記法人,福岡県,福岡市博多区,千代２丁目１５番１５－８０３号,,40,132,8120044,,,,,,,2021-08-20,1,,,,,ミドリデチキュウヲスクウカイ,0
2271,9310005008536,新規,0,2021-08-20,2021-08-20,特定非営利活動法人Ｓｅａｍｌｅｓｓ,,その他の設立登記法人,長崎県,諫早市,永昌東町８－３３－２階,,42,204,8540071,,,,,,,2021-08-20,1,,,,,シームレス,0
2275,9330001028924,新規,0,2021-08-20,2021-08-20,ＡＵＮ株式会社,,株式会社,熊本県,菊池郡菊陽町,武蔵ヶ丘北２丁目２０番１３号,,43,404,8691112,,,,,,,2021-08-20,1,,,,,アウン,0
2277,9330003009014,新規,0,2021-08-20,2021-08-20,合同会社サイド,,合同会社,熊本県,熊本市中央区,南坪井町１番２４号,,43,101,8600848,,,,,,,2021-08-20,1,,,,,サイド,0
2286,9370001047508,新規,0,2021-08-20,2021-08-20,株式会社ブレインホールディングス,,株式会社,宮城県,仙台市青葉区,柏木２丁目２番７号,,04,101,9810933,,,,,,,2021-08-20,1,,,,,ブレインホールディングス,0
2289,9380001032137,新規,0,2021-08-20,2021-08-20,ユイネクスト株式会社,,株式会社,福島県,白河市,米村道北５１番地２,,07,205,9610078,,,,,,,2021-08-20,1,,,,,,0
2306,9430003013055,新規,0,2021-08-20,2021-08-20,合同会社大不動,,合同会社,北海道,苫小牧市,新中野町１丁目６番２０号,,01,213,0530006,,,,,,,2021-08-20,1,,,,,ダイフドウ,0
2311,9500001023627,新規,0,2021-08-20,2021-08-20,ＦＵＭＩアセットマネジメント株式会社,,株式会社,愛媛県,喜多郡内子町,内子１８８１番地,,38,422,7913301,,,,,,,2021-08-20,1,,,,,フミアセットマネジメント,0
