sequenceNumber,corporateNumber,process,correct,updateDate,changeDate,name,nameImageId,kind,prefectureName,cityName,streetNumber,addressImageId,prefectureCode,cityCode,postCode,addressOutside,addressOutsideImageId,closeDate,closeCause,successorCorporateNumber,changeCause,assignmentDate,latest,enName,enPrefectureName,enCityName,enAddressOutside,furigana,hihyoji
7,1010001248009,新規,0,2024-09-09,2024-09-09,株式会社ＧＳＬ　ＮＥＯ　ＪＡＰＡＮ,,株式会社,東京都,中央区,日本橋室町１丁目１１番１２号日本橋水野ビル７階,,13,102,1030022,,,,,,,2024-09-09,1,,,,,ジーエスエルネオジャパン,0
8,1010001248025,新規,0,2024-09-09,2024-09-09,東京日本橋兜町ホテル株式会社,,株式会社,東京都,中央区,日本橋兜町１番１０号,,13,102,1030026,,,,,,,2024-09-09,1,,,,,トウキョウニホンバシカブトチョウホテル,0
9,1010001248066,新規,0,2024-09-09,2024-09-09,株式会社ゲーム人事,,株式会社,東京都,中央区,銀座６丁目１３番１６号銀座ＷａｌｌビルＵＣＦ５階,,13,102,1040061,,,,,,,2024-09-09,1,,,,,ゲームジンジ,0
10,1010001248082,新規,0,2024-09-09,2024-09-09,株式会社Ｍｏｒｎｉｎｇｓｉｄｅ　Ｗｉｌｌ,,株式会社,東京都,中央区,銀座６丁目１３番１６号銀座ＷａｌｌビルＵＣＦ５階,,13,102,1040061,,,,,,,2024-09-09,1,,,,,モーニングサイドウィル,0
11,1010001248099,新規,0,2024-09-09,2024-09-09,株式会社ＰＳＹＬＡＢＯ,,株式会社,東京都,中央区,銀座６丁目６番１号銀座風月堂ビル５階,,13,102,1040061,,,,,,,2024-09-09,1,,,,,シラボ,0
12,1010001248124,新規,0,2024-09-09,2024-09-09,株式会社シンクエンタ,,株式会社,東京都,文京区,千石３丁目３９番１７号２０１,,13,105,1120011,,,,,,,2024-09-09,1,,,,,シンクエンタ,0
13,1010001248132,新規,0,2024-09-09,2024-09-09,株式会社ノーブルリンクス,,株式会社,東京都,千代田区,神田和泉町１番地６の１６ヤマトビル４０５,,13,101,1010024,,,,,,,2024-09-09,1,,,,,ノーブルリンクス,0
14,1010001248173,新規,0,2024-09-09,2024-09-09,株式会社Ｓｈｉｆｔ　Ｏｎｅ,,株式会社,東京都,中央区,銀座１丁目１２－４Ｎ＆ＥＢＬＤ．７階,,13,102,1040061,,,,,,,2024-09-09,1,,,,,シフトワン,0
18,1010003044827,新規,0,2024-09-09,2024-09-09,ＡｕｘＧｒａｃｅ合同会社,,合同会社,東京都,中央区,銀座７丁目１３番２１号銀座ｓｉｎｒｏｋｕｓｙｕビル２階,,13,102,1040061,,,,,,,2024-09-09,1,,,,,オクスグレイス,0
24,1010005038793,新規,0,2024-09-09,2024-09-09,釧路太陽光一般社団法人,,その他の設立登記法人,東京都,千代田区,内神田１丁目３番７号４０１あすな会計事務所内,,13,101,1010047,,,,,,,2024-09-09,1,,,,,クシロタイヨウコウ,0
32,1010401184968,新規,0,2024-09-09,2024-09-09,株式会社ワカルミライ,,株式会社,東京都,港区,白金台２丁目９－１２－３００５,,13,103,1080071,,,,,,,2024-09-09,1,,,,,ワカルミライ,0
33,1010501052876,新規,0,2024-09-09,2024-09-09,ＡＤＡ興業株式会社,,株式会社,東京都,台東区,東上野１丁目２－１３カーニープレイス新御徒町２階Ｈ室,,13,106,1100015,,,,,,,2024-09-09,1,,,,,アダコウギョウ,0
36,1010601065869,新規,0,2024-09-09,2024-09-09,株式会社豊信,,株式会社,東京都,江東区,豊洲３丁目６番８－１８０２号,,13,108,1350061,,,,,,,2024-09-09,1,,,,,トヨシン,0
37,1010601065885,新規,0,2024-09-09,2024-09-09,株式会社ＮＲＩＳＥ　Ｊａｐａｎ,,株式会社,東京都,江東区,塩浜２丁目５番１－４１８号,,13,108,1350043,,,,,,,2024-09-09,1,,,,,エヌライズジャパン,0
38,1010705003675,新規,0,2024-09-09,2024-09-09,一般社団法人関節弛緩セルフボディデザイン協会,,その他の設立登記法人,東京都,品川区,西五反田３丁目３番２－７１１号,,13,109,1410031,,,,,,,2024-09-09,1,,,,,カンセツシカンセルフボディデザインキョウカイ,0
39,1010803005086,新規,0,2024-09-09,2024-09-09,ＧＧＧｒａｃｅ合同会社,,合同会社,東京都,大田区,中央４丁目１６－８,,13,111,1430024,,,,,,,2024-09-09,1,,,,,ジージーグレイス,0
40,1010901055941,新規,0,2024-09-09,2024-09-09,株式会社ＫＵＭＡＮＯＭＩＣＳ,,株式会社,東京都,世田谷区,池尻２丁目１３番１５号,,13,112,1540001,,,,,,,2024-09-09,1,,,,,クマノミクス,0
47,1011001164542,新規,0,2024-09-09,2024-09-09,株式会社ＩＢＲ　ＪＡＰＡＮ,,株式会社,東京都,渋谷区,恵比寿西２丁目８番４号ＥＸ恵比寿西ビル５階,,13,113,1500021,,,,,,,2024-09-09,1,,,,,アイビーアールジャパン,0
49,1011003019851,新規,0,2024-09-09,2024-09-09,ＭＥＤＩＡＴＥ合同会社,,合同会社,東京都,渋谷区,道玄坂１丁目１０番８号渋谷道玄坂東急ビル２Ｆ－Ｃ,,13,113,1500043,,,,,,,2024-09-09,1,,,,,メディエイト,0
52,1011101108705,新規,0,2024-09-09,2024-09-09,田舎相続不動産株式会社,,株式会社,東京都,新宿区,四谷４丁目３３番２号,,13,104,1600004,,,,,,,2024-09-09,1,,,,,イナカソウゾクフドウサン,0
53,1011105011153,新規,0,2024-09-09,2024-09-09,一般社団法人ＴＵ３５,,その他の設立登記法人,東京都,新宿区,四谷２丁目９番地１５東京ユナイテッド綜合事務所内,,13,104,1600004,,,,,,,2024-09-09,1,,,,,ティーユーサンジュウゴ,0
56,1011401026400,新規,0,2024-09-09,2024-09-09,株式会社ブルーストン,,株式会社,東京都,板橋区,高島平８丁目１５番１０号パレット高島平５１４,,13,119,1750082,,,,,,,2024-09-09,1,,,,,ブルーストン,0
65,1012301014073,新規,0,2024-09-09,2024-09-09,株式会社坂内商事,,株式会社,東京都,町田市,成瀬が丘２丁目２番地６,,13,209,1940011,,,,,,,2024-09-09,1,,,,,バンナイショウジ,0
67,1012701018442,新規,0,2024-09-09,2024-09-09,株式会社ＦＲＰトレーディング,,株式会社,東京都,清瀬市,下清戸２丁目５１６番地１,,13,221,2040011,,,,,,,2024-09-09,1,,,,,エフアールピートレーディング,0
80,1020001159007,新規,0,2024-09-09,2024-09-09,株式会社新業,,株式会社,神奈川県,横浜市神奈川区,三ツ沢下町２４－５,,14,102,2210852,,,,,,,2024-09-09,1,,,,,シンギョウ,0
85,1020003026840,新規,0,2024-09-09,2024-09-09,神奈川販売合同会社,,合同会社,神奈川県,横浜市戸塚区,舞岡町３３２０番地２７,,14,110,2440813,,,,,,,2024-09-09,1,,,,,カナガワハンバイ,0
86,1020003026881,新規,0,2024-09-09,2024-09-09,ＫＡＲＵＮＡ合同会社,,合同会社,神奈川県,川崎市幸区,柳町３０番地たから荘１階１号室,,14,132,2120015,,,,,,,2024-09-09,1,,,,,カルナ,0
96,1030001162414,新規,0,2024-09-09,2024-09-09,株式会社ワライフ・アルファ,,株式会社,埼玉県,蕨市,錦町２丁目１０番１８－１０３号,,11,223,3350005,,,,,,,2024-09-09,1,,,,,ワライフアルファ,0
99,1030003025057,新規,0,2024-09-09,2024-09-09,合同会社サイボクサポート,,合同会社,埼玉県,日高市,大字下大谷沢５４６番地,,11,242,3501221,,,,,,,2024-09-09,1,,,,,サイボクサポート,0
106,1040001135294,新規,0,2024-09-09,2024-09-09,合源株式会社,,株式会社,千葉県,千葉市中央区,都町２丁目１６番１号中央ビル４階４Ａ,,12,101,2600001,,,,,,,2024-09-09,1,,,,,ゴウゲン,0
108,1040003025766,新規,0,2024-09-09,2024-09-09,合同会社エヌデザイン,,合同会社,千葉県,松戸市,松戸新田１３９番地の２７,,12,207,2702241,,,,,,,2024-09-09,1,,,,,エヌデザイン,0
115,1050001055368,新規,0,2024-09-09,2024-09-09,株式会社松風,,株式会社,茨城県,稲敷郡阿見町,大字阿見４７７６番地１,,08,443,3000331,,,,,,,2024-09-09,1,,,,,マツカゼ,0
116,1050003008662,新規,0,2024-09-09,2024-09-09,合同会社スタジオ・オフ,,合同会社,茨城県,古河市,長谷町４番４号,,08,204,3060034,,,,,,,2024-09-09,1,,,,,スタジオオフ,0
118,1060005010244,新規,0,2024-09-09,2024-09-09,協同組合タロカ,,その他の設立登記法人,栃木県,那須塩原市,一区町１００番地１５,,09,213,3292732,,,,,,,2024-09-09,1,,,,,タロカ,0
119,1070001042158,新規,0,2024-09-09,2024-09-09,株式会社Ａ３,,株式会社,群馬県,高崎市,小八木町１２０２番地１,,10,202,3700071,,,,,,,2024-09-09,1,,,,,エースリー,0
124,1070003005575,新規,0,2024-09-09,2024-09-09,合同会社Ｆｏｒｔｕｎａ,,合同会社,群馬県,高崎市,井野町３６９番地２－５０４,,10,202,3700004,,,,,,,2024-09-09,1,,,,,フォルトゥーナ,0
127,1080001026473,新規,0,2024-09-09,2024-09-09,株式会社ラ・フェリーチェ,,株式会社,静岡県,静岡市葵区,栄町２番地５アークビルディング５０２,,22,101,4200859,,,,,,,2024-09-09,1,,,,,ラフェリーチェ,0
138,1100003007766,新規,0,2024-09-09,2024-09-09,山ノ内開発合同会社,,合同会社,長野県,下高井郡山ノ内町,大字平穏４１２７－２,,20,561,3810401,,,,,,,2024-09-09,1,,,,,ヤマノウチカイハツ,0
150,1120001268409,新規,0,2024-09-09,2024-09-09,株式会社こころや,,株式会社,大阪府,大阪市福島区,海老江５丁目６番９号モンフェルメイユ５０１号,,27,103,5530001,,,,,,,2024-09-09,1,,,,,ココロヤ,0
151,1120001268499,新規,0,2024-09-09,2024-09-09,株式会社ツナグロース,,株式会社,大阪府,大阪市北区,梅田１丁目２番２号大阪駅前第２ビル１２－１２,,27,127,5300001,,,,,,,2024-09-09,1,,,,,ツナグロース,0
156,1120003027457,新規,0,2024-09-09,2024-09-09,合同会社これん＆めろん,,合同会社,大阪府,大阪市東住吉区,山坂１丁目１２番３号パルコ山坂５０１号,,27,121,5460035,,,,,,,2024-09-09,1,,,,,コレンアンドメロン,0
160,1120901049734,新規,0,2024-09-09,2024-09-09,株式会社アキヨシ,,株式会社,大阪府,箕面市,粟生外院１丁目２番２号,,27,220,5620025,,,,,,,2024-09-09,1,,,,,アキヨシ,0
164,1130001077908,新規,0,2024-09-09,2024-09-09,株式会社一笑,,株式会社,京都府,亀岡市,河原林町勝林島内垣地５７番地,,26,206,6210006,,,,,,,2024-09-09,1,,,,,イショウ,0
166,1130005017166,新規,0,2024-09-09,2024-09-09,一般社団法人ゆりの木コーポレーション,,その他の設立登記法人,京都府,京都市北区,紫野下柳町４１番地,,26,101,6038174,,,,,,,2024-09-09,1,,,,,ユリノキコーポレーション,0
176,1180001163199,新規,0,2024-09-09,2024-09-09,株式会社Ｎｅｘｔ　Ｇｅｎ　Ｓｏｌｕｔｉｏｎｓ,,株式会社,愛知県,名古屋市中村区,白子町４丁目２５番地の７,,23,105,4530817,,,,,,,2024-09-09,1,,,,,ネクストジェンソリューションズ,0
177,1180001163208,新規,0,2024-09-09,2024-09-09,株式会社ＺｅｒｏＱｅｓｕｔ,,株式会社,愛知県,名古屋市中川区,中郷５丁目２９番地メゾン山守４０３号,,23,110,4540921,,,,,,,2024-09-09,1,,,,,ゼロクエスト,0
205,1260001039440,新規,0,2024-09-09,2024-09-09,株式会社ワイズトラスト,,株式会社,岡山県,倉敷市,生坂９８－１,,33,202,7100002,,,,,,,2024-09-09,1,,,,,ワイズトラスト,0
208,1280003001883,新規,0,2024-09-09,2024-09-09,合同会社ＴＫスマートストック,,合同会社,島根県,出雲市,神西沖町１６１２番地,,32,203,6990822,,,,,,,2024-09-09,1,,,,,ティーケースマートストック,0
217,1290001107178,新規,0,2024-09-09,2024-09-09,福岡リアルエステートサービス株式会社,,株式会社,福岡県,福岡市東区,箱崎２丁目９番９号,,40,131,8120053,,,,,,,2024-09-09,1,,,,,フクオカリアルエステートサービス,0
218,1290001107194,新規,0,2024-09-09,2024-09-09,株式会社アトリエギマン,,株式会社,福岡県,古賀市,米多比１１３９番地６,,40,223,8113123,,,,,,,2024-09-09,1,,,,,アトリエギマン,0
219,1290001107211,新規,0,2024-09-09,2024-09-09,株式会社アマテラス,,株式会社,福岡県,古賀市,天神５丁目１番５号,,40,223,8113101,,,,,,,2024-09-09,1,,,,,アマテラス,0
224,1290003015750,新規,0,2024-09-09,2024-09-09,ｐｒｏｇｒｅｓｓ合同会社,,合同会社,福岡県,久留米市,国分町１３８２－２,,40,203,8390863,,,,,,,2024-09-09,1,,,,,プログレス,0
225,1290003015783,新規,0,2024-09-09,2024-09-09,合同会社吉福,,合同会社,福岡県,古賀市,天神５丁目２番１０号,,40,223,8113101,,,,,,,2024-09-09,1,,,,,ヨシフク,0
228,1290801030868,新規,0,2024-09-09,2024-09-09,株式会社リアマテ,,株式会社,福岡県,北九州市小倉北区,浅野１丁目１番１号ビエラ小倉１階ＤＩＳＣＯＶＥＲＹ,,40,106,8020001,,,,,,,2024-09-09,1,,,,,リアマテ,0
230,1300001013894,新規,0,2024-09-09,2024-09-09,株式会社農輪,,株式会社,佐賀県,嬉野市,塩田町大字五町田甲１８５０番地１グリーンメゾンＣ棟１０２号,,41,209,8491425,,,,,,,2024-09-09,1,,,,,ノウリン,0
237,1330001032446,新規,0,2024-09-09,2024-09-09,株式会社ネクストイノベーション,,株式会社,熊本県,熊本市中央区,出水１丁目１番２５号,,43,101,8620941,,,,,,,2024-09-09,1,,,,,ネクストイノベーション,0
242,1370001051698,新規,0,2024-09-09,2024-09-09,株式会社ｍｉｓｔａ,,株式会社,宮城県,仙台市青葉区,中山台２丁目６０－６ＭＩＰビル２Ｆ,,04,101,9893202,,,,,,,2024-09-09,1,,,,,ミスタ,0
243,1370001051707,新規,0,2024-09-09,2024-09-09,株式会社トコトコファーム,,株式会社,宮城県,多賀城市,高崎３丁目１４番３号,,04,209,9850862,,,,,,,2024-09-09,1,,,,,トコトコファーム,0
248,1430003016759,新規,0,2024-09-09,2024-09-09,合同会社ｋｉｙ,,合同会社,北海道,札幌市中央区,南五条東３丁目１１番地１札幌ビオス館１０２１号,,01,101,0600055,,,,,,,2024-09-09,1,,,,,キー,0
253,1470001020370,新規,0,2024-09-09,2024-09-09,株式会社ＴＫ企画,,株式会社,香川県,高松市,塩上町２丁目２番１２－７０４号Ｒ－レジデンス高松,,37,201,7600062,,,,,,,2024-09-09,1,,,,,ティーケーキカク,0
256,1470003002714,新規,0,2024-09-09,2024-09-09,合同会社Ｔｕｍｕｇｕ,,合同会社,香川県,高松市,庵治町２４２３番地５,,37,201,7610130,,,,,,,2024-09-09,1,,,,,ツムグ,0
266,2010001248024,新規,0,2024-09-09,2024-09-09,株式会社リアルアキバ,,株式会社,東京都,千代田区,外神田３丁目１１番１１号ＣＩＲＣＬＥＳ秋葉原８階,,13,101,1010021,,,,,,,2024-09-09,1,,,,,リアルアキバ,0
267,2010001248040,新規,0,2024-09-09,2024-09-09,フォアフロント・パートナーズ株式会社,,株式会社,東京都,千代田区,丸の内１丁目１１番１号パシフィックセンチュリープレイス丸の内１３Ｆ,,13,101,1000005,,,,,,,2024-09-09,1,,,,,フォアフロントパートナーズ,0
268,2010001248057,新規,0,2024-09-09,2024-09-09,株式会社Ｄａｂｌｅ,,株式会社,東京都,中央区,銀座１丁目２２番１１号銀座大竹ビジデンス２階,,13,102,1040061,,,,,,,2024-09-09,1,,,,,ダブル,0
269,2010001248180,新規,0,2024-09-09,2024-09-09,リーガルアクセス株式会社,,株式会社,東京都,千代田区,神田猿楽町２丁目８－１１ＶＯＲＴ水道橋３,,13,101,1010064,,,,,,,2024-09-09,1,,,,,リーガルアクセス,0
274,2010003044834,新規,0,2024-09-09,2024-09-09,合同会社ティエラ,,合同会社,東京都,文京区,関口１丁目５－９ドーム関口３Ｆ,,13,105,1120014,,,,,,,2024-09-09,1,,,,,ティエラ,0
276,2010005038768,新規,0,2024-09-09,2024-09-09,医療法人社団ＭＥＤＳＯＬ,,その他の設立登記法人,東京都,千代田区,神田神保町１丁目４番地神保町１－４ビル２階,,13,101,1010051,,,,,,,2024-09-09,1,,,,,メドソル,0
277,2010005038776,新規,0,2024-09-09,2024-09-09,メック都市開発１６号特定目的会社,,その他の設立登記法人,東京都,中央区,日本橋１丁目４番１号日本橋一丁目ビルディング,,13,102,1030027,,,,,,,2024-09-09,1,,,,,メックトシカイハツジュウロクゴウ,0
294,2010405023485,新規,0,2024-09-09,2024-09-09,一般社団法人地域医療未来創造ネットワーク,,その他の設立登記法人,東京都,港区,芝浦３丁目１番１号,,13,103,1080023,,,,,,,2024-09-09,1,,,,,チイキイリョウミライソウゾウネットワーク,0
296,2010505003552,新規,0,2024-09-09,2024-09-09,一般社団法人ＨＣＭカウンセリングセミナー,,その他の設立登記法人,東京都,台東区,浅草橋１丁目３番１５号リバーサイド浅草橋８０３,,13,106,1110053,,,,,,,2024-09-09,1,,,,,エイチシーエムカウンセリングセミナー,0
300,2010601065876,新規,0,2024-09-09,2024-09-09,株式会社ジェーテク,,株式会社,東京都,墨田区,京島１丁目４３番２号１－Ｄ室,,13,107,1310046,,,,,,,2024-09-09,1,,,,,ジェーテク,0
301,2010603011069,新規,0,2024-09-09,2024-09-09,合同会社ＲＧＳコンサルティング,,合同会社,東京都,江東区,南砂２丁目３番２－６１７号,,13,108,1360076,,,,,,,2024-09-09,1,,,,,アールジーエスコンサルティング,0
302,2010701046479,新規,0,2024-09-09,2024-09-09,株式会社ＥｘＳｋｙ,,株式会社,東京都,品川区,東大井１丁目２番１３号プライムネクサス品川鮫洲３０１,,13,109,1400011,,,,,,,2024-09-09,1,,,,,エックスキー,0
305,2010901055957,新規,0,2024-09-09,2024-09-09,株式会社Ｏｖｅｒｓｔｅｅｒ,,株式会社,東京都,世田谷区,世田谷１丁目２７番５号,,13,112,1540017,,,,,,,2024-09-09,1,,,,,オーバーステア,0
306,2010903009341,新規,0,2024-09-09,2024-09-09,合同会社ＫＵＹＯＨ,,合同会社,東京都,世田谷区,上野毛３丁目２３番１－６１２号,,13,112,1580093,,,,,,,2024-09-09,1,,,,,クヨウ,0
312,2011001164401,新規,0,2024-09-09,2024-09-09,株式会社ＳＣＡＷＫ,,株式会社,東京都,渋谷区,東３丁目２５番８号ＡＣＮＥＢＩＳＵ４Ｆ,,13,113,1500011,,,,,,,2024-09-09,1,,,,,スコーク,0
313,2011001164517,新規,0,2024-09-09,2024-09-09,株式会社ｓｏｕｎｄｓ,,株式会社,東京都,渋谷区,神山町１７番１号ＺＯＯＭ渋谷神山町１０４,,13,113,1500047,,,,,,,2024-09-09,1,,,,,サウンズ,0
314,2011001164582,新規,0,2024-09-09,2024-09-09,株式会社モンスイユ,,株式会社,東京都,渋谷区,恵比寿西２丁目２１番１号,,13,113,1500021,,,,,,,2024-09-09,1,,,,,モンスイユ,0
315,2011003019917,新規,0,2024-09-09,2024-09-09,合同会社Ｅｄｇｅ　ｏｆ　Ｓｈａｄｏｗ,,合同会社,東京都,渋谷区,道玄坂１丁目１０番８号渋谷道玄坂東急ビル２Ｆ‐Ｃ,,13,113,1500043,,,,,,,2024-09-09,1,,,,,エッジオブシャドウ,0
316,2011003019974,新規,0,2024-09-09,2024-09-09,日本初調査総研合同会社,,合同会社,東京都,渋谷区,渋谷２丁目１９－１５宮益坂ビルディング,,13,113,1500002,,,,,,,2024-09-09,1,,,,,ニホンハツチョウサソウケン,0
321,2011101108687,新規,0,2024-09-09,2024-09-09,株式会社Ｃｒａｓｓｕｌａ,,株式会社,東京都,新宿区,四谷３丁目２番２号Ｂ１Ｆ,,13,104,1600004,,,,,,,2024-09-09,1,,,,,クラッスラ,0
322,2011101108712,新規,0,2024-09-09,2024-09-09,株式会社ユニット,,株式会社,東京都,新宿区,百人町１丁目１８番８号大久保カドビル２０３,,13,104,1690073,,,,,,,2024-09-09,1,,,,,ユニット,0
323,2011105011152,新規,0,2024-09-09,2024-09-09,一般社団法人ＴＵ３４,,その他の設立登記法人,東京都,新宿区,四谷２丁目９番地１５東京ユナイテッド綜合事務所内,,13,104,1600004,,,,,,,2024-09-09,1,,,,,ティーユーサンジュウヨン,0
328,2011303005278,新規,0,2024-09-09,2024-09-09,合同会社ラチとライオン,,合同会社,東京都,杉並区,高円寺南４丁目４４番１３－１０１号,,13,115,1660003,,,,,,,2024-09-09,1,,,,,ラチトライオン,0
330,2011401026408,新規,0,2024-09-09,2024-09-09,株式会社サポート,,株式会社,東京都,板橋区,泉町４番３号,,13,119,1740055,,,,,,,2024-09-09,1,,,,,サポート,0
334,2011501031126,新規,0,2024-09-09,2024-09-09,株式会社スカイブレックス,,株式会社,東京都,荒川区,西尾久４丁目２１番３号,,13,118,1160011,,,,,,,2024-09-09,1,,,,,スカイブレックス,0
339,2012701018441,新規,0,2024-09-09,2024-09-09,株式会社ＮＯＬＢ,,株式会社,東京都,西東京市,田無町４丁目４番１５号,,13,229,1880011,,,,,,,2024-09-09,1,,,,,ノルブ,0
341,2012803003507,新規,0,2024-09-09,2024-09-09,ＳＨＡＭＢＨＡＶ合同会社,,合同会社,東京都,昭島市,昭和町２丁目７番１９号,,13,207,1960015,,,,,,,2024-09-09,1,,,,,サンバブ,0
343,2013301053077,新規,0,2024-09-09,2024-09-09,株式会社七海人,,株式会社,東京都,豊島区,南池袋２丁目３２－６－６０１,,13,116,1710022,,,,,,,2024-09-09,1,,,,,ナミト,0
344,2013301053085,新規,0,2024-09-09,2024-09-09,株式会社ＵＮＣＯＡＣＨ,,株式会社,東京都,豊島区,北大塚１丁目２２番２－１０１号,,13,116,1700004,,,,,,,2024-09-09,1,,,,,アンコーチ,0
364,2020003026848,新規,0,2024-09-09,2024-09-09,Ｒ＆Ｋ　ＩＮＴＥＲＮＡＴＩＯＮＡＬ合同会社,,合同会社,神奈川県,横浜市鶴見区,鶴見中央５丁目５番２０号千葉ハイツ１０６,,14,101,2300051,,,,,,,2024-09-09,1,,,,,アールアンドケーインターナショナル,0
367,2020005016533,新規,0,2024-09-09,2024-09-09,一般社団法人未来共育プロデュース,,その他の設立登記法人,神奈川県,横浜市金沢区,柴町３７６番地の９,,14,108,2360012,,,,,,,2024-09-09,1,,,,,ミライキョウイクプロデュース,0
375,2021001083179,新規,0,2024-09-09,2024-09-09,株式会社世楽美,,株式会社,神奈川県,厚木市,中町２丁目５番２号一番街和光ビル３Ｆ,,14,212,2430018,,,,,,,2024-09-09,1,,,,,セラビ,0
385,2030001162272,新規,0,2024-09-09,2024-09-09,株式会社ゆの,,株式会社,埼玉県,川口市,元郷１丁目２６番１５－５０２号,,11,203,3320011,,,,,,,2024-09-09,1,,,,,ユノ,0
386,2030001162330,新規,0,2024-09-09,2024-09-09,ＴＭＳＪａｐａｎ株式会社,,株式会社,埼玉県,越谷市,赤山町２丁目２２３番地１－１０５号室,,11,222,3430807,,,,,,,2024-09-09,1,,,,,ティーエムエスジャパン,0
387,2030001162347,新規,0,2024-09-09,2024-09-09,株式会社ＵＬＵ,,株式会社,埼玉県,さいたま市中央区,下落合７丁目８－１５,,11,105,3380002,,,,,,,2024-09-09,1,,,,,ウル,0
392,2030003025064,新規,0,2024-09-09,2024-09-09,Ｃａｔｅ　Ｃｒｅａｔｉｖｅ　Ｊａｐａｎ合同会社,,合同会社,埼玉県,朝霞市,本町２丁目２７－９プチキャロット１０１号,,11,227,3510011,,,,,,,2024-09-09,1,,,,,ケイトクリエイティブジャパン,0
394,2030005021838,新規,0,2024-09-09,2024-09-09,一般社団法人ＢＡＭ部,,その他の設立登記法人,埼玉県,本庄市,児玉町田端４１０,,11,211,3670222,,,,,,,2024-09-09,1,,,,,バンブ,0
404,2040003025765,新規,0,2024-09-09,2024-09-09,合同会社ＵＭｉ　Ｔｏ　ＳＯＲａ,,合同会社,千葉県,鎌ケ谷市,道野辺中央２丁目１－３３坪沼第二ビル１０２,,12,224,2730113,,,,,,,2024-09-09,1,,,,,ウミトソラ,0
408,2050001055359,新規,0,2024-09-09,2024-09-09,株式会社矢口,,株式会社,茨城県,守谷市,小山３３１番地の８,,08,224,3020122,,,,,,,2024-09-09,1,,,,,ヤグチ,0
409,2050001055367,新規,0,2024-09-09,2024-09-09,株式会社ＯＧＦ,,株式会社,茨城県,神栖市,波崎４９８４番地３,,08,232,3140408,,,,,,,2024-09-09,1,,,,,オージーエフ,0
411,2050003008661,新規,0,2024-09-09,2024-09-09,すがや農園合同会社,,合同会社,茨城県,土浦市,手野町２０５３番地１,,08,203,3000025,,,,,,,2024-09-09,1,,,,,スガヤノウエン,0
412,2060001037471,新規,0,2024-09-09,2024-09-09,株式会社エヌブロス,,株式会社,栃木県,大田原市,羽田２２７－９,,09,210,3240002,,,,,,,2024-09-09,1,,,,,エヌブロス,0
414,2070001042149,新規,0,2024-09-09,2024-09-09,株式会社Ｂ２,,株式会社,群馬県,高崎市,小八木町１２０２番地１,,10,202,3700071,,,,,,,2024-09-09,1,,,,,ビーツー,0
415,2070001042157,新規,0,2024-09-09,2024-09-09,株式会社Ａ２,,株式会社,群馬県,高崎市,小八木町１２０２番地１,,10,202,3700071,,,,,,,2024-09-09,1,,,,,エーツー,0
416,2070001042165,新規,0,2024-09-09,2024-09-09,株式会社ＯＮＥ　ＤＡＹ,,株式会社,群馬県,前橋市,古市町４７９番地３,,10,201,3710844,,,,,,,2024-09-09,1,,,,,ワンデイ,0
426,2080103003139,新規,0,2024-09-09,2024-09-09,合同会社アイ,,合同会社,静岡県,沼津市,高沢町１番９号,,22,203,4100057,,,,,,,2024-09-09,1,,,,,アイ,0
427,2080105006453,新規,0,2024-09-09,2024-09-09,一般社団法人静岡こどもと人権総合センター,,その他の設立登記法人,静岡県,富士宮市,野中東町２９４番地,,22,207,4180033,,,,,,,2024-09-09,1,,,,,シズオカコドモトジンケンソウゴウセンター,0
433,2100001037830,新規,0,2024-09-09,2024-09-09,株式会社カットきのこジャパンビジネス,,株式会社,長野県,中野市,大字江部２４０－３,,20,211,3830045,,,,,,,2024-09-09,1,,,,,カットキノコジャパンビジネス,0
435,2100003007765,新規,0,2024-09-09,2024-09-09,合同会社Ｍ３,,合同会社,長野県,長野市,大字鶴賀９９番地３フレグランスソレイユ１０２,,20,201,3800907,,,,,,,2024-09-09,1,,,,,エムスリー,0
436,2100003007773,新規,0,2024-09-09,2024-09-09,合同会社シールズ,,合同会社,長野県,茅野市,北山１１１４番地,,20,214,3910301,,,,,,,2024-09-09,1,,,,,シールズ,0
446,2120001268449,新規,0,2024-09-09,2024-09-09,株式会社ウェブクリエーション,,株式会社,大阪府,大阪市北区,梅田１丁目２番２号大阪駅前第２ビル１２－１２,,27,127,5300001,,,,,,,2024-09-09,1,,,,,ウェブクリエーション,0
459,2122001038427,新規,0,2024-09-09,2024-09-09,川原株式会社,,株式会社,大阪府,東大阪市,若江南町２丁目１０番１４号,,27,227,5780943,,,,,,,2024-09-09,1,,,,,カワハラ,0
460,2122001038435,新規,0,2024-09-09,2024-09-09,株式会社ジニアス・アート,,株式会社,大阪府,東大阪市,西岩田２丁目７番３１号１Ｆ,,27,227,5780947,,,,,,,2024-09-09,1,,,,,ジニアスアート,0
462,2122003002991,新規,0,2024-09-09,2024-09-09,合同会社蓮プランニング,,合同会社,大阪府,東大阪市,永和１丁目２－１０,,27,227,5770809,,,,,,,2024-09-09,1,,,,,レンプランニング,0
466,2130001077849,新規,0,2024-09-09,2024-09-09,コムイノベーション株式会社,,株式会社,京都府,京都市伏見区,竹田藁屋町１０１番地,,26,109,6128443,,,,,,,2024-09-09,1,,,,,コムイノベーション,0
468,2140001135746,新規,0,2024-09-09,2024-09-09,株式会社淡路島御膳奉行,,株式会社,兵庫県,尼崎市,東七松町２丁目２番１０号,,28,202,6600051,,,,,,,2024-09-09,1,,,,,アワジシマゴゼンブギョウ,0
478,2180001163198,新規,0,2024-09-09,2024-09-09,株式会社ナカオ工業,,株式会社,愛知県,小牧市,大字舟津３２３番地３,,23,219,4850073,,,,,,,2024-09-09,1,,,,,ナカオコウギョウ,0
479,2180001163207,新規,0,2024-09-09,2024-09-09,株式会社Ｔ’ｓコーポレーション,,株式会社,愛知県,春日井市,出川町３丁目９番地１１,,23,206,4870025,,,,,,,2024-09-09,1,,,,,ティーズコーポレーション,0
496,2230005009409,新規,0,2024-09-09,2024-09-09,社会保険労務士法人ＳＨＩＥＬＤＳ,,その他の設立登記法人,富山県,富山市,黒瀬４３７番地１・９８７ビル３Ｆ,,16,201,9398213,,,,,,,2024-09-09,1,,,,,シールズ,0
499,2250001020796,新規,0,2024-09-09,2024-09-09,株式会社建装ホールディングス,,株式会社,山口県,宇部市,大字東須恵２７４番地の１５,,35,202,7590206,,,,,,,2024-09-09,1,,,,,ケンソウホールディングス,0
501,2260003004887,新規,0,2024-09-09,2024-09-09,合同会社きみそう,,合同会社,岡山県,岡山市中区,国富４丁目４番８－８号,,33,102,7038236,,,,,,,2024-09-09,1,,,,,キミソウ,0
512,2290001107185,新規,0,2024-09-09,2024-09-09,株式会社原田総合会計,,株式会社,福岡県,福岡市中央区,舞鶴１丁目４番７号,,40,133,8100073,,,,,,,2024-09-09,1,,,,,ハラダソウゴウカイケイ,0
517,2290003015741,新規,0,2024-09-09,2024-09-09,合同会社ＬＵＢＷＰＳ,,合同会社,福岡県,福岡市中央区,天神４丁目６－２８天神ファーストビル７階,,40,133,8100001,,,,,,,2024-09-09,1,,,,,ルブピス,0
518,2290003015790,新規,0,2024-09-09,2024-09-09,ｂｉｄ合同会社,,合同会社,福岡県,福岡市博多区,博多駅南２丁目１０－１３－１００５号,,40,132,8120016,,,,,,,2024-09-09,1,,,,,ビド,0
521,2300003002176,新規,0,2024-09-09,2024-09-09,合同会社ＳＴＯＣＫ,,合同会社,佐賀県,武雄市,武雄町大字昭和３７２番地２,,41,206,8430023,,,,,,,2024-09-09,1,,,,,ストック,0
523,2310003004857,新規,0,2024-09-09,2024-09-09,合同会社ゆめかなう,,合同会社,長崎県,西彼杵郡時津町,浦郷２６０番地４,,42,308,8512105,,,,,,,2024-09-09,1,,,,,ユメカナウ,0
525,2330001032453,新規,0,2024-09-09,2024-09-09,株式会社こしゃて農産,,株式会社,熊本県,熊本市南区,御幸木部３丁目７番２０号,,43,104,8614173,,,,,,,2024-09-09,1,,,,,コシャテノウサン,0
539,2410001013924,新規,0,2024-09-09,2024-09-09,ＡｔｏＺ　Ｌａｂ株式会社,,株式会社,秋田県,秋田市,茨島４丁目３－３６,00136238,05,201,0100065,,,,,,,2024-09-09,1,,,,,エートゥーズィーラボ,0
551,2470003002713,新規,0,2024-09-09,2024-09-09,トルツメ合同会社,,合同会社,香川県,高松市,宮脇町１丁目２０番２５号,,37,201,7600005,,,,,,,2024-09-09,1,,,,,,0
557,2500001025860,新規,0,2024-09-09,2024-09-09,株式会社ＲＥＰＯＳ,,株式会社,愛媛県,伊予郡砥部町,重光１７０番地１０,,38,402,7912112,,,,,,,2024-09-09,1,,,,,ルポ,0
560,2700150061059,新規,0,2024-09-09,2015-10-09,佐賀県立鳥栖工業高等学校ＰＴＡ,,その他,佐賀県,鳥栖市,元町１９１８,,41,203,8410051,,,,,,,2015-10-09,1,,,,,サガケンリツトスコウギヨウコウトウガツコウピーテイーエー,0
561,2700150127066,新規,0,2024-09-09,2024-09-09,Ｓｈｅｎｚｈｅｎ　ｌｉａｎｇｄｉａｎｐａｉ　Ｔｅｃｈｎｏｌｏｇｙ　Ｃｏ．，Ｌｔｄ．,,外国会社等,,,,,,,,Ｌｏｎｇｇａｎｇ　Ｄｉｓｔｒｉｃｔ　Ｊｉｈｕａ　ＳｔｒｅｅｔＮｏ．２０１，Ｎｏ．８，Ｔｏｎｇｆｕｙｕ　Ｉｎｄｕｓｔｒｉａｌ　Ｚｏｎｅ，Ｇａｎｋｅｎｇ，Ｇａｎｋｅｎｇ　ＣｏｍＳｈｅｎｚｈｅｎＧｕａｎｇｄｏｎｇ５１８０００ＣＮ,,,,,,2024-09-09,1,,,,,シェンジェンシージンディエンパイコージーヨウシエンゴンスー,0
578,3010001248015,新規,0,2024-09-09,2024-09-09,株式会社レナス,,株式会社,東京都,千代田区,平河町１丁目３番６号ＢＩＺＭＡＲＫＳ麹町,,13,101,1020093,,,,,,,2024-09-09,1,,,,,レナス,0
579,3010001248097,新規,0,2024-09-09,2024-09-09,Ａｋａｔｓｕｋｉ　Ａｓｓｅｔ　Ｍａｎａｇｅｍｅｎｔ株式会社,,株式会社,東京都,千代田区,麹町５丁目３番地第７秋山ビルディング８Ｆ,,13,101,1020083,,,,,,,2024-09-09,1,,,,,アカツキアセットマネジメント,0
588,3010401184421,新規,0,2024-09-09,2024-09-09,Ｋｏｋａ株式会社,,株式会社,東京都,港区,芝２丁目２番１２号浜松町ＰＲＥＸ１１階,,13,103,1050014,,,,,,,2024-09-09,1,,,,,コウカ,0
590,3010401184966,新規,0,2024-09-09,2024-09-09,ＡＶＡＴＯＲ　ＴＥＣＨ株式会社,,株式会社,東京都,港区,三田１丁目３－４０－８０２号室,,13,103,1080073,,,,,,,2024-09-09,1,,,,,アバターテック,0
593,3010403033378,新規,0,2024-09-09,2024-09-09,合同会社大明商事,,合同会社,東京都,港区,浜松町２丁目７番１７号イーグル浜松町天翔オフィス浜松町大門１０階１０３６号室,,13,103,1050013,,,,,,,2024-09-09,1,,,,,ダイメイショウジ,0
600,3010505003551,新規,0,2024-09-09,2024-09-09,医療法人社団かわぐち内科・内視鏡クリニック,,その他の設立登記法人,東京都,台東区,浅草１丁目３５番９号１階,,13,106,1110032,,,,,,,2024-09-09,1,,,,,カワグチナイカナイシキョウクリニック,0
603,3010601065850,新規,0,2024-09-09,2024-09-09,株式会社ジーニアス・トレーディング,,株式会社,東京都,江東区,有明１丁目２番１１－２７１２号,,13,108,1350063,,,,,,,2024-09-09,1,,,,,ジーニアストレーディング,0
604,3010601065875,新規,0,2024-09-09,2024-09-09,日本恒順商貿株式会社,,株式会社,東京都,墨田区,横川３丁目６番７号２－Ｐ室,,13,107,1300003,,,,,,,2024-09-09,1,,,,,ニホンコウジュンショウボウ,0
607,3010701046494,新規,0,2024-09-09,2024-09-09,株式会社ｐａｎｄａ,,株式会社,東京都,品川区,東五反田５丁目１０番５－３０３号,,13,109,1410022,,,,,,,2024-09-09,1,,,,,パンダ,0
615,3010901055948,新規,0,2024-09-09,2024-09-09,株式会社ＳＡＮＡＥコーポレーション,,株式会社,東京都,世田谷区,玉川田園調布１丁目１９番１２－２０９号,,13,112,1580085,,,,,,,2024-09-09,1,,,,,サナエコーポレーション,0
616,3010903009340,新規,0,2024-09-09,2024-09-09,合同会社ＭＩＣＳ,,合同会社,東京都,世田谷区,太子堂４丁目１８番１５号マガザン三軒茶屋２３Ｆ－３,,13,112,1540004,,,,,,,2024-09-09,1,,,,,ミックス,0
622,3011003019924,新規,0,2024-09-09,2024-09-09,Ｂｅｙｏｎｄ　Ｌｉｍｉｔｓ合同会社,,合同会社,東京都,目黒区,柿の木坂１丁目３番１３号,,13,110,1520022,,,,,,,2024-09-09,1,,,,,ビヨンドリミッツ,0
623,3011005010658,新規,0,2024-09-09,2024-09-09,一般社団法人ＭＴＣ　Ｍｅｄｉｃａｌ　Ｈｏｌｄｉｎｇｓ,,その他の設立登記法人,東京都,渋谷区,神宮前６丁目２３番４号桑野ビル２階,,13,113,1500001,,,,,,,2024-09-09,1,,,,,エムティーシーメディカルホールディングス,0
631,3011101108678,新規,0,2024-09-09,2024-09-09,株式会社ストラテジック・シナジー,,株式会社,東京都,新宿区,西新宿３丁目３番１３号西新宿水間ビル２Ｆ,,13,104,1600023,,,,,,,2024-09-09,1,,,,,ストラテジックシナジー,0
663,3012405005041,新規,0,2024-09-09,2024-09-09,一般社団法人よるべ,,その他の設立登記法人,東京都,狛江市,猪方２丁目２３番地の５,,13,219,2010015,,,,,,,2024-09-09,1,,,,,,0
667,3013301053076,新規,0,2024-09-09,2024-09-09,株式会社Ｌａｔｔｅ,,株式会社,東京都,豊島区,南池袋１丁目１６番１５号ダイヤゲート池袋５Ｆ,,13,116,1710022,,,,,,,2024-09-09,1,,,,,ラテ,0
681,3020001158980,新規,0,2024-09-09,2024-09-09,株式会社Ｒｉｃａ,,株式会社,神奈川県,横浜市西区,北幸２丁目１０番４８号むつみビル３階,,14,103,2200004,,,,,,,2024-09-09,1,,,,,リッカ,0
682,3020001159013,新規,0,2024-09-09,2024-09-09,株式会社ＭＡＪＥＳＴＩＣ,,株式会社,神奈川県,横浜市鶴見区,佃野町２３番１３－１００９号,,14,101,2300061,,,,,,,2024-09-09,1,,,,,マジェスティック,0
686,3020003026855,新規,0,2024-09-09,2024-09-09,デジタルアクティベート合同会社,,合同会社,神奈川県,横浜市神奈川区,金港町５－１４クアドリフォリオ８階,,14,102,2210056,,,,,,,2024-09-09,1,,,,,デジタルアクティベート,0
687,3020003026863,新規,0,2024-09-09,2024-09-09,マナコア合同会社,,合同会社,神奈川県,川崎市中原区,新丸子東１丁目７７４番地,,14,133,2110004,,,,,,,2024-09-09,1,,,,,マナコア,0
688,3020005016532,新規,0,2024-09-09,2024-09-09,特定非営利活動法人Ｎｅｘｕｓ　Ｂｌｕｅ　Ｅａｒｔｈ,,その他の設立登記法人,神奈川県,横浜市南区,永田東２丁目３４番１９号,,14,105,2320072,,,,,,,2024-09-09,1,,,,,ネクサスブルーアース,0
700,3021003014998,新規,0,2024-09-09,2024-09-09,製作スペースつじどう合同会社,,合同会社,神奈川県,藤沢市,辻堂新町１丁目４－３０グレーシア湘南辻堂１３０４,00136228,14,205,2510042,,,,,,,2024-09-09,1,,,,,セイサクスペースツジドウ,0
703,3030001162247,新規,0,2024-09-09,2024-09-09,ＨＴＲ株式会社,,株式会社,埼玉県,川口市,川口６丁目４番２９－１１０号マシャンブル川口,,11,203,3320015,,,,,,,2024-09-09,1,,,,,エイチティーアール,0
704,3030001162288,新規,0,2024-09-09,2024-09-09,株式会社ワイダーフィールド,,株式会社,埼玉県,上尾市,大字原市３７２７番地１,,11,219,3620021,,,,,,,2024-09-09,1,,,,,ワイダーフィールド,0
705,3030001162354,新規,0,2024-09-09,2024-09-09,株式会社クイーンズ,,株式会社,埼玉県,入間郡三芳町,大字竹間沢４３２番地８,,11,324,3540043,,,,,,,2024-09-09,1,,,,,クイーンズ,0
706,3030001162362,新規,0,2024-09-09,2024-09-09,株式会社マークプラス,,株式会社,埼玉県,さいたま市大宮区,大成町２丁目１０７番地エスポワールＩＩ大宮１０Ｅ号室,00136229,11,103,3300852,,,,,,,2024-09-09,1,,,,,マークプラス,0
709,3030005021820,新規,0,2024-09-09,2024-09-09,農事組合法人綾鷹,,その他の設立登記法人,埼玉県,さいたま市岩槻区,西原台２丁目３番６０号ＴＹ岩槻１－１０２号室,,11,110,3390082,,,,,,,2024-09-09,1,,,,,アヤタカ,0
710,3030005021837,新規,0,2024-09-09,2024-09-09,行政書士法人Ｒｉｎ,,その他の設立登記法人,埼玉県,越谷市,東越谷９丁目１番地９ハマノビル１０３,,11,222,3430023,,,,,,,2024-09-09,1,,,,,リン,0
715,3040001135251,新規,0,2024-09-09,2024-09-09,株式会社ＲＥＬＩＢＬＵＥ,,株式会社,千葉県,長生郡長柄町,六地蔵２９,,12,426,2970233,,,,,,,2024-09-09,1,,,,,リライブルー,0
716,3040001135318,新規,0,2024-09-09,2024-09-09,株式会社友芽工業,,株式会社,千葉県,船橋市,二宮１丁目６１番５号,,12,204,2740823,,,,,,,2024-09-09,1,,,,,ユメコウギョウ,0
720,3050001055374,新規,0,2024-09-09,2024-09-09,株式会社大和,,株式会社,茨城県,牛久市,上柏田３丁目２８－３ドールハウスＨ号棟,,08,219,3001232,,,,,,,2024-09-09,1,,,,,ヤマト,0
723,3050003008669,新規,0,2024-09-09,2024-09-09,合同会社レストレード商会,,合同会社,茨城県,取手市,井野台５丁目５番２８号,,08,217,3020015,,,,,,,2024-09-09,1,,,,,レストレードショウカイ,0
730,3070001042156,新規,0,2024-09-09,2024-09-09,株式会社Ｂ１０,,株式会社,群馬県,高崎市,小八木町１２０２番地１,,10,202,3700071,,,,,,,2024-09-09,1,,,,,ビーテン,0
731,3070001042164,新規,0,2024-09-09,2024-09-09,株式会社Ａ１０,,株式会社,群馬県,高崎市,小八木町１２０２番地１,,10,202,3700071,,,,,,,2024-09-09,1,,,,,エーテン,0
740,3080405007670,新規,0,2024-09-09,2024-09-09,一般社団法人あすなろ環境事業団,,その他の設立登記法人,静岡県,浜松市中央区,大平台３丁目２９－１８,,22,138,4328068,,,,,,,2024-09-09,1,,,,,アスナロカンキョウジギョウダン,0
744,3100003007764,新規,0,2024-09-09,2024-09-09,合同会社縄文の光,,合同会社,長野県,諏訪郡原村,１０１１５番地２,,20,363,3910100,,,,,,,2024-09-09,1,,,,,ジョウモンノヒカリ,0
755,3120001268365,新規,0,2024-09-09,2024-09-09,株式会社ＴｏＷａ,,株式会社,大阪府,大阪市平野区,瓜破２丁目１番５８号,,27,126,5470024,,,,,,,2024-09-09,1,,,,,トワ,0
756,3120001268423,新規,0,2024-09-09,2024-09-09,株式会社いづるベース,,株式会社,大阪府,大阪市西区,靱本町２丁目２－２２うつぼパークビル２０２,,27,106,5500004,,,,,,,2024-09-09,1,,,,,イヅルベース,0
757,3120001268448,新規,0,2024-09-09,2024-09-09,サンレイズ検査株式会社,,株式会社,大阪府,門真市,松生町３番１号,,27,223,5710044,,,,,,,2024-09-09,1,,,,,サンレイズケンサ,0
758,3120101070258,新規,0,2024-09-09,2024-09-09,株式会社いろは,,株式会社,大阪府,堺市北区,新金岡町３丁１番２４－４０５号,,27,146,5918021,,,,,,,2024-09-09,1,,,,,イロハ,0
759,3120101070274,新規,0,2024-09-09,2024-09-09,株式会社キャンゾー,,株式会社,大阪府,岸和田市,小松里町１４２番地の２,,27,202,5960821,,,,,,,2024-09-09,1,,,,,キャンゾー,0
764,3120901049749,新規,0,2024-09-09,2024-09-09,ＰＯＤ株式会社,,株式会社,大阪府,高槻市,柳川町１丁目１１－５,,27,207,5690853,,,,,,,2024-09-09,1,,,,,ピーオーディー,0
765,3120903005329,新規,0,2024-09-09,2024-09-09,城本建装合同会社,,合同会社,大阪府,茨木市,平田台４番３棟４０２,,27,211,5670849,,,,,,,2024-09-09,1,,,,,シロモトケンソウ,0
767,3122001038426,新規,0,2024-09-09,2024-09-09,株式会社ＬＥＣＯＴＥＡ,,株式会社,大阪府,八尾市,安中町３丁目５番１４号ＪＲ八尾クリニックビル１階,,27,212,5810085,,,,,,,2024-09-09,1,,,,,レコテア,0
771,3130001077906,新規,0,2024-09-09,2024-09-09,株式会社バランスチェック,,株式会社,京都府,京都市北区,衣笠東御所ノ内町４２番地クラスカ衣笠６０３,,26,101,6038371,,,,,,,2024-09-09,1,,,,,バランスチェック,0
773,3140001135745,新規,0,2024-09-09,2024-09-09,株式会社ＢｒｉｄｇｅＢｏｎｄ,,株式会社,兵庫県,尼崎市,東七松町２丁目２番１０号,,28,202,6600051,,,,,,,2024-09-09,1,,,,,ブリッジボンド,0
784,3180001163180,新規,0,2024-09-09,2024-09-09,ＢＬＩＳＳ　ＪＡＰＡＮ株式会社,,株式会社,愛知県,名古屋市東区,泉１丁目１０番２６号赤堀ビル３０３,,23,102,4610001,,,,,,,2024-09-09,1,,,,,ブリスジャパン,0
785,3180001163206,新規,0,2024-09-09,2024-09-09,Ｗｅｌｌｓｉｓｔ株式会社,,株式会社,愛知県,名古屋市昭和区,桜山町５丁目９４－１アヴニール桜山７０２,,23,107,4660044,,,,,,,2024-09-09,1,,,,,ウェルシスト,0
796,3200003006491,新規,0,2024-09-09,2024-09-09,合同会社ＧＡＭＥ　ＫＡＤＥ,,合同会社,岐阜県,土岐市,下石町２３３１番地３,,21,212,5095202,,,,,,,2024-09-09,1,,,,,ガメカデ,0
804,3270001009052,新規,0,2024-09-09,2024-09-09,株式会社中海Ｌａｂｏ,,株式会社,鳥取県,倉吉市,福庭町１丁目５７１番地,,31,203,6820018,,,,,,,2024-09-09,1,,,,,チュウカイラボ,0
811,3290001107184,新規,0,2024-09-09,2024-09-09,株式会社Ｃｕｌｔｉｖａ,,株式会社,福岡県,糸島市,加布里５丁目７－１１６４－２,,40,230,8191124,,,,,,,2024-09-09,1,,,,,カルティバ,0
812,3290001107201,新規,0,2024-09-09,2024-09-09,株式会社エイジャ・コンサルティング,,株式会社,福岡県,福岡市中央区,大名２丁目１２番１５号赤坂セブンビル８階４号室,,40,133,8100041,,,,,,,2024-09-09,1,,,,,エイジャコンサルティング,0
817,3300003002175,新規,0,2024-09-09,2024-09-09,合同会社友成興業,,合同会社,佐賀県,佐賀市,東与賀町大字下古賀１９２番地７,,41,201,8402221,,,,,,,2024-09-09,1,,,,,ユウセイコウギョウ,0
819,3330001032452,新規,0,2024-09-09,2024-09-09,株式会社伊与田設計,,株式会社,熊本県,熊本市中央区,渡鹿２丁目４番２２号,,43,101,8620970,,,,,,,2024-09-09,1,,,,,イヨタセッケイ,0
832,3460303000838,新規,0,2024-09-09,2024-09-09,合同会社コンスタンチ,,合同会社,北海道,北見市,美芳町５丁目５番１３号,,01,208,0900064,,,,,,,2024-09-09,1,,,,,コンスタンチ,0
835,3700150126471,新規,0,2024-09-09,2024-07-17,玄海リンク,,その他,福岡県,宗像市,田野１３８２玄海東小学校内,,40,220,8113514,,,,,,,2024-07-17,1,,,,,ゲンカイリンク,0
845,4010001248039,新規,0,2024-09-09,2024-09-09,株式会社Ｓｌａｓｈｉｅ　Ｍｅｄｉａ　Ｊａｐａｎ,,株式会社,東京都,中央区,築地７丁目８番３－８０２号,,13,102,1040045,,,,,,,2024-09-09,1,,,,,スラシーメディアジャパン,0
846,4010001248063,新規,0,2024-09-09,2024-09-09,Ｔｒｕｓｔ＆Ｔｒｕｓｔ株式会社,,株式会社,東京都,千代田区,大手町１丁目６番１号,,13,101,1000004,,,,,,,2024-09-09,1,,,,,トラストアンドトラスト,0
847,4010003044799,新規,0,2024-09-09,2024-09-09,合同会社Ｅｍｍｕ,,合同会社,東京都,中央区,勝どき３丁目２番３号,,13,102,1040054,,,,,,,2024-09-09,1,,,,,エンム,0
850,4010005038774,新規,0,2024-09-09,2024-09-09,一般社団法人エスファンドパートナーズ,,その他の設立登記法人,東京都,千代田区,霞が関３丁目２番５号,,13,101,1000013,,,,,,,2024-09-09,1,,,,,エスファンドパートナーズ,0
851,4010101016287,新規,0,2024-09-09,2024-09-09,ＴＣＧ株式会社,,株式会社,東京都,八王子市,別所１丁目４２番地１・２－６０４,,13,201,1920363,,,,,,,2024-09-09,1,,,,,ティーシージー,0
856,4010401184957,新規,0,2024-09-09,2024-09-09,株式会社Ｐｏｌｉｔｅ,,株式会社,東京都,港区,六本木２丁目４番５号六本木Ｄスクエア２階,,13,103,1060032,,,,,,,2024-09-09,1,,,,,ポライト,0
857,4010401184973,新規,0,2024-09-09,2024-09-09,株式会社マツカワ,,株式会社,東京都,港区,新橋２丁目１６番１号ニュー新橋ビル８０２－Ｄ２,,13,103,1050004,,,,,,,2024-09-09,1,,,,,マツカワ,0
859,4010403033369,新規,0,2024-09-09,2024-09-09,合同会社ＤＳいいざか,,合同会社,東京都,港区,南青山４丁目１番６号,,13,103,1070062,,,,,,,2024-09-09,1,,,,,ディーエスイイザカ,0
860,4010403033402,新規,0,2024-09-09,2024-09-09,合同会社京都６Ｊ,,合同会社,東京都,港区,元赤坂１丁目１番８号赤坂コミュニティビル４階,,13,103,1070051,,,,,,,2024-09-09,1,,,,,キョウトシックスジェイ,0
861,4010501052873,新規,0,2024-09-09,2024-09-09,美台株式会社,,株式会社,東京都,台東区,上野１丁目１３番４号エスペランサ湯島７階,,13,106,1100005,,,,,,,2024-09-09,1,,,,,ミダイ,0
868,4010601065874,新規,0,2024-09-09,2024-09-09,Ｘｃｅｌｅｒａｔｏｒ株式会社,,株式会社,東京都,墨田区,千歳３丁目６番５号３１０室プロス森下,,13,107,1300025,,,,,,,2024-09-09,1,,,,,エクセラレーター,0
871,4010603011067,新規,0,2024-09-09,2024-09-09,合同会社ｍｉｋｏｔｏｋｏ,,合同会社,東京都,墨田区,太平３丁目１５番１０号,,13,107,1300012,,,,,,,2024-09-09,1,,,,,ミコトコ,0
873,4010701046477,新規,0,2024-09-09,2024-09-09,Ｍ＆Ｃ　ＷＥＬＬ株式会社,,株式会社,東京都,品川区,大井１丁目２３番７号,,13,109,1400014,,,,,,,2024-09-09,1,,,,,エムアンドシーウェル,0
874,4010701046502,新規,0,2024-09-09,2024-09-09,ｍｕｇｕｅｔｆｌｅｕｒ株式会社,,株式会社,東京都,品川区,北品川５丁目５番１５号,,13,109,1410001,,,,,,,2024-09-09,1,,,,,ミュゲフルール,0
875,4010701046527,新規,0,2024-09-09,2024-09-09,株式会社９ｔｕｎｅ,,株式会社,東京都,品川区,西品川１丁目１－１住友不動産大崎ガーデンタワー９階,,13,109,1410033,,,,,,,2024-09-09,1,,,,,ナインチューン,0
876,4010703007345,新規,0,2024-09-09,2024-09-09,２１０合同会社,,合同会社,東京都,品川区,大崎３丁目１０－１１ＭＯＫ．Ａ－ＯｓａｋｉＡ号室,,13,109,1410032,,,,,,,2024-09-09,1,,,,,ニオ,0
884,4010901055930,新規,0,2024-09-09,2024-09-09,株式会社アンシュ,,株式会社,東京都,世田谷区,若林１丁目１番２７－２０５号,,13,112,1540023,,,,,,,2024-09-09,1,,,,,アンシュ,0
885,4010901055947,新規,0,2024-09-09,2024-09-09,株式会社エムズ,,株式会社,東京都,世田谷区,赤堤３丁目２４番１５号,,13,112,1560044,,,,,,,2024-09-09,1,,,,,エムズ,0
889,4011001164358,新規,0,2024-09-09,2024-09-09,株式会社ＮＥＯ,,株式会社,東京都,渋谷区,渋谷２丁目１９－１５宮益坂ビルディング６０９,,13,113,1500002,,,,,,,2024-09-09,1,,,,,ネオ,0
890,4011001164390,新規,0,2024-09-09,2024-09-09,株式会社ｓＥＡＴｈｏｍｅ,,株式会社,東京都,渋谷区,恵比寿３丁目２９番８号,,13,113,1500013,,,,,,,2024-09-09,1,,,,,スイートホーム,0
891,4011001164432,新規,0,2024-09-09,2024-09-09,シナプスコンサルティング株式会社,,株式会社,東京都,渋谷区,道玄坂１丁目１０番８号渋谷道玄坂東急ビル２Ｆ－Ｃ,,13,113,1500043,,,,,,,2024-09-09,1,,,,,シナプスコンサルティング,0
897,4011701027599,新規,0,2024-09-09,2024-09-09,株式会社ＨＲＭ,,株式会社,東京都,江戸川区,大杉１丁目２１番１３号,,13,123,1320022,,,,,,,2024-09-09,1,,,,,エイチアールエム,0
913,4020001159086,新規,0,2024-09-09,2024-09-09,株式会社ＢＵＢＢＬＥＳ,,株式会社,神奈川県,川崎市高津区,下作延２丁目９番９号ＭＳＢビル３０２,,14,134,2130033,,,,,,,2024-09-09,1,,,,,バブルス,0
923,4021003014989,新規,0,2024-09-09,2024-09-09,ＫＨＡＮＨ　ＤＵＯＮＧ合同会社,,合同会社,神奈川県,相模原市中央区,矢部３丁目１８－８プラザ矢部ＲＳ１Ｆ,,14,152,2520232,,,,,,,2024-09-09,1,,,,,カンズオン,0
933,4030001162238,新規,0,2024-09-09,2024-09-09,株式会社ｃｏｍｅ　ａｃｒｏｓｓ,,株式会社,埼玉県,越谷市,登戸町１１番４３－３号,,11,222,3430846,,,,,,,2024-09-09,1,,,,,カムアクロス,0
934,4030001162345,新規,0,2024-09-09,2024-09-09,ＳＰＥＥＤ　ＵＮＩＴＥ株式会社,,株式会社,埼玉県,川口市,上青木１丁目４番２３－３０５号,,11,203,3330844,,,,,,,2024-09-09,1,,,,,スピードユナイト,0
940,4030003025046,新規,0,2024-09-09,2024-09-09,合同会社ＣＯＰＵＬＡ,,合同会社,埼玉県,朝霞市,根岸台７丁目１９番３１号,,11,227,3510005,,,,,,,2024-09-09,1,,,,,コピュラ,0
941,4030003025062,新規,0,2024-09-09,2024-09-09,ＧＷ合同会社,,合同会社,埼玉県,戸田市,喜沢南２丁目９番２４号ＣＳ戸田ビル１０３,,11,224,3350014,,,,,,,2024-09-09,1,,,,,ジーダブリュー,0
944,4040001135259,新規,0,2024-09-09,2024-09-09,株式会社Ａｓａｎｇａ,,株式会社,千葉県,船橋市,本町６丁目１８－１９第３山中ビル４０１号室,,12,204,2730005,,,,,,,2024-09-09,1,,,,,アサンガ,0
945,4040001135283,新規,0,2024-09-09,2024-09-09,大建貿易株式会社,,株式会社,千葉県,千葉市美浜区,真砂３丁目１７番４棟９０６号,,12,106,2610011,,,,,,,2024-09-09,1,,,,,ダイケンボウエキ,0
946,4040001135317,新規,0,2024-09-09,2024-09-09,株式会社おもいやり,,株式会社,千葉県,千葉市若葉区,千城台西２丁目２－７－１,,12,104,2640004,,,,,,,2024-09-09,1,,,,,オモイヤリ,0
950,4040003025747,新規,0,2024-09-09,2024-09-09,ＬＩＹＡ　ＡＵＴＯ　ＬＩＮＫ合同会社,,合同会社,千葉県,山武市,埴谷１７７１番地３０,,12,237,2891223,,,,,,,2024-09-09,1,,,,,リヤオートリンク,0
954,4050001055357,新規,0,2024-09-09,2024-09-09,株式会社ＳＵＭ,,株式会社,茨城県,ひたちなか市,高場１丁目１５番地２,,08,221,3120062,,,,,,,2024-09-09,1,,,,,サム,0
955,4050001055373,新規,0,2024-09-09,2024-09-09,株式会社ロックリック,,株式会社,茨城県,水戸市,平須町１８２２－４１５,,08,201,3100853,,,,,,,2024-09-09,1,,,,,ロックリック,0
958,4050003008668,新規,0,2024-09-09,2024-09-09,ＷＡＧＹＵ　ＪＡＰＡＮ合同会社,,合同会社,茨城県,水戸市,宮町１丁目２番４号ＭＹＭビル３Ｆ,,08,201,3100015,,,,,,,2024-09-09,1,,,,,ワギュウジャパン,0
964,4070001042155,新規,0,2024-09-09,2024-09-09,株式会社Ｂ９,,株式会社,群馬県,高崎市,小八木町１２０２番地１,,10,202,3700071,,,,,,,2024-09-09,1,,,,,ビーナイン,0
965,4070001042163,新規,0,2024-09-09,2024-09-09,株式会社Ａ８,,株式会社,群馬県,高崎市,小八木町１２０２番地１,,10,202,3700071,,,,,,,2024-09-09,1,,,,,エーエイト,0
973,4080101024993,新規,0,2024-09-09,2024-09-09,ＥＯＭ株式会社,,株式会社,静岡県,熱海市,小嵐町８番１１号上小嵐団地９５,,22,205,4130029,,,,,,,2024-09-09,1,,,,,イオム,0
983,4100001037837,新規,0,2024-09-09,2024-09-09,株式会社ハナトラスト,,株式会社,長野県,佐久市,瀬戸３５０２番地３,,20,217,3850035,,,,,,,2024-09-09,1,,,,,ハナトラスト,0
985,4100003007648,新規,0,2024-09-09,2024-09-09,合同会社ボナン,,合同会社,長野県,松本市,大字島立４５６８,,20,202,3900852,,,,,,,2024-09-09,1,,,,,ボナン,0
986,4100003007763,新規,0,2024-09-09,2024-09-09,合同会社Ｌａ　Ｂｒｉｌｌｅｒ,,合同会社,長野県,中野市,大字新保５９９番地３,,20,211,3830036,,,,,,,2024-09-09,1,,,,,ラブリエ,0
988,4110001038693,新規,0,2024-09-09,2024-09-09,株式会社阿賀林養魚場,,株式会社,新潟県,東蒲原郡阿賀町,平堀１６６４番地１,,15,385,9594403,,,,,,,2024-09-09,1,,,,,アガハヤシヨウギョジョウ,0
999,4120001268414,新規,0,2024-09-09,2024-09-09,株式会社ＬＩＢＲＡ,,株式会社,大阪府,大阪市中央区,西心斎橋１丁目１０番１２－３０１号室,,27,128,5420086,,,,,,,2024-09-09,1,,,,,リブラ,0
1003,4120003027487,新規,0,2024-09-09,2024-09-09,メドテックアクチュエーター合同会社,,合同会社,大阪府,大阪市中央区,安土町２丁目３番１３号,,27,128,5410052,,,,,,,2024-09-09,1,,,,,メドテックアクチュエーター,0
1013,4130001077888,新規,0,2024-09-09,2024-09-09,株式会社ＨＡｍｕ,,株式会社,京都府,京都市上京区,黒門通元誓願寺下る毘沙門町７４８番地２,,26,102,6028227,,,,,,,2024-09-09,1,,,,,ハム,0
1014,4130003009823,新規,0,2024-09-09,2024-09-09,合同会社アドバンスガレージ,,合同会社,京都府,八幡市,岩田南浅地３７番地４,,26,210,6148265,,,,,,,2024-09-09,1,,,,,アドバンスガレージ,0
1018,4140001135736,新規,0,2024-09-09,2024-09-09,株式会社ｔｏｍｏｎｉ,,株式会社,兵庫県,姫路市,保城１６３番地４,,28,201,6700804,,,,,,,2024-09-09,1,,,,,トモニ,0
1035,4180001163139,新規,0,2024-09-09,2024-09-09,株式会社シーセンス,,株式会社,愛知県,名古屋市中村区,名駅南１丁目１２番７号虎ビル６階,,23,105,4500003,,,,,,,2024-09-09,1,,,,,シーセンス,0
1036,4180001163196,新規,0,2024-09-09,2024-09-09,株式会社ドリームパートナー愛知,,株式会社,愛知県,一宮市,森本１丁目２４番２号,,23,203,4910831,,,,,,,2024-09-09,1,,,,,ドリームパートナーアイチ,0
1037,4180001163213,新規,0,2024-09-09,2024-09-09,なごや地所株式会社,,株式会社,愛知県,名古屋市名東区,牧の里２丁目６０３番地,,23,115,4650068,,,,,,,2024-09-09,1,,,,,ナゴヤジショ,0
1072,4290001107175,新規,0,2024-09-09,2024-09-09,株式会社イチョウの樹,,株式会社,福岡県,朝倉市,桑原１０２６番地,,40,228,8380039,,,,,,,2024-09-09,1,,,,,イチョウノキ,0
1075,4290003015789,新規,0,2024-09-09,2024-09-09,合同会社ＪＳＲ福岡,,合同会社,福岡県,福岡市東区,若宮５丁目４番１７号,,40,131,8130036,,,,,,,2024-09-09,1,,,,,,0
1076,4290801030873,新規,0,2024-09-09,2024-09-09,株式会社Ｎａｇｏ　Ｖｉｌｌａｇｅ,,株式会社,福岡県,北九州市八幡西区,木屋瀬３丁目１０番１３号,,40,109,8071261,,,,,,,2024-09-09,1,,,,,ナゴビレッジ,0
1077,4300005007205,新規,0,2024-09-09,2024-09-09,一般財団法人九州沖縄海洋財団,,その他の設立登記法人,佐賀県,武雄市,橘町大字片白８７４０番地４,,41,206,8430012,,,,,,,2024-09-09,1,,,,,キュウシュウオキナワカイヨウザイダン,0
1078,4310005008796,新規,0,2024-09-09,2024-09-09,一般社団法人長崎青少年育成振興協議会,,その他の設立登記法人,長崎県,大村市,協和町７１０番地１,,42,205,8560820,,,,,,,2024-09-09,1,,,,,ナガサキセイショウネンイクセイシンコウキョウギカイ,0
1079,4320001020705,新規,0,2024-09-09,2024-09-09,ニコライド株式会社,,株式会社,大分県,大分市,金池南２丁目１４－１０レスコ金池南１００１,,44,201,8700839,,,,,,,2024-09-09,1,,,,,ニコライド,0
1080,4320003004466,新規,0,2024-09-09,2024-09-09,合同会社ライズ,,合同会社,大分県,大分市,森町西１丁目８番３号,,44,201,8700140,,,,,,,2024-09-09,1,,,,,ライズ,0
1084,4330001032451,新規,0,2024-09-09,2024-09-09,株式会社友枝水産,,株式会社,熊本県,熊本市西区,小島下町３７８０番地,,43,103,8615284,,,,,,,2024-09-09,1,,,,,トモエダスイサン,0
1107,4420001018854,新規,0,2024-09-09,2024-09-09,株式会社小堀農園,,株式会社,青森県,弘前市,大字川合字下川原９３番地５,,02,202,0368114,,,,,,,2024-09-09,1,,,,,コボリノウエン,0
1115,4470003002711,新規,0,2024-09-09,2024-09-09,合同会社霧島蓄電所,,合同会社,香川県,高松市,林町２５３６番地１,,37,201,7610301,,,,,,,2024-09-09,1,,,,,,0
1119,4700150125811,新規,0,2024-09-09,2024-06-07,日本歴史時代作家協会,,その他,東京都,練馬区,石神井台２丁目３－１４,,13,120,1770045,,,,,,,2024-06-07,1,,,,,ニホンレキシジダイサツカキヨウカイ,0
1123,5010001248013,新規,0,2024-09-09,2024-09-09,株式会社スタディスタート,,株式会社,東京都,千代田区,神田和泉町１番地６－１６ヤマトビル４０６,,13,101,1010024,,,,,,,2024-09-09,1,,,,,スタディスタート,0
1127,5010003044798,新規,0,2024-09-09,2024-09-09,合同会社８０ｍｉｌｅｓ,,合同会社,東京都,文京区,白山１丁目１６番６号白山麻の実ハイツ３０３,,13,105,1130001,,,,,,,2024-09-09,1,,,,,エイティーマイルズ,0
1130,5010005038773,新規,0,2024-09-09,2024-09-09,一般社団法人ＬｏｖｅＬａｂｏ,,その他の設立登記法人,東京都,千代田区,二番町１番地２,,13,101,1020084,,,,,,,2024-09-09,1,,,,,ラブラボ,0
1131,5010101016311,新規,0,2024-09-09,2024-09-09,株式会社Ｔｆｓ,,株式会社,東京都,八王子市,大塚１６８７番地３,,13,201,1920352,,,,,,,2024-09-09,1,,,,,,0
1136,5010401184915,新規,0,2024-09-09,2024-09-09,ＤＧｓｔｕｄｉｏ株式会社,,株式会社,東京都,港区,赤坂５丁目４番１７号ＳＣビル赤坂５Ｆ,,13,103,1070052,,,,,,,2024-09-09,1,,,,,ディージースタジオ,0
1137,5010401184980,新規,0,2024-09-09,2024-09-09,株式会社水田家,,株式会社,東京都,港区,高輪３丁目２番７－２０３号,,13,103,1080074,,,,,,,2024-09-09,1,,,,,ミズタケ,0
1138,5010401184989,新規,0,2024-09-09,2024-09-09,株式会社ＦＰテック,,株式会社,東京都,港区,虎ノ門１丁目２番８号,,13,103,1050001,,,,,,,2024-09-09,1,,,,,エフピーテック,0
1140,5010403033401,新規,0,2024-09-09,2024-09-09,合同会社京都５Ｊ,,合同会社,東京都,港区,元赤坂１丁目１番８号赤坂コミュニティビル４階,,13,103,1070051,,,,,,,2024-09-09,1,,,,,キョウトファイブジェイ,0
1144,5010601065873,新規,0,2024-09-09,2024-09-09,シテサカ株式会社,,株式会社,東京都,江東区,亀戸２丁目４２－６日神パレステージ亀戸第２、９０７号室,,13,108,1360071,,,,,,,2024-09-09,1,,,,,シテサカ,0
1145,5010603011066,新規,0,2024-09-09,2024-09-09,合同会社光桜クラフト,,合同会社,東京都,江東区,東砂１丁目３番６号セントラルビレッヂ４０２,,13,108,1360074,,,,,,,2024-09-09,1,,,,,コウオウクラフト,0
1151,5010901055938,新規,0,2024-09-09,2024-09-09,株式会社馬引沢マネジメント,,株式会社,東京都,世田谷区,上馬５丁目１０番１号,,13,112,1540011,,,,,,,2024-09-09,1,,,,,マヒキザワマネジメント,0
1154,5011001164407,新規,0,2024-09-09,2024-09-09,株式会社Ｃａｌｍ,,株式会社,東京都,渋谷区,道玄坂１丁目１０番８号渋谷道玄坂東急ビル２Ｆ－Ｃ,,13,113,1500043,,,,,,,2024-09-09,1,,,,,カルム,0
1155,5011001164555,新規,0,2024-09-09,2024-09-09,株式会社ろく,,株式会社,東京都,渋谷区,千駄ヶ谷３丁目３９番１号北参道サンイーストテラス６階,,13,113,1510051,,,,,,,2024-09-09,1,,,,,ロク,0
1168,5011703003960,新規,0,2024-09-09,2024-09-09,ティーティーライン合同会社,,合同会社,東京都,江戸川区,小松川３丁目１３番１－１１０７号,,13,123,1320034,,,,,,,2024-09-09,1,,,,,,0
1197,5020001159077,新規,0,2024-09-09,2024-09-09,株式会社六葉,,株式会社,神奈川県,横浜市神奈川区,七島町１３３番地,,14,102,2210061,,,,,,,2024-09-09,1,,,,,ムツハ,0
1198,5020005016506,新規,0,2024-09-09,2024-09-09,一般社団法人日本スポーツチャプレン協会,,その他の設立登記法人,神奈川県,横浜市栄区,飯島町２４４１－１０,,14,115,2440842,,,,,,,2024-09-09,1,,,,,ニホンスポーツチャプレンキョウカイ,0
1205,5030001162352,新規,0,2024-09-09,2024-09-09,株式会社エイト企画,,株式会社,埼玉県,飯能市,大字川崎３０４番地１,,11,209,3570011,,,,,,,2024-09-09,1,,,,,エイトキカク,0
1206,5030001162360,新規,0,2024-09-09,2024-09-09,株式会社ミルザトレーディング,,株式会社,埼玉県,川越市,諏訪町１０番地３２,,11,201,3501147,,,,,,,2024-09-09,1,,,,,ミルザトレーディング,0
1213,5030003025061,新規,0,2024-09-09,2024-09-09,Ｓ１．ＯＲＤＥＲ合同会社,,合同会社,埼玉県,さいたま市北区,大成町４丁目１２９番地９,,11,102,3310815,,,,,,,2024-09-09,1,,,,,エスワンオーダー,0
1215,5030005021819,新規,0,2024-09-09,2024-09-09,農事組合法人エイト,,その他の設立登記法人,埼玉県,さいたま市岩槻区,西原台２丁目３番６０号ＴＹ岩槻１－１０２号室,,11,110,3390082,,,,,,,2024-09-09,1,,,,,エイト,0
1219,5040001135233,新規,0,2024-09-09,2024-09-09,株式会社はばたく,,株式会社,千葉県,市川市,東大和田２丁目５番１号,,12,203,2720026,,,,,,,2024-09-09,1,,,,,ハバタク,0
1220,5040001135274,新規,0,2024-09-09,2024-09-09,株式会社Ｈａｒｒｉｓ　Ｈａｗｋ,,株式会社,千葉県,大網白里市,みやこ野１丁目４番地１アイディーコート大網１０３号,,12,239,2993236,,,,,,,2024-09-09,1,,,,,ハリスホーク,0
1221,5040001135316,新規,0,2024-09-09,2024-09-09,株式会社Ｌｉｆｅｐａｔｈ,,株式会社,千葉県,市原市,若宮７丁目７番地１,,12,219,2900006,,,,,,,2024-09-09,1,,,,,ライフパス,0
1230,5050003008659,新規,0,2024-09-09,2024-09-09,ＹＳＬａｎｄ合同会社,,合同会社,茨城県,守谷市,松前台２丁目３番地４,,08,224,3020102,,,,,,,2024-09-09,1,,,,,ワイエスランド,0
1233,5060003005234,新規,0,2024-09-09,2024-09-09,合同会社コトエト,,合同会社,栃木県,那須郡那須町,大字高久甲４４５３番地７８５,,09,407,3250001,,,,,,,2024-09-09,1,,,,,コトエト,0
1236,5070001042154,新規,0,2024-09-09,2024-09-09,株式会社Ｂ８,,株式会社,群馬県,高崎市,小八木町１２０２番地１,,10,202,3700071,,,,,,,2024-09-09,1,,,,,ビーエイト,0
1237,5070001042162,新規,0,2024-09-09,2024-09-09,株式会社Ａ７,,株式会社,群馬県,高崎市,小八木町１２０２番地１,,10,202,3700071,,,,,,,2024-09-09,1,,,,,エーセブン,0
1242,5080405007669,新規,0,2024-09-09,2024-09-09,一般社団法人中瀬南部まちづくり会,,その他の設立登記法人,静岡県,浜松市浜名区,西中瀬２丁目１７番１６号,,22,139,4340018,,,,,,,2024-09-09,1,,,,,ナカゼナンブマチヅクリカイ,0
1245,5110001038684,新規,0,2024-09-09,2024-09-09,アークランドサカモト株式会社,,株式会社,新潟県,三条市,上須頃４４５番地,,15,204,9550091,,,,,,,2024-09-09,1,,,,,アークランドサカモト,0
1250,5120001268355,新規,0,2024-09-09,2024-09-09,ＫＧパートナーズ株式会社,,株式会社,大阪府,大阪市都島区,東野田町１丁目２０番８－４０１号,,27,102,5340024,,,,,,,2024-09-09,1,,,,,ケージーパートナーズ,0
1251,5120001268363,新規,0,2024-09-09,2024-09-09,万御株式会社,,株式会社,大阪府,大阪市浪速区,恵美須西２丁目３番２１号,,27,111,5560003,,,,,,,2024-09-09,1,,,,,マンユウ,0
1253,5120005024531,新規,0,2024-09-09,2024-09-09,一般社団法人宮古島不動産管理,,その他の設立登記法人,大阪府,大阪市中央区,島之内２丁目２番２０－５０５号,,27,128,5420082,,,,,,,2024-09-09,1,,,,,ミヤコジマフドウサンカンリ,0
1255,5120101070256,新規,0,2024-09-09,2024-09-09,株式会社ＲＥＶＥ,,株式会社,大阪府,松原市,天美我堂７丁目４８７番地の４,,27,217,5800026,,,,,,,2024-09-09,1,,,,,レーヴ,0
1256,5120101070264,新規,0,2024-09-09,2024-09-09,株式会社ＭＡＳＡメディカル,,株式会社,大阪府,藤井寺市,道明寺２丁目５番３２号,,27,226,5830012,,,,,,,2024-09-09,1,,,,,マサメディカル,0
1263,5122003002989,新規,0,2024-09-09,2024-09-09,合同会社ＡＧＳＴＥＥＬ,,合同会社,大阪府,東大阪市,神田町２番８号瓢箪山駅前ビル３０８,,27,227,5798058,,,,,,,2024-09-09,1,,,,,エージースチール,0
1284,5180001163113,新規,0,2024-09-09,2024-09-09,株式会社マルメライフサポート,,株式会社,愛知県,半田市,桐ケ丘４丁目２１３番地の１７,,23,205,4750928,,,,,,,2024-09-09,1,,,,,マルメライフサポート,0
1285,5180001163187,新規,0,2024-09-09,2024-09-09,株式会社ｔｏｌｕｘｙ,,株式会社,愛知県,一宮市,今伊勢町本神戸字名栗２０４番地,,23,203,4910053,,,,,,,2024-09-09,1,,,,,トラクシー,0
1286,5180001163195,新規,0,2024-09-09,2024-09-09,株式会社このすば,,株式会社,愛知県,名古屋市千種区,清住町２丁目３８－２東山ハウス７０７,,23,101,4640034,,,,,,,2024-09-09,1,,,,,コノスバ,0
1297,5200003006498,新規,0,2024-09-09,2024-09-09,ＫＣｓ合同会社,,合同会社,岐阜県,岐阜市,則武中３丁目２４番１２号,,21,201,5020932,,,,,,,2024-09-09,1,,,,,ケーシーエス,0
1302,5240001063760,新規,0,2024-09-09,2024-09-09,株式会社岡明ホールディングス,,株式会社,広島県,安芸郡坂町,北新地４丁目２番３３号,,34,309,7314311,,,,,,,2024-09-09,1,,,,,オカミョウホールディングス,0
1304,5250001020793,新規,0,2024-09-09,2024-09-09,玖珂工業株式会社,,株式会社,山口県,岩国市,麻里布町３丁目１番５号ＳＫＷＩＮ２０２号,,35,208,7400018,,,,,,,2024-09-09,1,,,,,クガコウギョウ,0
1306,5260001039437,新規,0,2024-09-09,2024-09-09,株式会社倉まちコンサルタント,,株式会社,岡山県,倉敷市,玉島２丁目１０番１８号,,33,202,7138102,,,,,,,2024-09-09,1,,,,,クラマチコンサルタント,0
1321,5290003015788,新規,0,2024-09-09,2024-09-09,テレグラフ合同会社,,合同会社,福岡県,福岡市博多区,博多駅南４丁目１９番５号,,40,132,8120016,,,,,,,2024-09-09,1,,,,,テレグラフ,0
1328,5330001032450,新規,0,2024-09-09,2024-09-09,株式会社嶺敦,,株式会社,熊本県,玉名市,亀甲９９番地３,,43,206,8650015,,,,,,,2024-09-09,1,,,,,レイトン,0
1329,5330005010824,新規,0,2024-09-09,2024-09-09,一般社団法人ＨＯＮＡＭＩ,,その他の設立登記法人,熊本県,熊本市中央区,南坪井町４番３０－２０２号,,43,101,8600848,,,,,,,2024-09-09,1,,,,,ホナミ,0
1339,5360001034171,新規,0,2024-09-09,2024-09-09,株式会社ＮＥＷＵＭ,,株式会社,沖縄県,那覇市,曙１丁目１６－３４,,47,201,9000002,,,,,,,2024-09-09,1,,,,,ニューム,0
1343,5360003014279,新規,0,2024-09-09,2024-09-09,ＫＮＯＴ合同会社,,合同会社,沖縄県,石垣市,字真栄里２０４番地１５２,,47,207,9070002,,,,,,,2024-09-09,1,,,,,ノット,0
1345,5370001051703,新規,0,2024-09-09,2024-09-09,株式会社とむらや,,株式会社,宮城県,多賀城市,八幡４丁目７番７４号,,04,209,9850874,,,,,,,2024-09-09,1,,,,,トムラヤ,0
1353,5400003003319,新規,0,2024-09-09,2024-09-09,合同会社ＭＩＹＡＫＯ,,合同会社,岩手県,宮古市,藤原２丁目３番７号,,03,202,0270021,,,,,,,2024-09-09,1,,,,,ミヤコ,0
1358,5430003016747,新規,0,2024-09-09,2024-09-09,ノースエクスプレス合同会社,,合同会社,北海道,千歳市,みどり台北３丁目５番１２号,,01,224,0660083,,,,,,,2024-09-09,1,,,,,ノースエクスプレス,0
1367,5700150126882,新規,0,2024-09-09,2024-08-26,ライフプラザ六実管理組合,,その他,千葉県,松戸市,六高台２丁目６２,,12,207,2702203,,,,,,,2024-08-26,1,,,,,ライフプラザムツミカンリクミアイ,0
1374,6010001248094,新規,0,2024-09-09,2024-09-09,２１９株式会社,,株式会社,東京都,中央区,入船２丁目３－７筑地エーアイユービル５階Ｄ号室,,13,102,1040042,,,,,,,2024-09-09,1,,,,,ニイチキュウ,0
1376,6010003044797,新規,0,2024-09-09,2024-09-09,ＧｅｎＡＩ　ＳＬ合同会社,,合同会社,東京都,千代田区,麹町１丁目４番地４－２階,,13,101,1020083,,,,,,,2024-09-09,1,,,,,ジェンエーアイエスエル,0
1377,6010003044822,新規,0,2024-09-09,2024-09-09,ｐｏｔｓ合同会社,,合同会社,東京都,千代田区,内神田２丁目１３番２号梶山ビル３階,,13,101,1010047,,,,,,,2024-09-09,1,,,,,ポッツ,0
1387,6010401184740,新規,0,2024-09-09,2024-09-09,株式会社Ｃｏａｓｔ　ｔｏ　Ｃｏａｓｔ,,株式会社,東京都,港区,芝１丁目１３番２１号,,13,103,1050014,,,,,,,2024-09-09,1,,,,,コーストトゥコースト,0
1388,6010401184955,新規,0,2024-09-09,2024-09-09,株式会社ＴＡＭ’ｓ,,株式会社,東京都,港区,北青山３丁目１２番７号カプリース７０３,,13,103,1070061,,,,,,,2024-09-09,1,,,,,タムズ,0
1389,6010401184971,新規,0,2024-09-09,2024-09-09,株式会社ＣＩＯ,,株式会社,東京都,港区,南青山２丁目２番１５号,,13,103,1070062,,,,,,,2024-09-09,1,,,,,シーアイオー,0
1390,6010401185037,新規,0,2024-09-09,2024-09-09,株式会社ＬＵＣＡＳ,,株式会社,東京都,港区,北青山１丁目３番１号アールキューブ青山３階,,13,103,1070061,,,,,,,2024-09-09,1,,,,,ルーカス,0
1399,6010601065880,新規,0,2024-09-09,2024-09-09,フロマディール株式会社,,株式会社,東京都,墨田区,江東橋４丁目２７－１４楽天地ビル３Ｆ,,13,107,1300022,,,,,,,2024-09-09,1,,,,,フロマディール,0
1405,6010901055929,新規,0,2024-09-09,2024-09-09,株式会社パックスクリエイションナイツ,,株式会社,東京都,世田谷区,粕谷３丁目１０番１１号,,13,112,1570063,,,,,,,2024-09-09,1,,,,,パックスクリエイションナイツ,0
1406,6010901055937,新規,0,2024-09-09,2024-09-09,株式会社ＳＷ＆ＴｉｇｅｒＳｕｎｎｙ,,株式会社,東京都,世田谷区,瀬田５丁目７番５号ドウェルルミエール１０３,,13,112,1580095,,,,,,,2024-09-09,1,,,,,エスダブリューアンドタイガーサニー,0
1410,6011001164372,新規,0,2024-09-09,2024-09-09,高能産業株式会社,,株式会社,東京都,渋谷区,神泉町８番１０号メゾン神泉４０７,,13,113,1500045,,,,,,,2024-09-09,1,,,,,コウノウサンギョウ,0
1411,6011001164397,新規,0,2024-09-09,2024-09-09,株式会社Ｔｒｅｎｄｆｕｌ,,株式会社,東京都,目黒区,上目黒３丁目４４番１９－２０１号ＡＲＴＥＳＳＩＭＯＬＥＮＮＡ,,13,110,1530051,,,,,,,2024-09-09,1,,,,,トレンドフル,0
1412,6011001164455,新規,0,2024-09-09,2024-09-09,株式会社ＬＥＥＷＡＹ,,株式会社,東京都,渋谷区,道玄坂１丁目１０番８号渋谷道玄坂東急ビル２Ｆ－Ｃ,,13,113,1500043,,,,,,,2024-09-09,1,,,,,リーウェイ,0
1415,6011401026404,新規,0,2024-09-09,2024-09-09,株式会社会幸責,,株式会社,東京都,板橋区,大谷口２丁目６５番９号福富ビル１階,,13,119,1730035,,,,,,,2024-09-09,1,,,,,アイコウサイ,0
1428,6012401042275,新規,0,2024-09-09,2024-09-09,Ｗｅｌｌ‐Ｂｅｉｎｇ　Ｆｏｏｄｓ株式会社,,株式会社,東京都,調布市,仙川町３丁目１０番地９号シティハウス仙川ステーションコート４１５,,13,208,1820002,,,,,,,2024-09-09,1,,,,,ウェルビーイングフーズ,0
1433,6013301053081,新規,0,2024-09-09,2024-09-09,東日昇株式会社,,株式会社,東京都,豊島区,池袋４丁目１４－１１－２１０,,13,116,1710014,,,,,,,2024-09-09,1,,,,,トウニッショウ,0
1438,6020001159076,新規,0,2024-09-09,2024-09-09,株式会社Ｍｉｚ・Ｂ・ＰＬＵＳ,,株式会社,神奈川県,横浜市磯子区,西町１０番１２号パークセレス根岸３０２号室,,14,107,2350007,,,,,,,2024-09-09,1,,,,,ミズビープラス,0
1449,6030001162327,新規,0,2024-09-09,2024-09-09,株式会社ＤＡＲＵＭＡフーズ,,株式会社,埼玉県,さいたま市見沼区,大和田町１丁目５４６番地２アバンサール１０２,,11,104,3370053,,,,,,,2024-09-09,1,,,,,ダルマフーズ,0
1450,6030001162343,新規,0,2024-09-09,2024-09-09,株式会社マストップ,,株式会社,埼玉県,さいたま市北区,東大成町１丁目８４番地ＭＡＲＩＮＨＯＵＳＥ３０４号室,,11,102,3310814,,,,,,,2024-09-09,1,,,,,マストップ,0
1451,6030001162351,新規,0,2024-09-09,2024-09-09,株式会社つむぎ,,株式会社,埼玉県,大里郡寄居町,大字寄居１０５５番地３,,11,408,3691203,,,,,,,2024-09-09,1,,,,,ツムギ,0
1452,6030001162376,新規,0,2024-09-09,2024-09-09,株式会社ＬＢＭ,,株式会社,埼玉県,北本市,東間５丁目９０番地サンマンション北本２－６１８,,11,233,3640007,,,,,,,2024-09-09,1,,,,,エルビーエム,0
1453,6030001162401,新規,0,2024-09-09,2024-09-09,株式会社ＦＩＮＥＸＴ,,株式会社,埼玉県,ふじみ野市,西２丁目４－２４－１５,,11,245,3560005,,,,,,,2024-09-09,1,,,,,フィネクスト,0
1455,6030003025060,新規,0,2024-09-09,2024-09-09,合同会社関電気工業,,合同会社,埼玉県,さいたま市緑区,大字下山口新田１９７番地３,,11,109,3360925,,,,,,,2024-09-09,1,,,,,セキデンキコウギョウ,0
1457,6030005021818,新規,0,2024-09-09,2024-09-09,農事組合法人ドラゴンファーム,,その他の設立登記法人,埼玉県,さいたま市岩槻区,西原台２丁目３番６０号ＴＹ岩槻１－１０２号室,,11,110,3390082,,,,,,,2024-09-09,1,,,,,ドラゴンファーム,0
1458,6030005021842,新規,0,2024-09-09,2024-09-09,司法書士法人中山ゆり事務所,,その他の設立登記法人,埼玉県,川越市,新富町２丁目２２番地八十二銀行川越ビル４Ｆ,,11,201,3500043,,,,,,,2024-09-09,1,,,,,ナカヤマユリジムショ,0
1461,6040001135281,新規,0,2024-09-09,2024-09-09,株式会社兄弟,,株式会社,千葉県,我孫子市,布佐２６０３番地１,,12,222,2701101,,,,,,,2024-09-09,1,,,,,キョウダイ,0
1463,6040003025778,新規,0,2024-09-09,2024-09-09,Ｔｅｓｔ　Ｐｅｒｓｐｅｃｔｉｖｅ合同会社,,合同会社,千葉県,柏市,大室１３１１―９８,,12,217,2770813,,,,,,,2024-09-09,1,,,,,テストパースペクティブ,0
1474,6070001042137,新規,0,2024-09-09,2024-09-09,双日松義農人株式会社,,株式会社,群馬県,高崎市,栄町３番１１号高崎バナーズビル３階,,10,202,3700841,,,,,,,2024-09-09,1,,,,,ソウジツマツギノウジン,0
1475,6070001042145,新規,0,2024-09-09,2024-09-09,チルホーム株式会社,,株式会社,群馬県,前橋市,六供町３丁目７番地１,,10,201,3710804,,,,,,,2024-09-09,1,,,,,チルホーム,0
1476,6070001042153,新規,0,2024-09-09,2024-09-09,株式会社Ｂ７,,株式会社,群馬県,高崎市,小八木町１２０２番地１,,10,202,3700071,,,,,,,2024-09-09,1,,,,,ビーセブン,0
1477,6070001042161,新規,0,2024-09-09,2024-09-09,株式会社Ａ６,,株式会社,群馬県,高崎市,小八木町１２０２番地１,,10,202,3700071,,,,,,,2024-09-09,1,,,,,エーシックス,0
1479,6080401027430,新規,0,2024-09-09,2024-09-09,新サゴーエンタプライズ株式会社,,株式会社,静岡県,浜松市中央区,舘山寺町３３０２番地,,22,138,4311209,,,,,,,2024-09-09,1,,,,,シンサゴーエンタプライズ,0
1482,6090001018894,新規,0,2024-09-09,2024-09-09,株式会社ＥＮＡＳ,,株式会社,山梨県,甲府市,国母４丁目１９番７８号２０２,,19,201,4000043,,,,,,,2024-09-09,1,,,,,エナス,0
1485,6100001037827,新規,0,2024-09-09,2024-09-09,株式会社慧コーポレーション,,株式会社,長野県,木曽郡木曽町,新開１２５番地５９,,20,432,3970002,,,,,,,2024-09-09,1,,,,,ケイコーポレーション,0
1487,6100003007737,新規,0,2024-09-09,2024-09-09,合同会社御縁,,合同会社,長野県,佐久市,東立科１９０５番地佐久リゾートマンション,,20,217,3850063,,,,,,,2024-09-09,1,,,,,ゴエン,0
1496,6120001268362,新規,0,2024-09-09,2024-09-09,株式会社Ｂｉｒｅｉ,,株式会社,大阪府,門真市,石原町４２番９号,,27,223,5710067,,,,,,,2024-09-09,1,,,,,ビレイ,0
1500,6120003027493,新規,0,2024-09-09,2024-09-09,合同会社ミックスＬｏｖｅナッツ,,合同会社,大阪府,大阪市住吉区,清水丘３丁目１１番２３号,,27,120,5580033,,,,,,,2024-09-09,1,,,,,ミックスラブナッツ,0
1509,6130003009846,新規,0,2024-09-09,2024-09-09,合同会社ＦＭＯ,,合同会社,京都府,綾部市,私市町中村段９６番地,,26,203,6230226,,,,,,,2024-09-09,1,,,,,エフエムオー,0
1521,6150001027550,新規,0,2024-09-09,2024-09-09,株式会社ヤマウチ,,株式会社,奈良県,大和高田市,曙町１６番２８号,,29,202,6350012,,,,,,,2024-09-09,1,,,,,ヤマウチ,0
1522,6170001018300,新規,0,2024-09-09,2024-09-09,ＹＡＭＡＤＡＩ株式会社,,株式会社,和歌山県,和歌山市,紀三井寺８７９番地,,30,201,6410012,,,,,,,2024-09-09,1,,,,,ヤマダイ,0
1529,6180001163194,新規,0,2024-09-09,2024-09-09,株式会社ＲＶ　ＪＡＰＡＮ,,株式会社,愛知県,名古屋市北区,大杉３丁目２０－１４,,23,103,4620837,,,,,,,2024-09-09,1,,,,,アールブイジャパン,0
1530,6180001163211,新規,0,2024-09-09,2024-09-09,株式会社ＥＮＩＳＨＩ,,株式会社,愛知県,名古屋市名東区,本郷２丁目６３ＴｈｅＷｉｎｇｓ３０３,,23,115,4650024,,,,,,,2024-09-09,1,,,,,エニシ,0
1536,6180303006233,新規,0,2024-09-09,2024-09-09,合同会社ＲＡＫＡＲＩ,,合同会社,愛知県,岡崎市,桑谷町字猿口８９番地２,,23,202,4443515,,,,,,,2024-09-09,1,,,,,ラカリ,0
1537,6190001031623,新規,0,2024-09-09,2024-09-09,株式会社彰真運輸,,株式会社,三重県,鈴鹿市,国府町７６５７番地の２,,24,207,5130836,,,,,,,2024-09-09,1,,,,,ショウシンウンユ,0
1542,6200003006497,新規,0,2024-09-09,2024-09-09,合同会社Ｏｎｅ＆Ｏｎｅ,,合同会社,岐阜県,恵那市,岩村町１４２５番地８,,21,210,5097403,,,,,,,2024-09-09,1,,,,,ワンアンドワン,0
1548,6210003001836,新規,0,2024-09-09,2024-09-09,合同会社ＧＯＫＩＧＥＮ,,合同会社,福井県,福井市,米松１丁目１５－４１,,18,201,9100851,,,,,,,2024-09-09,1,,,,,ゴキゲン,0
1557,6260001039436,新規,0,2024-09-09,2024-09-09,株式会社奥西電気,,株式会社,岡山県,赤磐市,桜が丘東４丁目４番地６１８,,33,213,7090721,,,,,,,2024-09-09,1,,,,,オクニシデンキ,0
1574,6290005019497,新規,0,2024-09-09,2024-09-09,一般社団法人Ｃ‐ＢＥＳ,,その他の設立登記法人,福岡県,福岡市中央区,高砂１丁目２４番２０号,,40,133,8100011,,,,,,,2024-09-09,1,,,,,シーベス,0
1578,6320003004464,新規,0,2024-09-09,2024-09-09,合同会社ＡＴＲ,,合同会社,大分県,大分市,王ノ瀬２丁目６番１２号,,44,201,8700321,,,,,,,2024-09-09,1,,,,,アトレ,0
1581,6330001032441,新規,0,2024-09-09,2024-09-09,株式会社Ｈ．Ｙ　Ｈｏｍｅ,,株式会社,熊本県,菊池郡菊陽町,大字津久礼４４９番地,,43,404,8691101,,,,,,,2024-09-09,1,,,,,エイチワイホーム,0
1604,6400001016783,新規,0,2024-09-09,2024-09-09,陸高エコビレッジ株式会社,,株式会社,岩手県,陸前高田市,高田町字栃ヶ沢４５番地６,,03,210,0292205,,,,,,,2024-09-09,1,,,,,リクダカエコビレッジ,0
1605,6400003003318,新規,0,2024-09-09,2024-09-09,合同会社Ｔｒｉｐｌｅ　Ｒ,,合同会社,岩手県,奥州市,江刺梁川字館下９９－１,,03,215,0231341,,,,,,,2024-09-09,1,,,,,トリプルアール,0
1606,6410001013929,新規,0,2024-09-09,2024-09-09,株式会社美シ屋,,株式会社,秋田県,秋田市,濁川字菅場６－７２,,05,201,0100821,,,,,,,2024-09-09,1,,,,,ウツクシヤ,0
1613,6450001014403,新規,0,2024-09-09,2024-09-09,株式会社ＮＥＸＴ　ＲＥＮＯＶＡＴＩＯＮ,,株式会社,北海道,旭川市,豊岡二条５丁目６番２２号,,01,204,0788232,,,,,,,2024-09-09,1,,,,,ネクストリノベーション,0
1617,6470001020374,新規,0,2024-09-09,2024-09-09,オーロイブルーイング株式会社,,株式会社,香川県,高松市,内町３番４号ＹＡＭＡ－ＢＬＤＩＩ１階,00136230,37,201,7600034,,,,,,,2024-09-09,1,,,,,オーロイブルーイング,0
1618,6480001012585,新規,0,2024-09-09,2024-09-09,株式会社ナカヤマメカニカル,,株式会社,徳島県,徳島市,大原町小神子山５番地の８,,36,201,7730070,,,,,,,2024-09-09,1,,,,,ナカヤマメカニカル,0
1622,6500003003324,新規,0,2024-09-09,2024-09-09,合同会社ＡｉＢｏ,,合同会社,愛媛県,松山市,石手１丁目４番４号まほろば１０２号,,38,201,7900852,,,,,,,2024-09-09,1,,,,,アイボー,0
1636,7010001248036,新規,0,2024-09-09,2024-09-09,株式会社ポップコーンラボ,,株式会社,東京都,文京区,目白台２丁目９番４－１０１号,,13,105,1120015,,,,,,,2024-09-09,1,,,,,ポップコーンラボ,0
1637,7010001248085,新規,0,2024-09-09,2024-09-09,株式会社リリーフキャリア,,株式会社,東京都,千代田区,九段北１丁目４－７喜助九段北ビル７０３号室,,13,101,1020073,,,,,,,2024-09-09,1,,,,,リリーフキャリア,0
1645,7010005038771,新規,0,2024-09-09,2024-09-09,一般社団法人日本ネパール・デベロップメント・フォーラム,,その他の設立登記法人,東京都,千代田区,神田小川町１丁目８番地１４神田新宮嶋ビル３階,,13,101,1010052,,,,,,,2024-09-09,1,,,,,ニホンネパールデベロップメントフォーラム,0
1651,7010401184979,新規,0,2024-09-09,2024-09-09,株式会社アドア,,株式会社,東京都,港区,虎ノ門３丁目１９番１０－１３０６号,,13,103,1050001,,,,,,,2024-09-09,1,,,,,アドア,0
1652,7010401184987,新規,0,2024-09-09,2024-09-09,株式会社ＨＫ　ＭＥＤＩＣＡＬ,,株式会社,東京都,港区,芝５丁目２７－３ＭＢＣＢ－１６４号,,13,103,1080014,,,,,,,2024-09-09,1,,,,,ヘイチケイメディカル,0
1653,7010401185003,新規,0,2024-09-09,2024-09-09,メディカルデバイスイノベーションズ株式会社,,株式会社,東京都,港区,港南２丁目１７番１号,,13,103,1080075,,,,,,,2024-09-09,1,,,,,メディカルデバイスイノベーションズ,0
1662,7010603011015,新規,0,2024-09-09,2024-09-09,合同会社ＦＯＤＩ,,合同会社,東京都,江東区,木場２丁目７－２６－１Ｆ,,13,108,1350042,,,,,,,2024-09-09,1,,,,,フォディ,0
1663,7010603011064,新規,0,2024-09-09,2024-09-09,合同会社インターアクト,,合同会社,東京都,江東区,森下４丁目１６番５号パークサイドハイツ３０２,,13,108,1350004,,,,,,,2024-09-09,1,,,,,インターアクト,0
1668,7011001164388,新規,0,2024-09-09,2024-09-09,リード株式会社,,株式会社,東京都,目黒区,目黒本町２丁目１４番１９－６０１,,13,110,1520002,,,,,,,2024-09-09,1,,,,,リード,0
1669,7011001164520,新規,0,2024-09-09,2024-09-09,株式会社金子産業,,株式会社,東京都,渋谷区,神宮前６丁目２３番４号桑野ビル２階,,13,113,1500001,,,,,,,2024-09-09,1,,,,,カネコサンギョウ,0
1670,7011001164537,新規,0,2024-09-09,2024-09-09,東京ＩＴコンサルタントファーム株式会社,,株式会社,東京都,渋谷区,神宮前６丁目２３番４号桑野ビル２階,,13,113,1500001,,,,,,,2024-09-09,1,,,,,トウキョウアイティコンサルタントファーム,0
1671,7011001164578,新規,0,2024-09-09,2024-09-09,株式会社アーバントップステージ,,株式会社,東京都,渋谷区,道玄坂２丁目１５番１号,,13,113,1500043,,,,,,,2024-09-09,1,,,,,アーバントップステージ,0
1680,7011101108567,新規,0,2024-09-09,2024-09-09,株式会社ステップ,,株式会社,東京都,新宿区,新宿１丁目１３－１１シブヤビル４階,,13,104,1600022,,,,,,,2024-09-09,1,,,,,ステップ,0
1681,7011101108674,新規,0,2024-09-09,2024-09-09,株式会社セルビッジ,,株式会社,東京都,新宿区,西新宿３丁目３番１３号西新宿水間ビル６階,,13,104,1600023,,,,,,,2024-09-09,1,,,,,セルビッジ,0
1682,7011103014912,新規,0,2024-09-09,2024-09-09,ヨネザワマネジメント合同会社,,合同会社,東京都,新宿区,市谷田町３丁目８番市ヶ谷科学技術イノベーションセンタービル２階,,13,104,1620843,,,,,,,2024-09-09,1,,,,,ヨネザワマネジメント,0
1685,7011403004497,新規,0,2024-09-09,2024-09-09,合同会社バンガルディスタ,,合同会社,東京都,板橋区,南常盤台１丁目１１番６号レフア南常盤台１０１号室,,13,119,1740072,,,,,,,2024-09-09,1,,,,,バンガルディスタ,0
1688,7011701027596,新規,0,2024-09-09,2024-09-09,株式会社ＡＣＴ,,株式会社,東京都,江戸川区,大杉５丁目２３番９－３０４号,,13,123,1320022,,,,,,,2024-09-09,1,,,,,アクト,0
1695,7012401042274,新規,0,2024-09-09,2024-09-09,ＥＴＪ株式会社,,株式会社,東京都,小金井市,本町２丁目２０番１５号２０２,,13,210,1840004,,,,,,,2024-09-09,1,,,,,アイテックジャパン,0
1730,7021003014978,新規,0,2024-09-09,2024-09-09,合同会社カッチャルバッチャル,,合同会社,神奈川県,藤沢市,石川６丁目２５－１１ダイアパレス３－４０２,,14,205,2520815,,,,,,,2024-09-09,1,,,,,カッチャルバッチャル,0
1732,7030001162318,新規,0,2024-09-09,2024-09-09,株式会社エイックス,,株式会社,埼玉県,さいたま市南区,大字大谷口２５６９番地４０,,11,108,3360042,,,,,,,2024-09-09,1,,,,,エイックス,0
1733,7030001162334,新規,0,2024-09-09,2024-09-09,株式会社Ｃｌａｙｎｏｖａ,,株式会社,埼玉県,さいたま市岩槻区,大字小溝１１４７番地,,11,110,3390003,,,,,,,2024-09-09,1,,,,,クレイノバ,0
1734,7030001162383,新規,0,2024-09-09,2024-09-09,株式会社０１ＩＢＳ,,株式会社,埼玉県,春日部市,新宿新田３２７番地１０４,,11,214,3440113,,,,,,,2024-09-09,1,,,,,ゼロワンアイビエス,0
1743,7030003025068,新規,0,2024-09-09,2024-09-09,合同会社ポラリス,,合同会社,埼玉県,春日部市,粕壁６８１７番地,,11,214,3440061,,,,,,,2024-09-09,1,,,,,ポラリス,0
1746,7040001135297,新規,0,2024-09-09,2024-09-09,ｅ‐Ｌｉｎｘ株式会社,,株式会社,千葉県,八千代市,勝田台１丁目１９番地４,,12,221,2760023,,,,,,,2024-09-09,1,,,,,イーリンクス,0
1749,7040003025760,新規,0,2024-09-09,2024-09-09,合同会社ＢＫサポート,,合同会社,千葉県,千葉市若葉区,高品町５７８番地４,,12,104,2640024,,,,,,,2024-09-09,1,,,,,ビーケーサポート,0
1760,7070001042136,新規,0,2024-09-09,2024-09-09,株式会社ＣＡＲ　ＳＥＬＥＣＴ,,株式会社,群馬県,館林市,美園町２４番３１号,,10,207,3740039,,,,,,,2024-09-09,1,,,,,カーセレクト,0
1761,7070001042152,新規,0,2024-09-09,2024-09-09,株式会社Ｂ５,,株式会社,群馬県,高崎市,小八木町１２０２番地１,,10,202,3700071,,,,,,,2024-09-09,1,,,,,ビーファイブ,0
1762,7070001042160,新規,0,2024-09-09,2024-09-09,株式会社Ａ５,,株式会社,群馬県,高崎市,小八木町１２０２番地１,,10,202,3700071,,,,,,,2024-09-09,1,,,,,エーファイブ,0
1771,7080103003142,新規,0,2024-09-09,2024-09-09,ＪＵＥ合同会社,,合同会社,静岡県,伊東市,池６７５番地の３３,,22,208,4130234,,,,,,,2024-09-09,1,,,,,ジェイユーイー,0
1778,7100001037818,新規,0,2024-09-09,2024-09-09,株式会社ＯＲＩＧＩＮ,,株式会社,長野県,東御市,滋野乙１８０１番地５,,20,219,3890512,,,,,,,2024-09-09,1,,,,,オリジン,0
1780,7110001038682,新規,0,2024-09-09,2024-09-09,株式会社ピーエイインカネイト新潟,,株式会社,新潟県,新潟市中央区,紫竹山１丁目９番２９号,,15,103,9500914,,,,,,,2024-09-09,1,,,,,ピーエイインカネイトニイガタ,0
1793,7120001268436,新規,0,2024-09-09,2024-09-09,株式会社にじいろ,,株式会社,大阪府,大阪市旭区,清水２丁目１４番３号,,27,117,5350021,,,,,,,2024-09-09,1,,,,,ニジイロ,0
1794,7120001268444,新規,0,2024-09-09,2024-09-09,株式会社ＤＥＳＭＯＳ,,株式会社,大阪府,大阪市中央区,東心斎橋２丁目６番５号,,27,128,5420083,,,,,,,2024-09-09,1,,,,,デスモス,0
1819,7170001018299,新規,0,2024-09-09,2024-09-09,株式会社Ａｇｒｉ　Ｈｏｍｅ,,株式会社,和歌山県,御坊市,湯川町富安１０８４番地,,30,205,6440014,,,,,,,2024-09-09,1,,,,,アグリホーム,0
1828,7180001163185,新規,0,2024-09-09,2024-09-09,ＲＥＴＲＯＩＳ株式会社,,株式会社,愛知県,名古屋市中区,栄２丁目１６番５号,,23,106,4600008,,,,,,,2024-09-09,1,,,,,リトロワ,0
1829,7180001163193,新規,0,2024-09-09,2024-09-09,株式会社ＡＳＡＤ　ＡＦＴＡＢ　ＥＮＴＥＲＰＲＩＳＥＳ,,株式会社,愛知県,岩倉市,中央町２丁目３８第三ことぶき荘３０３号室,,23,228,4820023,,,,,,,2024-09-09,1,,,,,アサドアフタブエンタープライセス,0
1830,7180001163210,新規,0,2024-09-09,2024-09-09,株式会社ビグリッジ,,株式会社,愛知県,名古屋市中区,新栄３丁目２３番４号コート新栄３０５号,,23,106,4600007,,,,,,,2024-09-09,1,,,,,ビグリッジ,0
1833,7180005020762,新規,0,2024-09-09,2024-09-09,特定非営利活動法人かぜのこ,,その他の設立登記法人,愛知県,名古屋市天白区,天白町大字野並字相生２８番地の３４１,,23,116,4680037,,,,,,,2024-09-09,1,,,,,カゼノコ,0
1838,7200003006496,新規,0,2024-09-09,2024-09-09,Ａｃｃｏｓｓａ合同会社,,合同会社,岐阜県,美濃市,２２８１番地,,21,207,5013701,,,,,,,2024-09-09,1,,,,,アコーサ,0
1847,7260001039443,新規,0,2024-09-09,2024-09-09,株式会社ＢＬＵＥ,,株式会社,岡山県,総社市,上林１８３番地１,,33,208,7191123,,,,,,,2024-09-09,1,,,,,ブルー,0
1855,7290001107189,新規,0,2024-09-09,2024-09-09,ジャパンカムキー株式会社,,株式会社,福岡県,福岡市南区,高宮２丁目３番３－５０３号サンパークマンション高宮,,40,134,8150083,,,,,,,2024-09-09,1,,,,,ジャパンカムキー,0
1856,7290001107197,新規,0,2024-09-09,2024-09-09,株式会社ＣＩＪ,,株式会社,福岡県,福岡市中央区,笹丘２丁目５番４号,,40,133,8100034,,,,,,,2024-09-09,1,,,,,シーアイジェイ,0
1857,7290001107230,新規,0,2024-09-09,2024-09-09,ＳＵＮ　ＷＯＲＬＤ株式会社,,株式会社,福岡県,大野城市,筒井１丁目８番５号,,40,219,8160931,,,,,,,2024-09-09,1,,,,,サンワールド,0
1864,7320003004463,新規,0,2024-09-09,2024-09-09,合同会社タケダ,,合同会社,大分県,大分市,花津留２丁目２５番９号,,44,201,8700933,,,,,,,2024-09-09,1,,,,,タケダ,0
1870,7350001019171,新規,0,2024-09-09,2024-09-09,株式会社インターテクノＨＤ,,株式会社,宮崎県,宮崎市,恒久５丁目１５番地１３,,45,201,8800913,,,,,,,2024-09-09,1,,,,,インターテクノホールディングス,0
1871,7350003004725,新規,0,2024-09-09,2024-09-09,合同会社菓時記,,合同会社,宮崎県,西臼杵郡高千穂町,大字三田井１０２６番地１２,,45,441,8821101,,,,,,,2024-09-09,1,,,,,カトキ,0
1879,7370003006744,新規,0,2024-09-09,2024-09-09,合同会社ａｉｍｐｐｐ,,合同会社,宮城県,仙台市青葉区,本町２丁目９番３号第３産伸ビル６Ｆ,,04,101,9800014,,,,,,,2024-09-09,1,,,,,アインプ,0
1882,7410003003976,新規,0,2024-09-09,2024-09-09,ＴＧインベストメントマネジメント合同会社,,合同会社,秋田県,秋田市,保戸野原の町７番６８号アトレデルタ３階,,05,201,0100904,,,,,,,2024-09-09,1,,,,,ティージーインベストメントマネジメント,0
1890,7450003002537,新規,0,2024-09-09,2024-09-09,合同会社サクラスピリッツ,,合同会社,北海道,紋別市,本町７丁目１番１号,,01,219,0940004,,,,,,,2024-09-09,1,,,,,サクラスピリッツ,0
1892,7490003001931,新規,0,2024-09-09,2024-09-09,ＳＨＡＤＯＷ８１合同会社,,合同会社,高知県,四万十市,具同田黒３丁目９番２３－３０１号,,39,210,7870051,,,,,,,2024-09-09,1,,,,,シャドーエイティワン,0
1893,7500003003323,新規,0,2024-09-09,2024-09-09,ＨＥＲＺＳＣＨＯＥＮ合同会社,,合同会社,愛媛県,松山市,喜与町１丁目１２－１２,,38,201,7900802,,,,,,,2024-09-09,1,,,,,ヘルツシェーン,0
1895,7700150044769,新規,0,2024-09-09,2015-10-09,静岡県レンタカー協会,,その他,静岡県,静岡市駿河区,国吉田２丁目４－２６静岡県自動車会館３階,,22,102,4228004,,,,,,,2015-10-09,1,,,,,シズオカケンレンタカーキヨウカイ,0
1896,7700150126096,新規,0,2024-09-09,2024-06-20,労働協同組合キッチンスタジオ　すまいる,,その他,大分県,大分市,大字寒田４１５番地の１グリーンコープ生活協同組合おおいた内,,44,201,8701123,,,,,,,2024-06-20,1,,,,,ロウドウキヨウドウクミアイキツチンスタジオスマイル,0
1897,7700150126889,新規,0,2024-09-09,2024-08-26,盛岡市保育所協議会,,その他,岩手県,盛岡市,下太田榊１４－２１,,03,201,0200051,,,,,,,2024-08-26,1,,,,,モリオカシホイクシヨキヨウギカイ,0
1899,8010001248167,新規,0,2024-09-09,2024-09-09,株式会社レッドプロダクション,,株式会社,東京都,千代田区,神田和泉町１番地６－１６ヤマトビル４０５,,13,101,1010024,,,,,,,2024-09-09,1,,,,,レッドプロダクション,0
1904,8010003044779,新規,0,2024-09-09,2024-09-09,合同会社ｃｏｕｌｅｕｒ,,合同会社,東京都,中央区,銀座１丁目１２－４Ｎ＆ＥＢＬＤ．６Ｆ,,13,102,1040061,,,,,,,2024-09-09,1,,,,,クルール,0
1905,8010003044829,新規,0,2024-09-09,2024-09-09,合同会社ＴＳＵＮＡＧＵ,,合同会社,東京都,中央区,銀座１丁目２２－１１銀座大竹ビジデンス２階,,13,102,1040061,,,,,,,2024-09-09,1,,,,,ツナグ,0
1906,8010003044837,新規,0,2024-09-09,2024-09-09,合同会社礼法研究所,,合同会社,東京都,千代田区,九段南１丁目５－６りそな九段ビル５Ｆ,,13,101,1020074,,,,,,,2024-09-09,1,,,,,レイホウケンキュウショ,0
1917,8010401184945,新規,0,2024-09-09,2024-09-09,株式会社Ｃｕｒｉｏ,,株式会社,東京都,港区,三田２丁目７－２２ＭＴアリーナ１０３,,13,103,1080073,,,,,,,2024-09-09,1,,,,,キュリオ,0
1918,8010401184978,新規,0,2024-09-09,2024-09-09,株式会社ＢＬＵＥ　ＴＲＥＥ,,株式会社,東京都,港区,海岸１丁目１番１－１１０７号,,13,103,1050022,,,,,,,2024-09-09,1,,,,,ブルーツリー,0
1919,8010401184994,新規,0,2024-09-09,2024-09-09,ＤＧテクノ株式会社,,株式会社,東京都,港区,新橋２丁目１６番地１号ニュー新橋ビル１０２６,,13,103,1050004,,,,,,,2024-09-09,1,,,,,ディージーテクノ,0
1923,8010403033357,新規,0,2024-09-09,2024-09-09,合同会社Ｌｕｚ,,合同会社,東京都,港区,高輪２丁目１６番４９号Ｂ１,,13,103,1080074,,,,,,,2024-09-09,1,,,,,ルース,0
1925,8010501052861,新規,0,2024-09-09,2024-09-09,株式会社ＬＡＬＡＨＯ　ｃｏｍｐａｎｙ,,株式会社,東京都,台東区,浅草３丁目２１番９号トーラス浅草２１３号室,,13,106,1110032,,,,,,,2024-09-09,1,,,,,ララホーカンパニー,0
1929,8010701046498,新規,0,2024-09-09,2024-09-09,株式会社Ａｓｔｒａ,,株式会社,東京都,品川区,上大崎２丁目２６番５号メグロードビルＢ１０４,,13,109,1410021,,,,,,,2024-09-09,1,,,,,アストラ,0
1934,8011001164354,新規,0,2024-09-09,2024-09-09,ａｄｏｐｔ株式会社,,株式会社,東京都,渋谷区,渋谷２丁目１９－１５宮益坂ビルディング６０９,,13,113,1500002,,,,,,,2024-09-09,1,,,,,アドプト,0
1935,8011001164387,新規,0,2024-09-09,2024-09-09,株式会社ＳＫソリューションズ,,株式会社,東京都,渋谷区,神宮前６丁目２３番４号桑野ビル２階,,13,113,1500001,,,,,,,2024-09-09,1,,,,,エスケーソリューションズ,0
1936,8011001164437,新規,0,2024-09-09,2024-09-09,株式会社ｏｂｖｉｏｕｓ,,株式会社,東京都,渋谷区,道玄坂１丁目１０番８号渋谷道玄坂東急ビル２Ｆ‐Ｃ,,13,113,1500043,,,,,,,2024-09-09,1,,,,,オブビアス,0
1937,8011001164528,新規,0,2024-09-09,2024-09-09,株式会社エルフォソ,,株式会社,東京都,渋谷区,道玄坂１丁目１０番８号,,13,113,1500043,,,,,,,2024-09-09,1,,,,,エルフォソ,0
1945,8011105011155,新規,0,2024-09-09,2024-09-09,一般社団法人ＴＭＰＲ,,その他の設立登記法人,東京都,新宿区,四谷２丁目９番地１５東京ユナイテッド綜合事務所内,,13,104,1600004,,,,,,,2024-09-09,1,,,,,ティーエムピーアール,0
1949,8011305003002,新規,0,2024-09-09,2024-09-09,医療法人社団颯陽会,,その他の設立登記法人,東京都,杉並区,高円寺北２丁目３番３号ＷＨＡＲＦ高円寺７階,,13,115,1660002,,,,,,,2024-09-09,1,,,,,ソウヨウカイ,0
1950,8011401026410,新規,0,2024-09-09,2024-09-09,海ノ印株式会社,,株式会社,東京都,板橋区,大和町４４番８－３０１号,,13,119,1730012,,,,,,,2024-09-09,1,,,,,ウミノシルシ,0
1951,8011405002309,新規,0,2024-09-09,2024-09-09,一般社団法人凸凹もへじ,,その他の設立登記法人,東京都,板橋区,赤塚新町２丁目７番１６号小沢荘２０１,,13,119,1750093,,,,,,,2024-09-09,1,,,,,デコボコモヘジ,0
1953,8011701027595,新規,0,2024-09-09,2024-09-09,株式会社Ｓｍｉｌｅ　Ｅｄｕｃａｔｉｏｎ,,株式会社,東京都,江戸川区,西葛西５丁目８番１６号,,13,123,1340088,,,,,,,2024-09-09,1,,,,,スマイルエデュケーション,0
1990,8030001162300,新規,0,2024-09-09,2024-09-09,株式会社ＭＵＳＥ,,株式会社,埼玉県,秩父市,大野原２２８０番地５,,11,207,3680005,,,,,,,2024-09-09,1,,,,,ミューズ,0
1994,8030003025059,新規,0,2024-09-09,2024-09-09,合同会社ハコソト,,合同会社,埼玉県,久喜市,鷲宮５丁目２５番１号,,11,232,3400217,,,,,,,2024-09-09,1,,,,,ハコソト,0
1997,8040001135305,新規,0,2024-09-09,2024-09-09,株式会社ＨＩＴ,,株式会社,千葉県,船橋市,三咲３丁目７番４５号,,12,204,2740812,,,,,,,2024-09-09,1,,,,,ヒット,0
2005,8050003008664,新規,0,2024-09-09,2024-09-09,合同会社ＬＩＦＩＸ,,合同会社,茨城県,鹿嶋市,大字長栖２２８８番地２７,,08,222,3140022,,,,,,,2024-09-09,1,,,,,リフィックス,0
2008,8070001042151,新規,0,2024-09-09,2024-09-09,株式会社Ｂ４,,株式会社,群馬県,高崎市,小八木町１２０２番地１,,10,202,3700071,,,,,,,2024-09-09,1,,,,,ビーフォー,0
2016,8080103003141,新規,0,2024-09-09,2024-09-09,合同会社コダマ不動産,,合同会社,静岡県,駿東郡長泉町,本宿６５７－２レオパレスフォーチュンＭＳ２０８号室,,22,342,4110945,,,,,,,2024-09-09,1,,,,,,0
2018,8080403005093,新規,0,2024-09-09,2024-09-09,ヘルシード合同会社,,合同会社,静岡県,磐田市,福田中島３５８番地,,22,211,4371204,,,,,,,2024-09-09,1,,,,,ヘルシード,0
2032,8120001268410,新規,0,2024-09-09,2024-09-09,株式会社ＯＮＥ,,株式会社,大阪府,大阪市西淀川区,出来島３丁目２番７６－１００３号,,27,113,5550031,,,,,,,2024-09-09,1,,,,,ワン,0
2033,8120001268435,新規,0,2024-09-09,2024-09-09,株式会社ビーウィング,,株式会社,大阪府,大阪市北区,東天満１丁目４番１６号,,27,127,5300044,,,,,,,2024-09-09,1,,,,,ビーウィング,0
2038,8120003027418,新規,0,2024-09-09,2024-09-09,合同会社ＳＪＦＸ,,合同会社,大阪府,大阪市福島区,玉川３丁目３－３９,,27,103,5530004,,,,,,,2024-09-09,1,,,,,エスジェイエフエックス,0
2039,8120003027467,新規,0,2024-09-09,2024-09-09,合同会社スカイイデア,,合同会社,大阪府,交野市,星田８丁目３９‐５,,27,230,5760016,,,,,,,2024-09-09,1,,,,,スカイイデア,0
2044,8120901049744,新規,0,2024-09-09,2024-09-09,株式会社スローグ,,株式会社,大阪府,池田市,木部町１４４番地の４,,27,204,5630014,,,,,,,2024-09-09,1,,,,,スローグ,0
2046,8122001038421,新規,0,2024-09-09,2024-09-09,株式会社ＭＫ．Ｉｎｃ,,株式会社,大阪府,東大阪市,高井田西６丁目１番１１号,,27,227,5770067,,,,,,,2024-09-09,1,,,,,エムケイドットインク,0
2051,8130001077876,新規,0,2024-09-09,2024-09-09,ＸＧＯ　Ｐｏｗｅｒ　Ｔｅｃｈ株式会社,,株式会社,京都府,京都市下京区,四条通大宮東入立中町４８７番地３０４号室,,26,106,6008490,,,,,,,2024-09-09,1,,,,,エックスジーオーパワーテック,0
2061,8140003021039,新規,0,2024-09-09,2024-09-09,合同会社めがねっちプロダクション,,合同会社,兵庫県,西宮市,名塩南台３丁目２０番地６９,,28,204,6691132,,,,,,,2024-09-09,1,,,,,メガネッチプロダクション,0
2067,8180003027313,新規,0,2024-09-09,2024-09-09,アドエクス合同会社,,合同会社,愛知県,名古屋市熱田区,森後町１０番１号パール熱田２０６号,,23,109,4560024,,,,,,,2024-09-09,1,,,,,アドエクス,0
2076,8200001042897,新規,0,2024-09-09,2024-09-09,株式会社ツードットブイ,,株式会社,岐阜県,美濃加茂市,加茂野町加茂野６９３番地３,,21,211,5050054,,,,,,,2024-09-09,1,,,,,ツードットブイ,0
2087,8260001039434,新規,0,2024-09-09,2024-09-09,株式会社オリオンインモーション,,株式会社,岡山県,倉敷市,阿知２丁目４番１号,,33,202,7100055,,,,,,,2024-09-09,1,,,,,オリオンインモーション,0
2088,8260001039442,新規,0,2024-09-09,2024-09-09,株式会社ＴＡＫＡＧＩ,,株式会社,岡山県,井原市,井原町１８７番地２,,33,207,7150019,,,,,,,2024-09-09,1,,,,,タカギ,0
2093,8290001107213,新規,0,2024-09-09,2024-09-09,ＪＳＲ株式会社,,株式会社,福岡県,福岡市早良区,室見１丁目１－１９ＳＡＺＡ２１飛石Ａ棟４階８号室,,40,137,8140015,,,,,,,2024-09-09,1,,,,,ジェイエスアール,0
2099,8330001032448,新規,0,2024-09-09,2024-09-09,ＲａｎｄＲ　Ｔｒａｄｉｎｇ　Ｃｏｍｐａｎｙ株式会社,,株式会社,熊本県,熊本市中央区,黒髪３丁目１５番３６号,,43,101,8600862,,,,,,,2024-09-09,1,,,,,アールアンドアールトレーディングカンパニ,0
2100,8330003010550,新規,0,2024-09-09,2024-09-09,合同会社かわばた商会,,合同会社,熊本県,上天草市,大矢野町上２３４１番地１,,43,212,8693602,,,,,,,2024-09-09,1,,,,,カワバタショウカイ,0
2107,8360003014276,新規,0,2024-09-09,2024-09-09,合同会社ＡＲＥＡ沖縄,,合同会社,沖縄県,那覇市,首里汀良町２丁目４７番地２階,,47,201,9030806,,,,,,,2024-09-09,1,,,,,エリアオキナワ,0
2114,8370003006743,新規,0,2024-09-09,2024-09-09,スカンジウム合同会社,,合同会社,宮城県,仙台市青葉区,宮町３丁目９番２７号レゾンデートル,,04,101,9800004,,,,,,,2024-09-09,1,,,,,スカンジウム,0
2119,8410001013927,新規,0,2024-09-09,2024-09-09,株式会社岡本自動車,,株式会社,秋田県,湯沢市,愛宕町２丁目６番１５号,,05,207,0120855,,,,,,,2024-09-09,1,,,,,オカモトジドウシャ,0
2132,8700150126780,新規,0,2024-09-09,2024-08-16,コスモ蒲田管理組合,,その他,東京都,大田区,蒲田３丁目１８－６,,13,111,1440052,,,,,,,2024-08-16,1,,,,,コスモカマタカンリクミアイ,0
2139,9010001248001,新規,0,2024-09-09,2024-09-09,株式会社Ｙ＆Ａ,,株式会社,東京都,大島町,差木地字クダッチ,,13,361,1000211,,,,,,,2024-09-09,1,,,,,ワイアンドエイ,0
2140,9010001248067,新規,0,2024-09-09,2024-09-09,株式会社ジャパンナショナルスタジアム・エンターテイメント,,株式会社,東京都,千代田区,永田町２丁目１１番１号,,13,101,1000014,,,,,,,2024-09-09,1,,,,,ジャパンナショナルスタジアムエンターテイメント,0
2141,9010001248083,新規,0,2024-09-09,2024-09-09,Ｍｏｔｈｅｒ　Ｌｏｖｅ株式会社,,株式会社,東京都,千代田区,神田佐久間河岸４６番地３ＵＦビル５、１Ｆ,,13,101,1010026,,,,,,,2024-09-09,1,,,,,マザーラブ,0
2142,9010001248182,新規,0,2024-09-09,2024-09-09,株式会社ＥＶＥＮＳ,,株式会社,東京都,中央区,銀座１丁目１２番４号Ｎ＆ＥＢＬＤ．６Ｆ,,13,102,1040061,,,,,,,2024-09-09,1,,,,,イーブンズ,0
2145,9010003044803,新規,0,2024-09-09,2024-09-09,合同会社ＭＴグリーンエネルギー,,合同会社,東京都,千代田区,丸の内２丁目３番１号,,13,101,1000005,,,,,,,2024-09-09,1,,,,,エムティグリーンエネルギー,0
2146,9010003044828,新規,0,2024-09-09,2024-09-09,合同会社ＥＲＩ,,合同会社,東京都,中央区,晴海２丁目２番４２－５０７号,,13,102,1040053,,,,,,,2024-09-09,1,,,,,イーアールアイ,0
2158,9010401184928,新規,0,2024-09-09,2024-09-09,株式会社ＳＵＰＲＥＭＥ　ＳＨＩＥＬＤ,,株式会社,東京都,港区,赤坂８丁目１２番１２号赤坂アンドロン５Ｆ,,13,103,1070052,,,,,,,2024-09-09,1,,,,,シュプリームシールド,0
2159,9010401184960,新規,0,2024-09-09,2024-09-09,株式会社ストーンプラスクリーン,,株式会社,東京都,港区,赤坂２丁目１４－５Ｄａｉｗａ赤坂ビル７Ｆオープンオフィース赤坂ビジネスプレイス７０４Ｂ,,13,103,1070052,,,,,,,2024-09-09,1,,,,,ストーンプラスクリーン,0
2160,9010401184985,新規,0,2024-09-09,2024-09-09,株式会社グロース経営デザイン,,株式会社,東京都,港区,南青山３丁目８－４０青山センタービル２Ｆ,,13,103,1070062,,,,,,,2024-09-09,1,,,,,グロースケイエイデザイン,0
2164,9010501052877,新規,0,2024-09-09,2024-09-09,株式会社Ａ．Ｉ．Ｇ　Ｊａｐａｎ,,株式会社,東京都,台東区,上野５丁目２５番７号２Ｆ,,13,106,1100005,,,,,,,2024-09-09,1,,,,,エーアイジージャパン,0
2165,9010601065837,新規,0,2024-09-09,2024-09-09,リプタス株式会社,,株式会社,東京都,墨田区,京島１丁目３８番１－６０１号,,13,107,1310046,,,,,,,2024-09-09,1,,,,,リプタス,0
2166,9010601065878,新規,0,2024-09-09,2024-09-09,はちつばめ株式会社,,株式会社,東京都,江東区,大島２丁目８－１１,,13,108,1360072,,,,,,,2024-09-09,1,,,,,ハチツバメ,0
2167,9010701046497,新規,0,2024-09-09,2024-09-09,ＳＴＥテクノロジー株式会社,,株式会社,東京都,品川区,南大井３丁目３４－８－１１０７,,13,109,1400013,,,,,,,2024-09-09,1,,,,,,0
2168,9010703007316,新規,0,2024-09-09,2024-09-09,合同会社ＳＡＮＡ,,合同会社,東京都,品川区,西五反田１丁目２６番４号,,13,109,1410031,,,,,,,2024-09-09,1,,,,,サナ,0
2169,9010803005095,新規,0,2024-09-09,2024-09-09,合同会社Ｍ４,,合同会社,東京都,大田区,大森西１丁目９番１９－１１６号,,13,111,1430015,,,,,,,2024-09-09,1,,,,,エムフォー,0
2171,9010901055926,新規,0,2024-09-09,2024-09-09,株式会社光岡,,株式会社,東京都,世田谷区,代沢５丁目２番１４号フローレンス下北沢１０１,,13,112,1550032,,,,,,,2024-09-09,1,,,,,ミツオカ,0
2172,9010901055942,新規,0,2024-09-09,2024-09-09,アンクル株式会社,,株式会社,東京都,世田谷区,代田１丁目４１番１３号,,13,112,1550033,,,,,,,2024-09-09,1,,,,,アンクル,0
2173,9010901055950,新規,0,2024-09-09,2024-09-09,Ｂｏｌｉｎｇｏ株式会社,,株式会社,東京都,世田谷区,世田谷１丁目１５－１５グランホース弐番館４１３号室,,13,112,1540017,,,,,,,2024-09-09,1,,,,,ボリンゴ,0
2176,9010903009335,新規,0,2024-09-09,2024-09-09,合同会社サウジアラビア総合研究所,,合同会社,東京都,世田谷区,上用賀２丁目３番３－２０８号,,13,112,1580098,,,,,,,2024-09-09,1,,,,,サウジアラビアソウゴウケンキュウジョ,0
2177,9010903009343,新規,0,2024-09-09,2024-09-09,合同会社らくらく資産,,合同会社,東京都,世田谷区,千歳台５丁目１７番２１号ベルボナール千歳１０２,,13,112,1570071,,,,,,,2024-09-09,1,,,,,ラクラクシサン,0
2183,9011105011154,新規,0,2024-09-09,2024-09-09,一般社団法人ＴＵ３６,,その他の設立登記法人,東京都,新宿区,四谷２丁目９番地１５東京ユナイテッド綜合事務所内,,13,104,1600004,,,,,,,2024-09-09,1,,,,,ティーユーサンジュウロク,0
2189,9011405002357,新規,0,2024-09-09,2024-09-09,一般社団法人東京全球優品収集流通促進会,,その他の設立登記法人,東京都,板橋区,新河岸２丁目１番４０号コンフォリア高島平２－８０４,,13,119,1750081,,,,,,,2024-09-09,1,,,,,トウキョウゼンキュウユウヒンシュウシュウリュウツウソクシンカイ,0
2191,9011501031128,新規,0,2024-09-09,2024-09-09,研究サポート株式会社,,株式会社,東京都,荒川区,東日暮里５丁目５０番５号,,13,118,1160014,,,,,,,2024-09-09,1,,,,,ケンキュウサポート,0
2193,9011503006219,新規,0,2024-09-09,2024-09-09,合同会社カラニ,,合同会社,東京都,荒川区,荒川３丁目６３番３－４０１号シルバーマンション,,13,118,1160002,,,,,,,2024-09-09,1,,,,,カラニ,0
2195,9012301014074,新規,0,2024-09-09,2024-09-09,桐屋ビル株式会社,,株式会社,東京都,町田市,原町田４丁目１２番２３号,,13,209,1940013,,,,,,,2024-09-09,1,,,,,キリヤビル,0
2209,9020001159073,新規,0,2024-09-09,2024-09-09,株式会社Ａｉｍｓ,,株式会社,神奈川県,横浜市戸塚区,名瀬町１９６９番地１１,,14,110,2450051,,,,,,,2024-09-09,1,,,,,エイムズ,0
2221,9021001083189,新規,0,2024-09-09,2024-09-09,株式会社Ｒａｒａｌｉｆｅ,,株式会社,神奈川県,小田原市,曽我原１７８番地の８,,14,206,2500206,,,,,,,2024-09-09,1,,,,,ララライフ,0
2227,9030001162340,新規,0,2024-09-09,2024-09-09,株式会社ケイナス,,株式会社,埼玉県,さいたま市大宮区,土手町３丁目２４７－１,,11,103,3300801,,,,,,,2024-09-09,1,,,,,ケイナス,0
2228,9030001162349,新規,0,2024-09-09,2024-09-09,株式会社ＮＯＰＡＩＮ,,株式会社,埼玉県,蕨市,塚越５丁目３２番１５号,,11,223,3350002,,,,,,,2024-09-09,1,,,,,ノーペイン,0
2229,9030001162357,新規,0,2024-09-09,2024-09-09,株式会社Ｔ・Ｔ・Ｒ,,株式会社,埼玉県,川口市,大字安行原２４４６番地の５,,11,203,3340057,,,,,,,2024-09-09,1,,,,,ティーティーアール,0
2230,9030001162365,新規,0,2024-09-09,2024-09-09,株式会社ＢＲＡＶＥＧＥＥＫＳ,,株式会社,埼玉県,川口市,大字伊刈９２０番地,,11,203,3330865,,,,,,,2024-09-09,1,,,,,ブレイブギークス,0
2236,9030003025066,新規,0,2024-09-09,2024-09-09,合同会社ヒズフィフティーズ,,合同会社,埼玉県,秩父市,熊木町９番５号秩父ビジネスプラザ３階,,11,207,3680032,,,,,,,2024-09-09,1,,,,,ヒズフィフティーズ,0
2237,9030003025074,新規,0,2024-09-09,2024-09-09,合同会社ＢＭＢ,,合同会社,埼玉県,ふじみ野市,上福岡３丁目１４番１２号,,11,245,3560004,,,,,,,2024-09-09,1,,,,,ビーエムビー,0
2241,9040001135295,新規,0,2024-09-09,2024-09-09,中源株式会社,,株式会社,千葉県,市原市,磯ケ谷３００番地１,,12,219,2900204,,,,,,,2024-09-09,1,,,,,ナカゲン,0
2246,9050001055360,新規,0,2024-09-09,2024-09-09,株式会社サトヨシ建設,,株式会社,茨城県,猿島郡五霞町,大字元栗橋９０８番地４,,08,542,3060313,,,,,,,2024-09-09,1,,,,,サトヨシケンセツ,0
2247,9050001055369,新規,0,2024-09-09,2024-09-09,株式会社サンフィールズ,,株式会社,茨城県,土浦市,本郷９２１,,08,203,3004102,,,,,,,2024-09-09,1,,,,,サンフィールズ,0
2249,9050003008606,新規,0,2024-09-09,2024-09-09,合同会社ＳＡＲＯＺＡＫＩ,,合同会社,茨城県,筑西市,海老ヶ島１３５６番地２ｒｉｋｕｒｉｋｕ１０１号室,,08,227,3004517,,,,,,,2024-09-09,1,,,,,サロザキ,0
2250,9050003008663,新規,0,2024-09-09,2024-09-09,ＡＢＤＵＬＬＡＨ　ＴＲＡＤＩＮＧ合同会社,,合同会社,茨城県,古河市,原町３－７５,,08,204,3060025,,,,,,,2024-09-09,1,,,,,アブドラトレーディング,0
2252,9060001037473,新規,0,2024-09-09,2024-09-09,Ｂｅ　ｓｈｏｗｎ株式会社,,株式会社,栃木県,宇都宮市,中央３丁目１番４号栃木県産業会館３階,,09,201,3200806,,,,,,,2024-09-09,1,,,,,ビーショウン,0
2260,9070001042150,新規,0,2024-09-09,2024-09-09,株式会社Ｂ３,,株式会社,群馬県,高崎市,小八木町１２０２番地１,,10,202,3700071,,,,,,,2024-09-09,1,,,,,ビースリー,0
2261,9070001042159,新規,0,2024-09-09,2024-09-09,株式会社Ａ４,,株式会社,群馬県,高崎市,小八木町１２０２番地１,,10,202,3700071,,,,,,,2024-09-09,1,,,,,エーフォー,0
2262,9070001042167,新規,0,2024-09-09,2024-09-09,株式会社Ａ９,,株式会社,群馬県,高崎市,小八木町１２０２番地１,,10,202,3700071,,,,,,,2024-09-09,1,,,,,エーナイン,0
2265,9080101024997,新規,0,2024-09-09,2024-09-09,増田電工株式会社,,株式会社,静岡県,伊東市,玖須美元和田７２０番地の１５７,,22,208,4140045,,,,,,,2024-09-09,1,,,,,マスダデンコウ,0
2267,9080403005092,新規,0,2024-09-09,2024-09-09,レアレア合同会社,,合同会社,静岡県,浜松市天竜区,上野９４８番地,,22,140,4313427,,,,,,,2024-09-09,1,,,,,レアレア,0
2274,9100003007767,新規,0,2024-09-09,2024-09-09,合同会社繋ぐ手,,合同会社,長野県,松本市,蟻ケ崎５丁目１－７－１７,,20,202,3900861,,,,,,,2024-09-09,1,,,,,ツナグテ,0
2286,9120001268418,新規,0,2024-09-09,2024-09-09,株式会社ふくいんのみち,,株式会社,大阪府,大阪市淀川区,塚本４丁目１６番５６号,,27,123,5320026,,,,,,,2024-09-09,1,,,,,フクインノミチ,0
2287,9120001268442,新規,0,2024-09-09,2024-09-09,株式会社ＫＡＮＡＵ,,株式会社,大阪府,大阪市浪速区,下寺１丁目３番２３－９０３号,,27,111,5560001,,,,,,,2024-09-09,1,,,,,カナウ,0
2291,9120003027482,新規,0,2024-09-09,2024-09-09,合同会社きくみ,,合同会社,大阪府,大阪市東成区,中道４丁目１２－１６－８０２ドルフＯＳＡＫＡ玉造８０２,,27,115,5370025,,,,,,,2024-09-09,1,,,,,キクミ,0
2292,9120003027490,新規,0,2024-09-09,2024-09-09,楽々游国際観光合同会社,,合同会社,大阪府,大阪市西成区,北津守１丁目８－８,,27,122,5570061,,,,,,,2024-09-09,1,,,,,ラクラクユウコクサイカンコウ,0
2294,9120005024528,新規,0,2024-09-09,2024-09-09,一般社団法人ＡＡＳＨＡ,,その他の設立登記法人,大阪府,大阪市淀川区,木川西１丁目６番２１号,,27,123,5320013,,,,,,,2024-09-09,1,,,,,アーシャ,0
2295,9120103006048,新規,0,2024-09-09,2024-09-09,ＣＯＭＭＩＮ合同会社,,合同会社,大阪府,堺市南区,檜尾１３０３番地,,27,145,5900142,,,,,,,2024-09-09,1,,,,,コミン,0
2298,9122003002993,新規,0,2024-09-09,2024-09-09,合同会社Ｈｏｎｕ,,合同会社,大阪府,東大阪市,下小阪５丁目４番１０－８０５号,,27,227,5770803,,,,,,,2024-09-09,1,,,,,ホヌ,0
2306,9130001077867,新規,0,2024-09-09,2024-09-09,株式会社ＢＬＯＯＭ,,株式会社,京都府,京丹後市,峰山町御旅５５たまやビル２Ｆ,,26,212,6270036,,,,,,,2024-09-09,1,,,,,ブルーム,0
2308,9130003009843,新規,0,2024-09-09,2024-09-09,合同会社Ｂｒｉｄｇｅ　ｔｏ　ｉ,,合同会社,京都府,京都市下京区,七条通油小路東入大黒町２２７番地第２キョートビル４０２,,26,106,6008223,,,,,,,2024-09-09,1,,,,,ブリッジトゥアイ,0
2313,9140001135756,新規,0,2024-09-09,2024-09-09,株式会社アマテラスコーポレーション,,株式会社,兵庫県,神戸市北区,星和台２丁目８５番地の９,,28,109,6511121,,,,,,,2024-09-09,1,,,,,アマテラスコーポレーション,0
2324,9180001163175,新規,0,2024-09-09,2024-09-09,株式会社Ｔｒｕｅ　ｃｏｌｏｒｓ,,株式会社,愛知県,名古屋市中区,栄４丁目１２番２６号栄ＣＤビル６階６０１号室,,23,106,4600008,,,,,,,2024-09-09,1,,,,,トゥルーカラーズ,0
2326,9180005020760,新規,0,2024-09-09,2024-09-09,弁護士法人フロンティア,,その他の設立登記法人,愛知県,名古屋市中区,丸の内１丁目４番１２号,,23,106,4600002,,,,,,,2024-09-09,1,,,,,フロンティア,0
2328,9180303006255,新規,0,2024-09-09,2024-09-09,ＦＥ合同会社,,合同会社,愛知県,豊田市,河合町２丁目１７番地１０,,23,211,4710824,,,,,,,2024-09-09,1,,,,,エフイー,0
2333,9190003004789,新規,0,2024-09-09,2024-09-09,合同会社ワイエスＤ,,合同会社,三重県,鈴鹿市,野町西２丁目１０番８号ルミエール７７７Ａ１０２,,24,207,5100218,,,,,,,2024-09-09,1,,,,,ワイエスディー,0
2360,9290001107179,新規,0,2024-09-09,2024-09-09,株式会社Ｃｌｅａｒ,,株式会社,福岡県,福岡市中央区,今泉２丁目１番１５号,,40,133,8100021,,,,,,,2024-09-09,1,,,,,クリア,0
2361,9290001107220,新規,0,2024-09-09,2024-09-09,株式会社カープライス,,株式会社,福岡県,福岡市東区,箱崎ふ頭３丁目４番２６－４０６号,,40,131,8120051,,,,,,,2024-09-09,1,,,,,カープライス,0
2362,9290003015792,新規,0,2024-09-09,2024-09-09,合同会社アスリープインテリア,,合同会社,福岡県,福岡市博多区,博多駅東２丁目４番１７号,,40,132,8120013,,,,,,,2024-09-09,1,,,,,アスリープインテリア,0
2363,9290003015801,新規,0,2024-09-09,2024-09-09,Ｍ‐Ｌｉｎｋ合同会社,,合同会社,福岡県,福岡市東区,和白丘３丁目２２番１０号,,40,131,8110213,,,,,,,2024-09-09,1,,,,,エムリンク,0
2364,9290801030869,新規,0,2024-09-09,2024-09-09,株式会社プサレマ,,株式会社,福岡県,北九州市八幡西区,町上津役西１丁目１番２２号,,40,109,8070074,,,,,,,2024-09-09,1,,,,,プサレマ,0
2365,9290803004838,新規,0,2024-09-09,2024-09-09,合同会社８７ｌｅｍｏｎ,,合同会社,福岡県,北九州市小倉南区,守恒３丁目１番５号,,40,107,8020972,,,,,,,2024-09-09,1,,,,,ハナレモン,0
2367,9330001032447,新規,0,2024-09-09,2024-09-09,株式会社いろどり,,株式会社,熊本県,熊本市東区,新生２丁目２４番７号,,43,102,8620908,,,,,,,2024-09-09,1,,,,,イロドリ,0
2378,9390003002277,新規,0,2024-09-09,2024-09-09,合同会社ルピナスマイル,,合同会社,山形県,酒田市,亀ケ崎６丁目１１番１－５７号ビレッジハウス内川原１号棟,,06,204,9980842,,,,,,,2024-09-09,1,,,,,ルピナスマイル,0
2379,9400001016780,新規,0,2024-09-09,2024-09-09,株式会社ＬＡＫＵＢＩＥ,,株式会社,岩手県,盛岡市,下太田下川原１１番地７,,03,201,0200051,,,,,,,2024-09-09,1,,,,,ラクビエ,0
2382,9470001020371,新規,0,2024-09-09,2024-09-09,株式会社ＷＯＲＫＳ,,株式会社,香川県,高松市,国分寺町新居１８００－５,,37,201,7690101,,,,,,,2024-09-09,1,,,,,ワークス,0
2388,9700150126755,新規,0,2024-09-09,2024-08-16,京都大学理学研究科・理学部数学教室同窓会,,その他,京都府,京都市左京区,北白川追分町京都大学理学研究科数学教室内,,26,103,6068224,,,,,,,2024-08-16,1,,,,,キヨウトダイガクリガクケンキユウカリガクブスウガクキヨウシツドウソウカイ,0
