sequenceNumber,corporateNumber,process,correct,updateDate,changeDate,name,nameImageId,kind,prefectureName,cityName,streetNumber,addressImageId,prefectureCode,cityCode,postCode,addressOutside,addressOutsideImageId,closeDate,closeCause,successorCorporateNumber,changeCause,assignmentDate,latest,enName,enPrefectureName,enCityName,enAddressOutside,furigana,hihyoji
4,1010001256440,新規,0,2025-07-04,2025-07-04,株式会社Ｘ‐ＨＯＯＤ,,株式会社,東京都,千代田区,外神田４丁目１４－１秋葉原ＵＤＸ４ＦＲ３１,,13,101,1010021,,,,,,,2025-07-04,1,,,,,クロスフッド,0
5,1010001256531,新規,0,2025-07-04,2025-07-04,ＬＩＮＥヤフービジネスパートナーズ株式会社,,株式会社,東京都,千代田区,紀尾井町１番３号,,13,101,1020094,,,,,,,2025-07-04,1,,,,,ラインヤフービジネスパートナーズ,0
7,1010003047929,新規,0,2025-07-04,2025-07-04,ＨＭＰ１合同会社,,合同会社,東京都,千代田区,丸の内１丁目４番１号東京共同会計事務所内,,13,101,1000005,,,,,,,2025-07-04,1,,,,,エイチエムピーワン,0
13,1010401191444,新規,0,2025-07-04,2025-07-04,スピード出版ラボ株式会社,,株式会社,東京都,港区,東新橋２丁目９番４号ヴィアパルコビル,,13,103,1050021,,,,,,,2025-07-04,1,,,,,スピードシュッパンラボ,0
14,1010401191452,新規,0,2025-07-04,2025-07-04,Ｉｎｂｏｌｔ株式会社,,株式会社,東京都,港区,元麻布３丁目１番６号,,13,103,1060046,,,,,,,2025-07-04,1,,,,,インボルト,0
15,1010401191527,新規,0,2025-07-04,2025-07-04,株式会社ＬＡＵＲＥ’Ａ　ＦＯＲＣＥ,,株式会社,東京都,港区,三田１丁目１１番２２オフィスネスト麻布十番２０６号,,13,103,1080073,,,,,,,2025-07-04,1,,,,,ラウレアフォース,0
16,1010403035500,新規,0,2025-07-04,2025-07-04,合同会社ブロッサムソフトウェア,,合同会社,東京都,港区,赤坂１丁目３番５号赤坂アビタシオンビル８階,,13,103,1070052,,,,,,,2025-07-04,1,,,,,ブロッサムソフトウェア,0
21,1010601067543,新規,0,2025-07-04,2025-07-04,株式会社エムユーファシリティーズ・ツー,,株式会社,東京都,江東区,有明３丁目３番３号,,13,108,1350063,,,,,,,2025-07-04,1,,,,,エムユーファシリティーズツー,0
24,1010603011648,新規,0,2025-07-04,2025-07-04,合同会社Ｓｐｒｉｎｇｏ,,合同会社,東京都,江東区,亀戸７丁目３９番５－９０１号,,13,108,1360071,,,,,,,2025-07-04,1,,,,,スプリンゴ,0
25,1010603011656,新規,0,2025-07-04,2025-07-04,合同会社五感の庭,,合同会社,東京都,江東区,潮見２丁目３－９,,13,108,1350052,,,,,,,2025-07-04,1,,,,,ゴカンノニワ,0
26,1010603011664,新規,0,2025-07-04,2025-07-04,ＲＥＭＸ合同会社,,合同会社,東京都,江東区,豊洲５丁目６番２９―２０２７号,,13,108,1350061,,,,,,,2025-07-04,1,,,,,レムエックス,0
28,1010901057681,新規,0,2025-07-04,2025-07-04,株式会社Ｅａｃｈ　ｈｅａｒｉｎｇ,,株式会社,東京都,世田谷区,経堂２丁目７番１３号,,13,112,1560052,,,,,,,2025-07-04,1,,,,,イーチヒアリング,0
31,1011001170508,新規,0,2025-07-04,2025-07-04,株式会社ＬｉｖｅＷｉｔ,,株式会社,東京都,渋谷区,神泉町１０番１５号アネックス神泉３０１,,13,113,1500045,,,,,,,2025-07-04,1,,,,,ライブウィット,0
32,1011001170697,新規,0,2025-07-04,2025-07-04,株式会社ＩＴＴＯＮ,,株式会社,東京都,渋谷区,道玄坂１丁目１０番８号渋谷道玄坂東急ビル２Ｆ－Ｃ,,13,113,1500043,,,,,,,2025-07-04,1,,,,,イットン,0
39,1011201026484,新規,0,2025-07-04,2025-07-04,株式会社ＺＥＲＯ‐ＯＮＥ,,株式会社,東京都,中野区,南台３丁目２１番１号,,13,114,1640014,,,,,,,2025-07-04,1,,,,,ゼロワン,0
40,1011203004752,新規,0,2025-07-04,2025-07-04,合同会社貴命,,合同会社,東京都,中野区,本町３丁目９－４－３０７,,13,114,1640012,,,,,,,2025-07-04,1,,,,,キメイ,0
47,1011501032281,新規,0,2025-07-04,2025-07-04,株式会社ＥＭパートナーズ,,株式会社,東京都,北区,王子本町１丁目２番１２－６０１号清音閣,,13,117,1140022,,,,,,,2025-07-04,1,,,,,イーエムパートナーズ,0
49,1011701028484,新規,0,2025-07-04,2025-07-04,株式会社ハンドメイド・ジャパン,,株式会社,東京都,江戸川区,中央３丁目９番７号２階,,13,123,1320021,,,,,,,2025-07-04,1,,,,,ハンドメイドジャパン,0
52,1012703003310,新規,0,2025-07-04,2025-07-04,わんちゃん合同会社,,合同会社,東京都,西東京市,芝久保町３丁目３０番２５号マンション阿沙多１Ｆ,,13,229,1880014,,,,,,,2025-07-04,1,,,,,ワンチャン,0
53,1012801024076,新規,0,2025-07-04,2025-07-04,株式会社ＴＣＮ,,株式会社,東京都,立川市,柴崎町１丁目１８番２８号,,13,202,1900023,,,,,,,2025-07-04,1,,,,,ティーシーエヌ,0
54,1013103001466,新規,0,2025-07-04,2025-07-04,合同会社エイトステラ,,合同会社,東京都,西多摩郡瑞穂町,大字高根２３６－１,,13,303,1901203,,,,,,,2025-07-04,1,,,,,エイトステラ,0
69,1020001163677,新規,0,2025-07-04,2025-07-04,株式会社ズニット,,株式会社,神奈川県,川崎市高津区,北見方２丁目２６番１－１２１０号,,14,134,2130005,,,,,,,2025-07-04,1,,,,,ズニット,0
70,1020001163685,新規,0,2025-07-04,2025-07-04,ＥＬ‐ＷＯＲＫＳ株式会社,,株式会社,神奈川県,横浜市青葉区,荏田西２丁目２５番地１５,,14,117,2250014,,,,,,,2025-07-04,1,,,,,エルワークス,0
71,1020001163693,新規,0,2025-07-04,2025-07-04,株式会社大松電子,,株式会社,神奈川県,川崎市川崎区,小田３丁目１７番４号,,14,131,2100846,,,,,,,2025-07-04,1,,,,,,0
72,1020001163710,新規,0,2025-07-04,2025-07-04,株式会社マル,,株式会社,神奈川県,横浜市西区,浅間町１丁目４番地３ウィザードビル４０２,,14,103,2200072,,,,,,,2025-07-04,1,,,,,マル,0
73,1020001163735,新規,0,2025-07-04,2025-07-04,株式会社ＹＫネクスト,,株式会社,神奈川県,横浜市青葉区,松風台２２番地１５６,,14,117,2270067,,,,,,,2025-07-04,1,,,,,ワイケイネクスト,0
74,1020003028837,新規,0,2025-07-04,2025-07-04,合同会社椿,,合同会社,神奈川県,横浜市港南区,下永谷３丁目２７番１６号グリシーヌ・ボワ２０１,,14,111,2330016,,,,,,,2025-07-04,1,,,,,ツバキ,0
76,1021001085630,新規,0,2025-07-04,2025-07-04,株式会社ＡＲｐｉｏ,,株式会社,神奈川県,厚木市,妻田南１丁目７番１３号,,14,212,2430814,,,,,,,2025-07-04,1,,,,,アルピオ,0
85,1030001167396,新規,0,2025-07-04,2025-07-04,株式会社エシックス,,株式会社,埼玉県,越谷市,蒲生本町７番２８号,,11,222,3430837,,,,,,,2025-07-04,1,,,,,エシックス,0
86,1030001167454,新規,0,2025-07-04,2025-07-04,株式会社ｍｔｔｈｗ,,株式会社,埼玉県,朝霞市,宮戸４丁目１番９６号－２０３,,11,227,3510031,,,,,,,2025-07-04,1,,,,,マシュー,0
87,1030001167470,新規,0,2025-07-04,2025-07-04,株式会社喜雨,,株式会社,埼玉県,さいたま市中央区,大戸６丁目１１番１５号ゼルコバ６１１・２階東,,11,105,3380012,,,,,,,2025-07-04,1,,,,,キウ,0
88,1030001167479,新規,0,2025-07-04,2025-07-04,株式会社ウイング,,株式会社,埼玉県,朝霞市,根岸台７丁目３３番２２号２０１,,11,227,3510005,,,,,,,2025-07-04,1,,,,,ウイング,0
91,1030003027128,新規,0,2025-07-04,2025-07-04,合同会社デザインライフＭＫ,,合同会社,埼玉県,草加市,中根３丁目９番２３－３０１号,,11,221,3400005,,,,,,,2025-07-04,1,,,,,デザインライフエムケイ,0
99,1040001139469,新規,0,2025-07-04,2025-07-04,樺延株式会社,,株式会社,千葉県,船橋市,駿河台１丁目２０－３－１０８,,12,204,2730862,,,,,,,2025-07-04,1,,,,,カバエン,0
102,1040003027944,新規,0,2025-07-04,2025-07-04,合同会社白圭,,合同会社,千葉県,流山市,大字鰭ケ崎１０３４番地の１グリーンハイツ流山１１０４,,12,220,2700161,,,,,,,2025-07-04,1,,,,,ハクケイ,0
106,1060001038347,新規,0,2025-07-04,2025-07-04,株式会社ＲｅＢｏｒｎ,,株式会社,栃木県,小山市,駅東通り１丁目５番１３号ＹＣＰビル１階１０１号室,,09,208,3230022,,,,,,,2025-07-04,1,,,,,リボン,0
111,1080101025623,新規,0,2025-07-04,2025-07-04,國分設備株式会社,,株式会社,静岡県,沼津市,足高３２２番地の２０７,,22,203,4100001,,,,,,,2025-07-04,1,,,,,コクブセツビ,0
113,1080401028012,新規,0,2025-07-04,2025-07-04,株式会社ライフさぽーと大東,,株式会社,静岡県,掛川市,中方１９２６－４,,22,213,4371402,,,,,,,2025-07-04,1,,,,,ライフサポートダイトウ,0
116,1080403005298,新規,0,2025-07-04,2025-07-04,合同会社ＳＨＩＢＡＸ,,合同会社,静岡県,浜松市中央区,初生町１０５１番地の１２,,22,138,4338112,,,,,,,2025-07-04,1,,,,,シバックス,0
135,1120001277186,新規,0,2025-07-04,2025-07-04,三國仁兵衛商店株式会社,,株式会社,大阪府,大阪市中央区,道修町２丁目４番１０号,,27,128,5410045,,,,,,,2025-07-04,1,,,,,ミクニニヘイショウテン,0
136,1120001277434,新規,0,2025-07-04,2025-07-04,株式会社ＧａｒｄｅＰｏｎｏ,,株式会社,大阪府,大阪市中央区,本町４丁目８番１号ＳＤ本町ビル７０２号,,27,128,5410053,,,,,,,2025-07-04,1,,,,,ガーデポノ,0
137,1120001277442,新規,0,2025-07-04,2025-07-04,和韵国際株式会社,,株式会社,大阪府,大阪市中央区,南久宝寺町３丁目４－１５－４０１号,,27,128,5410058,,,,,,,2025-07-04,1,,,,,ワインコクサイ,0
138,1120001277467,新規,0,2025-07-04,2025-07-04,アーキビズ株式会社,,株式会社,大阪府,大阪市都島区,都島中通３丁目４番１５号,,27,102,5340022,,,,,,,2025-07-04,1,,,,,アーキビズ,0
139,1120001277483,新規,0,2025-07-04,2025-07-04,平山研磨工業株式会社,,株式会社,大阪府,寝屋川市,仁和寺本町５丁目４番８号,,27,215,5720076,,,,,,,2025-07-04,1,,,,,ヒラヤマケンマコウギョウ,0
140,1120001277533,新規,0,2025-07-04,2025-07-04,株式会社トライユニティ,,株式会社,大阪府,大阪市淀川区,西中島５丁目１３番１２号,,27,123,5320011,,,,,,,2025-07-04,1,,,,,トライユニティ,0
143,1120003029908,新規,0,2025-07-04,2025-07-04,合同会社アナハイム・エレクトロニクス,,合同会社,大阪府,大阪市北区,梅田１丁目１－３大阪駅前第３ビル２９階１－１－１号室,,27,127,5300001,,,,,,,2025-07-04,1,,,,,アナハイムエレクトロニクス,0
145,1120005025013,新規,0,2025-07-04,2025-07-04,一般社団法人全国不動産取引調査組合,,その他の設立登記法人,大阪府,大阪市北区,梅田１丁目２番２号大阪駅前第二ビル,,27,127,5300001,,,,,,,2025-07-04,1,,,,,ゼンコクフドウサントリヒキチョウサクミアイ,0
147,1120101071992,新規,0,2025-07-04,2025-07-04,株式会社ＢＬＵＥ　Ｇ,,株式会社,大阪府,和泉市,伏屋町２丁目９番２０号,,27,219,5940031,,,,,,,2025-07-04,1,,,,,ブルージー,0
148,1120101072017,新規,0,2025-07-04,2025-07-04,株式会社ｏｎｅＫ,,株式会社,大阪府,和泉市,王子町３丁目９番３１号,,27,219,5940004,,,,,,,2025-07-04,1,,,,,ワンケー,0
149,1120101072025,新規,0,2025-07-04,2025-07-04,株式会社御座礼,,株式会社,大阪府,富田林市,錦ケ丘町５番６号,,27,214,5840038,,,,,,,2025-07-04,1,,,,,ゴザレ,0
150,1120101072033,新規,0,2025-07-04,2025-07-04,株式会社ＧＹＧ,,株式会社,大阪府,堺市東区,草尾１２２番地４０,,27,143,5998127,,,,,,,2025-07-04,1,,,,,ジーワイジー,0
153,1130001080011,新規,0,2025-07-04,2025-07-04,三谷ホールディングス株式会社,,株式会社,京都府,京都市伏見区,下鳥羽澱女町１４６番地,,26,109,6128386,,,,,,,2025-07-04,1,,,,,ミタニホールディングス,0
158,1140001139129,新規,0,2025-07-04,2025-07-04,株式会社ハイクリエイト,,株式会社,兵庫県,尼崎市,神田中通２丁目２７－４８隆商ビル２－２０１,,28,202,6600884,,,,,,,2025-07-04,1,,,,,ハイクリエイト,0
161,1140005027544,新規,0,2025-07-04,2025-07-04,司法書士法人ふるえ事務所,,その他の設立登記法人,兵庫県,神戸市中央区,相生町４丁目２番２８号神戸駅前千代田ビル８階,,28,110,6500025,,,,,,,2025-07-04,1,,,,,フルエジムショ,0
164,1150001028231,新規,0,2025-07-04,2025-07-04,株式会社農と科学の喜多研究所,,株式会社,奈良県,大和郡山市,額田部南町４３１番地,,29,203,6391035,,,,,,,2025-07-04,1,,,,,ノウトカガクノキタケンキュウショ,0
165,1150001028248,新規,0,2025-07-04,2025-07-04,株式会社ＡＭＯＵＲ　ＬＩＮＥ,,株式会社,奈良県,北葛城郡上牧町,服部台１丁目１１番３５号Ｃ－１０１号室,,29,424,6390212,,,,,,,2025-07-04,1,,,,,アムールライン,0
176,1180001167497,新規,0,2025-07-04,2025-07-04,株式会社久和,,株式会社,愛知県,名古屋市守山区,大字中志段味字西山島１８１０番,,23,113,4630002,,,,,,,2025-07-04,1,,,,,キュウワ,0
177,1180001167555,新規,0,2025-07-04,2025-07-04,株式会社ライブネクスト,,株式会社,愛知県,名古屋市東区,東桜２丁目３番７号,,23,102,4610005,,,,,,,2025-07-04,1,,,,,ライブネクスト,0
178,1180003028672,新規,0,2025-07-04,2025-07-04,ＰＫ買取合同会社,,合同会社,愛知県,知多郡武豊町,字緑台２丁目１番地,,23,447,4702386,,,,,,,2025-07-04,1,,,,,ピーケイカイトリ,0
183,1180301039966,新規,0,2025-07-04,2025-07-04,株式会社カタオカエステート,,株式会社,愛知県,安城市,新田町新栄７３番地１,,23,212,4460061,,,,,,,2025-07-04,1,,,,,カタオカエステート,0
184,1180301039982,新規,0,2025-07-04,2025-07-04,Ｋ＆Ｅバイオソリューションズ株式会社,,株式会社,愛知県,豊橋市,東新町９３番地フィオーレ東新町２０３号,,23,201,4400812,,,,,,,2025-07-04,1,,,,,ケイアンドイーバイオソリューションズ,0
185,1180303006642,新規,0,2025-07-04,2025-07-04,ＤＡＦ合同会社,,合同会社,愛知県,岡崎市,羽根北町３丁目２番地５,,23,202,4440831,,,,,,,2025-07-04,1,,,,,ダフ,0
186,1190001032353,新規,0,2025-07-04,2025-07-04,かんえい株式会社,,株式会社,三重県,鳥羽市,相差町３８２番地,,24,211,5170032,,,,,,,2025-07-04,1,,,,,カンエイ,0
192,1200001043968,新規,0,2025-07-04,2025-07-04,株式会社ＫＹＧホールディングス,,株式会社,岐阜県,加茂郡坂祝町,酒倉２００８番地,,21,501,5050074,,,,,,,2025-07-04,1,,,,,ケーワイジーホールディングス,0
195,1230003002457,新規,0,2025-07-04,2025-07-04,合同会社ＪＴ・ｗｏｒｋｓ,,合同会社,富山県,富山市,犬島７丁目５番１３号,,16,201,9318321,,,,,,,2025-07-04,1,,,,,ジェイティワークス,0
197,1240001065141,新規,0,2025-07-04,2025-07-04,株式会社アインソリューションズ,,株式会社,広島県,広島市中区,大手町１丁目１番２６号大手町一番ビル３０５,,34,101,7300051,,,,,,,2025-07-04,1,,,,,アインソリューションズ,0
198,1240001065158,新規,0,2025-07-04,2025-07-04,株式会社桐,,株式会社,広島県,三原市,須波西２丁目１番２号,,34,204,7230032,,,,,,,2025-07-04,1,,,,,キリ,0
199,1240001065174,新規,0,2025-07-04,2025-07-04,株式会社ＷＡＫＡＭＡＸ,,株式会社,広島県,尾道市,向島町字七軒島５５５３番７３,,34,205,7220073,,,,,,,2025-07-04,1,,,,,ワカマックス,0
219,1310001019684,新規,0,2025-07-04,2025-07-04,Ｍｉｅｕｘ　Ｄｅｓｉｇｎ株式会社,,株式会社,長崎県,佐世保市,上本山町４６２番地３,,42,202,8580903,,,,,,,2025-07-04,1,,,,,ミューデザイン,0
220,1320001021185,新規,0,2025-07-04,2025-07-04,株式会社ＭＡＣＨＯ,,株式会社,大分県,別府市,朝見２丁目２５番８３号,,44,202,8740812,,,,,,,2025-07-04,1,,,,,マチョ,0
221,1330001033353,新規,0,2025-07-04,2025-07-04,株式会社ＦＬＡＴ企画,,株式会社,熊本県,宇城市,松橋町南豊崎１０７３番地３,,43,213,8690543,,,,,,,2025-07-04,1,,,,,フラットキカク,0
222,1330001033361,新規,0,2025-07-04,2025-07-04,株式会社ＥＸＩＳＴ,,株式会社,熊本県,熊本市中央区,花畑町１３番１２号熊交観光ビルＢＦ,,43,101,8600806,,,,,,,2025-07-04,1,,,,,イグジスト,0
225,1350001019615,新規,0,2025-07-04,2025-07-04,株式会社ゼロライブ,,株式会社,宮崎県,日南市,南郷町中村乙３８６０番地７,,45,204,8893204,,,,,,,2025-07-04,1,,,,,ゼロライブ,0
226,1350001019623,新規,0,2025-07-04,2025-07-04,コーヒー梵株式会社,,株式会社,宮崎県,宮崎市,大字大瀬町１６８０番地３,,45,201,8800045,,,,,,,2025-07-04,1,,,,,コーヒーボン,0
228,1360003015025,新規,0,2025-07-04,2025-07-04,合同会社栄,,合同会社,沖縄県,島尻郡八重瀬町,字屋宜原５０９番地１５号,,47,362,9010406,,,,,,,2025-07-04,1,,,,,サカエ,0
229,1360003015058,新規,0,2025-07-04,2025-07-04,ａｂｉｔデザイン合同会社,,合同会社,沖縄県,沖縄市,与儀１丁目３８－７,,47,211,9042174,,,,,,,2025-07-04,1,,,,,アビットデザイン,0
232,1370003007178,新規,0,2025-07-04,2025-07-04,Ｌｏｃａｌ　Ｃｒａｆｔ　Ｗｏｒｋｓ合同会社,,合同会社,宮城県,刈田郡蔵王町,遠刈田温泉寿町３１番地,,04,301,9890915,,,,,,,2025-07-04,1,,,,,ローカルクラフトワークス,0
235,1390001018035,新規,0,2025-07-04,2025-07-04,高橋商店株式会社,00139790,株式会社,山形県,酒田市,土崎字屋敷添３１番地,,06,204,9980873,,,,,,,2025-07-04,1,,,,,タカハシショウテン,0
236,1400001017101,新規,0,2025-07-04,2025-07-04,株式会社ｎａｎｏ．,,株式会社,岩手県,花巻市,御田屋町２番３８号,,03,205,0250082,,,,,,,2025-07-04,1,,,,,ナノ,0
237,1400003003495,新規,0,2025-07-04,2025-07-04,合同会社海斗,,合同会社,岩手県,二戸市,野々上字熊野９４番地１,,03,213,0285712,,,,,,,2025-07-04,1,,,,,カイト,0
240,1400005008501,新規,0,2025-07-04,2025-07-04,一般社団法人北日本リストア,,その他の設立登記法人,岩手県,大船渡市,大船渡町字笹崎５７番地６２,,03,203,0220002,,,,,,,2025-07-04,1,,,,,キタニッポンリストア,0
241,1410001014205,新規,0,2025-07-04,2025-07-04,株式会社ＫＡＷＡＢＡＴＡ,,株式会社,秋田県,大仙市,大曲浜町７番３９号,,05,212,0140051,,,,,,,2025-07-04,1,,,,,カワバタ,0
243,1420001019203,新規,0,2025-07-04,2025-07-04,株式会社天龍葬祭,,株式会社,青森県,五所川原市,磯松磯野２５５,,02,205,0370404,,,,,,,2025-07-04,1,,,,,テンリュウソウサイ,0
245,1430003017831,新規,0,2025-07-04,2025-07-04,合同会社Ｔ５号,,合同会社,北海道,札幌市中央区,南十一条西７丁目２－２１,,01,101,0640811,,,,,,,2025-07-04,1,,,,,ティーゴゴウ,0
246,1430003017856,新規,0,2025-07-04,2025-07-04,合同会社Ｐｒｏ．Ｎｕｒｓｉｎｇ,,合同会社,北海道,札幌市中央区,南五条西１５丁目２‐３リズム医大前５０３号室,,01,101,0640805,,,,,,,2025-07-04,1,,,,,プロナーシング,0
251,1500001026389,新規,0,2025-07-04,2025-07-04,ＭＳ株式会社,,株式会社,愛媛県,今治市,伯方町北浦乙３５０番地,,38,202,7942304,,,,,,,2025-07-04,1,,,,,エムエス,0
252,1500005008805,新規,0,2025-07-04,2025-07-04,ＮＰＯ法人空き家かたづけ隊,,その他の設立登記法人,愛媛県,西条市,新田１９７番地２,,38,206,7930028,,,,,,,2025-07-04,1,,,,,アキヤカタヅケタイ,0
253,1700150131325,新規,0,2025-07-04,2025-07-04,ＥＯ　Ｔｏｋｙｏ　Ｅａｓｔ,,その他,東京都,中央区,日本橋室町１丁目１１番１２号日本橋水野ビル７階,,13,102,1030022,,,,,,,2025-07-04,1,,,,,イーオートウキョウイースト,0
259,2010001256497,新規,0,2025-07-04,2025-07-04,株式会社ＰＲＡＸＩＳＴ,,株式会社,東京都,中央区,日本橋室町１丁目１１番１２号日本橋水野ビル７階,,13,102,1030022,,,,,,,2025-07-04,1,,,,,プラクシスト,0
261,2010003047928,新規,0,2025-07-04,2025-07-04,ＨＭＰ２合同会社,,合同会社,東京都,千代田区,丸の内１丁目４番１号東京共同会計事務所内,,13,101,1000005,,,,,,,2025-07-04,1,,,,,エイチエムピーツー,0
269,2010401191419,新規,0,2025-07-04,2025-07-04,株式会社ＡｎｉｍａｌＨ,,株式会社,東京都,港区,芝公園２丁目２－１１グランデイ芝公園１階,,13,103,1050011,,,,,,,2025-07-04,1,,,,,アニマルエイチ,0
270,2010401191435,新規,0,2025-07-04,2025-07-04,株式会社ＢｌｏｓｓＷｅｌｌ,,株式会社,東京都,港区,北青山１丁目３番１号アールキューブ青山３階,,13,103,1070061,,,,,,,2025-07-04,1,,,,,ブロスウェル,0
271,2010501054302,新規,0,2025-07-04,2025-07-04,株式会社ＴＡＳＮＩＣファンド,,株式会社,東京都,台東区,上野５丁目１７番２号,,13,106,1100005,,,,,,,2025-07-04,1,,,,,タスニックファンド,0
273,2010601067559,新規,0,2025-07-04,2025-07-04,株式会社アトラクトグローブ,,株式会社,東京都,江東区,豊洲４丁目９番１３号,,13,108,1350061,,,,,,,2025-07-04,1,,,,,アトラクトグローブ,0
274,2010603011663,新規,0,2025-07-04,2025-07-04,合同会社ｍｕｋａｖａ,,合同会社,東京都,江東区,大島８丁目２８番２４－５２０号,,13,108,1360072,,,,,,,2025-07-04,1,,,,,ムカバ,0
277,2010701047915,新規,0,2025-07-04,2025-07-04,ネオマインド株式会社,,株式会社,東京都,品川区,大崎１丁目２０番４－１２０１号,,13,109,1410032,,,,,,,2025-07-04,1,,,,,ネオマインド,0
278,2010703007784,新規,0,2025-07-04,2025-07-04,合同会社ハイパーディレクション,,合同会社,東京都,品川区,西五反田１丁目２６番２号五反田サンハイツ９１１,,13,109,1410031,,,,,,,2025-07-04,1,,,,,ハイパーディレクション,0
280,2010901057672,新規,0,2025-07-04,2025-07-04,ＳＴ株式会社,,株式会社,東京都,世田谷区,尾山台２丁目２９番２０―２０１号,,13,112,1580086,,,,,,,2025-07-04,1,,,,,エスティー,0
281,2010901057689,新規,0,2025-07-04,2025-07-04,株式会社ティーワイシー,,株式会社,東京都,世田谷区,経堂１丁目８番２０号,,13,112,1560052,,,,,,,2025-07-04,1,,,,,ティーワイシー,0
282,2010901057697,新規,0,2025-07-04,2025-07-04,株式会社ＫＡＲＥＮ,,株式会社,東京都,世田谷区,代沢３丁目１２番１号ＧＯＥＮ代沢３Ｆ,,13,112,1550032,,,,,,,2025-07-04,1,,,,,カレン,0
287,2011001170969,新規,0,2025-07-04,2025-07-04,Ｆｏｕｎｄｒｙ　Ｌａｂｓ株式会社,,株式会社,東京都,渋谷区,円山町５番３号ＭＩＥＵＸ渋谷ビル８階,,13,113,1500044,,,,,,,2025-07-04,1,,,,,ファウンドリーラボ,0
288,2011003021955,新規,0,2025-07-04,2025-07-04,合同会社ふくじゅそう,,合同会社,東京都,渋谷区,本町５丁目１６番１４号,,13,113,1510071,,,,,,,2025-07-04,1,,,,,フクジュソウ,0
292,2011103016104,新規,0,2025-07-04,2025-07-04,合同会社新宿メンタルヘルスプロモーション,,合同会社,東京都,新宿区,西新宿３丁目３番１３号西新宿水間ビル６階,,13,104,1600023,,,,,,,2025-07-04,1,,,,,シンジュクメンタルヘルスプロモーション,0
302,2011601028773,新規,0,2025-07-04,2025-07-04,株式会社エスケーエム,,株式会社,東京都,練馬区,石神井町３丁目２０－９－７０２,,13,120,1770041,,,,,,,2025-07-04,1,,,,,エスケーエム,0
307,2011701028483,新規,0,2025-07-04,2025-07-04,株式会社しおり,,株式会社,東京都,江戸川区,平井２丁目１１番２７号,,13,123,1320035,,,,,,,2025-07-04,1,,,,,シオリ,0
308,2011703004301,新規,0,2025-07-04,2025-07-04,はーとあんどはーと合同会社,,合同会社,東京都,江戸川区,北小岩６丁目１３－４－４Ｆ,,13,123,1330051,,,,,,,2025-07-04,1,,,,,ハートアンドハート,0
311,2011801046402,新規,0,2025-07-04,2025-07-04,株式会社Ｍｒクリエイティブ,,株式会社,東京都,葛飾区,柴又５丁目４５番２号,,13,122,1250052,,,,,,,2025-07-04,1,,,,,ミスタークリエイティブ,0
315,2012401043269,新規,0,2025-07-04,2025-07-04,株式会社ぐりんぐりん,,株式会社,東京都,府中市,若松町１丁目２１番地の１８,,13,206,1830005,,,,,,,2025-07-04,1,,,,,グリングリン,0
316,2012701018945,新規,0,2025-07-04,2025-07-04,Ｋ．Ｈｅａｌｉｎｇ株式会社,,株式会社,東京都,東久留米市,上の原１丁目３番６～５１１号,,13,222,2030001,,,,,,,2025-07-04,1,,,,,ケイヒーリング,0
322,2020001163619,新規,0,2025-07-04,2025-07-04,株式会社国武,,株式会社,神奈川県,横浜市磯子区,中原２丁目３番３２号１０３号室,,14,107,2350036,,,,,,,2025-07-04,1,,,,,コクブ,0
323,2020001163692,新規,0,2025-07-04,2025-07-04,株式会社太陽と大地,,株式会社,神奈川県,川崎市幸区,神明町１丁目１７番地,,14,132,2120022,,,,,,,2025-07-04,1,,,,,タイヨウトダイチ,0
324,2020001163726,新規,0,2025-07-04,2025-07-04,株式会社ｓｔｒｉｋｅｒ,,株式会社,神奈川県,横浜市保土ケ谷区,星川３丁目１５番５号－２０２,,14,106,2400006,,,,,,,2025-07-04,1,,,,,ストライカー,0
328,2020003028852,新規,0,2025-07-04,2025-07-04,セカンドチャンス合同会社,,合同会社,神奈川県,横浜市金沢区,並木２丁目１番８－３０１号,,14,108,2360005,,,,,,,2025-07-04,1,,,,,セカンドチャンス,0
333,2021001085605,新規,0,2025-07-04,2025-07-04,株式会社Ｂｌａｃｋ　Ｔｒｅｅ,,株式会社,神奈川県,秦野市,春日町５－５ＫＳビル１Ｆ,,14,211,2591312,,,,,,,2025-07-04,1,,,,,ブラックツリー,0
334,2021001085638,新規,0,2025-07-04,2025-07-04,Ｌｉｖｅ　Ｔｏｂｅ株式会社,,株式会社,神奈川県,藤沢市,村岡東４丁目２１番地の５,,14,205,2510012,,,,,,,2025-07-04,1,,,,,リブトゥビー,0
340,2030001167395,新規,0,2025-07-04,2025-07-04,株式会社ブライトホーム,,株式会社,埼玉県,深谷市,曲田６５番地,,11,218,3660834,,,,,,,2025-07-04,1,,,,,ブライトホーム,0
341,2030001167437,新規,0,2025-07-04,2025-07-04,株式会社青木電設,,株式会社,埼玉県,川越市,大字山田９２７番地７,,11,201,3500822,,,,,,,2025-07-04,1,,,,,アオキデンセツ,0
342,2030001167445,新規,0,2025-07-04,2025-07-04,ＥｖｅｒＧａｒｄｅｎ株式会社,,株式会社,埼玉県,川越市,大字今泉２２１番地,,11,201,3500015,,,,,,,2025-07-04,1,,,,,エバーガーデン,0
343,2030001167453,新規,0,2025-07-04,2025-07-04,株式会社ＴａｙｍｒＹ,,株式会社,埼玉県,草加市,新里町４６０番地６,,11,221,3400031,,,,,,,2025-07-04,1,,,,,タイムリー,0
344,2030001167486,新規,0,2025-07-04,2025-07-04,株式会社ＢＯＮＳＡＩＥＮＣＥ,,株式会社,埼玉県,さいたま市大宮区,桜木町２丁目３番地大宮マルイ７階,,11,103,3300854,,,,,,,2025-07-04,1,,,,,ボンサイエンス,0
346,2030003027044,新規,0,2025-07-04,2025-07-04,ホームポジション合同会社,,合同会社,埼玉県,志木市,柏町６丁目２３番２０号,,11,228,3530007,,,,,,,2025-07-04,1,,,,,ホームポジション,0
347,2030003027127,新規,0,2025-07-04,2025-07-04,合同会社ＭＡＴＴ,,合同会社,埼玉県,川越市,郭町２丁目１番地７,,11,201,3500053,,,,,,,2025-07-04,1,,,,,マット,0
356,2050001056877,新規,0,2025-07-04,2025-07-04,株式会社ＯＤＫ,,株式会社,茨城県,石岡市,東光台５丁目１１番７３号,,08,205,3150033,,,,,,,2025-07-04,1,,,,,オーディーケー,0
357,2050001056902,新規,0,2025-07-04,2025-07-04,株式会社義工業,,株式会社,茨城県,桜川市,友部１５９３番地２,,08,231,3091453,,,,,,,2025-07-04,1,,,,,ヨシコウギョウ,0
358,2060001038362,新規,0,2025-07-04,2025-07-04,電流株式会社,,株式会社,栃木県,宇都宮市,ゆいの杜８丁目１番２１号,,09,201,3213226,,,,,,,2025-07-04,1,,,,,デンリュウ,0
359,2060003005633,新規,0,2025-07-04,2025-07-04,合同会社Ｓｏｒａｔａｒｔｏ,,合同会社,栃木県,宇都宮市,陽東４丁目８番３３号ルヴェスト４０５号,,09,201,3210904,,,,,,,2025-07-04,1,,,,,ソラタルト,0
360,2060005010359,新規,0,2025-07-04,2025-07-04,一般社団法人ＢＡＺＥ,,その他の設立登記法人,栃木県,大田原市,浅香３丁目３５７８番地１０８９,,09,210,3240043,,,,,,,2025-07-04,1,,,,,ベース,0
361,2070001043097,新規,0,2025-07-04,2025-07-04,株式会社アストリンクホールディングス,,株式会社,群馬県,伊勢崎市,小泉町２７７番地１,,10,204,3792232,,,,,,,2025-07-04,1,,,,,アストリンクホールディングス,0
363,2080101025614,新規,0,2025-07-04,2025-07-04,株式会社エムシンクサポート,,株式会社,静岡県,三島市,東本町２丁目５番３６号,,22,206,4110831,,,,,,,2025-07-04,1,,,,,エムシンクサポート,0
364,2080401028011,新規,0,2025-07-04,2025-07-04,株式会社設備工房コダマ,,株式会社,静岡県,浜松市中央区,高林１丁目８番３９号,,22,138,4300907,,,,,,,2025-07-04,1,,,,,セツビコウボウコダマ,0
374,2120001277482,新規,0,2025-07-04,2025-07-04,漢青自由貿易株式会社,,株式会社,大阪府,大阪市城東区,東中浜３丁目２番２３－３０２号,,27,118,5360023,,,,,,,2025-07-04,1,,,,,カンセイジユウボウエキ,0
375,2120001277490,新規,0,2025-07-04,2025-07-04,株式会社良眠クラブ,,株式会社,大阪府,大阪市北区,東天満１丁目１２番１３号ＩＡＧ天満ビル７階,,27,127,5300044,,,,,,,2025-07-04,1,,,,,リョウミンクラブ,0
376,2120001277549,新規,0,2025-07-04,2025-07-04,株式会社リードルコーポレーション,,株式会社,大阪府,大阪市東淀川区,柴島３丁目１－２７－２０９,,27,114,5330024,,,,,,,2025-07-04,1,,,,,リードルコーポレーション,0
380,2120003029907,新規,0,2025-07-04,2025-07-04,美馨商事合同会社,,合同会社,大阪府,大阪市西成区,萩之茶屋２丁目６番４号ニューかめや２０７号室,,27,122,5570004,,,,,,,2025-07-04,1,,,,,ミシンショウジ,0
381,2120005025012,新規,0,2025-07-04,2025-07-04,一般社団法人実務日本語能力推進協会,,その他の設立登記法人,大阪府,大阪市西区,江戸堀１丁目２３番１３号,,27,106,5500002,,,,,,,2025-07-04,1,,,,,ジツムニホンゴノウリョクスイシンキョウカイ,0
382,2120101071991,新規,0,2025-07-04,2025-07-04,白内障ラボ株式会社,,株式会社,大阪府,泉南郡熊取町,大久保北３丁目１７４番地の６,,27,361,5900402,,,,,,,2025-07-04,1,,,,,ハクナイショウラボ,0
383,2120101072016,新規,0,2025-07-04,2025-07-04,ユリマル株式会社,,株式会社,大阪府,堺市西区,鳳北町２丁８０番地２５,,27,144,5938328,,,,,,,2025-07-04,1,,,,,ユリマル,0
384,2120101072024,新規,0,2025-07-04,2025-07-04,千和商事株式会社,,株式会社,大阪府,堺市南区,若松台１丁２番１０－５０２号,,27,145,5900116,,,,,,,2025-07-04,1,,,,,センワショウジ,0
387,2120901051152,新規,0,2025-07-04,2025-07-04,良美株式会社,,株式会社,大阪府,池田市,五月丘１丁目１番１５号,,27,204,5630029,,,,,,,2025-07-04,1,,,,,リョウビ,0
388,2130003010592,新規,0,2025-07-04,2025-07-04,合同会社Ｃ‐Ｄｅｓｉｇｎ,,合同会社,京都府,京都市西京区,山田北山田町３番地１０,,26,111,6158267,,,,,,,2025-07-04,1,,,,,シーデザイン,0
399,2150001028247,新規,0,2025-07-04,2025-07-04,株式会社詩鹿,,株式会社,奈良県,奈良市,法華寺町１２０２番地の６,,29,201,6308001,,,,,,,2025-07-04,1,,,,,シロク,0
401,2160001026869,新規,0,2025-07-04,2025-07-04,株式会社Ｌａｇｏ,,株式会社,滋賀県,蒲生郡竜王町,大字橋本４８２,,25,384,5202514,,,,,,,2025-07-04,1,,,,,ラーゴ,0
407,2180001167496,新規,0,2025-07-04,2025-07-04,株式会社八味八福,,株式会社,愛知県,名古屋市北区,水切町５丁目７８－２,,23,103,4620833,,,,,,,2025-07-04,1,,,,,ヤミハップク,0
408,2180001167513,新規,0,2025-07-04,2025-07-04,株式会社ＬＡＺＹ,,株式会社,愛知県,名古屋市中区,錦３丁目１９番２６号ＡＴＳ錦ビルＡ０７０４号室,,23,106,4600003,,,,,,,2025-07-04,1,,,,,レイジー,0
412,2180301039957,新規,0,2025-07-04,2025-07-04,サニー・ブルーム株式会社,,株式会社,愛知県,刈谷市,野田町東屋敷１６５番地,,23,210,4480803,,,,,,,2025-07-04,1,,,,,サニーブルーム,0
413,2180301039973,新規,0,2025-07-04,2025-07-04,柴田企画株式会社,,株式会社,愛知県,岡崎市,上里２丁目４番地１８,,23,202,4442136,,,,,,,2025-07-04,1,,,,,シバタキカク,0
415,2190001032336,新規,0,2025-07-04,2025-07-04,株式会社ＶＩＴＡＲＩＣＣＡ,,株式会社,三重県,いなべ市,大安町梅戸７２７番地５,,24,214,5110284,,,,,,,2025-07-04,1,,,,,ビタリカ,0
416,2190001032352,新規,0,2025-07-04,2025-07-04,ＧＬトレーディング株式会社,,株式会社,三重県,四日市市,新町６番２号－Ａ号室,,24,202,5100092,,,,,,,2025-07-04,1,,,,,ジーエルトレーディング,0
419,2200001043959,新規,0,2025-07-04,2025-07-04,株式会社河村建材,,株式会社,岐阜県,加茂郡八百津町,伊岐津志４９０番地８５,,21,505,5050303,,,,,,,2025-07-04,1,,,,,コウムラケンザイ,0
425,2220003004073,新規,0,2025-07-04,2025-07-04,ソフィア・アカデミア合同会社,,合同会社,石川県,羽咋市,柳田町五十字６８番地,,17,207,9250018,,,,,,,2025-07-04,1,,,,,ソフィアアカデミア,0
427,2230001020988,新規,0,2025-07-04,2025-07-04,富山トラックサービス株式会社,,株式会社,富山県,富山市,上飯野字樋向割３６番地４,00139800,16,201,9300827,,,,,,,2025-07-04,1,,,,,トヤマトラックサービス,0
428,2230003002456,新規,0,2025-07-04,2025-07-04,ホライゾン合同会社,,合同会社,富山県,富山市,下新北町８番１６号,,16,201,9300802,,,,,,,2025-07-04,1,,,,,ホライゾン,0
432,2240001065157,新規,0,2025-07-04,2025-07-04,株式会社ＭＫＣ,,株式会社,広島県,三原市,宮沖１丁目１４番９号,,34,204,7230016,,,,,,,2025-07-04,1,,,,,エムケーシー,0
433,2240003007289,新規,0,2025-07-04,2025-07-04,合同会社Ｎｏｒｅｓｓ,,合同会社,広島県,福山市,神辺町字湯野４６番地１ホームバリー湯野３０５,,34,207,7202121,,,,,,,2025-07-04,1,,,,,ノーレス,0
434,2250001021200,新規,0,2025-07-04,2025-07-04,株式会社フェリーチェ,,株式会社,山口県,岩国市,川下町２丁目１番２５号,,35,208,7400023,,,,,,,2025-07-04,1,,,,,フェリーチェ,0
435,2250001021225,新規,0,2025-07-04,2025-07-04,株式会社ＰＥＴＡＬ,,株式会社,山口県,岩国市,錦見８丁目１９番２０号,,35,208,7410061,,,,,,,2025-07-04,1,,,,,ペタル,0
437,2260001040323,新規,0,2025-07-04,2025-07-04,株式会社サンライズ,,株式会社,岡山県,倉敷市,平田９３０番地３,,33,202,7100003,,,,,,,2025-07-04,1,,,,,サンライズ,0
438,2260001040331,新規,0,2025-07-04,2025-07-04,株式会社ＡＲＭＳ,,株式会社,岡山県,岡山市北区,奉還町４丁目１３－１５,,33,101,7000026,,,,,,,2025-07-04,1,,,,,アームズ,0
449,2290001110668,新規,0,2025-07-04,2025-07-04,株式会社リブレステート,,株式会社,福岡県,福岡市博多区,吉塚２丁目３番２３－４０３号,,40,132,8120041,,,,,,,2025-07-04,1,,,,,リブレステート,0
454,2290003017052,新規,0,2025-07-04,2025-07-04,合同会社アズグロウ,,合同会社,福岡県,久留米市,三潴町原田８１番地１,,40,203,8300104,,,,,,,2025-07-04,1,,,,,アズグロウ,0
455,2290003017060,新規,0,2025-07-04,2025-07-04,ＩＭＡＧＥＳ　ＡＮＤ　ＷＯＲＤＳ合同会社,,合同会社,福岡県,うきは市,吉井町新治５８３,,40,225,8391306,,,,,,,2025-07-04,1,,,,,イメージズアンドワーズ,0
456,2290801031667,新規,0,2025-07-04,2025-07-04,株式会社皆川組,,株式会社,福岡県,田川郡川崎町,大字川崎３４０番地１,,40,605,8270003,,,,,,,2025-07-04,1,,,,,ミナガワグミ,0
457,2290805009841,新規,0,2025-07-04,2025-07-04,医療法人わたなべ整形外科クリニック,,その他の設立登記法人,福岡県,北九州市八幡西区,筒井町１５番１－２号,,40,109,8060032,,,,,,,2025-07-04,1,,,,,ワタナベセイケイゲカクリニック,0
460,2310001019675,新規,0,2025-07-04,2025-07-04,株式会社ミロク,,株式会社,長崎県,長崎市,川平町２８８番地７,,42,201,8528143,,,,,,,2025-07-04,1,,,,,ミロク,0
461,2310001019683,新規,0,2025-07-04,2025-07-04,株式会社フラワーショップよしの,,株式会社,長崎県,諫早市,城見町６番９号,,42,204,8540005,,,,,,,2025-07-04,1,,,,,フラワーショップヨシノ,0
462,2310005008864,新規,0,2025-07-04,2025-07-04,一般社団法人長崎尾曲がり猫神社,,その他の設立登記法人,長崎県,長崎市,銀屋町２番１５号,,42,201,8500854,,,,,,,2025-07-04,1,,,,,ナガサキオマガリネコジンジャ,0
463,2320001021192,新規,0,2025-07-04,2025-07-04,株式会社Ｂｅａｒ　Ｆｒｕｉｔ,,株式会社,大分県,宇佐市,大字辛島１１９番地の１,,44,211,8790456,,,,,,,2025-07-04,1,,,,,ベアーフルーツ,0
464,2330001033352,新規,0,2025-07-04,2025-07-04,城西工業株式会社,,株式会社,熊本県,宇城市,三角町波多２３５番地１,,43,213,8693205,,,,,,,2025-07-04,1,,,,,ジョウセイコウギョウ,0
465,2330001033360,新規,0,2025-07-04,2025-07-04,株式会社くまもと坂井農園,,株式会社,熊本県,菊池市,七城町橋田１１５番地３,,43,210,8611346,,,,,,,2025-07-04,1,,,,,クマモトサカイノウエン,0
466,2330001033369,新規,0,2025-07-04,2025-07-04,株式会社スケールカンパニー,,株式会社,熊本県,山鹿市,鍋田１７８番地１,,43,208,8610541,,,,,,,2025-07-04,1,,,,,スケールカンパニー,0
468,2340001027477,新規,0,2025-07-04,2025-07-04,株式会社Ａ．ｏｎｅ,,株式会社,鹿児島県,鹿屋市,川西町４４８２番地１２,,46,203,8930032,,,,,,,2025-07-04,1,,,,,エーワン,0
469,2340001027485,新規,0,2025-07-04,2025-07-04,株式会社ｌｉｏｎ,,株式会社,鹿児島県,鹿児島市,石谷町６４６番地７,,46,201,8992701,,,,,,,2025-07-04,1,,,,,ライオン,0
471,2340003004887,新規,0,2025-07-04,2025-07-04,輪合同会社,,合同会社,鹿児島県,伊佐市,菱刈荒田４１１４番地２,,46,224,8952811,,,,,,,2025-07-04,1,,,,,リン,0
474,2360001035412,新規,0,2025-07-04,2025-07-04,ふうがあい株式会社,,株式会社,沖縄県,那覇市,久茂地２丁目２－２,,47,201,9000015,,,,,,,2025-07-04,1,,,,,フウガアイ,0
476,2360003015057,新規,0,2025-07-04,2025-07-04,合同会社Ｔｒａｄｅ　Ｌｉｆｅ,,合同会社,沖縄県,中頭郡中城村,字屋宜１６３番地,,47,328,9012405,,,,,,,2025-07-04,1,,,,,トレードライフ,0
486,2390001018042,新規,0,2025-07-04,2025-07-04,株式会社医光ケアハート,,株式会社,山形県,山形市,大字鮨洗４６０番地６アヴァンシーＢ号室,,06,201,9900884,,,,,,,2025-07-04,1,,,,,イコウケアハート,0
487,2390003002416,新規,0,2025-07-04,2025-07-04,合同会社加藤ライス,,合同会社,山形県,鶴岡市,古郡字長堰１３番地,,06,203,9997671,,,,,,,2025-07-04,1,,,,,カトウライス,0
488,2400003003494,新規,0,2025-07-04,2025-07-04,八幡平合同会社,,合同会社,岩手県,八幡平市,帷子第８地割４２番地１,,03,214,0287402,,,,,,,2025-07-04,1,,,,,ハチマンタイ,0
490,2410001014212,新規,0,2025-07-04,2025-07-04,株式会社秋菜,,株式会社,秋田県,秋田市,土崎港北２丁目１２番１９号,,05,201,0110941,,,,,,,2025-07-04,1,,,,,シュウサイ,0
495,2420001019202,新規,0,2025-07-04,2025-07-04,株式会社花木,,株式会社,青森県,青森市,古川２丁目１番８号,,02,201,0300862,,,,,,,2025-07-04,1,,,,,カボク,0
497,2430003017830,新規,0,2025-07-04,2025-07-04,合同会社生活支援組合,,合同会社,北海道,札幌市中央区,南八条西４丁目４２２番地４１オリエンタルエミネンス４０１号室,,01,101,0640808,,,,,,,2025-07-04,1,,,,,セイカツシエンクミアイ,0
501,2500001026396,新規,0,2025-07-04,2025-07-04,株式会社コロンボ,,株式会社,愛媛県,新居浜市,船木甲４５８９番地,,38,205,7920856,,,,,,,2025-07-04,1,,,,,コロンボ,0
509,3010001256414,新規,0,2025-07-04,2025-07-04,株式会社スペースクリエーション,,株式会社,東京都,中央区,八丁堀２丁目３０番１５号,,13,102,1040032,,,,,,,2025-07-04,1,,,,,スペースクリエーション,0
510,3010001256439,新規,0,2025-07-04,2025-07-04,株式会社ＺｅｒｏＭａｐ　Ｓｔｕｄｉｏ,,株式会社,東京都,千代田区,神田佐久間町２丁目１番地大原ビル３階,,13,101,1010025,,,,,,,2025-07-04,1,,,,,ゼロマップスタジオ,0
511,3010001256455,新規,0,2025-07-04,2025-07-04,株式会社ＡＧ,,株式会社,東京都,中央区,日本橋蛎殻町２丁目１１番３号,,13,102,1030014,,,,,,,2025-07-04,1,,,,,エージー,0
512,3010001256546,新規,0,2025-07-04,2025-07-04,株式会社ベテルギウス,,株式会社,東京都,中央区,築地２丁目７番１２号１５山京ビル１００５号,,13,102,1040045,,,,,,,2025-07-04,1,,,,,ベテルギウス,0
513,3010003047919,新規,0,2025-07-04,2025-07-04,春山珠室合同会社,,合同会社,東京都,中央区,銀座１丁目１２番４号Ｎ＆Ｅ・ＢＬＤ．６Ｆ,,13,102,1040061,,,,,,,2025-07-04,1,,,,,タマムロ,0
514,3010003047927,新規,0,2025-07-04,2025-07-04,ＨＭＰ４合同会社,,合同会社,東京都,千代田区,丸の内１丁目４番１号東京共同会計事務所内,,13,101,1000005,,,,,,,2025-07-04,1,,,,,エイチエムピーフォー,0
516,3010005040285,新規,0,2025-07-04,2025-07-04,一般社団法人再生可能エネルギーインベストメント,,その他の設立登記法人,東京都,中央区,京橋２丁目２番１号京橋エドグラン,,13,102,1040031,,,,,,,2025-07-04,1,,,,,サイセイカノウエネルギーインベストメント,0
521,3010401191392,新規,0,2025-07-04,2025-07-04,株式会社ＭＩＬＥＺ,,株式会社,東京都,港区,赤坂３丁目８－８,,13,103,1070052,,,,,,,2025-07-04,1,,,,,マイルズ,0
522,3010403035523,新規,0,2025-07-04,2025-07-04,合同会社Ｅｃｃｅｎｔｒｉｃ,,合同会社,東京都,港区,新橋４丁目１４番１新橋ＡＵＮＢＬＤＧ４階,,13,103,1050004,,,,,,,2025-07-04,1,,,,,エキセントリック,0
523,3010501054359,新規,0,2025-07-04,2025-07-04,グローバル・ロジスティックス・サービス株式会社,,株式会社,東京都,台東区,東上野２丁目２番１号品田ビル３階,,13,106,1100015,,,,,,,2025-07-04,1,,,,,グローバルロジスティックスサービス,0
524,3010601067558,新規,0,2025-07-04,2025-07-04,株式会社ＦＰＨ,,株式会社,東京都,墨田区,両国４丁目１９－７－４Ｆ,,13,107,1300026,,,,,,,2025-07-04,1,,,,,エフピーエイチ,0
526,3010701047914,新規,0,2025-07-04,2025-07-04,株式会社開花,,株式会社,東京都,品川区,西大井２丁目４番８号オーキッドレジデンス西大井６０２,,13,109,1400015,,,,,,,2025-07-04,1,,,,,カイカ,0
531,3011001170514,新規,0,2025-07-04,2025-07-04,株式会社ＴｉｋＳｅｅｋ,,株式会社,東京都,渋谷区,道玄坂１丁目１０番８号渋谷道玄坂東急ビル２Ｆ－Ｃ,,13,113,1500043,,,,,,,2025-07-04,1,,,,,ティックシーク,0
532,3011001170670,新規,0,2025-07-04,2025-07-04,ＢｌｏｃｋＨｕｂ株式会社,,株式会社,東京都,渋谷区,道玄坂１丁目１０番８号渋谷道玄坂東急ビル２Ｆ－Ｃ,,13,113,1500043,,,,,,,2025-07-04,1,,,,,ブロックハブ,0
533,3011001170984,新規,0,2025-07-04,2025-07-04,株式会社ＣａｒｅｅｒＳｔａｒｔｓ,,株式会社,東京都,目黒区,下目黒１丁目８－１アルコタワー７階,,13,110,1530064,,,,,,,2025-07-04,1,,,,,キャリアスターツ,0
541,3011101112390,新規,0,2025-07-04,2025-07-04,株式会社ラボコート,,株式会社,東京都,新宿区,新宿２丁目１２－１３新宿アントレサロンビル２Ｆ,,13,104,1600022,,,,,,,2025-07-04,1,,,,,ラボコート,0
542,3011203004750,新規,0,2025-07-04,2025-07-04,Ｋコンサルティング＆アーツ合同会社,,合同会社,東京都,中野区,丸山１丁目２６番１２号,,13,114,1650021,,,,,,,2025-07-04,1,,,,,ケイコンサルティングアンドアーツ,0
544,3011603004755,新規,0,2025-07-04,2025-07-04,日昇才匠合同会社,,合同会社,東京都,練馬区,春日町６丁目１６番１１号フォーチュン光が丘２２３号,,13,120,1790074,,,,,,,2025-07-04,1,,,,,ニッショウサイショウ,0
548,3011701028508,新規,0,2025-07-04,2025-07-04,株式会社啓誠アセット,,株式会社,東京都,江戸川区,西葛西２丁目２２番４５‐３２１,,13,123,1340088,,,,,,,2025-07-04,1,,,,,ケイセイアセット,0
551,3012301014427,新規,0,2025-07-04,2025-07-04,株式会社カナインズ,,株式会社,東京都,町田市,本町田７２番地公社住宅イ６１２,,13,209,1940032,,,,,,,2025-07-04,1,,,,,カナインズ,0
552,3012301014451,新規,0,2025-07-04,2025-07-04,株式会社ＲＹ　Ｃａｐｉｔａｌ,,株式会社,東京都,町田市,鶴間４丁目８番１－６０７号,,13,209,1940004,,,,,,,2025-07-04,1,,,,,アールワイキャピタル,0
555,3012401043292,新規,0,2025-07-04,2025-07-04,株式会社ユタニ,,株式会社,東京都,三鷹市,牟礼４丁目６番１３号,,13,204,1810002,,,,,,,2025-07-04,1,,,,,ユタニ,0
558,3012803003786,新規,0,2025-07-04,2025-07-04,合同会社ＩＡＭＯ,,合同会社,東京都,立川市,柴崎町４丁目２１番３３号,,13,202,1900023,,,,,,,2025-07-04,1,,,,,イアモ,0
562,3013301054396,新規,0,2025-07-04,2025-07-04,株式会社今生,,株式会社,東京都,豊島区,南池袋３丁目１８番４３号内山ビル１階,,13,116,1710022,,,,,,,2025-07-04,1,,,,,コンジョウ,0
563,3013301054561,新規,0,2025-07-04,2025-07-04,株式会社クラフト会計,,株式会社,東京都,豊島区,池袋１丁目１３－１８,,13,116,1700014,,,,,,,2025-07-04,1,,,,,クラフトカイケイ,0
567,3020001163683,新規,0,2025-07-04,2025-07-04,株式会社コトプロ,,株式会社,神奈川県,川崎市中原区,今井南町１８番３２号,,14,133,2110064,,,,,,,2025-07-04,1,,,,,コトプロ,0
568,3020001163733,新規,0,2025-07-04,2025-07-04,ＪｏｕｌＷａｔｔ　Ｔｅｃｈｎｏｌｏｇｙ　Ｊａｐａｎ株式会社,,株式会社,神奈川県,横浜市西区,みなとみらい４丁目４－２－１２Ｆ,,14,103,2200012,,,,,,,2025-07-04,1,,,,,ジュールワットテクノロジージャパン,0
569,3020001163774,新規,0,2025-07-04,2025-07-04,株式会社メゾンドメール,,株式会社,神奈川県,横浜市都筑区,牛久保東１丁目３６番２４号,,14,118,2240014,,,,,,,2025-07-04,1,,,,,メゾンドメール,0
571,3020003028868,新規,0,2025-07-04,2025-07-04,合同会社８体質遺伝子ラボ,,合同会社,神奈川県,横浜市港北区,新横浜２丁目３番地１２新横浜スクエアビル１４Ｆ,,14,109,2220033,,,,,,,2025-07-04,1,,,,,ハチタイシツイデンシラボ,0
575,3021001085678,新規,0,2025-07-04,2025-07-04,株式会社ブラックワンダー,,株式会社,神奈川県,平塚市,高根１丁目１２番３０号,,14,203,2540912,,,,,,,2025-07-04,1,,,,,ブラックワンダー,0
583,3030001167345,新規,0,2025-07-04,2025-07-04,伊隠株式会社,,株式会社,埼玉県,さいたま市岩槻区,加倉５丁目１３－７７,,11,110,3390056,,,,,,,2025-07-04,1,,,,,イイン,0
584,3030001167428,新規,0,2025-07-04,2025-07-04,株式会社Ｐｅｃｈｅ,,株式会社,埼玉県,草加市,高砂２丁目３番１９号パストラーレ１０２,,11,221,3400015,,,,,,,2025-07-04,1,,,,,ペシェ,0
585,3030001167436,新規,0,2025-07-04,2025-07-04,道免株式会社,,株式会社,埼玉県,八潮市,大字大瀬２２５番地,,11,234,3400822,,,,,,,2025-07-04,1,,,,,ドウメン,0
586,3030001167444,新規,0,2025-07-04,2025-07-04,株式会社豊笑,,株式会社,埼玉県,加須市,新川通３４４番地,,11,210,3491153,,,,,,,2025-07-04,1,,,,,ホウショウ,0
587,3030001167452,新規,0,2025-07-04,2025-07-04,株式会社エステート池ノ谷,,株式会社,埼玉県,所沢市,大字山口１１６０番地の１,,11,208,3591145,,,,,,,2025-07-04,1,,,,,エステートイケノヤ,0
588,3030001167477,新規,0,2025-07-04,2025-07-04,サーキュライン株式会社,,株式会社,埼玉県,児玉郡神川町,大字元原２８５番８号－１階,,11,383,3670241,,,,,,,2025-07-04,1,,,,,サーキュライン,0
592,3030003027118,新規,0,2025-07-04,2025-07-04,合同会社南鳩ヶ谷キャピタル,,合同会社,埼玉県,川口市,南鳩ヶ谷１丁目３２番８号,,11,203,3340013,,,,,,,2025-07-04,1,,,,,ミナミハトガヤキャピタル,0
593,3030003027126,新規,0,2025-07-04,2025-07-04,合同会社トレンドシステムズ,,合同会社,埼玉県,さいたま市浦和区,木崎５丁目１５番４号,,11,107,3300042,,,,,,,2025-07-04,1,,,,,トレンドシステムズ,0
594,3030003027150,新規,0,2025-07-04,2025-07-04,合同会社スバル,,合同会社,埼玉県,八潮市,八潮１丁目１７番地１４秋元コーポ１０３,,11,234,3400815,,,,,,,2025-07-04,1,,,,,スバル,0
597,3040001139459,新規,0,2025-07-04,2025-07-04,ＩＴＡＫＡマテリアル株式会社,,株式会社,千葉県,柏市,柏インター南９番地３,,12,217,2770874,,,,,,,2025-07-04,1,,,,,イタカマテリアル,0
600,3040003027967,新規,0,2025-07-04,2025-07-04,合同会社メガ電気,,合同会社,千葉県,船橋市,上山町３丁目６１０番地５７,,12,204,2730046,,,,,,,2025-07-04,1,,,,,メガデンキ,0
603,3050001056901,新規,0,2025-07-04,2025-07-04,株式会社ビーグループ,,株式会社,茨城県,神栖市,木崎２３９８番地４木内店舗Ｄ１号,,08,232,3140127,,,,,,,2025-07-04,1,,,,,ビーグループ,0
604,3050003009403,新規,0,2025-07-04,2025-07-04,合同会社ＡＣサポート,,合同会社,茨城県,日立市,久慈町１丁目１２番６号,,08,202,3191222,,,,,,,2025-07-04,1,,,,,エーシーサポート,0
605,3050003009411,新規,0,2025-07-04,2025-07-04,天翔合同会社,,合同会社,茨城県,常総市,中妻町２６６９番地２,,08,211,3002505,,,,,,,2025-07-04,1,,,,,テンショウ,0
606,3060005010358,新規,0,2025-07-04,2025-07-04,一般社団法人ファームかしの森,,その他の設立登記法人,栃木県,芳賀郡芳賀町,大字下高根沢４５１７番地１,,09,345,3213321,,,,,,,2025-07-04,1,,,,,ファームカシノモリ,0
607,3070001043096,新規,0,2025-07-04,2025-07-04,株式会社リュミエール,,株式会社,群馬県,太田市,本町４４番５－８０２号,,10,205,3730057,,,,,,,2025-07-04,1,,,,,リュミエール,0
608,3070003005986,新規,0,2025-07-04,2025-07-04,Ｔｈａｉ　ｐｒｏｄｕｃｔ　ｃｏｍｐａｎｙ合同会社,,合同会社,群馬県,高崎市,大八木町５７０‐１ダイエイビル２階北号室,,10,202,3700072,,,,,,,2025-07-04,1,,,,,タイプロダクトカンパニー,0
609,3080001027016,新規,0,2025-07-04,2025-07-04,株式会社カノープス,,株式会社,静岡県,静岡市清水区,興津中町９９番地の２,,22,103,4240204,,,,,,,2025-07-04,1,,,,,カノープス,0
611,3080101025596,新規,0,2025-07-04,2025-07-04,株式会社ＦＩＢ　ＪＡＰＡＮ,,株式会社,静岡県,沼津市,大岡８５５番地の３１ｇａｒａｇｅｈｏｕｓｅＮ－ＩＩＩ,00139794,22,203,4100022,,,,,,,2025-07-04,1,,,,,エフアイビージャパン,0
612,3080101025613,新規,0,2025-07-04,2025-07-04,好建業株式会社,,株式会社,静岡県,沼津市,大平８７５番地,,22,203,4100821,,,,,,,2025-07-04,1,,,,,ヨシケンギョウ,0
615,3080401028010,新規,0,2025-07-04,2025-07-04,株式会社廣昇,,株式会社,静岡県,袋井市,見取６１０番地,,22,216,4370005,,,,,,,2025-07-04,1,,,,,コウショウ,0
627,3120001277440,新規,0,2025-07-04,2025-07-04,株式会社ＳＵＩ,,株式会社,大阪府,大阪市大正区,千島１丁目１１番１４号,,27,108,5510003,,,,,,,2025-07-04,1,,,,,スイ,0
628,3120001277449,新規,0,2025-07-04,2025-07-04,勇達行株式会社,,株式会社,大阪府,大阪市住吉区,墨江２丁目１番４－４０１号室,,27,120,5580043,,,,,,,2025-07-04,1,,,,,ユウタツギョウ,0
629,3120001277457,新規,0,2025-07-04,2025-07-04,品正株式会社,,株式会社,大阪府,大阪市西成区,萩之茶屋２丁目６番４号－１８５号,,27,122,5570004,,,,,,,2025-07-04,1,,,,,ヒンセイ,0
630,3120001277481,新規,0,2025-07-04,2025-07-04,株式会社ＮＥＷ　ＭＯＲＥ,,株式会社,大阪府,大阪市生野区,舎利寺２丁目９番３号,,27,116,5440022,,,,,,,2025-07-04,1,,,,,ニューモア,0
631,3120001277498,新規,0,2025-07-04,2025-07-04,株式会社ケイツーホールディングス,,株式会社,大阪府,大阪市淀川区,西中島１丁目９番１３号,,27,123,5320011,,,,,,,2025-07-04,1,,,,,ケイツーホールディングス,0
632,3120003029897,新規,0,2025-07-04,2025-07-04,合同会社コンコルディア,,合同会社,大阪府,大阪市北区,浮田１丁目１－１５,,27,127,5300021,,,,,,,2025-07-04,1,,,,,コンコルディア,0
633,3120003029914,新規,0,2025-07-04,2025-07-04,合同会社Ｆｌｏｍｏｒ,,合同会社,大阪府,大阪市福島区,福島２丁目１０番１９号,,27,103,5530003,,,,,,,2025-07-04,1,,,,,フロモール,0
634,3120101071999,新規,0,2025-07-04,2025-07-04,株式会社ちんざん,,株式会社,大阪府,藤井寺市,沢田２丁目２番１号,,27,226,5830011,,,,,,,2025-07-04,1,,,,,チンザン,0
635,3120101072031,新規,0,2025-07-04,2025-07-04,株式会社ＲＡＹＪＯＨＮ,,株式会社,大阪府,貝塚市,小瀬５４９番地１７,,27,208,5970021,,,,,,,2025-07-04,1,,,,,レイジョン,0
636,3120103006549,新規,0,2025-07-04,2025-07-04,冠哲合同会社,,合同会社,大阪府,岸和田市,天神山町２丁目９番６号２０１号室,,27,202,5960834,,,,,,,2025-07-04,1,,,,,カンテツ,0
639,3120903005741,新規,0,2025-07-04,2025-07-04,合同会社Ｅｓｓｅｎｔｉａｌ　Ｓｋｉｌｌｓ,,合同会社,大阪府,豊中市,上津島２丁目９番３１－１０２号,,27,203,5610843,,,,,,,2025-07-04,1,,,,,エッセンシャルスキルズ,0
658,3160003003535,新規,0,2025-07-04,2025-07-04,合同会社はち,,合同会社,滋賀県,大津市,真野６丁目４番２１号,,25,201,5200232,,,,,,,2025-07-04,1,,,,,ハチ,0
660,3180001167495,新規,0,2025-07-04,2025-07-04,株式会社Ｕｎｓｔｏｐｐａｂｌｅ,,株式会社,愛知県,尾張旭市,井田町４丁目１４０番地,,23,226,4880024,,,,,,,2025-07-04,1,,,,,アンストッパブル,0
661,3180001167520,新規,0,2025-07-04,2025-07-04,株式会社Ｈａｒｖｉｏｎ,,株式会社,愛知県,稲沢市,中之庄町高上１番地９７,,23,220,4928435,,,,,,,2025-07-04,1,,,,,ハービオン,0
662,3180001167553,新規,0,2025-07-04,2025-07-04,株式会社原塗装,,株式会社,愛知県,豊明市,栄町西大根３０番地３３,,23,229,4701167,,,,,,,2025-07-04,1,,,,,ハラトソウ,0
663,3180001167561,新規,0,2025-07-04,2025-07-04,株式会社ＤＭＳ,,株式会社,愛知県,名古屋市中川区,打中２丁目２１２番地１,,23,110,4540927,,,,,,,2025-07-04,1,,,,,ディーエムエス,0
665,3180003028695,新規,0,2025-07-04,2025-07-04,ＦＴＤエンジニアリング合同会社,,合同会社,愛知県,あま市,本郷四反田５０,,23,237,4901116,,,,,,,2025-07-04,1,,,,,エフティーディーエンジニアリング,0
671,3180301039956,新規,0,2025-07-04,2025-07-04,株式会社大村建設,,株式会社,愛知県,蒲郡市,五井町古道４９番地２,,23,214,4430003,,,,,,,2025-07-04,1,,,,,オオムラケンセツ,0
673,3190003005099,新規,0,2025-07-04,2025-07-04,ＫＫＰ合同会社,,合同会社,三重県,四日市市,元町７番８号元町エスティー２０３,,24,202,5100088,,,,,,,2025-07-04,1,,,,,ケーケーピー,0
675,3200001043958,新規,0,2025-07-04,2025-07-04,株式会社ＣｏｒｅＡｌｉｚｅ,,株式会社,岐阜県,岐阜市,溝口童子６７番地２０２号室,,21,201,5012554,,,,,,,2025-07-04,1,,,,,コアライズ,0
678,3220001026787,新規,0,2025-07-04,2025-07-04,株式会社Ｓｔｅｅｌ　ｄｅｓｉｇｎ,,株式会社,石川県,小松市,長崎町２丁目８番地,,17,203,9230004,,,,,,,2025-07-04,1,,,,,スチールデザイン,0
683,3230001020987,新規,0,2025-07-04,2025-07-04,株式会社ＩＲＯＮ　ＦＡＲＭ,,株式会社,富山県,富山市,水橋小出２６４番地,,16,201,9390553,,,,,,,2025-07-04,1,,,,,アイアンファーム,0
686,3240001065164,新規,0,2025-07-04,2025-07-04,株式会社ジィプラス,,株式会社,広島県,広島市安佐南区,八木５丁目７番２６－８０３号,,34,105,7310101,,,,,,,2025-07-04,1,,,,,ジィプラス,0
691,3260001040322,新規,0,2025-07-04,2025-07-04,株式会社Ｓｅｖｅｎ,,株式会社,岡山県,岡山市北区,春日町７番１６号,,33,101,7000905,,,,,,,2025-07-04,1,,,,,セブン,0
694,3280001009456,新規,0,2025-07-04,2025-07-04,ＨＩＫＡＲＵＫＥＮＳＥＴＳＵ株式会社,,株式会社,島根県,松江市,東出雲町揖屋２７２８番地５７,,32,201,6990101,,,,,,,2025-07-04,1,,,,,ヒカルケンセツ,0
695,3280003001964,新規,0,2025-07-04,2025-07-04,合同会社ふるふる,,合同会社,島根県,出雲市,枝大津町１０番地３レジデンス枝大津２０１,,32,203,6930017,,,,,,,2025-07-04,1,,,,,フルフル,0
703,3290001110493,新規,0,2025-07-04,2025-07-04,株式会社Ｇｒａｎｔ,,株式会社,福岡県,福岡市博多区,博多駅前２丁目１番１号福岡朝日ビル１階,,40,132,8120011,,,,,,,2025-07-04,1,,,,,グラント,0
704,3290001110675,新規,0,2025-07-04,2025-07-04,コンサルＵＰ株式会社,,株式会社,福岡県,福岡市中央区,天神３丁目１６－１７イエローベース天神３Ｆ,,40,133,8100001,,,,,,,2025-07-04,1,,,,,コンサルアップ,0
708,3290005019789,新規,0,2025-07-04,2025-07-04,一般社団法人地域包括ケア推進支援機構,,その他の設立登記法人,福岡県,福岡市中央区,輝国２丁目２４番２５－４１０号,,40,133,8100032,,,,,,,2025-07-04,1,,,,,チイキホウカツケアスイシンシエンキコウ,0
710,3300001014255,新規,0,2025-07-04,2025-07-04,株式会社想い家,,株式会社,佐賀県,伊万里市,東山代町長浜１２６２番地７グリーンタウン長浜５号,,41,205,8494271,,,,,,,2025-07-04,1,,,,,オモイヤ,0
713,3330003011082,新規,0,2025-07-04,2025-07-04,合同会社西村鈑金,,合同会社,熊本県,山鹿市,鹿央町千田１６９６番地,,43,208,8610563,,,,,,,2025-07-04,1,,,,,ニシムラバンキン,0
715,3340001027484,新規,0,2025-07-04,2025-07-04,株式会社新栄製作所,,株式会社,鹿児島県,霧島市,国分郡田３８１３番地,,46,218,8994305,,,,,,,2025-07-04,1,,,,,シンエイセイサクショ,0
717,3340003004886,新規,0,2025-07-04,2025-07-04,アグリライズ合同会社,,合同会社,鹿児島県,肝属郡錦江町,馬場４４９２番地１,,46,490,8932303,,,,,,,2025-07-04,1,,,,,アグリライズ,0
721,3350001019621,新規,0,2025-07-04,2025-07-04,株式会社一政商事,,株式会社,宮崎県,宮崎市,阿波岐原町坂元１９１４番地２,,45,201,8800835,,,,,,,2025-07-04,1,,,,,イチマサショウジ,0
724,3370001052769,新規,0,2025-07-04,2025-07-04,今野エンジニアリング株式会社,,株式会社,宮城県,塩竈市,清水沢３丁目２２番１０号,,04,203,9850061,,,,,,,2025-07-04,1,,,,,コンノエンジニアリング,0
725,3370001052785,新規,0,2025-07-04,2025-07-04,株式会社ｒｅｖｅ,,株式会社,宮城県,仙台市青葉区,山手町１８番４０号アグレアーブル山手町１０６,,04,101,9810967,,,,,,,2025-07-04,1,,,,,レーヴ,0
726,3370001052793,新規,0,2025-07-04,2025-07-04,株式会社Ｆ‐ＮＥＸＴ,,株式会社,宮城県,仙台市太白区,長町７丁目２４番５３号,,04,104,9820011,,,,,,,2025-07-04,1,,,,,エフネクスト,0
731,3370003007176,新規,0,2025-07-04,2025-07-04,合同会社ヨネカワ,,合同会社,宮城県,登米市,東和町米川字東上沢３６１番地２,,04,212,9870901,,,,,,,2025-07-04,1,,,,,ヨネカワ,0
747,3430001094755,新規,0,2025-07-04,2025-07-04,小澤リフォーム株式会社,,株式会社,北海道,札幌市東区,北三十九条東６丁目２番１４号,,01,103,0070839,,,,,,,2025-07-04,1,,,,,オザワリフォーム,0
748,3430001094763,新規,0,2025-07-04,2025-07-04,株式会社アーバレスト,,株式会社,北海道,札幌市東区,北十三条東２丁目１番２０－１５０１号,,01,103,0650013,,,,,,,2025-07-04,1,,,,,アーバレスト,0
750,3430003017722,新規,0,2025-07-04,2025-07-04,合同会社船免,,合同会社,北海道,札幌市南区,石山二条４丁目１－３６,,01,106,0050842,,,,,,,2025-07-04,1,,,,,フネメン,0
751,3430003017821,新規,0,2025-07-04,2025-07-04,誠蓮工業合同会社,,合同会社,北海道,苫小牧市,ウトナイ北１０丁目１３番８号,,01,213,0591306,,,,,,,2025-07-04,1,,,,,セイレンコウギョウ,0
761,3700150131323,新規,0,2025-07-04,2025-07-04,ＹＯＫＯＨＡＭＡ　ＭＩＴＳＵＩ　ＥＮＴＥＲＰＲＩＳＥＳ,,外国会社等,千葉県,香取郡多古町,出沼１５６－４７,,12,347,2892301,スリランカ民主社会主義共和国、Ｎｏ．５８／１４Ａ、イッバガムワ、バクリゴッラ、グリーンベレイワッタ,,,,,,2025-07-04,1,,,,,ヨコハマミツイエンタープライセス,0
770,4010003047463,新規,0,2025-07-04,2025-07-04,合同会社ＮＢＯＬＴ,,合同会社,東京都,千代田区,岩本町１丁目１１－８１０１,,13,101,1010032,,,,,,,2025-07-04,1,,,,,エヌボルト,0
771,4010003047926,新規,0,2025-07-04,2025-07-04,ＨＭＰ３合同会社,,合同会社,東京都,千代田区,丸の内１丁目４番１号東京共同会計事務所内,,13,101,1000005,,,,,,,2025-07-04,1,,,,,エイチエムピースリー,0
772,4010005040301,新規,0,2025-07-04,2025-07-04,一般社団法人ＧＳＩ　Ｈａｋｏｄａｔｅ,,その他の設立登記法人,東京都,中央区,日本橋１丁目４番１号日本橋一丁目ビルディング,,13,102,1030027,,,,,,,2025-07-04,1,,,,,ジーエスアイハコダテ,0
782,4010401191425,新規,0,2025-07-04,2025-07-04,マギテック株式会社,,株式会社,東京都,港区,西新橋３丁目２４番９号飯田ビル,,13,103,1050003,,,,,,,2025-07-04,1,,,,,マギテック,0
783,4010401191433,新規,0,2025-07-04,2025-07-04,ＲＵＫ株式会社,,株式会社,東京都,港区,新橋４丁目１４番１号新橋ＡＵＮＢＬＤＧ．４階,,13,103,1050004,,,,,,,2025-07-04,1,,,,,ルーク,0
784,4010401191474,新規,0,2025-07-04,2025-07-04,株式会社パンセ小山,,株式会社,東京都,港区,芝４丁目６番４号,,13,103,1080014,,,,,,,2025-07-04,1,,,,,パンセコヤマ,0
785,4010401191482,新規,0,2025-07-04,2025-07-04,株式会社ＧＵＮＪＩ,,株式会社,東京都,港区,高輪２丁目１６番３８－５０１号,,13,103,1080074,,,,,,,2025-07-04,1,,,,,グンジ,0
789,4010601067565,新規,0,2025-07-04,2025-07-04,株式会社Ｖｉｎｏ　Ｃｏｍｏ,,株式会社,東京都,江東区,亀戸１丁目３８番６－４０２号,,13,108,1360071,,,,,,,2025-07-04,1,,,,,ヴィノコモ,0
797,4010901057679,新規,0,2025-07-04,2025-07-04,株式会社ワイ・ユニテ,,株式会社,東京都,世田谷区,新町２丁目２２番１６号ＲｙｏＡｖｅ．Ｃ０２,,13,112,1540014,,,,,,,2025-07-04,1,,,,,ワイユニテ,0
798,4010901057687,新規,0,2025-07-04,2025-07-04,株式会社ｎｏｂａｄｙ,,株式会社,東京都,世田谷区,野毛３丁目１３番１６号,,13,112,1580092,,,,,,,2025-07-04,1,,,,,ノーバディ,0
811,4011001170496,新規,0,2025-07-04,2025-07-04,株式会社トライフォード,,株式会社,東京都,渋谷区,桜丘町２３番１７号シティコート桜丘４０８,,13,113,1500031,,,,,,,2025-07-04,1,,,,,トライフォード,0
812,4011001170703,新規,0,2025-07-04,2025-07-04,ｎａｎｏ　ｆａｍｅ株式会社,,株式会社,東京都,渋谷区,初台１丁目１８番３号初台佐藤ビル３３０,,13,113,1510061,,,,,,,2025-07-04,1,,,,,ナノフェイム,0
813,4011001170819,新規,0,2025-07-04,2025-07-04,Ｔｏｋｙｏ　Ｇｌｏｃａｌ　Ｅｄｇｅ株式会社,,株式会社,東京都,渋谷区,南平台１６番２８号Ｄａｉｗａ渋谷スクエア６Ｆ,,13,113,1500000,,,,,,,2025-07-04,1,,,,,トーキョーグローカルエッジ,0
817,4011003021887,新規,0,2025-07-04,2025-07-04,壱番合同会社,,合同会社,東京都,渋谷区,上原２丁目４８番１２号東洋代々木上原コーポ２０１,,13,113,1510064,,,,,,,2025-07-04,1,,,,,イチバン,0
822,4011101112316,新規,0,2025-07-04,2025-07-04,株式会社木子,,株式会社,東京都,新宿区,大久保１丁目１２番地３号カーサ第二新宿７０７号室,,13,104,1690072,,,,,,,2025-07-04,1,,,,,キコ,0
823,4011101112332,新規,0,2025-07-04,2025-07-04,株式会社つむぐ,,株式会社,東京都,新宿区,西新宿３丁目３番１３号西新宿水間ビル６階,,13,104,1600023,,,,,,,2025-07-04,1,,,,,ツムグ,0
825,4011103016085,新規,0,2025-07-04,2025-07-04,合同会社ミックハウス,,合同会社,東京都,新宿区,西落合１丁目１７－８,,13,104,1610031,,,,,,,2025-07-04,1,,,,,ミックハウス,0
830,4011403004748,新規,0,2025-07-04,2025-07-04,合同会社彩和プランニング,,合同会社,東京都,板橋区,西台２丁目７番８号,,13,119,1750045,,,,,,,2025-07-04,1,,,,,サイワプランニング,0
831,4011503006603,新規,0,2025-07-04,2025-07-04,亜細亜企画合同会社,,合同会社,東京都,荒川区,南千住１丁目４５－１０,,13,118,1160003,,,,,,,2025-07-04,1,,,,,アジアキカク,0
832,4011601028771,新規,0,2025-07-04,2025-07-04,株式会社Ｇｏｉｎｇ,,株式会社,東京都,練馬区,練馬１丁目２０番８号日建練馬ビル２Ｆ,,13,120,1760001,,,,,,,2025-07-04,1,,,,,ゴーイング,0
835,4011603004754,新規,0,2025-07-04,2025-07-04,合同会社Ｄｅｗｄｒｏｐ,,合同会社,東京都,練馬区,中村南１丁目２２番８－７０２号,,13,120,1760025,,,,,,,2025-07-04,1,,,,,デュードロップ,0
838,4011801046383,新規,0,2025-07-04,2025-07-04,豊和饗株式会社,,株式会社,東京都,葛飾区,東新小岩３丁目８－５－６０７,,13,122,1240023,,,,,,,2025-07-04,1,,,,,ホウワキョウ,0
839,4011801046400,新規,0,2025-07-04,2025-07-04,株式会社サンクレイン,,株式会社,東京都,葛飾区,堀切４丁目６３番３号,,13,122,1240006,,,,,,,2025-07-04,1,,,,,サンクレイン,0
840,4011801046409,新規,0,2025-07-04,2025-07-04,株式会社ディベスタ,,株式会社,東京都,葛飾区,鎌倉４丁目１７番１－８０５号,,13,122,1250053,,,,,,,2025-07-04,1,,,,,ディベスタ,0
841,4012303002189,新規,0,2025-07-04,2025-07-04,合同会社ｃｕｒａとさかずき,,合同会社,東京都,町田市,原町田４丁目５番１４号アムールＴＯＭＯ１０１,,13,209,1940013,,,,,,,2025-07-04,1,,,,,クラトサカズキ,0
848,4012403007212,新規,0,2025-07-04,2025-07-04,換気空間合同会社,,合同会社,東京都,小金井市,梶野町１丁目２－３６ＫＯ－ＴＯ,,13,210,1840002,,,,,,,2025-07-04,1,,,,,カンキクウカン,0
849,4012403007220,新規,0,2025-07-04,2025-07-04,六文銭合同会社,,合同会社,東京都,調布市,染地２丁目１８番地３８,,13,208,1820023,,,,,,,2025-07-04,1,,,,,ロクモンセン,0
850,4012701018951,新規,0,2025-07-04,2025-07-04,株式会社Ｆ２ＨＩＲＯ,,株式会社,東京都,小平市,仲町４６２番地の２デュエット小平２０２,,13,211,1870042,,,,,,,2025-07-04,1,,,,,エフツーヒロ,0
852,4012801024081,新規,0,2025-07-04,2025-07-04,株式会社灯火,,株式会社,東京都,昭島市,玉川町１丁目１番９号タクミビル４Ｂ,,13,207,1960034,,,,,,,2025-07-04,1,,,,,トモシビ,0
856,4013301054552,新規,0,2025-07-04,2025-07-04,株式会社ライブテック,,株式会社,東京都,豊島区,東池袋２丁目６２番８号ＢＩＧオフィスプラザ池袋１２０６,,13,116,1700013,,,,,,,2025-07-04,1,,,,,ライブテック,0
859,4020001163550,新規,0,2025-07-04,2025-07-04,株式会社ＮｏＷａｙ　Ｃｒｅａｔｅ,,株式会社,神奈川県,川崎市麻生区,はるひ野５丁目１２－５,,14,137,2150036,,,,,,,2025-07-04,1,,,,,ノーウェイクリエイト,0
860,4020001163658,新規,0,2025-07-04,2025-07-04,株式会社アスライト,,株式会社,神奈川県,川崎市多摩区,菅馬場２丁目１３番３３－３号,,14,135,2140004,,,,,,,2025-07-04,1,,,,,アスライト,0
861,4020001163666,新規,0,2025-07-04,2025-07-04,株式会社ＩｎｆｉｎｉＳｅＫａｉ,,株式会社,神奈川県,横浜市港北区,富士塚２丁目１８番４１号,,14,109,2220012,,,,,,,2025-07-04,1,,,,,インフィニセカイ,0
862,4020001163682,新規,0,2025-07-04,2025-07-04,株式会社オウメイ装業,,株式会社,神奈川県,横浜市戸塚区,上矢部町１３９０－１日吉ビル１ＦＡ号室,,14,110,2450053,,,,,,,2025-07-04,1,,,,,オウメイソウギョウ,0
863,4020001163690,新規,0,2025-07-04,2025-07-04,株式会社グローバルリンク,,株式会社,神奈川県,川崎市多摩区,菅野戸呂３番３２号,,14,135,2140002,,,,,,,2025-07-04,1,,,,,グローバルリンク,0
864,4020001163716,新規,0,2025-07-04,2025-07-04,株式会社ファミリーＲｅ‐Ｌｉｖｅ,,株式会社,神奈川県,横浜市鶴見区,矢向６丁目１０番１８号,,14,101,2300001,,,,,,,2025-07-04,1,,,,,ファミリーリライブ,0
867,4020003028850,新規,0,2025-07-04,2025-07-04,ＤＹＣ合同会社,,合同会社,神奈川県,横浜市青葉区,あざみ野１丁目２３番１－４１０号,,14,117,2250011,,,,,,,2025-07-04,1,,,,,ディーワイシー,0
868,4020003028867,新規,0,2025-07-04,2025-07-04,ＥｎＦｉｖｅ合同会社,,合同会社,神奈川県,横浜市港北区,大曽根３丁目２番３５－１号,,14,109,2220003,,,,,,,2025-07-04,1,,,,,エンファイブ,0
882,4030001167393,新規,0,2025-07-04,2025-07-04,株式会社ストリーク,,株式会社,埼玉県,川口市,栄町３丁目１０番３号４階Ｅ号室,,11,203,3320017,,,,,,,2025-07-04,1,,,,,ストリーク,0
883,4030001167402,新規,0,2025-07-04,2025-07-04,ミライス株式会社,,株式会社,埼玉県,さいたま市南区,南浦和２丁目３６番１１号カトレヤビル６Ｆ,,11,108,3360017,,,,,,,2025-07-04,1,,,,,ミライス,0
884,4030001167419,新規,0,2025-07-04,2025-07-04,Ｃｌａｉｒ　Ｗｏｒｋｓ株式会社,,株式会社,埼玉県,さいたま市中央区,本町東６丁目５番１１号,,11,105,3380003,,,,,,,2025-07-04,1,,,,,クレアワークス,0
885,4030001167427,新規,0,2025-07-04,2025-07-04,具志堅電設株式会社,,株式会社,埼玉県,川口市,江戸袋１丁目２１番１５号,,11,203,3340075,,,,,,,2025-07-04,1,,,,,グシケンデンセツ,0
886,4030001167435,新規,0,2025-07-04,2025-07-04,株式会社ホットスタッフ所沢,,株式会社,埼玉県,入間市,東藤沢２丁目１８番２０号,,11,225,3580012,,,,,,,2025-07-04,1,,,,,ホットスタッフトコロザワ,0
887,4030001167443,新規,0,2025-07-04,2025-07-04,花美人株式会社,,株式会社,埼玉県,鴻巣市,広田３２３８番地,,11,217,3650005,,,,,,,2025-07-04,1,,,,,ハナビジン,0
888,4030001167451,新規,0,2025-07-04,2025-07-04,株式会社吉田電工,,株式会社,埼玉県,三郷市,彦成３丁目１０番１４－７０２号,,11,237,3410003,,,,,,,2025-07-04,1,,,,,ヨシダデンコウ,0
896,4030003027133,新規,0,2025-07-04,2025-07-04,合同会社ＭＫ,,合同会社,埼玉県,越谷市,南越谷１丁目２０番地５サンライズビル南越谷４Ｆ,,11,222,3430845,,,,,,,2025-07-04,1,,,,,エムケー,0
899,4040001139458,新規,0,2025-07-04,2025-07-04,株式会社アークカンパニー,,株式会社,千葉県,野田市,鶴奉３５番地,,12,208,2780003,,,,,,,2025-07-04,1,,,,,アークカンパニー,0
900,4040001139482,新規,0,2025-07-04,2025-07-04,株式会社Ａｌｌｉｑｕｅ,,株式会社,千葉県,柏市,若柴２２６番地４４中央１４１街区１ＫＯＩＬＴＥＲＲＡＣＥ６Ｆ,,12,217,2770871,,,,,,,2025-07-04,1,,,,,アリーク,0
904,4040003027966,新規,0,2025-07-04,2025-07-04,合同会社ＡＦＳＯＮＳ　ＴＯＫＹＯ,,合同会社,千葉県,印西市,小林３９６０番地３コーポサクライ１０１号,,12,231,2701318,,,,,,,2025-07-04,1,,,,,エフサンズトウキョウ,0
906,4050001056900,新規,0,2025-07-04,2025-07-04,ＬｅｘＭｉｎｄ株式会社,,株式会社,茨城県,牛久市,中央５丁目２０番地１１牛久駅前ビル２０１,,08,219,3001234,,,,,,,2025-07-04,1,,,,,レックスマインド,0
907,4050003009393,新規,0,2025-07-04,2025-07-04,合同会社Ｒｅｄｂｕｇ,,合同会社,茨城県,龍ケ崎市,愛戸町５７－２,,08,208,3010838,,,,,,,2025-07-04,1,,,,,,0
908,4050003009402,新規,0,2025-07-04,2025-07-04,合同会社アーヴィー,,合同会社,茨城県,日立市,田尻町７丁目１７番４－２０２号,,08,202,3191416,,,,,,,2025-07-04,1,,,,,アーヴィー,0
909,4050003009410,新規,0,2025-07-04,2025-07-04,合同会社ケイアイファーマシー,,合同会社,茨城県,石岡市,旭台３丁目１９番２３号,,08,205,3150038,,,,,,,2025-07-04,1,,,,,ケイアイファーマシー,0
910,4060001038344,新規,0,2025-07-04,2025-07-04,株式会社ＲｅｔｏＯｎｅＰｌｕｓ,,株式会社,栃木県,下野市,小金井５丁目２番地１８,,09,216,3290414,,,,,,,2025-07-04,1,,,,,リトワンプラス,0
913,4080101025595,新規,0,2025-07-04,2025-07-04,株式会社苔むすびの種,,株式会社,静岡県,駿東郡小山町,菅沼５３９番地の５,,22,344,4101312,,,,,,,2025-07-04,1,,,,,コケムスビノタネ,0
914,4080101025612,新規,0,2025-07-04,2025-07-04,株式会社熱海商店,,株式会社,静岡県,熱海市,田原本町１番８号神保ビル１Ｆ,,22,205,4130011,,,,,,,2025-07-04,1,,,,,アタミショウテン,0
924,4120001277456,新規,0,2025-07-04,2025-07-04,ルミエール株式会社,,株式会社,大阪府,大阪市中央区,高津３丁目１５番６－１５０７号,,27,128,5420072,,,,,,,2025-07-04,1,,,,,ルミエール,0
925,4120001277480,新規,0,2025-07-04,2025-07-04,有誠株式会社,,株式会社,大阪府,大阪市東淀川区,瑞光１丁目２番１１－３０２号,,27,114,5330005,,,,,,,2025-07-04,1,,,,,ユウセイ,0
926,4120001277539,新規,0,2025-07-04,2025-07-04,株式会社オフィスＫ,,株式会社,大阪府,大阪市港区,南市岡３丁目６番２０－１１１１号,,27,107,5520011,,,,,,,2025-07-04,1,,,,,オフィスケイ,0
927,4120001277563,新規,0,2025-07-04,2025-07-04,株式会社Ｌｅａｆ,,株式会社,大阪府,大阪市中央区,備後町３丁目５－３－６Ｆ,,27,128,5410051,,,,,,,2025-07-04,1,,,,,リーフ,0
928,4120003029913,新規,0,2025-07-04,2025-07-04,ＨＵＭＡＮＳ合同会社,,合同会社,大阪府,寝屋川市,境橋町２８番２号,,27,215,5720018,,,,,,,2025-07-04,1,,,,,ヒューマンズ,0
934,4120101071998,新規,0,2025-07-04,2025-07-04,株式会社ＧＯＷＡ,,株式会社,大阪府,貝塚市,二色中町６番地１５,,27,208,5970093,,,,,,,2025-07-04,1,,,,,ゴーワ,0
935,4120101072006,新規,0,2025-07-04,2025-07-04,ＷＡＳＵ株式会社,,株式会社,大阪府,堺市北区,東浅香山町２丁７３番地３４,,27,146,5918008,,,,,,,2025-07-04,1,,,,,ワス,0
936,4120101072014,新規,0,2025-07-04,2025-07-04,株式会社都市鉱研,,株式会社,大阪府,岸和田市,内畑町３４５３－１,,27,202,5960105,,,,,,,2025-07-04,1,,,,,トシコウケン,0
937,4120901051159,新規,0,2025-07-04,2025-07-04,株式会社Ｇ．Ｏ．Ａ．Ｔ,,株式会社,大阪府,吹田市,高野台３丁目４番１６－１号,,27,205,5650861,,,,,,,2025-07-04,1,,,,,ゴート,0
946,4140001139200,新規,0,2025-07-04,2025-07-04,亦啓株式会社,,株式会社,兵庫県,神戸市中央区,琴ノ緒町４丁目５－７商工印刷ビル２階－２１３号,,28,110,6510094,,,,,,,2025-07-04,1,,,,,マタケイ,0
953,4180001167486,新規,0,2025-07-04,2025-07-04,Ｅｎｃｒｅａ株式会社,,株式会社,愛知県,名古屋市中村区,名駅１丁目１－１ＪＰタワー２１Ｆ,,23,105,4500002,,,,,,,2025-07-04,1,,,,,エンクレア,0
954,4180001167494,新規,0,2025-07-04,2025-07-04,株式会社Ｈ　ＬＩＦＥ,,株式会社,愛知県,名古屋市昭和区,広路町字松風園６８－５,,23,107,4660834,,,,,,,2025-07-04,1,,,,,エイチライフ,0
955,4180001167593,新規,0,2025-07-04,2025-07-04,株式会社ＪＩＲＡＦ,,株式会社,愛知県,長久手市,南原山２５番地１アネシア藤が丘ザ・テラス１１０３号,,23,238,4801134,,,,,,,2025-07-04,1,,,,,ジラフ,0
956,4180001167643,新規,0,2025-07-04,2025-07-04,ＩＳＳＹ株式会社,,株式会社,愛知県,名古屋市中村区,名駅３丁目４－１０アルティメイト１ｓｔ２階,,23,105,4500002,,,,,,,2025-07-04,1,,,,,イッシー,0
958,4180003028678,新規,0,2025-07-04,2025-07-04,合同会社ゆるまち,,合同会社,愛知県,名古屋市中村区,名駅４丁目２４番５号第２森ビル４０１,,23,105,4500002,,,,,,,2025-07-04,1,,,,,ユルマチ,0
959,4190001032359,新規,0,2025-07-04,2025-07-04,株式会社ＡＵＴＯ　ＳＡＬＯＮ　Ｄ,,株式会社,三重県,いなべ市,北勢町麓村３０３番地１,,24,214,5110434,,,,,,,2025-07-04,1,,,,,オートサロンディー,0
962,4200001043957,新規,0,2025-07-04,2025-07-04,株式会社中央設備,,株式会社,岐阜県,各務原市,各務西町１丁目１７３番地１,,21,213,5090106,,,,,,,2025-07-04,1,,,,,チュウオウセツビ,0
967,4220001026786,新規,0,2025-07-04,2025-07-04,株式会社丸一丸漁業,,株式会社,石川県,珠洲市,蛸島町タ部１１３番地,,17,205,9271204,,,,,,,2025-07-04,1,,,,,マルイチマルギョギョウ,0
969,4230001020994,新規,0,2025-07-04,2025-07-04,株式会社セカキャリナース,,株式会社,富山県,富山市,下新本町１０番２号,,16,201,9300803,,,,,,,2025-07-04,1,,,,,セカキャリナース,0
972,4240001065147,新規,0,2025-07-04,2025-07-04,株式会社鉄芯,,株式会社,広島県,広島市安佐南区,伴東７丁目３８番２１－１０２号,,34,105,7313164,,,,,,,2025-07-04,1,,,,,テッシン,0
973,4240001065155,新規,0,2025-07-04,2025-07-04,株式会社純工業,,株式会社,広島県,三原市,新倉２丁目３番２３号,,34,204,7230134,,,,,,,2025-07-04,1,,,,,ジュンコウギョウ,0
974,4240001065171,新規,0,2025-07-04,2025-07-04,株式会社丸幸ホールディングス,,株式会社,広島県,呉市,本通４丁目５番１号,,34,202,7370045,,,,,,,2025-07-04,1,,,,,マルコウホールディングス,0
975,4250001021223,新規,0,2025-07-04,2025-07-04,株式会社ＨＯＮＭＡ,,株式会社,山口県,下関市,羽山町２４番１４号,,35,201,7500046,,,,,,,2025-07-04,1,,,,,ホンマ,0
976,4250001021231,新規,0,2025-07-04,2025-07-04,株式会社ナカムラ工務店,,株式会社,山口県,萩市,大字椿東２９３１番地８Ｂ―１０１,,35,204,7580011,,,,,,,2025-07-04,1,,,,,ナカムラコウムテン,0
978,4250003003764,新規,0,2025-07-04,2025-07-04,合同会社Ｅセーブ,,合同会社,山口県,山口市,朝田１９７１番地８,,35,203,7530871,,,,,,,2025-07-04,1,,,,,イーセーブ,0
979,4260003005248,新規,0,2025-07-04,2025-07-04,合同会社ひかり商事,,合同会社,岡山県,岡山市南区,浦安本町８番地２７,,33,104,7028026,,,,,,,2025-07-04,1,,,,,ヒカリショウジ,0
982,4280001009455,新規,0,2025-07-04,2025-07-04,株式会社ＩＦカンパニー,,株式会社,島根県,安来市,伯太町日次４５０番地３,,32,206,6920216,,,,,,,2025-07-04,1,,,,,イフカンパニー,0
983,4280003001963,新規,0,2025-07-04,2025-07-04,合同会社ｏｔｏ,,合同会社,島根県,出雲市,斐川町上直江２９７５番地８,,32,203,6990624,,,,,,,2025-07-04,1,,,,,オト,0
992,4290001110567,新規,0,2025-07-04,2025-07-04,株式会社オアシス農園,,株式会社,福岡県,宗像市,くりえいと２丁目２番８号,,40,220,8114184,,,,,,,2025-07-04,1,,,,,オアシスノウエン,0
993,4290001110625,新規,0,2025-07-04,2025-07-04,株式会社Ｂｅｌｌｔｅｃ,,株式会社,福岡県,大野城市,大池２丁目１０番６号,,40,219,8160904,,,,,,,2025-07-04,1,,,,,ベルテック,0
995,4300001014254,新規,0,2025-07-04,2025-07-04,ｓｈｉｎｎ株式会社,,株式会社,佐賀県,鳥栖市,本町２丁目４０番地１３トラスト鳥栖本町ネクサージュ７０７,,41,203,8410037,,,,,,,2025-07-04,1,,,,,シン,0
998,4330001033359,新規,0,2025-07-04,2025-07-04,株式会社フォルテプラン,,株式会社,熊本県,熊本市中央区,水前寺６丁目５番２３号フォーチュンパレス水前寺２Ｆ,,43,101,8620950,,,,,,,2025-07-04,1,,,,,フォルテプラン,0
999,4330003011098,新規,0,2025-07-04,2025-07-04,合同会社八代軍団,,合同会社,熊本県,八代市,緑町１番地９,,43,202,8660841,,,,,,,2025-07-04,1,,,,,ヤツシログンダン,0
1003,4340001027483,新規,0,2025-07-04,2025-07-04,株式会社龍の蔵,,株式会社,鹿児島県,鹿児島市,呉服町５番２号,,46,201,8920826,,,,,,,2025-07-04,1,,,,,リュウノクラ,0
1005,4350001019620,新規,0,2025-07-04,2025-07-04,株式会社ひむか創建,,株式会社,宮崎県,宮崎市,神宮１丁目２５９番地,,45,201,8800053,,,,,,,2025-07-04,1,,,,,ヒムカソウケン,0
1007,4360001035410,新規,0,2025-07-04,2025-07-04,とある株式会社,,株式会社,沖縄県,沖縄市,仲宗根町５番３号,,47,211,9040014,,,,,,,2025-07-04,1,,,,,トアル,0
1008,4360001035419,新規,0,2025-07-04,2025-07-04,株式会社Ｒｅ　ｗｉｔｈ,,株式会社,沖縄県,那覇市,宮城１丁目１７番６－３１０号Ｆステージ小禄宮城弐番館,,47,201,9010147,,,,,,,2025-07-04,1,,,,,リウィズ,0
1009,4360003015055,新規,0,2025-07-04,2025-07-04,合同会社あぶぬぱた,,合同会社,沖縄県,宮古島市,城辺字保良４３５番地２,,47,214,9060101,,,,,,,2025-07-04,1,,,,,アブヌパタ,0
1012,4390001018040,新規,0,2025-07-04,2025-07-04,株式会社トランスレンタルサポート,,株式会社,山形県,山形市,大野目１丁目１１番６５－１１号,,06,201,9900073,,,,,,,2025-07-04,1,,,,,トランスレンタルサポート,0
1014,4400001017098,新規,0,2025-07-04,2025-07-04,株式会社ライフサポート,,株式会社,岩手県,一関市,真柴字曽根田２１番地７,,03,209,0210901,,,,,,,2025-07-04,1,,,,,ライフサポート,0
1016,4420001019200,新規,0,2025-07-04,2025-07-04,株式会社ｓｈｉｎｂｏｒｉ,,株式会社,青森県,八戸市,大字長苗代字元木１４番地,,02,203,0391103,,,,,,,2025-07-04,1,,,,,シンボリ,0
1019,4430001094762,新規,0,2025-07-04,2025-07-04,株式会社Ｐｈｂ,,株式会社,北海道,札幌市中央区,宮の森一条５丁目１番地６,,01,101,0640951,,,,,,,2025-07-04,1,,,,,ピーエイチビー,0
1020,4430003017820,新規,0,2025-07-04,2025-07-04,合同会社大日本国祭観光開発,,合同会社,北海道,札幌市中央区,南十二条西１丁目１－１５－５０５,,01,101,0640912,,,,,,,2025-07-04,1,,,,,ダイニッポンコクサイカンコウカイハツ,0
1023,4430005015260,新規,0,2025-07-04,2025-07-04,一般財団法人ウェルネットスピードスケート振興財団,,その他の設立登記法人,北海道,札幌市中央区,大通東１０丁目１１番地４,,01,101,0600041,,,,,,,2025-07-04,1,,,,,ウェルネットスピードスケートシンコウザイダン,0
1036,4500001026378,新規,0,2025-07-04,2025-07-04,株式会社ビジネスサポート１０,,株式会社,愛媛県,新居浜市,新田町１丁目８番５６号,,38,205,7920003,,,,,,,2025-07-04,1,,,,,ビジネスサポートテン,0
1037,4500003003549,新規,0,2025-07-04,2025-07-04,ダイイチエンジ合同会社,,合同会社,愛媛県,松山市,東方町甲５４９番地１４,,38,201,7911123,,,,,,,2025-07-04,1,,,,,ダイイチエンジ,0
1039,4700150131322,新規,0,2025-07-04,2025-07-04,ＥＭＡＡＲ　ＣＡＲＳ　ＬＴＤ,,外国会社等,千葉県,香取郡多古町,出沼１５６－４７－１,,12,347,2892301,英国、Ｎｏ．２、ダンスタブルロード、ルートン、ＬＵ１１ＤＸ,,,,,,2025-07-04,1,,,,,エマールカースリミテツド,0
1043,5010001256429,新規,0,2025-07-04,2025-07-04,株式会社ガータマウテン,,株式会社,東京都,中央区,日本橋室町１丁目１１番１２号日本橋水野ビル７階,,13,102,1030022,,,,,,,2025-07-04,1,,,,,ガータマウテン,0
1044,5010001256486,新規,0,2025-07-04,2025-07-04,カイ・セミコンダクターズ株式会社,,株式会社,東京都,千代田区,霞が関３丁目２番６号東京倶楽部ビルディング１１階,,13,101,1000013,,,,,,,2025-07-04,1,,,,,カイセミコンダクターズ,0
1045,5010001256569,新規,0,2025-07-04,2025-07-04,株式会社Ｚｅｌｕｋ,,株式会社,東京都,中央区,銀座８丁目１７番５号,,13,102,1040061,,,,,,,2025-07-04,1,,,,,ゼルク,0
1047,5010003047801,新規,0,2025-07-04,2025-07-04,合同会社Ｓｅｒｅｎｏ　Ｐｒｏｄｕｃｔｉｏｎ,,合同会社,東京都,中央区,銀座１丁目１２番４号Ｎ＆ＥＢＬＤ．６Ｆ,,13,102,1040061,,,,,,,2025-07-04,1,,,,,セレノプロダクション,0
1048,5010003047925,新規,0,2025-07-04,2025-07-04,Ｎａｍｂａ２合同会社,,合同会社,東京都,千代田区,丸の内１丁目４番１号東京共同会計事務所内,,13,101,1000005,,,,,,,2025-07-04,1,,,,,ナンバツー,0
1054,5010401191044,新規,0,2025-07-04,2025-07-04,株式会社ＦＡＲＯＮ,,株式会社,東京都,港区,西麻布３丁目２４－２１ヴィレッジ山村３０２,,13,103,1060031,,,,,,,2025-07-04,1,,,,,ファロン,0
1055,5010401191432,新規,0,2025-07-04,2025-07-04,株式会社さくら咲く,,株式会社,東京都,港区,高輪４丁目１１－２４ヒルズ高輪Ｂ４０２,,13,103,1080074,,,,,,,2025-07-04,1,,,,,サクラサク,0
1056,5010401191449,新規,0,2025-07-04,2025-07-04,ＭＭＤ株式会社,,株式会社,東京都,港区,六本木５丁目１番３号,,13,103,1060032,,,,,,,2025-07-04,1,,,,,エムエムディー,0
1059,5010403035455,新規,0,2025-07-04,2025-07-04,Ｃｈａｒｄｏｎ合同会社,,合同会社,東京都,港区,高輪１丁目２７番３７号高輪ザ・レジデンス３６０２,,13,103,1080074,,,,,,,2025-07-04,1,,,,,シャルドン,0
1060,5010403035496,新規,0,2025-07-04,2025-07-04,合同会社ＧＫＩ　ＳＴＹＬＥ,,合同会社,東京都,港区,白金３丁目１３－７,,13,103,1080072,,,,,,,2025-07-04,1,,,,,ジーケーアイスタイル,0
1070,5010901057694,新規,0,2025-07-04,2025-07-04,バリュープラス株式会社,,株式会社,東京都,世田谷区,代沢１丁目１３番１１号,,13,112,1550032,,,,,,,2025-07-04,1,,,,,バリュープラス,0
1075,5011001170636,新規,0,2025-07-04,2025-07-04,株式会社サイセイ,,株式会社,東京都,渋谷区,道玄坂１丁目１０番８号渋谷道玄坂東急ビル２Ｆ－Ｃ,,13,113,1500043,,,,,,,2025-07-04,1,,,,,サイセイ,0
1076,5011001170652,新規,0,2025-07-04,2025-07-04,Ａｒｋａｎｏｔｅ株式会社,,株式会社,東京都,渋谷区,神宮前６丁目２３番４号桑野ビル２階,,13,113,1500001,,,,,,,2025-07-04,1,,,,,アルカノート,0
1077,5011001170702,新規,0,2025-07-04,2025-07-04,株式会社モーリッシュ,,株式会社,東京都,渋谷区,上原３丁目４４番１１号,,13,113,1510064,,,,,,,2025-07-04,1,,,,,モーリッシュ,0
1078,5011001170842,新規,0,2025-07-04,2025-07-04,株式会社３６９ｃｏｄｅ,,株式会社,東京都,渋谷区,桜丘町２９番２４号桜丘リージェンシー１０１,,13,113,1500031,,,,,,,2025-07-04,1,,,,,ミロクコード,0
1079,5011001171023,新規,0,2025-07-04,2025-07-04,株式会社アンドティー,,株式会社,東京都,目黒区,五本木１丁目３５番１２号,,13,110,1530053,,,,,,,2025-07-04,1,,,,,アンドティー,0
1086,5011103016101,新規,0,2025-07-04,2025-07-04,合同会社ウェリックスソフトウェア,,合同会社,東京都,新宿区,西新宿３丁目３番１３号西新宿水間ビル２Ｆ,,13,104,1600023,,,,,,,2025-07-04,1,,,,,ウェリックスソフトウェア,0
1087,5011105011513,新規,0,2025-07-04,2025-07-04,税理士法人Ｎｏｖｅｒａ　Ｃｏｎｓｕｌｔｉｎｇ,,その他の設立登記法人,東京都,新宿区,西新宿８丁目３番３０号,,13,104,1600023,,,,,,,2025-07-04,1,,,,,ノベラコンサルティング,0
1090,5011601028770,新規,0,2025-07-04,2025-07-04,株式会社Ｃｏｎｎｅｃｔｒａ　Ｗｏｒｋｓ,,株式会社,東京都,練馬区,春日町１丁目４－３,,13,120,1790074,,,,,,,2025-07-04,1,,,,,コネクトラワークス,0
1091,5011603004761,新規,0,2025-07-04,2025-07-04,合同会社ひかりリンク,,合同会社,東京都,練馬区,早宮２丁目８－１９,,13,120,1790085,,,,,,,2025-07-04,1,,,,,ヒカリリンク,0
1094,5011801046399,新規,0,2025-07-04,2025-07-04,株式会社リープウェル,,株式会社,東京都,葛飾区,西水元３丁目３５番１号,,13,122,1250031,,,,,,,2025-07-04,1,,,,,リープウェル,0
1096,5012401043299,新規,0,2025-07-04,2025-07-04,株式会社ＢＭＧＫ,,株式会社,東京都,武蔵野市,吉祥寺南町１丁目１－３イケダビル４０２号室,,13,203,1800003,,,,,,,2025-07-04,1,,,,,ビーエムジーケー,0
1097,5012401043308,新規,0,2025-07-04,2025-07-04,株式会社ＫＯＳＯ,,株式会社,東京都,三鷹市,下連雀３丁目６番５４－２０１号,,13,204,1810013,,,,,,,2025-07-04,1,,,,,コウソウ,0
1098,5012403007211,新規,0,2025-07-04,2025-07-04,合同会社インスパー研究院,,合同会社,東京都,府中市,緑町３丁目８－１１ヴェール東府中６０５号室,,13,206,1830006,,,,,,,2025-07-04,1,,,,,インスパーケンキュウイン,0
1101,5012801024080,新規,0,2025-07-04,2025-07-04,株式会社ＲＫＤ,,株式会社,東京都,昭島市,玉川町１丁目１番９号タクミビル４Ｂ,,13,207,1960034,,,,,,,2025-07-04,1,,,,,アールケーディー,0
1103,5013301054551,新規,0,2025-07-04,2025-07-04,株式会社クラウドＰＢＸ,,株式会社,東京都,豊島区,東池袋１丁目１８番１号,,13,116,1700013,,,,,,,2025-07-04,1,,,,,クラウドピービーエックス,0
1108,5020001163657,新規,0,2025-07-04,2025-07-04,株式会社ＳＯ　ＨＵＮＤＲＥＤ,,株式会社,神奈川県,横浜市泉区,岡津町２１２０番地１８,,14,116,2450003,,,,,,,2025-07-04,1,,,,,ソーハンドレッド,0
1109,5020001163681,新規,0,2025-07-04,2025-07-04,株式会社ｍａｉｋａ’ｉ,,株式会社,神奈川県,横浜市青葉区,荏田西４丁目１１番地２１,,14,117,2250014,,,,,,,2025-07-04,1,,,,,マイカイ,0
1110,5020001163698,新規,0,2025-07-04,2025-07-04,株式会社Ｃｈａｎｇｉｎｅｅｒｉｎｇ,,株式会社,神奈川県,横浜市中区,桜木町１丁目１０１番地１,,14,104,2310062,,,,,,,2025-07-04,1,,,,,チェンジニアリング,0
1111,5020003028833,新規,0,2025-07-04,2025-07-04,ＨＩＫＡＲＩ産業合同会社,,合同会社,神奈川県,横浜市鶴見区,北寺尾７丁目２４番２４号－２０１室,,14,101,2300074,,,,,,,2025-07-04,1,,,,,ヒカリサンギョウ,0
1112,5020003028866,新規,0,2025-07-04,2025-07-04,ＴＥＴＲａｂＡＳＥ合同会社,,合同会社,神奈川県,川崎市川崎区,渡田１丁目２番２０－４０６号ディアステージ川崎渡田,,14,131,2100837,,,,,,,2025-07-04,1,,,,,テトラベース,0
1113,5020003028874,新規,0,2025-07-04,2025-07-04,合同会社グレートフォレスト,,合同会社,神奈川県,横浜市青葉区,美しが丘西３丁目５７番地１８,,14,117,2250001,,,,,,,2025-07-04,1,,,,,グレートフォレスト,0
1121,5021003016225,新規,0,2025-07-04,2025-07-04,トラホウ合同会社,,合同会社,神奈川県,秦野市,南矢名２丁目８－７メゾンさくら２０２号室,,14,211,2570003,,,,,,,2025-07-04,1,,,,,トラホウ,0
1123,5030001167384,新規,0,2025-07-04,2025-07-04,株式会社大和組,,株式会社,埼玉県,新座市,菅沢２丁目９－１第３キウチハウス２,,11,230,3520017,,,,,,,2025-07-04,1,,,,,ヤマトグミ,0
1124,5030001167401,新規,0,2025-07-04,2025-07-04,株式会社ＣＬＥＳＴ,,株式会社,埼玉県,川口市,大字芝５３１７番地の７,,11,203,3330866,,,,,,,2025-07-04,1,,,,,クレスト,0
1125,5030001167434,新規,0,2025-07-04,2025-07-04,株式会社３６９,,株式会社,埼玉県,さいたま市浦和区,高砂４丁目２番３号アルシュせじま１Ｆ,,11,107,3300063,,,,,,,2025-07-04,1,,,,,ミロク,0
1126,5030001167442,新規,0,2025-07-04,2025-07-04,株式会社幸和,,株式会社,埼玉県,春日部市,西八木崎３丁目４番２１号,,11,214,3440059,,,,,,,2025-07-04,1,,,,,コウワ,0
1127,5030001167450,新規,0,2025-07-04,2025-07-04,株式会社エリート,,株式会社,埼玉県,草加市,小山１丁目２１番,,11,221,3400045,,,,,,,2025-07-04,1,,,,,エリート,0
1128,5030001167467,新規,0,2025-07-04,2025-07-04,株式会社ＭＩ設備,,株式会社,埼玉県,川口市,芝下２丁目１２番５号,,11,203,3330848,,,,,,,2025-07-04,1,,,,,エムアイセツビ,0
1129,5030001167509,新規,0,2025-07-04,2025-07-04,株式会社ライジング,,株式会社,埼玉県,さいたま市緑区,馬場２丁目６番地３５,,11,109,3360912,,,,,,,2025-07-04,1,,,,,ライジング,0
1131,5030003027124,新規,0,2025-07-04,2025-07-04,Ｒｅｖｅ　Ｎｅｔｗｏｒｋｓ合同会社,,合同会社,埼玉県,さいたま市緑区,太田窪１丁目２０番２７号,,11,109,3360936,,,,,,,2025-07-04,1,,,,,レーヴネットワークス,0
1132,5030003027132,新規,0,2025-07-04,2025-07-04,合同会社ＹＵＨＡＮＡ,,合同会社,埼玉県,川口市,西川口６丁目１８番３０号１０２号室,,11,203,3320021,,,,,,,2025-07-04,1,,,,,ユハナ,0
1133,5030003027149,新規,0,2025-07-04,2025-07-04,合同会社Ｆｔｕｎｅ,,合同会社,埼玉県,川口市,並木１丁目７番８号ロットパレスＩ２０２号,,11,203,3320034,,,,,,,2025-07-04,1,,,,,エフチューン,0
1137,5040001139449,新規,0,2025-07-04,2025-07-04,株式会社ｆｏｒ　ＲＩＺＥ,,株式会社,千葉県,流山市,南流山８丁目１３番地の１,,12,220,2700163,,,,,,,2025-07-04,1,,,,,フォーライズ,0
1138,5040001139473,新規,0,2025-07-04,2025-07-04,株式会社Ｇｒａｎ　Ｃｉｅｌｏ,,株式会社,千葉県,大網白里市,柳橋７９３－１９,,12,239,2993263,,,,,,,2025-07-04,1,,,,,グランシエロ,0
1139,5040001139481,新規,0,2025-07-04,2025-07-04,株式会社ＡＮＨ　ＤＵＯＮＧ,,株式会社,千葉県,松戸市,串崎新田７３番地,,12,207,2702216,,,,,,,2025-07-04,1,,,,,アンズオン,0
1140,5040001139614,新規,0,2025-07-04,2025-07-04,ＵＭＡＳＯ株式会社,,株式会社,千葉県,千葉市稲毛区,小仲台３丁目１８番５号,,12,103,2630043,,,,,,,2025-07-04,1,,,,,ウマソ,0
1143,5040003027908,新規,0,2025-07-04,2025-07-04,ＴｒｕｔｅｒＣｏｎｓｕｌｔｉｎｇＪａｐａｎ合同会社,,合同会社,千葉県,千葉市中央区,星久喜町９４２番地１９,,12,101,2600808,,,,,,,2025-07-04,1,,,,,トゥルーターコンサルティングジャパン,0
1144,5040003028014,新規,0,2025-07-04,2025-07-04,合同会社こんすら,,合同会社,千葉県,白井市,根１９２０番地の４７,,12,232,2701431,,,,,,,2025-07-04,1,,,,,コンスラ,0
1148,5050005013657,新規,0,2025-07-04,2025-07-04,一般社団法人Ｐｉｅｃｅｓ,,その他の設立登記法人,茨城県,日立市,下深荻町７７７番地１,,08,202,3110404,,,,,,,2025-07-04,1,,,,,,0
1149,5080001027006,新規,0,2025-07-04,2025-07-04,世希建水工業株式会社,,株式会社,静岡県,静岡市清水区,横砂本町２番１号,,22,103,4240033,,,,,,,2025-07-04,1,,,,,セキケンスイコウギョウ,0
1150,5080001027022,新規,0,2025-07-04,2025-07-04,株式会社ショージン,,株式会社,静岡県,藤枝市,高洲２２番地の６,,22,214,4260046,,,,,,,2025-07-04,1,,,,,ショージン,0
1151,5080101025611,新規,0,2025-07-04,2025-07-04,株式会社ティー・コネクト,,株式会社,静岡県,伊豆の国市,長岡１１９０番地の４華テラス２階,,22,225,4102211,,,,,,,2025-07-04,1,,,,,ティーコネクト,0
1165,5120001277439,新規,0,2025-07-04,2025-07-04,麓株式会社,,株式会社,大阪府,大阪市西区,新町３丁目６番３－７０５号,,27,106,5500013,,,,,,,2025-07-04,1,,,,,フモト,0
1166,5120001277496,新規,0,2025-07-04,2025-07-04,株式会社ＳＵＮフィールド,,株式会社,大阪府,大阪市淀川区,西中島６丁目７番８号,,27,123,5320011,,,,,,,2025-07-04,1,,,,,サンフィールド,0
1167,5120001277513,新規,0,2025-07-04,2025-07-04,株式会社ＳＭＡＲＴ　ＳＥＣＵＲＩＴＹ　ＥＹＥＳ,,株式会社,大阪府,大阪市生野区,巽北２丁目５－２０ＬａＤｏｕｃｅｕｒ北巽４０７,,27,116,5440004,,,,,,,2025-07-04,1,,,,,スマートセキュリティアイズ,0
1168,5120001277546,新規,0,2025-07-04,2025-07-04,株式会社ゼンシン,,株式会社,大阪府,大阪市北区,西天満１丁目７－１２,,27,127,5300047,,,,,,,2025-07-04,1,,,,,ゼンシン,0
1170,5120003029895,新規,0,2025-07-04,2025-07-04,ＡＴＩＦ　ＴＲＡＤＩＮＧ合同会社,,合同会社,大阪府,枚方市,枚方元町４－３０－１０８号室,,27,210,5730052,,,,,,,2025-07-04,1,,,,,アテフトレーディング,0
1171,5120101071997,新規,0,2025-07-04,2025-07-04,株式会社アトリエスパイス,,株式会社,大阪府,富田林市,五軒家１丁目１６番８－５０３号,,27,214,5840079,,,,,,,2025-07-04,1,,,,,アトリエスパイス,0
1174,5120103006547,新規,0,2025-07-04,2025-07-04,合同会社福耳会,,合同会社,大阪府,河内長野市,美加の台３丁目１４番１１号,,27,216,5860044,,,,,,,2025-07-04,1,,,,,フクミミカイ,0
1176,5120901051158,新規,0,2025-07-04,2025-07-04,ＳＫＲ株式会社,,株式会社,大阪府,茨木市,春日３丁目５番７―２１５号,,27,211,5670031,,,,,,,2025-07-04,1,,,,,エスケーアール,0
1186,5160001026866,新規,0,2025-07-04,2025-07-04,ＭＡＩＬＥ’ｅｌｉｍａ株式会社,,株式会社,滋賀県,長浜市,八幡中山町４９０風の街キャンスシティ２,,25,203,5260021,,,,,,,2025-07-04,1,,,,,マイレエリマ,0
1195,5180001167527,新規,0,2025-07-04,2025-07-04,ＢＺＴＳ株式会社,,株式会社,愛知県,名古屋市西区,五才美町６番地－５０１号,,23,104,4520806,,,,,,,2025-07-04,1,,,,,ビーズィーティーエス,0
1196,5180001167535,新規,0,2025-07-04,2025-07-04,まるぜん株式会社,,株式会社,愛知県,東海市,東海町１丁目１１番地１７,,23,222,4760015,,,,,,,2025-07-04,1,,,,,マルゼン,0
1197,5180001167543,新規,0,2025-07-04,2025-07-04,株式会社アピオヘルスケア,,株式会社,愛知県,尾張旭市,平子町長池上６４４１番地１,,23,226,4880872,,,,,,,2025-07-04,1,,,,,アピオヘルスケア,0
1198,5180001167576,新規,0,2025-07-04,2025-07-04,株式会社あんどうビル,,株式会社,愛知県,名古屋市名東区,極楽４丁目６０１番地,,23,115,4650053,,,,,,,2025-07-04,1,,,,,アンドウビル,0
1200,5180003028702,新規,0,2025-07-04,2025-07-04,合同会社まーしゃん,,合同会社,愛知県,あま市,新居屋鶴田１２２番地,,23,237,4901105,,,,,,,2025-07-04,1,,,,,マーシャン,0
1202,5180301039954,新規,0,2025-07-04,2025-07-04,株式会社ワイデン,,株式会社,愛知県,知立市,新林町本林５０番地１２,,23,225,4720017,,,,,,,2025-07-04,1,,,,,ワイデン,0
1204,5190001032358,新規,0,2025-07-04,2025-07-04,株式会社Ｌｉｆｅ　Ｖｅｎｔｕｒｅ,,株式会社,三重県,多気郡明和町,大字馬之上８８６番地１４,,24,442,5150332,,,,,,,2025-07-04,1,,,,,ライフベンチャー,0
1205,5190003005097,新規,0,2025-07-04,2025-07-04,東信産業合同会社,,合同会社,三重県,津市,一身田町１７３番地２,,24,201,5140114,,,,,,,2025-07-04,1,,,,,トウシンサンギョウ,0
1206,5200001043964,新規,0,2025-07-04,2025-07-04,株式会社ｃｏｒｏｈｏｕｓｅ,,株式会社,岐阜県,美濃加茂市,中富町１丁目５番８号,,21,211,5050033,,,,,,,2025-07-04,1,,,,,コロハウス,0
1207,5200003006903,新規,0,2025-07-04,2025-07-04,ＡＲＩＦ　ＴＲＡＤＩＮＧ合同会社,,合同会社,岐阜県,美濃加茂市,西町７丁目３１３番地西町テナント２－Ｃ,,21,211,5050046,,,,,,,2025-07-04,1,,,,,アリフトレーディング,0
1210,5230001020985,新規,0,2025-07-04,2025-07-04,株式会社グローカルリサーチ,,株式会社,富山県,富山市,高田５２７番地情報ビル,,16,201,9300866,,,,,,,2025-07-04,1,,,,,グローカルリサーチ,0
1211,5230001020993,新規,0,2025-07-04,2025-07-04,株式会社エイムハイ,,株式会社,富山県,氷見市,十二町３０番地３,,16,205,9350051,,,,,,,2025-07-04,1,,,,,エイムハイ,0
1212,5240001065162,新規,0,2025-07-04,2025-07-04,株式会社ｎｉｐｏｔｅ,,株式会社,広島県,広島市西区,三篠町２丁目６番１５号,,34,104,7330003,,,,,,,2025-07-04,1,,,,,ニポテ,0
1214,5240003007286,新規,0,2025-07-04,2025-07-04,合同会社ファーストリンク,,合同会社,広島県,広島市安佐北区,口田南２丁目８番５－７号,,34,106,7391733,,,,,,,2025-07-04,1,,,,,ファーストリンク,0
1228,5250001021222,新規,0,2025-07-04,2025-07-04,ショウカン株式会社,,株式会社,山口県,周南市,新清光台２丁目１０番６号,,35,215,7450643,,,,,,,2025-07-04,1,,,,,ショウカン,0
1230,5260001040329,新規,0,2025-07-04,2025-07-04,株式会社Ｅｘｐｅｒｉｅｎｃｅ,,株式会社,岡山県,岡山市北区,今８丁目１４－１３ベスグロビル３Ｆ,,33,101,7000975,,,,,,,2025-07-04,1,,,,,エクスペリエンス,0
1232,5280003001962,新規,0,2025-07-04,2025-07-04,合同会社与志川,,合同会社,島根県,松江市,八束町遅江１０８８番地,,32,201,6901403,,,,,,,2025-07-04,1,,,,,ヨシカワ,0
1237,5290001110590,新規,0,2025-07-04,2025-07-04,株式会社創縁建設,,株式会社,福岡県,福岡市西区,今宿上ノ原１００７番地,,40,135,8190163,,,,,,,2025-07-04,1,,,,,ソウエンケンセツ,0
1240,5290801031672,新規,0,2025-07-04,2025-07-04,株式会社ＡＤＩＮ,,株式会社,福岡県,北九州市小倉北区,片野４丁目４番１７号（ＭＯＯＮ片野１０２号）,,40,106,8020064,,,,,,,2025-07-04,1,,,,,エディン,0
1242,5290803005096,新規,0,2025-07-04,2025-07-04,たけのこエーアイ合同会社,,合同会社,福岡県,北九州市八幡西区,上上津役１丁目２５番４号,,40,109,8070072,,,,,,,2025-07-04,1,,,,,タケノコエーアイ,0
1245,5300001014253,新規,0,2025-07-04,2025-07-04,アイ・バン株式会社,,株式会社,佐賀県,佐賀市,久保田町大字久富３５５０番地６,,41,201,8490202,,,,,,,2025-07-04,1,,,,,アイバン,0
1248,5330001033358,新規,0,2025-07-04,2025-07-04,ユーケーカーズ株式会社,,株式会社,熊本県,八代市,川田町西６０７番地１,,43,202,8694616,,,,,,,2025-07-04,1,,,,,ユーケーカーズ,0
1249,5330001033366,新規,0,2025-07-04,2025-07-04,株式会社林カートロニクスサービス,,株式会社,熊本県,熊本市南区,城南町塚原１３９番地１,,43,104,8614226,,,,,,,2025-07-04,1,,,,,ハヤシカートロニクスサービス,0
1250,5330001033374,新規,0,2025-07-04,2025-07-04,株式会社３５６ｓｓ,,株式会社,熊本県,上益城郡嘉島町,大字上仲間８６０－１,,43,442,8613107,,,,,,,2025-07-04,1,,,,,ミゴロエスエス,0
1256,5340003004884,新規,0,2025-07-04,2025-07-04,合同会社Ｓｕｎ　ｓｉｍａｉ,,合同会社,鹿児島県,鹿児島市,田上８丁目３３－２３,,46,201,8900034,,,,,,,2025-07-04,1,,,,,サンシマイ,0
1260,5350001019628,新規,0,2025-07-04,2025-07-04,塩見木工所株式会社,,株式会社,宮崎県,日向市,大字塩見３１０７,,45,206,8830033,,,,,,,2025-07-04,1,,,,,シオミモッコウショ,0
1262,5360001035401,新規,0,2025-07-04,2025-07-04,株式会社ＮＵＴＳ,,株式会社,沖縄県,那覇市,久茂地３丁目４－１－５階,,47,201,9000015,,,,,,,2025-07-04,1,,,,,ナッツ,0
1264,5370001052767,新規,0,2025-07-04,2025-07-04,シネジックホールディングス株式会社,,株式会社,宮城県,富谷市,成田１丁目５番地９,,04,216,9813341,,,,,,,2025-07-04,1,,,,,シネジックホールディングス,0
1272,5430001094753,新規,0,2025-07-04,2025-07-04,株式会社中硝,,株式会社,北海道,札幌市東区,東苗穂四条１丁目８番１４号,,01,103,0070804,,,,,,,2025-07-04,1,,,,,ナカショウ,0
1277,5480001012883,新規,0,2025-07-04,2025-07-04,株式会社Ａｒｃ　Ｌｉｎｋｓ,,株式会社,徳島県,徳島市,住吉１丁目５番５号村山ハイツ１０３,,36,201,7700861,,,,,,,2025-07-04,1,,,,,アークリンクス,0
1281,5490003002031,新規,0,2025-07-04,2025-07-04,合同会社高知ライフ不動産,,合同会社,高知県,高知市,薊野西町３丁目３５番１６号,,39,201,7810015,,,,,,,2025-07-04,1,,,,,コウチライフフドウサン,0
1283,5500001026377,新規,0,2025-07-04,2025-07-04,株式会社Ｏｆｆｉｃｅ　Ｙａｍａｔｏ,,株式会社,愛媛県,今治市,喜田村８丁目１番１６号,,38,202,7991502,,,,,,,2025-07-04,1,,,,,オフィスヤマト,0
1285,5700150131321,新規,0,2025-07-04,2025-07-04,ＰＰ　Ｐｒｏｄｕｉｔｓ　Ｐｒｅｓｔｉｇｅ株式会社,,外国会社等,東京都,港区,六本木１丁目４番５号１６階,,13,103,1060032,スイス連邦モントルー１８２０、クロード・ノブス１４通り,,,,,,2025-07-04,1,,,,,ピーピープロデユープレステイージカブシキガイシヤ,0
1290,6010003047924,新規,0,2025-07-04,2025-07-04,Ｎａｍｂａ１合同会社,,合同会社,東京都,千代田区,丸の内１丁目４番１号東京共同会計事務所内,,13,101,1000005,,,,,,,2025-07-04,1,,,,,ナンバワン,0
1291,6010003047940,新規,0,2025-07-04,2025-07-04,合同会社カーディナル２,,合同会社,東京都,千代田区,霞が関３丁目２番５号,,13,101,1000013,,,,,,,2025-07-04,1,,,,,カーディナルツー,0
1292,6010005040258,新規,0,2025-07-04,2025-07-04,一般社団法人日本ホスピタリティテクノロジー協会,,その他の設立登記法人,東京都,千代田区,平河町２丁目５番５号全国旅館会館４階,,13,101,1020093,,,,,,,2025-07-04,1,,,,,ニホンホスピタリティテクノロジーキョウカイ,0
1293,6010005040299,新規,0,2025-07-04,2025-07-04,リゾルト税理士法人,,その他の設立登記法人,東京都,中央区,銀座８丁目１８－１銀座木挽町ビル４階,,13,102,1040061,,,,,,,2025-07-04,1,,,,,リゾルト,0
1294,6010005040324,新規,0,2025-07-04,2025-07-04,一般社団法人カーディナル２ホールディングス,,その他の設立登記法人,東京都,千代田区,霞が関３丁目２番５号,,13,101,1000013,,,,,,,2025-07-04,1,,,,,カーディナルツーホールディングス,0
1301,6010401191381,新規,0,2025-07-04,2025-07-04,株式会社ＡＵＲＡ　ＳＹＮＴＨ,,株式会社,東京都,港区,台場２丁目３番５号台場ガーデンシティビル１１階,,13,103,1350091,,,,,,,2025-07-04,1,,,,,オーラシンス,0
1302,6010401191423,新規,0,2025-07-04,2025-07-04,株式会社イデアルーツ,,株式会社,東京都,港区,南青山２丁目１５－２２パークアクシスプレミア南青山３１７,,13,103,1070062,,,,,,,2025-07-04,1,,,,,イデアルーツ,0
1303,6010401191448,新規,0,2025-07-04,2025-07-04,ＭｅｄＥｖｏ株式会社,,株式会社,東京都,港区,六本木５丁目１番３号,,13,103,1060032,,,,,,,2025-07-04,1,,,,,メッドエヴォ,0
1304,6010401191472,新規,0,2025-07-04,2025-07-04,共六化株式会社,,株式会社,東京都,港区,港南１丁目９番３６号アレア品川１３階,,13,103,1080075,,,,,,,2025-07-04,1,,,,,キョウロクカ,0
1311,6010901057693,新規,0,2025-07-04,2025-07-04,株式会社はちみらい,,株式会社,東京都,世田谷区,若林１丁目２番３号メゾンドオルム４０３,,13,112,1540023,,,,,,,2025-07-04,1,,,,,ハチミライ,0
1328,6011103016067,新規,0,2025-07-04,2025-07-04,合同会社ＯＧＵ,,合同会社,東京都,新宿区,西新宿３丁目３番１３号西新宿水間ビル６階,,13,104,1600023,,,,,,,2025-07-04,1,,,,,オージーユー,0
1333,6011403004746,新規,0,2025-07-04,2025-07-04,合同会社ＮＥＸＩＳ,,合同会社,東京都,板橋区,大谷口北町８６番９－２０１号,,13,119,1730031,,,,,,,2025-07-04,1,,,,,ネクシス,0
1334,6011503006601,新規,0,2025-07-04,2025-07-04,雲貿合同会社,,合同会社,東京都,荒川区,東日暮里２丁目５番５号パピルスマンション５０１号室,,13,118,1160014,,,,,,,2025-07-04,1,,,,,ウンボウ,0
1335,6011701028488,新規,0,2025-07-04,2025-07-04,ＳＮＫ株式会社,,株式会社,東京都,江戸川区,平井５丁目４４番６号－３０２,,13,123,1320035,,,,,,,2025-07-04,1,,,,,エスエヌケー,0
1336,6011801046398,新規,0,2025-07-04,2025-07-04,株式会社Ｃｏｎｔ,,株式会社,東京都,足立区,入谷１丁目９番１７－４０５号,,13,121,1210836,,,,,,,2025-07-04,1,,,,,コント,0
1341,6012401043298,新規,0,2025-07-04,2025-07-04,株式会社Ｂｕｄｄｙｔｅｃｈ,,株式会社,東京都,調布市,下石原３丁目２７番地５,,13,208,1820034,,,,,,,2025-07-04,1,,,,,バディテック,0
1342,6012403007210,新規,0,2025-07-04,2025-07-04,合同会社ＣＯＤＥ,,合同会社,東京都,調布市,布田６丁目１１番地７ジオ調布２１１,,13,208,1820024,,,,,,,2025-07-04,1,,,,,コード,0
1343,6012403007219,新規,0,2025-07-04,2025-07-04,ＥＮ‐ＣＯＬＯＲｂｅｌｌｅ‐ｃａｒｅ合同会社,,合同会社,東京都,多摩市,桜ヶ丘２丁目３８－９,,13,224,2060013,,,,,,,2025-07-04,1,,,,,エンカラーベルケア,0
1346,6012801024071,新規,0,2025-07-04,2025-07-04,日交Ｃサービス株式会社,,株式会社,東京都,国立市,谷保４丁目３４番地の１１,,13,215,1860011,,,,,,,2025-07-04,1,,,,,ニコウシーサービス,0
1347,6012803003783,新規,0,2025-07-04,2025-07-04,Ｗａｔａｎａｂｅ　Ｍｏｌｄ　Ｄｅｓｉｇｎ合同会社,,合同会社,東京都,武蔵村山市,中原３丁目２２番地の４５,,13,223,2080035,,,,,,,2025-07-04,1,,,,,ワタナベモールドデザイン,0
1349,6013301054534,新規,0,2025-07-04,2025-07-04,株式会社ＦｉｇｈＴＡＯ,,株式会社,東京都,豊島区,南池袋３丁目１８番３３ＨＫビル１Ｆ,,13,116,1710022,,,,,,,2025-07-04,1,,,,,ファイタオ,0
1350,6013301054542,新規,0,2025-07-04,2025-07-04,株式会社Ｌｉｖｉｎｇ,,株式会社,東京都,豊島区,南池袋１丁目１４番２号ＲｅｆｕｇｅＩＮｏｒｔｈ４０１号室,,13,116,1710022,,,,,,,2025-07-04,1,,,,,リビング,0
1351,6013301054550,新規,0,2025-07-04,2025-07-04,株式会社サンキューセキュリティ,,株式会社,東京都,豊島区,南池袋２丁目８番１８－７０８号,,13,116,1710022,,,,,,,2025-07-04,1,,,,,サンキューセキュリティ,0
1352,6013301054559,新規,0,2025-07-04,2025-07-04,株式会社Ｎｅｗ　Ａｎｃｈｏｒ,,株式会社,東京都,豊島区,池袋２丁目６８番９号ＭＩＢビル５階－Ａ,,13,116,1710014,,,,,,,2025-07-04,1,,,,,ニューアンカー,0
1353,6013301054567,新規,0,2025-07-04,2025-07-04,ＢＩＦＡ　ＪＡＰＡＮ株式会社,,株式会社,東京都,豊島区,池袋２丁目１７番８号天翔池袋西口ＡＮＮＥＸビル４１５号室,,13,116,1710014,,,,,,,2025-07-04,1,,,,,ビーファジャパン,0
1359,6020001163672,新規,0,2025-07-04,2025-07-04,株式会社ＢＡＳＥ８,,株式会社,神奈川県,横浜市港北区,樽町４丁目５番３号,,14,109,2220001,,,,,,,2025-07-04,1,,,,,ベイスエイト,0
1360,6020001163747,新規,0,2025-07-04,2025-07-04,株式会社つかはら美装,,株式会社,神奈川県,横浜市青葉区,新石川４丁目８‐４０,,14,117,2250003,,,,,,,2025-07-04,1,,,,,ツカハラビソウ,0
1361,6020003028840,新規,0,2025-07-04,2025-07-04,合同会社崇康,,合同会社,神奈川県,横浜市西区,浅間町１丁目４－３ウィザードビル４０２,,14,103,2200072,,,,,,,2025-07-04,1,,,,,タカヤス,0
1362,6020003028857,新規,0,2025-07-04,2025-07-04,合同会社Ａ＆Ａ,,合同会社,神奈川県,横浜市金沢区,富岡東１丁目５番１号,,14,108,2360051,,,,,,,2025-07-04,1,,,,,エイアンドエイ,0
1368,6030001167425,新規,0,2025-07-04,2025-07-04,株式会社森木工,,株式会社,埼玉県,坂戸市,大字小山６６番地３,,11,239,3500257,,,,,,,2025-07-04,1,,,,,モリモッコウ,0
1369,6030001167433,新規,0,2025-07-04,2025-07-04,株式会社ＫａＬａＰｏ,,株式会社,埼玉県,さいたま市西区,大字飯田新田６２５番地１２,,11,101,3310068,,,,,,,2025-07-04,1,,,,,カラポ,0
1370,6030001167441,新規,0,2025-07-04,2025-07-04,株式会社ＣＯＳＡＲＩＣＫ,,株式会社,埼玉県,川口市,大字新堀１１５５－２,,11,203,3340061,,,,,,,2025-07-04,1,,,,,コサリック,0
1371,6030001167458,新規,0,2025-07-04,2025-07-04,株式会社アクアパートナー,,株式会社,埼玉県,さいたま市緑区,大間木３丁目４番地２１,,11,109,3360923,,,,,,,2025-07-04,1,,,,,アクアパートナー,0
1372,6030001167466,新規,0,2025-07-04,2025-07-04,コハラ工業株式会社,,株式会社,埼玉県,所沢市,大字下安松２００番地の１,,11,208,3590024,,,,,,,2025-07-04,1,,,,,コハラコウギョウ,0
1373,6030001167499,新規,0,2025-07-04,2025-07-04,株式会社ののは,,株式会社,埼玉県,川口市,芝樋ノ爪１丁目６－３３,,11,203,3330852,,,,,,,2025-07-04,1,,,,,ノノハ,0
1376,6030003027131,新規,0,2025-07-04,2025-07-04,タグボートオフィス合同会社,,合同会社,埼玉県,さいたま市大宮区,桜木町２丁目３番地大宮マルイ７階,,11,103,3300854,,,,,,,2025-07-04,1,,,,,タグボートオフィス,0
1387,6060001038367,新規,0,2025-07-04,2025-07-04,株式会社さくら総合サービス,,株式会社,栃木県,さくら市,きぬの里３丁目１６番地１０,,09,214,3291317,,,,,,,2025-07-04,1,,,,,サクラソウゴウサービス,0
1388,6070001043085,新規,0,2025-07-04,2025-07-04,株式会社プリマベーラホールディングス,,株式会社,群馬県,太田市,西本町５７番４号,,10,205,3730033,,,,,,,2025-07-04,1,,,,,プリマベーラホールディングス,0
1389,6070001043093,新規,0,2025-07-04,2025-07-04,Ｋ‐ｄｅｓｉｇｎ株式会社,,株式会社,群馬県,沼田市,下川田町１１２１番地,,10,206,3780024,,,,,,,2025-07-04,1,,,,,ケイデザイン,0
1391,6080101025610,新規,0,2025-07-04,2025-07-04,株式会社前田空設,,株式会社,静岡県,賀茂郡東伊豆町,稲取５６７番地の２３,,22,301,4130411,,,,,,,2025-07-04,1,,,,,マエダクウセツ,0
1392,6080101025619,新規,0,2025-07-04,2025-07-04,ＰｒｏＢｉｎｄＳ株式会社,,株式会社,静岡県,沼津市,内浦小海１１７番地の４センシブル淡島７０３,,22,203,4100222,,,,,,,2025-07-04,1,,,,,プロバインズ,0
1393,6090001019372,新規,0,2025-07-04,2025-07-04,株式会社３Ｍ’Ｚ,,株式会社,山梨県,甲府市,大里町３２７９番地２８,,19,201,4000053,,,,,,,2025-07-04,1,,,,,スリーエムズ,0
1409,6120001277272,新規,0,2025-07-04,2025-07-04,株式会社ルークＳ,,株式会社,大阪府,寝屋川市,萱島信和町２３－４,,27,215,5720829,,,,,,,2025-07-04,1,,,,,ルークエス,0
1410,6120001277446,新規,0,2025-07-04,2025-07-04,田伏建装株式会社,,株式会社,大阪府,枚方市,香里ケ丘１１丁目９番７号,,27,210,5730084,,,,,,,2025-07-04,1,,,,,タブシケンソウ,0
1411,6120001277479,新規,0,2025-07-04,2025-07-04,株式会社ＲＯＹＡＬ,,株式会社,大阪府,大阪市東住吉区,公園南矢田３丁目１７－８ＥＸハイツ公園南ＩＩ１０２,00139799,27,121,5460024,,,,,,,2025-07-04,1,,,,,ロイヤル,0
1412,6120001277487,新規,0,2025-07-04,2025-07-04,株式会社ＢＥＥＫＥＮＤＥＲ,,株式会社,大阪府,大阪市西区,靭本町一丁目１４－１４－１０２,,27,106,5500000,,,,,,,2025-07-04,1,,,,,ビーケンダー,0
1413,6120001277495,新規,0,2025-07-04,2025-07-04,株式会社ベネフィット,,株式会社,大阪府,大阪市城東区,今福東１丁目８番２７号,,27,118,5360002,,,,,,,2025-07-04,1,,,,,ベネフィット,0
1414,6120001277529,新規,0,2025-07-04,2025-07-04,株式会社心,,株式会社,大阪府,大阪市淀川区,十八条２丁目８番２１号,,27,123,5320001,,,,,,,2025-07-04,1,,,,,ココロ,0
1418,6120003029845,新規,0,2025-07-04,2025-07-04,ＧＥＡＲＩＳＥ合同会社,,合同会社,大阪府,大阪市北区,梅田１丁目２番２号大阪駅前第２ビル１２－１２,,27,127,5300001,,,,,,,2025-07-04,1,,,,,ギアライズ,0
1419,6120003029903,新規,0,2025-07-04,2025-07-04,金薇合同会社,,合同会社,大阪府,大阪市阿倍野区,王子町４丁目１－４８－９１２,,27,119,5450023,,,,,,,2025-07-04,1,,,,,キンビ,0
1420,6120003029911,新規,0,2025-07-04,2025-07-04,合同会社マークトラスト,,合同会社,大阪府,大阪市東成区,東小橋１丁目７番２０号玉造Ｂａｓｅ７０１号,,27,115,5370024,,,,,,,2025-07-04,1,,,,,マークトラスト,0
1421,6120005025009,新規,0,2025-07-04,2025-07-04,税理士法人Ｃ・ファースト,,その他の設立登記法人,大阪府,大阪市浪速区,元町１丁目５番７号ナンバプラザビル,,27,111,5560016,,,,,,,2025-07-04,1,,,,,シーファースト,0
1422,6120101072004,新規,0,2025-07-04,2025-07-04,株式会社ケンキョウ,,株式会社,大阪府,堺市中区,深井北町３３０６番地,,27,142,5998271,,,,,,,2025-07-04,1,,,,,ケンキョウ,0
1426,6120901051157,新規,0,2025-07-04,2025-07-04,株式会社エクシード,,株式会社,大阪府,摂津市,東正雀２番２７号,,27,224,5660025,,,,,,,2025-07-04,1,,,,,エクシード,0
1427,6120901051181,新規,0,2025-07-04,2025-07-04,株式会社想汲,,株式会社,大阪府,茨木市,竹橋町２番２－３０１号,,27,211,5670815,,,,,,,2025-07-04,1,,,,,ソウキュウ,0
1434,6140001139108,新規,0,2025-07-04,2025-07-04,株式会社ＵＦＢ,,株式会社,兵庫県,明石市,魚住町清水２１４４番地サーパス明石土山７０３,,28,203,6740074,,,,,,,2025-07-04,1,,,,,ユーエフビー,0
1438,6150001028251,新規,0,2025-07-04,2025-07-04,株式会社出山建設業,,株式会社,奈良県,宇陀市,大宇陀調子１０１番地の４,,29,212,6332122,,,,,,,2025-07-04,1,,,,,デヤマケンセツギョウ,0
1448,6180001167419,新規,0,2025-07-04,2025-07-04,ＣＩＲＣＵＬＡＲ　ＧＲＯＷＴＨ株式会社,,株式会社,愛知県,名古屋市中川区,吉津２丁目２６１２番地,,23,110,4540981,,,,,,,2025-07-04,1,,,,,サーキュラーグロウス,0
1449,6180001167492,新規,0,2025-07-04,2025-07-04,東成株式会社,,株式会社,愛知県,常滑市,久米字南沢２－１,,23,216,4790002,,,,,,,2025-07-04,1,,,,,トウセイ,0
1450,6180001167501,新規,0,2025-07-04,2025-07-04,株式会社アンドモアファン,,株式会社,愛知県,名古屋市東区,白壁３丁目５番１号ＣＨ白壁１Ｆ,,23,102,4610011,,,,,,,2025-07-04,1,,,,,アンドモアファン,0
1451,6180001167518,新規,0,2025-07-04,2025-07-04,株式会社Ｙ．ＨＯＭＥ,,株式会社,愛知県,北名古屋市,石橋五反田５１番地１,,23,234,4810046,,,,,,,2025-07-04,1,,,,,ワイホーム,0
1452,6180001167542,新規,0,2025-07-04,2025-07-04,ＳＨＯＯＴＥＫ株式会社,,株式会社,愛知県,稲沢市,赤池宮西町３１番地,,23,220,4928016,,,,,,,2025-07-04,1,,,,,シューテック,0
1453,6180001167575,新規,0,2025-07-04,2025-07-04,株式会社ラフォーション,,株式会社,愛知県,名古屋市北区,楠味鋺４丁目１５１８番地の１,,23,103,4620014,,,,,,,2025-07-04,1,,,,,ラフォーション,0
1454,6180003028692,新規,0,2025-07-04,2025-07-04,Ｓａｋｕｒａ　Ｏｍｉｃｓ合同会社,,合同会社,愛知県,名古屋市瑞穂区,洲雲町３丁目３１番地の１第３ほーずいマンション２０１号,,23,108,4670804,,,,,,,2025-07-04,1,,,,,サクラオミクス,0
1456,6180301039978,新規,0,2025-07-04,2025-07-04,株式会社ＡＮＴＥＮＮＡ．Ｒ,,株式会社,愛知県,刈谷市,寿町３丁目２１１番地,,23,210,4480856,,,,,,,2025-07-04,1,,,,,アンテナアール,0
1462,6230001020992,新規,0,2025-07-04,2025-07-04,株式会社やち,,株式会社,富山県,氷見市,柳田１０番地１４,,16,205,9350031,,,,,,,2025-07-04,1,,,,,ヤチ,0
1467,6240001065161,新規,0,2025-07-04,2025-07-04,株式会社リバティウェル,,株式会社,広島県,広島市佐伯区,石内北３丁目８番３号,,34,108,7315109,,,,,,,2025-07-04,1,,,,,リバティウェル,0
1468,6240003007285,新規,0,2025-07-04,2025-07-04,あさひＥＸＰＲＥＳＳ合同会社,,合同会社,広島県,広島市佐伯区,八幡東１丁目１８番１０号,,34,108,7315115,,,,,,,2025-07-04,1,,,,,,0
1472,6260001040328,新規,0,2025-07-04,2025-07-04,株式会社パソウェイ,,株式会社,岡山県,倉敷市,山地１１０７番地１３,,33,202,7010104,,,,,,,2025-07-04,1,,,,,パソウェイ,0
1479,6290001110581,新規,0,2025-07-04,2025-07-04,株式会社遊ｈｅａｒｔｓ,,株式会社,福岡県,糟屋郡志免町,別府１丁目２０番６号,,40,343,8112205,,,,,,,2025-07-04,1,,,,,ユウハーツ,0
1483,6290003017073,新規,0,2025-07-04,2025-07-04,合同会社Ｏｎｅ　Ｏｎ　Ｏｎｅ,,合同会社,福岡県,福岡市南区,塩原３丁目１７－１２・３０２号,,40,134,8150032,,,,,,,2025-07-04,1,,,,,ワンオンワン,0
1484,6300001014252,新規,0,2025-07-04,2025-07-04,株式会社ＳＨＩＦＴ,,株式会社,佐賀県,西松浦郡有田町,蔵宿丙３９６８番地,,41,401,8494161,,,,,,,2025-07-04,1,,,,,シフト,0
1485,6320003004712,新規,0,2025-07-04,2025-07-04,合同会社ＣＨＥＲＩＳＨ,,合同会社,大分県,大分市,萩原４丁目１２,,44,201,8700921,,,,,,,2025-07-04,1,,,,,チェリッシュ,0
1486,6330001033373,新規,0,2025-07-04,2025-07-04,株式会社Ｃ‐ＷＯＲＫ２,,株式会社,熊本県,上益城郡嘉島町,大字上仲間８６０－１,,43,442,8613107,,,,,,,2025-07-04,1,,,,,シーワーク,0
1487,6330003011096,新規,0,2025-07-04,2025-07-04,Ｒｅｊｏｉｎｗｏｒｋｓ合同会社,,合同会社,熊本県,熊本市東区,画図東２丁目３番８号,,43,102,8620961,,,,,,,2025-07-04,1,,,,,リジョインワークス,0
1489,6350001019619,新規,0,2025-07-04,2025-07-04,株式会社協働事務機,,株式会社,宮崎県,えびの市,大字灰塚４番地,,45,209,8894233,,,,,,,2025-07-04,1,,,,,キョウドウジムキ,0
1490,6350001019627,新規,0,2025-07-04,2025-07-04,株式会社大誠産業,,株式会社,宮崎県,日向市,大字富高６８８９番地１２,,45,206,8830034,,,,,,,2025-07-04,1,,,,,タイセイサンギョウ,0
1495,6360001035400,新規,0,2025-07-04,2025-07-04,株式会社ＫＳＧキッチン,,株式会社,沖縄県,中頭郡北谷町,字桑江４８１－１７アルファ桑江Ｋ－１,,47,326,9040103,,,,,,,2025-07-04,1,,,,,ケイエスジーキッチン,0
1496,6370001052774,新規,0,2025-07-04,2025-07-04,株式会社Ｍ’ｓＡｕｔｏ,,株式会社,宮城県,名取市,愛島笠島字学市９９,,04,207,9811238,,,,,,,2025-07-04,1,,,,,エムズオート,0
1501,6390001018039,新規,0,2025-07-04,2025-07-04,株式会社ＢＵＤＤＹ,,株式会社,山形県,米沢市,松が岬１丁目２番１２号２階,,06,202,9920053,,,,,,,2025-07-04,1,,,,,バディ,0
1505,6400001017096,新規,0,2025-07-04,2025-07-04,株式会社碁石工芸,,株式会社,岩手県,大船渡市,末崎町字中森１３７番地１,,03,203,0220001,,,,,,,2025-07-04,1,,,,,ゴイシコウゲイ,0
1506,6400001017105,新規,0,2025-07-04,2025-07-04,株式会社ｋ．ｍ．ｓ．Ｇｌｏｂａｌ,,株式会社,岩手県,北上市,北鬼柳１５地割２２番地２ルピナス藤木Ｄ棟,,03,206,0240072,,,,,,,2025-07-04,1,,,,,ケイムスグローバル,0
1508,6420003003150,新規,0,2025-07-04,2025-07-04,合同会社未来,,合同会社,青森県,上北郡野辺地町,字浜掛３番地１６,,02,401,0393101,,,,,,,2025-07-04,1,,,,,ミライ,0
1512,6430001094760,新規,0,2025-07-04,2025-07-04,茂盛株式会社,,株式会社,北海道,虻田郡洞爺湖町,高砂町７－７Ａ棟ユニット１,,01,584,0495605,,,,,,,2025-07-04,1,,,,,モモリ,0
1513,6430001094793,新規,0,2025-07-04,2025-07-04,株式会社ユアーズ,,株式会社,北海道,札幌市東区,北七条東６丁目１２番地２８,,01,103,0600907,,,,,,,2025-07-04,1,,,,,ユアーズ,0
1519,6490001011099,新規,0,2025-07-04,2025-07-04,株式会社昇仁建設,,株式会社,高知県,高知市,みづき２丁目５０３番地,,39,201,7800976,,,,,,,2025-07-04,1,,,,,ショウジンケンセツ,0
1520,6490005006995,新規,0,2025-07-04,2025-07-04,一般社団法人いろ,,その他の設立登記法人,高知県,高知市,新屋敷１丁目１１番３４号,,39,201,7800911,,,,,,,2025-07-04,1,,,,,イロ,0
1522,6700150131320,新規,0,2025-07-04,2025-07-04,ＳＡＦＥＥＫ　ＵＮＩＴＥＤ　ＬＡＮＫＡ　ＰＶＴ　ＬＴＤ,,外国会社等,千葉県,香取郡多古町,出沼１５６番地４７－４,,12,347,2892301,スリランカ民主社会主義共和国、マタレ２１０００、ドールエステイトロード、Ｎｏ．６５,,,,,,2025-07-04,1,,,,,サフイークユナイテツドランカプライベートリミテツド,0
1529,7010001256451,新規,0,2025-07-04,2025-07-04,株式会社オペレーションテクノロジーズ,,株式会社,東京都,中央区,銀座７丁目１３番２０号銀座ＴＨビル９階,,13,102,1040061,,,,,,,2025-07-04,1,,,,,オペレーションテクノロジーズ,0
1530,7010001256534,新規,0,2025-07-04,2025-07-04,株式会社ＫＯＮＯＡ,,株式会社,東京都,千代田区,富士見１丁目８番１４号ラ・トゥール千代田富士見６０１号,,13,101,1020071,,,,,,,2025-07-04,1,,,,,コノア,0
1533,7010003047873,新規,0,2025-07-04,2025-07-04,むかわソーラー発電合同会社,,合同会社,東京都,中央区,京橋２丁目２番１号京橋エドグラン,,13,102,1040031,,,,,,,2025-07-04,1,,,,,ムカワソーラーハツデン,0
1534,7010003047898,新規,0,2025-07-04,2025-07-04,合同会社遊心堂,,合同会社,東京都,中央区,銀座１丁目２２番１１号銀座大竹ビジデンス２Ｆ,,13,102,1040061,,,,,,,2025-07-04,1,,,,,ユウシンドウ,0
1535,7010005040315,新規,0,2025-07-04,2025-07-04,一般社団法人全日本学生投資連盟,,その他の設立登記法人,東京都,文京区,本駒込５丁目３１番３号,,13,105,1130021,,,,,,,2025-07-04,1,,,,,ゼンニホンガクセイトウシレンメイ,0
1541,7010401191430,新規,0,2025-07-04,2025-07-04,株式会社ＳｗｅｅｔｓＬｉｎｋ,,株式会社,東京都,港区,北青山１丁目３番１号アールキューブ青山３階,,13,103,1070061,,,,,,,2025-07-04,1,,,,,スイーツリンク,0
1542,7010401191439,新規,0,2025-07-04,2025-07-04,凱徳株式会社,,株式会社,東京都,港区,芝２丁目２８－１１芝ＭＫビル５０５室,,13,103,1050014,,,,,,,2025-07-04,1,,,,,ガイトク,0
1543,7010401191463,新規,0,2025-07-04,2025-07-04,株式会社青木企画,,株式会社,東京都,港区,六本木３丁目３番８号,,13,103,1060032,,,,,,,2025-07-04,1,,,,,アオキキカク,0
1548,7010601067546,新規,0,2025-07-04,2025-07-04,株式会社ＣＡＣＡＯＴＡＩＬ,,株式会社,東京都,江東区,門前仲町１丁目１４番８号下田ビル１Ｆ,,13,108,1350048,,,,,,,2025-07-04,1,,,,,カカオテイル,0
1549,7010601067562,新規,0,2025-07-04,2025-07-04,株式会社ＪＳＰ,,株式会社,東京都,墨田区,吾妻橋１丁目９番４号１Ｆ,,13,107,1300001,,,,,,,2025-07-04,1,,,,,ジェーエスピー,0
1550,7010603011659,新規,0,2025-07-04,2025-07-04,佐藤シーリングテック合同会社,,合同会社,東京都,墨田区,東向島６丁目９番３－１１０１号,,13,107,1310032,,,,,,,2025-07-04,1,,,,,サトウシーリングテック,0
1553,7010701047919,新規,0,2025-07-04,2025-07-04,株式会社エムテク,,株式会社,東京都,品川区,旗の台２丁目２番２０号,,13,109,1420064,,,,,,,2025-07-04,1,,,,,エムテク,0
1554,7010701047935,新規,0,2025-07-04,2025-07-04,株式会社ＨＩＫＡＲＩＲＩＳＥ,,株式会社,東京都,品川区,北品川５丁目５番１５号大崎ブライトコア４階,,13,109,1410001,,,,,,,2025-07-04,1,,,,,ヒカリライズ,0
1559,7010901057684,新規,0,2025-07-04,2025-07-04,株式会社ＧＡ,,株式会社,東京都,世田谷区,等々力４丁目５番９号,,13,112,1580082,,,,,,,2025-07-04,1,,,,,ジーエー,0
1566,7011001170221,新規,0,2025-07-04,2025-07-04,マチカナ株式会社,,株式会社,東京都,渋谷区,恵比寿西２丁目４番８号ウィンド恵比寿ビル８Ｆ,,13,113,1500021,,,,,,,2025-07-04,1,,,,,マチカナ,0
1567,7011001170510,新規,0,2025-07-04,2025-07-04,株式会社Ｉｃｔｕｓ　Ｌａｂｏｒａｔｏｒｙ,,株式会社,東京都,渋谷区,神宮前６丁目２３番４号桑野ビル２階,,13,113,1500001,,,,,,,2025-07-04,1,,,,,イクタスラボラトリー,0
1569,7011003021785,新規,0,2025-07-04,2025-07-04,合同会社Ｌｕｎｏｒｉａ,,合同会社,東京都,渋谷区,道玄坂１丁目１０番８号渋谷道玄坂東急ビル２Ｆ－Ｃ,,13,113,1500043,,,,,,,2025-07-04,1,,,,,ルノリア,0
1570,7011003021975,新規,0,2025-07-04,2025-07-04,合同会社ｉｄｅａｌ,,合同会社,東京都,渋谷区,神宮前４丁目２６番２７号ルシード神宮前３階,,13,113,1500001,,,,,,,2025-07-04,1,,,,,アイディアル,0
1576,7011101112370,新規,0,2025-07-04,2025-07-04,株式会社明光みらい,,株式会社,東京都,新宿区,西新宿７丁目２０番１号,,13,104,1600023,,,,,,,2025-07-04,1,,,,,メイコウミライ,0
1578,7011103016099,新規,0,2025-07-04,2025-07-04,Ｋｅｉｋｉ合同会社,,合同会社,東京都,新宿区,西新宿３丁目３番１３号西新宿水間ビル６階,,13,104,1600023,,,,,,,2025-07-04,1,,,,,ケイキ,0
1579,7011201026479,新規,0,2025-07-04,2025-07-04,株式会社ＬｅＷＴＨＳ,,株式会社,東京都,中野区,中央３丁目３９－３Ｒ・Ｄ新中野２０１,,13,114,1640011,,,,,,,2025-07-04,1,,,,,ルワス,0
1581,7011203004755,新規,0,2025-07-04,2025-07-04,合同会社パーフェクトブルー,,合同会社,東京都,中野区,沼袋３丁目２４番８号ロイヤルハイム１３２,,13,114,1650025,,,,,,,2025-07-04,1,,,,,パーフェクトブルー,0
1582,7011401027228,新規,0,2025-07-04,2025-07-04,ライトウェルネス株式会社,,株式会社,東京都,板橋区,南常盤台１丁目２２－７サンシュウビル３０１,,13,119,1740072,,,,,,,2025-07-04,1,,,,,ライトウェルネス,0
1583,7011403004745,新規,0,2025-07-04,2025-07-04,合同会社２．５ａｒｃｈｉｔｅｃｔｓ,,合同会社,東京都,板橋区,志村２丁目１６番３３号,,13,119,1740056,,,,,,,2025-07-04,1,,,,,ニーテンゴアーキテクツ,0
1584,7011501032251,新規,0,2025-07-04,2025-07-04,ジョイア株式会社,,株式会社,東京都,荒川区,東日暮里２丁目７番１０号,,13,118,1160014,,,,,,,2025-07-04,1,,,,,ジョイア,0
1585,7011501032292,新規,0,2025-07-04,2025-07-04,中天国際株式会社,,株式会社,東京都,北区,豊島２丁目１０番６号１０７室,,13,117,1140003,,,,,,,2025-07-04,1,,,,,チュウテンコクサイ,0
1588,7011801046397,新規,0,2025-07-04,2025-07-04,ＦＡＭＩＬＹ株式会社,,株式会社,東京都,足立区,本木北町３番１８号,,13,121,1230857,,,,,,,2025-07-04,1,,,,,ファミリー,0
1589,7011801046406,新規,0,2025-07-04,2025-07-04,ＥＸ商事株式会社,,株式会社,東京都,足立区,六木２丁目４番１５号,,13,121,1210052,,,,,,,2025-07-04,1,,,,,イーエックスショウジ,0
1590,7012301014448,新規,0,2025-07-04,2025-07-04,株式会社プロフロー,,株式会社,東京都,町田市,小川６丁目２３番１号ザブルームテラス４３４号,,13,209,1940003,,,,,,,2025-07-04,1,,,,,プロフロー,0
1591,7012801024079,新規,0,2025-07-04,2025-07-04,株式会社石富,,株式会社,東京都,武蔵村山市,残堀２丁目９番地の１,,13,223,2080034,,,,,,,2025-07-04,1,,,,,イシトミ,0
1594,7013301054541,新規,0,2025-07-04,2025-07-04,株式会社Ｆｒｉｇｇ,,株式会社,東京都,豊島区,西池袋３丁目２１番１３－２００９号,,13,116,1710021,,,,,,,2025-07-04,1,,,,,フリッグ,0
1597,7020001163688,新規,0,2025-07-04,2025-07-04,株式会社ＣＯＭＥＬＵＣＫ,,株式会社,神奈川県,横浜市西区,北幸２丁目１１番１０－１３０８号,,14,103,2200004,,,,,,,2025-07-04,1,,,,,カムラック,0
1598,7020001163705,新規,0,2025-07-04,2025-07-04,Ａｇａｉｎｓｔ株式会社,,株式会社,神奈川県,横浜市西区,浅間町１丁目４番３号ウィザードビル４０２,,14,103,2200072,,,,,,,2025-07-04,1,,,,,アゲインスト,0
1601,7020003028848,新規,0,2025-07-04,2025-07-04,合同会社ＤＮＫ,,合同会社,神奈川県,横浜市港北区,篠原東３丁目２９番１３号コーポ池田９５－２０５,,14,109,2220022,,,,,,,2025-07-04,1,,,,,ディーエヌケー,0
1602,7020005016925,新規,0,2025-07-04,2025-07-04,一般社団法人青山学院大学バスケットボール倶楽部,,その他の設立登記法人,神奈川県,川崎市中原区,上小田中３丁目２９番２－１３８号,,14,133,2110053,,,,,,,2025-07-04,1,,,,,アオヤマガクインダイガクバスケットボールクラブ,0
1611,7030001167390,新規,0,2025-07-04,2025-07-04,株式会社Ｍ　ｐｌａｎｎｉｎｇ,,株式会社,埼玉県,桶川市,大字川田谷５８１２番地の５,,11,231,3630027,,,,,,,2025-07-04,1,,,,,エムプランニング,0
1612,7030001167416,新規,0,2025-07-04,2025-07-04,株式会社ＢＩＲＴＨ,,株式会社,埼玉県,さいたま市北区,日進町２丁目８３７番地６ＫＡＮＪＩＳＱＵＡＲＥ１０１,,11,102,3310823,,,,,,,2025-07-04,1,,,,,バース,0
1613,7030001167432,新規,0,2025-07-04,2025-07-04,株式会社Ｇｏｎｇｏｌ,,株式会社,埼玉県,さいたま市大宮区,宮町２丁目１番地ＴＣＣＩビル３Ｆ,,11,103,3300802,,,,,,,2025-07-04,1,,,,,ゴンゴル,0
1614,7030001167449,新規,0,2025-07-04,2025-07-04,株式会社ティールーク,,株式会社,埼玉県,加須市,花崎４丁目２２番地１２,,11,210,3470032,,,,,,,2025-07-04,1,,,,,ティールーク,0
1615,7030001167457,新規,0,2025-07-04,2025-07-04,鈴木建築株式会社,,株式会社,埼玉県,比企郡川島町,大字中山２００５番地１,,11,346,3500165,,,,,,,2025-07-04,1,,,,,スズキケンチク,0
1616,7030001167473,新規,0,2025-07-04,2025-07-04,株式会社北本公園,,株式会社,埼玉県,北本市,古市場２丁目２６５番地２,,11,233,3640003,,,,,,,2025-07-04,1,,,,,キタモトコウエン,0
1617,7030001167481,新規,0,2025-07-04,2025-07-04,株式会社コエル,,株式会社,埼玉県,入間郡三芳町,大字北永井３番地４,,11,324,3540044,,,,,,,2025-07-04,1,,,,,コエル,0
1618,7030001167523,新規,0,2025-07-04,2025-07-04,株式会社ＰＡＳＩＯＮ,,株式会社,埼玉県,さいたま市桜区,田島４丁目７番９号,,11,106,3380837,,,,,,,2025-07-04,1,,,,,パシオン,0
1620,7030003027114,新規,0,2025-07-04,2025-07-04,合同会社Ｏｒａｔ．,,合同会社,埼玉県,入間市,下藤沢４丁目２６番地４３,,11,225,3580011,,,,,,,2025-07-04,1,,,,,オーラット,0
1624,7040001139463,新規,0,2025-07-04,2025-07-04,株式会社ＰＴ,,株式会社,千葉県,茂原市,東郷７８１－７,,12,210,2970017,,,,,,,2025-07-04,1,,,,,パト,0
1631,7040005022830,新規,0,2025-07-04,2025-07-04,税理士法人千葉トラスト会計,,その他の設立登記法人,千葉県,館山市,北条１４５４番地の１,,12,205,2940045,,,,,,,2025-07-04,1,,,,,チバトラストカイケイ,0
1633,7050001056880,新規,0,2025-07-04,2025-07-04,株式会社スミダホールディングス,,株式会社,茨城県,筑西市,門井２１１４番地１,,08,227,3091107,,,,,,,2025-07-04,1,,,,,スミダホールディングス,0
1634,7050003009374,新規,0,2025-07-04,2025-07-04,開運ＧＬＯＢＡＬ合同会社,,合同会社,茨城県,稲敷郡阿見町,大字若栗１３５４－１１－１０１－ａ,,08,443,3000333,,,,,,,2025-07-04,1,,,,,,0
1635,7050003009399,新規,0,2025-07-04,2025-07-04,ＲＪ　ＪＡＰＡＮ　ＭＯＴＯＲＳ合同会社,,合同会社,茨城県,坂東市,逆井３５３６番地大都ビル２０５,,08,228,3060501,,,,,,,2025-07-04,1,,,,,アールジェイジャパンモータース,0
1638,7060001038341,新規,0,2025-07-04,2025-07-04,株式会社ＥＣＬＩＰＳＥ,,株式会社,栃木県,足利市,末広町１６番地１,,09,202,3260031,,,,,,,2025-07-04,1,,,,,エクリプス,0
1639,7060001038366,新規,0,2025-07-04,2025-07-04,村井グリーン株式会社,,株式会社,栃木県,大田原市,蛭畑９４５番地,,09,210,3240411,,,,,,,2025-07-04,1,,,,,ムライグリーン,0
1640,7060001038374,新規,0,2025-07-04,2025-07-04,株式会社Ｆ‐ＧＲＯＷ,,株式会社,栃木県,河内郡上三川町,大字下蒲生８１３番地１,,09,301,3290616,,,,,,,2025-07-04,1,,,,,エフグロウ,0
1643,7080001027012,新規,0,2025-07-04,2025-07-04,株式会社オオトミ,,株式会社,静岡県,牧之原市,静波２０４２番地８,,22,226,4210422,,,,,,,2025-07-04,1,,,,,オオトミ,0
1644,7080003003498,新規,0,2025-07-04,2025-07-04,Ｍｉｓｕｎｏ　Ｋｅｎｓｏ合同会社,,合同会社,静岡県,静岡市駿河区,丸子新田３３８番地の１,,22,102,4210111,,,,,,,2025-07-04,1,,,,,ミスノケンソウ,0
1645,7080101025618,新規,0,2025-07-04,2025-07-04,ＥＫ株式会社,,株式会社,静岡県,田方郡函南町,塚本１５４番地の１,,22,325,4190124,,,,,,,2025-07-04,1,,,,,イーケー,0
1649,7080401028007,新規,0,2025-07-04,2025-07-04,株式会社アオバ,,株式会社,静岡県,浜松市中央区,常光町１０番地,,22,138,4313103,,,,,,,2025-07-04,1,,,,,アオバ,0
1666,7120001277296,新規,0,2025-07-04,2025-07-04,Ｋ．Ｊ．Ｌａｂ株式会社,,株式会社,大阪府,大阪市東成区,東小橋２丁目１０番７－１１０４号,,27,115,5370024,,,,,,,2025-07-04,1,,,,,ケージェイラボ,0
1667,7120001277420,新規,0,2025-07-04,2025-07-04,株式会社Ｇ‐ＷＡＶＥ　Ｉｎｓｐｅｃｔｉｏｎ,,株式会社,大阪府,大阪市北区,芝田２丁目８番１１号,,27,127,5300012,,,,,,,2025-07-04,1,,,,,ジーウェーブインスペクション,0
1668,7120001277437,新規,0,2025-07-04,2025-07-04,株式会社Ｎｉｃｏ　ｃｒｅａｔｅ,,株式会社,大阪府,大阪市平野区,瓜破１丁目１番３７号,,27,126,5470024,,,,,,,2025-07-04,1,,,,,ニコクリエイト,0
1669,7120001277461,新規,0,2025-07-04,2025-07-04,株式会社フチュール,,株式会社,大阪府,大阪市北区,芝田２丁目８－１１共栄ビル３階,,27,127,5300012,,,,,,,2025-07-04,1,,,,,フチュール,0
1670,7120001277486,新規,0,2025-07-04,2025-07-04,旭昇金属株式会社,,株式会社,大阪府,大阪市生野区,小路東１丁目３番１７号,,27,116,5440003,,,,,,,2025-07-04,1,,,,,キョクショウキンゾク,0
1671,7120001277503,新規,0,2025-07-04,2025-07-04,株式会社モノワ,,株式会社,大阪府,大阪市北区,梅田１丁目２番２号大阪駅前第２ビル１２－１２,,27,127,5300001,,,,,,,2025-07-04,1,,,,,モノワ,0
1672,7120001277511,新規,0,2025-07-04,2025-07-04,株式会社ＤＯＺＡＮ　ＰＡＲＴＮＥＲＳ,,株式会社,大阪府,大阪市北区,角田町８番４７号阪急グランドビル２６階,,27,127,5300017,,,,,,,2025-07-04,1,,,,,ドウザンパートナーズ,0
1673,7120001277544,新規,0,2025-07-04,2025-07-04,ミライ興産株式会社,,株式会社,大阪府,大阪市北区,芝田２丁目２番１７号,,27,127,5300012,,,,,,,2025-07-04,1,,,,,ミライコウサン,0
1674,7120001277560,新規,0,2025-07-04,2025-07-04,株式会社ドパフル,,株式会社,大阪府,交野市,森南３丁目５－４,,27,230,5760031,,,,,,,2025-07-04,1,,,,,ドパフル,0
1675,7120001277569,新規,0,2025-07-04,2025-07-04,株式会社Ｄｅｓｅｒｔ,,株式会社,大阪府,大阪市阿倍野区,北畠１丁目１４番１８号,,27,119,5450035,,,,,,,2025-07-04,1,,,,,デゼール,0
1676,7120101071995,新規,0,2025-07-04,2025-07-04,株式会社セントラル,,株式会社,大阪府,堺市堺区,榎元町３丁１番２７号,,27,141,5900027,,,,,,,2025-07-04,1,,,,,セントラル,0
1677,7120101072011,新規,0,2025-07-04,2025-07-04,株式会社ＨＭＩ,,株式会社,大阪府,堺市南区,美木多上１３８９番地３,,27,145,5900136,,,,,,,2025-07-04,1,,,,,エイチエムアイ,0
1678,7120101072028,新規,0,2025-07-04,2025-07-04,株式会社エイテック,,株式会社,大阪府,泉南市,北野２丁目４番１号,,27,228,5900532,,,,,,,2025-07-04,1,,,,,エイテック,0
1688,7140001139123,新規,0,2025-07-04,2025-07-04,ラクロッシュ株式会社,,株式会社,兵庫県,丹波市,柏原町上小倉３７０番地,,28,223,6693304,,,,,,,2025-07-04,1,,,,,ラクロッシュ,0
1689,7140001139206,新規,0,2025-07-04,2025-07-04,株式会社ラクリ,,株式会社,兵庫県,尼崎市,武庫之荘１丁目２－４メゾンロイヤル武庫之荘２０１,,28,202,6610035,,,,,,,2025-07-04,1,,,,,ラクリ,0
1702,7180001167500,新規,0,2025-07-04,2025-07-04,株式会社錦製作所,,株式会社,愛知県,江南市,前飛保町緑ケ丘３８番地,,23,217,4838334,,,,,,,2025-07-04,1,,,,,ニシキセイサクショ,0
1703,7180001167509,新規,0,2025-07-04,2025-07-04,株式会社ＤＯＵＫＥＴＡ,,株式会社,愛知県,名古屋市千種区,堀割町２丁目６番１２号,,23,101,4640065,,,,,,,2025-07-04,1,,,,,ドウケタ,0
1704,7180001167525,新規,0,2025-07-04,2025-07-04,株式会社名港商会,,株式会社,愛知県,名古屋市港区,小碓３丁目１４４番地,,23,111,4550801,,,,,,,2025-07-04,1,,,,,メイコウショウカイ,0
1705,7180001167533,新規,0,2025-07-04,2025-07-04,株式会社ＳＳ,,株式会社,愛知県,海部郡大治町,大字鎌須賀字川畔１５０番地の５,,23,424,4901135,,,,,,,2025-07-04,1,,,,,エスエス,0
1706,7180001167558,新規,0,2025-07-04,2025-07-04,エアロスペース解析設計ソリューションズ株式会社,,株式会社,愛知県,名古屋市中区,丸の内２丁目１９番３２号パインツリー丸の内,,23,106,4600002,,,,,,,2025-07-04,1,,,,,エアロスペースカイセキセッケイソリューションズ,0
1707,7180001167574,新規,0,2025-07-04,2025-07-04,名鋼株式会社,,株式会社,愛知県,名古屋市北区,新沼町４３番地,,23,103,4620062,,,,,,,2025-07-04,1,,,,,メイコウ,0
1708,7180003028691,新規,0,2025-07-04,2025-07-04,合同会社Ｐａｓｓｙ,,合同会社,愛知県,名古屋市東区,二丁目１３番１８号,,23,102,4610000,,,,,,,2025-07-04,1,,,,,パッシィ,0
1711,7180005021141,新規,0,2025-07-04,2025-07-04,一般社団法人ＦＢＬ,,その他の設立登記法人,愛知県,名古屋市名東区,上社４丁目２０６番地,,23,115,4650025,,,,,,,2025-07-04,1,,,,,エフビーエル,0
1714,7180301039969,新規,0,2025-07-04,2025-07-04,株式会社ＩＴＫ,,株式会社,愛知県,豊川市,国府町流霞１１６番地,,23,207,4420854,,,,,,,2025-07-04,1,,,,,アイティーケイ,0
1717,7190001032364,新規,0,2025-07-04,2025-07-04,株式会社成昇,,株式会社,三重県,四日市市,南小松町１４１８番地１,,24,202,5100971,,,,,,,2025-07-04,1,,,,,セイショウ,0
1720,7200001043962,新規,0,2025-07-04,2025-07-04,株式会社リーダージャパン,,株式会社,岐阜県,美濃加茂市,西町１丁目２９７番地（１階）,,21,211,5050046,,,,,,,2025-07-04,1,,,,,リーダージャパン,0
1724,7230001020983,新規,0,2025-07-04,2025-07-04,株式会社イマジオ,,株式会社,富山県,富山市,久方町４番５号,,16,201,9300848,,,,,,,2025-07-04,1,,,,,イマジオ,0
1730,7240001065152,新規,0,2025-07-04,2025-07-04,株式会社ＳＫＹＣＬＥＡＲ,,株式会社,広島県,安芸郡熊野町,中溝５丁目７番６号,,34,307,7314214,,,,,,,2025-07-04,1,,,,,スカイクリア,0
1731,7240001065160,新規,0,2025-07-04,2025-07-04,株式会社山陽ビール,,株式会社,広島県,広島市佐伯区,五日市町大字上河内１５４４,,34,108,7315151,,,,,,,2025-07-04,1,,,,,サンヨウビール,0
1734,7280001009452,新規,0,2025-07-04,2025-07-04,株式会社Ｅ‐ＢＡＳＥ,,株式会社,島根県,益田市,遠田町１１８６番地２,,32,204,6993676,,,,,,,2025-07-04,1,,,,,イーベース,0
1735,7280003001960,新規,0,2025-07-04,2025-07-04,合同会社一,,合同会社,島根県,松江市,末次町５,,32,201,6900846,,,,,,,2025-07-04,1,,,,,ヒトツ,0
1740,7290001110548,新規,0,2025-07-04,2025-07-04,株式会社ＢｅｅｔｏＣ,,株式会社,福岡県,春日市,春日原東町２丁目２６ブランシュ・パレ４０２,,40,218,8160801,,,,,,,2025-07-04,1,,,,,ビートゥーシー,0
1744,7330001033356,新規,0,2025-07-04,2025-07-04,株式会社悠,,株式会社,熊本県,菊池郡菊陽町,大字原水１０６３番地３,,43,404,8691102,,,,,,,2025-07-04,1,,,,,ユウ,0
1745,7330001033372,新規,0,2025-07-04,2025-07-04,株式会社Ｃ‐ＰＬＵＳ,,株式会社,熊本県,上益城郡嘉島町,大字上仲間８６０－１,,43,442,8613107,,,,,,,2025-07-04,1,,,,,シープラス,0
1746,7330003011079,新規,0,2025-07-04,2025-07-04,合同会社ジビエＬａｂそう心,,合同会社,熊本県,熊本市中央区,九品寺３丁目１６番３１号ＭＪＲ九品寺テラス２０１,,43,101,8620976,,,,,,,2025-07-04,1,,,,,ジビエラボソウシン,0
1747,7330003011095,新規,0,2025-07-04,2025-07-04,合同会社花みづき,,合同会社,熊本県,熊本市東区,健軍４丁目１３番１９号,,43,102,8620911,,,,,,,2025-07-04,1,,,,,ハナミヅキ,0
1749,7340001027480,新規,0,2025-07-04,2025-07-04,株式会社一,,株式会社,鹿児島県,鹿屋市,輝北町上百引４０３５番地３,,46,203,8930201,,,,,,,2025-07-04,1,,,,,ハジメ,0
1752,7350001019618,新規,0,2025-07-04,2025-07-04,株式会社ｓｅｖｅｎ　ｅｉｇｈｔ,,株式会社,宮崎県,児湯郡高鍋町,大字北高鍋３３８３番地１７,,45,401,8840002,,,,,,,2025-07-04,1,,,,,セブンエイト,0
1755,7390001018038,新規,0,2025-07-04,2025-07-04,株式会社南自動車工業,,株式会社,山形県,米沢市,大字笹野３９７９番地１,,06,202,9921443,,,,,,,2025-07-04,1,,,,,ミナミジドウシャコウギョウ,0
1756,7400001017095,新規,0,2025-07-04,2025-07-04,きたぎんキャピタルパートナーズ株式会社,,株式会社,岩手県,盛岡市,中央通１丁目６番７号,,03,201,0200021,,,,,,,2025-07-04,1,,,,,キタギンキャピタルパートナーズ,0
1759,7410001014216,新規,0,2025-07-04,2025-07-04,株式会社佐藤興業,,株式会社,秋田県,秋田市,大住２丁目１番７号,,05,201,0101436,,,,,,,2025-07-04,1,,,,,サトウコウギョウ,0
1764,7430003017801,新規,0,2025-07-04,2025-07-04,合同会社坂井企画,,合同会社,北海道,札幌市南区,澄川四条２丁目１５－１１－２０３,,01,106,0050004,,,,,,,2025-07-04,1,,,,,サカイキカク,0
1765,7430003017826,新規,0,2025-07-04,2025-07-04,美ＳＯＭＡ合同会社,,合同会社,北海道,北広島市,栄町１丁目１番地２アンビシャスビル２階てのひら鍼灸院整骨院内,,01,234,0611133,,,,,,,2025-07-04,1,,,,,ビソウマ,0
1767,7440001009642,新規,0,2025-07-04,2025-07-04,株式会社キャピタルフラット,,株式会社,北海道,函館市,桔梗４丁目１５番１２号,,01,202,0410808,,,,,,,2025-07-04,1,,,,,キャピタルフラット,0
1779,8010001256500,新規,0,2025-07-04,2025-07-04,株式会社ノア,,株式会社,東京都,中央区,銀座１丁目１２番４号Ｎ＆ＥＢＬＤ．６Ｆ,,13,102,1040061,,,,,,,2025-07-04,1,,,,,ノア,0
1780,8010001256509,新規,0,2025-07-04,2025-07-04,株式会社ハグリーパーク,,株式会社,東京都,中央区,銀座１丁目１２―４Ｎ＆ＥＢＬＤ．７階,,13,102,1040061,,,,,,,2025-07-04,1,,,,,ハグリーパーク,0
1781,8010001256541,新規,0,2025-07-04,2025-07-04,ＴＯＫＩＷＡホールディングス株式会社,,株式会社,東京都,千代田区,神田神保町２丁目３８番１１号,,13,101,1010051,,,,,,,2025-07-04,1,,,,,トキワホールディングス,0
1782,8010001256599,新規,0,2025-07-04,2025-07-04,株式会社Ｎｅｘａｄａｔａ,,株式会社,東京都,中央区,銀座１丁目１２番４号Ｎ＆ＥＢＬＤ．６Ｆ,,13,102,1040061,,,,,,,2025-07-04,1,,,,,ネクサデータ,0
1784,8010003047889,新規,0,2025-07-04,2025-07-04,Ｃ．ＲＩＳＥ合同会社,,合同会社,東京都,中央区,銀座１丁目２２番１１号銀座大竹ビジデンス２Ｆ,,13,102,1040061,,,,,,,2025-07-04,1,,,,,シーライズ,0
1795,8010401191470,新規,0,2025-07-04,2025-07-04,ＶＩＮＴＡＧＥ　ＣＡＶＥ　ＣＡＰＩＴＡＬ株式会社,,株式会社,東京都,港区,元麻布１丁目３番２号元麻布ヒルズフォレストテラスイースト,,13,103,1060046,,,,,,,2025-07-04,1,,,,,ヴィンテージケーヴキャピタル,0
1796,8010403035460,新規,0,2025-07-04,2025-07-04,プラスアイデザイン合同会社,,合同会社,東京都,港区,西麻布１丁目８番４号,,13,103,1060031,,,,,,,2025-07-04,1,,,,,プラスアイデザイン,0
1797,8010403035477,新規,0,2025-07-04,2025-07-04,合同会社ＴＭ,,合同会社,東京都,港区,北青山１丁目３番１号アールキューブ青山３階,,13,103,1070061,,,,,,,2025-07-04,1,,,,,ティーエム,0
1816,8010603011666,新規,0,2025-07-04,2025-07-04,合同会社デクル,,合同会社,東京都,江東区,東雲１丁目９番２０－５０８号,,13,108,1350062,,,,,,,2025-07-04,1,,,,,デクル,0
1823,8010901057634,新規,0,2025-07-04,2025-07-04,株式会社ルミナス,,株式会社,東京都,世田谷区,玉川台２丁目２２番２０号イイダアネックスＶＩＩ４０１号室,00139791,13,112,1580096,,,,,,,2025-07-04,1,,,,,ルミナス,0
1824,8010901057683,新規,0,2025-07-04,2025-07-04,株式会社ともいき社,,株式会社,東京都,世田谷区,宮坂１丁目１９番５号,,13,112,1560051,,,,,,,2025-07-04,1,,,,,トモイキシャ,0
1830,8011001170674,新規,0,2025-07-04,2025-07-04,テックロワール株式会社,,株式会社,東京都,渋谷区,恵比寿西２丁目４番８号ウィンド恵比寿ビル８Ｆ,,13,113,1500021,,,,,,,2025-07-04,1,,,,,テックロワール,0
1831,8011001170963,新規,0,2025-07-04,2025-07-04,ポン不動産株式会社,,株式会社,東京都,目黒区,中目黒４丁目５番７号,,13,110,1530061,,,,,,,2025-07-04,1,,,,,ポンフドウサン,0
1832,8011001171053,新規,0,2025-07-04,2025-07-04,株式会社金井建装,,株式会社,東京都,目黒区,目黒本町３丁目１２－１７,,13,110,1520002,,,,,,,2025-07-04,1,,,,,カナイケンソウ,0
1834,8011101112171,新規,0,2025-07-04,2025-07-04,データ・エコノミーコイン株式会社,,株式会社,東京都,新宿区,新宿２丁目１２番１３号新宿アントレサロン２階,,13,104,1600022,,,,,,,2025-07-04,1,,,,,データエコノミーコイン,0
1835,8011105011510,新規,0,2025-07-04,2025-07-04,社会保険労務士法人人事オフィス,,その他の設立登記法人,東京都,新宿区,高田馬場１丁目３４番２号縄田ビル４０１,,13,104,1690075,,,,,,,2025-07-04,1,,,,,ジンジオフィス,0
1836,8011203004754,新規,0,2025-07-04,2025-07-04,合同会社Ｈｏｒｉｚｏｎ　Ｈａｒｂｏｒ,,合同会社,東京都,中野区,新井５丁目３３－８－１００２,,13,114,1650026,,,,,,,2025-07-04,1,,,,,ホライズンハーバー,0
1837,8011205002698,新規,0,2025-07-04,2025-07-04,一般社団法人透花会,,その他の設立登記法人,東京都,中野区,新井１丁目１６番１４号,,13,114,1650026,,,,,,,2025-07-04,1,,,,,トウカカイ,0
1838,8011303005628,新規,0,2025-07-04,2025-07-04,ＤＫ＆Ｃｏ．合同会社,,合同会社,東京都,杉並区,堀ノ内１丁目６番３号マンション方南町二葉４０１,,13,115,1660013,,,,,,,2025-07-04,1,,,,,ディーケーアンドコー,0
1840,8011603004759,新規,0,2025-07-04,2025-07-04,ＬＥＶＩコンサルタント合同会社,,合同会社,東京都,練馬区,練馬３丁目２１－１,,13,120,1760001,,,,,,,2025-07-04,1,,,,,レビコンサルタント,0
1844,8011801046405,新規,0,2025-07-04,2025-07-04,株式会社ＲＥＤＥＶＥＬＯＰ,,株式会社,東京都,葛飾区,立石６丁目１６番２－６０７号ウイングプラザ,,13,122,1240012,,,,,,,2025-07-04,1,,,,,リディベロップ,0
1846,8012403007217,新規,0,2025-07-04,2025-07-04,穂高キャピタルマネジメント合同会社,,合同会社,東京都,武蔵野市,関前４丁目４番１５号２,,13,203,1800014,,,,,,,2025-07-04,1,,,,,ホタカキャピタルマネジメント,0
1847,8012701018948,新規,0,2025-07-04,2025-07-04,ココロエスティー株式会社,,株式会社,東京都,西東京市,向台町４丁目１５番２９号第一コーポ正和２０３,,13,229,1880013,,,,,,,2025-07-04,1,,,,,ココロエスティー,0
1861,8020001163679,新規,0,2025-07-04,2025-07-04,フィレスタ株式会社,,株式会社,神奈川県,横浜市都筑区,茅ケ崎東３丁目２５番２７号,,14,118,2240033,,,,,,,2025-07-04,1,,,,,フィレスタ,0
1862,8020001163687,新規,0,2025-07-04,2025-07-04,株式会社ａｌｉｅ,,株式会社,神奈川県,横浜市港北区,篠原西町１番１８号,,14,109,2220025,,,,,,,2025-07-04,1,,,,,アリー,0
1863,8020001163695,新規,0,2025-07-04,2025-07-04,株式会社舞夢,,株式会社,神奈川県,川崎市幸区,小向仲野町１番３４－３号,,14,132,2120002,,,,,,,2025-07-04,1,,,,,マイム,0
1864,8020001163704,新規,0,2025-07-04,2025-07-04,株式会社アプレイズ,,株式会社,神奈川県,横浜市磯子区,西町６番８号Ｊクレスト根岸３０４,,14,107,2350007,,,,,,,2025-07-04,1,,,,,アプレイズ,0
1865,8020001163720,新規,0,2025-07-04,2025-07-04,株式会社ＰＬＡＮＥＴ,,株式会社,神奈川県,横浜市都筑区,茅ケ崎南４丁目２番４号,,14,118,2240037,,,,,,,2025-07-04,1,,,,,プラネット,0
1871,8020003028847,新規,0,2025-07-04,2025-07-04,合同会社陶冶匠,,合同会社,神奈川県,川崎市宮前区,馬絹６丁目５番７号カルム宮崎台４０４号,,14,136,2160035,,,,,,,2025-07-04,1,,,,,トウヤショウ,0
1875,8021001085657,新規,0,2025-07-04,2025-07-04,株式会社レコードラボ,,株式会社,神奈川県,茅ヶ崎市,中海岸２丁目５番５号～１１７号,,14,207,2530055,,,,,,,2025-07-04,1,,,,,レコードラボ,0
1876,8021003016214,新規,0,2025-07-04,2025-07-04,合同会社Ｓ‐Ｃａｌｍ,,合同会社,神奈川県,相模原市南区,下溝２０８９番地１５,,14,153,2520335,,,,,,,2025-07-04,1,,,,,エスカーム,0
1888,8030001167349,新規,0,2025-07-04,2025-07-04,株式会社夕華寧,,株式会社,埼玉県,桶川市,南２丁目１番５号１０３,,11,231,3630015,,,,,,,2025-07-04,1,,,,,ユウガネ,0
1889,8030001167431,新規,0,2025-07-04,2025-07-04,株式会社ＫＡＴＯ　ＭＡＬＬＥＴ,,株式会社,埼玉県,和光市,南１丁目３０番１４号,,11,229,3510104,,,,,,,2025-07-04,1,,,,,カトウマレット,0
1890,8030001167456,新規,0,2025-07-04,2025-07-04,株式会社トヨハイブサイトウ,,株式会社,埼玉県,春日部市,道口蛭田１０２番地,,11,214,3440045,,,,,,,2025-07-04,1,,,,,トヨハイブサイトウ,0
1891,8030001167480,新規,0,2025-07-04,2025-07-04,株式会社Ｔｓｕｚｕｒｕ,,株式会社,埼玉県,さいたま市緑区,大字下野田３１３番地１シャーメゾンアリスト２０２,,11,109,3360962,,,,,,,2025-07-04,1,,,,,ツズル,0
1892,8030003027113,新規,0,2025-07-04,2025-07-04,合同会社本覚堂,,合同会社,埼玉県,川口市,宮町７番７号,,11,203,3320028,,,,,,,2025-07-04,1,,,,,ホンカクドウ,0
1897,8040001139504,新規,0,2025-07-04,2025-07-04,トランスブリッジ株式会社,,株式会社,千葉県,成田市,吾妻１丁目２３番地１（ビレッジハウス成田吾妻タワー８０３号）,,12,211,2860018,,,,,,,2025-07-04,1,,,,,トランスブリッジ,0
1901,8060001038349,新規,0,2025-07-04,2025-07-04,株式会社小菅技建,,株式会社,栃木県,真岡市,亀山３丁目２０番地６,,09,209,3214363,,,,,,,2025-07-04,1,,,,,コスゲギケン,0
1902,8060001038365,新規,0,2025-07-04,2025-07-04,中山不動産株式会社,,株式会社,栃木県,那須塩原市,橋本町８番５０号,,09,213,3250043,,,,,,,2025-07-04,1,,,,,ナカヤマフドウサン,0
1904,8060003005628,新規,0,2025-07-04,2025-07-04,ＨＯＡＮＧ　ＡＮＨ合同会社,,合同会社,栃木県,宇都宮市,東宿郷２丁目１３番１５号ソフィアＩＩ２Ｆ,00139793,09,201,3210953,,,,,,,2025-07-04,1,,,,,ホアンアイン,0
1906,8080001027011,新規,0,2025-07-04,2025-07-04,株式会社リヴァセット,,株式会社,静岡県,静岡市駿河区,曲金３丁目７番１２号,,22,102,4228006,,,,,,,2025-07-04,1,,,,,リヴァセット,0
1907,8080101025609,新規,0,2025-07-04,2025-07-04,株式会社ＭＳｔｅｃｈ,,株式会社,静岡県,富士宮市,杉田６８０番地の４,,22,207,4180021,,,,,,,2025-07-04,1,,,,,エムエステック,0
1908,8080101025617,新規,0,2025-07-04,2025-07-04,南豆フォレスト株式会社,,株式会社,静岡県,下田市,相玉５７８番地の１,,22,219,4130711,,,,,,,2025-07-04,1,,,,,ナンズフォレスト,0
1914,8100005013368,新規,0,2025-07-04,2025-07-04,一般社団法人わかほこども,,その他の設立登記法人,長野県,長野市,若穂綿内６４５９番地１０,,20,201,3810101,,,,,,,2025-07-04,1,,,,,ワカホコドモ,0
1933,8120001277221,新規,0,2025-07-04,2025-07-04,株式会社Ｌｅｕｋ,,株式会社,大阪府,大阪市天王寺区,玉造本町１番７号セイワパレス天王寺真田山１階１０２号室,,27,109,5430013,,,,,,,2025-07-04,1,,,,,ルーク,0
1934,8120001277361,新規,0,2025-07-04,2025-07-04,天安株式会社,,株式会社,大阪府,大阪市淀川区,新北野３丁目７番１４号グランビルド新北野ＩＩ４０３,00139789,27,123,5320025,,,,,,,2025-07-04,1,,,,,テンアン,0
1935,8120001277428,新規,0,2025-07-04,2025-07-04,株式会社スリーステップ,,株式会社,大阪府,大阪市中央区,瓦町１丁目５番８号,,27,128,5410048,,,,,,,2025-07-04,1,,,,,スリーステップ,0
1936,8120001277477,新規,0,2025-07-04,2025-07-04,アイエッジツールズ株式会社,,株式会社,大阪府,大阪市鶴見区,今津北５丁目２番２０号,,27,124,5380041,,,,,,,2025-07-04,1,,,,,アイエッジツールズ,0
1937,8120001277502,新規,0,2025-07-04,2025-07-04,Ｕｎｍｏｖｅ株式会社,,株式会社,大阪府,交野市,星田山手１丁目５番１号,,27,230,5760014,,,,,,,2025-07-04,1,,,,,アンムーヴ,0
1939,8120101071994,新規,0,2025-07-04,2025-07-04,株式会社ビジョンアンドストーリー,,株式会社,大阪府,松原市,柴垣２丁目９３７番地の２９,,27,217,5800017,,,,,,,2025-07-04,1,,,,,ビジョンアンドストーリー,0
1940,8120101072027,新規,0,2025-07-04,2025-07-04,株式会社ＶＡＮ　ＰＩＴ,,株式会社,大阪府,和泉市,伏屋町３丁目３０－８,,27,219,5940031,,,,,,,2025-07-04,1,,,,,バンピット,0
1941,8120101072035,新規,0,2025-07-04,2025-07-04,株式会社Ｅｒｕｍａ,,株式会社,大阪府,堺市中区,八田北町１０番地３１－６棟３０９号,,27,142,5998262,,,,,,,2025-07-04,1,,,,,エルマ,0
1942,8120103006552,新規,0,2025-07-04,2025-07-04,合同会社大福,,合同会社,大阪府,岸和田市,額原町１０２０番地,,27,202,5960822,,,,,,,2025-07-04,1,,,,,ダイフク,0
1945,8130003010579,新規,0,2025-07-04,2025-07-04,合同会社Ｈ’２,,合同会社,京都府,京都市右京区,西院西三蔵町８－６サンシャイン山双１０８号,,26,108,6150027,,,,,,,2025-07-04,1,,,,,ヒッツ,0
1949,8140001139031,新規,0,2025-07-04,2025-07-04,株式会社オフィスドリーム,,株式会社,兵庫県,明石市,二見町東二見２０７－１－１０６,,28,203,6740092,,,,,,,2025-07-04,1,,,,,オフィスドリーム,0
1950,8140001139130,新規,0,2025-07-04,2025-07-04,株式会社チャンピオンヒルズ,,株式会社,兵庫県,神戸市中央区,新港町１１番１号,,28,110,6500041,,,,,,,2025-07-04,1,,,,,チャンピオンヒルズ,0
1958,8180001167516,新規,0,2025-07-04,2025-07-04,壱修株式会社,,株式会社,愛知県,名古屋市緑区,鹿山３丁目７２番地の３,,23,114,4580045,,,,,,,2025-07-04,1,,,,,イッシュウ,0
1959,8180001167540,新規,0,2025-07-04,2025-07-04,株式会社ＮＥＮＮＥ,,株式会社,愛知県,名古屋市中区,新栄３丁目２２番２５号コートアクシス新栄７０２号,,23,106,4600007,,,,,,,2025-07-04,1,,,,,ネンネ,0
1965,8180301039968,新規,0,2025-07-04,2025-07-04,株式会社Ａｒｔｓ,,株式会社,愛知県,豊田市,中垣内町大洞８番地７,,23,211,4442215,,,,,,,2025-07-04,1,,,,,アーツ,0
1967,8180303006636,新規,0,2025-07-04,2025-07-04,合同会社ＣＩＦ,,合同会社,愛知県,豊川市,一宮町栄８０番地,,23,207,4411231,,,,,,,2025-07-04,1,,,,,シーアイエフ,0
1968,8190001032355,新規,0,2025-07-04,2025-07-04,株式会社エムズルーフ,,株式会社,三重県,桑名市,西正和台１丁目１１番地６,,24,205,5110933,,,,,,,2025-07-04,1,,,,,エムズルーフ,0
1969,8190001032363,新規,0,2025-07-04,2025-07-04,久保田水道株式会社,,株式会社,三重県,鳥羽市,浦村町１５０３番地７,,24,211,5170025,,,,,,,2025-07-04,1,,,,,クボタスイドウ,0
1970,8190003005094,新規,0,2025-07-04,2025-07-04,ＳｕｎＶｅｌｏｕｒａ合同会社,,合同会社,三重県,鈴鹿市,稲生西２丁目１１番１１号,,24,207,5100204,,,,,,,2025-07-04,1,,,,,サンヴェローラ,0
1971,8190003005103,新規,0,2025-07-04,2025-07-04,合同会社ＦＵＮ　ＵＰ,,合同会社,三重県,伊賀市,上野西大手町３６５４番地の２,,24,216,5180878,,,,,,,2025-07-04,1,,,,,ファンアップ,0
1973,8200001043978,新規,0,2025-07-04,2025-07-04,株式会社結,,株式会社,岐阜県,岐阜市,日野南１丁目２番５号,,21,201,5008212,,,,,,,2025-07-04,1,,,,,ユイ,0
1977,8230003002459,新規,0,2025-07-04,2025-07-04,合同会社ここのか,,合同会社,富山県,富山市,大泉１５７７‐５,,16,201,9398058,,,,,,,2025-07-04,1,,,,,ココノカ,0
1986,8260001040326,新規,0,2025-07-04,2025-07-04,株式会社しおん,,株式会社,岡山県,倉敷市,中畝９丁目１１番３０－３号,,33,202,7128051,,,,,,,2025-07-04,1,,,,,シオン,0
1988,8280001009451,新規,0,2025-07-04,2025-07-04,株式会社アップフィールド,,株式会社,島根県,出雲市,多伎町小田１番地２,,32,203,6990903,,,,,,,2025-07-04,1,,,,,アップフィールド,0
2006,8330001033355,新規,0,2025-07-04,2025-07-04,株式会社恭栄堂,,株式会社,熊本県,玉名市,大倉１４０７番地８,,43,206,8650023,,,,,,,2025-07-04,1,,,,,キョウエイドウ,0
2009,8330003011078,新規,0,2025-07-04,2025-07-04,合同会社ナチュラル,,合同会社,熊本県,八代市,植柳下町５５８８番地１－２,,43,202,8660083,,,,,,,2025-07-04,1,,,,,ナチュラル,0
2013,8350001019617,新規,0,2025-07-04,2025-07-04,株式会社ＯｌｉｖｅＬｅａｆ,,株式会社,宮崎県,宮崎市,城ケ崎４丁目１－１８－１０１号室,,45,201,8800917,,,,,,,2025-07-04,1,,,,,オリーブリーフ,0
2014,8350001019625,新規,0,2025-07-04,2025-07-04,株式会社サンフラット,,株式会社,宮崎県,日向市,曽根町２丁目１１番地,,45,206,8830011,,,,,,,2025-07-04,1,,,,,サンフラット,0
2015,8350001019633,新規,0,2025-07-04,2025-07-04,株式会社ライフリンク,,株式会社,宮崎県,宮崎市,曽師町２２１番地,,45,201,8800875,,,,,,,2025-07-04,1,,,,,ライフリンク,0
2023,8370001052764,新規,0,2025-07-04,2025-07-04,株式会社プラス１,,株式会社,宮城県,大崎市,松山金谷字向田５２番地１７,,04,215,9871303,,,,,,,2025-07-04,1,,,,,プラスワン,0
2031,8390001018037,新規,0,2025-07-04,2025-07-04,株式会社ハピネスプラス,,株式会社,山形県,鶴岡市,睦町９番２５号,,06,203,9970817,,,,,,,2025-07-04,1,,,,,ハピネスプラス,0
2032,8400001017103,新規,0,2025-07-04,2025-07-04,株式会社秀栄,,株式会社,岩手県,上閉伊郡大槌町,小鎚第２０地割字雲南８２番６７,,03,461,0281121,,,,,,,2025-07-04,1,,,,,シュウエイ,0
2034,8410001014207,新規,0,2025-07-04,2025-07-04,株式会社ひまわりメディカルサポート,,株式会社,秋田県,秋田市,新屋松美ガ丘北町８番５１号ドゥエミーラ２０００きらら１０１号,,05,201,0101618,,,,,,,2025-07-04,1,,,,,ヒマワリメディカルサポート,0
2036,8430001094726,新規,0,2025-07-04,2025-07-04,株式会社ＨＭクリーンシステムズ,,株式会社,北海道,小樽市,相生町１番９号,,01,203,0470028,,,,,,,2025-07-04,1,,,,,,0
2037,8430001094759,新規,0,2025-07-04,2025-07-04,南風株式会社,,株式会社,北海道,虻田郡洞爺湖町,高砂町７－７Ｂ棟ユニット１,,01,584,0495605,,,,,,,2025-07-04,1,,,,,ミナミカゼ,0
2038,8430003017833,新規,0,2025-07-04,2025-07-04,合同会社優佑里,,合同会社,北海道,札幌市手稲区,新発寒三条２丁目２番１号,,01,109,0060803,,,,,,,2025-07-04,1,,,,,ユウリ,0
2039,8440001009641,新規,0,2025-07-04,2025-07-04,ＳＹＳ株式会社,,株式会社,北海道,函館市,日吉町１丁目２１番１２号,,01,202,0410841,,,,,,,2025-07-04,1,,,,,エスワイエス,0
2041,8460001006018,新規,0,2025-07-04,2025-07-04,株式会社Ｍｃａｒｅ,,株式会社,北海道,釧路市,住吉１丁目８番１２号,,01,206,0850831,,,,,,,2025-07-04,1,,,,,エムケア,0
2042,8480001012880,新規,0,2025-07-04,2025-07-04,株式会社ＮＡＮＯ．,,株式会社,徳島県,徳島市,栄町１丁目５８近藤ビル３階,,36,201,7700921,,,,,,,2025-07-04,1,,,,,ナノ,0
2050,9010001256458,新規,0,2025-07-04,2025-07-04,株式会社ＳＥＬＡＣＴ,,株式会社,東京都,中央区,銀座１丁目２２番１１号２Ｆ,,13,102,1040061,,,,,,,2025-07-04,1,,,,,セラクト,0
2053,9010005040305,新規,0,2025-07-04,2025-07-04,一般社団法人マンション地震対応支援協会,,その他の設立登記法人,東京都,中央区,入船３丁目１番５号,,13,102,1040042,,,,,,,2025-07-04,1,,,,,マンションジシンタイオウシエンキョウカイ,0
2062,9010401191420,新規,0,2025-07-04,2025-07-04,株式会社ダイアサーチ,,株式会社,東京都,港区,芝４丁目１番２３号三田ＮＮビル１５階,,13,103,1080014,,,,,,,2025-07-04,1,,,,,ダイアサーチ,0
2063,9010401191486,新規,0,2025-07-04,2025-07-04,京急ＴＧエナジーコネクト株式会社,,株式会社,東京都,港区,高輪４丁目１１番１６号,,13,103,1080074,,,,,,,2025-07-04,1,,,,,ケイキュウティージーエナジーコネクト,0
2065,9010501054337,新規,0,2025-07-04,2025-07-04,嘉鴻株式会社,,株式会社,東京都,台東区,上野６丁目７番１６号川久保ビル４０６号室,,13,106,1100005,,,,,,,2025-07-04,1,,,,,カコウ,0
2066,9010601067552,新規,0,2025-07-04,2025-07-04,アークエッジリンクス株式会社,,株式会社,東京都,江東区,有明１丁目３番３３号,,13,108,1350063,,,,,,,2025-07-04,1,,,,,アークエッジリンクス,0
2067,9010603011665,新規,0,2025-07-04,2025-07-04,合同会社ＫＫ,,合同会社,東京都,江東区,亀戸２丁目７－１２,,13,108,1360071,,,,,,,2025-07-04,1,,,,,ケイケイ,0
2076,9010901057682,新規,0,2025-07-04,2025-07-04,株式会社ＫＯＭ,,株式会社,東京都,世田谷区,北沢２丁目５番２号下北沢ビッグベンビル５Ｆ,,13,112,1550031,,,,,,,2025-07-04,1,,,,,コム,0
2085,9011001170814,新規,0,2025-07-04,2025-07-04,株式会社ＴＨＥ　ＧＯＡＴ,,株式会社,東京都,渋谷区,神山町４３番１号手川ビル１Ｆ,,13,113,1500047,,,,,,,2025-07-04,1,,,,,ザゴート,0
2088,9011003022030,新規,0,2025-07-04,2025-07-04,合同会社Ｍｅｒｃｉ,,合同会社,東京都,渋谷区,神南１丁目１１番４号ＦＰＧリンクス神南５階,,13,113,1500041,,,,,,,2025-07-04,1,,,,,メルチ,0
2089,9011003022039,新規,0,2025-07-04,2025-07-04,合同会社ＡＩのある暮らし,,合同会社,東京都,目黒区,下目黒１丁目１番１４号コノトラビル７Ｆ,,13,110,1530064,,,,,,,2025-07-04,1,,,,,アイノアルクラシ,0
2090,9011003022055,新規,0,2025-07-04,2025-07-04,Ｔａｘａ　Ｔｅｃｈｎｏｌｏｇｉｅｓ　Ｊａｐａｎ合同会社,,合同会社,東京都,渋谷区,円山町５番３号ＭＩＥＵＸ渋谷ビル８階,,13,113,1500044,,,,,,,2025-07-04,1,,,,,タクサテクノロジーズジャパン,0
2096,9011201026485,新規,0,2025-07-04,2025-07-04,株式会社七代目越後屋,,株式会社,東京都,中野区,野方３丁目６番８号１０２号室,,13,114,1650027,,,,,,,2025-07-04,1,,,,,ナナダイメエチゴヤ,0
2097,9011401027226,新規,0,2025-07-04,2025-07-04,株式会社若林企画,,株式会社,東京都,板橋区,上板橋２丁目４８番２－６０６号,,13,119,1740076,,,,,,,2025-07-04,1,,,,,ワカバヤシキカク,0
2101,9011603004758,新規,0,2025-07-04,2025-07-04,合同会社てとわ,,合同会社,東京都,練馬区,関町東１丁目１番４１号,,13,120,1770052,,,,,,,2025-07-04,1,,,,,テトワ,0
2104,9011801046379,新規,0,2025-07-04,2025-07-04,ＬＡＸＭＩ株式会社,,株式会社,東京都,足立区,青井３丁目５番２６号日商岩井ビル１０２号,,13,121,1200012,,,,,,,2025-07-04,1,,,,,ラクシミ,0
2105,9011801046395,新規,0,2025-07-04,2025-07-04,株式会社Ｏ・Ｋ・Ｓ,,株式会社,東京都,足立区,綾瀬６丁目６番１７号第５大室ビル２階,,13,121,1200005,,,,,,,2025-07-04,1,,,,,オーケーエス,0
2110,9012701018955,新規,0,2025-07-04,2025-07-04,株式会社リンクウェルフェア,,株式会社,東京都,東村山市,久米川町２丁目２０番地５８,,13,213,1890003,,,,,,,2025-07-04,1,,,,,リンクウェルフェア,0
2112,9012801024085,新規,0,2025-07-04,2025-07-04,株式会社ピアチェーレ,,株式会社,東京都,国分寺市,東恋ヶ窪３丁目１０番地３国分寺北シティハウス５０１,,13,214,1850014,,,,,,,2025-07-04,1,,,,,ピアチェーレ,0
2115,9013305003724,新規,0,2025-07-04,2025-07-04,一般社団法人ＭｏｆｕＬｉｎｋ,,その他の設立登記法人,東京都,豊島区,東池袋３丁目２２番２１号Ｃｏｍｆｏｒｉａ東池袋Ｗｅｓｔ３１５,,13,116,1700013,,,,,,,2025-07-04,1,,,,,モフリンク,0
2119,9020001163620,新規,0,2025-07-04,2025-07-04,株式会社ちゃんこ,,株式会社,神奈川県,横浜市戸塚区,上倉田町９８５－３５,,14,110,2440816,,,,,,,2025-07-04,1,,,,,チャンコ,0
2120,9020001163686,新規,0,2025-07-04,2025-07-04,株式会社ツズキオフィス研究所,,株式会社,神奈川県,横浜市都筑区,仲町台３丁目２５番９号,,14,118,2240041,,,,,,,2025-07-04,1,,,,,ツズキオフィスケンキュウジョ,0
2121,9020001163694,新規,0,2025-07-04,2025-07-04,株式会社ＨＯＫＵＹＵホールディングス,,株式会社,神奈川県,横浜市保土ケ谷区,峰沢町１１９番地１９,,14,106,2400061,,,,,,,2025-07-04,1,,,,,ホクユーホールディングス,0
2122,9020001163711,新規,0,2025-07-04,2025-07-04,エム・ケー・エム株式会社,,株式会社,神奈川県,横浜市戸塚区,上倉田町１０００番地ハイツ山重２０６,,14,110,2440816,,,,,,,2025-07-04,1,,,,,エムケーエム,0
2126,9020003028846,新規,0,2025-07-04,2025-07-04,合同会社Ｅｓｔｅｅｍ,,合同会社,神奈川県,横浜市瀬谷区,本郷４丁目２０番地３,,14,114,2460015,,,,,,,2025-07-04,1,,,,,エスティーム,0
2127,9020003028879,新規,0,2025-07-04,2025-07-04,合同会社ＷｏｏｄＶｉｌｌａｇｅ,,合同会社,神奈川県,横浜市港北区,日吉２丁目１９番１６－２号,,14,109,2230061,,,,,,,2025-07-04,1,,,,,ウッドヴィレッジ,0
2132,9021001085664,新規,0,2025-07-04,2025-07-04,Ｂ．Ｔ．株式会社,,株式会社,神奈川県,横須賀市,衣笠栄町１丁目３－１４村山ビル１０３,,14,201,2380031,,,,,,,2025-07-04,1,,,,,ビティ,0
2134,9021003016221,新規,0,2025-07-04,2025-07-04,Ｍ３Ｓ　ＴＲＡＤＩＮＧ合同会社,,合同会社,神奈川県,藤沢市,宮原３１８８番１０４号,,14,205,2520826,,,,,,,2025-07-04,1,,,,,エムスリーエストレーディング,0
2140,9030001167455,新規,0,2025-07-04,2025-07-04,ＣＣＮＤ　Ｓｏｌｕｔｉｏｎｓ株式会社,,株式会社,埼玉県,鶴ヶ島市,大字藤金８９８番地８,,11,241,3502206,,,,,,,2025-07-04,1,,,,,シーシーエヌディーソリューションズ,0
2141,9030001167463,新規,0,2025-07-04,2025-07-04,株式会社Ｏｕｒ　Ｆｉｅｌｄ,,株式会社,埼玉県,加須市,南大桑２９８９番地７,,11,210,3470015,,,,,,,2025-07-04,1,,,,,アワーフィールド,0
2143,9030003027087,新規,0,2025-07-04,2025-07-04,エマテラッド合同会社,,合同会社,埼玉県,幸手市,緑台２丁目８－２０,,11,240,3400151,,,,,,,2025-07-04,1,,,,,エマテラッド,0
2144,9030003027129,新規,0,2025-07-04,2025-07-04,Ｍａｌｉｋ　ｉｎｔｅｒｎａｔｉｏｎａｌ合同会社,,合同会社,埼玉県,八潮市,大字南川崎７９０番地５,,11,234,3400814,,,,,,,2025-07-04,1,,,,,マリクインターナショナル,0
2145,9040001139148,新規,0,2025-07-04,2025-07-04,株式会社総合ケアけやきの木,,株式会社,千葉県,柏市,西原１丁目４番４号牧野ビル１階,,12,217,2770885,,,,,,,2025-07-04,1,,,,,ソウゴウケアケヤキノキ,0
2149,9050001056870,新規,0,2025-07-04,2025-07-04,株式会社シーダス,,株式会社,茨城県,つくば市,安食２５２４番地２２,,08,220,3004205,,,,,,,2025-07-04,1,,,,,シーダス,0
2150,9050001056887,新規,0,2025-07-04,2025-07-04,株式会社茨城テクノサービス,,株式会社,茨城県,ひたちなか市,大字馬渡３６２３番地１,,08,221,3120012,,,,,,,2025-07-04,1,,,,,イバラキテクノサービス,0
2151,9050001056895,新規,0,2025-07-04,2025-07-04,株式会社ＧＡＲＡＧＥ　ＯＫＢ,,株式会社,茨城県,水戸市,平須町２番地の１５３,,08,201,3100853,,,,,,,2025-07-04,1,,,,,ガレージオーケービー,0
2161,9060001038348,新規,0,2025-07-04,2025-07-04,株式会社庭幸,,株式会社,栃木県,真岡市,田町１０５６番地１２,,09,209,3214325,,,,,,,2025-07-04,1,,,,,ニワコウ,0
2166,9080001027010,新規,0,2025-07-04,2025-07-04,株式会社灯乃葉,,株式会社,静岡県,静岡市駿河区,中原６４０番地,,22,102,4228058,,,,,,,2025-07-04,1,,,,,トノハ,0
2167,9080101025608,新規,0,2025-07-04,2025-07-04,リーザインターナショナル株式会社,,株式会社,静岡県,富士宮市,ひばりが丘４６２番地,,22,207,4180003,,,,,,,2025-07-04,1,,,,,リーザインターナショナル,0
2168,9080101025616,新規,0,2025-07-04,2025-07-04,株式会社伊豆林業,,株式会社,静岡県,伊豆市,下船原３３５番地,,22,222,4103214,,,,,,,2025-07-04,1,,,,,イズリンギョウ,0
2179,9120001277352,新規,0,2025-07-04,2025-07-04,株式会社ＡｎｄＴｉｍｅ,,株式会社,大阪府,大阪市西区,南堀江１丁目１６番１５号名城ビル６階,,27,106,5500015,,,,,,,2025-07-04,1,,,,,アンドタイム,0
2180,9120001277443,新規,0,2025-07-04,2025-07-04,株式会社Ｎｅｘｅｅｄ,,株式会社,大阪府,大阪市此花区,伝法４丁目２番１０号,,27,104,5540002,,,,,,,2025-07-04,1,,,,,ネクシード,0
2181,9120001277468,新規,0,2025-07-04,2025-07-04,Ｋ‐１ｓｔ　ｈ＆ｊ株式会社,,株式会社,大阪府,枚方市,津田山手１丁目４０番２号,,27,210,5730128,,,,,,,2025-07-04,1,,,,,ケイファーストエイチアンドジェー,0
2182,9120001277476,新規,0,2025-07-04,2025-07-04,株式会社Ｌｉｅｎ,,株式会社,大阪府,大阪市中央区,千日前１丁目４番１９号中島ビル地下１階,,27,128,5420074,,,,,,,2025-07-04,1,,,,,リアン,0
2183,9120001277484,新規,0,2025-07-04,2025-07-04,株式会社旅の空,,株式会社,大阪府,大阪市城東区,鴫野西５丁目１９番３５－１４０２号,,27,118,5360014,,,,,,,2025-07-04,1,,,,,タビノソラ,0
2184,9120001277518,新規,0,2025-07-04,2025-07-04,株式会社Ｒ‐Ｌｉｎｋ,,株式会社,大阪府,大阪市福島区,海老江５丁目５番１８,,27,103,5530001,,,,,,,2025-07-04,1,,,,,アールリンク,0
2185,9120003029883,新規,0,2025-07-04,2025-07-04,合同会社Ｂａｓｔａ・Ｌｅｅｎｄｅ,,合同会社,大阪府,大阪市旭区,太子橋１丁目２０番２１号,,27,117,5350001,,,,,,,2025-07-04,1,,,,,ベスタリエンデ,0
2186,9120003029891,新規,0,2025-07-04,2025-07-04,永明合同会社,,合同会社,大阪府,大阪市都島区,都島北通２丁目７番１９－３０２号,,27,102,5340014,,,,,,,2025-07-04,1,,,,,エイメイ,0
2187,9120003029900,新規,0,2025-07-04,2025-07-04,合同会社プラスト工業,,合同会社,大阪府,大阪市東住吉区,住道矢田３丁目５番１１号,,27,121,5460022,,,,,,,2025-07-04,1,,,,,プラストコウギョウ,0
2188,9120003029917,新規,0,2025-07-04,2025-07-04,合同会社ひな,,合同会社,大阪府,大阪市東住吉区,北田辺２丁目２番７号ダイアパレス美章園３０４号,,27,121,5460044,,,,,,,2025-07-04,1,,,,,ヒナ,0
2190,9120101072026,新規,0,2025-07-04,2025-07-04,株式会社円明商事,,株式会社,大阪府,松原市,高見の里３丁目７番７号,,27,217,5800021,,,,,,,2025-07-04,1,,,,,エンミョウショウジ,0
2191,9120103006551,新規,0,2025-07-04,2025-07-04,合同会社Ｖｅｒｅｉｎ,,合同会社,大阪府,南河内郡千早赤阪村,大字東阪５４３－乙,,27,383,5850055,,,,,,,2025-07-04,1,,,,,フェレイン,0
2203,9130001080053,新規,0,2025-07-04,2025-07-04,株式会社ＬＥＯＤＥＮ,,株式会社,京都府,京都市南区,久世大藪町８番地３３,,26,107,6010000,,,,,,,2025-07-04,1,,,,,レオデン,0
2205,9130003010594,新規,0,2025-07-04,2025-07-04,パンドルフ合同会社,,合同会社,京都府,向日市,寺戸町西垣内１０－５,,26,208,6170002,,,,,,,2025-07-04,1,,,,,パンドルフ,0
2208,9140001139047,新規,0,2025-07-04,2025-07-04,Ｋａｎｉｖａ　Ｊａｐａｎ株式会社,,株式会社,兵庫県,西宮市,山口町上山口１丁目８番１０号,,28,204,6511421,,,,,,,2025-07-04,1,,,,,カニバジャパン,0
2209,9140001139121,新規,0,2025-07-04,2025-07-04,株式会社ＳＥＯ,,株式会社,兵庫県,姫路市,飾磨区恵美酒８５番地２ナビオ姫路７０３,,28,201,6728057,,,,,,,2025-07-04,1,,,,,セオ,0
2212,9140003022242,新規,0,2025-07-04,2025-07-04,岡田メンテナンス工業合同会社,,合同会社,兵庫県,川辺郡猪名川町,西畑字深田１番地の１,,28,301,6660203,,,,,,,2025-07-04,1,,,,,オカダメンテナンスコウギョウ,0
2213,9140003022267,新規,0,2025-07-04,2025-07-04,合同会社玉井自然堂,,合同会社,兵庫県,神戸市長田区,檜川町１丁目６番５－１０３号,,28,106,6530887,,,,,,,2025-07-04,1,,,,,タマイシゼンドウ,0
2217,9150001028249,新規,0,2025-07-04,2025-07-04,Ｈｕｄａ　Ｔｒａｄｉｎｇ　Ｊａｐａｎ株式会社,,株式会社,奈良県,奈良市,三条大路１丁目３－１２コンフォート三条４０３,,29,201,6308013,,,,,,,2025-07-04,1,,,,,フーダトレーディングジャパン,0
2218,9150003003646,新規,0,2025-07-04,2025-07-04,合同会社道草飯店,,合同会社,奈良県,生駒郡平群町,上庄３丁目３番５号,,29,342,6360905,,,,,,,2025-07-04,1,,,,,ミチクサハンテン,0
2234,9180001167531,新規,0,2025-07-04,2025-07-04,株式会社ＫＯＺＵＫＡ,,株式会社,愛知県,名古屋市中川区,上脇町２丁目１００番地,,23,110,4540833,,,,,,,2025-07-04,1,,,,,コズカ,0
2236,9180003028698,新規,0,2025-07-04,2025-07-04,ＬＡＰＩ合同会社,,合同会社,愛知県,瀬戸市,福元町７０番地,,23,204,4890935,,,,,,,2025-07-04,1,,,,,ラピ,0
2241,9180303006635,新規,0,2025-07-04,2025-07-04,合同会社ＦＡＲ　ＥＡＳＴ,,合同会社,愛知県,豊川市,為当町後田５２番地の５,,23,207,4420845,,,,,,,2025-07-04,1,,,,,ファーイースト,0
2242,9180303006643,新規,0,2025-07-04,2025-07-04,ＳＴＹＬＥ　ＲＥＦＲＥＳＨ合同会社,,合同会社,愛知県,安城市,今本町１丁目４番８号１階Ｃ号室,,23,212,4460008,,,,,,,2025-07-04,1,,,,,スタイルリフレッシュ,0
2244,9200001043960,新規,0,2025-07-04,2025-07-04,Ｃ＆Ｃファーマ株式会社,,株式会社,岐阜県,岐阜市,野一色２丁目７番７号,,21,201,5008226,,,,,,,2025-07-04,1,,,,,シーアンドシーファーマ,0
2246,9230001020981,新規,0,2025-07-04,2025-07-04,小林電設株式会社,,株式会社,富山県,富山市,下大久保１９７９番地１３,,16,201,9392251,,,,,,,2025-07-04,1,,,,,コバヤシデンセツ,0
2247,9230003002458,新規,0,2025-07-04,2025-07-04,合同会社水清,,合同会社,富山県,富山市,婦中町外輪野１０７２５番地,,16,201,9392632,,,,,,,2025-07-04,1,,,,,スイセイ,0
2249,9240001065150,新規,0,2025-07-04,2025-07-04,株式会社宮本左官工業,,株式会社,広島県,世羅郡世羅町,大字小国１６０３番地２,,34,462,7221701,,,,,,,2025-07-04,1,,,,,ミヤモトサカンコウギョウ,0
2250,9240001065175,新規,0,2025-07-04,2025-07-04,株式会社Ｆ．Ｔ．Ｃ,,株式会社,広島県,福山市,引野町東１１番７号,,34,207,7210944,,,,,,,2025-07-04,1,,,,,エフティーシー,0
2251,9240001065183,新規,0,2025-07-04,2025-07-04,株式会社寿し若,,株式会社,広島県,広島市西区,井口明神３丁目８番１６号,,34,104,7330841,,,,,,,2025-07-04,1,,,,,スシワカ,0
2256,9240003007290,新規,0,2025-07-04,2025-07-04,合同会社西林,,合同会社,広島県,広島市東区,戸坂千足１丁目１１－３１－３０２,,34,102,7320009,,,,,,,2025-07-04,1,,,,,ニシバヤシ,0
2261,9260001040325,新規,0,2025-07-04,2025-07-04,株式会社ローカルスケール,,株式会社,岡山県,倉敷市,茶屋町４９８番地１,,33,202,7101101,,,,,,,2025-07-04,1,,,,,ローカルスケール,0
2263,9260003005243,新規,0,2025-07-04,2025-07-04,合同会社Ｔｙｓｏｎ,,合同会社,岡山県,岡山市北区,今２丁目１番７号,,33,101,7000975,,,,,,,2025-07-04,1,,,,,タイソン,0
2264,9270001009237,新規,0,2025-07-04,2025-07-04,株式会社創技建,,株式会社,鳥取県,鳥取市,賀露町南４丁目３－１８,,31,201,6800909,,,,,,,2025-07-04,1,,,,,ソウギケン,0
2277,9290803005092,新規,0,2025-07-04,2025-07-04,合同会社田中農園,,合同会社,福岡県,北九州市若松区,大字有毛３０４３番地,,40,103,8080123,,,,,,,2025-07-04,1,,,,,タナカノウエン,0
2280,9320001021194,新規,0,2025-07-04,2025-07-04,株式会社ｋｕｒｏｍａｍｅ,,株式会社,大分県,日田市,大字石井１３０５－１７,,44,204,8770061,,,,,,,2025-07-04,1,,,,,クロマメ,0
2284,9330001033354,新規,0,2025-07-04,2025-07-04,Ｎａｋａ．株式会社,,株式会社,熊本県,菊池郡大津町,大字下町３４３番地８－２号,,43,403,8691225,,,,,,,2025-07-04,1,,,,,ナカドット,0
2285,9330003011093,新規,0,2025-07-04,2025-07-04,合同会社Ｇｒｏｗｖｙ,,合同会社,熊本県,合志市,幾久富１７５８番地７６６,,43,216,8611112,,,,,,,2025-07-04,1,,,,,グローヴィー,0
2287,9350001019616,新規,0,2025-07-04,2025-07-04,株式会社堀之内タイル,,株式会社,宮崎県,宮崎市,大字小松２９９２番地４,,45,201,8802112,,,,,,,2025-07-04,1,,,,,ホリノウチタイル,0
2288,9350001019624,新規,0,2025-07-04,2025-07-04,アオイ建築株式会社,,株式会社,宮崎県,宮崎市,大橋３丁目２６８番地,,45,201,8800022,,,,,,,2025-07-04,1,,,,,アオイケンチク,0
2289,9360001035414,新規,0,2025-07-04,2025-07-04,株式会社ＳＯＴＯ‐ｔｅａｍ,,株式会社,沖縄県,那覇市,銘苅２丁目４－４０ティファニーＫＹ２階,,47,201,9000004,,,,,,,2025-07-04,1,,,,,ソトチーム,0
2290,9360005007252,新規,0,2025-07-04,2025-07-04,一般社団法人Ｍａｎａ,,その他の設立登記法人,沖縄県,中頭郡読谷村,字伊良皆２６４番地３松田アパート８号,,47,324,9040303,,,,,,,2025-07-04,1,,,,,マナ,0
2296,9390001018036,新規,0,2025-07-04,2025-07-04,株式会社サブハピ,,株式会社,山形県,長井市,本町２丁目１番２号,,06,209,9930007,,,,,,,2025-07-04,1,,,,,サブハピ,0
2298,9400001017093,新規,0,2025-07-04,2025-07-04,インファーノ株式会社,,株式会社,岩手県,花巻市,松園町５９７番地１０,,03,205,0250066,,,,,,,2025-07-04,1,,,,,インファーノ,0
2299,9400001017102,新規,0,2025-07-04,2025-07-04,株式会社医光ケア東北,,株式会社,岩手県,盛岡市,中太田新田２５地割６６９番地第三佐々勝住宅１号室,,03,201,0200052,,,,,,,2025-07-04,1,,,,,イコウケアトウホク,0
2306,9430001094824,新規,0,2025-07-04,2025-07-04,株式会社ビーエス企画,,株式会社,北海道,札幌市北区,北三十七条西８丁目３－２５,,01,102,0010037,,,,,,,2025-07-04,1,,,,,ビーエスキカク,0
2309,9440001009640,新規,0,2025-07-04,2025-07-04,株式会社Ｆｒａｎｃｏｅｕｒ,,株式会社,北海道,亀田郡七飯町,字大沼町８５４番地２,,01,337,0411354,,,,,,,2025-07-04,1,,,,,フランクール,0
2316,9500001026398,新規,0,2025-07-04,2025-07-04,株式会社ジーパフォーマンス,,株式会社,愛媛県,松山市,大橋町１９６番地４,,38,201,7911126,,,,,,,2025-07-04,1,,,,,ジーパフォーマンス,0
