sequenceNumber,corporateNumber,process,correct,updateDate,changeDate,name,nameImageId,kind,prefectureName,cityName,streetNumber,addressImageId,prefectureCode,cityCode,postCode,addressOutside,addressOutsideImageId,closeDate,closeCause,successorCorporateNumber,changeCause,assignmentDate,latest,enName,enPrefectureName,enCityName,enAddressOutside,furigana,hihyoji
6,1010001251094,新規,0,2025-01-08,2025-01-08,株式会社Ｎｏ．２,,株式会社,東京都,千代田区,丸の内３丁目２－２丸の内二重橋ビル２Ｆ,,13,101,1000005,,,,,,,2025-01-08,1,,,,,ナンバーツー,0
7,1010001251185,新規,0,2025-01-08,2025-01-08,株式会社Ｌａｍｂｄａ,,株式会社,東京都,千代田区,三番町３０番地４ヴィークグレイス三番町５０２号,,13,101,1020075,,,,,,,2025-01-08,1,,,,,ラムダ,0
9,1010003045932,新規,0,2025-01-08,2025-01-08,エコカリ２号合同会社,,合同会社,東京都,千代田区,内神田３丁目２０番３号小鍛冶ビル７階,,13,101,1010047,,,,,,,2025-01-08,1,,,,,エコカリニゴウ,0
10,1010005039362,新規,0,2025-01-08,2025-01-08,一般社団法人ＣＲひるがお,,その他の設立登記法人,東京都,中央区,銀座２丁目１０番８号マニエラ銀座ビル４階,,13,102,1040061,,,,,,,2025-01-08,1,,,,,シーアールヒルガオ,0
11,1010103002478,新規,0,2025-01-08,2025-01-08,Ａｒｃｏ　Ｉｒｉｓ合同会社,,合同会社,東京都,八王子市,諏訪町３４９番地４,,13,201,1930812,,,,,,,2025-01-08,1,,,,,アルコイリス,0
12,1010401187269,新規,0,2025-01-08,2025-01-08,日本バサルトファイバー株式会社,,株式会社,東京都,港区,新橋２丁目１６番１１号ニュー新橋ビル９０３,,13,103,1050004,,,,,,,2025-01-08,1,,,,,ニホンバサルトファイバー,0
13,1010401187327,新規,0,2025-01-08,2025-01-08,株式会社ＵＮ特許サービス,,株式会社,東京都,港区,南青山２丁目２番８号,,13,103,1070062,,,,,,,2025-01-08,1,,,,,ユーエヌトッキョサービス,0
14,1010401187343,新規,0,2025-01-08,2025-01-08,株式会社かさぶた,,株式会社,東京都,港区,西新橋１丁目７番５号ＢＩＲＴＨＷＯＲＫ虎の門,,13,103,1050003,,,,,,,2025-01-08,1,,,,,カサブタ,0
15,1010401187351,新規,0,2025-01-08,2025-01-08,アルファメディカル株式会社,,株式会社,東京都,港区,元麻布１丁目３番３号,,13,103,1060046,,,,,,,2025-01-08,1,,,,,アルファメディカル,0
16,1010401187384,新規,0,2025-01-08,2025-01-08,リアルヴィンテージ株式会社,,株式会社,東京都,港区,麻布十番１丁目１１番７号,,13,103,1060045,,,,,,,2025-01-08,1,,,,,リアルヴィンテージ,0
17,1010401187392,新規,0,2025-01-08,2025-01-08,株式会社雲ノ音,,株式会社,東京都,港区,南麻布４丁目１０番１６号２０１,,13,103,1060047,,,,,,,2025-01-08,1,,,,,クモノネ,0
18,1010401187401,新規,0,2025-01-08,2025-01-08,株式会社ＥＬＶＩ,,株式会社,東京都,港区,南麻布４丁目１３番７号シルク南麻布１階,,13,103,1060047,,,,,,,2025-01-08,1,,,,,エルヴィ,0
19,1010401187426,新規,0,2025-01-08,2025-01-08,株式会社ＤＭＭ．,,株式会社,東京都,港区,北青山３丁目４番３－２４０５号,,13,103,1070061,,,,,,,2025-01-08,1,,,,,ディーエムエムドット,0
22,1010403034097,新規,0,2025-01-08,2025-01-08,合同会社ＨＡＯＹＡ,,合同会社,東京都,港区,北青山１丁目３番１号アールキューブ青山３階,,13,103,1070061,,,,,,,2025-01-08,1,,,,,ハオヤ,0
23,1010501053420,新規,0,2025-01-08,2025-01-08,景株式会社,,株式会社,東京都,台東区,竜泉３丁目３２－１０－３０２,,13,106,1100012,,,,,,,2025-01-08,1,,,,,,0
28,1010701047049,新規,0,2025-01-08,2025-01-08,株式会社よすが,,株式会社,東京都,品川区,西五反田７丁目９番５号ＳＧテラス５階,,13,109,1410031,,,,,,,2025-01-08,1,,,,,ヨスガ,0
30,1010903009598,新規,0,2025-01-08,2025-01-08,合同会社Ｔｉｔｕｌｏｓ　ＳＨＩＲＡＩＳＨＩ,,合同会社,東京都,世田谷区,玉川３丁目４番５号ＬＩＺＥｔａｍａｇａｗａ３Ｆ,,13,112,1580094,,,,,,,2025-01-08,1,,,,,ティトラスシライシ,0
35,1011001166844,新規,0,2025-01-08,2025-01-08,Ｔｈｅ　Ｆｕｔｕｒｅ　Ｉｓ　Ｇｒｅｅｎ株式会社,,株式会社,東京都,渋谷区,広尾３丁目１７番２７－１１０１号,,13,113,1500012,,,,,,,2025-01-08,1,,,,,ザフューチャーイズグリーン,0
36,1011001166869,新規,0,2025-01-08,2025-01-08,ＷＡＣＨＡ株式会社,,株式会社,東京都,渋谷区,神南１丁目１１－４ＦＰＧリンクス神南５階,,13,113,1500041,,,,,,,2025-01-08,1,,,,,ワチャ,0
37,1011001166893,新規,0,2025-01-08,2025-01-08,株式会社ｒｅｎｏｖｙ,,株式会社,東京都,渋谷区,渋谷２丁目１２番８号アートビル５階,,13,113,1500002,,,,,,,2025-01-08,1,,,,,リノビー,0
38,1011001166927,新規,0,2025-01-08,2025-01-08,株式会社エルアニマドール,,株式会社,東京都,渋谷区,道玄坂１丁目１０番８号渋谷道玄坂東急ビル２Ｆ－Ｃ,,13,113,1500043,,,,,,,2025-01-08,1,,,,,エルアニマドール,0
39,1011001166968,新規,0,2025-01-08,2025-01-08,ありのままわたしＬＡＢＯ株式会社,,株式会社,東京都,渋谷区,恵比寿西２丁目８番４号ＥＸ恵比寿西ビル５階,,13,113,1500021,,,,,,,2025-01-08,1,,,,,アリノママワタシラボ,0
42,1011003020727,新規,0,2025-01-08,2025-01-08,ラビレター合同会社,,合同会社,東京都,目黒区,東山３丁目１２番１号コジマビルＤ－５,,13,110,1530043,,,,,,,2025-01-08,1,,,,,ラビレター,0
44,1011101110132,新規,0,2025-01-08,2025-01-08,株式会社Ａｒｔ　Ｃ‐ｏｎ,,株式会社,東京都,新宿区,西新宿３丁目３番１３号西新宿水間ビル２Ｆ,,13,104,1600023,,,,,,,2025-01-08,1,,,,,アートシオン,0
45,1011101110140,新規,0,2025-01-08,2025-01-08,株式会社ＳＯＬＮＡＳ,,株式会社,東京都,新宿区,西新宿３丁目３番１３号西新宿水間ビル６Ｆ,,13,104,1600023,,,,,,,2025-01-08,1,,,,,ソルナス,0
46,1011101110149,新規,0,2025-01-08,2025-01-08,株式会社エレクト,,株式会社,東京都,新宿区,歌舞伎町２丁目３番２１号,,13,104,1600021,,,,,,,2025-01-08,1,,,,,エレクト,0
47,1011101110157,新規,0,2025-01-08,2025-01-08,株式会社赤楚黄門,,株式会社,東京都,新宿区,高田馬場２丁目１７番３号東京三協信用金庫本店ビル６Ｆ,,13,104,1690075,,,,,,,2025-01-08,1,,,,,アカソコウモン,0
48,1011101110173,新規,0,2025-01-08,2025-01-08,株式会社ミリアン,,株式会社,東京都,新宿区,原町１丁目２１番地１,,13,104,1620053,,,,,,,2025-01-08,1,,,,,ミリアン,0
49,1011101110181,新規,0,2025-01-08,2025-01-08,Ｓｐａｒｋｏｏｌ株式会社,,株式会社,東京都,新宿区,新宿５丁目１４－１２,,13,104,1600022,,,,,,,2025-01-08,1,,,,,スパクル,0
58,1011301030262,新規,0,2025-01-08,2025-01-08,株式会社Ｓ＆Ｓ,,株式会社,東京都,杉並区,清水２丁目１１番１０号,,13,115,1670033,,,,,,,2025-01-08,1,,,,,エスアンドエス,0
59,1011303005378,新規,0,2025-01-08,2025-01-08,合同会社トップパフォーマー,,合同会社,東京都,杉並区,成田西１丁目１１番１３号ベルフォーレ浜田山３Ａ,,13,115,1660016,,,,,,,2025-01-08,1,,,,,トップパフォーマー,0
60,1011401026689,新規,0,2025-01-08,2025-01-08,永葆文化株式会社,,株式会社,東京都,板橋区,仲宿６３番７号ＯＥＯｆｆｉｃｅＢｌｄｇ．２１６号,,13,119,1730005,,,,,,,2025-01-08,1,,,,,エイホウブンカ,0
62,1011501031548,新規,0,2025-01-08,2025-01-08,松本化学株式会社,,株式会社,東京都,荒川区,南千住３丁目２７－２浅草ビル５０８,,13,118,1160003,,,,,,,2025-01-08,1,,,,,マツモトカガク,0
63,1011601028337,新規,0,2025-01-08,2025-01-08,株式会社うるそら,,株式会社,東京都,練馬区,土支田１丁目２８番－１３号ＫＩビル１階,,13,120,1790076,,,,,,,2025-01-08,1,,,,,ウルソラ,0
64,1011601028345,新規,0,2025-01-08,2025-01-08,Ｑｕｅｅｎｚ株式会社,,株式会社,東京都,練馬区,練馬１丁目２０番８号日建練馬ビル２Ｆ,,13,120,1760001,,,,,,,2025-01-08,1,,,,,クイーンズ,0
65,1011603004567,新規,0,2025-01-08,2025-01-08,合同会社ムーサ,,合同会社,東京都,練馬区,桜台３丁目３番地９号ザ・ヨーコ・サクラダイ１０３号室,,13,120,1760002,,,,,,,2025-01-08,1,,,,,ムーサ,0
66,1011701027940,新規,0,2025-01-08,2025-01-08,ＢＳＴ　Ｇｌｏｂａｌ株式会社,,株式会社,東京都,江戸川区,松島３丁目１４番７－３０５号若林ビル,,13,123,1320031,,,,,,,2025-01-08,1,,,,,ビーエスティーグローバル,0
67,1011703004070,新規,0,2025-01-08,2025-01-08,云澄商事合同会社,,合同会社,東京都,江戸川区,東小岩６丁目１１－２１,,13,123,1330052,,,,,,,2025-01-08,1,,,,,ウンセイショウジ,0
70,1011803006628,新規,0,2025-01-08,2025-01-08,合同会社Ｔｅｎｄｅｒ,,合同会社,東京都,足立区,千住緑町２丁目５－２０,,13,121,1200044,,,,,,,2025-01-08,1,,,,,テンダー,0
72,1012401042635,新規,0,2025-01-08,2025-01-08,株式会社メルキド,,株式会社,東京都,多摩市,和田１７１９番地の２３,,13,224,2060001,,,,,,,2025-01-08,1,,,,,メルキド,0
80,1013301053598,新規,0,2025-01-08,2025-01-08,七福神株式会社,,株式会社,東京都,豊島区,駒込３丁目６番３号１Ｆ,,13,116,1700003,,,,,,,2025-01-08,1,,,,,シチフクジン,0
88,1020001160757,新規,0,2025-01-08,2025-01-08,株式会社Ｓｉｔｅ　Ｏ,,株式会社,神奈川県,横浜市戸塚区,汲沢６丁目１１番８号,,14,110,2450061,,,,,,,2025-01-08,1,,,,,サイトオー,0
97,1021001084129,新規,0,2025-01-08,2025-01-08,株式会社報連想,,株式会社,神奈川県,平塚市,見附町２２番６－２０２号,,14,203,2540045,,,,,,,2025-01-08,1,,,,,ホウレンソウ,0
98,1021001084153,新規,0,2025-01-08,2025-01-08,奥瀬総研株式会社,00137547,株式会社,神奈川県,鎌倉市,佐助２丁目１２番１３号,,14,204,2480017,,,,,,,2025-01-08,1,,,,,オクセソウケン,0
99,1021001084178,新規,0,2025-01-08,2025-01-08,トラスト株式会社,,株式会社,神奈川県,三浦郡葉山町,一色１６６３,,14,301,2400111,,,,,,,2025-01-08,1,,,,,トラスト,0
105,1021005013257,新規,0,2025-01-08,2025-01-08,特定非営利活動法人だぁれ,,その他の設立登記法人,神奈川県,中郡二宮町,二宮３７番地５号,,14,342,2590123,,,,,,,2025-01-08,1,,,,,ダァレ,0
118,1040003026517,新規,0,2025-01-08,2025-01-08,トリウィンクス合同会社,,合同会社,千葉県,市川市,福栄１丁目７番２１号,,12,203,2720137,,,,,,,2025-01-08,1,,,,,トリウィンクス,0
122,1050001055970,新規,0,2025-01-08,2025-01-08,株式会社リンクスホーム,,株式会社,茨城県,稲敷郡阿見町,大字鈴木２５－１３２,,08,443,3000334,,,,,,,2025-01-08,1,,,,,リンクスホーム,0
125,1050003008910,新規,0,2025-01-08,2025-01-08,ナイス合同会社,,合同会社,茨城県,守谷市,本町３７７番地の５,,08,224,3020109,,,,,,,2025-01-08,1,,,,,ナイス,0
126,1050003008919,新規,0,2025-01-08,2025-01-08,合同会社Ｐｏｎｏ,,合同会社,茨城県,水戸市,酒門町５１４番１,,08,201,3100841,,,,,,,2025-01-08,1,,,,,ポノ,0
129,1070001042505,新規,0,2025-01-08,2025-01-08,株式会社フリボン,,株式会社,群馬県,太田市,鳥山中町３２２番地,,10,205,3730062,,,,,,,2025-01-08,1,,,,,フリボン,0
131,1070003005732,新規,0,2025-01-08,2025-01-08,ポケットミュージック教室合同会社,,合同会社,群馬県,前橋市,荒牧町２丁目５９番地１２,,10,201,3710044,,,,,,,2025-01-08,1,,,,,ポケットミュージックキョウシツ,0
134,1080101025235,新規,0,2025-01-08,2025-01-08,株式会社杉山木工,,株式会社,静岡県,三島市,佐野６４４番地,,22,206,4110047,,,,,,,2025-01-08,1,,,,,スギヤマモッコウ,0
136,1080403005174,新規,0,2025-01-08,2025-01-08,合同会社ＳＴＡＲＴ　ＯＮ,,合同会社,静岡県,菊川市,加茂５０２番地の１,,22,224,4390031,,,,,,,2025-01-08,1,,,,,スタートオン,0
138,1100003007931,新規,0,2025-01-08,2025-01-08,合同会社鍵しっぽ,,合同会社,長野県,松本市,村井町南１丁目１２番３４号,,20,202,3990036,,,,,,,2025-01-08,1,,,,,カギシッポ,0
140,1110003005620,新規,0,2025-01-08,2025-01-08,ＫＡＩＨＯＬＯ合同会社,,合同会社,新潟県,新潟市西蒲区,角田浜１６５７,,15,108,9530011,,,,,,,2025-01-08,1,,,,,カイホロ,0
153,1120001271445,新規,0,2025-01-08,2025-01-08,Ｙｏｎｄｅｒ　Ｓｅａ株式会社,,株式会社,大阪府,大阪市西成区,南津守７丁目１番１６－１０２室,,27,122,5570063,,,,,,,2025-01-08,1,,,,,ヨンダーシー,0
154,1120001271503,新規,0,2025-01-08,2025-01-08,株式会社ユアス,,株式会社,大阪府,大阪市中央区,日本橋１丁目１７番１７号ピカソ日本一ビル８階,,27,128,5420073,,,,,,,2025-01-08,1,,,,,ユアス,0
155,1120001271602,新規,0,2025-01-08,2025-01-08,株式会社フォルツナビ,,株式会社,大阪府,大阪市北区,梅田１丁目２番２号大阪駅前第２ビル１２－１２,,27,127,5300001,,,,,,,2025-01-08,1,,,,,フォルツナビ,0
156,1120001271651,新規,0,2025-01-08,2025-01-08,株式会社エレガンスホーム,,株式会社,大阪府,大阪市生野区,鶴橋４丁目１－２６－３号室,,27,116,5440031,,,,,,,2025-01-08,1,,,,,エレガンスホーム,0
160,1120003028298,新規,0,2025-01-08,2025-01-08,合同会社結,,合同会社,大阪府,大阪市都島区,友渕町１丁目４－２－２５０１,,27,102,5340016,,,,,,,2025-01-08,1,,,,,ムスビ,0
163,1120101070862,新規,0,2025-01-08,2025-01-08,カーピット株式会社,,株式会社,大阪府,和泉市,福瀬町８７４－１,,27,219,5941123,,,,,,,2025-01-08,1,,,,,カーピット,0
167,1120901050238,新規,0,2025-01-08,2025-01-08,株式会社Ｈ．Ｓ．コーポレーション,,株式会社,大阪府,茨木市,庄１丁目２８番３２－８１２号,,27,211,5670806,,,,,,,2025-01-08,1,,,,,エイチエスコーポレーション,0
168,1120901050246,新規,0,2025-01-08,2025-01-08,カタクリエーション株式会社,,株式会社,大阪府,吹田市,千里丘下２３番７号,,27,205,5650813,,,,,,,2025-01-08,1,,,,,カタクリエーション,0
169,1120901050262,新規,0,2025-01-08,2025-01-08,株式会社西日本空調設備,,株式会社,大阪府,豊中市,稲津町２丁目１８番２－３０８号,,27,203,5610854,,,,,,,2025-01-08,1,,,,,ニシニホンクウチョウセツビ,0
170,1120903005495,新規,0,2025-01-08,2025-01-08,合同会社Ｌａｇｎａ,,合同会社,大阪府,池田市,石橋１丁目８番１０号石橋ステーションプラザビル２Ａ,,27,204,5630032,,,,,,,2025-01-08,1,,,,,ラグナ,0
173,1130001078666,新規,0,2025-01-08,2025-01-08,株式会社ａｃｃｏｕｎｔ,,株式会社,京都府,京都市西京区,松尾東ノ口町６５－３,,26,111,6158217,,,,,,,2025-01-08,1,,,,,アカウント,0
174,1130001078716,新規,0,2025-01-08,2025-01-08,株式会社五艮作,,株式会社,京都府,京都市伏見区,横大路富ノ森町４５番地,,26,109,6128257,,,,,,,2025-01-08,1,,,,,ゴロサク,0
178,1140001136877,新規,0,2025-01-08,2025-01-08,株式会社名洋,,株式会社,兵庫県,三木市,別所町下石野西山１３０６番地,,28,215,6730453,,,,,,,2025-01-08,1,,,,,メイヨウ,0
179,1140001136935,新規,0,2025-01-08,2025-01-08,株式会社ゼロラボ,,株式会社,兵庫県,神戸市中央区,生田町１丁目２番３８号３Ｆ,,28,110,6510092,,,,,,,2025-01-08,1,,,,,ゼロラボ,0
182,1150005009657,新規,0,2025-01-08,2025-01-08,一般社団法人日本看護師経済連合会,,その他の設立登記法人,奈良県,五條市,今井３丁目５－７,,29,207,6370004,,,,,,,2025-01-08,1,,,,,ニホンカンゴシケイザイレンゴウカイ,0
184,1160001026465,新規,0,2025-01-08,2025-01-08,株式会社ＰＡＮＧＥＡ,,株式会社,滋賀県,大津市,打出浜２－１コラボしが２１・４階４２３号室,,25,201,5200806,,,,,,,2025-01-08,1,,,,,パンゲア,0
189,1180001164726,新規,0,2025-01-08,2025-01-08,株式会社頂希,,株式会社,愛知県,小牧市,常普請２丁目２９８番地,,23,219,4850044,,,,,,,2025-01-08,1,,,,,イタダキ,0
190,1180001164750,新規,0,2025-01-08,2025-01-08,株式会社カラフル,,株式会社,愛知県,名古屋市千種区,池下１丁目４番１１号,,23,101,4640067,,,,,,,2025-01-08,1,,,,,カラフル,0
191,1180001164767,新規,0,2025-01-08,2025-01-08,株式会社ＡＵＴＯアルファ,,株式会社,愛知県,海部郡大治町,大字長牧字浦畑９７番地の８,,23,424,4901131,,,,,,,2025-01-08,1,,,,,オートアルファ,0
192,1180001164775,新規,0,2025-01-08,2025-01-08,株式会社松枝,,株式会社,愛知県,小牧市,大字北外山３８５５番地１,,23,219,4850023,,,,,,,2025-01-08,1,,,,,マツエダ,0
193,1180001164833,新規,0,2025-01-08,2025-01-08,株式会社ｃｏｎｔｉｎｕｕｕ,,株式会社,愛知県,日進市,梅森台５丁目１１８番地３,,23,230,4700133,,,,,,,2025-01-08,1,,,,,コンティニュー,0
194,1180005020891,新規,0,2025-01-08,2025-01-08,社会保険労務士法人エール,,その他の設立登記法人,愛知県,名古屋市中村区,太閤３丁目１番１８号名古屋ＫＳビル６Ｆ,,23,105,4530801,,,,,,,2025-01-08,1,,,,,エール,0
196,1180301039388,新規,0,2025-01-08,2025-01-08,株式会社イルミナ,,株式会社,愛知県,岡崎市,牧御堂町字花辺９番地５,,23,202,4440205,,,,,,,2025-01-08,1,,,,,イルミナ,0
197,1180305009643,新規,0,2025-01-08,2025-01-08,医療法人慈泉会,,その他の設立登記法人,愛知県,豊田市,錦町１丁目４３番地,,23,211,4710877,,,,,,,2025-01-08,1,,,,,ジセンカイ,0
198,1190001031917,新規,0,2025-01-08,2025-01-08,株式会社Ｓｉｍｐｌｅ,,株式会社,三重県,桑名市,陽だまりの丘７丁目１１１６番地１,,24,205,5110867,,,,,,,2025-01-08,1,,,,,シンプル,0
199,1190001031925,新規,0,2025-01-08,2025-01-08,株式会社トラストワーク四日市,,株式会社,三重県,四日市市,九の城町５番１２号うの森ビル１東,,24,202,5100072,,,,,,,2025-01-08,1,,,,,トラストワークヨッカイチ,0
200,1190001031933,新規,0,2025-01-08,2025-01-08,株式会社かさの屋,,株式会社,三重県,鈴鹿市,若松東２丁目１番１８号,,24,207,5100225,,,,,,,2025-01-08,1,,,,,カサノヤ,0
204,1190003004904,新規,0,2025-01-08,2025-01-08,合同会社ＨＯＲＩＢＥＥ,,合同会社,三重県,北牟婁郡紀北町,長島１４５６,,24,543,5193205,,,,,,,2025-01-08,1,,,,,ホリビー,0
207,1200001043299,新規,0,2025-01-08,2025-01-08,本荘電子株式会社,,株式会社,岐阜県,岐阜市,西荘１丁目１０番２号,,21,201,5008362,,,,,,,2025-01-08,1,,,,,ホンジョウデンシ,0
209,1200003006642,新規,0,2025-01-08,2025-01-08,合同会社サンオネスト,,合同会社,岐阜県,美濃加茂市,川合町１丁目７番１４号,,21,211,5050022,,,,,,,2025-01-08,1,,,,,サンオネスト,0
211,1220003003919,新規,0,2025-01-08,2025-01-08,華盛合同会社,,合同会社,石川県,加賀市,山中温泉加美谷台２丁目１５番,,17,206,9220118,,,,,,,2025-01-08,1,,,,,カセイ,0
212,1220003003927,新規,0,2025-01-08,2025-01-08,合同会社ｍｈｏｍｅ,,合同会社,石川県,野々市市,押野３丁目１４４番地１,,17,212,9218802,,,,,,,2025-01-08,1,,,,,エムホーム,0
213,1230001020691,新規,0,2025-01-08,2025-01-08,株式会社禅,,株式会社,富山県,高岡市,戸出町２丁目４番１４号ＴＭＴビル,,16,202,9391104,,,,,,,2025-01-08,1,,,,,ゼン,0
214,1230003002358,新規,0,2025-01-08,2025-01-08,合同会社ＳＢＴ,,合同会社,富山県,富山市,総曲輪３丁目２番１６号,,16,201,9300083,,,,,,,2025-01-08,1,,,,,エスビーティー,0
215,1240001064341,新規,0,2025-01-08,2025-01-08,株式会社ＯＫＤ,,株式会社,広島県,三原市,沼田東町末広３１５番地３４４,,34,204,7230144,,,,,,,2025-01-08,1,,,,,オーケーディー,0
216,1240001064358,新規,0,2025-01-08,2025-01-08,株式会社Ｅｉｎｅ　ＥＲＤＥ,,株式会社,広島県,広島市中区,舟入南２丁目５番１１号,,34,101,7300847,,,,,,,2025-01-08,1,,,,,アイネエァド,0
218,1240005015877,新規,0,2025-01-08,2025-01-08,一般社団法人高齢者サポート協会,,その他の設立登記法人,広島県,東広島市,福富町久芳２３４７番地,,34,212,7392303,,,,,,,2025-01-08,1,,,,,コウレイシャサポートキョウカイ,0
220,1250001020962,新規,0,2025-01-08,2025-01-08,美山森株式会社,,株式会社,山口県,美祢市,大嶺町西分４３９番地１,,35,213,7592213,,,,,,,2025-01-08,1,,,,,ビザンシン,0
224,1250003003619,新規,0,2025-01-08,2025-01-08,合同会社ｍｅｇｕｒｉａｉ,,合同会社,山口県,防府市,警固町１丁目４番１７号,,35,206,7470821,,,,,,,2025-01-08,1,,,,,メグリアイ,0
225,1250003003627,新規,0,2025-01-08,2025-01-08,合同会社ＮＯＭＵＲＡ,,合同会社,山口県,下関市,貴船町４丁目１番１７－１００３号フローレンス貴船町グランドアーク,,35,201,7510823,,,,,,,2025-01-08,1,,,,,ノムラ,0
232,1290001108515,新規,0,2025-01-08,2025-01-08,株式会社エメラルドバレー,,株式会社,福岡県,福岡市博多区,竹下２丁目４番２９－９０２号,,40,132,8120895,,,,,,,2025-01-08,1,,,,,エメラルドバレー,0
233,1290001108523,新規,0,2025-01-08,2025-01-08,株式会社Ｇａｒａ’ｓＬｉｆｅ,,株式会社,福岡県,朝倉市,甘木１１３８－４－２ｆ,,40,228,8380068,,,,,,,2025-01-08,1,,,,,,0
234,1290001108531,新規,0,2025-01-08,2025-01-08,アクティブバリュー株式会社,,株式会社,福岡県,福岡市博多区,博多駅東１丁目１番３３号はかた近代ビル２階,,40,132,8120013,,,,,,,2025-01-08,1,,,,,アクティブバリュー,0
235,1290001108548,新規,0,2025-01-08,2025-01-08,地域創生株式会社,,株式会社,福岡県,福岡市南区,大橋４丁目２５番３０号ベルエール大橋２階,,40,134,8150033,,,,,,,2025-01-08,1,,,,,チイキソウセイ,0
236,1290001108556,新規,0,2025-01-08,2025-01-08,株式会社鶴田新聞店,,株式会社,福岡県,朝倉市,大庭５１３番地,,40,228,8381316,,,,,,,2025-01-08,1,,,,,ツルタシンブンテン,0
237,1290001108589,新規,0,2025-01-08,2025-01-08,株式会社山下ホームサービス,,株式会社,福岡県,福岡市南区,和田４丁目９番１号,,40,134,8111343,,,,,,,2025-01-08,1,,,,,ヤマシタホームサービス,0
240,1290003016245,新規,0,2025-01-08,2025-01-08,Ｆｒｏｏｍｓ合同会社,,合同会社,福岡県,福岡市中央区,大濠２丁目１２番１６号,,40,133,8100052,,,,,,,2025-01-08,1,,,,,フルームス,0
243,1300001014042,新規,0,2025-01-08,2025-01-08,マレホーム工業株式会社,,株式会社,佐賀県,佐賀市,東与賀町大字飯盛２１３番地１９,,41,201,8402223,,,,,,,2025-01-08,1,,,,,マレホームコウギョウ,0
244,1310001019404,新規,0,2025-01-08,2025-01-08,株式会社地味在,,株式会社,長崎県,島原市,新馬場町２２３番地１,,42,203,8550033,,,,,,,2025-01-08,1,,,,,ジミザイ,0
245,1310003004924,新規,0,2025-01-08,2025-01-08,合同会社Ｍ．Ｓｔｙｌｅ,,合同会社,長崎県,長崎市,小菅町３０番１－９０７号,,42,201,8500934,,,,,,,2025-01-08,1,,,,,エムスタイル,0
248,1320001020880,新規,0,2025-01-08,2025-01-08,株式会社金兵衛,,株式会社,大分県,大分市,中央町２丁目６番９号,,44,201,8700035,,,,,,,2025-01-08,1,,,,,キンベエ,0
250,1330001032784,新規,0,2025-01-08,2025-01-08,株式会社マーレ不動産管理,,株式会社,熊本県,熊本市中央区,九品寺３丁目９番３２号,,43,101,8620976,,,,,,,2025-01-08,1,,,,,マーレフドウサンカンリ,0
251,1330001032792,新規,0,2025-01-08,2025-01-08,株式会社大泉,,株式会社,熊本県,熊本市東区,神園１丁目１番７８号コルティーレ１０１号,,43,102,8618044,,,,,,,2025-01-08,1,,,,,ダイセン,0
255,1340005009803,新規,0,2025-01-08,2025-01-08,一般社団法人晴爛漫,,その他の設立登記法人,鹿児島県,枕崎市,西本町９０番地,,46,204,8980015,,,,,,,2025-01-08,1,,,,,ハルランマン,0
257,1350001019350,新規,0,2025-01-08,2025-01-08,株式会社ＮＯＢ,,株式会社,宮崎県,都城市,太郎坊町７６８６番地７,,45,202,8850002,,,,,,,2025-01-08,1,,,,,ノブ,0
258,1360005007152,新規,0,2025-01-08,2025-01-08,一般社団法人勢頭門中,,その他の設立登記法人,沖縄県,那覇市,具志１丁目７番１７号,,47,201,9010146,,,,,,,2025-01-08,1,,,,,シールムンチュウ,0
261,1370003006881,新規,0,2025-01-08,2025-01-08,合同会社くろーばー,,合同会社,宮城県,登米市,中田町上沼字籠壇１１６番地,,04,212,9870602,,,,,,,2025-01-08,1,,,,,クローバー,0
263,1380001034999,新規,0,2025-01-08,2025-01-08,Ｔｏｈｏｋｕ　Ｈａｎａ　Ｇａｔｅホールディングス株式会社,,株式会社,福島県,郡山市,大槻町字向原１１４番地,,07,203,9630201,,,,,,,2025-01-08,1,,,,,トウホクハナゲートホールディングス,0
268,1390001017838,新規,0,2025-01-08,2025-01-08,株式会社ＭＭ,,株式会社,山形県,東根市,中央１丁目１１番２１号,,06,211,9993711,,,,,,,2025-01-08,1,,,,,エムエム,0
271,1410001014031,新規,0,2025-01-08,2025-01-08,株式会社関農園,,株式会社,秋田県,山本郡三種町,川尻字川尻昼根下８番地,,05,348,0182402,,,,,,,2025-01-08,1,,,,,セキノウエン,0
275,1430001093404,新規,0,2025-01-08,2025-01-08,株式会社Ｇｉｆｔｅｄ,,株式会社,北海道,江別市,野幌屯田町２１番地の１０,,01,217,0690803,,,,,,,2025-01-08,1,,,,,ギフテッド,0
276,1430001093429,新規,0,2025-01-08,2025-01-08,株式会社グロウファン,,株式会社,北海道,札幌市手稲区,富丘二条７丁目６番８号,,01,109,0060012,,,,,,,2025-01-08,1,,,,,グロウファン,0
280,1430003017138,新規,0,2025-01-08,2025-01-08,合同会社くわや,,合同会社,北海道,札幌市西区,二十四軒一条４丁目２番２３号,,01,107,0630801,,,,,,,2025-01-08,1,,,,,クワヤ,0
281,1430003017154,新規,0,2025-01-08,2025-01-08,合同会社ａｏ,,合同会社,北海道,札幌市西区,西野八条４丁目３番２０号,,01,107,0630038,,,,,,,2025-01-08,1,,,,,エーオー,0
282,1440005002789,新規,0,2025-01-08,2025-01-08,一般社団法人インターナショナル首なで協会,,その他の設立登記法人,北海道,松前郡松前町,字白神５２０番地,,01,331,0491524,,,,,,,2025-01-08,1,,,,,インターナショナルクビナデキョウカイ,0
290,1500001026067,新規,0,2025-01-08,2025-01-08,株式会社Ｃｏｎｎｅｃｔ,,株式会社,愛媛県,新居浜市,坂井町３丁目２番３４号,,38,205,7920812,,,,,,,2025-01-08,1,,,,,コネクト,0
291,1500001026075,新規,0,2025-01-08,2025-01-08,株式会社ルスール,,株式会社,愛媛県,松山市,立花３丁目３番２９号,,38,201,7900966,,,,,,,2025-01-08,1,,,,,ルスール,0
293,1700150127983,新規,0,2025-01-08,2025-01-08,ＭＯＭＩＪＩ　ＴＭＮ　ＰＴＥ．ＬＴＤ．,,外国会社等,,,,,,,,２２　ＭＡＲＴＩＮ　ＲＯＡＤ　＃０６－０１　ＳＩＮＧＡＰＯＲＥ（２３９０５８）,,,,,,2025-01-08,1,,,,,モミジテイエムエヌ,0
305,2010001250681,新規,0,2025-01-08,2025-01-08,株式会社ＴＭ＆ＬＵ,,株式会社,東京都,中央区,銀座１丁目１２番４号Ｎ＆ＥＢＬＤ．７階,,13,102,1040061,,,,,,,2025-01-08,1,,,,,ティーエムアンドルー,0
307,2010003045972,新規,0,2025-01-08,2025-01-08,Ｏｎｅ　Ｔｉｍｅ　Ｌｉｆｅ合同会社,,合同会社,東京都,中央区,湊３丁目１０番５－６０１号,,13,102,1040043,,,,,,,2025-01-08,1,,,,,ワンタイムライフ,0
308,2010003045997,新規,0,2025-01-08,2025-01-08,Ｋａｊｉｋａ　Ａｄｖｉｓｏｒｓ合同会社,,合同会社,東京都,千代田区,平河町１丁目６番１５号８Ｆ,,13,101,1020093,,,,,,,2025-01-08,1,,,,,カジカアドバイザーズ,0
310,2010005039361,新規,0,2025-01-08,2025-01-08,一般社団法人ＣＲひまわり,,その他の設立登記法人,東京都,中央区,銀座２丁目１０番８号マニエラ銀座ビル４階,,13,102,1040061,,,,,,,2025-01-08,1,,,,,シーアールヒマワリ,0
315,2010401187342,新規,0,2025-01-08,2025-01-08,佐藤忠商事株式会社,,株式会社,東京都,港区,芝浦１丁目６番４１号,,13,103,1050023,,,,,,,2025-01-08,1,,,,,サトウチュウショウジ,0
316,2010401187359,新規,0,2025-01-08,2025-01-08,株式会社まりもホールディングス,,株式会社,東京都,港区,三田１丁目６番３－３００３号,,13,103,1080073,,,,,,,2025-01-08,1,,,,,マリモホールディングス,0
317,2010401187375,新規,0,2025-01-08,2025-01-08,株式会社ＦＯＳＴＷＥＬＬ,,株式会社,東京都,港区,北青山１丁目３番１号アールキューブ青山３階,,13,103,1070061,,,,,,,2025-01-08,1,,,,,フォストウェル,0
318,2010401187400,新規,0,2025-01-08,2025-01-08,ＡＬＬＸＴＡＲＺ株式会社,,株式会社,東京都,港区,芝公園１丁目８番２１号芝公園リッジビル６階,,13,103,1050011,,,,,,,2025-01-08,1,,,,,オールスターズ,0
319,2010401187417,新規,0,2025-01-08,2025-01-08,株式会社リットエイド,,株式会社,東京都,港区,新橋４丁目１４番１新橋ＡＵＮＢＬＤＧ４階,,13,103,1050004,,,,,,,2025-01-08,1,,,,,リットエイド,0
320,2010401187433,新規,0,2025-01-08,2025-01-08,株式会社ＫａｌｅｉｄｏＰａｔｈ,,株式会社,東京都,港区,南青山１丁目１番１号新青山ビル西館７階,,13,103,1070062,,,,,,,2025-01-08,1,,,,,カレイドパス,0
322,2010403034071,新規,0,2025-01-08,2025-01-08,ＫａｓａＫｕｒｏ合同会社,,合同会社,東京都,港区,六本木２丁目１番地１１号,,13,103,1060032,,,,,,,2025-01-08,1,,,,,カサクロ,0
323,2010403034113,新規,0,2025-01-08,2025-01-08,ＴＥＴＳＵＹＡ　ＫＯＭＵＲＯ　ＡＲＴＩＳＴ　ＳＵＰＰＯＲＴ　ＳＹＳＴＥＭ合同会社,,合同会社,東京都,港区,三田３丁目５番２７号,,13,103,1080073,,,,,,,2025-01-08,1,,,,,テツヤコムロアーティストサポートシステム,0
327,2010701047064,新規,0,2025-01-08,2025-01-08,株式会社ナナモアナ,,株式会社,東京都,品川区,大崎２丁目６番２０号,,13,109,1410032,,,,,,,2025-01-08,1,,,,,ナナモアナ,0
329,2010901056575,新規,0,2025-01-08,2025-01-08,株式会社Ｒｅｋ,,株式会社,東京都,世田谷区,船橋４丁目２５番７号メゾンラフィネ１０１,,13,112,1560055,,,,,,,2025-01-08,1,,,,,レック,0
332,2011001166926,新規,0,2025-01-08,2025-01-08,株式会社３８度,,株式会社,東京都,渋谷区,道玄坂１丁目１２番１号渋谷マークシティ２２階,,13,113,1500043,,,,,,,2025-01-08,1,,,,,サンジュウハチド,0
333,2011001166959,新規,0,2025-01-08,2025-01-08,株式会社Ｕｐ　Ｔｏ　Ｍｅ,,株式会社,東京都,渋谷区,道玄坂１丁目１０番８号渋谷道玄坂東急ビル２Ｆ－Ｃ,,13,113,1500043,,,,,,,2025-01-08,1,,,,,アップトゥーミー,0
334,2011001166975,新規,0,2025-01-08,2025-01-08,株式会社ＮａｎｏＶｉｔａｌｓ,,株式会社,東京都,目黒区,自由が丘２丁目１６番１２号ＲＪ３,,13,110,1520035,,,,,,,2025-01-08,1,,,,,ナノバイタルス,0
339,2011003020602,新規,0,2025-01-08,2025-01-08,合同会社城戸創建,,合同会社,東京都,渋谷区,神泉町１０番１５－３０１号,,13,113,1500045,,,,,,,2025-01-08,1,,,,,キドソウケン,0
341,2011101110098,新規,0,2025-01-08,2025-01-08,ゴールベース株式会社,,株式会社,東京都,新宿区,西新宿８丁目４番１１号アーバンクレスト西新宿２０２,,13,104,1600023,,,,,,,2025-01-08,1,,,,,ゴールベース,0
342,2011101110115,新規,0,2025-01-08,2025-01-08,株式会社プロパティデザイン,,株式会社,東京都,新宿区,西新宿３丁目３番１３号西新宿水間ビル６階,,13,104,1600023,,,,,,,2025-01-08,1,,,,,プロパティデザイン,0
343,2011101110123,新規,0,2025-01-08,2025-01-08,株式会社ＡｐｒｏｔｅｃＨＤ,,株式会社,東京都,新宿区,新宿１丁目１４番５号,,13,104,1600022,,,,,,,2025-01-08,1,,,,,アプロテックホールディングス,0
344,2011101110156,新規,0,2025-01-08,2025-01-08,株式会社Ｂｅｅ,,株式会社,東京都,新宿区,北新宿３丁目３４番６号,,13,104,1690074,,,,,,,2025-01-08,1,,,,,ビー,0
345,2011101110189,新規,0,2025-01-08,2025-01-08,株式会社ＰＡＳＭＩＬＥ,,株式会社,東京都,新宿区,西新宿１丁目１９番２号シルバービルＢ１Ｆ,,13,104,1600023,,,,,,,2025-01-08,1,,,,,パスミル,0
347,2011103015361,新規,0,2025-01-08,2025-01-08,合同会社自然の癒,,合同会社,東京都,新宿区,西早稲田１丁目８番２２号,,13,104,1690051,,,,,,,2025-01-08,1,,,,,シゼンノイヤシ,0
350,2011201026038,新規,0,2025-01-08,2025-01-08,株式会社申＿晏,00137555,株式会社,東京都,中野区,南台５丁目１５－２,,13,114,1640014,,,,,,,2025-01-08,1,,,,,シンキンアン,0
351,2011301030253,新規,0,2025-01-08,2025-01-08,ブライトマイン株式会社,,株式会社,東京都,杉並区,宮前３丁目１６番３号,,13,115,1680081,,,,,,,2025-01-08,1,,,,,ブライトマイン,0
353,2011403004584,新規,0,2025-01-08,2025-01-08,栄華合同会社,,合同会社,東京都,板橋区,双葉町４－６佐藤マンション１Ｆ,,13,119,1730011,,,,,,,2025-01-08,1,,,,,エイカ,0
354,2011501031547,新規,0,2025-01-08,2025-01-08,ＯＲＩＧＩＮ　ＳＴＯＲＹ株式会社,,株式会社,東京都,荒川区,南千住３丁目２７－２浅草ビル,,13,118,1160003,,,,,,,2025-01-08,1,,,,,オリジンストーリー,0
355,2011501031555,新規,0,2025-01-08,2025-01-08,株式会社実慶,,株式会社,東京都,荒川区,荒川３丁目４３番７サンライズ岡田２０２号,,13,118,1160002,,,,,,,2025-01-08,1,,,,,ミノリ,0
357,2011603004566,新規,0,2025-01-08,2025-01-08,Ｄ‐Ｓｑｕａｒｅ合同会社,,合同会社,東京都,練馬区,練馬３丁目１－８練馬サマリヤマンション１００７,,13,120,1760001,,,,,,,2025-01-08,1,,,,,ディースクエア,0
359,2011801045395,新規,0,2025-01-08,2025-01-08,新青株式会社,,株式会社,東京都,葛飾区,新宿４丁目９番１９号,,13,122,1250051,,,,,,,2025-01-08,1,,,,,シンセイ,0
360,2011801045412,新規,0,2025-01-08,2025-01-08,ＲＹＯＳＨＩＮ株式会社,,株式会社,東京都,葛飾区,お花茶屋２丁目２番１５号やよい荘１０２号,,13,122,1240003,,,,,,,2025-01-08,1,,,,,リョウシン,0
364,2012401042634,新規,0,2025-01-08,2025-01-08,株式会社ＣＰＡＳ,,株式会社,東京都,三鷹市,牟礼６丁目２１番１４号,,13,204,1810002,,,,,,,2025-01-08,1,,,,,クーパス,0
365,2012701018607,新規,0,2025-01-08,2025-01-08,ワイネス株式会社,,株式会社,東京都,東久留米市,新川町２丁目８番８号,,13,222,2030013,,,,,,,2025-01-08,1,,,,,ワイネス,0
368,2012703003160,新規,0,2025-01-08,2025-01-08,合同会社パイプロジス,,合同会社,東京都,西東京市,住吉町４丁目８－１９住吉コーポ３０２,,13,229,2020005,,,,,,,2025-01-08,1,,,,,パイプロジス,0
369,2012801023671,新規,0,2025-01-08,2025-01-08,株式会社田中企画,,株式会社,東京都,日野市,新町４丁目１７番地の２５,,13,212,1910002,,,,,,,2025-01-08,1,,,,,タナカキカク,0
377,2020001160814,新規,0,2025-01-08,2025-01-08,株式会社石原アセットマネジメント,,株式会社,神奈川県,川崎市多摩区,菅城下９番７号,,14,135,2140007,,,,,,,2025-01-08,1,,,,,イシハラアセットマネジメント,0
378,2020001160839,新規,0,2025-01-08,2025-01-08,株式会社ＤＯＴ,,株式会社,神奈川県,横浜市都筑区,勝田町７４７番地４,,14,118,2240034,,,,,,,2025-01-08,1,,,,,ドット,0
379,2020003027516,新規,0,2025-01-08,2025-01-08,合同会社ＭＩＹＡＢＩ,,合同会社,神奈川県,横浜市西区,浅間町１丁目４番３号ウィザードビル４０２,,14,103,2200072,,,,,,,2025-01-08,1,,,,,ミヤビ,0
380,2020003027581,新規,0,2025-01-08,2025-01-08,合同会社Ｃ‐Ｐａｔｈ,,合同会社,神奈川県,横浜市西区,浅間町１丁目４番３号ウィザードビル４０２,,14,103,2200072,,,,,,,2025-01-08,1,,,,,シーパス,0
386,2021001084144,新規,0,2025-01-08,2025-01-08,株式会社ＢｉｓｈｉＮ,,株式会社,神奈川県,茅ヶ崎市,東海岸北２丁目４番５２号ＥＣスプリングフィールド１０３,,14,207,2530053,,,,,,,2025-01-08,1,,,,,ビシン,0
387,2021001084160,新規,0,2025-01-08,2025-01-08,株式会社内工,,株式会社,神奈川県,厚木市,戸室１丁目８番１号,,14,212,2430031,,,,,,,2025-01-08,1,,,,,ウチコウ,0
391,2021003015411,新規,0,2025-01-08,2025-01-08,合同会社Ｋ‐Ｇｒｏｕｐ,,合同会社,神奈川県,平塚市,御殿３丁目１０番１２号,,14,203,2540061,,,,,,,2025-01-08,1,,,,,ケイグループ,0
395,2030001164319,新規,0,2025-01-08,2025-01-08,株式会社アイファーム稔,,株式会社,埼玉県,熊谷市,野原３３６,,11,202,3600101,,,,,,,2025-01-08,1,,,,,アイファームミノリ,0
401,2040001136812,新規,0,2025-01-08,2025-01-08,株式会社Ｔ２ＳＰＡＣＥ,,株式会社,千葉県,山武郡横芝光町,鳥喰新田６５６番地１５,,12,410,2891739,,,,,,,2025-01-08,1,,,,,ティーツースペース,0
402,2040001136820,新規,0,2025-01-08,2025-01-08,新日本技研株式会社,,株式会社,千葉県,木更津市,ほたる野１丁目１３番地６－ＩＴトロン２０１号,,12,206,2920038,,,,,,,2025-01-08,1,,,,,シンニホンギケン,0
403,2040001136829,新規,0,2025-01-08,2025-01-08,株式会社ザロックス,,株式会社,千葉県,八千代市,八千代台南１丁目２番１号八千代台南一丁目ビル２階,,12,221,2760033,,,,,,,2025-01-08,1,,,,,ザロックス,0
404,2040001136845,新規,0,2025-01-08,2025-01-08,ＡＭＢ株式会社,,株式会社,千葉県,流山市,長崎１丁目４９番地の２９,,12,220,2700134,,,,,,,2025-01-08,1,,,,,エイエムビー,0
405,2040001136853,新規,0,2025-01-08,2025-01-08,株式会社ＭＡＩＳＯＮ　Ｈ,,株式会社,千葉県,松戸市,新松戸３丁目２４２－３,,12,207,2700034,,,,,,,2025-01-08,1,,,,,メゾンアッシュ,0
406,2040001136886,新規,0,2025-01-08,2025-01-08,株式会社Ｃｌａｎ,,株式会社,千葉県,市原市,権現堂３０番地２,,12,219,2900209,,,,,,,2025-01-08,1,,,,,クラン,0
410,2040003026516,新規,0,2025-01-08,2025-01-08,合同会社Ｇｏｏｄ　ｄａｙ,,合同会社,千葉県,印旛郡酒々井町,東酒々井１丁目１番６７号ＡＫビル１０１,,12,322,2850923,,,,,,,2025-01-08,1,,,,,グッドデイ,0
411,2040003026532,新規,0,2025-01-08,2025-01-08,合同会社ｃｏｎｉａ,,合同会社,千葉県,野田市,今上１１１,,12,208,2780025,,,,,,,2025-01-08,1,,,,,コニア,0
412,2040003026540,新規,0,2025-01-08,2025-01-08,ＭＴＳ合同会社,,合同会社,千葉県,千葉市美浜区,高洲１丁目１６－１３トミオ高洲一号館１０３号室,,12,106,2610004,,,,,,,2025-01-08,1,,,,,エムティーエス,0
413,2040003026573,新規,0,2025-01-08,2025-01-08,合同会社和梨,,合同会社,千葉県,流山市,おおたかの森南３丁目９－８０８,,12,220,2700139,,,,,,,2025-01-08,1,,,,,ワナシ,0
414,2050003008918,新規,0,2025-01-08,2025-01-08,訪問看護ステーションもも合同会社,,合同会社,茨城県,水戸市,笠原町６９０－４０,,08,201,3100852,,,,,,,2025-01-08,1,,,,,ホウモンカンゴステーションモモ,0
415,2050005013536,新規,0,2025-01-08,2025-01-08,あおばと石神行政書士法人,,その他の設立登記法人,茨城県,牛久市,柏田町３０４７番地２２,,08,219,3001211,,,,,,,2025-01-08,1,,,,,アオバトイシガミ,0
417,2060001037785,新規,0,2025-01-08,2025-01-08,株式会社シアンシー,,株式会社,栃木県,宇都宮市,東宿郷３丁目１２番１０号,,09,201,3210953,,,,,,,2025-01-08,1,,,,,シアンシー,0
421,2070001042504,新規,0,2025-01-08,2025-01-08,株式会社ＮｅｘＴｒｅａＭ,,株式会社,群馬県,前橋市,大友町３丁目２４－１前橋マーキュリーＥＡＳＴ７Ｆ,,10,201,3710847,,,,,,,2025-01-08,1,,,,,ネクストリーム,0
424,2080101025234,新規,0,2025-01-08,2025-01-08,株式会社ワイズ,,株式会社,静岡県,富士市,伝法４４０番地の１,,22,210,4170061,,,,,,,2025-01-08,1,,,,,ワイズ,0
427,2080403005173,新規,0,2025-01-08,2025-01-08,合同会社サトシステム,,合同会社,静岡県,浜松市中央区,田町３２６番地の２８アートフォルム田町５０３,,22,138,4300944,,,,,,,2025-01-08,1,,,,,サトシステム,0
435,2100003007939,新規,0,2025-01-08,2025-01-08,日本熱気球企画合同会社,,合同会社,長野県,佐久市,鳴瀬６０２番地７２,,20,217,3850016,,,,,,,2025-01-08,1,,,,,ニホンネツキキュウキカク,0
452,2120001271527,新規,0,2025-01-08,2025-01-08,株式会社たこ梅ホールディングス,00137550,株式会社,大阪府,大阪市浪速区,難波中３丁目１７番８号,,27,111,5560011,,,,,,,2025-01-08,1,,,,,タコウメホールディングス,0
453,2120001271592,新規,0,2025-01-08,2025-01-08,株式会社友建,,株式会社,大阪府,大阪市北区,豊崎５丁目２番２号三和豊崎第二ビル７０２号室,,27,127,5310072,,,,,,,2025-01-08,1,,,,,ユウケン,0
454,2120001271618,新規,0,2025-01-08,2025-01-08,株式会社ＫＯＴＥＲＡＳ,,株式会社,大阪府,大阪市城東区,古市３丁目１番１,,27,118,5360001,,,,,,,2025-01-08,1,,,,,コテラス,0
455,2120001271626,新規,0,2025-01-08,2025-01-08,グリーンハウス株式会社,,株式会社,大阪府,大阪市東淀川区,東淡路２丁目９番３号,,27,114,5330023,,,,,,,2025-01-08,1,,,,,グリーンハウス,0
456,2120001271650,新規,0,2025-01-08,2025-01-08,株式会社大阪八百勝,,株式会社,大阪府,大阪市東住吉区,杭全１丁目１番４－１０５号,,27,121,5460002,,,,,,,2025-01-08,1,,,,,オオサカヤオカツ,0
457,2120001271741,新規,0,2025-01-08,2025-01-08,株式会社Ｒｉｎｋａ,,株式会社,大阪府,大阪市中央区,東心斎橋２丁目３番１３号日宝スターライトビル６階１,,27,128,5420083,,,,,,,2025-01-08,1,,,,,リンカ,0
461,2120003028289,新規,0,2025-01-08,2025-01-08,合同会社ひよりこ,,合同会社,大阪府,大阪市北区,天満３丁目１２番１１号６０１号室,,27,127,5300043,,,,,,,2025-01-08,1,,,,,ヒヨリコ,0
462,2120003028306,新規,0,2025-01-08,2025-01-08,合同会社ＴＭ＆Ｙ,,合同会社,大阪府,大阪市北区,中津６丁目５番２２号,,27,127,5310071,,,,,,,2025-01-08,1,,,,,テイーエムアンドワイ,0
465,2120101070845,新規,0,2025-01-08,2025-01-08,ＬＵＣＫＳＴＡＲ株式会社,,株式会社,大阪府,泉南郡熊取町,大久保北３丁目１９２番地の６,,27,361,5900402,,,,,,,2025-01-08,1,,,,,ラッキースター,0
467,2120901050237,新規,0,2025-01-08,2025-01-08,Ａｎｎｅｘ消防設備株式会社,,株式会社,大阪府,池田市,城南３丁目７番１８号（１０３）,,27,204,5630025,,,,,,,2025-01-08,1,,,,,アネックスショウボウセツビ,0
468,2120901050245,新規,0,2025-01-08,2025-01-08,ＭＴ株式会社,,株式会社,大阪府,摂津市,鳥飼西５丁目４番６号,,27,224,5660072,,,,,,,2025-01-08,1,,,,,エムティー,0
469,2120901050261,新規,0,2025-01-08,2025-01-08,株式会社井原,,株式会社,大阪府,豊中市,向丘１丁目７番１５－６０７号,,27,203,5600053,,,,,,,2025-01-08,1,,,,,イハラ,0
471,2120903005503,新規,0,2025-01-08,2025-01-08,合同会社Ｓｍａｌｌ　Ｂｉｇ,,合同会社,大阪府,吹田市,千里山東１丁目１２番１５,,27,205,5650842,,,,,,,2025-01-08,1,,,,,スモールビッグ,0
472,2122001038773,新規,0,2025-01-08,2025-01-08,ブルーフレイム株式会社,,株式会社,大阪府,四條畷市,中野本町１６番５号,,27,229,5750051,,,,,,,2025-01-08,1,,,,,ブルーフレイム,0
473,2122005003798,新規,0,2025-01-08,2025-01-08,一般社団法人アスリート支援機構ＲｅａｌＭｅ,,その他の設立登記法人,大阪府,東大阪市,日下町４丁目１番４２－７２５号,,27,227,5798003,,,,,,,2025-01-08,1,,,,,アスリートシエンキコウリアルミー,0
482,2150001027810,新規,0,2025-01-08,2025-01-08,ＴＯＭＡエンジニアリング株式会社,,株式会社,奈良県,香芝市,下田東５丁目５４６番地,,29,210,6390232,,,,,,,2025-01-08,1,,,,,トウマエンジニアリング,0
491,2180001164725,新規,0,2025-01-08,2025-01-08,ラ・ヴィアンＲＳアセット株式会社,,株式会社,愛知県,一宮市,東出町２２番地７,,23,203,4910056,,,,,,,2025-01-08,1,,,,,ラヴィアンアールエスアセット,0
492,2180001164741,新規,0,2025-01-08,2025-01-08,株式会社中工,,株式会社,愛知県,長久手市,郷前４３番地１,,23,238,4801304,,,,,,,2025-01-08,1,,,,,ナカコウ,0
495,2180003027806,新規,0,2025-01-08,2025-01-08,合同会社ＢＣＫ,,合同会社,愛知県,名古屋市中村区,名駅南１丁目１１番１２号,,23,105,4500003,,,,,,,2025-01-08,1,,,,,ビーシーケー,0
496,2180003027814,新規,0,2025-01-08,2025-01-08,技巧合同会社,,合同会社,愛知県,江南市,般若町南山３０７,,23,217,4838013,,,,,,,2025-01-08,1,,,,,ギコウ,0
497,2180303006393,新規,0,2025-01-08,2025-01-08,合同会社ネクサス不動産,,合同会社,愛知県,安城市,今池町１丁目１４番１４号ミッドシティレジデンス新安城３０３,,23,212,4460071,,,,,,,2025-01-08,1,,,,,ネクサスフドウサン,0
498,2180305009642,新規,0,2025-01-08,2025-01-08,一般社団法人コトノトマリギ,,その他の設立登記法人,愛知県,豊川市,小坂井町欠山８２番地４,,23,207,4410103,,,,,,,2025-01-08,1,,,,,コトノトマリギ,0
504,2200001043307,新規,0,2025-01-08,2025-01-08,株式会社ＫＨ　ＦＯＯＤ,,株式会社,岐阜県,関市,上白金６２２番地サンビレッジ白金１Ｆ,,21,205,5013947,,,,,,,2025-01-08,1,,,,,ケーチフード,0
508,2200003006641,新規,0,2025-01-08,2025-01-08,合同会社ＳＨＯＣＫ　ＷＡＶＥ,,合同会社,岐阜県,恵那市,大井町１１１６番地４恵ビル,,21,210,5097201,,,,,,,2025-01-08,1,,,,,ショックウェーブ,0
516,2220001026400,新規,0,2025-01-08,2025-01-08,株式会社彦十蒔絵道,,株式会社,石川県,金沢市,南新保町ロ５７－１ＭＵＴＵＷＡＩＩＩＢ－２号室,00137544,17,201,9200064,,,,,,,2025-01-08,1,,,,,ヒコジュウマキエドウ,0
521,2240001064340,新規,0,2025-01-08,2025-01-08,株式会社大賀工業,,株式会社,広島県,福山市,東陽台１丁目１６番４号,,34,207,7210912,,,,,,,2025-01-08,1,,,,,タイガコウギョウ,0
526,2240005015876,新規,0,2025-01-08,2025-01-08,一般社団法人こちかぜ,,その他の設立登記法人,広島県,尾道市,木ノ庄町木梨１２３２番地,,34,205,7220234,,,,,,,2025-01-08,1,,,,,コチカゼ,0
528,2250001020961,新規,0,2025-01-08,2025-01-08,株式会社柳井港包装,,株式会社,山口県,柳井市,柳井７８４８番地９０,,35,212,7420021,,,,,,,2025-01-08,1,,,,,ヤナイミナトホウソウ,0
531,2260001039745,新規,0,2025-01-08,2025-01-08,株式会社ＭｙｅＳＢ,,株式会社,岡山県,岡山市北区,中仙道５６番地１０３,,33,101,7000964,,,,,,,2025-01-08,1,,,,,メイエスビー,0
532,2260001039778,新規,0,2025-01-08,2025-01-08,株式会社オルシード,,株式会社,岡山県,岡山市北区,下石井１丁目１番３号,,33,101,7000907,,,,,,,2025-01-08,1,,,,,オルシード,0
534,2290001108423,新規,0,2025-01-08,2025-01-08,サンシグマ株式会社,,株式会社,福岡県,福岡市早良区,西新２丁目１１番１３－５０５号西新コンドミニアム,,40,137,8140002,,,,,,,2025-01-08,1,,,,,サンシグマ,0
535,2290001108464,新規,0,2025-01-08,2025-01-08,Ａｅｘｏ　Ｂｉｏｓｃｉｅｎｃｅｓ株式会社,,株式会社,福岡県,福岡市東区,名島４丁目２６－３７,,40,131,8130043,,,,,,,2025-01-08,1,,,,,エクソバイオサイエンス,0
536,2290001108489,新規,0,2025-01-08,2025-01-08,株式会社ＤＩＹ,,株式会社,福岡県,福岡市南区,井尻４丁目２番３８号,,40,134,8111302,,,,,,,2025-01-08,1,,,,,ディーアイワイ,0
537,2290001108497,新規,0,2025-01-08,2025-01-08,株式会社七福Ｇｒｏｕｐ,,株式会社,福岡県,福岡市東区,名島２丁目３５番２８号,,40,131,8130043,,,,,,,2025-01-08,1,,,,,シチフクグループ,0
538,2290001108514,新規,0,2025-01-08,2025-01-08,株式会社プライムソフト,,株式会社,福岡県,福岡市東区,箱崎ふ頭３丁目１番１５－７２８号オリエントビルＮｏ．８８マリナゲートサンズ,,40,131,8120051,,,,,,,2025-01-08,1,,,,,プライムソフト,0
539,2290001108588,新規,0,2025-01-08,2025-01-08,株式会社ＣＰＫ,,株式会社,福岡県,大野城市,中３丁目１番２８号,,40,219,8160906,,,,,,,2025-01-08,1,,,,,シーピーケー,0
546,2290801031163,新規,0,2025-01-08,2025-01-08,株式会社Ｋ．ＰＲＩＭＥ,,株式会社,福岡県,北九州市小倉北区,宇佐町２丁目３番３－１０４号,,40,106,8020016,,,,,,,2025-01-08,1,,,,,ケイプライム,0
547,2290803004935,新規,0,2025-01-08,2025-01-08,翔天合同会社,,合同会社,福岡県,北九州市小倉南区,企救丘５丁目１番９号,,40,107,8020981,,,,,,,2025-01-08,1,,,,,ソラ,0
548,2290805009800,新規,0,2025-01-08,2025-01-08,医療法人Ｂｌｕｅ　Ｐｒｉｎｔ,,その他の設立登記法人,福岡県,北九州市八幡西区,鷹の巣１丁目６番１４号,,40,109,8060047,,,,,,,2025-01-08,1,,,,,ブループリント,0
549,2300001014041,新規,0,2025-01-08,2025-01-08,株式会社森山牧場,,株式会社,佐賀県,多久市,北多久町大字小侍３０３１番地７１,,41,204,8460002,,,,,,,2025-01-08,1,,,,,モリヤマボクジョウ,0
551,2320003004550,新規,0,2025-01-08,2025-01-08,さとやま工房合同会社,,合同会社,大分県,大分市,大字市８０１番地,,44,201,8701151,,,,,,,2025-01-08,1,,,,,サトヤマコウボウ,0
553,2330001032791,新規,0,2025-01-08,2025-01-08,株式会社虎妃,,株式会社,熊本県,熊本市西区,小島下町５０５０番地１,,43,103,8615284,,,,,,,2025-01-08,1,,,,,トラヒメ,0
554,2330003010713,新規,0,2025-01-08,2025-01-08,合同会社ドローンショー九州,,合同会社,熊本県,熊本市中央区,練兵町４５番地早野ビル１階,,43,101,8600017,,,,,,,2025-01-08,1,,,,,ドローンショーキュウシュウ,0
557,2340001027048,新規,0,2025-01-08,2025-01-08,株式会社Ｎａｇｉ,,株式会社,鹿児島県,鹿児島市,宇宿８丁目１３番２５号２Ｆ,,46,201,8900073,,,,,,,2025-01-08,1,,,,,ナギ,0
559,2350001019333,新規,0,2025-01-08,2025-01-08,株式会社ｃｏｔｔｏｎ．,,株式会社,宮崎県,都城市,祝吉３丁目２番地１２,,45,202,8850019,,,,,,,2025-01-08,1,,,,,コットン,0
560,2350001019358,新規,0,2025-01-08,2025-01-08,株式会社リアル理科社会塾,,株式会社,宮崎県,都城市,山田町山田５５９６,,45,202,8894601,,,,,,,2025-01-08,1,,,,,リアルリカシャカイジュク,0
561,2360003014538,新規,0,2025-01-08,2025-01-08,ＴＡＰＣＨＡＮ合同会社,,合同会社,沖縄県,うるま市,字赤道二丁目１６番地,,47,213,9042245,,,,,,,2025-01-08,1,,,,,タプチャン,0
565,2370001052101,新規,0,2025-01-08,2025-01-08,株式会社サンレイラ,,株式会社,宮城県,仙台市宮城野区,銀杏町３４番２２号,,04,102,9830047,,,,,,,2025-01-08,1,,,,,サンレイラ,0
566,2370005010889,新規,0,2025-01-08,2025-01-08,一般社団法人スローライフ,,その他の設立登記法人,宮城県,仙台市泉区,八乙女４丁目２番地の２３パークホームズ八乙女ＢＳ６０７,,04,105,9813112,,,,,,,2025-01-08,1,,,,,スローライフ,0
570,2390001017837,新規,0,2025-01-08,2025-01-08,株式会社Ｐｒｏｓｐｅｒｉｔｙ　Ｐａｒｔｎｅｒｓ,,株式会社,山形県,山形市,十日町１丁目２番３０－２１０５号,,06,201,9900031,,,,,,,2025-01-08,1,,,,,プロスペリティーパートナーズ,0
572,2410001014030,新規,0,2025-01-08,2025-01-08,株式会社Ｓｈｉｎｅ　Ｒｏａｄ,,株式会社,秋田県,南秋田郡八郎潟町,真坂字大沢２１２番地,,05,363,0181601,,,,,,,2025-01-08,1,,,,,シャインロード,0
577,2430001093394,新規,0,2025-01-08,2025-01-08,株式会社ダブルエーホールディングス,,株式会社,北海道,札幌市中央区,大通西９丁目３番地３３,,01,101,0600042,,,,,,,2025-01-08,1,,,,,ダブルエーホールディングス,0
578,2430001093428,新規,0,2025-01-08,2025-01-08,株式会社夜しなもの,,株式会社,北海道,札幌市中央区,南六条東３丁目１番地３－３０５号,,01,101,0600056,,,,,,,2025-01-08,1,,,,,ヨシナモノ,0
580,2430003017145,新規,0,2025-01-08,2025-01-08,合同会社エスエス,,合同会社,北海道,札幌市清田区,北野七条１丁目３番２５号,,01,110,0040867,,,,,,,2025-01-08,1,,,,,エスエス,0
581,2430003017153,新規,0,2025-01-08,2025-01-08,合同会社Ｋ・Ｅ・Ｙ,,合同会社,北海道,江別市,新栄台４４－１８,,01,217,0690806,,,,,,,2025-01-08,1,,,,,ケーイーワイ,0
585,2450001014489,新規,0,2025-01-08,2025-01-08,株式会社ｎａｏ,,株式会社,北海道,旭川市,東光九条２丁目２番５号ｎａｏビル,,01,204,0788349,,,,,,,2025-01-08,1,,,,,ナオ,0
587,2470003002787,新規,0,2025-01-08,2025-01-08,六条コンタクト合同会社,,合同会社,香川県,高松市,六条町１７番地１,,37,201,7610303,,,,,,,2025-01-08,1,,,,,ロクジョウコンタクト,0
589,2500001026066,新規,0,2025-01-08,2025-01-08,株式会社ＫＹＯＵＥＩ,,株式会社,愛媛県,新居浜市,七宝台町甲４６０２番地の１３,,38,205,7920855,,,,,,,2025-01-08,1,,,,,キョウエイ,0
591,2500005008754,新規,0,2025-01-08,2025-01-08,税理士法人えひめコネクト,,その他の設立登記法人,愛媛県,松山市,山越３丁目６番９号,,38,201,7918013,,,,,,,2025-01-08,1,,,,,エヒメコネクト,0
593,2700150127990,新規,0,2025-01-08,2025-01-08,ＧＵＡＮ　ＺＨＩ　ＨＯＬＤＩＮＧＳ　ＬＩＭＩＴＥＤ,,外国会社等,,,,,,,,Ｒｏｏｍ　９０１，Ｂｏｓｓ　Ｃｏｍｍｅｒｃｉａｌ　Ｃｅｎｔｒｅ，２８　Ｆｅｒｒｙ　Ｓｔｒｅｅｔ，Ｊｏｒｄａｎ，Ｋｏｗｌｏｏｎ，Ｈｏｎｇ　Ｋｏｎｇ,,,,,,2025-01-08,1,,,,,グアンジーホールデイングスリミテツド,0
603,3010001250680,新規,0,2025-01-08,2025-01-08,株式会社ＭＣＷＭ,,株式会社,東京都,中央区,銀座１丁目１２番４号Ｎ＆ＥＢＬＤ．７階,,13,102,1040061,,,,,,,2025-01-08,1,,,,,エムシーダブリューエム,0
604,3010001251019,新規,0,2025-01-08,2025-01-08,株式会社アテス,,株式会社,東京都,文京区,本郷３丁目１３番３号三富ビル１階,,13,105,1130033,,,,,,,2025-01-08,1,,,,,アテス,0
605,3010001251101,新規,0,2025-01-08,2025-01-08,株式会社ＭａｒｉｎＡｚｕｒ,,株式会社,東京都,千代田区,九段南４丁目３番８号九段大島ビル２Ｆ,,13,101,1020074,,,,,,,2025-01-08,1,,,,,マリナジュール,0
610,3010005039377,新規,0,2025-01-08,2025-01-08,一般社団法人カンナビジオール安全・安心協議会,,その他の設立登記法人,東京都,千代田区,永田町２丁目９番６号,,13,101,1000014,,,,,,,2025-01-08,1,,,,,カンナビジオールアンゼンアンシンキョウギカイ,0
611,3010005039385,新規,0,2025-01-08,2025-01-08,一般社団法人コリーナ,,その他の設立登記法人,東京都,千代田区,丸の内１丁目４番１号東京共同会計事務所内,,13,101,1000005,,,,,,,2025-01-08,1,,,,,コリーナ,0
612,3010101016478,新規,0,2025-01-08,2025-01-08,株式会社フォレスタコヤタ,,株式会社,東京都,八王子市,東中野１１５５番地,,13,201,1920351,,,,,,,2025-01-08,1,,,,,フォレスタコヤタ,0
614,3010401187333,新規,0,2025-01-08,2025-01-08,株式会社ＯＶＩＬ,,株式会社,東京都,港区,北青山２丁目１４番４号６階,,13,103,1070061,,,,,,,2025-01-08,1,,,,,オビル,0
615,3010401187366,新規,0,2025-01-08,2025-01-08,株式会社ＢｉＢｉ,,株式会社,東京都,港区,南青山５丁目１２番２号倉澤ビル２ＦＢ,,13,103,1070062,,,,,,,2025-01-08,1,,,,,ビビ,0
616,3010401187374,新規,0,2025-01-08,2025-01-08,株式会社ＲＯＵＴＥ,,株式会社,東京都,港区,麻布永坂町１番地麻布パークサイドビル３０５,,13,103,1060043,,,,,,,2025-01-08,1,,,,,ルート,0
617,3010401187382,新規,0,2025-01-08,2025-01-08,株式会社ジョイ・ライフ・フィットネス,,株式会社,東京都,港区,新橋５丁目１番３号新正堂第１ビル６階,,13,103,1050004,,,,,,,2025-01-08,1,,,,,ジョイライフフィットネス,0
618,3010401187390,新規,0,2025-01-08,2025-01-08,ＺＩＯＮ株式会社,,株式会社,東京都,港区,南青山３丁目１番３６号青山丸竹ビル６階,,13,103,1070062,,,,,,,2025-01-08,1,,,,,ザイオン,0
619,3010401187408,新規,0,2025-01-08,2025-01-08,ＳＩＡＮＺ株式会社,,株式会社,東京都,港区,東新橋２丁目７番３号昭和アステック１号館４階,,13,103,1050021,,,,,,,2025-01-08,1,,,,,シアン,0
620,3010401187424,新規,0,2025-01-08,2025-01-08,株式会社ＩＮＮＯＳＩＣ,,株式会社,東京都,港区,港南４丁目６番４－１１０５号,,13,103,1080075,,,,,,,2025-01-08,1,,,,,イノシック,0
624,3010403034120,新規,0,2025-01-08,2025-01-08,合同会社Ｃｕｂｉｓｍ,,合同会社,東京都,港区,南青山２丁目２番１５号ウィン青山９４２,,13,103,1070062,,,,,,,2025-01-08,1,,,,,キュビズム,0
625,3010403034161,新規,0,2025-01-08,2025-01-08,Ｅｌｕｌ合同会社,,合同会社,東京都,港区,北青山１丁目３番１号アールキューブ青山３階,,13,103,1070061,,,,,,,2025-01-08,1,,,,,エルール,0
630,3010603011316,新規,0,2025-01-08,2025-01-08,合同会社まったりーね,,合同会社,東京都,墨田区,立川４丁目７番９‐６０６号,,13,107,1300023,,,,,,,2025-01-08,1,,,,,マッタリーネ,0
633,3010701047063,新規,0,2025-01-08,2025-01-08,リバイオロジカル株式会社,,株式会社,東京都,品川区,東五反田５丁目１２番１号,,13,109,1410022,,,,,,,2025-01-08,1,,,,,リバイオロジカル,0
634,3010701047071,新規,0,2025-01-08,2025-01-08,株式会社Ｆｉｖｅ，Ｋ,,株式会社,東京都,品川区,南品川４丁目６番３号,,13,109,1400004,,,,,,,2025-01-08,1,,,,,ファイブケイ,0
637,3010901056590,新規,0,2025-01-08,2025-01-08,ＥＢエナジー株式会社,,株式会社,東京都,世田谷区,船橋１丁目２８番１３－１０１号,,13,112,1560055,,,,,,,2025-01-08,1,,,,,イービーエナジー,0
638,3010901056608,新規,0,2025-01-08,2025-01-08,株式会社世田谷分析センター,,株式会社,東京都,世田谷区,中町１丁目１７番１４－１１１号,,13,112,1580091,,,,,,,2025-01-08,1,,,,,セタガヤブンセキセンター,0
641,3011001166859,新規,0,2025-01-08,2025-01-08,神友リアルエステート株式会社,,株式会社,東京都,目黒区,三田２丁目７番４号,,13,110,1530062,,,,,,,2025-01-08,1,,,,,シンユウリアルエステート,0
642,3011001166891,新規,0,2025-01-08,2025-01-08,株式会社ＭＤＴ,,株式会社,東京都,渋谷区,道玄坂１丁目１０番８号渋谷道玄坂東急ビル２Ｆ―Ｃ,,13,113,1500043,,,,,,,2025-01-08,1,,,,,エムディティ,0
643,3011001166925,新規,0,2025-01-08,2025-01-08,株式会社５ＣＯＮＮＥＣＴＩＯＮ,,株式会社,東京都,渋谷区,神南１丁目１１－４ＦＰＧリンクス神南５階,,13,113,1500041,,,,,,,2025-01-08,1,,,,,ファイブコネクション,0
644,3011001166933,新規,0,2025-01-08,2025-01-08,ＧＲＥＥＮ株式会社,,株式会社,東京都,渋谷区,恵比寿西２丁目８番４号ＥＸ恵比寿西ビル５階,,13,113,1500021,,,,,,,2025-01-08,1,,,,,グリーン,0
645,3011001166999,新規,0,2025-01-08,2025-01-08,紳士ライフサービス株式会社,,株式会社,東京都,渋谷区,笹塚３丁目１番１１号プライムアーバン笹塚２０１,,13,113,1510073,,,,,,,2025-01-08,1,,,,,シンシライフサービス,0
647,3011003020733,新規,0,2025-01-08,2025-01-08,ＭＧＭ合同会社,,合同会社,東京都,渋谷区,東１丁目２２番６号カスティル渋谷４０１,,13,113,1500011,,,,,,,2025-01-08,1,,,,,エムジーエム,0
648,3011003020766,新規,0,2025-01-08,2025-01-08,ＦＬＵＸ合同会社,,合同会社,東京都,目黒区,上目黒５丁目７番６号ボナール上目黒３０１,,13,110,1530051,,,,,,,2025-01-08,1,,,,,フラックス,0
650,3011101110122,新規,0,2025-01-08,2025-01-08,株式会社ルリアンエステート,,株式会社,東京都,新宿区,西新宿７丁目２２番３１号柏木ＭＵＲＡ９０８,,13,104,1600023,,,,,,,2025-01-08,1,,,,,ルリアンエステート,0
651,3011101110155,新規,0,2025-01-08,2025-01-08,株式会社Ｃａｐｔｕｒｅ．,,株式会社,東京都,新宿区,下落合４丁目１４番９－１０３号,,13,104,1610033,,,,,,,2025-01-08,1,,,,,カプチュール,0
652,3011101110163,新規,0,2025-01-08,2025-01-08,株式会社ＲＥＩ,,株式会社,東京都,新宿区,西新宿３丁目３番１３号西新宿水間ビル２Ｆ,,13,104,1600023,,,,,,,2025-01-08,1,,,,,レイ,0
653,3011101110188,新規,0,2025-01-08,2025-01-08,トリプルエージャパン株式会社,,株式会社,東京都,新宿区,西新宿３丁目３番１３号西新宿水間ビル６階,,13,104,1600023,,,,,,,2025-01-08,1,,,,,トリプルエージャパン,0
654,3011103015369,新規,0,2025-01-08,2025-01-08,合同会社Ｏｎｅ　Ｐｒｏｆｅｓｓｉｏｎａｌ　Ｂｅａｕｔｙ,,合同会社,東京都,新宿区,西新宿６丁目５番１号新宿アイランドタワー２階,,13,104,1600023,,,,,,,2025-01-08,1,,,,,ワンプロフェッショナルビューティー,0
655,3011103015377,新規,0,2025-01-08,2025-01-08,合同会社ジェイ・ジー・シー,,合同会社,東京都,新宿区,下宮比町１番４号,,13,104,1620822,,,,,,,2025-01-08,1,,,,,ジェイジーシー,0
656,3011203004569,新規,0,2025-01-08,2025-01-08,合同会社気龍院,,合同会社,東京都,中野区,松が丘１丁目３０番１パシフィック中野６０４号,,13,114,1650024,,,,,,,2025-01-08,1,,,,,キリュウイン,0
658,3011301030260,新規,0,2025-01-08,2025-01-08,株式会社まんぷく商事,,株式会社,東京都,杉並区,高井戸東４丁目１１番３０号,,13,115,1680072,,,,,,,2025-01-08,1,,,,,マンプクショウジ,0
659,3011301030269,新規,0,2025-01-08,2025-01-08,株式会社Ｂｅｓｔ　Ｌｉｆｅ,,株式会社,東京都,杉並区,松庵３丁目３８番２０号ＫＵＲＡ松庵１０５号,,13,115,1670054,,,,,,,2025-01-08,1,,,,,,0
662,3011501031562,新規,0,2025-01-08,2025-01-08,ＤＥＶＡＣＣ株式会社,,株式会社,東京都,荒川区,荒川１丁目４７番４号,,13,118,1160002,,,,,,,2025-01-08,1,,,,,ディバック,0
663,3011503006372,新規,0,2025-01-08,2025-01-08,合同会社クラフトリンク,,合同会社,東京都,荒川区,南千住６丁目４３番３－１１０２号,,13,118,1160003,,,,,,,2025-01-08,1,,,,,クラフトリンク,0
664,3011601028343,新規,0,2025-01-08,2025-01-08,オオネストレスティーコップスペシャルセキュリティーインク株式会社,,株式会社,東京都,練馬区,関町東２丁目６番１８号ラフォーレ関町１０２号,,13,120,1770052,,,,,,,2025-01-08,1,,,,,オオネストレスティーコップスペシャルセキュリティーインク,0
665,3011603004565,新規,0,2025-01-08,2025-01-08,合同会社ネクストステージ,,合同会社,東京都,練馬区,上石神井２丁目１５番１３号ヴィラマローネ２０１号室,,13,120,1770044,,,,,,,2025-01-08,1,,,,,ネクストステージ,0
667,3011801045238,新規,0,2025-01-08,2025-01-08,万有引力科技株式会社,,株式会社,東京都,葛飾区,柴又３丁目１１－１１カエデ柴又１０６,,13,122,1250052,,,,,,,2025-01-08,1,,,,,バンユウインリョクカギ,0
668,3011801045386,新規,0,2025-01-08,2025-01-08,武州工業株式会社,,株式会社,東京都,足立区,南花畑２丁目４８番１２号セレスティア南花畑２０２,,13,121,1210062,,,,,,,2025-01-08,1,,,,,ブシュウコウギョウ,0
669,3011803006626,新規,0,2025-01-08,2025-01-08,合同会社コン・ヨーケン,,合同会社,東京都,葛飾区,鎌倉１丁目３６番８号,,13,122,1250053,,,,,,,2025-01-08,1,,,,,コンヨーケン,0
672,3012401042633,新規,0,2025-01-08,2025-01-08,株式会社ｒｓｋ,,株式会社,東京都,調布市,菊野台２丁目２１番地７,,13,208,1820007,,,,,,,2025-01-08,1,,,,,アールエスケー,0
675,3012403006900,新規,0,2025-01-08,2025-01-08,合同会社ＢＯＢＢＹ,,合同会社,東京都,狛江市,東和泉１丁目２２－１１アントス２０１,,13,219,2010014,,,,,,,2025-01-08,1,,,,,ボビー,0
679,3020001160747,新規,0,2025-01-08,2025-01-08,沃居株式会社,,株式会社,神奈川県,川崎市高津区,二子５丁目９番５号２Ｄ,,14,134,2130002,,,,,,,2025-01-08,1,,,,,ヨクキョ,0
680,3020001160838,新規,0,2025-01-08,2025-01-08,株式会社セントソフィア蒔田,,株式会社,神奈川県,横浜市南区,蒔田町１７４,,14,105,2320043,,,,,,,2025-01-08,1,,,,,セントソフィアマイタ,0
681,3020003027572,新規,0,2025-01-08,2025-01-08,合同会社ＧａｉｎＦｏｒｇｅ,,合同会社,神奈川県,川崎市多摩区,長尾５丁目１７番１９－４０１号,,14,135,2140023,,,,,,,2025-01-08,1,,,,,ゲインフォージ,0
683,3021001084168,新規,0,2025-01-08,2025-01-08,株式会社ＡＳＥＭ,,株式会社,神奈川県,厚木市,船子１１４１番地３,,14,212,2430034,,,,,,,2025-01-08,1,,,,,アセム,0
684,3021001084184,新規,0,2025-01-08,2025-01-08,深田ＩＰＥ株式会社,,株式会社,神奈川県,厚木市,恩名５丁目８番１―１３０８号,,14,212,2430032,,,,,,,2025-01-08,1,,,,,フカダアイピーイー,0
686,3021003015419,新規,0,2025-01-08,2025-01-08,合同会社Ｋｅｉｋａｎ,,合同会社,神奈川県,横須賀市,岩戸２丁目７番１１号,,14,201,2390844,,,,,,,2025-01-08,1,,,,,ケイカン,0
687,3021003015427,新規,0,2025-01-08,2025-01-08,ブルーデザインプラス合同会社,,合同会社,神奈川県,逗子市,逗子７丁目１番５１号,,14,208,2490006,,,,,,,2025-01-08,1,,,,,ブルーデザインプラス,0
701,3040001136852,新規,0,2025-01-08,2025-01-08,株式会社ＷＨＩＳＫＩＤ,,株式会社,千葉県,市川市,新井３丁目１５番６－１号,,12,203,2720144,,,,,,,2025-01-08,1,,,,,ウィスキッド,0
702,3040001136893,新規,0,2025-01-08,2025-01-08,株式会社建音,,株式会社,千葉県,市原市,ちはら台東２丁目１１番地１８,,12,219,2900141,,,,,,,2025-01-08,1,,,,,タテネ,0
703,3040001136943,新規,0,2025-01-08,2025-01-08,株式会社エス＆ライフ,,株式会社,千葉県,柏市,豊四季６４３番地５６,,12,217,2770863,,,,,,,2025-01-08,1,,,,,エスアンドライフ,0
706,3040003026515,新規,0,2025-01-08,2025-01-08,Ｑｕａｒｃ合同会社,,合同会社,千葉県,市川市,二俣２丁目１４番２０－４０５号,,12,203,2720001,,,,,,,2025-01-08,1,,,,,クォーク,0
710,3050001055977,新規,0,2025-01-08,2025-01-08,株式会社アシスト,,株式会社,茨城県,つくば市,花畑２丁目８－１－１０６,,08,220,3003261,,,,,,,2025-01-08,1,,,,,アシスト,0
715,3050003008917,新規,0,2025-01-08,2025-01-08,合同会社ウィンサム,,合同会社,茨城県,ひたちなか市,大字市毛８４７番地５６県営もみじが丘アパート１－６－４,,08,221,3120033,,,,,,,2025-01-08,1,,,,,ウィンサム,0
736,3120001271609,新規,0,2025-01-08,2025-01-08,株式会社Ｒｕｃａｌａ,,株式会社,大阪府,大阪市旭区,清水３丁目３３番１号,,27,117,5350021,,,,,,,2025-01-08,1,,,,,ルカラ,0
737,3120001271708,新規,0,2025-01-08,2025-01-08,熊客株式会社,,株式会社,大阪府,大阪市中央区,内本町２丁目４番１０－６０５号,,27,128,5400026,,,,,,,2025-01-08,1,,,,,クマキャク,0
738,3120001271724,新規,0,2025-01-08,2025-01-08,株式会社ＧＲＩＴ‐Ｖ,,株式会社,大阪府,大阪市西成区,長橋３丁目６番３３号,,27,122,5570025,,,,,,,2025-01-08,1,,,,,グリットブイ,0
743,3120901050244,新規,0,2025-01-08,2025-01-08,双圓株式会社,,株式会社,大阪府,高槻市,富田町５丁目２６番２５－１０２号,,27,207,5690814,,,,,,,2025-01-08,1,,,,,ソウエン,0
744,3120903005502,新規,0,2025-01-08,2025-01-08,合同会社Ｄ‐ＲＨＫ,,合同会社,大阪府,吹田市,古江台５丁目３番１２－３１０号,,27,205,5650874,,,,,,,2025-01-08,1,,,,,ディーアールエイチケー,0
747,3130001078747,新規,0,2025-01-08,2025-01-08,株式会社ディセントラル,,株式会社,京都府,京都市左京区,下鴨貴船町２３－１,,26,103,6060813,,,,,,,2025-01-08,1,,,,,ディセントラル,0
754,3140001136917,新規,0,2025-01-08,2025-01-08,ＫＭＭＫ株式会社,,株式会社,兵庫県,神戸市中央区,港島南町１丁目６番地の５,,28,110,6500047,,,,,,,2025-01-08,1,,,,,ケイエムエムケイ,0
755,3140001136925,新規,0,2025-01-08,2025-01-08,播磨ＥＮＧ株式会社,,株式会社,兵庫県,明石市,魚住町清水２３５１－１,,28,203,6740074,,,,,,,2025-01-08,1,,,,,ハリマエンジ,0
756,3140001136933,新規,0,2025-01-08,2025-01-08,株式会社源,,株式会社,兵庫県,神戸市灘区,大内通２丁目６番７－３号,,28,102,6570833,,,,,,,2025-01-08,1,,,,,ミナモト,0
757,3140001136982,新規,0,2025-01-08,2025-01-08,株式会社ＺｅｎＺａｉ,,株式会社,兵庫県,姫路市,東延末２丁目２４番地アークビル１Ｆ,,28,201,6700965,,,,,,,2025-01-08,1,,,,,ゼンザイ,0
758,3140001137007,新規,0,2025-01-08,2025-01-08,メタトラストパートナーズ株式会社,,株式会社,兵庫県,芦屋市,公光町４番２８号,,28,206,6590065,,,,,,,2025-01-08,1,,,,,メタトラストパートナーズ,0
762,3140003021530,新規,0,2025-01-08,2025-01-08,合同会社２９９,,合同会社,兵庫県,川西市,火打１丁目２－１キセラ川西オリヴィエ１０１５室,,28,217,6660017,,,,,,,2025-01-08,1,,,,,ニーキューキュー,0
763,3140005027336,新規,0,2025-01-08,2025-01-08,一般社団法人アランテス,,その他の設立登記法人,兵庫県,川辺郡猪名川町,若葉２丁目１６番地１５,,28,301,6660251,,,,,,,2025-01-08,1,,,,,アランテス,0
769,3160001026463,新規,0,2025-01-08,2025-01-08,株式会社ｔｏｉｋｏｔａ,,株式会社,滋賀県,大津市,山百合の丘２０番１３－２号,,25,201,5200357,,,,,,,2025-01-08,1,,,,,トイコタ,0
772,3170001018443,新規,0,2025-01-08,2025-01-08,株式会社ＹＯＬＯ,,株式会社,和歌山県,和歌山市,井辺２５３番地５,,30,201,6408302,,,,,,,2025-01-08,1,,,,,ヨーロー,0
776,3180001164716,新規,0,2025-01-08,2025-01-08,株式会社日東資源,,株式会社,愛知県,知多郡武豊町,字北中根１丁目３３番地１,,23,447,4702385,,,,,,,2025-01-08,1,,,,,ニットウシゲン,0
777,3180001164724,新規,0,2025-01-08,2025-01-08,ファミリーヒストリー株式会社,,株式会社,愛知県,名古屋市中区,金山５丁目２番３０号,,23,106,4600022,,,,,,,2025-01-08,1,,,,,ファミリーヒストリー,0
778,3180001164732,新規,0,2025-01-08,2025-01-08,株式会社エスケーワイ,,株式会社,愛知県,一宮市,春明字東砂吹埋３７番地２,,23,203,4910003,,,,,,,2025-01-08,1,,,,,エスケーワイ,0
779,3180001164749,新規,0,2025-01-08,2025-01-08,株式会社ＳＰＡＣＥ　ＬＩＮＫ,,株式会社,愛知県,名古屋市熱田区,六番１丁目５番８号,,23,109,4560058,,,,,,,2025-01-08,1,,,,,スペースリンク,0
780,3180001164757,新規,0,2025-01-08,2025-01-08,サービスオペレーション株式会社,,株式会社,愛知県,名古屋市西区,名駅２丁目３４番２０号,,23,104,4510045,,,,,,,2025-01-08,1,,,,,サービスオペレーション,0
781,3180001164765,新規,0,2025-01-08,2025-01-08,株式会社アクアダイヤ,,株式会社,愛知県,名古屋市中川区,元中野町４丁目７７番地の２,,23,110,4540048,,,,,,,2025-01-08,1,,,,,アクアダイヤ,0
782,3180001164781,新規,0,2025-01-08,2025-01-08,おおしまあせっと株式会社,,株式会社,愛知県,大府市,横根町惣作８番地,,23,223,4740011,,,,,,,2025-01-08,1,,,,,オオシマアセット,0
783,3180001164807,新規,0,2025-01-08,2025-01-08,株式会社アン・オネスト,,株式会社,愛知県,東海市,富貴ノ台１丁目１１９番地,,23,222,4760014,,,,,,,2025-01-08,1,,,,,アンオネスト,0
784,3180001164823,新規,0,2025-01-08,2025-01-08,株式会社ユニビレッジ,,株式会社,愛知県,名古屋市中区,栄５丁目２８番１９号アルティメイトタワー栄Ｖビル１０階,,23,106,4600008,,,,,,,2025-01-08,1,,,,,ユニビレッジ,0
785,3180001164831,新規,0,2025-01-08,2025-01-08,ＷＩＴＨＤＯＭ　Ａｉｃｈｉ株式会社,,株式会社,愛知県,稲沢市,下津油田町１０１番地１,,23,220,4928081,,,,,,,2025-01-08,1,,,,,ウィズダムアイチ,0
789,3180301039394,新規,0,2025-01-08,2025-01-08,ＰＤネクスト株式会社,,株式会社,愛知県,刈谷市,半城土中町１丁目２番地５（Ｃ号室店舗）,,23,210,4480805,,,,,,,2025-01-08,1,,,,,ピーディーネクスト,0
790,3180301039411,新規,0,2025-01-08,2025-01-08,叶商事株式会社,,株式会社,愛知県,刈谷市,泉田町城前８２番地,,23,210,4480004,,,,,,,2025-01-08,1,,,,,カノウショウジ,0
791,3180305009641,新規,0,2025-01-08,2025-01-08,一般社団法人東海相続執務室,,その他の設立登記法人,愛知県,新城市,片山字西野畑５４８番地３,,23,221,4411354,,,,,,,2025-01-08,1,,,,,トウカイソウゾクシツムシツ,0
794,3190001031915,新規,0,2025-01-08,2025-01-08,株式会社ＬＡＭＩＥ,,株式会社,三重県,松阪市,久保町１８５５番地６７９,,24,204,5150044,,,,,,,2025-01-08,1,,,,,ラミエ,0
798,3200001043297,新規,0,2025-01-08,2025-01-08,株式会社ｍａｔｓｕｉ　ＤＯＧＳ　ＳＴＵＤＩＯ,,株式会社,岐阜県,岐阜市,大縄場５丁目１９番地,,21,201,5008889,,,,,,,2025-01-08,1,,,,,マツイドッグススタジオ,0
799,3200001043314,新規,0,2025-01-08,2025-01-08,株式会社ナカルモ,,株式会社,岐阜県,各務原市,那加織田町１丁目１３５番地２,,21,213,5040908,,,,,,,2025-01-08,1,,,,,ナカルモ,0
804,3220005008914,新規,0,2025-01-08,2025-01-08,一般社団法人ｓｉｅｎ　ｓｉｅｎ　ｗｅｓｔ,,その他の設立登記法人,石川県,七尾市,石崎町ソ部２１番地１,,17,202,9260171,,,,,,,2025-01-08,1,,,,,シエンシエンウエスト,0
810,3240001064356,新規,0,2025-01-08,2025-01-08,ＦＲＥＥ　ＬＩＦＥ　ＳＴＹＬＥ株式会社,,株式会社,広島県,三次市,十日市南２丁目９番２号,,34,209,7280014,,,,,,,2025-01-08,1,,,,,フリーライフスタイル,0
811,3240003006983,新規,0,2025-01-08,2025-01-08,合同会社ぴかりん,,合同会社,広島県,広島市安佐北区,口田３丁目１３－８－２０３岩田マンション２,,34,106,7391734,,,,,,,2025-01-08,1,,,,,ピカリン,0
812,3260001039777,新規,0,2025-01-08,2025-01-08,株式会社Ｆ．ｓｔｅｐ,,株式会社,岡山県,都窪郡早島町,前潟１０４１番地３,,33,423,7010303,,,,,,,2025-01-08,1,,,,,エフステップ,0
813,3260001039793,新規,0,2025-01-08,2025-01-08,株式会社爆速ブンブン蜂,,株式会社,岡山県,岡山市中区,賞田１３２番地２,,33,102,7038206,,,,,,,2025-01-08,1,,,,,バクソクブンブンバチ,0
818,3290001108422,新規,0,2025-01-08,2025-01-08,Ａｚｕｒｅ　Ｓｐａｃｅ　Ｃｏｍｍｅｒｃｅ株式会社,,株式会社,福岡県,福岡市東区,下原４丁目４番１５ライオンズマンションキャンパスシティ香椎３０４号,,40,131,8130002,,,,,,,2025-01-08,1,,,,,アジュールスペースコマース,0
819,3290001108430,新規,0,2025-01-08,2025-01-08,ＳＫＹ　Ｒａｂｂｉｔ　Ｇｒｏｕｎｄ　Ｈａｎｄｌｉｎｇ　Ｓｅｒｖｉｃｅ株式会社,,株式会社,福岡県,福岡市博多区,大字上臼井６２３番福岡空港貨物ターミナルプレハブ棟,,40,132,8120005,,,,,,,2025-01-08,1,,,,,スカイラビットグラウンドハンドリングサービス,0
820,3290001108471,新規,0,2025-01-08,2025-01-08,津喜株式会社,,株式会社,福岡県,福岡市博多区,住吉５丁目５番２２－１００２号アルファライフ博多,,40,132,8120018,,,,,,,2025-01-08,1,,,,,ツキ,0
821,3290001108488,新規,0,2025-01-08,2025-01-08,株式会社ＣＩＰ,,株式会社,福岡県,久留米市,東町３２番地７,,40,203,8300032,,,,,,,2025-01-08,1,,,,,シーアイピー,0
822,3290001108496,新規,0,2025-01-08,2025-01-08,株式会社オリーヴ,,株式会社,福岡県,筑紫野市,二日市北２丁目５番１２－２０３号,,40,217,8180056,,,,,,,2025-01-08,1,,,,,オリーブ,0
823,3290001108505,新規,0,2025-01-08,2025-01-08,妙之商事株式会社,,株式会社,福岡県,福岡市中央区,白金２丁目４－２８ロマネスク白金４０５室,,40,133,8100012,,,,,,,2025-01-08,1,,,,,ミョウシショウジ,0
824,3290001108546,新規,0,2025-01-08,2025-01-08,株式会社あしびな,,株式会社,福岡県,宗像市,三郎丸１丁目４－２７－３０７,,40,220,8114143,,,,,,,2025-01-08,1,,,,,アシビナ,0
825,3290001108562,新規,0,2025-01-08,2025-01-08,株式会社新成プランニング,,株式会社,福岡県,福岡市西区,石丸３丁目２５番２４号,,40,135,8190025,,,,,,,2025-01-08,1,,,,,シンセイプランニング,0
830,3300003002217,新規,0,2025-01-08,2025-01-08,九州設備合同会社,,合同会社,佐賀県,三養基郡みやき町,大字中津隈４０１１番地,,41,346,8490114,,,,,,,2025-01-08,1,,,,,キュウシュウセツビ,0
831,3330003010704,新規,0,2025-01-08,2025-01-08,合同会社ＩＢＣ,,合同会社,熊本県,熊本市東区,健軍４丁目３番２６ＰＡＲＴＩＥ６０６号,,43,102,8620911,,,,,,,2025-01-08,1,,,,,アイビーシー,0
832,3330003010712,新規,0,2025-01-08,2025-01-08,ハーグロウ合同会社,,合同会社,熊本県,熊本市東区,秋津町秋田３４４３－２２,,43,102,8612105,,,,,,,2025-01-08,1,,,,,ハーグロウ,0
833,3330003010720,新規,0,2025-01-08,2025-01-08,合同会社ケアンズ,,合同会社,熊本県,熊本市南区,上ノ郷２丁目５番５４－２号,,43,104,8614132,,,,,,,2025-01-08,1,,,,,ケアンズ,0
836,3340001027047,新規,0,2025-01-08,2025-01-08,Ｋ＆Ｍ工業株式会社,,株式会社,鹿児島県,いちき串木野市,川上８６２番地１,,46,219,8992102,,,,,,,2025-01-08,1,,,,,ケーアンドエム,0
843,3360001034611,新規,0,2025-01-08,2025-01-08,ａｌｌ株式会社,,株式会社,沖縄県,浦添市,牧港１丁目５８番１１－１１０３号,,47,208,9012131,,,,,,,2025-01-08,1,,,,,オール,0
844,3360003014578,新規,0,2025-01-08,2025-01-08,合同会社ＣｒｅａＬｉｎｋ,,合同会社,沖縄県,浦添市,内間１丁目１４番２２号,,47,208,9012121,,,,,,,2025-01-08,1,,,,,クレアリンク,0
845,3370001052100,新規,0,2025-01-08,2025-01-08,ＤＣコネクト株式会社,,株式会社,宮城県,仙台市青葉区,本町１丁目１３番２２号,,04,101,9800014,,,,,,,2025-01-08,1,,,,,データコムコネクト,0
847,3390001017844,新規,0,2025-01-08,2025-01-08,株式会社あおきライスファーム山形,,株式会社,山形県,南陽市,郡山９７４番地,,06,213,9992241,,,,,,,2025-01-08,1,,,,,アオキライスファームヤマガタ,0
853,3430001093443,新規,0,2025-01-08,2025-01-08,株式会社泰真,,株式会社,北海道,札幌市北区,篠路町太平２３８番地,,01,102,0028051,,,,,,,2025-01-08,1,,,,,タイシン,0
854,3430003017136,新規,0,2025-01-08,2025-01-08,合同会社ＴａＦ．Ｃｏｍｐａｎｙ,,合同会社,北海道,北広島市,希望ヶ丘２丁目３番地９０,,01,234,0611261,,,,,,,2025-01-08,1,,,,,タフカンパニー,0
856,3460301005269,新規,0,2025-01-08,2025-01-08,株式会社福田農場Ｆ４,,株式会社,北海道,網走市,字実豊３６１番地の４,,01,211,0993113,,,,,,,2025-01-08,1,,,,,フクダノウジョウエフフォー,0
857,3470001020518,新規,0,2025-01-08,2025-01-08,ティエラ株式会社,,株式会社,香川県,高松市,林町７７３番地３,,37,201,7610301,,,,,,,2025-01-08,1,,,,,ティエラ,0
858,3470003002786,新規,0,2025-01-08,2025-01-08,合同会社伐採屋マルオ,,合同会社,香川県,坂出市,加茂町１１４７番地３,,37,203,7620023,,,,,,,2025-01-08,1,,,,,バッサイヤマルオ,0
863,3500001026065,新規,0,2025-01-08,2025-01-08,株式会社ＴＨＲＩＶＥＯＮ,,株式会社,愛媛県,新居浜市,大生院８９番地,,38,205,7920060,,,,,,,2025-01-08,1,,,,,スライヴオン,0
876,4010003045863,新規,0,2025-01-08,2025-01-08,エネストジャパン９合同会社,,合同会社,東京都,千代田区,四番町２番地１２,,13,101,1020081,,,,,,,2025-01-08,1,,,,,エネストジャパンキュウ,0
877,4010003045921,新規,0,2025-01-08,2025-01-08,Ｈｏｕｓｅ　ｏｆ　ＭｉｎａＬｉｍａ　Ｊａｐａｎ合同会社,,合同会社,東京都,千代田区,内幸町２丁目２番２号富国生命ビルＡ＆Ｓフィナンシャルアドバイザリー株式会社内,,13,101,1000011,,,,,,,2025-01-08,1,,,,,ハウスオブミナリマジャパン,0
878,4010003045938,新規,0,2025-01-08,2025-01-08,合同会社ＪＲＹＤ,,合同会社,東京都,中央区,日本橋兜町１７番２号兜町第６葉山ビル４Ｆ,,13,102,1030026,,,,,,,2025-01-08,1,,,,,ジェーアールワイディー,0
880,4010005039368,新規,0,2025-01-08,2025-01-08,一般社団法人日印高度人材交流協会,,その他の設立登記法人,東京都,千代田区,霞が関１丁目４番１号,,13,101,1000013,,,,,,,2025-01-08,1,,,,,ニチインコウドジンザイコウリュウキョウカイ,0
881,4010101016469,新規,0,2025-01-08,2025-01-08,株式会社インターシンクプロダクツ,,株式会社,東京都,八王子市,明神町３丁目１１番１３号幸世ビル４０１号,,13,201,1920046,,,,,,,2025-01-08,1,,,,,インターシンクプロダクツ,0
882,4010101016477,新規,0,2025-01-08,2025-01-08,株式会社Ｄ‐Ｓｔｙｌｅ,,株式会社,東京都,八王子市,諏訪町１１８番地２８,,13,201,1930812,,,,,,,2025-01-08,1,,,,,ディースタイル,0
887,4010401187258,新規,0,2025-01-08,2025-01-08,株式会社玄洞,,株式会社,東京都,港区,麻布十番１丁目２番７号ラフィネ麻布十番７０１号,,13,103,1060045,,,,,,,2025-01-08,1,,,,,ゲンドウ,0
888,4010401187340,新規,0,2025-01-08,2025-01-08,株式会社Ｔ＆Ｙ,,株式会社,東京都,港区,高輪２丁目１２番４７号,,13,103,1080074,,,,,,,2025-01-08,1,,,,,ティーアンドワイ,0
889,4010401187357,新規,0,2025-01-08,2025-01-08,株式会社ＣＯＮＥＣＴＡＳ,,株式会社,東京都,港区,海岸１丁目６番１－８０１号,,13,103,1050022,,,,,,,2025-01-08,1,,,,,コネクタス,0
890,4010401187365,新規,0,2025-01-08,2025-01-08,Ｐｒｏｔａｇｏｎｉｓｔｅ株式会社,,株式会社,東京都,港区,赤坂９丁目１番２号,,13,103,1070052,,,,,,,2025-01-08,1,,,,,プロタゴニスト,0
892,4010403034094,新規,0,2025-01-08,2025-01-08,合同会社Ｍｏｔｔｏ,,合同会社,東京都,港区,新橋６丁目５－４、５２０号室,,13,103,1050004,,,,,,,2025-01-08,1,,,,,モット,0
897,4010701047062,新規,0,2025-01-08,2025-01-08,株式会社ママズオン,,株式会社,東京都,品川区,二葉４丁目４番１０号,,13,109,1420043,,,,,,,2025-01-08,1,,,,,ママズオン,0
901,4010901056598,新規,0,2025-01-08,2025-01-08,株式会社ｔｏ　ａｎｙｏｎｅ,,株式会社,東京都,世田谷区,弦巻４丁目２３番１０号エクサム桜新町１０２,,13,112,1540016,,,,,,,2025-01-08,1,,,,,トゥーエニワン,0
902,4010901056607,新規,0,2025-01-08,2025-01-08,株式会社コネマロマン,,株式会社,東京都,世田谷区,北沢３丁目２０番１３号,,13,112,1550031,,,,,,,2025-01-08,1,,,,,コネマロマン,0
912,4011001166800,新規,0,2025-01-08,2025-01-08,株式会社Ｌｉｎｋ　Ｍｏｎｄｅ,,株式会社,東京都,渋谷区,恵比寿４丁目２０―３恵比寿ガーデンプレイス１８階,,13,113,1500013,,,,,,,2025-01-08,1,,,,,リンクモンド,0
913,4011001166874,新規,0,2025-01-08,2025-01-08,株式会社ＨＩＧＨ‐ＳＴＡＮＤＡＲＤ,,株式会社,東京都,目黒区,碑文谷５丁目２番５号Ｔ＆Ａビル５階,,13,110,1520003,,,,,,,2025-01-08,1,,,,,ハイスタンダード,0
914,4011001166924,新規,0,2025-01-08,2025-01-08,株式会社サニースポット,,株式会社,東京都,渋谷区,南平台町１７番１－１０９号,,13,113,1500036,,,,,,,2025-01-08,1,,,,,サニースポット,0
915,4011001166957,新規,0,2025-01-08,2025-01-08,しろの株式会社,,株式会社,東京都,渋谷区,東１丁目２３番５号,,13,113,1500011,,,,,,,2025-01-08,1,,,,,シロノ,0
916,4011001166981,新規,0,2025-01-08,2025-01-08,株式会社Ｂｉｆｒｏｓｔ,,株式会社,東京都,渋谷区,道玄坂１丁目１２番１号渋谷マークシティＷ２２階,,13,113,1500043,,,,,,,2025-01-08,1,,,,,バイフロスト,0
921,4011101110039,新規,0,2025-01-08,2025-01-08,智而卓株式会社,,株式会社,東京都,新宿区,百人町２丁目２６－５マイルドビル６階,,13,104,1690073,,,,,,,2025-01-08,1,,,,,チジタク,0
922,4011101110088,新規,0,2025-01-08,2025-01-08,株式会社ＫｉＦｏｒ,,株式会社,東京都,新宿区,中井２丁目１９番１号四の坂テラス２２,,13,104,1610035,,,,,,,2025-01-08,1,,,,,キフォー,0
923,4011101110121,新規,0,2025-01-08,2025-01-08,株式会社ギフテッド,,株式会社,東京都,新宿区,下落合３丁目１９番１号,,13,104,1610033,,,,,,,2025-01-08,1,,,,,ギフテッド,0
924,4011101110138,新規,0,2025-01-08,2025-01-08,株式会社わさび,,株式会社,東京都,新宿区,新宿２丁目１２番１３号新宿アントレサロンビル２階,,13,104,1600022,,,,,,,2025-01-08,1,,,,,ワサビ,0
925,4011101110162,新規,0,2025-01-08,2025-01-08,株式会社ｕＮｕ,,株式会社,東京都,新宿区,大久保１丁目２番１－８１０号,,13,104,1690072,,,,,,,2025-01-08,1,,,,,ウヌ,0
926,4011101110179,新規,0,2025-01-08,2025-01-08,株式会社ＳＴＯＲＩＡ,,株式会社,東京都,新宿区,歌舞伎町２丁目４５番８号アビテビル６階,,13,104,1600021,,,,,,,2025-01-08,1,,,,,ストーリア,0
931,4011301030268,新規,0,2025-01-08,2025-01-08,株式会社ティーグレス,,株式会社,東京都,杉並区,永福３丁目９番１号,,13,115,1680064,,,,,,,2025-01-08,1,,,,,ティーグレス,0
932,4011401026711,新規,0,2025-01-08,2025-01-08,流動メディア株式会社,,株式会社,東京都,板橋区,赤塚４丁目１０番４号,,13,119,1750092,,,,,,,2025-01-08,1,,,,,リュウドウメディア,0
933,4011501031553,新規,0,2025-01-08,2025-01-08,株式会社セントソフィア南千住,,株式会社,東京都,荒川区,南千住３丁目３６－５,,13,118,1160003,,,,,,,2025-01-08,1,,,,,セントソフィアミナミセンジュ,0
935,4011801045369,新規,0,2025-01-08,2025-01-08,株式会社ｎｏｔｉｃｅ,,株式会社,東京都,足立区,谷中２丁目５番３－１１０４号,,13,121,1200006,,,,,,,2025-01-08,1,,,,,ノーティス,0
936,4011803006625,新規,0,2025-01-08,2025-01-08,ＴＭＡプランニング合同会社,,合同会社,東京都,葛飾区,西亀有３丁目３２番８号,,13,122,1250002,,,,,,,2025-01-08,1,,,,,ティーエムエープランニング,0
938,4012401042640,新規,0,2025-01-08,2025-01-08,株式会社ＧＥＮ,,株式会社,東京都,調布市,布田２丁目１６番地２ステックス４０７,,13,208,1820024,,,,,,,2025-01-08,1,,,,,ゲン,0
942,4013101009599,新規,0,2025-01-08,2025-01-08,株式会社ｄｏｄｏ,,株式会社,東京都,福生市,志茂１７５番地,,13,218,1970023,,,,,,,2025-01-08,1,,,,,ドド,0
952,4020001160837,新規,0,2025-01-08,2025-01-08,株式会社セントソフィア神奈川,,株式会社,神奈川県,川崎市川崎区,鋼管通４丁目８－２,,14,131,2100852,,,,,,,2025-01-08,1,,,,,セントソフィアカナガワ,0
955,4020003027555,新規,0,2025-01-08,2025-01-08,合同会社ジオン,,合同会社,神奈川県,横浜市鶴見区,北寺尾４丁目１番８号,,14,101,2300074,,,,,,,2025-01-08,1,,,,,ジオン,0
958,4021001084167,新規,0,2025-01-08,2025-01-08,株式会社湘南ｂａｓｅ庭心,,株式会社,神奈川県,藤沢市,羽鳥５丁目６番２４号,,14,205,2510056,,,,,,,2025-01-08,1,,,,,ショウナンベースニワシン,0
959,4021001084175,新規,0,2025-01-08,2025-01-08,Ｉ’ｓ．Ｄ株式会社,,株式会社,神奈川県,厚木市,上荻野２５７番地２８,,14,212,2430201,,,,,,,2025-01-08,1,,,,,アイズディー,0
960,4021001084183,新規,0,2025-01-08,2025-01-08,株式会社晃建設,,株式会社,神奈川県,相模原市南区,東大沼１丁目７番４号,,14,153,2520333,,,,,,,2025-01-08,1,,,,,コウケンセツ,0
965,4021003015418,新規,0,2025-01-08,2025-01-08,合同会社ｎｅｆ　ｗｏｒｋ,,合同会社,神奈川県,海老名市,杉久保南２丁目２番１号,,14,215,2430427,,,,,,,2025-01-08,1,,,,,ネフワーク,0
968,4040001136810,新規,0,2025-01-08,2025-01-08,株式会社Ｍｏｋｓａ,,株式会社,千葉県,市川市,市川南３丁目１番１号アプロード市川２１７,,12,203,2720033,,,,,,,2025-01-08,1,,,,,モクサ,0
969,4040001136835,新規,0,2025-01-08,2025-01-08,株式会社萬創建,,株式会社,千葉県,山武郡芝山町,菱田１４３０番地,,12,409,2891602,,,,,,,2025-01-08,1,,,,,ヨロズソウケン,0
970,4040001136851,新規,0,2025-01-08,2025-01-08,株式会社クレアールファーム,,株式会社,千葉県,長生郡白子町,関３７７８番地,,12,424,2994218,,,,,,,2025-01-08,1,,,,,クレアールファーム,0
971,4040001136876,新規,0,2025-01-08,2025-01-08,株式会社Ｋａｍｉｎｏｓａ,,株式会社,千葉県,袖ケ浦市,袖ケ浦駅前１丁目３９番地７－１２０５号,,12,229,2990269,,,,,,,2025-01-08,1,,,,,カミノーサ,0
974,4040003026514,新規,0,2025-01-08,2025-01-08,合同会社ＪＰＭ,,合同会社,千葉県,成田市,三里塚御料１番地１１６４,,12,211,2860116,,,,,,,2025-01-08,1,,,,,ジェーピーエム,0
975,4040003026555,新規,0,2025-01-08,2025-01-08,合同会社ドゥー・ミル,,合同会社,千葉県,松戸市,稔台７丁目１４番地の１ハイライフみのり台５０３号,,12,207,2702231,,,,,,,2025-01-08,1,,,,,ドゥーミル,0
981,4060001037791,新規,0,2025-01-08,2025-01-08,株式会社カミヤン,,株式会社,栃木県,那須郡那珂川町,健武１４３４番地３,,09,411,3240608,,,,,,,2025-01-08,1,,,,,カミヤン,0
982,4060001037800,新規,0,2025-01-08,2025-01-08,株式会社ＳＲＰ,,株式会社,栃木県,佐野市,栃本町１４９８番地１,,09,204,3270312,,,,,,,2025-01-08,1,,,,,エスアールピー,0
983,4060001037809,新規,0,2025-01-08,2025-01-08,株式会社山光,,株式会社,栃木県,塩谷郡高根沢町,大字石末１６２１番地,,09,386,3291225,,,,,,,2025-01-08,1,,,,,サンコウ,0
984,4070001042510,新規,0,2025-01-08,2025-01-08,株式会社アキレス,,株式会社,群馬県,吾妻郡東吾妻町,大字小泉７２０番地,,10,429,3770806,,,,,,,2025-01-08,1,,,,,アキレス,0
986,4070003005738,新規,0,2025-01-08,2025-01-08,合同会社ｃｉｌ　ｄｅ　ｒｉｎａ　ｖｅｎｔｅ,,合同会社,群馬県,前橋市,日吉町４丁目３７番地７日吉マンション２０１号室,,10,201,3710017,,,,,,,2025-01-08,1,,,,,シルドゥリーナヴァント,0
987,4080101025232,新規,0,2025-01-08,2025-01-08,株式会社双羽設備,,株式会社,静岡県,御殿場市,萩原１０９５番地の１９６,,22,215,4120042,,,,,,,2025-01-08,1,,,,,フタバセツビ,0
988,4080401027663,新規,0,2025-01-08,2025-01-08,株式会社レジェーラ,,株式会社,静岡県,浜松市中央区,青屋町７４２番地の１,,22,138,4350037,,,,,,,2025-01-08,1,,,,,レジェーラ,0
991,4090001019069,新規,0,2025-01-08,2025-01-08,株式会社ｍａｒｕｔａ,,株式会社,山梨県,甲府市,徳行５丁目１２番３９号,,19,201,4000047,,,,,,,2025-01-08,1,,,,,マルタ,0
997,4110001038974,新規,0,2025-01-08,2025-01-08,ヒムマネジメント株式会社,,株式会社,新潟県,小千谷市,大字坪野８５３番地,,15,208,9470044,,,,,,,2025-01-08,1,,,,,ヒムマネジメント,0
1009,4120001271500,新規,0,2025-01-08,2025-01-08,株式会社Ｖｉｓｉｏｎ　Ｍａｎａｇｅｍｅｎｔ,,株式会社,大阪府,大阪市中央区,上本町西５丁目３番１１号ドン・ワールドビル上六２階,,27,128,5420062,,,,,,,2025-01-08,1,,,,,ビジョンマネジメント,0
1010,4120001271574,新規,0,2025-01-08,2025-01-08,株式会社イツモア．,,株式会社,大阪府,大阪市平野区,加美東４丁目１５番５号,,27,126,5470002,,,,,,,2025-01-08,1,,,,,イツモア,0
1011,4120001271599,新規,0,2025-01-08,2025-01-08,株式会社ＩＲＯＤＯＲＩＴＯ,,株式会社,大阪府,大阪市北区,梅田１丁目２番２号大阪駅前第２ビル１２－１２,,27,127,5300001,,,,,,,2025-01-08,1,,,,,イロドリト,0
1012,4120001271616,新規,0,2025-01-08,2025-01-08,海洋通商株式会社,,株式会社,大阪府,門真市,千石東町２番４１－３１号,,27,223,5710013,,,,,,,2025-01-08,1,,,,,カイヨウツウショウ,0
1013,4120001271624,新規,0,2025-01-08,2025-01-08,株式会社ＬｅｖｅＬ．Ｌ,,株式会社,大阪府,大阪市中央区,南船場３丁目２番２２号おおきに南船場ビル２０５,,27,128,5420081,,,,,,,2025-01-08,1,,,,,レベル,0
1014,4120001271657,新規,0,2025-01-08,2025-01-08,株式会社ＡＣＥ,,株式会社,大阪府,門真市,本町７番１５号ルミエール２０２号,,27,223,5710046,,,,,,,2025-01-08,1,,,,,エース,0
1016,4120003028337,新規,0,2025-01-08,2025-01-08,合同会社桜史,,合同会社,大阪府,大阪市中央区,南船場３丁目２番２２号おおきに南船場ビル２０５,,27,128,5420081,,,,,,,2025-01-08,1,,,,,サクラシ,0
1017,4120005024689,新規,0,2025-01-08,2025-01-08,行政書士法人新法務事務所,,その他の設立登記法人,大阪府,大阪市中央区,久太郎町３丁目１番２２号ＯＳＫビル３０３号室,,27,128,5410056,,,,,,,2025-01-08,1,,,,,シンホウムジムショ,0
1019,4120101070843,新規,0,2025-01-08,2025-01-08,株式会社ＭＡＲＩＯ,,株式会社,大阪府,藤井寺市,西大井２丁目２７１番地１,,27,226,5830009,,,,,,,2025-01-08,1,,,,,マリオ,0
1020,4120901050227,新規,0,2025-01-08,2025-01-08,株式会社ピースツリー,,株式会社,大阪府,豊中市,庄内幸町３丁目９番１２号,,27,203,5610833,,,,,,,2025-01-08,1,,,,,ピースツリー,0
1035,4130005017262,新規,0,2025-01-08,2025-01-08,医療法人社団廣道会,,その他の設立登記法人,京都府,八幡市,八幡平谷２７番地,,26,210,6148091,,,,,,,2025-01-08,1,,,,,コウドウカイ,0
1039,4140001136866,新規,0,2025-01-08,2025-01-08,キャピタルゲート株式会社,,株式会社,兵庫県,神戸市中央区,港島南町１丁目５番２神戸キメックセンタービル５Ｆ,,28,110,6500047,,,,,,,2025-01-08,1,,,,,キャピタルゲート,0
1040,4140001136916,新規,0,2025-01-08,2025-01-08,株式会社ＳＡＮＰＯＵ,,株式会社,兵庫県,美方郡香美町,香住区下浜６５３番地の４７,,28,585,6696564,,,,,,,2025-01-08,1,,,,,サンポウ,0
1041,4140001136932,新規,0,2025-01-08,2025-01-08,Ｓ＆Ｓ株式会社,,株式会社,兵庫県,加古川市,志方町投松２５５番地の１,,28,210,6750313,,,,,,,2025-01-08,1,,,,,エスアンドエス,0
1042,4140001136981,新規,0,2025-01-08,2025-01-08,株式会社ミライズ,,株式会社,兵庫県,加古川市,志方町志方町１５８６－５,,28,210,6750321,,,,,,,2025-01-08,1,,,,,ミライズ,0
1046,4140003021513,新規,0,2025-01-08,2025-01-08,ＩＧＮＩＴＥ　ＳＴＹＬＥ合同会社,,合同会社,兵庫県,神戸市西区,大津和１丁目７－８ＷＥＳＴ２０００、２階２０３号,,28,111,6512112,,,,,,,2025-01-08,1,,,,,イグナイトスタイル,0
1048,4150001027809,新規,0,2025-01-08,2025-01-08,株式会社鈴翔Ｈｏｕｓｉｎｇ,,株式会社,奈良県,橿原市,川西町２２５番地の８,,29,205,6340826,,,,,,,2025-01-08,1,,,,,スズショウハウジング,0
1049,4150005009654,新規,0,2025-01-08,2025-01-08,一般社団法人災害時支援キッチンカー協会,,その他の設立登記法人,奈良県,北葛城郡広陵町,大字安部３９９番地,,29,426,6350825,,,,,,,2025-01-08,1,,,,,サイガイジシエンキッチンカーキョウカイ,0
1050,4160001026454,新規,0,2025-01-08,2025-01-08,辰誠不動産開発株式会社,,株式会社,滋賀県,長浜市,小堀町４００番地１,,25,203,5260845,,,,,,,2025-01-08,1,,,,,タッセイフドウサンカイハツ,0
1051,4170003002147,新規,0,2025-01-08,2025-01-08,ＩＡＵ合同会社,,合同会社,和歌山県,紀の川市,粉河４８６番地５,,30,208,6496531,,,,,,,2025-01-08,1,,,,,アイエーユー,0
1053,4180001164756,新規,0,2025-01-08,2025-01-08,株式会社Ｍ・Ｙ・Ｋ,,株式会社,愛知県,名古屋市西区,幅下２丁目１０番３号,,23,104,4510041,,,,,,,2025-01-08,1,,,,,エムワイケー,0
1054,4180001164814,新規,0,2025-01-08,2025-01-08,株式会社Ｆｌｉｇｈｔ　Ｃａｒｅｅｒ　Ｂａｎｋ,,株式会社,愛知県,名古屋市中村区,名駅１丁目１番１号ＪＰタワー２１階,,23,105,4500002,,,,,,,2025-01-08,1,,,,,フライトキャリアバンク,0
1055,4180001164855,新規,0,2025-01-08,2025-01-08,リン建株式会社,,株式会社,愛知県,豊明市,新栄町７丁目４０３番地,,23,229,4701154,,,,,,,2025-01-08,1,,,,,リンケン,0
1056,4180001164871,新規,0,2025-01-08,2025-01-08,株式会社ＳＮＲ,,株式会社,愛知県,名古屋市瑞穂区,豊岡通１丁目３６番地,,23,108,4670012,,,,,,,2025-01-08,1,,,,,エスエヌアール,0
1069,4220003003924,新規,0,2025-01-08,2025-01-08,合同会社金澤しょこら,,合同会社,石川県,金沢市,白菊町１１番１号,,17,201,9218024,,,,,,,2025-01-08,1,,,,,カナザワショコラ,0
1070,4230001020689,新規,0,2025-01-08,2025-01-08,株式会社ＳＲＣ,,株式会社,富山県,高岡市,福岡町大滝１０２８番地３,,16,202,9390132,,,,,,,2025-01-08,1,,,,,エスアールシー,0
1073,4240001064322,新規,0,2025-01-08,2025-01-08,株式会社ａｍ,,株式会社,広島県,広島市南区,仁保南１丁目１９番４６号,,34,103,7340027,,,,,,,2025-01-08,1,,,,,アム,0
1074,4240001064339,新規,0,2025-01-08,2025-01-08,株式会社ｇｌｅｅ,,株式会社,広島県,広島市安芸区,矢野西４丁目４８－１,,34,107,7360085,,,,,,,2025-01-08,1,,,,,グリー,0
1075,4240001064347,新規,0,2025-01-08,2025-01-08,株式会社ＴＥＧ　ｈａｉｒ　Ｄｅｓｉｇｎ,,株式会社,広島県,尾道市,美ノ郷町三成１９６番地４,,34,205,7220215,,,,,,,2025-01-08,1,,,,,テッグヘアーデザイン,0
1083,4260003005025,新規,0,2025-01-08,2025-01-08,合同会社笑衛門,,合同会社,岡山県,岡山市北区,西崎本町１１番１号,,33,101,7000056,,,,,,,2025-01-08,1,,,,,エモン,0
1085,4270003001700,新規,0,2025-01-08,2025-01-08,ＳＣＦ合同会社,,合同会社,鳥取県,西伯郡大山町,御来屋９３６番地,,31,386,6893211,,,,,,,2025-01-08,1,,,,,エスシーエフ,0
1090,4290001108421,新規,0,2025-01-08,2025-01-08,株式会社伊崎美造,,株式会社,福岡県,太宰府市,大佐野４丁目１－８,,40,221,8180134,,,,,,,2025-01-08,1,,,,,イザキビゾウ,0
1091,4290001108495,新規,0,2025-01-08,2025-01-08,株式会社ＰＬＩＴ,,株式会社,福岡県,福岡市中央区,大名１丁目１番３１号,,40,133,8100041,,,,,,,2025-01-08,1,,,,,ピーリット,0
1092,4290001108504,新規,0,2025-01-08,2025-01-08,株式会社Ｏｎｅ　Ｒｏｃｋ,,株式会社,福岡県,福岡市博多区,博多駅前１丁目２３番２号ＰａｒｋＦｒｏｎｔ博多駅前１丁目５Ｆ－Ｂ,,40,132,8120011,,,,,,,2025-01-08,1,,,,,ワンロック,0
1093,4290001108529,新規,0,2025-01-08,2025-01-08,株式会社二椿,,株式会社,福岡県,福岡市博多区,博多駅前１丁目２３番２号ＰａｒｋＦｒｏｎｔ博多駅前１丁目５Ｆ－Ｂ,,40,132,8120011,,,,,,,2025-01-08,1,,,,,フタツバキ,0
1098,4290801031178,新規,0,2025-01-08,2025-01-08,株式会社京装,,株式会社,福岡県,行橋市,大字長音寺５３－１,,40,213,8240065,,,,,,,2025-01-08,1,,,,,ケイソウ,0
1101,4300001014048,新規,0,2025-01-08,2025-01-08,株式会社Ｍ’ｓ　Ｒｅ．ｈｏｍｅ,,株式会社,佐賀県,伊万里市,東山代町東大久保１２１３番地５,,41,205,8494283,,,,,,,2025-01-08,1,,,,,エムズリホーム,0
1102,4310003004921,新規,0,2025-01-08,2025-01-08,合同会社夢限‐ＭＵＧＥＮ,,合同会社,長崎県,長崎市,鶴の尾町１５－１５,,42,201,8510132,,,,,,,2025-01-08,1,,,,,ムゲン,0
1104,4330001032798,新規,0,2025-01-08,2025-01-08,株式会社Ｈｅａｌｔｈ＆Ｓｐａｒｋ　Ｂｏｄｙ,,株式会社,熊本県,熊本市中央区,帯山１丁目３２番４号,,43,101,8620924,,,,,,,2025-01-08,1,,,,,ヘルスアンドスパークボディ,0
1112,4360001034627,新規,0,2025-01-08,2025-01-08,株式会社Ｋｈｅｐｒｉ　Ｇｒｏｕｐ,,株式会社,沖縄県,うるま市,字宮里９０７番地,,47,213,9042243,,,,,,,2025-01-08,1,,,,,ケプリグループ,0
1113,4360003014569,新規,0,2025-01-08,2025-01-08,合同会社ｒｙｕｋｙｕＡ,,合同会社,沖縄県,那覇市,字識名１１７１番地１サンパレコーポ識名４０２,,47,201,9020078,,,,,,,2025-01-08,1,,,,,リュウキュウエース,0
1126,4410003004028,新規,0,2025-01-08,2025-01-08,石山房吉農園合同会社,,合同会社,秋田県,横手市,黒川字牛柳３９５番地,,05,203,0130826,,,,,,,2025-01-08,1,,,,,イシヤマフサキチノウエン,0
1128,4420001018961,新規,0,2025-01-08,2025-01-08,株式会社達磨刃物,,株式会社,青森県,弘前市,大字土手町１３３西谷ビル１Ｆ,,02,202,0368182,,,,,,,2025-01-08,1,,,,,ダルマハモノ,0
1132,4430001093418,新規,0,2025-01-08,2025-01-08,Ａ．Ａ．Ｓ株式会社,,株式会社,北海道,北広島市,輪厚中央１丁目３番地８,,01,234,0611268,,,,,,,2025-01-08,1,,,,,エーエーエス,0
1133,4430001093426,新規,0,2025-01-08,2025-01-08,株式会社輝進,,株式会社,北海道,苫小牧市,有珠の沢町５丁目１６番１２号,,01,213,0530842,,,,,,,2025-01-08,1,,,,,キシン,0
1135,4460301005268,新規,0,2025-01-08,2025-01-08,網走鬼塚産業株式会社,,株式会社,北海道,網走市,字能取３１２番地の４,,01,211,0930241,,,,,,,2025-01-08,1,,,,,アバシリオニヅカサンギョウ,0
1136,4490001010937,新規,0,2025-01-08,2025-01-08,Ｙ’ｓ　Ｔｒａｎｓｐｏｒｔ株式会社,,株式会社,高知県,南国市,岡豊町吉田１３番地,,39,204,7830045,,,,,,,2025-01-08,1,,,,,ワイズトランスポート,0
1137,4500001026064,新規,0,2025-01-08,2025-01-08,株式会社凌進,,株式会社,愛媛県,今治市,桜井４丁目１３番２０号,,38,202,7991522,,,,,,,2025-01-08,1,,,,,リョウシン,0
1138,4500001026072,新規,0,2025-01-08,2025-01-08,株式会社アール,,株式会社,愛媛県,松山市,祇園町９番２３号,,38,201,7900965,,,,,,,2025-01-08,1,,,,,アール,0
1142,5010001251009,新規,0,2025-01-08,2025-01-08,ＪＥ　Ｇｒｉｄ株式会社,,株式会社,東京都,千代田区,霞が関３丁目７－１霞が関東急ビル,,13,101,1000013,,,,,,,2025-01-08,1,,,,,ジェイイーグリッド,0
1143,5010001251066,新規,0,2025-01-08,2025-01-08,正伍ホールディングス株式会社,,株式会社,東京都,中央区,銀座６丁目１３番１６号ヒューリック銀座ウォールビル７Ｆ,,13,102,1040061,,,,,,,2025-01-08,1,,,,,マサクミホールディングス,0
1147,5010005039284,新規,0,2025-01-08,2025-01-08,一般社団法人ファミリー財産支援協会,,その他の設立登記法人,東京都,千代田区,岩本町２丁目１９番９号,,13,101,1010032,,,,,,,2025-01-08,1,,,,,ファミリーザイサンシエンキョウカイ,0
1148,5010005039367,新規,0,2025-01-08,2025-01-08,一般社団法人ピスケス,,その他の設立登記法人,東京都,千代田区,九段南３丁目７番７号成和綜合会計事務所内,,13,101,1020074,,,,,,,2025-01-08,1,,,,,ピスケス,0
1153,5010401187331,新規,0,2025-01-08,2025-01-08,株式会社Ｃｒｉｍｓｏｎ　Ｆｏｒｅｓｔ,,株式会社,東京都,港区,港南２丁目１６－１品川イーストワンタワー７Ｆ,,13,103,1080075,,,,,,,2025-01-08,1,,,,,クリムゾンフォレスト,0
1154,5010401187356,新規,0,2025-01-08,2025-01-08,株式会社ＰＳＡ　ＫＡＩＧＯ,,株式会社,東京都,港区,北青山３丁目５－２５－３Ｆ,,13,103,1070061,,,,,,,2025-01-08,1,,,,,ピーエスエーカイゴ,0
1155,5010401187389,新規,0,2025-01-08,2025-01-08,大平印刷株式会社,,株式会社,東京都,港区,赤坂２丁目２１－４天翔オフィス赤坂ＡＮＮＥＸ３０８号室,,13,103,1070052,,,,,,,2025-01-08,1,,,,,オオヒラインサツ,0
1156,5010401187430,新規,0,2025-01-08,2025-01-08,ルミナシエル株式会社,,株式会社,東京都,港区,虎ノ門１丁目１６番９号,,13,103,1050001,,,,,,,2025-01-08,1,,,,,ルミナシエル,0
1164,5010403034093,新規,0,2025-01-08,2025-01-08,ＩＣＨＩＢＡＮ　Ｇｌｏｂａｌ　Ｌｉｎｋ合同会社,,合同会社,東京都,港区,北青山１丁目３番１号アールキューブ青山３階,,13,103,1070061,,,,,,,2025-01-08,1,,,,,イチバングローバルリンク,0
1165,5010403034102,新規,0,2025-01-08,2025-01-08,合同会社シェアでんき２４Ｇ,,合同会社,東京都,港区,新橋４丁目１１番１号Ａ－ＰＬＡＣＥ新橋４Ｆ,,13,103,1050004,,,,,,,2025-01-08,1,,,,,シェアデンキニジュウヨンジー,0
1166,5010405023895,新規,0,2025-01-08,2025-01-08,特定目的会社ＴＳＭＺ７,,その他の設立登記法人,東京都,港区,元赤坂１丁目１番７号,,13,103,1070051,,,,,,,2025-01-08,1,,,,,ティーエスエムゼットセブン,0
1174,5010801035718,新規,0,2025-01-08,2025-01-08,株式会社プレコデリカ,,株式会社,東京都,大田区,北千束１丁目３番５号,,13,111,1450062,,,,,,,2025-01-08,1,,,,,プレコデリカ,0
1175,5010801035726,新規,0,2025-01-08,2025-01-08,株式会社ＦＵＮ　ＷＩＮＧＳ,,株式会社,東京都,大田区,平和島６丁目１番１号物流ビルＡ棟ＡＥ３－８－１,,13,111,1430006,,,,,,,2025-01-08,1,,,,,ファンウィングス,0
1176,5010801035734,新規,0,2025-01-08,2025-01-08,株式会社ビークロス,,株式会社,東京都,大田区,東馬込２丁目４番６号,,13,111,1430022,,,,,,,2025-01-08,1,,,,,ビークロス,0
1177,5010803005231,新規,0,2025-01-08,2025-01-08,ＫＫＧ合同会社,,合同会社,東京都,大田区,大森東１丁目３１番２－１０１０号,,13,111,1430012,,,,,,,2025-01-08,1,,,,,ケーケージー,0
1180,5010901056572,新規,0,2025-01-08,2025-01-08,株式会社ＣＨＡＫＲＡ,,株式会社,東京都,世田谷区,太子堂４丁目１８番１５号,,13,112,1540004,,,,,,,2025-01-08,1,,,,,チャクラ,0
1181,5010901056580,新規,0,2025-01-08,2025-01-08,竹内ネクサス株式会社,,株式会社,東京都,世田谷区,砧４丁目２２番１３号,,13,112,1570073,,,,,,,2025-01-08,1,,,,,タケウチネクサス,0
1182,5010901056589,新規,0,2025-01-08,2025-01-08,株式会社Ｖａｌｏｏｍ,,株式会社,東京都,世田谷区,奥沢５丁目２６番４号ダイヤハイツ自由が丘４０４,,13,112,1580083,,,,,,,2025-01-08,1,,,,,バルーム,0
1183,5010901056597,新規,0,2025-01-08,2025-01-08,ＮＡＹＵＴＡ株式会社,,株式会社,東京都,世田谷区,奥沢１丁目１０番１７号ジョイフル自由が丘ＩＩ１０１号室,00137558,13,112,1580083,,,,,,,2025-01-08,1,,,,,ナユタ,0
1187,5011001166923,新規,0,2025-01-08,2025-01-08,株式会社Ｌｉ’ＱｕａＬ,,株式会社,東京都,渋谷区,広尾５丁目９番２６号ＫＡＴＯビル２Ｆ,,13,113,1500012,,,,,,,2025-01-08,1,,,,,リクアル,0
1188,5011001166964,新規,0,2025-01-08,2025-01-08,株式会社ゼロスタ,,株式会社,東京都,渋谷区,代々木５丁目３２番５号ヒルグラン代々木３０２,,13,113,1510053,,,,,,,2025-01-08,1,,,,,ゼロスタ,0
1189,5011001166972,新規,0,2025-01-08,2025-01-08,株式会社リエゾンＦＵＫＵＭＩ,,株式会社,東京都,目黒区,柿の木坂１丁目４番３－６０２号,,13,110,1520022,,,,,,,2025-01-08,1,,,,,リエゾンフクミ,0
1190,5011001166980,新規,0,2025-01-08,2025-01-08,株式会社スターエイト,,株式会社,東京都,渋谷区,神南１丁目１１番４号ＦＰＧリンクス神南５Ｆ,,13,113,1500041,,,,,,,2025-01-08,1,,,,,スターエイト,0
1191,5011001166989,新規,0,2025-01-08,2025-01-08,株式会社ｎｏ．９,,株式会社,東京都,渋谷区,東１丁目３番２号,,13,113,1500011,,,,,,,2025-01-08,1,,,,,ナンバーナイン,0
1192,5011003020764,新規,0,2025-01-08,2025-01-08,合同会社一会美,,合同会社,東京都,渋谷区,道玄坂１丁目１０番８号渋谷道玄坂東急ビル２Ｆ－Ｃ,,13,113,1500043,,,,,,,2025-01-08,1,,,,,イチエミ,0
1194,5011101110095,新規,0,2025-01-08,2025-01-08,株式会社ＲＹＯＥＩ　ＨＯＬＤＩＮＧＳ,,株式会社,東京都,新宿区,西新宿６丁目１４番１号,,13,104,1600023,,,,,,,2025-01-08,1,,,,,リョウエイホールディングス,0
1195,5011101110104,新規,0,2025-01-08,2025-01-08,株式会社ＩＷＣ,,株式会社,東京都,新宿区,新宿５丁目１１番２８－４０１号,,13,104,1600022,,,,,,,2025-01-08,1,,,,,アイダブリューシー,0
1196,5011101110129,新規,0,2025-01-08,2025-01-08,株式会社国際教育支援機構,,株式会社,東京都,新宿区,新宿１丁目３６番２号新宿第七葉山ビル３階,,13,104,1600022,,,,,,,2025-01-08,1,,,,,コクサイキョウイクシエンキコウ,0
1197,5011101110153,新規,0,2025-01-08,2025-01-08,株式会社Ｌｉｎｋｆｙ,,株式会社,東京都,新宿区,四谷１丁目２２番地５,,13,104,1600004,,,,,,,2025-01-08,1,,,,,リンクファイ,0
1198,5011101110161,新規,0,2025-01-08,2025-01-08,株式会社サーマルソリューションテクノロジー,,株式会社,東京都,新宿区,中落合１丁目１５番３０号,,13,104,1610032,,,,,,,2025-01-08,1,,,,,サーマルソリューションテクノロジー,0
1199,5011103015326,新規,0,2025-01-08,2025-01-08,合同会社ストーリーウェブ,,合同会社,東京都,新宿区,大久保２丁目３－１６－５０２号,,13,104,1690072,,,,,,,2025-01-08,1,,,,,ストーリーウェブ,0
1200,5011103015359,新規,0,2025-01-08,2025-01-08,合同会社Ｎｅａｌ,,合同会社,東京都,新宿区,西新宿７丁目１４番１１号,,13,104,1600023,,,,,,,2025-01-08,1,,,,,ニール,0
1201,5011401026710,新規,0,2025-01-08,2025-01-08,東京荊葉紅株式会社,,株式会社,東京都,板橋区,南常盤台２丁目２番６－３０２号,,13,119,1740072,,,,,,,2025-01-08,1,,,,,トウキョウケイハベ,0
1204,5011501031544,新規,0,2025-01-08,2025-01-08,ＲｅｄＨｅａｒｔ株式会社,,株式会社,東京都,北区,豊島３丁目１７番４号,,13,117,1140003,,,,,,,2025-01-08,1,,,,,レッドハート,0
1205,5011501031560,新規,0,2025-01-08,2025-01-08,Ｚａｌｐｈａｓ株式会社,,株式会社,東京都,北区,岩淵町２番４－６０１号キャトル・セゾン,,13,117,1150041,,,,,,,2025-01-08,1,,,,,ザルファス,0
1208,5011601028358,新規,0,2025-01-08,2025-01-08,株式会社Ｓｅｎｓｅ,,株式会社,東京都,練馬区,羽沢２丁目１７番１２－１１２号,,13,120,1760003,,,,,,,2025-01-08,1,,,,,センス,0
1211,5011801045392,新規,0,2025-01-08,2025-01-08,滕蔓株式会社,,株式会社,東京都,足立区,堀之内２丁目２－１０－２Ｆ,,13,121,1230874,,,,,,,2025-01-08,1,,,,,トウマン,0
1223,5021001084158,新規,0,2025-01-08,2025-01-08,株式会社Ｋ‐Ｎｅｘｔ,,株式会社,神奈川県,平塚市,公所４５６番地の１,,14,203,2540906,,,,,,,2025-01-08,1,,,,,ケーネクスト,0
1224,5021001084182,新規,0,2025-01-08,2025-01-08,株式会社リコリカ,,株式会社,神奈川県,相模原市中央区,上溝４０８９番地,,14,152,2520243,,,,,,,2025-01-08,1,,,,,リコリカ,0
1227,5021003015425,新規,0,2025-01-08,2025-01-08,合同会社猫夢の樹,,合同会社,神奈川県,横須賀市,久里浜５丁目９番７号,,14,201,2390831,,,,,,,2025-01-08,1,,,,,ネムノキ,0
1235,5040001136859,新規,0,2025-01-08,2025-01-08,株式会社Ｈｉｒｏ　Ｔａｘｉ,,株式会社,千葉県,大網白里市,大網５１５番地,,12,239,2993251,,,,,,,2025-01-08,1,,,,,ヒロタクシー,0
1238,5040003026521,新規,0,2025-01-08,2025-01-08,合同会社豊,,合同会社,千葉県,松戸市,小山７１１番地の３ソフィア松戸４３１号,,12,207,2710093,,,,,,,2025-01-08,1,,,,,ユタカ,0
1239,5040003026562,新規,0,2025-01-08,2025-01-08,合同会社飯塚製作所,,合同会社,千葉県,八街市,山田台７７０番地１,,12,230,2891124,,,,,,,2025-01-08,1,,,,,イイヅカセイサクショ,0
1242,5050001055959,新規,0,2025-01-08,2025-01-08,ｅｌｅｍｅｎｔ株式会社,,株式会社,茨城県,古河市,下大野１５４８番地１,,08,204,3060204,,,,,,,2025-01-08,1,,,,,エレメント,0
1243,5050001055967,新規,0,2025-01-08,2025-01-08,株式会社総助,,株式会社,茨城県,取手市,谷中１３４番地１,,08,217,3001532,,,,,,,2025-01-08,1,,,,,ソウスケ,0
1245,5060005010281,新規,0,2025-01-08,2025-01-08,一般社団法人ＡＭＯＳ,,その他の設立登記法人,栃木県,佐野市,梅園町３０３番地,,09,204,3270322,,,,,,,2025-01-08,1,,,,,アモス,0
1248,5070003005729,新規,0,2025-01-08,2025-01-08,合同会社平和,,合同会社,群馬県,高崎市,北新波町３７１番地４,,10,202,3700082,,,,,,,2025-01-08,1,,,,,ヘイワ,0
1251,5080101025231,新規,0,2025-01-08,2025-01-08,株式会社ｈｉｎｏｔｏ,,株式会社,静岡県,富士宮市,矢立町６７７番地,,22,207,4180072,,,,,,,2025-01-08,1,,,,,ヒノト,0
1252,5080103003219,新規,0,2025-01-08,2025-01-08,ＡＰＡＭ合同会社,,合同会社,静岡県,富士宮市,野中１０２０番地の１０,,22,207,4180039,,,,,,,2025-01-08,1,,,,,アパム,0
1253,5080401027670,新規,0,2025-01-08,2025-01-08,株式会社ヒロシ,,株式会社,静岡県,浜松市中央区,文丘町１１番６号,,22,138,4328004,,,,,,,2025-01-08,1,,,,,ヒロシ,0
1255,5090003002708,新規,0,2025-01-08,2025-01-08,合同会社ＤＥＮＥＢ,,合同会社,山梨県,中央市,西花輪２７３４番地３,,19,214,4093843,,,,,,,2025-01-08,1,,,,,デネブ,0
1256,5100003007928,新規,0,2025-01-08,2025-01-08,合同会社梅の木,,合同会社,長野県,伊那市,西箕輪４５７０番地３０,,20,209,3994501,,,,,,,2025-01-08,1,,,,,ウメノキ,0
1258,5110001038973,新規,0,2025-01-08,2025-01-08,株式会社ＹＡＰ,,株式会社,新潟県,長岡市,宝地町２２４番地１,,15,202,9402031,,,,,,,2025-01-08,1,,,,,ヤップ,0
1259,5110001038981,新規,0,2025-01-08,2025-01-08,株式会社澤田塗装,,株式会社,新潟県,上越市,三和区野４０９４番地,,15,222,9430225,,,,,,,2025-01-08,1,,,,,サワダトソウ,0
1271,5120001271573,新規,0,2025-01-08,2025-01-08,株式会社Ｂｒｉｄｇｅ,,株式会社,大阪府,大阪市浪速区,湊町１丁目２番３号,,27,111,5560017,,,,,,,2025-01-08,1,,,,,ブリッジ,0
1272,5120001271581,新規,0,2025-01-08,2025-01-08,株式会社ソレクル,,株式会社,大阪府,枚方市,御殿山町６番１６－１００２号,,27,210,5731182,,,,,,,2025-01-08,1,,,,,ソレクル,0
1273,5120001271598,新規,0,2025-01-08,2025-01-08,株式会社サイドジェイ,,株式会社,大阪府,大阪市城東区,永田３丁目４番１０号,,27,118,5360022,,,,,,,2025-01-08,1,,,,,サイドジェイ,0
1274,5120001271648,新規,0,2025-01-08,2025-01-08,株式会社バルタグラ,,株式会社,大阪府,大阪市福島区,福島７丁目２０番１８－１７０２号,,27,103,5530003,,,,,,,2025-01-08,1,,,,,バルタグラ,0
1275,5120001271656,新規,0,2025-01-08,2025-01-08,株式会社Ｃａｐ,,株式会社,大阪府,大阪市北区,末広町２番１７－２０５号,,27,127,5300053,,,,,,,2025-01-08,1,,,,,キャップ,0
1276,5120001271689,新規,0,2025-01-08,2025-01-08,株式会社ＧＢＳ,,株式会社,大阪府,大阪市浪速区,恵美須西２丁目６番３号フラット４－３０４号,,27,111,5560003,,,,,,,2025-01-08,1,,,,,ジービーエス,0
1277,5120003028261,新規,0,2025-01-08,2025-01-08,合同会社匠,,合同会社,大阪府,大阪市北区,梅田１丁目２番２号大阪駅前第２ビル１２－１２,,27,127,5300001,,,,,,,2025-01-08,1,,,,,タクミ,0
1278,5120003028278,新規,0,2025-01-08,2025-01-08,合同会社ティロ,,合同会社,大阪府,大阪市東住吉区,西今川４丁目２０番１号,,27,121,5460042,,,,,,,2025-01-08,1,,,,,ティロ,0
1279,5120003028294,新規,0,2025-01-08,2025-01-08,ＷＥＳＴ　ＭＡＲＩＮＥ合同会社,,合同会社,大阪府,大阪市中央区,南船場３丁目２番２２号おおきに南船場ビル２０５,,27,128,5420081,,,,,,,2025-01-08,1,,,,,ウエストマリン,0
1280,5120003028303,新規,0,2025-01-08,2025-01-08,サリアル合同会社,,合同会社,大阪府,大阪市北区,梅田１丁目１番３号大阪駅前第３ビル２９階１－１－１号室,,27,127,5300001,,,,,,,2025-01-08,1,,,,,サリアル,0
1281,5120003028311,新規,0,2025-01-08,2025-01-08,合同会社コネクト,,合同会社,大阪府,大阪市東成区,大今里南４丁目９番６－１０１号,,27,115,5370013,,,,,,,2025-01-08,1,,,,,コネクト,0
1288,5120101070859,新規,0,2025-01-08,2025-01-08,株式会社ＯＤＡ,,株式会社,大阪府,貝塚市,地蔵堂２４５番地１,,27,208,5970000,,,,,,,2025-01-08,1,,,,,オーディーエー,0
1289,5120101070867,新規,0,2025-01-08,2025-01-08,株式会社ＳＫＹ　ＡＵＴＯＭＯＴＩＶＥ,,株式会社,大阪府,藤井寺市,林１丁目１５番３３号ビーバードルチェ藤井寺２・８０６号,,27,226,5830007,,,,,,,2025-01-08,1,,,,,スカイオートモーティブ,0
1291,5120103006217,新規,0,2025-01-08,2025-01-08,晴らす合同会社,,合同会社,大阪府,堺市北区,大豆塚町２丁３０－２－３０１号,,27,146,5918042,,,,,,,2025-01-08,1,,,,,ハラス,0
1294,5120903005500,新規,0,2025-01-08,2025-01-08,合同会社チェックボックス,,合同会社,大阪府,高槻市,天神町２丁目２９番６号の１,,27,207,5691117,,,,,,,2025-01-08,1,,,,,チェックボックス,0
1301,5130001078687,新規,0,2025-01-08,2025-01-08,株式会社ＯＡＳＩＳ,,株式会社,京都府,京都市南区,上鳥羽堀子町５番地,,26,107,6018181,,,,,,,2025-01-08,1,,,,,オアシス,0
1302,5130003010111,新規,0,2025-01-08,2025-01-08,合同会社Ｓｕｉ,,合同会社,京都府,向日市,物集女町ヲサン田１０番地の４０,,26,208,6170001,,,,,,,2025-01-08,1,,,,,スイ,0
1303,5130005017261,新規,0,2025-01-08,2025-01-08,医療法人紫明会うまほり西田歯科医院,,その他の設立登記法人,京都府,亀岡市,篠町篠見晴１５番地７,,26,206,6210826,,,,,,,2025-01-08,1,,,,,シメイカイウマホリニシダシカイイン,0
1307,5140001136865,新規,0,2025-01-08,2025-01-08,株式会社Ｙ’ｓ　Ｓｔｕｄｉｏ,,株式会社,兵庫県,神戸市灘区,琵琶町２丁目３番６号,,28,102,6570041,,,,,,,2025-01-08,1,,,,,ワイズスタジオ,0
1309,5140003021487,新規,0,2025-01-08,2025-01-08,ＭＡＴｉｉＮ合同会社,,合同会社,兵庫県,尼崎市,大西町１丁目１番３０号,,28,202,6610023,,,,,,,2025-01-08,1,,,,,マティーン,0
1311,5160001026453,新規,0,2025-01-08,2025-01-08,株式会社辰誠本社,,株式会社,滋賀県,長浜市,小堀町４００番地１,,25,203,5260845,,,,,,,2025-01-08,1,,,,,タッセイホンシャ,0
1312,5160001026478,新規,0,2025-01-08,2025-01-08,株式会社ＫｅｅｐＧｏｉｎｇ,,株式会社,滋賀県,蒲生郡日野町,大字上駒月１番地４５７,,25,383,5291632,,,,,,,2025-01-08,1,,,,,キープゴーイング,0
1317,5180001164747,新規,0,2025-01-08,2025-01-08,ティージェイホールディングス株式会社,,株式会社,愛知県,名古屋市西区,砂原町４３番地１,,23,104,4520811,,,,,,,2025-01-08,1,,,,,ティージェイホールディングス,0
1321,5180301039392,新規,0,2025-01-08,2025-01-08,株式会社カネタカファーム,,株式会社,愛知県,田原市,野田町壱本松６番地,,23,231,4413432,,,,,,,2025-01-08,1,,,,,カネタカファーム,0
1324,5200001043295,新規,0,2025-01-08,2025-01-08,グローバルリンケージホールディングス株式会社,,株式会社,岐阜県,羽島郡岐南町,八剣北４丁目１１１番地,,21,302,5016011,,,,,,,2025-01-08,1,,,,,グローバルリンケージホールディングス,0
1325,5200001043304,新規,0,2025-01-08,2025-01-08,株式会社丸幸設備,,株式会社,岐阜県,羽島市,福寿町平方９丁目９番地,,21,209,5016257,,,,,,,2025-01-08,1,,,,,マルコウセツビ,0
1326,5200001043312,新規,0,2025-01-08,2025-01-08,株式会社Ｂ２Ａ,,株式会社,岐阜県,本巣郡北方町,高屋伊勢田２丁目１３番地,,21,421,5010455,,,,,,,2025-01-08,1,,,,,ビーツーエー,0
1328,5200003006639,新規,0,2025-01-08,2025-01-08,合同会社パピヨン・プランニング,,合同会社,岐阜県,美濃加茂市,清水町２丁目３番１７号,,21,211,5050026,,,,,,,2025-01-08,1,,,,,パピヨンプランニング,0
1332,5220001026389,新規,0,2025-01-08,2025-01-08,株式会社ブライトワン,,株式会社,石川県,金沢市,堀川新町５番１号アリマビル３Ｆ金沢Ｒｉｓｅ,,17,201,9200849,,,,,,,2025-01-08,1,,,,,ブライトワン,0
1333,5220003003923,新規,0,2025-01-08,2025-01-08,合同会社ＳＥＬＥＣＴＩＯＮ,,合同会社,石川県,加賀市,黒瀬町２６番地,,17,206,9220823,,,,,,,2025-01-08,1,,,,,セレクション,0
1337,5240001064346,新規,0,2025-01-08,2025-01-08,株式会社ＭＩＯ,,株式会社,広島県,尾道市,高須町４８６７番地３（２０３号）,,34,205,7290141,,,,,,,2025-01-08,1,,,,,エムアイオー,0
1342,5250001020959,新規,0,2025-01-08,2025-01-08,株式会社まなび,,株式会社,山口県,下関市,秋根西町２丁目１番３号,,35,201,7510873,,,,,,,2025-01-08,1,,,,,マナビ,0
1347,5260003005024,新規,0,2025-01-08,2025-01-08,合同会社晴風ファーム,,合同会社,岡山県,倉敷市,船穂町船穂６９４１番地,,33,202,7100261,,,,,,,2025-01-08,1,,,,,ハレカゼファーム,0
1354,5290001108420,新規,0,2025-01-08,2025-01-08,株式会社ジェイテックサービス,,株式会社,福岡県,福岡市博多区,博多駅東１丁目１６番１４号,,40,132,8120013,,,,,,,2025-01-08,1,,,,,ジェイテックサービス,0
1355,5290001108486,新規,0,2025-01-08,2025-01-08,クラント香椎株式会社,,株式会社,福岡県,福岡市東区,水谷１丁目５番１１号,,40,131,8130041,,,,,,,2025-01-08,1,,,,,クラントカシイ,0
1356,5290001108511,新規,0,2025-01-08,2025-01-08,株式会社ＬａＬａ,,株式会社,福岡県,大野城市,中央２丁目２番１１号１０４号,,40,219,8160942,,,,,,,2025-01-08,1,,,,,ララ,0
1357,5290001108552,新規,0,2025-01-08,2025-01-08,株式会社宮本工業,,株式会社,福岡県,糟屋郡新宮町,中央駅前１丁目１０番１０号,,40,345,8110120,,,,,,,2025-01-08,1,,,,,ミヤモトコウギョウ,0
1358,5290003016258,新規,0,2025-01-08,2025-01-08,合同会社ＨＩＧＡＳＨＩＥ,,合同会社,福岡県,福岡市西区,小戸４丁目１６番１５号,,40,135,8190001,,,,,,,2025-01-08,1,,,,,ヒガシエ,0
1360,5290005019606,新規,0,2025-01-08,2025-01-08,一般社団法人Ｍｏｒｅ,,その他の設立登記法人,福岡県,福岡市早良区,西新５丁目１番２４－１４０７号,,40,137,8140002,,,,,,,2025-01-08,1,,,,,モア,0
1364,5300001014047,新規,0,2025-01-08,2025-01-08,こよみる株式会社,,株式会社,佐賀県,唐津市,和多田南先石４０８３－３－２Ｆ,,41,202,8470081,,,,,,,2025-01-08,1,,,,,コヨミル,0
1365,5310003004920,新規,0,2025-01-08,2025-01-08,合同会社マーガレット,,合同会社,長崎県,長崎市,油木町１１番６号,,42,201,8528035,,,,,,,2025-01-08,1,,,,,マーガレット,0
1368,5320001020877,新規,0,2025-01-08,2025-01-08,株式会社颯工業,,株式会社,大分県,中津市,大字下宮永４２７番地３,,44,203,8710029,,,,,,,2025-01-08,1,,,,,ハヤテコウギョウ,0
1369,5330001032772,新規,0,2025-01-08,2025-01-08,株式会社とみやす,,株式会社,熊本県,熊本市北区,清水東町５番１５号,,43,105,8618065,,,,,,,2025-01-08,1,,,,,トミヤス,0
1370,5330001032789,新規,0,2025-01-08,2025-01-08,株式会社Ｕｍ,,株式会社,熊本県,熊本市東区,健軍１丁目３７番６号,,43,102,8620911,,,,,,,2025-01-08,1,,,,,ウム,0
1372,5340001027045,新規,0,2025-01-08,2025-01-08,株式会社ワカヤ,,株式会社,鹿児島県,日置市,伊集院町麦生田２０２４番地１２,,46,216,8992513,,,,,,,2025-01-08,1,,,,,ワカヤ,0
1377,5360001034626,新規,0,2025-01-08,2025-01-08,株式会社Ｔａｓｕｋｕ,,株式会社,沖縄県,島尻郡与那原町,字東浜２１番地１,,47,348,9011304,,,,,,,2025-01-08,1,,,,,タスク,0
1378,5360003014568,新規,0,2025-01-08,2025-01-08,合同会社城商事,,合同会社,沖縄県,南城市,知念字久手堅９３番地,,47,215,9011511,,,,,,,2025-01-08,1,,,,,グスクショウジ,0
1380,5370005010886,新規,0,2025-01-08,2025-01-08,医療法人わかば,,その他の設立登記法人,宮城県,仙台市泉区,八乙女中央３丁目２番３０号リバーサイドヒル及川１０７,,04,105,9813135,,,,,,,2025-01-08,1,,,,,ワカバ,0
1384,5390003002330,新規,0,2025-01-08,2025-01-08,ＴｕＲｕ　Ｇｅｎｅ　ＬＬＣ合同会社,,合同会社,山形県,鶴岡市,覚岸寺字水上２４６番地２鶴岡市先端研究産業支援センターＣ棟Ｃ－１２,,06,203,9970052,,,,,,,2025-01-08,1,,,,,トゥルージーンエルエルシー,0
1386,5410001014028,新規,0,2025-01-08,2025-01-08,水沢ファーム株式会社,,株式会社,秋田県,山本郡八峰町,峰浜水沢字三ツ森カッチキ台４２番地,,05,349,0182501,,,,,,,2025-01-08,1,,,,,ミズサワファーム,0
1390,5420001018969,新規,0,2025-01-08,2025-01-08,ＴＯＮＯ株式会社,,株式会社,青森県,青森市,原別５丁目１５番２６号,,02,201,0300921,,,,,,,2025-01-08,1,,,,,トノ,0
1392,5430001093391,新規,0,2025-01-08,2025-01-08,株式会社ＡＫＳＴＵＤＩＯ,,株式会社,北海道,札幌市東区,北十二条東１３丁目２－３１,,01,103,0650012,,,,,,,2025-01-08,1,,,,,エーケースタジオ,0
1393,5430001093425,新規,0,2025-01-08,2025-01-08,株式会社グローバルサービス,,株式会社,北海道,千歳市,青葉２丁目１５－１０,,01,224,0660015,,,,,,,2025-01-08,1,,,,,グローバルサービス,0
1394,5430001093433,新規,0,2025-01-08,2025-01-08,株式会社菊池商店,,株式会社,北海道,札幌市豊平区,月寒東二条６丁目４番４号,,01,105,0620052,,,,,,,2025-01-08,1,,,,,キクチショウテン,0
1401,5500001026055,新規,0,2025-01-08,2025-01-08,株式会社レスパスツアーズ,,株式会社,愛媛県,東温市,見奈良１１１０番地,,38,215,7910211,,,,,,,2025-01-08,1,,,,,レスパスツアーズ,0
1402,5500001026063,新規,0,2025-01-08,2025-01-08,株式会社くるみ商事,,株式会社,愛媛県,松山市,宮西１丁目５番１２号グランディア宮西１４０１号,,38,201,7900065,,,,,,,2025-01-08,1,,,,,クルミショウジ,0
1403,5500001026071,新規,0,2025-01-08,2025-01-08,ＡｓｓｉｓｔＮｅｏ株式会社,,株式会社,愛媛県,新居浜市,繁本町１番８号,,38,205,7920023,,,,,,,2025-01-08,1,,,,,アシストネオ,0
1411,6010001251164,新規,0,2025-01-08,2025-01-08,株式会社ハーベストアセット,,株式会社,東京都,中央区,日本橋浜町２丁目３４番１－１３０１号,,13,102,1030007,,,,,,,2025-01-08,1,,,,,ハーベストアセット,0
1412,6010001251172,新規,0,2025-01-08,2025-01-08,株式会社ＢＬＵＳＨ　ＴＯＫＹＯ,,株式会社,東京都,中央区,日本橋兜町１７番２号兜町第６葉山ビル４Ｆ,,13,102,1030026,,,,,,,2025-01-08,1,,,,,ブラッシュトーキョー,0
1417,6010401187306,新規,0,2025-01-08,2025-01-08,株式会社アトリエユタカ一級建築士事務所,,株式会社,東京都,港区,南青山１丁目２０－２－２０９,,13,103,1070062,,,,,,,2025-01-08,1,,,,,アトリエユタカイッキュウケンチクシジムショ,0
1418,6010401187322,新規,0,2025-01-08,2025-01-08,株式会社Ｄｕｌｃｅｔ,,株式会社,東京都,港区,西麻布３丁目１７番２５号,,13,103,1060031,,,,,,,2025-01-08,1,,,,,ダルシート,0
1419,6010401187330,新規,0,2025-01-08,2025-01-08,株式会社アレート,,株式会社,東京都,港区,赤坂２丁目１４－５ダイワ赤坂ビル７Ｆ,,13,103,1070052,,,,,,,2025-01-08,1,,,,,アレート,0
1420,6010401187347,新規,0,2025-01-08,2025-01-08,株式会社ＭｄｉｉｉｕＭ,,株式会社,東京都,港区,麻布十番２丁目８番８号,,13,103,1060045,,,,,,,2025-01-08,1,,,,,メディウム,0
1421,6010401187371,新規,0,2025-01-08,2025-01-08,株式会社ＨＫ　Ｍｅｄｉａ,,株式会社,東京都,港区,六本木７丁目１２番２号Ｒ７ビルディング,,13,103,1060032,,,,,,,2025-01-08,1,,,,,エイチケーメディア,0
1422,6010401187388,新規,0,2025-01-08,2025-01-08,ウィズエクスパートナーズ株式会社,,株式会社,東京都,港区,北青山１丁目３番１号アールキューブ青山３階,,13,103,1070061,,,,,,,2025-01-08,1,,,,,ウィズエクスパートナーズ,0
1424,6010403034084,新規,0,2025-01-08,2025-01-08,まいとら合同会社,,合同会社,東京都,港区,浜松町２丁目２番１５号浜松町ダイヤビル２Ｆ,,13,103,1050013,,,,,,,2025-01-08,1,,,,,マイトラ,0
1425,6010403034126,新規,0,2025-01-08,2025-01-08,合同会社ＴＮＣＩ,,合同会社,東京都,港区,南青山２丁目２番１５号,,13,103,1070062,,,,,,,2025-01-08,1,,,,,ティーエヌシーアイ,0
1427,6010501053424,新規,0,2025-01-08,2025-01-08,株式会社Ｅストレイジ,,株式会社,東京都,台東区,東上野１丁目１８番６号タカラ第三ビル２階,,13,106,1100015,,,,,,,2025-01-08,1,,,,,,0
1432,6010601066557,新規,0,2025-01-08,2025-01-08,株式会社ノア,,株式会社,東京都,江東区,大島８丁目１２番２５号,,13,108,1360072,,,,,,,2025-01-08,1,,,,,ノア,0
1436,6010701047069,新規,0,2025-01-08,2025-01-08,株式会社ＳＴＡＲ　ＷＡＶＥ,,株式会社,東京都,品川区,大崎３丁目５－１４フラット大崎３０５,,13,109,1410032,,,,,,,2025-01-08,1,,,,,スターウェーブ,0
1439,6010905004717,新規,0,2025-01-08,2025-01-08,一般社団法人高千穂あまてらす鉄道総合研究所,,その他の設立登記法人,東京都,世田谷区,上野毛２丁目２３番３４－１０４号,,13,112,1580093,,,,,,,2025-01-08,1,,,,,タカチホアマテラステツドウソウゴウケンキュウジョ,0
1442,6011001166971,新規,0,2025-01-08,2025-01-08,株式会社九恩堂,,株式会社,東京都,渋谷区,神泉町８番１号フォーラム渋谷神泉３階,,13,113,1500045,,,,,,,2025-01-08,1,,,,,クオンドウ,0
1445,6011101110078,新規,0,2025-01-08,2025-01-08,株式会社ＢＵＬＢＵＬ,,株式会社,東京都,新宿区,早稲田鶴巻町５４３番地細谷ビル２０２,,13,104,1620041,,,,,,,2025-01-08,1,,,,,ブルブル,0
1446,6011101110111,新規,0,2025-01-08,2025-01-08,株式会社Ｔｒｕｅ,,株式会社,東京都,新宿区,西新宿６丁目２５番８号,,13,104,1600023,,,,,,,2025-01-08,1,,,,,トゥルウ,0
1447,6011101110128,新規,0,2025-01-08,2025-01-08,株式会社ＪＯＹＷＥＡＶＥ,,株式会社,東京都,新宿区,新宿１丁目３６番１２号サンカテリーナビル６階,,13,104,1600022,,,,,,,2025-01-08,1,,,,,ジョイウィーヴ,0
1448,6011101110136,新規,0,2025-01-08,2025-01-08,株式会社Ｓ‐Ｗｏｒｋ,,株式会社,東京都,新宿区,西新宿７丁目１８番２号,,13,104,1600023,,,,,,,2025-01-08,1,,,,,エスワーク,0
1449,6011101110152,新規,0,2025-01-08,2025-01-08,ＸＲＤｉｖｅ株式会社,,株式会社,東京都,新宿区,新宿１丁目１２番５号Ｕｎｉ－ｗｏｒｋｓ新宿御苑４階,,13,104,1600022,,,,,,,2025-01-08,1,,,,,エックスアールダイブ,0
1450,6011101110160,新規,0,2025-01-08,2025-01-08,株式会社ＢＢ,,株式会社,東京都,新宿区,余丁町１１番１７号ガリシア新宿余丁町２０３,,13,104,1620055,,,,,,,2025-01-08,1,,,,,ビービー,0
1452,6011103015366,新規,0,2025-01-08,2025-01-08,ウェスト・グレン・アソシエイツ合同会社,,合同会社,東京都,新宿区,四谷４丁目２５番地１０,,13,104,1600004,,,,,,,2025-01-08,1,,,,,ウェストグレンアソシエイツ,0
1453,6011103015382,新規,0,2025-01-08,2025-01-08,三和パートナーズ合同会社,,合同会社,東京都,新宿区,高田馬場１丁目２８番１８号和光ビル５０２,,13,104,1690075,,,,,,,2025-01-08,1,,,,,サンワパートナーズ,0
1456,6011401026701,新規,0,2025-01-08,2025-01-08,株式会社ＫＩＴ,,株式会社,東京都,板橋区,大山東町４６番６号１階,,13,119,1730014,,,,,,,2025-01-08,1,,,,,ケーアイティー,0
1457,6011601028340,新規,0,2025-01-08,2025-01-08,株式会社エヌサービス,,株式会社,東京都,練馬区,早宮１丁目１７番２５－３０３号,,13,120,1790085,,,,,,,2025-01-08,1,,,,,エヌサービス,0
1458,6011801045391,新規,0,2025-01-08,2025-01-08,新城ネクステージ株式会社,,株式会社,東京都,足立区,宮城１丁目１番２３－４０７号,,13,121,1200047,,,,,,,2025-01-08,1,,,,,シンジョウネクステージ,0
1461,6011803006631,新規,0,2025-01-08,2025-01-08,ブリキの旅合同会社,,合同会社,東京都,足立区,六町４丁目４番３５号Ａ号室,,13,121,1210073,,,,,,,2025-01-08,1,,,,,ブリキノタビ,0
1462,6012303002096,新規,0,2025-01-08,2025-01-08,合同会社ＷＩＬＬＢＥ２８,,合同会社,東京都,町田市,本町田３００６番地１３,,13,209,1940032,,,,,,,2025-01-08,1,,,,,ウィルビーニッパチ,0
1463,6012401042630,新規,0,2025-01-08,2025-01-08,ぷにぷにｐａｗ株式会社,,株式会社,東京都,調布市,深大寺元町５丁目１１番地３,,13,208,1820017,,,,,,,2025-01-08,1,,,,,プニプニポー,0
1465,6012403006906,新規,0,2025-01-08,2025-01-08,合同会社吉南堂,,合同会社,東京都,武蔵野市,吉祥寺南町４丁目６番１９号,,13,203,1800003,,,,,,,2025-01-08,1,,,,,キチナンドウ,0
1480,6020001160703,新規,0,2025-01-08,2025-01-08,京九株式会社,,株式会社,神奈川県,横浜市鶴見区,東寺尾中台６番２８号,,14,101,2300017,,,,,,,2025-01-08,1,,,,,キョウキュウ,0
1481,6020001160802,新規,0,2025-01-08,2025-01-08,株式会社蔵屋,,株式会社,神奈川県,横浜市旭区,川井本町３６番地７,,14,112,2410803,,,,,,,2025-01-08,1,,,,,クラヤ,0
1482,6020001160851,新規,0,2025-01-08,2025-01-08,ランテックジャパン株式会社,,株式会社,神奈川県,横浜市港北区,新横浜２丁目３番地１２新横浜スクエアビル,,14,109,2220033,,,,,,,2025-01-08,1,,,,,ランテックジャパン,0
1485,6021001084165,新規,0,2025-01-08,2025-01-08,株式会社ＧＹ,,株式会社,神奈川県,相模原市中央区,中央３丁目７番１号,,14,152,2520239,,,,,,,2025-01-08,1,,,,,ジーワイ,0
1486,6021001084173,新規,0,2025-01-08,2025-01-08,株式会社ディー,,株式会社,神奈川県,小田原市,西酒匂１丁目７番５号,,14,206,2560817,,,,,,,2025-01-08,1,,,,,ディー,0
1487,6021001084181,新規,0,2025-01-08,2025-01-08,株式会社幸新興業,,株式会社,神奈川県,中郡大磯町,東小磯３２７番地北川テラスＢ－西,,14,341,2550004,,,,,,,2025-01-08,1,,,,,コウシンコウギョウ,0
1488,6021003015416,新規,0,2025-01-08,2025-01-08,Ｇｅｉｎ合同会社,,合同会社,神奈川県,藤沢市,藤沢１１０番地小方ビル２階,,14,205,2510052,,,,,,,2025-01-08,1,,,,,ゲイン,0
1495,6030005021999,新規,0,2025-01-08,2025-01-08,一般社団法人Ｔｓｕｎａｇｕ,,その他の設立登記法人,埼玉県,さいたま市南区,内谷１丁目８番１０号,,11,108,3360034,,,,,,,2025-01-08,1,,,,,ツナグ,0
1501,6040001136684,新規,0,2025-01-08,2025-01-08,株式会社ＤＵＬＳＡＲＡ,,株式会社,千葉県,柏市,藤ケ谷５４３－１－１３,,12,217,2770931,,,,,,,2025-01-08,1,,,,,ドゥルサラ,0
1502,6040001136817,新規,0,2025-01-08,2025-01-08,株式会社フェリシアハート,,株式会社,千葉県,佐倉市,井野１４０１番地４７,,12,212,2850855,,,,,,,2025-01-08,1,,,,,フェリシアハート,0
1503,6040001136825,新規,0,2025-01-08,2025-01-08,株式会社Ａｔｈａ．,,株式会社,千葉県,千葉市中央区,新宿２丁目７番２４号ＢＥＬＴＳＳＨＩＮＪＵＫＵ１Ｆ,,12,101,2600021,,,,,,,2025-01-08,1,,,,,アタ,0
1504,6040001136833,新規,0,2025-01-08,2025-01-08,株式会社雲寸,,株式会社,千葉県,木更津市,潮浜１丁目１７番地１０５,,12,206,2920838,,,,,,,2025-01-08,1,,,,,ウンスン,0
1505,6040001136866,新規,0,2025-01-08,2025-01-08,ＳＡＳＡＭＯＴＯ株式会社,,株式会社,千葉県,佐倉市,西志津１丁目３番２－３０１号,,12,212,2850845,,,,,,,2025-01-08,1,,,,,ササモト,0
1511,6040003026529,新規,0,2025-01-08,2025-01-08,合同会社東和商事,,合同会社,千葉県,市原市,廿五里１２２７番地８,,12,219,2900032,,,,,,,2025-01-08,1,,,,,トウワショウジ,0
1513,6050001055941,新規,0,2025-01-08,2025-01-08,株式会社ワームファーム,,株式会社,茨城県,結城郡八千代町,大字芦ケ谷７３７番地１,,08,521,3003555,,,,,,,2025-01-08,1,,,,,ワームファーム,0
1520,6060001037798,新規,0,2025-01-08,2025-01-08,株式会社４Ｌｉｋｅｓ,,株式会社,栃木県,宇都宮市,曲師町３番１３号,,09,201,3200803,,,,,,,2025-01-08,1,,,,,フォーライクス,0
1523,6070001042491,新規,0,2025-01-08,2025-01-08,株式会社ｃｏｎｓｉｇｎｅｒ,,株式会社,群馬県,高崎市,三ツ寺町２６５番地１,,10,202,3703525,,,,,,,2025-01-08,1,,,,,コンシグナー,0
1524,6070003005736,新規,0,2025-01-08,2025-01-08,合同会社Ｎｏｂｌｅ,,合同会社,群馬県,高崎市,下豊岡町１４９０番地３,,10,202,3700873,,,,,,,2025-01-08,1,,,,,ノーブル,0
1527,6090003002707,新規,0,2025-01-08,2025-01-08,合同会社長田商事,,合同会社,山梨県,北杜市,明野町上手１７４５番地１,,19,209,4080204,,,,,,,2025-01-08,1,,,,,オサダジョウジ,0
1528,6090005007670,新規,0,2025-01-08,2025-01-08,一般社団法人ＦＵＥＦＵＫＩ　Ｃｕｌｔｕｒｅ＆Ｓｐｏｒｔｓ　Ｃｌｕｂ,,その他の設立登記法人,山梨県,甲斐市,島上条１７９２番地５,,19,210,4000123,,,,,,,2025-01-08,1,,,,,フエフキカルチャーアンドスポーツクラブ,0
1530,6100001038164,新規,0,2025-01-08,2025-01-08,株式会社ＴＯＫＹＯ　ＴＲＡＤＥＲ,,株式会社,長野県,長野市,青木島町綱島７７０番地２,,20,201,3812206,,,,,,,2025-01-08,1,,,,,トウキョウトレーダー,0
1531,6100003007935,新規,0,2025-01-08,2025-01-08,ウッド・フィールド合同会社,,合同会社,長野県,長野市,篠ノ井塩崎字塩見崎１７４２番３,,20,201,3888014,,,,,,,2025-01-08,1,,,,,ウッドフィールド,0
1534,6110001038972,新規,0,2025-01-08,2025-01-08,ジモト株式会社,,株式会社,新潟県,小千谷市,高梨町３１７０番地,,15,208,9470102,,,,,,,2025-01-08,1,,,,,ジモト,0
1547,6120001271523,新規,0,2025-01-08,2025-01-08,柏木鋼管ホールディングス株式会社,,株式会社,大阪府,大阪市西区,立売堀２丁目５番４号,,27,106,5500012,,,,,,,2025-01-08,1,,,,,カシワギコウカンホールディングス,0
1548,6120001271564,新規,0,2025-01-08,2025-01-08,金禾株式会社,,株式会社,大阪府,大阪市淀川区,東三国２丁目１１－３０－４０３,,27,123,5320002,,,,,,,2025-01-08,1,,,,,キンカ,0
1549,6120001271580,新規,0,2025-01-08,2025-01-08,株式会社ＴＳＫ総研,,株式会社,大阪府,大阪市淀川区,西宮原１丁目５番３３号新大阪飯田ビル１Ｆ,,27,123,5320004,,,,,,,2025-01-08,1,,,,,ティーエスケーソウケン,0
1550,6120001271589,新規,0,2025-01-08,2025-01-08,株式会社大建設,,株式会社,大阪府,大阪市平野区,加美北７丁目８番２８－５０２号,,27,126,5470001,,,,,,,2025-01-08,1,,,,,ダイケンセツ,0
1551,6120001271597,新規,0,2025-01-08,2025-01-08,株式会社東建設,,株式会社,大阪府,大阪市此花区,春日出南３丁目３番４１号Ｂ棟２０５号,,27,104,5540023,,,,,,,2025-01-08,1,,,,,ヒガシケンセツ,0
1552,6120001271606,新規,0,2025-01-08,2025-01-08,株式会社Ｅｑｕｉｌｉｂｒｅ,,株式会社,大阪府,大阪市西区,南堀江２丁目１０番６号２Ｆ／Ｂ,,27,106,5500015,,,,,,,2025-01-08,1,,,,,エキリブル,0
1553,6120001271614,新規,0,2025-01-08,2025-01-08,Ｙ＆Ａエステート株式会社,,株式会社,大阪府,守口市,佐太中町２丁目１１番１１号,,27,209,5700002,,,,,,,2025-01-08,1,,,,,ワイアンドエーエステート,0
1554,6120001271622,新規,0,2025-01-08,2025-01-08,株式会社Ｅｍｍａｒｉ,,株式会社,大阪府,大阪市西区,川口４丁目４番１８号,,27,106,5500021,,,,,,,2025-01-08,1,,,,,エマリー,0
1555,6120001271647,新規,0,2025-01-08,2025-01-08,株式会社Ｒｉｌｙ,,株式会社,大阪府,大阪市生野区,生野東３丁目３－３１,,27,116,5440025,,,,,,,2025-01-08,1,,,,,リリー,0
1556,6120001271655,新規,0,2025-01-08,2025-01-08,株式会社ＦｌｏｗＬｉｆｅ,,株式会社,大阪府,大阪市西淀川区,中島１丁目３５番１５６－２０号,,27,113,5550041,,,,,,,2025-01-08,1,,,,,フローライフ,0
1557,6120001271721,新規,0,2025-01-08,2025-01-08,株式会社Ｂｅｚｉｏｎ　ｇｒｏｕｐ,,株式会社,大阪府,大阪市北区,梅田１丁目２番２号大阪駅前第２ビル１２－１２,,27,127,5300001,,,,,,,2025-01-08,1,,,,,ビジョングループ,0
1561,6120003028260,新規,0,2025-01-08,2025-01-08,合同会社小野商事,,合同会社,大阪府,大阪市北区,梅田１丁目２番２号大阪駅前第２ビル１２－１２,,27,127,5300001,,,,,,,2025-01-08,1,,,,,オノショウジ,0
1562,6120003028293,新規,0,2025-01-08,2025-01-08,合同会社ａｎｄＨａｒｔ,,合同会社,大阪府,大阪市平野区,長吉出戸４丁目４番１１号,,27,126,5470011,,,,,,,2025-01-08,1,,,,,アンドハルト,0
1563,6120003028319,新規,0,2025-01-08,2025-01-08,合同会社ｖｉｖｉｄ,,合同会社,大阪府,大阪市中央区,農人橋２丁目２番１１－９０２号,,27,128,5400011,,,,,,,2025-01-08,1,,,,,ビビット,0
1567,6120101070809,新規,0,2025-01-08,2025-01-08,株式会社Ｆｉｒｓｔ,,株式会社,大阪府,河内長野市,大矢船中町２４番２１号,,27,216,5860075,,,,,,,2025-01-08,1,,,,,ファースト,0
1568,6120101070866,新規,0,2025-01-08,2025-01-08,株式会社エムズビルド,,株式会社,大阪府,羽曳野市,伊賀３丁目１３番２号,,27,222,5830876,,,,,,,2025-01-08,1,,,,,エムズビルド,0
1571,6120901050258,新規,0,2025-01-08,2025-01-08,株式会社ＳＴ,,株式会社,大阪府,豊中市,三和町４丁目６番７の１号,,27,203,5610828,,,,,,,2025-01-08,1,,,,,,0
1572,6120903005490,新規,0,2025-01-08,2025-01-08,合同会社Ｔｕｎａｇａｒｉ,,合同会社,大阪府,豊中市,曽根南町１丁目１７番１６号,,27,203,5610804,,,,,,,2025-01-08,1,,,,,ツナガリ,0
1575,6130001078686,新規,0,2025-01-08,2025-01-08,株式会社ＣＲＥＤＯ,,株式会社,京都府,京都市左京区,下鴨北園町１０９番地ウインド・フィル華水邸２０５,,26,103,6060831,,,,,,,2025-01-08,1,,,,,クレド,0
1578,6130003010119,新規,0,2025-01-08,2025-01-08,合同会社ｅｉｇｈｔ,,合同会社,京都府,綾部市,高津町両岡谷１８－６６,,26,203,6230045,,,,,,,2025-01-08,1,,,,,エイト,0
1584,6140001136939,新規,0,2025-01-08,2025-01-08,株式会社Ｒｉｋｏ,,株式会社,兵庫県,明石市,二見町福里８４番地の２,,28,203,6740091,,,,,,,2025-01-08,1,,,,,リコ,0
1587,6140005027333,新規,0,2025-01-08,2025-01-08,一般社団法人いきいきライフ協会みなと神戸,,その他の設立登記法人,兵庫県,神戸市中央区,浜辺通４丁目１番２３号３１２,,28,110,6510083,,,,,,,2025-01-08,1,,,,,イキイキライフキョウカイミナトコウベ,0
1602,6180001164746,新規,0,2025-01-08,2025-01-08,ＭＹ株式会社,,株式会社,愛知県,北名古屋市,久地野安田９３番地１,,23,234,4810012,,,,,,,2025-01-08,1,,,,,エムワイ,0
1603,6180001164837,新規,0,2025-01-08,2025-01-08,株式会社ｇｒｏｗ　ｕｐ,,株式会社,愛知県,名古屋市中川区,愛知町７番６号－２,,23,110,4540807,,,,,,,2025-01-08,1,,,,,グロウアップ,0
1604,6180003027793,新規,0,2025-01-08,2025-01-08,合同会社成瀬アカウンティングパートナーズ,,合同会社,愛知県,名古屋市東区,大幸４丁目１８番１０号,,23,102,4610043,,,,,,,2025-01-08,1,,,,,ナルセアカウンティングパートナーズ,0
1605,6180003027810,新規,0,2025-01-08,2025-01-08,合同会社ＨＹＰＥ,,合同会社,愛知県,春日井市,高蔵寺町３丁目６番地３第３５オーシャンプラザ２Ｆ,,23,206,4870013,,,,,,,2025-01-08,1,,,,,ハイプ,0
1607,6180301039409,新規,0,2025-01-08,2025-01-08,株式会社Ｃａｐａｉ,,株式会社,愛知県,岡崎市,筒針町字池田１０３番地３,,23,202,4440932,,,,,,,2025-01-08,1,,,,,カパイ,0
1611,6190001031920,新規,0,2025-01-08,2025-01-08,株式会社ピンチはチャンス,,株式会社,三重県,鈴鹿市,西条２丁目１１番３号,,24,207,5130809,,,,,,,2025-01-08,1,,,,,ピンチハチャンス,0
1616,6200001043311,新規,0,2025-01-08,2025-01-08,ＧＬＵＣＫ‐ＢＡＳＥ株式会社,,株式会社,岐阜県,揖斐郡大野町,大字黒野１７０番地１３,,21,403,5010521,,,,,,,2025-01-08,1,,,,,グルックベース,0
1619,6200003006638,新規,0,2025-01-08,2025-01-08,みずほビアワークス合同会社,,合同会社,岐阜県,瑞穂市,野田新田４１３８‐２０エイム瑞穂ビル１Ｆ西,,21,216,5010232,,,,,,,2025-01-08,1,,,,,ミズホビアワークス,0
1632,6240001064337,新規,0,2025-01-08,2025-01-08,株式会社萬屋,,株式会社,広島県,広島市西区,草津東２丁目１９番７号,,34,104,7330861,,,,,,,2025-01-08,1,,,,,ヨロズヤ,0
1633,6240001064361,新規,0,2025-01-08,2025-01-08,株式会社シャルモン,,株式会社,広島県,広島市南区,本浦町４４番２０号,,34,103,7340047,,,,,,,2025-01-08,1,,,,,シャルモン,0
1638,6240003007005,新規,0,2025-01-08,2025-01-08,合同会社ＧｒａｎｓａＴｅｃｈ,,合同会社,広島県,広島市中区,大手町１丁目１－２０相生橋ビル７階Ａ号室,,34,101,7300051,,,,,,,2025-01-08,1,,,,,グランサテック,0
1645,6260001039799,新規,0,2025-01-08,2025-01-08,株式会社ＬＩＥＮ,,株式会社,岡山県,岡山市東区,西大寺南２丁目１番４０号,,33,103,7048117,,,,,,,2025-01-08,1,,,,,リアン,0
1646,6260003005023,新規,0,2025-01-08,2025-01-08,合同会社みらいやショップ,,合同会社,岡山県,真庭市,本郷１６１７番地３,,33,214,7170007,,,,,,,2025-01-08,1,,,,,ミライヤショップ,0
1655,6290001108485,新規,0,2025-01-08,2025-01-08,株式会社Ｈａｒｖｅｓｔ,,株式会社,福岡県,久留米市,東合川３丁目３－５,,40,203,8390809,,,,,,,2025-01-08,1,,,,,ハーベスト,0
1656,6290001108519,新規,0,2025-01-08,2025-01-08,グレイトテクノサービス株式会社,,株式会社,福岡県,福津市,有弥の里１丁目１６番地の１,,40,224,8113211,,,,,,,2025-01-08,1,,,,,,0
1657,6290001108543,新規,0,2025-01-08,2025-01-08,株式会社Ｈ２Ｏ,,株式会社,福岡県,福岡市中央区,輝国２丁目１１番７号,,40,133,8100032,,,,,,,2025-01-08,1,,,,,エイチツーオー,0
1658,6290003016257,新規,0,2025-01-08,2025-01-08,Ｂｅｌｌｉａ合同会社,,合同会社,福岡県,糸島市,前原西４丁目７番２４号,,40,230,8191117,,,,,,,2025-01-08,1,,,,,ベリア,0
1661,6290801031168,新規,0,2025-01-08,2025-01-08,株式会社アーキライフ,,株式会社,福岡県,北九州市門司区,春日町２６番１４号,,40,101,8010823,,,,,,,2025-01-08,1,,,,,アーキライフ,0
1665,6310001019408,新規,0,2025-01-08,2025-01-08,株式会社立光設備,,株式会社,長崎県,島原市,北安徳町丁３１６８番地１,,42,203,8550873,,,,,,,2025-01-08,1,,,,,タチコウセツビ,0
1670,6340001027036,新規,0,2025-01-08,2025-01-08,株式会社瀬貫会計事務所,,株式会社,鹿児島県,鹿屋市,本町１０番１号,,46,203,8930002,,,,,,,2025-01-08,1,,,,,セヌキカイケイジムショ,0
1671,6340001027044,新規,0,2025-01-08,2025-01-08,株式会社秀茶縁,,株式会社,鹿児島県,日置市,伊集院町下谷口３８６７番地,,46,216,8992501,,,,,,,2025-01-08,1,,,,,シュウサエン,0
1672,6340001027052,新規,0,2025-01-08,2025-01-08,株式会社西村商店,,株式会社,鹿児島県,指宿市,山川利永６７６番地２,,46,210,8910621,,,,,,,2025-01-08,1,,,,,ニシムラショウテン,0
1673,6340003004702,新規,0,2025-01-08,2025-01-08,合同会社ＳＢＤ,,合同会社,鹿児島県,鹿児島市,南林寺町６番１５号,,46,201,8920834,,,,,,,2025-01-08,1,,,,,シャボンディ,0
1675,6350001019346,新規,0,2025-01-08,2025-01-08,株式会社Ｌｉｌｙ,,株式会社,宮崎県,宮崎市,大字芳士１１０２番地８,,45,201,8800123,,,,,,,2025-01-08,1,,,,,リリー,0
1682,6360001034625,新規,0,2025-01-08,2025-01-08,株式会社うるまペイント,,株式会社,沖縄県,うるま市,安慶名２丁目１７番１５号,,47,213,9042214,,,,,,,2025-01-08,1,,,,,ウルマペイント,0
1683,6360001034633,新規,0,2025-01-08,2025-01-08,株式会社和グループ,,株式会社,沖縄県,石垣市,字大川５７８番地３,,47,207,9070022,,,,,,,2025-01-08,1,,,,,カズグループ,0
1685,6360003014575,新規,0,2025-01-08,2025-01-08,合同会社ＳＡＩ,,合同会社,沖縄県,浦添市,港川２丁目２１番１２－１００６号,,47,208,9012134,,,,,,,2025-01-08,1,,,,,サイ,0
1686,6360003014583,新規,0,2025-01-08,2025-01-08,合同会社シェアハウス糸満,,合同会社,沖縄県,糸満市,字照屋１５０６番地の９ｌａｃａｓａａｎｓｈｉｎ３０２号,,47,210,9010315,,,,,,,2025-01-08,1,,,,,シェアハウスイトマン,0
1687,6370001052097,新規,0,2025-01-08,2025-01-08,旭龍株式会社,,株式会社,宮城県,仙台市泉区,天神沢１丁目８番７号プリマヴェーラ１０２号室,,04,105,9813105,,,,,,,2025-01-08,1,,,,,キョクリュウ,0
1688,6370005010885,新規,0,2025-01-08,2025-01-08,土地家屋調査士法人ＨＡＫＡＲＵ,,その他の設立登記法人,宮城県,仙台市青葉区,栗生４丁目１１番地の７,,04,101,9893122,,,,,,,2025-01-08,1,,,,,ハカル,0
1689,6370005010893,新規,0,2025-01-08,2025-01-08,一般社団法人杜の都サポート協会,,その他の設立登記法人,宮城県,遠田郡美里町,字叔廼前２４番地１,,04,505,9870053,,,,,,,2025-01-08,1,,,,,モリノミヤコサポートキョウカイ,0
1692,6390001017841,新規,0,2025-01-08,2025-01-08,株式会社エトワール,,株式会社,山形県,山形市,あこや町２丁目２－３４,,06,201,9900025,,,,,,,2025-01-08,1,,,,,エトワール,0
1695,6430001093382,新規,0,2025-01-08,2025-01-08,株式会社Ｖｏｉｃｅ,,株式会社,北海道,室蘭市,御前水町２丁目８番１９号,,01,205,0510002,,,,,,,2025-01-08,1,,,,,ヴォイス,0
1698,6430003017166,新規,0,2025-01-08,2025-01-08,合同会社アイム技建,,合同会社,北海道,登別市,鷲別町４丁目３９番９号,,01,230,0590034,,,,,,,2025-01-08,1,,,,,アイムギケン,0
1699,6460003001019,新規,0,2025-01-08,2025-01-08,合同会社芦花,,合同会社,北海道,釧路市,昭和北２丁目２４番７号,,01,206,0840901,,,,,,,2025-01-08,1,,,,,ロカ,0
1702,6470003002783,新規,0,2025-01-08,2025-01-08,合同会社トキガキタ,,合同会社,香川県,高松市,十川西町４４３番地３,,37,201,7610433,,,,,,,2025-01-08,1,,,,,トキガキタ,0
1706,6490001010935,新規,0,2025-01-08,2025-01-08,株式会社土佐グローバル総研,,株式会社,高知県,高知市,塩田町１４番３３号,,39,201,7800065,,,,,,,2025-01-08,1,,,,,トサグローバルソウケン,0
1707,6500001026070,新規,0,2025-01-08,2025-01-08,株式会社赤吉,,株式会社,愛媛県,今治市,伯方町北浦甲１２０３番地８,,38,202,7942304,,,,,,,2025-01-08,1,,,,,アカキチ,0
1708,6500003003398,新規,0,2025-01-08,2025-01-08,合同会社Ｐｕｒｅ　ｃｈｏｉｃｅ,,合同会社,愛媛県,北宇和郡鬼北町,大字永野市１２２１－１,,38,488,7981333,,,,,,,2025-01-08,1,,,,,ピュアチョイス,0
1714,7010001251155,新規,0,2025-01-08,2025-01-08,株式会社ウイングホールディングス,,株式会社,東京都,中央区,新川１丁目５番１７号,,13,102,1040033,,,,,,,2025-01-08,1,,,,,ウイングホールディングス,0
1715,7010001251171,新規,0,2025-01-08,2025-01-08,Ｈｉｋｒｏｂｏｔ　Ｊａｐａｎ株式会社,,株式会社,東京都,千代田区,丸の内２丁目１番１号明治生命館７階ディーエルエイ・パイパー東京パートナーシップ外国法共同事業法律事務所内,,13,101,1000005,,,,,,,2025-01-08,1,,,,,ハイクロボットジャパン,0
1716,7010003045893,新規,0,2025-01-08,2025-01-08,合同会社ペキンパー,,合同会社,東京都,千代田区,神田和泉町１番地６－１６ヤマトビル４０５,,13,101,1010024,,,,,,,2025-01-08,1,,,,,ペキンパー,0
1717,7010003045935,新規,0,2025-01-08,2025-01-08,あすしらべ合同会社,,合同会社,東京都,千代田区,平河町２丁目４番１６号,,13,101,1020093,,,,,,,2025-01-08,1,,,,,アスシラベ,0
1720,7010005039349,新規,0,2025-01-08,2025-01-08,一般社団法人国際ラドンアルファ線臨床研究会,,その他の設立登記法人,東京都,中央区,新川１丁目１０番１２号,,13,102,1040033,,,,,,,2025-01-08,1,,,,,コクサイラドンアルファセンリンショウケンキュウカイ,0
1726,7010401187321,新規,0,2025-01-08,2025-01-08,株式会社ふわふわペンギン,,株式会社,東京都,港区,新橋４丁目１５番８ル・グラシエルＢｌｄｇ．２１１０Ｆ,,13,103,1050004,,,,,,,2025-01-08,1,,,,,フワフワペンギン,0
1727,7010401187346,新規,0,2025-01-08,2025-01-08,株式会社ＳＥＮＳＹ,,株式会社,東京都,港区,元赤坂１丁目２番７号赤坂Ｋタワー４Ｆ,,13,103,1070051,,,,,,,2025-01-08,1,,,,,センシー,0
1728,7010401187387,新規,0,2025-01-08,2025-01-08,デザインマネジメント株式会社,,株式会社,東京都,港区,西新橋１丁目７番５号ＢＩＲＴＨＷＯＲＫ虎の門,,13,103,1050003,,,,,,,2025-01-08,1,,,,,デザインマネジメント,0
1729,7010401187395,新規,0,2025-01-08,2025-01-08,Ｔｈｅ　Ｏｎｅ株式会社,,株式会社,東京都,港区,南青山２丁目１１番１１号ユニマットハイダウェイビル６Ｆ,,13,103,1070062,,,,,,,2025-01-08,1,,,,,ザワン,0
1730,7010401187404,新規,0,2025-01-08,2025-01-08,ＳＰＡＣＥ　ＨＥＡＤ株式会社,,株式会社,東京都,港区,台場１丁目１番１号,,13,103,1350091,,,,,,,2025-01-08,1,,,,,スペースヘッド,0
1731,7010401187429,新規,0,2025-01-08,2025-01-08,株式会社ＫＴパートナーズ,,株式会社,東京都,港区,港南２丁目１５番１号品川インターシティＡ棟２８階,,13,103,1080075,,,,,,,2025-01-08,1,,,,,ケイティーパートナーズ,0
1733,7010403034125,新規,0,2025-01-08,2025-01-08,ＭＩＷＡ　ＰＬＵＳ合同会社,,合同会社,東京都,港区,南麻布４丁目１１番１７号インペリアル南麻布４１９,,13,103,1060047,,,,,,,2025-01-08,1,,,,,ミワプラス,0
1739,7010603011304,新規,0,2025-01-08,2025-01-08,Ｂｏｎｄ合同会社,,合同会社,東京都,江東区,東陽１丁目２６－７レスパス東陽町４０３,,13,108,1350016,,,,,,,2025-01-08,1,,,,,ボンド,0
1741,7010701047068,新規,0,2025-01-08,2025-01-08,株式会社ＤＥＮＹＥＮ,,株式会社,東京都,品川区,大崎３丁目１番５号ルミネ五反田第２・２０２号室,,13,109,1410032,,,,,,,2025-01-08,1,,,,,デンエン,0
1744,7010901056595,新規,0,2025-01-08,2025-01-08,株式会社サマサマホールディングス,,株式会社,東京都,世田谷区,三宿２丁目２番１０号,,13,112,1540005,,,,,,,2025-01-08,1,,,,,サマサマホールディングス,0
1746,7011001166756,新規,0,2025-01-08,2025-01-08,株式会社アンダノ,,株式会社,東京都,目黒区,青葉台３丁目１８－３ｔｈｅｗｏｒｋｓ４１５,,13,110,1530042,,,,,,,2025-01-08,1,,,,,アンダノ,0
1747,7011001166979,新規,0,2025-01-08,2025-01-08,株式会社ＦＡＬＬＥＮ　ＬＥＡＶＥＳ,,株式会社,東京都,渋谷区,恵比寿３丁目６番１２号１階,,13,113,1500013,,,,,,,2025-01-08,1,,,,,フォールンリーヴズ,0
1748,7011001166995,新規,0,2025-01-08,2025-01-08,株式会社ＭＵＲＡＯ,,株式会社,東京都,渋谷区,代々木２丁目１番１号新宿マインズタワーＢ１,,13,113,1510053,,,,,,,2025-01-08,1,,,,,ムラオ,0
1752,7011101109929,新規,0,2025-01-08,2025-01-08,株式会社パール,,株式会社,東京都,新宿区,新宿７丁目２６－３７－５０２,,13,104,1600022,,,,,,,2025-01-08,1,,,,,パール,0
1753,7011101110127,新規,0,2025-01-08,2025-01-08,株式会社ｓａＴｕｎａ,,株式会社,東京都,新宿区,新宿１丁目１６番１０号コスモス御苑ビル７０２号室,,13,104,1600022,,,,,,,2025-01-08,1,,,,,サツナ,0
1754,7011101110168,新規,0,2025-01-08,2025-01-08,Ｐｏｌｓ株式会社,,株式会社,東京都,新宿区,新宿１丁目２６番１１－１５０７号ＺＯＯＭ新宿御苑前,,13,104,1600022,,,,,,,2025-01-08,1,,,,,ポルス,0
1755,7011101110234,新規,0,2025-01-08,2025-01-08,株式会社花月社,,株式会社,東京都,新宿区,西新宿６丁目１２－１パークウエストビル１００１室,,13,104,1600023,,,,,,,2025-01-08,1,,,,,カゲツシャ,0
1757,7011103015365,新規,0,2025-01-08,2025-01-08,合同会社Ｎａｖｙ　Ｂｌｕｅ　Ｊａｐａｎ,,合同会社,東京都,新宿区,大久保２丁目５番１９号シティプラザ大久保６階,,13,104,1690072,,,,,,,2025-01-08,1,,,,,ネイビーブルージャパン,0
1760,7011203004573,新規,0,2025-01-08,2025-01-08,合同会社ＳｙｓｔｅｍＳｏｌｕｔｉｏｎｓ,,合同会社,東京都,中野区,中央５丁目５番９－２０４号,,13,114,1640011,,,,,,,2025-01-08,1,,,,,システムソリューション,0
1763,7011501031559,新規,0,2025-01-08,2025-01-08,株式会社ｍｕｇａ,,株式会社,東京都,荒川区,町屋５丁目１３番５号メゾンアオキ３０５,,13,118,1160001,,,,,,,2025-01-08,1,,,,,ムガ,0
1764,7011501031567,新規,0,2025-01-08,2025-01-08,ＡＤＭコンサルティング株式会社,,株式会社,東京都,北区,中十条３丁目２０－２４,,13,117,1140032,,,,,,,2025-01-08,1,,,,,エーディーエムコンサルティング,0
1771,7011803006622,新規,0,2025-01-08,2025-01-08,合同会社クーコレ,,合同会社,東京都,足立区,西新井栄町３丁目３番７号,,13,121,1230843,,,,,,,2025-01-08,1,,,,,クーコレ,0
1773,7012401042638,新規,0,2025-01-08,2025-01-08,株式会社Ｓｎａｉｌ,,株式会社,東京都,三鷹市,下連雀３丁目８番１５号桜館５０１,,13,204,1810013,,,,,,,2025-01-08,1,,,,,スネイル,0
1774,7012401042646,新規,0,2025-01-08,2025-01-08,株式会社ＲＹＲ,,株式会社,東京都,府中市,朝日町１丁目２４番地の９４,,13,206,1830003,,,,,,,2025-01-08,1,,,,,アールワイアール,0
1787,7020001160818,新規,0,2025-01-08,2025-01-08,ＫＫホールディングス株式会社,,株式会社,神奈川県,横浜市中区,長者町９丁目１７５番地,,14,104,2310033,,,,,,,2025-01-08,1,,,,,ケーケーホールディングス,0
1788,7020001160826,新規,0,2025-01-08,2025-01-08,関東ファイナンス株式会社,,株式会社,神奈川県,横浜市神奈川区,子安通３丁目３５９番地６,,14,102,2210021,,,,,,,2025-01-08,1,,,,,カントウファイナンス,0
1791,7020003027552,新規,0,2025-01-08,2025-01-08,ＴＭアセットマネージメント合同会社,,合同会社,神奈川県,横浜市港北区,下田町１丁目１９番４１号,,14,109,2230064,,,,,,,2025-01-08,1,,,,,ティーエムアセットマネージメント,0
1794,7021001084148,新規,0,2025-01-08,2025-01-08,株式会社ＫＭＹ,,株式会社,神奈川県,厚木市,田村町１番３号黒石ビル１Ｆ,,14,212,2430016,,,,,,,2025-01-08,1,,,,,ケイエムワイ,0
1795,7021001084164,新規,0,2025-01-08,2025-01-08,株式会社ＭＫｓｔｕｄｉｏ,,株式会社,神奈川県,鎌倉市,玉縄２丁目４５７番地１２,,14,204,2470071,,,,,,,2025-01-08,1,,,,,エムケースタジオ,0
1796,7021001084180,新規,0,2025-01-08,2025-01-08,株式会社湘相タイル,,株式会社,神奈川県,茅ヶ崎市,柳島２丁目６番１４号石井テラス,,14,207,2530064,,,,,,,2025-01-08,1,,,,,ショウアイタイル,0
1797,7021003015423,新規,0,2025-01-08,2025-01-08,フィルプラス合同会社,,合同会社,神奈川県,鎌倉市,腰越５丁目１２番９－１号,,14,204,2480033,,,,,,,2025-01-08,1,,,,,フィルプラス,0
1800,7030003025803,新規,0,2025-01-08,2025-01-08,合同会社Ｊ．Ｃ．Ｄ．建築士事務所,,合同会社,埼玉県,さいたま市大宮区,堀の内町１丁目２２９番地７,,11,103,3300804,,,,,,,2025-01-08,1,,,,,ジェイシーディケンチクシジムショ,0
1804,7040001136865,新規,0,2025-01-08,2025-01-08,株式会社Ｗｈｉｔｅ　Ｒｉｏｔ,,株式会社,千葉県,船橋市,飯山満町２丁目５２１番地１２５,,12,204,2740822,,,,,,,2025-01-08,1,,,,,ホワイトライオット,0
1805,7040001136915,新規,0,2025-01-08,2025-01-08,株式会社黒澤重量,,株式会社,千葉県,船橋市,海神町東１丁目１３８７番地,,12,204,2730028,,,,,,,2025-01-08,1,,,,,クロサワジュウリョウ,0
1808,7040003026528,新規,0,2025-01-08,2025-01-08,合同会社ｌｉｆｅ　ｉｓ　ａ　ｍｅｌｏｄｙ,,合同会社,千葉県,八千代市,大和田１６７番地４,,12,221,2760045,,,,,,,2025-01-08,1,,,,,ライフイズアメロディ,0
1809,7050001055973,新規,0,2025-01-08,2025-01-08,株式会社源,,株式会社,茨城県,筑西市,舟生１０７３番地２９,,08,227,3080111,,,,,,,2025-01-08,1,,,,,ゲン,0
1810,7050003008913,新規,0,2025-01-08,2025-01-08,合同会社ＰＮＫ,,合同会社,茨城県,つくば市,島名１０９６番地１（香取台Ａ４３街区１３）,,08,220,3002655,,,,,,,2025-01-08,1,,,,,ピーエヌケー,0
1812,7070001042490,新規,0,2025-01-08,2025-01-08,株式会社焔色舎,,株式会社,群馬県,高崎市,乗附町１３６５番地２１,,10,202,3700867,,,,,,,2025-01-08,1,,,,,エンシキシャ,0
1813,7070001042508,新規,0,2025-01-08,2025-01-08,株式会社ミヤマリンク,,株式会社,群馬県,高崎市,北原町３８０番地１,,10,202,3703513,,,,,,,2025-01-08,1,,,,,ミヤマリンク,0
1816,7070003005735,新規,0,2025-01-08,2025-01-08,合同会社ＳＡＭＰＡＴＨ　ＴＲＡＤＥＲＳ,,合同会社,群馬県,桐生市,宮前町２丁目１番１０号永寿荘２号,,10,203,3760046,,,,,,,2025-01-08,1,,,,,サンパットトレダース,0
1817,7070003005743,新規,0,2025-01-08,2025-01-08,ＡＲＭＡＮ　ＣＯＲＰＯＲＡＴＩＯＮ　ＫＩＲＹＵ合同会社,,合同会社,群馬県,桐生市,相生町２丁目８７６番地カニヤハイツＡ－１０１号,,10,203,3760011,,,,,,,2025-01-08,1,,,,,,0
1819,7080401027660,新規,0,2025-01-08,2025-01-08,株式会社さかの動物病院,,株式会社,静岡県,菊川市,上平川１３２０番地の２,,22,224,4371521,,,,,,,2025-01-08,1,,,,,サカノドウブツビョウイン,0
1825,7110001038971,新規,0,2025-01-08,2025-01-08,株式会社吉祥,,株式会社,新潟県,新潟市西区,青山５丁目２番１８号,,15,107,9502002,,,,,,,2025-01-08,1,,,,,キッショウ,0
1838,7120001271539,新規,0,2025-01-08,2025-01-08,株式会社ＡｉＷＡＬＬ,,株式会社,大阪府,大阪市住之江区,浜口東１丁目１番１１０号,,27,125,5590002,,,,,,,2025-01-08,1,,,,,アイウォール,0
1839,7120001271605,新規,0,2025-01-08,2025-01-08,株式会社侑,,株式会社,大阪府,大阪市生野区,勝山南４丁目８番２３号,,27,116,5440021,,,,,,,2025-01-08,1,,,,,ユウ,0
1840,7120001271621,新規,0,2025-01-08,2025-01-08,Ｔｉｔａｎｉｕｍ株式会社,,株式会社,大阪府,大阪市西成区,萩之茶屋１丁目１４－１３エバーライフ萩ノ茶屋,,27,122,5570004,,,,,,,2025-01-08,1,,,,,チタン,0
1841,7120001271638,新規,0,2025-01-08,2025-01-08,株式会社ミロクパートナー,,株式会社,大阪府,大阪市城東区,鴫野東１丁目１番１３－９０８号,,27,118,5360013,,,,,,,2025-01-08,1,,,,,ミロクパートナー,0
1842,7120001271654,新規,0,2025-01-08,2025-01-08,株式会社ＴＹソーラー,,株式会社,大阪府,大阪市西成区,太子１丁目５番８号清川マンション４０３号,,27,122,5570002,,,,,,,2025-01-08,1,,,,,ティーワイソーラー,0
1846,7120103006215,新規,0,2025-01-08,2025-01-08,合同会社Ｐｏｎｏ,,合同会社,大阪府,和泉市,府中町６丁目８番２４号,,27,219,5940071,,,,,,,2025-01-08,1,,,,,ポノ,0
1847,7120901050216,新規,0,2025-01-08,2025-01-08,株式会社ＨＵＤＤＬＥ,,株式会社,大阪府,箕面市,半町３丁目９番１４号の１８,,27,220,5620044,,,,,,,2025-01-08,1,,,,,ハドル,0
1848,7120901050240,新規,0,2025-01-08,2025-01-08,ＯＮＥ＆ＫＩＣ株式会社,,株式会社,大阪府,豊中市,岡上の町４丁目４番１号タナカ産業第１ビル,,27,203,5600023,,,,,,,2025-01-08,1,,,,,ワンアンドケイアイシィ,0
1849,7120903005498,新規,0,2025-01-08,2025-01-08,合同会社ＴＯ‐ＫＡＫ,,合同会社,大阪府,吹田市,上山手町３０－１０－６０５,,27,205,5650841,,,,,,,2025-01-08,1,,,,,トーカク,0
1850,7120905006668,新規,0,2025-01-08,2025-01-08,一般社団法人悠祐会,,その他の設立登記法人,大阪府,吹田市,朝日町１－１吹田さんくす１番館１階Ｃ号室,,27,205,5640027,,,,,,,2025-01-08,1,,,,,ユウユウカイ,0
1854,7130001078719,新規,0,2025-01-08,2025-01-08,株式会社アプリスファーマシー,,株式会社,京都府,京都市左京区,松ケ崎井出ケ海道町１２番地１,,26,103,6060931,,,,,,,2025-01-08,1,,,,,アプリスファーマシー,0
1860,7140003021485,新規,0,2025-01-08,2025-01-08,ＯｎｅＭｏｒｅＩｎｔｅｒｎａｔｉｏｎａｌＪＡＰＡＮ合同会社,,合同会社,兵庫県,神戸市東灘区,西岡本７丁目１７番１－８０９号,,28,101,6580073,,,,,,,2025-01-08,1,,,,,ワンモアインターナショナルジャパン,0
1861,7140003021502,新規,0,2025-01-08,2025-01-08,アルシェン合同会社,,合同会社,兵庫県,神戸市東灘区,御影山手３丁目１－２－３０１,,28,101,6580065,,,,,,,2025-01-08,1,,,,,,0
1862,7150001027806,新規,0,2025-01-08,2025-01-08,株式会社大樹グロース,,株式会社,奈良県,奈良市,大森町１６番地の１４,,29,201,6308131,,,,,,,2025-01-08,1,,,,,タイジュグロース,0
1864,7170003002152,新規,0,2025-01-08,2025-01-08,合同会社ＳＫグリーン,,合同会社,和歌山県,和歌山市,和歌浦東２丁目５番６号,,30,201,6410021,,,,,,,2025-01-08,1,,,,,エスケーグリーン,0
1870,7180001164720,新規,0,2025-01-08,2025-01-08,ＣｏｍｆｙＳｅｃ株式会社,,株式会社,愛知県,名古屋市中村区,名駅４丁目２４番５号第２森ビル４０１,,23,105,4500002,,,,,,,2025-01-08,1,,,,,コンフィセック,0
1871,7180001164761,新規,0,2025-01-08,2025-01-08,岳見マネージメント株式会社,,株式会社,愛知県,名古屋市緑区,鳴海町字山下５０番地,,23,114,4580801,,,,,,,2025-01-08,1,,,,,タケミマネージメント,0
1872,7180001164778,新規,0,2025-01-08,2025-01-08,株式会社一心,,株式会社,愛知県,愛西市,大井町宮新田１６番地９,,23,232,4960921,,,,,,,2025-01-08,1,,,,,イッシン,0
1873,7180001164803,新規,0,2025-01-08,2025-01-08,株式会社みくるグループ,,株式会社,愛知県,一宮市,定水寺字清水４９番地１,,23,203,4910004,,,,,,,2025-01-08,1,,,,,ミクルグループ,0
1874,7180001164852,新規,0,2025-01-08,2025-01-08,株式会社ＴＴＡ,,株式会社,愛知県,名古屋市中区,栄４丁目８番３３号セレクトビル１Ｆ,,23,106,4600008,,,,,,,2025-01-08,1,,,,,ティーティーエー,0
1876,7180301039408,新規,0,2025-01-08,2025-01-08,株式会社エーエスマネジメント,,株式会社,愛知県,豊橋市,下五井町城屋敷２番地１,,23,201,4400091,,,,,,,2025-01-08,1,,,,,エーエスマネジメント,0
1877,7180303006397,新規,0,2025-01-08,2025-01-08,合同会社ＪＳ,,合同会社,愛知県,岡崎市,真伝町字亀山５２番地１２,,23,202,4443174,,,,,,,2025-01-08,1,,,,,ジェーエス,0
1880,7190003004898,新規,0,2025-01-08,2025-01-08,合同会社Ｄ‐ＧＡＴＥ,,合同会社,三重県,鈴鹿市,岡田３丁目２０番１８号,,24,207,5130027,,,,,,,2025-01-08,1,,,,,ディーゲート,0
1881,7200001043293,新規,0,2025-01-08,2025-01-08,Ｓｔａｒｔｉｎｇ　ＭＥ株式会社,,株式会社,岐阜県,岐阜市,弥八町７番地１第二ライオンビル２階,,21,201,5008827,,,,,,,2025-01-08,1,,,,,スターティングミー,0
1882,7200001043310,新規,0,2025-01-08,2025-01-08,美濃商事株式会社,,株式会社,岐阜県,岐阜市,大洞緑山１丁目２２番１１号,,21,201,5013125,,,,,,,2025-01-08,1,,,,,ミノショウジ,0
1885,7200003006645,新規,0,2025-01-08,2025-01-08,合同会社どるふぃん,,合同会社,岐阜県,大垣市,新田町３丁目２３番地２,,21,202,5030856,,,,,,,2025-01-08,1,,,,,ドルフィン,0
1889,7210005010173,新規,0,2025-01-08,2025-01-08,一般社団法人キャリ・ラボフクイ,,その他の設立登記法人,福井県,坂井市,丸岡町熊堂第３号６番地１－８,,18,210,9100347,,,,,,,2025-01-08,1,,,,,キャリラボフクイ,0
1891,7220001026404,新規,0,2025-01-08,2025-01-08,モメンタムシフティング株式会社,,株式会社,石川県,白山市,出合町甲４２－４,,17,210,9202368,,,,,,,2025-01-08,1,,,,,モメンタムシフティング,0
1892,7220001026412,新規,0,2025-01-08,2025-01-08,株式会社Ｂｅ　ｓｐｒｏｕｔ,,株式会社,石川県,金沢市,田上さくら２丁目６３,,17,201,9201157,,,,,,,2025-01-08,1,,,,,ビースプラウト,0
1895,7230001020694,新規,0,2025-01-08,2025-01-08,株式会社サンイチ,,株式会社,富山県,富山市,今泉西部町１０番地１１,,16,201,9398281,,,,,,,2025-01-08,1,,,,,サンイチ,0
1907,7260001039781,新規,0,2025-01-08,2025-01-08,株式会社丸福商会,,株式会社,岡山県,津山市,院庄２２２番地１,,33,203,7080014,,,,,,,2025-01-08,1,,,,,マルフクショウカイ,0
1920,7290001108476,新規,0,2025-01-08,2025-01-08,株式会社夢叶,,株式会社,福岡県,福岡市博多区,博多駅前３丁目７－３－３０１,,40,132,8120011,,,,,,,2025-01-08,1,,,,,,0
1921,7290001108484,新規,0,2025-01-08,2025-01-08,ＹＹアセット株式会社,,株式会社,福岡県,太宰府市,大佐野４丁目１７番８号,,40,221,8180134,,,,,,,2025-01-08,1,,,,,ワイワイアセット,0
1922,7290001108534,新規,0,2025-01-08,2025-01-08,株式会社トモスコト,,株式会社,福岡県,糟屋郡新宮町,美咲２丁目１１番５号,,40,345,8110121,,,,,,,2025-01-08,1,,,,,トモスコト,0
1924,7290003016231,新規,0,2025-01-08,2025-01-08,合同会社エススタ,,合同会社,福岡県,福岡市東区,西戸崎５丁目１２番１１号,,40,131,8110321,,,,,,,2025-01-08,1,,,,,エススタ,0
1926,7290005019604,新規,0,2025-01-08,2025-01-08,医療法人サンライズメディカル,,その他の設立登記法人,福岡県,大牟田市,日出町３丁目１番地２１,,40,202,8360802,,,,,,,2025-01-08,1,,,,,サンライズメディカル,0
1930,7300001014045,新規,0,2025-01-08,2025-01-08,株式会社Ｌｉｌｙ　ｏｆ　ｔｈｅ　ｖａｌｌｅｙ,,株式会社,佐賀県,鳥栖市,宿町１４３０番地６,,41,203,8410052,,,,,,,2025-01-08,1,,,,,リリィオブザヴァレー,0
1931,7310001019407,新規,0,2025-01-08,2025-01-08,戸崎工業株式会社,00137548,株式会社,長崎県,長崎市,茂木町２９３－７,,42,201,8510241,,,,,,,2025-01-08,1,,,,,トザキコウギョウ,0
1932,7310003004919,新規,0,2025-01-08,2025-01-08,合同会社エネ・シフト,,合同会社,長崎県,佐世保市,高梨町１２３番地,,42,202,8570811,,,,,,,2025-01-08,1,,,,,エネシフト,0
1933,7320001020883,新規,0,2025-01-08,2025-01-08,株式会社幸健,,株式会社,大分県,大分市,大字三佐８０４番地の１グランアムールＡ１０１,,44,201,8700108,,,,,,,2025-01-08,1,,,,,コウケン,0
1934,7330001032804,新規,0,2025-01-08,2025-01-08,プレオン株式会社,,株式会社,熊本県,上益城郡益城町,大字広崎４０７番地１,,43,443,8612236,,,,,,,2025-01-08,1,,,,,プレオン,0
1936,7330003010709,新規,0,2025-01-08,2025-01-08,エクシード不動産合同会社,,合同会社,熊本県,菊池市,西寺１４１２番地Ａ１０５,,43,210,8611323,,,,,,,2025-01-08,1,,,,,エクシードフドウサン,0
1937,7330003010717,新規,0,2025-01-08,2025-01-08,合同会社おがた,,合同会社,熊本県,菊池市,木柑子１３６０番地３６エトワール木柑子Ａ１０２,,43,210,8611315,,,,,,,2025-01-08,1,,,,,オガタ,0
1938,7340001027035,新規,0,2025-01-08,2025-01-08,株式会社エムアンド,,株式会社,鹿児島県,鹿児島市,平之町９番３２号エレガンス平之町３０４号,,46,201,8920848,,,,,,,2025-01-08,1,,,,,エムアンド,0
1939,7340001027043,新規,0,2025-01-08,2025-01-08,株式会社ａｎｄ　Ｍａｒｑｕｅ,,株式会社,鹿児島県,鹿屋市,笠之原町７５２６番地１６,,46,203,8930023,,,,,,,2025-01-08,1,,,,,アンドマーク,0
1940,7340005009806,新規,0,2025-01-08,2025-01-08,司法書士法人重野事務所,,その他の設立登記法人,鹿児島県,姶良市,宮島町２７番地７宮島ビル２Ｆ,,46,225,8995432,,,,,,,2025-01-08,1,,,,,シゲノジムショ,0
1946,7360003014574,新規,0,2025-01-08,2025-01-08,合同会社やまこうほけんＣｕｓｔｏｍ,,合同会社,沖縄県,名護市,城２丁目１番２１号３Ｆ,,47,209,9050013,,,,,,,2025-01-08,1,,,,,ヤマコウホケンカスタム,0
1947,7360003014582,新規,0,2025-01-08,2025-01-08,７ｔｈ　Ｈｅａｖｅｎ合同会社,,合同会社,沖縄県,国頭郡金武町,字金武４２４１番地,,47,314,9041201,,,,,,,2025-01-08,1,,,,,セブンスヘブン,0
1951,7380001035018,新規,0,2025-01-08,2025-01-08,株式会社オートモービル７０３,,株式会社,福島県,いわき市,平中山字宮下１番地の９１コクセイハイツ,,07,204,9708031,,,,,,,2025-01-08,1,,,,,オートモービルナナレイサン,0
1952,7380003005927,新規,0,2025-01-08,2025-01-08,合同会社たかせい,,合同会社,福島県,福島市,田沢字桜台１０番地の５,,07,201,9608156,,,,,,,2025-01-08,1,,,,,タカセイ,0
1955,7420001018967,新規,0,2025-01-08,2025-01-08,六ヶ所エネルギーマネジメント株式会社,,株式会社,青森県,上北郡六ヶ所村,大字尾駮字野附４７５番地,,02,411,0393212,,,,,,,2025-01-08,1,,,,,ロッカショエネルギーマネジメント,0
1959,7430001093381,新規,0,2025-01-08,2025-01-08,新澤国際株式会社,,株式会社,北海道,千歳市,北斗６丁目１１番３号,,01,224,0660073,,,,,,,2025-01-08,1,,,,,シンサワコクサイ,0
1960,7430003017149,新規,0,2025-01-08,2025-01-08,合同会社ＳＥＡＴＲＥＥ,,合同会社,北海道,札幌市中央区,南二条西５丁目３１番地１ＲＭＢｌｄ．７０１,,01,101,0600062,,,,,,,2025-01-08,1,,,,,シーツリー,0
1963,7450001014484,新規,0,2025-01-08,2025-01-08,株式会社ｉｍｍｏｒｔａｌ,,株式会社,北海道,旭川市,豊岡九条４丁目８番１３号,,01,204,0788239,,,,,,,2025-01-08,1,,,,,インモータル,0
1967,7480001012691,新規,0,2025-01-08,2025-01-08,株式会社ウェルホールディングス,,株式会社,徳島県,板野郡北島町,江尻字夷ノ本２５番地２,,36,402,7710205,,,,,,,2025-01-08,1,,,,,ウェルホールディングス,0
1970,7490003001964,新規,0,2025-01-08,2025-01-08,ＨＡＩ　ＤＵＯＮＧ合同会社,,合同会社,高知県,高知市,本町１丁目３番１８号山崎ビル,,39,201,7800870,,,,,,,2025-01-08,1,,,,,ハイズオン,0
1972,7500001026061,新規,0,2025-01-08,2025-01-08,株式会社Ｅｖｏｌｉａ,,株式会社,愛媛県,松山市,千舟町５丁目３番１７号４Ｆ,,38,201,7900011,,,,,,,2025-01-08,1,,,,,エヴォリア,0
1973,7500003003397,新規,0,2025-01-08,2025-01-08,博美堂合同会社,,合同会社,愛媛県,伊予市,上三谷甲１１３７番地４,,38,210,7993104,,,,,,,2025-01-08,1,,,,,ハクビドウ,0
1983,8010001251055,新規,0,2025-01-08,2025-01-08,株式会社小西三誠堂,,株式会社,東京都,千代田区,麹町２丁目４番地,,13,101,1020083,,,,,,,2025-01-08,1,,,,,コニシサンセイドウ,0
1984,8010001251170,新規,0,2025-01-08,2025-01-08,株式会社Ｔｅｃｈｎｏｐｈｉｌｏｓ,,株式会社,東京都,中央区,銀座１丁目１２番４号Ｎ＆ＥＢＬＤ．６Ｆ,,13,102,1040061,,,,,,,2025-01-08,1,,,,,テクノフィロス,0
1986,8010003045967,新規,0,2025-01-08,2025-01-08,合同会社ムギ,,合同会社,東京都,中央区,入船２丁目６－４ステージファースト八丁堀６０３,,13,102,1040042,,,,,,,2025-01-08,1,,,,,ムギ,0
1988,8010005039364,新規,0,2025-01-08,2025-01-08,一般社団法人日本ハラル機構,,その他の設立登記法人,東京都,千代田区,岩本町２丁目７－３,,13,101,1010032,,,,,,,2025-01-08,1,,,,,ニホンハラルキコウ,0
1989,8010005039372,新規,0,2025-01-08,2025-01-08,一般社団法人ＡＮＪ新経営者クラブ,,その他の設立登記法人,東京都,千代田区,神田小川町１丁目１０番地２,,13,101,1010052,,,,,,,2025-01-08,1,,,,,エーエヌジェイシンケイエイシャクラブ,0
1992,8010401187287,新規,0,2025-01-08,2025-01-08,タレル株式会社,,株式会社,東京都,港区,高輪４丁目２４番４３号,,13,103,1080074,,,,,,,2025-01-08,1,,,,,タレル,0
1993,8010401187345,新規,0,2025-01-08,2025-01-08,株式会社ＳＴＯＫＥＤ,,株式会社,東京都,港区,麻布十番２丁目５－１１－Ｂ１Ａ,,13,103,1060045,,,,,,,2025-01-08,1,,,,,ストックド,0
1994,8010401187394,新規,0,2025-01-08,2025-01-08,株式会社Ｇ．Ｏ．Ａ．Ｔ．ＢＵＤＤＹ,,株式会社,東京都,港区,南青山３丁目１番３６号青山丸竹ビル６Ｆ,,13,103,1070062,,,,,,,2025-01-08,1,,,,,ゴートバディー,0
1995,8010401187428,新規,0,2025-01-08,2025-01-08,株式会社ＭＴフライト,,株式会社,東京都,港区,港南２丁目１５番１号品川インターシティＡ棟２８階,,13,103,1080075,,,,,,,2025-01-08,1,,,,,エムティーフライト,0
1996,8010403034090,新規,0,2025-01-08,2025-01-08,合同会社ラ・グリシーヌ,,合同会社,東京都,港区,港南２丁目１７番１号ＢＩＺｃｏｍｆｏｒｔ品川ｓｋｙｗａｙ１２,,13,103,1080075,,,,,,,2025-01-08,1,,,,,ラグリシーヌ,0
1999,8010601066555,新規,0,2025-01-08,2025-01-08,株式会社ソナタ,,株式会社,東京都,江東区,亀戸３丁目３８番１６－２０２号,,13,108,1360071,,,,,,,2025-01-08,1,,,,,ソナタ,0
2002,8010701047075,新規,0,2025-01-08,2025-01-08,パイロットエイジ株式会社,,株式会社,東京都,品川区,荏原７丁目７－１０,,13,109,1420063,,,,,,,2025-01-08,1,,,,,パイロットエイジ,0
2004,8010801035731,新規,0,2025-01-08,2025-01-08,株式会社クースラ,,株式会社,東京都,大田区,南千束１丁目２番１８号,,13,111,1450063,,,,,,,2025-01-08,1,,,,,クースラ,0
2007,8010803005229,新規,0,2025-01-08,2025-01-08,合同会社Ｈａｒｅｉｅ,,合同会社,東京都,大田区,上池台５丁目２０番３号,,13,111,1450064,,,,,,,2025-01-08,1,,,,,ハレイエ,0
2009,8010903009625,新規,0,2025-01-08,2025-01-08,合同会社ルスデエスペランサ,,合同会社,東京都,世田谷区,玉川３丁目３１番１３－３０４号,,13,112,1580094,,,,,,,2025-01-08,1,,,,,ルスデエスペランサ,0
2013,8011001166755,新規,0,2025-01-08,2025-01-08,株式会社ＨＩＰ,,株式会社,東京都,渋谷区,神南１丁目１１番４号ＦＰＧリンクス神南５階,,13,113,1500041,,,,,,,2025-01-08,1,,,,,ヒップ,0
2014,8011001166862,新規,0,2025-01-08,2025-01-08,株式会社ＭＯＤＥＬＹ,,株式会社,東京都,渋谷区,恵比寿南１丁目１番１号ヒューマックス恵比寿ビル８Ｆ,,13,113,1500022,,,,,,,2025-01-08,1,,,,,モデリー,0
2015,8011001166870,新規,0,2025-01-08,2025-01-08,海祈商事株式会社,,株式会社,東京都,渋谷区,恵比寿西２丁目８番４号ＥＸ恵比寿西ビル５階,,13,113,1500021,,,,,,,2025-01-08,1,,,,,ミノリショウジ,0
2016,8011001166945,新規,0,2025-01-08,2025-01-08,株式会社ＥＧＵＩＹＮ,,株式会社,東京都,目黒区,青葉台４丁目７番３－２０８号,,13,110,1530042,,,,,,,2025-01-08,1,,,,,エギュイン,0
2020,8011003020729,新規,0,2025-01-08,2025-01-08,ＶＩＴＲＯ合同会社,,合同会社,東京都,渋谷区,渋谷３丁目２７番１号１００ＢＡＮＣＨ２Ｆ,,13,113,1500002,,,,,,,2025-01-08,1,,,,,ヴィトロ,0
2021,8011003020737,新規,0,2025-01-08,2025-01-08,ＳＷＯＲＤ合同会社,,合同会社,東京都,目黒区,三田１丁目２番１１号,,13,110,1530062,,,,,,,2025-01-08,1,,,,,ソード,0
2024,8011101110126,新規,0,2025-01-08,2025-01-08,株式会社ＵＴＡＧＥ,,株式会社,東京都,新宿区,西新宿２丁目６番１号新宿住友ビル１８階グロース新宿,,13,104,1600023,,,,,,,2025-01-08,1,,,,,ウタゲ,0
2025,8011101110134,新規,0,2025-01-08,2025-01-08,株式会社ｍａｋｋｅｎ,,株式会社,東京都,新宿区,河田町１０番１４号エクセルシオール新宿河田町１０３,,13,104,1620054,,,,,,,2025-01-08,1,,,,,マッケン,0
2026,8011101110233,新規,0,2025-01-08,2025-01-08,ＣＲＬＥＳＴ株式会社,,株式会社,東京都,新宿区,西新宿３丁目３番１３号西新宿水間ビル２Ｆ,,13,104,1600023,,,,,,,2025-01-08,1,,,,,クレスト,0
2028,8011103015356,新規,0,2025-01-08,2025-01-08,合同会社仁８,,合同会社,東京都,新宿区,西新宿３丁目３番１３号西新宿水間ビル６階,,13,104,1600023,,,,,,,2025-01-08,1,,,,,ジンパチ,0
2029,8011103015364,新規,0,2025-01-08,2025-01-08,新橋明和ビル合同会社,,合同会社,東京都,新宿区,四谷４丁目３２番８号ＹＫＢサニービル６階,,13,104,1600004,,,,,,,2025-01-08,1,,,,,シンバシメイワビル,0
2032,8011201026040,新規,0,2025-01-08,2025-01-08,株式会社オークス,,株式会社,東京都,中野区,白鷺２丁目１番１２号ディア白鷺２０１,,13,114,1650035,,,,,,,2025-01-08,1,,,,,オークス,0
2033,8011203004572,新規,0,2025-01-08,2025-01-08,合同会社リバーウィンズワークス,,合同会社,東京都,中野区,南台４丁目５９‐７,,13,114,1640014,,,,,,,2025-01-08,1,,,,,リバーウィンズワークス,0
2035,8011301030272,新規,0,2025-01-08,2025-01-08,株式会社ＴＡＮ,,株式会社,東京都,杉並区,上井草２丁目３４－１６,,13,115,1670023,,,,,,,2025-01-08,1,,,,,タン,0
2039,8011503006368,新規,0,2025-01-08,2025-01-08,合同会社かめ,,合同会社,東京都,荒川区,南千住２丁目２３番４号,,13,118,1160003,,,,,,,2025-01-08,1,,,,,カメ,0
2040,8011505002670,新規,0,2025-01-08,2025-01-08,遺産相続税理士法人アクロピース,,その他の設立登記法人,東京都,北区,赤羽西１丁目３５－８レッドウィングビル４階,,13,117,1150055,,,,,,,2025-01-08,1,,,,,イサンソウゾクアクロピース,0
2041,8011601028339,新規,0,2025-01-08,2025-01-08,株式会社ＬＩＮＫＳ,,株式会社,東京都,練馬区,早宮３丁目９番２１号,,13,120,1790085,,,,,,,2025-01-08,1,,,,,リンクス,0
2042,8011701027950,新規,0,2025-01-08,2025-01-08,進洋株式会社,,株式会社,東京都,江戸川区,江戸川６丁目４０番１４－２２６号,,13,123,1340013,,,,,,,2025-01-08,1,,,,,シンヨウ,0
2046,8011801045398,新規,0,2025-01-08,2025-01-08,株式会社ｃｏｚｙ　ｅｓｔａｔｅ,,株式会社,東京都,足立区,梅島１丁目１１番１７号ａｐｔプラムコート３０１,,13,121,1210816,,,,,,,2025-01-08,1,,,,,コージーエステイト,0
2047,8012301014216,新規,0,2025-01-08,2025-01-08,エナジーキープ株式会社,,株式会社,東京都,町田市,木曽東３丁目８番２９号第１山美ビル２０７,,13,209,1940036,,,,,,,2025-01-08,1,,,,,エナジーキープ,0
2050,8012403006895,新規,0,2025-01-08,2025-01-08,ＳＳＳ合同会社,,合同会社,東京都,調布市,調布ケ丘３丁目６４番地１－５０１,,13,208,1820021,,,,,,,2025-01-08,1,,,,,エスエスエス,0
2051,8012403006904,新規,0,2025-01-08,2025-01-08,合同会社香珀,,合同会社,東京都,府中市,四谷５丁目８番３０号７２４号室,,13,206,1830035,,,,,,,2025-01-08,1,,,,,コハク,0
2058,8013101009604,新規,0,2025-01-08,2025-01-08,吉川電気株式会社,,株式会社,東京都,青梅市,野上町１丁目３５番地の８,,13,205,1980032,,,,,,,2025-01-08,1,,,,,ヨシカワデンキ,0
2061,8020001160759,新規,0,2025-01-08,2025-01-08,Ｇ．ＮＥＰＰＯＮ株式会社,,株式会社,神奈川県,横浜市南区,永田東１丁目２５番３号,,14,105,2320072,,,,,,,2025-01-08,1,,,,,ジーニッポン,0
2062,8020001160800,新規,0,2025-01-08,2025-01-08,株式会社ＣＯＮＮＥＣＴ,,株式会社,神奈川県,横浜市都筑区,北山田２丁目１番１０号,,14,118,2240021,,,,,,,2025-01-08,1,,,,,コネクト,0
2063,8020001160809,新規,0,2025-01-08,2025-01-08,株式会社アボズデザイン,,株式会社,神奈川県,川崎市多摩区,中野島３丁目３１番４－２０４号,,14,135,2140012,,,,,,,2025-01-08,1,,,,,アボズデザイン,0
2067,8021001084106,新規,0,2025-01-08,2025-01-08,Ｇｌｅａｍｅｒ株式会社,,株式会社,神奈川県,相模原市中央区,清新８丁目２番５号コモド相模原４０１,,14,152,2520216,,,,,,,2025-01-08,1,,,,,グリーマー,0
2068,8021001084171,新規,0,2025-01-08,2025-01-08,株式会社マヨタマスタジオ,,株式会社,神奈川県,海老名市,杉久保南１丁目２４番５号,,14,215,2430427,,,,,,,2025-01-08,1,,,,,マヨタマスタジオ,0
2071,8021003015414,新規,0,2025-01-08,2025-01-08,ＯＨ‐Ｆａｃｔｏｒｙ合同会社,,合同会社,神奈川県,中郡大磯町,国府新宿１６９番地の３,,14,341,2590112,,,,,,,2025-01-08,1,,,,,オーエイチファクトリ,0
2079,8040001136815,新規,0,2025-01-08,2025-01-08,育愛堂株式会社,,株式会社,千葉県,習志野市,東習志野２丁目１８番４４－１３０５号,,12,216,2750001,,,,,,,2025-01-08,1,,,,,イクアイドウ,0
2080,8040001136848,新規,0,2025-01-08,2025-01-08,三佑株式会社,,株式会社,千葉県,松戸市,西馬橋広手町９８番地の１,,12,207,2710048,,,,,,,2025-01-08,1,,,,,サンユウ,0
2081,8040001136914,新規,0,2025-01-08,2025-01-08,株式会社シースコア,,株式会社,千葉県,鎌ケ谷市,東初富５丁目２０番３４号,,12,224,2730122,,,,,,,2025-01-08,1,,,,,シースコア,0
2083,8040003026493,新規,0,2025-01-08,2025-01-08,合同会社ワタナベ,,合同会社,千葉県,市原市,姉崎東２丁目８番地４,,12,219,2990110,,,,,,,2025-01-08,1,,,,,ワタナベ,0
2084,8040003026519,新規,0,2025-01-08,2025-01-08,しま本合同会社,,合同会社,千葉県,東金市,道庭６３６番地１,,12,213,2830003,,,,,,,2025-01-08,1,,,,,シマモト,0
2085,8040003026527,新規,0,2025-01-08,2025-01-08,合同会社ケアプラン三橋,,合同会社,千葉県,千葉市中央区,宮崎町５２１番地５２,,12,101,2600805,,,,,,,2025-01-08,1,,,,,ケアプランミハシ,0
2091,8050001055948,新規,0,2025-01-08,2025-01-08,株式会社ＫＮＮ,,株式会社,茨城県,稲敷市,三次１５７２番地１２０,,08,229,3000631,,,,,,,2025-01-08,1,,,,,ケーエヌエヌ,0
2096,8060001037796,新規,0,2025-01-08,2025-01-08,ＴＯＭＯＮＩ株式会社,,株式会社,栃木県,日光市,鬼怒川温泉大原１３３番地２０,,09,206,3212522,,,,,,,2025-01-08,1,,,,,トモニ,0
2098,8070001042507,新規,0,2025-01-08,2025-01-08,ＴＦエネルギー株式会社,,株式会社,群馬県,前橋市,大渡町１丁目１２番地６,,10,201,3710854,,,,,,,2025-01-08,1,,,,,ティーエフエネルギー,0
2099,8070001042515,新規,0,2025-01-08,2025-01-08,株式会社ＦＩＲＳＴ,,株式会社,群馬県,高崎市,箕郷町柏木沢３３２番地１,,10,202,3703101,,,,,,,2025-01-08,1,,,,,ファースト,0
2100,8070001042523,新規,0,2025-01-08,2025-01-08,株式会社住喜,,株式会社,群馬県,前橋市,紅雲町１丁目４番９号,,10,201,3710025,,,,,,,2025-01-08,1,,,,,ジュウキ,0
2104,8080001026698,新規,0,2025-01-08,2025-01-08,株式会社スタビリオン,,株式会社,静岡県,藤枝市,前島２丁目１８番２７号,,22,214,4260067,,,,,,,2025-01-08,1,,,,,スタビリオン,0
2108,8080101025229,新規,0,2025-01-08,2025-01-08,株式会社トラスト防災設備,,株式会社,静岡県,富士宮市,大岩３７２番地の８,,22,207,4180013,,,,,,,2025-01-08,1,,,,,トラストボウサイセツビ,0
2109,8080101025237,新規,0,2025-01-08,2025-01-08,株式会社矢郷タイル,,株式会社,静岡県,富士市,比奈４７番地の１,,22,210,4170847,,,,,,,2025-01-08,1,,,,,ヤゴウタイル,0
2111,8090001019073,新規,0,2025-01-08,2025-01-08,株式会社グローバルファーム山梨,,株式会社,山梨県,山梨市,市川１８２８番地１,,19,205,4050044,,,,,,,2025-01-08,1,,,,,,0
2116,8100003007941,新規,0,2025-01-08,2025-01-08,合同会社ＳＡＰＯＲＡＬ,,合同会社,長野県,諏訪郡原村,１６２６７番地１３６０,,20,363,3910100,,,,,,,2025-01-08,1,,,,,サポラル,0
2135,8120001271554,新規,0,2025-01-08,2025-01-08,株式会社鳥城,,株式会社,大阪府,大阪市城東区,鴫野東１丁目７番５号,,27,118,5360013,,,,,,,2025-01-08,1,,,,,トリシロ,0
2136,8120001271595,新規,0,2025-01-08,2025-01-08,株式会社ＮＥＸＴ　ＶＡＬＵＥ　ＣＲＥＡＴＩＯＮ,,株式会社,大阪府,大阪市中央区,南船場２丁目７－１６ＨＳ南船場ビル８０１,,27,128,5420081,,,,,,,2025-01-08,1,,,,,ネクストバリュークリエーション,0
2137,8120001271604,新規,0,2025-01-08,2025-01-08,メアリ株式会社,,株式会社,大阪府,大阪市北区,梅田１丁目１２番１２号東京建物梅田ビル１２階,,27,127,5300001,,,,,,,2025-01-08,1,,,,,メアリ,0
2138,8120001271612,新規,0,2025-01-08,2025-01-08,株式会社ラビスタ,,株式会社,大阪府,枚方市,宮之阪４丁目２８番１２号Ｂ１,,27,210,5730022,,,,,,,2025-01-08,1,,,,,ラビスタ,0
2139,8120001271637,新規,0,2025-01-08,2025-01-08,栄翔コンサルティング株式会社,,株式会社,大阪府,大阪市中央区,島之内１丁目３番９号,,27,128,5420082,,,,,,,2025-01-08,1,,,,,エイショウコンサルティング,0
2140,8120001271653,新規,0,2025-01-08,2025-01-08,ＦＥＮコンサルティング株式会社,,株式会社,大阪府,大阪市北区,大淀南１丁目１－１８,,27,127,5310075,,,,,,,2025-01-08,1,,,,,エフイーエヌコンサルティング,0
2141,8120001271736,新規,0,2025-01-08,2025-01-08,株式会社一愛,,株式会社,大阪府,大阪市生野区,巽東４丁目７番２８号,00137549,27,116,5440014,,,,,,,2025-01-08,1,,,,,イノリ,0
2145,8120003028259,新規,0,2025-01-08,2025-01-08,合同会社ＲＥＳＴＡＲＴ,,合同会社,大阪府,大阪市淀川区,東三国２丁目１０－８－２０４,,27,123,5320002,,,,,,,2025-01-08,1,,,,,リスタート,0
2146,8120003028291,新規,0,2025-01-08,2025-01-08,合同会社真心,,合同会社,大阪府,大阪市此花区,春日出南２丁目５－２３,,27,104,5540023,,,,,,,2025-01-08,1,,,,,マゴコロ,0
2147,8120003028309,新規,0,2025-01-08,2025-01-08,合同会社ＴＡＭＡ,,合同会社,大阪府,大阪市此花区,朝日２丁目１８番８号３Ｆ－６６２,,27,104,5540011,,,,,,,2025-01-08,1,,,,,タマ,0
2149,8120101070831,新規,0,2025-01-08,2025-01-08,株式会社カモン,,株式会社,大阪府,富田林市,若松町３丁目４番１５号,,27,214,5840024,,,,,,,2025-01-08,1,,,,,カモン,0
2150,8120901050256,新規,0,2025-01-08,2025-01-08,株式会社Ｎｉｊｉ　ｐｌｕｓ,,株式会社,大阪府,高槻市,芥川町４丁目９番３号,,27,207,5691123,,,,,,,2025-01-08,1,,,,,ニジプラス,0
2151,8120903005489,新規,0,2025-01-08,2025-01-08,ＬＸ　ｔｒａｄｅ合同会社,,合同会社,大阪府,吹田市,青山台３丁目１６番７号,,27,205,5650875,,,,,,,2025-01-08,1,,,,,エルエックストレード,0
2153,8122001038768,新規,0,2025-01-08,2025-01-08,株式会社Ｗａｒｏｔｅ,,株式会社,大阪府,八尾市,上之島町北４丁目６番地の５,,27,212,5810845,,,,,,,2025-01-08,1,,,,,ワロテ,0
2156,8130001078701,新規,0,2025-01-08,2025-01-08,仁賞株式会社,,株式会社,京都府,京都市東山区,東大路古門前上る東入稲荷町南組５７７番地７,,26,105,6050067,,,,,,,2025-01-08,1,,,,,ジンショウ,0
2158,8130003010117,新規,0,2025-01-08,2025-01-08,京滋管理合同会社,,合同会社,京都府,京都市左京区,高野清水町１３６番地,,26,103,6068102,,,,,,,2025-01-08,1,,,,,ケイジカンリ,0
2166,8140001136929,新規,0,2025-01-08,2025-01-08,株式会社ポルコｉｎｓｉｅｍｅ,,株式会社,兵庫県,養父市,八鹿町宿南２５４３番地６２,,28,222,6670003,,,,,,,2025-01-08,1,,,,,ポルコインシエメ,0
2167,8140001136937,新規,0,2025-01-08,2025-01-08,株式会社のぞみ犬のようちえん,,株式会社,兵庫県,芦屋市,山手町２８番６号,,28,206,6590096,,,,,,,2025-01-08,1,,,,,ノゾミイヌノヨウチエン,0
2168,8140001136945,新規,0,2025-01-08,2025-01-08,株式会社がじゅまるクリエイト,,株式会社,兵庫県,神戸市兵庫区,西出町１丁目１９番１－１０６号,,28,105,6520822,,,,,,,2025-01-08,1,,,,,ガジュマルクリエイト,0
2171,8140005027331,新規,0,2025-01-08,2025-01-08,Ｋ＆Ｐ社会保険労務士法人,,その他の設立登記法人,兵庫県,尼崎市,昭和通２丁目７－１ニューアルカイックビル７階,,28,202,6600881,,,,,,,2025-01-08,1,,,,,ケーアンドピー,0
2174,8160001026475,新規,0,2025-01-08,2025-01-08,株式会社キモチ,,株式会社,滋賀県,大津市,池の里９－１８,,25,201,5200827,,,,,,,2025-01-08,1,,,,,キモチ,0
2182,8180001164785,新規,0,2025-01-08,2025-01-08,日本三通株式会社,,株式会社,愛知県,名古屋市東区,東桜２丁目３番７号東カン名古屋キャステール９４０号室,,23,102,4610005,,,,,,,2025-01-08,1,,,,,ニホンミッツウ,0
2183,8180001164835,新規,0,2025-01-08,2025-01-08,株式会社ＩＢＡ塗研,,株式会社,愛知県,名古屋市守山区,森孝４丁目７０５番地,,23,113,4630035,,,,,,,2025-01-08,1,,,,,アイビーエートケン,0
2184,8180003027742,新規,0,2025-01-08,2025-01-08,合同会社ＫＡＧＡＹＡＫＩ,,合同会社,愛知県,春日井市,如意申町８丁目１‐９坂本ビル２階南,,23,206,4860918,,,,,,,2025-01-08,1,,,,,カガヤキ,0
2185,8180003027825,新規,0,2025-01-08,2025-01-08,合同会社ｅｄｉｔ,,合同会社,愛知県,名古屋市中区,栄３丁目１９番１７号,,23,106,4600008,,,,,,,2025-01-08,1,,,,,エディット,0
2186,8180301039407,新規,0,2025-01-08,2025-01-08,株式会社ウィルズプラス,,株式会社,愛知県,豊橋市,花田一番町８３番地２フラワープラザ５‐Ｄ,,23,201,4418013,,,,,,,2025-01-08,1,,,,,ウィルズプラス,0
2187,8180301039415,新規,0,2025-01-08,2025-01-08,ユーテック株式会社,,株式会社,愛知県,岡崎市,美合町字三ノ久保４番地３,,23,202,4440802,,,,,,,2025-01-08,1,,,,,ユーテック,0
2190,8180303006388,新規,0,2025-01-08,2025-01-08,ゆり合同会社,,合同会社,愛知県,豊橋市,南牛川１丁目１８番地の１４,,23,201,4400014,,,,,,,2025-01-08,1,,,,,ユリ,0
2191,8190001031919,新規,0,2025-01-08,2025-01-08,株式会社まるしげ,,株式会社,三重県,桑名市,大字桑部１４７６番地７,,24,205,5110923,,,,,,,2025-01-08,1,,,,,マルシゲ,0
2192,8190005012007,新規,0,2025-01-08,2025-01-08,税理士法人彩り,,その他の設立登記法人,三重県,桑名市,陽だまりの丘７丁目１１１６番地１,,24,205,5110867,,,,,,,2025-01-08,1,,,,,イロドリ,0
2194,8200003006644,新規,0,2025-01-08,2025-01-08,合同会社川崎設計,00137560,合同会社,岐阜県,羽島市,新生町１丁目５０番地,,21,209,5016206,,,,,,,2025-01-08,1,,,,,カワサキセッケイ,0
2200,8240001064335,新規,0,2025-01-08,2025-01-08,株式会社松井自動車,,株式会社,広島県,府中市,中須町９７３番地１,,34,208,7260012,,,,,,,2025-01-08,1,,,,,マツイジドウシャ,0
2201,8240001064343,新規,0,2025-01-08,2025-01-08,株式会社ｏｎｅ,,株式会社,広島県,東広島市,黒瀬楢原東２丁目６番１７号,00137559,34,212,7392628,,,,,,,2025-01-08,1,,,,,ワン,0
2210,8260001039748,新規,0,2025-01-08,2025-01-08,株式会社ＯＮＥ警備,,株式会社,岡山県,倉敷市,児島味野１丁目４－１４,,33,202,7110913,,,,,,,2025-01-08,1,,,,,ワンケイビ,0
2211,8260001039797,新規,0,2025-01-08,2025-01-08,小合工業株式会社,,株式会社,岡山県,岡山市中区,湊３０１番地２４,,33,102,7038266,,,,,,,2025-01-08,1,,,,,オゴウコウギョウ,0
2217,8290001108483,新規,0,2025-01-08,2025-01-08,株式会社Ｂｕｌｌｓ,,株式会社,福岡県,福岡市東区,香椎駅前２丁目１９番２５号,,40,131,8130013,,,,,,,2025-01-08,1,,,,,ブルズ,0
2218,8290001108491,新規,0,2025-01-08,2025-01-08,株式会社Ｇｌａｎｚ,,株式会社,福岡県,飯塚市,長尾９４６番地１２,,40,205,8200701,,,,,,,2025-01-08,1,,,,,グランツ,0
2219,8290001108500,新規,0,2025-01-08,2025-01-08,株式会社ワクワーク,,株式会社,福岡県,福岡市博多区,博多駅前１丁目２３番２号ＰａｒｋＦｒｏｎｔ博多駅前１丁目５Ｆ－Ｂ,,40,132,8120011,,,,,,,2025-01-08,1,,,,,ワクワーク,0
2220,8290001108509,新規,0,2025-01-08,2025-01-08,ＴＡＫＭｅａｒｔｈ株式会社,,株式会社,福岡県,福岡市博多区,春町２丁目２番２７号,,40,132,8120872,,,,,,,2025-01-08,1,,,,,タックマース,0
2221,8290001108525,新規,0,2025-01-08,2025-01-08,株式会社華夏,,株式会社,福岡県,福岡市博多区,博多駅中央街５番１１号,,40,132,8120012,,,,,,,2025-01-08,1,,,,,カカ,0
2222,8290001108541,新規,0,2025-01-08,2025-01-08,ＧＯＯＤキャスト株式会社,,株式会社,福岡県,福岡市博多区,博多駅前２丁目１９－１７トーカン博多第５ビル,,40,132,8120011,,,,,,,2025-01-08,1,,,,,グッドキャスト,0
2223,8290001108590,新規,0,2025-01-08,2025-01-08,株式会社古川,,株式会社,福岡県,太宰府市,大佐野２丁目３番１７号,,40,221,8180134,,,,,,,2025-01-08,1,,,,,フルカワ,0
2229,8290003016247,新規,0,2025-01-08,2025-01-08,楽笑合同会社,,合同会社,福岡県,飯塚市,立岩９６４番地２７－８０３,,40,205,8200003,,,,,,,2025-01-08,1,,,,,ララ,0
2231,8290801031182,新規,0,2025-01-08,2025-01-08,株式会社Ｔ３,,株式会社,福岡県,北九州市門司区,青葉台１番１３号,,40,101,8000045,,,,,,,2025-01-08,1,,,,,ティースリー,0
2233,8300001014044,新規,0,2025-01-08,2025-01-08,株式会社杉町電気,,株式会社,佐賀県,佐賀市,鍋島町大字蛎久１１４７番地３,,41,201,8490931,,,,,,,2025-01-08,1,,,,,スギマチデンキ,0
2235,8320001020882,新規,0,2025-01-08,2025-01-08,株式会社ＺＥＲＯ　ＯＲＩＧＩＮ,,株式会社,大分県,臼杵市,野津町大字都原２１２７番地の２,,44,206,8750211,,,,,,,2025-01-08,1,,,,,ゼロオリジン,0
2236,8320003004553,新規,0,2025-01-08,2025-01-08,合同会社Ｆｉｎｄ　ｙｏｕｒ　Ｚｅｎ,,合同会社,大分県,速見郡日出町,大字豊岡８６３番地１,,44,341,8791507,,,,,,,2025-01-08,1,,,,,ファインドユアゼン,0
2237,8320005010211,新規,0,2025-01-08,2025-01-08,一般社団法人陣屋の杜,,その他の設立登記法人,大分県,由布市,挾間町鬼瀬３２６番地,,44,213,8795521,,,,,,,2025-01-08,1,,,,,,0
2238,8330001032778,新規,0,2025-01-08,2025-01-08,インテリアル株式会社,,株式会社,熊本県,熊本市中央区,大江６丁目５番５号,,43,101,8620971,,,,,,,2025-01-08,1,,,,,インテリアル,0
2239,8330001032786,新規,0,2025-01-08,2025-01-08,株式会社ＳＯＬＥＳＴ,,株式会社,熊本県,熊本市南区,富合町大町９４１番地９,,43,104,8614145,,,,,,,2025-01-08,1,,,,,ソレスト,0
2240,8330003010699,新規,0,2025-01-08,2025-01-08,合同会社かずマネジメントオフィス,,合同会社,熊本県,熊本市中央区,水前寺公園２番１－１２０１号,,43,101,8620956,,,,,,,2025-01-08,1,,,,,カズマネジメントオフィス,0
2241,8340003004709,新規,0,2025-01-08,2025-01-08,合同会社ｙｅＲＲ,,合同会社,鹿児島県,鹿児島市,武１丁目１２番１６号ともえビル１Ｆ,,46,201,8900045,,,,,,,2025-01-08,1,,,,,ワイイーアールアール,0
2242,8350001019352,新規,0,2025-01-08,2025-01-08,株式会社ひなた美装,,株式会社,宮崎県,東諸県郡綾町,大字南俣２０６２番地４,,45,383,8801303,,,,,,,2025-01-08,1,,,,,ヒナタビソウ,0
2244,8360001034631,新規,0,2025-01-08,2025-01-08,大城金物店株式会社,,株式会社,沖縄県,那覇市,曙３丁目４番３号,,47,201,9000002,,,,,,,2025-01-08,1,,,,,オオシロカナモノテン,0
2245,8360003014573,新規,0,2025-01-08,2025-01-08,ＨｏｕｓｉｎｇＳｏｌｕｔｉｏｎＯｋｉｎａｗａ合同会社,,合同会社,沖縄県,沖縄市,山里１丁目１番１号トラスト山里ヒルズ３０５号室,,47,211,9040033,,,,,,,2025-01-08,1,,,,,ハウジングソリューションオキナワ,0
2246,8360005007154,新規,0,2025-01-08,2025-01-08,一般社団法人Ｃｅｒｉｓｉｅｒ,,その他の設立登記法人,沖縄県,宮古島市,平良字下里３１０７－２６３,,47,214,9060013,,,,,,,2025-01-08,1,,,,,スリジエ,0
2248,8370003006883,新規,0,2025-01-08,2025-01-08,音のれすとらん合同会社,,合同会社,宮城県,仙台市太白区,秋保町馬場字滝原７５番地の３,,04,104,9820244,,,,,,,2025-01-08,1,,,,,オトノレストラン,0
2252,8380001035017,新規,0,2025-01-08,2025-01-08,株式会社パブロ,,株式会社,福島県,福島市,大森字坿９－１,,07,201,9601101,,,,,,,2025-01-08,1,,,,,パブロ,0
2253,8390001017848,新規,0,2025-01-08,2025-01-08,株式会社グリーンファーム小野寺,,株式会社,山形県,東田川郡三川町,大字押切新田字豊秋３８番地１,,06,426,9971321,,,,,,,2025-01-08,1,,,,,グリーンファームオノデラ,0
2261,8430001093380,新規,0,2025-01-08,2025-01-08,株式会社ＺＩＬＬ,,株式会社,北海道,札幌市中央区,南十一条西１１丁目１番１１－１０５号,,01,101,0640811,,,,,,,2025-01-08,1,,,,,ジル,0
2263,8450001014491,新規,0,2025-01-08,2025-01-08,株式会社Ａｓａｋａ,,株式会社,北海道,旭川市,大雪通３丁目４９１番地１特一ビル１階,,01,204,0700010,,,,,,,2025-01-08,1,,,,,アサカ,0
2264,8460101007650,新規,0,2025-01-08,2025-01-08,株式会社山脈カンパニー,,株式会社,北海道,河西郡芽室町,東芽室南２線６番地８,,01,637,0820006,,,,,,,2025-01-08,1,,,,,サンミャクカンパニー,0
2267,8480001012699,新規,0,2025-01-08,2025-01-08,株式会社亜和貿易,,株式会社,徳島県,徳島市,国府町芝原字神楽免７７番地１,,36,201,7793112,,,,,,,2025-01-08,1,,,,,アワボウエキ,0
2270,8490005006969,新規,0,2025-01-08,2025-01-08,特定非営利活動法人ビィジュウ,,その他の設立登記法人,高知県,高知市,杉井流２４番地１９号,,39,201,7800072,,,,,,,2025-01-08,1,,,,,,0
2272,8500001026060,新規,0,2025-01-08,2025-01-08,株式会社コシノ建設,,株式会社,愛媛県,新居浜市,星原町９番４３号,,38,205,7920825,,,,,,,2025-01-08,1,,,,,コシノケンセツ,0
2273,8700150128488,新規,0,2025-01-08,2025-01-08,早川町土地改良区,,その他,山梨県,南巨摩郡早川町,高住７５８,,19,364,4092732,,,,,,,2025-01-08,1,,,,,ハヤカワチヨウトチカイリヨウク,0
2285,9010001251104,新規,0,2025-01-08,2025-01-08,ファイナーエステート株式会社,,株式会社,東京都,千代田区,麹町３丁目５番地５,,13,101,1020083,,,,,,,2025-01-08,1,,,,,ファイナーエステート,0
2286,9010001251319,新規,0,2025-01-08,2025-01-08,株式会社ＫＬダイナミクス,,株式会社,東京都,文京区,本郷６丁目２５番１４号,,13,105,1130033,,,,,,,2025-01-08,1,,,,,ケイエルダイナミクス,0
2288,9010003046015,新規,0,2025-01-08,2025-01-08,Ｐｉｎｎａｃｌｅ　Ａｄｖｉｓｏｒｙ合同会社,,合同会社,東京都,中央区,日本橋室町１丁目１１－１２日本橋水野ビル７階,,13,102,1030022,,,,,,,2025-01-08,1,,,,,ピナクルアドバイザリー,0
2289,9010003046023,新規,0,2025-01-08,2025-01-08,Ｓｔｕｄｉｏ　Ｆｌｏａｔ合同会社,,合同会社,東京都,千代田区,麹町６丁目６番２号,,13,101,1020083,,,,,,,2025-01-08,1,,,,,スタジオフロート,0
2290,9010005039363,新規,0,2025-01-08,2025-01-08,一般社団法人ＣＲかすみそう,,その他の設立登記法人,東京都,中央区,銀座２丁目１０番８号マニエラ銀座ビル４階,,13,102,1040061,,,,,,,2025-01-08,1,,,,,シーアールカスミソウ,0
2298,9010401187328,新規,0,2025-01-08,2025-01-08,エメラルドオイルインダストリーズジャパン株式会社,,株式会社,東京都,港区,海岸１丁目７番１号東京ポートシティ竹芝オフィスタワー８階,,13,103,1050022,,,,,,,2025-01-08,1,,,,,エメラルドオイルインダストリーズジャパン,0
2299,9010401187336,新規,0,2025-01-08,2025-01-08,株式会社Ｂａｌａｎｃｅ　Ｐｏｗｅｒ,,株式会社,東京都,港区,赤坂３丁目６番４号,,13,103,1070052,,,,,,,2025-01-08,1,,,,,バランスパワー,0
2301,9010403034098,新規,0,2025-01-08,2025-01-08,合同会社オフィス５８,,合同会社,東京都,港区,西麻布２丁目１０－５第３竹皮屋ビル１Ｂ,,13,103,1060031,,,,,,,2025-01-08,1,,,,,オフィスファイブエイト,0
2302,9010403034115,新規,0,2025-01-08,2025-01-08,合同会社ＲＥＤ　ＧＯＬＦ,,合同会社,東京都,港区,六本木６丁目２番３１号,,13,103,1060032,,,,,,,2025-01-08,1,,,,,レッドゴルフ,0
2305,9010501053446,新規,0,2025-01-08,2025-01-08,三田株式会社,,株式会社,東京都,台東区,小島１丁目１－２蒔田ビル１Ｆ,,13,106,1110056,,,,,,,2025-01-08,1,,,,,サンダ,0
2307,9010701047074,新規,0,2025-01-08,2025-01-08,株式会社Ｄ．Ｉ．Ａ,,株式会社,東京都,品川区,戸越６丁目６番２号４０５,,13,109,1420041,,,,,,,2025-01-08,1,,,,,ディーアイエー,0
2308,9010801035722,新規,0,2025-01-08,2025-01-08,ＦＩＬ株式会社,,株式会社,東京都,大田区,西蒲田１丁目９番１０号ソラーレ西蒲田４０３,,13,111,1440051,,,,,,,2025-01-08,1,,,,,フィル,0
2309,9010801035730,新規,0,2025-01-08,2025-01-08,啓航株式会社,,株式会社,東京都,大田区,北千束３丁目２９番１５号衆和ビル３０１,,13,111,1450062,,,,,,,2025-01-08,1,,,,,ケイコウ,0
2312,9010901056536,新規,0,2025-01-08,2025-01-08,株式会社ＭＡＺＥＮＴＡ,,株式会社,東京都,世田谷区,北沢２丁目１－９ＫＩＥ下北沢３階,,13,112,1550031,,,,,,,2025-01-08,1,,,,,マゼンタ,0
2313,9010903009599,新規,0,2025-01-08,2025-01-08,合同会社ジュエルズ,,合同会社,東京都,世田谷区,経堂５丁目２１番４号,,13,112,1560052,,,,,,,2025-01-08,1,,,,,ジュエルズ,0
2323,9011001166936,新規,0,2025-01-08,2025-01-08,株式会社ｓｔｉｌｅ,,株式会社,東京都,渋谷区,神山町５番２０号,,13,113,1500047,,,,,,,2025-01-08,1,,,,,スタイル,0
2327,9011101110100,新規,0,2025-01-08,2025-01-08,株式会社Ｒｏｌｌｉｎ,,株式会社,東京都,新宿区,歌舞伎町１丁目３番５号地下１階,,13,104,1600021,,,,,,,2025-01-08,1,,,,,ローリン,0
2328,9011101110125,新規,0,2025-01-08,2025-01-08,株式会社ＴｕｎｅＤ,,株式会社,東京都,新宿区,新宿１丁目３６番７号新宿内野ビルＩＩ７Ｆ,00137557,13,104,1600022,,,,,,,2025-01-08,1,,,,,チュンディ,0
2329,9011101110174,新規,0,2025-01-08,2025-01-08,株式会社アノト,,株式会社,東京都,新宿区,西新宿３丁目３番１３号西新宿水間ビル６階,,13,104,1600023,,,,,,,2025-01-08,1,,,,,アノト,0
2330,9011101110182,新規,0,2025-01-08,2025-01-08,株式会社順天製薬,,株式会社,東京都,新宿区,上落合１丁目１６番１３号１階,,13,104,1610034,,,,,,,2025-01-08,1,,,,,ジュンテンセイヤク,0
2332,9011103015363,新規,0,2025-01-08,2025-01-08,ＥＧＣ合同会社,,合同会社,東京都,新宿区,西新宿３丁目３番１３号西新宿水間ビル２Ｆ,,13,104,1600023,,,,,,,2025-01-08,1,,,,,イージーシー,0
2333,9011203004571,新規,0,2025-01-08,2025-01-08,合同会社ＳＮコンサルタント,,合同会社,東京都,中野区,中野３丁目４６番１２－１０１号,,13,114,1640001,,,,,,,2025-01-08,1,,,,,エスエヌコンサルタント,0
2334,9011301030263,新規,0,2025-01-08,2025-01-08,株式会社アーチエルダテック,,株式会社,東京都,杉並区,浜田山４丁目１５番２７号,,13,115,1680065,,,,,,,2025-01-08,1,,,,,,0
2336,9011401026707,新規,0,2025-01-08,2025-01-08,株式会社工夫屋,,株式会社,東京都,板橋区,新河岸１丁目１８番１３－２０１号,,13,119,1750081,,,,,,,2025-01-08,1,,,,,クフヤ,0
2337,9011403004586,新規,0,2025-01-08,2025-01-08,合同会社ＳＵＮ＆ＳＵＮカンパニー,,合同会社,東京都,板橋区,前野町１丁目４５番２２－６０５号,,13,119,1740063,,,,,,,2025-01-08,1,,,,,サンアンドサンカンパニー,0
2340,9011801045406,新規,0,2025-01-08,2025-01-08,株式会社ＢＥ　ＳＴＡＲＴＥＤ,,株式会社,東京都,足立区,千住宮元町２０番９号,,13,121,1200043,,,,,,,2025-01-08,1,,,,,ビースターテッド,0
2341,9011801045414,新規,0,2025-01-08,2025-01-08,Ｈａｌｌｅｌｕｎｅ株式会社,,株式会社,東京都,足立区,興野２丁目３１番２９号,,13,121,1230844,,,,,,,2025-01-08,1,,,,,ハレルネ,0
2343,9011803006629,新規,0,2025-01-08,2025-01-08,ＰａｌｅＣｈｕｂ合同会社,,合同会社,東京都,足立区,西新井栄町３丁目５番２９号,,13,121,1230843,,,,,,,2025-01-08,1,,,,,ペールチャブ,0
2345,9012401042644,新規,0,2025-01-08,2025-01-08,ＨＲＫＳｐｏｒｔｓ＆Ｅｎｔｅｒｔａｉｎｍｅｎｔ株式会社,,株式会社,東京都,三鷹市,井の頭２丁目７番９号ハイツクリハラ３０２,,13,204,1810001,,,,,,,2025-01-08,1,,,,,エイチアールケイスポーツアンドエンタテインメント,0
2347,9012403006903,新規,0,2025-01-08,2025-01-08,合同会社ＧＯＡＴ,,合同会社,東京都,武蔵野市,桜堤３丁目４－１２,,13,203,1800021,,,,,,,2025-01-08,1,,,,,ゴート,0
2348,9012801023673,新規,0,2025-01-08,2025-01-08,株式会社ＬＡＸＭＩ,,株式会社,東京都,立川市,錦町１丁目６番１３号ハイツワタナベ５０３,,13,202,1900022,,,,,,,2025-01-08,1,,,,,ラクスミ,0
2358,9020001160840,新規,0,2025-01-08,2025-01-08,未来ネクサスクリエーション株式会社,,株式会社,神奈川県,横浜市青葉区,鴨志田町５２８番地１１,,14,117,2270033,,,,,,,2025-01-08,1,,,,,ミライネクサスクリエーション,0
2361,9020003027542,新規,0,2025-01-08,2025-01-08,ＡＭＣ合同会社,,合同会社,神奈川県,川崎市中原区,上小田中３丁目２６番１７号ミランＫ．Ｂ３０２,,14,133,2110053,,,,,,,2025-01-08,1,,,,,エーエムシー,0
2365,9021001084146,新規,0,2025-01-08,2025-01-08,株式会社スリーＳコンサル,,株式会社,神奈川県,藤沢市,辻堂５丁目５番１８－５０１号,,14,205,2510047,,,,,,,2025-01-08,1,,,,,スリーエスコンサル,0
2366,9021001084162,新規,0,2025-01-08,2025-01-08,株式会社スキップ設備,,株式会社,神奈川県,座間市,座間２丁目２８８６番地,,14,216,2520027,,,,,,,2025-01-08,1,,,,,スキップセツビ,0
2367,9021001084170,新規,0,2025-01-08,2025-01-08,翔建設株式会社,,株式会社,神奈川県,中郡大磯町,国府本郷１１２０番地１５,,14,341,2590111,,,,,,,2025-01-08,1,,,,,ショウケンセツ,0
2368,9021001084179,新規,0,2025-01-08,2025-01-08,株式会社モホスタンド,,株式会社,神奈川県,相模原市南区,相模大野６丁目１４－７シーガルズスクエア１Ｆ－Ａ,,14,153,2520303,,,,,,,2025-01-08,1,,,,,モホスタンド,0
2376,9030001164304,新規,0,2025-01-08,2025-01-08,株式会社スカイエンヂニアリング,,株式会社,埼玉県,さいたま市浦和区,北浦和１丁目２１番４号,,11,107,3300074,,,,,,,2025-01-08,1,,,,,スカイエンヂニアリング,0
2380,9040001136814,新規,0,2025-01-08,2025-01-08,株式会社ドリーミュア,,株式会社,千葉県,佐倉市,ユーカリが丘４丁目２番Ｍ－２１１０号,,12,212,2850858,,,,,,,2025-01-08,1,,,,,ドリーミュア,0
2381,9040001136822,新規,0,2025-01-08,2025-01-08,株式会社Ｔｏｋｉ,,株式会社,千葉県,我孫子市,船戸２丁目１３番１１号,,12,222,2701158,,,,,,,2025-01-08,1,,,,,トキ,0
2382,9040001136830,新規,0,2025-01-08,2025-01-08,株式会社ＨＲＤ,,株式会社,千葉県,山武市,蓮沼イの３４３９番地１Ｌ２,,12,237,2891801,,,,,,,2025-01-08,1,,,,,エイチアールディー,0
2383,9040001136913,新規,0,2025-01-08,2025-01-08,株式会社Ｔ‐ｎｅｘｔ,,株式会社,千葉県,市原市,ちはら台南２丁目３番地２０,,12,219,2900142,,,,,,,2025-01-08,1,,,,,ティーネクスト,0
2384,9040001136921,新規,0,2025-01-08,2025-01-08,株式会社こめぼうや,,株式会社,千葉県,木更津市,十日市場５７１番地,,12,206,2920025,,,,,,,2025-01-08,1,,,,,コメボウヤ,0
2387,9040003026534,新規,0,2025-01-08,2025-01-08,Ｔ．Ｆ．Ｓ　ＪＡＰＡＮ　ＩＮＰＯＲＴ　ＥＸＰＯＲＴ合同会社,,合同会社,千葉県,千葉市花見川区,長作台１丁目１０番１２号アルカディア１０３,,12,102,2620047,,,,,,,2025-01-08,1,,,,,ティーエフエスジャパンインポートエクスポート,0
2388,9040005022614,新規,0,2025-01-08,2025-01-08,一般社団法人クレバリー・ホームワランティ,,その他の設立登記法人,千葉県,君津市,東坂田４丁目３番３号,,12,225,2991144,,,,,,,2025-01-08,1,,,,,クレバリーホームワランティ,0
2391,9050003008911,新規,0,2025-01-08,2025-01-08,合同会社相馬サービス,,合同会社,茨城県,北相馬郡利根町,大字八幡台８番地１９,,08,564,3001623,,,,,,,2025-01-08,1,,,,,ソウマサービス,0
2392,9060001037804,新規,0,2025-01-08,2025-01-08,株式会社関口トレーディングカンパニー,,株式会社,栃木県,宇都宮市,山本１丁目３２番３３号,,09,201,3200012,,,,,,,2025-01-08,1,,,,,セキグチトレーディングカンパニー,0
2393,9060001037812,新規,0,2025-01-08,2025-01-08,株式会社佳真,,株式会社,栃木県,宇都宮市,上籠谷町３３１５番地５,,09,201,3213233,,,,,,,2025-01-08,1,,,,,ケイシン,0
2400,9070001042522,新規,0,2025-01-08,2025-01-08,株式会社ＫｉｎＧｒａｃｅ,,株式会社,群馬県,伊勢崎市,鹿島町５４８－１,,10,204,3720015,,,,,,,2025-01-08,1,,,,,キングレイス,0
2401,9070003005709,新規,0,2025-01-08,2025-01-08,合同会社ふあーむ赤城,,合同会社,群馬県,前橋市,西大室町１６５３番地２,,10,201,3792104,,,,,,,2025-01-08,1,,,,,フアームアカギ,0
2402,9080001026697,新規,0,2025-01-08,2025-01-08,株式会社ｂｌａｎｋｅｔｓ,,株式会社,静岡県,焼津市,八楠４丁目２１番地の３,,22,212,4250091,,,,,,,2025-01-08,1,,,,,ブランケット,0
2404,9080101025211,新規,0,2025-01-08,2025-01-08,日本環境エンジン株式会社,,株式会社,静岡県,田方郡函南町,上沢９６１－２２,,22,325,4190122,,,,,,,2025-01-08,1,,,,,ニホンカンキョウエンジン,0
2407,9080401027667,新規,0,2025-01-08,2025-01-08,株式会社レスポアール,,株式会社,静岡県,湖西市,内浦２１６番地,,22,221,4310412,,,,,,,2025-01-08,1,,,,,レスポアール,0
2408,9080401027675,新規,0,2025-01-08,2025-01-08,株式会社哲遊丸,,株式会社,静岡県,浜松市中央区,坪井町５４１７番地の３,,22,138,4310202,,,,,,,2025-01-08,1,,,,,テツユウマル,0
2410,9080403005175,新規,0,2025-01-08,2025-01-08,伊藤管戝合同会社,,合同会社,静岡県,浜松市浜名区,貴布祢１０５０番地の３,,22,139,4340038,,,,,,,2025-01-08,1,,,,,イトウカンザイ,0
2414,9100003007924,新規,0,2025-01-08,2025-01-08,合同会社ヒートプランニング,,合同会社,長野県,松本市,出川３丁目５番３９号－２０１,,20,202,3900827,,,,,,,2025-01-08,1,,,,,ヒートプランニング,0
2415,9100005013276,新規,0,2025-01-08,2025-01-08,一般社団法人Ｕｎｉｔｅ　ｕｐ　ｉｉｚｕｎａ,,その他の設立登記法人,長野県,上水内郡飯綱町,大字赤塩４６５１番地,,20,590,3891203,,,,,,,2025-01-08,1,,,,,ユナイトアップイイヅナ,0
2430,9120001271446,新規,0,2025-01-08,2025-01-08,八方株式会社,,株式会社,大阪府,大阪市西区,江之子島１丁目８－２０－４Ａ,,27,106,5500006,,,,,,,2025-01-08,1,,,,,ハッポウ,0
2431,9120001271512,新規,0,2025-01-08,2025-01-08,錦佳株式会社,,株式会社,大阪府,大阪市中央区,島之内１丁目４番２２号,,27,128,5420082,,,,,,,2025-01-08,1,,,,,キンヨ,0
2432,9120001271520,新規,0,2025-01-08,2025-01-08,株式会社ＮＫ,,株式会社,大阪府,大阪市中央区,船越町１丁目３番６号フレックス大手前ビル５階,,27,128,5400036,,,,,,,2025-01-08,1,,,,,エヌケー,0
2433,9120001271586,新規,0,2025-01-08,2025-01-08,海峰国際株式会社,,株式会社,大阪府,大阪市中央区,島之内２丁目４－１６ケイアンドティ道頓堀１０５号室,,27,128,5420082,,,,,,,2025-01-08,1,,,,,カイホウコクサイ,0
2434,9120001271603,新規,0,2025-01-08,2025-01-08,ＰｌｕｓｔｏｏＰｌｕｓ株式会社,,株式会社,大阪府,大阪市中央区,南船場３丁目１番１６－４０７号,,27,128,5420081,,,,,,,2025-01-08,1,,,,,プラストゥープラス,0
2435,9120001271636,新規,0,2025-01-08,2025-01-08,株式会社フォローアップ,,株式会社,大阪府,大阪市北区,梅田１丁目２番２号大阪駅前第２ビル１２－１２,,27,127,5300001,,,,,,,2025-01-08,1,,,,,フォローアップ,0
2436,9120001271652,新規,0,2025-01-08,2025-01-08,株式会社アプリコット,,株式会社,大阪府,大阪市生野区,桃谷３丁目７番１１号,,27,116,5440034,,,,,,,2025-01-08,1,,,,,アプリコット,0
2437,9120001271719,新規,0,2025-01-08,2025-01-08,株式会社焼肉のあさつ,,株式会社,大阪府,大阪市天王寺区,下味原町２番６号,,27,109,5430025,,,,,,,2025-01-08,1,,,,,ヤキニクノアサツ,0
2438,9120003028266,新規,0,2025-01-08,2025-01-08,合同会社オールエージェント,,合同会社,大阪府,大阪市浪速区,大国３丁目２番２９－８０３号,,27,111,5560014,,,,,,,2025-01-08,1,,,,,オールエージェント,0
2439,9120003028290,新規,0,2025-01-08,2025-01-08,合同会社Ｏ’ｈａｎａ,,合同会社,大阪府,大阪市東淀川区,大道南１丁目３番９号メゾン菊松１０１号,,27,114,5330012,,,,,,,2025-01-08,1,,,,,オハナ,0
2440,9120003028299,新規,0,2025-01-08,2025-01-08,ＦＬＩＣＫ合同会社,,合同会社,大阪府,大阪市北区,長柄西１丁目１番２１号グランデ３０１号室,,27,127,5310061,,,,,,,2025-01-08,1,,,,,フリック,0
2442,9120005024692,新規,0,2025-01-08,2025-01-08,一般社団法人ＰＨＯＥＮＩＴＡＩＬ,,その他の設立登記法人,大阪府,守口市,大枝西町１５番１３号,,27,209,5700054,,,,,,,2025-01-08,1,,,,,フェニテイル,0
2444,9120101070855,新規,0,2025-01-08,2025-01-08,株式会社アイテム,,株式会社,大阪府,大阪狭山市,西山台６丁目１３番９－１０３号,,27,231,5890022,,,,,,,2025-01-08,1,,,,,アイテム,0
2445,9120101070863,新規,0,2025-01-08,2025-01-08,株式会社造士興業,,株式会社,大阪府,松原市,阿保３丁目６番８号,,27,217,5800043,,,,,,,2025-01-08,1,,,,,ゾウシコウギョウ,0
2447,9120901050230,新規,0,2025-01-08,2025-01-08,株式会社ライジー,,株式会社,大阪府,豊中市,庄内幸町２丁目１５番１－６０７号,,27,203,5610833,,,,,,,2025-01-08,1,,,,,ライジー,0
2450,9120903005496,新規,0,2025-01-08,2025-01-08,合同会社Ｂ．Ｉ．Ｇ,,合同会社,大阪府,吹田市,山田東２丁目１２番１号,,27,205,5650821,,,,,,,2025-01-08,1,,,,,ビーアイジー,0
2451,9120903005505,新規,0,2025-01-08,2025-01-08,合同会社Ｓｔｕｄｉｏ０１,,合同会社,大阪府,吹田市,広芝町９－２７東栄物産ビル１７、７１６号室,,27,205,5640052,,,,,,,2025-01-08,1,,,,,スタジオゼロワン,0
2452,9122001038767,新規,0,2025-01-08,2025-01-08,ファンベース株式会社,,株式会社,大阪府,八尾市,竹渕西１丁目１１３番地,,27,212,5810051,,,,,,,2025-01-08,1,,,,,ファンベース,0
2453,9122001038775,新規,0,2025-01-08,2025-01-08,ＹＫエステート株式会社,,株式会社,大阪府,八尾市,渋川町４丁目５番４号,,27,212,5810075,,,,,,,2025-01-08,1,,,,,ワイケイエステート,0
2464,9140001136911,新規,0,2025-01-08,2025-01-08,株式会社留学・就労サポートセンター,,株式会社,兵庫県,伊丹市,安堂寺町３丁目１２８番地,,28,207,6640864,,,,,,,2025-01-08,1,,,,,リュウガクシュウロウサポートセンター,0
2465,9140001136928,新規,0,2025-01-08,2025-01-08,株式会社ＶＥＲＴＥＸ,,株式会社,兵庫県,姫路市,安富町安志８７９番地５,,28,201,6712401,,,,,,,2025-01-08,1,,,,,バーテックス,0
2466,9140001136944,新規,0,2025-01-08,2025-01-08,株式会社Ａｍｂｅｒ　ｉｎｎ,,株式会社,兵庫県,宝塚市,安倉中１丁目１０番２６号,,28,214,6650822,,,,,,,2025-01-08,1,,,,,アンバーイン,0
2467,9140003021475,新規,0,2025-01-08,2025-01-08,合同会社山田急配,,合同会社,兵庫県,姫路市,白浜町寺家２丁目１０８番地６,,28,201,6728012,,,,,,,2025-01-08,1,,,,,ヤマダキュウハイ,0
2468,9140003021483,新規,0,2025-01-08,2025-01-08,ｈａｖｉｎａ合同会社,,合同会社,兵庫県,姫路市,辻井９丁目９番１３号,00137556,28,201,6700083,,,,,,,2025-01-08,1,,,,,ハビナ,0
2469,9140003021491,新規,0,2025-01-08,2025-01-08,合同会社たつみ,,合同会社,兵庫県,丹波市,春日町国領１１３５番地,,28,223,6694273,,,,,,,2025-01-08,1,,,,,タツミ,0
2470,9140003021500,新規,0,2025-01-08,2025-01-08,ＮｅｅＮｅｅ合同会社,,合同会社,兵庫県,神戸市中央区,磯辺通１丁目１番１８号カサベラ国際プラザビル７０７号室,,28,110,6510084,,,,,,,2025-01-08,1,,,,,ネェネェ,0
2471,9150001027787,新規,0,2025-01-08,2025-01-08,Ｓｔａｒｒｙ　Ｓｋｙ株式会社,,株式会社,奈良県,生駒郡斑鳩町,目安北２丁目４番２６号,,29,344,6360133,,,,,,,2025-01-08,1,,,,,スターリースカイ,0
2473,9160001026474,新規,0,2025-01-08,2025-01-08,株式会社Ｐａｓｓｉｏｎ,,株式会社,滋賀県,大津市,池の里９－１８,,25,201,5200827,,,,,,,2025-01-08,1,,,,,パッション,0
2481,9180001164784,新規,0,2025-01-08,2025-01-08,Ｄｏｍ・Ｃｒｅｗ株式会社,,株式会社,愛知県,清須市,西枇杷島町南六軒１４番地８レフィシア枇杷島２０３,,23,233,4520044,,,,,,,2025-01-08,1,,,,,ドムクルー,0
2482,9180001164801,新規,0,2025-01-08,2025-01-08,株式会社エイチ,,株式会社,愛知県,清須市,清洲１９０５番地,,23,233,4520942,,,,,,,2025-01-08,1,,,,,エイチ,0
2483,9180001164818,新規,0,2025-01-08,2025-01-08,株式会社ディーライク,,株式会社,愛知県,名古屋市南区,六条町３丁目３３番地イーグル７３０５号,,23,112,4570853,,,,,,,2025-01-08,1,,,,,ディーライク,0
2484,9180001164834,新規,0,2025-01-08,2025-01-08,株式会社Ｍｅｄｉｃａｌ　Ｒｅｗａｖｅ　Ｊａｐａｎ,,株式会社,愛知県,名古屋市千種区,城山町２丁目１２番地の１,,23,101,4640045,,,,,,,2025-01-08,1,,,,,メディカルリウェーブジャパン,0
2485,9180003027782,新規,0,2025-01-08,2025-01-08,合同会社ｆｕｋｕｒｏｕ,,合同会社,愛知県,小牧市,大字西之島１４４９,,23,219,4850077,,,,,,,2025-01-08,1,,,,,フクロウ,0
2486,9180003027824,新規,0,2025-01-08,2025-01-08,合同会社ｍｕｕｎ,,合同会社,愛知県,一宮市,大和町戸塚字東浦５番地７,,23,203,4910927,,,,,,,2025-01-08,1,,,,,ムーニュ,0
2487,9180301039414,新規,0,2025-01-08,2025-01-08,Ｒ＆Ａ株式会社,,株式会社,愛知県,豊田市,本地町３丁目２５番地１,,23,211,4710848,,,,,,,2025-01-08,1,,,,,アールアンドエー,0
2488,9180303006387,新規,0,2025-01-08,2025-01-08,鐵合同会社,,合同会社,愛知県,豊川市,国府町上坊入４１番地の７,,23,207,4420854,,,,,,,2025-01-08,1,,,,,テツ,0
2489,9180305009644,新規,0,2025-01-08,2025-01-08,一般社団法人キャピタルマネジメント,,その他の設立登記法人,愛知県,岡崎市,十王町１丁目４８番地１,,23,202,4440034,,,,,,,2025-01-08,1,,,,,キャピタルマネジメント,0
2494,9190001031918,新規,0,2025-01-08,2025-01-08,株式会社大笑,,株式会社,三重県,鈴鹿市,神戸２丁目５番１号,,24,207,5130801,,,,,,,2025-01-08,1,,,,,タイショウ,0
2495,9190001031926,新規,0,2025-01-08,2025-01-08,株式会社Ｓｔａｒ　Ｒａｃｉｎｇ．,,株式会社,三重県,四日市市,上海老町６７８番地,,24,202,5121201,,,,,,,2025-01-08,1,,,,,スターレーシング,0
2500,9220001026410,新規,0,2025-01-08,2025-01-08,Ｆｒｉｅｄ　Ｃｈｉｃｋｅｎ株式会社,,株式会社,石川県,金沢市,片町１丁目３番３３号ドゥーア柿木畠２階,,17,201,9200981,,,,,,,2025-01-08,1,,,,,フライドチキン,0
2504,9240001064342,新規,0,2025-01-08,2025-01-08,キシタＦＲＰ株式会社,,株式会社,広島県,江田島市,大柿町大君７６９番地２,,34,215,7372212,,,,,,,2025-01-08,1,,,,,キシタエフアールピーキシタ,0
2505,9240005015878,新規,0,2025-01-08,2025-01-08,一般財団法人高齢者等終身サポート財団,,その他の設立登記法人,広島県,広島市中区,八丁堀６番１１号,,34,101,7300013,,,,,,,2025-01-08,1,,,,,コウレイシャトウシュウシンサポートザイダン,0
2507,9250001020947,新規,0,2025-01-08,2025-01-08,株式会社満畑達磨堂,,株式会社,山口県,下関市,豊北町大字粟野２３７６番地１,,35,201,7595101,,,,,,,2025-01-08,1,,,,,ミツハタダルマドウ,0
2508,9250001020963,新規,0,2025-01-08,2025-01-08,株式会社つかさ,,株式会社,山口県,防府市,勝間２丁目５番１０号,,35,206,7470822,,,,,,,2025-01-08,1,,,,,ツカサ,0
2509,9250003003628,新規,0,2025-01-08,2025-01-08,合同会社Ｙ．Ｉコーポレーション,,合同会社,山口県,山口市,朝田１０１９番地,,35,203,7530871,,,,,,,2025-01-08,1,,,,,ワイアイコーポレーション,0
2511,9260005011438,新規,0,2025-01-08,2025-01-08,一般社団法人ハミングバード,,その他の設立登記法人,岡山県,総社市,泉１５番地４４,,33,208,7191106,,,,,,,2025-01-08,1,,,,,ハミングバード,0
2525,9290001108482,新規,0,2025-01-08,2025-01-08,ドクタースパイス株式会社,,株式会社,福岡県,福岡市城南区,東油山２丁目１６番３号ロイヤルハイツ油山１０５号,,40,136,8140155,,,,,,,2025-01-08,1,,,,,ドクタースパイス,0
2526,9290001108490,新規,0,2025-01-08,2025-01-08,株式会社スカイリン,,株式会社,福岡県,福岡市中央区,荒戸１丁目２番２号,,40,133,8100062,,,,,,,2025-01-08,1,,,,,,0
2527,9290001108499,新規,0,2025-01-08,2025-01-08,株式会社佑和,,株式会社,福岡県,福岡市博多区,博多駅前１丁目２３番２号ＰａｒｋＦｒｏｎｔ博多駅前１丁目５Ｆ－Ｂ,,40,132,8120011,,,,,,,2025-01-08,1,,,,,ユウワ,0
2528,9290001108516,新規,0,2025-01-08,2025-01-08,株式会社朋夫塾,,株式会社,福岡県,大牟田市,北磯町２番地１０６ヴァンクールＣ棟１１８号,,40,202,8360016,,,,,,,2025-01-08,1,,,,,,0
2529,9290003016254,新規,0,2025-01-08,2025-01-08,合同会社満月,,合同会社,福岡県,福岡市東区,高美台１丁目２２番７号,,40,131,8110215,,,,,,,2025-01-08,1,,,,,マンゲツ,0
2530,9290003016262,新規,0,2025-01-08,2025-01-08,合同会社西村,,合同会社,福岡県,福岡市城南区,干隈２丁目５５番２２－１０２号アドラブール干隈,,40,136,8140132,,,,,,,2025-01-08,1,,,,,ニシムラ,0
2531,9290005019602,新規,0,2025-01-08,2025-01-08,医療法人好日会,,その他の設立登記法人,福岡県,糟屋郡宇美町,宇美１丁目８番１５号,,40,341,8112101,,,,,,,2025-01-08,1,,,,,コウジツカイ,0
2534,9290801031165,新規,0,2025-01-08,2025-01-08,株式会社ＳＵＧＩＯ,,株式会社,福岡県,遠賀郡芦屋町,大字芦屋５６５番地１,,40,381,8070133,,,,,,,2025-01-08,1,,,,,スギオ,0
2535,9290803004945,新規,0,2025-01-08,2025-01-08,合同会社Ｐｅａｃｅ,,合同会社,福岡県,田川郡香春町,大字中津原１５５４番地１,,40,601,8221405,,,,,,,2025-01-08,1,,,,,ピース,0
2536,9300001014043,新規,0,2025-01-08,2025-01-08,株式会社ソフトハウスおにぎり,,株式会社,佐賀県,佐賀市,本庄町大字本庄１２４２番地８,,41,201,8400027,,,,,,,2025-01-08,1,,,,,ソフトハウスオニギリ,0
2542,9330001032777,新規,0,2025-01-08,2025-01-08,ＲＯＯＭ株式会社,,株式会社,熊本県,阿蘇郡南阿蘇村,大字河陰３０９５番地３,,43,433,8691411,,,,,,,2025-01-08,1,,,,,ルーム,0
2544,9330003010715,新規,0,2025-01-08,2025-01-08,合同会社ＨＩＧＯ　ＮＡＶＩ,,合同会社,熊本県,熊本市中央区,下通１丁目５番１７号下通ビル１Ｆ,,43,101,8600807,,,,,,,2025-01-08,1,,,,,ヒゴナビ,0
2550,9350001019351,新規,0,2025-01-08,2025-01-08,株式会社ＡＮＤＹ,,株式会社,宮崎県,都城市,太郎坊町７６８６番地７,,45,202,8850002,,,,,,,2025-01-08,1,,,,,アンディ,0
2552,9360001034630,新規,0,2025-01-08,2025-01-08,株式会社ＰｒｅＭｏｒｅ,,株式会社,沖縄県,沖縄市,松本５丁目１６－２２,,47,211,9042151,,,,,,,2025-01-08,1,,,,,プレモア,0
2553,9360003014580,新規,0,2025-01-08,2025-01-08,合同会社ＵＴＭ,,合同会社,沖縄県,那覇市,壺川１丁目１７番１６－１００３号,,47,201,9000025,,,,,,,2025-01-08,1,,,,,ユーティーエム,0
2554,9380001035008,新規,0,2025-01-08,2025-01-08,株式会社シーズファーム,,株式会社,福島県,東白川郡棚倉町,大字流字豊先１番地,,07,481,9635663,,,,,,,2025-01-08,1,,,,,シーズファーム,0
2555,9380001035016,新規,0,2025-01-08,2025-01-08,株式会社フユツキユキト,,株式会社,福島県,福島市,置賜町６番１２号鴻野屋ビル１Ｆ北,,07,201,9608034,,,,,,,2025-01-08,1,,,,,フユツキユキト,0
2556,9380003005925,新規,0,2025-01-08,2025-01-08,ＧＬＯＢＡＬ　ＰＥＣＡＮ　ＪＡＰＡＮ合同会社,,合同会社,福島県,郡山市,駅前２丁目３―７エリート３０ビル２Ｆ―３Ｆ,,07,203,9638002,,,,,,,2025-01-08,1,,,,,グローバルピーカンジャパン,0
2557,9390001017847,新規,0,2025-01-08,2025-01-08,株式会社ＧＯＯＤＬＩＦＥ,,株式会社,山形県,山形市,みはらしの丘２丁目５番地３,,06,201,9902317,,,,,,,2025-01-08,1,,,,,グッドライフ,0
2559,9400005008460,新規,0,2025-01-08,2025-01-08,一般社団法人みちのく愛隣協会,,その他の設立登記法人,岩手県,盛岡市,大沢川原３丁目２番３７号,,03,201,0200025,,,,,,,2025-01-08,1,,,,,ミチノクアイリンキョウカイ,0
2563,9430001093405,新規,0,2025-01-08,2025-01-08,株式会社むかわ設備工業,,株式会社,北海道,勇払郡むかわ町,駒場２１２番地,,01,586,0540063,,,,,,,2025-01-08,1,,,,,ムカワセツビコウギョウ,0
2565,9430003017114,新規,0,2025-01-08,2025-01-08,あるポカポカの晴れた日合同会社,,合同会社,北海道,札幌市豊平区,豊平五条３丁目２番２６号スギテックビル１階,,01,105,0620905,,,,,,,2025-01-08,1,,,,,アルポカポカノハレタヒ,0
2566,9430003017139,新規,0,2025-01-08,2025-01-08,合同会社沖田スタッド,,合同会社,北海道,日高郡新ひだか町,三石福畑２番地,,01,610,0593102,,,,,,,2025-01-08,1,,,,,オキタスタッド,0
2567,9430005015132,新規,0,2025-01-08,2025-01-08,一般社団法人Ｒｕ,,その他の設立登記法人,北海道,札幌市中央区,南五条西１５丁目２－３リズム医大前５０３号室,,01,101,0640805,,,,,,,2025-01-08,1,,,,,ル,0
2568,9470001020529,新規,0,2025-01-08,2025-01-08,株式会社３ｒｄｐｌａｃｅ,,株式会社,香川県,高松市,瓦町１丁目１０番地２１,,37,201,7600052,,,,,,,2025-01-08,1,,,,,,0
2569,9480001012698,新規,0,2025-01-08,2025-01-08,株式会社やまいし,,株式会社,徳島県,海部郡海陽町,奥浦字一宇谷１番地２３,,36,388,7750302,,,,,,,2025-01-08,1,,,,,ヤマイシ,0
2572,9500001026051,新規,0,2025-01-08,2025-01-08,ａｔｅｌｉｅｒ　ａｏｉ　ｄｅｓｉｇｎ株式会社,,株式会社,愛媛県,伊予市,稲荷甲２２４番地１,,38,210,7993121,,,,,,,2025-01-08,1,,,,,アトリエアオイデザイン,0
2573,9500001026068,新規,0,2025-01-08,2025-01-08,株式会社ＪＰＭＡＰＥＴ,,株式会社,愛媛県,松山市,三番町１丁目１４番地１モンステラ７０２号,,38,201,7900003,,,,,,,2025-01-08,1,,,,,ジェイピーマペット,0
