sequenceNumber,corporateNumber,process,correct,updateDate,changeDate,name,nameImageId,kind,prefectureName,cityName,streetNumber,addressImageId,prefectureCode,cityCode,postCode,addressOutside,addressOutsideImageId,closeDate,closeCause,successorCorporateNumber,changeCause,assignmentDate,latest,enName,enPrefectureName,enCityName,enAddressOutside,furigana,hihyoji
11,1010001220883,新規,0,2021-09-07,2021-09-07,株式会社Ｒａｖｉ,,株式会社,東京都,千代田区,外神田１丁目３－１２－６０１,,13,101,1010021,,,,,,,2021-09-07,1,,,,,ラビ,0
12,1010001220900,新規,0,2021-09-07,2021-09-07,株式会社ミンカブアセットパートナーズ,,株式会社,東京都,千代田区,九段北１丁目８番１０号,,13,101,1020073,,,,,,,2021-09-07,1,,,,,ミンカブアセットパートナーズ,0
13,1010001220909,新規,0,2021-09-07,2021-09-07,ＭＩＺＱＡＬＡ株式会社,,株式会社,東京都,文京区,白山１丁目２７番５－３０１号,,13,105,1130001,,,,,,,2021-09-07,1,,,,,ミズカラ,0
14,1010001220917,新規,0,2021-09-07,2021-09-07,株式会社米田,,株式会社,東京都,中央区,月島３丁目２７番１５－１４１２号,,13,102,1040052,,,,,,,2021-09-07,1,,,,,ヨネダ,0
15,1010001220941,新規,0,2021-09-07,2021-09-07,ＭＣＤ６株式会社,,株式会社,東京都,千代田区,丸の内１丁目６番１号,,13,101,1000005,,,,,,,2021-09-07,1,,,,,エムシーディーシックス,0
16,1010001220966,新規,0,2021-09-07,2021-09-07,株式会社Ｆ,,株式会社,東京都,中央区,銀座１丁目１２番４号Ｎ＆ＥＢＬＤ．７階,,13,102,1040061,,,,,,,2021-09-07,1,,,,,エフ,0
17,1010001220974,新規,0,2021-09-07,2021-09-07,八十島ホールディングス株式会社,,株式会社,東京都,千代田区,大手町１丁目５番１号,,13,101,1000004,,,,,,,2021-09-07,1,,,,,ヤソジマホールディングス,0
18,1010001220982,新規,0,2021-09-07,2021-09-07,株式会社ガーラトウキョウマンパワー,,株式会社,東京都,中央区,銀座１丁目２２番１１号,,13,102,1040061,,,,,,,2021-09-07,1,,,,,ガーラトウキョウマンパワー,0
21,1010003035735,新規,0,2021-09-07,2021-09-07,ＡｎＲ合同会社,,合同会社,東京都,千代田区,九段南１丁目５番６号りそな九段ビル５Ｆ・ＫＳフロア,,13,101,1020074,,,,,,,2021-09-07,1,,,,,エーエヌアール,0
22,1010003035751,新規,0,2021-09-07,2021-09-07,合同会社マーズ,,合同会社,東京都,中央区,銀座１丁目２２番１１号銀座大竹ビジデンス２階,,13,102,1040061,,,,,,,2021-09-07,1,,,,,マーズ,0
24,1010005033910,新規,0,2021-09-07,2021-09-07,一般社団法人ジョブライフアドバイザー協会,,その他の設立登記法人,東京都,中央区,銀座１丁目２２番１１号銀座大竹ビジデンス２階,,13,102,1040061,,,,,,,2021-09-07,1,,,,,,0
32,1010403026045,新規,0,2021-09-07,2021-09-07,ＬＥＢＥＬ合同会社,,合同会社,東京都,港区,南青山２丁目２２番１７号川上ビル６Ｆ,,13,103,1070062,,,,,,,2021-09-07,1,,,,,レベル,0
41,1010801032289,新規,0,2021-09-07,2021-09-07,株式会社久が原高級角食三日月村井,,株式会社,東京都,大田区,久が原４丁目９番１４号,,13,111,1460085,,,,,,,2021-09-07,1,,,,,クガハラコウキュウカクショクミカヅキムライ,0
42,1010805002874,新規,0,2021-09-07,2021-09-07,医療法人社団菊長会,,その他の設立登記法人,東京都,大田区,山王２丁目５番２号１階,,13,111,1430023,,,,,,,2021-09-07,1,,,,,キクチョウカイ,0
51,1011001142564,新規,0,2021-09-07,2021-09-07,株式会社Ｔｅｄｄｙ．ｃｏ,,株式会社,東京都,渋谷区,神宮前６丁目２３番４号桑野ビル２階,,13,113,1500001,,,,,,,2021-09-07,1,,,,,テディー,0
52,1011001142589,新規,0,2021-09-07,2021-09-07,ｄａｙ　ｂｙ　ｄａｙ株式会社,,株式会社,東京都,渋谷区,千駄ヶ谷４丁目３０－８－４０１,,13,113,1510051,,,,,,,2021-09-07,1,,,,,デイバイデイ,0
53,1011001142705,新規,0,2021-09-07,2021-09-07,株式会社Ｙａｇｉｓｈ,,株式会社,東京都,渋谷区,神宮前５丁目２０番１号モデリアブリュット表参道００８,,13,113,1500001,,,,,,,2021-09-07,1,,,,,ヤギッシュ,0
56,1011101096198,新規,0,2021-09-07,2021-09-07,株式会社ＰＡＮＡＫＥＩＡ,,株式会社,東京都,新宿区,大久保２丁目３番９号ヴァリエ戸山,,13,104,1690072,,,,,,,2021-09-07,1,,,,,パナケイア,0
57,1011101096207,新規,0,2021-09-07,2021-09-07,ＮｅｘｔＡＣＥ株式会社,,株式会社,東京都,新宿区,新宿２丁目１１番７号第３３宮庭ビル５階,,13,104,1600022,,,,,,,2021-09-07,1,,,,,ネクストエース,0
58,1011103010990,新規,0,2021-09-07,2021-09-07,合同会社Ｎ２３,,合同会社,東京都,新宿区,中町２３番地１パレ神楽坂２０４,,13,104,1620835,,,,,,,2021-09-07,1,,,,,エヌニジュウサン,0
60,1011301027151,新規,0,2021-09-07,2021-09-07,ウェイブリッジ株式会社,,株式会社,東京都,杉並区,浜田山３丁目２番１９号,,13,115,1680065,,,,,,,2021-09-07,1,,,,,ウェイブリッジ,0
65,1011503004881,新規,0,2021-09-07,2021-09-07,合同会社エグゼ,,合同会社,東京都,北区,志茂４丁目３７番４号,,13,117,1150042,,,,,,,2021-09-07,1,,,,,エグゼ,0
66,1011603003387,新規,0,2021-09-07,2021-09-07,合同会社ベクトルライン,,合同会社,東京都,練馬区,春日町２丁目２０番６号ホワイトビレッヂ１０１,,13,120,1790074,,,,,,,2021-09-07,1,,,,,ベクトルライン,0
67,1011605002395,新規,0,2021-09-07,2021-09-07,特定非営利活動法人あるるハイツ,,その他の設立登記法人,東京都,練馬区,高松５丁目１３番１号,,13,120,1790075,,,,,,,2021-09-07,1,,,,,アルルハイツ,0
76,1012401038278,新規,0,2021-09-07,2021-09-07,株式会社アジャストリンク,,株式会社,東京都,小金井市,本町５丁目３８番３４－１０１号クレア武蔵小金井,,13,210,1840004,,,,,,,2021-09-07,1,,,,,アジャストリンク,0
77,1012401038286,新規,0,2021-09-07,2021-09-07,株式会社Ｅ－ＤＩＣ,,株式会社,東京都,府中市,南町３丁目２６番地の１３,,13,206,1830026,,,,,,,2021-09-07,1,,,,,イーディック,0
78,1012801021057,新規,0,2021-09-07,2021-09-07,株式会社ビオフォルム環境デザイン室,,株式会社,東京都,国分寺市,光町２丁目１番地２５,,13,214,1850034,,,,,,,2021-09-07,1,,,,,ビオフォルムカンキョウデザインシツ,0
79,1012801021065,新規,0,2021-09-07,2021-09-07,株式会社ライズメタル,,株式会社,東京都,昭島市,美堀町３丁目２１番２号,,13,207,1960001,,,,,,,2021-09-07,1,,,,,ライズメタル,0
80,1012801021073,新規,0,2021-09-07,2021-09-07,株式会社Ｒａｙコンサルティング,,株式会社,東京都,立川市,柴崎町２丁目５番３号,,13,202,1900023,,,,,,,2021-09-07,1,,,,,レイコンサルティング,0
83,1013301047988,新規,0,2021-09-07,2021-09-07,株式会社フラン,,株式会社,東京都,豊島区,東池袋１丁目１７番１１号,,13,116,1700013,,,,,,,2021-09-07,1,,,,,フラン,0
91,1020001142862,新規,0,2021-09-07,2021-09-07,ＩＮＳＥＣＴ株式会社,,株式会社,神奈川県,横浜市青葉区,市ケ尾町２２１２番地２,,14,117,2250024,,,,,,,2021-09-07,1,,,,,インセクト,0
92,1020001142879,新規,0,2021-09-07,2021-09-07,株式会社北蘭空調,,株式会社,神奈川県,横浜市神奈川区,子安通３丁目３６１番地,,14,102,2210021,,,,,,,2021-09-07,1,,,,,ホクランクウチョウ,0
93,1020001142887,新規,0,2021-09-07,2021-09-07,株式会社ネイーマプラス,,株式会社,神奈川県,横浜市港北区,下田町１丁目１３番１２号,,14,109,2230064,,,,,,,2021-09-07,1,,,,,ネイーマプラス,0
94,1020001142929,新規,0,2021-09-07,2021-09-07,株式会社ジーカス,,株式会社,神奈川県,川崎市幸区,中幸町３丁目３１番地２,,14,132,2120012,,,,,,,2021-09-07,1,,,,,ジーカス,0
98,1020003020439,新規,0,2021-09-07,2021-09-07,Ｚマネージメントコンサルティング合同会社,,合同会社,神奈川県,横浜市青葉区,あざみ野１丁目２７番地１イディオスあざみ野Ⅰ棟３０４号,00124160,14,117,2250011,,,,,,,2021-09-07,1,,,,,ゼットマネージメントコンサルティング,0
100,1021001073874,新規,0,2021-09-07,2021-09-07,株式会社ＮＥＸＴ,,株式会社,神奈川県,三浦郡葉山町,一色６９１番地の３,,14,301,2400111,,,,,,,2021-09-07,1,,,,,ネクスト,0
101,1021003010850,新規,0,2021-09-07,2021-09-07,ラーダー・ダーシー出版合同会社,,合同会社,神奈川県,足柄下郡真鶴町,真鶴２４９番地１,,14,383,2590201,,,,,,,2021-09-07,1,,,,,ラーダーダーシーシュッパン,0
102,1021005012291,新規,0,2021-09-07,2021-09-07,一般社団法人奏愛会,,その他の設立登記法人,神奈川県,鎌倉市,大船２丁目２０番３９号,,14,204,2470056,,,,,,,2021-09-07,1,,,,,ソウアイカイ,0
105,1030001144189,新規,0,2021-09-07,2021-09-07,株式会社ゆきむら,,株式会社,埼玉県,川口市,鳩ヶ谷緑町１丁目１０番８号,,11,203,3340015,,,,,,,2021-09-07,1,,,,,ユキムラ,0
106,1030001144247,新規,0,2021-09-07,2021-09-07,株式会社ぶるーむ,,株式会社,埼玉県,秩父市,中村町３丁目７番１８号,,11,207,3680051,,,,,,,2021-09-07,1,,,,,ブルーム,0
107,1030003017896,新規,0,2021-09-07,2021-09-07,合同会社はらぺこ,,合同会社,埼玉県,さいたま市南区,大字大谷口９２０番地２３,,11,108,3360042,,,,,,,2021-09-07,1,,,,,ハラペコ,0
108,1030003017921,新規,0,2021-09-07,2021-09-07,アヤメ合同会社,,合同会社,埼玉県,川口市,領家２丁目３０番８－１０１号,,11,203,3320004,,,,,,,2021-09-07,1,,,,,アヤメ,0
117,1040001120040,新規,0,2021-09-07,2021-09-07,株式会社グリーンズオーソ,,株式会社,千葉県,柏市,若柴２７７番地７中央１６３街区１ＰＣ柏の葉キャンパスサウスフロント１０１１号,,12,217,2770871,,,,,,,2021-09-07,1,,,,,グリーンズオーソ,0
118,1040001120049,新規,0,2021-09-07,2021-09-07,スマークル株式会社,,株式会社,千葉県,船橋市,坪井東６丁目４番２１号,,12,204,2740060,,,,,,,2021-09-07,1,,,,,スマークル,0
119,1040001120057,新規,0,2021-09-07,2021-09-07,株式会社ＫＵＲＫＫＵ　ＦＩＥＬＤＳ　ＲＡＮＣＨ,,株式会社,千葉県,木更津市,矢那２５０３番地,,12,206,2920812,,,,,,,2021-09-07,1,,,,,クルックフィールズランチ,0
120,1040001120073,新規,0,2021-09-07,2021-09-07,株式会社コスモ電設,,株式会社,千葉県,富里市,御料６９３番地２,,12,233,2860211,,,,,,,2021-09-07,1,,,,,コスモデンセツ,0
121,1040001120123,新規,0,2021-09-07,2021-09-07,株式会社Ｍ・Ｒ・Ｆ,,株式会社,千葉県,市原市,喜多８１９番６号,,12,219,2900167,,,,,,,2021-09-07,1,,,,,,0
125,1050001049816,新規,0,2021-09-07,2021-09-07,日本交通サービス株式会社,,株式会社,茨城県,土浦市,桜ケ丘町５０番２０号,,08,203,3000832,,,,,,,2021-09-07,1,,,,,ニッポンコウツウサービス,0
129,1050003006055,新規,0,2021-09-07,2021-09-07,アイサービス合同会社,,合同会社,茨城県,常陸太田市,瑞龍町２２８２番地,,08,212,3130003,,,,,,,2021-09-07,1,,,,,アイサービス,0
131,1060001034049,新規,0,2021-09-07,2021-09-07,株式会社ａｎｄ　ｙｏｕ,,株式会社,栃木県,塩谷郡塩谷町,大字田所２１９１番地３３,,09,384,3292331,,,,,,,2021-09-07,1,,,,,アンドユー,0
136,1070001038412,新規,0,2021-09-07,2021-09-07,ＳＩＫＩコネクト株式会社,,株式会社,群馬県,前橋市,山王町１丁目２２番地１３,,10,201,3792123,,,,,,,2021-09-07,1,,,,,シキコネクト,0
142,1080401025323,新規,0,2021-09-07,2021-09-07,株式会社ミオスコーポレーション,,株式会社,静岡県,掛川市,小貫１３５７番地,,22,213,4371407,,,,,,,2021-09-07,1,,,,,ミオスコーポレーション,0
145,1100001034589,新規,0,2021-09-07,2021-09-07,小松産業株式会社,,株式会社,長野県,松本市,大字今井７００２番地,,20,202,3901131,,,,,,,2021-09-07,1,,,,,コマツサンギョウ,0
167,1120001240128,新規,0,2021-09-07,2021-09-07,株式会社フィアネット,,株式会社,大阪府,大阪市平野区,長吉長原１丁目８番１５－８０３号,,27,126,5470016,,,,,,,2021-09-07,1,,,,,フィアネット,0
168,1120001240144,新規,0,2021-09-07,2021-09-07,Ｗｏｎｄｅｒ　Ｈｏｕｓｅ株式会社,,株式会社,大阪府,枚方市,牧野阪１丁目２２番５号,,27,210,5731146,,,,,,,2021-09-07,1,,,,,ワンダーハウス,0
169,1120001240235,新規,0,2021-09-07,2021-09-07,株式会社ネイバーズ,,株式会社,大阪府,交野市,星田３丁目５番１１号,,27,230,5760016,,,,,,,2021-09-07,1,,,,,ネイバーズ,0
170,1120001240243,新規,0,2021-09-07,2021-09-07,株式会社ＫＡＢＵＴＯ,,株式会社,大阪府,寝屋川市,木屋元町９番２－２０５号,,27,215,5720088,,,,,,,2021-09-07,1,,,,,カブト,0
176,1120003020172,新規,0,2021-09-07,2021-09-07,合同会社ユニーク商店,,合同会社,大阪府,大阪市淀川区,西中島１丁目４番６号シャンブル雅１０７号,,27,123,5320011,,,,,,,2021-09-07,1,,,,,ユニークショウテン,0
177,1120003020180,新規,0,2021-09-07,2021-09-07,合同会社Ｒｅｄ　Ｔａｂｂｙ,,合同会社,大阪府,大阪市北区,本庄東１丁目８－１１－５０１,,27,127,5310074,,,,,,,2021-09-07,1,,,,,レッドタビー,0
178,1120005022472,新規,0,2021-09-07,2021-09-07,ＫＩＤＵＮＡ事業協同組合,,その他の設立登記法人,大阪府,大阪市阿倍野区,阪南町５丁目１７番２６西田辺一進ビル２０２号,,27,119,5450021,,,,,,,2021-09-07,1,,,,,キズナ,0
179,1120005022480,新規,0,2021-09-07,2021-09-07,一般社団法人日本こころとからだバランス研究所,,その他の設立登記法人,大阪府,大阪市浪速区,難波中２丁目７番２５号ナンバビル１０１,,27,111,5560011,,,,,,,2021-09-07,1,,,,,ニホンココロトカラダバランスケンキュウジョ,0
182,1120101064245,新規,0,2021-09-07,2021-09-07,株式会社岡冷熱,,株式会社,大阪府,泉大津市,助松町１丁目４番１５号,,27,206,5950071,,,,,,,2021-09-07,1,,,,,オカレイネツ,0
184,1120103004331,新規,0,2021-09-07,2021-09-07,合同会社北野モータース,,合同会社,大阪府,岸和田市,藤井町２丁目２４番５号,,27,202,5960046,,,,,,,2021-09-07,1,,,,,キタノモータース,0
188,1120903003813,新規,0,2021-09-07,2021-09-07,ＬＯＧＩＡＥＴＩＩＮＩ合同会社,,合同会社,大阪府,高槻市,玉川２丁目３２番５０２号,,27,207,5690857,,,,,,,2021-09-07,1,,,,,ロギアエティーニ,0
193,1130003007466,新規,0,2021-09-07,2021-09-07,合同会社みのや,,合同会社,京都府,京都市中京区,鍛治町１８７－６,,26,104,6040000,,,,,,,2021-09-07,1,,,,,ミノヤ,0
198,1140001122885,新規,0,2021-09-07,2021-09-07,株式会社モーニング・グローリー,,株式会社,兵庫県,姫路市,岡田３５０番地１ジヴェルニー岡田９０２号,,28,201,6700982,,,,,,,2021-09-07,1,,,,,モーニンググローリー,0
199,1140001122902,新規,0,2021-09-07,2021-09-07,株式会社雄綺技建,,株式会社,兵庫県,姫路市,砥堀９１３番地８,,28,201,6700802,,,,,,,2021-09-07,1,,,,,ユウキギケン,0
200,1140001122910,新規,0,2021-09-07,2021-09-07,株式会社ＨＡＭ’ｓ　ｈｏｍｅ,,株式会社,兵庫県,神戸市中央区,下山手通７丁目６番８－４０１号,,28,110,6500011,,,,,,,2021-09-07,1,,,,,ハムズホーム,0
201,1140001122927,新規,0,2021-09-07,2021-09-07,株式会社ＤＸアカウント,,株式会社,兵庫県,神戸市西区,北別府３丁目１９番地の８,,28,111,6512117,,,,,,,2021-09-07,1,,,,,ディーエックスアカウント,0
202,1140001122935,新規,0,2021-09-07,2021-09-07,株式会社ナナイロキモノ,,株式会社,兵庫県,揖保郡太子町,福地４５２番地１,,28,464,6711534,,,,,,,2021-09-07,1,,,,,ナナイロキモノ,0
205,1140003016706,新規,0,2021-09-07,2021-09-07,合同会社ＤＯＴ　ｔｏｏ　ＦＵＮ,,合同会社,兵庫県,神戸市北区,藤原台南町４丁目１番３－５０４号,,28,109,6511303,,,,,,,2021-09-07,1,,,,,ドットゥファン,0
206,1140003016714,新規,0,2021-09-07,2021-09-07,ＳｔａｒｔＢｏｏｋ合同会社,,合同会社,兵庫県,神戸市中央区,港島中町６丁目１４番地ポートピアプラザＡ棟５０２号,,28,110,6500046,,,,,,,2021-09-07,1,,,,,スタートブック,0
209,1150001024899,新規,0,2021-09-07,2021-09-07,株式会社アミューズ,,株式会社,奈良県,吉野郡吉野町,大字新子３１７番地,,29,441,6393433,,,,,,,2021-09-07,1,,,,,アミューズ,0
217,1180001147689,新規,0,2021-09-07,2021-09-07,株式会社Ｍ＆Ｏリサーチ,,株式会社,愛知県,名古屋市北区,田幡１丁目７番８号,,23,103,4620843,,,,,,,2021-09-07,1,,,,,エムアンドーリサーチ,0
218,1180001147730,新規,0,2021-09-07,2021-09-07,株式会社あくせる,,株式会社,愛知県,名古屋市東区,筒井３丁目３４番１５号,,23,102,4610003,,,,,,,2021-09-07,1,,,,,アクセル,0
219,1180001147763,新規,0,2021-09-07,2021-09-07,株式会社Ａ０１,,株式会社,愛知県,東海市,高横須賀町北屋敷９８番地の２プリンスハイツ横須賀１０５号,,23,222,4770037,,,,,,,2021-09-07,1,,,,,エーゼロワン,0
223,1180301035346,新規,0,2021-09-07,2021-09-07,株式会社ケイエス防水,,株式会社,愛知県,岡崎市,井田町字東城２２番地３,,23,202,4440076,,,,,,,2021-09-07,1,,,,,ケイエスボウスイ,0
226,1180305009239,新規,0,2021-09-07,2021-09-07,一般社団法人南部塾,,その他の設立登記法人,愛知県,岡崎市,戸崎町字牛転１０番地９１,,23,202,4440840,,,,,,,2021-09-07,1,,,,,ナンブジュク,0
231,1210001018597,新規,0,2021-09-07,2021-09-07,株式会社光商事,,株式会社,福井県,大飯郡高浜町,鐘寄第１２号２番地,,18,481,9192212,,,,,,,2021-09-07,1,,,,,ヒカリショウジ,0
238,1240001058574,新規,0,2021-09-07,2021-09-07,株式会社ｆ‐伊勢,,株式会社,広島県,広島市南区,大須賀町１３番９号,,34,103,7320821,,,,,,,2021-09-07,1,,,,,エフイセ,0
243,1250001019113,新規,0,2021-09-07,2021-09-07,株式会社アグリハウス安永,,株式会社,山口県,下関市,菊川町大字下大野５０５番地６,,35,201,7500312,,,,,,,2021-09-07,1,,,,,アグリハウスヤスナガ,0
252,1290001094490,新規,0,2021-09-07,2021-09-07,株式会社フェイスパル,,株式会社,福岡県,福岡市博多区,東那珂２丁目１４番３３号６Ｆ,00124155,40,132,8120892,,,,,,,2021-09-07,1,,,,,フェイスパル,0
253,1290001094540,新規,0,2021-09-07,2021-09-07,株式会社キャンバス,,株式会社,福岡県,福岡市南区,市崎１丁目１番５号,,40,134,8150084,,,,,,,2021-09-07,1,,,,,キャンバス,0
260,1290005018347,新規,0,2021-09-07,2021-09-07,一般社団法人九州介護福祉コンサルティング協会,,その他の設立登記法人,福岡県,福岡市南区,大橋４丁目１３番１４号,,40,134,8150033,,,,,,,2021-09-07,1,,,,,キュウシュウカイゴフクシコンサルティングキョウカイ,0
265,1300001012616,新規,0,2021-09-07,2021-09-07,株式会社Ｓｐｉｃａ,,株式会社,佐賀県,嬉野市,嬉野町大字下宿甲１４６０番地３,,41,209,8430301,,,,,,,2021-09-07,1,,,,,スピカ,0
276,1340001024087,新規,0,2021-09-07,2021-09-07,株式会社ＴＫＰ,,株式会社,鹿児島県,霧島市,溝辺町崎森２００７番地５,,46,218,8996405,,,,,,,2021-09-07,1,,,,,ティーケーピー,0
279,1340005009324,新規,0,2021-09-07,2021-09-07,一般社団法人Ｅ－Ｙｏｒｏｎ,,その他の設立登記法人,鹿児島県,大島郡与論町,大字茶花２５－２,,46,535,8919301,,,,,,,2021-09-07,1,,,,,イーヨロン,0
280,1350001017296,新規,0,2021-09-07,2021-09-07,株式会社ＮＥＷ　ＡＧＥ,,株式会社,宮崎県,都城市,年見町５街区５号,,45,202,8850017,,,,,,,2021-09-07,1,,,,,ニューエイジ,0
287,1370001047580,新規,0,2021-09-07,2021-09-07,株式会社丸徳,,株式会社,宮城県,気仙沼市,田中前２丁目８番地１０,,04,205,9880053,,,,,,,2021-09-07,1,,,,,マルトク,0
294,1380001032169,新規,0,2021-09-07,2021-09-07,株式会社Ｋ’ｓ　ｅｓｔａｔｅ,,株式会社,福島県,いわき市,植田町根小屋３０１番地の３,,07,204,9748261,,,,,,,2021-09-07,1,,,,,ケーズエステート,0
313,1430001084907,新規,0,2021-09-07,2021-09-07,株式会社イーズ,,株式会社,北海道,札幌市豊平区,月寒東一条２０丁目２番４号,,01,105,0620051,,,,,,,2021-09-07,1,,,,,イーズ,0
318,1430003013120,新規,0,2021-09-07,2021-09-07,Ｔｅｃｈ　Ｄｏ合同会社,,合同会社,北海道,札幌市白石区,東札幌一条５丁目１番１０－１２０１号,,01,104,0030001,,,,,,,2021-09-07,1,,,,,テックドゥ,0
320,1460101007054,新規,0,2021-09-07,2021-09-07,株式会社ＦＦ工房,,株式会社,北海道,十勝郡浦幌町,字朝日９４番地１,,01,649,0895546,,,,,,,2021-09-07,1,,,,,エフエフコウボウ,0
335,2010001220890,新規,0,2021-09-07,2021-09-07,株式会社白犬堂,,株式会社,東京都,中央区,築地１丁目２番１号,,13,102,1040045,,,,,,,2021-09-07,1,,,,,シロイヌドウ,0
336,2010001220916,新規,0,2021-09-07,2021-09-07,ケアフォート株式会社,,株式会社,東京都,千代田区,神田淡路町２丁目１０５番地ワテラスアネックス１２１４,,13,101,1010063,,,,,,,2021-09-07,1,,,,,ケアフォート,0
345,2010401162485,新規,0,2021-09-07,2021-09-07,株式会社ＧａｍｅＷｉｔｈ　ＮＦＴ,,株式会社,東京都,港区,三田１丁目４番１号,,13,103,1080073,,,,,,,2021-09-07,1,,,,,ゲームウイズエヌエフティー,0
346,2010401162527,新規,0,2021-09-07,2021-09-07,株式会社ＴＳＵＳＨＩＭＡ,,株式会社,東京都,港区,元麻布３丁目２番３号,,13,103,1060046,,,,,,,2021-09-07,1,,,,,ツシマ,0
358,2010405020169,新規,0,2021-09-07,2021-09-07,一般社団法人再生医療・ＡＩ学会,,その他の設立登記法人,東京都,港区,海岸１丁目１６番２号インターコンチネンタルトウキョウベイ,,13,103,1050022,,,,,,,2021-09-07,1,,,,,サイセイイリョウエーアイガッカイ,0
365,2010805002873,新規,0,2021-09-07,2021-09-07,医療法人社団ピース,,その他の設立登記法人,東京都,大田区,多摩川１丁目３３番２４号,,13,111,1460095,,,,,,,2021-09-07,1,,,,,ピース,0
369,2010901049406,新規,0,2021-09-07,2021-09-07,株式会社Ｅｓｐｏｃ,,株式会社,東京都,世田谷区,松原１丁目３６番９号白川ビル４階,,13,112,1560043,,,,,,,2021-09-07,1,,,,,エスポック,0
377,2011101096189,新規,0,2021-09-07,2021-09-07,ＣＲＡＦ株式会社,,株式会社,東京都,新宿区,新宿５丁目１５番１４号,,13,104,1600022,,,,,,,2021-09-07,1,,,,,クラフ,0
378,2011101096206,新規,0,2021-09-07,2021-09-07,株式会社ＯＮＥ　ＰＬＵＳ,,株式会社,東京都,新宿区,西新宿６丁目１５番１号,,13,104,1600023,,,,,,,2021-09-07,1,,,,,ワンプラス,0
379,2011101096214,新規,0,2021-09-07,2021-09-07,株式会社神楽坂デリシャス,,株式会社,東京都,新宿区,東五軒町５番４－２０５号,,13,104,1620813,,,,,,,2021-09-07,1,,,,,カグラザカデリシャス,0
380,2011201023225,新規,0,2021-09-07,2021-09-07,株式会社プラスエスアセットパートナーズ,,株式会社,東京都,中野区,鷺宮６丁目２６番１４号,,13,114,1650032,,,,,,,2021-09-07,1,,,,,プラスエスアセットパートナーズ,0
383,2011305002769,新規,0,2021-09-07,2021-09-07,一般社団法人ＡＣＭＥ２６国際エアリアル＆ヨガ協会,,その他の設立登記法人,東京都,杉並区,永福４丁目８番１４号アクセス永福町地下１階,,13,115,1680064,,,,,,,2021-09-07,1,,,,,アックミーニジュウロクコクサイエアリアルアンドヨガキョウカイ,0
386,2011405002165,新規,0,2021-09-07,2021-09-07,医療法人社団青空大樹,,その他の設立登記法人,東京都,板橋区,蓮根２丁目３１番３号内田・萩原共同ビル２階,,13,119,1740046,,,,,,,2021-09-07,1,,,,,アオゾラタイジュ,0
388,2011503004880,新規,0,2021-09-07,2021-09-07,合同会社エクシズ,,合同会社,東京都,北区,志茂３丁目１５番７号,,13,117,1150042,,,,,,,2021-09-07,1,,,,,エクシズ,0
389,2011601025382,新規,0,2021-09-07,2021-09-07,株式会社ＥＶＥＳＴ,,株式会社,東京都,練馬区,東大泉５丁目２８番５号,,13,120,1780063,,,,,,,2021-09-07,1,,,,,エベスト,0
390,2011603003386,新規,0,2021-09-07,2021-09-07,合同会社Ｈｕｋｕｙｏｕ,,合同会社,東京都,練馬区,谷原５丁目４番２５号カーサコンフォートＤ棟１０１,,13,120,1770032,,,,,,,2021-09-07,1,,,,,フクユー,0
394,2011801039686,新規,0,2021-09-07,2021-09-07,株式会社Ｆｌａｋｅ,,株式会社,東京都,葛飾区,新宿１丁目２２－１－３１０,,13,122,1250051,,,,,,,2021-09-07,1,,,,,フレーク,0
395,2012401038285,新規,0,2021-09-07,2021-09-07,株式会社アシスト,,株式会社,東京都,三鷹市,牟礼６丁目２４番２０号,,13,204,1810002,,,,,,,2021-09-07,1,,,,,アシスト,0
396,2012405004639,新規,0,2021-09-07,2021-09-07,一般社団法人緑誠会,,その他の設立登記法人,東京都,三鷹市,井の頭５丁目７番３６号,,13,204,1810001,,,,,,,2021-09-07,1,,,,,,0
397,2012801021064,新規,0,2021-09-07,2021-09-07,Ｓｔｅｌｌａｒｉａ株式会社,,株式会社,東京都,立川市,上砂町１丁目５番地の２,,13,202,1900032,,,,,,,2021-09-07,1,,,,,ステラリア,0
400,2013301047987,新規,0,2021-09-07,2021-09-07,株式会社ｔｏｍｏ　ｃｏｎｓｕｌｔｉｎｇ,,株式会社,東京都,豊島区,東池袋４丁目２４－８ビーバーズビル１Ｆ,,13,116,1700013,,,,,,,2021-09-07,1,,,,,トモコンサルティング,0
403,2020001142878,新規,0,2021-09-07,2021-09-07,株式会社菓匠德増,00124151,株式会社,神奈川県,横浜市港南区,丸山台３丁目３０番４号,,14,111,2330013,,,,,,,2021-09-07,1,,,,,カショウトクマス,0
404,2020001142928,新規,0,2021-09-07,2021-09-07,ＦＭＳ株式会社,,株式会社,神奈川県,川崎市中原区,市ノ坪３８６番地５クレストフォルム武蔵小杉ブライトコート５１１,,14,133,2110016,,,,,,,2021-09-07,1,,,,,エフエムエス,0
408,2020003020413,新規,0,2021-09-07,2021-09-07,合同会社湯澤企画,,合同会社,神奈川県,川崎市幸区,北加瀬１丁目２９番７－１号,,14,132,2120057,,,,,,,2021-09-07,1,,,,,ユザワキカク,0
409,2020003020446,新規,0,2021-09-07,2021-09-07,クマトアイ合同会社,,合同会社,神奈川県,横浜市金沢区,富岡東２丁目４番５６－５１９号,,14,108,2360051,,,,,,,2021-09-07,1,,,,,クマトアイ,0
413,2021001073849,新規,0,2021-09-07,2021-09-07,飯田商店株式会社,,株式会社,神奈川県,三浦市,三崎５丁目１２番３号,,14,210,2380243,,,,,,,2021-09-07,1,,,,,イイダショウテン,0
414,2021001073873,新規,0,2021-09-07,2021-09-07,湘南ランドマネージメント株式会社,,株式会社,神奈川県,鎌倉市,笛田３丁目１７番３号,,14,204,2480027,,,,,,,2021-09-07,1,,,,,ショウナンランドマネージメント,0
429,2040001120048,新規,0,2021-09-07,2021-09-07,株式会社ティ・エヌ建興,,株式会社,千葉県,袖ケ浦市,飯富２６１６番地１,,12,229,2990256,,,,,,,2021-09-07,1,,,,,ティエヌケンコウ,0
430,2040003018447,新規,0,2021-09-07,2021-09-07,合同会社みふみスタジオ,,合同会社,千葉県,流山市,鰭ケ崎１７５１番地の５,,12,220,2700161,,,,,,,2021-09-07,1,,,,,ミフミスタジオ,0
434,2050003006062,新規,0,2021-09-07,2021-09-07,合同会社笠間ファームワイナリー,,合同会社,茨城県,笠間市,南吉原３２０番２号,,08,216,3091622,,,,,,,2021-09-07,1,,,,,カサマファームワイナリー,0
437,2060001034048,新規,0,2021-09-07,2021-09-07,株式会社しばさきファーム,,株式会社,栃木県,栃木市,岩舟町曲ケ島８８６番地,,09,203,3294306,,,,,,,2021-09-07,1,,,,,シバサキファーム,0
447,2070001038411,新規,0,2021-09-07,2021-09-07,Ｓ＆Ｓ株式会社,,株式会社,群馬県,高崎市,旭町４番地２市住２棟２３１号,,10,202,3700052,,,,,,,2021-09-07,1,,,,,エスアンドエス,0
450,2070003004221,新規,0,2021-09-07,2021-09-07,合同会社ｆａｂ,,合同会社,群馬県,太田市,東矢島町１０１７番地２５,,10,205,3730816,,,,,,,2021-09-07,1,,,,,ファブ,0
454,2080101022751,新規,0,2021-09-07,2021-09-07,株式会社ｓｔｕｄｉｏ‐ＡｒＣｏ,,株式会社,静岡県,富士市,中丸８９２番地の７５,,22,210,4160933,,,,,,,2021-09-07,1,,,,,スタジオアルコ,0
455,2080105006172,新規,0,2021-09-07,2021-09-07,一般社団法人須津地区まちづくり協議会,,その他の設立登記法人,静岡県,富士市,中里１１４３番地の１,,22,210,4170826,,,,,,,2021-09-07,1,,,,,スドチクマチヅクリキョウギカイ,0
457,2100001034588,新規,0,2021-09-07,2021-09-07,株式会社Ａｒｔｗｉｎｅ,,株式会社,長野県,北佐久郡軽井沢町,大字長倉２１３９番地２９６２,,20,321,3890111,,,,,,,2021-09-07,1,,,,,アートワイン,0
468,2120001240127,新規,0,2021-09-07,2021-09-07,株式会社オオサカチャオメン,,株式会社,大阪府,大阪市中央区,平野町４丁目７番７号,,27,128,5410046,,,,,,,2021-09-07,1,,,,,オオサカチャオメン,0
469,2120001240143,新規,0,2021-09-07,2021-09-07,ガロー・ホールディングス株式会社,,株式会社,大阪府,大阪市中央区,瓦町４丁目５番３号ガロービル６Ｆ,,27,128,5410048,,,,,,,2021-09-07,1,,,,,ガローホールディングス,0
470,2120001240151,新規,0,2021-09-07,2021-09-07,株式会社ＤＭＧホールディングス,,株式会社,大阪府,大阪市西区,西本町１丁目４番１号オリックスビル本町７階,,27,106,5500005,,,,,,,2021-09-07,1,,,,,ディーエムジーホールディングス,0
471,2120001240168,新規,0,2021-09-07,2021-09-07,株式会社Ｒｉ－ｍａ,,株式会社,大阪府,大阪市東淀川区,菅原５丁目１０番８号,,27,114,5330022,,,,,,,2021-09-07,1,,,,,リーマ,0
472,2120001240242,新規,0,2021-09-07,2021-09-07,ＶＥＣＴＯＲ　ＴＲＡＤＩＮＧ株式会社,,株式会社,大阪府,大阪市中央区,島之内１丁目１２番２６－１００２号,,27,128,5420082,,,,,,,2021-09-07,1,,,,,ベクタートレーディング,0
473,2120001240250,新規,0,2021-09-07,2021-09-07,株式会社Ｒｅｖｅ,,株式会社,大阪府,大阪市北区,神山町９－５,,27,127,5300026,,,,,,,2021-09-07,1,,,,,レーヴ,0
478,2120003020147,新規,0,2021-09-07,2021-09-07,ザサエンタープライズ合同会社,,合同会社,大阪府,枚方市,春日元町２丁目１７番５号,,27,210,5730135,,,,,,,2021-09-07,1,,,,,ザサエンタープライズ,0
479,2120005022471,新規,0,2021-09-07,2021-09-07,特定非営利活動法人Ｂａｎｄｅ,,その他の設立登記法人,大阪府,大阪市天王寺区,生玉町１２番１６,,27,109,5430071,,,,,,,2021-09-07,1,,,,,バンデ,0
480,2120005022488,新規,0,2021-09-07,2021-09-07,一般社団法人福祉経営管理実践研究会,,その他の設立登記法人,大阪府,大阪市天王寺区,生玉寺町１番１３号サンセットヒル,,27,109,5430073,,,,,,,2021-09-07,1,,,,,フクシケイエイカンリジッセンケンキュウカイ,0
482,2120103004330,新規,0,2021-09-07,2021-09-07,合同会社中上,,合同会社,大阪府,富田林市,大字佐備７０８番地,,27,214,5840052,,,,,,,2021-09-07,1,,,,,ナカウエ,0
490,2130001070077,新規,0,2021-09-07,2021-09-07,株式会社ゆきこちゃんハウス,,株式会社,京都府,京都市右京区,山ノ内御堂殿町３１番地,,26,108,6150091,,,,,,,2021-09-07,1,,,,,ユキコチャンハウス,0
501,2140001122892,新規,0,2021-09-07,2021-09-07,井上電設株式会社,,株式会社,兵庫県,姫路市,飾磨区英賀東町１丁目３６番地４,,28,201,6728087,,,,,,,2021-09-07,1,,,,,イノウエデンセツ,0
502,2140001122901,新規,0,2021-09-07,2021-09-07,株式会社Ａ－Ｐａｒｔｎｅｒ,,株式会社,兵庫県,川西市,多田院西２丁目４番６号,,28,217,6660128,,,,,,,2021-09-07,1,,,,,エーパートナー,0
503,2140001122918,新規,0,2021-09-07,2021-09-07,株式会社ｆｏｒｔｒｅｓｓ,,株式会社,兵庫県,川西市,美園町１２番２号,,28,217,6660013,,,,,,,2021-09-07,1,,,,,フォートレス,0
504,2140001122950,新規,0,2021-09-07,2021-09-07,株式会社ＯＵＩ,,株式会社,兵庫県,姫路市,安田４丁目４６番地１０,,28,201,6700955,,,,,,,2021-09-07,1,,,,,ウイ,0
505,2140001122975,新規,0,2021-09-07,2021-09-07,株式会社Ｄｏ　Ｗｉｔｈ,,株式会社,兵庫県,芦屋市,茶屋之町５－８－２０２,,28,206,6590067,,,,,,,2021-09-07,1,,,,,ドゥウイズ,0
508,2140003016696,新規,0,2021-09-07,2021-09-07,合同会社ＨＡＮ,,合同会社,兵庫県,尼崎市,大庄西町４丁目２４番３号,,28,202,6600077,,,,,,,2021-09-07,1,,,,,ハン,0
511,2150001024898,新規,0,2021-09-07,2021-09-07,株式会社みなか,,株式会社,奈良県,生駒市,あすか野北１丁目１０－１３,,29,209,6300134,,,,,,,2021-09-07,1,,,,,ミナカ,0
512,2150001024907,新規,0,2021-09-07,2021-09-07,株式会社山本板金,,株式会社,奈良県,奈良市,法蓮町３６３－１－１１５,,29,201,6308113,,,,,,,2021-09-07,1,,,,,ヤマモトバンキン,0
515,2160001023593,新規,0,2021-09-07,2021-09-07,株式会社レイズ,,株式会社,滋賀県,米原市,池下４１３番地１４,,25,214,5210221,,,,,,,2021-09-07,1,,,,,レイズ,0
527,2180001147663,新規,0,2021-09-07,2021-09-07,赤堀タイヤサービス株式会社,,株式会社,愛知県,春日井市,六軒屋町７丁目１２番地１,,23,206,4860842,,,,,,,2021-09-07,1,,,,,アカホリタイヤサービス,0
528,2180001147746,新規,0,2021-09-07,2021-09-07,株式会社サンクスアール,,株式会社,愛知県,名古屋市東区,山口町１１番１０号,,23,102,4610024,,,,,,,2021-09-07,1,,,,,サンクスアール,0
529,2180001147754,新規,0,2021-09-07,2021-09-07,株式会社Ｋ・Ｋテック,,株式会社,愛知県,名古屋市港区,当知４丁目３０５番地ニューコーポ当知３０２号,,23,111,4550804,,,,,,,2021-09-07,1,,,,,ケーケーテック,0
534,2180301035345,新規,0,2021-09-07,2021-09-07,アストラメディケン株式会社,,株式会社,愛知県,岡崎市,蓑川町字寺辺７番地５５,,23,202,4443525,,,,,,,2021-09-07,1,,,,,アストラメディケン,0
535,2180301035353,新規,0,2021-09-07,2021-09-07,あおぞら福祉事業株式会社,,株式会社,愛知県,豊田市,生駒町大坪１７番地キングスコート豊田生駒１３１１号,,23,211,4730928,,,,,,,2021-09-07,1,,,,,アオゾラフクシジギョウ,0
557,2240001058573,新規,0,2021-09-07,2021-09-07,株式会社ｆ‐北九州,,株式会社,広島県,広島市南区,大須賀町１３番９号,,34,103,7320821,,,,,,,2021-09-07,1,,,,,エフキタキュウシュウ,0
562,2240005015265,新規,0,2021-09-07,2021-09-07,税理士法人山根総合会計事務所,,その他の設立登記法人,広島県,広島市中区,幟町１０番２５号山根会計ビル,,34,101,7300016,,,,,,,2021-09-07,1,,,,,ヤマネソウゴウカイケイジムショ,0
564,2260003003666,新規,0,2021-09-07,2021-09-07,トラスト合同会社,,合同会社,岡山県,岡山市北区,今６丁目７番２０号創和ハイツ１０６号,,33,101,7000975,,,,,,,2021-09-07,1,,,,,トラスト,0
570,2290001094449,新規,0,2021-09-07,2021-09-07,株式会社博多４Ｋ,,株式会社,福岡県,筑紫野市,紫５丁目１９番１号,,40,217,8180061,,,,,,,2021-09-07,1,,,,,ハカタフォーケイ,0
574,2300003001715,新規,0,2021-09-07,2021-09-07,合同会社Ｓｕｐｐｏｒｔ　Ｃｏｌｌａｂｏｒａｔｉｏｎ,,合同会社,佐賀県,武雄市,武雄町大字武雄５４番地８,,41,206,8430022,,,,,,,2021-09-07,1,,,,,サポートコラボレーション,0
577,2320001018569,新規,0,2021-09-07,2021-09-07,株式会社蔵吉電工,,株式会社,大分県,杵築市,山香町大字野原２１２３番地２,,44,210,8791307,,,,,,,2021-09-07,1,,,,,クラヨシデンコウ,0
590,2350001017287,新規,0,2021-09-07,2021-09-07,株式会社鬼束工業,,株式会社,宮崎県,宮崎市,佐土原町下田島２０６８８番地３４,,45,201,8800211,,,,,,,2021-09-07,1,,,,,オニツカコウギョウ,0
596,2370001047571,新規,0,2021-09-07,2021-09-07,株式会社ＴＳＵＢＡＳＡ　ＳＥＡＦＡＲＭ,,株式会社,宮城県,本吉郡南三陸町,志津川字大森町２０１番地３,,04,606,9860732,,,,,,,2021-09-07,1,,,,,ツバサシーファーム,0
602,2380001032176,新規,0,2021-09-07,2021-09-07,株式会社ｏｒ　ＭＯＲＥ,,株式会社,福島県,須賀川市,向陽町４０７番地,,07,207,9620401,,,,,,,2021-09-07,1,,,,,,0
611,2420001017577,新規,0,2021-09-07,2021-09-07,株式会社金凰水産,,株式会社,青森県,八戸市,大字鮫町字下松苗場２番地１７,,02,203,0310841,,,,,,,2021-09-07,1,,,,,キンオウスイサン,0
619,2430001084914,新規,0,2021-09-07,2021-09-07,株式会社橙青,,株式会社,北海道,北広島市,中央３丁目８番地４三和ビル３０２号室,,01,234,0611121,,,,,,,2021-09-07,1,,,,,オレンヂブルー,0
624,2460101007053,新規,0,2021-09-07,2021-09-07,株式会社浦幌木炭,,株式会社,北海道,十勝郡浦幌町,字北町１６番地７,,01,649,0895621,,,,,,,2021-09-07,1,,,,,ウラホロモクタン,0
631,2490001009980,新規,0,2021-09-07,2021-09-07,株式会社ＭＡ建設,,株式会社,高知県,高岡郡佐川町,庄田４１８番地１,,39,402,7891216,,,,,,,2021-09-07,1,,,,,エムエーケンセツ,0
632,2500001023666,新規,0,2021-09-07,2021-09-07,株式会社大翔技建,,株式会社,愛媛県,宇和島市,津島町横浦３５６番地２,,38,203,7983345,,,,,,,2021-09-07,1,,,,,ダイショウギケン,0
633,2500005008416,新規,0,2021-09-07,2021-09-07,一般社団法人愛媛県摂食障害支援機構,,その他の設立登記法人,愛媛県,松山市,御幸２丁目３番４０号１０６号,,38,201,7900824,,,,,,,2021-09-07,1,,,,,エヒメケンセッショクショウガイシエンキコウ,0
643,3010001220923,新規,0,2021-09-07,2021-09-07,ＴＲＵＳＴＩＥＳ株式会社,,株式会社,東京都,中央区,銀座６丁目８番６号Ｂ２Ｆ,,13,102,1040061,,,,,,,2021-09-07,1,,,,,トラスタイズ,0
644,3010001220931,新規,0,2021-09-07,2021-09-07,株式会社アイサンホールディングス,,株式会社,東京都,中央区,日本橋小網町６番１号,,13,102,1030016,,,,,,,2021-09-07,1,,,,,アイサンホールディングス,0
645,3010001220948,新規,0,2021-09-07,2021-09-07,株式会社ナゾカケル,,株式会社,東京都,千代田区,神田和泉町１番地２－２,,13,101,1010024,,,,,,,2021-09-07,1,,,,,ナゾカケル,0
646,3010001220964,新規,0,2021-09-07,2021-09-07,株式会社ＣＥＳ　Ｈｏｌｄｉｎｇｓ,,株式会社,東京都,千代田区,霞が関３丁目２番５号,,13,101,1000013,,,,,,,2021-09-07,1,,,,,シーイーエスホールディングス,0
649,3010003035741,新規,0,2021-09-07,2021-09-07,合同会社コンフィアンス・コンサルティング,,合同会社,東京都,千代田区,飯田橋３丁目４番４号第５田中ビル１０階,,13,101,1020072,,,,,,,2021-09-07,1,,,,,コンフィアンスコンサルティング,0
650,3010003035758,新規,0,2021-09-07,2021-09-07,ヒコリス合同会社,,合同会社,東京都,文京区,小石川５丁目４番１０－３０１号,,13,105,1120002,,,,,,,2021-09-07,1,,,,,ヒコリス,0
652,3010005033917,新規,0,2021-09-07,2021-09-07,日光Ｐｌｕｓ２０ホールディング特定目的会社,,その他の設立登記法人,東京都,千代田区,丸の内３丁目１番１号東京共同会計事務所内,,13,101,1000005,,,,,,,2021-09-07,1,,,,,ニッコウプラストゥエンティホールディング,0
657,3010401162575,新規,0,2021-09-07,2021-09-07,株式会社ＬＡＮＤ,,株式会社,東京都,港区,新橋３丁目１６番１０号,,13,103,1050004,,,,,,,2021-09-07,1,,,,,ランド,0
663,3010405020176,新規,0,2021-09-07,2021-09-07,一般社団法人ジャパン・コンテンツ・ブロックチェーン・イニシアティブ,,その他の設立登記法人,東京都,港区,元麻布３丁目１番６号,,13,103,1060046,,,,,,,2021-09-07,1,,,,,ジャパンコンテンツブロックチェーンイニシアティブ,0
668,3010701041454,新規,0,2021-09-07,2021-09-07,株式会社Ｅｎｏｔａｖｏｌａ,,株式会社,東京都,品川区,東五反田２丁目１６番１－８０３号,,13,109,1410022,,,,,,,2021-09-07,1,,,,,エノターボラ,0
669,3010703005928,新規,0,2021-09-07,2021-09-07,合同会社ＡＤＯＧＧ,,合同会社,東京都,品川区,東五反田４丁目１０－７－１０１,,13,109,1410022,,,,,,,2021-09-07,1,,,,,アドッグ,0
670,3010801032279,新規,0,2021-09-07,2021-09-07,株式会社ｂｕｙ４,,株式会社,東京都,大田区,田園調布１丁目２３番２５号,,13,111,1450071,,,,,,,2021-09-07,1,,,,,バイフォー,0
671,3010801032295,新規,0,2021-09-07,2021-09-07,株式会社東京建物,,株式会社,東京都,大田区,北千束２丁目２０番７－１１３号,,13,111,1450062,,,,,,,2021-09-07,1,,,,,トウキョウタテモノ,0
672,3010903006783,新規,0,2021-09-07,2021-09-07,合同会社土海空,,合同会社,東京都,世田谷区,北沢５丁目８－５プラティーク北沢１０２,,13,112,1550031,,,,,,,2021-09-07,1,,,,,リクカイクウ,0
673,3010905004199,新規,0,2021-09-07,2021-09-07,医療法人社団燦陽会,,その他の設立登記法人,東京都,世田谷区,北沢２丁目２４番５号シモキタフロント５０１号室,,13,112,1550031,,,,,,,2021-09-07,1,,,,,サンヨウカイ,0
681,3011101096188,新規,0,2021-09-07,2021-09-07,株式会社ちょこたん,,株式会社,東京都,新宿区,住吉町３番１７－１３０４号グランリドー,,13,104,1620065,,,,,,,2021-09-07,1,,,,,チョコタン,0
682,3011101096196,新規,0,2021-09-07,2021-09-07,随動株式会社,,株式会社,東京都,新宿区,大久保２丁目８－２５Ａ号室,,13,104,1690072,,,,,,,2021-09-07,1,,,,,ズイドウ,0
683,3011101096205,新規,0,2021-09-07,2021-09-07,株式会社ＰＯＮ,,株式会社,東京都,新宿区,新宿１丁目３６番２号３Ｆ,,13,104,1600022,,,,,,,2021-09-07,1,,,,,ポン,0
684,3011101096213,新規,0,2021-09-07,2021-09-07,株式会社ＣＶＣＢ,,株式会社,東京都,新宿区,矢来町７９番地,,13,104,1620805,,,,,,,2021-09-07,1,,,,,シーブイシービー,0
685,3011101096221,新規,0,2021-09-07,2021-09-07,株式会社ヴィズパートナーズ・ジャパン,,株式会社,東京都,新宿区,西新宿７丁目１番１２号,,13,104,1600023,,,,,,,2021-09-07,1,,,,,ヴィズパートナーズジャパン,0
692,3011601025381,新規,0,2021-09-07,2021-09-07,株式会社ＴＣＳ,,株式会社,東京都,練馬区,南大泉４丁目１６番３４号,,13,120,1780064,,,,,,,2021-09-07,1,,,,,ティーシーエス,0
699,3012401038268,新規,0,2021-09-07,2021-09-07,株式会社Ｂｅｒｇａｍｏｔ,,株式会社,東京都,狛江市,中和泉１丁目２番９号,,13,219,2010012,,,,,,,2021-09-07,1,,,,,ベルガモット,0
700,3012401038276,新規,0,2021-09-07,2021-09-07,株式会社サクセスストーリー,,株式会社,東京都,多摩市,関戸２丁目３９番地の１６センチュリーコート５０１号室,,13,224,2060011,,,,,,,2021-09-07,1,,,,,サクセスストーリー,0
702,3012405004638,新規,0,2021-09-07,2021-09-07,医療法人社団かぜまち内科クリニック,,その他の設立登記法人,東京都,多摩市,諏訪２丁目２番地Ｂｒｉｌｌｉａ多摩ニュータウンＢ棟１００号,,13,224,2060024,,,,,,,2021-09-07,1,,,,,カゼマチナイカクリニック,0
708,3013301047937,新規,0,2021-09-07,2021-09-07,株式会社キュリオス,,株式会社,東京都,豊島区,南池袋１丁目１５ー２３スクエアガーデン池袋２０５,,13,116,1710022,,,,,,,2021-09-07,1,,,,,キュリオス,0
709,3013301047986,新規,0,2021-09-07,2021-09-07,株式会社フライトフォレスト,,株式会社,東京都,豊島区,雑司が谷３丁目１１番５号パレステュディオ目白１００１号,,13,116,1710032,,,,,,,2021-09-07,1,,,,,フライトフォレスト,0
714,3020001142919,新規,0,2021-09-07,2021-09-07,株式会社リライアークス,,株式会社,神奈川県,横浜市瀬谷区,阿久和東３丁目６番地６３,,14,114,2460023,,,,,,,2021-09-07,1,,,,,リライアークス,0
715,3020001142927,新規,0,2021-09-07,2021-09-07,株式会社パナシアブレーンズ,,株式会社,神奈川県,横浜市港北区,綱島台２０番１－２０１号,,14,109,2230054,,,,,,,2021-09-07,1,,,,,パナシアブレーンズ,0
722,3020005015187,新規,0,2021-09-07,2021-09-07,一般社団法人ＤＥＣ,,その他の設立登記法人,神奈川県,横浜市青葉区,美しが丘１丁目１０－１、３丁目カフェ内,,14,117,2250002,,,,,,,2021-09-07,1,,,,,デック,0
725,3021001073848,新規,0,2021-09-07,2021-09-07,株式会社ＳＡＴ建築設備事務所,,株式会社,神奈川県,相模原市緑区,橋本２丁目１７番３号コモラード橋本Ⅱ１０２号,00124154,14,151,2520143,,,,,,,2021-09-07,1,,,,,エスエーティーケンチクセツビジムショ,0
726,3021001073864,新規,0,2021-09-07,2021-09-07,株式会社柾木創建,,株式会社,神奈川県,大和市,つきみ野１丁目１番地５６号－１０５号,,14,213,2420002,,,,,,,2021-09-07,1,,,,,マサキソウケン,0
733,3030001144204,新規,0,2021-09-07,2021-09-07,株式会社仙人,,株式会社,埼玉県,富士見市,針ケ谷１丁目１番地１９,,11,235,3540017,,,,,,,2021-09-07,1,,,,,セント,0
734,3030001144212,新規,0,2021-09-07,2021-09-07,株式会社上伸設備,,株式会社,埼玉県,北足立郡伊奈町,西小針３丁目１４１番地４,,11,301,3620811,,,,,,,2021-09-07,1,,,,,,0
744,3040001120039,新規,0,2021-09-07,2021-09-07,株式会社ＰＨＤ,,株式会社,千葉県,浦安市,明海２丁目４番１－３３０号,,12,227,2790014,,,,,,,2021-09-07,1,,,,,ピーエイチディー,0
745,3040001120055,新規,0,2021-09-07,2021-09-07,株式会社アベンチライフ,,株式会社,千葉県,千葉市中央区,仁戸名町３４２番地５９,,12,101,2600801,,,,,,,2021-09-07,1,,,,,アベンチライフ,0
746,3040001120088,新規,0,2021-09-07,2021-09-07,株式会社ＤＲＬＬＩＭＩＯＮ,,株式会社,千葉県,木更津市,長須賀９２６番地２,,12,206,2920054,,,,,,,2021-09-07,1,,,,,ドリミオン,0
748,3040003018462,新規,0,2021-09-07,2021-09-07,海神應手徳英合同会社,,合同会社,千葉県,船橋市,前原西２丁目１４番２号,,12,204,2740825,,,,,,,2021-09-07,1,,,,,カイジンオウテトクエイ,0
751,3050001049822,新規,0,2021-09-07,2021-09-07,株式会社ＬＡＮＤＯＯＲ,,株式会社,茨城県,水戸市,見和１丁目４５９番地の３,,08,201,3100911,,,,,,,2021-09-07,1,,,,,ランドア,0
753,3050003006061,新規,0,2021-09-07,2021-09-07,合同会社ｆｉｎｅｌｉｎｅｓ,,合同会社,茨城県,つくば市,研究学園５丁目２番地２ＴＯＣＯＢＬＤＧ２０１,,08,220,3050817,,,,,,,2021-09-07,1,,,,,ファインラインズ,0
771,3110005016705,新規,0,2021-09-07,2021-09-07,アトラス税理士法人,,その他の設立登記法人,新潟県,三条市,石上２丁目７番１０号,,15,204,9550084,,,,,,,2021-09-07,1,,,,,アトラス,0
781,3120001240150,新規,0,2021-09-07,2021-09-07,株式会社紫妃彩,,株式会社,大阪府,大阪市西区,北堀江１丁目５番１３号４０１,,27,106,5500014,,,,,,,2021-09-07,1,,,,,シキサイ,0
782,3120001240175,新規,0,2021-09-07,2021-09-07,アセットテクノロジー株式会社,,株式会社,大阪府,大阪市中央区,北久宝寺町４丁目４番７号ＶＰＯ本町セントラル９階,,27,128,5410057,,,,,,,2021-09-07,1,,,,,アセットテクノロジー,0
783,3120001240183,新規,0,2021-09-07,2021-09-07,株式会社あおぞらペイント,,株式会社,大阪府,枚方市,茄子作１丁目４３番２８号,,27,210,5730071,,,,,,,2021-09-07,1,,,,,アオゾラペイント,0
784,3120001240241,新規,0,2021-09-07,2021-09-07,株式会社ＴＰＳ,,株式会社,大阪府,門真市,幸福町３番１号,,27,223,5710066,,,,,,,2021-09-07,1,,,,,ティーピーエス,0
789,3120003020170,新規,0,2021-09-07,2021-09-07,ＨＢ合同会社,,合同会社,大阪府,大阪市生野区,新今里３丁目６番２号,,27,116,5440001,,,,,,,2021-09-07,1,,,,,エイチビー,0
792,3120005022479,新規,0,2021-09-07,2021-09-07,Ｋ＆Ｐパートナーズ税理士法人,,その他の設立登記法人,大阪府,大阪市中央区,谷町２丁目４番５号谷町センタービル４階,,27,128,5400012,,,,,,,2021-09-07,1,,,,,ケーアンドピーパートナーズ,0
798,3120103004338,新規,0,2021-09-07,2021-09-07,ＫＭエンタープライズ合同会社,,合同会社,大阪府,堺市中区,大野芝町１９９番地１２,,27,142,5998233,,,,,,,2021-09-07,1,,,,,ケーエムエンタープライズ,0
802,3120901044857,新規,0,2021-09-07,2021-09-07,細井不動産株式会社,,株式会社,大阪府,池田市,鉢塚２丁目３番２号,,27,204,5630024,,,,,,,2021-09-07,1,,,,,ホソイフドウサン,0
803,3120901044873,新規,0,2021-09-07,2021-09-07,株式会社ｔａｋｋｙ,,株式会社,大阪府,高槻市,芥川町１丁目１０番２４号サージュビル１階,,27,207,5691123,,,,,,,2021-09-07,1,,,,,タッキー,0
819,3140001122891,新規,0,2021-09-07,2021-09-07,株式会社プロアーム,,株式会社,兵庫県,明石市,大久保町八木１４６番地の２５,,28,203,6740063,,,,,,,2021-09-07,1,,,,,プロアーム,0
820,3140001122900,新規,0,2021-09-07,2021-09-07,株式会社みやび工業,,株式会社,兵庫県,伊丹市,荻野１丁目１７５番地９,,28,207,6640002,,,,,,,2021-09-07,1,,,,,ミヤビコウギョウ,0
824,3150001024897,新規,0,2021-09-07,2021-09-07,株式会社ミエノ化学,,株式会社,奈良県,葛城市,尺土１４２番地,,29,211,6392162,,,,,,,2021-09-07,1,,,,,ミエノカガク,0
825,3150001024906,新規,0,2021-09-07,2021-09-07,株式会社ＡＩＭ,,株式会社,奈良県,奈良市,朱雀２丁目１０番地３－２２,,29,201,6310806,,,,,,,2021-09-07,1,,,,,アイム,0
828,3160001023618,新規,0,2021-09-07,2021-09-07,株式会社Ｖｉｖａｃｅ,,株式会社,滋賀県,栗東市,小野７７７番地２０,,25,208,5203016,,,,,,,2021-09-07,1,,,,,ヴィヴァーチェ,0
835,3180001147654,新規,0,2021-09-07,2021-09-07,株式会社Ｕ－ＭＯＫＫ,,株式会社,愛知県,あま市,蜂須賀丹波浦１６３５番地,,23,237,4901225,,,,,,,2021-09-07,1,,,,,ユーモック,0
836,3180001147695,新規,0,2021-09-07,2021-09-07,株式会社ＡＲＬＬＹ,,株式会社,愛知県,春日井市,南花長町２番地８,,23,206,4860954,,,,,,,2021-09-07,1,,,,,アリー,0
837,3180001147720,新規,0,2021-09-07,2021-09-07,株式会社ＫＺ,,株式会社,愛知県,春日井市,東野町４丁目１番地２,,23,206,4860817,,,,,,,2021-09-07,1,,,,,ケーズイー,0
850,3180301035352,新規,0,2021-09-07,2021-09-07,ＳＤＳＺ株式会社,,株式会社,愛知県,豊田市,小坂本町１丁目５番５号ＹＡＭＡＴＯＢＬＤＧ２Ｆ,,23,211,4710034,,,,,,,2021-09-07,1,,,,,エスディーエスズィー,0
851,3180303005097,新規,0,2021-09-07,2021-09-07,合同会社アイセイ,,合同会社,愛知県,西尾市,永吉町１６６,,23,213,4450871,,,,,,,2021-09-07,1,,,,,アイセイ,0
854,3190003003755,新規,0,2021-09-07,2021-09-07,合同会社Ｐｌｕｓ　Ｏｎｅ,,合同会社,三重県,四日市市,下之宮町１６７番地１アドバンスＢ－１０１,,24,202,5108028,,,,,,,2021-09-07,1,,,,,プラスワン,0
855,3190005011616,新規,0,2021-09-07,2021-09-07,税理士法人パートナーズ,,その他の設立登記法人,三重県,四日市市,元新町７番１７号,,24,202,5100095,,,,,,,2021-09-07,1,,,,,パートナーズ,0
867,3240001058572,新規,0,2021-09-07,2021-09-07,株式会社コネクト・ファーマシー,,株式会社,広島県,広島市南区,大須賀町１３番９号,,34,103,7320821,,,,,,,2021-09-07,1,,,,,コネクトファーマシー,0
879,3290001094497,新規,0,2021-09-07,2021-09-07,祐和建設株式会社,,株式会社,福岡県,柳川市,大和町栄１３７８番地２,,40,207,8390252,,,,,,,2021-09-07,1,,,,,ユウワケンセツ,0
880,3290001094530,新規,0,2021-09-07,2021-09-07,みつまる電機株式会社,,株式会社,福岡県,柳川市,古賀２２８番地４,,40,207,8320082,,,,,,,2021-09-07,1,,,,,ミツマルデンキ,0
881,3290003011574,新規,0,2021-09-07,2021-09-07,合同会社ユニオンプロキシ,,合同会社,福岡県,福岡市中央区,天神２丁目３番１０号天神パインクレスト７１９号,,40,133,8100001,,,,,,,2021-09-07,1,,,,,ユニオンプロキシ,0
882,3290005018345,新規,0,2021-09-07,2021-09-07,一般社団法人ひかりのみちＤＭＯ福津,,その他の設立登記法人,福岡県,福津市,中央３丁目１番１号,,40,224,8113217,,,,,,,2021-09-07,1,,,,,ヒカリノミチディーエムオーフクツ,0
889,3340001024069,新規,0,2021-09-07,2021-09-07,株式会社なのはな商店,,株式会社,鹿児島県,大島郡知名町,大字徳時１３９６番地１,,46,534,8919222,,,,,,,2021-09-07,1,,,,,ナノハナショウテン,0
892,3350001017294,新規,0,2021-09-07,2021-09-07,株式会社イーグルホーム,,株式会社,宮崎県,日向市,亀崎３丁目７３番地,,45,206,8830066,,,,,,,2021-09-07,1,,,,,イーグルホーム,0
894,3360001029314,新規,0,2021-09-07,2021-09-07,株式会社たいら水産,,株式会社,沖縄県,南城市,玉城字奥武２３２番地１,,47,215,9010614,,,,,,,2021-09-07,1,,,,,タイラスイサン,0
898,3360003011419,新規,0,2021-09-07,2021-09-07,合同会社賢善笑進,,合同会社,沖縄県,那覇市,おもろまち４丁目１３番９号,,47,201,9000006,,,,,,,2021-09-07,1,,,,,ケンゼンショウジン,0
899,3370001047587,新規,0,2021-09-07,2021-09-07,株式会社アイ・ティ・アール,,株式会社,宮城県,多賀城市,東田中１丁目５番２７号,,04,209,9850863,,,,,,,2021-09-07,1,,,,,アイティアール,0
904,3380001032167,新規,0,2021-09-07,2021-09-07,株式会社ユーゴー東北,,株式会社,福島県,福島市,渡利字舟場７２番地１,,07,201,9608141,,,,,,,2021-09-07,1,,,,,ユーゴートウホク,0
917,3420001017576,新規,0,2021-09-07,2021-09-07,株式会社Ｏｃｅａｎ,,株式会社,青森県,弘前市,大字土手町１８９番地,,02,202,0368182,,,,,,,2021-09-07,1,,,,,オーシャン,0
920,3430001084847,新規,0,2021-09-07,2021-09-07,株式会社チャシナイ環境メンテナンス,,株式会社,北海道,美唄市,字茶志内７２６番２８,,01,215,0720000,,,,,,,2021-09-07,1,,,,,チャシナイカンキョウメンテナンス,0
921,3430001084913,新規,0,2021-09-07,2021-09-07,株式会社Ｙ’ｓ,,株式会社,北海道,札幌市豊平区,福住三条８丁目２番２号,,01,105,0620043,,,,,,,2021-09-07,1,,,,,ワイズ,0
930,3430005014263,新規,0,2021-09-07,2021-09-07,一般社団法人宮川資産管理,,その他の設立登記法人,北海道,札幌市白石区,本通１丁目北３番３７号,,01,104,0030027,,,,,,,2021-09-07,1,,,,,ミヤカワシサンカンリ,0
932,3470001018693,新規,0,2021-09-07,2021-09-07,２２４ワイナリー株式会社,,株式会社,香川県,小豆郡土庄町,甲３４０７番地２,,37,322,7614101,,,,,,,2021-09-07,1,,,,,ニニヨンワイナリー,0
935,3480001011474,新規,0,2021-09-07,2021-09-07,Ｂｉｌｔｏｎ　Ｊａｐａｎ株式会社,,株式会社,徳島県,徳島市,南昭和町５丁目２番地の１１,,36,201,7700944,,,,,,,2021-09-07,1,,,,,ビルトンジャパン,0
946,4010001220889,新規,0,2021-09-07,2021-09-07,株式会社ＳＩＭＢＡ,,株式会社,東京都,中央区,日本橋２丁目１番１７号丹生ビル２階,,13,102,1030027,,,,,,,2021-09-07,1,,,,,シンバ,0
947,4010001220897,新規,0,2021-09-07,2021-09-07,株式会社ＥａｒｔｈＰｌａｙ,,株式会社,東京都,千代田区,平河町１丁目６番１５号ＵＳビル８０２号室,,13,101,1020093,,,,,,,2021-09-07,1,,,,,アースプレイ,0
948,4010001220906,新規,0,2021-09-07,2021-09-07,グローバリューパートナーズ株式会社,,株式会社,東京都,千代田区,鍛冶町１丁目１０番６号ＢＩＺＳＭＡＲＴ神田,,13,101,1010044,,,,,,,2021-09-07,1,,,,,グローバリューパートナーズ,0
949,4010001220914,新規,0,2021-09-07,2021-09-07,株式会社アイテクグローバル,,株式会社,東京都,千代田区,神田佐久間町一目８番４号アルテール秋葉原７０８,,13,101,1000000,,,,,,,2021-09-07,1,,,,,アイテクグローバル,0
950,4010001220922,新規,0,2021-09-07,2021-09-07,株式会社ジー・プランニング,,株式会社,東京都,千代田区,丸の内２丁目２番１号６階,,13,101,1000005,,,,,,,2021-09-07,1,,,,,ジープランニング,0
951,4010001220947,新規,0,2021-09-07,2021-09-07,株式会社Ｊ,,株式会社,東京都,中央区,銀座１丁目１３番８号ハビウル銀座９Ｆ,,13,102,1040061,,,,,,,2021-09-07,1,,,,,ジェイ,0
952,4010001220963,新規,0,2021-09-07,2021-09-07,ＨＲＤ　ＡＲＴ株式会社,,株式会社,東京都,中央区,銀座６丁目１３番１６号銀座ＷａｌｌビルＵＣＦ５階,,13,102,1040061,,,,,,,2021-09-07,1,,,,,エイチアールディーアート,0
956,4010005033916,新規,0,2021-09-07,2021-09-07,一般社団法人ＰＤＣＡ検定協会,,その他の設立登記法人,東京都,千代田区,九段南１丁目５番６号りそな九段ビル５階ＫＳフロア,,13,101,1020074,,,,,,,2021-09-07,1,,,,,ピーディーシーエーケンテイキョウカイ,0
963,4010401162483,新規,0,2021-09-07,2021-09-07,株式会社オーブワークス,,株式会社,東京都,港区,北青山２丁目１０番１８号,,13,103,1070061,,,,,,,2021-09-07,1,,,,,オーブワークス,0
964,4010401162491,新規,0,2021-09-07,2021-09-07,株式会社カナエル,,株式会社,東京都,港区,芝浦１丁目２番３号シーバンスＳ館１３階,,13,103,1050023,,,,,,,2021-09-07,1,,,,,カナエル,0
965,4010401162525,新規,0,2021-09-07,2021-09-07,ホライズン１４株式会社,,株式会社,東京都,港区,西新橋２丁目８番６号,,13,103,1050003,,,,,,,2021-09-07,1,,,,,ホライズンフォーティーン,0
966,4010401162566,新規,0,2021-09-07,2021-09-07,株式会社ＧＴＣ　ＪＡＰＡＮ,,株式会社,東京都,港区,新橋６丁目６－２－９０３,,13,103,1050004,,,,,,,2021-09-07,1,,,,,ジーティーシージャパン,0
970,4010405020175,新規,0,2021-09-07,2021-09-07,ＡＳＣ社会保険労務士法人,,その他の設立登記法人,東京都,港区,芝５丁目１番１３号三ツ輪三田ビル６階,,13,103,1080014,,,,,,,2021-09-07,1,,,,,エーエスシー,0
974,4010701041453,新規,0,2021-09-07,2021-09-07,株式会社エステック,,株式会社,東京都,品川区,豊町４丁目１９番３号,,13,109,1420042,,,,,,,2021-09-07,1,,,,,エステック,0
976,4010905004198,新規,0,2021-09-07,2021-09-07,医療法人社団ＮＥＷ,,その他の設立登記法人,東京都,世田谷区,桜新町１丁目４０－８桜新町クリニックモール３階,,13,112,1540015,,,,,,,2021-09-07,1,,,,,ニュウ,0
980,4011001142685,新規,0,2021-09-07,2021-09-07,株式会社エンジョイスタート,,株式会社,東京都,渋谷区,恵比寿西１丁目１２番１１号,,13,113,1500021,,,,,,,2021-09-07,1,,,,,エンジョイスタート,0
987,4011101096187,新規,0,2021-09-07,2021-09-07,アヴァンティソリューション株式会社,,株式会社,東京都,新宿区,高田馬場４丁目３８番１６号,,13,104,1690075,,,,,,,2021-09-07,1,,,,,アヴァンティソリューション,0
988,4011101096195,新規,0,2021-09-07,2021-09-07,株式会社ワークライフインテグレーション,,株式会社,東京都,新宿区,富久町３番６号,,13,104,1620067,,,,,,,2021-09-07,1,,,,,ワークライフインテグレーション,0
989,4011101096204,新規,0,2021-09-07,2021-09-07,株式会社ＬＥＡＴ,,株式会社,東京都,新宿区,大久保１丁目２番１号,,13,104,1690072,,,,,,,2021-09-07,1,,,,,リート,0
990,4011101096212,新規,0,2021-09-07,2021-09-07,株式会社Ｄｉｇｉｔａｌ　Ｉｎｃｒｅａｄ,,株式会社,東京都,新宿区,余丁町７番１号,,13,104,1620055,,,,,,,2021-09-07,1,,,,,デジタルインクリード,0
996,4011501027287,新規,0,2021-09-07,2021-09-07,株式会社セレスティアル,,株式会社,東京都,北区,滝野川２丁目５６番２号,,13,117,1140023,,,,,,,2021-09-07,1,,,,,セレスティアル,0
998,4011503004879,新規,0,2021-09-07,2021-09-07,ＲｅＳＡＮＪＵＧＯ合同会社,,合同会社,東京都,北区,東十条２丁目９番３号３０１号室,,13,117,1140001,,,,,,,2021-09-07,1,,,,,リサンジュウゴ,0
999,4011603003384,新規,0,2021-09-07,2021-09-07,合同会社グロース,,合同会社,東京都,練馬区,光が丘３丁目９番３－１０１０号,,13,120,1790072,,,,,,,2021-09-07,1,,,,,グロース,0
1009,4012401038275,新規,0,2021-09-07,2021-09-07,株式会社ＳＷＡＴＩＣＡ,,株式会社,東京都,三鷹市,深大寺１丁目７番２９号,,13,204,1810016,,,,,,,2021-09-07,1,,,,,スワティカ,0
1012,4012701016641,新規,0,2021-09-07,2021-09-07,株式会社プライメリー,,株式会社,東京都,西東京市,向台町４丁目１２番３０－１０６号,,13,229,1880013,,,,,,,2021-09-07,1,,,,,プライメリー,0
1013,4012801021070,新規,0,2021-09-07,2021-09-07,株式会社エスアール,,株式会社,東京都,日野市,豊田１丁目２３番地の５,,13,212,1910053,,,,,,,2021-09-07,1,,,,,エスアール,0
1014,4013105001783,新規,0,2021-09-07,2021-09-07,医療法人社団深望会,,その他の設立登記法人,東京都,あきる野市,五日市１４９番地１,,13,228,1900164,,,,,,,2021-09-07,1,,,,,シンボウカイ,0
1016,4013301047985,新規,0,2021-09-07,2021-09-07,株式会社ケリーズワン,,株式会社,東京都,豊島区,西池袋１丁目９番１１号カーサ池袋２０６号室,,13,116,1710021,,,,,,,2021-09-07,1,,,,,ケリーズワン,0
1020,4020001142901,新規,0,2021-09-07,2021-09-07,Ｖａｌｕｅ　ａｓｓｅｔ　ｃｒｅａｔｉｏｎ株式会社,,株式会社,神奈川県,横浜市神奈川区,六角橋３丁目１１番１０号,,14,102,2210802,,,,,,,2021-09-07,1,,,,,バリューアセットクリエイション,0
1021,4020001142934,新規,0,2021-09-07,2021-09-07,成田興業株式会社,,株式会社,神奈川県,川崎市川崎区,桜本１丁目１１番７－２号,,14,131,2100833,,,,,,,2021-09-07,1,,,,,ナリタコウギョウ,0
1023,4020003020444,新規,0,2021-09-07,2021-09-07,合同会社ＴＩＴＩＰＯ,,合同会社,神奈川県,川崎市麻生区,上麻生５丁目８番５号,,14,137,2150021,,,,,,,2021-09-07,1,,,,,ティティポ,0
1025,4021001073839,新規,0,2021-09-07,2021-09-07,株式会社ＴＹＳ,,株式会社,神奈川県,小田原市,栄町１丁目１９－４,,14,206,2500011,,,,,,,2021-09-07,1,,,,,ティーワイエス,0
1026,4021001073847,新規,0,2021-09-07,2021-09-07,株式会社ＨＩＲＯＫＩ　ＮＩＩＢＯＲＩ,,株式会社,神奈川県,藤沢市,南藤沢６番９－５０１号,,14,205,2510055,,,,,,,2021-09-07,1,,,,,ヒロキニイボリ,0
1027,4021001073863,新規,0,2021-09-07,2021-09-07,株式会社エディブル湘南ガーデン,,株式会社,神奈川県,鎌倉市,岡本２丁目２番１－３１２号,,14,204,2470072,,,,,,,2021-09-07,1,,,,,エディブルショウナンガーデン,0
1032,4021003010856,新規,0,2021-09-07,2021-09-07,ＮＥＸＴワーク合同会社,,合同会社,神奈川県,横須賀市,池上７丁目１８番１７号,,14,201,2380035,,,,,,,2021-09-07,1,,,,,ネクストワーク,0
1033,4021005012289,新規,0,2021-09-07,2021-09-07,一般社団法人高史明・岡百合子・岡真史アーカイブ,,その他の設立登記法人,神奈川県,中郡大磯町,東小磯４５３番地６グランヴェール大磯１０７号,,14,341,2550004,,,,,,,2021-09-07,1,,,,,コウシメイオカユリコオカマサフミアーカイブ,0
1037,4030001144178,新規,0,2021-09-07,2021-09-07,ＦＤリペア株式会社,,株式会社,埼玉県,羽生市,中央４丁目１１番２１号,,11,216,3480058,,,,,,,2021-09-07,1,,,,,エフディーリペア,0
1038,4030001144211,新規,0,2021-09-07,2021-09-07,株式会社不動産Ｈｉｍａｗａｒｉ,,株式会社,埼玉県,羽生市,南７丁目１－１５,,11,216,3480053,,,,,,,2021-09-07,1,,,,,フドウサンヒマワリ,0
1048,4040001120038,新規,0,2021-09-07,2021-09-07,株式会社ＡＲＣ　ＲＡＩＺ,,株式会社,千葉県,柏市,南逆井２丁目１０番３－１号,,12,217,2770043,,,,,,,2021-09-07,1,,,,,アークライズ,0
1049,4040001120087,新規,0,2021-09-07,2021-09-07,ＫＫＰＰ株式会社,,株式会社,千葉県,浦安市,北栄１丁目１５番６号,,12,227,2790002,,,,,,,2021-09-07,1,,,,,ケーケーピーピー,0
1050,4040001120095,新規,0,2021-09-07,2021-09-07,農業法人桐谷農園株式会社,,株式会社,千葉県,袖ケ浦市,野田５０番地,,12,229,2990244,,,,,,,2021-09-07,1,,,,,ノウギョウホウジンキリヤノウエン,0
1051,4040001120112,新規,0,2021-09-07,2021-09-07,株式会社ＯＳＹ,,株式会社,千葉県,千葉市若葉区,西都賀３丁目９番７号ＰＦ若葉ビル２０２,,12,104,2640026,,,,,,,2021-09-07,1,,,,,オーエスワイ,0
1052,4040001120120,新規,0,2021-09-07,2021-09-07,株式会社スラッシュワーカーズ,,株式会社,千葉県,印西市,中央南２丁目１番地５１５号,,12,231,2701340,,,,,,,2021-09-07,1,,,,,スラッシュワーカーズ,0
1056,4040003018437,新規,0,2021-09-07,2021-09-07,合同会社大林商店,,合同会社,千葉県,柏市,南柏中央６番地５クイーン５０９－８０３号,,12,217,2770075,,,,,,,2021-09-07,1,,,,,オオバヤシショウテン,0
1057,4040003018445,新規,0,2021-09-07,2021-09-07,合同会社Ｇｌｏｒｉａ,,合同会社,千葉県,柏市,あけぼの４丁目６番１号,,12,217,2770841,,,,,,,2021-09-07,1,,,,,グロリア,0
1059,4050001049813,新規,0,2021-09-07,2021-09-07,東昇商事株式会社,,株式会社,茨城県,筑西市,西谷貝５９２番１,,08,227,3080054,,,,,,,2021-09-07,1,,,,,トウショウショウジ,0
1061,4060001034046,新規,0,2021-09-07,2021-09-07,株式会社ａｋａ・ｌａ,,株式会社,栃木県,宇都宮市,清原台４丁目２７番１号,,09,201,3213223,,,,,,,2021-09-07,1,,,,,アカラ,0
1062,4060001034062,新規,0,2021-09-07,2021-09-07,株式会社ソーシャルワーク和,,株式会社,栃木県,宇都宮市,駒生１丁目６番６号,,09,201,3200066,,,,,,,2021-09-07,1,,,,,ソーシャルワークナゴミ,0
1074,4080401025320,新規,0,2021-09-07,2021-09-07,株式会社黒田商事,,株式会社,静岡県,袋井市,豊住４５２番地,,22,216,4371103,,,,,,,2021-09-07,1,,,,,クロダショウジ,0
1078,4100001034586,新規,0,2021-09-07,2021-09-07,株式会社ＭＨＤ,,株式会社,長野県,北佐久郡御代田町,大字御代田２５６８番地２７,,20,323,3890206,,,,,,,2021-09-07,1,,,,,エムエイチディー,0
1088,4110005016704,新規,0,2021-09-07,2021-09-07,一般社団法人佐渡古文化保存協会,,その他の設立登記法人,新潟県,佐渡市,畑野甲７１７番地２,,15,224,9520206,,,,,,,2021-09-07,1,,,,,サドコブンカホゾンキョウカイ,0
1098,4120001240109,新規,0,2021-09-07,2021-09-07,株式会社Ｌｉｚ,,株式会社,大阪府,大阪市中央区,西心斎橋２丁目１１番９号４０２号室,,27,128,5420086,,,,,,,2021-09-07,1,,,,,リズ,0
1099,4120001240133,新規,0,2021-09-07,2021-09-07,株式会社銘軒,,株式会社,大阪府,大阪市北区,菅栄町１０番５号エスリード天神橋１００１号室,,27,127,5300031,,,,,,,2021-09-07,1,,,,,メイケン,0
1106,4120003020178,新規,0,2021-09-07,2021-09-07,Ｍｏｕｎｔａｉｎ　Ｒｉｓｅ合同会社,,合同会社,大阪府,大阪市東成区,大今里西３丁目１５番６－１０６号,,27,115,5370014,,,,,,,2021-09-07,1,,,,,マウンテンライズ,0
1107,4120005022478,新規,0,2021-09-07,2021-09-07,響社会保険労務士法人,,その他の設立登記法人,大阪府,大阪市北区,西天満４丁目１２番２２号第三青山ビル４０５号室,,27,127,5300047,,,,,,,2021-09-07,1,,,,,ヒビキ,0
1110,4120101064226,新規,0,2021-09-07,2021-09-07,株式会社京電工エンジニアリング,,株式会社,大阪府,堺市西区,浜寺諏訪森町中２丁１６６番地１６,,27,144,5928348,,,,,,,2021-09-07,1,,,,,キョウデンコウエンジニアリング,0
1111,4120101064242,新規,0,2021-09-07,2021-09-07,株式会社暖,,株式会社,大阪府,堺市堺区,向陵中町４丁７番１２号,,27,141,5900024,,,,,,,2021-09-07,1,,,,,ダン,0
1112,4120103004329,新規,0,2021-09-07,2021-09-07,合同会社幸心ホーム,,合同会社,大阪府,堺市西区,平岡町４４７番地４津久野台ファミリーマンション１棟１０８号,,27,144,5938307,,,,,,,2021-09-07,1,,,,,コウシンホーム,0
1113,4120103004337,新規,0,2021-09-07,2021-09-07,合同会社港,,合同会社,大阪府,堺市北区,百舌鳥梅町１丁２１９番地８,,27,146,5918032,,,,,,,2021-09-07,1,,,,,ミナト,0
1114,4120901044864,新規,0,2021-09-07,2021-09-07,株式会社Ａｃｃｏｍｐａｎｉｍｅｎｔ,,株式会社,大阪府,箕面市,瀬川２丁目６番１０号,,27,220,5620045,,,,,,,2021-09-07,1,,,,,アカンパニメント,0
1115,4120903003810,新規,0,2021-09-07,2021-09-07,合同会社ＡｌｂｅｒｏＧｒａｎｄｅ,,合同会社,大阪府,豊中市,桜の町６丁目１６番１８－１０５号,,27,203,5600054,,,,,,,2021-09-07,1,,,,,アルベログランデ,0
1117,4122001035125,新規,0,2021-09-07,2021-09-07,悠和建装株式会社,,株式会社,大阪府,東大阪市,長田中４丁目１番３８号アリーナ長田３０１,,27,227,5770013,,,,,,,2021-09-07,1,,,,,ユウワケンソウ,0
1118,4122001035141,新規,0,2021-09-07,2021-09-07,株式会社ｉｎ　ｔｈｅ　Ｒｉｖｅｒ,,株式会社,大阪府,東大阪市,喜里川町１６番１４号,,27,227,5798041,,,,,,,2021-09-07,1,,,,,インザリバー,0
1125,4140001122882,新規,0,2021-09-07,2021-09-07,株式会社Ａ．Ｆ．Ｈ,,株式会社,兵庫県,神戸市中央区,磯上通８丁目１番１４号２Ｆ,,28,110,6510086,,,,,,,2021-09-07,1,,,,,エイエフエイチ,0
1126,4140001122908,新規,0,2021-09-07,2021-09-07,株式会社ｂａｓｅ,,株式会社,兵庫県,芦屋市,岩園町４９番５６号,,28,206,6590013,,,,,,,2021-09-07,1,,,,,ベース,0
1127,4140001122949,新規,0,2021-09-07,2021-09-07,株式会社マチャのおくすり箱,,株式会社,兵庫県,神戸市東灘区,御影山手６丁目９番４２号,,28,101,6580065,,,,,,,2021-09-07,1,,,,,マチャノオクスリバコ,0
1128,4140001122973,新規,0,2021-09-07,2021-09-07,株式会社航海,,株式会社,兵庫県,神戸市灘区,備後町５丁目３番１－２３０５号,,28,102,6570037,,,,,,,2021-09-07,1,,,,,コウカイ,0
1132,4140003016703,新規,0,2021-09-07,2021-09-07,合同会社ナカキタ,,合同会社,兵庫県,姫路市,名古山町８番２８号,,28,201,6700051,,,,,,,2021-09-07,1,,,,,ナカキタ,0
1133,4140003016711,新規,0,2021-09-07,2021-09-07,合同会社ｃｏｔｔ,,合同会社,兵庫県,神戸市北区,淡河町勝雄５６７－２番地,,28,109,6511604,,,,,,,2021-09-07,1,,,,,コット,0
1137,4160001023617,新規,0,2021-09-07,2021-09-07,株式会社ＴＨＲＥＥ　ＵＰ,,株式会社,滋賀県,野洲市,近江富士４丁目３番９号,,25,210,5202324,,,,,,,2021-09-07,1,,,,,スリーアップ,0
1150,4180001147744,新規,0,2021-09-07,2021-09-07,株式会社ＫＳ　ＤＥＳＩＧＮ,,株式会社,愛知県,名古屋市瑞穂区,東栄町３丁目２２番地,,23,108,4670017,,,,,,,2021-09-07,1,,,,,ケイエスデザイン,0
1151,4180003022920,新規,0,2021-09-07,2021-09-07,合同会社愉夢カンパニー,,合同会社,愛知県,春日井市,篠木町５丁目２４番地１伊藤信ビル２０２号,,23,206,4860851,,,,,,,2021-09-07,1,,,,,タノシムカンパニー,0
1160,4180301035351,新規,0,2021-09-07,2021-09-07,株式会社四季商事,,株式会社,愛知県,西尾市,永吉２丁目７７番地３,,23,213,4450870,,,,,,,2021-09-07,1,,,,,シキショウジ,0
1162,4180303005096,新規,0,2021-09-07,2021-09-07,シーブイデブ合同会社,,合同会社,愛知県,安城市,今池町２丁目１番１号コープ野村Ｃ－９０５,,23,212,4460071,,,,,,,2021-09-07,1,,,,,シーブイデブ,0
1163,4180305009236,新規,0,2021-09-07,2021-09-07,医療法人はやぶさ会,,その他の設立登記法人,愛知県,刈谷市,小垣江町中伊勢山１５番地１,,23,210,4480813,,,,,,,2021-09-07,1,,,,,ハヤブサカイ,0
1165,4190001028662,新規,0,2021-09-07,2021-09-07,株式会社Ｓｔｅｃ,,株式会社,三重県,松阪市,上川町２０７６番地,,24,204,5150041,,,,,,,2021-09-07,1,,,,,エステック,0
1166,4190001028670,新規,0,2021-09-07,2021-09-07,株式会社ＲＥＶＩＶＡＬ,,株式会社,三重県,四日市市,久保田２丁目１１番１９号４０２号,,24,202,5100821,,,,,,,2021-09-07,1,,,,,リヴァイバル,0
1170,4200001039105,新規,0,2021-09-07,2021-09-07,株式会社ＲＹＯＴＡ　ＡＯＫＩ　ＰＯＴＴＥＲＹ,,株式会社,岐阜県,土岐市,妻木町２１９０番地の３,,21,212,5095301,,,,,,,2021-09-07,1,,,,,リョータアオキポッタリー,0
1172,4220001024402,新規,0,2021-09-07,2021-09-07,株式会社遊び心カンパニー,,株式会社,石川県,金沢市,片町２丁目２番２号,,17,201,9200981,,,,,,,2021-09-07,1,,,,,アソビゴコロカンパニー,0
1173,4220001024419,新規,0,2021-09-07,2021-09-07,株式会社マツモト,,株式会社,石川県,かほく市,木津ハ１４番地２,,17,209,9291171,,,,,,,2021-09-07,1,,,,,マツモト,0
1175,4220003003107,新規,0,2021-09-07,2021-09-07,合同会社Ｆｏｒ　Ｙｏｕ,,合同会社,石川県,金沢市,保古１丁目４３番地,,17,201,9218052,,,,,,,2021-09-07,1,,,,,フォーユー,0
1176,4230001018972,新規,0,2021-09-07,2021-09-07,栄順商事株式会社,,株式会社,富山県,射水市,鷲塚１８１番１０,,16,211,9390305,,,,,,,2021-09-07,1,,,,,エイジュンショウジ,0
1188,4240001058571,新規,0,2021-09-07,2021-09-07,株式会社新生,,株式会社,広島県,広島市安佐北区,白木町大字三田下大椿３８８０番地１,,34,106,7391521,,,,,,,2021-09-07,1,,,,,シンセイ,0
1203,4290001094463,新規,0,2021-09-07,2021-09-07,廣八堂太陽光発電株式会社,,株式会社,福岡県,朝倉市,日向石１２０２番地,,40,228,8380018,,,,,,,2021-09-07,1,,,,,ヒロハチドウタイヨウコウハツデン,0
1204,4290001094471,新規,0,2021-09-07,2021-09-07,株式会社ハヤマ,,株式会社,福岡県,朝倉郡筑前町,上高場７９５番地,,40,447,8380821,,,,,,,2021-09-07,1,,,,,ハヤマ,0
1205,4290001094496,新規,0,2021-09-07,2021-09-07,マルハクホールディングス株式会社,,株式会社,福岡県,福岡市博多区,沖浜町１１番２７号,,40,132,8120031,,,,,,,2021-09-07,1,,,,,マルハクホールディングス,0
1206,4290001094513,新規,0,2021-09-07,2021-09-07,株式会社フライク,,株式会社,福岡県,福岡市中央区,天神１丁目９番１７号福岡天神フコク生命ビル１５階,,40,133,8100001,,,,,,,2021-09-07,1,,,,,フライク,0
1207,4290001094521,新規,0,2021-09-07,2021-09-07,株式会社ＴＳＵＮＡＧＥＬ,,株式会社,福岡県,朝倉市,平塚１１４４番地１,,40,228,8380059,,,,,,,2021-09-07,1,,,,,ツナゲル,0
1208,4290001094546,新規,0,2021-09-07,2021-09-07,株式会社ミラクルホールディングス,,株式会社,福岡県,福岡市中央区,赤坂１丁目１０番２２号ベスト赤坂門ビル５Ｆ,,40,133,8100042,,,,,,,2021-09-07,1,,,,,ミラクルホールディングス,0
1210,4290003011573,新規,0,2021-09-07,2021-09-07,ＥＬＥＶＥＮ合同会社,,合同会社,福岡県,福岡市中央区,小笹１丁目１８番３８－２０２号,,40,133,8100033,,,,,,,2021-09-07,1,,,,,イレブン,0
1213,4290005018344,新規,0,2021-09-07,2021-09-07,一般社団法人海のほとり玉乃井,,その他の設立登記法人,福岡県,福津市,津屋崎４丁目１番１３号,,40,224,8113304,,,,,,,2021-09-07,1,,,,,ウミノホトリタマノイ,0
1214,4290005018352,新規,0,2021-09-07,2021-09-07,一般社団法人環境プロジェクト推進協会,,その他の設立登記法人,福岡県,福岡市西区,大字吉武字開木２５５番地１,,40,135,8190036,,,,,,,2021-09-07,1,,,,,カンキョウプロジェクトスイシンキョウカイ,0
1219,4290801027770,新規,0,2021-09-07,2021-09-07,九州解体株式会社,,株式会社,福岡県,北九州市小倉南区,大字新道寺９９３番地の１,,40,107,8030186,,,,,,,2021-09-07,1,,,,,キュウシュウカイタイ,0
1228,4320001018583,新規,0,2021-09-07,2021-09-07,株式会社ＨＩＢＩＫＩ工業,,株式会社,大分県,大分市,大字下判田５８０番地の１９２,,44,201,8701112,,,,,,,2021-09-07,1,,,,,ヒビキコウギョウ,0
1229,4320003003609,新規,0,2021-09-07,2021-09-07,ワークプリント合同会社,,合同会社,大分県,豊後大野市,三重町市場５４３番地３,,44,212,8797131,,,,,,,2021-09-07,1,,,,,ワークプリント,0
1233,4330005010395,新規,0,2021-09-07,2021-09-07,社会福祉法人三幸,,その他の設立登記法人,熊本県,合志市,須屋２５０番地１,,43,216,8611102,,,,,,,2021-09-07,1,,,,,サンコウ,0
1235,4340001024084,新規,0,2021-09-07,2021-09-07,株式会社ベンチャーグループ,,株式会社,鹿児島県,大島郡伊仙町,大字阿権４９７番地,,46,532,8918322,,,,,,,2021-09-07,1,,,,,ベンチャーグループ,0
1243,4350001017285,新規,0,2021-09-07,2021-09-07,株式会社太田木材,,株式会社,宮崎県,宮崎市,大字細江１１１５番地１,,45,201,8802116,,,,,,,2021-09-07,1,,,,,オオタモクザイ,0
1254,4370003005369,新規,0,2021-09-07,2021-09-07,益居紅エステート合同会社,,合同会社,宮城県,仙台市太白区,向山１丁目１８番１号広瀬川ハイツ２０６,,04,104,9820841,,,,,,,2021-09-07,1,,,,,マスイベニエステート,0
1255,4370003005377,新規,0,2021-09-07,2021-09-07,合同会社イフアクト,,合同会社,宮城県,仙台市青葉区,東勝山２丁目２７番１号ＣＡＳＡ・ＬＩＥＮ１０５,,04,101,9810923,,,,,,,2021-09-07,1,,,,,イフアクト,0
1258,4380001032182,新規,0,2021-09-07,2021-09-07,株式会社マルエス工業,,株式会社,福島県,岩瀬郡鏡石町,鏡沼１４７番地安倍貸家７号,,07,342,9690401,,,,,,,2021-09-07,1,,,,,マルエスコウギョウ,0
1263,4410003003566,新規,0,2021-09-07,2021-09-07,合同会社Ｏｎｌｙ,,合同会社,秋田県,大仙市,大曲日の出町１丁目３７番２号,,05,212,0140063,,,,,,,2021-09-07,1,,,,,オンリー,0
1265,4430001084870,新規,0,2021-09-07,2021-09-07,株式会社Ｉ＆Ｉ,,株式会社,北海道,札幌市北区,麻生町５丁目１番３号,,01,102,0010045,,,,,,,2021-09-07,1,,,,,アイアンドアイ,0
1266,4430001084895,新規,0,2021-09-07,2021-09-07,サンライン株式会社,,株式会社,北海道,室蘭市,日の出町３丁目４番１０号,,01,205,0500081,,,,,,,2021-09-07,1,,,,,サンライン,0
1267,4430001084912,新規,0,2021-09-07,2021-09-07,株式会社ゆい,,株式会社,北海道,札幌市白石区,本通５丁目南４番１２号ＪＨＴビル本通Ⅰ－４Ｆ,00124153,01,104,0030026,,,,,,,2021-09-07,1,,,,,ユイ,0
1273,4450003002119,新規,0,2021-09-07,2021-09-07,合同会社ギアライズ,,合同会社,北海道,旭川市,東光二条８丁目３番１３号,,01,204,0788342,,,,,,,2021-09-07,1,,,,,ギアライズ,0
1298,5010001220863,新規,0,2021-09-07,2021-09-07,株式会社ＥＢＥ・ＴＲＵＣＫ,,株式会社,東京都,千代田区,神田淡路町２丁目２３番地１,,13,101,1010063,,,,,,,2021-09-07,1,,,,,イーバトラック,0
1299,5010001220888,新規,0,2021-09-07,2021-09-07,株式会社ＳＱＡ,,株式会社,東京都,中央区,銀座１丁目１２番地４号Ｎ＆ＥＢＬＤ．７階,,13,102,1040061,,,,,,,2021-09-07,1,,,,,エスキューエー,0
1300,5010001220905,新規,0,2021-09-07,2021-09-07,株式会社アートオブ・クリーン,,株式会社,東京都,千代田区,神田錦町３丁目１５名鉄不動産竹橋ビル７階,,13,101,1010054,,,,,,,2021-09-07,1,,,,,アートオブクリーン,0
1301,5010001220921,新規,0,2021-09-07,2021-09-07,Ｋ＆Ｋホールディングス株式会社,,株式会社,東京都,千代田区,神田練塀町５５番地パークタワー秋葉原１２０１号,,13,101,1010022,,,,,,,2021-09-07,1,,,,,ケイアンドケイホールディングス,0
1302,5010001220938,新規,0,2021-09-07,2021-09-07,ＮＴＴソノリティ株式会社,,株式会社,東京都,千代田区,大手町１丁目５番１号,,13,101,1000004,,,,,,,2021-09-07,1,,,,,エヌティーティーソノリティ,0
1303,5010001220979,新規,0,2021-09-07,2021-09-07,株式会社ＰＬＡＴＡＮＯ,,株式会社,東京都,中央区,銀座１丁目２２番１１号銀座大竹ビジデンス２階,,13,102,1040061,,,,,,,2021-09-07,1,,,,,プラタノ,0
1304,5010001221003,新規,0,2021-09-07,2021-09-07,エファード株式会社,,株式会社,東京都,中央区,日本橋兜町１７番１号日本橋ロイヤルプラザ７０６,,13,102,1030026,,,,,,,2021-09-07,1,,,,,エファード,0
1307,5010003035748,新規,0,2021-09-07,2021-09-07,合同会社ジーエックステック,,合同会社,東京都,文京区,後楽１丁目１番５号後楽園サイドビル８Ｆ,,13,105,1120004,,,,,,,2021-09-07,1,,,,,ジーエックステック,0
1308,5010003035764,新規,0,2021-09-07,2021-09-07,オーケイリアルエステート合同会社,,合同会社,東京都,中央区,銀座１丁目２２番１１号２Ｆ,,13,102,1040061,,,,,,,2021-09-07,1,,,,,オーケイリアルエステート,0
1311,5010005033915,新規,0,2021-09-07,2021-09-07,一般社団法人Ｌ＆Ｄ協会,,その他の設立登記法人,東京都,千代田区,平河町１丁目６番１５号ＵＳビル８階,,13,101,1020093,,,,,,,2021-09-07,1,,,,,エルアンドディーキョウカイ,0
1316,5010401162458,新規,0,2021-09-07,2021-09-07,株式会社Ｍ．ｌｏｏｓｅ,,株式会社,東京都,港区,港南４丁目６－８－２４０９,,13,103,1080075,,,,,,,2021-09-07,1,,,,,エムルーズ,0
1317,5010401162482,新規,0,2021-09-07,2021-09-07,株式会社東野八郎左右衛門商店,,株式会社,東京都,港区,西新橋２丁目４番４号,,13,103,1050003,,,,,,,2021-09-07,1,,,,,トウノハチロウザエモンショウテン,0
1318,5010401162532,新規,0,2021-09-07,2021-09-07,プラップコンサルティング株式会社,,株式会社,東京都,港区,赤坂１丁目１２番３２号アーク森ビル,,13,103,1070052,,,,,,,2021-09-07,1,,,,,プラップコンサルティング,0
1325,5010405020166,新規,0,2021-09-07,2021-09-07,一般社団法人ＭＰＣ,,その他の設立登記法人,東京都,港区,赤坂３丁目１１－１４赤坂ベルゴ９０３,,13,103,1070052,,,,,,,2021-09-07,1,,,,,エムピーシー,0
1326,5010405020174,新規,0,2021-09-07,2021-09-07,一般社団法人スマートソサエティファウンデーション,,その他の設立登記法人,東京都,港区,赤坂２丁目１４番１１号,,13,103,1070052,,,,,,,2021-09-07,1,,,,,スマートソサエティファウンデーション,0
1333,5010701041452,新規,0,2021-09-07,2021-09-07,株式会社ＭＫアレックス,,株式会社,東京都,品川区,荏原４丁目１番１８号,,13,109,1420063,,,,,,,2021-09-07,1,,,,,エムケーアレックス,0
1337,5010901049394,新規,0,2021-09-07,2021-09-07,株式会社ＶＷＫ,,株式会社,東京都,世田谷区,玉川３丁目２０番２号,,13,112,1580094,,,,,,,2021-09-07,1,,,,,ブイダブリューケー,0
1340,5010903006765,新規,0,2021-09-07,2021-09-07,ＬＡＹ　ＰＲ　ＩＮＴＥＲＮＡＴＩＯＮＡＬ合同会社,,合同会社,東京都,世田谷区,弦巻３丁目１３－１８－５０３号,,13,112,1540016,,,,,,,2021-09-07,1,,,,,レイピーアールインターナショナル,0
1341,5010903006781,新規,0,2021-09-07,2021-09-07,ＭＯＮ　Ｊａｐａｎ合同会社,,合同会社,東京都,世田谷区,野毛３丁目５－９－１０１,,13,112,1580092,,,,,,,2021-09-07,1,,,,,モンジャパン,0
1343,5011001142610,新規,0,2021-09-07,2021-09-07,株式会社ｆｕｎｓ,,株式会社,東京都,渋谷区,恵比寿西２丁目１１番９号ＰＬＡＮＥＸＶＯＬＴＡ３Ｆ,,13,113,1500021,,,,,,,2021-09-07,1,,,,,ファンズ,0
1344,5011001142668,新規,0,2021-09-07,2021-09-07,株式会社アート・ストラテジーズ,,株式会社,東京都,渋谷区,代官山町１７－１－５１５,,13,113,1500034,,,,,,,2021-09-07,1,,,,,アートストラテジーズ,0
1345,5011001142676,新規,0,2021-09-07,2021-09-07,株式会社ＰＯＴ,,株式会社,東京都,渋谷区,上原１丁目１３番１１号Ｋ’ｓビル１０２,,13,113,1510064,,,,,,,2021-09-07,1,,,,,ピーオーティー,0
1354,5011101096194,新規,0,2021-09-07,2021-09-07,株式会社人事・賃金,,株式会社,東京都,新宿区,新宿６丁目２８番１０号大阪屋ビル９０２,,13,104,1600022,,,,,,,2021-09-07,1,,,,,ジンジチンギン,0
1355,5011101096211,新規,0,2021-09-07,2021-09-07,ＢＥＹＯＮＤ　ＣＵＬＩＮＡＲＹ　ＬＡＢＯＲＡＴＯＲＹ株式会社,,株式会社,東京都,新宿区,神楽坂６丁目３６番地１神楽坂ビル３０２号,,13,104,1620825,,,,,,,2021-09-07,1,,,,,ビヨンドカリナリーラボラトリー,0
1365,5011301027156,新規,0,2021-09-07,2021-09-07,株式会社クレータ,,株式会社,東京都,杉並区,今川４丁目２１番１７号第一藤祥ハイム２０１,,13,115,1670035,,,,,,,2021-09-07,1,,,,,クレータ,0
1372,5012405004636,新規,0,2021-09-07,2021-09-07,一般社団法人夢ごはん協会,,その他の設立登記法人,東京都,府中市,緑町３丁目３番地の１－１００１,,13,206,1830006,,,,,,,2021-09-07,1,,,,,ユメゴハンキョウカイ,0
1386,5013301047984,新規,0,2021-09-07,2021-09-07,株式会社ロバストコート,,株式会社,東京都,豊島区,巣鴨４丁目２２番１２号,,13,116,1700002,,,,,,,2021-09-07,1,,,,,ロバストコート,0
1387,5013303005817,新規,0,2021-09-07,2021-09-07,合同会社ＨＥＲＡ　ＢＥＡＵＴＹ　ＳＰＡ,,合同会社,東京都,豊島区,南大塚３丁目４０番６号大塚麻布ビル２階,,13,116,1700005,,,,,,,2021-09-07,1,,,,,ヘラビューティースパ,0
1398,5020001142917,新規,0,2021-09-07,2021-09-07,株式会社竹山塗装,,株式会社,神奈川県,横浜市港北区,篠原町９５７番地１グリーンコーポ篠原第２、Ｆ－３０４,,14,109,2220026,,,,,,,2021-09-07,1,,,,,タケヤマトソウ,0
1399,5020001142925,新規,0,2021-09-07,2021-09-07,Ｌｉａｍ　ｅｎｔｅｒｔａｉｎｍｅｎｔ株式会社,,株式会社,神奈川県,横浜市西区,戸部町７丁目２４０番地,,14,103,2200042,,,,,,,2021-09-07,1,,,,,リアムエンターテインメント,0
1400,5020001142933,新規,0,2021-09-07,2021-09-07,ひなた株式会社,,株式会社,神奈川県,横浜市青葉区,新石川２丁目３２番地７第５みなもとビル１－Ａ,,14,117,2250003,,,,,,,2021-09-07,1,,,,,ヒナタ,0
1401,5020001142941,新規,0,2021-09-07,2021-09-07,ＣＲＯＳＳＢＩＥ　ＪＡＰＡＮ株式会社,,株式会社,神奈川県,横浜市中区,尾上町３丁目３５番地横浜第一有楽ビル３階,,14,104,2310015,,,,,,,2021-09-07,1,,,,,クロスビージャパン,0
1403,5020003020427,新規,0,2021-09-07,2021-09-07,横浜薪庵合同会社,,合同会社,神奈川県,横浜市磯子区,岡村４丁目９番３８号,,14,107,2350021,,,,,,,2021-09-07,1,,,,,ヨコハママキアン,0
1404,5020003020443,新規,0,2021-09-07,2021-09-07,合同会社トウゲン,,合同会社,神奈川県,横浜市鶴見区,鶴見中央５丁目７－１６,,14,101,2300051,,,,,,,2021-09-07,1,,,,,トウゲン,0
1409,5021001073846,新規,0,2021-09-07,2021-09-07,株式会社ケイアンドカンパニー,,株式会社,神奈川県,藤沢市,辻堂元町３丁目１３番１４号,,14,205,2510043,,,,,,,2021-09-07,1,,,,,ケイアンドカンパニー,0
1410,5021001073854,新規,0,2021-09-07,2021-09-07,株式会社アキラインダストリー,,株式会社,神奈川県,相模原市中央区,上溝４２２番地７,,14,152,2520243,,,,,,,2021-09-07,1,,,,,アキラインダストリー,0
1413,5021003010855,新規,0,2021-09-07,2021-09-07,マークコンテンツ合同会社,,合同会社,神奈川県,大和市,草柳３丁目３番１号,,14,213,2420026,,,,,,,2021-09-07,1,,,,,マークコンテンツ,0
1424,5030001144193,新規,0,2021-09-07,2021-09-07,株式会社タケヤ,,株式会社,埼玉県,戸田市,大字新曽１０２４番地,,11,224,3350021,,,,,,,2021-09-07,1,,,,,タケヤ,0
1425,5030001144251,新規,0,2021-09-07,2021-09-07,株式会社さおとめ商事,,株式会社,埼玉県,坂戸市,薬師町２３３９番地２３,,11,239,3500229,,,,,,,2021-09-07,1,,,,,サオトメショウジ,0
1430,5030003017892,新規,0,2021-09-07,2021-09-07,合同会社Ｃ＆ＭａｔＰＡＰＣ,,合同会社,埼玉県,八潮市,大字大瀬１５３０番地１,,11,234,3400822,,,,,,,2021-09-07,1,,,,,シーアンドエムアットピーエーピーシー,0
1434,5040001120020,新規,0,2021-09-07,2021-09-07,ハヤカワ商工株式会社,,株式会社,千葉県,柏市,千代田１丁目５番２７号,,12,217,2770025,,,,,,,2021-09-07,1,,,,,ハヤカワショウコウ,0
1438,5050001049812,新規,0,2021-09-07,2021-09-07,株式会社Ｋ．Ａ．Ｃ,,株式会社,茨城県,土浦市,神立町６６７番地５４,,08,203,3000013,,,,,,,2021-09-07,1,,,,,ケーエーシー,0
1440,5050003006068,新規,0,2021-09-07,2021-09-07,合同会社Ｅｍｍａｇｉｎａｔｉｏｎ,,合同会社,茨城県,日立市,多賀町１丁目１２－２４鈴木第三ビル,,08,202,3160003,,,,,,,2021-09-07,1,,,,,,0
1441,5060001034053,新規,0,2021-09-07,2021-09-07,株式会社ＮｅｘｔＦｉｒｍ,,株式会社,栃木県,宇都宮市,陽東８丁目１８番２７号斎藤ビル３０５号室,,09,201,3210904,,,,,,,2021-09-07,1,,,,,ネクストファーム,0
1442,5060001034061,新規,0,2021-09-07,2021-09-07,鹿島商事株式会社,,株式会社,栃木県,下都賀郡壬生町,大字下稲葉２０７５番地１,,09,361,3210237,,,,,,,2021-09-07,1,,,,,カシマショウジ,0
1448,5070001038409,新規,0,2021-09-07,2021-09-07,株式会社七福レジン,,株式会社,群馬県,渋川市,赤城町津久田２７４番地３８,,10,208,3791103,,,,,,,2021-09-07,1,,,,,シチフクレジン,0
1454,5080103002419,新規,0,2021-09-07,2021-09-07,合同会社ビービーワークス,,合同会社,静岡県,富士市,永田町１丁目１５番地中村ビル２０１号,,22,210,4170055,,,,,,,2021-09-07,1,,,,,ビービーワークス,0
1458,5080401025328,新規,0,2021-09-07,2021-09-07,かな株式会社,,株式会社,静岡県,袋井市,高尾１５４７番地の１３６,,22,216,4370023,,,,,,,2021-09-07,1,,,,,カナ,0
1464,5110001036011,新規,0,2021-09-07,2021-09-07,株式会社アリサカ,,株式会社,新潟県,新潟市西蒲区,巻甲５８３番地,,15,108,9530041,,,,,,,2021-09-07,1,,,,,アリサカ,0
1477,5120001240116,新規,0,2021-09-07,2021-09-07,カメカメ株式会社,,株式会社,大阪府,大阪市中央区,南船場２丁目７番１４号,,27,128,5420081,,,,,,,2021-09-07,1,,,,,カメカメ,0
1478,5120001240157,新規,0,2021-09-07,2021-09-07,株式会社キオラ,,株式会社,大阪府,大阪市中央区,内平野町２丁目２番１７－１０１号,,27,128,5400037,,,,,,,2021-09-07,1,,,,,キオラ,0
1479,5120001240198,新規,0,2021-09-07,2021-09-07,株式会社ＴＡＫＥＳＨＩ,,株式会社,大阪府,大阪市中央区,瓦町４丁目５番３－５０１号,,27,128,5410048,,,,,,,2021-09-07,1,,,,,タケシ,0
1480,5120001240215,新規,0,2021-09-07,2021-09-07,源森株式会社,,株式会社,大阪府,大阪市平野区,長吉長原東３丁目６番２１号,,27,126,5470013,,,,,,,2021-09-07,1,,,,,ゲンシン,0
1485,5120003020177,新規,0,2021-09-07,2021-09-07,合同会社グランドスラム,,合同会社,大阪府,大阪市中央区,瓦屋町３丁目６番１５号道頓堀クリスタルエグゼ４０１号室,,27,128,5420066,,,,,,,2021-09-07,1,,,,,グランドスラム,0
1494,5120901044863,新規,0,2021-09-07,2021-09-07,株式会社アップル不動産,,株式会社,大阪府,豊中市,上新田２丁目１５番５号,,27,203,5600085,,,,,,,2021-09-07,1,,,,,アップルフドウサン,0
1495,5120901044871,新規,0,2021-09-07,2021-09-07,株式会社エムエムオウ,,株式会社,大阪府,箕面市,牧落２丁目１０番５号,,27,220,5620004,,,,,,,2021-09-07,1,,,,,エムエムオウ,0
1496,5120905006224,新規,0,2021-09-07,2021-09-07,一般社団法人安心サポート,,その他の設立登記法人,大阪府,高槻市,寿町１丁目４番７号,,27,207,5690826,,,,,,,2021-09-07,1,,,,,アンシンサポート,0
1498,5122001035149,新規,0,2021-09-07,2021-09-07,株式会社ＩＳＫ,,株式会社,大阪府,四條畷市,岡山東３丁目７番９号,,27,229,5750003,,,,,,,2021-09-07,1,,,,,アイエスケー,0
1502,5122003002171,新規,0,2021-09-07,2021-09-07,合同会社ＵＭＥＭＩＴＳＵ,,合同会社,大阪府,東大阪市,西石切町３丁目２番８号,,27,227,5798013,,,,,,,2021-09-07,1,,,,,ウメミツ,0
1508,5130001070058,新規,0,2021-09-07,2021-09-07,株式会社イマジン,,株式会社,京都府,京都市東山区,福稲高原町１８番地１,,26,105,6050984,,,,,,,2021-09-07,1,,,,,イマジン,0
1517,5140001122881,新規,0,2021-09-07,2021-09-07,株式会社廣田工務店,,株式会社,兵庫県,洲本市,宇原１８７１番地１,,28,205,6560054,,,,,,,2021-09-07,1,,,,,ヒロタコウムテン,0
1518,5140001122923,新規,0,2021-09-07,2021-09-07,株式会社クレア,,株式会社,兵庫県,神戸市須磨区,白川台３丁目３８番地５３白川台ハイツ４号棟４０５,,28,107,6540103,,,,,,,2021-09-07,1,,,,,クレア,0
1519,5140001122964,新規,0,2021-09-07,2021-09-07,株式会社ピオニア,,株式会社,兵庫県,宝塚市,南口１丁目１７番１３号リヒテール宝塚２０１号室,,28,214,6650011,,,,,,,2021-09-07,1,,,,,ピオニア,0
1520,5140001122989,新規,0,2021-09-07,2021-09-07,株式会社Ｍａｋｉｂｉｔｏ,,株式会社,兵庫県,丹波市,柏原町石戸１４番地,,28,223,6693307,,,,,,,2021-09-07,1,,,,,マキビト,0
1528,5180001147669,新規,0,2021-09-07,2021-09-07,株式会社アンウェーブ,,株式会社,愛知県,名古屋市緑区,鳴海町字三皿２０番地の３・１Ｆ,,23,114,4580801,,,,,,,2021-09-07,1,,,,,アンウェーブ,0
1529,5180001147685,新規,0,2021-09-07,2021-09-07,株式会社ＡＲＣ,,株式会社,愛知県,名古屋市中区,金山３丁目１１番９号プロシード金山８０２号,,23,106,4600022,,,,,,,2021-09-07,1,,,,,アーク,0
1530,5180001147719,新規,0,2021-09-07,2021-09-07,株式会社銀革屋,,株式会社,愛知県,知多郡武豊町,字六貫山１丁目１１７番地２,,23,447,4702362,,,,,,,2021-09-07,1,,,,,ギンカワヤ,0
1531,5180001147727,新規,0,2021-09-07,2021-09-07,株式会社タムラ塗装,,株式会社,愛知県,名古屋市天白区,福池２丁目５番地の１,,23,116,4680049,,,,,,,2021-09-07,1,,,,,タムラトソウ,0
1532,5180001147751,新規,0,2021-09-07,2021-09-07,株式会社ＡＷＯＹＡ,,株式会社,愛知県,弥富市,鯏浦町南前新田１６０番地１,,23,235,4980027,,,,,,,2021-09-07,1,,,,,アオヤ,0
1537,5180003022928,新規,0,2021-09-07,2021-09-07,合同会社ＯＰＡ,,合同会社,愛知県,春日井市,牛山町１９４８番地６,,23,206,4860901,,,,,,,2021-09-07,1,,,,,オパ,0
1538,5180005019427,新規,0,2021-09-07,2021-09-07,土地家屋調査士法人かとう事務所,,その他の設立登記法人,愛知県,名古屋市名東区,本郷２丁目１７３番地の４名古屋インタービル４階,,23,115,4650024,,,,,,,2021-09-07,1,,,,,カトウジムショ,0
1542,5180301035334,新規,0,2021-09-07,2021-09-07,株式会社ＰＷＥ,,株式会社,愛知県,豊橋市,松葉町１丁目７４飛雄馬ビル３階,,23,201,4400897,,,,,,,2021-09-07,1,,,,,ピーダブリューイー,0
1543,5180301035350,新規,0,2021-09-07,2021-09-07,株式会社近藤装建,,株式会社,愛知県,豊橋市,南大清水町字富士見８４６番地,,23,201,4418132,,,,,,,2021-09-07,1,,,,,コンドウソウケン,0
1546,5180303005095,新規,0,2021-09-07,2021-09-07,ＳＯＭＩ合同会社,,合同会社,愛知県,豊田市,大林町１６丁目６‐１６板倉ハイツ３０５号,,23,211,4730902,,,,,,,2021-09-07,1,,,,,ソミ,0
1547,5180305009235,新規,0,2021-09-07,2021-09-07,行政書士法人ひび事務所,,その他の設立登記法人,愛知県,豊田市,中町中前３２番地,,23,211,4730904,,,,,,,2021-09-07,1,,,,,ヒビジムショ,0
1549,5200003005302,新規,0,2021-09-07,2021-09-07,ＷＢＳＳ合同会社,,合同会社,岐阜県,岐阜市,長森細畑１８１７番地３（カミノビル３Ｆ）,,21,201,5008247,,,,,,,2021-09-07,1,,,,,ダブリュービーエスエス,0
1561,5260001035948,新規,0,2021-09-07,2021-09-07,株式会社ｋａｋｅｒｕＸ,,株式会社,岡山県,笠岡市,笠岡４９３８番地２号,,33,205,7140081,,,,,,,2021-09-07,1,,,,,カケルクロス,0
1562,5260003003671,新規,0,2021-09-07,2021-09-07,合同会社ｔｏｏｏｌｅアグリソーラー,,合同会社,岡山県,英田郡西粟倉村,大字長尾１４３２番地１‐７‐Ｆ,,33,643,7070504,,,,,,,2021-09-07,1,,,,,トゥーレアグリソーラー,0
1565,5290001094454,新規,0,2021-09-07,2021-09-07,株式会社ポスパム,,株式会社,福岡県,福岡市東区,名島３丁目４－３－２階,,40,131,8130043,,,,,,,2021-09-07,1,,,,,ポスパム,0
1566,5290001094520,新規,0,2021-09-07,2021-09-07,株式会社悠ホーム,,株式会社,福岡県,太宰府市,長浦台４丁目３番１０号,,40,221,8180136,,,,,,,2021-09-07,1,,,,,ユウホーム,0
1567,5290001094545,新規,0,2021-09-07,2021-09-07,株式会社石田,,株式会社,福岡県,福岡市博多区,諸岡１丁目２５番１４号,,40,132,8120894,,,,,,,2021-09-07,1,,,,,イシダ,0
1570,5290005018351,新規,0,2021-09-07,2021-09-07,一般社団法人Ｉｎｔｅｒｎａｔｉｏｎａｌ　Ｓ．Ｃ　Ｌａｂ,,その他の設立登記法人,福岡県,福岡市中央区,大名１丁目３番４２号,,40,133,8100041,,,,,,,2021-09-07,1,,,,,インターナショナルエスシーラボ,0
1572,5290801027778,新規,0,2021-09-07,2021-09-07,株式会社ＴＳＫ,,株式会社,福岡県,北九州市小倉北区,西港町９１番地７,,40,106,8030801,,,,,,,2021-09-07,1,,,,,ティーエスケー,0
1575,5300001012620,新規,0,2021-09-07,2021-09-07,ＧＭ株式会社,,株式会社,佐賀県,佐賀市,多布施３丁目１３番２号,,41,201,8400842,,,,,,,2021-09-07,1,,,,,ジーエム,0
1577,5310001017461,新規,0,2021-09-07,2021-09-07,株式会社惠,,株式会社,長崎県,東彼杵郡波佐見町,宿郷１５０７－１,,42,323,8593715,,,,,,,2021-09-07,1,,,,,メグミ,0
1579,5320001018582,新規,0,2021-09-07,2021-09-07,株式会社Ｓｐｉｒｉｔ　Ｃａｒｓ,,株式会社,大分県,大分市,花園１丁目１０番４２号,,44,201,8700846,,,,,,,2021-09-07,1,,,,,スピリットカーズ,0
1580,5320003003608,新規,0,2021-09-07,2021-09-07,合同会社介護タクシーもなか,,合同会社,大分県,大分市,大字荏隈１４０２番地１９,,44,201,8700889,,,,,,,2021-09-07,1,,,,,カイゴタクシーモナカ,0
1585,5340003003548,新規,0,2021-09-07,2021-09-07,合同会社Ｊ．Ｄ．Ｉ,,合同会社,鹿児島県,鹿児島市,下荒田２丁目２５番６号,,46,201,8900056,,,,,,,2021-09-07,1,,,,,ジエーディーアイ,0
1590,5350003003919,新規,0,2021-09-07,2021-09-07,碧合同会社,,合同会社,宮崎県,都城市,南鷹尾町２８街区１号,,45,202,8850082,,,,,,,2021-09-07,1,,,,,アオ,0
1592,5360001029246,新規,0,2021-09-07,2021-09-07,株式会社Ｔｐｒｅｃｉｏｕｓ,,株式会社,沖縄県,那覇市,田原１丁目１７－３,,47,201,9010156,,,,,,,2021-09-07,1,,,,,ティープレシャス,0
1602,5390001016588,新規,0,2021-09-07,2021-09-07,株式会社共栄Ｆｉｅｌｄ　Ｖｉｌｌａｇｅ,,株式会社,山形県,最上郡真室川町,大字新町１３０２番地,,06,364,9995312,,,,,,,2021-09-07,1,,,,,キョウエイフィールドヴィレッジ,0
1605,5400005008183,新規,0,2021-09-07,2021-09-07,医療法人ａ－ｌｉｖｅ,,その他の設立登記法人,岩手県,盛岡市,三本柳７地割１３番地８,,03,201,0200831,,,,,,,2021-09-07,1,,,,,アライブ,0
1615,5450003002118,新規,0,2021-09-07,2021-09-07,合同会社広栄,,合同会社,北海道,苫前郡羽幌町,南大通４丁目１６番地の２,,01,484,0784108,,,,,,,2021-09-07,1,,,,,コウエイ,0
1618,5480001011472,新規,0,2021-09-07,2021-09-07,眞鍋商会株式会社,,株式会社,徳島県,吉野川市,山川町川東１１５番地,,36,205,7793401,,,,,,,2021-09-07,1,,,,,マナベショウカイ,0
1624,6010001220904,新規,0,2021-09-07,2021-09-07,株式会社メディカルサン,,株式会社,東京都,千代田区,九段南１丁目５番６号りそな九段ビル５Ｆ・ＫＳフロア,,13,101,1020074,,,,,,,2021-09-07,1,,,,,メディカルサン,0
1625,6010001220912,新規,0,2021-09-07,2021-09-07,株式会社Ｒｅ－ｍｅｄｉ　Ｔｅｃｈ,,株式会社,東京都,中央区,銀座１丁目２２番１１号銀座大竹ビジデンス２階,,13,102,1040061,,,,,,,2021-09-07,1,,,,,リーメディテック,0
1626,6010001220994,新規,0,2021-09-07,2021-09-07,日本素和株式会社,,株式会社,東京都,中央区,日本橋蛎殻町１丁目３番５号共同ビル２階２３号,,13,102,1030014,,,,,,,2021-09-07,1,,,,,,0
1627,6010003035739,新規,0,2021-09-07,2021-09-07,合同会社千代田トラスト綜合会計グループ,,合同会社,東京都,千代田区,二番町１番２号番町ハイム３１３号,,13,101,1020084,,,,,,,2021-09-07,1,,,,,チヨダトラストソウゴウカイケイグループ,0
1633,6010401162523,新規,0,2021-09-07,2021-09-07,株式会社リガケーション研究所,,株式会社,東京都,港区,虎ノ門１丁目１６番１６号,,13,103,1050001,,,,,,,2021-09-07,1,,,,,リガケーションケンキュウショ,0
1635,6010501047797,新規,0,2021-09-07,2021-09-07,アルファ保険企画株式会社,,株式会社,東京都,台東区,寿２丁目４番８号浅草妙見屋ビル３０９,,13,106,1110042,,,,,,,2021-09-07,1,,,,,アルファホケンキカク,0
1636,6010501047806,新規,0,2021-09-07,2021-09-07,株式会社ジェミニ,,株式会社,東京都,台東区,池之端１丁目１番２号ウスダムコーヅ池之端ハイツ５０１号,,13,106,1100008,,,,,,,2021-09-07,1,,,,,ジェミニ,0
1639,6010701041443,新規,0,2021-09-07,2021-09-07,株式会社フロンティア,,株式会社,東京都,品川区,大崎４丁目３－２秋葉ビル３０２,,13,109,1410032,,,,,,,2021-09-07,1,,,,,フロンティア,0
1640,6010701041451,新規,0,2021-09-07,2021-09-07,株式会社ＨＮ　Ｌａｂ,,株式会社,東京都,品川区,上大崎３丁目８番６号ＧＲＡＮＰＡＳＥＯ目黒３０２,,13,109,1410021,,,,,,,2021-09-07,1,,,,,エイチエヌラボ,0
1643,6010801032292,新規,0,2021-09-07,2021-09-07,株式会社エスト・リュミエール,,株式会社,東京都,大田区,大森東５丁目１４番７号エスト・リュミエール６０１,,13,111,1430012,,,,,,,2021-09-07,1,,,,,エストリュミエール,0
1644,6010901049402,新規,0,2021-09-07,2021-09-07,株式会社Ｂｅａｕｔｙ　Ｓｗｉｔｃｈ,,株式会社,東京都,世田谷区,上馬３丁目８番６号２Ｆ,,13,112,1540011,,,,,,,2021-09-07,1,,,,,ビューティースイッチ,0
1652,6011001142700,新規,0,2021-09-07,2021-09-07,ＯＯＤＡプラス株式会社,,株式会社,東京都,目黒区,洗足２丁目９番９号,,13,110,1520012,,,,,,,2021-09-07,1,,,,,ウーダプラス,0
1656,6011101096210,新規,0,2021-09-07,2021-09-07,株式会社木ノ花,,株式会社,東京都,新宿区,袋町２５番地４６－１０２,,13,104,1620828,,,,,,,2021-09-07,1,,,,,コノハナ,0
1658,6011301027155,新規,0,2021-09-07,2021-09-07,株式会社Ｐｏｒｔａｌｇｒａｐｈ,,株式会社,東京都,杉並区,和泉３丁目３２番２号,,13,115,1680063,,,,,,,2021-09-07,1,,,,,ポータルグラフ,0
1661,6011601025379,新規,0,2021-09-07,2021-09-07,株式会社アミヌイエ,,株式会社,東京都,練馬区,石神井町４丁目１４－７,,13,120,1770041,,,,,,,2021-09-07,1,,,,,アミヌイエ,0
1667,6012401038281,新規,0,2021-09-07,2021-09-07,株式会社ＲＡＹ　ＨＯＭＥ,,株式会社,東京都,多摩市,豊ヶ丘１丁目１２番２号－１０２号室,,13,224,2060031,,,,,,,2021-09-07,1,,,,,レイホーム,0
1671,6012801021060,新規,0,2021-09-07,2021-09-07,株式会社ＤＡＩＱ,,株式会社,東京都,国立市,北２丁目３番の７４,,13,215,1860001,,,,,,,2021-09-07,1,,,,,ダイク,0
1673,6013103001073,新規,0,2021-09-07,2021-09-07,合同会社フォーユー,,合同会社,東京都,西多摩郡日の出町,大字平井７６０番地１０８,,13,305,1900182,,,,,,,2021-09-07,1,,,,,フォーユー,0
1675,6013301047991,新規,0,2021-09-07,2021-09-07,株式会社ＢＬＵＥ　ＳＫＹ,,株式会社,東京都,豊島区,東池袋２丁目５５番３号横谷ビル２０２号室,,13,116,1700013,,,,,,,2021-09-07,1,,,,,ブルースカイ,0
1683,6020001142916,新規,0,2021-09-07,2021-09-07,株式会社Ｃａｎａｌｅｔｔｏ,,株式会社,神奈川県,川崎市中原区,下小田中５丁目２番１号,,14,133,2110041,,,,,,,2021-09-07,1,,,,,カナレット,0
1684,6020003020426,新規,0,2021-09-07,2021-09-07,合同会社８,,合同会社,神奈川県,川崎市高津区,二子５丁目３－１０ＤＭビル４Ｆ,,14,134,2130002,,,,,,,2021-09-07,1,,,,,エイト,0
1685,6020003020442,新規,0,2021-09-07,2021-09-07,合同会社やまいち,,合同会社,神奈川県,横浜市瀬谷区,竹村町１３－３６,,14,114,2460005,,,,,,,2021-09-07,1,,,,,ヤマイチ,0
1688,6021001073845,新規,0,2021-09-07,2021-09-07,株式会社関浪,,株式会社,神奈川県,三浦郡葉山町,下山口１５８４番地,,14,301,2400116,,,,,,,2021-09-07,1,,,,,セキナミ,0
1689,6021001073853,新規,0,2021-09-07,2021-09-07,株式会社ハピスマ,,株式会社,神奈川県,厚木市,恩名５丁目１番１号,,14,212,2430032,,,,,,,2021-09-07,1,,,,,ハピスマ,0
1696,6030001144176,新規,0,2021-09-07,2021-09-07,アクティブステージ株式会社,,株式会社,埼玉県,所沢市,小手指南４丁目３４番地の９,,11,208,3591146,,,,,,,2021-09-07,1,,,,,アクティブステージ,0
1699,6030003017891,新規,0,2021-09-07,2021-09-07,合同会社メディカルサポート,,合同会社,埼玉県,朝霞市,朝志ケ丘２丁目１３番１６－２１０６号,,11,227,3510035,,,,,,,2021-09-07,1,,,,,メディカルサポート,0
1700,6030005020489,新規,0,2021-09-07,2021-09-07,社会福祉法人康聖会,,その他の設立登記法人,埼玉県,さいたま市西区,西大宮３丁目９－２,,11,101,3310078,,,,,,,2021-09-07,1,,,,,コウセイカイ,0
1706,6040001120044,新規,0,2021-09-07,2021-09-07,株式会社佐瀨農園,00124157,株式会社,千葉県,東金市,下武射田２３４番地,,12,213,2830012,,,,,,,2021-09-07,1,,,,,サセノウエン,0
1707,6040001120052,新規,0,2021-09-07,2021-09-07,株式会社長嶋電設,,株式会社,千葉県,四街道市,もねの里２丁目３２番４号,,12,228,2840016,,,,,,,2021-09-07,1,,,,,ナガシマデンセツ,0
1708,6040001120060,新規,0,2021-09-07,2021-09-07,株式会社みつばエクステリア,,株式会社,千葉県,市川市,須和田１丁目３２番８号,,12,203,2720825,,,,,,,2021-09-07,1,,,,,ミツバエクステリア,0
1709,6040001120069,新規,0,2021-09-07,2021-09-07,株式会社エスアンドエス,,株式会社,千葉県,市原市,惣社２丁目８番地１２,,12,219,2900023,,,,,,,2021-09-07,1,,,,,エスアンドエス,0
1710,6040001120077,新規,0,2021-09-07,2021-09-07,株式会社ＯＧＹ,,株式会社,千葉県,柏市,豊四季１１２番地１イースタンパレス１０３,,12,217,2770863,,,,,,,2021-09-07,1,,,,,オージーワイ,0
1711,6040001120093,新規,0,2021-09-07,2021-09-07,寺島建築株式会社,,株式会社,千葉県,柏市,西原６丁目１５番３号,,12,217,2770885,,,,,,,2021-09-07,1,,,,,テラジマケンチク,0
1712,6040001120102,新規,0,2021-09-07,2021-09-07,株式会社ハーモニーメディカル,,株式会社,千葉県,市原市,島野１７２９番地１５,,12,219,2900034,,,,,,,2021-09-07,1,,,,,ハーモニーメディカル,0
1713,6040001120127,新規,0,2021-09-07,2021-09-07,株式会社アトリエ・エフ,,株式会社,千葉県,浦安市,富士見２丁目４８番１号ＳＫハイツ２０１号,,12,227,2790043,,,,,,,2021-09-07,1,,,,,アトリエエフ,0
1717,6040003018443,新規,0,2021-09-07,2021-09-07,合同会社Ａｓｉｘ,,合同会社,千葉県,野田市,目吹１３２９番地の８１,,12,208,2780001,,,,,,,2021-09-07,1,,,,,エイシックス,0
1724,6050003006067,新規,0,2021-09-07,2021-09-07,メグプーロ合同会社,,合同会社,茨城県,結城市,大字大木２４０３－２８,,08,207,3070031,,,,,,,2021-09-07,1,,,,,メグプーロ,0
1729,6060001034060,新規,0,2021-09-07,2021-09-07,株式会社Ｃｌａｒｔｅ,,株式会社,栃木県,宇都宮市,駒生町１５３５番地１９,,09,201,3200065,,,,,,,2021-09-07,1,,,,,クラルテ,0
1733,6070001038408,新規,0,2021-09-07,2021-09-07,株式会社三矢カンパニー,,株式会社,群馬県,高崎市,剣崎町２３１番地,,10,202,3700883,,,,,,,2021-09-07,1,,,,,ミツヤカンパニー,0
1734,6070001038416,新規,0,2021-09-07,2021-09-07,株式会社ＡＭＰ,,株式会社,群馬県,高崎市,棟高町４３８番地１４,,10,202,3703521,,,,,,,2021-09-07,1,,,,,エーエムピー,0
1742,6080101022756,新規,0,2021-09-07,2021-09-07,株式会社しょうえい,,株式会社,静岡県,沼津市,若葉町１６番地の３,,22,203,4100059,,,,,,,2021-09-07,1,,,,,ショウエイ,0
1743,6080103002418,新規,0,2021-09-07,2021-09-07,合同会社マイニング,,合同会社,静岡県,沼津市,小林台１２番地の７,,22,203,4100021,,,,,,,2021-09-07,1,,,,,マイニング,0
1748,6080401025310,新規,0,2021-09-07,2021-09-07,株式会社明京,,株式会社,静岡県,浜松市北区,三ヶ日町大崎５４０番地,,22,135,4311403,,,,,,,2021-09-07,1,,,,,メイキョウ,0
1755,6100003006227,新規,0,2021-09-07,2021-09-07,合同会社なかむら屋,,合同会社,長野県,安曇野市,堀金烏川４９５２番地,,20,220,3998211,,,,,,,2021-09-07,1,,,,,ナカムラヤ,0
1757,6110003004568,新規,0,2021-09-07,2021-09-07,合同会社ｃｈａｒｍｅｒ,,合同会社,新潟県,上越市,国府１丁目２２番１１号,,15,222,9420082,,,,,,,2021-09-07,1,,,,,チャーマー,0
1765,6120001240148,新規,0,2021-09-07,2021-09-07,株式会社Ｈ＆Ｃｏ．,,株式会社,大阪府,大阪市平野区,長吉出戸３丁目１番４３号,,27,126,5470011,,,,,,,2021-09-07,1,,,,,エイチアンドシーオードット,0
1766,6120001240164,新規,0,2021-09-07,2021-09-07,株式会社Ｋｉｎｋｏ＆Ｃｏ．,,株式会社,大阪府,大阪市都島区,中野町４丁目１１番１８－１４０３号,,27,102,5340027,,,,,,,2021-09-07,1,,,,,キンコアンドコー,0
1767,6120001240197,新規,0,2021-09-07,2021-09-07,ＡＳＵＭＯ株式会社,,株式会社,大阪府,大阪市天王寺区,清水谷町１０－２ライフコート清水谷,,27,109,5430011,,,,,,,2021-09-07,1,,,,,アスモ,0
1768,6120001240230,新規,0,2021-09-07,2021-09-07,株式会社喜和,,株式会社,大阪府,大阪市住吉区,帝塚山中３丁目４番５号グランディオーズ帝塚山３０１号,,27,120,5580053,,,,,,,2021-09-07,1,,,,,キワ,0
1769,6120001240239,新規,0,2021-09-07,2021-09-07,株式会社ＰＬＡＴＴＯ,,株式会社,大阪府,枚方市,大垣内町１丁目３番４３号,,27,210,5730027,,,,,,,2021-09-07,1,,,,,プラット,0
1771,6120003020143,新規,0,2021-09-07,2021-09-07,ＳＩ　ｅｎｇｉｎｅｅｒｉｎｇ合同会社,,合同会社,大阪府,大阪市北区,豊崎５丁目５番２４－３０８号,,27,127,5310072,,,,,,,2021-09-07,1,,,,,エスアイエンジニアリング,0
1772,6120005022476,新規,0,2021-09-07,2021-09-07,弁護士法人浜本綜合法律事務所,,その他の設立登記法人,大阪府,大阪市北区,西天満４丁目１１番２２号,,27,127,5300047,,,,,,,2021-09-07,1,,,,,ハマモトソウゴウホウリツジムショ,0
1773,6120005022492,新規,0,2021-09-07,2021-09-07,税理士法人スフィーダ,,その他の設立登記法人,大阪府,大阪市北区,梅田１丁目１２番１７号梅田スクエアビルディング,,27,127,5300001,,,,,,,2021-09-07,1,,,,,スフィーダ,0
1786,6130001070024,新規,0,2021-09-07,2021-09-07,株式会社京都エモーション,,株式会社,京都府,京都市左京区,下鴨泉川町１番地２９－２０５,,26,103,6060807,,,,,,,2021-09-07,1,,,,,キョウトエモーション,0
1787,6130001070057,新規,0,2021-09-07,2021-09-07,株式会社エッセンスホールディングス,,株式会社,京都府,京都市上京区,東堀川通上長者町下る二町目３２番地ライオンズマンション京都東堀川６０１,,26,102,6028058,,,,,,,2021-09-07,1,,,,,エッセンスホールディングス,0
1788,6130001070073,新規,0,2021-09-07,2021-09-07,株式会社ふぁくとれいる,,株式会社,京都府,京都市伏見区,竹田段川原町１７７番地,,26,109,6128414,,,,,,,2021-09-07,1,,,,,ファクトレイル,0
1801,6140001122889,新規,0,2021-09-07,2021-09-07,株式会社ＯＲＯ　Ｃｏｓｔａ,,株式会社,兵庫県,西宮市,今在家町２－２８ｉｎｇＣａｓａ西宮Ⅲ２Ｆ,00124152,28,204,6620972,,,,,,,2021-09-07,1,,,,,オロコスタ,0
1802,6140001122906,新規,0,2021-09-07,2021-09-07,株式会社ＳＥＥＫ　ＷＥＬＬ　ＢＥＩＮＧ,,株式会社,兵庫県,神戸市兵庫区,浜中町２丁目２番７号１Ｆ,,28,105,6520875,,,,,,,2021-09-07,1,,,,,シークウェルビーイング,0
1803,6140001122922,新規,0,2021-09-07,2021-09-07,株式会社ゆずのか,,株式会社,兵庫県,姫路市,飾磨区細江１２２８番地,,28,201,6728064,,,,,,,2021-09-07,1,,,,,ユズノカ,0
1804,6140001122955,新規,0,2021-09-07,2021-09-07,株式会社ｍ＆ｍ,,株式会社,兵庫県,神戸市北区,八多町中９２９番地リバーサイドレジデンス１ＦＣ号,,28,109,6511351,,,,,,,2021-09-07,1,,,,,エムアンドエム,0
1805,6140001122971,新規,0,2021-09-07,2021-09-07,Ｔｒｅｅｓ株式会社,,株式会社,兵庫県,姫路市,的形町福泊３４４－４,,28,201,6710112,,,,,,,2021-09-07,1,,,,,ツリーズ,0
1808,6140003016701,新規,0,2021-09-07,2021-09-07,合同会社こころ,,合同会社,兵庫県,神戸市西区,玉津町新方１９０番地の１０,,28,111,6512125,,,,,,,2021-09-07,1,,,,,ココロ,0
1814,6150001024903,新規,0,2021-09-07,2021-09-07,スガノ工房株式会社,,株式会社,奈良県,宇陀郡御杖村,大字菅野２６９６番地,,29,386,6331302,,,,,,,2021-09-07,1,,,,,スガノコウボウ,0
1815,6160001023607,新規,0,2021-09-07,2021-09-07,株式会社ケアファム,,株式会社,滋賀県,彦根市,竹ケ鼻町１２４番地３,,25,202,5220044,,,,,,,2021-09-07,1,,,,,ケアファム,0
1827,6180001147684,新規,0,2021-09-07,2021-09-07,株式会社いとかずくん,,株式会社,愛知県,名古屋市名東区,梅森坂１丁目３３１１番地,,23,115,4650065,,,,,,,2021-09-07,1,,,,,イトカズクン,0
1828,6180001147726,新規,0,2021-09-07,2021-09-07,株式会社ＭＫ工業,,株式会社,愛知県,名古屋市南区,浜田町３丁目９２番地ダイアパレスグランパティオ４０９号,,23,112,4570822,,,,,,,2021-09-07,1,,,,,エムケーコウギョウ,0
1829,6180001147750,新規,0,2021-09-07,2021-09-07,株式会社ハラカイ,,株式会社,愛知県,名古屋市守山区,守山２丁目２番５号守山スイートプレイスエアレジデンス５１２号,,23,113,4630067,,,,,,,2021-09-07,1,,,,,ハラカイ,0
1834,6180003022919,新規,0,2021-09-07,2021-09-07,ｍｉｍｏｓａ合同会社,,合同会社,愛知県,常滑市,新開町１丁目１番地,,23,216,4790837,,,,,,,2021-09-07,1,,,,,ミモザ,0
1835,6180005019426,新規,0,2021-09-07,2021-09-07,一般社団法人日本ランドセルリメイク協会,,その他の設立登記法人,愛知県,一宮市,明地字西七丁原３２番地１,,23,203,4940012,,,,,,,2021-09-07,1,,,,,ニホンランドセルリメイクキョウカイ,0
1836,6180301035333,新規,0,2021-09-07,2021-09-07,株式会社ＲＭＥ,,株式会社,愛知県,豊橋市,松葉町１丁目７４飛雄馬ビル,,23,201,4400897,,,,,,,2021-09-07,1,,,,,アールエムイー,0
1839,6190001028644,新規,0,2021-09-07,2021-09-07,岡崎機械設計株式会社,,株式会社,三重県,津市,安濃町太田１６６４番地５９,,24,201,5142304,,,,,,,2021-09-07,1,,,,,オカザキキカイセッケイ,0
1851,6210003001407,新規,0,2021-09-07,2021-09-07,合同会社友愛商事,,合同会社,福井県,鯖江市,片山町第４号５１番地,,18,207,9161223,,,,,,,2021-09-07,1,,,,,ユウアイショウジ,0
1857,6220001024409,新規,0,2021-09-07,2021-09-07,株式会社ＯｎｅＰｏｃｋｅｔ,,株式会社,石川県,七尾市,藤橋町丑部９番地１,,17,202,9260816,,,,,,,2021-09-07,1,,,,,ワンポケット,0
1858,6220001024417,新規,0,2021-09-07,2021-09-07,株式会社ウエスト・ケア,,株式会社,石川県,金沢市,西金沢５丁目３１６番,,17,201,9218054,,,,,,,2021-09-07,1,,,,,ウエストケア,0
1872,6250001019109,新規,0,2021-09-07,2021-09-07,株式会社幸和,,株式会社,山口県,下関市,神田町１丁目１４番４０号,,35,201,7500044,,,,,,,2021-09-07,1,,,,,コウワ,0
1875,6270001008349,新規,0,2021-09-07,2021-09-07,株式会社テイクス,,株式会社,鳥取県,鳥取市,扇町５７番地２扇町ビル３階,,31,201,6800846,,,,,,,2021-09-07,1,,,,,テイクス,0
1880,6290001094412,新規,0,2021-09-07,2021-09-07,株式会社酒見商店,,株式会社,福岡県,久留米市,田主丸町田主丸１１８０番地９,,40,203,8391233,,,,,,,2021-09-07,1,,,,,サケミショウテン,0
1881,6290001094503,新規,0,2021-09-07,2021-09-07,株式会社ダイスライン・アソシエイツ,,株式会社,福岡県,福岡市中央区,春吉２丁目９番２５－１３０２号,,40,133,8100003,,,,,,,2021-09-07,1,,,,,ダイスラインアソシエイツ,0
1882,6290001094544,新規,0,2021-09-07,2021-09-07,株式会社ＥＳＳＥＮＴＩＡＬＨＯＭＥ,,株式会社,福岡県,宗像市,栄町６番地１１,,40,220,8114173,,,,,,,2021-09-07,1,,,,,エッセンシャルホーム,0
1885,6290005018350,新規,0,2021-09-07,2021-09-07,税理士法人コスミックＭ・Ｓ,,その他の設立登記法人,福岡県,福岡市城南区,茶山４丁目１１番２３号,,40,136,8140111,,,,,,,2021-09-07,1,,,,,コスミックエムエス,0
1887,6290801027777,新規,0,2021-09-07,2021-09-07,Ｗｏｒｌｄ　Ｌｉｔｅｒａｃｙ株式会社,,株式会社,福岡県,北九州市小倉北区,片野２丁目１５番１２号,,40,106,8020064,,,,,,,2021-09-07,1,,,,,ワールドリテラシー,0
1893,6320001018573,新規,0,2021-09-07,2021-09-07,株式会社グッドアール,,株式会社,大分県,大分市,府内町３丁目８番１１号,,44,201,8700021,,,,,,,2021-09-07,1,,,,,グッドアール,0
1894,6320001018581,新規,0,2021-09-07,2021-09-07,株式会社一建,,株式会社,大分県,別府市,朝見１丁目１９番１７号,,44,202,8740812,,,,,,,2021-09-07,1,,,,,イチケン,0
1898,6330003009033,新規,0,2021-09-07,2021-09-07,合同会社ＵＧプラスト,,合同会社,熊本県,熊本市南区,近見８丁目１０番９２号グレース近見８０４,,43,104,8614101,,,,,,,2021-09-07,1,,,,,ユージープラスト,0
1903,6360003011424,新規,0,2021-09-07,2021-09-07,合同会社ＫＴＭ,,合同会社,沖縄県,那覇市,首里赤平町２丁目１３番２－４０２号,,47,201,9030811,,,,,,,2021-09-07,1,,,,,ケイティーエム,0
1904,6370001047584,新規,0,2021-09-07,2021-09-07,株式会社ＧＥＥＫ　ＦＵＤＧＥ　ＦＡＣＴＯＲＹ,,株式会社,宮城県,仙台市青葉区,みやぎ台３丁目１５－１３,,04,101,9893214,,,,,,,2021-09-07,1,,,,,ギークファッジファクトリー,0
1921,6430001084869,新規,0,2021-09-07,2021-09-07,株式会社道進,,株式会社,北海道,室蘭市,高砂町２丁目３２番８号,,01,205,0500072,,,,,,,2021-09-07,1,,,,,ドウシン,0
1922,6430001084910,新規,0,2021-09-07,2021-09-07,株式会社北政興業,,株式会社,北海道,室蘭市,大沢町１丁目９番４号,,01,205,0500086,,,,,,,2021-09-07,1,,,,,ホクセイコウギョウ,0
1927,6450001013462,新規,0,2021-09-07,2021-09-07,株式会社龍龍,,株式会社,北海道,天塩郡天塩町,山手裏通６丁目１２４０番地,,01,487,0983302,,,,,,,2021-09-07,1,,,,,リュウト,0
1929,6460301005010,新規,0,2021-09-07,2021-09-07,Ｄｏｌｐｈｉｎ　Ｂｒｏｔｈｅｒｓ株式会社,,株式会社,北海道,網走市,南四条東６丁目２番地３,,01,211,0930004,,,,,,,2021-09-07,1,,,,,ドルフィンブラザーズ,0
1948,7010001220894,新規,0,2021-09-07,2021-09-07,株式会社サポートアルファ,,株式会社,東京都,千代田区,九段南１丁目５－６りそな九段ビル５階ＫＳフロア,,13,101,1020074,,,,,,,2021-09-07,1,,,,,,0
1949,7010001220903,新規,0,2021-09-07,2021-09-07,穂高ホールディングス株式会社,,株式会社,東京都,中央区,日本橋馬喰町２丁目３番１１号,,13,102,1030002,,,,,,,2021-09-07,1,,,,,ホダカホールディングス,0
1950,7010001220911,新規,0,2021-09-07,2021-09-07,ユニテック株式会社,,株式会社,東京都,千代田区,大手町１丁目５番１号大手町ファーストスクエア・イーストタワー４Ｆ,,13,101,1000004,,,,,,,2021-09-07,1,,,,,ユニテック,0
1951,7010001220936,新規,0,2021-09-07,2021-09-07,株式会社ＫＡＮＯＩ,,株式会社,東京都,中央区,佃１丁目３番８号,,13,102,1040051,,,,,,,2021-09-07,1,,,,,カノイ,0
1952,7010001220944,新規,0,2021-09-07,2021-09-07,ＭＣＰメザニン株式会社,,株式会社,東京都,千代田区,丸の内１丁目６番１号,,13,101,1000005,,,,,,,2021-09-07,1,,,,,エムシーピーメザニン,0
1953,7010001220985,新規,0,2021-09-07,2021-09-07,株式会社ニクキュー,,株式会社,東京都,千代田区,外神田４丁目１４番１号秋葉原ＵＤＸ４Ｆ・ＬＩＦＯＲＫ・ＡＫＩＨＡＢＡＲＡ・Ｒ２９,,13,101,1010021,,,,,,,2021-09-07,1,,,,,ニクキュー,0
1954,7010001220993,新規,0,2021-09-07,2021-09-07,株式会社クルツ,,株式会社,東京都,文京区,本駒込２丁目２６番１０号,,13,105,1130021,,,,,,,2021-09-07,1,,,,,クルツ,0
1956,7010003035746,新規,0,2021-09-07,2021-09-07,Ｒｏｏｔｓｕｎｙａ合同会社,,合同会社,東京都,中央区,日本橋兜町１７番１号日本橋ロイヤルプラザ７０６,,13,102,1030026,,,,,,,2021-09-07,1,,,,,ルートシューニャ,0
1957,7010003035754,新規,0,2021-09-07,2021-09-07,富士見町バイオマス合同会社,,合同会社,東京都,千代田区,神田小川町３丁目７番５号,,13,101,1010052,,,,,,,2021-09-07,1,,,,,フジミチョウバイオマス,0
1958,7010003035762,新規,0,2021-09-07,2021-09-07,合同会社ＯＷＬ,,合同会社,東京都,中央区,銀座１丁目２２番１１号銀座大竹ビジデンス２階,,13,102,1040061,,,,,,,2021-09-07,1,,,,,オウル,0
1960,7010005033913,新規,0,2021-09-07,2021-09-07,一般社団法人日本医食同源研究所,,その他の設立登記法人,東京都,千代田区,外神田２丁目２番１５号,,13,101,1010021,,,,,,,2021-09-07,1,,,,,ニホンイショクドウゲンケンキュウジョ,0
1966,7010401162480,新規,0,2021-09-07,2021-09-07,石大勝華日本株式会社,,株式会社,東京都,港区,港南２丁目１６番１号,,13,103,1080075,,,,,,,2021-09-07,1,,,,,セキダイショウカニホン,0
1967,7010401162571,新規,0,2021-09-07,2021-09-07,株式会社Ｌａｌａｈ,,株式会社,東京都,港区,新橋３丁目２１番７号ル・グラシエルＢＬＤＧ．３１－Ｂ１,,13,103,1050004,,,,,,,2021-09-07,1,,,,,ララ,0
1974,7010405020172,新規,0,2021-09-07,2021-09-07,一般社団法人日本カーボンニュートラル推進協議会,,その他の設立登記法人,東京都,港区,赤坂２丁目１６番１９号,,13,103,1070052,,,,,,,2021-09-07,1,,,,,ニホンカーボンニュートラルスイシンキョウギカイ,0
1975,7010701041459,新規,0,2021-09-07,2021-09-07,Ｆｒｅｅｇｓｓ株式会社,,株式会社,東京都,品川区,西五反田１丁目２６番２号五反田サンハイツ９１１,,13,109,1410031,,,,,,,2021-09-07,1,,,,,フリーグス,0
1976,7010703005932,新規,0,2021-09-07,2021-09-07,ＺＡＩＢＵＮ合同会社,,合同会社,東京都,品川区,西五反田２丁目１４－１３ニックハイム五反田２階,,13,109,1410031,,,,,,,2021-09-07,1,,,,,ザイブン,0
1979,7010901049401,新規,0,2021-09-07,2021-09-07,ユーセーコーポレーション株式会社,,株式会社,東京都,世田谷区,上用賀５丁目１０番２１号,,13,112,1580098,,,,,,,2021-09-07,1,,,,,ユーセーコーポレーション,0
1980,7010903006771,新規,0,2021-09-07,2021-09-07,合同会社ＬＯＲＥ,,合同会社,東京都,世田谷区,玉川３丁目２０番２号マノア玉川第３ビル５０１号室,,13,112,1580094,,,,,,,2021-09-07,1,,,,,ロア,0
1995,7011101096201,新規,0,2021-09-07,2021-09-07,株式会社Ｏｆｆｉｃｅ　Ａｖｅｎｕｅ,,株式会社,東京都,新宿区,四谷坂町１１番６号,,13,104,1600002,,,,,,,2021-09-07,1,,,,,オフィスアベニュー,0
1996,7011101096218,新規,0,2021-09-07,2021-09-07,株式会社Ｍａｘｆｉｅｌｄ,,株式会社,東京都,新宿区,新宿１丁目３４番３号,,13,104,1600022,,,,,,,2021-09-07,1,,,,,マックスフィールド,0
1998,7011301027154,新規,0,2021-09-07,2021-09-07,エーケー株式会社,,株式会社,東京都,杉並区,久我山５丁目１２番６号,,13,115,1680082,,,,,,,2021-09-07,1,,,,,エーケー,0
2004,7011801039681,新規,0,2021-09-07,2021-09-07,株式会社蓮佼,,株式会社,東京都,葛飾区,四つ木４丁目２０番１３号,,13,122,1240011,,,,,,,2021-09-07,1,,,,,ハスコウ,0
2008,7012403005015,新規,0,2021-09-07,2021-09-07,合同会社アルファ技研,,合同会社,東京都,調布市,国領町３丁目８番地１５都営調布くすのきアパート５－６０３号,,13,208,1820022,,,,,,,2021-09-07,1,,,,,アルファギケン,0
2016,7013303005815,新規,0,2021-09-07,2021-09-07,合同会社ＢＩＧ　ＴＲＥＥ,,合同会社,東京都,豊島区,東池袋３丁目１－１サンシャイン６０－４５階,,13,116,1700013,,,,,,,2021-09-07,1,,,,,ビッグツリー,0
2021,7020001142865,新規,0,2021-09-07,2021-09-07,株式会社ＰＬＥＩＳＥ,,株式会社,神奈川県,川崎市中原区,中丸子１３番地７リエトコート武蔵小杉イーストタワー３２１２,,14,133,2110012,,,,,,,2021-09-07,1,,,,,プレイズ,0
2022,7020001142881,新規,0,2021-09-07,2021-09-07,株式会社Ｌｉｆｅ住マイル,,株式会社,神奈川県,横浜市港北区,新横浜２丁目５番１４号,,14,109,2220033,,,,,,,2021-09-07,1,,,,,ライフスマイル,0
2023,7020001142898,新規,0,2021-09-07,2021-09-07,株式会社三好,,株式会社,神奈川県,横浜市中区,千歳町３番地２プレシス関内千歳公園１００１号室,,14,104,2310035,,,,,,,2021-09-07,1,,,,,ミヨシ,0
2024,7020001142915,新規,0,2021-09-07,2021-09-07,株式会社云盛,,株式会社,神奈川県,横浜市中区,扇町１丁目２番地７プレジャーガーデン横浜関内８０３号室,,14,104,2310027,,,,,,,2021-09-07,1,,,,,ウンセイ,0
2025,7020001142923,新規,0,2021-09-07,2021-09-07,株式会社ＳＴＲＵＳＴ,,株式会社,神奈川県,川崎市幸区,南加瀬１丁目１４番１４号サクラハイム夢見ヶ崎３０４,,14,132,2120055,,,,,,,2021-09-07,1,,,,,エストラスト,0
2026,7020001142931,新規,0,2021-09-07,2021-09-07,株式会社Ｋ・Ｕ,,株式会社,神奈川県,横浜市南区,浦舟町１丁目１番地７リ・ラフォーレ横浜橋１０１,,14,105,2320024,,,,,,,2021-09-07,1,,,,,ケーユー,0
2034,7021001073836,新規,0,2021-09-07,2021-09-07,株式会社ホットシステムズ,,株式会社,神奈川県,鎌倉市,七里ガ浜東４丁目３１番１３号,,14,204,2480025,,,,,,,2021-09-07,1,,,,,ホットシステムズ,0
2035,7021001073869,新規,0,2021-09-07,2021-09-07,株式会社ディガーライフ工業,,株式会社,神奈川県,平塚市,岡崎３２０５番地の１,,14,203,2591212,,,,,,,2021-09-07,1,,,,,ディガーライフコウギョウ,0
2036,7021003010861,新規,0,2021-09-07,2021-09-07,ＢＨＡＴＴＩ　ＩＮＴＥＲＮＡＴＩＯＮＡＬ合同会社,,合同会社,神奈川県,座間市,南栗原４丁目１０番６号ドエル柏台２０２号,,14,216,2520015,,,,,,,2021-09-07,1,,,,,バッティインターナショナル,0
2050,7040001120010,新規,0,2021-09-07,2021-09-07,株式会社ル・エピス・ドゥ・ラヴィ,,株式会社,千葉県,柏市,明原１丁目１１番１７号,,12,217,2770843,,,,,,,2021-09-07,1,,,,,ルエピスドゥラヴィ,0
2051,7040001120043,新規,0,2021-09-07,2021-09-07,株式会社大吉,,株式会社,千葉県,白井市,復２４５番地,,12,232,2701422,,,,,,,2021-09-07,1,,,,,ダイキチ,0
2052,7040001120051,新規,0,2021-09-07,2021-09-07,株式会社クロスアップ,,株式会社,千葉県,柏市,旭町１丁目２番８号ネモト第三ビル４０２,,12,217,2770852,,,,,,,2021-09-07,1,,,,,クロスアップ,0
2053,7040001120092,新規,0,2021-09-07,2021-09-07,株式会社在宅ケア研修センター,,株式会社,千葉県,市原市,草刈８４０番地２,,12,219,2900001,,,,,,,2021-09-07,1,,,,,ザイタクケアケンシュウセンター,0
2060,7040003018426,新規,0,2021-09-07,2021-09-07,合同会社かぶちゃんず,,合同会社,千葉県,松戸市,東平賀２６５番地の１,,12,207,2700003,,,,,,,2021-09-07,1,,,,,カブチャンズ,0
2061,7040003018475,新規,0,2021-09-07,2021-09-07,合同会社東北グリーン電力ワン,,合同会社,千葉県,長生郡長南町,報恩寺３０２番地１,,12,427,2970141,,,,,,,2021-09-07,1,,,,,トウホクデンリョクワン,0
2062,7050001049777,新規,0,2021-09-07,2021-09-07,株式会社Ｓｅｌｅｃｔ,,株式会社,茨城県,つくば市,吾妻２丁目５－１,,08,220,3050031,,,,,,,2021-09-07,1,,,,,セレクト,0
2067,7060001034051,新規,0,2021-09-07,2021-09-07,株式会社川島施工,,株式会社,栃木県,足利市,末広町３５番地３,,09,202,3260031,,,,,,,2021-09-07,1,,,,,カワシマセコウ,0
2068,7060001034068,新規,0,2021-09-07,2021-09-07,株式会社ＴＡＮＫ,,株式会社,栃木県,大田原市,佐久山２２３４番地,,09,210,3240032,,,,,,,2021-09-07,1,,,,,タンク,0
2073,7070001038407,新規,0,2021-09-07,2021-09-07,アウフヘーベンジャパン株式会社,,株式会社,群馬県,前橋市,大利根町２丁目９番地１,,10,201,3710825,,,,,,,2021-09-07,1,,,,,アウフヘーベンジャパン,0
2074,7070001038415,新規,0,2021-09-07,2021-09-07,株式会社はしや,,株式会社,群馬県,前橋市,広瀬町２丁目２４番地１、６号,,10,201,3710812,,,,,,,2021-09-07,1,,,,,ハシヤ,0
2075,7070005009899,新規,0,2021-09-07,2021-09-07,一般社団法人三日月協会,,その他の設立登記法人,群馬県,伊勢崎市,境５１４番地１８,,10,204,3700124,,,,,,,2021-09-07,1,,,,,ミカヅキキョウカイ,0
2078,7080103002417,新規,0,2021-09-07,2021-09-07,合同会社Ｆｉｒｓｔ　Ｓｔａｒ,,合同会社,静岡県,富士宮市,上井出２２５３番地の３,,22,207,4180103,,,,,,,2021-09-07,1,,,,,ファーストスター,0
2082,7100003006226,新規,0,2021-09-07,2021-09-07,合同会社リベレイター,,合同会社,長野県,小諸市,丙１００８番地１,,20,208,3840803,,,,,,,2021-09-07,1,,,,,リベレイター,0
2087,7110001036026,新規,0,2021-09-07,2021-09-07,江豊電設株式会社,,株式会社,新潟県,新潟市江南区,亀田緑町１丁目１番３４号,,15,104,9500152,,,,,,,2021-09-07,1,,,,,コウホウデンセツ,0
2106,7120001240106,新規,0,2021-09-07,2021-09-07,株式会社ＡＧＧ,,株式会社,大阪府,大阪市中央区,南船場４丁目長堀地下街８号,,27,128,5420081,,,,,,,2021-09-07,1,,,,,エージージー,0
2107,7120001240114,新規,0,2021-09-07,2021-09-07,ユウシン株式会社,,株式会社,大阪府,大阪市平野区,加美北１丁目１８番１０号,,27,126,5470001,,,,,,,2021-09-07,1,,,,,ユウシン,0
2108,7120001240122,新規,0,2021-09-07,2021-09-07,株式会社エルトオレ,,株式会社,大阪府,枚方市,渚本町５番２６号,,27,210,5731181,,,,,,,2021-09-07,1,,,,,エルトオレ,0
2109,7120001240139,新規,0,2021-09-07,2021-09-07,株式会社マツバラメタル,,株式会社,大阪府,大阪市住之江区,浜口西１丁目１６番８号,,27,125,5590006,,,,,,,2021-09-07,1,,,,,マツバラメタル,0
2110,7120001240163,新規,0,2021-09-07,2021-09-07,株式会社オアシス,,株式会社,大阪府,大阪市北区,万歳町３番１２号萬栄ビル３０２,,27,127,5300028,,,,,,,2021-09-07,1,,,,,オアシス,0
2111,7120001240171,新規,0,2021-09-07,2021-09-07,ＮＮホールディングス株式会社,,株式会社,大阪府,大阪市北区,大深町３番４０－３６０４号,,27,127,5300011,,,,,,,2021-09-07,1,,,,,エヌエヌホールディングス,0
2112,7120001240196,新規,0,2021-09-07,2021-09-07,株式会社ｅａｔ　ｓｔｕｄｉｏ,,株式会社,大阪府,大阪市中央区,玉造１丁目７番９－２０２号,,27,128,5400004,,,,,,,2021-09-07,1,,,,,イートスタジオ,0
2113,7120001240213,新規,0,2021-09-07,2021-09-07,株式会社ＳＯＬＡ,,株式会社,大阪府,大阪市都島区,内代町２丁目１３番２号,,27,102,5340013,,,,,,,2021-09-07,1,,,,,ソラ,0
2114,7120003020175,新規,0,2021-09-07,2021-09-07,合同会社くくる,,合同会社,大阪府,大阪市平野区,長吉川辺３丁目５番２号,,27,126,5470014,,,,,,,2021-09-07,1,,,,,ククル,0
2117,7120005022475,新規,0,2021-09-07,2021-09-07,税理士法人マインド会計,,その他の設立登記法人,大阪府,枚方市,大垣内町１丁目３番１号マインドビル,,27,210,5730027,,,,,,,2021-09-07,1,,,,,マインドカイケイ,0
2118,7120103004334,新規,0,2021-09-07,2021-09-07,合同会社村井,,合同会社,大阪府,堺市堺区,南三国ヶ丘町６丁５番１７－１０４号,,27,141,5900023,,,,,,,2021-09-07,1,,,,,ムライ,0
2125,7120901044861,新規,0,2021-09-07,2021-09-07,株式会社ｅｓｌｏｐｅ,,株式会社,大阪府,吹田市,江坂町３丁目４０－１１－８,,27,205,5640063,,,,,,,2021-09-07,1,,,,,イースロープ,0
2133,7130001070072,新規,0,2021-09-07,2021-09-07,株式会社山口金属工業,,株式会社,京都府,京都市山科区,東野片下り町６３番地５,,26,110,6070000,,,,,,,2021-09-07,1,,,,,ヤマグチキンゾクコウギョウ,0
2134,7130003007460,新規,0,2021-09-07,2021-09-07,ＭＳアセット合同会社,,合同会社,京都府,京都市右京区,太秦垂箕山町１７番地１０,,26,108,6168174,,,,,,,2021-09-07,1,,,,,エムエスアセット,0
2138,7140001122896,新規,0,2021-09-07,2021-09-07,株式会社ＴＥＬＥ　ＳＫＹ,,株式会社,兵庫県,加古川市,加古川町友沢４１５番地の４,,28,210,6750035,,,,,,,2021-09-07,1,,,,,テレスカイ,0
2139,7140001122954,新規,0,2021-09-07,2021-09-07,株式会社つむぐ住まい工房,,株式会社,兵庫県,西宮市,国見台４丁目１番２２号,,28,204,6691135,,,,,,,2021-09-07,1,,,,,ツムグスマイコウボウ,0
2140,7140001122962,新規,0,2021-09-07,2021-09-07,株式会社ブライトコーポレーション,,株式会社,兵庫県,赤穂郡上郡町,梨ケ原字甲奥山１１７１番地５９,,28,481,6781244,,,,,,,2021-09-07,1,,,,,ブライトコーポレーション,0
2146,7140003016700,新規,0,2021-09-07,2021-09-07,合同会社ＥＣＬＩＳＳ,,合同会社,兵庫県,明石市,大蔵谷奥３－３－１０１Ｂ,,28,203,6730867,,,,,,,2021-09-07,1,,,,,エクリス,0
2154,7150001024902,新規,0,2021-09-07,2021-09-07,株式会社ブレース,,株式会社,奈良県,天理市,南六条町３４番地５,,29,204,6320098,,,,,,,2021-09-07,1,,,,,ブレース,0
2165,7180001147683,新規,0,2021-09-07,2021-09-07,株式会社Ｍビジュアル中日本,,株式会社,愛知県,名古屋市中村区,岩塚本通４丁目１番地,,23,105,4530861,,,,,,,2021-09-07,1,,,,,エムビジュアルナカニホン,0
2166,7180001147709,新規,0,2021-09-07,2021-09-07,アシタカホールディングス株式会社,,株式会社,愛知県,名古屋市中川区,中花町１３５番地,,23,110,4540931,,,,,,,2021-09-07,1,,,,,アシタカホールディングス,0
2167,7180001147717,新規,0,2021-09-07,2021-09-07,株式会社ＡＥＳ,,株式会社,愛知県,一宮市,柚木颪字西川垂６４,,23,203,4910011,,,,,,,2021-09-07,1,,,,,エーイーエス,0
2168,7180001147725,新規,0,2021-09-07,2021-09-07,函屋株式会社,,株式会社,愛知県,名古屋市瑞穂区,苗代町２４番１３号,,23,108,4670841,,,,,,,2021-09-07,1,,,,,ハコヤ,0
2169,7180001147741,新規,0,2021-09-07,2021-09-07,株式会社ｎｏｋｏｐｌｕｓ,,株式会社,愛知県,名古屋市名東区,引山３丁目５８０番地パールレジデンスⅡ２０６号,00124158,23,115,4650002,,,,,,,2021-09-07,1,,,,,ノコプラス,0
2180,7180301035340,新規,0,2021-09-07,2021-09-07,株式会社増岡事務所,,株式会社,愛知県,みよし市,打越町南屋敷３７番地,,23,236,4700213,,,,,,,2021-09-07,1,,,,,マスオカジムショ,0
2190,7220001024416,新規,0,2021-09-07,2021-09-07,株式会社ＴＡＢＥＬ,,株式会社,石川県,金沢市,安江町１１‐３３,,17,201,9200854,,,,,,,2021-09-07,1,,,,,タベル,0
2196,7240001058577,新規,0,2021-09-07,2021-09-07,株式会社キャスティングロジ,,株式会社,広島県,東広島市,西条昭和町１７番２３－４０３号,,34,212,7390014,,,,,,,2021-09-07,1,,,,,キャスティングロジ,0
2211,7270003001342,新規,0,2021-09-07,2021-09-07,Ｒｅホーム合同会社,,合同会社,鳥取県,鳥取市,吉成南町１丁目１２番１８号,,31,201,6800871,,,,,,,2021-09-07,1,,,,,リホーム,0
2216,7290001094519,新規,0,2021-09-07,2021-09-07,健美株式会社,,株式会社,福岡県,福岡市中央区,大名１丁目１－３５,,40,133,8100041,,,,,,,2021-09-07,1,,,,,ケンビ,0
2217,7290001094543,新規,0,2021-09-07,2021-09-07,株式会社クアドリフォリオ,,株式会社,福岡県,筑紫野市,原田６丁目７番地２,,40,217,8180024,,,,,,,2021-09-07,1,,,,,クアドリフォリオ,0
2223,7290003011579,新規,0,2021-09-07,2021-09-07,合同会社ＮＩＪＩ,,合同会社,福岡県,福岡市南区,若久６丁目１－２２,,40,134,8150042,,,,,,,2021-09-07,1,,,,,ニジ,0
2229,7300001012619,新規,0,2021-09-07,2021-09-07,大成リサイクル株式会社,,株式会社,佐賀県,神埼郡吉野ヶ里町,石動２０９５番地１,,41,327,8420102,,,,,,,2021-09-07,1,,,,,タイセイリサイクル,0
2235,7320001018580,新規,0,2021-09-07,2021-09-07,株式会社希工業,,株式会社,大分県,佐伯市,駅前１丁目６番３０号,,44,205,8760803,,,,,,,2021-09-07,1,,,,,ノゾミコウギョウ,0
2245,7340001024073,新規,0,2021-09-07,2021-09-07,株式会社夢乃島,,株式会社,鹿児島県,奄美市,名瀬浦上町４６番地３,,46,222,8940068,,,,,,,2021-09-07,1,,,,,ユメノシマ,0
2246,7340003003546,新規,0,2021-09-07,2021-09-07,ネイチャーコム合同会社,,合同会社,鹿児島県,奄美市,住用町大字西仲間６９番地,,46,222,8941202,,,,,,,2021-09-07,1,,,,,ネイチャーコム,0
2248,7350001017282,新規,0,2021-09-07,2021-09-07,株式会社ＫＵＲＯＧＩ,,株式会社,宮崎県,延岡市,土々呂町５丁目１２４９番地１,,45,203,8890513,,,,,,,2021-09-07,1,,,,,クロギ,0
2251,7360001029319,新規,0,2021-09-07,2021-09-07,株式会社幸喜２１,,株式会社,沖縄県,うるま市,字川崎６３１番地,,47,213,9042203,,,,,,,2021-09-07,1,,,,,コウキニジュウイチ,0
2260,7370003005382,新規,0,2021-09-07,2021-09-07,７ＳＴＡＲ合同会社,,合同会社,宮城県,仙台市若林区,石名坂７加藤ビル２０６,,04,103,9840063,,,,,,,2021-09-07,1,,,,,セブンスター,0
2264,7400001015594,新規,0,2021-09-07,2021-09-07,株式会社ＭＯＲＥ,,株式会社,岩手県,遠野市,松崎町白岩１８地割８９番地１,,03,208,0280541,,,,,,,2021-09-07,1,,,,,モア,0
2271,7430003013123,新規,0,2021-09-07,2021-09-07,オリエントサービス合同会社,,合同会社,北海道,札幌市豊平区,福住二条６丁目１番１－１１０２号,,01,105,0620042,,,,,,,2021-09-07,1,,,,,オリエントサービス,0
2274,7460101007057,新規,0,2021-09-07,2021-09-07,株式会社八咫商会,,株式会社,北海道,上川郡新得町,屈足幸町２丁目５５番地,,01,635,0810155,,,,,,,2021-09-07,1,,,,,ヤアタショウカイ,0
2275,7480001011470,新規,0,2021-09-07,2021-09-07,株式会社Ｎｅｘｔ　Ｇａｒｄｅｎ,,株式会社,徳島県,鳴門市,大津町大代６４５番地１,,36,202,7720041,,,,,,,2021-09-07,1,,,,,ネクストガーデン,0
2304,8010001220910,新規,0,2021-09-07,2021-09-07,株式会社Ｔａｓｔａｂｌｅ,,株式会社,東京都,中央区,日本橋小伝馬町１４番４号,,13,102,1030001,,,,,,,2021-09-07,1,,,,,テイスタブル,0
2305,8010001220919,新規,0,2021-09-07,2021-09-07,株式会社ＳｔａｙＧｏｌｄ,,株式会社,東京都,文京区,音羽１丁目１７番１１－５０５号花和ビル,,13,105,1120013,,,,,,,2021-09-07,1,,,,,ステイゴールド,0
2306,8010001220943,新規,0,2021-09-07,2021-09-07,ＭＣＰＭ４Ｔ株式会社,,株式会社,東京都,千代田区,丸の内１丁目６番１号,,13,101,1000005,,,,,,,2021-09-07,1,,,,,エムシーピーエムフォーティー,0
2307,8010001220984,新規,0,2021-09-07,2021-09-07,ＬａｉＦｉＸＸ株式会社,,株式会社,東京都,千代田区,三番町２４番地１,,13,101,1020075,,,,,,,2021-09-07,1,,,,,ライフィックス,0
2313,8010003035737,新規,0,2021-09-07,2021-09-07,ＫＯ　Ｃａｐｉｔａｌ合同会社,,合同会社,東京都,中央区,月島１丁目５番１－１９０９号,,13,102,1040052,,,,,,,2021-09-07,1,,,,,ケーオーキャピタル,0
2314,8010003035745,新規,0,2021-09-07,2021-09-07,合同会社スキマにイコイ,,合同会社,東京都,千代田区,九段北３丁目２番４号,,13,101,1020073,,,,,,,2021-09-07,1,,,,,スキマニイコイ,0
2315,8010003035753,新規,0,2021-09-07,2021-09-07,南会津バイオマス合同会社,,合同会社,東京都,千代田区,神田小川町３丁目７番５号,,13,101,1010052,,,,,,,2021-09-07,1,,,,,ミナミアイズバイオマス,0
2316,8010005033920,新規,0,2021-09-07,2021-09-07,一般社団法人日本成功実現協会,,その他の設立登記法人,東京都,中央区,銀座１丁目２２番１１号銀座大竹ビジデンス２階,,13,102,1040061,,,,,,,2021-09-07,1,,,,,ニホンセイコウジツゲンキョウカイ,0
2322,8010401162570,新規,0,2021-09-07,2021-09-07,株式会社ファミソ,,株式会社,東京都,港区,赤坂３丁目９番１号,,13,103,1070052,,,,,,,2021-09-07,1,,,,,ファミソ,0
2324,8010403026055,新規,0,2021-09-07,2021-09-07,合同会社大黒天,,合同会社,東京都,港区,南青山２丁目２番１５号,,13,103,1070062,,,,,,,2021-09-07,1,,,,,ダイクコテン,0
2326,8010405020171,新規,0,2021-09-07,2021-09-07,一般社団法人ＨＡＬＶＺ　ＴＯＫＹＯ,,その他の設立登記法人,東京都,港区,白金１丁目６番４号,,13,103,1080072,,,,,,,2021-09-07,1,,,,,ハーヴズトーキョウ,0
2330,8010901049400,新規,0,2021-09-07,2021-09-07,マラーミィ株式会社,,株式会社,東京都,世田谷区,世田谷１丁目１５番１５－６０７号,,13,112,1540017,,,,,,,2021-09-07,1,,,,,マラーミィ,0
2331,8010901049409,新規,0,2021-09-07,2021-09-07,株式会社Ｔ２Ｎ,,株式会社,東京都,世田谷区,若林４丁目２６番１０号,,13,112,1540023,,,,,,,2021-09-07,1,,,,,ティーツーエヌ,0
2334,8010903006779,新規,0,2021-09-07,2021-09-07,アイティーチャー合同会社,,合同会社,東京都,世田谷区,玉川３丁目２０番２号マノア玉川第３ビル５０１号室,,13,112,1580094,,,,,,,2021-09-07,1,,,,,アイティーチャー,0
2342,8011101096183,新規,0,2021-09-07,2021-09-07,株式会社ジップグループ,,株式会社,東京都,新宿区,喜久井町２番地アパ早稲田ビル２階,,13,104,1620044,,,,,,,2021-09-07,1,,,,,ジップグループ,0
2343,8011101096191,新規,0,2021-09-07,2021-09-07,株式会社Ｂｒｉｌｏ,,株式会社,東京都,新宿区,神楽坂６丁目８番地,,13,104,1620825,,,,,,,2021-09-07,1,,,,,ブリーロ,0
2344,8011101096217,新規,0,2021-09-07,2021-09-07,株式会社シーアイプラス,,株式会社,東京都,新宿区,高田馬場１丁目３０番１４号,,13,104,1690075,,,,,,,2021-09-07,1,,,,,シーアイプラス,0
2356,8011801039680,新規,0,2021-09-07,2021-09-07,株式会社ＧＫＨ,,株式会社,東京都,葛飾区,奥戸７丁目１番１号,,13,122,1240022,,,,,,,2021-09-07,1,,,,,ジーケーエイチ,0
2362,8013305003254,新規,0,2021-09-07,2021-09-07,一般社団法人先端材料技術協会,,その他の設立登記法人,東京都,豊島区,巣鴨１丁目２４番１号株式会社ガリレオ内,,13,116,1700002,,,,,,,2021-09-07,1,,,,,センタンザイリョウギジュツキョウカイ,0
2371,8020001142880,新規,0,2021-09-07,2021-09-07,Ｔ’ｓ　ｃｒｅａｔｉｏｎ株式会社,,株式会社,神奈川県,横浜市旭区,今宿西町３３７番地２４,,14,112,2410031,,,,,,,2021-09-07,1,,,,,ティーズクリエーション,0
2372,8020001142906,新規,0,2021-09-07,2021-09-07,裕設備工業株式会社,,株式会社,神奈川県,横浜市鶴見区,岸谷３丁目２１番９号,,14,101,2300078,,,,,,,2021-09-07,1,,,,,ユタカセツビコウギョウ,0
2373,8020001142930,新規,0,2021-09-07,2021-09-07,株式会社ＹＳＤ建築企画,,株式会社,神奈川県,横浜市旭区,本村町４８番地２２,,14,112,2410024,,,,,,,2021-09-07,1,,,,,ワイエスディケンチクキカク,0
2374,8020001142939,新規,0,2021-09-07,2021-09-07,株式会社森,,株式会社,神奈川県,横浜市青葉区,市ケ尾町５０２番地６,,14,117,2250024,,,,,,,2021-09-07,1,,,,,モリ,0
2375,8020001142955,新規,0,2021-09-07,2021-09-07,株式会社Ｕ．Ｃ．Ｕｎｉｔｅｄ,,株式会社,神奈川県,横浜市港南区,芹が谷２丁目２３番６－６１８号,,14,111,2330006,,,,,,,2021-09-07,1,,,,,ユーシーユナイテッド,0
2377,8020003020416,新規,0,2021-09-07,2021-09-07,合同会社ルトカ不動産,,合同会社,神奈川県,横浜市磯子区,磯子４丁目５番３４号,,14,107,2350016,,,,,,,2021-09-07,1,,,,,ルトカフドウサン,0
2378,8020003020432,新規,0,2021-09-07,2021-09-07,合同会社プロウランドカンパニー,,合同会社,神奈川県,川崎市高津区,二子２丁目９番１号,,14,134,2130002,,,,,,,2021-09-07,1,,,,,プロウランドカンパニー,0
2379,8020003020440,新規,0,2021-09-07,2021-09-07,合同会社港エンジニアリング,,合同会社,神奈川県,横浜市戸塚区,汲沢町２８９－３,,14,110,2450062,,,,,,,2021-09-07,1,,,,,ミナトエンジニアリング,0
2380,8020005015199,新規,0,2021-09-07,2021-09-07,一般社団法人ａｓｓｅｔ　ｎｅｘｔ,,その他の設立登記法人,神奈川県,横浜市港北区,大倉山３丁目２番１８号セントヒルズ大倉山２０４,,14,109,2220037,,,,,,,2021-09-07,1,,,,,アセットネクスト,0
2382,8021001073851,新規,0,2021-09-07,2021-09-07,株式会社Ｍｕｄｓｋｉｐ,,株式会社,神奈川県,小田原市,栢山３０１７番地の１,,14,206,2500852,,,,,,,2021-09-07,1,,,,,マッドスキップ,0
2383,8021001073884,新規,0,2021-09-07,2021-09-07,株式会社ＴＤＳ,,株式会社,神奈川県,相模原市南区,西大沼１丁目７番１４号,,14,153,2520332,,,,,,,2021-09-07,1,,,,,ティーディーエス,0
2388,8021003010860,新規,0,2021-09-07,2021-09-07,苔むすび合同会社,,合同会社,神奈川県,鎌倉市,由比ガ浜２丁目４番２２号,,14,204,2480014,,,,,,,2021-09-07,1,,,,,コケムスビ,0
2397,8030001144190,新規,0,2021-09-07,2021-09-07,株式会社ねこの手,,株式会社,埼玉県,深谷市,原郷１５６番地４,,11,218,3660035,,,,,,,2021-09-07,1,,,,,ネコノテ,0
2398,8030001144240,新規,0,2021-09-07,2021-09-07,株式会社マイティー,,株式会社,埼玉県,川越市,岸町１丁目４５番６号リュール川越８０４号,,11,201,3501131,,,,,,,2021-09-07,1,,,,,マイティー,0
2401,8040001120042,新規,0,2021-09-07,2021-09-07,株式会社アニンコーポレーション,,株式会社,千葉県,松戸市,河原塚１６５番地の１４１,,12,207,2702254,,,,,,,2021-09-07,1,,,,,アニンコーポレーション,0
2405,8040003018441,新規,0,2021-09-07,2021-09-07,アンフィニ・セカンド合同会社,,合同会社,千葉県,船橋市,前原東５丁目３８番４号,,12,204,2740824,,,,,,,2021-09-07,1,,,,,アンフィニセカンド,0
2406,8040003018474,新規,0,2021-09-07,2021-09-07,ＤＡＮＤＥ　ＬＩＯＮ合同会社,,合同会社,千葉県,習志野市,大久保２丁目８番７－１０１号,,12,216,2750011,,,,,,,2021-09-07,1,,,,,ダンデライオン,0
2415,8050003006057,新規,0,2021-09-07,2021-09-07,合同会社Ｓ＆Ｄ,,合同会社,茨城県,つくば市,谷田部４０３７番地９,,08,220,3050861,,,,,,,2021-09-07,1,,,,,エスアンドディー,0
2416,8050003006065,新規,0,2021-09-07,2021-09-07,合同会社ＳＥＲＥＮＤＩＢ　ＪＡＰＡＮ,,合同会社,茨城県,稲敷郡河内町,生板８０５３番地３,,08,447,3001331,,,,,,,2021-09-07,1,,,,,セレンディブジャパン,0
2418,8060001034059,新規,0,2021-09-07,2021-09-07,ＣＬ－Ｖｅｔｓ株式会社,,株式会社,栃木県,那須塩原市,豊住町８０番地２４,,09,213,3250072,,,,,,,2021-09-07,1,,,,,シーエルベッツ,0
2423,8070001038414,新規,0,2021-09-07,2021-09-07,原ホールディングス株式会社,,株式会社,群馬県,高崎市,栄町４番１１号,,10,202,3700841,,,,,,,2021-09-07,1,,,,,ハラホールディングス,0
2430,8080101022746,新規,0,2021-09-07,2021-09-07,株式会社ＳＳＧ,,株式会社,静岡県,御殿場市,新橋１２８９番地の１３０,,22,215,4120043,,,,,,,2021-09-07,1,,,,,エスエスジー,0
2431,8080101022754,新規,0,2021-09-07,2021-09-07,株式会社マルヨ,,株式会社,静岡県,富士市,伝法２５０３番地の１１,,22,210,4170061,,,,,,,2021-09-07,1,,,,,マルヨ,0
2434,8080405007385,新規,0,2021-09-07,2021-09-07,社会保険労務士法人大杉労務管理事務所,,その他の設立登記法人,静岡県,磐田市,下大之郷１８１番地３,,22,211,4380052,,,,,,,2021-09-07,1,,,,,オオスギロウムカンリジムショ,0
2435,8090001017176,新規,0,2021-09-07,2021-09-07,株式会社クルール,,株式会社,山梨県,中央市,山之神９８８番地７,,19,214,4093845,,,,,,,2021-09-07,1,,,,,クルール,0
2442,8090003001938,新規,0,2021-09-07,2021-09-07,合同会社山中湖プロパティ,,合同会社,山梨県,南都留郡山中湖村,平野３２５９,,19,425,4010502,,,,,,,2021-09-07,1,,,,,,0
2458,8120001240138,新規,0,2021-09-07,2021-09-07,株式会社京大宇商,,株式会社,大阪府,大阪市東成区,深江北３丁目６番１４号メゾンユイボナール７０１号,,27,115,5370001,,,,,,,2021-09-07,1,,,,,キョウダイウショウ,0
2459,8120001240154,新規,0,2021-09-07,2021-09-07,株式会社アズウィル,,株式会社,大阪府,大阪市福島区,吉野３丁目１９－１４シャーメゾンコトブキ２０１号,,27,103,5530006,,,,,,,2021-09-07,1,,,,,アズウィル,0
2460,8120001240162,新規,0,2021-09-07,2021-09-07,株式会社ツナグ,,株式会社,大阪府,大阪市北区,梅田２丁目２番２号ヒルトンプラザウエストオフィスタワー１８階,,27,127,5300001,,,,,,,2021-09-07,1,,,,,ツナグ,0
2461,8120001240220,新規,0,2021-09-07,2021-09-07,森田株式会社,,株式会社,大阪府,大阪市中央区,日本橋１丁目２２－３３ビジタル黒門５１１号,,27,128,5420073,,,,,,,2021-09-07,1,,,,,モリタ,0
2462,8120001240229,新規,0,2021-09-07,2021-09-07,株式会社ｓｏａｒ,,株式会社,大阪府,寝屋川市,太秦東が丘６番８号,,27,215,5720841,,,,,,,2021-09-07,1,,,,,ソアー,0
2466,8120003020141,新規,0,2021-09-07,2021-09-07,合同会社Ａ－Ｌｉｎｋ,,合同会社,大阪府,大阪市中央区,島町１丁目１番２号丸善ボタンビル４階,,27,128,5400034,,,,,,,2021-09-07,1,,,,,エーリンク,0
2467,8120003020166,新規,0,2021-09-07,2021-09-07,合同会社エルプロジェクト,,合同会社,大阪府,大阪市北区,梅田１丁目２番２号大阪駅前第２ビル２階５－６号室,,27,127,5300001,,,,,,,2021-09-07,1,,,,,エルプロジェクト,0
2468,8120003020182,新規,0,2021-09-07,2021-09-07,シュールハンズタナカ合同会社,,合同会社,大阪府,大阪市北区,菅原町７－１１大作ビル２Ｆ,,27,127,5300046,,,,,,,2021-09-07,1,,,,,シュールハンズタナカ,0
2470,8120005022474,新規,0,2021-09-07,2021-09-07,一般社団法人風水師学会,,その他の設立登記法人,大阪府,大阪市福島区,福島７丁目１５番１－１９０４号,,27,103,5530003,,,,,,,2021-09-07,1,,,,,フウスイシガッカイ,0
2471,8120005022482,新規,0,2021-09-07,2021-09-07,一般社団法人日本アーユルヴェーダ伝統医療協会,,その他の設立登記法人,大阪府,大阪市北区,同心１丁目５番７－３０８号,,27,127,5300035,,,,,,,2021-09-07,1,,,,,ニホンアーユルヴェーダデントウイリョウキョウカイ,0
2473,8120103004333,新規,0,2021-09-07,2021-09-07,合同会社あいあーち,,合同会社,大阪府,富田林市,南大伴町２丁目７番２３号,,27,214,5840043,,,,,,,2021-09-07,1,,,,,アイアーチ,0
2483,8120901044869,新規,0,2021-09-07,2021-09-07,株式会社ｇｒｕｐｐｅｔｔｏ,,株式会社,大阪府,池田市,畑３丁目９番１１号,,27,204,5630021,,,,,,,2021-09-07,1,,,,,グルペット,0
2484,8120903003815,新規,0,2021-09-07,2021-09-07,合同会社食彩ＣＯＭＰＡＮＹ,,合同会社,大阪府,吹田市,原町２丁目３０番２０号,,27,205,5640004,,,,,,,2021-09-07,1,,,,,ショクサイカンパニー,0
2489,8122001035146,新規,0,2021-09-07,2021-09-07,株式会社エーテックス,,株式会社,大阪府,八尾市,竹渕１丁目２４０番地,,27,212,5810052,,,,,,,2021-09-07,1,,,,,エーテックス,0
2505,8140001122904,新規,0,2021-09-07,2021-09-07,株式会社朔,,株式会社,兵庫県,たつの市,神岡町東觜崎５４１番地２,,28,229,6794109,,,,,,,2021-09-07,1,,,,,サク,0
2506,8140001122961,新規,0,2021-09-07,2021-09-07,株式会社ＲｅＬＩＦＥ,,株式会社,兵庫県,川西市,美園町１２番９－８号,,28,217,6660013,,,,,,,2021-09-07,1,,,,,リライフ,0
2519,8180001147674,新規,0,2021-09-07,2021-09-07,カイセイ工業株式会社,,株式会社,愛知県,大府市,月見町２丁目３８番地,,23,223,4740036,,,,,,,2021-09-07,1,,,,,カイセイコウギョウ,0
2526,8180301035307,新規,0,2021-09-07,2021-09-07,株式会社みんな農和,,株式会社,愛知県,豊橋市,西小鷹野１丁目１１番地４５,,23,201,4400013,,,,,,,2021-09-07,1,,,,,ミンナノワ,0
2527,8180301035348,新規,0,2021-09-07,2021-09-07,株式会社ユリウス・ファーム,,株式会社,愛知県,田原市,赤羽根町中瀬古４３番地,,23,231,4413502,,,,,,,2021-09-07,1,,,,,ユリウスファーム,0
2544,8240001058576,新規,0,2021-09-07,2021-09-07,株式会社ｆ‐海老名,,株式会社,広島県,広島市南区,大須賀町１３番９号,,34,103,7320821,,,,,,,2021-09-07,1,,,,,エフエビナ,0
2548,8250001019098,新規,0,2021-09-07,2021-09-07,株式会社ナカムラ工業所,,株式会社,山口県,山口市,秋穂東６２１番地１,,35,203,7541101,,,,,,,2021-09-07,1,,,,,ナカムラコウギョウショ,0
2554,8290001094484,新規,0,2021-09-07,2021-09-07,株式会社ルナシス,,株式会社,福岡県,古賀市,舞の里３丁目４番３号,,40,223,8113114,,,,,,,2021-09-07,1,,,,,ルナシス,0
2555,8290001094550,新規,0,2021-09-07,2021-09-07,株式会社Ａｃｅ‐ｔｅｐ,,株式会社,福岡県,福岡市中央区,舞鶴１丁目９番３号,,40,133,8100073,,,,,,,2021-09-07,1,,,,,エーステップ,0
2565,8320001018571,新規,0,2021-09-07,2021-09-07,株式会社フカイファーマシー,,株式会社,大分県,臼杵市,大字掻懐２の９番地の１,,44,206,8750073,,,,,,,2021-09-07,1,,,,,フカイファーマシー,0
2575,8340003003537,新規,0,2021-09-07,2021-09-07,合同会社リライブルナーシング,,合同会社,鹿児島県,薩摩川内市,永利町４１３４番地１７６,,46,215,8950005,,,,,,,2021-09-07,1,,,,,リライブルナーシング,0
2579,8350005006025,新規,0,2021-09-07,2021-09-07,特定非営利活動法人ペダルハートきりしま,,その他の設立登記法人,宮崎県,都城市,牟田町１街区４号,,45,202,8850079,,,,,,,2021-09-07,1,,,,,ペダルハートキリシマ,0
2583,8360001029334,新規,0,2021-09-07,2021-09-07,株式会社ｓｕｉｋａｒａ,,株式会社,沖縄県,那覇市,首里桃原町２丁目６４番地,,47,201,9030822,,,,,,,2021-09-07,1,,,,,スイカラ,0
2588,8370001047582,新規,0,2021-09-07,2021-09-07,小野良運輸株式会社,,株式会社,宮城県,栗原市,金成沢辺町沖２２３番地,,04,213,9895171,,,,,,,2021-09-07,1,,,,,オノヨシウンユ,0
2596,8390001016585,新規,0,2021-09-07,2021-09-07,株式会社車交場ＣＡｒＦＥ,,株式会社,山形県,尾花沢市,大字尾花沢２２９７番地２,,06,212,9994221,,,,,,,2021-09-07,1,,,,,シャコウバカフェ,0
2608,8490001009983,新規,0,2021-09-07,2021-09-07,宝さがし株式会社,,株式会社,高知県,高知市,瀬戸東町２丁目１２番地,,39,201,7810252,,,,,,,2021-09-07,1,,,,,タカラサガシ,0
2626,9010001220744,新規,0,2021-09-07,2021-09-07,株式会社ネイスサービス,,株式会社,東京都,文京区,後楽２丁目３番１０号,,13,105,1120004,,,,,,,2021-09-07,1,,,,,ネイスサービス,0
2627,9010001220892,新規,0,2021-09-07,2021-09-07,株式会社スマイルオフィス,,株式会社,東京都,文京区,本郷５丁目１番１３号,,13,105,1130033,,,,,,,2021-09-07,1,,,,,スマイルオフィス,0
2628,9010001220901,新規,0,2021-09-07,2021-09-07,株式会社トップストア,,株式会社,東京都,千代田区,岩本町３丁目４番５号,,13,101,1010032,,,,,,,2021-09-07,1,,,,,トップストア,0
2629,9010001220934,新規,0,2021-09-07,2021-09-07,株式会社ベンタナ,,株式会社,東京都,千代田区,神田小川町３丁目１４番地３ｉｌｕｓａ３０４,,13,101,1010052,,,,,,,2021-09-07,1,,,,,ベンタナ,0
2630,9010001220942,新規,0,2021-09-07,2021-09-07,ＭＣＰキャピタル株式会社,,株式会社,東京都,千代田区,丸の内１丁目６番１号,,13,101,1000005,,,,,,,2021-09-07,1,,,,,エムシーピーキャピタル,0
2641,9010401162529,新規,0,2021-09-07,2021-09-07,株式会社ＫＹＴ,,株式会社,東京都,港区,南麻布２丁目２番２－００２号,,13,103,1060047,,,,,,,2021-09-07,1,,,,,カイト,0
2644,9010403026070,新規,0,2021-09-07,2021-09-07,合同会社Ｒ,,合同会社,東京都,港区,浜松町２丁目２番１５号浜松町ダイヤビル２Ｆ,,13,103,1050013,,,,,,,2021-09-07,1,,,,,アール,0
2645,9010405020170,新規,0,2021-09-07,2021-09-07,一般社団法人日本アマチュアボートレース協会,,その他の設立登記法人,東京都,港区,三田３丁目１４番１０号,,13,103,1080073,,,,,,,2021-09-07,1,,,,,ニホンアマチュアボートレースキョウカイ,0
2652,9010505003265,新規,0,2021-09-07,2021-09-07,第二東商センター１号館管理組合法人,,その他の設立登記法人,東京都,台東区,柳橋２丁目１番１０号第二東商センター１号館管理室,,13,106,1110052,,,,,,,2021-09-07,1,,,,,ダイニトウショウセンターイチゴウカン,0
2659,9010701041465,新規,0,2021-09-07,2021-09-07,ＭＡＮＤＡＲＩＮ株式会社,,株式会社,東京都,品川区,荏原６丁目１６番１２号サウスキャッスル２０５,,13,109,1420063,,,,,,,2021-09-07,1,,,,,マンダリン,0
2663,9010901049390,新規,0,2021-09-07,2021-09-07,株式会社ブーランジェリーカドー,,株式会社,東京都,世田谷区,羽根木１丁目１９番１９号,,13,112,1560042,,,,,,,2021-09-07,1,,,,,ブーランジェリーカドー,0
2670,9011003013293,新規,0,2021-09-07,2021-09-07,石戸商事合同会社,,合同会社,東京都,渋谷区,渋谷２丁目１９－１５宮益坂ビルディング６０９,,13,113,1500002,,,,,,,2021-09-07,1,,,,,イシドショウジ,0
2673,9011101096216,新規,0,2021-09-07,2021-09-07,株式会社ＳＲ,,株式会社,東京都,新宿区,若葉１丁目２１番地２－Ａ号室,,13,104,1600011,,,,,,,2021-09-07,1,,,,,エスアール,0
2674,9011103010991,新規,0,2021-09-07,2021-09-07,合同会社たまや,,合同会社,東京都,新宿区,歌舞伎町１丁目１３番７号,,13,104,1600021,,,,,,,2021-09-07,1,,,,,タマヤ,0
2675,9011201023227,新規,0,2021-09-07,2021-09-07,株式会社Ｓｈｉｍｏｄａ,,株式会社,東京都,中野区,弥生町２丁目１０番１号霜田ビル３階,,13,114,1640013,,,,,,,2021-09-07,1,,,,,シモダ,0
2678,9011503004874,新規,0,2021-09-07,2021-09-07,合同会社ライトワンフィルム,,合同会社,東京都,荒川区,西日暮里１丁目４８番２号,,13,118,1160013,,,,,,,2021-09-07,1,,,,,ライトワンフィルム,0
2679,9011605002396,新規,0,2021-09-07,2021-09-07,医療法人社団エキナカ会,,その他の設立登記法人,東京都,練馬区,関町北４丁目２番１３号武蔵関駅ビルロータスロード３階,,13,120,1770051,,,,,,,2021-09-07,1,,,,,エキナカカイ,0
2683,9012401038287,新規,0,2021-09-07,2021-09-07,株式会社Ｍｅｅｔ,,株式会社,東京都,調布市,多摩川５丁目８番地２,,13,208,1820025,,,,,,,2021-09-07,1,,,,,ミート,0
2685,9012403005013,新規,0,2021-09-07,2021-09-07,合同会社Ｌｅａｄ－ｏｆｆ,,合同会社,東京都,府中市,栄町２丁目２３番地の３８,,13,206,1830051,,,,,,,2021-09-07,1,,,,,リードオフ,0
2690,9012801021066,新規,0,2021-09-07,2021-09-07,株式会社ｏｉ　ｓｔｕｄｉｏ,,株式会社,東京都,武蔵村山市,残堀１丁目１１３番地,,13,223,2080034,,,,,,,2021-09-07,1,,,,,オイスタジオ,0
2692,9013101008712,新規,0,2021-09-07,2021-09-07,中島電設株式会社,,株式会社,東京都,青梅市,長淵２丁目８２４番地の１,,13,205,1980052,,,,,,,2021-09-07,1,,,,,ナカジマデンセツ,0
2698,9013301047972,新規,0,2021-09-07,2021-09-07,ＡｒｃｏＩｒｉｓ株式会社,,株式会社,東京都,豊島区,池袋２丁目９－４,,13,116,1710014,,,,,,,2021-09-07,1,,,,,アルコイリス,0
2699,9013301047980,新規,0,2021-09-07,2021-09-07,株式会社プラナル,,株式会社,東京都,豊島区,南大塚１丁目５１番１８号大塚ＮＯＺＡＫＩＢＬＤ５０２,,13,116,1700005,,,,,,,2021-09-07,1,,,,,プラナル,0
2710,9020001142863,新規,0,2021-09-07,2021-09-07,株式会社ＣＭＤ,,株式会社,神奈川県,川崎市中原区,新丸子東３丁目１２００番地,,14,133,2110004,,,,,,,2021-09-07,1,,,,,シーエムディー,0
2711,9020001142871,新規,0,2021-09-07,2021-09-07,株式会社Ｂｅ　Ｄｉａｍｏｎｄｓ,,株式会社,神奈川県,川崎市幸区,下平間８４－３,,14,132,2120053,,,,,,,2021-09-07,1,,,,,ビーダイヤモンズ,0
2712,9020001142905,新規,0,2021-09-07,2021-09-07,ＲＥＭ株式会社,,株式会社,神奈川県,川崎市宮前区,菅生２丁目１３番５１－５０３号エリジオン,,14,136,2160015,,,,,,,2021-09-07,1,,,,,レム,0
2713,9020001142913,新規,0,2021-09-07,2021-09-07,株式会社ヴァンコネクト,,株式会社,神奈川県,横浜市中区,野毛町１丁目５２番地,,14,104,2310064,,,,,,,2021-09-07,1,,,,,ヴァンコネクト,0
2714,9020001142921,新規,0,2021-09-07,2021-09-07,株式会社Ｄａ　ＫＥＮＺＯ,,株式会社,神奈川県,横浜市中区,相生町５丁目７８番地３階,,14,104,2310012,,,,,,,2021-09-07,1,,,,,ダケンゾー,0
2715,9020003020448,新規,0,2021-09-07,2021-09-07,合同会社ｓｉｏｒｕ,,合同会社,神奈川県,川崎市多摩区,枡形６丁目１８番１－５０３号,,14,135,2140032,,,,,,,2021-09-07,1,,,,,シオル,0
2716,9021001073834,新規,0,2021-09-07,2021-09-07,逗葉興産株式会社,,株式会社,神奈川県,三浦郡葉山町,長柄１６４２番地の１５１,,14,301,2400113,,,,,,,2021-09-07,1,,,,,ズヨウコウサン,0
2717,9021001073850,新規,0,2021-09-07,2021-09-07,株式会社クオリアス,,株式会社,神奈川県,海老名市,中央１丁目１６番３１号Ａ＆ＮＩビル１Ｆ－１５号室,,14,215,2430432,,,,,,,2021-09-07,1,,,,,クオリアス,0
2722,9021003010868,新規,0,2021-09-07,2021-09-07,合同会社澁谷芸術企画,,合同会社,神奈川県,相模原市南区,上鶴間本町４丁目２８番５６号シティハイツ相模大野３Ｆ,,14,153,2520318,,,,,,,2021-09-07,1,,,,,シブヤゲイジュツキカク,0
2728,9030001144181,新規,0,2021-09-07,2021-09-07,株式会社鴫原工業,,株式会社,埼玉県,川越市,中台元町１丁目１６番地３１トゥルーハート２０１号室,,11,201,3501138,,,,,,,2021-09-07,1,,,,,シギハラコウギョウ,0
2729,9030001144248,新規,0,2021-09-07,2021-09-07,株式会社ＳＹ,,株式会社,埼玉県,川口市,幸町２丁目１７番９号川口ＳＫビル３Ｆ,,11,203,3320016,,,,,,,2021-09-07,1,,,,,エスワイ,0
2737,9040001120041,新規,0,2021-09-07,2021-09-07,Ｔｈｅ　Ｍｅｄｉｃａｌ　ＡＩ　Ｔｉｍｅｓ株式会社,,株式会社,千葉県,千葉市美浜区,中瀬１丁目３番地幕張テクノガーデンＣＢ棟３階ＭＢＰ,,12,106,2610023,,,,,,,2021-09-07,1,,,,,ザメディカルエーアイタイムズ,0
2740,9040003018432,新規,0,2021-09-07,2021-09-07,合同会社ＬａＬｉｂｅｒｔａ,,合同会社,千葉県,松戸市,胡録台２１８－１４,,12,207,2710075,,,,,,,2021-09-07,1,,,,,ラリベルタ,0
2741,9040003018449,新規,0,2021-09-07,2021-09-07,合同会社一二三,,合同会社,千葉県,柏市,旭町１丁目４番１８号後藤ビル４Ｆ,,12,217,2770852,,,,,,,2021-09-07,1,,,,,ヒフミ,0
2745,9050001049791,新規,0,2021-09-07,2021-09-07,株式会社ラーニングプレイス,,株式会社,茨城県,日立市,本宮町２丁目９番２７号,,08,202,3170054,,,,,,,2021-09-07,1,,,,,ラーニングプレイス,0
2749,9060001034009,新規,0,2021-09-07,2021-09-07,株式会社現代華日物産,,株式会社,栃木県,塩谷郡塩谷町,大字玉生７４７－６,,09,384,3292221,,,,,,,2021-09-07,1,,,,,,0
2750,9060001034058,新規,0,2021-09-07,2021-09-07,株式会社ノック,,株式会社,栃木県,日光市,室瀬１５１番地,,09,206,3211275,,,,,,,2021-09-07,1,,,,,ノック,0
2755,9070001038405,新規,0,2021-09-07,2021-09-07,株式会社ｅｋｏｕ,,株式会社,群馬県,高崎市,中島町１１１番地６５,,10,202,3700023,,,,,,,2021-09-07,1,,,,,エコウ,0
2756,9070001038413,新規,0,2021-09-07,2021-09-07,株式会社ひなこな,,株式会社,群馬県,高崎市,江木町１６３９番地５,,10,202,3700046,,,,,,,2021-09-07,1,,,,,ヒナコナ,0
2761,9070005009897,新規,0,2021-09-07,2021-09-07,特定非営利活動法人中之条コネクト,,その他の設立登記法人,群馬県,吾妻郡中之条町,大字折田１１９２番地,,10,421,3770433,,,,,,,2021-09-07,1,,,,,ナカノジョウコネクト,0
2762,9080001024429,新規,0,2021-09-07,2021-09-07,株式会社蓮,,株式会社,静岡県,静岡市清水区,草薙杉道２丁目７番５号,,22,103,4240885,,,,,,,2021-09-07,1,,,,,ハス,0
2764,9080101022753,新規,0,2021-09-07,2021-09-07,株式会社稲垣商事,,株式会社,静岡県,富士市,鈴川中町３１番１号,,22,210,4170013,,,,,,,2021-09-07,1,,,,,イナガキショウジ,0
2773,9100001034573,新規,0,2021-09-07,2021-09-07,株式会社ＣＡＶＥ,,株式会社,長野県,北佐久郡軽井沢町,大字長倉５５２０番地１４,,20,321,3890111,,,,,,,2021-09-07,1,,,,,ケイブ,0
2797,9120001240104,新規,0,2021-09-07,2021-09-07,デルタ株式会社,,株式会社,大阪府,大阪市北区,堂島２丁目２－８－９０３,,27,127,5300003,,,,,,,2021-09-07,1,,,,,デルタ,0
2798,9120001240112,新規,0,2021-09-07,2021-09-07,株式会社海城,,株式会社,大阪府,守口市,八雲西町４丁目１０番１０号１Ｆ,,27,209,5700006,,,,,,,2021-09-07,1,,,,,カイジョウ,0
2803,9120003020149,新規,0,2021-09-07,2021-09-07,合同会社ｍｕｒｏｍｏｔｏ．,,合同会社,大阪府,大阪市中央区,南船場３丁目１２番３号心斎橋セントビル６Ｆ,,27,128,5420081,,,,,,,2021-09-07,1,,,,,ムロモト,0
2804,9120003020165,新規,0,2021-09-07,2021-09-07,合同会社ハマンデイ,,合同会社,大阪府,大阪市東住吉区,杭全７丁目１４番２号,,27,121,5460002,,,,,,,2021-09-07,1,,,,,ハマンデイ,0
2805,9120003020173,新規,0,2021-09-07,2021-09-07,合同会社ＨＯＰＥ,,合同会社,大阪府,大阪市福島区,海老江８丁目７番２８号,,27,103,5530001,,,,,,,2021-09-07,1,,,,,ホープ,0
2808,9120101064238,新規,0,2021-09-07,2021-09-07,株式会社リズム,,株式会社,大阪府,堺市西区,浜寺船尾町西４丁４３５番地７,,27,144,5928342,,,,,,,2021-09-07,1,,,,,リズム,0
2809,9120101064262,新規,0,2021-09-07,2021-09-07,株式会社エムジー,,株式会社,大阪府,堺市美原区,小平尾１２２４番地,,27,147,5870021,,,,,,,2021-09-07,1,,,,,エムジー,0
2812,9120901044868,新規,0,2021-09-07,2021-09-07,株式会社プロテオバイオロジクス,,株式会社,大阪府,箕面市,如意谷４丁目６番９－７０４号,,27,220,5620011,,,,,,,2021-09-07,1,,,,,プロテオバイオロジクス,0
2814,9120903003814,新規,0,2021-09-07,2021-09-07,合同会社カナール,,合同会社,大阪府,茨木市,小川町４番１７－３０１号,,27,211,5670873,,,,,,,2021-09-07,1,,,,,カナール,0
2826,9140001122886,新規,0,2021-09-07,2021-09-07,株式会社教林館,,株式会社,兵庫県,姫路市,青山西３丁目１０番４号,,28,201,6712224,,,,,,,2021-09-07,1,,,,,,0
2827,9140001122936,新規,0,2021-09-07,2021-09-07,Ｋ－ＮＩＮＥ株式会社,,株式会社,兵庫県,神戸市灘区,高尾通４丁目２番１７－２０３号,,28,102,6570813,,,,,,,2021-09-07,1,,,,,ケーナイン,0
2828,9140001122952,新規,0,2021-09-07,2021-09-07,インテリアサカタ株式会社,,株式会社,兵庫県,加古郡播磨町,北本荘６丁目７番１１号,,28,382,6750144,,,,,,,2021-09-07,1,,,,,インテリアサカタ,0
2839,9150001024900,新規,0,2021-09-07,2021-09-07,株式会社ＴＳＧ,,株式会社,奈良県,大和郡山市,筒井町８８４番地１号,,29,203,6391123,,,,,,,2021-09-07,1,,,,,ティーエスジー,0
2847,9170005006926,新規,0,2021-09-07,2021-09-07,一般社団法人アジア分子糖尿病学会,,その他の設立登記法人,和歌山県,和歌山市,木ノ本９３番１和歌山ろうさい病院内,,30,201,6408453,,,,,,,2021-09-07,1,,,,,アジアブンシトウニョウビョウガッカイ,0
2854,9180001147599,新規,0,2021-09-07,2021-09-07,株式会社激光技術研究所,,株式会社,愛知県,日進市,岩崎町神明５番地２９,,23,230,4700131,,,,,,,2021-09-07,1,,,,,ゲキコウギジュツケンキュウジョ,0
2855,9180001147673,新規,0,2021-09-07,2021-09-07,株式会社ひかり,,株式会社,愛知県,知多市,新知字南惣作３３番地の１０,,23,224,4780017,,,,,,,2021-09-07,1,,,,,ヒカリ,0
2856,9180001147748,新規,0,2021-09-07,2021-09-07,株式会社令和,,株式会社,愛知県,名古屋市西区,庄内通２丁目２０番地の６,,23,104,4510016,,,,,,,2021-09-07,1,,,,,レイワ,0
2862,9180005019423,新規,0,2021-09-07,2021-09-07,社会保険労務士法人ワイズオフィス,,その他の設立登記法人,愛知県,名古屋市西区,城西４丁目２２番８号清光ビル浄心４階,,23,104,4510031,,,,,,,2021-09-07,1,,,,,ワイズオフィス,0
2865,9180301035347,新規,0,2021-09-07,2021-09-07,株式会社ＴＫＧ,,株式会社,愛知県,西尾市,志籠谷町山崎６４番地１,,23,213,4450081,,,,,,,2021-09-07,1,,,,,ティーケージー,0
2867,9180303005091,新規,0,2021-09-07,2021-09-07,合同会社どこでもドア,,合同会社,愛知県,豊橋市,佐藤２丁目２１番地２,,23,201,4400853,,,,,,,2021-09-07,1,,,,,,0
2876,9220005008594,新規,0,2021-09-07,2021-09-07,一般社団法人Ｋ＆Ｋ,,その他の設立登記法人,石川県,かほく市,木津ハ１４番地２,,17,209,9291171,,,,,,,2021-09-07,1,,,,,ケイアンドケイ,0
2884,9240001058575,新規,0,2021-09-07,2021-09-07,株式会社ｆ‐横浜,,株式会社,広島県,広島市南区,大須賀町１３番９号,,34,103,7320821,,,,,,,2021-09-07,1,,,,,エフヨコハマ,0
2888,9260001035936,新規,0,2021-09-07,2021-09-07,株式会社凸凹村,,株式会社,岡山県,岡山市北区,平田１３３番地１１７,,33,101,7000952,,,,,,,2021-09-07,1,,,,,デコボコムラ,0
2893,9290001094483,新規,0,2021-09-07,2021-09-07,株式会社勇建,,株式会社,福岡県,飯塚市,目尾８７３番地５,,40,205,8200062,,,,,,,2021-09-07,1,,,,,ユウケン,0
2896,9300001012617,新規,0,2021-09-07,2021-09-07,株式会社伊万里開発,,株式会社,佐賀県,伊万里市,南波多町府招４５８番地,,41,205,8480015,,,,,,,2021-09-07,1,,,,,イマリカイハツ,0
2910,9360003011421,新規,0,2021-09-07,2021-09-07,島鶴ファーマーズ合同会社,,合同会社,沖縄県,宮古島市,伊良部字伊良部５３番地,,47,214,9060503,,,,,,,2021-09-07,1,,,,,シマヅルファーマーズ,0
2938,9490003001582,新規,0,2021-09-07,2021-09-07,三八四商事合同会社,,合同会社,高知県,高知市,長浜蒔絵台１丁目２０番地１１,,39,201,7810245,,,,,,,2021-09-07,1,,,,,,0
