sequenceNumber,corporateNumber,process,correct,updateDate,changeDate,name,nameImageId,kind,prefectureName,cityName,streetNumber,addressImageId,prefectureCode,cityCode,postCode,addressOutside,addressOutsideImageId,closeDate,closeCause,successorCorporateNumber,changeCause,assignmentDate,latest,enName,enPrefectureName,enCityName,enAddressOutside,furigana,hihyoji
24,1010401181965,新規,0,2024-04-19,2024-04-19,株式会社Ｂｏｎｎｙ,,株式会社,東京都,港区,西麻布３丁目２４番１９号三王商会西麻布ビル２Ｆ,,13,103,1060031,,,,,,,2024-04-19,1,,,,,ボニー,0
26,1010403032398,新規,0,2024-04-19,2024-04-19,ＹＵＴＡＫＡ　Ｄ　ＪＡＰＡＮ合同会社,,合同会社,東京都,港区,元麻布２丁目１番１９号２０６号室,,13,103,1060046,,,,,,,2024-04-19,1,,,,,ユタカディージャパン,0
30,1010501052141,新規,0,2024-04-19,2024-04-19,株式会社ローダンセ,,株式会社,東京都,台東区,浅草橋５丁目２番３号,,13,106,1110053,,,,,,,2024-04-19,1,,,,,ローダンセ,0
62,1011001161382,新規,0,2024-04-19,2024-04-19,株式会社わくラボ,,株式会社,東京都,渋谷区,恵比寿西２丁目４番８号ウィンド恵比寿ビル８Ｆ,,13,113,1500021,,,,,,,2024-04-19,1,,,,,ワクラボ,0
63,1011001161390,新規,0,2024-04-19,2024-04-19,ＥＩＧＨＴ　ＡＮＤ株式会社,,株式会社,東京都,渋谷区,渋谷２丁目１９－１５宮益坂ビルディング６０９,,13,113,1500002,,,,,,,2024-04-19,1,,,,,エイトアンド,0
64,1011001161416,新規,0,2024-04-19,2024-04-19,株式会社ｍａｎｉｍａｎｉ,,株式会社,東京都,渋谷区,神宮前６丁目２３番４号桑野ビル２階,,13,113,1500001,,,,,,,2024-04-19,1,,,,,マニマニ,0
65,1011001161457,新規,0,2024-04-19,2024-04-19,ステラバース株式会社,,株式会社,東京都,渋谷区,恵比寿西２丁目４番８号ウィンド恵比寿ビル８Ｆ,,13,113,1500021,,,,,,,2024-04-19,1,,,,,ステラバース,0
66,1011001161498,新規,0,2024-04-19,2024-04-19,株式会社ＭＩＥＴＥＬＬ,,株式会社,東京都,渋谷区,上原３丁目２１番１６号２Ｆ,,13,113,1510064,,,,,,,2024-04-19,1,,,,,ミエテル,0
76,1011101107013,新規,0,2024-04-19,2024-04-19,株式会社フェアビルド,,株式会社,東京都,新宿区,西新宿３丁目３番１３号西新宿水間ビル６階,,13,104,1600023,,,,,,,2024-04-19,1,,,,,フェアビルド,0
77,1011103014348,新規,0,2024-04-19,2024-04-19,Ｍ＆Ｒ合同会社,,合同会社,東京都,新宿区,矢来町１２０番地,,13,104,1620805,,,,,,,2024-04-19,1,,,,,エムアンドアール,0
80,1011301029585,新規,0,2024-04-19,2024-04-19,智高株式会社,,株式会社,東京都,杉並区,高円寺南２丁目２－１３アンビエンス高円寺３０－Ｃ室,,13,115,1660003,,,,,,,2024-04-19,1,,,,,チコウ,0
88,1011703003808,新規,0,2024-04-19,2024-04-19,合同会社Ｃｈａｒｉｚｍａ,,合同会社,東京都,江戸川区,中葛西８丁目１４番１号,,13,123,1340083,,,,,,,2024-04-19,1,,,,,カリズマ,0
94,1012703002964,新規,0,2024-04-19,2024-04-19,渡邉商事合同会社,,合同会社,東京都,小平市,仲町５６６－３１,,13,211,1870042,,,,,,,2024-04-19,1,,,,,ワタナベショウジ,0
99,1013301052385,新規,0,2024-04-19,2024-04-19,株式会社Ｋ‐ＴＲＵＳＴ,,株式会社,東京都,豊島区,東池袋５丁目１９番１号プラウドタワー東池袋４０２号,,13,116,1700013,,,,,,,2024-04-19,1,,,,,ケイトラスト,0
108,1020001156623,新規,0,2024-04-19,2024-04-19,株式会社クリスティーゾーン,,株式会社,神奈川県,横浜市中区,石川町３丁目１１１番地１,,14,104,2310868,,,,,,,2024-04-19,1,,,,,クリスティーゾーン,0
109,1020001156771,新規,0,2024-04-19,2024-04-19,株式会社ＫＹＳ,,株式会社,神奈川県,横浜市旭区,上川井町２７６番地,,14,112,2410802,,,,,,,2024-04-19,1,,,,,ケーワイエス,0
110,1020001156796,新規,0,2024-04-19,2024-04-19,株式会社ＭＥ　ｓｙｎｃ,,株式会社,神奈川県,横浜市中区,山下町２４－７－３０３,,14,104,2310023,,,,,,,2024-04-19,1,,,,,エムイーシンク,0
112,1020003025941,新規,0,2024-04-19,2024-04-19,合同会社ミクバリ,,合同会社,神奈川県,川崎市多摩区,登戸２５７８－１登戸ハイデンス５０７,,14,135,2140014,,,,,,,2024-04-19,1,,,,,ミクバリ,0
117,1021001081902,新規,0,2024-04-19,2024-04-19,株式会社ほねごりＦＧＳ,,株式会社,神奈川県,相模原市緑区,橋本３丁目１３番１号パークスクウェア１０１号室,,14,151,2520143,,,,,,,2024-04-19,1,,,,,ホネゴリエフジーエス,0
130,1030001159906,新規,0,2024-04-19,2024-04-19,株式会社Ｐｅｔ　Ｌｉｆｅ　Ｉｃｈｉｍｏ,,株式会社,埼玉県,さいたま市中央区,鈴谷６丁目６番１９号,,11,105,3380013,,,,,,,2024-04-19,1,,,,,ペットライフイチモ,0
131,1030001159914,新規,0,2024-04-19,2024-04-19,森雅興業株式会社,,株式会社,埼玉県,さいたま市岩槻区,城南４丁目２番２９号,,11,110,3390043,,,,,,,2024-04-19,1,,,,,シンガコウギョウ,0
132,1030001159930,新規,0,2024-04-19,2024-04-19,株式会社タイセイテック,,株式会社,埼玉県,三郷市,彦川戸１丁目２９８番地２０,,11,237,3410005,,,,,,,2024-04-19,1,,,,,タイセイテック,0
133,1030003024141,新規,0,2024-04-19,2024-04-19,合同会社董美,,合同会社,埼玉県,蕨市,中央２丁目８番７号クレールＩＩＩ１０２号,00134481,11,223,3350004,,,,,,,2024-04-19,1,,,,,トウビ,0
137,1030005021665,新規,0,2024-04-19,2024-04-19,一般社団法人平田・打田資源研究所,,その他の設立登記法人,埼玉県,三郷市,さつき平２丁目４番地１－３０４号,,11,237,3410021,,,,,,,2024-04-19,1,,,,,ヒラタウチダシゲンケンキュウショ,0
139,1040001133240,新規,0,2024-04-19,2024-04-19,株式会社ケイ・カンパニー,,株式会社,千葉県,木更津市,請西東７丁目２番地１０,,12,206,2920806,,,,,,,2024-04-19,1,,,,,ケイカンパニー,0
140,1040001133249,新規,0,2024-04-19,2024-04-19,株式会社Ｏ．Ｐ　ＮＩＨＯＮ　ＬＡＮＫＡ,,株式会社,千葉県,市川市,広尾１丁目８番１５－２０３号（セザール南行徳）,,12,203,2720146,,,,,,,2024-04-19,1,,,,,オーピーニホンランカ,0
141,1040001133257,新規,0,2024-04-19,2024-04-19,インスクリプション株式会社,,株式会社,千葉県,四街道市,鹿放ケ丘６０４番地１グリーンパーク２０５,,12,228,2840008,,,,,,,2024-04-19,1,,,,,インスクリプション,0
143,1040003024792,新規,0,2024-04-19,2024-04-19,Ｂｏｒｄｅｒｌｅｓｓ　Ｄｉｓｃｏｖｅｒｙ合同会社,,合同会社,千葉県,旭市,三川３６３６番地,,12,215,2892714,,,,,,,2024-04-19,1,,,,,ボーダーレスディスカバリー,0
144,1040003024834,新規,0,2024-04-19,2024-04-19,トゥジュールストーン合同会社,,合同会社,千葉県,松戸市,松戸６１８番地の１ライオンズマンション松戸柿ノ木台４１２号,,12,207,2710092,,,,,,,2024-04-19,1,,,,,トゥジュールストーン,0
158,1080101024690,新規,0,2024-04-19,2024-04-19,ＨＩＮＡホールディングス株式会社,,株式会社,静岡県,富士市,五貫島１１２８番地の１,,22,210,4160946,,,,,,,2024-04-19,1,,,,,ヒナホールディングス,0
160,1080401027138,新規,0,2024-04-19,2024-04-19,ＡＫコーポレーション株式会社,,株式会社,静岡県,磐田市,国府台９４番地３,,22,211,4380077,,,,,,,2024-04-19,1,,,,,エイケイコーポレーション,0
164,1080403004993,新規,0,2024-04-19,2024-04-19,合同会社もなか,,合同会社,静岡県,浜松市中央区,尾張町１２３番地の３,,22,138,4300949,,,,,,,2024-04-19,1,,,,,モナカ,0
166,1090001018668,新規,0,2024-04-19,2024-04-19,株式会社ビー・ライト,,株式会社,山梨県,山梨市,江曽原９５９番地,,19,205,4050043,,,,,,,2024-04-19,1,,,,,ビーライト,0
168,1100001037369,新規,0,2024-04-19,2024-04-19,株式会社ＮＡステイ＆ホテルズ,,株式会社,長野県,長野市,南千歳町二丁目８番５号,,20,201,3810000,,,,,,,2024-04-19,1,,,,,エヌエーステイアンドホテルズ,0
184,1120001263987,新規,0,2024-04-19,2024-04-19,Ｐｌｕｓ　Ｅｎｔｅｒｔａｉｎｍｅｎｔ株式会社,,株式会社,大阪府,大阪市中央区,南船場３丁目２番２２号おおきに南船場ビル２０５,,27,128,5420081,,,,,,,2024-04-19,1,,,,,プラスエンターテイメント,0
185,1120001264135,新規,0,2024-04-19,2024-04-19,株式会社ケースリー,,株式会社,大阪府,大阪市淀川区,東三国４丁目１５番３号,,27,123,5320002,,,,,,,2024-04-19,1,,,,,ケースリー,0
186,1120001264143,新規,0,2024-04-19,2024-04-19,Ｋ．Ｎ　ＢＵＩＬＤ株式会社,,株式会社,大阪府,大阪市旭区,高殿３丁目２８番７－７０２号,,27,117,5350031,,,,,,,2024-04-19,1,,,,,ケーエヌビルド,0
187,1120001264176,新規,0,2024-04-19,2024-04-19,株式会社ＴＲＩＮＥＸＵＳ,,株式会社,大阪府,大阪市東住吉区,今川３丁目６番２７号,,27,121,5460003,,,,,,,2024-04-19,1,,,,,トライネクサス,0
190,1120003026384,新規,0,2024-04-19,2024-04-19,ビカ商事合同会社,,合同会社,大阪府,大阪市住吉区,長居１丁目９番５－２Ｃ号室,,27,120,5580003,,,,,,,2024-04-19,1,,,,,ビカショウジ,0
192,1120005024287,新規,0,2024-04-19,2024-04-19,一般社団法人親誠会,,その他の設立登記法人,大阪府,大阪市中央区,安土町２丁目８番３２号,,27,128,5410052,,,,,,,2024-04-19,1,,,,,シンセイカイ,0
199,1120901049057,新規,0,2024-04-19,2024-04-19,株式会社ＴｅｔｏＴｅ,,株式会社,大阪府,茨木市,南春日丘７丁目７番３６号,,27,211,5670046,,,,,,,2024-04-19,1,,,,,テトテ,0
202,1130001076835,新規,0,2024-04-19,2024-04-19,栄幸建設株式会社,,株式会社,京都府,八幡市,橋本栗ケ谷２６番地の４５,,26,210,6148327,,,,,,,2024-04-19,1,,,,,エイコウケンセツ,0
203,1130001076843,新規,0,2024-04-19,2024-04-19,株式会社Ｋ‐ＷＯＲＫＳ,,株式会社,京都府,京都市西京区,上桂北ノ口町１７８－１０２,,26,111,6158212,,,,,,,2024-04-19,1,,,,,ケイワークス,0
204,1130001076868,新規,0,2024-04-19,2024-04-19,株式会社フルエントリー,,株式会社,京都府,京都市下京区,中野之町１８５番地バインオークセント５１３号,,26,106,6008435,,,,,,,2024-04-19,1,,,,,フルエントリー,0
205,1130001076876,新規,0,2024-04-19,2024-04-19,株式会社ＦｏｌｌｏｗＨｅａｒｔ,,株式会社,京都府,長岡京市,梅が丘１丁目１０６番地,,26,209,6170841,,,,,,,2024-04-19,1,,,,,フォローハート,0
206,1130003009462,新規,0,2024-04-19,2024-04-19,合同会社縁,,合同会社,京都府,京都市南区,大宮通八条下る九条町４１２番地２６,,26,107,6018473,,,,,,,2024-04-19,1,,,,,エニシ,0
216,1140001134121,新規,0,2024-04-19,2024-04-19,クイーントラスト株式会社,,株式会社,兵庫県,尼崎市,杭瀬南新町２丁目６番４３号,,28,202,6600822,,,,,,,2024-04-19,1,,,,,クイーントラスト,0
220,1140003020427,新規,0,2024-04-19,2024-04-19,合同会社Ｅｍｐｔｅａ,,合同会社,兵庫県,神戸市中央区,琴ノ緒町５丁目２－２三信ビル４０１,,28,110,6510094,,,,,,,2024-04-19,1,,,,,エンプティー,0
222,1150003003224,新規,0,2024-04-19,2024-04-19,Ｔｅｄ＆Ｓｈｏｒｇｅ合同会社,,合同会社,奈良県,奈良市,四条大路３丁目４－２６－８,,29,201,6308014,,,,,,,2024-04-19,1,,,,,テッドアンドショージ,0
223,1150003003232,新規,0,2024-04-19,2024-04-19,合同会社カーングループ,,合同会社,奈良県,奈良市,鳥見町４丁目３番地の１富雄団地４７－２０７号,,29,201,6310065,,,,,,,2024-04-19,1,,,,,カーングループ,0
225,1160001025863,新規,0,2024-04-19,2024-04-19,株式会社ＲＳ,,株式会社,滋賀県,大津市,大江３丁目２４番４５号,,25,201,5202141,,,,,,,2024-04-19,1,,,,,アールエス,0
226,1160003003165,新規,0,2024-04-19,2024-04-19,ＬＩＹＡＮＡ　ＴＲＡＤＩＮＧ合同会社,,合同会社,滋賀県,彦根市,賀田山町５２２,,25,202,5291155,,,,,,,2024-04-19,1,,,,,リヤナトレーディング,0
233,1180001161013,新規,0,2024-04-19,2024-04-19,株式会社暖心,,株式会社,愛知県,名古屋市守山区,瀬古１丁目２５２番地の１（リバーサイドヴィラ瀬古２０３号）,,23,113,4630068,,,,,,,2024-04-19,1,,,,,ダンシン,0
241,1200001042417,新規,0,2024-04-19,2024-04-19,株式会社Ｓｐｏｔ　Ｌｉｇｈｔ,,株式会社,岐阜県,高山市,中山町６９１番地,,21,203,5060051,,,,,,,2024-04-19,1,,,,,スポットライト,0
247,1220001025948,新規,0,2024-04-19,2024-04-19,株式会社ＧＯＥＮ,,株式会社,石川県,金沢市,専光寺町ツ８０番地５,,17,201,9200356,,,,,,,2024-04-19,1,,,,,ゴエン,0
249,1230003002192,新規,0,2024-04-19,2024-04-19,合同会社サンパラソル,,合同会社,富山県,富山市,堀川小泉町１丁目１８番２０号,,16,201,9398081,,,,,,,2024-04-19,1,,,,,サンパラソル,0
267,1290001105371,新規,0,2024-04-19,2024-04-19,楽米株式会社,,株式会社,福岡県,太宰府市,水城１丁目２番２０号,,40,221,8180131,,,,,,,2024-04-19,1,,,,,ラクマイ,0
268,1290001105446,新規,0,2024-04-19,2024-04-19,株式会社Ｒｅｄａｃｔｅｄ,,株式会社,福岡県,福岡市中央区,天神４丁目６－８天神ファーストビル７階,,40,133,8100001,,,,,,,2024-04-19,1,,,,,リダクテッド,0
269,1290001105454,新規,0,2024-04-19,2024-04-19,Ｎｏａｈ’ｓ　Ａｒｋ株式会社,,株式会社,福岡県,福岡市中央区,天神３丁目６番１６号オフィスニューガイアＣＬＡＩＲ天神５Ｆ,,40,133,8100001,,,,,,,2024-04-19,1,,,,,ノアズアーク,0
272,1290003015189,新規,0,2024-04-19,2024-04-19,合同会社ＣＹＤ,,合同会社,福岡県,福岡市博多区,神屋町７番１３号ＦＯＸビル２０１,,40,132,8120022,,,,,,,2024-04-19,1,,,,,シーワイディ,0
274,1300003002111,新規,0,2024-04-19,2024-04-19,ＴＡＫＡＤＥＮ合同会社,,合同会社,佐賀県,佐賀市,巨勢町牛島４５７番地１１,,41,201,8490000,,,,,,,2024-04-19,1,,,,,タカデン,0
285,1340003004442,新規,0,2024-04-19,2024-04-19,合同会社ブルズ・アイ,,合同会社,鹿児島県,姶良市,寺師６１３－２,,46,225,8995401,,,,,,,2024-04-19,1,,,,,ブルズアイ,0
286,1350003004623,新規,0,2024-04-19,2024-04-19,ミライ警備合同会社,,合同会社,宮崎県,延岡市,浜砂１丁目６番６－１０１号,,45,203,8820851,,,,,,,2024-04-19,1,,,,,ミライケイビ,0
292,1360001033532,新規,0,2024-04-19,2024-04-19,株式会社Ｌｅ　Ｍｏｎｄｅ,,株式会社,沖縄県,沖縄市,照屋１丁目１４番１５号,,47,211,9040011,,,,,,,2024-04-19,1,,,,,ルモンド,0
293,1360001033540,新規,0,2024-04-19,2024-04-19,山本船食株式会社,,株式会社,沖縄県,那覇市,前島３丁目９番２２号,,47,201,9000016,,,,,,,2024-04-19,1,,,,,ヤマモトセンショク,0
302,1400001016623,新規,0,2024-04-19,2024-04-19,株式会社ＦＯＮＴＯＬＡＢＯ,,株式会社,岩手県,北上市,常盤台１丁目１１番８号,,03,206,0240012,,,,,,,2024-04-19,1,,,,,フォントラボ,0
303,1400005008410,新規,0,2024-04-19,2024-04-19,一般社団法人ＳＥＮＯＢＹ,,その他の設立登記法人,岩手県,遠野市,小友町１６地割１０５番地１,,03,208,0280481,,,,,,,2024-04-19,1,,,,,セノビィ,0
309,1430001091507,新規,0,2024-04-19,2024-04-19,株式会社ＧＯＡＴ‐Ｘ,,株式会社,北海道,苫小牧市,有珠の沢町４丁目１６－２３,,01,213,0530842,,,,,,,2024-04-19,1,,,,,ゴートエックス,0
313,1450001014291,新規,0,2024-04-19,2024-04-19,株式会社ＳＫコレクション,,株式会社,北海道,旭川市,旭神二条２丁目４番１号１,,01,204,0788372,,,,,,,2024-04-19,1,,,,,,0
314,1450003002468,新規,0,2024-04-19,2024-04-19,スプラウトリーフ合同会社,,合同会社,北海道,旭川市,東旭川町下兵村５１９番地７,,01,204,0788208,,,,,,,2024-04-19,1,,,,,,0
316,1460101007533,新規,0,2024-04-19,2024-04-19,株式会社エヌ・ケイ・シーソリューション,,株式会社,北海道,帯広市,西四条南９丁目７番地,,01,207,0800014,,,,,,,2024-04-19,1,,,,,エヌケイシーソリューション,0
324,1700150124659,新規,0,2024-04-19,2024-04-19,ＨＡＮＧ　ＺＨＯＵ　ＭＩ　ＸＵＡＮ　ＭＡＯ　ＹＩ　Ｃｏ．，Ｌｔｄ,,外国会社等,,,,,,,,７０５，ｂｕｉｌｄｉｎｇ　２，Ｎｏ．４４４－２９　Ｂｅｉｔａｎｇ　Ｅａｓｔ　Ｒｏａｄ，Ｘｉｎｊｉｅ　ｓｔｒｅｅｔ　ｘｉａｏｓｈａｎ　Ｈａｎｇｚｈｏｕ　Ｚｈｅｊｉａｎｇ，Ｃｈｉｎａ,,,,,,2024-04-19,1,,,,,ハンゾウミションマオイカンパニーリミテッド,0
325,1700150124964,新規,0,2024-04-19,2024-04-19,ｇｕａｎｇｚｈｏｕ　ｘｉｎｇｚｅ　ｄｉａｎｚｉ　ｓｈａｎｇｗｕ　ｙｏｕｘｉａｎ　ｇｏｎｇｓｉ,,外国会社等,,,,,,,,ＴｉａｎｈｅＱｕＨｕａｎｇｐｕＤａｄａｏｘｉ７６Ｈａｏ４０３ＡＦａｎｇ　Ｇｕａｎｇｚｈｏｕ,,,,,,2024-04-19,1,,,,,コウシュウシンゼデンシショウムユウゲンコウシ,0
326,1700150124972,新規,0,2024-04-19,2024-04-19,ｓｈｅｎｚｈｅｎｓｈｉｊｉａｈｕａｋｕｎｌｏｎｇｋｅｊｉｙｏｕｘｉａｎｇｏｎｇｓｉ,,外国会社等,,,,,,,,ｇｕａｎｇｍｉｎｇｑｕｍａｔｉａｎｊｉｅｄａｏ　ｊｉａｎｇｗｅｉｓｈｅｑｕｊｉａｎｇｗｅｉｄｉｅｒｇｏｎｇｙｅｑｕｄｉｓｈｉｌｉｕｄｏｎｇ３０４　ｓｈｅｎｚｈｅｎ　ｇｕａｎｇｄｏｎｇ　ｃｈｉｎａ,,,,,,2024-04-19,1,,,,,シンセンシジャホゥアクンロンカギユウゲンコウシ,0
327,1700150124980,新規,0,2024-04-19,2024-04-19,Ｗｒｉｔｅｃｈ，ＩＮＣ,,外国会社等,,,,,,,,９２　ＣＯＲＰＯＲＡＴＥ　ＰＡＲＫ　ＳＴＥ　Ｃ　２０４　ＩＲＶＩＮＥ，ＣＡ　９２６０６,,,,,,2024-04-19,1,,,,,ライテクインコーポレーション,0
340,2010001244097,新規,0,2024-04-19,2024-04-19,株式会社トライデントＦＡＳ,,株式会社,東京都,中央区,銀座４丁目２番１５号,,13,102,1040061,,,,,,,2024-04-19,1,,,,,トライデントエフエーエス,0
341,2010001244163,新規,0,2024-04-19,2024-04-19,株式会社ＣｏｄｅＢｌｉｔｚ,,株式会社,東京都,千代田区,外神田４丁目１４番１号,,13,101,1010021,,,,,,,2024-04-19,1,,,,,コードブリッツ,0
342,2010001244205,新規,0,2024-04-19,2024-04-19,ＦＥＮＩＸ株式会社,,株式会社,東京都,千代田区,神田錦町３丁目７番２号,,13,101,1010054,,,,,,,2024-04-19,1,,,,,フェニックス,0
344,2010003043480,新規,0,2024-04-19,2024-04-19,クレジット・ギャランティ１０号合同会社,,合同会社,東京都,千代田区,内神田１丁目３番７号４０１あすな会計事務所内,,13,101,1010047,,,,,,,2024-04-19,1,,,,,クレジットギャランティジュウゴウ,0
345,2010003043514,新規,0,2024-04-19,2024-04-19,合同会社Ｒｏｔｕｎｄａ,,合同会社,東京都,文京区,本駒込６丁目１―１５―７０３,,13,105,1130021,,,,,,,2024-04-19,1,,,,,ロタンダ,0
346,2010003043530,新規,0,2024-04-19,2024-04-19,合同会社ＳＩ　Ｃｒｅａｔｉｖｅｓ,,合同会社,東京都,中央区,日本橋室町１丁目１１番１２号日本橋水野ビル７階,,13,102,1030022,,,,,,,2024-04-19,1,,,,,エスアイクリエイティブズ,0
363,2010403032397,新規,0,2024-04-19,2024-04-19,ＹＵＴＡＫＡ　Ｃ　ＪＡＰＡＮ合同会社,,合同会社,東京都,港区,元麻布２丁目１番１９号２０６号室,,13,103,1060046,,,,,,,2024-04-19,1,,,,,ユタカシージャパン,0
365,2010405023147,新規,0,2024-04-19,2024-04-19,一般社団法人フィルムスコア,,その他の設立登記法人,東京都,港区,港南４丁目６番２－２９０５号,,13,103,1080075,,,,,,,2024-04-19,1,,,,,フィルムスコア,0
369,2010501052149,新規,0,2024-04-19,2024-04-19,キーアセットマネージメント株式会社,,株式会社,東京都,台東区,駒形１丁目１０番９－４０９号,,13,106,1110043,,,,,,,2024-04-19,1,,,,,キーアセットマネージメント,0
370,2010501052157,新規,0,2024-04-19,2024-04-19,株式会社長谷川スタジオ,,株式会社,東京都,台東区,谷中２丁目６番４号オープンレジデンシア根津２０６,,13,106,1100001,,,,,,,2024-04-19,1,,,,,ハセガワスタジオ,0
382,2010603010772,新規,0,2024-04-19,2024-04-19,アットエス合同会社,,合同会社,東京都,墨田区,京島２丁目２番９号,,13,107,1310046,,,,,,,2024-04-19,1,,,,,アットエス,0
385,2010701045852,新規,0,2024-04-19,2024-04-19,株式会社ＭＯＲＩＳ,,株式会社,東京都,品川区,西五反田７丁目５番８号ＭｉＣａｓａ３０１,,13,109,1410031,,,,,,,2024-04-19,1,,,,,モリス,0
386,2010701045869,新規,0,2024-04-19,2024-04-19,株式会社ＲＰ,,株式会社,東京都,品川区,上大崎１丁目１３番地７号第１１スカイビル１０３号室,,13,109,1410021,,,,,,,2024-04-19,1,,,,,アールピー,0
396,2011001161308,新規,0,2024-04-19,2024-04-19,株式会社Ｗｅｌｌｔ,,株式会社,東京都,目黒区,碑文谷３丁目１－１０－１０６,,13,110,1520003,,,,,,,2024-04-19,1,,,,,ウェルト,0
397,2011001161316,新規,0,2024-04-19,2024-04-19,Ａｎｄ　Ｉｄｅａ株式会社,,株式会社,東京都,渋谷区,渋谷２丁目８－４東和青山ビル６０１,,13,113,1500002,,,,,,,2024-04-19,1,,,,,アンドアイデア,0
398,2011001161398,新規,0,2024-04-19,2024-04-19,株式会社スターストリーム・スタジオ,,株式会社,東京都,渋谷区,渋谷２丁目１９－１５宮益坂ビルディング６０９,,13,113,1500002,,,,,,,2024-04-19,1,,,,,スターストリームスタジオ,0
399,2011001161415,新規,0,2024-04-19,2024-04-19,株式会社ＨｏｇＷｏｒｋｓ,,株式会社,東京都,渋谷区,渋谷２丁目１９－１５宮益坂ビルディング６０９,,13,113,1500002,,,,,,,2024-04-19,1,,,,,ホグワークス,0
400,2011001161456,新規,0,2024-04-19,2024-04-19,浅岡トレード株式会社,,株式会社,東京都,目黒区,目黒３丁目１２－８,,13,110,1530063,,,,,,,2024-04-19,1,,,,,アサオカトレード,0
401,2011001161480,新規,0,2024-04-19,2024-04-19,株式会社ＲＩＸ,,株式会社,東京都,渋谷区,恵比寿南１丁目１９番１１号,,13,113,1500022,,,,,,,2024-04-19,1,,,,,リックス,0
402,2011001161489,新規,0,2024-04-19,2024-04-19,株式会社えどむらさき,,株式会社,東京都,渋谷区,神宮前６丁目２３番４号,,13,113,1500001,,,,,,,2024-04-19,1,,,,,エドムラサキ,0
403,2011001161530,新規,0,2024-04-19,2024-04-19,株式会社ＥＣＬＡＢＥＡＵ,,株式会社,東京都,渋谷区,千駄ヶ谷４丁目２７‐１３シャトレー代々木７０８,,13,113,1510051,,,,,,,2024-04-19,1,,,,,エクラボー,0
404,2011003018902,新規,0,2024-04-19,2024-04-19,ＰＩＶＯＴＥ合同会社,,合同会社,東京都,渋谷区,恵比寿西２丁目８番４号ＥＸ恵比寿西ビル５階,,13,113,1500021,,,,,,,2024-04-19,1,,,,,ピボーテ,0
406,2011101107061,新規,0,2024-04-19,2024-04-19,株式会社ｉＴＯ,,株式会社,東京都,新宿区,西新宿３丁目３番１３号西新宿水間ビル２階,,13,104,1600023,,,,,,,2024-04-19,1,,,,,イト,0
407,2011103014347,新規,0,2024-04-19,2024-04-19,ティーダ・パワー１１３合同会社,,合同会社,東京都,新宿区,西新宿２丁目１番１号新宿三井ビル４３階,,13,104,1600023,,,,,,,2024-04-19,1,,,,,ティーダパワーイチイチサン,0
409,2011205002596,新規,0,2024-04-19,2024-04-19,ＮＰＯ法人メドフィカ,,その他の設立登記法人,東京都,中野区,東中野２丁目１６番８号,,13,114,1640003,,,,,,,2024-04-19,1,,,,,メドフィカ,0
414,2011501030581,新規,0,2024-04-19,2024-04-19,ＫＦトレード株式会社,,株式会社,東京都,北区,浮間３丁目５番１５－１３１１号,,13,117,1150051,,,,,,,2024-04-19,1,,,,,ケーエフトレード,0
415,2011503006035,新規,0,2024-04-19,2024-04-19,合同会社ｖｉｖｉ,,合同会社,東京都,北区,滝野川５丁目４１－５ＭＩＲＡＣＬＥＩＩＩ３０１,00134476,13,117,1140023,,,,,,,2024-04-19,1,,,,,ビビ,0
421,2011801044083,新規,0,2024-04-19,2024-04-19,株式会社ＥＶＯＲＩＡ,,株式会社,東京都,葛飾区,新小岩１丁目５６－７,,13,122,1240024,,,,,,,2024-04-19,1,,,,,エボリア,0
432,2012405004977,新規,0,2024-04-19,2024-04-19,一般社団法人未来チャレンジプロジェクト,,その他の設立登記法人,東京都,府中市,宮町２丁目２番地の８,,13,206,1830023,,,,,,,2024-04-19,1,,,,,ミライチャレンジプロジェクト,0
433,2012801023119,新規,0,2024-04-19,2024-04-19,株式会社ＡＴ　Ｉｎｔｅｒｎａｔｉｏｎａｌ,,株式会社,東京都,日野市,日野台１丁目８番地の３ニチエーイン第２日野３０１,,13,212,1910003,,,,,,,2024-04-19,1,,,,,エーティーインターナショナル,0
438,2013301052384,新規,0,2024-04-19,2024-04-19,ＨＴＢＤ株式会社,,株式会社,東京都,豊島区,巣鴨５丁目５番１号,,13,116,1700002,,,,,,,2024-04-19,1,,,,,エイチティービーディー,0
448,2020003025965,新規,0,2024-04-19,2024-04-19,合同会社スラング,,合同会社,神奈川県,横浜市中区,扇町３丁目８－６日之出扇町ビル４－Ａ,,14,104,2310027,,,,,,,2024-04-19,1,,,,,スラング,0
449,2020003025973,新規,0,2024-04-19,2024-04-19,ちゅうたつ合同会社,,合同会社,神奈川県,横浜市保土ケ谷区,上星川１丁目１８番２０号,,14,106,2400042,,,,,,,2024-04-19,1,,,,,チュウタツ,0
453,2021001081983,新規,0,2024-04-19,2024-04-19,株式会社ｈｅａｌｉｎｇＯＦＦ,,株式会社,神奈川県,相模原市南区,文京１丁目５番１９ー５１３号,,14,153,2520307,,,,,,,2024-04-19,1,,,,,ヒーリングオフ,0
454,2021001082008,新規,0,2024-04-19,2024-04-19,株式会社ＧＥＲ,,株式会社,神奈川県,鎌倉市,梶原３丁目１１－５－１Ｆ,,14,204,2470063,,,,,,,2024-04-19,1,,,,,ジーイーアール,0
460,2021003014421,新規,0,2024-04-19,2024-04-19,合同会社ｆｌａｔ　ｃｏｌｏｒ,,合同会社,神奈川県,小田原市,栄町１丁目１４―２８ＮＴＴ小田原ビル１Ｆ,,14,206,2500011,,,,,,,2024-04-19,1,,,,,フラットカラー,0
461,2021005013090,新規,0,2024-04-19,2024-04-19,一般社団法人つばさ,,その他の設立登記法人,神奈川県,横須賀市,三春町３丁目２２番地,,14,201,2380014,,,,,,,2024-04-19,1,,,,,ツバサ,0
474,2030003024116,新規,0,2024-04-19,2024-04-19,合同会社ＧＯＯＤＳＵＮ,,合同会社,埼玉県,北足立郡伊奈町,西小針１丁目５番地,,11,301,3620811,,,,,,,2024-04-19,1,,,,,グッドサン,0
481,2040001133256,新規,0,2024-04-19,2024-04-19,株式会社日本菓選,,株式会社,千葉県,市川市,湊１番９号,,12,203,2720131,,,,,,,2024-04-19,1,,,,,ニホンカセン,0
495,2070003005376,新規,0,2024-04-19,2024-04-19,合同会社瑠璃,,合同会社,群馬県,渋川市,赤城町溝呂木５２４番地１,,10,208,3791115,,,,,,,2024-04-19,1,,,,,ルリ,0
498,2080003003180,新規,0,2024-04-19,2024-04-19,合同会社ＫＹＲ,,合同会社,静岡県,静岡市清水区,梅ヶ谷２７９番地の１５,,22,103,4240001,,,,,,,2024-04-19,1,,,,,ケイワイアール,0
505,2080401027137,新規,0,2024-04-19,2024-04-19,ＢｕｙＢｅ株式会社,,株式会社,静岡県,浜松市中央区,佐藤１丁目３番１７－５０２号,,22,138,4300807,,,,,,,2024-04-19,1,,,,,バイビー,0
509,2090003002553,新規,0,2024-04-19,2024-04-19,合同会社ＳＴ．ｎｅｘｔ,,合同会社,山梨県,中巨摩郡昭和町,清水新居３８７番地アーク甲府昭和６０６号,,19,384,4093867,,,,,,,2024-04-19,1,,,,,エスティーネクスト,0
514,2110001038349,新規,0,2024-04-19,2024-04-19,株式会社Ｒ＆Ｓ,,株式会社,新潟県,柏崎市,大字鯨波１３２６番地２,,15,205,9450855,,,,,,,2024-04-19,1,,,,,アールアンドエス,0
517,2110003005371,新規,0,2024-04-19,2024-04-19,リバーコネクト合同会社,,合同会社,新潟県,五泉市,宮野下５９９４番地１,,15,218,9591764,,,,,,,2024-04-19,1,,,,,リバーコネクト,0
532,2120001264027,新規,0,2024-04-19,2024-04-19,丘山株式会社,,株式会社,大阪府,大阪市中央区,島之内１丁目３番３４－４０１号,,27,128,5420082,,,,,,,2024-04-19,1,,,,,オカヤマ,0
533,2120001264051,新規,0,2024-04-19,2024-04-19,株式会社石鹸百科,,株式会社,大阪府,大阪市西区,京町堀１丁目７番５－７０４号,,27,106,5500003,,,,,,,2024-04-19,1,,,,,セッケンヒャッカ,0
534,2120001264134,新規,0,2024-04-19,2024-04-19,株式会社ナカイハウジング,,株式会社,大阪府,大阪市福島区,玉川２丁目１番７号,,27,103,5530004,,,,,,,2024-04-19,1,,,,,ナカイハウジング,0
535,2120001264150,新規,0,2024-04-19,2024-04-19,株式会社Ｂｒｉｄｇｅ　Ｗｏｒｋ,,株式会社,大阪府,大阪市東成区,深江南２丁目１４－２４,,27,115,5370002,,,,,,,2024-04-19,1,,,,,ブリッジワーク,0
536,2120001264159,新規,0,2024-04-19,2024-04-19,エムプレイス株式会社,,株式会社,大阪府,大阪市北区,豊崎３丁目２０番１０号,,27,127,5310072,,,,,,,2024-04-19,1,,,,,エムプレイス,0
537,2120001264167,新規,0,2024-04-19,2024-04-19,株式会社ＷＡＮＳＵＬ,,株式会社,大阪府,大阪市北区,大淀中２丁目３番１５－４０１号,,27,127,5310076,,,,,,,2024-04-19,1,,,,,ワンスル,0
538,2120001264183,新規,0,2024-04-19,2024-04-19,ヴォアラテック株式会社,,株式会社,大阪府,大阪市住之江区,粉浜西３丁目７番１８号,,27,125,5590007,,,,,,,2024-04-19,1,,,,,ヴォアラテック,0
539,2120001264373,新規,0,2024-04-19,2024-04-19,株式会社マキモノ,,株式会社,大阪府,大阪市北区,梅田１丁目１－３大阪駅前第３ビル２９階１－１－１号室,,27,127,5300001,,,,,,,2024-04-19,1,,,,,マキモノ,0
549,2120003026383,新規,0,2024-04-19,2024-04-19,Ｈ．Ｂ　Ｌｅｉｓｕｒｅ　Ｊａｐａｎ合同会社,,合同会社,大阪府,大阪市北区,角田町８番４７号阪急グランドビル２０階,,27,127,5300017,,,,,,,2024-04-19,1,,,,,エイチビーレジャージャパン,0
550,2120003026400,新規,0,2024-04-19,2024-04-19,合同会社ａｃｔｉｏｎ　Ｋ,,合同会社,大阪府,大阪市中央区,南船場３丁目２番２２号おおきに南船場ビル２０５,,27,128,5420081,,,,,,,2024-04-19,1,,,,,アクションケイ,0
556,2120101069441,新規,0,2024-04-19,2024-04-19,株式会社ＡＲＫ　Ｇｒｅｅｎ,,株式会社,大阪府,河内長野市,南花台３丁目６番１０号,,27,216,5860077,,,,,,,2024-04-19,1,,,,,アークグリーン,0
559,2120103005790,新規,0,2024-04-19,2024-04-19,合同会社Ｆｒｅｅｄ,,合同会社,大阪府,富田林市,若松町５丁目１２番５７号,,27,214,5840024,,,,,,,2024-04-19,1,,,,,フリード,0
561,2120901049056,新規,0,2024-04-19,2024-04-19,株式会社ＬｉｅＮ　Ｅｓｔａｔｅ,,株式会社,大阪府,吹田市,元町７番地１２,,27,205,5640031,,,,,,,2024-04-19,1,,,,,リアンエステート,0
566,2130001076859,新規,0,2024-04-19,2024-04-19,孫大勇建築事務所株式会社,,株式会社,京都府,京都市下京区,西新屋敷下之町２８－４,,26,106,6000000,,,,,,,2024-04-19,1,,,,,ソンダイユウケンチクジムショ,0
575,2140001134062,新規,0,2024-04-19,2024-04-19,拓殖電気株式会社,,株式会社,兵庫県,尼崎市,南武庫之荘８丁目７番１２号,,28,202,6610033,,,,,,,2024-04-19,1,,,,,タクショクデンキ,0
580,2140003020450,新規,0,2024-04-19,2024-04-19,合同会社ＴＲＡＮＳＰＯＲＴ　Ｖ＆ＪＰ,,合同会社,兵庫県,神戸市兵庫区,佐比江町５２番地２クラン佐比江４０１号,,28,105,6520821,,,,,,,2024-04-19,1,,,,,トランスポートアンブイドジェーピー,0
581,2140003020459,新規,0,2024-04-19,2024-04-19,合同会社姫路広告,,合同会社,兵庫県,姫路市,安田４丁目１５１メゾンセルベイル２０２号,,28,201,6700955,,,,,,,2024-04-19,1,,,,,ヒメジコウコク,0
590,2180001160996,新規,0,2024-04-19,2024-04-19,株式会社Ｍｒ．Ｃｈａｉｒｓ,,株式会社,愛知県,名古屋市中区,丸の内３丁目１５番２１号Ｃｅｒｅｓ丸の内５０１,,23,106,4600002,,,,,,,2024-04-19,1,,,,,ミスターチェアーズ,0
591,2180001161012,新規,0,2024-04-19,2024-04-19,株式会社ＳＳＷ,,株式会社,愛知県,名古屋市中区,丸の内２丁目１７番１３号ＮＫ丸の内ビル,,23,106,4600002,,,,,,,2024-04-19,1,,,,,エスエスダブリュー,0
592,2180001161094,新規,0,2024-04-19,2024-04-19,株式会社オフィス伊東,,株式会社,愛知県,春日井市,東野町４丁目１５番地１５ディアコート・アンＩＩ２０１号,00134480,23,206,4860817,,,,,,,2024-04-19,1,,,,,オフィスイトウ,0
594,2180003026667,新規,0,2024-04-19,2024-04-19,Ｃｏｆｉｃａｂ　Ｊａｐａｎ合同会社,,合同会社,愛知県,名古屋市中村区,名駅４丁目４番３８号愛知県産業労働センター１８階,,23,105,4500002,,,,,,,2024-04-19,1,,,,,コフィカブジャパン,0
606,2200001042416,新規,0,2024-04-19,2024-04-19,ＭＲ岐阜株式会社,,株式会社,岐阜県,本巣市,軽海７２８番地,,21,218,5010465,,,,,,,2024-04-19,1,,,,,エムアールギフ,0
607,2200005013611,新規,0,2024-04-19,2024-04-19,一般社団法人本町編集室,,その他の設立登記法人,岐阜県,関市,本町６丁目２４番地,,21,205,5013886,,,,,,,2024-04-19,1,,,,,ホンマチヘンシュウシツ,0
612,2230003002191,新規,0,2024-04-19,2024-04-19,合同会社Ｋ．Ｋアート,,合同会社,富山県,下新川郡入善町,入膳５４５２番地,,16,342,9390626,,,,,,,2024-04-19,1,,,,,ケイケイアート,0
619,2260003004656,新規,0,2024-04-19,2024-04-19,六輪合同会社,,合同会社,岡山県,岡山市北区,宿１３２６番地４８,,33,101,7000001,,,,,,,2024-04-19,1,,,,,ロクリン,0
630,2290003015080,新規,0,2024-04-19,2024-04-19,合同会社Ｇａｔｅ　Ｗａｙ,,合同会社,福岡県,福岡市西区,周船寺３丁目１６－１－８０１,,40,135,8190373,,,,,,,2024-04-19,1,,,,,ゲートウェイ,0
633,2300001013704,新規,0,2024-04-19,2024-04-19,株式会社テサックＭ＆Ｅ,,株式会社,佐賀県,鳥栖市,宿町１４３０－２,,41,203,8410052,,,,,,,2024-04-19,1,,,,,テサックエムアンドイー,0
635,2300003002110,新規,0,2024-04-19,2024-04-19,合同会社ＦＥ‐ＡＤＶＡＮＣＥ,,合同会社,佐賀県,鳥栖市,神辺町８６２－４,,41,203,8410004,,,,,,,2024-04-19,1,,,,,エフイーアドバンス,0
648,2360001033531,新規,0,2024-04-19,2024-04-19,ＯＰＡＤ株式会社,,株式会社,沖縄県,那覇市,壺川１丁目１２番地８,,47,201,9000025,,,,,,,2024-04-19,1,,,,,オパッド,0
653,2370003006575,新規,0,2024-04-19,2024-04-19,合同会社マチビト,,合同会社,宮城県,亘理郡山元町,浅生原字館新田２２－２ミッドレジデンス山下１Ａ２０１号室,,04,362,9892203,,,,,,,2024-04-19,1,,,,,マチビト,0
661,2420005007896,新規,0,2024-04-19,2024-04-19,ジェネラスマンション長島管理組合法人,,その他の設立登記法人,青森県,青森市,長島４丁目２３番４号,,02,201,0300861,,,,,,,2024-04-19,1,,,,,ジェネラスマンションナガシマ,0
667,2430003016238,新規,0,2024-04-19,2024-04-19,合同会社おむすび,,合同会社,北海道,札幌市豊平区,豊平二条２丁目２番８－８０３号,,01,105,0620902,,,,,,,2024-04-19,1,,,,,オムスビ,0
668,2450003002467,新規,0,2024-04-19,2024-04-19,Ｆ　ＰＬＡＮＮＩＮＧ　ＬＡＢ合同会社,,合同会社,北海道,富良野市,西麻町４番１０号,,01,229,0760055,,,,,,,2024-04-19,1,,,,,エフプランニングラボ,0
672,2470001020155,新規,0,2024-04-19,2024-04-19,株式会社ラッキーストライク,,株式会社,香川県,高松市,城東町２丁目８番１６号,,37,201,7600036,,,,,,,2024-04-19,1,,,,,ラッキーストライク,0
676,2480003002118,新規,0,2024-04-19,2024-04-19,Ｅｖｅｒｇｒｏｕｎｄ合同会社,,合同会社,徳島県,阿波市,阿波町西ノ岡１２５,,36,206,7711702,,,,,,,2024-04-19,1,,,,,エヴァーグラウンド,0
679,2700150124963,新規,0,2024-04-19,2024-04-19,Ａｎｈｕｉ　ＨｏｎｇＪｉｅ　ＲｅｎＴｉＧｏｎｇＸｕｅ　Ｋｅ　Ｊｉ　Ｙｏｕ　Ｘｉａｎ　Ｇｏｎｇ　Ｓｉ,,外国会社等,,,,,,,,Ｇｕａｎｇ　ｄｅ　ｚｈｅｎ，Ｊｉｎｇ　ｊｉ　ｋａｉ　ｆａ　ｑｕ，Ｇｕａｎｇ　ｐｉｎｇ　ｌｕ　１０　ｈａｏ,,,,,,2024-04-19,1,,,,,アンホゥイホンジエレンティゴンスエカギユウゲンコウシ,0
680,2700150124971,新規,0,2024-04-19,2024-04-19,Ｓｈｅｎｚｈｅｎｓｈｉ　Ｓｉｂｏｙａｎ　Ｍａｏｙｉ　Ｙｏｕｘｉａｎｇｏｎｇｓｉ,,外国会社等,,,,,,,,Ｓｈｅｎｚｈｅｎｓｈｉ　Ｌｕｏｈｕｑｕ　Ｄｏｎｇｍｅｎｊｉｅｄａｏ　Ｈｕａｃｈａｎｇｓｈｅｑｕ　Ｒｅｎｍｉｎｂｅｉｌｕ３１１０ｈａｏ１１ｄｏｎｇ１０２,,,,,,2024-04-19,1,,,,,シンセンシシボヤンマオイユウゲンコウシ,0
695,3010001244105,新規,0,2024-04-19,2024-04-19,フルケア株式会社,,株式会社,東京都,千代田区,神田和泉町１番地６－１６ヤマトビル４０５,,13,101,1010024,,,,,,,2024-04-19,1,,,,,フルケア,0
696,3010001244146,新規,0,2024-04-19,2024-04-19,千代田薬品株式会社,,株式会社,東京都,千代田区,神田紺屋町３８番地,,13,101,1010035,,,,,,,2024-04-19,1,,,,,チヨダヤクヒン,0
698,3010003043521,新規,0,2024-04-19,2024-04-19,ＨＡＮＡ合同会社,,合同会社,東京都,中央区,東日本橋１丁目２番１０号,,13,102,1030004,,,,,,,2024-04-19,1,,,,,ハナ,0
711,3010401181641,新規,0,2024-04-19,2024-04-19,株式会社トライデントリサーチ,,株式会社,東京都,港区,赤坂２丁目５番８号ヒューリックＪＰ赤坂ビル３Ｆ,,13,103,1070052,,,,,,,2024-04-19,1,,,,,トライデントリサーチ,0
715,3010403032446,新規,0,2024-04-19,2024-04-19,Ｒａｕｌ　Ｆｕｓｕｋｉ合同会社,,合同会社,東京都,港区,元麻布３丁目１番６号,,13,103,1060046,,,,,,,2024-04-19,1,,,,,ラウルフスキ,0
720,3010501052156,新規,0,2024-04-19,2024-04-19,株式会社２４,,株式会社,東京都,台東区,池之端１丁目４番３３－２１０８号,,13,106,1100008,,,,,,,2024-04-19,1,,,,,ニジュウヨン,0
730,3010903008986,新規,0,2024-04-19,2024-04-19,合同会社ＳＨＩＢＨＡ,,合同会社,東京都,世田谷区,松原６丁目３６－１３,,13,112,1560043,,,,,,,2024-04-19,1,,,,,,0
736,3011001161463,新規,0,2024-04-19,2024-04-19,株式会社セールス・フォージ,,株式会社,東京都,渋谷区,渋谷２丁目１９番１５号宮益坂ビルディング６０９,,13,113,1500002,,,,,,,2024-04-19,1,,,,,セールスフォージ,0
738,3011003018959,新規,0,2024-04-19,2024-04-19,合同会社Ｈａｔｃｈｙ,,合同会社,東京都,渋谷区,神宮前５丁目２２－６,,13,113,1500001,,,,,,,2024-04-19,1,,,,,ハッチー,0
742,3011101107036,新規,0,2024-04-19,2024-04-19,ＧＬＩＴＣＨ株式会社,,株式会社,東京都,新宿区,新宿５丁目１６番１１号,,13,104,1600022,,,,,,,2024-04-19,1,,,,,グリッチ,0
743,3011101107052,新規,0,2024-04-19,2024-04-19,株式会社ｉＴ,,株式会社,東京都,新宿区,西新宿３丁目３番１３号西新宿水間ビル２Ｆ,,13,104,1600023,,,,,,,2024-04-19,1,,,,,アイティー,0
744,3011101107069,新規,0,2024-04-19,2024-04-19,クラウド＆カルキュレーション株式会社,,株式会社,東京都,新宿区,西新宿６丁目１５－１セントラルパークタワー・ラ・トゥール新宿４１０号室,,13,104,1600023,,,,,,,2024-04-19,1,,,,,クラウドアンドカルキュレーション,0
746,3011103014346,新規,0,2024-04-19,2024-04-19,ティーダ・パワー１１２合同会社,,合同会社,東京都,新宿区,西新宿２丁目１番１号新宿三井ビル４３階,,13,104,1600023,,,,,,,2024-04-19,1,,,,,ティーダパワーイチイチニ,0
747,3011301029583,新規,0,2024-04-19,2024-04-19,Ｐｌｅａｔｕｒｅ株式会社,,株式会社,東京都,杉並区,堀ノ内２丁目２４―１０,,13,115,1660013,,,,,,,2024-04-19,1,,,,,プリーチャー,0
751,3011501030449,新規,0,2024-04-19,2024-04-19,株式会社百瑞,,株式会社,東京都,北区,滝野川１丁目１－１－４０２室,,13,117,1140023,,,,,,,2024-04-19,1,,,,,バイルイ,0
752,3011501030572,新規,0,2024-04-19,2024-04-19,義利株式会社,,株式会社,東京都,北区,堀船３丁目２４－４－１０１,,13,117,1140004,,,,,,,2024-04-19,1,,,,,ヨシリ,0
754,3011601027700,新規,0,2024-04-19,2024-04-19,株式会社ＡＫパートナーズ,,株式会社,東京都,練馬区,旭丘２丁目２０番７号,,13,120,1760005,,,,,,,2024-04-19,1,,,,,エーケーパートナーズ,0
762,3012401041775,新規,0,2024-04-19,2024-04-19,株式会社原商事,,株式会社,東京都,稲城市,大丸１２４番地２,,13,225,2060801,,,,,,,2024-04-19,1,,,,,ハラショウジ,0
763,3012401041783,新規,0,2024-04-19,2024-04-19,株式会社Ｄｅｅ　Ｗｈｙ,,株式会社,東京都,府中市,新町１丁目６７－２５,,13,206,1830052,,,,,,,2024-04-19,1,,,,,ディーワイ,0
767,3012801023126,新規,0,2024-04-19,2024-04-19,メディアリバー株式会社,,株式会社,東京都,国立市,谷保７１１７番地の１,,13,215,1860011,,,,,,,2024-04-19,1,,,,,メディアリバー,0
776,3013301052383,新規,0,2024-04-19,2024-04-19,株式会社ＬＥＯ　ＧＲＡＮＤＥ,,株式会社,東京都,豊島区,東池袋２丁目５５番１２号,,13,116,1700013,,,,,,,2024-04-19,1,,,,,レオグランデ,0
782,3020001156935,新規,0,2024-04-19,2024-04-19,株式会社くれえん,,株式会社,神奈川県,川崎市川崎区,駅前本町１１番地２川崎フロンティアビル４階,,14,131,2100007,,,,,,,2024-04-19,1,,,,,クレエン,0
783,3020003025956,新規,0,2024-04-19,2024-04-19,ＭＩＺＵＧＡＭＥ企画合同会社,,合同会社,神奈川県,横浜市西区,浅間町１丁目４番３号ウィザードビル４０２,,14,103,2200072,,,,,,,2024-04-19,1,,,,,ミズガメキカク,0
784,3020005016383,新規,0,2024-04-19,2024-04-19,一般社団法人東京六大学陸上競技倶楽部,,その他の設立登記法人,神奈川県,横浜市港北区,日吉４丁目１番９号慶應義塾體育會競走部合宿所,,14,109,2230061,,,,,,,2024-04-19,1,,,,,トウキョウロクダイガクリクジョウキョウギクラブ,0
790,3021001081982,新規,0,2024-04-19,2024-04-19,株式会社クボテックキャリア,,株式会社,神奈川県,厚木市,中町４丁目１０番２号ハラダ中町ビル５階,,14,212,2430018,,,,,,,2024-04-19,1,,,,,クボテックキャリア,0
791,3021001082031,新規,0,2024-04-19,2024-04-19,株式会社凛,,株式会社,神奈川県,茅ヶ崎市,共恵１丁目１番５号ＢＬＤＮＡＧＡＳＨＩＭＡ１０１,,14,207,2530056,,,,,,,2024-04-19,1,,,,,リン,0
802,3030003024107,新規,0,2024-04-19,2024-04-19,Ｐｉｅｒ　Ｃｌｕｂ合同会社,,合同会社,埼玉県,和光市,南１丁目３番９２－２０２号,,11,229,3510104,,,,,,,2024-04-19,1,,,,,ピアクラブ,0
803,3040001133222,新規,0,2024-04-19,2024-04-19,株式会社甲工業,,株式会社,千葉県,君津市,郡１丁目１５番３２号,,12,225,2991127,,,,,,,2024-04-19,1,,,,,キノエコウギョウ,0
804,3040001133255,新規,0,2024-04-19,2024-04-19,株式会社寒菊銘醸,,株式会社,千葉県,山武市,松尾町武野里１１番地,,12,237,2891532,,,,,,,2024-04-19,1,,,,,カンキクメイジョウ,0
808,3040003024824,新規,0,2024-04-19,2024-04-19,合同会社ＴＫホーム,,合同会社,千葉県,香取郡多古町,十余三３７１番地３４,,12,347,2892306,,,,,,,2024-04-19,1,,,,,ティーケーホーム,0
816,3050003008297,新規,0,2024-04-19,2024-04-19,合同会社ＴＡＩＳＥＩ,,合同会社,茨城県,鹿嶋市,大字志崎１２７番地１３,,08,222,3112207,,,,,,,2024-04-19,1,,,,,タイセイ,0
823,3080001026257,新規,0,2024-04-19,2024-04-19,株式会社ステラ,,株式会社,静岡県,焼津市,相川８２５番地,,22,212,4210216,,,,,,,2024-04-19,1,,,,,ステラ,0
827,3080401027136,新規,0,2024-04-19,2024-04-19,株式会社エフハマビジネス,,株式会社,静岡県,浜松市中央区,西塚町３２１番地の６,,22,138,4350044,,,,,,,2024-04-19,1,,,,,エフハマビジネス,0
839,3110001038348,新規,0,2024-04-19,2024-04-19,株式会社佐渡美食倶楽部,,株式会社,新潟県,佐渡市,両津夷９８番地６０,,15,224,9520011,,,,,,,2024-04-19,1,,,,,サドビショククラブ,0
859,3120001264158,新規,0,2024-04-19,2024-04-19,バリューエステート株式会社,,株式会社,大阪府,大阪市阿倍野区,阿倍野筋４丁目９番１４号,,27,119,5450052,,,,,,,2024-04-19,1,,,,,バリューエステート,0
860,3120001264182,新規,0,2024-04-19,2024-04-19,株式会社ＳＯＮＡ,,株式会社,大阪府,大阪市福島区,鷺洲２丁目５番３０－１２０７号,,27,103,5530002,,,,,,,2024-04-19,1,,,,,ソナ,0
862,3120003026366,新規,0,2024-04-19,2024-04-19,合同会社ＯＦＦＩＣＥ　ＫＯＭＯＲＩ,,合同会社,大阪府,大阪市浪速区,恵美須東２丁目１番２２号,,27,111,5560002,,,,,,,2024-04-19,1,,,,,オフィスコモリ,0
863,3120003026390,新規,0,2024-04-19,2024-04-19,宇茜合同会社,,合同会社,大阪府,大阪市住之江区,御崎１丁目１１番１９－１０２号,,27,125,5590013,,,,,,,2024-04-19,1,,,,,ウセン,0
864,3120003026399,新規,0,2024-04-19,2024-04-19,合同会社ａｍｔｃ,,合同会社,大阪府,大阪市北区,梅田１丁目２番２号大阪駅前第２ビル２階５－６号室,,27,127,5300001,,,,,,,2024-04-19,1,,,,,エーエムティーシー,0
872,3120103005781,新規,0,2024-04-19,2024-04-19,合同会社なごみ,,合同会社,大阪府,泉南市,新家４５１０番地の７（コスモヒルズ弐番館４１３号）,,27,228,5900503,,,,,,,2024-04-19,1,,,,,ナゴミ,0
876,3120901049047,新規,0,2024-04-19,2024-04-19,ケイアイ株式会社,,株式会社,大阪府,高槻市,淀の原町５４番２号,,27,207,5690001,,,,,,,2024-04-19,1,,,,,ケイアイ,0
877,3120901049055,新規,0,2024-04-19,2024-04-19,株式会社Ｔａｎｔｉｍｏ　　Ｗｏｒｋｓ,,株式会社,大阪府,池田市,神田２丁目１９番２２－４０２号,,27,204,5630043,,,,,,,2024-04-19,1,,,,,タンチモワークス,0
878,3120903005139,新規,0,2024-04-19,2024-04-19,合同会社Ｃｕｒｅ　Ｔｒｅｅ,,合同会社,大阪府,高槻市,栄町２丁目２９番１０号,,27,207,5690825,,,,,,,2024-04-19,1,,,,,キュアツリー,0
887,3130001076817,新規,0,2024-04-19,2024-04-19,住佳株式会社,,株式会社,京都府,京都市中京区,壬生森前町１４－３－１０２,,26,104,6048831,,,,,,,2024-04-19,1,,,,,スミヨシ,0
888,3130003009469,新規,0,2024-04-19,2024-04-19,合同会社ＡＮＴＨＥＭ,,合同会社,京都府,京都市南区,吉祥院九条町１６パインフィールド吉祥院１０２,,26,107,6018328,,,,,,,2024-04-19,1,,,,,アンセム,0
896,3140001134128,新規,0,2024-04-19,2024-04-19,株式会社ライズグループ,,株式会社,兵庫県,三田市,南が丘１丁目５１番１号－１Ａ,,28,219,6691535,,,,,,,2024-04-19,1,,,,,ライズグループ,0
897,3140001134136,新規,0,2024-04-19,2024-04-19,マルシャイン株式会社,,株式会社,兵庫県,川西市,加茂１丁目１１番２１－２０６,,28,217,6660025,,,,,,,2024-04-19,1,,,,,マルシャイン,0
900,3140003020474,新規,0,2024-04-19,2024-04-19,松本不動産合同会社,,合同会社,兵庫県,西宮市,羽衣町７－３０夙川グリーンマンション３Ｆ,,28,204,6620051,,,,,,,2024-04-19,1,,,,,マツモトフドウサン,0
904,3150001027223,新規,0,2024-04-19,2024-04-19,株式会社ＯＫ　ＪＡＰＡＮ,,株式会社,奈良県,生駒市,光陽台４３番地,,29,209,6300247,,,,,,,2024-04-19,1,,,,,オーケージャパン,0
905,3160001025861,新規,0,2024-04-19,2024-04-19,株式会社幸村,,株式会社,滋賀県,湖南市,岩根１６６８番地１,,25,211,5203252,,,,,,,2024-04-19,1,,,,,ユキムラ,0
914,3180001161028,新規,0,2024-04-19,2024-04-19,株式会社イータリー,,株式会社,愛知県,名古屋市東区,東桜１丁目４番１３号,,23,102,4610005,,,,,,,2024-04-19,1,,,,,イータリー,0
915,3180001161085,新規,0,2024-04-19,2024-04-19,スカイッシュ株式会社,,株式会社,愛知県,名古屋市守山区,大森３丁目１６０１番地,,23,113,4630021,,,,,,,2024-04-19,1,,,,,スカイッシュ,0
916,3180001161093,新規,0,2024-04-19,2024-04-19,株式会社吉田工業,,株式会社,愛知県,名古屋市緑区,野末町３０３番地,,23,114,4580915,,,,,,,2024-04-19,1,,,,,ヨシダコウギョウ,0
917,3180001161102,新規,0,2024-04-19,2024-04-19,株式会社Ｇｏ　ｆｏｒ　ｉｔ,,株式会社,愛知県,名古屋市北区,金城３丁目１２番９号,,23,103,4620847,,,,,,,2024-04-19,1,,,,,ゴーフォーイット,0
930,3200005013610,新規,0,2024-04-19,2024-04-19,一般社団法人ぎふ脱炭素社会推進コンソーシアム,,その他の設立登記法人,岐阜県,岐阜市,水主町２丁目５３番地,,21,201,5008259,,,,,,,2024-04-19,1,,,,,ギフダツタンソシャカイスイシンコンソーシアム,0
935,3230001020293,新規,0,2024-04-19,2024-04-19,株式会社石橋ホールディングス,,株式会社,富山県,富山市,草島古川６番地,,16,201,9302201,,,,,,,2024-04-19,1,,,,,イシバシホールディングス,0
936,3230001020310,新規,0,2024-04-19,2024-04-19,株式会社ＡＣとやま,,株式会社,富山県,富山市,茶屋町６７６,,16,201,9300115,,,,,,,2024-04-19,1,,,,,エーシートヤマ,0
940,3240001063110,新規,0,2024-04-19,2024-04-19,株式会社Ａｏ．ＭＥＤ,,株式会社,広島県,広島市安芸区,畑賀１丁目６番３６－６号,,34,107,7360088,,,,,,,2024-04-19,1,,,,,エーオーメッド,0
944,3260001038985,新規,0,2024-04-19,2024-04-19,株式会社田辺乳販,,株式会社,岡山県,岡山市北区,大安寺東町２５－１１－２,,33,101,7000063,,,,,,,2024-04-19,1,,,,,タナベニュウハン,0
959,3290003015187,新規,0,2024-04-19,2024-04-19,エイトデザイン合同会社,,合同会社,福岡県,福岡市東区,社領１丁目７番２－２０５号ロマネスク箱崎タワーホームズウエストタワー,,40,131,8120068,,,,,,,2024-04-19,1,,,,,エイトデザイン,0
960,3290003015195,新規,0,2024-04-19,2024-04-19,合同会社ｂｌｏｓｓｏｍ,,合同会社,福岡県,福岡市中央区,春吉３丁目１４番８－６０１号,,40,133,8100003,,,,,,,2024-04-19,1,,,,,ブロッサム,0
961,3290801030511,新規,0,2024-04-19,2024-04-19,株式会社ＡＳＵ,,株式会社,福岡県,築上郡築上町,大字東築城１０１３番地１,,40,647,8290101,,,,,,,2024-04-19,1,,,,,アス,0
962,3290803004703,新規,0,2024-04-19,2024-04-19,合同会社ＹａｍａｂｕｓｈｉＴｅｃｈＳｅｒｖｉｃｅ,,合同会社,福岡県,田川市,大字伊加利１８２４－２０,,40,206,8250001,,,,,,,2024-04-19,1,,,,,ヤマブシテックサービス,0
965,3310003004781,新規,0,2024-04-19,2024-04-19,合同会社ヴァスティタス,,合同会社,長崎県,長崎市,岩川町７番１０－６０１号,,42,201,8528106,,,,,,,2024-04-19,1,,,,,ヴァスティタス,0
971,3330001031958,新規,0,2024-04-19,2024-04-19,株式会社アイディール,,株式会社,熊本県,熊本市中央区,水前寺１丁目１５－４ダイコー水前寺駅通り３・２Ｂ－２,,43,101,8620950,,,,,,,2024-04-19,1,,,,,アイディール,0
973,3330001031982,新規,0,2024-04-19,2024-04-19,株式会社ＬＩＮＫ,,株式会社,熊本県,熊本市南区,近見１丁目４番１０－１０１号,,43,104,8614101,,,,,,,2024-04-19,1,,,,,リンク,0
982,3360001033539,新規,0,2024-04-19,2024-04-19,大地株式会社,,株式会社,沖縄県,名護市,大北３丁目１９番３号,,47,209,9050019,,,,,,,2024-04-19,1,,,,,ダイチ,0
984,3360003013919,新規,0,2024-04-19,2024-04-19,合同会社ＴＮサポート,,合同会社,沖縄県,那覇市,識名１丁目８番１号玉商ビル２Ｆ,,47,201,9020078,,,,,,,2024-04-19,1,,,,,ティーエヌサポート,0
992,3400005008409,新規,0,2024-04-19,2024-04-19,一般社団法人日本ロープ高所作業協会,,その他の設立登記法人,岩手県,一関市,萩荘字谷起島北方１９４番地１３,,03,209,0210902,,,,,,,2024-04-19,1,,,,,ニッポンロープコウショサギョウキョウカイ,0
996,3430001091612,新規,0,2024-04-19,2024-04-19,システムユーザビリティ株式会社,,株式会社,北海道,札幌市東区,北丘珠四条２丁目５番２０号,,01,103,0070884,,,,,,,2024-04-19,1,,,,,システムユーザビリティ,0
999,3430003016229,新規,0,2024-04-19,2024-04-19,合同会社一文,,合同会社,北海道,札幌市中央区,宮の森二条１６丁目１１番２０－４０４号,,01,101,0640952,,,,,,,2024-04-19,1,,,,,イチブン,0
1000,3430003016237,新規,0,2024-04-19,2024-04-19,ＫＡＺＵコーポレーション合同会社,,合同会社,北海道,室蘭市,小橋内町２丁目１７番地５１,,01,205,0510033,,,,,,,2024-04-19,1,,,,,カズコーポレーション,0
1004,3460303000821,新規,0,2024-04-19,2024-04-19,合同会社賛整,,合同会社,北海道,斜里郡斜里町,青葉町３番地３,,01,545,0994117,,,,,,,2024-04-19,1,,,,,サンセイ,0
1005,3470001020154,新規,0,2024-04-19,2024-04-19,株式会社ケント,,株式会社,香川県,高松市,城東町２丁目７番８号,,37,201,7600036,,,,,,,2024-04-19,1,,,,,ケント,0
1013,3700150124962,新規,0,2024-04-19,2024-04-19,ＦＡＳＴＬＡＮＥ　ＧＬＯＢＡＬ　ＨＯＬＤＩＮＧＳ　ＬＩＭＩＴＥＤ,,外国会社等,,,,,,,,ＲＭ　１５１０Ａ　ＷＩＮＧ　ＴＵＣＫ　ＣＯＭＭ　ＣＴＲ　１７７－１８３　ＷＩＮＧ　ＬＯＫ　ＳＴ　ＨＫ,,,,,,2024-04-19,1,,,,,フアストレイングロウバルホウルディングスリミテッド,0
1014,3700150124970,新規,0,2024-04-19,2024-04-19,ｓｈｅｎｚｈｅｎｓｈｉｎｕｏｘｉｋｅｊｉｙｏｕｘｉａｎｇｏｎｇｓｉ,,外国会社等,,,,,,,,Ｓｈｅｎｚｈｅｎｓｈｉｆｕｔｉａｎｑｕｍｅｉｌｉｎｇｊｉｅｄａｏｍａｌｉｎｇｓｈｅｑｕｋａｉｆｅｎｇｌｕ２８ｈａｏｆｕｇｕｏｇｏｎｇｙｅｑｕｃｈａｎｇｆａｎｇ２ｄｏｎｇ２ｃｅｎｇｚｈｅｎｇｃｅｎｇ,,,,,,2024-04-19,1,,,,,シンセンシノウシカギユウゲンコウシ,0
1015,3700150124979,新規,0,2024-04-19,2024-04-19,ＧｕａｎｇＺｈｏｕＳｈｉＸｉｎｇＬｖＤｉａｎＺｉＳｈａｎｇＷｕＹｏｕＸｉａｎＧｏｎｇＳｉ,,外国会社等,,,,,,,,Ｒｏｏｍ　３０６，Ｎｏ．１３　Ｙｏｎｇｔａｉ　Ｊｕｘｉａｎ　Ｓｔｒｅｅｔ，Ｙｏｎｇｐｉｎｇ　Ｓｔｒｅｅｔ，Ｂａｉｙｕｎ　Ｄｉｓｔｒｉｃｔ，Ｇｕａｎｇｚｈｏｕ,,,,,,2024-04-19,1,,,,,コウシュウシシンリョウデンシショウムユウゲンコウシ,0
1025,4010001244104,新規,0,2024-04-19,2024-04-19,ＹＹＲ株式会社,,株式会社,東京都,中央区,銀座１丁目１２番４号Ｎ＆Ｅ・ＢＬＤ．７階,,13,102,1040061,,,,,,,2024-04-19,1,,,,,ワイワイアール,0
1026,4010001244145,新規,0,2024-04-19,2024-04-19,吉明株式会社,,株式会社,東京都,中央区,日本橋蛎殻町１丁目８番２号ヴェラハイツ日本橋蛎殻町５０６室,,13,102,1030014,,,,,,,2024-04-19,1,,,,,ヨシアキ,0
1027,4010001244260,新規,0,2024-04-19,2024-04-19,株式会社ヘルスフリーク,,株式会社,東京都,中央区,日本橋兜町１７－２兜町第６葉山ビル４Ｆ,,13,102,1030026,,,,,,,2024-04-19,1,,,,,ヘルスフリーク,0
1031,4010003043446,新規,0,2024-04-19,2024-04-19,石狩地域エネルギー合同会社,,合同会社,東京都,中央区,八丁堀４丁目２番１０号ＡＯＪ税理士法人内,,13,102,1040032,,,,,,,2024-04-19,1,,,,,イシカリチイキエネルギー,0
1032,4010003043495,新規,0,2024-04-19,2024-04-19,晴嵐合同会社,,合同会社,東京都,中央区,日本橋横山町３番１・４０２号室,,13,102,1030003,,,,,,,2024-04-19,1,,,,,セイラン,0
1033,4010003043520,新規,0,2024-04-19,2024-04-19,ＫＯＭＯＮ合同会社,,合同会社,東京都,中央区,東日本橋１丁目２番１０号,,13,102,1030004,,,,,,,2024-04-19,1,,,,,コモン,0
1037,4010005038221,新規,0,2024-04-19,2024-04-19,一般社団法人小泉,,その他の設立登記法人,東京都,千代田区,富士見２丁目３番１０号,,13,101,1020071,,,,,,,2024-04-19,1,,,,,コイズミ,0
1043,4010401181905,新規,0,2024-04-19,2024-04-19,ｙａｍａＤｏ株式会社,,株式会社,東京都,港区,三田２丁目１８－８,,13,103,1080073,,,,,,,2024-04-19,1,,,,,ヤマドゥ,0
1045,4010403032437,新規,0,2024-04-19,2024-04-19,合同会社Ｍｉｒａｉ,,合同会社,東京都,港区,高輪２丁目５番１６－３０２号,,13,103,1080074,,,,,,,2024-04-19,1,,,,,ミライ,0
1051,4010701045883,新規,0,2024-04-19,2024-04-19,株式会社ｕｃｏｍｏ,,株式会社,東京都,品川区,南大井３丁目１７番７号,,13,109,1400013,,,,,,,2024-04-19,1,,,,,ユーコモ,0
1055,4010901055096,新規,0,2024-04-19,2024-04-19,ＩＭＡＧＥ　ＷＯＲＫＳ　ＫＯＭＡ株式会社,,株式会社,東京都,世田谷区,松原４丁目１１番７号整美楽マンション１０４,,13,112,1560043,,,,,,,2024-04-19,1,,,,,イメージワークスコマ,0
1056,4010901055121,新規,0,2024-04-19,2024-04-19,株式会社Ａｎｄｇｉｖｅ,,株式会社,東京都,世田谷区,太子堂５丁目２番２１号,,13,112,1540004,,,,,,,2024-04-19,1,,,,,アンドギブ,0
1070,4011001161116,新規,0,2024-04-19,2024-04-19,株式会社Ｃｏｎｖａｎｏ　ｃｏｎｓｕｌｔｉｎｇ,,株式会社,東京都,渋谷区,桜丘町２２番１４号Ｎ．Ｅ．ＳビルＳ棟Ｂ３Ｆ,,13,113,1500031,,,,,,,2024-04-19,1,,,,,コンヴァノコンサルティング,0
1071,4011001161405,新規,0,2024-04-19,2024-04-19,株式会社ＤＯＫＡＮ,,株式会社,東京都,渋谷区,広尾１丁目１５－５,,13,113,1500012,,,,,,,2024-04-19,1,,,,,,0
1073,4011003018850,新規,0,2024-04-19,2024-04-19,合同会社シロオビ,,合同会社,東京都,渋谷区,渋谷２丁目１９―１５宮益坂ビルディング６０９,,13,113,1500002,,,,,,,2024-04-19,1,,,,,シロオビ,0
1075,4011101107051,新規,0,2024-04-19,2024-04-19,株式会社ランドリーサクセス,,株式会社,東京都,新宿区,神楽坂３丁目４山本ビル６階,,13,104,1620825,,,,,,,2024-04-19,1,,,,,ランドリーサクセス,0
1077,4011103014329,新規,0,2024-04-19,2024-04-19,Ｓｋｙ合同会社,,合同会社,東京都,新宿区,大京町２６番地１マジェスティハウス新宿御苑パークナード４０６,,13,104,1600015,,,,,,,2024-04-19,1,,,,,エスケーワイ,0
1078,4011103014345,新規,0,2024-04-19,2024-04-19,ＣＳ青森八戸合同会社,,合同会社,東京都,新宿区,西新宿２丁目１番１号新宿三井ビル４３階,,13,104,1600023,,,,,,,2024-04-19,1,,,,,シーエスアオモリハチノヘ,0
1080,4011203004353,新規,0,2024-04-19,2024-04-19,合同会社Ｒｅｍｏｒａ,,合同会社,東京都,中野区,弥生町６丁目５－１４,,13,114,1640013,,,,,,,2024-04-19,1,,,,,レモラ,0
1086,4011501030563,新規,0,2024-04-19,2024-04-19,株式会社ＹＤＫ,,株式会社,東京都,北区,浮間４丁目１７番２３－１０４号ライオンズマンション浮間公園第５,,13,117,1150051,,,,,,,2024-04-19,1,,,,,ワイディーケー,0
1095,4012401041774,新規,0,2024-04-19,2024-04-19,株式会社ストーム,,株式会社,東京都,狛江市,東和泉３丁目７番２８号エスポワール２０２号,,13,219,2010014,,,,,,,2024-04-19,1,,,,,ストーム,0
1101,4013301052390,新規,0,2024-04-19,2024-04-19,株式会社ＵＰｏｔｅｎｔｉａｌ,,株式会社,東京都,豊島区,南池袋１丁目１６－１５ダイヤゲート池袋５Ｆ,,13,116,1710022,,,,,,,2024-04-19,1,,,,,アップポテンシャル,0
1102,4013301052408,新規,0,2024-04-19,2024-04-19,株式会社アルト,,株式会社,東京都,豊島区,池袋２丁目３６番１号,,13,116,1710014,,,,,,,2024-04-19,1,,,,,アルト,0
1112,4020001156793,新規,0,2024-04-19,2024-04-19,Ｔｈｅ　Ｂｌｕｅｐｒｉｎｔ株式会社,,株式会社,神奈川県,横浜市西区,北幸１丁目１１番１号水信ミズノブビル７階,,14,103,2200004,,,,,,,2024-04-19,1,,,,,ザブループリント,0
1114,4020003025955,新規,0,2024-04-19,2024-04-19,誠和建設合同会社,,合同会社,神奈川県,横浜市青葉区,あざみ野１丁目３２番地３松本シスルマンション１０６,,14,117,2250011,,,,,,,2024-04-19,1,,,,,セイワケンセツ,0
1141,4040001133254,新規,0,2024-04-19,2024-04-19,ＰＡＮＡＨＩ株式会社,,株式会社,千葉県,佐倉市,王子台４丁目１２番地１３ビラ太田１０２号室,,12,212,2850837,,,,,,,2024-04-19,1,,,,,パナヒ,0
1143,4040005022354,新規,0,2024-04-19,2024-04-19,一般社団法人ＢＲＩＧＨＴ,,その他の設立登記法人,千葉県,千葉市若葉区,都賀４丁目８番２１号,,12,104,2640025,,,,,,,2024-04-19,1,,,,,ブライト,0
1145,4070003005374,新規,0,2024-04-19,2024-04-19,合同会社ＩＲＩＳ,,合同会社,群馬県,佐波郡玉村町,大字上之手１０９６番地２,,10,464,3701127,,,,,,,2024-04-19,1,,,,,アイリス,0
1147,4080001026256,新規,0,2024-04-19,2024-04-19,Ｗｏｒｋａｕｔｏ株式会社,,株式会社,静岡県,静岡市清水区,興津中町１３５９番地の２,,22,103,4240204,,,,,,,2024-04-19,1,,,,,,0
1149,4080401027135,新規,0,2024-04-19,2024-04-19,株式会社Ｗｉｌｌ　Ｃａｌｉｎ,,株式会社,静岡県,掛川市,上西郷１６４８番地の１,,22,213,4360342,,,,,,,2024-04-19,1,,,,,ウィルカラン,0
1164,4110001038339,新規,0,2024-04-19,2024-04-19,株式会社Ｅｍｂｅｒ,,株式会社,新潟県,新潟市中央区,天神１丁目１番地プラーカ３・２Ｆ・ＨＵＢ・ＳＴＡＴＩＯＮ・ＫＥＮＴＯ内,,15,103,9500917,,,,,,,2024-04-19,1,,,,,エンバー,0
1165,4110001038347,新規,0,2024-04-19,2024-04-19,株式会社Ｆｏｒｒｏｗ　Ｕｐ,,株式会社,新潟県,南魚沼市,片田１１２番地,,15,226,9496404,,,,,,,2024-04-19,1,,,,,フォローアップ,0
1173,4120001264140,新規,0,2024-04-19,2024-04-19,俊浩株式会社,,株式会社,大阪府,大阪市住吉区,大領４丁目１６－４・５０１室,,27,120,5580001,,,,,,,2024-04-19,1,,,,,トシヒロ,0
1174,4120001264149,新規,0,2024-04-19,2024-04-19,株式会社ＲＥＹＳ,,株式会社,大阪府,大阪市淀川区,新高３丁目１１番３号－５０２,,27,123,5320033,,,,,,,2024-04-19,1,,,,,レイズ,0
1175,4120001264173,新規,0,2024-04-19,2024-04-19,リジエール株式会社,,株式会社,大阪府,大阪市東住吉区,矢田１丁目２２番１号,,27,121,5460023,,,,,,,2024-04-19,1,,,,,リジエール,0
1176,4120001264181,新規,0,2024-04-19,2024-04-19,株式会社ＳＨＯＵＮ,,株式会社,大阪府,寝屋川市,石津東町１９番５－９１６号,,27,215,5720027,,,,,,,2024-04-19,1,,,,,ショウウン,0
1177,4120001264198,新規,0,2024-04-19,2024-04-19,株式会社ゼットワン,,株式会社,大阪府,大阪市西区,新町１丁目１４番２１－３５１５号,,27,106,5500013,,,,,,,2024-04-19,1,,,,,ゼットワン,0
1182,4120003026448,新規,0,2024-04-19,2024-04-19,しまエージェンシー合同会社,,合同会社,大阪府,大阪市北区,梅田１丁目２番２号大阪駅前第２ビル１２‐１２,,27,127,5300001,,,,,,,2024-04-19,1,,,,,シマエージェンシー,0
1185,4120103005789,新規,0,2024-04-19,2024-04-19,合同会社Ａｒｔ,,合同会社,大阪府,富田林市,若松町５丁目１２番５７号,,27,214,5840024,,,,,,,2024-04-19,1,,,,,アート,0
1188,4122003002866,新規,0,2024-04-19,2024-04-19,合同会社マサテック,,合同会社,大阪府,八尾市,南本町６丁目６番３２号,,27,212,5810081,,,,,,,2024-04-19,1,,,,,マサテック,0
1192,4130001076816,新規,0,2024-04-19,2024-04-19,高雲上都株式会社,,株式会社,京都府,京都市中京区,壬生森前町１４－３－１０１,,26,104,6048831,,,,,,,2024-04-19,1,,,,,コウウンジョウト,0
1193,4130001076849,新規,0,2024-04-19,2024-04-19,ＫＭエステート株式会社,,株式会社,京都府,京都市山科区,西野小柳町６９番地１－１０１号室,,26,110,6078354,,,,,,,2024-04-19,1,,,,,ケイエムエステート,0
1194,4130003009476,新規,0,2024-04-19,2024-04-19,合同会社ケイワイエー,,合同会社,京都府,八幡市,男山泉１７番地５,,26,210,6148366,,,,,,,2024-04-19,1,,,,,ケイワイエー,0
1200,4140003020473,新規,0,2024-04-19,2024-04-19,合同会社Ｄａｔａ　Ａｎａｌｙｓｉｓ　Ｌａｂｏ,,合同会社,兵庫県,三田市,学園７丁目１０番地１,,28,219,6691337,,,,,,,2024-04-19,1,,,,,データアナリシスラボ,0
1201,4140005027054,新規,0,2024-04-19,2024-04-19,特定非営利活動法人神戸教員支援Ｔｅａｃｈｅｒ’ｓ,,その他の設立登記法人,兵庫県,神戸市中央区,中山手通４丁目１０番５号,,28,110,6500004,,,,,,,2024-04-19,1,,,,,コウベキョウインシエンティーチャーズ,0
1215,4180001161027,新規,0,2024-04-19,2024-04-19,株式会社名徳,,株式会社,愛知県,一宮市,多加木３丁目１３番３１号,,23,203,4910837,,,,,,,2024-04-19,1,,,,,メイトク,0
1216,4180001161084,新規,0,2024-04-19,2024-04-19,株式会社総通ホールディングス,,株式会社,愛知県,名古屋市緑区,桶狭間神明２３０６番地の９,,23,114,4580919,,,,,,,2024-04-19,1,,,,,ソウツウホールディングス,0
1228,4190001031286,新規,0,2024-04-19,2024-04-19,株式会社ＨＯＭＥ．ＬＡＢ,,株式会社,三重県,四日市市,朝明町５２０番地２,,24,202,5128054,,,,,,,2024-04-19,1,,,,,ホームラボ,0
1233,4210001019733,新規,0,2024-04-19,2024-04-19,Ｄ’Ｐｌａｎ株式会社,,株式会社,福井県,福井市,東森田３丁目１５０２番地,,18,201,9100138,,,,,,,2024-04-19,1,,,,,ディプラン,0
1236,4220001025953,新規,0,2024-04-19,2024-04-19,株式会社金沢フォレストリー,,株式会社,石川県,河北郡津幡町,字潟端２２２番地６,,17,361,9290346,,,,,,,2024-04-19,1,,,,,カナザワフォレストリー,0
1244,4290001105468,新規,0,2024-04-19,2024-04-19,株式会社ＮＥＫＯＢＥＥＲ,,株式会社,福岡県,福岡市南区,長丘２丁目２５番１号,,40,134,8150075,,,,,,,2024-04-19,1,,,,,,0
1246,4290003015186,新規,0,2024-04-19,2024-04-19,合同会社ＳＯＣＩＡＬ　ＯＦＦＩＣＥ．Ｊ,,合同会社,福岡県,嘉穂郡桂川町,大字吉隈１２番地４２,,40,421,8200609,,,,,,,2024-04-19,1,,,,,ソーシャルオフィスジェイ,0
1252,4330001031981,新規,0,2024-04-19,2024-04-19,株式会社櫻桃,,株式会社,熊本県,合志市,須屋２０９番地２１,,43,216,8611102,,,,,,,2024-04-19,1,,,,,サクランボ,0
1256,4350001018928,新規,0,2024-04-19,2024-04-19,ファーストジャパン株式会社,,株式会社,宮崎県,西諸県郡高原町,大字蒲牟田１６８９番地７,,45,361,8894414,,,,,,,2024-04-19,1,,,,,ファーストジャパン,0
1263,4370001051209,新規,0,2024-04-19,2024-04-19,株式会社大縁,,株式会社,宮城県,気仙沼市,長磯原１２３番地２,,04,205,9880233,,,,,,,2024-04-19,1,,,,,ダイエン,0
1283,4430005014964,新規,0,2024-04-19,2024-04-19,一般社団法人札幌国際大学カーリングクラブ,,その他の設立登記法人,北海道,札幌市中央区,南十四条西１８丁目１番１６号,,01,101,0640914,,,,,,,2024-04-19,1,,,,,サッポロコクサイダイガクカーリングクラブ,0
1291,4700150124961,新規,0,2024-04-19,2024-04-19,ｓｈｅｎｚｈｅｎｓｈｉｙｕｎｓｈｅｎｇｘｉｎｇｋｅｊｉｙｏｕｘｉａｎｇｏｎｇｓｉ,,外国会社等,,,,,,,,ｓｈｅｎｚｈｅｎｓｈｉｎａｎｓｈａｎｑｕｙｕｅｈａｉｊｉｅｄａｏｎａｎｙｏｕｓｈｅｑｕｄｏｎｇｂｉｎｌｕ３０３６ｈａｏｎａｎｙｏｕｗｅｎｈｕａｇｕａｎｇｃｈａｎｇＡ０８－１,,,,,,2024-04-19,1,,,,,シンセンシユンシェンシンカギユウゲンコウシ,0
1292,4700150124978,新規,0,2024-04-19,2024-04-19,Ａｎｈｕｉ　Ｈｕａｍｉ　Ｉｎｆｏｒｍａｔｉｏｎ　Ｔｅｃｈｎｏｌｏｇｙ　Ｃｏ．，Ｌｔｄ．,,外国会社等,,,,,,,,７／Ｆ，Ｂｕｉｌｄｉｎｇ　Ｂ２，Ｈｕａｍｉ　Ｇｌｏｂａｌ　Ｉｎｎｏｖａｔｉｏｎ　Ｃｅｎｔｅｒ，Ｎｏ．９００　Ｗａｎｇｊｉａｎｇ　Ｗｅｓｔ　Ｒｏａｄ，Ｈｅｆｅｉ，Ｃｈｉｎａ（Ａｎｈｕｉ）Ｐｉｌｏｔ　Ｆｒｅｅ　Ｔｒａｄｅ　Ｚｏｎｅ,,,,,,2024-04-19,1,,,,,アンホゥイホワミーシンシイコーァジーヨウシエンゴーンスー,0
1293,4700150124986,新規,0,2024-04-19,2024-04-19,Ｓｈｅｎ　Ｚｈｅｎ　Ｓｈｉ　Ｃｈｅｎｇ　Ｙｏｕ　Ｋｅ　Ｊｉ　Ｙｏｕ　Ｘｉａｎ　Ｇｏｎｇ　Ｓｉ,,外国会社等,,,,,,,,Ｌｏｎｇｈｕａｑｕ　Ｌｏｎｇｈｕａｊｉｅｄａｏ　Ｊｉｎｇｌｏｎｇｓｈｅｑｕ　Ｌｏｎｇｆａｌｕ　２２８　Ｈａｏ　Ｚｈｏｎｇｈｕａｎｈｕａｙｕａｎ　Ｒｉｙｕｅｇｅ　５　Ｄａｎｙｕａｎ　３０９　Ｓｈｅｎｚｈｅｎｓｈｉ　Ｇｕａｎｇｄｏｎｇ,,,,,,2024-04-19,1,,,,,シンセンシチエンユーテクノロジーカンパニリミテツド,0
1306,5010001244103,新規,0,2024-04-19,2024-04-19,ＹＹＳ株式会社,,株式会社,東京都,中央区,銀座１丁目１２番４号Ｎ＆Ｅ・ＢＬＤ．７階,,13,102,1040061,,,,,,,2024-04-19,1,,,,,ワイワイエス,0
1307,5010001244177,新規,0,2024-04-19,2024-04-19,新聯貿易株式会社,,株式会社,東京都,中央区,東日本橋２丁目１３番５号秋山ビル７Ｆ,,13,102,1030004,,,,,,,2024-04-19,1,,,,,シンレンボウエキ,0
1308,5010001244193,新規,0,2024-04-19,2024-04-19,Ｉｎｖｅｎｔｉｏ　Ｐｈａｒｍａ株式会社,,株式会社,東京都,中央区,日本橋室町１丁目１１番１２号日本橋水野ビル７階,,13,102,1030022,,,,,,,2024-04-19,1,,,,,インベンティオファーマ,0
1310,5010003043528,新規,0,2024-04-19,2024-04-19,合同会社やんごとなき,,合同会社,東京都,中央区,新富１丁目７番１７－４０４号,,13,102,1040041,,,,,,,2024-04-19,1,,,,,ヤンゴトナキ,0
1311,5010003043544,新規,0,2024-04-19,2024-04-19,上長都ひかり蓄電合同会社,,合同会社,東京都,中央区,日本橋１丁目４番１号,,13,102,1030027,,,,,,,2024-04-19,1,,,,,カミオサツヒカリチクデン,0
1313,5010103002342,新規,0,2024-04-19,2024-04-19,合同会社ねこのしっぽ,,合同会社,東京都,八王子市,元八王子町２丁目１８７６番地１,,13,201,1930826,,,,,,,2024-04-19,1,,,,,ネコノシッポ,0
1318,5010401181796,新規,0,2024-04-19,2024-04-19,ｔｈｒｅｅ　ｆｉｅｌｄ株式会社,,株式会社,東京都,港区,東麻布２丁目２４番１４号ＥＳＴＡＺＡＢＵ３０２号,,13,103,1060044,,,,,,,2024-04-19,1,,,,,スリーフィールド,0
1319,5010401181813,新規,0,2024-04-19,2024-04-19,株式会社ＡｉＮＡ,,株式会社,東京都,港区,港南２丁目１６番１号品川イーストワンタワー７Ｆ８Ｆ,,13,103,1080075,,,,,,,2024-04-19,1,,,,,アイナ,0
1324,5010503007412,新規,0,2024-04-19,2024-04-19,Ｙｏｋｏ　Ｓｕｄｏｕ　Ｏｆｆｉｃｅ合同会社,,合同会社,東京都,台東区,東上野２丁目２３番２０号,,13,106,1100015,,,,,,,2024-04-19,1,,,,,ヨーコスドウオフィス,0
1328,5010701045791,新規,0,2024-04-19,2024-04-19,Ｘｉｎ　Ｎｅｔｗｏｒｋｓ　Ｊａｐａｎ株式会社,,株式会社,東京都,品川区,西五反田２丁目１１番１５号,,13,109,1410031,,,,,,,2024-04-19,1,,,,,シンネットワークスジャパン,0
1339,5011001161437,新規,0,2024-04-19,2024-04-19,株式会社ＩＮＲＹＵ,,株式会社,東京都,渋谷区,神泉町１５－９ＴＲアーバンプレイス渋谷１０３,,13,113,1500045,,,,,,,2024-04-19,1,,,,,インリュウ,0
1340,5011001161453,新規,0,2024-04-19,2024-04-19,株式会社ヨシヒロモリイ,,株式会社,東京都,渋谷区,千駄ヶ谷１丁目８番７号インプルーブ外苑２０２,,13,113,1510051,,,,,,,2024-04-19,1,,,,,ヨシヒロモリイ,0
1341,5011001161552,新規,0,2024-04-19,2024-04-19,株式会社プラズマキャピタル,,株式会社,東京都,渋谷区,神宮前６丁目２３番４号桑野ビル２階,,13,113,1500001,,,,,,,2024-04-19,1,,,,,プラズマキャピタル,0
1342,5011003018825,新規,0,2024-04-19,2024-04-19,合同会社居心地,,合同会社,東京都,渋谷区,道玄坂１丁目１０番８号渋谷道玄坂東急ビル２Ｆ－Ｃ,,13,113,1500043,,,,,,,2024-04-19,1,,,,,イゴコチ,0
1343,5011003018866,新規,0,2024-04-19,2024-04-19,合同会社アム,,合同会社,東京都,渋谷区,神宮前６丁目２３番４号桑野ビル２階,,13,113,1500001,,,,,,,2024-04-19,1,,,,,アム,0
1344,5011003018890,新規,0,2024-04-19,2024-04-19,合同会社ＪｅｔＳｐｅｅｄ,,合同会社,東京都,渋谷区,道玄坂１丁目１０番８号渋谷道玄坂東急ビル２Ｆ－Ｃ,,13,113,1500043,,,,,,,2024-04-19,1,,,,,ジェットスピード,0
1345,5011003018973,新規,0,2024-04-19,2024-04-19,ｍａｍａｃｏｃｏ　ｄｅｓｉｇｎ合同会社,,合同会社,東京都,目黒区,中目黒１丁目１０番２５－５０３号フレンドパレス,,13,110,1530061,,,,,,,2024-04-19,1,,,,,ママココデザイン,0
1346,5011003018998,新規,0,2024-04-19,2024-04-19,すみません合同会社,,合同会社,東京都,目黒区,下目黒１丁目８‐３９‐１‐１３０３,,13,110,1530064,,,,,,,2024-04-19,1,,,,,スミマセン,0
1351,5011101107034,新規,0,2024-04-19,2024-04-19,アシストアーズ株式会社,,株式会社,東京都,新宿区,新小川町５番４号ＮＩＣビル１階,,13,104,1620814,,,,,,,2024-04-19,1,,,,,アシストアーズ,0
1352,5011101107042,新規,0,2024-04-19,2024-04-19,株式会社フロンティア倶楽部,,株式会社,東京都,新宿区,西早稲田１丁目１番地６号,,13,104,1690051,,,,,,,2024-04-19,1,,,,,フロンティアクラブ,0
1353,5011101107050,新規,0,2024-04-19,2024-04-19,株式会社ランドリーダイワ,,株式会社,東京都,新宿区,神楽坂３丁目４山本ビル６階,,13,104,1620825,,,,,,,2024-04-19,1,,,,,ランドリーダイワ,0
1355,5011103014336,新規,0,2024-04-19,2024-04-19,安南合同会社,,合同会社,東京都,新宿区,百人町２丁目１６番１９号山手マンション３０６,,13,104,1690073,,,,,,,2024-04-19,1,,,,,アンナン,0
1356,5011103014344,新規,0,2024-04-19,2024-04-19,ＣＳ青森三戸２合同会社,,合同会社,東京都,新宿区,西新宿２丁目１番１号新宿三井ビル４３階,,13,104,1600023,,,,,,,2024-04-19,1,,,,,シーエスアオモリサンノヘニ,0
1358,5011201025409,新規,0,2024-04-19,2024-04-19,株式会社フォールド,,株式会社,東京都,中野区,弥生町４丁目４番１５号ウノ弥生町Ａ棟４０１,,13,114,1640013,,,,,,,2024-04-19,1,,,,,フォールド,0
1359,5011203004352,新規,0,2024-04-19,2024-04-19,合同会社Ｂｌｕｅ,,合同会社,東京都,中野区,大和町３丁目１７番２号,,13,114,1650034,,,,,,,2024-04-19,1,,,,,ブルー,0
1360,5011301029581,新規,0,2024-04-19,2024-04-19,株式会社リヤン,,株式会社,東京都,杉並区,善福寺２丁目３番２１号,,13,115,1670041,,,,,,,2024-04-19,1,,,,,リヤン,0
1361,5011301029598,新規,0,2024-04-19,2024-04-19,株式会社青葉総合コンサルティング,,株式会社,東京都,杉並区,荻窪５丁目２６番９号,,13,115,1670051,,,,,,,2024-04-19,1,,,,,アオバソウゴウコンサルティング,0
1365,5011501030562,新規,0,2024-04-19,2024-04-19,ＢＥＳＴＯＮ株式会社,,株式会社,東京都,荒川区,東日暮里６丁目３５番５号光ビル,,13,118,1160014,,,,,,,2024-04-19,1,,,,,ベストン,0
1366,5011503006024,新規,0,2024-04-19,2024-04-19,合同会社Ｂｌｕｅ　Ｊａｓｍｉｎｅ,,合同会社,東京都,荒川区,西日暮里２丁目２５番１－２７０７号,,13,118,1160013,,,,,,,2024-04-19,1,,,,,ブルージャスミン,0
1367,5011503006032,新規,0,2024-04-19,2024-04-19,合同会社ライフネクスト,,合同会社,東京都,北区,上十条２丁目３０－１１サンコーポＩＩＩ３０３,00134479,13,117,1140034,,,,,,,2024-04-19,1,,,,,ライフネクスト,0
1372,5011703003804,新規,0,2024-04-19,2024-04-19,ジャナハ合同会社,,合同会社,東京都,江戸川区,平井３丁目１７－７三久ハイツ１０１,,13,123,1320035,,,,,,,2024-04-19,1,,,,,ジャナハ,0
1382,5012403006527,新規,0,2024-04-19,2024-04-19,合同会社ＤＥＥＰＴＥＭＰＬＥ,,合同会社,東京都,調布市,深大寺北町３丁目３４番地１１,,13,208,1820011,,,,,,,2024-04-19,1,,,,,ディープテンプル,0
1383,5012701018216,新規,0,2024-04-19,2024-04-19,株式会社蕾,,株式会社,東京都,小平市,大沼町４丁目９番５号,,13,211,1870001,,,,,,,2024-04-19,1,,,,,ツボミ,0
1395,5020001156727,新規,0,2024-04-19,2024-04-19,株式会社誠和工務店,,株式会社,神奈川県,横浜市港南区,下永谷５丁目１１番１９号１０３,,14,111,2330016,,,,,,,2024-04-19,1,,,,,セイワコウムテン,0
1396,5020001156735,新規,0,2024-04-19,2024-04-19,株式会社Ｍｅｄｅｔｅｎａ,,株式会社,神奈川県,横浜市中区,扇町１丁目１番地２５,,14,104,2310027,,,,,,,2024-04-19,1,,,,,メデテーナ,0
1399,5020003025970,新規,0,2024-04-19,2024-04-19,合同会社ＧｒｅｅｎＢｏｘ,,合同会社,神奈川県,横浜市旭区,二俣川２丁目３２番地９９,,14,112,2410821,,,,,,,2024-04-19,1,,,,,グリーンボックス,0
1403,5021001082021,新規,0,2024-04-19,2024-04-19,Ｃｏｃｃｏｌｅ株式会社,,株式会社,神奈川県,逗子市,久木８丁目８－６６,,14,208,2490001,,,,,,,2024-04-19,1,,,,,ココレ,0
1404,5021001082038,新規,0,2024-04-19,2024-04-19,アソシエイツ・ＫＢ株式会社,,株式会社,神奈川県,大和市,大和南２丁目９番４号,,14,213,2420016,,,,,,,2024-04-19,1,,,,,アソシエイツケービー,0
1406,5021003014410,新規,0,2024-04-19,2024-04-19,合同会社ノーブルスタッフ,,合同会社,神奈川県,相模原市中央区,相模原５丁目２番１号,,14,152,2520231,,,,,,,2024-04-19,1,,,,,ノーブルスタッフ,0
1412,5030001159919,新規,0,2024-04-19,2024-04-19,株式会社ターフラボ,,株式会社,埼玉県,川口市,南鳩ヶ谷６丁目１５－５,,11,203,3340013,,,,,,,2024-04-19,1,,,,,ターフラボ,0
1418,5030003024146,新規,0,2024-04-19,2024-04-19,ピーエイチ合同会社,,合同会社,埼玉県,川口市,本蓮１丁目２３番９号,,11,203,3340076,,,,,,,2024-04-19,1,,,,,ピーエイチ,0
1420,5040001133212,新規,0,2024-04-19,2024-04-19,株式会社大塚設備工事,,株式会社,千葉県,鎌ケ谷市,北中沢２丁目２０番８７号,,12,224,2730111,,,,,,,2024-04-19,1,,,,,オオツカセツビコウジ,0
1421,5040001133253,新規,0,2024-04-19,2024-04-19,ＣＹＣ株式会社,,株式会社,千葉県,千葉市若葉区,千城台北３丁目１９番１号,,12,104,2640005,,,,,,,2024-04-19,1,,,,,シーワイシー,0
1433,5050001054639,新規,0,2024-04-19,2024-04-19,株式会社粟野板金工業,,株式会社,茨城県,下妻市,若柳乙１７０番地１４,,08,210,3040012,,,,,,,2024-04-19,1,,,,,アワノバンキンコウギョウ,0
1434,5050001054663,新規,0,2024-04-19,2024-04-19,株式会社雅,,株式会社,茨城県,龍ケ崎市,松ケ丘１丁目４番地２２,,08,208,3010853,,,,,,,2024-04-19,1,,,,,ミヤビ,0
1438,5050003008295,新規,0,2024-04-19,2024-04-19,合同会社ＤＲホールディングス,,合同会社,茨城県,北相馬郡利根町,大字早尾２００番地５４,,08,564,3001631,,,,,,,2024-04-19,1,,,,,ディーアールホールディングス,0
1439,5050003008312,新規,0,2024-04-19,2024-04-19,合同会社ＡＯＩ,,合同会社,茨城県,水戸市,吉沢町３５４番地の９７,,08,201,3100845,,,,,,,2024-04-19,1,,,,,アオイ,0
1456,5090001018672,新規,0,2024-04-19,2024-04-19,ＪＥＷＥＬＶＥＲＳＥ株式会社,,株式会社,山梨県,甲府市,下小河原町２４８番地１グレイスリー下小河原６０２,,19,201,4000853,,,,,,,2024-04-19,1,,,,,ジュエルバース,0
1469,5120001263422,新規,0,2024-04-19,2024-04-19,株式会社ＥＥＹＡＮ,,株式会社,大阪府,大阪市浪速区,大国２丁目５番１－５０２号,,27,111,5560014,,,,,,,2024-04-19,1,,,,,エエヤン,0
1470,5120001264131,新規,0,2024-04-19,2024-04-19,株式会社ジャパンエムフーズ,,株式会社,大阪府,大阪市中央区,南本町２丁目１番１５号ジコウビル５階２号室,,27,128,5410054,,,,,,,2024-04-19,1,,,,,ジャパンエムフーズ,0
1471,5120001264172,新規,0,2024-04-19,2024-04-19,株式会社世古工業,,株式会社,大阪府,枚方市,宮之阪３丁目２６番３号,,27,210,5730022,,,,,,,2024-04-19,1,,,,,セココウギョウ,0
1472,5120001264206,新規,0,2024-04-19,2024-04-19,青洲Ｏａｓｉｓ株式会社,,株式会社,大阪府,大阪市生野区,田島２丁目６－１２田島一軒家３０２号室,,27,116,5440011,,,,,,,2024-04-19,1,,,,,セイシュウオアシス,0
1480,5120101069455,新規,0,2024-04-19,2024-04-19,株式会社喜太乃,,株式会社,大阪府,堺市堺区,出島町１丁３番３号,,27,141,5900834,,,,,,,2024-04-19,1,,,,,キタノ,0
1483,5120901049045,新規,0,2024-04-19,2024-04-19,ＡＳＭＲ株式会社,,株式会社,大阪府,高槻市,南松原町８番２号,,27,207,5690085,,,,,,,2024-04-19,1,,,,,アスミル,0
1484,5120903005137,新規,0,2024-04-19,2024-04-19,合同会社ＨｉｇｈＨｉｌｌ,,合同会社,大阪府,吹田市,岸部中１丁目７－２１,,27,205,5640002,,,,,,,2024-04-19,1,,,,,ハイヒル,0
1485,5130001076872,新規,0,2024-04-19,2024-04-19,株式会社ＥＣメゾン,,株式会社,京都府,八幡市,下奈良出垣内２番地ボナール・ディアコート１０３,,26,210,6148125,,,,,,,2024-04-19,1,,,,,イーシーメゾン,0
1488,5130003009475,新規,0,2024-04-19,2024-04-19,合同会社サプライズジャパン,,合同会社,京都府,京都市下京区,御影堂町１６－２１京都建物ビル５Ｆ,,26,106,6008101,,,,,,,2024-04-19,1,,,,,サプライズジャパン,0
1494,5140001134126,新規,0,2024-04-19,2024-04-19,株式会社ＧＲＩＬＬ金プラ,,株式会社,兵庫県,神戸市中央区,三宮町１丁目９番１号センタープラザ東館地下１階,,28,110,6500021,,,,,,,2024-04-19,1,,,,,グリルキンプラ,0
1499,5140005027045,新規,0,2024-04-19,2024-04-19,一般社団法人わかば,,その他の設立登記法人,兵庫県,丹波市,春日町黒井１５９１番地６,,28,223,6694141,,,,,,,2024-04-19,1,,,,,ワカバ,0
1500,5150001027238,新規,0,2024-04-19,2024-04-19,オフィスリツ株式会社,,株式会社,奈良県,奈良市,鶴舞東町１番１３－５０４号,,29,201,6310021,,,,,,,2024-04-19,1,,,,,オフィスリツ,0
1502,5170003002030,新規,0,2024-04-19,2024-04-19,合同会社はまゆう２４,,合同会社,和歌山県,和歌山市,狐島３７１番地３松島コーポ１０６,,30,201,6408412,,,,,,,2024-04-19,1,,,,,ハマユウニジュウヨン,0
1514,5180003026615,新規,0,2024-04-19,2024-04-19,合同会社ｍａｋｉｎａ,,合同会社,愛知県,名古屋市天白区,天白町大字野並字上大塚１４３番地,,23,116,4680037,,,,,,,2024-04-19,1,,,,,マキナ,0
1522,5190003004652,新規,0,2024-04-19,2024-04-19,合同会社Ｈａｇｕ,,合同会社,三重県,三重郡菰野町,大字菰野１７４７番地２,,24,341,5101233,,,,,,,2024-04-19,1,,,,,ハグ,0
1524,5200001042413,新規,0,2024-04-19,2024-04-19,株式会社ＫＯＧＡＮＥ,,株式会社,岐阜県,岐阜市,日野南３丁目２番５号,,21,201,5008212,,,,,,,2024-04-19,1,,,,,コガネ,0
1525,5200001042421,新規,0,2024-04-19,2024-04-19,株式会社フロンティア,,株式会社,岐阜県,岐阜市,細畑３丁目２１番２３号,,21,201,5008238,,,,,,,2024-04-19,1,,,,,フロンティア,0
1527,5200005013609,新規,0,2024-04-19,2024-04-19,医療法人トリニティ,,その他の設立登記法人,岐阜県,美濃市,松栄町５丁目７５番地,,21,207,5013752,,,,,,,2024-04-19,1,,,,,トリニティ,0
1528,5220001025952,新規,0,2024-04-19,2024-04-19,株式会社ＭＧＫ,,株式会社,石川県,羽咋市,本町エ１７番地３,,17,207,9250035,,,,,,,2024-04-19,1,,,,,エムジーケイ,0
1529,5220005008821,新規,0,2024-04-19,2024-04-19,一般社団法人ウッドキャスト,,その他の設立登記法人,石川県,白山市,西新町７５番地,,17,210,9240871,,,,,,,2024-04-19,1,,,,,ウッドキャスト,0
1533,5230001020309,新規,0,2024-04-19,2024-04-19,株式会社ファミリア,,株式会社,富山県,富山市,つばめ野３丁目９６,,16,201,9302239,,,,,,,2024-04-19,1,,,,,ファミリア,0
1536,5240001063100,新規,0,2024-04-19,2024-04-19,株式会社光晟設備,,株式会社,広島県,安芸郡熊野町,新宮２丁目１７番２２号,,34,307,7314211,,,,,,,2024-04-19,1,,,,,コウセイセツビ,0
1538,5250001020620,新規,0,2024-04-19,2024-04-19,株式会社西日本建設技術,,株式会社,山口県,長門市,日置上１５９８番地２,,35,211,7594401,,,,,,,2024-04-19,1,,,,,ニシニホンケンセツギジュツ,0
1539,5260001038983,新規,0,2024-04-19,2024-04-19,白進工業株式会社,,株式会社,岡山県,倉敷市,児島稗田町４１６番地１１,,33,202,7110937,,,,,,,2024-04-19,1,,,,,ハクシンコウギョウ,0
1555,5290001105450,新規,0,2024-04-19,2024-04-19,ＡＥＡ株式会社,,株式会社,福岡県,福岡市早良区,梅林７丁目７番１３－２０５号サンパール梅林,,40,137,8140172,,,,,,,2024-04-19,1,,,,,,0
1556,5290001105467,新規,0,2024-04-19,2024-04-19,株式会社つづらパラダイス,,株式会社,福岡県,うきは市,吉井町千年２３０番地,,40,225,8391304,,,,,,,2024-04-19,1,,,,,ツヅラパラダイス,0
1578,5340003004447,新規,0,2024-04-19,2024-04-19,合同会社ｔｈｒｅａｄ,,合同会社,鹿児島県,鹿屋市,笠之原町１６番２０号モカハウス１０１号,,46,203,8930023,,,,,,,2024-04-19,1,,,,,スレッド,0
1585,5360001033537,新規,0,2024-04-19,2024-04-19,二日酔い研究所株式会社,,株式会社,沖縄県,那覇市,泉崎２丁目２２－３,,47,201,9000021,,,,,,,2024-04-19,1,,,,,,0
1586,5360001033545,新規,0,2024-04-19,2024-04-19,株式会社リバブル,,株式会社,沖縄県,うるま市,字高江洲１０７４番地１グランド２１・２０３,,47,213,9042242,,,,,,,2024-04-19,1,,,,,リバブル,0
1594,5390001017586,新規,0,2024-04-19,2024-04-19,ＥＸＥ株式会社,,株式会社,山形県,鶴岡市,日枝字鳥居上４０番地１パルコ・プレッソ２０１,,06,203,9970824,,,,,,,2024-04-19,1,,,,,エグゼ,0
1601,5430001091585,新規,0,2024-04-19,2024-04-19,株式会社アルシェホールディングス,,株式会社,北海道,札幌市中央区,大通西１７丁目１番１４号,,01,101,0600042,,,,,,,2024-04-19,1,,,,,アルシェホールディングス,0
1602,5430001091593,新規,0,2024-04-19,2024-04-19,株式会社Ｓｉｔｕｓ,,株式会社,北海道,札幌市手稲区,西宮の沢二条４丁目１３番２１号,,01,109,0060002,,,,,,,2024-04-19,1,,,,,サイタス,0
1603,5430001091610,新規,0,2024-04-19,2024-04-19,株式会社ＡＳＣ北海道,,株式会社,北海道,苫小牧市,柳町４丁目１８番１６号カーサ・セレス１０１号,,01,213,0530053,,,,,,,2024-04-19,1,,,,,エーエスシーホッカイドウ,0
1604,5430001091619,新規,0,2024-04-19,2024-04-19,株式会社Ｓａｐｅｕｒ,,株式会社,北海道,札幌市中央区,南五条西６丁目８番地２０３号室,,01,101,0640805,,,,,,,2024-04-19,1,,,,,サプール,0
1606,5430003016235,新規,0,2024-04-19,2024-04-19,合同会社レーベ,,合同会社,北海道,札幌市北区,新川二条５丁目１番２７号,,01,102,0010922,,,,,,,2024-04-19,1,,,,,レーベ,0
1611,5470001020160,新規,0,2024-04-19,2024-04-19,ＴＳＵＢＯＹＡ＆ＣＯ．株式会社,,株式会社,香川県,三豊市,豊中町本山乙１１６番地,,37,208,7691505,,,,,,,2024-04-19,1,,,,,ツボヤアンドコー,0
1613,5700150124969,新規,0,2024-04-19,2024-04-19,ＳＵＮＫＡＩＨＯＮＧ　ＬＩＭＩＴＥＤ,,外国会社等,,,,,,,,Ｒｏｏｍ　Ｎｏ．０７　Ｕｎｉｔ　Ｂ，６／Ｆ，Ｋｉｎ　Ｔａｋ　Ｆｕｎｇ　Ｉｎｄ．Ｂｌｄｇ．，１７４　Ｗａｉ　Ｙｉｐ　Ｓｔ．，Ｋｗｕｎ　Ｔｏｎｇ，Ｋｏｗｌｏｏｎ　Ｈｏｎｇ　Ｋｏｎｇ　ＣＮ,,,,,,2024-04-19,1,,,,,サンカイホンリミテッド,0
1614,5700150124977,新規,0,2024-04-19,2024-04-19,Ｅｖｅｒｇｒｅａｔ　Ｏｐｔｉｃａｌ　ＩＮＤ．Ｃｏ．，ＬＴＤ,,外国会社等,,,,,,,,２Ｆ．，ＮＯ．３６，Ｓｅｃ．３，Ｘｉｎｓｈｅｎｇ　Ｓ．Ｒｄ．Ｔａｉｐｅｉ　Ｄａ’Ａｎ　Ｄｉｓｔｒｉｃｔ　ＴＷ,,,,,,2024-04-19,1,,,,,ダージアイエンジーンシーイエヨウシエンゴーンスー,0
1615,5700150124985,新規,0,2024-04-19,2024-04-19,ＷａｔｅｒＮｌｉｆｅ　ＡｐＳ,,外国会社等,,,,,,,,Ｇｒａｍｒｏｄｅｖｅｊ　１３，ＤＫ－７１３０　Ｊｕｅｌｓｍｉｎｄｅ，Ｄｅｎｍａｒｋ,,,,,,2024-04-19,1,,,,,ウオーターライフアツプス,0
1622,6010001244085,新規,0,2024-04-19,2024-04-19,ＺＳｐｉｎｅ株式会社,,株式会社,東京都,千代田区,九段南１丁目１番５号九段ビル２Ｆ,,13,101,1020074,,,,,,,2024-04-19,1,,,,,ジースパイン,0
1623,6010001244102,新規,0,2024-04-19,2024-04-19,株式会社フラッグシップ,,株式会社,東京都,千代田区,神田佐久間町１丁目８番４号アルテール秋葉原７０８,,13,101,1010025,,,,,,,2024-04-19,1,,,,,フラッグシップ,0
1624,6010001244119,新規,0,2024-04-19,2024-04-19,株式会社ＴｅａｍＳｐａｒｔａ,,株式会社,東京都,千代田区,霞が関３丁目２－５霞が関ビル５階,,13,101,1000013,,,,,,,2024-04-19,1,,,,,チームスパルタ,0
1625,6010001244151,新規,0,2024-04-19,2024-04-19,株式会社アトラスキャピタル,,株式会社,東京都,千代田区,有楽町１丁目７番１号有楽町電気ビル南館５階５５２,,13,101,1000006,,,,,,,2024-04-19,1,,,,,アトラスキャピタル,0
1627,6010003043519,新規,0,2024-04-19,2024-04-19,玲河合同会社,,合同会社,東京都,中央区,東日本橋１丁目２番１０号,,13,102,1030004,,,,,,,2024-04-19,1,,,,,レイカ,0
1633,6010401181770,新規,0,2024-04-19,2024-04-19,株式会社ＦＰＣｏｒｅ,,株式会社,東京都,港区,浜松町２丁目２番１５号浜松町ダイヤビル２Ｆ,,13,103,1050013,,,,,,,2024-04-19,1,,,,,エフピーコア,0
1634,6010401181804,新規,0,2024-04-19,2024-04-19,株式会社ＳｅｃｔｏｒＳｅｖｅｎ　Ｇｒａｐｈｉｃｓ,,株式会社,東京都,港区,芝浦４丁目２０番－２芝浦アイランドブルームタワー８０９,,13,103,1080023,,,,,,,2024-04-19,1,,,,,セクターセブングラフィックス,0
1635,6010401181936,新規,0,2024-04-19,2024-04-19,株式会社ＬＵＧＥＮＤ,,株式会社,東京都,港区,浜松町２丁目２番１５号浜松町ダイヤビル２Ｆ,,13,103,1050013,,,,,,,2024-04-19,1,,,,,ルジェンド,0
1640,6010503007411,新規,0,2024-04-19,2024-04-19,合同会社無限,,合同会社,東京都,台東区,寿３丁目１０番６号,,13,106,1110042,,,,,,,2024-04-19,1,,,,,ムゲン,0
1655,6010901055094,新規,0,2024-04-19,2024-04-19,株式会社ＴｅｍｏＫａｒｉ,,株式会社,東京都,世田谷区,世田谷１丁目１０番１３－５０３号,,13,112,1540017,,,,,,,2024-04-19,1,,,,,テモカリ,0
1656,6010901055128,新規,0,2024-04-19,2024-04-19,サードベース株式会社,,株式会社,東京都,世田谷区,駒沢２丁目５－１０フルール駒沢３０５,,13,112,1540012,,,,,,,2024-04-19,1,,,,,サードベース,0
1657,6010903008983,新規,0,2024-04-19,2024-04-19,合同会社パシオン,,合同会社,東京都,世田谷区,喜多見８丁目１２－１８コスモパレスＡ２,,13,112,1570067,,,,,,,2024-04-19,1,,,,,パシオン,0
1670,6011001161139,新規,0,2024-04-19,2024-04-19,株式会社ｍｏｋａ‐ｓｃｈｏｏｌ,,株式会社,東京都,目黒区,自由が丘２丁目１６－１２ＲＪ３,,13,110,1520035,,,,,,,2024-04-19,1,,,,,モカスクール,0
1671,6011001161394,新規,0,2024-04-19,2024-04-19,株式会社ＹＭＭコーポレーション,,株式会社,東京都,渋谷区,幡ヶ谷１丁目５番地１号エヴァーグリーン幡ヶ谷３０３号室,,13,113,1510072,,,,,,,2024-04-19,1,,,,,ワイエムエムコーポレーション,0
1672,6011001161452,新規,0,2024-04-19,2024-04-19,株式会社Ｐｉｘｉｅ,,株式会社,東京都,渋谷区,道玄坂１丁目１０番８号渋谷道玄坂東急ビル２Ｆ－Ｃ,,13,113,1500043,,,,,,,2024-04-19,1,,,,,ピクシー,0
1673,6011001161493,新規,0,2024-04-19,2024-04-19,ＬＥ　Ｅｎｔｅｒｔａｉｎｍｅｎｔ株式会社,,株式会社,東京都,渋谷区,広尾３丁目９番９号広尾レジデンスＢ棟２０４,,13,113,1500012,,,,,,,2024-04-19,1,,,,,エルイーエンターテインメント,0
1675,6011003018948,新規,0,2024-04-19,2024-04-19,Ｅｖｅｒｇｒｅｅｎ＆Ｃｏ．合同会社,,合同会社,東京都,渋谷区,道玄坂１丁目１０‐８渋谷道玄坂東急ビル２Ｆ‐Ｃ,,13,113,1500043,,,,,,,2024-04-19,1,,,,,エヴァーグリーンアンドコー,0
1676,6011003018956,新規,0,2024-04-19,2024-04-19,シパシパーメ合同会社,,合同会社,東京都,渋谷区,渋谷２丁目１９－１５宮益坂ビルディング６０９,,13,113,1500002,,,,,,,2024-04-19,1,,,,,シパシパーメ,0
1677,6011003018964,新規,0,2024-04-19,2024-04-19,ＡｒｃＰｌｕｓ合同会社,,合同会社,東京都,渋谷区,神宮前６丁目２８番９号東武ビル６Ｆ,,13,113,1500001,,,,,,,2024-04-19,1,,,,,アークプラス,0
1678,6011003018972,新規,0,2024-04-19,2024-04-19,合同会社ピー・アンド・アイ・エス,,合同会社,東京都,目黒区,大岡山１丁目１６番１９号,,13,110,1520033,,,,,,,2024-04-19,1,,,,,ピーアンドアイエス,0
1679,6011005010498,新規,0,2024-04-19,2024-04-19,一般財団法人渋谷区スポーツ協会,,その他の設立登記法人,東京都,渋谷区,宇田川町１番１号,,13,113,1500042,,,,,,,2024-04-19,1,,,,,シブヤクスポーツキョウカイ,0
1682,6011101107041,新規,0,2024-04-19,2024-04-19,株式会社ＧＯＨＡＮ,,株式会社,東京都,新宿区,西新宿６丁目１６番８号西新宿六丁目ビル１階,,13,104,1600023,,,,,,,2024-04-19,1,,,,,ゴハン,0
1684,6011103014335,新規,0,2024-04-19,2024-04-19,ＮＥＷ　ＬＩＦＥ合同会社,,合同会社,東京都,新宿区,高田馬場１丁目３０番１５号ＶＯＲＴ高田馬場１－８階,,13,104,1690075,,,,,,,2024-04-19,1,,,,,ニューライフ,0
1685,6011103014343,新規,0,2024-04-19,2024-04-19,ＣＳ青森三戸１合同会社,,合同会社,東京都,新宿区,西新宿２丁目１番１号新宿三井ビル４３階,,13,104,1600023,,,,,,,2024-04-19,1,,,,,シーエスアオモリサンノヘイチ,0
1687,6011201025408,新規,0,2024-04-19,2024-04-19,サンライズアートオーラル株式会社,,株式会社,東京都,中野区,丸山２丁目７番５－７０３号,,13,114,1650021,,,,,,,2024-04-19,1,,,,,サンライズアートオーラル,0
1691,6011303005134,新規,0,2024-04-19,2024-04-19,合同会社ＡＲＵ　ＣＯＲＮＥＲ,,合同会社,東京都,杉並区,阿佐谷北３丁目３１番２１号Ｔ＆Ｍライフサポート社宅１,,13,115,1660001,,,,,,,2024-04-19,1,,,,,アルコーナー,0
1692,6011501030553,新規,0,2024-04-19,2024-04-19,晨亜株式会社,,株式会社,東京都,北区,中里１丁目２１番２号中里ビル１Ｆ,,13,117,1140015,,,,,,,2024-04-19,1,,,,,シンア,0
1702,6012703002968,新規,0,2024-04-19,2024-04-19,合同会社ＳＡＩ,,合同会社,東京都,西東京市,北原町２丁目１０番３１号城西プラザ田無２０５,,13,229,1880003,,,,,,,2024-04-19,1,,,,,サイ,0
1704,6013301052380,新規,0,2024-04-19,2024-04-19,株式会社幸栄住宅リノベーション,,株式会社,東京都,豊島区,南大塚２丁目１１番１０号ミモザビル３Ｆ,,13,116,1700005,,,,,,,2024-04-19,1,,,,,コウエイジュウタクリノベーション,0
1711,6020001156767,新規,0,2024-04-19,2024-04-19,株式会社ＮｏｒｔｈＧ,,株式会社,神奈川県,横浜市港北区,新横浜２丁目５－１４ＷＩＳＥＮＥＸＴ新横浜,,14,109,2220033,,,,,,,2024-04-19,1,,,,,ノースジー,0
1712,6020001156800,新規,0,2024-04-19,2024-04-19,株式会社脱衣麻雀,,株式会社,神奈川県,横浜市鶴見区,生麦５丁目６番２－１００９号,,14,101,2300052,,,,,,,2024-04-19,1,,,,,ダツイマージャン,0
1715,6021001082020,新規,0,2024-04-19,2024-04-19,株式会社Ｔ‐ｈａｌｆ,,株式会社,神奈川県,大和市,鶴間２丁目１－２４エスポルタ８０２,,14,213,2420004,,,,,,,2024-04-19,1,,,,,ティーハーフ,0
1719,6030001159901,新規,0,2024-04-19,2024-04-19,株式会社ＰａｎｄａＨＲ　Ｃｏｎｓｕｌｔｉｎｇ,,株式会社,埼玉県,川口市,大字新井宿５５番地の３テラッツァ・ルーチェ８０２号室,,11,203,3330826,,,,,,,2024-04-19,1,,,,,パンダエイチアールコンサルティング,0
1720,6030001159950,新規,0,2024-04-19,2024-04-19,＿都通株式会社,00134477,株式会社,埼玉県,川口市,西川口１丁目３０番２０－４０７号室,,11,203,3320021,,,,,,,2024-04-19,1,,,,,ナドトン,0
1733,6030003024095,新規,0,2024-04-19,2024-04-19,Ｍ＆Ｒ合同会社,,合同会社,埼玉県,鶴ヶ島市,大字高倉１１１９番地８,,11,241,3502223,,,,,,,2024-04-19,1,,,,,エムアンドアール,0
1734,6030003024153,新規,0,2024-04-19,2024-04-19,合同会社発達サポート,,合同会社,埼玉県,川口市,南鳩ヶ谷７丁目４０番１２号,,11,203,3340013,,,,,,,2024-04-19,1,,,,,ハッタツサポート,0
1738,6040001133236,新規,0,2024-04-19,2024-04-19,株式会社オールワールド,,株式会社,千葉県,船橋市,咲が丘３丁目２７番２号,,12,204,2740807,,,,,,,2024-04-19,1,,,,,オールワールド,0
1750,6050001054621,新規,0,2024-04-19,2024-04-19,中日産業株式会社,,株式会社,茨城県,水戸市,元石川町字富士山３２５番地１９,,08,201,3100843,,,,,,,2024-04-19,1,,,,,チュウニチサンギョウ,0
1751,6050001054654,新規,0,2024-04-19,2024-04-19,株式会社ＫＩＲＩＫＥＮ,,株式会社,茨城県,水戸市,青柳町５５６番地,,08,201,3100004,,,,,,,2024-04-19,1,,,,,キリケン,0
1755,6070001041659,新規,0,2024-04-19,2024-04-19,株式会社Ｔ‐ＧＡＴＥ,,株式会社,群馬県,前橋市,駒形町１００番地３,,10,201,3792122,,,,,,,2024-04-19,1,,,,,ティーゲート,0
1764,6090001018671,新規,0,2024-04-19,2024-04-19,株式会社ピクトロジー,,株式会社,山梨県,甲斐市,龍地５２２５－６,,19,210,4000104,,,,,,,2024-04-19,1,,,,,ピクトロジー,0
1778,6120001264139,新規,0,2024-04-19,2024-04-19,建琳株式会社,,株式会社,大阪府,大阪市住吉区,大領４丁目１６－４・４０１室,,27,120,5580001,,,,,,,2024-04-19,1,,,,,ケンリン,0
1779,6120001264163,新規,0,2024-04-19,2024-04-19,株式会社ベアエステート,,株式会社,大阪府,門真市,上野口町７番１７号,,27,223,5710070,,,,,,,2024-04-19,1,,,,,ベアエステート,0
1780,6120001264171,新規,0,2024-04-19,2024-04-19,株式会社ＭＯＲＩ,,株式会社,大阪府,交野市,妙見東１丁目３番１３号,,27,230,5760012,,,,,,,2024-04-19,1,,,,,モリ,0
1789,6120101069438,新規,0,2024-04-19,2024-04-19,株式会社ｈａｐｐｉｎｅｓｓ　ｓａｉｌ,,株式会社,大阪府,和泉市,はつが野５丁目１５番９号,,27,219,5941106,,,,,,,2024-04-19,1,,,,,ハピネスセイル,0
1790,6120101069446,新規,0,2024-04-19,2024-04-19,株式会社こころ,,株式会社,大阪府,堺市中区,深井中町１２７６番地４,,27,142,5998272,,,,,,,2024-04-19,1,,,,,ココロ,0
1791,6120101069454,新規,0,2024-04-19,2024-04-19,株式会社セブンキャピタル,,株式会社,大阪府,堺市南区,新檜尾台４丁８番１号,,27,145,5900143,,,,,,,2024-04-19,1,,,,,セブンキャピタル,0
1799,6120901049044,新規,0,2024-04-19,2024-04-19,株式会社ＲＫＳ,,株式会社,大阪府,豊中市,曽根西町３丁目７－１,,27,203,5610801,,,,,,,2024-04-19,1,,,,,アールケーエス,0
1800,6120901049052,新規,0,2024-04-19,2024-04-19,株式会社ＳＯＬＥＩＬ,,株式会社,大阪府,吹田市,岸部中３丁目９６３番９さくら第三ハイツ３階３０３号室,,27,205,5640002,,,,,,,2024-04-19,1,,,,,ソレイユ,0
1806,6122003002864,新規,0,2024-04-19,2024-04-19,ＣｒｏｓｓＲａｎ合同会社,,合同会社,大阪府,大東市,川中新町１５番４０９号,,27,218,5740031,,,,,,,2024-04-19,1,,,,,クロスラン,0
1807,6130001076847,新規,0,2024-04-19,2024-04-19,リサイクルライフ株式会社,,株式会社,京都府,京都市山科区,小山谷田町４３－２０１,,26,110,6078104,,,,,,,2024-04-19,1,,,,,リサイクルライフ,0
1819,6150001027237,新規,0,2024-04-19,2024-04-19,株式会社みらいの保険サービス,,株式会社,奈良県,御所市,６９５－２,,29,208,6392200,,,,,,,2024-04-19,1,,,,,ミライノホケンサービス,0
1837,6190001031292,新規,0,2024-04-19,2024-04-19,株式会社共進,,株式会社,三重県,津市,新町２丁目５番３９号,,24,201,5140042,,,,,,,2024-04-19,1,,,,,キョウシン,0
1839,6200001042420,新規,0,2024-04-19,2024-04-19,川辺工業株式会社,,株式会社,岐阜県,岐阜市,柳津町下佐波西１丁目８４番地,,21,201,5016121,,,,,,,2024-04-19,1,,,,,カワベコウギョウ,0
1842,6210001019731,新規,0,2024-04-19,2024-04-19,株式会社Ｋ‐ｐｌｕｓ,,株式会社,福井県,福井市,八重巻東町１４の９番地,,18,201,9100157,,,,,,,2024-04-19,1,,,,,ケープラス,0
1852,6260001038958,新規,0,2024-04-19,2024-04-19,株式会社虹橋商事,,株式会社,岡山県,岡山市南区,藤田６５３番地３８（３Ｆ）,,33,104,7010221,,,,,,,2024-04-19,1,,,,,コウキョウショウジ,0
1864,6290001105425,新規,0,2024-04-19,2024-04-19,株式会社オフライン,,株式会社,福岡県,福岡市博多区,住吉５丁目２３－１３ＦＡＩＴＨ住吉１０２,,40,132,8120018,,,,,,,2024-04-19,1,,,,,オフライン,0
1865,6290001105573,新規,0,2024-04-19,2024-04-19,株式会社ＣＯＵＲＡＧＥ,,株式会社,福岡県,春日市,ちくし台２丁目６４番地,,40,218,8160822,,,,,,,2024-04-19,1,,,,,カレッジ,0
1872,6310005008761,新規,0,2024-04-19,2024-04-19,アジア人材活用協同組合,,その他の設立登記法人,長崎県,長崎市,晴海台町２番地９,,42,201,8510402,,,,,,,2024-04-19,1,,,,,アジアジンザイカツヨウ,0
1874,6330001031963,新規,0,2024-04-19,2024-04-19,株式会社ケアコネクト丸,,株式会社,熊本県,熊本市北区,八景水谷３丁目４番４７－２号,,43,105,8618064,,,,,,,2024-04-19,1,,,,,ケアコネクトマル,0
1878,6340001026450,新規,0,2024-04-19,2024-04-19,ＳＳＴ機工株式会社,,株式会社,鹿児島県,鹿児島市,南栄２丁目１番地１,,46,201,8910122,,,,,,,2024-04-19,1,,,,,エスエスティーキコウ,0
1902,6400003003251,新規,0,2024-04-19,2024-04-19,ケーズイノ合同会社,,合同会社,岩手県,盛岡市,上田３丁目３番２８号エヌハイム３－１０２号,,03,201,0200066,,,,,,,2024-04-19,1,,,,,ケーズイノ,0
1908,6420005007901,新規,0,2024-04-19,2024-04-19,協同組合マルチワーカージョブステーション鰺ヶ沢,,その他の設立登記法人,青森県,西津軽郡鰺ヶ沢町,大字建石町字餅ノ沢２４番地５,,02,321,0382702,,,,,,,2024-04-19,1,,,,,マルチワーカージョブステーションアジガサワ,0
1915,6430001091601,新規,0,2024-04-19,2024-04-19,株式会社スマイルライフ,,株式会社,北海道,札幌市中央区,北二条西１３丁目１－１０札幌第一会計ビル,,01,101,0600002,,,,,,,2024-04-19,1,,,,,スマイルライフ,0
1917,6450001014295,新規,0,2024-04-19,2024-04-19,株式会社ハピネスＷＯＯＤ‐ＢＡＮＫ,,株式会社,北海道,旭川市,忠和七条１丁目１番５号,,01,204,0708047,,,,,,,2024-04-19,1,,,,,ハピネスウッドバンク,0
1922,6700150124968,新規,0,2024-04-19,2024-04-19,ＧｕａｎｇＺｈｏｕ　ＱｉａｏＭｅｉ　ＤｉａｎＺｉ　ＳｈａｎｇＷｕ　ＹｏｕＸｉａｎ　ＧｏｎｇＳｉ,,外国会社等,,,,,,,,ＧｕａｎｇＺｈｏｕＳｈｉＴｉａｎＨｅＱｕＨｅＧｕａｎｇＬｕ１３７ｈａｏ１０３ｆａｎｇＥ１１９９ｈａｏ,,,,,,2024-04-19,1,,,,,コウシュウチャオメイデンシショウムユウゲンンコウシ,0
1923,6700150124976,新規,0,2024-04-19,2024-04-19,Ｑｕａｎｚｈｏｕ　Ｓｈｅｎｇｒｉ　Ｔｒａｄｉｎｇ　Ｃｏ．，Ｌｔｄ,,外国会社等,,,,,,,,Ｒｏｏｍ　１５０２，Ｂｕｉｌｄｉｎｇ　４，Ｂａｏｘｉｕ　Ｐｈａｓｅ　ＩＩ，Ｎｏ．２０　Ｔｏｎｇｇａｎｇ　Ｗｅｓｔ　Ｓｔｒｅｅｔ，Ｂａｏｓｈａｎ　Ｃｏｍｍｕｎｉｔｙ，Ｄｏｎｇｈａｉ　Ｓｔｒｅｅｔ，Ｆｅｎｇｚｅ　Ｄｉｓｔｒｉｃｔ，Ｑｕａｎｚｈｏｕ　Ｃｉｔｙ，Ｆｕｊｉａｎ　Ｐｒｏｖｉｎｃｅ,00134396,,,,,2024-04-19,1,,,,,チュエンジョウシーションリーマオイーヨウシエンゴンスー,0
1924,6700150124984,新規,0,2024-04-19,2024-04-19,ｗｕｈａｎｓｈｉｆｕｌｉｎｇｋｅｊｉ　ｙｏｕｘｉａｎｇｏｎｇｓｉ,,外国会社等,,,,,,,,ｈｕｂｅｉｓｈｅｎｇｗｕｈａｎｓｈｉｗｕｃｈａｎｇｑｕｚｈｏｎｇｓｈａｎｌｕ２５４ｈａｏ４－９ｄｏｎｇ　ｊｉａｎｂｉｎｇｊｉａｎｆｕｈｕａｑｉＢ１３ｈａｏ,,,,,,2024-04-19,1,,,,,ブカンシフリンカギユウゲンコウシ,0
1936,7010001244076,新規,0,2024-04-19,2024-04-19,株式会社東京中央経営ホールディングス,,株式会社,東京都,中央区,日本橋１丁目２－１０東洋ビル７階,,13,102,1030027,,,,,,,2024-04-19,1,,,,,トウキョウチュウオウケイエイホールディングス,0
1937,7010001244159,新規,0,2024-04-19,2024-04-19,株式会社エンゼルホテルズ,,株式会社,東京都,千代田区,有楽町２丁目１０番１号,,13,101,1000006,,,,,,,2024-04-19,1,,,,,エンゼルホテルズ,0
1939,7010003043501,新規,0,2024-04-19,2024-04-19,合同会社Ｓｏｎｇｒｉｖｅｒ,,合同会社,東京都,千代田区,神田多町２丁目１番地神田東山ビル７Ｆ・８Ｆ,,13,101,1010046,,,,,,,2024-04-19,1,,,,,ソングリバー,0
1940,7010003043526,新規,0,2024-04-19,2024-04-19,合同会社鮨直樹,,合同会社,東京都,中央区,勝どき２丁目５番１‐４０１号,,13,102,1040054,,,,,,,2024-04-19,1,,,,,スシナオキ,0
1951,7010401181943,新規,0,2024-04-19,2024-04-19,株式会社ＥＡＴ,,株式会社,東京都,港区,白金１丁目２番１－Ｅ１７２２号,,13,103,1080072,,,,,,,2024-04-19,1,,,,,イート,0
1957,7010603010768,新規,0,2024-04-19,2024-04-19,合同会社十五八,,合同会社,東京都,墨田区,石原２丁目２番２号,,13,107,1300011,,,,,,,2024-04-19,1,,,,,ジュウゴヤ,0
1975,7011001161402,新規,0,2024-04-19,2024-04-19,株式会社イノセントコミュニケーションズ,,株式会社,東京都,渋谷区,南平台町１６番２８号,,13,113,1500036,,,,,,,2024-04-19,1,,,,,イノセントコミュニケーションズ,0
1976,7011001161410,新規,0,2024-04-19,2024-04-19,株式会社フリーロンリ,,株式会社,東京都,渋谷区,桜丘町１８－４二宮ビル１Ｆ－４７,,13,113,1500031,,,,,,,2024-04-19,1,,,,,フリーロンリ,0
1977,7011001161419,新規,0,2024-04-19,2024-04-19,Ｖｉｓｉｏｎ　Ｂａｓｅ株式会社,,株式会社,東京都,渋谷区,千駄ヶ谷３丁目５番１５号ＡＮＱＩ原宿,,13,113,1510051,,,,,,,2024-04-19,1,,,,,ビジョンベース,0
1978,7011001161435,新規,0,2024-04-19,2024-04-19,株式会社Ｕ．ＭＩ,,株式会社,東京都,渋谷区,道玄坂１丁目１０番８号渋谷道玄坂東急ビル２Ｆ－Ｃ,,13,113,1500043,,,,,,,2024-04-19,1,,,,,ユーミー,0
1979,7011001161451,新規,0,2024-04-19,2024-04-19,株式会社Ｄｏｔ＆．ドットアンド,,株式会社,東京都,渋谷区,恵比寿３丁目７－２,,13,113,1500013,,,,,,,2024-04-19,1,,,,,ドットアンド,0
1980,7011003018963,新規,0,2024-04-19,2024-04-19,ＯＭＧサービス合同会社,,合同会社,東京都,目黒区,下目黒１丁目１番１４号コノトラビル７Ｆ,,13,110,1530064,,,,,,,2024-04-19,1,,,,,オーエムジーサービス,0
1983,7011101107040,新規,0,2024-04-19,2024-04-19,株式会社グッドマイロカンパニー,,株式会社,東京都,新宿区,新宿２丁目１５番１号秋葉ビル３０１,,13,104,1600022,,,,,,,2024-04-19,1,,,,,グッドマイロカンパニー,0
1984,7011103014342,新規,0,2024-04-19,2024-04-19,合同会社ＰｈｙｚＣｈｅｍｉｘ,,合同会社,東京都,新宿区,筑土八幡町２番１１号,,13,104,1620815,,,,,,,2024-04-19,1,,,,,フィズケミックス,0
1989,7011501030569,新規,0,2024-04-19,2024-04-19,株式会社まちなみ,,株式会社,東京都,荒川区,南千住１丁目２８番８号,,13,118,1160003,,,,,,,2024-04-19,1,,,,,マチナミ,0
1992,7011801044095,新規,0,2024-04-19,2024-04-19,東洋商事株式会社,,株式会社,東京都,葛飾区,立石１丁目５番６号コーポ立石３０１号,,13,122,1240012,,,,,,,2024-04-19,1,,,,,トウヨウショウジ,0
1993,7011801044104,新規,0,2024-04-19,2024-04-19,株式会社Ａｔｒａｖｅｓｓａ,,株式会社,東京都,足立区,綾瀬１丁目３１番地８ｊｏｕｒｅｓｔＡｙａｓｅ５０１,,13,121,1200005,,,,,,,2024-04-19,1,,,,,アトラヴェッサ,0
1995,7011803006192,新規,0,2024-04-19,2024-04-19,合同会社ＳＯＶＡ,,合同会社,東京都,葛飾区,亀有５丁目５番１４号ホワイトコート１０２,,13,122,1250061,,,,,,,2024-04-19,1,,,,,ソーヴァ,0
1997,7012301013879,新規,0,2024-04-19,2024-04-19,三伍新能源株式会社,,株式会社,東京都,町田市,金森東１丁目２７番１号,,13,209,1940015,,,,,,,2024-04-19,1,,,,,ミツクミシンノウゲン,0
2007,7020001156808,新規,0,2024-04-19,2024-04-19,リオーシア株式会社,,株式会社,神奈川県,横浜市鶴見区,朝日町２丁目７０番地８,,14,101,2300033,,,,,,,2024-04-19,1,,,,,リオーシア,0
2017,7021001081987,新規,0,2024-04-19,2024-04-19,株式会社セールスアンドナレッジソリューション,,株式会社,神奈川県,茅ヶ崎市,菱沼１丁目９番１９－２号,,14,207,2530011,,,,,,,2024-04-19,1,,,,,セールスアンドナレッジソリューション,0
2018,7021001082036,新規,0,2024-04-19,2024-04-19,Ｗａｎ　Ｌｉｆｅ不動産株式会社,,株式会社,神奈川県,茅ヶ崎市,東海岸北５丁目１５番１０号１Ｆ,,14,207,2530053,,,,,,,2024-04-19,1,,,,,ワンライフフドウサン,0
2021,7021003014400,新規,0,2024-04-19,2024-04-19,合同会社ＮＳＫ,,合同会社,神奈川県,厚木市,森の里４丁目１５－８,,14,212,2430122,,,,,,,2024-04-19,1,,,,,エヌエスケー,0
2035,7030001159834,新規,0,2024-04-19,2024-04-19,株式会社ミスミア,,株式会社,埼玉県,上尾市,大字原市１３４８番地,,11,219,3620021,,,,,,,2024-04-19,1,,,,,ミスミア,0
2036,7030001159917,新規,0,2024-04-19,2024-04-19,優信産業株式会社,,株式会社,埼玉県,八潮市,大字大原６３２番地１,,11,234,3400825,,,,,,,2024-04-19,1,,,,,ユウシンサンギョウ,0
2043,7030003024136,新規,0,2024-04-19,2024-04-19,合同会社卯月裕貴建築設計事務所,,合同会社,埼玉県,鴻巣市,滝馬室６６２,,11,217,3650044,,,,,,,2024-04-19,1,,,,,ウヅキヒロタカケンチクセッケイジムショ,0
2051,7040001133227,新規,0,2024-04-19,2024-04-19,株式会社ＳＥＡＣＲＥＳＴ,,株式会社,千葉県,木更津市,中里２丁目６番３号,,12,206,2920064,,,,,,,2024-04-19,1,,,,,シークレスト,0
2052,7040001133235,新規,0,2024-04-19,2024-04-19,株式会社ＬｉＮＣ,,株式会社,千葉県,千葉市稲毛区,稲毛東３丁目７番４号稲毛ビル３階,,12,103,2630031,,,,,,,2024-04-19,1,,,,,リンク,0
2054,7040003024829,新規,0,2024-04-19,2024-04-19,合同会社ＤＳＫ,,合同会社,千葉県,船橋市,新高根５丁目４番１６号タントミール１０３号,,12,204,2740814,,,,,,,2024-04-19,1,,,,,ディーエスケー,0
2055,7040003024837,新規,0,2024-04-19,2024-04-19,合同会社ＰＨＡＮＴＯＭ,,合同会社,千葉県,浦安市,堀江５丁目８番２１－３０５号ルミエール司,,12,227,2790041,,,,,,,2024-04-19,1,,,,,ファントム,0
2058,7050001054645,新規,0,2024-04-19,2024-04-19,株式会社ＥＡＮＤＫ,,株式会社,茨城県,土浦市,右籾２９３５番地２,,08,203,3000837,,,,,,,2024-04-19,1,,,,,イーアンドケー,0
2059,7050003008302,新規,0,2024-04-19,2024-04-19,ＪＲ　ＳＨＯＫＡＩ合同会社,,合同会社,茨城県,古河市,仁連２２１９番地４,,08,204,3060125,,,,,,,2024-04-19,1,,,,,ジェーアールショウカイ,0
2064,7070003005339,新規,0,2024-04-19,2024-04-19,ＡＳ　Ｔｒａｄｉｎｇ合同会社,,合同会社,群馬県,太田市,西本町４４－２３ウイング６、１０１,,10,205,3730033,,,,,,,2024-04-19,1,,,,,エーエストレーディング,0
2068,7080103003043,新規,0,2024-04-19,2024-04-19,合同会社はなまる,,合同会社,静岡県,富士宮市,宮原４２－８,,22,207,4180005,,,,,,,2024-04-19,1,,,,,ハナマル,0
2069,7080105006424,新規,0,2024-04-19,2024-04-19,一般社団法人スフィア,,その他の設立登記法人,静岡県,富士市,鮫島３１７番地の１,,22,210,4160934,,,,,,,2024-04-19,1,,,,,スフィア,0
2071,7090001018670,新規,0,2024-04-19,2024-04-19,株式会社Ｃ＆Ｂ,,株式会社,山梨県,甲府市,中央４丁目３番２０号,,19,201,4000032,,,,,,,2024-04-19,1,,,,,シーアンドビー,0
2087,7120001264055,新規,0,2024-04-19,2024-04-19,ＹＥＭＯ株式会社,,株式会社,大阪府,交野市,森北１丁目３７番１２号香里プラザＶＩＩ３０２号室,00134484,27,230,5760036,,,,,,,2024-04-19,1,,,,,イェモ,0
2088,7120001264113,新規,0,2024-04-19,2024-04-19,株式会社ナカタ,,株式会社,大阪府,大阪市中央区,島之内１丁目４番２５－３０３号,,27,128,5420082,,,,,,,2024-04-19,1,,,,,ナカタ,0
2089,7120001264146,新規,0,2024-04-19,2024-04-19,株式会社サントラスト,,株式会社,大阪府,大阪市福島区,福島６丁目１３番７号,,27,103,5530003,,,,,,,2024-04-19,1,,,,,サントラスト,0
2090,7120001264154,新規,0,2024-04-19,2024-04-19,株式会社ＯＮＥ　ＴＡＫＥ,,株式会社,大阪府,大阪市生野区,中川東２丁目１８番２２－１２０５号,,27,116,5440006,,,,,,,2024-04-19,1,,,,,ワンテイク,0
2091,7120001264162,新規,0,2024-04-19,2024-04-19,バリューヘルス株式会社,,株式会社,大阪府,大阪市阿倍野区,阿倍野筋４丁目９番１４号,,27,119,5450052,,,,,,,2024-04-19,1,,,,,バリューヘルス,0
2092,7120003026362,新規,0,2024-04-19,2024-04-19,合同会社総合コンサル,,合同会社,大阪府,大阪市中央区,上町１丁目１８番１６－５０１号,,27,128,5400005,,,,,,,2024-04-19,1,,,,,ソウゴウコンサル,0
2093,7120003026387,新規,0,2024-04-19,2024-04-19,ララアソシエーション合同会社,,合同会社,大阪府,大阪市天王寺区,上汐３丁目４番１５－３０４号,,27,109,5430002,,,,,,,2024-04-19,1,,,,,ララアソシエーション,0
2094,7120003026395,新規,0,2024-04-19,2024-04-19,合同会社前田電機製作所,,合同会社,大阪府,大阪市西淀川区,花川１丁目１１番１４号,,27,113,5550023,,,,,,,2024-04-19,1,,,,,マエダデンキセイサクショ,0
2095,7120003026404,新規,0,2024-04-19,2024-04-19,シグマリンクス合同会社,,合同会社,大阪府,交野市,倉治３丁目１－１５－３０３,,27,230,5760051,,,,,,,2024-04-19,1,,,,,シグマリンクス,0
2099,7120101069453,新規,0,2024-04-19,2024-04-19,株式会社リコマ,,株式会社,大阪府,堺市堺区,出島町２丁７番５１号,,27,141,5900834,,,,,,,2024-04-19,1,,,,,リコマ,0
2105,7120903005135,新規,0,2024-04-19,2024-04-19,合同会社ライズ,,合同会社,大阪府,豊中市,旭丘１０番２６号,,27,203,5610865,,,,,,,2024-04-19,1,,,,,ライズ,0
2106,7122001038026,新規,0,2024-04-19,2024-04-19,ＡＬＰＨＡ　ＰＬＵＳ株式会社,,株式会社,大阪府,八尾市,桂町５丁目２番６号,,27,212,5810823,,,,,,,2024-04-19,1,,,,,アルファプラス,0
2110,7130001076854,新規,0,2024-04-19,2024-04-19,株式会社ＫＥＬＬＹ,,株式会社,京都府,長岡京市,神足３丁目６番１２号,,26,209,6170833,,,,,,,2024-04-19,1,,,,,ケリー,0
2124,7140003020454,新規,0,2024-04-19,2024-04-19,合同会社田端,,合同会社,兵庫県,西宮市,戸田町５－３４レファインド西宮３０１,,28,204,6620916,,,,,,,2024-04-19,1,,,,,タバタ,0
2130,7150001027228,新規,0,2024-04-19,2024-04-19,株式会社定食製作所,,株式会社,奈良県,奈良市,押熊町１１３０－４新田ビル２Ｆ,,29,201,6310011,,,,,,,2024-04-19,1,,,,,テイショクセイサクショ,0
2132,7170003002029,新規,0,2024-04-19,2024-04-19,合同会社Ａｖｅｎｉｒ,,合同会社,和歌山県,和歌山市,加納１８２番地１０メゾンフェリス２０３号,,30,201,6408391,,,,,,,2024-04-19,1,,,,,アヴニール,0
2139,7180001161032,新規,0,2024-04-19,2024-04-19,日月山水株式会社,,株式会社,愛知県,名古屋市熱田区,神宮４丁目１番２１号メゾン神宮１０２,,23,109,4560031,,,,,,,2024-04-19,1,,,,,ジツゲツサンスイ,0
2140,7180001161040,新規,0,2024-04-19,2024-04-19,Ｍｓｏｎｓ株式会社,,株式会社,愛知県,豊明市,阿野町上納４８番地２,,23,229,4701143,,,,,,,2024-04-19,1,,,,,エムソンズ,0
2141,7180001161081,新規,0,2024-04-19,2024-04-19,株式会社名古屋行政科学研究所,,株式会社,愛知県,名古屋市緑区,元徳重２丁目１３８番地の３,,23,114,4580852,,,,,,,2024-04-19,1,,,,,ナゴヤギョウセイカガクケンキュウジョ,0
2142,7180001161115,新規,0,2024-04-19,2024-04-19,株式会社剛建,,株式会社,愛知県,半田市,緑ケ丘８丁目２０番,,23,205,4750002,,,,,,,2024-04-19,1,,,,,コウケン,0
2153,7190001031291,新規,0,2024-04-19,2024-04-19,株式会社ルミナウィズ,,株式会社,三重県,四日市市,堀木２丁目１番１号,,24,202,5100076,,,,,,,2024-04-19,1,,,,,ルミナウィズ,0
2156,7210001019730,新規,0,2024-04-19,2024-04-19,株式会社ＮＥＯ,,株式会社,福井県,敦賀市,原１号１２番地,,18,202,9140824,,,,,,,2024-04-19,1,,,,,ネオ,0
2164,7240003006633,新規,0,2024-04-19,2024-04-19,合同会社千石工業,,合同会社,広島県,福山市,大門町６丁目２番３０号Ｄ１０１,,34,207,7210926,,,,,,,2024-04-19,1,,,,,センゴクコウギョウ,0
2181,7290003015183,新規,0,2024-04-19,2024-04-19,ＨＡＲＵＭＩ合同会社,,合同会社,福岡県,福岡市西区,福重５丁目２４番３６－１０１号,,40,135,8190022,,,,,,,2024-04-19,1,,,,,ハルミ,0
2187,7310003004778,新規,0,2024-04-19,2024-04-19,合同会社冷熱テクノ,,合同会社,長崎県,諫早市,小野町１１００番地２４,,42,204,8540034,,,,,,,2024-04-19,1,,,,,レイネツテクノ,0
2193,7350003004626,新規,0,2024-04-19,2024-04-19,合同会社ＨａｐｐｙＬｉｆｅＰｒｏｊｅｃｔ,,合同会社,宮崎県,宮崎市,清武町今泉丙２０３４番地７８,,45,201,8891602,,,,,,,2024-04-19,1,,,,,ハッピーライフプロジェクト,0
2219,7430001091600,新規,0,2024-04-19,2024-04-19,株式会社ドゥーテック,,株式会社,北海道,札幌市中央区,北五条西６丁目１番地２３,,01,101,0600005,,,,,,,2024-04-19,1,,,,,ドゥーテック,0
2220,7430003016233,新規,0,2024-04-19,2024-04-19,合同会社岩原事務所,,合同会社,北海道,札幌市中央区,南一条東２丁目１１番地１ノーザンヒルズ大通東５０１号,,01,101,0600051,,,,,,,2024-04-19,1,,,,,イワハラジムショ,0
2231,7470001020159,新規,0,2024-04-19,2024-04-19,株式会社裕健総業,,株式会社,香川県,丸亀市,富士見町２丁目９番５号,,37,202,7630011,,,,,,,2024-04-19,1,,,,,ユウケンソウギョウ,0
2235,7470003002634,新規,0,2024-04-19,2024-04-19,合同会社Ｋ,,合同会社,香川県,東かがわ市,中筋２２４番地４,,37,207,7692605,,,,,,,2024-04-19,1,,,,,ケイ,0
2243,7700150124967,新規,0,2024-04-19,2024-04-19,ｓｈｅｎｚｈｅｎｓｈｉｘｉｎｇｈｕｏｙｕａｎｍａｏｙｉｙｏｕｘｉａｎｇｏｎｇｓｉ,,外国会社等,,,,,,,,ｓｈｅｎｚｈｅｎｓｈｉｌｏｎｇｈｕａｑｕｄａｌａｎｇｊｉｅｄａｏｔａｏｙｕａｎｓｈｅｑｕｙａｎｇｌｏｎｇｘｉｎｃｕｎ５４ｈａｏ４ｃｅｎｇｈｕｉｊｕｄａｓｈａ４０９,,,,,,2024-04-19,1,,,,,シンセンシシンホウユェンマオイユウゲンコウシ,0
2244,7700150124975,新規,0,2024-04-19,2024-04-19,ＳｈａｎｇＨａｉＹｉＪｕｎＺｉＤｏｎｇＨｕａＫｅＪｉＹｏｕＸｉａｎＧｏｎｇＳｉ,,外国会社等,,,,,,,,Ｚｈｕ　Ｊｉａ　Ｊｉａｏ　Ｚｈｅｎ　Ｋａｎｇ　Ｙｅ　Ｌｕ　９０１　Ｎｏｎｇ　９８　Ｈａｏ　２　Ｃｅｎｇ　Ｃ　Ｑｕ　２２０　Ｓｈｉ　Ｑｉｎｇ　Ｐｕ　Ｑｕ　Ｓｈａｎｇ　Ｈａｉ　２０１７１３　ＣＮ,,,,,,2024-04-19,1,,,,,シャンハイイージンズードンフワーコージーヨウシエンゴンスー,0
2245,7700150124983,新規,0,2024-04-19,2024-04-19,ｗｕｈａｎｓｈｉｘｉｙｉｓｈａｎｇｍａｏ　ｙｏｕｘｉａｎｇｏｎｇｓｉ,,外国会社等,,,,,,,,ｈｕｂｅｉｓｈｅｎｇｗｕｈａｎｓｈｉｗｕｃｈａｎｇｑｕｚｈｏｎｇｎａｎｄａｓｈａ（ｚｈｏｎｇｎａｎｌｕ８０ｈａｏ）　３ｄａｎｙｕａｎ１５ｃｅｎｇ１－２５ｓｈｉ３４６ｈａｏ,,,,,,2024-04-19,1,,,,,ブカンシシイシャンマオユウゲンコウシ,0
2258,8010005038218,新規,0,2024-04-19,2024-04-19,一般社団法人Ｊａｐａｎ‐Ｒｏｍａｎｉａ　Ｂｕｓｉｎｅｓｓ　Ｃｏｍｍｉｔｔｅｅ,,その他の設立登記法人,東京都,中央区,日本橋兜町１５番１２号兜町ＭＯＣビル７Ｆ,,13,102,1030026,,,,,,,2024-04-19,1,,,,,ジャパンルーマニアビジネスコミッティ,0
2277,8010401181918,新規,0,2024-04-19,2024-04-19,ＵＦＯ株式会社,,株式会社,東京都,港区,赤坂２丁目８番１４－４０７号,,13,103,1070052,,,,,,,2024-04-19,1,,,,,ユーエフオー,0
2279,8010403032458,新規,0,2024-04-19,2024-04-19,ｏｎｉｏｎ合同会社,,合同会社,東京都,港区,南青山３丁目１番３６号青山丸竹ビル６Ｆ,,13,103,1070062,,,,,,,2024-04-19,1,,,,,オニオン,0
2282,8010501052036,新規,0,2024-04-19,2024-04-19,麦拓株式会社,,株式会社,東京都,台東区,東上野３丁目１８－１,,13,106,1100015,,,,,,,2024-04-19,1,,,,,ムギタク,0
2286,8010601065029,新規,0,2024-04-19,2024-04-19,株式会社エイドワークス,,株式会社,東京都,江東区,大島８丁目２８番２４号,,13,108,1360072,,,,,,,2024-04-19,1,,,,,エイドワークス,0
2287,8010601065037,新規,0,2024-04-19,2024-04-19,株式会社ｇｒａｖｉｔｏｎ　ｄｉｇｉｔａｌ,,株式会社,東京都,江東区,東砂３丁目１６番７－１１０１号,,13,108,1360074,,,,,,,2024-04-19,1,,,,,グラビトンデジタル,0
2288,8010603010783,新規,0,2024-04-19,2024-04-19,合同会社Ｍｅｌｉａ,,合同会社,東京都,江東区,豊洲４丁目１１番２５‐５０６号,,13,108,1350061,,,,,,,2024-04-19,1,,,,,メリア,0
2300,8011001161145,新規,0,2024-04-19,2024-04-19,ＱＴＳ株式会社,,株式会社,東京都,渋谷区,恵比寿１丁目１９番１９号,,13,113,1500013,,,,,,,2024-04-19,1,,,,,キューティーエス,0
2301,8011001161418,新規,0,2024-04-19,2024-04-19,ＤｅｅｐＨｕｂ株式会社,,株式会社,東京都,渋谷区,渋谷２丁目１９－１５宮益坂ビルディング６０９,,13,113,1500002,,,,,,,2024-04-19,1,,,,,ディープハブ,0
2302,8011001161442,新規,0,2024-04-19,2024-04-19,株式会社カッタツ,,株式会社,東京都,渋谷区,元代々木町４５－１ヒューリックコート元代々木３１０,,13,113,1510062,,,,,,,2024-04-19,1,,,,,カッタツ,0
2303,8011001161450,新規,0,2024-04-19,2024-04-19,Ｔｅｖａｎａ株式会社,,株式会社,東京都,渋谷区,恵比寿４丁目６番１０号,,13,113,1500013,,,,,,,2024-04-19,1,,,,,タベナ,0
2304,8011001161500,新規,0,2024-04-19,2024-04-19,株式会社ＤＳ　ＴＥＫ,,株式会社,東京都,渋谷区,代々木４丁目１５番２１号,,13,113,1510053,,,,,,,2024-04-19,1,,,,,ディーエステック,0
2305,8011001161533,新規,0,2024-04-19,2024-04-19,ＲＥＣＬＡＰ株式会社,,株式会社,東京都,渋谷区,本町３丁目４８‐５Ｕ‐ＭＡ‐ＦＬＡＴ,,13,113,1510071,,,,,,,2024-04-19,1,,,,,リクラップ,0
2307,8011003018962,新規,0,2024-04-19,2024-04-19,合同会社モービルアセットプランナーズ,,合同会社,東京都,渋谷区,円山町５番５号Ｎａｖｉ渋谷Ｖ３階,,13,113,1500044,,,,,,,2024-04-19,1,,,,,モービルアセットプランナーズ,0
2308,8011003018979,新規,0,2024-04-19,2024-04-19,合同会社ＫＭＫＷ,,合同会社,東京都,渋谷区,神宮前６丁目２３番４号桑野ビル２階,,13,113,1500001,,,,,,,2024-04-19,1,,,,,ケーエムケーダブル,0
2316,8011203004358,新規,0,2024-04-19,2024-04-19,合同会社Ｌｉｎｋｓ,,合同会社,東京都,中野区,東中野２丁目１２番１８号フェリスバニラ２０４,,13,114,1640003,,,,,,,2024-04-19,1,,,,,リンクス,0
2317,8011301029587,新規,0,2024-04-19,2024-04-19,元力長寿株式会社,,株式会社,東京都,杉並区,成田西２丁目１番１１号Ｃ号棟,,13,115,1660016,,,,,,,2024-04-19,1,,,,,ゲンリキチョウジュ,0
2320,8011503006013,新規,0,2024-04-19,2024-04-19,鴻運商事合同会社,,合同会社,東京都,北区,田端新町２丁目１－１３弓長ビル２０２号,,13,117,1140012,,,,,,,2024-04-19,1,,,,,コウウンショウジ,0
2333,8011801044103,新規,0,2024-04-19,2024-04-19,文章よくなる株式会社,,株式会社,東京都,葛飾区,高砂８丁目４番２号３０１,,13,122,1250054,,,,,,,2024-04-19,1,,,,,ブンショウヨクナル,0
2334,8011801044111,新規,0,2024-04-19,2024-04-19,３４’Ｓ株式会社,,株式会社,東京都,足立区,梅田５丁目２７番５－５１５号,,13,121,1230851,,,,,,,2024-04-19,1,,,,,スリーフォーズ,0
2342,8013301052395,新規,0,2024-04-19,2024-04-19,株式会社ＡＬ　ＥＬＭＡＳ,,株式会社,東京都,豊島区,雑司が谷３丁目１番３－１０１号,,13,116,1710032,,,,,,,2024-04-19,1,,,,,アルエルマス,0
2343,8013303007100,新規,0,2024-04-19,2024-04-19,合同会社幸,,合同会社,東京都,豊島区,西池袋４丁目３９番９－９０８号,,13,116,1710021,,,,,,,2024-04-19,1,,,,,コウ,0
2350,8020003025968,新規,0,2024-04-19,2024-04-19,合同会社郷上雑貨店,,合同会社,神奈川県,横浜市戸塚区,戸塚町２７４８－２０５,,14,110,2440003,,,,,,,2024-04-19,1,,,,,サトウエザッカテン,0
2357,8021003014399,新規,0,2024-04-19,2024-04-19,車両ジャッパン合同会社,,合同会社,神奈川県,厚木市,戸室１丁目７番２７号小林荘１０２号,,14,212,2430031,,,,,,,2024-04-19,1,,,,,シャリョウジャッパン,0
2358,8021003014424,新規,0,2024-04-19,2024-04-19,あゆた合同会社,,合同会社,神奈川県,小田原市,栄町１丁目１７番地３２号パリービル３階,,14,206,2500011,,,,,,,2024-04-19,1,,,,,アユタ,0
2364,8030001159882,新規,0,2024-04-19,2024-04-19,新樹産業株式会社,,株式会社,埼玉県,草加市,草加２丁目１３番２１－７号,,11,221,3400043,,,,,,,2024-04-19,1,,,,,,0
2371,8040001133226,新規,0,2024-04-19,2024-04-19,株式会社ＪＳＣ,,株式会社,千葉県,成田市,西三里塚１番地６７（２Ｆ）,,12,211,2860115,,,,,,,2024-04-19,1,,,,,ジェイエスシー,0
2372,8040001133234,新規,0,2024-04-19,2024-04-19,ＰＡＲＷＡＮＩ株式会社,,株式会社,千葉県,八街市,東吉田５６７番地２グリーンハイツ１０２,,12,230,2891114,,,,,,,2024-04-19,1,,,,,パルワニ,0
2373,8040001133267,新規,0,2024-04-19,2024-04-19,Ｒ．Ｖ．Ｔｒａｄｉｎｇ株式会社,,株式会社,千葉県,鎌ケ谷市,中沢３７５－２,,12,224,2730118,,,,,,,2024-04-19,1,,,,,アールブイトレーディング,0
2376,8040003024828,新規,0,2024-04-19,2024-04-19,合同会社Ｈ＆Ｙ　ＣＯＭＰＡＮＹ,,合同会社,千葉県,千葉市中央区,今井１丁目５番２７号,,12,101,2600834,,,,,,,2024-04-19,1,,,,,エイチアンドワイカンパニー,0
2380,8050001054636,新規,0,2024-04-19,2024-04-19,スルタンインターナショナルトレーディング株式会社,,株式会社,茨城県,常総市,馬場４４１番地８,,08,211,3002748,,,,,,,2024-04-19,1,,,,,スルタンインターナショナルトレーディング,0
2388,8080403004995,新規,0,2024-04-19,2024-04-19,ＵＳＨ合同会社,,合同会社,静岡県,浜松市中央区,肴町３１８番地の２６ミュゼ肴町５階,,22,138,4300932,,,,,,,2024-04-19,1,,,,,アッシュ,0
2390,8110001038343,新規,0,2024-04-19,2024-04-19,新幸国際貿易株式会社,,株式会社,新潟県,新潟市中央区,南笹口１丁目９番１２号メゾン・ド・ラルジュ３０２号,,15,103,9500912,,,,,,,2024-04-19,1,,,,,シンコウコクサイボウエキ,0
2391,8110001038351,新規,0,2024-04-19,2024-04-19,シンワクラフトホールディングス株式会社,,株式会社,新潟県,新潟市西区,的場流通１丁目３番地１７,,15,107,9502032,,,,,,,2024-04-19,1,,,,,シンワクラフトホールディングス,0
2402,8120001264137,新規,0,2024-04-19,2024-04-19,株式会社ＣＯＬＯＲ　Ｐｒｏｐｅｒｔｙ,,株式会社,大阪府,大阪市中央区,今橋２丁目４番１０号,,27,128,5410042,,,,,,,2024-04-19,1,,,,,カラープロパティ,0
2403,8120001264153,新規,0,2024-04-19,2024-04-19,株式会社トリノヴァ,,株式会社,大阪府,大阪市淀川区,野中北１丁目１３番２－７０６号,,27,123,5320034,,,,,,,2024-04-19,1,,,,,トリノヴァ,0
2404,8120001264161,新規,0,2024-04-19,2024-04-19,株式会社Ｕｄａｍａオールトレードワークス,,株式会社,大阪府,大阪市生野区,勝山北４丁目１番５５号,,27,116,5440033,,,,,,,2024-04-19,1,,,,,ウダマオールトレードワークス,0
2408,8120003026403,新規,0,2024-04-19,2024-04-19,合同会社ツクヨミ,,合同会社,大阪府,大阪市東住吉区,湯里１丁目１３番２号,,27,121,5460013,,,,,,,2024-04-19,1,,,,,ツクヨミ,0
2409,8120005024289,新規,0,2024-04-19,2024-04-19,一般社団法人３６９,,その他の設立登記法人,大阪府,門真市,深田町１番２３－２０７号,,27,223,5710042,,,,,,,2024-04-19,1,,,,,ミロク,0
2410,8120101069460,新規,0,2024-04-19,2024-04-19,縁株式会社,,株式会社,大阪府,岸和田市,春木中町６番２８号,,27,202,5960033,,,,,,,2024-04-19,1,,,,,エニシ,0
2412,8120901049042,新規,0,2024-04-19,2024-04-19,株式会社ハピネスハンドリンパ屋,,株式会社,大阪府,高槻市,高槻町１９番２１号２Ｆ,,27,207,5690803,,,,,,,2024-04-19,1,,,,,ハピネスハンドリンパヤ,0
2416,8130001076829,新規,0,2024-04-19,2024-04-19,言午元國際株式会社,,株式会社,京都府,京都市山科区,大宅沢町１１６番地,,26,110,6078193,,,,,,,2024-04-19,1,,,,,ゴンゴゲンコクサイ,0
2417,8130001076861,新規,0,2024-04-19,2024-04-19,遠栄商事株式会社,,株式会社,京都府,京都市伏見区,深草直違橋北１丁目４７７番１８ファーストコート藤森１０１,,26,109,6120869,,,,,,,2024-04-19,1,,,,,エンエイショウジ,0
2419,8130005017077,新規,0,2024-04-19,2024-04-19,一般社団法人原敬文書研究会,,その他の設立登記法人,京都府,京都市左京区,岩倉上蔵町１２１番地,,26,103,6060017,,,,,,,2024-04-19,1,,,,,ハラケイモンジョケンキュウカイ,0
2434,8160001025857,新規,0,2024-04-19,2024-04-19,株式会社ソヤカテ,,株式会社,滋賀県,守山市,千代町１０８番地,,25,207,5240034,,,,,,,2024-04-19,1,,,,,ソヤカテ,0
2436,8170001018100,新規,0,2024-04-19,2024-04-19,株式会社Ｅｘｐｒｅｓｓ　Ｍ＆Ａ,,株式会社,和歌山県,和歌山市,南甚五兵衛丁１０,,30,201,6408292,,,,,,,2024-04-19,1,,,,,エクスプレスエムアンドエー,0
2438,8180001161007,新規,0,2024-04-19,2024-04-19,株式会社Ｎｅｗ　ｍｅ．,,株式会社,愛知県,小牧市,応時４丁目７５番地,,23,219,4850832,,,,,,,2024-04-19,1,,,,,ニューミー,0
2439,8180001161048,新規,0,2024-04-19,2024-04-19,株式会社Ｄ’ｓ　ｃｏｌｌｅｃｔｉｏｎ,,株式会社,愛知県,尾張旭市,井田町２丁目３７６番地,,23,226,4880024,,,,,,,2024-04-19,1,,,,,ディーズコレクション,0
2440,8180001161064,新規,0,2024-04-19,2024-04-19,株式会社ニューフィールド,,株式会社,愛知県,名古屋市中区,正木３丁目２番６９号パティオ木下２Ａ,,23,106,4600024,,,,,,,2024-04-19,1,,,,,ニューフィールド,0
2441,8180001161122,新規,0,2024-04-19,2024-04-19,株式会社光正,,株式会社,愛知県,清須市,桃栄２丁目２３０番地,,23,233,4520918,,,,,,,2024-04-19,1,,,,,コウセイ,0
2442,8180001161130,新規,0,2024-04-19,2024-04-19,株式会社エスマネジメント,,株式会社,愛知県,名古屋市名東区,本郷２丁目５７番地シーアイマンション第三本郷Ｓ４０４号,,23,115,4650024,,,,,,,2024-04-19,1,,,,,エスマネジメント,0
2466,8240001063097,新規,0,2024-04-19,2024-04-19,株式会社エムフード,,株式会社,広島県,福山市,奈良津町３丁目１０番１６号ラピス１０１,,34,207,7200022,,,,,,,2024-04-19,1,,,,,エムフード,0
2467,8240001063106,新規,0,2024-04-19,2024-04-19,株式会社Ｃｌｅａｎ　ｖｉｅｗ,,株式会社,広島県,広島市安佐南区,沼田町吉山１２８３番地,,34,105,7310100,,,,,,,2024-04-19,1,,,,,クリーンビュー,0
2471,8260001038989,新規,0,2024-04-19,2024-04-19,株式会社Ａ’ｓクリエイト,,株式会社,岡山県,岡山市北区,東古松南町７番２１号,,33,101,7000922,,,,,,,2024-04-19,1,,,,,エースクリエイト,0
2480,8290001105472,新規,0,2024-04-19,2024-04-19,株式会社エムテック,,株式会社,福岡県,福津市,勝浦３０１９番地の１,,40,224,8113521,,,,,,,2024-04-19,1,,,,,エムテック,0
2481,8290003015190,新規,0,2024-04-19,2024-04-19,あのね合同会社,,合同会社,福岡県,福岡市南区,横手３丁目９番１８号,,40,134,8111311,,,,,,,2024-04-19,1,,,,,アノネ,0
2487,8290803004698,新規,0,2024-04-19,2024-04-19,合同会社才谷屋,,合同会社,福岡県,北九州市門司区,大里原町９－２,,40,101,8000038,,,,,,,2024-04-19,1,,,,,サイタニヤ,0
2489,8330001031961,新規,0,2024-04-19,2024-04-19,株式会社ＡＧＩ　ＰＲＯＰＥＲＴＩＥＳ,,株式会社,熊本県,荒尾市,高浜１９７８番地,,43,204,8640025,,,,,,,2024-04-19,1,,,,,エージーアイプロパティーズ,0
2490,8330001031978,新規,0,2024-04-19,2024-04-19,大東商事株式会社,,株式会社,熊本県,八代市,永碇町６６６番地２,,43,202,8660885,,,,,,,2024-04-19,1,,,,,ダイトウショウジ,0
2494,8340001026449,新規,0,2024-04-19,2024-04-19,プレナムホールディングス株式会社,,株式会社,鹿児島県,鹿児島市,谷山中央１丁目４０５５番地２－４０４号室,,46,201,8910141,,,,,,,2024-04-19,1,,,,,プレナムホールディングス,0
2499,8350003004625,新規,0,2024-04-19,2024-04-19,合同会社千里十里,,合同会社,宮崎県,都城市,八幡町１街区４号,,45,202,8850075,,,,,,,2024-04-19,1,,,,,チリトリ,0
2502,8360001033534,新規,0,2024-04-19,2024-04-19,株式会社クオリティ,,株式会社,沖縄県,宮古島市,伊良部字仲地１２２番地３,,47,214,9060504,,,,,,,2024-04-19,1,,,,,クオリティ,0
2503,8360001033542,新規,0,2024-04-19,2024-04-19,株式会社大中興業,,株式会社,沖縄県,那覇市,首里大中町１丁目２９番地,,47,201,9030823,,,,,,,2024-04-19,1,,,,,オオナカコウギョウ,0
2510,8380001034456,新規,0,2024-04-19,2024-04-19,株式会社ＮＥＸＵＳ,,株式会社,福島県,喜多方市,字沼田６９８１‐１,,07,208,9660804,,,,,,,2024-04-19,1,,,,,ネクサス,0
2512,8380003005736,新規,0,2024-04-19,2024-04-19,合同会社大地屋ワークス,,合同会社,福島県,相馬郡飯舘村,草野字宮内１３０番地,,07,564,9601801,,,,,,,2024-04-19,1,,,,,ダイチヤワークス,0
2522,8460103001610,新規,0,2024-04-19,2024-04-19,合同会社ＧｒｅｅｎＰｌａｃｅ,,合同会社,北海道,上川郡清水町,字熊牛１４１番地,,01,636,0890241,,,,,,,2024-04-19,1,,,,,グリーンプレイス,0
2532,8500005008699,新規,0,2024-04-19,2024-04-19,医療法人せきかわ皮ふ科,,その他の設立登記法人,愛媛県,松山市,平和通５丁目２番地１２,,38,201,7900807,,,,,,,2024-04-19,1,,,,,セキカワヒフカ,0
2533,8700150124966,新規,0,2024-04-19,2024-04-19,ｓｈａｎｇｈａｉｓｈｕｙｉｇｕｏｊｉｍａｏｙｉｙｏｕｘｉａｎｇｏｎｇｓｉ,,外国会社等,,,,,,,,ｓｈａｎｇｈａｉｓｈｉｓｏｎｇｊｉａｎｇｑｕｊｉｕｔｉｎｇｚｈｅｎｊｉｕｊｉｎｇｌｕ８９８ｈａｏ２ｚｈａｕｎｇ２ｃｅｎｇ２０７ｓｈｉ,,,,,,2024-04-19,1,,,,,シャンハイスイコクサイボウエキユウゲンコウシ,0
2534,8700150124974,新規,0,2024-04-19,2024-04-19,Ｓｈｅｎｚｈｅｎ　Ｇｉｎｇｌｅ　Ｔｅｃｈｎｏｌｏｇｙ　Ｃｏ．，Ｌｔｄ．,,外国会社等,,,,,,,,Ｌｏｎｇｇａｎｇｑｕ　ｌｏｎｇｇａｎｇｊｉｅｄａｏ　ｎａｎｌｉａｎｓｈｅｑｕ　ｂｉｘｉｎｌｕ（ｌｏｎｇｇａｎｇｄｕａｎ）２０９５ｈａｏ１３１１　Ｓｈｅｎｚｈｅｎ　ＧｕａｎｇＤｏｎｇ　５１８１１６　ＣＮ,,,,,,2024-04-19,1,,,,,シェンジェンシージンゴーコージーヨウシエンゴンスー,0
2535,8700150124982,新規,0,2024-04-19,2024-04-19,ｓｈｅｎｚｈｅｎｓｈｉｇｕａｎｇｊｕｘｉｎｄｉａｎｚｉｓｈａｎｇｗｕ　ｙｏｕｘｉａｎｇｏｎｇｓｉ,,外国会社等,,,,,,,,Ｒｏｏｍ　６０７，Ｂｕｉｌｄｉｎｇ　００７，Ａｒｅａ　Ａ，Ｈｅｙｉ　Ｃｏｍｍｕｎｉｔｙ，Ｈｅｙｉ　Ｎｅｗ　Ｖｉｌｌａｇｅ，Ｓｈａｊｉｎｇ　Ｓｔｒｅｅｔ，Ｂａｏａｎ　Ｄｉｓｔｒｉｃｔ，Ｓｈｅｎｚｈｅｎ　Ｃｉｔｙ,,,,,,2024-04-19,1,,,,,シンセンシグゥアンジュウシンデンシショウムユウゲンコウシ,0
2544,9010001244033,新規,0,2024-04-19,2024-04-19,株式会社Ｖａｒｋｓｙｍ,,株式会社,東京都,中央区,日本橋浜町３丁目４５番３号浜町野島ビル２階,,13,102,1030007,,,,,,,2024-04-19,1,,,,,バークシム,0
2545,9010001244248,新規,0,2024-04-19,2024-04-19,東陽ジャパン株式会社,,株式会社,東京都,文京区,小石川５丁目４１－３－３０１号,,13,105,1120002,,,,,,,2024-04-19,1,,,,,トウヨウジャパン,0
2547,9010003043409,新規,0,2024-04-19,2024-04-19,Ｓｕｃｃｅｓｓ　Ｃｅｎｔｕｒｙ　Ｊａｐａｎ合同会社,,合同会社,東京都,千代田区,霞が関３丁目２番５号,,13,101,1000013,,,,,,,2024-04-19,1,,,,,サクセスセンチュリージャパン,0
2564,9010401181768,新規,0,2024-04-19,2024-04-19,駿豪株式会社,,株式会社,東京都,港区,六本木５丁目１２－７フォレストテラス鳥居坂６０５,,13,103,1060032,,,,,,,2024-04-19,1,,,,,シュンゴウ,0
2565,9010401181859,新規,0,2024-04-19,2024-04-19,株式会社ＭＯＴＯＹＵＫＩ,,株式会社,東京都,港区,六本木７丁目１２番１２号,,13,103,1060032,,,,,,,2024-04-19,1,,,,,モトユキ,0
2566,9010403032291,新規,0,2024-04-19,2024-04-19,合同会社ａｎ,,合同会社,東京都,港区,北青山１丁目３番１号アールキューブ青山３階,,13,103,1070061,,,,,,,2024-04-19,1,,,,,アン,0
2567,9010403032399,新規,0,2024-04-19,2024-04-19,ＹＵＴＡＫＡ　Ｅ　ＪＡＰＡＮ合同会社,,合同会社,東京都,港区,元麻布２丁目１番１９号２０６号室,,13,103,1060046,,,,,,,2024-04-19,1,,,,,ユタカイージャパン,0
2572,9010601065044,新規,0,2024-04-19,2024-04-19,株式会社ソウル商事,,株式会社,東京都,江東区,亀戸６丁目３５番１６号－５０１,,13,108,1360071,,,,,,,2024-04-19,1,,,,,ソウルショウジ,0
2573,9010701045870,新規,0,2024-04-19,2024-04-19,株式会社ＴｒｙＳｔｏｃｋ,,株式会社,東京都,品川区,東五反田１丁目６－３いちご東五反田ビル３階３１４号室,,13,109,1410022,,,,,,,2024-04-19,1,,,,,トライストック,0
2578,9010901055100,新規,0,2024-04-19,2024-04-19,ＢＡＮＤＳ株式会社,,株式会社,東京都,世田谷区,玉川３丁目３０番３号,,13,112,1580094,,,,,,,2024-04-19,1,,,,,バンズ,0
2587,9011001161383,新規,0,2024-04-19,2024-04-19,フクリタ株式会社,,株式会社,東京都,渋谷区,宇田川町７番１７－４０２号ユニーブル渋谷神南,,13,113,1500042,,,,,,,2024-04-19,1,,,,,フクリタ,0
2588,9011001161458,新規,0,2024-04-19,2024-04-19,株式会社ＢＡＳＩＳ,,株式会社,東京都,渋谷区,円山町５番５号Ｎａｖｉ渋谷Ｖ３階,00134478,13,113,1500044,,,,,,,2024-04-19,1,,,,,ベイシス,0
2589,9011001161508,新規,0,2024-04-19,2024-04-19,株式会社どんぐり,,株式会社,東京都,渋谷区,恵比寿西２丁目４番８号ウィンド恵比寿ビル８Ｆ,,13,113,1500021,,,,,,,2024-04-19,1,,,,,ドングリ,0
2590,9011001161532,新規,0,2024-04-19,2024-04-19,Ｙ＆Ｎ　Ｍａｎａｇｅｍｅｎｔ株式会社,,株式会社,東京都,渋谷区,恵比寿３丁目２番５‐６０１号,,13,113,1500013,,,,,,,2024-04-19,1,,,,,ワイアンドエヌマネジメント,0
2591,9011003018961,新規,0,2024-04-19,2024-04-19,ＭＡ‐Ｔｅｃｈ合同会社,,合同会社,東京都,渋谷区,円山町５番５号Ｎａｖｉ渋谷Ｖ３階,,13,113,1500044,,,,,,,2024-04-19,1,,,,,エムエーテック,0
2592,9011003019002,新規,0,2024-04-19,2024-04-19,２２＆Ｃｏｍｐａｎｙ合同会社,,合同会社,東京都,渋谷区,神山町１８番７－１０２号ザ・パークハウスグラン神山町,,13,113,1500047,,,,,,,2024-04-19,1,,,,,トウェンティトゥアンドカンパニー,0
2601,9011101107047,新規,0,2024-04-19,2024-04-19,株式会社ＭＲＸ,,株式会社,東京都,新宿区,西新宿３丁目３番１３号西新宿水間ビル２Ｆ,,13,104,1600023,,,,,,,2024-04-19,1,,,,,エムアールエクス,0
2608,9011405002290,新規,0,2024-04-19,2024-04-19,一般社団法人中華詠田頭薦研究学会,,その他の設立登記法人,東京都,板橋区,熊野町１６番３－３０２号,,13,119,1730025,,,,,,,2024-04-19,1,,,,,チュウカエイデントウセンケンキュウガッカイ,0
2613,9011801044110,新規,0,2024-04-19,2024-04-19,株式会社ｂｒｉｄｇｅ,,株式会社,東京都,葛飾区,堀切２丁目４６番１５号,,13,122,1240006,,,,,,,2024-04-19,1,,,,,ブリッジ,0
2614,9012301013877,新規,0,2024-04-19,2024-04-19,イシュー・マネジメント株式会社,,株式会社,東京都,町田市,玉川学園３丁目１０－４－１,,13,209,1940041,,,,,,,2024-04-19,1,,,,,イシューマネジメント,0
2616,9012401041786,新規,0,2024-04-19,2024-04-19,株式会社ちゃんこえ,,株式会社,東京都,武蔵野市,吉祥寺本町４丁目６番３号,,13,203,1800004,,,,,,,2024-04-19,1,,,,,チャンコエ,0
2618,9012801023120,新規,0,2024-04-19,2024-04-19,株式会社ＫＭ,,株式会社,東京都,日野市,新町３丁目４１番地の１３,,13,212,1910002,,,,,,,2024-04-19,1,,,,,ケーエム,0
2622,9013301052386,新規,0,2024-04-19,2024-04-19,株式会社アートファイブビルド,,株式会社,東京都,豊島区,池袋２丁目４１番５号アーバン１５４・６階,,13,116,1710014,,,,,,,2024-04-19,1,,,,,アートファイブビルド,0
2623,9013301052394,新規,0,2024-04-19,2024-04-19,ＹＭ‐ｔｏｋｙｏ　ｉｎｔｅｒｎａｔｉｏｎａｌ株式会社,,株式会社,東京都,豊島区,雑司が谷２丁目４番１号ＭＣＭビル２０１号室,,13,116,1710032,,,,,,,2024-04-19,1,,,,,ワイエムトウキョウインターナショナル,0
2624,9013303007108,新規,0,2024-04-19,2024-04-19,合同会社東山,,合同会社,東京都,豊島区,南池袋１丁目１０番１３号,,13,116,1710022,,,,,,,2024-04-19,1,,,,,ヒガシヤマ,0
2629,9020001156789,新規,0,2024-04-19,2024-04-19,バンズジャパン３８株式会社,,株式会社,神奈川県,川崎市多摩区,菅馬場２丁目１２番２０号,,14,135,2140004,,,,,,,2024-04-19,1,,,,,バンズジャパンスリーエイト,0
2630,9020001156806,新規,0,2024-04-19,2024-04-19,株式会社ＭＹＫ,,株式会社,神奈川県,横浜市港北区,樽町３丁目７番１５－２３９号,,14,109,2220001,,,,,,,2024-04-19,1,,,,,エムワイケイ,0
2633,9020003025959,新規,0,2024-04-19,2024-04-19,合同会社東江,,合同会社,神奈川県,横浜市中区,山下町９９番地山下公園サンライトマンション２号棟６０２号室,,14,104,2310023,,,,,,,2024-04-19,1,,,,,トウコウ,0
2636,9021001081903,新規,0,2024-04-19,2024-04-19,株式会社ほねごりホールディングス,,株式会社,神奈川県,相模原市緑区,橋本３丁目１３番１号パークスクウェア１０１号室,,14,151,2520143,,,,,,,2024-04-19,1,,,,,ホネゴリホールディングス,0
2638,9021003014415,新規,0,2024-04-19,2024-04-19,合同会社ＡＸＩＳ,,合同会社,神奈川県,横須賀市,湘南鷹取１丁目２１番２号,,14,201,2370066,,,,,,,2024-04-19,1,,,,,アクシス,0
2655,9030003024068,新規,0,2024-04-19,2024-04-19,合同会社カウントアップ,,合同会社,埼玉県,草加市,北谷１丁目２１番２３号,,11,221,3400046,,,,,,,2024-04-19,1,,,,,カウントアップ,0
2656,9030005021658,新規,0,2024-04-19,2024-04-19,一般社団法人ＴＦＬ協会,,その他の設立登記法人,埼玉県,所沢市,大字北秋津１２１番地２（１０２）,,11,208,3590038,,,,,,,2024-04-19,1,,,,,ティーエフエルキョウカイ,0
2659,9040001133233,新規,0,2024-04-19,2024-04-19,株式会社Ｉ．Ｃ,,株式会社,千葉県,柏市,泉町一丁目３２番,,12,217,2770022,,,,,,,2024-04-19,1,,,,,アイシー,0
2660,9040001133241,新規,0,2024-04-19,2024-04-19,株式会社ＫＥＹ　ＣＲＡＦＴ,,株式会社,千葉県,市川市,曽谷１丁目３２番４号（Ｃ棟）,,12,203,2720832,,,,,,,2024-04-19,1,,,,,キークラフト,0
2661,9040001133258,新規,0,2024-04-19,2024-04-19,株式会社矢野設備,,株式会社,千葉県,松戸市,中和倉５番地の２,,12,207,2700025,,,,,,,2024-04-19,1,,,,,,0
2665,9040003024835,新規,0,2024-04-19,2024-04-19,ＧＲＥＥＮ　ＶＩＥＷ　ＴＲＡＤＩＮＧ合同会社,,合同会社,千葉県,東金市,上布田４１番地４,,12,213,2830834,,,,,,,2024-04-19,1,,,,,グリーンビュートレーディング,0
2666,9040005022358,新規,0,2024-04-19,2024-04-19,医療法人社団流輝会,,その他の設立登記法人,千葉県,流山市,南流山２丁目４番地７Ｇｒａｎｄ、ｊｏｕｒ２階,,12,220,2700163,,,,,,,2024-04-19,1,,,,,リュウキカイ,0
2678,9080001026251,新規,0,2024-04-19,2024-04-19,株式会社ラボエステティコ,,株式会社,静岡県,焼津市,小柳津３３３番地,,22,212,4250073,,,,,,,2024-04-19,1,,,,,ラボエステティコ,0
2680,9080101024691,新規,0,2024-04-19,2024-04-19,株式会社マルホープ,,株式会社,静岡県,富士市,大渕２４１６番地の５,,22,210,4170000,,,,,,,2024-04-19,1,,,,,マルホープ,0
2683,9080403004994,新規,0,2024-04-19,2024-04-19,合同会社コンドル,,合同会社,静岡県,磐田市,豊岡６３１６番地２,,22,211,4380231,,,,,,,2024-04-19,1,,,,,コンドル,0
2685,9090001018669,新規,0,2024-04-19,2024-04-19,株式会社慶村,,株式会社,山梨県,南都留郡富士河口湖町,船津３９１－１,,19,430,4010301,,,,,,,2024-04-19,1,,,,,ヨシムラ,0
2689,9110001038350,新規,0,2024-04-19,2024-04-19,エフアグリ株式会社,,株式会社,新潟県,五泉市,不動堂字沢口１６０４,,15,218,9591634,,,,,,,2024-04-19,1,,,,,エフアグリ,0
2711,9120001264144,新規,0,2024-04-19,2024-04-19,株式会社ウェーブル,,株式会社,大阪府,大阪市旭区,中宮３丁目３番８号,,27,117,5350003,,,,,,,2024-04-19,1,,,,,ウェーブル,0
2712,9120001264152,新規,0,2024-04-19,2024-04-19,株式会社ＨＡＫＵ　ＭＡＴＣＨ,,株式会社,大阪府,大阪市浪速区,難波中３丁目１４番１６号４０１,,27,111,5560011,,,,,,,2024-04-19,1,,,,,ハクマッチ,0
2713,9120001264177,新規,0,2024-04-19,2024-04-19,株式会社Ｖｅｒｔｅｘ　Ｃｏｎｎｅｃｔ,,株式会社,大阪府,大阪市浪速区,難波中２丁目１０番７０号パークスタワー１９階,,27,111,5560011,,,,,,,2024-04-19,1,,,,,ヴァーテックスコネクト,0
2718,9120003026393,新規,0,2024-04-19,2024-04-19,ｋｍｉａ合同会社,,合同会社,大阪府,寝屋川市,三井が丘４丁目６番８７－２０８号,,27,215,5720013,,,,,,,2024-04-19,1,,,,,ケーエムアイエー,0
2720,9120005024288,新規,0,2024-04-19,2024-04-19,一般社団法人ＮａＫａＭａ,,その他の設立登記法人,大阪府,大阪市中央区,本町４丁目５－４本町ＧＴＣビル２０１,,27,128,5410053,,,,,,,2024-04-19,1,,,,,ナカマ,0
2723,9120901049066,新規,0,2024-04-19,2024-04-19,アジアメカニカルパーツプラス株式会社,,株式会社,大阪府,箕面市,白島２丁目５番７－１０２号,,27,220,5620012,,,,,,,2024-04-19,1,,,,,アジアメカニカルパーツプラス,0
2729,9130001076852,新規,0,2024-04-19,2024-04-19,株式会社ワンダー,,株式会社,京都府,京都市西京区,大原野石見町２０４番地,,26,111,6101128,,,,,,,2024-04-19,1,,,,,ワンダー,0
2730,9130001076869,新規,0,2024-04-19,2024-04-19,円町店分割準備株式会社,,株式会社,京都府,京都市中京区,西ノ京西円町４０番地２階,,26,104,6048465,,,,,,,2024-04-19,1,,,,,エンマチテンブンカツジュンビ,0
2731,9130003009463,新規,0,2024-04-19,2024-04-19,合同会社昴不動産相談所,,合同会社,京都府,京都市中京区,富小路通錦小路下る西大文字町５９９番地京都錦ＨＫビル３０８号室,,26,104,6048054,,,,,,,2024-04-19,1,,,,,スバルフドウサンソウダンショ,0
2733,9130005017076,新規,0,2024-04-19,2024-04-19,一般社団法人Ｂｌｕｅｗａｙ総合研究所,,その他の設立登記法人,京都府,京都市北区,紫野下柏野町１４番地３２,,26,101,6038313,,,,,,,2024-04-19,1,,,,,ブルーウェイソウゴウケンキュウショ,0
2739,9140001134139,新規,0,2024-04-19,2024-04-19,株式会社ネクスト関西,,株式会社,兵庫県,西宮市,すみれ台３丁目１８番地１９,,28,204,6511432,,,,,,,2024-04-19,1,,,,,ネクストカンサイ,0
2743,9150003003233,新規,0,2024-04-19,2024-04-19,合同会社Ｌｕｘ,,合同会社,奈良県,大和高田市,中三倉堂２丁目１１番６０号,,29,202,6350045,,,,,,,2024-04-19,1,,,,,ルクス,0
2744,9160001025856,新規,0,2024-04-19,2024-04-19,ＩＧ綜合株式会社,,株式会社,滋賀県,長浜市,新旭町１６４番地,,25,203,5290133,,,,,,,2024-04-19,1,,,,,アイジーソウゴウ,0
2747,9170001018099,新規,0,2024-04-19,2024-04-19,株式会社ＩＲＯ,,株式会社,和歌山県,田辺市,朝日ヶ丘２２－２４,,30,206,6460027,,,,,,,2024-04-19,1,,,,,イロ,0
2755,9180001161039,新規,0,2024-04-19,2024-04-19,株式会社ガイアホールディングス,,株式会社,愛知県,名古屋市守山区,新城１番２２号ビクトリアマンション千代田橋Ｃ号,,23,113,4630056,,,,,,,2024-04-19,1,,,,,ガイアホールディングス,0
2756,9180001161121,新規,0,2024-04-19,2024-04-19,株式会社ＪＵＲＡ,,株式会社,愛知県,江南市,飛高町夫見添１１９番地２,,23,217,4838339,,,,,,,2024-04-19,1,,,,,ジュラ,0
2758,9180003026669,新規,0,2024-04-19,2024-04-19,卓元テクノロジー合同会社,,合同会社,愛知県,一宮市,花池４丁目１９番２－３１９号県営花池住宅,,23,203,4910914,,,,,,,2024-04-19,1,,,,,タクゲンテクノロジー,0
2762,9190001031281,新規,0,2024-04-19,2024-04-19,株式会社ＳＷＴ,,株式会社,三重県,亀山市,関町会下１３６０番地７９,,24,210,5191106,,,,,,,2024-04-19,1,,,,,エスダブリューティー,0
2763,9190003004657,新規,0,2024-04-19,2024-04-19,ＬｉｇｈｔＵｐ合同会社,,合同会社,三重県,四日市市,大矢知町４９８番地６,,24,202,5108034,,,,,,,2024-04-19,1,,,,,ライトアップ,0
2768,9200001042418,新規,0,2024-04-19,2024-04-19,株式会社ＡｔｏＡ,,株式会社,岐阜県,岐阜市,若宮町５丁目４番地５シャインズビル７階,,21,201,5008828,,,,,,,2024-04-19,1,,,,,エートゥーエー,0
2770,9200005013613,新規,0,2024-04-19,2024-04-19,特定非営利活動法人邑ｆｏｕｎｄａｔｉｏｎ,,その他の設立登記法人,岐阜県,山県市,神崎１９８３,,21,215,5012301,,,,,,,2024-04-19,1,,,,,ムラファンデーション,0
2771,9210001019729,新規,0,2024-04-19,2024-04-19,株式会社Ｄｏｐｅ　ＬＩＴ,,株式会社,福井県,福井市,町屋３丁目２１番５号,,18,201,9100002,,,,,,,2024-04-19,1,,,,,ドープリット,0
2783,9260001038988,新規,0,2024-04-19,2024-04-19,株式会社ワイエス,,株式会社,岡山県,倉敷市,児島小川４丁目８番４３１号,,33,202,7110911,,,,,,,2024-04-19,1,,,,,ワイエス,0
2786,9280003001835,新規,0,2024-04-19,2024-04-19,合同会社ＰＲＡＣＥＶＯ,,合同会社,島根県,松江市,玉湯町大谷２９９番地３号,,32,201,6990205,,,,,,,2024-04-19,1,,,,,プラシーヴォ,0
2793,9290001105455,新規,0,2024-04-19,2024-04-19,Ｏｐｅｎ　Ｔｒｕｓｔ株式会社,,株式会社,福岡県,福岡市中央区,大名２丁目６－５０福岡大名ガーデンシティ８Ｆ,,40,133,8100041,,,,,,,2024-04-19,1,,,,,オープントラスト,0
2794,9290001105463,新規,0,2024-04-19,2024-04-19,株式会社ｍｕｋｕｔｏ,,株式会社,福岡県,福岡市中央区,天神１丁目１番１号アクロス福岡１１階,,40,133,8100001,,,,,,,2024-04-19,1,,,,,ムクト,0
2801,9330001031969,新規,0,2024-04-19,2024-04-19,株式会社スマイルコネクト,,株式会社,熊本県,荒尾市,四ツ山町１丁目１０３番地２,,43,204,8640052,,,,,,,2024-04-19,1,,,,,スマイルコネクト,0
2806,9330005010787,新規,0,2024-04-19,2024-04-19,医療法人遼麗会,,その他の設立登記法人,熊本県,熊本市中央区,上通町７－１０上通パレス草人木２Ｆ,,43,101,8600845,,,,,,,2024-04-19,1,,,,,リョウレイカイ,0
2813,9350001018931,新規,0,2024-04-19,2024-04-19,株式会社ＤＨＡＲＭＡ,,株式会社,宮崎県,宮崎市,佐土原町下田島１１８６２番地１,,45,201,8800211,,,,,,,2024-04-19,1,,,,,ダルマ,0
2814,9350003004624,新規,0,2024-04-19,2024-04-19,ＫＮＯＴ合同会社,,合同会社,宮崎県,小林市,堤２１２６番地２,,45,205,8860003,,,,,,,2024-04-19,1,,,,,ノット,0
2824,9390005009064,新規,0,2024-04-19,2024-04-19,医療法人三幸会,,その他の設立登記法人,山形県,米沢市,金池５丁目１０－４Ｓ＆Ｒビル１Ｆ,,06,202,9920012,,,,,,,2024-04-19,1,,,,,サンコウカイ,0
2832,9430001091615,新規,0,2024-04-19,2024-04-19,株式会社Ｃｏｎｎｅｃｔ‐Ｅ,,株式会社,北海道,札幌市豊平区,西岡二条１１丁目１６番１号,,01,105,0620032,,,,,,,2024-04-19,1,,,,,コネクトイー,0
2838,9450001014292,新規,0,2024-04-19,2024-04-19,株式会社Ｌｉｔ,,株式会社,北海道,士別市,東六条北２丁目１２番地,,01,220,0950006,,,,,,,2024-04-19,1,,,,,リット,0
2839,9450003002469,新規,0,2024-04-19,2024-04-19,合同会社和み村,,合同会社,北海道,富良野市,字下御料１９９０番地１６,,01,229,0760017,,,,,,,2024-04-19,1,,,,,ナゴミムラ,0
2841,9460101007534,新規,0,2024-04-19,2024-04-19,株式会社滝田組,,株式会社,北海道,帯広市,西十八条南４丁目５０番２０号,,01,207,0800028,,,,,,,2024-04-19,1,,,,,タキタグミ,0
2842,9470001020149,新規,0,2024-04-19,2024-04-19,株式会社鹿庭企画,,株式会社,香川県,高松市,成合町９５５番地１,,37,201,7618081,,,,,,,2024-04-19,1,,,,,カニワキカク,0
2847,9700150124965,新規,0,2024-04-19,2024-04-19,Ｇｕａｎｇｚｈｏｕ　Ｈｕａｎｇｊｉａｌｕｏｔｕｏｈｕｗａｉｙｏｎｇｐｉｎ　Ｙｏｕｘｉａｎｇｏｎｇｓｉ,,外国会社等,,,,,,,,Ｇｕａｎｇｚｈｏｕｓｈｉ　Ｌｉｗａｎｑｕ　Ｘｉｎｌｏｎｇｓｈａｘｉ　１ｈａｏ　１０７ｓｈｉ,,,,,,2024-04-19,1,,,,,コウシュウホゥアンジャロウトウホウワイヨンピンユウゲンコウシ,0
2848,9700150124973,新規,0,2024-04-19,2024-04-19,ＤｏｎｇＧｕａｎＳｈｉ　ＢａＡｏＴｅ　Ｄｉａｎ　Ｚｉ　Ｋｅ　Ｊｉ　Ｙｏｕ　Ｘｉａｎ　Ｇｏｎｇ　Ｓｉ,,外国会社等,,,,,,,,Ｒｏｏｍ　６０１，Ｂｕｉｌｄｉｎｇ　１，Ｎｏ．１８３，Ｙｏｎｇｎｉｎｇ　Ｓｔｒｅｅｔ，Ｚｈａｎｇｌｕｏ，Ｚｈａｎｇｍｕｔｏｕ　Ｔｏｗｎ，Ｄｏｎｇｇｕａｎ　Ｃｉｔｙ，Ｇｕａｎｇｄｏｎｇ　Ｐｒｏｖｉｎｃｅ，Ｃｈｉｎａ,,,,,,2024-04-19,1,,,,,トウカンシバアオテデンシカギユウゲンコウシ,0
2849,9700150124981,新規,0,2024-04-19,2024-04-19,Ｄｙｎａｆｏｒｇｅ　Ｔｒａｄｉｎｇ，ＬＬＣ,,外国会社等,,,,,,,,４４５　Ｍｉｎｎｅｓｏｔａ　Ｓｔｒｅｅｔ，Ｓｕｉｔｅ　１５００　Ｓａｉｎｔ　Ｐａｕｌ，ＭＮ，５５１０１，ＵＳ,,,,,,2024-04-19,1,,,,,ダイナフォージトレーディングリミティッドライアビリティーカンパニー,0
