sequenceNumber,corporateNumber,process,correct,updateDate,changeDate,name,nameImageId,kind,prefectureName,cityName,streetNumber,addressImageId,prefectureCode,cityCode,postCode,addressOutside,addressOutsideImageId,closeDate,closeCause,successorCorporateNumber,changeCause,assignmentDate,latest,enName,enPrefectureName,enCityName,enAddressOutside,furigana,hihyoji
6,1010001241310,新規,0,2024-01-11,2024-01-11,株式会社ＭＹＴ,,株式会社,東京都,中央区,日本橋箱崎町１７番１号,,13,102,1030015,,,,,,,2024-01-11,1,,,,,エムワイティー,0
7,1010001241376,新規,0,2024-01-11,2024-01-11,株式会社時事通信ブランドスタジオ,,株式会社,東京都,中央区,銀座５丁目１５番８号,,13,102,1040061,,,,,,,2024-01-11,1,,,,,ジジツウシンブランドスタジオ,0
9,1010003042608,新規,0,2024-01-11,2024-01-11,合同会社ＡＰＯ,,合同会社,東京都,千代田区,神田和泉町１番地６－１６ヤマトビル４０５,,13,101,1010024,,,,,,,2024-01-11,1,,,,,エーピーオー,0
17,1010401179613,新規,0,2024-01-11,2024-01-11,株式会社Ｂａｃｋｌｉｎｋ,,株式会社,東京都,港区,南青山２丁目２番１５号,,13,103,1070062,,,,,,,2024-01-11,1,,,,,バックリンク,0
21,1010403031706,新規,0,2024-01-11,2024-01-11,合同会社ＹＧＭ,,合同会社,東京都,港区,北青山１丁目３番１号アールキューブ青山３階,,13,103,1070061,,,,,,,2024-01-11,1,,,,,ワイジーエム,0
22,1010403031730,新規,0,2024-01-11,2024-01-11,ノースホールディングス合同会社,,合同会社,東京都,港区,虎ノ門３丁目８番８号ＮＴＴ虎ノ門ビル６階,,13,103,1050001,,,,,,,2024-01-11,1,,,,,ノースホールディングス,0
35,1010701045390,新規,0,2024-01-11,2024-01-11,ワイカホン株式会社,,株式会社,東京都,品川区,東五反田２丁目５－２・３０６号室,,13,109,1410022,,,,,,,2024-01-11,1,,,,,ワイカホン,0
38,1010703007018,新規,0,2024-01-11,2024-01-11,合同会社クレイブ,,合同会社,東京都,品川区,西大井１丁目１番２－１７０６号,,13,109,1400015,,,,,,,2024-01-11,1,,,,,クレイブ,0
39,1010801034681,新規,0,2024-01-11,2024-01-11,株式会社ブラッドスポーツ,,株式会社,東京都,大田区,北馬込２丁目２９番７号,,13,111,1430021,,,,,,,2024-01-11,1,,,,,ブラッドスポーツ,0
41,1010901054497,新規,0,2024-01-11,2024-01-11,株式会社エムズブルー,,株式会社,東京都,世田谷区,祖師谷５丁目３９番１号,,13,112,1570072,,,,,,,2024-01-11,1,,,,,エムズブルー,0
43,1010903008716,新規,0,2024-01-11,2024-01-11,ＭＡＴＳＵＺＥＮ合同会社,,合同会社,東京都,世田谷区,上用賀３丁目９番１５号上用賀コートサイド２０６,,13,112,1580098,,,,,,,2024-01-11,1,,,,,マツゼン,0
44,1010903008724,新規,0,2024-01-11,2024-01-11,合同会社ピーカン,,合同会社,東京都,世田谷区,等々力７丁目２－２０欅レジデンス等々力２０２,,13,112,1580082,,,,,,,2024-01-11,1,,,,,ピーカン,0
49,1011001159237,新規,0,2024-01-11,2024-01-11,Ｊｏｋｅｒｓ株式会社,,株式会社,東京都,渋谷区,神宮前６丁目３１番１５号,,13,113,1500001,,,,,,,2024-01-11,1,,,,,ジョーカーズ,0
50,1011001159286,新規,0,2024-01-11,2024-01-11,株式会社Ｍａｒｂｌｅ,,株式会社,東京都,渋谷区,宇田川町２番１渋谷ホームズ５１３号,,13,113,1500042,,,,,,,2024-01-11,1,,,,,マーブル,0
54,1011003018143,新規,0,2024-01-11,2024-01-11,Ｖｉｃｔｏｒｉａ１８４２合同会社,,合同会社,東京都,渋谷区,恵比寿西１丁目３６番２号ＴＨＥＣＯＮＯＥ〈代官山〉６０７号室,,13,113,1500021,,,,,,,2024-01-11,1,,,,,ヴィクトリアイチハチヨンニ,0
58,1011201025148,新規,0,2024-01-11,2024-01-11,Ｐｒｅｌｕｄｅ　Ｌｉｎｋｓ株式会社,,株式会社,東京都,中野区,松が丘１丁目２４番７号,,13,114,1650024,,,,,,,2024-01-11,1,,,,,プレリュードリンクス,0
59,1011201025156,新規,0,2024-01-11,2024-01-11,株式会社ケイズ,,株式会社,東京都,中野区,東中野２丁目１８番１－１０６号,,13,114,1640003,,,,,,,2024-01-11,1,,,,,ケイズ,0
60,1011201025164,新規,0,2024-01-11,2024-01-11,株式会社イージス情報システム,,株式会社,東京都,中野区,中野５丁目６７－７プラザ中野８０１,,13,114,1640001,,,,,,,2024-01-11,1,,,,,イージスジョウホウシステム,0
62,1011401025757,新規,0,2024-01-11,2024-01-11,株式会社ベネチェイン,,株式会社,東京都,板橋区,前野町１丁目３１番２号,,13,119,1740063,,,,,,,2024-01-11,1,,,,,ベネチェイン,0
67,1011601027446,新規,0,2024-01-11,2024-01-11,株式会社ＲＩＤＥ,,株式会社,東京都,練馬区,練馬３丁目２５番１１号,,13,120,1760001,,,,,,,2024-01-11,1,,,,,ライド,0
69,1011701026918,新規,0,2024-01-11,2024-01-11,東信国際株式会社,,株式会社,東京都,江戸川区,平井３丁目２８番１号３０２,,13,123,1320035,,,,,,,2024-01-11,1,,,,,トウシンコクサイ,0
72,1011801043615,新規,0,2024-01-11,2024-01-11,株式会社Ｏ‐ＲｅＭＡＫＥ,,株式会社,東京都,足立区,伊興４丁目１１番２３号１０１,,13,121,1210823,,,,,,,2024-01-11,1,,,,,オーリメイク,0
78,1013103001292,新規,0,2024-01-11,2024-01-11,バンバン合同会社,,合同会社,東京都,福生市,本町３８番地マーズハイツ２０３号室,,13,218,1970022,,,,,,,2024-01-11,1,,,,,バンバン,0
80,1013301051775,新規,0,2024-01-11,2024-01-11,株式会社ビション,,株式会社,東京都,豊島区,東池袋２丁目６０－８シティーインデックス池袋９０５,,13,116,1700013,,,,,,,2024-01-11,1,,,,,ビション,0
81,1013301051890,新規,0,2024-01-11,2024-01-11,株式会社ＪＭＴ,,株式会社,東京都,豊島区,目白４丁目８番３号,,13,116,1710031,,,,,,,2024-01-11,1,,,,,ジェイエムティー,0
82,1013303006950,新規,0,2024-01-11,2024-01-11,合同会社ＢｏｄｙＡｌｌ,,合同会社,東京都,豊島区,東池袋５丁目１０－１０プラセル１階,,13,116,1700013,,,,,,,2024-01-11,1,,,,,ボディーオール,0
87,1020001155187,新規,0,2024-01-11,2024-01-11,福株式会社,,株式会社,神奈川県,横浜市青葉区,美しが丘２丁目３４番地１,,14,117,2250002,,,,,,,2024-01-11,1,,,,,フク,0
88,1020001155229,新規,0,2024-01-11,2024-01-11,芯出し屋株式会社,,株式会社,神奈川県,川崎市多摩区,菅北浦３丁目１２番２１号,,14,135,2140008,,,,,,,2024-01-11,1,,,,,シンダシヤ,0
89,1020001155237,新規,0,2024-01-11,2024-01-11,株式会社Ｓｏｎｏｒｉｔｅ,,株式会社,神奈川県,川崎市幸区,都町３番地,,14,132,2120021,,,,,,,2024-01-11,1,,,,,ソノリテ,0
90,1020001155245,新規,0,2024-01-11,2024-01-11,株式会社Ｈａｋｕｍｅｉ,,株式会社,神奈川県,横浜市神奈川区,西神奈川１丁目１５番地２パーソナルハイツ東白楽３０２号,,14,102,2210822,,,,,,,2024-01-11,1,,,,,ハクメイ,0
95,1020003025322,新規,0,2024-01-11,2024-01-11,エルエフ商事合同会社,,合同会社,神奈川県,横浜市戸塚区,平戸４丁目１番３６－４号,,14,110,2440802,,,,,,,2024-01-11,1,,,,,エルエフショウジ,0
101,1021003013993,新規,0,2024-01-11,2024-01-11,合同会社スリーアール,,合同会社,神奈川県,藤沢市,片瀬海岸１丁目８番２１号シーサイド片瀬江ノ島５０８,,14,205,2510035,,,,,,,2024-01-11,1,,,,,スリーアール,0
103,1021005012993,新規,0,2024-01-11,2024-01-11,特定非営利活動法人とうかいスポーツ＆整形振興会,,その他の設立登記法人,神奈川県,伊勢原市,下糟屋１４３番地東海大学医学部１号館５階整形外科学医局,,14,214,2591143,,,,,,,2024-01-11,1,,,,,トウカイスポーツアンドセイケイシンコウカイ,0
109,1030001158016,新規,0,2024-01-11,2024-01-11,株式会社ＡＬＬ　ＩＮ,,株式会社,埼玉県,蓮田市,東６丁目７番４号,,11,238,3490111,,,,,,,2024-01-11,1,,,,,オールイン,0
110,1030001158032,新規,0,2024-01-11,2024-01-11,株式会社ＳＡＣ,,株式会社,埼玉県,三郷市,谷口３７３番地９,,11,237,3410042,,,,,,,2024-01-11,1,,,,,エスエーシー,0
111,1030001158040,新規,0,2024-01-11,2024-01-11,株式会社神田商会,,株式会社,埼玉県,八潮市,大字鶴ケ曽根８５２番地２６,,11,234,3400802,,,,,,,2024-01-11,1,,,,,カンダショウカイ,0
112,1030001158065,新規,0,2024-01-11,2024-01-11,株式会社サンメイト,,株式会社,埼玉県,比企郡滑川町,みなみ野２丁目１１番地８,,11,341,3550814,,,,,,,2024-01-11,1,,,,,サンメイト,0
115,1030003023358,新規,0,2024-01-11,2024-01-11,太洋伸銅創造合同会社,,合同会社,埼玉県,所沢市,東所沢５丁目２番地の９,,11,208,3590021,,,,,,,2024-01-11,1,,,,,タイヨウシンドウソウゾウ,0
116,1030003023366,新規,0,2024-01-11,2024-01-11,合同会社ＲＭｃｏｒｐｏｒａｔｉｏｎ,,合同会社,埼玉県,さいたま市桜区,大字神田６０３－２神田グリーンハイツ１０３,,11,106,3380812,,,,,,,2024-01-11,1,,,,,アールエムコーポレーション,0
117,1030003023374,新規,0,2024-01-11,2024-01-11,豐宇合同会社,,合同会社,埼玉県,さいたま市浦和区,常盤４丁目５番１４－１２０１号,,11,107,3300061,,,,,,,2024-01-11,1,,,,,トヨウ,0
122,1040001131673,新規,0,2024-01-11,2024-01-11,株式会社ポプラス,,株式会社,千葉県,白井市,根１６５番地の６７,,12,232,2701431,,,,,,,2024-01-11,1,,,,,ポプラス,0
129,1050001054089,新規,0,2024-01-11,2024-01-11,株式会社君羅新聞県西販売,,株式会社,茨城県,坂東市,辺田１０８９番地１０,,08,228,3060632,,,,,,,2024-01-11,1,,,,,キミラシンブンケンセイハンバイ,0
130,1050001054106,新規,0,2024-01-11,2024-01-11,株式会社３Ｂ　Ｔｅｃｈ　Ｌａｂ,,株式会社,茨城県,つくば市,みどりの東２８番地１２,,08,220,3050883,,,,,,,2024-01-11,1,,,,,スリービーテックラボ,0
134,1050003008051,新規,0,2024-01-11,2024-01-11,合同会社ベルテックス,,合同会社,茨城県,神栖市,太田７３２番地３３６,,08,232,3140254,,,,,,,2024-01-11,1,,,,,ベルテックス,0
135,1060001036714,新規,0,2024-01-11,2024-01-11,株式会社カーショップカネコ,,株式会社,栃木県,下野市,橋本４３０番地２,,09,216,3290506,,,,,,,2024-01-11,1,,,,,カーショップカネコ,0
136,1060001036722,新規,0,2024-01-11,2024-01-11,ケイエスプランツ株式会社,,株式会社,栃木県,鹿沼市,下武子町３２０番地８,,09,205,3220004,,,,,,,2024-01-11,1,,,,,ケイエスプランツ,0
145,1080105006388,新規,0,2024-01-11,2024-01-11,スパックス熱海伊豆山管理組合法人,,その他の設立登記法人,静岡県,熱海市,伊豆山１０９６番地１,,22,205,4130002,,,,,,,2024-01-11,1,,,,,スパックスアタミイズサン,0
160,1080401026940,新規,0,2024-01-11,2024-01-11,株式会社Ｎｅｗネクサス,,株式会社,静岡県,浜松市中央区,初生町１０５７番地の３,,22,138,4338112,,,,,,,2024-01-11,1,,,,,ニューネクサス,0
167,1100003007337,新規,0,2024-01-11,2024-01-11,ＴｏｒａｓＴｅｃｈ合同会社,,合同会社,長野県,千曲市,大字内川１１２５番地２号,,20,218,3890802,,,,,,,2024-01-11,1,,,,,トラステック,0
176,1120001261116,新規,0,2024-01-11,2024-01-11,ＭＣ株式会社,,株式会社,大阪府,大阪市浪速区,浪速東３丁目９－１７,,27,111,5560025,,,,,,,2024-01-11,1,,,,,エムシー,0
177,1120001261165,新規,0,2024-01-11,2024-01-11,Ｓ‐ｓｍｉｌｅ株式会社,,株式会社,大阪府,大阪市都島区,友渕町３丁目１番１号高倉第一コーポＡ棟６０１,,27,102,5340016,,,,,,,2024-01-11,1,,,,,エススマイル,0
178,1120001261173,新規,0,2024-01-11,2024-01-11,やさしい看護株式会社,,株式会社,大阪府,大阪市東淀川区,東中島１丁目１７番５号ステュディオ新大阪６３９号室,,27,114,5330033,,,,,,,2024-01-11,1,,,,,ヤサシイカンゴ,0
182,1120101068857,新規,0,2024-01-11,2024-01-11,ＮＴ　ＫＡＮＳＡＩ株式会社,,株式会社,大阪府,藤井寺市,道明寺２丁目１０番１号,,27,226,5830012,,,,,,,2024-01-11,1,,,,,エヌティカンサイ,0
186,1130001076100,新規,0,2024-01-11,2024-01-11,株式会社合縁奇縁,,株式会社,京都府,与謝郡与謝野町,字幾地９１２番地,,26,465,6292311,,,,,,,2024-01-11,1,,,,,アイエンキエン,0
188,1130003009231,新規,0,2024-01-11,2024-01-11,アートフィルム合同会社,,合同会社,京都府,城陽市,寺田今橋２番地の２７,,26,207,6100121,,,,,,,2024-01-11,1,,,,,アートフィルム,0
200,1140001132942,新規,0,2024-01-11,2024-01-11,株式会社丙成フード,,株式会社,兵庫県,姫路市,大津区勘兵衛町１丁目１１４番地２,,28,201,6711132,,,,,,,2024-01-11,1,,,,,ヘイセイフード,0
204,1140005026901,新規,0,2024-01-11,2024-01-11,医療法人社団きぬた歯科,,その他の設立登記法人,兵庫県,姫路市,飾磨区高町１丁目３２４,,28,201,6728081,,,,,,,2024-01-11,1,,,,,キヌタシカ,0
206,1160001025624,新規,0,2024-01-11,2024-01-11,株式会社マルチパーパスホールディング,,株式会社,滋賀県,大津市,浜大津４丁目１番１－１２１０号,,25,201,5200047,,,,,,,2024-01-11,1,,,,,マルチパーパスホールディング,0
226,1180003026189,新規,0,2024-01-11,2024-01-11,Ａｒｔｉｓｓｉｍｏ　Ｊａｐａｎ合同会社,,合同会社,愛知県,名古屋市緑区,東神の倉２丁目２０４１番地,,23,114,4580808,,,,,,,2024-01-11,1,,,,,アーティッシモジャパン,0
227,1180003026206,新規,0,2024-01-11,2024-01-11,合同会社Ｂｒｉｇｈｔａｓ,,合同会社,愛知県,小牧市,大字本庄１９８２番地１,,23,219,4850821,,,,,,,2024-01-11,1,,,,,ブライタス,0
235,1190002024705,新規,0,2024-01-11,2024-01-11,有限会社千福フライ工業,,有限会社,三重県,伊賀市,千歳８番地の１,,24,216,5180002,,,,,,,2024-01-11,1,,,,,チフクフライコウギョウ,0
237,1190003004549,新規,0,2024-01-11,2024-01-11,まごころ葬儀合同会社,,合同会社,三重県,津市,栗真町屋町３４番地２,,24,201,5140102,,,,,,,2024-01-11,1,,,,,マゴコロソウギ,0
241,1200001042061,新規,0,2024-01-11,2024-01-11,株式会社ケミカル岐阜,,株式会社,岐阜県,岐阜市,大字古市場字西畑１１１番地５ハイツ島塚１０６,00133293,21,201,5000000,,,,,,,2024-01-11,1,,,,,ケミカルギフ,0
242,1200003006196,新規,0,2024-01-11,2024-01-11,合同会社田中保険サービス,,合同会社,岐阜県,可児郡御嵩町,古屋敷７１８番地２,,21,521,5050123,,,,,,,2024-01-11,1,,,,,タカナホケンサービス,0
243,1200003006205,新規,0,2024-01-11,2024-01-11,合同会社ウィズ,,合同会社,岐阜県,岐阜市,加納愛宕町１８番地１号７１２,,21,201,5008476,,,,,,,2024-01-11,1,,,,,ウィズ,0
245,1210001019595,新規,0,2024-01-11,2024-01-11,エスプラントテック株式会社,,株式会社,福井県,敦賀市,莇生野１０５号１２２番地,,18,202,9140141,,,,,,,2024-01-11,1,,,,,エスプラントテック,0
247,1220001025766,新規,0,2024-01-11,2024-01-11,株式会社龍乃介,,株式会社,石川県,金沢市,此花町１１番１５号,,17,201,9200852,,,,,,,2024-01-11,1,,,,,リュウノスケ,0
248,1230001020163,新規,0,2024-01-11,2024-01-11,株式会社Ｆｕｓｓｂａｌｌ　Ｐｌｕｓ,,株式会社,富山県,富山市,水橋的場３８３番地,,16,201,9393553,,,,,,,2024-01-11,1,,,,,フースバルプラス,0
249,1230001020171,新規,0,2024-01-11,2024-01-11,株式会社マツナガ,,株式会社,富山県,富山市,中老田８２６番地３,,16,201,9300166,,,,,,,2024-01-11,1,,,,,マツナガ,0
254,1250003003412,新規,0,2024-01-11,2024-01-11,ロータスセイロンインターナショナル合同会社,,合同会社,山口県,下関市,東大和町１丁目１－１,,35,201,7500066,,,,,,,2024-01-11,1,,,,,ロータスセイロンインターナショナル,0
256,1260005011305,新規,0,2024-01-11,2024-01-11,ＮＰＯ法人ＣＨＩＧＡＹＡ,,その他の設立登記法人,岡山県,津山市,中島２２３番地１６,,33,203,7080871,,,,,,,2024-01-11,1,,,,,チガヤ,0
262,1280003001801,新規,0,2024-01-11,2024-01-11,合同会社青木農園,,合同会社,島根県,浜田市,金城町長田ロ９１番地,,32,202,6970212,,,,,,,2024-01-11,1,,,,,アオキノウエン,0
280,1290001104159,新規,0,2024-01-11,2024-01-11,株式会社Ｆｏｒｔｈ,,株式会社,福岡県,福岡市博多区,山王１丁目４番２０号１－Ａ,,40,132,8120015,,,,,,,2024-01-11,1,,,,,フォース,0
281,1290001104274,新規,0,2024-01-11,2024-01-11,株式会社Ｃｌａｐ,,株式会社,福岡県,福岡市博多区,店屋町４－８－４０６,,40,132,8120025,,,,,,,2024-01-11,1,,,,,クラップ,0
282,1290001104290,新規,0,2024-01-11,2024-01-11,株式会社ＨＹＥＮＡ,,株式会社,福岡県,福岡市中央区,大手門３丁目１２番１０－３０３号,,40,133,8100074,,,,,,,2024-01-11,1,,,,,ハイエナ,0
283,1290001104316,新規,0,2024-01-11,2024-01-11,株式会社おおき犬と猫の病院,,株式会社,福岡県,三潴郡大木町,大字大角２４０番地,,40,522,8300403,,,,,,,2024-01-11,1,,,,,オオキイヌトネコノビョウイン,0
284,1290001104324,新規,0,2024-01-11,2024-01-11,株式会社ＣＡＭＡＲＯ,,株式会社,福岡県,福岡市中央区,大名１丁目９番１４号,,40,133,8100041,,,,,,,2024-01-11,1,,,,,カマロ,0
287,1290003014835,新規,0,2024-01-11,2024-01-11,合同会社天いろ,,合同会社,福岡県,福岡市博多区,祇園町６番２７号ロマネスク祇園６０２号,,40,132,8120038,,,,,,,2024-01-11,1,,,,,,0
288,1300001013589,新規,0,2024-01-11,2024-01-11,株式会社辻工務店,00133294,株式会社,佐賀県,多久市,東多久町大字別府６４８２番地１,,41,204,8460012,,,,,,,2024-01-11,1,,,,,ツジコウムテン,0
289,1320001020229,新規,0,2024-01-11,2024-01-11,ｓｔ‐通信株式会社,,株式会社,大分県,大分市,三佐１丁目１９番２５号,,44,201,8700108,,,,,,,2024-01-11,1,,,,,エスティツウシン,0
290,1320003004270,新規,0,2024-01-11,2024-01-11,合同会社大島,,合同会社,大分県,豊後大野市,三重町赤嶺２９２４番地１,,44,212,8797111,,,,,,,2024-01-11,1,,,,,オオシマ,0
300,1390001017474,新規,0,2024-01-11,2024-01-11,株式会社ＭＩＲＡＩ,,株式会社,山形県,寒河江市,本楯３丁目１４０番地２階,,06,206,9910049,,,,,,,2024-01-11,1,,,,,ミライ,0
306,1420001011878,新規,0,2024-01-11,2024-01-11,青森抵当証券株式会社,,株式会社,青森県,上北郡野辺地町,字助佐小路５番地２５,,02,401,0393114,,,,,,,2024-01-11,1,,,,,アオモリテイトウショウケン,0
309,1430001090814,新規,0,2024-01-11,2024-01-11,株式会社ＶＯＬＩＸ,,株式会社,北海道,江別市,向ケ丘５１－１６,,01,217,0670075,,,,,,,2024-01-11,1,,,,,ヴォリックス,0
310,1430001090830,新規,0,2024-01-11,2024-01-11,株式会社ＣＬＥＳＴ,,株式会社,北海道,岩見沢市,栗沢町北幸穂１２１番地１,,01,210,0680122,,,,,,,2024-01-11,1,,,,,クレスト,0
312,1430003015835,新規,0,2024-01-11,2024-01-11,ＮｏＭｙ　Ｊａｐａｎ合同会社,,合同会社,北海道,札幌市中央区,南一条西１丁目１５番地３－３ＦＬＩＧＨＴＯＦＦＩＣＥ,,01,101,0600061,,,,,,,2024-01-11,1,,,,,ノーミージャパン,0
316,1470001019974,新規,0,2024-01-11,2024-01-11,株式会社三好建設,,株式会社,香川県,高松市,高松町２１９６番地１１２,,37,201,7610104,,,,,,,2024-01-11,1,,,,,ミヨシケンセツ,0
319,1490003001854,新規,0,2024-01-11,2024-01-11,合同会社ルル・ノエル,,合同会社,高知県,高知市,万々２１９番地１８,,39,201,7800973,,,,,,,2024-01-11,1,,,,,ルルノエル,0
320,1490005006918,新規,0,2024-01-11,2024-01-11,医療法人彩光会,,その他の設立登記法人,高知県,安芸市,東浜字ミヤケダ６０番地３,,39,203,7840010,,,,,,,2024-01-11,1,,,,,サイコウカイ,0
323,1700150118561,新規,0,2024-01-11,2024-01-11,Ｓｈｅｎｚｈｅｎｓｈｉ　Ｗａｎｓｈｉ　Ｋｅｊｉ　Ｙｏｕｘｉａｎ　Ｇｏｎｇｓｉ,,外国会社等,,,,,,,,＃２９０３，ＪｉｎＨａｉＨｕａＦｕＤＺｕｏＸｉｎＡｎＪｉｅＤａｏＳｉＬｕ，ＢａｏＡｎＱｕ　Ｓｈｅｎｚｈｅｎ，Ｇｕａｎｇｄｏｎｇ,,,,,,2024-01-11,1,,,,,シェンジェンシワンシーカージヨウシェンゴンス,0
324,1700150123306,新規,0,2024-01-11,2024-01-11,ＹＵＭＮＡ　ＥＮＴＥＲＰＲＩＳＥＳ,,外国会社等,新潟県,妙高市,大字小濁７３１レンタルスペース２Ｆ－４,,15,217,9440221,スリランカ民主社会主義共和国、マダワレ、ワッテガメロード、クドゥガレ２３／Ｃ番,,,,,,2024-01-11,1,,,,,ユムナエンタープライセス,0
329,2010001241284,新規,0,2024-01-11,2024-01-11,株式会社ミラク,,株式会社,東京都,千代田区,神田和泉町１番地６－１６ヤマトビル４０５,,13,101,1010024,,,,,,,2024-01-11,1,,,,,ミラク,0
330,2010001241292,新規,0,2024-01-11,2024-01-11,５Ａ株式会社,,株式会社,東京都,千代田区,東神田２丁目１０番１６号９階,,13,101,1010031,,,,,,,2024-01-11,1,,,,,ファイブエー,0
331,2010001241301,新規,0,2024-01-11,2024-01-11,株式会社束良管理,,株式会社,東京都,千代田区,平河町１丁目９番１－７０３号,,13,101,1020093,,,,,,,2024-01-11,1,,,,,ソクリョウカンリ,0
332,2010001241375,新規,0,2024-01-11,2024-01-11,株式会社Ｄｅａｒｉｎｇ,,株式会社,東京都,中央区,銀座４丁目１０番１４号ＡＣＮ銀座４ビル５階,,13,102,1040061,,,,,,,2024-01-11,1,,,,,ディアリング,0
333,2010001241400,新規,0,2024-01-11,2024-01-11,ジパングリ株式会社,,株式会社,東京都,中央区,銀座１丁目１２番４号Ｎ＆ＥＢＬＤ．６Ｆ,,13,102,1040061,,,,,,,2024-01-11,1,,,,,ジパングリ,0
343,2010401179562,新規,0,2024-01-11,2024-01-11,瑞樹株式会社,,株式会社,東京都,港区,六本木４丁目８番１－１００２号,,13,103,1060032,,,,,,,2024-01-11,1,,,,,ミズキ,0
344,2010401179595,新規,0,2024-01-11,2024-01-11,Ｖｉｓｔｅｒｉａ株式会社,,株式会社,東京都,港区,南青山２丁目２番１５号,,13,103,1070062,,,,,,,2024-01-11,1,,,,,ヴィステリア,0
345,2010401179604,新規,0,2024-01-11,2024-01-11,Ａｓｙｍｃｈｅｍ　Ｊａｐａｎ株式会社,,株式会社,東京都,港区,虎ノ門４丁目１番１号,,13,103,1050001,,,,,,,2024-01-11,1,,,,,アシムケムジャパン,0
346,2010401179629,新規,0,2024-01-11,2024-01-11,株式会社ファーストオーダー,,株式会社,東京都,港区,元赤坂１丁目４番２１号赤坂パレスビル４階,,13,103,1070051,,,,,,,2024-01-11,1,,,,,ファーストオーダー,0
352,2010403031705,新規,0,2024-01-11,2024-01-11,ｌｉｂｅｒｔｅ合同会社,,合同会社,東京都,港区,白金３丁目１番１３号日恵ビル２階,,13,103,1080072,,,,,,,2024-01-11,1,,,,,リベルテ,0
357,2010601064449,新規,0,2024-01-11,2024-01-11,株式会社すみだ,,株式会社,東京都,墨田区,本所３丁目１６番１０号,,13,107,1300004,,,,,,,2024-01-11,1,,,,,スミダ,0
361,2010703007017,新規,0,2024-01-11,2024-01-11,Ｓｈａｒｅｆｌｏｗ合同会社,,合同会社,東京都,品川区,東品川３丁目１４－２６－３０３,,13,109,1400002,,,,,,,2024-01-11,1,,,,,シェアフロー,0
364,2010803004806,新規,0,2024-01-11,2024-01-11,ワイズワークスコンサルティング合同会社,,合同会社,東京都,大田区,下丸子２丁目１２番２号シエルズガーデンリビエルタワー１７０５号,,13,111,1460092,,,,,,,2024-01-11,1,,,,,ワイズワークスコンサルティング,0
365,2010901054447,新規,0,2024-01-11,2024-01-11,株式会社Ｔｒａｖｅｌｐ‐ｓａｎ,,株式会社,東京都,世田谷区,赤堤１丁目２２番２号,,13,112,1560044,,,,,,,2024-01-11,1,,,,,トラベルプサン,0
366,2010901054488,新規,0,2024-01-11,2024-01-11,Ｓｏｍｅｔｈｉｎｇ株式会社,,株式会社,東京都,世田谷区,野沢１丁目１２番５－４０９号,,13,112,1540003,,,,,,,2024-01-11,1,,,,,サムシング,0
367,2010901054496,新規,0,2024-01-11,2024-01-11,株式会社ＲｔＨ,,株式会社,東京都,世田谷区,上馬５丁目３５番２５－６０１号室,,13,112,1540011,,,,,,,2024-01-11,1,,,,,アールティーエイチ,0
368,2010903008723,新規,0,2024-01-11,2024-01-11,Ｖｉｔｅｓｓｅ合同会社,,合同会社,東京都,世田谷区,下馬５丁目３６番２２－４０５号,,13,112,1540002,,,,,,,2024-01-11,1,,,,,ヴィテス,0
379,2011001159236,新規,0,2024-01-11,2024-01-11,株式会社ＣＮＥ,,株式会社,東京都,渋谷区,恵比寿３丁目３８－３セボン恵比寿１０３号室,,13,113,1500013,,,,,,,2024-01-11,1,,,,,シーエヌイー,0
380,2011001159244,新規,0,2024-01-11,2024-01-11,スゴロックス株式会社,,株式会社,東京都,目黒区,平町１丁目２４番１３号西山様方,,13,110,1520032,,,,,,,2024-01-11,1,,,,,スゴロックス,0
381,2011003018241,新規,0,2024-01-11,2024-01-11,合同会社Ｐｅａｃｈ　Ｗｏｒｋｓ,,合同会社,東京都,渋谷区,初台２丁目２８番１５号タウンコート初台１０３,,13,113,1510061,,,,,,,2024-01-11,1,,,,,ピーチワークス,0
382,2011005010329,新規,0,2024-01-11,2024-01-11,一般社団法人生産性コーチング協会,,その他の設立登記法人,東京都,渋谷区,上原３丁目７番１１号,,13,113,1510064,,,,,,,2024-01-11,1,,,,,セイサンセイコーチングキョウカイ,0
383,2011101006354,新規,0,2024-01-11,2024-01-11,グローバル・バリュー株式会社,,株式会社,東京都,新宿区,三栄町６番地１２,,13,104,1600000,,,,,,,2024-01-11,1,,,,,グローバルバリュー,0
387,2011103013951,新規,0,2024-01-11,2024-01-11,Ｊｃｕｂｅ合同会社,,合同会社,東京都,新宿区,西新宿３丁目３番１３号西新宿水間ビル６階,,13,104,1600023,,,,,,,2024-01-11,1,,,,,ジェイキューブ,0
391,2011401025748,新規,0,2024-01-11,2024-01-11,株式会社むらさきとあお,,株式会社,東京都,板橋区,板橋２丁目６３番４号,,13,119,1730004,,,,,,,2024-01-11,1,,,,,ムラサキトアオ,0
395,2011601027445,新規,0,2024-01-11,2024-01-11,株式会社ＨＥＲＯＥＳ　ＬＩＦＥ,,株式会社,東京都,練馬区,大泉学園町２丁目２２番３０－４０１号,,13,120,1780061,,,,,,,2024-01-11,1,,,,,ヒーローズライフ,0
408,2020001155211,新規,0,2024-01-11,2024-01-11,株式会社Ｗａｓｈ　Ｃａｒｅ　Ｓｕｐｐｏｒｔ,,株式会社,神奈川県,横浜市港北区,大豆戸町５３５番地５ライオンズマンション菊名第２、４０１号,,14,109,2220032,,,,,,,2024-01-11,1,,,,,ウォシュケアサポート,0
409,2020001155244,新規,0,2024-01-11,2024-01-11,ウェイド株式会社,,株式会社,神奈川県,川崎市宮前区,有馬２丁目９番１０号シティハイム田園ハイツ１０２,,14,136,2160003,,,,,,,2024-01-11,1,,,,,ウェイド,0
412,2020003025321,新規,0,2024-01-11,2024-01-11,ＹＵＵ　ＭＵＲＡＴＡ合同会社,,合同会社,神奈川県,川崎市多摩区,東三田３丁目１０番１－５０８号,,14,135,2140033,,,,,,,2024-01-11,1,,,,,ユウムラタ,0
417,2021003014009,新規,0,2024-01-11,2024-01-11,合同会社ＳＩＮ　ＪＡＰＡＮ,,合同会社,神奈川県,愛甲郡愛川町,中津７２８７番地,,14,401,2430303,,,,,,,2024-01-11,1,,,,,シンジャパン,0
424,2030001157958,新規,0,2024-01-11,2024-01-11,ＮＥＸＴ株式会社,,株式会社,埼玉県,比企郡吉見町,大字田甲１１８２番地１９９,,11,347,3550167,,,,,,,2024-01-11,1,,,,,ネクスト,0
425,2030001158007,新規,0,2024-01-11,2024-01-11,株式会社ネクストステージ,,株式会社,埼玉県,越谷市,弥栄町４丁目１番地７,,11,222,3430046,,,,,,,2024-01-11,1,,,,,ネクストステージ,0
426,2030001158080,新規,0,2024-01-11,2024-01-11,藤倉ドローン株式会社,,株式会社,埼玉県,さいたま市南区,内谷２丁目１４－２２,,11,108,3360034,,,,,,,2024-01-11,1,,,,,フジクラドローン,0
434,2040001131648,新規,0,2024-01-11,2024-01-11,株式会社Ｅａｓｔ　ｃｏｎｎｅｃｔｉｏｎ,,株式会社,千葉県,船橋市,本郷町４９５番地１本郷町マンション５０２,,12,204,2730033,,,,,,,2024-01-11,1,,,,,イーストコネクション,0
435,2040001131672,新規,0,2024-01-11,2024-01-11,株式会社ハイセクト,,株式会社,千葉県,袖ケ浦市,袖ケ浦駅前１丁目３９番地７、４０５号,,12,229,2990269,,,,,,,2024-01-11,1,,,,,ハイセクト,0
440,2050001054096,新規,0,2024-01-11,2024-01-11,株式会社ＳＥＣＭ,,株式会社,茨城県,坂東市,生子１４３６番地２,,08,228,3060504,,,,,,,2024-01-11,1,,,,,エスイーシーエム,0
441,2050003008042,新規,0,2024-01-11,2024-01-11,合同会社宮本総業,,合同会社,茨城県,稲敷市,下君山１１５４番地２,,08,229,3000527,,,,,,,2024-01-11,1,,,,,ミヤモトソウギョウ,0
442,2050003008050,新規,0,2024-01-11,2024-01-11,合同会社ワンス,,合同会社,茨城県,取手市,双葉３丁目３７－２アルファ藤代１０５,,08,217,3001501,,,,,,,2024-01-11,1,,,,,,0
444,2060001036721,新規,0,2024-01-11,2024-01-11,株式会社ＲＩＳＥ．ｅｖｏ,,株式会社,栃木県,宇都宮市,陽東１丁目９番３１号アグレアーブル６０３号室,,09,201,3210904,,,,,,,2024-01-11,1,,,,,ライズエボ,0
447,2070001041266,新規,0,2024-01-11,2024-01-11,株式会社ＳＳＫ,,株式会社,群馬県,太田市,台之郷町１２３９番地,,10,205,3730801,,,,,,,2024-01-11,1,,,,,エスエスケー,0
467,2090001018493,新規,0,2024-01-11,2024-01-11,株式会社ＳＵＮＮＹ　ＰＬＡＹＣＥ,,株式会社,山梨県,南アルプス市,百々２００８番地８,,19,208,4000214,,,,,,,2024-01-11,1,,,,,サニープレイス,0
483,2120001261057,新規,0,2024-01-11,2024-01-11,株式会社ｏｆｆｉｃｅ　ｓｋｙ　Ｊａｐａｎ,,株式会社,大阪府,大阪市大正区,三軒家東１丁目１５番２９号カーサウエスト１０１号,,27,108,5510002,,,,,,,2024-01-11,1,,,,,オフィススカイジャパン,0
484,2120001261073,新規,0,2024-01-11,2024-01-11,株式会社ＣＳワン,,株式会社,大阪府,大阪市北区,中之島４丁目３番２５号,,27,127,5300005,,,,,,,2024-01-11,1,,,,,シーエスワン,0
485,2120001261197,新規,0,2024-01-11,2024-01-11,株式会社オープンソフト,,株式会社,大阪府,大阪市住之江区,御崎６丁目７番２３号,,27,125,5590013,,,,,,,2024-01-11,1,,,,,オープンソフト,0
486,2120001261296,新規,0,2024-01-11,2024-01-11,尚栢株式会社,,株式会社,大阪府,大阪市北区,天神橋４丁目７番１１号ＫＡＩＳＥＩ東梅田２Ｆ,,27,127,5300041,,,,,,,2024-01-11,1,,,,,ショウハク,0
487,2120003025633,新規,0,2024-01-11,2024-01-11,ＫＦＲ合同会社,,合同会社,大阪府,大阪市北区,梅田１丁目２番２号１２－１２,,27,127,5300001,,,,,,,2024-01-11,1,,,,,ケイエフアール,0
492,2120101068856,新規,0,2024-01-11,2024-01-11,株式会社ＴＫＳ,,株式会社,大阪府,岸和田市,磯上町５丁目２４－８,,27,202,5960001,,,,,,,2024-01-11,1,,,,,ティーケーエス,0
499,2130001076082,新規,0,2024-01-11,2024-01-11,株式会社松詠堂,,株式会社,京都府,京都市東山区,星野町８７,,26,105,6050853,,,,,,,2024-01-11,1,,,,,ショウエイドウ,0
500,2130001076108,新規,0,2024-01-11,2024-01-11,株式会社ユニカン,,株式会社,京都府,京都市中京区,西ノ京小倉町１０６番地ミルフローラＳＫ二条１階,,26,104,6048414,,,,,,,2024-01-11,1,,,,,ユニカン,0
506,2140001132974,新規,0,2024-01-11,2024-01-11,Ｔｒａｃｔｕｓ　Ｊａｐａｎ株式会社,,株式会社,兵庫県,神戸市中央区,御幸通８丁目１番６号神戸国際会館２２階,,28,110,6510087,,,,,,,2024-01-11,1,,,,,トラクタスジャパン,0
510,2170001017958,新規,0,2024-01-11,2024-01-11,株式会社ワークマイスターオンラインストア,,株式会社,和歌山県,田辺市,高雄３丁目３２番１７号オーキッドエステートＩＩ１０２号,00133289,30,206,6460028,,,,,,,2024-01-11,1,,,,,ワークマイスターオンラインストア,0
519,2180001159667,新規,0,2024-01-11,2024-01-11,株式会社ＷＡ,,株式会社,愛知県,長久手市,仲田７１０番地,,23,238,4801167,,,,,,,2024-01-11,1,,,,,ワ,0
520,2180001159683,新規,0,2024-01-11,2024-01-11,株式会社タナカ電設,,株式会社,愛知県,名古屋市西区,比良４丁目３０３番地－２０２号,,23,104,4520802,,,,,,,2024-01-11,1,,,,,タナカデンセツ,0
521,2180001159691,新規,0,2024-01-11,2024-01-11,株式会社ＮＭ,,株式会社,愛知県,名古屋市中区,栄１丁目２４番１１号,,23,106,4600008,,,,,,,2024-01-11,1,,,,,エヌエム,0
522,2180001159717,新規,0,2024-01-11,2024-01-11,株式会社橋本製作所,,株式会社,愛知県,一宮市,萩原町朝宮字嫁振１８番地,,23,203,4910354,,,,,,,2024-01-11,1,,,,,ハシモトセイサクショ,0
531,2180003026188,新規,0,2024-01-11,2024-01-11,合同会社桜花名塾,,合同会社,愛知県,名古屋市天白区,植田３丁目２１０番地,,23,116,4680051,,,,,,,2024-01-11,1,,,,,オウカメイジュク,0
535,2190001031016,新規,0,2024-01-11,2024-01-11,株式会社ナガサク,,株式会社,三重県,松阪市,上川町３８３番地１,,24,204,5150041,,,,,,,2024-01-11,1,,,,,ナガサク,0
536,2190003004548,新規,0,2024-01-11,2024-01-11,合同会社ｈａｄｒｅｓｓ,,合同会社,三重県,津市,大里睦合町９６４－５,,24,201,5140126,,,,,,,2024-01-11,1,,,,,ハドレス,0
540,2200001042052,新規,0,2024-01-11,2024-01-11,Ｋ‐ＥＬＥＣ株式会社,,株式会社,岐阜県,関市,倉知３２５３番地１７,,21,205,5013936,,,,,,,2024-01-11,1,,,,,ケーエレック,0
541,2200003006204,新規,0,2024-01-11,2024-01-11,合同会社ライフ,,合同会社,岐阜県,岐阜市,加納愛宕町１８番地１号７１２,,21,201,5008476,,,,,,,2024-01-11,1,,,,,ライフ,0
546,2230001020170,新規,0,2024-01-11,2024-01-11,株式会社アングラー,,株式会社,富山県,高岡市,永楽町１番５０号,,16,202,9330843,,,,,,,2024-01-11,1,,,,,アングラー,0
551,2240001062641,新規,0,2024-01-11,2024-01-11,株式会社Ａｇａｉｎ,,株式会社,広島県,広島市東区,牛田新町３丁目４６番４号,,34,102,7320068,,,,,,,2024-01-11,1,,,,,アゲイン,0
554,2240002047063,新規,0,2024-01-11,2024-01-11,有限会社中塔ガラス建材,,有限会社,広島県,府中市,中須町１１４７番地の２,,34,208,7260012,,,,,,,2024-01-11,1,,,,,ナカトウガラスケンザイ,0
574,2290001104281,新規,0,2024-01-11,2024-01-11,株式会社坂田工業,,株式会社,福岡県,大牟田市,大字田隈８５８番地４グッチ・フィールド１０１,,40,202,8370916,,,,,,,2024-01-11,1,,,,,サカタコウギョウ,0
575,2290001104298,新規,0,2024-01-11,2024-01-11,株式会社Ｋ．Ｄ．Ｓ九州,,株式会社,福岡県,福岡市博多区,博多駅南１丁目７番２２号,,40,132,8120016,,,,,,,2024-01-11,1,,,,,ケーディーエスキュウシュウ,0
577,2290003014826,新規,0,2024-01-11,2024-01-11,テロメア工房合同会社,,合同会社,福岡県,福岡市城南区,長尾５丁目２７番８号,,40,136,8140123,,,,,,,2024-01-11,1,,,,,テロメアコウボウ,0
578,2310001018792,新規,0,2024-01-11,2024-01-11,株式会社はらしょう,,株式会社,長崎県,諫早市,飯盛町池下３１３番地,,42,204,8541125,,,,,,,2024-01-11,1,,,,,,0
584,2360001033044,新規,0,2024-01-11,2024-01-11,株式会社Ｒｉｖｅｒ　Ｆｌａｔ　ＫＣ,,株式会社,沖縄県,石垣市,字川平９３４番地３７,,47,207,9070453,,,,,,,2024-01-11,1,,,,,リバーフラットケーシー,0
586,2360003013614,新規,0,2024-01-11,2024-01-11,テラシステム合同会社,,合同会社,沖縄県,石垣市,新栄町１６－１４,,47,207,9070014,,,,,,,2024-01-11,1,,,,,テラシステム,0
589,2370001050798,新規,0,2024-01-11,2024-01-11,株式会社荒建材工業,,株式会社,宮城県,富谷市,ひより台１丁目６番地１,,04,216,9813304,,,,,,,2024-01-11,1,,,,,アラケンザイコウギョウ,0
599,2400001016515,新規,0,2024-01-11,2024-01-11,株式会社モビリティサービス,,株式会社,岩手県,盛岡市,黒川８地割１番地２,,03,201,0200402,,,,,,,2024-01-11,1,,,,,モビリティサービス,0
604,2410001013692,新規,0,2024-01-11,2024-01-11,株式会社Ｙ‐ｆａｍｉｌｙ,,株式会社,秋田県,大館市,御成町４丁目８番２５号,,05,204,0170044,,,,,,,2024-01-11,1,,,,,ワイファミリー,0
606,2420001018542,新規,0,2024-01-11,2024-01-11,株式会社ＧＬ,,株式会社,青森県,八戸市,大字湊町字ホロキ長根９番地８,,02,203,0310812,,,,,,,2024-01-11,1,,,,,ジーエル,0
608,2430001090805,新規,0,2024-01-11,2024-01-11,株式会社アトリエファームマツモト,,株式会社,北海道,三笠市,いちきしり４８番地の５,,01,222,0682164,,,,,,,2024-01-11,1,,,,,アトリエファームマツモト,0
609,2430001090813,新規,0,2024-01-11,2024-01-11,株式会社雅,,株式会社,北海道,札幌市中央区,南十九条西８丁目１番２１号,,01,101,0640919,,,,,,,2024-01-11,1,,,,,ミヤビ,0
610,2430001090821,新規,0,2024-01-11,2024-01-11,株式会社柏葉アメニティサービス,,株式会社,北海道,札幌市中央区,北一条西１０丁目１番地２１,,01,101,0600001,,,,,,,2024-01-11,1,,,,,カシワバアメニティサービス,0
611,2430003015826,新規,0,2024-01-11,2024-01-11,合同会社クリエイションベイシス,,合同会社,北海道,北広島市,北進町１丁目１番地１,,01,234,0611132,,,,,,,2024-01-11,1,,,,,クリエイションベイシス,0
619,2700150123305,新規,0,2024-01-11,2024-01-11,ＷＴ　ＰＡＲＴＮＥＲＳＨＩＰ　ＨＫ　ＬＩＭＩＴＥＤ,,外国会社等,東京都,中央区,日本橋２丁目２番３号ＲＩＳＨＥビルＵＣＦ４階,,13,102,1030027,中華人民共和国香港特別行政区九龍観塘開源道３３号パイオニア・プレイス１０階,,,,,,2024-01-11,1,,,,,ダブリユーテイーパートナーシツプホンコンリミテツド,0
627,3010001241291,新規,0,2024-01-11,2024-01-11,ユーパートナーズ株式会社,,株式会社,東京都,中央区,勝どき１丁目８番１号,,13,102,1040054,,,,,,,2024-01-11,1,,,,,ユーパートナーズ,0
628,3010001241341,新規,0,2024-01-11,2024-01-11,株式会社カラオケエンタテイメント,,株式会社,東京都,千代田区,神田神保町１丁目２番地,,13,101,1010051,,,,,,,2024-01-11,1,,,,,カラオケエンタテイメント,0
630,3010003042606,新規,0,2024-01-11,2024-01-11,Ｃｌｉｎ‐Ｔｒｕｓｔ合同会社,,合同会社,東京都,中央区,銀座１丁目１２番４号Ｎ＆ＥＢＬＤ．６Ｆ,,13,102,1040061,,,,,,,2024-01-11,1,,,,,クリントラスト,0
631,3010003042622,新規,0,2024-01-11,2024-01-11,合同会社ＪＦファンド１号,,合同会社,東京都,中央区,日本橋１丁目４番１号,,13,102,1030027,,,,,,,2024-01-11,1,,,,,ジェイエフファンドイチゴウ,0
640,3010401179586,新規,0,2024-01-11,2024-01-11,株式会社ＺＥＲＯＧＡＴＥ,,株式会社,東京都,港区,南麻布３丁目２０番１号Ｄａｉｗａ麻布テラス５Ｆ,,13,103,1060047,,,,,,,2024-01-11,1,,,,,ゼロゲート,0
641,3010401179594,新規,0,2024-01-11,2024-01-11,株式会社ＮＯＢＵ,,株式会社,東京都,港区,赤坂１丁目１番１７号,,13,103,1070052,,,,,,,2024-01-11,1,,,,,ノブ,0
642,3010401179603,新規,0,2024-01-11,2024-01-11,ＡＶＡＣ　Ｊａｐａｎ株式会社,,株式会社,東京都,港区,南青山２丁目２番１５号ウィン青山９４２,,13,103,1070062,,,,,,,2024-01-11,1,,,,,アバックジャパン,0
643,3010405022825,新規,0,2024-01-11,2024-01-11,一般社団法人ＤＭＭ．ｍａｋｅ　ＴＯＫＹＯ,,その他の設立登記法人,東京都,港区,六本木３丁目２番１号,,13,103,1060032,,,,,,,2024-01-11,1,,,,,ディーエムエムドットメイクトウキョウ,0
646,3010601064456,新規,0,2024-01-11,2024-01-11,株式会社ジェネズフィット,,株式会社,東京都,江東区,東雲２丁目７－５トミンタワー東雲２５１０,,13,108,1350062,,,,,,,2024-01-11,1,,,,,ジェネズフィット,0
648,3010603010573,新規,0,2024-01-11,2024-01-11,合同会社イートリー,,合同会社,東京都,江東区,亀戸２丁目２３番１０号鳥居ビル２階,,13,108,1360071,,,,,,,2024-01-11,1,,,,,イートリー,0
650,3010801034663,新規,0,2024-01-11,2024-01-11,株式会社アゼリアコーポレーション,,株式会社,東京都,大田区,久が原２丁目１３番２３号,,13,111,1460085,,,,,,,2024-01-11,1,,,,,アゼリアコーポレーション,0
651,3010801034671,新規,0,2024-01-11,2024-01-11,株式会社ＡＩＴ,,株式会社,東京都,大田区,東六郷１丁目２７番２号,,13,111,1440046,,,,,,,2024-01-11,1,,,,,エーアイティー,0
652,3010803004805,新規,0,2024-01-11,2024-01-11,アースプライム合同会社,,合同会社,東京都,大田区,北嶺町８番７号,,13,111,1450073,,,,,,,2024-01-11,1,,,,,アースプライム,0
653,3010903008697,新規,0,2024-01-11,2024-01-11,Ｂ．ＵＪＡＰＡＮ合同会社,,合同会社,東京都,世田谷区,喜多見８丁目６番１９号,,13,112,1570067,,,,,,,2024-01-11,1,,,,,ビーユージャパン,0
654,3010903008714,新規,0,2024-01-11,2024-01-11,ｍｅｉｌｌ合同会社,,合同会社,東京都,世田谷区,三宿１丁目１３番２－１００３号,,13,112,1540005,,,,,,,2024-01-11,1,,,,,ミール,0
662,3011001159268,新規,0,2024-01-11,2024-01-11,株式会社ＭＩＥＴＡ,,株式会社,東京都,目黒区,目黒１丁目２番９－６０３号シティハウス目黒,,13,110,1530063,,,,,,,2024-01-11,1,,,,,ミエタ,0
663,3011001159276,新規,0,2024-01-11,2024-01-11,株式会社ディーパー,,株式会社,東京都,渋谷区,神南１丁目４番１６号アピス渋谷神南６０２,,13,113,1500041,,,,,,,2024-01-11,1,,,,,ディーパー,0
664,3011001159292,新規,0,2024-01-11,2024-01-11,株式会社イーライフ・ファシリティー,,株式会社,東京都,渋谷区,南平台町１５番地１５号,,13,113,1500036,,,,,,,2024-01-11,1,,,,,イーライフファシリティー,0
665,3011003018232,新規,0,2024-01-11,2024-01-11,ＳＵＳＣＯ合同会社,,合同会社,東京都,渋谷区,道玄坂１丁目１０番８号渋谷道玄坂東急ビル２Ｆ－Ｃ,,13,113,1500043,,,,,,,2024-01-11,1,,,,,サスコ,0
674,3011403004220,新規,0,2024-01-11,2024-01-11,合同会社Ｂ,,合同会社,東京都,板橋区,徳丸３丁目１７－５手塚ビル１Ｆ,,13,119,1750083,,,,,,,2024-01-11,1,,,,,ビー,0
677,3011603004185,新規,0,2024-01-11,2024-01-11,合同会社マルヨシ商事,,合同会社,東京都,練馬区,向山４丁目３５番６－３０１号,,13,120,1760022,,,,,,,2024-01-11,1,,,,,マルヨシショウジ,0
678,3011801043613,新規,0,2024-01-11,2024-01-11,株式会社スタンド,,株式会社,東京都,葛飾区,青戸４丁目８番１０号ＴＯビル７０－２０３,,13,122,1250062,,,,,,,2024-01-11,1,,,,,スタンド,0
680,3011803006031,新規,0,2024-01-11,2024-01-11,合同会社ＭＡＲＳ,,合同会社,東京都,足立区,新田３丁目３５番２０－３０４号,,13,121,1230865,,,,,,,2024-01-11,1,,,,,マーズ,0
684,3012801022887,新規,0,2024-01-11,2024-01-11,株式会社アートモンスター,,株式会社,東京都,立川市,柏町２丁目２５番地の３１,,13,202,1900004,,,,,,,2024-01-11,1,,,,,アートモンスター,0
686,3012803003282,新規,0,2024-01-11,2024-01-11,合同会社ＡＩＳＥＩ,,合同会社,東京都,武蔵村山市,岸３丁目５番地の１５,,13,223,2080031,,,,,,,2024-01-11,1,,,,,アイセイ,0
690,3020001155169,新規,0,2024-01-11,2024-01-11,株式会社ＩＧＳ,,株式会社,神奈川県,横浜市旭区,上川井町３９４番地２,,14,112,2410802,,,,,,,2024-01-11,1,,,,,アイジーエス,0
691,3020001155185,新規,0,2024-01-11,2024-01-11,ＭＫＧテクノロジーズ株式会社,,株式会社,神奈川県,横浜市鶴見区,尻手１丁目６番２１－７０６号,,14,101,2300003,,,,,,,2024-01-11,1,,,,,エムケイジーテクノロジーズ,0
692,3020001155227,新規,0,2024-01-11,2024-01-11,株式会社ＭＡＮＡＹＯＮ,,株式会社,神奈川県,横浜市港北区,下田町２丁目２番２３号,,14,109,2230064,,,,,,,2024-01-11,1,,,,,マナヨン,0
693,3020001155243,新規,0,2024-01-11,2024-01-11,横浜あおば株式会社,,株式会社,神奈川県,横浜市青葉区,荏田町４４２番地３,,14,117,2250013,,,,,,,2024-01-11,1,,,,,,0
694,3020001155276,新規,0,2024-01-11,2024-01-11,株式会社ＭＵＧＥＮ,,株式会社,神奈川県,横浜市都筑区,荏田南３丁目３７番１３号,,14,118,2240007,,,,,,,2024-01-11,1,,,,,ムゲン,0
699,3021001081165,新規,0,2024-01-11,2024-01-11,ＲｅＷｉｎｇ株式会社,,株式会社,神奈川県,厚木市,下川入３３６番地８,,14,212,2430206,,,,,,,2024-01-11,1,,,,,リウイング,0
700,3021001081173,新規,0,2024-01-11,2024-01-11,Ｒｅ・ｖｉｕｓマネジメント株式会社,,株式会社,神奈川県,相模原市南区,新磯野５丁目１０番５号,,14,153,2520325,,,,,,,2024-01-11,1,,,,,リヴィウスマネジメント,0
702,3021003013967,新規,0,2024-01-11,2024-01-11,ＡＤＯＬＥＳＣＥＮＣＥ　ＨＥＲＯ合同会社,,合同会社,神奈川県,藤沢市,南藤沢２１－９,,14,205,2510055,,,,,,,2024-01-11,1,,,,,アドレセンスヒーロー,0
703,3021003013983,新規,0,2024-01-11,2024-01-11,Ｏｆｆｉｃｅ　Ｌ　Ｂｒｏｔｈｅｒｓ合同会社,,合同会社,神奈川県,中郡大磯町,西小磯２８６番地の４６,,14,341,2550005,,,,,,,2024-01-11,1,,,,,オフィスエルブラザーズ,0
704,3021003013991,新規,0,2024-01-11,2024-01-11,合同会社ｅ‐ＬＩＦＥ,,合同会社,神奈川県,厚木市,下川入４８番地１,,14,212,2430206,,,,,,,2024-01-11,1,,,,,イーライフ,0
705,3021005012991,新規,0,2024-01-11,2024-01-11,ＮＰＯ法人フードコミュニティ,,その他の設立登記法人,神奈川県,相模原市南区,下溝２１０３番地２５,,14,153,2520335,,,,,,,2024-01-11,1,,,,,フードコミュニティ,0
712,3030001157949,新規,0,2024-01-11,2024-01-11,株式会社マツイチ,,株式会社,埼玉県,越谷市,大字南荻島３７５番地１,,11,222,3430804,,,,,,,2024-01-11,1,,,,,マツイチ,0
713,3030001158022,新規,0,2024-01-11,2024-01-11,川口製薬株式会社,,株式会社,埼玉県,川口市,本町４丁目５番２６－１９０７号,,11,203,3320012,,,,,,,2024-01-11,1,,,,,カワグチセイヤク,0
714,3030001158055,新規,0,2024-01-11,2024-01-11,株式会社ブーケ,,株式会社,埼玉県,川越市,仙波町４丁目１６番地３４,,11,201,3500034,,,,,,,2024-01-11,1,,,,,ブーケ,0
715,3030001158088,新規,0,2024-01-11,2024-01-11,株式会社トキワグローブ,,株式会社,埼玉県,さいたま市南区,別所５丁目１５番地２,,11,108,3360021,,,,,,,2024-01-11,1,,,,,トキワグローブ,0
722,3030003023348,新規,0,2024-01-11,2024-01-11,合同会社野口種苗研究所,,合同会社,埼玉県,飯能市,大字小瀬戸１９２番地１,,11,209,3570067,,,,,,,2024-01-11,1,,,,,ノグチシュビョウケンキュウジョ,0
723,3030003023372,新規,0,2024-01-11,2024-01-11,ストラテックエージェンシー合同会社,,合同会社,埼玉県,行田市,門井町１丁目１番地２０,,11,206,3610044,,,,,,,2024-01-11,1,,,,,ストラテックエージェンシー,0
734,3040003024048,新規,0,2024-01-11,2024-01-11,香淋合同会社,,合同会社,千葉県,東金市,田間１丁目２２番地３,,12,213,2830005,,,,,,,2024-01-11,1,,,,,コウリン,0
736,3040005022248,新規,0,2024-01-11,2024-01-11,医療法人社団イマコマトーレ,,その他の設立登記法人,千葉県,八千代市,ゆりのき台５丁目１番４号アルバ八千代１階,,12,221,2760042,,,,,,,2024-01-11,1,,,,,イマコマトーレ,0
738,3050001054062,新規,0,2024-01-11,2024-01-11,ＥＴＩＭＡＤ　ＪＡＰＡＮ株式会社,,株式会社,茨城県,坂東市,冨田１４３８番地,,08,228,3060652,,,,,,,2024-01-11,1,,,,,エティマドジャパン,0
739,3050001054079,新規,0,2024-01-11,2024-01-11,株式会社ｖａｌｏ,,株式会社,茨城県,ひたちなか市,松戸町２丁目２番１号,,08,221,3120016,,,,,,,2024-01-11,1,,,,,ヴァロ,0
740,3050001054087,新規,0,2024-01-11,2024-01-11,ファリス株式会社,,株式会社,茨城県,取手市,椚木４４２番地４,,08,217,3001511,,,,,,,2024-01-11,1,,,,,ファリス,0
746,3060001036720,新規,0,2024-01-11,2024-01-11,株式会社サイバーポケット,,株式会社,栃木県,佐野市,富岡町１４１８キーステーションビル１Ｆ,,09,204,3270844,,,,,,,2024-01-11,1,,,,,サイバーポケット,0
747,3060003004857,新規,0,2024-01-11,2024-01-11,ＳＵＰＡ　ＡＵＴＯ合同会社,,合同会社,栃木県,栃木市,樋ノ口町字５２番地１,,09,203,3280024,,,,,,,2024-01-11,1,,,,,スーパーオート,0
748,3060003004865,新規,0,2024-01-11,2024-01-11,合同会社ＤＯＧ,,合同会社,栃木県,栃木市,片柳町１丁目２２番７号ＫＵＲＡＤＯ片柳１１５,,09,203,3280053,,,,,,,2024-01-11,1,,,,,ドッグ,0
772,3080401026922,新規,0,2024-01-11,2024-01-11,アオヤナギ設備保全株式会社,,株式会社,静岡県,浜松市天竜区,二俣町鹿島８６番地の１,,22,140,4313313,,,,,,,2024-01-11,1,,,,,アオヤナギセツビホゼン,0
779,3090001018492,新規,0,2024-01-11,2024-01-11,ＤＩＡＭＯＮＤ株式会社,,株式会社,山梨県,笛吹市,石和町広瀬１１９５番地４０サンフェリーチェ石和３０７号室,,19,211,4060035,,,,,,,2024-01-11,1,,,,,ダイヤモンド,0
782,3100003007343,新規,0,2024-01-11,2024-01-11,合同会社ジーエム制御設計,,合同会社,長野県,岡谷市,長地梨久保２丁目１６番３８号,,20,204,3940088,,,,,,,2024-01-11,1,,,,,ジーエムセイギョセッケイ,0
784,3110003005255,新規,0,2024-01-11,2024-01-11,合同会社鈴蘭,,合同会社,新潟県,新潟市西区,内野西が丘２丁目２０番３３号,,15,107,9502157,,,,,,,2024-01-11,1,,,,,スズラン,0
790,3120001260966,新規,0,2024-01-11,2024-01-11,皓景株式会社,,株式会社,大阪府,大阪市港区,市岡元町３丁目１３番５－４０７号,,27,107,5520002,,,,,,,2024-01-11,1,,,,,コウケイ,0
791,3120001261196,新規,0,2024-01-11,2024-01-11,タクトアップ株式会社,,株式会社,大阪府,大阪市北区,西天満３丁目１２番２号ユニ老松ビル４階,,27,127,5300047,,,,,,,2024-01-11,1,,,,,タクトアップ,0
792,3120001261221,新規,0,2024-01-11,2024-01-11,株式会社トリノキ,,株式会社,大阪府,大阪市住之江区,新北島１丁目４番１１－１０３号,,27,125,5590024,,,,,,,2024-01-11,1,,,,,トリノキ,0
799,3120101068855,新規,0,2024-01-11,2024-01-11,株式会社マイグリーン,,株式会社,大阪府,堺市南区,庭代台４丁２５番１７号,,27,145,5900133,,,,,,,2024-01-11,1,,,,,マイグリーン,0
802,3130001076065,新規,0,2024-01-11,2024-01-11,株式会社リンクス,,株式会社,京都府,綴喜郡井手町,大字井手小字玉ノ井３２番地の４,,26,343,6100302,,,,,,,2024-01-11,1,,,,,リンクス,0
812,3140001132899,新規,0,2024-01-11,2024-01-11,株式会社００１,,株式会社,兵庫県,川西市,水明台３丁目８－２１,,28,217,6660116,,,,,,,2024-01-11,1,,,,,ゼロゼロワン,0
813,3140005026899,新規,0,2024-01-11,2024-01-11,医療法人志水会,,その他の設立登記法人,兵庫県,赤穂市,加里屋７６－８,,28,212,6780239,,,,,,,2024-01-11,1,,,,,シスイカイ,0
815,3150001026992,新規,0,2024-01-11,2024-01-11,Ａコン株式会社,,株式会社,奈良県,奈良市,北登美ヶ丘４丁目１６番７号,,29,201,6310001,,,,,,,2024-01-11,1,,,,,エーコン,0
816,3150003003164,新規,0,2024-01-11,2024-01-11,合同会社スコール,,合同会社,奈良県,北葛城郡広陵町,馬見北５丁目７番２２号,,29,426,6350831,,,,,,,2024-01-11,1,,,,,スコール,0
824,3180001159682,新規,0,2024-01-11,2024-01-11,株式会社Ｎｏｒｔｈ　Ｂｌｕｅ,,株式会社,愛知県,名古屋市中区,千代田３丁目３１番４号（エステムコート名古屋鶴舞ＩＩレアーヴ１１０１号）,00133288,23,106,4600012,,,,,,,2024-01-11,1,,,,,ノースブルー,0
830,3180003026113,新規,0,2024-01-11,2024-01-11,合同会社Ｒ,,合同会社,愛知県,稲沢市,大塚南５丁目１番地３ライオンズガーデン稲沢東棟４０８,,23,220,4928214,,,,,,,2024-01-11,1,,,,,アール,0
832,3180301038207,新規,0,2024-01-11,2024-01-11,株式会社ＴＳＫ,,株式会社,愛知県,高浜市,芳川町１丁目１番地１８,,23,227,4441335,,,,,,,2024-01-11,1,,,,,ティーエスケー,0
834,3190001031015,新規,0,2024-01-11,2024-01-11,三重架設工業株式会社,,株式会社,三重県,鳥羽市,鳥羽３丁目９番１０号,,24,211,5170011,,,,,,,2024-01-11,1,,,,,ミエカセツコウギョウ,0
837,3200001042051,新規,0,2024-01-11,2024-01-11,株式会社ｇｏｏｒｙ,,株式会社,岐阜県,羽島郡笠松町,田代８１３番地の７,,21,303,5016062,,,,,,,2024-01-11,1,,,,,グーリー,0
841,3200003006203,新規,0,2024-01-11,2024-01-11,合同会社アーク,,合同会社,岐阜県,岐阜市,加納愛宕町１８番地１号７１２,,21,201,5008476,,,,,,,2024-01-11,1,,,,,アーク,0
845,3240001062640,新規,0,2024-01-11,2024-01-11,株式会社Ｆｏｒｅｓｔ,,株式会社,広島県,広島市佐伯区,石内北４丁目２番２号,,34,108,7315109,,,,,,,2024-01-11,1,,,,,フォレスト,0
858,3290001104289,新規,0,2024-01-11,2024-01-11,株式会社ＢＯＯ　ｇｒｏｕｐ,,株式会社,福岡県,糸島市,前原中央３丁目２０番５０号,,40,230,8191116,,,,,,,2024-01-11,1,,,,,ブーグループ,0
859,3290001104306,新規,0,2024-01-11,2024-01-11,ＭＤＳ商会株式会社,,株式会社,福岡県,久留米市,北野町鳥巣１１５５番地６,,40,203,8301115,,,,,,,2024-01-11,1,,,,,エムディーエスショウカイ,0
860,3290001104314,新規,0,2024-01-11,2024-01-11,ＵＲＢＡＮ　ＥＳＴＡＴＥ株式会社,,株式会社,福岡県,福岡市早良区,室見５丁目３番６号,,40,137,8140015,,,,,,,2024-01-11,1,,,,,アーバンエステート,0
868,3290003014833,新規,0,2024-01-11,2024-01-11,合同会社野の画家,,合同会社,福岡県,福岡市中央区,六本松１丁目１０番３６号,,40,133,8100044,,,,,,,2024-01-11,1,,,,,,0
872,3290801030206,新規,0,2024-01-11,2024-01-11,株式会社ＬＩＡＬＯ,,株式会社,福岡県,北九州市八幡西区,藤田１丁目５－２１,,40,109,8060022,,,,,,,2024-01-11,1,,,,,リアロ,0
877,3340001026206,新規,0,2024-01-11,2024-01-11,オールフォワード株式会社,,株式会社,鹿児島県,鹿児島市,南林寺町１９番３号東カン鹿児島ビル２Ｆ,,46,201,8920834,,,,,,,2024-01-11,1,,,,,オールフォワード,0
898,3430001090837,新規,0,2024-01-11,2024-01-11,株式会社Ｃｏｂａ　Ｓｅｔｕｂｉ,,株式会社,北海道,札幌市豊平区,月寒東二条２丁目１番１３号,,01,105,0620052,,,,,,,2024-01-11,1,,,,,コバセツビ,0
899,3430001090845,新規,0,2024-01-11,2024-01-11,株式会社ジーラクション,,株式会社,北海道,札幌市手稲区,新発寒七条２丁目１番１０－２号,,01,109,0060807,,,,,,,2024-01-11,1,,,,,ジーラクション,0
901,3430003015833,新規,0,2024-01-11,2024-01-11,合同会社Ｎ‐ｓｐｉｒｉｔ,,合同会社,北海道,札幌市中央区,南六条西３丁目６番１２号御代川ビル３Ｆ,,01,101,0640806,,,,,,,2024-01-11,1,,,,,エヌスピリット,0
905,3470001019972,新規,0,2024-01-11,2024-01-11,株式会社レオ・デザインラボ,,株式会社,香川県,丸亀市,前塩屋町１丁目１５番６号,,37,202,7630064,,,,,,,2024-01-11,1,,,,,レオデザインラボ,0
908,3490001010673,新規,0,2024-01-11,2024-01-11,株式会社カメラのキタムラ,,株式会社,高知県,高知市,本町４丁目１番１６号,,39,201,7800870,,,,,,,2024-01-11,1,,,,,カメラノキタムラ,0
910,3500001025397,新規,0,2024-01-11,2024-01-11,株式会社ＩＫＵ建設,,株式会社,愛媛県,松山市,西垣生町１３２３番地１,,38,201,7918044,,,,,,,2024-01-11,1,,,,,イクケンセツ,0
914,3700150123304,新規,0,2024-01-11,2024-01-11,上海弘色文化伝播有限公司,,外国会社等,千葉県,成田市,奈土字金駒８０６番地Ｂ棟１０１,,12,211,2870205,中華人民共和国上海市普陀区武威路１８号１０号楼２００８室,,,,,,2024-01-11,1,,,,,シヤンハイコウシヨクブンカテンパユウゲンコウシ,0
922,4010001241349,新規,0,2024-01-11,2024-01-11,株式会社人事労務ＰＬＵＳ,,株式会社,東京都,千代田区,丸の内１丁目９番２号グラントウキョウサウスタワー１１階,,13,101,1000005,,,,,,,2024-01-11,1,,,,,ジンジロウムプラス,0
923,4010001241381,新規,0,2024-01-11,2024-01-11,ＢＲＧ株式会社,,株式会社,東京都,中央区,銀座７丁目１５番８号タウンハイツ東銀座４０６,,13,102,1040061,,,,,,,2024-01-11,1,,,,,ビーアールジー,0
928,4010003042613,新規,0,2024-01-11,2024-01-11,合同会社ＣｌｏｕｄＮｉｎｅ,,合同会社,東京都,中央区,銀座１丁目１２番４号Ｎ＆ＥＢＬＤ．６Ｆ,,13,102,1040061,,,,,,,2024-01-11,1,,,,,クラウドナイン,0
929,4010003042621,新規,0,2024-01-11,2024-01-11,ＲＡＮＯ企画合同会社,,合同会社,東京都,中央区,日本橋室町１丁目１１番１２号日本橋水野ビル７階,,13,102,1030022,,,,,,,2024-01-11,1,,,,,ラノキカク,0
930,4010005037719,新規,0,2024-01-11,2024-01-11,一般社団法人ウルバーノ,,その他の設立登記法人,東京都,千代田区,丸の内３丁目１番１号東京共同会計事務所内,,13,101,1000005,,,,,,,2024-01-11,1,,,,,ウルバーノ,0
940,4010401179610,新規,0,2024-01-11,2024-01-11,東栄商事株式会社,,株式会社,東京都,港区,赤坂２丁目１３番２３号,,13,103,1070052,,,,,,,2024-01-11,1,,,,,,0
941,4010401179627,新規,0,2024-01-11,2024-01-11,株式会社ａｎｄｐｏｓｔ,,株式会社,東京都,港区,北青山１丁目３番１号アールキューブ青山３階,,13,103,1070061,,,,,,,2024-01-11,1,,,,,アンドポスト,0
942,4010401179635,新規,0,2024-01-11,2024-01-11,株式会社フォトシンス,,株式会社,東京都,港区,六本木７丁目５番１１－８０２号,,13,103,1060032,,,,,,,2024-01-11,1,,,,,フォトシンス,0
943,4010401179643,新規,0,2024-01-11,2024-01-11,株式会社Ｓｈｔｋｓ,,株式会社,東京都,港区,南青山３丁目１番３６号青山丸竹ビル６Ｆ,,13,103,1070062,,,,,,,2024-01-11,1,,,,,シュトクス,0
946,4010405022865,新規,0,2024-01-11,2024-01-11,一般社団法人ノース,,その他の設立登記法人,東京都,港区,虎ノ門３丁目８番８号ＮＴＴ虎ノ門ビル６階,,13,103,1050001,,,,,,,2024-01-11,1,,,,,ノース,0
951,4010603010572,新規,0,2024-01-11,2024-01-11,合同会社ＵＷＡＳＡ,,合同会社,東京都,江東区,亀戸６丁目３－２,,13,108,1360071,,,,,,,2024-01-11,1,,,,,ウワサ,0
959,4010801034654,新規,0,2024-01-11,2024-01-11,１６１９株式会社,,株式会社,東京都,大田区,田園調布２丁目１番５号,,13,111,1450071,,,,,,,2024-01-11,1,,,,,イチロクイチキュウ,0
960,4010803004804,新規,0,2024-01-11,2024-01-11,エーリンク合同会社,,合同会社,東京都,大田区,久が原３丁目３９番２３号,,13,111,1460085,,,,,,,2024-01-11,1,,,,,エーリンク,0
962,4010901054486,新規,0,2024-01-11,2024-01-11,株式会社ＯＤＥＯＮ　ＳＴＯＲＥ,,株式会社,東京都,世田谷区,北沢３丁目２番１８号,,13,112,1550031,,,,,,,2024-01-11,1,,,,,オデオンストア,0
968,4011001159226,新規,0,2024-01-11,2024-01-11,株式会社ｏｏ　ｖｉｎｔａｇｅ,,株式会社,東京都,渋谷区,恵比寿西２丁目４番８号ウィンド恵比寿ビル８Ｆ,,13,113,1500021,,,,,,,2024-01-11,1,,,,,オーオービンテージ,0
969,4011001159234,新規,0,2024-01-11,2024-01-11,株式会社Ｌ．ＰＲＩＭＥ,,株式会社,東京都,渋谷区,神宮前１丁目６－５ゼンモール原宿ビル１階,,13,113,1500001,,,,,,,2024-01-11,1,,,,,エルプライム,0
970,4011001159250,新規,0,2024-01-11,2024-01-11,株式会社ＢｅｔｔｅｒＬｉｎｅｓ,,株式会社,東京都,渋谷区,道玄坂１丁目１０番８号渋谷道玄坂東急ビル２Ｆ－Ｃ,,13,113,1500043,,,,,,,2024-01-11,1,,,,,ベターラインズ,0
971,4011001159259,新規,0,2024-01-11,2024-01-11,株式会社インテグラル,,株式会社,東京都,渋谷区,神南１丁目１３番８号パーク・アヴェニュー神南７０１,,13,113,1500041,,,,,,,2024-01-11,1,,,,,インテグラル,0
972,4011001159275,新規,0,2024-01-11,2024-01-11,株式会社Ｓ＆Ｗ　ＪＡＰＡＮ,,株式会社,東京都,渋谷区,恵比寿４丁目２０番４号,,13,113,1500013,,,,,,,2024-01-11,1,,,,,エスアンドダブリュジャパン,0
973,4011001159300,新規,0,2024-01-11,2024-01-11,株式会社エム・グランプレージ,,株式会社,東京都,渋谷区,代々木４丁目３１番４－８０６号,,13,113,1510053,,,,,,,2024-01-11,1,,,,,エムグランプレージ,0
974,4011001159309,新規,0,2024-01-11,2024-01-11,株式会社松福,,株式会社,東京都,渋谷区,富ヶ谷２丁目４２番８号,,13,113,1510063,,,,,,,2024-01-11,1,,,,,マツフク,0
975,4011001159325,新規,0,2024-01-11,2024-01-11,株式会社Ａｉｄｅａ,,株式会社,東京都,目黒区,目黒４丁目１４番１６号,,13,110,1530063,,,,,,,2024-01-11,1,,,,,アイデア,0
976,4011003018223,新規,0,2024-01-11,2024-01-11,ＴＭアーバンエステート合同会社,,合同会社,東京都,渋谷区,道玄坂１丁目１０番８号渋谷道玄坂東急ビル２Ｆ－Ｃ,,13,113,1500043,,,,,,,2024-01-11,1,,,,,ティーエムアーバンエステート,0
982,4011103013941,新規,0,2024-01-11,2024-01-11,歌舞伎ＦＬＡＧ合同会社,,合同会社,東京都,新宿区,歌舞伎町２丁目１４番１４号コスモ佐藤２０１,,13,104,1600021,,,,,,,2024-01-11,1,,,,,カブキフラッグ,0
984,4011201025153,新規,0,2024-01-11,2024-01-11,株式会社ＮｅｘｔＥｒａ　Ｍｅｄｉｃａｌ,,株式会社,東京都,中野区,上高田５丁目２番５号ウェンゲン上高田１０４,,13,114,1640002,,,,,,,2024-01-11,1,,,,,ネクステラメディカル,0
985,4011201025161,新規,0,2024-01-11,2024-01-11,資旭堂株式会社,,株式会社,東京都,中野区,中央１丁目２－２－１２０,,13,114,1640011,,,,,,,2024-01-11,1,,,,,シキョクドウ,0
992,4011301029302,新規,0,2024-01-11,2024-01-11,株式会社デルタ,,株式会社,東京都,杉並区,阿佐谷南３丁目４１番８号,,13,115,1660004,,,,,,,2024-01-11,1,,,,,デルタ,0
995,4011401025754,新規,0,2024-01-11,2024-01-11,マックストレード株式会社,,株式会社,東京都,板橋区,大谷口北町５８番６号,,13,119,1730031,,,,,,,2024-01-11,1,,,,,マックストレード,0
998,4011601027443,新規,0,2024-01-11,2024-01-11,株式会社高橋総建,00133286,株式会社,東京都,練馬区,春日町６丁目１８番２２号,,13,120,1790074,,,,,,,2024-01-11,1,,,,,タカハシソウケン,0
999,4011603004192,新規,0,2024-01-11,2024-01-11,ＫＤ石川医療コンサルティングオフィス合同会社,,合同会社,東京都,練馬区,向山３丁目２１番７号,,13,120,1760022,,,,,,,2024-01-11,1,,,,,ケーディーイシカワイリョウコンサルティングオフィス,0
1007,4012401041386,新規,0,2024-01-11,2024-01-11,アヴァンシア株式会社,,株式会社,東京都,稲城市,東長沼２４１６番地,,13,225,2060802,,,,,,,2024-01-11,1,,,,,アヴァンシア,0
1009,4012803003281,新規,0,2024-01-11,2024-01-11,合同会社ライフ,,合同会社,東京都,国立市,中２丁目１８番地の４３アズール大学通り１０３,,13,215,1860004,,,,,,,2024-01-11,1,,,,,,0
1011,4013301051896,新規,0,2024-01-11,2024-01-11,株式会社Ｐｕ‐ｒｏ,,株式会社,東京都,豊島区,要町１丁目１８番８号,,13,116,1710043,,,,,,,2024-01-11,1,,,,,プーロ,0
1023,4020001155226,新規,0,2024-01-11,2024-01-11,株式会社明共冷機,,株式会社,神奈川県,横浜市磯子区,岡村４丁目３３番１０号,,14,107,2350021,,,,,,,2024-01-11,1,,,,,メイキョウレイキ,0
1024,4020001155234,新規,0,2024-01-11,2024-01-11,株式会社ＵＮＯＵ,,株式会社,神奈川県,横浜市戸塚区,戸塚町４９４３－２,,14,110,2440003,,,,,,,2024-01-11,1,,,,,ウノウ,0
1032,4020005016250,新規,0,2024-01-11,2024-01-11,特定非営利活動法人ｃｏｔｏｒｉ,,その他の設立登記法人,神奈川県,川崎市多摩区,長沢２丁目２番１号２階,,14,135,2140035,,,,,,,2024-01-11,1,,,,,コトリ,0
1037,4021001081172,新規,0,2024-01-11,2024-01-11,株式会社Ｈ,,株式会社,神奈川県,藤沢市,鵠沼橘１丁目１５番７－１１０３号,,14,205,2510024,,,,,,,2024-01-11,1,,,,,アッシュ,0
1042,4021005012990,新規,0,2024-01-11,2024-01-11,特定非営利活動法人みんなの食堂はだの・フードバンク,,その他の設立登記法人,神奈川県,秦野市,曽屋１番地司法書士高橋事務所内,,14,211,2570031,,,,,,,2024-01-11,1,,,,,ミンナノショクドウハダノフードバンク,0
1046,4030001063931,新規,0,2024-01-11,2024-01-11,株式会社孝和堂,,株式会社,埼玉県,越谷市,千間台西１丁目８番地７,,11,222,3430041,,,,,,,2024-01-11,1,,,,,コウワドウ,0
1049,4030001157683,新規,0,2024-01-11,2024-01-11,株式会社マウントフィールド,,株式会社,埼玉県,川越市,大字笠幡２３５２番地１,,11,201,3501175,,,,,,,2024-01-11,1,,,,,マウントフィールド,0
1050,4030001158013,新規,0,2024-01-11,2024-01-11,イノベータゲート株式会社,,株式会社,埼玉県,三郷市,中央４丁目３０番地１アラモード２０３,,11,237,3410038,,,,,,,2024-01-11,1,,,,,イノベータゲート,0
1051,4030001158087,新規,0,2024-01-11,2024-01-11,株式会社ｐｒｏｓｐｅｒ,,株式会社,埼玉県,さいたま市北区,奈良町３７番地６９,,11,102,3310822,,,,,,,2024-01-11,1,,,,,プロスパー,0
1055,4040001131489,新規,0,2024-01-11,2024-01-11,株式会社ＧＨＣ,,株式会社,千葉県,松戸市,金ケ作５２番地の５２,,12,207,2702251,,,,,,,2024-01-11,1,,,,,ジエチシ,0
1056,4040001131638,新規,0,2024-01-11,2024-01-11,株式会社ＤＯＶＥ,,株式会社,千葉県,流山市,おおたかの森北１丁目９番１号３階,,12,220,2700119,,,,,,,2024-01-11,1,,,,,ドーヴ,0
1057,4040001131654,新規,0,2024-01-11,2024-01-11,株式会社ｓａｎ,,株式会社,千葉県,千葉市稲毛区,園生町４８８番地５１,,12,103,2630051,,,,,,,2024-01-11,1,,,,,サン,0
1058,4040001131704,新規,0,2024-01-11,2024-01-11,株式会社ＤＯＲＡ興業,,株式会社,千葉県,我孫子市,我孫子４丁目２９－１トミービル４階,,12,222,2701166,,,,,,,2024-01-11,1,,,,,ドラコウギョウ,0
1060,4040005022239,新規,0,2024-01-11,2024-01-11,税理士法人リリーフ,,その他の設立登記法人,千葉県,千葉市中央区,新千葉１丁目７番２号ビズコンフォート千葉西口１９号室,,12,101,2600031,,,,,,,2024-01-11,1,,,,,リリーフ,0
1064,4060001036711,新規,0,2024-01-11,2024-01-11,株式会社Ｒｅｖｒｅｅｌ,,株式会社,栃木県,真岡市,飯貝１１４１番地,,09,209,3214405,,,,,,,2024-01-11,1,,,,,リブリール,0
1065,4060001036728,新規,0,2024-01-11,2024-01-11,株式会社ティーエム,,株式会社,栃木県,足利市,田島町１丁目７番地７,,09,202,3260061,,,,,,,2024-01-11,1,,,,,ティーエム,0
1067,4060003004856,新規,0,2024-01-11,2024-01-11,合同会社ＡＩＲＲ　ＪＰ,,合同会社,栃木県,宇都宮市,陽東７丁目１－２宇都宮大学ロボティクス・工農技術研究所内,,09,201,3210904,,,,,,,2024-01-11,1,,,,,エアージェーピー,0
1069,4070001041256,新規,0,2024-01-11,2024-01-11,株式会社大生関東,,株式会社,群馬県,高崎市,上大類町８０８番地上大類貸家東１,,10,202,3700031,,,,,,,2024-01-11,1,,,,,タイセイカントウ,0
1070,4070001041272,新規,0,2024-01-11,2024-01-11,株式会社Ｆａｒｂｅ,,株式会社,群馬県,北群馬郡吉岡町,大字大久保３３５６番地５,,10,345,3703602,,,,,,,2024-01-11,1,,,,,ファルベ,0
1072,4080001026074,新規,0,2024-01-11,2024-01-11,株式会社片川工務店,,株式会社,静岡県,島田市,向谷４丁目１０１４番地の２,,22,209,4270039,,,,,,,2024-01-11,1,,,,,カタカワコウムテン,0
1102,4120001261154,新規,0,2024-01-11,2024-01-11,大陽株式会社,,株式会社,大阪府,大阪市生野区,生野東２丁目９－１８,,27,116,5440025,,,,,,,2024-01-11,1,,,,,ダイヨウ,0
1103,4120001261179,新規,0,2024-01-11,2024-01-11,株式会社えがおのおへや,,株式会社,大阪府,大阪市中央区,久太郎町３丁目１番１５号,,27,128,5410056,,,,,,,2024-01-11,1,,,,,エガオノオヘヤ,0
1104,4120001261220,新規,0,2024-01-11,2024-01-11,株式会社ｍｏｄｅｌ８,,株式会社,大阪府,大阪市平野区,喜連西６丁目２番７１号アネックス平野１０１号室,,27,126,5470026,,,,,,,2024-01-11,1,,,,,モデルエイト,0
1105,4120003025631,新規,0,2024-01-11,2024-01-11,ジョインフォーシーズ合同会社,,合同会社,大阪府,門真市,三ツ島４丁目８番５号,,27,223,5710015,,,,,,,2024-01-11,1,,,,,ジョインフォーシーズ,0
1106,4120003025672,新規,0,2024-01-11,2024-01-11,合同会社ＧＯＯＥＮ,,合同会社,大阪府,大阪市北区,梅田１丁目１‐３大阪駅前第３ビル２９階１‐１‐１号室,,27,127,5300001,,,,,,,2024-01-11,1,,,,,ゴーエン,0
1109,4120103005624,新規,0,2024-01-11,2024-01-11,ＧＲＯＷ　ＭＵＳＨ合同会社,,合同会社,大阪府,富田林市,小金台３丁目７－１１,,27,214,5840083,,,,,,,2024-01-11,1,,,,,グロウマッシュ,0
1110,4120901048601,新規,0,2024-01-11,2024-01-11,ＮＫＣ株式会社,,株式会社,大阪府,豊中市,中桜塚１丁目１０番１号,,27,203,5610881,,,,,,,2024-01-11,1,,,,,エヌケイシ,0
1113,4130003009212,新規,0,2024-01-11,2024-01-11,合同会社アポロ,,合同会社,京都府,京都市伏見区,桃山町丹後２９番地１グランツエントＢ－２０３,,26,109,6128018,,,,,,,2024-01-11,1,,,,,アポロ,0
1119,4140001132956,新規,0,2024-01-11,2024-01-11,株式会社大西工務店,,株式会社,兵庫県,神戸市長田区,大日丘町３丁目１５－８,,28,106,6530872,,,,,,,2024-01-11,1,,,,,オオニシコウムテン,0
1120,4140001132964,新規,0,2024-01-11,2024-01-11,株式会社ＬｉＢ＆Ｃｏ．,,株式会社,兵庫県,神戸市垂水区,中道４丁目１番１５号ＯｎｅＬｉｇｈｔＴａｒｕｍｉ１Ｆ,,28,108,6550896,,,,,,,2024-01-11,1,,,,,リブアンドカンパニー,0
1121,4140001132972,新規,0,2024-01-11,2024-01-11,株式会社ロイハート,,株式会社,兵庫県,神戸市垂水区,山手７丁目４番６号,,28,108,6550891,,,,,,,2024-01-11,1,,,,,ロイハート,0
1124,4150005009547,新規,0,2024-01-11,2024-01-11,一般社団法人Ｔｅａｍ　Ｄｉｓｃｏｖｅｒ　Ｎａｒａ,,その他の設立登記法人,奈良県,天理市,櫟本町７６５番地,,29,204,6320004,,,,,,,2024-01-11,1,,,,,チームディスカバーナラ,0
1127,4160003003088,新規,0,2024-01-11,2024-01-11,合同会社まぁる,,合同会社,滋賀県,大津市,坂本７丁目１３番２２号,,25,201,5200113,,,,,,,2024-01-11,1,,,,,マァル,0
1139,4180001159574,新規,0,2024-01-11,2024-01-11,株式会社ＬＥＯ,,株式会社,愛知県,名古屋市北区,大曽根２丁目３番９号,,23,103,4620825,,,,,,,2024-01-11,1,,,,,レオ,0
1140,4180001159616,新規,0,2024-01-11,2024-01-11,Ｌｉｆｅ　Ｔｉｍｅ　Ｓｔａｇｅ株式会社,,株式会社,愛知県,一宮市,千秋町小山字砂見５６７番地３,,23,203,4910814,,,,,,,2024-01-11,1,,,,,ライフタイムステージ,0
1141,4180001159665,新規,0,2024-01-11,2024-01-11,株式会社Ｇｒａｃｅ　Ｃｌｅａｎ,,株式会社,愛知県,名古屋市港区,入場町１丁目１１番地の１,,23,111,4550802,,,,,,,2024-01-11,1,,,,,グレイスクリーン,0
1146,4180003026211,新規,0,2024-01-11,2024-01-11,合同会社ｃｏｍｆｏｒｔａｂｌｅ,,合同会社,愛知県,名古屋市緑区,鳴海町字神ノ倉３番地の３１５２,,23,114,4580811,,,,,,,2024-01-11,1,,,,,コンフォータブル,0
1153,4200001042059,新規,0,2024-01-11,2024-01-11,株式会社椎の実福祉会,,株式会社,岐阜県,岐阜市,松山町１番地３,,21,201,5008015,,,,,,,2024-01-11,1,,,,,シイノミフクシカイ,0
1156,4200003006202,新規,0,2024-01-11,2024-01-11,合同会社アスカ,,合同会社,岐阜県,岐阜市,加納愛宕町１８番地１号７１２,,21,201,5008476,,,,,,,2024-01-11,1,,,,,アスカ,0
1158,4230001020169,新規,0,2024-01-11,2024-01-11,エツサス株式会社,,株式会社,富山県,高岡市,野村１６６１番地ユニゾンビル４Ｆ,,16,202,9330014,,,,,,,2024-01-11,1,,,,,エツサス,0
1160,4230003002132,新規,0,2024-01-11,2024-01-11,合同会社Ｓ．Ｔ．Ｗｏｒｋｓ,,合同会社,富山県,高岡市,福岡町荒屋敷１３７番地,,16,202,9390131,,,,,,,2024-01-11,1,,,,,エスティワークス,0
1164,4240001062648,新規,0,2024-01-11,2024-01-11,株式会社逆光,,株式会社,広島県,広島市中区,大手町４丁目３番１号第３シンコービル３階,,34,101,7300051,,,,,,,2024-01-11,1,,,,,ギャッコウ,0
1174,4260002034561,新規,0,2024-01-11,2024-01-11,有限会社野崎クレー製造所,,有限会社,岡山県,備前市,吉永町岩崎７４１番地,,33,211,7090226,,,,,,,2024-01-11,1,,,,,ノザキクレーセイゾウショ,0
1189,4290001104288,新規,0,2024-01-11,2024-01-11,山田企画株式会社,,株式会社,福岡県,糟屋郡須惠町,大字植木１５１番地,,40,344,8112112,,,,,,,2024-01-11,1,,,,,ヤマダキカク,0
1190,4290001104305,新規,0,2024-01-11,2024-01-11,株式会社華青日本,,株式会社,福岡県,福岡市博多区,比恵町１番１８－２０６号,,40,132,8120014,,,,,,,2024-01-11,1,,,,,カセイニホン,0
1191,4290001104313,新規,0,2024-01-11,2024-01-11,株式会社ＺＯＳＥＩ,,株式会社,福岡県,福岡市南区,井尻２丁目２４番１号,,40,134,8111302,,,,,,,2024-01-11,1,,,,,ゾウセイ,0
1192,4290001104321,新規,0,2024-01-11,2024-01-11,株式会社三原創業,,株式会社,福岡県,三井郡大刀洗町,大字鵜木１４４０番地２６－Ｉ－２０４,00133287,40,503,8301224,,,,,,,2024-01-11,1,,,,,ミハラソウギョウ,0
1193,4290001104346,新規,0,2024-01-11,2024-01-11,株式会社アーク,,株式会社,福岡県,福岡市西区,周船寺３丁目１５番１４－１０１号,,40,135,8190373,,,,,,,2024-01-11,1,,,,,アーク,0
1194,4290003014849,新規,0,2024-01-11,2024-01-11,ＫＳＲＧｒｏｕｐ合同会社,,合同会社,福岡県,福岡市西区,愛宕南２丁目１２番３２号,,40,135,8190007,,,,,,,2024-01-11,1,,,,,ケイエスアールグループ,0
1195,4290803004586,新規,0,2024-01-11,2024-01-11,合同会社ＧＯＩＮＧ　ＩＮ　ＳＴＹＬＥ,,合同会社,福岡県,直方市,大字直方３５９番地２,,40,204,8220016,,,,,,,2024-01-11,1,,,,,ゴーイングインスタイル,0
1197,4300003002059,新規,0,2024-01-11,2024-01-11,合同会社ハーベスト,,合同会社,佐賀県,鹿島市,大字高津原３５４１番地１,,41,207,8491311,,,,,,,2024-01-11,1,,,,,ハーベスト,0
1198,4310001018799,新規,0,2024-01-11,2024-01-11,株式会社高島商店,,株式会社,長崎県,五島市,紺屋町７番２３号,,42,211,8530016,,,,,,,2024-01-11,1,,,,,タカシマショウテン,0
1202,4320001020226,新規,0,2024-01-11,2024-01-11,株式会社ＡｎｄＬａｂ．,,株式会社,大分県,大分市,賀来北２丁目２番２６号,,44,201,8700848,,,,,,,2024-01-11,1,,,,,,0
1216,4360001033050,新規,0,2024-01-11,2024-01-11,株式会社ナカハラ工業,,株式会社,沖縄県,那覇市,三原２丁目２番３４号ミルコマンション三原大石通り４０２,,47,201,9020063,,,,,,,2024-01-11,1,,,,,ナカハラコウギョウ,0
1226,4420001018540,新規,0,2024-01-11,2024-01-11,株式会社荒谷総建,,株式会社,青森県,八戸市,大字湊町字中沢巻目５番地８,,02,203,0310812,,,,,,,2024-01-11,1,,,,,アラヤソウケン,0
1227,4430001090786,新規,0,2024-01-11,2024-01-11,株式会社ＭＳ　ＴＲＡＤＩＮＧ,,株式会社,北海道,江別市,美原１０５５番地４,,01,217,0670056,,,,,,,2024-01-11,1,,,,,エムエストレーディング,0
1228,4430001090811,新規,0,2024-01-11,2024-01-11,株式会社ケーシー,,株式会社,北海道,札幌市北区,北二十七条西５丁目１番６－４０３号,,01,102,0010027,,,,,,,2024-01-11,1,,,,,ケーシー,0
1229,4430003015808,新規,0,2024-01-11,2024-01-11,合同会社エムズ・インスペクション,,合同会社,北海道,札幌市北区,新琴似十条１５丁目８番２４号,,01,102,0010910,,,,,,,2024-01-11,1,,,,,エムズインスペクション,0
1235,4500003003169,新規,0,2024-01-11,2024-01-11,合同会社ｔ‐ｎｅｘｔ,,合同会社,愛媛県,松山市,築山町１２番６２号,,38,201,7900864,,,,,,,2024-01-11,1,,,,,ティーネクスト,0
1237,4700150122651,新規,0,2024-01-11,2023-12-11,任意団体やさしい職場　ｂｙ　ＦＲＥＥ　ＨＥＬＰ,,その他,兵庫県,神戸市須磨区,飛松町２丁目４－９ヴィレッジ板宿１０１号１階,,28,107,6540012,,,,,,,2023-12-11,1,,,,,ニンイダンタイヤサシイシヨクババイフリーヘルプ,0
1238,4700150123303,新規,0,2024-01-11,2024-01-11,Ｎｅ　Ｚｈｏｎｇ　Ｓｕｐｐｌｉｅｒｓ　Ｐｖｔ．Ｌｔｄ．,,外国会社等,埼玉県,鴻巣市,人形４丁目４－１０７,,11,217,3650037,ネパールカトマンズ郡カゲシュウォリ＝マノハラ市ビレンドラ町第７区,,,,,,2024-01-11,1,,,,,ネゾンサプライヤーズプライベートリミテツド,0
1257,5010001241331,新規,0,2024-01-11,2024-01-11,株式会社グロースソイル,,株式会社,東京都,千代田区,神田和泉町１番地６－１６ヤマトビル４０５,,13,101,1010024,,,,,,,2024-01-11,1,,,,,グロースソイル,0
1258,5010001241364,新規,0,2024-01-11,2024-01-11,株式会社日本シロアリ対策センター,,株式会社,東京都,中央区,銀座１丁目２２番１１号銀座大竹ビジデンス２Ｆ,,13,102,1040061,,,,,,,2024-01-11,1,,,,,ニホンシロアリタイサクセンター,0
1259,5010001241380,新規,0,2024-01-11,2024-01-11,株式会社ｔｅａｍ５５,,株式会社,東京都,中央区,勝どき１丁目１３番６－４００３号,,13,102,1040054,,,,,,,2024-01-11,1,,,,,チームゴジュウゴ,0
1260,5010001241389,新規,0,2024-01-11,2024-01-11,株式会社プライムアイ,,株式会社,東京都,中央区,日本橋兜町１７－２兜町第６葉山ビル４Ｆ,,13,102,1030026,,,,,,,2024-01-11,1,,,,,プライムアイ,0
1262,5010003042612,新規,0,2024-01-11,2024-01-11,ＪＬ合同会社,,合同会社,東京都,中央区,月島１丁目２２番１－５０５号,,13,102,1040052,,,,,,,2024-01-11,1,,,,,ジェイエル,0
1265,5010005037718,新規,0,2024-01-11,2024-01-11,一般社団法人ＪＦファンド１号,,その他の設立登記法人,東京都,中央区,日本橋１丁目４番１号,,13,102,1030027,,,,,,,2024-01-11,1,,,,,ジェイエフファンドイチゴウ,0
1271,5010401179634,新規,0,2024-01-11,2024-01-11,株式会社ＪＥＷＥＬ　ＳＨＩＰ,,株式会社,東京都,港区,西麻布３丁目１－９Ｋ’ビル３０１,,13,103,1060031,,,,,,,2024-01-11,1,,,,,ジュエルシップ,0
1274,5010403031702,新規,0,2024-01-11,2024-01-11,Ｄｅｅｒｐａｔｈ　Ｃａｐｉｔａｌ　Ｊａｐａｎ合同会社,,合同会社,東京都,港区,六本木１丁目６番１号泉ガーデンタワー,,13,103,1060032,,,,,,,2024-01-11,1,,,,,ディアパスキャピタルジャパン,0
1276,5010501051610,新規,0,2024-01-11,2024-01-11,ＤＤ　ＧＯＬＤＰＬＵＳ株式会社,,株式会社,東京都,台東区,入谷１丁目３２番７号,,13,106,1100013,,,,,,,2024-01-11,1,,,,,,0
1280,5010601064405,新規,0,2024-01-11,2024-01-11,株式会社ＩＲＵＤＡ,,株式会社,東京都,江東区,辰巳１丁目６番１０－７１６号,,13,108,1350053,,,,,,,2024-01-11,1,,,,,イルダ,0
1281,5010601064446,新規,0,2024-01-11,2024-01-11,株式会社Ｋ・ＡＲＴ　ｃｏｍｐａｎｙ,,株式会社,東京都,江東区,辰巳３丁目２０番２４号,,13,108,1350053,,,,,,,2024-01-11,1,,,,,ケーアートカンパニー,0
1282,5010601064454,新規,0,2024-01-11,2024-01-11,株式会社イノベイト,,株式会社,東京都,江東区,新木場１丁目１１番１４号,,13,108,1360082,,,,,,,2024-01-11,1,,,,,イノベイト,0
1283,5010601064462,新規,0,2024-01-11,2024-01-11,株式会社ユーバイエヌアーキテクツ,,株式会社,東京都,江東区,平野２丁目１４番１０号,,13,108,1350023,,,,,,,2024-01-11,1,,,,,ユーバイエヌアーキテクツ,0
1286,5010705003580,新規,0,2024-01-11,2024-01-11,特定非営利活動法人東京音楽鑑賞協会,,その他の設立登記法人,東京都,品川区,東品川２丁目２番２４号天王洲セントラルタワー,,13,109,1400002,,,,,,,2024-01-11,1,,,,,トウキョウオンガクカンショウキョウカイ,0
1287,5010801034678,新規,0,2024-01-11,2024-01-11,ＥＩＧＨＴ　ＵＰ株式会社,,株式会社,東京都,大田区,西蒲田７丁目６７番７号車屋ビル１Ｆ,,13,111,1440051,,,,,,,2024-01-11,1,,,,,エイトアップ,0
1289,5010901054493,新規,0,2024-01-11,2024-01-11,株式会社ＫＳＪ,,株式会社,東京都,世田谷区,弦巻５丁目７番３０－３２５号,,13,112,1540016,,,,,,,2024-01-11,1,,,,,ケイエスジェイ,0
1290,5010901054502,新規,0,2024-01-11,2024-01-11,株式会社ＫＳＭ,,株式会社,東京都,世田谷区,代田５丁目１１番１１号３階,,13,112,1550033,,,,,,,2024-01-11,1,,,,,ケーエスエム,0
1298,5011001159142,新規,0,2024-01-11,2024-01-11,Ｋ７Ｅｎｔｅｒｔａｉｎｍｅｎｔ株式会社,,株式会社,東京都,渋谷区,道玄坂１丁目１０番８号渋谷道玄坂東急ビル２Ｆ－Ｃ,,13,113,1500043,,,,,,,2024-01-11,1,,,,,ケーセブンエンターテイメント,0
1299,5011001159258,新規,0,2024-01-11,2024-01-11,株式会社タカシ,,株式会社,東京都,渋谷区,富ヶ谷１丁目３８－１７－２０３,,13,113,1510063,,,,,,,2024-01-11,1,,,,,タカシ,0
1300,5011001159299,新規,0,2024-01-11,2024-01-11,ＸＧ株式会社,,株式会社,東京都,渋谷区,神宮前６丁目２３番４号桑野ビル２階,,13,113,1500001,,,,,,,2024-01-11,1,,,,,エックスジー,0
1301,5011001159308,新規,0,2024-01-11,2024-01-11,Ｅｄｉｔｏ　Ｊａｐａｎ株式会社,,株式会社,東京都,目黒区,目黒２丁目１０番８号,,13,110,1530063,,,,,,,2024-01-11,1,,,,,エディトジャパン,0
1304,5011003018230,新規,0,2024-01-11,2024-01-11,合同会社Ｎｏａｈ’ｓ　ａｒｋ,,合同会社,東京都,目黒区,下目黒１丁目１番１４号コノトラビル７Ｆ,,13,110,1530064,,,,,,,2024-01-11,1,,,,,ノアーズアーク,0
1307,5011205002585,新規,0,2024-01-11,2024-01-11,グラーテス社会保険労務士法人,,その他の設立登記法人,東京都,中野区,野方６丁目４５番５号,,13,114,1650027,,,,,,,2024-01-11,1,,,,,グラーテス,0
1318,5011501030182,新規,0,2024-01-11,2024-01-11,株式会社ＧｌｏｂａｌＮｅｔｗｏｒｋ　Ｔｒａｄｉｎｇ,,株式会社,東京都,北区,浮間１丁目１－１４リムジンビル１３５,,13,117,1150051,,,,,,,2024-01-11,1,,,,,グローバルネットワークトレーディング,0
1319,5011503005901,新規,0,2024-01-11,2024-01-11,合同会社さんびきのこぶた,,合同会社,東京都,荒川区,西日暮里６丁目１６番１３号,,13,118,1160013,,,,,,,2024-01-11,1,,,,,サンビキノコブタ,0
1323,5011801043611,新規,0,2024-01-11,2024-01-11,株式会社村蕗,,株式会社,東京都,足立区,古千谷本町３丁目２番８号,,13,121,1210832,,,,,,,2024-01-11,1,,,,,ムラフキ,0
1325,5012401041385,新規,0,2024-01-11,2024-01-11,株式会社Ｉ’ｓ‐Ｄ,,株式会社,東京都,府中市,若松町２丁目１０番地の１１,,13,206,1830005,,,,,,,2024-01-11,1,,,,,アイズディー,0
1329,5013301051887,新規,0,2024-01-11,2024-01-11,株式会社ＮＧＣ,,株式会社,東京都,豊島区,要町１丁目１３番９号メゾン・デュ・シェーヌＳ棟２０７号室,,13,116,1710043,,,,,,,2024-01-11,1,,,,,エヌジーシー,0
1330,5013303006955,新規,0,2024-01-11,2024-01-11,合同会社Ｎｅｏ　ｓｔｏｒｙ,,合同会社,東京都,豊島区,西巣鴨１丁目２－２－３０２,,13,116,1700001,,,,,,,2024-01-11,1,,,,,ネオストーリー,0
1331,5013303006963,新規,0,2024-01-11,2024-01-11,成澤合同会社,,合同会社,東京都,豊島区,西池袋５丁目１３番２２号,,13,116,1710021,,,,,,,2024-01-11,1,,,,,ナルサワ,0
1338,5020001155209,新規,0,2024-01-11,2024-01-11,株式会社小林工務店,,株式会社,神奈川県,川崎市幸区,北加瀬３丁目１７番７号,,14,132,2120057,,,,,,,2024-01-11,1,,,,,コバヤシコウムテン,0
1339,5020001155233,新規,0,2024-01-11,2024-01-11,株式会社ライズ・フロンティア,,株式会社,神奈川県,川崎市川崎区,池上新町１丁目１３番１１号ＴＲハイツ３０２,,14,131,2100832,,,,,,,2024-01-11,1,,,,,ライズフロンティア,0
1340,5020001155241,新規,0,2024-01-11,2024-01-11,株式会社千明エンジニアリング,,株式会社,神奈川県,横浜市神奈川区,神之木台１２番１－４０３号,,14,102,2210011,,,,,,,2024-01-11,1,,,,,チギラエンジニアリング,0
1350,5021001081188,新規,0,2024-01-11,2024-01-11,ＴＨＥ　ＯＮＥ株式会社,,株式会社,神奈川県,茅ヶ崎市,矢畑７８２―３―２―１０３１,,14,207,2530085,,,,,,,2024-01-11,1,,,,,ザワン,0
1356,5021003013981,新規,0,2024-01-11,2024-01-11,ＧＯＬＤ　ＷＡＶＥ合同会社,,合同会社,神奈川県,座間市,南栗原３丁目２０番４０号,,14,216,2520015,,,,,,,2024-01-11,1,,,,,ゴールドウェーブ,0
1357,5021003013998,新規,0,2024-01-11,2024-01-11,合同会社ｒｅｒｉｓｅ,,合同会社,神奈川県,大和市,代官４丁目４番地３５,,14,213,2420025,,,,,,,2024-01-11,1,,,,,リライズ,0
1369,5030001158037,新規,0,2024-01-11,2024-01-11,株式会社伊藤賃貸管理,,株式会社,埼玉県,和光市,新倉２丁目４番３号,,11,229,3510115,,,,,,,2024-01-11,1,,,,,イトウチンタイカンリ,0
1370,5030001158078,新規,0,2024-01-11,2024-01-11,柴崎真珠株式会社,00133290,株式会社,埼玉県,草加市,住吉２丁目６番２７－５号,,11,221,3400014,,,,,,,2024-01-11,1,,,,,シバサキシンジュ,0
1371,5030001158086,新規,0,2024-01-11,2024-01-11,株式会社Ｒｐｌｕｓ,,株式会社,埼玉県,八潮市,大字柳之宮３９番地４,,11,234,3400832,,,,,,,2024-01-11,1,,,,,アールプラス,0
1372,5030001158111,新規,0,2024-01-11,2024-01-11,株式会社ｇｏｌａｚｏ,,株式会社,埼玉県,坂戸市,大字森戸１１０６番地８７,,11,239,3500244,,,,,,,2024-01-11,1,,,,,ゴラッソ,0
1374,5030003023338,新規,0,2024-01-11,2024-01-11,ＹＭＹプランニング合同会社,,合同会社,埼玉県,深谷市,上柴町西１丁目１番地１３,,11,218,3660052,,,,,,,2024-01-11,1,,,,,ワイエムワイプランニング,0
1375,5030003023354,新規,0,2024-01-11,2024-01-11,合同会社ＨＥ,,合同会社,埼玉県,川口市,川口３丁目２番１号１－１０４,,11,203,3320015,,,,,,,2024-01-11,1,,,,,エイチイー,0
1381,5040001131661,新規,0,2024-01-11,2024-01-11,株式会社ＫＴＲ,,株式会社,千葉県,市川市,国分１丁目１９番１１号,,12,203,2720834,,,,,,,2024-01-11,1,,,,,ケーティーアール,0
1382,5040001131703,新規,0,2024-01-11,2024-01-11,株式会社ＣＵＬＴＵＲＥＭＩＸ,,株式会社,千葉県,市川市,柏井町４丁目３６２番１号,,12,203,2720802,,,,,,,2024-01-11,1,,,,,カルチャーミックス,0
1387,5040005022238,新規,0,2024-01-11,2024-01-11,一般社団法人ＪＭＣＡ,,その他の設立登記法人,千葉県,香取市,府馬３４２９番地４,,12,236,2890411,,,,,,,2024-01-11,1,,,,,ジェイエムシーエー,0
1389,5050001054110,新規,0,2024-01-11,2024-01-11,株式会社ＡＮＥＳＩＳ,,株式会社,茨城県,古河市,鴻巣１１６４番地９,,08,204,3060041,,,,,,,2024-01-11,1,,,,,アネシス,0
1390,5050003008048,新規,0,2024-01-11,2024-01-11,合同会社ＭＡＸ,,合同会社,茨城県,つくば市,天久保２丁目４番地２２平砂マンション１００,,08,220,3050005,,,,,,,2024-01-11,1,,,,,マックス,0
1391,5060001036669,新規,0,2024-01-11,2024-01-11,株式会社ＷＧＰホールディングス,,株式会社,栃木県,足利市,鹿島町４３１番地,,09,202,3260844,,,,,,,2024-01-11,1,,,,,ダブリュージーピーホールディングス,0
1392,5060001036727,新規,0,2024-01-11,2024-01-11,株式会社ＫＥＹ不動産宇都宮,,株式会社,栃木県,宇都宮市,江曽島町１２７１番地２０,,09,201,3210102,,,,,,,2024-01-11,1,,,,,キーフドウサンウツノミヤ,0
1396,5070001041263,新規,0,2024-01-11,2024-01-11,株式会社辰巳シボリ,,株式会社,群馬県,太田市,沖野町１６９番地３,,10,205,3730045,,,,,,,2024-01-11,1,,,,,タツミシボリ,0
1399,5080001026073,新規,0,2024-01-11,2024-01-11,株式会社ヨシダテクニカル,,株式会社,静岡県,静岡市清水区,押切８００番地の６,,22,103,4240008,,,,,,,2024-01-11,1,,,,,ヨシダテクニカル,0
1403,5080101024456,新規,0,2024-01-11,2024-01-11,株式会社芦澤電気工業所,,株式会社,静岡県,富士市,久沢１丁目６番１０号,,22,210,4190202,,,,,,,2024-01-11,1,,,,,アシザワデンキコウギョウショ,0
1419,5100003007333,新規,0,2024-01-11,2024-01-11,ＲＥＸＥＡ合同会社,,合同会社,長野県,上田市,中央６丁目１番１号白夜会館１Ｆ,,20,203,3860012,,,,,,,2024-01-11,1,,,,,レクシア,0
1426,5120001261153,新規,0,2024-01-11,2024-01-11,東川株式会社,,株式会社,大阪府,大阪市東成区,東中本１丁目１５－３緑橋マンション３０６号室,,27,115,5370021,,,,,,,2024-01-11,1,,,,,トウガワ,0
1427,5120001261194,新規,0,2024-01-11,2024-01-11,Ｖｉｔａｌｉｗａｙ株式会社,,株式会社,大阪府,大阪市住吉区,長居２丁目１０番３－１０４号,,27,120,5580003,,,,,,,2024-01-11,1,,,,,バイタリウェイ,0
1428,5120003025622,新規,0,2024-01-11,2024-01-11,合同会社東邦コンサルティング,,合同会社,大阪府,大阪市北区,西天満３丁目３番１７号ルアンジュ南森町８０３号室,,27,127,5300047,,,,,,,2024-01-11,1,,,,,トウヨウコンサルティング,0
1429,5120005024085,新規,0,2024-01-11,2024-01-11,一般社団法人ＦＯＵＲ　ＣＨＩＬＤＲＥＮ,,その他の設立登記法人,大阪府,大阪市西淀川区,姫島５丁目９番２号,,27,113,5550033,,,,,,,2024-01-11,1,,,,,フォーチルドレン,0
1440,5130001076105,新規,0,2024-01-11,2024-01-11,株式会社ＳＨＩＲＯ　ＰＯＣＣＨＩ,,株式会社,京都府,宇治市,広野町寺山４５－５,,26,204,6110031,,,,,,,2024-01-11,1,,,,,シロポッチ,0
1442,5130003009211,新規,0,2024-01-11,2024-01-11,合同会社ジュノー,,合同会社,京都府,京都市南区,上鳥羽八王神町２５９番地,,26,107,6018173,,,,,,,2024-01-11,1,,,,,ジュノー,0
1449,5140001132930,新規,0,2024-01-11,2024-01-11,株式会社Ｏｆｆｅｒｅｄ,,株式会社,兵庫県,神戸市須磨区,戸政町４丁目１番５号パロス須磨戸政町２０１,,28,107,6540034,,,,,,,2024-01-11,1,,,,,オファード,0
1454,5150001026990,新規,0,2024-01-11,2024-01-11,株式会社朱雀,,株式会社,奈良県,橿原市,田中町４９８番地の２,,29,205,6340032,,,,,,,2024-01-11,1,,,,,スザク,0
1455,5150003003162,新規,0,2024-01-11,2024-01-11,合同会社時吉設計,,合同会社,奈良県,生駒市,上町１０２番地５,,29,209,6300131,,,,,,,2024-01-11,1,,,,,トキヨシセッケイ,0
1459,5160001025612,新規,0,2024-01-11,2024-01-11,株式会社ｈａｒｕｎａｃｈｉｃｏ,,株式会社,滋賀県,大津市,梅林１丁目１５番１５－１３０４号,,25,201,5200051,,,,,,,2024-01-11,1,,,,,ハルナチコ,0
1460,5160001025620,新規,0,2024-01-11,2024-01-11,リプラス株式会社,,株式会社,滋賀県,栗東市,小平井３丁目９番１号,,25,208,5203034,,,,,,,2024-01-11,1,,,,,リプラス,0
1461,5160001025629,新規,0,2024-01-11,2024-01-11,株式会社ペガサス,,株式会社,滋賀県,草津市,南草津１丁目１番地２－１５０１,,25,206,5250050,,,,,,,2024-01-11,1,,,,,ペガサス,0
1462,5160003003087,新規,0,2024-01-11,2024-01-11,ＬＥＡ　ＭＯＡＮＡ合同会社,,合同会社,滋賀県,大津市,北比良９６４番地の２０,,25,201,5200503,,,,,,,2024-01-11,1,,,,,レアモアナ,0
1470,5180001159656,新規,0,2024-01-11,2024-01-11,ＡＪＡ株式会社,,株式会社,愛知県,名古屋市中区,錦２丁目５番５八木兵伝馬ビル３階,,23,106,4600003,,,,,,,2024-01-11,1,,,,,エージェイエー,0
1471,5180001159664,新規,0,2024-01-11,2024-01-11,株式会社ぶりぺん,,株式会社,愛知県,小牧市,新町３丁目２４５番地１,,23,219,4850013,,,,,,,2024-01-11,1,,,,,ブリペン,0
1472,5180001159680,新規,0,2024-01-11,2024-01-11,株式会社ＬＩＢＥＲＡ,,株式会社,愛知県,名古屋市中区,金山４丁目６番２７号金山共同ビル５０２,,23,106,4600022,,,,,,,2024-01-11,1,,,,,リベラ,0
1473,5180001159697,新規,0,2024-01-11,2024-01-11,株式会社ロマンツォ,,株式会社,愛知県,名古屋市瑞穂区,田辺通１丁目１５番地リバーサイドビュー１Ｆ,,23,108,4670027,,,,,,,2024-01-11,1,,,,,ロマンツォ,0
1474,5180001159706,新規,0,2024-01-11,2024-01-11,株式会社Ｉ’ｓ　ｃｒｅｗ,,株式会社,愛知県,瀬戸市,新田町６７番地の１,,23,204,4890949,,,,,,,2024-01-11,1,,,,,アイズクルー,0
1477,5180003026210,新規,0,2024-01-11,2024-01-11,合同会社水無月ホールディングス,,合同会社,愛知県,名古屋市中区,栄２丁目２番１号広小路伏見中駒ビル５Ｆ,,23,106,4600008,,,,,,,2024-01-11,1,,,,,ミナヅキホールディングス,0
1480,5190001030980,新規,0,2024-01-11,2024-01-11,株式会社ｓｒａｃ,,株式会社,三重県,四日市市,羽津山町４番地３,,24,202,5100016,,,,,,,2024-01-11,1,,,,,スラック,0
1481,5200001042058,新規,0,2024-01-11,2024-01-11,株式会社Ｔｕｍｉｋｉ,,株式会社,岐阜県,不破郡垂井町,綾戸１１１６番地１,,21,361,5032112,,,,,,,2024-01-11,1,,,,,ツミキ,0
1485,5210005010126,新規,0,2024-01-11,2024-01-11,一般社団法人日本パペットカウンセリング協会,,その他の設立登記法人,福井県,福井市,問屋町１丁目３,,18,201,9188231,,,,,,,2024-01-11,1,,,,,ニホンパペットカウンセリングキョウカイ,0
1488,5230005009356,新規,0,2024-01-11,2024-01-11,行政書士法人スマート,,その他の設立登記法人,富山県,富山市,新庄町３９番６,,16,201,9300992,,,,,,,2024-01-11,1,,,,,スマート,0
1493,5240001062647,新規,0,2024-01-11,2024-01-11,株式会社Ｌｅｉｔ　Ｌｉｅｎ,,株式会社,広島県,福山市,山手町４丁目１８番８号１０２,,34,207,7200092,,,,,,,2024-01-11,1,,,,,レイトリエン,0
1495,5240005015700,新規,0,2024-01-11,2024-01-11,一般社団法人ソウトク,,その他の設立登記法人,広島県,広島市西区,己斐上６丁目４５２番地,,34,104,7330815,,,,,,,2024-01-11,1,,,,,ソウトク,0
1504,5290001104262,新規,0,2024-01-11,2024-01-11,株式会社ＦＨホールディングス,,株式会社,福岡県,福岡市中央区,清川２丁目２１番２２号,,40,133,8100005,,,,,,,2024-01-11,1,,,,,エフエイチホールディングス,0
1505,5290001104279,新規,0,2024-01-11,2024-01-11,大和工業株式会社,,株式会社,福岡県,柳川市,大和町豊原４８１番地４,,40,207,8390242,,,,,,,2024-01-11,1,,,,,ヤマトコウギョウ,0
1506,5290001104312,新規,0,2024-01-11,2024-01-11,東福株式会社,,株式会社,福岡県,福津市,若木台６丁目１４番地の１５,,40,224,8113221,,,,,,,2024-01-11,1,,,,,トウフク,0
1507,5290001104320,新規,0,2024-01-11,2024-01-11,株式会社リアウェイク,,株式会社,福岡県,久留米市,城島町内野３２８番地１０,,40,203,8300204,,,,,,,2024-01-11,1,,,,,リアウェイク,0
1508,5290001104329,新規,0,2024-01-11,2024-01-11,ＴＨＲＥＥＥ株式会社,,株式会社,福岡県,福岡市中央区,今泉２丁目３番４１－１１０７号,,40,133,8100021,,,,,,,2024-01-11,1,,,,,スリー,0
1513,5290801030204,新規,0,2024-01-11,2024-01-11,株式会社ＳＨＯＷＴＩＭＥ,,株式会社,福岡県,豊前市,大字八屋４９１番地１,,40,214,8280021,,,,,,,2024-01-11,1,,,,,ショウタイム,0
1516,5320001020225,新規,0,2024-01-11,2024-01-11,株式会社ＳＥＭ,,株式会社,大分県,大分市,明野東２丁目２８番３号,,44,201,8700161,,,,,,,2024-01-11,1,,,,,,0
1523,5340001026204,新規,0,2024-01-11,2024-01-11,株式会社牧絹織物,,株式会社,鹿児島県,奄美市,名瀬金久町１７番１４号,,46,222,8940031,,,,,,,2024-01-11,1,,,,,マキキヌオリモノ,0
1530,5360001033041,新規,0,2024-01-11,2024-01-11,株式会社岸本金物鍵店,,株式会社,沖縄県,名護市,宇茂佐の森１丁目１６番地１,,47,209,9050009,,,,,,,2024-01-11,1,,,,,キシモトカナモノカギテン,0
1539,5380001034236,新規,0,2024-01-11,2024-01-11,Ｒ’ｓ株式会社,,株式会社,福島県,相馬市,中村字川沼３０９番地,,07,209,9760042,,,,,,,2024-01-11,1,,,,,アールズ,0
1546,5420005007877,新規,0,2024-01-11,2024-01-11,司法書士法人たいよう総合事務所,,その他の設立登記法人,青森県,八戸市,根城５丁目１３番１７号,,02,203,0391166,,,,,,,2024-01-11,1,,,,,タイヨウソウゴウジムショ,0
1548,5430001090769,新規,0,2024-01-11,2024-01-11,株式会社ＳＨＩＺＥＮ,,株式会社,北海道,様似郡様似町,緑町４９番地１１,,01,608,0580013,,,,,,,2024-01-11,1,,,,,シゼン,0
1549,5430001090802,新規,0,2024-01-11,2024-01-11,Ｃ＆Ｃ株式会社,,株式会社,北海道,札幌市北区,新琴似六条１６丁目７番２号,,01,102,0010906,,,,,,,2024-01-11,1,,,,,シーアンドシー,0
1550,5430001090810,新規,0,2024-01-11,2024-01-11,株式会社ＭＵＫＵ　ＣＬＡＳＳ,,株式会社,北海道,札幌市東区,北二十三条東１３丁目２番５号,,01,103,0650023,,,,,,,2024-01-11,1,,,,,ムククラス,0
1551,5430001090819,新規,0,2024-01-11,2024-01-11,株式会社ＲＨＣ,,株式会社,北海道,札幌市中央区,大通西１２丁目４番地６８,,01,101,0600042,,,,,,,2024-01-11,1,,,,,アールエイチシー,0
1553,5430003015831,新規,0,2024-01-11,2024-01-11,合同会社ＳＣＨＡＴＺ,,合同会社,北海道,札幌市中央区,南六条西４丁目４番地３ＬＣ壱番館１階,,01,101,0640806,,,,,,,2024-01-11,1,,,,,シャッツ,0
1554,5430005014872,新規,0,2024-01-11,2024-01-11,一般社団法人Ｍｅｄｉｃａｌ　ＵＸ　Ｌａｂ,,その他の設立登記法人,北海道,札幌市白石区,北郷一条１２丁目２番１２号,,01,104,0030831,,,,,,,2024-01-11,1,,,,,メディカルユーエックスラボ,0
1555,5470001019970,新規,0,2024-01-11,2024-01-11,株式会社ドルチェック,,株式会社,香川県,高松市,天神前１０番５号セントラルスカイビルディング３Ｆ　ｓｏｕｔｈ,,37,201,7600018,,,,,,,2024-01-11,1,,,,,ドルチェック,0
1564,5700150121801,新規,0,2024-01-11,2024-01-11,ＨｅｎａｎＭｅｉｓｈａｎｉＪｉｎｃｈｕｋｏｕＭａｏｙｉＹｏｕｘｉａｎＧｏｎｇｓｉ,,外国会社等,,,,,,,,Ｗｏｌｏｎｇｑｕ　ＷｏｌｏｎｇｇａｎｇＪｉｅｄａｏ　Ｃｈｅｚｈａｎｎａｎｌｕ　Ｊｉｎｈｅｗａｎ　６　Ｈａｏｌｏｕ　２Ｄａｎｙｕａｎ　６０１Ｓｈｉ　Ｎａｎｙａｎｇｓｈｉ　Ｈｅｎａｎｓｈｅｎｇ　４７３０００　ＣＮ,,,,,,2024-01-11,1,,,,,ホーナンメイシャーニージンチュウコウマオイーヨウシエンゴンス,0
1565,5700150123302,新規,0,2024-01-11,2024-01-11,蘇州藤飛精工科技有限公司,,外国会社等,福島県,郡山市,巳六段２０４番地,,07,203,9630119,中華人民共和国蘇州呉中経済開発区横＿街道天鵝蕩路２０１１号,00132494,,,,,2024-01-11,1,,,,,ソシユウフジトビセイコウカギユウゲンコウシ,0
1570,6010001241306,新規,0,2024-01-11,2024-01-11,株式会社縁増,,株式会社,東京都,中央区,銀座７丁目１３番２０号銀座ＴＨビル９階,,13,102,1040061,,,,,,,2024-01-11,1,,,,,エンゾウ,0
1571,6010001241339,新規,0,2024-01-11,2024-01-11,株式会社Ｂｌｕｅｃｈａｒｔ,,株式会社,東京都,中央区,銀座１丁目１２－４Ｎ＆ＥＢＬＤ．７階,,13,102,1040061,,,,,,,2024-01-11,1,,,,,ブルーチャート,0
1572,6010001241355,新規,0,2024-01-11,2024-01-11,株式会社ベンビジネスコンサルティング,,株式会社,東京都,中央区,銀座１丁目１２－４Ｎ＆ＥＢＬＤ．７階,,13,102,1040061,,,,,,,2024-01-11,1,,,,,ベンビジネスコンサルティング,0
1574,6010003042603,新規,0,2024-01-11,2024-01-11,Ｔｒｕｔｈ　Ｑｕｅｓｔ合同会社,,合同会社,東京都,中央区,銀座１丁目１２－４Ｎ＆ＥＢＬＤ．７階,,13,102,1040061,,,,,,,2024-01-11,1,,,,,トゥルースクエスト,0
1575,6010003042644,新規,0,2024-01-11,2024-01-11,ＡＬＪ　Ｋｙｏｔｏ　Ｈｏｔｅｌ合同会社,,合同会社,東京都,千代田区,丸の内３丁目１番１号東京共同会計事務所内,,13,101,1000005,,,,,,,2024-01-11,1,,,,,エーエルジェイキョウトホテル,0
1578,6010005037725,新規,0,2024-01-11,2024-01-11,一般社団法人ＡＬＪ　Ｋｙｏｔｏ　Ｈｏｔｅｌ,,その他の設立登記法人,東京都,千代田区,丸の内３丁目１番１号東京共同会計事務所内,,13,101,1000005,,,,,,,2024-01-11,1,,,,,エーエルジェイキョウトホテル,0
1586,6010401179600,新規,0,2024-01-11,2024-01-11,ＢＳ・ビジネスサービス準備株式会社,,株式会社,東京都,港区,赤坂９丁目７番１号,,13,103,1070052,,,,,,,2024-01-11,1,,,,,ビーエスビジネスサービスジュンビ,0
1587,6010401179625,新規,0,2024-01-11,2024-01-11,スパイクバイオ株式会社,,株式会社,東京都,港区,北青山２丁目１４－４,,13,103,1070061,,,,,,,2024-01-11,1,,,,,スパイクバイオ,0
1588,6010401179633,新規,0,2024-01-11,2024-01-11,株式会社アステリスク,,株式会社,東京都,港区,北青山１丁目３番１号アールキューブ青山３階,,13,103,1070061,,,,,,,2024-01-11,1,,,,,アステリスク,0
1589,6010401179658,新規,0,2024-01-11,2024-01-11,株式会社ＦｉｔＧａｐ,,株式会社,東京都,港区,六本木１丁目４番５号,,13,103,1060032,,,,,,,2024-01-11,1,,,,,フィットギャップ,0
1597,6010603010570,新規,0,2024-01-11,2024-01-11,合同会社ＳＲＹ　Ｐｌｕｓ,,合同会社,東京都,墨田区,押上２丁目１番１－１０７号,,13,107,1310045,,,,,,,2024-01-11,1,,,,,スライプラス,0
1600,6010801034677,新規,0,2024-01-11,2024-01-11,俊希科技株式会社,,株式会社,東京都,大田区,東海３丁目７番３号東海ビル,,13,111,1430001,,,,,,,2024-01-11,1,,,,,シュンキカギ,0
1602,6010901054492,新規,0,2024-01-11,2024-01-11,株式会社デコピン,,株式会社,東京都,世田谷区,深沢５丁目７番８号,,13,112,1580081,,,,,,,2024-01-11,1,,,,,デコピン,0
1608,6011001159281,新規,0,2024-01-11,2024-01-11,株式会社Ｓｐｅｅｄｙ,,株式会社,東京都,渋谷区,千駄ヶ谷４丁目２７番１号神宮外苑ビル９Ｆ,,13,113,1510051,,,,,,,2024-01-11,1,,,,,スピーディ,0
1609,6011001159323,新規,0,2024-01-11,2024-01-11,株式会社ＤＥＡＲＳ,,株式会社,東京都,渋谷区,神宮前１丁目２２番１号オークラビル１０２,,13,113,1500001,,,,,,,2024-01-11,1,,,,,ディアーズ,0
1610,6011003018254,新規,0,2024-01-11,2024-01-11,ＴＨＡ　ＶＡＲＳ合同会社,,合同会社,東京都,目黒区,八雲５丁目１９－７－６０２,,13,110,1520023,,,,,,,2024-01-11,1,,,,,ザヴァーズ,0
1618,6011203004277,新規,0,2024-01-11,2024-01-11,合同会社ＳｔａｒｔＳｉｇｎａｌ,,合同会社,東京都,中野区,本町３丁目２９番１０－３０１号,,13,114,1640012,,,,,,,2024-01-11,1,,,,,スタートシグナル,0
1622,6011401025752,新規,0,2024-01-11,2024-01-11,株式会社てらかど設備,,株式会社,東京都,板橋区,弥生町６６－３,,13,119,1730021,,,,,,,2024-01-11,1,,,,,テラカドセツビ,0
1624,6011501030140,新規,0,2024-01-11,2024-01-11,泰来株式会社,,株式会社,東京都,荒川区,東尾久２丁目２番９号三祥ビル２４４号室,,13,118,1160012,,,,,,,2024-01-11,1,,,,,タイライ,0
1626,6011601027441,新規,0,2024-01-11,2024-01-11,株式会社Ｋスタジオ,,株式会社,東京都,練馬区,上石神井１丁目５番１３号岩谷ビル,,13,120,1770044,,,,,,,2024-01-11,1,,,,,ケイスタジオ,0
1627,6011603004199,新規,0,2024-01-11,2024-01-11,合同会社Ｌｕｐｉｎ,,合同会社,東京都,練馬区,桜台１丁目２番１０号,,13,120,1760002,,,,,,,2024-01-11,1,,,,,ルパン,0
1629,6011801043619,新規,0,2024-01-11,2024-01-11,Ｒｅｓｐｅｃｔ．Ｒ株式会社,,株式会社,東京都,葛飾区,立石５丁目１８番２‐１１０１号リグランド立石,,13,122,1240012,,,,,,,2024-01-11,1,,,,,リスペクトアール,0
1631,6012303001924,新規,0,2024-01-11,2024-01-11,合同会社こねこフィルム,,合同会社,東京都,町田市,原町田４丁目１１番１３号４階,,13,209,1940013,,,,,,,2024-01-11,1,,,,,コネコフィルム,0
1635,6012703002885,新規,0,2024-01-11,2024-01-11,合同会社Ｗｉｎｄ,,合同会社,東京都,西東京市,泉町４丁目４番６号,,13,229,2020011,,,,,,,2024-01-11,1,,,,,ワインド,0
1636,6012801022892,新規,0,2024-01-11,2024-01-11,株式会社小林事務所,,株式会社,東京都,立川市,幸町５丁目１番地の４４小林ビル５階,,13,202,1900002,,,,,,,2024-01-11,1,,,,,コバヤシジムショ,0
1638,6013301051886,新規,0,2024-01-11,2024-01-11,株式会社Ａｎｙ　ｂｙ　Ｇｏｅｎ,,株式会社,東京都,豊島区,西池袋２丁目３９番７号Ｒｃｏｒｅ西池袋５階,,13,116,1710021,,,,,,,2024-01-11,1,,,,,エニイバイゴエン,0
1639,6013303006954,新規,0,2024-01-11,2024-01-11,ミライトゥーン合同会社,,合同会社,東京都,豊島区,南大塚２丁目１６番１２号,,13,116,1700005,,,,,,,2024-01-11,1,,,,,ミライトゥーン,0
1642,6020001155174,新規,0,2024-01-11,2024-01-11,株式会社Ｂｏｎｎｅ　Ｎｏｕｖｅｌｌｅ,,株式会社,神奈川県,横浜市都筑区,茅ケ崎中央２２－１５,,14,118,2240032,,,,,,,2024-01-11,1,,,,,ボンヌーベル,0
1643,6020001155199,新規,0,2024-01-11,2024-01-11,株式会社ＳＧ,,株式会社,神奈川県,川崎市高津区,向ケ丘８１番地５,,14,134,2130035,,,,,,,2024-01-11,1,,,,,エスジー,0
1644,6020001155232,新規,0,2024-01-11,2024-01-11,みんなと商事株式会社,,株式会社,神奈川県,川崎市川崎区,港町５番３－２３３５号,,14,131,2100807,,,,,,,2024-01-11,1,,,,,ミンナトショウジ,0
1650,6021001081138,新規,0,2024-01-11,2024-01-11,京湘観光開発株式会社,,株式会社,神奈川県,平塚市,浅間町５番２７号,,14,203,2540041,,,,,,,2024-01-11,1,,,,,ケイショウカンコウカイハツ,0
1651,6021001081154,新規,0,2024-01-11,2024-01-11,株式会社ｃｏｃｏｒｏ,,株式会社,神奈川県,茅ヶ崎市,共恵１丁目１０番１９号森谷ビル１Ｆ,,14,207,2530056,,,,,,,2024-01-11,1,,,,,ココロ,0
1652,6021001081170,新規,0,2024-01-11,2024-01-11,Ａｄｖａｎｃｅｄ　Ｗｏｒｋｓ株式会社,,株式会社,神奈川県,藤沢市,湘南台７丁目１７番地の１ＩＮＯＵＥＳＱＵＡＲＥ１Ｄ室,,14,205,2520804,,,,,,,2024-01-11,1,,,,,アドバンストワークス,0
1660,6030001158036,新規,0,2024-01-11,2024-01-11,株式会社エヌアールテック,,株式会社,埼玉県,川口市,大字榛松１４５０番地１,,11,203,3340062,,,,,,,2024-01-11,1,,,,,エヌアールテック,0
1661,6030001158069,新規,0,2024-01-11,2024-01-11,株式会社ハナシコム,,株式会社,埼玉県,新座市,東北２丁目３９番１０号ドゥーセット弐番館６Ｆ,,11,230,3520001,,,,,,,2024-01-11,1,,,,,ハナシコム,0
1665,6030003023353,新規,0,2024-01-11,2024-01-11,合同会社緋樂捷,,合同会社,埼玉県,蕨市,塚越１丁目２番１４号花見第３ビル１０３,,11,223,3350002,,,,,,,2024-01-11,1,,,,,ヒラカツ,0
1670,6040001131652,新規,0,2024-01-11,2024-01-11,株式会社ワカエステート,,株式会社,千葉県,松戸市,緑ケ丘２丁目３１３番地４０４号,,12,207,2710074,,,,,,,2024-01-11,1,,,,,ワカエステート,0
1671,6040001131669,新規,0,2024-01-11,2024-01-11,株式会社ＭＯＮＳＴＥＲＡ,,株式会社,千葉県,流山市,おおたかの森南３丁目２番地の７Ｒｕｓｃｅｌｌｏ４号室,,12,220,2700139,,,,,,,2024-01-11,1,,,,,モンステラ,0
1672,6040001131702,新規,0,2024-01-11,2024-01-11,増田工業株式会社,,株式会社,千葉県,八千代市,大和田新田４５６番地１４５－７０１号,,12,221,2760046,,,,,,,2024-01-11,1,,,,,マスダコウギョウ,0
1674,6040005022237,新規,0,2024-01-11,2024-01-11,一般社団法人日本機能性免疫力研究所,,その他の設立登記法人,千葉県,松戸市,松飛台６０７番地の２４,,12,207,2702214,,,,,,,2024-01-11,1,,,,,ニホンキノウセイメンエキリョクケンキュウジョ,0
1675,6050001054019,新規,0,2024-01-11,2024-01-11,ＴＳ株式会社,,株式会社,茨城県,鉾田市,秋山６１８番地,,08,234,3111506,,,,,,,2024-01-11,1,,,,,ティーエス,0
1676,6050001054051,新規,0,2024-01-11,2024-01-11,Ｏｈａｎａ株式会社,,株式会社,茨城県,牛久市,中央４丁目５－１,,08,219,3001234,,,,,,,2024-01-11,1,,,,,オハナ,0
1677,6050001054084,新規,0,2024-01-11,2024-01-11,ＭＵＳＡ　ＴＲＡＤＩＮＧ株式会社,,株式会社,茨城県,坂東市,長須１６７８番地１,,08,228,3060645,,,,,,,2024-01-11,1,,,,,ムサトレーディング,0
1683,6060003004862,新規,0,2024-01-11,2024-01-11,合同会社ｌａ　ｐａｎｘａ,,合同会社,栃木県,栃木市,川原田町１３４８番地,,09,203,3280123,,,,,,,2024-01-11,1,,,,,ラパンチャ,0
1693,6080001026072,新規,0,2024-01-11,2024-01-11,ｓｉｏｎ株式会社,,株式会社,静岡県,静岡市駿河区,中田２丁目６番１２号,,22,102,4228041,,,,,,,2024-01-11,1,,,,,シオン,0
1708,6080401026928,新規,0,2024-01-11,2024-01-11,株式会社ワズデラフ,,株式会社,静岡県,磐田市,岩井１９８０番地２,,22,211,4380016,,,,,,,2024-01-11,1,,,,,ワズデラフ,0
1715,6100001037117,新規,0,2024-01-11,2024-01-11,株式会社ユズマルフーズ,,株式会社,長野県,長野市,若穂綿内６４６０－１２,,20,201,3810101,,,,,,,2024-01-11,1,,,,,ユズマルフーズ,0
1717,6100003007340,新規,0,2024-01-11,2024-01-11,肉球エンジニアリングサービス合同会社,,合同会社,長野県,安曇野市,穂高２６０５番地１０,,20,220,3998303,,,,,,,2024-01-11,1,,,,,ニクキュウエンジニアリングサービス,0
1725,6120001261144,新規,0,2024-01-11,2024-01-11,株式会社恒吉,,株式会社,大阪府,大阪市天王寺区,大道２丁目２番６号,,27,109,5430052,,,,,,,2024-01-11,1,,,,,コウキチ,0
1726,6120001261169,新規,0,2024-01-11,2024-01-11,Ｂｉ　Ｂｉ株式会社,,株式会社,大阪府,大阪市中央区,南船場３丁目８番１５号３Ｆ,,27,128,5420081,,,,,,,2024-01-11,1,,,,,ビビ,0
1727,6120001261235,新規,0,2024-01-11,2024-01-11,ＩＰセキュリティサービス株式会社,,株式会社,大阪府,大阪市城東区,放出西３丁目１１番４３号,,27,118,5360011,,,,,,,2024-01-11,1,,,,,アイピーセキュリティサービス,0
1728,6120003025638,新規,0,2024-01-11,2024-01-11,合同会社ＰＡＫ,,合同会社,大阪府,大阪市東淀川区,淡路２丁目４番７号１Ａ号室,,27,114,5330032,,,,,,,2024-01-11,1,,,,,ピエイケイ,0
1731,6120101068852,新規,0,2024-01-11,2024-01-11,株式会社ＥＭＡ,,株式会社,大阪府,堺市堺区,北瓦町１丁４－５１テイサンビル北館４Ｆ,,27,141,5900076,,,,,,,2024-01-11,1,,,,,エマ,0
1740,6130001076095,新規,0,2024-01-11,2024-01-11,株式会社ＹＡＹ,,株式会社,京都府,京都市中京区,中之町５８０番地,,26,104,6040032,,,,,,,2024-01-11,1,,,,,ワイエーワイ,0
1747,6140001132847,新規,0,2024-01-11,2024-01-11,明石さくら不動産株式会社,,株式会社,兵庫県,明石市,大久保町大窪５０１番地の６,,28,203,6740051,,,,,,,2024-01-11,1,,,,,,0
1751,6140003020026,新規,0,2024-01-11,2024-01-11,合同会社直志,,合同会社,兵庫県,西宮市,殿山町２番５号,,28,204,6620065,,,,,,,2024-01-11,1,,,,,ナオシ,0
1753,6160001025628,新規,0,2024-01-11,2024-01-11,Ｔ．Ｓ　ｗｏｒｋｓ株式会社,,株式会社,滋賀県,草津市,南草津４丁目３番地２７,,25,206,5250050,,,,,,,2024-01-11,1,,,,,ティーエスワークス,0
1760,6180001159663,新規,0,2024-01-11,2024-01-11,株式会社斬新,,株式会社,愛知県,日進市,栄４丁目５０３番地４,,23,230,4700113,,,,,,,2024-01-11,1,,,,,ザンシン,0
1761,6180003026184,新規,0,2024-01-11,2024-01-11,合同会社白桜堂,,合同会社,愛知県,名古屋市中村区,名駅４丁目２４番５号第２森ビル４０１,,23,105,4500002,,,,,,,2024-01-11,1,,,,,ハクオウドウ,0
1764,6190003004552,新規,0,2024-01-11,2024-01-11,合同会社竹澤商会,,合同会社,三重県,四日市市,尾平町３８１１番地１３,,24,202,5120921,,,,,,,2024-01-11,1,,,,,タケザワショウカイ,0
1771,6200003006200,新規,0,2024-01-11,2024-01-11,合同会社カフェ待夢,,合同会社,岐阜県,大垣市,直江町２４０番地１,,21,202,5030815,,,,,,,2024-01-11,1,,,,,カフェタイム,0
1772,6230003002130,新規,0,2024-01-11,2024-01-11,合同会社ＶＥ‐ＧＡ,,合同会社,富山県,富山市,浜黒崎２６７０番地１,,16,201,9318414,,,,,,,2024-01-11,1,,,,,ベガ,0
1777,6240005015699,新規,0,2024-01-11,2024-01-11,川上村農業會,,その他の設立登記法人,広島県,東広島市,（賀茂郡川上村大字飯田２８４番地の３）,,34,212,7390000,,,,,,,2024-01-11,1,,,,,カワカミムラ,0
1779,6260003004529,新規,0,2024-01-11,2024-01-11,合同会社ＵＮＩＴＥ,,合同会社,岡山県,岡山市北区,中山下１丁目１１番１５号新田第１ビル４０２,,33,101,7000821,,,,,,,2024-01-11,1,,,,,ユナイト,0
1788,6280003001805,新規,0,2024-01-11,2024-01-11,Ｒｅ．ｓａｒｕ合同会社,,合同会社,島根県,松江市,八雲町東岩坂３７４番地６,,32,201,6902102,,,,,,,2024-01-11,1,,,,,,0
1793,6290001104303,新規,0,2024-01-11,2024-01-11,株式会社ビルリノ設計,,株式会社,福岡県,福岡市中央区,輝国２丁目２番９０－３０７号,,40,133,8100032,,,,,,,2024-01-11,1,,,,,ビルリノセッケイ,0
1794,6290001104328,新規,0,2024-01-11,2024-01-11,株式会社Ｆｉｎｄ　Ｃｒｅｗ,,株式会社,福岡県,福岡市中央区,天神４丁目６番２８号天神ファーストビル７階,,40,133,8100001,,,,,,,2024-01-11,1,,,,,ファインドクルー,0
1797,6290003014822,新規,0,2024-01-11,2024-01-11,合同会社ＲＹ　ｏｆｆｉｃｅ,,合同会社,福岡県,福岡市西区,今宿駅前１丁目１４‐２６,,40,135,8190168,,,,,,,2024-01-11,1,,,,,アールワイオフィス,0
1798,6290003014830,新規,0,2024-01-11,2024-01-11,合同会社サプリボックス,,合同会社,福岡県,福岡市博多区,千代２丁目２２番８号一豊ビル２０２,,40,132,8120044,,,,,,,2024-01-11,1,,,,,サプリボックス,0
1806,6320001020224,新規,0,2024-01-11,2024-01-11,株式会社シークレットキッチン,,株式会社,大分県,別府市,石垣東３丁目６番２３号,,44,202,8740919,,,,,,,2024-01-11,1,,,,,シークレットキッチン,0
1808,6330003010148,新規,0,2024-01-11,2024-01-11,合同会社スマイル,,合同会社,熊本県,熊本市東区,小山１丁目３番２６号,,43,102,8618045,,,,,,,2024-01-11,1,,,,,スマイル,0
1812,6360001033049,新規,0,2024-01-11,2024-01-11,株式会社沖縄Ｄ．トラスト物流,,株式会社,沖縄県,那覇市,繁多川２丁目９番６号,,47,201,9020071,,,,,,,2024-01-11,1,,,,,オキナワディートラストブツリュウ,0
1814,6360003013610,新規,0,2024-01-11,2024-01-11,合同会社ぽめっくす,,合同会社,沖縄県,宮古島市,平良字下里２１９－２オーシャンフロントスタイルレキオス５０１,,47,214,9060013,,,,,,,2024-01-11,1,,,,,ポメックス,0
1820,6430001029873,新規,0,2024-01-11,2024-01-11,株式会社アートマーケット,,株式会社,北海道,札幌市東区,北六条東２丁目３番１号キムラビル,,01,103,0600906,,,,,,,2024-01-11,1,,,,,アートマーケット,0
1823,6430001090776,新規,0,2024-01-11,2024-01-11,株式会社ＨＵＡ,,株式会社,北海道,札幌市手稲区,前田五条９丁目８番２７号,,01,109,0060815,,,,,,,2024-01-11,1,,,,,フーア,0
1824,6430001090784,新規,0,2024-01-11,2024-01-11,株式会社つぼみ,,株式会社,北海道,札幌市東区,北十八条東５丁目２番３号,,01,103,0650018,,,,,,,2024-01-11,1,,,,,ツボミ,0
1825,6430001090818,新規,0,2024-01-11,2024-01-11,株式会社Ｆｕｊｉｍｏ,,株式会社,北海道,小樽市,奥沢１丁目２４番２７号,,01,203,0470013,,,,,,,2024-01-11,1,,,,,フジモ,0
1826,6430001090834,新規,0,2024-01-11,2024-01-11,株式会社ＫＹＯＳＥＩ,,株式会社,北海道,苫小牧市,東開町６丁目３番３号,,01,213,0591301,,,,,,,2024-01-11,1,,,,,キョーセイ,0
1828,6430003015830,新規,0,2024-01-11,2024-01-11,合同会社四季農場,,合同会社,北海道,石狩郡当別町,字中小屋２０３９番地３,,01,303,0610211,,,,,,,2024-01-11,1,,,,,シキノウジョウ,0
1829,6430003015847,新規,0,2024-01-11,2024-01-11,合同会社ｏｅｕｆｓ,,合同会社,北海道,札幌市中央区,南三条西８丁目７番地大洋ビル２階,,01,101,0600063,,,,,,,2024-01-11,1,,,,,ウフ,0
1831,6430005014871,新規,0,2024-01-11,2024-01-11,一般社団法人北海道ＰＡＲＫＯＵＲ　ＢＡＳＥ,,その他の設立登記法人,北海道,札幌市東区,北十七条東１丁目２番２２－１０２号,,01,103,0650017,,,,,,,2024-01-11,1,,,,,ホッカイドウパルクールベース,0
1835,6460301005191,新規,0,2024-01-11,2024-01-11,株式会社ＭＩＧＡＫＩ屋,,株式会社,北海道,北見市,美芳町７丁目３番１号,,01,208,0900064,,,,,,,2024-01-11,1,,,,,ミガキヤ,0
1839,6490001010670,新規,0,2024-01-11,2024-01-11,株式会社ＲＯＳＹ,,株式会社,高知県,宿毛市,高砂２２番１７号,,39,208,7880012,,,,,,,2024-01-11,1,,,,,ロージー,0
1840,6700150123301,新規,0,2024-01-11,2024-01-11,ＧＡＩＡ　ＡＲＣＨＩＴＥＣＴ　ＳＹＤＮＥＹ　ＰＴＹ　ＬＴＤ,,外国会社等,東京都,世田谷区,玉川３丁目２０番２号マノア玉川第３ビル５０１号室,,13,112,1580094,オーストラリア連邦、ニューサウスウェールズ州ノースシドニー、１デニゾンストリート、１６階・１７階,,,,,,2024-01-11,1,,,,,ガイアアーキテクトシドニーピーテイーワイエルテイーデイー,0
1847,7010001241197,新規,0,2024-01-11,2024-01-11,Ｋｅｖｉｎ　ＬａＳｅａｎ　Ｍｅｄｉａ株式会社,,株式会社,東京都,千代田区,神田淡路町１丁目９番５号天翔御茶ノ水ビル,,13,101,1010063,,,,,,,2024-01-11,1,,,,,ケビンラショーンメディア,0
1848,7010001241222,新規,0,2024-01-11,2024-01-11,株式会社Ｅ・Ｎ,,株式会社,東京都,文京区,小日向４丁目２番１３－１５０２号,,13,105,1120006,,,,,,,2024-01-11,1,,,,,イーエヌ,0
1849,7010001241313,新規,0,2024-01-11,2024-01-11,株式会社ＵＰホールディングス,,株式会社,東京都,中央区,月島２丁目１６番７号アヴェニール月島６０１,,13,102,1040052,,,,,,,2024-01-11,1,,,,,アップホールディングス,0
1850,7010001241379,新規,0,2024-01-11,2024-01-11,ＥｎｍｅｉＰｒｏ株式会社,,株式会社,東京都,中央区,日本橋兜町１７番地の２番ＭＥＴＳオフィス日本橋兜町,,13,102,1030026,,,,,,,2024-01-11,1,,,,,エンメイプロ,0
1852,7010003042627,新規,0,2024-01-11,2024-01-11,合同会社ケブロ・インターナショナル,,合同会社,東京都,文京区,白山５丁目２６－９久保田ビル２０１,,13,105,1120001,,,,,,,2024-01-11,1,,,,,ケブロインターナショナル,0
1857,7010005037690,新規,0,2024-01-11,2024-01-11,大東亜開発協同組合,,その他の設立登記法人,東京都,千代田区,九段南３丁目６番１号,,13,101,1020074,,,,,,,2024-01-11,1,,,,,ダイトウアカイハツ,0
1858,7010005037724,新規,0,2024-01-11,2024-01-11,久喜開発２特定目的会社,,その他の設立登記法人,東京都,千代田区,飯田橋４丁目７番１号結和税理士法人内,,13,101,1020072,,,,,,,2024-01-11,1,,,,,クキカイハツツー,0
1863,7010401179632,新規,0,2024-01-11,2024-01-11,株式会社ＭＳＯＬ　Ｄｉｇｉｔａｌ,,株式会社,東京都,港区,赤坂９丁目７番１号,,13,103,1070052,,,,,,,2024-01-11,1,,,,,エムソルデジタル,0
1864,7010401179649,新規,0,2024-01-11,2024-01-11,ウェルリンクテックジャパン株式会社,,株式会社,東京都,港区,高輪４丁目２３番６号ハイホーム高輪７０８,,13,103,1080074,,,,,,,2024-01-11,1,,,,,ウェルリンクテックジャパン,0
1867,7010403031691,新規,0,2024-01-11,2024-01-11,画合同会社,,合同会社,東京都,港区,高輪１丁目２３－２３,,13,103,1080074,,,,,,,2024-01-11,1,,,,,エガク,0
1873,7010703007012,新規,0,2024-01-11,2024-01-11,合同会社ＳＵ,,合同会社,東京都,品川区,南品川６丁目１５番１７号ゼームス坂パークハウス８０５,,13,109,1400004,,,,,,,2024-01-11,1,,,,,エスユー,0
1874,7010705003579,新規,0,2024-01-11,2024-01-11,一般社団法人鉄道土木施設財産整理協会,,その他の設立登記法人,東京都,品川区,南品川６丁目１２番３号,,13,109,1400004,,,,,,,2024-01-11,1,,,,,テツドウドボクシセツザイサンセイリキョウカイ,0
1876,7010801034676,新規,0,2024-01-11,2024-01-11,テラフロンティア株式会社,,株式会社,東京都,大田区,大森西５丁目１３番１８号,,13,111,1430015,,,,,,,2024-01-11,1,,,,,テラフロンティア,0
1882,7010901054500,新規,0,2024-01-11,2024-01-11,株式会社田村陽平デザインスタジオ,,株式会社,東京都,世田谷区,大蔵５丁目１９番２４号,,13,112,1570074,,,,,,,2024-01-11,1,,,,,タムラヨウヘイデザインスタジオ,0
1883,7010903008710,新規,0,2024-01-11,2024-01-11,合同会社今村コンサルティング,,合同会社,東京都,世田谷区,砧４丁目３０番１２号,,13,112,1570073,,,,,,,2024-01-11,1,,,,,イマムラコンサルティング,0
1884,7010903008719,新規,0,2024-01-11,2024-01-11,ＮＩＳ合同会社,,合同会社,東京都,世田谷区,岡本１丁目３番４－１０１号,,13,112,1570076,,,,,,,2024-01-11,1,,,,,エヌアイエス,0
1890,7011001159280,新規,0,2024-01-11,2024-01-11,株式会社ＬＡ．ＦＵＭＩＹＡ,,株式会社,東京都,渋谷区,恵比寿３丁目１２番２号,,13,113,1500013,,,,,,,2024-01-11,1,,,,,ラフミヤ,0
1891,7011001159322,新規,0,2024-01-11,2024-01-11,株式会社ＲＥＱ,,株式会社,東京都,渋谷区,神宮前６丁目２３番４号桑野ビル２階,,13,113,1500001,,,,,,,2024-01-11,1,,,,,アールイーキュー,0
1895,7011003018245,新規,0,2024-01-11,2024-01-11,ＭＹＳＹグローバルアドバイザリー合同会社,,合同会社,東京都,渋谷区,神山町２１番１５号松濤ガーデン３０１号,,13,113,1500047,,,,,,,2024-01-11,1,,,,,エムワイエスワイグローバルアドバイザリー,0
1896,7011003018253,新規,0,2024-01-11,2024-01-11,Ｆｏｒｔｕｎｅ　Ａｓｓｅｔ　Ｊａｐａｎ合同会社,,合同会社,東京都,渋谷区,渋谷２丁目１９－１５宮益坂ビルディング６０９,,13,113,1500002,,,,,,,2024-01-11,1,,,,,フォーチュンアセットジャパン,0
1897,7011003018261,新規,0,2024-01-11,2024-01-11,合同会社ペドラルベス,,合同会社,東京都,渋谷区,千駄ヶ谷３丁目３－１６,,13,113,1510051,,,,,,,2024-01-11,1,,,,,ペドラルベス,0
1900,7011101105432,新規,0,2024-01-11,2024-01-11,株式会社アクセス,,株式会社,東京都,新宿区,西新宿３丁目３番１３号西新宿水間ビル６階,,13,104,1600023,,,,,,,2024-01-11,1,,,,,アクセス,0
1904,7011203004276,新規,0,2024-01-11,2024-01-11,合同会社ＨＡＲＫＥＮ,,合同会社,東京都,中野区,南台４丁目１７番６号,,13,114,1640014,,,,,,,2024-01-11,1,,,,,ハーケン,0
1913,7011603004198,新規,0,2024-01-11,2024-01-11,合同会社碓氷ＲａｉｌＬｏｒｄｓ,,合同会社,東京都,練馬区,栄町２１－１０サンライズ江古田地下一階Ｆ号室,,13,120,1760006,,,,,,,2024-01-11,1,,,,,ウスイレイルローズ,0
1914,7011801043618,新規,0,2024-01-11,2024-01-11,株式会社ＨＡＩＲ　ＳＨＡＰＥ,,株式会社,東京都,足立区,西新井１丁目２１番１６号,,13,121,1230841,,,,,,,2024-01-11,1,,,,,ヘアシェイプ,0
1918,7012703002884,新規,0,2024-01-11,2024-01-11,合同会社Ｖｅｒｒｅａｕｘ,,合同会社,東京都,小平市,花小金井２丁目２３番１７号,,13,211,1870002,,,,,,,2024-01-11,1,,,,,ヴェロー,0
1919,7012801022891,新規,0,2024-01-11,2024-01-11,株式会社ＰＲＥＳＳ,,株式会社,東京都,立川市,柴崎町３丁目１０－２３大和ビル１Ｆ,,13,202,1900023,,,,,,,2024-01-11,1,,,,,プレス,0
1925,7013301051885,新規,0,2024-01-11,2024-01-11,株式会社ＶＩＳＳＳ,,株式会社,東京都,豊島区,東池袋１丁目３４番５号いちご東池袋ビル６階,,13,116,1700013,,,,,,,2024-01-11,1,,,,,ヴィス,0
1926,7013301051893,新規,0,2024-01-11,2024-01-11,株式会社ＧＡＭ,,株式会社,東京都,豊島区,西池袋５丁目１３－１２ＭＫビル４Ｆ,,13,116,1710021,,,,,,,2024-01-11,1,,,,,ガム,0
1927,7013303006953,新規,0,2024-01-11,2024-01-11,合同会社アールスコンサルティング,,合同会社,東京都,豊島区,南池袋１丁目１１－１９－３０２,,13,116,1710022,,,,,,,2024-01-11,1,,,,,アールスコンサルティング,0
1939,7020001155215,新規,0,2024-01-11,2024-01-11,うすい電気株式会社,,株式会社,神奈川県,川崎市麻生区,王禅寺１１０２番地８,,14,137,2150013,,,,,,,2024-01-11,1,,,,,ウスイデンキ,0
1940,7020001155231,新規,0,2024-01-11,2024-01-11,株式会社ファーストペンギン,,株式会社,神奈川県,横浜市泉区,新橋町５１番地１プレミスト緑園都市ヴィスタコート２０４号,,14,116,2450009,,,,,,,2024-01-11,1,,,,,ファーストペンギン,0
1947,7021001081161,新規,0,2024-01-11,2024-01-11,株式会社ｍｕｇ,,株式会社,神奈川県,相模原市緑区,東橋本１丁目１４番１７号会田ビル１０２,,14,151,2520144,,,,,,,2024-01-11,1,,,,,マグ,0
1948,7021001081178,新規,0,2024-01-11,2024-01-11,株式会社ハレノワ,,株式会社,神奈川県,逗子市,逗子１丁目９番３１号ザ・パークハウス１０２Ａ,,14,208,2490006,,,,,,,2024-01-11,1,,,,,ハレノワ,0
1952,7021003013988,新規,0,2024-01-11,2024-01-11,合同会社ククナ,,合同会社,神奈川県,藤沢市,湘南台２丁目１６番地の１７湘南テラスメイ３０５号室,,14,205,2520804,,,,,,,2024-01-11,1,,,,,ククナ,0
1953,7021003013996,新規,0,2024-01-11,2024-01-11,合同会社サイイン,,合同会社,神奈川県,相模原市南区,松が枝町１６番３号松が枝アルファ１０１,,14,153,2520313,,,,,,,2024-01-11,1,,,,,サイイン,0
1961,7030001158010,新規,0,2024-01-11,2024-01-11,日本マグビリオン生活用品株式会社,,株式会社,埼玉県,三郷市,早稲田４丁目５番地,,11,237,3410018,,,,,,,2024-01-11,1,,,,,ニホンマグビリオン,0
1966,7030003023352,新規,0,2024-01-11,2024-01-11,合同会社ＡＳ　ＡＲＴＥＤＧＥＳ,,合同会社,埼玉県,さいたま市北区,東大成町１丁目６１９番地４,,11,102,3310814,,,,,,,2024-01-11,1,,,,,エーエスアートエッヂス,0
1967,7030003023360,新規,0,2024-01-11,2024-01-11,合同会社ＣＣ,,合同会社,埼玉県,草加市,氷川町８６３‐１ブリリア草加３０１,,11,221,3400034,,,,,,,2024-01-11,1,,,,,シーシー,0
1968,7030003023369,新規,0,2024-01-11,2024-01-11,合同会社彩えにしファーム,,合同会社,埼玉県,さいたま市西区,大字植田谷本１９番地１４,,11,101,3310053,,,,,,,2024-01-11,1,,,,,サイエニシファーム,0
1974,7040001131668,新規,0,2024-01-11,2024-01-11,株式会社Ｌｉｓｔｅｐ,,株式会社,千葉県,松戸市,松戸８８９番地の１０,,12,207,2710092,,,,,,,2024-01-11,1,,,,,リステップ,0
1975,7040001131676,新規,0,2024-01-11,2024-01-11,アクアネクスト株式会社,,株式会社,千葉県,船橋市,湊町２丁目１２番２４号湊町日本橋ビル６Ｆ,,12,204,2730011,,,,,,,2024-01-11,1,,,,,アクアネクスト,0
1977,7040005022236,新規,0,2024-01-11,2024-01-11,一般社団法人日本里山保全,,その他の設立登記法人,千葉県,いすみ市,岩船６００番地,,12,238,2980011,,,,,,,2024-01-11,1,,,,,ニホンサトヤマホゼン,0
1978,7050001002991,新規,0,2024-01-11,2024-01-11,茨城光学工業株式会社,,株式会社,茨城県,東茨城郡城里町,大字阿波山２３０番地,,08,310,3114344,,,,,,,2024-01-11,1,,,,,イバラキコウガクコウギョウ,0
1982,7050001054091,新規,0,2024-01-11,2024-01-11,株式会社サクシード,,株式会社,茨城県,坂東市,岩井４２７４番地１６５,,08,228,3060631,,,,,,,2024-01-11,1,,,,,サクシード,0
1983,7050003008046,新規,0,2024-01-11,2024-01-11,合同会社大愛工業,,合同会社,茨城県,鹿嶋市,旭ケ丘２丁目１５番地１３,,08,222,3140017,,,,,,,2024-01-11,1,,,,,ダイアコウギョウ,0
1984,7060001036691,新規,0,2024-01-11,2024-01-11,株式会社ＷＨＩＴＥ＆ＷＨＩＴＥ,,株式会社,栃木県,宇都宮市,鶴田町２１５０番地５３,,09,201,3200851,,,,,,,2024-01-11,1,,,,,ホワイトアンドホワイト,0
1985,7060001036717,新規,0,2024-01-11,2024-01-11,株式会社想,,株式会社,栃木県,宇都宮市,砥上町３３３番地３６,,09,201,3200856,,,,,,,2024-01-11,1,,,,,ソウ,0
1986,7060001036725,新規,0,2024-01-11,2024-01-11,株式会社ＰＭＡＳ,,株式会社,栃木県,栃木市,吹上町４０２番地,,09,203,3280125,,,,,,,2024-01-11,1,,,,,ピーマス,0
2004,7110001038096,新規,0,2024-01-11,2024-01-11,株式会社ルブリカント,,株式会社,新潟県,新潟市東区,新岡山２丁目１２番５号,,15,102,9500822,,,,,,,2024-01-11,1,,,,,ルブリカント,0
2015,7120001261036,新規,0,2024-01-11,2024-01-11,ＨＡＲＵ株式会社,,株式会社,大阪府,大阪市港区,港晴４丁目１４－５港晴パールシティビル,,27,107,5520023,,,,,,,2024-01-11,1,,,,,ハル,0
2016,7120001261143,新規,0,2024-01-11,2024-01-11,株式会社継良,,株式会社,大阪府,大阪市住之江区,粉浜３丁目９番２５号,,27,125,5590001,,,,,,,2024-01-11,1,,,,,ツグヨシ,0
2017,7120001261192,新規,0,2024-01-11,2024-01-11,豊合株式会社,,株式会社,大阪府,大阪市生野区,中川４丁目２番４号ホワイトビル３０３号,,27,116,5440005,,,,,,,2024-01-11,1,,,,,トゴウ,0
2018,7120001261267,新規,0,2024-01-11,2024-01-11,株式会社ＵＦＳ,,株式会社,大阪府,枚方市,岡東町１１番１１号,,27,210,5730032,,,,,,,2024-01-11,1,,,,,ユーエフエス,0
2022,7122001037721,新規,0,2024-01-11,2024-01-11,株式会社マネーボード,,株式会社,大阪府,大東市,大野１丁目５番９号,,27,218,5740042,,,,,,,2024-01-11,1,,,,,マネーボード,0
2024,7130001076086,新規,0,2024-01-11,2024-01-11,株式会社スパーク,,株式会社,京都府,亀岡市,篠町浄法寺中村１番地８,,26,206,6210835,,,,,,,2024-01-11,1,,,,,スパーク,0
2025,7130001076094,新規,0,2024-01-11,2024-01-11,株式会社カーヴ田中屋,,株式会社,京都府,京都市下京区,新町通綾小路下る船鉾町３７８－２新町パールハイツ１０２号,,26,106,6008443,,,,,,,2024-01-11,1,,,,,カーヴタナカヤ,0
2026,7130003009226,新規,0,2024-01-11,2024-01-11,合同会社ユウシンビルディング,,合同会社,京都府,京都市下京区,東洞院通四条下る元悪王子町４２番地サンクタス四条烏丸スティーロレジデンス５１１号,,26,106,6008091,,,,,,,2024-01-11,1,,,,,ユウシンビルディング,0
2036,7140003020033,新規,0,2024-01-11,2024-01-11,合同会社Ｅｒｂｅ,,合同会社,兵庫県,神戸市垂水区,向陽２丁目１番１３号,,28,108,6550012,,,,,,,2024-01-11,1,,,,,エルベ,0
2040,7150001026980,新規,0,2024-01-11,2024-01-11,株式会社ミニコス,,株式会社,奈良県,北葛城郡上牧町,片岡台１丁目６セントラルヒルズ西大和,,29,424,6390201,,,,,,,2024-01-11,1,,,,,ミニコス,0
2041,7160001025627,新規,0,2024-01-11,2024-01-11,８７株式会社,,株式会社,滋賀県,東近江市,池庄町２１２５番地３,,25,213,5270113,,,,,,,2024-01-11,1,,,,,ハナ,0
2042,7160003003085,新規,0,2024-01-11,2024-01-11,合同会社Ｊａｐａｎ　Ａｍｅｒｉｃａ　Ｔａｘ　Ｓｏｌｕｔｉｏｎｓ,,合同会社,滋賀県,大津市,中央１丁目５番１０－１０５号,,25,201,5200043,,,,,,,2024-01-11,1,,,,,ジャパンアメリカタックスソリューションズ,0
2054,7180001159646,新規,0,2024-01-11,2024-01-11,ミパンインターナショナル株式会社,,株式会社,愛知県,名古屋市守山区,幸心１丁目２０３番地,,23,113,4630079,,,,,,,2024-01-11,1,,,,,ミパンインターナショナル,0
2055,7180001159720,新規,0,2024-01-11,2024-01-11,ＪＩＮＦＬＥＸ　ＪＡＰＡＮ株式会社,,株式会社,愛知県,瀬戸市,西原町２丁目１番地１せと丸ビル２階２Ａ号室,,23,204,4890972,,,,,,,2024-01-11,1,,,,,ジンフレックスジャパン,0
2058,7180003026191,新規,0,2024-01-11,2024-01-11,合同会社ワールドインセクトオアシス,,合同会社,愛知県,名古屋市港区,港楽３丁目２番７号,,23,111,4550014,,,,,,,2024-01-11,1,,,,,ワールドインセクトオアシス,0
2059,7180003026209,新規,0,2024-01-11,2024-01-11,合同会社エムティ,,合同会社,愛知県,名古屋市中村区,名駅４丁目２４番５号第２森ビル４０１,,23,105,4500002,,,,,,,2024-01-11,1,,,,,エムティ,0
2068,7200001042056,新規,0,2024-01-11,2024-01-11,株式会社新宝商事,,株式会社,岐阜県,安八郡輪之内町,福束１８６３番地１,,21,382,5030235,,,,,,,2024-01-11,1,,,,,シンポウショウジ,0
2071,7220001025760,新規,0,2024-01-11,2024-01-11,ｉＤｓネットワークス株式会社,,株式会社,石川県,河北郡津幡町,字南中条ト１４番地１,,17,361,9290343,,,,,,,2024-01-11,1,,,,,アイディーエスネットワークス,0
2072,7240001062645,新規,0,2024-01-11,2024-01-11,株式会社スマイルサンシャイン,,株式会社,広島県,広島市東区,戸坂桜西町６番１１号,,34,102,7320006,,,,,,,2024-01-11,1,,,,,スマイルサンシャイン,0
2074,7260001038627,新規,0,2024-01-11,2024-01-11,株式会社ＬｉｂｅｒＬｉｆｅ,,株式会社,岡山県,津山市,皿１３６番地５,,33,203,7080873,,,,,,,2024-01-11,1,,,,,リベルライフ,0
2075,7260001038643,新規,0,2024-01-11,2024-01-11,ひかりヘルスケアホールディングス株式会社,,株式会社,岡山県,岡山市東区,可知２丁目５番１号,,33,103,7048173,,,,,,,2024-01-11,1,,,,,ヒカリヘルスケアホールディングス,0
2087,7280003001804,新規,0,2024-01-11,2024-01-11,合同会社元氣堂,,合同会社,島根県,大田市,長久町長久イ４９番地６,,32,205,6940041,,,,,,,2024-01-11,1,,,,,ゲンキドウ,0
2100,7290001104269,新規,0,2024-01-11,2024-01-11,ひかり電工株式会社,,株式会社,福岡県,久留米市,三潴町高三潴６４４番地,,40,203,8300103,,,,,,,2024-01-11,1,,,,,ヒカリデンコウ,0
2101,7290001104293,新規,0,2024-01-11,2024-01-11,株式会社ＡＳＵＡＲＩＴＯ,,株式会社,福岡県,大川市,大字小保９６８番地３０,,40,212,8310041,,,,,,,2024-01-11,1,,,,,アスアリト,0
2102,7290001104335,新規,0,2024-01-11,2024-01-11,株式会社ＹＯＳＨＩＮＯ,,株式会社,福岡県,福岡市東区,和白東３丁目１７番４号,,40,131,8110214,,,,,,,2024-01-11,1,,,,,ヨシノ,0
2106,7290003014846,新規,0,2024-01-11,2024-01-11,アナリーゼ合同会社,,合同会社,福岡県,福岡市早良区,西新４丁目１番１号ブリリアタワー西新２３０９号,,40,137,8140002,,,,,,,2024-01-11,1,,,,,アナリーゼ,0
2107,7290801030202,新規,0,2024-01-11,2024-01-11,株式会社ＴＡＣ,,株式会社,福岡県,北九州市小倉北区,木町４丁目６番１１－８０５号,,40,106,8030851,,,,,,,2024-01-11,1,,,,,タック,0
2113,7330002031623,新規,0,2024-01-11,2024-01-11,有限会社三星産業,,有限会社,熊本県,合志市,大字豊岡２５０５番地の４,,43,216,8611100,,,,,,,2024-01-11,1,,,,,サンセイサンギョウ,0
2120,7380001034234,新規,0,2024-01-11,2024-01-11,マツザキ保険株式会社,,株式会社,福島県,郡山市,安積町笹川字西長久保１１９番地の２５,,07,203,9630102,,,,,,,2024-01-11,1,,,,,マツザキホケン,0
2128,7410005006556,新規,0,2024-01-11,2024-01-11,医療法人Ｔ＆Ｊ　Ｍｅｄｉｃａｌ,,その他の設立登記法人,秋田県,秋田市,泉中央２丁目６番１２号,,05,201,0100917,,,,,,,2024-01-11,1,,,,,ティーアンドジェイメディカル,0
2129,7420001018538,新規,0,2024-01-11,2024-01-11,株式会社太田電気設備設計,,株式会社,青森県,五所川原市,大字太刀打字早蕨１２５番地１１,,02,205,0370091,,,,,,,2024-01-11,1,,,,,オオタデンキセツビセッケイ,0
2130,7420001018546,新規,0,2024-01-11,2024-01-11,株式会社やまぎり,,株式会社,青森県,青森市,大字合子沢字松森２９番地３,,02,201,0300134,,,,,,,2024-01-11,1,,,,,ヤマギリ,0
2138,7430001090809,新規,0,2024-01-11,2024-01-11,株式会社ＯＮＥ．ＮＥＸＴ,,株式会社,北海道,札幌市豊平区,月寒東四条１９丁目７－１７,,01,105,0620054,,,,,,,2024-01-11,1,,,,,ワンネクスト,0
2139,7430001090817,新規,0,2024-01-11,2024-01-11,株式会社Ｏｒｉｈｉｋａ,,株式会社,北海道,札幌市中央区,南二条西３丁目１３番地２,,01,101,0600062,,,,,,,2024-01-11,1,,,,,オリヒカ,0
2140,7430001090833,新規,0,2024-01-11,2024-01-11,株式会社オガティック,,株式会社,北海道,勇払郡厚真町,字豊沢３３９番地,,01,581,0591624,,,,,,,2024-01-11,1,,,,,オガティック,0
2142,7430003015838,新規,0,2024-01-11,2024-01-11,アソビノテンサイ合同会社,,合同会社,北海道,小樽市,赤岩１丁目２７番２１号,,01,203,0470046,,,,,,,2024-01-11,1,,,,,アソビノテンサイ,0
2144,7430005014870,新規,0,2024-01-11,2024-01-11,一般社団法人北海道軟式野球連盟,,その他の設立登記法人,北海道,札幌市豊平区,豊平五条１１丁目１番１号北海道立総合体育センター内,,01,105,0620905,,,,,,,2024-01-11,1,,,,,ホッカイドウナンシキヤキュウレンメイ,0
2145,7450001014195,新規,0,2024-01-11,2024-01-11,株式会社ＫＤ,,株式会社,北海道,紋別市,落石町５丁目１番６９号,,01,219,0940007,,,,,,,2024-01-11,1,,,,,,0
2146,7450003002413,新規,0,2024-01-11,2024-01-11,松井合名会社,,合名会社,北海道,旭川市,二条通１３丁目左４号,,01,204,0700032,,,,,,,2024-01-11,1,,,,,,0
2148,7460103001586,新規,0,2024-01-11,2024-01-11,合同会社ＹＡＮＡＳＥ　ＦＡＲＭ,,合同会社,北海道,河東郡音更町,字南中音更北２線３番地,,01,631,0800576,,,,,,,2024-01-11,1,,,,,ヤナセファーム,0
2154,7470003002551,新規,0,2024-01-11,2024-01-11,優心合同会社,,合同会社,香川県,高松市,新田町甲２５２６番地３,,37,201,7610102,,,,,,,2024-01-11,1,,,,,ユウシン,0
2161,7700150121485,新規,0,2024-01-11,2024-01-11,ｎｉｎｇ　ｂｏ　ｘｉｎ　ｄｉａｎ　ｆｕ　ｄｉａｎ　ｚｉ　ｋｅ　ｊｉ　ｙｏｕ　ｘｉａｎ　ｇｏｎｇ　ｓｉ,,外国会社等,,,,,,,,ＺＨＵＡＮＧＳＨＩ，Ｒｏｏｍ　５０１，Ｎｏ．６９，ＹｕＸｉｕ　Ｒｏａｄ，Ｂｕｉｌｄｉｎｇ　２，Ｚｈｅｎｈｉａ，Ｎｉｎｇｂｏｓｈｉ，Ｚｈｅｊｉａｎｇ　３１５２００,,,,,,2024-01-11,1,,,,,ニンボーシンディエンフーディエンズカージヨウシエンゴンス,0
2162,7700150123300,新規,0,2024-01-11,2024-01-11,Ｊｉａｏｚｕｏ　Ｍｉｎｇｙａｎｇ　ｗｉｎｄｏｗ　ｄｅｃｏｒａｔｉｏｎ　ｃｏ．ｌｔｄ,,外国会社等,,,,,,,,ｈｅｎａｎ　ｊｉａｏｚｕｏ　ｘｉｕｗｕ　ｘｉｕｗｕｃｈａｎｙｅｊｉｊｕｑｕ　４５４３５０,,,,,,2024-01-11,1,,,,,ジアオズゥオミーンヤーンチュワーンシージーピンヨウシエンゴーンスー,0
2171,8010001241295,新規,0,2024-01-11,2024-01-11,大成ホールディングス株式会社,,株式会社,東京都,中央区,銀座１丁目１２番４号,,13,102,1040061,,,,,,,2024-01-11,1,,,,,タイセイホールディングス,0
2172,8010001241345,新規,0,2024-01-11,2024-01-11,株式会社Ｆｅｍｍｅ　Ｆａｔａｌｅ,,株式会社,東京都,文京区,湯島３丁目３８番１５号,,13,105,1130034,,,,,,,2024-01-11,1,,,,,ファムファタール,0
2178,8010003042618,新規,0,2024-01-11,2024-01-11,ＰＲＥＣＩＯＵＳ合同会社,,合同会社,東京都,中央区,銀座１丁目１２－４Ｎ＆ＥＢＬＤ．７階,,13,102,1040061,,,,,,,2024-01-11,1,,,,,プレシャス,0
2179,8010003042642,新規,0,2024-01-11,2024-01-11,合同会社輝く未来,,合同会社,東京都,中央区,勝どき５丁目３－１－６０５,,13,102,1040054,,,,,,,2024-01-11,1,,,,,カガヤクミライ,0
2182,8010005037715,新規,0,2024-01-11,2024-01-11,一般社団法人旅行業地域連携情報基盤機構,,その他の設立登記法人,東京都,文京区,本郷１丁目３３番１２号,,13,105,1130033,,,,,,,2024-01-11,1,,,,,リョコウギョウチイキレンケイジョウホウキバン,0
2184,8010101015954,新規,0,2024-01-11,2024-01-11,株式会社ニューエラ,,株式会社,東京都,八王子市,大塚６３４－７コーポサンベスト１０８室,,13,201,1920352,,,,,,,2024-01-11,1,,,,,ニューエラ,0
2195,8010403031682,新規,0,2024-01-11,2024-01-11,合同会社シエロビジネスデザイン,,合同会社,東京都,港区,南青山２丁目２番１５号ウィン青山９４２,,13,103,1070062,,,,,,,2024-01-11,1,,,,,シエロビジネスデザイン,0
2196,8010403031690,新規,0,2024-01-11,2024-01-11,合同会社Ｕｎｉｐｒｏ,,合同会社,東京都,港区,港南２丁目１６番７号,,13,103,1080075,,,,,,,2024-01-11,1,,,,,ユニプロ,0
2199,8010601064451,新規,0,2024-01-11,2024-01-11,株式会社ＢＲＯ,,株式会社,東京都,江東区,大島１丁目３４番１３号,,13,108,1360072,,,,,,,2024-01-11,1,,,,,ブロー,0
2200,8010603010569,新規,0,2024-01-11,2024-01-11,合同会社ｋｎｏｆ,,合同会社,東京都,江東区,木場３丁目１４番１１－６０１号,,13,108,1350042,,,,,,,2024-01-11,1,,,,,ノフ,0
2202,8010703007003,新規,0,2024-01-11,2024-01-11,ＷＯＮＤＥＲ　Ｒ合同会社,,合同会社,東京都,品川区,東品川５丁目９－１５シティテラス品川イースト３０１号室,,13,109,1400002,,,,,,,2024-01-11,1,,,,,ワンダーアル,0
2204,8010801034675,新規,0,2024-01-11,2024-01-11,株式会社コモリ工業,,株式会社,東京都,大田区,北馬込２丁目４番１２号,,13,111,1430021,,,,,,,2024-01-11,1,,,,,コモリコウギョウ,0
2206,8010803004809,新規,0,2024-01-11,2024-01-11,合同会社白樺,,合同会社,東京都,大田区,中央５丁目７番５号,,13,111,1430024,,,,,,,2024-01-11,1,,,,,シラカバ,0
2209,8010903008701,新規,0,2024-01-11,2024-01-11,合同会社ＰＬＡＣＥＴＯ,,合同会社,東京都,世田谷区,代田３丁目４７－１０羽根木フラッツ１０２,,13,112,1550033,,,,,,,2024-01-11,1,,,,,プレイスト,0
2217,8011001159222,新規,0,2024-01-11,2024-01-11,株式会社ジャパンネットワーク,,株式会社,東京都,渋谷区,広尾３丁目４番１号１階,,13,113,1500012,,,,,,,2024-01-11,1,,,,,ジャパンネットワーク,0
2218,8011001159230,新規,0,2024-01-11,2024-01-11,株式会社データフレンズ,,株式会社,東京都,渋谷区,道玄坂１丁目１０番８号渋谷道玄坂東急ビル２Ｆ－Ｃ,,13,113,1500043,,,,,,,2024-01-11,1,,,,,データフレンズ,0
2219,8011001159239,新規,0,2024-01-11,2024-01-11,株式会社Ｃａｐｈ,,株式会社,東京都,渋谷区,道玄坂１丁目１０番８号渋谷道玄坂東急ビル２Ｆ－Ｃ,,13,113,1500043,,,,,,,2024-01-11,1,,,,,カフ,0
2220,8011001159255,新規,0,2024-01-11,2024-01-11,株式会社Ｖｉｌｌａｉｎ,,株式会社,東京都,渋谷区,神泉町１０番１５号アネックス神泉３０１,,13,113,1500045,,,,,,,2024-01-11,1,,,,,ヴィラン,0
2221,8011003018228,新規,0,2024-01-11,2024-01-11,合同会社ＥＭＯＳ,,合同会社,東京都,渋谷区,初台１丁目５０番４－５０８号,,13,113,1510061,,,,,,,2024-01-11,1,,,,,エモス,0
2224,8011301029307,新規,0,2024-01-11,2024-01-11,株式会社フロムパートナー,,株式会社,東京都,杉並区,下井草３丁目３番１５号アート下井草マンション３０２,,13,115,1670022,,,,,,,2024-01-11,1,,,,,フロムパートナー,0
2228,8011401025750,新規,0,2024-01-11,2024-01-11,株式会社グローイングプロパティ,,株式会社,東京都,板橋区,向原１丁目１５番１０号,,13,119,1730036,,,,,,,2024-01-11,1,,,,,グローイングプロパティ,0
2229,8011401025759,新規,0,2024-01-11,2024-01-11,株式会社しんのすけ,,株式会社,東京都,板橋区,南常盤台１丁目１１番６号レフア南常盤台１０１号室,,13,119,1740072,,,,,,,2024-01-11,1,,,,,シンノスケ,0
2234,8011601027448,新規,0,2024-01-11,2024-01-11,株式会社ＡＧＥ,,株式会社,東京都,練馬区,大泉学園町５丁目３７番３４号,,13,120,1780061,,,,,,,2024-01-11,1,,,,,エイジ,0
2235,8011603004189,新規,0,2024-01-11,2024-01-11,合同会社パレットイブ,,合同会社,東京都,練馬区,三原台１丁目１１番３５号,,13,120,1770031,,,,,,,2024-01-11,1,,,,,パレットイブ,0
2242,8012801022890,新規,0,2024-01-11,2024-01-11,ホワイトランプ株式会社,,株式会社,東京都,立川市,柴崎町５丁目２番１５号,,13,202,1900023,,,,,,,2024-01-11,1,,,,,ホワイトランプ,0
2247,8013301051892,新規,0,2024-01-11,2024-01-11,株式会社ＮＫ,,株式会社,東京都,豊島区,南池袋２丁目３２番６号２Ｆ,,13,116,1710022,,,,,,,2024-01-11,1,,,,,エヌケー,0
2248,8013303006952,新規,0,2024-01-11,2024-01-11,合同会社小松川電気堂,,合同会社,東京都,豊島区,池袋本町１丁目１７番４号－５０６,,13,116,1700011,,,,,,,2024-01-11,1,,,,,コマツガワデンキドウ,0
2253,8020001155197,新規,0,2024-01-11,2024-01-11,Ｌｉｅｎ　Ｅｓｔａｔｅ株式会社,,株式会社,神奈川県,横浜市中区,尾上町１丁目６番地,,14,104,2310015,,,,,,,2024-01-11,1,,,,,リアンエステート,0
2254,8020001155214,新規,0,2024-01-11,2024-01-11,株式会社焼き鳥さいとう,,株式会社,神奈川県,横浜市中区,太田町２丁目３１－３コーポサンライフ太田町１０３,,14,104,2310011,,,,,,,2024-01-11,1,,,,,ヤキトリサイトウ,0
2255,8020001155230,新規,0,2024-01-11,2024-01-11,株式会社ＧＯＣ,,株式会社,神奈川県,川崎市中原区,上平間５０５番地メリーハイツ１０１,,14,133,2110013,,,,,,,2024-01-11,1,,,,,ジーオーシー,0
2256,8020001155247,新規,0,2024-01-11,2024-01-11,米山設備工業株式会社,,株式会社,神奈川県,横浜市港南区,笹下４丁目３番１６－７号,,14,111,2340052,,,,,,,2024-01-11,1,,,,,ヨネヤマセツビコウギョウ,0
2259,8020003025299,新規,0,2024-01-11,2024-01-11,合同会社ＰＬＥＪＯＵＲ,,合同会社,神奈川県,横浜市神奈川区,金港町５－１４クアドリフォリオ８階,,14,102,2210056,,,,,,,2024-01-11,1,,,,,プレジュール,0
2260,8020003025308,新規,0,2024-01-11,2024-01-11,ａｎｄ　Ｕ合同会社,,合同会社,神奈川県,川崎市麻生区,片平４丁目２３番２７号,,14,137,2150023,,,,,,,2024-01-11,1,,,,,アンドユー,0
2261,8020003025324,新規,0,2024-01-11,2024-01-11,ＰＲＩＤＥ　ＯＮＥ合同会社,,合同会社,神奈川県,川崎市川崎区,小田４丁目３番８－３号,,14,131,2100846,,,,,,,2024-01-11,1,,,,,プライドワン,0
2262,8020003025332,新規,0,2024-01-11,2024-01-11,合同会社余白,,合同会社,神奈川県,川崎市宮前区,土橋１丁目１０－２６宮前平パーク・ホームズヒルテラス３０４,,14,136,2160005,,,,,,,2024-01-11,1,,,,,ヨハク,0
2266,8021001081169,新規,0,2024-01-11,2024-01-11,株式会社こくとや,,株式会社,神奈川県,座間市,座間１丁目４１６５番地の１,,14,216,2520027,,,,,,,2024-01-11,1,,,,,コクトヤ,0
2268,8021003013987,新規,0,2024-01-11,2024-01-11,合同会社Ｎ＆Ｒ,,合同会社,神奈川県,秦野市,今泉１０１２－７シェルフォーレ３０４,,14,211,2570014,,,,,,,2024-01-11,1,,,,,エヌアンドアール,0
2273,8030001158026,新規,0,2024-01-11,2024-01-11,エヌビルド株式会社,,株式会社,埼玉県,川口市,元郷４丁目１３番１３号,,11,203,3320011,,,,,,,2024-01-11,1,,,,,エヌビルド,0
2274,8030001158083,新規,0,2024-01-11,2024-01-11,株式会社Ｔ‐ＡＲＣＳ,,株式会社,埼玉県,川口市,大字赤井１１１０番地の５,,11,203,3340073,,,,,,,2024-01-11,1,,,,,ティーアークス,0
2275,8030001158091,新規,0,2024-01-11,2024-01-11,株式会社ＧＩＢＡ,,株式会社,埼玉県,川口市,大字神戸２５４番地,,11,203,3330832,,,,,,,2024-01-11,1,,,,,ギバ,0
2276,8030001158100,新規,0,2024-01-11,2024-01-11,ゼウグマ工業株式会社,,株式会社,埼玉県,草加市,中根１丁目１９番２５－３０７号,,11,221,3400005,,,,,,,2024-01-11,1,,,,,ゼウグマコウギョウ,0
2282,8030002113525,新規,0,2024-01-11,2024-01-11,有限会社伸和工業,,有限会社,埼玉県,熊谷市,中奈良１８２４番地９,,11,202,3600801,,,,,,,2024-01-11,1,,,,,シンワコウギョウ,0
2287,8040001131659,新規,0,2024-01-11,2024-01-11,アクアローズ株式会社,,株式会社,千葉県,八千代市,島田台１２６８番地２,,12,221,2760004,,,,,,,2024-01-11,1,,,,,アクアローズ,0
2288,8040001131675,新規,0,2024-01-11,2024-01-11,株式会社Ｌ‐Ｓａｔｅｌｌｉｔｅ,,株式会社,千葉県,流山市,鰭ケ崎１４４７番地３ＦＣビル２Ｆ,,12,220,2700161,,,,,,,2024-01-11,1,,,,,エルサテライト,0
2292,8050001054090,新規,0,2024-01-11,2024-01-11,株式会社異世界村,,株式会社,茨城県,つくば市,吾妻１丁目１４番地１デュオヒルズつくばエンブレム８１３号,,08,220,3050031,,,,,,,2024-01-11,1,,,,,イセカイムラ,0
2297,8060001036690,新規,0,2024-01-11,2024-01-11,株式会社Ｃａｌｍａｔｉ,,株式会社,栃木県,佐野市,高萩町１０５６－２２７サンコート高萩２０６,,09,204,3270821,,,,,,,2024-01-11,1,,,,,カルマーティ,0
2298,8060001036724,新規,0,2024-01-11,2024-01-11,株式会社モトムネ,,株式会社,栃木県,宇都宮市,瑞穂２丁目１９番地７,,09,201,3210921,,,,,,,2024-01-11,1,,,,,モトムネ,0
2300,8070001041236,新規,0,2024-01-11,2024-01-11,株式会社Ｕ‐Ｔｕｒｎ　Ｃａｒ　Ｍａｒｔ,,株式会社,群馬県,太田市,藪塚町２４６３,,10,205,3792301,,,,,,,2024-01-11,1,,,,,ユーターンカーマート,0
2301,8070001041260,新規,0,2024-01-11,2024-01-11,株式会社セブンスタッフサービス,,株式会社,群馬県,太田市,東矢島町１２７６番地３,,10,205,3730816,,,,,,,2024-01-11,1,,,,,セブンスタッフサービス,0
2302,8070001041277,新規,0,2024-01-11,2024-01-11,株式会社大藤,,株式会社,群馬県,藤岡市,西平井１２０２番地,,10,209,3750044,,,,,,,2024-01-11,1,,,,,オオフジ,0
2305,8080001026062,新規,0,2024-01-11,2024-01-11,株式会社ＣＦスタートアップパートナーズ,,株式会社,静岡県,牧之原市,布引原２２１番地１,,22,226,4210407,,,,,,,2024-01-11,1,,,,,シーエフスタートアップパートナーズ,0
2325,8090003002465,新規,0,2024-01-11,2024-01-11,ｅｃｏ　ｃｏｒｐ合同会社,,合同会社,山梨県,甲府市,湯田１丁目１０番１０号,,19,201,4000864,,,,,,,2024-01-11,1,,,,,エココープ,0
2328,8110001038095,新規,0,2024-01-11,2024-01-11,Ｒｅｓ＆Ｒｉｚｚ株式会社,,株式会社,新潟県,新潟市西区,亀貝１０４番地１－２,,15,107,9502033,,,,,,,2024-01-11,1,,,,,リスアンドリズ,0
2341,8120001261051,新規,0,2024-01-11,2024-01-11,株式会社心和煦,,株式会社,大阪府,大阪市中央区,谷町２丁目３番１号第２ターネンビルディング５階,,27,128,5400012,,,,,,,2024-01-11,1,,,,,ミワク,0
2342,8120001261150,新規,0,2024-01-11,2024-01-11,株式会社ブラフロ,,株式会社,大阪府,大阪市浪速区,日本橋４丁目９番２２号５階,,27,111,5560005,,,,,,,2024-01-11,1,,,,,ブラフロ,0
2343,8120001261167,新規,0,2024-01-11,2024-01-11,ＪＳ　ＣＯＭＭＥＲＣＩＡＬホールディングス株式会社,,株式会社,大阪府,大阪市中央区,南船場２丁目２－４－７Ｆ,,27,128,5420081,,,,,,,2024-01-11,1,,,,,ジエイエスコマーシャルホールディングス,0
2344,8120001261258,新規,0,2024-01-11,2024-01-11,株式会社ロックスインターナショナル,,株式会社,大阪府,大阪市中央区,内本町２丁目２番１９号,,27,128,5400026,,,,,,,2024-01-11,1,,,,,ロックスインターナショナル,0
2357,8130001076127,新規,0,2024-01-11,2024-01-11,株式会社ナステック,,株式会社,京都府,京都市南区,上鳥羽北村山町７８番地上鳥羽ハイツ１－Ｃ,,26,107,6018187,,,,,,,2024-01-11,1,,,,,ナステック,0
2365,8140001132969,新規,0,2024-01-11,2024-01-11,ＡＭ　ＧＲＯＵＰ株式会社,,株式会社,兵庫県,神戸市須磨区,高倉台３丁目７番６０－５０２号,,28,107,6540081,,,,,,,2024-01-11,1,,,,,エイエムグループ,0
2366,8140003020032,新規,0,2024-01-11,2024-01-11,合同会社ＴｕＶｅｒｉｒｔｅ,,合同会社,兵庫県,神戸市中央区,磯辺通１丁目１番１８号カサベラ国際プラザビル７０７号室,,28,110,6510084,,,,,,,2024-01-11,1,,,,,チュベリテ,0
2367,8150001026996,新規,0,2024-01-11,2024-01-11,中川電気株式会社,,株式会社,奈良県,吉野郡大淀町,大字下渕１２４２番地の５,,29,442,6380821,,,,,,,2024-01-11,1,,,,,ナカガワデンキ,0
2370,8170001017952,新規,0,2024-01-11,2024-01-11,株式会社天斗,,株式会社,和歌山県,和歌山市,大谷２３７番地１,,30,201,6408472,,,,,,,2024-01-11,1,,,,,テント,0
2380,8180001159711,新規,0,2024-01-11,2024-01-11,株式会社Ｈｕｎｎｙ,,株式会社,愛知県,名古屋市中区,千代田３丁目１１番１１号麦島第２ビル３０１,,23,106,4600012,,,,,,,2024-01-11,1,,,,,ハニー,0
2384,8180003026208,新規,0,2024-01-11,2024-01-11,ＳＲＲ　ＧＲＯＵＰ合同会社,,合同会社,愛知県,名古屋市南区,柴田本通３丁目９番地ダイレンビル１階Ｄ号室,,23,112,4570814,,,,,,,2024-01-11,1,,,,,エスアールアールグループ,0
2391,8190001031002,新規,0,2024-01-11,2024-01-11,株式会社高橋設備,,株式会社,三重県,松阪市,甚目町５８９番地,,24,204,5152108,,,,,,,2024-01-11,1,,,,,タカハシセツビ,0
2396,8200003006198,新規,0,2024-01-11,2024-01-11,合同会社クリエイトバリュー,,合同会社,岐阜県,瑞浪市,土岐町２９０番地ハイムリリエ２－１０１号,,21,208,5096101,,,,,,,2024-01-11,1,,,,,クリエイトバリュー,0
2400,8220001025768,新規,0,2024-01-11,2024-01-11,株式会社ＴＡＴＡＭＩ　Ｅｌａｓｔｉｃｓ,,株式会社,石川県,かほく市,高松ヨ３番地４,,17,209,9291215,,,,,,,2024-01-11,1,,,,,タタミイラスティックス,0
2404,8240001062628,新規,0,2024-01-11,2024-01-11,株式会社ＭＯＢ,,株式会社,広島県,東広島市,八本松飯田５丁目６番２９－８号,,34,212,7390146,,,,,,,2024-01-11,1,,,,,エムオービー,0
2409,8260001038626,新規,0,2024-01-11,2024-01-11,井原和牛株式会社,,株式会社,岡山県,津山市,下田邑１２７７番地,,33,203,7080012,,,,,,,2024-01-11,1,,,,,イハラワギュウ,0
2424,8290001104268,新規,0,2024-01-11,2024-01-11,株式会社金子農産,,株式会社,福岡県,柳川市,久々原５５２番地,,40,207,8320086,,,,,,,2024-01-11,1,,,,,カネコノウサン,0
2429,8290003014837,新規,0,2024-01-11,2024-01-11,合同会社ＷＯＯ,,合同会社,福岡県,福岡市博多区,中洲２丁目２番２号,,40,132,8100801,,,,,,,2024-01-11,1,,,,,ウー,0
2435,8320003004272,新規,0,2024-01-11,2024-01-11,合同会社キラメキ星々,,合同会社,大分県,別府市,田の湯町３番７号アライアンスタワーＺ４階,,44,202,8740909,,,,,,,2024-01-11,1,,,,,キラメキホシボシ,0
2437,8330001031631,新規,0,2024-01-11,2024-01-11,ＴＯＭＯＴＯ株式会社,,株式会社,熊本県,玉名市,天水町小天７６７５番地５,,43,206,8615401,,,,,,,2024-01-11,1,,,,,トモト,0
2442,8340003004345,新規,0,2024-01-11,2024-01-11,合同会社ティーアンドティーカンパニー,,合同会社,鹿児島県,南さつま市,加世田益山８６５５,,46,220,8971125,,,,,,,2024-01-11,1,,,,,ティーアンドティーカンパニー,0
2444,8360003013591,新規,0,2024-01-11,2024-01-11,ＬＯＧＩ　Ｒ５８合同会社,,合同会社,沖縄県,那覇市,松尾１丁目１０－２４ホークシティ那覇ビル１階,,47,201,9000014,,,,,,,2024-01-11,1,,,,,ロジアールゴジュウハチ,0
2455,8380001034233,新規,0,2024-01-11,2024-01-11,福木株式会社,,株式会社,福島県,福島市,永井川字北谷地１２番地４,,07,201,9601102,,,,,,,2024-01-11,1,,,,,フクモク,0
2459,8400001016518,新規,0,2024-01-11,2024-01-11,株式会社ｍｉｃａｎ,,株式会社,岩手県,盛岡市,上田３丁目７番３１号,,03,201,0200066,,,,,,,2024-01-11,1,,,,,ミカン,0
2468,8430001090816,新規,0,2024-01-11,2024-01-11,株式会社ＲＥＢＩＲＴＨ,,株式会社,北海道,札幌市豊平区,西岡二条１丁目１番４３号,,01,105,0620032,,,,,,,2024-01-11,1,,,,,リバース,0
2469,8430001090832,新規,0,2024-01-11,2024-01-11,株式会社エスプラン,,株式会社,北海道,札幌市清田区,平岡八条４丁目１５番１９号,,01,110,0040878,,,,,,,2024-01-11,1,,,,,エスプラン,0
2470,8430001090840,新規,0,2024-01-11,2024-01-11,株式会社Ｅ‐ｓｔ,,株式会社,北海道,札幌市北区,新川二条７丁目２番２－２０２号,,01,102,0010922,,,,,,,2024-01-11,1,,,,,エスト,0
2473,8430003015829,新規,0,2024-01-11,2024-01-11,合同会社イヌヤ堀家,,合同会社,北海道,札幌市南区,北ノ沢１７４４番地３２,,01,106,0050832,,,,,,,2024-01-11,1,,,,,イヌヤホリケ,0
2474,8430003015845,新規,0,2024-01-11,2024-01-11,合同会社ＫＡＬＭ,,合同会社,北海道,札幌市西区,山の手二条１２丁目１２－２１,,01,107,0630002,,,,,,,2024-01-11,1,,,,,カーム,0
2475,8460303000809,新規,0,2024-01-11,2024-01-11,合同会社ほけんのタケウチ,,合同会社,北海道,北見市,花月町１１番地２０,,01,208,0900066,,,,,,,2024-01-11,1,,,,,ホケンノタケウチ,0
2481,8700150123308,新規,0,2024-01-11,2024-01-11,ＨＯＮＧＦＥＮＧ　ＩＮＴＥＲＮＡＴＩＯＮＡＬ　ＳＨＩＰ　ＭＡＮＡＧＥＭＥＮＴ　ＰＴＥ．ＬＴＤ．,,外国会社等,東京都,渋谷区,神宮前６丁目２３番４号桑野ビル２階,,13,113,1500001,シンガポ－ル共和国０１８９７９、マリーナ・ワン・レジデンセス、＃１４－２２、２３マリーナ・ウエイ,,,,,,2024-01-11,1,,,,,ホンフエンインターナシヨナルシツプマネージメントプライベートリミテツド,0
2486,9010001241146,新規,0,2024-01-11,2024-01-11,ＪＮＦアセットマネジメント株式会社,,株式会社,東京都,千代田区,一番町６,,13,101,1020082,,,,,,,2024-01-11,1,,,,,ジェイエヌエフアセットマネジメント,0
2487,9010001241303,新規,0,2024-01-11,2024-01-11,秀和製薬株式会社,,株式会社,東京都,千代田区,九段南３丁目２番３号,,13,101,1020074,,,,,,,2024-01-11,1,,,,,シュウワセイヤク,0
2488,9010001241369,新規,0,2024-01-11,2024-01-11,ＹＮアセットマネジメント株式会社,,株式会社,東京都,文京区,千石３丁目１２番１３－１０１号,,13,105,1120011,,,,,,,2024-01-11,1,,,,,ワイエヌアセットマネジメント,0
2489,9010001241385,新規,0,2024-01-11,2024-01-11,ＦＵＴＵＲＥ　ＢＲＩＤＧＥ　ＪＡＰＡＮ株式会社,,株式会社,東京都,文京区,小石川５丁目３６番５号三共小石川ＴＨビルＢ１,,13,105,1120002,,,,,,,2024-01-11,1,,,,,フューチャーブリッジジャパン,0
2505,9010403031657,新規,0,2024-01-11,2024-01-11,合同会社コンコルディア,,合同会社,東京都,港区,白金３丁目１０―６―１４０１,,13,103,1080072,,,,,,,2024-01-11,1,,,,,コンコルディア,0
2506,9010403031731,新規,0,2024-01-11,2024-01-11,Ｔｈｅ・Ｕｎｉｏｎ合同会社,,合同会社,東京都,港区,南麻布３丁目５番１２号,,13,103,1060047,,,,,,,2024-01-11,1,,,,,ディユニオン,0
2512,9010601064450,新規,0,2024-01-11,2024-01-11,日本謙和信株式会社,,株式会社,東京都,墨田区,太平４丁目５番１２号ライトテラス錦糸町９０２号室,,13,107,1300012,,,,,,,2024-01-11,1,,,,,ニホンケンワシン,0
2516,9010701045326,新規,0,2024-01-11,2024-01-11,株式会社ハウスラトナー,,株式会社,東京都,品川区,東五反田１丁目１０番１０号,,13,109,1410022,,,,,,,2024-01-11,1,,,,,ハウスラトナー,0
2517,9010701045375,新規,0,2024-01-11,2024-01-11,子午線ＭＲＤ株式会社,,株式会社,東京都,品川区,西五反田３丁目３番２号プラウドタワー目黒ＭＡＲＣ１７０６号室,,13,109,1410031,,,,,,,2024-01-11,1,,,,,シゴセンエムアルディ,0
2518,9010701045391,新規,0,2024-01-11,2024-01-11,Ｇｒｅａｔ株式会社,,株式会社,東京都,品川区,東五反田２丁目５－２・３０６号室,,13,109,1410022,,,,,,,2024-01-11,1,,,,,グレート,0
2521,9010801034674,新規,0,2024-01-11,2024-01-11,株式会社ダクスコ,,株式会社,東京都,大田区,東蒲田１丁目１番１３号,,13,111,1440031,,,,,,,2024-01-11,1,,,,,ダクスコ,0
2525,9010901054498,新規,0,2024-01-11,2024-01-11,株式会社バナルシックビザール,,株式会社,東京都,世田谷区,代沢２丁目２９番９号,,13,112,1550032,,,,,,,2024-01-11,1,,,,,バナルシックビザール,0
2526,9010903008725,新規,0,2024-01-11,2024-01-11,ＳＯＴＥＮＫＥＮ合同会社,,合同会社,東京都,世田谷区,太子堂５丁目４番１４号,,13,112,1540004,,,,,,,2024-01-11,1,,,,,ソウテンケン,0
2533,9011001159279,新規,0,2024-01-11,2024-01-11,Ｅｉｎｐｅｒｉｅｎｃｅ株式会社,,株式会社,東京都,渋谷区,道玄坂１丁目１０番８号渋谷道玄坂東急ビル２Ｆ－Ｃ,,13,113,1500043,,,,,,,2024-01-11,1,,,,,アインペリエンス,0
2534,9011001159287,新規,0,2024-01-11,2024-01-11,サクフリ株式会社,,株式会社,東京都,渋谷区,道玄坂１丁目１０番８号渋谷道玄坂東急ビル２Ｆ－Ｃ,,13,113,1500043,,,,,,,2024-01-11,1,,,,,サクフリ,0
2536,9011201025157,新規,0,2024-01-11,2024-01-11,株式会社Ｎ‐ｐｏｉｎｔ,,株式会社,東京都,中野区,南台４丁目３番７－７０４号,,13,114,1640014,,,,,,,2024-01-11,1,,,,,エヌポイント,0
2540,9011501030187,新規,0,2024-01-11,2024-01-11,株式会社ｍａｒｐｈａ,,株式会社,東京都,北区,中里３丁目２２番３号長澤中里マンション５０１,,13,117,1140015,,,,,,,2024-01-11,1,,,,,マルファ,0
2541,9011603004188,新規,0,2024-01-11,2024-01-11,合同会社すずめ,,合同会社,東京都,練馬区,富士見台２丁目１８番１４号,,13,120,1770034,,,,,,,2024-01-11,1,,,,,スズメ,0
2542,9011603004196,新規,0,2024-01-11,2024-01-11,合同会社せたがや生活サポート,,合同会社,東京都,練馬区,貫井１丁目１０番１１号荒井ビル１０５号室,,13,120,1760021,,,,,,,2024-01-11,1,,,,,セタガヤセイカツサポート,0
2545,9012301013720,新規,0,2024-01-11,2024-01-11,株式会社ＫＡＮＯＡサポート,,株式会社,東京都,町田市,矢部町２７２７－１,,13,209,1940214,,,,,,,2024-01-11,1,,,,,,0
2550,9012701018030,新規,0,2024-01-11,2024-01-11,株式会社ｃｏｒｅ　ｑｕｅｒｙ,,株式会社,東京都,東村山市,秋津町３丁目２５番地２７ベルハイツ２０５,,13,213,1890001,,,,,,,2024-01-11,1,,,,,コアクエリ,0
2553,9013103001293,新規,0,2024-01-11,2024-01-11,合同会社エイタ国際企画,,合同会社,東京都,青梅市,日向和田２丁目９２８,,13,205,1980046,,,,,,,2024-01-11,1,,,,,エイタコクサイキカク,0
2556,9013301051891,新規,0,2024-01-11,2024-01-11,Ｍｅｎｔｉｏｎ株式会社,,株式会社,東京都,豊島区,東池袋１丁目３４番５号いちご東池袋ビル６階,,13,116,1700013,,,,,,,2024-01-11,1,,,,,メンション,0
2557,9013303006951,新規,0,2024-01-11,2024-01-11,合同会社ｑｕａｔｒｏｉｓ,,合同会社,東京都,豊島区,北大塚２丁目２９番１－３０１号,,13,116,1700004,,,,,,,2024-01-11,1,,,,,カトロワ,0
2564,9020001155238,新規,0,2024-01-11,2024-01-11,株式会社ガレージアルファ,,株式会社,神奈川県,横浜市港北区,新吉田町４３５６番地１,,14,109,2230056,,,,,,,2024-01-11,1,,,,,ガレージアルファ,0
2566,9020005016254,新規,0,2024-01-11,2024-01-11,弁護士法人横浜関内法律事務所,,その他の設立登記法人,神奈川県,横浜市中区,南仲通１丁目６番関内ＮＳビル２階,,14,104,2310006,,,,,,,2024-01-11,1,,,,,ヨコハマカンナイホウリツジムショ,0
2568,9021001081168,新規,0,2024-01-11,2024-01-11,株式会社ＡＴＴＲＡＣＴ,,株式会社,神奈川県,鎌倉市,小袋谷２丁目１６番３６号,,14,204,2470055,,,,,,,2024-01-11,1,,,,,アトラクト,0
2569,9021003014002,新規,0,2024-01-11,2024-01-11,ＧＯＬＤＥＮ　ＴＨＵＮＤＥＲ合同会社,,合同会社,神奈川県,藤沢市,藤沢５丁目２番１９号,,14,205,2510052,,,,,,,2024-01-11,1,,,,,ゴールデンサンダー,0
2579,9030001158025,新規,0,2024-01-11,2024-01-11,株式会社ＥＤＩＴ,,株式会社,埼玉県,川越市,末広町１丁目１番地２２アネックスヒルズ川越２０１,,11,201,3500064,,,,,,,2024-01-11,1,,,,,エディット,0
2580,9030001158058,新規,0,2024-01-11,2024-01-11,株式会社アップタクト,,株式会社,埼玉県,和光市,南１丁目３４番１ー６１５号,,11,229,3510104,,,,,,,2024-01-11,1,,,,,アップタクト,0
2581,9030001158082,新規,0,2024-01-11,2024-01-11,株式会社ＴＨＲＥＥ,,株式会社,埼玉県,さいたま市中央区,下落合３丁目１９番１２号,,11,105,3380002,,,,,,,2024-01-11,1,,,,,スリー,0
2582,9030001158090,新規,0,2024-01-11,2024-01-11,株式会社銀寿,,株式会社,埼玉県,草加市,柳島町１３９番地２７セゾンハイツ２０２号,,11,221,3400033,,,,,,,2024-01-11,1,,,,,ギンジュ,0
2583,9030001158099,新規,0,2024-01-11,2024-01-11,プレミール管理株式会社,,株式会社,埼玉県,和光市,下新倉５丁目７番３０号,,11,229,3510111,,,,,,,2024-01-11,1,,,,,プレミールカンリ,0
2589,9030003023350,新規,0,2024-01-11,2024-01-11,合同会社Ｎｅｉｇｅ,,合同会社,埼玉県,志木市,幸町４丁目１９番１５―１０１号,,11,228,3530005,,,,,,,2024-01-11,1,,,,,ネージュ,0
2590,9030003023359,新規,0,2024-01-11,2024-01-11,合同会社ｍｕｇｕｅｔ,,合同会社,埼玉県,さいたま市浦和区,北浦和３丁目１０番７号,,11,107,3300074,,,,,,,2024-01-11,1,,,,,ミュゲ,0
2596,9040001131583,新規,0,2024-01-11,2024-01-11,株式会社リインフォース,,株式会社,千葉県,習志野市,鷺沼台３丁目１２番１９号,,12,216,2750015,,,,,,,2024-01-11,1,,,,,リインフォース,0
2597,9040001131699,新規,0,2024-01-11,2024-01-11,ＮＯＤＫＡ　Ｐｒｏｊｅｃｔ株式会社,,株式会社,千葉県,市原市,青葉台３丁目７番地１５,,12,219,2990117,,,,,,,2024-01-11,1,,,,,ノドカプロジェクト,0
2607,9050001054057,新規,0,2024-01-11,2024-01-11,株式会社シーエンタープライス,,株式会社,茨城県,桜川市,真壁町羽鳥１１２５番地,,08,231,3004412,,,,,,,2024-01-11,1,,,,,シーエンタープライス,0
2608,9050001054081,新規,0,2024-01-11,2024-01-11,株式会社菊地川魚店,,株式会社,茨城県,土浦市,桜町２丁目１１番１号,,08,203,3000037,,,,,,,2024-01-11,1,,,,,キクチカワウオテン,0
2609,9050001054098,新規,0,2024-01-11,2024-01-11,株式会社あさひほうむ,,株式会社,茨城県,つくば市,榎戸６８１－５,,08,220,3050853,,,,,,,2024-01-11,1,,,,,,0
2612,9050003008060,新規,0,2024-01-11,2024-01-11,合同会社リライト,,合同会社,茨城県,那珂市,津田２４９６番地２２,,08,226,3110112,,,,,,,2024-01-11,1,,,,,リライト,0
2617,9060001036731,新規,0,2024-01-11,2024-01-11,株式会社ＡＬＦＡ,,株式会社,栃木県,宇都宮市,下川俣町２０９番地１５５,,09,201,3210972,,,,,,,2024-01-11,1,,,,,アルファ,0
2623,9070001041251,新規,0,2024-01-11,2024-01-11,株式会社ＡＧＭ,,株式会社,群馬県,前橋市,大渡町１丁目１番地５８,,10,201,3710854,,,,,,,2024-01-11,1,,,,,エージーエム,0
2642,9080403004929,新規,0,2024-01-11,2024-01-11,合同会社茶空民,,合同会社,静岡県,浜松市天竜区,春野町砂川１５１番地,,22,140,4370621,,,,,,,2024-01-11,1,,,,,チャクウミン,0
2653,9120001261174,新規,0,2024-01-11,2024-01-11,株式会社メガマステック,,株式会社,大阪府,大阪市北区,梅田１丁目２番地２号大阪駅前第２ビル１２－１２,,27,127,5300001,,,,,,,2024-01-11,1,,,,,メガマステック,0
2654,9120001261182,新規,0,2024-01-11,2024-01-11,株式会社ｍｉｒａｉ,,株式会社,大阪府,大阪市天王寺区,生玉町１番３０号,,27,109,5430071,,,,,,,2024-01-11,1,,,,,ミライ,0
2655,9120001261190,新規,0,2024-01-11,2024-01-11,株式会社Ｉ　ｓｅｅ,,株式会社,大阪府,大阪市中央区,谷町２丁目４番３号,,27,128,5400012,,,,,,,2024-01-11,1,,,,,アイシー,0
2656,9120001261331,新規,0,2024-01-11,2024-01-11,株式会社まったりと,,株式会社,大阪府,大阪市北区,大淀南１丁目９番１９－７０１号,,27,127,5310075,,,,,,,2024-01-11,1,,,,,マッタリト,0
2659,9120101068817,新規,0,2024-01-11,2024-01-11,株式会社Ｋ．Ｌｅａｄ,,株式会社,大阪府,堺市堺区,三宝町２丁１０５番地４（２０５号）,,27,141,5900906,,,,,,,2024-01-11,1,,,,,ケイリード,0
2665,9130001076101,新規,0,2024-01-11,2024-01-11,株式会社ＩＡＨ,,株式会社,京都府,舞鶴市,字伊佐津３５４番地４,,26,202,6240816,,,,,,,2024-01-11,1,,,,,アイエーエイチ,0
2666,9130001076126,新規,0,2024-01-11,2024-01-11,株式会社ＳＯＲＴＥ,,株式会社,京都府,京都市伏見区,羽束師志水町１２１－３,,26,109,6128485,,,,,,,2024-01-11,1,,,,,ソルテ,0
2667,9130001076134,新規,0,2024-01-11,2024-01-11,株式会社ＢＲＥＭＥＮＳ,,株式会社,京都府,京都市上京区,今出川通寺町東入上る三栄町５１番地,,26,102,6020826,,,,,,,2024-01-11,1,,,,,ブレーメンズ,0
2671,9140001132902,新規,0,2024-01-11,2024-01-11,株式会社すぎたに,,株式会社,兵庫県,尼崎市,西本町１丁目５６番地,,28,202,6600874,,,,,,,2024-01-11,1,,,,,スギタニ,0
2672,9140001132935,新規,0,2024-01-11,2024-01-11,株式会社Ｒｅｒｉｃ,,株式会社,兵庫県,神戸市兵庫区,西出町２丁目１２番４号,,28,105,6520822,,,,,,,2024-01-11,1,,,,,レリック,0
2674,9140005026893,新規,0,2024-01-11,2024-01-11,一般社団法人ラジョーネ流通研究所,,その他の設立登記法人,兵庫県,伊丹市,中野西２丁目１３１番地,,28,207,6640023,,,,,,,2024-01-11,1,,,,,ラジョーネリュウツウケンキュウショ,0
2675,9140005026902,新規,0,2024-01-11,2024-01-11,医療法人悠旺会,,その他の設立登記法人,兵庫県,川西市,火打１丁目２０番７－１号,,28,217,6660017,,,,,,,2024-01-11,1,,,,,ユウオウカイ,0
2686,9180001159693,新規,0,2024-01-11,2024-01-11,ＦｕｔｕｒｅＳｙｎｃ株式会社,,株式会社,愛知県,清須市,西田中白山５番地,,23,233,4520933,,,,,,,2024-01-11,1,,,,,フューチャーシンク,0
2689,9180003026207,新規,0,2024-01-11,2024-01-11,合同会社ハットトリック,,合同会社,愛知県,名古屋市中村区,竹橋町３３番１４号プラセシオン名古屋駅１００３号,,23,105,4530016,,,,,,,2024-01-11,1,,,,,ハットトリック,0
2693,9190002024706,新規,0,2024-01-11,2024-01-11,有限会社宮野組,,有限会社,三重県,鈴鹿市,長太旭町２丁目１２番３号,,24,207,5130042,,,,,,,2024-01-11,1,,,,,ミヤノグミ,0
2697,9200001042054,新規,0,2024-01-11,2024-01-11,株式会社Ｓｈｉｎ,,株式会社,岐阜県,中津川市,駒場１５２６番地,,21,206,5080011,,,,,,,2024-01-11,1,,,,,シン,0
2698,9200003006206,新規,0,2024-01-11,2024-01-11,合同会社ワイズ,,合同会社,岐阜県,岐阜市,加納愛宕町１８番地１号７１２,,21,201,5008476,,,,,,,2024-01-11,1,,,,,ワイズ,0
2700,9210001019596,新規,0,2024-01-11,2024-01-11,株式会社Ｃｌａｓｓｙ　Ｗｏｒｌｄ,,株式会社,福井県,敦賀市,呉竹町１丁目３９番１７号河村ビル１０１,,18,202,9140802,,,,,,,2024-01-11,1,,,,,クラッシーワールド,0
2704,9230001020172,新規,0,2024-01-11,2024-01-11,株式会社ミテナスパートナーズ,,株式会社,富山県,高岡市,新寺町１１番地,,16,202,9330862,,,,,,,2024-01-11,1,,,,,ミテナスパートナーズ,0
2706,9240001040013,新規,0,2024-01-11,2024-01-11,中川木材株式会社,,株式会社,広島県,三原市,古浜２丁目１１番１４号,,34,204,7230013,,,,,,,2024-01-11,1,,,,,ナカガワモクザイ,0
2710,9260001038625,新規,0,2024-01-11,2024-01-11,ＫＮＤホールディングス株式会社,,株式会社,岡山県,津山市,川崎１９０２番地３,,33,203,7080841,,,,,,,2024-01-11,1,,,,,ケーエヌディーホールディングス,0
2732,9290001104250,新規,0,2024-01-11,2024-01-11,株式会社Ｔ　Ｅｄｇｅ,,株式会社,福岡県,福岡市中央区,六本松４丁目２番６－１４１６号,,40,133,8100044,,,,,,,2024-01-11,1,,,,,ティーエッジ,0
2733,9290001104333,新規,0,2024-01-11,2024-01-11,Ｆｉｒｓｔ韓国語教室株式会社,,株式会社,福岡県,福岡市博多区,博多駅前３丁目２７番２５号第２岡部ビル８階,,40,132,8120011,,,,,,,2024-01-11,1,,,,,ファーストカンコクゴキョウシツ,0
2734,9290001104341,新規,0,2024-01-11,2024-01-11,株式会社ＡＫ,,株式会社,福岡県,福岡市城南区,樋井川４丁目９番４号,,40,136,8140153,,,,,,,2024-01-11,1,,,,,エーケー,0
2738,9290003014828,新規,0,2024-01-11,2024-01-11,合同会社アマランス・アソシエイツ,,合同会社,福岡県,福岡市中央区,赤坂３丁目４番２２－１１０８号,,40,133,8100042,,,,,,,2024-01-11,1,,,,,アマランスアソシエイツ,0
2739,9290003014852,新規,0,2024-01-11,2024-01-11,合同会社ＲＥＭＡＫＥ,,合同会社,福岡県,福岡市博多区,中洲１丁目５番２１号,,40,132,8100801,,,,,,,2024-01-11,1,,,,,リメイク,0
2741,9290801030200,新規,0,2024-01-11,2024-01-11,株式会社Ｕｐ　Ｌｉｆｅ,,株式会社,福岡県,行橋市,大字稲童２０９８番地１,,40,213,8240022,,,,,,,2024-01-11,1,,,,,アップライフ,0
2747,9330001031630,新規,0,2024-01-11,2024-01-11,株式会社ＡＢＡＮＫ　ＰＬＡＣＥ,,株式会社,熊本県,玉名市,築地９５５番地２８,,43,206,8650065,,,,,,,2024-01-11,1,,,,,アバンクプレース,0
2751,9360005006972,新規,0,2024-01-11,2024-01-11,エクシード税理士法人,,その他の設立登記法人,沖縄県,那覇市,首里石嶺町３丁目８３番地２パレスキャッスルＹＯＵ２－Ｂ,,47,201,9030804,,,,,,,2024-01-11,1,,,,,エクシード,0
2753,9370005010742,新規,0,2024-01-11,2024-01-11,アトム仙台法律事務所弁護士法人,,その他の設立登記法人,宮城県,仙台市青葉区,本町１丁目６番２３号,,04,101,9800014,,,,,,,2024-01-11,1,,,,,アトムセンダイホウリツジムショ,0
2754,9380001034232,新規,0,2024-01-11,2024-01-11,株式会社アカテラスコンサルティング,,株式会社,福島県,福島市,大森字日ノ下３９番地の３,,07,201,9601101,,,,,,,2024-01-11,1,,,,,アカテラスコンサルティング,0
2758,9380005012787,新規,0,2024-01-11,2024-01-11,一般社団法人百松,,その他の設立登記法人,福島県,耶麻郡西会津町,尾野本字中町丙７４２番地１,,07,405,9694402,,,,,,,2024-01-11,1,,,,,ヒャクショウ,0
2762,9400001016517,新規,0,2024-01-11,2024-01-11,株式会社三木造成,,株式会社,岩手県,奥州市,前沢古城字上ノ台１８番地５,,03,215,0294201,,,,,,,2024-01-11,1,,,,,ミキゾウセイ,0
2764,9400003003199,新規,0,2024-01-11,2024-01-11,合同会社Ｔ・Ｋロガー,,合同会社,岩手県,岩手郡雫石町,西根上篠崎７１番地１,,03,301,0200584,,,,,,,2024-01-11,1,,,,,ティーケーロガー,0
2770,9430001090807,新規,0,2024-01-11,2024-01-11,株式会社ＰＲＯＳＴ,,株式会社,北海道,札幌市中央区,南三条西３丁目１番地サンスリービル,,01,101,0600063,,,,,,,2024-01-11,1,,,,,プロースト,0
2771,9430001090815,新規,0,2024-01-11,2024-01-11,株式会社Ｔｏ‐ｋａｉ．,,株式会社,北海道,札幌市中央区,南一条西１丁目１３番地１マナー白鳥１００４号,,01,101,0600061,,,,,,,2024-01-11,1,,,,,トーカイ,0
2772,9430001090848,新規,0,2024-01-11,2024-01-11,株式会社ＳＷ　ｃｒｅｅｐｉｎｇ,,株式会社,北海道,苫小牧市,北星町２丁目１０番１８号,,01,213,0591277,,,,,,,2024-01-11,1,,,,,エスダブリュクリーピング,0
2777,9430003015828,新規,0,2024-01-11,2024-01-11,合同会社ｐｉｃｃｏｌｏ　ｐｅｓｃｅ,,合同会社,北海道,勇払郡厚真町,字共和４４２番地１７,,01,581,0591743,,,,,,,2024-01-11,1,,,,,ピッコロペッシェ,0
2780,9480001012351,新規,0,2024-01-11,2024-01-11,株式会社ｅｉｇｈｔ,,株式会社,徳島県,徳島市,川内町大松８７８番地４,,36,201,7710131,,,,,,,2024-01-11,1,,,,,エイト,0
2782,9500001025391,新規,0,2024-01-11,2024-01-11,株式会社Ｂ’ｒｉｓｅ,,株式会社,愛媛県,四国中央市,妻鳥町５４０番地１,,38,213,7990113,,,,,,,2024-01-11,1,,,,,ビライズ,0
2785,9700150123307,新規,0,2024-01-11,2024-01-11,宮若市山口土地改良区,,その他,福岡県,宮若市,宮田２９番地１,,40,226,8230011,,,,,,,2024-01-11,1,,,,,ミヤワカシヤマグチトチカイリヨウク,0
