sequenceNumber,corporateNumber,process,correct,updateDate,changeDate,name,nameImageId,kind,prefectureName,cityName,streetNumber,addressImageId,prefectureCode,cityCode,postCode,addressOutside,addressOutsideImageId,closeDate,closeCause,successorCorporateNumber,changeCause,assignmentDate,latest,enName,enPrefectureName,enCityName,enAddressOutside,furigana,hihyoji
10,1010401174952,新規,0,2023-06-20,2023-06-20,株式会社ＳＩＮＣＥ,,株式会社,東京都,港区,北青山１丁目３番１号アールキューブ青山３Ｆ,,13,103,1070061,,,,,,,2023-06-20,1,,,,,シンス,0
11,1010401175141,新規,0,2023-06-20,2023-06-20,株式会社プロダクツ,,株式会社,東京都,港区,南青山４丁目１７番３３号,,13,103,1070062,,,,,,,2023-06-20,1,,,,,プロダクツ,0
17,1010603010204,新規,0,2023-06-20,2023-06-20,合同会社Ｓｕｍｍａｒｙ,,合同会社,東京都,江東区,豊洲５丁目１番１３－３６２３号,,13,108,1350061,,,,,,,2023-06-20,1,,,,,サマリー,0
18,1010701044418,新規,0,2023-06-20,2023-06-20,株式会社ｏｔｎ,,株式会社,東京都,品川区,上大崎２丁目６番４号ＨＩＬＬＳＩＤＥ白金長者丸Ｃ号室,,13,109,1410021,,,,,,,2023-06-20,1,,,,,オーティーエヌ,0
19,1010701044426,新規,0,2023-06-20,2023-06-20,Ｌｉｂｏｎ株式会社,,株式会社,東京都,品川区,東五反田４丁目４番４号,,13,109,1410022,,,,,,,2023-06-20,1,,,,,リボン,0
20,1010701044434,新規,0,2023-06-20,2023-06-20,株式会社エンゼルス,,株式会社,東京都,品川区,上大崎３丁目５番１１号ＭＥＧＵＲＯＶＩＬＬＡＧＡＲＤＥＮ４Ｆ,,13,109,1410021,,,,,,,2023-06-20,1,,,,,エンゼルス,0
22,1010801034070,新規,0,2023-06-20,2023-06-20,株式会社立王,,株式会社,東京都,大田区,田園調布１丁目５２番１２号ＧｒａｎＤｕｏＤｅｎｅｎｃｈｏｆｕＩＩＩ２０１,00130920,13,111,1450071,,,,,,,2023-06-20,1,,,,,リツオウ,0
33,1011001155095,新規,0,2023-06-20,2023-06-20,株式会社ＴＯＷＥＲ５,,株式会社,東京都,渋谷区,恵比寿１丁目１５番９号日宝恵比寿ビル４０３,,13,113,1500013,,,,,,,2023-06-20,1,,,,,タワーファイブ,0
34,1011001155145,新規,0,2023-06-20,2023-06-20,東京ライブラリー株式会社,,株式会社,東京都,渋谷区,恵比寿南２丁目３０番１－１０４号,,13,113,1500022,,,,,,,2023-06-20,1,,,,,トウキョウライブラリー,0
35,1011001155161,新規,0,2023-06-20,2023-06-20,株式会社ＡＤＤＩＣＴ　ＯＮＥ,,株式会社,東京都,渋谷区,渋谷３丁目１番９号ＹＡＺＡＷＡビル３階,,13,113,1500002,,,,,,,2023-06-20,1,,,,,アディクトワン,0
39,1011003016989,新規,0,2023-06-20,2023-06-20,合同会社ＨＵＮＤＲＥＤ,,合同会社,東京都,渋谷区,道玄坂１丁目１０番８号渋谷道玄坂東急ビル２Ｆ－Ｃ,,13,113,1500043,,,,,,,2023-06-20,1,,,,,ハンドレッド,0
42,1011103013176,新規,0,2023-06-20,2023-06-20,合同会社ＭＡＹ企画,,合同会社,東京都,新宿区,西落合４丁目１０番２０号,,13,104,1610031,,,,,,,2023-06-20,1,,,,,メイキカク,0
60,1020001152135,新規,0,2023-06-20,2023-06-20,株式会社クリディア,,株式会社,神奈川県,横浜市鶴見区,市場下町９番１１号コーポ中山３０１号,,14,101,2300024,,,,,,,2023-06-20,1,,,,,クリディア,0
61,1020001152151,新規,0,2023-06-20,2023-06-20,株式会社シュウゼンｐｌｕｓ,,株式会社,神奈川県,横浜市泉区,新橋町１４５６番地９,,14,116,2450009,,,,,,,2023-06-20,1,,,,,シュウゼンプラス,0
62,1020003024092,新規,0,2023-06-20,2023-06-20,合同会社Ｌ＆Ｍテンマヤワークス,,合同会社,神奈川県,横浜市戸塚区,下倉田町１１３５番地２号,,14,110,2440815,,,,,,,2023-06-20,1,,,,,エルアンドエムテンマヤワークス,0
64,1020005016039,新規,0,2023-06-20,2023-06-20,一般社団法人外壁塗装保証協会,,その他の設立登記法人,神奈川県,横浜市港北区,小机町１８９０,,14,109,2220036,,,,,,,2023-06-20,1,,,,,ガイヘキトソウホショウキョウカイ,0
77,1021003013234,新規,0,2023-06-20,2023-06-20,Ｍａｒｙｇｏｌｄ合同会社,,合同会社,神奈川県,横須賀市,追浜東町２丁目３－１ザ・パークハウス追浜Ｄ－５２５,,14,201,2370063,,,,,,,2023-06-20,1,,,,,マリーゴールド,0
78,1021005012845,新規,0,2023-06-20,2023-06-20,ＮＰＯ法人秦野本町ＳＳ,,その他の設立登記法人,神奈川県,秦野市,今泉８４番地の１５,,14,211,2570014,,,,,,,2023-06-20,1,,,,,ハダノホンチョウエスエス,0
81,1030001154502,新規,0,2023-06-20,2023-06-20,Ａ‐ＦｉｖｅＳｔａｒｋｅ株式会社,,株式会社,埼玉県,所沢市,大字上安松１０８７番地の８,,11,208,3590025,,,,,,,2023-06-20,1,,,,,エーファイブシュタルケ,0
84,1030003022013,新規,0,2023-06-20,2023-06-20,セラ・イマージュ合同会社,,合同会社,埼玉県,川口市,並木２丁目３６番１５号,,11,203,3320034,,,,,,,2023-06-20,1,,,,,セライマージュ,0
91,1040001128926,新規,0,2023-06-20,2023-06-20,京潤株式会社,,株式会社,千葉県,船橋市,坪井西２丁目５番３号,,12,204,2740069,,,,,,,2023-06-20,1,,,,,キョウジュン,0
97,1040003022821,新規,0,2023-06-20,2023-06-20,愛心クリーン合同会社,,合同会社,千葉県,野田市,山崎２６４９－１ビレッジハウス山崎２－４０４,,12,208,2780022,,,,,,,2023-06-20,1,,,,,アイシンクリーン,0
100,1050001053009,新規,0,2023-06-20,2023-06-20,ＮＮＫ　ＡＵＴＯ株式会社,,株式会社,茨城県,土浦市,永井１８８０番地,,08,203,3004101,,,,,,,2023-06-20,1,,,,,エヌエヌケーオート,0
111,1090001018180,新規,0,2023-06-20,2023-06-20,Ｚ．Ｅ．Ｎ株式会社,,株式会社,山梨県,甲府市,和戸町１０８番地１,,19,201,4000812,,,,,,,2023-06-20,1,,,,,ゼン,0
113,1110001037624,新規,0,2023-06-20,2023-06-20,株式会社ＦｉｅｌｄＷｏｒｋｓ,,株式会社,新潟県,長岡市,深沢町２０８５－１６ながおか新産業創造センタールーム８,,15,202,9402135,,,,,,,2023-06-20,1,,,,,フィールドワークス,0
114,1110001037632,新規,0,2023-06-20,2023-06-20,株式会社ＳＯＨＡＩＬ　ＴＲＡＤＩＮＧ　ＣＯＭＰＡＮＹ,,株式会社,新潟県,北蒲原郡聖籠町,東港７丁目８６１番地２,,15,307,9570101,,,,,,,2023-06-20,1,,,,,ソハイルトレーディングカンパニー,0
130,1120001255828,新規,0,2023-06-20,2023-06-20,株式会社アクアベラソリューションズ,,株式会社,大阪府,大阪市中央区,西心斎橋１丁目４番５号,,27,128,5420086,,,,,,,2023-06-20,1,,,,,アクアベラソリューションズ,0
131,1120001255869,新規,0,2023-06-20,2023-06-20,株式会社ＰＯＺＭＡＮ,,株式会社,大阪府,大阪市北区,大淀南２丁目２－９－１００５,,27,127,5310075,,,,,,,2023-06-20,1,,,,,ポズマン,0
132,1120001255877,新規,0,2023-06-20,2023-06-20,株式会社ＩＤ　ＣＯＳＭＥ,,株式会社,大阪府,大阪市港区,弁天１丁目６番５号,,27,107,5520007,,,,,,,2023-06-20,1,,,,,アイディーコスメ,0
137,1120003024339,新規,0,2023-06-20,2023-06-20,ＮＥＶＥＲ　ＭＩＮＤ　ＷＯＲＫＳ合同会社,,合同会社,大阪府,大阪市北区,梅田１丁目１－３大阪駅前第３ビル２３０７,,27,127,5300001,,,,,,,2023-06-20,1,,,,,ネバーマインドワークス,0
138,1120005023693,新規,0,2023-06-20,2023-06-20,社会保険労務士法人ＭＩＲＡＩ,,その他の設立登記法人,大阪府,大阪市中央区,大手前１丁目７番３１号ＯＭＭ１階ＳｅｒｖｉｃｅＯｆｆｉｃｅＷ天満橋,,27,128,5400008,,,,,,,2023-06-20,1,,,,,ミライ,0
142,1120101067768,新規,0,2023-06-20,2023-06-20,株式会社ｆｅｌｉｚ,,株式会社,大阪府,泉南郡田尻町,吉見３６９番地３,,27,362,5980092,,,,,,,2023-06-20,1,,,,,フェリス,0
146,1120905006475,新規,0,2023-06-20,2023-06-20,一般社団法人愛護陽之縁,,その他の設立登記法人,大阪府,池田市,住吉１丁目４－３－１０１,,27,204,5630033,,,,,,,2023-06-20,1,,,,,アイゴヨウノエン,0
150,1130003008803,新規,0,2023-06-20,2023-06-20,合同会社ｎｅｋｏｔｈｅｔａ,,合同会社,京都府,宇治市,明星町３丁目６番地の１３１,,26,204,6110014,,,,,,,2023-06-20,1,,,,,ネコシータ,0
168,1180001156698,新規,0,2023-06-20,2023-06-20,株式会社ＹＴＥＡＭ,,株式会社,愛知県,名古屋市守山区,廿軒家３０番８号,,23,113,4630065,,,,,,,2023-06-20,1,,,,,ワイチーム,0
169,1180001156806,新規,0,2023-06-20,2023-06-20,株式会社Ｌｉｖｅ　Ａｎｄ　Ｌｉｆｅ,,株式会社,愛知県,名古屋市東区,代官町３番１２号,,23,102,4610002,,,,,,,2023-06-20,1,,,,,リブアンドライフ,0
172,1180301037482,新規,0,2023-06-20,2023-06-20,株式会社岩田塗装,,株式会社,愛知県,豊田市,東広瀬町城下９番地１,,23,211,4700307,,,,,,,2023-06-20,1,,,,,イワタトソウ,0
177,1200005013496,新規,0,2023-06-20,2023-06-20,一般社団法人可茂地区社会福祉協力会,,その他の設立登記法人,岐阜県,美濃加茂市,太田町２５７４番地２,,21,211,5050041,,,,,,,2023-06-20,1,,,,,カモチクシャカイフクシキョウリョクカイ,0
178,1230001019890,新規,0,2023-06-20,2023-06-20,株式会社羽玖,,株式会社,富山県,高岡市,中曽根１２番地４,,16,202,9340092,,,,,,,2023-06-20,1,,,,,ワク,0
179,1240001061677,新規,0,2023-06-20,2023-06-20,華龍商事株式会社,,株式会社,広島県,東広島市,高屋町杵原２６番地１,,34,212,7392102,,,,,,,2023-06-20,1,,,,,カリュウショウジ,0
180,1240001061702,新規,0,2023-06-20,2023-06-20,株式会社ＣＲＹＰＴＯ　ＢＵＴＴＥＲ,,株式会社,広島県,広島市西区,三滝本町２丁目９番２３－３０１号,,34,104,7330802,,,,,,,2023-06-20,1,,,,,クリプトバター,0
186,1260001038046,新規,0,2023-06-20,2023-06-20,暁サービス株式会社,,株式会社,岡山県,岡山市南区,万倍２３番地３６,,33,104,7000955,,,,,,,2023-06-20,1,,,,,アカツキサービス,0
193,1290001101981,新規,0,2023-06-20,2023-06-20,株式会社ＢＥＹＯＮＤ,,株式会社,福岡県,福岡市中央区,大手門３丁目４番５号,,40,133,8100074,,,,,,,2023-06-20,1,,,,,ビヨンド,0
194,1290001102006,新規,0,2023-06-20,2023-06-20,株式会社ＦｉｎｅＬｉｇ,,株式会社,福岡県,福岡市東区,松田３丁目１８番１９－１０２号,,40,131,8120064,,,,,,,2023-06-20,1,,,,,ファインリグ,0
195,1290001102014,新規,0,2023-06-20,2023-06-20,株式会社エコクリーンハウス,,株式会社,福岡県,糟屋郡須惠町,大字旅石６８番地２７３,,40,344,8112221,,,,,,,2023-06-20,1,,,,,エコクリーンハウス,0
197,1290003014042,新規,0,2023-06-20,2023-06-20,ドラゴンキッズ合同会社,,合同会社,福岡県,福岡市西区,小戸３丁目５０番１－８０９号ホワイトパレス姪浜,,40,135,8190001,,,,,,,2023-06-20,1,,,,,ドラゴンキッズ,0
211,1330001030978,新規,0,2023-06-20,2023-06-20,株式会社シマダ,,株式会社,熊本県,熊本市南区,江越１丁目２番２１号,,43,104,8600834,,,,,,,2023-06-20,1,,,,,シマダ,0
217,1340005009621,新規,0,2023-06-20,2023-06-20,一般社団法人アールイー,,その他の設立登記法人,鹿児島県,鹿児島市,鴨池１丁目４２番２２号,,46,201,8900063,,,,,,,2023-06-20,1,,,,,アールイー,0
219,1350003004383,新規,0,2023-06-20,2023-06-20,合同会社ｃｏｎｆｉｄｏ,,合同会社,宮崎県,都城市,鷹尾２丁目１５街区１８号,,45,202,8850081,,,,,,,2023-06-20,1,,,,,コンフィード,0
225,1380001033794,新規,0,2023-06-20,2023-06-20,株式会社いわきシンクウ,,株式会社,福島県,いわき市,好間町榊小屋字生木葉４番４,00130917,07,204,9701146,,,,,,,2023-06-20,1,,,,,イワキシンクウ,0
234,1420001018312,新規,0,2023-06-20,2023-06-20,インフィールドシステム株式会社,,株式会社,青森県,青森市,大字新城字山田６６６番地２１１,,02,201,0380042,,,,,,,2023-06-20,1,,,,,インフィールドシステム,0
243,1500001025011,新規,0,2023-06-20,2023-06-20,桃花不動産株式会社,,株式会社,愛媛県,松山市,和泉北１丁目１６番１０号,,38,201,7900038,,,,,,,2023-06-20,1,,,,,トウカフドウサン,0
248,1700150117588,新規,0,2023-06-20,2023-06-20,Ｘｉｎｇｔａｉ　Ｈａｎｔｕ　Ｔｒａｄｅ　Ｃｏ．，Ｌｔｄ．,,外国会社等,,,,,,,,８１５　Ａ，Ｆｉｎａｎｃｉａｌ　Ｂｕｉｌｄｉｎｇ，Ｓｏｎｇｊｉｎｇ　Ｓｔｒｅｅｔ，Ｎａｎｈｅ　Ｄｉｓｔｒｉｃｔ，Ｘｉｎｇｔａｉ，Ｈｅｂｅｉ,,,,,,2023-06-20,1,,,,,シンタイシーハントウーマオイーヨウシエンゾーレンゴンスー,0
264,2010003040908,新規,0,2023-06-20,2023-06-20,Ａ４ＪＰ　Ｏｃｔｏｂａｌｌ合同会社,,合同会社,東京都,中央区,日本橋３丁目９番１号日本橋三丁目スクエア１１階,,13,102,1030027,,,,,,,2023-06-20,1,,,,,エーフォージェイピーオクトボール,0
268,2010501050607,新規,0,2023-06-20,2023-06-20,盛青医薬株式会社,,株式会社,東京都,台東区,下谷１丁目１１番５－８０３号,,13,106,1100004,,,,,,,2023-06-20,1,,,,,セイショウイヤク,0
272,2010601063293,新規,0,2023-06-20,2023-06-20,ＬｅａｄｉｎｇＶｉｓｉｏｎ株式会社,,株式会社,東京都,墨田区,江東橋４丁目２７番１４号楽天地ビル３Ｆ,,13,107,1300022,,,,,,,2023-06-20,1,,,,,リーディングビジョン,0
275,2010701044409,新規,0,2023-06-20,2023-06-20,株式会社モバイルエージェンシー,,株式会社,東京都,品川区,大井２丁目３番１２号,,13,109,1400014,,,,,,,2023-06-20,1,,,,,モバイルエージェンシー,0
276,2010701044425,新規,0,2023-06-20,2023-06-20,株式会社ビヌスタ,,株式会社,東京都,品川区,上大崎３丁目２番１号目黒センタービル８階,,13,109,1410021,,,,,,,2023-06-20,1,,,,,ビヌスタ,0
277,2010701044433,新規,0,2023-06-20,2023-06-20,株式会社ｄｅｎｄｒｉｔｅ,,株式会社,東京都,品川区,中延４丁目４番３号メゾンエスト３０３,,13,109,1420053,,,,,,,2023-06-20,1,,,,,デンドライト,0
282,2010903008244,新規,0,2023-06-20,2023-06-20,合同会社クローネ,,合同会社,東京都,世田谷区,鎌田１丁目３番２号玉川ハウス１０２,,13,112,1570077,,,,,,,2023-06-20,1,,,,,クローネ,0
289,2011001155160,新規,0,2023-06-20,2023-06-20,株式会社ＴＣＧ,,株式会社,東京都,目黒区,駒場１丁目４－４アジールコフレ渋谷神泉２０２号,,13,110,1530041,,,,,,,2023-06-20,1,,,,,ティーシージー,0
291,2011103013175,新規,0,2023-06-20,2023-06-20,合同会社ザ・インタラクション,,合同会社,東京都,新宿区,西新宿３丁目３番１３号西新宿水間ビル６階,,13,104,1600023,,,,,,,2023-06-20,1,,,,,ザインタラクション,0
293,2011105010690,新規,0,2023-06-20,2023-06-20,労働者協同組合創造集団４４０Ｈｚ,,その他の設立登記法人,東京都,新宿区,新宿１丁目３６－２新宿第七葉山ビル３Ｆ,,13,104,1600022,,,,,,,2023-06-20,1,,,,,ソウゾウシュウダンヨンヒャクヨンジュウヘルツ,0
301,2011401025211,新規,0,2023-06-20,2023-06-20,株式会社三成舎,,株式会社,東京都,板橋区,宮本町６２番４号リーゼ板橋本町４０３,,13,119,1740054,,,,,,,2023-06-20,1,,,,,サンセイシャ,0
302,2011601026901,新規,0,2023-06-20,2023-06-20,株式会社住光企画,,株式会社,東京都,練馬区,土支田１丁目１１番５号,,13,120,1790076,,,,,,,2023-06-20,1,,,,,ジュウコウキカク,0
303,2011701026347,新規,0,2023-06-20,2023-06-20,Ｎ．Ａ．Ａ株式会社,,株式会社,東京都,江戸川区,鹿骨１丁目２０番９号ラ・マドレＶＩＩ２０２,00130924,13,123,1330073,,,,,,,2023-06-20,1,,,,,エヌエーエー,0
323,2020001152150,新規,0,2023-06-20,2023-06-20,株式会社シンサービス,,株式会社,神奈川県,横浜市旭区,南本宿町９３番地６０ドルチェ壱番館１０２,,14,112,2410833,,,,,,,2023-06-20,1,,,,,シンサービス,0
324,2020001152159,新規,0,2023-06-20,2023-06-20,ＪＫＦＯＯＤＳ株式会社,,株式会社,神奈川県,横浜市中区,新山下２丁目１１番２７－７０１号,,14,104,2310801,,,,,,,2023-06-20,1,,,,,ジェイケイフーズ,0
333,2021003013233,新規,0,2023-06-20,2023-06-20,ＯＬＥＡ　ＰＥＡＣＥ合同会社,,合同会社,神奈川県,相模原市南区,当麻２５９３番地１,,14,153,2520336,,,,,,,2023-06-20,1,,,,,オレアピース,0
334,2021005012844,新規,0,2023-06-20,2023-06-20,特定非営利活動法人芦ノ湖発淡水の釣りの未来を考える会,,その他の設立登記法人,神奈川県,足柄下郡箱根町,箱根６１番地,,14,382,2500521,,,,,,,2023-06-20,1,,,,,アシノコハツタンスイノツリノミライヲカンガエルカイ,0
345,2030003021988,新規,0,2023-06-20,2023-06-20,ＭＪ商事合同会社,,合同会社,埼玉県,熊谷市,三ヶ尻３７２７大塚倉庫８－１Ｆ,,11,202,3600843,,,,,,,2023-06-20,1,,,,,エムジェーショウジ,0
347,2030005021318,新規,0,2023-06-20,2023-06-20,一般社団法人メディア人フォーラム,,その他の設立登記法人,埼玉県,川越市,連雀町１３番地４小島家店蔵内,,11,201,3500066,,,,,,,2023-06-20,1,,,,,メディアジンフォーラム,0
354,2040001128925,新規,0,2023-06-20,2023-06-20,株式会社ＡＬＰＨＡ　ＴＲＡＤＩＮＧ,,株式会社,千葉県,佐倉市,大崎台２丁目８－７－１０２,,12,212,2850817,,,,,,,2023-06-20,1,,,,,アルファトレーディング,0
358,2040003022820,新規,0,2023-06-20,2023-06-20,ＪＡＣＱＵＥｓ　Ｊａｐａｎ合同会社,,合同会社,千葉県,袖ケ浦市,横田３３－１トモネビル２０２,,12,229,2990236,,,,,,,2023-06-20,1,,,,,ジャックジャパン,0
359,2040005022042,新規,0,2023-06-20,2023-06-20,税理士法人フォワード会計,,その他の設立登記法人,千葉県,松戸市,松戸１８７９番地の１松戸商工会館３階,,12,207,2710092,,,,,,,2023-06-20,1,,,,,フォワードカイケイ,0
360,2050001053008,新規,0,2023-06-20,2023-06-20,東拓不動産株式会社,,株式会社,茨城県,古河市,旭町１丁目４番５号,,08,204,3060012,,,,,,,2023-06-20,1,,,,,トウタクフドウサン,0
373,2070001040549,新規,0,2023-06-20,2023-06-20,ＪＨＣ株式会社,,株式会社,群馬県,太田市,西新町９３番地４,,10,205,3730847,,,,,,,2023-06-20,1,,,,,ジェイエイチシー,0
382,2080401026551,新規,0,2023-06-20,2023-06-20,株式会社ＩＫＭｏｂｉｌｉｔｙ,,株式会社,静岡県,浜松市東区,大島町３８０－２,,22,132,4313112,,,,,,,2023-06-20,1,,,,,アイケイモビリティ,0
388,2100003007063,新規,0,2023-06-20,2023-06-20,合同会社ＡＺＵＭＩＮＯＴＥＲＲＡＣＥ,,合同会社,長野県,北安曇郡白馬村,大字北城４５９７番地２,,20,485,3999301,,,,,,,2023-06-20,1,,,,,アヅミノテラス,0
391,2110001037631,新規,0,2023-06-20,2023-06-20,株式会社つなぐ,,株式会社,新潟県,燕市,水道町２丁目３番１５号,,15,213,9591262,,,,,,,2023-06-20,1,,,,,ツナグ,0
398,2120001255752,新規,0,2023-06-20,2023-06-20,株式会社Ｔａｍ３,,株式会社,大阪府,大阪市中央区,北久宝寺町２丁目２番１３号マエダビル５Ｆ、５０５号,,27,128,5410057,,,,,,,2023-06-20,1,,,,,タムスリー,0
399,2120001255793,新規,0,2023-06-20,2023-06-20,株式会社ＪＳ,,株式会社,大阪府,大阪市中央区,本町４丁目５番３号,,27,128,5410053,,,,,,,2023-06-20,1,,,,,ジェイエス,0
400,2120001255827,新規,0,2023-06-20,2023-06-20,株式会社ＭＩＰ,,株式会社,大阪府,大阪市城東区,成育３丁目９番１２－１３０１号,,27,118,5360007,,,,,,,2023-06-20,1,,,,,エムアイピー,0
401,2120001255876,新規,0,2023-06-20,2023-06-20,株式会社ＦＵＫＵＺＥＮ,,株式会社,大阪府,枚方市,香里ケ丘１丁目９番地の５（２０６）,,27,210,5730084,,,,,,,2023-06-20,1,,,,,フクゼン,0
406,2120003024338,新規,0,2023-06-20,2023-06-20,合同会社ＴＭサポート,,合同会社,大阪府,枚方市,宮之阪１丁目２３‐１４‐１２０５,,27,210,5730022,,,,,,,2023-06-20,1,,,,,ティーエムサポート,0
411,2120901047687,新規,0,2023-06-20,2023-06-20,株式会社キム,,株式会社,大阪府,摂津市,千里丘新町５番２２－１２０４号,,27,224,5660002,,,,,,,2023-06-20,1,,,,,キム,0
413,2122001037098,新規,0,2023-06-20,2023-06-20,エムズクリエイション株式会社,,株式会社,大阪府,東大阪市,水走３丁目３番４０号フレスデザイン第３ビル１Ｆ,,27,227,5780921,,,,,,,2023-06-20,1,,,,,エムズクリエイション,0
419,2130001074573,新規,0,2023-06-20,2023-06-20,株式会社京都ＷＯＲＫＳ　ＬＡＢ,,株式会社,京都府,京都市下京区,松原通烏丸西入玉津島町２９４番地コモンルーム四条烏丸４１５,,26,106,6008427,,,,,,,2023-06-20,1,,,,,キョウトワークスラボ,0
423,2140001130474,新規,0,2023-06-20,2023-06-20,株式会社Ｒｅｄ　Ｔａｂｂｙ,,株式会社,兵庫県,西宮市,甲子園口北町１７－１９ヴィラージュＭ１０３,,28,204,6638112,,,,,,,2023-06-20,1,,,,,レッドタビー,0
427,2140003019220,新規,0,2023-06-20,2023-06-20,合同会社エピキュリアン,,合同会社,兵庫県,加古川市,野口町野口１２９番地の４６東加古川ハイタウンＣ－１０１８,,28,210,6750012,,,,,,,2023-06-20,1,,,,,エピキュリアン,0
433,2180001156788,新規,0,2023-06-20,2023-06-20,株式会社リサエネ,,株式会社,愛知県,名古屋市中区,新栄１丁目６番２０号ＯＪビル４Ｂ,,23,106,4600007,,,,,,,2023-06-20,1,,,,,リサエネ,0
434,2180001156805,新規,0,2023-06-20,2023-06-20,雅インターナショナル株式会社,,株式会社,愛知県,名古屋市守山区,川宮町３９０－２アプトエーデルワイスＢ,,23,113,4630081,,,,,,,2023-06-20,1,,,,,ミヤビインターナショナル,0
447,2190005011831,新規,0,2023-06-20,2023-06-20,一般社団法人三重県司法福祉事業者連絡協議会,,その他の設立登記法人,三重県,鈴鹿市,江島本町１８番３３号,,24,207,5100234,,,,,,,2023-06-20,1,,,,,ミエケンシホウフクシジギョウシャレンラクキョウギカイ,0
452,2220001025468,新規,0,2023-06-20,2023-06-20,株式会社幸伸,,株式会社,石川県,金沢市,松島２丁目６３番地,,17,201,9200364,,,,,,,2023-06-20,1,,,,,コウシン,0
460,2290001101964,新規,0,2023-06-20,2023-06-20,株式会社ポトフォリ,,株式会社,福岡県,大牟田市,天領町１丁目２２９番地１４,,40,202,8360054,,,,,,,2023-06-20,1,,,,,ポトフォリ,0
461,2290001102005,新規,0,2023-06-20,2023-06-20,株式会社松田屋,,株式会社,福岡県,福岡市博多区,上川端町１０番２６１号,,40,132,8120026,,,,,,,2023-06-20,1,,,,,マツダヤ,0
469,2290003014033,新規,0,2023-06-20,2023-06-20,合同会社ＨＲＫ,,合同会社,福岡県,福岡市中央区,薬院３丁目１２番２２－１００１号,,40,133,8100022,,,,,,,2023-06-20,1,,,,,エイチアールケイ,0
477,2330001030977,新規,0,2023-06-20,2023-06-20,上海トーカ商事株式会社,,株式会社,熊本県,熊本市中央区,紺屋今町３番８号フォーエス紺屋今町１００２,,43,101,8600012,,,,,,,2023-06-20,1,,,,,シャンハイトーカショウジ,0
479,2330003009887,新規,0,2023-06-20,2023-06-20,合同会社Ｔ‐ＡＭＢＩＴＩＯＮ,,合同会社,熊本県,熊本市西区,城山下代１丁目１１番２４号,,43,103,8600066,,,,,,,2023-06-20,1,,,,,ティーアンビション,0
481,2340005009620,新規,0,2023-06-20,2023-06-20,一般社団法人ＬＵＣＥ,,その他の設立登記法人,鹿児島県,鹿児島市,小松原２丁目２０番２号,,46,201,8910114,,,,,,,2023-06-20,1,,,,,ルーチェ,0
482,2350001018418,新規,0,2023-06-20,2023-06-20,株式会社飯干内装,,株式会社,宮崎県,都城市,乙房町４１９番地３,,45,202,8850112,,,,,,,2023-06-20,1,,,,,イイボシナイソウ,0
487,2360003013085,新規,0,2023-06-20,2023-06-20,合同会社いちえみ,,合同会社,沖縄県,浦添市,屋富祖４丁目４番２３－２号,,47,208,9012127,,,,,,,2023-06-20,1,,,,,イチエミ,0
503,2430001089351,新規,0,2023-06-20,2023-06-20,株式会社ＵＫ,,株式会社,北海道,札幌市中央区,北三条東１０丁目１２１番地プレミストタワーズ札幌苗穂ブライトゲートＢ２２１１号,,01,101,0600033,,,,,,,2023-06-20,1,,,,,ユウケイ,0
514,2500001025010,新規,0,2023-06-20,2023-06-20,愛媛カーゴリンク株式会社,,株式会社,愛媛県,新居浜市,寿町１２番５４号１階,,38,205,7920822,,,,,,,2023-06-20,1,,,,,エヒメカーゴリンク,0
517,2700150117579,新規,0,2023-06-20,2023-06-20,ｌｏｎｇｙａｎｓｈｉｙｉｑｉａｎｍａｏｙｉｙｏｕｘｉａｎｇｏｎｇｓｉ,,外国会社等,,,,,,,,Ｒｏｏｍ　９１５，Ｂｕｉｌｄｉｎｇ　Ｊ，Ｎｏ．５３，Ｈｕａｌｉａｎ　Ｒｏａｄ，Ｈｕａｌｉａｎ　Ｃｏｍｍｕｎｉｔｙ，Ｘｉｐｉ　Ｓｔｒｅｅｔ，Ｘｉｎｌｕｏ　Ｄｉｓｔｒｉｃｔ，Ｌｏｎｇｙａｎ　Ｃｉｔｙ，Ｆｕｊｉａｎ　Ｐｒｏｖｉｎｃｅ,,,,,,2023-06-20,1,,,,,ロンイエンシーイーチエンマオイーヨウシエンゴンスー,0
522,3010001236218,新規,0,2023-06-20,2023-06-20,株式会社フォーリーフ,,株式会社,東京都,千代田区,外神田２丁目２番１７号,,13,101,1010021,,,,,,,2023-06-20,1,,,,,フォーリーフ,0
523,3010001236242,新規,0,2023-06-20,2023-06-20,Ｓｏｌｏｍｏｎ　Ｔｅｃｈｎｏｌｏｇｙ日本株式会社,,株式会社,東京都,千代田区,神田紺屋町８番地,,13,101,1010035,,,,,,,2023-06-20,1,,,,,ソロモンテクノロジーニホン,0
525,3010005036804,新規,0,2023-06-20,2023-06-20,一般社団法人国際長寿臨床医学会,,その他の設立登記法人,東京都,千代田区,丸の内２丁目３番２号郵船ビルディング１階,,13,101,1000005,,,,,,,2023-06-20,1,,,,,コクサイチョウジュリンショウイガクカイ,0
526,3010103002162,新規,0,2023-06-20,2023-06-20,合同会社０４２６,,合同会社,東京都,八王子市,平町２５８－４,,13,201,1920022,,,,,,,2023-06-20,1,,,,,ゼロヨンニロク,0
531,3010403030326,新規,0,2023-06-20,2023-06-20,ＳＴＯＲＭ　ＴＩＭＥ合同会社,,合同会社,東京都,港区,六本木４丁目９－２俳優座ビル８０４号室,,13,103,1060032,,,,,,,2023-06-20,1,,,,,ストームタイム,0
533,3010501050614,新規,0,2023-06-20,2023-06-20,礼賢株式会社,,株式会社,東京都,台東区,松が谷２丁目１５番８号浅草Ｋ２ビル４０４号室,,13,106,1110036,,,,,,,2023-06-20,1,,,,,レイケン,0
534,3010701044432,新規,0,2023-06-20,2023-06-20,株式会社ＧＵＡＲＤ　ＨＯＲＳＥ,,株式会社,東京都,品川区,旗の台２丁目２番３号,,13,109,1420064,,,,,,,2023-06-20,1,,,,,ガードホース,0
535,3010801034069,新規,0,2023-06-20,2023-06-20,株式会社アーキフォレスト,,株式会社,東京都,大田区,池上４丁目２７番１４号,,13,111,1460082,,,,,,,2023-06-20,1,,,,,アーキフォレスト,0
548,3011001155052,新規,0,2023-06-20,2023-06-20,株式会社Ｈｉｇｈｓｔｏ,,株式会社,東京都,渋谷区,神宮前６丁目２３－４桑野ビル２階,,13,113,1500001,,,,,,,2023-06-20,1,,,,,ハイスト,0
549,3011001155143,新規,0,2023-06-20,2023-06-20,株式会社ＹＵＵＬＥ,,株式会社,東京都,渋谷区,恵比寿西１丁目３３番６号ＪＰｎｏｉｅ恵比寿西１Ｆ,,13,113,1500021,,,,,,,2023-06-20,1,,,,,ユール,0
551,3011003016962,新規,0,2023-06-20,2023-06-20,合同会社いちばっち,,合同会社,東京都,渋谷区,道玄坂１丁目１０番８号渋谷道玄坂東急ビル２Ｆ－Ｃ,,13,113,1500043,,,,,,,2023-06-20,1,,,,,イチバッチ,0
555,3011101103340,新規,0,2023-06-20,2023-06-20,株式会社Ｖｉｓｐｅｒａ,,株式会社,東京都,新宿区,新宿４丁目１－６ＪＲ新宿ミライナタワー１８Ｆ,,13,104,1600022,,,,,,,2023-06-20,1,,,,,ビスペラ,0
558,3011401025219,新規,0,2023-06-20,2023-06-20,株式会社ＡＵＴＯＢＵＤＤＹ,,株式会社,東京都,板橋区,大谷口北町８３番８号,,13,119,1730031,,,,,,,2023-06-20,1,,,,,オートバディ,0
562,3011801042598,新規,0,2023-06-20,2023-06-20,株式会社ｌｉｎｅｂｕｉｌｄ,,株式会社,東京都,足立区,梅島３丁目４３番１号,,13,121,1210816,,,,,,,2023-06-20,1,,,,,ラインビルド,0
563,3011803005702,新規,0,2023-06-20,2023-06-20,ＳＯＦＩＴ合同会社,,合同会社,東京都,足立区,竹の塚３丁目２０番１１竹の塚ファッションセンタービル３０２号室,,13,121,1210813,,,,,,,2023-06-20,1,,,,,ソフィット,0
579,3020001152067,新規,0,2023-06-20,2023-06-20,株式会社スタンドゥール,,株式会社,神奈川県,川崎市幸区,堀川町７２番地２１ラゾーナ川崎レジデンスＲ９１２,,14,132,2120013,,,,,,,2023-06-20,1,,,,,スタンドゥール,0
580,3020001152141,新規,0,2023-06-20,2023-06-20,株式会社Ｓｉｒｉｏ,,株式会社,神奈川県,横浜市中区,桜木町２丁目２番地港陽ビル４Ｆ,,14,104,2310062,,,,,,,2023-06-20,1,,,,,シリオ,0
581,3020001152182,新規,0,2023-06-20,2023-06-20,Ｂｅｓｔｅｖｅｒ株式会社,,株式会社,神奈川県,川崎市高津区,下作延２丁目２２番２３－５０４号,,14,134,2130033,,,,,,,2023-06-20,1,,,,,ベストエバー,0
586,3020003024082,新規,0,2023-06-20,2023-06-20,ｄｉｆｆｕｓｅ合同会社,,合同会社,神奈川県,横浜市神奈川区,羽沢南２丁目２４番６号,,14,102,2210866,,,,,,,2023-06-20,1,,,,,ディフューズ,0
604,3040001128734,新規,0,2023-06-20,2023-06-20,株式会社ＳｔｅｐＮｏｔｉｃｅ,,株式会社,千葉県,市川市,鬼高４丁目１０－８,,12,203,2720015,,,,,,,2023-06-20,1,,,,,ステップノーティス,0
614,3050001053007,新規,0,2023-06-20,2023-06-20,株式会社ＨＹネクスト,,株式会社,茨城県,神栖市,大野原６丁目３番３７号,,08,232,3140144,,,,,,,2023-06-20,1,,,,,エイチワイネクスト,0
615,3050003007588,新規,0,2023-06-20,2023-06-20,合同会社エコリバース,,合同会社,茨城県,坂東市,小山２０２５,,08,228,3060626,,,,,,,2023-06-20,1,,,,,,0
617,3060005010110,新規,0,2023-06-20,2023-06-20,一般社団法人ブルガリア乳酸菌促進森の会,,その他の設立登記法人,栃木県,佐野市,富士町９６３番地,,09,204,3270801,,,,,,,2023-06-20,1,,,,,ニュウサンキンソクシンモリノカイ,0
628,3100001036526,新規,0,2023-06-20,2023-06-20,株式会社Ｍｉｍｏｓａ,,株式会社,長野県,北佐久郡軽井沢町,大字長倉４５３３番地２０７,,20,321,3890111,,,,,,,2023-06-20,1,,,,,ミモザ,0
629,3100005013034,新規,0,2023-06-20,2023-06-20,一般社団法人アーバンスポーツ信州,,その他の設立登記法人,長野県,塩尻市,大字宗賀７１番地８３８,,20,215,3996461,,,,,,,2023-06-20,1,,,,,,0
632,3110001037630,新規,0,2023-06-20,2023-06-20,ヴィヴィ株式会社,,株式会社,新潟県,新潟市東区,寺山３丁目４番４号,,15,102,9500892,,,,,,,2023-06-20,1,,,,,ヴィヴィ,0
636,3120001255776,新規,0,2023-06-20,2023-06-20,株式会社ＴＫ,,株式会社,大阪府,大阪市福島区,福島７丁目２０番１８－４２０３号,,27,103,5530003,,,,,,,2023-06-20,1,,,,,ティーケー,0
637,3120001255818,新規,0,2023-06-20,2023-06-20,株式会社ホーム＆アイ・ホールディングス,,株式会社,大阪府,大阪市西区,立売堀１丁目９番１５号,,27,106,5500012,,,,,,,2023-06-20,1,,,,,ホームアンドアイホールディングス,0
638,3120001255834,新規,0,2023-06-20,2023-06-20,ＯＳ　ＪＡＰＡＮ株式会社,,株式会社,大阪府,大阪市中央区,瓦町１丁目７番２号ＴＴＮ堺筋本町ビル４Ｆ,,27,128,5410048,,,,,,,2023-06-20,1,,,,,オーエスジャパン,0
640,3120101067758,新規,0,2023-06-20,2023-06-20,株式会社ＴＦＫ,,株式会社,大阪府,堺市南区,檜尾３１７８番地,,27,145,5900142,,,,,,,2023-06-20,1,,,,,ティーエフケー,0
641,3120101067766,新規,0,2023-06-20,2023-06-20,株式会社まや,,株式会社,大阪府,堺市堺区,中瓦町１丁３番２０号,,27,141,5900077,,,,,,,2023-06-20,1,,,,,マヤ,0
642,3120103005286,新規,0,2023-06-20,2023-06-20,Ｄ＆ＡデパートＪａｐａｎ合同会社,,合同会社,大阪府,堺市西区,浜寺諏訪森町西４丁３１７番地３,,27,144,5928347,,,,,,,2023-06-20,1,,,,,ディアンドエイデパートジャパン,0
646,3120901047686,新規,0,2023-06-20,2023-06-20,アグレッシブモーター整備販売株式会社,,株式会社,大阪府,池田市,住吉１丁目１４－２３－２０３,,27,204,5630033,,,,,,,2023-06-20,1,,,,,アグレッシブモーターセイビハンバイ,0
651,3130003008801,新規,0,2023-06-20,2023-06-20,合同会社ＲＩ’Ｓ　ＴＥＣ,,合同会社,京都府,城陽市,寺田丁子口７２－２７,,26,207,6100121,,,,,,,2023-06-20,1,,,,,ライズテック,0
655,3140001130614,新規,0,2023-06-20,2023-06-20,株式会社聖愛,,株式会社,兵庫県,伊丹市,西野３丁目２４４,,28,207,6640028,,,,,,,2023-06-20,1,,,,,セイアイ,0
659,3150001026497,新規,0,2023-06-20,2023-06-20,株式会社Ｌａｎｄ,,株式会社,奈良県,五條市,西吉野町平沼田１３９３番地,,29,207,6380642,,,,,,,2023-06-20,1,,,,,ランド,0
660,3170003001884,新規,0,2023-06-20,2023-06-20,合同会社Ｎスタイル,,合同会社,和歌山県,和歌山市,栄谷３００コーポ川原崎１０６号,,30,201,6408441,,,,,,,2023-06-20,1,,,,,エヌスタイル,0
666,3180001156770,新規,0,2023-06-20,2023-06-20,株式会社光和西日本,,株式会社,愛知県,名古屋市中区,錦３丁目１番３０号,,23,106,4600003,,,,,,,2023-06-20,1,,,,,コウワニシニホン,0
667,3180003025387,新規,0,2023-06-20,2023-06-20,合同会社ｏｎｅ　ｓｔａｒｔ,,合同会社,愛知県,名古屋市瑞穂区,東栄町４丁目２６番地の２,,23,108,4670017,,,,,,,2023-06-20,1,,,,,ワンスタート,0
675,3220001025467,新規,0,2023-06-20,2023-06-20,ヌシヤ株式会社,,株式会社,石川県,輪島市,稲舟町竹ノ端５０番地,,17,204,9280004,,,,,,,2023-06-20,1,,,,,ヌシヤ,0
681,3240001061700,新規,0,2023-06-20,2023-06-20,株式会社バックオフィスセンター,,株式会社,広島県,広島市中区,八丁堀１５番１０号,,34,101,7300013,,,,,,,2023-06-20,1,,,,,バックオフィスセンター,0
683,3250003003294,新規,0,2023-06-20,2023-06-20,合同会社令和興業,,合同会社,山口県,宇部市,神原町２丁目５番１０－９号,,35,202,7550022,,,,,,,2023-06-20,1,,,,,,0
688,3290001101971,新規,0,2023-06-20,2023-06-20,株式会社ＰＲａｄｖｉｓｅｒＬａｂ,,株式会社,福岡県,福岡市博多区,千代４丁目４－１６四季のいろＢＬＤ２Ｆ,,40,132,8120044,,,,,,,2023-06-20,1,,,,,ピーアールアドバイザーラボ,0
689,3290001101996,新規,0,2023-06-20,2023-06-20,株式会社Ｓｅｃｏｎｄｂａｓｅ,,株式会社,福岡県,福岡市東区,馬出５丁目７番７号,,40,131,8120054,,,,,,,2023-06-20,1,,,,,セカンドベース,0
697,3330001030984,新規,0,2023-06-20,2023-06-20,株式会社リフレクション,,株式会社,熊本県,熊本市西区,池上町１１４９番地,,43,103,8600048,,,,,,,2023-06-20,1,,,,,,0
700,3340001025653,新規,0,2023-06-20,2023-06-20,株式会社シュウハチ,,株式会社,鹿児島県,鹿児島市,郡元１丁目９番７号川路ビル１０１,,46,201,8900065,,,,,,,2023-06-20,1,,,,,シュウハチ,0
705,3360001032185,新規,0,2023-06-20,2023-06-20,株式会社ケイズ,,株式会社,沖縄県,那覇市,牧志２丁目１７番２７－４０１号,,47,201,9000013,,,,,,,2023-06-20,1,,,,,ケイズ,0
715,3380003005492,新規,0,2023-06-20,2023-06-20,郡山エンターテイメント合同会社,,合同会社,福島県,郡山市,駅前１丁目４番地８号遠藤ビル３階,,07,203,9638002,,,,,,,2023-06-20,1,,,,,コオリヤマエンターテイメント,0
726,3440001009274,新規,0,2023-06-20,2023-06-20,北東産業株式会社,,株式会社,北海道,亀田郡七飯町,字上藤城２２２番地の３３,,01,337,0411104,,,,,,,2023-06-20,1,,,,,ホクトウサンギョウ,0
727,3470001019667,新規,0,2023-06-20,2023-06-20,株式会社斎藤,,株式会社,香川県,高松市,磨屋町５番地１１磨屋町ビル２階,,37,201,7600026,,,,,,,2023-06-20,1,,,,,サイトウ,0
730,3700150090420,新規,0,2023-06-20,2018-08-17,北秋田市職員労働組合,,その他,秋田県,北秋田市,花園町１９－１,,05,213,0183312,,,,,,,2018-08-17,1,,,,,キタアキタシシヨクインロウドウクミアイ,0
731,3700150109922,新規,0,2023-06-20,2022-06-16,Ｄｕｏ　ｓｏｕｒｉｒｅ,,その他,東京都,台東区,三ノ輪１丁目７－３－２０３,,13,106,1100011,,,,,,,2022-06-16,1,,,,,デユオスリル,0
732,3700150117009,新規,0,2023-06-20,2023-06-08,伊王島地区連合自治会,,その他,長崎県,長崎市,伊王島町１丁目乙２５７,,42,201,8511201,,,,,,,2023-06-08,1,,,,,イオウジマチクレンゴウジチカイ,0
733,3700150117578,新規,0,2023-06-20,2023-06-20,ｌｏｎｇｙａｎｓｈｉｑｕｎｄｉａｎｆｕｍａｏｙｉｙｏｕｘｉａｎｇｏｎｇｓｉ,,外国会社等,,,,,,,,Ｎｏ．９－４，Ｈｏｎｇｙｅ　Ｒｏａｄ，Ｃｈｉｋｅｎｇ　Ｖｉｌｌａｇｅ，Ｘｉｐｉ　Ｓｔｒｅｅｔ，Ｘｉｎｌｕｏ　Ｄｉｓｔｒｉｃｔ，Ｌｏｎｇｙａｎ　Ｃｉｔｙ，Ｆｕｊｉａｎ　Ｐｒｏｖｉｎｃｅ,,,,,,2023-06-20,1,,,,,ロンイエンシーチンデイエンフーマオイーヨウシエンゴンスー,0
734,3700150117586,新規,0,2023-06-20,2023-06-20,沛貽珂堂有限公司,,外国会社等,兵庫県,神戸市中央区,八幡通１丁目１－２１甲南メゾン三宮１０３号室,,28,110,6510085,台湾高雄市三民区明哲路３３号１５階之１６,,,,,,2023-06-20,1,,,,,ハイイカドウユウゲンコウシ,0
739,4010001235994,新規,0,2023-06-20,2023-06-20,Ｒ＆Ｎ株式会社,,株式会社,東京都,中央区,晴海３丁目１３番２号３５１６号,,13,102,1040053,,,,,,,2023-06-20,1,,,,,アルアンドエヌ,0
740,4010001236241,新規,0,2023-06-20,2023-06-20,ＴＯＫＹＯ　ＭＥＧＡＮＥ　ＪＵＮＫ株式会社,,株式会社,東京都,中央区,月島１丁目２０番５号,,13,102,1040052,,,,,,,2023-06-20,1,,,,,トウキョウメガネジャンク,0
745,4010401174867,新規,0,2023-06-20,2023-06-20,Ｅｘｐｌｏｒｅ　ＤＸ株式会社,,株式会社,東京都,港区,新橋６丁目５番４号ＤＩＫマンション５２３号室,,13,103,1050004,,,,,,,2023-06-20,1,,,,,イクスプロアーディーエックス,0
746,4010401175205,新規,0,2023-06-20,2023-06-20,株式会社ｓｏｒａｍｉ,,株式会社,東京都,港区,赤坂６丁目６番２９－５０３号,,13,103,1070052,,,,,,,2023-06-20,1,,,,,ソラミ,0
754,4010601063300,新規,0,2023-06-20,2023-06-20,株式会社ＯＡＳＩＳ,,株式会社,東京都,墨田区,立川３丁目６番１２号ルーチェヴィラ５０６,,13,107,1300023,,,,,,,2023-06-20,1,,,,,オアシス,0
755,4010701044431,新規,0,2023-06-20,2023-06-20,株式会社ウィーモット,,株式会社,東京都,品川区,北品川５丁目８－２７北品川レジデンス３０１,,13,109,1410001,,,,,,,2023-06-20,1,,,,,ウィーモット,0
756,4010803004580,新規,0,2023-06-20,2023-06-20,ＴＥＫＯ合同会社,,合同会社,東京都,大田区,久が原２丁目１２番１２－７０５号,,13,111,1460085,,,,,,,2023-06-20,1,,,,,テコ,0
766,4011001154937,新規,0,2023-06-20,2023-06-20,ロメックス株式会社,,株式会社,東京都,渋谷区,富ヶ谷１丁目１４番１４号４階,,13,113,1510063,,,,,,,2023-06-20,1,,,,,ロメックス,0
767,4011001155076,新規,0,2023-06-20,2023-06-20,ＴＯＢＩＫＯＥ株式会社,,株式会社,東京都,渋谷区,渋谷３丁目１番地９号ＹＡＺＡＷＡビル３階,,13,113,1500002,,,,,,,2023-06-20,1,,,,,トビコエ,0
768,4011001155142,新規,0,2023-06-20,2023-06-20,株式会社Ｄｅｃｌｉｃ,,株式会社,東京都,渋谷区,渋谷２丁目１９番１５号,,13,113,1500002,,,,,,,2023-06-20,1,,,,,デクリック,0
771,4011003017019,新規,0,2023-06-20,2023-06-20,合同会社ブロロロ,,合同会社,東京都,渋谷区,神宮前６丁目２３番４号桑野ビル２階,,13,113,1500001,,,,,,,2023-06-20,1,,,,,ブロロロ,0
772,4011003017027,新規,0,2023-06-20,2023-06-20,合同会社ＩＴ５ＣＡＤ,,合同会社,東京都,渋谷区,神宮前６丁目２３番４号桑野ビル２階,,13,113,1500001,,,,,,,2023-06-20,1,,,,,アイティーファイブキャド,0
774,4011101103315,新規,0,2023-06-20,2023-06-20,株式会社中川商店,,株式会社,東京都,新宿区,西落合３丁目２２番２２号,,13,104,1610031,,,,,,,2023-06-20,1,,,,,ナカガワショウテン,0
775,4011103013165,新規,0,2023-06-20,2023-06-20,合同会社Ｌａｎ,,合同会社,東京都,新宿区,西新宿３丁目３番１３号西新宿水間ビル２Ｆ,,13,104,1600023,,,,,,,2023-06-20,1,,,,,ラン,0
777,4011201024717,新規,0,2023-06-20,2023-06-20,株式会社ＫＲＨ,,株式会社,東京都,中野区,新井１丁目１１番５号,,13,114,1650026,,,,,,,2023-06-20,1,,,,,ケーアールエイチ,0
782,4011301028799,新規,0,2023-06-20,2023-06-20,株式会社ビジトレ,,株式会社,東京都,杉並区,上高井戸１丁目１４番６－４０５号,,13,115,1680074,,,,,,,2023-06-20,1,,,,,ビジトレ,0
784,4011603003962,新規,0,2023-06-20,2023-06-20,合同会社隆希グループ,,合同会社,東京都,練馬区,石神井町３丁目２４－７,,13,120,1770041,,,,,,,2023-06-20,1,,,,,タカキグループ,0
785,4011701026345,新規,0,2023-06-20,2023-06-20,株式会社ティーティーファクトリー,,株式会社,東京都,江戸川区,西小岩３丁目３３番５－２０３号,,13,123,1330057,,,,,,,2023-06-20,1,,,,,ティーティーファクトリー,0
787,4011801042606,新規,0,2023-06-20,2023-06-20,株式会社ムンライトジャパン,,株式会社,東京都,葛飾区,細田４丁目７番５号,,13,122,1240021,,,,,,,2023-06-20,1,,,,,ムンライトジャパン,0
788,4011803005701,新規,0,2023-06-20,2023-06-20,合同会社ＤｅｕｘＨ,,合同会社,東京都,葛飾区,南水元２丁目２６番１７号２階,,13,122,1250035,,,,,,,2023-06-20,1,,,,,ドゥアッシュ,0
789,4012401040644,新規,0,2023-06-20,2023-06-20,株式会社テンセイサポート,,株式会社,東京都,調布市,東つつじケ丘１丁目１６番地３－２０１,,13,208,1820005,,,,,,,2023-06-20,1,,,,,テンセイサポート,0
790,4012403006032,新規,0,2023-06-20,2023-06-20,合同会社ネルソン,,合同会社,東京都,小金井市,本町２丁目２０番１２－１１０３号シティライブ武蔵小金井参番館,,13,210,1840004,,,,,,,2023-06-20,1,,,,,ネルソン,0
793,4012701017706,新規,0,2023-06-20,2023-06-20,株式会社レナトス,,株式会社,東京都,西東京市,南町２丁目２１番１１号,,13,229,1880012,,,,,,,2023-06-20,1,,,,,レナトス,0
823,4030001154400,新規,0,2023-06-20,2023-06-20,株式会社Ａ‐Ｃｏｎｎｅｃｔ,,株式会社,埼玉県,北葛飾郡杉戸町,杉戸２丁目２番３号,,11,464,3450036,,,,,,,2023-06-20,1,,,,,エーコネクト,0
834,4040001128923,新規,0,2023-06-20,2023-06-20,株式会社ＣＰ,,株式会社,千葉県,茂原市,千代田町１丁目７番地８号マルモトビル３Ｆ左,,12,210,2970023,,,,,,,2023-06-20,1,,,,,シーピー,0
842,4040003022785,新規,0,2023-06-20,2023-06-20,クプルル合同会社,,合同会社,千葉県,八千代市,緑が丘西５丁目１５番地２６,,12,221,2760040,,,,,,,2023-06-20,1,,,,,クプルル,0
845,4050003007587,新規,0,2023-06-20,2023-06-20,合同会社グラン・ジュテ,,合同会社,茨城県,古河市,東諸川６７番地１,,08,204,3060124,,,,,,,2023-06-20,1,,,,,グランジュテ,0
847,4070001040547,新規,0,2023-06-20,2023-06-20,株式会社かのう商会,,株式会社,群馬県,渋川市,八木原５３４番地,,10,208,3770003,,,,,,,2023-06-20,1,,,,,カノウ,0
855,4100001036525,新規,0,2023-06-20,2023-06-20,株式会社真成,,株式会社,長野県,塩尻市,大字宗賀７１番地１８９,,20,215,3996461,,,,,,,2023-06-20,1,,,,,シンセイ,0
868,4120001255791,新規,0,2023-06-20,2023-06-20,株式会社守谷企画,,株式会社,大阪府,大阪市西区,北堀江２丁目２番２４号プラディーバ北堀江９Ｆ,,27,106,5500014,,,,,,,2023-06-20,1,,,,,モリタニキカク,0
869,4120001255809,新規,0,2023-06-20,2023-06-20,株式会社ＦＲＡＧＭＥＮＴ,,株式会社,大阪府,大阪市淀川区,木川西１丁目６－１１,,27,123,5320013,,,,,,,2023-06-20,1,,,,,フラグメント,0
870,4120001255833,新規,0,2023-06-20,2023-06-20,株式会社ＬＵＸ,,株式会社,大阪府,大阪市北区,曾根崎新地１丁目２番３４号新谷安ビル３階,,27,127,5300002,,,,,,,2023-06-20,1,,,,,ルクス,0
871,4120001255866,新規,0,2023-06-20,2023-06-20,株式会社ＳＨＩＲＡＫＡＢＡ,,株式会社,大阪府,大阪市中央区,日本橋１丁目１７－１７ピカソ日本一ビル７０３号,,27,128,5420073,,,,,,,2023-06-20,1,,,,,シラカバ,0
872,4120001255908,新規,0,2023-06-20,2023-06-20,株式会社リンク・エステートジャパン,,株式会社,大阪府,大阪市中央区,南船場２丁目７番２０号日宝安堂寺橋ビル３Ｆ－３,,27,128,5420081,,,,,,,2023-06-20,1,,,,,リンクエステートジャパン,0
873,4120001255916,新規,0,2023-06-20,2023-06-20,株式会社松心閣,,株式会社,大阪府,大阪市中央区,常盤町１丁目４－１－６０７,,27,128,5400028,,,,,,,2023-06-20,1,,,,,ショウシンカク,0
880,4120005023690,新規,0,2023-06-20,2023-06-20,一般社団法人ゆるととＬａｂ．,,その他の設立登記法人,大阪府,大阪市東淀川区,東中島１丁目１７番５－６２２号,,27,114,5330033,,,,,,,2023-06-20,1,,,,,ユルトトラブ,0
881,4120101067765,新規,0,2023-06-20,2023-06-20,株式会社ＰＭＡ,,株式会社,大阪府,泉大津市,助松町１丁目２番２９号,,27,206,5950071,,,,,,,2023-06-20,1,,,,,ピーエムエー,0
886,4122001037088,新規,0,2023-06-20,2023-06-20,株式会社アナ,,株式会社,大阪府,東大阪市,加納６丁目１６番４号,,27,227,5780901,,,,,,,2023-06-20,1,,,,,アナ,0
887,4122003002610,新規,0,2023-06-20,2023-06-20,合同会社Ｈｏｌｏｍｕａ,,合同会社,大阪府,八尾市,都塚２丁目４５番地の３,,27,212,5810023,,,,,,,2023-06-20,1,,,,,ホロムア,0
890,4130001074555,新規,0,2023-06-20,2023-06-20,株式会社エミュー,,株式会社,京都府,京都市南区,西九条比永城町７０番地,,26,107,6018437,,,,,,,2023-06-20,1,,,,,エミュー,0
897,4150001026496,新規,0,2023-06-20,2023-06-20,株式会社小林,,株式会社,奈良県,橿原市,中町２００番地の１４７,,29,205,6340009,,,,,,,2023-06-20,1,,,,,コバヤシ,0
900,4180001156786,新規,0,2023-06-20,2023-06-20,株式会社デイシン,,株式会社,愛知県,名古屋市天白区,植田山４丁目１１０１番地,,23,116,4680001,,,,,,,2023-06-20,1,,,,,デイシン,0
903,4180003025386,新規,0,2023-06-20,2023-06-20,ミスターカンパニー合同会社,,合同会社,愛知県,名古屋市中区,大須３丁目１４－５５ネオハイツ大須４０５,,23,106,4600011,,,,,,,2023-06-20,1,,,,,ミスターカンパニー,0
911,4200001041408,新規,0,2023-06-20,2023-06-20,株式会社ｍａｍａｚｉ,,株式会社,岐阜県,瑞浪市,上平町４丁目５１番地,,21,208,5096122,,,,,,,2023-06-20,1,,,,,ママジー,0
912,4200003005996,新規,0,2023-06-20,2023-06-20,合同会社ＤＴＫ,,合同会社,岐阜県,岐阜市,美島町２丁目８番地１,,21,201,5020903,,,,,,,2023-06-20,1,,,,,ディティケ,0
915,4220001025466,新規,0,2023-06-20,2023-06-20,株式会社能登島クラス,,株式会社,石川県,七尾市,能登島＿目町５５部１７番地,00130919,17,202,9260203,,,,,,,2023-06-20,1,,,,,ノトジマクラス,0
924,4250003003293,新規,0,2023-06-20,2023-06-20,合同会社バウ,,合同会社,山口県,宇部市,山門３丁目５番２５－４号,,35,202,7550077,,,,,,,2023-06-20,1,,,,,バウ,0
938,4290001101995,新規,0,2023-06-20,2023-06-20,株式会社Ｔｃｏｎｎｅｃｔｉｏｎｓ,,株式会社,福岡県,筑紫野市,針摺東１丁目２１番２７号,,40,217,8180081,,,,,,,2023-06-20,1,,,,,ティーコネクションズ,0
947,4330001030983,新規,0,2023-06-20,2023-06-20,株式会社Ｎトラスト,,株式会社,熊本県,山鹿市,蒲生９０番地４,,43,208,8610523,,,,,,,2023-06-20,1,,,,,エヌトラスト,0
948,4330003009885,新規,0,2023-06-20,2023-06-20,合同会社ＬＹＳ,,合同会社,熊本県,熊本市東区,画図町大字重富５２９－１,,43,102,8620947,,,,,,,2023-06-20,1,,,,,エルワイエス,0
959,4350001018416,新規,0,2023-06-20,2023-06-20,株式会社テックル,,株式会社,宮崎県,宮崎市,清武町今泉丙２０２３番地３６,,45,201,8891602,,,,,,,2023-06-20,1,,,,,テックル,0
967,4370001050094,新規,0,2023-06-20,2023-06-20,株式会社みんなのかいじょ犬,,株式会社,宮城県,宮城郡七ヶ浜町,松ヶ浜字浜屋敷４３番地の１,,04,404,9850812,,,,,,,2023-06-20,1,,,,,ミンナノカイジョケン,0
970,4370003006177,新規,0,2023-06-20,2023-06-20,エム・シー合同会社,,合同会社,宮城県,仙台市泉区,館２丁目４－４,,04,105,9813214,,,,,,,2023-06-20,1,,,,,エムシー,0
986,4470001019666,新規,0,2023-06-20,2023-06-20,株式会社ＳＵＮ　ＳＥＶＥＮ,,株式会社,香川県,高松市,木太町１９７２番地１エトワールＩＩＡ２０２,00130914,37,201,7600080,,,,,,,2023-06-20,1,,,,,サンセブン,0
991,4700150117577,新規,0,2023-06-20,2023-06-20,ｓｈｅｎｚｈｅｎｓｈｉ　ｌａｎｙａｎｇ　ｄｉａｎｚｉ　ｓｈａｎｇｗｕ　ｙｏｕｘｉａｎ　ｇｏｎｇｓｉ,,外国会社等,,,,,,,,ｆｕｔｉａｎｑｕ　ｍｅｉｌｉｎｊｉｅｄａｏ　ｍｅｉｆｅｎｇｓｈｅｑｕ　ｚｈｏｎｇｋａｎｇｌｕ　１ｈａｏ　ｈｕａｍａｏｙｕａｎ　１２ｄｏｎｇ　６０３　ｓｈｅｎｚｈｅｎ　ｇｕａｎｇｄｏｎｇ　５１８００　ＣＮ,,,,,,2023-06-20,1,,,,,シエンジエンシーランヤンデイエンズーシヤンウーヨウシエンゴンスー,0
992,4700150117585,新規,0,2023-06-20,2023-06-20,ｓｈａｎｇｈａｉｙｉｓｈｏｕｊｉｘｉｅｋｅｊｉｙｏｕｘｉａｎｇｏｎｇｓｉ,,外国会社等,,,,,,,,Ｃａｏａｎｇｏｎｇｌｕ３２９３ｈａｏ２ｚｈｕａｎｇｙｉｃｅｎｇ２ｑｕ　Ｊｉａｄｉｎｇｑｕ　Ｓｈａｎｇｈａｉｓｈｉ　２０１８０４　ＣＮ,,,,,,2023-06-20,1,,,,,シヤンハイイーシヨウジーシエコージーヨウシエンゴンスー,0
999,5010001235985,新規,0,2023-06-20,2023-06-20,株式会社Ｅｖｅｒ,,株式会社,東京都,千代田区,九段南１丁目５番６号りそな九段ビル５階ＫＳフロア,,13,101,1020074,,,,,,,2023-06-20,1,,,,,エバー,0
1000,5010001236249,新規,0,2023-06-20,2023-06-20,株式会社Ｐａｔｈ　ｏｆ　Ｌｉｇｈｔｓ,,株式会社,東京都,中央区,銀座１丁目１２－４Ｎ＆ＥＢＬＤ７階,,13,102,1040061,,,,,,,2023-06-20,1,,,,,パスオブライツ,0
1021,5010601063299,新規,0,2023-06-20,2023-06-20,株式会社ＴＮＣ,,株式会社,東京都,墨田区,東向島５丁目４１番１５号,,13,107,1310032,,,,,,,2023-06-20,1,,,,,ティーエヌシー,0
1022,5010603010200,新規,0,2023-06-20,2023-06-20,山ニ青空合同会社,,合同会社,東京都,墨田区,立花４丁目２８番地２１,,13,107,1310043,,,,,,,2023-06-20,1,,,,,ヤマニアオゾラ,0
1024,5010801034042,新規,0,2023-06-20,2023-06-20,株式会社眞栄城電気,,株式会社,東京都,大田区,池上７丁目８番１５号,,13,111,1460082,,,,,,,2023-06-20,1,,,,,マエシロデンキ,0
1034,5011001155067,新規,0,2023-06-20,2023-06-20,モリアンフード株式会社,,株式会社,東京都,渋谷区,神宮前６丁目２３番４号桑野ビル２階,,13,113,1500001,,,,,,,2023-06-20,1,,,,,モリアンフード,0
1035,5011001155133,新規,0,2023-06-20,2023-06-20,株式会社チー神,,株式会社,東京都,目黒区,目黒本町１丁目１０番１７号,,13,110,1520002,,,,,,,2023-06-20,1,,,,,チージン,0
1042,5011101103314,新規,0,2023-06-20,2023-06-20,株式会社中川,,株式会社,東京都,新宿区,西落合３丁目２２番２２号,,13,104,1610031,,,,,,,2023-06-20,1,,,,,ナカガワ,0
1045,5011103013164,新規,0,2023-06-20,2023-06-20,合同会社らぶる,,合同会社,東京都,新宿区,南町１２―３０３,,13,104,1620836,,,,,,,2023-06-20,1,,,,,ラブル,0
1046,5011103013172,新規,0,2023-06-20,2023-06-20,合同会社ヘロン,,合同会社,東京都,新宿区,大京町２４番地１ガーデンクレスト６０２,,13,104,1600015,,,,,,,2023-06-20,1,,,,,ヘロン,0
1049,5011301028798,新規,0,2023-06-20,2023-06-20,株式会社サクセスウエイト,,株式会社,東京都,杉並区,井草３丁目４番１号,,13,115,1670021,,,,,,,2023-06-20,1,,,,,サクセスウエイト,0
1052,5011701026344,新規,0,2023-06-20,2023-06-20,株式会社ＢＢＡ,,株式会社,東京都,江戸川区,南葛西５丁目１８番３－１１０６号,,13,123,1340085,,,,,,,2023-06-20,1,,,,,ビービエー,0
1060,5012405004875,新規,0,2023-06-20,2023-06-20,一般社団法人日本こども運動協会,,その他の設立登記法人,東京都,府中市,紅葉丘１丁目３３番地の９,,13,206,1830004,,,,,,,2023-06-20,1,,,,,ニホンコドモウンドウキョウカイ,0
1070,5020003024080,新規,0,2023-06-20,2023-06-20,合同会社Ｙクラフト,,合同会社,神奈川県,横浜市磯子区,丸山１丁目６番１－５０１号,,14,107,2350011,,,,,,,2023-06-20,1,,,,,ワイクラフト,0
1079,5021001079380,新規,0,2023-06-20,2023-06-20,株式会社Ｖ３ＳＣ　ＴＲＡＤＩＮＧ,,株式会社,神奈川県,愛甲郡愛川町,春日台３丁目１番地の２７,,14,401,2430302,,,,,,,2023-06-20,1,,,,,ヴィースリーエスシートレーディング,0
1081,5021003013239,新規,0,2023-06-20,2023-06-20,Ｇｒａｃｅ　Ｌｏｏｐ合同会社,,合同会社,神奈川県,藤沢市,辻堂東海岸１丁目１０番１２号,,14,205,2510045,,,,,,,2023-06-20,1,,,,,グレースループ,0
1084,5030001154457,新規,0,2023-06-20,2023-06-20,株式会社ライフビジョン,,株式会社,埼玉県,さいたま市西区,大字西遊馬１２７０番地１,,11,101,3310061,,,,,,,2023-06-20,1,,,,,ライフビジョン,0
1108,5050001053005,新規,0,2023-06-20,2023-06-20,株式会社ＢＴＮ．ＴＲＡＤＩＮＧ,,株式会社,茨城県,石岡市,若松３丁目７番２３号,,08,205,3150018,,,,,,,2023-06-20,1,,,,,ビーティーエヌトレーディング,0
1113,5050003007586,新規,0,2023-06-20,2023-06-20,ｍｅｄｉｃａｌ　ｃａｒｅ合同会社,,合同会社,茨城県,神栖市,知手中央６丁目１３番１２号,,08,232,3140112,,,,,,,2023-06-20,1,,,,,メディカルケア,0
1114,5060001036099,新規,0,2023-06-20,2023-06-20,株式会社Ｓｍｉｌｅｙ,,株式会社,栃木県,佐野市,赤見町３５５９番地１,,09,204,3270104,,,,,,,2023-06-20,1,,,,,スマイリー,0
1120,5080103002831,新規,0,2023-06-20,2023-06-20,合同会社ＱＯＬ,,合同会社,静岡県,富士市,永田町１丁目１５中村ビル２０１,,22,210,4170055,,,,,,,2023-06-20,1,,,,,キューオーエル,0
1122,5080405007553,新規,0,2023-06-20,2023-06-20,一般社団法人日本モータースポーツ協議会,,その他の設立登記法人,静岡県,浜松市南区,本郷町５６８番地,,22,134,4300812,,,,,,,2023-06-20,1,,,,,ニホンモータースポーツキョウギカイ,0
1129,5110001037629,新規,0,2023-06-20,2023-06-20,株式会社ブロード,,株式会社,新潟県,上越市,仲町１丁目６番５号,,15,222,9430831,,,,,,,2023-06-20,1,,,,,ブロード,0
1146,5120003024186,新規,0,2023-06-20,2023-06-20,合同会社ＨＡＮＡコーポレーション,,合同会社,大阪府,大阪市中央区,島之内１丁目１５番１２号３０１,,27,128,5420082,,,,,,,2023-06-20,1,,,,,ハナコーポレーション,0
1147,5120003024343,新規,0,2023-06-20,2023-06-20,合同会社ＥＭＺ,,合同会社,大阪府,大阪市北区,大淀南２丁目２番９‐６０４号,,27,127,5310075,,,,,,,2023-06-20,1,,,,,エムズ,0
1156,5120901047684,新規,0,2023-06-20,2023-06-20,株式会社ラシックス,,株式会社,大阪府,豊中市,岡町北２丁目７番３７号,,27,203,5610884,,,,,,,2023-06-20,1,,,,,ラシックス,0
1157,5120901047692,新規,0,2023-06-20,2023-06-20,株式会社Ｃｌｏｕｄ　Ｎｉｎｅ,,株式会社,大阪府,高槻市,北大樋町４番１号,,27,207,5690041,,,,,,,2023-06-20,1,,,,,クラウドナイン,0
1164,5130001074554,新規,0,2023-06-20,2023-06-20,世着株式会社,,株式会社,京都府,京都市伏見区,深草直違橋北１丁目４７７番地１８ファーストコート藤森２１２号室,,26,109,6120869,,,,,,,2023-06-20,1,,,,,セチャク,0
1166,5130003008799,新規,0,2023-06-20,2023-06-20,京北高圧ホース合同会社,,合同会社,京都府,京都市右京区,京北鳥居町中山田２番の１,,26,108,6010323,,,,,,,2023-06-20,1,,,,,ケイホクコウアツホース,0
1181,5140003019226,新規,0,2023-06-20,2023-06-20,合同会社花万,,合同会社,兵庫県,伊丹市,山田４丁目７番３５－２５０１号,,28,207,6640874,,,,,,,2023-06-20,1,,,,,ハナマン,0
1189,5180001156777,新規,0,2023-06-20,2023-06-20,株式会社Ｙ８,,株式会社,愛知県,名古屋市中区,栄５丁目４番１２号（９０３号室）,,23,106,4600008,,,,,,,2023-06-20,1,,,,,ワイエイト,0
1190,5180001156793,新規,0,2023-06-20,2023-06-20,スポーツアーツＪＡＰＡＮ株式会社,,株式会社,愛知県,名古屋市中村区,森田町３丁目５番２１号ＧｒｉｄＮａｇｏｙａ,,23,105,4530036,,,,,,,2023-06-20,1,,,,,スポーツアーツジャパン,0
1198,5180301037487,新規,0,2023-06-20,2023-06-20,株式会社ワールドネット,,株式会社,愛知県,岡崎市,昭和町字北浦１７番地１,,23,202,4440938,,,,,,,2023-06-20,1,,,,,ワールドネット,0
1199,5180301037495,新規,0,2023-06-20,2023-06-20,株式会社光英,,株式会社,愛知県,豊田市,丸山町９丁目１８番地２Ｆ,,23,211,4710832,,,,,,,2023-06-20,1,,,,,コウエイ,0
1202,5190001030510,新規,0,2023-06-20,2023-06-20,株式会社Ｐｅｒｅｇｉｎｕｓ,,株式会社,三重県,津市,半田５９２番地１松生卓球道場内,,24,201,5140823,,,,,,,2023-06-20,1,,,,,ペレギヌス,0
1211,5240001061698,新規,0,2023-06-20,2023-06-20,株式会社Ｋ．Ｎ．Ｐ,,株式会社,広島県,広島市東区,尾長西２丁目１０番２３号,,34,102,7320047,,,,,,,2023-06-20,1,,,,,ケイエヌピー,0
1216,5270003001534,新規,0,2023-06-20,2023-06-20,合同会社ここあす,,合同会社,鳥取県,米子市,上福原３０２番地１,,31,202,6830004,,,,,,,2023-06-20,1,,,,,ココアス,0
1219,5290001101961,新規,0,2023-06-20,2023-06-20,株式会社Ｌｅａｌｅ,,株式会社,福岡県,福岡市中央区,大手門２丁目１０番２９号,,40,133,8100074,,,,,,,2023-06-20,1,,,,,レアーレ,0
1220,5290001101986,新規,0,2023-06-20,2023-06-20,株式会社ＫＩ,,株式会社,福岡県,糟屋郡篠栗町,大字篠栗４０１３番地１,,40,342,8112405,,,,,,,2023-06-20,1,,,,,ケーアイ,0
1226,5290801029626,新規,0,2023-06-20,2023-06-20,ウィン不動産株式会社,,株式会社,福岡県,北九州市小倉北区,若富士町２番１号,,40,106,8020063,,,,,,,2023-06-20,1,,,,,ウィンフドウサン,0
1233,5320001019845,新規,0,2023-06-20,2023-06-20,株式会社ｃｕｒａｓｏ　ｖｉｌｌａｇｅ,,株式会社,大分県,大分市,長浜町１丁目１－１２尾形ビル１０２,,44,201,8700023,,,,,,,2023-06-20,1,,,,,クラソヴィレッジ,0
1234,5320003004110,新規,0,2023-06-20,2023-06-20,合同会社波乗りうさぎ,,合同会社,大分県,大分市,角子原２丁目３－２５,,44,201,8700271,,,,,,,2023-06-20,1,,,,,ナミノリウサギ,0
1237,5330001030966,新規,0,2023-06-20,2023-06-20,ＶＥＲＴＥＸ株式会社,,株式会社,熊本県,熊本市西区,城山下代１丁目１番３号,,43,103,8600066,,,,,,,2023-06-20,1,,,,,バーテックス,0
1238,5330001030974,新規,0,2023-06-20,2023-06-20,株式会社コムズ,,株式会社,熊本県,球磨郡多良木町,大字久米１２３０番地,,43,505,8680503,,,,,,,2023-06-20,1,,,,,コムズ,0
1242,5340003004158,新規,0,2023-06-20,2023-06-20,弥勒合同会社,,合同会社,鹿児島県,鹿児島市,紫原２丁目４９番３号,,46,201,8900082,,,,,,,2023-06-20,1,,,,,ミロク,0
1247,5360001032191,新規,0,2023-06-20,2023-06-20,株式会社ミームン,,株式会社,沖縄県,沖縄市,南桃原４丁目１８番３３号,,47,211,9040035,,,,,,,2023-06-20,1,,,,,ミームン,0
1263,5420001018309,新規,0,2023-06-20,2023-06-20,株式会社Ｋ‐ＮＥＸＴ,,株式会社,青森県,上北郡おいらせ町,川端３８番地２,,02,412,0392117,,,,,,,2023-06-20,1,,,,,ケーネクスト,0
1273,5430003015179,新規,0,2023-06-20,2023-06-20,合同会社はやと,,合同会社,北海道,札幌市南区,澄川四条１丁目６番１－３０８号,,01,106,0050004,,,,,,,2023-06-20,1,,,,,ハヤト,0
1275,5450003002349,新規,0,2023-06-20,2023-06-20,合同会社マイセルフ,,合同会社,北海道,上川郡当麻町,五条東２丁目１番１５号,,01,454,0781315,,,,,,,2023-06-20,1,,,,,マイセルフ,0
1276,5460003000954,新規,0,2023-06-20,2023-06-20,合同会社グローバルリサーチ,,合同会社,北海道,釧路市,鳥取北９丁目１０番１１号,,01,206,0840907,,,,,,,2023-06-20,1,,,,,,0
1278,5470001019665,新規,0,2023-06-20,2023-06-20,三雄電機株式会社,,株式会社,香川県,高松市,香川町川内原３８２番地１,,37,201,7611704,,,,,,,2023-06-20,1,,,,,サンユウデンキ,0
1283,5700150116826,新規,0,2023-06-20,2023-06-02,長野県肥料高騰対策事業協議会,,その他,長野県,長野市,大字南長野字幅下６９２－２長野県農政部内,,20,201,3800837,,,,,,,2023-06-02,1,,,,,ナガノケンヒリヨウコウトウタイサクジギヨウキヨウギカイ,0
1284,5700150117576,新規,0,2023-06-20,2023-06-20,ＰＨＯＯＯＴＯＳ　ＮＥＴＷＯＲＫ　ＴＥＣＨＮＯＬＯＧＹ　ＣＯ．，ＬＴＤ．,,外国会社等,,,,,,,,Ｎｏ．２，Ｂａｏｌｏｎｇ　５ｔｈ　Ｒｏａｄ，Ｂａｏｌｏｎｇ　Ｃｏｍｍｕｎｉｔｙ，Ｂａｏｌｏｎｇ　Ｓｔｒｅｅｔ，Ｌｏｎｇｇａｎｇ　Ｄｉｓｔｒｉｃｔ，Ｓｈｅｎｚｈｅｎ，Ｇｕａｎｇｄｏｎｇ　Ｐｒｏｖｉｎｃｅ，Ｃｈｉｎａ　５１８１１６,,,,,,2023-06-20,1,,,,,フオートスネツトワークテクノロジーカンパニーリミテツド,0
1285,5700150117584,新規,0,2023-06-20,2023-06-20,ＰｕＴｉａｎＳｈｉＣｈｅｎｇＸｉａｎｇＱｕＲｉＺｈｉＥ－Ｂｕｓｉｎｅｓｓ　Ｃｏ．，Ｌｔｄ,,外国会社等,,,,,,,,ＣｈｅｎｇＸｉａｎｇＱｕ　ＸｕｅＹｕａｎＺｈｏｎｇＪｉｅ　１１３３Ｈａｏ　ＰｕＴｉａｎＸｕｅＹｕａｎＣｈｕａｎｇＹｅＹｕａｎＡ０２　ＰｕＴｉａｎＳｈｉ　ＦｕＪｉａｎＳｈｅｎｇ　３５１１００　ＣＮ,,,,,,2023-06-20,1,,,,,プーテイエンシーチヨンシヤンチーリージーデイエンズーシヤンウーヨウシエンゴンスー,0
1293,6010001236248,新規,0,2023-06-20,2023-06-20,未来ＶＩＳＩＯＮ株式会社,,株式会社,東京都,千代田区,紀尾井町３番１０号紀尾井町ガーデンタワー２５０４号（Ｃ／Ｏｓｈｉｍａｄａ－ｏｆｆｉｃｅ）,,13,101,1020094,,,,,,,2023-06-20,1,,,,,ミライビジョン,0
1294,6010001236264,新規,0,2023-06-20,2023-06-20,四ツ葉株式会社,,株式会社,東京都,中央区,日本橋兜町１７番２号兜町第６葉山ビル４Ｆ,,13,102,1030026,,,,,,,2023-06-20,1,,,,,ヨツバ,0
1298,6010003040714,新規,0,2023-06-20,2023-06-20,デライト合同会社,,合同会社,東京都,中央区,日本橋浜町３丁目４３番９－８０４号,,13,102,1030007,,,,,,,2023-06-20,1,,,,,デライト,0
1299,6010003040862,新規,0,2023-06-20,2023-06-20,合同会社宇高,,合同会社,東京都,文京区,千駄木４丁目１７番２―１４０１号,,13,105,1130022,,,,,,,2023-06-20,1,,,,,ウダカ,0
1300,6010003040904,新規,0,2023-06-20,2023-06-20,ＡＦ合同会社,,合同会社,東京都,中央区,銀座１丁目１５番１３号ＶＯＲＴ銀座ｒｅｓｉｄｅｎｃｅ１００１,,13,102,1040061,,,,,,,2023-06-20,1,,,,,,0
1312,6010401175153,新規,0,2023-06-20,2023-06-20,ＴＡＴ　Ｃａｐｉｔａｌ　Ｆｕｎｄ　Ｊａｐａｎ株式会社,,株式会社,東京都,港区,元麻布２丁目１１番１７－４０５号,,13,103,1060046,,,,,,,2023-06-20,1,,,,,ティーエーティーキャピタルファンドジャパン,0
1313,6010401175161,新規,0,2023-06-20,2023-06-20,株式会社Ｓｏｌｉｄ　Ｃｒｅｗ,,株式会社,東京都,港区,芝５丁目３６番４号札の辻スクエア９階,,13,103,1080014,,,,,,,2023-06-20,1,,,,,ソリッドクルー,0
1325,6010601063298,新規,0,2023-06-20,2023-06-20,福田企業株式会社,,株式会社,東京都,江東区,東砂５丁目５番６－４０７号室,,13,108,1360074,,,,,,,2023-06-20,1,,,,,フクダキギョウ,0
1330,6010901053271,新規,0,2023-06-20,2023-06-20,リベルテ株式会社,,株式会社,東京都,世田谷区,上野毛１丁目１８番２１号ＤＲホームズ上野毛４０１号室,,13,112,1580093,,,,,,,2023-06-20,1,,,,,リベルテ,0
1333,6011001154803,新規,0,2023-06-20,2023-06-20,株式会社ＰｅｒＦａｃｔ,,株式会社,東京都,渋谷区,広尾１丁目２－１・４Ｆ,,13,113,1500012,,,,,,,2023-06-20,1,,,,,パーファクト,0
1334,6011001155157,新規,0,2023-06-20,2023-06-20,株式会社ｏｎｅ．ｔｈｒｅｅ,,株式会社,東京都,渋谷区,恵比寿１丁目２３番２１号ヤマトハイツ４０１,,13,113,1500013,,,,,,,2023-06-20,1,,,,,ワンスリー,0
1335,6011001155165,新規,0,2023-06-20,2023-06-20,ＣＲｅＡＴＯＲ　ＣＯＭＭＵＮＩＴＹ株式会社,,株式会社,東京都,渋谷区,宇田川町３番７号ヒューリック渋谷公園通りビル５Ｆ－７０,,13,113,1500042,,,,,,,2023-06-20,1,,,,,クリエイターコミュニティ,0
1336,6011001155173,新規,0,2023-06-20,2023-06-20,株式会社ＢＡＵＺホールディングス,,株式会社,東京都,目黒区,中央町１丁目１８番９号,,13,110,1520001,,,,,,,2023-06-20,1,,,,,バウズホールディングス,0
1338,6011003017025,新規,0,2023-06-20,2023-06-20,モノノフパートナーズ合同会社,,合同会社,東京都,渋谷区,広尾４丁目１番３０－６０２号,,13,113,1500012,,,,,,,2023-06-20,1,,,,,モノノフパートナーズ,0
1339,6011003017033,新規,0,2023-06-20,2023-06-20,Ｓｎａｃｋｆｏｏｄ合同会社,,合同会社,東京都,渋谷区,渋谷２丁目１９－１５宮益坂ビルディング６０９,,13,113,1500002,,,,,,,2023-06-20,1,,,,,スナックフード,0
1343,6011101103313,新規,0,2023-06-20,2023-06-20,人事を尽くしてなを執着心株式会社,,株式会社,東京都,新宿区,西落合３丁目２２番２２号,,13,104,1610031,,,,,,,2023-06-20,1,,,,,ジンジヲツクシテナヲシュウチャクシン,0
1346,6011301028797,新規,0,2023-06-20,2023-06-20,Ａｓｔｅｒｉｓｋ株式会社,,株式会社,東京都,杉並区,阿佐谷南１丁目１２番１号アズ阿佐ヶ谷レジデンス（３０６）,,13,115,1660004,,,,,,,2023-06-20,1,,,,,アスタリスク,0
1347,6011303004805,新規,0,2023-06-20,2023-06-20,合同会社Ｃｏｍｐｌｅｔｅ,,合同会社,東京都,杉並区,下高井戸２丁目１４番１４－２０７号,,13,115,1680073,,,,,,,2023-06-20,1,,,,,コンプリート,0
1348,6011401025216,新規,0,2023-06-20,2023-06-20,＿源豊株式会社,00130921,株式会社,東京都,板橋区,高島平８丁目１３番１４－３０１号,,13,119,1750082,,,,,,,2023-06-20,1,,,,,キンゲンホウ,0
1349,6011403004028,新規,0,2023-06-20,2023-06-20,合同会社ＭＡＪＯＬＩＣＡ　ＶＯＩＣＥ,,合同会社,東京都,板橋区,小茂根１丁目２５番８号フラッツ小茂根２０３,,13,119,1730037,,,,,,,2023-06-20,1,,,,,マジョリカボイス,0
1351,6011701026351,新規,0,2023-06-20,2023-06-20,福建株式会社,,株式会社,東京都,江戸川区,南小岩２丁目１０番１８号,,13,123,1330056,,,,,,,2023-06-20,1,,,,,フクケン,0
1361,6012405004874,新規,0,2023-06-20,2023-06-20,一般社団法人ｌｅａｆ　ｇｒｅｅｎ,,その他の設立登記法人,東京都,三鷹市,上連雀１丁目１２番地７号三鷹ビジネスパーク１号館Ｂ１Ｆ、ＭｕｓａｓｈｉｎｏＶａｌｌｅｙ内,,13,204,1810012,,,,,,,2023-06-20,1,,,,,リーフグリーン,0
1366,6013303006673,新規,0,2023-06-20,2023-06-20,ＬＩＢＥＬ合同会社,,合同会社,東京都,豊島区,池袋２丁目５７－１コンフォリア池袋３０１,,13,116,1710014,,,,,,,2023-06-20,1,,,,,,0
1371,6020001152130,新規,0,2023-06-20,2023-06-20,ネクスト・コンサルティング株式会社,,株式会社,神奈川県,横浜市港北区,新横浜３丁目７番地１８,,14,109,2220033,,,,,,,2023-06-20,1,,,,,ネクストコンサルティング,0
1372,6020001152147,新規,0,2023-06-20,2023-06-20,株式会社ＳＩＤＥ‐２,,株式会社,神奈川県,横浜市緑区,鴨居４丁目５８番１１－２０５号,,14,113,2260003,,,,,,,2023-06-20,1,,,,,サイドツー,0
1380,6021003013238,新規,0,2023-06-20,2023-06-20,合同会社ツバメ,,合同会社,神奈川県,藤沢市,藤沢５４５番地の１６ダイアパレス湘南藤沢ＩＩ１３０４号室,00130916,14,205,2510052,,,,,,,2023-06-20,1,,,,,ツバメ,0
1387,6030001154555,新規,0,2023-06-20,2023-06-20,ＡＩＳアウトソーシング株式会社,,株式会社,埼玉県,八潮市,大字伊勢野２０８番地１,,11,234,3400821,,,,,,,2023-06-20,1,,,,,エーアイエスアウトソーシング,0
1399,6050001053012,新規,0,2023-06-20,2023-06-20,株式会社ＨＡＬＬＥＬＵＪＡＨ,,株式会社,茨城県,常総市,内守谷町きぬの里１丁目８番地１８,,08,211,3030046,,,,,,,2023-06-20,1,,,,,ハレルヤ,0
1401,6050005013284,新規,0,2023-06-20,2023-06-20,一般社団法人日中体育交流促進協会,,その他の設立登記法人,茨城県,つくば市,島名５４１番地６,,08,220,3002655,,,,,,,2023-06-20,1,,,,,ニッチュウタイイクコウリュウソクシンキョウカイ,0
1406,6070001040553,新規,0,2023-06-20,2023-06-20,株式会社阿部板金店,,株式会社,群馬県,伊勢崎市,野町１２２番地７,,10,204,3792205,,,,,,,2023-06-20,1,,,,,アベバンキンテン,0
1407,6080001025677,新規,0,2023-06-20,2023-06-20,株式会社ｐｌｕｓ　Ｇ,,株式会社,静岡県,静岡市駿河区,聖一色３５７番地の１,,22,102,4228007,,,,,,,2023-06-20,1,,,,,プラスジー,0
1409,6080101024083,新規,0,2023-06-20,2023-06-20,株式会社ＪｏｂＲａｉｓｅ,,株式会社,静岡県,富士市,平垣２９１番地の８・３Ｆ北側,,22,210,4160916,,,,,,,2023-06-20,1,,,,,ジョブレイズ,0
1413,6090003002335,新規,0,2023-06-20,2023-06-20,神の木農場合同会社,,合同会社,山梨県,笛吹市,御坂町下野原１１２０番地,,19,211,4060811,,,,,,,2023-06-20,1,,,,,カミノキノウジョウ,0
1418,6110001037628,新規,0,2023-06-20,2023-06-20,小森工業株式会社,,株式会社,新潟県,新潟市西区,小新２３８番地５,,15,107,9502023,,,,,,,2023-06-20,1,,,,,コモリコウギョウ,0
1431,6120001255872,新規,0,2023-06-20,2023-06-20,株式会社ＭＳファミリア,,株式会社,大阪府,大阪市淀川区,塚本４丁目１番１－２０５号,,27,123,5320026,,,,,,,2023-06-20,1,,,,,エムエスファミリア,0
1455,6140001130586,新規,0,2023-06-20,2023-06-20,株式会社Ａｌｌｕｒｅ,,株式会社,兵庫県,神戸市中央区,北野町３丁目１番６号北野ヒルハウス２０２,,28,110,6500002,,,,,,,2023-06-20,1,,,,,アリュール,0
1459,6140003019225,新規,0,2023-06-20,2023-06-20,ＭｏｏｎＬｉｇｈｔ合同会社,,合同会社,兵庫県,神戸市兵庫区,駅南通１丁目２番２６－２０１号ＳＵＮＲＩＳＥＢＬＤＳＫＯＢＥ,,28,105,6520897,,,,,,,2023-06-20,1,,,,,ムーンライト,0
1460,6150001026494,新規,0,2023-06-20,2023-06-20,株式会社リベルタ,,株式会社,奈良県,奈良市,法蓮町７５７番地の１４,,29,201,6308113,,,,,,,2023-06-20,1,,,,,リベルタ,0
1471,6180001156792,新規,0,2023-06-20,2023-06-20,株式会社ＲＥＣインダストリー,,株式会社,愛知県,名古屋市中区,栄３丁目１５番３３号,,23,106,4600008,,,,,,,2023-06-20,1,,,,,レックインダストリー,0
1472,6180003025384,新規,0,2023-06-20,2023-06-20,合同会社ＳＳＴ,,合同会社,愛知県,名古屋市北区,若葉通１丁目２１番地メゾンコロル６０２号,,23,103,4620854,,,,,,,2023-06-20,1,,,,,エスエスティー,0
1478,6200001041414,新規,0,2023-06-20,2023-06-20,中郷興業株式会社,,株式会社,岐阜県,大垣市,青木町１番地１,,21,202,5032202,,,,,,,2023-06-20,1,,,,,ナカサトコウギョウ,0
1480,6220003003534,新規,0,2023-06-20,2023-06-20,合同会社オダシマクリエイト,,合同会社,石川県,金沢市,粟崎町レ１番地３５,,17,201,9200226,,,,,,,2023-06-20,1,,,,,オダシマクリエイト,0
1486,6240001061697,新規,0,2023-06-20,2023-06-20,株式会社裕建,,株式会社,広島県,広島市安佐北区,亀山南２丁目５５番７号,,34,106,7310232,,,,,,,2023-06-20,1,,,,,ユウケン,0
1491,6280001008967,新規,0,2023-06-20,2023-06-20,株式会社わかさ,,株式会社,島根県,松江市,福原町２０番地９,,32,201,6900811,,,,,,,2023-06-20,1,,,,,ワカサ,0
1495,6290001101993,新規,0,2023-06-20,2023-06-20,ＯＦＦＩＣＥＨＵＢ株式会社,,株式会社,福岡県,福岡市南区,花畑３丁目３９－２６フラワーパレス１０３号室,,40,134,8111356,,,,,,,2023-06-20,1,,,,,オフィスハブ,0
1496,6290001102018,新規,0,2023-06-20,2023-06-20,Ａｆｏｒｅ　Ｊａｐａｎ株式会社,,株式会社,福岡県,福岡市博多区,比恵町１番１８号１１階,,40,132,8120014,,,,,,,2023-06-20,1,,,,,アフォージャパン,0
1499,6290003014038,新規,0,2023-06-20,2023-06-20,リードイクティス合同会社,,合同会社,福岡県,福岡市中央区,天神２丁目２番１２号Ｔ＆Ｊビルディング７Ｆ,,40,133,8100001,,,,,,,2023-06-20,1,,,,,リードイクティス,0
1502,6290801029617,新規,0,2023-06-20,2023-06-20,ＲｉｃｈＧｕｌｆ株式会社,,株式会社,福岡県,北九州市若松区,青葉台南２丁目１７－１２－３０４,,40,103,8080142,,,,,,,2023-06-20,1,,,,,リッチガルフ,0
1503,6310003004589,新規,0,2023-06-20,2023-06-20,合同会社ＨＡＲＵ,,合同会社,長崎県,諫早市,貝津町２１８８－１クリエイト・トウワＩＩ４０１号,00130913,42,204,8540063,,,,,,,2023-06-20,1,,,,,ハル,0
1504,6310005008687,新規,0,2023-06-20,2023-06-20,特定非営利活動法人エール,,その他の設立登記法人,長崎県,諫早市,福田町２５７０番地３,,42,204,8540001,,,,,,,2023-06-20,1,,,,,エール,0
1514,6380001033798,新規,0,2023-06-20,2023-06-20,ラーラエネルギー開発株式会社,,株式会社,福島県,南相馬市,原町区小木迫字堂西５４番地の１,,07,212,9750055,,,,,,,2023-06-20,1,,,,,ラーラエネルギーカイハツ,0
1524,6430001089356,新規,0,2023-06-20,2023-06-20,株式会社福田左官,,株式会社,北海道,苫小牧市,川沿町１丁目１２番２６号,,01,213,0530822,,,,,,,2023-06-20,1,,,,,フクダサカン,0
1528,6450001014023,新規,0,2023-06-20,2023-06-20,株式会社三開工業,,株式会社,北海道,富良野市,北の峰町２８番２８号,,01,229,0760034,,,,,,,2023-06-20,1,,,,,サンカイコウギョウ,0
1534,6500003003051,新規,0,2023-06-20,2023-06-20,合同会社すろー,,合同会社,愛媛県,松山市,和泉北１丁目５番３号,,38,201,7900038,,,,,,,2023-06-20,1,,,,,スロー,0
1535,6700150117583,新規,0,2023-06-20,2023-06-20,ＬｏｎｇＹａｎＳｈｉＢｕＥｒＷａｎＪｉａＭａｏＹｉＹｏｕＸｉａｎＧｏｎｇＳｉ,,外国会社等,,,,,,,,Ｘｉｎｌｕｏ　Ｄｉｓ．Ｘｉｐｉ　Ｔｏｗｎ，Ｌｏｎｇｔｅｎｇ　Ｍｉｄ　Ｒｏａｄ，Ｎｏ．２８８，Ｃ９０２＃　Ｌｏｎｇｙａｎ　Ｆｕｊｉａｎ　３６４０００　ＣＮ,,,,,,2023-06-20,1,,,,,ロンイエンシーブーアーワンジヤーマオイーヨウシエンゴンスー,0
1536,7010001045581,新規,0,2023-06-20,2023-06-20,新川電気工事株式会社,,株式会社,東京都,中央区,新川１丁目２８番４－６０１号,,13,102,1040033,,,,,,,2023-06-20,1,,,,,シンカワデンキコウジ,0
1544,7010001236214,新規,0,2023-06-20,2023-06-20,エンデバー・ユナイテッド・パートナーズ・２９株式会社,,株式会社,東京都,千代田区,丸の内２丁目５番１号丸の内二丁目ビル６階,,13,101,1000005,,,,,,,2023-06-20,1,,,,,エンデバーユナイテッドパートナーズトゥエンティナイン,0
1545,7010001236313,新規,0,2023-06-20,2023-06-20,株式会社ｍｏｍｏ,,株式会社,東京都,千代田区,神田神保町３丁目９番地１５幸保ビル２階Ａ号室,,13,101,1010051,,,,,,,2023-06-20,1,,,,,モモ,0
1546,7010003040886,新規,0,2023-06-20,2023-06-20,恒瀚合同会社,,合同会社,東京都,千代田区,神田三崎町２丁目１０番１１号ＰＥＧビル５Ｂ－４号室,,13,101,1010061,,,,,,,2023-06-20,1,,,,,コウカン,0
1554,7010401175152,新規,0,2023-06-20,2023-06-20,会計事務所ＩＭＰＡＣＴ　ＤＥＳＩＧＮ　ＯＦＦＩＣＥ株式会社,,株式会社,東京都,港区,浜松町１丁目２０番１０号ライオネス浜松町５０６号室,,13,103,1050013,,,,,,,2023-06-20,1,,,,,カイケイジムショインパクトデザインオフィス,0
1555,7010401175160,新規,0,2023-06-20,2023-06-20,クレイ・テクノロジーズ株式会社,,株式会社,東京都,港区,浜松町２丁目２－１５浜松町ダイヤビル２Ｆ,,13,103,1050013,,,,,,,2023-06-20,1,,,,,クレイテクノロジーズ,0
1563,7010603010198,新規,0,2023-06-20,2023-06-20,合同会社ＭＥＩ　ＩＮＶＥＳＴＭＥＮＴ,,合同会社,東京都,江東区,有明２丁目１－２－２０９,,13,108,1350063,,,,,,,2023-06-20,1,,,,,メイインベストメント,0
1572,7011001155172,新規,0,2023-06-20,2023-06-20,株式会社ＸＲＡＩＳＥ,,株式会社,東京都,渋谷区,神宮前６丁目２３番４号桑野ビル２階,,13,113,1500001,,,,,,,2023-06-20,1,,,,,クロスレイズ,0
1574,7011003017024,新規,0,2023-06-20,2023-06-20,ＧＡＲＡＭ　ＥＤＵ合同会社,,合同会社,東京都,渋谷区,恵比寿南１丁目１９番１号３０２,,13,113,1500022,,,,,,,2023-06-20,1,,,,,ガラムエデュ,0
1576,7011101103295,新規,0,2023-06-20,2023-06-20,株式会社ＣＩＴＲＯＮ　ＡＩ,,株式会社,東京都,新宿区,高田馬場３丁目１２番５号セブンビル３Ｓ,,13,104,1690075,,,,,,,2023-06-20,1,,,,,シトロンエーアイ,0
1577,7011101103312,新規,0,2023-06-20,2023-06-20,人生いつも三合目株式会社,,株式会社,東京都,新宿区,西落合３丁目２２番２２号,,13,104,1610031,,,,,,,2023-06-20,1,,,,,ジンセイイツモサンゴウメ,0
1578,7011101103329,新規,0,2023-06-20,2023-06-20,人材開発株式会社,,株式会社,東京都,新宿区,市谷八幡町１番地１新高ビル８０１,,13,104,1620844,,,,,,,2023-06-20,1,,,,,ジンザイカイハツ,0
1583,7011301028796,新規,0,2023-06-20,2023-06-20,株式会社ＭＯＮＫＳ,,株式会社,東京都,杉並区,高円寺南３丁目２２番８－３０１号,,13,115,1660003,,,,,,,2023-06-20,1,,,,,モンクス,0
1587,7011505002556,新規,0,2023-06-20,2023-06-20,一般社団法人窓廻り装飾事業協会,,その他の設立登記法人,東京都,北区,浮間４丁目１３番２１号,,13,117,1150051,,,,,,,2023-06-20,1,,,,,マドマワリソウショクジギョウキョウカイ,0
1589,7011701026342,新規,0,2023-06-20,2023-06-20,鴻昇株式会社,,株式会社,東京都,江戸川区,東小岩６丁目２番１１号,,13,123,1330052,,,,,,,2023-06-20,1,,,,,コウショウ,0
1596,7012403006005,新規,0,2023-06-20,2023-06-20,合同会社１０４Ｇａｍｅｓ,,合同会社,東京都,稲城市,平尾１丁目６０‐１８石井ハイム２０２号室,,13,225,2060823,,,,,,,2023-06-20,1,,,,,イチマルヨンゲームズ,0
1603,7013301050937,新規,0,2023-06-20,2023-06-20,心乃不動産株式会社,,株式会社,東京都,豊島区,上池袋３丁目３４－１１－１００４,,13,116,1700012,,,,,,,2023-06-20,1,,,,,ココロノフドウサン,0
1609,7020001152162,新規,0,2023-06-20,2023-06-20,マーベリック株式会社,,株式会社,神奈川県,川崎市幸区,戸手４丁目９番２－１００６号,,14,132,2120005,,,,,,,2023-06-20,1,,,,,マーベリック,0
1617,7021001079379,新規,0,2023-06-20,2023-06-20,ＮＹＳ株式会社,,株式会社,神奈川県,藤沢市,片瀬山４丁目９番１５号,,14,205,2510033,,,,,,,2023-06-20,1,,,,,エヌワイエス,0
1619,7021003013237,新規,0,2023-06-20,2023-06-20,合同会社Ｅｐｉｃ　Ｙａｒｄ,,合同会社,神奈川県,藤沢市,善行坂１丁目１‐２６リラシティ藤沢１０１２,,14,205,2510876,,,,,,,2023-06-20,1,,,,,エピックヤード,0
1626,7030001154587,新規,0,2023-06-20,2023-06-20,ＮＡＣＳ株式会社,,株式会社,埼玉県,川口市,芝富士２丁目９番１１号,,11,203,3330854,,,,,,,2023-06-20,1,,,,,ナックス,0
1629,7030003021991,新規,0,2023-06-20,2023-06-20,合同会社Ｒｅ．Ｖｉｖａｌ,,合同会社,埼玉県,越谷市,東越谷１丁目１０番５号,,11,222,3430023,,,,,,,2023-06-20,1,,,,,リバイバル,0
1631,7030005021305,新規,0,2023-06-20,2023-06-20,一般社団法人エンフィール,,その他の設立登記法人,埼玉県,さいたま市浦和区,高砂１丁目２番１－２１０号,,11,107,3300063,,,,,,,2023-06-20,1,,,,,エンフィール,0
1634,7040001128763,新規,0,2023-06-20,2023-06-20,株式会社京山,,株式会社,千葉県,松戸市,松戸字坂下１２８９番－１,,12,207,2710092,,,,,,,2023-06-20,1,,,,,キョウヤマ,0
1635,7040001128862,新規,0,2023-06-20,2023-06-20,斗愛ファームラシカ株式会社,,株式会社,千葉県,佐倉市,大篠塚７７３番地,,12,212,2850806,,,,,,,2023-06-20,1,,,,,トアファームラシカ,0
1639,7040003022766,新規,0,2023-06-20,2023-06-20,合同会社マルワインターナショナル,,合同会社,千葉県,千葉市若葉区,小倉町１８０８番地２０,,12,104,2640007,,,,,,,2023-06-20,1,,,,,マルワインターナショナル,0
1640,7040005022046,新規,0,2023-06-20,2023-06-20,税理士法人ケインズアイ,,その他の設立登記法人,千葉県,千葉市中央区,問屋町１番３５号,,12,101,2600025,,,,,,,2023-06-20,1,,,,,ケインズアイ,0
1643,7050001053003,新規,0,2023-06-20,2023-06-20,株式会社Ｒ・Ｊ,,株式会社,茨城県,北茨城市,磯原町磯原１７５４－２レユシールニシザワ１０２,,08,215,3191541,,,,,,,2023-06-20,1,,,,,アールジェー,0
1644,7050001053011,新規,0,2023-06-20,2023-06-20,株式会社Ｗｉｎｄ‐ｆ,,株式会社,茨城県,かすみがうら市,坂１番地,,08,230,3000214,,,,,,,2023-06-20,1,,,,,ウインドエフ,0
1647,7070001040552,新規,0,2023-06-20,2023-06-20,株式会社アーバンライフ,,株式会社,群馬県,前橋市,天川町３９番地１３,,10,201,3710802,,,,,,,2023-06-20,1,,,,,アーバンライフ,0
1654,7080101024082,新規,0,2023-06-20,2023-06-20,株式会社フジメン,,株式会社,静岡県,裾野市,伊豆島田２７０番地の１,,22,220,4101123,,,,,,,2023-06-20,1,,,,,フジメン,0
1663,7110001037610,新規,0,2023-06-20,2023-06-20,株式会社湯沢不動産,,株式会社,新潟県,南魚沼郡湯沢町,大字湯沢３１７－６－２階,,15,461,9496101,,,,,,,2023-06-20,1,,,,,ユザワフドウサン,0
1672,7120001255772,新規,0,2023-06-20,2023-06-20,高鶴株式会社,,株式会社,大阪府,大阪市中央区,南船場２丁目９－１ＴｈｅＰｅａｋＳｈｉｎｓａｉｂａｓｈｉ５０１室,,27,128,5420081,,,,,,,2023-06-20,1,,,,,タカツル,0
1673,7120001255871,新規,0,2023-06-20,2023-06-20,株式会社チリトマト,,株式会社,大阪府,大阪市阿倍野区,北畠２丁目８番４６号,,27,119,5450035,,,,,,,2023-06-20,1,,,,,チリトマト,0
1677,7120003024325,新規,0,2023-06-20,2023-06-20,合同会社ｃｏｃｏ,,合同会社,大阪府,大阪市天王寺区,上汐３丁目２番１６号アリビオ上本町３０４,,27,109,5430002,,,,,,,2023-06-20,1,,,,,ココ,0
1683,7120103005282,新規,0,2023-06-20,2023-06-20,みのる合同会社,,合同会社,大阪府,堺市美原区,阿弥４８５番地２０,,27,147,5870003,,,,,,,2023-06-20,1,,,,,ミノル,0
1698,7140001130585,新規,0,2023-06-20,2023-06-20,株式会社ＲＨＥ,,株式会社,兵庫県,三木市,緑が丘町中２丁目１番地の１４,,28,215,6730532,,,,,,,2023-06-20,1,,,,,アールエイチイー,0
1714,7180001156775,新規,0,2023-06-20,2023-06-20,株式会社デイズ,,株式会社,愛知県,一宮市,中島通２丁目３７番地５,,23,203,4910072,,,,,,,2023-06-20,1,,,,,デイズ,0
1715,7180001156800,新規,0,2023-06-20,2023-06-20,株式会社来園,,株式会社,愛知県,名古屋市中川区,中島新町１丁目３０５番地,,23,110,4540932,,,,,,,2023-06-20,1,,,,,ライエン,0
1721,7180301037493,新規,0,2023-06-20,2023-06-20,株式会社ＳｉｎＣｏｍｐａｎｙ,,株式会社,愛知県,西尾市,吉良町富好新田四縄２０番地エルピーダ２０１号室,,23,213,4440515,,,,,,,2023-06-20,1,,,,,シンカンパニー,0
1729,7220001025463,新規,0,2023-06-20,2023-06-20,タイネス株式会社,,株式会社,石川県,金沢市,畝田西２丁目１１７番地カナディアンビレッジＫＵＮＯＲＩ１０２号,,17,201,9200342,,,,,,,2023-06-20,1,,,,,タイネス,0
1740,7240003006187,新規,0,2023-06-20,2023-06-20,合同会社ｅｔｅｒｎａｌ　ｌｉｇｈｔ,,合同会社,広島県,広島市南区,丹那町６６－３５－３０３,,34,103,7340034,,,,,,,2023-06-20,1,,,,,エターナルライト,0
1749,7290001101992,新規,0,2023-06-20,2023-06-20,株式会社金彩,,株式会社,福岡県,福岡市中央区,春吉２丁目１３番１７号,,40,133,8100003,,,,,,,2023-06-20,1,,,,,キンサイ,0
1750,7290001102009,新規,0,2023-06-20,2023-06-20,株式会社カーテック平和,,株式会社,福岡県,福岡市博多区,西月隈３丁目５番１３号,,40,132,8120857,,,,,,,2023-06-20,1,,,,,カーテックヘイワ,0
1754,7290803004443,新規,0,2023-06-20,2023-06-20,ミラノシカ合同会社,,合同会社,福岡県,築上郡上毛町,大字東上１２４８番地,,40,646,8710927,,,,,,,2023-06-20,1,,,,,ミラノシカ,0
1759,7320003004109,新規,0,2023-06-20,2023-06-20,ＣＯＲＥ合同会社,,合同会社,大分県,大分市,新春日町２丁目６番４０号山の手マンション２０５,,44,201,8700818,,,,,,,2023-06-20,1,,,,,コア,0
1761,7330001030972,新規,0,2023-06-20,2023-06-20,株式会社雅天建設,,株式会社,熊本県,上益城郡益城町,大字小池１５２６番地,,43,443,8612223,,,,,,,2023-06-20,1,,,,,ガテンケンセツ,0
1776,7410003003811,新規,0,2023-06-20,2023-06-20,合同会社美創,,合同会社,秋田県,秋田市,土崎港南３丁目１２番地２３,,05,201,0110943,,,,,,,2023-06-20,1,,,,,ビソウ,0
1780,7430001089355,新規,0,2023-06-20,2023-06-20,株式会社ぽるく,,株式会社,北海道,札幌市白石区,南郷通１丁目南３番１６号ローズ・アヴェニュー南郷通１０１号,,01,104,0030022,,,,,,,2023-06-20,1,,,,,ポルク,0
1794,7700150117574,新規,0,2023-06-20,2023-06-20,ＪＩＡＮＧＹＩＮ　ＳＩＡＮ　ＰＬＡＳＴＩＣ　ＰＲＯＴＥＣＨ　ＣＯ．ＬＴＤ,,外国会社等,,,,,,,,ｚｈｏｕｚｈｕａｎｇｚｈｅｎｈｕａｈｏｎｇｌｕ５１ｈａｏ　ｊｉａｎｇｙｉｎｓｈｉ　ｊｉａｎｇｓｕｓｈｅｎｇ　２１４４００　ＣＮ,,,,,,2023-06-20,1,,,,,ジヤンインスーアンプラスチツクプロテツクカンパニーリミツテツド,0
1795,7700150117582,新規,0,2023-06-20,2023-06-20,Ｙｏｎｇｋａｎｇｓｈｉ　Ｑｉｍｏｄｉａｎｄｏｎｇｇｏｎｇｊｕｙｏｕｘｉａｎｇｏｎｇｓｉ,,外国会社等,,,,,,,,Ｙｏｎｇｋａｎｇｓｈｉ　Ｄｏｎｇｃｈｅｎｇ　Ｔｉａｎｚｈａｉｃｕｎ　Ｊｉｎｈｕａ　Ｚｈｅｊｉａｎｇ,,,,,,2023-06-20,1,,,,,ヨンカンシーチーモーデイエンドンゴンジーヨウシエンゴンスー,0
1799,8010001236031,新規,0,2023-06-20,2023-06-20,株式会社ＱＵＢＥ,,株式会社,東京都,中央区,銀座１丁目１２番４号Ｎ＆ＥＢＬＤ．６Ｆ,,13,102,1040061,,,,,,,2023-06-20,1,,,,,キューブ,0
1800,8010001236254,新規,0,2023-06-20,2023-06-20,株式会社もっちー,,株式会社,東京都,中央区,銀座１丁目２２番１１号銀座大竹ビジデンス２階,,13,102,1040061,,,,,,,2023-06-20,1,,,,,モッチー,0
1801,8010001236262,新規,0,2023-06-20,2023-06-20,Ｚｅｎｐｌａｔ株式会社,,株式会社,東京都,千代田区,九段北１丁目９番地５号朝日マンション４０９号,,13,101,1020073,,,,,,,2023-06-20,1,,,,,ゼンプラット,0
1806,8010005036840,新規,0,2023-06-20,2023-06-20,Ａ４ＪＰ　Ｏｃｔｏｂａｌｌ特定目的会社,,その他の設立登記法人,東京都,中央区,日本橋３丁目９番１号日本橋三丁目スクエア１１階,,13,102,1030027,,,,,,,2023-06-20,1,,,,,エーフォージェイピーオクトボール,0
1816,8010401175151,新規,0,2023-06-20,2023-06-20,株式会社リッチドラゴン,,株式会社,東京都,港区,白金３丁目１番１３号日恵ビル２階,,13,103,1080072,,,,,,,2023-06-20,1,,,,,リッチドラゴン,0
1822,8010403030354,新規,0,2023-06-20,2023-06-20,合同会社クルタ,,合同会社,東京都,港区,元麻布２丁目３番４３号,,13,103,1060046,,,,,,,2023-06-20,1,,,,,クルタ,0
1827,8010603010206,新規,0,2023-06-20,2023-06-20,合同会社朝日ハウジング,,合同会社,東京都,江東区,亀戸２丁目２４番１－２０１号,,13,108,1360071,,,,,,,2023-06-20,1,,,,,アサヒハウジング,0
1830,8010803004577,新規,0,2023-06-20,2023-06-20,合同会社テルミエンジニアリング,,合同会社,東京都,大田区,下丸子３丁目２２－１５、５０３号室,,13,111,1460092,,,,,,,2023-06-20,1,,,,,テルミエンジニアリング,0
1832,8010805003032,新規,0,2023-06-20,2023-06-20,一般社団法人みんなのグリーフケア,,その他の設立登記法人,東京都,大田区,山王２丁目１１番４－７０１号,,13,111,1430023,,,,,,,2023-06-20,1,,,,,,0
1834,8010903008247,新規,0,2023-06-20,2023-06-20,嘉華合同会社,,合同会社,東京都,世田谷区,駒沢４丁目１９－３スカイコート駒沢第２－１０７号室,,13,112,1540012,,,,,,,2023-06-20,1,,,,,カカ,0
1836,8011001154842,新規,0,2023-06-20,2023-06-20,株式会社Ｌｏｇｉｃ＆Ｃｏｍｐａｎｙ,,株式会社,東京都,渋谷区,恵比寿３丁目７－２,,13,113,1500013,,,,,,,2023-06-20,1,,,,,ロジックアンドカンパニー,0
1837,8011001155147,新規,0,2023-06-20,2023-06-20,株式会社ＦＯＳＳＥＴＴＡ,,株式会社,東京都,渋谷区,鉢山町５番７号,,13,113,1500035,,,,,,,2023-06-20,1,,,,,フォセッタ,0
1838,8011001155155,新規,0,2023-06-20,2023-06-20,株式会社ひととなり,,株式会社,東京都,渋谷区,東２丁目２７番１４号,,13,113,1500011,,,,,,,2023-06-20,1,,,,,ヒトトナリ,0
1844,8011301028795,新規,0,2023-06-20,2023-06-20,株式会社ＭＡＨＯＲＯＢＡ,,株式会社,東京都,杉並区,高円寺南４丁目４１番１０号ＵＰＢＡＳＥ高円寺１０４,,13,115,1660003,,,,,,,2023-06-20,1,,,,,マホロバ,0
1849,8011601026912,新規,0,2023-06-20,2023-06-20,ハウル株式会社,,株式会社,東京都,練馬区,旭町３丁目２７番１３号５０１号,,13,120,1790071,,,,,,,2023-06-20,1,,,,,ハウル,0
1851,8011801042602,新規,0,2023-06-20,2023-06-20,株式会社小山技建,,株式会社,東京都,足立区,六月２丁目１１番１７－３０３号,,13,121,1210814,,,,,,,2023-06-20,1,,,,,コヤマギケン,0
1854,8012403006012,新規,0,2023-06-20,2023-06-20,合同会社１０４Ｈｏｍｅｓ,,合同会社,東京都,稲城市,平尾１丁目５９番地の７中溝アパート２号室,,13,225,2060823,,,,,,,2023-06-20,1,,,,,イチマルヨンホームズ,0
1858,8013301050936,新規,0,2023-06-20,2023-06-20,株式会社ＧＥＮＦＯＲＤ,,株式会社,東京都,豊島区,南池袋２丁目４５番２－２０１１号,,13,116,1710022,,,,,,,2023-06-20,1,,,,,ジェンフォード,0
1864,8020001152161,新規,0,2023-06-20,2023-06-20,株式会社東洋サービス,,株式会社,神奈川県,横浜市中区,弥生町２丁目１９番地１バースシティ横浜大通り公園９０１号室,,14,104,2310058,,,,,,,2023-06-20,1,,,,,トウヨウサービス,0
1870,8020003024086,新規,0,2023-06-20,2023-06-20,プラスケイ合同会社,,合同会社,神奈川県,川崎市高津区,末長３丁目１１番８号,,14,134,2130013,,,,,,,2023-06-20,1,,,,,プラスケイ,0
1875,8021001079361,新規,0,2023-06-20,2023-06-20,株式会社Ｓ‐ＢＲＡＮＤ,,株式会社,神奈川県,相模原市緑区,橋本３丁目１９番１７－５０１号プリムローズハウス,,14,151,2520143,,,,,,,2023-06-20,1,,,,,エスブランド,0
1876,8021003013236,新規,0,2023-06-20,2023-06-20,合同会社山将,,合同会社,神奈川県,厚木市,妻田南１丁目２１番２２号,,14,212,2430814,,,,,,,2023-06-20,1,,,,,ヤマショウ,0
1877,8021005012847,新規,0,2023-06-20,2023-06-20,特定非営利活動法人優タウン,,その他の設立登記法人,神奈川県,藤沢市,南藤沢７番２号沢滝ビル２階ｔｈｅＫＡＩＤＡＮｆｕｊｉｓａｗａ内,,14,205,2510055,,,,,,,2023-06-20,1,,,,,ユウタウン,0
1881,8030001154529,新規,0,2023-06-20,2023-06-20,株式会社関電気サービス,,株式会社,埼玉県,さいたま市緑区,大字下山口新田１７６番地,,11,109,3360925,,,,,,,2023-06-20,1,,,,,セキデンキサービス,0
1884,8030005021304,新規,0,2023-06-20,2023-06-20,尊光寺,,その他の設立登記法人,埼玉県,坂戸市,大字塚越１２０２番地３８,,11,239,3500209,,,,,,,2023-06-20,1,,,,,ソンコウジ,0
1889,8040003022823,新規,0,2023-06-20,2023-06-20,華騰合同会社,,合同会社,千葉県,市川市,市川２丁目３１番１９号コーポヤマカ１０２,,12,203,2720034,,,,,,,2023-06-20,1,,,,,カトウ,0
1892,8050001053010,新規,0,2023-06-20,2023-06-20,株式会社有園再建,,株式会社,茨城県,常総市,水海道高野町１９１番地３,,08,211,3030033,,,,,,,2023-06-20,1,,,,,アリゾノサイケン,0
1894,8050003007591,新規,0,2023-06-20,2023-06-20,合同会社Ｂａｂｙ　Ｄｕｃｋ,,合同会社,茨城県,那珂市,菅谷４３５２－１－１０２,,08,226,3110105,,,,,,,2023-06-20,1,,,,,ベビーダック,0
1898,8070003004983,新規,0,2023-06-20,2023-06-20,Ｈ＆Ｈ合同会社,,合同会社,群馬県,前橋市,本町２丁目３番１７号,,10,201,3710023,,,,,,,2023-06-20,1,,,,,エイチアンドエイチ,0
1899,8070003004991,新規,0,2023-06-20,2023-06-20,合同会社アシスト・エス,,合同会社,群馬県,藤岡市,藤岡１４９６番地１,,10,209,3750024,,,,,,,2023-06-20,1,,,,,,0
1903,8080101024081,新規,0,2023-06-20,2023-06-20,株式会社丸正塗装,,株式会社,静岡県,富士宮市,田中町６９９番地の１,,22,207,4180075,,,,,,,2023-06-20,1,,,,,マルショウトソウ,0
1904,8080103002829,新規,0,2023-06-20,2023-06-20,合同会社ＲＳＩ,,合同会社,静岡県,富士市,蓼原１９２番地の１グランディアＩＩ－４０３号,00130923,22,210,4160931,,,,,,,2023-06-20,1,,,,,アールエスアイ,0
1924,8120001255854,新規,0,2023-06-20,2023-06-20,株式会社ＴＯＵＳＥＮ,,株式会社,大阪府,大阪市東住吉区,住道矢田７丁目１０番１３号,,27,121,5460022,,,,,,,2023-06-20,1,,,,,トウセン,0
1925,8120001255870,新規,0,2023-06-20,2023-06-20,Ｌｏｇｉｃ株式会社,,株式会社,大阪府,大阪市東住吉区,住道矢田８丁目１８－１２,,27,121,5460022,,,,,,,2023-06-20,1,,,,,ロジック,0
1926,8120001255879,新規,0,2023-06-20,2023-06-20,株式会社ＲｅＬｉｆｅ　Ｐｒｏｐｅｒｔｙ,,株式会社,大阪府,大阪市中央区,安土町２丁目３番１３号大阪国際ビルディング１４階,,27,128,5410052,,,,,,,2023-06-20,1,,,,,リライフプロパティ,0
1929,8120003024324,新規,0,2023-06-20,2023-06-20,合同会社ＳＴＡＲＴ,,合同会社,大阪府,大阪市浪速区,幸町３丁目４番１０－３０６号,,27,111,5560021,,,,,,,2023-06-20,1,,,,,スタート,0
1931,8120005023695,新規,0,2023-06-20,2023-06-20,一般社団法人関西不動産管理,,その他の設立登記法人,大阪府,大阪市西成区,出城１丁目８番１９号３Ｆ,,27,122,5570024,,,,,,,2023-06-20,1,,,,,カンサイフドウサンカンリ,0
1936,8120101067745,新規,0,2023-06-20,2023-06-20,株式会社ＰＬＵＳ　ＯＮＥ,,株式会社,大阪府,堺市西区,鳳東町７丁８００番地１０Ｃｏｌｌｅｃｔｉｏｎ鳳東町５０７号,,27,144,5938324,,,,,,,2023-06-20,1,,,,,プラスワン,0
1939,8120901047681,新規,0,2023-06-20,2023-06-20,株式会社ＳＮＤ,,株式会社,大阪府,吹田市,青山台３丁目２７番２号,,27,205,5650875,,,,,,,2023-06-20,1,,,,,エスエヌディー,0
1942,8130001074568,新規,0,2023-06-20,2023-06-20,Ｍｏｔｏｋｉ蒸研株式会社,,株式会社,京都府,京都市上京区,下立売通七本松東入長門町４１４番地,,26,102,6028353,,,,,,,2023-06-20,1,,,,,モトキジョウケン,0
1949,8140001130584,新規,0,2023-06-20,2023-06-20,ＴＭＳ株式会社,,株式会社,兵庫県,尼崎市,塚口町１丁目１８番地の７メゾンパル８０４号,,28,202,6610002,,,,,,,2023-06-20,1,,,,,ティーエムエス,0
1953,8160001025122,新規,0,2023-06-20,2023-06-20,株式会社滋賀ブランド,,株式会社,滋賀県,大津市,鏡が浜４番１－１５０３号,,25,201,5200012,,,,,,,2023-06-20,1,,,,,シガブランド,0
1960,8180001156774,新規,0,2023-06-20,2023-06-20,株式会社ＧＧＴ,,株式会社,愛知県,名古屋市中村区,名駅１丁目１番１号ＪＰタワー２１Ｆ,,23,105,4500002,,,,,,,2023-06-20,1,,,,,ジージーティ,0
1961,8180001156799,新規,0,2023-06-20,2023-06-20,株式会社Ｐｌｕｓ　ｏｎｅ,,株式会社,愛知県,名古屋市東区,古出来１丁目５番２３号,,23,102,4610049,,,,,,,2023-06-20,1,,,,,プラスワン,0
1962,8180001156808,新規,0,2023-06-20,2023-06-20,株式会社ルートワン,,株式会社,愛知県,名古屋市緑区,桃山２丁目１７１番地,,23,114,4580002,,,,,,,2023-06-20,1,,,,,ルートワン,0
1964,8180003025390,新規,0,2023-06-20,2023-06-20,合同会社ＭａｒｉＨｅｒｍｅ,,合同会社,愛知県,名古屋市中村区,名駅４丁目２４番５号第２森ビル４０１,,23,105,4500002,,,,,,,2023-06-20,1,,,,,マリエルメ,0
1972,8200005013498,新規,0,2023-06-20,2023-06-20,一般社団法人リノポポキ,,その他の設立登記法人,岐阜県,本巣郡北方町,栄町２丁目４４番地,,21,421,5010427,,,,,,,2023-06-20,1,,,,,リノポポキ,0
1975,8220001025470,新規,0,2023-06-20,2023-06-20,株式会社ムロテック,,株式会社,石川県,能美郡川北町,字与九郎島ロ５番地１,,17,324,9231268,,,,,,,2023-06-20,1,,,,,ムロテック,0
1983,8240003006186,新規,0,2023-06-20,2023-06-20,合同会社Ｐｌａｎｅｔ,,合同会社,広島県,広島市安佐南区,祇園６丁目１９－１０Ｆｉｏｒｅ１０４,,34,105,7310138,,,,,,,2023-06-20,1,,,,,プラネット,0
1985,8250001020147,新規,0,2023-06-20,2023-06-20,瀬戸内アイランドウイスキー株式会社,,株式会社,山口県,大島郡周防大島町,大字伊保田１１９５番地,,35,305,7422601,,,,,,,2023-06-20,1,,,,,セトウチアイランドウイスキー,0
1990,8260003004337,新規,0,2023-06-20,2023-06-20,グリーンプロ合同会社,,合同会社,岡山県,倉敷市,林１９０５番地１,,33,202,7100142,,,,,,,2023-06-20,1,,,,,グリーンプロ,0
1992,8290001101975,新規,0,2023-06-20,2023-06-20,株式会社食堂,,株式会社,福岡県,福岡市西区,愛宕２丁目３番２号,,40,135,8190015,,,,,,,2023-06-20,1,,,,,ショクドウ,0
1994,8290003014044,新規,0,2023-06-20,2023-06-20,晴る家こうむ店合同会社,,合同会社,福岡県,福岡市中央区,荒戸２丁目１番８号高橋ビル２０１号,,40,133,8100062,,,,,,,2023-06-20,1,,,,,ハレルヤコウムテン,0
2001,8310001018473,新規,0,2023-06-20,2023-06-20,株式会社右門建匠,,株式会社,長崎県,佐世保市,野中町４２８番地３３,,42,202,8570142,,,,,,,2023-06-20,1,,,,,ウモンケンショウ,0
2010,8350001018412,新規,0,2023-06-20,2023-06-20,延岡市水産物消費拡大推進協議会株式会社,,株式会社,宮崎県,延岡市,北浦町古江２９２８番地５,,45,203,8890301,,,,,,,2023-06-20,1,,,,,ノベオカシスイサンブツショウヒカクダイスイシンキョウギカイ,0
2038,8700150117581,新規,0,2023-06-20,2023-06-20,ＹｏｎｇＫａｎｇＳｈｉＷｅｉＳｅｎＭａｏＹｉＹｏｕＸｉａｎＧｏｎｇＳｉ,00130910,外国会社等,,,,,,,,３　ＸｉＱｖ　Ｃｈａｎｇｃｈｅｎｇ　Ｄｏｎｇｃｈｅｎｇ　Ｓｔｒｅｅｔ　Ｙｏｎｇｋａｎｇ　Ｚｈｅｊｉａｎｇ,,,,,,2023-06-20,1,,,,,ヨンカンシーウエイセンマオイーヨウシエンゴンスー,0
2043,9010001236229,新規,0,2023-06-20,2023-06-20,株式会社ＭＭ,,株式会社,東京都,中央区,日本橋人形町３丁目１２番７－５０１号,,13,102,1030013,,,,,,,2023-06-20,1,,,,,エムエム,0
2044,9010001236261,新規,0,2023-06-20,2023-06-20,株式会社ＡＱ　Ｐａｒｔｎｅｒｓ,,株式会社,東京都,千代田区,神田松永町１３ＶＯＲＴ秋葉原ＩＩ,00130918,13,101,1010023,,,,,,,2023-06-20,1,,,,,エーキューパートナーズ,0
2046,9010003040892,新規,0,2023-06-20,2023-06-20,Ｄｅｎｔ．Ｅｄｕ合同会社,,合同会社,東京都,文京区,関口１丁目１０番２０－６０５号,,13,105,1120014,,,,,,,2023-06-20,1,,,,,デントエデュ,0
2047,9010003040950,新規,0,2023-06-20,2023-06-20,合同会社Ｄａｎｓｈｉｋｏ　Ｌａｂ,,合同会社,東京都,千代田区,平河町１丁目６番１５号ＵＳビル８Ｆ,,13,101,1020093,,,,,,,2023-06-20,1,,,,,ダンシコウラボ,0
2057,9010401175084,新規,0,2023-06-20,2023-06-20,株式会社ＡＩプロダクション,,株式会社,東京都,港区,元麻布３丁目１番３５号ＶＯＲＴ元麻布５階,,13,103,1060046,,,,,,,2023-06-20,1,,,,,エーアイプロダクション,0
2058,9010401175134,新規,0,2023-06-20,2023-06-20,株式会社Ｃｌｏｕｄｙ,,株式会社,東京都,港区,白金２丁目５番５－７０３号,,13,103,1080072,,,,,,,2023-06-20,1,,,,,クラウディ,0
2059,9010401175150,新規,0,2023-06-20,2023-06-20,株式会社ＣＦＯサーチ,,株式会社,東京都,港区,北青山２丁目１２番８号,,13,103,1070061,,,,,,,2023-06-20,1,,,,,シーエフオーサーチ,0
2060,9010403030353,新規,0,2023-06-20,2023-06-20,ＳＬＯＷＲＡＤＩＣＡＬ合同会社,,合同会社,東京都,港区,白金台４丁目５番４号コンシェリア白金台９０４,,13,103,1080071,,,,,,,2023-06-20,1,,,,,スローラディカル,0
2063,9010701044435,新規,0,2023-06-20,2023-06-20,株式会社ファーストクラス,,株式会社,東京都,品川区,西五反田２丁目１３番１号,,13,109,1410031,,,,,,,2023-06-20,1,,,,,ファーストクラス,0
2072,9011001155105,新規,0,2023-06-20,2023-06-20,株式会社ティヒ,,株式会社,東京都,目黒区,鷹番３丁目２１番地１４－３０３号,,13,110,1520004,,,,,,,2023-06-20,1,,,,,ティヒ,0
2073,9011003017022,新規,0,2023-06-20,2023-06-20,ベンテラ日本合同会社,,合同会社,東京都,渋谷区,桜丘町２６番１号セルリアンタワー１５階,,13,113,1500031,,,,,,,2023-06-20,1,,,,,ベンテラニホン,0
2080,9011103013169,新規,0,2023-06-20,2023-06-20,中川ファミリーオフィス合同会社,,合同会社,東京都,新宿区,西落合３丁目２２番２２号,,13,104,1610031,,,,,,,2023-06-20,1,,,,,ナカガワファミリーオフィス,0
2087,9011603003958,新規,0,2023-06-20,2023-06-20,合同会社ＷＩ,,合同会社,東京都,練馬区,東大泉５丁目１－８,,13,120,1780063,,,,,,,2023-06-20,1,,,,,ダブルアイ,0
2089,9011701026349,新規,0,2023-06-20,2023-06-20,株式会社長浜工業,,株式会社,東京都,江戸川区,一之江８丁目３番２号エムエムビル３０２,,13,123,1320024,,,,,,,2023-06-20,1,,,,,ナガハマコウギョウ,0
2091,9012705002360,新規,0,2023-06-20,2023-06-20,一般社団法人Ｒｕｐｉｎａｓｕ　ＬＡＢ,,その他の設立登記法人,東京都,小平市,学園西町３丁目２１番２９－３号,,13,211,1870045,,,,,,,2023-06-20,1,,,,,ルピナスラボ,0
2096,9013301050935,新規,0,2023-06-20,2023-06-20,日本佐藤健康研究院株式会社,,株式会社,東京都,豊島区,南大塚１丁目３６－１６新田ハイツ２０１,,13,116,1700005,,,,,,,2023-06-20,1,,,,,ニホンサトウケンコウケンキュウイン,0
2098,9020001152136,新規,0,2023-06-20,2023-06-20,Ｓｅａｋｅｎ　Ｖｉｌｌａｇｅ株式会社,,株式会社,神奈川県,横浜市港北区,仲手原２丁目２－１７,,14,109,2220023,,,,,,,2023-06-20,1,,,,,シーケンヴィレッジ,0
2099,9020001152185,新規,0,2023-06-20,2023-06-20,ワールドグルメ株式会社,,株式会社,神奈川県,横浜市磯子区,杉田１丁目１１－３０,,14,107,2350033,,,,,,,2023-06-20,1,,,,,ワールドグルメ,0
2108,9020003024052,新規,0,2023-06-20,2023-06-20,Ｖｉｃｔｏｒｉａ合同会社,,合同会社,神奈川県,川崎市宮前区,平２丁目１２－１３－５０４センチュリータウン,,14,136,2160022,,,,,,,2023-06-20,1,,,,,ヴィクトーリア,0
2109,9020003024077,新規,0,2023-06-20,2023-06-20,合同会社フイリー,,合同会社,神奈川県,川崎市麻生区,高石４丁目３２－２１,,14,137,2150003,,,,,,,2023-06-20,1,,,,,フイリー,0
2118,9021001079369,新規,0,2023-06-20,2023-06-20,株式会社ザイ・テックエンジ,,株式会社,神奈川県,鎌倉市,材木座６丁目２３番５号,,14,204,2480013,,,,,,,2023-06-20,1,,,,,ザイテックエンジ,0
2119,9021001079385,新規,0,2023-06-20,2023-06-20,株式会社ＭＨ,,株式会社,神奈川県,平塚市,代官町２１－１６－３０３,,14,203,2540807,,,,,,,2023-06-20,1,,,,,エムエイチ,0
2122,9021003013210,新規,0,2023-06-20,2023-06-20,Ｒｅ‐Ｐｏｉｎｔ合同会社,,合同会社,神奈川県,海老名市,東柏ケ谷１丁目２番１８号,,14,215,2430401,,,,,,,2023-06-20,1,,,,,リポイント,0
2139,9040001128919,新規,0,2023-06-20,2023-06-20,株式会社信福総合建設,,株式会社,千葉県,千葉市若葉区,桜木２丁目２５番２７号桜木ハイリビング弐番館４０２号,,12,104,2640028,,,,,,,2023-06-20,1,,,,,シンプクソウゴウケンセツ,0
2140,9040001128927,新規,0,2023-06-20,2023-06-20,ＨＥＩＫＯＵＳＥＮ株式会社,,株式会社,千葉県,野田市,木間ケ瀬７３０番地８４,,12,208,2700222,,,,,,,2023-06-20,1,,,,,ヘイコウセン,0
2144,9040003022822,新規,0,2023-06-20,2023-06-20,合同会社希来里,,合同会社,千葉県,大網白里市,みずほ台１丁目１２－６,,12,239,2993234,,,,,,,2023-06-20,1,,,,,キラリ,0
2147,9050005013281,新規,0,2023-06-20,2023-06-20,一般社団法人馬のしっぽ,,その他の設立登記法人,茨城県,つくば市,谷田部７７７番地１,,08,220,3050861,,,,,,,2023-06-20,1,,,,,ウマノシッポ,0
2150,9070003004990,新規,0,2023-06-20,2023-06-20,合同会社紺屋町,,合同会社,群馬県,前橋市,千代田町４丁目６番５号,,10,201,3710022,,,,,,,2023-06-20,1,,,,,コンヤマチ,0
2152,9080101024080,新規,0,2023-06-20,2023-06-20,株式会社オーサム企画,,株式会社,静岡県,富士市,中島５１０番地の３,,22,210,4160907,,,,,,,2023-06-20,1,,,,,オーサムキカク,0
2168,9110001037625,新規,0,2023-06-20,2023-06-20,株式会社ＮＫｐｒｏｐｅｒｔｙ,,株式会社,新潟県,新潟市西区,青山１丁目１番１７号,,15,107,9502002,,,,,,,2023-06-20,1,,,,,エヌケイプロパティ,0
2169,9110001037633,新規,0,2023-06-20,2023-06-20,株式会社ラノスインターナショナル,,株式会社,新潟県,新潟市東区,向陽２丁目４番１０号,,15,102,9500011,,,,,,,2023-06-20,1,,,,,ラノスインターナショナル,0
2178,9120001255795,新規,0,2023-06-20,2023-06-20,株式会社Ｂｅｅ,,株式会社,大阪府,大阪市西区,靱本町１丁目１６番２０号,,27,106,5500004,,,,,,,2023-06-20,1,,,,,ビー,0
2182,9120003024323,新規,0,2023-06-20,2023-06-20,合同会社スマイル,,合同会社,大阪府,大阪市平野区,瓜破西３丁目２番２１号１０２,,27,126,5470025,,,,,,,2023-06-20,1,,,,,スマイル,0
2195,9122001037091,新規,0,2023-06-20,2023-06-20,株式会社テクノホーム,,株式会社,大阪府,東大阪市,若江北町１丁目１５番２７号Ａ１０２,,27,227,5780945,,,,,,,2023-06-20,1,,,,,テクノホーム,0
2198,9130001074575,新規,0,2023-06-20,2023-06-20,株式会社カナカ,,株式会社,京都府,京都市南区,久世大藪町５番地８桂川ハウス希１Ｆ,,26,107,6010000,,,,,,,2023-06-20,1,,,,,カナカ,0
2201,9140001130567,新規,0,2023-06-20,2023-06-20,株式会社二川畜産,,株式会社,兵庫県,加古川市,平岡町二俣２４９番地の１,,28,210,6750111,,,,,,,2023-06-20,1,,,,,フタガワチクサン,0
2216,9180005020257,新規,0,2023-06-20,2023-06-20,一般社団法人ＫＣシキタ,,その他の設立登記法人,愛知県,名古屋市緑区,鎌倉台２丁目１７０９番地,,23,114,4580829,,,,,,,2023-06-20,1,,,,,ケーシーシキタ,0
2217,9180301037483,新規,0,2023-06-20,2023-06-20,金太郎錦鯉株式会社,,株式会社,愛知県,豊田市,中金町如来１３２番地１,,23,211,4700312,,,,,,,2023-06-20,1,,,,,キンタロウニシキコイ,0
2221,9190001030507,新規,0,2023-06-20,2023-06-20,Ｃ‐ｐｕｂｌｉｃ株式会社,,株式会社,三重県,四日市市,諏訪栄町６番１５号旭ビル,,24,202,5100086,,,,,,,2023-06-20,1,,,,,シーパブリック,0
2222,9200005013497,新規,0,2023-06-20,2023-06-20,一般社団法人共創福祉ひだ,,その他の設立登記法人,岐阜県,飛騨市,古川町下気多９９０番地,,21,217,5094213,,,,,,,2023-06-20,1,,,,,キョウソウフクシヒダ,0
2228,9240005015597,新規,0,2023-06-20,2023-06-20,特定非営利活動法人ＩＰＧＣ‐Ｈｉｒｏｓｈｉｍａ,,その他の設立登記法人,広島県,広島市中区,本川町３丁目１番５号,,34,101,7300802,,,,,,,2023-06-20,1,,,,,アイピージーシーヒロシマ,0
2232,9260003004336,新規,0,2023-06-20,2023-06-20,合同会社ｙｍコーポレーション,,合同会社,岡山県,岡山市北区,高柳西町２－１７・２階,,33,101,7000035,,,,,,,2023-06-20,1,,,,,ワイエムコーポレーション,0
2233,9270001008800,新規,0,2023-06-20,2023-06-20,株式会社ＬＡＬ,,株式会社,鳥取県,鳥取市,江津７０１番地３,,31,201,6800901,,,,,,,2023-06-20,1,,,,,エルエイエル,0
2235,9290001101982,新規,0,2023-06-20,2023-06-20,株式会社Ａｈｉｒｕ５５,,株式会社,福岡県,福岡市中央区,平尾２丁目３番２４号,,40,133,8100014,,,,,,,2023-06-20,1,,,,,アヒルゴジュウゴ,0
2236,9290001101990,新規,0,2023-06-20,2023-06-20,株式会社綾香,,株式会社,福岡県,福岡市中央区,薬院１丁目１５番２３－７０７号,,40,133,8100022,,,,,,,2023-06-20,1,,,,,アヤカ,0
2240,9310001018472,新規,0,2023-06-20,2023-06-20,株式会社よっしー,,株式会社,長崎県,諫早市,西里町２４番地８,,42,204,8590312,,,,,,,2023-06-20,1,,,,,ヨッシー,0
2247,9360001032188,新規,0,2023-06-20,2023-06-20,ＬｉＦＥ　ＴｉＭＥ株式会社,,株式会社,沖縄県,那覇市,松尾２丁目７番２６号,,47,201,9000014,,,,,,,2023-06-20,1,,,,,ライフタイム,0
2248,9360003013046,新規,0,2023-06-20,2023-06-20,合同会社ＡＬＣＡＮＳＡＲ,,合同会社,沖縄県,宜野湾市,真栄原３丁目８番３号ハイランドマンション７階,,47,205,9012215,,,,,,,2023-06-20,1,,,,,アルカンサ,0
2253,9380003005487,新規,0,2023-06-20,2023-06-20,合同会社ＴＨＥ　ＯＴＨＥＲ　ＯＮＥ,,合同会社,福島県,いわき市,平上荒川字長尾２７９－３太陽書店いわき店,,07,204,9708034,,,,,,,2023-06-20,1,,,,,ジアザーワン,0
2261,9410001013521,新規,0,2023-06-20,2023-06-20,ウィズ株式会社,,株式会社,秋田県,北秋田市,栄字中綱８９番地２,,05,213,0183302,,,,,,,2023-06-20,1,,,,,ウィズ,0
2269,9450001014020,新規,0,2023-06-20,2023-06-20,株式会社地域振興開発,,株式会社,北海道,稚内市,中央４丁目１５番３９－１０１号,,01,214,0970022,,,,,,,2023-06-20,1,,,,,チイキシンコウカイハツ,0
2274,9700150117580,新規,0,2023-06-20,2023-06-20,ｌｏｎｇｙａｎｓｈｉｍｏｍｉｍａｏｙｉｙｏｕｘｉａｎｇｏｎｇｓｉ,,外国会社等,,,,,,,,ｆｕｊｉａｎｓｈｅｎｇｌｏｎｇｙａｎｓｈｉｘｉｎｌｕｏｑｕｎａｎｃｈｅｎｇｘｉａｏｘｉｘｉａｏｘｉｌｕ１１ｈａｏ３ｚｈｕａｎｇ１ｔｉ３００３ｓｈｉ,,,,,,2023-06-20,1,,,,,ロンイエンシーモーミーマオイーヨウシエンゴンスー,0
