sequenceNumber,corporateNumber,process,correct,updateDate,changeDate,name,nameImageId,kind,prefectureName,cityName,streetNumber,addressImageId,prefectureCode,cityCode,postCode,addressOutside,addressOutsideImageId,closeDate,closeCause,successorCorporateNumber,changeCause,assignmentDate,latest,enName,enPrefectureName,enCityName,enAddressOutside,furigana,hihyoji
7,1010001222120,新規,0,2021-10-28,2021-10-28,株式会社みんなのアニメ学,,株式会社,東京都,文京区,春日２丁目２－２,,13,105,1120003,,,,,,,2021-10-28,1,,,,,ミンナノアニメガク,0
8,1010001222129,新規,0,2021-10-28,2021-10-28,Ｓｍａｎａｇｅｍｅｎｔ株式会社,,株式会社,東京都,中央区,晴海２丁目３番３０－１３０６号,,13,102,1040053,,,,,,,2021-10-28,1,,,,,エスマネジメント,0
9,1010001222137,新規,0,2021-10-28,2021-10-28,株式会社ＬＩＮＫＡＧＥ,,株式会社,東京都,千代田区,丸の内１丁目８－３丸の内トラストタワー本館２０階,,13,101,1000005,,,,,,,2021-10-28,1,,,,,リンケージ,0
10,1010001222145,新規,0,2021-10-28,2021-10-28,株式会社ＴＵＳＫ,,株式会社,東京都,千代田区,神田松永町１３番地ＶＯＲＴ秋葉原ＩＩ,00124695,13,101,1010023,,,,,,,2021-10-28,1,,,,,タスク,0
14,1010003036106,新規,0,2021-10-28,2021-10-28,合同会社ＰＳレジファンドＡ号,,合同会社,東京都,千代田区,丸の内３丁目１番１号東京共同会計事務所内,,13,101,1000005,,,,,,,2021-10-28,1,,,,,ピーエスレジファンドエーゴウ,0
26,1010501048024,新規,0,2021-10-28,2021-10-28,株式会社戦略経営パートナーズ,,株式会社,東京都,台東区,東上野１丁目７番７号小林第一ビル,,13,106,1100015,,,,,,,2021-10-28,1,,,,,センリャクケイエイパートナーズ,0
28,1010703005987,新規,0,2021-10-28,2021-10-28,合同会社ｂｅｙｏｎｄ,,合同会社,東京都,品川区,上大崎３丁目１番２号,,13,109,1410021,,,,,,,2021-10-28,1,,,,,ビヨンド,0
29,1010705003287,新規,0,2021-10-28,2021-10-28,一般社団法人世界極真護身空手道連盟,,その他の設立登記法人,東京都,品川区,南大井６丁目１６番１０号第２下川ビル７階,,13,109,1400013,,,,,,,2021-10-28,1,,,,,セカイキョクシンゴシンカラテドウレンメイ,0
31,1010901049687,新規,0,2021-10-28,2021-10-28,株式会社Ｏｎｅ　ｂｙ　ｏｎｅ,,株式会社,東京都,世田谷区,八幡山３丁目２２番２８号,,13,112,1560056,,,,,,,2021-10-28,1,,,,,ワンバイワン,0
41,1011001143604,新規,0,2021-10-28,2021-10-28,ＶＲＭテック株式会社,,株式会社,東京都,渋谷区,神宮前６丁目２８番９号東武ビル,,13,113,1500001,,,,,,,2021-10-28,1,,,,,ブイアールエムテック,0
43,1011003013607,新規,0,2021-10-28,2021-10-28,アレテー合同会社,,合同会社,東京都,渋谷区,渋谷３丁目１３－５ＢＰＲレジデンス渋谷１００７,,13,113,1500002,,,,,,,2021-10-28,1,,,,,アレテー,0
48,1011301027291,新規,0,2021-10-28,2021-10-28,株式会社Ｎｅｗ　Ｄｒｅａｍ,,株式会社,東京都,杉並区,桃井１丁目５番１０号ハイツオーキッド１０６,,13,115,1670034,,,,,,,2021-10-28,1,,,,,ニュードリーム,0
53,1011403003488,新規,0,2021-10-28,2021-10-28,ナイトランプ合同会社,,合同会社,東京都,板橋区,板橋４丁目１３番２号板橋ビル３０１,,13,119,1730004,,,,,,,2021-10-28,1,,,,,ナイトランプ,0
56,1011701024806,新規,0,2021-10-28,2021-10-28,株式会社Ｎ－ｔｅｃｈ,,株式会社,東京都,江戸川区,新堀１丁目４番９号,,13,123,1320001,,,,,,,2021-10-28,1,,,,,エヌテック,0
58,1011801039893,新規,0,2021-10-28,2021-10-28,角哲重機株式会社,,株式会社,東京都,足立区,鹿浜４丁目２６番１８号,,13,121,1230864,,,,,,,2021-10-28,1,,,,,カドアキジュウキ,0
61,1012801021189,新規,0,2021-10-28,2021-10-28,株式会社こむっしゅ,,株式会社,東京都,武蔵村山市,三ツ木１丁目２４番地の２１,,13,223,2080032,,,,,,,2021-10-28,1,,,,,コムッシュ,0
66,1013303005878,新規,0,2021-10-28,2021-10-28,合同会社Ｓ,,合同会社,東京都,豊島区,南長崎２丁目２５番６号,,13,116,1710052,,,,,,,2021-10-28,1,,,,,エス,0
76,1020001143662,新規,0,2021-10-28,2021-10-28,株式会社ティ・エヌ,,株式会社,神奈川県,横浜市港北区,綱島西２丁目１９番１１号,,14,109,2230053,,,,,,,2021-10-28,1,,,,,ティエヌ,0
77,1020001143687,新規,0,2021-10-28,2021-10-28,株式会社ｍｏｒｉｓｏ．,,株式会社,神奈川県,横浜市緑区,中山３丁目１２番１６号,,14,113,2260019,,,,,,,2021-10-28,1,,,,,モリソ,0
80,1020003020711,新規,0,2021-10-28,2021-10-28,サイドバイサイド経営コンサルティング合同会社,,合同会社,神奈川県,横浜市港北区,日吉５丁目２７番１７－５０３号,,14,109,2230061,,,,,,,2021-10-28,1,,,,,サイドバイサイドケイエイコンサルティング,0
84,1021001074336,新規,0,2021-10-28,2021-10-28,株式会社イーリス,,株式会社,神奈川県,伊勢原市,下落合５８番地の１０,,14,214,2591121,,,,,,,2021-10-28,1,,,,,イーリス,0
85,1021003011031,新規,0,2021-10-28,2021-10-28,合同会社Ｋ＆Ｙ,,合同会社,神奈川県,小田原市,飯泉１４２１番地の４,,14,206,2500863,,,,,,,2021-10-28,1,,,,,ケーアンドワイ,0
86,1021005012333,新規,0,2021-10-28,2021-10-28,一般社団法人ワークロイド・ユーザーズ協会,,その他の設立登記法人,神奈川県,藤沢市,西富７１７番地の５ベルヴィ藤沢５０２号,,14,205,2510001,,,,,,,2021-10-28,1,,,,,,0
96,1030003018176,新規,0,2021-10-28,2021-10-28,合同会社和,,合同会社,埼玉県,越谷市,大字下間久里４９８－３０,,11,222,3430045,,,,,,,2021-10-28,1,,,,,ナゴミ,0
103,1040001120791,新規,0,2021-10-28,2021-10-28,株式会社ホーキーメディカル,,株式会社,千葉県,千葉市美浜区,若葉３丁目１番地１幕張ベイパークスカイグランドタワー１０１２号,,12,106,2610014,,,,,,,2021-10-28,1,,,,,ホーキーメディカル,0
107,1040005021383,新規,0,2021-10-28,2021-10-28,医療法人社団翔優会,,その他の設立登記法人,千葉県,流山市,大字東深井８７１番地の１８５,,12,220,2700101,,,,,,,2021-10-28,1,,,,,ショウユウカイ,0
116,1070001038577,新規,0,2021-10-28,2021-10-28,株式会社富沢自動車販売,,株式会社,群馬県,前橋市,日吉町４丁目１６番９号,,10,201,3710017,,,,,,,2021-10-28,1,,,,,トミザワジドウシャハンバイ,0
121,1080001024527,新規,0,2021-10-28,2021-10-28,株式会社大塚板金工業,00124693,株式会社,静岡県,藤枝市,東町１２番２５号,,22,214,4260038,,,,,,,2021-10-28,1,,,,,オオツカバンキンコウギョウ,0
123,1080003002670,新規,0,2021-10-28,2021-10-28,合同会社ＬＩＧＥＮＴＡ,,合同会社,静岡県,静岡市葵区,紺屋町１７－１葵タワー１Ｆ,,22,101,4200852,,,,,,,2021-10-28,1,,,,,リゼンタ,0
124,1080101022876,新規,0,2021-10-28,2021-10-28,株式会社ＫＵＢＯＴＡ,,株式会社,静岡県,沼津市,東椎路２５１番地の１２,,22,203,4100302,,,,,,,2021-10-28,1,,,,,クボタ,0
128,1080401025447,新規,0,2021-10-28,2021-10-28,株式会社ＡｃｃＤｉｇｉｔａｌ,,株式会社,静岡県,浜松市西区,入野町１６４２２番地の２テラス土屋Ｂ－１,,22,133,4328061,,,,,,,2021-10-28,1,,,,,アックデジタル,0
130,1080405007400,新規,0,2021-10-28,2021-10-28,特定非営利活動法人ＥＤｉＴ,,その他の設立登記法人,静岡県,掛川市,長谷２丁目２１番地,,22,213,4360047,,,,,,,2021-10-28,1,,,,,エディット,0
132,1100001034762,新規,0,2021-10-28,2021-10-28,なかの資源循環株式会社,,株式会社,長野県,中野市,大字三ツ和１１８５番地３,,20,211,3830043,,,,,,,2021-10-28,1,,,,,ナカノシゲンジュンカン,0
134,1120001241407,新規,0,2021-10-28,2021-10-28,株式会社Ｎ－Ｓａｖｉｏｒ,,株式会社,大阪府,大阪市都島区,内代町１丁目７番１１号,,27,102,5340013,,,,,,,2021-10-28,1,,,,,エヌセイバー,0
135,1120001241448,新規,0,2021-10-28,2021-10-28,株式会社小林商事,,株式会社,大阪府,大阪市東成区,大今里南１丁目６番１－９０４号,,27,115,5370013,,,,,,,2021-10-28,1,,,,,コバヤシショウジ,0
136,1120001241464,新規,0,2021-10-28,2021-10-28,株式会社ＢＲＡＩＮＳ,,株式会社,大阪府,大阪市中央区,内淡路町２丁目１番１０号,,27,128,5400038,,,,,,,2021-10-28,1,,,,,ブレインズ,0
140,1120101064550,新規,0,2021-10-28,2021-10-28,泉北リース株式会社,,株式会社,大阪府,泉北郡忠岡町,忠岡北３丁目３－３６,,27,341,5950811,,,,,,,2021-10-28,1,,,,,センボクリース,0
141,1120105009469,新規,0,2021-10-28,2021-10-28,一般社団法人福祉総合支援協会,,その他の設立登記法人,大阪府,泉大津市,戎町６番１号,,27,206,5950041,,,,,,,2021-10-28,1,,,,,フクシソウゴウシエンキョウカイ,0
144,1120903003887,新規,0,2021-10-28,2021-10-28,合同会社クロノスクロス,,合同会社,大阪府,豊中市,新千里南町２丁目１９番１号,,27,203,5600084,,,,,,,2021-10-28,1,,,,,クロノスクロス,0
149,1130001070409,新規,0,2021-10-28,2021-10-28,株式会社ＳＥＶＥＮ　ＣＯＬＯＲＳ,,株式会社,京都府,京都市中京区,河原町通三条下る二丁目東入北車屋町２７１番地３アセンドビル２階,,26,104,6040000,,,,,,,2021-10-28,1,,,,,セブンカラーズ,0
155,1140003016920,新規,0,2021-10-28,2021-10-28,合同会社Ｌｕｍｉｎｏｕｓ,,合同会社,兵庫県,三田市,あかしあ台２丁目１９番地１４,,28,219,6691323,,,,,,,2021-10-28,1,,,,,ルミナス,0
157,1170001016845,新規,0,2021-10-28,2021-10-28,株式会社Ａｉｍ,,株式会社,和歌山県,田辺市,中辺路町川合１７２０－２,,30,206,6461417,,,,,,,2021-10-28,1,,,,,エイム,0
161,1180001148456,新規,0,2021-10-28,2021-10-28,りゅうこう株式会社,,株式会社,愛知県,名古屋市守山区,元郷１丁目１１０１番地大森東住宅１６棟３０３号,,23,113,4630025,,,,,,,2021-10-28,1,,,,,リュウコウ,0
162,1180001148464,新規,0,2021-10-28,2021-10-28,株式会社Ｒｅｖｅ,,株式会社,愛知県,名古屋市東区,泉１丁目６番２０号,,23,102,4610001,,,,,,,2021-10-28,1,,,,,レーヴ,0
163,1180001148472,新規,0,2021-10-28,2021-10-28,ＪＳＦ株式会社,,株式会社,愛知県,名古屋市港区,藤前３丁目３０４番地,,23,111,4550855,,,,,,,2021-10-28,1,,,,,ジェイエスエフ,0
167,1180301035552,新規,0,2021-10-28,2021-10-28,株式会社庭雅,,株式会社,愛知県,豊川市,千両町糸宅６４番地,,23,207,4420001,,,,,,,2021-10-28,1,,,,,ニワマサ,0
168,1180301035560,新規,0,2021-10-28,2021-10-28,株式会社ｃｏｒａｚｏｎ,,株式会社,愛知県,豊田市,吉原町鶴喰４０番地３,,23,211,4730916,,,,,,,2021-10-28,1,,,,,コラソン,0
172,1210001018671,新規,0,2021-10-28,2021-10-28,坂本ホールディングス株式会社,,株式会社,福井県,坂井市,三国町新保第２０号１７番地,,18,210,9130031,,,,,,,2021-10-28,1,,,,,サカモトホールディングス,0
184,1260001036132,新規,0,2021-10-28,2021-10-28,小林建材株式会社,,株式会社,岡山県,真庭市,開田３３９番地,,33,214,7193111,,,,,,,2021-10-28,1,,,,,コバヤシケンザイ,0
194,1290001095175,新規,0,2021-10-28,2021-10-28,Ｌｉｆｅ　Ｔｅｃｈ　Ｗｏｒｋ株式会社,,株式会社,福岡県,福岡市中央区,唐人町１丁目６番１７号,,40,133,8100063,,,,,,,2021-10-28,1,,,,,ライフテックワーク,0
198,1290003011758,新規,0,2021-10-28,2021-10-28,ＮＤＴ合同会社,,合同会社,福岡県,久留米市,天神町１４２－１－５０２号,,40,203,8300033,,,,,,,2021-10-28,1,,,,,エヌディティ,0
200,1300001012681,新規,0,2021-10-28,2021-10-28,株式会社ＭＩＴＵＭＡＴＵ,,株式会社,佐賀県,杵島郡白石町,大字堤１２７１番地１,,41,425,8491104,,,,,,,2021-10-28,1,,,,,ミツマツ,0
205,1320001018685,新規,0,2021-10-28,2021-10-28,光不動産株式会社,,株式会社,大分県,別府市,石垣東８丁目１番１３号,,44,202,8740919,,,,,,,2021-10-28,1,,,,,ヒカリフドウサン,0
206,1320003003636,新規,0,2021-10-28,2021-10-28,合同会社ゆるぎ,,合同会社,大分県,大分市,王子山の手町２４番３号,,44,201,8700813,,,,,,,2021-10-28,1,,,,,ユルギ,0
209,1340001024203,新規,0,2021-10-28,2021-10-28,株式会社Ｎ．ｗｏｒｋｓ,,株式会社,鹿児島県,鹿児島市,魚見町１１３番地６,,46,201,8910112,,,,,,,2021-10-28,1,,,,,エヌワークス,0
210,1360001029555,新規,0,2021-10-28,2021-10-28,株式会社どぅし南ぬ島,,株式会社,沖縄県,石垣市,字宮良１０５３－６６,,47,207,9070243,,,,,,,2021-10-28,1,,,,,ドゥシパイヌシマ,0
211,1360003011528,新規,0,2021-10-28,2021-10-28,なみ合同会社,,合同会社,沖縄県,那覇市,前島３丁目２５番２号泊ポートビル１Ｆ,,47,201,9000016,,,,,,,2021-10-28,1,,,,,ナミ,0
212,1370001047762,新規,0,2021-10-28,2021-10-28,株式会社ＯｎｅＣｒｅｓｔ,,株式会社,宮城県,仙台市宮城野区,蒲生１丁目１０６番地の５,,04,102,9830002,,,,,,,2021-10-28,1,,,,,ワンクレスト,0
213,1380001032292,新規,0,2021-10-28,2021-10-28,株式会社秋山林業,,株式会社,福島県,東白川郡棚倉町,大字強梨字高松平１９６番地,,07,481,9636144,,,,,,,2021-10-28,1,,,,,アキヤマリンギョウ,0
215,1380005012497,新規,0,2021-10-28,2021-10-28,特定非営利活動法人だるま,,その他の設立登記法人,福島県,福島市,松川町美郷３丁目１８番地１,,07,201,9601242,,,,,,,2021-10-28,1,,,,,ダルマ,0
217,1400003002852,新規,0,2021-10-28,2021-10-28,合同会社ホームクリエイト,,合同会社,岩手県,盛岡市,箱清水１丁目２８番６号コーポサイトウ２－１１号,,03,201,0200116,,,,,,,2021-10-28,1,,,,,ホームクリエイト,0
224,1430001085244,新規,0,2021-10-28,2021-10-28,株式会社わっか,,株式会社,北海道,石狩市,新町６,,01,235,0613373,,,,,,,2021-10-28,1,,,,,ワッカ,0
225,1430001085252,新規,0,2021-10-28,2021-10-28,株式会社サニテーションメンテナンス,,株式会社,北海道,札幌市東区,東苗穂九条３丁目１番２号,,01,103,0070809,,,,,,,2021-10-28,1,,,,,サニテーションメンテナンス,0
226,1430001085260,新規,0,2021-10-28,2021-10-28,株式会社アストラリス,,株式会社,北海道,札幌市中央区,南六条西１３丁目３番１－４０６号,,01,101,0640806,,,,,,,2021-10-28,1,,,,,アストラリス,0
230,1440001008971,新規,0,2021-10-28,2021-10-28,株式会社トライブ,,株式会社,北海道,函館市,銭亀町２８３番地７９,,01,202,0420922,,,,,,,2021-10-28,1,,,,,トライブ,0
231,1450001013517,新規,0,2021-10-28,2021-10-28,株式会社ＴＩＰ,,株式会社,北海道,天塩郡豊富町,字豊徳６２８７番地の１,,01,516,0984106,,,,,,,2021-10-28,1,,,,,チップ,0
232,1460003000867,新規,0,2021-10-28,2021-10-28,合同会社小林惣菜店,,合同会社,北海道,釧路市,大川町８番２９号,,01,206,0850837,,,,,,,2021-10-28,1,,,,,,0
235,1480001011534,新規,0,2021-10-28,2021-10-28,時本電設工業株式会社,,株式会社,徳島県,徳島市,国府町矢野３２５番地７,,36,201,7793126,,,,,,,2021-10-28,1,,,,,トキモトデンセツコウギョウ,0
239,1500001023758,新規,0,2021-10-28,2021-10-28,西坂工業株式会社,,株式会社,愛媛県,今治市,大西町紺原甲１１６８番地１,,38,202,7992202,,,,,,,2021-10-28,1,,,,,ニシザカコウギョウ,0
250,2010001222103,新規,0,2021-10-28,2021-10-28,株式会社Ｗｅｌｌ　Ｅｄｉｔｉｏｎ,,株式会社,東京都,中央区,八丁堀４丁目１１－２ＷｅＷｉｌｌ３０１,,13,102,1040032,,,,,,,2021-10-28,1,,,,,ウェルエディション,0
251,2010001222152,新規,0,2021-10-28,2021-10-28,トライデント株式会社,,株式会社,東京都,中央区,晴海３丁目６番８号ベイシティ晴海スカイリンクタワ－４４０２,,13,102,1040053,,,,,,,2021-10-28,1,,,,,トライデント,0
254,2010003036113,新規,0,2021-10-28,2021-10-28,合同会社ＴＫＤ,,合同会社,東京都,千代田区,神田神保町３丁目５番地,,13,101,1010051,,,,,,,2021-10-28,1,,,,,ティーディーケー,0
256,2010101014929,新規,0,2021-10-28,2021-10-28,ソフィア警備株式会社,,株式会社,東京都,八王子市,打越町１１７８番地２北野リージェンシー１０２,,13,201,1920911,,,,,,,2021-10-28,1,,,,,ソフィアケイビ,0
267,2010401163491,新規,0,2021-10-28,2021-10-28,Ｉｎｓｔａｎｄａ　Ｊａｐａｎ株式会社,,株式会社,東京都,港区,元麻布３丁目１番６号,,13,103,1060046,,,,,,,2021-10-28,1,,,,,インスタンダジャパン,0
268,2010403026408,新規,0,2021-10-28,2021-10-28,アサカ合同会社,,合同会社,東京都,港区,六本木４丁目１番２－１０４号,,13,103,1060032,,,,,,,2021-10-28,1,,,,,アサカ,0
270,2010503006417,新規,0,2021-10-28,2021-10-28,合同会社デルタイー,,合同会社,東京都,台東区,上野６丁目８番１９号,,13,106,1100005,,,,,,,2021-10-28,1,,,,,デルタイー,0
284,2011001143603,新規,0,2021-10-28,2021-10-28,株式会社リアンデザイン,,株式会社,東京都,渋谷区,南平台町１６番２８号,,13,113,1500036,,,,,,,2021-10-28,1,,,,,リアンデザイン,0
285,2011001143636,新規,0,2021-10-28,2021-10-28,ポッセカット株式会社,,株式会社,東京都,渋谷区,渋谷２丁目１９－１５宮益坂ビルディング６０９,,13,113,1500002,,,,,,,2021-10-28,1,,,,,ポッセカット,0
286,2011001143677,新規,0,2021-10-28,2021-10-28,伊江島スポーツ・アカデミー株式会社,,株式会社,東京都,目黒区,鷹番２丁目５番１０号,,13,110,1520004,,,,,,,2021-10-28,1,,,,,イエジマスポーツアカデミー,0
288,2011101096734,新規,0,2021-10-28,2021-10-28,株式会社ＩＮＣＥＰＴＩＯＮ,,株式会社,東京都,新宿区,高田馬場１丁目３３－６平和相互ビル７０４号室,,13,104,1690075,,,,,,,2021-10-28,1,,,,,インセプション,0
302,2011703002981,新規,0,2021-10-28,2021-10-28,合同会社ＴＲＧ,,合同会社,東京都,江戸川区,篠崎町２丁目３５－１３ファーストシーン篠崎クラリス１０１,,13,123,1330061,,,,,,,2021-10-28,1,,,,,ティーアールジー,0
312,2020001143645,新規,0,2021-10-28,2021-10-28,サイド・バイ・サイド株式会社,,株式会社,神奈川県,横浜市緑区,東本郷３丁目１３番１４号,,14,113,2260002,,,,,,,2021-10-28,1,,,,,サイドバイサイド,0
313,2020001143661,新規,0,2021-10-28,2021-10-28,株式会社ＡＲＳ,,株式会社,神奈川県,川崎市川崎区,渡田１丁目９番５－１０１号,,14,131,2100837,,,,,,,2021-10-28,1,,,,,アース,0
318,2020003020677,新規,0,2021-10-28,2021-10-28,合同会社ｈａｒｂｏｒｓ　ａｇｅｎｔ,,合同会社,神奈川県,横浜市西区,北幸２丁目１０番３４号,,14,103,2200004,,,,,,,2021-10-28,1,,,,,ハーバーズエージェント,0
319,2020003020719,新規,0,2021-10-28,2021-10-28,合同会社チョウセイ,,合同会社,神奈川県,横浜市青葉区,美しが丘１丁目６番地４,,14,117,2250002,,,,,,,2021-10-28,1,,,,,チョウセイ,0
322,2021001074293,新規,0,2021-10-28,2021-10-28,株式会社Ｂｅｙｃｈｅｖｅｌｌｅ,,株式会社,神奈川県,厚木市,長谷７９８番地３厚木三番館１０２,,14,212,2430036,,,,,,,2021-10-28,1,,,,,ベイシュヴェル,0
344,2040001120782,新規,0,2021-10-28,2021-10-28,株式会社羽鳥,,株式会社,千葉県,市川市,菅野５丁目６番１５号,,12,203,2720824,,,,,,,2021-10-28,1,,,,,ハトリ,0
345,2040001120790,新規,0,2021-10-28,2021-10-28,株式会社ＣＳｊｏｙ,,株式会社,千葉県,千葉市稲毛区,緑町１丁目８番２号,,12,103,2630023,,,,,,,2021-10-28,1,,,,,シーエスジョイ,0
360,2080105006189,新規,0,2021-10-28,2021-10-28,ＳＩＴ協同組合,,その他の設立登記法人,静岡県,沼津市,下香貫石原１３１７番,,22,203,4100822,,,,,,,2021-10-28,1,,,,,エスアイティー,0
374,2120001241414,新規,0,2021-10-28,2021-10-28,嘉実株式会社,,株式会社,大阪府,大阪市東淀川区,東中島１丁目１４－１シティハイム新大阪２０６号室,,27,114,5330033,,,,,,,2021-10-28,1,,,,,カジツ,0
375,2120001241422,新規,0,2021-10-28,2021-10-28,大島工務店株式会社,,株式会社,大阪府,大阪市鶴見区,茨田大宮３丁目７番５７号,,27,124,5380031,,,,,,,2021-10-28,1,,,,,オオシマコウムテン,0
376,2120001241455,新規,0,2021-10-28,2021-10-28,株式会社オートプラザ森田,,株式会社,大阪府,大阪市住之江区,緑木１丁目１番６－７０３号,,27,125,5590022,,,,,,,2021-10-28,1,,,,,オートプラザモリタ,0
377,2120001241488,新規,0,2021-10-28,2021-10-28,三慧経営顧問株式会社,,株式会社,大阪府,枚方市,中宮東之町６－１５,,27,210,5731195,,,,,,,2021-10-28,1,,,,,サンケイケイエイコモン,0
381,2120003020493,新規,0,2021-10-28,2021-10-28,合同会社Ｖｅｒ・Ｔｅｘ,,合同会社,大阪府,大阪市旭区,赤川４丁目１１番２４－２０号,,27,117,5350005,,,,,,,2021-10-28,1,,,,,バーテックス,0
387,2120901045105,新規,0,2021-10-28,2021-10-28,株式会社ＬＥＧＯＲＩＳ,,株式会社,大阪府,高槻市,庄所町６番２０号,,27,207,5690064,,,,,,,2021-10-28,1,,,,,レゴリス,0
390,2122001035300,新規,0,2021-10-28,2021-10-28,株式会社アトム,,株式会社,大阪府,八尾市,西山本町６丁目３番２１号,,27,212,5810868,,,,,,,2021-10-28,1,,,,,アトム,0
396,2130001070416,新規,0,2021-10-28,2021-10-28,株式会社Ｃｈｏｃｏｌａｔｅｒｉｅ　ＨＩＳＡＳＨＩ,,株式会社,京都府,京都市東山区,三条通白川橋東入三丁目夷町１６６番地１６,,26,105,6050000,,,,,,,2021-10-28,1,,,,,ショコラトリーヒサシ,0
397,2130001070424,新規,0,2021-10-28,2021-10-28,株式会社サンクカレ,,株式会社,京都府,京都市東山区,粟田口三条坊町１４－１－４０９,,26,105,6050035,,,,,,,2021-10-28,1,,,,,サンクカレ,0
404,2140001123635,新規,0,2021-10-28,2021-10-28,株式会社Ｌｉｅｎ,,株式会社,兵庫県,芦屋市,東山町５番１０号,,28,206,6590091,,,,,,,2021-10-28,1,,,,,リアン,0
409,2170001016844,新規,0,2021-10-28,2021-10-28,株式会社ぷらすわん,,株式会社,和歌山県,西牟婁郡上富田町,朝来２５７６番地の１,,30,404,6492105,,,,,,,2021-10-28,1,,,,,プラスワン,0
419,2180001148455,新規,0,2021-10-28,2021-10-28,株式会社ＣＶＴ,,株式会社,愛知県,名古屋市千種区,仲田２丁目１５－１２,,23,101,4640074,,,,,,,2021-10-28,1,,,,,シーブイティー,0
420,2180001148463,新規,0,2021-10-28,2021-10-28,株式会社Ｒａｍｐｏ,,株式会社,愛知県,名古屋市中村区,横井１丁目３０８番地,,23,105,4530866,,,,,,,2021-10-28,1,,,,,ランポ,0
421,2180001148471,新規,0,2021-10-28,2021-10-28,株式会社宝船,,株式会社,愛知県,名古屋市中村区,岩塚町３丁目３０番地,,23,105,4530862,,,,,,,2021-10-28,1,,,,,タカラブネ,0
424,2180003023128,新規,0,2021-10-28,2021-10-28,合同会社温土,,合同会社,愛知県,名古屋市緑区,境松２丁目１０５番地コーポラティブハウスフリート２－Ｃ号,,23,114,4580820,,,,,,,2021-10-28,1,,,,,ヌクント,0
431,2200003005362,新規,0,2021-10-28,2021-10-28,Ａｍｉｅｔａ合同会社,,合同会社,岐阜県,中津川市,中津川２３７０－１６９,,21,206,5080001,,,,,,,2021-10-28,1,,,,,アミータ,0
433,2210001018670,新規,0,2021-10-28,2021-10-28,株式会社ＳＯＬ,,株式会社,福井県,福井市,大手３丁目１番１３号大手門ビル７Ｆ,,18,201,9100005,,,,,,,2021-10-28,1,,,,,ソウ,0
440,2250003002925,新規,0,2021-10-28,2021-10-28,ＮａｔｉｖｅＳｅｎｓｅ合同会社,,合同会社,山口県,宇部市,川添２丁目７－８,,35,202,7550074,,,,,,,2021-10-28,1,,,,,ネイティブセンス,0
448,2290001095133,新規,0,2021-10-28,2021-10-28,株式会社ライブ電気,,株式会社,福岡県,宗像市,深田７７４番地６,,40,220,8113504,,,,,,,2021-10-28,1,,,,,ライブデンキ,0
450,2290003011757,新規,0,2021-10-28,2021-10-28,合同会社ＵＮＩＴＹ　ＪＡＰＡＮ,,合同会社,福岡県,福岡市博多区,博多駅南３丁目８－８－９０１,,40,132,8120016,,,,,,,2021-10-28,1,,,,,ユニティージャパン,0
469,2360001029538,新規,0,2021-10-28,2021-10-28,株式会社マカフカシギカ,,株式会社,沖縄県,那覇市,首里石嶺町４丁目３１５番地,,47,201,9030804,,,,,,,2021-10-28,1,,,,,マカフカシギカ,0
478,2430003013292,新規,0,2021-10-28,2021-10-28,ＫＡＮＴＡＲＯＵ合同会社,,合同会社,北海道,札幌市中央区,南八条西２５丁目２番１２－２０２号,,01,101,0640808,,,,,,,2021-10-28,1,,,,,カンタロウ,0
479,2430005014322,新規,0,2021-10-28,2021-10-28,弁護士法人みずなら総合法律事務所,,その他の設立登記法人,北海道,札幌市中央区,南一条西６丁目札幌北辰ビル２階,,01,101,0600061,,,,,,,2021-10-28,1,,,,,ミズナラソウゴウホウリツジムショ,0
480,2440001008970,新規,0,2021-10-28,2021-10-28,諸橋自動車株式会社,,株式会社,北海道,茅部郡森町,字森川町２９１番地２０,,01,345,0492313,,,,,,,2021-10-28,1,,,,,モロハシジドウシャ,0
494,2500001023757,新規,0,2021-10-28,2021-10-28,株式会社ユーグリード,,株式会社,愛媛県,四国中央市,金生町山田井１８３番地,,38,213,7990112,,,,,,,2021-10-28,1,,,,,ユーグリード,0
513,3010003036104,新規,0,2021-10-28,2021-10-28,ＷｉｎｅＳｅｍｂｌｅ合同会社,,合同会社,東京都,中央区,銀座１丁目１２－４Ｎ＆ＥＢＬＤ．７階,,13,102,1040061,,,,,,,2021-10-28,1,,,,,ウィンサンブル,0
514,3010003036120,新規,0,2021-10-28,2021-10-28,Ｎ－ＮＥＸＴ合同会社,,合同会社,東京都,中央区,銀座１丁目４番６号ナスダビル８Ｆ,,13,102,1040061,,,,,,,2021-10-28,1,,,,,エヌネクスト,0
518,3010101014928,新規,0,2021-10-28,2021-10-28,株式会社明和,,株式会社,東京都,八王子市,城山手２丁目２１番３号,,13,201,1930825,,,,,,,2021-10-28,1,,,,,メイワ,0
523,3010401163482,新規,0,2021-10-28,2021-10-28,株式会社ＲＩＢＯＮ,,株式会社,東京都,港区,赤坂３丁目１０番１９号,,13,103,1070052,,,,,,,2021-10-28,1,,,,,リボン,0
524,3010401163490,新規,0,2021-10-28,2021-10-28,宝利商事株式会社,,株式会社,東京都,港区,西麻布１丁目４番３６号ロジマン西麻布３０１号室,,13,103,1060031,,,,,,,2021-10-28,1,,,,,ホウリショウジ,0
530,3010403026407,新規,0,2021-10-28,2021-10-28,合同会社Ｃｏｒｎｅｒｓｔｏｎｅ,,合同会社,東京都,港区,芝２丁目２６番２グリーンサイト芝公園１００１号,,13,103,1050014,,,,,,,2021-10-28,1,,,,,コーナーストーン,0
543,3010701041710,新規,0,2021-10-28,2021-10-28,株式会社ハナコトバ,,株式会社,東京都,品川区,西五反田３丁目８番２１－８０９号,,13,109,1410031,,,,,,,2021-10-28,1,,,,,ハナコトバ,0
552,3011003013613,新規,0,2021-10-28,2021-10-28,合同会社さとり,,合同会社,東京都,目黒区,駒場１丁目１１番１５号アーバンハウス駒場２０１,,13,110,1530041,,,,,,,2021-10-28,1,,,,,サトリ,0
553,3011003013621,新規,0,2021-10-28,2021-10-28,合同会社ｉＲｏｒｉ,,合同会社,東京都,渋谷区,神宮前６丁目２３番４号桑野ビル２階,,13,113,1500001,,,,,,,2021-10-28,1,,,,,イロリ,0
560,3011101096741,新規,0,2021-10-28,2021-10-28,エグゼモーション株式会社,,株式会社,東京都,新宿区,高田馬場４丁目３番７号,,13,104,1690075,,,,,,,2021-10-28,1,,,,,エグゼモーション,0
565,3011201023364,新規,0,2021-10-28,2021-10-28,株式会社ＣＬＥＡＲ,,株式会社,東京都,中野区,中央１丁目２９番７－５０１号,,13,114,1640011,,,,,,,2021-10-28,1,,,,,クリア,0
568,3011303004205,新規,0,2021-10-28,2021-10-28,ＡＩＲＩ合同会社,,合同会社,東京都,杉並区,上高井戸１丁目９－１８,,13,115,1680074,,,,,,,2021-10-28,1,,,,,アイリ,0
574,3011501027437,新規,0,2021-10-28,2021-10-28,株式会社ソレイユ,,株式会社,東京都,北区,西ケ原２丁目４４－１０アクト西ヶ原３０２,,13,117,1140024,,,,,,,2021-10-28,1,,,,,ソレイユ,0
578,3011601025497,新規,0,2021-10-28,2021-10-28,株式会社ＹＥＳ,,株式会社,東京都,練馬区,大泉町１丁目４８番６号,,13,120,1780062,,,,,,,2021-10-28,1,,,,,イエス,0
581,3011703002980,新規,0,2021-10-28,2021-10-28,合同会社経営サポート,,合同会社,東京都,江戸川区,東小岩１丁目２９番９号,,13,123,1330052,,,,,,,2021-10-28,1,,,,,ケイエイサポート,0
586,3012401038458,新規,0,2021-10-28,2021-10-28,株式会社Ｓｈｅｌｌ　Ｃｒａｃｋ,,株式会社,東京都,小金井市,本町３丁目９番６号,,13,210,1840004,,,,,,,2021-10-28,1,,,,,シェルクラック,0
603,3020001143677,新規,0,2021-10-28,2021-10-28,エイチフィルタコントロールズ株式会社,,株式会社,神奈川県,横浜市都筑区,荏田南３丁目２４番１２号,,14,118,2240007,,,,,,,2021-10-28,1,,,,,エイチフィルタコントロールズ,0
604,3020001143685,新規,0,2021-10-28,2021-10-28,ティーエスカーム株式会社,,株式会社,神奈川県,川崎市高津区,新作３丁目２３－１１,,14,134,2130014,,,,,,,2021-10-28,1,,,,,ティーエスカーム,0
613,3030001145029,新規,0,2021-10-28,2021-10-28,株式会社Ｒｅａｌｉｚｅ,,株式会社,埼玉県,川越市,大字久下戸１９９０番地２,,11,201,3500011,,,,,,,2021-10-28,1,,,,,リアライズ,0
620,3030003018216,新規,0,2021-10-28,2021-10-28,合同会社Ｃｌｏｕｄ　Ｎｉｎｅ,,合同会社,埼玉県,所沢市,旭町２番１号モンシャトー壱番館２０１号,,11,208,3590036,,,,,,,2021-10-28,1,,,,,クラウドナイン,0
627,3040001120773,新規,0,2021-10-28,2021-10-28,株式会社ダイポ,,株式会社,千葉県,白井市,平塚２００１番地２,,12,232,2701402,,,,,,,2021-10-28,1,,,,,ダイポ,0
628,3040001120798,新規,0,2021-10-28,2021-10-28,株式会社フィフティファイブ,,株式会社,千葉県,市川市,末広２丁目４番１０号,,12,203,2720121,,,,,,,2021-10-28,1,,,,,フィフティファイブ,0
639,3070003004278,新規,0,2021-10-28,2021-10-28,合同会社ＫＦＣ,,合同会社,群馬県,邑楽郡大泉町,大字寄木戸３８９番地８,,10,524,3700535,,,,,,,2021-10-28,1,,,,,ケーエフシー,0
641,3080003002669,新規,0,2021-10-28,2021-10-28,合同会社ウインダーランドホールディングス,,合同会社,静岡県,静岡市葵区,西草深町４番１２号,,22,101,4200866,,,,,,,2021-10-28,1,,,,,ウインダーランドホールディングス,0
652,3090001017255,新規,0,2021-10-28,2021-10-28,株式会社ＢＫＪ,,株式会社,山梨県,甲府市,国玉町６４３番地１,,19,201,4000815,,,,,,,2021-10-28,1,,,,,ビーケージェイ,0
655,3100001034760,新規,0,2021-10-28,2021-10-28,株式会社なないろ,,株式会社,長野県,伊那市,福島１６１３番地３,,20,209,3960001,,,,,,,2021-10-28,1,,,,,ナナイロ,0
658,3110001036145,新規,0,2021-10-28,2021-10-28,内山板金工業株式会社,,株式会社,新潟県,新発田市,二ツ山８０６番地１,,15,206,9570234,,,,,,,2021-10-28,1,,,,,ウチヤマバンキンコウギョウ,0
662,3120001241454,新規,0,2021-10-28,2021-10-28,株式会社ぷぷねろ,,株式会社,大阪府,大阪市浪速区,元町３丁目１番１５号,,27,111,5560016,,,,,,,2021-10-28,1,,,,,ププネロ,0
663,3120001241479,新規,0,2021-10-28,2021-10-28,株式会社輝建装,,株式会社,大阪府,枚方市,北中振３丁目４３番８－２１号,,27,210,5730064,,,,,,,2021-10-28,1,,,,,ヒカリケンソウ,0
667,3120003020484,新規,0,2021-10-28,2021-10-28,合同会社ＹＡＲＮ,,合同会社,大阪府,大阪市阿倍野区,阪南町２丁目４番１６号,,27,119,5450021,,,,,,,2021-10-28,1,,,,,ヤーン,0
672,3122001035299,新規,0,2021-10-28,2021-10-28,株式会社ＲｉｃｈＬｉｎｅ,,株式会社,大阪府,東大阪市,新池島町２丁目２０番１０号,,27,227,5798065,,,,,,,2021-10-28,1,,,,,リッチライン,0
677,3130001070423,新規,0,2021-10-28,2021-10-28,珠穆九州株式会社,,株式会社,京都府,京都市東山区,今熊野阿弥陀ケ峯町４番地６メゾン光洋１０８号室,,26,105,6050924,,,,,,,2021-10-28,1,,,,,シュボクキュウシュウ,0
678,3130001070431,新規,0,2021-10-28,2021-10-28,株式会社ＧＯＯＤＭＡＲＴ,,株式会社,京都府,南丹市,園部町宍人谷口１９番地１,,26,213,6220055,,,,,,,2021-10-28,1,,,,,グッドマート,0
682,3130003007563,新規,0,2021-10-28,2021-10-28,合同会社Ｇｉａｎａｇｉｅｎ,,合同会社,京都府,京都市右京区,太秦帷子ケ辻町２３－１アルティスタ帷子ノ辻２階２０２号,,26,108,6168151,,,,,,,2021-10-28,1,,,,,ギャナンエン,0
698,3180001148470,新規,0,2021-10-28,2021-10-28,株式会社木の実社,,株式会社,愛知県,名古屋市千種区,東明町７丁目１３番地の１,,23,101,4640028,,,,,,,2021-10-28,1,,,,,キノミシャ,0
704,3180301035559,新規,0,2021-10-28,2021-10-28,株式会社さとまさ,,株式会社,愛知県,岡崎市,滝町字外浦２６１,,23,202,4443173,,,,,,,2021-10-28,1,,,,,サトマサ,0
705,3180303005147,新規,0,2021-10-28,2021-10-28,合同会社琉球松,,合同会社,愛知県,豊田市,衣ケ原３丁目１２,,23,211,4710856,,,,,,,2021-10-28,1,,,,,リュウキュウマツ,0
710,3200001039337,新規,0,2021-10-28,2021-10-28,株式会社北村商事,,株式会社,岐阜県,瑞穂市,別府３２１番地１,,21,216,5010222,,,,,,,2021-10-28,1,,,,,キタムラショウジ,0
723,3260001036139,新規,0,2021-10-28,2021-10-28,株式会社Ｅｎｄｌｅｓｓ　Ｋｎｏｔ,,株式会社,岡山県,倉敷市,酒津２４６２番地２６,,33,202,7100801,,,,,,,2021-10-28,1,,,,,エンドレスノット,0
726,3270003001362,新規,0,2021-10-28,2021-10-28,木和建設合同会社,,合同会社,鳥取県,鳥取市,西品治８０６第７ガーデンハイツ２０２,,31,201,6800811,,,,,,,2021-10-28,1,,,,,ボクワケンセツ,0
734,3290003011756,新規,0,2021-10-28,2021-10-28,ＭＭＫ合同会社,,合同会社,福岡県,福岡市城南区,飯倉１丁目６－２７ダイアパレス飯倉１０５,,40,136,8140134,,,,,,,2021-10-28,1,,,,,エムエムケイ,0
735,3290003011764,新規,0,2021-10-28,2021-10-28,合同会社ワークプラスエス,,合同会社,福岡県,久留米市,国分町１１８９番地１,,40,203,8390863,,,,,,,2021-10-28,1,,,,,ワークプラスエス,0
743,3290801027937,新規,0,2021-10-28,2021-10-28,株式会社ＯＮＧ,,株式会社,福岡県,遠賀郡遠賀町,大字虫生津１５３０番地,,40,384,8114321,,,,,,,2021-10-28,1,,,,,オーエヌジー,0
750,3360001029545,新規,0,2021-10-28,2021-10-28,株式会社エムアンドティ,,株式会社,沖縄県,島尻郡南風原町,字津嘉山２６６－１ベアーズコート津嘉山１０１号,,47,350,9011117,,,,,,,2021-10-28,1,,,,,エムアンドティ,0
752,3360003011526,新規,0,2021-10-28,2021-10-28,合同会社Ｒｉｇｈｔｅｏｕｓ,,合同会社,沖縄県,沖縄市,高原７丁目９番３号,,47,211,9042171,,,,,,,2021-10-28,1,,,,,ライチャス,0
753,3370003005452,新規,0,2021-10-28,2021-10-28,東旭昇合同会社,,合同会社,宮城県,亘理郡亘理町,吉田字大谷地７７番３５,,04,361,9892331,,,,,,,2021-10-28,1,,,,,トウキョクショウ,0
754,3370003005460,新規,0,2021-10-28,2021-10-28,合同会社シュクリア,,合同会社,宮城県,仙台市若林区,荒町１７２番地,,04,103,9840073,,,,,,,2021-10-28,1,,,,,シュクリア,0
756,3380001032282,新規,0,2021-10-28,2021-10-28,株式会社ひまわり,,株式会社,福島県,郡山市,鶴見坦３丁目１１番１５号アミークス１０２号,,07,203,9638861,,,,,,,2021-10-28,1,,,,,,0
760,3430001085250,新規,0,2021-10-28,2021-10-28,株式会社フィンセント,,株式会社,北海道,札幌市北区,新琴似五条１５丁目２番１９号,,01,102,0010905,,,,,,,2021-10-28,1,,,,,フィンセント,0
767,3430003013291,新規,0,2021-10-28,2021-10-28,合同会社ｃａｒｅ　Ｌａｂ,,合同会社,北海道,新冠郡新冠町,字北星町８番地の５１,,01,604,0592403,,,,,,,2021-10-28,1,,,,,ケアラボ,0
786,4010001222035,新規,0,2021-10-28,2021-10-28,株式会社ＮＨＣ,,株式会社,東京都,中央区,月島１丁目２２番１－１９０１号,,13,102,1040052,,,,,,,2021-10-28,1,,,,,エヌエイチシー,0
788,4010003036094,新規,0,2021-10-28,2021-10-28,合同会社ライフデザイン,,合同会社,東京都,文京区,春日２丁目２１番７クリスティホームズ３０４号室,,13,105,1120003,,,,,,,2021-10-28,1,,,,,ライフデザイン,0
791,4010005034138,新規,0,2021-10-28,2021-10-28,健康医療情報標準流通基盤技術研究組合,,その他の設立登記法人,東京都,文京区,本郷７丁目３番１号,,13,105,1130033,,,,,,,2021-10-28,1,,,,,ケンコウイリョウジョウホウヒョウジュンリュウツウキバン,0
792,4010005034146,新規,0,2021-10-28,2021-10-28,一般社団法人東洋健康増進研究会,,その他の設立登記法人,東京都,中央区,日本橋１丁目１８番１４号クローバー日本橋３０１号室,,13,102,1030027,,,,,,,2021-10-28,1,,,,,トウヨウケンコウゾウシンケンキュウカイ,0
803,4010401163481,新規,0,2021-10-28,2021-10-28,株式会社Ｒｏｍａｘ,,株式会社,東京都,港区,麻布十番１丁目６番５号４Ｆ,,13,103,1060045,,,,,,,2021-10-28,1,,,,,ロマックス,0
804,4010401163507,新規,0,2021-10-28,2021-10-28,プレジール・レター株式会社,,株式会社,東京都,港区,南麻布５丁目２番３２号,,13,103,1060047,,,,,,,2021-10-28,1,,,,,プレジールレター,0
805,4010401163523,新規,0,2021-10-28,2021-10-28,株式会社ＴＧＰ,,株式会社,東京都,港区,白金６丁目８番６号,,13,103,1080072,,,,,,,2021-10-28,1,,,,,ティージーピー,0
816,4010905004223,新規,0,2021-10-28,2021-10-28,一般社団法人ホワイトニング協会,,その他の設立登記法人,東京都,世田谷区,玉川田園調布２丁目８番１８号１Ｆ,,13,112,1580085,,,,,,,2021-10-28,1,,,,,ホワイトニングキョウカイ,0
819,4011001143353,新規,0,2021-10-28,2021-10-28,株式会社ｖａｌｖｅ　ｗｏｒｋｓ,,株式会社,東京都,渋谷区,代官山町１３－７ベルビー代官山１Ｆ,,13,113,1500034,,,,,,,2021-10-28,1,,,,,バルブワークス,0
820,4011001143667,新規,0,2021-10-28,2021-10-28,株式会社アルグリット,,株式会社,東京都,渋谷区,渋谷２丁目１９－１５宮益坂ビルディング６０９,,13,113,1500002,,,,,,,2021-10-28,1,,,,,アルグリット,0
821,4011003013620,新規,0,2021-10-28,2021-10-28,合同会社かんぷ,,合同会社,東京都,渋谷区,神宮前６丁目２３番４号桑野ビル２階,,13,113,1500001,,,,,,,2021-10-28,1,,,,,カンプ,0
822,4011003013629,新規,0,2021-10-28,2021-10-28,合同会社ＫＡＲＲＯＴ　ＣＯＭＰＡＮＹ,,合同会社,東京都,渋谷区,神宮前６丁目２３－４桑野ビル２Ｆ,,13,113,1500001,,,,,,,2021-10-28,1,,,,,キャロットカンパニー,0
829,4011301027280,新規,0,2021-10-28,2021-10-28,なかよしサポートプラン株式会社,,株式会社,東京都,杉並区,善福寺４丁目１番７号,,13,115,1670041,,,,,,,2021-10-28,1,,,,,ナカヨシサポートプラン,0
830,4011301027297,新規,0,2021-10-28,2021-10-28,株式会社ＤＢＩホールディングス,,株式会社,東京都,杉並区,今川２丁目１１番２３号,,13,115,1670035,,,,,,,2021-10-28,1,,,,,ディービーアイホールディングス,0
835,4011501027436,新規,0,2021-10-28,2021-10-28,大東電子株式会社,,株式会社,東京都,北区,東田端２丁目９番１７号,,13,117,1140013,,,,,,,2021-10-28,1,,,,,ダイトウデンシ,0
841,4011801039890,新規,0,2021-10-28,2021-10-28,ＬｙＬＬ株式会社,,株式会社,東京都,葛飾区,鎌倉２丁目１４番１８号,,13,122,1250053,,,,,,,2021-10-28,1,,,,,リル,0
850,4013305003274,新規,0,2021-10-28,2021-10-28,特定非営利活動法人ユニバーサルツーリズム総合研究所,,その他の設立登記法人,東京都,豊島区,東池袋３丁目８番５号－１００６,,13,116,1700013,,,,,,,2021-10-28,1,,,,,ユニバーサルツーリズムソウゴウケンキュウジョ,0
860,4020001143643,新規,0,2021-10-28,2021-10-28,株式会社ヒジリスタイル,,株式会社,神奈川県,横浜市神奈川区,羽沢町９４７－１６－２－５－５０２,,14,102,2210863,,,,,,,2021-10-28,1,,,,,ヒジリスタイル,0
861,4020001143676,新規,0,2021-10-28,2021-10-28,株式会社手塚小社,,株式会社,神奈川県,川崎市多摩区,登戸２５００番地,,14,135,2140014,,,,,,,2021-10-28,1,,,,,テヅカショウシャ,0
865,4020003020717,新規,0,2021-10-28,2021-10-28,紅星制作合同会社,,合同会社,神奈川県,川崎市中原区,井田杉山町２７番１－４０５号,,14,133,2110036,,,,,,,2021-10-28,1,,,,,ホンシーセイサク,0
868,4020005015252,新規,0,2021-10-28,2021-10-28,一般財団法人首藤奨学財団,,その他の設立登記法人,神奈川県,横浜市港北区,箕輪町２丁目１７番５号,,14,109,2230051,,,,,,,2021-10-28,1,,,,,シュトウショウガクザイダン,0
871,4021005012330,新規,0,2021-10-28,2021-10-28,一般社団法人コンフォライフすこやか,,その他の設立登記法人,神奈川県,相模原市緑区,橋本２丁目１０番２３号,,14,151,2520143,,,,,,,2021-10-28,1,,,,,コンフォライフスコヤカ,0
877,4030001145003,新規,0,2021-10-28,2021-10-28,クロコサイエンス株式会社,,株式会社,埼玉県,羽生市,南７丁目１７番地１４,,11,216,3480053,,,,,,,2021-10-28,1,,,,,クロコサイエンス,0
878,4030001145011,新規,0,2021-10-28,2021-10-28,株式会社ＰＲＯＪＥＣＴ　ｘ８４,,株式会社,埼玉県,秩父郡長瀞町,大字本野上４９８番地３,,11,363,3691304,,,,,,,2021-10-28,1,,,,,プロジェクトエックスエイティフォー,0
879,4030001145036,新規,0,2021-10-28,2021-10-28,ＧＬＯＢＡＬ　ＴＯＤＡＹ株式会社,,株式会社,埼玉県,蕨市,塚越７丁目３番１６号－１０３,,11,223,3350002,,,,,,,2021-10-28,1,,,,,グローバルトゥデイ,0
894,4040001120764,新規,0,2021-10-28,2021-10-28,株式会社ｙｅｓｅｓ,,株式会社,千葉県,松戸市,根本３番地１２－２０３号,,12,207,2710077,,,,,,,2021-10-28,1,,,,,ヤセス,0
895,4040001120789,新規,0,2021-10-28,2021-10-28,株式会社Ｂｒｉｌｌａｎｔｅ,,株式会社,千葉県,袖ケ浦市,蔵波台４丁目１３番地４,,12,229,2990245,,,,,,,2021-10-28,1,,,,,ブリランテ,0
901,4040003018791,新規,0,2021-10-28,2021-10-28,ベストインターナショナル合同会社,,合同会社,千葉県,柏市,柏６丁目９番２２号,,12,217,2770005,,,,,,,2021-10-28,1,,,,,ベストインターナショナル,0
908,4070001038582,新規,0,2021-10-28,2021-10-28,株式会社佐文,,株式会社,群馬県,太田市,高林南町６１１番地１,,10,205,3730827,,,,,,,2021-10-28,1,,,,,サブン,0
911,4070003004277,新規,0,2021-10-28,2021-10-28,合同会社ダイニングモン・ドール,,合同会社,群馬県,太田市,新田早川町５４１番地,,10,205,3700344,,,,,,,2021-10-28,1,,,,,ダイニングモンドール,0
913,4080003002668,新規,0,2021-10-28,2021-10-28,合同会社ウインダーランド,,合同会社,静岡県,静岡市葵区,西草深町４番１２号,,22,101,4200866,,,,,,,2021-10-28,1,,,,,ウインダーランド,0
936,4120001241420,新規,0,2021-10-28,2021-10-28,Ｗａｔｅｒ　Ｆｌｏｗ株式会社,,株式会社,大阪府,大阪市天王寺区,北山町９番２４－２０１号,,27,109,5430035,,,,,,,2021-10-28,1,,,,,ウォーターフロウ,0
937,4120001241437,新規,0,2021-10-28,2021-10-28,株式会社クゥーコーポレーション,,株式会社,大阪府,大阪市都島区,内代町３丁目７番１５号,,27,102,5340013,,,,,,,2021-10-28,1,,,,,クゥーコーポレーション,0
938,4120001241453,新規,0,2021-10-28,2021-10-28,エンジョイ株式会社,,株式会社,大阪府,枚方市,山之上５丁目４９番２２号,,27,210,5730047,,,,,,,2021-10-28,1,,,,,エンジョイ,0
939,4120001241478,新規,0,2021-10-28,2021-10-28,株式会社竹内ホールディングス,,株式会社,大阪府,大阪市西区,阿波座２丁目３番２４号,,27,106,5500011,,,,,,,2021-10-28,1,,,,,タケウチホールディングス,0
943,4120003020491,新規,0,2021-10-28,2021-10-28,ＶＵ合同会社,,合同会社,大阪府,大阪市淀川区,十三元今里１丁目１０番２号サンハイツ４０１号室,,27,123,5320028,,,,,,,2021-10-28,1,,,,,ヴィユー,0
950,4130003007562,新規,0,2021-10-28,2021-10-28,Ｏｊａｓ合同会社,,合同会社,京都府,京都市中京区,四条通大宮西入錦大宮町１３０番地メゾンドール四条大宮７１２,,26,104,6048365,,,,,,,2021-10-28,1,,,,,オージャス,0
953,4140003016918,新規,0,2021-10-28,2021-10-28,合同会社晄生,,合同会社,兵庫県,神戸市西区,押部谷町高和１１７１番地,,28,111,6512204,,,,,,,2021-10-28,1,,,,,コウセイ,0
955,4150001025052,新規,0,2021-10-28,2021-10-28,株式会社親英整備工場,,株式会社,奈良県,御所市,大字柏原６２８番地の１,,29,208,6392244,,,,,,,2021-10-28,1,,,,,シンエイセイビコウジョウ,0
966,4180303005146,新規,0,2021-10-28,2021-10-28,合同会社ボイス・レゴ,,合同会社,愛知県,刈谷市,原崎町２丁目１０９番地,,23,210,4480039,,,,,,,2021-10-28,1,,,,,ボイスレゴ,0
978,4260001036138,新規,0,2021-10-28,2021-10-28,株式会社美清,,株式会社,岡山県,岡山市北区,花尻みどり町１１番地１０６,,33,101,7010131,,,,,,,2021-10-28,1,,,,,ビセイ,0
987,4290003011763,新規,0,2021-10-28,2021-10-28,合同会社Ｋ・Ｓ・Ｐ,,合同会社,福岡県,福岡市早良区,有田３丁目８番１７号,,40,137,8140033,,,,,,,2021-10-28,1,,,,,ケイエスピー,0
989,4290801027936,新規,0,2021-10-28,2021-10-28,株式会社弥七,,株式会社,福岡県,遠賀郡芦屋町,船頭町５番１４号,,40,381,8070121,,,,,,,2021-10-28,1,,,,,ヤシチ,0
991,4300001012679,新規,0,2021-10-28,2021-10-28,株式会社アイティーアール産業,,株式会社,佐賀県,西松浦郡有田町,本町丙１５２３番地１,,41,401,8440018,,,,,,,2021-10-28,1,,,,,アイティーアールサンギョウ,0
994,4330001029118,新規,0,2021-10-28,2021-10-28,株式会社Ｔｒａｖｉｓ　Ｓｅｒｖｉｃｅ,,株式会社,熊本県,熊本市中央区,大江１丁目１９番２７号育成ビル２０１,,43,101,8620971,,,,,,,2021-10-28,1,,,,,トラヴィスサービス,0
1001,4360001029560,新規,0,2021-10-28,2021-10-28,株式会社琉建,,株式会社,沖縄県,那覇市,上間１丁目１４番１６号２Ｆ,,47,201,9020073,,,,,,,2021-10-28,1,,,,,リュウケン,0
1006,4360003011525,新規,0,2021-10-28,2021-10-28,マーベリックインベストメント合同会社,,合同会社,沖縄県,宮古島市,平良字久貝６６８番地５－１０３,,47,214,9060015,,,,,,,2021-10-28,1,,,,,,0
1007,4370005010375,新規,0,2021-10-28,2021-10-28,特定非営利活動法人ｍｉａ　ｆｏｒｚａ,,その他の設立登記法人,宮城県,仙台市宮城野区,鶴ケ谷５丁目８番地の９,,04,102,9830824,,,,,,,2021-10-28,1,,,,,ミアフォルツァ,0
1009,4400001015655,新規,0,2021-10-28,2021-10-28,株式会社アキラ,,株式会社,岩手県,盛岡市,津志田南２丁目１６番２号,,03,201,0200839,,,,,,,2021-10-28,1,,,,,アキラ,0
1010,4410005006435,新規,0,2021-10-28,2021-10-28,農事組合法人高岡農場,,その他の設立登記法人,秋田県,秋田市,金足高岡字稲荷林１３０番地１,,05,201,0100125,,,,,,,2021-10-28,1,,,,,タカオカノウジョウ,0
1014,4430001085217,新規,0,2021-10-28,2021-10-28,日本リゾート株式会社,,株式会社,北海道,札幌市豊平区,月寒中央通８丁目４番２８号,,01,105,0620020,,,,,,,2021-10-28,1,,,,,ニホンリゾート,0
1016,4430003013299,新規,0,2021-10-28,2021-10-28,合同会社Ｉ・Ｌ・Ｇ,,合同会社,北海道,札幌市中央区,南四条西１０丁目１００４番地１南４条ユニハウス６０１,,01,101,0640804,,,,,,,2021-10-28,1,,,,,アイエルジー,0
1021,4490003001595,新規,0,2021-10-28,2021-10-28,合同会社クイッククラフト,,合同会社,高知県,土佐市,高岡町甲１１７２番地３,,39,205,7811101,,,,,,,2021-10-28,1,,,,,,0
1023,4500003002708,新規,0,2021-10-28,2021-10-28,合同会社てらまち,,合同会社,愛媛県,西条市,丹原町丹原１５番地５,,38,206,7910510,,,,,,,2021-10-28,1,,,,,テラマチ,0
1028,5010001222133,新規,0,2021-10-28,2021-10-28,株式会社コペン,,株式会社,東京都,中央区,八重洲２丁目５番１２号,,13,102,1040028,,,,,,,2021-10-28,1,,,,,コペン,0
1029,5010001222141,新規,0,2021-10-28,2021-10-28,Ｋｅｎ’ｓ　Ｂｅａｕｔｙ株式会社,,株式会社,東京都,千代田区,麹町６丁目２番地６千代田麹町レジデンス１２０１号,,13,101,1020083,,,,,,,2021-10-28,1,,,,,ケンズビューティー,0
1035,5010003036110,新規,0,2021-10-28,2021-10-28,三國合同会社,,合同会社,東京都,文京区,目白台１丁目１４番４号,,13,105,1120015,,,,,,,2021-10-28,1,,,,,サンゴク,0
1036,5010003036127,新規,0,2021-10-28,2021-10-28,Ｓｕｍｍｉｔ　Ｓｕｎｓｅａｐ合同会社,,合同会社,東京都,中央区,晴海１丁目８番１０号晴海アイランドトリトンスクエアオフィスタワーＸ２５階,,13,102,1040053,,,,,,,2021-10-28,1,,,,,サミットサンシープ,0
1043,5010401163480,新規,0,2021-10-28,2021-10-28,思金ソリューション株式会社,,株式会社,東京都,港区,南青山２丁目２番１５号ＷＩＮ青山５３１,,13,103,1070062,,,,,,,2021-10-28,1,,,,,オモイカネソリューション,0
1044,5010401163506,新規,0,2021-10-28,2021-10-28,ＣＵＦＥＩＳ株式会社,,株式会社,東京都,港区,白金台４丁目１７番１５号,,13,103,1080071,,,,,,,2021-10-28,1,,,,,キューフェイス,0
1047,5010403026405,新規,0,2021-10-28,2021-10-28,合同会社ＷＯＮＤＥＲ,,合同会社,東京都,港区,六本木３丁目４番３３号,,13,103,1060032,,,,,,,2021-10-28,1,,,,,ワンダー,0
1048,5010403026413,新規,0,2021-10-28,2021-10-28,合同会社カタリスト,,合同会社,東京都,港区,海岸２丁目６番３１号日建ビル７階ＡＧＢＩＴＥＣＨ内,,13,103,1050022,,,,,,,2021-10-28,1,,,,,カタリスト,0
1056,5010801032442,新規,0,2021-10-28,2021-10-28,礼和警備株式会社,,株式会社,東京都,大田区,東矢口２丁目２０番６号,,13,111,1460094,,,,,,,2021-10-28,1,,,,,レイワケイビ,0
1060,5010903006889,新規,0,2021-10-28,2021-10-28,Ｍｉｌｅｓｔｏｎｅ合同会社,,合同会社,東京都,世田谷区,松原３丁目５番１２号,,13,112,1560043,,,,,,,2021-10-28,1,,,,,,0
1066,5011001143575,新規,0,2021-10-28,2021-10-28,ＡＯＲＴＤ株式会社,,株式会社,東京都,渋谷区,富ヶ谷１丁目１４番１４号４階,,13,113,1510063,,,,,,,2021-10-28,1,,,,,アオートド,0
1067,5011001143609,新規,0,2021-10-28,2021-10-28,ラックス株式会社,,株式会社,東京都,目黒区,洗足１丁目２６－１－２０２,,13,110,1520012,,,,,,,2021-10-28,1,,,,,ラックス,0
1068,5011003013636,新規,0,2021-10-28,2021-10-28,合同会社Ｉ　ｓｅｅ,,合同会社,東京都,渋谷区,神宮前６丁目２３番４号,,13,113,1500001,,,,,,,2021-10-28,1,,,,,アイシー,0
1070,5011101096599,新規,0,2021-10-28,2021-10-28,株式会社蝶々,,株式会社,東京都,新宿区,歌舞伎町２丁目２３番１号風林会館地下一階ＦＧ室,,13,104,1600021,,,,,,,2021-10-28,1,,,,,チョウチョウ,0
1079,5011801039898,新規,0,2021-10-28,2021-10-28,株式会社ワールドキャパシティ,,株式会社,東京都,足立区,西保木間１丁目１６番２２号,,13,121,1210812,,,,,,,2021-10-28,1,,,,,ワールドキャパシティ,0
1083,5012705002281,新規,0,2021-10-28,2021-10-28,一般社団法人早期親子支援ＧＲＯＷ,,その他の設立登記法人,東京都,小平市,上水本町１丁目２－５,,13,211,1870022,,,,,,,2021-10-28,1,,,,,ソウキオヤコシエングロウ,0
1094,5020001143626,新規,0,2021-10-28,2021-10-28,株式会社ａｘｉｓ,,株式会社,神奈川県,横浜市中区,山下町９０番地１－８１０号,,14,104,2310023,,,,,,,2021-10-28,1,,,,,アクシス,0
1095,5020001143675,新規,0,2021-10-28,2021-10-28,株式会社ＥＸ－Ｗｏｒｌｄ,,株式会社,神奈川県,横浜市中区,元町５丁目２１２－５－２０３,,14,104,2310861,,,,,,,2021-10-28,1,,,,,イーエックスワールド,0
1099,5020003020716,新規,0,2021-10-28,2021-10-28,合同会社アットティム,,合同会社,神奈川県,横浜市戸塚区,前田町２２７－６,,14,110,2440804,,,,,,,2021-10-28,1,,,,,アットティム,0
1101,5020005015251,新規,0,2021-10-28,2021-10-28,すくらむ税理士法人,,その他の設立登記法人,神奈川県,横浜市中区,山下町２１８番地６天幸ビル４０２号室,,14,104,2310023,,,,,,,2021-10-28,1,,,,,スクラム,0
1104,5021001074324,新規,0,2021-10-28,2021-10-28,神山工務店株式会社,,株式会社,神奈川県,大和市,中央４丁目６番２２号ＷｉｎｇＬｕｋｅＡ１０２,,14,213,2420021,,,,,,,2021-10-28,1,,,,,カミヤマコウムテン,0
1105,5021001074340,新規,0,2021-10-28,2021-10-28,富士商会株式会社,,株式会社,神奈川県,愛甲郡愛川町,中津３５９２番地３ハイツテニメント１０５,,14,401,2430303,,,,,,,2021-10-28,1,,,,,フジショウカイ,0
1112,5030001145019,新規,0,2021-10-28,2021-10-28,春田宇貿易株式会社,,株式会社,埼玉県,川口市,西川口１丁目３０－２０Ｔ・Ｂ・Ｓ企画ビル４０１,,11,203,3320021,,,,,,,2021-10-28,1,,,,,ハルタウボウエキ,0
1119,5030003018197,新規,0,2021-10-28,2021-10-28,合同会社クロストレーニング,,合同会社,埼玉県,春日部市,中央１丁目４番６号オガワ第三ビル４０１,,11,214,3440067,,,,,,,2021-10-28,1,,,,,クロストレーニング,0
1124,5040001120788,新規,0,2021-10-28,2021-10-28,株式会社テーブルスノー,,株式会社,千葉県,習志野市,谷津７丁目７番２２号ハイツ津田沼１０１号,,12,216,2750026,,,,,,,2021-10-28,1,,,,,テーブルスノー,0
1131,5050001050019,新規,0,2021-10-28,2021-10-28,株式会社ＲＯＢＯＴＩＸ　ＪＡＰＡＮ,,株式会社,茨城県,坂東市,岩井２８８６番地４キハラデンキビル３Ｆ,,08,228,3060631,,,,,,,2021-10-28,1,,,,,ロボティクスジャパン,0
1142,5070001038565,新規,0,2021-10-28,2021-10-28,株式会社正田化学,,株式会社,群馬県,太田市,東新町７９３番地１,,10,205,3730015,,,,,,,2021-10-28,1,,,,,ショウダカガク,0
1151,5080103002443,新規,0,2021-10-28,2021-10-28,合同会社アカシアコモンズ,,合同会社,静岡県,沼津市,平町５番２０号１階,,22,203,4100036,,,,,,,2021-10-28,1,,,,,アカシアコモンズ,0
1159,5100003006277,新規,0,2021-10-28,2021-10-28,渋谷カラー合同会社,,合同会社,長野県,茅野市,北山３４２９番地,,20,214,3910301,,,,,,,2021-10-28,1,,,,,シブヤカラー,0
1169,5120001241452,新規,0,2021-10-28,2021-10-28,株式会社大宝管理,,株式会社,大阪府,大阪市天王寺区,悲田院町４番１３号,,27,109,5430055,,,,,,,2021-10-28,1,,,,,タイホウカンリ,0
1175,5120003020482,新規,0,2021-10-28,2021-10-28,ＡＮＤ－ＣＨＡＩＮ合同会社,,合同会社,大阪府,大阪市平野区,長吉長原西４丁目４番２５号６０９号,,27,126,5470015,,,,,,,2021-10-28,1,,,,,アンドチェイン,0
1176,5120003020499,新規,0,2021-10-28,2021-10-28,合同会社トモちこ,,合同会社,大阪府,大阪市北区,天満２丁目８番４－８０３号,,27,127,5300043,,,,,,,2021-10-28,1,,,,,トモチコ,0
1189,5140003016917,新規,0,2021-10-28,2021-10-28,合同会社瘉寿,,合同会社,兵庫県,三田市,けやき台５丁目２５番地１６１,,28,219,6691321,,,,,,,2021-10-28,1,,,,,ユジュ,0
1191,5140005025874,新規,0,2021-10-28,2021-10-28,一般社団法人兵庫栄養振興会,,その他の設立登記法人,兵庫県,西宮市,池田町９番７－２１５号フレンテ西宮西館２階,,28,204,6620911,,,,,,,2021-10-28,1,,,,,ヒョウゴエイヨウシンコウカイ,0
1198,5180001148452,新規,0,2021-10-28,2021-10-28,株式会社峰工芸社,,株式会社,愛知県,名古屋市港区,小賀須１丁目８１４番地レオパレス井上２０２号室,,23,111,4550882,,,,,,,2021-10-28,1,,,,,ミネコウゲイシャ,0
1199,5180001148469,新規,0,2021-10-28,2021-10-28,ＶＩＮＣＥＮＴ株式会社,,株式会社,愛知県,一宮市,栄４丁目２番３号,,23,203,4910858,,,,,,,2021-10-28,1,,,,,ヴィンセント,0
1205,5180301035557,新規,0,2021-10-28,2021-10-28,株式会社Ａｌｐｈａ　Ｐｌｕｓ,,株式会社,愛知県,刈谷市,半城土中町１丁目１３番地１２サンコーＩＩＩ３号,00124689,23,210,4480805,,,,,,,2021-10-28,1,,,,,アルファープラス,0
1209,5200001039335,新規,0,2021-10-28,2021-10-28,株式会社よろずや,,株式会社,岐阜県,可児市,長坂１丁目３５番地,,21,214,5090257,,,,,,,2021-10-28,1,,,,,ヨロズヤ,0
1222,5260001036137,新規,0,2021-10-28,2021-10-28,株式会社Ａｎｏｔｈｅｒ　Ｆｉｅｌｄ,,株式会社,岡山県,岡山市北区,内山下１丁目１２番７号廣瀬ヴィルヌーブ２Ｆ,,33,101,7000824,,,,,,,2021-10-28,1,,,,,アナザーフィールド,0
1223,5280001008547,新規,0,2021-10-28,2021-10-28,ご縁かめたか株式会社,,株式会社,島根県,出雲市,平野町２５５番地,,32,203,6930065,,,,,,,2021-10-28,1,,,,,ゴエンカメタカ,0
1229,5290001095106,新規,0,2021-10-28,2021-10-28,株式会社かがやき,,株式会社,福岡県,久留米市,六ツ門１７番地２３橘センタービル２０５号,,40,203,8390000,,,,,,,2021-10-28,1,,,,,カガヤキ,0
1230,5290001095155,新規,0,2021-10-28,2021-10-28,株式会社Ａｌｔａｉｌ,,株式会社,福岡県,那珂川市,大字山田８９８番地１,,40,231,8111244,,,,,,,2021-10-28,1,,,,,アルタイル,0
1231,5290001095163,新規,0,2021-10-28,2021-10-28,株式会社オリーブ,,株式会社,福岡県,福岡市博多区,中洲１丁目８番１１号,,40,132,8100801,,,,,,,2021-10-28,1,,,,,オリーブ,0
1238,5290003011762,新規,0,2021-10-28,2021-10-28,合同会社サクシーズ,,合同会社,福岡県,福岡市博多区,博多駅東１丁目１番３３号はかた近代ビル,,40,132,8120013,,,,,,,2021-10-28,1,,,,,サクシーズ,0
1243,5330001029117,新規,0,2021-10-28,2021-10-28,株式会社ながもち,,株式会社,熊本県,人吉市,願成寺町７９４番地２,,43,203,8680022,,,,,,,2021-10-28,1,,,,,ナガモチ,0
1245,5360003011524,新規,0,2021-10-28,2021-10-28,合同会社ＤｏｔＦｉｃｔｉｏｎ,,合同会社,沖縄県,那覇市,久茂地２丁目２４－１６,,47,201,9000015,,,,,,,2021-10-28,1,,,,,ドットフィクション,0
1249,5370001047742,新規,0,2021-10-28,2021-10-28,泰斗車輌株式会社,,株式会社,宮城県,仙台市宮城野区,扇町７丁目１番３２号,,04,102,9830034,,,,,,,2021-10-28,1,,,,,タイトシャリョウ,0
1250,5370001047759,新規,0,2021-10-28,2021-10-28,明神株式会社,,株式会社,宮城県,宮城郡七ヶ浜町,花渕浜字上ノ山９２番地の１,,04,404,9850803,,,,,,,2021-10-28,1,,,,,ミョウジン,0
1251,5370003005450,新規,0,2021-10-28,2021-10-28,合同会社ＡＸＩＳ,,合同会社,宮城県,塩竈市,貞山通３丁目６番１０号サンハイム３１０ＩＩ２０１号,00124696,04,203,9850011,,,,,,,2021-10-28,1,,,,,アクシス,0
1254,5380001032297,新規,0,2021-10-28,2021-10-28,ＵＷソリューションズ株式会社,,株式会社,福島県,田村市,船引町石森字舘１０８番地,,07,211,9634313,,,,,,,2021-10-28,1,,,,,ユーダブリュソリューションズ,0
1259,5430001085249,新規,0,2021-10-28,2021-10-28,株式会社らいふあしすと,,株式会社,北海道,札幌市手稲区,稲穂三条４丁目３番７号,,01,109,0060033,,,,,,,2021-10-28,1,,,,,ライフアシスト,0
1280,6010001222099,新規,0,2021-10-28,2021-10-28,ジャパンオフショアマリン株式会社,,株式会社,東京都,文京区,後楽２丁目２番８号,,13,105,1120004,,,,,,,2021-10-28,1,,,,,ジャパンオフショアマリン,0
1281,6010001222132,新規,0,2021-10-28,2021-10-28,株式会社プレミアーズ,,株式会社,東京都,中央区,銀座６丁目１４番８号,,13,102,1040061,,,,,,,2021-10-28,1,,,,,プレミアーズ,0
1282,6010001222140,新規,0,2021-10-28,2021-10-28,株式会社ＬＣＳ,,株式会社,東京都,中央区,日本橋大伝馬町１３－７,,13,102,1030011,,,,,,,2021-10-28,1,,,,,エルシーエス,0
1284,6010003036118,新規,0,2021-10-28,2021-10-28,合同会社南海堺阪急北千里メトロ江坂プロジェクト,,合同会社,東京都,中央区,日本橋１丁目４番１号,,13,102,1030027,,,,,,,2021-10-28,1,,,,,ナンカイサカイハンキュウキタセンリメトロエサカプロジェクト,0
1285,6010101014933,新規,0,2021-10-28,2021-10-28,株式会社共生興業,,株式会社,東京都,八王子市,散田町５丁目２５番１５－５０１号,,13,201,1930832,,,,,,,2021-10-28,1,,,,,キョウセイコウギョウ,0
1300,6010401163496,新規,0,2021-10-28,2021-10-28,株式会社ＡＮＮＡ２４,,株式会社,東京都,港区,六本木３丁目４番３３号マルマン六本木ビル３階,,13,103,1060032,,,,,,,2021-10-28,1,,,,,アンナトエンティフォー,0
1301,6010401163513,新規,0,2021-10-28,2021-10-28,株式会社トレジャークリエイト,,株式会社,東京都,港区,南青山３丁目５番２号南青山第一韮澤ビル３Ｆ３３９,,13,103,1070062,,,,,,,2021-10-28,1,,,,,トレジャークリエイト,0
1309,6010801032441,新規,0,2021-10-28,2021-10-28,株式会社Ｂｒｏｃａｎｔ　Ｃｌｏｓｅｔ,,株式会社,東京都,大田区,蒲田５丁目３３番１号,,13,111,1440052,,,,,,,2021-10-28,1,,,,,ブロカントクロゼット,0
1311,6010903006871,新規,0,2021-10-28,2021-10-28,合同会社ｏｐｔｉｏｎ,,合同会社,東京都,世田谷区,太子堂５丁目４番１１号,,13,112,1540004,,,,,,,2021-10-28,1,,,,,オプション,0
1314,6011003013602,新規,0,2021-10-28,2021-10-28,合同会社ＢＥＰＳ,,合同会社,東京都,目黒区,上目黒１丁目１６番１２号,,13,110,1530051,,,,,,,2021-10-28,1,,,,,ビプス,0
1315,6011003013635,新規,0,2021-10-28,2021-10-28,合同会社ワンツー,,合同会社,東京都,渋谷区,神宮前６丁目２３番４号桑野ビル２Ｆ,,13,113,1500001,,,,,,,2021-10-28,1,,,,,ワンツー,0
1316,6011101096697,新規,0,2021-10-28,2021-10-28,ＯＮＥ　ＷＯＲＬＤ株式会社,,株式会社,東京都,新宿区,新宿２丁目１２番１号,,13,104,1600022,,,,,,,2021-10-28,1,,,,,ワンワールド,0
1317,6011101096730,新規,0,2021-10-28,2021-10-28,株式会社ＧｒａｎｄＳｏｆｔ,,株式会社,東京都,新宿区,四谷１丁目２２番地５,,13,104,1600004,,,,,,,2021-10-28,1,,,,,グランドソフト,0
1318,6011101096739,新規,0,2021-10-28,2021-10-28,Ｙｕｋｉｍｉ株式会社,,株式会社,東京都,新宿区,市谷砂土原町３丁目８番地３,,13,104,1620842,,,,,,,2021-10-28,1,,,,,ユキミ,0
1321,6011203003675,新規,0,2021-10-28,2021-10-28,合同会社ペンライト社,,合同会社,東京都,中野区,江古田１丁目３４番２３号,,13,114,1650022,,,,,,,2021-10-28,1,,,,,ペンライトシャ,0
1334,6011801039897,新規,0,2021-10-28,2021-10-28,中海株式会社,,株式会社,東京都,葛飾区,新宿６丁目２番１号,,13,122,1250051,,,,,,,2021-10-28,1,,,,,チュウカイ,0
1340,6012701016739,新規,0,2021-10-28,2021-10-28,株式会社スカイフォール設計,,株式会社,東京都,西東京市,芝久保町１丁目１２番６６－９１０号,,13,229,1880014,,,,,,,2021-10-28,1,,,,,スカイフォールセッケイ,0
1367,6021003011027,新規,0,2021-10-28,2021-10-28,田中プロセス合同会社,,合同会社,神奈川県,茅ヶ崎市,甘沼２００番地１－２０３号ヴィスタヒル,,14,207,2530004,,,,,,,2021-10-28,1,,,,,タナカプロセス,0
1376,6030001145034,新規,0,2021-10-28,2021-10-28,ＳＡＫＵ株式会社,,株式会社,埼玉県,新座市,畑中１丁目１３番２０号,,11,230,3520012,,,,,,,2021-10-28,1,,,,,サク,0
1383,6030003018056,新規,0,2021-10-28,2021-10-28,ＣＯＮＡＮ電工合同会社,,合同会社,埼玉県,比企郡川島町,大字上伊草５３９－１,,11,346,3500152,,,,,,,2021-10-28,1,,,,,コナンデンコウ,0
1384,6030003018221,新規,0,2021-10-28,2021-10-28,たんぽぽ不動産合同会社,,合同会社,埼玉県,桶川市,泉２丁目１０番４０号,,11,231,3630021,,,,,,,2021-10-28,1,,,,,タンポポフドウサン,0
1387,6030005020613,新規,0,2021-10-28,2021-10-28,ＴＫＳ税理士法人,,その他の設立登記法人,埼玉県,所沢市,寿町２２番１４号－１０２,,11,208,3591122,,,,,,,2021-10-28,1,,,,,ティーケーエス,0
1391,6040001120275,新規,0,2021-10-28,2021-10-28,ＳＲＴ　ＫＡＩＺＥＮ株式会社,,株式会社,千葉県,松戸市,新松戸１丁目４８０番地の１ファミールオンダ４０２号室,,12,207,2700034,,,,,,,2021-10-28,1,,,,,エスアールティーカイゼン,0
1392,6040001120762,新規,0,2021-10-28,2021-10-28,ｓｏｕｒｉｒｅ　ｄ’ａｎｇｅ株式会社,,株式会社,千葉県,野田市,桜の里３丁目２０番地の３,,12,208,2780048,,,,,,,2021-10-28,1,,,,,スリールダンジュ,0
1398,6040003018815,新規,0,2021-10-28,2021-10-28,合同会社クリッパー,,合同会社,千葉県,柏市,中原２丁目２１番１号,,12,217,2770085,,,,,,,2021-10-28,1,,,,,クリッパー,0
1399,6040003018823,新規,0,2021-10-28,2021-10-28,合同会社ｃｈａｌｌｅｎｃｅ,,合同会社,千葉県,船橋市,坪井東３丁目１０番１号グランソシア船橋芽吹の杜１３０３号,,12,204,2740060,,,,,,,2021-10-28,1,,,,,チャレンス,0
1403,6050001050050,新規,0,2021-10-28,2021-10-28,株式会社ＭＩＳＡＫＯ犬舎,,株式会社,茨城県,石岡市,東成井７番地８３,,08,205,3150122,,,,,,,2021-10-28,1,,,,,ミサコケンシャ,0
1404,6050003006158,新規,0,2021-10-28,2021-10-28,合同会社カダールトレーディング,,合同会社,茨城県,坂東市,逆井３５３６大都ビル１０２,,08,228,3060501,,,,,,,2021-10-28,1,,,,,カダールトレーディング,0
1434,6120001241435,新規,0,2021-10-28,2021-10-28,株式会社東美,,株式会社,大阪府,大阪市城東区,中浜２丁目１番１０号,,27,118,5360024,,,,,,,2021-10-28,1,,,,,トウミ,0
1435,6120001241476,新規,0,2021-10-28,2021-10-28,Ｓａｋａｅ株式会社,,株式会社,大阪府,大阪市住吉区,長居東４丁目１５番２１号１０３号室,,27,120,5580004,,,,,,,2021-10-28,1,,,,,サカエ,0
1438,6120003020473,新規,0,2021-10-28,2021-10-28,合同会社ＫＩＤ,,合同会社,大阪府,大阪市浪速区,幸町３丁目３－１０シティスパイア幸町１５０４,,27,111,5560021,,,,,,,2021-10-28,1,,,,,キッド,0
1439,6120003020481,新規,0,2021-10-28,2021-10-28,合同会社Ｓｕｋｕｎａ,,合同会社,大阪府,大阪市中央区,伏見町４丁目４番１号日生伏見町ビル２階,,27,128,5410044,,,,,,,2021-10-28,1,,,,,スクナ,0
1440,6120005022567,新規,0,2021-10-28,2021-10-28,ＮＰＯ法人天寿会,,その他の設立登記法人,大阪府,大阪市中央区,瓦町４丁目５番３号日宝西本町ビル５０３,,27,128,5410048,,,,,,,2021-10-28,1,,,,,テンジュカイ,0
1443,6120103004418,新規,0,2021-10-28,2021-10-28,Ｈｏｐｅｓ＆Ｄｒｅａｍｓ合同会社,,合同会社,大阪府,羽曳野市,誉田２丁目５番１９号,,27,222,5830857,,,,,,,2021-10-28,1,,,,,ホープスアンドドリームス,0
1447,6122001035296,新規,0,2021-10-28,2021-10-28,リベラホーム株式会社,,株式会社,大阪府,八尾市,萱振町１丁目３５番地１２,,27,212,5810834,,,,,,,2021-10-28,1,,,,,リベラホーム,0
1452,6130001070420,新規,0,2021-10-28,2021-10-28,株式会社ほんや光,,株式会社,京都府,京都市伏見区,下鳥羽西柳長町１４４番地１,,26,109,6128489,,,,,,,2021-10-28,1,,,,,ホンヤヒカリ,0
1460,6140001123631,新規,0,2021-10-28,2021-10-28,株式会社Ｔ－ＧＡＩＡコンサルティング,,株式会社,兵庫県,豊岡市,若松町１番１０号,,28,209,6680027,,,,,,,2021-10-28,1,,,,,ティーガイアコンサルティング,0
1463,6140003016916,新規,0,2021-10-28,2021-10-28,合同会社ＷＡＰ,,合同会社,兵庫県,神戸市須磨区,北落合４丁目２６－１０,,28,107,6540151,,,,,,,2021-10-28,1,,,,,ワップ,0
1473,6180001148443,新規,0,2021-10-28,2021-10-28,東海ジェネシス株式会社,,株式会社,愛知県,東海市,加木屋町１０５番地１,,23,222,4770032,,,,,,,2021-10-28,1,,,,,トウカイジェネシス,0
1474,6180001148451,新規,0,2021-10-28,2021-10-28,株式会社ウーマンワークス,,株式会社,愛知県,名古屋市中区,栄５丁目２２番７号坪井南久屋ビル６Ｆ,,23,106,4600008,,,,,,,2021-10-28,1,,,,,ウーマンワークス,0
1480,6190001028801,新規,0,2021-10-28,2021-10-28,株式会社８０２０,,株式会社,三重県,伊勢市,岩淵二丁目５番１号２階,,24,203,5160000,,,,,,,2021-10-28,1,,,,,ハチマルニイマル,0
1482,6200005013269,新規,0,2021-10-28,2021-10-28,一般社団法人ぎふの森学園,,その他の設立登記法人,岐阜県,岐阜市,本荘中ノ町３丁目１０番地宇佐ガーデンプレイス２階Ｅ号,,21,201,5008364,,,,,,,2021-10-28,1,,,,,ギフノモリガクエン,0
1488,6240001058826,新規,0,2021-10-28,2021-10-28,株式会社ライフシステムズカンパニー,,株式会社,広島県,広島市安佐南区,緑井４丁目２９番１５号,,34,105,7310103,,,,,,,2021-10-28,1,,,,,ライフシステムズカンパニー,0
1506,6290001095138,新規,0,2021-10-28,2021-10-28,Ｄｅａｌｅｒ’ｓ　ｒｏｏｍ株式会社,,株式会社,福岡県,福岡市中央区,大名１丁目８番２５号,,40,133,8100041,,,,,,,2021-10-28,1,,,,,ディーラーズルーム,0
1507,6290001095146,新規,0,2021-10-28,2021-10-28,株式会社グリーンフューチャー,,株式会社,福岡県,福岡市東区,若宮３丁目１０番１１号,,40,131,8130036,,,,,,,2021-10-28,1,,,,,グリーンフューチャー,0
1508,6290001095154,新規,0,2021-10-28,2021-10-28,株式会社ＢＯＵＮＣＥＢＡＣＫ,,株式会社,福岡県,福岡市中央区,荒戸２丁目４番３－１１０３号,,40,133,8100062,,,,,,,2021-10-28,1,,,,,バウンスバック,0
1509,6290001095187,新規,0,2021-10-28,2021-10-28,西部小中学校特別教室ＰＦＩ株式会社,,株式会社,福岡県,福岡市中央区,大濠公園２番３９号,,40,133,8100051,,,,,,,2021-10-28,1,,,,,セイブショウチュウガッコウトクベツキョウシツピーエフアイ,0
1519,6330001029116,新規,0,2021-10-28,2021-10-28,株式会社ＲＯＵＴＥ,,株式会社,熊本県,熊本市東区,月出１丁目８番３７―１２０１号シティライフ月出,,43,102,8620920,,,,,,,2021-10-28,1,,,,,ルート,0
1521,6340001024198,新規,0,2021-10-28,2021-10-28,株式会社武田信建設,,株式会社,鹿児島県,鹿児島市,坂元町５５番３１－１号,,46,201,8920862,,,,,,,2021-10-28,1,,,,,タケダシンケンセツ,0
1522,6340003003613,新規,0,2021-10-28,2021-10-28,合同会社フォリクロ,,合同会社,鹿児島県,鹿児島市,山田町１５３３番地１田平コーポ２号,,46,201,8910104,,,,,,,2021-10-28,1,,,,,フォリクロ,0
1523,6350003003959,新規,0,2021-10-28,2021-10-28,合同会社ＳＥＯ,,合同会社,宮崎県,北諸県郡三股町,大字宮村１４２６番地４,,45,341,8891912,,,,,,,2021-10-28,1,,,,,セオ,0
1524,6360001029559,新規,0,2021-10-28,2021-10-28,株式会社クラフト,,株式会社,沖縄県,那覇市,銘苅３丁目１７番２２号,,47,201,9000004,,,,,,,2021-10-28,1,,,,,クラフト,0
1533,6370001047758,新規,0,2021-10-28,2021-10-28,株式会社ＹＡＡ,,株式会社,宮城県,仙台市太白区,泉崎１丁目３３番１０号,,04,104,9820031,,,,,,,2021-10-28,1,,,,,ワイエーエー,0
1535,6370003005458,新規,0,2021-10-28,2021-10-28,ケーツーエクスプレス合同会社,,合同会社,宮城県,仙台市宮城野区,小田原１丁目２番地５号２階,,04,102,9830803,,,,,,,2021-10-28,1,,,,,ケーツーエクスプレス,0
1539,6400001015653,新規,0,2021-10-28,2021-10-28,株式会社アルフィー,,株式会社,岩手県,岩手郡雫石町,千刈田１２番地２,,03,301,0200541,,,,,,,2021-10-28,1,,,,,アルフィー,0
1546,6430001085248,新規,0,2021-10-28,2021-10-28,エイチアンドワイ株式会社,,株式会社,北海道,登別市,若山町２丁目４３番地７２,,01,230,0590026,,,,,,,2021-10-28,1,,,,,エイチアンドワイ,0
1547,6430001085264,新規,0,2021-10-28,2021-10-28,株式会社ＳＣ,,株式会社,北海道,札幌市西区,八軒九条東５丁目１番２０号,,01,107,0630869,,,,,,,2021-10-28,1,,,,,エスシー,0
1548,6430005014319,新規,0,2021-10-28,2021-10-28,特定非営利活動法人メリーライズ,,その他の設立登記法人,北海道,札幌市東区,伏古十三条３丁目８番２８号フィレンツ伏古２０２号,,01,103,0070873,,,,,,,2021-10-28,1,,,,,メリーライズ,0
1549,6450001013520,新規,0,2021-10-28,2021-10-28,うすはまフーズ株式会社,,株式会社,北海道,留萌郡小平町,字臼谷１３０番地の５,,01,482,0783302,,,,,,,2021-10-28,1,,,,,ウスハマフーズ,0
1557,6500001023761,新規,0,2021-10-28,2021-10-28,株式会社瑞月工業,,株式会社,愛媛県,四国中央市,上柏町１７７４番地１,,38,213,7990412,,,,,,,2021-10-28,1,,,,,ミツキコウギョウ,0
1576,7010001221983,新規,0,2021-10-28,2021-10-28,株式会社ａｕｓｌｏｓｅｎ,,株式会社,東京都,千代田区,九段南２丁目４番４号,,13,101,1020074,,,,,,,2021-10-28,1,,,,,,0
1578,7010001222065,新規,0,2021-10-28,2021-10-28,株式会社フェイス,,株式会社,東京都,文京区,春日１丁目９番２５号東方マンション３１６,,13,105,1120003,,,,,,,2021-10-28,1,,,,,フェイス,0
1586,7010403026403,新規,0,2021-10-28,2021-10-28,ＤＲＥＡＭＬＡＮＤ合同会社,,合同会社,東京都,港区,西麻布３丁目５－３８ＨＡＲＵ西麻布１０１,,13,103,1060031,,,,,,,2021-10-28,1,,,,,ドリームランド,0
1594,7010805002893,新規,0,2021-10-28,2021-10-28,小南給湯協同組合,,その他の設立登記法人,東京都,大田区,大森東５丁目３１番３号,,13,111,1430012,,,,,,,2021-10-28,1,,,,,コナンキュウトウ,0
1601,7011001143680,新規,0,2021-10-28,2021-10-28,株式会社ヌエ,,株式会社,東京都,目黒区,東山１丁目１１番７号レジデンス中目黒３０２,,13,110,1530043,,,,,,,2021-10-28,1,,,,,ヌエ,0
1602,7011003013618,新規,0,2021-10-28,2021-10-28,クレオ合同会社,,合同会社,東京都,渋谷区,渋谷２丁目１９－１５宮益坂ビルディング６０９,,13,113,1500002,,,,,,,2021-10-28,1,,,,,クレオ,0
1608,7011103011117,新規,0,2021-10-28,2021-10-28,合同会社Ｓｕｒｒｏｕｎｄ,,合同会社,東京都,新宿区,信濃町９番地１６,,13,104,1600016,,,,,,,2021-10-28,1,,,,,サラウンド,0
1614,7011601025502,新規,0,2021-10-28,2021-10-28,株式会社ＥＢＷ,,株式会社,東京都,練馬区,練馬１丁目１３番１０号ダイヤコーポＢ１Ｆ,,13,120,1760001,,,,,,,2021-10-28,1,,,,,イービーダブリュー,0
1616,7011701024809,新規,0,2021-10-28,2021-10-28,東張株式会社,,株式会社,東京都,江戸川区,西小岩３丁目２７－１３,,13,123,1330057,,,,,,,2021-10-28,1,,,,,トウチョウ,0
1618,7011801039896,新規,0,2021-10-28,2021-10-28,株式会社ＲＩＳＥ,,株式会社,東京都,足立区,加賀１丁目１４番１号,,13,121,1230861,,,,,,,2021-10-28,1,,,,,ライズ,0
1635,7013301048205,新規,0,2021-10-28,2021-10-28,ピュアテクノロジー株式会社,,株式会社,東京都,豊島区,東池袋１丁目２４番１号ニッセイ池袋ビル,,13,116,1700013,,,,,,,2021-10-28,1,,,,,ピュアテクノロジー,0
1638,7020001143673,新規,0,2021-10-28,2021-10-28,株式会社Ｍ’ｓ　Ｇｒｏｕｐ,,株式会社,神奈川県,川崎市川崎区,砂子２丁目９番地３三鶴ビル３Ｆ,,14,131,2100006,,,,,,,2021-10-28,1,,,,,エムズグループ,0
1639,7020001143681,新規,0,2021-10-28,2021-10-28,株式会社ＹＲＫ．ｃｏｍ,,株式会社,神奈川県,横浜市中区,常盤町５丁目５７番地竹内ビル３階,,14,104,2310014,,,,,,,2021-10-28,1,,,,,ワイアールケイドットコム,0
1645,7020003020722,新規,0,2021-10-28,2021-10-28,合同会社月のひとしずく,,合同会社,神奈川県,横浜市神奈川区,菅田町４８８番地７－３－２０２,,14,102,2210864,,,,,,,2021-10-28,1,,,,,ツキノヒトシズク,0
1658,7030005020570,新規,0,2021-10-28,2021-10-28,ＧＳユアサインフラシステムズ労働組合,,その他の設立登記法人,埼玉県,川越市,大字下赤坂大野原６７７番地,,11,201,3501155,,,,,,,2021-10-28,1,,,,,ジーエスユアサインフラシステムズ,0
1665,7040001120745,新規,0,2021-10-28,2021-10-28,孝耀コーポレーション株式会社,,株式会社,千葉県,流山市,おおたかの森南２丁目２０番地の２,,12,220,2700139,,,,,,,2021-10-28,1,,,,,コウヨウコーポレーション,0
1666,7040001120753,新規,0,2021-10-28,2021-10-28,東和商事株式会社,,株式会社,千葉県,市川市,行徳駅前４丁目２６番２３号,,12,203,2720133,,,,,,,2021-10-28,1,,,,,トウワショウジ,0
1667,7040001120761,新規,0,2021-10-28,2021-10-28,株式会社創若,00124688,株式会社,千葉県,千葉市稲毛区,宮野木町１２６６番地８,,12,103,2630054,,,,,,,2021-10-28,1,,,,,ソウワ,0
1668,7040001120786,新規,0,2021-10-28,2021-10-28,ファーストドリーム株式会社,,株式会社,千葉県,佐倉市,西志津４丁目２－４デュオヒルズ西志津１０６,,12,212,2850845,,,,,,,2021-10-28,1,,,,,ファーストドリーム,0
1669,7040001120794,新規,0,2021-10-28,2021-10-28,株式会社納豆夫婦,,株式会社,千葉県,千葉市稲毛区,小中台町１５１３－３アインズコートプライム棟２０５,,12,103,2630044,,,,,,,2021-10-28,1,,,,,ナットウフウフ,0
1671,7040003018822,新規,0,2021-10-28,2021-10-28,合同会社スプリング,,合同会社,千葉県,鎌ケ谷市,南初富３丁目１９番２号,,12,224,2730123,,,,,,,2021-10-28,1,,,,,スプリング,0
1675,7050001050033,新規,0,2021-10-28,2021-10-28,株式会社ＳｉｓＰ,,株式会社,茨城県,水戸市,栄町１丁目８－２１,,08,201,3100064,,,,,,,2021-10-28,1,,,,,エスイズピー,0
1700,7120001241418,新規,0,2021-10-28,2021-10-28,株式会社吉田設備,,株式会社,大阪府,守口市,京阪本通１丁目８番２－８０７号,,27,209,5700083,,,,,,,2021-10-28,1,,,,,ヨシダセツビ,0
1701,7120001241426,新規,0,2021-10-28,2021-10-28,株式会社ベビーケアプラザ,,株式会社,大阪府,大阪市阿倍野区,阪南町５丁目４番２８号,,27,119,5450021,,,,,,,2021-10-28,1,,,,,ベビーケアプラザ,0
1702,7120001241434,新規,0,2021-10-28,2021-10-28,株式会社サンズマネジメント,,株式会社,大阪府,大阪市西淀川区,福町２丁目１０番１３号,,27,113,5550034,,,,,,,2021-10-28,1,,,,,サンズマネジメント,0
1706,7120003020480,新規,0,2021-10-28,2021-10-28,合同会社ＡＭＩ　ＧＲＯＵＰ,,合同会社,大阪府,大阪市住之江区,南加賀屋２丁目９番４号,,27,125,5590015,,,,,,,2021-10-28,1,,,,,アミグループ,0
1707,7120003020497,新規,0,2021-10-28,2021-10-28,合同会社カンパニュラ,,合同会社,大阪府,大阪市東淀川区,瑞光５丁目２番２号,,27,114,5330005,,,,,,,2021-10-28,1,,,,,カンパニュラ,0
1715,7130001070403,新規,0,2021-10-28,2021-10-28,株式会社ＢｒｏａｄＰｅａｋ,,株式会社,京都府,京田辺市,同志社山手４丁目２番地８９,,26,211,6100315,,,,,,,2021-10-28,1,,,,,ブロードピーク,0
1718,7130005016303,新規,0,2021-10-28,2021-10-28,一般社団法人ＣＯＭＭＰＡＳＳ,,その他の設立登記法人,京都府,京都市西京区,嵐山中尾下町３２番地３,,26,111,6160004,,,,,,,2021-10-28,1,,,,,コンパス,0
1734,7150001025058,新規,0,2021-10-28,2021-10-28,バンビープランニング株式会社,,株式会社,奈良県,生駒郡斑鳩町,興留７丁目１番１４号,,29,344,6360123,,,,,,,2021-10-28,1,,,,,バンビープランニング,0
1737,7160003002418,新規,0,2021-10-28,2021-10-28,合同会社ささなみ,,合同会社,滋賀県,大津市,今堅田２丁目２２番６号,,25,201,5200241,,,,,,,2021-10-28,1,,,,,ササナミ,0
1743,7180001148434,新規,0,2021-10-28,2021-10-28,ミノベーション株式会社,,株式会社,愛知県,名古屋市中区,錦３丁目１番１４号プレサンス錦プレミアム６１０号,,23,106,4600003,,,,,,,2021-10-28,1,,,,,ミノベーション,0
1744,7180001148450,新規,0,2021-10-28,2021-10-28,株式会社アライブ,,株式会社,愛知県,知多市,にしの台３丁目３番地の１８,,23,224,4780055,,,,,,,2021-10-28,1,,,,,アライブ,0
1745,7180001148459,新規,0,2021-10-28,2021-10-28,アースプレミアム不動産株式会社,,株式会社,愛知県,名古屋市熱田区,切戸町３丁目５８番地,,23,109,4560076,,,,,,,2021-10-28,1,,,,,アースプレミアムフドウサン,0
1746,7180001148467,新規,0,2021-10-28,2021-10-28,株式会社メドグロース,,株式会社,愛知県,名古屋市北区,平安２丁目２４番６３号,,23,103,4620819,,,,,,,2021-10-28,1,,,,,メドグロース,0
1748,7180003023123,新規,0,2021-10-28,2021-10-28,合同会社寺崎薬局,,合同会社,愛知県,名古屋市南区,菊住２丁目２番２号,,23,112,4570012,,,,,,,2021-10-28,1,,,,,テラサキヤッキョク,0
1749,7180301035555,新規,0,2021-10-28,2021-10-28,株式会社ソーワン,,株式会社,愛知県,豊橋市,入船町１９番地１－１０１号,,23,201,4418033,,,,,,,2021-10-28,1,,,,,ソーワン,0
1753,7200005013268,新規,0,2021-10-28,2021-10-28,特定非営利活動法人ブリッジ,,その他の設立登記法人,岐阜県,美濃加茂市,太田町２５４２－１０太田パークビル３Ｆ,,21,211,5050041,,,,,,,2021-10-28,1,,,,,ブリッジ,0
1760,7240001058825,新規,0,2021-10-28,2021-10-28,株式会社栄創,,株式会社,広島県,広島市西区,高須台６丁目５番１７号,,34,104,7330876,,,,,,,2021-10-28,1,,,,,エイソウ,0
1765,7250001019207,新規,0,2021-10-28,2021-10-28,株式会社セキュリティ１,,株式会社,山口県,岩国市,山手町１丁目６－１６,,35,208,7400022,,,,,,,2021-10-28,1,,,,,セキュリティワン,0
1771,7260001036135,新規,0,2021-10-28,2021-10-28,株式会社ともつか工務店,,株式会社,岡山県,岡山市中区,藤崎６４６番地１７,,33,102,7028006,,,,,,,2021-10-28,1,,,,,トモツカコウムテン,0
1772,7260001036143,新規,0,2021-10-28,2021-10-28,株式会社ＬＩＡＮ,,株式会社,岡山県,岡山市南区,築港新町１丁目６‐５（２Ｆ）,,33,104,7028056,,,,,,,2021-10-28,1,,,,,リアン,0
1778,7290003011736,新規,0,2021-10-28,2021-10-28,合同会社エムズフィールド,,合同会社,福岡県,大川市,大字幡保３０３番地５,,40,212,8310033,,,,,,,2021-10-28,1,,,,,エムズフィールド,0
1779,7290003011752,新規,0,2021-10-28,2021-10-28,ｋｕｕ合同会社,,合同会社,福岡県,福岡市東区,雁の巣２丁目３－６－２,,40,131,8110206,,,,,,,2021-10-28,1,,,,,クー,0
1780,7290003011760,新規,0,2021-10-28,2021-10-28,Ｈａｋｏｂｕｎｅ　Ｊａｐａｎ合同会社,,合同会社,福岡県,福岡市中央区,天神２丁目３番１０号天神パインクレスト７１９号,,40,133,8100001,,,,,,,2021-10-28,1,,,,,ハコブネジャパン,0
1786,7310005008562,新規,0,2021-10-28,2021-10-28,一般社団法人まざーりーふあいらぼ,,その他の設立登記法人,長崎県,島原市,亀の甲町乙１６３６番地,,42,203,8550004,,,,,,,2021-10-28,1,,,,,マザーリーフアイラボ,0
1790,7330001029115,新規,0,2021-10-28,2021-10-28,株式会社ＴＡＴＨ,,株式会社,熊本県,熊本市西区,島崎６丁目４番１号スカイガーデン島崎２０２号,,43,103,8600073,,,,,,,2021-10-28,1,,,,,タス,0
1792,7340003003612,新規,0,2021-10-28,2021-10-28,合同会社フィールドＦＵＪＩ,,合同会社,鹿児島県,鹿児島市,皇徳寺台２丁目１７番１１号,,46,201,8910103,,,,,,,2021-10-28,1,,,,,フィールドフジ,0
1796,7360001029558,新規,0,2021-10-28,2021-10-28,株式会社かなえるゲート,,株式会社,沖縄県,那覇市,曙２丁目４番１３号２－Ｃ号室,,47,201,9000002,,,,,,,2021-10-28,1,,,,,カナエルゲート,0
1800,7360003011522,新規,0,2021-10-28,2021-10-28,合同会社すっぽん協会,,合同会社,沖縄県,那覇市,字仲井真５７,,47,201,9020074,,,,,,,2021-10-28,1,,,,,スッポンキョウカイ,0
1801,7370001047757,新規,0,2021-10-28,2021-10-28,株式会社エスエイティ,,株式会社,宮城県,仙台市青葉区,通町２丁目１３番３号シティコートブラウン２０１,,04,101,9810915,,,,,,,2021-10-28,1,,,,,エスエイティ,0
1807,7400001015652,新規,0,2021-10-28,2021-10-28,株式会社グレースコーポレーション,,株式会社,岩手県,盛岡市,上飯岡２２地割４７番地２,,03,201,0200854,,,,,,,2021-10-28,1,,,,,グレースコーポレーション,0
1811,7430001085255,新規,0,2021-10-28,2021-10-28,株式会社ＫＡＲＡ,,株式会社,北海道,札幌市清田区,里塚三条５丁目１３番１５号,,01,110,0040803,,,,,,,2021-10-28,1,,,,,カラ,0
1812,7430003013296,新規,0,2021-10-28,2021-10-28,合同会社ＲＥＦＬＥＣＴＩＯＮ,,合同会社,北海道,札幌市東区,東雁来十一条４丁目８番１０号,,01,103,0070031,,,,,,,2021-10-28,1,,,,,リフレクション,0
1826,8010001222072,新規,0,2021-10-28,2021-10-28,Ｆｒｏｍｏｎｄｅ株式会社,,株式会社,東京都,千代田区,平河町１丁目６－１１エクシール平河町地下１階５号室,,13,101,1020093,,,,,,,2021-10-28,1,,,,,フロモンド,0
1827,8010001222122,新規,0,2021-10-28,2021-10-28,株式会社英和,,株式会社,東京都,中央区,日本橋堀留町１丁目１０番１号カクタビル５Ｆ,,13,102,1030012,,,,,,,2021-10-28,1,,,,,エイワ,0
1830,8010003036116,新規,0,2021-10-28,2021-10-28,ライフクリエイト合同会社,,合同会社,東京都,中央区,勝どき１丁目３番１－３１０３号,,13,102,1040054,,,,,,,2021-10-28,1,,,,,ライフクリエイト,0
1834,8010101014931,新規,0,2021-10-28,2021-10-28,小夏日和株式会社,,株式会社,東京都,八王子市,大和田町７丁目３－１１－３Ｆ－Ｃ,,13,201,1920045,,,,,,,2021-10-28,1,,,,,コナツビヨリ,0
1838,8010401163503,新規,0,2021-10-28,2021-10-28,株式会社リーチパートナーズ,,株式会社,東京都,港区,赤坂７丁目２番６－２０６号,,13,103,1070052,,,,,,,2021-10-28,1,,,,,リーチパートナーズ,0
1839,8010403026410,新規,0,2021-10-28,2021-10-28,ユスフ合同会社,,合同会社,東京都,港区,六本木４丁目１番２－５０４号,,13,103,1060032,,,,,,,2021-10-28,1,,,,,ユスフ,0
1840,8010405020329,新規,0,2021-10-28,2021-10-28,一般財団法人オークネット財団,,その他の設立登記法人,東京都,港区,北青山２丁目５番８号,,13,103,1070061,,,,,,,2021-10-28,1,,,,,オークネットザイダン,0
1846,8010701041714,新規,0,2021-10-28,2021-10-28,株式会社キャタピー,,株式会社,東京都,品川区,東五反田３丁目１７番４号,,13,109,1410022,,,,,,,2021-10-28,1,,,,,キャタピー,0
1854,8011001143597,新規,0,2021-10-28,2021-10-28,株式会社サイド・ブイ,,株式会社,東京都,渋谷区,道玄坂１丁目１２－１,,13,113,1500043,,,,,,,2021-10-28,1,,,,,サイドブイ,0
1855,8011001143696,新規,0,2021-10-28,2021-10-28,株式会社クーシーラボ,,株式会社,東京都,渋谷区,東３丁目１６番３号,,13,113,1500011,,,,,,,2021-10-28,1,,,,,クーシーラボ,0
1858,8011003013600,新規,0,2021-10-28,2021-10-28,ＥＤＰ　Ｊａｐａｎ合同会社,,合同会社,東京都,渋谷区,恵比寿４丁目１１番７号,,13,113,1500013,,,,,,,2021-10-28,1,,,,,イーディピィジャパン,0
1859,8011003013617,新規,0,2021-10-28,2021-10-28,合同会社クリエイティブドリームエージェンシーＪＡＰＡＮ,,合同会社,東京都,渋谷区,神宮前６丁目２３番４号桑野ビル２階,,13,113,1500001,,,,,,,2021-10-28,1,,,,,クリエイティブドリームエージェンシージャパン,0
1862,8011005009274,新規,0,2021-10-28,2021-10-28,一般社団法人天城山荘,,その他の設立登記法人,東京都,目黒区,中町１丁目２２－１１,,13,110,1530065,,,,,,,2021-10-28,1,,,,,アマギサンソウ,0
1864,8011101096737,新規,0,2021-10-28,2021-10-28,株式会社７７５ＣＯＭＰＡＮＹ,,株式会社,東京都,新宿区,四谷２丁目１３番１－１００３号,,13,104,1600004,,,,,,,2021-10-28,1,,,,,ナナナナゴカンパニー,0
1865,8011103011108,新規,0,2021-10-28,2021-10-28,ＷＫＭＴ合同会社,,合同会社,東京都,新宿区,西新宿２丁目１番１号新宿三井ビルディング４９階,,13,104,1600023,,,,,,,2021-10-28,1,,,,,ダブリュケーエムティー,0
1867,8011301027302,新規,0,2021-10-28,2021-10-28,Ｔａｈｌｅｅ株式会社,,株式会社,東京都,杉並区,荻窪４丁目１０番５号,,13,115,1670051,,,,,,,2021-10-28,1,,,,,ターリー,0
1878,8011601025501,新規,0,2021-10-28,2021-10-28,株式会社ＷＡＮＤ,,株式会社,東京都,練馬区,春日町１丁目２７番１０号,,13,120,1790074,,,,,,,2021-10-28,1,,,,,ウォンド,0
1880,8011701024808,新規,0,2021-10-28,2021-10-28,ＦＣＨ株式会社,,株式会社,東京都,江戸川区,平井４丁目２０－１５－３０２,,13,123,1320035,,,,,,,2021-10-28,1,,,,,エフシーエッチ,0
1882,8011801039895,新規,0,2021-10-28,2021-10-28,株式会社ビルドテック,,株式会社,東京都,足立区,竹の塚３丁目１０番１号竹の塚ビル３階,,13,121,1210813,,,,,,,2021-10-28,1,,,,,ビルドテック,0
1883,8011801039904,新規,0,2021-10-28,2021-10-28,株式会社ＭＡＴＡＨＡＲＩ,,株式会社,東京都,足立区,辰沼２丁目６－１８,,13,121,1210054,,,,,,,2021-10-28,1,,,,,マタハリ,0
1888,8012801021182,新規,0,2021-10-28,2021-10-28,株式会社ラシャンス,,株式会社,東京都,国立市,東３丁目９番地の２８,,13,215,1860002,,,,,,,2021-10-28,1,,,,,ラシャンス,0
1899,8020001143648,新規,0,2021-10-28,2021-10-28,株式会社エムオー,,株式会社,神奈川県,川崎市川崎区,小田６丁目１２番６号,,14,131,2100846,,,,,,,2021-10-28,1,,,,,エムオー,0
1900,8020001143672,新規,0,2021-10-28,2021-10-28,優和株式会社,,株式会社,神奈川県,横浜市泉区,中田西１丁目１９番１５－３０３号,,14,116,2450015,,,,,,,2021-10-28,1,,,,,ユウワ,0
1901,8020001143680,新規,0,2021-10-28,2021-10-28,株式会社ハウススター,,株式会社,神奈川県,横浜市神奈川区,広台太田町５番地３,,14,102,2210824,,,,,,,2021-10-28,1,,,,,ハウススター,0
1906,8020003020713,新規,0,2021-10-28,2021-10-28,合同会社年中夢求,,合同会社,神奈川県,横浜市青葉区,市ケ尾町１０６２－３,,14,117,2250024,,,,,,,2021-10-28,1,,,,,ネンジュウムキュウ,0
1914,8021001074313,新規,0,2021-10-28,2021-10-28,株式会社Ｔｓ,,株式会社,神奈川県,横須賀市,武１丁目５番６号,,14,201,2380313,,,,,,,2021-10-28,1,,,,,ティーズ,0
1915,8021001074338,新規,0,2021-10-28,2021-10-28,アニメ地域おこし学校株式会社,,株式会社,神奈川県,横須賀市,久里浜８丁目１８番２－５１１号,,14,201,2390831,,,,,,,2021-10-28,1,,,,,アニメチイキオコシガッコウ,0
1917,8021005012319,新規,0,2021-10-28,2021-10-28,特定非営利活動法人かいえんたい,,その他の設立登記法人,神奈川県,大和市,代官３丁目１７番地２,,14,213,2420025,,,,,,,2021-10-28,1,,,,,カイエンタイ,0
1926,8030001145008,新規,0,2021-10-28,2021-10-28,ｆａｓｔｃｏｄｅ株式会社,,株式会社,埼玉県,川口市,本町２丁目１０番２２－６０１号,,11,203,3320012,,,,,,,2021-10-28,1,,,,,ファストコード,0
1927,8030001145024,新規,0,2021-10-28,2021-10-28,昭光自動車株式会社,,株式会社,埼玉県,川越市,大字中福６１６番地１,,11,201,3501156,,,,,,,2021-10-28,1,,,,,ショウコウジドウシャ,0
1928,8030001145040,新規,0,2021-10-28,2021-10-28,株式会社スタッフ・トモ,,株式会社,埼玉県,朝霞市,根岸台８丁目６番２６号,,11,227,3510005,,,,,,,2021-10-28,1,,,,,スタッフトモ,0
1935,8030005020611,新規,0,2021-10-28,2021-10-28,Ｇ８行政書士法人,,その他の設立登記法人,埼玉県,本庄市,山王堂１０９番地,,11,211,3670071,,,,,,,2021-10-28,1,,,,,ジーエイト,0
1942,8040001120744,新規,0,2021-10-28,2021-10-28,株式会社川澄塗装,,株式会社,千葉県,鎌ケ谷市,北中沢２丁目２０番５２号,,12,224,2730111,,,,,,,2021-10-28,1,,,,,カワスミトソウ,0
1943,8040001120760,新規,0,2021-10-28,2021-10-28,株式会社日暮ホームプール,,株式会社,千葉県,千葉市緑区,平川町２１７４番地５,,12,105,2660004,,,,,,,2021-10-28,1,,,,,ヒグラシホームプール,0
1948,8050001050032,新規,0,2021-10-28,2021-10-28,ミルフォード株式会社,,株式会社,茨城県,稲敷郡阿見町,中央７丁目１０－９フローラル・フジ１０２号,,08,443,3000332,,,,,,,2021-10-28,1,,,,,ミルフォード,0
1951,8050005012953,新規,0,2021-10-28,2021-10-28,一般社団法人家宝の会,,その他の設立登記法人,茨城県,つくば市,谷田部４３７７番地１,,08,220,3050861,,,,,,,2021-10-28,1,,,,,カホウノカイ,0
1955,8060001034224,新規,0,2021-10-28,2021-10-28,Ｋ’ｓコーポレーション株式会社,,株式会社,栃木県,宇都宮市,針ヶ谷町５４０番４号,,09,201,3210147,,,,,,,2021-10-28,1,,,,,ケーズコーポレーション,0
1964,8100001034764,新規,0,2021-10-28,2021-10-28,株式会社パインブックメディカル,,株式会社,長野県,上高井郡小布施町,大字小布施５番地１７,,20,541,3810201,,,,,,,2021-10-28,1,,,,,パインブックメディカル,0
1975,8120001241458,新規,0,2021-10-28,2021-10-28,株式会社サテラアイ,,株式会社,大阪府,大阪市北区,鶴野町３番９－３６０９号,,27,127,5300014,,,,,,,2021-10-28,1,,,,,サテラアイ,0
1976,8120001241466,新規,0,2021-10-28,2021-10-28,株式会社ｃａｍａｒａｄｅ,,株式会社,大阪府,大阪市浪速区,元町２丁目１３番３６号,,27,111,5560016,,,,,,,2021-10-28,1,,,,,カマラード,0
1977,8120001241474,新規,0,2021-10-28,2021-10-28,株式会社Ｔｒｅｓ　Ｃｕｒａ,,株式会社,大阪府,大阪市平野区,瓜破東８丁目８番２２号,,27,126,5470022,,,,,,,2021-10-28,1,,,,,トレスクーレ,0
1982,8120101064560,新規,0,2021-10-28,2021-10-28,株式会社リアルサン,,株式会社,大阪府,堺市南区,晴美台２丁４１番３号,,27,145,5900113,,,,,,,2021-10-28,1,,,,,リアルサン,0
1989,8120901045108,新規,0,2021-10-28,2021-10-28,株式会社ＬＹＮＸ,,株式会社,大阪府,吹田市,千里山西３丁目４１番１４号,,27,205,5650851,,,,,,,2021-10-28,1,,,,,リンクス,0
2001,8130001070393,新規,0,2021-10-28,2021-10-28,株式会社センペル・エース,,株式会社,京都府,京田辺市,草内大切４８番地１,,26,211,6100311,,,,,,,2021-10-28,1,,,,,センペルエース,0
2002,8130001070419,新規,0,2021-10-28,2021-10-28,株式会社漸陣,,株式会社,京都府,京都市左京区,岩倉西宮田町５７番地３,,26,103,6060011,,,,,,,2021-10-28,1,,,,,ゼンジン,0
2003,8130001070427,新規,0,2021-10-28,2021-10-28,株式会社豊海商事,,株式会社,京都府,京都市下京区,平居町６９－１河原町フラット２Ｆ６号室,,26,106,6008118,,,,,,,2021-10-28,1,,,,,トヨミショウジ,0
2010,8150001025057,新規,0,2021-10-28,2021-10-28,株式会社出井工業,,株式会社,奈良県,北葛城郡広陵町,大字三吉２２９番地１,,29,426,6350823,,,,,,,2021-10-28,1,,,,,デイコウギョウ,0
2015,8180001148458,新規,0,2021-10-28,2021-10-28,株式会社オスカー,,株式会社,愛知県,名古屋市南区,鶴里町１丁目２８番地３,,23,112,4570021,,,,,,,2021-10-28,1,,,,,オスカー,0
2021,8180003023122,新規,0,2021-10-28,2021-10-28,合同会社エムエナジー,,合同会社,愛知県,名古屋市昭和区,御器所２丁目５番６号,,23,107,4660051,,,,,,,2021-10-28,1,,,,,エムエナジー,0
2022,8180003023130,新規,0,2021-10-28,2021-10-28,橘合同会社,,合同会社,愛知県,名古屋市瑞穂区,堀田通３丁目１番１０栄ビル１Ｆ,,23,108,4670862,,,,,,,2021-10-28,1,,,,,タチバナ,0
2024,8180301035554,新規,0,2021-10-28,2021-10-28,株式会社桜ブロッサムグループ,,株式会社,愛知県,西尾市,住崎町新切山１５番地１,,23,213,4450876,,,,,,,2021-10-28,1,,,,,サクラブロッサムグループ,0
2027,8190001028799,新規,0,2021-10-28,2021-10-28,株式会社サカエ美工社,,株式会社,三重県,四日市市,波木南台１丁目８２番地サニーコート波木ＩＩ２０３,00124694,24,202,5100963,,,,,,,2021-10-28,1,,,,,サカエビコウシャ,0
2032,8200002028532,新規,0,2021-10-28,2021-10-28,有限会社三河屋商会,,有限会社,岐阜県,中津川市,太田町１丁目５番２７号,,21,206,5080033,,,,,,,2021-10-28,1,,,,,ミカワヤショウカイ,0
2035,8230001019059,新規,0,2021-10-28,2021-10-28,株式会社マリーナ自動車,,株式会社,富山県,射水市,本江２８８７番地１,,16,211,9330244,,,,,,,2021-10-28,1,,,,,マリーナジドウシャ,0
2036,8240005015292,新規,0,2021-10-28,2021-10-28,一般社団法人日本侵襲医療安全推進啓発協議会,,その他の設立登記法人,広島県,広島市南区,東雲本町２丁目３番４号,,34,103,7340023,,,,,,,2021-10-28,1,,,,,ニホンシンシュウイリョウアンゼンスイシンケイハツキョウギカイ,0
2038,8260001036142,新規,0,2021-10-28,2021-10-28,株式会社ランドスケープデザイン,,株式会社,岡山県,岡山市北区,奉還町１丁目３番１１号,,33,101,7000026,,,,,,,2021-10-28,1,,,,,ランドスケープデザイン,0
2041,8280001008544,新規,0,2021-10-28,2021-10-28,株式会社福田本店,,株式会社,島根県,松江市,西川津町２１０１番地１,,32,201,6900823,,,,,,,2021-10-28,1,,,,,フクダホンテン,0
2058,8310005008561,新規,0,2021-10-28,2021-10-28,特定非営利活動法人ｃｏｎｐｅｉｔｏ,,その他の設立登記法人,長崎県,西彼杵郡時津町,浦郷２６０番地３アンジュール時津２階,,42,308,8512105,,,,,,,2021-10-28,1,,,,,コンペイトウ,0
2060,8320003003646,新規,0,2021-10-28,2021-10-28,合同会社令和不動産,,合同会社,大分県,佐伯市,大字海崎７４番地,,44,205,8761105,,,,,,,2021-10-28,1,,,,,レイワフドウサン,0
2064,8350003003957,新規,0,2021-10-28,2021-10-28,合同会社ジェイ,,合同会社,宮崎県,延岡市,浜砂２丁目５－６,,45,203,8820851,,,,,,,2021-10-28,1,,,,,ジェイ,0
2068,8360003011521,新規,0,2021-10-28,2021-10-28,合同会社Ｏｎｄ,,合同会社,沖縄県,沖縄市,大里１丁目３３番３６号２Ｆ,,47,211,9042163,,,,,,,2021-10-28,1,,,,,オンド,0
2073,8380001032294,新規,0,2021-10-28,2021-10-28,株式会社ＮＥＸＴ　ＣＲＥＡＴＥ,,株式会社,福島県,福島市,飯坂町平野字道添２３番地の４２,,07,201,9600231,,,,,,,2021-10-28,1,,,,,ネクストクリエイト,0
2075,8380005012490,新規,0,2021-10-28,2021-10-28,一般社団法人風の色,,その他の設立登記法人,福島県,西白河郡矢吹町,花咲１２３番地４花咲ログハウスＣ,,07,466,9690285,,,,,,,2021-10-28,1,,,,,カゼノイロ,0
2081,8430001085246,新規,0,2021-10-28,2021-10-28,株式会社Ｐｉｃｌｏｖｅｒ,,株式会社,北海道,札幌市中央区,大通西２２丁目１番２３号,,01,101,0640820,,,,,,,2021-10-28,1,,,,,ピックローバー,0
2083,8430003013279,新規,0,2021-10-28,2021-10-28,合同会社リアン,,合同会社,北海道,沙流郡日高町,富川東３丁目４番地３,,01,601,0550004,,,,,,,2021-10-28,1,,,,,リアン,0
2084,8470001018796,新規,0,2021-10-28,2021-10-28,後藤塗装株式会社,,株式会社,香川県,坂出市,府中町５９９７番地,,37,203,7620024,,,,,,,2021-10-28,1,,,,,ゴトウトソウ,0
2091,8500005008427,新規,0,2021-10-28,2021-10-28,一般社団法人シャフト,,その他の設立登記法人,愛媛県,松山市,明神丘３番地,,38,201,7918027,,,,,,,2021-10-28,1,,,,,シャフト,0
2105,9010001222088,新規,0,2021-10-28,2021-10-28,勝村経営コンサルタント株式会社,,株式会社,東京都,文京区,千石３丁目１７番４－１０１号,,13,105,1120011,,,,,,,2021-10-28,1,,,,,カツムラケイエイコンサルタント,0
2106,9010001222105,新規,0,2021-10-28,2021-10-28,株式会社ゴーガニック,,株式会社,東京都,中央区,銀座６丁目１３番１６号銀座ＷａｌｌビルＵＣＦ５階,,13,102,1040061,,,,,,,2021-10-28,1,,,,,ゴーガニック,0
2107,9010001222121,新規,0,2021-10-28,2021-10-28,株式会社パワーウェーブ,,株式会社,東京都,中央区,日本橋３丁目２番１４号,,13,102,1030027,,,,,,,2021-10-28,1,,,,,パワーウェーブ,0
2122,9010401163551,新規,0,2021-10-28,2021-10-28,株式会社ＦＥＥＥＰ,,株式会社,東京都,港区,南青山６丁目６番２０号Ｋ’ｓ南青山ビル３Ｆ,,13,103,1070062,,,,,,,2021-10-28,1,,,,,フィープ,0
2128,9010405020328,新規,0,2021-10-28,2021-10-28,一般社団法人日本道路ジョイント協会,,その他の設立登記法人,東京都,港区,元赤坂１丁目５番２６号東部ビル,,13,103,1070051,,,,,,,2021-10-28,1,,,,,ニホンドウロジョイントキョウカイ,0
2144,9011001143654,新規,0,2021-10-28,2021-10-28,ＰＦ株式会社,,株式会社,東京都,渋谷区,恵比寿１丁目７番３号第一協栄ビル４０１,,13,113,1500013,,,,,,,2021-10-28,1,,,,,ピーエフ,0
2145,9011001143687,新規,0,2021-10-28,2021-10-28,ラフゴ株式会社,,株式会社,東京都,渋谷区,宇田川町４１－３５,,13,113,1500042,,,,,,,2021-10-28,1,,,,,ラフゴ,0
2147,9011003013500,新規,0,2021-10-28,2021-10-28,合同会社ＷＡＩＨＵ,,合同会社,東京都,渋谷区,円山町７－１１梅北ビル２階,,13,113,1500044,,,,,,,2021-10-28,1,,,,,ワイフ,0
2148,9011003013599,新規,0,2021-10-28,2021-10-28,合同会社メディアス,,合同会社,東京都,渋谷区,恵比寿４丁目７番６号,,13,113,1500013,,,,,,,2021-10-28,1,,,,,メディアス,0
2149,9011003013624,新規,0,2021-10-28,2021-10-28,Ｍｏｏｚｕ合同会社,,合同会社,東京都,渋谷区,神宮前６丁目２３番４号桑野ビル２階,,13,113,1500001,,,,,,,2021-10-28,1,,,,,モーズ,0
2150,9011003013632,新規,0,2021-10-28,2021-10-28,ＧＭＣ合同会社,,合同会社,東京都,渋谷区,神宮前６丁目２３番４号桑野ビル２階,,13,113,1500001,,,,,,,2021-10-28,1,,,,,,0
2154,9011101096744,新規,0,2021-10-28,2021-10-28,株式会社ＭＩＲＡＩＺ,,株式会社,東京都,新宿区,歌舞伎町２丁目２０番９号,,13,104,1600021,,,,,,,2021-10-28,1,,,,,ミライズ,0
2160,9011305002787,新規,0,2021-10-28,2021-10-28,一般社団法人日本動物介在メンタルケア協会,,その他の設立登記法人,東京都,杉並区,桃井４丁目１１番１９号,,13,115,1670034,,,,,,,2021-10-28,1,,,,,ニホンドウブツカイザイメンタルケアキョウカイ,0
2163,9011401023786,新規,0,2021-10-28,2021-10-28,ＭＡＺコンサルティング株式会社,,株式会社,東京都,板橋区,成増２丁目１９－２,,13,119,1750094,,,,,,,2021-10-28,1,,,,,マズコンサルティング,0
2182,9020001143639,新規,0,2021-10-28,2021-10-28,株式会社えりすぐ,,株式会社,神奈川県,川崎市多摩区,菅城下２７番１－３号,,14,135,2140007,,,,,,,2021-10-28,1,,,,,エリスグ,0
2186,9020003020712,新規,0,2021-10-28,2021-10-28,合同会社Ｃｌｅａｒ,,合同会社,神奈川県,横浜市港北区,新横浜１丁目１４－２３グリフィン新横浜七番館７０１,,14,109,2220033,,,,,,,2021-10-28,1,,,,,クリア,0
2187,9021001074337,新規,0,2021-10-28,2021-10-28,ＡＣＥ株式会社,,株式会社,神奈川県,厚木市,中町４丁目１４－１サクセス本厚木ビル５Ｆ,,14,212,2430018,,,,,,,2021-10-28,1,,,,,エース,0
2188,9021003011032,新規,0,2021-10-28,2021-10-28,合同会社杉野企画,,合同会社,神奈川県,藤沢市,鵠沼桜が岡２丁目３番１６号,,14,205,2510027,,,,,,,2021-10-28,1,,,,,スギノキカク,0
2193,9030001144999,新規,0,2021-10-28,2021-10-28,Ｓグランド株式会社,,株式会社,埼玉県,蕨市,中央１丁目１７－３０－５０５号室,,11,223,3350004,,,,,,,2021-10-28,1,,,,,エスグランド,0
2198,9030003018219,新規,0,2021-10-28,2021-10-28,ボンファイア・ジャパン合同会社,,合同会社,埼玉県,八潮市,大字大曽根５０４番地６,,11,234,3400834,,,,,,,2021-10-28,1,,,,,ボンファイアジャパン,0
2214,9040003018804,新規,0,2021-10-28,2021-10-28,ＭＩＮＨ　ＣＨＡＵ合同会社,,合同会社,千葉県,銚子市,松岸町３丁目２７６関根店舗１階東,,12,202,2880836,,,,,,,2021-10-28,1,,,,,ミンチャウ,0
2223,9080003002671,新規,0,2021-10-28,2021-10-28,合同会社Ｃｏｎｃｈｅ,,合同会社,静岡県,静岡市葵区,七間町１６－７ＯＭＡＣＨＩビル１Ａ,,22,101,4200035,,,,,,,2021-10-28,1,,,,,コンチェ,0
2230,9100001034763,新規,0,2021-10-28,2021-10-28,マイコ・エナジー株式会社,,株式会社,長野県,中野市,大字三ツ和１１８５番地３,,20,211,3830043,,,,,,,2021-10-28,1,,,,,マイコエナジー,0
2243,9120001241416,新規,0,2021-10-28,2021-10-28,芳華友株式会社,,株式会社,大阪府,大阪市北区,錦町２－３５シャトー天満６０３号室,,27,127,5300034,,,,,,,2021-10-28,1,,,,,ホウカユウ,0
2244,9120001241449,新規,0,2021-10-28,2021-10-28,三友建設株式会社,,株式会社,大阪府,寝屋川市,高柳６丁目１０番１号,,27,215,5720051,,,,,,,2021-10-28,1,,,,,サンユウケンセツ,0
2245,9120001241457,新規,0,2021-10-28,2021-10-28,株式会社レイブ,,株式会社,大阪府,大阪市旭区,新森７丁目１５番１８号,,27,117,5350022,,,,,,,2021-10-28,1,,,,,レイブ,0
2246,9120001241465,新規,0,2021-10-28,2021-10-28,ＡＫＩＲＡ株式会社,,株式会社,大阪府,大阪市中央区,南船場１丁目３番１７－１００２号,,27,128,5420081,,,,,,,2021-10-28,1,,,,,アキラ,0
2247,9120001241473,新規,0,2021-10-28,2021-10-28,株式会社グリーディキャッスル,,株式会社,大阪府,大阪市浪速区,日本橋４丁目１２番１号４Ｆ,,27,111,5560005,,,,,,,2021-10-28,1,,,,,グリーディキャッスル,0
2249,9120003020487,新規,0,2021-10-28,2021-10-28,合同会社デザインの森,,合同会社,大阪府,大阪市中央区,東高麗橋２－１２－５０２,,27,128,5400039,,,,,,,2021-10-28,1,,,,,デザインノモリ,0
2253,9120101064535,新規,0,2021-10-28,2021-10-28,株式会社Ｒａ・Ｎｏｋ,,株式会社,大阪府,和泉市,小田町２丁目１番３１号,,27,219,5940074,,,,,,,2021-10-28,1,,,,,ラノック,0
2258,9122003002201,新規,0,2021-10-28,2021-10-28,合同会社ＳＴＫ,,合同会社,大阪府,東大阪市,北石切町１７番１号,,27,227,5798015,,,,,,,2021-10-28,1,,,,,エスティーケー,0
2263,9140003016921,新規,0,2021-10-28,2021-10-28,合同会社奏多,,合同会社,兵庫県,三田市,けやき台５丁目２５番地１４１,,28,219,6691321,,,,,,,2021-10-28,1,,,,,カナタ,0
2270,9180001148457,新規,0,2021-10-28,2021-10-28,株式会社栗乃木,,株式会社,愛知県,小牧市,小松寺４丁目３０番地,,23,219,4850828,,,,,,,2021-10-28,1,,,,,クリノキ,0
2279,9190001028798,新規,0,2021-10-28,2021-10-28,株式会社５ＳＴＡＲ　ＬＩＭＩＴＥＤ,,株式会社,三重県,桑名郡木曽岬町,大字白鷺字白鷺川６０１番地３,,24,303,4980815,,,,,,,2021-10-28,1,,,,,ファイブスターリミテッド,0
2284,9200001039331,新規,0,2021-10-28,2021-10-28,株式会社神光,,株式会社,岐阜県,岐阜市,粟野東３丁目４６３番地３,,21,201,5020002,,,,,,,2021-10-28,1,,,,,シンコウ,0
2285,9200003005364,新規,0,2021-10-28,2021-10-28,合同会社ＣＲＥＡＴＥ,,合同会社,岐阜県,瑞穂市,穂積１５８１番地,,21,216,5010223,,,,,,,2021-10-28,1,,,,,クリエイト,0
2286,9210001018672,新規,0,2021-10-28,2021-10-28,株式会社はせホールディングス,,株式会社,福井県,敦賀市,中央町１丁目１３番２３号,,18,202,9140811,,,,,,,2021-10-28,1,,,,,ハセホールディングス,0
2297,9240005015291,新規,0,2021-10-28,2021-10-28,特定非営利活動法人灯り,,その他の設立登記法人,広島県,広島市佐伯区,旭園２１番１７号,,34,108,7315133,,,,,,,2021-10-28,1,,,,,アカリ,0
2299,9260001036133,新規,0,2021-10-28,2021-10-28,株式会社イシテック,,株式会社,岡山県,岡山市東区,金岡西町１１８８‐１,,33,103,7048193,,,,,,,2021-10-28,1,,,,,イシテック,0
2313,9340003003610,新規,0,2021-10-28,2021-10-28,岩田ヒーリング合同会社,,合同会社,鹿児島県,鹿児島市,東谷山２丁目３２番９号グレイテストこぞの１０１号,,46,201,8910113,,,,,,,2021-10-28,1,,,,,イワタヒーリング,0
2322,9360001029556,新規,0,2021-10-28,2021-10-28,沖喜株式会社,,株式会社,沖縄県,宜野湾市,大謝名１丁目２番２２号１Ｆ,,47,205,9012225,,,,,,,2021-10-28,1,,,,,オキキ,0
2328,9360003011529,新規,0,2021-10-28,2021-10-28,合同会社Ｅｍｐｏｒｉｏ,,合同会社,沖縄県,那覇市,久米２丁目１８番１１号,,47,201,9000033,,,,,,,2021-10-28,1,,,,,エンポリオ,0
2330,9370001047747,新規,0,2021-10-28,2021-10-28,株式会社ＮＥＶＥＲ　ＬＡＮＤ,,株式会社,宮城県,仙台市泉区,八乙女３丁目１０番地の７,,04,105,9813112,,,,,,,2021-10-28,1,,,,,ネバーランド,0
2331,9370001047763,新規,0,2021-10-28,2021-10-28,株式会社ファクトリー・ファクトリー,,株式会社,宮城県,仙台市青葉区,錦ケ丘５丁目２２番地１２号,,04,101,9893123,,,,,,,2021-10-28,1,,,,,ファクトリーファクトリー,0
2332,9370003005463,新規,0,2021-10-28,2021-10-28,合同会社リレーステーション,,合同会社,宮城県,仙台市青葉区,高野原４丁目１３番地の１９,,04,101,9893216,,,,,,,2021-10-28,1,,,,,リレーステーション,0
2346,9430001085245,新規,0,2021-10-28,2021-10-28,ダンワーク株式会社,,株式会社,北海道,札幌市北区,北十八条西４丁目２番２０号北十八条ハイツ８０３号室,,01,102,0010018,,,,,,,2021-10-28,1,,,,,ダンワーク,0
2347,9430001085253,新規,0,2021-10-28,2021-10-28,株式会社ノースジャック,,株式会社,北海道,江別市,元野幌１１８３番地４８,,01,217,0690805,,,,,,,2021-10-28,1,,,,,ノースジャック,0
2348,9430001085261,新規,0,2021-10-28,2021-10-28,株式会社ＫＡＬ,,株式会社,北海道,札幌市北区,東茨戸一条１丁目１番１１号,,01,102,0028041,,,,,,,2021-10-28,1,,,,,カル,0
2350,9430003013303,新規,0,2021-10-28,2021-10-28,Ｙ’ｓトレード合同会社,,合同会社,北海道,札幌市白石区,北郷六条３丁目１番４７号,,01,104,0030836,,,,,,,2021-10-28,1,,,,,ワイズトレード,0
2352,9460003000868,新規,0,2021-10-28,2021-10-28,合同会社Ｌｉｎｋ　Ｓｅｒｖｉｃｅ,,合同会社,北海道,釧路市,興津２丁目３番８号,,01,206,0850811,,,,,,,2021-10-28,1,,,,,リンクサービス,0
2357,9470003002062,新規,0,2021-10-28,2021-10-28,合同会社ＧＹＤＡＬ,,合同会社,香川県,観音寺市,観音寺町甲１１７４番地,,37,205,7680060,,,,,,,2021-10-28,1,,,,,ジーダル,0
2361,9490001010024,新規,0,2021-10-28,2021-10-28,株式会社畠山衛生社,,株式会社,高知県,安芸市,伊尾木１８４６番地１,,39,203,7840045,,,,,,,2021-10-28,1,,,,,ハタヤマエイセイシャ,0
