sequenceNumber,corporateNumber,process,correct,updateDate,changeDate,name,nameImageId,kind,prefectureName,cityName,streetNumber,addressImageId,prefectureCode,cityCode,postCode,addressOutside,addressOutsideImageId,closeDate,closeCause,successorCorporateNumber,changeCause,assignmentDate,latest,enName,enPrefectureName,enCityName,enAddressOutside,furigana,hihyoji
9,1010001261597,新規,0,2026-01-14,2026-01-14,株式会社結光キッズサポート,,株式会社,東京都,千代田区,神田和泉町１番地６－１６ヤマトビル４０５,,13,101,1010024,,,,,,,2026-01-14,1,,,,,ユイコウキッズサポート,0
11,1010003049875,新規,0,2026-01-14,2026-01-14,合同会社Ｌａ’Ｄｏｌａｎ’ｎｅ,,合同会社,東京都,文京区,白山２丁目２０番１５号,,13,105,1120001,,,,,,,2026-01-14,1,,,,,ラドレーヌ,0
12,1010003049958,新規,0,2026-01-14,2026-01-14,原野合同会社,,合同会社,東京都,中央区,日本橋馬喰町１丁目６－１３,,13,102,1030002,,,,,,,2026-01-14,1,,,,,ハラノ,0
20,1010401195338,新規,0,2026-01-14,2026-01-14,株式会社グローバルグランドタグ,,株式会社,東京都,港区,芝浦４丁目１６番１３号,,13,103,1080023,,,,,,,2026-01-14,1,,,,,グローバルグランドタグ,0
21,1010401195585,新規,0,2026-01-14,2026-01-14,株式会社Ｄｉｓｔａｎｃｅ　Ａｓｉａ,,株式会社,東京都,港区,高輪３丁目１２番８号,,13,103,1080074,,,,,,,2026-01-14,1,,,,,ディスタンスアジア,0
22,1010401195775,新規,0,2026-01-14,2026-01-14,株式会社慶誠プロパティ,,株式会社,東京都,港区,北青山１丁目３番１号アールキューブ青山３階,,13,103,1070061,,,,,,,2026-01-14,1,,,,,ケイセイプロパティ,0
24,1010405025185,新規,0,2026-01-14,2026-01-14,ＧＬ発電ホールディングス一般社団法人,,その他の設立登記法人,東京都,港区,東新橋１丁目５番２号汐留シティセンター８階,,13,103,1050021,,,,,,,2026-01-14,1,,,,,ジーエルハツデンホールディングス,0
26,1010503008141,新規,0,2026-01-14,2026-01-14,山晴合同会社,,合同会社,東京都,台東区,下谷２丁目１９番６－１００２号,,13,106,1100004,,,,,,,2026-01-14,1,,,,,ヤマハル,0
27,1010601068525,新規,0,2026-01-14,2026-01-14,株式会社スポンジワークス,,株式会社,東京都,墨田区,業平２丁目１２－３プティアムスカイツリー前１０２,,13,107,1300002,,,,,,,2026-01-14,1,,,,,スポンジワークス,0
33,1010801036959,新規,0,2026-01-14,2026-01-14,株式会社バンデン,,株式会社,東京都,大田区,千鳥２丁目９番１２号,,13,111,1460083,,,,,,,2026-01-14,1,,,,,バンデン,0
34,1010801036967,新規,0,2026-01-14,2026-01-14,株式会社ワンハンド,,株式会社,東京都,大田区,北嶺町３－４,,13,111,1450073,,,,,,,2026-01-14,1,,,,,ワンハンド,0
35,1010803005680,新規,0,2026-01-14,2026-01-14,合同会社きぬたや,,合同会社,東京都,大田区,北千束３丁目２９番５号,,13,111,1450062,,,,,,,2026-01-14,1,,,,,キヌタヤ,0
38,1010901058787,新規,0,2026-01-14,2026-01-14,株式会社Ｄｒｏｗｓｙ,,株式会社,東京都,世田谷区,太子堂４丁目１８番１５号マガザン三軒茶屋２―３Ｆ―３,,13,112,1540004,,,,,,,2026-01-14,1,,,,,ドロージー,0
42,1011001174731,新規,0,2026-01-14,2026-01-14,株式会社Ｄｅｎｔａｌ　Ｔｏｐ　Ｃｒｅａｔｉｏｎ,,株式会社,東京都,目黒区,目黒本町１丁目１２番１２－１０２号ディアナコート学芸大学レジデンス,,13,110,1520002,,,,,,,2026-01-14,1,,,,,デンタルトップクリエイション,0
43,1011001174756,新規,0,2026-01-14,2026-01-14,株式会社ＭＹ　ＴＥＡＭ,,株式会社,東京都,渋谷区,道玄坂１丁目１０番８号渋谷道玄坂東急ビル２Ｆ‐Ｃ,,13,113,1500043,,,,,,,2026-01-14,1,,,,,マイチーム,0
44,1011001174780,新規,0,2026-01-14,2026-01-14,株式会社ｍｒ,,株式会社,東京都,渋谷区,宇田川町１番１２－２００７号,,13,113,1500042,,,,,,,2026-01-14,1,,,,,エムアール,0
45,1011001174830,新規,0,2026-01-14,2026-01-14,ネームランサー株式会社,,株式会社,東京都,渋谷区,神南１丁目１１－４ＦＰＧリンクス神南５階,,13,113,1500041,,,,,,,2026-01-14,1,,,,,ネームランサー,0
46,1011001174847,新規,0,2026-01-14,2026-01-14,ワンオーファイブ株式会社,,株式会社,東京都,目黒区,上目黒１丁目２６番１号中目黒アトラスタワー２７１０号,,13,110,1530051,,,,,,,2026-01-14,1,,,,,ワンオーファイブ,0
47,1011003023366,新規,0,2026-01-14,2026-01-14,合同会社ＮＣグリーンネット１号,,合同会社,東京都,渋谷区,千駄ヶ谷３丁目１１番８号,,13,113,1510051,,,,,,,2026-01-14,1,,,,,エヌシーグリーンネットイチゴウ,0
50,1011101114521,新規,0,2026-01-14,2026-01-14,Ｔｏｋｙｏｋｏ株式会社,,株式会社,東京都,新宿区,新宿３丁目３４番４号第８４東京ビルＢ１・Ｂ２,,13,104,1600022,,,,,,,2026-01-14,1,,,,,トウキョウコ,0
51,1011103016864,新規,0,2026-01-14,2026-01-14,合同会社ＧＩＢＤ,,合同会社,東京都,新宿区,西新宿３丁目３番１３号西新宿水間ビル２Ｆ,,13,104,1600023,,,,,,,2026-01-14,1,,,,,ギブド,0
52,1011301031186,新規,0,2026-01-14,2026-01-14,株式会社ＳＫパートナーズ,,株式会社,東京都,杉並区,阿佐谷南１丁目２３番１５号,,13,115,1660004,,,,,,,2026-01-14,1,,,,,エスケイパートナーズ,0
60,1011801047302,新規,0,2026-01-14,2026-01-14,株式会社Ａｌｏｈａ　Ｂｕｄｄｈｉｓｍ,,株式会社,東京都,足立区,伊興本町２丁目７番５号コンフォートハイツ１０２,,13,121,1210807,,,,,,,2026-01-14,1,,,,,アロハブッディズム,0
63,1012803003961,新規,0,2026-01-14,2026-01-14,フォコ合同会社,,合同会社,東京都,国分寺市,西恋ヶ窪１丁目２４－１６ボヌールドレイ４０３,,13,214,1850013,,,,,,,2026-01-14,1,,,,,フォコ,0
67,1013301055586,新規,0,2026-01-14,2026-01-14,株式会社グロー,,株式会社,東京都,豊島区,西池袋４丁目１３番１９号エスパヴェール立教南２０１,,13,116,1710021,,,,,,,2026-01-14,1,,,,,グロー,0
71,1020001166622,新規,0,2026-01-14,2026-01-14,株式会社ＪＥＨＳ,,株式会社,神奈川県,横浜市西区,北幸１丁目１１番１号水信ビル７階,,14,103,2200004,,,,,,,2026-01-14,1,,,,,ジェイイーエイチエス,0
73,1020003030132,新規,0,2026-01-14,2026-01-14,アイティエムアソシエーツ合同会社,,合同会社,神奈川県,川崎市中原区,上小田中６丁目１番２号,,14,133,2110053,,,,,,,2026-01-14,1,,,,,アイティエムアソシエーツ,0
78,1021001087197,新規,0,2026-01-14,2026-01-14,株式会社徳住建,00142165,株式会社,神奈川県,綾瀬市,早川１６５９番地４,,14,218,2521123,,,,,,,2026-01-14,1,,,,,トクジュウケン,0
79,1021001087214,新規,0,2026-01-14,2026-01-14,株式会社リノベサービス,,株式会社,神奈川県,小田原市,千代４７５－１原ハイツ１－２,,14,206,2500215,,,,,,,2026-01-14,1,,,,,リノベサービス,0
81,1021003016988,新規,0,2026-01-14,2026-01-14,合同会社ＫＹ　Ａｌｌ　Ｇｒｅｅｎ,,合同会社,神奈川県,三浦郡葉山町,堀内１３７５番地の１５,,14,301,2400112,,,,,,,2026-01-14,1,,,,,ケーワイオールグリーン,0
82,1021003017029,新規,0,2026-01-14,2026-01-14,Ｍｉｍｏｓａ合同会社,,合同会社,神奈川県,厚木市,毛利台２丁目１９番６号,,14,212,2430037,,,,,,,2026-01-14,1,,,,,ミモザ,0
89,1030001170508,新規,0,2026-01-14,2026-01-14,株式会社ＯＬＩＶＥＩＲＡ,,株式会社,埼玉県,上尾市,緑丘１丁目５番４号,,11,219,3620015,,,,,,,2026-01-14,1,,,,,オリベイラ,0
90,1030001170581,新規,0,2026-01-14,2026-01-14,株式会社ＭＹプランニング,,株式会社,埼玉県,越谷市,南町２丁目２３番５号２Ｂ,,11,222,3430832,,,,,,,2026-01-14,1,,,,,マイプランニング,0
95,1030003028241,新規,0,2026-01-14,2026-01-14,合同会社Ｃ＆Ｏ,,合同会社,埼玉県,志木市,上宗岡４丁目２０番１０号２０１,,11,228,3530001,,,,,,,2026-01-14,1,,,,,シーアンドオー,0
100,1040001142043,新規,0,2026-01-14,2026-01-14,株式会社Ａｍｅｔｈｙｓｔ,,株式会社,千葉県,野田市,東宝珠花２４７番地２鶴岡ビル１階Ａ号室,,12,208,2700226,,,,,,,2026-01-14,1,,,,,アメシスト,0
101,1040001142068,新規,0,2026-01-14,2026-01-14,株式会社ＷＡＫＡ,,株式会社,千葉県,長生郡長柄町,山根２０１３番地４５,,12,426,2970206,,,,,,,2026-01-14,1,,,,,ワカ,0
108,1060003005923,新規,0,2026-01-14,2026-01-14,合同会社栃ノ木情報企画,,合同会社,栃木県,鹿沼市,西沢町１４３,,09,205,3220344,,,,,,,2026-01-14,1,,,,,トチノキジョウホウキカク,0
110,1070003006243,新規,0,2026-01-14,2026-01-14,Ｂｌｉｎｄ　Ｆｉｓｈ合同会社,,合同会社,群馬県,高崎市,福島町７２０‐６‐２,,10,202,3703523,,,,,,,2026-01-14,1,,,,,,0
111,1070003006251,新規,0,2026-01-14,2026-01-14,ＨＡＬＯ　ＯＮＥ　ＣＯＮＳＵＬＴＩＮＧ合同会社,,合同会社,群馬県,高崎市,箕郷町生原１００５番地１,,10,202,3703102,,,,,,,2026-01-14,1,,,,,ハロワンコンサルティング,0
112,1080003003628,新規,0,2026-01-14,2026-01-14,Ｇｏｏｇｏｏ合同会社,,合同会社,静岡県,静岡市駿河区,東新田４丁目１８番６５号,,22,102,4210112,,,,,,,2026-01-14,1,,,,,グーグー,0
114,1080105006561,新規,0,2026-01-14,2026-01-14,一般社団法人シニア終身サポート協会,,その他の設立登記法人,静岡県,裾野市,佐野３０９番地,,22,220,4101118,,,,,,,2026-01-14,1,,,,,シニアシュウシンサポートキョウカイ,0
116,1080405007788,新規,0,2026-01-14,2026-01-14,特定非営利活動法人マイフレンドキャット掛川,,その他の設立登記法人,静岡県,掛川市,宮脇３６３番地の２,,22,213,4360086,,,,,,,2026-01-14,1,,,,,マイフレンドキャットカケガワ,0
117,1090001019690,新規,0,2026-01-14,2026-01-14,株式会社マエダ設備,,株式会社,山梨県,中巨摩郡昭和町,西条２２１０番地２,,19,384,4093866,,,,,,,2026-01-14,1,,,,,マエダセツビ,0
122,1110001039851,新規,0,2026-01-14,2026-01-14,株式会社Ｓｗｉｉｎｇ,,株式会社,新潟県,新潟市東区,上王瀬町１－４０,,15,102,9500063,,,,,,,2026-01-14,1,,,,,スウィング,0
123,1110003006032,新規,0,2026-01-14,2026-01-14,合同会社ＡＭＳ,,合同会社,新潟県,上越市,仲町２丁目５番２０号Ｔａｋａｎａｓｈｉ小鳥遊Ｈｏｕｓｅ,,15,222,9430831,,,,,,,2026-01-14,1,,,,,エーエムエス,0
134,1120001283168,新規,0,2026-01-14,2026-01-14,Ｉ．Ｋ．Ｍ株式会社,,株式会社,大阪府,大阪市平野区,平野本町２丁目１番３号,,27,126,5470044,,,,,,,2026-01-14,1,,,,,アイケーエム,0
135,1120001283341,新規,0,2026-01-14,2026-01-14,株式会社ＮＡＮＳＯエフェクト,,株式会社,大阪府,大阪市北区,梅田３丁目２番１２３号イノゲート大阪１６０１,,27,127,5300001,,,,,,,2026-01-14,1,,,,,ナンソエフェクト,0
136,1120001283374,新規,0,2026-01-14,2026-01-14,株式会社ｓｏｐｒａｎｏ,,株式会社,大阪府,大阪市中央区,淡路町１丁目６番９号ＤＰスクエア堺筋本町８Ｆ,,27,128,5410047,,,,,,,2026-01-14,1,,,,,ソプラノ,0
137,1120001283382,新規,0,2026-01-14,2026-01-14,ジャパンファーストエステート株式会社,,株式会社,大阪府,大阪市淀川区,新高３丁目２－３５－１０２号,,27,123,5320033,,,,,,,2026-01-14,1,,,,,ジャパンファーストエステート,0
138,1120001283399,新規,0,2026-01-14,2026-01-14,ＪＢＥ株式会社,,株式会社,大阪府,大阪市城東区,中浜１丁目１７－１３ルネッサンスシャレード３Ｉ号室,00142161,27,118,5360024,,,,,,,2026-01-14,1,,,,,ジェービーイー,0
140,1120003031624,新規,0,2026-01-14,2026-01-14,よもぎ不動産合同会社,,合同会社,大阪府,大阪市中央区,常盤町２丁目２番５－２７０５号,,27,128,5400028,,,,,,,2026-01-14,1,,,,,ヨモギフドウサン,0
141,1120003031640,新規,0,2026-01-14,2026-01-14,日出合同会社,,合同会社,大阪府,大阪市淀川区,新北野１丁目１１番２３－８１５号,,27,123,5320025,,,,,,,2026-01-14,1,,,,,ヒノデ,0
147,1120901052085,新規,0,2026-01-14,2026-01-14,株式会社Ｂ,,株式会社,大阪府,箕面市,新稲５丁目１５番４７号,,27,220,5620005,,,,,,,2026-01-14,1,,,,,ビー,0
150,1122001040061,新規,0,2026-01-14,2026-01-14,株式会社Ｒｉｖｅｌｌｅ,,株式会社,大阪府,八尾市,北本町２丁目１２番７－１１０４号,,27,212,5810802,,,,,,,2026-01-14,1,,,,,リベル,0
151,1122001040103,新規,0,2026-01-14,2026-01-14,株式会社聖和,,株式会社,大阪府,東大阪市,松原２丁目５番２号,,27,227,5780922,,,,,,,2026-01-14,1,,,,,セイワ,0
155,1130001081380,新規,0,2026-01-14,2026-01-14,オムロピクチャーズ株式会社,,株式会社,京都府,京都市右京区,御室芝橋町２９番地ウエストヒル御室２０２号,,26,108,6168095,,,,,,,2026-01-14,1,,,,,オムロピクチャーズ,0
159,1140001141299,新規,0,2026-01-14,2026-01-14,株式会社Ｓ　Ｐｌｕｓ,,株式会社,兵庫県,神戸市西区,池上２丁目３０－１伊川センタービル２Ｆ,,28,111,6512111,,,,,,,2026-01-14,1,,,,,エスプラス,0
164,1140003023090,新規,0,2026-01-14,2026-01-14,合同会社メルモ,,合同会社,兵庫県,神戸市中央区,下山手通２丁目１６－２ＩＴビル６０１,,28,110,6500011,,,,,,,2026-01-14,1,,,,,メルモ,0
166,1140005027767,新規,0,2026-01-14,2026-01-14,一般社団法人Ｄｉａｌｏｇｕｅ　Ｔｈｅａｔｅｒ,,その他の設立登記法人,兵庫県,神戸市中央区,磯辺通１丁目１番１８号カサベラ国際プラザビル７０７号室,,28,110,6510084,,,,,,,2026-01-14,1,,,,,ダイアログシアター,0
169,1160001027348,新規,0,2026-01-14,2026-01-14,株式会社寿屋,,株式会社,滋賀県,蒲生郡日野町,大字内池９０８番地４,,25,383,5291644,,,,,,,2026-01-14,1,,,,,コトブキヤ,0
170,1160001027356,新規,0,2026-01-14,2026-01-14,創進株式会社,,株式会社,滋賀県,草津市,東草津２丁目６番１－７号,,25,206,5250033,,,,,,,2026-01-14,1,,,,,ソウシン,0
171,1160003003702,新規,0,2026-01-14,2026-01-14,合同会社ｋｏｔｏｋａｎａ,,合同会社,滋賀県,犬上郡多賀町,大字富之尾１３２９番地,,25,443,5220337,,,,,,,2026-01-14,1,,,,,コトカナ,0
172,1170001018949,新規,0,2026-01-14,2026-01-14,株式会社ＭＩＲＡｃｒｅａｔｅ,,株式会社,和歌山県,和歌山市,神前１６１番地１,,30,201,6408314,,,,,,,2026-01-14,1,,,,,ミラクリエイト,0
178,1180001170187,新規,0,2026-01-14,2026-01-14,株式会社孝栄塗工,,株式会社,愛知県,半田市,亀崎町１０丁目５３番地の６,,23,205,4750023,,,,,,,2026-01-14,1,,,,,コウエイトコウ,0
179,1180001170195,新規,0,2026-01-14,2026-01-14,ファストワン株式会社,,株式会社,愛知県,春日井市,出川町２丁目２９番地１８,,23,206,4870025,,,,,,,2026-01-14,1,,,,,ファストワン,0
180,1180001170220,新規,0,2026-01-14,2026-01-14,株式会社ＳｐａｒｋＪｏｙ,,株式会社,愛知県,弥富市,五之三町川平１８８番地３７１,,23,235,4980012,,,,,,,2026-01-14,1,,,,,スパークジョイ,0
181,1180001170237,新規,0,2026-01-14,2026-01-14,株式会社ぼちぼち,,株式会社,愛知県,春日井市,押沢台５丁目１４番地４,,23,206,4870005,,,,,,,2026-01-14,1,,,,,ボチボチ,0
186,1180003029555,新規,0,2026-01-14,2026-01-14,合同会社セライブ＆スマイル,,合同会社,愛知県,常滑市,大野町１丁目３１番地の２,,23,216,4790866,,,,,,,2026-01-14,1,,,,,セライブアンドスマイル,0
187,1180003029596,新規,0,2026-01-14,2026-01-14,宮城グループ合同会社,,合同会社,愛知県,一宮市,多加木２丁目８番１５－５０２号アルバインローズイッセイ,,23,203,4910837,,,,,,,2026-01-14,1,,,,,ミヤシログループ,0
191,1200001044611,新規,0,2026-01-14,2026-01-14,株式会社レヴィ,,株式会社,岐阜県,土岐市,土岐津町土岐口富士平６８２番地の３,,21,212,5095122,,,,,,,2026-01-14,1,,,,,レヴィ,0
198,1230001021244,新規,0,2026-01-14,2026-01-14,株式会社コア・ジャパン,,株式会社,富山県,中新川郡立山町,大清水３９４番地４,,16,323,9300263,,,,,,,2026-01-14,1,,,,,コアジャパン,0
206,1240001066049,新規,0,2026-01-14,2026-01-14,株式会社アイエイ,,株式会社,広島県,廿日市市,地御前２丁目５番２５号,,34,213,7380042,,,,,,,2026-01-14,1,,,,,アイエイ,0
210,1250001021498,新規,0,2026-01-14,2026-01-14,株式会社石井電設,,株式会社,山口県,下関市,秋根北町６番１号４０２号,,35,201,7510876,,,,,,,2026-01-14,1,,,,,イシイデンセツ,0
211,1250003003882,新規,0,2026-01-14,2026-01-14,合同会社ふどうさん屋さん久良多,,合同会社,山口県,下関市,小月本町１丁目１番２号,,35,201,7501142,,,,,,,2026-01-14,1,,,,,フドウサンヤサンクラタ,0
216,1290001112698,新規,0,2026-01-14,2026-01-14,株式会社Ｂ,,株式会社,福岡県,久留米市,東町３５番地３,,40,203,8300032,,,,,,,2026-01-14,1,,,,,ビー,0
222,1310001019916,新規,0,2026-01-14,2026-01-14,株式会社希工業,,株式会社,長崎県,東彼杵郡波佐見町,田ノ頭郷５０７－１－Ｂ１０３,,42,323,8593716,,,,,,,2026-01-14,1,,,,,ノゾミコウギョウ,0
228,1340001027908,新規,0,2026-01-14,2026-01-14,上川グローバルエクスチェンジ株式会社,,株式会社,鹿児島県,鹿児島市,鴨池１丁目４番６号,,46,201,8900063,,,,,,,2026-01-14,1,,,,,カミカワグローバルエクスチェンジ,0
229,1340003005060,新規,0,2026-01-14,2026-01-14,合同会社ｌａ・Ｒｉｒｅ,,合同会社,鹿児島県,鹿児島市,向陽１丁目１８－２,,46,201,8900038,,,,,,,2026-01-14,1,,,,,ラリル,0
234,1400001017266,新規,0,2026-01-14,2026-01-14,ＮＡＫＡＤＡＴＥホールディングス株式会社,,株式会社,岩手県,二戸市,米沢字荒谷３０番地５,,03,213,0286104,,,,,,,2026-01-14,1,,,,,ナカダテホールディングス,0
235,1400003003594,新規,0,2026-01-14,2026-01-14,合同会社Ｎｏ９,,合同会社,岩手県,盛岡市,大通１丁目９番２０号さくらビル１Ｆ,,03,201,0200022,,,,,,,2026-01-14,1,,,,,ナンバーナイン,0
239,1430001096019,新規,0,2026-01-14,2026-01-14,ＡＲＭ　Ｂｅａｕｔｙ株式会社,,株式会社,北海道,室蘭市,宮の森町１丁目６番２７号,,01,205,0500073,,,,,,,2026-01-14,1,,,,,アームビューティー,0
245,1460303000897,新規,0,2026-01-14,2026-01-14,合同会社フラミンゴグループ,,合同会社,北海道,網走市,南五条西３丁目１２番地ＬＩＡコート２０３,,01,211,0930015,,,,,,,2026-01-14,1,,,,,フラミンゴグループ,0
246,1460305002033,新規,0,2026-01-14,2026-01-14,農事組合法人Ｇｒｅｅｎ　ｆａｒｍ２１,,その他の設立登記法人,北海道,網走市,字音根内２５１番地,,01,211,0993501,,,,,,,2026-01-14,1,,,,,グリーンファームニジュウイチ,0
251,2010001261737,新規,0,2026-01-14,2026-01-14,ＸＧＲＩＤＳ　ＪＡＰＡＮ株式会社,,株式会社,東京都,中央区,銀座１丁目２２番１１号銀座大竹ビジデンス２Ｆ,,13,102,1040061,,,,,,,2026-01-14,1,,,,,エックスグリッズジャパン,0
254,2010401195642,新規,0,2026-01-14,2026-01-14,ノーブル・エステート株式会社,,株式会社,東京都,港区,高輪２丁目１２番６３－４０８号,,13,103,1080074,,,,,,,2026-01-14,1,,,,,ノーブルエステート,0
255,2010401195717,新規,0,2026-01-14,2026-01-14,株式会社ＥＭＡ,,株式会社,東京都,港区,北青山２丁目１０番２２号ＥＩＧＨＴＥＥＮ北青山１Ｆ,,13,103,1070061,,,,,,,2026-01-14,1,,,,,イーエムエー,0
256,2010401195758,新規,0,2026-01-14,2026-01-14,株式会社Ｙｕｋｉ＆Ｓｅａｎ　Ｏｒｇａｎｉｃｓ　Ｊａｐａｎ,,株式会社,東京都,港区,港南２丁目１５番１号品川インターシティＡ棟２８階,,13,103,1080075,,,,,,,2026-01-14,1,,,,,ユキアンドショーンオーガニックスジャパン,0
257,2010401195816,新規,0,2026-01-14,2026-01-14,株式会社北海道アニマルワールド,,株式会社,東京都,港区,三田２丁目９番２号ＭＡビル三田二丁目５階,,13,103,1080073,,,,,,,2026-01-14,1,,,,,ホッカイドウアニマルワールド,0
260,2010403037033,新規,0,2026-01-14,2026-01-14,Ｐｒｅｃｉｓｉｏｎ　ｆｏｒ　Ｍｅｄｉｃｉｎｅ　Ｊａｐａｎ合同会社,,合同会社,東京都,港区,海岸１丁目２番２０号汐留ビルディング３階ＣＳＣＪａｐａｎＣｏｒｐｏｒａｔｅＳｅｒｖｉｃｅｓ株式会社内,,13,103,1050022,,,,,,,2026-01-14,1,,,,,プレシジョンフォアメディシンジャパン,0
266,2010601068565,新規,0,2026-01-14,2026-01-14,ＣＬＯＵＤＮＥＴ　ＡＩ　Ｊａｐａｎ株式会社,,株式会社,東京都,江東区,有明３丁目６番１１号東京ファッションタウンビル東館９階,,13,108,1350063,,,,,,,2026-01-14,1,,,,,クラウドネットエーアイジャパン,0
267,2010601068573,新規,0,2026-01-14,2026-01-14,ＰＩＭＴＯ株式会社,,株式会社,東京都,墨田区,東駒形２丁目２番６号田中ビル２Ｆ,,13,107,1300005,,,,,,,2026-01-14,1,,,,,ピムト,0
270,2010801036958,新規,0,2026-01-14,2026-01-14,アンドウカイ株式会社,,株式会社,東京都,大田区,南蒲田１丁目２６番１号マキシヴ蒲田９０２,,13,111,1440035,,,,,,,2026-01-14,1,,,,,アンドウカイ,0
282,2011001174730,新規,0,2026-01-14,2026-01-14,株式会社ＶＯＳＳ,,株式会社,東京都,渋谷区,神宮前２丁目１６番２０号Ｆｌａｔ１Ａ,,13,113,1500001,,,,,,,2026-01-14,1,,,,,ボス,0
283,2011001174771,新規,0,2026-01-14,2026-01-14,株式会社クリアリスト,,株式会社,東京都,渋谷区,円山町５番５号Ｎａｖｉ渋谷Ｖ３階,,13,113,1500044,,,,,,,2026-01-14,1,,,,,クリアリスト,0
284,2011001174805,新規,0,2026-01-14,2026-01-14,株式会社リゲル,,株式会社,東京都,渋谷区,代々木２丁目２３番１号ニューステイトメナー６３０,,13,113,1510053,,,,,,,2026-01-14,1,,,,,リゲル,0
285,2011001175010,新規,0,2026-01-14,2026-01-14,株式会社旋回,,株式会社,東京都,渋谷区,道玄坂１丁目１０番８号渋谷道玄坂東急ビル２Ｆ－Ｃ,,13,113,1500043,,,,,,,2026-01-14,1,,,,,センカイ,0
286,2011003023299,新規,0,2026-01-14,2026-01-14,Ｓｏａｒｎｏｔｅ合同会社,,合同会社,東京都,渋谷区,神宮前６丁目２９－４原宿Ｋｏｍｉｙａビル６階,,13,113,1500001,,,,,,,2026-01-14,1,,,,,ソアノート,0
287,2011005011343,新規,0,2026-01-14,2026-01-14,一般社団法人ＮＣグリーンネット１号,,その他の設立登記法人,東京都,渋谷区,千駄ヶ谷３丁目１１番８号,,13,113,1510051,,,,,,,2026-01-14,1,,,,,エヌシーグリーンネットイチゴウ,0
289,2011101114339,新規,0,2026-01-14,2026-01-14,エバーリヴ株式会社,,株式会社,東京都,新宿区,西新宿３丁目３番１３号西新宿水間ビル２Ｆ,,13,104,1600023,,,,,,,2026-01-14,1,,,,,エバーリヴ,0
292,2011105011689,新規,0,2026-01-14,2026-01-14,一般社団法人日本メンテナンス協会,,その他の設立登記法人,東京都,新宿区,高田馬場１丁目１７番１４号サウンズビル６Ｗ,,13,104,1690075,,,,,,,2026-01-14,1,,,,,ニホンメンテナンスキョウカイ,0
293,2011201026896,新規,0,2026-01-14,2026-01-14,日渥株式会社,,株式会社,東京都,中野区,若宮１丁目５番５号あけぼのハイツ１０２,,13,114,1650033,,,,,,,2026-01-14,1,,,,,ヒアツ,0
303,2011801047292,新規,0,2026-01-14,2026-01-14,株式会社プラチナムリュクス,,株式会社,東京都,足立区,東和４丁目１４番６号エスポワール東和第二６０４号室,,13,121,1200003,,,,,,,2026-01-14,1,,,,,プラチナムリュクス,0
304,2011801047301,新規,0,2026-01-14,2026-01-14,株式会社オルビスエナジー,,株式会社,東京都,葛飾区,堀切５丁目６－１,,13,122,1240006,,,,,,,2026-01-14,1,,,,,オルビスエナジー,0
308,2012401043987,新規,0,2026-01-14,2026-01-14,株式会社ＭＣＫホールディングス,,株式会社,東京都,狛江市,岩戸北３丁目１６番１５号,,13,219,2010004,,,,,,,2026-01-14,1,,,,,エムシーケーホールディングス,0
312,2012403007560,新規,0,2026-01-14,2026-01-14,合同会社ＡＴＥＳ,,合同会社,東京都,府中市,本宿町２丁目１６番地の１６,,13,206,1830032,,,,,,,2026-01-14,1,,,,,アテス,0
315,2012801024463,新規,0,2026-01-14,2026-01-14,株式会社アクアシティ,,株式会社,東京都,立川市,高松町２丁目２３番１０号,,13,202,1900011,,,,,,,2026-01-14,1,,,,,アクアシティ,0
317,2012803003969,新規,0,2026-01-14,2026-01-14,合同会社ＯＭ‐ＡＲＣＨＩＳ,,合同会社,東京都,日野市,旭が丘１丁目８－６ウインベルガーデン豊田Ｂ２１０,,13,212,1910065,,,,,,,2026-01-14,1,,,,,オーエムアーキス,0
322,2013303008054,新規,0,2026-01-14,2026-01-14,Ｌｉｔｕｓ合同会社,,合同会社,東京都,豊島区,千川１丁目１９－１２イスキア１０１,,13,116,1710041,,,,,,,2026-01-14,1,,,,,リタス,0
330,2020001166605,新規,0,2026-01-14,2026-01-14,ＯｒｉＭａｔｉｏｎ株式会社,,株式会社,神奈川県,横浜市鶴見区,岸谷４丁目２８番３７号ハイツレインボー３０３,,14,101,2300078,,,,,,,2026-01-14,1,,,,,オリメーション,0
331,2020001166646,新規,0,2026-01-14,2026-01-14,株式会社Ｇｏｓｈｉｆｙ,,株式会社,神奈川県,横浜市神奈川区,金港町５―１４クアドリフォリオ８階,,14,102,2210056,,,,,,,2026-01-14,1,,,,,ゴシファイ,0
335,2020003029990,新規,0,2026-01-14,2026-01-14,天神テックカンパニー合同会社,,合同会社,神奈川県,横浜市神奈川区,金港町５－１４クアドリフォリオ８階,,14,102,2210056,,,,,,,2026-01-14,1,,,,,テンジンテックカンパニー,0
339,2021001087205,新規,0,2026-01-14,2026-01-14,株式会社Ｒｈｅａ　Ｂｅａｕｔｙ,,株式会社,神奈川県,横須賀市,光の丘８番３号ＹＲＰベンチャー棟２１３,,14,201,2390847,,,,,,,2026-01-14,1,,,,,レアビューティー,0
340,2021001087213,新規,0,2026-01-14,2026-01-14,光測量株式会社,,株式会社,神奈川県,厚木市,愛甲東１丁目２３番３７－２０１号,,14,212,2430027,,,,,,,2026-01-14,1,,,,,ヒカリソクリョウ,0
341,2021001087246,新規,0,2026-01-14,2026-01-14,株式会社ＭＡＫＥ　Ｏｎｅ,,株式会社,神奈川県,藤沢市,南藤沢２３番６号,,14,205,2510055,,,,,,,2026-01-14,1,,,,,メイクワン,0
346,2030001170416,新規,0,2026-01-14,2026-01-14,リアンフロンティアＨＤ株式会社,,株式会社,埼玉県,さいたま市大宮区,桜木町１丁目１９５番地１,,11,103,3300854,,,,,,,2026-01-14,1,,,,,リアンフロンティアホールディングス,0
347,2030001170523,新規,0,2026-01-14,2026-01-14,株式会社ＦＬＡＳＨ,,株式会社,埼玉県,三郷市,新和１丁目４０９番地４,,11,237,3410034,,,,,,,2026-01-14,1,,,,,フラッシュ,0
348,2030001170548,新規,0,2026-01-14,2026-01-14,株式会社涼誠興業,,株式会社,埼玉県,春日部市,大枝８９番地武里団地６街区１４棟３０１号,,11,214,3440023,,,,,,,2026-01-14,1,,,,,リョウセイコウギョウ,0
349,2030001170572,新規,0,2026-01-14,2026-01-14,ランドドクター株式会社,,株式会社,埼玉県,春日部市,中央３丁目１８－２９,,11,214,3440067,,,,,,,2026-01-14,1,,,,,ランドドクター,0
362,2040001142050,新規,0,2026-01-14,2026-01-14,読売センター松戸南部株式会社,,株式会社,千葉県,松戸市,下矢切５０－６,,12,207,2710096,,,,,,,2026-01-14,1,,,,,ヨミウリセンターマツドナンブ,0
363,2040001142059,新規,0,2026-01-14,2026-01-14,株式会社ＳＫＲ,,株式会社,千葉県,鎌ケ谷市,道野辺中央４丁目１１番５号,,12,224,2730113,,,,,,,2026-01-14,1,,,,,エスケーアール,0
364,2040001142067,新規,0,2026-01-14,2026-01-14,株式会社ＳＨＥＥＰ,,株式会社,千葉県,八千代市,保品１９１５番地２３４,,12,221,2760013,,,,,,,2026-01-14,1,,,,,シープ,0
365,2040001142075,新規,0,2026-01-14,2026-01-14,株式会社Ｌｉｎｋ　Ｓｏａｒ,,株式会社,千葉県,香取市,小見川８７１番地５,,12,236,2890313,,,,,,,2026-01-14,1,,,,,リンクソアー,0
366,2040001142117,新規,0,2026-01-14,2026-01-14,株式会社トラストホールディングス,,株式会社,千葉県,市原市,五井９１０４番地１,,12,219,2900056,,,,,,,2026-01-14,1,,,,,トラストホールディングス,0
368,2040003029329,新規,0,2026-01-14,2026-01-14,合同会社そらから,,合同会社,千葉県,袖ケ浦市,横田２２１１番地１,,12,229,2990236,,,,,,,2026-01-14,1,,,,,ソラカラ,0
371,2060001038932,新規,0,2026-01-14,2026-01-14,ソーツフィール株式会社,,株式会社,栃木県,宇都宮市,日の出１丁目３番８号,,09,201,3200832,,,,,,,2026-01-14,1,,,,,ソーツフィール,0
378,2080101026026,新規,0,2026-01-14,2026-01-14,エム・ピー・エス株式会社,,株式会社,静岡県,富士宮市,野中東町２２番地,,22,207,4180033,,,,,,,2026-01-14,1,,,,,エムピーエス,0
381,2090003002958,新規,0,2026-01-14,2026-01-14,合同会社Ｓｕｎｔｒｉｂｕｔｉｏｎ,,合同会社,山梨県,北杜市,大泉町西井出８２４０番地８１２７,,19,209,4091501,,,,,,,2026-01-14,1,,,,,サントリビューション,0
386,2110001039850,新規,0,2026-01-14,2026-01-14,株式会社ＡＭＡＣＴＩＳ,,株式会社,新潟県,新潟市中央区,上大川前通５番町６４番地１コープシティ上大川前１１０３号,,15,103,9518068,,,,,,,2026-01-14,1,,,,,アマクティス,0
400,2120001283274,新規,0,2026-01-14,2026-01-14,ブレスト株式会社,,株式会社,大阪府,大阪市平野区,平野南３丁目７番９号,,27,126,5470031,,,,,,,2026-01-14,1,,,,,ブレスト,0
401,2120001283332,新規,0,2026-01-14,2026-01-14,ＦＯＡＭＳ株式会社,,株式会社,大阪府,大阪市中央区,安土町３丁目４番９－８０６号,,27,128,5410052,,,,,,,2026-01-14,1,,,,,フォーム,0
402,2120001283381,新規,0,2026-01-14,2026-01-14,インフラリンク株式会社,,株式会社,大阪府,大阪市中央区,瓦町３丁目４－１０日宝御堂ビル６階９号,,27,128,5410048,,,,,,,2026-01-14,1,,,,,インフラリンク,0
404,2120003031656,新規,0,2026-01-14,2026-01-14,合同会社ｓｔｙｌｅｏｎｅ,,合同会社,大阪府,大阪市中央区,安堂寺町１丁目２－２７,,27,128,5420061,,,,,,,2026-01-14,1,,,,,スタイルワン,0
405,2120003031689,新規,0,2026-01-14,2026-01-14,Ｆｅｌｉｚ合同会社,,合同会社,大阪府,大阪市中央区,瓦町１丁目６‐１‐２４０８号,,27,128,5410048,,,,,,,2026-01-14,1,,,,,フェリス,0
407,2120901052043,新規,0,2026-01-14,2026-01-14,株式会社ＭＨＤ　ＲＥＮＯＶＥ,,株式会社,大阪府,吹田市,千里丘中３４番,,27,205,5650812,,,,,,,2026-01-14,1,,,,,エムエイチディリノベ,0
408,2120901052076,新規,0,2026-01-14,2026-01-14,株式会社ジェニーグループ,,株式会社,大阪府,茨木市,豊川２丁目３番４号,,27,211,5670057,,,,,,,2026-01-14,1,,,,,ジェニーグループ,0
410,2130001081355,新規,0,2026-01-14,2026-01-14,森精工株式会社,,株式会社,京都府,久世郡久御山町,野村村東１５８番地１,,26,322,6130023,,,,,,,2026-01-14,1,,,,,モリセイコウ,0
412,2130005017553,新規,0,2026-01-14,2026-01-14,一般社団法人五葉会,,その他の設立登記法人,京都府,京都市左京区,一乗寺塚本町３５番地の１フラット北白川１０１,00142163,26,103,6068176,,,,,,,2026-01-14,1,,,,,ゴヨウカイ,0
417,2140001141323,新規,0,2026-01-14,2026-01-14,株式会社重松ボーリング,,株式会社,兵庫県,三田市,乙原２３９５番地１０７,,28,219,6691503,,,,,,,2026-01-14,1,,,,,シゲマツボーリング,0
418,2140001141331,新規,0,2026-01-14,2026-01-14,株式会社酒井鉄工所,,株式会社,兵庫県,赤穂市,大津１６１２番地,,28,212,6780252,,,,,,,2026-01-14,1,,,,,サカイテッコウショ,0
419,2140001141422,新規,0,2026-01-14,2026-01-14,ＳＷコーポレーション株式会社,,株式会社,兵庫県,神戸市須磨区,須磨本町２丁目２番３２号１０２,,28,107,6540054,,,,,,,2026-01-14,1,,,,,エスダブルコーポレーション,0
421,2140003023032,新規,0,2026-01-14,2026-01-14,アタラシイセカイ合同会社,,合同会社,兵庫県,神戸市中央区,磯辺通１丁目１番１８号カサベラ国際プラザビル７０７号室,,28,110,6510084,,,,,,,2026-01-14,1,,,,,アタラシイセカイ,0
422,2140003023073,新規,0,2026-01-14,2026-01-14,合同会社ｕｅｄａ,,合同会社,兵庫県,丹波市,氷上町石生２２０５番地１,,28,223,6693464,,,,,,,2026-01-14,1,,,,,ウエダ,0
423,2140005027758,新規,0,2026-01-14,2026-01-14,一般社団法人海励会,,その他の設立登記法人,兵庫県,神戸市西区,天が岡３５－６,,28,111,6512141,,,,,,,2026-01-14,1,,,,,カイレイカイ,0
425,2160001027347,新規,0,2026-01-14,2026-01-14,株式会社豊作,,株式会社,滋賀県,愛知郡愛荘町,軽野乙３１１番地,,25,425,5291205,,,,,,,2026-01-14,1,,,,,ホウサク,0
426,2160001027355,新規,0,2026-01-14,2026-01-14,匠和株式会社,,株式会社,滋賀県,栗東市,小柿９丁目７番３５号１０１室,,25,208,5203024,,,,,,,2026-01-14,1,,,,,タクミワ,0
431,2180001170079,新規,0,2026-01-14,2026-01-14,ｐｌａｎ，ｂ株式会社,,株式会社,愛知県,名古屋市中村区,元中村町１丁目１０４番地の２ウエストクロス２０２,,23,105,4530047,,,,,,,2026-01-14,1,,,,,プランビー,0
432,2180001170178,新規,0,2026-01-14,2026-01-14,ＫＯＮＡＮ　ＭＡＮＡＧＥＭＥＮＴ株式会社,,株式会社,愛知県,江南市,古知野町久保見５５番地,,23,217,4838275,,,,,,,2026-01-14,1,,,,,コウナンマネジメント,0
435,2180003029629,新規,0,2026-01-14,2026-01-14,合同会社ステイズ,,合同会社,愛知県,名古屋市中区,新栄１丁目３０－２２プログレスアサダ瓦町８０１号,,23,106,4600007,,,,,,,2026-01-14,1,,,,,ステイズ,0
437,2190003005323,新規,0,2026-01-14,2026-01-14,合同会社ＺＥＮＳＵＫＥ,,合同会社,三重県,伊賀市,生琉里３１４４番地の１８,,24,216,5180821,,,,,,,2026-01-14,1,,,,,ゼンスケ,0
442,2200001044610,新規,0,2026-01-14,2026-01-14,ｋｅｅｌ株式会社,,株式会社,岐阜県,岐阜市,加納堀田町１丁目４番地,,21,201,5008271,,,,,,,2026-01-14,1,,,,,キール,0
443,2200003007193,新規,0,2026-01-14,2026-01-14,Ｖｉｒｋ　ＴＲＡＤＩＮＧ合同会社,,合同会社,岐阜県,岐阜市,本荘２５９８－４坂井ビル４－Ａ,,21,201,5008389,,,,,,,2026-01-14,1,,,,,ヴィルクトレーディング,0
449,2230001021243,新規,0,2026-01-14,2026-01-14,Ａ‐Ｋ‐Ｌｉｎｋ株式会社,,株式会社,富山県,小矢部市,五社２３８番地,,16,209,9320801,,,,,,,2026-01-14,1,,,,,エーケーリンク,0
454,2240001066048,新規,0,2026-01-14,2026-01-14,株式会社オリーブホームズ,,株式会社,広島県,広島市佐伯区,屋代２丁目３１番１４号,,34,108,7315146,,,,,,,2026-01-14,1,,,,,オリーブホームズ,0
456,2250001021497,新規,0,2026-01-14,2026-01-14,株式会社海と島と,,株式会社,山口県,大島郡周防大島町,大字日前２７５番地９,,35,305,7422804,,,,,,,2026-01-14,1,,,,,ウミトシマト,0
459,2260001040901,新規,0,2026-01-14,2026-01-14,トリノバル株式会社,,株式会社,岡山県,倉敷市,連島町連島５１番地１,,33,202,7128011,,,,,,,2026-01-14,1,,,,,トリノバル,0
461,2260005011568,新規,0,2026-01-14,2026-01-14,税理士法人そら,,その他の設立登記法人,岡山県,岡山市北区,南方１丁目７番２１号,,33,101,7000807,,,,,,,2026-01-14,1,,,,,ソラ,0
466,2290001112680,新規,0,2026-01-14,2026-01-14,株式会社スポカモビリティ,,株式会社,福岡県,福岡市中央区,高砂１丁目２０番１８号,,40,133,8100011,,,,,,,2026-01-14,1,,,,,スピカモビリティ,0
467,2290001112689,新規,0,2026-01-14,2026-01-14,株式会社ＣＥＲＩＳＩＥＲ,,株式会社,福岡県,福岡市東区,香椎１丁目１番１号,,40,131,8130011,,,,,,,2026-01-14,1,,,,,スリジエ,0
468,2290001112714,新規,0,2026-01-14,2026-01-14,ＳＤＩ株式会社,,株式会社,福岡県,福岡市中央区,小笹１丁目１８番３９号,,40,133,8100033,,,,,,,2026-01-14,1,,,,,エスディーアイ,0
469,2290001112739,新規,0,2026-01-14,2026-01-14,桜センター株式会社,,株式会社,福岡県,三潴郡大木町,大字大角１６１５－３－１０１号室,,40,522,8300403,,,,,,,2026-01-14,1,,,,,サクラセンター,0
470,2290005019963,新規,0,2026-01-14,2026-01-14,アネーラ弁護士法人,,その他の設立登記法人,福岡県,福岡市中央区,大名２丁目６番５０号福岡大名ガーデンシティ,,40,133,8100041,,,,,,,2026-01-14,1,,,,,アネーラ,0
474,2290801032178,新規,0,2026-01-14,2026-01-14,株式会社プラム,,株式会社,福岡県,北九州市八幡西区,黒崎３丁目４番１号大和ビル１階,,40,109,8060021,,,,,,,2026-01-14,1,,,,,プラム,0
480,2320001021531,新規,0,2026-01-14,2026-01-14,株式会社ＰＲサービス,,株式会社,大分県,大分市,城崎町２丁目２番１９号城崎法務ビル２０２,,44,201,8700045,,,,,,,2026-01-14,1,,,,,ピーアールサービス,0
482,2330001033906,新規,0,2026-01-14,2026-01-14,ＲＩＤＯ株式会社,,株式会社,熊本県,八代市,千丁町新牟田７９番地２,,43,202,8694703,,,,,,,2026-01-14,1,,,,,リド,0
483,2330001033914,新規,0,2026-01-14,2026-01-14,株式会社ｌｉｔｔｌｅ　ｗｏｒｋｓ,,株式会社,熊本県,熊本市中央区,坪井５丁目１番４９号,,43,101,8600863,,,,,,,2026-01-14,1,,,,,リトルワークス,0
488,2330003011389,新規,0,2026-01-14,2026-01-14,合同会社Ｐｉｘｔａｃｋ,,合同会社,熊本県,荒尾市,大島１０８７－４アーバンハイツ２０２,,43,204,8640057,,,,,,,2026-01-14,1,,,,,,0
490,2340001027865,新規,0,2026-01-14,2026-01-14,株式会社駒匠,,株式会社,鹿児島県,鹿児島市,照国町９番１４号,,46,201,8920841,,,,,,,2026-01-14,1,,,,,コマショウ,0
493,2350001019894,新規,0,2026-01-14,2026-01-14,ルリアンすず株式会社,,株式会社,宮崎県,児湯郡高鍋町,大字北高鍋１０８５番地１,,45,401,8840002,,,,,,,2026-01-14,1,,,,,ルリアンスズ,0
495,2350003005117,新規,0,2026-01-14,2026-01-14,合同会社和,,合同会社,宮崎県,宮崎市,松橋１丁目１６番１１号カルナコート４０１,,45,201,8800013,,,,,,,2026-01-14,1,,,,,ナゴミ,0
499,2380005013049,新規,0,2026-01-14,2026-01-14,一般社団法人会津の夜明け,,その他の設立登記法人,福島県,会津若松市,神指町下神指７０番地,,07,202,9650067,,,,,,,2026-01-14,1,,,,,アイヅノヨアケ,0
505,2460301005336,新規,0,2026-01-14,2026-01-14,株式会社ぷ,,株式会社,北海道,常呂郡訓子府町,仲町４０,,01,549,0991433,,,,,,,2026-01-14,1,,,,,プ,0
506,2460303000896,新規,0,2026-01-14,2026-01-14,合同会社北西,,合同会社,北海道,北見市,幸町４丁目１番３１号,,01,208,0900036,,,,,,,2026-01-14,1,,,,,ホクサイ,0
510,2700150133254,新規,0,2026-01-14,2026-01-14,Ａｎｒｉｔｓｕ　Ｃｏｍｐａｎｙ,,外国会社等,,,,,,,,４９０　Ｊａｒｖｉｓ　Ｄｒｉｖｅ，Ｍｏｒｇａｎ　Ｈｉｌｌ，Ｃａｌｉｆｏｒｎｉａ　９５０３７－２８０９　Ｕ．Ｓ．Ａ．,,,,,,2026-01-14,1,,,,,アンリツカンパニー,0
525,3010001261686,新規,0,2026-01-14,2026-01-14,フュージョンハイヤー株式会社,,株式会社,東京都,中央区,銀座１丁目２７番１２号,,13,102,1040061,,,,,,,2026-01-14,1,,,,,フュージョンハイヤー,0
526,3010001261736,新規,0,2026-01-14,2026-01-14,ＮＥＸＧＯ　ＪＡＰＡＮ株式会社,,株式会社,東京都,中央区,銀座１丁目２２番１１号銀座大竹ビジデンス２Ｆ,,13,102,1040061,,,,,,,2026-01-14,1,,,,,ネックスゴージャパン,0
527,3010001261744,新規,0,2026-01-14,2026-01-14,Ｒｅｖｏｌｕｔｉｏｎ　Ｍｅｄｉｃｉｎｅｓ　Ｊａｐａｎ株式会社,,株式会社,東京都,中央区,日本橋室町４丁目３番９号,,13,102,1030022,,,,,,,2026-01-14,1,,,,,レボリューションメディシンズジャパン,0
529,3010003049824,新規,0,2026-01-14,2026-01-14,Ｂｅａｒ’ｓ　Ｓｏｃｋｓ合同会社,,合同会社,東京都,中央区,月島３丁目４番７号Ｃｏｒｔｅ３０２号室,,13,102,1040052,,,,,,,2026-01-14,1,,,,,ベアーズソックス,0
530,3010003049907,新規,0,2026-01-14,2026-01-14,合同会社ティー・ティー,,合同会社,東京都,中央区,日本橋堀留町２丁目３番３－７０２号,,13,102,1030012,,,,,,,2026-01-14,1,,,,,ティーティー,0
531,3010003049948,新規,0,2026-01-14,2026-01-14,合同会社ＫＩＲＦ４,,合同会社,東京都,千代田区,内幸町２丁目１番６号,,13,101,1000011,,,,,,,2026-01-14,1,,,,,ケイアイアールエフフォー,0
532,3010003049980,新規,0,2026-01-14,2026-01-14,合同会社ティー・アップ,,合同会社,東京都,中央区,築地４丁目１０－６三輝ビル３階,,13,102,1040045,,,,,,,2026-01-14,1,,,,,ティーアップ,0
538,3010401195451,新規,0,2026-01-14,2026-01-14,ＴＣエナーテック・ジャパン株式会社,,株式会社,東京都,港区,芝５丁目２７－３,,13,103,1080014,,,,,,,2026-01-14,1,,,,,ティーシーエナーテックジャパン,0
539,3010403037016,新規,0,2026-01-14,2026-01-14,Ｅｌｍ　Ｃａｐｉｔａｌ合同会社,,合同会社,東京都,港区,海岸１丁目１番１－３１０９号,,13,103,1050022,,,,,,,2026-01-14,1,,,,,エルムキャピタル,0
540,3010403037049,新規,0,2026-01-14,2026-01-14,ＥＮ００６合同会社,,合同会社,東京都,港区,西新橋３丁目５番２号,,13,103,1050003,,,,,,,2026-01-14,1,,,,,イーエヌゼロゼロシックス,0
541,3010405025150,新規,0,2026-01-14,2026-01-14,一般社団法人公共的医療機関経営力強化研究機構,,その他の設立登記法人,東京都,港区,浜松町２丁目２番１５号浜松町ダイヤビル２階,,13,103,1050013,,,,,,,2026-01-14,1,,,,,コウキョウテキイリョウキカンケイエイリョクキョウカケンキュウキコウ,0
542,3010501055274,新規,0,2026-01-14,2026-01-14,株式会社ｇｏｏｄ　ｓｔｕｆｆ,,株式会社,東京都,台東区,今戸２丁目９番４－１２０２号ジェノヴィア浅草ＶＩＩ,00142151,13,106,1110024,,,,,,,2026-01-14,1,,,,,グッドスタッフ,0
545,3010601068572,新規,0,2026-01-14,2026-01-14,株式会社ＲＡＢＥＡ,,株式会社,東京都,江東区,越中島２丁目３番５－３０１号,,13,108,1350044,,,,,,,2026-01-14,1,,,,,ラビア,0
546,3010601068580,新規,0,2026-01-14,2026-01-14,輝株式会社,,株式会社,東京都,江東区,大島３丁目２５番１０号,,13,108,1360072,,,,,,,2026-01-14,1,,,,,キラリ,0
548,3010701048854,新規,0,2026-01-14,2026-01-14,山寿株式会社,,株式会社,東京都,品川区,小山台１丁目８番４号,,13,109,1420061,,,,,,,2026-01-14,1,,,,,ヤマジュ,0
549,3010703008071,新規,0,2026-01-14,2026-01-14,合同会社ＭＵＳＩＫ,,合同会社,東京都,品川区,東大井３丁目９番１８号,,13,109,1400011,,,,,,,2026-01-14,1,,,,,ムジーク,0
550,3010801036949,新規,0,2026-01-14,2026-01-14,株式会社ｍｅｍｅ．,,株式会社,東京都,大田区,南久が原１丁目７番１８号,,13,111,1460084,,,,,,,2026-01-14,1,,,,,ミームドット,0
551,3010801036965,新規,0,2026-01-14,2026-01-14,株式会社メタル・クラッチ,,株式会社,東京都,大田区,久が原３丁目４０番６号,,13,111,1460085,,,,,,,2026-01-14,1,,,,,メタルクラッチ,0
561,3011001174770,新規,0,2026-01-14,2026-01-14,株式会社ネクシアルグロース,,株式会社,東京都,渋谷区,道玄坂１丁目１０番８号渋谷道玄坂東急ビル２Ｆ－Ｃ,,13,113,1500043,,,,,,,2026-01-14,1,,,,,ネクシアルグロース,0
562,3011001174779,新規,0,2026-01-14,2026-01-14,株式会社Ａｒｓ　Ｓｔｅｌｌａ,,株式会社,東京都,渋谷区,大山町２３番１２号,,13,113,1510065,,,,,,,2026-01-14,1,,,,,エーアールエスステラ,0
563,3011001174829,新規,0,2026-01-14,2026-01-14,株式会社Ｓｅｖｅｎ　Ｃｒｅａｔｉｖｅ,,株式会社,東京都,渋谷区,神南１丁目１１番４号ＦＰＧリンクス神南５階,,13,113,1500041,,,,,,,2026-01-14,1,,,,,セブンクリエイティブ,0
566,3011101114404,新規,0,2026-01-14,2026-01-14,株式会社日丸財託,,株式会社,東京都,新宿区,新宿２丁目８番１号新宿セブンビル７０９,,13,104,1600022,,,,,,,2026-01-14,1,,,,,ヒノマルザイタク,0
567,3011101114511,新規,0,2026-01-14,2026-01-14,ｅＴｒｉｐＢｏｏｋｉｎｇ．ｃｏｍＪａｐａｎ株式会社,,株式会社,東京都,新宿区,新宿２丁目１５番２４号ヒカリビル４Ｆ,,13,104,1600022,,,,,,,2026-01-14,1,,,,,イートリップブッキングドットコムジャパン,0
571,3011201026887,新規,0,2026-01-14,2026-01-14,株式会社Ｄ‐ｌｉｆｅ’ｓ,,株式会社,東京都,中野区,鷺宮４丁目４３番６号,,13,114,1650032,,,,,,,2026-01-14,1,,,,,ディーライフス,0
572,3011203004924,新規,0,2026-01-14,2026-01-14,リノメ合同会社,,合同会社,東京都,中野区,新井２丁目５番１４号ベルメゾン１０１,,13,114,1650026,,,,,,,2026-01-14,1,,,,,リノメ,0
573,3011301031184,新規,0,2026-01-14,2026-01-14,株式会社ＭＳＣ,,株式会社,東京都,杉並区,天沼２丁目２番３号,,13,115,1670032,,,,,,,2026-01-14,1,,,,,エムエスシー,0
574,3011303005822,新規,0,2026-01-14,2026-01-14,アルクルーン・ソフト合同会社,,合同会社,東京都,杉並区,南荻窪３丁目８番１３号,,13,115,1670052,,,,,,,2026-01-14,1,,,,,アルクルーンソフト,0
575,3011403004996,新規,0,2026-01-14,2026-01-14,合同会社Ｔ＆Ｋ,,合同会社,東京都,板橋区,西台３丁目１０番１２号,,13,119,1750045,,,,,,,2026-01-14,1,,,,,ティーアンドケイ,0
576,3011701029076,新規,0,2026-01-14,2026-01-14,株式会社ｈａｗｋｒｉｚｅ,,株式会社,東京都,江戸川区,平井５丁目３８番３号７０１号,,13,123,1320035,,,,,,,2026-01-14,1,,,,,ホークライズ,0
577,3011703004498,新規,0,2026-01-14,2026-01-14,合同会社軽貨物ｌａｂ,,合同会社,東京都,江戸川区,上一色１丁目７番６号プラム・エヌティー２０１,,13,123,1330041,,,,,,,2026-01-14,1,,,,,ケイカモツラボ,0
580,3011803007269,新規,0,2026-01-14,2026-01-14,合同会社エス・アール・エス,,合同会社,東京都,足立区,西新井７丁目１０番１０号,,13,121,1230841,,,,,,,2026-01-14,1,,,,,エスアールエス,0
582,3012405005207,新規,0,2026-01-14,2026-01-14,一般社団法人いなぎ造園協力会,,その他の設立登記法人,東京都,稲城市,若葉台１丁目１７番地の２９,,13,225,2060824,,,,,,,2026-01-14,1,,,,,イナギゾウエンキョウリョクカイ,0
583,3012701019257,新規,0,2026-01-14,2026-01-14,Ｐｉｅｃｅ株式会社,,株式会社,東京都,西東京市,南町５丁目７番８号サンスクエアオオヤマ１階,,13,229,1880012,,,,,,,2026-01-14,1,,,,,ピース,0
584,3012701019273,新規,0,2026-01-14,2026-01-14,株式会社タナＢＡＳＥ,,株式会社,東京都,東村山市,久米川町１丁目５８番地２久米川町ビジネスプラザ１０号室,,13,213,1890003,,,,,,,2026-01-14,1,,,,,タナベース,0
585,3012703003440,新規,0,2026-01-14,2026-01-14,Ｙｓプランニング合同会社,,合同会社,東京都,西東京市,富士町１丁目１１番２１－３１６号,,13,229,2020014,,,,,,,2026-01-14,1,,,,,ワイズプランニング,0
589,3012803003968,新規,0,2026-01-14,2026-01-14,合同会社ＫＯＳ,,合同会社,東京都,立川市,富士見町２丁目３４番１０号田中ビル１０１,,13,202,1900013,,,,,,,2026-01-14,1,,,,,コス,0
595,3020001166570,新規,0,2026-01-14,2026-01-14,株式会社ＫＲ,,株式会社,神奈川県,横浜市西区,浅間町１丁目４番地３ウィザードビル４０２,,14,103,2200072,,,,,,,2026-01-14,1,,,,,ケーアール,0
596,3020001166645,新規,0,2026-01-14,2026-01-14,株式会社Ｈａｕｏｌｉｍｅ,,株式会社,神奈川県,横浜市旭区,本村町１０１番地１,,14,112,2410024,,,,,,,2026-01-14,1,,,,,ハウオリメ,0
597,3020005017118,新規,0,2026-01-14,2026-01-14,みなとみらい社会保険労務士法人,,その他の設立登記法人,神奈川県,横浜市西区,高島２丁目３番２５号みなとみらいＴＡビル４階,,14,103,2200011,,,,,,,2026-01-14,1,,,,,ミナトミライ,0
601,3021001087245,新規,0,2026-01-14,2026-01-14,株式会社庭まる,,株式会社,神奈川県,平塚市,岡崎３２６９番地の１０９,,14,203,2591212,,,,,,,2026-01-14,1,,,,,ニワマル,0
610,3030001170480,新規,0,2026-01-14,2026-01-14,株式会社トモエ,,株式会社,埼玉県,さいたま市見沼区,東大宮６丁目１５８番地１キャピタルヒルズ３０１,,11,104,3370051,,,,,,,2026-01-14,1,,,,,トモエ,0
611,3030001170514,新規,0,2026-01-14,2026-01-14,株式会社Ｒｏｕｎｄａｂｏｕｔ,,株式会社,埼玉県,さいたま市大宮区,浅間町２丁目１２１番地４,,11,103,3300842,,,,,,,2026-01-14,1,,,,,ランドアバウト,0
618,3030003028438,新規,0,2026-01-14,2026-01-14,合同会社ウィンズ,,合同会社,埼玉県,さいたま市大宮区,土手町１丁目２０８－３,,11,103,3300801,,,,,,,2026-01-14,1,,,,,ウィンズ,0
621,3040001142066,新規,0,2026-01-14,2026-01-14,株式会社マルミ工業,,株式会社,千葉県,木更津市,瓜倉７９４番地,,12,206,2920007,,,,,,,2026-01-14,1,,,,,マルミコウギョウ,0
625,3040003029294,新規,0,2026-01-14,2026-01-14,ＩＫメソッド合同会社,,合同会社,千葉県,松戸市,南花島３丁目４８番地の１プルミエール５号棟,,12,207,2710065,,,,,,,2026-01-14,1,,,,,アイケーメソッド,0
626,3040005022999,新規,0,2026-01-14,2026-01-14,一般社団法人東億メディア,,その他の設立登記法人,千葉県,松戸市,根本６番地の１０大郷パインコープ１０１号室,,12,207,2710077,,,,,,,2026-01-14,1,,,,,トウオクメディア,0
634,3080001027379,新規,0,2026-01-14,2026-01-14,株式会社Ｒｅｒｏｏｍ,,株式会社,静岡県,静岡市清水区,西久保２８０番地の１７セレーノモチヅキＩＩ１０１号,00142166,22,103,4240038,,,,,,,2026-01-14,1,,,,,リルーム,0
656,3120001283216,新規,0,2026-01-14,2026-01-14,株式会社モーションコア,,株式会社,大阪府,枚方市,藤阪天神町２１番１０号,,27,210,5730155,,,,,,,2026-01-14,1,,,,,モーションコア,0
657,3120001283273,新規,0,2026-01-14,2026-01-14,株式会社ｉｎｖｉｚＤａｔａ,,株式会社,大阪府,大阪市淀川区,西宮原１丁目８番２４号,,27,123,5320004,,,,,,,2026-01-14,1,,,,,インビズデータ,0
658,3120001283323,新規,0,2026-01-14,2026-01-14,ＧＥＮＣＯ株式会社,,株式会社,大阪府,大阪市北区,堂島１丁目５番３８号４Ｆ,,27,127,5300003,,,,,,,2026-01-14,1,,,,,ジェンコ,0
659,3120001283380,新規,0,2026-01-14,2026-01-14,ＬＡＰＩＳ　ＨＥＡＲＴＳ株式会社,,株式会社,大阪府,枚方市,楠葉面取町１丁目２２番２５号,,27,210,5731113,,,,,,,2026-01-14,1,,,,,ラピスハーツ,0
660,3120003031614,新規,0,2026-01-14,2026-01-14,星海合同会社,,合同会社,大阪府,大阪市生野区,巽北１丁目２１－２９－３１４室,,27,116,5440004,,,,,,,2026-01-14,1,,,,,セイカイ,0
664,3120101073062,新規,0,2026-01-14,2026-01-14,株式会社池尻商店,,株式会社,大阪府,堺市東区,白鷺町３丁１３番２７号,,27,143,5998107,,,,,,,2026-01-14,1,,,,,イケジリショウテン,0
667,3120901052075,新規,0,2026-01-14,2026-01-14,株式会社オートジェニー,,株式会社,大阪府,茨木市,豊川２丁目３番４号,,27,211,5670057,,,,,,,2026-01-14,1,,,,,オートジェニー,0
668,3120901052083,新規,0,2026-01-14,2026-01-14,株式会社グラスランド,,株式会社,大阪府,吹田市,豊津町１８番３７―７０１号,,27,205,5640051,,,,,,,2026-01-14,1,,,,,グラスランド,0
671,3122001040068,新規,0,2026-01-14,2026-01-14,株式会社貴島設備,,株式会社,大阪府,東大阪市,東石切町１丁目８番１４号,,27,227,5798011,,,,,,,2026-01-14,1,,,,,キジマセツビ,0
675,3140003023072,新規,0,2026-01-14,2026-01-14,ＲＩＧ　ｃｏｎｓｕｌｔｉｎｇ合同会社,,合同会社,兵庫県,神戸市垂水区,舞子台６丁目１５番７号,,28,108,6550046,,,,,,,2026-01-14,1,,,,,リグコンサルティング,0
676,3140003023089,新規,0,2026-01-14,2026-01-14,ファーランド合同会社,,合同会社,兵庫県,宝塚市,仁川台２６６,,28,214,6650074,,,,,,,2026-01-14,1,,,,,ファーランド,0
678,3160001027346,新規,0,2026-01-14,2026-01-14,リベル設備株式会社,,株式会社,滋賀県,守山市,立入町３１番地１３,,25,207,5240031,,,,,,,2026-01-14,1,,,,,リベルセツビ,0
692,3180001170160,新規,0,2026-01-14,2026-01-14,株式会社レシト,,株式会社,愛知県,あま市,七宝町秋竹四町田７８４番地１,,23,237,4970003,,,,,,,2026-01-14,1,,,,,レシト,0
693,3180001170210,新規,0,2026-01-14,2026-01-14,株式会社シェアライト,,株式会社,愛知県,名古屋市西区,笠取町２丁目７６番地金城ビル,,23,104,4510072,,,,,,,2026-01-14,1,,,,,シェアライト,0
697,3180003029594,新規,0,2026-01-14,2026-01-14,ＤＩＮＡＩＲ　ＷＯＲＬＤ合同会社,,合同会社,愛知県,名古屋市中村区,名駅南１丁目７番１２号サンコート柳橋３０３号,,23,105,4500003,,,,,,,2026-01-14,1,,,,,ダイナエアワールド,0
698,3180003029603,新規,0,2026-01-14,2026-01-14,合同会社ギルド,,合同会社,愛知県,名古屋市中村区,名駅４丁目２４番５号第２森ビル４０１,,23,105,4500002,,,,,,,2026-01-14,1,,,,,ギルド,0
700,3180305009757,新規,0,2026-01-14,2026-01-14,医療法人結心会,,その他の設立登記法人,愛知県,豊田市,中町中郷１４４番９,,23,211,4730904,,,,,,,2026-01-14,1,,,,,ケッシンカイカイ,0
705,3200001044618,新規,0,2026-01-14,2026-01-14,株式会社アドミラブル,,株式会社,岐阜県,岐阜市,則松３丁目４１７番地,,21,201,5011183,,,,,,,2026-01-14,1,,,,,アドミラブル,0
710,3200005013833,新規,0,2026-01-14,2026-01-14,特定非営利活動法人ワンワールドワンファミリーホーム,,その他の設立登記法人,岐阜県,高山市,清見町福寄１０２６番地,,21,203,5060104,,,,,,,2026-01-14,1,,,,,ワンワールドワンファミリーホーム,0
713,3210001020460,新規,0,2026-01-14,2026-01-14,株式会社ｎｅｘｓａ,,株式会社,福井県,福井市,中央１丁目３－５ＦＵＫＵＭＡＣＨＩＢＬＯＣＫ６Ｆ,,18,201,9100006,,,,,,,2026-01-14,1,,,,,ネクサ,0
718,3220005009029,新規,0,2026-01-14,2026-01-14,一般社団法人ブルーオーク,,その他の設立登記法人,石川県,七尾市,寿町２６番地,,17,202,9260861,,,,,,,2026-01-14,1,,,,,ブルーオーク,0
719,3230003002562,新規,0,2026-01-14,2026-01-14,合同会社晒屋通りプロジェクト,,合同会社,富山県,滑川市,寺家町２番地１,,16,206,9360051,,,,,,,2026-01-14,1,,,,,サラシヤドオリプロジェクト,0
720,3240001066030,新規,0,2026-01-14,2026-01-14,株式会社サンワケア,,株式会社,広島県,広島市中区,猫屋町３番２号猫屋町ビル２Ｆ,,34,101,7300852,,,,,,,2026-01-14,1,,,,,サンワケア,0
721,3240001066047,新規,0,2026-01-14,2026-01-14,株式会社ネクシアリビング,,株式会社,広島県,広島市南区,宇品西１丁目１番２５号,,34,103,7340014,,,,,,,2026-01-14,1,,,,,ネクシアリビング,0
735,3290001112713,新規,0,2026-01-14,2026-01-14,株式会社ＫＯＲＤＳ,,株式会社,福岡県,福岡市中央区,大名１丁目２‐３１大名矢野ビル１Ｆ,,40,133,8100041,,,,,,,2026-01-14,1,,,,,コーズ,0
736,3290001112738,新規,0,2026-01-14,2026-01-14,株式会社ＳＵＮＲＩＳＥ・Ｋ,,株式会社,福岡県,福岡市博多区,美野島３丁目１番２５－１００１号サンライズエイト,,40,132,8120017,,,,,,,2026-01-14,1,,,,,サンライズケー,0
743,3320001021514,新規,0,2026-01-14,2026-01-14,株式会社にこいち堂,,株式会社,大分県,中津市,大字今津９４４番地１,,44,203,8790101,,,,,,,2026-01-14,1,,,,,ニコイチドウ,0
744,3320001021539,新規,0,2026-01-14,2026-01-14,株式会社ＬＥＡＰ,,株式会社,大分県,大分市,都町３丁目６番８号日経会館２階２０３号室,,44,201,8700034,,,,,,,2026-01-14,1,,,,,リープ,0
748,3330003011388,新規,0,2026-01-14,2026-01-14,合同会社聖工務店,,合同会社,熊本県,水俣市,丸島町１丁目８番９号,,43,205,8670058,,,,,,,2026-01-14,1,,,,,ヒジリコウムテン,0
749,3330003011396,新規,0,2026-01-14,2026-01-14,合同会社ハチヤコーポレーション,,合同会社,熊本県,熊本市西区,蓮台寺２丁目８－５４,,43,103,8600055,,,,,,,2026-01-14,1,,,,,ハチヤコーポレーション,0
750,3330005011015,新規,0,2026-01-14,2026-01-14,一般社団法人のさり,,その他の設立登記法人,熊本県,宇土市,北段原町１３１番地５,,43,211,8690451,,,,,,,2026-01-14,1,,,,,ノサリ,0
751,3340001027906,新規,0,2026-01-14,2026-01-14,株式会社徳元設備,,株式会社,鹿児島県,曽於市,末吉町深川２５８２番地１,,46,217,8998606,,,,,,,2026-01-14,1,,,,,トクモトセツビ,0
760,3390001018215,新規,0,2026-01-14,2026-01-14,株式会社ｔｏｗｎｔｅｃｈ,,株式会社,山形県,長井市,館町北６－２７タスパークホテル長井２階ｉ－ｂａｙ内,,06,209,9930011,,,,,,,2026-01-14,1,,,,,タウンテック,0
764,3400003003592,新規,0,2026-01-14,2026-01-14,合同会社酔月,,合同会社,岩手県,滝沢市,鵜飼狐洞１番地２５５,,03,216,0200668,,,,,,,2026-01-14,1,,,,,スイゲツ,0
769,3430001096033,新規,0,2026-01-14,2026-01-14,株式会社ＹｏｓｉＸ,,株式会社,北海道,札幌市西区,発寒四条５丁目５番２号,,01,107,0630824,,,,,,,2026-01-14,1,,,,,ヨシックス,0
772,3430003018480,新規,0,2026-01-14,2026-01-14,合同会社Ｔ．Ｓ．Ａレスキュー,,合同会社,北海道,北広島市,大曲幸町５丁目１番地４,,01,234,0611278,,,,,,,2026-01-14,1,,,,,ティーエスエーレスキュー,0
798,4010001261784,新規,0,2026-01-14,2026-01-14,株式会社Ｋｏｓｓ,,株式会社,東京都,文京区,関口１丁目７番５号メゾン文京関口１０１号室,,13,105,1120014,,,,,,,2026-01-14,1,,,,,コス,0
802,4010003049880,新規,0,2026-01-14,2026-01-14,信栄社合同会社,,合同会社,東京都,千代田区,神田和泉町１番地６－１６ヤマトビル４０５,,13,101,1010024,,,,,,,2026-01-14,1,,,,,シンエイシャ,0
803,4010003050021,新規,0,2026-01-14,2026-01-14,合同会社Ｈｏｒｓｅ＆Ｃｏ．,,合同会社,東京都,中央区,日本橋本町３丁目３―６ワカ末ビル７階,,13,102,1030023,,,,,,,2026-01-14,1,,,,,ホースアンドコー,0
804,4010003050038,新規,0,2026-01-14,2026-01-14,Ｋｏｔｏｔｏ合同会社,,合同会社,東京都,中央区,銀座１丁目２２番１１号銀座大竹ビジデンス２Ｆ,,13,102,1040061,,,,,,,2026-01-14,1,,,,,コトト,0
810,4010401195624,新規,0,2026-01-14,2026-01-14,株式会社ＬＩＶＥＬ,,株式会社,東京都,港区,新橋５丁目２５番地２ル・グラシエルＢＬＤＧ．６０－５Ｆ,,13,103,1050004,,,,,,,2026-01-14,1,,,,,リベル,0
811,4010401195707,新規,0,2026-01-14,2026-01-14,株式会社ＮｅｘｔＣｒｅ８,,株式会社,東京都,港区,六本木３丁目１６番１２号六本木ＫＳビル５Ｆ,,13,103,1060032,,,,,,,2026-01-14,1,,,,,ネクストクリエイト,0
812,4010401195723,新規,0,2026-01-14,2026-01-14,ＴＣｏｎｓｕｌｔｉｎｇ株式会社,,株式会社,東京都,港区,浜松町２丁目２－１５,,13,103,1050013,,,,,,,2026-01-14,1,,,,,ティコンサルティング,0
813,4010401195756,新規,0,2026-01-14,2026-01-14,Ｄｅｅｐ　Ｅｍｏｔｉｏｎ株式会社,,株式会社,東京都,港区,高輪４丁目１１番２３－１０２号,,13,103,1080074,,,,,,,2026-01-14,1,,,,,ディープエモーション,0
815,4010403037015,新規,0,2026-01-14,2026-01-14,合同会社エム,,合同会社,東京都,港区,白金台１丁目１番１１－１１０１号,,13,103,1080071,,,,,,,2026-01-14,1,,,,,エム,0
818,4010703008079,新規,0,2026-01-14,2026-01-14,ラ・グレイス・ビスタ合同会社,,合同会社,東京都,品川区,上大崎４丁目１番１－２８０６号,,13,109,1410021,,,,,,,2026-01-14,1,,,,,ラグレイスビスタ,0
820,4010801036964,新規,0,2026-01-14,2026-01-14,株式会社ＭＤＣ,,株式会社,東京都,大田区,西蒲田７丁目３４番５－１２０１号,,13,111,1440051,,,,,,,2026-01-14,1,,,,,エムディーシー,0
827,4011001174860,新規,0,2026-01-14,2026-01-14,アセンディアアジア株式会社,,株式会社,東京都,渋谷区,恵比寿西２丁目４番８号ウィンド恵比寿ビル８Ｆ,,13,113,1500021,,,,,,,2026-01-14,1,,,,,アセンディアアジア,0
828,4011001175009,新規,0,2026-01-14,2026-01-14,株式会社Ｕｎ‐ｒｏｏｔ,,株式会社,東京都,渋谷区,千駄ヶ谷５丁目３３‐１７ＳＧ新宿南ビル１階,,13,113,1510051,,,,,,,2026-01-14,1,,,,,アンルート,0
830,4011003023256,新規,0,2026-01-14,2026-01-14,合同会社Ｍｏｍｍｙ,,合同会社,東京都,渋谷区,上原１丁目３２－４吉田ハイツ３Ｆ,,13,113,1510064,,,,,,,2026-01-14,1,,,,,マミー,0
831,4011003023289,新規,0,2026-01-14,2026-01-14,合同会社ＴＡＳＵＫＡＲＵ,,合同会社,東京都,目黒区,自由が丘２丁目１６番１２号ＲＪ３,,13,110,1520035,,,,,,,2026-01-14,1,,,,,タスカル,0
835,4011101114386,新規,0,2026-01-14,2026-01-14,株式会社ルミス,,株式会社,東京都,新宿区,西新宿３丁目３番１３号西新宿水間ビル６階,,13,104,1600023,,,,,,,2026-01-14,1,,,,,ルミス,0
837,4011303005821,新規,0,2026-01-14,2026-01-14,合同会社ＫＨＡＮＡＬ　ＩＮＴＥＲＰＲＩＳＥ,,合同会社,東京都,杉並区,荻窪１丁目４１－２５－１０１,,13,115,1670051,,,,,,,2026-01-14,1,,,,,カナルインタープライズ,0
845,4011601029308,新規,0,2026-01-14,2026-01-14,株式会社ＧＬＯＢＡＬ　ＵＰ,,株式会社,東京都,練馬区,東大泉２丁目１番７号ソルクレスト２０３,,13,120,1780063,,,,,,,2026-01-14,1,,,,,グローバルアップ,0
846,4011603004977,新規,0,2026-01-14,2026-01-14,再エネ開発合同会社,,合同会社,東京都,練馬区,富士見台４丁目３９番４号,,13,120,1770034,,,,,,,2026-01-14,1,,,,,サイエネカイハツ,0
848,4011701029083,新規,0,2026-01-14,2026-01-14,株式会社Ｆｉｘｏ,,株式会社,東京都,江戸川区,西葛西２丁目２２番４５－１１３号,,13,123,1340088,,,,,,,2026-01-14,1,,,,,フィクソ,0
854,4011803007243,新規,0,2026-01-14,2026-01-14,合同会社Ｎｅｘｔ　Ｓｔｅｐ,,合同会社,東京都,足立区,千住東２丁目８－１,,13,121,1200025,,,,,,,2026-01-14,1,,,,,ネクストステップ,0
860,4012305002162,新規,0,2026-01-14,2026-01-14,アクシスエンジニア・ネットワーク・ユニオン,,その他の設立登記法人,東京都,町田市,金森６丁目１８番３９号,,13,209,1940012,,,,,,,2026-01-14,1,,,,,,0
865,4012701019264,新規,0,2026-01-14,2026-01-14,株式会社瀬之口,,株式会社,東京都,東久留米市,八幡町３丁目１２番８号,,13,222,2030042,,,,,,,2026-01-14,1,,,,,セノクチ,0
867,4012801024461,新規,0,2026-01-14,2026-01-14,株式会社古賀建材,,株式会社,東京都,東大和市,立野４丁目４７３番地の１春日ビル３０２号,,13,220,2070021,,,,,,,2026-01-14,1,,,,,コガケンザイ,0
869,4012803003967,新規,0,2026-01-14,2026-01-14,合同会社Ｔｈｙｍｅ,,合同会社,東京都,国分寺市,本町２丁目２３番７号,,13,214,1850012,,,,,,,2026-01-14,1,,,,,タイム,0
870,4013301055575,新規,0,2026-01-14,2026-01-14,Ｈｕｄｓｏｎ　Ｓｙｓｔｅｍ株式会社,,株式会社,東京都,豊島区,高田２丁目１２－２０－５０４,,13,116,1710033,,,,,,,2026-01-14,1,,,,,ハドソンシステム,0
871,4013301055583,新規,0,2026-01-14,2026-01-14,株式会社円蔵,,株式会社,東京都,豊島区,長崎４丁目１１番１１号渡辺ビルＢ１Ｆ,,13,116,1710051,,,,,,,2026-01-14,1,,,,,エンゾウ,0
877,4020001166611,新規,0,2026-01-14,2026-01-14,株式会社ＢＭＣ,,株式会社,神奈川県,川崎市中原区,上小田中２丁目２８番１－２０２号,,14,133,2110053,,,,,,,2026-01-14,1,,,,,ビーエムシー,0
878,4020001166636,新規,0,2026-01-14,2026-01-14,株式会社ＲＨ’ＣＲＥＳＴ,,株式会社,神奈川県,川崎市川崎区,小川町９番地７フレンド並木２０１,,14,131,2100023,,,,,,,2026-01-14,1,,,,,アールエイチクレスト,0
879,4020001166669,新規,0,2026-01-14,2026-01-14,株式会社キーストーン,,株式会社,神奈川県,横浜市戸塚区,汲沢８丁目２１番２９号,,14,110,2450061,,,,,,,2026-01-14,1,,,,,キーストーン,0
883,4021001087153,新規,0,2026-01-14,2026-01-14,株式会社貢献,,株式会社,神奈川県,足柄下郡箱根町,仙石原沢向５９－１,,14,382,2500631,,,,,,,2026-01-14,1,,,,,,0
887,4021003016928,新規,0,2026-01-14,2026-01-14,合同会社結灯,,合同会社,神奈川県,小田原市,南鴨宮２丁目５番２号,,14,206,2500875,,,,,,,2026-01-14,1,,,,,ユイビ,0
888,4021003016985,新規,0,2026-01-14,2026-01-14,合同会社ドローンベータ,,合同会社,神奈川県,大和市,中央林間７丁目５番２－４０３号,,14,213,2420007,,,,,,,2026-01-14,1,,,,,ドローンベータ,0
900,4040001142016,新規,0,2026-01-14,2026-01-14,株式会社エアヴェクシス,,株式会社,千葉県,山武郡横芝光町,中台１３９３番地５,,12,410,2891741,,,,,,,2026-01-14,1,,,,,エアヴェクシス,0
901,4040001142065,新規,0,2026-01-14,2026-01-14,ＷＡＴＥＮ株式会社,,株式会社,千葉県,船橋市,前貝塚町１００８番地１５,,12,204,2730042,,,,,,,2026-01-14,1,,,,,ワテン,0
905,4040003029293,新規,0,2026-01-14,2026-01-14,澄音文化合同会社,,合同会社,千葉県,千葉市美浜区,若葉３丁目１－１１－１１０４室,,12,106,2610014,,,,,,,2026-01-14,1,,,,,チョウオンブンカ,0
911,4050005013749,新規,0,2026-01-14,2026-01-14,プライム社会保険労務士法人,,その他の設立登記法人,茨城県,水戸市,城南３丁目５番３２号,,08,201,3100803,,,,,,,2026-01-14,1,,,,,プライム,0
913,4070001043707,新規,0,2026-01-14,2026-01-14,ＧＫＵ　ＦＡＲＭ株式会社,,株式会社,群馬県,高崎市,中大類町１１８番地３,,10,202,3700033,,,,,,,2026-01-14,1,,,,,ジーケーユーファーム,0
919,4080101026016,新規,0,2026-01-14,2026-01-14,株式会社ＺＥＲＯＡＤ,,株式会社,静岡県,沼津市,下香貫宮脇３３６番地の９タウニィ楊原１０３号,,22,203,4100822,,,,,,,2026-01-14,1,,,,,ゼロード,0
931,4110001039816,新規,0,2026-01-14,2026-01-14,新潟紙器工業株式会社,,株式会社,新潟県,加茂市,柳町２丁目２番２１号,,15,209,9591386,,,,,,,2026-01-14,1,,,,,ニイガタシキコウギョウ,0
932,4110001039849,新規,0,2026-01-14,2026-01-14,株式会社いちべい,,株式会社,新潟県,燕市,富永１８０番地,,15,213,9590211,,,,,,,2026-01-14,1,,,,,イチベイ,0
946,4120001283223,新規,0,2026-01-14,2026-01-14,ＩＮＦＩＮＩＴＹ株式会社,,株式会社,大阪府,大阪市住之江区,粉浜１丁目１１番５号,,27,125,5590001,,,,,,,2026-01-14,1,,,,,インフィニティ,0
947,4120001283248,新規,0,2026-01-14,2026-01-14,株式会社林機械重量,,株式会社,大阪府,大阪市住之江区,北島３丁目１０番２６号,,27,125,5590014,,,,,,,2026-01-14,1,,,,,ハヤシキカイジュウリョウ,0
948,4120001283306,新規,0,2026-01-14,2026-01-14,味吉園株式会社,,株式会社,大阪府,寝屋川市,楠根南町１３番１０号,,27,215,5720811,,,,,,,2026-01-14,1,,,,,アジヨシエン,0
951,4120003031613,新規,0,2026-01-14,2026-01-14,合同会社Ｓｔｕｄｉｏ　ＨＯＬＯ１,,合同会社,大阪府,大阪市淀川区,十三本町３丁目４－２４パルハセトン十三７０５,,27,123,5320024,,,,,,,2026-01-14,1,,,,,スタジオホロワン,0
952,4120003031646,新規,0,2026-01-14,2026-01-14,ＦｒｏｍＩｎｓｉｇｈｔ合同会社,,合同会社,大阪府,大阪市都島区,友渕町３丁目６番１８－２０１号,,27,102,5340016,,,,,,,2026-01-14,1,,,,,フロムインサイト,0
959,4120901052082,新規,0,2026-01-14,2026-01-14,株式会社藤野,,株式会社,大阪府,吹田市,千里丘上３１番２６号,,27,205,5650811,,,,,,,2026-01-14,1,,,,,フジノ,0
960,4120901052099,新規,0,2026-01-14,2026-01-14,株式会社Ｋ‐ＬＩＮＥ,,株式会社,大阪府,高槻市,堤町４－９－７,,27,207,5690047,,,,,,,2026-01-14,1,,,,,ケーライン,0
961,4122001040059,新規,0,2026-01-14,2026-01-14,株式会社ＭＩＮＤ,,株式会社,大阪府,東大阪市,稲田上町１丁目１３番１８号,,27,227,5770002,,,,,,,2026-01-14,1,,,,,マインド,0
962,4122001040109,新規,0,2026-01-14,2026-01-14,株式会社ＫＡＢＵＫＩ,,株式会社,大阪府,東大阪市,西堤本通西３丁目３番８号,,27,227,5770046,,,,,,,2026-01-14,1,,,,,カブキ,0
968,4130001081345,新規,0,2026-01-14,2026-01-14,株式会社朔,,株式会社,京都府,京都市上京区,下立売通堀川西入西橋詰町２８２番地,,26,102,6028138,,,,,,,2026-01-14,1,,,,,サク,0
969,4130001081378,新規,0,2026-01-14,2026-01-14,フワコ株式会社,,株式会社,京都府,京都市伏見区,深草稲荷御前町８１番地４,,26,109,6120881,,,,,,,2026-01-14,1,,,,,フワコ,0
970,4130003011028,新規,0,2026-01-14,2026-01-14,スタートアップリンク合同会社,,合同会社,京都府,京都市下京区,東洞院通綾小路下る扇酒屋町２８５番地１オークリッチ飛鳥４０２号,,26,106,6008095,,,,,,,2026-01-14,1,,,,,スタートアップリンク,0
971,4130003011085,新規,0,2026-01-14,2026-01-14,合同会社ＷＥＢＳＯＬ,,合同会社,京都府,八幡市,橋本堂ケ原７７番地の３８,,26,210,6148344,,,,,,,2026-01-14,1,,,,,ウェブソル,0
975,4140001141172,新規,0,2026-01-14,2026-01-14,株式会社Ｂｅ　Ｉｒｉｓ,,株式会社,兵庫県,西宮市,甲風園１丁目４番１６号カームプラザ地下１階,,28,204,6620832,,,,,,,2026-01-14,1,,,,,ビーアイリス,0
976,4140001141313,新規,0,2026-01-14,2026-01-14,株式会社Ａｒｃｅ,,株式会社,兵庫県,西宮市,神楽町５番２８号,,28,204,6620977,,,,,,,2026-01-14,1,,,,,アルセ,0
977,4140001141370,新規,0,2026-01-14,2026-01-14,株式会社ＭＯＮＡＤ,,株式会社,兵庫県,神戸市中央区,磯辺通１丁目１番１８号カサベラ国際プラザビル７０７号室,,28,110,6510084,,,,,,,2026-01-14,1,,,,,モナド,0
982,4170001018946,新規,0,2026-01-14,2026-01-14,ＨＡＤ株式会社,,株式会社,和歌山県,和歌山市,有本２３０－９,,30,201,6408390,,,,,,,2026-01-14,1,,,,,エイチエーディー,0
991,4180001170242,新規,0,2026-01-14,2026-01-14,株式会社光パートナー不動産,,株式会社,愛知県,名古屋市昭和区,広路町字石坂８０番地の１８,,23,107,4660834,,,,,,,2026-01-14,1,,,,,ヒカリパートナーフドウサン,0
992,4180003029602,新規,0,2026-01-14,2026-01-14,合同会社ＭｉＺＥＲＯ,,合同会社,愛知県,名古屋市千種区,池下１丁目３番地１号,,23,101,4640067,,,,,,,2026-01-14,1,,,,,ミゼロ,0
993,4180003029627,新規,0,2026-01-14,2026-01-14,Ｎ‐Ｎｅｘｕｓ合同会社,,合同会社,愛知県,名古屋市昭和区,南山町１３番地の１５,,23,107,4660835,,,,,,,2026-01-14,1,,,,,エヌネクサス,0
994,4180005021391,新規,0,2026-01-14,2026-01-14,一般社団法人ハピ声スマイル研究室,,その他の設立登記法人,愛知県,名古屋市守山区,天子田１丁目１２０１番地の１３,,23,113,4630037,,,,,,,2026-01-14,1,,,,,ハピゴエスマイルケンキュウシツ,0
1000,4180303006870,新規,0,2026-01-14,2026-01-14,合同会社鈴木商店,,合同会社,愛知県,豊川市,篠束町若宮５５―１,,23,207,4410102,,,,,,,2026-01-14,1,,,,,スズキショウテン,0
1008,4230001021241,新規,0,2026-01-14,2026-01-14,株式会社ＳＴＡＮＤＦＩＥＬＤ,,株式会社,富山県,富山市,上飯野１５番地３,,16,201,9300827,,,,,,,2026-01-14,1,,,,,スタンドフィールド,0
1028,4290001112704,新規,0,2026-01-14,2026-01-14,株式会社Ｌｕｍｉｖｅｒａ,,株式会社,福岡県,福岡市東区,香椎照葉５丁目１番１２,,40,131,8130017,,,,,,,2026-01-14,1,,,,,ルミヴェラ,0
1034,4320001021538,新規,0,2026-01-14,2026-01-14,株式会社ダイナチェア,,株式会社,大分県,別府市,荘園町５５番１２号,,44,202,8740838,,,,,,,2026-01-14,1,,,,,ダイナチェア,0
1041,4340001027896,新規,0,2026-01-14,2026-01-14,天成建設株式会社,,株式会社,鹿児島県,鹿児島市,吉野町５０８６番地イースト鹿児島２０６号,,46,201,8920871,,,,,,,2026-01-14,1,,,,,テンセイケンセツ,0
1044,4340005009932,新規,0,2026-01-14,2026-01-14,一般社団法人サステナブルソリューションズラボラトリー,,その他の設立登記法人,鹿児島県,薩摩川内市,隈之城町２０８４番地５,,46,215,8950041,,,,,,,2026-01-14,1,,,,,サステナブルソリューションズラボラトリー,0
1045,4350003005115,新規,0,2026-01-14,2026-01-14,合同会社さぼてん,,合同会社,宮崎県,宮崎市,田野町甲２７１０番地３,,45,201,8891701,,,,,,,2026-01-14,1,,,,,サボテン,0
1054,4380005013055,新規,0,2026-01-14,2026-01-14,いわき地区維持管理協同組合,,その他の設立登記法人,福島県,いわき市,平字童子町４番地の１８,,07,204,9708026,,,,,,,2026-01-14,1,,,,,イワキチクイジカンリ,0
1057,4430001095967,新規,0,2026-01-14,2026-01-14,株式会社ブルーム,,株式会社,北海道,札幌市清田区,平岡公園東７丁目５番８号,,01,110,0040882,,,,,,,2026-01-14,1,,,,,ブルーム,0
1058,4430001096024,新規,0,2026-01-14,2026-01-14,アイアール運送株式会社,,株式会社,北海道,札幌市清田区,北野五条２丁目６番５５号,,01,110,0040865,,,,,,,2026-01-14,1,,,,,アイアールウンソウ,0
1059,4430001096049,新規,0,2026-01-14,2026-01-14,株式会社ＳＤメディカルサポート,,株式会社,北海道,札幌市北区,新琴似六条５丁目７番１４号,,01,102,0010906,,,,,,,2026-01-14,1,,,,,エスディーメディカルサポート,0
1060,4430001096057,新規,0,2026-01-14,2026-01-14,株式会社オルザナッツ,,株式会社,北海道,札幌市中央区,南二条西８丁目１番地３ベルネージュ札幌２０５号,,01,101,0600062,,,,,,,2026-01-14,1,,,,,オルザナッツ,0
1061,4430003018488,新規,0,2026-01-14,2026-01-14,群狼合同会社,,合同会社,北海道,札幌市白石区,東札幌三条５丁目１番２６号,,01,104,0030003,,,,,,,2026-01-14,1,,,,,グンロウ,0
1063,4440001009744,新規,0,2026-01-14,2026-01-14,株式会社Ｌｉｎｋｓ　Ｌａｂ,,株式会社,北海道,函館市,昭和町２２番地１０８,,01,202,0410823,,,,,,,2026-01-14,1,,,,,,0
1066,4490003002081,新規,0,2026-01-14,2026-01-14,合同会社はりまやアンサンブル,,合同会社,高知県,高知市,はりまや町１丁目９番１０号,,39,201,7800822,,,,,,,2026-01-14,1,,,,,ハリマヤアンサンブル,0
1071,5010001261346,新規,0,2026-01-14,2026-01-14,株式会社Ｔｈｅ　Ｋｕｒａ,,株式会社,東京都,千代田区,内神田１丁目３番６号クラッシィハウス大手町ザ・スイート４０３号,,13,101,1010047,,,,,,,2026-01-14,1,,,,,ザクラ,0
1072,5010001261874,新規,0,2026-01-14,2026-01-14,株式会社ＹａｎｄＭ,,株式会社,東京都,中央区,入船１丁目７番９号金子ビル１階,,13,102,1040042,,,,,,,2026-01-14,1,,,,,ワイアンドエム,0
1073,5010003049905,新規,0,2026-01-14,2026-01-14,合同会社珠数七,,合同会社,東京都,中央区,八丁堀３丁目１５番６－１１０３号,,13,102,1040032,,,,,,,2026-01-14,1,,,,,ズズシチ,0
1074,5010003050020,新規,0,2026-01-14,2026-01-14,２ＹＡＭＡ合同会社,,合同会社,東京都,千代田区,神田和泉町１番地６－１６ヤマトビル４０５,,13,101,1010024,,,,,,,2026-01-14,1,,,,,ニーヤマ,0
1082,5010401195524,新規,0,2026-01-14,2026-01-14,株式会社薬丸堂,,株式会社,東京都,港区,芝４丁目１６－２カテリーナ三田イースト５０２,,13,103,1080014,,,,,,,2026-01-14,1,,,,,ヤクマルドウ,0
1083,5010401195656,新規,0,2026-01-14,2026-01-14,Ｒｅａｄｙ　Ｓｅｒｖｅｒ　Ｊａｐａｎ株式会社,,株式会社,東京都,港区,元麻布３丁目１番６号,,13,103,1060046,,,,,,,2026-01-14,1,,,,,レディサーバージャパン,0
1084,5010401195689,新規,0,2026-01-14,2026-01-14,株式会社Ｓ＆Ｎ,,株式会社,東京都,港区,海岸３丁目２０－２０－２１０２ヨコソーレインボータワー,,13,103,1080022,,,,,,,2026-01-14,1,,,,,エスアンドエヌ,0
1085,5010401195747,新規,0,2026-01-14,2026-01-14,株式会社こづち,,株式会社,東京都,港区,六本木１丁目４番５号アークヒルズサウスタワー１６階,,13,103,1060032,,,,,,,2026-01-14,1,,,,,コヅチ,0
1087,5010403036957,新規,0,2026-01-14,2026-01-14,ＧＬ発電合同会社,,合同会社,東京都,港区,東新橋１丁目５番２号汐留シティセンター８階,,13,103,1050021,,,,,,,2026-01-14,1,,,,,ジーエルハツデン,0
1088,5010403037022,新規,0,2026-01-14,2026-01-14,合同会社ＣＺＩＲＡＢＯ,,合同会社,東京都,港区,南青山３丁目１番３６号青山丸竹ビル６Ｆ,,13,103,1070062,,,,,,,2026-01-14,1,,,,,クジラボ,0
1089,5010403037047,新規,0,2026-01-14,2026-01-14,ＥＧＨ　Ｏｓａｋａ　Ｈｏｔｅｌ　Ｍａｎａｇｅｍｅｎｔ合同会社,,合同会社,東京都,港区,元赤坂１丁目１番７－１２０９号株式会社赤坂国際会計内,,13,103,1070051,,,,,,,2026-01-14,1,,,,,イージーエイチオオサカホテルマネジメント,0
1092,5010405025207,新規,0,2026-01-14,2026-01-14,ＧＴＯ１特定目的会社,,その他の設立登記法人,東京都,港区,虎ノ門３丁目２２番１０－２０１号,,13,103,1050001,,,,,,,2026-01-14,1,,,,,ジーティーオーワン,0
1093,5010501055289,新規,0,2026-01-14,2026-01-14,株式会社ｋａｗａ１,,株式会社,東京都,台東区,根岸４丁目４番１０号,,13,106,1100003,,,,,,,2026-01-14,1,,,,,,0
1094,5010503008138,新規,0,2026-01-14,2026-01-14,良丸グローバル合同会社,,合同会社,東京都,台東区,上野１丁目１７－６広小路ビル８Ｆ－Ｂ,,13,106,1100005,,,,,,,2026-01-14,1,,,,,ヨシマルグローバル,0
1096,5010603012015,新規,0,2026-01-14,2026-01-14,合同会社ＦＲＡＴ,,合同会社,東京都,墨田区,向島４丁目１―３パレスフィールド向島１０１,,13,107,1310033,,,,,,,2026-01-14,1,,,,,フラット,0
1100,5010801036963,新規,0,2026-01-14,2026-01-14,オオクマ観光株式会社,,株式会社,東京都,大田区,大森中２丁目７番６号,,13,111,1430014,,,,,,,2026-01-14,1,,,,,オオクマカンコウ,0
1103,5010901058759,新規,0,2026-01-14,2026-01-14,株式会社ＱｕＢｉｔｚ,,株式会社,東京都,世田谷区,宮坂１丁目１９番１２号経堂シャトレヨシオカ２０１,,13,112,1560051,,,,,,,2026-01-14,1,,,,,キュビッツ,0
1110,5011001174752,新規,0,2026-01-14,2026-01-14,栗谷川アセットマネージメント株式会社,,株式会社,東京都,目黒区,下目黒２丁目９番２号,,13,110,1530064,,,,,,,2026-01-14,1,,,,,クリヤガワアセットマネージメント,0
1111,5011001174769,新規,0,2026-01-14,2026-01-14,株式会社ＫＩＢＩＹＡ,,株式会社,東京都,渋谷区,神泉町１０番１０号,,13,113,1500045,,,,,,,2026-01-14,1,,,,,キビヤ,0
1112,5011001174785,新規,0,2026-01-14,2026-01-14,株式会社ＶｏｉｃｅＬｅｔｔｅｒ,,株式会社,東京都,渋谷区,道玄坂１丁目１０番８号渋谷道玄坂東急ビル２Ｆ－Ｃ,,13,113,1500043,,,,,,,2026-01-14,1,,,,,ボイスレター,0
1113,5011001174810,新規,0,2026-01-14,2026-01-14,株式会社Ｐｅｒｃｅｐｔｉｏｎ　Ｑｕａｎｔｕｍ,,株式会社,東京都,渋谷区,恵比寿南３丁目１番２６号,,13,113,1500022,,,,,,,2026-01-14,1,,,,,パーセプションクオンタム,0
1114,5011001174819,新規,0,2026-01-14,2026-01-14,株式会社ＴＲＵＥ　ＰＥＡＲＬ,,株式会社,東京都,渋谷区,恵比寿西２丁目８番４号ＥＸ恵比寿西ビル５階,,13,113,1500021,,,,,,,2026-01-14,1,,,,,トゥルーパール,0
1115,5011001174827,新規,0,2026-01-14,2026-01-14,株式会社ａｉｌｅｓ,,株式会社,東京都,渋谷区,代々木２丁目５番１号羽田ビル４０７,,13,113,1510053,,,,,,,2026-01-14,1,,,,,エル,0
1116,5011001174959,新規,0,2026-01-14,2026-01-14,株式会社ＴＥＬＭＡ,,株式会社,東京都,渋谷区,神宮前３丁目２８番１号,,13,113,1500001,,,,,,,2026-01-14,1,,,,,テルマ,0
1121,5011403004994,新規,0,2026-01-14,2026-01-14,合同会社ＫＩＯＲＩＨＡ,,合同会社,東京都,板橋区,氷川町２５番９－３０８号,,13,119,1730013,,,,,,,2026-01-14,1,,,,,キオリハ,0
1122,5011601029315,新規,0,2026-01-14,2026-01-14,株式会社ぞのタウン,,株式会社,東京都,練馬区,小竹町２丁目３７番１１－１０７号,,13,120,1760004,,,,,,,2026-01-14,1,,,,,ゾノタウン,0
1123,5011603004976,新規,0,2026-01-14,2026-01-14,合同会社Ｍｉ　Ｃａｓａ,,合同会社,東京都,練馬区,中村１丁目１番１４－２０６号,,13,120,1760024,,,,,,,2026-01-14,1,,,,,ミカサ,0
1129,5012701019263,新規,0,2026-01-14,2026-01-14,株式会社ＢＡＢＹ　ＳＴＥＰＳ,,株式会社,東京都,西東京市,向台町１丁目１６番２０号ふじマンション２Ｆ,,13,229,1880013,,,,,,,2026-01-14,1,,,,,ベイビーステップス,0
1130,5012701019271,新規,0,2026-01-14,2026-01-14,株式会社アシスト,,株式会社,東京都,小平市,美園町３丁目９番１９号,,13,211,1870041,,,,,,,2026-01-14,1,,,,,,0
1133,5013301055574,新規,0,2026-01-14,2026-01-14,株式会社はなはす,,株式会社,東京都,豊島区,西池袋１丁目２１番２号ハイブリッヂ西池袋３Ｆ,,13,116,1710021,,,,,,,2026-01-14,1,,,,,ハナハス,0
1141,5020001166560,新規,0,2026-01-14,2026-01-14,横浜カントリークラブ株式会社,,株式会社,神奈川県,横浜市保土ケ谷区,今井町１０２５番地,,14,106,2400035,,,,,,,2026-01-14,1,,,,,ヨコハマカントリークラブ,0
1142,5020001166635,新規,0,2026-01-14,2026-01-14,株式会社Ｆｏｒｇｅ　Ｏｎｅ,,株式会社,神奈川県,川崎市幸区,小向西町１丁目１５番地３ＥＳＰＯＩＲ２０１,,14,132,2120004,,,,,,,2026-01-14,1,,,,,フォージワン,0
1143,5020001166651,新規,0,2026-01-14,2026-01-14,株式会社ムーディーズ,,株式会社,神奈川県,横浜市中区,蓬莱町２丁目３－６関内蓬莱ビル１Ｆ,,14,104,2310048,,,,,,,2026-01-14,1,,,,,ムーディーズ,0
1154,5030001170405,新規,0,2026-01-14,2026-01-14,株式会社サンリツ,,株式会社,埼玉県,戸田市,南町１２番１０号,,11,224,3350025,,,,,,,2026-01-14,1,,,,,サンリツ,0
1155,5030001170520,新規,0,2026-01-14,2026-01-14,株式会社フタバユーテック,,株式会社,埼玉県,さいたま市北区,宮原町４丁目９２番地２１,,11,102,3310812,,,,,,,2026-01-14,1,,,,,フタバユーテック,0
1160,5030005022379,新規,0,2026-01-14,2026-01-14,一般社団法人彩の国ポジティブスポーツ,,その他の設立登記法人,埼玉県,ふじみ野市,亀久保１２３９番地１６、２階,,11,245,3560051,,,,,,,2026-01-14,1,,,,,サイノクニポジティブスポーツ,0
1161,5040001142056,新規,0,2026-01-14,2026-01-14,ライト電設株式会社,,株式会社,千葉県,市原市,島野１０７６番地２８,,12,219,2900034,,,,,,,2026-01-14,1,,,,,ライトデンセツ,0
1162,5040001142064,新規,0,2026-01-14,2026-01-14,株式会社アイボリー商事,,株式会社,千葉県,千葉市若葉区,加曽利町１７５１番地３,,12,104,2640017,,,,,,,2026-01-14,1,,,,,アイボリーショウジ,0
1163,5040001142072,新規,0,2026-01-14,2026-01-14,株式会社Ｍｉｒｅｓｔｏ,,株式会社,千葉県,市川市,市川２丁目７番１４－３０２号（ピーニャ市川）,,12,203,2720034,,,,,,,2026-01-14,1,,,,,ミレスト,0
1164,5040001142089,新規,0,2026-01-14,2026-01-14,株式会社Ａｔｈｅｎａ,,株式会社,千葉県,千葉市稲毛区,宮野木町１３１６番地３,,12,103,2630054,,,,,,,2026-01-14,1,,,,,アテナ,0
1165,5040003029268,新規,0,2026-01-14,2026-01-14,合同会社Ｍ‐ｓｔｙｌｅ,,合同会社,千葉県,千葉市若葉区,若松台３丁目１番４号,,12,104,2640027,,,,,,,2026-01-14,1,,,,,エムスタイル,0
1166,5040003029326,新規,0,2026-01-14,2026-01-14,合同会社あわ海月堂,,合同会社,千葉県,安房郡鋸南町,吉浜５１７の１,,12,463,2991908,,,,,,,2026-01-14,1,,,,,アワクラゲドウ,0
1174,5070001043722,新規,0,2026-01-14,2026-01-14,株式会社Ｒｕｒａ　ｒｅｌａｔｉｏｎ,,株式会社,群馬県,高崎市,正観寺町５６６番地９,,10,202,3700008,,,,,,,2026-01-14,1,,,,,ルーラリレーション,0
1178,5080101026023,新規,0,2026-01-14,2026-01-14,Ｒシステム株式会社,,株式会社,静岡県,三島市,谷田２９８番地の１,,22,206,4110801,,,,,,,2026-01-14,1,,,,,アールシステム,0
1179,5080105006558,新規,0,2026-01-14,2026-01-14,一般社団法人ＶＡＴＩＣ,,その他の設立登記法人,静岡県,沼津市,下香貫島郷２７６１番地の１,,22,203,4100822,,,,,,,2026-01-14,1,,,,,バティック,0
1196,5110003006029,新規,0,2026-01-14,2026-01-14,さとうファーム合同会社,,合同会社,新潟県,燕市,吉田西太田１１４８番地の１,,15,213,9590221,,,,,,,2026-01-14,1,,,,,サトウファーム,0
1197,5110003006037,新規,0,2026-01-14,2026-01-14,合同会社Ｔ．Ａ．Ｆ,,合同会社,新潟県,新潟市北区,木崎１１３８番地８,,15,101,9503304,,,,,,,2026-01-14,1,,,,,タフ,0
1206,5120001283239,新規,0,2026-01-14,2026-01-14,株式会社Ｋ２ｎｅｘｔ,,株式会社,大阪府,大阪市西淀川区,福町３丁目４番５５号グリーンロード公園ヴィラ７１０号室,,27,113,5550034,,,,,,,2026-01-14,1,,,,,ケイツーネクスト,0
1207,5120001283247,新規,0,2026-01-14,2026-01-14,株式会社Ｃｉｅｌｒｏ,,株式会社,大阪府,大阪市西成区,松１丁目５番３１号,,27,122,5570034,,,,,,,2026-01-14,1,,,,,シェイロ,0
1208,5120001283338,新規,0,2026-01-14,2026-01-14,株式会社Ｑｆｌｕｘ,,株式会社,大阪府,大阪市中央区,南船場３丁目２番２２号おおきに南船場ビル２０５,,27,128,5420081,,,,,,,2026-01-14,1,,,,,キューフラックス,0
1209,5120001283370,新規,0,2026-01-14,2026-01-14,株式会社饗設屋,,株式会社,大阪府,大阪市西成区,千本中２丁目３－１９竹之内ビル３階,,27,122,5570054,,,,,,,2026-01-14,1,,,,,キョウセツヤ,0
1210,5120001283387,新規,0,2026-01-14,2026-01-14,株式会社Ｇ‐Ｐｌａｎｔ,,株式会社,大阪府,大阪市大正区,平尾４丁目７番１９号,,27,108,5510012,,,,,,,2026-01-14,1,,,,,ジープラント,0
1216,5120003031653,新規,0,2026-01-14,2026-01-14,合同会社Ｅｖｅｒ　Ｓｈｉｆｔ,,合同会社,大阪府,大阪市東淀川区,東淡路３丁目３番４６号リセスコートＩ１０１号,00142149,27,114,5330023,,,,,,,2026-01-14,1,,,,,エバーシフト,0
1217,5120003031661,新規,0,2026-01-14,2026-01-14,合同会社ｙｏｕ＆ｍｅ,,合同会社,大阪府,大阪市浪速区,稲荷１丁目１２番８－５０１号,,27,111,5560023,,,,,,,2026-01-14,1,,,,,ユメ,0
1225,5120103006935,新規,0,2026-01-14,2026-01-14,合同会社ＪＪ　ｃｏｍｐａｎｙ,,合同会社,大阪府,和泉市,はつが野１丁目４２番１７号,,27,219,5941106,,,,,,,2026-01-14,1,,,,,ジェイジェイカンパニー,0
1227,5120901052049,新規,0,2026-01-14,2026-01-14,株式会社４Ｋ,,株式会社,大阪府,豊中市,庄内西町サンパティオ３Ｆ,,27,203,5600000,,,,,,,2026-01-14,1,,,,,フォーケイ,0
1229,5122001040058,新規,0,2026-01-14,2026-01-14,株式会社わたあめ,,株式会社,大阪府,東大阪市,出雲井本町８－１８枚岡駅前ビル地下１階,,27,227,5798034,,,,,,,2026-01-14,1,,,,,ワタアメ,0
1230,5122001040066,新規,0,2026-01-14,2026-01-14,つえだ外構設備株式会社,,株式会社,大阪府,八尾市,福栄町１丁目２番地の２,,27,212,5810844,,,,,,,2026-01-14,1,,,,,ツエダガイコウセツビ,0
1239,5130001081393,新規,0,2026-01-14,2026-01-14,株式会社たすき,,株式会社,京都府,京都市中京区,御池通東洞院東入笹屋町４３６永和御池ビル６０６号,,26,104,6048187,,,,,,,2026-01-14,1,,,,,タスキ,0
1240,5130005017559,新規,0,2026-01-14,2026-01-14,医療法人栄産会,,その他の設立登記法人,京都府,京都市伏見区,醍醐高畑町３０番地１５,,26,109,6011375,,,,,,,2026-01-14,1,,,,,エイサンカイ,0
1249,5140001141329,新規,0,2026-01-14,2026-01-14,株式会社ＯＦＡコンサルティング,,株式会社,兵庫県,神戸市灘区,篠原南町７丁目６－１－９０２,,28,102,6570059,,,,,,,2026-01-14,1,,,,,オーエフエーコンサルティング,0
1252,5140003023062,新規,0,2026-01-14,2026-01-14,合同会社アスリートチャージ,,合同会社,兵庫県,姫路市,砥堀２００番地２,,28,201,6700802,,,,,,,2026-01-14,1,,,,,アスリートチャージ,0
1255,5150001028657,新規,0,2026-01-14,2026-01-14,株式会社ＦＵＰＡＳＴ,,株式会社,奈良県,吉野郡大淀町,大字越部１３６番地の１,,29,442,6380803,,,,,,,2026-01-14,1,,,,,フューパスト,0
1273,5180001170167,新規,0,2026-01-14,2026-01-14,株式会社コレオニクス,,株式会社,愛知県,一宮市,今伊勢町宮後字郷中茶原５番地６,,23,203,4910057,,,,,,,2026-01-14,1,,,,,コレオニクス,0
1274,5180001170183,新規,0,2026-01-14,2026-01-14,株式会社サカテック,,株式会社,愛知県,瀬戸市,共栄通２丁目８３番地の１８,,23,204,4890809,,,,,,,2026-01-14,1,,,,,サカテック,0
1275,5180001170225,新規,0,2026-01-14,2026-01-14,ＤＰＴモータース株式会社,,株式会社,愛知県,名古屋市南区,天白町２丁目６番地の１２６,,23,112,4570803,,,,,,,2026-01-14,1,,,,,ディーピーティーモータース,0
1276,5180001170233,新規,0,2026-01-14,2026-01-14,株式会社ＭＬＯ,,株式会社,愛知県,津島市,今市場町２丁目１６番地アプローチ２Ｆ,,23,208,4960803,,,,,,,2026-01-14,1,,,,,エムエルオー,0
1277,5180001170266,新規,0,2026-01-14,2026-01-14,ＲＡＰＰＯＲＴ‐ｂｅａｕｔｙ株式会社,,株式会社,愛知県,名古屋市中区,丸の内３丁目１５番２１号,,23,106,4600002,,,,,,,2026-01-14,1,,,,,ラポールビューティー,0
1282,5180003029601,新規,0,2026-01-14,2026-01-14,合同会社ＤｏｔＰｙＬａｂｏ,,合同会社,愛知県,名古屋市中村区,名駅３丁目４番１０号アルティメイト名駅１ｓｔ２階,,23,105,4500002,,,,,,,2026-01-14,1,,,,,ドットパイラボ,0
1283,5180003029618,新規,0,2026-01-14,2026-01-14,合同会社希粋,,合同会社,愛知県,海部郡大治町,大字長牧字浦畑８０番地１,,23,424,4901131,,,,,,,2026-01-14,1,,,,,キスイ,0
1284,5180005021382,新規,0,2026-01-14,2026-01-14,一般社団法人日本こどものマネー教育推進協会,,その他の設立登記法人,愛知県,名古屋市昭和区,川名本町６丁目２０番地の４,,23,107,4660855,,,,,,,2026-01-14,1,,,,,コドモノマネーキョウイクスイシンキョウカイ,0
1286,5180301040598,新規,0,2026-01-14,2026-01-14,ＪＳ　ＣＡＲＴＳ株式会社,,株式会社,愛知県,豊橋市,浪ノ上町６番地２ハイステージＴｏｄａ・Ｃ棟２０１号室,,23,201,4400003,,,,,,,2026-01-14,1,,,,,ジェイエスカーツ,0
1287,5180301040607,新規,0,2026-01-14,2026-01-14,シュウト株式会社,,株式会社,愛知県,碧南市,作塚町１丁目６３番地,00142170,23,209,4470874,,,,,,,2026-01-14,1,,,,,シュウト,0
1289,5190001032820,新規,0,2026-01-14,2026-01-14,株式会社かるん三重,,株式会社,三重県,鈴鹿市,算所２丁目５番１号,,24,207,5130806,,,,,,,2026-01-14,1,,,,,カルンミエ,0
1296,5200001044599,新規,0,2026-01-14,2026-01-14,株式会社ＫＲＣ,,株式会社,岐阜県,岐阜市,柳津町上佐波西３丁目１１９番地,,21,201,5016121,,,,,,,2026-01-14,1,,,,,ケーアールシー,0
1303,5220005009035,新規,0,2026-01-14,2026-01-14,行政書士法人畠グロースパートナーズ,,その他の設立登記法人,石川県,金沢市,疋田１丁目３３番地,,17,201,9200003,,,,,,,2026-01-14,1,,,,,ハタケグロースパートナーズ,0
1310,5240001066045,新規,0,2026-01-14,2026-01-14,株式会社勇建,,株式会社,広島県,広島市安佐北区,三入南１丁目１１番１１号,,34,106,7310213,,,,,,,2026-01-14,1,,,,,ユウケン,0
1320,5290001112653,新規,0,2026-01-14,2026-01-14,株式会社美心,,株式会社,福岡県,福岡市早良区,百道１丁目２－２２－２０２,,40,137,8140006,,,,,,,2026-01-14,1,,,,,ミココロ,0
1321,5290001112703,新規,0,2026-01-14,2026-01-14,さくら株式会社,,株式会社,福岡県,八女市,蒲原１２９２－１レスペートＡ２０１,,40,210,8340064,,,,,,,2026-01-14,1,,,,,サクラ,0
1336,5330001033853,新規,0,2026-01-14,2026-01-14,株式会社Ｍａｋｋｓ　Ｄｅｓｉｇｎ,,株式会社,熊本県,上益城郡益城町,大字惣領１０７６リバーサイドハイツ２０６号,,43,443,8612233,,,,,,,2026-01-14,1,,,,,マックスデザイン,0
1338,5330005011013,新規,0,2026-01-14,2026-01-14,税理士法人ＥＳＫ熊本,,その他の設立登記法人,熊本県,熊本市中央区,紺屋阿弥陀寺町１０番地千里殖産ビル２Ｂ,,43,101,8600033,,,,,,,2026-01-14,1,,,,,イーエスケイクマモト,0
1339,5340001027904,新規,0,2026-01-14,2026-01-14,株式会社ホップステップジャンプ,,株式会社,鹿児島県,鹿児島市,山田町１４６２番地６,,46,201,8910104,,,,,,,2026-01-14,1,,,,,ホップステップジャンプ,0
1340,5350001019891,新規,0,2026-01-14,2026-01-14,株式会社Ｖｅｒｉｔａｓ,,株式会社,宮崎県,宮崎市,下北方町源野５６３４番地２,,45,201,8800035,,,,,,,2026-01-14,1,,,,,ベリタス,0
1354,5430001095999,新規,0,2026-01-14,2026-01-14,株式会社ＭＴ‐ＬＩＮＥ,,株式会社,北海道,札幌市南区,南沢六条４丁目７－１４,,01,106,0050826,,,,,,,2026-01-14,1,,,,,エムティーライン,0
1359,5430005015383,新規,0,2026-01-14,2026-01-14,ＴＨＥ行政書士法人,,その他の設立登記法人,北海道,札幌市中央区,南一条西１１丁目３２７－６,,01,101,0600061,,,,,,,2026-01-14,1,,,,,ティーエイチイー,0
1360,5440001009743,新規,0,2026-01-14,2026-01-14,株式会社今野工業,,株式会社,北海道,函館市,時任町２５番１６号,,01,202,0400012,,,,,,,2026-01-14,1,,,,,コンノコウギョウ,0
1361,5440003001748,新規,0,2026-01-14,2026-01-14,合同会社尾山工務店,,合同会社,北海道,檜山郡厚沢部町,赤沼町２１３番地７,,01,363,0431111,,,,,,,2026-01-14,1,,,,,オヤマコウムテン,0
1367,5490003002080,新規,0,2026-01-14,2026-01-14,合同会社ルリエ,,合同会社,高知県,南国市,伊達野６６番地３,,39,204,7830008,,,,,,,2026-01-14,1,,,,,ルリエ,0
1379,6010003050011,新規,0,2026-01-14,2026-01-14,合同会社サポート４９号,,合同会社,東京都,千代田区,丸の内１丁目４番１号東京共同会計事務所内,,13,101,1000005,,,,,,,2026-01-14,1,,,,,サポートヨンジュウキュウゴウ,0
1380,6010005041198,新規,0,2026-01-14,2026-01-14,一般財団法人了徳寺医学研究財団,00142160,その他の設立登記法人,東京都,中央区,銀座４丁目２番１２号,,13,102,1040061,,,,,,,2026-01-14,1,,,,,リョウトクジイガクケンキュウザイダン,0
1381,6010005041215,新規,0,2026-01-14,2026-01-14,一般社団法人５１,,その他の設立登記法人,東京都,中央区,月島２丁目１５番１３号,,13,102,1040052,,,,,,,2026-01-14,1,,,,,フィフティーワン,0
1390,6010401195705,新規,0,2026-01-14,2026-01-14,株式会社Ｒｅｃｏｖｅｒｅｎｃｅ,,株式会社,東京都,港区,北青山１丁目３番１号アールキューブ青山３階,,13,103,1070061,,,,,,,2026-01-14,1,,,,,リカバレンス,0
1391,6010401195721,新規,0,2026-01-14,2026-01-14,ＭＯＲＦ株式会社,,株式会社,東京都,港区,南青山３丁目１－３６青山丸竹ビル６Ｆ,,13,103,1070062,,,,,,,2026-01-14,1,,,,,モーフ,0
1392,6010403036907,新規,0,2026-01-14,2026-01-14,Ｉｎｆｅｒｎｏ　Ｄｒｉｖｅ合同会社,,合同会社,東京都,港区,南青山３丁目１番３６号青山丸竹ビル６Ｆ,,13,103,1070062,,,,,,,2026-01-14,1,,,,,インフェルノドライブ,0
1397,6010601068561,新規,0,2026-01-14,2026-01-14,株式会社ＭＵＭＪａｐａｎ,,株式会社,東京都,江東区,東陽５丁目２７番１０号岩波ビル２０２号,,13,108,1350016,,,,,,,2026-01-14,1,,,,,ムームジャパン,0
1404,6010803005684,新規,0,2026-01-14,2026-01-14,合同会社ケンモート,,合同会社,東京都,大田区,中央３丁目１番１号パレホームズ大森中央４０２,,13,111,1430024,,,,,,,2026-01-14,1,,,,,ケンモート,0
1406,6010901058782,新規,0,2026-01-14,2026-01-14,株式会社ＺＩＧ,,株式会社,東京都,世田谷区,北沢２丁目１１番１５号ミカン下北Ａ街区４Ｆ,,13,112,1550031,,,,,,,2026-01-14,1,,,,,ジグ,0
1411,6011001174735,新規,0,2026-01-14,2026-01-14,株式会社ＶＡＣＲＥ,,株式会社,東京都,渋谷区,渋谷３丁目１２番２号,,13,113,1500002,,,,,,,2026-01-14,1,,,,,ヴァーク,0
1412,6011001174751,新規,0,2026-01-14,2026-01-14,Ｌｙｍｉｎａｌ株式会社,,株式会社,東京都,渋谷区,渋谷２丁目２１番１号渋谷ヒカリエ３３Ｆ,,13,113,1500002,,,,,,,2026-01-14,1,,,,,リミナル,0
1413,6011001174768,新規,0,2026-01-14,2026-01-14,ＣＲＥＡＴＲＯＮ株式会社,,株式会社,東京都,目黒区,中町１丁目１８番１１号,,13,110,1530065,,,,,,,2026-01-14,1,,,,,クリエイトロン,0
1414,6011001174784,新規,0,2026-01-14,2026-01-14,株式会社ＫＡＳＨＩ‐ＨＡＣＨＩ,,株式会社,東京都,渋谷区,千駄ヶ谷５丁目１５番６号２階,,13,113,1510051,,,,,,,2026-01-14,1,,,,,カシハチ,0
1415,6011001174826,新規,0,2026-01-14,2026-01-14,株式会社Ｒｍ．,,株式会社,東京都,渋谷区,本町５丁目３７番１２号,,13,113,1510071,,,,,,,2026-01-14,1,,,,,アールエム,0
1416,6011001174917,新規,0,2026-01-14,2026-01-14,株式会社ＭＯＭＯ,,株式会社,東京都,渋谷区,神宮前４丁目２２番１１号,,13,113,1500001,,,,,,,2026-01-14,1,,,,,モモ,0
1421,6011101114608,新規,0,2026-01-14,2026-01-14,株式会社アートムホールディングス,,株式会社,東京都,新宿区,西新宿３丁目１番２号,,13,104,1600023,,,,,,,2026-01-14,1,,,,,アートムホールディングス,0
1422,6011101114624,新規,0,2026-01-14,2026-01-14,ＳＰＥＡＲ　ＨＥＡＤＳ株式会社,,株式会社,東京都,新宿区,西新宿６丁目５番１号新宿アイランドタワー２階,,13,104,1600023,,,,,,,2026-01-14,1,,,,,スピアーヘッズ,0
1425,6011201026892,新規,0,2026-01-14,2026-01-14,株式会社きゅーぶ,,株式会社,東京都,中野区,中野２丁目２４番１１号,,13,114,1640001,,,,,,,2026-01-14,1,,,,,キューブ,0
1426,6011301031173,新規,0,2026-01-14,2026-01-14,株式会社フィーリングッド,,株式会社,東京都,杉並区,阿佐谷北２丁目１２―２１エレガンス阿佐ヶ谷北５０１,,13,115,1660001,,,,,,,2026-01-14,1,,,,,フィーリングッド,0
1431,6011803007266,新規,0,2026-01-14,2026-01-14,合同会社Ｎｅｗ　ｃｒｅａｔｉｏｎ,,合同会社,東京都,足立区,千住曙町４１番－３－１４０２,,13,121,1200023,,,,,,,2026-01-14,1,,,,,ニュークリエーション,0
1434,6012301014671,新規,0,2026-01-14,2026-01-14,株式会社はなまる商事,,株式会社,東京都,町田市,常盤町３５８１番地１,,13,209,1940213,,,,,,,2026-01-14,1,,,,,ハナマルショウジ,0
1437,6012305002160,新規,0,2026-01-14,2026-01-14,特定非営利活動法人友と仲間,,その他の設立登記法人,東京都,町田市,木曽西３丁目２４番地１８,,13,209,1940037,,,,,,,2026-01-14,1,,,,,トモトナカマ,0
1442,6012701019270,新規,0,2026-01-14,2026-01-14,ＳＡＫＵＲＡ防災株式会社,,株式会社,東京都,西東京市,芝久保町５丁目１０番３４号,,13,229,1880014,,,,,,,2026-01-14,1,,,,,サクラボウサイ,0
1444,6012803003965,新規,0,2026-01-14,2026-01-14,合同会社たねのわ,,合同会社,東京都,国分寺市,本多５丁目２０番１１号－５０２,,13,214,1850011,,,,,,,2026-01-14,1,,,,,タネノワ,0
1447,6020001166477,新規,0,2026-01-14,2026-01-14,株式会社３７５ＣＡＲＥ２１,,株式会社,神奈川県,横浜市神奈川区,羽沢町１７６１番地９,,14,102,2210863,,,,,,,2026-01-14,1,,,,,サンナナゴケアーニジュウイチ,0
1448,6020001166601,新規,0,2026-01-14,2026-01-14,ＯｎｅＷａｙ株式会社,,株式会社,神奈川県,川崎市宮前区,宮前平２丁目９番地３マイキャッスル宮前平１０３,,14,136,2160006,,,,,,,2026-01-14,1,,,,,ワンウェイ,0
1449,6020001166634,新規,0,2026-01-14,2026-01-14,株式会社小林日貿,,株式会社,神奈川県,川崎市多摩区,菅仙谷３丁目１番２－１０４号,,14,135,2140006,,,,,,,2026-01-14,1,,,,,コバヤシニチボウ,0
1450,6020001166650,新規,0,2026-01-14,2026-01-14,株式会社むつみ園,,株式会社,神奈川県,川崎市多摩区,菅６丁目２番９号,,14,135,2140001,,,,,,,2026-01-14,1,,,,,ムツミエン,0
1452,6020003030128,新規,0,2026-01-14,2026-01-14,衡宸商事合同会社,,合同会社,神奈川県,横浜市鶴見区,鶴見中央２丁目１４－５鶴見マンション１０３,,14,101,2300051,,,,,,,2026-01-14,1,,,,,コウシンショウジ,0
1457,6021005013509,新規,0,2026-01-14,2026-01-14,一般社団法人Ｌｏｃａｌ　Ｃｈｕｒｃｈ,,その他の設立登記法人,神奈川県,逗子市,久木８丁目１０番８号,,14,208,2490001,,,,,,,2026-01-14,1,,,,,ローカルチャーチ,0
1469,6030001170437,新規,0,2026-01-14,2026-01-14,株式会社ＭＩＬＤ,,株式会社,埼玉県,所沢市,北中２丁目２９４番地の５８,,11,208,3591101,,,,,,,2026-01-14,1,,,,,マイルド,0
1470,6030001170536,新規,0,2026-01-14,2026-01-14,株式会社山三,,株式会社,埼玉県,ふじみ野市,滝１丁目１番地８,,11,245,3560012,,,,,,,2026-01-14,1,,,,,ヤマサン,0
1471,6030001170552,新規,0,2026-01-14,2026-01-14,株式会社７５,,株式会社,埼玉県,蕨市,中央６丁目１６番３号,,11,223,3350004,,,,,,,2026-01-14,1,,,,,ナナゴ,0
1472,6030001170569,新規,0,2026-01-14,2026-01-14,株式会社ＡｍａＴｅｒａｓｕ,,株式会社,埼玉県,三郷市,上彦名３３０番地１,,11,237,3410004,,,,,,,2026-01-14,1,,,,,アマテラス,0
1473,6030001170577,新規,0,2026-01-14,2026-01-14,株式会社サンライズ,,株式会社,埼玉県,鶴ヶ島市,大字脚折１４２９番地８５,,11,241,3502213,,,,,,,2026-01-14,1,,,,,サンライズ,0
1485,6040001142014,新規,0,2026-01-14,2026-01-14,株式会社やさか,,株式会社,千葉県,香取郡多古町,間倉５４４番地１９２,,12,347,2892235,,,,,,,2026-01-14,1,,,,,ヤサカ,0
1486,6040001142063,新規,0,2026-01-14,2026-01-14,トレーラーハウス房総株式会社,,株式会社,千葉県,夷隅郡御宿町,新町８１５番地,,12,443,2995103,,,,,,,2026-01-14,1,,,,,トレーラーハウスボウソウ,0
1487,6040001142071,新規,0,2026-01-14,2026-01-14,ｍｏｖｅ　Ｆｉｒｓｔ株式会社,,株式会社,千葉県,佐倉市,下志津１２８２番地１,,12,212,2850841,,,,,,,2026-01-14,1,,,,,ムーヴファースト,0
1490,6040003029242,新規,0,2026-01-14,2026-01-14,合同会社ＯＮＥ　ＲＩＳＥ,,合同会社,千葉県,柏市,花野井１１６０番地２３４,,12,217,2770812,,,,,,,2026-01-14,1,,,,,ワンライズ,0
1491,6040003029267,新規,0,2026-01-14,2026-01-14,合同会社ＬＵＭＩＶＩＡ,,合同会社,千葉県,千葉市中央区,新宿２丁目１３番１３号ＫＴビル１階,,12,101,2600021,,,,,,,2026-01-14,1,,,,,ルミヴィア,0
1497,6070001043721,新規,0,2026-01-14,2026-01-14,株式会社ＮｅｋｓＹ,,株式会社,群馬県,高崎市,倉賀野町２１７９番地８,,10,202,3701201,,,,,,,2026-01-14,1,,,,,ネクシー,0
1498,6080003003623,新規,0,2026-01-14,2026-01-14,合同会社Ｐｌｕｓ　Ｆｉｅｌｄ,,合同会社,静岡県,榛原郡吉田町,片岡１４５６番地の８,,22,424,4210303,,,,,,,2026-01-14,1,,,,,プラスフィールド,0
1503,6080101026022,新規,0,2026-01-14,2026-01-14,株式会社リライズパートナーズ,,株式会社,静岡県,三島市,谷田２９８番地の１,,22,206,4110801,,,,,,,2026-01-14,1,,,,,リライズパートナーズ,0
1506,6080403005426,新規,0,2026-01-14,2026-01-14,合同会社ひなた,,合同会社,静岡県,磐田市,西貝塚３５６１番地１９,,22,211,4380026,,,,,,,2026-01-14,1,,,,,ヒナタ,0
1507,6090001019686,新規,0,2026-01-14,2026-01-14,株式会社クリーンファイターズ山梨,,株式会社,山梨県,甲府市,千塚３丁目４番１９号ＧＡ甲府第４－２,,19,201,4000074,,,,,,,2026-01-14,1,,,,,クリーンファイターズヤマナシ,0
1508,6100001039237,新規,0,2026-01-14,2026-01-14,株式会社ＳＨＩＫＡＫＵＹＡ,,株式会社,長野県,飯田市,上郷別府３３３３番地１５,,20,205,3950003,,,,,,,2026-01-14,1,,,,,シカクヤ,0
1523,6120001283122,新規,0,2026-01-14,2026-01-14,株式会社セイントガル,,株式会社,大阪府,大阪市北区,梅田１丁目１番３号大阪駅前第３ビル２９階１－１－１号室,,27,127,5300001,,,,,,,2026-01-14,1,,,,,セイントガル,0
1528,6120103006934,新規,0,2026-01-14,2026-01-14,合同会社和,,合同会社,大阪府,藤井寺市,小山７丁目２２－２５,,27,226,5830033,,,,,,,2026-01-14,1,,,,,ナゴミ,0
1534,6122001040057,新規,0,2026-01-14,2026-01-14,株式会社サービスアンカーさとー,,株式会社,大阪府,柏原市,河原町３番５号,,27,221,5820004,,,,,,,2026-01-14,1,,,,,サービスアンカーサトー,0
1539,6130001081401,新規,0,2026-01-14,2026-01-14,株式会社ロカラクト・ジャパン,,株式会社,京都府,宇治市,広野町東裏１１８番地の１ルナクレセント１ｓｔ２０２,,26,204,6110031,,,,,,,2026-01-14,1,,,,,ロカラクトジャパン,0
1540,6130001081426,新規,0,2026-01-14,2026-01-14,株式会社ＡＳＳＩＳＴ　ＢＡＳＥ,,株式会社,京都府,京都市中京区,錦小路通室町東入占出山町３０８ヤマチュウビル,,26,104,6048155,,,,,,,2026-01-14,1,,,,,アシストベース,0
1548,6140003023086,新規,0,2026-01-14,2026-01-14,合同会社ＭＳＩＮ,,合同会社,兵庫県,神戸市中央区,上筒井通１丁目４番８－１号,,28,110,6510061,,,,,,,2026-01-14,1,,,,,エムエスアイエヌ,0
1549,6140005027762,新規,0,2026-01-14,2026-01-14,医療法人優心会岩本歯科,,その他の設立登記法人,兵庫県,神戸市東灘区,御影中町７丁目８番１６号第２都ビル２階,,28,101,6580054,,,,,,,2026-01-14,1,,,,,ユウシンカイイワモトシカ,0
1551,6160001027351,新規,0,2026-01-14,2026-01-14,株式会社アンガット,,株式会社,滋賀県,草津市,野路１丁目５番２４号サンシャイン１－Ｂ号室,,25,206,5250059,,,,,,,2026-01-14,1,,,,,アンガット,0
1558,6180001170265,新規,0,2026-01-14,2026-01-14,ＴＯＷＡホールディングス株式会社,,株式会社,愛知県,名古屋市中村区,千成通１丁目２２番地,,23,105,4530818,,,,,,,2026-01-14,1,,,,,トウワホールディングス,0
1559,6180001170273,新規,0,2026-01-14,2026-01-14,株式会社ＳＯＨＥＩ,,株式会社,愛知県,あま市,花正中之割２９番地１,,23,237,4901205,,,,,,,2026-01-14,1,,,,,ソーヘイ,0
1566,6180303006869,新規,0,2026-01-14,2026-01-14,合同会社テックトライデント,,合同会社,愛知県,岡崎市,井田町字中屋敷３１―２,,23,202,4440076,,,,,,,2026-01-14,1,,,,,テックトライデント,0
1570,6190003005311,新規,0,2026-01-14,2026-01-14,合同会社アーネット,,合同会社,三重県,伊賀市,下郡５０番地の３５,,24,216,5180124,,,,,,,2026-01-14,1,,,,,アーネット,0
1572,6200001044615,新規,0,2026-01-14,2026-01-14,鴻運株式会社,,株式会社,岐阜県,岐阜市,溝口童子１４６番地,,21,201,5012554,,,,,,,2026-01-14,1,,,,,コウウン,0
1573,6210001020458,新規,0,2026-01-14,2026-01-14,福の輪ケアサービス株式会社,,株式会社,福井県,坂井市,丸岡町寅国第１２号８番地７,,18,210,9100351,,,,,,,2026-01-14,1,,,,,フクノワケアサービス,0
1574,6210003001992,新規,0,2026-01-14,2026-01-14,芯導シンザ住管工舎合同会社,,合同会社,福井県,敦賀市,御名３０－１２－２,,18,202,9140132,,,,,,,2026-01-14,1,,,,,シンドウシンザジュウカンコウシャ,0
1575,6210003002000,新規,0,2026-01-14,2026-01-14,合同会社ファナライズ,,合同会社,福井県,小浜市,遠敷２丁目２０６番地の８,,18,204,9170241,,,,,,,2026-01-14,1,,,,,ファナライズ,0
1578,6220005009034,新規,0,2026-01-14,2026-01-14,一般社団法人Ｗｉｌｄ　Ｃａｒｄ,,その他の設立登記法人,石川県,金沢市,此花町５番６号ライフ金沢第１ビル６０１Ａ,,17,201,9200852,,,,,,,2026-01-14,1,,,,,,0
1583,6240003007558,新規,0,2026-01-14,2026-01-14,オフィスステイ合同会社,,合同会社,広島県,広島市南区,猿猴橋町４番１９号,,34,103,7320823,,,,,,,2026-01-14,1,,,,,オフィスステイ,0
1585,6260001040906,新規,0,2026-01-14,2026-01-14,Ｒｏｂｂｓ株式会社,,株式会社,岡山県,倉敷市,加須山２７６番地３,,33,202,7100026,,,,,,,2026-01-14,1,,,,,ロブス,0
1590,6290001112710,新規,0,2026-01-14,2026-01-14,ワイズメント株式会社,,株式会社,福岡県,大野城市,白木原１丁目１１番８号,,40,219,8160943,,,,,,,2026-01-14,1,,,,,ワイズメント,0
1591,6290001112719,新規,0,2026-01-14,2026-01-14,株式会社Ａｌｔｈａｅａ　Ｓｋｉｎｃａｒｅ　Ｓｙｓｔｅｍｓ,,株式会社,福岡県,福岡市早良区,百道浜４丁目３番４－５０２号グランドメゾン百道浜ヴィラ,,40,137,8140001,,,,,,,2026-01-14,1,,,,,アルテアスキンケアシステムズ,0
1592,6290803005252,新規,0,2026-01-14,2026-01-14,合同会社ＨｕｇＬｏｇｉｃ,,合同会社,福岡県,北九州市八幡西区,東川頭町２番４６号,,40,109,8060014,,,,,,,2026-01-14,1,,,,,ハグロジック,0
1593,6300001014475,新規,0,2026-01-14,2026-01-14,株式会社デジマリ,,株式会社,佐賀県,佐賀市,城内１丁目６番３８号,,41,201,8400041,,,,,,,2026-01-14,1,,,,,デジマリ,0
1596,6320001021536,新規,0,2026-01-14,2026-01-14,スマイルワーク不動産株式会社,,株式会社,大分県,大分市,田中町２丁目６番１号,,44,201,8700852,,,,,,,2026-01-14,1,,,,,スマイルワークフドウサン,0
1597,6320003004877,新規,0,2026-01-14,2026-01-14,合同会社西川企画,,合同会社,大分県,大分市,高城南町９番３号,,44,201,8700155,,,,,,,2026-01-14,1,,,,,ニシカワキカク,0
1613,6390001018220,新規,0,2026-01-14,2026-01-14,Ｆｉｖｅ　Ｔｒｅｅｓ株式会社,,株式会社,山形県,米沢市,本町２丁目１番１２号,,06,202,9920037,,,,,,,2026-01-14,1,,,,,ファイブツリーズ,0
1617,6430001096030,新規,0,2026-01-14,2026-01-14,株式会社ライスファーム志部谷,,株式会社,北海道,雨竜郡雨竜町,字渭の津７２番地６１,,01,436,0782600,,,,,,,2026-01-14,1,,,,,ライスファームシブヤ,0
1620,6440003001747,新規,0,2026-01-14,2026-01-14,合同会社ワークス,,合同会社,北海道,函館市,昭和４丁目６０番１５号,,01,202,0410812,,,,,,,2026-01-14,1,,,,,ワークス,0
1624,6470001021050,新規,0,2026-01-14,2026-01-14,よい株式会社,,株式会社,香川県,高松市,古馬場町９－１０リオンビル３Ｆ,,37,201,7600045,,,,,,,2026-01-14,1,,,,,,0
1626,6490001011248,新規,0,2026-01-14,2026-01-14,株式会社ＡＤＬＡＹＳ,,株式会社,高知県,高知市,梅ノ辻２番４号,00142152,39,201,7808011,,,,,,,2026-01-14,1,,,,,アドレイズ,0
1629,6700150031727,新規,0,2026-01-14,2015-10-09,南郷里地域づくり協議会,,その他,滋賀県,長浜市,新栄町１０６５－２,,25,203,5260841,,,,,,,2015-10-09,1,,,,,ナンゴウリチイキヅクリキヨウギカイ,0
1638,7010001261674,新規,0,2026-01-14,2026-01-14,ＣｏｎｎｅＫＴ　Ｊａｐａｎ株式会社,,株式会社,東京都,中央区,銀座１丁目２２番１１号銀座大竹ビジデンス２Ｆ,,13,102,1040061,,,,,,,2026-01-14,1,,,,,コネクトジャパン,0
1639,7010001261807,新規,0,2026-01-14,2026-01-14,株式会社平山健太建築設計事務所,,株式会社,東京都,文京区,白山４丁目７番８－２０１号,,13,105,1120001,,,,,,,2026-01-14,1,,,,,ヒラヤマケンタケンチクセッケイジムショ,0
1640,7010001261897,新規,0,2026-01-14,2026-01-14,株式会社ＣＯＣＯｉＲＯ,,株式会社,東京都,千代田区,神田須田町１丁目７番８号,,13,101,1010041,,,,,,,2026-01-14,1,,,,,ココイロ,0
1653,7010401195712,新規,0,2026-01-14,2026-01-14,有栖川コレクション株式会社,,株式会社,東京都,港区,北青山３丁目５番１４号７階,,13,103,1070061,,,,,,,2026-01-14,1,,,,,アリスガワコレクション,0
1654,7010401195720,新規,0,2026-01-14,2026-01-14,株式会社ＰｒｉｖａｔｅＣＡＶＥ,,株式会社,東京都,港区,赤坂９丁目７番２号,,13,103,1070052,,,,,,,2026-01-14,1,,,,,プライベートケイヴ,0
1655,7010401195737,新規,0,2026-01-14,2026-01-14,株式会社Ｃｈｉｇａｙａ,,株式会社,東京都,港区,赤坂１丁目３番１８号,,13,103,1070052,,,,,,,2026-01-14,1,,,,,チガヤ,0
1656,7010401195778,新規,0,2026-01-14,2026-01-14,株式会社田中堂,,株式会社,東京都,港区,白金台５丁目４番２２－２０４号,,13,103,1080071,,,,,,,2026-01-14,1,,,,,タナカドウ,0
1657,7010403036996,新規,0,2026-01-14,2026-01-14,有明合同会社,,合同会社,東京都,港区,元赤坂１丁目１番７－１２０９号株式会社赤坂国際会計内,,13,103,1070051,,,,,,,2026-01-14,1,,,,,アリアケ,0
1658,7010403037045,新規,0,2026-01-14,2026-01-14,ＰＲＯＵＤ合同会社,,合同会社,東京都,港区,台場１丁目３番１－６１４,,13,103,1350091,,,,,,,2026-01-14,1,,,,,プラウド,0
1671,7010801036937,新規,0,2026-01-14,2026-01-14,ｈｕｇ‐Ｂｏｘ株式会社,,株式会社,東京都,大田区,大森西６丁目１７番１７号,,13,111,1430015,,,,,,,2026-01-14,1,,,,,ハグボックス,0
1672,7010803005675,新規,0,2026-01-14,2026-01-14,合同会社ＲＥＲＩＤＥ,,合同会社,東京都,大田区,羽田３丁目２４番１２号,,13,111,1440043,,,,,,,2026-01-14,1,,,,,リライド,0
1684,7011001174494,新規,0,2026-01-14,2026-01-14,いろはシステムズ株式会社,,株式会社,東京都,渋谷区,道玄坂１丁目１０番８号渋谷道玄坂東急ビル２Ｆ―Ｃ,,13,113,1500043,,,,,,,2026-01-14,1,,,,,イロハシステムズ,0
1685,7011001174750,新規,0,2026-01-14,2026-01-14,株式会社マンガ・ドライブ,,株式会社,東京都,渋谷区,道玄坂１丁目１０番８号渋谷道玄坂東急ビル２Ｆ－Ｃ,,13,113,1500043,,,,,,,2026-01-14,1,,,,,マンガドライブ,0
1687,7011003023278,新規,0,2026-01-14,2026-01-14,合同会社Ｈｕｅ,,合同会社,東京都,渋谷区,道玄坂１丁目１０番８号渋谷道玄坂東急ビル２Ｆ－Ｃ,,13,113,1500043,,,,,,,2026-01-14,1,,,,,ヒュー,0
1688,7011003023311,新規,0,2026-01-14,2026-01-14,合同会社ＬＥＢＥＮ,,合同会社,東京都,渋谷区,神宮前６丁目２３番４号桑野ビル２階,,13,113,1500001,,,,,,,2026-01-14,1,,,,,レーベン,0
1692,7011103016917,新規,0,2026-01-14,2026-01-14,合同会社ＫＹ,,合同会社,東京都,新宿区,北新宿２丁目６番２９－３２２号,,13,104,1690074,,,,,,,2026-01-14,1,,,,,ケーワイ,0
1693,7011203004929,新規,0,2026-01-14,2026-01-14,Ｂｌａｃｋ　Ｆｌｉｎｔ合同会社,,合同会社,東京都,中野区,中野１丁目６２番８号,,13,114,1640001,,,,,,,2026-01-14,1,,,,,ブラックフリント,0
1695,7011301031180,新規,0,2026-01-14,2026-01-14,ｅｆｏｒｔ株式会社,,株式会社,東京都,杉並区,阿佐谷北１丁目３４番３号,,13,115,1660001,,,,,,,2026-01-14,1,,,,,エフォート,0
1704,7011701029089,新規,0,2026-01-14,2026-01-14,株式会社圭信,,株式会社,東京都,江戸川区,平井７丁目２１番１４号ビバーチェ１－５０２号室,,13,123,1320035,,,,,,,2026-01-14,1,,,,,ケイシン,0
1706,7011803007257,新規,0,2026-01-14,2026-01-14,アドバンスド３合同会社,,合同会社,東京都,葛飾区,奥戸２丁目３１番１６号,,13,122,1240022,,,,,,,2026-01-14,1,,,,,アドバンスドスリー,0
1707,7011805003510,新規,0,2026-01-14,2026-01-14,特定非営利活動法人ＮＩＺＩ,,その他の設立登記法人,東京都,足立区,千住宮元町２０番６－６０８号,,13,121,1200043,,,,,,,2026-01-14,1,,,,,ニジ,0
1714,7012703003445,新規,0,2026-01-14,2026-01-14,合同会社アイブリッジ,,合同会社,東京都,東村山市,美住町１丁目４番地１号グリーンタウン美住一番街１９号棟４１５号室,,13,213,1890023,,,,,,,2026-01-14,1,,,,,アイブリッジ,0
1715,7012801024459,新規,0,2026-01-14,2026-01-14,株式会社ｋｏｃｏｎｎｅｃｔ,,株式会社,東京都,東大和市,向原１丁目１０番地の２７,,13,220,2070013,,,,,,,2026-01-14,1,,,,,ココネクト,0
1718,7013301055572,新規,0,2026-01-14,2026-01-14,株式会社ＡＮＺＹ,,株式会社,東京都,豊島区,高田２丁目１２－２０－５０４,,13,116,1710033,,,,,,,2026-01-14,1,,,,,アンジー,0
1719,7013301055597,新規,0,2026-01-14,2026-01-14,かがやきアセットマネジメント株式会社,,株式会社,東京都,豊島区,北大塚３丁目１６番１－３０５号,,13,116,1700004,,,,,,,2026-01-14,1,,,,,カガヤキアセットマネジメント,0
1728,7020001166600,新規,0,2026-01-14,2026-01-14,株式会社ＫＫエンジニアリング,,株式会社,神奈川県,横浜市旭区,中白根４丁目２７番２０号,,14,112,2410004,,,,,,,2026-01-14,1,,,,,ケーケーエンジニアリング,0
1729,7020001166633,新規,0,2026-01-14,2026-01-14,ｗｏｒｌｄ　ｌｏｒｄ株式会社,,株式会社,神奈川県,横浜市旭区,今宿１丁目３７番１６号内山ハイツＡ号,,14,112,2410817,,,,,,,2026-01-14,1,,,,,ワールドロード,0
1730,7020001166690,新規,0,2026-01-14,2026-01-14,株式会社ＴＳＹＨ,,株式会社,神奈川県,横浜市戸塚区,矢部町１４７１番地,,14,110,2440002,,,,,,,2026-01-14,1,,,,,ティーエスワイエイチ,0
1732,7021001087217,新規,0,2026-01-14,2026-01-14,株式会社カオス,,株式会社,神奈川県,足柄下郡湯河原町,門川５１５番地の１－１０２,,14,384,2590302,,,,,,,2026-01-14,1,,,,,カオス,0
1735,7030001170535,新規,0,2026-01-14,2026-01-14,株式会社山本商会,,株式会社,埼玉県,ふじみ野市,滝１丁目１番地２４,,11,245,3560012,,,,,,,2026-01-14,1,,,,,ヤマモトショウカイ,0
1744,7040001142013,新規,0,2026-01-14,2026-01-14,株式会社ＣＯＲＥ,,株式会社,千葉県,白井市,根１８７０番地の２,,12,232,2701431,,,,,,,2026-01-14,1,,,,,コア,0
1745,7040001142062,新規,0,2026-01-14,2026-01-14,株式会社トダデザ,,株式会社,千葉県,佐倉市,新臼井田９番７号,,12,212,2850862,,,,,,,2026-01-14,1,,,,,トダデザ,0
1746,7040001142070,新規,0,2026-01-14,2026-01-14,株式会社最善観,,株式会社,千葉県,松戸市,五香７丁目３１番地の１２,,12,207,2702213,,,,,,,2026-01-14,1,,,,,サイゼンカン,0
1748,7040003029266,新規,0,2026-01-14,2026-01-14,ｖｉｖａｃｅ合同会社,,合同会社,千葉県,浦安市,日の出６丁目２２番６号,,12,227,2790013,,,,,,,2026-01-14,1,,,,,ビバーチェ,0
1749,7040005022995,新規,0,2026-01-14,2026-01-14,ＭＩＲＡＩ・ＧＬＯＢＡＬ協同組合,,その他の設立登記法人,千葉県,野田市,尾崎８３７番地の４０東海尾崎ビル２０１,,12,208,2700235,,,,,,,2026-01-14,1,,,,,ミライグローバル,0
1760,7080401028378,新規,0,2026-01-14,2026-01-14,株式会社磐南空調,,株式会社,静岡県,磐田市,下大之郷３１９番地,,22,211,4380052,,,,,,,2026-01-14,1,,,,,バンナンクウチョウ,0
1767,7110003006035,新規,0,2026-01-14,2026-01-14,つばめ電気保安合同会社,,合同会社,新潟県,燕市,小高１１８０番地１,,15,213,9591241,,,,,,,2026-01-14,1,,,,,ツバメデンキホアン,0
1775,7120001283245,新規,0,2026-01-14,2026-01-14,株式会社ＴＡＸ　ＦＯＲＣＥ,,株式会社,大阪府,大阪市西区,阿波座１丁目１５番１６号４０１号室,,27,106,5500011,,,,,,,2026-01-14,1,,,,,タックスフォース,0
1776,7120001283303,新規,0,2026-01-14,2026-01-14,知栄株式会社,,株式会社,大阪府,大阪市住吉区,苅田４丁目１２番３０－２Ａ,,27,120,5580011,,,,,,,2026-01-14,1,,,,,チエイ,0
1777,7120001283328,新規,0,2026-01-14,2026-01-14,株式会社ＡＱＵＡ熱学,,株式会社,大阪府,寝屋川市,菅相塚町２番２号,00142148,27,215,5720008,,,,,,,2026-01-14,1,,,,,アクアネツガク,0
1778,7120001283377,新規,0,2026-01-14,2026-01-14,株式会社ＢＩＧ　ＤＥＡＬ　ＬＡＢ,,株式会社,大阪府,大阪市中央区,南船場１丁目１１番９号,,27,128,5420081,,,,,,,2026-01-14,1,,,,,ビッグディールラボ,0
1779,7120001283393,新規,0,2026-01-14,2026-01-14,株式会社ＭＩＳＡＧＯ,,株式会社,大阪府,門真市,殿島町８－１グリーンコーポ門真１１５号,,27,223,5710045,,,,,,,2026-01-14,1,,,,,ミサゴ,0
1789,7120101073067,新規,0,2026-01-14,2026-01-14,株式会社ルセラ,,株式会社,大阪府,堺市西区,浜寺元町６丁８８９番地２,,27,144,5928343,,,,,,,2026-01-14,1,,,,,ルセラ,0
1791,7120901052088,新規,0,2026-01-14,2026-01-14,株式会社ＷＩＴ,,株式会社,大阪府,豊中市,小曽根３丁目９－１４・３Ｆ,,27,203,5610813,,,,,,,2026-01-14,1,,,,,ダブルアイティー,0
1792,7120903006034,新規,0,2026-01-14,2026-01-14,合同会社インザゲート,,合同会社,大阪府,吹田市,原町４丁目２１番４５ー２１９号,,27,205,5640004,,,,,,,2026-01-14,1,,,,,インザゲート,0
1793,7120905006825,新規,0,2026-01-14,2026-01-14,医療法人悠幸会,,その他の設立登記法人,大阪府,吹田市,昭和町１番１号アイワステーションビル１階,,27,205,5640028,,,,,,,2026-01-14,1,,,,,ユウコウカイ,0
1802,7130001081334,新規,0,2026-01-14,2026-01-14,株式会社亀岡ハンズ,,株式会社,京都府,亀岡市,横町３９番地１,,26,206,6210812,,,,,,,2026-01-14,1,,,,,カメオカハンズ,0
1814,7140001141310,新規,0,2026-01-14,2026-01-14,株式会社キブネ,,株式会社,兵庫県,伊丹市,中野北４丁目４－１７,,28,207,6640029,,,,,,,2026-01-14,1,,,,,キブネ,0
1820,7150001028655,新規,0,2026-01-14,2026-01-14,株式会社ＬＣ　ＮＥＸＴ,,株式会社,奈良県,橿原市,内膳町１丁目５番６号,,29,205,6340804,,,,,,,2026-01-14,1,,,,,エルシーネクスト,0
1822,7160001027350,新規,0,2026-01-14,2026-01-14,株式会社創新建設,,株式会社,滋賀県,米原市,磯１８１４番地,,25,214,5210004,,,,,,,2026-01-14,1,,,,,ソウシンケンセツ,0
1823,7170003002367,新規,0,2026-01-14,2026-01-14,合同会社Ｒｉｌａｎ,,合同会社,和歌山県,田辺市,南新万５番８－２０６号,,30,206,6460013,,,,,,,2026-01-14,1,,,,,リラン,0
1832,7180001170140,新規,0,2026-01-14,2026-01-14,株式会社ＹＵＮＯ・Ｓ,,株式会社,愛知県,岩倉市,川井町郷浦２１番地,,23,228,4820015,,,,,,,2026-01-14,1,,,,,ユノス,0
1835,7180303006868,新規,0,2026-01-14,2026-01-14,合同会社インカムベース,,合同会社,愛知県,蒲郡市,大塚町鎌倉１番地２,00142150,23,214,4430013,,,,,,,2026-01-14,1,,,,,インカムベース,0
1843,7200001044606,新規,0,2026-01-14,2026-01-14,ＨＹ’ｓエステート株式会社,,株式会社,岐阜県,羽島郡笠松町,北及２００４番地１４,,21,303,5016064,,,,,,,2026-01-14,1,,,,,ハイズエステート,0
1844,7200001044622,新規,0,2026-01-14,2026-01-14,株式会社ＬｉｎｋＬｕｘ,,株式会社,岐阜県,岐阜市,長良東３丁目１８０番地ＴＯＭＢＯ・Ａ２０３号室,,21,201,5020082,,,,,,,2026-01-14,1,,,,,リンクラックス,0
1847,7200005013838,新規,0,2026-01-14,2026-01-14,一般社団法人凰岫社,,その他の設立登記法人,岐阜県,岐阜市,東高岩町１９番地,,21,201,5008106,,,,,,,2026-01-14,1,,,,,オウシュウシャ,0
1850,7210001020457,新規,0,2026-01-14,2026-01-14,ＫＪＳ株式会社,,株式会社,福井県,福井市,丸山１丁目１０６番地丸山ビル２階２０１,,18,201,9100834,,,,,,,2026-01-14,1,,,,,ケイジェイエス,0
1858,7240005016028,新規,0,2026-01-14,2026-01-14,農事組合法人きつ和,,その他の設立登記法人,広島県,神石郡神石高原町,木津和１１５５番地,,34,545,7201416,,,,,,,2026-01-14,1,,,,,キツワ,0
1861,7250001021501,新規,0,2026-01-14,2026-01-14,株式会社ときわの森,,株式会社,山口県,宇部市,大字西岐波１１４９番地１０,,35,202,7550151,,,,,,,2026-01-14,1,,,,,トキワノモリ,0
1864,7260001040896,新規,0,2026-01-14,2026-01-14,株式会社ウチダ,,株式会社,岡山県,岡山市南区,妹尾崎２２－１,,33,104,7010201,,,,,,,2026-01-14,1,,,,,ウチダ,0
1865,7260001040905,新規,0,2026-01-14,2026-01-14,株式会社由木屋,,株式会社,岡山県,岡山市東区,内ケ原４６０番地１,,33,103,7090612,,,,,,,2026-01-14,1,,,,,ユキヤ,0
1868,7260003005476,新規,0,2026-01-14,2026-01-14,ＡＲＣＡＤＩＡ合同会社,,合同会社,岡山県,岡山市中区,桜橋４丁目５‐３０,,33,102,7038285,,,,,,,2026-01-14,1,,,,,アルカディア,0
1872,7270001009370,新規,0,2026-01-14,2026-01-14,株式会社エキスパート,,株式会社,鳥取県,米子市,皆生温泉３丁目９－２,,31,202,6830001,,,,,,,2026-01-14,1,,,,,エキスパート,0
1877,7290801032165,新規,0,2026-01-14,2026-01-14,株式会社大和ＲＥＰＡＩＲ,,株式会社,福岡県,中間市,長津２丁目２１番３７号,,40,215,8090036,,,,,,,2026-01-14,1,,,,,ヤマトリペア,0
1878,7290801032181,新規,0,2026-01-14,2026-01-14,株式会社ＳＴＡＹＨＯＭＥ,,株式会社,福岡県,北九州市小倉北区,片野１丁目１番５４号,,40,106,8020064,,,,,,,2026-01-14,1,,,,,ステイホーム,0
1879,7290803005251,新規,0,2026-01-14,2026-01-14,コモンズリンク合同会社,,合同会社,福岡県,遠賀郡水巻町,伊左座３丁目１－１４,,40,382,8070056,,,,,,,2026-01-14,1,,,,,コモンズリンク,0
1890,7330001033901,新規,0,2026-01-14,2026-01-14,株式会社Ｔ‐ＢＯＮＤ,,株式会社,熊本県,八代市,松崎町１２９番地１,,43,202,8660884,,,,,,,2026-01-14,1,,,,,ティボンド,0
1892,7330003011392,新規,0,2026-01-14,2026-01-14,合同会社幸清,,合同会社,熊本県,玉名郡長洲町,大字長洲４３８番地１,,43,368,8690123,,,,,,,2026-01-14,1,,,,,コウセイ,0
1896,7370001053383,新規,0,2026-01-14,2026-01-14,株式会社佐藤企画,,株式会社,宮城県,多賀城市,城南２丁目１７番２１号,,04,209,9850865,,,,,,,2026-01-14,1,,,,,サトウキカク,0
1908,7420001019387,新規,0,2026-01-14,2026-01-14,株式会社山王輸送,,株式会社,青森県,青森市,大字新城字平岡２９１番地１サンライトタウン１－Ｆ号,,02,201,0380042,,,,,,,2026-01-14,1,,,,,サンノウユソウ,0
1911,7430001095997,新規,0,2026-01-14,2026-01-14,ＬＥＯＮ　ＷＯＲＫＳ株式会社,,株式会社,北海道,虻田郡ニセコ町,字本通６７－１,,01,395,0481502,,,,,,,2026-01-14,1,,,,,レオンワークス,0
1912,7430001096021,新規,0,2026-01-14,2026-01-14,株式会社ｉ‐ｎｅ　ｃｏｍｐａｎｙ,,株式会社,北海道,札幌市北区,篠路七条６丁目５番１７号,,01,102,0028027,,,,,,,2026-01-14,1,,,,,イーネカンパニー,0
1913,7430001096062,新規,0,2026-01-14,2026-01-14,株式会社優心鉄工,,株式会社,北海道,札幌市北区,新川西三条５丁目１３番３３号,,01,102,0010933,,,,,,,2026-01-14,1,,,,,ユウシンテッコウ,0
1919,7430003018477,新規,0,2026-01-14,2026-01-14,合同会社Ｒ　ＭＡＤＥ　ＦＡＲＭ,,合同会社,北海道,磯谷郡蘭越町,字湯里４１７番地１,,01,394,0481321,,,,,,,2026-01-14,1,,,,,アールメイドファーム,0
1931,8010001261657,新規,0,2026-01-14,2026-01-14,株式会社ガバナンス・プラス,,株式会社,東京都,中央区,銀座１丁目１２－４・Ｎ＆Ｅ－ＢＬＤ．７階,,13,102,1040061,,,,,,,2026-01-14,1,,,,,ガバナンスプラス,0
1941,8010003049968,新規,0,2026-01-14,2026-01-14,Ｒ＆Ｔストレージ合同会社,,合同会社,東京都,中央区,日本橋箱崎町２０番５号ＶＯＲＴ箱崎５階,,13,102,1030015,,,,,,,2026-01-14,1,,,,,アールアンドティーストレージ,0
1942,8010005041205,新規,0,2026-01-14,2026-01-14,一般社団法人ＫＲＦ１１９,,その他の設立登記法人,東京都,千代田区,内幸町２丁目１番６号,,13,101,1000011,,,,,,,2026-01-14,1,,,,,ケイアールエフヒャクジュウキュウ,0
1951,8010401195645,新規,0,2026-01-14,2026-01-14,株式会社ケイエヌ・プランニング,,株式会社,東京都,港区,西新橋３丁目２３番１１号御成門小田急ビル２Ｆ,,13,103,1050003,,,,,,,2026-01-14,1,,,,,ケイエヌプランニング,0
1952,8010401195703,新規,0,2026-01-14,2026-01-14,ＴＫＳリアルエステート株式会社,,株式会社,東京都,港区,南麻布５丁目１４番１０号,,13,103,1060047,,,,,,,2026-01-14,1,,,,,ティーケーエスリアルエステート,0
1953,8010401195736,新規,0,2026-01-14,2026-01-14,涌井創研株式会社,,株式会社,東京都,港区,北青山２丁目１２番８号,,13,103,1070061,,,,,,,2026-01-14,1,,,,,ワクイソウケン,0
1954,8010401195785,新規,0,2026-01-14,2026-01-14,フォレストスリー株式会社,,株式会社,東京都,港区,六本木３丁目１６番１２号六本木ＫＳビル５Ｆ,,13,103,1060032,,,,,,,2026-01-14,1,,,,,フォレストスリー,0
1955,8010403036995,新規,0,2026-01-14,2026-01-14,福浦東合同会社,,合同会社,東京都,港区,元赤坂１丁目１番７－１２０９号株式会社赤坂国際会計内,,13,103,1070051,,,,,,,2026-01-14,1,,,,,フクウラヒガシ,0
1957,8010601068568,新規,0,2026-01-14,2026-01-14,スカラーマネジメント株式会社,,株式会社,東京都,江東区,東雲１丁目６番２３号ストーン東雲１０１,,13,108,1350062,,,,,,,2026-01-14,1,,,,,スカラーマネジメント,0
1958,8010603012012,新規,0,2026-01-14,2026-01-14,合同会社Ｌ‐ａｎｄ‐Ｆ,,合同会社,東京都,江東区,東雲２丁目２番１４湾岸タワーレックスガーデン２２１６号,,13,108,1350062,,,,,,,2026-01-14,1,,,,,エルアンドエフ,0
1961,8010803005658,新規,0,2026-01-14,2026-01-14,合同会社つづら,,合同会社,東京都,大田区,北馬込１丁目２９番１６号,,13,111,1430021,,,,,,,2026-01-14,1,,,,,ツヅラ,0
1962,8010803005682,新規,0,2026-01-14,2026-01-14,合同会社ハナユト,,合同会社,東京都,大田区,蒲田３丁目３番２号Ｋａｍａｔａ３３２,,13,111,1440052,,,,,,,2026-01-14,1,,,,,ハナユト,0
1968,8011001174808,新規,0,2026-01-14,2026-01-14,株式会社ｗａｇａｎｓｅ,,株式会社,東京都,渋谷区,神南１丁目１１番４号ＦＰＧリンクス神南５階,,13,113,1500041,,,,,,,2026-01-14,1,,,,,ワガンセ,0
1969,8011001174824,新規,0,2026-01-14,2026-01-14,株式会社資格スクエア,,株式会社,東京都,渋谷区,神宮前６丁目２７番８号,,13,113,1500001,,,,,,,2026-01-14,1,,,,,シカクスクエア,0
1970,8011001174832,新規,0,2026-01-14,2026-01-14,株式会社ＬＵＫＥ,,株式会社,東京都,渋谷区,神宮前６丁目２３番４号桑野ビル２階,,13,113,1500001,,,,,,,2026-01-14,1,,,,,ルーク,0
1973,8011003023302,新規,0,2026-01-14,2026-01-14,ＪＡＭ２６合同会社,,合同会社,東京都,目黒区,東が丘２丁目１１番５号,,13,110,1520021,,,,,,,2026-01-14,1,,,,,ジャムニジュウロク,0
1974,8011003023319,新規,0,2026-01-14,2026-01-14,合同会社ＧＩＧＩ,,合同会社,東京都,渋谷区,本町４丁目８番１３号ＰＡＲＫＬＡＮＥ渋谷本町３０３,,13,113,1510071,,,,,,,2026-01-14,1,,,,,ジジ,0
1979,8011101114382,新規,0,2026-01-14,2026-01-14,Ｌａｎａ　Ｉｎｖｅｓｔｍｅｎｔ株式会社,,株式会社,東京都,新宿区,西新宿３丁目７番１号新宿パークタワーＮ３０階,,13,104,1600023,,,,,,,2026-01-14,1,,,,,ラナインベストメント,0
1980,8011101114548,新規,0,2026-01-14,2026-01-14,ＴＯ　Ａｓｓｅｔ　Ｍａｎａｇｅｍｅｎｔ株式会社,,株式会社,東京都,新宿区,四谷坂町１１番５－１０６号,,13,104,1600002,,,,,,,2026-01-14,1,,,,,ティーオーアセットマネジメント,0
1983,8011103016866,新規,0,2026-01-14,2026-01-14,合同会社ＪＵＮＯＮ,,合同会社,東京都,新宿区,西新宿３丁目３－１３西新宿水間ビル２ｆ,,13,104,1600023,,,,,,,2026-01-14,1,,,,,ジュノン,0
1984,8011103016932,新規,0,2026-01-14,2026-01-14,データレンズテクノロジー合同会社,,合同会社,東京都,新宿区,西新宿３丁目３番１３号西新宿水間ビル６階,,13,104,1600023,,,,,,,2026-01-14,1,,,,,データレンズテクノロジー,0
1988,8011301031188,新規,0,2026-01-14,2026-01-14,株式会社ＦＯＣＵＳ,,株式会社,東京都,杉並区,高円寺南３丁目１番２号第一日富ビル３Ｆ,,13,115,1660003,,,,,,,2026-01-14,1,,,,,フォーカス,0
1994,8011803007256,新規,0,2026-01-14,2026-01-14,アドバンスド２合同会社,,合同会社,東京都,葛飾区,奥戸２丁目３１番１６号,,13,122,1240022,,,,,,,2026-01-14,1,,,,,アドバンスドツー,0
1998,8012703003444,新規,0,2026-01-14,2026-01-14,合同会社あおぞら,,合同会社,東京都,小平市,津田町３丁目１１－３０６,,13,211,1870025,,,,,,,2026-01-14,1,,,,,アオゾラ,0
2001,8013301055596,新規,0,2026-01-14,2026-01-14,ＣＲＥＡＴＥＲＩＵＭ株式会社,,株式会社,東京都,豊島区,東池袋３丁目１番１号サンシャイン６０－１２Ｆ,,13,116,1700013,,,,,,,2026-01-14,1,,,,,クリエイトリウム,0
2008,8020001166590,新規,0,2026-01-14,2026-01-14,株式会社高橋産業,00142164,株式会社,神奈川県,川崎市幸区,南幸町１丁目４９番地１・９０４,,14,132,2120016,,,,,,,2026-01-14,1,,,,,タカハシサンギョウ,0
2009,8020001166599,新規,0,2026-01-14,2026-01-14,株式会社こだまコネクト,,株式会社,神奈川県,横浜市西区,浅間町１丁目４番地３ウィザードビル４０２,,14,103,2200072,,,,,,,2026-01-14,1,,,,,コダマコネクト,0
2010,8020001166608,新規,0,2026-01-14,2026-01-14,株式会社スタイルデザイナー,,株式会社,神奈川県,横浜市中区,翁町１丁目４番１号,,14,104,2310028,,,,,,,2026-01-14,1,,,,,スタイルデザイナー,0
2015,8021001087199,新規,0,2026-01-14,2026-01-14,株式会社塚田仮設,,株式会社,神奈川県,伊勢原市,桜台１丁目２３番３２号ルネッサンス１０３号,,14,214,2591132,,,,,,,2026-01-14,1,,,,,ツカダカセツ,0
2016,8021001087208,新規,0,2026-01-14,2026-01-14,和環株式会社,,株式会社,神奈川県,秦野市,若松町５番６号,,14,211,2591314,,,,,,,2026-01-14,1,,,,,ワカン,0
2029,8030001170534,新規,0,2026-01-14,2026-01-14,ＩＮＩＴＩＡ　ＧＲＯＵＰ　ＨＯＬＤＩＮＧＳ株式会社,,株式会社,埼玉県,志木市,本町５丁目２０番２６－１０６号,,11,228,3530004,,,,,,,2026-01-14,1,,,,,イニシアグループホールディングス,0
2030,8030001170550,新規,0,2026-01-14,2026-01-14,株式会社鳥和,,株式会社,埼玉県,川越市,大字砂新田４９番地４,,11,201,3501137,,,,,,,2026-01-14,1,,,,,トリカズ,0
2038,8030003028425,新規,0,2026-01-14,2026-01-14,合同会社Ｄｒｅａｍ　Ｌｉｎｅ　Ｇｌｏｂａｌ,,合同会社,埼玉県,さいたま市南区,大字大谷口１４１５－７アモンリザハイツ２０１号室,,11,108,3360042,,,,,,,2026-01-14,1,,,,,ドリームライングローバル,0
2048,8040001142029,新規,0,2026-01-14,2026-01-14,株式会社エス・フィールド,,株式会社,千葉県,千葉市中央区,新千葉３丁目１２番２２号,,12,101,2600031,,,,,,,2026-01-14,1,,,,,エスフィールド,0
2049,8040001142061,新規,0,2026-01-14,2026-01-14,清水物産丸惠水産株式会社,,株式会社,千葉県,銚子市,新生町１丁目２０番地の１０,,12,202,2880056,,,,,,,2026-01-14,1,,,,,シミズブッサンマルケイスイサン,0
2050,8040003029265,新規,0,2026-01-14,2026-01-14,くるみの森企画合同会社,,合同会社,千葉県,市川市,伊勢宿１１番１９号,,12,203,2720106,,,,,,,2026-01-14,1,,,,,クルミノモリキカク,0
2064,8070001043703,新規,0,2026-01-14,2026-01-14,株式会社メディカルラボ・Ｋｅｉ,,株式会社,群馬県,高崎市,片岡町３丁目２５番５号,,10,202,3700862,,,,,,,2026-01-14,1,,,,,メディカルラボケイ,0
2067,8070003006253,新規,0,2026-01-14,2026-01-14,ＩＡＮＫＥＩホールディングス合同会社,,合同会社,群馬県,伊勢崎市,茂呂南町４６０５番地１,,10,204,3720036,,,,,,,2026-01-14,1,,,,,イアンケイホールディングス,0
2072,8080103003505,新規,0,2026-01-14,2026-01-14,ユヌ・キュイレレ合同会社,,合同会社,静岡県,熱海市,春日町１３番２５号熱海スカイハイツ３１８,,22,205,4130005,,,,,,,2026-01-14,1,,,,,ユヌキュイレレ,0
2073,8090003002960,新規,0,2026-01-14,2026-01-14,悠合同会社,,合同会社,山梨県,甲斐市,西八幡４０４４番地２菊池ビル３０２,,19,210,4000117,,,,,,,2026-01-14,1,,,,,ユウ,0
2074,8100001039268,新規,0,2026-01-14,2026-01-14,株式会社Ｃｏｏｌ．ＯＮＥ　ＮＥＸＴ,,株式会社,長野県,安曇野市,三郷明盛２２０９番地２,,20,220,3998101,,,,,,,2026-01-14,1,,,,,クールワンネクスト,0
2077,8110001039845,新規,0,2026-01-14,2026-01-14,株式会社ＦＡＲＭ８８,,株式会社,新潟県,燕市,笈ケ島１９８４番地,00142153,15,213,9590113,,,,,,,2026-01-14,1,,,,,ファームハチハチ,0
2079,8110003006034,新規,0,2026-01-14,2026-01-14,合同会社健誠館,,合同会社,新潟県,新潟市江南区,横越中央８丁目２番２号,,15,104,9500208,,,,,,,2026-01-14,1,,,,,ケンセイカン,0
2093,8120001283079,新規,0,2026-01-14,2026-01-14,日本宝雅堂株式会社,,株式会社,大阪府,大阪市中央区,南船場１丁目１８番２４号アクシス南船場ビル８０３,,27,128,5420081,,,,,,,2026-01-14,1,,,,,ニホンホウガドウ,0
2094,8120001283302,新規,0,2026-01-14,2026-01-14,株式会社ＮＭＳ,,株式会社,大阪府,大阪市阿倍野区,三明町２丁目１番７号６０１,,27,119,5450005,,,,,,,2026-01-14,1,,,,,エヌエムエス,0
2095,8120001283343,新規,0,2026-01-14,2026-01-14,株式会社アルカナ・キャリア,,株式会社,大阪府,大阪市天王寺区,上本町６丁目９番３－７０１号,,27,109,5430001,,,,,,,2026-01-14,1,,,,,アルカナキャリア,0
2096,8120001283351,新規,0,2026-01-14,2026-01-14,株式会社Ａｌｐｈａ,,株式会社,大阪府,大阪市北区,梅田１丁目２番２号大阪駅前第２ビル１２－１２,,27,127,5300001,,,,,,,2026-01-14,1,,,,,アルファ,0
2097,8120001283368,新規,0,2026-01-14,2026-01-14,昇臣株式会社,,株式会社,大阪府,大阪市東成区,大今里南１丁目１８番７号大宝今里ロイヤルハイツ２０２号室,,27,115,5370013,,,,,,,2026-01-14,1,,,,,ショウジン,0
2098,8120001283401,新規,0,2026-01-14,2026-01-14,東和商事株式会社,,株式会社,大阪府,大阪市東淀川区,豊里２丁目１８－１４,,27,114,5330013,,,,,,,2026-01-14,1,,,,,トウワショウジ,0
2099,8120003031659,新規,0,2026-01-14,2026-01-14,合同会社ＫＹＣ,,合同会社,大阪府,交野市,東倉治１丁目５番８号,,27,230,5760061,,,,,,,2026-01-14,1,,,,,ケーワイシー,0
2102,8120103006940,新規,0,2026-01-14,2026-01-14,龍馬愛寵用品合同会社,,合同会社,大阪府,泉南郡岬町,淡輪６７４番８,,27,366,5990301,,,,,,,2026-01-14,1,,,,,リュウマアイペットヨウヒン,0
2110,8130001081358,新規,0,2026-01-14,2026-01-14,株式会社ＡＬＴＡ,,株式会社,京都府,京都市下京区,小稲荷町８５番地２Ｇｒａｎｄ－Ｋ京都駅前ビル２０１,,26,106,6008208,,,,,,,2026-01-14,1,,,,,アルタ,0
2111,8130001081374,新規,0,2026-01-14,2026-01-14,株式会社ＡＬＬ　ＢＬＡＣＫＳ,,株式会社,京都府,京都市西京区,松室地家町１０番地８,,26,111,6158294,,,,,,,2026-01-14,1,,,,,オールブラックス,0
2114,8130003011057,新規,0,2026-01-14,2026-01-14,合同会社ＤＯＲＣＡＳ,,合同会社,京都府,京都市中京区,壬生東檜町１１番地,,26,104,6048843,,,,,,,2026-01-14,1,,,,,ドルカス,0
2115,8130003011065,新規,0,2026-01-14,2026-01-14,ハートフルワークス合同会社,,合同会社,京都府,京都市下京区,玉津島町２９４コモンルーム四条烏丸４１３号室,,26,106,6008427,,,,,,,2026-01-14,1,,,,,ハートフルワークス,0
2116,8130003011073,新規,0,2026-01-14,2026-01-14,合同会社赤壁工業,,合同会社,京都府,京都市左京区,岩倉長谷町１５７８番地１２,,26,103,6060026,,,,,,,2026-01-14,1,,,,,アカカベコウギョウ,0
2124,8140001141334,新規,0,2026-01-14,2026-01-14,株式会社ニイペイ,,株式会社,兵庫県,西宮市,仁川百合野町２番３０号,,28,204,6620815,,,,,,,2026-01-14,1,,,,,ニイペイ,0
2125,8140001141367,新規,0,2026-01-14,2026-01-14,株式会社ＮＡＤＥＮＯＵＥＮ,,株式会社,兵庫県,淡路市,草香２８０番地１,,28,226,6561556,,,,,,,2026-01-14,1,,,,,ナデノウエン,0
2128,8140003023101,新規,0,2026-01-14,2026-01-14,ＡＮＣＯＲＥ　ＭＥＤＩＣＡＬ合同会社,,合同会社,兵庫県,芦屋市,南宮町７番６号アビタシオンＰＡＲＴＩＩ４０３号,00142169,28,206,6590024,,,,,,,2026-01-14,1,,,,,アンコアメディカル,0
2132,8140005027760,新規,0,2026-01-14,2026-01-14,税理士法人メディレクション,,その他の設立登記法人,兵庫県,神戸市中央区,雲井通４丁目２番２号マークラー神戸ビル９階,,28,110,6510096,,,,,,,2026-01-14,1,,,,,メディレクション,0
2135,8160003003704,新規,0,2026-01-14,2026-01-14,合同会社Ｂｄｅｓｉｇｎ,,合同会社,滋賀県,大津市,下阪本６丁目３４－３０,,25,201,5200105,,,,,,,2026-01-14,1,,,,,ビーデザイン,0
2148,8180001170180,新規,0,2026-01-14,2026-01-14,株式会社Ｕ．Ｆｏｏｄ　Ｃｒｅａｔｉｏｎ,,株式会社,愛知県,名古屋市北区,三軒町６２番地,,23,103,4620004,,,,,,,2026-01-14,1,,,,,ユーフードクリエーション,0
2149,8180001170206,新規,0,2026-01-14,2026-01-14,株式会社ウイング,,株式会社,愛知県,東海市,加木屋町順見５番地の１,,23,222,4770032,,,,,,,2026-01-14,1,,,,,ウイング,0
2150,8180001170230,新規,0,2026-01-14,2026-01-14,新日本東海鍛造株式会社,,株式会社,愛知県,名古屋市東区,白壁４丁目２５番地,,23,102,4610011,,,,,,,2026-01-14,1,,,,,シンニホントウカイタンゾウ,0
2154,8180005021388,新規,0,2026-01-14,2026-01-14,一般社団法人コハルケア教育研修センター,,その他の設立登記法人,愛知県,名古屋市天白区,植田３丁目１２０８番地ハピネス植田３０１,,23,116,4680051,,,,,,,2026-01-14,1,,,,,コハルケアキョウイクケンシュウセンター,0
2156,8180301040595,新規,0,2026-01-14,2026-01-14,株式会社ルースタンド,,株式会社,愛知県,豊橋市,羽根井西町１５番地２,,23,201,4418026,,,,,,,2026-01-14,1,,,,,ルースタンド,0
2157,8180303006867,新規,0,2026-01-14,2026-01-14,ｃｒｙｓｔａｌ　ｅｙｅｓ合同会社,,合同会社,愛知県,豊田市,若林東町棚田４０番地,,23,211,4730914,,,,,,,2026-01-14,1,,,,,クリスタルアイズ,0
2162,8210001020456,新規,0,2026-01-14,2026-01-14,株式会社ライスフィールド永平寺,,株式会社,福井県,吉田郡永平寺町,大月第１８号２１番地１,,18,322,9101322,,,,,,,2026-01-14,1,,,,,ライスフィールドエイヘイジ,0
2166,8240001066042,新規,0,2026-01-14,2026-01-14,株式会社永奥不動産,,株式会社,広島県,三次市,十日市東５丁目４番１０号,,34,209,7280013,,,,,,,2026-01-14,1,,,,,ナガオクフドウサン,0
2170,8260001040887,新規,0,2026-01-14,2026-01-14,株式会社ヘルプ小僧,,株式会社,岡山県,浅口市,鴨方町大字小坂西３７２５番地４,,33,216,7190200,,,,,,,2026-01-14,1,,,,,ヘルプコゾウ,0
2179,8290001112700,新規,0,2026-01-14,2026-01-14,ここたね株式会社,,株式会社,福岡県,久留米市,東町３５番地３,,40,203,8300032,,,,,,,2026-01-14,1,,,,,ココタネ,0
2180,8290001112766,新規,0,2026-01-14,2026-01-14,株式会社Ｌｉｖｅｌｙ,,株式会社,福岡県,福岡市中央区,大手門１丁目８番８－６０５号,,40,133,8100074,,,,,,,2026-01-14,1,,,,,ライブリー,0
2187,8320001021534,新規,0,2026-01-14,2026-01-14,株式会社プラス,,株式会社,大分県,津久見市,大字千怒字藤内４５０８番地の３,,44,207,8792401,,,,,,,2026-01-14,1,,,,,プラス,0
2191,8330001033917,新規,0,2026-01-14,2026-01-14,株式会社リベルリュール,,株式会社,熊本県,熊本市中央区,水前寺６丁目５０番２９号,,43,101,8620950,,,,,,,2026-01-14,1,,,,,リベルリュール,0
2194,8350005006347,新規,0,2026-01-14,2026-01-14,特定非営利活動法人ＨＩＮＡＴＡ　ＳＥＥＤ,,その他の設立登記法人,宮崎県,東臼杵郡門川町,南町３丁目１８番地,,45,421,8890616,,,,,,,2026-01-14,1,,,,,ヒナタシード,0
2198,8370001053399,新規,0,2026-01-14,2026-01-14,株式会社フォールズリバー,,株式会社,宮城県,仙台市泉区,北中山３丁目３２番地の１３,,04,105,9813215,,,,,,,2026-01-14,1,,,,,フォールズリバー,0
2199,8370003007444,新規,0,2026-01-14,2026-01-14,谷合同会社,,合同会社,宮城県,仙台市太白区,鈎取本町２丁目３－３１－１,,04,104,9820805,,,,,,,2026-01-14,1,,,,,タニ,0
2207,8400001017276,新規,0,2026-01-14,2026-01-14,ひころいちファーム株式会社,,株式会社,岩手県,陸前高田市,米崎町字道の上６９番地,,03,210,0292206,,,,,,,2026-01-14,1,,,,,ヒコロイチファーム,0
2223,9010001261953,新規,0,2026-01-14,2026-01-14,株式会社Ｃ・Ｆ準備会社,,株式会社,東京都,中央区,日本橋箱崎町２４番１号,,13,102,1030015,,,,,,,2026-01-14,1,,,,,シーエフジュンビガイシャ,0
2224,9010003049967,新規,0,2026-01-14,2026-01-14,アセットキャピタルパートナーズ合同会社,,合同会社,東京都,中央区,銀座１丁目１２番４号Ｎ＆ＥＢＬＤ．６Ｆ,,13,102,1040061,,,,,,,2026-01-14,1,,,,,アセットキャピタルパートナーズ,0
2237,9010401195355,新規,0,2026-01-14,2026-01-14,ＫＣ株式会社,,株式会社,東京都,港区,赤坂１丁目１２番３２号アーク森ビル１２階,,13,103,1070052,,,,,,,2026-01-14,1,,,,,ケーシー,0
2238,9010401195702,新規,0,2026-01-14,2026-01-14,ＡＩ　Ｐｏｒｔａｌｉｚｅ株式会社,,株式会社,東京都,港区,北青山１丁目３番３号三橋ビル３階,,13,103,1070061,,,,,,,2026-01-14,1,,,,,エーアイポータライズ,0
2239,9010401195710,新規,0,2026-01-14,2026-01-14,株式会社ｓｈｉｇｅｇｅｇｅｇｅ,,株式会社,東京都,港区,六本木３丁目１６番１２号六本木ＫＳビル５Ｆ,,13,103,1060032,,,,,,,2026-01-14,1,,,,,シゲゲゲゲ,0
2241,9010405025236,新規,0,2026-01-14,2026-01-14,一般社団法人大阪ホテルサービス,,その他の設立登記法人,東京都,港区,元赤坂１丁目１番７－１２０９号株式会社赤坂国際会計内,,13,103,1070051,,,,,,,2026-01-14,1,,,,,オオサカホテルサービス,0
2245,9010503008142,新規,0,2026-01-14,2026-01-14,合同会社ＣＳＮ,,合同会社,東京都,台東区,浅草橋１丁目４番４号,,13,106,1110053,,,,,,,2026-01-14,1,,,,,シーエスエヌ,0
2246,9010601068567,新規,0,2026-01-14,2026-01-14,未来調律パートナーズ株式会社,,株式会社,東京都,墨田区,江東橋１丁目５番９号,,13,107,1300022,,,,,,,2026-01-14,1,,,,,ミライチョウリツパートナーズ,0
2249,9010703008074,新規,0,2026-01-14,2026-01-14,合同会社ＭＡＹ　ＷＯＲＫＳ,,合同会社,東京都,品川区,西五反田２丁目９－７ドルミ五反田４０７号,,13,109,1410031,,,,,,,2026-01-14,1,,,,,メイワークス,0
2260,9011001174749,新規,0,2026-01-14,2026-01-14,株式会社サマーダ,,株式会社,東京都,渋谷区,恵比寿南１丁目２０番６号,,13,113,1500022,,,,,,,2026-01-14,1,,,,,サマーダ,0
2261,9011001174773,新規,0,2026-01-14,2026-01-14,株式会社ココリーチ,,株式会社,東京都,渋谷区,渋谷３丁目２７番１号１００ＢＡＮＣＨ２階,,13,113,1500002,,,,,,,2026-01-14,1,,,,,ココリーチ,0
2262,9011001174781,新規,0,2026-01-14,2026-01-14,株式会社ＳＵＵ,,株式会社,東京都,渋谷区,広尾５丁目１９番１７号広尾ＧＴビル６Ｆ,,13,113,1500012,,,,,,,2026-01-14,1,,,,,スー,0
2263,9011001174798,新規,0,2026-01-14,2026-01-14,株式会社暁,,株式会社,東京都,渋谷区,恵比寿１丁目３２番１５－５０５号,,13,113,1500013,,,,,,,2026-01-14,1,,,,,アカツキ,0
2264,9011001174939,新規,0,2026-01-14,2026-01-14,株式会社ｃｏｃｏｆｌｅｕｒ,,株式会社,東京都,渋谷区,円山町５番３号ＭＩＥＵＸ渋谷ビル８階,,13,113,1500044,,,,,,,2026-01-14,1,,,,,ココフルール,0
2265,9011003023268,新規,0,2026-01-14,2026-01-14,合同会社ＣＩＥＬＩＳ,,合同会社,東京都,渋谷区,神南１丁目１１―４ＦＰＧリンクス神南５階,,13,113,1500041,,,,,,,2026-01-14,1,,,,,シエリス,0
2266,9011003023375,新規,0,2026-01-14,2026-01-14,プロダクトベース合同会社,,合同会社,東京都,渋谷区,道玄坂１丁目１０番８号渋谷道玄坂東急ビル２Ｆ－Ｃ,,13,113,1500043,,,,,,,2026-01-14,1,,,,,プロダクトベース,0
2275,9011103016865,新規,0,2026-01-14,2026-01-14,フィールドリンク合同会社,,合同会社,東京都,新宿区,西新宿３丁目３番１３号西新宿水間ビル６階,,13,104,1600023,,,,,,,2026-01-14,1,,,,,フィールドリンク,0
2276,9011103016931,新規,0,2026-01-14,2026-01-14,合同会社Ｂｉｔｔｅｒ　Ｈｏｎｅｙ,,合同会社,東京都,新宿区,新宿６丁目１８‐１２,,13,104,1600022,,,,,,,2026-01-14,1,,,,,ビターハニー,0
2280,9011301031179,新規,0,2026-01-14,2026-01-14,株式会社ＫＩＭＡＭＡ,,株式会社,東京都,杉並区,浜田山３丁目３４番１６号,,13,115,1680065,,,,,,,2026-01-14,1,,,,,キママ,0
2281,9011301031187,新規,0,2026-01-14,2026-01-14,日本橋キャピタル株式会社,,株式会社,東京都,杉並区,堀ノ内１丁目８番３－４３７号,,13,115,1660013,,,,,,,2026-01-14,1,,,,,ニホンバシキャピタル,0
2282,9011303005825,新規,0,2026-01-14,2026-01-14,合同会社ＬＩＺ,,合同会社,東京都,杉並区,上高井戸１丁目１番５号ウィスタリアフラット３０５,,13,115,1680074,,,,,,,2026-01-14,1,,,,,リズ,0
2285,9011601029286,新規,0,2026-01-14,2026-01-14,株式会社ＫＮ,,株式会社,東京都,練馬区,田柄４丁目１０－１０ＬｅｃｔｉｏＢ２０３,,13,120,1790073,,,,,,,2026-01-14,1,,,,,ケーエヌ,0
2286,9011701029079,新規,0,2026-01-14,2026-01-14,ＲＪＡラボ株式会社,,株式会社,東京都,江戸川区,中央２丁目３３番６号,,13,123,1320021,,,,,,,2026-01-14,1,,,,,アールジェーエーラボ,0
2287,9011701029095,新規,0,2026-01-14,2026-01-14,株式会社Ｐｒｅｃｉｓｉｏｎ　Ｍｅｄｉｃｉｎｅ,,株式会社,東京都,江戸川区,松島２丁目３３番５－４０３号,,13,123,1320031,,,,,,,2026-01-14,1,,,,,プレシジョンメディシン,0
2288,9011703004492,新規,0,2026-01-14,2026-01-14,合同会社Ｄ＆Ｃ,,合同会社,東京都,江戸川区,江戸川２丁目９番５号,,13,123,1320013,,,,,,,2026-01-14,1,,,,,ディーアンドシー,0
2289,9011801047286,新規,0,2026-01-14,2026-01-14,株式会社Ｖｉｎｃｕｌｏ,,株式会社,東京都,足立区,舎人１丁目１３番１４号,,13,121,1210831,,,,,,,2026-01-14,1,,,,,ビンクロ,0
2290,9011803007255,新規,0,2026-01-14,2026-01-14,アドバンスド１合同会社,,合同会社,東京都,葛飾区,奥戸２丁目３１番１６号,,13,122,1240022,,,,,,,2026-01-14,1,,,,,アドバンスドワン,0
2296,9012701019276,新規,0,2026-01-14,2026-01-14,株式会社ボトムライン,,株式会社,東京都,東村山市,秋津町５丁目１２－８９、２Ｆ,,13,213,1890001,,,,,,,2026-01-14,1,,,,,ボトムライン,0
2297,9012801024465,新規,0,2026-01-14,2026-01-14,株式会社ｋｍｏｃｙ,,株式会社,東京都,国立市,青柳２丁目８－６６,,13,215,1860013,,,,,,,2026-01-14,1,,,,,コモシー,0
2300,9013303008056,新規,0,2026-01-14,2026-01-14,ＵＮｉＱＭＡ合同会社,,合同会社,東京都,豊島区,東池袋１丁目３４番５号いちご東池袋ビル６階,,13,116,1700013,,,,,,,2026-01-14,1,,,,,ユニクマ,0
2304,9020001166573,新規,0,2026-01-14,2026-01-14,株式会社Ｔｅｎｔ　ｍａｋｅｒｓ,,株式会社,神奈川県,横浜市栄区,尾月８番９号,,14,115,2470027,,,,,,,2026-01-14,1,,,,,テントメーカーズ,0
2305,9020001166615,新規,0,2026-01-14,2026-01-14,３ＢＯＯＫ株式会社,,株式会社,神奈川県,横浜市神奈川区,西寺尾３丁目９番１－Ｄ９１９号,,14,102,2210001,,,,,,,2026-01-14,1,,,,,スリーブック,0
2310,9020005017104,新規,0,2026-01-14,2026-01-14,一般社団法人コットンハーバー・パートナーズ,,その他の設立登記法人,神奈川県,横浜市神奈川区,星野町１０番ＨｉｓｔｏｒｉａＲｅｓｉｄｅｎｓｅ海舟４０７号室,,14,102,2210035,,,,,,,2026-01-14,1,,,,,コットンハーバーパートナーズ,0
2313,9021001087223,新規,0,2026-01-14,2026-01-14,パーソナルアセットデザイン株式会社,,株式会社,神奈川県,相模原市南区,相南１丁目２４番３－５０１号,,14,153,2520312,,,,,,,2026-01-14,1,,,,,パーソナルアセットデザイン,0
2329,9030003028408,新規,0,2026-01-14,2026-01-14,合同会社クアッドエス,,合同会社,埼玉県,さいたま市浦和区,高砂２丁目２番２号渡辺ビル３階,,11,107,3300063,,,,,,,2026-01-14,1,,,,,クアッドエス,0
2333,9040001142028,新規,0,2026-01-14,2026-01-14,Ｏｇｉコンサルティング株式会社,,株式会社,千葉県,市川市,中国分４丁目２４番９号,,12,203,2720835,,,,,,,2026-01-14,1,,,,,オギコンサルティング,0
2334,9040001142060,新規,0,2026-01-14,2026-01-14,株式会社ｙ’ｓコーポレーション,,株式会社,千葉県,成田市,東和田７７３番地,,12,211,2860134,,,,,,,2026-01-14,1,,,,,ワイズコーポレーション,0
2338,9040003029264,新規,0,2026-01-14,2026-01-14,アマテラス管工合同会社,,合同会社,千葉県,市原市,青葉台６丁目２０番地７,,12,219,2990117,,,,,,,2026-01-14,1,,,,,アマテラスカンコウ,0
2339,9040003029272,新規,0,2026-01-14,2026-01-14,合同会社ほのぼの,,合同会社,千葉県,市原市,八幡１４６８番地８,,12,219,2900062,,,,,,,2026-01-14,1,,,,,ホノボノ,0
2342,9050005013744,新規,0,2026-01-14,2026-01-14,特定非営利活動法人坂東ＦＣ,,その他の設立登記法人,茨城県,坂東市,中里８９９番地８,,08,228,3060634,,,,,,,2026-01-14,1,,,,,バンドウエフシー,0
2348,9070001043702,新規,0,2026-01-14,2026-01-14,株式会社Ｒａｉｓｅ,,株式会社,群馬県,館林市,本町１丁目１０番地１２号ファーストビル,,10,207,3740024,,,,,,,2026-01-14,1,,,,,,0
2353,9080001027381,新規,0,2026-01-14,2026-01-14,株式会社ＣＹＦ,,株式会社,静岡県,静岡市葵区,七間町５番地の１チサンマンション七間町１０２Ａ,,22,101,4200035,,,,,,,2026-01-14,1,,,,,シーワイエフ,0
2354,9080105006562,新規,0,2026-01-14,2026-01-14,一般財団法人静岡財団,,その他の設立登記法人,静岡県,沼津市,江原町４番２５号,,22,203,4100049,,,,,,,2026-01-14,1,,,,,シズオカザイダン,0
2357,9090001019691,新規,0,2026-01-14,2026-01-14,株式会社加々美塗装,,株式会社,山梨県,富士吉田市,下吉田東３丁目１８番３号,,19,202,4030008,,,,,,,2026-01-14,1,,,,,カガミトソウ,0
2361,9100003008567,新規,0,2026-01-14,2026-01-14,合同会社軽研,,合同会社,長野県,北佐久郡軽井沢町,大字軽井沢７４６番地１,,20,321,3890102,,,,,,,2026-01-14,1,,,,,カルケン,0
2375,9120001283268,新規,0,2026-01-14,2026-01-14,株式会社Ｌｅ　Ｃｉｅｌ　Ｐａｒｔｎｅｒｓ,,株式会社,大阪府,大阪市此花区,西九条１丁目２５番１３号,,27,104,5540012,,,,,,,2026-01-14,1,,,,,ルシエルパートナーズ,0
2376,9120001283417,新規,0,2026-01-14,2026-01-14,株式会社ＳｅｎＡ,,株式会社,大阪府,大阪市北区,曾根崎２丁目９－１１,,27,127,5300057,,,,,,,2026-01-14,1,,,,,セナ,0
2377,9120001283433,新規,0,2026-01-14,2026-01-14,株式会社ＴＡＨＡＲＡ,,株式会社,大阪府,大阪市中央区,南本町２丁目３番１２－３３７号,,27,128,5410054,,,,,,,2026-01-14,1,,,,,タハラ,0
2380,9120003031658,新規,0,2026-01-14,2026-01-14,合同会社回,,合同会社,大阪府,大阪市中央区,神崎町２番３０－３０３号,,27,128,5400016,,,,,,,2026-01-14,1,,,,,カイ,0
2386,9120901052086,新規,0,2026-01-14,2026-01-14,株式会社Ｃ,,株式会社,大阪府,池田市,神田３丁目３番４号,,27,204,5630043,,,,,,,2026-01-14,1,,,,,シー,0
2389,9122001040070,新規,0,2026-01-14,2026-01-14,株式会社ＧＡＩＡ　Ｄｅｘ,,株式会社,大阪府,東大阪市,新家西町１８番１１号,,27,227,5770028,,,,,,,2026-01-14,1,,,,,ガイアデックス,0
2392,9130001081365,新規,0,2026-01-14,2026-01-14,株式会社京都フードサービス,,株式会社,京都府,京都市中京区,高倉通夷川上る福屋町７１８吉原ビル２Ｆ,,26,104,6040882,,,,,,,2026-01-14,1,,,,,キョウトフードサービス,0
2396,9140001141309,新規,0,2026-01-14,2026-01-14,Ｏｆｆｉｃｅ　Ｓａｔｏｗ株式会社,,株式会社,兵庫県,姫路市,勝原区熊見１２７番地５,,28,201,6711211,,,,,,,2026-01-14,1,,,,,オフィスサトウ,0
2397,9140001141333,新規,0,2026-01-14,2026-01-14,株式会社ｍｏｒｉｎｏｆｕｋｕ,,株式会社,兵庫県,加東市,栄枝４０７番地７７,,28,228,6731332,,,,,,,2026-01-14,1,,,,,モリノフク,0
2399,9140003023026,新規,0,2026-01-14,2026-01-14,合同会社ＡＴＯＭＯＮＧ,,合同会社,兵庫県,姫路市,藤ケ台１５番１３号,,28,201,6700066,,,,,,,2026-01-14,1,,,,,アトモン,0
2400,9140003023034,新規,0,2026-01-14,2026-01-14,ＡＶＡＮＺＡ合同会社,,合同会社,兵庫県,神戸市中央区,磯辺通１丁目１番１８号カサベラ国際プラザビル７０７号室,,28,110,6510084,,,,,,,2026-01-14,1,,,,,アヴァンザ,0
2403,9150001028645,新規,0,2026-01-14,2026-01-14,株式会社ＲＥＳＴ,,株式会社,奈良県,奈良市,高天市町４９番地,,29,201,6308238,,,,,,,2026-01-14,1,,,,,レスト,0
2406,9160003003703,新規,0,2026-01-14,2026-01-14,合同会社絵日和,,合同会社,滋賀県,長浜市,八幡中山町２５１－１－１階６号室,,25,203,5260021,,,,,,,2026-01-14,1,,,,,エビヨリ,0
2414,9180001170155,新規,0,2026-01-14,2026-01-14,株式会社みずき,,株式会社,愛知県,名古屋市中区,栄４丁目１５番１４号栄ハイホーム９１３号,,23,106,4600008,,,,,,,2026-01-14,1,,,,,ミズキ,0
2415,9180001170213,新規,0,2026-01-14,2026-01-14,株式会社光明電気,,株式会社,愛知県,北名古屋市,六ツ師道毛１０２番地１,,23,234,4810001,,,,,,,2026-01-14,1,,,,,コウメイデンキ,0
2416,9180001170279,新規,0,2026-01-14,2026-01-14,株式会社まゆりホールディングス,,株式会社,愛知県,あま市,甚目寺松山７９番,,23,237,4901111,,,,,,,2026-01-14,1,,,,,マユリホールディングス,0
2419,9180003029580,新規,0,2026-01-14,2026-01-14,合同会社ＤＥＳＨＩＤＥ　ＴＥＣＨ,,合同会社,愛知県,名古屋市中村区,名駅５丁目４－１４花車ビル北館１Ｆ－２Ｆ,,23,105,4500002,,,,,,,2026-01-14,1,,,,,デシデテック,0
2420,9180003029597,新規,0,2026-01-14,2026-01-14,合同会社クリアヴィ,,合同会社,愛知県,名古屋市中川区,野田２丁目２５７番地カーザメイシア６０１号,,23,110,4540912,,,,,,,2026-01-14,1,,,,,クリアヴィ,0
2421,9180003029614,新規,0,2026-01-14,2026-01-14,合同会社モル,,合同会社,愛知県,名古屋市中村区,名駅４丁目２４番５号第２森ビル４０１,,23,105,4500002,,,,,,,2026-01-14,1,,,,,モル,0
2423,9180005021379,新規,0,2026-01-14,2026-01-14,一般社団法人対話と五感と庭,,その他の設立登記法人,愛知県,一宮市,小信中島字中平２２,,23,203,4940007,,,,,,,2026-01-14,1,,,,,タイワトゴカントニワ,0
2424,9180005021387,新規,0,2026-01-14,2026-01-14,医療法人純心会,,その他の設立登記法人,愛知県,犬山市,天神町１丁目１番地キャスタ３Ｆ,,23,215,4840073,,,,,,,2026-01-14,1,,,,,ジュンシンカイ,0
2429,9180301040594,新規,0,2026-01-14,2026-01-14,株式会社大陽自動車サービス,,株式会社,愛知県,豊田市,広路町１丁目１２番地,,23,211,4710864,,,,,,,2026-01-14,1,,,,,タイヨウジドウシャサービス,0
2436,9190001032825,新規,0,2026-01-14,2026-01-14,ＷＩＴＨＤＯＭ　Ｍｉｅ株式会社,,株式会社,三重県,松阪市,久米町２０７７番地７,,24,204,5152122,,,,,,,2026-01-14,1,,,,,ウィズダムミエ,0
2443,9230003002565,新規,0,2026-01-14,2026-01-14,合同会社ｙａｄｏｒｉｇｉ,,合同会社,富山県,富山市,西中野本町２－１７－２０２トキワビル,,16,201,9398083,,,,,,,2026-01-14,1,,,,,ヤドリギ,0
2446,9250001021499,新規,0,2026-01-14,2026-01-14,株式会社笑米,,株式会社,山口県,長門市,日置上５４９３番地,,35,211,7594401,,,,,,,2026-01-14,1,,,,,ワラベイ,0
2447,9250003003875,新規,0,2026-01-14,2026-01-14,合同会社ｏｒｉｅｎｓ,,合同会社,山口県,下松市,大字河内１９２８番地の２,,35,207,7440061,,,,,,,2026-01-14,1,,,,,オリエンス,0
2456,9290001112699,新規,0,2026-01-14,2026-01-14,株式会社Ｃ,,株式会社,福岡県,久留米市,東町３５番地３,,40,203,8300032,,,,,,,2026-01-14,1,,,,,シー,0
2457,9290001112708,新規,0,2026-01-14,2026-01-14,ＴｙＭａｙ株式会社,,株式会社,福岡県,福岡市中央区,鳥飼３丁目６番１８－２０１号ラフィーネ鳥飼,,40,133,8100053,,,,,,,2026-01-14,1,,,,,ティーマイ,0
2459,9310001019925,新規,0,2026-01-14,2026-01-14,クリーブラッツ株式会社,,株式会社,長崎県,長崎市,大手３丁目５番２－１０３号,,42,201,8528127,,,,,,,2026-01-14,1,,,,,クリーブラッツ,0
2466,9330001033916,新規,0,2026-01-14,2026-01-14,株式会社宮翔,,株式会社,熊本県,上益城郡嘉島町,大字鯰１９０１番地２,,43,442,8613101,,,,,,,2026-01-14,1,,,,,ミヤショウ,0
2468,9330003011390,新規,0,2026-01-14,2026-01-14,合同会社海苔のくまさん,,合同会社,熊本県,熊本市西区,田崎３丁目３番７号,,43,103,8600053,,,,,,,2026-01-14,1,,,,,ノリノクマサン,0
2473,9350003005119,新規,0,2026-01-14,2026-01-14,合同会社宮崎海援隊,,合同会社,宮崎県,宮崎市,大橋１丁目１９３番地１プチヴェルジェ２０２,,45,201,8800022,,,,,,,2026-01-14,1,,,,,ミヤザキカイエンタイ,0
2477,9360001036247,新規,0,2026-01-14,2026-01-14,株式会社ＭＥＢ　Ｇｒｏｕｐ,,株式会社,沖縄県,那覇市,西２丁目２０－１５ＶｉｄａＦｅｌｉｚ１０１,,47,201,9000036,,,,,,,2026-01-14,1,,,,,メブグループ,0
2488,9400001017291,新規,0,2026-01-14,2026-01-14,株式会社Ａｓｔｅｌｌａ,,株式会社,岩手県,盛岡市,本町通１丁目７番１－４０１号,,03,201,0200015,,,,,,,2026-01-14,1,,,,,アステラ,0
2493,9420001019393,新規,0,2026-01-14,2026-01-14,株式会社電気管理いちのいち,,株式会社,青森県,平川市,新屋町上沢田１番地１,,02,210,0360213,,,,,,,2026-01-14,1,,,,,デンキカンリイチノイチ,0
2501,9430001096003,新規,0,2026-01-14,2026-01-14,株式会社タカダ建築アトリエ,,株式会社,北海道,札幌市南区,川沿一条６丁目６番２７号,,01,106,0050801,,,,,,,2026-01-14,1,,,,,タカダケンチクアトリエ,0
2502,9430001096028,新規,0,2026-01-14,2026-01-14,フジエファームジャパンアグリ株式会社,,株式会社,北海道,雨竜郡雨竜町,字渭の津７４番地５１,,01,436,0782600,,,,,,,2026-01-14,1,,,,,フジエファームジャパンアグリ,0
2503,9430001096036,新規,0,2026-01-14,2026-01-14,株式会社神田漁業,,株式会社,北海道,小樽市,高島１丁目７番１１号,,01,203,0470048,,,,,,,2026-01-14,1,,,,,カンダギョギョウ,0
2504,9430003018475,新規,0,2026-01-14,2026-01-14,合同会社３Ｇ　Ｔｒｕｓｔ,,合同会社,北海道,札幌市中央区,宮の森二条１６丁目６番８号,,01,101,0640952,,,,,,,2026-01-14,1,,,,,スリージートラスト,0
2514,9490003002077,新規,0,2026-01-14,2026-01-14,合同会社すけざえもん,,合同会社,高知県,四万十市,駅前町６－１６,,39,210,7870014,,,,,,,2026-01-14,1,,,,,スケザエモン,0
2516,9500001026720,新規,0,2026-01-14,2026-01-14,鬼北グリーンパートナーズ株式会社,,株式会社,愛媛県,北宇和郡鬼北町,大字奈良４０４８番地２,,38,488,7981351,,,,,,,2026-01-14,1,,,,,キホクグリーンパートナーズ,0
