sequenceNumber,corporateNumber,process,correct,updateDate,changeDate,name,nameImageId,kind,prefectureName,cityName,streetNumber,addressImageId,prefectureCode,cityCode,postCode,addressOutside,addressOutsideImageId,closeDate,closeCause,successorCorporateNumber,changeCause,assignmentDate,latest,enName,enPrefectureName,enCityName,enAddressOutside,furigana,hihyoji
13,1010001262546,新規,0,2026-02-10,2026-02-10,トリニティアール株式会社,,株式会社,東京都,中央区,日本橋人形町３丁目８番２号,,13,102,1030013,,,,,,,2026-02-10,1,,,,,トリニティアール,0
14,1010001262703,新規,0,2026-02-10,2026-02-10,Ａｍａｓｓ株式会社,,株式会社,東京都,中央区,月島１丁目２２番１－３００５,,13,102,1040052,,,,,,,2026-02-10,1,,,,,アマス,0
15,1010001262744,新規,0,2026-02-10,2026-02-10,ＫＡＩ株式会社,,株式会社,東京都,千代田区,有楽町１丁目５番２号東宝日比谷プロムナードビル１１階,,13,101,1000006,,,,,,,2026-02-10,1,,,,,カイ,0
21,1010003050239,新規,0,2026-02-10,2026-02-10,フリーコンサルティング合同会社,,合同会社,東京都,中央区,日本橋室町１丁目１１番１２号日本橋水野ビル７階,,13,102,1030022,,,,,,,2026-02-10,1,,,,,フリーコンサルティング,0
22,1010003050255,新規,0,2026-02-10,2026-02-10,フリーダソリューションズ合同会社,,合同会社,東京都,中央区,銀座１丁目１２番４号Ｎ＆ＥＢＬＤ．６Ｆ,,13,102,1040061,,,,,,,2026-02-10,1,,,,,フリーダソリューションズ,0
23,1010005041343,新規,0,2026-02-10,2026-02-10,橋本デベロップメント特定目的会社,,その他の設立登記法人,東京都,千代田区,丸の内１丁目４番１号東京共同会計事務所内,,13,101,1000005,,,,,,,2026-02-10,1,,,,,ハシモトデベロップメント,0
26,1010401195750,新規,0,2026-02-10,2026-02-10,株式会社ＹＵＲＡ,,株式会社,東京都,港区,六本木４丁目３－１１－２２３,,13,103,1060032,,,,,,,2026-02-10,1,,,,,ユラ,0
27,1010401196336,新規,0,2026-02-10,2026-02-10,株式会社カラマリ,,株式会社,東京都,港区,三田３丁目４番３号,,13,103,1080073,,,,,,,2026-02-10,1,,,,,カラマリ,0
28,1010405025326,新規,0,2026-02-10,2026-02-10,税理士法人スフィア,,その他の設立登記法人,東京都,港区,浜松町２丁目１０番６号ＰＭＯ浜松町ＩＩＩ６階,00142529,13,103,1050013,,,,,,,2026-02-10,1,,,,,スフィア,0
30,1010501055425,新規,0,2026-02-10,2026-02-10,株式会社ＳＴＲＥＥＴ　ＢＡＳＥ　ＴＯＫＹＯ,,株式会社,東京都,台東区,浅草橋３丁目２０番１６号,,13,106,1110053,,,,,,,2026-02-10,1,,,,,ストリートベーストウキョウ,0
39,1010603012068,新規,0,2026-02-10,2026-02-10,合同会社あじさい,,合同会社,東京都,墨田区,横川２丁目１７番８号,,13,107,1300003,,,,,,,2026-02-10,1,,,,,アジサイ,0
40,1010701049020,新規,0,2026-02-10,2026-02-10,株式会社ＫＸＧ役員持株会,,株式会社,東京都,品川区,東大井３丁目２５番４号ビヴレ・アジュール２０７,,13,109,1400011,,,,,,,2026-02-10,1,,,,,ケーエックスジーヤクインモチカブカイ,0
46,1010901058928,新規,0,2026-02-10,2026-02-10,株式会社そえそえ,,株式会社,東京都,世田谷区,上北沢１丁目８番１５号－２,,13,112,1560057,,,,,,,2026-02-10,1,,,,,ソエソエ,0
47,1010901058952,新規,0,2026-02-10,2026-02-10,株式会社ｓｔａｒｇｒｏｗ,,株式会社,東京都,世田谷区,東玉川２丁目３４―１２,,13,112,1580084,,,,,,,2026-02-10,1,,,,,スターグロウ,0
48,1010901058969,新規,0,2026-02-10,2026-02-10,株式会社パレット,,株式会社,東京都,世田谷区,代田６丁目１６番５号,,13,112,1550033,,,,,,,2026-02-10,1,,,,,パレット,0
56,1011001175325,新規,0,2026-02-10,2026-02-10,株式会社Ａｌｐｈａ　Ｒｅａｌｔｙ,,株式会社,東京都,渋谷区,恵比寿西１丁目３６番２－７０１号,,13,113,1500021,,,,,,,2026-02-10,1,,,,,アルファリアルティ,0
57,1011001175390,新規,0,2026-02-10,2026-02-10,プロテア株式会社,,株式会社,東京都,渋谷区,道玄坂１丁目１０番８号渋谷道玄坂東急ビル２Ｆ－Ｃ,,13,113,1500043,,,,,,,2026-02-10,1,,,,,プロテア,0
58,1011003023481,新規,0,2026-02-10,2026-02-10,クロスプランニング合同会社,,合同会社,東京都,目黒区,碑文谷１丁目１９番２１号－３０４号室,,13,110,1520003,,,,,,,2026-02-10,1,,,,,クロスプランニング,0
59,1011003023597,新規,0,2026-02-10,2026-02-10,ステラノヴァ合同会社,,合同会社,東京都,渋谷区,恵比寿西２丁目８番４号ＥＸ恵比寿西ビル５階,,13,113,1500021,,,,,,,2026-02-10,1,,,,,ステラノヴァ,0
64,1011101114661,新規,0,2026-02-10,2026-02-10,株式会社イエロー,,株式会社,東京都,新宿区,西新宿３丁目３番１３号西新宿水間ビル６階,,13,104,1600023,,,,,,,2026-02-10,1,,,,,イエロー,0
65,1011101114686,新規,0,2026-02-10,2026-02-10,ロータスマネジメント株式会社,,株式会社,東京都,新宿区,新宿２丁目５番１２号,,13,104,1600022,,,,,,,2026-02-10,1,,,,,ロータスマネジメント,0
70,1011301031252,新規,0,2026-02-10,2026-02-10,ＳＹＮＥＲＧＩＡ　ＨＯＬＤＩＮＧＳ株式会社,,株式会社,東京都,杉並区,梅里１丁目２２番２６号パラドール東高円寺３Ｆ,,13,115,1660011,,,,,,,2026-02-10,1,,,,,シナジアホールディングス,0
71,1011301031260,新規,0,2026-02-10,2026-02-10,株式会社Ｎｅｓｔｌｉｎｇ,,株式会社,東京都,杉並区,上荻４丁目１４番７３号,,13,115,1670043,,,,,,,2026-02-10,1,,,,,ネストリング,0
84,1011701029160,新規,0,2026-02-10,2026-02-10,株式会社くりはま,,株式会社,東京都,江戸川区,東葛西６丁目２番６号第二須三ビル３０１号室,,13,123,1340084,,,,,,,2026-02-10,1,,,,,クリハマ,0
85,1011801047434,新規,0,2026-02-10,2026-02-10,フューチャーペッツ株式会社,,株式会社,東京都,足立区,梅田３丁目７番１４号,,13,121,1230851,,,,,,,2026-02-10,1,,,,,フューチャーペッツ,0
87,1011803007329,新規,0,2026-02-10,2026-02-10,合同会社クオリア,,合同会社,東京都,足立区,西伊興１丁目１７番２７号,,13,121,1210824,,,,,,,2026-02-10,1,,,,,クオリア,0
89,1012401044128,新規,0,2026-02-10,2026-02-10,ＥＫアセット株式会社,,株式会社,東京都,小金井市,中町３丁目１５番２０号,,13,210,1840012,,,,,,,2026-02-10,1,,,,,イーケーアセット,0
90,1012801024530,新規,0,2026-02-10,2026-02-10,株式会社ＨＡＲＵＲＩ．,,株式会社,東京都,立川市,錦町２丁目１番３２号,,13,202,1900022,,,,,,,2026-02-10,1,,,,,ハルリドット,0
104,1021003017128,新規,0,2026-02-10,2026-02-10,モニカ・ワークス合同会社,,合同会社,神奈川県,茅ヶ崎市,松浪２丁目８番１９－３０３号グレースマンション,,14,207,2530022,,,,,,,2026-02-10,1,,,,,モニカワークス,0
111,1030001170887,新規,0,2026-02-10,2026-02-10,株式会社智電工,,株式会社,埼玉県,川越市,大字小堤６２８番地２,,11,201,3500811,,,,,,,2026-02-10,1,,,,,トモデンコウ,0
112,1030001170953,新規,0,2026-02-10,2026-02-10,株式会社Ｒｉｓ　Ｌｉｆｅ,,株式会社,埼玉県,朝霞市,根岸台７丁目１７番３９号,,11,227,3510005,,,,,,,2026-02-10,1,,,,,リスライフ,0
124,1040001142398,新規,0,2026-02-10,2026-02-10,ノックノック株式会社,,株式会社,千葉県,松戸市,日暮３丁目２７番地の３,,12,207,2702253,,,,,,,2026-02-10,1,,,,,ノックノック,0
125,1040001142407,新規,0,2026-02-10,2026-02-10,株式会社ＴＯＲＷＡ,,株式会社,千葉県,柏市,中央１丁目２－２７－２ｃｌａｒｏ,,12,217,2770023,,,,,,,2026-02-10,1,,,,,トウワ,0
126,1040001142415,新規,0,2026-02-10,2026-02-10,ＫｎｏＶａｌｕｅ株式会社,,株式会社,千葉県,船橋市,高根町６９４番地７,,12,204,2740817,,,,,,,2026-02-10,1,,,,,ノーバリュー,0
127,1040001142431,新規,0,2026-02-10,2026-02-10,株式会社ＥＮＦＯＲＭ,,株式会社,千葉県,千葉市美浜区,真砂２丁目１４番２－１４０５号,,12,106,2610011,,,,,,,2026-02-10,1,,,,,エンフォーム,0
132,1040003029420,新規,0,2026-02-10,2026-02-10,Ａ’ｓＡＸＩＳ合同会社,,合同会社,千葉県,市川市,行徳駅前２丁目２０－１ＴＳＫアベニュー２Ｆ,,12,203,2720133,,,,,,,2026-02-10,1,,,,,アズアクシス,0
133,1040003029486,新規,0,2026-02-10,2026-02-10,合同会社エヴォルブ,,合同会社,千葉県,浦安市,当代島１丁目３番７号フレンドハウス（１０２）,,12,227,2790001,,,,,,,2026-02-10,1,,,,,エヴォルブ,0
136,1050003009933,新規,0,2026-02-10,2026-02-10,合同会社グラン,,合同会社,茨城県,龍ケ崎市,南中島町４３０番地８,,08,208,3010047,,,,,,,2026-02-10,1,,,,,グラン,0
140,1060001038966,新規,0,2026-02-10,2026-02-10,ＷＡＴＴ‐ＴＵＮＥ株式会社,,株式会社,栃木県,佐野市,高萩町１３２２番地９,,09,204,3270821,,,,,,,2026-02-10,1,,,,,ワットチューン,0
141,1060001038990,新規,0,2026-02-10,2026-02-10,地域利活用デザイン株式会社,,株式会社,栃木県,栃木市,都賀町合戦場５５９番８号,,09,203,3280113,,,,,,,2026-02-10,1,,,,,チイキリカツヨウデザイン,0
144,1080003003652,新規,0,2026-02-10,2026-02-10,ＴＲＵＥ　ＷＩＮＤ合同会社,,合同会社,静岡県,静岡市清水区,築地町８番２５号,,22,103,4240944,,,,,,,2026-02-10,1,,,,,トゥルーウインド,0
146,1080401028433,新規,0,2026-02-10,2026-02-10,株式会社ワークサポート湖西,,株式会社,静岡県,湖西市,鷲津１１８２番地の３,,22,221,4310431,,,,,,,2026-02-10,1,,,,,ワークサポートコサイ,0
151,1100001039324,新規,0,2026-02-10,2026-02-10,株式会社Ｌｉｎｋ,,株式会社,長野県,飯田市,鼎名古熊２１７１番地,,20,205,3950804,,,,,,,2026-02-10,1,,,,,リンク,0
159,1120001283969,新規,0,2026-02-10,2026-02-10,株式会社ＬＩＴ．Ｇ,,株式会社,大阪府,交野市,倉治８丁目１５番１号,,27,230,5760051,,,,,,,2026-02-10,1,,,,,リットジー,0
160,1120001283985,新規,0,2026-02-10,2026-02-10,株式会社万両ホールディングス,,株式会社,大阪府,大阪市北区,天神橋２丁目２番１４－５０３号,,27,127,5300041,,,,,,,2026-02-10,1,,,,,マンリョウホールディングス,0
161,1120001284083,新規,0,2026-02-10,2026-02-10,Ｍａｉｄｏ株式会社,,株式会社,大阪府,大阪市北区,中之島３丁目６－３２ダイビル本館５階,,27,127,5300005,,,,,,,2026-02-10,1,,,,,マイド,0
162,1120001284133,新規,0,2026-02-10,2026-02-10,株式会社蓮花,,株式会社,大阪府,大阪市西区,南堀江１丁目２６番２７－１１０２号,,27,106,5500015,,,,,,,2026-02-10,1,,,,,レンカ,0
164,1120003031756,新規,0,2026-02-10,2026-02-10,合同会社ＴＧパートナーズ,,合同会社,大阪府,大阪市北区,梅田１丁目１３－１大阪梅田ツインタワーズ・サウス１５階,,27,127,5300001,,,,,,,2026-02-10,1,,,,,ティージーパートナーズ,0
165,1120003031839,新規,0,2026-02-10,2026-02-10,合同会社タスクフォース,,合同会社,大阪府,大阪市中央区,今橋１丁目７－１４Ｂ１Ｆ,,27,128,5410042,,,,,,,2026-02-10,1,,,,,タスクフォース,0
166,1120003031863,新規,0,2026-02-10,2026-02-10,合同会社Ｇｒｏｕｐ‐Ｙ,,合同会社,大阪府,大阪市平野区,平野馬場２丁目６番２１号,,27,126,5470048,,,,,,,2026-02-10,1,,,,,グループワイ,0
167,1120003031871,新規,0,2026-02-10,2026-02-10,合同会社Ｅｘｅｒａ　Ｂｉｏ　Ｐａｒｔｎｅｒｓ,,合同会社,大阪府,大阪市北区,梅田１丁目２番２号大阪駅前第２ビル１２‐１２,,27,127,5300001,,,,,,,2026-02-10,1,,,,,エクセラバイオパートナーズ,0
169,1120101073196,新規,0,2026-02-10,2026-02-10,株式会社Ｉｃｈｉｎｏｓｅ　Ａｄｖｉｓｏｒｙ,,株式会社,大阪府,堺市堺区,東雲西町１－２－７出原ビル４０４,,27,141,5900000,,,,,,,2026-02-10,1,,,,,イチノセアドバイザリー,0
171,1120103006988,新規,0,2026-02-10,2026-02-10,合同会社エスジェイ,,合同会社,大阪府,泉大津市,寿町３－３８－１０５,,27,206,5950014,,,,,,,2026-02-10,1,,,,,エスジェイ,0
172,1120901052218,新規,0,2026-02-10,2026-02-10,株式会社Ｕｇｒｅｅ,,株式会社,大阪府,吹田市,江坂町２丁目６番１０号江坂ＤＡプラザビル３０２号,,27,205,5640063,,,,,,,2026-02-10,1,,,,,アグリー,0
175,1122003003454,新規,0,2026-02-10,2026-02-10,合同会社ＦＯＸＨＯＵＮＤ,,合同会社,大阪府,東大阪市,横小路町４丁目４番３号,,27,227,5798063,,,,,,,2026-02-10,1,,,,,フォックスハウンド,0
184,1130005017579,新規,0,2026-02-10,2026-02-10,一般社団法人Ｐｅａｃｅ２Ｐｅａｃｅ,,その他の設立登記法人,京都府,京都市上京区,仁和寺街道御前通西入ル下横町２０２番地１５－２,,26,102,6020000,,,,,,,2026-02-10,1,,,,,ピースツーピース,0
189,1140001141687,新規,0,2026-02-10,2026-02-10,株式会社アイシーエム,,株式会社,兵庫県,川西市,緑台５丁目１番地の５４,,28,217,6660129,,,,,,,2026-02-10,1,,,,,アイシーエム,0
190,1140001141695,新規,0,2026-02-10,2026-02-10,株式会社Ｔａｋｅｍｏｔｏ　Ｇｒｅｅｎ　Ｗｏｒｋｓ,,株式会社,兵庫県,多可郡多可町,加美区豊部１１１番地,,28,365,6791201,,,,,,,2026-02-10,1,,,,,タケモトグリーンワークス,0
193,1150001028719,新規,0,2026-02-10,2026-02-10,株式会社たなごころ,,株式会社,奈良県,橿原市,南八木町３丁目７番７－１号,,29,205,6340077,,,,,,,2026-02-10,1,,,,,タナゴコロ,0
199,1180001170559,新規,0,2026-02-10,2026-02-10,株式会社ＭＴホールディングス,,株式会社,愛知県,東海市,名和町天王前３３番地の１,,23,222,4760002,,,,,,,2026-02-10,1,,,,,エムティーホールディングス,0
200,1180001170609,新規,0,2026-02-10,2026-02-10,株式会社凛音,,株式会社,愛知県,名古屋市緑区,浦里５丁目１番地１,,23,114,4580847,,,,,,,2026-02-10,1,,,,,リンネ,0
201,1180001170617,新規,0,2026-02-10,2026-02-10,ＧＫホールディングス株式会社,,株式会社,愛知県,名古屋市中村区,稲上町１丁目４６番地,,23,105,4530066,,,,,,,2026-02-10,1,,,,,ジーケーホールディングス,0
202,1180001170641,新規,0,2026-02-10,2026-02-10,ＲＯＭ株式会社,,株式会社,愛知県,名古屋市中村区,名駅３丁目４番１０号アルティメイト名駅１ｓｔ２階,,23,105,4500002,,,,,,,2026-02-10,1,,,,,ロム,0
207,1190001010862,新規,0,2026-02-10,2026-02-10,株式会社籔谷工務店,,株式会社,三重県,多気郡明和町,大字上野６番地,,24,442,5150312,,,,,,,2026-02-10,1,,,,,ヤブタニコウムテン,0
213,1200001044702,新規,0,2026-02-10,2026-02-10,株式会社ＧＥＣＫＯ,,株式会社,岐阜県,美濃市,松森１１５５番地４,,21,207,5013753,,,,,,,2026-02-10,1,,,,,ゲッコー,0
214,1200001044710,新規,0,2026-02-10,2026-02-10,アイエフ株式会社,,株式会社,岐阜県,岐阜市,光栄町１丁目１５番地１,,21,201,5020823,,,,,,,2026-02-10,1,,,,,アイエフ,0
215,1200003007228,新規,0,2026-02-10,2026-02-10,合同会社ｓｅｒｅｎｏ,,合同会社,岐阜県,多治見市,希望ケ丘４丁目５４番地,,21,204,5070008,,,,,,,2026-02-10,1,,,,,セレーノ,0
219,1230001021293,新規,0,2026-02-10,2026-02-10,よねだ農園株式会社,,株式会社,富山県,下新川郡入善町,横山３５７番地,,16,342,9390616,,,,,,,2026-02-10,1,,,,,ヨネダノウエン,0
223,1270005005677,新規,0,2026-02-10,2026-02-10,一般社団法人ホップシャス,,その他の設立登記法人,鳥取県,米子市,義方町１０番１６号,,31,202,6830844,,,,,,,2026-02-10,1,,,,,ホップシャス,0
228,1290001113036,新規,0,2026-02-10,2026-02-10,株式会社ＨＡＹＡＴＯ,,株式会社,福岡県,嘉穂郡桂川町,大字土師１９５９番地１,,40,421,8200607,,,,,,,2026-02-10,1,,,,,ハヤト,0
229,1290001113060,新規,0,2026-02-10,2026-02-10,株式会社ＫＹＭＥＨＳ,,株式会社,福岡県,福岡市博多区,東那珂２丁目１０番２５－５１０号,,40,132,8120892,,,,,,,2026-02-10,1,,,,,カイムス,0
230,1290001113069,新規,0,2026-02-10,2026-02-10,株式会社エコ・テクル,,株式会社,福岡県,福岡市博多区,博多駅東１丁目１番２５－６０２号,,40,132,8120013,,,,,,,2026-02-10,1,,,,,エコテクル,0
231,1290001113077,新規,0,2026-02-10,2026-02-10,東明株式会社,,株式会社,福岡県,福岡市早良区,室見１丁目１番１９号ＳＡＺＡ２１飛石Ａ棟,,40,137,8140015,,,,,,,2026-02-10,1,,,,,トウメイ,0
234,1290005019989,新規,0,2026-02-10,2026-02-10,一般社団法人日韓人文化交流会,,その他の設立登記法人,福岡県,福岡市早良区,東入部２丁目３５番７号,,40,137,8111102,,,,,,,2026-02-10,1,,,,,ニッカンジンブンカコウリュユカイ,0
235,1290005019997,新規,0,2026-02-10,2026-02-10,特定非営利活動法人ＰａｗＰｅａｃｅ　Ｉｔｏｓｈｉｍａ,,その他の設立登記法人,福岡県,糸島市,志摩芥屋８３７番地,,40,230,8191335,,,,,,,2026-02-10,1,,,,,,0
238,1330003011431,新規,0,2026-02-10,2026-02-10,合同会社ＣＡＲｚ,,合同会社,熊本県,合志市,御代志１６９０－８－２０５,,43,216,8611104,,,,,,,2026-02-10,1,,,,,カーズ,0
241,1370001053471,新規,0,2026-02-10,2026-02-10,株式会社ＨＫ,,株式会社,宮城県,多賀城市,下馬２丁目１番１６号２０２,,04,209,9850835,,,,,,,2026-02-10,1,,,,,エイチケー,0
243,1370005011070,新規,0,2026-02-10,2026-02-10,一般社団法人ＦＴＦ,,その他の設立登記法人,宮城県,牡鹿郡女川町,大原１２番地大原住宅５－３０４号,,04,581,9862266,,,,,,,2026-02-10,1,,,,,エフティーエフ,0
248,1390001018233,新規,0,2026-02-10,2026-02-10,東京福江貿易株式会社,,株式会社,山形県,米沢市,門東町３丁目１番４６号２Ｆ,,06,202,9920039,,,,,,,2026-02-10,1,,,,,トウキョウフクエボウエキ,0
255,1430001096233,新規,0,2026-02-10,2026-02-10,株式会社エモリスリンク,,株式会社,北海道,札幌市中央区,大通西７丁目１番１号,,01,101,0600042,,,,,,,2026-02-10,1,,,,,エモリスリンク,0
258,1430003018549,新規,0,2026-02-10,2026-02-10,合同会社ＣＨＥＩＹＫ,,合同会社,北海道,札幌市東区,伏古十一条１丁目３番２１号,,01,103,0070871,,,,,,,2026-02-10,1,,,,,チェイキー,0
262,1460101007814,新規,0,2026-02-10,2026-02-10,株式会社十勝のそら動物病院,,株式会社,北海道,帯広市,東十二条南８丁目１番地６,,01,207,0800812,,,,,,,2026-02-10,1,,,,,トカチノソラドウブツビョウイン,0
263,1470001021088,新規,0,2026-02-10,2026-02-10,株式会社ＳＫＹＨＯＵＳＥ,,株式会社,香川県,高松市,西宝町１丁目５番２７－１０４号,,37,201,7600004,,,,,,,2026-02-10,1,,,,,スカイハウス,0
280,2010001262529,新規,0,2026-02-10,2026-02-10,ＹＯＵ株式会社,,株式会社,東京都,中央区,日本橋室町１丁目１１番１２号７Ｆ,,13,102,1030022,,,,,,,2026-02-10,1,,,,,ワイオーユー,0
281,2010001262644,新規,0,2026-02-10,2026-02-10,東邦トラストホールディングス株式会社,,株式会社,東京都,千代田区,内神田１丁目５番１１号セントラル大手町２０２号,,13,101,1010047,,,,,,,2026-02-10,1,,,,,トウホウトラストホールディングス,0
282,2010001262702,新規,0,2026-02-10,2026-02-10,株式会社ＫＵＲＡＮＣＨＥ,,株式会社,東京都,中央区,銀座１丁目２２番１１号銀座大竹ビジデンス２Ｆ,,13,102,1040061,,,,,,,2026-02-10,1,,,,,クランチェ,0
285,2010003050246,新規,0,2026-02-10,2026-02-10,合同会社ＧＯＡＴ,,合同会社,東京都,千代田区,神田富山町１６－１リヴシティ神田１２０２,,13,101,1010043,,,,,,,2026-02-10,1,,,,,ゴート,0
286,2010003050312,新規,0,2026-02-10,2026-02-10,合同会社ＹＵＴＡＣＯＣＯ,,合同会社,東京都,千代田区,内神田１丁目３番７号,,13,101,1010047,,,,,,,2026-02-10,1,,,,,ユタココ,0
287,2010003050329,新規,0,2026-02-10,2026-02-10,合同会社ＭＵＬ,,合同会社,東京都,中央区,銀座１丁目２２番１１号大竹ビジデンス２Ｆ,,13,102,1040061,,,,,,,2026-02-10,1,,,,,マル,0
288,2010003050345,新規,0,2026-02-10,2026-02-10,Ｍａｄｄｉｅ　Ｗｏｒｋｓ合同会社,,合同会社,東京都,中央区,日本橋室町１丁目１１番１２号,,13,102,1030022,,,,,,,2026-02-10,1,,,,,マディワークス,0
290,2010005041350,新規,0,2026-02-10,2026-02-10,一般財団法人日本文化数寄財団,,その他の設立登記法人,東京都,中央区,京橋３丁目１２番６号ニュー京橋ビル５階,,13,102,1040031,,,,,,,2026-02-10,1,,,,,ニホンブンカスキザイダン,0
291,2010005041359,新規,0,2026-02-10,2026-02-10,一般社団法人東京日本橋ベースボールクラブ,,その他の設立登記法人,東京都,中央区,日本橋兜町２０－５八千代ビル８階,,13,102,1030026,,,,,,,2026-02-10,1,,,,,トウキョウニホンバシベースボールクラブ,0
292,2010005041367,新規,0,2026-02-10,2026-02-10,ＦＬインベストメント３号一般社団法人,,その他の設立登記法人,東京都,中央区,京橋２丁目１２番６号ＡＯＪ税理士法人内,,13,102,1040031,,,,,,,2026-02-10,1,,,,,エフエルインベストメントサンゴウ,0
303,2010401196442,新規,0,2026-02-10,2026-02-10,株式会社ＹｕｔａＦｕｊｉｉ,,株式会社,東京都,港区,北青山１丁目３番１号アールキューブ青山３階,,13,103,1070061,,,,,,,2026-02-10,1,,,,,ユウタフジイ,0
304,2010403037140,新規,0,2026-02-10,2026-02-10,合同会社内向型,,合同会社,東京都,港区,南青山３丁目１番３６号青山丸竹ビル６Ｆ,,13,103,1070062,,,,,,,2026-02-10,1,,,,,ナイコウガタ,0
305,2010403037256,新規,0,2026-02-10,2026-02-10,大阪・ＪＤ・ホテル・インベストメンツ合同会社,,合同会社,東京都,港区,虎ノ門３丁目２２番１０－２０１号,,13,103,1050001,,,,,,,2026-02-10,1,,,,,オオサカジェイディーホテルインベストメンツ,0
306,2010405025333,新規,0,2026-02-10,2026-02-10,一般社団法人アンバー・ワン,,その他の設立登記法人,東京都,港区,虎ノ門３丁目１８番１２－５０２号株式会社虎ノ門会計神谷町分室内,,13,103,1050001,,,,,,,2026-02-10,1,,,,,アンバーワン,0
321,2011001175365,新規,0,2026-02-10,2026-02-10,株式会社オールジャパンエステート,,株式会社,東京都,渋谷区,桜丘町１５－１４フジビル４０．７Ｆ,,13,113,1500031,,,,,,,2026-02-10,1,,,,,オールジャパンエステート,0
322,2011001175555,新規,0,2026-02-10,2026-02-10,株式会社ＩＣＨＩ．ＧＯ,,株式会社,東京都,渋谷区,恵比寿西２丁目８番４号ＥＸ恵比寿西ビル５階,,13,113,1500021,,,,,,,2026-02-10,1,,,,,イチゴ,0
323,2011001175588,新規,0,2026-02-10,2026-02-10,ＭｅｄＳｙｎｔｈ株式会社,,株式会社,東京都,渋谷区,松濤１丁目１７番５号,,13,113,1500046,,,,,,,2026-02-10,1,,,,,メッドシンス,0
324,2011001175662,新規,0,2026-02-10,2026-02-10,株式会社Ｍｅｄｉｃａｌ　ＡＩ,,株式会社,東京都,目黒区,青葉台３丁目６－２８－２２０８,,13,110,1530042,,,,,,,2026-02-10,1,,,,,メディカルエーアイ,0
325,2011005011351,新規,0,2026-02-10,2026-02-10,一般社団法人スタートパートナーズ,,その他の設立登記法人,東京都,目黒区,自由が丘２丁目１６番１２号ＲＪ３,,13,110,1520035,,,,,,,2026-02-10,1,,,,,スタートパートナーズ,0
329,2011101114669,新規,0,2026-02-10,2026-02-10,大内組株式会社,,株式会社,東京都,新宿区,住吉町１５番地１２ラ・カーサ・デ・アドラシオン２０１号,,13,104,1620065,,,,,,,2026-02-10,1,,,,,オオウチグミ,0
332,2011103017060,新規,0,2026-02-10,2026-02-10,合同会社ミナミのパン屋,,合同会社,東京都,新宿区,西新宿３丁目３番１３号西新宿水間ビル２Ｆ,,13,104,1600023,,,,,,,2026-02-10,1,,,,,ミナミノパンヤ,0
334,2011201026946,新規,0,2026-02-10,2026-02-10,正晴妍居株式会社,,株式会社,東京都,中野区,中野５丁目２４－２０ニュー中野マンション７０５,,13,114,1640001,,,,,,,2026-02-10,1,,,,,ショウセイケンキョ,0
338,2011301031251,新規,0,2026-02-10,2026-02-10,株式会社ＴＫＲ,,株式会社,東京都,杉並区,下高井戸１丁目２４番１３号,,13,115,1680073,,,,,,,2026-02-10,1,,,,,ティーケーアール,0
339,2011403005021,新規,0,2026-02-10,2026-02-10,合同会社ＩＩ　ＰＡＵＳＥ　ＴＯＫＹＯ,,合同会社,東京都,板橋区,高島平７丁目１９番５号,,13,119,1750082,,,,,,,2026-02-10,1,,,,,パウゼトーキョー,0
350,2012401044119,新規,0,2026-02-10,2026-02-10,株式会社北工務店,,株式会社,東京都,稲城市,押立９２４番地の４,,13,225,2060811,,,,,,,2026-02-10,1,,,,,キタコウムテン,0
352,2012701019316,新規,0,2026-02-10,2026-02-10,ＩＣＨＩＹＯ建設株式会社,,株式会社,東京都,清瀬市,中里２丁目１１３７番地２松村ビルＩＩ２０２号,00142531,13,221,2040003,,,,,,,2026-02-10,1,,,,,イチヨウケンセツ,0
353,2012703003466,新規,0,2026-02-10,2026-02-10,合同会社アークサービス,,合同会社,東京都,西東京市,新町６丁目１１－１８メゾンクレールＡ１０１,,13,229,2020023,,,,,,,2026-02-10,1,,,,,,0
356,2013303008087,新規,0,2026-02-10,2026-02-10,光通信合同会社,,合同会社,東京都,豊島区,西池袋１丁目４番１０号,,13,116,1710021,,,,,,,2026-02-10,1,,,,,ヒカリツウシン,0
362,2020001167000,新規,0,2026-02-10,2026-02-10,株式会社ムラカミ,,株式会社,神奈川県,横浜市磯子区,岡村２丁目１０番６号,,14,107,2350021,,,,,,,2026-02-10,1,,,,,ムラカミ,0
363,2021003017102,新規,0,2026-02-10,2026-02-10,合同会社ゆい通訳コンサルティング,,合同会社,神奈川県,藤沢市,渡内２丁目９－４,,14,205,2510011,,,,,,,2026-02-10,1,,,,,ユイツウヤクコンサルティング,0
366,2030001170936,新規,0,2026-02-10,2026-02-10,株式会社ＬＩＦＥＡＲＴＨ,,株式会社,埼玉県,さいたま市大宮区,仲町１丁目５４番地３ビジョナリーＩＩＩ４Ｆ,00142523,11,103,3300845,,,,,,,2026-02-10,1,,,,,リファース,0
367,2030001170952,新規,0,2026-02-10,2026-02-10,株式会社リケアー,,株式会社,埼玉県,上尾市,大字上尾下６５４－２ＤｒｅａｍＯｎｅ１０２号室,,11,219,3620025,,,,,,,2026-02-10,1,,,,,リケアー,0
368,2030001170960,新規,0,2026-02-10,2026-02-10,株式会社あぶこちて,,株式会社,埼玉県,さいたま市南区,曲本４丁目３番１３号,,11,108,3360033,,,,,,,2026-02-10,1,,,,,アブコチテ,0
369,2030001170969,新規,0,2026-02-10,2026-02-10,ワイドゴー株式会社,,株式会社,埼玉県,所沢市,大字南永井１９番地の１エステスクエア所沢２０１,,11,208,3590011,,,,,,,2026-02-10,1,,,,,ワイドゴー,0
374,2030003028562,新規,0,2026-02-10,2026-02-10,合同会社ヨゾラる,,合同会社,埼玉県,さいたま市浦和区,木崎３丁目７‐２５ハイツサントピア２０５,,11,107,3300042,,,,,,,2026-02-10,1,,,,,ヨゾラル,0
380,2040001142397,新規,0,2026-02-10,2026-02-10,株式会社ＢＯＬＥＨ,,株式会社,千葉県,流山市,東初石２丁目７８番地の１ダイアパレスコータ・コート２１２,,12,220,2700114,,,,,,,2026-02-10,1,,,,,ボレ,0
381,2040001142505,新規,0,2026-02-10,2026-02-10,ｂａｓｈｏＦｌｏｗ株式会社,,株式会社,千葉県,千葉市稲毛区,あやめ台２番５棟５０１号,,12,103,2630052,,,,,,,2026-02-10,1,,,,,バショウフロー,0
388,2040003029428,新規,0,2026-02-10,2026-02-10,合同会社青光,,合同会社,千葉県,習志野市,実籾５丁目１８－９ＬａｍｉａＣａｓａ１０１,,12,216,2750002,,,,,,,2026-02-10,1,,,,,セイコウ,0
389,2040003029436,新規,0,2026-02-10,2026-02-10,健誠工業合同会社,,合同会社,千葉県,市原市,君塚３丁目２０番１４号,,12,219,2900051,,,,,,,2026-02-10,1,,,,,ケンセイコウギョウ,0
390,2040003029477,新規,0,2026-02-10,2026-02-10,合同会社８４３,,合同会社,千葉県,船橋市,夏見台２丁目１０－１８,,12,204,2730866,,,,,,,2026-02-10,1,,,,,ハチヨンサン,0
397,2050001057958,新規,0,2026-02-10,2026-02-10,株式会社武蔵野建設,,株式会社,茨城県,つくば市,学園の森１丁目７番地５,,08,220,3050816,,,,,,,2026-02-10,1,,,,,ムサシノケンセツ,0
412,2080003003651,新規,0,2026-02-10,2026-02-10,ケアシス合同会社,,合同会社,静岡県,牧之原市,坂部５６４番地６,,22,226,4210412,,,,,,,2026-02-10,1,,,,,ケアシス,0
415,2080401028432,新規,0,2026-02-10,2026-02-10,株式会社三和ホールディング,,株式会社,静岡県,湖西市,吉美３４３６番地,,22,221,4310441,,,,,,,2026-02-10,1,,,,,サンワホールディング,0
416,2090001019731,新規,0,2026-02-10,2026-02-10,株式会社ロバストエコシステム,,株式会社,山梨県,甲府市,武田４丁目３―１１,,19,201,4000016,,,,,,,2026-02-10,1,,,,,ロバストエコシステム,0
422,2100001039323,新規,0,2026-02-10,2026-02-10,株式会社小林農園,,株式会社,長野県,下伊那郡根羽村,４３５５番地,,20,410,3950701,,,,,,,2026-02-10,1,,,,,コバヤシノウエン,0
430,2120001283885,新規,0,2026-02-10,2026-02-10,株式会社ＮＡＢＵＲＡ,,株式会社,大阪府,大阪市都島区,高倉町１丁目８番３１号,,27,102,5340011,,,,,,,2026-02-10,1,,,,,ナブラ,0
431,2120001283976,新規,0,2026-02-10,2026-02-10,Ｔ＆Ｓアセットマネジメント株式会社,,株式会社,大阪府,大阪市西淀川区,御幣島２丁目１１番２７－３０４号,,27,113,5550012,,,,,,,2026-02-10,1,,,,,ティーアンドエスアセットマネジメント,0
432,2120001284017,新規,0,2026-02-10,2026-02-10,楽屋の都株式会社,,株式会社,大阪府,大阪市中央区,東心斎橋１丁目３番５－２０１号,,27,128,5420083,,,,,,,2026-02-10,1,,,,,ラクヤノミヤコ,0
433,2120001284074,新規,0,2026-02-10,2026-02-10,株式会社Ｅｌｍｏ,,株式会社,大阪府,大阪市平野区,瓜破２丁目１番３６号メゾンド・ギャルソンＶ５０１,,27,126,5470024,,,,,,,2026-02-10,1,,,,,エルモ,0
437,2120003031870,新規,0,2026-02-10,2026-02-10,クリナ合同会社,,合同会社,大阪府,大阪市鶴見区,浜３丁目８番４３号トレンディ鶴見３０７号,,27,124,5380035,,,,,,,2026-02-10,1,,,,,クリナ,0
438,2120003031879,新規,0,2026-02-10,2026-02-10,合同会社アルクス,,合同会社,大阪府,大阪市住吉区,万代６丁目４番８号,,27,120,5580055,,,,,,,2026-02-10,1,,,,,アルクス,0
439,2120003031895,新規,0,2026-02-10,2026-02-10,合同会社Ｕｎｉｑｕｅ　Ｌｏｇ,,合同会社,大阪府,大阪市北区,梅田１丁目２番２号大阪駅前第２ビル１２－１２,,27,127,5300001,,,,,,,2026-02-10,1,,,,,ユニークログ,0
440,2120003031912,新規,0,2026-02-10,2026-02-10,Ｗｏｒｌｄ　Ｆｒｉｅｎｄｓ　Ｃｌｕｂ合同会社,,合同会社,大阪府,大阪市都島区,都島北通２丁目２２番３２‐５０５号,,27,102,5340014,,,,,,,2026-02-10,1,,,,,ワールドフレンズクラブ,0
443,2120101073195,新規,0,2026-02-10,2026-02-10,株式会社ＡｇｒｉＢｅｅｔｓ,,株式会社,大阪府,松原市,天美北５丁目５番５号,,27,217,5800031,,,,,,,2026-02-10,1,,,,,アグリビーツ,0
444,2120101073204,新規,0,2026-02-10,2026-02-10,株式会社幸商事,,株式会社,大阪府,松原市,天美北７丁目６－３４,,27,217,5800031,,,,,,,2026-02-10,1,,,,,サチショウジ,0
449,2120901052200,新規,0,2026-02-10,2026-02-10,株式会社ＶｅｌａｒｃＡ,,株式会社,大阪府,豊中市,上津島１丁目４番２７号,,27,203,5610843,,,,,,,2026-02-10,1,,,,,ヴェラルカ,0
452,2122003003453,新規,0,2026-02-10,2026-02-10,合同会社Ｌ．ｂ．ｔ,,合同会社,大阪府,柏原市,古町１丁目６番４１号,,27,221,5820008,,,,,,,2026-02-10,1,,,,,エルビーティー,0
453,2130001081578,新規,0,2026-02-10,2026-02-10,株式会社ＬＩＦＥ　ＩＮＮＯＶＡＴＩＯＮ,,株式会社,京都府,京田辺市,薪天神堂４１番地,,26,211,6100341,,,,,,,2026-02-10,1,,,,,ライフイノベーション,0
454,2130001081586,新規,0,2026-02-10,2026-02-10,株式会社ｍｏｎ,,株式会社,京都府,京都市北区,北野西白梅町４０番地,,26,101,6038327,,,,,,,2026-02-10,1,,,,,モン,0
455,2130003011145,新規,0,2026-02-10,2026-02-10,合同会社ＴＮパートナーズ,,合同会社,京都府,京都市左京区,岩倉村松町１２３番地４８,,26,103,6060034,,,,,,,2026-02-10,1,,,,,ティーエヌパートナーズ,0
457,2140001141629,新規,0,2026-02-10,2026-02-10,株式会社ＮＩＫＡ,,株式会社,兵庫県,伊丹市,中野西１丁目１３７番７号ＫＯＹＡＢＡＳＥ０６,,28,207,6640023,,,,,,,2026-02-10,1,,,,,ニカ,0
458,2140001141686,新規,0,2026-02-10,2026-02-10,株式会社Ｈａｐｐｙ　Ｌｉｆｅ,,株式会社,兵庫県,高砂市,米田町米田１１４５番地の２,,28,216,6760805,,,,,,,2026-02-10,1,,,,,ハッピーライフ,0
459,2140001141694,新規,0,2026-02-10,2026-02-10,株式会社ワンゼット神戸西,,株式会社,兵庫県,神戸市東灘区,深江浜町１２５,,28,101,6580023,,,,,,,2026-02-10,1,,,,,ワンゼットコウベニシ,0
460,2140001141703,新規,0,2026-02-10,2026-02-10,株式会社タンクテックホールディングス,,株式会社,兵庫県,明石市,二見町南二見１番地の３６,,28,203,6740093,,,,,,,2026-02-10,1,,,,,タンクテックホールディングス,0
462,2140003023197,新規,0,2026-02-10,2026-02-10,合同会社ふじ,,合同会社,兵庫県,明石市,二見町福里３６０番地の１９,,28,203,6740091,,,,,,,2026-02-10,1,,,,,フジ,0
465,2150003003834,新規,0,2026-02-10,2026-02-10,合同会社奥田,,合同会社,奈良県,大和郡山市,筒井町２２９番地,,29,203,6391123,,,,,,,2026-02-10,1,,,,,オクダ,0
468,2170001018980,新規,0,2026-02-10,2026-02-10,株式会社岡崎ファーム,00142532,株式会社,和歌山県,田辺市,中三栖３６９,,30,206,6460215,,,,,,,2026-02-10,1,,,,,オカザキファーム,0
473,2180001170590,新規,0,2026-02-10,2026-02-10,株式会社ｉｖｏｒｙ,,株式会社,愛知県,名古屋市中区,栄５丁目２６番３９号ＧＳ栄ビル６０４,,23,106,4600008,,,,,,,2026-02-10,1,,,,,アイボリー,0
474,2180001170599,新規,0,2026-02-10,2026-02-10,株式会社ロイヤルブリッジ,,株式会社,愛知県,名古屋市港区,港明２丁目４番１号,,23,111,4550018,,,,,,,2026-02-10,1,,,,,ロイヤルブリッジ,0
482,2200001044701,新規,0,2026-02-10,2026-02-10,株式会社北野組,,株式会社,岐阜県,下呂市,小川１８７２番地７,,21,220,5092203,,,,,,,2026-02-10,1,,,,,キタノグミ,0
503,2280001009580,新規,0,2026-02-10,2026-02-10,株式会社やぁＭａｎ,,株式会社,島根県,松江市,西津田７丁目１番２５‐８０５号,,32,201,6900017,,,,,,,2026-02-10,1,,,,,,0
506,2280003002039,新規,0,2026-02-10,2026-02-10,合同会社ＯＨＡＮＡ　ＪＯＹ,,合同会社,島根県,松江市,長海町６００番地９,,32,201,6901112,,,,,,,2026-02-10,1,,,,,オハナジョイ,0
510,2290001113035,新規,0,2026-02-10,2026-02-10,株式会社ジャパンコマース,,株式会社,福岡県,福岡市博多区,博多駅前３丁目７番３－３０１号皐月マンション博多,,40,132,8120011,,,,,,,2026-02-10,1,,,,,ジャパンコマース,0
511,2290001113051,新規,0,2026-02-10,2026-02-10,Ｃｕｒｉｏｍｅ株式会社,,株式会社,福岡県,福岡市博多区,博多駅前１丁目２３番２号ＰａｒｋＦｒｏｎｔ博多駅前１丁目５Ｆ－Ｂ,,40,132,8120011,,,,,,,2026-02-10,1,,,,,,0
512,2290001113068,新規,0,2026-02-10,2026-02-10,株式会社ＦＳＴ,,株式会社,福岡県,福岡市中央区,大名２丁目１番４２号,,40,133,8100041,,,,,,,2026-02-10,1,,,,,エフエスティー,0
513,2290001113084,新規,0,2026-02-10,2026-02-10,レピソード株式会社,,株式会社,福岡県,福岡市中央区,天神１丁目９番１７号,,40,133,8100001,,,,,,,2026-02-10,1,,,,,レピソード,0
516,2290003018034,新規,0,2026-02-10,2026-02-10,合同会社ｆａｄｏ,,合同会社,福岡県,福岡市南区,井尻３丁目１０番１２号政都ビル１－Ｎ,,40,134,8111302,,,,,,,2026-02-10,1,,,,,ファド,0
517,2290003018042,新規,0,2026-02-10,2026-02-10,合同会社アイランドスター福岡,,合同会社,福岡県,福岡市中央区,大名２丁目１１番２１号,,40,133,8100041,,,,,,,2026-02-10,1,,,,,アイランドスターフクオカ,0
525,2330001033963,新規,0,2026-02-10,2026-02-10,株式会社ＰＲＳ山鹿,,株式会社,熊本県,山鹿市,宗方通７０２番地,,43,208,8610518,,,,,,,2026-02-10,1,,,,,ピーアールエスヤマガ,0
528,2340001027964,新規,0,2026-02-10,2026-02-10,株式会社Ｖｅｌｘ,,株式会社,鹿児島県,鹿児島市,小野４丁目１９番１０号,,46,201,8900021,,,,,,,2026-02-10,1,,,,,ヴェロクス,0
535,2370001053462,新規,0,2026-02-10,2026-02-10,株式会社ｃｉｅｌ,,株式会社,宮城県,仙台市太白区,西中田５丁目２７番２２号,,04,104,9811105,,,,,,,2026-02-10,1,,,,,シエル,0
542,2410003004211,新規,0,2026-02-10,2026-02-10,合同会社ＡＭｉＧＯ,,合同会社,秋田県,秋田市,新屋朝日町１２番１４号,,05,201,0101613,,,,,,,2026-02-10,1,,,,,,0
547,2430001096216,新規,0,2026-02-10,2026-02-10,株式会社コアブレイン,,株式会社,北海道,札幌市中央区,北三条西３０丁目５番８号,,01,101,0640823,,,,,,,2026-02-10,1,,,,,コアブレイン,0
548,2430001096224,新規,0,2026-02-10,2026-02-10,株式会社セレモニースピカ,,株式会社,北海道,札幌市白石区,平和通１１丁目南３番２１号,,01,104,0030028,,,,,,,2026-02-10,1,,,,,セレモニースピカ,0
551,2430003018580,新規,0,2026-02-10,2026-02-10,合同会社Ｈｅａｖｅｎ‐Ｓｔｕｄｉｏ,,合同会社,北海道,札幌市豊平区,月寒西二条１０丁目２番７２‐１０１号,,01,105,0620022,,,,,,,2026-02-10,1,,,,,ヘブンスタジオ,0
556,2470001021095,新規,0,2026-02-10,2026-02-10,株式会社ＮＥＸＴ　ＣＬＥＡＮ　ＳＥＲＶＩＣＥ,,株式会社,香川県,高松市,川島東町２９３番地５,,37,201,7610443,,,,,,,2026-02-10,1,,,,,ネクストクリーンサービス,0
564,3010001262346,新規,0,2026-02-10,2026-02-10,株式会社ＰＯＲＴＥ,,株式会社,東京都,千代田区,神田須田町１丁目７番８号ＶＯＲＴ秋葉原ＩＶ２Ｆ,00142519,13,101,1010041,,,,,,,2026-02-10,1,,,,,ポルテ,0
565,3010001262461,新規,0,2026-02-10,2026-02-10,ミカタラボ株式会社,,株式会社,東京都,千代田区,神田和泉町１番地６の１６ヤマトビル４０５,,13,101,1010024,,,,,,,2026-02-10,1,,,,,,0
566,3010001262544,新規,0,2026-02-10,2026-02-10,株式会社ＣＯＰＵＬＡＳ,,株式会社,東京都,文京区,目白台２丁目６番１６号プチモンド目白台２０２号室,,13,105,1120015,,,,,,,2026-02-10,1,,,,,コプラス,0
567,3010001262676,新規,0,2026-02-10,2026-02-10,株式会社ＫＰ　Ｃｏｍｐａｎｙ,,株式会社,東京都,中央区,勝どき６丁目３番１号,,13,102,1040054,,,,,,,2026-02-10,1,,,,,ケイピーカンパニー,0
568,3010001262809,新規,0,2026-02-10,2026-02-10,株式会社みきのさん,,株式会社,東京都,千代田区,神田和泉町１番地６－１６ヤマトビル４０５,,13,101,1010024,,,,,,,2026-02-10,1,,,,,ミキノサン,0
570,3010003050179,新規,0,2026-02-10,2026-02-10,ＫＭＤＴ合同会社,,合同会社,東京都,中央区,銀座１丁目１２－４Ｎ＆ＥＢＬＤ．７階,,13,102,1040061,,,,,,,2026-02-10,1,,,,,ケイエムディーティー,0
571,3010003050229,新規,0,2026-02-10,2026-02-10,合同会社Ｆｏｃｕｓ,,合同会社,東京都,中央区,銀座１丁目１２番４号Ｎ＆ＥＢＬＤ．６Ｆ,,13,102,1040061,,,,,,,2026-02-10,1,,,,,フォーカス,0
572,3010003050253,新規,0,2026-02-10,2026-02-10,合同会社めめろん,,合同会社,東京都,中央区,日本橋室町１丁目１１番１２号日本橋水野ビル７階,,13,102,1030022,,,,,,,2026-02-10,1,,,,,メメロン,0
573,3010003050344,新規,0,2026-02-10,2026-02-10,Ｇｒｉｄ　Ｓｔｏｒａｇｅ　Ｎｏ．３合同会社,,合同会社,東京都,千代田区,麹町３丁目２番９号ＶＯＲＴ麹町ＩＩＩ５階,00142526,13,101,1020083,,,,,,,2026-02-10,1,,,,,グリッドストレージナンバースリー,0
576,3010005041366,新規,0,2026-02-10,2026-02-10,ＣＲＹＳＴＡＬ１一般社団法人,,その他の設立登記法人,東京都,中央区,日本橋１丁目４番１号日本橋一丁目ビルディング,,13,102,1030027,,,,,,,2026-02-10,1,,,,,クリスタルワン,0
581,3010401196342,新規,0,2026-02-10,2026-02-10,ＳＳＶ１号株式会社,,株式会社,東京都,港区,南青山１丁目１番１号新青山ビル西館７階,,13,103,1070062,,,,,,,2026-02-10,1,,,,,エスエスブイイチゴウ,0
612,3010901058926,新規,0,2026-02-10,2026-02-10,いちかわ不動産株式会社,,株式会社,東京都,世田谷区,太子堂４丁目１８番１５号マガザン三軒茶屋２－３Ｆ－３,,13,112,1540004,,,,,,,2026-02-10,1,,,,,イチカワフドウサン,0
613,3010901058959,新規,0,2026-02-10,2026-02-10,Ｍｅｄ　Ｎｏｖａ株式会社,,株式会社,東京都,世田谷区,若林１丁目９番１８号,,13,112,1540023,,,,,,,2026-02-10,1,,,,,メッドノバ,0
623,3011001175661,新規,0,2026-02-10,2026-02-10,Ｇｕｇｅｎ　Ｐｒｏｄｕｃｔｉｏｎｓ株式会社,,株式会社,東京都,渋谷区,道玄坂１丁目１２－１渋谷マークシティＷ２２階,,13,113,1500043,,,,,,,2026-02-10,1,,,,,グゲンプロダクションズ,0
624,3011003023513,新規,0,2026-02-10,2026-02-10,ＬＹＮＯＸ合同会社,,合同会社,東京都,渋谷区,道玄坂１丁目１０番８号渋谷道玄坂東急ビル２Ｆ－Ｃ,,13,113,1500043,,,,,,,2026-02-10,1,,,,,リノックス,0
625,3011005011375,新規,0,2026-02-10,2026-02-10,ＥＮ‐ＭｉＲａｉｓｅ税理士法人,,その他の設立登記法人,東京都,目黒区,上目黒３丁目１４番２４－１０２号,,13,110,1530051,,,,,,,2026-02-10,1,,,,,エンミライズ,0
630,3011101114676,新規,0,2026-02-10,2026-02-10,ＴＯＳＵＮ株式会社,,株式会社,東京都,新宿区,西新宿３丁目３番１３号西新宿水間ビル２Ｆ,,13,104,1600023,,,,,,,2026-02-10,1,,,,,トスン,0
631,3011101114701,新規,0,2026-02-10,2026-02-10,ＭＩＲＡＨＡＴＳＵ株式会社,,株式会社,東京都,新宿区,西新宿３丁目３番１３号西新宿水間ビル２Ｆ,,13,104,1600023,,,,,,,2026-02-10,1,,,,,ミラハツ,0
634,3011201026953,新規,0,2026-02-10,2026-02-10,株式会社ムゾウ,,株式会社,東京都,中野区,若宮３丁目４０番９号,,13,114,1650033,,,,,,,2026-02-10,1,,,,,ムゾウ,0
635,3011201026961,新規,0,2026-02-10,2026-02-10,ウェルムーブ株式会社,,株式会社,東京都,中野区,大和町４丁目４３番１５号,,13,114,1650034,,,,,,,2026-02-10,1,,,,,ウェルムーブ,0
638,3011501033063,新規,0,2026-02-10,2026-02-10,株式会社ナリタトラベル,,株式会社,東京都,荒川区,町屋１丁目３－１２ＣＯＳＡＯＮ２０３号室,,13,118,1160001,,,,,,,2026-02-10,1,,,,,ナリタトラベル,0
643,3011701029175,新規,0,2026-02-10,2026-02-10,株式会社Ａｐｕｄ,,株式会社,東京都,江戸川区,中央２丁目４－１０,,13,123,1320021,,,,,,,2026-02-10,1,,,,,アプド,0
647,3012301014708,新規,0,2026-02-10,2026-02-10,株式会社ＲＯＡＮＥＳＳ,,株式会社,東京都,町田市,大蔵町５３７番地５,,13,209,1950062,,,,,,,2026-02-10,1,,,,,ロアネス,0
650,3012703003465,新規,0,2026-02-10,2026-02-10,合同会社エージェンティクス,,合同会社,東京都,西東京市,田無町５丁目１－１３－１４０１,,13,229,1880011,,,,,,,2026-02-10,1,,,,,エージェンティクス,0
651,3012801024529,新規,0,2026-02-10,2026-02-10,株式会社Ｒｅｓｔｏｒｙ,,株式会社,東京都,国立市,青柳２丁目１９番地２０,,13,215,1860013,,,,,,,2026-02-10,1,,,,,リストリー,0
653,3013101009930,新規,0,2026-02-10,2026-02-10,株式会社ＰＬＵＭ,,株式会社,東京都,青梅市,河辺町１丁目９１６番地７,,13,205,1980036,,,,,,,2026-02-10,1,,,,,プラム,0
665,3020001167057,新規,0,2026-02-10,2026-02-10,ＬＩＶＥＴＥＣＨＪＡＰＡＮ　ＦＸ株式会社,,株式会社,神奈川県,横浜市鶴見区,尻手２丁目３番１７ー６号,,14,101,2300003,,,,,,,2026-02-10,1,,,,,ライブテックジャパンエフエックス,0
666,3020003030378,新規,0,2026-02-10,2026-02-10,合同会社神昌エステート,,合同会社,神奈川県,横浜市泉区,和泉町６２０８‐１‐３０５,,14,116,2450016,,,,,,,2026-02-10,1,,,,,カミマサエステート,0
667,3021001087501,新規,0,2026-02-10,2026-02-10,株式会社アビリティ,,株式会社,神奈川県,海老名市,めぐみ町５番５－２９０６号,,14,215,2430438,,,,,,,2026-02-10,1,,,,,アビリティ,0
671,3021003017101,新規,0,2026-02-10,2026-02-10,合同会社Ｋ,,合同会社,神奈川県,相模原市南区,上鶴間本町６丁目２２番１０号,,14,153,2520318,,,,,,,2026-02-10,1,,,,,ケー,0
672,3021003017118,新規,0,2026-02-10,2026-02-10,Ａ‐ｄａｓｈ合同会社,,合同会社,神奈川県,相模原市中央区,下九沢９８７－２－５０５,,14,152,2520254,,,,,,,2026-02-10,1,,,,,エーダッシュ,0
681,3030001170943,新規,0,2026-02-10,2026-02-10,株式会社ＹＭＢ,,株式会社,埼玉県,草加市,清門２丁目３１番地１６斉藤第一マンション３０３号,,11,221,3400055,,,,,,,2026-02-10,1,,,,,ワイエムビー,0
682,3030001170951,新規,0,2026-02-10,2026-02-10,株式会社ＲＴＳ,,株式会社,埼玉県,富士見市,大字水子４６４２番地２１,,11,235,3540011,,,,,,,2026-02-10,1,,,,,アールティーエス,0
683,3030003028561,新規,0,2026-02-10,2026-02-10,合同会社笑む,,合同会社,埼玉県,春日部市,栄町１丁目２５７－２伊藤ハイツ２０２号,,11,214,3440058,,,,,,,2026-02-10,1,,,,,エム,0
687,3040001142264,新規,0,2026-02-10,2026-02-10,株式会社ファーストクラス,,株式会社,千葉県,船橋市,大穴北２丁目１０番１２号第２高根コーポ２０２号,,12,204,2740068,,,,,,,2026-02-10,1,,,,,ファーストクラス,0
688,3040001142388,新規,0,2026-02-10,2026-02-10,リンクスリー株式会社,,株式会社,千葉県,松戸市,北松戸３丁目４番地の１０,,12,207,2710063,,,,,,,2026-02-10,1,,,,,リンクスリー,0
689,3040001142438,新規,0,2026-02-10,2026-02-10,株式会社ＫＩＮＤＡＩ　ＪＡＰＡＮ,,株式会社,千葉県,市原市,大戸１６９番地１,,12,219,2900542,,,,,,,2026-02-10,1,,,,,キンダイジャパン,0
695,3040005023031,新規,0,2026-02-10,2026-02-10,一般社団法人ＴＳＵＮＡＧＵ　ＰＬＵＳ,,その他の設立登記法人,千葉県,袖ケ浦市,川原井１８３８番地,,12,229,2990201,,,,,,,2026-02-10,1,,,,,ツナグプラス,0
703,3060001038997,新規,0,2026-02-10,2026-02-10,株式会社那須の森,,株式会社,栃木県,那須郡那須町,大字高久甲２４３３番地４,,09,407,3250001,,,,,,,2026-02-10,1,,,,,ナスノモリ,0
707,3070001043807,新規,0,2026-02-10,2026-02-10,株式会社Ｂｒａｓｓｏｗ,,株式会社,群馬県,吾妻郡嬬恋村,大字大笹３６９番地,,10,425,3771613,,,,,,,2026-02-10,1,,,,,ブラッソウ,0
712,3090001019730,新規,0,2026-02-10,2026-02-10,伊藤商事株式会社,,株式会社,山梨県,南都留郡富士河口湖町,小立８０２０番地２２,,19,430,4010302,,,,,,,2026-02-10,1,,,,,イトウショウジ,0
714,3100001039322,新規,0,2026-02-10,2026-02-10,株式会社牛越組,,株式会社,長野県,東筑摩郡生坂村,大字東広津１４６８６番地,,20,448,3997311,,,,,,,2026-02-10,1,,,,,ウシコシグミ,0
718,3110001039890,新規,0,2026-02-10,2026-02-10,トモニコ株式会社,,株式会社,新潟県,新潟市中央区,幸町１－１７,,15,103,9500907,,,,,,,2026-02-10,1,,,,,トモニコ,0
728,3120001283975,新規,0,2026-02-10,2026-02-10,株式会社エン・テーブル,,株式会社,大阪府,大阪市北区,中崎西３丁目３番３０号,,27,127,5300015,,,,,,,2026-02-10,1,,,,,エンテーブル,0
729,3120001283983,新規,0,2026-02-10,2026-02-10,株式会社アルクス,,株式会社,大阪府,大阪市住之江区,中加賀屋３丁目９番１号２０３号室,,27,125,5590017,,,,,,,2026-02-10,1,,,,,アルクス,0
730,3120001283991,新規,0,2026-02-10,2026-02-10,株式会社ＫＩＣＳ,,株式会社,大阪府,大阪市北区,梅田１丁目２番２号,,27,127,5300001,,,,,,,2026-02-10,1,,,,,キックス,0
731,3120001284008,新規,0,2026-02-10,2026-02-10,株式会社ＮＯＭＡ,,株式会社,大阪府,大阪市北区,西天満３丁目３－１７,,27,127,5300047,,,,,,,2026-02-10,1,,,,,ノーマ,0
732,3120001284024,新規,0,2026-02-10,2026-02-10,絆建装株式会社,,株式会社,大阪府,大阪市西区,九条１丁目１５番１０号,,27,106,5500027,,,,,,,2026-02-10,1,,,,,キズナケンソウ,0
733,3120001284032,新規,0,2026-02-10,2026-02-10,株式会社縁,,株式会社,大阪府,大阪市住吉区,山之内１丁目１１番２５号サンハイツ山之内５０５号室,,27,120,5580023,,,,,,,2026-02-10,1,,,,,エン,0
734,3120001284065,新規,0,2026-02-10,2026-02-10,株式会社ＭＫプランニング,,株式会社,大阪府,大阪市西区,南堀江１丁目１６番２２号４０２,,27,106,5500015,,,,,,,2026-02-10,1,,,,,エムケープランニング,0
735,3120001284123,新規,0,2026-02-10,2026-02-10,エス・フォレスト株式会社,,株式会社,大阪府,大阪市住之江区,浜口東３丁目１１番２０号,,27,125,5590002,,,,,,,2026-02-10,1,,,,,エスフォレスト,0
739,3120005025390,新規,0,2026-02-10,2026-02-10,一般社団法人全国墓そうじ協会,,その他の設立登記法人,大阪府,大阪市西区,江戸堀１丁目２３番１３号肥後橋ビル３号館４０３号室,,27,106,5500002,,,,,,,2026-02-10,1,,,,,ゼンコクハカソウジキョウカイ,0
740,3120005025399,新規,0,2026-02-10,2026-02-10,一般社団法人Ａｌｔ,,その他の設立登記法人,大阪府,大阪市北区,梅田１丁目２番２号大阪駅前第２ビル１２－１２,,27,127,5300001,,,,,,,2026-02-10,1,,,,,オルト,0
743,3120901052224,新規,0,2026-02-10,2026-02-10,株式会社ＬｅＳＥＮＴ,,株式会社,大阪府,豊中市,緑丘２丁目１６番３号,,27,203,5600002,,,,,,,2026-02-10,1,,,,,ルソン,0
745,3122001040167,新規,0,2026-02-10,2026-02-10,株式会社Ｉｍａｋａｓｅ　ｔ,,株式会社,大阪府,柏原市,旭ケ丘１丁目３番５号,,27,221,5820026,,,,,,,2026-02-10,1,,,,,アイマカセティ,0
748,3122003003452,新規,0,2026-02-10,2026-02-10,キガングループ合同会社,,合同会社,大阪府,東大阪市,玉串元町１丁目４番５４号Ｄｐｏｒｔａｍｉｌｄ３０５,,27,227,5780933,,,,,,,2026-02-10,1,,,,,キガングループ,0
754,3130001081585,新規,0,2026-02-10,2026-02-10,株式会社ＭＩＹＵＫＩ,,株式会社,京都府,京都市東山区,大和大路通四条上る二筋目東入末吉町８０番１１,,26,105,6050000,,,,,,,2026-02-10,1,,,,,ミユキ,0
756,3140001141685,新規,0,2026-02-10,2026-02-10,株式会社飛行犬,,株式会社,兵庫県,南あわじ市,伊加利７６８番地,,28,224,6560651,,,,,,,2026-02-10,1,,,,,ヒコウケン,0
757,3140001141702,新規,0,2026-02-10,2026-02-10,株式会社ＴＰＭ,,株式会社,兵庫県,宝塚市,栄町１丁目６番１－２０９２号,,28,214,6650845,,,,,,,2026-02-10,1,,,,,ティーピーエム,0
762,3160001027412,新規,0,2026-02-10,2026-02-10,株式会社陽月,,株式会社,滋賀県,近江八幡市,中之庄町１１４番地,,25,204,5230807,,,,,,,2026-02-10,1,,,,,ヨウゲツ,0
768,3180001170615,新規,0,2026-02-10,2026-02-10,株式会社エヴァリス,,株式会社,愛知県,名古屋市千種区,富士見台４丁目１番地,,23,101,4640015,,,,,,,2026-02-10,1,,,,,エヴァリス,0
769,3180001170623,新規,0,2026-02-10,2026-02-10,和悦株式会社,,株式会社,愛知県,大府市,横根町箕手７４番地１,,23,223,4740011,,,,,,,2026-02-10,1,,,,,ワエツ,0
776,3180301040682,新規,0,2026-02-10,2026-02-10,株式会社Ｆ・Ｓメタル,,株式会社,愛知県,豊橋市,東脇４丁目１８番地８,,23,201,4418083,,,,,,,2026-02-10,1,,,,,エフエスメタル,0
779,3190005012110,新規,0,2026-02-10,2026-02-10,一般社団法人Ｔａｍａｒｉ　Ｈｕｂ,,その他の設立登記法人,三重県,桑名市,長島町横満蔵２３５番地,,24,205,5111133,,,,,,,2026-02-10,1,,,,,タマリハブ,0
780,3190005012119,新規,0,2026-02-10,2026-02-10,特定非営利活動法人津家庭教育研究会,,その他の設立登記法人,三重県,津市,安濃町太田７７２番地２,,24,201,5142304,,,,,,,2026-02-10,1,,,,,ツカテイキョウイクケンキュウカイ,0
782,3210001020493,新規,0,2026-02-10,2026-02-10,株式会社カワジ,,株式会社,福井県,福井市,江守中１丁目１７０１－１０５,,18,201,9188025,,,,,,,2026-02-10,1,,,,,カワジ,0
791,3240001066154,新規,0,2026-02-10,2026-02-10,株式会社ＹＫクリーン,,株式会社,広島県,広島市安佐北区,上深川町８２４－１,,34,106,7391752,,,,,,,2026-02-10,1,,,,,ワイケークリーン,0
792,3240001066162,新規,0,2026-02-10,2026-02-10,全日農業株式会社,,株式会社,広島県,広島市安芸区,阿戸町４９７４番地１,,34,107,7314231,,,,,,,2026-02-10,1,,,,,ゼンニチノウギョウ,0
797,3270003001841,新規,0,2026-02-10,2026-02-10,ＳｕｐｐｏｒｔＦｏｏｄＪａｐａｎ合同会社,,合同会社,鳥取県,岩美郡岩美町,大字池谷２１２番地,,31,302,6810047,,,,,,,2026-02-10,1,,,,,サポートフードジャパン,0
798,3280003002038,新規,0,2026-02-10,2026-02-10,石見バッテリー合同会社,,合同会社,島根県,浜田市,黒川町１５５番地７,,32,202,6970024,,,,,,,2026-02-10,1,,,,,,0
803,3290001113042,新規,0,2026-02-10,2026-02-10,株式会社金太郎フーズ,,株式会社,福岡県,糟屋郡粕屋町,大字柚須１２７－４,,40,349,8112305,,,,,,,2026-02-10,1,,,,,キンタロウフーズ,0
804,3290001113050,新規,0,2026-02-10,2026-02-10,ＴＲＩＸＡホールディングス株式会社,,株式会社,福岡県,久留米市,六ツ門町１１－１１アンピール六ツ門１Ｆ－Ｂ,,40,203,8300031,,,,,,,2026-02-10,1,,,,,,0
805,3290001113067,新規,0,2026-02-10,2026-02-10,ＫＡＮＳＯＬ株式会社,,株式会社,福岡県,福岡市南区,警弥郷３丁目１６番７号,,40,134,8111324,,,,,,,2026-02-10,1,,,,,カンソル,0
806,3290001113075,新規,0,2026-02-10,2026-02-10,株式会社ＫＩＫＩＭＥ,,株式会社,福岡県,福岡市西区,姪の浜４丁目２３番４－４０２号,,40,135,8190002,,,,,,,2026-02-10,1,,,,,キキメ,0
807,3290001113083,新規,0,2026-02-10,2026-02-10,株式会社クロスパス,,株式会社,福岡県,福岡市中央区,天神４丁目６番２８号いちご天神ノースビル７階,,40,133,8100001,,,,,,,2026-02-10,1,,,,,クロスパス,0
808,3290001113117,新規,0,2026-02-10,2026-02-10,株式会社みかた企画,,株式会社,福岡県,福岡市早良区,西新１丁目１１番２５－３０１号,,40,137,8140002,,,,,,,2026-02-10,1,,,,,ミカタキカク,0
812,3290801032243,新規,0,2026-02-10,2026-02-10,コウプラス不動産株式会社,,株式会社,福岡県,北九州市小倉北区,室町２丁目１０番２２号,,40,106,8030812,,,,,,,2026-02-10,1,,,,,コウプラスフドウサン,0
831,3430001096140,新規,0,2026-02-10,2026-02-10,株式会社ＡｉｒＬｉｎｋ,,株式会社,北海道,札幌市中央区,南二条西６丁目１７‐５ＴＡＩＹＯＢｌｄ２・６　５０１号室,,01,101,0600062,,,,,,,2026-02-10,1,,,,,エアリンク,0
832,3430001096198,新規,0,2026-02-10,2026-02-10,株式会社Ｎｅｘ　Ｌｉｆｅ,,株式会社,北海道,札幌市中央区,北四条西１３丁目１番８４号第２７藤栄ビル３Ｆ,,01,101,0600004,,,,,,,2026-02-10,1,,,,,ネクスライフ,0
833,3430001096207,新規,0,2026-02-10,2026-02-10,株式会社乙女花冠,,株式会社,北海道,札幌市中央区,北四条西４丁目１番地７ＭＭＳ札幌駅前ビル,,01,101,0600004,,,,,,,2026-02-10,1,,,,,オトメカカン,0
834,3430001096223,新規,0,2026-02-10,2026-02-10,株式会社アイエス電気,,株式会社,北海道,札幌市東区,東苗穂十二条１丁目６番１２号,,01,103,0070812,,,,,,,2026-02-10,1,,,,,アイエスデンキ,0
835,3430001096231,新規,0,2026-02-10,2026-02-10,Ａｓｕ　Ｐｒｉｍｅ株式会社,,株式会社,北海道,札幌市中央区,南八条西４丁目４２２－５グランドパークビル２Ｆ,,01,101,0640808,,,,,,,2026-02-10,1,,,,,アスプライム,0
837,3430003018547,新規,0,2026-02-10,2026-02-10,あつまる合同会社,,合同会社,北海道,札幌市中央区,南五条西１５丁目２‐３‐５０３,,01,101,0640805,,,,,,,2026-02-10,1,,,,,アツマル,0
838,3430003018571,新規,0,2026-02-10,2026-02-10,ＫＮＩサービス合同会社,,合同会社,北海道,札幌市中央区,南二条西５丁目３１番地１ＲＭＢｌｄ．７０１,,01,101,0600062,,,,,,,2026-02-10,1,,,,,ケーエヌアイサービス,0
840,3460301005343,新規,0,2026-02-10,2026-02-10,株式会社ホナミ,,株式会社,北海道,常呂郡訓子府町,字穂波９０番地３,,01,549,0991402,,,,,,,2026-02-10,1,,,,,ホナミ,0
854,4010001262510,新規,0,2026-02-10,2026-02-10,Ｓｙｇｎａｌ株式会社,,株式会社,東京都,千代田区,丸の内１丁目１１－１パシフィックセンチュリープレイス丸の内１３階,,13,101,1000005,,,,,,,2026-02-10,1,,,,,シグナル,0
855,4010001262519,新規,0,2026-02-10,2026-02-10,北川ホールディングス株式会社,,株式会社,東京都,千代田区,丸の内１丁目６－６日本生命丸の内ビル２１Ｆ,,13,101,1000005,,,,,,,2026-02-10,1,,,,,キタガワホールディングス,0
856,4010001262650,新規,0,2026-02-10,2026-02-10,ＴｈｒｅｅＸ株式会社,,株式会社,東京都,中央区,銀座１丁目２２番１１号銀座大竹ビジデンス２Ｆ,,13,102,1040061,,,,,,,2026-02-10,1,,,,,スリーエックス,0
857,4010001262675,新規,0,2026-02-10,2026-02-10,Ｂｏｓｔｏｎ　Ｍｅｄｉｃａｌ　Ｄｉａｇｎｏｓｔｉｃｓ株式会社,,株式会社,東京都,中央区,日本橋本町３丁目７－２ＭＦＰＲ日本橋本町ビル３階Ｂ－ＰＯＲＴ内,,13,102,1030023,,,,,,,2026-02-10,1,,,,,ボストンメディカルダイアグノスティクス,0
858,4010001262683,新規,0,2026-02-10,2026-02-10,株式会社リクリア,,株式会社,東京都,中央区,京橋３丁目１４－６,,13,102,1040031,,,,,,,2026-02-10,1,,,,,リクリア,0
859,4010001262700,新規,0,2026-02-10,2026-02-10,株式会社ＳＴＯＫＥ,,株式会社,東京都,千代田区,外神田３丁目５番５－４０２号,,13,101,1010021,,,,,,,2026-02-10,1,,,,,ストーク,0
860,4010001262741,新規,0,2026-02-10,2026-02-10,錦和株式会社,,株式会社,東京都,文京区,小石川３丁目８番５－１０８号,,13,105,1120002,,,,,,,2026-02-10,1,,,,,キンワ,0
864,4010003050186,新規,0,2026-02-10,2026-02-10,アクルックス合同会社,,合同会社,東京都,中央区,銀座２丁目１０番８号マニエラ銀座ビル４階,,13,102,1040061,,,,,,,2026-02-10,1,,,,,アクルックス,0
865,4010003050228,新規,0,2026-02-10,2026-02-10,合同会社Ｆ＆Ｃｏ．,,合同会社,東京都,中央区,銀座６丁目１３番１６号銀座ＷａｌｌビルＵＣＦ５階,,13,102,1040061,,,,,,,2026-02-10,1,,,,,エフアンドコー,0
866,4010003050343,新規,0,2026-02-10,2026-02-10,Ｇｒｉｄ　Ｓｔｏｒａｇｅ　Ｎｏ．２合同会社,,合同会社,東京都,千代田区,麹町３丁目２番９号ＶＯＲＴ麹町ＩＩＩ５階,00142534,13,101,1020083,,,,,,,2026-02-10,1,,,,,グリッドストレージナンバーツー,0
870,4010005041349,新規,0,2026-02-10,2026-02-10,一般社団法人日本経営経済研究所,,その他の設立登記法人,東京都,千代田区,神田淡路町１丁目９番地１,,13,101,1010063,,,,,,,2026-02-10,1,,,,,ニッポンケイエイケイザイケンキュウショ,0
871,4010005041365,新規,0,2026-02-10,2026-02-10,ＢＲＩＣＫ１一般社団法人,,その他の設立登記法人,東京都,中央区,日本橋１丁目４番１号日本橋一丁目ビルディング,,13,102,1030027,,,,,,,2026-02-10,1,,,,,ブリックワン,0
877,4010401196011,新規,0,2026-02-10,2026-02-10,株式会社Ｋ２,,株式会社,東京都,港区,南青山３丁目１青山丸竹ビル６Ｆ,,13,103,1070062,,,,,,,2026-02-10,1,,,,,ケーツー,0
878,4010401196432,新規,0,2026-02-10,2026-02-10,株式会社Ｄｉｎｎｏ．,,株式会社,東京都,港区,北青山１丁目３番３号三橋ビル３階,,13,103,1070061,,,,,,,2026-02-10,1,,,,,ディーノ,0
880,4010403037295,新規,0,2026-02-10,2026-02-10,ＭＴＭエレクトリックパワー合同会社,,合同会社,東京都,港区,虎ノ門４丁目１番１号,,13,103,1050001,,,,,,,2026-02-10,1,,,,,エムティーエムエレクトリックパワー,0
892,4010901058925,新規,0,2026-02-10,2026-02-10,マリンベース株式会社,,株式会社,東京都,世田谷区,弦巻１丁目３５番１４号,,13,112,1540016,,,,,,,2026-02-10,1,,,,,マリンベース,0
896,4011001175388,新規,0,2026-02-10,2026-02-10,Ｔａｕｒｕｓ株式会社,,株式会社,東京都,渋谷区,恵比寿西２丁目１７番３号ダイヤビル１０１,,13,113,1500021,,,,,,,2026-02-10,1,,,,,トーラス,0
897,4011001175396,新規,0,2026-02-10,2026-02-10,株式会社コンタクトアス,,株式会社,東京都,目黒区,青葉台１丁目１６番１１号４Ｆ,,13,110,1530042,,,,,,,2026-02-10,1,,,,,コンタクトアス,0
898,4011003023529,新規,0,2026-02-10,2026-02-10,合同会社ししくら,,合同会社,東京都,渋谷区,恵比寿１丁目２５番３号,,13,113,1500013,,,,,,,2026-02-10,1,,,,,シシクラ,0
906,4011101114659,新規,0,2026-02-10,2026-02-10,株式会社ライフストーリー,,株式会社,東京都,新宿区,新宿６丁目２８番１２号ＤＳ新宿ビル６階,,13,104,1600022,,,,,,,2026-02-10,1,,,,,ライフストーリー,0
907,4011101114700,新規,0,2026-02-10,2026-02-10,株式会社２４ｆｌａｓｈ,,株式会社,東京都,新宿区,西新宿６丁目２４番１号西新宿三井ビルディング１５０３,,13,104,1600023,,,,,,,2026-02-10,1,,,,,トゥエンティーフォーフラッシュ,0
908,4011101114898,新規,0,2026-02-10,2026-02-10,株式会社ルカーレ,,株式会社,東京都,新宿区,新宿６丁目２７番２９号,,13,104,1600022,,,,,,,2026-02-10,1,,,,,ルカーレ,0
909,4011101114923,新規,0,2026-02-10,2026-02-10,株式会社ノア東京,,株式会社,東京都,新宿区,左門町１８番地３パークホームズ四谷三丁目３０３,,13,104,1600017,,,,,,,2026-02-10,1,,,,,ノアトウキョウ,0
910,4011101114964,新規,0,2026-02-10,2026-02-10,株式会社オンエニー,,株式会社,東京都,新宿区,西新宿７丁目８－１１美笠ビル２０２,,13,104,1600023,,,,,,,2026-02-10,1,,,,,オンエニー,0
912,4011103017050,新規,0,2026-02-10,2026-02-10,合同会社スリーディー,,合同会社,東京都,新宿区,歌舞伎町２丁目４５番２号常盤第１ビル１階Ａ室,,13,104,1600021,,,,,,,2026-02-10,1,,,,,スリーディー,0
915,4011301031258,新規,0,2026-02-10,2026-02-10,株式会社Ｙｏｕｎｇ　Ｂｕｓｈ,,株式会社,東京都,杉並区,方南２丁目２４番５号クレール方南町１０２,,13,115,1680062,,,,,,,2026-02-10,1,,,,,ヤングブッシュ,0
924,4011701029158,新規,0,2026-02-10,2026-02-10,株式会社Ｋ‐ＢＡＳＥ,,株式会社,東京都,江戸川区,南葛西６丁目３２番１２号,,13,123,1340085,,,,,,,2026-02-10,1,,,,,ケーベース,0
927,4012401044075,新規,0,2026-02-10,2026-02-10,株式会社Ｂ．Ｏ．Ｌ,,株式会社,東京都,狛江市,中和泉５丁目１０番６号グランドソレイユ８号,,13,219,2010012,,,,,,,2026-02-10,1,,,,,ビーオーエル,0
928,4012401044091,新規,0,2026-02-10,2026-02-10,株式会社アオシロ,,株式会社,東京都,狛江市,東和泉１丁目１０番４号,,13,219,2010014,,,,,,,2026-02-10,1,,,,,アオシロ,0
931,4012703003464,新規,0,2026-02-10,2026-02-10,ブルドン合同会社,,合同会社,東京都,小平市,天神町１丁目４番３８－２号,,13,211,1870004,,,,,,,2026-02-10,1,,,,,ブルドン,0
932,4013301055641,新規,0,2026-02-10,2026-02-10,株式会社リノベレシピ,,株式会社,東京都,豊島区,東池袋２丁目６２番８号ＢＩＧオフィスプラザ池袋１２０６,,13,116,1700013,,,,,,,2026-02-10,1,,,,,リノベレシピ,0
938,4020001166982,新規,0,2026-02-10,2026-02-10,株式会社亀鶴堂,,株式会社,神奈川県,横浜市青葉区,梅が丘２７番地５５,,14,117,2270052,,,,,,,2026-02-10,1,,,,,キカクドウ,0
939,4020001166999,新規,0,2026-02-10,2026-02-10,株式会社Ｂｅｃｋ,,株式会社,神奈川県,横浜市瀬谷区,南瀬谷１丁目２９番地１グランドソレイユ南瀬谷２０１,,14,114,2460034,,,,,,,2026-02-10,1,,,,,ベック,0
940,4020001167048,新規,0,2026-02-10,2026-02-10,株式会社Ｌｏｏｐａｔｈ,,株式会社,神奈川県,横浜市青葉区,あざみ野３丁目２６番地６６,,14,117,2250011,,,,,,,2026-02-10,1,,,,,ルーパス,0
950,4030001170959,新規,0,2026-02-10,2026-02-10,株式会社Ｕｓ,,株式会社,埼玉県,飯能市,大字川寺１１０番地の１,,11,209,3570044,,,,,,,2026-02-10,1,,,,,ユーズ,0
954,4030003028619,新規,0,2026-02-10,2026-02-10,合同会社２８,,合同会社,埼玉県,東松山市,大字岩殿７４２－１,,11,212,3550065,,,,,,,2026-02-10,1,,,,,ニワ,0
960,4040001142346,新規,0,2026-02-10,2026-02-10,株式会社ロングヒルズ,,株式会社,千葉県,市川市,本行徳１－１４,,12,203,2720103,,,,,,,2026-02-10,1,,,,,ロングヒルズ,0
961,4040001142395,新規,0,2026-02-10,2026-02-10,東洋ケミカル株式会社,,株式会社,千葉県,船橋市,北本町２丁目４０番１－４０２号,,12,204,2730864,,,,,,,2026-02-10,1,,,,,トウヨウケミカル,0
962,4040001142404,新規,0,2026-02-10,2026-02-10,株式会社国際開発,,株式会社,千葉県,千葉市若葉区,都賀４丁目８番１８号,,12,104,2640025,,,,,,,2026-02-10,1,,,,,コクサイカイハツ,0
963,4040001142429,新規,0,2026-02-10,2026-02-10,株式会社Ａ　ｂｌａｚｅ,,株式会社,千葉県,白井市,西白井３丁目１４番地６１,,12,232,2701408,,,,,,,2026-02-10,1,,,,,アブレイズ,0
964,4040001142486,新規,0,2026-02-10,2026-02-10,株式会社吉井建設,,株式会社,千葉県,千葉市若葉区,貝塚町５５６番地１－２－４０５号,,12,104,2640023,,,,,,,2026-02-10,1,,,,,ヨシイケンセツ,0
970,4040003029442,新規,0,2026-02-10,2026-02-10,合同会社ワンオンバリュー,,合同会社,千葉県,流山市,おおたかの森南２丁目７番地の１レフィシア１０３,,12,220,2700139,,,,,,,2026-02-10,1,,,,,ワンオンバリュー,0
982,4080401028430,新規,0,2026-02-10,2026-02-10,株式会社トラストワーク浜松,,株式会社,静岡県,浜松市中央区,上石田町２１５７番地,,22,138,4350001,,,,,,,2026-02-10,1,,,,,トラストワークハママツ,0
989,4100001039321,新規,0,2026-02-10,2026-02-10,表面処理パートナーズ株式会社,,株式会社,長野県,諏訪市,大字中洲２２６番地１,,20,206,3920015,,,,,,,2026-02-10,1,,,,,ヒョウメンショリパートナーズ,0
993,4110005017322,新規,0,2026-02-10,2026-02-10,一般社団法人フットリフレクソロジー協会,,その他の設立登記法人,新潟県,新潟市西区,西小針台２丁目４番２８号,,15,107,9502015,,,,,,,2026-02-10,1,,,,,フットリフレクソロジーキョウカイ,0
1000,4120001283933,新規,0,2026-02-10,2026-02-10,株式会社アップウイン,,株式会社,大阪府,大阪市浪速区,恵美須東１丁目６番８号,,27,111,5560002,,,,,,,2026-02-10,1,,,,,アップウイン,0
1001,4120001283958,新規,0,2026-02-10,2026-02-10,株式会社高橋建設,,株式会社,大阪府,枚方市,山之上北町６０番１－１２１１号,,27,210,5730049,,,,,,,2026-02-10,1,,,,,タカハシケンセツ,0
1002,4120001283990,新規,0,2026-02-10,2026-02-10,株式会社ＡＮＮＡ,,株式会社,大阪府,大阪市北区,梅田１丁目２番２号大阪駅前第２ビル１２－１２,,27,127,5300001,,,,,,,2026-02-10,1,,,,,アンナ,0
1003,4120001284015,新規,0,2026-02-10,2026-02-10,株式会社ＭＡＲ,,株式会社,大阪府,大阪市港区,三先１丁目１番７号,,27,107,5520016,,,,,,,2026-02-10,1,,,,,エムエーアール,0
1004,4120001284023,新規,0,2026-02-10,2026-02-10,ＲＹＵＢＩ株式会社,,株式会社,大阪府,大阪市平野区,平野西６丁目３番８号,,27,126,5470033,,,,,,,2026-02-10,1,,,,,リュウビ,0
1009,4120003031547,新規,0,2026-02-10,2026-02-10,合同会社オフィスブリッジ,,合同会社,大阪府,大阪市浪速区,桜川４丁目３番２６－３０１号,,27,111,5560022,,,,,,,2026-02-10,1,,,,,オフィスブリッジ,0
1013,4120005025407,新規,0,2026-02-10,2026-02-10,一般社団法人日本心理支援機構,,その他の設立登記法人,大阪府,大阪市北区,梅田１丁目２番２号大阪駅前第２ビル１２－１２,,27,127,5300001,,,,,,,2026-02-10,1,,,,,ニホンシンリシエンキコウ,0
1014,4120101073193,新規,0,2026-02-10,2026-02-10,岡島株式会社,,株式会社,大阪府,富田林市,喜志新家町２丁目８－３７,,27,214,5840003,,,,,,,2026-02-10,1,,,,,オカシマ,0
1015,4120105010119,新規,0,2026-02-10,2026-02-10,特定非営利活動法人ｎａｍｍｏ,,その他の設立登記法人,大阪府,富田林市,寿町３丁目２番１１－１０６号,,27,214,5840031,,,,,,,2026-02-10,1,,,,,ナンモ,0
1017,4120901052215,新規,0,2026-02-10,2026-02-10,株式会社シルバークラスト,,株式会社,大阪府,茨木市,星見町８番１５号,,27,211,5670843,,,,,,,2026-02-10,1,,,,,シルバークラスト,0
1019,4122001040166,新規,0,2026-02-10,2026-02-10,株式会社シンユウ,,株式会社,大阪府,柏原市,大字高井田６１７番地の１５,,27,221,5820015,,,,,,,2026-02-10,1,,,,,シンユウ,0
1024,4140001141692,新規,0,2026-02-10,2026-02-10,株式会社幸グループ,,株式会社,兵庫県,神戸市中央区,中山手通１丁目９番１４号,,28,110,6500004,,,,,,,2026-02-10,1,,,,,コウグループ,0
1035,4180001170614,新規,0,2026-02-10,2026-02-10,ＥｖｅｒＲｉｓｅ　Ｈｏｌｄｉｎｇｓ株式会社,,株式会社,愛知県,北名古屋市,沖村権現１２番地,,23,234,4810043,,,,,,,2026-02-10,1,,,,,エバーライズホールディングス,0
1036,4180001170630,新規,0,2026-02-10,2026-02-10,株式会社セレーノプロパティ,,株式会社,愛知県,名古屋市中区,丸の内３丁目１７番１３号いちご丸の内ビル７階,,23,106,4600002,,,,,,,2026-02-10,1,,,,,セレーノプロパティ,0
1037,4180001170639,新規,0,2026-02-10,2026-02-10,株式会社ＳＯＡＲ,,株式会社,愛知県,名古屋市中区,千代田４丁目１番２０号,,23,106,4600012,,,,,,,2026-02-10,1,,,,,ソア,0
1038,4180001170663,新規,0,2026-02-10,2026-02-10,メトリックジャパン株式会社,,株式会社,愛知県,知多郡東浦町,大字緒川字上高根台３－３,,23,442,4702102,,,,,,,2026-02-10,1,,,,,メトリックジャパン,0
1039,4180003029759,新規,0,2026-02-10,2026-02-10,ファイナリス合同会社,,合同会社,愛知県,名古屋市中村区,名駅南１丁目１１－１２Ｋｉｎｊｉｒｏ名駅Ｍｉｎａｍｉビル１Ｆ,,23,105,4500003,,,,,,,2026-02-10,1,,,,,ファイナリス,0
1040,4180005021425,新規,0,2026-02-10,2026-02-10,一般社団法人まつり文化継承を支援する会,,その他の設立登記法人,愛知県,名古屋市東区,筒井町４丁目４４番地,,23,102,4610003,,,,,,,2026-02-10,1,,,,,マツリブンカケイショウヲシエンスルカイ,0
1044,4180301040681,新規,0,2026-02-10,2026-02-10,株式会社ＨＭエレック,,株式会社,愛知県,豊田市,青木町１丁目２５番地５,,23,211,4700335,,,,,,,2026-02-10,1,,,,,エイチエムエレック,0
1051,4240001066161,新規,0,2026-02-10,2026-02-10,西部ＴＢサービス株式会社,,株式会社,広島県,福山市,駅家町万能倉１０７５番地３,,34,207,7210000,,,,,,,2026-02-10,1,,,,,セイブティービーサービス,0
1057,4290001113074,新規,0,2026-02-10,2026-02-10,ＫＲＥＣ株式会社,,株式会社,福岡県,筑紫野市,石崎１丁目９番１号,,40,217,8180068,,,,,,,2026-02-10,1,,,,,クレック,0
1058,4290001113082,新規,0,2026-02-10,2026-02-10,株式会社結理,,株式会社,福岡県,福岡市中央区,桜坂１丁目１４番１８号ＥＳハウス１１,,40,133,8100024,,,,,,,2026-02-10,1,,,,,ユウリ,0
1059,4290001113090,新規,0,2026-02-10,2026-02-10,株式会社ＫＡＮ,,株式会社,福岡県,福岡市博多区,中洲４丁目７番８号ラ・パピヨンビル２Ａ,,40,132,8100801,,,,,,,2026-02-10,1,,,,,カン,0
1060,4290001113116,新規,0,2026-02-10,2026-02-10,株式会社Ｐａｗｚｍｅｄｉ日本,,株式会社,福岡県,福岡市中央区,天神１丁目１１番１号ＯＮＥ・ＦＵＫＵＯＫＡ・ＢＬＤＧ７階,,40,133,8100001,,,,,,,2026-02-10,1,,,,,パウズメディニホン,0
1070,4310001019954,新規,0,2026-02-10,2026-02-10,株式会社ＥＩＧＨＴ,,株式会社,長崎県,雲仙市,愛野町乙２４９９番地７,,42,213,8540302,,,,,,,2026-02-10,1,,,,,エイト,0
1071,4310003005176,新規,0,2026-02-10,2026-02-10,合同会社ＭＯＫＵ,,合同会社,長崎県,大村市,大川田町３６１番地４,,42,205,8560804,,,,,,,2026-02-10,1,,,,,モク,0
1077,4340003005090,新規,0,2026-02-10,2026-02-10,合同会社ムカイ,,合同会社,鹿児島県,薩摩川内市,祁答院町下手９７７番地,00142528,46,215,8951501,,,,,,,2026-02-10,1,,,,,ムカイ,0
1081,4360001036334,新規,0,2026-02-10,2026-02-10,株式会社Ｋ‐ＮＥＸＴ沖縄,,株式会社,沖縄県,うるま市,みどり町６丁目３番１９号,,47,213,9042215,,,,,,,2026-02-10,1,,,,,ケイネクストオキナワ,0
1083,4360003015591,新規,0,2026-02-10,2026-02-10,合同会社オールマイティ,,合同会社,沖縄県,うるま市,石川２丁目２０番１号,,47,213,9041106,,,,,,,2026-02-10,1,,,,,オールマイティ,0
1087,4400001017313,新規,0,2026-02-10,2026-02-10,一関ハイトラスト株式会社,,株式会社,岩手県,一関市,山目字中野１４０番地５,,03,209,0210053,,,,,,,2026-02-10,1,,,,,イチノセキハイトラスト,0
1093,4430001096180,新規,0,2026-02-10,2026-02-10,株式会社意想天開,,株式会社,北海道,札幌市清田区,真栄四条２丁目１６番１０号,,01,110,0040834,,,,,,,2026-02-10,1,,,,,イソウテンカイ,0
1094,4430001096189,新規,0,2026-02-10,2026-02-10,株式会社プラム,,株式会社,北海道,札幌市豊平区,月寒東五条７丁目５番１号,,01,105,0620055,,,,,,,2026-02-10,1,,,,,プラム,0
1095,4430001096214,新規,0,2026-02-10,2026-02-10,株式会社日比自動車,,株式会社,北海道,苫小牧市,高砂町１丁目４番２０号,,01,213,0530013,,,,,,,2026-02-10,1,,,,,ヒビジドウシャ,0
1096,4430001096222,新規,0,2026-02-10,2026-02-10,株式会社湊ホールディングス,,株式会社,北海道,札幌市西区,発寒五条５丁目３番１２号,,01,107,0630825,,,,,,,2026-02-10,1,,,,,ミナトホールディングス,0
1097,4430001096230,新規,0,2026-02-10,2026-02-10,福祉ＩＲＯＮＭＡＮ株式会社,,株式会社,北海道,北広島市,大曲柏葉３丁目４番地４,,01,234,0611273,,,,,,,2026-02-10,1,,,,,フクシアイアンマン,0
1098,4430001096239,新規,0,2026-02-10,2026-02-10,株式会社ＨＮＫ商事,,株式会社,北海道,札幌市中央区,南六条西２丁目８番地７,,01,101,0640806,,,,,,,2026-02-10,1,,,,,エイチエヌケイショウジ,0
1099,4430003018579,新規,0,2026-02-10,2026-02-10,合同会社リングワークス,,合同会社,北海道,札幌市北区,北二十三条西４丁目２番１号,,01,102,0010023,,,,,,,2026-02-10,1,,,,,リングワークス,0
1103,4470003003073,新規,0,2026-02-10,2026-02-10,合同会社マツモト,,合同会社,香川県,丸亀市,城西町２丁目６番３３号,,37,202,7630032,,,,,,,2026-02-10,1,,,,,,0
1108,4700150134366,新規,0,2026-02-10,2026-02-10,尾高井手土地改良区,,その他,鳥取県,西伯郡伯耆町,吉長３７番地３,,31,390,6894133,,,,,,,2026-02-10,1,,,,,オダカイデトチカイリヨウク,0
1120,5010001262518,新規,0,2026-02-10,2026-02-10,株式会社フォーカスバリュー,,株式会社,東京都,中央区,銀座１丁目１２番４号Ｎ＆ＥＢＬＤ．６Ｆ,,13,102,1040061,,,,,,,2026-02-10,1,,,,,フォーカスバリュー,0
1121,5010001262550,新規,0,2026-02-10,2026-02-10,株式会社ノーリーハウス,,株式会社,東京都,中央区,銀座１丁目１２番４号Ｎ＆ＥＢＬＤ．６Ｆ,,13,102,1040061,,,,,,,2026-02-10,1,,,,,ノーリーハウス,0
1122,5010001262591,新規,0,2026-02-10,2026-02-10,株式会社Ｃｉｎｑ,,株式会社,東京都,中央区,銀座１丁目１２番４号Ｎ＆ＥＢＬＤ．６Ｆ,,13,102,1040061,,,,,,,2026-02-10,1,,,,,サンク,0
1123,5010001262633,新規,0,2026-02-10,2026-02-10,株式会社椿エステート,,株式会社,東京都,中央区,銀座１丁目１２番４号Ｎ＆ＥＢＬＤ．６Ｆ,,13,102,1040061,,,,,,,2026-02-10,1,,,,,ツバキエステート,0
1124,5010001262682,新規,0,2026-02-10,2026-02-10,ＳＯＲＡＬＡ株式会社,,株式会社,東京都,中央区,銀座１丁目１２番４号Ｎ＆ＥＢＬＤ．６Ｆ,,13,102,1040061,,,,,,,2026-02-10,1,,,,,ソララ,0
1125,5010001262708,新規,0,2026-02-10,2026-02-10,株式会社Ａｒｃｒｏｗ,,株式会社,東京都,千代田区,神田和泉町１番地６－１６ヤマトビル４０５,,13,101,1010024,,,,,,,2026-02-10,1,,,,,アークロウ,0
1126,5010001262749,新規,0,2026-02-10,2026-02-10,ＣＩ　Ｄｅｎｔａｌ　Ｐａｒｔｎｅｒｓ株式会社,,株式会社,東京都,千代田区,永田町２丁目１２番８号永田町ＳＲビル８Ｆ,,13,101,1000014,,,,,,,2026-02-10,1,,,,,シーアイデンタルパートナーズ,0
1127,5010001262781,新規,0,2026-02-10,2026-02-10,株式会社ＨＹＫＷ,,株式会社,東京都,文京区,湯島１丁目２番７号パークアクシス御茶ノ水２０４,,13,105,1130034,,,,,,,2026-02-10,1,,,,,エイチワイケイダブリュー,0
1131,5010003050185,新規,0,2026-02-10,2026-02-10,ハダル合同会社,,合同会社,東京都,中央区,銀座２丁目１０番８号マニエラ銀座ビル４階,,13,102,1040061,,,,,,,2026-02-10,1,,,,,ハダル,0
1132,5010003050292,新規,0,2026-02-10,2026-02-10,ａｎｄ　ｇｌｏｗ合同会社,,合同会社,東京都,中央区,日本橋兜町１７－２兜町第６葉山ビル４Ｆ,,13,102,1030026,,,,,,,2026-02-10,1,,,,,アンドグロー,0
1133,5010003050342,新規,0,2026-02-10,2026-02-10,Ｇｒｉｄ　Ｓｔｏｒａｇｅ　Ｎｏ．１合同会社,,合同会社,東京都,千代田区,麹町３丁目２番９号ＶＯＲＴ麹町ＩＩＩ５階,00142524,13,101,1020083,,,,,,,2026-02-10,1,,,,,グリッドストレージナンバーワン,0
1134,5010003050367,新規,0,2026-02-10,2026-02-10,合同会社ぽのぽ,,合同会社,東京都,中央区,晴海５丁目４番５－１５１０号,,13,102,1040053,,,,,,,2026-02-10,1,,,,,ポノポ,0
1135,5010005041356,新規,0,2026-02-10,2026-02-10,一般社団法人グラブ,,その他の設立登記法人,東京都,中央区,日本橋室町１丁目１１番１２号日本橋水野ビル７階,,13,102,1030022,,,,,,,2026-02-10,1,,,,,グラブ,0
1136,5010005041372,新規,0,2026-02-10,2026-02-10,Ｓｐｒｉｎｔ　Ａｒｍ４一般社団法人,,その他の設立登記法人,東京都,千代田区,霞が関３丁目２番５号,,13,101,1000013,,,,,,,2026-02-10,1,,,,,スプリントアームフォー,0
1137,5010401196340,新規,0,2026-02-10,2026-02-10,４ｓｈｉｆｔ株式会社,,株式会社,東京都,港区,赤坂５丁目２番３３号ＩｓａＩＡｋａｓａｋＡ１６Ｆ,,13,103,1070052,,,,,,,2026-02-10,1,,,,,フォーシフト,0
1138,5010401196398,新規,0,2026-02-10,2026-02-10,株式会社ＡＩ　ｍｅｎｔａｌ　ｈｅａｌｔｈ,,株式会社,東京都,港区,浜松町１丁目９番１２号中野ビル５階,,13,103,1050013,,,,,,,2026-02-10,1,,,,,エーアイメンタルヘルス,0
1139,5010401196448,新規,0,2026-02-10,2026-02-10,株式会社ＶＱ　ＴＥＣＨＮＯＬＯＧＹ,,株式会社,東京都,港区,六本木３丁目１６番１２号六本木ＫＳビル５Ｆ,,13,103,1060032,,,,,,,2026-02-10,1,,,,,ブイキューテクノロジー,0
1140,5010401196530,新規,0,2026-02-10,2026-02-10,株式会社Ｗｏｎｃｏｍｐａｎｙ,,株式会社,東京都,港区,北青山１丁目３‐３三橋ビル３階,,13,103,1070061,,,,,,,2026-02-10,1,,,,,ウォンカンパニー,0
1141,5010403037245,新規,0,2026-02-10,2026-02-10,ＡＹＵＩ合同会社,,合同会社,東京都,港区,南青山３丁目１番３６号青山丸竹ビル６Ｆ,,13,103,1070062,,,,,,,2026-02-10,1,,,,,アユイ,0
1142,5010505003681,新規,0,2026-02-10,2026-02-10,一般社団法人日本風俗カメラマン協会,,その他の設立登記法人,東京都,台東区,入谷２丁目２７番１号石井ビル３階,,13,106,1100013,,,,,,,2026-02-10,1,,,,,ニホンフウゾクカメラマンキョウカイ,0
1150,5010701049017,新規,0,2026-02-10,2026-02-10,Ｈｉｌｌ　ｂａｓｅ　ｃａｐｉｔａｌ株式会社,,株式会社,東京都,品川区,西大井５丁目１２番６号２０２,,13,109,1400015,,,,,,,2026-02-10,1,,,,,ヒルベースキャピタル,0
1161,5011001175065,新規,0,2026-02-10,2026-02-10,株式会社ジャパンベースパートナーズ,,株式会社,東京都,渋谷区,道玄坂１丁目１０番８号渋谷道玄坂東急ビル２Ｆ－Ｃ,,13,113,1500043,,,,,,,2026-02-10,1,,,,,ジャパンベースパートナーズ,0
1162,5011001175494,新規,0,2026-02-10,2026-02-10,株式会社ＷＵＦ,,株式会社,東京都,渋谷区,渋谷２丁目１０番７号大幸第三ビル２Ｆ,,13,113,1500002,,,,,,,2026-02-10,1,,,,,ダブリューユーエフ,0
1165,5011003023602,新規,0,2026-02-10,2026-02-10,合同会社Ｌｉｎｋａｇｅ　Ｐａｒｔｎｅｒｓ,,合同会社,東京都,渋谷区,神南１丁目１１―４ＦＰＧリンクス神南５階,,13,113,1500041,,,,,,,2026-02-10,1,,,,,リンケージパートナーズ,0
1167,5011101114666,新規,0,2026-02-10,2026-02-10,株式会社ＬｉｆｔＭｅ,,株式会社,東京都,新宿区,西新宿３丁目３番１３号西新宿水間ビル２階,,13,104,1600023,,,,,,,2026-02-10,1,,,,,リフトミー,0
1168,5011101114699,新規,0,2026-02-10,2026-02-10,株式会社文生堂,,株式会社,東京都,新宿区,横寺町３８番地矢代ビル２Ｆ,,13,104,1620831,,,,,,,2026-02-10,1,,,,,ブンセイドウ,0
1169,5011103017066,新規,0,2026-02-10,2026-02-10,エーエムティージャパン合同会社,,合同会社,東京都,新宿区,西新宿３丁目３番１３号西新宿水間ビル２Ｆ,,13,104,1600023,,,,,,,2026-02-10,1,,,,,エーエムティージャパン,0
1181,5011801047430,新規,0,2026-02-10,2026-02-10,株式会社肉の慶次,,株式会社,東京都,葛飾区,東四つ木２丁目８番１２号,,13,122,1240014,,,,,,,2026-02-10,1,,,,,ニクノケイジ,0
1182,5011801047439,新規,0,2026-02-10,2026-02-10,株式会社ＭＩＣ,,株式会社,東京都,葛飾区,亀有１丁目１０番１２－４０１号,,13,122,1250061,,,,,,,2026-02-10,1,,,,,エムアイシー,0
1196,5021003017099,新規,0,2026-02-10,2026-02-10,合同会社Ｌｅ　Ｓａｕｖｅｕｒ,,合同会社,神奈川県,藤沢市,本町２丁目４番６号,,14,205,2510053,,,,,,,2026-02-10,1,,,,,ルソベール,0
1201,5030001170925,新規,0,2026-02-10,2026-02-10,株式会社エンライティング,,株式会社,埼玉県,富士見市,ふじみ野西２丁目１番地１,,11,235,3540035,,,,,,,2026-02-10,1,,,,,エンライティング,0
1204,5030003028626,新規,0,2026-02-10,2026-02-10,つなぐ多文化共生サポート合同会社,,合同会社,埼玉県,さいたま市見沼区,大字丸ヶ崎１０５０番地,,11,104,3370001,,,,,,,2026-02-10,1,,,,,ツナグタブンカキョウセイサポート,0
1208,5040001142394,新規,0,2026-02-10,2026-02-10,株式会社エターナル・シェーンビーム,,株式会社,千葉県,印旛郡栄町,安食台３丁目２４番７号,,12,329,2701515,,,,,,,2026-02-10,1,,,,,エターナルシェーンビーム,0
1209,5040001142436,新規,0,2026-02-10,2026-02-10,株式会社ピース,,株式会社,千葉県,千葉市中央区,栄町３５番５号,,12,101,2600016,,,,,,,2026-02-10,1,,,,,ピース,0
1210,5040001142452,新規,0,2026-02-10,2026-02-10,ＴＡＢＩＴＯＭＯ株式会社,,株式会社,千葉県,流山市,南流山７丁目３２番地の３,,12,220,2700163,,,,,,,2026-02-10,1,,,,,タビトモ,0
1214,5050001057971,新規,0,2026-02-10,2026-02-10,株式会社ワイズルートなばや,,株式会社,茨城県,ひたちなか市,大字馬渡７１２番地,,08,221,3120012,,,,,,,2026-02-10,1,,,,,ワイズルートナバヤ,0
1218,5060001038995,新規,0,2026-02-10,2026-02-10,株式会社マサクラ,,株式会社,栃木県,真岡市,寺内１０３５番地３２,,09,209,3214345,,,,,,,2026-02-10,1,,,,,マサクラ,0
1231,5080403005443,新規,0,2026-02-10,2026-02-10,合同会社ぷらいず,,合同会社,静岡県,掛川市,仁藤町７番地の５ヴァンドーム１階,,22,213,4360075,,,,,,,2026-02-10,1,,,,,プライズ,0
1240,5100001039320,新規,0,2026-02-10,2026-02-10,株式会社リソルグレース,,株式会社,長野県,塩尻市,大字広丘郷原１７６５番地９,,20,215,3990704,,,,,,,2026-02-10,1,,,,,リソルグレース,0
1241,5100001039329,新規,0,2026-02-10,2026-02-10,株式会社雅,,株式会社,長野県,駒ヶ根市,中沢１５０２番地１,,20,210,3994231,,,,,,,2026-02-10,1,,,,,ミヤビ,0
1252,5120001283874,新規,0,2026-02-10,2026-02-10,株式会社ＧＬＯＢＡＬ　ＳＯＵＮＤ,,株式会社,大阪府,大阪市北区,堂島１丁目５番１７号,,27,127,5300003,,,,,,,2026-02-10,1,,,,,グローバルサウンド,0
1253,5120001283908,新規,0,2026-02-10,2026-02-10,株式会社スパイアリンク,,株式会社,大阪府,大阪市北区,豊崎３丁目３番７号１０１,,27,127,5310072,,,,,,,2026-02-10,1,,,,,スパイアリンク,0
1254,5120001283949,新規,0,2026-02-10,2026-02-10,株式会社庭燎,,株式会社,大阪府,門真市,舟田町１５番４号,,27,223,5710021,,,,,,,2026-02-10,1,,,,,テイリョウ,0
1255,5120001283957,新規,0,2026-02-10,2026-02-10,株式会社丹頂商事,,株式会社,大阪府,大阪市北区,西天満５丁目６番４号ＳＮビル３階,,27,127,5300047,,,,,,,2026-02-10,1,,,,,タンチョウショウジ,0
1256,5120001283981,新規,0,2026-02-10,2026-02-10,田村工務店株式会社,,株式会社,大阪府,門真市,新橋町２６番１４号,,27,223,5710048,,,,,,,2026-02-10,1,,,,,タムラコウムテン,0
1257,5120001284006,新規,0,2026-02-10,2026-02-10,ＥＶＯＴＲＹ株式会社,,株式会社,大阪府,大阪市北区,天神橋２丁目１番２３号,,27,127,5300041,,,,,,,2026-02-10,1,,,,,エヴォトライ,0
1258,5120001284047,新規,0,2026-02-10,2026-02-10,Ｖａｓｔ　Ｔｒｕｓｔ　Ｉｎｔｅｒｎａｔｉｏｎａｌ株式会社,,株式会社,大阪府,大阪市中央区,南本町２丁目５番１３－２８０６号,,27,128,5410054,,,,,,,2026-02-10,1,,,,,ヴァストトラストインターナショナル,0
1261,5120003031918,新規,0,2026-02-10,2026-02-10,合同会社ＴＥＫＩ‐ＯＮ,,合同会社,大阪府,大阪市阿倍野区,昭和町３丁目６番５号,,27,119,5450011,,,,,,,2026-02-10,1,,,,,テキオン,0
1263,5120101073192,新規,0,2026-02-10,2026-02-10,株式会社ＲｅＬｉｆｅ,,株式会社,大阪府,堺市南区,三原台４丁８番６号,,27,145,5900111,,,,,,,2026-02-10,1,,,,,リライフ,0
1264,5120101073201,新規,0,2026-02-10,2026-02-10,株式会社こあら薬局,,株式会社,大阪府,堺市北区,東雲東町１丁１０番４号,,27,146,5918041,,,,,,,2026-02-10,1,,,,,コアラヤッキョク,0
1268,5120901052189,新規,0,2026-02-10,2026-02-10,Ｋ‐Ｓｔｙｌｅ株式会社,,株式会社,大阪府,吹田市,千里山東１丁目１８－４,,27,205,5650842,,,,,,,2026-02-10,1,,,,,ケースタイル,0
1272,5122001040173,新規,0,2026-02-10,2026-02-10,昌道グループ株式会社,,株式会社,大阪府,東大阪市,長堂３丁目１６－２２,,27,227,5770056,,,,,,,2026-02-10,1,,,,,ショウドウグループ,0
1276,5130001081609,新規,0,2026-02-10,2026-02-10,株式会社ＰＬＡＹ　ＢＡＣＫ,,株式会社,京都府,舞鶴市,字溝尻６０番地５クラウンビル３階,,26,202,6250035,,,,,,,2026-02-10,1,,,,,プレイバック,0
1280,5140001141683,新規,0,2026-02-10,2026-02-10,株式会社タリア,,株式会社,兵庫県,西宮市,上田東町４番１２４号,,28,204,6638133,,,,,,,2026-02-10,1,,,,,タリア,0
1287,5180001170596,新規,0,2026-02-10,2026-02-10,株式会社ＭＥＬＩ,,株式会社,愛知県,一宮市,赤見４丁目９番２号,,23,203,4910023,,,,,,,2026-02-10,1,,,,,メリ,0
1291,5180301040680,新規,0,2026-02-10,2026-02-10,株式会社翌檜,,株式会社,愛知県,豊橋市,西岩田１丁目６番地１１,,23,201,4400831,,,,,,,2026-02-10,1,,,,,アスナロ,0
1292,5180301040689,新規,0,2026-02-10,2026-02-10,株式会社キョウトソリューション,,株式会社,愛知県,岡崎市,城南町１丁目６番地１６,,23,202,4440835,,,,,,,2026-02-10,1,,,,,キョウトソリューション,0
1297,5200001044707,新規,0,2026-02-10,2026-02-10,株式会社清流ＨＯＭＥＳ,,株式会社,岐阜県,岐阜市,金園町６丁目１０番地,,21,201,5008113,,,,,,,2026-02-10,1,,,,,セイリュウホームズ,0
1306,5230001021298,新規,0,2026-02-10,2026-02-10,ＢＯＲＤＥＲ株式会社,,株式会社,富山県,富山市,稲代８８５番地１,,16,201,9392231,,,,,,,2026-02-10,1,,,,,ボーダー,0
1320,5290001113040,新規,0,2026-02-10,2026-02-10,大博建築株式会社,,株式会社,福岡県,筑紫野市,大字山家４３７６番地,,40,217,8180003,,,,,,,2026-02-10,1,,,,,タイハクケンチク,0
1321,5290001113065,新規,0,2026-02-10,2026-02-10,株式会社Ｆｕｌｌスロットル,,株式会社,福岡県,大川市,大字向島１４０９番地８,,40,212,8310005,,,,,,,2026-02-10,1,,,,,フルスロットル,0
1322,5290001113073,新規,0,2026-02-10,2026-02-10,株式会社グリーンアクシス,,株式会社,福岡県,福岡市中央区,清川２丁目１８番１０－８０６号,,40,133,8100005,,,,,,,2026-02-10,1,,,,,グリーンアクシス,0
1323,5290001113115,新規,0,2026-02-10,2026-02-10,株式会社アルムクリーンサービス,,株式会社,福岡県,大牟田市,姫島町３７７番地,,40,202,8360056,,,,,,,2026-02-10,1,,,,,アルムクリーンサービス,0
1324,5290001113131,新規,0,2026-02-10,2026-02-10,株式会社リノオプス,,株式会社,福岡県,福岡市南区,向野１丁目３番１６号,,40,134,8150035,,,,,,,2026-02-10,1,,,,,リノオプス,0
1346,5370001053468,新規,0,2026-02-10,2026-02-10,エムエスサービス株式会社,,株式会社,宮城県,黒川郡大衡村,大瓜字尾無９２番地３,,04,424,9813601,,,,,,,2026-02-10,1,,,,,エムエスサービス,0
1354,5400001017320,新規,0,2026-02-10,2026-02-10,株式会社カーズワン,,株式会社,岩手県,二戸市,福岡字上平１２番地１７,,03,213,0286101,,,,,,,2026-02-10,1,,,,,カーズワン,0
1359,5420001019397,新規,0,2026-02-10,2026-02-10,株式会社ファイブ・ワン,,株式会社,青森県,南津軽郡藤崎町,大字藤崎字南豊田１番地８,,02,361,0383802,,,,,,,2026-02-10,1,,,,,ファイブワン,0
1363,5430001096221,新規,0,2026-02-10,2026-02-10,株式会社シリパファーム,,株式会社,北海道,余市郡余市町,山田町５０４番地,,01,408,0460012,,,,,,,2026-02-10,1,,,,,シリパファーム,0
1364,5430001096238,新規,0,2026-02-10,2026-02-10,株式会社Ｇ．Ｉ．Ｔ,,株式会社,北海道,札幌市南区,真駒内本町５丁目２番２－２０２号,,01,106,0050021,,,,,,,2026-02-10,1,,,,,ジーアイティー,0
1365,5430001096246,新規,0,2026-02-10,2026-02-10,株式会社Ｓｔａｎ,,株式会社,北海道,札幌市中央区,南四条西３丁目１番地１第３グリーンビル,,01,101,0640804,,,,,,,2026-02-10,1,,,,,スタン,0
1366,5430003018561,新規,0,2026-02-10,2026-02-10,北海道ステイデベロップメント合同会社,,合同会社,北海道,札幌市豊平区,豊平四条３丁目１番１号,,01,105,0620904,,,,,,,2026-02-10,1,,,,,ホッカイドウステイデベロップメント,0
1367,5430003018578,新規,0,2026-02-10,2026-02-10,ＣＳ合同会社,,合同会社,北海道,札幌市中央区,南七条西８丁目１０３２番地３ＩＮＯＶＥ札幌南７条Ｉ８０２号,00142535,01,101,0640807,,,,,,,2026-02-10,1,,,,,シーエス,0
1369,5460301005341,新規,0,2026-02-10,2026-02-10,株式会社トコラボ,,株式会社,北海道,斜里郡斜里町,青葉町１８番地１５,,01,545,0994117,,,,,,,2026-02-10,1,,,,,トコラボ,0
1370,5470001021092,新規,0,2026-02-10,2026-02-10,株式会社循環堂,,株式会社,香川県,高松市,番町２丁目１７番１５号ファロス第一ビル六階,,37,201,7600017,,,,,,,2026-02-10,1,,,,,ジュンカンドウ,0
1371,5470003003072,新規,0,2026-02-10,2026-02-10,ｓｈｙｌｐｈ合同会社,,合同会社,香川県,高松市,木太町１７９２番地９,,37,201,7600080,,,,,,,2026-02-10,1,,,,,,0
1372,5480003002387,新規,0,2026-02-10,2026-02-10,合同会社恵サポート,,合同会社,徳島県,徳島市,国府町日開１４７番地の２,,36,201,7793117,,,,,,,2026-02-10,1,,,,,メグミサポート,0
1373,5700150134365,新規,0,2026-02-10,2026-02-10,伯耆土地改良区連合,,その他,鳥取県,西伯郡伯耆町,吉長３７番地３,,31,390,6894133,,,,,,,2026-02-10,1,,,,,ホウキトチカイリヨウクレンゴウ,0
1384,6010001262517,新規,0,2026-02-10,2026-02-10,ウィンクル株式会社,,株式会社,東京都,千代田区,神田須田町１丁目７番８号ＶＯＲＴ秋葉原ＩＶ２Ｆ,,13,101,1010041,,,,,,,2026-02-10,1,,,,,ウィンクル,0
1385,6010001262541,新規,0,2026-02-10,2026-02-10,ちばバイオマスエネルギー株式会社,,株式会社,東京都,中央区,日本橋茅場町１丁目４番６号木村実業第二ビル３階,,13,102,1030025,,,,,,,2026-02-10,1,,,,,チババイオマスエネルギー,0
1386,6010001262665,新規,0,2026-02-10,2026-02-10,信徳基業株式会社,00142525,株式会社,東京都,千代田区,神田佐久間町３丁目２８番地星野ビル４Ｆ５９号,,13,101,1010025,,,,,,,2026-02-10,1,,,,,シントクキギョウ,0
1387,6010001262673,新規,0,2026-02-10,2026-02-10,たからホールディングス株式会社,,株式会社,東京都,千代田区,神田三崎町２丁目１５番６号,,13,101,1010061,,,,,,,2026-02-10,1,,,,,タカラホールディングス,0
1388,6010001262764,新規,0,2026-02-10,2026-02-10,株式会社ＳＨＥＬＬＡ,,株式会社,東京都,中央区,銀座１丁目２２番１１号銀座大竹ビジデンス２階,,13,102,1040061,,,,,,,2026-02-10,1,,,,,シェラ,0
1394,6010003050077,新規,0,2026-02-10,2026-02-10,Ｒａｉｎｂｏｗ　Ｐａｓｓｐｏｒｔ合同会社,,合同会社,東京都,中央区,銀座７丁目１３番２０号銀座ＴＨビル９階,,13,102,1040061,,,,,,,2026-02-10,1,,,,,レインボーパスポート,0
1395,6010003050184,新規,0,2026-02-10,2026-02-10,アルタイル合同会社,,合同会社,東京都,中央区,銀座２丁目１０番８号マニエラ銀座ビル４階,,13,102,1040061,,,,,,,2026-02-10,1,,,,,アルタイル,0
1396,6010003050250,新規,0,2026-02-10,2026-02-10,裏方オペレーション合同会社,,合同会社,東京都,中央区,銀座１丁目２２番１１号,,13,102,1040061,,,,,,,2026-02-10,1,,,,,ウラカタオペレーション,0
1397,6010003050259,新規,0,2026-02-10,2026-02-10,ＢｒｅｅｚｅＢｌｏｗ合同会社,,合同会社,東京都,中央区,八重洲２丁目２－１東京ミッドタウン八重洲セントラルタワー７階,,13,102,1040028,,,,,,,2026-02-10,1,,,,,ブリーズブロー,0
1399,6010003050300,新規,0,2026-02-10,2026-02-10,ＳＴＩ合同会社,,合同会社,東京都,中央区,勝どき４丁目６－１パークタワー勝どきサウス４９１４号,,13,102,1040054,,,,,,,2026-02-10,1,,,,,エスティーアイ,0
1400,6010003050317,新規,0,2026-02-10,2026-02-10,Ｅｖｅｒｇｒｅｅｎ　Ｖａｌｕｅ　Ｉ合同会社,,合同会社,東京都,千代田区,平河町１丁目６番１５号シルスフィア会計事務所内,,13,101,1020093,,,,,,,2026-02-10,1,,,,,エバーグリーンバリューワン,0
1407,6010401195993,新規,0,2026-02-10,2026-02-10,株式会社五分前,,株式会社,東京都,港区,赤坂３丁目４－４専修赤坂ビルＢ１πＴｏｋｙｏ内,,13,103,1070052,,,,,,,2026-02-10,1,,,,,ゴフンマエ,0
1408,6010401196364,新規,0,2026-02-10,2026-02-10,エンデザイン株式会社,,株式会社,東京都,港区,青山三丁目１番３６号,,13,103,1050000,,,,,,,2026-02-10,1,,,,,エンデザイン,0
1409,6010401196439,新規,0,2026-02-10,2026-02-10,彩縁テック株式会社,,株式会社,東京都,港区,赤坂３丁目１３－３赤坂セントラルビル６Ｆ,,13,103,1070052,,,,,,,2026-02-10,1,,,,,サイエンテック,0
1414,6010603012071,新規,0,2026-02-10,2026-02-10,合同会社Ｍ．Ａ．Ｄ,,合同会社,東京都,墨田区,横川１丁目３番１５－４０１号,,13,107,1300003,,,,,,,2026-02-10,1,,,,,エムエイディ,0
1417,6010701049016,新規,0,2026-02-10,2026-02-10,株式会社キットカラフル,,株式会社,東京都,品川区,北品川５丁目５－１５,,13,109,1410001,,,,,,,2026-02-10,1,,,,,キットカラフル,0
1418,6010703008127,新規,0,2026-02-10,2026-02-10,オグラクラン合同会社,,合同会社,東京都,品川区,大井５丁目３番６号,,13,109,1400014,,,,,,,2026-02-10,1,,,,,オグラクラン,0
1420,6010803005718,新規,0,2026-02-10,2026-02-10,ＳＡＫＵＲＡ　ＴＲＡＤＩＮＧ合同会社,,合同会社,東京都,大田区,矢口１丁目２０番５号,,13,111,1460093,,,,,,,2026-02-10,1,,,,,サクラトレーディング,0
1426,6011003023502,新規,0,2026-02-10,2026-02-10,合同会社ドリー,,合同会社,東京都,渋谷区,神宮前６丁目２３番４号桑野ビル２Ｆ,,13,113,1500001,,,,,,,2026-02-10,1,,,,,ドリー,0
1427,6011003023510,新規,0,2026-02-10,2026-02-10,テラ合同会社,,合同会社,東京都,渋谷区,神宮前６丁目２３番地４号桑野ビル２Ｆ,,13,113,1500001,,,,,,,2026-02-10,1,,,,,テラ,0
1428,6011003023618,新規,0,2026-02-10,2026-02-10,ＩＮＦＬＥＣＴＩＯＮ　ＳＴＵＤＩＯ合同会社,,合同会社,東京都,渋谷区,道玄坂１丁目１０‐８渋谷道玄坂東急ビル２Ｆ‐Ｃ,,13,113,1500043,,,,,,,2026-02-10,1,,,,,インフレクションスタジオ,0
1434,6011101114665,新規,0,2026-02-10,2026-02-10,株式会社ｂａｌａｎｃｅ,,株式会社,東京都,新宿区,西新宿７丁目７番３０号小田急西新宿Ｏ－ＰＬＡＣＥ１Ｆ,,13,104,1600023,,,,,,,2026-02-10,1,,,,,バランス,0
1435,6011101114830,新規,0,2026-02-10,2026-02-10,ｎｅｕｒｅｋａ株式会社,,株式会社,東京都,新宿区,西早稲田１丁目２２番３号,,13,104,1690051,,,,,,,2026-02-10,1,,,,,ニューレカ,0
1436,6011103016942,新規,0,2026-02-10,2026-02-10,ＴｏｋｙｏＳｍａｒｔＨｕｂ合同会社,,合同会社,東京都,新宿区,西新宿３丁目３番１３号西新宿水間ビル２Ｆ,,13,104,1600023,,,,,,,2026-02-10,1,,,,,トウキョウスマートハブ,0
1438,6011205002733,新規,0,2026-02-10,2026-02-10,土地家屋調査士法人新宮事務所,,その他の設立登記法人,東京都,中野区,中央２丁目５１番８号,,13,114,1640011,,,,,,,2026-02-10,1,,,,,シンミヤジムショ,0
1441,6011601029363,新規,0,2026-02-10,2026-02-10,麦克斯商業株式会社,,株式会社,東京都,練馬区,関町北５丁目１３番２５－１－Ｃ,,13,120,1770051,,,,,,,2026-02-10,1,,,,,マイクースーショウギョウ,0
1444,6011703004520,新規,0,2026-02-10,2026-02-10,合同会社中翔組,,合同会社,東京都,江戸川区,春江町３丁目１３番１８号,,13,123,1320003,,,,,,,2026-02-10,1,,,,,ナカショウグミ,0
1447,6012801024526,新規,0,2026-02-10,2026-02-10,株式会社テイクオフ・パートナー,,株式会社,東京都,国立市,中１丁目１３番地の１０７,,13,215,1860004,,,,,,,2026-02-10,1,,,,,テイクオフパートナー,0
1452,6020001166989,新規,0,2026-02-10,2026-02-10,株式会社ＫＡＷＡＳＥ,,株式会社,神奈川県,横浜市青葉区,たちばな台２丁目１１番地７９,,14,117,2270046,,,,,,,2026-02-10,1,,,,,カワセ,0
1460,6021003017107,新規,0,2026-02-10,2026-02-10,合同会社ＢＥＳＴ　ＢＵＩＬＤ　ＣＯＭＰＡＮＹ,,合同会社,神奈川県,相模原市中央区,田名３８３２番地１４,,14,152,2520244,,,,,,,2026-02-10,1,,,,,ベストビルドカンパニー,0
1462,6030001170882,新規,0,2026-02-10,2026-02-10,株式会社ＯＳＭ,,株式会社,埼玉県,三郷市,早稲田２丁目２０番地１２ベストステージ三郷早稲田１０２,,11,237,3410018,,,,,,,2026-02-10,1,,,,,オーエスエム,0
1463,6030001170932,新規,0,2026-02-10,2026-02-10,インクラックス株式会社,,株式会社,埼玉県,さいたま市西区,大字中野林５５９番地９,,11,101,3310057,,,,,,,2026-02-10,1,,,,,インクラックス,0
1469,6040003029481,新規,0,2026-02-10,2026-02-10,合同会社Ｅｎｅｒｇｙ　Ｔｅｃｈ,,合同会社,千葉県,松戸市,栄町西４丁目１２３８番地の１８,,12,207,2710061,,,,,,,2026-02-10,1,,,,,エナジーテック,0
1476,6060001038994,新規,0,2026-02-10,2026-02-10,株式会社エコ導,,株式会社,栃木県,小山市,城東１丁目４番２４号ＴＳビルＶ１Ｆ,,09,208,3230807,,,,,,,2026-02-10,1,,,,,エコドウ,0
1479,6060003005951,新規,0,2026-02-10,2026-02-10,わかさま合同会社,,合同会社,栃木県,芳賀郡益子町,大字大沢２９３３番地,,09,342,3214104,,,,,,,2026-02-10,1,,,,,ワカサマ,0
1480,6070001043812,新規,0,2026-02-10,2026-02-10,株式会社フルブラックデザイン,,株式会社,群馬県,伊勢崎市,柴町３３１番地１,,10,204,3720824,,,,,,,2026-02-10,1,,,,,フルブラックデザイン,0
1481,6080001027418,新規,0,2026-02-10,2026-02-10,株式会社Ｕ＆Ｍｅ,,株式会社,静岡県,藤枝市,志太４丁目８番１７号グローリー尚徳３０７号,,22,214,4260071,,,,,,,2026-02-10,1,,,,,ユーアンドミー,0
1488,6100001039328,新規,0,2026-02-10,2026-02-10,野村ユニソン株式会社,,株式会社,長野県,茅野市,ちの６５２番地１,,20,214,3910001,,,,,,,2026-02-10,1,,,,,ノムラユニソン,0
1492,6100005013444,新規,0,2026-02-10,2026-02-10,一般社団法人ココノバ,,その他の設立登記法人,長野県,塩尻市,大門七番町１５番４号,,20,215,3990738,,,,,,,2026-02-10,1,,,,,ココノバ,0
1497,6120001283989,新規,0,2026-02-10,2026-02-10,株式会社ショウワ美建,,株式会社,大阪府,大阪市西淀川区,中島１丁目２８番２１号,,27,113,5550041,,,,,,,2026-02-10,1,,,,,ショウワビケン,0
1498,6120001284005,新規,0,2026-02-10,2026-02-10,東シポＨＤ株式会社,,株式会社,大阪府,大阪市中央区,農人橋１丁目１番２２号,,27,128,5400011,,,,,,,2026-02-10,1,,,,,トウシポホールディングス,0
1499,6120001284013,新規,0,2026-02-10,2026-02-10,株式会社エフズ,,株式会社,大阪府,大阪市天王寺区,上本町８丁目３番８－６０２号,,27,109,5430001,,,,,,,2026-02-10,1,,,,,エフズ,0
1500,6120001284062,新規,0,2026-02-10,2026-02-10,株式会社ＦＭマネジメント,,株式会社,大阪府,守口市,西郷通２丁目１０番９号,,27,209,5700034,,,,,,,2026-02-10,1,,,,,エフエムマネジメント,0
1503,6120003031842,新規,0,2026-02-10,2026-02-10,ＲＫ．Ｊ合同会社,,合同会社,大阪府,大阪市住吉区,山之内４丁目１５番１１－４０６号,,27,120,5580023,,,,,,,2026-02-10,1,,,,,アールケージェー,0
1504,6120003031891,新規,0,2026-02-10,2026-02-10,合同会社惟智慧,,合同会社,大阪府,大阪市淀川区,新高２丁目１０番６号,,27,123,5320033,,,,,,,2026-02-10,1,,,,,イチエ,0
1507,6120101073183,新規,0,2026-02-10,2026-02-10,株式会社黒船,,株式会社,大阪府,和泉市,緑ケ丘２丁目２１番１６号,,27,219,5941155,,,,,,,2026-02-10,1,,,,,クロフネ,0
1508,6120101073200,新規,0,2026-02-10,2026-02-10,株式会社フォーエイチ,,株式会社,大阪府,堺市東区,大美野３９－２,,27,143,5998126,,,,,,,2026-02-10,1,,,,,フォーエイチ,0
1511,6120901052205,新規,0,2026-02-10,2026-02-10,株式会社ＡｓｓＵｒｅ,,株式会社,大阪府,吹田市,江坂町２丁目１－１１江坂山甚ビル２Ｆ,,27,205,5640063,,,,,,,2026-02-10,1,,,,,アシュア,0
1512,6120901052213,新規,0,2026-02-10,2026-02-10,株式会社Ｍａｔｏｅｍａ,,株式会社,大阪府,吹田市,豊津町１番１８号エクラート江坂ビル３階,,27,205,5640051,,,,,,,2026-02-10,1,,,,,マトエマ,0
1513,6120903006076,新規,0,2026-02-10,2026-02-10,合同会社ローエングリン,,合同会社,大阪府,豊中市,永楽荘３丁目１－１８－４,,27,203,5600051,,,,,,,2026-02-10,1,,,,,ローエングリン,0
1516,6122001040172,新規,0,2026-02-10,2026-02-10,株式会社Ｂｌｕｅ　Ｍｏｏｎ,,株式会社,大阪府,東大阪市,鳥居町７番３４－１１７号ベリア枚岡,,27,227,5798035,,,,,,,2026-02-10,1,,,,,ブルームーン,0
1517,6122001040180,新規,0,2026-02-10,2026-02-10,大月商事株式会社,,株式会社,大阪府,大東市,住道２丁目２番１１４号,,27,218,5740026,,,,,,,2026-02-10,1,,,,,オオツキショウジ,0
1519,6130001081590,新規,0,2026-02-10,2026-02-10,株式会社ＡＲＣＵＳ,,株式会社,京都府,京都市伏見区,深草大亀谷万帖敷町４２０番地７,,26,109,6120846,,,,,,,2026-02-10,1,,,,,アルクス,0
1520,6130001081616,新規,0,2026-02-10,2026-02-10,株式会社ＲＡＹＮＺ,,株式会社,京都府,京都市下京区,七条通油小路東入大黒町２２７番地第２キョートビル４０２,,26,106,6008223,,,,,,,2026-02-10,1,,,,,レインズ,0
1521,6130003011133,新規,0,2026-02-10,2026-02-10,合同会社ＪＡＳＰＥＣ,,合同会社,京都府,舞鶴市,字行永１７７１－２,,26,202,6250052,,,,,,,2026-02-10,1,,,,,ジャスペック,0
1522,6130003011141,新規,0,2026-02-10,2026-02-10,ハックアンドカンパニー合同会社,,合同会社,京都府,京都市山科区,大宅細田町１０番地,,26,110,6078189,,,,,,,2026-02-10,1,,,,,ハックアンドカンパニー,0
1526,6140001141690,新規,0,2026-02-10,2026-02-10,株式会社昇毅,,株式会社,兵庫県,西宮市,常磐町２番２４－２０３号,,28,204,6620043,,,,,,,2026-02-10,1,,,,,ショウキ,0
1529,6170001018969,新規,0,2026-02-10,2026-02-10,株式会社ＡＲＴａｎｄＰｒｏｄｕｃｔ,,株式会社,和歌山県,有田市,宮原町道８４番地４,,30,204,6490436,,,,,,,2026-02-10,1,,,,,アートアンドプロダクト,0
1531,6170003002384,新規,0,2026-02-10,2026-02-10,合同会社リアン,,合同会社,和歌山県,岩出市,清水４４０番地の６,,30,209,6496227,,,,,,,2026-02-10,1,,,,,リアン,0
1533,6180001170587,新規,0,2026-02-10,2026-02-10,株式会社エススリー,,株式会社,愛知県,半田市,美原町１丁目７番地の５,,23,205,4750073,,,,,,,2026-02-10,1,,,,,エススリー,0
1534,6180001170629,新規,0,2026-02-10,2026-02-10,株式会社縁結び,,株式会社,愛知県,半田市,亀崎高根町７丁目１番地の３,,23,205,4750024,,,,,,,2026-02-10,1,,,,,エンムスビ,0
1535,6180005021423,新規,0,2026-02-10,2026-02-10,行政書士法人オールスター,,その他の設立登記法人,愛知県,名古屋市中区,丸の内１丁目１６番８号Ｃ－８ビル５階,,23,106,4600002,,,,,,,2026-02-10,1,,,,,オールスター,0
1543,6210001020474,新規,0,2026-02-10,2026-02-10,株式会社雲界空間開発,,株式会社,福井県,福井市,下馬３丁目９０５番地,,18,201,9188112,,,,,,,2026-02-10,1,,,,,ウンカイクウカンカイハツ,0
1566,6290001113072,新規,0,2026-02-10,2026-02-10,Ｎｏｗ　Ｃｒｅａｔｉｖｅ株式会社,,株式会社,福岡県,福岡市中央区,今川２丁目３番２５－７０８号,,40,133,8100054,,,,,,,2026-02-10,1,,,,,ナウクリエイティブ,0
1568,6290003018006,新規,0,2026-02-10,2026-02-10,合同会社ＭＡＬＥＸ,,合同会社,福岡県,久留米市,瀬下町２４３番地玉置ビル１２３号,,40,203,8300025,,,,,,,2026-02-10,1,,,,,マレックス,0
1569,6290003018039,新規,0,2026-02-10,2026-02-10,合同会社ユプラス,,合同会社,福岡県,福岡市南区,若久４丁目３番２１－３号,,40,134,8150042,,,,,,,2026-02-10,1,,,,,ユプラス,0
1571,6300001014509,新規,0,2026-02-10,2026-02-10,株式会社フォーライフ,,株式会社,佐賀県,伊万里市,立花町１８７０番地４４,,41,205,8480027,,,,,,,2026-02-10,1,,,,,フォーライフ,0
1577,6330001033976,新規,0,2026-02-10,2026-02-10,株式会社ＭＡＪＯＲ,,株式会社,熊本県,熊本市南区,田井島２丁目３番１５号,,43,104,8620965,,,,,,,2026-02-10,1,,,,,メジャー,0
1578,6330001033984,新規,0,2026-02-10,2026-02-10,ややまち不動産株式会社,,株式会社,熊本県,熊本市南区,田井島３丁目３番４９号,,43,104,8620965,,,,,,,2026-02-10,1,,,,,ヤヤマチフドウサン,0
1579,6330001033992,新規,0,2026-02-10,2026-02-10,株式会社ワイビー,,株式会社,熊本県,熊本市東区,小山３丁目５番３４号,,43,102,8618045,,,,,,,2026-02-10,1,,,,,ワイビー,0
1582,6340001027969,新規,0,2026-02-10,2026-02-10,株式会社エポメノシステム,,株式会社,鹿児島県,霧島市,国分野口東８番４０号,,46,218,8994341,,,,,,,2026-02-10,1,,,,,エポメノシステム,0
1585,6360003015607,新規,0,2026-02-10,2026-02-10,合同会社親泊ファーム,,合同会社,沖縄県,島尻郡八重瀬町,字後原１５６番地,,47,362,9010504,,,,,,,2026-02-10,1,,,,,オヤドマリファーム,0
1596,6380001035860,新規,0,2026-02-10,2026-02-10,ＡＩＲ　ＲＡＣＥ　Ｘ株式会社,,株式会社,福島県,福島市,大笹生字苧畑１番地３３,,07,201,9600251,,,,,,,2026-02-10,1,,,,,エアレースエックス,0
1597,6380003006249,新規,0,2026-02-10,2026-02-10,知的資産経営支援合同会社,,合同会社,福島県,いわき市,内郷綴町榎下１６番地の３,,07,204,9738403,,,,,,,2026-02-10,1,,,,,チテキシサンケイエイシエン,0
1602,6430001096187,新規,0,2026-02-10,2026-02-10,株式会社ＮＳファーム,,株式会社,北海道,雨竜郡雨竜町,字満寿３８番地４７,,01,436,0782600,,,,,,,2026-02-10,1,,,,,エヌエスファーム,0
1603,6430001096195,新規,0,2026-02-10,2026-02-10,株式会社なり屋,,株式会社,北海道,札幌市北区,新琴似七条７丁目１番２０号ななななビル,,01,102,0010907,,,,,,,2026-02-10,1,,,,,ナリヤ,0
1604,6430001096204,新規,0,2026-02-10,2026-02-10,肉の達人株式会社,,株式会社,北海道,札幌市中央区,南五条西６丁目９－４　２Ｆ,,01,101,0640805,,,,,,,2026-02-10,1,,,,,ニクノタツジン,0
1605,6430001096220,新規,0,2026-02-10,2026-02-10,株式会社ソレイス,,株式会社,北海道,札幌市北区,新川四条１４丁目５－７,,01,102,0010924,,,,,,,2026-02-10,1,,,,,ソレイス,0
1606,6430001096245,新規,0,2026-02-10,2026-02-10,株式会社ＢＥＳＴＩＥ,,株式会社,北海道,札幌市中央区,北五条西１１丁目１１番地１パークアクシス札幌植物園前１３０８号,,01,101,0600005,,,,,,,2026-02-10,1,,,,,ベスティ,0
1607,6430003018552,新規,0,2026-02-10,2026-02-10,合同会社ＨＥＡＲＴ‐ＧＩＦＴ,,合同会社,北海道,札幌市白石区,川北二条３丁目９番１３号,,01,104,0030852,,,,,,,2026-02-10,1,,,,,ハートギフト,0
1608,6430003018577,新規,0,2026-02-10,2026-02-10,合同会社ＴｏｍｏＮｉ,,合同会社,北海道,札幌市東区,北二十八条東５丁目２番２２号,,01,103,0650028,,,,,,,2026-02-10,1,,,,,トモニ,0
1623,6700150134364,新規,0,2026-02-10,2026-02-10,ＭＯＶＩＮＧ　ＷＡＬＬＳ　ＰＴＥ．ＬＴＤ．,,外国会社等,東京都,渋谷区,神宮前６丁目２３番４号桑野ビル２階,,13,113,1500001,シンガポール共和国シックス・バッテリー・ロード、バッテリー・ロード６番地３８－０４,,,,,,2026-02-10,1,,,,,モヴイングウオールリミテツド,0
1630,7010001262540,新規,0,2026-02-10,2026-02-10,株式会社デザインをしないデザイン会社,,株式会社,東京都,中央区,日本橋蛎殻町１丁目３３番６号,,13,102,1030014,,,,,,,2026-02-10,1,,,,,デザインヲシナイデザインガイシャ,0
1631,7010001262697,新規,0,2026-02-10,2026-02-10,Ａｔｍｏｃｅ　Ｊａｐａｎ株式会社,,株式会社,東京都,千代田区,内幸町２丁目２番２号富国生命ビル１６階,,13,101,1000011,,,,,,,2026-02-10,1,,,,,アトモスジャパン,0
1632,7010001262747,新規,0,2026-02-10,2026-02-10,ＣＬＡＳＳ株式会社,,株式会社,東京都,中央区,勝どき１丁目８番１号,,13,102,1040054,,,,,,,2026-02-10,1,,,,,クラス,0
1636,7010005041370,新規,0,2026-02-10,2026-02-10,一般社団法人ＪＲＣファンド第１号,,その他の設立登記法人,東京都,千代田区,丸の内１丁目４番１号東京共同会計事務所内,,13,101,1000005,,,,,,,2026-02-10,1,,,,,ジェイアールシーファンドダイイチゴウ,0
1637,7010101017076,新規,0,2026-02-10,2026-02-10,株式会社ＮＯＶＡ＆ＫＹ,,株式会社,東京都,八王子市,東町１番８号,,13,201,1920082,,,,,,,2026-02-10,1,,,,,ノヴァアンドケイワイ,0
1645,7010401196371,新規,0,2026-02-10,2026-02-10,ＯＱＩ０１株式会社,,株式会社,東京都,港区,浜松町２丁目４番１号,,13,103,1050013,,,,,,,2026-02-10,1,,,,,オーキューアイゼロイチ,0
1647,7010405025353,新規,0,2026-02-10,2026-02-10,ＬＰＭ一般社団法人,,その他の設立登記法人,東京都,港区,六本木１丁目９番１０号アークヒルズ仙石山森タワー４０階,,13,103,1060032,,,,,,,2026-02-10,1,,,,,エルピーエム,0
1660,7010901058880,新規,0,2026-02-10,2026-02-10,株式会社ＥＩＧＨＴＩＡ,,株式会社,東京都,世田谷区,上北沢４丁目１３－８オハナ３０１,,13,112,1560057,,,,,,,2026-02-10,1,,,,,エイティア,0
1661,7010903010609,新規,0,2026-02-10,2026-02-10,合同会社ＳＴＡＲＥＲＡ,,合同会社,東京都,世田谷区,奥沢５丁目３６番１１号メゾン・ド・コフレ自由が丘ＩＩ１０３,00142522,13,112,1580083,,,,,,,2026-02-10,1,,,,,スターラ,0
1662,7010903010617,新規,0,2026-02-10,2026-02-10,合同会社ＪＳＴＹ,,合同会社,東京都,世田谷区,上野毛２丁目２２番６号,,13,112,1580093,,,,,,,2026-02-10,1,,,,,ジェスティー,0
1668,7011001175328,新規,0,2026-02-10,2026-02-10,株式会社リフィスト,,株式会社,東京都,渋谷区,道玄坂１丁目１０番８号渋谷道玄坂東急ビル２Ｆ－Ｃ,,13,113,1500043,,,,,,,2026-02-10,1,,,,,リフィスト,0
1669,7011001175336,新規,0,2026-02-10,2026-02-10,ジャパンデジタルアセット株式会社,,株式会社,東京都,渋谷区,広尾１丁目１番３９号,,13,113,1500012,,,,,,,2026-02-10,1,,,,,ジャパンデジタルアセット,0
1670,7011001175352,新規,0,2026-02-10,2026-02-10,株式会社Ｃｏ‐Ｍｅｎｔｏｒｓ,,株式会社,東京都,渋谷区,広尾１丁目２番地１号ヒカリビル４階,,13,113,1500012,,,,,,,2026-02-10,1,,,,,コーメンターズ,0
1673,7011003023501,新規,0,2026-02-10,2026-02-10,ＡＸＬＲＴＲ合同会社,,合同会社,東京都,渋谷区,宇田川町３番５号ＳｐａｒｋＳＨＩＢＵＹＡ７階,,13,113,1500042,,,,,,,2026-02-10,1,,,,,アクセラレーター,0
1682,7011101114664,新規,0,2026-02-10,2026-02-10,株式会社スペースクラフト,,株式会社,東京都,新宿区,西新宿６丁目５番１号新宿アイランドタワー３１階,,13,104,1600023,,,,,,,2026-02-10,1,,,,,スペースクラフト,0
1683,7011101114672,新規,0,2026-02-10,2026-02-10,株式会社Ｖ．Ｔ,,株式会社,東京都,新宿区,上落合３丁目１７－１５ハイムクリーン４０１,,13,104,1610034,,,,,,,2026-02-10,1,,,,,ブイティ,0
1685,7011103016909,新規,0,2026-02-10,2026-02-10,Ａｕｒｕｍ　Ｐｈｏｔｏｇｒａｐｈｙ合同会社,,合同会社,東京都,新宿区,中落合２丁目２７－１８－１０３,,13,104,1610032,,,,,,,2026-02-10,1,,,,,オーラムフォトグラフィー,0
1686,7011103016966,新規,0,2026-02-10,2026-02-10,合同会社ｌｉｎｋｓｍｉｌｅ,,合同会社,東京都,新宿区,西新宿３丁目３番１３号西新宿水間ビル６階,,13,104,1600023,,,,,,,2026-02-10,1,,,,,リンクスマイル,0
1692,7011501033084,新規,0,2026-02-10,2026-02-10,株式会社Ｗｉｌ　Ｆｌｕｘ,,株式会社,東京都,北区,赤羽２丁目４９番５号小林ビル２０１,,13,117,1150045,,,,,,,2026-02-10,1,,,,,ウィルフラックス,0
1695,7011601029370,新規,0,2026-02-10,2026-02-10,株式会社ＡＸＩＳ　ＢＡＳＥ,,株式会社,東京都,練馬区,春日町５丁目３５番３３号,,13,120,1790074,,,,,,,2026-02-10,1,,,,,アクシスベース,0
1701,7012401044122,新規,0,2026-02-10,2026-02-10,株式会社栄ウォール,,株式会社,東京都,府中市,栄町３丁目２４番地の２１,,13,206,1830051,,,,,,,2026-02-10,1,,,,,サカエウォール,0
1702,7012801024525,新規,0,2026-02-10,2026-02-10,株式会社翠,,株式会社,東京都,立川市,上砂町４丁目３２番地の４,,13,202,1900032,,,,,,,2026-02-10,1,,,,,スイ,0
1704,7012803003997,新規,0,2026-02-10,2026-02-10,合同会社Ｔｍｎｒ,,合同会社,東京都,武蔵村山市,三ツ藤１丁目１０－１１,,13,223,2080021,,,,,,,2026-02-10,1,,,,,ティーエムエヌアール,0
1710,7021001087497,新規,0,2026-02-10,2026-02-10,株式会社ワーク,,株式会社,神奈川県,厚木市,山際５７７番地１,,14,212,2430803,,,,,,,2026-02-10,1,,,,,ワーク,0
1711,7021003017106,新規,0,2026-02-10,2026-02-10,湘南ハートランド合同会社,,合同会社,神奈川県,藤沢市,辻堂東海岸４丁目７番１０～１号,,14,205,2510045,,,,,,,2026-02-10,1,,,,,ショウナンハートランド,0
1716,7030001170972,新規,0,2026-02-10,2026-02-10,株式会社Ｐｒｏｆｉｘ,,株式会社,埼玉県,吉川市,大字三輪野江６９番地２,,11,243,3420027,,,,,,,2026-02-10,1,,,,,プロフィックス,0
1719,7030003028616,新規,0,2026-02-10,2026-02-10,合同会社Ｍｆｉｔｎｅｓｓ,,合同会社,埼玉県,さいたま市南区,大字広ヶ谷戸２３９番地７,,11,108,3360041,,,,,,,2026-02-10,1,,,,,エムフィットネス,0
1720,7030003028640,新規,0,2026-02-10,2026-02-10,合同会社Ｏｍｎｏｉｔｏ,,合同会社,埼玉県,久喜市,桜田３丁目１番１―５―３０１,,11,232,3400203,,,,,,,2026-02-10,1,,,,,オムノイト,0
1724,7040001142392,新規,0,2026-02-10,2026-02-10,株式会社Ｍ＆Ｍ,,株式会社,千葉県,夷隅郡大多喜町,小土呂３１０番地６,,12,441,2980201,,,,,,,2026-02-10,1,,,,,エムアンドエム,0
1725,7040001142401,新規,0,2026-02-10,2026-02-10,株式会社ルビーホーム,,株式会社,千葉県,千葉市花見川区,西小中台５番８棟１０６号,,12,102,2620016,,,,,,,2026-02-10,1,,,,,ルビーホーム,0
1726,7040001142434,新規,0,2026-02-10,2026-02-10,株式会社オーロラビジョン,,株式会社,千葉県,木更津市,朝日１丁目２番２９号シグママンション朝日Ｂ棟１０１,,12,206,2920055,,,,,,,2026-02-10,1,,,,,オーロラビジョン,0
1727,7040001142442,新規,0,2026-02-10,2026-02-10,スマイリング株式会社,,株式会社,千葉県,野田市,鶴奉１４９番地の４,,12,208,2780003,,,,,,,2026-02-10,1,,,,,スマイリング,0
1733,7040005023036,新規,0,2026-02-10,2026-02-10,一般社団法人めめビジョン,,その他の設立登記法人,千葉県,船橋市,三山９丁目１０番１号,,12,204,2740072,,,,,,,2026-02-10,1,,,,,メメビジョン,0
1735,7050003009928,新規,0,2026-02-10,2026-02-10,ＲＡＹＹＡＮ　ＴＲＡＤＩＮＧ合同会社,,合同会社,茨城県,古河市,横山町３丁目２番１３号,,08,204,3060022,,,,,,,2026-02-10,1,,,,,ライアントレーディング,0
1736,7060003005959,新規,0,2026-02-10,2026-02-10,合同会社Ｍ２,,合同会社,栃木県,栃木市,沼和田町６１―２,,09,203,3280042,,,,,,,2026-02-10,1,,,,,エムツー,0
1737,7070001043803,新規,0,2026-02-10,2026-02-10,ｆｉｒｓｔ株式会社,,株式会社,群馬県,館林市,赤土町５９番３号,,10,207,3740053,,,,,,,2026-02-10,1,,,,,ファースト,0
1739,7080001027417,新規,0,2026-02-10,2026-02-10,株式会社Ｋｉｒａｎａｈ,,株式会社,静岡県,静岡市葵区,瀬名中央１丁目１番５１号,,22,101,4200916,,,,,,,2026-02-10,1,,,,,キラナ,0
1743,7080401028436,新規,0,2026-02-10,2026-02-10,株式会社Ｌｅｉｔ　Ｏｎ,,株式会社,静岡県,浜松市中央区,鍛冶町１００番地の１ザザシティ浜松中央館Ｂ１Ｆ,,22,138,4300933,,,,,,,2026-02-10,1,,,,,レイトオン,0
1744,7090003002986,新規,0,2026-02-10,2026-02-10,合同会社小林企画,,合同会社,山梨県,甲斐市,玉川１５５４番地７,,19,210,4000116,,,,,,,2026-02-10,1,,,,,コバヤシキカク,0
1756,7120001283781,新規,0,2026-02-10,2026-02-10,クマ株式会社,,株式会社,大阪府,大阪市北区,梅田１丁目２番２号大阪駅前第２ビル１２－１２,,27,127,5300001,,,,,,,2026-02-10,1,,,,,クマ,0
1757,7120001283955,新規,0,2026-02-10,2026-02-10,株式会社ハタポップワークス,,株式会社,大阪府,大阪市中央区,西心斎橋１丁目１３番１号おおきにＨＯＰＥＴＲＥＥ心斎橋６Ｆ号室,,27,128,5420086,,,,,,,2026-02-10,1,,,,,ハタポップワークス,0
1758,7120001284012,新規,0,2026-02-10,2026-02-10,株式会社Ｋ‐ｓｔｙｌｅ,,株式会社,大阪府,大阪市浪速区,桜川２丁目６番１７－２０５号,,27,111,5560022,,,,,,,2026-02-10,1,,,,,ケイスタイル,0
1759,7120001284045,新規,0,2026-02-10,2026-02-10,株式会社Ｓｉｎｃｅｒｉｔｙ,,株式会社,大阪府,大阪市中央区,玉造２丁目１５番１２号,,27,128,5400004,,,,,,,2026-02-10,1,,,,,シンセリティ,0
1760,7120001284086,新規,0,2026-02-10,2026-02-10,株式会社想造ＦＡＭＩＬＹ　ＯＦＦＩＣＥ,,株式会社,大阪府,大阪市西区,西本町１丁目１１番７号９０２号室,,27,106,5500005,,,,,,,2026-02-10,1,,,,,ソウゾウファミリーオフィス,0
1761,7120001284152,新規,0,2026-02-10,2026-02-10,ＳＴＲＵＣＴＡ株式会社,,株式会社,大阪府,大阪市北区,梅田１丁目１‐３大阪駅前第３ビル２９階１‐１‐１号室,,27,127,5300001,,,,,,,2026-02-10,1,,,,,ストラクタ,0
1764,7120003031874,新規,0,2026-02-10,2026-02-10,合同会社ニシボン,,合同会社,大阪府,交野市,私市２丁目４－１４,,27,230,5760033,,,,,,,2026-02-10,1,,,,,ニシボン,0
1765,7120005025404,新規,0,2026-02-10,2026-02-10,医療法人志元会,,その他の設立登記法人,大阪府,大阪市中央区,東心斎橋１丁目１３番１２号天正堂ビル３階,,27,128,5420083,,,,,,,2026-02-10,1,,,,,シゲンカイ,0
1767,7120101073174,新規,0,2026-02-10,2026-02-10,金山株式会社,,株式会社,大阪府,堺市堺区,宿院町東２丁２－１５－３０１,,27,141,5900955,,,,,,,2026-02-10,1,,,,,キンサン,0
1772,7122001040155,新規,0,2026-02-10,2026-02-10,株式会社宮地プロセス,,株式会社,大阪府,東大阪市,稲田本町３丁目２６－１８,,27,227,5770007,,,,,,,2026-02-10,1,,,,,ミヤジプロセス,0
1773,7122003003432,新規,0,2026-02-10,2026-02-10,合同会社ＢＲ,,合同会社,大阪府,八尾市,龍華町１丁目４－２メガシティタワーズイースト２４０３号室,,27,212,5810069,,,,,,,2026-02-10,1,,,,,ビーアール,0
1774,7122003003457,新規,0,2026-02-10,2026-02-10,合同会社ＬＵＺ,,合同会社,大阪府,東大阪市,吉田１丁目１０番２７号,,27,227,5780924,,,,,,,2026-02-10,1,,,,,ルス,0
1777,7130005017581,新規,0,2026-02-10,2026-02-10,一般社団法人不登校サポート親のマナビラボ,,その他の設立登記法人,京都府,京都市中京区,烏丸通二条上る蒔絵屋町２６５番地２ＳＣＧビル,,26,104,6040857,,,,,,,2026-02-10,1,,,,,フトウコウサポートオヤノマナビラボ,0
1778,7140003023151,新規,0,2026-02-10,2026-02-10,合同会社リオリンク,,合同会社,兵庫県,姫路市,香寺町溝口８５９番地１９,,28,201,6792161,,,,,,,2026-02-10,1,,,,,リオリンク,0
1779,7150003003838,新規,0,2026-02-10,2026-02-10,合同会社Ｋ,,合同会社,奈良県,天理市,指柳町２２３番地パストラーレ天理８０６,,29,204,6320093,,,,,,,2026-02-10,1,,,,,ケイ,0
1781,7170003002383,新規,0,2026-02-10,2026-02-10,合同会社結乃輪,,合同会社,和歌山県,伊都郡かつらぎ町,大字東渋田２１８番地,,30,341,6497151,,,,,,,2026-02-10,1,,,,,ユイノワ,0
1782,7170005007190,新規,0,2026-02-10,2026-02-10,一般社団法人ＩＮＡＭＵＲＡ　ＦＩＲＥ,,その他の設立登記法人,和歌山県,有田郡広川町,大字広１５４８番地,,30,362,6430071,,,,,,,2026-02-10,1,,,,,イナムラファイヤー,0
1786,7180001170578,新規,0,2026-02-10,2026-02-10,株式会社イナミト,,株式会社,愛知県,名古屋市守山区,大谷町３番１７号,,23,113,4630041,,,,,,,2026-02-10,1,,,,,イナミト,0
1787,7180005021414,新規,0,2026-02-10,2026-02-10,一般財団法人日本芸術教育財団,,その他の設立登記法人,愛知県,長久手市,岩作三ケ峯１－１１４,,23,238,4801103,,,,,,,2026-02-10,1,,,,,ニホンゲイジュツキョウイクザイダン,0
1788,7180303006892,新規,0,2026-02-10,2026-02-10,合同会社Ｔｅｔｏ‐Ｔｅｔｏ,,合同会社,愛知県,豊田市,乙部ケ丘３丁目２３番地９,,23,211,4700346,,,,,,,2026-02-10,1,,,,,テトテト,0
1791,7200001044705,新規,0,2026-02-10,2026-02-10,株式会社ユニテツクホールディングス,,株式会社,岐阜県,大垣市,東町１丁目３番地,,21,202,5030802,,,,,,,2026-02-10,1,,,,,ユニテックホールディングス,0
1800,7230003002575,新規,0,2026-02-10,2026-02-10,陽建デザインビルド合同会社,,合同会社,富山県,富山市,黒崎１０１番３号,,16,201,9398214,,,,,,,2026-02-10,1,,,,,,0
1802,7240005016044,新規,0,2026-02-10,2026-02-10,一般社団法人安芸太田町自伐型林業を推進する会,,その他の設立登記法人,広島県,山県郡安芸太田町,大字加計４９３９番地,,34,368,7313501,,,,,,,2026-02-10,1,,,,,アキオオタチョウジバツガタリンギョウヲスイシンスルカイ,0
1805,7290001113055,新規,0,2026-02-10,2026-02-10,株式会社サポニャン,,株式会社,福岡県,福岡市南区,寺塚１丁目７番３３号,,40,134,8150074,,,,,,,2026-02-10,1,,,,,サポニャン,0
1806,7290001113088,新規,0,2026-02-10,2026-02-10,株式会社ＦＩＸ　ＲＯＯＭ,,株式会社,福岡県,福岡市博多区,竹下１丁目１１番４０－３０２号クルンテープ,,40,132,8120895,,,,,,,2026-02-10,1,,,,,フィックスルーム,0
1807,7290003018021,新規,0,2026-02-10,2026-02-10,合同会社Ｅｘｐｅｒｔ　Ｓｅｃｒｅｔｓ,,合同会社,福岡県,久留米市,白山町字中牟田１９２番地２,,40,203,8300041,,,,,,,2026-02-10,1,,,,,エキスパートシークレット,0
1809,7290005020000,新規,0,2026-02-10,2026-02-10,ＮＰＯ法人ケアフリー,,その他の設立登記法人,福岡県,嘉穂郡桂川町,大字寿命３２番地１,,40,421,8200603,,,,,,,2026-02-10,1,,,,,ケアフリー,0
1813,7320001021576,新規,0,2026-02-10,2026-02-10,株式会社ナガウラ,,株式会社,大分県,宇佐市,大字江須賀２９９８番地,,44,211,8720032,,,,,,,2026-02-10,1,,,,,ナガウラ,0
1825,7370001053474,新規,0,2026-02-10,2026-02-10,株式会社アシオ,,株式会社,宮城県,仙台市宮城野区,岩切字羽黒前１番地の１３,,04,102,9830821,,,,,,,2026-02-10,1,,,,,アシオ,0
1834,7380001035843,新規,0,2026-02-10,2026-02-10,ロイヤルエージェント株式会社,,株式会社,福島県,いわき市,平字愛谷町四丁目３番地の１６,,07,204,9708026,,,,,,,2026-02-10,1,,,,,ロイヤルエージェント,0
1836,7400001017319,新規,0,2026-02-10,2026-02-10,ボルテックス株式会社,,株式会社,岩手県,盛岡市,向中野２丁目２３番３３号,,03,201,0200851,,,,,,,2026-02-10,1,,,,,ボルテックス,0
1839,7430001096228,新規,0,2026-02-10,2026-02-10,株式会社あかしや椅子,,株式会社,北海道,札幌市北区,屯田八条１１丁目７番７号,,01,102,0020858,,,,,,,2026-02-10,1,,,,,アカシヤイス,0
1840,7430001096236,新規,0,2026-02-10,2026-02-10,株式会社人和,,株式会社,北海道,札幌市中央区,南二条西５丁目３１番３アルファ２・５ビル３階,,01,101,0600062,,,,,,,2026-02-10,1,,,,,ヒトワ,0
1847,7480003002385,新規,0,2026-02-10,2026-02-10,合同会社ＴＭカンパニー,,合同会社,徳島県,阿南市,那賀川町中島６１３番地,,36,204,7791245,,,,,,,2026-02-10,1,,,,,ティエムカンパニー,0
1848,7500001026763,新規,0,2026-02-10,2026-02-10,株式会社トレジャーマーケティング,,株式会社,愛媛県,新居浜市,松原町七丁目５２番地１階,,38,205,7920828,,,,,,,2026-02-10,1,,,,,トレジャーマーケティング,0
1861,8010001262531,新規,0,2026-02-10,2026-02-10,株式会社ステラペンナ,,株式会社,東京都,千代田区,神田須田町１丁目７－８ＶＯＲＴ秋葉原ＩＶ２Ｆ,00142530,13,101,1010041,,,,,,,2026-02-10,1,,,,,ステラペンナ,0
1862,8010001262655,新規,0,2026-02-10,2026-02-10,株式会社ＪＶＡｓｓｕｒａｎｃｅ,,株式会社,東京都,中央区,銀座１丁目８番７号ＶＯＲＴ銀座ＤＤＩ１Ｆ,,13,102,1040061,,,,,,,2026-02-10,1,,,,,ジェイブイアシュアランス,0
1863,8010001262663,新規,0,2026-02-10,2026-02-10,株式会社Ｐ＆Ｊ,,株式会社,東京都,千代田区,神田東松下町１０番地５,,13,101,1010042,,,,,,,2026-02-10,1,,,,,ピーアンドジェイ,0
1864,8010001262738,新規,0,2026-02-10,2026-02-10,株式会社未来創三ホールディングス,,株式会社,東京都,中央区,日本橋馬喰町２丁目４番６号５階,,13,102,1030002,,,,,,,2026-02-10,1,,,,,ミライソウゾウホールディングス,0
1865,8010001262762,新規,0,2026-02-10,2026-02-10,株式会社精工鋼構造建設,,株式会社,東京都,千代田区,岩本町３丁目２番１号ビリーフ岩本町４０１号,,13,101,1010032,,,,,,,2026-02-10,1,,,,,セイコウコウゾウケンセツ,0
1866,8010001262779,新規,0,2026-02-10,2026-02-10,ＡｒｔｈｕｒＢｒｉｅｆ株式会社,,株式会社,東京都,中央区,銀座７丁目１３番６号サガミビル２階,,13,102,1040061,,,,,,,2026-02-10,1,,,,,アーサーブリーフ,0
1870,8010003050240,新規,0,2026-02-10,2026-02-10,合同会社ＧｒｅｅｎＢｏｔｔｌｅ,,合同会社,東京都,文京区,春日１丁目２番３号３階,,13,105,1120003,,,,,,,2026-02-10,1,,,,,グリーンボトル,0
1871,8010003050356,新規,0,2026-02-10,2026-02-10,合同会社恵比寿プロパティーズ,,合同会社,東京都,千代田区,丸の内１丁目４番１号東京共同会計事務所内,,13,101,1000005,,,,,,,2026-02-10,1,,,,,エビスプロパティーズ,0
1873,8010005041329,新規,0,2026-02-10,2026-02-10,税理士法人Ｆｏｒｅｓｔ,,その他の設立登記法人,東京都,文京区,小石川２丁目１１番１１号,,13,105,1120002,,,,,,,2026-02-10,1,,,,,フォレスト,0
1874,8010005041345,新規,0,2026-02-10,2026-02-10,Ｆｉｅｌｄ特定目的会社,,その他の設立登記法人,東京都,千代田区,丸の内１丁目８番２号鉄鋼ビルディング４階,,13,101,1000005,,,,,,,2026-02-10,1,,,,,フィールド,0
1875,8010005041361,新規,0,2026-02-10,2026-02-10,一般社団法人京都八条アセット,,その他の設立登記法人,東京都,千代田区,丸の内２丁目１番１号,,13,101,1000005,,,,,,,2026-02-10,1,,,,,キョウトハチジョウアセット,0
1876,8010005041378,新規,0,2026-02-10,2026-02-10,トリピックエムエー一般社団法人,,その他の設立登記法人,東京都,千代田区,丸の内１丁目４番１号東京共同会計事務所内,,13,101,1000005,,,,,,,2026-02-10,1,,,,,トリピックエムエー,0
1884,8010401196494,新規,0,2026-02-10,2026-02-10,みなとデジタル株式会社,,株式会社,東京都,港区,芝浦４丁目１５番１－２４０７号,,13,103,1080023,,,,,,,2026-02-10,1,,,,,ミナトデジタル,0
1886,8010403037250,新規,0,2026-02-10,2026-02-10,港南トレジャリー合同会社,,合同会社,東京都,港区,港南４丁目６番５－３１０３号,,13,103,1080075,,,,,,,2026-02-10,1,,,,,コウナントレジャリー,0
1887,8010403037309,新規,0,2026-02-10,2026-02-10,合同会社ＭｅｇａＢｕｒｇ,,合同会社,東京都,港区,北青山１丁目３－３三橋ビル３階,,13,103,1070061,,,,,,,2026-02-10,1,,,,,メガバーグ,0
1888,8010403037317,新規,0,2026-02-10,2026-02-10,合同会社Ａｅｇｉｓ,,合同会社,東京都,港区,北青山１丁目３‐３三橋ビル３階,,13,103,1070061,,,,,,,2026-02-10,1,,,,,イージス,0
1889,8010701049022,新規,0,2026-02-10,2026-02-10,株式会社Ｉｖｙ,,株式会社,東京都,品川区,西中延３丁目６番２０号－１００２,,13,109,1420054,,,,,,,2026-02-10,1,,,,,アイビー,0
1890,8010803005708,新規,0,2026-02-10,2026-02-10,ＭＲＳ合同会社,,合同会社,東京都,大田区,田園調布本町２６番６号,,13,111,1450072,,,,,,,2026-02-10,1,,,,,エムアールエス,0
1893,8010901058962,新規,0,2026-02-10,2026-02-10,株式会社エレパル・クリエーション,,株式会社,東京都,世田谷区,奥沢２丁目１７番２０号－６,,13,112,1580083,,,,,,,2026-02-10,1,,,,,エレパルクリエーション,0
1897,8011001175327,新規,0,2026-02-10,2026-02-10,株式会社ＡＩ　Ｒｏｎｇ,,株式会社,東京都,渋谷区,渋谷２丁目１９番１５号宮益坂ビルディング１４１３,,13,113,1500002,,,,,,,2026-02-10,1,,,,,アイロン,0
1898,8011001175541,新規,0,2026-02-10,2026-02-10,株式会社ＭＩＲＡＧＥ　ＴＯＫＹＯ,,株式会社,東京都,渋谷区,恵比寿西２丁目４番８号ウィンド恵比寿ビル８Ｆ,,13,113,1500021,,,,,,,2026-02-10,1,,,,,ミラージュトーキョー,0
1899,8011001175599,新規,0,2026-02-10,2026-02-10,株式会社オモカン,,株式会社,東京都,渋谷区,笹塚１丁目４７番１－１７１２号,,13,113,1510073,,,,,,,2026-02-10,1,,,,,オモカン,0
1910,8011205002731,新規,0,2026-02-10,2026-02-10,一般社団法人スノーボードクロス振興機構,,その他の設立登記法人,東京都,中野区,江原町３丁目３番３号,,13,114,1650023,,,,,,,2026-02-10,1,,,,,スノーボードクロスシンコウキコウ,0
1913,8011405002424,新規,0,2026-02-10,2026-02-10,一般社団法人デフハンドボールクラブ,,その他の設立登記法人,東京都,板橋区,赤塚４丁目５番５－１０４号,,13,119,1750092,,,,,,,2026-02-10,1,,,,,デフハンドボールクラブ,0
1926,8012701019310,新規,0,2026-02-10,2026-02-10,株式会社ＫＡ　Ａｓｓｅｔ凛華,,株式会社,東京都,東村山市,萩山町４丁目３番地２９,,13,213,1890012,,,,,,,2026-02-10,1,,,,,ケーエーアセットリンカ,0
1936,8020001167093,新規,0,2026-02-10,2026-02-10,株式会社三番堂,,株式会社,神奈川県,川崎市宮前区,犬蔵１丁目２７番４－１号,,14,136,2160011,,,,,,,2026-02-10,1,,,,,サンバンドウ,0
1937,8021001087331,新規,0,2026-02-10,2026-02-10,株式会社ＲＡＶＩＬＩＳＳ,,株式会社,神奈川県,相模原市中央区,相生１丁目７番１４号アルシオーネ相生２０４号室,,14,152,2520235,,,,,,,2026-02-10,1,,,,,ラヴィリス,0
1941,8021003017105,新規,0,2026-02-10,2026-02-10,松本企画管理合同会社,,合同会社,神奈川県,藤沢市,湘南台２丁目１２番１号,,14,205,2520804,,,,,,,2026-02-10,1,,,,,マツモトキカクカンリ,0
1958,8030001170930,新規,0,2026-02-10,2026-02-10,株式会社アザール,,株式会社,埼玉県,入間市,宮寺１７８６－１,,11,225,3580014,,,,,,,2026-02-10,1,,,,,アザール,0
1959,8030001170947,新規,0,2026-02-10,2026-02-10,株式会社ＳＥＣＯＮＤ　ＤＡＷＮ,,株式会社,埼玉県,三郷市,彦音１丁目２５番地２０１,,11,237,3410002,,,,,,,2026-02-10,1,,,,,セカンドドーン,0
1960,8030001170955,新規,0,2026-02-10,2026-02-10,株式会社ＣＵＲＲＥＮＴ,,株式会社,埼玉県,さいたま市大宮区,桜木町１丁目３７８番地,,11,103,3300854,,,,,,,2026-02-10,1,,,,,カレント,0
1961,8030003028581,新規,0,2026-02-10,2026-02-10,合同会社グリプス,,合同会社,埼玉県,三郷市,新和３丁目５９番地４,,11,237,3410034,,,,,,,2026-02-10,1,,,,,グリプス,0
1962,8030003028615,新規,0,2026-02-10,2026-02-10,合同会社ＡＬＩＧＮ,,合同会社,埼玉県,越谷市,蒲生東町１１番３０－１号,,11,222,3430841,,,,,,,2026-02-10,1,,,,,アライン,0
1972,8040001142391,新規,0,2026-02-10,2026-02-10,株式会社ＲＨＴ,,株式会社,千葉県,千葉市花見川区,作新台４丁目１５番１２－６０２号,,12,102,2620045,,,,,,,2026-02-10,1,,,,,アールエイチティ,0
1973,8040001142425,新規,0,2026-02-10,2026-02-10,アバンサー株式会社,,株式会社,千葉県,千葉市中央区,大森町１４６－３,,12,101,2600811,,,,,,,2026-02-10,1,,,,,アバンサー,0
1976,8040003029422,新規,0,2026-02-10,2026-02-10,合同会社８２３,,合同会社,千葉県,松戸市,二十世紀が丘美野里町１５６,,12,207,2710081,,,,,,,2026-02-10,1,,,,,バズサン,0
1984,8060001039000,新規,0,2026-02-10,2026-02-10,株式会社ＮＥＸＴ‐ＨＲ,,株式会社,栃木県,宇都宮市,不動前４丁目２－１３,,09,201,3200833,,,,,,,2026-02-10,1,,,,,ネクストエイチアール,0
1988,8070001043810,新規,0,2026-02-10,2026-02-10,株式会社ＳＤＭ,,株式会社,群馬県,伊勢崎市,田中島町１４８１番地２,,10,204,3720802,,,,,,,2026-02-10,1,,,,,エスディーエム,0
1994,8080403005440,新規,0,2026-02-10,2026-02-10,合同会社堀内宅配,,合同会社,静岡県,浜松市中央区,飯田町３９番地,,22,138,4350028,,,,,,,2026-02-10,1,,,,,ホリウチタクハイ,0
2002,8100001039326,新規,0,2026-02-10,2026-02-10,株式会社ＬＩＦＥ　ＳＨＩＦＴ,,株式会社,長野県,佐久市,岩村田９０７番地３,,20,217,3850022,,,,,,,2026-02-10,1,,,,,ライフシフト,0
2009,8120001283913,新規,0,2026-02-10,2026-02-10,株式会社ＲＫＯ,,株式会社,大阪府,大阪市淀川区,田川北３丁目８番４４号,,27,123,5320021,,,,,,,2026-02-10,1,,,,,アールケーオー,0
2010,8120001283979,新規,0,2026-02-10,2026-02-10,株式会社ＲａｒｅＴａｓｔｅ,,株式会社,大阪府,大阪市西淀川区,姫島１丁目２３番２１号,,27,113,5550033,,,,,,,2026-02-10,1,,,,,レアテイスト,0
2011,8120001283995,新規,0,2026-02-10,2026-02-10,リブラルアセッティブ株式会社,,株式会社,大阪府,大阪市淀川区,西宮原１丁目８番３３号,,27,123,5320004,,,,,,,2026-02-10,1,,,,,リブラルアセッティブ,0
2012,8120001284028,新規,0,2026-02-10,2026-02-10,株式会社にこり,,株式会社,大阪府,大阪市此花区,伝法３丁目４番７号,,27,104,5540002,,,,,,,2026-02-10,1,,,,,ニコリ,0
2013,8120001284119,新規,0,2026-02-10,2026-02-10,株式会社ＴＨＲＥＡＤＳ,,株式会社,大阪府,枚方市,村野東町４９－９,,27,210,5730015,,,,,,,2026-02-10,1,,,,,スレッズ,0
2015,8120003031849,新規,0,2026-02-10,2026-02-10,樹枝合同会社,,合同会社,大阪府,大阪市東成区,東中本３丁目２０番２２号関西マンション２０４号室,,27,115,5370021,,,,,,,2026-02-10,1,,,,,ジュシ,0
2016,8120003031857,新規,0,2026-02-10,2026-02-10,合同会社Ｃｏｎｃｏｒｄ,,合同会社,大阪府,大阪市住吉区,我孫子３丁目９番１３号,,27,120,5580014,,,,,,,2026-02-10,1,,,,,コンコード,0
2017,8120003031873,新規,0,2026-02-10,2026-02-10,合同会社ｄｏｂ　ｉｎｔｅｒｎａｔｉｏｎａｌ,,合同会社,大阪府,大阪市港区,南市岡１丁目９番９号ロイヤルハイツニシダ１階,,27,107,5520011,,,,,,,2026-02-10,1,,,,,ディオビインターナショナル,0
2021,8120005025403,新規,0,2026-02-10,2026-02-10,一般社団法人むくの木ひろば,,その他の設立登記法人,大阪府,枚方市,枚方上之町７番２号,,27,210,5730037,,,,,,,2026-02-10,1,,,,,ムクノキヒロバ,0
2023,8120101073181,新規,0,2026-02-10,2026-02-10,株式会社三亜,,株式会社,大阪府,岸和田市,三ケ山町７７７－１,,27,202,5960815,,,,,,,2026-02-10,1,,,,,サンア,0
2025,8120901052211,新規,0,2026-02-10,2026-02-10,株式会社晴空,,株式会社,大阪府,茨木市,駅前１丁目２番１３－７０３号,,27,211,5670888,,,,,,,2026-02-10,1,,,,,セイクウ,0
2032,8122001040170,新規,0,2026-02-10,2026-02-10,株式会社ＲＩＴＡ,,株式会社,大阪府,四條畷市,田原台３丁目２２番１０号,,27,229,5750013,,,,,,,2026-02-10,1,,,,,リタ,0
2034,8140001141664,新規,0,2026-02-10,2026-02-10,株式会社ＯＮＥ　ＤＲＡＦＴ,,株式会社,兵庫県,神戸市中央区,中山手通４丁目１６番１４号清山荘３Ａ号室,,28,110,6500004,,,,,,,2026-02-10,1,,,,,ワンドラフト,0
2035,8140001141697,新規,0,2026-02-10,2026-02-10,株式会社大島食鳥,,株式会社,兵庫県,姫路市,久保町８４－５０２,,28,201,6700916,,,,,,,2026-02-10,1,,,,,オオシマショクチョウ,0
2036,8140001141714,新規,0,2026-02-10,2026-02-10,株式会社ウエルジェイ,,株式会社,兵庫県,神戸市西区,北別府３丁目１５番地の３,,28,111,6512117,,,,,,,2026-02-10,1,,,,,ウエルジェイ,0
2037,8140003023175,新規,0,2026-02-10,2026-02-10,合同会社５５運送,,合同会社,兵庫県,丹波市,春日町多利１９０４,,28,223,6694123,,,,,,,2026-02-10,1,,,,,ゴーゴーウンソウ,0
2040,8150003003837,新規,0,2026-02-10,2026-02-10,合同会社大敏商会,,合同会社,奈良県,吉野郡大淀町,大字下渕１１７番地の１,,29,442,6380821,,,,,,,2026-02-10,1,,,,,ダイトシショウカイ,0
2046,8180001170610,新規,0,2026-02-10,2026-02-10,イーグル・トライ株式会社,,株式会社,愛知県,名古屋市中川区,野田２丁目１２９番地４,,23,110,4540912,,,,,,,2026-02-10,1,,,,,イーグルトライ,0
2054,8180301040678,新規,0,2026-02-10,2026-02-10,株式会社サイクルシフト・パートナーズ,,株式会社,愛知県,刈谷市,中島町１丁目３６番地１,,23,210,4480815,,,,,,,2026-02-10,1,,,,,サイクルシフトパートナーズ,0
2055,8180303006891,新規,0,2026-02-10,2026-02-10,合同会社Ｒ,,合同会社,愛知県,豊橋市,北島町字北島２７番地,,23,201,4400071,,,,,,,2026-02-10,1,,,,,アール,0
2056,8180305009769,新規,0,2026-02-10,2026-02-10,行政書士法人ごとう事務所,,その他の設立登記法人,愛知県,豊川市,蔵子６丁目３番地７,,23,207,4420842,,,,,,,2026-02-10,1,,,,,ゴトウジムショ,0
2060,8200001044704,新規,0,2026-02-10,2026-02-10,株式会社達磨,,株式会社,岐阜県,海津市,平田町脇野字宮前１１番１,,21,221,5030323,,,,,,,2026-02-10,1,,,,,ダルマ,0
2071,8250001021533,新規,0,2026-02-10,2026-02-10,ＩＮＳＵＲＡＮ株式会社,,株式会社,山口県,岩国市,装束町５丁目８番２７号,,35,208,7400001,,,,,,,2026-02-10,1,,,,,インシュラン,0
2076,8290001113054,新規,0,2026-02-10,2026-02-10,ＫＳＫ　Ｃａｐｉｔａｌ株式会社,,株式会社,福岡県,古賀市,青柳町２１０番地６,,40,223,8113133,,,,,,,2026-02-10,1,,,,,ケーエスケーキャピタル,0
2077,8290001113070,新規,0,2026-02-10,2026-02-10,ナショナルホームテック株式会社,,株式会社,福岡県,福岡市博多区,美野島２丁目１７番９号,,40,132,8120017,,,,,,,2026-02-10,1,,,,,ナショナルホームテック,0
2078,8290001113079,新規,0,2026-02-10,2026-02-10,株式会社小宮塗装,,株式会社,福岡県,大牟田市,大字歴木１８２１番地１４,,40,202,8370924,,,,,,,2026-02-10,1,,,,,コミヤトソウ,0
2079,8290001113137,新規,0,2026-02-10,2026-02-10,株式会社Ｂｉｚ　Ｔｒａｄｅ,,株式会社,福岡県,福岡市中央区,天神１丁目９番１７号福岡天神フコク生命ビル１５階,,40,133,8100001,,,,,,,2026-02-10,1,,,,,ビズトレード,0
2085,8310003005180,新規,0,2026-02-10,2026-02-10,合同会社Ｇｏｔｏ　Ｄａｒｕｍａ　Ｃｏｍｍｏｎｓ,,合同会社,長崎県,五島市,栄町１－１,,42,211,8530001,,,,,,,2026-02-10,1,,,,,ゴトウダルマコモンズ,0
2090,8350001019922,新規,0,2026-02-10,2026-02-10,株式会社Ｍａｉｓｏｎ　Ｆｌｕｅｒ,,株式会社,宮崎県,都城市,中町１４街区５号２０２号,,45,202,8850071,,,,,,,2026-02-10,1,,,,,メゾンフルール,0
2097,8370001053473,新規,0,2026-02-10,2026-02-10,株式会社スロウハイツ,,株式会社,宮城県,仙台市青葉区,中央２丁目１１番１９号仙南ビル４階Ａ,,04,101,9800021,,,,,,,2026-02-10,1,,,,,スロウハイツ,0
2101,8400005008544,新規,0,2026-02-10,2026-02-10,一般社団法人いわて国見の里,,その他の設立登記法人,岩手県,北上市,稲瀬町上台２０５番地,,03,206,0240041,,,,,,,2026-02-10,1,,,,,,0
2102,8410001014388,新規,0,2026-02-10,2026-02-10,株式会社ＦｏｒｅｓＴｅｃｈ,,株式会社,秋田県,横手市,十文字町十五野新田字増田道東２９番地２８,,05,203,0190508,,,,,,,2026-02-10,1,,,,,フォレステック,0
2108,8430001096202,新規,0,2026-02-10,2026-02-10,株式会社米星,,株式会社,北海道,樺戸郡浦臼町,字浦臼内１７２番地の７５１,,01,431,0610600,,,,,,,2026-02-10,1,,,,,マイスター,0
2109,8430001096235,新規,0,2026-02-10,2026-02-10,株式会社ＣＯＤＥ,,株式会社,北海道,北広島市,輪厚中央３丁目２番地３,,01,234,0611268,,,,,,,2026-02-10,1,,,,,コード,0
2110,8430001096243,新規,0,2026-02-10,2026-02-10,株式会社ＭＡＭＯ‐ＲＩＹＡ,,株式会社,北海道,札幌市豊平区,美園十二条７丁目１‐１８,,01,105,0620012,,,,,,,2026-02-10,1,,,,,マモリヤ,0
2133,9010001262662,新規,0,2026-02-10,2026-02-10,ＩＳＦ株式会社,,株式会社,東京都,中央区,晴海３丁目１６番１－３１０３号,,13,102,1040053,,,,,,,2026-02-10,1,,,,,アイエスエフ,0
2134,9010001262753,新規,0,2026-02-10,2026-02-10,株式会社社内承継投資,,株式会社,東京都,千代田区,丸の内１丁目８番２号,,13,101,1000005,,,,,,,2026-02-10,1,,,,,シャナイショウケイトウシ,0
2141,9010003050231,新規,0,2026-02-10,2026-02-10,スプランドゥール合同会社,,合同会社,東京都,千代田区,神田須田町１丁目７番８号ＶＯＲＴ秋葉原ＩＶ２Ｆ,00142521,13,101,1010041,,,,,,,2026-02-10,1,,,,,スプランドゥール,0
2142,9010003050289,新規,0,2026-02-10,2026-02-10,合同会社クラフトウインド,,合同会社,東京都,新島村,式根島６１０－２,,13,363,1000511,,,,,,,2026-02-10,1,,,,,クラフトウインド,0
2143,9010003050314,新規,0,2026-02-10,2026-02-10,Ｓｕｎ　Ｔｒｉｎｉｔｙ　Ｅ合同会社,,合同会社,東京都,千代田区,内神田２丁目１６番１１号内神田渋谷ビル９階,,13,101,1010047,,,,,,,2026-02-10,1,,,,,サントリニティーイー,0
2144,9010003050322,新規,0,2026-02-10,2026-02-10,合同会社ＳｔｒｏｎｇＨｏｕｓｅ　Ｒｅａｌ,,合同会社,東京都,文京区,湯島３丁目２５番１１号東京堂湯島ビル２階,,13,105,1130034,,,,,,,2026-02-10,1,,,,,ストロングハウスリアルエステート,0
2145,9010003050355,新規,0,2026-02-10,2026-02-10,合同会社ＪＲＣファンド第１号,,合同会社,東京都,千代田区,丸の内１丁目４番１号東京共同会計事務所内,,13,101,1000005,,,,,,,2026-02-10,1,,,,,ジェイアールシーファンドダイイチゴウ,0
2146,9010005041369,新規,0,2026-02-10,2026-02-10,一般社団法人恵比寿プロパティーズ,,その他の設立登記法人,東京都,千代田区,丸の内１丁目４番１号東京共同会計事務所内,,13,101,1000005,,,,,,,2026-02-10,1,,,,,エビスプロパティーズ,0
2147,9010005041377,新規,0,2026-02-10,2026-02-10,一般社団法人ＳＶＦ,,その他の設立登記法人,東京都,千代田区,丸の内１丁目４番１号東京共同会計事務所内,,13,101,1000005,,,,,,,2026-02-10,1,,,,,エスブイエフ,0
2152,9010401196403,新規,0,2026-02-10,2026-02-10,ＳＳＫバイオサイエンシズ・ジャパン株式会社,,株式会社,東京都,港区,六本木７丁目３番８号,,13,103,1060032,,,,,,,2026-02-10,1,,,,,エスエスケーバイオサイエンシズジャパン,0
2156,9010501055434,新規,0,2026-02-10,2026-02-10,株式会社時速２４６,,株式会社,東京都,台東区,入谷２丁目９番７号,,13,106,1100013,,,,,,,2026-02-10,1,,,,,ジソクニイヨンロク,0
2163,9010701049005,新規,0,2026-02-10,2026-02-10,株式会社Ａｓｓｅｔ　Ｂｕｓｉｎｅｓｓ　Ａｄ　Ａｇｅｎｃｙ,,株式会社,東京都,品川区,西五反田７丁目２１－１１第２ＴＯＣビル６Ｆ１号,,13,109,1410031,,,,,,,2026-02-10,1,,,,,アセットビジネスアドエージェンシー,0
2165,9010901058961,新規,0,2026-02-10,2026-02-10,ヘキサイシイＨＤ株式会社,,株式会社,東京都,世田谷区,代田３丁目５５番１１号,,13,112,1550033,,,,,,,2026-02-10,1,,,,,ヘキサイシイエイチディ,0
2171,9011001175078,新規,0,2026-02-10,2026-02-10,株式会社Ｓ‐ｂｕｄｄｉｅｓ,,株式会社,東京都,渋谷区,神南１丁目１１番４ＦＰＧリンクス神南５階,,13,113,1500041,,,,,,,2026-02-10,1,,,,,エスバディーズ,0
2172,9011001175128,新規,0,2026-02-10,2026-02-10,株式会社ＭＩＳＳＩＯＮ　ＤＩＳＣＯＶＥＲＹ,,株式会社,東京都,渋谷区,恵比寿西２丁目４番８号ウィンド恵比寿ビル８Ｆ,,13,113,1500021,,,,,,,2026-02-10,1,,,,,ミッションディスカバリー,0
2173,9011001175557,新規,0,2026-02-10,2026-02-10,未来参謀株式会社,,株式会社,東京都,目黒区,自由が丘１丁目８－１９メルサＩＩ４Ｆ,00142539,13,110,1520035,,,,,,,2026-02-10,1,,,,,ミライサンボウ,0
2178,9011101114893,新規,0,2026-02-10,2026-02-10,Ｅｎｅｌｃｏｎ株式会社,,株式会社,東京都,新宿区,高田馬場２丁目７番１１号,,13,104,1690075,,,,,,,2026-02-10,1,,,,,エネルコン,0
2181,9011201026956,新規,0,2026-02-10,2026-02-10,鈴木健一郎株式会社,,株式会社,東京都,中野区,本町２丁目３５番６号,,13,114,1640012,,,,,,,2026-02-10,1,,,,,スズキケンイチロウ,0
2184,9011301031245,新規,0,2026-02-10,2026-02-10,株式会社Ｆｅｇｍｅｎｔ,,株式会社,東京都,杉並区,大宮２丁目６番１０号毛塚ビル１階,,13,115,1680061,,,,,,,2026-02-10,1,,,,,フェグメント,0
2186,9011401027787,新規,0,2026-02-10,2026-02-10,株式会社ＢＥＡＲＳ,,株式会社,東京都,板橋区,高島平２丁目８番５号アクシス２０１,,13,119,1750082,,,,,,,2026-02-10,1,,,,,ベアーズ,0
2188,9011603004997,新規,0,2026-02-10,2026-02-10,合同会社ＴＫＳ,,合同会社,東京都,練馬区,光が丘３丁目９番３－２５０３号,,13,120,1790072,,,,,,,2026-02-10,1,,,,,ティーケーエス,0
2192,9012401044120,新規,0,2026-02-10,2026-02-10,株式会社古川ホールディングス,,株式会社,東京都,府中市,是政３丁目６５番地の１,,13,206,1830014,,,,,,,2026-02-10,1,,,,,フルカワホールディングス,0
2193,9012401044129,新規,0,2026-02-10,2026-02-10,株式会社ワシツ,,株式会社,東京都,小金井市,東町４丁目３番１６号,,13,210,1840011,,,,,,,2026-02-10,1,,,,,ワシツ,0
2194,9012403007604,新規,0,2026-02-10,2026-02-10,合同会社サイナス,,合同会社,東京都,狛江市,岩戸南１丁目１７番３号,,13,219,2010005,,,,,,,2026-02-10,1,,,,,サイナス,0
2199,9013301055694,新規,0,2026-02-10,2026-02-10,株式会社ＯＷＮＢＯＡＴ,,株式会社,東京都,豊島区,要町１丁目３１番６号シャーメゾンカナメＩ２０２号,00142527,13,116,1710043,,,,,,,2026-02-10,1,,,,,オウンボート,0
2210,9020005017137,新規,0,2026-02-10,2026-02-10,一般社団法人水力発電を推進・支援する会,,その他の設立登記法人,神奈川県,川崎市中原区,上丸子山王町２丁目１３３２番地グランデュール山王１０２,,14,133,2110002,,,,,,,2026-02-10,1,,,,,スイリョクハツデンヲスイシンシエンスルカイ,0
2214,9021001087495,新規,0,2026-02-10,2026-02-10,株式会社公海,,株式会社,神奈川県,三浦市,三崎３丁目２番１９号,,14,210,2380243,,,,,,,2026-02-10,1,,,,,コウカイ,0
2221,9030001170905,新規,0,2026-02-10,2026-02-10,ＨＩＮＯＤＥＸ株式会社,,株式会社,埼玉県,蕨市,南町２丁目３２番３８号ヴィークコート蕨南町桜並木２１１号,,11,223,3350003,,,,,,,2026-02-10,1,,,,,ヒノデックス,0
2222,9030001170954,新規,0,2026-02-10,2026-02-10,株式会社ｇｔｍＫ,,株式会社,埼玉県,比企郡滑川町,大字都１７０－３,,11,341,3550812,,,,,,,2026-02-10,1,,,,,ジーティーエムケー,0
2223,9030001170970,新規,0,2026-02-10,2026-02-10,株式会社ＮＯＶＡ,,株式会社,埼玉県,さいたま市大宮区,大門町１丁目６番地２Ｆ,,11,103,3300846,,,,,,,2026-02-10,1,,,,,ノヴァ,0
2226,9030003028614,新規,0,2026-02-10,2026-02-10,Ｓｏｈａｉｌ合同会社,,合同会社,埼玉県,行田市,門井町２丁目１４番地２３ジュネパレス門井ＩＩＡ１１３,00142533,11,206,3610044,,,,,,,2026-02-10,1,,,,,ソヘイル,0
2228,9040001142399,新規,0,2026-02-10,2026-02-10,株式会社ＭＭＣ,,株式会社,千葉県,袖ケ浦市,神納１丁目１９番地３グローバルヴィレッジ１３,,12,229,2990257,,,,,,,2026-02-10,1,,,,,エムエムシー,0
2229,9040001142432,新規,0,2026-02-10,2026-02-10,あおば株式会社,,株式会社,千葉県,柏市,中新宿２丁目３番３１号,,12,217,2770066,,,,,,,2026-02-10,1,,,,,アオバ,0
2230,9040005023034,新規,0,2026-02-10,2026-02-10,医療法人社団Ｋｉｒａｍｅｋｉ,,その他の設立登記法人,千葉県,千葉市緑区,あすみが丘東３丁目１番地１,,12,105,2670067,,,,,,,2026-02-10,1,,,,,キラメキ,0
2231,9050001057968,新規,0,2026-02-10,2026-02-10,株式会社Ｏｆｆｉｃｅ　Ｔｓｕｒｕｍｉ,,株式会社,茨城県,結城郡八千代町,大字塩本１９３番地１,,08,521,3003501,,,,,,,2026-02-10,1,,,,,オフィスツルミ,0
2234,9050003009934,新規,0,2026-02-10,2026-02-10,カミハラファーム合同会社,,合同会社,茨城県,筑西市,国府田１０１６番地,,08,227,3080004,,,,,,,2026-02-10,1,,,,,カミハラファーム,0
2243,9080101026077,新規,0,2026-02-10,2026-02-10,株式会社緑真園,,株式会社,静岡県,駿東郡清水町,徳倉２４－１,,22,341,4110917,,,,,,,2026-02-10,1,,,,,リョクシンエン,0
2245,9080405007797,新規,0,2026-02-10,2026-02-10,ひとみらい社会保険労務士法人,,その他の設立登記法人,静岡県,浜松市中央区,初生町６２６番地の１,,22,138,4338112,,,,,,,2026-02-10,1,,,,,ヒトミライ,0
2249,9100003008609,新規,0,2026-02-10,2026-02-10,信州コンサルティング合同会社,,合同会社,長野県,北安曇郡小谷村,大字千国乙５３８番地１,,20,486,3999422,,,,,,,2026-02-10,1,,,,,シンシュウコンサルティング,0
2256,9120001283474,新規,0,2026-02-10,2026-02-10,株式会社Ｏｎｅ　Ｄａｙ,,株式会社,大阪府,大阪市北区,梅田１丁目１－３大阪駅前第３ビル２９階１－１－１号室,,27,127,5300001,,,,,,,2026-02-10,1,,,,,ワンデイ,0
2257,9120001283961,新規,0,2026-02-10,2026-02-10,株式会社岡田一級建築士事務所,,株式会社,大阪府,大阪市阿倍野区,天王寺町南２丁目１５番１７号,,27,119,5450002,,,,,,,2026-02-10,1,,,,,オカダイッキュウケンチクシジムショ,0
2258,9120001284002,新規,0,2026-02-10,2026-02-10,株式会社Ｃｈｒｉｓ,,株式会社,大阪府,大阪市中央区,大手前１丁目７番３１号,,27,128,5400008,,,,,,,2026-02-10,1,,,,,クリス,0
2259,9120001284010,新規,0,2026-02-10,2026-02-10,阪南興産株式会社,,株式会社,大阪府,大阪市北区,曾根崎２丁目７番５号２Ｆ,,27,127,5300057,,,,,,,2026-02-10,1,,,,,ハンナンコウサン,0
2260,9120001284027,新規,0,2026-02-10,2026-02-10,株式会社キテン,,株式会社,大阪府,大阪市東成区,東中本３丁目２０番２２号関西マンション２０８号室,,27,115,5370021,,,,,,,2026-02-10,1,,,,,キテン,0
2261,9120001284142,新規,0,2026-02-10,2026-02-10,智居堂株式会社,,株式会社,大阪府,大阪市東住吉区,針中野３丁目６番２４－２０２号,,27,121,5460011,,,,,,,2026-02-10,1,,,,,チイドウ,0
2264,9120003031864,新規,0,2026-02-10,2026-02-10,合同会社明好,,合同会社,大阪府,大阪市中央区,大手前１丁目３番５９号大手前ビル４０５号,,27,128,5400008,,,,,,,2026-02-10,1,,,,,メイコウ,0
2265,9120003031872,新規,0,2026-02-10,2026-02-10,合同会社七宝断熱,,合同会社,大阪府,大阪市西淀川区,佃２丁目１５－６－１４１２,,27,113,5550001,,,,,,,2026-02-10,1,,,,,シッポウダンネツ,0
2266,9120003031897,新規,0,2026-02-10,2026-02-10,合同会社ＲＯＹＡＬ,,合同会社,大阪府,大阪市北区,梅田３丁目４番５号,,27,127,5300001,,,,,,,2026-02-10,1,,,,,ロイヤル,0
2267,9120005025402,新規,0,2026-02-10,2026-02-10,一般社団法人ハルノヒカリ,,その他の設立登記法人,大阪府,大阪市西区,南堀江２丁目３番４－１００２号,,27,106,5500015,,,,,,,2026-02-10,1,,,,,ハルノヒカリ,0
2273,9120101073172,新規,0,2026-02-10,2026-02-10,株式会社つなぐプラス,,株式会社,大阪府,堺市北区,北花田町３丁２６番５－３０７号,,27,146,5918002,,,,,,,2026-02-10,1,,,,,ツナグプラス,0
2277,9120903006073,新規,0,2026-02-10,2026-02-10,合同会社暖談,,合同会社,大阪府,摂津市,鳥飼野々１丁目１番１６－２号,,27,224,5660053,,,,,,,2026-02-10,1,,,,,ダンダン,0
2279,9122003003455,新規,0,2026-02-10,2026-02-10,合同会社ＲＯＹＡＬ　ＳＥＲＶＩＣＥ,,合同会社,大阪府,大東市,川中新町２６番４０５号,,27,218,5740031,,,,,,,2026-02-10,1,,,,,ロイヤルサービス,0
2288,9140001141705,新規,0,2026-02-10,2026-02-10,ＢＬＵＥ　ＯＣＥＡＮ　ＳＨＩＰＰＩＮＧ株式会社,,株式会社,兵庫県,神戸市中央区,浪花町５９番地,,28,110,6500035,,,,,,,2026-02-10,1,,,,,ブルーオーシャンシッピング,0
2289,9140003023182,新規,0,2026-02-10,2026-02-10,合同会社Ｎｏｒｄｉｃ　Ｊａｐａｎ,,合同会社,兵庫県,神戸市西区,北別府１丁目２４番地の１,,28,111,6512117,,,,,,,2026-02-10,1,,,,,ノルディックジャパン,0
2290,9140003023208,新規,0,2026-02-10,2026-02-10,合同会社ＮＡＫＡＭＡ,,合同会社,兵庫県,丹波市,氷上町常楽８１９番地１,,28,223,6693602,,,,,,,2026-02-10,1,,,,,ナカマ,0
2292,9150003003836,新規,0,2026-02-10,2026-02-10,Ｃａｌｉｎ合同会社,,合同会社,奈良県,奈良市,朝日町２丁目３１番地の２,,29,201,6310014,,,,,,,2026-02-10,1,,,,,カリン,0
2294,9170001018974,新規,0,2026-02-10,2026-02-10,株式会社ＭｉＸＸ　ＪＵＩＣＥ　ＪＡＰＡＮ,,株式会社,和歌山県,有田市,宮原町須谷３９２,,30,204,6490433,,,,,,,2026-02-10,1,,,,,ミックスジュースジャパン,0
2300,9180301040685,新規,0,2026-02-10,2026-02-10,株式会社ＯＷＮ,,株式会社,愛知県,豊橋市,舟原町２４５番地３,,23,201,4400813,,,,,,,2026-02-10,1,,,,,オウン,0
2303,9200001044711,新規,0,2026-02-10,2026-02-10,株式会社ＦＴアドバンス,,株式会社,岐阜県,可児市,中恵土１６１０番地７,,21,214,5090202,,,,,,,2026-02-10,1,,,,,エフティーアドバンス,0
2306,9220003004224,新規,0,2026-02-10,2026-02-10,合同会社サニーライトいしかわ,,合同会社,石川県,白山市,中成２丁目２４４番地,,17,210,9240029,,,,,,,2026-02-10,1,,,,,サニーライトイシカワ,0
2307,9230001021294,新規,0,2026-02-10,2026-02-10,株式会社ウィズリヒト,,株式会社,富山県,富山市,奥田寿町２０番１８号,,16,201,9300852,,,,,,,2026-02-10,1,,,,,ウィズリヒト,0
2314,9240001066157,新規,0,2026-02-10,2026-02-10,株式会社ＤｉｅｔＲｅｓｃｕｅ,,株式会社,広島県,広島市西区,己斐大迫２丁目１２番１号,,34,104,7330816,,,,,,,2026-02-10,1,,,,,ダイエットレスキュー,0
2319,9280001009582,新規,0,2026-02-10,2026-02-10,株式会社Ｉｎｔｅｒｎａｔｉｏｎａｌ　Ｂｒｉｄｇｅ　Ｌａｂ．,,株式会社,島根県,松江市,菅田町１６８番地４マンション福田２号棟５０８号,,32,201,6900824,,,,,,,2026-02-10,1,,,,,インターナショナルブリッジラボ,0
2320,9280003002040,新規,0,2026-02-10,2026-02-10,合同会社パスアンドムーヴ,,合同会社,島根県,松江市,西持田町３４５番地６９,,32,201,6900815,,,,,,,2026-02-10,1,,,,,パスアンドムーヴ,0
2327,9290001113045,新規,0,2026-02-10,2026-02-10,株式会社ｉｒｏｄｏｒｉ　ｌａｂ．,,株式会社,福岡県,嘉麻市,平山３３１番地１,,40,227,8200506,,,,,,,2026-02-10,1,,,,,イロドリラボ,0
2328,9290001113103,新規,0,2026-02-10,2026-02-10,ｉＰａｓｓ‐Ｊａｐａｎ株式会社,,株式会社,福岡県,福岡市中央区,大名２丁目６番１１号,,40,133,8100041,,,,,,,2026-02-10,1,,,,,アイパスジャパン,0
2330,9290005019998,新規,0,2026-02-10,2026-02-10,一般社団法人九州環境促進センター,,その他の設立登記法人,福岡県,糟屋郡新宮町,新宮東４丁目９番７－６０５号,,40,345,8110124,,,,,,,2026-02-10,1,,,,,キュウシュウカンキョウソクシンセンター,0
2331,9310001019958,新規,0,2026-02-10,2026-02-10,株式会社サードプレイス,,株式会社,長崎県,長崎市,中園町２２番７号,,42,201,8528155,,,,,,,2026-02-10,1,,,,,サードプレイス,0
2337,9330001033981,新規,0,2026-02-10,2026-02-10,株式会社ウェルト,,株式会社,熊本県,熊本市中央区,南坪井町４番１６号１階,,43,101,8600848,,,,,,,2026-02-10,1,,,,,ウェルト,0
2338,9330003011432,新規,0,2026-02-10,2026-02-10,合同会社正栄,,合同会社,熊本県,熊本市中央区,帯山４丁目４４番５号帯山ビル４０１号,,43,101,8620924,,,,,,,2026-02-10,1,,,,,ショウエイ,0
2343,9360001036362,新規,0,2026-02-10,2026-02-10,株式会社ＮＡＭＩ,,株式会社,沖縄県,宮古島市,平良字東仲宗根８９８－５,,47,214,9060007,,,,,,,2026-02-10,1,,,,,ナミ,0
2347,9370001053472,新規,0,2026-02-10,2026-02-10,東日本ＳＷ合併準備株式会社,,株式会社,宮城県,仙台市青葉区,中央１丁目２番３号,,04,101,9800021,,,,,,,2026-02-10,1,,,,,ヒガシニホンエスダブルガッペイジュンビ,0
2350,9380001035866,新規,0,2026-02-10,2026-02-10,株式会社メニューＦＣ,,株式会社,福島県,郡山市,長者１丁目３－８イートンセンター２・２１２,,07,203,9638017,,,,,,,2026-02-10,1,,,,,メニューエフシー,0
2354,9400001017317,新規,0,2026-02-10,2026-02-10,株式会社オーバーランド,,株式会社,岩手県,八幡平市,荒木田第１３地割１７２番地１,,03,214,0287406,,,,,,,2026-02-10,1,,,,,オーバーランド,0
2367,9490001011278,新規,0,2026-02-10,2026-02-10,株式会社マルメル,,株式会社,高知県,高知市,本町５丁目１番９号,,39,201,7800870,,,,,,,2026-02-10,1,,,,,マルメル,0
2368,9500003003668,新規,0,2026-02-10,2026-02-10,ＭＩＲＲＯＲ　ＰＲＯＤＵＣＴＩＯＮ合同会社,,合同会社,愛媛県,松山市,二番町１丁目２番地９第一ジョイフル４－１号,,38,201,7900002,,,,,,,2026-02-10,1,,,,,ミラープロダクション,0
