sequenceNumber,corporateNumber,process,correct,updateDate,changeDate,name,nameImageId,kind,prefectureName,cityName,streetNumber,addressImageId,prefectureCode,cityCode,postCode,addressOutside,addressOutsideImageId,closeDate,closeCause,successorCorporateNumber,changeCause,assignmentDate,latest,enName,enPrefectureName,enCityName,enAddressOutside,furigana,hihyoji
6,1010001220594,新規,0,2021-08-24,2021-08-24,華陽株式会社,,株式会社,東京都,中央区,銀座６丁目６番１号,,13,102,1040061,,,,,,,2021-08-24,1,,,,,カヨウ,0
7,1010001220636,新規,0,2021-08-24,2021-08-24,Ｊａｐａｎ　Ｉｎｔｅｇｒａｔｅｄ　Ｃａｒｂｏｎ株式会社,,株式会社,東京都,千代田区,丸の内２丁目３番１号,,13,101,1000005,,,,,,,2021-08-24,1,,,,,ジャパンインテグレーテットカーボン,0
9,1010003035594,新規,0,2021-08-24,2021-08-24,合同会社ＫＲＦ９８,,合同会社,東京都,千代田区,内幸町２丁目１番６号,,13,101,1000011,,,,,,,2021-08-24,1,,,,,ケイアールエフナインティエイト,0
10,1010003035660,新規,0,2021-08-24,2021-08-24,合同会社アスピライズ,,合同会社,東京都,中央区,日本橋蛎殻町１丁目８－２,,13,102,1030014,,,,,,,2021-08-24,1,,,,,アスピライズ,0
11,1010003035669,新規,0,2021-08-24,2021-08-24,ディガーコンサルティング合同会社,,合同会社,東京都,中央区,銀座１丁目２２番１１号銀座大竹ビジデンス２階,,13,102,1040061,,,,,,,2021-08-24,1,,,,,ディガーコンサルティング,0
12,1010005033778,新規,0,2021-08-24,2021-08-24,フィンポート税理士法人,,その他の設立登記法人,東京都,千代田区,麹町２丁目８番地ＭＬＣ麹町ビル４階,,13,101,1020083,,,,,,,2021-08-24,1,,,,,フィンポート,0
18,1010401162263,新規,0,2021-08-24,2021-08-24,株式会社ＴｏｋｙｏＢａｙＩｎｖｅｓｔｍｅｎｔ,,株式会社,東京都,港区,芝４丁目７－６,,13,103,1080014,,,,,,,2021-08-24,1,,,,,トウキョウベイインベストメント,0
32,1011001142374,新規,0,2021-08-24,2021-08-24,株式会社ともに,,株式会社,東京都,目黒区,大橋２丁目２２番６号,,13,110,1530044,,,,,,,2021-08-24,1,,,,,トモニ,0
33,1011001142416,新規,0,2021-08-24,2021-08-24,株式会社安東伸,,株式会社,東京都,渋谷区,神宮前６丁目２３番４号桑野ビル２階,,13,113,1500001,,,,,,,2021-08-24,1,,,,,アンドウシン,0
34,1011001142457,新規,0,2021-08-24,2021-08-24,株式会社ビブリオ,,株式会社,東京都,渋谷区,渋谷２丁目７番１４号ＶＯＲＴＡＯＹＡＭＡ３０２,,13,113,1500002,,,,,,,2021-08-24,1,,,,,ビブリオ,0
36,1011003013251,新規,0,2021-08-24,2021-08-24,ＲＥＩＣＡ合同会社,,合同会社,東京都,渋谷区,渋谷２丁目１４－６西田ビル５Ｆ,,13,113,1500002,,,,,,,2021-08-24,1,,,,,レイカ,0
48,1011203003622,新規,0,2021-08-24,2021-08-24,エムコインズ合同会社,,合同会社,東京都,中野区,中野５丁目５２番１５号,,13,114,1640001,,,,,,,2021-08-24,1,,,,,エムコインズ,0
52,1011401023620,新規,0,2021-08-24,2021-08-24,ビリアングル株式会社,,株式会社,東京都,板橋区,南町１２番９号南町ビル５Ｆ,,13,119,1730027,,,,,,,2021-08-24,1,,,,,ビリアングル,0
57,1011803004747,新規,0,2021-08-24,2021-08-24,Ｃａｌ．ｌｉｎｅ合同会社,,合同会社,東京都,足立区,大谷田５丁目１３－７－２０２,,13,121,1200001,,,,,,,2021-08-24,1,,,,,カルライン,0
70,1020001142722,新規,0,2021-08-24,2021-08-24,株式会社卓一商事,,株式会社,神奈川県,横浜市中区,山下町１０６番地１０,,14,104,2310023,,,,,,,2021-08-24,1,,,,,タクイチショウジ,0
76,1020003020315,新規,0,2021-08-24,2021-08-24,合同会社リンク,,合同会社,神奈川県,横浜市緑区,長津田２丁目３１番１３号,,14,113,2260027,,,,,,,2021-08-24,1,,,,,リンク,0
80,1021001073734,新規,0,2021-08-24,2021-08-24,株式会社シュエン．ドゥ．ビィーナス,,株式会社,神奈川県,小田原市,酒匂４丁目１０番１４号,,14,206,2560816,,,,,,,2021-08-24,1,,,,,シュエンドゥビィーナス,0
81,1021001073742,新規,0,2021-08-24,2021-08-24,株式会社グリーンリフレ,,株式会社,神奈川県,相模原市南区,上鶴間本町９丁目９番４号,,14,153,2520318,,,,,,,2021-08-24,1,,,,,グリーンリフレ,0
82,1021001073750,新規,0,2021-08-24,2021-08-24,株式会社ＫＩＫコンサルティング開発,,株式会社,神奈川県,平塚市,桃浜町３１番１１号,,14,203,2540815,,,,,,,2021-08-24,1,,,,,ケーアイケーコンサルティングカイハツ,0
89,1030001143967,新規,0,2021-08-24,2021-08-24,株式会社エムブライト,,株式会社,埼玉県,さいたま市南区,白幡４丁目２１番２５－４０５号,,11,108,3360022,,,,,,,2021-08-24,1,,,,,エムブライト,0
95,1030003017806,新規,0,2021-08-24,2021-08-24,羽光合同会社,,合同会社,埼玉県,朝霞市,溝沼５丁目９番１号,,11,227,3510023,,,,,,,2021-08-24,1,,,,,ハネヒカリ,0
100,1040001119891,新規,0,2021-08-24,2021-08-24,株式会社ＹＫＭ商事,,株式会社,千葉県,袖ケ浦市,奈良輪３３６番地,,12,229,2990263,,,,,,,2021-08-24,1,,,,,ワイケーエムショウジ,0
104,1050001049634,新規,0,2021-08-24,2021-08-24,株式会社ＰＲＯＳＣＥＮＥ,,株式会社,茨城県,水戸市,上水戸４丁目６番７号,,08,201,3100041,,,,,,,2021-08-24,1,,,,,プロシーン,0
105,1050001049725,新規,0,2021-08-24,2021-08-24,久川株式会社,,株式会社,茨城県,つくば市,天久保４丁目８番地１３号１０５号室,,08,220,3050005,,,,,,,2021-08-24,1,,,,,ヒサガワカブシキガイシャ,0
106,1050001049733,新規,0,2021-08-24,2021-08-24,株式会社フクダ,,株式会社,茨城県,鉾田市,大竹２１４６番地３,,08,234,3111513,,,,,,,2021-08-24,1,,,,,フクダ,0
110,1050003006039,新規,0,2021-08-24,2021-08-24,合同会社Ｋ３,,合同会社,茨城県,つくば市,二の宮２丁目１７－１０パークサイド洞峰３０３,,08,220,3050051,,,,,,,2021-08-24,1,,,,,ケーキューブ,0
111,1060001034016,新規,0,2021-08-24,2021-08-24,株式会社大島コーポレーション,,株式会社,栃木県,佐野市,富岡町３７１番地３,,09,204,3270844,,,,,,,2021-08-24,1,,,,,オオシマコーポレーション,0
113,1070003004206,新規,0,2021-08-24,2021-08-24,合同会社Ｍｏｏｎ,,合同会社,群馬県,館林市,大街道１丁目８－３０,,10,207,3740066,,,,,,,2021-08-24,1,,,,,ムーン,0
115,1090001017158,新規,0,2021-08-24,2021-08-24,甲州電子株式会社,,株式会社,山梨県,南都留郡富士河口湖町,大石２８０５番地１４,,19,430,4010305,,,,,,,2021-08-24,1,,,,,コウシュウデンシ,0
118,1100003006215,新規,0,2021-08-24,2021-08-24,前進合同会社,,合同会社,長野県,下伊那郡高森町,山吹８３２４番地２,,20,403,3993101,,,,,,,2021-08-24,1,,,,,ゼンシン,0
131,1120003020081,新規,0,2021-08-24,2021-08-24,合同会社アグリ・ビューティー・クラブ,,合同会社,大阪府,大阪市中央区,南船場２丁目７－１３,,27,128,5420081,,,,,,,2021-08-24,1,,,,,アグリビューティークラブ,0
132,1120005022456,新規,0,2021-08-24,2021-08-24,一般社団法人ＯＳＡＫＡハイメディカルクリニックグループ,,その他の設立登記法人,大阪府,大阪市西区,南堀江３丁目１１番２２号堀江ＪＮＳビル３Ｆ,,27,106,5500015,,,,,,,2021-08-24,1,,,,,オーサカハイメディカルクリニックグループ,0
142,1130001069979,新規,0,2021-08-24,2021-08-24,グリーンボンド株式会社,,株式会社,京都府,京都市上京区,今出川通智恵光院西入西北小路町２４８,,26,102,6028444,,,,,,,2021-08-24,1,,,,,グリーンボンド,0
148,1140001122786,新規,0,2021-08-24,2021-08-24,株式会社ｉｎｔｈｅｔａｉｌ,,株式会社,兵庫県,尼崎市,潮江５丁目２－１－１９３１,,28,202,6610976,,,,,,,2021-08-24,1,,,,,インザテイル,0
149,1140005025787,新規,0,2021-08-24,2021-08-24,一般社団法人日本急性期ケア協会,,その他の設立登記法人,兵庫県,神戸市北区,桂木３丁目３２番２－１０１号,,28,109,6511223,,,,,,,2021-08-24,1,,,,,ニホンキュウセイキケアキョウカイ,0
151,1150001024874,新規,0,2021-08-24,2021-08-24,株式会社ガーデンライフ,,株式会社,奈良県,桜井市,大字橋本５２番地の７,,29,206,6330047,,,,,,,2021-08-24,1,,,,,ガーデンライフ,0
164,1180001147499,新規,0,2021-08-24,2021-08-24,株式会社林商会,,株式会社,愛知県,名古屋市天白区,池見２丁目２９番地２,,23,116,4680067,,,,,,,2021-08-24,1,,,,,ハヤシショウカイ,0
165,1180001147532,新規,0,2021-08-24,2021-08-24,株式会社クリエイト,,株式会社,愛知県,半田市,出口町２丁目１６８番地の２,,23,205,4750903,,,,,,,2021-08-24,1,,,,,クリエイト,0
166,1180003022808,新規,0,2021-08-24,2021-08-24,合同会社チャバラエステート,,合同会社,愛知県,名古屋市西区,栄生３丁目９番３号,,23,104,4510052,,,,,,,2021-08-24,1,,,,,チャバラエステート,0
167,1180003022881,新規,0,2021-08-24,2021-08-24,合同会社Ｈ２Ｏ,,合同会社,愛知県,一宮市,大和町毛受字一本松８番地５,,23,203,4910932,,,,,,,2021-08-24,1,,,,,エイチツーオー,0
170,1190001028624,新規,0,2021-08-24,2021-08-24,株式会社ミンクス,,株式会社,三重県,鈴鹿市,大池３丁目１１－９,,24,207,5130827,,,,,,,2021-08-24,1,,,,,ミンクス,0
171,1200001039041,新規,0,2021-08-24,2021-08-24,ツナガル株式会社,,株式会社,岐阜県,瑞穂市,美江寺９２９番地１,,21,216,5010312,,,,,,,2021-08-24,1,,,,,ツナガル,0
175,1210003001403,新規,0,2021-08-24,2021-08-24,合同会社月虹,,合同会社,福井県,小浜市,水取４丁目２番２３号コーポ田辺１０１,,18,204,9170093,,,,,,,2021-08-24,1,,,,,ゲッコウ,0
182,1230003001715,新規,0,2021-08-24,2021-08-24,合同会社ＳＵＮＦＬＯＷＥＲ,,合同会社,富山県,富山市,婦中町蔵島１０２７番地５,,16,201,9392726,,,,,,,2021-08-24,1,,,,,サンフラワー,0
196,1290001094012,新規,0,2021-08-24,2021-08-24,株式会社フォーリーフ製薬,,株式会社,福岡県,福岡市早良区,賀茂２丁目５番３５号４,,40,137,8140164,,,,,,,2021-08-24,1,,,,,フォーリーフセイヤク,0
197,1290001094243,新規,0,2021-08-24,2021-08-24,株式会社高山総建,00124015,株式会社,福岡県,久留米市,三潴町原田１５番地３,,40,203,8300104,,,,,,,2021-08-24,1,,,,,タカヤマソウケン,0
204,1290003011477,新規,0,2021-08-24,2021-08-24,合同会社ｅ－ＮＥＯ,,合同会社,福岡県,福岡市中央区,天神２丁目３番１０号天神パインクレスト７１９号,,40,133,8100001,,,,,,,2021-08-24,1,,,,,イーネオ,0
205,1290003011543,新規,0,2021-08-24,2021-08-24,一丁目開発合同会社,,合同会社,福岡県,福岡市博多区,博多駅前１丁目２４番１０号,,40,132,8120011,,,,,,,2021-08-24,1,,,,,イッチョウメカイハツ,0
208,1310001017432,新規,0,2021-08-24,2021-08-24,株式会社こおり不動産,,株式会社,長崎県,大村市,宮小路３丁目１３３８番地,,42,205,8560807,,,,,,,2021-08-24,1,,,,,コオリフドウサン,0
219,1350001017271,新規,0,2021-08-24,2021-08-24,ひとつ株式会社,,株式会社,宮崎県,宮崎市,昭和町２１番地,,45,201,8800874,,,,,,,2021-08-24,1,,,,,ヒトツ,0
220,1360001029266,新規,0,2021-08-24,2021-08-24,ｃａｒｉｎ株式会社,,株式会社,沖縄県,那覇市,天久１丁目２８番３０号,,47,201,9000005,,,,,,,2021-08-24,1,,,,,カリン,0
221,1360003011379,新規,0,2021-08-24,2021-08-24,琉球レジデンシャルサポート合同会社,,合同会社,沖縄県,うるま市,字赤道５６２番地１０,,47,213,9042245,,,,,,,2021-08-24,1,,,,,リュウキュウレジデンシャルサポート,0
224,1370001047515,新規,0,2021-08-24,2021-08-24,株式会社ＢＬＵＥＴＥＣＨ．ＯＣＥＡＮ,,株式会社,宮城県,塩竈市,舟入１丁目５番３８号,,04,203,9850014,,,,,,,2021-08-24,1,,,,,ブルーテックオーシャン,0
228,1390001016567,新規,0,2021-08-24,2021-08-24,株式会社表蔵王ベルタウン,,株式会社,山形県,山形市,表蔵王６８番地,,06,201,9902307,,,,,,,2021-08-24,1,,,,,オモテザオウベルタウン,0
232,1410003003560,新規,0,2021-08-24,2021-08-24,合同会社ＲＥＳＩＬＩＥＮＣＥ,,合同会社,秋田県,秋田市,山王沼田町７番３３号クレスティーク山王３０１,,05,201,0100954,,,,,,,2021-08-24,1,,,,,レジリエンス,0
235,1440005002707,新規,0,2021-08-24,2021-08-24,一般社団法人北海道の子育て・教育を支援する学会,,その他の設立登記法人,北海道,函館市,美原５丁目２６番２６号,,01,202,0410806,,,,,,,2021-08-24,1,,,,,ホッカイドウノコソダテキョウイクヲシエンスルガッカイ,0
237,1470005006374,新規,0,2021-08-24,2021-08-24,医療法人社団常和会,,その他の設立登記法人,香川県,丸亀市,津森町１１０７番地１,,37,202,7630052,,,,,,,2021-08-24,1,,,,,トキワカイ,0
259,2010001220577,新規,0,2021-08-24,2021-08-24,株式会社ＭｉｚＬｉｎｘ,,株式会社,東京都,千代田区,神田練塀町３富士ソフト秋葉原ビル１２Ｆ,,13,101,1010022,,,,,,,2021-08-24,1,,,,,,0
260,2010001220593,新規,0,2021-08-24,2021-08-24,株式会社オクトマネジメント,,株式会社,東京都,千代田区,麹町１丁目７番地,,13,101,1020083,,,,,,,2021-08-24,1,,,,,オクトマネジメント,0
261,2010001220610,新規,0,2021-08-24,2021-08-24,ＴＨＥ　ＧＡＮＥＳＨ株式会社,,株式会社,東京都,千代田区,九段南４丁目７番２２号,,13,101,1020074,,,,,,,2021-08-24,1,,,,,ザガネーシャ,0
262,2010001220619,新規,0,2021-08-24,2021-08-24,ポレーヌ・ジャパン株式会社,,株式会社,東京都,中央区,日本橋室町４丁目３番９号,,13,102,1030022,,,,,,,2021-08-24,1,,,,,ポレーヌジャパン,0
265,2010003035668,新規,0,2021-08-24,2021-08-24,Ｆｌｅｘｓｙｓ　Ｊａｐａｎ合同会社,,合同会社,東京都,中央区,日本橋室町４丁目３番９号,,13,102,1030022,,,,,,,2021-08-24,1,,,,,フレキシスジャパン,0
267,2010005033876,新規,0,2021-08-24,2021-08-24,Ｓｗｉｆｔ２一般社団法人,,その他の設立登記法人,東京都,千代田区,丸の内３丁目１番１号東京共同会計事務所内,,13,101,1000005,,,,,,,2021-08-24,1,,,,,スウィフトツー,0
268,2010101014821,新規,0,2021-08-24,2021-08-24,株式会社中西ファーム,,株式会社,東京都,八王子市,小比企町２７０６番地,,13,201,1930934,,,,,,,2021-08-24,1,,,,,ナカニシファーム,0
273,2010401162246,新規,0,2021-08-24,2021-08-24,株式会社オールシーズンズ,,株式会社,東京都,港区,麻布台１丁目９番１０号飯倉ＩＴビル５階,,13,103,1060041,,,,,,,2021-08-24,1,,,,,オールシーズンズ,0
274,2010401162262,新規,0,2021-08-24,2021-08-24,株式会社ＢＭプロモーション,,株式会社,東京都,港区,六本木６丁目２－３１六本木ヒルズノースタワー１６階,,13,103,1060032,,,,,,,2021-08-24,1,,,,,ビーエムプロモーション,0
282,2010601059829,新規,0,2021-08-24,2021-08-24,株式会社ＮＡＭＥ,,株式会社,東京都,江東区,猿江２丁目１－７－５０１,,13,108,1350003,,,,,,,2021-08-24,1,,,,,ネーム,0
286,2010705003261,新規,0,2021-08-24,2021-08-24,一般社団法人平林財産信託,,その他の設立登記法人,東京都,品川区,上大崎４丁目１番１－１６０１号,,13,109,1410021,,,,,,,2021-08-24,1,,,,,ヒラバヤシザイサンシンタク,0
292,2010903006751,新規,0,2021-08-24,2021-08-24,合同会社菊地酵素,,合同会社,東京都,世田谷区,砧１丁目２７番２４号,,13,112,1570073,,,,,,,2021-08-24,1,,,,,キクチコウソ,0
304,2011003013250,新規,0,2021-08-24,2021-08-24,合同会社メイクリンク,,合同会社,東京都,渋谷区,神宮前６丁目２３番４号桑野ビル２階,,13,113,1500001,,,,,,,2021-08-24,1,,,,,メイクリンク,0
320,2011505002420,新規,0,2021-08-24,2021-08-24,一般社団法人プチ・プランス,,その他の設立登記法人,東京都,荒川区,荒川１丁目３５番４号三河島ビルディング４Ｆ,,13,118,1160002,,,,,,,2021-08-24,1,,,,,プチプランス,0
322,2012401038228,新規,0,2021-08-24,2021-08-24,株式会社ｖａｇｕｅ,,株式会社,東京都,武蔵野市,境４丁目７番５号１Ｆ,,13,203,1800022,,,,,,,2021-08-24,1,,,,,ヴェイグ,0
323,2012401038236,新規,0,2021-08-24,2021-08-24,株式会社ＥＭＥＵ,,株式会社,東京都,狛江市,猪方２丁目１７番２号アイディールハウス１０５,,13,219,2010015,,,,,,,2021-08-24,1,,,,,エミュウ,0
328,2013303005794,新規,0,2021-08-24,2021-08-24,合同会社ＴＭＹＫ,,合同会社,東京都,豊島区,東池袋１丁目３４番５号いちご東池袋ビル６階,,13,116,1700013,,,,,,,2021-08-24,1,,,,,ティーエムワイケー,0
333,2020001142721,新規,0,2021-08-24,2021-08-24,南晃商事株式会社,,株式会社,神奈川県,横浜市南区,六ツ川１丁目６７２番地の４６,,14,105,2320066,,,,,,,2021-08-24,1,,,,,ナンコウショウジ,0
336,2020003020314,新規,0,2021-08-24,2021-08-24,合同会社クラフトライフ,,合同会社,神奈川県,横浜市緑区,長津田２丁目３１番１３号,,14,113,2260027,,,,,,,2021-08-24,1,,,,,クラフトライフ,0
341,2021001073741,新規,0,2021-08-24,2021-08-24,株式会社匠,,株式会社,神奈川県,平塚市,出縄６番地の３,,14,203,2540915,,,,,,,2021-08-24,1,,,,,タクミ,0
342,2021003010825,新規,0,2021-08-24,2021-08-24,ｂｉｏＳｅｃｔｏｒ合同会社,,合同会社,神奈川県,藤沢市,村岡東２丁目２６番地１湘南ヘルスイノベーションパーク,,14,205,2510012,,,,,,,2021-08-24,1,,,,,バイオセクター,0
347,2030001143933,新規,0,2021-08-24,2021-08-24,株式会社Ｒｅｉｒ,,株式会社,埼玉県,所沢市,大字下安松１７５番地の２,,11,208,3590024,,,,,,,2021-08-24,1,,,,,レイール,0
357,2040005021325,新規,0,2021-08-24,2021-08-24,一般社団法人パドルラケットゴルフ協会,,その他の設立登記法人,千葉県,浦安市,入船３丁目６８番１４号,,12,227,2790012,,,,,,,2021-08-24,1,,,,,パドルラケットゴルフキョウカイ,0
359,2050001049716,新規,0,2021-08-24,2021-08-24,株式会社誠和興業,,株式会社,茨城県,古河市,下大野１５７４番地３６,,08,204,3060204,,,,,,,2021-08-24,1,,,,,セイワコウギョウ,0
360,2050001049740,新規,0,2021-08-24,2021-08-24,Ｗａｒｄａｇ　Ｔｒａｄｉｎｇ株式会社,,株式会社,茨城県,坂東市,逆井３５３６番地大都ビル２０７,,08,228,3060501,,,,,,,2021-08-24,1,,,,,ワルダグトレーディング,0
375,2090001017165,新規,0,2021-08-24,2021-08-24,青木水力発電株式会社,,株式会社,山梨県,韮崎市,神山町鍋山１８４４番地１,,19,207,4070043,,,,,,,2021-08-24,1,,,,,アオキスイリョクハツデン,0
394,2120003020089,新規,0,2021-08-24,2021-08-24,合同会社Ｌａｖｏｒｏ,,合同会社,大阪府,大阪市中央区,谷町４丁目２－１６Ｂ１Ｆ,,27,128,5400012,,,,,,,2021-08-24,1,,,,,ラボロ,0
395,2120005022455,新規,0,2021-08-24,2021-08-24,一般社団法人ＢＵＭＩＪＡＰＡＮ,,その他の設立登記法人,大阪府,大阪市中央区,東心斎橋１丁目１９番１９号,,27,128,5420083,,,,,,,2021-08-24,1,,,,,ブミジャパン,0
412,2130003007440,新規,0,2021-08-24,2021-08-24,Ｈａｆｔｏｏ合同会社,,合同会社,京都府,宇治市,志津川東組１４番地,,26,204,6110015,,,,,,,2021-08-24,1,,,,,ハフトゥ,0
424,2140001122785,新規,0,2021-08-24,2021-08-24,株式会社アルエット,,株式会社,兵庫県,宝塚市,すみれガ丘３丁目１番１－８０２号,,28,214,6650847,,,,,,,2021-08-24,1,,,,,アルエット,0
426,2150001024857,新規,0,2021-08-24,2021-08-24,株式会社ニシグチ,,株式会社,奈良県,天理市,勾田町８２－４,,29,204,6320033,,,,,,,2021-08-24,1,,,,,ニシグチ,0
428,2160001023569,新規,0,2021-08-24,2021-08-24,株式会社翔,,株式会社,滋賀県,東近江市,下二俣町２１０番地５,,25,213,5270065,,,,,,,2021-08-24,1,,,,,カケル,0
437,2180001147531,新規,0,2021-08-24,2021-08-24,株式会社ＭＡＬＩＫ　ＴＲＡＤＩＮＧ,,株式会社,愛知県,あま市,北苅三本柿１５６番地１,,23,237,4901214,,,,,,,2021-08-24,1,,,,,マリクトレーディング,0
438,2180003022880,新規,0,2021-08-24,2021-08-24,合同会社ネクスト,,合同会社,愛知県,長久手市,下川原１番地２７,,23,238,4801137,,,,,,,2021-08-24,1,,,,,ネクスト,0
441,2180301035279,新規,0,2021-08-24,2021-08-24,株式会社モノクラシック,,株式会社,愛知県,豊橋市,広小路３丁目２８番地,,23,201,4400881,,,,,,,2021-08-24,1,,,,,モノクラシック,0
442,2180301035287,新規,0,2021-08-24,2021-08-24,株式会社令和コンクリート圧送,,株式会社,愛知県,額田郡幸田町,大字野場字三田堂３７番地１,,23,501,4440128,,,,,,,2021-08-24,1,,,,,レイワコンクリートアッソウ,0
447,2200001039040,新規,0,2021-08-24,2021-08-24,Ａｇ　Ｉｎｎｏｖａｔｉｏｎ株式会社,,株式会社,岐阜県,高山市,片野町４丁目５３１番地,,21,203,5060824,,,,,,,2021-08-24,1,,,,,エージーイノベーション,0
454,2250001019079,新規,0,2021-08-24,2021-08-24,株式会社ＭＹＨ,,株式会社,山口県,宇部市,西宇部南４丁目１２５４番地１６,,35,202,7590208,,,,,,,2021-08-24,1,,,,,エムワイエイチ,0
456,2260001035892,新規,0,2021-08-24,2021-08-24,クレスト株式会社,,株式会社,岡山県,岡山市中区,湊７８－１５,,33,102,7038266,,,,,,,2021-08-24,1,,,,,クレスト,0
457,2280001008500,新規,0,2021-08-24,2021-08-24,天霧の森株式会社,,株式会社,島根県,邑智郡邑南町,矢上３５４１番地１,,32,449,6960103,,,,,,,2021-08-24,1,,,,,アマギリノモリ,0
461,2290001094309,新規,0,2021-08-24,2021-08-24,株式会社ＷＷＷＥ,,株式会社,福岡県,福岡市中央区,大名２丁目６番１１号,,40,133,8100041,,,,,,,2021-08-24,1,,,,,ウィー,0
462,2290001094341,新規,0,2021-08-24,2021-08-24,株式会社住まいのペイント,,株式会社,福岡県,福岡市西区,野方２丁目１５番２３号,,40,135,8190043,,,,,,,2021-08-24,1,,,,,スマイノペイント,0
467,2290003011550,新規,0,2021-08-24,2021-08-24,合同会社リユスネット,,合同会社,福岡県,福岡市博多区,板付５丁目５番３７号,,40,132,8120888,,,,,,,2021-08-24,1,,,,,リユスネット,0
470,2290803003912,新規,0,2021-08-24,2021-08-24,合同会社Ｒｅｖｅ,,合同会社,福岡県,北九州市八幡西区,本城３丁目２１－４５,,40,109,8070801,,,,,,,2021-08-24,1,,,,,レーヴ,0
475,2310001017431,新規,0,2021-08-24,2021-08-24,株式会社ＱＴＦ,,株式会社,長崎県,北松浦郡佐々町,羽須和免４２番地３,,42,391,8570341,,,,,,,2021-08-24,1,,,,,キューティーエフ,0
480,2320001018552,新規,0,2021-08-24,2021-08-24,ＤＥＥＰ株式会社,,株式会社,大分県,大分市,羽屋２丁目１番５３号,,44,201,8700854,,,,,,,2021-08-24,1,,,,,ディープ,0
485,2340003003526,新規,0,2021-08-24,2021-08-24,合同会社Ｋｉｃｋｙ　Ｆａｃｔｏｒｙ,,合同会社,鹿児島県,鹿屋市,花岡町４５１８番地３,,46,203,8912304,,,,,,,2021-08-24,1,,,,,キッキーファクトリー,0
487,2350003003913,新規,0,2021-08-24,2021-08-24,ロンアクア合同会社,,合同会社,宮崎県,都城市,蓑原町３２１１番地６チアーズライフⅡ２０６,00124007,45,202,8850095,,,,,,,2021-08-24,1,,,,,ロンアクア,0
506,2390001016566,新規,0,2021-08-24,2021-08-24,株式会社フューチャーハーベスト,,株式会社,山形県,酒田市,局字局２２番地,,06,204,9997771,,,,,,,2021-08-24,1,,,,,フューチャーハーベスト,0
508,2400001015574,新規,0,2021-08-24,2021-08-24,株式会社Ｕｎｌｉｍｉｔ,,株式会社,岩手県,北上市,若宮町１丁目６番１３号,,03,206,0240064,,,,,,,2021-08-24,1,,,,,アンリミット,0
511,2420001017560,新規,0,2021-08-24,2021-08-24,株式会社Ｗｅｌｌｓｔｏｎｅ　ａｎｄ　Ｚｅｎｉｔｈ,,株式会社,青森県,青森市,橋本２丁目８番１０号,,02,201,0300823,,,,,,,2021-08-24,1,,,,,ウェルストンアンドゼニス,0
516,2440001008938,新規,0,2021-08-24,2021-08-24,株式会社Ｅｎｊｏｙ,,株式会社,北海道,函館市,松川町１８番２４号,,01,202,0400074,,,,,,,2021-08-24,1,,,,,エンジョイ,0
522,2470005006373,新規,0,2021-08-24,2021-08-24,医療法人社団蒼貴会,,その他の設立登記法人,香川県,丸亀市,新田町字道上１１０番地１０,,37,202,7630055,,,,,,,2021-08-24,1,,,,,ソウキカイ,0
528,2500003002684,新規,0,2021-08-24,2021-08-24,合同会社そら,,合同会社,愛媛県,宇和島市,住吉町６２１番地１,,38,203,7980003,,,,,,,2021-08-24,1,,,,,ソラ,0
545,3010001220576,新規,0,2021-08-24,2021-08-24,株式会社Ｎｅｘｔ　Ｉｎｎｏｖａｔｉｏｎ,,株式会社,東京都,中央区,日本橋小伝馬町１６番１４－４０１号,,13,102,1030001,,,,,,,2021-08-24,1,,,,,ネクストイノベーション,0
552,3010005033875,新規,0,2021-08-24,2021-08-24,Ｓｗｉｆｔ１一般社団法人,,その他の設立登記法人,東京都,千代田区,丸の内３丁目１番１号東京共同会計事務所内,,13,101,1000005,,,,,,,2021-08-24,1,,,,,スウィフトワン,0
561,3010401162138,新規,0,2021-08-24,2021-08-24,ＭｅｄＳｅａｒｃｈ株式会社,,株式会社,東京都,港区,赤坂２丁目２２番２５号７０２号室,,13,103,1070052,,,,,,,2021-08-24,1,,,,,メドサーチ,0
562,3010401162220,新規,0,2021-08-24,2021-08-24,グッドループ株式会社,,株式会社,東京都,港区,海岸１丁目７番１号東京ポートシティ竹芝オフィスタワー８Ｆ,,13,103,1050022,,,,,,,2021-08-24,1,,,,,グッドループ,0
563,3010401162245,新規,0,2021-08-24,2021-08-24,ＥＲ１７株式会社,,株式会社,東京都,港区,六本木１丁目６番１号,,13,103,1060032,,,,,,,2021-08-24,1,,,,,イーアールセブンティーン,0
570,3010703005911,新規,0,2021-08-24,2021-08-24,ＬＥＶＥＬ　ＮＩＮＥ合同会社,,合同会社,東京都,品川区,大崎２丁目９番２－３１１４号,,13,109,1410032,,,,,,,2021-08-24,1,,,,,レベルナイン,0
572,3010903006750,新規,0,2021-08-24,2021-08-24,きび合同会社,,合同会社,東京都,世田谷区,経堂４丁目１７番７－１５０１号,,13,112,1560052,,,,,,,2021-08-24,1,,,,,キビ,0
577,3011001142455,新規,0,2021-08-24,2021-08-24,ノーティラス株式会社,,株式会社,東京都,渋谷区,神宮前２丁目１４番１８号４Ｆ,,13,113,1500001,,,,,,,2021-08-24,1,,,,,ノーティラス,0
578,3011003013241,新規,0,2021-08-24,2021-08-24,ＦＬＯＡＴＩＮＧ　ＡＬＰＳ合同会社,,合同会社,東京都,渋谷区,神宮前６丁目１２－９－４Ｆ,,13,113,1500001,,,,,,,2021-08-24,1,,,,,フローティングアルプス,0
579,3011005009188,新規,0,2021-08-24,2021-08-24,一般社団法人未来人間フォーラムジャパン,,その他の設立登記法人,東京都,渋谷区,代官山町２番７号シャトレ代官山３０１号室,,13,113,1500034,,,,,,,2021-08-24,1,,,,,ミライニンゲンフォーラムジャパン,0
581,3011103010948,新規,0,2021-08-24,2021-08-24,合同会社エース,,合同会社,東京都,新宿区,原町３丁目３４－１ルーブル新宿原町１２０２,,13,104,1620053,,,,,,,2021-08-24,1,,,,,エース,0
584,3011501027239,新規,0,2021-08-24,2021-08-24,株式会社ｆｏｌｉａｇｅｒｏｃｋ,,株式会社,東京都,荒川区,南千住５丁目４１番９号,,13,118,1160003,,,,,,,2021-08-24,1,,,,,フォリッジロック,0
588,3011801039611,新規,0,2021-08-24,2021-08-24,マッチング株式会社,,株式会社,東京都,足立区,千住１丁目４番１号東京芸術センター１０階,,13,121,1200034,,,,,,,2021-08-24,1,,,,,マッチング,0
603,3020001142729,新規,0,2021-08-24,2021-08-24,日本デジタルイノベーション株式会社,,株式会社,神奈川県,川崎市幸区,下平間４８番地１０１,,14,132,2120053,,,,,,,2021-08-24,1,,,,,ニホンデジタルイノベーション,0
608,3020003020370,新規,0,2021-08-24,2021-08-24,ＪＨＡＲＡＮＡ合同会社,,合同会社,神奈川県,川崎市高津区,二子１丁目１９番１８号,,14,134,2130002,,,,,,,2021-08-24,1,,,,,ザラナ,0
613,3021003010824,新規,0,2021-08-24,2021-08-24,合同会社エルフィ,,合同会社,神奈川県,藤沢市,大鋸９５７番地の１５,,14,205,2510002,,,,,,,2021-08-24,1,,,,,エルフィ,0
614,3021003010832,新規,0,2021-08-24,2021-08-24,合同会社ＭＫコーポレーション,,合同会社,神奈川県,相模原市中央区,淵野辺４丁目３８－７－１０３,,14,152,2520206,,,,,,,2021-08-24,1,,,,,エムケーコーポレーション,0
641,3040003018371,新規,0,2021-08-24,2021-08-24,合同会社Ｌ＆Ｐ,,合同会社,千葉県,船橋市,湊町２丁目１番１８号,,12,204,2730011,,,,,,,2021-08-24,1,,,,,エルアンドピー,0
643,3040005021324,新規,0,2021-08-24,2021-08-24,一般社団法人あんのん会,,その他の設立登記法人,千葉県,大網白里市,北今泉２９２４番地５,,12,239,2993201,,,,,,,2021-08-24,1,,,,,アンノンカイ,0
645,3050001049723,新規,0,2021-08-24,2021-08-24,ＡＫＥＳＨＩ　ＩＮＴＥＲＮＡＴＩＯＮＡＬ株式会社,,株式会社,茨城県,つくば市,古来４７２番地１,,08,220,3050021,,,,,,,2021-08-24,1,,,,,アカシインターナショナル,0
648,3060001034014,新規,0,2021-08-24,2021-08-24,株式会社エステート戸祭,,株式会社,栃木県,宇都宮市,戸祭２丁目１１番３３号,,09,201,3200056,,,,,,,2021-08-24,1,,,,,エステートトマツリ,0
658,3090003001926,新規,0,2021-08-24,2021-08-24,ときわ合同会社,,合同会社,山梨県,南都留郡富士河口湖町,船津５２１５番地８,,19,430,4010301,,,,,,,2021-08-24,1,,,,,トキワ,0
660,3100001034546,新規,0,2021-08-24,2021-08-24,株式会社ユーリズム,,株式会社,長野県,木曽郡木祖村,大字薮原１７７７番地１,,20,425,3996201,,,,,,,2021-08-24,1,,,,,ユーリズム,0
672,3120001239861,新規,0,2021-08-24,2021-08-24,株式会社Ａ．Ｔ不動産,,株式会社,大阪府,大阪市鶴見区,今津中１丁目９番２７号,,27,124,5380042,,,,,,,2021-08-24,1,,,,,エーティーフドウサン,0
673,3120005022446,新規,0,2021-08-24,2021-08-24,特定非営利活動法人ＷＡＩＫＩ,,その他の設立登記法人,大阪府,大阪市東淀川区,東中島１丁目１８番２２号,,27,114,5330033,,,,,,,2021-08-24,1,,,,,ワイキ,0
692,3140001122751,新規,0,2021-08-24,2021-08-24,株式会社阪神シニアサポート,,株式会社,兵庫県,西宮市,名塩新町１１番１－２０８号,,28,204,6691134,,,,,,,2021-08-24,1,,,,,ハンシンシニアサポート,0
693,3140001122784,新規,0,2021-08-24,2021-08-24,株式会社Ｂｒｉｇｈｔ　Ｍｅｄｉｃａｌ,,株式会社,兵庫県,神戸市中央区,八幡通４丁目１番２７－８０５号,,28,110,6510085,,,,,,,2021-08-24,1,,,,,ブライトメディカル,0
699,3160003002355,新規,0,2021-08-24,2021-08-24,合同会社ＤＯＯＭ　ＳＴＵＤＩＯ,,合同会社,滋賀県,大津市,北大路２丁目１１番１６号,,25,201,5200843,,,,,,,2021-08-24,1,,,,,ドゥームスタジオ,0
708,3180001147506,新規,0,2021-08-24,2021-08-24,株式会社キャリアパレット,,株式会社,愛知県,名古屋市西区,名駅２丁目６番９号ＹＡＭＡＧＩＳＨＩＢＬＤＧ．３階,,23,104,4510045,,,,,,,2021-08-24,1,,,,,キャリアパレット,0
709,3180001147514,新規,0,2021-08-24,2021-08-24,株式会社ＵＳＫ,,株式会社,愛知県,春日井市,鳥居松町５丁目３３番地ティアモンド春日井１階,,23,206,4860844,,,,,,,2021-08-24,1,,,,,ユーエスケー,0
710,3180001147522,新規,0,2021-08-24,2021-08-24,株式会社シーランド,,株式会社,愛知県,春日井市,大泉寺町字社下７６番地１,,23,206,4860812,,,,,,,2021-08-24,1,,,,,シーランド,0
711,3180001147539,新規,0,2021-08-24,2021-08-24,株式会社ｍｅａｌｗｅｌｌ,,株式会社,愛知県,名古屋市西区,名駅２丁目３４番１７号セントラル名古屋１１０１号,,23,104,4510045,,,,,,,2021-08-24,1,,,,,ミルウェル,0
716,3180003022888,新規,0,2021-08-24,2021-08-24,ＡＪ　Ｔｒａｄｉｎｇ合同会社,,合同会社,愛知県,小牧市,岩崎１丁目１０番地,,23,219,4850011,,,,,,,2021-08-24,1,,,,,エージェイトレーディング,0
720,3180301035286,新規,0,2021-08-24,2021-08-24,株式会社ＹＫＭ,,株式会社,愛知県,岡崎市,羽根北町１丁目４番地２,,23,202,4440831,,,,,,,2021-08-24,1,,,,,ワイケーエム,0
723,3180305009229,新規,0,2021-08-24,2021-08-24,一般社団法人しょうのうファーム,,その他の設立登記法人,愛知県,みよし市,西一色町東２５番地,,23,236,4700226,,,,,,,2021-08-24,1,,,,,ショウノウファーム,0
725,3200003005287,新規,0,2021-08-24,2021-08-24,合同会社Ｒｅｓｉｌｉｅｎｃｅ,,合同会社,岐阜県,下呂市,萩原町奥田洞９２８番地,,21,220,5092519,,,,,,,2021-08-24,1,,,,,レジリエンス,0
738,3260003003657,新規,0,2021-08-24,2021-08-24,合同会社ＡＨＮｓｔｙｌｅ,,合同会社,岡山県,岡山市南区,泉田４２２－２６,,33,104,7000944,,,,,,,2021-08-24,1,,,,,アンスタイル,0
742,3290001094299,新規,0,2021-08-24,2021-08-24,株式会社アルテ,,株式会社,福岡県,福岡市博多区,博多駅前４丁目２３番４－６０１号,,40,132,8120011,,,,,,,2021-08-24,1,,,,,アルテ,0
747,3290801027730,新規,0,2021-08-24,2021-08-24,株式会社ゼンメイル,,株式会社,福岡県,北九州市小倉北区,東篠崎３丁目２番１１－２０１号,,40,106,8020072,,,,,,,2021-08-24,1,,,,,ゼンメイル,0
748,3290803003911,新規,0,2021-08-24,2021-08-24,Ｔｒｅｅホーム合同会社,,合同会社,福岡県,北九州市門司区,梅ノ木町６－２１－２０７,,40,101,8000026,,,,,,,2021-08-24,1,,,,,ツリーホーム,0
750,3310003004146,新規,0,2021-08-24,2021-08-24,合同会社ＣＯＭＰＡＳＳ,,合同会社,長崎県,長崎市,葉山１丁目４５番６号,,42,201,8528053,,,,,,,2021-08-24,1,,,,,コンパス,0
755,3330005010388,新規,0,2021-08-24,2021-08-24,医療法人泰誠会,,その他の設立登記法人,熊本県,宇城市,小川町江頭２２９－２,,43,213,8690624,,,,,,,2021-08-24,1,,,,,タイセイカイ,0
759,3360001029272,新規,0,2021-08-24,2021-08-24,ＭＫ産業株式会社,,株式会社,沖縄県,糸満市,西崎２丁目１０番１１号,,47,210,9010305,,,,,,,2021-08-24,1,,,,,エムケイサンギョウ,0
761,3360005006499,新規,0,2021-08-24,2021-08-24,一般社団法人ＯＩＮＡ,,その他の設立登記法人,沖縄県,那覇市,安里１丁目８番４号ＺＯＲＫＳ崇元寺,,47,201,9020067,,,,,,,2021-08-24,1,,,,,オイナ,0
762,3370001047505,新規,0,2021-08-24,2021-08-24,株式会社未来アダプト,,株式会社,宮城県,仙台市宮城野区,新田２丁目１３－１,,04,102,9830038,,,,,,,2021-08-24,1,,,,,ミライアダプト,0
770,3380001032142,新規,0,2021-08-24,2021-08-24,スギナＨＤ株式会社,,株式会社,福島県,南会津郡南会津町,田島字西町甲４３５９番地,,07,368,9670004,,,,,,,2021-08-24,1,,,,,スギナホールディングス,0
773,3390003001862,新規,0,2021-08-24,2021-08-24,合同会社住計画,,合同会社,山形県,長井市,九野本８０５番地１６,,06,209,9930041,,,,,,,2021-08-24,1,,,,,ジュウケイカク,0
777,3410001012941,新規,0,2021-08-24,2021-08-24,株式会社ＦＩＦＴＹ－ＦＩＦＴＹ　ＢＡＬＬ,,株式会社,秋田県,秋田市,保戸野中町１番４７号セジュールゼロセカンド２０３,,05,201,0100905,,,,,,,2021-08-24,1,,,,,フィフティフィフティボール,0
778,3410003003559,新規,0,2021-08-24,2021-08-24,合同会社ＢＭワーカー,,合同会社,秋田県,秋田市,中通４丁目１番２号秋田スクエアビル４階オフィス４Ｆ,,05,201,0100001,,,,,,,2021-08-24,1,,,,,ビーエムワーカー,0
781,3430001084797,新規,0,2021-08-24,2021-08-24,株式会社おんくりの輪,,株式会社,北海道,石狩市,花川北五条１丁目６７番地,,01,235,0613215,,,,,,,2021-08-24,1,,,,,オンクリノワ,0
785,3470001018669,新規,0,2021-08-24,2021-08-24,株式会社ＭＰＭＣ,,株式会社,香川県,高松市,松並町７２２番地,,37,201,7618052,,,,,,,2021-08-24,1,,,,,エムピーエムシー,0
788,3470005006372,新規,0,2021-08-24,2021-08-24,特定非営利活動法人楽しく着物を着る推進委員会,,その他の設立登記法人,香川県,高松市,松縄町１０６７番地１９,,37,201,7600079,,,,,,,2021-08-24,1,,,,,タノシクキモノヲキルスイシンイインカイ,0
806,4010001220575,新規,0,2021-08-24,2021-08-24,同仁堂国際株式会社,,株式会社,東京都,文京区,本郷４丁目１番７号第二近江屋ビル５０１号室,,13,105,1130033,,,,,,,2021-08-24,1,,,,,ドウジンドウコクサイ,0
807,4010001220600,新規,0,2021-08-24,2021-08-24,静福物産株式会社,,株式会社,東京都,千代田区,麹町３丁目５番８号,,13,101,1020083,,,,,,,2021-08-24,1,,,,,セイフクブッサン,0
808,4010001220633,新規,0,2021-08-24,2021-08-24,ファイア・アイ・セキュリティ株式会社,,株式会社,東京都,千代田区,神田錦町３丁目２２番地テラススクエア８階,,13,101,1010054,,,,,,,2021-08-24,1,,,,,ファイアアイセキュリティ,0
812,4010003035658,新規,0,2021-08-24,2021-08-24,合同会社エルエーサイエンス・ラボ,,合同会社,東京都,文京区,音羽１丁目１５番１２号,,13,105,1120013,,,,,,,2021-08-24,1,,,,,エルエーサイエンスラボ,0
821,4010401162244,新規,0,2021-08-24,2021-08-24,ＥＲ１８株式会社,,株式会社,東京都,港区,六本木１丁目６番１号,,13,103,1060032,,,,,,,2021-08-24,1,,,,,イーアールエイティーン,0
822,4010401162260,新規,0,2021-08-24,2021-08-24,株式会社トライフォース,,株式会社,東京都,港区,赤坂２丁目８番１１号,,13,103,1070052,,,,,,,2021-08-24,1,,,,,トライフォース,0
823,4010403025952,新規,0,2021-08-24,2021-08-24,ＢＬＥ　Ｊａｐａｎ　１０１合同会社,,合同会社,東京都,港区,南麻布３丁目１９番２３号オーク南麻布ビル２階,,13,103,1060047,,,,,,,2021-08-24,1,,,,,ビーエルイージャパンワンオーワン,0
824,4010403025969,新規,0,2021-08-24,2021-08-24,第二の実家合同会社,,合同会社,東京都,港区,浜松町２丁目２－１５－２Ｆ,,13,103,1050013,,,,,,,2021-08-24,1,,,,,ダイニノジッカ,0
833,4010701041429,新規,0,2021-08-24,2021-08-24,株式会社澪,,株式会社,東京都,品川区,戸越５丁目２０番２号パラシオ３０２,,13,109,1420041,,,,,,,2021-08-24,1,,,,,レイ,0
836,4010901049313,新規,0,2021-08-24,2021-08-24,株式会社デジトラ,,株式会社,東京都,世田谷区,鎌田２丁目１３番３－４０５号,,13,112,1570077,,,,,,,2021-08-24,1,,,,,デジトラ,0
842,4011001142272,新規,0,2021-08-24,2021-08-24,株式会社ＷＯＮＤＥＲＨＯＯＤＳ,,株式会社,東京都,渋谷区,神宮前６丁目２３番４号桑野ビル２階,,13,113,1500001,,,,,,,2021-08-24,1,,,,,ワンダーフッズ,0
844,4011003013224,新規,0,2021-08-24,2021-08-24,ＵＮＩＱＵＥ　ＣＯＬＯＲＳ合同会社,,合同会社,東京都,渋谷区,神宮前６丁目２３番４号桑野ビル２Ｆ,,13,113,1500001,,,,,,,2021-08-24,1,,,,,ユニークカラーズ,0
845,4011005009179,新規,0,2021-08-24,2021-08-24,一般社団法人ＥＤＡＳ,,その他の設立登記法人,東京都,目黒区,目黒３丁目１５番２０号,,13,110,1530063,,,,,,,2021-08-24,1,,,,,イーダス,0
849,4011401023618,新規,0,2021-08-24,2021-08-24,ＡＰ　ＳＴＵＤＩＯ株式会社,,株式会社,東京都,板橋区,常盤台４丁目３２番９号４Ｆ,,13,119,1740071,,,,,,,2021-08-24,1,,,,,エーピースタジオ,0
853,4011603003376,新規,0,2021-08-24,2021-08-24,合同会社あずき商会,,合同会社,東京都,練馬区,下石神井１丁目２番３号エテルナ・ルミエーラ２０６,,13,120,1770042,,,,,,,2021-08-24,1,,,,,アズキショウカイ,0
863,4012701016625,新規,0,2021-08-24,2021-08-24,株式会社Ｗｏｏｄ　Ｆａｉｒｙ,,株式会社,東京都,小平市,上水南町２丁目１５－３４,,13,211,1870021,,,,,,,2021-08-24,1,,,,,ウッドフェアリー,0
864,4012703002292,新規,0,2021-08-24,2021-08-24,合同会社オフィスＢＪ,,合同会社,東京都,西東京市,田無町４丁目１８番７号コーポ望月２０５号,,13,229,1880011,,,,,,,2021-08-24,1,,,,,ビージェイ,0
892,4030001143948,新規,0,2021-08-24,2021-08-24,桜商事株式会社,,株式会社,埼玉県,和光市,新倉２丁目２３番２号,,11,229,3510115,,,,,,,2021-08-24,1,,,,,サクラショウジ,0
896,4030003017803,新規,0,2021-08-24,2021-08-24,ＬＡ・Ｇｕｉｌｄ合同会社,,合同会社,埼玉県,川越市,むさし野２９番地３２,,11,201,3501170,,,,,,,2021-08-24,1,,,,,エルエーギルド,0
904,4050003006036,新規,0,2021-08-24,2021-08-24,合同会社ＬＩＦＩＸ,,合同会社,茨城県,水戸市,西原２丁目１２番地９号グランジェロ３０４号室,,08,201,3100044,,,,,,,2021-08-24,1,,,,,リフィックス,0
909,4080101022725,新規,0,2021-08-24,2021-08-24,ＮＩＷＡデザイン株式会社,,株式会社,静岡県,富士市,中之郷３１８９番地の５,,22,210,4213306,,,,,,,2021-08-24,1,,,,,ニワデザイン,0
913,4100005012761,新規,0,2021-08-24,2021-08-24,土地家屋調査士法人丸山事務所,,その他の設立登記法人,長野県,長野市,安茂里小市２丁目１６番４号,,20,201,3800961,,,,,,,2021-08-24,1,,,,,マルヤマジムショ,0
923,4120001239893,新規,0,2021-08-24,2021-08-24,エアースマイル株式会社,,株式会社,大阪府,大阪市北区,曾根崎新地２丁目２番１６号西梅田ＭＩＤビル９階,,27,127,5300002,,,,,,,2021-08-24,1,,,,,エアースマイル,0
924,4120001239910,新規,0,2021-08-24,2021-08-24,株式会社Ｐｌａｎ　Ｋ,,株式会社,大阪府,大阪市北区,曾根崎１丁目４番５号エステムプラザ梅田１３０２号室,,27,127,5300057,,,,,,,2021-08-24,1,,,,,プランケー,0
930,4120103004312,新規,0,2021-08-24,2021-08-24,合同会社Ｋｅｉｔｈ　Ｃｏｎｄｉｔｉｏｎｉｎｇ,,合同会社,大阪府,泉南郡熊取町,美熊台２丁目１番５－２０９号,,27,361,5900456,,,,,,,2021-08-24,1,,,,,キースコンディショニング,0
933,4120901044807,新規,0,2021-08-24,2021-08-24,ナインファイブ株式会社,,株式会社,大阪府,池田市,満寿美町５番２６－３０５号,,27,204,5630041,,,,,,,2021-08-24,1,,,,,ナインファイブ,0
937,4120903003793,新規,0,2021-08-24,2021-08-24,合同会社クレリア,,合同会社,大阪府,吹田市,藤白台１丁目１－８－４０６,,27,205,5650873,,,,,,,2021-08-24,1,,,,,クレリア,0
944,4130001069976,新規,0,2021-08-24,2021-08-24,株式会社バーレー,,株式会社,京都府,京都市左京区,聖護院山王町２５番地８,,26,103,6068392,,,,,,,2021-08-24,1,,,,,バーレー,0
946,4130003007430,新規,0,2021-08-24,2021-08-24,合同会社エブリデイ,,合同会社,京都府,木津川市,山城町平尾西黒部３１番地１ヴェルメゾンⅢ号館１０２号,00124008,26,214,6190202,,,,,,,2021-08-24,1,,,,,エブリデイ,0
947,4130003007439,新規,0,2021-08-24,2021-08-24,ＹＫＮ・Ｌｉｆｅ　Ｃｒｅａｔｉｏｎ合同会社,,合同会社,京都府,八幡市,西山足立４番地２,,26,210,6148351,,,,,,,2021-08-24,1,,,,,ワイケーエヌライフクリエイション,0
960,4160001023567,新規,0,2021-08-24,2021-08-24,プランビー株式会社,,株式会社,滋賀県,大津市,大萱１丁目１－９,,25,201,5202144,,,,,,,2021-08-24,1,,,,,プランビー,0
967,4180003022887,新規,0,2021-08-24,2021-08-24,合同会社リンクリ,,合同会社,愛知県,名古屋市中村区,日比津町４丁目７－１１,,23,105,4530061,,,,,,,2021-08-24,1,,,,,リンクリ,0
976,4220001024377,新規,0,2021-08-24,2021-08-24,株式会社十月のオクトパス,,株式会社,石川県,金沢市,大額町ル３９番地４６,,17,201,9218143,,,,,,,2021-08-24,1,,,,,ジュウガツノオクトパス,0
991,4250001019077,新規,0,2021-08-24,2021-08-24,かける不動産株式会社,,株式会社,山口県,下関市,員光町３丁目７番２８号,,35,201,7520903,,,,,,,2021-08-24,1,,,,,カケルフドウサン,0
993,4260001035890,新規,0,2021-08-24,2021-08-24,株式会社一尺屋,,株式会社,岡山県,加賀郡吉備中央町,宮地３２３８番地,,33,681,7161553,,,,,,,2021-08-24,1,,,,,イッシャクヤ,0
995,4270001008342,新規,0,2021-08-24,2021-08-24,株式会社Ｎｏｖｉａ,,株式会社,鳥取県,鳥取市,吉成７７９番地４０,,31,201,6800864,,,,,,,2021-08-24,1,,,,,ノヴィア,0
1010,4310003004145,新規,0,2021-08-24,2021-08-24,合同会社ＣＲＯＷＳ,,合同会社,長崎県,長崎市,新戸町１丁目３１番１７号２０３,,42,201,8500954,,,,,,,2021-08-24,1,,,,,クロウズ,0
1013,4320001018550,新規,0,2021-08-24,2021-08-24,株式会社ＮＥＯ,,株式会社,大分県,日田市,中本町７番１２号,,44,204,8770047,,,,,,,2021-08-24,1,,,,,ネオ,0
1021,4360003011384,新規,0,2021-08-24,2021-08-24,カンセイホーム宮古島合同会社,,合同会社,沖縄県,宮古島市,平良字西仲宗根５５７番地１,,47,214,9060006,,,,,,,2021-08-24,1,,,,,カンセイホームミヤコジマ,0
1034,4420001017559,新規,0,2021-08-24,2021-08-24,株式会社アイディール弘前,,株式会社,青森県,弘前市,大字城東４丁目８番地６,,02,202,0368095,,,,,,,2021-08-24,1,,,,,アイディールヒロサキ,0
1040,4430003013019,新規,0,2021-08-24,2021-08-24,Ｎａｉａ合同会社,,合同会社,北海道,虻田郡倶知安町,字山田１９０番地６マウンテンサイドパレス２Ｆ,,01,400,0440081,,,,,,,2021-08-24,1,,,,,ナイア,0
1041,4430003013076,新規,0,2021-08-24,2021-08-24,合同会社紫雲,,合同会社,北海道,札幌市中央区,南一条西４丁目１３番地,,01,101,0600061,,,,,,,2021-08-24,1,,,,,シウン,0
1042,4450001013456,新規,0,2021-08-24,2021-08-24,株式会社パザパ,,株式会社,北海道,旭川市,末広三条１２丁目３番１５号,,01,204,0718133,,,,,,,2021-08-24,1,,,,,パザパ,0
1048,4700150027529,新規,0,2021-08-24,2015-10-09,福知山民主商工会,,その他,京都府,福知山市,字堀２４３８ー２,,26,201,6200000,,,,,,,2015-10-09,1,,,,,フクチヤマミンシユシヨウコウカイ,0
1053,4700150104154,新規,0,2021-08-24,2021-07-26,くわなＩｏＴ推進ラボ協議会,,その他,三重県,桑名市,中央町２丁目３７番地,,24,205,5110068,,,,,,,2021-07-26,1,,,,,クワナアイオーテイースイシンラボキヨウギカイ,0
1063,5010001220541,新規,0,2021-08-24,2021-08-24,インクレイズテクノロジー株式会社,,株式会社,東京都,中央区,銀座１丁目１２－４Ｎ＆ＥＢＬＤ．７階,,13,102,1040061,,,,,,,2021-08-24,1,,,,,,0
1064,5010001220574,新規,0,2021-08-24,2021-08-24,株式会社ＳＫＤ,,株式会社,東京都,千代田区,平河町２丁目５番５号,,13,101,1020093,,,,,,,2021-08-24,1,,,,,,0
1065,5010001220582,新規,0,2021-08-24,2021-08-24,楽商事株式会社,,株式会社,東京都,千代田区,外神田５丁目３番１２号清和ビル６Ｆ,,13,101,1010021,,,,,,,2021-08-24,1,,,,,ラクショウジ,0
1066,5010001220590,新規,0,2021-08-24,2021-08-24,ｍａｂｌ株式会社,,株式会社,東京都,中央区,日本橋室町４丁目３番９号,,13,102,1030022,,,,,,,2021-08-24,1,,,,,マーブル,0
1067,5010001220624,新規,0,2021-08-24,2021-08-24,株式会社ＦＩＲＥＷＯＯＤ,,株式会社,東京都,千代田区,九段南１丁目５番６号りそな九段ビル５Ｆ,,13,101,1020074,,,,,,,2021-08-24,1,,,,,ファイヤーウッド,0
1073,5010003035673,新規,0,2021-08-24,2021-08-24,合同会社蘭々,,合同会社,東京都,千代田区,外神田３丁目１３番５号,,13,101,1010021,,,,,,,2021-08-24,1,,,,,ランラン,0
1085,5010401162268,新規,0,2021-08-24,2021-08-24,ＴＭプロモーション株式会社,,株式会社,東京都,港区,六本木３丁目１３番１２号エルサビル３０１,,13,103,1060032,,,,,,,2021-08-24,1,,,,,ティーエムプロモーション,0
1086,5010403025976,新規,0,2021-08-24,2021-08-24,合同会社マシフ,,合同会社,東京都,港区,六本木７丁目２１番１７－４０１,,13,103,1060032,,,,,,,2021-08-24,1,,,,,マシフ,0
1092,5010603009110,新規,0,2021-08-24,2021-08-24,スミダ装美合同会社,,合同会社,東京都,墨田区,東向島６丁目３７番４号,,13,107,1310032,,,,,,,2021-08-24,1,,,,,スミダソウビ,0
1104,5011001142429,新規,0,2021-08-24,2021-08-24,株式会社Ｇｌｏｂａｌ　Ａｓｓｏｃｉａ＆ＣＯ．,,株式会社,東京都,渋谷区,神宮前１丁目４番２０号パークコート神宮前３１５,,13,113,1500001,,,,,,,2021-08-24,1,,,,,グローバルアソシアアンドカンパニー,0
1105,5011001142437,新規,0,2021-08-24,2021-08-24,株式会社アドプラ,,株式会社,東京都,渋谷区,渋谷２丁目１９－１５宮益坂ビルディング６０９,,13,113,1500002,,,,,,,2021-08-24,1,,,,,アドプラ,0
1107,5011101096070,新規,0,2021-08-24,2021-08-24,株式会社Ｃｈｉｌｌｈｏｕｓｅ,,株式会社,東京都,新宿区,大久保１丁目１２番４号ＡＳＳ第２ビル６階,,13,104,1690072,,,,,,,2021-08-24,1,,,,,チルハウス,0
1110,5011201023206,新規,0,2021-08-24,2021-08-24,株式会社ケフィメレス,,株式会社,東京都,中野区,本町４丁目２８－９エクセル新中野４０３,,13,114,1640012,,,,,,,2021-08-24,1,,,,,ケフィメレス,0
1112,5011701000522,新規,0,2021-08-24,2021-08-24,石電産業車輛株式会社,,株式会社,東京都,江戸川区,平井１丁目２番２７号,,13,123,1320035,,,,,,,2021-08-24,1,,,,,,0
1114,5011801039601,新規,0,2021-08-24,2021-08-24,サンフォレストコーポレーション株式会社,,株式会社,東京都,足立区,入谷１丁目１４番１５号,,13,121,1210836,,,,,,,2021-08-24,1,,,,,サンフォレストコーポレーション,0
1118,5012801021029,新規,0,2021-08-24,2021-08-24,Ｖｉｃｔｏｒｉａ　Ｇｒａｃｅ株式会社,,株式会社,東京都,立川市,羽衣町１丁目１番２－１０１号,,13,202,1900021,,,,,,,2021-08-24,1,,,,,ヴィクトリアグレイス,0
1129,5020001142685,新規,0,2021-08-24,2021-08-24,株式会社漢唐軒,,株式会社,神奈川県,横浜市金沢区,富岡東２丁目４番５６－６０５号,,14,108,2360051,,,,,,,2021-08-24,1,,,,,カントウケン,0
1142,5030001143971,新規,0,2021-08-24,2021-08-24,株式会社リフトオフ,,株式会社,埼玉県,川口市,栄町３丁目５番１号２階,,11,203,3320017,,,,,,,2021-08-24,1,,,,,リフトオフ,0
1156,5070003004202,新規,0,2021-08-24,2021-08-24,家紋合同会社,,合同会社,群馬県,邑楽郡千代田町,大字上五箇１５６番地の６,,10,523,3700726,,,,,,,2021-08-24,1,,,,,カモン,0
1163,5090001017162,新規,0,2021-08-24,2021-08-24,株式会社ファイルレント,,株式会社,山梨県,上野原市,上野原５５４番地３,,19,212,4090112,,,,,,,2021-08-24,1,,,,,ファイルレント,0
1169,5110003004560,新規,0,2021-08-24,2021-08-24,合同会社フラットアワー新潟,,合同会社,新潟県,新潟市西区,五十嵐３の町東２６番１０号,,15,107,9502173,,,,,,,2021-08-24,1,,,,,フラットアワーニイガタ,0
1181,5120001239876,新規,0,2021-08-24,2021-08-24,株式会社ＫＹＡＴＡＴＳＵ,,株式会社,大阪府,大阪市東淀川区,東中島１丁目１４番１－６０８号,,27,114,5330033,,,,,,,2021-08-24,1,,,,,キャタツ,0
1182,5120001239884,新規,0,2021-08-24,2021-08-24,株式会社ＨｏｔＭａｎ不動産,,株式会社,大阪府,枚方市,大垣内町１丁目３番３７号,,27,210,5730027,,,,,,,2021-08-24,1,,,,,ホットマンフドウサン,0
1186,5120003020086,新規,0,2021-08-24,2021-08-24,ＤＡＨＡＬ　ＧＬＯＢＡＬ合同会社,,合同会社,大阪府,大阪市淀川区,塚本２丁目２４番１１号２階,,27,123,5320026,,,,,,,2021-08-24,1,,,,,ダハルグローバル,0
1197,5120901044748,新規,0,2021-08-24,2021-08-24,株式会社ＫＩＪＩＢＩＺＩ,,株式会社,大阪府,池田市,旭丘１丁目１番７号,,27,204,5630022,,,,,,,2021-08-24,1,,,,,キジビジ,0
1198,5120901044806,新規,0,2021-08-24,2021-08-24,株式会社ＨＹ　Ｊａｐａｎ,,株式会社,大阪府,吹田市,江坂町１丁目２３番４３号,,27,205,5640063,,,,,,,2021-08-24,1,,,,,エイチワイジャパン,0
1200,5120903003792,新規,0,2021-08-24,2021-08-24,合同会社ＫＩＮＤｉｅｓ,,合同会社,大阪府,茨木市,清水１丁目２４番１７号,,27,211,5670059,,,,,,,2021-08-24,1,,,,,カインディーズ,0
1208,5140001122758,新規,0,2021-08-24,2021-08-24,ユアサ建設株式会社,,株式会社,兵庫県,丹波市,青垣町市原９３１番地２,,28,223,6693831,,,,,,,2021-08-24,1,,,,,ユアサケンセツ,0
1209,5140001122799,新規,0,2021-08-24,2021-08-24,株式会社メタルプロダクション,,株式会社,兵庫県,姫路市,豊富町豊富３１１８－１,,28,201,6792123,,,,,,,2021-08-24,1,,,,,,0
1217,5170003001619,新規,0,2021-08-24,2021-08-24,合同会社うめだＪＡＰＡＮ,,合同会社,和歌山県,田辺市,古尾１２番８号,,30,206,6460059,,,,,,,2021-08-24,1,,,,,ウメダジャパン,0
1231,5180003022878,新規,0,2021-08-24,2021-08-24,合同会社ＡＳＱ,,合同会社,愛知県,小牧市,大字東田中１０３９番地クレール弐番館５０１号,,23,219,4850826,,,,,,,2021-08-24,1,,,,,アスキュー,0
1232,5180003022886,新規,0,2021-08-24,2021-08-24,合同会社ｋａｄｏｗａｋｉ,,合同会社,愛知県,小牧市,大字小松寺１０９番地１,,23,219,4850828,,,,,,,2021-08-24,1,,,,,カドワキ,0
1233,5180301035284,新規,0,2021-08-24,2021-08-24,株式会社ＳＵＮＵＰ,,株式会社,愛知県,蒲郡市,拾石町見取１４番地４,,23,214,4430038,,,,,,,2021-08-24,1,,,,,サナップ,0
1238,5200001039038,新規,0,2021-08-24,2021-08-24,株式会社Ｏ．ＨＫ,,株式会社,岐阜県,中津川市,落合６７５番地の９,,21,206,5080006,,,,,,,2021-08-24,1,,,,,オーエイチケー,0
1244,5240001058471,新規,0,2021-08-24,2021-08-24,株式会社晃伸,,株式会社,広島県,東広島市,八本松町原１０６０１番地１５,,34,212,7390151,,,,,,,2021-08-24,1,,,,,コウシン,0
1249,5290001094314,新規,0,2021-08-24,2021-08-24,株式会社アソシエーション九州,,株式会社,福岡県,八女郡広川町,大字川上７２５番地１,,40,544,8340113,,,,,,,2021-08-24,1,,,,,アソシエーションキュウシュウ,0
1251,5290003011531,新規,0,2021-08-24,2021-08-24,ＬａＬａＬａコンサルティング合同会社,,合同会社,福岡県,糸島市,潤４丁目１２－３６Ｂ２０１,,40,230,8191105,,,,,,,2021-08-24,1,,,,,ラララコンサルテイング,0
1256,5290801027720,新規,0,2021-08-24,2021-08-24,株式会社辰鬼建設,,株式会社,福岡県,北九州市門司区,松原２丁目６番２７号,,40,101,8000064,,,,,,,2021-08-24,1,,,,,タツキケンセツ,0
1265,5360003011383,新規,0,2021-08-24,2021-08-24,知念施工合同会社,,合同会社,沖縄県,中頭郡西原町,字翁長５０４番地の５（グリーンコート仲宗根１０２号）,,47,329,9030117,,,,,,,2021-08-24,1,,,,,チネンセコウ,0
1289,5470003002017,新規,0,2021-08-24,2021-08-24,ＨＥＡＲＴＳ合同会社,,合同会社,香川県,高松市,国分寺町新居９６０番地２,,37,201,7690101,,,,,,,2021-08-24,1,,,,,ハーツ,0
1306,6010001220581,新規,0,2021-08-24,2021-08-24,株式会社青羽,,株式会社,東京都,千代田区,神田神保町３丁目９番地２メインステージ九段下１２０５号,,13,101,1010051,,,,,,,2021-08-24,1,,,,,アオバ,0
1307,6010001220607,新規,0,2021-08-24,2021-08-24,株式会社Ｂｒｏａｄｅｎ,,株式会社,東京都,中央区,日本橋箱崎町２１番２－９０１号,,13,102,1030015,,,,,,,2021-08-24,1,,,,,ブロードゥン,0
1308,6010001220623,新規,0,2021-08-24,2021-08-24,Ｒｅｄ　Ａｒｒｏｗ　Ｔｈｅｒａｐｅｕｔｉｃｓ株式会社,,株式会社,東京都,文京区,本郷７丁目３番１号東京大学南研究棟アントレプレナーラボ,,13,105,1130033,,,,,,,2021-08-24,1,,,,,レッドアローセラピューティクス,0
1311,6010003035631,新規,0,2021-08-24,2021-08-24,合同会社美咲ソーラー,,合同会社,東京都,中央区,日本橋１丁目４番１号日本橋一丁目ビルディング,,13,102,1030027,,,,,,,2021-08-24,1,,,,,ミサキソーラー,0
1312,6010003035664,新規,0,2021-08-24,2021-08-24,深達商事合同会社,,合同会社,東京都,中央区,銀座１丁目２２番１１号銀座大竹ビジデンス２Ｆ,,13,102,1040061,,,,,,,2021-08-24,1,,,,,シンタツショウジ,0
1313,6010003035672,新規,0,2021-08-24,2021-08-24,合同会社グリーンヒルズ,,合同会社,東京都,千代田区,平河町１丁目６－１５ＵＳビル８Ｆ,,13,101,1020093,,,,,,,2021-08-24,1,,,,,グリーンヒルズ,0
1314,6010003035680,新規,0,2021-08-24,2021-08-24,オーパスファンディング５合同会社,,合同会社,東京都,千代田区,丸の内３丁目１番１号東京共同会計事務所内,,13,101,1000005,,,,,,,2021-08-24,1,,,,,オーパスファンディングファイブ,0
1322,6010401162242,新規,0,2021-08-24,2021-08-24,きょうのグルメ株式会社,,株式会社,東京都,港区,浜松町２丁目２番１５号浜松町ダイヤビル２Ｆ,,13,103,1050013,,,,,,,2021-08-24,1,,,,,キョウノグルメ,0
1323,6010403025876,新規,0,2021-08-24,2021-08-24,グランディール合同会社,,合同会社,東京都,港区,浜松町２丁目２－１５,,13,103,1050013,,,,,,,2021-08-24,1,,,,,グランディール,0
1324,6010501047731,新規,0,2021-08-24,2021-08-24,Ｒｉｃｈ　ＲＸ株式会社,,株式会社,東京都,台東区,寿３丁目１９番７－４０５号,,13,106,1110042,,,,,,,2021-08-24,1,,,,,リッチアールエックス,0
1327,6010601059841,新規,0,2021-08-24,2021-08-24,株式会社ｂｅ,,株式会社,東京都,江東区,森下３丁目６番９号３０４号室,,13,108,1350004,,,,,,,2021-08-24,1,,,,,ビー,0
1346,6011001142262,新規,0,2021-08-24,2021-08-24,株式会社岡商店,,株式会社,東京都,渋谷区,笹塚１丁目４１番６－１０３号,,13,113,1510073,,,,,,,2021-08-24,1,,,,,オカショウテン,0
1347,6011001142444,新規,0,2021-08-24,2021-08-24,Ｆａｓｔｌａｎｅ　Ｊａｐａｎ株式会社,,株式会社,東京都,渋谷区,代々木２丁目２０番１９号（ＣＶＣ会計内）,,13,113,1510053,,,,,,,2021-08-24,1,,,,,ファーストレーンジャパン,0
1348,6011001142477,新規,0,2021-08-24,2021-08-24,うずまきプロダクション株式会社,,株式会社,東京都,渋谷区,千駄ヶ谷３丁目１７番１１号,,13,113,1510051,,,,,,,2021-08-24,1,,,,,ウズマキプロダクション,0
1349,6011001142485,新規,0,2021-08-24,2021-08-24,株式会社Ａｐｏｌｌｏｎ,,株式会社,東京都,渋谷区,神宮前６丁目２３番４号桑野ビル２階,,13,113,1500001,,,,,,,2021-08-24,1,,,,,アポロン,0
1361,6011501027244,新規,0,2021-08-24,2021-08-24,株式会社ぽこんうぇぶ,,株式会社,東京都,北区,赤羽１丁目４７番７－１０３号第５オカダビル,,13,117,1150045,,,,,,,2021-08-24,1,,,,,ポコンウェブ,0
1364,6011801039609,新規,0,2021-08-24,2021-08-24,株式会社ＨＩＲＯＳＥ,,株式会社,東京都,足立区,千住関屋町６番１８号,,13,121,1200024,,,,,,,2021-08-24,1,,,,,ヒロセ,0
1379,6012801021028,新規,0,2021-08-24,2021-08-24,株式会社西垣,,株式会社,東京都,立川市,砂川町２丁目１２番地の９,,13,202,1900031,,,,,,,2021-08-24,1,,,,,ニシガキ,0
1380,6012801021036,新規,0,2021-08-24,2021-08-24,株式会社ウィデット,,株式会社,東京都,立川市,柴崎町２丁目１４番２５号,,13,202,1900023,,,,,,,2021-08-24,1,,,,,ウィデット,0
1382,6013303005799,新規,0,2021-08-24,2021-08-24,合同会社ＯＺ,,合同会社,東京都,豊島区,西巣鴨４丁目６番４号,,13,116,1700001,,,,,,,2021-08-24,1,,,,,オズ,0
1387,6020001142684,新規,0,2021-08-24,2021-08-24,株式会社蔵王食品,,株式会社,神奈川県,川崎市宮前区,菅生３丁目４１番２２号,,14,136,2160015,,,,,,,2021-08-24,1,,,,,ザオウショクヒン,0
1388,6020001142726,新規,0,2021-08-24,2021-08-24,アイフライテックオートモーティブ・ジャパン株式会社,,株式会社,神奈川県,横浜市港北区,新横浜２丁目３－１２新横浜スクエアビル１４Ｆ,,14,109,2220033,,,,,,,2021-08-24,1,,,,,アイフライテックオートモーティブジャパン,0
1393,6030001143970,新規,0,2021-08-24,2021-08-24,株式会社マエモト住建,,株式会社,埼玉県,さいたま市南区,鹿手袋２丁目５番１５号,,11,108,3360031,,,,,,,2021-08-24,1,,,,,マエモトジュウケン,0
1394,6030001143979,新規,0,2021-08-24,2021-08-24,株式会社栄興,,株式会社,埼玉県,所沢市,大字中富１０８９番地,,11,208,3590002,,,,,,,2021-08-24,1,,,,,エイコウ,0
1395,6030001143987,新規,0,2021-08-24,2021-08-24,株式会社双信,,株式会社,埼玉県,熊谷市,弥生１丁目４１番地朝日ビル,,11,202,3600044,,,,,,,2021-08-24,1,,,,,ソウシン,0
1411,6040005021321,新規,0,2021-08-24,2021-08-24,司法書士法人菅谷石橋事務所,,その他の設立登記法人,千葉県,旭市,琴田２８１５番地６,,12,215,2892502,,,,,,,2021-08-24,1,,,,,スガヤイシバシジムショ,0
1445,6120001239891,新規,0,2021-08-24,2021-08-24,株式会社Ａｃｅｓ,,株式会社,大阪府,大阪市北区,豊崎３丁目１５番５号ＴＫビル２Ｆ,,27,127,5310072,,,,,,,2021-08-24,1,,,,,エーシズ,0
1446,6120001239933,新規,0,2021-08-24,2021-08-24,株式会社ＢＹコーポレーション,,株式会社,大阪府,大阪市中央区,鎗屋町１丁目２番１０－８０１号,,27,128,5400027,,,,,,,2021-08-24,1,,,,,ビーワイコーポレーション,0
1456,6120901044805,新規,0,2021-08-24,2021-08-24,株式会社Ｌｉｂｒｅ,,株式会社,大阪府,豊中市,穂積１丁目３番１号,,27,203,5610856,,,,,,,2021-08-24,1,,,,,リブレ,0
1457,6120903003791,新規,0,2021-08-24,2021-08-24,ＭＯＲＥ　ＧＲＯＵＰ合同会社,,合同会社,大阪府,高槻市,大字原６３６－１,,27,207,5691051,,,,,,,2021-08-24,1,,,,,モアグループ,0
1459,6122001035107,新規,0,2021-08-24,2021-08-24,ＺＩＭＡ－ｓｔａｇｅ株式会社,,株式会社,大阪府,東大阪市,足代新町１５番１３－２０４号,,27,227,5770057,,,,,,,2021-08-24,1,,,,,ジーマステージ,0
1469,6130001069974,新規,0,2021-08-24,2021-08-24,ＭＥＢＡＥ株式会社,,株式会社,京都府,京都市左京区,岡崎円勝寺町９１番地５,,26,103,6068344,,,,,,,2021-08-24,1,,,,,メバエ,0
1475,6140001122781,新規,0,2021-08-24,2021-08-24,日紅株式会社,,株式会社,兵庫県,神戸市中央区,下山手通３丁目１０番１４号Ｔ＆Ａビル４階,,28,110,6500011,,,,,,,2021-08-24,1,,,,,ニチベニ,0
1476,6140001122798,新規,0,2021-08-24,2021-08-24,タイヨ株式会社,,株式会社,兵庫県,神戸市東灘区,深江南町４丁目１３番２７号,,28,101,6580022,,,,,,,2021-08-24,1,,,,,タイヨ,0
1480,6160001023565,新規,0,2021-08-24,2021-08-24,アグリ淡海株式会社,,株式会社,滋賀県,彦根市,犬方町６１４番地,,25,202,5220236,,,,,,,2021-08-24,1,,,,,アグリオウミ,0
1482,6160003002352,新規,0,2021-08-24,2021-08-24,ＭＩＮＤ　ＨＯＭＥ合同会社,,合同会社,滋賀県,大津市,真野５丁目２８－２１,,25,201,5200232,,,,,,,2021-08-24,1,,,,,マインドホーム,0
1493,6180001147494,新規,0,2021-08-24,2021-08-24,株式会社ＩＳＭ,,株式会社,愛知県,名古屋市中区,新栄１丁目８番３５号プロト新栄ビル５Ｆ,,23,106,4600007,,,,,,,2021-08-24,1,,,,,アイエスエム,0
1494,6180001147503,新規,0,2021-08-24,2021-08-24,株式会社ＡＮＪ,,株式会社,愛知県,名古屋市中区,大須４丁目１１番２３号ＬＡ上前津８Ｃ号,,23,106,4600011,,,,,,,2021-08-24,1,,,,,エイエヌジェイ,0
1495,6180001147528,新規,0,2021-08-24,2021-08-24,株式会社三軒家ホールディングス,,株式会社,愛知県,丹羽郡大口町,下小口７丁目５５番地,,23,361,4800144,,,,,,,2021-08-24,1,,,,,サンゲンヤホールディングス,0
1496,6180001147536,新規,0,2021-08-24,2021-08-24,株式会社ヒヤデス,,株式会社,愛知県,小牧市,小牧原２丁目１２８番地,,23,219,4850829,,,,,,,2021-08-24,1,,,,,ヒヤデス,0
1502,6180003022885,新規,0,2021-08-24,2021-08-24,光岡板金合同会社,,合同会社,愛知県,名古屋市守山区,川東山３２０１番地の３,,23,113,4630006,,,,,,,2021-08-24,1,,,,,ミツオカバンキン,0
1512,6220005008589,新規,0,2021-08-24,2021-08-24,一般社団法人みやび相続支援機構,,その他の設立登記法人,石川県,金沢市,畝田東３丁目５１２畝田イーストＣ号室,,17,201,9200344,,,,,,,2021-08-24,1,,,,,ミヤビソウゾクシエンキコウ,0
1520,6240001058479,新規,0,2021-08-24,2021-08-24,株式会社ＡＳＡＰ,,株式会社,広島県,広島市中区,東白島町１１番６号,,34,101,7300004,,,,,,,2021-08-24,1,,,,,アサップ,0
1523,6260001035889,新規,0,2021-08-24,2021-08-24,株式会社アスティックリファイン,,株式会社,岡山県,倉敷市,玉島阿賀崎２５５２－１,,33,202,7138121,,,,,,,2021-08-24,1,,,,,アスティックリファイン,0
1532,6290001094296,新規,0,2021-08-24,2021-08-24,株式会社三合,,株式会社,福岡県,福岡市西区,姪の浜２丁目３番１６号１,,40,135,8190002,,,,,,,2021-08-24,1,,,,,サンゴウ,0
1533,6290001094305,新規,0,2021-08-24,2021-08-24,株式会社エネクスグリーンエナジー,,株式会社,福岡県,福岡市中央区,長浜１丁目３番４号,,40,133,8100072,,,,,,,2021-08-24,1,,,,,エネクスグリーンエナジー,0
1534,6290003011539,新規,0,2021-08-24,2021-08-24,合同会社ブライト・アンド,,合同会社,福岡県,福岡市中央区,赤坂１丁目２－２０－９０２,,40,133,8100042,,,,,,,2021-08-24,1,,,,,ブライトアンド,0
1539,6320001018549,新規,0,2021-08-24,2021-08-24,株式会社仁結会,,株式会社,大分県,別府市,大字亀川１７５３番地３,,44,202,8740000,,,,,,,2021-08-24,1,,,,,ジンユウカイ,0
1543,6330001028935,新規,0,2021-08-24,2021-08-24,ＢｉｚＭｏｗＣＡＲＥＥＲ株式会社,,株式会社,熊本県,八代市,本町１丁目９番１５号衆１Ｆ,,43,202,8660861,,,,,,,2021-08-24,1,,,,,ビズモウキャリア,0
1545,6330003009017,新規,0,2021-08-24,2021-08-24,ワイズ不動産開発合同会社,,合同会社,熊本県,熊本市東区,長嶺南５丁目３番１６８号,,43,102,8618039,,,,,,,2021-08-24,1,,,,,ワイズフドウサンカイハツ,0
1554,6360001029261,新規,0,2021-08-24,2021-08-24,株式会社ロータリー,,株式会社,沖縄県,中頭郡嘉手納町,字屋良１０２６番地３道の駅かでな１Ｆ,,47,325,9040202,,,,,,,2021-08-24,1,,,,,ロータリー,0
1558,6370001047510,新規,0,2021-08-24,2021-08-24,株式会社グローイング,,株式会社,宮城県,仙台市泉区,市名坂字東裏９７番地１,,04,105,9813117,,,,,,,2021-08-24,1,,,,,グローイング,0
1559,6370001047519,新規,0,2021-08-24,2021-08-24,ａ－ｌｉｎｋ株式会社,,株式会社,宮城県,仙台市宮城野区,蒲生字鍋沼４９番地２,,04,102,9830002,,,,,,,2021-08-24,1,,,,,エーリンク,0
1571,6450001013454,新規,0,2021-08-24,2021-08-24,株式会社あじさい荘,,株式会社,北海道,名寄市,西四条北７丁目２番地２,,01,221,0960034,,,,,,,2021-08-24,1,,,,,アジサイソウ,0
1572,6450003002117,新規,0,2021-08-24,2021-08-24,ｏｖｅｒｄｏｓｅ合同会社,,合同会社,北海道,旭川市,東鷹栖東一条３丁目１３７番地の５０,,01,204,0718111,,,,,,,2021-08-24,1,,,,,オーバードーズ,0
1575,6470003002016,新規,0,2021-08-24,2021-08-24,合同会社ＯｆＡ,,合同会社,香川県,高松市,十川西町５１４番地２４,,37,201,7610433,,,,,,,2021-08-24,1,,,,,オーエフエー,0
1576,6480001011463,新規,0,2021-08-24,2021-08-24,株式会社Ａｃａｄｅｍｉｓｔｒｙ,,株式会社,徳島県,徳島市,富田橋８丁目６番地９０８,,36,201,7700937,,,,,,,2021-08-24,1,,,,,アカデミストリー,0
1592,7010001220556,新規,0,2021-08-24,2021-08-24,株式会社ＮＧ　Ｐｌｕｓ,,株式会社,東京都,中央区,銀座１丁目２２番１１号銀座大竹ビジデンス２階,,13,102,1040061,,,,,,,2021-08-24,1,,,,,エヌジープラス,0
1593,7010001220564,新規,0,2021-08-24,2021-08-24,ビズコード株式会社,,株式会社,東京都,中央区,銀座１丁目２２番１１号－２Ｆ,,13,102,1040061,,,,,,,2021-08-24,1,,,,,ビズコード,0
1594,7010001220597,新規,0,2021-08-24,2021-08-24,株式会社ＥＩＧＨＴ　ＬＩＦＥ　ＷＯＲＫ,,株式会社,東京都,千代田区,九段南１丁目５番６号りそな九段ビル５Ｆ・ＫＳフロア,,13,101,1020074,,,,,,,2021-08-24,1,,,,,エイトライフワーク,0
1595,7010001220606,新規,0,2021-08-24,2021-08-24,株式会社ＲｅｍｏＲｅｍｏ,,株式会社,東京都,千代田区,神田佐久間町１丁目１４番地第２東ビル３０３,,13,101,1010025,,,,,,,2021-08-24,1,,,,,リモリモ,0
1598,7010003035671,新規,0,2021-08-24,2021-08-24,合同会社マルヤス酒場神田,,合同会社,東京都,千代田区,鍛冶町２丁目９番３号,,13,101,1010044,,,,,,,2021-08-24,1,,,,,マルヤスサカバカンダ,0
1603,7010103001755,新規,0,2021-08-24,2021-08-24,アイ・ケイ管理合同会社,,合同会社,東京都,八王子市,小宮町９７３番地,,13,201,1920031,,,,,,,2021-08-24,1,,,,,アイケイカンリ,0
1613,7010403025974,新規,0,2021-08-24,2021-08-24,合同会社ＳＡＭＳＡＲＡ,,合同会社,東京都,港区,赤坂１丁目１２番３２号アーク森ビル１３階ＧＣＭアセットマネジメント株式会社内,,13,103,1070052,,,,,,,2021-08-24,1,,,,,サムサーラ,0
1616,7010501047730,新規,0,2021-08-24,2021-08-24,株式会社Ｐｌａｙｉｎｇ　Ｆｉｅｌｄ,,株式会社,東京都,台東区,西浅草３丁目２２番３号,,13,106,1110035,,,,,,,2021-08-24,1,,,,,プレイングフィールド,0
1617,7010505003259,新規,0,2021-08-24,2021-08-24,特定非営利活動法人セキュリライフ,,その他の設立登記法人,東京都,台東区,東上野３丁目３６番８号２階,,13,106,1100015,,,,,,,2021-08-24,1,,,,,セキュリライフ,0
1620,7010701041426,新規,0,2021-08-24,2021-08-24,株式会社ＪＯＹ,,株式会社,東京都,品川区,東品川３丁目１０番１－１１０６号,,13,109,1400002,,,,,,,2021-08-24,1,,,,,ジョイ,0
1622,7010803003860,新規,0,2021-08-24,2021-08-24,合同会社マルヤス酒場蒲田,,合同会社,東京都,大田区,蒲田５丁目３９番４号２Ｆ,,13,111,1440052,,,,,,,2021-08-24,1,,,,,マルヤスサカバカマタ,0
1634,7011001142352,新規,0,2021-08-24,2021-08-24,株式会社ハイリーガル,,株式会社,東京都,渋谷区,桜丘町２６番１号セルリアンタワー１５階,,13,113,1500031,,,,,,,2021-08-24,1,,,,,ハイリーガル,0
1635,7011001142443,新規,0,2021-08-24,2021-08-24,株式会社バイヤーズクリエイト,,株式会社,東京都,渋谷区,渋谷１丁目２２番１号ＣＨビル,,13,113,1500002,,,,,,,2021-08-24,1,,,,,バイヤーズクリエイト,0
1636,7011001142468,新規,0,2021-08-24,2021-08-24,株式会社ＩＳＨＩＩ　ＡＳＳＯＣＩＡＴＥＳ,,株式会社,東京都,渋谷区,東１丁目４番１６号,,13,113,1500011,,,,,,,2021-08-24,1,,,,,イシイアソシエーツ,0
1640,7011101096052,新規,0,2021-08-24,2021-08-24,メットグローバル株式会社,,株式会社,東京都,新宿区,大久保１丁目７－１８アサヒニューシティビル４Ｆ,,13,104,1690072,,,,,,,2021-08-24,1,,,,,メットグローバル,0
1644,7011503004868,新規,0,2021-08-24,2021-08-24,インターナショナルトレーダー合同会社,,合同会社,東京都,北区,神谷３丁目３６番６号,,13,117,1150043,,,,,,,2021-08-24,1,,,,,インターナショナルトレーダー,0
1647,7011601025345,新規,0,2021-08-24,2021-08-24,株式会社ワンズワークス,,株式会社,東京都,練馬区,中村南３丁目１９－１ＴＯＫＩＷＡＲＥＳＩＤＥＮＣＥ４０５,,13,120,1760025,,,,,,,2021-08-24,1,,,,,ワンズワークス,0
1652,7012401038223,新規,0,2021-08-24,2021-08-24,株式会社ぱれっと,,株式会社,東京都,府中市,府中町１丁目３０番地の７,,13,206,1830055,,,,,,,2021-08-24,1,,,,,パレット,0
1658,7020001142700,新規,0,2021-08-24,2021-08-24,株式会社Ｆａｖｏｒｉ,,株式会社,神奈川県,川崎市高津区,溝口１丁目１２番２０号ウエストキャニオンⅡ３Ｆ,00124005,14,134,2130001,,,,,,,2021-08-24,1,,,,,ファヴォリ,0
1663,7020005015175,新規,0,2021-08-24,2021-08-24,一般社団法人からこそＢＯＸ,,その他の設立登記法人,神奈川県,横浜市中区,相生町３丁目６１番地泰生ビル５０６号室,,14,104,2310012,,,,,,,2021-08-24,1,,,,,カラコソボックス,0
1664,7021001073720,新規,0,2021-08-24,2021-08-24,株式会社ｃｌａｓｓｉｃ,,株式会社,神奈川県,平塚市,西八幡３丁目８番９号,,14,203,2540073,,,,,,,2021-08-24,1,,,,,クラシック,0
1665,7021001073745,新規,0,2021-08-24,2021-08-24,株式会社ハウスクリーンサービス,,株式会社,神奈川県,相模原市中央区,下九沢１０９０番地１セントエルモ橋本南８０７,,14,152,2520254,,,,,,,2021-08-24,1,,,,,ハウスクリーンサービス,0
1672,7030001143821,新規,0,2021-08-24,2021-08-24,株式会社Ｌｉｂｅｒｔｙ,,株式会社,埼玉県,川口市,芝４丁目２３番１１号,,11,203,3330866,,,,,,,2021-08-24,1,,,,,リバティ,0
1673,7030001143912,新規,0,2021-08-24,2021-08-24,でざいん不動産株式会社,,株式会社,埼玉県,熊谷市,中央２丁目２５１番地,,11,202,3600018,,,,,,,2021-08-24,1,,,,,デザインフドウサン,0
1674,7030001143937,新規,0,2021-08-24,2021-08-24,株式会社ＣＨＩＮＯ,,株式会社,埼玉県,所沢市,松葉町１３番１７－２０３号グランドコート松葉,,11,208,3590044,,,,,,,2021-08-24,1,,,,,チーノ,0
1675,7030001143961,新規,0,2021-08-24,2021-08-24,株式会社ＳＡＡＤ,,株式会社,埼玉県,春日部市,立野１１１７番地１,,11,214,3440134,,,,,,,2021-08-24,1,,,,,サード,0
1687,7060003003789,新規,0,2021-08-24,2021-08-24,合同会社きずな,,合同会社,栃木県,那須塩原市,三区町５３０番地２５６,,09,213,3292745,,,,,,,2021-08-24,1,,,,,キズナ,0
1699,7100005012759,新規,0,2021-08-24,2021-08-24,特定非営利活動法人あち森,,その他の設立登記法人,長野県,下伊那郡阿智村,清内路１０３番地１,,20,407,3950401,,,,,,,2021-08-24,1,,,,,アチモリ,0
1712,7120001239858,新規,0,2021-08-24,2021-08-24,株式会社ＮＡＫＡＹＡＳＨＩＫＩ,,株式会社,大阪府,大阪市北区,西天満４丁目９番２号西天満ビル５１０,,27,127,5300047,,,,,,,2021-08-24,1,,,,,ナカヤシキ,0
1713,7120001239882,新規,0,2021-08-24,2021-08-24,株式会社ＺＥＮ,,株式会社,大阪府,大阪市阿倍野区,天王寺町北３丁目１番２６号,,27,119,5450001,,,,,,,2021-08-24,1,,,,,ゼン,0
1714,7120001239890,新規,0,2021-08-24,2021-08-24,オフィスリンク株式会社,,株式会社,大阪府,大阪市北区,東天満１丁目３番１５号,,27,127,5300044,,,,,,,2021-08-24,1,,,,,オフィスリンク,0
1715,7120001239916,新規,0,2021-08-24,2021-08-24,Ｒｅ．ＵＮＩ－ＴＥＣＫ株式会社,,株式会社,大阪府,大阪市東淀川区,大道南１丁目２６番１３号,,27,114,5330012,,,,,,,2021-08-24,1,,,,,リユニテック,0
1724,7120903003790,新規,0,2021-08-24,2021-08-24,合同会社ＳＵＮＳＡＶＥ,,合同会社,大阪府,吹田市,垂水町３丁目２９番３３－５０３号,,27,205,5640062,,,,,,,2021-08-24,1,,,,,サンセイブ,0
1740,7140001122780,新規,0,2021-08-24,2021-08-24,ＲＩＴＡ・ＩＫＩＧＡＩ株式会社,,株式会社,兵庫県,神戸市垂水区,舞多聞東３丁目３番１８号,,28,108,6550052,,,,,,,2021-08-24,1,,,,,リタイキガイ,0
1742,7140003016659,新規,0,2021-08-24,2021-08-24,合同会社フィードバック,,合同会社,兵庫県,神戸市灘区,篠原南町３丁目７番２８－４０１号,,28,102,6570059,,,,,,,2021-08-24,1,,,,,フィードバック,0
1754,7180001147477,新規,0,2021-08-24,2021-08-24,ＮＩＳＨＩ　ＴＲＡＤＥ株式会社,,株式会社,愛知県,岩倉市,東町掛目１２４サープラス３石黒Ｂ棟１０３号,,23,228,4820041,,,,,,,2021-08-24,1,,,,,ニシトレード,0
1755,7180001147519,新規,0,2021-08-24,2021-08-24,エル・ビー・ウエルド株式会社,,株式会社,愛知県,名古屋市西区,那古野２丁目１４番１号,00124006,23,104,4510042,,,,,,,2021-08-24,1,,,,,エルビーウエルド,0
1756,7180001147535,新規,0,2021-08-24,2021-08-24,株式会社三浦設備,,株式会社,愛知県,津島市,東中地町１丁目３９番地７,,23,208,4960846,,,,,,,2021-08-24,1,,,,,ミウラセツビ,0
1757,7180001147551,新規,0,2021-08-24,2021-08-24,株式会社Ｉ　ａｍ,,株式会社,愛知県,海部郡大治町,大字八ツ屋字堤添７５番地８,,23,424,4901133,,,,,,,2021-08-24,1,,,,,アイアム,0
1759,7180003022827,新規,0,2021-08-24,2021-08-24,合同会社ＭＦＳ,,合同会社,愛知県,名古屋市守山区,森宮町２４１番地,,23,113,4630096,,,,,,,2021-08-24,1,,,,,エムエフエス,0
1760,7180003022884,新規,0,2021-08-24,2021-08-24,合同会社ＹＭＷ,,合同会社,愛知県,名古屋市西区,上堀越町１丁目２２番地の５,,23,104,4510084,,,,,,,2021-08-24,1,,,,,ワイエムダブリュー,0
1769,7200005013243,新規,0,2021-08-24,2021-08-24,特定非営利活動法人フードバンクぎふ,,その他の設立登記法人,岐阜県,大垣市,荒尾町１４９０番地３,,21,202,5030034,,,,,,,2021-08-24,1,,,,,フードバンクギフ,0
1776,7220001024382,新規,0,2021-08-24,2021-08-24,株式会社北陸賃貸,,株式会社,石川県,白山市,美川南町ハ６６番地１,,17,210,9290215,,,,,,,2021-08-24,1,,,,,ホクリクチンタイ,0
1780,7230001018953,新規,0,2021-08-24,2021-08-24,株式会社老子交易,,株式会社,富山県,高岡市,木津２５９１番地,,16,202,9330857,,,,,,,2021-08-24,1,,,,,オイゴコウエキ,0
1791,7240003005255,新規,0,2021-08-24,2021-08-24,ＳＲＣマテリアル合同会社,,合同会社,広島県,福山市,川口町５丁目１５番１９－１号,,34,207,7200822,,,,,,,2021-08-24,1,,,,,エスアールシーマテリアル,0
1793,7260001035888,新規,0,2021-08-24,2021-08-24,株式会社ｅｔｅｒｎａｌ　Ｂ,,株式会社,岡山県,倉敷市,四十瀬３７１番地１,,33,202,7100835,,,,,,,2021-08-24,1,,,,,エターナルビー,0
1798,7290001094304,新規,0,2021-08-24,2021-08-24,株式会社ターナリー,,株式会社,福岡県,八女郡広川町,大字新代２１８８番地１,,40,544,8340115,,,,,,,2021-08-24,1,,,,,ターナリー,0
1799,7290001094312,新規,0,2021-08-24,2021-08-24,ソレコレ株式会社,,株式会社,福岡県,福岡市西区,上山門２丁目１２番３９－２号,,40,135,8190054,,,,,,,2021-08-24,1,,,,,ソレコレ,0
1814,7330001028934,新規,0,2021-08-24,2021-08-24,株式会社東,,株式会社,熊本県,球磨郡相良村,大字柳瀬３３１５番地３,,43,510,8680095,,,,,,,2021-08-24,1,,,,,ヒガシ,0
1818,7330005010384,新規,0,2021-08-24,2021-08-24,一般社団法人九州技術資源アカデミー,,その他の設立登記法人,熊本県,熊本市中央区,神水２丁目２－２０－５Ｆ,,43,101,8620954,,,,,,,2021-08-24,1,,,,,キュウシュウギジュツシゲンアカデミー,0
1824,7360001029260,新規,0,2021-08-24,2021-08-24,株式会社りとあ,,株式会社,沖縄県,うるま市,字赤道１７９番地１５,,47,213,9042245,,,,,,,2021-08-24,1,,,,,リトア,0
1825,7360001029269,新規,0,2021-08-24,2021-08-24,株式会社ロイズベル,,株式会社,沖縄県,宮古島市,平良字西仲宗根５６９番地７,,47,214,9060006,,,,,,,2021-08-24,1,,,,,ロイズベル,0
1826,7360005006487,新規,0,2021-08-24,2021-08-24,一般社団法人かふうのたね,,その他の設立登記法人,沖縄県,豊見城市,字我那覇１６１番地１,,47,212,9010231,,,,,,,2021-08-24,1,,,,,,0
1830,7370005010331,新規,0,2021-08-24,2021-08-24,特定非営利活動法人ウィズユーＳＤＧ’ｓ２０２０,,その他の設立登記法人,宮城県,黒川郡大和町,吉岡字天皇寺１番地の１,,04,421,9813621,,,,,,,2021-08-24,1,,,,,ウィズユーエスディージーズ,0
1838,7390005008910,新規,0,2021-08-24,2021-08-24,特定非営利活動法人輝色,,その他の設立登記法人,山形県,東村山郡山辺町,大字山辺２７１１－１８,,06,301,9900301,,,,,,,2021-08-24,1,,,,,キイロ,0
1849,7470003002015,新規,0,2021-08-24,2021-08-24,野田組合同会社,,合同会社,香川県,綾歌郡宇多津町,２８６２番地７,,37,386,7690210,,,,,,,2021-08-24,1,,,,,ノダグミ,0
1855,7700150104250,新規,0,2021-08-24,2021-08-03,関西医療経営勉強会,,その他,兵庫県,西宮市,久保町１５－１１－７０３,,28,204,6620927,,,,,,,2021-08-03,1,,,,,カンサイイリヨウケイエイベンキヨウカイ,0
1860,8010001220596,新規,0,2021-08-24,2021-08-24,ＣＹ株式会社,,株式会社,東京都,中央区,銀座８丁目１８番３号銀座加藤ビル２階,,13,102,1040061,,,,,,,2021-08-24,1,,,,,シーワイ,0
1861,8010001220605,新規,0,2021-08-24,2021-08-24,株式会社カミノ,,株式会社,東京都,中央区,銀座７丁目１３番６号サガミビル２階,,13,102,1040061,,,,,,,2021-08-24,1,,,,,カミノ,0
1862,8010001220613,新規,0,2021-08-24,2021-08-24,Ｗｅｓｔ　Ｆｉｅｌｄ株式会社,,株式会社,東京都,千代田区,九段南３丁目６番８－７０１号,,13,101,1020074,,,,,,,2021-08-24,1,,,,,ウエストフィールド,0
1863,8010001220621,新規,0,2021-08-24,2021-08-24,Ｐｏｗｅｒ　Ｆｒｏｎｔｉｅｒ　Ｈｏｌｄｉｎｇｓ株式会社,,株式会社,東京都,千代田区,大手町２丁目３番２号,,13,101,1000004,,,,,,,2021-08-24,1,,,,,パワーフロンティアホールディングス,0
1864,8010003035670,新規,0,2021-08-24,2021-08-24,合同会社Ａｂｏｖｅ＆Ｂｅｙｏｎｄ　Ｃｏｎｓｕｌｔｉｎｇ,,合同会社,東京都,中央区,日本橋人形町１丁目２番３号カスタリア人形町４０８,,13,102,1030013,,,,,,,2021-08-24,1,,,,,アボブアンドビヨンドコンサルティング,0
1875,8010401162273,新規,0,2021-08-24,2021-08-24,ＧＥＮＩＣＨＩ　Ｉｎｔｅｒｎａｔｉｏｎａｌ　Ｅｎｔｅｒｐｒｉｓｅ株式会社,,株式会社,東京都,港区,三田１丁目２番１８号ＴＴＤビル,,13,103,1080073,,,,,,,2021-08-24,1,,,,,ゲンイチインターナショナルエンタープライズ,0
1880,8010501047721,新規,0,2021-08-24,2021-08-24,Ｉ－ＣＨＡＩＮ　ＪＡＰＡＮ株式会社,,株式会社,東京都,台東区,浅草６丁目１８番１５号,,13,106,1110032,,,,,,,2021-08-24,1,,,,,アイチェインジャパン,0
1882,8010603009116,新規,0,2021-08-24,2021-08-24,ユナイテッド・パートナーズ合同会社,,合同会社,東京都,墨田区,錦糸１丁目２番１号アルカセントラル１４階,,13,107,1300013,,,,,,,2021-08-24,1,,,,,ユナイテッドパートナーズ,0
1892,8011001142475,新規,0,2021-08-24,2021-08-24,ｐｌａｙｉｔ株式会社,,株式会社,東京都,渋谷区,神宮前３丁目１番２７号,,13,113,1500001,,,,,,,2021-08-24,1,,,,,プレイト,0
1893,8011001142483,新規,0,2021-08-24,2021-08-24,ＧＥＮＥＲＡＴＩＯＮ　ＴＩＭＥ株式会社,,株式会社,東京都,渋谷区,広尾５丁目４番１６号,,13,113,1500012,,,,,,,2021-08-24,1,,,,,ジェネレーションタイム,0
1896,8011101096084,新規,0,2021-08-24,2021-08-24,株式会社Ｇｏｌｄｅｎ　Ｐａｃｋａｇｅ　Ｊａｐａｎ,,株式会社,東京都,新宿区,岩戸町４番地,,13,104,1620832,,,,,,,2021-08-24,1,,,,,ゴールデンパッケージジャパン,0
1903,8011301027120,新規,0,2021-08-24,2021-08-24,株式会社ＮｉＫＯＬ,,株式会社,東京都,杉並区,上高井戸１丁目５番２７号,,13,115,1680074,,,,,,,2021-08-24,1,,,,,ニコル,0
1904,8011301027129,新規,0,2021-08-24,2021-08-24,株式会社Ｋ－ＤＲＥＡＭ,,株式会社,東京都,杉並区,下高井戸５丁目３－１０ルクレ上北沢ルネサンスコート１１１,,13,115,1680073,,,,,,,2021-08-24,1,,,,,ケードリーム,0
1908,8012801021026,新規,0,2021-08-24,2021-08-24,株式会社清弘舎,,株式会社,東京都,武蔵村山市,中藤５丁目３９番地１,,13,223,2080001,,,,,,,2021-08-24,1,,,,,セイコウシャ,0
1909,8012801021034,新規,0,2021-08-24,2021-08-24,株式会社岡工務店,,株式会社,東京都,東大和市,芋窪５丁目１１０６番地,,13,220,2070033,,,,,,,2021-08-24,1,,,,,オカコウムテン,0
1921,8020001142682,新規,0,2021-08-24,2021-08-24,クリーンライフ株式会社,,株式会社,神奈川県,横浜市戸塚区,平戸町１２１２番地１０３,,14,110,2440803,,,,,,,2021-08-24,1,,,,,クリーンライフ,0
1922,8020001142690,新規,0,2021-08-24,2021-08-24,株式会社シンシアパートナーズ,,株式会社,神奈川県,横浜市旭区,鶴ケ峰本町１丁目４７番１号－４０６号室,,14,112,2410021,,,,,,,2021-08-24,1,,,,,シンシアパートナーズ,0
1927,8021001073736,新規,0,2021-08-24,2021-08-24,株式会社ｄｅｃｏｒａｔｅ．ｙ,,株式会社,神奈川県,相模原市南区,上鶴間２丁目７番２０号イーストヴィラ林間Ｃ－１,,14,153,2520302,,,,,,,2021-08-24,1,,,,,デコレートドットワイ,0
1929,8021003010828,新規,0,2021-08-24,2021-08-24,合同会社萩原内装,,合同会社,神奈川県,鎌倉市,津西１丁目２７番１３号,,14,204,2480034,,,,,,,2021-08-24,1,,,,,ハギワラナイソウ,0
1935,8030001143977,新規,0,2021-08-24,2021-08-24,株式会社ＧＩＲＥＥ　ＩＮＴＥＲＮＡＴＩＯＮＡＬ,,株式会社,埼玉県,鶴ヶ島市,大字上広谷５番地１,,11,241,3502203,,,,,,,2021-08-24,1,,,,,ギリインターナショナル,0
1951,8050003006040,新規,0,2021-08-24,2021-08-24,合同会社ＲＫＳＨＯＰ,,合同会社,茨城県,石岡市,杉並３丁目２番３８号,,08,205,3150027,,,,,,,2021-08-24,1,,,,,アールケイショップ,0
1957,8080003002631,新規,0,2021-08-24,2021-08-24,合同会社マイウェイ,,合同会社,静岡県,静岡市葵区,御幸町３番地の２１ペガサート,,22,101,4200857,,,,,,,2021-08-24,1,,,,,マイウェイ,0
1976,8120001239898,新規,0,2021-08-24,2021-08-24,エムプラス株式会社,,株式会社,大阪府,大阪市西区,九条１丁目２６番８号,,27,106,5500027,,,,,,,2021-08-24,1,,,,,エムプラス,0
1982,8120003020067,新規,0,2021-08-24,2021-08-24,ｅｃｈｏｓ　ｃｒｅａｔｉｏｎ合同会社,,合同会社,大阪府,大阪市北区,堂島浜１丁目４番４号アクア堂島フォンターナ３階,,27,127,5300004,,,,,,,2021-08-24,1,,,,,エコーズクリエイション,0
1983,8120003020075,新規,0,2021-08-24,2021-08-24,合同会社ライフ＆キャリア,,合同会社,大阪府,大阪市北区,梅田１丁目１１番４号大阪駅前第４ビル９階９２３－１５９１号,,27,127,5300001,,,,,,,2021-08-24,1,,,,,ライフアンドキャリア,0
1984,8120003020083,新規,0,2021-08-24,2021-08-24,ＩＬＹＡＳ　ＳＯＮＳ合同会社,,合同会社,大阪府,大阪市北区,中崎西３丁目２－１７,,27,127,5300015,,,,,,,2021-08-24,1,,,,,イリヤズサンズ,0
1985,8120005022458,新規,0,2021-08-24,2021-08-24,一般社団法人ソライロ,,その他の設立登記法人,大阪府,大阪市東淀川区,小松２丁目３番１０号,,27,114,5330004,,,,,,,2021-08-24,1,,,,,ソライロ,0
1992,8120103004309,新規,0,2021-08-24,2021-08-24,合同会社Ｏ－ＴＲＡＹ,,合同会社,大阪府,羽曳野市,学園前４丁目１４－１－２０２,,27,222,5830868,,,,,,,2021-08-24,1,,,,,オートレイ,0
1998,8120901044803,新規,0,2021-08-24,2021-08-24,大川商事株式会社,,株式会社,大阪府,豊中市,東泉丘２丁目６番１５号ヴァストネス東泉丘１０５号室,,27,203,5610861,,,,,,,2021-08-24,1,,,,,オオカワショウジ,0
2002,8130001069956,新規,0,2021-08-24,2021-08-24,株式会社Ｎ．Ｊ．Ｂ,,株式会社,京都府,八幡市,男山石城８－１１－２Ｆ,,26,210,6148374,,,,,,,2021-08-24,1,,,,,エヌジェイビー,0
2009,8140003016658,新規,0,2021-08-24,2021-08-24,合資会社カーサ,,合資会社,兵庫県,姫路市,三左衛門堀西の町６９番地,,28,201,6700940,,,,,,,2021-08-24,1,,,,,カーサ,0
2015,8150001024876,新規,0,2021-08-24,2021-08-24,ＲｅｌａｔｉｏｎＭａｒｋｅｔｉｎｇ株式会社,,株式会社,奈良県,橿原市,曲川町１丁目１１番３３号,,29,205,6340837,,,,,,,2021-08-24,1,,,,,リレーションマーケティング,0
2024,8180001147526,新規,0,2021-08-24,2021-08-24,ＤＭ　ＭＯＴＯＲ株式会社,,株式会社,愛知県,愛西市,金棒町南１６４番地２,,23,232,4960908,,,,,,,2021-08-24,1,,,,,ディーエムモーター,0
2025,8180001147542,新規,0,2021-08-24,2021-08-24,株式会社プロヒート,,株式会社,愛知県,名古屋市西区,上橋町２５３－１,,23,104,4520844,,,,,,,2021-08-24,1,,,,,プロヒート,0
2029,8180003022883,新規,0,2021-08-24,2021-08-24,合同会社ユニットエイト,,合同会社,愛知県,名古屋市名東区,高間町４０４番地,,23,115,4650081,,,,,,,2021-08-24,1,,,,,ユニットエイト,0
2032,8180303005084,新規,0,2021-08-24,2021-08-24,合同会社アカシア,,合同会社,愛知県,刈谷市,井ケ谷町寺山下２番地４,,23,210,4480001,,,,,,,2021-08-24,1,,,,,アカシア,0
2034,8190001028626,新規,0,2021-08-24,2021-08-24,中日文成貿易株式会社,,株式会社,三重県,多気郡大台町,上三瀬８９３－１７,,24,443,5192403,,,,,,,2021-08-24,1,,,,,チュウニチブンセイボウエキ,0
2035,8190003003750,新規,0,2021-08-24,2021-08-24,Ｈ＆Ａ合同会社,,合同会社,三重県,三重郡川越町,大字南福崎２８１番地,,24,344,5108124,,,,,,,2021-08-24,1,,,,,エッチアンドエー,0
2040,8230001018952,新規,0,2021-08-24,2021-08-24,株式会社タムラ,,株式会社,富山県,富山市,八日町２４７番地３２,,16,201,9398221,,,,,,,2021-08-24,1,,,,,タムラ,0
2053,8290001094286,新規,0,2021-08-24,2021-08-24,株式会社ＭＦアセッツ,,株式会社,福岡県,福岡市博多区,博多駅前１丁目８番７－１１１２号エグゼ博多コンドミニアム,,40,132,8120011,,,,,,,2021-08-24,1,,,,,エムエフアセッツ,0
2054,8290001094294,新規,0,2021-08-24,2021-08-24,株式会社アークライズ,,株式会社,福岡県,糟屋郡須惠町,大字須惠１１４番地１６,,40,344,8112113,,,,,,,2021-08-24,1,,,,,アークライズ,0
2055,8290001094328,新規,0,2021-08-24,2021-08-24,株式会社Ｔａｋｕｔｏ,,株式会社,福岡県,福岡市東区,香住ヶ丘４丁目４２番４号,,40,131,8130003,,,,,,,2021-08-24,1,,,,,タクト,0
2070,8360001029276,新規,0,2021-08-24,2021-08-24,株式会社ＴＥＮ,,株式会社,沖縄県,中頭郡北谷町,字宮城３－２５０シーサイドハウジングス２９,,47,326,9040113,,,,,,,2021-08-24,1,,,,,テン,0
2082,8380003005001,新規,0,2021-08-24,2021-08-24,合同会社Ｋ’Ｆｌａｔ,,合同会社,福島県,伊達市,保原町字西町１３番地２,,07,213,9600652,,,,,,,2021-08-24,1,,,,,,0
2084,8390001016569,新規,0,2021-08-24,2021-08-24,株式会社タカナシ・エクステリア,,株式会社,山形県,山形市,中桜田１丁目８番５号,,06,201,9902422,,,,,,,2021-08-24,1,,,,,タカナシエクステリア,0
2111,9010003035595,新規,0,2021-08-24,2021-08-24,合同会社ＫＲＦ９９,,合同会社,東京都,千代田区,内幸町２丁目１番６号,,13,101,1000011,,,,,,,2021-08-24,1,,,,,ケイアールエフナインティナイン,0
2112,9010003035678,新規,0,2021-08-24,2021-08-24,Ｓｗｉｆｔ合同会社,,合同会社,東京都,千代田区,丸の内３丁目１番１号東京共同会計事務所内,,13,101,1000005,,,,,,,2021-08-24,1,,,,,スウィフト,0
2117,9010401162248,新規,0,2021-08-24,2021-08-24,株式会社ＬＡＯＮ,,株式会社,東京都,港区,赤坂７丁目５番３４号インペリアル赤坂フォーラム５２７,,13,103,1070052,,,,,,,2021-08-24,1,,,,,ラオン,0
2118,9010401162264,新規,0,2021-08-24,2021-08-24,株式会社アートマネジメント＆コンサルティング・ネットワーク,,株式会社,東京都,港区,赤坂２丁目１７番５０－２３１３号,,13,103,1070052,,,,,,,2021-08-24,1,,,,,アートマネジメントアンドコンサルティングネットワーク,0
2124,9010403025865,新規,0,2021-08-24,2021-08-24,農業太陽発電合同会社,,合同会社,東京都,港区,西新橋１丁目２番９号日比谷セントラルビル１４階,,13,103,1050003,,,,,,,2021-08-24,1,,,,,ノウギョウタイヨウハツデン,0
2125,9010403025972,新規,0,2021-08-24,2021-08-24,レインボーブリッジキャピタル合同会社,,合同会社,東京都,港区,浜松町２丁目２番１５号浜松町ダイヤビル２Ｆ,,13,103,1050013,,,,,,,2021-08-24,1,,,,,レインボーブリッジキャピタル,0
2128,9010505003257,新規,0,2021-08-24,2021-08-24,一般社団法人ドッグフレンドリーホテル協会,,その他の設立登記法人,東京都,台東区,浅草橋１丁目２６番６号,,13,106,1110053,,,,,,,2021-08-24,1,,,,,ドッグフレンドリーホテルキョウカイ,0
2130,9010603009115,新規,0,2021-08-24,2021-08-24,Ｆｕｔｕｒｅ　Ｒｏａｄ合同会社,,合同会社,東京都,江東区,東雲１丁目９番３２－５００３号,,13,108,1350062,,,,,,,2021-08-24,1,,,,,フューチャーロード,0
2131,9010605003990,新規,0,2021-08-24,2021-08-24,特定非営利活動法人ｒｅｖ,,その他の設立登記法人,東京都,江東区,東雲１丁目９番１１－４０６号,,13,108,1350062,,,,,,,2021-08-24,1,,,,,レヴ,0
2132,9010803003859,新規,0,2021-08-24,2021-08-24,合同会社グリット,,合同会社,東京都,大田区,石川町１丁目１４－１１,,13,111,1450061,,,,,,,2021-08-24,1,,,,,グリット,0
2134,9010901049309,新規,0,2021-08-24,2021-08-24,株式会社Ｌｉｂｅｒｔｅ,,株式会社,東京都,世田谷区,太子堂２丁目２５－１２,,13,112,1540004,,,,,,,2021-08-24,1,,,,,リベルテ,0
2139,9011001142409,新規,0,2021-08-24,2021-08-24,ＭＯＲＯＯＴ　ＪＡＰＡＮ株式会社,,株式会社,東京都,渋谷区,代々木１丁目２５－５,,13,113,1510053,,,,,,,2021-08-24,1,,,,,モルートジャパン,0
2146,9011303004141,新規,0,2021-08-24,2021-08-24,ＨＧ　ＣＯＮＳＵＬＴＩＮＧ合同会社,,合同会社,東京都,杉並区,和田１丁目３３番２８号３１２,,13,115,1660012,,,,,,,2021-08-24,1,,,,,エイチジィコンサルティング,0
2150,9011503004866,新規,0,2021-08-24,2021-08-24,ＨｉｍａｌａｙａｎＹｅｔｉ合同会社,,合同会社,東京都,北区,赤羽３丁目３番３－６０６号ドミール赤羽,,13,117,1150045,,,,,,,2021-08-24,1,,,,,ヒマラヤンイエティ,0
2152,9011803004748,新規,0,2021-08-24,2021-08-24,グレイスジャパン合同会社,,合同会社,東京都,葛飾区,堀切１丁目５番９号,,13,122,1240006,,,,,,,2021-08-24,1,,,,,グレイスジャパン,0
2156,9012701016629,新規,0,2021-08-24,2021-08-24,ＴＯＧＥＴＨＥＲ株式会社,,株式会社,東京都,東村山市,栄町３丁目９番地３－３０３,,13,213,1890013,,,,,,,2021-08-24,1,,,,,トゥゲザー,0
2168,9020001142698,新規,0,2021-08-24,2021-08-24,ＣｏｄｅＴｏｔｓ　Ｊａｐａｎ株式会社,,株式会社,神奈川県,横浜市磯子区,中原２丁目２２番１４号,,14,107,2350036,,,,,,,2021-08-24,1,,,,,コードトッツジャパン,0
2177,9020003020349,新規,0,2021-08-24,2021-08-24,甲福堂合同会社,,合同会社,神奈川県,横浜市神奈川区,羽沢町１１９８番地,,14,102,2210863,,,,,,,2021-08-24,1,,,,,コウフクドウ,0
2178,9020003020365,新規,0,2021-08-24,2021-08-24,合同会社ツカケイ,,合同会社,神奈川県,横浜市港北区,大倉山１丁目１９番１８号グレース大倉山２０３,,14,109,2220037,,,,,,,2021-08-24,1,,,,,ツカケイ,0
2180,9021001073751,新規,0,2021-08-24,2021-08-24,株式会社ノースヒル,,株式会社,神奈川県,高座郡寒川町,岡田３丁目２３番２３号,,14,321,2530105,,,,,,,2021-08-24,1,,,,,ノースヒル,0
2181,9021003010827,新規,0,2021-08-24,2021-08-24,合同会社ｍｉｒａｉＧＯＡＬｓ,,合同会社,神奈川県,茅ヶ崎市,中海岸４丁目２番２６－２号,,14,207,2530055,,,,,,,2021-08-24,1,,,,,ミライゴールズ,0
2184,9030001143951,新規,0,2021-08-24,2021-08-24,株式会社ＶＯＬＺＥ,,株式会社,埼玉県,春日部市,中央１丁目１４番地２１,,11,214,3440067,,,,,,,2021-08-24,1,,,,,ボルゼ,0
2185,9030001143976,新規,0,2021-08-24,2021-08-24,株式会社エンバウム,,株式会社,埼玉県,春日部市,大沼１丁目７５番地１輝ビル２０１,,11,214,3440038,,,,,,,2021-08-24,1,,,,,エンバウム,0
2190,9030003017807,新規,0,2021-08-24,2021-08-24,８ねこ８合同会社,,合同会社,埼玉県,蕨市,南町１丁目１番８号,,11,223,3350003,,,,,,,2021-08-24,1,,,,,ハチネコハチ,0
2196,9040005021327,新規,0,2021-08-24,2021-08-24,一般社団法人勝浦会,,その他の設立登記法人,千葉県,勝浦市,串浜１３８１番地１,,12,218,2995226,,,,,,,2021-08-24,1,,,,,カツウラカイ,0
2209,9070003004207,新規,0,2021-08-24,2021-08-24,絹園不動産管理合同会社,,合同会社,群馬県,伊勢崎市,戸谷塚町３０６－２,,10,204,3720825,,,,,,,2021-08-24,1,,,,,キヌゾノフドウサンカンリ,0
2210,9080001024395,新規,0,2021-08-24,2021-08-24,株式会社ＭｉｘＬｉｎｅ,,株式会社,静岡県,静岡市葵区,鷹匠１丁目１２番１－５０２号,,22,101,4200839,,,,,,,2021-08-24,1,,,,,ミックスライン,0
2227,9120003020066,新規,0,2021-08-24,2021-08-24,合同会社ＵＫ事務所,,合同会社,大阪府,大阪市浪速区,塩草３丁目４番２１－４０５号,,27,111,5560024,,,,,,,2021-08-24,1,,,,,ユーケイジムショ,0
2228,9120003020074,新規,0,2021-08-24,2021-08-24,合同会社ＡＬＯＨＡ,,合同会社,大阪府,大阪市生野区,舎利寺２丁目３番３０号,,27,116,5440022,,,,,,,2021-08-24,1,,,,,アロハ,0
2229,9120003020090,新規,0,2021-08-24,2021-08-24,合同会社リバーサルデザイン,,合同会社,大阪府,大阪市淀川区,宮原１丁目１９－２３－４２７,,27,123,5320003,,,,,,,2021-08-24,1,,,,,リバーサルデザイン,0
2236,9120103004308,新規,0,2021-08-24,2021-08-24,合同会社Ｃｏｍｐａｓｓ　ｏｆ　Ｌｉｆｅ,,合同会社,大阪府,泉大津市,東雲町９番５３号,,27,206,5950026,,,,,,,2021-08-24,1,,,,,コンパスオブライフ,0
2241,9120901044802,新規,0,2021-08-24,2021-08-24,ＴＫ株式会社,,株式会社,大阪府,高槻市,藤の里町１９－２４,,27,207,5690025,,,,,,,2021-08-24,1,,,,,ティーケー,0
2248,9130001069906,新規,0,2021-08-24,2021-08-24,株式会社モノキャリ,,株式会社,京都府,宇治市,伊勢田町遊田１２番地の２６８,,26,204,6110043,,,,,,,2021-08-24,1,,,,,モノキャリ,0
2261,9140001122787,新規,0,2021-08-24,2021-08-24,ジーライオンファイナンス＆リース株式会社,,株式会社,兵庫県,神戸市中央区,新港町１１番１号,,28,110,6500041,,,,,,,2021-08-24,1,,,,,ジーライオンファイナンスアンドリース,0
2270,9140005025788,新規,0,2021-08-24,2021-08-24,一般社団法人日本山岳レスキュー協会,,その他の設立登記法人,兵庫県,芦屋市,茶屋之町５番２０－１０３号,,28,206,6590067,,,,,,,2021-08-24,1,,,,,ニホンサンガクレスキューキョウカイ,0
2272,9150001024875,新規,0,2021-08-24,2021-08-24,株式会社ムカイ塗装,,株式会社,奈良県,天理市,柳本町１３１２番地３,,29,204,6320052,,,,,,,2021-08-24,1,,,,,ムカイトソウ,0
2284,9180001147509,新規,0,2021-08-24,2021-08-24,株式会社セキム,,株式会社,愛知県,名古屋市中区,錦２丁目１７番３０号,,23,106,4600003,,,,,,,2021-08-24,1,,,,,セキム,0
2285,9180001147525,新規,0,2021-08-24,2021-08-24,株式会社Ａｒｉｅｓ,,株式会社,愛知県,名古屋市西区,こも原町１７９－４,,23,104,4520824,,,,,,,2021-08-24,1,,,,,アリエス,0
2286,9180001147541,新規,0,2021-08-24,2021-08-24,株式会社第一防水,,株式会社,愛知県,名古屋市中村区,中村本町３丁目２１番地,,23,105,4530828,,,,,,,2021-08-24,1,,,,,ダイイチボウスイ,0
2288,9180003022890,新規,0,2021-08-24,2021-08-24,合同会社リアン,,合同会社,愛知県,名古屋市中区,千代田４丁目８－３,,23,106,4600012,,,,,,,2021-08-24,1,,,,,リアン,0
2291,9180303005083,新規,0,2021-08-24,2021-08-24,合同会社Ｖｉｏｌｅｔ‐Ｎｉｉｎａ,,合同会社,愛知県,田原市,田原町清谷４１番地,,23,231,4413421,,,,,,,2021-08-24,1,,,,,ヴァイオレットニーナ,0
2292,9180305009231,新規,0,2021-08-24,2021-08-24,特定非営利活動法人愛知棒高跳クラブ,,その他の設立登記法人,愛知県,豊田市,乙部ケ丘４丁目６番地５,,23,211,4700346,,,,,,,2021-08-24,1,,,,,アイチボウタカトビクラブ,0
2293,9200001039042,新規,0,2021-08-24,2021-08-24,株式会社夢花,,株式会社,岐阜県,関市,上之保１８８８番地,,21,205,5013601,,,,,,,2021-08-24,1,,,,,ユメカ,0
2309,9250001019072,新規,0,2021-08-24,2021-08-24,ＴＳＫ株式会社,,株式会社,山口県,岩国市,錦見５丁目１番２号,,35,208,7410061,,,,,,,2021-08-24,1,,,,,ティーエスケイ,0
2320,9270003001340,新規,0,2021-08-24,2021-08-24,合同会社ＭＡＳＨＩ,,合同会社,鳥取県,境港市,外江町２０１５番４,,31,204,6840071,,,,,,,2021-08-24,1,,,,,マシ,0
2332,9290003011528,新規,0,2021-08-24,2021-08-24,合同会社Ｇｒｏｗｔｈ,,合同会社,福岡県,福岡市南区,井尻５丁目６番１４－５０２号,,40,134,8111302,,,,,,,2021-08-24,1,,,,,グロウス,0
2336,9290801027725,新規,0,2021-08-24,2021-08-24,株式会社公信社,,株式会社,福岡県,鞍手郡小竹町,大字勝野３９６４－３５,,40,401,8201103,,,,,,,2021-08-24,1,,,,,コウシンシャ,0
2353,9340003003528,新規,0,2021-08-24,2021-08-24,合同会社訪問看護ステーションつなぐ,,合同会社,鹿児島県,枕崎市,西本町９０番地,,46,204,8980015,,,,,,,2021-08-24,1,,,,,ホウモンカンゴステーションツナグ,0
2354,9360001029267,新規,0,2021-08-24,2021-08-24,株式会社めんこ,,株式会社,沖縄県,宜野湾市,伊佐３丁目２５番１１号,,47,205,9012221,,,,,,,2021-08-24,1,,,,,メンコ,0
2368,9410003003561,新規,0,2021-08-24,2021-08-24,合同会社ｆｉｓｈ　ｄｏｏｒ,,合同会社,秋田県,山本郡八峰町,八森字茶の沢１４１－１３,,05,349,0182621,,,,,,,2021-08-24,1,,,,,フィッシュドア,0
2373,9430001084783,新規,0,2021-08-24,2021-08-24,ＨＯＰグループホールディングス株式会社,,株式会社,北海道,札幌市中央区,北四条西２１丁目２番１号,,01,101,0640824,,,,,,,2021-08-24,1,,,,,ホップグループホールディングス,0
2381,9450001013451,新規,0,2021-08-24,2021-08-24,株式会社平間,,株式会社,北海道,名寄市,字朝日５３４番地,,01,221,0960061,,,,,,,2021-08-24,1,,,,,ヒラマ,0
2389,9500001023635,新規,0,2021-08-24,2021-08-24,株式会社道,,株式会社,愛媛県,松山市,南持田町５３番地３ウェリス南持田緑彩苑７０５号,,38,201,7900874,,,,,,,2021-08-24,1,,,,,ミチ,0
2391,9500003002686,新規,0,2021-08-24,2021-08-24,合同会社Ｎｅｗ　Ｃｌｕｂ　Ｌｉｅｒｒｅ,,合同会社,愛媛県,松山市,二番町２丁目８－４,,38,201,7900002,,,,,,,2021-08-24,1,,,,,,0
