sequenceNumber,corporateNumber,process,correct,updateDate,changeDate,name,nameImageId,kind,prefectureName,cityName,streetNumber,addressImageId,prefectureCode,cityCode,postCode,addressOutside,addressOutsideImageId,closeDate,closeCause,successorCorporateNumber,changeCause,assignmentDate,latest,enName,enPrefectureName,enCityName,enAddressOutside,furigana,hihyoji
7,1010001250402,新規,0,2024-12-17,2024-12-17,株式会社Ｌｉｎｏｗａ,,株式会社,東京都,千代田区,九段南１丁目５番６号りそな九段ビル５階,,13,101,1020074,,,,,,,2024-12-17,1,,,,,リノワ,0
8,1010001250823,新規,0,2024-12-17,2024-12-17,Ｃ　Ｈｏｌｄｉｎｇｓ株式会社,,株式会社,東京都,千代田区,内幸町１丁目３番３号内幸町ダイビル,,13,101,1000011,,,,,,,2024-12-17,1,,,,,シーホールディングス,0
11,1010003045809,新規,0,2024-12-17,2024-12-17,合同会社ＦＲＥＦ１,,合同会社,東京都,千代田区,霞が関３丁目２番５号,,13,101,1000013,,,,,,,2024-12-17,1,,,,,エフアールイーエフワン,0
12,1010003045841,新規,0,2024-12-17,2024-12-17,合同会社メメントモリ,,合同会社,東京都,中央区,日本橋本町４丁目１０－１０－６０２,,13,102,1030023,,,,,,,2024-12-17,1,,,,,メメントモリ,0
18,1010401186700,新規,0,2024-12-17,2024-12-17,株式会社Ａｇｅｎｔ　Ｂｏｘ,,株式会社,東京都,港区,六本木５丁目１３－６ザパークハビオ麻布十番５０７号,,13,103,1060032,,,,,,,2024-12-17,1,,,,,エージェントボックス,0
21,1010501053354,新規,0,2024-12-17,2024-12-17,株式会社Ｅａｒｌｙ　Ｍｉｌｅ,,株式会社,東京都,台東区,今戸２丁目３０番３号１０３号室,,13,106,1110024,,,,,,,2024-12-17,1,,,,,アーリーマイル,0
22,1010601066454,新規,0,2024-12-17,2024-12-17,株式会社ＮＭ建築工房,,株式会社,東京都,江東区,亀戸２丁目６番４－４２５号,,13,108,1360071,,,,,,,2024-12-17,1,,,,,エヌエムケンチクコウボウ,0
24,1010703007505,新規,0,2024-12-17,2024-12-17,合同会社スマイル商会,,合同会社,東京都,品川区,西五反田２丁目１５－１０,,13,109,1410031,,,,,,,2024-12-17,1,,,,,スマイルショウカイ,0
34,1011001166299,新規,0,2024-12-17,2024-12-17,株式会社ビジネスジャーナル,,株式会社,東京都,渋谷区,円山町２０番１号,,13,113,1500044,,,,,,,2024-12-17,1,,,,,ビジネスジャーナル,0
35,1011001166547,新規,0,2024-12-17,2024-12-17,株式会社ネステート,,株式会社,東京都,渋谷区,道玄坂１丁目１０番８号渋谷道玄坂東急ビル２Ｆ－Ｃ,,13,113,1500043,,,,,,,2024-12-17,1,,,,,ネステート,0
37,1011003020520,新規,0,2024-12-17,2024-12-17,合同会社キャリフト,,合同会社,東京都,渋谷区,神泉町１０番１５号アネックス神泉３０１,,13,113,1500045,,,,,,,2024-12-17,1,,,,,キャリフト,0
40,1011303005361,新規,0,2024-12-17,2024-12-17,合同会社ＵＧ　Ｓｏｌｕｔｉｏｎ,,合同会社,東京都,杉並区,高井戸東４丁目７番１４号プファイル高井戸１０３,,13,115,1680072,,,,,,,2024-12-17,1,,,,,ユージーソリューション,0
45,1011601028287,新規,0,2024-12-17,2024-12-17,株式会社水木,,株式会社,東京都,練馬区,小竹町１丁目５５番７号日神パレス江古田３０３号室,,13,120,1760004,,,,,,,2024-12-17,1,,,,,ミズキ,0
46,1011703004062,新規,0,2024-12-17,2024-12-17,合同会社メグリ３６９,,合同会社,東京都,江戸川区,東葛西６丁目４３番２０－２０１号,,13,123,1340084,,,,,,,2024-12-17,1,,,,,メグリサンロクキュウ,0
48,1011801045306,新規,0,2024-12-17,2024-12-17,株式会社ＨｉＥｄｉｔ,,株式会社,東京都,足立区,千住緑町３丁目９番７－３０２号,,13,121,1200044,,,,,,,2024-12-17,1,,,,,ハイエディット,0
49,1011801045314,新規,0,2024-12-17,2024-12-17,株式会社イノサンテック,,株式会社,東京都,葛飾区,新宿６丁目２番１－１９３１号シティタワー金町タワー棟,,13,122,1250051,,,,,,,2024-12-17,1,,,,,,0
51,1011803006603,新規,0,2024-12-17,2024-12-17,合同会社パロム,,合同会社,東京都,足立区,東和４丁目１１番５－２０６号,,13,121,1200003,,,,,,,2024-12-17,1,,,,,パロム,0
53,1012401042577,新規,0,2024-12-17,2024-12-17,株式会社明治ワークス,,株式会社,東京都,武蔵野市,吉祥寺北町１丁目２５番２２号コーポ吉祥寺Ａ,,13,203,1800001,,,,,,,2024-12-17,1,,,,,メイジワークス,0
66,1020003027491,新規,0,2024-12-17,2024-12-17,合同会社三保サービス,,合同会社,神奈川県,横浜市緑区,三保町２４０２―１岩澤マンション１０５,,14,113,2260015,,,,,,,2024-12-17,1,,,,,ミホサービス,0
78,1030001163940,新規,0,2024-12-17,2024-12-17,株式会社みらいｃｏｍ,,株式会社,埼玉県,蓮田市,末広２丁目４番１３号,,11,238,3490124,,,,,,,2024-12-17,1,,,,,ミライコム,0
79,1030001163957,新規,0,2024-12-17,2024-12-17,株式会社小林塗工,,株式会社,埼玉県,さいたま市岩槻区,太田２丁目２番３１－２号,,11,110,3390052,,,,,,,2024-12-17,1,,,,,コバヤシトコウ,0
80,1030001163998,新規,0,2024-12-17,2024-12-17,株式会社ＳＴＥＰ　ＵＰ,,株式会社,埼玉県,熊谷市,平戸４１０番地３,,11,202,3600021,,,,,,,2024-12-17,1,,,,,ステップアップ,0
81,1030001164006,新規,0,2024-12-17,2024-12-17,株式会社ＰＬＵＭ＆ＲＯＳＥ　ＪＡＰＡＮ,,株式会社,埼玉県,北足立郡伊奈町,西小針３丁目６９－３,,11,301,3620811,,,,,,,2024-12-17,1,,,,,プラムアンドローズジャパン,0
85,1030003025692,新規,0,2024-12-17,2024-12-17,合同会社ＣＵ,,合同会社,埼玉県,入間郡毛呂山町,大字小田谷１１４番地２,,11,326,3500446,,,,,,,2024-12-17,1,,,,,シーユー,0
87,1040001136598,新規,0,2024-12-17,2024-12-17,ＪＡＷＡＤ株式会社,,株式会社,千葉県,千葉市若葉区,上泉町６６６,,12,104,2650045,,,,,,,2024-12-17,1,,,,,ジャワド,0
88,1040001136615,新規,0,2024-12-17,2024-12-17,株式会社恵パートナーズ,,株式会社,千葉県,松戸市,上矢切１４８５番地の８,,12,207,2710094,,,,,,,2024-12-17,1,,,,,メグミパートナーズ,0
102,1080401027633,新規,0,2024-12-17,2024-12-17,株式会社みやひろ．,,株式会社,静岡県,浜松市中央区,千歳町５１番地,,22,138,4300934,,,,,,,2024-12-17,1,,,,,ミヤヒロ,0
105,1100001038136,新規,0,2024-12-17,2024-12-17,株式会社メドウソイル,,株式会社,長野県,北佐久郡軽井沢町,大字長倉４８０５番地１,,20,321,3890111,,,,,,,2024-12-17,1,,,,,メドウソイル,0
106,1100003007915,新規,0,2024-12-17,2024-12-17,合同会社玖みなもと,,合同会社,長野県,松本市,双葉１４番－１３－２号,,20,202,3900833,,,,,,,2024-12-17,1,,,,,キュウミナモト,0
116,1120001271016,新規,0,2024-12-17,2024-12-17,株式会社ロジクラ,,株式会社,大阪府,大阪市北区,梅田１丁目２番２号大阪駅前第２ビル１２‐１２,,27,127,5300001,,,,,,,2024-12-17,1,,,,,ロジクラ,0
117,1120001271131,新規,0,2024-12-17,2024-12-17,栄錦株式会社,,株式会社,大阪府,大阪市中央区,農人橋２丁目１番３５号５０５号室,,27,128,5400011,,,,,,,2024-12-17,1,,,,,エイキン,0
123,1120003028182,新規,0,2024-12-17,2024-12-17,合同会社リンクプレイス,,合同会社,大阪府,大阪市旭区,森小路１丁目３－１３ルネフラッソ森小路駅前ＩＩ２０２,00137352,27,117,5350013,,,,,,,2024-12-17,1,,,,,リンクプレイス,0
125,1120005024659,新規,0,2024-12-17,2024-12-17,一般社団法人患者塾協会,,その他の設立登記法人,大阪府,大阪市北区,鶴野町１番９号梅田ゲートタワー１２階,,27,127,5300014,,,,,,,2024-12-17,1,,,,,カンジャジュクキョウカイ,0
133,1122001038725,新規,0,2024-12-17,2024-12-17,福寿芝株式会社,,株式会社,大阪府,東大阪市,三ノ瀬１丁目９番１７号ハイツ富士パートＩＩ６０３号室,00137349,27,227,5770849,,,,,,,2024-12-17,1,,,,,フクジュシバ,0
140,1140001136745,新規,0,2024-12-17,2024-12-17,株式会社豪己,,株式会社,兵庫県,加古川市,西神吉町岸５２２番地の１サザンスクエア加古川５０１号,,28,210,6750045,,,,,,,2024-12-17,1,,,,,ゴウキ,0
142,1140005027313,新規,0,2024-12-17,2024-12-17,医療法人社団上野歯科医院,,その他の設立登記法人,兵庫県,姫路市,東雲町４丁目５番地１,,28,201,6700046,,,,,,,2024-12-17,1,,,,,ウエノシカイイン,0
144,1160001026416,新規,0,2024-12-17,2024-12-17,株式会社ｙ’ｓ　ｅａｔｅｒｙ,,株式会社,滋賀県,草津市,大路１丁目７番１号ＴＯＷＥＲ１１１、１Ｆ,,25,206,5250032,,,,,,,2024-12-17,1,,,,,ワイズイートリー,0
150,1180001164528,新規,0,2024-12-17,2024-12-17,Ｔｈｅ　Ｍｅｎ株式会社,,株式会社,愛知県,あま市,七宝町秋竹松原６２０番地１,,23,237,4970003,,,,,,,2024-12-17,1,,,,,ザメン,0
151,1180001164585,新規,0,2024-12-17,2024-12-17,株式会社タイドエンジ,,株式会社,愛知県,知多市,にしの台４丁目１番地１,,23,224,4780055,,,,,,,2024-12-17,1,,,,,タイドエンジ,0
152,1180001164602,新規,0,2024-12-17,2024-12-17,ＵＴＢ株式会社,,株式会社,愛知県,名古屋市昭和区,滝子町９番１０号,,23,107,4660053,,,,,,,2024-12-17,1,,,,,ユーティービー,0
155,1180003027749,新規,0,2024-12-17,2024-12-17,合同会社ナースアシストりあん,,合同会社,愛知県,春日井市,八光町１丁目１７番地３グリーンオーク２０３,,23,206,4860916,,,,,,,2024-12-17,1,,,,,ナースアシストリアン,0
156,1180003027757,新規,0,2024-12-17,2024-12-17,合同会社Ｙスクエアード,,合同会社,愛知県,名古屋市東区,白壁１丁目５８番地２Ｆ,,23,102,4610011,,,,,,,2024-12-17,1,,,,,ワイスクエアード,0
166,1240001064259,新規,0,2024-12-17,2024-12-17,株式会社Ｕ＆Ｉ,,株式会社,広島県,福山市,新市町大字戸手１０９５番地２,,34,207,7293101,,,,,,,2024-12-17,1,,,,,ユーアンドアイ,0
167,1240001064267,新規,0,2024-12-17,2024-12-17,株式会社ヒラソル,,株式会社,広島県,東広島市,西条町西条東１２８１番地３,,34,212,7390042,,,,,,,2024-12-17,1,,,,,ヒラソル,0
178,1290003016179,新規,0,2024-12-17,2024-12-17,合同会社Ｕｌｏｏｍ,,合同会社,福岡県,福岡市博多区,博多駅前１丁目２３番２号ＰａｒｋＦｒｏｎｔ１丁目５ＦＢ,,40,132,8120011,,,,,,,2024-12-17,1,,,,,ウルーム,0
182,1320001020864,新規,0,2024-12-17,2024-12-17,マリゴールドコンサルティング株式会社,,株式会社,大分県,大分市,長浜町２丁目７番２２号,,44,201,8700023,,,,,,,2024-12-17,1,,,,,マリゴールドコンサルティング,0
186,1350003004805,新規,0,2024-12-17,2024-12-17,合同会社ｋａｍｉｋｉｒｉｙａ,,合同会社,宮崎県,宮崎市,佐土原町下那珂２７１０番地,,45,201,8800212,,,,,,,2024-12-17,1,,,,,カミキリヤ,0
187,1360001034547,新規,0,2024-12-17,2024-12-17,沖縄あかりみらい株式会社,,株式会社,沖縄県,那覇市,久茂地２丁目１９番５号,,47,201,9000015,,,,,,,2024-12-17,1,,,,,オキナワアカリミライ,0
189,1360003014522,新規,0,2024-12-17,2024-12-17,ひまわり合同会社,,合同会社,沖縄県,浦添市,仲西１丁目２３番地７号,,47,208,9012125,,,,,,,2024-12-17,1,,,,,ヒマワリ,0
190,1360003014530,新規,0,2024-12-17,2024-12-17,アンテイク合同会社,,合同会社,沖縄県,沖縄市,胡屋６丁目５番１１号みゆきアパート２０１,,47,211,9040021,,,,,,,2024-12-17,1,,,,,アンテイク,0
191,1370001052052,新規,0,2024-12-17,2024-12-17,株式会社アサノワークス,,株式会社,宮城県,仙台市泉区,将監殿１丁目１番地の２,,04,105,9813136,,,,,,,2024-12-17,1,,,,,アサノワークス,0
198,1420003003031,新規,0,2024-12-17,2024-12-17,レガリア合同会社,,合同会社,青森県,八戸市,大字妙字大開２７番地１,,02,203,0310814,,,,,,,2024-12-17,1,,,,,レガリア,0
200,1430001093288,新規,0,2024-12-17,2024-12-17,ＦＰＩ株式会社,,株式会社,北海道,札幌市東区,北二十三条東１８丁目５番２１号,,01,103,0650023,,,,,,,2024-12-17,1,,,,,エフピーアイ,0
204,1470003002771,新規,0,2024-12-17,2024-12-17,ＨＭＴＫ合同会社,,合同会社,香川県,丸亀市,綾歌町富熊２４４８番地３,,37,202,7612407,,,,,,,2024-12-17,1,,,,,エイチエムティケー,0
205,1470005006597,新規,0,2024-12-17,2024-12-17,社会福祉法人ひだまり福祉会,,その他の設立登記法人,香川県,高松市,香川町川東下１１９０－１,,37,201,7611705,,,,,,,2024-12-17,1,,,,,ヒダマリフクシカイ,0
207,1700150127967,新規,0,2024-12-17,2024-12-17,ＸＩＡ　ＭＥＮ　ＹＯＵ　ＷＯ　ＸＩＮ　ＸＩ　ＪＩ　ＳＨＵ　ＹＯＵ　ＸＩＡＮ　ＧＯＮＧ　ＳＩ,,外国会社等,,,,,,,,Ｒｏｏｍ　Ａ，Ｕｎｉｔ　２２０６－２，Ｎｏ．９９　Ｙｉｌａｎ　Ｒｏａｄ，Ｓｉｍｉｎｇ　Ｄｉｓｔｒｉｃｔ，Ｘｉａｍｅｎ，Ｃｈｉｎａ,,,,,,2024-12-17,1,,,,,アモイユウオインフオメーシヨンテクノロジーカンパニリミテツド,0
221,2010001250657,新規,0,2024-12-17,2024-12-17,Ｍｉｎｉｎｅ株式会社,,株式会社,東京都,千代田区,内神田１丁目８番９号,,13,101,1010047,,,,,,,2024-12-17,1,,,,,ミニン,0
222,2010001250707,新規,0,2024-12-17,2024-12-17,株式会社Ａｎｊｅ,,株式会社,東京都,中央区,日本橋浜町３丁目３番１号,,13,102,1030007,,,,,,,2024-12-17,1,,,,,アンジュ,0
227,2010003045790,新規,0,2024-12-17,2024-12-17,ＣＵＫＯ合同会社,,合同会社,東京都,千代田区,麹町２丁目２番２２号（Ｃ／ＯＪｏｏ－ｒｅａｌｅｓｔａｔｅ－ｏｆｆｉｃｅ）,,13,101,1020083,,,,,,,2024-12-17,1,,,,,キューコ,0
228,2010003045799,新規,0,2024-12-17,2024-12-17,合同会社オークフィールド,,合同会社,東京都,文京区,千石４丁目４番１８号,,13,105,1120011,,,,,,,2024-12-17,1,,,,,オークフィールド,0
229,2010003045816,新規,0,2024-12-17,2024-12-17,合同会社ＭＲ,,合同会社,東京都,中央区,晴海２丁目２番４２－２６０９号,,13,102,1040053,,,,,,,2024-12-17,1,,,,,エムアール,0
238,2010401187061,新規,0,2024-12-17,2024-12-17,株式会社ホットドッグレコーズ,,株式会社,東京都,港区,白金台３丁目２番１０号白金台ビル４Ａ,,13,103,1080071,,,,,,,2024-12-17,1,,,,,ホットドッグレコーズ,0
239,2010401187078,新規,0,2024-12-17,2024-12-17,亞太医旅株式会社,,株式会社,東京都,港区,芝大門１丁目６番６号芝大門ヤマトビル６階,,13,103,1050012,,,,,,,2024-12-17,1,,,,,アタイイタビ,0
240,2010401187086,新規,0,2024-12-17,2024-12-17,スターアジア・インダストリアル株式会社,,株式会社,東京都,港区,愛宕２丁目５番１号愛宕グリーンヒルズＭＯＲＩタワー１８階,,13,103,1050002,,,,,,,2024-12-17,1,,,,,スターアジアインダストリアル,0
241,2010401187094,新規,0,2024-12-17,2024-12-17,株式会社アドクラフト,,株式会社,東京都,港区,六本木７丁目１４番２３号クロスオフィス六本木５２８・５２９,,13,103,1060032,,,,,,,2024-12-17,1,,,,,アドクラフト,0
242,2010403034022,新規,0,2024-12-17,2024-12-17,合同会社ニアス,,合同会社,東京都,港区,六本木４丁目３番１１－３１９号,,13,103,1060032,,,,,,,2024-12-17,1,,,,,ニアス,0
245,2010701046891,新規,0,2024-12-17,2024-12-17,株式会社ｃｈｏｍ,,株式会社,東京都,品川区,西五反田４丁目３０－３－４０３,,13,109,1410031,,,,,,,2024-12-17,1,,,,,チョム,0
248,2010903009515,新規,0,2024-12-17,2024-12-17,合同会社ＳＭＩＬＥ,,合同会社,東京都,世田谷区,鎌田１丁目１１番７号２０６,,13,112,1570077,,,,,,,2024-12-17,1,,,,,スマイル,0
255,2011001166348,新規,0,2024-12-17,2024-12-17,株式会社フルヤマインベストメント,,株式会社,東京都,目黒区,八雲３丁目１２番１１号エクセレントシティ自由が丘６０１,,13,110,1520023,,,,,,,2024-12-17,1,,,,,フルヤマインベストメント,0
256,2011001166364,新規,0,2024-12-17,2024-12-17,株式会社ｄａｔａｃｏｍｐａｎｙ,,株式会社,東京都,渋谷区,渋谷２丁目１９－１５宮益坂ビルディング６０９,,13,113,1500002,,,,,,,2024-12-17,1,,,,,データカンパニー,0
258,2011301030229,新規,0,2024-12-17,2024-12-17,株式会社ロンドコンサルティング,,株式会社,東京都,杉並区,堀ノ内１丁目１番２号,,13,115,1660013,,,,,,,2024-12-17,1,,,,,ロンドコンサルティング,0
259,2011301030237,新規,0,2024-12-17,2024-12-17,株式会社グロウキッズ,,株式会社,東京都,杉並区,永福４丁目１９－１９カーサ沙羅５０１,,13,115,1680064,,,,,,,2024-12-17,1,,,,,グロウキッズ,0
260,2011503006340,新規,0,2024-12-17,2024-12-17,合同会社ＰＩＮＡＲＩ,,合同会社,東京都,北区,豊島７丁目２６番１６号,,13,117,1140003,,,,,,,2024-12-17,1,,,,,ピナリ,0
262,2011601028286,新規,0,2024-12-17,2024-12-17,株式会社シャインエステート,,株式会社,東京都,練馬区,東大泉６丁目１６番４２－３０３号,,13,120,1780063,,,,,,,2024-12-17,1,,,,,シャインエステート,0
269,2011801045321,新規,0,2024-12-17,2024-12-17,株式会社ジーノ,,株式会社,東京都,足立区,竹の塚１丁目２８番１０号,,13,121,1210813,,,,,,,2024-12-17,1,,,,,ジーノ,0
272,2012401042584,新規,0,2024-12-17,2024-12-17,株式会社ＭＵＬＶＩ,,株式会社,東京都,三鷹市,新川５丁目９番９号,,13,204,1810004,,,,,,,2024-12-17,1,,,,,マルビー,0
273,2012403006876,新規,0,2024-12-17,2024-12-17,合同会社ＴＴＹ,,合同会社,東京都,多摩市,連光寺１丁目２番地の１ライオンズ聖蹟桜ヶ丘パシーナ７２４,,13,224,2060021,,,,,,,2024-12-17,1,,,,,ティーティーワイ,0
290,2020005016640,新規,0,2024-12-17,2024-12-17,医療法人社団ＣＳＳ,,その他の設立登記法人,神奈川県,川崎市高津区,溝口３丁目７番１号フロントビル５階,,14,134,2130001,,,,,,,2024-12-17,1,,,,,シーエスエス,0
295,2021001083988,新規,0,2024-12-17,2024-12-17,東隅株式会社,,株式会社,神奈川県,秦野市,南矢名２２２３番地の４東海ビル１１４Ａ,,14,211,2570003,,,,,,,2024-12-17,1,,,,,トウグウ,0
296,2021001084029,新規,0,2024-12-17,2024-12-17,株式会社Ｃｏｎｎｅｃｔ,,株式会社,神奈川県,相模原市南区,大野台５丁目２６番１５－４号,,14,153,2520331,,,,,,,2024-12-17,1,,,,,コネクト,0
300,2021003015361,新規,0,2024-12-17,2024-12-17,合同会社ｆｌｅｕｒｓ,,合同会社,神奈川県,綾瀬市,綾西４丁目１９番１２号,,14,218,2521126,,,,,,,2024-12-17,1,,,,,フルール,0
308,2030001163989,新規,0,2024-12-17,2024-12-17,株式会社ツバサ,,株式会社,埼玉県,川口市,並木３丁目４－２３レインボー並木ビル６階,,11,203,3320034,,,,,,,2024-12-17,1,,,,,ツバサ,0
311,2030003025700,新規,0,2024-12-17,2024-12-17,合同会社キューコネクト,,合同会社,埼玉県,新座市,野火止７丁目２１－１２水橋ビル２階,,11,230,3520011,,,,,,,2024-12-17,1,,,,,キューコネクト,0
312,2030003025709,新規,0,2024-12-17,2024-12-17,合同会社ヒューマンパワーリサーチ,,合同会社,埼玉県,春日部市,上蛭田２１４－２ライオンズマンション春日部豊春５０３,,11,214,3440046,,,,,,,2024-12-17,1,,,,,ヒューマンパワーリサーチ,0
317,2040001136580,新規,0,2024-12-17,2024-12-17,株式会社サノシテン,,株式会社,千葉県,柏市,加賀２丁目３０番８号,,12,217,2770051,,,,,,,2024-12-17,1,,,,,サノシテン,0
318,2040001136589,新規,0,2024-12-17,2024-12-17,株式会社友雅,,株式会社,千葉県,柏市,高柳８７９番地１０３二階,,12,217,2770941,,,,,,,2024-12-17,1,,,,,ユウガ,0
319,2040001136597,新規,0,2024-12-17,2024-12-17,ＣａｍＣａｍ．Ｊａｐａｎ株式会社,,株式会社,千葉県,佐倉市,王子台３丁目１番地３,,12,212,2850837,,,,,,,2024-12-17,1,,,,,カムカムジャパン,0
320,2040001136614,新規,0,2024-12-17,2024-12-17,株式会社イーデンホール,,株式会社,千葉県,流山市,おおたかの森北１丁目４－１－１１２３,,12,220,2700119,,,,,,,2024-12-17,1,,,,,イーデンホール,0
323,2040003026243,新規,0,2024-12-17,2024-12-17,大野智代合名会社,,合名会社,千葉県,木更津市,請西南４丁目１番９号,,12,206,2920807,,,,,,,2024-12-17,1,,,,,オオノトモヨ,0
327,2050003008884,新規,0,2024-12-17,2024-12-17,合同会社Ｍｅｔｅｏｒ,,合同会社,茨城県,水戸市,松が丘１丁目４－５３,,08,201,3100043,,,,,,,2024-12-17,1,,,,,メテオ,0
328,2060001037736,新規,0,2024-12-17,2024-12-17,株式会社瑞栄Ｆａｒｍ,,株式会社,栃木県,芳賀郡芳賀町,大字西水沼２７０番地,,09,345,3213324,,,,,,,2024-12-17,1,,,,,スイエイファーム,0
336,2080401027632,新規,0,2024-12-17,2024-12-17,株式会社一二三由紀夫,,株式会社,静岡県,浜松市中央区,参野町１５４番地の１,,22,138,4300816,,,,,,,2024-12-17,1,,,,,ヒフミユキオ,0
350,2120001270792,新規,0,2024-12-17,2024-12-17,株式会社永安康弘,,株式会社,大阪府,大阪市東淀川区,淡路３丁目８－１５,,27,114,5330032,,,,,,,2024-12-17,1,,,,,エイアンカンコウ,0
351,2120001271130,新規,0,2024-12-17,2024-12-17,株式会社よつば,,株式会社,大阪府,大阪市都島区,都島北通２丁目１‐１６‐１０１号,,27,102,5340014,,,,,,,2024-12-17,1,,,,,ヨツバ,0
352,2120001271147,新規,0,2024-12-17,2024-12-17,ＫＩＳ株式会社,,株式会社,大阪府,守口市,南寺方東通６丁目１１番１９号,,27,209,5700043,,,,,,,2024-12-17,1,,,,,ケーアイエス,0
353,2120001271155,新規,0,2024-12-17,2024-12-17,星漫株式会社,,株式会社,大阪府,大阪市生野区,新今里６丁目３番１０号４０１号,,27,116,5440001,,,,,,,2024-12-17,1,,,,,セイマン,0
354,2120001271171,新規,0,2024-12-17,2024-12-17,株式会社ＫＯＰＩＴＡＮ,,株式会社,大阪府,大阪市住吉区,東粉浜３丁目２６番６－１４０１号,,27,120,5580051,,,,,,,2024-12-17,1,,,,,コピタン,0
358,2120003028165,新規,0,2024-12-17,2024-12-17,ＬＤ合同会社,,合同会社,大阪府,大阪市西成区,北津守４丁目１３番４５号,,27,122,5570061,,,,,,,2024-12-17,1,,,,,エルディー,0
367,2122001038740,新規,0,2024-12-17,2024-12-17,株式会社藤田製作所,,株式会社,大阪府,八尾市,南木の本９丁目８０番地の１,,27,212,5810042,,,,,,,2024-12-17,1,,,,,フジタセイサクショ,0
369,2130001078599,新規,0,2024-12-17,2024-12-17,株式会社トップアスリートレコーズ,,株式会社,京都府,京都市中京区,一之船入町３７６クロトビル３階,,26,104,6040924,,,,,,,2024-12-17,1,,,,,トップアスリートレコーズ,0
371,2130003010080,新規,0,2024-12-17,2024-12-17,合同会社青和,,合同会社,京都府,長岡京市,久貝３丁目１番５号メロディーＴＡＫＡＮＯ２階２０３号室,,26,209,6170837,,,,,,,2024-12-17,1,,,,,セイワ,0
381,2180001164576,新規,0,2024-12-17,2024-12-17,ＡＣＥ・ＩＮＮＯＶＡＴＩＯＮ株式会社,,株式会社,愛知県,一宮市,猿海道１丁目９番７号シャイニングＩＩ２０２号,00137351,23,203,4910838,,,,,,,2024-12-17,1,,,,,エースイノベーション,0
382,2180001164584,新規,0,2024-12-17,2024-12-17,株式会社さかち,,株式会社,愛知県,名古屋市天白区,池見２丁目２４７番地池谷ビル１０２,,23,116,4680067,,,,,,,2024-12-17,1,,,,,サカチ,0
388,2180003027748,新規,0,2024-12-17,2024-12-17,ＨＹＭ合同会社,,合同会社,愛知県,半田市,乙川畑田町１丁目１２番地の１,,23,205,4750067,,,,,,,2024-12-17,1,,,,,エイッチワイエム,0
389,2180003027756,新規,0,2024-12-17,2024-12-17,合同会社Ａｓｔｒａ,,合同会社,愛知県,名古屋市中村区,名駅４丁目２４番５号第２森ビル４０１,,23,105,4500002,,,,,,,2024-12-17,1,,,,,アストラ,0
390,2180003027764,新規,0,2024-12-17,2024-12-17,合同会社晃生,,合同会社,愛知県,名古屋市昭和区,折戸町６丁目５２番地,,23,107,4660858,,,,,,,2024-12-17,1,,,,,コウショウ,0
391,2180005020858,新規,0,2024-12-17,2024-12-17,行政書士法人一心,,その他の設立登記法人,愛知県,常滑市,新開町３丁目１６９番地,,23,216,4790837,,,,,,,2024-12-17,1,,,,,イッシン,0
394,2180305009634,新規,0,2024-12-17,2024-12-17,ジェイブ協同組合,,その他の設立登記法人,愛知県,額田郡幸田町,大字芦谷字南屋敷２７番地１,,23,501,4440116,,,,,,,2024-12-17,1,,,,,ジェイブ,0
404,2240001064266,新規,0,2024-12-17,2024-12-17,ネオピア株式会社,,株式会社,広島県,呉市,西鹿田２丁目１１番５号,,34,202,7370074,,,,,,,2024-12-17,1,,,,,ネオピア,0
415,2290001108299,新規,0,2024-12-17,2024-12-17,株式会社ＬＩＦＥ　ＷＩＴＨ　ＨＯＭＥ,,株式会社,福岡県,飯塚市,赤坂８５４番地５７,,40,205,8200106,,,,,,,2024-12-17,1,,,,,ライフウィズホーム,0
417,2290003016178,新規,0,2024-12-17,2024-12-17,Ｂ＆Ｂ合同会社,,合同会社,福岡県,朝倉市,一木２８０番地３－２,,40,228,8380065,,,,,,,2024-12-17,1,,,,,ビーアンドビー,0
426,2340001026999,新規,0,2024-12-17,2024-12-17,株式会社ＪＯＲＤＡＮ,,株式会社,鹿児島県,鹿児島市,中央町１９番地４０,,46,201,8900053,,,,,,,2024-12-17,1,,,,,ジョーダン,0
427,2340003004689,新規,0,2024-12-17,2024-12-17,リーフ合同会社,,合同会社,鹿児島県,大島郡龍郷町,嘉渡４１０番地ハ,,46,527,8940331,,,,,,,2024-12-17,1,,,,,リーフ,0
432,2360001034546,新規,0,2024-12-17,2024-12-17,株式会社ＤＧＨ,,株式会社,沖縄県,那覇市,牧志１丁目２番１９号,,47,201,9000013,,,,,,,2024-12-17,1,,,,,ディージーエイチ,0
443,2390001017820,新規,0,2024-12-17,2024-12-17,ウイスキーエックス株式会社,,株式会社,山形県,酒田市,山楯字清水田２７番地,,06,204,9996724,,,,,,,2024-12-17,1,,,,,ウイスキーエックス,0
447,2410001014014,新規,0,2024-12-17,2024-12-17,プレシジョンシステムズ株式会社,,株式会社,秋田県,秋田市,山王臨海町２番５４号,,05,201,0100956,,,,,,,2024-12-17,1,,,,,プレシジョンシステムズ,0
450,2430001093295,新規,0,2024-12-17,2024-12-17,株式会社むすび,,株式会社,北海道,札幌市西区,発寒十三条４丁目１番４７号,,01,107,0630833,,,,,,,2024-12-17,1,,,,,ムスビ,0
452,2430003017046,新規,0,2024-12-17,2024-12-17,合同会社Ａトレーニング,,合同会社,北海道,札幌市南区,澄川一条１丁目５番１６－２０３号,,01,106,0050001,,,,,,,2024-12-17,1,,,,,エートレーニング,0
458,2470001020502,新規,0,2024-12-17,2024-12-17,株式会社サンスイ,,株式会社,香川県,仲多度郡多度津町,東浜９－７倉本コーポ１　１０２号室,,37,404,7640016,,,,,,,2024-12-17,1,,,,,サンスイ,0
465,2490005006966,新規,0,2024-12-17,2024-12-17,香南協同組合,,その他の設立登記法人,高知県,香南市,赤岡町５６９番地,,39,211,7815310,,,,,,,2024-12-17,1,,,,,,0
467,2500003003385,新規,0,2024-12-17,2024-12-17,合同会社くろてん堂,,合同会社,愛媛県,松山市,道後緑台１１番１６号,,38,201,7900847,,,,,,,2024-12-17,1,,,,,クロテンドウ,0
478,3010001250516,新規,0,2024-12-17,2024-12-17,株式会社Ｌｉｇｈｔｎｉｘ,,株式会社,東京都,中央区,築地１丁目１２番２２号コンワビル２階,,13,102,1040045,,,,,,,2024-12-17,1,,,,,ライトニックス,0
489,3010403034021,新規,0,2024-12-17,2024-12-17,合同会社ＨＡＬＥＴ,,合同会社,東京都,港区,南青山３丁目１番３６号青山丸竹ビル６Ｆ,,13,103,1070062,,,,,,,2024-12-17,1,,,,,ハレット,0
491,3010501053352,新規,0,2024-12-17,2024-12-17,株式会社フィンテックコンサルティング,,株式会社,東京都,台東区,東上野１丁目１５番４号キスワイヤ御徒町ビル４階,,13,106,1100015,,,,,,,2024-12-17,1,,,,,フィンテックコンサルティング,0
495,3010603011274,新規,0,2024-12-17,2024-12-17,ＣＥＳ合同会社,,合同会社,東京都,墨田区,錦糸４丁目９－９宮本マンション２、１０２,,13,107,1300013,,,,,,,2024-12-17,1,,,,,シリツコーヒーショウガッコウ,0
497,3010801035653,新規,0,2024-12-17,2024-12-17,株式会社サファリテック,,株式会社,東京都,大田区,西蒲田６丁目３２番１１号城南信用金庫蓮沼支店３階Ｊ‐Ｃｒｅａｔｅ＋ＲＯＯＭ‐Ｊ,,13,111,1440051,,,,,,,2024-12-17,1,,,,,サファリテック,0
511,3011001166462,新規,0,2024-12-17,2024-12-17,株式会社ＰＡＲＫ,,株式会社,東京都,渋谷区,代官山町８番１９号ＬａＧｒａｃｅ代官山３階,,13,113,1500034,,,,,,,2024-12-17,1,,,,,パーク,0
512,3011001166537,新規,0,2024-12-17,2024-12-17,ＡＮＤＹ　ｔｅｃｈｎｏｌｏｇｙ株式会社,,株式会社,東京都,渋谷区,渋谷２丁目１９番１５号宮益坂ビルディング６０９,,13,113,1500002,,,,,,,2024-12-17,1,,,,,アンディテクノロジー,0
523,3011601028285,新規,0,2024-12-17,2024-12-17,高光株式会社,,株式会社,東京都,練馬区,石神井町３丁目１番４号パークハイツ２０１号室,,13,120,1770041,,,,,,,2024-12-17,1,,,,,タカミツ,0
528,3011801045312,新規,0,2024-12-17,2024-12-17,株式会社ＡＬＬ　ｉｎ,,株式会社,東京都,足立区,北加平町６番１６号,,13,121,1210056,,,,,,,2024-12-17,1,,,,,オールイン,0
529,3011801045320,新規,0,2024-12-17,2024-12-17,株式会社江東部品販売,,株式会社,東京都,葛飾区,新小岩４丁目４３番２号,,13,122,1240024,,,,,,,2024-12-17,1,,,,,コウトウブヒンハンバイ,0
533,3012403006875,新規,0,2024-12-17,2024-12-17,ＫＫ＆Ｓ合同会社,,合同会社,東京都,武蔵野市,緑町２丁目３Ｂ６‐１１０３,,13,203,1800012,,,,,,,2024-12-17,1,,,,,ケイケイアンドエス,0
548,3021001084011,新規,0,2024-12-17,2024-12-17,株式会社アロテックジャパン,,株式会社,神奈川県,平塚市,西八幡３丁目２番３－１号,,14,203,2540073,,,,,,,2024-12-17,1,,,,,アロテックジャパン,0
549,3021001084028,新規,0,2024-12-17,2024-12-17,株式会社ＦＵＡ,,株式会社,神奈川県,平塚市,河内３５９番地４,,14,203,2540903,,,,,,,2024-12-17,1,,,,,エフユーエー,0
552,3030001163988,新規,0,2024-12-17,2024-12-17,ＭＭＹ株式会社,,株式会社,埼玉県,川口市,西川口６丁目４番６号第二荻島ビル２２７号室,,11,203,3320021,,,,,,,2024-12-17,1,,,,,エムエムワイ,0
553,3030001164020,新規,0,2024-12-17,2024-12-17,株式会社ｔｒｕｓｔ　ｓｔｅｐ,,株式会社,埼玉県,さいたま市見沼区,大字蓮沼３０８番地１－１０５,,11,104,3370015,,,,,,,2024-12-17,1,,,,,トラストステップ,0
555,3030003025716,新規,0,2024-12-17,2024-12-17,合同会社Ａｂｅｌｉａ,,合同会社,埼玉県,比企郡嵐山町,大字鎌形２４５５ＭＥ事務所内,,11,342,3550225,,,,,,,2024-12-17,1,,,,,アベリア,0
560,3040001136571,新規,0,2024-12-17,2024-12-17,竜宝株式会社,,株式会社,千葉県,匝瑳市,米持９８０番地１８,,12,235,2892107,,,,,,,2024-12-17,1,,,,,リュウホウ,0
561,3040001136613,新規,0,2024-12-17,2024-12-17,ＹＯＭＩＵＲＩ　ＧＲＯＢＡＬ株式会社,,株式会社,千葉県,千葉市緑区,あすみが丘３丁目５２番地４,,12,105,2670066,,,,,,,2024-12-17,1,,,,,ヨミウリグローバル,0
564,3040003026399,新規,0,2024-12-17,2024-12-17,ＭＹＨ　Ｉｎｔｅｒｎａｔｉｏｎａｌ合同会社,,合同会社,千葉県,八街市,沖１６７０番地１４,,12,230,2891126,,,,,,,2024-12-17,1,,,,,エムワイエイチインターナショナル,0
581,3090001019045,新規,0,2024-12-17,2024-12-17,株式会社ドメーヌシャンクレール・ド・アケノ,,株式会社,山梨県,北杜市,明野町浅尾字浅尾原５２５９番地３０７９,,19,209,4080201,,,,,,,2024-12-17,1,,,,,ドメーヌシャンクレールドアケノ,0
587,3110003005610,新規,0,2024-12-17,2024-12-17,合同会社ＡＯ電,,合同会社,新潟県,新潟市江南区,小杉１丁目１番１号,,15,104,9500203,,,,,,,2024-12-17,1,,,,,アオデン,0
595,3120001271113,新規,0,2024-12-17,2024-12-17,株式会社Ｃｏｃｏ　Ａｏｙａｍａ,,株式会社,大阪府,大阪市平野区,平野本町４丁目１１番８号,,27,126,5470044,,,,,,,2024-12-17,1,,,,,ココアオヤマ,0
596,3120001271154,新規,0,2024-12-17,2024-12-17,春田株式会社,,株式会社,大阪府,大阪市西成区,萩之茶屋１丁目１２－７万葉ビル６号室,,27,122,5570004,,,,,,,2024-12-17,1,,,,,ハルタ,0
597,3120001271162,新規,0,2024-12-17,2024-12-17,御崎株式会社,,株式会社,大阪府,大阪市港区,八幡屋３丁目４番８－２０１号,,27,107,5520014,,,,,,,2024-12-17,1,,,,,オサキ,0
598,3120001271179,新規,0,2024-12-17,2024-12-17,豊元株式会社,,株式会社,大阪府,大阪市阿倍野区,旭町３丁目４－５－１０９,,27,119,5450051,,,,,,,2024-12-17,1,,,,,トヨモト,0
599,3120001271187,新規,0,2024-12-17,2024-12-17,アジアミライ株式会社,,株式会社,大阪府,大阪市東住吉区,杭全６丁目６番１０号,,27,121,5460002,,,,,,,2024-12-17,1,,,,,アジアミライ,0
603,3120005024665,新規,0,2024-12-17,2024-12-17,一般社団法人パープルデー大阪,,その他の設立登記法人,大阪府,大阪市天王寺区,生玉寺町３番５号,,27,109,5430073,,,,,,,2024-12-17,1,,,,,パープルデーオオサカ,0
612,3122003003072,新規,0,2024-12-17,2024-12-17,合同会社テンダーロイン,,合同会社,大阪府,東大阪市,衣摺２丁目１１番２２号,,27,227,5770827,,,,,,,2024-12-17,1,,,,,テンダーロイン,0
617,3140001136743,新規,0,2024-12-17,2024-12-17,ＳｈｕｋＲａｎ株式会社,,株式会社,兵庫県,神戸市中央区,磯辺通１番１８号カサベラ国際プラザビル７０７号室,,28,110,6500000,,,,,,,2024-12-17,1,,,,,シュクラン,0
618,3140001136751,新規,0,2024-12-17,2024-12-17,ビビットハウス株式会社,,株式会社,兵庫県,川辺郡猪名川町,白金２丁目３５番地２,,28,301,6660257,,,,,,,2024-12-17,1,,,,,ビビットハウス,0
619,3140001136776,新規,0,2024-12-17,2024-12-17,株式会社Ｓｏ‐Ｗｅｌｌ,,株式会社,兵庫県,神戸市灘区,高羽町３丁目９番１２－１号,,28,102,6570023,,,,,,,2024-12-17,1,,,,,ソーウェル,0
623,3140003021415,新規,0,2024-12-17,2024-12-17,大地文化企画合同会社,,合同会社,兵庫県,神戸市長田区,東池尻町七丁目９番９号清雲荘３２０,,28,106,6530000,,,,,,,2024-12-17,1,,,,,ダイチブンカキカク,0
633,3180001164550,新規,0,2024-12-17,2024-12-17,株式会社すしまる,,株式会社,愛知県,名古屋市中区,錦３丁目１７番１号第五錦ビル５階,,23,106,4600003,,,,,,,2024-12-17,1,,,,,スシマル,0
634,3180001164575,新規,0,2024-12-17,2024-12-17,株式会社ＡＩＣＨＩ　ＳＹＳＴＥＭ,,株式会社,愛知県,江南市,前飛保町寺町７３番地３,,23,217,4838336,,,,,,,2024-12-17,1,,,,,アイチシステム,0
635,3180001164583,新規,0,2024-12-17,2024-12-17,株式会社アクトキューズ,,株式会社,愛知県,日進市,藤塚１丁目２６７番地,,23,230,4700117,,,,,,,2024-12-17,1,,,,,アクトキューズ,0
636,3180001164591,新規,0,2024-12-17,2024-12-17,株式会社バクアテ,,株式会社,愛知県,名古屋市中村区,平池町４丁目６０番地の５ロイヤルパークスＥＲささしま５１１号,,23,105,4530872,,,,,,,2024-12-17,1,,,,,バクアテ,0
637,3180001164617,新規,0,2024-12-17,2024-12-17,株式会社意造,,株式会社,愛知県,名古屋市中川区,吉津２丁目３０１１番地,,23,110,4540981,,,,,,,2024-12-17,1,,,,,イゾウ,0
641,3180003027739,新規,0,2024-12-17,2024-12-17,ＴＡＤＡＮＯ８２８合同会社,,合同会社,愛知県,名古屋市中村区,名駅５丁目４番１４号花車ビル北館,,23,105,4500002,,,,,,,2024-12-17,1,,,,,タダノハチニハチ,0
642,3180003027755,新規,0,2024-12-17,2024-12-17,ＡＲＯＮ合同会社,,合同会社,愛知県,春日井市,桃山町３０６１番地１,,23,206,4860802,,,,,,,2024-12-17,1,,,,,アロン,0
644,3180301039345,新規,0,2024-12-17,2024-12-17,株式会社ダブルエー,,株式会社,愛知県,豊橋市,弥生町字東豊和１０６番地の３,,23,201,4418106,,,,,,,2024-12-17,1,,,,,ダブルエー,0
649,3200001043231,新規,0,2024-12-17,2024-12-17,株式会社鼓,,株式会社,岐阜県,瑞穂市,別府１１９８番地,,21,216,5010222,,,,,,,2024-12-17,1,,,,,ツヅミ,0
651,3210001019998,新規,0,2024-12-17,2024-12-17,株式会社アイハル,,株式会社,福井県,鯖江市,小泉町第３０号５番地５,,18,207,9160084,,,,,,,2024-12-17,1,,,,,アイハル,0
653,3220001026382,新規,0,2024-12-17,2024-12-17,株式会社ククリゾート,,株式会社,石川県,金沢市,高岡町２番１５－１号,,17,201,9200864,,,,,,,2024-12-17,1,,,,,ククリゾート,0
656,3240001064257,新規,0,2024-12-17,2024-12-17,株式会社Ｗｅｄｇｅ,,株式会社,広島県,福山市,駅家町大字上山守４５０番地１７３,,34,207,7201142,,,,,,,2024-12-17,1,,,,,ウェッジ,0
663,3290001108307,新規,0,2024-12-17,2024-12-17,株式会社はなかご,,株式会社,福岡県,福岡市博多区,吉塚３丁目２７番３０－５０２号,,40,132,8120041,,,,,,,2024-12-17,1,,,,,ハナカゴ,0
669,3300001014016,新規,0,2024-12-17,2024-12-17,株式会社真崎商事,,株式会社,佐賀県,神埼市,神埼町本告牟田２５００番地,,41,210,8420013,,,,,,,2024-12-17,1,,,,,マサキショウジ,0
678,3340001026998,新規,0,2024-12-17,2024-12-17,株式会社宮内内装,,株式会社,鹿児島県,鹿児島市,中山町２５７９番地３,,46,201,8910105,,,,,,,2024-12-17,1,,,,,ミヤウチナイソウ,0
697,3430003017078,新規,0,2024-12-17,2024-12-17,合同会社Ｎｅｉｇｅ,,合同会社,北海道,札幌市豊平区,美園一条８丁目１番１号ＳＥＮＡＢｌｄｇ．２Ｆ　２０５,,01,105,0620001,,,,,,,2024-12-17,1,,,,,ネージュ,0
698,3430005015121,新規,0,2024-12-17,2024-12-17,一般社団法人恩楽,,その他の設立登記法人,北海道,札幌市清田区,真栄五条３丁目６番３３号,,01,110,0040835,,,,,,,2024-12-17,1,,,,,オンガク,0
703,3500001026040,新規,0,2024-12-17,2024-12-17,すみか株式会社,,株式会社,愛媛県,松山市,朝日ケ丘２丁目９番３３号エンブレム衣山１０５号,,38,201,7918024,,,,,,,2024-12-17,1,,,,,スミカ,0
706,3700150128286,新規,0,2024-12-17,2024-12-17,Ｃｏｒｎｅｒ　Ｓａｆｅｔｙ，Ｓ．Ａ．,,外国会社等,,,,,,,,スペイン国セビーシャ市ベルヘン・デ・ラ・アンティグア通り９Ａ　ＢＡＪＯＣ,,,,,,2024-12-17,1,,,,,コーナーセーフテイーエスエー,0
714,4010005039277,新規,0,2024-12-17,2024-12-17,芦ノ湖開発特定目的会社,,その他の設立登記法人,東京都,千代田区,霞が関３丁目２番５号,,13,101,1000013,,,,,,,2024-12-17,1,,,,,アシノコカイハツ,0
722,4010601066476,新規,0,2024-12-17,2024-12-17,株式会社ＲＥｓｔｙｌｅ＆ｃｏ．,,株式会社,東京都,江東区,富岡１丁目７番３号石坂ビル２Ｆ,,13,108,1350047,,,,,,,2024-12-17,1,,,,,リスタイルアンドコー,0
723,4010603011273,新規,0,2024-12-17,2024-12-17,合同会社ＬＥＩＡ,,合同会社,東京都,江東区,豊洲６丁目２番３１,,13,108,1350061,,,,,,,2024-12-17,1,,,,,レイア,0
727,4011001166429,新規,0,2024-12-17,2024-12-17,株式会社タクトフル,,株式会社,東京都,目黒区,自由が丘２丁目１０番２０号トリニタ自由が丘６０４,,13,110,1520035,,,,,,,2024-12-17,1,,,,,タクトフル,0
728,4011301030235,新規,0,2024-12-17,2024-12-17,ＹＤＬ株式会社,,株式会社,東京都,杉並区,永福３丁目４３番１６号,,13,115,1680064,,,,,,,2024-12-17,1,,,,,ワイディーエル,0
731,4011303005359,新規,0,2024-12-17,2024-12-17,Ｇａｓｈｂａｓｈ合同会社,,合同会社,東京都,杉並区,西荻北５丁目１５番３号美園荘２０３,,13,115,1670042,,,,,,,2024-12-17,1,,,,,ガスバス,0
732,4011501031487,新規,0,2024-12-17,2024-12-17,株式会社ＢＡＸ,,株式会社,東京都,荒川区,西尾久１丁目１５番３号三河屋ビル１０１,,13,118,1160011,,,,,,,2024-12-17,1,,,,,バックス,0
737,4011801045311,新規,0,2024-12-17,2024-12-17,株式会社ニコラズイー,,株式会社,東京都,葛飾区,奥戸５丁目１９番１号,,13,122,1240022,,,,,,,2024-12-17,1,,,,,ニコラズイー,0
738,4012301014194,新規,0,2024-12-17,2024-12-17,株式会社エイチツー,,株式会社,東京都,町田市,成瀬７丁目６番１１号,,13,209,1940044,,,,,,,2024-12-17,1,,,,,エイチツー,0
740,4012403006874,新規,0,2024-12-17,2024-12-17,合同会社Ｈｉｍｍｅｌ,,合同会社,東京都,三鷹市,大沢６丁目５番２８号,,13,204,1810015,,,,,,,2024-12-17,1,,,,,ヒメル,0
750,4020001160655,新規,0,2024-12-17,2024-12-17,株式会社きらら建装,,株式会社,神奈川県,横浜市港北区,樽町３丁目７番１５－７０１号,,14,109,2220001,,,,,,,2024-12-17,1,,,,,キララケンソウ,0
755,4021001083978,新規,0,2024-12-17,2024-12-17,ＢＬＵＶＥＧＩ株式会社,,株式会社,神奈川県,鎌倉市,稲村ガ崎３丁目８―２２,,14,204,2480024,,,,,,,2024-12-17,1,,,,,ブルベジ,0
756,4021001084010,新規,0,2024-12-17,2024-12-17,幸せ株式会社,,株式会社,神奈川県,相模原市中央区,淵野辺２丁目１６番６号,,14,152,2520206,,,,,,,2024-12-17,1,,,,,シアワセ,0
764,4030001163913,新規,0,2024-12-17,2024-12-17,株式会社ＤｅＮＦ,,株式会社,埼玉県,上尾市,谷津１丁目８番１９号エスト１０２,,11,219,3620042,,,,,,,2024-12-17,1,,,,,ディーエヌフォー,0
765,4030001163962,新規,0,2024-12-17,2024-12-17,株式会社建装関口,,株式会社,埼玉県,日高市,大字高萩２６３１番地６,,11,242,3501213,,,,,,,2024-12-17,1,,,,,ケンソウセキグチ,0
767,4030003025707,新規,0,2024-12-17,2024-12-17,合同会社Ｒａｉｎｂｏｗ,,合同会社,埼玉県,久喜市,桜田３丁目６番１号,,11,232,3400203,,,,,,,2024-12-17,1,,,,,レインボー,0
768,4030005021976,新規,0,2024-12-17,2024-12-17,ＮＰＯ法人Ｗｏｒｌｄ　Ｔｏｕｒｉｓｍ　Ｆｅｄｅｒａｔｉｏｎ,,その他の設立登記法人,埼玉県,入間郡越生町,大字如意４３５番地２３－３階,,11,327,3500413,,,,,,,2024-12-17,1,,,,,ワールドツーリズムフェデレーション,0
781,4050001055893,新規,0,2024-12-17,2024-12-17,株式会社ファームズ,,株式会社,茨城県,神栖市,溝口４８７３番地４９８,,08,232,3140121,,,,,,,2024-12-17,1,,,,,ファームズ,0
782,4060001037734,新規,0,2024-12-17,2024-12-17,株式会社ｒｅ・Ｃｌａｓｓｉｃ,,株式会社,栃木県,真岡市,上高間木２丁目２７番地２５,,09,209,3214337,,,,,,,2024-12-17,1,,,,,リクラシック,0
787,4070001042460,新規,0,2024-12-17,2024-12-17,Ｓａｍ株式会社,,株式会社,群馬県,北群馬郡吉岡町,大字大久保１３７６番地８,,10,345,3703602,,,,,,,2024-12-17,1,,,,,サム,0
789,4080001026669,新規,0,2024-12-17,2024-12-17,株式会社ＴＲＥＳ,,株式会社,静岡県,静岡市葵区,安東３丁目３番２７号,,22,101,4200882,,,,,,,2024-12-17,1,,,,,トレス,0
792,4080401027630,新規,0,2024-12-17,2024-12-17,株式会社ＡＭＨ,,株式会社,静岡県,浜松市中央区,三島町４４番地の２,,22,138,4300853,,,,,,,2024-12-17,1,,,,,エーエムエイチ,0
793,4080403005163,新規,0,2024-12-17,2024-12-17,エアリス合同会社,,合同会社,静岡県,掛川市,成滝４９番地の１１,,22,213,4360085,,,,,,,2024-12-17,1,,,,,エアリス,0
799,4110001038925,新規,0,2024-12-17,2024-12-17,株式会社燕ミライホールディングス,,株式会社,新潟県,燕市,分水あけぼの１丁目１番地７６,,15,213,9590132,,,,,,,2024-12-17,1,,,,,ツバメミライホールディングス,0
803,4120001270931,新規,0,2024-12-17,2024-12-17,三金株式会社,,株式会社,大阪府,大阪市浪速区,大国２丁目８番６－３０２号,,27,111,5560014,,,,,,,2024-12-17,1,,,,,サンキン,0
804,4120001271153,新規,0,2024-12-17,2024-12-17,株式会社キヤス,,株式会社,大阪府,大阪市西区,南堀江２丁目１０－６深沢ビル４階Ｂ号室,,27,106,5500015,,,,,,,2024-12-17,1,,,,,キヤス,0
805,4120001271161,新規,0,2024-12-17,2024-12-17,利同株式会社,,株式会社,大阪府,大阪市中央区,内本町２丁目３番１１号内本町グリーンビル７０９号室,,27,128,5400026,,,,,,,2024-12-17,1,,,,,リドウ,0
806,4120001271186,新規,0,2024-12-17,2024-12-17,株式会社ＳＥＶＥＮ　ＴＷＯ　ＣＲＯＷＮ,,株式会社,大阪府,大阪市西区,新町１丁目８番３号林四ツ橋ビル７０２,,27,106,5500013,,,,,,,2024-12-17,1,,,,,セブントゥクラウン,0
807,4120001271269,新規,0,2024-12-17,2024-12-17,株式会社コロンボ,,株式会社,大阪府,大阪市西成区,萩之茶屋２丁目７番５号,,27,122,5570004,,,,,,,2024-12-17,1,,,,,コロンボ,0
815,4130001078597,新規,0,2024-12-17,2024-12-17,株式会社エンデバー,,株式会社,京都府,京都市中京区,壬生賀陽御所町２８番地３,,26,104,6048811,,,,,,,2024-12-17,1,,,,,エンデバー,0
822,4140001136750,新規,0,2024-12-17,2024-12-17,株式会社ニューブレイン,,株式会社,兵庫県,神戸市須磨区,妙法寺字蓮池３６６番１０－１２１２号,,28,107,6540121,,,,,,,2024-12-17,1,,,,,ニューブレイン,0
828,4160003003360,新規,0,2024-12-17,2024-12-17,合同会社中村企画,,合同会社,滋賀県,草津市,志那中町３９５－２,,25,206,5250006,,,,,,,2024-12-17,1,,,,,ナカムラキカク,0
833,4180001164525,新規,0,2024-12-17,2024-12-17,株式会社スリー・サイド・ベネフィット,,株式会社,愛知県,名古屋市昭和区,隼人町８番地の９（コートサイド杁中３０２号）,,23,107,4660833,,,,,,,2024-12-17,1,,,,,スリーサイドベネフィット,0
834,4180001164533,新規,0,2024-12-17,2024-12-17,株式会社サンタクロース,,株式会社,愛知県,名古屋市港区,津金２丁目１３番４４号,,23,111,4550004,,,,,,,2024-12-17,1,,,,,サンタクロース,0
835,4180001164541,新規,0,2024-12-17,2024-12-17,株式会社ｉＳｏｌｖｅ,,株式会社,愛知県,名古屋市中区,栄１丁目２０番１０号（グランアベニュー栄４１２号）,,23,106,4600008,,,,,,,2024-12-17,1,,,,,アイソルブ,0
836,4180001164566,新規,0,2024-12-17,2024-12-17,株式会社エスケットメイセイ,,株式会社,愛知県,名古屋市西区,木前町６番地,,23,104,4520834,,,,,,,2024-12-17,1,,,,,エスケットメイセイ,0
837,4180001164590,新規,0,2024-12-17,2024-12-17,株式会社ＬｉＭｄｏ,,株式会社,愛知県,名古屋市天白区,池場４丁目１０６番地藤和シティコープ植田１４０４号,,23,116,4680055,,,,,,,2024-12-17,1,,,,,リムド,0
838,4180001164599,新規,0,2024-12-17,2024-12-17,株式会社稲葉ホールディングス,,株式会社,愛知県,名古屋市千種区,今池５丁目９番１２号,,23,101,4640850,,,,,,,2024-12-17,1,,,,,イナバホールディングス,0
844,4200001043230,新規,0,2024-12-17,2024-12-17,株式会社ＧＹＭＴ,,株式会社,岐阜県,羽島市,上中町長間８５４,,21,209,5016311,,,,,,,2024-12-17,1,,,,,ジムティ,0
846,4220001026381,新規,0,2024-12-17,2024-12-17,株式会社ののぽーと,,株式会社,石川県,野々市市,清金３丁目３５番地,,17,212,9218837,,,,,,,2024-12-17,1,,,,,ノノポート,0
847,4240001064264,新規,0,2024-12-17,2024-12-17,株式会社グローバルアイハンド,,株式会社,広島県,福山市,南松永町１丁目２７番１９号,,34,207,7290105,,,,,,,2024-12-17,1,,,,,グローバルアイハンド,0
848,4240003006982,新規,0,2024-12-17,2024-12-17,合同会社ファースト,,合同会社,広島県,広島市西区,打越町１７番３０－５０５号,,34,104,7330004,,,,,,,2024-12-17,1,,,,,ファースト,0
849,4240005015866,新規,0,2024-12-17,2024-12-17,一般社団法人ＫＡＮ‐ＪＩＮ,,その他の設立登記法人,広島県,福山市,鞆町後地１１６０番地２,,34,207,7200202,,,,,,,2024-12-17,1,,,,,カンジン,0
851,4260003005009,新規,0,2024-12-17,2024-12-17,合同会社Ｃｒａｄｌｅ,,合同会社,岡山県,笠岡市,篠坂８７４番地,,33,205,7140077,,,,,,,2024-12-17,1,,,,,クレイドル,0
852,4270001009101,新規,0,2024-12-17,2024-12-17,株式会社カラス天狗サービス,,株式会社,鳥取県,西伯郡大山町,坊領３７９番地４,,31,386,6893312,,,,,,,2024-12-17,1,,,,,カラステングサービス,0
866,4330003010686,新規,0,2024-12-17,2024-12-17,合同会社カーサフォレスターレ,,合同会社,熊本県,熊本市東区,若葉６丁目３番６号,,43,102,8612103,,,,,,,2024-12-17,1,,,,,カーサフォレスターレ,0
879,4380001034988,新規,0,2024-12-17,2024-12-17,株式会社志美堂,,株式会社,福島県,いわき市,田人町黒田字平草８７番地,,07,204,9740151,,,,,,,2024-12-17,1,,,,,ユキビドウ,0
891,4430003017077,新規,0,2024-12-17,2024-12-17,ｎｏｎａｉｗｏｒｋｓ合同会社,,合同会社,北海道,札幌市中央区,南五条西１５丁目２番３号リズム医大前５０３号室,,01,101,0640805,,,,,,,2024-12-17,1,,,,,ノーナイワークス,0
894,4470001020500,新規,0,2024-12-17,2024-12-17,株式会社世界総本舗,,株式会社,香川県,高松市,井口町８番地９コーポ真鍋１０２号室,,37,201,7600038,,,,,,,2024-12-17,1,,,,,,0
897,4700150128285,新規,0,2024-12-17,2024-12-17,ＸＹＺＧＯＡＴ　ＯＵ,,外国会社等,東京都,渋谷区,広尾１丁目１５－３　クオリア恵比寿パークフロント７０２,,13,113,1500012,Ｈａｒｊｕ　ｍａａｋｏｎｄ，Ｔａｌｌｉｎｎ，Ｋｅｓｋｌｉｎｎａ　Ｉｉｎｎａｏｓａ，Ｔｏｒｎｉｍａｅ　ｔｈ５,,,,,,2024-12-17,1,,,,,エツクスワイゼツトゴートオーウー,0
904,5010001250605,新規,0,2024-12-17,2024-12-17,朔陽実業株式会社,,株式会社,東京都,文京区,本駒込４丁目２９番６号新生マンション,,13,105,1130021,,,,,,,2024-12-17,1,,,,,サクヨウジツギョウ,0
905,5010001250745,新規,0,2024-12-17,2024-12-17,ＢｒａｃｈｉｓｔａＬｏｇホールディングス株式会社,,株式会社,東京都,中央区,銀座１丁目１２番４号Ｎ＆ＥＢＬＤ．６Ｆ,,13,102,1040061,,,,,,,2024-12-17,1,,,,,ブラキスタログホールディングス,0
909,5010003045813,新規,0,2024-12-17,2024-12-17,合同会社ＬＬ,,合同会社,東京都,中央区,日本橋室町１丁目１２番１２号水島ビル３階,,13,102,1030022,,,,,,,2024-12-17,1,,,,,エルエル,0
911,5010401187075,新規,0,2024-12-17,2024-12-17,日本ストラテジーアドバイザリー株式会社,,株式会社,東京都,港区,浜松町２丁目２番１５号２Ｆ,,13,103,1050013,,,,,,,2024-12-17,1,,,,,ニホンストラテジーアドバイザリー,0
914,5010405023870,新規,0,2024-12-17,2024-12-17,一般社団法人ココロアートセラピー,,その他の設立登記法人,東京都,港区,北青山１丁目３番１号アールキューブ青山３階,,13,103,1070061,,,,,,,2024-12-17,1,,,,,ココロアートセラピー,0
916,5010601066467,新規,0,2024-12-17,2024-12-17,株式会社ミツワトランスポート,,株式会社,東京都,墨田区,緑３丁目２２番１－１０１号,,13,107,1300021,,,,,,,2024-12-17,1,,,,,ミツワトランスポート,0
917,5010601066475,新規,0,2024-12-17,2024-12-17,株式会社ＢＬＥＮＯ,,株式会社,東京都,墨田区,錦糸２丁目８－１１トウダアレイ１Ａ,,13,107,1300013,,,,,,,2024-12-17,1,,,,,ブレノ,0
919,5010701046988,新規,0,2024-12-17,2024-12-17,株式会社ＥＵＲＲＡＮＧＥ,,株式会社,東京都,品川区,上大崎１丁目１番１７号プライムメゾン白金台タワー８０９,,13,109,1410021,,,,,,,2024-12-17,1,,,,,ユーレンジ,0
924,5010901056507,新規,0,2024-12-17,2024-12-17,株式会社アクティブスペシャリスト,,株式会社,東京都,世田谷区,太子堂４丁目１８番１５号マガザン三軒茶屋２・３Ｆ－３,,13,112,1540004,,,,,,,2024-12-17,1,,,,,アクティブスペシャリスト,0
930,5011001166279,新規,0,2024-12-17,2024-12-17,Ｊ‐Ｎｅｘｉａ株式会社,,株式会社,東京都,渋谷区,渋谷２丁目１９番１９号ワコー宮益坂ビル５階,,13,113,1500002,,,,,,,2024-12-17,1,,,,,ジェイネクシア,0
931,5011001166411,新規,0,2024-12-17,2024-12-17,株式会社Ｗｏｎｄｅｒ　Ｓｐｅｃｓ,,株式会社,東京都,渋谷区,宇田川町４２番１号ヴィラフィット３０１,,13,113,1500042,,,,,,,2024-12-17,1,,,,,ワンダースペック,0
932,5011001166576,新規,0,2024-12-17,2024-12-17,株式会社ウーダシップ研究所,,株式会社,東京都,渋谷区,桜丘町２６番１号セルリアンタワー１５階,,13,113,1500031,,,,,,,2024-12-17,1,,,,,ウーダシップケンキュウジョ,0
938,5011301030234,新規,0,2024-12-17,2024-12-17,株式会社ＫＲＥＥ,,株式会社,東京都,杉並区,宮前２丁目４番１号,,13,115,1680081,,,,,,,2024-12-17,1,,,,,クリー,0
940,5011501031437,新規,0,2024-12-17,2024-12-17,株式会社Ｄｒｅａｍｅｒｓ,,株式会社,東京都,北区,十条仲原１丁目２６番５号鳥芳ビル３０３号室,,13,117,1140031,,,,,,,2024-12-17,1,,,,,ドリーマーズ,0
941,5011501031486,新規,0,2024-12-17,2024-12-17,ＧＯＬＤＥＮ　ＡＳＩＡ株式会社,,株式会社,東京都,北区,田端１丁目７番５号ブルーム動坂１０１号,,13,117,1140014,,,,,,,2024-12-17,1,,,,,ゴールデンアジア,0
942,5011501031494,新規,0,2024-12-17,2024-12-17,宜人駕乗株式会社,,株式会社,東京都,荒川区,南千住３丁目２７－２浅草ビル５０８,,13,118,1160003,,,,,,,2024-12-17,1,,,,,イニンガジョウ,0
946,5011703004059,新規,0,2024-12-17,2024-12-17,Ｍａｉｋａｉ合同会社,,合同会社,東京都,江戸川区,南葛西７丁目１番７号,,13,123,1340085,,,,,,,2024-12-17,1,,,,,マイカイ,0
958,5012801023652,新規,0,2024-12-17,2024-12-17,株式会社和歌商事,,株式会社,東京都,国分寺市,西町１丁目１７番地４３,,13,214,1850035,,,,,,,2024-12-17,1,,,,,ワカショウジ,0
971,5020005016638,新規,0,2024-12-17,2024-12-17,医療法人社団弘希会,,その他の設立登記法人,神奈川県,川崎市高津区,溝口３丁目７番１１号高津駅前Ｊ’ｓビル３階,,14,134,2130001,,,,,,,2024-12-17,1,,,,,コウキカイ,0
973,5021001084018,新規,0,2024-12-17,2024-12-17,株式会社魚貫,,株式会社,神奈川県,藤沢市,鵠沼海岸２丁目４番８号ルミナール鵠沼１０３,,14,205,2510037,,,,,,,2024-12-17,1,,,,,オニキ,0
974,5021003015359,新規,0,2024-12-17,2024-12-17,合同会社ムーン,,合同会社,神奈川県,海老名市,国分南１丁目２０番２１号,,14,215,2430405,,,,,,,2024-12-17,1,,,,,ムーン,0
977,5030001164019,新規,0,2024-12-17,2024-12-17,株式会社小福吉,,株式会社,埼玉県,所沢市,北所沢町２２６９番地の６サングリエ新所沢２０３,,11,208,3590046,,,,,,,2024-12-17,1,,,,,コフクキチ,0
980,5030003025714,新規,0,2024-12-17,2024-12-17,合同会社ＹＥＬＬ,,合同会社,埼玉県,行田市,大字樋上７９番地,,11,206,3610036,,,,,,,2024-12-17,1,,,,,エール,0
986,5040001136611,新規,0,2024-12-17,2024-12-17,サイキ水道設備株式会社,,株式会社,千葉県,習志野市,鷺沼４丁目２番２２－３０１号,,12,216,2750014,,,,,,,2024-12-17,1,,,,,サイキスイドウセツビ,0
1010,5110003005609,新規,0,2024-12-17,2024-12-17,合同会社ｐａｒｌｅｒ,,合同会社,新潟県,長岡市,栃尾大野町２丁目４番３３号,,15,202,9400236,,,,,,,2024-12-17,1,,,,,パルレ,0
1022,5120001270880,新規,0,2024-12-17,2024-12-17,株式会社ＮＭｆｏｏｄ,,株式会社,大阪府,大阪市中央区,南本町１丁目５番２２号東野ビル１階,,27,128,5410054,,,,,,,2024-12-17,1,,,,,エヌエムフード,0
1023,5120001271053,新規,0,2024-12-17,2024-12-17,百康株式会社,,株式会社,大阪府,大阪市住之江区,安立１丁目２番１３号田中ビル３０１－Ａ号,,27,125,5590003,,,,,,,2024-12-17,1,,,,,ベイコウ,0
1024,5120001271078,新規,0,2024-12-17,2024-12-17,株式会社スラスト,,株式会社,大阪府,大阪市城東区,成育４丁目７番１４号,,27,118,5360007,,,,,,,2024-12-17,1,,,,,スラスト,0
1025,5120001271086,新規,0,2024-12-17,2024-12-17,加実株式会社,,株式会社,大阪府,大阪市西成区,花園南１丁目６番１０号花園ハイツ３０５号,,27,122,5570015,,,,,,,2024-12-17,1,,,,,カジツ,0
1026,5120001271128,新規,0,2024-12-17,2024-12-17,ポルテック株式会社,,株式会社,大阪府,大阪市北区,梅田１丁目２番２号大阪駅前第２ビル１２－１２,,27,127,5300001,,,,,,,2024-12-17,1,,,,,ポルテック,0
1027,5120001271136,新規,0,2024-12-17,2024-12-17,楽遊株式会社,,株式会社,大阪府,大阪市大正区,平尾４丁目１１－７－２０１,,27,108,5510012,,,,,,,2024-12-17,1,,,,,ラクユウ,0
1028,5120001271144,新規,0,2024-12-17,2024-12-17,株式会社壱扇,,株式会社,大阪府,大阪市北区,南森町１丁目１番２５号,,27,127,5300054,,,,,,,2024-12-17,1,,,,,イッセン,0
1029,5120001271152,新規,0,2024-12-17,2024-12-17,クオン株式会社,,株式会社,大阪府,大阪市中央区,内久宝寺町３丁目１番１－１６０４号,,27,128,5400013,,,,,,,2024-12-17,1,,,,,クオン,0
1030,5120001271160,新規,0,2024-12-17,2024-12-17,株式会社１ｃ,,株式会社,大阪府,大阪市浪速区,難波中３丁目１６番１１－１１０号,,27,111,5560011,,,,,,,2024-12-17,1,,,,,ワンシー,0
1031,5120001271169,新規,0,2024-12-17,2024-12-17,ガリエイド株式会社,,株式会社,大阪府,大阪市中央区,農人橋１丁目１番７号谷町エクセルビル５０３,,27,128,5400011,,,,,,,2024-12-17,1,,,,,ガリエイド,0
1032,5120001271177,新規,0,2024-12-17,2024-12-17,ＡＩＦＩＴ株式会社,,株式会社,大阪府,大阪市北区,梅田１丁目２番２号大阪駅前第２ビル１２－１２,,27,127,5300001,,,,,,,2024-12-17,1,,,,,アイフィット,0
1033,5120001271185,新規,0,2024-12-17,2024-12-17,株式会社沐尚,,株式会社,大阪府,大阪市生野区,中川４丁目２－４ホワイトビル３０１号,,27,116,5440005,,,,,,,2024-12-17,1,,,,,モクショウ,0
1034,5120001271202,新規,0,2024-12-17,2024-12-17,株式会社ｓｔａｙ・ｊｏｂ,,株式会社,大阪府,大阪市中央区,上町１丁目２４番７－５０１号,,27,128,5400005,,,,,,,2024-12-17,1,,,,,ステイジョブ,0
1035,5120001271227,新規,0,2024-12-17,2024-12-17,ｐａｗｚｍｅｄｉ　ＪＡＰＡＮ株式会社,,株式会社,大阪府,大阪市中央区,淡路町３丁目５番１３号創建御堂筋ビル２階,,27,128,5410047,,,,,,,2024-12-17,1,,,,,ポーズメディジャパン,0
1038,5120003028162,新規,0,2024-12-17,2024-12-17,合同会社ＭｅｒｉｓｅＣｒｅａｔｅ,,合同会社,大阪府,大阪市西区,南堀江３丁目１６番２１号シエリアタワー大阪堀江３１０６号,,27,106,5500015,,,,,,,2024-12-17,1,,,,,ミライズクリエイト,0
1039,5120003028179,新規,0,2024-12-17,2024-12-17,ＭＢＥＥ合同会社,,合同会社,大阪府,門真市,北巣本町１３番２６号,,27,223,5710073,,,,,,,2024-12-17,1,,,,,エムビー,0
1040,5120005024663,新規,0,2024-12-17,2024-12-17,清掃・コーティング事業協同組合,,その他の設立登記法人,大阪府,大阪市平野区,西脇３丁目５番２号３Ｆ,,27,126,5470035,,,,,,,2024-12-17,1,,,,,セイソウコーティング,0
1041,5120101070776,新規,0,2024-12-17,2024-12-17,板原屋株式会社,,株式会社,大阪府,泉大津市,昭和町８番２２号,,27,206,5950036,,,,,,,2024-12-17,1,,,,,イタバラヤ,0
1049,5122001038746,新規,0,2024-12-17,2024-12-17,株式会社ベストライフメンテナンス,,株式会社,大阪府,大東市,野崎１丁目２９番１８号,,27,218,5740015,,,,,,,2024-12-17,1,,,,,ベストライフメンテナンス,0
1055,5130005017253,新規,0,2024-12-17,2024-12-17,一般社団法人日本中国茶文化国際交流学会,,その他の設立登記法人,京都府,宇治市,菟道池山３５番地の２,00137356,26,204,6110000,,,,,,,2024-12-17,1,,,,,ニホンチュウゴクチャブンカコクサイコウリュウガッカイ,0
1060,5140001136774,新規,0,2024-12-17,2024-12-17,株式会社ＳＦＩ‐Ａｇｇｒｅｇａｔｉｏｎ,,株式会社,兵庫県,神戸市兵庫区,荒田町３丁目１９番２号,,28,105,6520032,,,,,,,2024-12-17,1,,,,,エスエフアイアグリゲイション,0
1063,5140003021421,新規,0,2024-12-17,2024-12-17,合同会社Ｍｉｎｅ,,合同会社,兵庫県,神戸市中央区,磯辺通１丁目１番１８号カサベラ国際プラザビル７０７号室,,28,110,6510084,,,,,,,2024-12-17,1,,,,,マイン,0
1083,5180001164549,新規,0,2024-12-17,2024-12-17,中甚株式会社,,株式会社,愛知県,名古屋市中川区,中郷５丁目１４７番地,,23,110,4540921,,,,,,,2024-12-17,1,,,,,ナカジン,0
1084,5180001164573,新規,0,2024-12-17,2024-12-17,株式会社アドクロス,,株式会社,愛知県,あま市,森１丁目７番地５,,23,237,4901107,,,,,,,2024-12-17,1,,,,,アドクロス,0
1085,5180001164581,新規,0,2024-12-17,2024-12-17,株式会社ＺｅｎｏｖａＸ,,株式会社,愛知県,犬山市,大字犬山字東古券４７０番地１ネオフラッツ１０１,,23,215,4840083,,,,,,,2024-12-17,1,,,,,ゼノヴァックス,0
1086,5180001164607,新規,0,2024-12-17,2024-12-17,葵荷役株式会社,,株式会社,愛知県,名古屋市港区,春田野３丁目１８４６番地,,23,111,4550873,,,,,,,2024-12-17,1,,,,,アオイニヤク,0
1089,5180003027712,新規,0,2024-12-17,2024-12-17,合同会社Ｔｒｅｎｄ‐ＯＮＥ,,合同会社,愛知県,名古屋市中区,錦３丁目１１番２５号アーク栄錦ニュービジネスビル８１９号室,,23,106,4600003,,,,,,,2024-12-17,1,,,,,トレンドワン,0
1090,5180003027753,新規,0,2024-12-17,2024-12-17,合同会社Ｌ．Ｌ,,合同会社,愛知県,一宮市,宮地２丁目１０番７号ミヤチハイツ１Ｆ,,23,203,4910915,,,,,,,2024-12-17,1,,,,,エルエル,0
1091,5180003027761,新規,0,2024-12-17,2024-12-17,合同会社Ｋ企画設計室,,合同会社,愛知県,名古屋市中区,千代田１丁目１０番４号一光ハイツ矢場町１００２号,,23,106,4600012,,,,,,,2024-12-17,1,,,,,ケーキカクセッケイシツ,0
1092,5180301039343,新規,0,2024-12-17,2024-12-17,株式会社あいさ,,株式会社,愛知県,岡崎市,細川町字長根５３番地３,,23,202,4442149,,,,,,,2024-12-17,1,,,,,アイサ,0
1099,5230001020655,新規,0,2024-12-17,2024-12-17,株式会社Ｒａｂｅｅｌ　ｍｏｔｏｒｓ,,株式会社,富山県,射水市,海老江３３４番地,,16,211,9330233,,,,,,,2024-12-17,1,,,,,ラビールモータース,0
1100,5230001020663,新規,0,2024-12-17,2024-12-17,株式会社フーライ,,株式会社,富山県,滑川市,清水町４番４５号,,16,206,9360052,,,,,,,2024-12-17,1,,,,,フーライ,0
1101,5240001064255,新規,0,2024-12-17,2024-12-17,ＡＤＫ電機空調株式会社,,株式会社,広島県,広島市安佐北区,真亀３丁目２番７号,,34,106,7391741,,,,,,,2024-12-17,1,,,,,エーディーケーデンキクウチョウ,0
1102,5240001064263,新規,0,2024-12-17,2024-12-17,ＦＹ株式会社,,株式会社,広島県,福山市,春日町７丁目５－３７－１,,34,207,7210907,,,,,,,2024-12-17,1,,,,,エフワイ,0
1104,5240003006981,新規,0,2024-12-17,2024-12-17,合同会社メビウス,,合同会社,広島県,広島市中区,宝町１０－７光山ビル２０１,,34,101,7300044,,,,,,,2024-12-17,1,,,,,メビウス,0
1106,5240005015865,新規,0,2024-12-17,2024-12-17,一般社団法人尽生,,その他の設立登記法人,広島県,広島市西区,井口５丁目１番９号,,34,104,7330842,,,,,,,2024-12-17,1,,,,,ジンセイ,0
1110,5250001020934,新規,0,2024-12-17,2024-12-17,株式会社Ｔｗｅｌｖｅ,,株式会社,山口県,光市,大字塩田１４５９番地,,35,210,7430101,,,,,,,2024-12-17,1,,,,,トゥエルブ,0
1111,5260005011433,新規,0,2024-12-17,2024-12-17,医療法人社団竹北歯科・矯正歯科クリニック,,その他の設立登記法人,岡山県,玉野市,田井５丁目３番１３号,,33,204,7060001,,,,,,,2024-12-17,1,,,,,タケキタシカキョウセイシカクリニック,0
1112,5280001009314,新規,0,2024-12-17,2024-12-17,株式会社わたしのお家,,株式会社,島根県,鹿足郡吉賀町,抜月４４番地２,,32,505,6995525,,,,,,,2024-12-17,1,,,,,ワタシノオウチ,0
1117,5290001108305,新規,0,2024-12-17,2024-12-17,株式会社ＹＳＧビルディング,,株式会社,福岡県,福岡市中央区,白金１丁目１７－１５－９階,,40,133,8100012,,,,,,,2024-12-17,1,,,,,ワイエスジービルディング,0
1122,5290803004924,新規,0,2024-12-17,2024-12-17,ＡＮＮＡ合同会社,,合同会社,福岡県,田川郡川崎町,大字川崎１４８２－１,,40,605,8270003,,,,,,,2024-12-17,1,,,,,エーエヌエヌエー,0
1129,5340001026996,新規,0,2024-12-17,2024-12-17,株式会社ＲＹＵＫＩリース,,株式会社,鹿児島県,奄美市,名瀬平田町２番９号,,46,222,8940014,,,,,,,2024-12-17,1,,,,,リュウキリース,0
1131,5350001019322,新規,0,2024-12-17,2024-12-17,株式会社ＵＮＩＥＤ,,株式会社,宮崎県,宮崎市,中央通１－１１第１３吉野ビル３階,,45,201,8800002,,,,,,,2024-12-17,1,,,,,ユニード,0
1133,5370001052049,新規,0,2024-12-17,2024-12-17,ｅ‐Ｊｕｄｇｅ株式会社,,株式会社,宮城県,仙台市若林区,中倉３丁目１６番２８号,,04,103,9840821,,,,,,,2024-12-17,1,,,,,イージャッジ,0
1147,5420003003036,新規,0,2024-12-17,2024-12-17,合同会社Ｎ．Ｓ．フード,,合同会社,青森県,三戸郡南部町,大字虎渡字荒屋敷２５番地２,,02,445,0390614,,,,,,,2024-12-17,1,,,,,エヌエスフード,0
1155,5470001020499,新規,0,2024-12-17,2024-12-17,ブレイブ工業株式会社,,株式会社,香川県,高松市,一宮町６４１番地６,,37,201,7618084,,,,,,,2024-12-17,1,,,,,ブレイブコウギョウ,0
1158,5500001026039,新規,0,2024-12-17,2024-12-17,株式会社道後ピクルス,,株式会社,愛媛県,松山市,清水町１丁目３番地８アイビーハイツ１階,,38,201,7900823,,,,,,,2024-12-17,1,,,,,ドウゴピクルス,0
1159,5700150128284,新規,0,2024-12-17,2024-12-17,和光北インター東部地区土地区画整理組合,,その他,埼玉県,和光市,丸山台１丁目１番１４号,,11,229,3510112,,,,,,,2024-12-17,1,,,,,ワコウキタインタートウブチクトチクカクセイリクミアイ,0
1169,6010001250769,新規,0,2024-12-17,2024-12-17,株式会社ＳＪＫ,,株式会社,東京都,中央区,勝どき４丁目１１番１０号レジデンス勝どきＡ３０２号室,,13,102,1040054,,,,,,,2024-12-17,1,,,,,エスジェイケー,0
1170,6010001250793,新規,0,2024-12-17,2024-12-17,株式会社ｄｏｏｒ,,株式会社,東京都,中央区,新川１丁目７番１号天翔オフィス日本橋茅場町３０１,,13,102,1040033,,,,,,,2024-12-17,1,,,,,ドア,0
1171,6010001250819,新規,0,2024-12-17,2024-12-17,株式会社川上,,株式会社,東京都,中央区,銀座３丁目９番７号,,13,102,1040061,,,,,,,2024-12-17,1,,,,,カワカミ,0
1191,6010403034010,新規,0,2024-12-17,2024-12-17,合同会社ｉｆ,,合同会社,東京都,港区,南青山３丁目１番３６号青山丸竹ビル６Ｆ,,13,103,1070062,,,,,,,2024-12-17,1,,,,,アイエフ,0
1192,6010501053333,新規,0,2024-12-17,2024-12-17,ＳＵＭＥＥＲＡＮＧ株式会社,,株式会社,東京都,台東区,下谷１丁目５番２８－１２０２号メインテラス上野,,13,106,1100004,,,,,,,2024-12-17,1,,,,,スメラン,0
1193,6010501053358,新規,0,2024-12-17,2024-12-17,ＯＴＡＳトレード株式会社,,株式会社,東京都,台東区,東上野４丁目２１－７ｔｈｅＵＥＮＯ４０１,,13,106,1100015,,,,,,,2024-12-17,1,,,,,オータストレード,0
1196,6010601066466,新規,0,2024-12-17,2024-12-17,株式会社ＴＡＯＳＹＳ,,株式会社,東京都,墨田区,江東橋４丁目２７－１４楽天地ビル３Ｆ－ＢＩＺｃｏｍｆｏｒｔ錦糸町,,13,107,1300022,,,,,,,2024-12-17,1,,,,,タオシス,0
1197,6010601066474,新規,0,2024-12-17,2024-12-17,ＲＥＮＥＷ株式会社,,株式会社,東京都,墨田区,石原３丁目１９－８ＴＣＲＥ両国１階,,13,107,1300011,,,,,,,2024-12-17,1,,,,,リニュー,0
1204,6011001166278,新規,0,2024-12-17,2024-12-17,株式会社ＺｅｒｏＧｒａｖｉｔｙ,,株式会社,東京都,渋谷区,恵比寿１丁目３２番７号カーサスプレンディッド１００３,,13,113,1500013,,,,,,,2024-12-17,1,,,,,ゼログラビティ,0
1205,6011001166625,新規,0,2024-12-17,2024-12-17,株式会社Ｙｏｕｎｇ　ＤｉＶｉｓｉｏｎ,,株式会社,東京都,渋谷区,道玄坂１丁目１０番８号渋谷道玄坂東急ビル２Ｆ－Ｃ,,13,113,1500043,,,,,,,2024-12-17,1,,,,,ヤングディビジョン,0
1207,6011003020549,新規,0,2024-12-17,2024-12-17,合同会社ＭＣ　ａｓ　ＯＮＥ,,合同会社,東京都,渋谷区,広尾４丁目１番地２５号Ａ６０５,,13,113,1500012,,,,,,,2024-12-17,1,,,,,エムシーアズワン,0
1208,6011003020565,新規,0,2024-12-17,2024-12-17,ＮＴＣ合同会社,,合同会社,東京都,渋谷区,恵比寿西２丁目４番８号ウィンド恵比寿ビル８Ｆ,,13,113,1500021,,,,,,,2024-12-17,1,,,,,エヌティーシー,0
1215,6011601028290,新規,0,2024-12-17,2024-12-17,株式会社ＳＫＰ,,株式会社,東京都,練馬区,豊玉北５丁目２２番１０号,,13,120,1760012,,,,,,,2024-12-17,1,,,,,エスケーピー,0
1217,6011603004546,新規,0,2024-12-17,2024-12-17,合同会社小林電気設備,,合同会社,東京都,練馬区,春日町２丁目２０番９号,,13,120,1790074,,,,,,,2024-12-17,1,,,,,コバヤシデンキセツビ,0
1219,6011701027903,新規,0,2024-12-17,2024-12-17,株式会社ＥｄｕＣｕｌｔｕｒｅ,,株式会社,東京都,江戸川区,松江７丁目２２番２号,,13,123,1320025,,,,,,,2024-12-17,1,,,,,エデュカルチャー,0
1222,6012401042589,新規,0,2024-12-17,2024-12-17,株式会社ＣｏＢＲＥＷ,,株式会社,東京都,武蔵野市,吉祥寺本町１丁目２０番１号吉祥寺永谷シティプラザ１００２,,13,203,1800004,,,,,,,2024-12-17,1,,,,,コブルー,0
1234,6021001084009,新規,0,2024-12-17,2024-12-17,ＳＫ実業株式会社,,株式会社,神奈川県,足柄下郡箱根町,箱根字三島町２０８－２,,14,382,2500521,,,,,,,2024-12-17,1,,,,,エスケージツギョウ,0
1241,6030001163960,新規,0,2024-12-17,2024-12-17,株式会社きれいたす,,株式会社,埼玉県,川越市,元町１丁目８番地３３,,11,201,3500062,,,,,,,2024-12-17,1,,,,,キレイタス,0
1242,6030001163985,新規,0,2024-12-17,2024-12-17,コネクト株式会社,,株式会社,埼玉県,川口市,大字東内野３９４－７,,11,203,3330821,,,,,,,2024-12-17,1,,,,,コネクト,0
1243,6030001163993,新規,0,2024-12-17,2024-12-17,株式会社シド,,株式会社,埼玉県,新座市,畑中１丁目１１番５１号,,11,230,3520012,,,,,,,2024-12-17,1,,,,,シド,0
1244,6030003025713,新規,0,2024-12-17,2024-12-17,合同会社Ｃｉａｏ,,合同会社,埼玉県,八潮市,大字西袋６７０－１２尾形方,,11,234,3400833,,,,,,,2024-12-17,1,,,,,チャオ,0
1248,6040001136560,新規,0,2024-12-17,2024-12-17,株式会社ネオリバー,,株式会社,千葉県,船橋市,南本町６番１２－１０５号,,12,204,2730004,,,,,,,2024-12-17,1,,,,,ネオリバー,0
1252,6040003026405,新規,0,2024-12-17,2024-12-17,合同会社フロックス,,合同会社,千葉県,四街道市,もねの里３丁目２２番１１号（ロイヤルガーデンＣ－１０２）,,12,228,2840016,,,,,,,2024-12-17,1,,,,,フロックス,0
1254,6040005022600,新規,0,2024-12-17,2024-12-17,一般社団法人バスケットボールＬＵＫＥＳ,,その他の設立登記法人,千葉県,千葉市中央区,富士見２丁目７番９号富士見ビル６０９号,,12,101,2600015,,,,,,,2024-12-17,1,,,,,バスケットボールクラブルークス,0
1264,6070001042459,新規,0,2024-12-17,2024-12-17,株式会社パン工房Ｒｉｎｔ．,,株式会社,群馬県,安中市,安中３５２０番地２,,10,211,3790116,,,,,,,2024-12-17,1,,,,,パンコウボウリント,0
1265,6070003005694,新規,0,2024-12-17,2024-12-17,合同会社想い出パートナーズ,,合同会社,群馬県,伊勢崎市,福島町３３２－３,,10,204,3720826,,,,,,,2024-12-17,1,,,,,オモイデパートナーズ,0
1267,6080101025189,新規,0,2024-12-17,2024-12-17,株式会社イマトギ,,株式会社,静岡県,沼津市,新町４,,22,203,4100895,,,,,,,2024-12-17,1,,,,,イマトギ,0
1268,6080103003218,新規,0,2024-12-17,2024-12-17,ＲｅＲｏｏｍ合同会社,,合同会社,静岡県,駿東郡清水町,徳倉５１３－５,,22,341,4110917,,,,,,,2024-12-17,1,,,,,,0
1283,6120001271044,新規,0,2024-12-17,2024-12-17,嶺雲書院株式会社,,株式会社,大阪府,大阪市生野区,新今里５丁目１５番１７ブランシュＩＩ４Ａ号室,00137358,27,116,5440001,,,,,,,2024-12-17,1,,,,,レイウンショイン,0
1284,6120001271110,新規,0,2024-12-17,2024-12-17,楽悠株式会社,,株式会社,大阪府,大阪市中央区,谷町６丁目６番７号第５松屋ビル１０６８号,,27,128,5420012,,,,,,,2024-12-17,1,,,,,ラクユウ,0
1285,6120001271119,新規,0,2024-12-17,2024-12-17,ＴＲＳＰ株式会社,,株式会社,大阪府,大阪市中央区,平野町４丁目６番１２号京音ビルディング南館４Ｆ,,27,128,5410046,,,,,,,2024-12-17,1,,,,,ティーアールエスピー,0
1286,6120001271151,新規,0,2024-12-17,2024-12-17,インフィニティフォース株式会社,,株式会社,大阪府,大阪市中央区,久太郎町４丁目２番１３号,,27,128,5410056,,,,,,,2024-12-17,1,,,,,インフィニティフォース,0
1287,6120001271168,新規,0,2024-12-17,2024-12-17,株式会社ＡｒｔｓｈｏｐＨａｔｈｏｒ,,株式会社,大阪府,大阪市東淀川区,東中島１丁目１７番５号,,27,114,5330033,,,,,,,2024-12-17,1,,,,,アートショップハトル,0
1288,6120001271176,新規,0,2024-12-17,2024-12-17,株式会社ケイペイント,,株式会社,大阪府,大阪市住吉区,万代３丁目１０番３号,,27,120,5580055,,,,,,,2024-12-17,1,,,,,ケイペイント,0
1289,6120001271184,新規,0,2024-12-17,2024-12-17,阪福株式会社,,株式会社,大阪府,大阪市生野区,桃谷３丁目２０番２５号桃谷ハイツ２０４号室,,27,116,5440034,,,,,,,2024-12-17,1,,,,,ハンフク,0
1290,6120001271192,新規,0,2024-12-17,2024-12-17,ＦＵＮ株式会社,,株式会社,大阪府,大阪市阿倍野区,松崎町２丁目３番５号－５０４,,27,119,5450053,,,,,,,2024-12-17,1,,,,,ファン,0
1291,6120001271250,新規,0,2024-12-17,2024-12-17,株式会社ｉｃｏ,,株式会社,大阪府,大阪市中央区,日本橋２丁目２０番１１－７０２号,,27,128,5420073,,,,,,,2024-12-17,1,,,,,イコ,0
1295,6120101070775,新規,0,2024-12-17,2024-12-17,株式会社シーみる,,株式会社,大阪府,堺市北区,長曽根町１３０番地４２,,27,146,5918025,,,,,,,2024-12-17,1,,,,,シーミル,0
1299,6120901050183,新規,0,2024-12-17,2024-12-17,株式会社シバショー,,株式会社,大阪府,豊中市,新千里北町２丁目２６番５号,,27,203,5600081,,,,,,,2024-12-17,1,,,,,シバショー,0
1300,6120903005466,新規,0,2024-12-17,2024-12-17,メディカル未来合同会社,,合同会社,大阪府,豊中市,蛍池北町二丁目３番３２号,,27,203,5600000,,,,,,,2024-12-17,1,,,,,メディカルミライ,0
1314,6140001136757,新規,0,2024-12-17,2024-12-17,Ａｒｔｉｓａｎ　Ｇｅｅｋ株式会社,,株式会社,兵庫県,西宮市,下大市東町１６番２７号,,28,204,6638004,,,,,,,2024-12-17,1,,,,,アルティザンギーク,0
1325,6180001164548,新規,0,2024-12-17,2024-12-17,株式会社Ｍ＆Ｎ企画,,株式会社,愛知県,名古屋市西区,新道２丁目１２番１３号ビバしんみち３０１号,,23,104,4510043,,,,,,,2024-12-17,1,,,,,エムアンドエヌキカク,0
1326,6180001164556,新規,0,2024-12-17,2024-12-17,株式会社ＶＩＲＧＩＮ　ＣＯＮＳＵＬＴＩＮＧ,,株式会社,愛知県,名古屋市中村区,松原町２丁目２１番地,,23,105,4530021,,,,,,,2024-12-17,1,,,,,ヴァージンコンサルティング,0
1327,6180001164564,新規,0,2024-12-17,2024-12-17,株式会社Ｊｅｈａｙ,,株式会社,愛知県,海部郡大治町,大字中島字郷中２５５番,,23,424,4901145,,,,,,,2024-12-17,1,,,,,ジュエ,0
1328,6180001164572,新規,0,2024-12-17,2024-12-17,ミネルヴァスリープ株式会社,,株式会社,愛知県,名古屋市中村区,名駅１丁目１番４号ＪＲセントラルタワーズ５０Ｆ,,23,105,4500002,,,,,,,2024-12-17,1,,,,,ミネルヴァスリープ,0
1329,6180001164580,新規,0,2024-12-17,2024-12-17,ソフィア＆ウェルス株式会社,,株式会社,愛知県,名古屋市昭和区,広路町字南山８７番地南山グランドヒルズ５０６号,,23,107,4660834,,,,,,,2024-12-17,1,,,,,ソフィアアンドウェルス,0
1330,6180001164589,新規,0,2024-12-17,2024-12-17,株式会社エムズ,,株式会社,愛知県,名古屋市西区,枇杷島４丁目２６番２２号,,23,104,4510053,,,,,,,2024-12-17,1,,,,,エムズ,0
1333,6180003027752,新規,0,2024-12-17,2024-12-17,合同会社１０ホールディングス,,合同会社,愛知県,名古屋市昭和区,御器所３丁目１０番５号,,23,107,4660051,,,,,,,2024-12-17,1,,,,,イチマルホールディングス,0
1334,6180003027760,新規,0,2024-12-17,2024-12-17,合同会社Ａ・Ｏ・Ｃ,,合同会社,愛知県,一宮市,浅井町小日比野字山畑１１２７番地８,,23,203,4910104,,,,,,,2024-12-17,1,,,,,エーオーシー,0
1338,6180301039342,新規,0,2024-12-17,2024-12-17,株式会社寺子屋ＭＹ工房,,株式会社,愛知県,豊田市,花園町井田６６番地,,23,211,4730924,,,,,,,2024-12-17,1,,,,,テラコヤマイコウボウ,0
1341,6200001043229,新規,0,2024-12-17,2024-12-17,株式会社朝日えびす不動産,,株式会社,岐阜県,岐阜市,加納神明町１丁目１６番地２,,21,201,5008462,,,,,,,2024-12-17,1,,,,,アサヒエビスフドウサン,0
1342,6200005013698,新規,0,2024-12-17,2024-12-17,アルニー事業協同組合,,その他の設立登記法人,岐阜県,多治見市,虎渓山町７丁目１４番地,,21,204,5070014,,,,,,,2024-12-17,1,,,,,アルニー,0
1344,6220001026355,新規,0,2024-12-17,2024-12-17,株式会社喜多商会,,株式会社,石川県,河北郡内灘町,字向粟崎５丁目１０３番地,,17,365,9200274,,,,,,,2024-12-17,1,,,,,キタショウカイ,0
1345,6220005008911,新規,0,2024-12-17,2024-12-17,特定非営利活動法人一本杉通りの文化遺産を守る会,,その他の設立登記法人,石川県,七尾市,一本杉町３番地,,17,202,9260806,,,,,,,2024-12-17,1,,,,,イッポンスギドオリノブンカイサンヲマモルカイ,0
1346,6230001020662,新規,0,2024-12-17,2024-12-17,ＫＩＤＯベトナム食品販売株式会社,,株式会社,富山県,滑川市,上小泉２６４５‐３,,16,206,9360053,,,,,,,2024-12-17,1,,,,,キドベトナムショクヒンハンバイ,0
1349,6240001064262,新規,0,2024-12-17,2024-12-17,株式会社まつやま,,株式会社,広島県,広島市南区,段原日出１丁目１５番１３号段原スクエア２Ｆ,,34,103,7320818,,,,,,,2024-12-17,1,,,,,マツヤマ,0
1353,6260001039717,新規,0,2024-12-17,2024-12-17,株式会社スズキ自動車グループ,,株式会社,岡山県,倉敷市,真備町尾崎９７４番地２,,33,202,7101304,,,,,,,2024-12-17,1,,,,,スズキジドウシャグループ,0
1354,6260003005007,新規,0,2024-12-17,2024-12-17,合同会社ＳＫＬＩコンサルティング,,合同会社,岡山県,岡山市南区,大福６２１番地９,,33,104,7010204,,,,,,,2024-12-17,1,,,,,エスケーエルアイコンサルティング,0
1361,6290001108246,新規,0,2024-12-17,2024-12-17,株式会社ライフセキュリティ,,株式会社,福岡県,春日市,下白水南５丁目２８－１０２,,40,218,8160846,,,,,,,2024-12-17,1,,,,,ライフセキュリティ,0
1362,6290001108287,新規,0,2024-12-17,2024-12-17,株式会社カビンダ,,株式会社,福岡県,福岡市中央区,天神５丁目９番２号ファミール天神４０７号,,40,133,8100001,,,,,,,2024-12-17,1,,,,,カビンダ,0
1367,6290801031127,新規,0,2024-12-17,2024-12-17,株式会社リノ,,株式会社,福岡県,北九州市小倉南区,下吉田３丁目１４番５号,,40,107,8000203,,,,,,,2024-12-17,1,,,,,リノ,0
1372,6330001032739,新規,0,2024-12-17,2024-12-17,株式会社昇達,,株式会社,熊本県,熊本市北区,植木町滴水７２番１,,43,105,8610133,,,,,,,2024-12-17,1,,,,,ショウタツ,0
1378,6370001052048,新規,0,2024-12-17,2024-12-17,株式会社ＳＯＵＬＳ,,株式会社,宮城県,仙台市青葉区,国分町２丁目１０番１５号,,04,101,9800803,,,,,,,2024-12-17,1,,,,,ソウルズ,0
1379,6370003006860,新規,0,2024-12-17,2024-12-17,ＦＲＵＩＴＵＲＥ　ＷＯＲＫＳ合同会社,,合同会社,宮城県,亘理郡山元町,山寺字涌沢７９番地７ビバリーヒルズＡ棟１０２号,,04,362,9892201,,,,,,,2024-12-17,1,,,,,フルーチャーワークス,0
1382,6380001034994,新規,0,2024-12-17,2024-12-17,株式会社ＫＥＩＺＯ,,株式会社,福島県,郡山市,安積４丁目５９,,07,203,9630107,,,,,,,2024-12-17,1,,,,,ケイゾー,0
1383,6380003005911,新規,0,2024-12-17,2024-12-17,合同会社渡邉商事,,合同会社,福島県,いわき市,平下平窪字鶯内１２１番地,,07,204,9708003,,,,,,,2024-12-17,1,,,,,ワタナベショウジ,0
1393,6430001093267,新規,0,2024-12-17,2024-12-17,株式会社中井興業,,株式会社,北海道,千歳市,末広３丁目７番１６号,,01,224,0660027,,,,,,,2024-12-17,1,,,,,ナカイコウギョウ,0
1395,6430003017083,新規,0,2024-12-17,2024-12-17,Ｉｎｆｉｎｉｔｙ　Ｂｒｉｄｇｅ合同会社,,合同会社,北海道,岩内郡岩内町,字高台３５１－７,,01,402,0450013,,,,,,,2024-12-17,1,,,,,インフィニティブリッジ,0
1402,6490001010919,新規,0,2024-12-17,2024-12-17,株式会社スフィーダＣｏ．,,株式会社,高知県,高知市,弥生町１０番３２号,,39,201,7810803,,,,,,,2024-12-17,1,,,,,,0
1405,6500001026038,新規,0,2024-12-17,2024-12-17,株式会社ｉｃｈｉ．ｆａｃｔｏｒｙ．壱,,株式会社,愛媛県,今治市,本町２丁目１番地２５,,38,202,7940018,,,,,,,2024-12-17,1,,,,,イチファクトリーイチ,0
1408,6700150128283,新規,0,2024-12-17,2024-12-17,ＲＯＲＴＯＳ　Ｓｒｌ,,外国会社等,,,,,,,,Ｖｉａ　ｄｅｌ　Ｐｏｎｔｉｅｒｅ　１１，３７１２２，Ｖｅｒｏｎａ，Ｉｔａｌｙ,,,,,,2024-12-17,1,,,,,ロルトスエスアールエル,0
1413,7010001250660,新規,0,2024-12-17,2024-12-17,海闊株式会社,,株式会社,東京都,文京区,音羽１丁目２３番１２第一晃和堂ビル４２５号室,,13,105,1120013,,,,,,,2024-12-17,1,,,,,カイカツ,0
1416,7010003045811,新規,0,2024-12-17,2024-12-17,悠月ＳＹＳＴＥＭＳ合同会社,,合同会社,東京都,文京区,本郷５丁目１番１１号ＫＩＩＨＯＵＳＥ２０２,,13,105,1130033,,,,,,,2024-12-17,1,,,,,ユヅキシステムズ,0
1428,7010403034026,新規,0,2024-12-17,2024-12-17,合同会社インコ,,合同会社,東京都,港区,南青山３丁目１番３６号,,13,103,1070062,,,,,,,2024-12-17,1,,,,,インコ,0
1429,7010605004396,新規,0,2024-12-17,2024-12-17,一般社団法人豊洲市場観光協会,,その他の設立登記法人,東京都,墨田区,本所４丁目５－７,,13,107,1300004,,,,,,,2024-12-17,1,,,,,トヨスシジョウカンコウキョウカイ,0
1430,7010701046994,新規,0,2024-12-17,2024-12-17,竜粋堂株式会社,,株式会社,東京都,品川区,旗の台３丁目３－２ＣＯＮＴＥＬＨＡＴＡＮＯＤＡＩ１０１,,13,109,1420064,,,,,,,2024-12-17,1,,,,,リュウスイドウ,0
1431,7010705003711,新規,0,2024-12-17,2024-12-17,一般社団法人リアン,,その他の設立登記法人,東京都,品川区,上大崎２丁目１３番３２号,,13,109,1410021,,,,,,,2024-12-17,1,,,,,リアン,0
1439,7011001166327,新規,0,2024-12-17,2024-12-17,株式会社Ｋｃｌｅａｒ,,株式会社,東京都,渋谷区,神宮前４丁目２２番１７号神宮前コートＩＩ３０３,00137353,13,113,1500001,,,,,,,2024-12-17,1,,,,,ケークリア,0
1440,7011001166467,新規,0,2024-12-17,2024-12-17,株式会社ＢＬＵＥ　ＥＬＥＰＨＡＮＴ　ＪＡＰＡＮ,,株式会社,東京都,渋谷区,神宮前３丁目２３番５号Ｔ’ｓ－Ｏｎｅビル,,13,113,1500001,,,,,,,2024-12-17,1,,,,,,0
1441,7011001166533,新規,0,2024-12-17,2024-12-17,株式会社伏見ホールディングス,,株式会社,東京都,渋谷区,恵比寿４丁目２０－３恵比寿ガーデンプレイスタワー１５階,,13,113,1500013,,,,,,,2024-12-17,1,,,,,フシミホールディングス,0
1447,7011301030232,新規,0,2024-12-17,2024-12-17,株式会社Ｕｐｂｅａｔ,,株式会社,東京都,杉並区,松ノ木３丁目２６番１６号,,13,115,1660014,,,,,,,2024-12-17,1,,,,,アップビート,0
1450,7011501031492,新規,0,2024-12-17,2024-12-17,株式会社いろはうた,,株式会社,東京都,荒川区,東日暮里５丁目６番７－８０３号,,13,118,1160014,,,,,,,2024-12-17,1,,,,,イロハウタ,0
1453,7011801045309,新規,0,2024-12-17,2024-12-17,株式会社佳美,,株式会社,東京都,葛飾区,青戸３丁目４０番１３号１０２室,,13,122,1250062,,,,,,,2024-12-17,1,,,,,カミ,0
1454,7012401042563,新規,0,2024-12-17,2024-12-17,株式会社聴きアシスト,,株式会社,東京都,武蔵野市,吉祥寺本町４丁目６番３号Ｓｔａｎｄｕｐ吉祥寺,,13,203,1800004,,,,,,,2024-12-17,1,,,,,キキアシスト,0
1455,7012803003576,新規,0,2024-12-17,2024-12-17,合同会社ｈｉｄａｍａｒｉ　ｔｅａ　ＴＯＫＹＯ,,合同会社,東京都,立川市,錦町１丁目４－４サニービル２ＦＣＳ－２２２,,13,202,1900022,,,,,,,2024-12-17,1,,,,,ヒダマリティートウキョウ,0
1465,7020003027453,新規,0,2024-12-17,2024-12-17,合同会社ビジネスフォワード,,合同会社,神奈川県,横浜市泉区,領家４丁目２０番４号,,14,116,2450004,,,,,,,2024-12-17,1,,,,,ビジネスフォワード,0
1469,7020005016636,新規,0,2024-12-17,2024-12-17,行政書士法人山下事務所,,その他の設立登記法人,神奈川県,川崎市高津区,子母口５０７番地３,,14,134,2130023,,,,,,,2024-12-17,1,,,,,ヤマシタジムショ,0
1471,7021001084024,新規,0,2024-12-17,2024-12-17,ＡＮＪＩＲ株式会社,,株式会社,神奈川県,座間市,相武台３丁目２０－５，ベルハイム相模Ｃ号,,14,216,2520011,,,,,,,2024-12-17,1,,,,,アンジリ,0
1472,7021001084032,新規,0,2024-12-17,2024-12-17,コアインベストメント株式会社,,株式会社,神奈川県,横須賀市,根岸町３丁目１４番２号ヴィラージュ根岸１階,,14,201,2390807,,,,,,,2024-12-17,1,,,,,コアインベストメント,0
1475,7030001163992,新規,0,2024-12-17,2024-12-17,ＧＲＰクラフト株式会社,,株式会社,埼玉県,さいたま市緑区,大字中尾３２６番地１ヴェルテマレ２０１,,11,109,3360932,,,,,,,2024-12-17,1,,,,,ジーアールピークラフト,0
1476,7030001164000,新規,0,2024-12-17,2024-12-17,ＢＨＴＰ株式会社,,株式会社,埼玉県,草加市,新栄１丁目５４番地１４コーポ清光２０１号,,11,221,3400056,,,,,,,2024-12-17,1,,,,,ビーエイチティーピー,0
1481,7030003025679,新規,0,2024-12-17,2024-12-17,合同会社レベル,,合同会社,埼玉県,東松山市,あずま町２丁目２１番地３７,,11,212,3550048,,,,,,,2024-12-17,1,,,,,レベル,0
1485,7040001136584,新規,0,2024-12-17,2024-12-17,株式会社リプロダクション,,株式会社,千葉県,松戸市,六実６丁目１３番地の３９,,12,207,2702204,,,,,,,2024-12-17,1,,,,,リプロダクション,0
1489,7040003026395,新規,0,2024-12-17,2024-12-17,合同会社クレスト,,合同会社,千葉県,袖ケ浦市,長浦１２番地３,,12,229,2990265,,,,,,,2024-12-17,1,,,,,クレスト,0
1494,7070001042458,新規,0,2024-12-17,2024-12-17,株式会社群馬ワカサギ会,,株式会社,群馬県,前橋市,下小出町３丁目２０番地９,,10,201,3710031,,,,,,,2024-12-17,1,,,,,グンマワカサギカイ,0
1502,7080401027628,新規,0,2024-12-17,2024-12-17,株式会社ＪＰトレーディング,,株式会社,静岡県,磐田市,向笠西４８３番地１,,22,211,4380014,,,,,,,2024-12-17,1,,,,,ジェイピートレーディング,0
1523,7120001271118,新規,0,2024-12-17,2024-12-17,永吉株式会社,,株式会社,大阪府,大阪市浪速区,大国１丁目９－１３－３０１Ａ,,27,111,5560014,,,,,,,2024-12-17,1,,,,,ナガヨシ,0
1524,7120001271150,新規,0,2024-12-17,2024-12-17,福田不動産株式会社,,株式会社,大阪府,大阪市淀川区,三津屋北２丁目１１番８－３０３号,,27,123,5320032,,,,,,,2024-12-17,1,,,,,フクダフドウサン,0
1525,7120001271191,新規,0,2024-12-17,2024-12-17,株式会社一路,,株式会社,大阪府,大阪市福島区,福島７丁目１７番１１号,,27,103,5530003,,,,,,,2024-12-17,1,,,,,イチロ,0
1528,7120003028160,新規,0,2024-12-17,2024-12-17,合同会社ｋａｉｔｏ,,合同会社,大阪府,大阪市旭区,新森７丁目８番３０－７０６号,,27,117,5350022,,,,,,,2024-12-17,1,,,,,カイト,0
1533,7120101070766,新規,0,2024-12-17,2024-12-17,株式会社グランド,,株式会社,大阪府,富田林市,楠風台２丁目２番１２号,,27,214,5840051,,,,,,,2024-12-17,1,,,,,グランド,0
1534,7120103006198,新規,0,2024-12-17,2024-12-17,合同会社ＨｉｓｕｉＣｒｅａｔｉｏｎ,,合同会社,大阪府,松原市,天美東５丁目２番５号,,27,217,5800032,,,,,,,2024-12-17,1,,,,,ヒスイクリエイション,0
1546,7130001078611,新規,0,2024-12-17,2024-12-17,西貝株式会社,,株式会社,京都府,京都市中京区,柳馬場通御池上る虎石町４３番地ロイヤルコート柳馬場７０３,,26,104,6040955,,,,,,,2024-12-17,1,,,,,ニシガイ,0
1551,7140001136748,新規,0,2024-12-17,2024-12-17,えにしＨＤ株式会社,,株式会社,兵庫県,南あわじ市,神代國衙５４番地１,,28,224,6560455,,,,,,,2024-12-17,1,,,,,エニシホールディングス,0
1556,7140005027308,新規,0,2024-12-17,2024-12-17,医療法人ながいキッズクリニック,,その他の設立登記法人,兵庫県,宝塚市,川面４丁目１番５５号,,28,214,6650842,,,,,,,2024-12-17,1,,,,,ナガイキッズクリニック,0
1557,7150001027756,新規,0,2024-12-17,2024-12-17,株式会社ＡＲＩＯ製作所,,株式会社,奈良県,桜井市,大字三輪６５番地の１０,,29,206,6330001,,,,,,,2024-12-17,1,,,,,アリオセイサクショ,0
1561,7160001026419,新規,0,2024-12-17,2024-12-17,ＬＡＮＩＡＫＥＡ株式会社,,株式会社,滋賀県,栗東市,小柿７丁目８番１１号,,25,208,5203024,,,,,,,2024-12-17,1,,,,,ラニアケア,0
1569,7180001164555,新規,0,2024-12-17,2024-12-17,株式会社ｎｎｎ２,,株式会社,愛知県,名古屋市中村区,名駅４丁目２４番５号第２森ビル４０１,,23,105,4500002,,,,,,,2024-12-17,1,,,,,エヌエヌエヌツー,0
1570,7180001164571,新規,0,2024-12-17,2024-12-17,株式会社ＤｅａｒＴｏ,,株式会社,愛知県,名古屋市中区,金山１丁目１４－１６トキワビル５Ｆ,,23,106,4600022,,,,,,,2024-12-17,1,,,,,ディアトゥー,0
1571,7180001164596,新規,0,2024-12-17,2024-12-17,株式会社エル・クラシコ,,株式会社,愛知県,西春日井郡豊山町,大字青山１８３９番地,,23,342,4800201,,,,,,,2024-12-17,1,,,,,エルクラシコ,0
1580,7220003003913,新規,0,2024-12-17,2024-12-17,合同会社Ｃ３,,合同会社,石川県,輪島市,河井町２０部１番地４０,,17,204,9280001,,,,,,,2024-12-17,1,,,,,シースリー,0
1587,7240001064261,新規,0,2024-12-17,2024-12-17,株式会社シトラス,,株式会社,広島県,尾道市,因島田熊町１０９９番地,,34,205,7222324,,,,,,,2024-12-17,1,,,,,シトラス,0
1593,7260001039716,新規,0,2024-12-17,2024-12-17,株式会社オガテック,,株式会社,岡山県,倉敷市,連島町鶴新田５０８番地２,,33,202,7128006,,,,,,,2024-12-17,1,,,,,オガテック,0
1594,7280001009312,新規,0,2024-12-17,2024-12-17,株式会社善,,株式会社,島根県,飯石郡飯南町,下赤名２４番地１,,32,386,6903513,,,,,,,2024-12-17,1,,,,,ゼン,0
1603,7290003016181,新規,0,2024-12-17,2024-12-17,しなのエフエムエム合同会社,,合同会社,福岡県,久留米市,上津町２２２８番地１６０２,,40,203,8300052,,,,,,,2024-12-17,1,,,,,シナノエフエムエム,0
1605,7290803004922,新規,0,2024-12-17,2024-12-17,合同会社ピナリ,,合同会社,福岡県,北九州市小倉北区,緑ケ丘２丁目６番２３号メゾン緑ケ丘２－２０６号,,40,106,8030827,,,,,,,2024-12-17,1,,,,,ピナリ,0
1607,7290805009787,新規,0,2024-12-17,2024-12-17,ＮＰＯ法人ファミリーケアこあらのおうち,,その他の設立登記法人,福岡県,北九州市小倉南区,八重洲町８番１１号,,40,107,8020831,,,,,,,2024-12-17,1,,,,,ファミリーケアコアラノオウチ,0
1617,7340005009797,新規,0,2024-12-17,2024-12-17,社会福祉法人なないろ会,,その他の設立登記法人,鹿児島県,鹿児島市,谷山中央４丁目４９５９番地,,46,201,8910141,,,,,,,2024-12-17,1,,,,,ナナイロカイ,0
1622,7370001052047,新規,0,2024-12-17,2024-12-17,株式会社縁栄社,,株式会社,宮城県,仙台市青葉区,上杉４丁目２番２５号プライム上杉３０１号,,04,101,9800011,,,,,,,2024-12-17,1,,,,,エンエイシャ,0
1630,7380001034993,新規,0,2024-12-17,2024-12-17,敬神工業株式会社,,株式会社,福島県,いわき市,常磐岩ケ岡町台４１番地,,07,204,9728313,,,,,,,2024-12-17,1,,,,,ケイシンコウギョウ,0
1639,7430001093274,新規,0,2024-12-17,2024-12-17,株式会社モバルド,,株式会社,北海道,札幌市中央区,大通西９丁目３－３３－４０５号室,,01,101,0600042,,,,,,,2024-12-17,1,,,,,モバルド,0
1640,7450001014468,新規,0,2024-12-17,2024-12-17,株式会社大前農園,,株式会社,北海道,雨竜郡北竜町,字板谷５１番地１,,01,437,0782511,,,,,,,2024-12-17,1,,,,,オオマエノウエン,0
1645,7700150128282,新規,0,2024-12-17,2024-12-17,Ｈｉｇｈｌａｎｄ　Ｆｉｎａｎｃｉａｌ　Ｇｒｏｕｐ　Ｌｉｍｉｔｅｄ,,外国会社等,,,,,,,,Ｒｏｏｍ　Ｄ，１０／Ｆ，Ｔｏｗｅｒ　Ａ　Ｂｉｌｌｉｏｎ　Ｃｅｎｔｒｅ，Ｉ　Ｗａｎ　Ｋｗｏｎｇ　Ｒｏａｄ，Ｋｏｗｌｏｏｎ　Ｂａｙ，Ｈｏｎｇ　Ｋｏｎｇ,,,,,,2024-12-17,1,,,,,ハイランドフアイナンシヤルグループリミテツド,0
1655,8010003045802,新規,0,2024-12-17,2024-12-17,合同会社Ａｍａｎｄａ　Ｂｅｃｋｅｒ,,合同会社,東京都,中央区,日本橋１丁目２番１０号東洋ビルディング６階,,13,102,1030027,,,,,,,2024-12-17,1,,,,,アマンダベッカー,0
1656,8010003045810,新規,0,2024-12-17,2024-12-17,ダーウィン合同会社,,合同会社,東京都,中央区,銀座１丁目１２－４Ｎ＆ＥＢＬＤ．７階,,13,102,1040061,,,,,,,2024-12-17,1,,,,,ダーウィン,0
1663,8010501053356,新規,0,2024-12-17,2024-12-17,株式会社アジール,,株式会社,東京都,台東区,入谷２丁目１番３号フィルパーク入谷３Ｆ,,13,106,1100013,,,,,,,2024-12-17,1,,,,,アジール,0
1665,8010601066464,新規,0,2024-12-17,2024-12-17,ＭＥＩＫＵ株式会社,,株式会社,東京都,江東区,大島２丁目３０番４－４０５号,,13,108,1360072,,,,,,,2024-12-17,1,,,,,メイク,0
1674,8011001166516,新規,0,2024-12-17,2024-12-17,株式会社リンクコスメティックス,,株式会社,東京都,渋谷区,渋谷３丁目６番１６号エメラルドアオキビル６０２,,13,113,1500002,,,,,,,2024-12-17,1,,,,,リンクコスメティックス,0
1675,8011001166557,新規,0,2024-12-17,2024-12-17,株式会社４ＹＮ,,株式会社,東京都,渋谷区,渋谷２丁目１０番６号山田青山ビル３Ｆ,,13,113,1500002,,,,,,,2024-12-17,1,,,,,ヨンワイエヌ,0
1676,8011003020539,新規,0,2024-12-17,2024-12-17,合同会社ＭＴＳＭ,,合同会社,東京都,渋谷区,渋谷２丁目１９－１５宮益坂ビルディング６０９,,13,113,1500002,,,,,,,2024-12-17,1,,,,,エムティーエスエム,0
1677,8011003020555,新規,0,2024-12-17,2024-12-17,合同会社イエガモ,,合同会社,東京都,渋谷区,道玄坂１丁目１６－６二葉ビル８ｂ,,13,113,1500043,,,,,,,2024-12-17,1,,,,,イエガモ,0
1678,8011005010819,新規,0,2024-12-17,2024-12-17,一般社団法人Ｊａｐａｎ　Ｓｐａｃｅ　ＩＳＡＣ,,その他の設立登記法人,東京都,渋谷区,神南１丁目１１－４,,13,113,1500041,,,,,,,2024-12-17,1,,,,,ジャパンスペースアイザック,0
1681,8011301030231,新規,0,2024-12-17,2024-12-17,株式会社Ｋ２Ｉ,,株式会社,東京都,杉並区,宮前４丁目９番２３号,,13,115,1680081,,,,,,,2024-12-17,1,,,,,ケイトゥアイ,0
1684,8011503006335,新規,0,2024-12-17,2024-12-17,合同会社ワークライフヘルスケア,,合同会社,東京都,荒川区,南千住７丁目１番１号ブランズタワー南千住２７０４,,13,118,1160003,,,,,,,2024-12-17,1,,,,,ワークライフヘルスケア,0
1685,8011601028289,新規,0,2024-12-17,2024-12-17,株式会社ビルドオン,,株式会社,東京都,練馬区,高野台１丁目２－２９,,13,120,1770033,,,,,,,2024-12-17,1,,,,,ビルドオン,0
1691,8011801045332,新規,0,2024-12-17,2024-12-17,株式会社ワールドプラス,,株式会社,東京都,足立区,鹿浜３丁目３番１７号,,13,121,1230864,,,,,,,2024-12-17,1,,,,,ワールドプラス,0
1693,8011803006596,新規,0,2024-12-17,2024-12-17,合同会社かぶら矢,,合同会社,東京都,葛飾区,東金町５丁目１５番１号,,13,122,1250041,,,,,,,2024-12-17,1,,,,,カブラヤ,0
1696,8012401042587,新規,0,2024-12-17,2024-12-17,Ｖｏｏ株式会社,,株式会社,東京都,小金井市,中町２丁目１７番１０－２１１号ステラガーデン武蔵小金井,,13,210,1840012,,,,,,,2024-12-17,1,,,,,ブー,0
1706,8020001160619,新規,0,2024-12-17,2024-12-17,株式会社Ｆｉｄｕｃｉａ．,,株式会社,神奈川県,横浜市瀬谷区,三ツ境１１３番地８ブルーベリーハウス３０２,,14,114,2460022,,,,,,,2024-12-17,1,,,,,フィデュシア,0
1707,8020001160627,新規,0,2024-12-17,2024-12-17,株式会社ＫＳＴ,,株式会社,神奈川県,横浜市磯子区,岡村８丁目１番２４－４０１号,,14,107,2350021,,,,,,,2024-12-17,1,,,,,ケーエスティー,0
1711,8020005016643,新規,0,2024-12-17,2024-12-17,医療法人社団健聖会,,その他の設立登記法人,神奈川県,横浜市旭区,今宿１丁目２７番３号２階,,14,112,2410817,,,,,,,2024-12-17,1,,,,,ケンセイカイ,0
1713,8021001084007,新規,0,2024-12-17,2024-12-17,角沢建設株式会社,,株式会社,神奈川県,相模原市緑区,橋本４丁目１４番３号,,14,151,2520143,,,,,,,2024-12-17,1,,,,,スミサワケンセツ,0
1714,8021001084015,新規,0,2024-12-17,2024-12-17,モビリティパーク株式会社,,株式会社,神奈川県,藤沢市,本町１丁目１番３２号,,14,205,2510053,,,,,,,2024-12-17,1,,,,,モビリティパーク,0
1726,8040001136575,新規,0,2024-12-17,2024-12-17,先端電子技術株式会社,,株式会社,千葉県,印西市,牧の原５丁目３００番地１６,,12,231,2701331,,,,,,,2024-12-17,1,,,,,センタンデンシギジュツ,0
1735,8070005010336,新規,0,2024-12-17,2024-12-17,一般社団法人あんなか学童つくしクラブ,,その他の設立登記法人,群馬県,安中市,安中３丁目１０番４３－２号,,10,211,3790116,,,,,,,2024-12-17,1,,,,,アンナカガクドウツクシクラブ,0
1740,8090001019049,新規,0,2024-12-17,2024-12-17,ＳＹＳＴＥＭＩＳＴ株式会社,,株式会社,山梨県,北杜市,大泉町西井出８２４０－８４２１ガーデンハウス石堂１０３号室,,19,209,4091501,,,,,,,2024-12-17,1,,,,,システミスト,0
1753,8120001271059,新規,0,2024-12-17,2024-12-17,五陽株式会社,,株式会社,大阪府,大阪市中央区,本町橋６－１９－８０３号室,,27,128,5400029,,,,,,,2024-12-17,1,,,,,ゴヨウ,0
1754,8120001271125,新規,0,2024-12-17,2024-12-17,株式会社ＩＰＰＯ,,株式会社,大阪府,大阪市北区,豊崎３丁目１４番１８号野口ビル３Ｆ,,27,127,5310072,,,,,,,2024-12-17,1,,,,,アイピーピーオー,0
1757,8120003028176,新規,0,2024-12-17,2024-12-17,合同会社ＤＹＮ１,,合同会社,大阪府,大阪市阿倍野区,北畠１丁目８番３３号ＳｅｒｅｎａＶｉｌｌａ２０１,,27,119,5450035,,,,,,,2024-12-17,1,,,,,ディワイエヌワン,0
1758,8120003028184,新規,0,2024-12-17,2024-12-17,合同会社ＣＲＭ,,合同会社,大阪府,大阪市浪速区,日本橋４丁目１５番１号３Ｆ,,27,111,5560005,,,,,,,2024-12-17,1,,,,,シーアールエム,0
1759,8120005024660,新規,0,2024-12-17,2024-12-17,一般社団法人Ｑｕｅｒｃｕｓ　Ａｓｓｏｃｉａｔｉｏｎ,,その他の設立登記法人,大阪府,大阪市城東区,東中浜６丁目１番２５号,,27,118,5360023,,,,,,,2024-12-17,1,,,,,クエルクスアソシエーション,0
1776,8140001136714,新規,0,2024-12-17,2024-12-17,サン・ライズ株式会社,,株式会社,兵庫県,西宮市,川東町７－１２－１０１,,28,204,6620945,,,,,,,2024-12-17,1,,,,,サンライズ,0
1777,8140001136730,新規,0,2024-12-17,2024-12-17,株式会社テックエフティ,,株式会社,兵庫県,神戸市東灘区,住吉南町１丁目１２番５－８０２号,,28,101,6580041,,,,,,,2024-12-17,1,,,,,テックエフティ,0
1778,8140001136747,新規,0,2024-12-17,2024-12-17,株式会社友志舎,,株式会社,兵庫県,神戸市東灘区,御影本町２丁目１番１７号,,28,101,6580046,,,,,,,2024-12-17,1,,,,,ユウシシャ,0
1779,8140001136763,新規,0,2024-12-17,2024-12-17,株式会社ＬＩＪ,,株式会社,兵庫県,西宮市,平木町９番５－１０３号,,28,204,6620835,,,,,,,2024-12-17,1,,,,,エルアイジェイ,0
1785,8150001027755,新規,0,2024-12-17,2024-12-17,株式会社安田木材,,株式会社,奈良県,生駒市,小瀬町７２７番地,,29,209,6300223,,,,,,,2024-12-17,1,,,,,ヤスダモクザイ,0
1788,8160001026418,新規,0,2024-12-17,2024-12-17,株式会社池永工業,,株式会社,滋賀県,草津市,東草津４丁目２番５５号,,25,206,5250033,,,,,,,2024-12-17,1,,,,,イケナガコウギョウ,0
1791,8170001018414,新規,0,2024-12-17,2024-12-17,株式会社拓建設,,株式会社,和歌山県,海草郡紀美野町,福田１２５番地１,,30,304,6401244,,,,,,,2024-12-17,1,,,,,タクケンセツ,0
1798,8180001164562,新規,0,2024-12-17,2024-12-17,株式会社ＧＦｓｏｌｕｔｉｏｎｓ,,株式会社,愛知県,名古屋市中村区,名駅４丁目８－２６,,23,105,4500002,,,,,,,2024-12-17,1,,,,,ジーエフソリューションズ,0
1799,8180001164604,新規,0,2024-12-17,2024-12-17,株式会社Ｓｔｙｌｅｓ‐ｓｙｓｔｅｍ,,株式会社,愛知県,名古屋市守山区,幸心３丁目６０１番地,,23,113,4630079,,,,,,,2024-12-17,1,,,,,スタイレスシステム,0
1802,8180003027759,新規,0,2024-12-17,2024-12-17,合同会社ＨＭＫ,,合同会社,愛知県,一宮市,大和町妙興寺字坊ケ池１番地１,,23,203,4910922,,,,,,,2024-12-17,1,,,,,エイチエムケイ,0
1803,8180301039340,新規,0,2024-12-17,2024-12-17,株式会社ｅｉｇｈｔ,,株式会社,愛知県,岡崎市,赤渋町字寺前７番地８,,23,202,4440241,,,,,,,2024-12-17,1,,,,,エイト,0
1809,8240001064252,新規,0,2024-12-17,2024-12-17,株式会社モアブック,,株式会社,広島県,広島市中区,銀山町１１番２０号,,34,101,7300022,,,,,,,2024-12-17,1,,,,,モアブック,0
1810,8240001064269,新規,0,2024-12-17,2024-12-17,株式会社クラウドサーフ,,株式会社,広島県,広島市安芸区,矢野西４丁目１３番７号,,34,107,7360085,,,,,,,2024-12-17,1,,,,,クラウドサーフ,0
1817,8270003001696,新規,0,2024-12-17,2024-12-17,合同会社穏健,,合同会社,鳥取県,日野郡日南町,宮内３４１番地,,31,401,6895216,,,,,,,2024-12-17,1,,,,,オンケン,0
1830,8290003016180,新規,0,2024-12-17,2024-12-17,合同会社種火,,合同会社,福岡県,大川市,大字大野島１０２２－１,,40,212,8310045,,,,,,,2024-12-17,1,,,,,タネビ,0
1836,8300003002212,新規,0,2024-12-17,2024-12-17,合同会社ポポラスベリー,,合同会社,佐賀県,佐賀市,高木瀬西４丁目１７番３号,,41,201,8490921,,,,,,,2024-12-17,1,,,,,ポポラスベリー,0
1837,8310001019364,新規,0,2024-12-17,2024-12-17,株式会社ファーストステップ,,株式会社,長崎県,佐世保市,原分町４５２番地７,,42,202,8570103,,,,,,,2024-12-17,1,,,,,ファーストステップ,0
1846,8340003004691,新規,0,2024-12-17,2024-12-17,合同会社ｒｅｃｉｆｅ,,合同会社,鹿児島県,日置市,日吉町神之川６４８番地,,46,216,8992421,,,,,,,2024-12-17,1,,,,,レシフェ,0
1851,8360001034549,新規,0,2024-12-17,2024-12-17,株式会社ｉＷｅｌｌｎｅｓｓ,,株式会社,沖縄県,中頭郡中城村,字南上原１０８５番地１サンクレスト南上原３０１号,,47,328,9012424,,,,,,,2024-12-17,1,,,,,アイウェルネス,0
1854,8370003006859,新規,0,2024-12-17,2024-12-17,合同会社Ｍｏｂｓｔａｒ,,合同会社,宮城県,多賀城市,新田字南関合３６－８メゾンリバーサイドＫＩＩＩ．１０３,00137350,04,209,9850854,,,,,,,2024-12-17,1,,,,,モブスター,0
1862,8410005006613,新規,0,2024-12-17,2024-12-17,医療法人Ｐｒｏｇｒｅｓｓ,,その他の設立登記法人,秋田県,秋田市,広面字糠塚６７番地３,,05,201,0100041,,,,,,,2024-12-17,1,,,,,プログレス,0
1865,8430001093273,新規,0,2024-12-17,2024-12-17,長澤工業株式会社,,株式会社,北海道,滝川市,滝の川町西５丁目１番２４号,,01,225,0730003,,,,,,,2024-12-17,1,,,,,ナガサワコウギョウ,0
1869,8460001005960,新規,0,2024-12-17,2024-12-17,株式会社Ｎベース,,株式会社,北海道,釧路市,文苑２丁目３１番１６号,,01,206,0850063,,,,,,,2024-12-17,1,,,,,エヌベース,0
1872,8470003002773,新規,0,2024-12-17,2024-12-17,合同会社Ｒｅｊｏｉｃｅ,,合同会社,香川県,高松市,川部町６１９－３オレンジルーフＡ１０２,,37,201,7618046,,,,,,,2024-12-17,1,,,,,リジョイス,0
1881,9010001250766,新規,0,2024-12-17,2024-12-17,株式会社ＡＬＬ　ＭＡＴＥＲＩＡＬ,,株式会社,東京都,中央区,日本橋室町１丁目１１番１２号日本橋永野ビル７階,,13,102,1030022,,,,,,,2024-12-17,1,,,,,オールマテリアル,0
1893,9010403034032,新規,0,2024-12-17,2024-12-17,ＢｅＦｕｎｎｉｎｇ合同会社,,合同会社,東京都,港区,港南４丁目６番４－１５０１号,,13,103,1080075,,,,,,,2024-12-17,1,,,,,ビーファニング,0
1907,9011001166119,新規,0,2024-12-17,2024-12-17,和宏株式会社,,株式会社,東京都,渋谷区,富ヶ谷１丁目１４番１４号３階,,13,113,1510063,,,,,,,2024-12-17,1,,,,,ワコウ,0
1908,9011001166250,新規,0,2024-12-17,2024-12-17,株式会社ルクスリンク,,株式会社,東京都,渋谷区,神宮前６丁目２８－９－５階,,13,113,1500001,,,,,,,2024-12-17,1,,,,,ルクスリンク,0
1909,9011001166275,新規,0,2024-12-17,2024-12-17,株式会社ルナクレセンテ,,株式会社,東京都,渋谷区,千駄ヶ谷４丁目１３－７,,13,113,1510051,,,,,,,2024-12-17,1,,,,,ルナクレセンテ,0
1910,9011001166341,新規,0,2024-12-17,2024-12-17,ＣＳ　ＨＯＬＤＩＮＧＳ株式会社,,株式会社,東京都,渋谷区,神宮前１丁目６番８号,,13,113,1500001,,,,,,,2024-12-17,1,,,,,シーエスホールディングス,0
1915,9011401026649,新規,0,2024-12-17,2024-12-17,エス・エル・エー株式会社,,株式会社,東京都,板橋区,成増１丁目３６番１－６２５号,,13,119,1750094,,,,,,,2024-12-17,1,,,,,エスエルエー,0
1918,9011601028288,新規,0,2024-12-17,2024-12-17,株式会社ファクトゥス・フルール,,株式会社,東京都,練馬区,高松４丁目１４番８号,,13,120,1790075,,,,,,,2024-12-17,1,,,,,ファクトゥスフルール,0
1921,9011801045307,新規,0,2024-12-17,2024-12-17,株式会社御隼貿易,,株式会社,東京都,足立区,新田３丁目２９－１－４１０,,13,121,1230865,,,,,,,2024-12-17,1,,,,,ミジュンボウエキ,0
1925,9012401042578,新規,0,2024-12-17,2024-12-17,株式会社Ｗ,,株式会社,東京都,府中市,四谷６丁目１７番地の４２ＭＷビル１階,,13,206,1830035,,,,,,,2024-12-17,1,,,,,ダブリュー,0
1934,9013301053541,新規,0,2024-12-17,2024-12-17,株式会社Ｒｅｖｉｖ,,株式会社,東京都,豊島区,南大塚２丁目３８番１号６階,,13,116,1700005,,,,,,,2024-12-17,1,,,,,リヴァイヴ,0
1940,9020003027402,新規,0,2024-12-17,2024-12-17,合同会社Ｍｌｉｅｎ,,合同会社,神奈川県,横浜市神奈川区,広台太田町５－１,,14,102,2210824,,,,,,,2024-12-17,1,,,,,リアン,0
1942,9021001084014,新規,0,2024-12-17,2024-12-17,株式会社ＴＡＭＡＫＩ,,株式会社,神奈川県,藤沢市,本鵠沼２丁目２０番１５号,,14,205,2510028,,,,,,,2024-12-17,1,,,,,タマキ,0
1943,9021001084022,新規,0,2024-12-17,2024-12-17,株式会社廣瀬,,株式会社,神奈川県,藤沢市,石川１丁目７番地の１１,,14,205,2520815,,,,,,,2024-12-17,1,,,,,ヒロセ,0
1944,9021005013241,新規,0,2024-12-17,2024-12-17,一般社団法人湘南イスラーム文化センター,,その他の設立登記法人,神奈川県,茅ヶ崎市,芹沢１４４１番地１１,,14,207,2530008,,,,,,,2024-12-17,1,,,,,ショウナンイスラームブンカセンター,0
1950,9030001163990,新規,0,2024-12-17,2024-12-17,日本宏延株式会社,,株式会社,埼玉県,さいたま市浦和区,針ヶ谷１丁目１番３号,,11,107,3300075,,,,,,,2024-12-17,1,,,,,ニホンコウエン,0
1952,9030003025685,新規,0,2024-12-17,2024-12-17,みらい建設合同会社,,合同会社,埼玉県,入間市,豊岡１丁目３番２５号半田ビル３階ＫＩＶオフィス入間Ｉ号室,,11,225,3580003,,,,,,,2024-12-17,1,,,,,ミライケンセツ,0
1953,9030003025710,新規,0,2024-12-17,2024-12-17,合同会社ＭＩＮＥＣ,,合同会社,埼玉県,志木市,柏町１丁目２５番１９－２号,,11,228,3530007,,,,,,,2024-12-17,1,,,,,マイネス,0
1963,9040003026393,新規,0,2024-12-17,2024-12-17,合同会社マハロ,,合同会社,千葉県,旭市,江ケ崎１６８番地１,,12,215,2892503,,,,,,,2024-12-17,1,,,,,マハロ,0
1964,9050003008886,新規,0,2024-12-17,2024-12-17,ＣＯＭＩＦＵＬＬ合同会社,,合同会社,茨城県,稲敷郡美浦村,大字土屋１９７２－７３１,,08,442,3000426,,,,,,,2024-12-17,1,,,,,コミフル,0
1965,9060001037738,新規,0,2024-12-17,2024-12-17,株式会社ｔｏｙｏ,,株式会社,栃木県,日光市,板橋６３４番地１９,,09,206,3211102,,,,,,,2024-12-17,1,,,,,トヨ,0
1969,9080103003215,新規,0,2024-12-17,2024-12-17,オールブルー合同会社,,合同会社,静岡県,熱海市,下多賀１６３６－２９,,22,205,4130102,,,,,,,2024-12-17,1,,,,,,0
1970,9080401027626,新規,0,2024-12-17,2024-12-17,アイテックホールディングス株式会社,,株式会社,静岡県,磐田市,南田伊兵衛新田３５番地の１,,22,211,4371218,,,,,,,2024-12-17,1,,,,,アイテックホールディングス,0
1972,9090001019048,新規,0,2024-12-17,2024-12-17,プロスキル株式会社,,株式会社,山梨県,中巨摩郡昭和町,西条５１０５番地２０１,,19,384,4093866,,,,,,,2024-12-17,1,,,,,,0
1990,9120001271082,新規,0,2024-12-17,2024-12-17,美瑞泰株式会社,,株式会社,大阪府,大阪市西区,江戸堀１丁目２３－１３肥後橋ビル３号館１２０１－Ｇ,,27,106,5500002,,,,,,,2024-12-17,1,,,,,ミズタイ,0
1991,9120001271090,新規,0,2024-12-17,2024-12-17,ＫＡＮＳＨＡジャパン株式会社,,株式会社,大阪府,大阪市中央区,南本町１丁目２番５号マヤ第２ビル,,27,128,5410054,,,,,,,2024-12-17,1,,,,,カンシャジャパン,0
1992,9120001271149,新規,0,2024-12-17,2024-12-17,株式会社プラザメディカルホールディングス,,株式会社,大阪府,大阪市北区,堂島１丁目５番１７号,,27,127,5300003,,,,,,,2024-12-17,1,,,,,プラザメディカルホールディングス,0
1993,9120001271165,新規,0,2024-12-17,2024-12-17,株式会社Ｗ,,株式会社,大阪府,大阪市中央区,谷町７丁目２－７ＲＥＩＯＳ谷町３０２号室,,27,128,5420012,,,,,,,2024-12-17,1,,,,,ダブル,0
1994,9120001271173,新規,0,2024-12-17,2024-12-17,Ｃｈｅｅｒ　Ｐｒａｉｓｅ株式会社,,株式会社,大阪府,大阪市城東区,放出西１丁目２番５９－１００１号,,27,118,5360011,,,,,,,2024-12-17,1,,,,,チアプレイズ,0
1997,9120003028126,新規,0,2024-12-17,2024-12-17,ＡＥＲＯＬＩＴＨＥ合同会社,,合同会社,大阪府,大阪市北区,梅田１丁目２番２号大阪駅前第２ビル１２－１２,,27,127,5300001,,,,,,,2024-12-17,1,,,,,アエロリット,0
1998,9120003028167,新規,0,2024-12-17,2024-12-17,ジェーアイエヌ合同会社,,合同会社,大阪府,大阪市福島区,福島１丁目７番１０号,,27,103,5530003,,,,,,,2024-12-17,1,,,,,ジェーアイエヌ,0
2005,9120901050131,新規,0,2024-12-17,2024-12-17,Ｃ‐Ｓｔｕｄｉｏ株式会社,,株式会社,大阪府,豊中市,新千里東町３丁目３‐５０,,27,203,5600082,,,,,,,2024-12-17,1,,,,,シースタジオ,0
2006,9120901050180,新規,0,2024-12-17,2024-12-17,なごみ株式会社,,株式会社,大阪府,箕面市,瀬川１丁目１７番１０号,,27,220,5620045,,,,,,,2024-12-17,1,,,,,ナゴミ,0
2019,9160003003356,新規,0,2024-12-17,2024-12-17,合同会社ＫＤ,,合同会社,滋賀県,大津市,雄琴１丁目２番９号レークフロント初音４号室,,25,201,5200101,,,,,,,2024-12-17,1,,,,,ケイディー,0
2028,9180001164545,新規,0,2024-12-17,2024-12-17,ＨＩＮＡＴＡ工業株式会社,,株式会社,愛知県,津島市,愛宕町１丁目３０番地,,23,208,4960036,,,,,,,2024-12-17,1,,,,,ヒナタコウギョウ,0
2029,9180001164553,新規,0,2024-12-17,2024-12-17,株式会社マルドウ,,株式会社,愛知県,名古屋市中村区,牛田通３丁目１２番地８,,23,105,4530853,,,,,,,2024-12-17,1,,,,,マルドウ,0
2030,9180001164561,新規,0,2024-12-17,2024-12-17,株式会社Ｅｓｔ,,株式会社,愛知県,名古屋市東区,泉１丁目８番２３号,,23,102,4610001,,,,,,,2024-12-17,1,,,,,エスト,0
2031,9180001164578,新規,0,2024-12-17,2024-12-17,ＡＩｚｅｎ株式会社,,株式会社,愛知県,名古屋市中村区,名駅４丁目２４番５号第２森ビル４０１,,23,105,4500002,,,,,,,2024-12-17,1,,,,,アイゼン,0
2032,9180001164586,新規,0,2024-12-17,2024-12-17,株式会社ＲＹＯＫＡ,,株式会社,愛知県,名古屋市中区,丸の内３丁目１３番２１号,,23,106,4600002,,,,,,,2024-12-17,1,,,,,リョウカ,0
2033,9180001164594,新規,0,2024-12-17,2024-12-17,生幸株式会社,,株式会社,愛知県,名古屋市中川区,八熊３丁目２０番１２号,,23,110,4540013,,,,,,,2024-12-17,1,,,,,セイコウ,0
2041,9180003027700,新規,0,2024-12-17,2024-12-17,合同会社みんとなび,,合同会社,愛知県,名古屋市東区,東桜２丁目２１番５号第６５プロスパービル５０１号,,23,102,4610005,,,,,,,2024-12-17,1,,,,,ミントナビ,0
2042,9180003027758,新規,0,2024-12-17,2024-12-17,合同会社Ｕ‐ｗｅｂ,,合同会社,愛知県,名古屋市中村区,名駅４丁目２４番５号第２森ビル４０１,,23,105,4500002,,,,,,,2024-12-17,1,,,,,ユーウェブ,0
2057,9280001009310,新規,0,2024-12-17,2024-12-17,簸川伐工株式会社,,株式会社,島根県,出雲市,斐川町直江１９７３番地,,32,203,6990631,,,,,,,2024-12-17,1,,,,,ヒカワバツコウ,0
2070,9290801031124,新規,0,2024-12-17,2024-12-17,株式会社まつのぶ不動産,,株式会社,福岡県,北九州市小倉南区,葛原３丁目５番１号,,40,107,8000251,,,,,,,2024-12-17,1,,,,,マツノブフドウサン,0
2074,9300001013994,新規,0,2024-12-17,2024-12-17,Ｎｉｐｐｏｎぴっころーん株式会社,,株式会社,佐賀県,鳥栖市,桜町１２０５,,41,203,8410014,,,,,,,2024-12-17,1,,,,,ニッポンピッコローン,0
2075,9300001014019,新規,0,2024-12-17,2024-12-17,株式会社ライフテック,,株式会社,佐賀県,佐賀市,大和町尼寺９３０－４,,41,201,8490000,,,,,,,2024-12-17,1,,,,,ライフテック,0
2076,9310001019363,新規,0,2024-12-17,2024-12-17,浜電気住宅株式会社,,株式会社,長崎県,長崎市,田上１丁目４番８号,,42,201,8510251,,,,,,,2024-12-17,1,,,,,ハマデンキジュウタク,0
2094,9380001034983,新規,0,2024-12-17,2024-12-17,株式会社ＣＢＴ　ＴＲＡＤＩＮＧ,,株式会社,福島県,いわき市,中之作字榎戸４８番地の１,,07,204,9700313,,,,,,,2024-12-17,1,,,,,シビティトレーディング,0
2098,9430001093272,新規,0,2024-12-17,2024-12-17,株式会社石材創造,,株式会社,北海道,恵庭市,黄金北１丁目４番地１３,,01,231,0611407,,,,,,,2024-12-17,1,,,,,セキザイソウゾウ,0
2099,9430001093289,新規,0,2024-12-17,2024-12-17,株式会社Ｍ’ｓ　Ａｒｃｈ,,株式会社,北海道,札幌市手稲区,稲穂一条１丁目７番５号,,01,109,0060031,,,,,,,2024-12-17,1,,,,,エムズアーチ,0
2102,9430003017072,新規,0,2024-12-17,2024-12-17,合同会社１２色のクレパス,,合同会社,北海道,室蘭市,本輪西町３丁目１６番２９号,,01,205,0500065,,,,,,,2024-12-17,1,,,,,ジュウニショクノクレパス,0
2104,9450001014466,新規,0,2024-12-17,2024-12-17,株式会社Ｒｅｌｙ,,株式会社,北海道,富良野市,字東鳥沼の１,,01,229,0760041,,,,,,,2024-12-17,1,,,,,レリー,0
2106,9470001020504,新規,0,2024-12-17,2024-12-17,株式会社堀田企画,,株式会社,香川県,高松市,三条町２３８番地１,,37,201,7618072,,,,,,,2024-12-17,1,,,,,ホッタキカク,0
2107,9470003002772,新規,0,2024-12-17,2024-12-17,合同会社とらまる,,合同会社,香川県,東かがわ市,三本松１２８１番地３,,37,207,7692601,,,,,,,2024-12-17,1,,,,,,0
2111,9700150127968,新規,0,2024-12-17,2024-12-17,Ｓｈｅｎｚｈｅｎ　Ｆｕｄｉｓｉ　Ｔｅｃｈｎｏｌｏｇｙ　Ｃｏ．，ＬＴＤ,,外国会社等,,,,,,,,６０５，Ｂｕｉｌｄｉｎｇ　８，Ｓｃｉｅｎｃｅ　Ｐａｒｋ　１９７０　Ｍｉｎｚｈｉ　Ｃｏｍｍｕｎｉｔｙ，Ｍｉｎｚｈｉ　Ｓｔｒｅｅｔ，Ｌｏｎｇｈｕａ　Ｄｉｓｔｒｉｃｔ，Ｓｈｅｎｚｈｅｎ，Ｇｕａｎｇｄｏｎｇ　Ｃｈｉｎａ,,,,,,2024-12-17,1,,,,,シンセンフジシテクノロジーカンパニリミテツド,0
