sequenceNumber,corporateNumber,process,correct,updateDate,changeDate,name,nameImageId,kind,prefectureName,cityName,streetNumber,addressImageId,prefectureCode,cityCode,postCode,addressOutside,addressOutsideImageId,closeDate,closeCause,successorCorporateNumber,changeCause,assignmentDate,latest,enName,enPrefectureName,enCityName,enAddressOutside,furigana,hihyoji
20,1010401033175,登記記録の閉鎖等,0,2025-08-08,2025-07-14,株式会社ジェス・ワーク,,株式会社,東京都,港区,高輪３丁目２５番２７号,,13,103,1080074,,,2025-07-14,清算の結了等,,,2015-10-05,1,,,,,ジェスワーク,0
21,1010401149979,登記記録の閉鎖等,0,2025-08-08,2025-08-01,ＭｅｎｔｏｒＭｅ株式会社,,株式会社,東京都,千代田区,二番町３番地,,13,101,1020084,,,2025-08-01,合併による解散等,9010001027297,令和７年８月１日東京都千代田区六番町１番７号株式会社Ａｏｂａ‐ＢＢＴ（9010001027297）に合併し解散,2019-12-19,1,,,,,メンターミー,0
51,1011701009369,登記記録の閉鎖等,0,2025-08-08,2025-08-01,京葉油圧工業株式会社,,株式会社,東京都,江戸川区,江戸川５丁目２０番地７,,13,123,1340013,,,2025-08-01,清算の結了等,,,2015-10-05,1,,,,,ケイヨウユアツコウギョウ,0
52,1011701027453,登記記録の閉鎖等,0,2025-08-08,2025-08-04,東光運輸株式会社東京,,株式会社,東京都,江戸川区,本一色２丁目１２番１２号,,13,123,1330044,,,2025-08-04,清算の結了等,,,2024-07-23,1,,,,,トウコウウンユトウキョウ,0
62,1012705000306,登記記録の閉鎖等,0,2025-08-08,2025-07-08,医療法人社団好仁会,,その他の設立登記法人,東京都,東久留米市,滝山４丁目１番１８号,,13,222,2030033,,,2025-07-08,合併による解散等,1011805000579,令和７年７月１日東京都足立区竹の塚四丁目１番１２号医療法人社団苑田会（1011805000579）に合併し解散,2015-10-05,1,,,,,コウジンカイ,0
67,1020001124398,登記記録の閉鎖等,0,2025-08-08,2025-07-25,株式会社ＴＥＤコンサルティング,,株式会社,神奈川県,川崎市川崎区,桜本２丁目４４番２号ハイムさくら１０８,,14,131,2100833,,,2025-07-25,清算の結了等,,,2017-12-21,1,,,,,テッドコンサルティング,0
77,1020002064759,登記記録の閉鎖等,0,2025-08-08,2025-07-24,サクラ・サービス有限会社,,有限会社,神奈川県,横浜市栄区,桂台西１丁目１８番１０号,,14,115,2470035,,,2025-07-24,清算の結了等,,,2015-10-05,1,,,,,サクラサービス,0
78,1020002077769,登記記録の閉鎖等,0,2025-08-08,2025-07-25,有限会社エルウエーブ港南台スイミングスクール,,有限会社,神奈川県,横浜市港南区,港南台４丁目１７番２４号,,14,111,2340054,,,2025-07-25,清算の結了等,,,2015-10-05,1,,,,,エルウェーブコウナンダイスイミングスクール,0
85,1030001044942,登記記録の閉鎖等,0,2025-08-08,2025-08-01,東邦警備保障株式会社,,株式会社,埼玉県,朝霞市,西原２丁目１４番２２号瀬武興業第２ビル,,11,227,3510034,,,2025-08-01,合併による解散等,1030001048621,令和７年８月１日埼玉県朝霞市西原二丁目１４番２２号瀬武興業第２ビル株式会社バンガード（1030001048621）に合併し解散,2015-10-05,1,,,,,トウホウケイビホショウ,0
117,1070003004965,登記記録の閉鎖等,0,2025-08-08,2025-08-01,Ｒｅ．ＰＬＵＳＩＥ合同会社,,合同会社,群馬県,伊勢崎市,柴町２４７番１,,10,204,3720824,,,2025-08-01,清算の結了等,,,2023-06-06,1,,,,,リプラシエ,0
140,1120001246232,登記記録の閉鎖等,0,2025-08-08,2025-07-29,株式会社パスウェイ,,株式会社,大阪府,大阪市西成区,出城３丁目５番１号,,27,122,5570024,,,2025-07-29,清算の結了等,,,2022-06-01,1,,,,,パスウェイ,0
161,1130001038307,登記記録の閉鎖等,0,2025-08-08,2025-07-22,株式会社愛媛工務店,,株式会社,京都府,城陽市,観音堂甲田５０番地の２,,26,207,6100115,,,2025-07-22,清算の結了等,,,2015-10-05,1,,,,,,0
177,1180002006638,登記記録の閉鎖等,0,2025-08-08,2025-07-15,有限会社ＣＡＣ,,有限会社,愛知県,海部郡蟹江町,西之森９丁目２７１番,,23,425,4970052,,,2025-07-15,清算の結了等,,,2015-10-05,1,,,,,シーエーシー,0
178,1180002014731,登記記録の閉鎖等,0,2025-08-08,2025-07-15,有限会社星崎設備,,有限会社,愛知県,名古屋市南区,本地通１丁目８番地,,23,112,4570074,,,2025-07-15,清算の結了等,,,2015-10-05,1,,,,,ホシザキセツビ,0
179,1180002031124,登記記録の閉鎖等,0,2025-08-08,2025-07-14,有限会社システムデザイン研究所,,有限会社,愛知県,名古屋市昭和区,元宮町４丁目３番地の８,,23,107,4660851,,,2025-07-14,清算の結了等,,,2015-10-05,1,,,,,システムデザインケンキュウジョ,0
182,1180302026179,登記記録の閉鎖等,0,2025-08-08,2025-07-28,大鮨有限会社,,有限会社,愛知県,西尾市,徳次町下十五夜６４番地２,,23,213,4450072,,,2025-07-28,清算の結了等,,,2015-10-05,1,,,,,オオズシ,0
200,1240001016169,登記記録の閉鎖等,0,2025-08-08,2025-07-31,アサノ・トムラＰＣ工事株式会社,,株式会社,広島県,広島市西区,西観音町１番２号藤哲ビル３Ｆ,,34,104,7330037,,,2025-07-31,清算の結了等,,,2015-10-05,1,,,,,アサノトムラピーシー,0
201,1240001018875,登記記録の閉鎖等,0,2025-08-08,2025-08-04,ＬＯＴＵＳ株式会社,,株式会社,埼玉県,さいたま市南区,内谷７丁目３番２９号西浦和ハイツ１０３号,,11,108,3360034,,,2025-08-04,清算の結了等,,,2015-10-05,1,,,,,ロータス,0
210,1260003003915,登記記録の閉鎖等,0,2025-08-08,2025-07-14,合同会社トーナ,,合同会社,岡山県,倉敷市,東町１番２１号,,33,202,7100053,,,2025-07-14,清算の結了等,,,2022-05-18,1,,,,,トーナ,0
228,1330001011631,登記記録の閉鎖等,0,2025-08-08,2025-07-22,株式会社三建,,株式会社,熊本県,荒尾市,一部９９６－５,,43,204,8640021,,,2025-07-22,清算の結了等,,,2015-10-05,1,,,,,サンケン,0
266,1480005000839,登記記録の閉鎖等,0,2025-08-08,2025-08-05,徳島市新町橋西側商店街協同組合,,その他の設立登記法人,徳島県,徳島市,新町橋１丁目３２番地,,36,201,7700904,,,2025-08-05,清算の結了等,,,2015-10-05,1,,,,,トクシマシシンマチバシニシガワショウテンガイ,0
280,2010001130256,登記記録の閉鎖等,0,2025-08-08,2025-08-05,株式会社四番町コーポレートサービス,,株式会社,東京都,千代田区,四番町８番地６番町パークハウス１５０５号,,13,101,1020081,,,2025-08-05,合併による解散等,8010001182192,令和７年８月１日東京都千代田区四番町８番地６番町パークハウス１５０５号株式会社番町ホールディングス（8010001182192）に合併し解散,2015-10-05,1,,,,,ヨンバンチョウコーポレートサービス,0
288,2010003045147,登記記録の閉鎖等,0,2025-08-08,2025-07-10,合同会社のぞみプロパティーズ,,合同会社,東京都,千代田区,丸の内１丁目４番１号東京共同会計事務所内,,13,101,1000005,,,2025-07-10,清算の結了等,,,2024-10-15,1,,,,,ノゾミプロパティーズ,0
293,2010401054609,登記記録の閉鎖等,0,2025-08-08,2025-08-01,株式会社マーケティングトレインジャパン,,株式会社,埼玉県,さいたま市緑区,東浦和４丁目３３番地１４ワイエスビル４０１,,11,109,3360926,,,2025-08-01,清算の結了等,,,2015-10-05,1,,,,,マーケティングトレインジャパン,0
294,2010401070977,登記記録の閉鎖等,0,2025-08-08,2025-07-10,株式会社紀鳳産業,,株式会社,東京都,港区,虎ノ門３丁目６番２号,,13,103,1050001,,,2025-07-10,清算の結了等,,,2015-10-05,1,,,,,キホウサンギョウ,0
308,2010601042685,登記記録の閉鎖等,0,2025-08-08,2025-07-15,ブリヂストン建設タイヤ販売株式会社,,株式会社,東京都,江東区,東雲２丁目１１番１５号,,13,108,1350062,,,2025-07-15,合併による解散等,2010001142722,令和７年７月１日東京都小平市小川東町三丁目１番１号ブリヂストンタイヤソリューションジャパン株式会社（2010001142722）に合併し解散,2015-10-05,1,,,,,ブリヂストンケンセツタイヤハンバイ,0
324,2011101056457,登記記録の閉鎖等,0,2025-08-08,2025-07-08,株式会社チャンゴ・ジャパン,,株式会社,東京都,新宿区,神楽坂３丁目６番地,,13,104,1620825,,,2025-07-08,清算の結了等,,,2015-10-05,1,,,,,チャンゴジャパン,0
328,2011101078030,登記記録の閉鎖等,0,2025-08-08,2025-07-15,株式会社ＪＫＫホールディングス,,株式会社,東京都,新宿区,四谷４丁目２７番２号,,13,104,1600004,,,2025-07-15,合併による解散等,6020001146719,令和７年７月１日神奈川県横浜市港北区大倉山五丁目８番１－５１１号株式会社ＥＥＴ（6020001146719）に合併し解散,2016-08-24,1,,,,,,0
344,2012402007636,登記記録の閉鎖等,0,2025-08-08,2025-07-22,有限会社エム・ティー電設,,有限会社,東京都,国分寺市,戸倉３丁目２８番地１２,,13,214,1850003,,,2025-07-22,清算の結了等,,,2015-10-05,1,,,,,エムティーデンセツ,0
357,2020001045230,登記記録の閉鎖等,0,2025-08-08,2025-07-25,ヨシデン株式会社,,株式会社,神奈川県,横浜市青葉区,柿の木台１９番地３９,,14,117,2270048,,,2025-07-25,清算の結了等,,,2015-10-05,1,,,,,ヨシデン,0
368,2020002096248,登記記録の閉鎖等,0,2025-08-08,2025-07-24,カマタ商事有限会社,,有限会社,神奈川県,川崎市川崎区,藤崎４丁目３３番１４号,,14,131,2100804,,,2025-07-24,清算の結了等,,,2015-10-05,1,,,,,カマタショウジ,0
378,2030001066928,登記記録の閉鎖等,0,2025-08-08,2025-08-01,株式会社ケイ‐クライス,,株式会社,埼玉県,越谷市,流通団地３丁目１番１４号,,11,222,3430824,,,2025-08-01,合併による解散等,1030001064057,令和７年８月１日埼玉県越谷市流通団地三丁目１番１４号株式会社山宝商会（1030001064057）に合併し解散,2015-10-05,1,,,,,ケイクライス,0
379,2030001089094,登記記録の閉鎖等,0,2025-08-08,2025-08-01,株式会社エムジェイ,,株式会社,埼玉県,熊谷市,下川上１５７９番地１３,,11,202,3600003,,,2025-08-01,清算の結了等,,,2015-10-05,1,,,,,エムジェイ,0
404,2050001017020,登記記録の閉鎖等,0,2025-08-08,2025-07-28,株式会社朝日新聞学園都市販売,,株式会社,茨城県,つくば市,桜１丁目２３番地８,,08,220,3050003,,,2025-07-28,清算の結了等,,,2015-10-05,1,,,,,アサヒシンブンガクエントシハンバイ,0
410,2050002021715,登記記録の閉鎖等,0,2025-08-08,2025-07-28,有限会社つくば測研,,有限会社,茨城県,つくば市,水堀２２４番１,,08,220,3002654,,,2025-07-28,清算の結了等,,,2015-10-05,1,,,,,ツクバソッケン,0
422,2080003001903,登記記録の閉鎖等,0,2025-08-08,2025-07-31,合同会社ライフストレッチ,,合同会社,静岡県,島田市,ばらの丘１丁目１９番地の２,,22,209,4270061,,,2025-07-31,清算の結了等,,,2016-08-30,1,,,,,ライフストレッチ,0
426,2100002037243,登記記録の閉鎖等,0,2025-08-08,2025-07-31,有限会社ヘアークリエイト美粧院,,有限会社,長野県,飯田市,伝馬町１丁目２７番地,,20,205,3950016,,,2025-07-31,清算の結了等,,,2015-10-05,1,,,,,ヘアークリエイトビショウイン,0
429,2110001034182,登記記録の閉鎖等,0,2025-08-08,2025-07-15,株式会社ループ,,株式会社,新潟県,五泉市,上木越３３３０番地１,,15,218,9591708,,,2025-07-15,清算の結了等,,,2019-07-25,1,,,,,ループ,0
461,2130001059236,登記記録の閉鎖等,0,2025-08-08,2025-07-28,コーヨーテクノス株式会社,,株式会社,京都府,京都市南区,吉祥院西ノ茶屋町４６番地４,,26,107,6018381,,,2025-07-28,清算の結了等,,,2017-02-15,1,,,,,,0
496,2180005004209,登記記録の閉鎖等,0,2025-08-08,2025-07-15,東名商工協同組合,,その他の設立登記法人,愛知県,名古屋市昭和区,桜山町４丁目８５番地,,23,107,4660044,,,2025-07-15,清算の結了等,,,2015-10-05,1,,,,,トウメイショウコウ,0
501,2180302008127,登記記録の閉鎖等,0,2025-08-08,2025-07-29,有限会社セーフティ東部,,有限会社,愛知県,豊橋市,東田町字井原３８番地の３１,,23,201,4400024,,,2025-07-29,清算の結了等,,,2015-10-05,1,,,,,セーフティトウブ,0
512,2210001017251,登記記録の閉鎖等,0,2025-08-08,2025-07-31,株式会社ＡＴ　ｉｄｅａ,,株式会社,福井県,小浜市,上竹原第３１号２２番地,,18,204,9170022,,,2025-07-31,清算の結了等,,,2018-08-03,1,,,,,エーティーアイデア,0
519,2240001058160,登記記録の閉鎖等,0,2025-08-08,2025-08-04,ＫＳＥ株式会社,,株式会社,広島県,広島市西区,中広町１丁目１２番１６号,,34,104,7330012,,,2025-08-04,清算の結了等,,,2021-06-23,1,,,,,ケーエスイー,0
521,2240002030432,登記記録の閉鎖等,0,2025-08-08,2025-08-01,有限会社三次菓子卸センター,,有限会社,広島県,三次市,畠敷町９３３番地,,34,209,7280006,,,2025-08-01,清算の結了等,,,2015-10-05,1,,,,,ミヨシカシオロシセンター,0
554,2390002014791,登記記録の閉鎖等,0,2025-08-08,2025-07-29,有限会社ＰＴＯＡＬコーポレーション,,有限会社,山形県,米沢市,駅前３丁目２番２４号ハイツＫＥＮＮＡＮ２０３,,06,202,9920027,,,2025-07-29,清算の結了等,,,2015-10-05,1,,,,,ピートールコーポレーション,0
558,2420003001141,登記記録の閉鎖等,0,2025-08-08,2025-07-29,合同会社日東,,合同会社,青森県,青森市,大字荒川字柴田２８１番地８,,02,201,0300111,,,2025-07-29,清算の結了等,,,2015-10-05,1,,,,,ニットウ,0
559,2420005004695,登記記録の閉鎖等,0,2025-08-08,2025-07-29,弘前中央食品協同組合,,その他の設立登記法人,青森県,弘前市,大字土手町８５番地１,,02,202,0368182,,,2025-07-29,清算の結了等,,,2015-10-05,1,,,,,ヒロサキチュウオウショクヒン,0
585,3010001172322,登記記録の閉鎖等,0,2025-08-08,2025-07-10,株式会社カーサレシュール,,株式会社,東京都,中央区,日本橋蛎殻町１丁目１４番４号,,13,102,1030014,,,2025-07-10,清算の結了等,,,2015-12-21,1,,,,,,0
589,3010003046945,登記記録の閉鎖等,0,2025-08-08,2025-07-10,Ｃｒｙｐｔｙ合同会社,,合同会社,東京都,中央区,日本橋室町１丁目１１番１２号日本橋水野ビル７階,,13,102,1030022,,,2025-07-10,清算の結了等,,,2025-04-02,1,,,,,クリプティ,0
590,3010005038387,登記記録の閉鎖等,0,2025-08-08,2025-07-17,一般社団法人デジタル高等教育機構,,その他の設立登記法人,東京都,千代田区,神田小川町２丁目１,,13,101,1010052,,,2025-07-17,清算の結了等,,,2024-06-06,1,,,,,デジタルコウトウキョウイクキコウ,0
593,3010401046068,登記記録の閉鎖等,0,2025-08-08,2025-07-01,ブリヂストンモーターサイクルタイヤ株式会社,,株式会社,東京都,小平市,小川東町３丁目１番１号,,13,211,1870031,,,2025-07-01,合併による解散等,2010001142722,令和７年７月１日東京都小平市小川東町三丁目１番１号ブリヂストンタイヤソリューションジャパン株式会社（2010001142722）に合併し解散,2015-10-05,1,,,,,ブリヂストンモーターサイクルタイヤ,0
608,3010501006698,登記記録の閉鎖等,0,2025-08-08,2025-07-31,株式会社セブン・オー・スリー・サポート,,株式会社,東京都,江東区,東陽４丁目３番３－１５０２号,,13,108,1350016,,,2025-07-31,清算の結了等,,,2015-10-05,1,,,,,セブンオースリーサポート,0
617,3010603010144,登記記録の閉鎖等,0,2025-08-08,2025-08-04,合同会社３Ｒ,,合同会社,東京都,墨田区,錦糸１丁目２番１号,,13,107,1300013,,,2025-08-04,清算の結了等,,,2023-05-12,1,,,,,スリーアール,0
621,3010801034465,登記記録の閉鎖等,0,2025-08-08,2025-07-28,株式会社ここはね,,株式会社,東京都,大田区,大森北１丁目１７番１１－１００６号,,13,111,1430016,,,2025-07-28,清算の結了等,,,2023-10-25,1,,,,,ココハネ,0
631,3011003021517,登記記録の閉鎖等,0,2025-08-08,2025-08-05,ＡＧＸ合同会社,,合同会社,東京都,渋谷区,神宮前１丁目５番８号,,13,113,1500001,,,2025-08-05,合併による解散等,9020001019401,令和７年７月２日横浜市港北区新羽町１７５６番地ＡＬＲマネジメント株式会社（9020001019401）に合併し解散,2025-05-21,1,,,,,エージーエックス,0
639,3011502006051,登記記録の閉鎖等,0,2025-08-08,2025-08-04,有限会社八百英商店,,有限会社,東京都,北区,赤羽１丁目２９番７号,,13,117,1150045,,,2025-08-04,清算の結了等,,,2015-10-05,1,,,,,ヤオエイショウテン,0
640,3011603003006,登記記録の閉鎖等,0,2025-08-08,2025-07-18,コミュタウン合同会社,,合同会社,東京都,練馬区,早宮４丁目２２番１７－１０２号,,13,120,1790085,,,2025-07-18,清算の結了等,,,2020-07-28,1,,,,,コミュタウン,0
686,3040002036267,登記記録の閉鎖等,0,2025-08-08,2025-07-15,有限会社フジオカ,,有限会社,千葉県,市川市,曽谷１丁目２２番１９号,,12,203,2720832,,,2025-07-15,清算の結了等,,,2015-10-05,1,,,,,フジオカ,0
700,3070002009179,登記記録の閉鎖等,0,2025-08-08,2025-08-01,有限会社小栗製作所,,有限会社,群馬県,高崎市,筑縄町１６番地２０,,10,202,3700075,,,2025-08-01,清算の結了等,,,2015-10-05,1,,,,,オグリセイサクショ,0
701,3070002018469,登記記録の閉鎖等,0,2025-08-08,2025-07-31,有限会社岩井田洋品店,,有限会社,群馬県,伊勢崎市,本町１６番地９,,10,204,3720047,,,2025-07-31,清算の結了等,,,2015-10-05,1,,,,,イワイダヨウヒンテン,0
713,3110005009460,登記記録の閉鎖等,0,2025-08-08,2025-07-15,農事組合法人大空生産組合,,その他の設立登記法人,新潟県,上越市,頸城区天ケ崎１２０７番地１,,15,222,9420225,,,2025-07-15,清算の結了等,,,2015-10-05,1,,,,,オオゾラセイサンクミアイ,0
719,3120001246809,登記記録の閉鎖等,0,2025-08-08,2025-07-18,株式会社ファーストリンク,,株式会社,大阪府,大阪市此花区,西九条１丁目３３番１３号オークラ第２ビル２階,,27,104,5540012,,,2025-07-18,清算の結了等,,,2022-06-20,1,,,,,ファーストリンク,0
733,3120005012075,登記記録の閉鎖等,0,2025-08-08,2025-08-06,特定非営利活動法人遺族支え愛ネット,,その他の設立登記法人,大阪府,大阪市中央区,平野町１丁目７番１号堺筋高橋ビル５Ｆ,,27,128,5410046,,,2025-08-06,清算の結了等,,,2015-10-05,1,,,,,イゾクササエアイネット,0
738,3120101061736,登記記録の閉鎖等,0,2025-08-08,2025-07-30,株式会社フクジン,,株式会社,大阪府,羽曳野市,南恵我之荘８丁目８番１０号,,27,222,5830885,,,2025-07-30,清算の結了等,,,2020-05-21,1,,,,,フクジン,0
751,3140001033676,登記記録の閉鎖等,0,2025-08-08,2025-08-04,株式会社ナダ水道設備,,株式会社,兵庫県,神戸市灘区,六甲町４丁目１番８号,,28,102,6570053,,,2025-08-04,清算の結了等,,,2015-10-05,1,,,,,ナダスイドウセツビ,0
776,3180002084847,登記記録の閉鎖等,0,2025-08-08,2025-07-14,有限会社システムアンフィニ,,有限会社,愛知県,大府市,若草町３丁目１７９番地の１,,23,223,4740022,,,2025-07-14,清算の結了等,,,2015-10-05,1,,,,,システムアンフィニ,0
788,3210001000090,登記記録の閉鎖等,0,2025-08-08,2025-08-01,足羽化学工業株式会社,,株式会社,福井県,福井市,徳光町５１号３５番地,,18,201,9190305,,,2025-08-01,清算の結了等,,,2015-10-05,1,,,,,アスワカガクコウギョウ,0
793,3230002009030,登記記録の閉鎖等,0,2025-08-08,2025-08-01,有限会社広世精工,,有限会社,富山県,滑川市,四ツ屋２６４番地,,16,206,9360807,,,2025-08-01,合併による解散等,9230002009025,令和７年８月１日富山県滑川市四ツ屋２６４番地株式会社ワールテクニカル（9230002009025）に合併し解散,2015-10-05,1,,,,,ヒロセセイコウ,0
801,3240001049357,登記記録の閉鎖等,0,2025-08-08,2025-08-01,株式会社ＳＯＷＡＲＥ,,株式会社,広島県,広島市中区,中町１番９号,,34,101,7300037,,,2025-08-01,清算の結了等,,,2016-05-16,1,,,,,ソワレ,0
807,3260005010643,登記記録の閉鎖等,0,2025-08-08,2025-07-23,一般社団法人おもてなし葬司会者育成検定協会,,その他の設立登記法人,岡山県,岡山市北区,青江１丁目１６番６号アビタシオンあおえ西棟１０６号,,33,101,7000941,,,2025-07-23,清算の結了等,,,2019-07-31,1,,,,,オモテナシソウシカイシャイクセイケンテイキョウカイ,0
808,3280001006148,登記記録の閉鎖等,0,2025-08-08,2025-08-06,株式会社ＭＫＭ管財,,株式会社,島根県,松江市,学園南２丁目５番１３号２０３,,32,201,6900826,,,2025-08-06,清算の結了等,,,2015-10-05,1,,,,,エムケーエムカンザイ,0
834,3370001016988,登記記録の閉鎖等,0,2025-08-08,2025-07-18,真藤急便株式会社,,株式会社,宮城県,仙台市宮城野区,港３丁目２番１２号,,04,102,9830001,,,2025-07-18,清算の結了等,,,2015-10-05,1,,,,,シンドウキュウビン,0
847,3420002019381,登記記録の閉鎖等,0,2025-08-08,2025-07-25,有限会社畑山商店,,有限会社,青森県,むつ市,大畑町正津川４６番地,,02,208,0394402,,,2025-07-25,清算の結了等,,,2015-10-05,1,,,,,ハタヤマショウテン,0
855,3430002042837,登記記録の閉鎖等,0,2025-08-08,2025-07-18,折目コンサルタント有限会社,,有限会社,北海道,札幌市厚別区,厚別中央三条３丁目２番１０－２０１号,,01,108,0040053,,,2025-07-18,清算の結了等,,,2015-10-05,1,,,,,オリメコンサルタント,0
867,3470002002795,登記記録の閉鎖等,0,2025-08-08,2025-08-04,小島産業有限会社,00005260,有限会社,香川県,高松市,花ノ宮町２丁目１番２６号,,37,201,7618063,,,2025-08-04,清算の結了等,,,2015-10-05,1,,,,,コジマサンギョウ,0
876,4010001242446,登記記録の閉鎖等,0,2025-08-08,2025-08-01,丸栄化工株式会社,,株式会社,福岡県,北九州市小倉南区,大字新道寺９１０番地,,40,107,8030186,,,2025-08-01,合併による解散等,8010001240314,令和７年８月１日北九州市小倉南区大字石原町１３０番地１２丸栄産業株式会社（8010001240314）に合併し解散,2024-02-20,1,,,,,マルエイカコウ,0
902,4010601026488,登記記録の閉鎖等,0,2025-08-08,2025-08-04,株式会社森山インターナショナル,,株式会社,東京都,江東区,東陽２丁目３番１号,,13,108,1350016,,,2025-08-04,清算の結了等,,,2015-10-05,1,,,,,モリヤマインターナショナル,0
922,4011103011615,登記記録の閉鎖等,0,2025-08-08,2025-07-07,ＭファンディングＧＰ合同会社,,合同会社,東京都,新宿区,四谷２丁目９番地１５東京ユナイテッド綜合事務所内,,13,104,1600004,,,2025-07-07,清算の結了等,,,2022-03-30,1,,,,,エムファンディングジーピー,0
923,4011201023165,登記記録の閉鎖等,0,2025-08-08,2025-08-01,株式会社ＧＯＥＳ,,株式会社,東京都,中野区,野方６丁目１０番８号,,13,114,1650027,,,2025-08-01,清算の結了等,,,2021-08-06,1,,,,,ゴウズ,0
924,4011201023347,登記記録の閉鎖等,0,2025-08-08,2025-08-01,株式会社ＦＩＴ,,株式会社,東京都,中野区,大和町３丁目９番３号コーポ伊藤２０２,,13,114,1650034,,,2025-08-01,清算の結了等,,,2021-10-20,1,,,,,フィット,0
935,4011802009397,登記記録の閉鎖等,0,2025-08-08,2025-08-01,有限会社アリック,,有限会社,埼玉県,川口市,大字新堀３１２番地２,,11,203,3340061,,,2025-08-01,清算の結了等,,,2015-10-05,1,,,,,アリック,0
943,4012702004554,登記記録の閉鎖等,0,2025-08-08,2025-07-31,有限会社天神林商店,,有限会社,東京都,西東京市,東伏見６丁目６番１４号,,13,229,2020021,,,2025-07-31,清算の結了等,,,2015-10-05,1,,,,,テンジンバヤシショウテン,0
950,4013301012931,登記記録の閉鎖等,0,2025-08-08,2025-08-04,株式会社ヤザワ,,株式会社,埼玉県,新座市,畑中３丁目５番１３号,,11,230,3520012,,,2025-08-04,清算の結了等,,,2015-10-05,1,,,,,ヤザワ,0
962,4020005000329,登記記録の閉鎖等,0,2025-08-08,2025-07-17,天理教潮田分教会,,その他の設立登記法人,神奈川県,横浜市鶴見区,下野谷町４丁目１７２番地,,14,101,2300047,,,2025-07-17,合併による解散等,2010105000636,令和７年７月１１日東京都八王子市上野町２８番地の１天理教八王子分教会（2010105000636）に合併し解散,2015-10-05,1,,,,,テンリキョウシオダブンキョウカイ,0
981,4040001066289,登記記録の閉鎖等,0,2025-08-08,2025-07-14,ハーブランド株式会社,,株式会社,千葉県,柏市,柏３丁目７番２６号,,12,217,2770005,,,2025-07-14,合併による解散等,6030001066965,令和７年６月１日埼玉県北葛飾郡松伏町築比地７９５番地１株式会社ウィーズ（6030001066965）に合併し解散,2015-10-05,1,,,,,ハーブランド,0
1002,4080102014399,登記記録の閉鎖等,0,2025-08-08,2025-08-04,タカハシ工産有限会社,,有限会社,静岡県,富士市,富士岡５３０番地の１,,22,210,4170841,,,2025-08-04,清算の結了等,,,2015-10-05,1,,,,,タカハシコウサン,0
1011,4120001080042,登記記録の閉鎖等,0,2025-08-08,2025-07-30,サンエイハウス株式会社,,株式会社,大阪府,大阪市中央区,南船場３丁目３番２７号,,27,128,5420081,,,2025-07-30,清算の結了等,,,2015-10-05,1,,,,,サンエイハウス,0
1018,4120001243482,登記記録の閉鎖等,0,2025-08-08,2025-08-01,亜細亜フーズ株式会社,,株式会社,大阪府,大阪市中央区,南船場３丁目７番２７号ＮＬＣ心斎橋ビル８Ｆ,,27,128,5420081,,,2025-08-01,合併による解散等,4120001194866,令和７年８月１日大阪市中央区南船場三丁目７番２７号ＮＬＣ心斎橋ビル８Ｆ株式会社昇フードサービス（4120001194866）に合併し解散,2022-01-28,1,,,,,アジアフーズ,0
1022,4120003024484,登記記録の閉鎖等,0,2025-08-08,2025-07-29,合同会社フードオーケストラ,,合同会社,大阪府,大阪市阿倍野区,阿倍野元町８番５号,,27,119,5450034,,,2025-07-29,清算の結了等,,,2023-07-19,1,,,,,フードオーケストラ,0
1025,4120005001424,登記記録の閉鎖等,0,2025-08-08,2025-08-06,地藏院,,その他の設立登記法人,大阪府,大阪市阿倍野区,文の里１丁目８番地,,27,119,5450004,,,2025-08-06,清算の結了等,,,2015-10-05,1,,,,,ジゾウイン,0
1029,4120102018742,登記記録の閉鎖等,0,2025-08-08,2025-07-30,有限会社ナンセン,,有限会社,大阪府,藤井寺市,沢田２丁目２番３１号,,27,226,5830011,,,2025-07-30,清算の結了等,,,2015-10-05,1,,,,,ナンセン,0
1041,4130001060828,登記記録の閉鎖等,0,2025-08-08,2025-07-28,ジョー・リテイリング株式会社,,株式会社,京都府,京都市伏見区,景勝町３５番地３５,,26,109,6128307,,,2025-07-28,清算の結了等,,,2017-10-25,1,,,,,,0
1055,4160001016901,登記記録の閉鎖等,0,2025-08-08,2025-08-01,株式会社新近江商工人社,,株式会社,滋賀県,大津市,中央２丁目２番２２号ニューバラビル内,,25,201,5200043,,,2025-08-01,清算の結了等,,,2015-10-05,1,,,,,シンオウミショウコウニンシャ,0
1058,4180001047804,登記記録の閉鎖等,0,2025-08-08,2025-07-14,株式会社フェイスリミテッド,,株式会社,愛知県,名古屋市中川区,二女子町６丁目１０番地の２,,23,110,4540036,,,2025-07-14,清算の結了等,,,2015-10-05,1,,,,,フェイスリミテッド,0
1061,4180001127457,登記記録の閉鎖等,0,2025-08-08,2025-07-15,関東通商株式会社,,株式会社,愛知県,名古屋市千種区,千種１丁目１５番１号,,23,101,4640858,,,2025-07-15,合併による解散等,2010401185247,令和７年７月１日東京都港区西新橋一丁目１番１号ＫＹＧホールディングス株式会社（2010401185247）に合併し解散,2017-04-21,1,,,,,カントウツウショウ,0
1063,4180001155128,登記記録の閉鎖等,0,2025-08-08,2025-07-14,楽しい場所づくり株式会社,,株式会社,愛知県,日進市,藤島町相山５１番地１,,23,230,4700102,,,2025-07-14,清算の結了等,,,2023-03-01,1,,,,,タノシイバショヅクリ,0
1069,4190005009502,登記記録の閉鎖等,0,2025-08-08,2025-07-16,神理教菰野分教會,,その他の設立登記法人,三重県,三重郡菰野町,大字神森７４９番地,,24,341,5101231,,,2025-07-16,清算の結了等,,,2015-10-05,1,,,,,シンリキョウコモノブンキョウカイ,0
1076,4220001025111,登記記録の閉鎖等,0,2025-08-08,2025-08-05,株式会社Ｂｏｏｓｔ,,株式会社,石川県,加賀市,山中温泉上原町ヨ３７１番地,,17,206,9220106,,,2025-08-05,清算の結了等,,,2022-11-08,1,,,,,ブースト,0
1090,4290001089257,登記記録の閉鎖等,0,2025-08-08,2025-07-31,ｍｕｓｕｂｕ株式会社,,株式会社,福岡県,福岡市中央区,高砂１丁目１４番１号,,40,133,8100011,,,2025-07-31,合併による解散等,1290001082553,令和７年７月３１日福岡市中央区高砂一丁目１１番１号ＳｈｉＲｕＳｈｉ株式会社（1290001082553）に合併し解散,2020-06-24,1,,,,,ムスブ,0
1102,4330002014135,登記記録の閉鎖等,0,2025-08-08,2025-07-24,有限会社スィートフロア,,有限会社,熊本県,熊本市南区,上ノ郷２丁目３番３２号,,43,104,8614132,,,2025-07-24,清算の結了等,,,2015-10-05,1,,,,,スィートフロア,0
1125,4370003001087,登記記録の閉鎖等,0,2025-08-08,2025-07-18,合資会社アオヤギ,,合資会社,宮城県,仙台市青葉区,本町１丁目１４番１８号,,04,101,9800014,,,2025-07-18,清算の結了等,,,2015-10-05,1,,,,,アオヤギ,0
1153,4470002018444,登記記録の閉鎖等,0,2025-08-08,2025-08-01,有限会社主婦の店引田店,,有限会社,香川県,東かがわ市,引田２４４７番地の１,,37,207,7692901,,,2025-08-01,清算の結了等,,,2015-10-05,1,,,,,シュフノミセヒケタテン,0
1159,4490001003635,登記記録の閉鎖等,0,2025-08-08,2025-08-04,株式会社開コーポレーション,,株式会社,高知県,高知市,帯屋町１丁目１２番１－２号,,39,201,7800841,,,2025-08-04,清算の結了等,,,2015-10-05,1,,,,,カイコーポレーション,0
1174,5010005033527,登記記録の閉鎖等,0,2025-08-08,2025-07-17,Ｇｒｅｅｎ　Ｂｕｉｌｄｉｎｇ特定目的会社,,その他の設立登記法人,東京都,千代田区,丸の内１丁目８番２号鉄鋼ビルディング４階,,13,101,1000005,,,2025-07-17,清算の結了等,,,2021-06-23,1,,,,,グリーンビルディング,0
1194,5010601042880,登記記録の閉鎖等,0,2025-08-08,2025-07-29,株式会社サイモン,,株式会社,東京都,江東区,門前仲町１丁目８番８号王ビル１階,,13,108,1350048,,,2025-07-29,清算の結了等,,,2015-10-05,1,,,,,,0
1203,5010805003126,登記記録の閉鎖等,0,2025-08-08,2025-07-24,一般社団法人上池台研究所,,その他の設立登記法人,東京都,大田区,上池台１丁目２７番１１号,,13,111,1450064,,,2025-07-24,清算の結了等,,,2024-08-21,1,,,,,カミイケダイケンキュウジョ,0
1227,5011701024091,登記記録の閉鎖等,0,2025-08-08,2025-07-31,株式会社ＴＯＰ,,株式会社,東京都,江戸川区,中央３丁目１７番５号,,13,123,1320021,,,2025-07-31,清算の結了等,,,2021-02-03,1,,,,,トップ,0
1233,5020001035179,登記記録の閉鎖等,0,2025-08-08,2025-07-25,株式会社イメージハウス,,株式会社,神奈川県,横浜市旭区,本村町１７番地１,,14,112,2410024,,,2025-07-25,清算の結了等,,,2015-10-05,1,,,,,イメージハウス,0
1248,5021005007560,登記記録の閉鎖等,0,2025-08-08,2025-07-09,学校法人イエズス孝女会葉山学園,,その他の設立登記法人,神奈川県,三浦郡葉山町,堀内１９６８番地,,14,301,2400112,,,2025-07-09,合併による解散等,8020005002726,令和７年６月３０日横浜市中区山手町４４番地学校法人聖トマ学園（8020005002726）に合併し解散,2015-10-05,1,,,,,イエズスコウジョカイハヤマガクエン,0
1251,5030001120327,登記記録の閉鎖等,0,2025-08-08,2025-08-04,株式会社オリンテス,,株式会社,東京都,品川区,西大井６丁目１５番８号春沢ビル,,13,109,1400015,,,2025-08-04,清算の結了等,,,2017-05-18,1,,,,,,0
1258,5030002020930,登記記録の閉鎖等,0,2025-08-08,2025-08-01,有限会社クマダ工業,,有限会社,埼玉県,さいたま市岩槻区,大字箕輪５７番地,,11,110,3390069,,,2025-08-01,清算の結了等,,,2015-10-05,1,,,,,クマダコウギョウ,0
1276,5070001004633,登記記録の閉鎖等,0,2025-08-08,2025-08-01,株式会社メディアラボ,,株式会社,群馬県,前橋市,山王町１丁目１番地３,,10,201,3792123,,,2025-08-01,清算の結了等,,,2015-10-05,1,,,,,メディアラボ,0
1278,5070002005531,登記記録の閉鎖等,0,2025-08-08,2025-07-30,有限会社山口商店,,有限会社,群馬県,前橋市,西片貝町３丁目４４番地の３,,10,201,3710013,,,2025-07-30,清算の結了等,,,2015-10-05,1,,,,,ヤマグチショウテン,0
1292,5120001107372,登記記録の閉鎖等,0,2025-08-08,2025-07-30,株式会社三愛ライフアドバンス,,株式会社,大阪府,大阪市中央区,北浜東４番２４－３５０２号,,27,128,5400031,,,2025-07-30,清算の結了等,,,2015-10-05,1,,,,,サンアイライフアドバンス,0
1293,5120001124525,登記記録の閉鎖等,0,2025-08-08,2025-07-18,株式会社パルトネール,,株式会社,大阪府,大阪市中央区,船場中央２丁目３番船場センタービル６号館２階,,27,128,5410055,,,2025-07-18,清算の結了等,,,2015-10-05,1,,,,,パルトネール,0
1295,5120001211091,登記記録の閉鎖等,0,2025-08-08,2025-08-01,株式会社ＫＡＮＯＮ,,株式会社,兵庫県,丹波市,青垣町山垣８３３番地,,28,223,6693833,,,2025-08-01,合併による解散等,9011001107865,令和７年８月１日兵庫県丹波市青垣町山垣８３３番地株式会社Ｇｒａｄｕｓ（9011001107865）に合併し解散,2018-02-05,1,,,,,カノン,0
1304,5120003017743,登記記録の閉鎖等,0,2025-08-08,2025-07-29,合同会社フードオーケストラ,,合同会社,大阪府,大阪市中央区,南船場１丁目１７番２１号,,27,128,5420081,,,2025-07-29,清算の結了等,,,2020-07-16,1,,,,,フードオーケストラ,0
1311,5120101071535,登記記録の閉鎖等,0,2025-08-08,2025-07-29,今井建設工業株式会社,,株式会社,大阪府,南河内郡河南町,大宝５丁目１２番４号,,27,382,5850005,,,2025-07-29,清算の結了等,,,2025-05-07,1,,,,,イマイケンセツコウギョウ,0
1317,5120102002687,登記記録の閉鎖等,0,2025-08-08,2025-07-29,セリバ・セレストゥ有限会社,,有限会社,大阪府,堺市堺区,三宝町３丁１９３番地,,27,141,5900906,,,2025-07-29,清算の結了等,,,2015-10-05,1,,,,,セリバセレストゥ,0
1323,5120901010403,登記記録の閉鎖等,0,2025-08-08,2025-07-18,株式会社井上商工輸送,,株式会社,大阪府,高槻市,天川新町１５番２号,,27,207,5690027,,,2025-07-18,清算の結了等,,,2015-10-05,1,,,,,イノウエショウコウユソウ,0
1325,5120901016557,登記記録の閉鎖等,0,2025-08-08,2025-07-18,いばらき総合事務サービス株式会社,,株式会社,大阪府,茨木市,西駅前町５番１０号,,27,211,5670032,,,2025-07-18,清算の結了等,,,2015-10-05,1,,,,,イバラキソウゴウジムサービス,0
1349,5160002012155,登記記録の閉鎖等,0,2025-08-08,2025-08-01,有限会社重信製作所,,有限会社,滋賀県,草津市,山寺町２０６番地,,25,206,5250042,,,2025-08-01,清算の結了等,,,2015-10-05,1,,,,,シゲノブセイサクショ,0
1352,5180001103102,登記記録の閉鎖等,0,2025-08-08,2025-07-14,株式会社アートライフコンサルティング,,株式会社,愛知県,日進市,藤塚６丁目３７０番地,,23,230,4700117,,,2025-07-14,清算の結了等,,,2015-10-05,1,,,,,アートライフコンサルティング,0
1378,5240002004631,登記記録の閉鎖等,0,2025-08-08,2025-08-01,有限会社木本時計店,,有限会社,広島県,広島市中区,住吉町９番１２号,,34,101,7300813,,,2025-08-01,清算の結了等,,,2015-10-05,1,,,,,キモトトケイテン,0
1400,5370802002202,登記記録の閉鎖等,0,2025-08-08,2025-07-14,有限会社幕田商事,,有限会社,宮城県,亘理郡山元町,浅生原字日向１３番地３,,04,362,9892203,,,2025-07-14,清算の結了等,,,2015-10-05,1,,,,,マクタショウジ,0
1418,5470002004889,登記記録の閉鎖等,0,2025-08-08,2025-08-05,有限会社十喜屋,,有限会社,香川県,高松市,新北町１３番１１－１０２号,,37,201,7600001,,,2025-08-05,清算の結了等,,,2015-10-05,1,,,,,,0
1424,5500001010331,登記記録の閉鎖等,0,2025-08-08,2025-08-05,株式会社宮機械,,株式会社,愛媛県,新居浜市,松神子３丁目１番８号,,38,205,7920881,,,2025-08-05,清算の結了等,,,2015-10-05,1,,,,,ミヤキカイ,0
1433,6010001010743,登記記録の閉鎖等,0,2025-08-08,2025-07-10,株式会社今川理化学器械製作所,,株式会社,東京都,千代田区,神田和泉町１番地,,13,101,1010024,,,2025-07-10,清算の結了等,,,2015-10-05,1,,,,,イマガワリカガクキカイセイサクジョ,0
1470,6010803004570,登記記録の閉鎖等,0,2025-08-08,2025-07-28,合同会社アップストーリー,,合同会社,東京都,大田区,山王４丁目１０－９,,13,111,1430023,,,2025-07-28,清算の結了等,,,2023-06-06,1,,,,,アップストーリー,0
1477,6011005006570,登記記録の閉鎖等,0,2025-08-08,2025-07-07,一般社団法人障害支援センター,,その他の設立登記法人,東京都,渋谷区,広尾１丁目１番３９号恵比寿プライムスクエアタワー１９階,,13,113,1500012,,,2025-07-07,清算の結了等,,,2015-12-04,1,,,,,ショウガイシエンセンター,0
1488,6011601002394,登記記録の閉鎖等,0,2025-08-08,2025-07-24,サンワインターナショナル株式会社,,株式会社,東京都,練馬区,豊玉北４丁目３０番９号,,13,120,1760012,,,2025-07-24,清算の結了等,,,2015-10-05,1,,,,,サンワインターナショナル,0
1515,6020002001377,登記記録の閉鎖等,0,2025-08-08,2025-07-24,小林果実有限会社,,有限会社,神奈川県,横浜市瀬谷区,三ツ境２３番地の１９,,14,114,2460022,,,2025-07-24,清算の結了等,,,2015-10-05,1,,,,,コバヤシカジツ,0
1526,6030001040805,登記記録の閉鎖等,0,2025-08-08,2025-08-01,株式会社ブリシス,,株式会社,埼玉県,草加市,氷川町２１２５番地４ウシヤマビル４Ｆ,,11,221,3400034,,,2025-08-01,清算の結了等,,,2015-10-05,1,,,,,ブリシス,0
1527,6030001043031,登記記録の閉鎖等,0,2025-08-08,2025-08-04,株式会社Ｓｈｉｎｅプロ,,株式会社,埼玉県,上尾市,上町１丁目１－１２,,11,219,3620037,,,2025-08-04,清算の結了等,,,2015-10-05,1,,,,,シャインプロ,0
1544,6040001078209,登記記録の閉鎖等,0,2025-08-08,2025-07-14,株式会社アド・プロジェクト,,株式会社,千葉県,木更津市,大久保２丁目２１番７号,,12,206,2920815,,,2025-07-14,清算の結了等,,,2015-10-05,1,,,,,アドプロジェクト,0
1584,6120001275540,登記記録の閉鎖等,0,2025-08-08,2025-08-01,株式会社賃貸経営不動産,,株式会社,大阪府,大阪市中央区,南船場３丁目１番８号,,27,128,5420081,,,2025-08-01,合併による解散等,8120001180532,令和７年８月１日大阪市中央区南船場三丁目１番８号株式会社賃貸経営土地建物（8120001180532）に合併し解散,2025-05-12,1,,,,,チンタイケイエイフドウサン,0
1590,6120002081509,登記記録の閉鎖等,0,2025-08-08,2025-07-30,有限会社スリーオー,,有限会社,大阪府,門真市,柳田町３７番１４号,,27,223,5710038,,,2025-07-30,清算の結了等,,,2015-10-05,1,,,,,スリーオー,0
1591,6120003017742,登記記録の閉鎖等,0,2025-08-08,2025-07-29,合同会社ネネンプロヴィジョンズ,,合同会社,大阪府,大阪市中央区,南船場１丁目１７番２１号,,27,128,5420081,,,2025-07-29,清算の結了等,,,2020-07-16,1,,,,,ネネンプロヴィジョンズ,0
1609,6130001072094,登記記録の閉鎖等,0,2025-08-08,2025-07-22,株式会社京都わくわくラボ,,株式会社,京都府,京都市上京区,新町通寺之内下る安楽小路町４２６番地２,,26,102,6020064,,,2025-07-22,清算の結了等,,,2022-06-30,1,,,,,キョウトワクワクラボ,0
1613,6140001074387,登記記録の閉鎖等,0,2025-08-08,2025-08-01,株式会社だんだんデイサービス,,株式会社,兵庫県,西宮市,田代町９－１７,,28,204,6638201,,,2025-08-01,合併による解散等,9140001115709,令和７年８月１日兵庫県西宮市清瀬台３番８号株式会社リセルフ（9140001115709）に合併し解散,2015-10-05,1,,,,,ダンダンデイサービス,0
1618,6140005025691,登記記録の閉鎖等,0,2025-08-08,2025-07-31,一般社団法人播磨インターンシップコンソーシアム,,その他の設立登記法人,兵庫県,加古川市,平岡町一色９３番地,,28,210,6750115,,,2025-07-31,清算の結了等,,,2021-06-04,1,,,,,ハリマインターンシップコンソーシアム,0
1624,6180002002335,登記記録の閉鎖等,0,2025-08-08,2025-07-22,有限会社信栄商会,,有限会社,愛知県,長久手市,氏神前２０５番地,,23,238,4801125,,,2025-07-22,清算の結了等,,,2015-10-05,1,,,,,シンエイショウカイ,0
1626,6180002048155,登記記録の閉鎖等,0,2025-08-08,2025-07-14,有限会社プロント,,有限会社,愛知県,名古屋市中川区,富田町大字千音寺字東福正４７８３番地の１５,,23,110,4540971,,,2025-07-14,清算の結了等,,,2015-10-05,1,,,,,プロント,0
1627,6180002068384,登記記録の閉鎖等,0,2025-08-08,2025-07-14,有限会社アグライア,,有限会社,愛知県,小牧市,大字上末３１２１番地,,23,219,4850822,,,2025-07-14,清算の結了等,,,2015-10-05,1,,,,,アグライア,0
1638,6230002008954,登記記録の閉鎖等,0,2025-08-08,2025-08-01,清光オートサービス有限会社,,有限会社,富山県,滑川市,下梅沢２番地,,16,206,9360857,,,2025-08-01,合併による解散等,7230001007857,令和７年８月１日富山県滑川市上小泉２１４５番地１株式会社日本海重機サービス（7230001007857）に合併し解散,2015-10-05,1,,,,,セイコウオートサービス,0
1642,6240001015835,登記記録の閉鎖等,0,2025-08-08,2025-07-31,株式会社ディディオス,,株式会社,広島県,広島市西区,中広町２丁目５番１号,,34,104,7330012,,,2025-07-31,清算の結了等,,,2015-10-05,1,,,,,ディディオス,0
1646,6260002013662,登記記録の閉鎖等,0,2025-08-08,2025-07-14,有限会社プラスアルファ,,有限会社,岡山県,岡山市中区,門田屋敷４丁目１番１５号,,33,102,7038275,,,2025-07-14,清算の結了等,,,2015-10-05,1,,,,,プラスアルファ,0
1650,6290001049622,登記記録の閉鎖等,0,2025-08-08,2025-07-10,株式会社丸生,,株式会社,福岡県,久留米市,東町４０番地の１０,,40,203,8300032,,,2025-07-10,清算の結了等,,,2015-10-05,1,,,,,マルショウ,0
1663,6310001015745,登記記録の閉鎖等,0,2025-08-08,2025-08-07,株式会社明良サービス,,株式会社,長崎県,長崎市,さくらの里１丁目５番６号パークヒルズ桜の里Ｃ－１０１,,42,201,8512207,,,2025-08-07,清算の結了等,,,2018-09-26,1,,,,,メイリョウサービス,0
1694,6420001010784,登記記録の閉鎖等,0,2025-08-08,2025-07-29,株式会社岩木山りんご生産出荷組合,,株式会社,青森県,弘前市,大字堅田字神田３９６番地,,02,202,0368052,,,2025-07-29,清算の結了等,,,2015-10-05,1,,,,,イワキサンリンゴセイサンシュッカクミアイ,0
1695,6420002009644,登記記録の閉鎖等,0,2025-08-08,2025-07-29,有限会社つかさ屋,,有限会社,青森県,三戸郡五戸町,字中道９番地２７号,,02,442,0391542,,,2025-07-29,清算の結了等,,,2015-10-05,1,,,,,ツカサヤ,0
1734,7010401165764,登記記録の閉鎖等,0,2025-08-08,2025-07-14,株式会社ブラボークリエイティブス,,株式会社,東京都,港区,南麻布１丁目６番８号,,13,103,1060047,,,2025-07-14,清算の結了等,,,2022-02-28,1,,,,,ブラボークリエイティブス,0
1739,7010403008756,登記記録の閉鎖等,0,2025-08-08,2025-07-14,トリニティコーポレーション合同会社,,合同会社,東京都,港区,虎ノ門４丁目３番２０号神谷町ＭＴビル１４階,,13,103,1050001,,,2025-07-14,清算の結了等,,,2015-10-05,1,,,,,,0
1749,7010701039016,登記記録の閉鎖等,0,2025-08-08,2025-07-24,株式会社Ｄｉａｍｏｎｄ　Ｐｒｅｓｓ,,株式会社,東京都,練馬区,高松１丁目２８番２３号ブランシカ高松台３０５号室,,13,120,1790075,,,2025-07-24,清算の結了等,,,2020-03-27,1,,,,,ダイヤモンドプレス,0
1756,7010803005246,登記記録の閉鎖等,0,2025-08-08,2025-07-22,ネヴズン合同会社,,合同会社,東京都,大田区,大森西２丁目３番６号,,13,111,1430015,,,2025-07-22,清算の結了等,,,2025-01-22,1,,,,,ネヴズン,0
1764,7011001070958,登記記録の閉鎖等,0,2025-08-08,2025-07-01,株式会社ユニケース,,株式会社,東京都,渋谷区,恵比寿４丁目１番１８号,,13,113,1500013,,,2025-07-01,合併による解散等,5011001061661,令和７年７月１日東京都渋谷区恵比寿四丁目１番１８号株式会社ティーガイア（5011001061661）に合併し解散,2015-10-05,1,,,,,ユニケース,0
1782,7011702016251,登記記録の閉鎖等,0,2025-08-08,2025-08-04,有限会社トレジャーボックス,,有限会社,東京都,江戸川区,南篠崎町２丁目５０番４号,,13,123,1330065,,,2025-08-04,清算の結了等,,,2015-10-05,1,,,,,トレジャーボックス,0
1824,7030002008602,登記記録の閉鎖等,0,2025-08-08,2025-08-01,有限会社大門産業,,有限会社,埼玉県,さいたま市大宮区,大門町３丁目１５８番地,,11,103,3300846,,,2025-08-01,清算の結了等,,,2015-10-05,1,,,,,ダイモンサンギョウ,0
1833,7040002002083,登記記録の閉鎖等,0,2025-08-08,2025-07-15,有限会社エムピーエス,,有限会社,千葉県,千葉市花見川区,幕張本郷１丁目１６番１号４０３,,12,102,2620033,,,2025-07-15,清算の結了等,,,2015-10-05,1,,,,,エムピーエス,0
1837,7040002011869,登記記録の閉鎖等,0,2025-08-08,2025-07-14,株式会社ヤハギ,,株式会社,千葉県,千葉市若葉区,千城台西１丁目４０番８号,,12,104,2640004,,,2025-07-14,清算の結了等,,,2015-10-05,1,,,,,ヤハギ,0
1856,7100001032901,登記記録の閉鎖等,0,2025-08-08,2025-08-06,株式会社塚田五六商店,,株式会社,長野県,長野市,若里６丁目８番２５号,,20,201,3800928,,,2025-08-06,合併による解散等,8100001000592,令和７年８月１日長野市若宮一丁目２番地１みすずトラスト株式会社（8100001000592）に合併し解散,2020-02-05,1,,,,,ツカダゴロクショウテン,0
1863,7110001030144,登記記録の閉鎖等,0,2025-08-08,2025-07-15,株式会社やおきん,,株式会社,新潟県,村上市,田端町４番５号,,15,212,9580854,,,2025-07-15,清算の結了等,,,2015-10-05,1,,,,,ヤオキン,0
1866,7110002023196,登記記録の閉鎖等,0,2025-08-08,2025-07-14,有限会社ナベ通信,,有限会社,新潟県,上越市,子安新田６番３３号,,15,222,9430148,,,2025-07-14,清算の結了等,,,2015-10-05,1,,,,,ナベツウシン,0
1871,7120001056403,登記記録の閉鎖等,0,2025-08-08,2025-08-01,ニプロＥＳファーマ株式会社,,株式会社,大阪府,摂津市,千里丘新町３番２６号,,27,224,5660002,,,2025-08-01,合併による解散等,3120001087781,令和７年８月１日大阪府摂津市千里丘新町３番２６号ニプロファーマ株式会社（3120001087781）に合併し解散,2015-10-05,1,,,,,ニプロイーエスファーマ,0
1873,7120001090757,登記記録の閉鎖等,0,2025-08-08,2025-07-28,株式会社メディアフォーシステムズ,,株式会社,大阪府,大阪市中央区,島町１丁目２番３号,,27,128,5400034,,,2025-07-28,清算の結了等,,,2015-10-05,1,,,,,,0
1882,7120002023237,登記記録の閉鎖等,0,2025-08-08,2025-07-18,有限会社ミツワ薬局,,有限会社,大阪府,大阪市住吉区,万代４丁目１番１１号,,27,120,5580055,,,2025-07-18,清算の結了等,,,2015-10-05,1,,,,,,0
1884,7120002037947,登記記録の閉鎖等,0,2025-08-08,2025-07-18,有限会社パロモ,,有限会社,大阪府,大阪市中央区,東心斎橋１丁目９番２４号,,27,128,5420083,,,2025-07-18,清算の結了等,,,2015-10-05,1,,,,,,0
1890,7120102017840,登記記録の閉鎖等,0,2025-08-08,2025-07-29,有限会社アル,,有限会社,大阪府,羽曳野市,誉田３丁目３番４号,,27,222,5830857,,,2025-07-29,清算の結了等,,,2015-10-05,1,,,,,アル,0
1893,7120901045892,登記記録の閉鎖等,0,2025-08-08,2025-07-22,株式会社ＥＮＧＩＮＥ,,株式会社,大阪府,摂津市,東別府４丁目３番４１－４号,,27,224,5660042,,,2025-07-22,清算の結了等,,,2022-04-25,1,,,,,,0
1898,7130001062755,登記記録の閉鎖等,0,2025-08-08,2025-07-18,株式会社アイエスオー,,株式会社,京都府,亀岡市,大井町小金岐１丁目９番３８号,,26,206,6210018,,,2025-07-18,清算の結了等,,,2018-08-16,1,,,,,アイエスオー,0
1917,7180001003688,登記記録の閉鎖等,0,2025-08-08,2025-07-15,学悠出版株式会社,,株式会社,愛知県,名古屋市千種区,千種１丁目１５番１号,,23,101,4640858,,,2025-07-15,合併による解散等,2010401185247,令和７年７月１日東京都港区西新橋一丁目１番１号ＫＹＧホールディングス株式会社（2010401185247）に合併し解散,2015-10-05,1,,,,,ガクユウシユツパン,0
1921,7180001112935,登記記録の閉鎖等,0,2025-08-08,2025-07-14,株式会社望月インターナショナル,,株式会社,愛知県,あま市,中萱津出口１番地,,23,237,4901113,,,2025-07-14,清算の結了等,,,2015-10-05,1,,,,,,0
1922,7180001119360,登記記録の閉鎖等,0,2025-08-08,2025-07-16,株式会社パートナーズ,,株式会社,愛知県,名古屋市千種区,振甫町２丁目３９－１,,23,101,4640072,,,2025-07-16,清算の結了等,,,2015-10-05,1,,,,,パートナーズ,0
1924,7180002061223,登記記録の閉鎖等,0,2025-08-08,2025-08-05,有限会社さくら,,有限会社,愛知県,名古屋市中区,千代田５丁目６番２１号,,23,106,4600012,,,2025-08-05,合併による解散等,6150002003757,令和７年８月１日奈良県生駒市喜里が丘一丁目１０番１３号株式会社近畿理美容（6150002003757）に合併し解散,2015-10-05,1,,,,,サクラ,0
1932,7190001019700,登記記録の閉鎖等,0,2025-08-08,2025-07-31,株式会社エムティエイ,,株式会社,三重県,多気郡多気町,仁田７３７番地５,,24,441,5192179,,,2025-07-31,清算の結了等,,,2015-10-05,1,,,,,エムティエイ,0
1951,7260001000710,登記記録の閉鎖等,0,2025-08-08,2025-07-14,株式会社エイシン,,株式会社,岡山県,岡山市北区,今２丁目２－７,,33,101,7000975,,,2025-07-14,清算の結了等,,,2015-10-05,1,,,,,エイシン,0
1953,7260003002151,登記記録の閉鎖等,0,2025-08-08,2025-08-04,株式会社インフルエンシャルパーソンズ,,株式会社,埼玉県,さいたま市北区,宮原町２丁目３８－１２,,11,102,3310812,,,2025-08-04,清算の結了等,,,2016-12-28,1,,,,,インフルエンシャルパーソンズ,0
1955,7290001049753,登記記録の閉鎖等,0,2025-08-08,2025-07-11,株式会社吉屋,,株式会社,福岡県,久留米市,日吉町２５番地の８,,40,203,8300017,,,2025-07-11,清算の結了等,,,2015-10-05,1,,,,,ヨシヤ,0
1961,7310001005860,登記記録の閉鎖等,0,2025-08-08,2025-08-07,株式会社西村企業,,株式会社,長崎県,佐世保市,花高２丁目７番３号,,42,202,8593212,,,2025-08-07,清算の結了等,,,2015-10-05,1,,,,,ニシムラキギョウ,0
1970,7330001013151,登記記録の閉鎖等,0,2025-08-08,2025-07-24,株式会社ヤマタカ,,株式会社,熊本県,宇城市,豊野町下郷３１３４番地１,,43,213,8614304,,,2025-07-24,清算の結了等,,,2015-10-05,1,,,,,ヤマタカ,0
1972,7330002001477,登記記録の閉鎖等,0,2025-08-08,2025-07-24,有限会社エム・エム地所,,有限会社,熊本県,熊本市中央区,新屋敷３丁目３番７号,,43,101,8620975,,,2025-07-24,清算の結了等,,,2015-10-05,1,,,,,エムエムチショ,0
1977,7340005008279,登記記録の閉鎖等,0,2025-08-08,2025-07-28,特定非営利活動法人薩摩川内市精神保健福祉促進の会,00100408,その他の設立登記法人,鹿児島県,薩摩川内市,永利町２９３９番地,,46,215,8950005,,,2025-07-28,清算の結了等,,,2015-10-05,1,,,,,サツマセンダイシセイシンホケンフクシソクシンノカイ,0
1979,7360003009533,登記記録の閉鎖等,0,2025-08-08,2025-08-04,Ｍａｔｅｅ合同会社,,合同会社,埼玉県,さいたま市大宮区,堀の内町２丁目８５番地グリーンウッドＤ３０２,,11,103,3300804,,,2025-08-04,清算の結了等,,,2019-05-23,1,,,,,メイティー,0
1981,7370301001273,登記記録の閉鎖等,0,2025-08-08,2025-07-16,株式会社みちのく造園,,株式会社,宮城県,石巻市,蛇田字小斎４番地,,04,202,9860861,,,2025-07-16,清算の結了等,,,2015-10-05,1,,,,,ミチノクゾウエン,0
1989,7390001014680,登記記録の閉鎖等,0,2025-08-08,2025-07-30,株式会社ディライトマター,,株式会社,山形県,米沢市,城南４丁目３番１６号山形大学工学部国際事業化研究センター内,,06,202,9920038,,,2025-07-30,清算の結了等,,,2016-11-08,1,,,,,ディライトマター,0
2002,7480002008037,登記記録の閉鎖等,0,2025-08-08,2025-08-05,有限会社ハヤシ,,有限会社,徳島県,小松島市,前原町字宮１８番地の１,,36,203,7730013,,,2025-08-05,清算の結了等,,,2015-10-05,1,,,,,ハヤシ,0
2003,7480002010918,登記記録の閉鎖等,0,2025-08-08,2025-08-05,有限会社村薬局,,有限会社,徳島県,鳴門市,里浦町里浦字花面３５０番地４７,,36,202,7720021,,,2025-08-05,清算の結了等,,,2015-10-05,1,,,,,ムラヤッキョク,0
2010,7500001016483,登記記録の閉鎖等,0,2025-08-08,2025-08-01,株式会社オレンジ,,株式会社,愛媛県,四国中央市,土居町津根３７４０番地１,,38,213,7990704,,,2025-08-01,合併による解散等,3500001015051,令和７年８月１日愛媛県四国中央市土居町津根３７４０番地１株式会社山口観光（3500001015051）に合併し解散,2015-10-05,1,,,,,オレンジ,0
2020,8010001193652,登記記録の閉鎖等,0,2025-08-08,2025-07-24,株式会社ＭｅｅＣａｐ,,株式会社,東京都,中央区,日本橋室町３丁目４番７号,,13,102,1030022,,,2025-07-24,合併による解散等,7010001167203,令和７年６月１３日東京都中央区日本橋室町三丁目４番７号株式会社サザンウィッシュ（7010001167203）に合併し解散,2018-07-30,1,,,,,ミーキャップ,0
2040,8010401124554,登記記録の閉鎖等,0,2025-08-08,2025-07-14,株式会社セントラルギア,,株式会社,東京都,港区,六本木４丁目１１番４号六本木ビル５Ｆ,,13,103,1060032,,,2025-07-14,清算の結了等,,,2016-05-10,1,,,,,,0
2050,8010601015776,登記記録の閉鎖等,0,2025-08-08,2025-08-01,株式会社宮澤商店,,株式会社,東京都,墨田区,両国１丁目１番９号,,13,107,1300026,,,2025-08-01,清算の結了等,,,2015-10-05,1,,,,,ミヤザワショウテン,0
2052,8010601049733,登記記録の閉鎖等,0,2025-08-08,2025-08-04,トライリンクス株式会社,,株式会社,東京都,江東区,木場２丁目１９番１５号セントラルビル７階,,13,108,1350042,,,2025-08-04,清算の結了等,,,2016-05-17,1,,,,,トライリンクス,0
2058,8010802000800,登記記録の閉鎖等,0,2025-08-08,2025-07-28,有限会社アモルファス,,有限会社,東京都,大田区,東嶺町１６番１１号,,13,111,1450074,,,2025-07-28,清算の結了等,,,2015-10-05,1,,,,,アモルファス,0
2061,8011001010806,登記記録の閉鎖等,0,2025-08-08,2025-07-07,集成建設株式会社,,株式会社,東京都,渋谷区,代々木１丁目３０番５号大木ビル,,13,113,1510053,,,2025-07-07,清算の結了等,,,2015-10-05,1,,,,,シュウセイケンセツ,0
2068,8011301028713,登記記録の閉鎖等,0,2025-08-08,2025-07-31,薔薇株式会社,,株式会社,東京都,杉並区,梅里２丁目２５番１３号,,13,115,1660011,,,2025-07-31,清算の結了等,,,2023-05-18,1,,,,,バラ,0
2093,8020001144464,登記記録の閉鎖等,0,2025-08-08,2025-07-14,株式会社ｆｌｏａｔｉｎｇ　ｌｉｍｅ,,株式会社,東京都,渋谷区,代々木１丁目５８－１１中沢ビル４階,,13,113,1510053,,,2025-07-14,合併による解散等,6030001066965,令和７年６月１日埼玉県北葛飾郡松伏町築比地７９５番地１株式会社ウィーズ（6030001066965）に合併し解散,2021-12-24,1,,,,,フローティングライム,0
2095,8020001161526,登記記録の閉鎖等,0,2025-08-08,2025-07-16,株式会社楓の風メディカルマネジメント,,株式会社,神奈川県,横浜市神奈川区,鶴屋町３丁目３２番地１３,,14,102,2210835,,,2025-07-16,清算の結了等,,,2025-02-19,1,,,,,カエデノカゼメディカルマネジメント,0
2117,8030001090427,登記記録の閉鎖等,0,2025-08-08,2025-08-01,株式会社フロントライン,,株式会社,埼玉県,日高市,大字高萩２４８６番地３,,11,242,3501213,,,2025-08-01,清算の結了等,,,2015-10-05,1,,,,,フロントライン,0
2119,8030001097422,登記記録の閉鎖等,0,2025-08-08,2025-08-01,株式会社ＭＯＶＥ,,株式会社,埼玉県,草加市,高砂１丁目６番３７号,,11,221,3400015,,,2025-08-01,清算の結了等,,,2015-10-05,1,,,,,ムーブ,0
2138,8040001089848,登記記録の閉鎖等,0,2025-08-08,2025-07-14,地域ホームメディケアホールディングス株式会社,,株式会社,千葉県,柏市,柏１丁目１番７号,,12,217,2770005,,,2025-07-14,合併による解散等,6030001066965,令和７年６月１日埼玉県北葛飾郡松伏町築比地７９５番地１株式会社ウィーズ（6030001066965）に合併し解散,2015-10-05,1,,,,,チイキホームメディケアホールディングス,0
2144,8040002073909,登記記録の閉鎖等,0,2025-08-08,2025-07-22,有限会社千洋鉄工所,,有限会社,千葉県,市原市,八幡１３１５番地の２,,12,219,2900062,,,2025-07-22,清算の結了等,,,2015-10-05,1,,,,,センヨウテッコウジョ,0
2150,8050002007238,登記記録の閉鎖等,0,2025-08-08,2025-07-30,有限会社ライン,,有限会社,茨城県,那珂郡東海村,大字須和間１４２３番地の１２,,08,341,3191114,,,2025-07-30,清算の結了等,,,2015-10-05,1,,,,,ライン,0
2153,8050002030173,登記記録の閉鎖等,0,2025-08-08,2025-07-25,有限会社石川木工所,,有限会社,茨城県,日立市,東多賀町５丁目１８番２３号,,08,202,3160004,,,2025-07-25,清算の結了等,,,2015-10-05,1,,,,,イシカワモッコウショ,0
2206,8120102005373,登記記録の閉鎖等,0,2025-08-08,2025-07-30,有限会社近江建設,,有限会社,大阪府,高石市,千代田４丁目９番１８号,,27,225,5920005,,,2025-07-30,清算の結了等,,,2015-10-05,1,,,,,,0
2214,8140001066597,登記記録の閉鎖等,0,2025-08-08,2025-08-01,松下機器株式会社,,株式会社,兵庫県,三田市,福島４２０番地の１,,28,219,6691313,,,2025-08-01,清算の結了等,,,2015-10-05,1,,,,,マツシタキキ,0
2217,8140002027565,登記記録の閉鎖等,0,2025-08-08,2025-08-04,有限会社飲食歓,,有限会社,兵庫県,神戸市中央区,三宮町３丁目４番３号,,28,110,6500021,,,2025-08-04,清算の結了等,,,2015-10-05,1,,,,,インショクカン,0
2220,8140002045311,登記記録の閉鎖等,0,2025-08-08,2025-08-01,有限会社電化プラザＮａＶｉ,,有限会社,兵庫県,尼崎市,猪名寺１丁目１８番１７号,,28,202,6610981,,,2025-08-01,清算の結了等,,,2015-10-05,1,,,,,デンカプラザナビ,0
2223,8140002067719,登記記録の閉鎖等,0,2025-08-08,2025-08-06,あのい有限会社,,有限会社,兵庫県,宝塚市,御殿山２丁目２５番３６号,,28,214,6650841,,,2025-08-06,合併による解散等,8120001163818,令和７年７月２９日大阪市浪速区湊町一丁目２番１７－３１０２号株式会社大島康義経営研究所（8120001163818）に合併し解散,2015-10-05,1,,,,,アノイ,0
2238,8180002002548,登記記録の閉鎖等,0,2025-08-08,2025-07-01,株式会社中央土地建物,,株式会社,愛知県,名古屋市名東区,高針２丁目２５０６番地の２,,23,115,4650061,,,2025-07-01,合併による解散等,9180002002547,令和７年７月１日名古屋市名東区松井町９９番地株式会社チュウオーコーポレーション（9180002002547）に合併し解散,2015-10-05,1,,,,,チュウオウトチタテモノ,0
2241,8180002039573,登記記録の閉鎖等,0,2025-08-08,2025-07-14,有限会社友善,,有限会社,愛知県,名古屋市守山区,緑ヶ丘８０１番地,,23,113,4630009,,,2025-07-14,清算の結了等,,,2015-10-05,1,,,,,ユウゼン,0
2256,8250002018223,登記記録の閉鎖等,0,2025-08-08,2025-08-05,有限会社大成商事,,有限会社,山口県,岩国市,関戸９１２番地１,,35,208,7410063,,,2025-08-05,清算の結了等,,,2015-10-05,1,,,,,タイセイショウジ,0
2257,8260002030813,登記記録の閉鎖等,0,2025-08-08,2025-07-23,有限会社三晴,,有限会社,岡山県,岡山市北区,大元２丁目５番３号,,33,101,7000924,,,2025-07-23,清算の結了等,,,2015-10-05,1,,,,,ミハル,0
2269,8330002022480,登記記録の閉鎖等,0,2025-08-08,2025-07-24,有限会社池田瓦ブロック工場,,有限会社,熊本県,玉名郡和水町,山十町１６２番地,,43,369,8610915,,,2025-07-24,清算の結了等,,,2015-10-05,1,,,,,イケダカワラブロックコウジョウ,0
2270,8330002027942,登記記録の閉鎖等,0,2025-08-08,2025-07-31,有限会社ミナデン,,有限会社,熊本県,水俣市,丸島町２丁目１９番２６号,,43,205,8670058,,,2025-07-31,清算の結了等,,,2015-10-05,1,,,,,ミナデン,0
2281,8370001039621,登記記録の閉鎖等,0,2025-08-08,2025-07-17,株式会社ジェイサービス,,株式会社,宮城県,仙台市青葉区,北根１丁目１３番１－２１１号,,04,101,9810902,,,2025-07-17,清算の結了等,,,2016-05-12,1,,,,,ジェイサービス,0
2288,8420002012555,登記記録の閉鎖等,0,2025-08-08,2025-07-18,有限会社銀波,,有限会社,青森県,西津軽郡深浦町,大字田野沢字汐干浜３９番地４,,02,323,0382505,,,2025-07-18,清算の結了等,,,2015-10-05,1,,,,,ギンパ,0
2317,9010003038004,登記記録の閉鎖等,0,2025-08-08,2025-07-10,合同会社太陽農園,,合同会社,東京都,中央区,日本橋茅場町３丁目４番２号ＫＤＸ茅場町ビル４Ｆ,,13,102,1030025,,,2025-07-10,清算の結了等,,,2022-06-28,1,,,,,タイヨウノウエン,0
2323,9010401024035,登記記録の閉鎖等,0,2025-08-08,2025-07-09,株式会社萩原バルブ,,株式会社,東京都,港区,白金１丁目１６番１号,,13,103,1080072,,,2025-07-09,清算の結了等,,,2015-10-05,1,,,,,ハギワラバルブ,0
2330,9010401146077,登記記録の閉鎖等,0,2025-08-08,2025-07-10,株式会社ＲＴＭ　ＪＡＰＡＮ,,株式会社,東京都,港区,西麻布２丁目１３番８号ライオンズマンション西麻布シティ２０２,,13,103,1060031,,,2025-07-10,清算の結了等,,,2019-06-10,1,,,,,アールティエムジャパン,0
2347,9010601037514,登記記録の閉鎖等,0,2025-08-08,2025-07-31,株式会社源工社,,株式会社,東京都,江東区,亀戸５丁目６番６－２０１号,,13,108,1360071,,,2025-07-31,清算の結了等,,,2015-10-05,1,,,,,ゲンコウシャ,0
2359,9011001058290,登記記録の閉鎖等,0,2025-08-08,2025-08-04,株式会社エフェクトプラン,,株式会社,埼玉県,さいたま市北区,宮原町２丁目３８－１２,,11,102,3310812,,,2025-08-04,清算の結了等,,,2015-10-05,1,,,,,エフェクトプラン,0
2365,9011002018657,登記記録の閉鎖等,0,2025-08-08,2025-07-28,有限会社アーリーバード,,有限会社,東京都,大田区,東矢口２丁目１８番８－３０４号,,13,111,1460094,,,2025-07-28,清算の結了等,,,2015-10-05,1,,,,,アーリーバード,0
2381,9012803001776,登記記録の閉鎖等,0,2025-08-08,2025-07-22,合同会社セント,,合同会社,東京都,国分寺市,本多５丁目２９番４号,,13,214,1850011,,,2025-07-22,清算の結了等,,,2018-03-13,1,,,,,セント,0
2396,9020002022692,登記記録の閉鎖等,0,2025-08-08,2025-07-25,有限会社山機製作所,,有限会社,神奈川県,横浜市旭区,南本宿１７１番地－３,,14,112,2410000,,,2025-07-25,清算の結了等,,,2015-10-05,1,,,,,ヤマキセイサクショ,0
2403,9021005002079,登記記録の閉鎖等,0,2025-08-08,2025-07-09,学校法人モンタナ学園,,その他の設立登記法人,神奈川県,鎌倉市,津５５０番地,,14,204,2480032,,,2025-07-09,合併による解散等,8020005002726,令和７年６月３０日横浜市中区山手町４４番地学校法人聖トマ学園（8020005002726）に合併し解散,2015-10-05,1,,,,,モンタナガクエン,0
2405,9030001010466,登記記録の閉鎖等,0,2025-08-08,2025-08-01,株式会社タカコーポレーション,,株式会社,埼玉県,さいたま市大宮区,桜木町２丁目３４０番地,,11,103,3300854,,,2025-08-01,合併による解散等,9030002017700,令和７年８月１日埼玉県さいたま市大宮区桜木町二丁目３４０番地１株式会社成均企画（9030002017700）に合併し解散,2015-10-05,1,,,,,タカコーポレーション,0
2415,9030002075293,登記記録の閉鎖等,0,2025-08-08,2025-08-04,有限会社武藤製作所,,有限会社,埼玉県,川越市,中台元町２丁目４番地２１,,11,201,3501138,,,2025-08-04,清算の結了等,,,2015-10-05,1,,,,,ムトウセイサクショ,0
2423,9040005017630,登記記録の閉鎖等,0,2025-08-08,2025-07-15,誉田第二造成地等共有施設団地管理組合法人,,その他の設立登記法人,千葉県,市原市,瀬又９６２番地の３３,,12,219,2900151,,,2025-07-15,清算の結了等,,,2015-10-05,1,,,,,ホンダダイニゾウセイチトウキョウユウシセツ,0
2429,9060002033991,登記記録の閉鎖等,0,2025-08-08,2025-07-29,有限会社マルヒデ,,有限会社,栃木県,栃木市,皆川城内町７７３番地１,,09,203,3280067,,,2025-07-29,清算の結了等,,,2015-10-05,1,,,,,マルヒデ,0
2433,9070001021674,登記記録の閉鎖等,0,2025-08-08,2025-07-30,株式会社ワイエムイー,,株式会社,群馬県,館林市,西高根町４１番地の２４,,10,207,3740075,,,2025-07-30,清算の結了等,,,2015-10-05,1,,,,,ワイエムイー,0
2434,9070001025675,登記記録の閉鎖等,0,2025-08-08,2025-07-30,株式会社シュエット,,株式会社,群馬県,佐波郡玉村町,大字上新田１０４７番地５,,10,464,3701133,,,2025-07-30,清算の結了等,,,2015-10-05,1,,,,,シュエット,0
2438,9070002003696,登記記録の閉鎖等,0,2025-08-08,2025-08-01,有限会社デンソーオートサービス,,有限会社,群馬県,前橋市,勝沢町３５０番地１,,10,201,3710124,,,2025-08-01,清算の結了等,,,2015-10-05,1,,,,,デンソーオートサービス,0
2450,9100001006275,登記記録の閉鎖等,0,2025-08-08,2025-08-04,アピックヤマダ株式会社,,株式会社,長野県,千曲市,大字上徳間９０番地,,20,218,3890805,,,2025-08-04,合併による解散等,3012801002889,令和７年７月１日東京都武蔵村山市伊奈平二丁目５１番地の１ヤマハロボティクス株式会社（3012801002889）に合併し解散,2015-10-05,1,,,,,アピックヤマダ,0
2454,9120001016958,登記記録の閉鎖等,0,2025-08-08,2025-07-29,株式会社永幸合金製造所,00027224,株式会社,大阪府,大阪市生野区,小路東３丁目１２番１９号,,27,116,5440003,,,2025-07-29,清算の結了等,,,2015-10-05,1,,,,,,0
2455,9120001112220,登記記録の閉鎖等,0,2025-08-08,2025-07-16,株式会社ペトロスター関西,,株式会社,兵庫県,芦屋市,業平町５番２０号,,28,206,6590068,,,2025-07-16,合併による解散等,2010001126403,令和７年７月１日東京都中央区新富一丁目１８番８号出光リテール販売株式会社（2010001126403）に合併し解散,2015-10-05,1,,,,,ペトロスターカンサイ,0
2456,9120001149659,登記記録の閉鎖等,0,2025-08-08,2025-07-18,株式会社サン精工,,株式会社,大阪府,枚方市,春日野１丁目１番５３号,,27,210,5730131,,,2025-07-18,清算の結了等,,,2015-10-05,1,,,,,,0
2469,9120002014812,登記記録の閉鎖等,0,2025-08-08,2025-07-18,有限会社鈴木通信,,有限会社,大阪府,大阪市大正区,三軒家西１丁目２４番５号,,27,108,5510001,,,2025-07-18,清算の結了等,,,2015-10-05,1,,,,,,0
2473,9120101032244,登記記録の閉鎖等,0,2025-08-08,2025-07-31,大黒産業株式会社,,株式会社,大阪府,羽曳野市,野大字戸後２４番地,,27,222,5830884,,,2025-07-31,清算の結了等,,,2015-10-05,1,,,,,オオグロサンギョウ,0
2477,9120901010317,登記記録の閉鎖等,0,2025-08-08,2025-07-22,株式会社アガワ,,株式会社,大阪府,高槻市,北昭和台町２１番１２号,,27,207,5690816,,,2025-07-22,清算の結了等,,,2015-10-05,1,,,,,アガワ,0
2480,9120901016553,登記記録の閉鎖等,0,2025-08-08,2025-07-22,リアル・エスコート株式会社,,株式会社,大阪府,高槻市,城南町２丁目３９番１号,,27,207,5690056,,,2025-07-22,清算の結了等,,,2015-10-05,1,,,,,,0
2485,9130001010852,登記記録の閉鎖等,0,2025-08-08,2025-07-25,株式会社修明社製本所,,株式会社,京都府,京都市南区,上鳥羽清井町２６７番地,,26,107,6018174,,,2025-07-25,清算の結了等,,,2015-10-05,1,,,,,シュウメイシャセイホンショ,0
2489,9130001060658,登記記録の閉鎖等,0,2025-08-08,2025-07-22,株式会社竹林,,株式会社,京都府,宮津市,字由良２３２番地,,26,205,6260071,,,2025-07-22,清算の結了等,,,2017-10-10,1,,,,,チクリン,0
2492,9140001076694,登記記録の閉鎖等,0,2025-08-08,2025-07-31,株式会社小林事務機,,株式会社,兵庫県,小野市,鹿野町２４７１番地の４,,28,218,6751364,,,2025-07-31,清算の結了等,,,2015-10-05,1,,,,,コバヤシジムキ,0
2507,9180001115168,登記記録の閉鎖等,0,2025-08-08,2025-07-15,株式会社船・Ｐｅａｃｅ,,株式会社,愛知県,名古屋市中区,錦１丁目６番３４号,,23,106,4600003,,,2025-07-15,清算の結了等,,,2015-10-05,1,,,,,センピース,0
2511,9180002004774,登記記録の閉鎖等,0,2025-08-08,2025-07-15,株式会社悠イング,,株式会社,愛知県,名古屋市千種区,千種１丁目１５番１号,,23,101,4640858,,,2025-07-15,合併による解散等,2010401185247,令和７年７月１日東京都港区西新橋一丁目１番１号ＫＹＧホールディングス株式会社（2010401185247）に合併し解散,2015-10-05,1,,,,,ユウイング,0
2512,9180002021274,登記記録の閉鎖等,0,2025-08-08,2025-07-16,有限会社アドウィスタリア,,有限会社,愛知県,名古屋市昭和区,楽園町１４７番地プラウド昭和楽園町３１１号室,,23,107,4660822,,,2025-07-16,清算の結了等,,,2015-10-05,1,,,,,アドウィスタリア,0
2516,9180302006479,登記記録の閉鎖等,0,2025-08-08,2025-07-29,有限会社イフ,,有限会社,愛知県,豊橋市,牛川町字田中２０番地の１,,23,201,4400016,,,2025-07-29,清算の結了等,,,2015-10-05,1,,,,,イフ,0
2536,9240002035045,登記記録の閉鎖等,0,2025-08-08,2025-08-01,有限会社林鉄工所,,有限会社,広島県,呉市,川尻町小仁方１丁目１３番４号,,34,202,7372604,,,2025-08-01,清算の結了等,,,2015-10-05,1,,,,,ハヤシテッコウショ,0
2572,9310005004403,登記記録の閉鎖等,0,2025-08-08,2025-06-27,社会福祉法人慈恵福祉会,,その他の設立登記法人,長崎県,諫早市,高来町神津倉５３４番地１,,42,204,8590131,,,2025-06-27,合併による解散等,3310005004912,令和７年６月２７日長崎県大村市徳泉川内町８２９番地社会福祉法人大村福祉会（3310005004912）に合併し解散,2015-10-05,1,,,,,ジケイフクシカイ,0
2577,9330002027058,登記記録の閉鎖等,0,2025-08-08,2025-07-24,有限会社出口・コンサルティング・オフィス,,有限会社,熊本県,八代市,毘舎丸町４番２６号,,43,202,8660851,,,2025-07-24,清算の結了等,,,2015-10-05,1,,,,,デグチコンサルティングオフィス,0
2582,9360003005951,登記記録の閉鎖等,0,2025-08-08,2025-07-15,オンケース合同会社,,合同会社,沖縄県,国頭郡本部町,字備瀬５１１番地,,47,308,9050207,,,2025-07-15,清算の結了等,,,2015-10-05,1,,,,,オンケース,0
2593,9410001001179,登記記録の閉鎖等,0,2025-08-08,2025-08-06,株式会社佐幸電気工業,,株式会社,秋田県,秋田市,山王中園町１０番４５号,,05,201,0100953,,,2025-08-06,清算の結了等,,,2015-10-05,1,,,,,サコウデンキコウギョウ,0
2596,9420001010402,登記記録の閉鎖等,0,2025-08-08,2025-07-29,株式会社コンノエステート,,株式会社,青森県,弘前市,大字安原１丁目１番地２３,,02,202,0368162,,,2025-07-29,清算の結了等,,,2015-10-05,1,,,,,コンノエステート,0
2600,9450002008509,登記記録の閉鎖等,0,2025-08-08,2025-08-05,有限会社ＳＡＲＭ,,有限会社,北海道,旭川市,豊岡十二条１０丁目３番４号,,01,204,0788242,,,2025-08-05,清算の結了等,,,2015-10-05,1,,,,,サーム,0
2602,9480002003449,登記記録の閉鎖等,0,2025-08-08,2025-08-04,有限会社中川商店,,有限会社,徳島県,徳島市,問屋町３２番地,,36,201,7708056,,,2025-08-04,清算の結了等,,,2015-10-05,1,,,,,ナカガワショウテン,0
2607,9500002021794,登記記録の閉鎖等,0,2025-08-08,2025-08-01,有限会社長野商店,,有限会社,愛媛県,四国中央市,上分町４８６番地の２,,38,213,7990121,,,2025-08-01,清算の結了等,,,2015-10-05,1,,,,,ナガノショウテン,0
