sequenceNumber,corporateNumber,process,correct,updateDate,changeDate,name,nameImageId,kind,prefectureName,cityName,streetNumber,addressImageId,prefectureCode,cityCode,postCode,addressOutside,addressOutsideImageId,closeDate,closeCause,successorCorporateNumber,changeCause,assignmentDate,latest,enName,enPrefectureName,enCityName,enAddressOutside,furigana,hihyoji
5,1010001228183,新規,0,2022-07-19,2022-07-19,株式会社ＢＬエステート,,株式会社,東京都,中央区,築地６丁目４番７号ロスマリンビル８Ｆ,,13,102,1040045,,,,,,,2022-07-19,1,,,,,ビーエルエステート,0
21,1010501049088,新規,0,2022-07-19,2022-07-19,株式会社ＭＩＹＡ　ＣＯＮＴＥＭＰＯＲＡＲＹ,,株式会社,東京都,台東区,台東４丁目３１番１号ＡＬビル３０３号室,,13,106,1100016,,,,,,,2022-07-19,1,,,,,ミヤコンテンポラリー,0
22,1010503006649,新規,0,2022-07-19,2022-07-19,博潤合同会社,,合同会社,東京都,台東区,上野６丁目７番１６号川久保ビル５０７号室,,13,106,1100005,,,,,,,2022-07-19,1,,,,,ハクジュン,0
23,1010503006657,新規,0,2022-07-19,2022-07-19,合同会社ＹＯ　Ｇｏｌｄｅｎ　ｓｔａｒ,,合同会社,東京都,台東区,浅草２丁目１４番７マガザン浅草３Ｆ,,13,106,1110032,,,,,,,2022-07-19,1,,,,,ヨーゴールデンスター,0
31,1010701042982,新規,0,2022-07-19,2022-07-19,株式会社志通,,株式会社,東京都,品川区,戸越５丁目１８番１１号,,13,109,1420041,,,,,,,2022-07-19,1,,,,,シツウ,0
39,1010901051247,新規,0,2022-07-19,2022-07-19,株式会社ＣＴＳ,,株式会社,東京都,世田谷区,給田３丁目２４番５号第５三栄ビル３０１,,13,112,1570064,,,,,,,2022-07-19,1,,,,,シーティーエス,0
48,1011003014992,新規,0,2022-07-19,2022-07-19,岡猿合同会社,,合同会社,東京都,渋谷区,猿楽町１４－３３－２０９,,13,113,1500033,,,,,,,2022-07-19,1,,,,,オカザル,0
53,1011101099440,新規,0,2022-07-19,2022-07-19,株式会社ＴＭＣ,,株式会社,東京都,新宿区,新宿１丁目９番１号第２タケビル４階,,13,104,1600022,,,,,,,2022-07-19,1,,,,,ティーエムシー,0
54,1011101099564,新規,0,2022-07-19,2022-07-19,株式会社Ｋｕｒａｇｅ,,株式会社,東京都,新宿区,新宿３丁目５番６号,,13,104,1600022,,,,,,,2022-07-19,1,,,,,クラゲ,0
65,1011401024412,新規,0,2022-07-19,2022-07-19,株式会社ダイウ,,株式会社,東京都,板橋区,舟渡２丁目８番４号カサ・デ・アマーカ２０１,,13,119,1740041,,,,,,,2022-07-19,1,,,,,ダイウ,0
70,1011501028288,新規,0,2022-07-19,2022-07-19,佳普株式会社,,株式会社,東京都,北区,浮間１丁目１番１４号リムジンビル３２９,,13,117,1150051,,,,,,,2022-07-19,1,,,,,カフ,0
72,1011503005228,新規,0,2022-07-19,2022-07-19,飛鳥商事合同会社,,合同会社,東京都,北区,西ケ原２丁目４６番１０号,,13,117,1140024,,,,,,,2022-07-19,1,,,,,アスカショウジ,0
73,1011603003651,新規,0,2022-07-19,2022-07-19,合同会社ＫＲＥＡ,,合同会社,東京都,練馬区,関町南２丁目１０番１７号,,13,120,1770053,,,,,,,2022-07-19,1,,,,,クレア,0
75,1012301013075,新規,0,2022-07-19,2022-07-19,株式会社ＬＩＴＴＬＥ　ＢＥＡＲ,,株式会社,東京都,町田市,真光寺１丁目１－１レーベンスガルテン鶴川４０４,,13,209,1950057,,,,,,,2022-07-19,1,,,,,リトルベアー,0
79,1013103001152,新規,0,2022-07-19,2022-07-19,合同会社こはく,,合同会社,東京都,あきる野市,草花３０２１番地２,,13,228,1970802,,,,,,,2022-07-19,1,,,,,コハク,0
84,1013303006232,新規,0,2022-07-19,2022-07-19,おくとぱす合同会社,,合同会社,東京都,豊島区,南大塚１丁目６０－２０天翔大塚駅前ビルＳ－７１０,,13,116,1700005,,,,,,,2022-07-19,1,,,,,オクトパス,0
91,1021001076555,新規,0,2022-07-19,2022-07-19,株式会社Ｋ‐ａＴＲＵＳＴ,,株式会社,神奈川県,相模原市中央区,田名１８０４番地２０,,14,152,2520244,,,,,,,2022-07-19,1,,,,,ケーアトラスト,0
104,1030001149262,新規,0,2022-07-19,2022-07-19,ライツ株式会社,,株式会社,埼玉県,入間郡毛呂山町,南台２丁目３２番地１５,,11,326,3500464,,,,,,,2022-07-19,1,,,,,ライツ,0
105,1030001149270,新規,0,2022-07-19,2022-07-19,株式会社ＳＴＥＬＬＡ　ＩＮＶＥＳＴＭＥＮＴ,,株式会社,埼玉県,川口市,芝新町２番９号,,11,203,3330851,,,,,,,2022-07-19,1,,,,,ステラインベストメント,0
106,1030001149279,新規,0,2022-07-19,2022-07-19,株式会社ｍｉｙａｂｉ,,株式会社,埼玉県,桶川市,泉２丁目３番２２号ダイアパレス桶川１０３号,,11,231,3630021,,,,,,,2022-07-19,1,,,,,ミヤビ,0
107,1030001149295,新規,0,2022-07-19,2022-07-19,株式会社Ｉｔ’ｓ　ｍｅ,,株式会社,埼玉県,越谷市,蒲生西町１丁目３－６８サテライト６ビル３０３,,11,222,3430835,,,,,,,2022-07-19,1,,,,,イッツミー,0
114,1030005020923,新規,0,2022-07-19,2022-07-19,社会福祉法人昭友会,,その他の設立登記法人,埼玉県,さいたま市緑区,原山１丁目１７番８号,,11,109,3360931,,,,,,,2022-07-19,1,,,,,ショウユウカイ,0
119,1040001124339,新規,0,2022-07-19,2022-07-19,株式会社みずほ美津島,,株式会社,千葉県,千葉市美浜区,高洲２丁目８番９棟３２２号,,12,106,2610004,,,,,,,2022-07-19,1,,,,,ミズホミツシマ,0
120,1040003020445,新規,0,2022-07-19,2022-07-19,合同会社ＧＴ　ＢＬＯＯＭ　ＣＥＹＬＯＮ,,合同会社,千葉県,成田市,並木町２２１番地３１５中谷第２コーポ４０５号,,12,211,2860045,,,,,,,2022-07-19,1,,,,,ジーティーブルームセイロン,0
124,1050003006609,新規,0,2022-07-19,2022-07-19,合同会社樋口興行,00127241,合同会社,茨城県,守谷市,百合ケ丘２丁目２７４３番地の２,,08,224,3020110,,,,,,,2022-07-19,1,,,,,ヒグチコウギョウ,0
125,1060001035096,新規,0,2022-07-19,2022-07-19,株式会社彩ホールディングス,,株式会社,栃木県,宇都宮市,日の出２丁目５番８号,,09,201,3200832,,,,,,,2022-07-19,1,,,,,イロドリホールディングス,0
129,1080003002836,新規,0,2022-07-19,2022-07-19,ＷＡＹＳ合同会社,,合同会社,静岡県,島田市,船木２５２番地の２０,,22,209,4270107,,,,,,,2022-07-19,1,,,,,ウェイズ,0
134,1100003006628,新規,0,2022-07-19,2022-07-19,合同会社ゆあのん,,合同会社,長野県,下高井郡山ノ内町,大字平穏２９４４－３,,20,561,3810401,,,,,,,2022-07-19,1,,,,,ユアノン,0
136,1100005012896,新規,0,2022-07-19,2022-07-19,一般社団法人福祉ＫｔｏＹ,,その他の設立登記法人,長野県,伊那市,富県８１７８番地,,20,209,3960621,,,,,,,2022-07-19,1,,,,,フクシケートゥーワイ,0
144,1120001247346,新規,0,2022-07-19,2022-07-19,株式会社ＣＢキャリアクリエーション,,株式会社,大阪府,大阪市此花区,島屋４丁目３番４３号,,27,104,5540024,,,,,,,2022-07-19,1,,,,,シービーキャリアクリエーション,0
145,1120001247370,新規,0,2022-07-19,2022-07-19,株式会社Ｓｅｖｅｎｔｈ　Ｇｅｎｅｒａｔｉｏｎ,,株式会社,大阪府,大阪市都島区,都島中通３丁目１７番３号,,27,102,5340022,,,,,,,2022-07-19,1,,,,,セブンスジェネレーション,0
153,1120003022078,新規,0,2022-07-19,2022-07-19,合同会社Ｗｉｃｏｔ,,合同会社,大阪府,大阪市北区,梅田１丁目１－３大阪駅前第３ビル２９階１－１－１号室,,27,127,5300001,,,,,,,2022-07-19,1,,,,,ウィコット,0
154,1120003022086,新規,0,2022-07-19,2022-07-19,合同会社ＣＡＲＥ　ＬＥＭＯＮ,,合同会社,大阪府,大阪市東住吉区,中野４丁目４番４７号ラ・ソアメゾン中野７０２号,,27,121,5460012,,,,,,,2022-07-19,1,,,,,ケアレモン,0
155,1120003022103,新規,0,2022-07-19,2022-07-19,ＴＳ　ＧＬＯＢＡＬ合同会社,,合同会社,大阪府,大阪市此花区,梅香１丁目１９番２１号４０２,,27,104,5540013,,,,,,,2022-07-19,1,,,,,ティエスグローバル,0
157,1120103004785,新規,0,2022-07-19,2022-07-19,合同会社メーリ,,合同会社,大阪府,堺市西区,浜寺南町２丁４１１－２９－１Ｆ,,27,144,5928344,,,,,,,2022-07-19,1,,,,,メーリ,0
158,1120901046269,新規,0,2022-07-19,2022-07-19,株式会社Ｍｏｔｏｙａｍａ,,株式会社,大阪府,豊中市,刀根山４丁目３番５０の５号,,27,203,5600045,,,,,,,2022-07-19,1,,,,,モトヤマ,0
167,1140001126746,新規,0,2022-07-19,2022-07-19,株式会社リエゾン,,株式会社,兵庫県,神戸市長田区,大谷町２丁目１０番１３号,,28,106,6530838,,,,,,,2022-07-19,1,,,,,リエゾン,0
168,1140001126762,新規,0,2022-07-19,2022-07-19,株式会社ＰＥＪＩＴ,,株式会社,兵庫県,丹波市,氷上町石生１５８３番地の１,,28,223,6693464,,,,,,,2022-07-19,1,,,,,ペジット,0
175,1150001025699,新規,0,2022-07-19,2022-07-19,谷雨株式会社,,株式会社,奈良県,香芝市,関屋北５丁目１２番１６号,,29,210,6390254,,,,,,,2022-07-19,1,,,,,コクウ,0
176,1160005011100,新規,0,2022-07-19,2022-07-19,特定非営利活動法人ゆいゆい,,その他の設立登記法人,滋賀県,大津市,逢坂１丁目１４番１４号,,25,201,5200054,,,,,,,2022-07-19,1,,,,,ユイユイ,0
185,1180001152268,新規,0,2022-07-19,2022-07-19,株式会社永野林業,,株式会社,愛知県,名古屋市中区,松原１丁目１２番９号,,23,106,4600017,,,,,,,2022-07-19,1,,,,,ナガノリンギョウ,0
194,1180303005396,新規,0,2022-07-19,2022-07-19,合同会社犬小町,,合同会社,愛知県,豊橋市,二川町字中町４７番地,,23,201,4413155,,,,,,,2022-07-19,1,,,,,イヌコマチ,0
197,1190005011725,新規,0,2022-07-19,2022-07-19,一般社団法人カルガモ・ファミリー,,その他の設立登記法人,三重県,松阪市,駅部田町１２３番地３,,24,204,5150045,,,,,,,2022-07-19,1,,,,,カルガモファミリー,0
203,1200001040296,新規,0,2022-07-19,2022-07-19,株式会社ＫＯ‐ＺＩＳＨＡ,,株式会社,岐阜県,各務原市,鵜沼丸子町２丁目６３９番地,,21,213,5090142,,,,,,,2022-07-19,1,,,,,コージシャ,0
213,1240003005715,新規,0,2022-07-19,2022-07-19,ＮＡＭＡＳＴＥ　ＭＡＲＴ合同会社,,合同会社,広島県,福山市,大黒町１番３７号,,34,207,7200053,,,,,,,2022-07-19,1,,,,,ナマステマート,0
216,1240005015423,新規,0,2022-07-19,2022-07-19,一般社団法人シナジースプリングス,,その他の設立登記法人,広島県,広島市安佐北区,亀山３丁目９番１９号,,34,106,7310231,,,,,,,2022-07-19,1,,,,,シナジースプリングス,0
224,1290001098319,新規,0,2022-07-19,2022-07-19,株式会社Ｈａｒｖｅｓｔ,,株式会社,福岡県,福岡市東区,香住ヶ丘３丁目７番１４号,,40,131,8130003,,,,,,,2022-07-19,1,,,,,ハーベスト,0
239,1330003009450,新規,0,2022-07-19,2022-07-19,ｗｅｂ製作合同会社,,合同会社,熊本県,熊本市中央区,国府１丁目７番２０号グランパーク国府２０４号,,43,101,8620949,,,,,,,2022-07-19,1,,,,,ウェブセイサク,0
251,1360001030711,新規,0,2022-07-19,2022-07-19,株式会社Ｄｉｖｅ　Ｌａｂ．,,株式会社,沖縄県,名護市,宮里１丁目２８番８号南西ビル２階,,47,209,9050011,,,,,,,2022-07-19,1,,,,,ダイブラボ,0
253,1360003012179,新規,0,2022-07-19,2022-07-19,合同会社國吉,,合同会社,沖縄県,那覇市,辻２丁目２番地２０,00127251,47,201,9000037,,,,,,,2022-07-19,1,,,,,クニヨシ,0
256,1370001048760,新規,0,2022-07-19,2022-07-19,株式会社シライシエステート,,株式会社,宮城県,仙台市泉区,泉中央２丁目１２番地の９,,04,105,9813133,,,,,,,2022-07-19,1,,,,,シライシエステート,0
261,1380001032986,新規,0,2022-07-19,2022-07-19,株式会社リブートプロダクツ,,株式会社,福島県,いわき市,小名浜寺廻町５番地の５,,07,204,9718164,,,,,,,2022-07-19,1,,,,,リブートプロダクツ,0
264,1420003002545,新規,0,2022-07-19,2022-07-19,合同会社ＰＥＣＡＮ,,合同会社,青森県,弘前市,大字山崎５丁目７番地２５,,02,202,0368233,,,,,,,2022-07-19,1,,,,,ペカン,0
281,1700150018225,新規,0,2022-07-19,2015-10-09,茨城県商工団体連合会,,その他,茨城県,水戸市,見川５丁目１２７－２８１茨城平和会館内,,08,201,3100912,,,,,,,2015-10-09,1,,,,,イバラキケンシヨウコウダンタイレンゴウカイ,0
282,1700150019363,新規,0,2022-07-19,2015-10-09,日光労働基準協会,,その他,栃木県,日光市,今市３０６－２,,09,206,3211261,,,,,,,2015-10-09,1,,,,,ニツコウロウドウキジユンキヨウカイ,0
283,1700150109255,新規,0,2022-07-19,2022-06-07,本場奄美大島紬産地再生協議会,,その他,鹿児島県,奄美市,名瀬浦上町４８番地１（奄美市産業支援センター２Ｆ）,,46,222,8940068,,,,,,,2022-06-07,1,,,,,ホンバアマミオオシマツムギサンチサイセイキヨウギカイ,0
284,1700150109503,新規,0,2022-07-19,2022-06-13,岡山西納税貯蓄組合連合会,,その他,岡山県,岡山市北区,吉備津１６８４－４株式会社千田組内,,33,101,7011341,,,,,,,2022-06-13,1,,,,,オカヤマニシノウゼイチヨチククミアイレンゴウカイ,0
285,1700150109701,新規,0,2022-07-19,2022-06-14,西中島センター管理運営委員会,,その他,大阪府,大阪市淀川区,西中島４丁目９番１号西中島社会福祉会館老人憩の家内,,27,123,5320011,,,,,,,2022-06-14,1,,,,,ニシナカジマセンターカンリウンエイイインカイ,0
286,1700150110031,新規,0,2022-07-19,2022-06-17,所沢グランツミュージック,,その他,埼玉県,所沢市,元町２２－１０－９０３,,11,208,3591121,,,,,,,2022-06-17,1,,,,,トコロザワグランツミユージツク,0
287,1700150110188,新規,0,2022-07-19,2022-06-21,クラッパー,,その他,東京都,江東区,扇橋２丁目４－３－３０２,,13,108,1350011,,,,,,,2022-06-21,1,,,,,クラツパー,0
288,1700150110642,新規,0,2022-07-19,2022-07-01,ミュージック・エトワール,,その他,東京都,練馬区,石神井町３丁目９－１２－１０２,,13,120,1770041,,,,,,,2022-07-01,1,,,,,ミユージツクエトワール,0
289,1700150110725,新規,0,2022-07-19,2022-07-05,ブレイブハート・エンターテインメント,,その他,東京都,目黒区,目黒本町３丁目５－５,,13,110,1520002,,,,,,,2022-07-05,1,,,,,ブレイブハートエンターテインメント,0
301,2010001228174,新規,0,2022-07-19,2022-07-19,株式会社ＰＯＷＥＲ　ＰＬＡＹ,,株式会社,東京都,千代田区,九段南４丁目１番１０－５０６号,,13,101,1020074,,,,,,,2022-07-19,1,,,,,パワープレイ,0
303,2010003038191,新規,0,2022-07-19,2022-07-19,合同会社Ｋ＆Ｗコンサルティング,,合同会社,東京都,文京区,本駒込４丁目４番９号,,13,105,1130021,,,,,,,2022-07-19,1,,,,,ケイアンドダブリューコンサルティング,0
321,2010601061462,新規,0,2022-07-19,2022-07-19,株式会社Ｈ４１１,,株式会社,東京都,墨田区,本所４丁目１９番３号本所吾妻橋ＤＪビル,,13,107,1300004,,,,,,,2022-07-19,1,,,,,エイチヨンイチイチ,0
326,2010701042973,新規,0,2022-07-19,2022-07-19,株式会社ＴＡＬＩＴ,,株式会社,東京都,品川区,戸越６丁目２３番２１号,,13,109,1420041,,,,,,,2022-07-19,1,,,,,タリト,0
329,2010805002956,新規,0,2022-07-19,2022-07-19,一般社団法人和文化研究さくら,,その他の設立登記法人,東京都,大田区,久が原１丁目６－２０,,13,111,1460085,,,,,,,2022-07-19,1,,,,,ワブンカケンキュウサクラ,0
335,2011003015024,新規,0,2022-07-19,2022-07-19,合同会社ＷＡＳＡＢＩ,,合同会社,東京都,渋谷区,神宮前６丁目２３番４号桑野ビル２階,,13,113,1500001,,,,,,,2022-07-19,1,,,,,ワサビ,0
340,2011103011971,新規,0,2022-07-19,2022-07-19,合同会社Ｔｓｕｚｕｒｉｓａ　Ｋｉｔｃｈｅｎ,,合同会社,東京都,新宿区,下落合３丁目１７番９号,,13,104,1610033,,,,,,,2022-07-19,1,,,,,ツヅリサキッチン,0
354,2012401039424,新規,0,2022-07-19,2022-07-19,株式会社ニュートラル３,,株式会社,東京都,調布市,調布ケ丘４丁目１９番地２７,,13,208,1820021,,,,,,,2022-07-19,1,,,,,,0
361,2020001147357,新規,0,2022-07-19,2022-07-19,株式会社Ｒ５６７,,株式会社,神奈川県,横浜市鶴見区,尻手１丁目１番１８－１００２号,,14,101,2300003,,,,,,,2022-07-19,1,,,,,アールファイブシックスティーセブン,0
370,2021001076554,新規,0,2022-07-19,2022-07-19,定着採用株式会社,,株式会社,神奈川県,藤沢市,藤沢６０７番地１,,14,205,2510052,,,,,,,2022-07-19,1,,,,,テイチャクサイヨウ,0
378,2030001149237,新規,0,2022-07-19,2022-07-19,株式会社ＡＲＡＴＩ　ＩＮＴＥＲＮＡＴＩＯＮＡＬ,,株式会社,埼玉県,越谷市,越ヶ谷１丁目５番１８号２Ｆ,,11,222,3430813,,,,,,,2022-07-19,1,,,,,アラティインターナショナル,0
379,2030001149278,新規,0,2022-07-19,2022-07-19,順東株式会社,,株式会社,埼玉県,川口市,前川２丁目５１－７,,11,203,3330842,,,,,,,2022-07-19,1,,,,,ジュントウ,0
384,2030003019818,新規,0,2022-07-19,2022-07-19,ｎａｍｉ．ｃｏｍ合同会社,,合同会社,埼玉県,ふじみ野市,旭１丁目７－１,,11,245,3560055,,,,,,,2022-07-19,1,,,,,ナミドットコム,0
385,2030005020922,新規,0,2022-07-19,2022-07-19,フレンドリーサービス協同組合,,その他の設立登記法人,埼玉県,狭山市,大字北入曽１５０８番地の４５,,11,215,3501315,,,,,,,2022-07-19,1,,,,,フレンドリーサービス,0
393,2050005013115,新規,0,2022-07-19,2022-07-19,一般社団法人全国屋根災害ネットワーク,,その他の設立登記法人,茨城県,水戸市,酒門町４２４２番地,,08,201,3100841,,,,,,,2022-07-19,1,,,,,ゼンコクヤネサイガイネットワーク,0
402,2080005007469,新規,0,2022-07-19,2022-07-19,一般社団法人清朗の会,,その他の設立登記法人,静岡県,榛原郡川根本町,田野口９００番地,,22,429,4280306,,,,,,,2022-07-19,1,,,,,セイロウノカイ,0
417,2120001247411,新規,0,2022-07-19,2022-07-19,株式会社大阪Ｎｏ．１エステート,,株式会社,大阪府,大阪市淀川区,西宮原２丁目６番１６号新大阪コーポビアネーズ９３３号室,,27,123,5320004,,,,,,,2022-07-19,1,,,,,オオサカナンバーワンエステート,0
418,2120001247469,新規,0,2022-07-19,2022-07-19,株式会社Ｇａｒａｇｅ　Ｂｒａｎｄ　Ｐｒｏｄｕｃｔ,,株式会社,大阪府,大阪市西区,北堀江１丁目２０番１３号ライフシステムビル２階,,27,106,5500014,,,,,,,2022-07-19,1,,,,,ガレージブランドプロダクト,0
419,2120001247477,新規,0,2022-07-19,2022-07-19,株式会社ワンチューブ,,株式会社,大阪府,大阪市福島区,福島２丁目１０番１９号,,27,103,5530003,,,,,,,2022-07-19,1,,,,,ワンチューブ,0
424,2120003022102,新規,0,2022-07-19,2022-07-19,ＰＵＳＰＡ合同会社,,合同会社,大阪府,大阪市中央区,瓦屋町１丁目１０番２号丸利ビル４０２,,27,128,5420066,,,,,,,2022-07-19,1,,,,,プスパ,0
426,2120005023057,新規,0,2022-07-19,2022-07-19,医療法人ウィメンズクリニック本町,,その他の設立登記法人,大阪府,大阪市中央区,北久宝寺町３丁目６番１号本町南ガーデンシティー８階,,27,128,5410057,,,,,,,2022-07-19,1,,,,,ウィメンズクリニックホンマチ,0
427,2120005023081,新規,0,2022-07-19,2022-07-19,医療法人廣世会,,その他の設立登記法人,大阪府,大阪市住之江区,西加賀屋３丁目１２番１６号,,27,125,5590016,,,,,,,2022-07-19,1,,,,,コウセイカイ,0
431,2120903004216,新規,0,2022-07-19,2022-07-19,合同会社Ａｄｄ　ＯＮ,,合同会社,大阪府,茨木市,郡５丁目１－１０ラピス開栄４０２,,27,211,5670072,,,,,,,2022-07-19,1,,,,,アドオン,0
432,2120905006359,新規,0,2022-07-19,2022-07-19,医療法人厚仁会,,その他の設立登記法人,大阪府,茨木市,中穂積１丁目２番５０号,,27,211,5670034,,,,,,,2022-07-19,1,,,,,コウジンカイ,0
434,2122001036075,新規,0,2022-07-19,2022-07-19,株式会社エイキ,,株式会社,大阪府,八尾市,泉町１丁目１２１番地の４,,27,212,5810813,,,,,,,2022-07-19,1,,,,,エイキ,0
447,2140001126745,新規,0,2022-07-19,2022-07-19,株式会社Ｉｎｔｅｒｉｏｒ　ＫＵＲＯＤＡ,,株式会社,兵庫県,姫路市,下寺町１０７番地シャトー司Ａ３号室,,28,201,6700932,,,,,,,2022-07-19,1,,,,,インテリアクロダ,0
453,2160001024385,新規,0,2022-07-19,2022-07-19,株式会社Ｔｒｕｔｈ　Ｒａｙｓ,,株式会社,滋賀県,野洲市,冨波乙６８１番地３５,,25,210,5202352,,,,,,,2022-07-19,1,,,,,トゥルースレイズ,0
454,2170001017198,新規,0,2022-07-19,2022-07-19,株式会社芳一豊海運,,株式会社,和歌山県,和歌山市,福島１０番地,,30,201,6408401,,,,,,,2022-07-19,1,,,,,ヨシイチユタカカイウン,0
457,2180001152127,新規,0,2022-07-19,2022-07-19,ＣｒｙｐｔｏＺＥＩ株式会社,,株式会社,愛知県,名古屋市中区,栄５丁目２６－３９ＧＳ栄ビル３Ｆ,,23,106,4600008,,,,,,,2022-07-19,1,,,,,クリプトゼイ,0
458,2180001152226,新規,0,2022-07-19,2022-07-19,福山産業株式会社,,株式会社,愛知県,小牧市,大字入鹿出新田５３２番地１,,23,219,4850084,,,,,,,2022-07-19,1,,,,,フクヤマサンギョウ,0
459,2180001152267,新規,0,2022-07-19,2022-07-19,Ｔ‐ｅｎｇｉｎｅｅｒ株式会社,,株式会社,愛知県,名古屋市南区,鶴里町１丁目８０番地,,23,112,4570021,,,,,,,2022-07-19,1,,,,,ティーエンジニア,0
464,2180301036426,新規,0,2022-07-19,2022-07-19,株式会社日昇,,株式会社,愛知県,安城市,住吉町６丁目５番地１８,,23,212,4460072,,,,,,,2022-07-19,1,,,,,ニッショウ,0
465,2180301036442,新規,0,2022-07-19,2022-07-19,株式会社サンクリエーション,,株式会社,愛知県,岡崎市,大平町字石亀９９番地９８,,23,202,4440007,,,,,,,2022-07-19,1,,,,,サンクリエーション,0
470,2200003005619,新規,0,2022-07-19,2022-07-19,合同会社ＡＲＲＯＷ,,合同会社,岐阜県,揖斐郡大野町,大字桜大門５９１番地１,,21,403,5010515,,,,,,,2022-07-19,1,,,,,アロウ,0
472,2220001024957,新規,0,2022-07-19,2022-07-19,株式会社ＣＵＢＥ　ＪＡＰＡＮ,,株式会社,石川県,白山市,幸明町１３４番地,,17,210,9240817,,,,,,,2022-07-19,1,,,,,キューブジャパン,0
483,2290003012747,新規,0,2022-07-19,2022-07-19,ＭＥＴＥＯＲ合同会社,,合同会社,福岡県,福岡市中央区,大名１丁目８番２５－３０４号,,40,133,8100041,,,,,,,2022-07-19,1,,,,,メトロ,0
485,2320001019212,新規,0,2022-07-19,2022-07-19,株式会社河昇,,株式会社,大分県,大分市,大字政所２１２４番２,,44,201,8700268,,,,,,,2022-07-19,1,,,,,カワショウ,0
487,2330001029920,新規,0,2022-07-19,2022-07-19,株式会社泉石創,,株式会社,熊本県,熊本市北区,龍田７丁目２４番５０号,,43,105,8618006,,,,,,,2022-07-19,1,,,,,イズミセキソウ,0
489,2350003004127,新規,0,2022-07-19,2022-07-19,合同会社金のりんご,,合同会社,宮崎県,宮崎市,吉村町宮ノ前甲２１９５－３,,45,201,8800841,,,,,,,2022-07-19,1,,,,,キンノリンゴ,0
492,2370003005775,新規,0,2022-07-19,2022-07-19,合同会社ＳＲソーラー,,合同会社,宮城県,仙台市青葉区,一番町１丁目４番３０号さのやビルディング６階,,04,101,9800811,,,,,,,2022-07-19,1,,,,,エスアールソーラー,0
514,2430001087009,新規,0,2022-07-19,2022-07-19,株式会社ｉｍａｇｉｎａｔｉｏｎ　ｆｏｒ　ｏｔｈｅｒｓ,,株式会社,北海道,苫小牧市,青雲町２丁目６番２号,,01,213,0591263,,,,,,,2022-07-19,1,,,,,イマジネーションフォーアザーズ,0
515,2430001087017,新規,0,2022-07-19,2022-07-19,株式会社Ｒｅｃｏｎａ,,株式会社,北海道,札幌市北区,屯田六条４丁目４番２５号,,01,102,0020856,,,,,,,2022-07-19,1,,,,,レコナ,0
516,2430001087041,新規,0,2022-07-19,2022-07-19,株式会社ＦＭＩコーポレーション,,株式会社,北海道,苫小牧市,拓勇東町５丁目１４番１１号,,01,213,0591303,,,,,,,2022-07-19,1,,,,,エフエムアイコーポレーション,0
522,2430003014126,新規,0,2022-07-19,2022-07-19,合同会社ウィスタリア,,合同会社,北海道,札幌市北区,新琴似七条５丁目４番１８号,,01,102,0010907,,,,,,,2022-07-19,1,,,,,ウィスタリア,0
528,2500005008507,新規,0,2022-07-19,2022-07-19,行政書士法人南海リーガル,,その他の設立登記法人,愛媛県,松山市,朝生田町２丁目１０番３１号,,38,201,7900952,,,,,,,2022-07-19,1,,,,,ナンカイリーガル,0
543,3010001228198,新規,0,2022-07-19,2022-07-19,株式会社サラダボウルカンパニー,,株式会社,東京都,中央区,日本橋久松町１２番２号山脇ビル２Ｆ,,13,102,1030005,,,,,,,2022-07-19,1,,,,,サラダボウルカンパニー,0
546,3010003038199,新規,0,2022-07-19,2022-07-19,ＫＢＩ　Ｃｏｎｓｕｌｔｉｎｇ合同会社,,合同会社,東京都,中央区,日本橋横山町７番１９号第３５イチオクビル４Ｆ１０号室,,13,102,1030003,,,,,,,2022-07-19,1,,,,,ケービーアイコンサルティング,0
558,3010501049128,新規,0,2022-07-19,2022-07-19,株式会社Ｎａｇｉ　Ｌｉｆｅ　ｄｅｓｉｇｎ,,株式会社,東京都,台東区,台東１丁目２番１－１６０５号,,13,106,1100016,,,,,,,2022-07-19,1,,,,,ナギライフデザイン,0
559,3010601061511,新規,0,2022-07-19,2022-07-19,株式会社エムテック,,株式会社,東京都,墨田区,墨田５丁目５番２－１０２号,,13,107,1310031,,,,,,,2022-07-19,1,,,,,エムテック,0
562,3010701042980,新規,0,2022-07-19,2022-07-19,株式会社すまいル,,株式会社,東京都,品川区,中延２丁目３番４号,,13,109,1420053,,,,,,,2022-07-19,1,,,,,スマイル,0
572,3011001148428,新規,0,2022-07-19,2022-07-19,株式会社ＩＶＹ‐ＮＵＥ,,株式会社,東京都,渋谷区,渋谷１丁目８番６－ｓｔビル８０３号,,13,113,1500002,,,,,,,2022-07-19,1,,,,,アイビーヌー,0
573,3011003015031,新規,0,2022-07-19,2022-07-19,合同会社Ｃｈａｒｍ‐ｆｕｌａ,,合同会社,東京都,渋谷区,代々木１丁目２５番５号,,13,113,1510053,,,,,,,2022-07-19,1,,,,,チャームフラ,0
574,3011003015064,新規,0,2022-07-19,2022-07-19,合同会社クアトロ,,合同会社,東京都,渋谷区,富ヶ谷１丁目１９番２号ＬｕｎａＲｏｓｓａ４Ｃ,,13,113,1510063,,,,,,,2022-07-19,1,,,,,クアトロ,0
585,3011101099570,新規,0,2022-07-19,2022-07-19,株式会社Ｐｒｉｍｅ　Ｅｓｔａｔｅ,,株式会社,東京都,新宿区,新宿５丁目４番地１号Ｑフラットビル２０４号室,,13,104,1600022,,,,,,,2022-07-19,1,,,,,プライムエステート,0
586,3011101099579,新規,0,2022-07-19,2022-07-19,株式会社ＳＵＢ　ＰＯＰ,,株式会社,東京都,新宿区,歌舞伎町２丁目３１番３号トーコープラザ７０５,,13,104,1600021,,,,,,,2022-07-19,1,,,,,サブポップ,0
587,3011103011979,新規,0,2022-07-19,2022-07-19,合同会社Ｎｏａｈ’ｓ　Ａｒｋ．,,合同会社,東京都,新宿区,神楽坂５丁目２０番地５神楽坂アインスタワー１７０４,,13,104,1620825,,,,,,,2022-07-19,1,,,,,ノアズアーク,0
592,3011705001741,新規,0,2022-07-19,2022-07-19,一般財団法人角野栄子児童文学財団,,その他の設立登記法人,東京都,江戸川区,北小岩２丁目２１番１２号,,13,123,1330051,,,,,,,2022-07-19,1,,,,,カドノエイコジドウブンガクザイダン,0
593,3011801041022,新規,0,2022-07-19,2022-07-19,ＴＡＫＥ株式会社,,株式会社,東京都,足立区,綾瀬２丁目２２番１２号,,13,121,1200005,,,,,,,2022-07-19,1,,,,,タケ,0
595,3012303001704,新規,0,2022-07-19,2022-07-19,合同会社ＫＡＴＯ,,合同会社,東京都,町田市,根岸町１００４番地１６,,13,209,1940034,,,,,,,2022-07-19,1,,,,,,0
597,3012803002838,新規,0,2022-07-19,2022-07-19,合同会社ユーブライト,,合同会社,東京都,国分寺市,西町４丁目２２番地２２,,13,214,1850035,,,,,,,2022-07-19,1,,,,,ユーブライト,0
616,3021001076553,新規,0,2022-07-19,2022-07-19,株式会社Ｒｕｆｆ　ａｎｄ　Ｔｈｏｍａｓ,,株式会社,神奈川県,鎌倉市,腰越１丁目５番７号,,14,204,2480033,,,,,,,2022-07-19,1,,,,,ラフアンドトーマス,0
617,3021001076561,新規,0,2022-07-19,2022-07-19,株式会社オフィスｙｊｍ,,株式会社,神奈川県,足柄上郡開成町,延沢１３０６番地,,14,366,2580026,,,,,,,2022-07-19,1,,,,,オフィスワイジェイエム,0
624,3021003011938,新規,0,2022-07-19,2022-07-19,合同会社７７,,合同会社,神奈川県,大和市,大和南１丁目１３番１３号,,14,213,2420016,,,,,,,2022-07-19,1,,,,,セブンティセブン,0
632,3030001149013,新規,0,2022-07-19,2022-07-19,深谷商事株式会社,,株式会社,埼玉県,深谷市,東方町３丁目２９番地３２,,11,218,3660042,,,,,,,2022-07-19,1,,,,,フカヤショウジ,0
633,3030001149277,新規,0,2022-07-19,2022-07-19,株式会社ＮＳ　Ｐｌａｎ,,株式会社,埼玉県,新座市,石神１丁目４番１５号,,11,230,3520033,,,,,,,2022-07-19,1,,,,,エヌエスプラン,0
640,3030003019734,新規,0,2022-07-19,2022-07-19,合同会社Ｈｅａｒｔ,,合同会社,埼玉県,ふじみ野市,上福岡１丁目１２番９号２階,,11,245,3560004,,,,,,,2022-07-19,1,,,,,ハート,0
641,3030003019809,新規,0,2022-07-19,2022-07-19,創興合同会社,,合同会社,埼玉県,川口市,並木３丁目１３番４号ダイトービル２番館５０６号,,11,203,3320034,,,,,,,2022-07-19,1,,,,,ソウコウ,0
643,3040001124329,新規,0,2022-07-19,2022-07-19,株式会社エコスト,,株式会社,千葉県,千葉市緑区,誉田町１丁目８１０番地２７,,12,105,2660005,,,,,,,2022-07-19,1,,,,,エコスト,0
648,3040003020435,新規,0,2022-07-19,2022-07-19,合同会社Ｃａｒｅテイスト,,合同会社,千葉県,千葉市緑区,誉田町１丁目９８番地３３,,12,105,2660005,,,,,,,2022-07-19,1,,,,,ケアテイスト,0
649,3040003020443,新規,0,2022-07-19,2022-07-19,合同会社鈴木商事,,合同会社,千葉県,木更津市,中里１丁目３番２号,,12,206,2920064,,,,,,,2022-07-19,1,,,,,スズキショウジ,0
655,3050001051415,新規,0,2022-07-19,2022-07-19,株式会社筑波ファーム筑西,,株式会社,茨城県,筑西市,徳持４２２番地２,,08,227,3080816,,,,,,,2022-07-19,1,,,,,ツクバファームチクセイ,0
683,3120001247476,新規,0,2022-07-19,2022-07-19,株式会社Ｏ．Ｓ．Ａ,,株式会社,大阪府,守口市,大久保町５丁目７７番８号,,27,209,5700012,,,,,,,2022-07-19,1,,,,,オーエスエー,0
685,3120003022101,新規,0,2022-07-19,2022-07-19,ＪＡＭＵＮＡ合同会社,,合同会社,大阪府,大阪市中央区,高津２丁目１番１号栗野ビル４Ｆ,,27,128,5420072,,,,,,,2022-07-19,1,,,,,ジャムナ,0
690,3122001036041,新規,0,2022-07-19,2022-07-19,株式会社ＭＡ‐ＤＯ,,株式会社,大阪府,柏原市,大県１丁目３番３号,,27,221,5820018,,,,,,,2022-07-19,1,,,,,エムエードゥー,0
691,3122001036066,新規,0,2022-07-19,2022-07-19,株式会社鳳凰,,株式会社,大阪府,大東市,北条１丁目１９番１０－４０２号,,27,218,5740011,,,,,,,2022-07-19,1,,,,,ホウオウ,0
692,3122001036082,新規,0,2022-07-19,2022-07-19,株式会社ソナエル,,株式会社,大阪府,東大阪市,西鴻池町２丁目４番２４号,,27,227,5780976,,,,,,,2022-07-19,1,,,,,ソナエル,0
706,3140001126769,新規,0,2022-07-19,2022-07-19,大通り株式会社,,株式会社,兵庫県,神戸市中央区,山本通３丁目３－８、３階,,28,110,6500003,,,,,,,2022-07-19,1,,,,,オオドオリ,0
707,3140001126777,新規,0,2022-07-19,2022-07-19,オーセンティックサービス株式会社,,株式会社,兵庫県,神戸市兵庫区,水木通５丁目１－７,,28,105,6520802,,,,,,,2022-07-19,1,,,,,オーセンティックサービス,0
710,3140003017891,新規,0,2022-07-19,2022-07-19,合同会社シャトートワ,,合同会社,兵庫県,神戸市中央区,加納町２丁目１０－１３－５０１,,28,110,6500001,,,,,,,2022-07-19,1,,,,,シャトートワ,0
711,3140003017909,新規,0,2022-07-19,2022-07-19,合同会社はあもす,,合同会社,兵庫県,宝塚市,中山桜台２丁目２０番１０号,,28,214,6650877,,,,,,,2022-07-19,1,,,,,ハアモス,0
718,3160001024384,新規,0,2022-07-19,2022-07-19,ＹＳホールディング株式会社,,株式会社,滋賀県,東近江市,青野町４６００番地,,25,213,5270232,,,,,,,2022-07-19,1,,,,,ワイエスホールディング,0
721,3170001017197,新規,0,2022-07-19,2022-07-19,株式会社ＮＡＮＯＤＡ,,株式会社,和歌山県,西牟婁郡上富田町,朝来１９８９番地の８,,30,404,6492105,,,,,,,2022-07-19,1,,,,,ナノダ,0
727,3180001152225,新規,0,2022-07-19,2022-07-19,ＣＨＥＬＭＳ株式会社,,株式会社,愛知県,名古屋市西区,名駅２丁目３４番１７号セントラル名古屋１１０１号,,23,104,4510045,,,,,,,2022-07-19,1,,,,,チェルムス,0
728,3180001152233,新規,0,2022-07-19,2022-07-19,株式会社ＳＮＩＮＥ,,株式会社,愛知県,名古屋市中区,丸の内３丁目１９番２３号ＦＰＳビル９階,,23,106,4600002,,,,,,,2022-07-19,1,,,,,エスナイン,0
729,3180001152258,新規,0,2022-07-19,2022-07-19,株式会社宏建,,株式会社,愛知県,尾張旭市,平子町中通３０５番地,,23,226,4880873,,,,,,,2022-07-19,1,,,,,ヒロケン,0
737,3180005019858,新規,0,2022-07-19,2022-07-19,弁護士法人半田みなと法律事務所,,その他の設立登記法人,愛知県,半田市,宮本町３丁目２１７番地２１セントラルビル２階２０３号室,,23,205,4750925,,,,,,,2022-07-19,1,,,,,ハンダミナトホウリツジムショ,0
738,3180301036433,新規,0,2022-07-19,2022-07-19,株式会社Ｍｉｃｈｅｌ　Ｍｏｎ,,株式会社,愛知県,高浜市,青木町７丁目５番地３,,23,227,4441325,,,,,,,2022-07-19,1,,,,,ミシェルモン,0
742,3190001029629,新規,0,2022-07-19,2022-07-19,株式会社エイトアップ,,株式会社,三重県,津市,乙部２０８８番地,,24,201,5140016,,,,,,,2022-07-19,1,,,,,エイトアップ,0
748,3210001019008,新規,0,2022-07-19,2022-07-19,株式会社中建工業,,株式会社,福井県,福井市,若杉３丁目１００８番地,,18,201,9188055,,,,,,,2022-07-19,1,,,,,ナカケンコウギョウ,0
758,3240001060108,新規,0,2022-07-19,2022-07-19,株式会社Ｍ＆Ｋ,,株式会社,広島県,広島市安佐南区,長束西３丁目９番２４号,,34,105,7310136,,,,,,,2022-07-19,1,,,,,エムアンドケー,0
766,3290001098317,新規,0,2022-07-19,2022-07-19,株式会社ヤマトアセットマネージメント,,株式会社,福岡県,福岡市博多区,祇園町８－１２－４０６,,40,132,8120038,,,,,,,2022-07-19,1,,,,,ヤマトアセットマネージメント,0
767,3290003012705,新規,0,2022-07-19,2022-07-19,合同会社後藤設備,,合同会社,福岡県,柳川市,蒲生１０５３－４,,40,207,8320001,,,,,,,2022-07-19,1,,,,,ゴトウセツビ,0
768,3290003012738,新規,0,2022-07-19,2022-07-19,ＥＭＣ　Ｐｌｏｔ合同会社,,合同会社,福岡県,福岡市博多区,諸岡６丁目２番３６号４０６,,40,132,8120894,,,,,,,2022-07-19,1,,,,,イーエムシープロット,0
771,3320001019211,新規,0,2022-07-19,2022-07-19,株式会社ＦＳ,,株式会社,大分県,佐伯市,船頭町１２番９号,,44,205,8760832,,,,,,,2022-07-19,1,,,,,エフエス,0
777,3330001029928,新規,0,2022-07-19,2022-07-19,株式会社藤崎重機,,株式会社,熊本県,阿蘇郡南小国町,大字赤馬場１２６４番地３,,43,423,8692401,,,,,,,2022-07-19,1,,,,,フジサキジュウコウ,0
796,3430003014117,新規,0,2022-07-19,2022-07-19,合同会社ＹＭＳ,,合同会社,北海道,札幌市中央区,宮の森一条７丁目１番１０－４０５号,,01,101,0640951,,,,,,,2022-07-19,1,,,,,ワイエムエス,0
797,3430003014125,新規,0,2022-07-19,2022-07-19,ＣＡＲ　ＴＥＣ　ＪＡＰＡＮ合同会社,,合同会社,北海道,札幌市白石区,東米里２１６０番地１５７,,01,104,0030876,,,,,,,2022-07-19,1,,,,,カーテックジャパン,0
802,3470003002217,新規,0,2022-07-19,2022-07-19,合同会社山内建築,,合同会社,香川県,丸亀市,中府町３丁目８番１１号,,37,202,7630033,,,,,,,2022-07-19,1,,,,,ヤマウチケンチク,0
803,3480003001853,新規,0,2022-07-19,2022-07-19,合同会社悠久,,合同会社,徳島県,板野郡板野町,大寺字岡ノ前１４８番地３,,36,404,7790105,,,,,,,2022-07-19,1,,,,,ユウキュウ,0
809,3700150109955,新規,0,2022-07-19,2022-06-16,ＣＩＲＱＵＥＷＯＲＫ,,その他,福岡県,福岡市中央区,輝国２丁目１３－１１－２,,40,133,8100032,,,,,,,2022-06-16,1,,,,,シルクワーク,0
810,3700150110384,新規,0,2022-07-19,2022-06-24,モーダルビーツ,,その他,東京都,港区,赤坂７丁目５－４６　１０５号,,13,103,1070052,,,,,,,2022-06-24,1,,,,,モーダルビーツ,0
811,3700150110509,新規,0,2022-07-19,2022-06-28,宿の日花火ｉｎＴｏｂａ実行委員会,,その他,三重県,鳥羽市,堅神町１０２０番地１,,24,211,5170014,,,,,,,2022-06-28,1,,,,,ヤドノヒハナビイントバジツコウイインカイ,0
818,4010003038140,新規,0,2022-07-19,2022-07-19,合同会社Ｄｅｓｉｇｎ　ＮｏｋｏＲｕ,,合同会社,東京都,文京区,千駄木３丁目４３番８号千駄木Ｍ１０２,,13,105,1130022,,,,,,,2022-07-19,1,,,,,デザインノコル,0
819,4010003038207,新規,0,2022-07-19,2022-07-19,ＯＡＯ　Ａｇｅｎｃｙ合同会社,,合同会社,東京都,中央区,日本橋浜町１丁目８番１１－６０３号,,13,102,1030007,,,,,,,2022-07-19,1,,,,,オエイオエージェンシー,0
832,4010403028022,新規,0,2022-07-19,2022-07-19,Ｓｅｌｆ‐Ｓｕｐｐｏｒｔ合同会社,,合同会社,東京都,港区,南青山２丁目２番１５号,,13,103,1070062,,,,,,,2022-07-19,1,,,,,セルフサポート,0
836,4010601061510,新規,0,2022-07-19,2022-07-19,華皓株式会社,,株式会社,東京都,墨田区,横川３丁目６番７号２－Ｃ室,,13,107,1300003,,,,,,,2022-07-19,1,,,,,カコウ,0
841,4010901051244,新規,0,2022-07-19,2022-07-19,株式会社アンバーチェリー,,株式会社,東京都,世田谷区,野沢２丁目７番１９号,,13,112,1540003,,,,,,,2022-07-19,1,,,,,アンバーチェリー,0
842,4010901051260,新規,0,2022-07-19,2022-07-19,株式会社ニコパートナーズ,,株式会社,東京都,世田谷区,玉川４丁目１７番２号,,13,112,1580094,,,,,,,2022-07-19,1,,,,,ニコパートナーズ,0
852,4011001148749,新規,0,2022-07-19,2022-07-19,ａｎｄ　Ｉｎｓｉｇｈｔ株式会社,,株式会社,東京都,渋谷区,渋谷３丁目６番２号エクラート渋谷,,13,113,1500002,,,,,,,2022-07-19,1,,,,,アンドインサイト,0
855,4011003015030,新規,0,2022-07-19,2022-07-19,合同会社ｕｎｉ,,合同会社,東京都,渋谷区,渋谷２丁目１９－１５宮益坂ビルディング６０９,,13,113,1500002,,,,,,,2022-07-19,1,,,,,ウニ,0
856,4011003015047,新規,0,2022-07-19,2022-07-19,合同会社ＳＯＲＡＮＯ,,合同会社,東京都,目黒区,東山１丁目３０－２２,,13,110,1530043,,,,,,,2022-07-19,1,,,,,ソラノ,0
857,4011003015055,新規,0,2022-07-19,2022-07-19,合同会社ＴＫＧコンサルティング,,合同会社,東京都,渋谷区,渋谷２丁目１９－１５宮益坂ビルディング６０９,,13,113,1500002,,,,,,,2022-07-19,1,,,,,ティーケージー,0
860,4011101099561,新規,0,2022-07-19,2022-07-19,株式会社Ｈ＆Ｆｕｔｕｒｅ,,株式会社,東京都,新宿区,西新宿７丁目１－１２,,13,104,1600023,,,,,,,2022-07-19,1,,,,,エイチアンドフューチャー,0
861,4011101099578,新規,0,2022-07-19,2022-07-19,株式会社Ｇ,,株式会社,東京都,新宿区,馬場下町１８番地フェニックスビル２階,,13,104,1620045,,,,,,,2022-07-19,1,,,,,ジー,0
863,4011103011978,新規,0,2022-07-19,2022-07-19,ＧＡＲＳＴＯＮ合同会社,,合同会社,東京都,新宿区,歌舞伎町２丁目２５－８エコプレイス４１２,,13,104,1600021,,,,,,,2022-07-19,1,,,,,ガーストン,0
870,4011701025470,新規,0,2022-07-19,2022-07-19,森松株式会社,,株式会社,東京都,江戸川区,東葛西５丁目３４番６号,,13,123,1340084,,,,,,,2022-07-19,1,,,,,モリマツ,0
872,4012401039422,新規,0,2022-07-19,2022-07-19,株式会社アヴニール,,株式会社,東京都,武蔵野市,桜堤２丁目３番１２号,,13,203,1800021,,,,,,,2022-07-19,1,,,,,アヴニール,0
873,4012403005488,新規,0,2022-07-19,2022-07-19,合同会社ＭＲＭ,,合同会社,東京都,三鷹市,牟礼５丁目２番２号ハイムレインボーＤ棟１０３,,13,204,1810002,,,,,,,2022-07-19,1,,,,,エムアールエム,0
877,4012801021723,新規,0,2022-07-19,2022-07-19,株式会社遠山木工所,,株式会社,東京都,国立市,青柳２丁目７番地の１５,,13,215,1860013,,,,,,,2022-07-19,1,,,,,トオヤマモッコウショ,0
878,4013301049387,新規,0,2022-07-19,2022-07-19,Ｓｐａｒｋｓｍａｇｉｃ株式会社,,株式会社,東京都,豊島区,高松２丁目４０番１４号ジュネスｉ池袋４０１号,,13,116,1710042,,,,,,,2022-07-19,1,,,,,スパークスマジック,0
885,4020005015599,新規,0,2022-07-19,2022-07-19,一般社団法人親なきあと横浜センター,,その他の設立登記法人,神奈川県,横浜市港北区,新横浜３丁目１８番地９新横浜ＩＣビル５０５号室,,14,109,2220033,,,,,,,2022-07-19,1,,,,,オヤナキアトヨコハマセンター,0
892,4021003011953,新規,0,2022-07-19,2022-07-19,かけ橋合同会社,,合同会社,神奈川県,大和市,西鶴間２丁目８番１３号,,14,213,2420005,,,,,,,2022-07-19,1,,,,,,0
905,4030001149227,新規,0,2022-07-19,2022-07-19,株式会社木村工業,,株式会社,埼玉県,所沢市,大字上山口１５６７番地１,,11,208,3591153,,,,,,,2022-07-19,1,,,,,キムラコウギョウ,0
906,4030001149268,新規,0,2022-07-19,2022-07-19,株式会社オフィスキヨラ,,株式会社,埼玉県,川口市,新井町２３－１,,11,203,3320005,,,,,,,2022-07-19,1,,,,,オフィスキヨラ,0
907,4030001149276,新規,0,2022-07-19,2022-07-19,協和国際サービス株式会社,,株式会社,埼玉県,川口市,栄町１丁目７番４－５０１号サンクレイドル川口ＩＩ,00127250,11,203,3320017,,,,,,,2022-07-19,1,,,,,キョウワコクサイサービス,0
909,4030003019700,新規,0,2022-07-19,2022-07-19,合同会社ｉｔｓｕｂａ．ｎｅｔ,,合同会社,埼玉県,朝霞市,根岸台７丁目４番１８号,,11,227,3510005,,,,,,,2022-07-19,1,,,,,イツバネット,0
910,4030003019816,新規,0,2022-07-19,2022-07-19,合同会社田中工務店,,合同会社,埼玉県,川越市,中台南１丁目１７番地５,,11,201,3501150,,,,,,,2022-07-19,1,,,,,タナカコウムテン,0
916,4040001124344,新規,0,2022-07-19,2022-07-19,株式会社肉のサガミヤ,,株式会社,千葉県,松戸市,松戸新田３０,,12,207,2702241,,,,,,,2022-07-19,1,,,,,ニクノサガミヤ,0
919,4040005021678,新規,0,2022-07-19,2022-07-19,一般社団法人Ｆ‐ｃｈａｌｌｅｎｇｅ．ｐｌｕｓ,,その他の設立登記法人,千葉県,印西市,東の原３丁目３番地４,,12,231,2701336,,,,,,,2022-07-19,1,,,,,エフチャレンジプラス,0
924,4050003006696,新規,0,2022-07-19,2022-07-19,合同会社ＳＫＨ　Ｉｎｔｅｒｎａｔｉｏｎａｌ,,合同会社,茨城県,坂東市,矢作２６８１番地７,,08,228,3060624,,,,,,,2022-07-19,1,,,,,エスケイエイチインターナショナル,0
930,4090003002139,新規,0,2022-07-19,2022-07-19,合同会社Ｋ＆Ｍ’ｓ　Ｈｅａｌｔｈ　Ｃｏｍｐａｎｙ,,合同会社,山梨県,大月市,猿橋町猿橋２００番地,,19,206,4090614,,,,,,,2022-07-19,1,,,,,ケイアンドエムズヘルスカンパニー,0
931,4100001035535,新規,0,2022-07-19,2022-07-19,株式会社宮島口ホテルマネジメント,,株式会社,長野県,北佐久郡軽井沢町,大字長倉２１４８番地,,20,321,3890111,,,,,,,2022-07-19,1,,,,,ミヤジマグチホテルマネジメント,0
941,4120001247401,新規,0,2022-07-19,2022-07-19,株式会社アイエヌジー,,株式会社,大阪府,守口市,菊水通２丁目１０番１号菊水ビル２０３号,,27,209,5700032,,,,,,,2022-07-19,1,,,,,アイエヌジー,0
942,4120001247459,新規,0,2022-07-19,2022-07-19,株式会社優幸,,株式会社,大阪府,枚方市,星丘２丁目３７番３－３０１号,,27,210,5730013,,,,,,,2022-07-19,1,,,,,ユウコウ,0
945,4120003022100,新規,0,2022-07-19,2022-07-19,ガフ合同会社,,合同会社,大阪府,枚方市,招提南町１丁目３１－３,,27,210,5731155,,,,,,,2022-07-19,1,,,,,ガフ,0
948,4120901046266,新規,0,2022-07-19,2022-07-19,株式会社Ｌｉｅｂｅ　Ｃｏｎｓｕｌｔｉｎｇ,,株式会社,大阪府,池田市,畑１丁目２番１７号,,27,204,5630021,,,,,,,2022-07-19,1,,,,,リーベコンサルティング,0
951,4120905006357,新規,0,2022-07-19,2022-07-19,医療法人良譲会,,その他の設立登記法人,大阪府,豊中市,服部西町２丁目８番８号,,27,203,5610858,,,,,,,2022-07-19,1,,,,,リョウジョウカイ,0
953,4122001036073,新規,0,2022-07-19,2022-07-19,株式会社ランスポルト,,株式会社,大阪府,東大阪市,足代新町７番１０－３０２号,,27,227,5770057,,,,,,,2022-07-19,1,,,,,ランスポルト,0
954,4122003002379,新規,0,2022-07-19,2022-07-19,合同会社ノーアサイン,,合同会社,大阪府,東大阪市,下六万寺町１丁目１０番４０－４０５号,,27,227,5798066,,,,,,,2022-07-19,1,,,,,ノーアサイン,0
958,4130001072170,新規,0,2022-07-19,2022-07-19,株式会社タマガネ,,株式会社,京都府,八幡市,川口高原３３番１,,26,210,6130851,,,,,,,2022-07-19,1,,,,,タマガネ,0
959,4130001072204,新規,0,2022-07-19,2022-07-19,株式会社Ｕｓｅｆｕｌ,,株式会社,京都府,京都市山科区,四ノ宮大将軍町１５番地８アースコート四宮１０１号室,,26,110,6078029,,,,,,,2022-07-19,1,,,,,ユースフル,0
960,4130001072212,新規,0,2022-07-19,2022-07-19,株式会社梧桐建設,,株式会社,京都府,京都市南区,吉祥院西浦町２４番地４,,26,107,6018352,,,,,,,2022-07-19,1,,,,,ゴトウケンセツ,0
966,4140001126743,新規,0,2022-07-19,2022-07-19,株式会社国光ガス設備,,株式会社,兵庫県,姫路市,田寺５丁目７番４８号,,28,201,6700086,,,,,,,2022-07-19,1,,,,,クニミツガスセツビ,0
967,4140001126751,新規,0,2022-07-19,2022-07-19,株式会社村上廣治商店,00127245,株式会社,兵庫県,丹波市,氷上町石生１０４８番地２,,28,223,6693464,,,,,,,2022-07-19,1,,,,,ムラカミヒロジショウテン,0
968,4140001126768,新規,0,2022-07-19,2022-07-19,株式会社ＣＬＯＶＥＲ８,,株式会社,兵庫県,神戸市垂水区,舞多聞西４丁目６番１７号,,28,108,6550051,,,,,,,2022-07-19,1,,,,,クローバーエイト,0
970,4140003017916,新規,0,2022-07-19,2022-07-19,合同会社エネオン,,合同会社,兵庫県,姫路市,増位新町１丁目１９－２－１４０６,,28,201,6700806,,,,,,,2022-07-19,1,,,,,エネオン,0
977,4160003002627,新規,0,2022-07-19,2022-07-19,合同会社ＺＥＲＯＩＮＴＥＧＲＡＬ,,合同会社,滋賀県,草津市,追分３丁目１１番１６号,,25,206,5250047,,,,,,,2022-07-19,1,,,,,ゼロインテグラル,0
985,4180001152224,新規,0,2022-07-19,2022-07-19,株式会社リアノーティス,,株式会社,愛知県,名古屋市守山区,東山町１３番２７号,,23,113,4630061,,,,,,,2022-07-19,1,,,,,リアノーティス,0
986,4180001152240,新規,0,2022-07-19,2022-07-19,株式会社まほろば,,株式会社,愛知県,名古屋市西区,大野木３丁目６１番地,,23,104,4520803,,,,,,,2022-07-19,1,,,,,マホロバ,0
987,4180001152249,新規,0,2022-07-19,2022-07-19,株式会社産業医いちあい,,株式会社,愛知県,名古屋市千種区,丸山町１丁目８９番地の１,,23,101,4640843,,,,,,,2022-07-19,1,,,,,サンギョウイイチアイ,0
988,4180001152257,新規,0,2022-07-19,2022-07-19,株式会社ＬＥＡＤ．,,株式会社,愛知県,名古屋市西区,牛島町六丁目１番地,,23,104,4510046,,,,,,,2022-07-19,1,,,,,リードット,0
989,4180001152265,新規,0,2022-07-19,2022-07-19,株式会社オースピシャス,,株式会社,愛知県,名古屋市天白区,八幡山１０３番地八事裏山ハイツ１Ｆ,,23,116,4680074,,,,,,,2022-07-19,1,,,,,オースピシャス,0
993,4180301036449,新規,0,2022-07-19,2022-07-19,株式会社ＦＬＵＯＲＩＴＥ,,株式会社,愛知県,高浜市,神明町２丁目１６番地３４,,23,227,4441305,,,,,,,2022-07-19,1,,,,,フローライト,0
1003,4240001060107,新規,0,2022-07-19,2022-07-19,株式会社瀬戸内大崎上島農園,,株式会社,広島県,豊田郡大崎上島町,中野５７４８番２号,,34,431,7250301,,,,,,,2022-07-19,1,,,,,セトウチオオサキカミジマノウエン,0
1028,4360003012168,新規,0,2022-07-19,2022-07-19,合同会社Ｕｔｏｐｉａ,,合同会社,沖縄県,島尻郡南風原町,字津嘉山１３０７番地７フェリーチェ２０２,,47,350,9011117,,,,,,,2022-07-19,1,,,,,ユートピア,0
1029,4370001048816,新規,0,2022-07-19,2022-07-19,株式会社ライブフォー,,株式会社,宮城県,仙台市宮城野区,安養寺１丁目３０番６号,,04,102,9830832,,,,,,,2022-07-19,1,,,,,ライブフォー,0
1034,4380001032991,新規,0,2022-07-19,2022-07-19,株式会社ＯＭＪプラザ,,株式会社,福島県,福島市,三河南町１番２０号コラッセふくしま２Ｆ・ＣＢＳ内,,07,201,9608053,,,,,,,2022-07-19,1,,,,,オーエムジェイプラザ,0
1040,4430001087007,新規,0,2022-07-19,2022-07-19,渋重建設株式会社,,株式会社,北海道,登別市,若山町３丁目８番地６４,,01,230,0590026,,,,,,,2022-07-19,1,,,,,シブジュウケンセツ,0
1041,4430001087048,新規,0,2022-07-19,2022-07-19,株式会社ｗｉｎハウジング札幌,,株式会社,北海道,石狩市,花川北三条６丁目５０番地,,01,235,0613213,,,,,,,2022-07-19,1,,,,,ウィンハウジングサッポロ,0
1042,4430001087147,新規,0,2022-07-19,2022-07-19,株式会社山下スポーツ,,株式会社,北海道,小樽市,花園１丁目１１番１３号,,01,203,0470024,,,,,,,2022-07-19,1,,,,,ヤマシタスポーツ,0
1045,4430003014124,新規,0,2022-07-19,2022-07-19,合同会社ＯｎｅＴｅａｍ,,合同会社,北海道,札幌市中央区,南八条西１丁目２番地４,,01,101,0640808,,,,,,,2022-07-19,1,,,,,ワンチーム,0
1053,4700150110598,新規,0,2022-07-19,2022-06-30,アートプロジェクト,,その他,埼玉県,坂戸市,大字片柳２２９２－１,,11,239,3500219,,,,,,,2022-06-30,1,,,,,アートプロジエクト,0
1054,4700150110706,新規,0,2022-07-19,2022-07-04,はままつ映画祭,,その他,静岡県,浜松市西区,西山町１４１－１２（金子様方）,,22,133,4328001,,,,,,,2022-07-04,1,,,,,ハママツエイガサイ,0
1064,5010001228163,新規,0,2022-07-19,2022-07-19,株式会社ＫＹＴ,,株式会社,東京都,中央区,銀座７丁目７番６号,,13,102,1040061,,,,,,,2022-07-19,1,,,,,ケイワイティー,0
1077,5010401168546,新規,0,2022-07-19,2022-07-19,ＤｉＮａ株式会社,,株式会社,東京都,港区,港南２丁目１０番２３－１０３号,,13,103,1080075,,,,,,,2022-07-19,1,,,,,ディナ,0
1087,5010701042970,新規,0,2022-07-19,2022-07-19,ＳＲサポート株式会社,,株式会社,東京都,品川区,大崎２丁目１１番１号大崎ウィズシティテラス２０３号,,13,109,1410032,,,,,,,2022-07-19,1,,,,,エスアールサポート,0
1092,5010901051251,新規,0,2022-07-19,2022-07-19,株式会社トライポーター,,株式会社,東京都,世田谷区,代田３丁目３４番３号ウリッセ梅ヶ丘２０２,,13,112,1550033,,,,,,,2022-07-19,1,,,,,トライポーター,0
1094,5011001148673,新規,0,2022-07-19,2022-07-19,株式会社ＫＯＮＯＴＯＲＩ,,株式会社,東京都,渋谷区,松濤１丁目２８番２号,,13,113,1500046,,,,,,,2022-07-19,1,,,,,コウノトリ,0
1095,5011003015046,新規,0,2022-07-19,2022-07-19,夜桜合同会社,,合同会社,東京都,渋谷区,幡ヶ谷１丁目１９－１,,13,113,1510072,,,,,,,2022-07-19,1,,,,,ヨザクラ,0
1101,5011101099569,新規,0,2022-07-19,2022-07-19,ｃｈｉ‐ｃａｓａ株式会社,,株式会社,東京都,新宿区,高田馬場１丁目３４番６号八光ビル８階,,13,104,1690075,,,,,,,2022-07-19,1,,,,,チカサ,0
1102,5011101099585,新規,0,2022-07-19,2022-07-19,澤僑株式会社,,株式会社,東京都,新宿区,四谷４丁目２４番１６号,,13,104,1600004,,,,,,,2022-07-19,1,,,,,タクキョウ,0
1103,5011103011977,新規,0,2022-07-19,2022-07-19,壹加メディア合同会社,,合同会社,東京都,新宿区,北新宿４丁目１番１７号２階,,13,104,1690074,,,,,,,2022-07-19,1,,,,,イチカメディア,0
1110,5011503005224,新規,0,2022-07-19,2022-07-19,合同会社Ｖａｎｑｕｉｓｈ,,合同会社,東京都,北区,赤羽２丁目１６－１０－Ｂ１Ｆ,,13,117,1150045,,,,,,,2022-07-19,1,,,,,ヴァンキッシュ,0
1118,5012701017151,新規,0,2022-07-19,2022-07-19,株式会社楽工房,,株式会社,東京都,東村山市,秋津町３丁目２６番地６０,,13,213,1890001,,,,,,,2022-07-19,1,,,,,ラクコウボウ,0
1121,5012805003130,新規,0,2022-07-19,2022-07-19,ＯＣＥＡＮ’Ｓ税理士法人,,その他の設立登記法人,東京都,昭島市,昭和町２丁目２番１６号サンロードビル２０２,,13,207,1960015,,,,,,,2022-07-19,1,,,,,オーシャンズ,0
1142,5030001149275,新規,0,2022-07-19,2022-07-19,酒三株式会社,,株式会社,埼玉県,さいたま市大宮区,桜木町２丁目３番地大宮マルイ７階,,11,103,3300854,,,,,,,2022-07-19,1,,,,,サケサン,0
1150,5030003019749,新規,0,2022-07-19,2022-07-19,ＦＩＮＥＳＴＲＡ　ＣＯＮＳＵＬＴＩＮＧ合同会社,,合同会社,埼玉県,川口市,坂下町１丁目１２番３号,,11,203,3340003,,,,,,,2022-07-19,1,,,,,フィネストラコンサルティング,0
1151,5030003019815,新規,0,2022-07-19,2022-07-19,Ａｒｔソフト合同会社,,合同会社,埼玉県,蕨市,中央４丁目１番６号,,11,223,3350004,,,,,,,2022-07-19,1,,,,,アートソフト,0
1156,5040001124310,新規,0,2022-07-19,2022-07-19,株式会社ウッドベル,,株式会社,千葉県,長生郡長南町,地引１２４６番地３,,12,427,2970135,,,,,,,2022-07-19,1,,,,,ウッドベル,0
1161,5040005021677,新規,0,2022-07-19,2022-07-19,一般社団法人てとらぽっと,,その他の設立登記法人,千葉県,市川市,新田４丁目１７番４－１０５号パステルビレッジ市川,,12,203,2720035,,,,,,,2022-07-19,1,,,,,テトラポット,0
1166,5050003006695,新規,0,2022-07-19,2022-07-19,ＤＥＳＨ　ＥＮＴＥＲＰＲＩＳＥ合同会社,,合同会社,茨城県,稲敷市,蒲ケ山７３４番地２４,,08,229,3000522,,,,,,,2022-07-19,1,,,,,デッシュエンタープライズ,0
1173,5080401025955,新規,0,2022-07-19,2022-07-19,Ｃ＆ｅホールディングス株式会社,,株式会社,静岡県,浜松市中区,高丘西２丁目３番６号,,22,131,4338118,,,,,,,2022-07-19,1,,,,,シーアンドイーホールディングス,0
1175,5090001017674,新規,0,2022-07-19,2022-07-19,株式会社ＴＡＩＹＯホールディングス,,株式会社,山梨県,中巨摩郡昭和町,押越１００番地,,19,384,4093864,,,,,,,2022-07-19,1,,,,,タイヨーホールディングス,0
1187,5110003004817,新規,0,2022-07-19,2022-07-19,合同会社ＫＴジョイント,,合同会社,新潟県,上越市,三和区下中１８７３番地４,,15,222,9430222,,,,,,,2022-07-19,1,,,,,ケーテージョイント,0
1199,5120001247400,新規,0,2022-07-19,2022-07-19,ＮＥＸＦＯＲＣＥ株式会社,,株式会社,大阪府,大阪市生野区,巽中１丁目１８番３０号北巽駅東栄ビル２１２号,00127243,27,116,5440013,,,,,,,2022-07-19,1,,,,,ネクスフォース,0
1200,5120001247425,新規,0,2022-07-19,2022-07-19,株式会社ｏｎｅ,,株式会社,大阪府,大阪市城東区,成育４丁目２３番１４号,,27,118,5360007,,,,,,,2022-07-19,1,,,,,ワン,0
1201,5120001247458,新規,0,2022-07-19,2022-07-19,株式会社ファーストイン,,株式会社,大阪府,大阪市中央区,平野町２丁目５番８号平野町センチュリービル３Ｆ,,27,128,5410046,,,,,,,2022-07-19,1,,,,,ファーストイン,0
1202,5120001247474,新規,0,2022-07-19,2022-07-19,梅田不動産流通株式会社,,株式会社,大阪府,大阪市北区,本庄東１丁目２番６号,,27,127,5310074,,,,,,,2022-07-19,1,,,,,ウメダフドウサンリュウツウ,0
1215,5140001126684,新規,0,2022-07-19,2022-07-19,株式会社ＳＢＫ,,株式会社,兵庫県,神戸市長田区,四番町２丁目１８番地の４,,28,106,6530004,,,,,,,2022-07-19,1,,,,,エスビーケイ,0
1216,5140001126742,新規,0,2022-07-19,2022-07-19,株式会社ヴィクトワール,,株式会社,兵庫県,加古川市,野口町北野５９９番地,,28,210,6750011,,,,,,,2022-07-19,1,,,,,ヴィクトワール,0
1217,5140001126750,新規,0,2022-07-19,2022-07-19,株式会社レヴェル・ワン,,株式会社,兵庫県,姫路市,北条梅原町９１番地ワンダーボックスビル３階,,28,201,6700945,,,,,,,2022-07-19,1,,,,,レヴェルワン,0
1218,5140001126759,新規,0,2022-07-19,2022-07-19,株式会社ＳＨＡＲＥ,,株式会社,兵庫県,神戸市中央区,浜辺通４丁目１番２３号,,28,110,6510083,,,,,,,2022-07-19,1,,,,,シェア,0
1219,5140001126767,新規,0,2022-07-19,2022-07-19,あすかの工務店株式会社,,株式会社,兵庫県,尼崎市,崇徳院２丁目７２番地の８,,28,202,6600071,,,,,,,2022-07-19,1,,,,,アスカノコウムテン,0
1225,5140005026245,新規,0,2022-07-19,2022-07-19,司法書士法人あまがさき登記・相続サポートセンター,,その他の設立登記法人,兵庫県,尼崎市,長洲西通１丁目１番１０号ＪＲ尼崎駅前南西ビル,,28,202,6600807,,,,,,,2022-07-19,1,,,,,アマガサキトウキソウゾクサポートセンター,0
1229,5160001024382,新規,0,2022-07-19,2022-07-19,株式会社Ｌｉｎｋ,,株式会社,滋賀県,草津市,南草津４丁目３番地２－２０８,,25,206,5250050,,,,,,,2022-07-19,1,,,,,リンク,0
1243,5180001152198,新規,0,2022-07-19,2022-07-19,株式会社ティーエス,,株式会社,愛知県,名古屋市中川区,松葉町４丁目２５番地,,23,110,4540818,,,,,,,2022-07-19,1,,,,,ティーエス,0
1244,5180001152248,新規,0,2022-07-19,2022-07-19,株式会社ｓｕｎｆｌｏｗｅｒ,,株式会社,愛知県,名古屋市緑区,青山２丁目２１１番地（ジュネス青山１０１号）,,23,114,4580833,,,,,,,2022-07-19,1,,,,,サンフラワー,0
1247,5180303005392,新規,0,2022-07-19,2022-07-19,合同会社Ｇａｔｈｅｒ,,合同会社,愛知県,みよし市,莇生町藤塚３０番地２,00127240,23,236,4700206,,,,,,,2022-07-19,1,,,,,ギャザー,0
1255,5210001019006,新規,0,2022-07-19,2022-07-19,株式会社ネクサス,,株式会社,福井県,敦賀市,櫛川２２号１２番地の１,,18,202,9140821,,,,,,,2022-07-19,1,,,,,ネクサス,0
1262,5240001060097,新規,0,2022-07-19,2022-07-19,株式会社藤本電設,,株式会社,広島県,福山市,大門町３丁目２０番２７号,,34,207,7210926,,,,,,,2022-07-19,1,,,,,フジモトデンセツ,0
1275,5290001098249,新規,0,2022-07-19,2022-07-19,ディエックスコムウェア株式会社,,株式会社,福岡県,久留米市,東合川７丁目４番７－２０１号,,40,203,8390809,,,,,,,2022-07-19,1,,,,,ディエックスコムウェア,0
1276,5290003012736,新規,0,2022-07-19,2022-07-19,ｗｉｌｄｌｉｆｅ合同会社,,合同会社,福岡県,福岡市中央区,赤坂３丁目４番２２－６０７号,,40,133,8100042,,,,,,,2022-07-19,1,,,,,ワイルドライフ,0
1277,5290003012744,新規,0,2022-07-19,2022-07-19,合同会社Ｔｏｉ,,合同会社,福岡県,福岡市博多区,中洲５丁目１番２２号松月堂ビル４階ＺＥＲＯＩＣＨＩ,,40,132,8100801,,,,,,,2022-07-19,1,,,,,トイ,0
1296,5360001030699,新規,0,2022-07-19,2022-07-19,株式会社Ｌｉｍ,,株式会社,沖縄県,那覇市,泊２丁目４番地２－３０４号室,,47,201,9000012,,,,,,,2022-07-19,1,,,,,リム,0
1297,5360003012159,新規,0,2022-07-19,2022-07-19,合同会社高江洲たたみ店,,合同会社,沖縄県,宮古島市,平良字東仲宗根７６３番地１４,,47,214,9060007,,,,,,,2022-07-19,1,,,,,タカエスタタミテン,0
1306,5420001017946,新規,0,2022-07-19,2022-07-19,株式会社耀彩,,株式会社,青森県,黒石市,大字上十川字留岡六番１９番地４,,02,204,0360323,,,,,,,2022-07-19,1,,,,,キサイ,0
1310,5430001087006,新規,0,2022-07-19,2022-07-19,株式会社田尻エレクト,,株式会社,北海道,札幌市厚別区,厚別西五条２丁目１２番８号,,01,108,0040065,,,,,,,2022-07-19,1,,,,,タジリエレクト,0
1311,5430001087030,新規,0,2022-07-19,2022-07-19,株式会社リンクラフト,,株式会社,北海道,札幌市厚別区,厚別西三条１丁目６番３０号山本ビル１０２号室,,01,108,0040063,,,,,,,2022-07-19,1,,,,,リンクラフト,0
1312,5430001087063,新規,0,2022-07-19,2022-07-19,株式会社クリエイティブラボラトリー,,株式会社,北海道,札幌市中央区,北四条西２８丁目１番１２－４１５号,,01,101,0640824,,,,,,,2022-07-19,1,,,,,クリエイティブラボラトリー,0
1313,5430001087105,新規,0,2022-07-19,2022-07-19,ものかたり株式会社,,株式会社,北海道,札幌市中央区,南二条東２丁目７番４号ビルセススクエア大通４０４号,,01,101,0600052,,,,,,,2022-07-19,1,,,,,モノカタリ,0
1317,5430003014115,新規,0,2022-07-19,2022-07-19,合同会社ＣＯＮＮＥＣＴ,,合同会社,北海道,岩見沢市,大和一条７丁目４番地７ハイムＦＵＩＶ１０３号室,00127246,01,210,0680851,,,,,,,2022-07-19,1,,,,,コネクト,0
1318,5440003001475,新規,0,2022-07-19,2022-07-19,合同会社エアレンデル,,合同会社,北海道,函館市,本通１丁目３８番１－５０４号,,01,202,0410851,,,,,,,2022-07-19,1,,,,,エアレンデル,0
1322,5470005006453,新規,0,2022-07-19,2022-07-19,一般社団法人ＫＭＣホールディングス,,その他の設立登記法人,香川県,仲多度郡多度津町,大字南鴨５番地１,,37,404,7640026,,,,,,,2022-07-19,1,,,,,ケーエムシーホールディングス,0
1332,6010001228154,新規,0,2022-07-19,2022-07-19,株式会社Ｆｌｕｅ,,株式会社,東京都,中央区,銀座１丁目２２番１１号銀座大竹ビジデンス２階,,13,102,1040061,,,,,,,2022-07-19,1,,,,,フルエ,0
1333,6010001228179,新規,0,2022-07-19,2022-07-19,ＪＫＨホールディングス株式会社,,株式会社,東京都,文京区,小石川１丁目９番５号,,13,105,1120002,,,,,,,2022-07-19,1,,,,,ジェイケイエイチホールディングス,0
1338,6010005035274,新規,0,2022-07-19,2022-07-19,一般社団法人ひまわり,,その他の設立登記法人,東京都,千代田区,一ツ橋２丁目６番３号アクシスインベストメントアドバイザーズ株式会社内,,13,101,1010003,,,,,,,2022-07-19,1,,,,,ヒマワリ,0
1342,6010401168272,新規,0,2022-07-19,2022-07-19,株式会社ＲＮ　Ｇｌｏｂａｌ,,株式会社,東京都,港区,赤坂４丁目８番１９号赤坂フロントタウン３階,,13,103,1070052,,,,,,,2022-07-19,1,,,,,アールエヌグローバル,0
1355,6010901051250,新規,0,2022-07-19,2022-07-19,ケイベース株式会社,,株式会社,東京都,世田谷区,中町３丁目１１番１４号,,13,112,1580091,,,,,,,2022-07-19,1,,,,,ケイベース,0
1356,6010901051259,新規,0,2022-07-19,2022-07-19,株式会社空き地企画,,株式会社,東京都,世田谷区,上馬３丁目１８－１７メゾンドシャルテ３１０,,13,112,1540011,,,,,,,2022-07-19,1,,,,,アキチキカク,0
1364,6011001148755,新規,0,2022-07-19,2022-07-19,株式会社ＭＧＭ,,株式会社,東京都,渋谷区,恵比寿西１丁目２０番５号恵比寿ＳＡビル８階,,13,113,1500021,,,,,,,2022-07-19,1,,,,,エムジーエム,0
1365,6011001148771,新規,0,2022-07-19,2022-07-19,株式会社キーリンジャパン,,株式会社,東京都,渋谷区,神宮前５丁目１番５号,,13,113,1500001,,,,,,,2022-07-19,1,,,,,キーリンジャパン,0
1368,6011003015061,新規,0,2022-07-19,2022-07-19,ＳＵＫ　ＡＲＥ　ＲＯＭ合同会社,,合同会社,東京都,渋谷区,富ヶ谷１丁目１４番１４号４階,,13,113,1510063,,,,,,,2022-07-19,1,,,,,スックアーローム,0
1372,6011101099568,新規,0,2022-07-19,2022-07-19,Ｒｅｕｎ株式会社,,株式会社,東京都,新宿区,大久保２丁目１６－３６,,13,104,1690072,,,,,,,2022-07-19,1,,,,,リアン,0
1380,6011701025469,新規,0,2022-07-19,2022-07-19,一期一会株式会社,,株式会社,東京都,江戸川区,西小岩５丁目１２番１６号ＫＵＲＡＳＳＫＯＩＷＡ・１Ｂ,,13,123,1330057,,,,,,,2022-07-19,1,,,,,イチゴイチエ,0
1385,6011801041011,新規,0,2022-07-19,2022-07-19,泰坦通信科技日本株式会社,,株式会社,東京都,足立区,小台１丁目２１番１号,,13,121,1200046,,,,,,,2022-07-19,1,,,,,タイタンツウシンカギニホン,0
1388,6012401039412,新規,0,2022-07-19,2022-07-19,ＳｔａｒＷａｙ株式会社,,株式会社,東京都,調布市,小島町１丁目１９番地１パークホームズ調布ザ・レジデンス１１８,,13,208,1820026,,,,,,,2022-07-19,1,,,,,スターウェイ,0
1389,6012703002497,新規,0,2022-07-19,2022-07-19,吉川商事合同会社,,合同会社,東京都,西東京市,保谷町３丁目９－７－２０２,,13,229,2020015,,,,,,,2022-07-19,1,,,,,ヨシガワショウジ,0
1399,6020001147386,新規,0,2022-07-19,2022-07-19,株式会社ＳｙｎｅｒｇｙＣｒｅａｃｉｏｎ,,株式会社,神奈川県,横浜市西区,北幸１丁目１－８エキニア横浜５階ＨａｍａＰｏｒｔ内,,14,103,2200004,,,,,,,2022-07-19,1,,,,,シナジークリエイション,0
1410,6021001076559,新規,0,2022-07-19,2022-07-19,株式会社天匠,,株式会社,神奈川県,横須賀市,平作１丁目２７番４号,,14,201,2380032,,,,,,,2022-07-19,1,,,,,テンショウ,0
1417,6030001149266,新規,0,2022-07-19,2022-07-19,株式会社ビックツー,,株式会社,埼玉県,川口市,中青木４丁目４番２０－１０１号,,11,203,3320032,,,,,,,2022-07-19,1,,,,,ビックツー,0
1418,6030001149274,新規,0,2022-07-19,2022-07-19,株式会社シュリ,,株式会社,埼玉県,越谷市,南越谷５丁目２－２０,,11,222,3430845,,,,,,,2022-07-19,1,,,,,シュリ,0
1425,6030003019814,新規,0,2022-07-19,2022-07-19,合同会社ＳＫＹ,,合同会社,埼玉県,さいたま市岩槻区,大字釣上新田６０７番地２０グリーンハイツ１０１号,,11,110,3390025,,,,,,,2022-07-19,1,,,,,スカイ,0
1426,6030003019822,新規,0,2022-07-19,2022-07-19,合同会社ＳＤＩ,,合同会社,埼玉県,草加市,西町１１６０番地５ソレイユ草加２０３号,,11,221,3400035,,,,,,,2022-07-19,1,,,,,エスディーアイ,0
1427,6030005020927,新規,0,2022-07-19,2022-07-19,一般社団法人たすけあい,,その他の設立登記法人,埼玉県,さいたま市見沼区,大字中川５８番地５プラザ・エスタンシアＩＩ２０３号室,00127248,11,104,3370043,,,,,,,2022-07-19,1,,,,,タスケアイ,0
1434,6040003020416,新規,0,2022-07-19,2022-07-19,合同会社オーストラリア保育留学,,合同会社,千葉県,千葉市美浜区,若葉３丁目１番１８号幕張ベイパーククロスレジデンスＳ２－１,,12,106,2610014,,,,,,,2022-07-19,1,,,,,オーストラリアホイクリュウガク,0
1441,6080001025090,新規,0,2022-07-19,2022-07-19,株式会社富二企画,,株式会社,静岡県,藤枝市,清里２丁目３２番地の１６,,22,214,4260223,,,,,,,2022-07-19,1,,,,,フジキカク,0
1443,6080105006268,新規,0,2022-07-19,2022-07-19,一般社団法人おたまちゃん食堂,,その他の設立登記法人,静岡県,三島市,富士見台２６番地の１３,,22,206,4110021,,,,,,,2022-07-19,1,,,,,オタマチャンショクドウ,0
1464,6120001247291,新規,0,2022-07-19,2022-07-19,株式会社プロベルＳＳ,,株式会社,大阪府,大阪市浪速区,元町２丁目７番２号,,27,111,5560016,,,,,,,2022-07-19,1,,,,,プロベルエスエス,0
1465,6120001247325,新規,0,2022-07-19,2022-07-19,株式会社ヒカリノアトリエ,,株式会社,大阪府,大阪市浪速区,難波中２丁目４番６号２ａ,,27,111,5560011,,,,,,,2022-07-19,1,,,,,ヒカリノアトリエ,0
1466,6120001247358,新規,0,2022-07-19,2022-07-19,株式会社Ｂａｙ　ｂｒｉｄｇｅ,,株式会社,大阪府,大阪市中央区,内本町２丁目３番８号ダイヤパレスビル１０４,,27,128,5400026,,,,,,,2022-07-19,1,,,,,ベイブリッチ,0
1472,6120005023086,新規,0,2022-07-19,2022-07-19,医療法人健優会,,その他の設立登記法人,大阪府,門真市,千石東町２番４６号ウィンズビル１階Ａ,,27,223,5710013,,,,,,,2022-07-19,1,,,,,ケンユウカイ,0
1474,6120901046256,新規,0,2022-07-19,2022-07-19,株式会社寶湯,,株式会社,大阪府,豊中市,庄内栄町１丁目１１番１号,,27,203,5610834,,,,,,,2022-07-19,1,,,,,タカラユ,0
1475,6120901046264,新規,0,2022-07-19,2022-07-19,播磨森林株式会社,,株式会社,大阪府,豊中市,新千里北町３丁目１８番９号,,27,203,5600081,,,,,,,2022-07-19,1,,,,,ハリマシンリン,0
1476,6122003002377,新規,0,2022-07-19,2022-07-19,合同会社さき,,合同会社,大阪府,東大阪市,稲田新町１丁目１３番２０号,,27,227,5770004,,,,,,,2022-07-19,1,,,,,サキ,0
1479,6130001072210,新規,0,2022-07-19,2022-07-19,株式会社ＴＹＭＹ,,株式会社,京都府,京都市東山区,＿園町北側３０３番地,00127252,26,105,6050000,,,,,,,2022-07-19,1,,,,,タイミー,0
1493,6140001126766,新規,0,2022-07-19,2022-07-19,株式会社ＩＮＤＩＢＡＳＡＬＯＮｎａｎａ,,株式会社,兵庫県,神戸市北区,有野中町２丁目３番９号ルーラルライフ和１０２号,,28,109,6511313,,,,,,,2022-07-19,1,,,,,インディバサロンナナ,0
1499,6140003017906,新規,0,2022-07-19,2022-07-19,合同会社ＡＫＡＳＨＩ,,合同会社,兵庫県,明石市,大久保町高丘６丁目１７番地の３,,28,203,6740057,,,,,,,2022-07-19,1,,,,,アカシ,0
1501,6150003002733,新規,0,2022-07-19,2022-07-19,合同会社グッドコスパ,,合同会社,奈良県,香芝市,下田東１丁目３１７番地２,,29,210,6390232,,,,,,,2022-07-19,1,,,,,グッドコスパ,0
1503,6160001024381,新規,0,2022-07-19,2022-07-19,ディナレッジ株式会社,,株式会社,滋賀県,彦根市,城町１丁目１番４１号（２０６号）,,25,202,5220068,,,,,,,2022-07-19,1,,,,,ディナレッジ,0
1512,6180001152222,新規,0,2022-07-19,2022-07-19,ＭＯＲＯ　ＴＥＣＨＮＯＬＯＧＹ株式会社,,株式会社,愛知県,名古屋市中村区,名駅１丁目１－１ＪＰタワー名古屋２１階,,23,105,4500002,,,,,,,2022-07-19,1,,,,,モロテクノロジー,0
1513,6180001152255,新規,0,2022-07-19,2022-07-19,株式会社竹内サク井工業,,株式会社,愛知県,常滑市,金山字新田５６番地の２,,23,216,4790003,,,,,,,2022-07-19,1,,,,,タケウチサクイコウギョウ,0
1517,6180005019855,新規,0,2022-07-19,2022-07-19,医療法人健昇会,,その他の設立登記法人,愛知県,名古屋市中区,栄４丁目１７番２３号,,23,106,4600008,,,,,,,2022-07-19,1,,,,,ケンショウカイ,0
1523,6180305009366,新規,0,2022-07-19,2022-07-19,一般社団法人にっこりみっけＭＩＫ,,その他の設立登記法人,愛知県,安城市,山崎町大手７１番地５,,23,212,4460016,,,,,,,2022-07-19,1,,,,,ニッコリミッケエムアイケイ,0
1537,6230003001891,新規,0,2022-07-19,2022-07-19,合同会社奏和,,合同会社,富山県,高岡市,長江５２４番地１５,,16,202,9330959,,,,,,,2022-07-19,1,,,,,ソウワ,0
1539,6240001060113,新規,0,2022-07-19,2022-07-19,株式会社コトひろ,,株式会社,広島県,広島市中区,江波南３丁目４番１号,,34,101,7300835,,,,,,,2022-07-19,1,,,,,コトヒロ,0
1546,6260003003984,新規,0,2022-07-19,2022-07-19,伊藤工房合同会社,,合同会社,岡山県,岡山市北区,西辛川２６０番地８,,33,101,7011213,,,,,,,2022-07-19,1,,,,,イトウコウボウ,0
1547,6290001098108,新規,0,2022-07-19,2022-07-19,パールプラス三重株式会社,,株式会社,福岡県,福岡市中央区,天神３丁目１２番２４－３０１号,,40,133,8100001,,,,,,,2022-07-19,1,,,,,パールプラスミエ,0
1548,6290001098256,新規,0,2022-07-19,2022-07-19,ＥＩＧＨＴ　ＷＯＲＫＳ株式会社,,株式会社,福岡県,糟屋郡久山町,大字久原３７００番地１０,,40,348,8112501,,,,,,,2022-07-19,1,,,,,エイトワークス,0
1549,6290001098272,新規,0,2022-07-19,2022-07-19,株式会社セイツウ,,株式会社,福岡県,三井郡大刀洗町,大字山隈１７６１番地３２,,40,503,8301226,,,,,,,2022-07-19,1,,,,,セイツウ,0
1551,6290003012743,新規,0,2022-07-19,2022-07-19,合同会社万が一ＳＹＳＴＥＭ,,合同会社,福岡県,福岡市早良区,野芥６丁目１－２２,,40,137,8140171,,,,,,,2022-07-19,1,,,,,マンガイチシステム,0
1567,6350001017861,新規,0,2022-07-19,2022-07-19,株式会社結夢,,株式会社,宮崎県,宮崎市,恒久３丁目３０番地２４,,45,201,8800913,,,,,,,2022-07-19,1,,,,,ユメ,0
1568,6360001030698,新規,0,2022-07-19,2022-07-19,株式会社ドッグわん,,株式会社,沖縄県,宮古島市,平良字下里５７番地,,47,214,9060013,,,,,,,2022-07-19,1,,,,,ドッグワン,0
1569,6360003012158,新規,0,2022-07-19,2022-07-19,合同会社ＯＫＩ　ＥＳＣＡＰＥ,,合同会社,沖縄県,中頭郡読谷村,字儀間６５番地,,47,324,9040327,,,,,,,2022-07-19,1,,,,,オキエスケイプ,0
1586,6430001086898,新規,0,2022-07-19,2022-07-19,株式会社ＵＬｉｆｅ,,株式会社,北海道,札幌市中央区,南十七条西４丁目１番１－７０３号,,01,101,0640917,,,,,,,2022-07-19,1,,,,,ユーライフ,0
1587,6430001087013,新規,0,2022-07-19,2022-07-19,西村除雪サービス株式会社,,株式会社,北海道,夕張郡栗山町,字杵臼１８８番地,,01,429,0691506,,,,,,,2022-07-19,1,,,,,ニシムラジョセツサービス,0
1588,6430001087021,新規,0,2022-07-19,2022-07-19,株式会社清建,,株式会社,北海道,苫小牧市,光洋町３丁目１番１５号,,01,213,0530811,,,,,,,2022-07-19,1,,,,,セイケン,0
1590,6430005014500,新規,0,2022-07-19,2022-07-19,一般社団法人らいふサポートネット,,その他の設立登記法人,北海道,札幌市白石区,北郷三条１４丁目２番１２号メゾン清園Ａ１０１号,,01,104,0030833,,,,,,,2022-07-19,1,,,,,ライフサポートネット,0
1593,6700150020052,新規,0,2022-07-19,2015-10-09,日本労働組合総連合会群馬県連合会,,その他,群馬県,前橋市,野中町３６１－２群馬県勤労福祉センタ－内,,10,201,3792166,,,,,,,2015-10-09,1,,,,,ニホンロウドウクミアイソウレンゴウカイグンマケンレンゴウカイ,0
1594,6700150109837,新規,0,2022-07-19,2022-06-30,中部市町村会,,その他,沖縄県,沖縄市,海邦２丁目９－３５中部市町村会館２階,,47,211,9042162,,,,,,,2022-06-30,1,,,,,チユウブシチヨウソンカイ,0
1604,7010001228203,新規,0,2022-07-19,2022-07-19,フナジャパン株式会社,,株式会社,東京都,文京区,水道２丁目９番１４号,,13,105,1120005,,,,,,,2022-07-19,1,,,,,フナジャパン,0
1611,7010005035281,新規,0,2022-07-19,2022-07-19,一般社団法人スプリングワン,,その他の設立登記法人,東京都,千代田区,丸の内３丁目１番１号東京共同会計事務所内,,13,101,1000005,,,,,,,2022-07-19,1,,,,,スプリングワン,0
1612,7010401168478,新規,0,2022-07-19,2022-07-19,株式会社Ｋ’ｓ　ＤＥＳＩＧＮ　ＦＡＣＴＯＲＹ,,株式会社,東京都,港区,東麻布２丁目３１番２－１０１号,,13,103,1060044,,,,,,,2022-07-19,1,,,,,ケーズデザインファクトリー,0
1613,7010401168494,新規,0,2022-07-19,2022-07-19,株式会社ｄ‐ｓｔｒａｔｅｇｙ，ｉｎｃ,,株式会社,東京都,港区,海岸１丁目２－３汐留芝離宮ビルディング２１階,,13,103,1050022,,,,,,,2022-07-19,1,,,,,ディーストラテジー,0
1621,7010603009637,新規,0,2022-07-19,2022-07-19,合同会社中浦ケアプランニング,,合同会社,東京都,墨田区,錦糸１丁目６番３－１１０２号,,13,107,1300013,,,,,,,2022-07-19,1,,,,,ナカウラケアプランニング,0
1626,7010703006311,新規,0,2022-07-19,2022-07-19,合同会社矢吹光代建築設計事務所,,合同会社,東京都,品川区,東五反田１丁目２番４１－３０４号,,13,109,1410022,,,,,,,2022-07-19,1,,,,,ヤブキミツヨケンチクセッケイジムショ,0
1634,7010901051258,新規,0,2022-07-19,2022-07-19,４ａプラス株式会社,,株式会社,東京都,世田谷区,深沢７丁目５番２０号ディアレンス深沢Ｂ,,13,112,1580081,,,,,,,2022-07-19,1,,,,,フォーエープラス,0
1644,7011001148671,新規,0,2022-07-19,2022-07-19,株式会社ＥａｓｙＰ,,株式会社,東京都,渋谷区,神宮前６丁目２３番４号桑野ビル２階,,13,113,1500001,,,,,,,2022-07-19,1,,,,,イージーピー,0
1646,7011003015028,新規,0,2022-07-19,2022-07-19,Ｂｉｎｆｏｒｍ合同会社,,合同会社,東京都,渋谷区,渋谷２丁目１９－１５宮益坂ビルディング６０９,,13,113,1500002,,,,,,,2022-07-19,1,,,,,ビンフォーム,0
1647,7011003015060,新規,0,2022-07-19,2022-07-19,ｎｏｅｍｂｌｅｍ合同会社,,合同会社,東京都,目黒区,目黒本町４丁目２０番３８号,,13,110,1520002,,,,,,,2022-07-19,1,,,,,,0
1652,7011101099567,新規,0,2022-07-19,2022-07-19,ｍａｙｏｎａｃａ株式会社,,株式会社,東京都,新宿区,西新宿３丁目９番７－１７０１号,,13,104,1600023,,,,,,,2022-07-19,1,,,,,マヨナカ,0
1653,7011101099600,新規,0,2022-07-19,2022-07-19,株式会社アシスト,,株式会社,東京都,新宿区,歌舞伎町２丁目２５番２号,,13,104,1600021,,,,,,,2022-07-19,1,,,,,アシスト,0
1655,7011103011975,新規,0,2022-07-19,2022-07-19,合同会社ＳＵＧＯＫＵ,,合同会社,東京都,新宿区,百人町１丁目５－４東都ビル５０５,,13,104,1690073,,,,,,,2022-07-19,1,,,,,スゴク,0
1657,7011201023971,新規,0,2022-07-19,2022-07-19,智合株式会社,,株式会社,東京都,中野区,上高田１丁目３５番１号,,13,114,1640002,,,,,,,2022-07-19,1,,,,,トモアイ,0
1663,7011403003722,新規,0,2022-07-19,2022-07-19,合同会社ｏｎｓｉｄｅ,,合同会社,東京都,板橋区,上板橋３丁目２０番１２号フルヤビル３Ｆ,,13,119,1740076,,,,,,,2022-07-19,1,,,,,オンサイド,0
1677,7012401039428,新規,0,2022-07-19,2022-07-19,株式会社あぷあ,,株式会社,東京都,武蔵野市,緑町１丁目７番２７号第一榎本荘１０７,,13,203,1800012,,,,,,,2022-07-19,1,,,,,アプア,0
1680,7012801021729,新規,0,2022-07-19,2022-07-19,株式会社ＫＥＩＹＯ,,株式会社,東京都,東大和市,芋窪６丁目１３８９番地の２５,,13,220,2070033,,,,,,,2022-07-19,1,,,,,ケイヨー,0
1681,7012805003129,新規,0,2022-07-19,2022-07-19,土地家屋調査士法人まつい測量事務所,,その他の設立登記法人,東京都,立川市,柏町３丁目３番地の５－２０３号ニュー柏ビル,,13,202,1900004,,,,,,,2022-07-19,1,,,,,マツイソクリョウジムショ,0
1687,7021001076558,新規,0,2022-07-19,2022-07-19,株式会社東海コンサルティング,,株式会社,神奈川県,厚木市,戸室１丁目２７番２４－１０５号,,14,212,2430031,,,,,,,2022-07-19,1,,,,,トウカイコンサルティング,0
1714,7030003019739,新規,0,2022-07-19,2022-07-19,合同会社ジャックドー,,合同会社,埼玉県,さいたま市緑区,松木１丁目３４－２５,,11,109,3360918,,,,,,,2022-07-19,1,,,,,ジャックドー,0
1715,7030003019796,新規,0,2022-07-19,2022-07-19,合同会社Ｐｅｅｋ‐Ａ‐Ｂｏｏ,,合同会社,埼玉県,草加市,北谷３丁目３５番２３号,,11,221,3400046,,,,,,,2022-07-19,1,,,,,ピーカーブー,0
1718,7040003020448,新規,0,2022-07-19,2022-07-19,田中工業合同会社,,合同会社,千葉県,松戸市,上本郷３６４番地の３アクティ北松戸２－７１３号,,12,207,2710064,,,,,,,2022-07-19,1,,,,,タナカコウギョウ,0
1729,7090001017672,新規,0,2022-07-19,2022-07-19,株式会社やまとデータサービス,,株式会社,山梨県,甲府市,住吉４丁目３番３２号ドミール住吉３０２,,19,201,4000851,,,,,,,2022-07-19,1,,,,,ヤマトデータサービス,0
1730,7090003002136,新規,0,2022-07-19,2022-07-19,合同会社ＳＨＯＷＡ　ＡＧＲＩ　ＢＡＳＥ,,合同会社,山梨県,笛吹市,石和町市部１０３０番地,,19,211,4060031,,,,,,,2022-07-19,1,,,,,ショウワアグリベース,0
1731,7100001035540,新規,0,2022-07-19,2022-07-19,ＯＳＡ株式会社,,株式会社,長野県,下伊那郡松川町,上片桐１０８６番地２,,20,402,3993301,,,,,,,2022-07-19,1,,,,,オーエスエー,0
1750,7120001247217,新規,0,2022-07-19,2022-07-19,株式会社名和技術,,株式会社,大阪府,大阪市西区,靱本町１丁目１５－１０森田ビル５０１,,27,106,5500004,,,,,,,2022-07-19,1,,,,,メイワギジュツ,0
1751,7120001247373,新規,0,2022-07-19,2022-07-19,ナイン株式会社,,株式会社,大阪府,大阪市北区,梅田１丁目１－３大阪駅前第３ビル２９階１－１－１号室,,27,127,5300001,,,,,,,2022-07-19,1,,,,,ナイン,0
1752,7120001247407,新規,0,2022-07-19,2022-07-19,株式会社ＲＯＴ,,株式会社,大阪府,大阪市天王寺区,上本町２丁目１番１４－２０２号,,27,109,5430001,,,,,,,2022-07-19,1,,,,,ロット,0
1753,7120001247415,新規,0,2022-07-19,2022-07-19,株式会社ゼータ,,株式会社,大阪府,大阪市西区,北堀江１丁目５番地２号四ツ橋新興産ビル,,27,106,5500014,,,,,,,2022-07-19,1,,,,,ゼータ,0
1754,7120001247456,新規,0,2022-07-19,2022-07-19,株式会社Ｒｅａｌｉｚｅ,,株式会社,大阪府,大阪市浪速区,元町３丁目１番１号鎌田ビル５０２号,,27,111,5560016,,,,,,,2022-07-19,1,,,,,リアライズ,0
1758,7120003022064,新規,0,2022-07-19,2022-07-19,合同会社ブレイン・オブ・ジャパン,,合同会社,大阪府,大阪市西区,南堀江１丁目２４番１８－１１０６号,,27,106,5500015,,,,,,,2022-07-19,1,,,,,ブレインオブジャパン,0
1759,7120003022072,新規,0,2022-07-19,2022-07-19,合同会社ＢＥＮＥＸ,,合同会社,大阪府,大阪市東成区,大今里西１丁目３０番７－１４０１号,,27,115,5370014,,,,,,,2022-07-19,1,,,,,ベネックス,0
1760,7120005023060,新規,0,2022-07-19,2022-07-19,一般社団法人大阪生活就労支援センター,,その他の設立登記法人,大阪府,大阪市天王寺区,悲田院町４番６号,,27,109,5430055,,,,,,,2022-07-19,1,,,,,オオサカセイカツシュウロウシエンセンター,0
1763,7120901046263,新規,0,2022-07-19,2022-07-19,株式会社リプラス,,株式会社,大阪府,豊中市,豊南町西２丁目１５－２,,27,203,5610816,,,,,,,2022-07-19,1,,,,,リプラス,0
1765,7120903004244,新規,0,2022-07-19,2022-07-19,ＵＲＵＨＯＮＰＯ合同会社,,合同会社,大阪府,豊中市,庄内幸町３丁目２５－２,,27,203,5610833,,,,,,,2022-07-19,1,,,,,ウルホンポ,0
1767,7122003002376,新規,0,2022-07-19,2022-07-19,合同会社Ｓｉ　Ａｖｖｅｒａ,,合同会社,大阪府,東大阪市,花園西町１丁目２０番７号,,27,227,5780936,,,,,,,2022-07-19,1,,,,,シアヴェーラ,0
1769,7130001072218,新規,0,2022-07-19,2022-07-19,株式会社Ｒ＆Ｄ,,株式会社,京都府,京都市山科区,北花山大林町８１番地７,,26,110,6078482,,,,,,,2022-07-19,1,,,,,アールアンドディ,0
1770,7130001072250,新規,0,2022-07-19,2022-07-19,株式会社聖光園細野薬室,,株式会社,京都府,京都市中京区,壬生松原町９番地１５,,26,104,6048823,,,,,,,2022-07-19,1,,,,,セイコウエンホソノヤクシツ,0
1775,7140001126765,新規,0,2022-07-19,2022-07-19,株式会社つよくやさしく,,株式会社,兵庫県,神戸市垂水区,下畑町字内入田７９６番地の４エステート上口２０１号,,28,108,6550861,,,,,,,2022-07-19,1,,,,,ツヨクヤサシク,0
1776,7140001126781,新規,0,2022-07-19,2022-07-19,株式会社Ｔｅａｍ　Ｃｈｉｋａ,,株式会社,兵庫県,西宮市,甲東園１丁目５番３５号,,28,204,6620812,,,,,,,2022-07-19,1,,,,,チームチカ,0
1783,7140005026235,新規,0,2022-07-19,2022-07-19,ＨＹＯＧＯ　ＭＡＳＪＩＤ,,その他の設立登記法人,兵庫県,神戸市中央区,神若通５丁目３番１５号,,28,110,6510067,,,,,,,2022-07-19,1,,,,,ヒョウゴマスジド,0
1796,7180001152279,新規,0,2022-07-19,2022-07-19,株式会社ＮＡＣ,,株式会社,愛知県,日進市,岩崎台４丁目４０６番地２,,23,230,4700135,,,,,,,2022-07-19,1,,,,,ナック,0
1799,7180005019854,新規,0,2022-07-19,2022-07-19,ＰＣＳ協同組合,,その他の設立登記法人,愛知県,名古屋市中区,丸の内３丁目２１番２１号,,23,106,4600002,,,,,,,2022-07-19,1,,,,,ピーシーエス,0
1802,7180301036446,新規,0,2022-07-19,2022-07-19,株式会社Ａｒｔｅｍｉｓ,,株式会社,愛知県,豊橋市,東田町字西脇３０番地,,23,201,4400062,,,,,,,2022-07-19,1,,,,,アルテミス,0
1811,7200001040274,新規,0,2022-07-19,2022-07-19,株式会社Ａ　ｒｉｓｔ,,株式会社,岐阜県,岐阜市,今嶺４丁目２３番１２号,,21,201,5008388,,,,,,,2022-07-19,1,,,,,アーリスト,0
1832,7290001098305,新規,0,2022-07-19,2022-07-19,ＴＯＴＡＬＧＡＴＥ株式会社,,株式会社,福岡県,福岡市城南区,田島２丁目４番２４－３０３号,,40,136,8140113,,,,,,,2022-07-19,1,,,,,トータルゲート,0
1839,7330001029924,新規,0,2022-07-19,2022-07-19,株式会社フラワー,,株式会社,熊本県,阿蘇郡南阿蘇村,大字一関５０番地９,,43,433,8691504,,,,,,,2022-07-19,1,,,,,フラワー,0
1844,7340001024899,新規,0,2022-07-19,2022-07-19,イチタク株式会社,,株式会社,鹿児島県,薩摩川内市,神田町２番２８号Ｈ＆Ｉビル２Ｆ,,46,215,8950052,,,,,,,2022-07-19,1,,,,,イチタク,0
1850,7360001030648,新規,0,2022-07-19,2022-07-19,株式会社トラスト潜水調査,,株式会社,沖縄県,うるま市,みどり町５丁目４番６号,,47,213,9042215,,,,,,,2022-07-19,1,,,,,トラストセンスイチョウサ,0
1851,7360005006693,新規,0,2022-07-19,2022-07-19,一般社団法人やんばるナゴラブ,,その他の設立登記法人,沖縄県,名護市,東江２丁目８番４３号,,47,209,9050021,,,,,,,2022-07-19,1,,,,,ヤンバルナゴラブ,0
1862,7410001013242,新規,0,2022-07-19,2022-07-19,株式会社オーリス,,株式会社,秋田県,南秋田郡大潟村,字西４丁目２番地,,05,368,0100445,,,,,,,2022-07-19,1,,,,,オーリス,0
1867,7430001087094,新規,0,2022-07-19,2022-07-19,Ｍ＆Ｍ株式会社,,株式会社,北海道,苫小牧市,光洋町２丁目６番２号,,01,213,0530811,,,,,,,2022-07-19,1,,,,,エムアンドエム,0
1895,8010001228185,新規,0,2022-07-19,2022-07-19,Ａｒｒｏｗｈｅａｄｓ株式会社,,株式会社,東京都,千代田区,丸の内２丁目３－２郵船ビルディング４階,,13,101,1000005,,,,,,,2022-07-19,1,,,,,アローヘッズ,0
1912,8010601061481,新規,0,2022-07-19,2022-07-19,株式会社テラスコ,,株式会社,東京都,江東区,辰巳１丁目１番３４号２階,,13,108,1350053,,,,,,,2022-07-19,1,,,,,テラスコ,0
1913,8010603009636,新規,0,2022-07-19,2022-07-19,合同会社ＫＨＵＳＨＩ,,合同会社,東京都,江東区,北砂３丁目５番２－７０２号,,13,108,1360073,,,,,,,2022-07-19,1,,,,,クーシ,0
1916,8010703006327,新規,0,2022-07-19,2022-07-19,ＳＢホールディングス合同会社,,合同会社,東京都,品川区,上大崎３丁目１番１号目黒セントラルスクエア１５階,,13,109,1410021,,,,,,,2022-07-19,1,,,,,エスビーホールディングス,0
1922,8010901051240,新規,0,2022-07-19,2022-07-19,株式会社ＲＡＧＸ,,株式会社,東京都,世田谷区,池尻２丁目３７番１４号メナハウス９０４,,13,112,1540001,,,,,,,2022-07-19,1,,,,,ラグエックス,0
1929,8011001148753,新規,0,2022-07-19,2022-07-19,株式会社ウィステリア,,株式会社,東京都,渋谷区,道玄坂１丁目１０番８号渋谷道玄坂東急ビル２Ｆ－Ｃ,,13,113,1500043,,,,,,,2022-07-19,1,,,,,ウィステリア,0
1930,8011003015027,新規,0,2022-07-19,2022-07-19,合同会社ＫＩＲＥッＫＩＲＥ,,合同会社,東京都,渋谷区,恵比寿３丁目３７番１９号カルチェブラン恵比寿１０１,,13,113,1500013,,,,,,,2022-07-19,1,,,,,キレッキレ,0
1934,8011101099566,新規,0,2022-07-19,2022-07-19,株式会社Ｐｌａｎｋ,,株式会社,東京都,新宿区,西新宿６丁目６番３号新宿国際ビルディング新館５階,,13,104,1600023,,,,,,,2022-07-19,1,,,,,プランク,0
1936,8011103011974,新規,0,2022-07-19,2022-07-19,Ｂｅｙｏｎｄ　Ｈｅａｌｔｈ合同会社,,合同会社,東京都,新宿区,新宿２丁目９番２２号多摩川新宿ビル,,13,104,1600022,,,,,,,2022-07-19,1,,,,,ベヨンドヘルス,0
1950,8012401039427,新規,0,2022-07-19,2022-07-19,Ｍａｔｃｈ　Ｍａｒｋｅｔ株式会社,,株式会社,東京都,狛江市,中和泉２丁目１０番１４－１０６号,,13,219,2010012,,,,,,,2022-07-19,1,,,,,マッチマーケット,0
1951,8012401039435,新規,0,2022-07-19,2022-07-19,株式会社Ｖｉｅｔ　Ｌｉｋｅ　Ｊａｐａｎ,,株式会社,東京都,武蔵野市,吉祥寺本町２丁目１４－７第２高島荘１Ｆ,,13,203,1800004,,,,,,,2022-07-19,1,,,,,ヴィットライクジャパン,0
1958,8013301049342,新規,0,2022-07-19,2022-07-19,株式会社カーボンサイファー,,株式会社,東京都,豊島区,池袋１丁目７－１８ＳＵＮＳＨＩＮＥＳＣＨビル,,13,116,1700014,,,,,,,2022-07-19,1,,,,,カーボンサイファー,0
1971,8021001076508,新規,0,2022-07-19,2022-07-19,株式会社いせはらＶＩＬＬＡＧＥ,,株式会社,神奈川県,伊勢原市,西富岡８８０,,14,214,2591111,,,,,,,2022-07-19,1,,,,,イセハラヴィレッジ,0
1993,8040001124316,新規,0,2022-07-19,2022-07-19,株式会社ビルクラッチ,,株式会社,千葉県,銚子市,飯沼町１番地の８,,12,202,2880051,,,,,,,2022-07-19,1,,,,,ビルクラッチ,0
1996,8040003020397,新規,0,2022-07-19,2022-07-19,合同会社Ｋ．パートナーズ,,合同会社,千葉県,松戸市,新松戸３丁目３１４－１,,12,207,2700034,,,,,,,2022-07-19,1,,,,,ケイパートナーズ,0
1999,8050001051419,新規,0,2022-07-19,2022-07-19,株式会社カレント,,株式会社,茨城県,つくば市,竹園１丁目９番地５レーベンリヴァーレ竹園レジデンス３０５号,,08,220,3050032,,,,,,,2022-07-19,1,,,,,カレント,0
2002,8050003006692,新規,0,2022-07-19,2022-07-19,合同会社トゥーマン,,合同会社,茨城県,土浦市,荒川沖東２丁目１６番２０号,,08,203,3000871,,,,,,,2022-07-19,1,,,,,トゥーマン,0
2008,8080103002622,新規,0,2022-07-19,2022-07-19,ノハナ合同会社,,合同会社,静岡県,伊豆の国市,宗光寺６７５番地の８,,22,225,4102302,,,,,,,2022-07-19,1,,,,,ノハナ,0
2012,8090001017671,新規,0,2022-07-19,2022-07-19,株式会社クマインシュレーション,,株式会社,山梨県,南都留郡富士河口湖町,船津７０６３番地１,,19,430,4010301,,,,,,,2022-07-19,1,,,,,クマインシュレーション,0
2027,8120001247372,新規,0,2022-07-19,2022-07-19,株式会社Ｋ２,,株式会社,大阪府,大阪市中央区,東心斎橋１丁目８番１１－３２０３号,,27,128,5420083,,,,,,,2022-07-19,1,,,,,ケーツー,0
2028,8120001247414,新規,0,2022-07-19,2022-07-19,株式会社Ｓｕｎｓｅｔ　Ｈａｒｂｏｒ,,株式会社,大阪府,大阪市東淀川区,瑞光５丁目１番１０号シャーメゾンブラン１０３号,,27,114,5330005,,,,,,,2022-07-19,1,,,,,サンセットハーバー,0
2029,8120003022105,新規,0,2022-07-19,2022-07-19,合同会社６８Ｂ,,合同会社,大阪府,大阪市住吉区,長居東４丁目１番１２－４０６号,,27,120,5580004,,,,,,,2022-07-19,1,,,,,ロクハチビー,0
2031,8120005023035,新規,0,2022-07-19,2022-07-19,一般社団法人デジタル人材共創連盟,,その他の設立登記法人,大阪府,大阪市住之江区,南港北２丁目１－１０ＡＴＣビルＩＴＭ棟３ＦＤ－１,,27,125,5590034,,,,,,,2022-07-19,1,,,,,デジタルジンザイキョウソウレンメイ,0
2032,8120101065939,新規,0,2022-07-19,2022-07-19,株式会社竹野計算センター,,株式会社,大阪府,泉佐野市,中町１丁目２番２８号,,27,213,5980013,,,,,,,2022-07-19,1,,,,,タケノケイサンセンター,0
2035,8120903004243,新規,0,2022-07-19,2022-07-19,ＫＣＳＥ合同会社,,合同会社,大阪府,箕面市,西小路１丁目４番２８号,,27,220,5620003,,,,,,,2022-07-19,1,,,,,ケーシーエスイ,0
2038,8122005003628,新規,0,2022-07-19,2022-07-19,医療法人西村歯科口腔外科クリニック,,その他の設立登記法人,大阪府,東大阪市,南荘町１番１７号,,27,227,5798024,,,,,,,2022-07-19,1,,,,,ニシムラシカコウクウゲカクリニック,0
2041,8130001072209,新規,0,2022-07-19,2022-07-19,株式会社ＲＥＡＤＥＸ,,株式会社,京都府,宇治市,宇治下居１１８番地１５,,26,204,6110021,,,,,,,2022-07-19,1,,,,,リーデックス,0
2056,8140001126748,新規,0,2022-07-19,2022-07-19,株式会社イノリアル,,株式会社,兵庫県,西宮市,名塩南台３丁目６番地５,,28,204,6691132,,,,,,,2022-07-19,1,,,,,イノリアル,0
2057,8140001126780,新規,0,2022-07-19,2022-07-19,Ｓｔ．Ｂｅｌｌ株式会社,,株式会社,兵庫県,神戸市東灘区,岡本１丁目８番４－５０４号,,28,101,6580072,,,,,,,2022-07-19,1,,,,,セントベル,0
2058,8140003017912,新規,0,2022-07-19,2022-07-19,合同会社となり,,合同会社,兵庫県,尼崎市,昭和通３丁目９６番,,28,202,6600881,,,,,,,2022-07-19,1,,,,,トナリ,0
2059,8140003017920,新規,0,2022-07-19,2022-07-19,ＮＥＯＮ合同会社,,合同会社,兵庫県,姫路市,四郷町山脇５８６番地,,28,201,6710248,,,,,,,2022-07-19,1,,,,,ネオン,0
2073,8180001152253,新規,0,2022-07-19,2022-07-19,株式会社坂設備,,株式会社,愛知県,東海市,富貴ノ台５丁目１番地サンハイム梓（１０２号）,,23,222,4760014,,,,,,,2022-07-19,1,,,,,バンセツビ,0
2079,8180005019853,新規,0,2022-07-19,2022-07-19,特定非営利活動法人権利擁護サポートプラザそねっと,,その他の設立登記法人,愛知県,名古屋市中区,丸の内３丁目１３番１号セプトン丸の内ビル２階熊田法律事務所内,,23,106,4600002,,,,,,,2022-07-19,1,,,,,ケンリヨウゴサポートプラザソネット,0
2086,8200003005621,新規,0,2022-07-19,2022-07-19,合同会社タカハシ,,合同会社,岐阜県,羽島市,福寿町平方３９１番地１,,21,209,5016257,,,,,,,2022-07-19,1,,,,,タカハシ,0
2093,8240001060111,新規,0,2022-07-19,2022-07-19,希譲株式会社,,株式会社,広島県,広島市南区,松原町５番２号シティタワー広島２２０６,,34,103,7320822,,,,,,,2022-07-19,1,,,,,キジョウ,0
2104,8290001098312,新規,0,2022-07-19,2022-07-19,株式会社ＫＥＩＹＡ,,株式会社,福岡県,福岡市博多区,博多駅前２丁目１９番１７号トーカン博多第５ビル３１２号室,,40,132,8120011,,,,,,,2022-07-19,1,,,,,ケイヤ,0
2105,8290001098320,新規,0,2022-07-19,2022-07-19,株式会社Ａｕｂｅ,,株式会社,福岡県,柳川市,三橋町蒲船津５０８番地１,,40,207,8320827,,,,,,,2022-07-19,1,,,,,オーブ,0
2107,8290005018753,新規,0,2022-07-19,2022-07-19,一般社団法人無名舎こどもの家,,その他の設立登記法人,福岡県,柳川市,一新町１番地５,,40,207,8320042,,,,,,,2022-07-19,1,,,,,ムメイシャコドモノイエ,0
2115,8320001019215,新規,0,2022-07-19,2022-07-19,彩樹えーる株式会社,,株式会社,大分県,大分市,新川町２丁目８番３１号ジェットタワーズベイサイド１１０１,,44,201,8700016,,,,,,,2022-07-19,1,,,,,サキエール,0
2120,8360001030713,新規,0,2022-07-19,2022-07-19,株式会社ＯｆｆｉｃｅＲｉｎ,,株式会社,沖縄県,豊見城市,字与根１９７番地テラス凛１Ｆ,,47,212,9010224,,,,,,,2022-07-19,1,,,,,オフィスリン,0
2121,8360003012180,新規,0,2022-07-19,2022-07-19,合同会社アンド,,合同会社,沖縄県,うるま市,字江洲７９４番地、１Ｆ,,47,213,9042244,,,,,,,2022-07-19,1,,,,,アンド,0
2129,8430001087036,新規,0,2022-07-19,2022-07-19,ＧＵＩＤＡ株式会社,,株式会社,北海道,札幌市白石区,中央二条１丁目６番１５号武田ビル,,01,104,0030012,,,,,,,2022-07-19,1,,,,,ガイダ,0
2136,8500001024353,新規,0,2022-07-19,2022-07-19,株式会社渡部鉄工,,株式会社,愛媛県,松山市,河野別府１０７５番地２,,38,201,7992436,,,,,,,2022-07-19,1,,,,,ワタナベテッコウ,0
2140,8700150110495,新規,0,2022-07-19,2022-06-27,舞踏舎天鷄,,その他,東京都,江東区,南砂７丁目２番６－３０８号,,13,108,1360076,,,,,,,2022-06-27,1,,,,,ブトウシヤテンケイ,0
2167,9010003038193,新規,0,2022-07-19,2022-07-19,合同会社フレックスブレーン,,合同会社,東京都,中央区,湊２丁目１５番１４号,,13,102,1040043,,,,,,,2022-07-19,1,,,,,フレックスブレーン,0
2171,9010005035271,新規,0,2022-07-19,2022-07-19,Ｃｅｐｈｅｕｓ特定目的会社,,その他の設立登記法人,東京都,千代田区,丸の内３丁目１番１号東京共同会計事務所内,,13,101,1000005,,,,,,,2022-07-19,1,,,,,ケペウス,0
2177,9010405021193,新規,0,2022-07-19,2022-07-19,一般社団法人ＳＷＥＥＴＳ＆ＢＡＫＥＲＹ規格書変換協会,,その他の設立登記法人,東京都,港区,新橋２丁目１２番５号,,13,103,1050004,,,,,,,2022-07-19,1,,,,,スイーツアンドベーカリーキカクショヘンカンキョウカイ,0
2182,9010703006292,新規,0,2022-07-19,2022-07-19,Ｖｏｌａｒｅ合同会社,,合同会社,東京都,品川区,大崎５丁目９－９－５０１,,13,109,1410032,,,,,,,2022-07-19,1,,,,,ウォラーレ,0
2183,9010703006326,新規,0,2022-07-19,2022-07-19,青葉ホールディングス合同会社,,合同会社,東京都,品川区,上大崎３丁目１番１号目黒セントラルスクエア１５階,,13,109,1410021,,,,,,,2022-07-19,1,,,,,アオバホールディングス,0
2203,9011101099581,新規,0,2022-07-19,2022-07-19,株式会社ＭＩＧＵＳＨＩ,,株式会社,東京都,新宿区,西新宿３丁目３番１３号西新宿水間ビル６階,,13,104,1600023,,,,,,,2022-07-19,1,,,,,ミグシ,0
2204,9011103011973,新規,0,2022-07-19,2022-07-19,合同会社グッドディール,,合同会社,東京都,新宿区,北新宿４丁目７－１０花月マンション３０２,,13,104,1690074,,,,,,,2022-07-19,1,,,,,グッドディール,0
2206,9011303004471,新規,0,2022-07-19,2022-07-19,合同会社ＭＩＮＨ　ＨＩＥＵ,,合同会社,東京都,杉並区,高円寺南３丁目２４番４号モンペール高円寺１０５,,13,115,1660003,,,,,,,2022-07-19,1,,,,,ミンヒュウ,0
2209,9011401024413,新規,0,2022-07-19,2022-07-19,株式会社リフトオフ・パートナー,,株式会社,東京都,板橋区,加賀２丁目３番１号・加賀ガーデンハイツ４０４,,13,119,1730003,,,,,,,2022-07-19,1,,,,,リフトオフパートナー,0
2212,9011503005229,新規,0,2022-07-19,2022-07-19,合同会社コモハマ,,合同会社,東京都,荒川区,南千住８丁目９番２－１１１３,,13,118,1160003,,,,,,,2022-07-19,1,,,,,コモハマ,0
2213,9011601026110,新規,0,2022-07-19,2022-07-19,フォーカスチュア株式会社,,株式会社,東京都,練馬区,旭町１丁目３２番１６号,,13,120,1790071,,,,,,,2022-07-19,1,,,,,フォーカスチュア,0
2215,9011701025458,新規,0,2022-07-19,2022-07-19,ＲＡＩＮ　ＦＬＯＷＥＲ株式会社,,株式会社,東京都,江戸川区,平井４丁目５番８号,,13,123,1320035,,,,,,,2022-07-19,1,,,,,レインフラワー,0
2247,9021001076556,新規,0,2022-07-19,2022-07-19,株式会社サンエー藤沢企画,,株式会社,神奈川県,藤沢市,辻堂新町１丁目１番１５号山上第２ビル３階,,14,205,2510042,,,,,,,2022-07-19,1,,,,,サンエーフジサワキカク,0
2257,9030001149206,新規,0,2022-07-19,2022-07-19,ＣＨＡＭ商事株式会社,,株式会社,埼玉県,和光市,中央２丁目６番２７号,,11,229,3510113,,,,,,,2022-07-19,1,,,,,チャムショウジ,0
2262,9030003019794,新規,0,2022-07-19,2022-07-19,ＦＯＲＴＵＮＡ合同会社,,合同会社,埼玉県,さいたま市見沼区,大字東宮下６４４番地１５,,11,104,3370012,,,,,,,2022-07-19,1,,,,,フォルトゥナ,0
2285,9100001035539,新規,0,2022-07-19,2022-07-19,株式会社ＩＶＹ　ＣＡＰＩＴＡＬ,,株式会社,長野県,北佐久郡軽井沢町,大字長倉２１４７番地１１８,,20,321,3890111,,,,,,,2022-07-19,1,,,,,アイビーキャピタル,0
2286,9100003006629,新規,0,2022-07-19,2022-07-19,合同会社エッセンシャルフード,,合同会社,長野県,諏訪郡下諏訪町,３９番地３ジャストビル３０４号室,,20,361,3930000,,,,,,,2022-07-19,1,,,,,エッセンシャルフード,0
2297,9120001247371,新規,0,2022-07-19,2022-07-19,ハートケアウィングス株式会社,,株式会社,大阪府,大阪市阿倍野区,阿倍野筋１丁目１番４３号あべのハルカス３１Ｆ,,27,119,5450052,,,,,,,2022-07-19,1,,,,,ハートケアウィングス,0
2298,9120001247405,新規,0,2022-07-19,2022-07-19,株式会社Ａ．Ｍリサイクルセンター,,株式会社,大阪府,大阪市北区,梅田２丁目５番１３号桜橋第一ビル３０４号,,27,127,5300001,,,,,,,2022-07-19,1,,,,,エーエムリサイクルセンター,0
2299,9120001247413,新規,0,2022-07-19,2022-07-19,株式会社ＴＲＹＡＮＧＬＥ,,株式会社,大阪府,大阪市北区,曾根崎新地１丁目３番３０号北新地幸田ビル４０４,,27,127,5300002,,,,,,,2022-07-19,1,,,,,トライアングル,0
2300,9120001247446,新規,0,2022-07-19,2022-07-19,株式会社創基,,株式会社,大阪府,大阪市阿倍野区,播磨町１丁目２４番１９号,,27,119,5450022,,,,,,,2022-07-19,1,,,,,ソウキ,0
2301,9120001247454,新規,0,2022-07-19,2022-07-19,株式会社協同テック,,株式会社,大阪府,大阪市西区,西本町２丁目５番１１号西本町創建ビル６０１,,27,106,5500005,,,,,,,2022-07-19,1,,,,,キョウドウテック,0
2305,9120003022054,新規,0,2022-07-19,2022-07-19,ＳＥＩＷＡ建設合同会社,,合同会社,大阪府,大阪市城東区,諏訪３丁目４番１９－９０２号,,27,118,5360021,,,,,,,2022-07-19,1,,,,,セイワケンセツ,0
2306,9120003022104,新規,0,2022-07-19,2022-07-19,合同会社Ｌｉｆｅｓｔｙｌｅ　Ｄｅｓｉｇｎ,,合同会社,大阪府,大阪市生野区,小路東２丁目３番２２号ときわマンション１階,,27,116,5440003,,,,,,,2022-07-19,1,,,,,ライフスタイルデザイン,0
2307,9120005023059,新規,0,2022-07-19,2022-07-19,一般社団法人日本ネパール人財交流協議会,,その他の設立登記法人,大阪府,大阪市西区,西本町１丁目５番２０号,,27,106,5500005,,,,,,,2022-07-19,1,,,,,ニホンネパールジンザイコウリュウキョウギカイ,0
2308,9120005023083,新規,0,2022-07-19,2022-07-19,医療法人翔志会,,その他の設立登記法人,大阪府,枚方市,中宮北町２番２２号,,27,210,5731194,,,,,,,2022-07-19,1,,,,,ショウシカイ,0
2312,9120905006360,新規,0,2022-07-19,2022-07-19,医療法人中尾眼科医院,,その他の設立登記法人,大阪府,豊中市,新千里東町１丁目４番２号千里ライフサイエンスセンタービル１４階,,27,203,5600082,,,,,,,2022-07-19,1,,,,,ナカオガンカイイン,0
2313,9122001036077,新規,0,2022-07-19,2022-07-19,オレンジワークス株式会社,,株式会社,大阪府,東大阪市,稲田上町１丁目１９番８号,,27,227,5770002,,,,,,,2022-07-19,1,,,,,オレンジワークス,0
2314,9122001036085,新規,0,2022-07-19,2022-07-19,株式会社翔,,株式会社,大阪府,東大阪市,菱屋西５丁目７－１４,,27,227,5770807,,,,,,,2022-07-19,1,,,,,ショウ,0
2333,9140001126730,新規,0,2022-07-19,2022-07-19,株式会社イトケン,,株式会社,兵庫県,西宮市,山口町船坂１１９－２,,28,204,6511423,,,,,,,2022-07-19,1,,,,,イトケン,0
2334,9140001126747,新規,0,2022-07-19,2022-07-19,株式会社リムエステート,,株式会社,兵庫県,西宮市,松籟荘５番２５号アイビーヒルズ甲東園ＩＩＩ１階,00127244,28,204,6620822,,,,,,,2022-07-19,1,,,,,リムエステート,0
2335,9140001126755,新規,0,2022-07-19,2022-07-19,株式会社ＩＳＯ　ＺＥＲＯ,,株式会社,兵庫県,神戸市北区,小倉台７丁目１５番地の５０,,28,109,6511211,,,,,,,2022-07-19,1,,,,,アイエスオーゼロ,0
2338,9150001025700,新規,0,2022-07-19,2022-07-19,夢窓口株式会社,,株式会社,奈良県,天理市,柳本町２８５０番地１,,29,204,6320052,,,,,,,2022-07-19,1,,,,,ユメマドグチ,0
2341,9160005011101,新規,0,2022-07-19,2022-07-19,一般社団法人もくせいくらぶ,,その他の設立登記法人,滋賀県,大津市,馬場１丁目４番３９号２階,,25,201,5200802,,,,,,,2022-07-19,1,,,,,モクセイクラブ,0
2346,9180001152203,新規,0,2022-07-19,2022-07-19,株式会社オウカ,,株式会社,愛知県,日進市,岩崎町小林８８番地１,,23,230,4700131,,,,,,,2022-07-19,1,,,,,オウカ,0
2347,9180001152252,新規,0,2022-07-19,2022-07-19,田村工業株式会社,,株式会社,愛知県,大府市,追分町１丁目２３１番地,,23,223,4740027,,,,,,,2022-07-19,1,,,,,タムラコウギョウ,0
2348,9180001152260,新規,0,2022-07-19,2022-07-19,株式会社ＴＨＩＮＫ,,株式会社,愛知県,名古屋市南区,元桜田町４丁目３０番地,,23,112,4570032,,,,,,,2022-07-19,1,,,,,シンク,0
2350,9180301036444,新規,0,2022-07-19,2022-07-19,株式会社ケアパワー,,株式会社,愛知県,刈谷市,泉田町城前１８３番地１,,23,210,4480004,,,,,,,2022-07-19,1,,,,,ケアパワー,0
2361,9200001040280,新規,0,2022-07-19,2022-07-19,ＭＥ環境株式会社,,株式会社,岐阜県,恵那市,明智町大田字滝下５６番地２８,,21,210,5097723,,,,,,,2022-07-19,1,,,,,エムイーカンキョウ,0
2364,9210001019002,新規,0,2022-07-19,2022-07-19,株式会社永平寺町ハンドボールまちづくり推進機構,,株式会社,福井県,吉田郡永平寺町,松岡室第２１号５番地３,,18,322,9101135,,,,,,,2022-07-19,1,,,,,エイヘイジチョウハンドボールマチヅクリスイシンキコウ,0
2365,9210001019010,新規,0,2022-07-19,2022-07-19,川上設備株式会社,,株式会社,福井県,福井市,板垣１丁目３０９番地,,18,201,9188104,,,,,,,2022-07-19,1,,,,,カワカミセツビ,0
2369,9240001060110,新規,0,2022-07-19,2022-07-19,株式会社オーワークス,,株式会社,広島県,広島市安佐南区,高取南１丁目３０番１７－２号,,34,105,7310142,,,,,,,2022-07-19,1,,,,,オーワークス,0
2372,9240005015424,新規,0,2022-07-19,2022-07-19,一般社団法人ｉｇｎｉｓ,,その他の設立登記法人,広島県,広島市中区,八丁堀３番８－１００１号,,34,101,7300013,,,,,,,2022-07-19,1,,,,,イグニス,0
2387,9290001098328,新規,0,2022-07-19,2022-07-19,クリプトオン株式会社,,株式会社,福岡県,福岡市中央区,清川１丁目９番１９号渡辺通南ビル５０３号,,40,133,8100005,,,,,,,2022-07-19,1,,,,,クリプトオン,0
2389,9290003012724,新規,0,2022-07-19,2022-07-19,合同会社ＪＯＹ,,合同会社,福岡県,福岡市早良区,百道浜２丁目９０２番地１,,40,137,8140001,,,,,,,2022-07-19,1,,,,,ジョイ,0
2390,9290003012749,新規,0,2022-07-19,2022-07-19,Ｍｏｎｓｔｅｒａ合同会社,,合同会社,福岡県,福岡市博多区,博多駅前３丁目１９－１８－９０１,,40,132,8120011,,,,,,,2022-07-19,1,,,,,モンステラ,0
2405,9330003009451,新規,0,2022-07-19,2022-07-19,合同会社フェイク,,合同会社,熊本県,熊本市東区,二丁目１９番１１－６０８号,,43,102,8610000,,,,,,,2022-07-19,1,,,,,フェイク,0
2411,9340003003858,新規,0,2022-07-19,2022-07-19,ＡＭＭ合同会社,,合同会社,鹿児島県,奄美市,笠利町大字里１２番地,,46,222,8940511,,,,,,,2022-07-19,1,,,,,,0
2413,9360001030712,新規,0,2022-07-19,2022-07-19,株式会社ＴＥＮＰＯ,,株式会社,沖縄県,那覇市,安里２丁目４番３号ＲＪビルディング,,47,201,9020067,,,,,,,2022-07-19,1,,,,,テンポ,0
2414,9360003012171,新規,0,2022-07-19,2022-07-19,合同会社ハンサムボーイ,,合同会社,沖縄県,那覇市,牧志３丁目８番３０号国場陶芸ビル２号館１階,,47,201,9000013,,,,,,,2022-07-19,1,,,,,,0
2416,9370001048761,新規,0,2022-07-19,2022-07-19,株式会社シライシコーポレーション,,株式会社,宮城県,仙台市泉区,泉中央３丁目３６番地の６ＳＨＤビル３Ｆ,,04,105,9813133,,,,,,,2022-07-19,1,,,,,シライシコーポレーション,0
2423,9420003002546,新規,0,2022-07-19,2022-07-19,エム・キューブ合同会社,,合同会社,青森県,東津軽郡外ヶ浜町,字平舘門の沢７３番地,,02,307,0301402,,,,,,,2022-07-19,1,,,,,エムキューブ,0
2429,9430001087035,新規,0,2022-07-19,2022-07-19,株式会社造人,,株式会社,北海道,札幌市白石区,北郷五条７丁目２番３号,,01,104,0030835,,,,,,,2022-07-19,1,,,,,ゾウジン,0
2430,9430001087142,新規,0,2022-07-19,2022-07-19,株式会社美食,,株式会社,北海道,札幌市東区,北三十一条東１丁目３番８号,,01,103,0650031,,,,,,,2022-07-19,1,,,,,ビショク,0
2436,9450001013749,新規,0,2022-07-19,2022-07-19,Ｒａｍｐｓ株式会社,,株式会社,北海道,上川郡東川町,東町１丁目７番１８号,,01,458,0711423,,,,,,,2022-07-19,1,,,,,ランプス,0
2441,9500001024352,新規,0,2022-07-19,2022-07-19,株式会社４８８,,株式会社,愛媛県,松山市,天山３丁目１１番１０号アトムマンション天山１０１号,,38,201,7900951,,,,,,,2022-07-19,1,,,,,ヨンハチハチ,0
2442,9700150110668,新規,0,2022-07-19,2022-07-01,前田青邨展実行委員会,,その他,岐阜県,岐阜市,宇佐４丁目１－２２,,21,201,5008368,,,,,,,2022-07-01,1,,,,,マエダセイソンテンジツコウイインカイ,0
