sequenceNumber,corporateNumber,process,correct,updateDate,changeDate,name,nameImageId,kind,prefectureName,cityName,streetNumber,addressImageId,prefectureCode,cityCode,postCode,addressOutside,addressOutsideImageId,closeDate,closeCause,successorCorporateNumber,changeCause,assignmentDate,latest,enName,enPrefectureName,enCityName,enAddressOutside,furigana,hihyoji
12,1010001261309,新規,0,2026-01-05,2026-01-05,ＭＵＳＥＮ株式会社,,株式会社,東京都,中央区,銀座６丁目１３番１６号銀座ＷａｌｌビルＵＣＦ５０１,,13,102,1040061,,,,,,,2026-01-05,1,,,,,ムセン,0
13,1010001261507,新規,0,2026-01-05,2026-01-05,株式会社日本たまご総研,,株式会社,東京都,文京区,本駒込５丁目７２番１号ファインライフ本駒込１０１－１,,13,105,1130021,,,,,,,2026-01-05,1,,,,,ニホンタマゴソウケン,0
14,1010001261548,新規,0,2026-01-05,2026-01-05,シー・シックス・ナイン株式会社,,株式会社,東京都,千代田区,丸の内２丁目４番１号,,13,101,1000005,,,,,,,2026-01-05,1,,,,,シーシックスナイン,0
15,1010001261572,新規,0,2026-01-05,2026-01-05,ＭＴＮアセットマネジメント株式会社,,株式会社,東京都,文京区,白山４丁目１３番５号,,13,105,1120001,,,,,,,2026-01-05,1,,,,,エムティーエヌアセットマネジメント,0
18,1010003049685,新規,0,2026-01-05,2026-01-05,ＴＯＭＩＨＡＭＡ合同会社,,合同会社,東京都,千代田区,神田和泉町１番地６－１６ヤマトビル４０５,,13,101,1010024,,,,,,,2026-01-05,1,,,,,トミハマ,0
33,1010601068483,新規,0,2026-01-05,2026-01-05,株式会社リーフ,,株式会社,東京都,江東区,新砂３丁目４－３５－５２３,,13,108,1360075,,,,,,,2026-01-05,1,,,,,リーフ,0
34,1010703008057,新規,0,2026-01-05,2026-01-05,合同会社フリーマル,,合同会社,東京都,品川区,大井４丁目２５－１８,,13,109,1400014,,,,,,,2026-01-05,1,,,,,フリーマル,0
37,1010803005656,新規,0,2026-01-05,2026-01-05,ＷＡＴＡＲＵ合同会社,,合同会社,東京都,大田区,田園調布本町２７―１２,,13,111,1450072,,,,,,,2026-01-05,1,,,,,ワタル,0
41,1011001174343,新規,0,2026-01-05,2026-01-05,株式会社ヨノラボ,,株式会社,東京都,渋谷区,広尾１丁目２番地１号ヒカリビル４階,,13,113,1500012,,,,,,,2026-01-05,1,,,,,ヨノラボ,0
42,1011001174533,新規,0,2026-01-05,2026-01-05,株式会社ヨハヨハク,,株式会社,東京都,目黒区,下目黒１丁目１番１４号コノトラビル７Ｆ,,13,110,1530064,,,,,,,2026-01-05,1,,,,,ヨハヨハク,0
47,1011101114439,新規,0,2026-01-05,2026-01-05,株式会社ジェイ・ケイ・キュー,,株式会社,東京都,新宿区,下宮比町１番４号,,13,104,1620822,,,,,,,2026-01-05,1,,,,,ジェイケイキュー,0
49,1011105011681,新規,0,2026-01-05,2026-01-05,一般社団法人多文化共生推進機構,,その他の設立登記法人,東京都,新宿区,北新宿３丁目２０番１－８０４号,,13,104,1690074,,,,,,,2026-01-05,1,,,,,タブンカキョウセイスイシンキコウ,0
53,1011505002719,新規,0,2026-01-05,2026-01-05,一般社団法人全国公営競馬獣医師協会,,その他の設立登記法人,東京都,荒川区,西日暮里２丁目３７番地２２－２０３号,,13,118,1160013,,,,,,,2026-01-05,1,,,,,ゼンコクコウエイケイバジュウイシキョウカイ,0
64,1020001166366,新規,0,2026-01-05,2026-01-05,株式会社Ｔａｕｓｅｎｄ　Ｚｕｓａｍｍｅｎ　Ａｋｔｉｅｎｇｅｓｅｌｌｓｃｈａｆｔ,,株式会社,神奈川県,横浜市港南区,下永谷３丁目１７番１１号,,14,111,2330016,,,,,,,2026-01-05,1,,,,,タォゼントツザメンアクツィエンゲゼルシャフト,0
65,1020001166408,新規,0,2026-01-05,2026-01-05,株式会社ＰＥＴＳ　ＵＮＩＴ,,株式会社,神奈川県,川崎市多摩区,登戸２５７６－１ノイエスト１０１,,14,135,2140014,,,,,,,2026-01-05,1,,,,,ペッツユニット,0
66,1020001166440,新規,0,2026-01-05,2026-01-05,株式会社パーフェテック,,株式会社,神奈川県,横浜市中区,宮川町３丁目９１番地１エクレール横浜一番館６０４号室,,14,104,2310065,,,,,,,2026-01-05,1,,,,,パーフェテック,0
67,1020001166465,新規,0,2026-01-05,2026-01-05,アイ・エス株式会社,,株式会社,神奈川県,横浜市戸塚区,下倉田町１８２３番地５,,14,110,2440815,,,,,,,2026-01-05,1,,,,,アイエス,0
77,1030001170350,新規,0,2026-01-05,2026-01-05,株式会社ＱＲＥＶＡ,,株式会社,埼玉県,上尾市,小泉８丁目１７番地１９,,11,219,3620063,,,,,,,2026-01-05,1,,,,,クレヴァ,0
78,1030001170367,新規,0,2026-01-05,2026-01-05,株式会社ときのねラボ,,株式会社,埼玉県,川越市,大字山田１７４６番地１,,11,201,3500822,,,,,,,2026-01-05,1,,,,,トキノネラボ,0
80,1030003028357,新規,0,2026-01-05,2026-01-05,Ｃｈｌｏｒｏｐｈｙｌｌ　Ｌｏｇｉｓｔｉｃｓ合同会社,,合同会社,埼玉県,秩父市,寺尾２３０７番地,,11,207,3680056,,,,,,,2026-01-05,1,,,,,クロロフィルロジスティックス,0
86,1040001141953,新規,0,2026-01-05,2026-01-05,株式会社Ｄ．Ｉ．ＲＥＶ,,株式会社,千葉県,千葉市中央区,宮崎１丁目１７番２２号,,12,101,2600806,,,,,,,2026-01-05,1,,,,,ディーアイレボ,0
92,1040003029230,新規,0,2026-01-05,2026-01-05,ＳＨＩＮＥ　ＣＡＲＥ合同会社,,合同会社,千葉県,市原市,ちはら台東１丁目１９番地２７,,12,219,2900141,,,,,,,2026-01-05,1,,,,,シャインケア,0
113,1120001283028,新規,0,2026-01-05,2026-01-05,株式会社Ｄｅｎｓｈｉｎｅ,,株式会社,大阪府,大阪市北区,梅田１丁目２番２号大阪駅前第２ビル１２－１２,,27,127,5300001,,,,,,,2026-01-05,1,,,,,デンシャイン,0
114,1120001283052,新規,0,2026-01-05,2026-01-05,株式会社テラウェル,,株式会社,大阪府,大阪市西区,江戸堀１丁目１０番２７号,,27,106,5500002,,,,,,,2026-01-05,1,,,,,テラウェル,0
115,1120001283102,新規,0,2026-01-05,2026-01-05,日本麦吉コミュニケーション株式会社,,株式会社,大阪府,大阪市港区,三先１丁目１２番９号,,27,107,5520016,,,,,,,2026-01-05,1,,,,,ニホンムギヨシコミュニケーション,0
116,1120001283110,新規,0,2026-01-05,2026-01-05,株式会社ＡＮ,,株式会社,大阪府,大阪市中央区,淡路町２丁目６－１０,,27,128,5410047,,,,,,,2026-01-05,1,,,,,アン,0
117,1120001283127,新規,0,2026-01-05,2026-01-05,株式会社ＡＲＩＳ　ＧＵＩＬＤ,,株式会社,大阪府,大阪市中央区,本町４丁目２番１２号野村不動産御堂筋本町ビル９Ｆ,,27,128,5410053,,,,,,,2026-01-05,1,,,,,アーリスギルド,0
119,1120003031599,新規,0,2026-01-05,2026-01-05,雷一門合同会社,,合同会社,大阪府,大阪市西成区,中開２丁目２－２３,,27,122,5570022,,,,,,,2026-01-05,1,,,,,カミナリイチモン,0
121,1120101073015,新規,0,2026-01-05,2026-01-05,株式会社電通社サービス,,株式会社,大阪府,堺市美原区,青南台１丁目６番２５号,,27,147,5870043,,,,,,,2026-01-05,1,,,,,デンツウシャサービス,0
127,1130001081315,新規,0,2026-01-05,2026-01-05,ニューウェイ株式会社,,株式会社,京都府,京都市下京区,麩屋町通五条上る下鱗形町５３４番１－２０１,,26,106,6008059,,,,,,,2026-01-05,1,,,,,ニューウェイ,0
131,1140001141225,新規,0,2026-01-05,2026-01-05,株式会社ＹＯＵＭＥ,,株式会社,兵庫県,神戸市西区,学園西町１丁目５番地東館１階,,28,111,6512103,,,,,,,2026-01-05,1,,,,,ユメ,0
133,1170001018932,新規,0,2026-01-05,2026-01-05,株式会社フルアシスト,,株式会社,和歌山県,紀の川市,貴志川町岸宮１５番地７,,30,208,6400405,,,,,,,2026-01-05,1,,,,,フルアシスト,0
138,1180001170055,新規,0,2026-01-05,2026-01-05,三和盛国際株式会社,,株式会社,愛知県,愛西市,諏訪町郷浦６４番３－１Ｆ－０３,,23,232,4968011,,,,,,,2026-01-05,1,,,,,ミワサイコクサイ,0
146,1180003029563,新規,0,2026-01-05,2026-01-05,シュクレ清州合同会社,,合同会社,愛知県,清須市,新清洲１丁目５‐１新清洲マンション１Ｆ,,23,233,4520943,,,,,,,2026-01-05,1,,,,,シュクレキヨス,0
150,1180301040552,新規,0,2026-01-05,2026-01-05,ＺＡＶＡＬＡ　ＴＲＡＩＤＩＮＧ株式会社,,株式会社,愛知県,碧南市,池下町２丁目２４番地２,,23,209,4470023,,,,,,,2026-01-05,1,,,,,サバラトレーディング,0
153,1200001044561,新規,0,2026-01-05,2026-01-05,株式会社Ｍｏｔｒｉｓ,,株式会社,岐阜県,岐阜市,北一色３丁目１１番１７号,,21,201,5008227,,,,,,,2026-01-05,1,,,,,モトリス,0
158,1220001027093,新規,0,2026-01-05,2026-01-05,株式会社ネクストホープ,,株式会社,石川県,能美市,下ノ江町イ２５１番地５,,17,211,9290115,,,,,,,2026-01-05,1,,,,,ネクストホープ,0
161,1240001065991,新規,0,2026-01-05,2026-01-05,株式会社ＫＩＬＩＧ　ＬＡＢＯ,,株式会社,広島県,広島市西区,南観音７丁目１番３号,,34,104,7330035,,,,,,,2026-01-05,1,,,,,キリグラボ,0
167,1260001040852,新規,0,2026-01-05,2026-01-05,株式会社ブルースケッチ,,株式会社,岡山県,岡山市北区,表町３丁目２１番１５号,,33,101,7000822,,,,,,,2026-01-05,1,,,,,ブルースケッチ,0
174,1290001112599,新規,0,2026-01-05,2026-01-05,株式会社グレースデザイン,,株式会社,福岡県,福岡市中央区,天神５丁目５番８号,,40,133,8100001,,,,,,,2026-01-05,1,,,,,グレースデザイン,0
175,1290001112624,新規,0,2026-01-05,2026-01-05,株式会社Ｏ２,,株式会社,福岡県,福岡市博多区,千代４丁目２９番４４号,,40,132,8120044,,,,,,,2026-01-05,1,,,,,オーツー,0
176,1290001112632,新規,0,2026-01-05,2026-01-05,バンカーランプ株式会社,,株式会社,福岡県,うきは市,吉井町９６６番地１７,,40,225,8391321,,,,,,,2026-01-05,1,,,,,バンカーランプ,0
181,1290801032138,新規,0,2026-01-05,2026-01-05,株式会社エージーアクト,,株式会社,福岡県,北九州市小倉北区,浅野１丁目２番３９号クルーズ浅野ビル６０２,,40,106,8020001,,,,,,,2026-01-05,1,,,,,エージーアクト,0
184,1300001014455,新規,0,2026-01-05,2026-01-05,株式会社ＢＵＲＳＴ,,株式会社,佐賀県,神埼市,神埼町的３９番地１,,41,210,8420123,,,,,,,2026-01-05,1,,,,,バースト,0
187,1330003011365,新規,0,2026-01-05,2026-01-05,合同会社リアン,,合同会社,熊本県,熊本市北区,麻生田４丁目７番１７号,,43,105,8618081,,,,,,,2026-01-05,1,,,,,リアン,0
188,1330003011373,新規,0,2026-01-05,2026-01-05,合同会社ふく家,,合同会社,熊本県,葦北郡津奈木町,大字福浜４４６０番地２,,43,484,8695605,,,,,,,2026-01-05,1,,,,,フクヤ,0
189,1340001027866,新規,0,2026-01-05,2026-01-05,ＴＵＮＡＧＵ株式会社,,株式会社,鹿児島県,奄美市,名瀬浜里町８６番地,,46,222,8940044,,,,,,,2026-01-05,1,,,,,ツナグ,0
195,1350003005101,新規,0,2026-01-05,2026-01-05,合同会社トモヤン,,合同会社,宮崎県,日向市,大字財光寺１８６番地４４号,,45,206,8830021,,,,,,,2026-01-05,1,,,,,トモヤン,0
197,1360003015520,新規,0,2026-01-05,2026-01-05,Ｇｏｏｄ　Ｌｉｆｅ合同会社,,合同会社,沖縄県,浦添市,字大平３７２番地１エスポワール４－Ａ,,47,208,9012113,,,,,,,2026-01-05,1,,,,,グッドライフ,0
198,1360003015529,新規,0,2026-01-05,2026-01-05,Ｍｅｌｉｓｓａ　Ｄｕｓｏ合同会社,,合同会社,沖縄県,沖縄市,与儀２丁目１７番１９号Ｐ－７２,,47,211,9042174,,,,,,,2026-01-05,1,,,,,メリサドウゾ,0
199,1360005007342,新規,0,2026-01-05,2026-01-05,一般社団法人ＧＴチャレンジカップ,,その他の設立登記法人,沖縄県,国頭郡本部町,字健堅１１４３番地,,47,308,9050226,,,,,,,2026-01-05,1,,,,,ジーティーチャレンジカップ,0
204,1430001095953,新規,0,2026-01-05,2026-01-05,株式会社ＮＥＯＲＩＳ,,株式会社,北海道,札幌市東区,北三十六条東１４丁目２番１２－１１０３号,,01,103,0070836,,,,,,,2026-01-05,1,,,,,ネオリス,0
207,1460001006057,新規,0,2026-01-05,2026-01-05,株式会社倉本新聞販売所,,株式会社,北海道,川上郡弟子屈町,朝日１丁目５番２号,,01,665,0883204,,,,,,,2026-01-05,1,,,,,クラモトシンブンハンバイジョ,0
211,1470003003043,新規,0,2026-01-05,2026-01-05,ＨＡＲＥ合同会社,,合同会社,香川県,東かがわ市,湊２８４番地１,,37,207,7692701,,,,,,,2026-01-05,1,,,,,,0
212,1500001026694,新規,0,2026-01-05,2026-01-05,株式会社Ｋ．Ｓ　Ｕｎｉｑｕｅ,,株式会社,愛媛県,伊予郡松前町,大字鶴吉６５７番地１,,38,401,7913155,,,,,,,2026-01-05,1,,,,,ケーエスユニーク,0
216,1700150133825,新規,0,2026-01-05,2026-01-05,五八悪水土地改良区,,その他,愛知県,津島市,西柳原町１丁目１４,,23,208,4960047,,,,,,,2026-01-05,1,,,,,ゴハチアクスイトチカイリョウク,0
226,2010001261299,新規,0,2026-01-05,2026-01-05,株式会社Ｒｅｌｅｃｔｉｏｎ　Ｄｅｓｉｇｎ,,株式会社,東京都,千代田区,永田町２丁目１０番２号,,13,101,1000014,,,,,,,2026-01-05,1,,,,,リレクションデザイン,0
227,2010001261506,新規,0,2026-01-05,2026-01-05,誇我志工業株式会社,,株式会社,東京都,千代田区,神田和泉町１番地６－１６ヤマトビル４０５,,13,101,1010024,,,,,,,2026-01-05,1,,,,,コワシコウギョウ,0
228,2010001261588,新規,0,2026-01-05,2026-01-05,ＩＵＴＹ　Ｇｒｏｕｐ株式会社,,株式会社,東京都,中央区,銀座５丁目１０番１０号,,13,102,1040061,,,,,,,2026-01-05,1,,,,,イウティグループ,0
230,2010003049866,新規,0,2026-01-05,2026-01-05,合同会社アナスターシス,,合同会社,東京都,千代田区,丸の内１丁目４番１号東京共同会計事務所内,,13,101,1000005,,,,,,,2026-01-05,1,,,,,アナスターシス,0
231,2010005041136,新規,0,2026-01-05,2026-01-05,ＡＳＭ６一般社団法人,,その他の設立登記法人,東京都,中央区,日本橋１丁目４番１号日本橋一丁目ビルディング,,13,102,1030027,,,,,,,2026-01-05,1,,,,,エイエスエムシックス,0
244,2010401195320,新規,0,2026-01-05,2026-01-05,株式会社Ｃｏｇｎｉｔｉｖｅ　Ｎｏｘｉａ,,株式会社,東京都,港区,六本木３丁目１６番１２号六本木ＫＳビル５階,,13,103,1060032,,,,,,,2026-01-05,1,,,,,コグニティブノクシア,0
245,2010401195436,新規,0,2026-01-05,2026-01-05,株式会社フォースフル,,株式会社,東京都,港区,六本木７丁目７番７号,,13,103,1060032,,,,,,,2026-01-05,1,,,,,フォースフル,0
246,2010401195519,新規,0,2026-01-05,2026-01-05,拓迪化学株式会社,,株式会社,東京都,港区,元赤坂１丁目２番７号赤坂Ｋタワー,,13,103,1070051,,,,,,,2026-01-05,1,,,,,タクディカガク,0
249,2010403036902,新規,0,2026-01-05,2026-01-05,合同会社コンパス・オフィス,,合同会社,東京都,港区,芝浦４丁目２２番１－４６０１号,,13,103,1080023,,,,,,,2026-01-05,1,,,,,コンパスオフィス,0
250,2010403036919,新規,0,2026-01-05,2026-01-05,合同会社ＣＳホールディングス,,合同会社,東京都,港区,虎ノ門３丁目２２番１０－２０１号,,13,103,1050001,,,,,,,2026-01-05,1,,,,,シーエスホールディングス,0
251,2010403036976,新規,0,2026-01-05,2026-01-05,ＹＭＪ合同会社,,合同会社,東京都,港区,南青山３丁目１番３６号青山丸竹ビル６Ｆ,,13,103,1070062,,,,,,,2026-01-05,1,,,,,ワイエムジェイ,0
253,2010601068508,新規,0,2026-01-05,2026-01-05,クリアヴェール株式会社,,株式会社,東京都,墨田区,業平１丁目７番９号ＰＬＡＴ２９５,,13,107,1300002,,,,,,,2026-01-05,1,,,,,クリアヴェール,0
255,2010803005647,新規,0,2026-01-05,2026-01-05,合同会社ＴＡＳＵＫＵＭＩＲＡＩ,,合同会社,東京都,大田区,鵜の木２丁目２９番６－５０４号,,13,111,1460091,,,,,,,2026-01-05,1,,,,,タスクミライ,0
256,2010901058729,新規,0,2026-01-05,2026-01-05,株式会社Ｆｉｎｉｓｈ　Ｍｏｖｅ,,株式会社,東京都,世田谷区,砧３丁目５番２号,,13,112,1570073,,,,,,,2026-01-05,1,,,,,フィニッシュムーブ,0
260,2011001174532,新規,0,2026-01-05,2026-01-05,モノクロ株式会社,,株式会社,東京都,渋谷区,笹塚３丁目４１番１２号,,13,113,1510073,,,,,,,2026-01-05,1,,,,,モノクロ,0
261,2011003023209,新規,0,2026-01-05,2026-01-05,ＰＡＧＩＮＡＴＩＯＮ合同会社,,合同会社,東京都,渋谷区,道玄坂１丁目１０番８号渋谷道玄坂東急ビル２Ｆ－Ｃ,,13,113,1500043,,,,,,,2026-01-05,1,,,,,ページネーション,0
262,2011005011310,新規,0,2026-01-05,2026-01-05,社会保険労務士法人Ｗｏｒｋｆｏｒｃｅ　Ｉｎｉｔｉａｔｉｖｅ,,その他の設立登記法人,東京都,渋谷区,道玄坂１丁目１２－１渋谷マークシティ２２階,,13,113,1500043,,,,,,,2026-01-05,1,,,,,,0
270,2011601029284,新規,0,2026-01-05,2026-01-05,株式会社ＺＥＲＯ,,株式会社,東京都,練馬区,貫井４丁目４７番４９号６０１号室,,13,120,1760021,,,,,,,2026-01-05,1,,,,,ゼロ,0
276,2012403007536,新規,0,2026-01-05,2026-01-05,合同会社未来斗,,合同会社,東京都,三鷹市,上連雀６丁目２４‐２５‐４０１,,13,204,1810012,,,,,,,2026-01-05,1,,,,,ミライト,0
281,2012801024447,新規,0,2026-01-05,2026-01-05,切れ味長持ち研究所株式会社,,株式会社,東京都,東大和市,桜が丘１丁目１４２９番地の３東京ユニオンガーデンＢ－６１３,,13,220,2070022,,,,,,,2026-01-05,1,,,,,キレアジナガモチケンキュウジョ,0
282,2013101009898,新規,0,2026-01-05,2026-01-05,株式会社アルピノーズ,,株式会社,東京都,福生市,大字熊川８２３番地１,,13,218,1970003,,,,,,,2026-01-05,1,,,,,アルピノーズ,0
295,2020001166431,新規,0,2026-01-05,2026-01-05,ＹＡＤＡＣＯＶＥ　ＪＡＰＡＮ株式会社,,株式会社,神奈川県,川崎市中原区,市ノ坪５８１番地１市ノ坪住宅２２１,,14,133,2110016,,,,,,,2026-01-05,1,,,,,ヤダコヴジャパン,0
296,2020003030073,新規,0,2026-01-05,2026-01-05,ＦＡＲ　ＥＡＳＴ合同会社,,合同会社,神奈川県,横浜市戸塚区,南舞岡１丁目２２番２０号,,14,110,2440814,,,,,,,2026-01-05,1,,,,,ファーイースト,0
298,2020005017102,新規,0,2026-01-05,2026-01-05,医療法人社団Ｇｒｅｅｎ　Ｒｏｓｅ,,その他の設立登記法人,神奈川県,横浜市保土ケ谷区,川辺町３番地５イオン天王町ショッピングセンター３階,,14,106,2400001,,,,,,,2026-01-05,1,,,,,グリーンローズ,0
306,2030001170390,新規,0,2026-01-05,2026-01-05,株式会社Ｆ．ＰＲＯＪＥＣＴ,,株式会社,埼玉県,坂戸市,末広町６番地１９,,11,239,3500272,,,,,,,2026-01-05,1,,,,,エフドットプロジェクト,0
312,2030003028265,新規,0,2026-01-05,2026-01-05,磐特グローバルトレーディング合同会社,,合同会社,埼玉県,吉川市,大字川藤６６９,,11,243,3420005,,,,,,,2026-01-05,1,,,,,バントクグローバルトレーディング,0
321,2040001142034,新規,0,2026-01-05,2026-01-05,ＳＳ　Ｍａｒｋｅｔｉｎｇ株式会社,,株式会社,千葉県,船橋市,金杉８丁目９番２５号チュリス船橋金杉８１０号室,,12,204,2730853,,,,,,,2026-01-05,1,,,,,エスエスマーケティング,0
324,2040003029246,新規,0,2026-01-05,2026-01-05,合同会社Ｓｔｙｌｏ　Ｃｏｎｓｕｌｔｉｎｇ,,合同会社,千葉県,千葉市美浜区,若葉３丁目１―１幕張ベイパークスカイグランドタワー２６１３,,12,106,2610014,,,,,,,2026-01-05,1,,,,,スタイロコンサルティング,0
326,2040005022950,新規,0,2026-01-05,2026-01-05,一般社団法人のろし,,その他の設立登記法人,千葉県,市原市,西野２７３番地３,,12,219,2900261,,,,,,,2026-01-05,1,,,,,ノロシ,0
335,2060003005906,新規,0,2026-01-05,2026-01-05,合同会社ｌａ　ｃａｊｉｔａ,,合同会社,栃木県,宇都宮市,上横田町１４９４番地８,,09,201,3210106,,,,,,,2026-01-05,1,,,,,ラカヒータ,0
336,2070001043691,新規,0,2026-01-05,2026-01-05,ＬＯＵＩＳ株式会社,,株式会社,群馬県,高崎市,緑町１丁目２３番地８円ビル１Ｆ,,10,202,3700073,,,,,,,2026-01-05,1,,,,,ルイス,0
337,2070003006242,新規,0,2026-01-05,2026-01-05,合同会社ＫＥＮＭＩＫＩ　ＭＯＴＯＲＳ,,合同会社,群馬県,太田市,岩瀬川町５５５番地１０,,10,205,3730841,,,,,,,2026-01-05,1,,,,,,0
346,2090001019673,新規,0,2026-01-05,2026-01-05,マーキット株式会社,,株式会社,山梨県,甲府市,小瀬町５５１番地２,,19,201,4000836,,,,,,,2026-01-05,1,,,,,マーキット,0
350,2100001039224,新規,0,2026-01-05,2026-01-05,株式会社フラワーズハピネス,,株式会社,長野県,下伊那郡松川町,上片桐３１８８番地,,20,402,3993301,,,,,,,2026-01-05,1,,,,,フラワーズハピネス,0
351,2100001039232,新規,0,2026-01-05,2026-01-05,株式会社アルファ・ゴリラ,,株式会社,長野県,上伊那郡飯島町,七久保２４８５－６,,20,384,3993705,,,,,,,2026-01-05,1,,,,,アルファゴリラ,0
352,2100003008540,新規,0,2026-01-05,2026-01-05,合同会社おどるひつじ,,合同会社,長野県,大町市,大町４２０９番地１,,20,212,3980002,,,,,,,2026-01-05,1,,,,,オドルヒツジ,0
355,2110003006015,新規,0,2026-01-05,2026-01-05,上越会計合同会社,,合同会社,新潟県,上越市,中央１丁目２７番１１号,,15,222,9420001,,,,,,,2026-01-05,1,,,,,ジョウエツカイケイ,0
363,2120001282607,新規,0,2026-01-05,2026-01-05,株式会社同志,,株式会社,大阪府,大阪市北区,梅田１丁目１－３大阪駅前第３ビル２９階１－１－１号室,,27,127,5300001,,,,,,,2026-01-05,1,,,,,ドウシ,0
371,2120101073014,新規,0,2026-01-05,2026-01-05,株式会社ＫＯＭＩＺＯ,,株式会社,大阪府,堺市南区,豊田１６４９,,27,145,5900106,,,,,,,2026-01-05,1,,,,,コミゾ,0
372,2120105010095,新規,0,2026-01-05,2026-01-05,一般社団法人大阪南鍼灸マッサージ師会,,その他の設立登記法人,大阪府,泉佐野市,長滝７９１－３,,27,213,5980034,,,,,,,2026-01-05,1,,,,,オオサカミナミシンキュウマッサージシカイ,0
376,2130001081306,新規,0,2026-01-05,2026-01-05,株式会社カノライド,,株式会社,京都府,京都市南区,久世築山町２０２番地,,26,107,6018203,,,,,,,2026-01-05,1,,,,,カノライド,0
382,2140001141224,新規,0,2026-01-05,2026-01-05,株式会社Ｏｓ,,株式会社,兵庫県,神戸市東灘区,本山中町４丁目１６－２３－３０１,,28,101,6580016,,,,,,,2026-01-05,1,,,,,オーズ,0
383,2140001141232,新規,0,2026-01-05,2026-01-05,Ｌｃａｐｉｔａｌ株式会社,,株式会社,兵庫県,尼崎市,七松町３丁目８番２３号レジーナコート７Ｆ－０２,,28,202,6600052,,,,,,,2026-01-05,1,,,,,エルキャピタル,0
384,2140001141240,新規,0,2026-01-05,2026-01-05,株式会社ＭＡメディカル,,株式会社,兵庫県,宝塚市,仁川北２丁目９番７２号,,28,214,6650061,,,,,,,2026-01-05,1,,,,,エムエイメディカル,0
387,2170001018931,新規,0,2026-01-05,2026-01-05,株式会社ＴＫＧ,,株式会社,和歌山県,和歌山市,鳴神７０６番地４,,30,201,6408303,,,,,,,2026-01-05,1,,,,,ティーケージー,0
388,2170005007179,新規,0,2026-01-05,2026-01-05,一般社団法人わかやまＣｉｔｙ　Ｃｌｕｂ,,その他の設立登記法人,和歌山県,和歌山市,新八百屋丁１７番地,,30,201,6408371,,,,,,,2026-01-05,1,,,,,ワカヤマシティクラブ,0
394,2180001170054,新規,0,2026-01-05,2026-01-05,株式会社ネオリーフ,,株式会社,愛知県,名古屋市中村区,椿町１７番地１６号丸元ビル,,23,105,4530015,,,,,,,2026-01-05,1,,,,,ネオリーフ,0
400,2180003029554,新規,0,2026-01-05,2026-01-05,合同会社ケイエスユー,,合同会社,愛知県,名古屋市中村区,名駅４丁目２４番５号第２森ビル４０１,,23,105,4500002,,,,,,,2026-01-05,1,,,,,ケイエスユー,0
401,2180003029562,新規,0,2026-01-05,2026-01-05,合同会社福真,,合同会社,愛知県,名古屋市中区,丸の内１丁目７番１９－１３０３号,,23,106,4600002,,,,,,,2026-01-05,1,,,,,フクシン,0
408,2200001044560,新規,0,2026-01-05,2026-01-05,株式会社ＫＡＷＡＨＡＳＨＩ,,株式会社,岐阜県,高山市,本町３丁目５５番地,,21,203,5060011,,,,,,,2026-01-05,1,,,,,カワハシ,0
412,2210003001988,新規,0,2026-01-05,2026-01-05,合同会社ｐｒｕｎｅｌｌｅ,,合同会社,福井県,福井市,日之出５丁目９番１０号黒川マンション１０２,,18,201,9100859,,,,,,,2026-01-05,1,,,,,プリュネル,0
415,2220001027092,新規,0,2026-01-05,2026-01-05,株式会社下出電気設備,,株式会社,石川県,加賀市,山代温泉４０の１９番地１サンパレス山代Ｉ１０４号室,00142031,17,206,9220242,,,,,,,2026-01-05,1,,,,,シモデデンキセツビ,0
424,2290001112623,新規,0,2026-01-05,2026-01-05,株式会社トライデクス,,株式会社,福岡県,福岡市東区,松島１丁目４７番１３号,,40,131,8120062,,,,,,,2026-01-05,1,,,,,トライデクス,0
425,2290003017886,新規,0,2026-01-05,2026-01-05,合同会社彌千,,合同会社,福岡県,大野城市,平野台４丁目２１－１,,40,219,8160972,,,,,,,2026-01-05,1,,,,,ミチ,0
432,2320001021507,新規,0,2026-01-05,2026-01-05,株式会社ｎｏｖｅｌ　ｃｒｅａｔｅ大分,,株式会社,大分県,大分市,大字田尻９０番地１,,44,201,8701143,,,,,,,2026-01-05,1,,,,,ノベルクリエイトオオイタ,0
434,2330003011372,新規,0,2026-01-05,2026-01-05,合同会社和会計,,合同会社,熊本県,熊本市中央区,出水６丁目２１番５号,,43,101,8620941,,,,,,,2026-01-05,1,,,,,ナゴミカイケイ,0
437,2360003015503,新規,0,2026-01-05,2026-01-05,合同会社ＹＤ,,合同会社,沖縄県,宮古島市,平良字下里３１０７番地８９８,,47,214,9060013,,,,,,,2026-01-05,1,,,,,ワイディ,0
440,2370001053330,新規,0,2026-01-05,2026-01-05,亘理ＩＴサービス株式会社,,株式会社,宮城県,亘理郡亘理町,字油田１０４番地３,,04,361,9892351,,,,,,,2026-01-05,1,,,,,ワタリアイティサービス,0
441,2370001053347,新規,0,2026-01-05,2026-01-05,株式会社Ｙ‐Ｂｌｏｏｍ,,株式会社,宮城県,仙台市青葉区,一番町１丁目９番２－１９０８号,,04,101,9800811,,,,,,,2026-01-05,1,,,,,ワイブルーム,0
442,2370003007433,新規,0,2026-01-05,2026-01-05,Ｍａｇｎｏｌｉａ　Ｃｒｅａｔｅ合同会社,,合同会社,宮城県,仙台市泉区,泉中央３丁目１５番地の１１,,04,105,9813133,,,,,,,2026-01-05,1,,,,,マグノリアクリエイト,0
446,2420003003220,新規,0,2026-01-05,2026-01-05,合同会社Ｋプラント,,合同会社,青森県,十和田市,大字八斗沢字家ノ下１８７―６,,02,206,0340105,,,,,,,2026-01-05,1,,,,,ケープラント,0
456,2700150133824,新規,0,2026-01-05,2026-01-05,篠田悪水土地改良区,,その他,愛知県,津島市,西柳原町１丁目１４,,23,208,4960047,,,,,,,2026-01-05,1,,,,,シノダアクスイトチカイリョウク,0
466,3010003049758,新規,0,2026-01-05,2026-01-05,合同会社ブリスフル,,合同会社,東京都,千代田区,外神田６丁目１４番７号ＶＯＲＴ末広町７階,,13,101,1010021,,,,,,,2026-01-05,1,,,,,ブリスフル,0
468,3010005041110,新規,0,2026-01-05,2026-01-05,特定非営利活動法人東京華人テニス協会,,その他の設立登記法人,東京都,文京区,千駄木４丁目１３番６号アドリーム文京動坂１０５号,,13,105,1130022,,,,,,,2026-01-05,1,,,,,トウキョウカジンテニスキョウカイ,0
484,3010401195410,新規,0,2026-01-05,2026-01-05,株式会社ＳＡＺＡＢＹ,,株式会社,東京都,港区,六本木３丁目７番１号,,13,103,1060032,,,,,,,2026-01-05,1,,,,,サザビー,0
486,3010403036901,新規,0,2026-01-05,2026-01-05,エーキャピタル合同会社,,合同会社,東京都,港区,六本木３丁目１６番１２号六本木ＫＳビル５Ｆ,,13,103,1060032,,,,,,,2026-01-05,1,,,,,エーキャピタル,0
490,3010501055233,新規,0,2026-01-05,2026-01-05,株式会社ＡＵＲＡＳＩＮ,,株式会社,東京都,台東区,清川２丁目３６－１３,,13,106,1110022,,,,,,,2026-01-05,1,,,,,オーラシン,0
491,3010503008131,新規,0,2026-01-05,2026-01-05,合同会社Ｎｏｒｔｈｅｒｎ　Ｌｉｇｈｔｓ．,,合同会社,東京都,台東区,下谷２丁目５番地２６－７０２,,13,106,1100004,,,,,,,2026-01-05,1,,,,,ノーザンライツ,0
493,3010601068498,新規,0,2026-01-05,2026-01-05,株式会社Ｅ‐ＡＵＴＯ　ＳＥＲＶＩＣＥ,,株式会社,東京都,墨田区,東墨田２丁目２４番２０号,,13,107,1310042,,,,,,,2026-01-05,1,,,,,イーオートサービス,0
494,3010601068507,新規,0,2026-01-05,2026-01-05,株式会社ＭＳホールディングス,,株式会社,東京都,墨田区,本所２丁目１４番１２号,,13,107,1300004,,,,,,,2026-01-05,1,,,,,エムエスホールディングス,0
511,3011003023216,新規,0,2026-01-05,2026-01-05,合同会社Ｒｅｆｉｎａ,,合同会社,東京都,渋谷区,恵比寿西２丁目４－８ウィンド恵比寿ビル８階,,13,113,1500021,,,,,,,2026-01-05,1,,,,,リフィナ,0
536,3020003030056,新規,0,2026-01-05,2026-01-05,合同会社響,,合同会社,神奈川県,横浜市泉区,白百合１丁目１８番３９号,,14,116,2450005,,,,,,,2026-01-05,1,,,,,ヒビキ,0
537,3020003030072,新規,0,2026-01-05,2026-01-05,合同会社Ｋ‐ｍａｓｔｅｒｓ,,合同会社,神奈川県,横浜市西区,浅間町１丁目４‐３ウィザードビル４０２Ｃ,,14,103,2200072,,,,,,,2026-01-05,1,,,,,ケーマスターズ,0
548,3030001170332,新規,0,2026-01-05,2026-01-05,株式会社ＰＳメディカル,,株式会社,埼玉県,さいたま市北区,土呂町２丁目３６番地１１,,11,102,3310804,,,,,,,2026-01-05,1,,,,,ピーエスメディカル,0
549,3030001170349,新規,0,2026-01-05,2026-01-05,株式会社ライズ,,株式会社,埼玉県,さいたま市大宮区,仲町２丁目２５番地松亀プレジデントビル２０４号室,,11,103,3300845,,,,,,,2026-01-05,1,,,,,ライズ,0
556,3040003029220,新規,0,2026-01-05,2026-01-05,合同会社山本アルミ建材,,合同会社,千葉県,八街市,沖１１３１番地４,,12,230,2891126,,,,,,,2026-01-05,1,,,,,ヤマモトアルミケンザイ,0
557,3040005022990,新規,0,2026-01-05,2026-01-05,一般社団法人山武グランドマスジッド,,その他の設立登記法人,千葉県,山武市,木原２１番地１,,12,237,2891212,,,,,,,2026-01-05,1,,,,,サンムグランドマスジッド,0
562,3050001057783,新規,0,2026-01-05,2026-01-05,株式会社シュヴァイン安澤,,株式会社,茨城県,坂東市,長谷２８４７番地１０,,08,228,3060642,,,,,,,2026-01-05,1,,,,,シュヴァインアンザワ,0
563,3050001057809,新規,0,2026-01-05,2026-01-05,株式会社オアシスビジネスサポート,,株式会社,茨城県,つくば市,春日４丁目１番地４,,08,220,3050821,,,,,,,2026-01-05,1,,,,,オアシスビジネスサポート,0
565,3070001043690,新規,0,2026-01-05,2026-01-05,株式会社ＴｏｐＧ,,株式会社,群馬県,前橋市,日吉町３丁目４０番地８,,10,201,3710017,,,,,,,2026-01-05,1,,,,,トップジー,0
566,3070003006241,新規,0,2026-01-05,2026-01-05,合同会社ｃｈｉ．,,合同会社,群馬県,北群馬郡榛東村,大字広馬場２２３１番地１,,10,344,3703504,,,,,,,2026-01-05,1,,,,,シーエイチアイ,0
578,3100001039223,新規,0,2026-01-05,2026-01-05,株式会社マウントプラス,,株式会社,長野県,長野市,大字栗田３１４番地３,,20,201,3800921,,,,,,,2026-01-05,1,,,,,マウントプラス,0
592,3120001283091,新規,0,2026-01-05,2026-01-05,ＶＯＫＡ株式会社,,株式会社,大阪府,大阪市中央区,北浜２丁目１‐１４石塚ビル４Ｆ,,27,128,5410041,,,,,,,2026-01-05,1,,,,,ヴォカ,0
593,3120003031606,新規,0,2026-01-05,2026-01-05,合同会社みやび支援センター,,合同会社,大阪府,大阪市住之江区,新北島１丁目３番２号,,27,125,5590024,,,,,,,2026-01-05,1,,,,,ミヤビシエンセンター,0
595,3120103006920,新規,0,2026-01-05,2026-01-05,川崎農園合同会社,00142042,合同会社,大阪府,貝塚市,小瀬１丁目７－２３,,27,208,5970021,,,,,,,2026-01-05,1,,,,,カワサキノウエン,0
603,3130001081305,新規,0,2026-01-05,2026-01-05,ＨＩＧＯＹＡ株式会社,,株式会社,京都府,京都市伏見区,北浜町５８３番地,,26,109,6128218,,,,,,,2026-01-05,1,,,,,ヒゴヤ,0
607,3140001141231,新規,0,2026-01-05,2026-01-05,株式会社Ｃｈａｍｉ　Ｗｏｒｋｓ,,株式会社,兵庫県,伊丹市,春日丘２丁目１３６番地の３春日丘アーバンコンフォートＡ－４２９号,,28,207,6640893,,,,,,,2026-01-05,1,,,,,チャミワークス,0
612,3150001028618,新規,0,2026-01-05,2026-01-05,ＯＺＡＫＩ株式会社,,株式会社,奈良県,天理市,遠田町４５番地の２８,,29,204,6320055,,,,,,,2026-01-05,1,,,,,オザキ,0
615,3170003002362,新規,0,2026-01-05,2026-01-05,合同会社財務部,,合同会社,和歌山県,紀の川市,藤井４２番地２０,,30,208,6496514,,,,,,,2026-01-05,1,,,,,ザイムブ,0
617,3180001170012,新規,0,2026-01-05,2026-01-05,株式会社エンタープライズ,,株式会社,愛知県,名古屋市中村区,名駅３丁目４－１０アルティメイト名駅１ｓｔ２階,,23,105,4500002,,,,,,,2026-01-05,1,,,,,エンタープライズ,0
618,3180001170078,新規,0,2026-01-05,2026-01-05,株式会社Ｍｅｄｉｃａｌ　Ａｃｅ,,株式会社,愛知県,名古屋市中村区,名駅３丁目１１番９号ＪＥ名駅３１１ビル３０２,,23,105,4500002,,,,,,,2026-01-05,1,,,,,メディカルエース,0
622,3180003029553,新規,0,2026-01-05,2026-01-05,ＭＯＪＥＥＢ　ＴＲＡＤＩＮＧ合同会社,,合同会社,愛知県,岩倉市,下本町燈明庵１５９番地１マンション千代１０７号,,23,228,4820005,,,,,,,2026-01-05,1,,,,,モジーブトレーディング,0
624,3180005021351,新規,0,2026-01-05,2026-01-05,一般社団法人Ｙｕｒｕｒｉ　Ｃｏｎｃｅｐｔ,,その他の設立登記法人,愛知県,一宮市,大毛字宮前７０番地,,23,203,4910132,,,,,,,2026-01-05,1,,,,,ユルリコンセプト,0
628,3180301040550,新規,0,2026-01-05,2026-01-05,株式会社ＺＡＲＡＭＥ,,株式会社,愛知県,岡崎市,中田町６番地１９,,23,202,4440836,,,,,,,2026-01-05,1,,,,,ザラメ,0
629,3180301040559,新規,0,2026-01-05,2026-01-05,株式会社うさぎ一羽,,株式会社,愛知県,岡崎市,緑丘３丁目６番地２５,,23,202,4440806,,,,,,,2026-01-05,1,,,,,ウサギヒトワ,0
636,3220001027091,新規,0,2026-01-05,2026-01-05,Ｎｕｍｂｅｒ２．０株式会社,,株式会社,石川県,野々市市,下林４丁目４９７サクラハイム１０１,,17,212,9218831,,,,,,,2026-01-05,1,,,,,ナンバーニーテンゼロ,0
642,3240001065973,新規,0,2026-01-05,2026-01-05,株式会社チャオズ,,株式会社,広島県,広島市安芸区,船越６丁目２４番３０号,,34,107,7360081,,,,,,,2026-01-05,1,,,,,チャオズ,0
646,3250005009050,新規,0,2026-01-05,2026-01-05,協同組合アイティーオー,,その他の設立登記法人,山口県,宇部市,東本町１丁目５－３,,35,202,7550028,,,,,,,2026-01-05,1,,,,,アイティーオー,0
647,3260001040850,新規,0,2026-01-05,2026-01-05,ＡａｗＲｉｉ株式会社,,株式会社,岡山県,岡山市北区,芳賀１７２８番地８９,,33,101,7011221,,,,,,,2026-01-05,1,,,,,アーリー,0
650,3280001009563,新規,0,2026-01-05,2026-01-05,株式会社Ｈ＆Ｔリージョナルディベロップメント,,株式会社,島根県,松江市,向島町１４０番地１,,32,201,6900841,,,,,,,2026-01-05,1,,,,,エイチアンドティーリージョナルディベロップメント,0
657,3290005019938,新規,0,2026-01-05,2026-01-05,ＮＰＯ法人とも育ちＳＯＲＡ,,その他の設立登記法人,福岡県,古賀市,小竹２番地５,,40,223,8113135,,,,,,,2026-01-05,1,,,,,トモソダチソラ,0
658,3290005019946,新規,0,2026-01-05,2026-01-05,一般社団法人日本未来教育支援機構,,その他の設立登記法人,福岡県,古賀市,舞の里３丁目４番５号,,40,223,8113114,,,,,,,2026-01-05,1,,,,,ニホンミライキョウイクシエンキコウ,0
659,3290801032128,新規,0,2026-01-05,2026-01-05,株式会社ＬＥＶＡＬＬＥＹＧＥ,,株式会社,福岡県,北九州市小倉南区,田原３丁目７番７号,,40,107,8000225,,,,,,,2026-01-05,1,,,,,レバレージ,0
660,3290801032136,新規,0,2026-01-05,2026-01-05,食の響株式会社,,株式会社,福岡県,北九州市小倉北区,霧ケ丘１丁目９番１８号,,40,106,8020052,,,,,,,2026-01-05,1,,,,,ショクノヒビキ,0
662,3290805009898,新規,0,2026-01-05,2026-01-05,一般社団法人つばさグループ,,その他の設立登記法人,福岡県,北九州市小倉北区,馬借２丁目２番４－５０１号,,40,106,8020077,,,,,,,2026-01-05,1,,,,,ツバサグループ,0
673,3360001036194,新規,0,2026-01-05,2026-01-05,ＮＥＳＴ株式会社,,株式会社,沖縄県,那覇市,辻２丁目２１番１５号,00142030,47,201,9000037,,,,,,,2026-01-05,1,,,,,ネスト,0
675,3360003015519,新規,0,2026-01-05,2026-01-05,リノハウジング合同会社,,合同会社,沖縄県,沖縄市,桃原３丁目１２番１４号,,47,211,9042164,,,,,,,2026-01-05,1,,,,,リノハウジング,0
676,3380001035780,新規,0,2026-01-05,2026-01-05,サポートオフィスサンライフ株式会社,,株式会社,福島県,石川郡古殿町,大字田口字黒長２３,,07,505,9638306,,,,,,,2026-01-05,1,,,,,サポートオフィスサンライフ,0
677,3380003006202,新規,0,2026-01-05,2026-01-05,３Ｔｉｅｒｓ合同会社,,合同会社,福島県,双葉郡浪江町,大字権現堂字上川原７４－１ＥｌａｌｉｖｉｏＥ２０６,,07,547,9791521,,,,,,,2026-01-05,1,,,,,,0
678,3380005013048,新規,0,2026-01-05,2026-01-05,一般社団法人オアシス,,その他の設立登記法人,福島県,南相馬市,原町区桜井町１丁目３番地,,07,212,9750032,,,,,,,2026-01-05,1,,,,,オアシス,0
679,3390001018198,新規,0,2026-01-05,2026-01-05,株式会社ＬｕＡ,,株式会社,山形県,山形市,東青田４丁目１２番１０号,,06,201,9902423,,,,,,,2026-01-05,1,,,,,ルーア,0
687,3450001014819,新規,0,2026-01-05,2026-01-05,株式会社村岡農園,,株式会社,北海道,上川郡和寒町,字三和８８６番地,,01,464,0980112,,,,,,,2026-01-05,1,,,,,ムラオカノウエン,0
689,3500001026701,新規,0,2026-01-05,2026-01-05,株式会社安田商事,,株式会社,愛媛県,松山市,堀江町甲１３１４番地１９,,38,201,7992651,,,,,,,2026-01-05,1,,,,,ヤスダショウジ,0
690,3500003003649,新規,0,2026-01-05,2026-01-05,合同会社美容推進機構,,合同会社,愛媛県,松山市,大街道１丁目６番地２,,38,201,7900004,,,,,,,2026-01-05,1,,,,,ビヨウスイシンキコウ,0
692,3700150133815,新規,0,2026-01-05,2026-01-05,Ｃｈａｎｇｚｈｏｕ　Ｊｉａｎｆｕ　Ｏｐｔｏｅｌｅｃｔｒｏｎｉｃ　Ｉｎｓｔｒｕｍｅｎｔ．ｃｏ．，Ｌｔｄ,,外国会社等,,,,,,,,Ｎｏ．１８６　Ｈｏｎｇｘｉ　Ｒｏａｄ，Ｎｉｕｔａｎｇ　Ｔｏｗｎ，Ｗｕｊｉｎ　Ｄｉｓｔｒｉｃｔ（Ｃｈａｎｇｚｈｏｕ　Ｗｕｊｉｎ　ＣｈｕａｎｇｚｈｉＹｕｎｇｕ　Ｉｎｄｕｓｔｒｉａｌ　Ｐａｒｋ）Ｃｈａｎｇｚｈｏｕ　Ｊｉａｎｇｓｕ　２１３０００　ＣＮ,,,,,,2026-01-05,1,,,,,チャンジョウジエンフーオプトエレクトロニックインストゥルメントカンパニーリミテッド,0
693,3700150133823,新規,0,2026-01-05,2026-01-05,蟹江大澪悪水土地改良区,,その他,愛知県,津島市,西柳原町１丁目１４,,23,208,4960047,,,,,,,2026-01-05,1,,,,,カニエオオミオアクスイトチカイリョウク,0
703,4010003049823,新規,0,2026-01-05,2026-01-05,合同会社トラストワン,,合同会社,東京都,中央区,日本橋室町１丁目１１番１２号日本橋水野ビル７階,,13,102,1030022,,,,,,,2026-01-05,1,,,,,トラストワン,0
704,4010003049864,新規,0,2026-01-05,2026-01-05,アフィヴィータ合同会社,,合同会社,東京都,中央区,銀座１丁目１２－４Ｎ＆ＥＢｌｄ．６Ｆ,,13,102,1040061,,,,,,,2026-01-05,1,,,,,アフィヴィータ,0
708,4010401195533,新規,0,2026-01-05,2026-01-05,株式会社ｅｌｆｕｌ,,株式会社,東京都,港区,北青山１丁目３番１号アールキューブ青山３階,,13,103,1070061,,,,,,,2026-01-05,1,,,,,エルフル,0
709,4010401195558,新規,0,2026-01-05,2026-01-05,株式会社ファーストリテイリング・プロパティ,,株式会社,東京都,港区,赤坂９丁目７番１号ミッドタウン・タワー,,13,103,1070052,,,,,,,2026-01-05,1,,,,,ファーストリテイリングプロパティ,0
710,4010403036900,新規,0,2026-01-05,2026-01-05,合同会社ミナトク,,合同会社,東京都,港区,赤坂２丁目１３－８赤坂ロイヤルプラザ２０５,,13,103,1070052,,,,,,,2026-01-05,1,,,,,ミナトク,0
711,4010403036933,新規,0,2026-01-05,2026-01-05,ＮＣＢＣ‐Ｇ１合同会社,,合同会社,東京都,港区,西新橋１丁目６番１１号,,13,103,1050003,,,,,,,2026-01-05,1,,,,,エヌシービーシージーワン,0
714,4010601068489,新規,0,2026-01-05,2026-01-05,株式会社ヒトミビジョン,,株式会社,東京都,江東区,豊洲５丁目６番３６号,,13,108,1350061,,,,,,,2026-01-05,1,,,,,ヒトミビジョン,0
715,4010603011991,新規,0,2026-01-05,2026-01-05,あぴるカンパニー合同会社,,合同会社,東京都,墨田区,緑３丁目１３番１１－４０５号,,13,107,1300021,,,,,,,2026-01-05,1,,,,,アピルカンパニー,0
731,4011003023198,新規,0,2026-01-05,2026-01-05,合同会社フォーツリーズ,,合同会社,東京都,渋谷区,円山町５番３号ＭＩＥＵＸ渋谷ビル８階,,13,113,1500044,,,,,,,2026-01-05,1,,,,,フォーツリーズ,0
732,4011101114428,新規,0,2026-01-05,2026-01-05,株式会社ＳＫＴ,,株式会社,東京都,新宿区,西新宿７丁目７番２６号ワコーレ新宿第一ビル１００５号室,,13,104,1600023,,,,,,,2026-01-05,1,,,,,エスケーティー,0
737,4011501032964,新規,0,2026-01-05,2026-01-05,株式会社タラミテック,,株式会社,東京都,北区,滝野川５丁目１２番７号,,13,117,1140023,,,,,,,2026-01-05,1,,,,,タラミテック,0
738,4011503006818,新規,0,2026-01-05,2026-01-05,合同会社ＳＴＡＮＤ３９,,合同会社,東京都,北区,田端１丁目１９番５号北原方１階,,13,117,1140014,,,,,,,2026-01-05,1,,,,,スタンドサンジュウキュウ,0
739,4011601029282,新規,0,2026-01-05,2026-01-05,株式会社フェザーン,,株式会社,東京都,練馬区,豊玉上１丁目８番１６号,,13,120,1760011,,,,,,,2026-01-05,1,,,,,フェザーン,0
752,4020001166487,新規,0,2026-01-05,2026-01-05,香菜月アセット株式会社,,株式会社,神奈川県,横浜市中区,本牧和田１番１－５１０号,,14,104,2310827,,,,,,,2026-01-05,1,,,,,カナヅキアセット,0
756,4021001087178,新規,0,2026-01-05,2026-01-05,株式会社ＴＲＩＮＯＳ,,株式会社,神奈川県,藤沢市,鵠沼松が岡１丁目１８番６－１号,,14,205,2510038,,,,,,,2026-01-05,1,,,,,トリノス,0
764,4030001170348,新規,0,2026-01-05,2026-01-05,ＹＴＫキャピタル株式会社,,株式会社,埼玉県,越谷市,レイクタウン９丁目２９番地６,,11,222,3430828,,,,,,,2026-01-05,1,,,,,ワイティーケーキャピタル,0
772,4040001141942,新規,0,2026-01-05,2026-01-05,グレイスホールディングス株式会社,,株式会社,千葉県,東金市,堀上７０４番地１,,12,213,2830063,,,,,,,2026-01-05,1,,,,,グレイスホールディングス,0
776,4040003029211,新規,0,2026-01-05,2026-01-05,合同会社Ａｂｉｌｉｔｙ,,合同会社,千葉県,四街道市,大日５６３番地６,,12,228,2840001,,,,,,,2026-01-05,1,,,,,アビリティ,0
781,4050001057790,新規,0,2026-01-05,2026-01-05,霞技研株式会社,,株式会社,茨城県,土浦市,神立町３４３１番地３中根テナント１０３,,08,203,3000013,,,,,,,2026-01-05,1,,,,,カスミギケン,0
782,4050003009848,新規,0,2026-01-05,2026-01-05,カロスベース合同会社,,合同会社,茨城県,つくば市,竹園１丁目３番地８号,,08,220,3050032,,,,,,,2026-01-05,1,,,,,カロスベース,0
786,4070001043673,新規,0,2026-01-05,2026-01-05,株式会社和の穂,,株式会社,群馬県,太田市,藪塚町１９６７番地８,,10,205,3792301,,,,,,,2026-01-05,1,,,,,ナゴミノホノ,0
797,4110001039808,新規,0,2026-01-05,2026-01-05,株式会社エステートジャパン,,株式会社,新潟県,新潟市中央区,東堀通８番町１４１６番地ライオンタワー３Ｆ,,15,103,9518065,,,,,,,2026-01-05,1,,,,,エステートジャパン,0
814,4120001283017,新規,0,2026-01-05,2026-01-05,株式会社ＲＯＫＫＡＫＵ,,株式会社,大阪府,大阪市北区,中津３丁目３５番１６－４０１号,,27,127,5310071,,,,,,,2026-01-05,1,,,,,ロッカク,0
815,4120001283066,新規,0,2026-01-05,2026-01-05,株式会社佐伯電工,,株式会社,大阪府,大阪市旭区,生江１丁目７番１５号,,27,117,5350004,,,,,,,2026-01-05,1,,,,,サエキデンコウ,0
816,4120001283082,新規,0,2026-01-05,2026-01-05,株式会社ライジングサン,,株式会社,大阪府,守口市,高瀬町３丁目３番１０号,,27,209,5700053,,,,,,,2026-01-05,1,,,,,ライジングサン,0
817,4120001283108,新規,0,2026-01-05,2026-01-05,星晨株式会社,,株式会社,大阪府,大阪市西成区,聖天下１丁目４番２９号３０２,,27,122,5570012,,,,,,,2026-01-05,1,,,,,セイシン,0
820,4120003031596,新規,0,2026-01-05,2026-01-05,合同会社Ｒｉｐｐｌｅ　Ｅｄｕｃａｔｉｏｎ,,合同会社,大阪府,大阪市北区,梅田１丁目１－３大阪駅前第３ビル２９階１－１－１号室,,27,127,5300001,,,,,,,2026-01-05,1,,,,,リップルエデュケーション,0
831,4140001141206,新規,0,2026-01-05,2026-01-05,蓮美総業株式会社,,株式会社,兵庫県,加西市,段下町７５５番地の３６,,28,220,6752241,,,,,,,2026-01-05,1,,,,,ハスミソウギョウ,0
832,4140001141214,新規,0,2026-01-05,2026-01-05,株式会社ＵＫ　Ｈｏｌｄｉｎｇｓ,,株式会社,兵庫県,宝塚市,逆瀬川２丁目７番１７－１号,,28,214,6650035,,,,,,,2026-01-05,1,,,,,ユーケーホールディングス,0
833,4140001141222,新規,0,2026-01-05,2026-01-05,株式会社ユーロステラ,,株式会社,兵庫県,神戸市東灘区,深江浜町１２５番地,,28,101,6580023,,,,,,,2026-01-05,1,,,,,ユーロステラ,0
834,4140001141230,新規,0,2026-01-05,2026-01-05,株式会社中小企業再生支援パートナーズ,,株式会社,兵庫県,神戸市兵庫区,荒田町２丁目１８－２０－９１３号,,28,105,6520032,,,,,,,2026-01-05,1,,,,,チュウショウキギョウサイセイシエンパートナーズ,0
836,4150003003790,新規,0,2026-01-05,2026-01-05,合同会社大眞,,合同会社,奈良県,北葛城郡上牧町,米山台３丁目４番３号,,29,424,6390213,,,,,,,2026-01-05,1,,,,,ダイシン,0
843,4180001170069,新規,0,2026-01-05,2026-01-05,株式会社グールズ,,株式会社,愛知県,海部郡大治町,大字西條字坂牧島１２１番地,,23,424,4901144,,,,,,,2026-01-05,1,,,,,グールズ,0
844,4180005021359,新規,0,2026-01-05,2026-01-05,医療法人ＳＹＳ,,その他の設立登記法人,愛知県,弥富市,鯏浦町下六７番地,,23,235,4980022,,,,,,,2026-01-05,1,,,,,エスワイエス,0
848,4180301040558,新規,0,2026-01-05,2026-01-05,株式会社Ｌｕｍｉｑｕｅ,,株式会社,愛知県,豊田市,丸山町５丁目１０番地,,23,211,4710832,,,,,,,2026-01-05,1,,,,,ルミーク,0
853,4200003007183,新規,0,2026-01-05,2026-01-05,合同会社Ｆｒｙｎｅ,,合同会社,岐阜県,大垣市,東前１丁目６１番地プラバ東前１－Ａ号,,21,202,5030835,,,,,,,2026-01-05,1,,,,,フライン,0
855,4210001020435,新規,0,2026-01-05,2026-01-05,株式会社松浦,,株式会社,福井県,坂井市,三国町平山第９号６１番地,,18,210,9130004,,,,,,,2026-01-05,1,,,,,マツウラ,0
856,4220001027090,新規,0,2026-01-05,2026-01-05,株式会社マルヨシラボ,,株式会社,石川県,金沢市,米泉町９丁目５番地３,,17,201,9218044,,,,,,,2026-01-05,1,,,,,マルヨシラボ,0
860,4240001065972,新規,0,2026-01-05,2026-01-05,株式会社大顕,,株式会社,広島県,福山市,多治米町６丁目１２番１２号,,34,207,7200824,,,,,,,2026-01-05,1,,,,,ダイケン,0
862,4240002054958,新規,0,2026-01-05,2026-01-05,有限会社坪下木工所,,有限会社,広島県,廿日市市,串戸１丁目１３番１号,,34,213,7380033,,,,,,,2026-01-05,1,,,,,ツボシタモッコウショ,0
874,4290001112621,新規,0,2026-01-05,2026-01-05,ブルートラスト＆パートナーズ株式会社,,株式会社,福岡県,福岡市中央区,小笹４丁目５番５‐５０６号クラシオン小笹山手５番館,,40,133,8100033,,,,,,,2026-01-05,1,,,,,ブルートラストアンドパートナーズ,0
879,4290005019945,新規,0,2026-01-05,2026-01-05,一般社団法人ＬＡＳＴ　ＯＮＥ,,その他の設立登記法人,福岡県,福岡市博多区,築港本町１３番６号ベイサイドプレイス博多Ｃ館３Ｆ,,40,132,8120021,,,,,,,2026-01-05,1,,,,,ラストワン,0
882,4300005007287,新規,0,2026-01-05,2026-01-05,一般社団法人フリースクールにじいろの蒼空,,その他の設立登記法人,佐賀県,杵島郡白石町,大字福吉１４６１番地１,,41,425,8491113,,,,,,,2026-01-05,1,,,,,フリースクールニジイロノソラ,0
889,4340001027871,新規,0,2026-01-05,2026-01-05,株式会社Ｌｅｓｓ　ｉｓ　ｍｏｒｅ,,株式会社,鹿児島県,鹿児島市,西田１丁目５番地９第五鶴丸ハイツ１１０１号,,46,201,8900046,,,,,,,2026-01-05,1,,,,,レスイズモア,0
891,4360001036193,新規,0,2026-01-05,2026-01-05,ＨＳＰ株式会社,,株式会社,沖縄県,浦添市,屋富祖２丁目２７番１８号,,47,208,9012127,,,,,,,2026-01-05,1,,,,,エイチエスピィ,0
892,4370001053353,新規,0,2026-01-05,2026-01-05,ＫＩＣＫＹ株式会社,,株式会社,宮城県,気仙沼市,岩月宝ヶ沢２７番地２３,,04,205,9880207,,,,,,,2026-01-05,1,,,,,キキ,0
901,4410001014350,新規,0,2026-01-05,2026-01-05,株式会社カーズコム,,株式会社,秋田県,横手市,大雄字八柏村東１２番地２,,05,203,0130000,,,,,,,2026-01-05,1,,,,,カーズコム,0
903,4420003003219,新規,0,2026-01-05,2026-01-05,合同会社Ｎｏｒｔｈ　Ｅｎｄ　Ｄｉｎｉｎｇ,,合同会社,青森県,弘前市,大字土手町１３２番地海老名ビル１階,,02,202,0368182,,,,,,,2026-01-05,1,,,,,ノースエンドダイニング,0
908,4450001014818,新規,0,2026-01-05,2026-01-05,株式会社かのひら,,株式会社,北海道,旭川市,神楽岡五条６丁目３番８号,,01,204,0788315,,,,,,,2026-01-05,1,,,,,カノヒラ,0
910,4460003001086,新規,0,2026-01-05,2026-01-05,合同会社泉本建設,,合同会社,北海道,釧路市,文苑２丁目１５番６号エステートＩＮベルジェ２０３,,01,206,0850063,,,,,,,2026-01-05,1,,,,,イズミモトケンセツ,0
913,4460401001274,新規,0,2026-01-05,2026-01-05,株式会社根室カクショウ水産,,株式会社,北海道,根室市,幌茂尻５４番地,,01,223,0870036,,,,,,,2026-01-05,1,,,,,,0
919,4500003003648,新規,0,2026-01-05,2026-01-05,合同会社Ｈｕｍｍｍｏ,,合同会社,愛媛県,松山市,湊町４丁目１１―４Ａ―ＯＮＥビル３階ＢＥＡＲＣＨオフィスフロア,,38,201,7900012,,,,,,,2026-01-05,1,,,,,ハンモ,0
920,4700150133814,新規,0,2026-01-05,2026-01-05,ＨＵＩＺＨＯＵ　ＡＯＸＩＮ　ＦＵＲＮＩＴＵＲＥ　ＣＯ　ＬＴＤ,,外国会社等,,,,,,,,Ｎｏ．９　ＣｈａｎｇＦｕ　Ｒｏａｄ，Ｌａｏ　Ｚｅｎｇ　Ｗｕ，ＸｉｎＴａｎｇ　Ｖｉｌｌａｇｅ，ＱｉｕＣｈａｎｇ　ＨｕｉＹａｎｇ　Ｄｉｓｔｒｉｃｔ，ＨｕｉＺｈｏｕ　ＧｕａｎｇＤｏｎｇ　Ｐｒｏｖｉｎｃｅ，Ｃｈｉｎａ,,,,,,2026-01-05,1,,,,,フイジョウアオシンファニチャーカンパニーリミテッド,0
921,4700150133822,新規,0,2026-01-05,2026-01-05,十三沖永悪水土地改良区,,その他,愛知県,津島市,西柳原町１丁目１４,,23,208,4960047,,,,,,,2026-01-05,1,,,,,ジュウサンオキナガアクスイトチカイリョウク,0
928,5010001261544,新規,0,2026-01-05,2026-01-05,株式会社Ｅｎｌｙ　Ｇｌｏｂａｌ,,株式会社,東京都,中央区,銀座１丁目１２番４号Ｎ＆ＥＢＬＤ．６Ｆ,,13,102,1040061,,,,,,,2026-01-05,1,,,,,エンリーグローバル,0
929,5010001261560,新規,0,2026-01-05,2026-01-05,アセットマネジメント保険コンサルティング株式会社,,株式会社,東京都,千代田区,丸の内２丁目２番２号丸の内三井ビルディング１０階,,13,101,1000005,,,,,,,2026-01-05,1,,,,,アセットマネジメントホケンコンサルティング,0
931,5010003049806,新規,0,2026-01-05,2026-01-05,オフィス２１合同会社,,合同会社,東京都,中央区,銀座１丁目１２－４Ｎ＆ＥＢＬＤ．７階,,13,102,1040061,,,,,,,2026-01-05,1,,,,,オフィスツーワン,0
932,5010003049863,新規,0,2026-01-05,2026-01-05,合同会社春日フィナンシャル,,合同会社,東京都,千代田区,五番町１番地９,,13,101,1020076,,,,,,,2026-01-05,1,,,,,カスガフィナンシャル,0
937,5010005041125,新規,0,2026-01-05,2026-01-05,一般社団法人日本獣医療薬学協議会,,その他の設立登記法人,東京都,中央区,八丁堀３丁目１４番４号,,13,102,1040032,,,,,,,2026-01-05,1,,,,,ニホンジュウイリョウヤクガクキョウギカイ,0
950,5010401195417,新規,0,2026-01-05,2026-01-05,ミズキコンサルティング株式会社,,株式会社,東京都,港区,麻布十番２丁目８番８号５０２号室,,13,103,1060045,,,,,,,2026-01-05,1,,,,,ミズキコンサルティング,0
954,5010403036899,新規,0,2026-01-05,2026-01-05,Ｓｏｌａｒｉａｎｔ　ＢＥＳＳ　Ｐｒｏｊｅｃｔ１合同会社,,合同会社,東京都,港区,六本木６丁目１０番１号六本木ヒルズ森タワー３７階,,13,103,1060032,,,,,,,2026-01-05,1,,,,,ソラリアントビーイーエスエスプロジェクトワン,0
957,5010601068496,新規,0,2026-01-05,2026-01-05,スカイツリー株式会社,,株式会社,東京都,墨田区,墨田１丁目７番１３号,,13,107,1310031,,,,,,,2026-01-05,1,,,,,スカイツリー,0
958,5010603011974,新規,0,2026-01-05,2026-01-05,合同会社Ｃ‐ＦＵＴＵＲＥ,,合同会社,東京都,墨田区,京島１丁目４７番１１－４０１号,,13,107,1310046,,,,,,,2026-01-05,1,,,,,シーフューチャー,0
967,5011001174298,新規,0,2026-01-05,2026-01-05,株式会社アライズ,,株式会社,東京都,渋谷区,恵比寿西２丁目８番４号ＥＸ恵比寿西ビル５階,,13,113,1500021,,,,,,,2026-01-05,1,,,,,アライズ,0
968,5011001174471,新規,0,2026-01-05,2026-01-05,株式会社Ａｔｅｌｉｅｒ,,株式会社,東京都,渋谷区,恵比寿西２丁目４番８号ウィンド恵比寿ビル８Ｆ,,13,113,1500021,,,,,,,2026-01-05,1,,,,,アトリエ,0
969,5011001174562,新規,0,2026-01-05,2026-01-05,ウェルシャン・ジャパン株式会社,,株式会社,東京都,渋谷区,富ヶ谷１丁目１４番１４号スタンフォードアネックスビル３Ｆ,,13,113,1510063,,,,,,,2026-01-05,1,,,,,ウェルシャンジャパン,0
970,5011001174587,新規,0,2026-01-05,2026-01-05,株式会社ＣＲＡＦＴＳＴＡＧＥ,,株式会社,東京都,目黒区,下目黒１丁目１番１４号コノトラビル７Ｆ,,13,110,1530064,,,,,,,2026-01-05,1,,,,,クラフトステージ,0
971,5011001174645,新規,0,2026-01-05,2026-01-05,株式会社２８,,株式会社,東京都,渋谷区,渋谷２丁目１６－５,,13,113,1500002,,,,,,,2026-01-05,1,,,,,ニジュウハチ,0
975,5011003023197,新規,0,2026-01-05,2026-01-05,合同会社ＡＭＢＥＲ,,合同会社,東京都,目黒区,上目黒１丁目１６－６ナチュラルスクエアビル４０１,,13,110,1530051,,,,,,,2026-01-05,1,,,,,アンバー,0
978,5011101114328,新規,0,2026-01-05,2026-01-05,株式会社Ｎｅｍｅｓｉｓ　Ｃｏｄｅ,,株式会社,東京都,新宿区,西新宿３丁目３番１３号西新宿水間ビル６階,,13,104,1600023,,,,,,,2026-01-05,1,,,,,ネメシスコード,0
984,5011203004922,新規,0,2026-01-05,2026-01-05,Ａｉｌｅａ合同会社,,合同会社,東京都,中野区,弥生町４丁目３５番２０号,,13,114,1640013,,,,,,,2026-01-05,1,,,,,アイレア,0
987,5011401027691,新規,0,2026-01-05,2026-01-05,瑞明株式会社,,株式会社,東京都,板橋区,向原３丁目２番４号サンヒルズ向原Ｂ４０１号室,,13,119,1730036,,,,,,,2026-01-05,1,,,,,ズイミョウ,0
988,5011401027700,新規,0,2026-01-05,2026-01-05,株式会社スリーピースコンサルティング,,株式会社,東京都,板橋区,板橋３丁目１５－１０アーバンハイム３０５,,13,119,1730004,,,,,,,2026-01-05,1,,,,,スリーピースコンサルティング,0
995,5011601029281,新規,0,2026-01-05,2026-01-05,株式会社ＢＬＡＣＫＳＷＡＮ,,株式会社,東京都,練馬区,氷川台４丁目２６－２,,13,120,1790084,,,,,,,2026-01-05,1,,,,,ブラックスワン,0
1000,5012401043951,新規,0,2026-01-05,2026-01-05,株式会社黒川広告研究所,,株式会社,東京都,三鷹市,牟礼３丁目９番７－４０８号,,13,204,1810002,,,,,,,2026-01-05,1,,,,,クロカワコウコクケンキュウジョ,0
1001,5012403007517,新規,0,2026-01-05,2026-01-05,合同会社晴れの音,,合同会社,東京都,調布市,上石原３丁目１０番３７号,,13,208,1820035,,,,,,,2026-01-05,1,,,,,ハレノネ,0
1002,5012403007541,新規,0,2026-01-05,2026-01-05,合同会社ハナきち商事,,合同会社,東京都,三鷹市,中原１丁目３番３３号,,13,204,1810005,,,,,,,2026-01-05,1,,,,,ハナキチショウジ,0
1004,5013103001520,新規,0,2026-01-05,2026-01-05,合同会社ハピネス,,合同会社,東京都,羽村市,五ノ神４丁目１４番地１ルミエールＭ１階,,13,227,2050011,,,,,,,2026-01-05,1,,,,,ハピネス,0
1015,5020003030046,新規,0,2026-01-05,2026-01-05,ＹＵＩＮＯＶＡ合同会社,,合同会社,神奈川県,横浜市港北区,下田町３丁目６番２１－６号,,14,109,2230064,,,,,,,2026-01-05,1,,,,,ユイノバ,0
1025,5030001170330,新規,0,2026-01-05,2026-01-05,オルモック株式会社,,株式会社,埼玉県,さいたま市大宮区,大成町２丁目３７６番地ルートマンション５０３,,11,103,3300852,,,,,,,2026-01-05,1,,,,,オルモック,0
1026,5030001170347,新規,0,2026-01-05,2026-01-05,株式会社Ｒｕｓｈ,,株式会社,埼玉県,さいたま市岩槻区,上野２丁目９番地１０,,11,110,3390073,,,,,,,2026-01-05,1,,,,,ラッシュ,0
1027,5030001170421,新規,0,2026-01-05,2026-01-05,株式会社ひだまりパートナーズ,,株式会社,埼玉県,日高市,大字鹿山５０５番地４,,11,242,3501231,,,,,,,2026-01-05,1,,,,,ヒダマリパートナーズ,0
1045,5080101025974,新規,0,2026-01-05,2026-01-05,株式会社粋心園,,株式会社,静岡県,駿東郡長泉町,南一色２５３番地の２１,,22,342,4110932,,,,,,,2026-01-05,1,,,,,スイシンエン,0
1052,5110001039807,新規,0,2026-01-05,2026-01-05,大河重量株式会社,,株式会社,新潟県,長岡市,中之島４３９１番地４,,15,202,9540124,,,,,,,2026-01-05,1,,,,,タイガジュウリョウ,0
1063,5120001283049,新規,0,2026-01-05,2026-01-05,アクシス株式会社,,株式会社,大阪府,大阪市淀川区,十三本町１丁目１８番７号９０４号室,,27,123,5320024,,,,,,,2026-01-05,1,,,,,アクシス,0
1064,5120001283081,新規,0,2026-01-05,2026-01-05,ＴＨＥ株式会社,,株式会社,大阪府,大阪市東成区,東小橋１丁目１８番２０号ＰＲＯＳＰＥＲＢＬＤＧ４階,,27,115,5370024,,,,,,,2026-01-05,1,,,,,ティーエイチイー,0
1065,5120001283123,新規,0,2026-01-05,2026-01-05,株式会社トラスターク,,株式会社,大阪府,大阪市福島区,福島６丁目４番１号アルグラッド梅田ＷＥＳＴ９０９,,27,103,5530003,,,,,,,2026-01-05,1,,,,,トラスターク,0
1066,5120001283180,新規,0,2026-01-05,2026-01-05,株式会社Ｌｏｐｅ,,株式会社,大阪府,大阪市西区,南堀江３丁目１１番２２号アキ開発南堀江ビル１０階,,27,106,5500015,,,,,,,2026-01-05,1,,,,,ロープ,0
1068,5120003031587,新規,0,2026-01-05,2026-01-05,ＦｌｏｒＬｉｆ合同会社,,合同会社,大阪府,大阪市平野区,瓜破東１丁目１２番２７号,,27,126,5470022,,,,,,,2026-01-05,1,,,,,フローリフ,0
1073,5120103006919,新規,0,2026-01-05,2026-01-05,合同会社Ｍａｎｏ,,合同会社,大阪府,和泉市,仏並町１０５４番地,,27,219,5941136,,,,,,,2026-01-05,1,,,,,マーノ,0
1078,5130001081311,新規,0,2026-01-05,2026-01-05,Ｎｅｘｏｒｉａ株式会社,,株式会社,京都府,京都市左京区,吉田下阿達町３１番地４７,,26,103,6068304,,,,,,,2026-01-05,1,,,,,ネクソリア,0
1081,5130005017550,新規,0,2026-01-05,2026-01-05,特定非営利活動法人歯科衛生士リスキリング推進機構,,その他の設立登記法人,京都府,京都市西京区,御陵南荒木町１５番地１号,,26,111,6158232,,,,,,,2026-01-05,1,,,,,シカエイセイシリスキリングスイシンキコウ,0
1084,5140001141221,新規,0,2026-01-05,2026-01-05,株式会社ユーロモーター,,株式会社,兵庫県,神戸市東灘区,深江浜町１２５番地,,28,101,6580023,,,,,,,2026-01-05,1,,,,,ユーロモーター,0
1090,5140005027747,新規,0,2026-01-05,2026-01-05,医療法人社団尼崎駅前歯科・矯正歯科,,その他の設立登記法人,兵庫県,尼崎市,御園町２７番３さきタワー・サンクタス尼崎駅前１Ｆ,,28,202,6600861,,,,,,,2026-01-05,1,,,,,アマガサキエキマエシカキョウセイシカ,0
1094,5170001018929,新規,0,2026-01-05,2026-01-05,株式会社高木建具,,株式会社,和歌山県,和歌山市,直川１６６７－１０１,,30,201,6408481,,,,,,,2026-01-05,1,,,,,タカギタテグ,0
1097,5180001170035,新規,0,2026-01-05,2026-01-05,株式会社ツグミライン,,株式会社,愛知県,半田市,板山町１丁目９４番地の３,,23,205,4750936,,,,,,,2026-01-05,1,,,,,ツグミライン,0
1098,5180001170076,新規,0,2026-01-05,2026-01-05,スマイルマッチ株式会社,,株式会社,愛知県,海部郡大治町,大字三本木字村部９１番地,,23,424,4901142,,,,,,,2026-01-05,1,,,,,スマイルマッチ,0
1100,5180003029551,新規,0,2026-01-05,2026-01-05,合同会社２３ｒｄ,,合同会社,愛知県,名古屋市東区,徳川１丁目６２９－３,,23,102,4610025,,,,,,,2026-01-05,1,,,,,トゥエンティサード,0
1108,5190001032787,新規,0,2026-01-05,2026-01-05,株式会社藤庄,,株式会社,三重県,松阪市,嬉野中川新町１丁目７９番地,,24,204,5152325,,,,,,,2026-01-05,1,,,,,フジショウ,0
1112,5200001044566,新規,0,2026-01-05,2026-01-05,Ｓ‐ＰＡＣＫ株式会社,,株式会社,岐阜県,美濃市,神洞３５０番地１,,21,207,5013783,,,,,,,2026-01-05,1,,,,,エスパック,0
1116,5210001020434,新規,0,2026-01-05,2026-01-05,Ｉｓｐｒｉａ株式会社,,株式会社,福井県,小浜市,加茂第４０号４番地,,18,204,9170223,,,,,,,2026-01-05,1,,,,,イスプリア,0
1123,5240005016021,新規,0,2026-01-05,2026-01-05,一般社団法人ヒトニギリ研究所,,その他の設立登記法人,広島県,広島市南区,大州２丁目１２－１５,,34,103,7320802,,,,,,,2026-01-05,1,,,,,ヒトニギリケンキュウショ,0
1124,5250001021486,新規,0,2026-01-05,2026-01-05,株式会社イワモト建装,,株式会社,山口県,山口市,大内御堀３７６３番地,,35,203,7530214,,,,,,,2026-01-05,1,,,,,イワモトケンソウ,0
1138,5290001112595,新規,0,2026-01-05,2026-01-05,株式会社セントラル,,株式会社,福岡県,福岡市博多区,板付７丁目５番２６号,,40,132,8120888,,,,,,,2026-01-05,1,,,,,セントラル,0
1139,5290001112645,新規,0,2026-01-05,2026-01-05,株式会社ＰＬＡＵＸ,,株式会社,福岡県,糸島市,前原中央２丁目１３番２２号,,40,230,8191116,,,,,,,2026-01-05,1,,,,,プラウス,0
1141,5290003017867,新規,0,2026-01-05,2026-01-05,合同会社ペイサーズ,,合同会社,福岡県,福岡市中央区,小笹２丁目１０－４０－８０５,,40,133,8100033,,,,,,,2026-01-05,1,,,,,ペイサーズ,0
1142,5290003017909,新規,0,2026-01-05,2026-01-05,ＩＷＡＩ　ＧＬＯＢＡＬ　ＴＲＡＤＩＮＧ合同会社,,合同会社,福岡県,福岡市博多区,石城町７番７―１３０３号コンプレートＳＥＫＩＪＯＵ,,40,132,8120032,,,,,,,2026-01-05,1,,,,,イワイグローバルトレーディング,0
1150,5340005009931,新規,0,2026-01-05,2026-01-05,一般社団法人ＩＦＣ,,その他の設立登記法人,鹿児島県,伊佐市,大口里１７９２番地,,46,224,8952511,,,,,,,2026-01-05,1,,,,,アイエフシー,0
1152,5360003015517,新規,0,2026-01-05,2026-01-05,合同会社ＹＴ天久,,合同会社,沖縄県,那覇市,天久２丁目４番２９号,,47,201,9000005,,,,,,,2026-01-05,1,,,,,ワイティーアメク,0
1153,5360003015525,新規,0,2026-01-05,2026-01-05,合同会社ティーダステ,,合同会社,沖縄県,宜野湾市,新城１丁目１９番１０－２号,,47,205,9012201,,,,,,,2026-01-05,1,,,,,ティーダステ,0
1156,5370001053344,新規,0,2026-01-05,2026-01-05,株式会社ＮＥＸＴ,,株式会社,宮城県,登米市,南方町松葉２４番地２,,04,212,9870414,,,,,,,2026-01-05,1,,,,,ネクスト,0
1157,5370001053352,新規,0,2026-01-05,2026-01-05,株式会社山中工務店,,株式会社,宮城県,東松島市,矢本字上河戸８６番地５,,04,214,9810503,,,,,,,2026-01-05,1,,,,,ヤマナカコウムテン,0
1162,5380001035779,新規,0,2026-01-05,2026-01-05,株式会社フォレストワーカーエージェンシー,,株式会社,福島県,石川郡古殿町,大字田口字黒長２３,,07,505,9638306,,,,,,,2026-01-05,1,,,,,フォレストワーカーエージェンシー,0
1166,5390001018196,新規,0,2026-01-05,2026-01-05,株式会社ＢＸＢＴＯＫＹＯ,,株式会社,山形県,東置賜郡高畠町,大字相森１３８番地の１８,,06,381,9920332,,,,,,,2026-01-05,1,,,,,ビーエックスビートウキョウ,0
1168,5400001017262,新規,0,2026-01-05,2026-01-05,株式会社ＦＯＬＫＳ,,株式会社,岩手県,遠野市,中央通り１０番１号,,03,208,0280523,,,,,,,2026-01-05,1,,,,,フォークス,0
1169,5420001019372,新規,0,2026-01-05,2026-01-05,株式会社Ｋｅｎｓｈｉｎ,,株式会社,青森県,青森市,桜川５丁目１４番７号２階,,02,201,0300945,,,,,,,2026-01-05,1,,,,,ケンシン,0
1170,5420005007992,新規,0,2026-01-05,2026-01-05,医療法人副島胃腸科内科,,その他の設立登記法人,青森県,弘前市,大字稔町８番地１,,02,202,0368231,,,,,,,2026-01-05,1,,,,,ソエジマイチョウカナイカ,0
1173,5430001095958,新規,0,2026-01-05,2026-01-05,株式会社Ｒｓクリエイト,,株式会社,北海道,札幌市中央区,北六条西１０丁目５番地２０シティホーム札幌ステーションスクエア９０２号,,01,101,0600006,,,,,,,2026-01-05,1,,,,,アールズクリエイト,0
1174,5430001095966,新規,0,2026-01-05,2026-01-05,株式会社Ｓ　ＴＥＡＭ,,株式会社,北海道,札幌市南区,南三十四条西１１丁目７番１号,,01,106,0050034,,,,,,,2026-01-05,1,,,,,エスチーム,0
1175,5430001095974,新規,0,2026-01-05,2026-01-05,株式会社ＮＥＸＡＣＴ,,株式会社,北海道,札幌市中央区,南一条東２丁目５番地１ＭＩＩビル８階８００号室,00142041,01,101,0600051,,,,,,,2026-01-05,1,,,,,ネクスアクト,0
1183,5700150133813,新規,0,2026-01-05,2026-01-05,福岡銀行健康保険組合,,その他,福岡県,福岡市中央区,荒戸２丁目１番９号,,40,133,8100062,,,,,,,2026-01-05,1,,,,,フクオカギンコウケンコウホケンクミアイ,0
1184,5700150133821,新規,0,2026-01-05,2026-01-05,マキタ健康保険組合,,その他,愛知県,安城市,住吉町３丁目１１番８号,,23,212,4460072,,,,,,,2026-01-05,1,,,,,マキタケンコウホケンクミアイ,0
1190,6010001261493,新規,0,2026-01-05,2026-01-05,大夏株式会社,,株式会社,東京都,中央区,日本橋箱崎町６番９号ウィング箱崎ビル,,13,102,1030015,,,,,,,2026-01-05,1,,,,,タイカ,0
1193,6010003049821,新規,0,2026-01-05,2026-01-05,合同会社おもかじ,,合同会社,東京都,中央区,新川２丁目２７番４－１００６号,,13,102,1040033,,,,,,,2026-01-05,1,,,,,オモカジ,0
1194,6010003049854,新規,0,2026-01-05,2026-01-05,三重多気土羽蓄電合同会社,,合同会社,東京都,千代田区,神田東松下町１８番地高正ビル５階,,13,101,1010042,,,,,,,2026-01-05,1,,,,,ミエタキトバチクデン,0
1195,6010005041124,新規,0,2026-01-05,2026-01-05,一般社団法人助成金制度推進センター,,その他の設立登記法人,東京都,千代田区,神田神保町３丁目１１番６号神保町ビル１０階,,13,101,1010051,,,,,,,2026-01-05,1,,,,,ジョセイキンセイドスイシンセンター,0
1204,6010401195309,新規,0,2026-01-05,2026-01-05,株式会社ウーミージャパン,,株式会社,東京都,港区,六本木４丁目９－２俳優座ビル６０６号室,,13,103,1060032,,,,,,,2026-01-05,1,,,,,ウーミージャパン,0
1205,6010401195449,新規,0,2026-01-05,2026-01-05,Ｈｕｇｇｉｎｇ　Ｆａｃｅ株式会社,,株式会社,東京都,港区,赤坂２丁目１４番５号Ｄａｉｗａ赤坂ビル４階,,13,103,1070052,,,,,,,2026-01-05,1,,,,,ハギングフェース,0
1206,6010401195465,新規,0,2026-01-05,2026-01-05,株式会社夢を創って叶えるドリームプロダクション,,株式会社,東京都,港区,北青山１丁目３番１号アールキューブ青山３階,,13,103,1070061,,,,,,,2026-01-05,1,,,,,ユメヲツクッテカナエルドリームプロダクション,0
1207,6010401195531,新規,0,2026-01-05,2026-01-05,株式会社吹奏楽部,,株式会社,東京都,港区,浜松町２丁目２番１５号浜松町ダイヤビル２Ｆ,,13,103,1050013,,,,,,,2026-01-05,1,,,,,スイソウガクブ,0
1208,6010403036808,新規,0,2026-01-05,2026-01-05,合同会社Ｊ２,,合同会社,東京都,港区,新橋２丁目１６番１号６２８号室,,13,103,1050004,,,,,,,2026-01-05,1,,,,,ジェイツー,0
1209,6010403036898,新規,0,2026-01-05,2026-01-05,合同会社Ｎｅｘｔ　ｂｒｉｄｇｅ,,合同会社,東京都,港区,愛宕１丁目６番８号,,13,103,1050002,,,,,,,2026-01-05,1,,,,,ネクストブリッジ,0
1210,6010403036923,新規,0,2026-01-05,2026-01-05,Ｆｉｒｅｂｌｏｃｋｓ　Ｊａｐａｎ合同会社,,合同会社,東京都,港区,虎ノ門４丁目３番１号城山トラストタワー東京赤坂法律事務所内,,13,103,1050001,,,,,,,2026-01-05,1,,,,,ファイアブロックスジャパン,0
1215,6010603011998,新規,0,2026-01-05,2026-01-05,合同会社トイボックス・リリーシング,,合同会社,東京都,江東区,大島２丁目２１－１０コーポ今関２０２,,13,108,1360072,,,,,,,2026-01-05,1,,,,,トイボックスリリーシング,0
1223,6011001174470,新規,0,2026-01-05,2026-01-05,株式会社日本学道舎,,株式会社,東京都,渋谷区,千駄ヶ谷３丁目２番８号,,13,113,1510051,,,,,,,2026-01-05,1,,,,,ニッポンガクドウシャ,0
1224,6011001174495,新規,0,2026-01-05,2026-01-05,株式会社しんせ,,株式会社,東京都,渋谷区,代々木１丁目４０番４号ＪＧＷビル,,13,113,1510053,,,,,,,2026-01-05,1,,,,,シンセ,0
1225,6011001174545,新規,0,2026-01-05,2026-01-05,株式会社Ｖｏｌｔｅｃ,,株式会社,東京都,渋谷区,恵比寿西２丁目８番４号ＥＸ恵比寿西ビル５階,,13,113,1500021,,,,,,,2026-01-05,1,,,,,ボルテック,0
1226,6011001174578,新規,0,2026-01-05,2026-01-05,ＴＯＫＹＯ　ＧＩＲＬＳ　ＢＲＡＶＯ株式会社,,株式会社,東京都,渋谷区,恵比寿西２丁目４番８号ウィンド恵比寿ビル８Ｆ,,13,113,1500021,,,,,,,2026-01-05,1,,,,,トーキョーガールズブラボー,0
1227,6011001174702,新規,0,2026-01-05,2026-01-05,株式会社Ｂ‐ＰＬＡＮＮＩＮＧ,,株式会社,東京都,渋谷区,本町３丁目４８－２１新都心マンション１０３号,,13,113,1510071,,,,,,,2026-01-05,1,,,,,ビープランニング,0
1228,6011001174719,新規,0,2026-01-05,2026-01-05,株式会社福祉堂,,株式会社,東京都,目黒区,中目黒３丁目２０番１５号１Ｆ,,13,110,1530061,,,,,,,2026-01-05,1,,,,,フクシドウ,0
1232,6011101114368,新規,0,2026-01-05,2026-01-05,映像審査研究所Ｒ＆Ｄ株式会社,,株式会社,東京都,新宿区,荒木町１番地２２,,13,104,1600007,,,,,,,2026-01-05,1,,,,,エイゾウシンサケンキュウジョアールアンドディ,0
1234,6011301031157,新規,0,2026-01-05,2026-01-05,Ｓｎｏｗ　Ｅｄｇｅ株式会社,,株式会社,東京都,杉並区,上荻３丁目１６－１３,,13,115,1670043,,,,,,,2026-01-05,1,,,,,スノーエッジ,0
1235,6011401027690,新規,0,2026-01-05,2026-01-05,京＿株式会社,00142035,株式会社,東京都,板橋区,向原３丁目２番４号サンヒルズ向原Ａ３０７号室,,13,119,1730036,,,,,,,2026-01-05,1,,,,,キョウイク,0
1241,6011801047280,新規,0,2026-01-05,2026-01-05,株式会社ｔｅｃｈｍｉｒａｉ,,株式会社,東京都,足立区,加平２丁目１９－５－４０４,,13,121,1210055,,,,,,,2026-01-05,1,,,,,テックミライ,0
1244,6012803003957,新規,0,2026-01-05,2026-01-05,合同会社ＣＡＬＭ　Ｕ,,合同会社,東京都,東大和市,新堀３丁目２０－１八千代フラット１０２,,13,220,2070012,,,,,,,2026-01-05,1,,,,,カーム,0
1257,6020001166485,新規,0,2026-01-05,2026-01-05,ＮｅｕｒｏＵｎｌｅａｓｈ株式会社,,株式会社,神奈川県,横浜市神奈川区,金港町５－１４クアドリフォリオ８階,,14,102,2210056,,,,,,,2026-01-05,1,,,,,ニューロアンリーシュ,0
1258,6020001166527,新規,0,2026-01-05,2026-01-05,明治不動産株式会社,,株式会社,神奈川県,横浜市西区,北幸２丁目１０番４８号むつみビル３階,,14,103,2200004,,,,,,,2026-01-05,1,,,,,メイジフドウサン,0
1266,6030001170387,新規,0,2026-01-05,2026-01-05,株式会社Ｎａｖｉｒｉｓ,,株式会社,埼玉県,戸田市,本町４丁目６番１６－５０６号,,11,224,3350023,,,,,,,2026-01-05,1,,,,,ナビリス,0
1270,6040001141882,新規,0,2026-01-05,2026-01-05,株式会社トリプルバレル,,株式会社,千葉県,佐倉市,馬渡８８２番地,,12,212,2850804,,,,,,,2026-01-05,1,,,,,トリプルバレル,0
1284,6050001057806,新規,0,2026-01-05,2026-01-05,株式会社リソラフィ,,株式会社,茨城県,つくば市,梅園２丁目２８番地４３,,08,220,3050045,,,,,,,2026-01-05,1,,,,,リソラフィ,0
1293,6080001027351,新規,0,2026-01-05,2026-01-05,ノーブルサーブ株式会社,,株式会社,静岡県,静岡市駿河区,下川原６丁目２６番３０号,,22,102,4210113,,,,,,,2026-01-05,1,,,,,ノーブルサーブ,0
1312,6120001283048,新規,0,2026-01-05,2026-01-05,ＹＭ株式会社,,株式会社,大阪府,大阪市生野区,新今里５丁目７番６号新今里サクセスビル４０４,,27,116,5440001,,,,,,,2026-01-05,1,,,,,ワイエム,0
1313,6120001283064,新規,0,2026-01-05,2026-01-05,株式会社ＴＨＲ,,株式会社,大阪府,枚方市,津田東町２丁目５番１２号,,27,210,5730122,,,,,,,2026-01-05,1,,,,,ティエイチアール,0
1314,6120003031561,新規,0,2026-01-05,2026-01-05,合同会社ＣＨＲＯＭＥ,,合同会社,大阪府,大阪市北区,堂山町３番１５号鎌田ビル４階,,27,127,5300027,,,,,,,2026-01-05,1,,,,,クロム,0
1316,6120101073019,新規,0,2026-01-05,2026-01-05,株式会社Ａｒｉｓｔ,,株式会社,大阪府,堺市堺区,中瓦町１丁４―２２,,27,141,5900077,,,,,,,2026-01-05,1,,,,,アリスト,0
1320,6120103006918,新規,0,2026-01-05,2026-01-05,コモ商店合同会社,,合同会社,大阪府,堺市中区,土塔町３３７４－５,,27,142,5998234,,,,,,,2026-01-05,1,,,,,コモショウテン,0
1326,6130003011026,新規,0,2026-01-05,2026-01-05,Ｗｅｌｌｒｉｓｅ合同会社,,合同会社,京都府,京都市南区,八条内田町３９－１,,26,107,6018475,,,,,,,2026-01-05,1,,,,,ウェルライズ,0
1331,6140001141229,新規,0,2026-01-05,2026-01-05,心澪株式会社,,株式会社,兵庫県,加古川市,加古川町友沢３８２番地の３,,28,210,6750035,,,,,,,2026-01-05,1,,,,,ミレイ,0
1332,6140003022996,新規,0,2026-01-05,2026-01-05,合同会社ＳＭＩＬＥ７０,,合同会社,兵庫県,明石市,大明石町１丁目７番２７－５０３号東急ドエル・アルス明石エスタシア,,28,203,6730891,,,,,,,2026-01-05,1,,,,,スマイルセブンティ,0
1333,6140005027746,新規,0,2026-01-05,2026-01-05,社会保険労務士法人ＳＯＲＡ,,その他の設立登記法人,兵庫県,姫路市,太市中１６６番地,,28,201,6712233,,,,,,,2026-01-05,1,,,,,ソラ,0
1341,6180001170042,新規,0,2026-01-05,2026-01-05,株式会社ＲＥＡＬＥ,,株式会社,愛知県,名古屋市中区,栄４丁目１１－１０東京ビル５Ｆ,,23,106,4600008,,,,,,,2026-01-05,1,,,,,リエール,0
1355,6220001027089,新規,0,2026-01-05,2026-01-05,株式会社Ｌｉｖｅｓ,,株式会社,石川県,鹿島郡中能登町,芹川ぬ部３４番地４,,17,407,9291815,,,,,,,2026-01-05,1,,,,,リブズ,0
1357,6230001021223,新規,0,2026-01-05,2026-01-05,株式会社松永設備,,株式会社,富山県,富山市,八尾町井田新４１５０番地５,,16,201,9392305,,,,,,,2026-01-05,1,,,,,マツナガセツビ,0
1369,6290001112553,新規,0,2026-01-05,2026-01-05,ＪＥＴＯ株式会社,,株式会社,福岡県,福岡市東区,多の津５丁目４番１号,,40,131,8130034,,,,,,,2026-01-05,1,,,,,ゼト,0
1370,6290001112628,新規,0,2026-01-05,2026-01-05,株式会社ＳＪＡ三誠,,株式会社,福岡県,福岡市中央区,天神１丁目４番１号西日本新聞会館１６Ｆ,,40,133,8100001,,,,,,,2026-01-05,1,,,,,エスジェイエイサンセイ,0
1371,6290001112636,新規,0,2026-01-05,2026-01-05,株式会社ＣＯＲＥＦＬＯＷ,,株式会社,福岡県,福岡市中央区,天神２丁目２番１２号Ｔ＆Ｊビルディング７Ｆ,,40,133,8100001,,,,,,,2026-01-05,1,,,,,コアフロウ,0
1372,6290003017866,新規,0,2026-01-05,2026-01-05,合同会社大東,,合同会社,福岡県,福岡市南区,大橋１丁目１番１３号,,40,134,8150033,,,,,,,2026-01-05,1,,,,,ダイトウ,0
1373,6290003017890,新規,0,2026-01-05,2026-01-05,合同会社ＡＪ　Ｗｏｒｋｓ,,合同会社,福岡県,福岡市早良区,荒江２丁目１６番１２号アビタシオン荒江１０２,,40,137,8140021,,,,,,,2026-01-05,1,,,,,エージェイワークス,0
1376,6290801032133,新規,0,2026-01-05,2026-01-05,株式会社Ｉ’ｍｉ　Ｏｌａ,,株式会社,福岡県,行橋市,泉中央８丁目３０番１１号,,40,213,8240034,,,,,,,2026-01-05,1,,,,,イミオラ,0
1380,6300003002395,新規,0,2026-01-05,2026-01-05,合同会社ライフサポート,,合同会社,佐賀県,嬉野市,嬉野町大字下宿甲３０７３番地１１,,41,209,8430301,,,,,,,2026-01-05,1,,,,,ライフサポート,0
1382,6310001019903,新規,0,2026-01-05,2026-01-05,株式会社ＴＲＣ,,株式会社,長崎県,長崎市,晴海台町２番地１３,,42,201,8510402,,,,,,,2026-01-05,1,,,,,ティーアールシー,0
1386,6330001033869,新規,0,2026-01-05,2026-01-05,株式会社ＱＵＯＬ　ＨＥＡＲＴ,,株式会社,熊本県,熊本市中央区,帯山１丁目１２番８号,,43,101,8620924,,,,,,,2026-01-05,1,,,,,クオルハート,0
1387,6330003011369,新規,0,2026-01-05,2026-01-05,合同会社もやいの郷とまり木,,合同会社,熊本県,玉名市,玉名１７５１－３,,43,206,8650005,,,,,,,2026-01-05,1,,,,,モヤイノサトトマリギ,0
1388,6340005009930,新規,0,2026-01-05,2026-01-05,ＮＰＯ法人ＴＨＥ　ＣＯＮＡＮ’Ｓ　ＰＯＫＥＲ　ＲＯＯＭ,,その他の設立登記法人,鹿児島県,薩摩川内市,御陵下町１４番８号,,46,215,8950061,,,,,,,2026-01-05,1,,,,,ザコナンズポーカールーム,0
1390,6360001036209,新規,0,2026-01-05,2026-01-05,株式会社アイメディカル,,株式会社,沖縄県,浦添市,当山２丁目２番１１号バークレーズメディカルモール３階,,47,208,9012104,,,,,,,2026-01-05,1,,,,,アイメディカル,0
1391,6360003015516,新規,0,2026-01-05,2026-01-05,合同会社金幸Ｆｏｏｄ’ｓ,,合同会社,沖縄県,糸満市,西崎町３丁目５１０番地２６９,,47,210,9010306,,,,,,,2026-01-05,1,,,,,キンコウフーズ,0
1395,6370001053351,新規,0,2026-01-05,2026-01-05,株式会社輪堂,,株式会社,宮城県,大崎市,古川諏訪２丁目９番２２号,,04,215,9896175,,,,,,,2026-01-05,1,,,,,リンドウ,0
1396,6380001035778,新規,0,2026-01-05,2026-01-05,株式会社ジャパンウッドライフ,,株式会社,福島県,石川郡古殿町,大字田口字黒長２３,,07,505,9638306,,,,,,,2026-01-05,1,,,,,ジャパンウッドライフ,0
1398,6410005006672,新規,0,2026-01-05,2026-01-05,医療法人なかじま,,その他の設立登記法人,秋田県,秋田市,土崎港北２丁目１７番１７号,,05,201,0110941,,,,,,,2026-01-05,1,,,,,ナカジマ,0
1400,6420003003217,新規,0,2026-01-05,2026-01-05,合同会社はずみ,,合同会社,青森県,青森市,石江１丁目１９番地クレア・ド・ルーンＡ２０１号,,02,201,0380003,,,,,,,2026-01-05,1,,,,,ハズミ,0
1407,6430001095965,新規,0,2026-01-05,2026-01-05,ウィズ株式会社,,株式会社,北海道,札幌市白石区,菊水三条２丁目１番１０号リネット丸友２Ｆ,,01,104,0030803,,,,,,,2026-01-05,1,,,,,ウィズ,0
1412,6430005015382,新規,0,2026-01-05,2026-01-05,特定非営利活動法人デジたす,,その他の設立登記法人,北海道,札幌市南区,真駒内泉町２丁目２番２９号,,01,106,0050015,,,,,,,2026-01-05,1,,,,,デジタス,0
1415,6480001013047,新規,0,2026-01-05,2026-01-05,パワーエナジーランテック株式会社,,株式会社,徳島県,徳島市,栄町６丁目１６番地１,,36,201,7700921,,,,,,,2026-01-05,1,,,,,パワーエナジーランテック,0
1429,7010001261550,新規,0,2026-01-05,2026-01-05,株式会社パレット,,株式会社,東京都,中央区,銀座７丁目１３番２１号ＧｉｎｚａＲｏｋｕｓｈｕビル２階,,13,102,1040061,,,,,,,2026-01-05,1,,,,,パレット,0
1430,7010003049853,新規,0,2026-01-05,2026-01-05,栃木那須塩原蓄電合同会社,,合同会社,東京都,千代田区,神田東松下町１８番地高正ビル５階,,13,101,1010042,,,,,,,2026-01-05,1,,,,,トチギナスシオバラチクデン,0
1431,7010003049878,新規,0,2026-01-05,2026-01-05,合同会社メドキー,,合同会社,東京都,文京区,小石川５丁目１０番１８－５０１号,,13,105,1120002,,,,,,,2026-01-05,1,,,,,メドキー,0
1438,7010401195530,新規,0,2026-01-05,2026-01-05,株式会社テン,,株式会社,東京都,港区,北青山１丁目３－３三橋ビル３階,,13,103,1070061,,,,,,,2026-01-05,1,,,,,テン,0
1439,7010401195563,新規,0,2026-01-05,2026-01-05,Ｈ＆Ｓ　ＳＴＹＬＥＳ株式会社,,株式会社,東京都,港区,高輪３丁目１４番３６号エスホームズ高輪５０１,,13,103,1080074,,,,,,,2026-01-05,1,,,,,エイチアンドエススタイルズ,0
1441,7010403036914,新規,0,2026-01-05,2026-01-05,合同会社プラスエム,,合同会社,東京都,港区,虎ノ門１丁目１７番１号虎ノ門ヒルズビジネスタワー１５階,,13,103,1050001,,,,,,,2026-01-05,1,,,,,プラスエム,0
1446,7010601068503,新規,0,2026-01-05,2026-01-05,きららビジネスデザイン株式会社,,株式会社,東京都,墨田区,京島１丁目８番８号,,13,107,1310046,,,,,,,2026-01-05,1,,,,,キララビジネスデザイン,0
1447,7010601068511,新規,0,2026-01-05,2026-01-05,再エネスマイル株式会社,,株式会社,東京都,江東区,白河３丁目２番８号,,13,108,1350021,,,,,,,2026-01-05,1,,,,,サイエネスマイル,0
1451,7010803005659,新規,0,2026-01-05,2026-01-05,ＳＥＥ合同会社,,合同会社,東京都,大田区,中央８丁目１５番５号,,13,111,1430024,,,,,,,2026-01-05,1,,,,,エスイーイー,0
1460,7011001174189,新規,0,2026-01-05,2026-01-05,株式会社ＦＳＳ,,株式会社,東京都,渋谷区,神南１丁目１１番４号ＦＰＧリンクス神南５階,,13,113,1500041,,,,,,,2026-01-05,1,,,,,エフエスエス,0
1461,7011001174503,新規,0,2026-01-05,2026-01-05,Ｓｕｋｉ株式会社,,株式会社,東京都,渋谷区,宇田川町３－７ヒューリック渋谷公園通りビル５Ｆ－１３３,,13,113,1500042,,,,,,,2026-01-05,1,,,,,スキ,0
1462,7011001174544,新規,0,2026-01-05,2026-01-05,株式会社ニコフク,,株式会社,東京都,目黒区,目黒本町３丁目２番１８号宮本ビル３Ｆ,,13,110,1520002,,,,,,,2026-01-05,1,,,,,ニコフク,0
1465,7011103016875,新規,0,2026-01-05,2026-01-05,エンターテック合同会社,,合同会社,東京都,新宿区,西新宿２丁目６－１,,13,104,1600023,,,,,,,2026-01-05,1,,,,,エンターテック,0
1479,7011403004992,新規,0,2026-01-05,2026-01-05,合同会社フォレスト不動産,,合同会社,東京都,板橋区,南常盤台１丁目１３番１９号,,13,119,1740072,,,,,,,2026-01-05,1,,,,,フォレストフドウサン,0
1480,7011603004966,新規,0,2026-01-05,2026-01-05,合同会社えまお屋,,合同会社,東京都,練馬区,光が丘７丁目６番１９－７０７号,,13,120,1790072,,,,,,,2026-01-05,1,,,,,エマオヤ,0
1482,7012301014662,新規,0,2026-01-05,2026-01-05,株式会社ＹＮＧ,,株式会社,東京都,町田市,野津田町１８１７番地２０,,13,209,1950063,,,,,,,2026-01-05,1,,,,,ワイエヌジー,0
1497,7020001166492,新規,0,2026-01-05,2026-01-05,カプセルコーポレーション・ヨコハマ株式会社,,株式会社,神奈川県,横浜市神奈川区,金港町５番地１４クアドリフォリオ８階,,14,102,2210056,,,,,,,2026-01-05,1,,,,,カプセルコーポレーションヨコハマ,0
1498,7020001166518,新規,0,2026-01-05,2026-01-05,株式会社ヴイコー・テクノロジー・ジャパン,,株式会社,神奈川県,川崎市幸区,新小倉２番１－１１０７号,,14,132,2120031,,,,,,,2026-01-05,1,,,,,ヴイコーテクノロジージャパン,0
1501,7020003030052,新規,0,2026-01-05,2026-01-05,合同会社Ｍｉｃｏ・ｉ・Ｏｆｆｉｃｅ,,合同会社,神奈川県,川崎市中原区,中丸子３５番地９ディール武蔵小杉４Ｆ,,14,133,2110012,,,,,,,2026-01-05,1,,,,,ミコアイオフィス,0
1509,7021001087142,新規,0,2026-01-05,2026-01-05,株式会社ナガサカ建商,,株式会社,神奈川県,大和市,大和東３丁目１－７－８０１,,14,213,2420017,,,,,,,2026-01-05,1,,,,,ナガサカケンショウ,0
1513,7030001170337,新規,0,2026-01-05,2026-01-05,クラークノヴァ株式会社,,株式会社,埼玉県,所沢市,大字山口１８６１－２６プレシャスビル３階,,11,208,3591145,,,,,,,2026-01-05,1,,,,,クラークノヴァ,0
1514,7030001170345,新規,0,2026-01-05,2026-01-05,株式会社ＳＨＩＮＡＩ,,株式会社,埼玉県,春日部市,南５丁目１番５９号,,11,214,3440064,,,,,,,2026-01-05,1,,,,,シンアイ,0
1522,7040001141964,新規,0,2026-01-05,2026-01-05,株式会社ＳＡＩＭ・ＴＲＡＤＩＮＧ,,株式会社,千葉県,流山市,大字西深井８２１番地の２４コーポ中村３,,12,220,2700107,,,,,,,2026-01-05,1,,,,,サイムトレーディング,0
1530,7070001043687,新規,0,2026-01-05,2026-01-05,ＭＡＹ’Ｓ　Ｂｏｎａ株式会社,,株式会社,群馬県,佐波郡玉村町,大字藤川２３８番地３,,10,464,3701101,,,,,,,2026-01-05,1,,,,,メイズボナ,0
1535,7080001027350,新規,0,2026-01-05,2026-01-05,株式会社ひかりエステート,,株式会社,静岡県,静岡市葵区,安西３丁目２０番地,,22,101,4200011,,,,,,,2026-01-05,1,,,,,ヒカリエステート,0
1537,7080101025980,新規,0,2026-01-05,2026-01-05,継創舎株式会社,,株式会社,静岡県,御殿場市,萩原１１４２番地４５,,22,215,4120042,,,,,,,2026-01-05,1,,,,,ケイソウシャ,0
1559,7120001283047,新規,0,2026-01-05,2026-01-05,Ｋａｉｓｅｎ株式会社,,株式会社,大阪府,大阪市淀川区,十三本町１丁目１８－７－８０１号室,,27,123,5320024,,,,,,,2026-01-05,1,,,,,カイセン,0
1560,7120001283113,新規,0,2026-01-05,2026-01-05,株式会社活力共創研究所,,株式会社,大阪府,大阪市淀川区,西中島４丁目３番２号,,27,123,5320011,,,,,,,2026-01-05,1,,,,,カツリョクキョウソウケンキュウショ,0
1561,7120001283121,新規,0,2026-01-05,2026-01-05,株式会社エネイブル,,株式会社,大阪府,大阪市北区,堂島１丁目３番１号,,27,127,5300003,,,,,,,2026-01-05,1,,,,,エネイブル,0
1562,7120001283146,新規,0,2026-01-05,2026-01-05,株式会社リネンプラス,,株式会社,大阪府,大阪市城東区,天王田６番２号,,27,118,5360012,,,,,,,2026-01-05,1,,,,,リネンプラス,0
1563,7120001283179,新規,0,2026-01-05,2026-01-05,株式会社ａｍａｆｌｏｗ,,株式会社,大阪府,大阪市中央区,東心斎橋２丁目６番５号エイトワンビル３０３号室,,27,128,5420083,,,,,,,2026-01-05,1,,,,,エマフロー,0
1566,7120003031569,新規,0,2026-01-05,2026-01-05,合同会社きらめき,,合同会社,大阪府,大阪市天王寺区,上本町５丁目７－１９,,27,109,5430001,,,,,,,2026-01-05,1,,,,,キラメキ,0
1568,7120101073018,新規,0,2026-01-05,2026-01-05,株式会社ＦＩＦＴＨ　ＰＥＡＣＥ,,株式会社,大阪府,堺市堺区,宿院町西３丁２－１４－９０４,,27,141,5900958,,,,,,,2026-01-05,1,,,,,フィフスピース,0
1581,7140001141236,新規,0,2026-01-05,2026-01-05,株式会社インフィニティ,,株式会社,兵庫県,神戸市西区,春日台４丁目１１番地の１１,,28,111,6512276,,,,,,,2026-01-05,1,,,,,インフィニティ,0
1584,7140005027745,新規,0,2026-01-05,2026-01-05,一般社団法人スタイリストカウンセリング協会,,その他の設立登記法人,兵庫県,神戸市中央区,山本通２丁目１４－２０アンカーハウス４０６号,,28,110,6500003,,,,,,,2026-01-05,1,,,,,スタイリストカウンセリングキョウカイ,0
1590,7180001170058,新規,0,2026-01-05,2026-01-05,Ｓｏｌｅｎｓｉ　Ｆｏｒｍａ株式会社,,株式会社,愛知県,尾張旭市,印場元町１丁目３番地６,,23,226,4880840,,,,,,,2026-01-05,1,,,,,ソレンシフォルマ,0
1591,7180001170082,新規,0,2026-01-05,2026-01-05,株式会社ＭＳ価値創造機構,,株式会社,愛知県,名古屋市中村区,名駅４丁目２４番５号第２森ビル４０１,,23,105,4500002,,,,,,,2026-01-05,1,,,,,エムエスカチソウゾウキコウ,0
1603,7200001044564,新規,0,2026-01-05,2026-01-05,ナチュラルパーク株式会社,,株式会社,岐阜県,中津川市,蛭川５２６３番地９,,21,206,5098301,,,,,,,2026-01-05,1,,,,,ナチュラルパーク,0
1604,7210003001991,新規,0,2026-01-05,2026-01-05,合同会社ＳＨＩＫＩ,,合同会社,福井県,福井市,開発５丁目１１１８番地,,18,201,9100842,,,,,,,2026-01-05,1,,,,,シキ,0
1612,7240003007540,新規,0,2026-01-05,2026-01-05,合同会社ＳＫＹ建装,,合同会社,広島県,福山市,城興ケ丘２２－８,,34,207,7210929,,,,,,,2026-01-05,1,,,,,スカイケンソウ,0
1625,7290003017857,新規,0,2026-01-05,2026-01-05,ドイツ哲学及びテクノロジー共創合同会社,,合同会社,福岡県,福岡市中央区,天神２丁目３番１０号天神パインクレスト７１９号,,40,133,8100001,,,,,,,2026-01-05,1,,,,,ドイツテツガクオヨビテクノロジーキョウソウ,0
1630,7290801032132,新規,0,2026-01-05,2026-01-05,株式会社コラボＬａｂｏ,,株式会社,福岡県,北九州市八幡西区,丸尾町３番１－１０１号,,40,109,8070826,,,,,,,2026-01-05,1,,,,,コラボラボ,0
1633,7300003002394,新規,0,2026-01-05,2026-01-05,合同会社ＢａｃＫＵＰ,,合同会社,佐賀県,鳥栖市,宿町１０４７番地１ベルリード弐番館１０１,,41,203,8410052,,,,,,,2026-01-05,1,,,,,バックアップ,0
1640,7330005010995,新規,0,2026-01-05,2026-01-05,一般社団法人Ａｕｔｈｏｒｉｚｅｄ　Ｃａｎｎａｂｉｎｏｉｄ,,その他の設立登記法人,熊本県,熊本市中央区,神水本町１番１－１３０２号,,43,101,8620955,,,,,,,2026-01-05,1,,,,,オーソライズドカンナビノイド,0
1642,7360005007345,新規,0,2026-01-05,2026-01-05,一般社団法人宝樹,,その他の設立登記法人,沖縄県,豊見城市,字与根５５０番地１２,,47,212,9010224,,,,,,,2026-01-05,1,,,,,ホウジュ,0
1647,7420001019379,新規,0,2026-01-05,2026-01-05,株式会社アースグリーン,,株式会社,青森県,青森市,古川３丁目３番２３号,,02,201,0300862,,,,,,,2026-01-05,1,,,,,アースグリーン,0
1649,7430001095972,新規,0,2026-01-05,2026-01-05,株式会社ノーストラフィック,,株式会社,北海道,札幌市手稲区,明日風２丁目１１番１２号,,01,109,0060861,,,,,,,2026-01-05,1,,,,,ノーストラフィック,0
1651,7430005015381,新規,0,2026-01-05,2026-01-05,特定非営利活動法人実生研究所,,その他の設立登記法人,北海道,勇払郡安平町,早来富岡２９５番地１１,,01,585,0591434,,,,,,,2026-01-05,1,,,,,ミショウケンキュウジョ,0
1653,7460301005331,新規,0,2026-01-05,2026-01-05,株式会社フィルクリエイション,,株式会社,北海道,北見市,北四条西４丁目２番地スターライトビル１階,,01,208,0900044,,,,,,,2026-01-05,1,,,,,フィルクリエイション,0
1671,8010001261483,新規,0,2026-01-05,2026-01-05,Ｂｅｒｒｙｔｉｃｋ株式会社,,株式会社,東京都,千代田区,神田錦町３丁目１５番地錦精社神田ビル天翔オフィス大手町竹橋１階１０６号室,,13,101,1010054,,,,,,,2026-01-05,1,,,,,ベリティック,0
1672,8010001261574,新規,0,2026-01-05,2026-01-05,株式会社Ｌｏｏｓｅｎ　ｕｐ,,株式会社,東京都,千代田区,九段北１丁目７番８号,,13,101,1020073,,,,,,,2026-01-05,1,,,,,ルーサンアップ,0
1675,8010003049679,新規,0,2026-01-05,2026-01-05,資誠合同会社,,合同会社,東京都,文京区,湯島３丁目８番５号,,13,105,1130034,,,,,,,2026-01-05,1,,,,,シセイ,0
1676,8010003049687,新規,0,2026-01-05,2026-01-05,合同会社ＴａｂｉＡＩ,,合同会社,東京都,中央区,日本橋茅場町２丁目８－１ＢＲＩＣＫＧＡＴＥ茅場町Ｂ１Ｆ,,13,102,1030025,,,,,,,2026-01-05,1,,,,,タビエーアイ,0
1677,8010003049803,新規,0,2026-01-05,2026-01-05,合同会社ユーエステック歯科技工部,,合同会社,東京都,千代田区,神田美土代町７番地８五木田ビル２Ｆ,,13,101,1010053,,,,,,,2026-01-05,1,,,,,ユーエステックシカギコウブ,0
1678,8010003049828,新規,0,2026-01-05,2026-01-05,トポス・テック合同会社,,合同会社,東京都,中央区,日本橋浜町２丁目１番９－３０１号,,13,102,1030007,,,,,,,2026-01-05,1,,,,,トポステック,0
1679,8010005041130,新規,0,2026-01-05,2026-01-05,ロジ一般社団法人,,その他の設立登記法人,東京都,中央区,日本橋兜町５番１号兜町第１平和ビル７階レコルテ内,,13,102,1030026,,,,,,,2026-01-05,1,,,,,ロジ,0
1686,8010401195439,新規,0,2026-01-05,2026-01-05,株式会社インウィット・ハブ,,株式会社,東京都,港区,赤坂６丁目３番１２号,,13,103,1070052,,,,,,,2026-01-05,1,,,,,インウィットハブ,0
1687,8010401195496,新規,0,2026-01-05,2026-01-05,株式会社ＳｌｏｗＲｕｓｈ,,株式会社,東京都,港区,六本木４丁目１－２８グレイハウス４階,,13,103,1060032,,,,,,,2026-01-05,1,,,,,スローラッシュ,0
1690,8010403036921,新規,0,2026-01-05,2026-01-05,Ｈａｒａｎ　Ｍｉｍｉ合同会社,,合同会社,東京都,港区,六本木３丁目１６番１２号六本木ＫＳビル５Ｆ,,13,103,1060032,,,,,,,2026-01-05,1,,,,,ハランミミ,0
1691,8010403036946,新規,0,2026-01-05,2026-01-05,合同会社ＨＴＫ,,合同会社,東京都,港区,南麻布５丁目１０番９－５０１号,,13,103,1060047,,,,,,,2026-01-05,1,,,,,エイチティーケー,0
1692,8010403036954,新規,0,2026-01-05,2026-01-05,Ｃ‐ＥＥＬ合同会社,,合同会社,東京都,港区,芝２丁目１８－９,,13,103,1050014,,,,,,,2026-01-05,1,,,,,,0
1697,8010501055237,新規,0,2026-01-05,2026-01-05,株式会社天狐,,株式会社,東京都,台東区,浅草２丁目７番２５号,,13,106,1110032,,,,,,,2026-01-05,1,,,,,テンコ,0
1700,8010601068452,新規,0,2026-01-05,2026-01-05,ＲＩＪＥＸＡ株式会社,,株式会社,東京都,江東区,有明３丁目７番２６号有明フロンティアビルＢ棟９階,,13,108,1350063,,,,,,,2026-01-05,1,,,,,リジェクサ,0
1701,8010601068477,新規,0,2026-01-05,2026-01-05,株式会社キャリアガーデン,,株式会社,東京都,江東区,清澄３丁目８番１３号,,13,108,1350024,,,,,,,2026-01-05,1,,,,,キャリアガーデン,0
1702,8010601068493,新規,0,2026-01-05,2026-01-05,金杉株式会社,,株式会社,東京都,江東区,豊洲６丁目２番３１－６１０号,,13,108,1350061,,,,,,,2026-01-05,1,,,,,カナスギ,0
1703,8010601068510,新規,0,2026-01-05,2026-01-05,株式会社ｂｌｕｅｍ,,株式会社,東京都,江東区,亀戸１丁目１９番６－１３０７号,,13,108,1360071,,,,,,,2026-01-05,1,,,,,ブルーム,0
1704,8010603011996,新規,0,2026-01-05,2026-01-05,合同会社Ｂｕｄｄｙ,,合同会社,東京都,墨田区,東墨田２丁目２３番９号,,13,107,1310042,,,,,,,2026-01-05,1,,,,,バディ,0
1720,8010903010525,新規,0,2026-01-05,2026-01-05,福ノ門合同会社,,合同会社,東京都,世田谷区,三宿２丁目１６番１０号コーシャハイム三宿テラス２１８号,,13,112,1540005,,,,,,,2026-01-05,1,,,,,,0
1732,8011403004991,新規,0,2026-01-05,2026-01-05,悦幸合同会社,,合同会社,東京都,板橋区,板橋１丁目１３番１０号アーバンクレスト板橋１０２,,13,119,1730004,,,,,,,2026-01-05,1,,,,,エツコウ,0
1742,8012401043965,新規,0,2026-01-05,2026-01-05,トモニナル株式会社,,株式会社,東京都,狛江市,和泉本町１丁目３番５－８０４号,,13,219,2010003,,,,,,,2026-01-05,1,,,,,トモニナル,0
1744,8012405005202,新規,0,2026-01-05,2026-01-05,一般社団法人未来創生研究所,,その他の設立登記法人,東京都,武蔵野市,吉祥寺東町１丁目２３番２０号,,13,203,1800002,,,,,,,2026-01-05,1,,,,,ミライソウセイケンキュウジョ,0
1754,8020001166483,新規,0,2026-01-05,2026-01-05,株式会社ＳＹＮＦＡＣＴＵＲＥ,,株式会社,神奈川県,横浜市都筑区,佐江戸町８８６番地３,,14,118,2240054,,,,,,,2026-01-05,1,,,,,シンファクチュア,0
1755,8020001166491,新規,0,2026-01-05,2026-01-05,ＡＢＣ株式会社,,株式会社,神奈川県,川崎市川崎区,港町五丁目２番地１６０４,,14,131,2100807,,,,,,,2026-01-05,1,,,,,エービーシー,0
1757,8020003030051,新規,0,2026-01-05,2026-01-05,ＷＨＩＴＥ　ＳＴＡＲ合同会社,,合同会社,神奈川県,横浜市保土ケ谷区,天王町１丁目２０番地１７‐１階,,14,106,2400003,,,,,,,2026-01-05,1,,,,,ホワイトスター,0
1760,8030001170286,新規,0,2026-01-05,2026-01-05,Ｔａｌｅｎｔ　Ｐｏｏｌ株式会社,,株式会社,埼玉県,川口市,並木３丁目１５番１９号中銀並木パークマンシオン３０４,,11,203,3320034,,,,,,,2026-01-05,1,,,,,タレントプール,0
1761,8030001170336,新規,0,2026-01-05,2026-01-05,株式会社ＢＯＮＤＳＨＯＵＳＥ,,株式会社,埼玉県,川越市,大字今福２０００番地９,,11,201,3501151,,,,,,,2026-01-05,1,,,,,ボンズハウス,0
1762,8030001170344,新規,0,2026-01-05,2026-01-05,株式会社ＫＰＭ精工,,株式会社,埼玉県,坂戸市,大字青木１３３番地６,,11,239,3500207,,,,,,,2026-01-05,1,,,,,ケーピーエムセイコウ,0
1763,8030001170360,新規,0,2026-01-05,2026-01-05,株式会社シンドウ管理,,株式会社,埼玉県,さいたま市南区,沼影１丁目１１番２号Ｃ－２２０３,,11,108,3360027,,,,,,,2026-01-05,1,,,,,シンドウカンリ,0
1765,8030003028284,新規,0,2026-01-05,2026-01-05,合同会社ももうめ,,合同会社,埼玉県,春日部市,緑町１丁目１４番６２－３号,,11,214,3440063,,,,,,,2026-01-05,1,,,,,モモウメ,0
1766,8030003028359,新規,0,2026-01-05,2026-01-05,ＴＨＥＡアセット合同会社,,合同会社,埼玉県,越谷市,瓦曽根２丁目４番６８－４号,,11,222,3430821,,,,,,,2026-01-05,1,,,,,ティアアセット,0
1777,8050001057812,新規,0,2026-01-05,2026-01-05,Ｓｈａｒｅｅ　Ｓｈａｎ　Ｔｒａｄｉｎｇ株式会社,,株式会社,茨城県,古河市,東山田５８１番地８フラップタウン（Ｃ―１２）,,08,204,3060112,,,,,,,2026-01-05,1,,,,,シャーリシャーントレーディング,0
1779,8050003009844,新規,0,2026-01-05,2026-01-05,ＴＡＴＳＵＭＩ　ＧＬＯＢＡＬ　ＰＡＲＴＮＥＲＳ合同会社,,合同会社,茨城県,結城市,大字田間１０１３番地１,,08,207,3070044,,,,,,,2026-01-05,1,,,,,タツミグローバルパートナーズ,0
1782,8070001043694,新規,0,2026-01-05,2026-01-05,水澤技建株式会社,,株式会社,群馬県,前橋市,荻窪町１２５７番地１０,,10,201,3710001,,,,,,,2026-01-05,1,,,,,ミズサワギケン,0
1783,8070003006237,新規,0,2026-01-05,2026-01-05,ハッピーバレー合同会社,,合同会社,群馬県,伊勢崎市,下道寺町４３１番地,,10,204,3720843,,,,,,,2026-01-05,1,,,,,ハッピーバレー,0
1793,8080401028352,新規,0,2026-01-05,2026-01-05,株式会社ユメ広,,株式会社,静岡県,袋井市,浅羽２７４―１―２,,22,216,4371101,,,,,,,2026-01-05,1,,,,,ユメヒロ,0
1797,8100001039227,新規,0,2026-01-05,2026-01-05,手打蕎麦よつかど株式会社,,株式会社,長野県,長野市,戸隠２１７９ー４,,20,201,3814101,,,,,,,2026-01-05,1,,,,,テウチソバヨツカド,0
1809,8120001283054,新規,0,2026-01-05,2026-01-05,株式会社ＣｏＳｔａｒ,,株式会社,大阪府,大阪市中央区,平野町４丁目６番１１号２階,,27,128,5410046,,,,,,,2026-01-05,1,,,,,コスター,0
1810,8120001283137,新規,0,2026-01-05,2026-01-05,株式会社ＣＵＯＲＥ,,株式会社,大阪府,枚方市,南楠葉１丁目６‐２５,,27,210,5731105,,,,,,,2026-01-05,1,,,,,クオレ,0
1811,8120003031568,新規,0,2026-01-05,2026-01-05,ＩＦ１００合同会社,,合同会社,大阪府,大阪市北区,梅田１丁目１－３大阪駅前第３ビル２９階１－１－１号室,,27,127,5300001,,,,,,,2026-01-05,1,,,,,イフヒャク,0
1816,8120101073009,新規,0,2026-01-05,2026-01-05,株式会社シーエム・アンド,,株式会社,大阪府,堺市北区,北花田町４丁１０３番地９,,27,146,5918002,,,,,,,2026-01-05,1,,,,,シーエムアンド,0
1828,8140001141210,新規,0,2026-01-05,2026-01-05,株式会社華宸不動産,,株式会社,兵庫県,神戸市兵庫区,南仲町１－５南仲ＴＯビル２０４,,28,105,6520841,,,,,,,2026-01-05,1,,,,,カシンフドウサン,0
1830,8140003023019,新規,0,2026-01-05,2026-01-05,合同会社Ｍａｈａｌｏ　ｔｋａ,,合同会社,兵庫県,神戸市灘区,赤坂通３丁目５番８号,,28,102,6570821,,,,,,,2026-01-05,1,,,,,マハロトカ,0
1837,8180001170049,新規,0,2026-01-05,2026-01-05,株式会社グローリーフィールズ,,株式会社,愛知県,名古屋市西区,栄生３丁目１４番２０号,,23,104,4510052,,,,,,,2026-01-05,1,,,,,グローリーフィールズ,0
1838,8180001170057,新規,0,2026-01-05,2026-01-05,株式会社秀栄コーポレーション,,株式会社,愛知県,名古屋市守山区,下志段味２丁目９１４番地,,23,113,4630003,,,,,,,2026-01-05,1,,,,,シュウエイコーポレーション,0
1839,8180001170065,新規,0,2026-01-05,2026-01-05,株式会社Ｋ‐ＴＲＵＳＴ,,株式会社,愛知県,瀬戸市,穴田町２５０番地の１,,23,204,4890003,,,,,,,2026-01-05,1,,,,,ケートラスト,0
1844,8180301040546,新規,0,2026-01-05,2026-01-05,株式会社ミコシヤ,,株式会社,愛知県,安城市,東栄町２丁目７番１７号サングリーンビル２Ｆ－Ｃ,,23,212,4460007,,,,,,,2026-01-05,1,,,,,ミコシヤ,0
1845,8180301040554,新規,0,2026-01-05,2026-01-05,株式会社ファミーユ・ジャパン,,株式会社,愛知県,田原市,谷熊町堂代２２番地,,23,231,4413412,,,,,,,2026-01-05,1,,,,,ファミーユジャパン,0
1857,8210003001990,新規,0,2026-01-05,2026-01-05,合同会社Ｅｉｓｉｎ,,合同会社,福井県,小浜市,志積第１５号２番地,,18,204,9170103,,,,,,,2026-01-05,1,,,,,エイシン,0
1859,8220001027095,新規,0,2026-01-05,2026-01-05,株式会社建昇石川,,株式会社,石川県,鳳珠郡穴水町,字小又イ３,,17,461,9270051,,,,,,,2026-01-05,1,,,,,ケンショウイシカワ,0
1862,8220003004200,新規,0,2026-01-05,2026-01-05,合同会社金沢手しごと家,,合同会社,石川県,金沢市,間明町２丁目８０番地１,,17,201,9218005,,,,,,,2026-01-05,1,,,,,カナザワテシゴトヤ,0
1864,8240001065977,新規,0,2026-01-05,2026-01-05,株式会社ホームアシスト,,株式会社,広島県,広島市中区,大手町１丁目１－２０相生橋ビル７階Ａ号室,,34,101,7300051,,,,,,,2026-01-05,1,,,,,,0
1865,8240001065985,新規,0,2026-01-05,2026-01-05,環翠書道株式会社,,株式会社,広島県,広島市中区,幟町３番５５－３０１号,,34,101,7300016,,,,,,,2026-01-05,1,,,,,カンスイショドウ,0
1874,8290003017889,新規,0,2026-01-05,2026-01-05,合同会社ネクステージ,,合同会社,福岡県,福岡市東区,箱崎１丁目２８－１５－２０１,,40,131,8120053,,,,,,,2026-01-05,1,,,,,ネクステージ,0
1879,8290805009893,新規,0,2026-01-05,2026-01-05,特定非営利活動法人Ｂｌｕｅ＆Ｇｒｅｅｎ,,その他の設立登記法人,福岡県,直方市,大字永満寺２７３５番地２,,40,204,8220005,,,,,,,2026-01-05,1,,,,,ブルーアンドグリーン,0
1880,8300001014457,新規,0,2026-01-05,2026-01-05,株式会社ＭＵＲＡＯＫＡ,,株式会社,佐賀県,佐賀市,鍋島町大字八戸溝１７１７番地,,41,201,8490932,,,,,,,2026-01-05,1,,,,,ムラオカ,0
1881,8300003002393,新規,0,2026-01-05,2026-01-05,合同会社Ｓｍｉｌｅｐｏｄｔｒｅｅ,,合同会社,佐賀県,三養基郡基山町,大字宮浦４８６番地９９,,41,341,8410204,,,,,,,2026-01-05,1,,,,,スマイルポッドツリー,0
1886,8320003004867,新規,0,2026-01-05,2026-01-05,合同会社伍平,,合同会社,大分県,大分市,中島中央３丁目４番２６号中島中央ビル２０３,,44,201,8700049,,,,,,,2026-01-05,1,,,,,ゴヘエ,0
1905,8430001095947,新規,0,2026-01-05,2026-01-05,株式会社木の種社,,株式会社,北海道,勇払郡厚真町,字美里２０４番地,,01,581,0591625,,,,,,,2026-01-05,1,,,,,キノタネシャ,0
1906,8430001095963,新規,0,2026-01-05,2026-01-05,株式会社オンアイケー,,株式会社,北海道,札幌市北区,北八条西１丁目３番地ＯＮＥ札幌ステーションタワー３９１７号,,01,102,0600808,,,,,,,2026-01-05,1,,,,,オンアイケー,0
1907,8430001095971,新規,0,2026-01-05,2026-01-05,株式会社Ｐｏｐ＆Ｃｏ．,,株式会社,北海道,札幌市中央区,南五条西１５丁目２－３－５０３,,01,101,0640805,,,,,,,2026-01-05,1,,,,,ポップアンドコー,0
1929,9010001261284,新規,0,2026-01-05,2026-01-05,辰臣建設株式会社,,株式会社,東京都,千代田区,神田和泉町１－６－１６,,13,101,1010024,,,,,,,2026-01-05,1,,,,,タツシンケンセツ,0
1930,9010001261400,新規,0,2026-01-05,2026-01-05,株式会社コバ,,株式会社,東京都,文京区,小日向２丁目３０番７号ひかりコーポ小日向１０６,,13,105,1120006,,,,,,,2026-01-05,1,,,,,コバ,0
1931,9010001261458,新規,0,2026-01-05,2026-01-05,株式会社リュクスヘルス,,株式会社,東京都,千代田区,神田佐久間町３丁目２８星野ビル,,13,101,1010025,,,,,,,2026-01-05,1,,,,,リュクスヘルス,0
1932,9010001261508,新規,0,2026-01-05,2026-01-05,株式会社ルミスト,,株式会社,東京都,千代田区,西神田２丁目１番８号ＶＯＲＴ神保町ＩＩＩ５階,00142034,13,101,1010065,,,,,,,2026-01-05,1,,,,,ルミスト,0
1933,9010001261573,新規,0,2026-01-05,2026-01-05,株式会社Ｈａｓｉｏｎ,,株式会社,東京都,千代田区,神田須田町１丁目７番８号ＶＯＲＴ秋葉原ＩＶ２Ｆ,00142040,13,101,1010041,,,,,,,2026-01-05,1,,,,,ハルシオン,0
1934,9010003049901,新規,0,2026-01-05,2026-01-05,合同会社Ａｌｌｙ,,合同会社,東京都,中央区,佃２丁目１番２－３９０５号,,13,102,1040051,,,,,,,2026-01-05,1,,,,,アリー,0
1936,9010103002727,新規,0,2026-01-05,2026-01-05,合同会社ツキヨミノ,,合同会社,東京都,八王子市,東町１番１０号グランデハイツ八王子８０１,,13,201,1920082,,,,,,,2026-01-05,1,,,,,ツキヨミノ,0
1942,9010401195413,新規,0,2026-01-05,2026-01-05,株式会社Ｔｈｉｎｋ　Ｐａｔｈ,,株式会社,東京都,港区,北青山３丁目１５番１６号,,13,103,1070061,,,,,,,2026-01-05,1,,,,,シンクパス,0
1943,9010401195454,新規,0,2026-01-05,2026-01-05,ＡＩ　Ｒｅｍｏｔｅ　Ｓｅｃｕｒｉｔｙ株式会社,,株式会社,東京都,港区,海岸１丁目７番１号,,13,103,1050022,,,,,,,2026-01-05,1,,,,,エーアイリモートセキュリティ,0
1944,9010401195487,新規,0,2026-01-05,2026-01-05,Ｌｉｎｋ‐Ｄ　Ｐａｒｔｎｅｒｓ株式会社,,株式会社,東京都,港区,赤坂２丁目１４－５Ｄａｉｗａ赤坂ビル２階ＬｅｇａｌＳｑｕａｒｅ,,13,103,1070052,,,,,,,2026-01-05,1,,,,,リンクディーパートナーズ,0
1945,9010401195529,新規,0,2026-01-05,2026-01-05,吉成株式会社,,株式会社,東京都,港区,芝浦３丁目４－２グランパークハイツ１７０４,,13,103,1080023,,,,,,,2026-01-05,1,,,,,ヨシナリ,0
1950,9010403036920,新規,0,2026-01-05,2026-01-05,グリーヴァ合同会社,,合同会社,東京都,港区,南青山７丁目６番２－３０４号,,13,103,1070062,,,,,,,2026-01-05,1,,,,,グリーヴァ,0
1958,9011001174476,新規,0,2026-01-05,2026-01-05,ＡＣＥ　Ｐｏｗｅｒ　Ｓｏｌｕｔｉｏｎｓ株式会社,,株式会社,東京都,渋谷区,代々木４丁目４１－１４－２０５号室,,13,113,1510053,,,,,,,2026-01-05,1,,,,,エーシーイーパワーソリューションズ,0
1959,9011001174526,新規,0,2026-01-05,2026-01-05,株式会社ｙｕｅｎｏｗａ,,株式会社,東京都,渋谷区,恵比寿西２丁目８番４号ＥＸ恵比寿西ビル５階,,13,113,1500021,,,,,,,2026-01-05,1,,,,,ユエノワ,0
1960,9011001174559,新規,0,2026-01-05,2026-01-05,株式会社Ａｕｔｅｓｔ,,株式会社,東京都,渋谷区,円山町５番３号ＭＩＥＵＸ渋谷ビル８階,,13,113,1500044,,,,,,,2026-01-05,1,,,,,オーテスト,0
1963,9011003023210,新規,0,2026-01-05,2026-01-05,合同会社Ｗｅｅｋｌｙ　Ｃｉｒｃｌｅ,,合同会社,東京都,渋谷区,道玄坂１丁目１０番８号渋谷道玄坂東急ビル２階Ｃ,,13,113,1500043,,,,,,,2026-01-05,1,,,,,ウィークリーサークル,0
1964,9011003023219,新規,0,2026-01-05,2026-01-05,サンコード合同会社,,合同会社,東京都,渋谷区,恵比寿西２丁目４番８号ウィンド恵比寿ビル８Ｆ,,13,113,1500021,,,,,,,2026-01-05,1,,,,,サンコード,0
1969,9011103016898,新規,0,2026-01-05,2026-01-05,合同会社一二屋,,合同会社,東京都,新宿区,新宿２丁目１１‐７第３３宮庭ビルＢ１０３号室,,13,104,1600022,,,,,,,2026-01-05,1,,,,,イチニヤ,0
1972,9011301031146,新規,0,2026-01-05,2026-01-05,Ｒｉｎｋｓ株式会社,,株式会社,東京都,杉並区,天沼２丁目４２－２６,,13,115,1670032,,,,,,,2026-01-05,1,,,,,リンクス,0
1973,9011305003083,新規,0,2026-01-05,2026-01-05,一般社団法人スモールＭ＆Ａ研究会,,その他の設立登記法人,東京都,杉並区,梅里２丁目３８番１１号,,13,115,1660011,,,,,,,2026-01-05,1,,,,,スモールエムアンドエイケンキュウカイ,0
1977,9011801047237,新規,0,2026-01-05,2026-01-05,株式会社Ｃｌｏｕｄ９,,株式会社,東京都,足立区,中央本町２丁目２４番２５号,,13,121,1200011,,,,,,,2026-01-05,1,,,,,クラウドナイン,0
1981,9012801024440,新規,0,2026-01-05,2026-01-05,株式会社ままの輪,,株式会社,東京都,立川市,羽衣町１丁目５番６号,,13,202,1900021,,,,,,,2026-01-05,1,,,,,ママノワ,0
1988,9020001166490,新規,0,2026-01-05,2026-01-05,株式会社ミライノート,,株式会社,神奈川県,横浜市南区,堀ノ内町２丁目２２２番地ＣａｓａＹｏｋｏｈａｍａＳｏｕｔｈ１０１,,14,105,2320042,,,,,,,2026-01-05,1,,,,,ミライノート,0
1991,9020003030026,新規,0,2026-01-05,2026-01-05,合同会社Ｓｍｉｌｅ＆Ｋ,,合同会社,神奈川県,川崎市麻生区,片平３丁目１番１４号,,14,137,2150023,,,,,,,2026-01-05,1,,,,,スマイルアンドケイ,0
2003,9030001170252,新規,0,2026-01-05,2026-01-05,エクセル・ネクスト株式会社,,株式会社,埼玉県,さいたま市岩槻区,日の出町９番３４－２号,,11,110,3390064,,,,,,,2026-01-05,1,,,,,エクセルネクスト,0
2004,9030001170327,新規,0,2026-01-05,2026-01-05,株式会社ミヤヤマ,,株式会社,埼玉県,さいたま市北区,大成町４丁目８４４番地,,11,102,3310815,,,,,,,2026-01-05,1,,,,,ミヤヤマ,0
2005,9030001170343,新規,0,2026-01-05,2026-01-05,株式会社Ｖｒｏｏｍ,,株式会社,埼玉県,蕨市,北町２丁目１３番１４号,,11,223,3350001,,,,,,,2026-01-05,1,,,,,ヴルーム,0
2011,9050001057811,新規,0,2026-01-05,2026-01-05,晴洋工業株式会社,,株式会社,茨城県,結城市,大字結城６０１５番地ル・シャルール２０３,,08,207,3070001,,,,,,,2026-01-05,1,,,,,セイヨウコウギョウ,0
2013,9050003009843,新規,0,2026-01-05,2026-01-05,重兵衛合同会社,,合同会社,茨城県,守谷市,中央４丁目２１番地１,,08,224,3020115,,,,,,,2026-01-05,1,,,,,ジュウベエ,0
2014,9060003005908,新規,0,2026-01-05,2026-01-05,合同会社受験の高山,00142037,合同会社,栃木県,宇都宮市,中一の沢町１－３有限会社東栄堂様倉庫付き事務所１０１,,09,201,3200045,,,,,,,2026-01-05,1,,,,,ジュケンノタカヤマ,0
2019,9080101025987,新規,0,2026-01-05,2026-01-05,株式会社クリアＷｈｉｔｅ,,株式会社,静岡県,富士市,三ツ沢８４８番地,,22,210,4170855,,,,,,,2026-01-05,1,,,,,クリアホワイト,0
2025,9100001039226,新規,0,2026-01-05,2026-01-05,トークンハッピーソフト株式会社,,株式会社,長野県,長野市,大字富田１番地７０４,,20,201,3800882,,,,,,,2026-01-05,1,,,,,トークンハッピーソフト,0
2040,9120001282971,新規,0,2026-01-05,2026-01-05,宇山建設株式会社,,株式会社,大阪府,大阪市西淀川区,大和田６丁目１３番３号,,27,113,5550032,,,,,,,2026-01-05,1,,,,,ウヤマケンセツ,0
2041,9120001283136,新規,0,2026-01-05,2026-01-05,株式会社心笑の家,,株式会社,大阪府,大阪市大正区,千島１丁目２３番３７号,,27,108,5510003,,,,,,,2026-01-05,1,,,,,コエノイエ,0
2045,9120003031583,新規,0,2026-01-05,2026-01-05,ＮＯＢＯＣＯ合同会社,,合同会社,大阪府,大阪市旭区,中宮４丁目１３番７号,,27,117,5350003,,,,,,,2026-01-05,1,,,,,ノボコ,0
2046,9120101073016,新規,0,2026-01-05,2026-01-05,株式会社ＵＮＩＴＹＴＥＣＨ,,株式会社,大阪府,堺市堺区,北庄町１丁７番１－７１４号,,27,141,5900007,,,,,,,2026-01-05,1,,,,,ユニティテック,0
2050,9130001081324,新規,0,2026-01-05,2026-01-05,アルデアやましろブリューイング株式会社,,株式会社,京都府,京田辺市,山手東１丁目１９－９,,26,211,6100357,,,,,,,2026-01-05,1,,,,,アルデアヤマシロブリューイング,0
2056,9140001141250,新規,0,2026-01-05,2026-01-05,ＶｉｔａＨｅａｌｔｈＩ株式会社,,株式会社,兵庫県,伊丹市,伊丹３丁目８－６大田マンション１０１号室,,28,207,6640846,,,,,,,2026-01-05,1,,,,,ビータヘルスアイ,0
2057,9140005027743,新規,0,2026-01-05,2026-01-05,医療法人好風会,,その他の設立登記法人,兵庫県,芦屋市,公光町１１番５号芦屋山下ビル３０１,,28,206,6590065,,,,,,,2026-01-05,1,,,,,コウフウカイ,0
2067,9180001170056,新規,0,2026-01-05,2026-01-05,株式会社ＳＨＩＺＵＫＵ,,株式会社,愛知県,大府市,追分町１丁目２０７番地エスポ大門１階,,23,223,4740027,,,,,,,2026-01-05,1,,,,,シズク,0
2068,9180001170080,新規,0,2026-01-05,2026-01-05,株式会社ノダックス,,株式会社,愛知県,北名古屋市,熊之庄古井２６４番地１,,23,234,4810006,,,,,,,2026-01-05,1,,,,,ノダックス,0
2076,9200003007187,新規,0,2026-01-05,2026-01-05,合同会社ＴＥＮＴＥ,,合同会社,岐阜県,岐阜市,松鴻町３丁目１０番地１マイハウス松鴻町１０１号室,,21,201,5008412,,,,,,,2026-01-05,1,,,,,テンテ,0
2078,9220001027094,新規,0,2026-01-05,2026-01-05,ＬＡＯ株式会社,,株式会社,石川県,金沢市,末町１６の７３番地,,17,201,9201302,,,,,,,2026-01-05,1,,,,,ラオ,0
2081,9240001065976,新規,0,2026-01-05,2026-01-05,株式会社Ｅｎｊｏｙ,,株式会社,広島県,広島市西区,三篠町３丁目１３番３－５０２号,,34,104,7330003,,,,,,,2026-01-05,1,,,,,エンジョイ,0
2082,9240003007539,新規,0,2026-01-05,2026-01-05,合同会社ＡＬＩＶＩＡ,,合同会社,広島県,広島市西区,南観音１丁目６番２７－１５０２号,,34,104,7330035,,,,,,,2026-01-05,1,,,,,アリヴィア,0
2086,9260001040845,新規,0,2026-01-05,2026-01-05,株式会社ＭＩＫ,,株式会社,岡山県,岡山市北区,新屋敷町３丁目１６番２５号,,33,101,7000986,,,,,,,2026-01-05,1,,,,,エムアイケー,0
2087,9260001040853,新規,0,2026-01-05,2026-01-05,株式会社イージークリエイト,,株式会社,岡山県,和気郡和気町,和気６３２番地２,,33,346,7090451,,,,,,,2026-01-05,1,,,,,イージークリエイト,0
2088,9260003005466,新規,0,2026-01-05,2026-01-05,合同会社Ｌｕｃｅ,,合同会社,岡山県,岡山市北区,奉還町２丁目１９番１８号,,33,101,7000026,,,,,,,2026-01-05,1,,,,,ルーチェ,0
2091,9290001112328,新規,0,2026-01-05,2026-01-05,株式会社ｐｒｉｍａｒｙＨＤ,,株式会社,福岡県,小郡市,三沢４３１８番地４７,,40,216,8380106,,,,,,,2026-01-05,1,,,,,プライマリーホールディングス,0
2092,9290001112625,新規,0,2026-01-05,2026-01-05,Ｒａｄｉｃａｌ　Ｄｒｅａｍｓ　Ｅｎｔｅｒｔａｉｎｍｅｎｔ株式会社,,株式会社,福岡県,福岡市中央区,大名２丁目９番３５号トウセン天神ビル９Ｆ,,40,133,8100041,,,,,,,2026-01-05,1,,,,,ラディカルドリームスエンターテインメント,0
2102,9300001014456,新規,0,2026-01-05,2026-01-05,株式会社利他,,株式会社,佐賀県,佐賀市,水ヶ江５丁目１番３号,,41,201,8400054,,,,,,,2026-01-05,1,,,,,リタ,0
2103,9310003005155,新規,0,2026-01-05,2026-01-05,合同会社ｉｎｋ．ｉｎｑ,,合同会社,長崎県,西海市,大瀬戸町瀬戸樫浦郷２２７８番地６５,,42,212,8572302,,,,,,,2026-01-05,1,,,,,インクインク,0
2107,9320001021500,新規,0,2026-01-05,2026-01-05,Ｏｉｔａ　Ａｕｔｏ　Ｊａｐａｎ株式会社,,株式会社,大分県,由布市,挾間町赤野１７１０番地２,,44,213,8795516,,,,,,,2026-01-05,1,,,,,オオイタオートジャパン,0
2109,9320003004866,新規,0,2026-01-05,2026-01-05,合同会社ジョイリンク,,合同会社,大分県,大分市,二又町３丁目１番４号,,44,201,8700887,,,,,,,2026-01-05,1,,,,,ジョイリンク,0
2115,9360001036189,新規,0,2026-01-05,2026-01-05,株式会社テラ・バイオ,,株式会社,沖縄県,那覇市,久茂地２丁目１３番３号仲松ビル３階,,47,201,9000015,,,,,,,2026-01-05,1,,,,,テラバイオ,0
2116,9360001036206,新規,0,2026-01-05,2026-01-05,大吉セーフティ株式会社,,株式会社,沖縄県,宮古島市,平良字下里６６３番地３,,47,214,9060013,,,,,,,2026-01-05,1,,,,,ダイキチセーフティ,0
2119,9380001035783,新規,0,2026-01-05,2026-01-05,株式会社ＡＳＦＴ,,株式会社,福島県,双葉郡楢葉町,大字井出字苅集１７―１,,07,542,9790603,,,,,,,2026-01-05,1,,,,,エースフィット,0
2120,9390001018201,新規,0,2026-01-05,2026-01-05,株式会社くらそる,,株式会社,山形県,米沢市,春日１丁目７番５２号ブルーヴェイス１０６号室,,06,202,9920044,,,,,,,2026-01-05,1,,,,,,0
2123,9430001095962,新規,0,2026-01-05,2026-01-05,株式会社Ａｏ建築設計事務所,,株式会社,北海道,札幌市中央区,南三条西２５丁目２番５－２０５号,,01,101,0640803,,,,,,,2026-01-05,1,,,,,アオケンチクセッケイジムショ,0
2124,9430001095970,新規,0,2026-01-05,2026-01-05,株式会社Ｗａｎ’ｓ,,株式会社,北海道,札幌市東区,東苗穂六条１丁目７番９号,,01,103,0070806,,,,,,,2026-01-05,1,,,,,ワンズ,0
2125,9430003018459,新規,0,2026-01-05,2026-01-05,合同会社桜,,合同会社,北海道,札幌市中央区,南二条西５丁目３１－１ＲＭＢｌｄ．７０１,,01,101,0600062,,,,,,,2026-01-05,1,,,,,サクラ,0
2130,9700150133826,新規,0,2026-01-05,2026-01-05,宝南悪水土地改良区,,その他,愛知県,津島市,西柳原町１丁目１４,,23,208,4960047,,,,,,,2026-01-05,1,,,,,ホウナンアクスイトチカイリョウク,0
