sequenceNumber,corporateNumber,process,correct,updateDate,changeDate,name,nameImageId,kind,prefectureName,cityName,streetNumber,addressImageId,prefectureCode,cityCode,postCode,addressOutside,addressOutsideImageId,closeDate,closeCause,successorCorporateNumber,changeCause,assignmentDate,latest,enName,enPrefectureName,enCityName,enAddressOutside,furigana,hihyoji
18,1010401132803,登記記録の閉鎖等,0,2026-02-17,2026-01-26,株式会社ＷＯＲＫ　ＪＡＰＡＮ,,株式会社,東京都,港区,六本木１丁目４番５号アークヒルズサウス１６Ｆ,,13,103,1060032,,,2026-01-26,清算の結了等,,,2017-07-28,1,,,,,ワークジャパン,0
33,1010501051969,登記記録の閉鎖等,0,2026-02-17,2026-02-04,株式会社聖来,,株式会社,東京都,台東区,松が谷２丁目９番１－２０８号,,13,106,1110036,,,2026-02-04,清算の結了等,,,2024-03-19,1,,,,,セイラ,0
34,1010601016013,登記記録の閉鎖等,0,2026-02-17,2026-02-03,株式会社宮崎工務店,,株式会社,東京都,墨田区,太平３丁目２番５号,,13,107,1300012,,,2026-02-03,清算の結了等,,,2015-10-05,1,,,,,ミヤザキコウムテン,0
73,1012401041463,登記記録の閉鎖等,0,2026-02-17,2026-02-06,Ｗａｄｏｎａ　Ｃｒｅａｔｉｏｎ株式会社,,株式会社,東京都,武蔵野市,吉祥寺本町１丁目２０番１号吉祥寺永谷シティプラザ１００２,,13,203,1800004,,,2026-02-06,清算の結了等,,,2024-01-29,1,,,,,ワドナクリエーション,0
77,1020001013808,登記記録の閉鎖等,0,2026-02-17,2026-02-02,株式会社松信,,株式会社,神奈川県,横浜市港南区,港南２丁目２番１３号１階Ｂ号室,,14,111,2330003,,,2026-02-02,合併による解散等,9020001090195,令和８年２月１日横浜市港南区上大岡西一丁目１５番１－２９０１号株式会社山猪（9020001090195）に合併し解散,2015-10-05,1,,,,,マツシン,0
97,1030003024819,登記記録の閉鎖等,0,2026-02-17,2026-01-28,合同会社伽藍工作室,,合同会社,埼玉県,川口市,戸塚東４丁目２５番１４号ジュネスモール１０３号,,11,203,3330802,,,2026-01-28,清算の結了等,,,2024-08-02,1,,,,,ガランコウサクシツ,0
116,1060001031665,登記記録の閉鎖等,0,2026-02-17,2026-02-13,株式会社中商リサイクルセンター,,株式会社,栃木県,那須塩原市,二区町４７８番地７,,09,213,3292733,,,2026-02-13,清算の結了等,,,2019-06-17,1,,,,,ナカショウリサイクルセンター,0
129,1080101021003,登記記録の閉鎖等,0,2026-02-17,2026-02-03,株式会社ＣＨＯＳＥＮ　ＯＮＥ,,株式会社,静岡県,駿東郡清水町,久米田１２８番地,,22,341,4110911,,,2026-02-03,清算の結了等,,,2019-03-07,1,,,,,チョーズンワン,0
131,1080401000821,登記記録の閉鎖等,0,2026-02-17,2026-02-10,株式会社エスワイ建築積算,,株式会社,静岡県,浜松市中央区,鴨江４丁目１０番１号,,22,138,4328023,,,2026-02-10,清算の結了等,,,2015-10-05,1,,,,,エスワイケンチクセイサン,0
134,1080401005432,登記記録の閉鎖等,0,2026-02-17,2026-02-09,株式会社メガネの吉田屋,,株式会社,静岡県,浜松市中央区,板屋町２番の１０８,,22,138,4300928,,,2026-02-09,清算の結了等,,,2015-10-05,1,,,,,メガネノヨシダヤ,0
139,1100005012401,登記記録の閉鎖等,0,2026-02-17,2026-02-10,特定非営利活動法人ＨＡＣＣＰ　ＰＡＴＲＯＬ,,その他の設立登記法人,長野県,東御市,常田６１３番地２東行政書士土屋帝事務所内,,20,219,3890515,,,2026-02-10,清算の結了等,,,2019-05-15,1,,,,,ハサップパトロール,0
140,1110001026726,登記記録の閉鎖等,0,2026-02-17,2026-02-09,新生電気株式会社,,株式会社,新潟県,魚沼市,井口新田１１３２番地１,,15,225,9460076,,,2026-02-09,清算の結了等,,,2015-10-05,1,,,,,シンセイデンキ,0
144,1120001144808,登記記録の閉鎖等,0,2026-02-17,2026-02-12,株式会社真輝クリーンメンテナンス,,株式会社,大阪府,大阪市港区,波除１丁目５番９－６０３号,,27,107,5520001,,,2026-02-12,清算の結了等,,,2015-10-05,1,,,,,マキクリーンメンテナンス,0
155,1120102024215,登記記録の閉鎖等,0,2026-02-17,2026-02-12,有限会社メディカルサービスアイアンドイヤー,,有限会社,大阪府,大阪市天王寺区,堂ケ芝２丁目１５番４－７０２号,,27,109,5430033,,,2026-02-12,清算の結了等,,,2015-10-05,1,,,,,メディカルサービスアイアンドイヤー,0
193,1180003007973,登記記録の閉鎖等,0,2026-02-17,2026-02-09,合資会社愛農運輸,,合資会社,愛知県,清須市,西枇杷島町小場塚１２２１番地,,23,233,4520061,,,2026-02-09,清算の結了等,,,2015-10-05,1,,,,,アイノウウンユ,0
195,1180301009317,登記記録の閉鎖等,0,2026-02-17,2026-02-10,株式会社アプリー,,株式会社,愛知県,豊橋市,老津町字西中尾１１５番地,,23,201,4413301,,,2026-02-10,清算の結了等,,,2015-10-05,1,,,,,アプリー,0
196,1180301015496,登記記録の閉鎖等,0,2026-02-17,2026-02-10,株式会社碧南製作所,,株式会社,愛知県,碧南市,平七町４丁目３８番地,,23,209,4470884,,,2026-02-10,清算の結了等,,,2015-10-05,1,,,,,ヘキナンセイサクショ,0
205,1240001028742,登記記録の閉鎖等,0,2026-02-17,2026-02-16,システムパネル工業株式会社,,株式会社,広島県,廿日市市,桜尾１丁目７番２２号,,34,213,7380004,,,2026-02-16,清算の結了等,,,2015-10-05,1,,,,,システムパネルコウギョウ,0
207,1260001026018,登記記録の閉鎖等,0,2026-02-17,2026-02-02,株式会社フェール,,株式会社,岡山県,倉敷市,三田４１７番地,,33,202,7100001,,,2026-02-02,清算の結了等,,,2015-10-05,1,,,,,フェール,0
224,1370001016164,登記記録の閉鎖等,0,2026-02-17,2026-02-13,株式会社セナークル,,株式会社,宮城県,仙台市青葉区,本町１丁目５番２８号,,04,101,9800014,,,2026-02-13,清算の結了等,,,2015-10-05,1,,,,,セナークル,0
235,1400001005106,登記記録の閉鎖等,0,2026-02-17,2026-02-09,株式会社安善堂,,株式会社,岩手県,上閉伊郡大槌町,上町８６番２,,03,461,0281115,,,2026-02-09,清算の結了等,,,2015-10-05,1,,,,,アンゼンドウ,0
238,1400501000804,登記記録の閉鎖等,0,2026-02-17,2026-02-05,株式会社ミサゴ精密,,株式会社,岩手県,一関市,花泉町花泉字天王沢８９番地,,03,209,0293101,,,2026-02-05,清算の結了等,,,2015-10-05,1,,,,,ミサゴセイミツ,0
247,1430002026008,登記記録の閉鎖等,0,2026-02-17,2026-02-13,有限会社マル藤不動産管理サービス,,有限会社,北海道,札幌市北区,新琴似一条１０丁目５番５号,,01,102,0010901,,,2026-02-13,清算の結了等,,,2015-10-05,1,,,,,マルトウフドウサンカンリサービス,0
250,1450001003492,登記記録の閉鎖等,0,2026-02-17,2026-02-10,株式会社アイエスティサービス,,株式会社,北海道,旭川市,四条通７丁目６５３番地１,,01,204,0700034,,,2026-02-10,清算の結了等,,,2015-10-05,1,,,,,アイエスティサービス,0
251,1450002010075,登記記録の閉鎖等,0,2026-02-17,2026-02-10,有限会社おぐち,,有限会社,北海道,中川郡美深町,字大通北１丁目７番地,,01,469,0982220,,,2026-02-10,清算の結了等,,,2015-10-05,1,,,,,オグチ,0
261,2010001053341,登記記録の閉鎖等,0,2026-02-17,2026-01-30,日本陸運産業株式会社,,株式会社,東京都,千代田区,神田錦町３丁目７番地１,,13,101,1010054,,,2026-01-30,清算の結了等,,,2015-10-05,1,,,,,ニホンリクウンサンギョウ,0
303,2010902020539,登記記録の閉鎖等,0,2026-02-17,2026-02-13,有限会社ベイシックス,,有限会社,東京都,世田谷区,上野毛１丁目４番４号,,13,112,1580093,,,2026-02-13,清算の結了等,,,2015-10-05,1,,,,,ベイシックス,0
304,2010903005555,登記記録の閉鎖等,0,2026-02-17,2026-01-26,ナイン‐ダブルツー合同会社,,合同会社,東京都,目黒区,上目黒４丁目２１番８号ワイステリア藤倉１０１,,13,110,1530051,,,2026-01-26,清算の結了等,,,2020-03-05,1,,,,,ナインダブルツー,0
313,2011101098573,登記記録の閉鎖等,0,2026-02-17,2026-01-22,ＳＴＴ　ＨＫ株式会社,,株式会社,東京都,新宿区,北新宿１丁目３０番３０－５３０号,,13,104,1690074,,,2026-01-22,清算の結了等,,,2022-04-21,1,,,,,エスティティエイチケイ,0
314,2011102000620,登記記録の閉鎖等,0,2026-02-17,2026-01-27,有限会社アトリエフクシマ,,有限会社,東京都,新宿区,愛住町２０番地,,13,104,1600005,,,2026-01-27,清算の結了等,,,2015-10-05,1,,,,,アトリエフクシマ,0
329,2012402023088,登記記録の閉鎖等,0,2026-02-17,2026-02-09,有限会社リュウ＆ジン・カンパニー,,有限会社,東京都,小金井市,前原町３丁目５番１７号,,13,210,1840013,,,2026-02-09,清算の結了等,,,2015-10-05,1,,,,,リュウアンドジンカンパニー,0
332,2012802010751,登記記録の閉鎖等,0,2026-02-17,2026-02-06,有限会社サンエー美装,,有限会社,東京都,昭島市,東町４丁目１１番４号シティハイム１Ｆ,,13,207,1960033,,,2026-02-06,清算の結了等,,,2015-10-05,1,,,,,サンエービソウ,0
344,2020002056937,登記記録の閉鎖等,0,2026-02-17,2026-02-10,有限会社フタバ企画,,有限会社,神奈川県,横浜市港北区,樽町２丁目１３番１５号,00011152,14,109,2220001,,,2026-02-10,清算の結了等,,,2015-10-05,1,,,,,,0
345,2020003015958,登記記録の閉鎖等,0,2026-02-17,2026-01-21,合同会社ＡＳ　ＴＥＣＨコンサルティング,,合同会社,神奈川県,横浜市都筑区,大丸七丁目２９番地,,14,118,2240061,,,2026-01-21,清算の結了等,,,2019-04-22,1,,,,,エーエステックコンサルティング,0
386,2100002019274,登記記録の閉鎖等,0,2026-02-17,2026-02-06,有限会社岩原建築店,,有限会社,長野県,松本市,大字里山辺３３９０番地２０,,20,202,3900221,,,2026-02-06,清算の結了等,,,2015-10-05,1,,,,,イワハラケンチクテン,0
401,2120001272649,登記記録の閉鎖等,0,2026-02-17,2026-02-10,寧元企画株式会社,,株式会社,大阪府,大阪市中央区,高津２丁目１番１号３０１室,,27,128,5420072,,,2026-02-10,清算の結了等,,,2025-02-07,1,,,,,ネイゲンキカク,0
406,2120101032036,登記記録の閉鎖等,0,2026-02-17,2026-02-05,きょうび住宅株式会社,,株式会社,大阪府,松原市,大堀２丁目９番２２号,,27,217,5800006,,,2026-02-05,清算の結了等,,,2015-10-05,1,,,,,キョウビジュウタク,0
415,2130001009190,登記記録の閉鎖等,0,2026-02-17,2026-02-12,共栄足袋株式会社,,株式会社,京都府,京都市東山区,今熊野南日吉町１１番地１９,,26,105,6050953,,,2026-02-12,清算の結了等,,,2015-10-05,1,,,,,キョウエイタビ,0
419,2130002034163,登記記録の閉鎖等,0,2026-02-17,2026-02-13,有限会社エンブ・キヨウト,,有限会社,京都府,舞鶴市,字布敷２５－１,,26,202,6240806,,,2026-02-13,清算の結了等,,,2015-10-05,1,,,,,エンブキヨウト,0
427,2180001017742,登記記録の閉鎖等,0,2026-02-17,2026-02-03,株式会社ナゴヤ・プランニング,,株式会社,愛知県,名古屋市東区,泉３丁目２８番３号,,23,102,4610001,,,2026-02-03,清算の結了等,,,2015-10-05,1,,,,,ナゴヤプランニング,0
436,2180003026460,登記記録の閉鎖等,0,2026-02-17,2026-02-03,合同会社エイプリル,,合同会社,愛知県,名古屋市中村区,名駅４丁目２４番５号第２森ビル４０１,,23,105,4500002,,,2026-02-03,清算の結了等,,,2024-03-06,1,,,,,エイプリル,0
441,2180302027630,登記記録の閉鎖等,0,2026-02-17,2026-02-06,有限会社クール,,有限会社,愛知県,新城市,豊栄１番地の１８５,,23,221,4411352,,,2026-02-06,清算の結了等,,,2015-10-05,1,,,,,クール,0
471,2290002038917,登記記録の閉鎖等,0,2026-02-17,2026-02-05,有限会社山中コーポレーション,,有限会社,福岡県,大野城市,牛頸２丁目２４番７号,,40,219,8160971,,,2026-02-05,清算の結了等,,,2015-10-05,1,,,,,ヤマナカコーポレーション,0
473,2290003014710,商号の登記の抹消,0,2026-02-17,2026-01-30,合同会社ティーステップ福岡,,合同会社,福岡県,福岡市中央区,六本松４丁目２番６－２０８号ＭＪＲ六本松,,40,133,8100044,,,,,,,2023-12-11,0,,,,,ティーステップフクオカ,0
476,2290801012576,登記記録の閉鎖等,0,2026-02-17,2026-02-02,株式会社山彦,,株式会社,福岡県,遠賀郡水巻町,吉田南５丁目３番２０号,,40,382,8070048,,,2026-02-02,合併による解散等,7290801026992,令和８年２月１日福岡県遠賀郡水巻町吉田南五丁目３番２０号株式会社杜の泉（7290801026992）に合併し解散,2015-10-05,1,,,,,ヤマビコ,0
479,2310002002093,登記記録の閉鎖等,0,2026-02-17,2026-02-16,有限会社さつき洋装店,,有限会社,長崎県,長崎市,浜町４番２号,,42,201,8500853,,,2026-02-16,清算の結了等,,,2015-10-05,1,,,,,サツキヨウソウテン,0
492,2390001005255,登記記録の閉鎖等,0,2026-02-17,2026-01-26,株式会社ＯＨＣ,,株式会社,東京都,文京区,千駄木３丁目４１番１５号,,13,105,1130022,,,2026-01-26,清算の結了等,,,2015-10-05,1,,,,,オーエイチシー,0
499,2420001016331,登記記録の閉鎖等,0,2026-02-17,2026-02-12,株式会社羽賀興業,,株式会社,青森県,青森市,浪岡大字女鹿沢字東種本２７番地３,,02,201,0381331,,,2026-02-12,清算の結了等,,,2018-09-11,1,,,,,ハガコウギョウ,0
505,2450002012228,登記記録の閉鎖等,0,2026-02-17,2026-02-13,有限会社志満川,,有限会社,北海道,増毛郡増毛町,稲葉町１丁目１番地,,01,481,0770204,,,2026-02-13,清算の結了等,,,2015-10-05,1,,,,,シマカワ,0
506,2460101006575,登記記録の閉鎖等,0,2026-02-17,2026-02-13,株式会社アスライト,,株式会社,北海道,釧路市,黒金町１３丁目１番地４ウルカスビル３階,,01,206,0850018,,,2026-02-13,清算の結了等,,,2019-06-05,1,,,,,アスライト,0
524,3010001228660,登記記録の閉鎖等,0,2026-02-17,2026-01-26,ＤＬ　Ｊａｐａｎ株式会社,,株式会社,東京都,新宿区,市谷左内町５番地ＬＯＷＰ３階,,13,104,1620846,,,2026-01-26,清算の結了等,,,2022-08-09,1,,,,,ディーエルジャパン,0
567,3010903007212,登記記録の閉鎖等,0,2026-02-17,2026-02-12,合同会社インサイト,,合同会社,福岡県,北九州市小倉北区,熊本２丁目８番１６‐７０３号,,40,106,8020044,,,2026-02-12,清算の結了等,,,2022-03-08,1,,,,,インサイト,0
568,3010905003498,登記記録の閉鎖等,0,2026-02-17,2026-02-12,両国一般社団法人,,その他の設立登記法人,東京都,千代田区,神田小川町３丁目２６番８号神田小川町三丁目ビル６階,,13,101,1010052,,,2026-02-12,清算の結了等,,,2017-12-06,1,,,,,リョウゴク,0
585,3011102016954,登記記録の閉鎖等,0,2026-02-17,2026-01-22,有限会社シンク,,有限会社,東京都,新宿区,四谷４丁目６番地１四谷サンハイツ２０４,,13,104,1600004,,,2026-01-22,清算の結了等,,,2015-10-05,1,,,,,シンク,0
610,3013201006555,登記記録の閉鎖等,0,2026-02-17,2026-02-13,共和陸送株式会社,,株式会社,神奈川県,横浜市青葉区,たちばな台２丁目５番地３５,,14,117,2270046,,,2026-02-13,清算の結了等,,,2015-10-05,1,,,,,キョウワリクソウ,0
648,3040002048650,登記記録の閉鎖等,0,2026-02-17,2026-01-28,松戸ベビトラ有限会社,,有限会社,千葉県,松戸市,上本郷２７１９番地の３,,12,207,2710064,,,2026-01-28,清算の結了等,,,2015-10-05,1,,,,,マツドベビトラ,0
698,3122001003314,登記記録の閉鎖等,0,2026-02-17,2026-02-05,株式会社神名,,株式会社,大阪府,東大阪市,稲田本町３丁目６番２４号,,27,227,5770007,,,2026-02-05,清算の結了等,,,2015-10-05,1,,,,,シンメイ,0
700,3122002004749,登記記録の閉鎖等,0,2026-02-17,2026-02-03,有限会社町田金型製作所,,有限会社,大阪府,東大阪市,玉串町西２丁目４番１９号,,27,227,5780934,,,2026-02-03,清算の結了等,,,2015-10-05,1,,,,,マチダカナガタセイサクショ,0
713,3140003007414,登記記録の閉鎖等,0,2026-02-17,2026-02-12,株式会社ティーエッチエスサポート,,株式会社,兵庫県,姫路市,夢前町山冨４０番地,,28,201,6712123,,,2026-02-12,清算の結了等,,,2015-10-05,1,,,,,ティーエッチエスサポート,0
714,3140005002660,登記記録の閉鎖等,0,2026-02-17,2026-02-12,大日商店街振興組合,,その他の設立登記法人,兵庫県,神戸市中央区,割塚通５丁目２番２１号,,28,110,6510065,,,2026-02-12,清算の結了等,,,2015-10-05,1,,,,,ダイニチ,0
717,3160001023733,登記記録の閉鎖等,0,2026-02-17,2026-02-13,株式会社プロチョーニ,,株式会社,滋賀県,草津市,野路東１丁目１番１号立命館大学ＢＫＣインキュベータ,,25,206,5250058,,,2026-02-13,清算の結了等,,,2021-10-19,1,,,,,プロチョーニ,0
721,3180001051947,登記記録の閉鎖等,0,2026-02-17,2026-02-12,春日食品株式会社,,株式会社,愛知県,名古屋市中川区,荒子４丁目２３６番地の３,,23,110,4540869,,,2026-02-12,清算の結了等,,,2015-10-05,1,,,,,カスガショクヒン,0
723,3180001118077,登記記録の閉鎖等,0,2026-02-17,2026-02-12,新星電気株式会社,,株式会社,愛知県,名古屋市港区,正保町３丁目４３番地の３,,23,111,4550074,,,2026-02-12,清算の結了等,,,2015-10-05,1,,,,,シンセイデンキ,0
736,3180301007723,登記記録の閉鎖等,0,2026-02-17,2026-02-06,田原建販株式会社,,株式会社,愛知県,田原市,白谷町坂下５５番地１,,23,231,4413431,,,2026-02-06,清算の結了等,,,2015-10-05,1,,,,,タハラケンパン,0
742,3210002012036,登記記録の閉鎖等,0,2026-02-17,2026-02-12,有限会社和幸商事,,有限会社,福井県,越前市,片屋町第４６号１５番地の１,,18,209,9150893,,,2026-02-12,清算の結了等,,,2015-10-05,1,,,,,ワコウショウジ,0
746,3220005000284,登記記録の閉鎖等,0,2026-02-17,2026-02-16,一般財団法人北國総合研究所,,その他の設立登記法人,石川県,金沢市,南町２番１号,,17,201,9200919,,,2026-02-16,清算の結了等,,,2015-10-05,1,,,,,ホッコクソウゴウケンキュウショ,0
747,3240001040027,登記記録の閉鎖等,0,2026-02-17,2026-02-12,株式会社紫苑,,株式会社,広島県,三原市,皆実２丁目１番１６号,,34,204,7230052,,,2026-02-12,清算の結了等,,,2015-10-05,1,,,,,シオン,0
754,3250001005763,登記記録の閉鎖等,0,2026-02-17,2026-02-10,株式会社関馬,,株式会社,山口県,下関市,王司神田１丁目８番６号,,35,201,7520911,,,2026-02-10,清算の結了等,,,2015-10-05,1,,,,,セキバ,0
756,3250001013824,登記記録の閉鎖等,0,2026-02-17,2026-02-10,株式会社ブリュス,,株式会社,山口県,下関市,彦島角倉町３丁目１２番１９号,,35,201,7500081,,,2026-02-10,清算の結了等,,,2015-10-05,1,,,,,ブリュス,0
757,3250001016562,登記記録の閉鎖等,0,2026-02-17,2026-02-13,スカイバランス株式会社,,株式会社,山口県,宇部市,大字船木４６９７番地４,,35,202,7570216,,,2026-02-13,清算の結了等,,,2017-04-21,1,,,,,スカイバランス,0
765,3290001104685,登記記録の閉鎖等,0,2026-02-17,2026-02-09,株式会社Ｎａｏコネクション,,株式会社,福岡県,福岡市中央区,渡辺通５丁目２３－２東急ドエルアルス天神３階３０３号室,,40,133,8100004,,,2026-02-09,清算の結了等,,,2024-02-14,1,,,,,ナオコネクション,0
776,3310002019847,登記記録の閉鎖等,0,2026-02-17,2026-02-12,有限会社マイコム,,有限会社,長崎県,松浦市,志佐町庄野免１９２番地８,,42,208,8594507,,,2026-02-12,清算の結了等,,,2015-10-05,1,,,,,マイコム,0
789,3380002006681,登記記録の閉鎖等,0,2026-02-17,2026-02-13,有限会社三興技術,,有限会社,福島県,伊達市,梁川町細谷字道林下１３２番地１,,07,213,9600766,,,2026-02-13,清算の結了等,,,2015-10-05,1,,,,,サンコウギジュツ,0
808,4010001008657,登記記録の閉鎖等,0,2026-02-17,2026-02-02,オリエント時計株式会社,,株式会社,東京都,新宿区,新宿４丁目１番６号,,13,104,1600022,,,2026-02-02,合併による解散等,4011101010841,令和８年２月１日東京都新宿区新宿四丁目１番６号セイコーエプソン株式会社（4011101010841）に合併し解散,2015-10-05,1,,,,,オリエントドケイ,0
823,4010401156254,登記記録の閉鎖等,0,2026-02-17,2026-01-14,株式会社Ｓｉｒｉｕｓ　Ｔｅｃｈｎｏｌｏｇｉｅｓ,,株式会社,東京都,港区,南麻布２丁目１０番１３号ＯＪハウス３０１,,13,103,1060047,,,2026-01-14,清算の結了等,,,2020-11-09,1,,,,,シリウステクノロジーズ,0
826,4010401168596,登記記録の閉鎖等,0,2026-02-17,2026-01-26,株式会社忍,,株式会社,東京都,港区,浜松町２丁目２番１５号浜松町ダイヤビル２階,,13,103,1050013,,,2026-01-26,清算の結了等,,,2022-07-20,1,,,,,シノブ,0
846,4010601055669,登記記録の閉鎖等,0,2026-02-17,2026-02-06,株式会社ディアレスト,,株式会社,東京都,墨田区,錦糸４丁目４番４号アーバンハイム江渡３０５号,,13,107,1300013,,,2026-02-06,清算の結了等,,,2019-06-18,1,,,,,ディアレスト,0
854,4011001095297,登記記録の閉鎖等,0,2026-02-17,2026-01-23,株式会社グリーンウッド,,株式会社,東京都,目黒区,東山１丁目６番７号,,13,110,1530043,,,2026-01-23,清算の結了等,,,2015-10-05,1,,,,,グリーンウッド,0
857,4011001152775,登記記録の閉鎖等,0,2026-02-17,2026-02-06,株式会社アンド・イーエス,,株式会社,埼玉県,さいたま市中央区,下落合６丁目１５－２１ルルマル１０１,,11,105,3380002,,,2026-02-06,清算の結了等,,,2023-02-27,1,,,,,アンドイーエス,0
865,4011101007169,登記記録の閉鎖等,0,2026-02-17,2026-01-23,五洋工業株式会社,,株式会社,東京都,新宿区,西新宿７丁目１０番１０号,,13,104,1600023,,,2026-01-23,清算の結了等,,,2015-10-05,1,,,,,ゴヨウコウギョウ,0
871,4011205002405,登記記録の閉鎖等,0,2026-02-17,2026-02-09,一般社団法人サスティナブルファッションプロモーションジャパン,,その他の設立登記法人,東京都,中野区,弥生町５丁目１５番２号,,13,114,1640013,,,2026-02-09,清算の結了等,,,2020-10-19,1,,,,,サスティナブルファッションプロモーションジャパン,0
876,4011503004474,登記記録の閉鎖等,0,2026-02-17,2026-02-13,合同会社Ｍ＆Ｍ,,合同会社,東京都,北区,赤羽南１丁目５番地７号クレアシオン赤羽ビル５０１,,13,117,1150044,,,2026-02-13,清算の結了等,,,2020-08-07,1,,,,,エムアンドエム,0
882,4012401004310,登記記録の閉鎖等,0,2026-02-17,2026-02-09,株式会社ヒストリー・ワン,,株式会社,東京都,府中市,四谷１丁目５１番地の３,,13,206,1830035,,,2026-02-09,清算の結了等,,,2015-10-05,1,,,,,ヒストリーワン,0
897,4020003016566,登記記録の閉鎖等,0,2026-02-17,2026-02-09,合同会社ＨＡＮＡＤＡ,,合同会社,鹿児島県,鹿児島市,西陵６丁目１３番１６号,,46,201,8900032,,,2026-02-09,清算の結了等,,,2019-08-22,1,,,,,ハナダ,0
915,4030003027372,登記記録の閉鎖等,0,2026-02-17,2026-02-05,さくら合同会社,,合同会社,埼玉県,川越市,新富町１丁目８番５号ラ・グラース本川越１００１,,11,201,3500043,,,2026-02-05,清算の結了等,,,2025-08-29,1,,,,,サクラ,0
930,4060003003503,登記記録の閉鎖等,0,2026-02-17,2026-02-17,合同会社やしお庵,,合同会社,栃木県,鹿沼市,入粟野９９４番地２,,09,205,3220307,,,2026-02-17,清算の結了等,,,2020-10-26,1,,,,,ヤシオアン,0
936,4080401005933,登記記録の閉鎖等,0,2026-02-17,2026-02-13,株式会社アブロード石原,,株式会社,静岡県,湖西市,鷲津８５９番地の１,,22,221,4310431,,,2026-02-13,清算の結了等,,,2015-10-05,1,,,,,アブロードイシハラ,0
940,4100005006160,登記記録の閉鎖等,0,2026-02-17,2026-02-09,長野銀行職員組合,,その他の設立登記法人,長野県,松本市,渚２丁目９番３８号,,20,202,3900841,,,2026-02-09,清算の結了等,,,2015-10-05,1,,,,,ナガノギンコウショクインクミアイ,0
970,4140001099196,登記記録の閉鎖等,0,2026-02-17,2026-02-05,株式会社Ｙ＆Ｍ,,株式会社,神奈川県,横浜市都筑区,すみれが丘１７番地４９,,14,118,2240013,,,2026-02-05,清算の結了等,,,2015-10-05,1,,,,,ワイアンドエム,0
982,4180001028325,登記記録の閉鎖等,0,2026-02-17,2026-02-12,株式会社ぴゅあフォーカス,,株式会社,愛知県,名古屋市南区,駈上１丁目９番６号,,23,112,4570007,,,2026-02-12,清算の結了等,,,2015-10-05,1,,,,,ピュアフォーカス,0
983,4180001120734,登記記録の閉鎖等,0,2026-02-17,2026-02-10,タイガージャイロスコープ株式会社,,株式会社,愛知県,碧南市,鳥追町２丁目２９番地,,23,209,4470073,,,2026-02-10,清算の結了等,,,2015-10-27,1,,,,,タイガージャイロスコープ,0
996,4180301039732,登記記録の閉鎖等,0,2026-02-17,2026-02-02,＿森貿易株式会社,00138873,株式会社,愛知県,豊橋市,菰口町５丁目４６番地３,,23,201,4418011,,,2026-02-02,清算の結了等,,,2025-04-23,1,,,,,ホウシンボウエキ,0
998,4180302008819,登記記録の閉鎖等,0,2026-02-17,2026-02-12,有限会社豊橋カネ彦石黒海苔店,,有限会社,愛知県,豊橋市,花田町字荒木７３番地,,23,201,4418019,,,2026-02-12,清算の結了等,,,2015-10-05,1,,,,,トヨハシカネヒコイシグロノリテン,0
999,4180302017472,登記記録の閉鎖等,0,2026-02-17,2026-02-12,有限会社グリーム,,有限会社,愛知県,安城市,二本木新町３丁目６番地３,,23,212,4460075,,,2026-02-12,清算の結了等,,,2015-10-05,1,,,,,グリーム,0
1010,4240001024763,登記記録の閉鎖等,0,2026-02-17,2026-02-16,高田運送株式会社,,株式会社,広島県,広島市佐伯区,五日市町大字石内１０４６８番地３,,34,108,7315102,,,2026-02-16,清算の結了等,,,2015-10-05,1,,,,,タカタウンソウ,0
1012,4240005013044,登記記録の閉鎖等,0,2026-02-17,2026-02-12,特定非営利活動法人日独平和フォーラム,,その他の設立登記法人,広島県,福山市,霞町４丁目１番２５号,,34,207,7200812,,,2026-02-12,清算の結了等,,,2015-10-05,1,,,,,ニチドクヘイワフォーラム,0
1020,4290001076404,登記記録の閉鎖等,0,2026-02-17,2026-01-26,株式会社ネクストステアー,,株式会社,東京都,新宿区,高田馬場３丁目１番５号サンパティオ高田馬場３０９号室,,13,104,1690075,,,2026-01-26,清算の結了等,,,2017-01-17,1,,,,,ネクストステアー,0
1036,4320003003848,登記記録の閉鎖等,0,2026-02-17,2026-02-16,合同会社ＮＹ企画,,合同会社,大分県,玖珠郡玖珠町,大字塚脇７８番地の２,,44,462,8794413,,,2026-02-16,清算の結了等,,,2022-07-08,1,,,,,エヌワイキカク,0
1037,4330001008402,登記記録の閉鎖等,0,2026-02-17,2026-02-09,株式会社岩本綜合建設,,株式会社,熊本県,熊本市東区,画図町大字重富２６番地１,,43,102,8620947,,,2026-02-09,清算の結了等,,,2015-10-05,1,,,,,イワモトソウゴウケンセツ,0
1038,4330001022502,登記記録の閉鎖等,0,2026-02-17,2026-02-10,株式会社みちあふれる輝き,,株式会社,熊本県,阿蘇郡南阿蘇村,大字河陰３３２２－２,,43,433,8691411,,,2026-02-10,清算の結了等,,,2016-02-08,1,,,,,ミチアフレルカガヤキ,0
1050,4370001010742,登記記録の閉鎖等,0,2026-02-17,2026-02-05,株式会社ユー・エステート,,株式会社,宮城県,仙台市泉区,高森６丁目１１番地の１,,04,105,9813203,,,2026-02-05,清算の結了等,,,2015-10-05,1,,,,,ユーエステート,0
1060,4390003002067,登記記録の閉鎖等,0,2026-02-17,2026-02-16,合同会社Ｍｉｎｉｍａｌ　Ｈａｔｓ,,合同会社,山形県,天童市,大字高擶２０１８,,06,210,9940068,,,2026-02-16,清算の結了等,,,2023-03-28,1,,,,,ミニマルハッツ,0
1062,4430001043042,登記記録の閉鎖等,0,2026-02-17,2026-02-16,株式会社農業生産法人やま道の里,,株式会社,北海道,江別市,江別太３７３番地,,01,217,0670022,,,2026-02-16,清算の結了等,,,2015-10-05,1,,,,,ノウギョウセイサンホウジンヤマミチノサト,0
1063,4430001044577,登記記録の閉鎖等,0,2026-02-17,2026-02-13,株式会社センサイ,,株式会社,北海道,恵庭市,北柏木町２丁目１０番４号,,01,231,0611433,,,2026-02-13,清算の結了等,,,2015-10-05,1,,,,,センサイ,0
1071,4460402000333,登記記録の閉鎖等,0,2026-02-17,2026-02-16,東栄水産株式会社,,株式会社,北海道,根室市,花咲港２９８番地２,,01,223,0870032,,,2026-02-16,清算の結了等,,,2015-10-05,1,,,,,トウエイスイサン,0
1074,4490001005103,登記記録の閉鎖等,0,2026-02-17,2026-02-12,片島汽船株式会社,,株式会社,高知県,宿毛市,幸町５番７号,,39,208,7880003,,,2026-02-12,清算の結了等,,,2015-10-05,1,,,,,カタシマキセン,0
1075,4500002014316,登記記録の閉鎖等,0,2026-02-17,2026-02-13,有限会社大城興業,,有限会社,愛媛県,西条市,喜多川６２５番地４,,38,206,7930042,,,2026-02-13,清算の結了等,,,2015-10-05,1,,,,,タイキコウギョウ,0
1087,5010003046035,登記記録の閉鎖等,0,2026-02-17,2026-01-29,合同会社コリーナ,,合同会社,東京都,千代田区,丸の内１丁目４番１号東京共同会計事務所内,,13,101,1000005,,,2026-01-29,清算の結了等,,,2025-01-09,1,,,,,コリーナ,0
1101,5010405007675,登記記録の閉鎖等,0,2026-02-17,2026-01-15,特定非営利活動法人読書サポート,,その他の設立登記法人,東京都,港区,台場１丁目３－２トミンタワー台場三番街２－１７１０,,13,103,1350091,,,2026-01-15,清算の結了等,,,2015-10-05,1,,,,,,0
1119,5010802013367,登記記録の閉鎖等,0,2026-02-17,2026-02-05,有限会社増田屋,,有限会社,東京都,大田区,西蒲田７丁目４９番８号,,13,111,1440051,,,2026-02-05,清算の結了等,,,2015-10-05,1,,,,,マスダヤ,0
1120,5010901035997,登記記録の閉鎖等,0,2026-02-17,2026-02-13,株式会社ツープラトン,,株式会社,東京都,世田谷区,赤堤２丁目５番２号,,13,112,1560044,,,2026-02-13,清算の結了等,,,2015-10-05,1,,,,,ツープラトン,0
1143,5011301012777,登記記録の閉鎖等,0,2026-02-17,2026-02-06,株式会社アルペジオ,,株式会社,東京都,杉並区,浜田山４丁目１番１号クラッシーハウス浜田山１０２号,,13,115,1680065,,,2026-02-06,清算の結了等,,,2015-10-05,1,,,,,,0
1179,5020002041457,登記記録の閉鎖等,0,2026-02-17,2026-02-06,有限会社魚菊,,有限会社,神奈川県,横浜市中区,本牧三之谷１６番６号,,14,104,2310824,,,2026-02-06,清算の結了等,,,2015-10-05,1,,,,,ウオキク,0
1186,5030001043429,登記記録の閉鎖等,0,2026-02-17,2026-02-06,株式会社渋谷鉄工,,株式会社,埼玉県,桶川市,大字舎人新田７６６番地の３,,11,231,3630005,,,2026-02-06,清算の結了等,,,2015-10-05,1,,,,,シブヤテッコウ,0
1191,5030001120888,登記記録の閉鎖等,0,2026-02-17,2026-02-06,株式会社トップ,,株式会社,埼玉県,川口市,大字安行北谷５３３番地の１２,,11,203,3340054,,,2026-02-06,清算の結了等,,,2017-06-19,1,,,,,トップ,0
1204,5040001114468,登記記録の閉鎖等,0,2026-02-17,2026-01-26,株式会社ＴＭＫ,,株式会社,千葉県,我孫子市,白山３丁目１１番３号,,12,222,2701154,,,2026-01-26,清算の結了等,,,2020-07-27,1,,,,,ティーエムケー,0
1219,5050002017231,登記記録の閉鎖等,0,2026-02-17,2026-02-10,有限会社吉川ダイハツ自動車商会,00022853,有限会社,茨城県,下妻市,長塚４１８番地,,08,210,3040056,,,2026-02-10,清算の結了等,,,2015-10-05,1,,,,,ヨシカワダイハツジドウシャショウカイ,0
1227,5080101012782,登記記録の閉鎖等,0,2026-02-17,2026-02-13,中村建設株式会社,,株式会社,静岡県,熱海市,昭和町１８番１３号,,22,205,4130022,,,2026-02-13,清算の結了等,,,2015-10-05,1,,,,,ナカムラケンセツ,0
1230,5100001036227,登記記録の閉鎖等,0,2026-02-17,2026-02-04,トモノ不動産株式会社,,株式会社,長野県,南佐久郡佐久穂町,大字海瀬３５５番地,,20,309,3840503,,,2026-02-04,合併による解散等,8100001009205,令和８年１月３０日長野県南佐久郡佐久穂町大字海瀬３５５番地株式会社トモノ（8100001009205）に合併し解散,2023-03-22,1,,,,,トモノフドウサン,0
1233,5100005010269,登記記録の閉鎖等,0,2026-02-17,2026-02-12,特定非営利活動法人嵯峨,,その他の設立登記法人,長野県,下伊那郡松川町,上片桐３３８５番地,,20,402,3993301,,,2026-02-12,清算の結了等,,,2015-10-05,1,,,,,サガ,0
1235,5110002020071,登記記録の閉鎖等,0,2026-02-17,2026-02-09,有限会社渡辺幕＿製作所,00070865,有限会社,新潟県,燕市,長渡４００番地,,15,213,9591205,,,2026-02-09,清算の結了等,,,2015-10-05,1,,,,,ワタナベマッカンセイサクショ,0
1253,5120005022122,登記記録の閉鎖等,0,2026-02-17,2026-02-13,特定非営利活動法人日本水道メンテナンス協会,,その他の設立登記法人,大阪府,大阪市生野区,巽北１丁目１９番８号,,27,116,5440004,,,2026-02-13,清算の結了等,,,2021-02-09,1,,,,,ニホンスイドウメンテナンスキョウカイ,0
1256,5120902020038,登記記録の閉鎖等,0,2026-02-17,2026-02-10,有限会社八木商会,,有限会社,大阪府,豊中市,東豊中町１丁目１９番２６号,,27,203,5600003,,,2026-02-10,清算の結了等,,,2015-10-05,1,,,,,ヤギショウカイ,0
1258,5122003003335,登記記録の閉鎖等,0,2026-02-17,2026-01-28,Ｈｉｋａｒｉ　Ｍｉｒａｉ合同会社,,合同会社,大阪府,東大阪市,岸田堂北町３番２０－１０１号,,27,227,5770846,,,2026-01-28,清算の結了等,,,2025-10-08,1,,,,,ヒカリミライ,0
1264,5130005005464,登記記録の閉鎖等,0,2026-02-17,2026-01-30,特定非営利活動法人ｇａｌｅｒｉｅ　ｗｅｉｓｓｒａｕｍ，ｋｙｏｔｏ，ｊａｐａｎ,,その他の設立登記法人,京都府,京都市右京区,鳴滝泉谷町７番地４,,26,108,6168253,,,2026-01-30,清算の結了等,,,2015-10-05,1,,,,,ガレリエヴァイスラウムキョウトジャパン,0
1275,5180001070516,登記記録の閉鎖等,0,2026-02-17,2026-02-12,株式会社　Ｈ＆Ｒｅｌａｔｉｏｎｓ　Ｊａｐａｎ,,株式会社,三重県,桑名市,大山田６丁目７－１５７,,24,205,5110903,,,2026-02-12,合併による解散等,2180001163289,令和７年１１月１日名古屋市名東区上社四丁目８９番地株式会社アババイホールディングス（2180001163289）に合併し解散,2015-10-05,1,,,,,エイチアンドリレーションズジャパン,0
1311,5290802005766,登記記録の閉鎖等,0,2026-02-17,2026-02-02,有限会社ヘップファクトリー,,有限会社,福岡県,北九州市小倉南区,上曽根４丁目１番１６号,,40,107,8000223,,,2026-02-02,合併による解散等,4290801003367,令和８年２月１日北九州市小倉南区上曽根四丁目１番１６号株式会社ヘッププロモーション（4290801003367）に合併し解散,2015-10-05,1,,,,,ヘップファクトリー,0
1321,5350001005314,登記記録の閉鎖等,0,2026-02-17,2026-02-02,株式会社綾の杜ホール,,株式会社,宮崎県,東諸県郡綾町,大字北俣字久木丸９４９番地１,,45,383,8801302,,,2026-02-02,合併による解散等,5350001000901,令和８年１月３１日宮崎市錦町６番１１号株式会社メモリード宮崎（5350001000901）に合併し解散,2015-10-05,1,,,,,アヤノモリホール,0
1325,5360001021681,登記記録の閉鎖等,0,2026-02-17,2026-02-05,株式会社ＹＵ,,株式会社,愛知県,名古屋市中村区,名駅３丁目２０番２０号名駅錦ビル６Ｆ,,23,105,4500002,,,2026-02-05,清算の結了等,,,2016-12-20,1,,,,,ユー,0
1334,5430001042084,登記記録の閉鎖等,0,2026-02-17,2026-02-12,株式会社ロコファームビレッジ,,株式会社,北海道,千歳市,高台２丁目７番１号,,01,224,0660035,,,2026-02-12,合併による解散等,6080101012765,令和８年２月１日静岡県熱海市上多賀６８６番地株式会社ＴＴＣ（6080101012765）に合併し解散,2015-10-05,1,,,,,ロコファームビレッジ,0
1340,5460001005641,登記記録の閉鎖等,0,2026-02-17,2026-02-13,株式会社福士企画,,株式会社,北海道,釧路市,星が浦大通２丁目４番４号,,01,206,0840912,,,2026-02-13,清算の結了等,,,2022-01-07,1,,,,,フクシキカク,0
1350,6010001003581,登記記録の閉鎖等,0,2026-02-17,2026-01-26,株式会社自動車春秋社,,株式会社,東京都,千代田区,岩本町３丁目７番１３号早川ビル２階,,13,101,1010032,,,2026-01-26,清算の結了等,,,2015-10-05,1,,,,,ジドウシャシュンジュウシャ,0
1352,6010001011428,登記記録の閉鎖等,0,2026-02-17,2026-01-30,株式会社ヴイック,,株式会社,東京都,千代田区,東神田１丁目７番２号,,13,101,1010031,,,2026-01-30,清算の結了等,,,2015-10-05,1,,,,,ヴイック,0
1356,6010001192342,登記記録の閉鎖等,0,2026-02-17,2026-01-23,ブレインセル株式会社,,株式会社,東京都,千代田区,紀尾井町１番３号,,13,101,1020094,,,2026-01-23,清算の結了等,,,2018-06-05,1,,,,,ブレインセル,0
1357,6010001192904,登記記録の閉鎖等,0,2026-02-17,2026-01-29,株式会社ＲＥＩＫＯＴＵＲ,,株式会社,東京都,中央区,日本橋茅場町２丁目２番２号ラポール茅場町三恵ビル４０５,,13,102,1030025,,,2026-01-29,清算の結了等,,,2018-06-29,1,,,,,レイコトール,0
1367,6010003025921,登記記録の閉鎖等,0,2026-02-17,2026-01-29,合同会社Ｚｅｌｋｏｖａ,,合同会社,東京都,千代田区,丸の内１丁目４番１号東京共同会計事務所内,,13,101,1000005,,,2026-01-29,清算の結了等,,,2017-08-24,1,,,,,ゼルコバ,0
1391,6010402035934,登記記録の閉鎖等,0,2026-02-17,2026-01-30,有限会社ジェーピーティー,,有限会社,東京都,千代田区,紀尾井町４番３,,13,101,1020094,,,2026-01-30,清算の結了等,,,2015-10-05,1,,,,,ジェーピーティー,0
1425,6011101083563,登記記録の閉鎖等,0,2026-02-17,2026-01-26,インフィニティ・インターナショナル株式会社,,株式会社,東京都,新宿区,市谷左内町１１番地,,13,104,1620846,,,2026-01-26,清算の結了等,,,2018-03-23,1,,,,,インフィニティインターナショナル,0
1434,6011501031477,登記記録の閉鎖等,0,2026-02-17,2026-02-13,栄株式会社,,株式会社,東京都,荒川区,東日暮里５丁目５２番６号,,13,118,1160014,,,2026-02-13,清算の結了等,,,2024-12-16,1,,,,,サカエ,0
1442,6012801009956,登記記録の閉鎖等,0,2026-02-17,2026-02-03,株式会社ユニバーサルアール,,株式会社,東京都,立川市,柴崎町３丁目１６番２３号,,13,202,1900023,,,2026-02-03,清算の結了等,,,2015-10-05,1,,,,,ユニバーサルアール,0
1470,6030002027520,登記記録の閉鎖等,0,2026-02-17,2026-02-02,株式会社タウンファーマシー,,株式会社,山口県,宇部市,大字中野開作６７番地,,35,202,7590203,,,2026-02-02,合併による解散等,9250001020427,令和８年２月１日山口県宇部市大字中野開作６７番地フラワーブロスＴＭＳ株式会社（9250001020427）に合併し解散,2015-10-05,1,,,,,タウンファーマシー,0
1475,6040001061684,登記記録の閉鎖等,0,2026-02-17,2026-01-26,郡エンタープライズ株式会社,,株式会社,千葉県,旭市,萬力３４９８番地の３,,12,215,2890517,,,2026-01-26,清算の結了等,,,2015-10-05,1,,,,,コオリエンタープライズ,0
1500,6100001031103,登記記録の閉鎖等,0,2026-02-17,2026-01-30,株式会社アクアソリューション,,株式会社,長野県,東御市,加沢４４３番地,,20,219,3890514,,,2026-01-30,合併による解散等,3100001000597,令和８年１月２１日長野市大字鶴賀緑町１４１５番地株式会社カクイチ（3100001000597）に合併し解散,2018-04-02,1,,,,,アクアソリューション,0
1502,6100001035748,登記記録の閉鎖等,0,2026-02-17,2026-02-13,株式会社美和ライフネット,,株式会社,長野県,上田市,上田原１３３番地５,,20,203,3861102,,,2026-02-13,清算の結了等,,,2022-10-05,1,,,,,ミワライフネット,0
1505,6110001032100,登記記録の閉鎖等,0,2026-02-17,2026-01-30,白の城株式会社,,株式会社,新潟県,新潟市中央区,上大川前通７番町１２３０番地７ストークビル鏡橋７Ｆ,,15,103,9518068,,,2026-01-30,清算の結了等,,,2017-01-24,1,,,,,シロノシロ,0
1509,6120001133384,登記記録の閉鎖等,0,2026-02-17,2026-02-12,アジュール株式会社,,株式会社,大阪府,大阪市旭区,新森７丁目５番２６号,,27,117,5350022,,,2026-02-12,清算の結了等,,,2015-10-05,1,,,,,アジュール,0
1511,6120001255039,登記記録の閉鎖等,0,2026-02-17,2026-02-09,浩青株式会社,,株式会社,大阪府,大阪市北区,東天満１丁目３－１１,,27,127,5300044,,,2026-02-09,清算の結了等,,,2023-05-18,1,,,,,コウセイ,0
1520,6120002081913,登記記録の閉鎖等,0,2026-02-17,2026-02-12,有限会社鈴木自動車,,有限会社,大阪府,門真市,北岸和田３丁目４番１６号,,27,223,5710007,,,2026-02-12,清算の結了等,,,2015-10-05,1,,,,,スズキジドウシャ,0
1563,6180005010509,登記記録の閉鎖等,0,2026-02-17,2026-02-12,医療法人愛聖会山田歯科,,その他の設立登記法人,愛知県,稲沢市,下津下町東４丁目２番地,,23,220,4928074,,,2026-02-12,清算の結了等,,,2015-10-05,1,,,,,アイセイカイヤマダシカ,0
1571,6190001024750,登記記録の閉鎖等,0,2026-02-17,2026-02-06,マルカ木材株式会社,,株式会社,三重県,松阪市,飯南町粥見１２００番地,,24,204,5151411,,,2026-02-06,合併による解散等,5190001011733,令和８年１月３１日三重県松阪市飯南町下仁柿１３４番地株式会社田上（5190001011733）に合併し解散,2017-06-16,1,,,,,マルカモクザイ,0
1572,6190002014370,登記記録の閉鎖等,0,2026-02-17,2026-02-12,有限会社山越建築企画,,有限会社,三重県,津市,久居野村町５６４番地２,,24,201,5141113,,,2026-02-12,清算の結了等,,,2015-10-05,1,,,,,ヤマコシケンチクキカク,0
1574,6200001028048,登記記録の閉鎖等,0,2026-02-17,2026-02-12,テイクシエン株式会社,,株式会社,岐阜県,各務原市,神置町３丁目９番地,,21,213,5040933,,,2026-02-12,清算の結了等,,,2015-10-05,1,,,,,テイクシエン,0
1587,6280003000501,登記記録の閉鎖等,0,2026-02-17,2026-02-10,合資会社共栄会,,合資会社,島根県,鹿足郡吉賀町,木部谷４７２番地４,,32,505,6995307,,,2026-02-10,清算の結了等,,,2015-10-05,1,,,,,キョウエイカイ,0
1607,6300002001233,登記記録の閉鎖等,0,2026-02-17,2026-02-12,有限会社兵庫調剤薬局,,有限会社,佐賀県,佐賀市,兵庫町大字瓦町９６８番地２,,41,201,8490912,,,2026-02-12,清算の結了等,,,2015-10-05,1,,,,,ヒョウゴチョウザイヤッキョク,0
1613,6320001018598,登記記録の閉鎖等,0,2026-02-17,2026-02-16,株式会社ＦｉｒｓｔＳｔｅｐ,,株式会社,大分県,別府市,大字鶴見２２２３番地の１０,,44,202,8740840,,,2026-02-16,清算の結了等,,,2021-09-13,1,,,,,ファーストステップ,0
1622,6370002010995,登記記録の閉鎖等,0,2026-02-17,2026-02-05,有限会社コセキパーク,,有限会社,宮城県,仙台市泉区,高森６丁目１１番地の１,,04,105,9813203,,,2026-02-05,清算の結了等,,,2015-10-05,1,,,,,コセキパーク,0
1623,6370302001067,登記記録の閉鎖等,0,2026-02-17,2026-02-06,有限会社さくら保険システム,,有限会社,宮城県,東松島市,矢本字大溜１２５番地９,,04,214,9810503,,,2026-02-06,清算の結了等,,,2015-10-05,1,,,,,サクラホケンシステム,0
1629,6400502001251,登記記録の閉鎖等,0,2026-02-17,2026-02-09,有限会社スズキオート千厩,00085806,有限会社,岩手県,一関市,千厩町千厩字摩王１００番地１,00085807,03,209,0290803,,,2026-02-09,清算の結了等,,,2015-10-05,1,,,,,,0
1634,6450002009831,登記記録の閉鎖等,0,2026-02-17,2026-02-09,有限会社しおた,,有限会社,北海道,名寄市,西三条北７丁目３番地１ノースハイツ２０１号,,01,221,0960033,,,2026-02-09,清算の結了等,,,2015-10-05,1,,,,,シオタ,0
1636,6470002009763,登記記録の閉鎖等,0,2026-02-17,2026-02-13,ケイズ運輸有限会社,,有限会社,香川県,高松市,香南町岡４３７番地１,,37,201,7611401,,,2026-02-13,清算の結了等,,,2015-10-05,1,,,,,ケイズウンユ,0
1645,7010003037718,登記記録の閉鎖等,0,2026-02-17,2026-01-30,ＶＥＲＥＤ２合同会社,,合同会社,東京都,中央区,八丁堀４丁目２番１０号ＡＯＪ税理士法人内,,13,102,1040032,,,2026-01-30,清算の結了等,,,2022-05-23,1,,,,,ヴェレッドツー,0
1668,7010601009119,登記記録の閉鎖等,0,2026-02-17,2026-02-05,株式会社安藤精密,,株式会社,東京都,墨田区,東駒形２丁目８番５号,,13,107,1300005,,,2026-02-05,清算の結了等,,,2015-10-05,1,,,,,アンドウセイミツ,0
1678,7010905003305,登記記録の閉鎖等,0,2026-02-17,2026-02-12,北嶺一般社団法人,,その他の設立登記法人,東京都,千代田区,神田小川町３丁目２６番８号神田小川町三丁目ビル６階,,13,101,1010052,,,2026-02-12,清算の結了等,,,2016-11-09,1,,,,,キタミネ,0
1681,7011001167911,登記記録の閉鎖等,0,2026-02-17,2026-01-26,株式会社グランエトワール,,株式会社,東京都,港区,赤坂７丁目１１番１０号赤坂ＡＳビル４階,,13,103,1070052,,,2026-01-26,合併による解散等,7011101082878,令和８年１月１８日東京都港区赤坂七丁目１１番１０号赤坂ＡＳビル４階株式会社グランエトワール（7011101082878）に合併し解散,2025-02-21,1,,,,,グランエトワール,0
1683,7011003009723,登記記録の閉鎖等,0,2026-02-17,2026-01-30,ＲＰＡコンサルティング合同会社,,合同会社,東京都,千代田区,神田神保町３丁目７番１号,,13,101,1010051,,,2026-01-30,清算の結了等,,,2019-03-06,1,,,,,アールピーエーコンサルティング,0
1699,7011201004014,登記記録の閉鎖等,0,2026-02-17,2026-02-05,中谷製菓株式会社,,株式会社,東京都,東久留米市,南町３丁目１０番２９号,,13,222,2030031,,,2026-02-05,清算の結了等,,,2015-10-05,1,,,,,ナカタニセイカ,0
1726,7020002072459,登記記録の閉鎖等,0,2026-02-17,2026-02-02,有限会社アネストホーム,,有限会社,神奈川県,横浜市中区,扇町１丁目１番地２５,,14,104,2310027,,,2026-02-02,合併による解散等,5020002009834,令和８年２月１日横浜市中区扇町一丁目１番地２５キンガ・グランエステート株式会社（5020002009834）に合併し解散,2015-10-05,1,,,,,アネストホーム,0
1748,7030005020182,登記記録の閉鎖等,0,2026-02-17,2026-02-03,一般社団法人カルツィオーネスポーツクラブ,,その他の設立登記法人,埼玉県,鴻巣市,加美３丁目３番１５号,,11,217,3650078,,,2026-02-03,清算の結了等,,,2020-12-09,1,,,,,カルツイオーネ,0
1754,7040003018979,登記記録の閉鎖等,0,2026-02-17,2026-01-26,Ｍａｔｈｅｍａｔｉｃｉａｎ合同会社,,合同会社,千葉県,佐倉市,臼井１５０３番地２,,12,212,2850863,,,2026-01-26,清算の結了等,,,2021-12-01,1,,,,,マセマティシャン,0
1763,7070005008488,登記記録の閉鎖等,0,2026-02-17,2026-02-12,特定非営利活動法人草の根国際協力研修プログラム,,その他の設立登記法人,群馬県,館林市,本町１丁目１番４３号,,10,207,3740024,,,2026-02-12,清算の結了等,,,2015-10-05,1,,,,,,0
1803,7130002008583,登記記録の閉鎖等,0,2026-02-17,2026-02-13,有限会社フォスター,,有限会社,京都府,京都市南区,吉祥院中河原里北町１４番地４,,26,107,6018394,,,2026-02-13,清算の結了等,,,2015-10-05,1,,,,,フォスター,0
1823,7180001015808,登記記録の閉鎖等,0,2026-02-17,2026-02-09,株式会社よこい鳳月,,株式会社,愛知県,名古屋市南区,丹後通４丁目１１番地,,23,112,4570801,,,2026-02-09,清算の結了等,,,2015-10-05,1,,,,,ヨコイホウゲツ,0
1827,7180001143872,登記記録の閉鎖等,0,2026-02-17,2026-02-13,株式会社ＮＥＯ断熱設計工房,,株式会社,愛知県,稲沢市,祖父江町祖父江五反田１９４番地１,,23,220,4950001,,,2026-02-13,清算の結了等,,,2020-12-07,1,,,,,ネオダンネツセッケイコウボウ,0
1832,7220001022808,登記記録の閉鎖等,0,2026-02-17,2026-02-16,ＧＥＡＣ株式会社,,株式会社,石川県,白山市,鍛治町３番地,,17,210,9240876,,,2026-02-16,清算の結了等,,,2019-04-05,1,,,,,ジーク,0
1836,7240002038207,登記記録の閉鎖等,0,2026-02-17,2026-02-13,有限会社錦水サービス,,有限会社,広島県,廿日市市,宮島町１１３３番地,,34,213,7390588,,,2026-02-13,清算の結了等,,,2015-10-05,1,,,,,キンスイサービス,0
1839,7260001034262,登記記録の閉鎖等,0,2026-02-17,2026-02-12,株式会社共生,,株式会社,岡山県,岡山市北区,田中６２６番８,,33,101,7000951,,,2026-02-12,清算の結了等,,,2020-04-20,1,,,,,キョウセイ,0
1845,7290001035480,登記記録の閉鎖等,0,2026-02-17,2026-02-09,株式会社緑丸ケアサービス,,株式会社,福岡県,筑紫野市,大字原７０８番地２５,,40,217,8180005,,,2026-02-09,清算の結了等,,,2015-10-05,1,,,,,ミドリマルケアサービス,0
1848,7290002028005,登記記録の閉鎖等,0,2026-02-17,2026-02-06,有限会社正和,,有限会社,福岡県,那珂川市,西隈３丁目６番４号,,40,231,8111242,,,2026-02-06,清算の結了等,,,2015-10-05,1,,,,,ショウワ,0
1856,7310001002189,登記記録の閉鎖等,0,2026-02-17,2026-02-16,株式会社メリサジャパン,,株式会社,長崎県,長崎市,元船町９番１８号,,42,201,8500035,,,2026-02-16,清算の結了等,,,2015-10-05,1,,,,,メリサジャパン,0
1863,7330002011063,登記記録の閉鎖等,0,2026-02-17,2026-02-06,有限会社熊電資材,,有限会社,熊本県,熊本市中央区,南熊本４丁目２番１１号,,43,101,8600812,,,2026-02-06,清算の結了等,,,2015-10-05,1,,,,,ユウデンシザイ,0
1871,7360002003495,登記記録の閉鎖等,0,2026-02-17,2026-02-12,有限会社ハイライズ田島,,有限会社,沖縄県,那覇市,字真地３３９番地,,47,201,9020072,,,2026-02-12,清算の結了等,,,2015-10-05,1,,,,,ハイライズタジマ,0
1875,7370003005754,登記記録の閉鎖等,0,2026-02-17,2026-01-06,合同会社Ｔ＆Ｄ,,合同会社,宮城県,仙台市青葉区,高松１丁目１６番１０コーポ高松１０３号室,,04,101,9810907,,,2026-01-06,清算の結了等,,,2022-07-06,1,,,,,ティーアンドディー,0
1881,7430001001088,登記記録の閉鎖等,0,2026-02-17,2026-02-13,株式会社アルファー造形,,株式会社,北海道,札幌市北区,新琴似町１０３１番地１３１,,01,102,0010915,,,2026-02-13,清算の結了等,,,2015-10-05,1,,,,,アルファーゾウケイ,0
1883,7430001040607,登記記録の閉鎖等,0,2026-02-17,2026-02-12,株式会社たかみね,,株式会社,北海道,札幌市清田区,平岡五条４丁目９番１号,,01,110,0040875,,,2026-02-12,清算の結了等,,,2015-10-05,1,,,,,タカミネ,0
1886,7430003009014,登記記録の閉鎖等,0,2026-02-17,2026-02-16,合同会社美美,,合同会社,北海道,札幌市中央区,南八条西１丁目１３番地１２,,01,101,0640808,,,2026-02-16,清算の結了等,,,2018-01-11,1,,,,,,0
1920,8010402004318,登記記録の閉鎖等,0,2026-02-17,2026-01-26,有限会社クラシックダイヤル,,有限会社,東京都,港区,西麻布１丁目１２番１号,,13,103,1060031,,,2026-01-26,清算の結了等,,,2015-10-05,1,,,,,,0
1922,8010405020923,登記記録の閉鎖等,0,2026-02-17,2026-01-26,Ａｌｆａ一般社団法人,,その他の設立登記法人,東京都,港区,虎ノ門３丁目２２番１０－２０１号,,13,103,1050001,,,2026-01-26,清算の結了等,,,2022-04-25,1,,,,,アルファ,0
1930,8010601034702,登記記録の閉鎖等,0,2026-02-17,2026-02-05,株式会社テイ．エス．ケイ,,株式会社,東京都,江東区,東陽２丁目３番６－５２２号,,13,108,1350016,,,2026-02-05,清算の結了等,,,2015-10-05,1,,,,,テイエスケイ,0
1943,8010701046481,登記記録の閉鎖等,0,2026-02-17,2026-02-12,株式会社Ｐｒｏｓｐｅｒ　Ｅｓｔａｔｅ,,株式会社,東京都,品川区,大崎２丁目９番１号,,13,109,1410032,,,2026-02-12,清算の結了等,,,2024-09-06,1,,,,,プロスパーエステート,0
1945,8010705003710,登記記録の閉鎖等,0,2026-02-17,2026-02-10,一般社団法人ソーラー２０２５春,,その他の設立登記法人,東京都,品川区,上大崎３丁目１番１号目黒セントラルスクエア１５階,,13,109,1410021,,,2026-02-10,清算の結了等,,,2024-11-27,1,,,,,ソーラーニゼロニゴハル,0
1946,8010801021368,登記記録の閉鎖等,0,2026-02-17,2026-02-04,株式会社スキルエージェント,,株式会社,東京都,大田区,東海４丁目４番１２号,,13,111,1430001,,,2026-02-04,清算の結了等,,,2015-10-05,1,,,,,スキルエージェント,0
1951,8010902015954,登記記録の閉鎖等,0,2026-02-17,2026-02-13,有限会社横山デザインスタジオ,,有限会社,東京都,世田谷区,上用賀１丁目２５番１９号,,13,112,1580098,,,2026-02-13,清算の結了等,,,2015-10-05,1,,,,,ヨコヤマデザインスタジオ,0
1955,8011001091879,登記記録の閉鎖等,0,2026-02-17,2026-01-28,株式会社ｐａｒａｆｕｓｏ,,株式会社,東京都,中央区,銀座８丁目１６番６号ときわぎ館,,13,102,1040061,,,2026-01-28,清算の結了等,,,2015-10-05,1,,,,,パラフーゾ,0
1956,8011001125463,登記記録の閉鎖等,0,2026-02-17,2026-01-22,日本ＤＪ検定協会株式会社,,株式会社,東京都,渋谷区,神南１丁目１２番１６号アジアビル４Ｆ,,13,113,1500041,,,2026-01-22,清算の結了等,,,2018-12-03,1,,,,,ニホンディージェイケンテイキョウカイ,0
1967,8011101110860,登記記録の閉鎖等,0,2026-02-17,2026-01-27,株式会社コマダント,,株式会社,東京都,新宿区,新宿６丁目２９番１１号イーストクロスタワー１０Ｆ－Ｃ８,,13,104,1600022,,,2026-01-27,清算の結了等,,,2025-03-05,1,,,,,コマダント,0
1980,8011601021772,登記記録の閉鎖等,0,2026-02-17,2026-02-09,扇工業株式会社,,株式会社,東京都,練馬区,桜台６丁目４３番８号,,13,120,1760002,,,2026-02-09,清算の結了等,,,2017-05-12,1,,,,,オウギコウギョウ,0
1981,8011603002077,登記記録の閉鎖等,0,2026-02-17,2026-02-05,ペットサポート合同会社,,合同会社,東京都,豊島区,駒込６丁目２６番１０号,,13,116,1700003,,,2026-02-05,清算の結了等,,,2017-04-20,1,,,,,ペットサポート,0
2006,8021005011948,登記記録の閉鎖等,0,2026-02-17,2026-01-26,一般社団法人相模原道志川観光推進連合会,,その他の設立登記法人,神奈川県,相模原市緑区,青野原９３１番地１,,14,151,2520161,,,2026-01-26,清算の結了等,,,2020-05-28,1,,,,,サガミハラドウシカンコウスイシンレンゴウカイ,0
2037,8100001018651,登記記録の閉鎖等,0,2026-02-17,2026-02-10,株式会社松一,,株式会社,長野県,諏訪市,大字豊田２３０番地１,,20,206,3920016,,,2026-02-10,清算の結了等,,,2015-10-05,1,,,,,マツイチ,0
2038,8100001027693,登記記録の閉鎖等,0,2026-02-17,2026-02-12,株式会社ビソー企画,,株式会社,長野県,下伊那郡松川町,上片桐３３１４番地３,,20,402,3993301,,,2026-02-12,清算の結了等,,,2015-10-05,1,,,,,ビソーキカク,0
2053,8120001275514,登記記録の閉鎖等,0,2026-02-17,2026-02-12,潤楽株式会社,,株式会社,大阪府,大阪市都島区,都島中通２丁目１１－１０－２０１,,27,102,5340022,,,2026-02-12,清算の結了等,,,2025-05-12,1,,,,,ジュンラク,0
2065,8120003028969,登記記録の閉鎖等,0,2026-02-17,2026-02-13,合同会社ＡＸＩＳ,,合同会社,大阪府,大阪市淀川区,十三東１丁目１７番２１号ウインズビル４０２号,,27,123,5320023,,,2026-02-13,清算の結了等,,,2025-03-28,1,,,,,アクシス,0
2071,8120102011198,登記記録の閉鎖等,0,2026-02-17,2026-01-30,有限会社自由都市,,有限会社,大阪府,堺市北区,百舌鳥赤畑町１丁８番１０号,,27,146,5918037,,,2026-01-30,合併による解散等,6120101000872,令和８年１月３０日大阪府堺市中区深井清水町４０３１番地－６０３号井村興産株式会社（6120101000872）に合併し解散,2015-10-05,1,,,,,ジユウトシ,0
2077,8122002010643,登記記録の閉鎖等,0,2026-02-17,2026-02-05,有限会社高間,00034810,有限会社,大阪府,東大阪市,横枕７番１３号,,27,227,5780954,,,2026-02-05,清算の結了等,,,2015-10-05,1,,,,,タカマ,0
2086,8150002005198,登記記録の閉鎖等,0,2026-02-17,2026-02-12,有限会社ビルチェック,,有限会社,奈良県,大和郡山市,城北町５番４７号,,29,203,6391004,,,2026-02-12,清算の結了等,,,2015-10-05,1,,,,,ビルチェック,0
2099,8180003004881,登記記録の閉鎖等,0,2026-02-17,2026-02-09,合資会社近江屋,,合資会社,愛知県,名古屋市中区,大須３丁目２９番２２号,,23,106,4600011,,,2026-02-09,清算の結了等,,,2015-10-05,1,,,,,オウミヤ,0
2102,8180301024193,登記記録の閉鎖等,0,2026-02-17,2026-02-09,株式会社村雲工務店,,株式会社,愛知県,北設楽郡東栄町,大字下田字門前１３番地４,,23,562,4490206,,,2026-02-09,清算の結了等,,,2015-10-05,1,,,,,ムラグモコウムテン,0
2112,8240001019181,登記記録の閉鎖等,0,2026-02-17,2026-02-16,鯉城不動産株式会社,,株式会社,広島県,広島市南区,東雲２丁目１９番１５号,,34,103,7340022,,,2026-02-16,清算の結了等,,,2015-10-05,1,,,,,リジョウフドウサン,0
2115,8240002048378,登記記録の閉鎖等,0,2026-02-17,2026-02-13,有限会社極真工業,,有限会社,広島県,安芸郡府中町,茂陰２丁目２番２４－３０２号,,34,302,7350029,,,2026-02-13,清算の結了等,,,2015-10-05,1,,,,,キョクシンコウギョウ,0
2123,8270001005955,登記記録の閉鎖等,0,2026-02-17,2026-02-12,株式会社ノヴァアグリ八頭,,株式会社,鳥取県,八頭郡八頭町,茂田１０５番地,,31,329,6800524,,,2026-02-12,清算の結了等,,,2015-10-05,1,,,,,ノヴァアグリヤズ,0
2124,8270001006433,登記記録の閉鎖等,0,2026-02-17,2026-02-13,株式会社Ｍ．Ｊ．ＮＥＸＴ,,株式会社,鳥取県,米子市,両三柳５０７７番地,,31,202,6830853,,,2026-02-13,清算の結了等,,,2015-10-05,1,,,,,エムジェイネクスト,0
2126,8280002011588,登記記録の閉鎖等,0,2026-02-17,2026-02-13,有限会社やまさき食品,,有限会社,島根県,雲南市,大東町大東下分５３８番地１,,32,209,6991242,,,2026-02-13,清算の結了等,,,2015-10-05,1,,,,,ヤマサキショウクヒン,0
2147,8380002005778,登記記録の閉鎖等,0,2026-02-17,2026-02-10,有限会社大光技建,,有限会社,福島県,伊達郡川俣町,山木屋字上田代１５番地,,07,308,9601501,,,2026-02-10,清算の結了等,,,2015-10-05,1,,,,,ダイコウギケン,0
2155,8430002038665,登記記録の閉鎖等,0,2026-02-17,2026-02-12,有限会社ファミリーショップもりやま,,有限会社,北海道,札幌市中央区,宮ケ丘３番地１円山動物園内,,01,101,0640959,,,2026-02-12,清算の結了等,,,2015-10-05,1,,,,,ファミリーショップモリヤマ,0
2175,9010001016424,登記記録の閉鎖等,0,2026-02-17,2026-01-30,株式会社日陸,,株式会社,東京都,千代田区,神田錦町３丁目７番地１,,13,101,1010054,,,2026-01-30,清算の結了等,,,2015-10-05,1,,,,,ニチリク,0
2176,9010001119937,登記記録の閉鎖等,0,2026-02-17,2026-01-06,株式会社アイコス,,株式会社,東京都,港区,六本木１丁目８番７号,,13,103,1060032,,,2026-01-06,合併による解散等,2010401045005,令和８年１月１日東京都港区虎ノ門四丁目３番１号城山トラストタワー９階株式会社テンナイン・コミュニケーション（2010401045005）に合併し解散,2015-10-05,1,ICOS INC.,Tokyo,"1-8-7, Roppongi, Minato ku",,アイコス,0
2187,9010005014878,登記記録の閉鎖等,0,2026-02-17,2026-02-10,一般社団法人Ｇ２,,その他の設立登記法人,東京都,中央区,日本橋１丁目４番１号,,13,102,1030027,,,2026-02-10,清算の結了等,,,2015-10-05,1,,,,,ジーツー,0
2211,9010601056200,登記記録の閉鎖等,0,2026-02-17,2026-02-06,株式会社久米開発プロデュース,,株式会社,東京都,江東区,潮見２丁目１番２２号,,13,108,1350052,,,2026-02-06,清算の結了等,,,2019-10-02,1,,,,,クメカイハツプロデュース,0
2215,9010703002300,登記記録の閉鎖等,0,2026-02-17,2026-02-12,合同会社ＡＮＩＣ,,合同会社,愛知県,名古屋市千種区,山門町２丁目８０番地１,,23,101,4640064,,,2026-02-12,清算の結了等,,,2015-10-05,1,,,,,アニック,0
2227,9011003019654,登記記録の閉鎖等,0,2026-02-17,2026-01-13,合同会社Ｌｅｖｉｃａ,,合同会社,東京都,渋谷区,道玄坂１丁目１０番８号渋谷道玄坂東急ビル２Ｆ‐Ｃ,,13,113,1500043,,,2026-01-13,清算の結了等,,,2024-07-24,1,,,,,レヴィカ,0
2231,9011101104606,登記記録の閉鎖等,0,2026-02-17,2026-01-26,株式会社ｔｏＣＡＲＯ,,株式会社,東京都,新宿区,納戸町３２番地３,,13,104,1620837,,,2026-01-26,清算の結了等,,,2023-10-05,1,,,,,トゥカーロ,0
2234,9011303003886,登記記録の閉鎖等,0,2026-02-17,2026-02-06,合同会社ＫＯＮＯＨＡＮＡ,,合同会社,東京都,杉並区,阿佐谷北４丁目２３番４号,,13,115,1660001,,,2026-02-06,清算の結了等,,,2021-01-15,1,,,,,コノハナ,0
2237,9011501021806,登記記録の閉鎖等,0,2026-02-17,2026-02-13,鵬成株式会社,,株式会社,東京都,足立区,西伊興２丁目３番３１号１Ｆ,,13,121,1210824,,,2026-02-13,清算の結了等,,,2016-08-02,1,,,,,ホウセイ,0
2248,9011802021942,登記記録の閉鎖等,0,2026-02-17,2026-01-26,有限会社アズビス,,有限会社,東京都,千代田区,東神田２丁目２番７号,,13,101,1010031,,,2026-01-26,清算の結了等,,,2015-10-05,1,,,,,アズビス,0
2249,9012301002145,登記記録の閉鎖等,0,2026-02-17,2026-02-13,株式会社西東京協同事業所,,株式会社,東京都,町田市,下小山田町１４７５番地,,13,209,1940202,,,2026-02-13,清算の結了等,,,2015-10-05,1,,,,,ニシトウキョウキョウドウジギョウショ,0
2251,9012701018377,登記記録の閉鎖等,0,2026-02-17,2026-02-06,株式会社トライ,,株式会社,東京都,豊島区,南大塚２丁目１１－１０ミモザビル３Ｆ,,13,116,1700005,,,2026-02-06,清算の結了等,,,2024-07-26,1,,,,,トライ,0
2263,9020001154231,登記記録の閉鎖等,0,2026-02-17,2026-02-10,天和産業株式会社,,株式会社,神奈川県,横浜市中区,山田町４番地フロール山田町第１共同住宅１０９,,14,104,2310036,,,2026-02-10,清算の結了等,,,2023-11-02,1,,,,,テンワサンギョウ,0
2267,9020002080567,登記記録の閉鎖等,0,2026-02-17,2026-02-05,有限会社新木築炉工業所,,有限会社,神奈川県,川崎市幸区,神明町１丁目４３番地,,14,132,2120022,,,2026-02-05,清算の結了等,,,2015-10-05,1,,,,,アラキチクロコウギョウショ,0
2268,9020002103501,登記記録の閉鎖等,0,2026-02-17,2026-02-04,有限会社ＫＭインターナショナル・アソシエイツ,,有限会社,神奈川県,川崎市宮前区,宮崎５丁目１１番３８テラス７７Ａ－１０８,,14,136,2160033,,,2026-02-04,清算の結了等,,,2015-10-05,1,,,,,ケーエムインターナショナルアソシエイツ,0
2291,9040002066408,登記記録の閉鎖等,0,2026-02-17,2026-01-26,有限会社関東ミニポンプ,,有限会社,千葉県,木更津市,大久保４７５番地,,12,206,2920815,,,2026-01-26,清算の結了等,,,2015-10-05,1,,,,,カントウミニポンプ,0
2293,9040003010166,登記記録の閉鎖等,0,2026-02-17,2026-01-26,及川工業合同会社,,合同会社,千葉県,市川市,大洲４丁目３番２号,,12,203,2720032,,,2026-01-26,清算の結了等,,,2017-06-13,1,,,,,オイカワコウギョウ,0
2298,9050001049726,登記記録の閉鎖等,0,2026-02-17,2026-02-04,Ｒｅ．ｍａｉｎ株式会社,,株式会社,茨城県,笠間市,八雲２丁目１２番２８号,,08,216,3091736,,,2026-02-04,清算の結了等,,,2021-08-23,1,,,,,リメイン,0
2303,9060001014159,登記記録の閉鎖等,0,2026-02-17,2026-02-12,関東工業株式会社,,株式会社,群馬県,館林市,朝日町２２番３７号ファミーユ１０６号,,10,207,3740063,,,2026-02-12,清算の結了等,,,2015-10-05,1,,,,,カントウコウギョウ,0
2308,9080102012539,登記記録の閉鎖等,0,2026-02-17,2026-02-12,有限会社エンドウ建工,,有限会社,静岡県,三島市,佐野５９番地,,22,206,4110047,,,2026-02-12,清算の結了等,,,2015-10-05,1,,,,,エンドウケンコウ,0
2311,9100001031199,登記記録の閉鎖等,0,2026-02-17,2026-02-12,株式会社おたりアセット,,株式会社,長野県,北安曇郡小谷村,大字中小谷丙１３１番地小谷村役場２０６号室,,20,486,3999421,,,2026-02-12,清算の結了等,,,2018-05-01,1,,,,,オタリアセット,0
2314,9100005013136,登記記録の閉鎖等,0,2026-02-17,2026-02-12,一般社団法人ｌｅａｆ　ｖｅｉｎ,,その他の設立登記法人,長野県,中野市,大字江部１４４５番地１,,20,211,3830045,,,2026-02-12,清算の結了等,,,2024-03-07,1,,,,,リーフベイン,0
2329,9120101051698,登記記録の閉鎖等,0,2026-02-17,2026-02-05,株式会社ＩＳテック,,株式会社,大阪府,和泉市,鶴山台１丁目１２番２０号,,27,219,5940013,,,2026-02-05,清算の結了等,,,2015-10-05,1,,,,,アイエステック,0
2342,9130002001388,登記記録の閉鎖等,0,2026-02-17,2026-02-13,有限会社広畑製作所,,有限会社,京都府,京都市右京区,山ノ内五反田町１２番地の１,,26,108,6150096,,,2026-02-13,清算の結了等,,,2015-10-05,1,,,,,ヒロハタセイサクショ,0
2344,9140001007996,登記記録の閉鎖等,0,2026-02-17,2026-02-10,三宮ターミナルビル株式会社,,株式会社,兵庫県,神戸市中央区,雲井通８丁目１番２号,,28,110,6510096,,,2026-02-10,清算の結了等,,,2015-10-05,1,,,,,サンノミヤターミナルビル,0
2381,9200002024381,登記記録の閉鎖等,0,2026-02-17,2026-02-10,有限会社三星商会,,有限会社,岐阜県,恵那市,山岡町原１１８４番地の１,,21,210,5097605,,,2026-02-10,清算の結了等,,,2015-10-05,1,,,,,ミツボシショウカイ,0
2391,9260002018898,登記記録の閉鎖等,0,2026-02-17,2026-02-12,有限会社白神エンジニアリング,,有限会社,岡山県,倉敷市,八王寺町２８７番地２０,,33,202,7100816,,,2026-02-12,清算の結了等,,,2015-10-05,1,,,,,,0
2392,9260003004328,登記記録の閉鎖等,0,2026-02-17,2026-02-05,合同会社クルリンパ,,合同会社,岡山県,高梁市,川上町下大竹２０８５番地,,33,209,7160212,,,2026-02-05,清算の結了等,,,2023-06-07,1,,,,,クルリンパ,0
2402,9290803003179,登記記録の閉鎖等,0,2026-02-17,2026-02-12,合同会社高須会計,,合同会社,福岡県,北九州市若松区,高須東４丁目６番２２号,,40,103,8080144,,,2026-02-12,清算の結了等,,,2018-08-22,1,,,,,タカスカイケイ,0
2406,9310001016336,登記記録の閉鎖等,0,2026-02-17,2026-02-16,エフティーエス株式会社,,株式会社,長崎県,長崎市,秋月町５番６号,,42,201,8500064,,,2026-02-16,清算の結了等,,,2019-10-03,1,,,,,エフティーエス,0
2409,9320005000021,登記記録の閉鎖等,0,2026-02-17,2026-02-10,医療法人坂本整形形成外科,,その他の設立登記法人,大分県,大分市,大字森町字壱丁田通４４２番７,,44,201,8700127,,,2026-02-10,清算の結了等,,,2015-10-05,1,,,,,サカモトセイケイケイセイゲカ,0
