sequenceNumber,corporateNumber,process,correct,updateDate,changeDate,name,nameImageId,kind,prefectureName,cityName,streetNumber,addressImageId,prefectureCode,cityCode,postCode,addressOutside,addressOutsideImageId,closeDate,closeCause,successorCorporateNumber,changeCause,assignmentDate,latest,enName,enPrefectureName,enCityName,enAddressOutside,furigana,hihyoji
6,1010001246805,新規,0,2024-08-05,2024-08-05,株式会社ハイドロメディック,,株式会社,東京都,中央区,日本橋人形町３丁目３番１５号大橋芳町ビル４Ｆ,,13,102,1030013,,,,,,,2024-08-05,1,,,,,ハイドロメディック,0
8,1010003044430,新規,0,2024-08-05,2024-08-05,ウェリナ合同会社,,合同会社,東京都,中央区,晴海３丁目１３番１－６０６号,,13,102,1040053,,,,,,,2024-08-05,1,,,,,ウェリナ,0
14,1010401184150,新規,0,2024-08-05,2024-08-05,株式会社ＥａｎｄＹ,,株式会社,東京都,港区,北青山１丁目３番１号アールキューブ青山３階,,13,103,1070061,,,,,,,2024-08-05,1,,,,,イーアンドワイ,0
15,1010401184183,新規,0,2024-08-05,2024-08-05,株式会社ＰｒｏｍｏｔｉｏｎｌｎＨｏｕｓｅ,,株式会社,東京都,港区,六本木２丁目３－５－６０２,,13,103,1060032,,,,,,,2024-08-05,1,,,,,プロモーションインハウス,0
16,1010401184217,新規,0,2024-08-05,2024-08-05,株式会社Ｒｅ,,株式会社,東京都,港区,南青山２丁目２番１５号ウィン青山９４２,,13,103,1070062,,,,,,,2024-08-05,1,,,,,アールイー,0
17,1010401184241,新規,0,2024-08-05,2024-08-05,株式会社アールフューチャー,,株式会社,東京都,港区,芝５丁目３２－１２,,13,103,1080014,,,,,,,2024-08-05,1,,,,,アールフューチャー,0
18,1010401184258,新規,0,2024-08-05,2024-08-05,株式会社ドルフィン・バリュー・アップ１５号,,株式会社,東京都,港区,芝公園１丁目１番１号住友不動産御成門タワー７階,,13,103,1050011,,,,,,,2024-08-05,1,,,,,ドルフィンバリューアップジュウゴゴウ,0
19,1010401184282,新規,0,2024-08-05,2024-08-05,株式会社ＣＵＬＴＵＲＥ　ＯＮＥ,,株式会社,東京都,港区,新橋６丁目７番９号,,13,103,1050004,,,,,,,2024-08-05,1,,,,,カルチャーワン,0
22,1010403033090,新規,0,2024-08-05,2024-08-05,合同会社ＳＰＩＣＥ,,合同会社,東京都,港区,南青山３丁目１番３６号青山丸竹ビル６Ｆ,,13,103,1070062,,,,,,,2024-08-05,1,,,,,スパイス,0
23,1010403033165,新規,0,2024-08-05,2024-08-05,満天合同会社,,合同会社,東京都,港区,白金６丁目１５番１４－１００３号,,13,103,1080072,,,,,,,2024-08-05,1,,,,,マンテン,0
24,1010501052703,新規,0,2024-08-05,2024-08-05,ｐｉｎｋ　ｂｌｏｏｄ株式会社,,株式会社,東京都,台東区,竜泉３丁目３３番１１号アンベリール三ノ輪２０２,,13,106,1100012,,,,,,,2024-08-05,1,,,,,ピンクブラッド,0
28,1010801035291,新規,0,2024-08-05,2024-08-05,株式会社ＨＩＴＥＬＡＳ,,株式会社,東京都,大田区,中馬込３丁目２９番１２号,,13,111,1430027,,,,,,,2024-08-05,1,,,,,ヒテラス,0
30,1010803005045,新規,0,2024-08-05,2024-08-05,ケーエムダブリュウ合同会社,,合同会社,東京都,大田区,中馬込１丁目１５番８号,,13,111,1430027,,,,,,,2024-08-05,1,,,,,ケーエムダブリュウ,0
31,1010905004647,新規,0,2024-08-05,2024-08-05,一般社団法人日本手話文化協会,,その他の設立登記法人,東京都,世田谷区,松原２丁目３１番１２号Ｂｌｏｏｍ２４松原３０３号,,13,112,1560043,,,,,,,2024-08-05,1,,,,,ニホンシュワブンカキョウカイ,0
38,1011001163718,新規,0,2024-08-05,2024-08-05,株式会社ＰＯＴＯ,,株式会社,東京都,目黒区,中町１丁目２８番４－３０７号,,13,110,1530065,,,,,,,2024-08-05,1,,,,,ポト,0
39,1011001163742,新規,0,2024-08-05,2024-08-05,株式会社尾留川,,株式会社,東京都,目黒区,中町２丁目３番１９号,,13,110,1530065,,,,,,,2024-08-05,1,,,,,ビルカワ,0
40,1011001163800,新規,0,2024-08-05,2024-08-05,株式会社ＳＥＡ,,株式会社,東京都,渋谷区,幡ヶ谷１丁目１番１号,,13,113,1510072,,,,,,,2024-08-05,1,,,,,エスイーエー,0
41,1011001163825,新規,0,2024-08-05,2024-08-05,株式会社Ｙａｔｔｅｌ,,株式会社,東京都,目黒区,南３丁目８番７号１Ｆ,,13,110,1520013,,,,,,,2024-08-05,1,,,,,ヤッテル,0
42,1011001163924,新規,0,2024-08-05,2024-08-05,株式会社ＡｌｔｅｒＨ,,株式会社,東京都,渋谷区,神宮前６丁目２３番４号桑野ビル２階,,13,113,1500001,,,,,,,2024-08-05,1,,,,,オルターエイチ,0
44,1011003019694,新規,0,2024-08-05,2024-08-05,合同会社Ｌｉｂｒｅ,,合同会社,東京都,渋谷区,恵比寿西２丁目８番４号ＥＸ恵比寿西ビル５階,,13,113,1500021,,,,,,,2024-08-05,1,,,,,リブレ,0
45,1011003019703,新規,0,2024-08-05,2024-08-05,ＤＶＣ　Ｊａｐａｎ合同会社,,合同会社,東京都,渋谷区,神宮前１丁目５番８号神宮前タワービルディング１４階,,13,113,1500001,,,,,,,2024-08-05,1,,,,,ディーヴィーシージャパン,0
55,1011105011112,新規,0,2024-08-05,2024-08-05,一般社団法人日本脳トレ・脳育協会,,その他の設立登記法人,東京都,新宿区,新宿５丁目１７番６号三光町ハイム１階デジタル名刺ショップ,,13,104,1600022,,,,,,,2024-08-05,1,,,,,ニホンノウトレノウイクキョウカイ,0
56,1011201025692,新規,0,2024-08-05,2024-08-05,Ｎｏｃｔｉｓ　Ｃｏｒｐｓ株式会社,,株式会社,東京都,中野区,江原町２丁目２３番１５号,,13,114,1650023,,,,,,,2024-08-05,1,,,,,ノクティスコア,0
58,1011301029899,新規,0,2024-08-05,2024-08-05,株式会社ＧＩＦｔｏ,,株式会社,東京都,杉並区,高円寺北３丁目４３番１５号,,13,115,1660002,,,,,,,2024-08-05,1,,,,,ギフト,0
59,1011401026326,新規,0,2024-08-05,2024-08-05,株式会社Ｋ＆Ｓ,,株式会社,東京都,板橋区,大原町９番１５－２０１号,,13,119,1740061,,,,,,,2024-08-05,1,,,,,ケーアンドエス,0
67,1011803006371,新規,0,2024-08-05,2024-08-05,ＰＵＲＥ西新宿合同会社,,合同会社,東京都,足立区,大谷田４丁目１２番６－１０４号,,13,121,1200001,,,,,,,2024-08-05,1,,,,,ピュアニシシンジュク,0
69,1012401042148,新規,0,2024-08-05,2024-08-05,株式会社セカンドスペース,,株式会社,東京都,多摩市,一ノ宮４丁目２４番地の１２,,13,224,2060002,,,,,,,2024-08-05,1,,,,,セカンドスペース,0
70,1012701018392,新規,0,2024-08-05,2024-08-05,Ｊ．Ｆ．デジタルトランスフォーメーション株式会社,,株式会社,東京都,清瀬市,梅園３丁目１９番５号コーポグリーン２０２号,,13,221,2040024,,,,,,,2024-08-05,1,,,,,ジェイエフデジタルトランスフォーメーション,0
72,1013101009478,新規,0,2024-08-05,2024-08-05,株式会社上田装建,,株式会社,東京都,羽村市,羽中３丁目２番１２号,,13,227,2050015,,,,,,,2024-08-05,1,,,,,,0
73,1013301052930,新規,0,2024-08-05,2024-08-05,株式会社リブレテラス,,株式会社,東京都,豊島区,長崎３丁目１４番８号,,13,116,1710051,,,,,,,2024-08-05,1,,,,,リブレテラス,0
74,1013303007247,新規,0,2024-08-05,2024-08-05,クエスチョン合同会社,,合同会社,東京都,豊島区,南大塚２丁目３８番１号リードシー大塚ビル２Ｆ,,13,116,1700005,,,,,,,2024-08-05,1,,,,,クエスチョン,0
108,1030001161713,新規,0,2024-08-05,2024-08-05,株式会社石川工業,,株式会社,埼玉県,川口市,大字安行領根岸１２３９番地の１７,,11,203,3330834,,,,,,,2024-08-05,1,,,,,イシカワコウギョウ,0
109,1030001161738,新規,0,2024-08-05,2024-08-05,株式会社ＡＶＡＮＴＩ,,株式会社,埼玉県,和光市,白子１丁目２８番６号ＶａｌｅＳｔｅｒ１０１,,11,229,3510101,,,,,,,2024-08-05,1,,,,,アヴァンティ,0
110,1030001161779,新規,0,2024-08-05,2024-08-05,ＬｅａＬｅａ株式会社,,株式会社,埼玉県,志木市,下宗岡４丁目２９番３０号,,11,228,3530003,,,,,,,2024-08-05,1,,,,,レアレア,0
115,1030003024868,新規,0,2024-08-05,2024-08-05,合同会社うぃんどとれいす,,合同会社,埼玉県,志木市,本町５丁目２３－２４第３本吉ビル４階４０７,,11,228,3530004,,,,,,,2024-08-05,1,,,,,ウィンドトレース,0
120,1040001134759,新規,0,2024-08-05,2024-08-05,株式会社アイ・メデックスホールディングス,,株式会社,千葉県,千葉市花見川区,宇那谷町１５０４番地６,,12,102,2620003,,,,,,,2024-08-05,1,,,,,アイメデックスホールディングス,0
121,1040001134767,新規,0,2024-08-05,2024-08-05,株式会社ＮＥＸＴ５コンサルティング,,株式会社,千葉県,千葉市中央区,中央港１丁目２０番２１号グランスイートブルー８０５号,,12,101,2600024,,,,,,,2024-08-05,1,,,,,ネクストファイブコンサルティング,0
122,1040001134783,新規,0,2024-08-05,2024-08-05,株式会社ＹＮコーポレーション,,株式会社,千葉県,印西市,中央北２丁目１番地３－１３２５号,,12,231,2701350,,,,,,,2024-08-05,1,,,,,ワイエヌコーポレーション,0
123,1040001134791,新規,0,2024-08-05,2024-08-05,スタナ食器株式会社,,株式会社,千葉県,八千代市,八千代台北９丁目５番３号,,12,221,2760031,,,,,,,2024-08-05,1,,,,,スタナショッキ,0
124,1040001134800,新規,0,2024-08-05,2024-08-05,株式会社ＴＪ‐ＬＡＢＯ,,株式会社,千葉県,柏市,大島田４１４－１,,12,217,2770922,,,,,,,2024-08-05,1,,,,,ティージェーラボ,0
125,1040001134817,新規,0,2024-08-05,2024-08-05,株式会社ＦＵＪＩ　ＣＡＲＥ,,株式会社,千葉県,松戸市,松戸２０９４番地の１０,,12,207,2710092,,,,,,,2024-08-05,1,,,,,フジケア,0
126,1040001134841,新規,0,2024-08-05,2024-08-05,ＰＢコンサルティング株式会社,,株式会社,千葉県,流山市,南流山４丁目１３番地の７第ＩＩキャビンＫＡＴＯ－１０７,00135818,12,220,2700163,,,,,,,2024-08-05,1,,,,,ピービーコンサルティング,0
134,1040002105321,新規,0,2024-08-05,2024-08-05,有限会社中台不動産,,有限会社,千葉県,習志野市,屋敷４丁目２番１号,,12,216,2750004,,,,,,,2024-08-05,1,,,,,,0
146,1080403005075,新規,0,2024-08-05,2024-08-05,合同会社Ｂｕｄｄｙ　Ｏｎｅ,,合同会社,静岡県,浜松市中央区,寺島町１７番地フレクション浜松１－１０４,,22,138,4300925,,,,,,,2024-08-05,1,,,,,バディーワン,0
148,1110001038614,新規,0,2024-08-05,2024-08-05,株式会社利,,株式会社,新潟県,長岡市,蔵王１丁目３番１号,,15,202,9400028,,,,,,,2024-08-05,1,,,,,リンサ,0
149,1110001038622,新規,0,2024-08-05,2024-08-05,株式会社中沢車体,,株式会社,新潟県,南魚沼市,穴地２３５番地１,,15,226,9497245,,,,,,,2024-08-05,1,,,,,ナカザワシャタイ,0
161,1120001267220,新規,0,2024-08-05,2024-08-05,Ｋｉｃｏ株式会社,,株式会社,大阪府,大阪市中央区,南船場３丁目２番２２号おおきに南船場ビル２０５,,27,128,5420081,,,,,,,2024-08-05,1,,,,,キコウ,0
162,1120001267286,新規,0,2024-08-05,2024-08-05,株式会社ルイ建築設計,,株式会社,大阪府,大阪市北区,天神橋５丁目３番１８号３階,,27,127,5300041,,,,,,,2024-08-05,1,,,,,ルイケンチクセッケイ,0
163,1120001267443,新規,0,2024-08-05,2024-08-05,株式会社Ｗｅｌｉｎａ　Ｈｏｔｅｌマネジメント,,株式会社,大阪府,大阪市西淀川区,竹島５丁目４番４３号,,27,113,5550011,,,,,,,2024-08-05,1,,,,,ウェリナホテルマネジメント,0
164,1120001267492,新規,0,2024-08-05,2024-08-05,株式会社ＭＥＧＡ　ＢＩＧ　ＨＵＭＡＮ,,株式会社,大阪府,大阪市天王寺区,味原町１３番９号サンエイ下味原第二ビル,,27,109,5430023,,,,,,,2024-08-05,1,,,,,メガビッグヒューマン,0
165,1120001267518,新規,0,2024-08-05,2024-08-05,禄寿株式会社,,株式会社,大阪府,大阪市西成区,山王１丁目１０番１７号Ａ,,27,122,5570001,,,,,,,2024-08-05,1,,,,,ロクジュ,0
167,1120003027176,新規,0,2024-08-05,2024-08-05,合同会社Ｉｍｐｒｅｓｓ　Ｄｅｓｉｇｎ,,合同会社,大阪府,大阪市中央区,谷町５丁目６番９号２０５号室,,27,128,5400012,,,,,,,2024-08-05,1,,,,,インプレスデザイン,0
173,1120101070103,新規,0,2024-08-05,2024-08-05,株式会社マイト,,株式会社,大阪府,羽曳野市,南古市２丁目６番１５号,,27,222,5830858,,,,,,,2024-08-05,1,,,,,マイト,0
191,1130001077619,新規,0,2024-08-05,2024-08-05,千美企画株式会社,,株式会社,京都府,京都市南区,東九条明田町２５番２５－２階,,26,107,6018044,,,,,,,2024-08-05,1,,,,,センビキカク,0
194,1140003020914,新規,0,2024-08-05,2024-08-05,合同会社Ｌａｂ＆Ｂａｓｅ,,合同会社,兵庫県,たつの市,龍野町富永３２０番地６,,28,229,6794167,,,,,,,2024-08-05,1,,,,,ラボアンドベース,0
196,1150001027464,新規,0,2024-08-05,2024-08-05,株式会社スクール,,株式会社,奈良県,宇陀市,榛原萩原２４４８番地の１,,29,212,6330253,,,,,,,2024-08-05,1,,,,,スクール,0
197,1150001027472,新規,0,2024-08-05,2024-08-05,株式会社ＩＮＮＯＶＩＳ,,株式会社,奈良県,奈良市,百楽園２丁目１番３号,,29,201,6310024,,,,,,,2024-08-05,1,,,,,イノヴィス,0
198,1170001018255,新規,0,2024-08-05,2024-08-05,福和貿易株式会社,,株式会社,和歌山県,和歌山市,秋葉町４番３４号,,30,201,6410056,,,,,,,2024-08-05,1,,,,,フクワボウエキ,0
205,1180001162614,新規,0,2024-08-05,2024-08-05,ＹＫでんき株式会社,,株式会社,愛知県,名古屋市守山区,大字上志段味字前山１３９６番地,,23,113,4630001,,,,,,,2024-08-05,1,,,,,ワイケーデンキ,0
212,1190001031537,新規,0,2024-08-05,2024-08-05,ミカサ人材開発株式会社,,株式会社,三重県,伊賀市,下柘植１３００番地の１,,24,216,5191412,,,,,,,2024-08-05,1,,,,,ミカサジンザイカイハツ,0
213,1190001031545,新規,0,2024-08-05,2024-08-05,株式会社オプテック,,株式会社,三重県,桑名市,大字矢田７１３番地９,,24,205,5110821,,,,,,,2024-08-05,1,,,,,オプテック,0
217,1200001042788,新規,0,2024-08-05,2024-08-05,富祐産業株式会社,,株式会社,岐阜県,安八郡神戸町,大字下宮１２７番地,,21,381,5032312,,,,,,,2024-08-05,1,,,,,フユウサンギョウ,0
221,1210003001824,新規,0,2024-08-05,2024-08-05,合同会社東照商事,,合同会社,福井県,福井市,大和田町２１－３１－１,,18,201,9100802,,,,,,,2024-08-05,1,,,,,トウショウショウジ,0
223,1230001020477,新規,0,2024-08-05,2024-08-05,株式会社トラスティン,,株式会社,富山県,富山市,針原中町９６３番地１,,16,201,9318431,,,,,,,2024-08-05,1,,,,,トラスティン,0
226,1240001063640,新規,0,2024-08-05,2024-08-05,株式会社ハマモト工業,,株式会社,広島県,広島市佐伯区,八幡東３丁目２６番２５－２号,,34,108,7315115,,,,,,,2024-08-05,1,,,,,ハマモトコウギョウ,0
227,1240001063665,新規,0,2024-08-05,2024-08-05,株式会社ＬＥＡｆ,,株式会社,広島県,広島市中区,銀山町１１番１２－３０２号,,34,101,7300022,,,,,,,2024-08-05,1,,,,,リーフ,0
229,1250001020764,新規,0,2024-08-05,2024-08-05,株式会社周南美装,,株式会社,山口県,下松市,清瀬町３丁目１１番１５号,,35,207,7440071,,,,,,,2024-08-05,1,,,,,シュウナンビソウ,0
233,1270005005603,新規,0,2024-08-05,2024-08-05,一般社団法人大山出雲ｅ共和国,,その他の設立登記法人,鳥取県,米子市,法勝寺町７０番地,,31,202,6830063,,,,,,,2024-08-05,1,,,,,ダイセンイズモイーキョウワコク,0
238,1290001106568,新規,0,2024-08-05,2024-08-05,ＫＴＳ株式会社,,株式会社,福岡県,福岡市中央区,大手門１丁目２番２３－２２０２号,,40,133,8100074,,,,,,,2024-08-05,1,,,,,ケーティーエス,0
239,1290001106584,新規,0,2024-08-05,2024-08-05,株式会社いろはペイント,,株式会社,福岡県,福岡市南区,柳河内１丁目３番５－１０２号,,40,134,8150063,,,,,,,2024-08-05,1,,,,,イロハペイント,0
240,1290001106741,新規,0,2024-08-05,2024-08-05,株式会社Ｆ＆Ｎ,,株式会社,福岡県,福岡市博多区,東平尾１丁目３番６－３０１号,,40,132,8120853,,,,,,,2024-08-05,1,,,,,エフアンドエヌ,0
243,1290003015536,新規,0,2024-08-05,2024-08-05,Ｙ’ｓｗｏｒｋｓ合同会社,,合同会社,福岡県,福岡市東区,土井１丁目１５－１５－３０２,,40,131,8130032,,,,,,,2024-08-05,1,,,,,ワイズワークス,0
244,1290003015569,新規,0,2024-08-05,2024-08-05,Ｋ＆Ｔ合同会社,,合同会社,福岡県,福岡市早良区,原３丁目１７番４９号,,40,137,8140022,,,,,,,2024-08-05,1,,,,,ケーアンドティー,0
245,1290003015585,新規,0,2024-08-05,2024-08-05,合同会社ＭＡＩ　Ｓ，ａｌｌｉｅｒ,,合同会社,福岡県,福岡市南区,鶴田４丁目９番１４号,,40,134,8111352,,,,,,,2024-08-05,1,,,,,マイサリエ,0
246,1290003015635,新規,0,2024-08-05,2024-08-05,合同会社ＲＩＧＨＴ　ＡＲＭＳ,,合同会社,福岡県,小郡市,小郡６８５番地６,,40,216,8380141,,,,,,,2024-08-05,1,,,,,ライトアームズ,0
250,1290801030760,新規,0,2024-08-05,2024-08-05,株式会社アックス,,株式会社,福岡県,京都郡苅田町,新津３丁目１０番地１７,,40,621,8000344,,,,,,,2024-08-05,1,,,,,アックス,0
251,1290801030769,新規,0,2024-08-05,2024-08-05,株式会社絆軽送,,株式会社,福岡県,北九州市八幡西区,美原町７－３８,,40,109,8070847,,,,,,,2024-08-05,1,,,,,キズナケイソウ,0
252,1290803004804,新規,0,2024-08-05,2024-08-05,合同会社コスモ総業,,合同会社,福岡県,鞍手郡鞍手町,大字中山２２５３番地１０,,40,402,8071312,,,,,,,2024-08-05,1,,,,,コスモソウギョウ,0
257,1310003004833,新規,0,2024-08-05,2024-08-05,御朱印船ファーマシー合同会社,,合同会社,長崎県,長崎市,籠町２番３５号,,42,201,8500905,,,,,,,2024-08-05,1,,,,,ゴシュインセンファーマシー,0
258,1310005008782,新規,0,2024-08-05,2024-08-05,一般社団法人スリール未来望,,その他の設立登記法人,長崎県,長崎市,伊良林１丁目２番２号,,42,201,8500802,,,,,,,2024-08-05,1,,,,,スリールミライボウ,0
259,1320003004444,新規,0,2024-08-05,2024-08-05,高崎ビル管理合同会社,,合同会社,大分県,別府市,駅前本町９番７号高崎ビル２０５号,,44,202,8740934,,,,,,,2024-08-05,1,,,,,タカサキビルカンリ,0
260,1330001032314,新規,0,2024-08-05,2024-08-05,日本ＶＲＮ株式会社,,株式会社,熊本県,八代市,松江町２８６番地１（３０２）レクレドール,,43,202,8660883,,,,,,,2024-08-05,1,,,,,ニホンヴイアールエヌ,0
261,1330001032339,新規,0,2024-08-05,2024-08-05,株式会社プラナ,,株式会社,熊本県,熊本市中央区,新町３丁目４番６－４０２号,,43,101,8600004,,,,,,,2024-08-05,1,,,,,プラナ,0
262,1340003004558,新規,0,2024-08-05,2024-08-05,ＣＨａＮＺｅ．Ｌａｂ　Ｔｅｎｎｉｓ　Ｔｅａｍ合同会社,,合同会社,鹿児島県,鹿児島市,下荒田１丁目２６番１号ポートハウス２０１号,,46,201,8900056,,,,,,,2024-08-05,1,,,,,チェンジラボテニスチーム,0
263,1340005009761,新規,0,2024-08-05,2024-08-05,無限責任菱刈村田中中負債整理組合,,その他の設立登記法人,鹿児島県,伊佐市,菱刈（旧主たる事務所伊佐郡菱刈村）,,46,224,8952500,,,,,,,2024-08-05,1,,,,,ムゲンセキニンヒシカリムラタナカナカ,0
266,1360001034035,新規,0,2024-08-05,2024-08-05,株式会社宮古包装,,株式会社,沖縄県,宮古島市,平良字久貝８７０番地１,,47,214,9060015,,,,,,,2024-08-05,1,,,,,ミヤコホウソウ,0
273,1370001051574,新規,0,2024-08-05,2024-08-05,株式会社タカヤマ自動車,,株式会社,宮城県,仙台市青葉区,旭ケ丘４丁目３０番３号,,04,101,9810904,,,,,,,2024-08-05,1,,,,,タカヤマジドウシャ,0
274,1370001051590,新規,0,2024-08-05,2024-08-05,株式会社Ｌ,,株式会社,宮城県,仙台市宮城野区,原町１丁目３番１１号,,04,102,9830841,,,,,,,2024-08-05,1,,,,,エル,0
279,1380003005833,新規,0,2024-08-05,2024-08-05,合同会社Ｌｉｖｅ,,合同会社,福島県,須賀川市,塩田字塩司渕９０番地２０,,07,207,9620711,,,,,,,2024-08-05,1,,,,,リヴ,0
280,1390001017697,新規,0,2024-08-05,2024-08-05,株式会社エムジーエム,,株式会社,山形県,山形市,大字中野目６１,,06,201,9902175,,,,,,,2024-08-05,1,,,,,エムジーエム,0
281,1400001016747,新規,0,2024-08-05,2024-08-05,株式会社岩泉リゾートパートナーズ,,株式会社,岩手県,下閉伊郡岩泉町,乙茂字大向１０番地３,,03,483,0270502,,,,,,,2024-08-05,1,,,,,イワイズミリゾートパートナーズ,0
286,1410001013900,新規,0,2024-08-05,2024-08-05,株式会社Ｋｉｔｃｈｅｎ＆Ｈａｌｌ,,株式会社,秋田県,秋田市,仁井田潟中町４番１０号,,05,201,0101435,,,,,,,2024-08-05,1,,,,,キッチンアンドホール,0
294,1430001092406,新規,0,2024-08-05,2024-08-05,株式会社Ｂｅｋｉｌｙ,,株式会社,北海道,札幌市北区,北七条西４丁目１番地１トーカン札幌第一キャステール６０７,,01,102,0600807,,,,,,,2024-08-05,1,,,,,ベキリー,0
296,1430003016610,新規,0,2024-08-05,2024-08-05,合同会社Ｒｅｂｏｒｎ,,合同会社,北海道,札幌市中央区,南六条西３丁目１０番地１４,,01,101,0640806,,,,,,,2024-08-05,1,,,,,リボーン,0
297,1450003002526,新規,0,2024-08-05,2024-08-05,合同会社遠島工業,,合同会社,北海道,旭川市,神居六条１４丁目１番１２号,,01,204,0708016,,,,,,,2024-08-05,1,,,,,トオジマコウギョウ,0
298,1462501001009,新規,0,2024-08-05,2024-08-05,株式会社オリザー・クリエイティブ,,株式会社,北海道,標津郡中標津町,字養老牛３７７番地,,01,692,0882684,,,,,,,2024-08-05,1,,,,,オリザークリエイティブ,0
301,1490005006950,新規,0,2024-08-05,2024-08-05,医療法人元史会,,その他の設立登記法人,高知県,高知市,福井扇町１１７８番地３,,39,201,7800966,,,,,,,2024-08-05,1,,,,,モトフミカイ,0
303,1700150126663,新規,0,2024-08-05,2024-08-05,Ｂｅａｒ＆Ｂｕｌｌ　Ｎｏｒｔｈ　Ａｍｅｒｉｃａ．Ｃｏｒｐ．,,外国会社等,山口県,周南市,大字樋口６２９－３,,35,215,7450622,アメリカ合衆国ニューヨーク州オールバニ市ウルフロード１８７番１０１号,,,,,,2024-08-05,1,,,,,ベアーアンドブルノースアメリカコーポレーシヨン,0
313,2010001247109,新規,0,2024-08-05,2024-08-05,株式会社ＫＫＹ,,株式会社,東京都,千代田区,東神田１丁目１６番７号プラザビル９Ｆ,,13,101,1010031,,,,,,,2024-08-05,1,,,,,ケイケイワイ,0
314,2010001247133,新規,0,2024-08-05,2024-08-05,新洋エンジニアリング株式会社,,株式会社,東京都,中央区,新川２丁目２２番３号,,13,102,1040033,,,,,,,2024-08-05,1,,,,,シンヨウエンジニアリング,0
315,2010001247174,新規,0,2024-08-05,2024-08-05,株式会社ＧｌｏＢｒａｃｅ,,株式会社,東京都,千代田区,丸の内１丁目１１番１号パシフィックセンチュリープレイス丸の内１３階,,13,101,1000005,,,,,,,2024-08-05,1,,,,,グローブレイス,0
318,2010003044454,新規,0,2024-08-05,2024-08-05,合同会社ＮＳＳ‐ＪＡＰＡＮ,,合同会社,東京都,千代田区,神田小川町３丁目６番地５大栄堂ビル５階,,13,101,1010052,,,,,,,2024-08-05,1,,,,,エヌエスエスジャパン,0
324,2010401184158,新規,0,2024-08-05,2024-08-05,株式会社Ｅｎｈａｎｃｅ,,株式会社,東京都,港区,北青山３丁目６番７号青山パラシオタワー１１階,,13,103,1070061,,,,,,,2024-08-05,1,,,,,エンハンス,0
325,2010401184199,新規,0,2024-08-05,2024-08-05,ブリッジ・オブ・トラスト株式会社,,株式会社,東京都,港区,港南２丁目１６番４号品川グランドセントラルタワー８階,,13,103,1080075,,,,,,,2024-08-05,1,,,,,ブリッジオブトラスト,0
326,2010401184208,新規,0,2024-08-05,2024-08-05,ＰＩＮＸ株式会社,,株式会社,東京都,港区,芝公園４丁目２番８号ＴＥＧ株式会社内,,13,103,1050011,,,,,,,2024-08-05,1,,,,,ピンクス,0
327,2010401184216,新規,0,2024-08-05,2024-08-05,株式会社ブラック・キャピタル＆パートナーズ,,株式会社,東京都,港区,赤坂５丁目２－３３,,13,103,1070052,,,,,,,2024-08-05,1,,,,,ブラックキャピタルアンドパートナーズ,0
328,2010401184232,新規,0,2024-08-05,2024-08-05,株式会社Ｄａａ,,株式会社,東京都,港区,西麻布４丁目１５番２－１００３号,,13,103,1060031,,,,,,,2024-08-05,1,,,,,ダー,0
329,2010401184273,新規,0,2024-08-05,2024-08-05,ＳＨＩＯＹＡ　ＧＲＯＵＰ株式会社,,株式会社,東京都,港区,港南４丁目１番６－２３０９号,,13,103,1080075,,,,,,,2024-08-05,1,,,,,シオヤグループ,0
332,2010403033156,新規,0,2024-08-05,2024-08-05,合同会社ＰＵＬＴＯＮ,,合同会社,東京都,港区,東麻布３丁目１０番１－１００６号,,13,103,1060044,,,,,,,2024-08-05,1,,,,,プルトン,0
333,2010403033172,新規,0,2024-08-05,2024-08-05,合同会社ＥＮＩＳＨＩ,,合同会社,東京都,港区,浜松町２丁目２番１５号,,13,103,1050013,,,,,,,2024-08-05,1,,,,,エニシ,0
340,2010601065678,新規,0,2024-08-05,2024-08-05,株式会社豊優,,株式会社,東京都,墨田区,東駒形１丁目９番２号寺本ビル２０１号室,,13,107,1300005,,,,,,,2024-08-05,1,,,,,ホウユウ,0
341,2010603011011,新規,0,2024-08-05,2024-08-05,ＨＯＭＩＥＳ合同会社,,合同会社,東京都,墨田区,江東橋２丁目６番１２号２階,,13,107,1300022,,,,,,,2024-08-05,1,,,,,ホーミーズ,0
354,2011001163667,新規,0,2024-08-05,2024-08-05,株式会社Ｌｉｎｋｓｅｎｐａｉ,,株式会社,東京都,渋谷区,道玄坂１丁目１０番８号渋谷道玄坂東急ビル２Ｆ‐Ｃ,,13,113,1500043,,,,,,,2024-08-05,1,,,,,リンクセンパイ,0
355,2011001163717,新規,0,2024-08-05,2024-08-05,ＡＳＴＲＡ株式会社,,株式会社,東京都,渋谷区,広尾５丁目４番１６号,,13,113,1500012,,,,,,,2024-08-05,1,,,,,アストラ,0
356,2011001163766,新規,0,2024-08-05,2024-08-05,ＮＥＸＴ　ＩＮＮＯＶＡＴＩＯＮ株式会社,,株式会社,東京都,目黒区,下目黒６丁目５番２１－１３５号シティテラス下目黒,,13,110,1530064,,,,,,,2024-08-05,1,,,,,ネクストイノベション,0
357,2011001163790,新規,0,2024-08-05,2024-08-05,株式会社Ｇｒａｎｄｉｒ,,株式会社,東京都,渋谷区,渋谷１丁目１１番３第一小山ビル６階Ｂ号,,13,113,1500002,,,,,,,2024-08-05,1,,,,,グランディール,0
358,2011001163816,新規,0,2024-08-05,2024-08-05,株式会社ＡＢＡＰ,,株式会社,東京都,渋谷区,神宮前６丁目２３番４号桑野ビル２階,,13,113,1500001,,,,,,,2024-08-05,1,,,,,アバップ,0
359,2011001163824,新規,0,2024-08-05,2024-08-05,株式会社Ｒｏｕｎｄ,,株式会社,東京都,渋谷区,道玄坂２丁目６番１７号渋東シネタワー１２Ｆ・ＳｏｌｏＴｉｍｅ渋谷１２２０,,13,113,1500043,,,,,,,2024-08-05,1,,,,,ラウンド,0
362,2011003019636,新規,0,2024-08-05,2024-08-05,ＰＲＩＦＥ　ＩＮＴＥＲＮＡＴＩＯＮＡＬ　ＪＡＰＡＮ合同会社,,合同会社,東京都,渋谷区,富ヶ谷１丁目１４番１４号スタンフォードアネックスビル３階,,13,113,1510063,,,,,,,2024-08-05,1,,,,,プライフインターナショナルジャパン,0
363,2011003019693,新規,0,2024-08-05,2024-08-05,合同会社Ａｖａｎｔ　Ａｒｔ,,合同会社,東京都,渋谷区,神宮前６丁目２９－４原宿Ｋｏｍｉｙａビル６階,,13,113,1500001,,,,,,,2024-08-05,1,,,,,アヴァンアート,0
364,2011003019751,新規,0,2024-08-05,2024-08-05,合同会社センゴクオー,,合同会社,東京都,渋谷区,笹塚１丁目６１‐８ホテルブーゲンビリア新宿１００９号室,,13,113,1510073,,,,,,,2024-08-05,1,,,,,センゴクオー,0
369,2011101108225,新規,0,2024-08-05,2024-08-05,退職代行ＪＩＴＡＩ株式会社,,株式会社,東京都,新宿区,新宿５丁目４番１号新宿Ｑフラットビル６１１,,13,104,1600022,,,,,,,2024-08-05,1,,,,,タイショクダイコウジタイ,0
370,2011101108340,新規,0,2024-08-05,2024-08-05,株式会社Ｉｎｆｉｂｉｌｉｔｉｓ,,株式会社,東京都,新宿区,西新宿３丁目３番１３号西新宿水間ビル６階,,13,104,1600023,,,,,,,2024-08-05,1,,,,,インフィビリティス,0
371,2011103014743,新規,0,2024-08-05,2024-08-05,合同会社Ｇａｓｔｏ　Ｇｕａｒｄ,,合同会社,東京都,新宿区,新宿１丁目１６番１０号コスモス御苑ビル７０２号室,,13,104,1600022,,,,,,,2024-08-05,1,,,,,ガストガード,0
373,2011301029898,新規,0,2024-08-05,2024-08-05,ＣＬＯＵＤ　ＶＩＬＬＡＧＥ株式会社,,株式会社,東京都,杉並区,高円寺南３丁目２４番８号,,13,115,1660003,,,,,,,2024-08-05,1,,,,,クラウドビレッジ,0
376,2011601027957,新規,0,2024-08-05,2024-08-05,株式会社ａｎｄ　Ｋ　Ｐａｒｔｎｅｒｓ,,株式会社,東京都,練馬区,東大泉３丁目１２番２号,,13,120,1780063,,,,,,,2024-08-05,1,,,,,アンドケーパートナーズ,0
378,2011701027502,新規,0,2024-08-05,2024-08-05,株式会社ディアーホームズ,,株式会社,東京都,江戸川区,平井７丁目１４番１９号,,13,123,1320035,,,,,,,2024-08-05,1,,,,,ディアーホームズ,0
381,2011801044629,新規,0,2024-08-05,2024-08-05,株式会社ＭＡＤ　ＴＯＹＳ,,株式会社,東京都,足立区,小台２丁目３番２１－５１５号,,13,121,1200046,,,,,,,2024-08-05,1,,,,,マッドトイズ,0
382,2011801044637,新規,0,2024-08-05,2024-08-05,株式会社エム・サーベイ,,株式会社,東京都,足立区,南花畑３丁目３１番１１号,,13,121,1210062,,,,,,,2024-08-05,1,,,,,エムサーベイ,0
386,2012401042147,新規,0,2024-08-05,2024-08-05,株式会社ガッツ・コーポレーション,,株式会社,東京都,三鷹市,井の頭４丁目５番２４号,,13,204,1810001,,,,,,,2024-08-05,1,,,,,ガッツコーポレーション,0
391,2012403006694,新規,0,2024-08-05,2024-08-05,合同会社丸商,,合同会社,東京都,狛江市,東和泉２丁目１４－４７,,13,219,2010014,,,,,,,2024-08-05,1,,,,,マルショウ,0
392,2012701018391,新規,0,2024-08-05,2024-08-05,株式会社Ｃｒｅａｄｏｍ８,,株式会社,東京都,西東京市,向台町４丁目１２番１５号,,13,229,1880013,,,,,,,2024-08-05,1,,,,,クリエイダムエイト,0
393,2013101009477,新規,0,2024-08-05,2024-08-05,株式会社Ｈｉｋｏｂｏｓｈｉ,,株式会社,東京都,西多摩郡日の出町,大字平井３３９２番地,,13,305,1900182,,,,,,,2024-08-05,1,,,,,ヒコボシ,0
394,2013303007246,新規,0,2024-08-05,2024-08-05,Ｎａｌｕ’ｓ合同会社,,合同会社,東京都,豊島区,千川１丁目２７番２３号山下ハウス２０１号,,13,116,1710041,,,,,,,2024-08-05,1,,,,,ナルズ,0
409,2020001158305,新規,0,2024-08-05,2024-08-05,リバイブリレーション株式会社,,株式会社,神奈川県,横浜市神奈川区,金港町５番地１４クアドリフォリオ８階,,14,102,2210056,,,,,,,2024-08-05,1,,,,,リバイブリレーション,0
410,2020001158321,新規,0,2024-08-05,2024-08-05,株式会社ＦＲＥＥ　ＢＩＲＤ,,株式会社,神奈川県,横浜市中区,山元町５丁目１９８－５マイキャッスル横濱山手エクセレントステージ３０１,,14,104,2310851,,,,,,,2024-08-05,1,,,,,フリーバード,0
412,2020003026567,新規,0,2024-08-05,2024-08-05,合同会社Ｍｉｌｅｓｔｉａ,,合同会社,神奈川県,横浜市港北区,新横浜１丁目２８－４－３０１,,14,109,2220033,,,,,,,2024-08-05,1,,,,,ミレスティア,0
424,2030001161704,新規,0,2024-08-05,2024-08-05,ＴｒｙＦｏｒ　ＨＯＬＤＩＮＧＳ株式会社,,株式会社,埼玉県,川越市,大字久下戸３３９３番地２,,11,201,3500011,,,,,,,2024-08-05,1,,,,,トライフォーホールディングス,0
425,2030001161753,新規,0,2024-08-05,2024-08-05,株式会社９９０,,株式会社,埼玉県,川越市,宮元町５４番地５６,,11,201,3500838,,,,,,,2024-08-05,1,,,,,キュウキュウゼロ,0
426,2030001161761,新規,0,2024-08-05,2024-08-05,株式会社Ｇａｎａ,,株式会社,埼玉県,狭山市,入間川１１１１番地の１１,,11,215,3501305,,,,,,,2024-08-05,1,,,,,ガーナ,0
427,2030001161794,新規,0,2024-08-05,2024-08-05,株式会社日本タウンハウス,,株式会社,埼玉県,ふじみ野市,清見３丁目４番３号グランヒル沢田１０２号,,11,245,3560002,,,,,,,2024-08-05,1,,,,,ニホンタウンハウス,0
428,2030001161811,新規,0,2024-08-05,2024-08-05,株式会社ＡＵＲＡ,,株式会社,埼玉県,さいたま市緑区,大字大門２５０番地３,,11,109,3360963,,,,,,,2024-08-05,1,,,,,アウラ,0
431,2030005021788,新規,0,2024-08-05,2024-08-05,一般社団法人ＶＲＥＤ,,その他の設立登記法人,埼玉県,所沢市,上新井４丁目４９番地の２,,11,208,3591142,,,,,,,2024-08-05,1,,,,,ブレッド,0
436,2040001134758,新規,0,2024-08-05,2024-08-05,株式会社ＰＨＬ　Ｃｏｎｎｅｃｔｉｏｎ,,株式会社,千葉県,浦安市,堀江５丁目１番２５号１Ｆ,,12,227,2790041,,,,,,,2024-08-05,1,,,,,ピーエイチエルコネクション,0
437,2040001134766,新規,0,2024-08-05,2024-08-05,ＮＶＪ株式会社,,株式会社,千葉県,船橋市,習志野台６丁目９番１号,,12,204,2740063,,,,,,,2024-08-05,1,,,,,エヌブイジェイ,0
438,2040001134774,新規,0,2024-08-05,2024-08-05,株式会社Ｃｏｎｎｅｃｔ　Ｏｎｅ,,株式会社,千葉県,茂原市,ゆたか２０番地３３,,12,210,2970079,,,,,,,2024-08-05,1,,,,,コネクトワン,0
439,2040001134782,新規,0,2024-08-05,2024-08-05,株式会社ＲＥＯＲＧ　Ｓｏｌｕｔｉｏｎｓ,,株式会社,千葉県,船橋市,習志野台６丁目９番１号,,12,204,2740063,,,,,,,2024-08-05,1,,,,,リオーグソリューションズ,0
440,2040001134790,新規,0,2024-08-05,2024-08-05,株式会社ＫｏＫｏＫａＲａ,,株式会社,千葉県,八千代市,八千代台東４丁目２４番２９号,,12,221,2760032,,,,,,,2024-08-05,1,,,,,ココカラ,0
441,2040001134799,新規,0,2024-08-05,2024-08-05,ＢＵＩＬＤ　ＪＡＰＡＮ株式会社,,株式会社,千葉県,八街市,文違３０１番地２４６８,,12,230,2891104,,,,,,,2024-08-05,1,,,,,ビルドジャパン,0
442,2040001134808,新規,0,2024-08-05,2024-08-05,株式会社ブリジングエステート,,株式会社,千葉県,船橋市,東船橋６丁目１２番４０号,,12,204,2730002,,,,,,,2024-08-05,1,,,,,ブリジングエステート,0
443,2040001134832,新規,0,2024-08-05,2024-08-05,並木商事株式会社,,株式会社,千葉県,市原市,八幡２０４９－１,,12,219,2900062,,,,,,,2024-08-05,1,,,,,ナミキショウジ,0
446,2040003025518,新規,0,2024-08-05,2024-08-05,合同会社Ｓ’ＦＩＥＬＤ,,合同会社,千葉県,船橋市,南海神１丁目１番１０号,,12,204,2730023,,,,,,,2024-08-05,1,,,,,エスフィールド,0
447,2040003025526,新規,0,2024-08-05,2024-08-05,合同会社リボン,,合同会社,千葉県,浦安市,富士見５丁目９番１０号,,12,227,2790043,,,,,,,2024-08-05,1,,,,,リボン,0
449,2050001055169,新規,0,2024-08-05,2024-08-05,株式会社大津電工,,株式会社,茨城県,東茨城郡城里町,大字那珂西２４２５番地の１,,08,310,3114302,,,,,,,2024-08-05,1,,,,,オオツデンコウ,0
450,2050001055177,新規,0,2024-08-05,2024-08-05,株式会社昇,,株式会社,茨城県,日立市,高鈴町２丁目１０番１号,,08,202,3170066,,,,,,,2024-08-05,1,,,,,ノボル,0
451,2050001055185,新規,0,2024-08-05,2024-08-05,株式会社ＫＡＮＥＴＡ,,株式会社,茨城県,土浦市,乙戸７１２－１,,08,203,3000844,,,,,,,2024-08-05,1,,,,,カネタ,0
452,2050003008546,新規,0,2024-08-05,2024-08-05,ＨＡＹＬＥＥ合同会社,,合同会社,茨城県,坂東市,中里７５４―１０,,08,228,3060634,,,,,,,2024-08-05,1,,,,,ハイリー,0
453,2050003008587,新規,0,2024-08-05,2024-08-05,合同会社ｍａｍａｃｏｃｏｃｈｉ,,合同会社,茨城県,かすみがうら市,稲吉南１丁目１６番１号,,08,230,3150055,,,,,,,2024-08-05,1,,,,,ママココチ,0
456,2060001037364,新規,0,2024-08-05,2024-08-05,株式会社キートス,,株式会社,栃木県,足利市,西砂原後町１２１８番地１６,,09,202,3260065,,,,,,,2024-08-05,1,,,,,キートス,0
457,2060005010235,新規,0,2024-08-05,2024-08-05,一般社団法人Ｉｍｐａｃｔｉｎｇ　Ａｓｉａ,,その他の設立登記法人,栃木県,佐野市,大橋町１６１７番地２,,09,204,3270003,,,,,,,2024-08-05,1,,,,,インパクティングアジア,0
459,2080001026423,新規,0,2024-08-05,2024-08-05,株式会社ＥＮ,,株式会社,静岡県,静岡市清水区,蒲原東１４８番地の１,,22,103,4213201,,,,,,,2024-08-05,1,,,,,エン,0
466,2080401027351,新規,0,2024-08-05,2024-08-05,ＳＲＨリサーチ株式会社,,株式会社,静岡県,浜松市中央区,半田山１丁目２０番地１浜松医科大学医工連携拠点棟４１５,,22,138,4313125,,,,,,,2024-08-05,1,,,,,エスアールエイチ,0
467,2080403005074,新規,0,2024-08-05,2024-08-05,アズライフテクニカル合同会社,,合同会社,静岡県,袋井市,久能１３２０番地の６４,,22,216,4370061,,,,,,,2024-08-05,1,,,,,アズライフテクニカル,0
473,2110001038613,新規,0,2024-08-05,2024-08-05,株式会社雄板金,,株式会社,新潟県,長岡市,高見町４２１３番地,,15,202,9400004,,,,,,,2024-08-05,1,,,,,ユウバンキン,0
481,2120001267459,新規,0,2024-08-05,2024-08-05,株式会社創仁,,株式会社,大阪府,大阪市天王寺区,下寺町２丁目４番２９号,,27,109,5430076,,,,,,,2024-08-05,1,,,,,ソウジン,0
486,2120003027225,新規,0,2024-08-05,2024-08-05,合同会社虎の子スタジオ,,合同会社,大阪府,大阪市淀川区,西中島６丁目２－３チサンマンション第７新大阪８１４号室,,27,123,5320011,,,,,,,2024-08-05,1,,,,,トラノコスタジオ,0
487,2120005024476,新規,0,2024-08-05,2024-08-05,特定非営利活動法人かけこみ寺,,その他の設立登記法人,大阪府,大阪市浪速区,桜川４丁目５－９スケーリンホステル,,27,111,5560022,,,,,,,2024-08-05,1,,,,,,0
490,2120101070077,新規,0,2024-08-05,2024-08-05,東方株式会社,,株式会社,大阪府,岸和田市,天神山町２丁目９－６－１０２室,,27,202,5960834,,,,,,,2024-08-05,1,,,,,トウホウ,0
493,2122001038328,新規,0,2024-08-05,2024-08-05,株式会社大海企画,,株式会社,大阪府,東大阪市,布市町２丁目４番３３号,,27,227,5798004,,,,,,,2024-08-05,1,,,,,タイカイキカク,0
499,2130001077642,新規,0,2024-08-05,2024-08-05,ＩｎｓｉｇｈｔＴｏｒｃｈ株式会社,,株式会社,京都府,京都市下京区,七条通油小路東入大黒町２２７第２キョートビル４０２,,26,106,6008223,,,,,,,2024-08-05,1,,,,,インサイトトーチ,0
500,2130003009750,新規,0,2024-08-05,2024-08-05,恭仁農園合同会社,,合同会社,京都府,木津川市,加茂町例幣松ケ辻１９番地,00135800,26,214,6191106,,,,,,,2024-08-05,1,,,,,クニノウエン,0
519,2160001026142,新規,0,2024-08-05,2024-08-05,株式会社大津アセット・マネジメント,,株式会社,滋賀県,大津市,梅林２丁目３番１８号,,25,201,5200051,,,,,,,2024-08-05,1,,,,,オオツアセットマネジメント,0
520,2170001018238,新規,0,2024-08-05,2024-08-05,株式会社創研,,株式会社,和歌山県,紀の川市,貴志川町神戸４０８番地,,30,208,6400413,,,,,,,2024-08-05,1,,,,,ソウケン,0
521,2170001018246,新規,0,2024-08-05,2024-08-05,Ｎｅｗ　Ｏｎｅ　Ｃｒｅａｔｅ株式会社,,株式会社,和歌山県,橋本市,三石台３丁目３０番地３４,,30,203,6480094,,,,,,,2024-08-05,1,,,,,ニューワンクリエート,0
522,2170001018254,新規,0,2024-08-05,2024-08-05,株式会社ＧＲＡＮＴ,,株式会社,和歌山県,岩出市,備前４２番地プチツール２階,,30,209,6496233,,,,,,,2024-08-05,1,,,,,グラント,0
528,2180001162571,新規,0,2024-08-05,2024-08-05,株式会社ユニーク,,株式会社,愛知県,名古屋市名東区,文教台２丁目３１７レオパレス上社２０３号,,23,115,4650012,,,,,,,2024-08-05,1,,,,,ユニーク,0
537,2200001042770,新規,0,2024-08-05,2024-08-05,株式会社アンプラグド,,株式会社,岐阜県,岐阜市,元浜町３５番地１,,21,201,5008007,,,,,,,2024-08-05,1,,,,,アンプラグド,0
539,2230003002266,新規,0,2024-08-05,2024-08-05,合同会社きらら不動産,,合同会社,富山県,富山市,泉町２丁目３番１５号,,16,201,9300042,,,,,,,2024-08-05,1,,,,,キララフドウサン,0
542,2240001063648,新規,0,2024-08-05,2024-08-05,株式会社ＣＲＯＳＳＬＡＮＤＳ,,株式会社,広島県,広島市中区,宝町９番２８－８０２号,,34,101,7300044,,,,,,,2024-08-05,1,,,,,クロスランド,0
544,2240003006794,新規,0,2024-08-05,2024-08-05,合同会社ＫＳＰ,,合同会社,広島県,大竹市,黒川１丁目９―１７,,34,211,7390653,,,,,,,2024-08-05,1,,,,,ケーエスピー,0
545,2250001020763,新規,0,2024-08-05,2024-08-05,株式会社あんの園芸,,株式会社,山口県,萩市,大字福井下９３２番地３,,35,204,7580212,,,,,,,2024-08-05,1,,,,,アンノエンゲイ,0
556,2290001106534,新規,0,2024-08-05,2024-08-05,株式会社田尻建設,,株式会社,福岡県,朝倉市,秋月６４９番地１,,40,228,8380001,,,,,,,2024-08-05,1,,,,,タジリケンセツ,0
557,2290001106542,新規,0,2024-08-05,2024-08-05,株式会社田中組,,株式会社,福岡県,大牟田市,上官町１丁目８番地１２コアマンションヴェルデリーナ上官６０３号,,40,202,8360866,,,,,,,2024-08-05,1,,,,,タナカグミ,0
558,2290001106583,新規,0,2024-08-05,2024-08-05,ＩＳジャパンメタルインダストリー株式会社,,株式会社,福岡県,福岡市東区,和白東１丁目３番１０－２０５号,,40,131,8110214,,,,,,,2024-08-05,1,,,,,アイエスジャパンメタルインダストリー,0
559,2290001106609,新規,0,2024-08-05,2024-08-05,株式会社シュワン,,株式会社,福岡県,福岡市博多区,住吉３丁目８番２７号,,40,132,8120018,,,,,,,2024-08-05,1,,,,,シュワン,0
566,2290803004786,新規,0,2024-08-05,2024-08-05,合同会社Ｌｏｕｉｓ,,合同会社,福岡県,北九州市小倉北区,木町１丁目７－８ｔｍｓｕｋ,,40,106,8030851,,,,,,,2024-08-05,1,,,,,ルイ,0
567,2290803004803,新規,0,2024-08-05,2024-08-05,合同会社ＭＯＭＯＴＯＭＩ,,合同会社,福岡県,北九州市若松区,本町２丁目９番１２号,,40,103,8080034,,,,,,,2024-08-05,1,,,,,モモトミ,0
572,2310001019163,新規,0,2024-08-05,2024-08-05,株式会社長崎ロックサービス,,株式会社,長崎県,長崎市,丸山町８番２号,,42,201,8500902,,,,,,,2024-08-05,1,,,,,ナガサキロックサービス,0
574,2310003004832,新規,0,2024-08-05,2024-08-05,合同会社旬幸屋,,合同会社,長崎県,西彼杵郡長与町,吉無田郷２０３２番地６,,42,307,8512126,,,,,,,2024-08-05,1,,,,,シュンサイヤ,0
576,2320001020624,新規,0,2024-08-05,2024-08-05,株式会社４ｙｏｕ,,株式会社,大分県,大分市,大字下宗方１３１６番地の４,,44,201,8701141,,,,,,,2024-08-05,1,,,,,フォーユー,0
577,2320001020632,新規,0,2024-08-05,2024-08-05,Ｓｔｒｅｌｉｔｚｉａ株式会社,,株式会社,大分県,大分市,城南北１丁目４番８号,,44,201,8700827,,,,,,,2024-08-05,1,,,,,ストレリチア,0
579,2320003004443,新規,0,2024-08-05,2024-08-05,合同会社Ａ・Ｐ・Ｌ・Ｓ・Ｐｌａｎｎｅｒ,,合同会社,大分県,大分市,大字小池原５１４番地の１,,44,201,8700147,,,,,,,2024-08-05,1,,,,,アプラスプランナー,0
582,2340001026693,新規,0,2024-08-05,2024-08-05,日本グリーン油田開発株式会社,,株式会社,鹿児島県,肝属郡肝付町,富山１７７７番地５,,46,492,8931204,,,,,,,2024-08-05,1,,,,,ニホングリーンユデンカイハツ,0
583,2340001026710,新規,0,2024-08-05,2024-08-05,コログ株式会社,,株式会社,鹿児島県,鹿児島市,紫原６丁目１番１５号２階,,46,201,8900082,,,,,,,2024-08-05,1,,,,,コログ,0
584,2340003004557,新規,0,2024-08-05,2024-08-05,合同会社やどり木,,合同会社,鹿児島県,鹿児島市,坂之上６丁目６－１－１０１号,,46,201,8910150,,,,,,,2024-08-05,1,,,,,ヤドリギ,0
587,2360003014199,新規,0,2024-08-05,2024-08-05,合同会社Ｍａｎａ　ｇｒｅｅｎ　ｇｒａｓｓ,,合同会社,沖縄県,宜野湾市,嘉数１丁目１７番７号,,47,205,9012226,,,,,,,2024-08-05,1,,,,,マナグリーングラス,0
588,2360003014208,新規,0,2024-08-05,2024-08-05,合同会社ＧＡＨ‐ＧＡＨ‐ＦＡＲＭ,,合同会社,沖縄県,糸満市,字喜屋武３３６番地,,47,210,9010354,,,,,,,2024-08-05,1,,,,,ガーガーファーム,0
590,2360005007085,新規,0,2024-08-05,2024-08-05,一般社団法人安里我島,,その他の設立登記法人,沖縄県,那覇市,字安里４９番地安里会館,,47,201,9020067,,,,,,,2024-08-05,1,,,,,アリガトウ,0
591,2370001051573,新規,0,2024-08-05,2024-08-05,ワタナベ自動車株式会社,,株式会社,宮城県,名取市,相互台東２丁目３番地の７,,04,207,9811248,,,,,,,2024-08-05,1,,,,,ワタナベジドウシャ,0
604,2430003016642,新規,0,2024-08-05,2024-08-05,Ｔｈｅ　Ｍａｒｋｅｔ合同会社,,合同会社,北海道,虻田郡倶知安町,ニセコひらふ一条４丁目５番３２号山翠ニセコ１階Ｔｈｅ　Ｍａｒｋｅｔ,,01,400,0440080,,,,,,,2024-08-05,1,,,,,ザマーケット,0
607,2450003002525,新規,0,2024-08-05,2024-08-05,合同会社ＨｉｍａＲｉｎ,,合同会社,北海道,旭川市,三条通２１丁目１９７３番地の１９,,01,204,0788213,,,,,,,2024-08-05,1,,,,,ヒマリン,0
610,2500003003294,新規,0,2024-08-05,2024-08-05,合同会社Ｍ’ｓイノベーション,,合同会社,愛媛県,今治市,しまなみヒルズ１１番地４,,38,202,7940087,,,,,,,2024-08-05,1,,,,,エムズイノベーション,0
613,2700150126654,新規,0,2024-08-05,2024-08-02,富山インターンシップジャーニー実行委員会,,その他,東京都,港区,南青山７丁目３－６南青山ＨＹビル７階　荒井倶楽部内,,13,103,1070062,,,,,,,2024-08-02,1,,,,,トヤマインターンシツプジヤーニージツコウイインカイ,0
621,3010001246992,新規,0,2024-08-05,2024-08-05,ＲＩＧＡＲＤＳ株式会社,,株式会社,東京都,千代田区,内神田２丁目７番１３号,,13,101,1010047,,,,,,,2024-08-05,1,,,,,リガーズ,0
622,3010001247033,新規,0,2024-08-05,2024-08-05,ｓＳｓ株式会社,,株式会社,東京都,文京区,小石川２丁目１７番２８号,,13,105,1120002,,,,,,,2024-08-05,1,,,,,トリプルエス,0
623,3010001247108,新規,0,2024-08-05,2024-08-05,株式会社ｆａｉｒｎｅｓｓ,,株式会社,東京都,文京区,本郷３丁目４０番１０号三翔ビル本郷１Ｆ,,13,105,1130033,,,,,,,2024-08-05,1,,,,,フェアネス,0
624,3010001247165,新規,0,2024-08-05,2024-08-05,株式会社ＭＡコーポレーション,,株式会社,東京都,千代田区,九段南２丁目４番１５－６０１号,,13,101,1020074,,,,,,,2024-08-05,1,,,,,エムエーコーポレーション,0
625,3010001247231,新規,0,2024-08-05,2024-08-05,あかねこ企画株式会社,,株式会社,東京都,千代田区,神田和泉町１番地６番１６号ヤマトビル４０５,,13,101,1010024,,,,,,,2024-08-05,1,,,,,アカネコキカク,0
626,3010001247256,新規,0,2024-08-05,2024-08-05,株式会社世界文化インターナショナル,,株式会社,東京都,千代田区,九段北４丁目２番２９号,,13,101,1020073,,,,,,,2024-08-05,1,,,,,セカイブンカインターナショナル,0
634,3010401184181,新規,0,2024-08-05,2024-08-05,株式会社ＦＡＭＩＬＹ　ＣＬＵＢ,,株式会社,東京都,港区,赤坂８丁目１１番２０号,,13,103,1070052,,,,,,,2024-08-05,1,,,,,ファミリークラブ,0
635,3010401184215,新規,0,2024-08-05,2024-08-05,平癒株式会社,,株式会社,東京都,港区,港南５丁目１番４号スカイクレストビュー東京１１０２,,13,103,1080075,,,,,,,2024-08-05,1,,,,,ヘイユ,0
636,3010401184248,新規,0,2024-08-05,2024-08-05,浦銀投資株式会社,,株式会社,東京都,港区,虎ノ門１丁目３番１号,,13,103,1050001,,,,,,,2024-08-05,1,,,,,ウラギントウシ,0
637,3010401184280,新規,0,2024-08-05,2024-08-05,株式会社ＥＬｉＳＡ,,株式会社,東京都,港区,六本木３丁目４番３３号,,13,103,1060032,,,,,,,2024-08-05,1,,,,,エライザ,0
647,3010601065677,新規,0,2024-08-05,2024-08-05,株式会社買取一番,,株式会社,東京都,江東区,亀戸９丁目３３番１－１００３号,,13,108,1360071,,,,,,,2024-08-05,1,,,,,カイトリイチバン,0
648,3010603011010,新規,0,2024-08-05,2024-08-05,合同会社Ｋ．Ｎ．Ｏｆｆｉｃｅ,,合同会社,東京都,江東区,東砂８丁目１９番４－７１０号,,13,108,1360074,,,,,,,2024-08-05,1,,,,,ケーエヌオフィス,0
653,3010801035298,新規,0,2024-08-05,2024-08-05,ＴＹ　Ｉｎｓｉｇｈｔ株式会社,,株式会社,東京都,大田区,南馬込３丁目２番５号,,13,111,1430025,,,,,,,2024-08-05,1,,,,,ティーワイインサイト,0
661,3011001163625,新規,0,2024-08-05,2024-08-05,株式会社Ａｎｎ　Ｒｏｍｅ,,株式会社,東京都,渋谷区,広尾３丁目１２番１７－２３３号ザ・パークハウス広尾羽澤,,13,113,1500012,,,,,,,2024-08-05,1,,,,,アンローマ,0
662,3011001163708,新規,0,2024-08-05,2024-08-05,あみゅーぜ株式会社,,株式会社,東京都,目黒区,上目黒５丁目１７番１号,,13,110,1530051,,,,,,,2024-08-05,1,,,,,アミューゼ,0
663,3011001163732,新規,0,2024-08-05,2024-08-05,株式会社イリウムＭＤ,,株式会社,東京都,渋谷区,円山町５番５号Ｎａｖｉ渋谷Ｖ３階,,13,113,1500044,,,,,,,2024-08-05,1,,,,,イリウムエムディー,0
664,3011001163765,新規,0,2024-08-05,2024-08-05,株式会社ｎｉｃｏ,,株式会社,東京都,目黒区,東山３丁目７番６－２０２号ＤＥＣＯ,,13,110,1530043,,,,,,,2024-08-05,1,,,,,ニコ,0
665,3011001163798,新規,0,2024-08-05,2024-08-05,株式会社ここはれて,,株式会社,東京都,渋谷区,幡ヶ谷３丁目３番２号,,13,113,1510072,,,,,,,2024-08-05,1,,,,,ココハレテ,0
666,3011001163815,新規,0,2024-08-05,2024-08-05,ＡＡＷＡＩ株式会社,,株式会社,東京都,渋谷区,代々木５丁目１５番１０号,,13,113,1510053,,,,,,,2024-08-05,1,,,,,エーワイ,0
667,3011001163823,新規,0,2024-08-05,2024-08-05,株式会社ＳＫＹ＆Ｆ,,株式会社,東京都,渋谷区,神泉町１１番５号メゾン・ド・ヴィレ渋谷１００５,,13,113,1500045,,,,,,,2024-08-05,1,,,,,スカイアンドエフ,0
668,3011001163831,新規,0,2024-08-05,2024-08-05,株式会社トリニティマネジメント,,株式会社,東京都,渋谷区,恵比寿西２丁目４番８号ウィンド恵比寿ビル８Ｆ,,13,113,1500021,,,,,,,2024-08-05,1,,,,,トリニティマネジメント,0
670,3011003019692,新規,0,2024-08-05,2024-08-05,合同会社ＣＡＳＴＬＥ　ＦＩＥＬＤ,,合同会社,東京都,渋谷区,渋谷２丁目１９－１５宮益坂ビルディング６０９,,13,113,1500002,,,,,,,2024-08-05,1,,,,,キャッスルフィールド,0
671,3011003019701,新規,0,2024-08-05,2024-08-05,合同会社Ａｎｔａｒｅｓ,,合同会社,東京都,渋谷区,神宮前６丁目２３番４号桑野ビル２階,,13,113,1500001,,,,,,,2024-08-05,1,,,,,アンタレス,0
672,3011003019718,新規,0,2024-08-05,2024-08-05,合同会社Ｖｅｌｔ,,合同会社,東京都,目黒区,駒場１丁目２８番５号ＡＣＣＵＭＮ３０６,,13,110,1530041,,,,,,,2024-08-05,1,,,,,ベルト,0
673,3011003019726,新規,0,2024-08-05,2024-08-05,合同会社小粋,,合同会社,東京都,渋谷区,千駄ヶ谷１丁目９番１１号フレンシア外苑西６０４,,13,113,1510051,,,,,,,2024-08-05,1,,,,,コイキ,0
674,3011003019759,新規,0,2024-08-05,2024-08-05,ｂｐビジネスコンサルティング合同会社,,合同会社,東京都,渋谷区,恵比寿西２丁目８番４号５階,,13,113,1500021,,,,,,,2024-08-05,1,,,,,ビーピービジネスコンサルティング,0
679,3011101108216,新規,0,2024-08-05,2024-08-05,シティホームパートナーズ株式会社,,株式会社,東京都,新宿区,大久保２丁目３３－１４－１０２号室,,13,104,1690072,,,,,,,2024-08-05,1,,,,,シティホームパートナーズ,0
680,3011101108281,新規,0,2024-08-05,2024-08-05,株式会社プラクシス,,株式会社,東京都,新宿区,西新宿４丁目１５－１－３０２,,13,104,1600023,,,,,,,2024-08-05,1,,,,,プラクシス,0
683,3011201025690,新規,0,2024-08-05,2024-08-05,サイノ建設株式会社,,株式会社,東京都,中野区,上鷺宮４丁目７番１７号,,13,114,1650031,,,,,,,2024-08-05,1,,,,,サイノケンセツ,0
684,3011201025699,新規,0,2024-08-05,2024-08-05,株式会社ＹＳＤ,,株式会社,東京都,中野区,東中野４丁目１６番１１号アクシルコート東中野８０３号,,13,114,1640003,,,,,,,2024-08-05,1,,,,,ワイエスディー,0
691,3011801044636,新規,0,2024-08-05,2024-08-05,株式会社リペアワークス,,株式会社,東京都,足立区,千住寿町２８番１５号,,13,121,1200033,,,,,,,2024-08-05,1,,,,,リペアワークス,0
693,3012703003060,新規,0,2024-08-05,2024-08-05,合同会社ｉＸｓｉｇｎ,,合同会社,東京都,西東京市,栄町２丁目６－８,,13,229,2020006,,,,,,,2024-08-05,1,,,,,イグザイン,0
694,3012801023373,新規,0,2024-08-05,2024-08-05,株式会社結び,,株式会社,東京都,東大和市,奈良橋３丁目５３９番地の１７,,13,220,2070031,,,,,,,2024-08-05,1,,,,,ムスビ,0
695,3012803003480,新規,0,2024-08-05,2024-08-05,合同会社Ｈｉ　Ｃｏｎｓｕｌｔｉｎｇ,,合同会社,東京都,国分寺市,光町２丁目７番地２,,13,214,1850034,,,,,,,2024-08-05,1,,,,,エイチアイコンサルティング,0
696,3013105001850,新規,0,2024-08-05,2024-08-05,一般社団法人たのしいまちのつくりかた,,その他の設立登記法人,東京都,西多摩郡奥多摩町,小丹波１６２番地１－Ａ－１０１号,,13,308,1980105,,,,,,,2024-08-05,1,,,,,,0
697,3013301052929,新規,0,2024-08-05,2024-08-05,株式会社ＡｉｉＴ,,株式会社,東京都,豊島区,東池袋１丁目１７番１１号パークハイツ池袋１１０５号,,13,116,1700013,,,,,,,2024-08-05,1,,,,,アイティー,0
702,3020001158320,新規,0,2024-08-05,2024-08-05,セールストレック株式会社,,株式会社,神奈川県,横浜市西区,みなとみらい４丁目４番２号横浜ブルーアベニュー１２Ｆ,,14,103,2200012,,,,,,,2024-08-05,1,,,,,セールストレック,0
706,3020003026558,新規,0,2024-08-05,2024-08-05,合同会社爆釣祈願,,合同会社,神奈川県,横浜市港南区,上大岡西１丁目４番１６号,,14,111,2330002,,,,,,,2024-08-05,1,,,,,バクチョウキガン,0
708,3021001082782,新規,0,2024-08-05,2024-08-05,三軒屋株式会社,,株式会社,神奈川県,藤沢市,朝日町１３番地の１,,14,205,2510054,,,,,,,2024-08-05,1,,,,,サンゲンヤ,0
715,3030001161736,新規,0,2024-08-05,2024-08-05,ＤＡＲＵＭＡホールディングス株式会社,,株式会社,埼玉県,さいたま市浦和区,常盤９丁目８番２０号グランドゥール・ソレイユ常盤１０１,,11,107,3300061,,,,,,,2024-08-05,1,,,,,ダルマホールディングス,0
716,3030001161752,新規,0,2024-08-05,2024-08-05,株式会社ＡＫＩＲＡ,,株式会社,埼玉県,草加市,西町１０６８番地１０,,11,221,3400035,,,,,,,2024-08-05,1,,,,,アキラ,0
722,3030003024866,新規,0,2024-08-05,2024-08-05,合同会社ＤＣＪ,,合同会社,埼玉県,羽生市,中央１丁目１０番２８号,,11,216,3480058,,,,,,,2024-08-05,1,,,,,ディーシージェイ,0
728,3040001134757,新規,0,2024-08-05,2024-08-05,株式会社ＡＰＰＲＯコンサルティング,,株式会社,千葉県,船橋市,南三咲４丁目１４番１７号,,12,204,2740813,,,,,,,2024-08-05,1,,,,,アプロコンサルティング,0
729,3040001134765,新規,0,2024-08-05,2024-08-05,サンライズ株式会社,,株式会社,千葉県,野田市,木間ケ瀬３１６４番地９,,12,208,2700222,,,,,,,2024-08-05,1,,,,,サンライズ,0
730,3040001134781,新規,0,2024-08-05,2024-08-05,株式会社Ｋ’ｓＦｏｒｍ,,株式会社,千葉県,市川市,北国分１丁目６番９号,,12,203,2720836,,,,,,,2024-08-05,1,,,,,ケーズフォーム,0
731,3040001134798,新規,0,2024-08-05,2024-08-05,女の筋肉めし株式会社,,株式会社,千葉県,柏市,塚崎１１４８番地１３,,12,217,2770923,,,,,,,2024-08-05,1,,,,,オンナノキンニクメシ,0
732,3040001134807,新規,0,2024-08-05,2024-08-05,株式会社ＷＯＮＤＥＲ　ＬＡＮＤ,,株式会社,千葉県,柏市,旭町１丁目３番３号ＳＫヴィラ２・３０７,,12,217,2770852,,,,,,,2024-08-05,1,,,,,ワンダーランド,0
733,3040001134831,新規,0,2024-08-05,2024-08-05,株式会社園生ホーム,,株式会社,千葉県,千葉市稲毛区,園生町５０７番地２２,,12,103,2630051,,,,,,,2024-08-05,1,,,,,エンセイホーム,0
737,3040003025533,新規,0,2024-08-05,2024-08-05,ＳＣＣｏｆｆｉｃｅ合同会社,,合同会社,千葉県,千葉市花見川区,作新台２丁目１５番１号,,12,102,2620045,,,,,,,2024-08-05,1,,,,,エスシーシーオフィス,0
741,3050001055176,新規,0,2024-08-05,2024-08-05,株式会社ＶＡＮＳＯＲＴ,,株式会社,茨城県,稲敷郡阿見町,本郷１丁目１４番地１５,,08,443,3001159,,,,,,,2024-08-05,1,,,,,ヴァンソート,0
742,3050001055184,新規,0,2024-08-05,2024-08-05,株式会社トラスト,,株式会社,茨城県,笠間市,鯉淵６５３０番地２２,,08,216,3091703,,,,,,,2024-08-05,1,,,,,トラスト,0
744,3050003008586,新規,0,2024-08-05,2024-08-05,ＲＡＳＨ　ＩＮＴＥＲＮＡＴＩＯＮＡＬ合同会社,,合同会社,茨城県,鉾田市,上幡木１１７５－１３,,08,234,3112113,,,,,,,2024-08-05,1,,,,,ラッシュインターナショナル,0
749,3070003005524,新規,0,2024-08-05,2024-08-05,ＪＢエンタープライズ合同会社,,合同会社,群馬県,邑楽郡大泉町,富士３丁目１－１後谷ビル２Ｆ,,10,524,3700522,,,,,,,2024-08-05,1,,,,,ジェービーエンタープライズ,0
751,3080001026414,新規,0,2024-08-05,2024-08-05,株式会社企図,,株式会社,静岡県,静岡市駿河区,曲金６丁目１２番８号,,22,102,4228006,,,,,,,2024-08-05,1,,,,,キト,0
752,3080001026422,新規,0,2024-08-05,2024-08-05,株式会社ＩＮＦＩＮＩＴＹ　Ｒ,,株式会社,静岡県,静岡市駿河区,中島３１９６番地ソシアル沢ＩＩＩ１０１,00135813,22,102,4228046,,,,,,,2024-08-05,1,,,,,インフィニティアール,0
755,3080003003270,新規,0,2024-08-05,2024-08-05,合同会社Ｕｎｉｃｏ,,合同会社,静岡県,静岡市駿河区,中田２丁目４番３０号ＭＡＩＳＯＮＨＩＢＡＲＩ１０１,,22,102,4228041,,,,,,,2024-08-05,1,,,,,ウニコ,0
757,3080101024945,新規,0,2024-08-05,2024-08-05,株式会社慎,,株式会社,静岡県,伊豆市,湯ケ島８９２番地の１４,,22,222,4103206,,,,,,,2024-08-05,1,,,,,シン,0
758,3080401027350,新規,0,2024-08-05,2024-08-05,スギウラホールディング株式会社,,株式会社,静岡県,湖西市,白須賀３９８５番地の１８６５,,22,221,4310451,,,,,,,2024-08-05,1,,,,,スギウラホールディング,0
759,3080401027359,新規,0,2024-08-05,2024-08-05,株式会社リグライズ,,株式会社,静岡県,浜松市中央区,天王町２００１番地の４,,22,138,4350052,,,,,,,2024-08-05,1,,,,,リグライズ,0
760,3080401027367,新規,0,2024-08-05,2024-08-05,株式会社石山商店,,株式会社,静岡県,浜松市浜名区,平口５２４７番地,,22,139,4340041,,,,,,,2024-08-05,1,,,,,イシヤマショウテン,0
761,3080403005073,新規,0,2024-08-05,2024-08-05,合同会社遠州ハム,,合同会社,静岡県,菊川市,下平川５３７６番地の２,,22,224,4371514,,,,,,,2024-08-05,1,,,,,エンシュウハム,0
779,3120001267508,新規,0,2024-08-05,2024-08-05,株式会社Ａｆｔｅｒｇｌｏｗ,,株式会社,大阪府,大阪市西区,江之子島１丁目７番５号,,27,106,5500006,,,,,,,2024-08-05,1,,,,,アフターグロウ,0
785,3120003027199,新規,0,2024-08-05,2024-08-05,合同会社ＡｍｂｉｔｉｏｎＷｏｒｌｄ,,合同会社,大阪府,大阪市城東区,野江２丁目１６番２５号アークプラザ京橋３０６号,,27,118,5360006,,,,,,,2024-08-05,1,,,,,アンビションワールド,0
786,3120003027216,新規,0,2024-08-05,2024-08-05,ｄｅｅｐ　ｇｒａｓｓ合同会社,,合同会社,大阪府,大阪市北区,同心２丁目１番３２－１０１号,,27,127,5300035,,,,,,,2024-08-05,1,,,,,ディープグラス,0
787,3120005024467,新規,0,2024-08-05,2024-08-05,一般社団法人レオン開発,,その他の設立登記法人,大阪府,大阪市西淀川区,野里２丁目２５番２３－９１８号,,27,113,5550024,,,,,,,2024-08-05,1,,,,,レオンカイハツ,0
789,3120101070092,新規,0,2024-08-05,2024-08-05,株式会社さとみ断熱,,株式会社,大阪府,河内長野市,末広町１０４番地の３,,27,216,5860051,,,,,,,2024-08-05,1,,,,,サトミダンネツ,0
792,3120901049559,新規,0,2024-08-05,2024-08-05,杉山設備株式会社,,株式会社,大阪府,茨木市,目垣１丁目７番２４号,,27,211,5670836,,,,,,,2024-08-05,1,,,,,スギヤマセツビ,0
793,3122001038327,新規,0,2024-08-05,2024-08-05,株式会社エルデザイン,,株式会社,大阪府,東大阪市,小阪本町２丁目１３番１１号,,27,227,5770802,,,,,,,2024-08-05,1,,,,,エルデザイン,0
794,3122001038335,新規,0,2024-08-05,2024-08-05,株式会社ＵＭＤ,,株式会社,大阪府,八尾市,福万寺町南４丁目２６番地の１９,,27,212,5810843,,,,,,,2024-08-05,1,,,,,ユーエムディー,0
795,3122003002958,新規,0,2024-08-05,2024-08-05,Ｈ＆Ｓパートナーズ合同会社,,合同会社,大阪府,東大阪市,長堂１丁目８番３７号,,27,227,5770056,,,,,,,2024-08-05,1,,,,,エイチアンドエスパートナーズ,0
797,3130001077600,新規,0,2024-08-05,2024-08-05,株式会社ｅｎ,,株式会社,京都府,京都市伏見区,京橋町３０６番地,,26,109,6128366,,,,,,,2024-08-05,1,,,,,エン,0
798,3130001077609,新規,0,2024-08-05,2024-08-05,株式会社楽居管理,,株式会社,京都府,京都市上京区,奈良物町４７７番地モリキビル２Ｆ,,26,102,6028243,,,,,,,2024-08-05,1,,,,,ラッキョカンリ,0
799,3130001077617,新規,0,2024-08-05,2024-08-05,株式会社森を織る,,株式会社,京都府,京都市中京区,河原町通御池下る下丸屋町３９０番地２,,26,104,6048006,,,,,,,2024-08-05,1,,,,,モリヲオル,0
806,3140001135299,新規,0,2024-08-05,2024-08-05,こう栄技術株式会社,,株式会社,兵庫県,神戸市須磨区,大池町２丁目６番１４－１号,,28,107,6540026,,,,,,,2024-08-05,1,,,,,コウエイギジュツ,0
807,3140001135365,新規,0,2024-08-05,2024-08-05,Ｎプロスペール株式会社,,株式会社,兵庫県,川西市,出在家町２番１７号,,28,217,6660011,,,,,,,2024-08-05,1,,,,,エヌプロスペール,0
808,3140001135381,新規,0,2024-08-05,2024-08-05,逸楠株式会社,00135804,株式会社,兵庫県,神戸市垂水区,山手５丁目７－１８,,28,108,6550891,,,,,,,2024-08-05,1,,,,,イツナン,0
811,3140003020879,新規,0,2024-08-05,2024-08-05,合同会社石原商会,,合同会社,兵庫県,神戸市長田区,菅原通２丁目７８番地,,28,106,6530015,,,,,,,2024-08-05,1,,,,,イシハラショウカイ,0
813,3140005027179,新規,0,2024-08-05,2024-08-05,社会福祉法人聖智の杜,,その他の設立登記法人,兵庫県,淡路市,志筑１５４１番地１,,28,226,6562131,,,,,,,2024-08-05,1,,,,,セイチノモリ,0
814,3150001027470,新規,0,2024-08-05,2024-08-05,英培国際株式会社,,株式会社,奈良県,奈良市,三条栄町５番奈良ハイツ３号棟５０５号室,,29,201,6308126,,,,,,,2024-08-05,1,,,,,エイペイコクサイ,0
818,3160001026117,新規,0,2024-08-05,2024-08-05,株式会社ディ・プランニング,,株式会社,滋賀県,大津市,別保２丁目９番４８号,,25,201,5200835,,,,,,,2024-08-05,1,,,,,ディプランニング,0
823,3170001018245,新規,0,2024-08-05,2024-08-05,株式会社福原商店,,株式会社,和歌山県,和歌山市,小松原通２丁目１番地１ザ・マークス６０１号,,30,201,6408269,,,,,,,2024-08-05,1,,,,,フクハラショウテン,0
824,3170001018253,新規,0,2024-08-05,2024-08-05,Ｓｕｎｓｅａｌ株式会社,,株式会社,和歌山県,和歌山市,栄谷１１０１番地１０,,30,201,6408441,,,,,,,2024-08-05,1,,,,,サンシール,0
833,3180001162645,新規,0,2024-08-05,2024-08-05,ツリーキッズ株式会社,,株式会社,愛知県,名古屋市守山区,吉根１丁目５０５番地の２,,23,113,4630004,,,,,,,2024-08-05,1,,,,,ツリーキッズ,0
836,3180301038925,新規,0,2024-08-05,2024-08-05,株式会社ＩＮコーポレーション,,株式会社,愛知県,蒲郡市,緑町１４番１１号,,23,214,4430048,,,,,,,2024-08-05,1,,,,,インコーポレーション,0
837,3180301038933,新規,0,2024-08-05,2024-08-05,株式会社太田,,株式会社,愛知県,西尾市,米津町種木１３番地１,,23,213,4450802,,,,,,,2024-08-05,1,,,,,オオタ,0
842,3180305009600,新規,0,2024-08-05,2024-08-05,グラーティア司法書士法人,,その他の設立登記法人,愛知県,みよし市,三好町大坪２３番地久野ビル２Ｄ,,23,236,4700224,,,,,,,2024-08-05,1,,,,,グラーティア,0
843,3190001031543,新規,0,2024-08-05,2024-08-05,株式会社ケンショウ,,株式会社,三重県,鈴鹿市,白子町２９３７番地の４,,24,207,5100244,,,,,,,2024-08-05,1,,,,,ケンショウ,0
845,3200001042794,新規,0,2024-08-05,2024-08-05,株式会社らいたむ,,株式会社,岐阜県,不破郡垂井町,大滝６２８番地の９０,,21,361,5032101,,,,,,,2024-08-05,1,,,,,ライタム,0
846,3210001019866,新規,0,2024-08-05,2024-08-05,株式会社ピッケル,,株式会社,福井県,福井市,西木田１丁目２０番１７号,,18,201,9188004,,,,,,,2024-08-05,1,,,,,ピッケル,0
851,3230003002265,新規,0,2024-08-05,2024-08-05,合同会社エムズクラフト,,合同会社,富山県,富山市,向新庄町２丁目１番２２号,,16,201,9300916,,,,,,,2024-08-05,1,,,,,エムズクラフト,0
855,3240001063663,新規,0,2024-08-05,2024-08-05,株式会社ＡＳＡ企画,,株式会社,広島県,広島市安佐北区,可部南５丁目３番８号,,34,106,7310223,,,,,,,2024-08-05,1,,,,,アサキカク,0
857,3250001020762,新規,0,2024-08-05,2024-08-05,株式会社ＡＣＴ,,株式会社,山口県,宇部市,大字西岐波１６１３番地６,,35,202,7550151,,,,,,,2024-08-05,1,,,,,アクト,0
858,3250003003550,新規,0,2024-08-05,2024-08-05,合同会社ＴＭカンパニー,,合同会社,山口県,宇部市,西小串５丁目３番２２号,,35,202,7550049,,,,,,,2024-08-05,1,,,,,,0
866,3290001106525,新規,0,2024-08-05,2024-08-05,株式会社ＢＨＩ,,株式会社,福岡県,宗像市,池田３１０６番地７,,40,220,8113515,,,,,,,2024-08-05,1,,,,,ビーエイチアイ,0
867,3290001106566,新規,0,2024-08-05,2024-08-05,株式会社航晟電設,,株式会社,福岡県,福岡市南区,西長住１丁目１番４１号佳ビル１０３,,40,134,8111361,,,,,,,2024-08-05,1,,,,,コウセイデンセツ,0
868,3290001106574,新規,0,2024-08-05,2024-08-05,株式会社ＴｈａｎｋｓＫｉｔｃｈｅｎＬａｂ,,株式会社,福岡県,福岡市中央区,高砂２丁目１４番２６－１１０１号,,40,133,8100011,,,,,,,2024-08-05,1,,,,,サンクスキッチンラボ,0
869,3290001106599,新規,0,2024-08-05,2024-08-05,株式会社ＭＩＮＡ,,株式会社,福岡県,福岡市西区,戸切３丁目５番１０号,,40,135,8190032,,,,,,,2024-08-05,1,,,,,ミナ,0
870,3290001106616,新規,0,2024-08-05,2024-08-05,株式会社Ｋ,,株式会社,福岡県,太宰府市,高雄４丁目３番１２号,,40,221,8180122,,,,,,,2024-08-05,1,,,,,ケイ,0
873,3290003015591,新規,0,2024-08-05,2024-08-05,Ａ‐Ｄｅｓｉｇｎ合同会社,,合同会社,福岡県,福岡市南区,井尻２丁目１５番１５号,,40,134,8111302,,,,,,,2024-08-05,1,,,,,エーデザイン,0
875,3290801030759,新規,0,2024-08-05,2024-08-05,株式会社フールミー,,株式会社,福岡県,北九州市八幡西区,木屋瀬２丁目５番４号,,40,109,8071261,,,,,,,2024-08-05,1,,,,,フールミー,0
877,3310001019138,新規,0,2024-08-05,2024-08-05,明和創健株式会社,,株式会社,長崎県,雲仙市,小浜町北野６９２番地１,,42,213,8540515,,,,,,,2024-08-05,1,,,,,メイワソウケン,0
880,3310003004831,新規,0,2024-08-05,2024-08-05,鶴田ＲＳ合同会社,,合同会社,長崎県,西彼杵郡時津町,西時津郷２０１番地９,,42,308,8512101,,,,,,,2024-08-05,1,,,,,ツルタアールエス,0
882,3330003010497,新規,0,2024-08-05,2024-08-05,合同会社ふわり,,合同会社,熊本県,熊本市中央区,水前寺１丁目１２番６号ＬａＣＡＳＡ水前寺５０１号室,,43,101,8620950,,,,,,,2024-08-05,1,,,,,フワリ,0
885,3340001026701,新規,0,2024-08-05,2024-08-05,株式会社ガーデンエステート,,株式会社,鹿児島県,鹿児島市,与次郎２丁目６番７－９１２号,,46,201,8900062,,,,,,,2024-08-05,1,,,,,ガーデンエステート,0
888,3360001034025,新規,0,2024-08-05,2024-08-05,株式会社ＨＯＵＳＩＮＧ　ＯＮＥ　ＯＫＩＮＡＷＡ,,株式会社,沖縄県,沖縄市,知花６丁目７６４番地３,,47,211,9042143,,,,,,,2024-08-05,1,,,,,ハウジングワンオキナワ,0
889,3360003014198,新規,0,2024-08-05,2024-08-05,ｙｕｍｍｉｌｙ合同会社,,合同会社,沖縄県,那覇市,牧志３丁目４番８号,,47,201,9000013,,,,,,,2024-08-05,1,,,,,ヤミリー,0
894,3370001051589,新規,0,2024-08-05,2024-08-05,株式会社凹豆郎Ｏｕｔｄｏｏｒｌａｎｄ,,株式会社,宮城県,仙台市青葉区,中央２丁目２－３０,,04,101,9800021,,,,,,,2024-08-05,1,,,,,アウトドアランド,0
895,3370001051597,新規,0,2024-08-05,2024-08-05,株式会社ルミリオ製薬,,株式会社,宮城県,仙台市青葉区,本町１丁目５番２８号カーニープレイス仙台駅前通６０３号室,,04,101,9800014,,,,,,,2024-08-05,1,,,,,ルミリオセイヤク,0
901,3380001034709,新規,0,2024-08-05,2024-08-05,株式会社仙台屋,,株式会社,福島県,伊達郡桑折町,大字南半田字六角１４番地,,07,301,9691641,,,,,,,2024-08-05,1,,,,,センダイヤ,0
902,3380001034717,新規,0,2024-08-05,2024-08-05,株式会社クレイズ,,株式会社,福島県,福島市,本内字南古舘４２番地の２ファミュー１０１,,07,201,9600103,,,,,,,2024-08-05,1,,,,,クレイズ,0
906,3390001017695,新規,0,2024-08-05,2024-08-05,株式会社Ｓｕｉ,,株式会社,山形県,米沢市,信夫町６番３７号アッシュヒルＩＩＩ－１０３号室,00135805,06,202,9920046,,,,,,,2024-08-05,1,,,,,スイ,0
908,3390005009078,新規,0,2024-08-05,2024-08-05,一般社団法人ＲＹＯＳＵＫＥ　ＮＥＭＯＴＯ　ＳＴＲＩＫＥＲプロジェクト,,その他の設立登記法人,山形県,山形市,城西町２丁目８番２８－６号,,06,201,9900832,,,,,,,2024-08-05,1,,,,,ネモトリョウスケストライカープロジェクト,0
909,3410001013898,新規,0,2024-08-05,2024-08-05,株式会社わにさん,,株式会社,秋田県,山本郡三種町,森岳字岩瀬１２０番地８,,05,348,0182303,,,,,,,2024-08-05,1,,,,,ワニサン,0
913,3420001018822,新規,0,2024-08-05,2024-08-05,Ｇｒａｙｓ株式会社,,株式会社,青森県,北津軽郡鶴田町,大字菖蒲川字前田２３５番地１９,,02,384,0383521,,,,,,,2024-08-05,1,,,,,グレイス,0
915,3430001092412,新規,0,2024-08-05,2024-08-05,ＢＵＬＬＥＴリース株式会社,,株式会社,北海道,石狩郡当別町,１２２番地４８,,01,303,0610200,,,,,,,2024-08-05,1,,,,,バレットリース,0
917,3430003016658,新規,0,2024-08-05,2024-08-05,合同会社ｏｃｔｏｐｕｓ,,合同会社,北海道,札幌市中央区,南四条西３丁目１番地１第３グリーンビル５Ｆ,,01,101,0640804,,,,,,,2024-08-05,1,,,,,オクトパス,0
923,3490001010839,新規,0,2024-08-05,2024-08-05,株式会社アグリストコム,,株式会社,高知県,幡多郡黒潮町,蜷川３７３番地４,,39,428,7891902,,,,,,,2024-08-05,1,,,,,アグリストコム,0
924,3490003001919,新規,0,2024-08-05,2024-08-05,合同会社ＫＳＤ,,合同会社,高知県,香南市,香我美町下分５９９番地１,,39,211,7815452,,,,,,,2024-08-05,1,,,,,ケイエスディー,0
928,3500003003293,新規,0,2024-08-05,2024-08-05,合同会社ＺＥＲＯａｃｔ,,合同会社,愛媛県,今治市,本町７丁目３番４０号００コーポ１号,,38,202,7940018,,,,,,,2024-08-05,1,,,,,ゼロアクト,0
929,3700150126661,新規,0,2024-08-05,2024-08-05,ＩＮＯＸ　ＭＯＴＯ　ＥＮＴＥＲＰＲＩＳＥＳ,,外国会社等,茨城県,日立市,金沢町４丁目６０オフィス－Ａ,,08,202,3160015,スリランカ民主社会主義共和国、プージャピティヤ、ガルヒンナロード、Ｎｏ．４７７／３／Ａ,,,,,,2024-08-05,1,,,,,イノツクスモトエンタープライセス,0
946,4010005038584,新規,0,2024-08-05,2024-08-05,一般社団法人ＹＦ　ＪＲＥ　Ｄ,,その他の設立登記法人,東京都,千代田区,霞が関３丁目２番５号,,13,101,1000013,,,,,,,2024-08-05,1,,,,,ワイエフジェイアールイーディー,0
947,4010005038592,新規,0,2024-08-05,2024-08-05,一般社団法人修復医療研究会,,その他の設立登記法人,東京都,中央区,佃２丁目２０番５号,,13,102,1040051,,,,,,,2024-08-05,1,,,,,シュウフクイリョウケンキュウカイ,0
952,4010401184123,新規,0,2024-08-05,2024-08-05,Ｖｉｔａｂｒｅｅ株式会社,,株式会社,東京都,港区,南青山３丁目１番３６号青山丸竹ビル６階,,13,103,1070062,,,,,,,2024-08-05,1,,,,,ヴィタブリー,0
953,4010401184148,新規,0,2024-08-05,2024-08-05,株式会社ＲｅｇｏＬｉｔｈ,,株式会社,東京都,港区,南青山３丁目１番３６号青山丸竹ビル６Ｆ,,13,103,1070062,,,,,,,2024-08-05,1,,,,,レゴリス,0
954,4010401184197,新規,0,2024-08-05,2024-08-05,Ｋ　ａｎｄ　Ｋ　Ｉｎｔｅｒｎａｔｉｏｎａｌ株式会社,,株式会社,東京都,港区,海岸１丁目２－２０汐留ビルティング３Ｆ,,13,103,1050022,,,,,,,2024-08-05,1,,,,,ケーアンドケーインターナショナル,0
955,4010401184206,新規,0,2024-08-05,2024-08-05,ＡＳＸＥＥＤ株式会社,,株式会社,東京都,港区,新橋２丁目１６－１,,13,103,1050004,,,,,,,2024-08-05,1,,,,,アスシード,0
956,4010401184230,新規,0,2024-08-05,2024-08-05,株式会社ワイプラス,,株式会社,東京都,港区,南青山３丁目１番３６号青山丸竹ビル６Ｆ,,13,103,1070062,,,,,,,2024-08-05,1,,,,,ワイプラス,0
959,4010403033179,新規,0,2024-08-05,2024-08-05,Ｔ＆Ａパートナーズ合同会社,,合同会社,東京都,港区,南青山３丁目１番３６号青山丸竹ビル６Ｆ,,13,103,1070062,,,,,,,2024-08-05,1,,,,,ティーアンドエーパートナーズ,0
960,4010403033195,新規,0,2024-08-05,2024-08-05,ＢｕｌｅｒｉａＳ合同会社,,合同会社,東京都,港区,北青山１丁目３番１号アールキューブ青山３階,,13,103,1070061,,,,,,,2024-08-05,1,,,,,ブレリアス,0
965,4010601065676,新規,0,2024-08-05,2024-08-05,ＯＮ　ＰＲＯＤＵＣＴ株式会社,,株式会社,東京都,墨田区,江東橋４丁目２７－１４楽天地ビル３Ｆ,,13,107,1300022,,,,,,,2024-08-05,1,,,,,オンプロダクト,0
966,4010601065692,新規,0,2024-08-05,2024-08-05,株式会社ＹｏｕｒＳｍｉｌｅ,,株式会社,東京都,江東区,三好１丁目８番３号越前屋ビル２Ｆ,,13,108,1350022,,,,,,,2024-08-05,1,,,,,ユアスマイル,0
969,4010701046337,新規,0,2024-08-05,2024-08-05,ＰＡＴＨ２５株式会社,,株式会社,東京都,品川区,大井１丁目６－３－３Ｆ,,13,109,1400014,,,,,,,2024-08-05,1,,,,,パストゥエンティファイブ,0
975,4010801035306,新規,0,2024-08-05,2024-08-05,株式会社弥栄美装,,株式会社,東京都,大田区,大森北１丁目１８番１号,,13,111,1430016,,,,,,,2024-08-05,1,,,,,イヤサカビソウ,0
976,4010901055732,新規,0,2024-08-05,2024-08-05,株式会社オブラダデザイン事務所,,株式会社,東京都,世田谷区,北沢２丁目１３－６第一マツヤビル４０５,,13,112,1550031,,,,,,,2024-08-05,1,,,,,オブラダデザインジムショ,0
977,4010903009265,新規,0,2024-08-05,2024-08-05,合同会社謙建,,合同会社,東京都,世田谷区,深沢５丁目１０番１１－２０２号,,13,112,1580081,,,,,,,2024-08-05,1,,,,,ケンケン,0
983,4011001163707,新規,0,2024-08-05,2024-08-05,株式会社アルボスコンサルティング,,株式会社,東京都,渋谷区,渋谷３丁目１番１号ＰＭＯ渋谷ＩＩ２階２１２,00135799,13,113,1500002,,,,,,,2024-08-05,1,,,,,アルボスコンサルティング,0
984,4011001163715,新規,0,2024-08-05,2024-08-05,ＰｈｏｅｎｉｘＡＺ株式会社,,株式会社,東京都,渋谷区,南平台町１６番２８号Ｄａｉｗａ渋谷スクエア６Ｆ,,13,113,1500036,,,,,,,2024-08-05,1,,,,,フェニックスエーゼット,0
985,4011001163731,新規,0,2024-08-05,2024-08-05,株式会社ＬｕｍｉＶｏｇｕｅ,,株式会社,東京都,渋谷区,神宮前５丁目２１番２０号タウンハウス神宮前３０６,,13,113,1500001,,,,,,,2024-08-05,1,,,,,ルミヴォーグ,0
986,4011001163780,新規,0,2024-08-05,2024-08-05,株式会社Ｓｍａｒｔ‐Ａｇｉｎｇ　Ｒｅｓｅａｒｃｈ　Ｃｅｎｔｅｒ,,株式会社,東京都,渋谷区,代々木１丁目４４番４号,,13,113,1510053,,,,,,,2024-08-05,1,,,,,スマートエイジングリサーチセンター,0
987,4011001163789,新規,0,2024-08-05,2024-08-05,ｌｉｖｅ．Ｃ株式会社,,株式会社,東京都,渋谷区,神宮前６丁目２３番４号桑野ビル２階,,13,113,1500001,,,,,,,2024-08-05,1,,,,,ライブシー,0
988,4011001163814,新規,0,2024-08-05,2024-08-05,株式会社ＭＥＴＡＩｎｆｉｎｉｔｙ,,株式会社,東京都,渋谷区,広尾５丁目４番１６号,,13,113,1500012,,,,,,,2024-08-05,1,,,,,メタインフィニティ,0
989,4011001163830,新規,0,2024-08-05,2024-08-05,Ｔｈｅ２Ｓｗａｎｓ株式会社,,株式会社,東京都,渋谷区,恵比寿西１丁目２４番１０号ＡＳＴＩＬＥ代官山１０１,,13,113,1500021,,,,,,,2024-08-05,1,,,,,ザトゥースワン,0
990,4011001163839,新規,0,2024-08-05,2024-08-05,日洋航空サービス株式会社,,株式会社,東京都,渋谷区,幡ヶ谷３丁目２２－１１－１０１,,13,113,1510072,,,,,,,2024-08-05,1,,,,,ニチヨウコウクウサービス,0
991,4011003019717,新規,0,2024-08-05,2024-08-05,ＣｌｅａｒＱｕａｒｔｚ合同会社,,合同会社,東京都,渋谷区,恵比寿西２丁目４番８号ウィンド恵比寿ビル８Ｆ,,13,113,1500021,,,,,,,2024-08-05,1,,,,,クリアクオーツ,0
996,4011101108207,新規,0,2024-08-05,2024-08-05,翔野株式会社,,株式会社,東京都,新宿区,百人町１丁目２３番３号亀井ビル８Ｆ,,13,104,1690073,,,,,,,2024-08-05,1,,,,,,0
997,4011101108223,新規,0,2024-08-05,2024-08-05,株式会社ｉｎ‐ｄｏｏｒ’ｓ,,株式会社,東京都,新宿区,内藤町１－１,,13,104,1600014,,,,,,,2024-08-05,1,,,,,インドアーズ,0
999,4011103014741,新規,0,2024-08-05,2024-08-05,合同会社Ｆｉｒｓｔ　Ｓｔａｒ,,合同会社,東京都,新宿区,市谷田町２丁目７番地６グランスイート市ヶ谷７０２,,13,104,1620843,,,,,,,2024-08-05,1,,,,,ファーストスター,0
1004,4011301029896,新規,0,2024-08-05,2024-08-05,昇能源株式会社,,株式会社,東京都,杉並区,高円寺南３丁目２５－８ブリリアント高円寺ＩＩ２０６号室,00135817,13,115,1660003,,,,,,,2024-08-05,1,,,,,ショウノウゲン,0
1006,4011601027963,新規,0,2024-08-05,2024-08-05,ｇｌｏｂｅ株式会社,,株式会社,東京都,練馬区,関町南３丁目７－１３,,13,120,1770053,,,,,,,2024-08-05,1,,,,,グローブ,0
1007,4011601027971,新規,0,2024-08-05,2024-08-05,株式会社レアルプロダクツ,,株式会社,東京都,練馬区,南田中１丁目２０番１２号,,13,120,1770035,,,,,,,2024-08-05,1,,,,,レアルプロダクツ,0
1009,4011701027500,新規,0,2024-08-05,2024-08-05,万通国際株式会社,,株式会社,東京都,江戸川区,本一色２丁目１８－２,,13,123,1330044,,,,,,,2024-08-05,1,,,,,マンツウコクサイ,0
1011,4011801044635,新規,0,2024-08-05,2024-08-05,株式会社上原商店,,株式会社,東京都,足立区,東和３丁目１１番８号,,13,121,1200003,,,,,,,2024-08-05,1,,,,,ウエハラショウテン,0
1012,4011801044643,新規,0,2024-08-05,2024-08-05,株式会社キャリアコネクト,,株式会社,東京都,葛飾区,亀有４丁目２７番１２－７０１号ライオンズガーデン亀有,,13,122,1250061,,,,,,,2024-08-05,1,,,,,キャリアコネクト,0
1018,4012801023364,新規,0,2024-08-05,2024-08-05,株式会社ｕｌｕｋｏａ,,株式会社,東京都,国分寺市,本町２丁目２－１－Ｅ１３０１,,13,214,1850012,,,,,,,2024-08-05,1,,,,,ウルコア,0
1029,4020001158328,新規,0,2024-08-05,2024-08-05,株式会社渡邊建設,,株式会社,神奈川県,川崎市川崎区,港町２番９－７０４号グランイーグル川崎東,,14,131,2100807,,,,,,,2024-08-05,1,,,,,ワタナベケンセツ,0
1030,4020001158600,新規,0,2024-08-05,2024-08-05,株式会社ＶｉｚＡｎａ　Ｄａｔａ,,株式会社,神奈川県,横浜市西区,北幸２丁目１０番４８号むつみビル３階,,14,103,2200004,,,,,,,2024-08-05,1,,,,,ビズアナデータ,0
1032,4020003026565,新規,0,2024-08-05,2024-08-05,合同会社ｈｅｕｒｅ‐ＣｈｏｕＣｈｏｕ,,合同会社,神奈川県,横浜市中区,桜木町１丁目１０１番地１クロスゲート７階,,14,104,2310062,,,,,,,2024-08-05,1,,,,,ウールシュシュ,0
1033,4020003026573,新規,0,2024-08-05,2024-08-05,合同会社石川計画,,合同会社,神奈川県,横浜市神奈川区,羽沢南２丁目４４－７－２１０８,,14,102,2210866,,,,,,,2024-08-05,1,,,,,イシカワケイカク,0
1038,4021001082922,新規,0,2024-08-05,2024-08-05,株式会社ＯｃｅａｎＷｏｏｄ,,株式会社,神奈川県,鎌倉市,七里ガ浜東２丁目３０番１１号,,14,204,2480025,,,,,,,2024-08-05,1,,,,,オーシャンウッド,0
1042,4021003014865,新規,0,2024-08-05,2024-08-05,合同会社ＫＡＨＵＮＡ,,合同会社,神奈川県,藤沢市,鵠沼海岸６丁目１６番１９～７号,,14,205,2510037,,,,,,,2024-08-05,1,,,,,カフナ,0
1050,4030001161792,新規,0,2024-08-05,2024-08-05,株式会社ＩＧＬ,,株式会社,埼玉県,さいたま市南区,別所７丁目９番５号,,11,108,3360021,,,,,,,2024-08-05,1,,,,,アイジーエル,0
1056,4030005021794,新規,0,2024-08-05,2024-08-05,こどものための一般社団法人,,その他の設立登記法人,埼玉県,川口市,飯塚１丁目２番１６号川口ホームズ１Ｆ,,11,203,3320023,,,,,,,2024-08-05,1,,,,,コドモノタメノ,0
1060,4040001134756,新規,0,2024-08-05,2024-08-05,株式会社ＳＧ１・５２協会,,株式会社,千葉県,船橋市,宮本４丁目１９番９号,,12,204,2730003,,,,,,,2024-08-05,1,,,,,エスジーイチテンゴウニイキョウカイ,0
1061,4040001134806,新規,0,2024-08-05,2024-08-05,株式会社真大,,株式会社,千葉県,千葉市緑区,中西町６０６番地２,,12,105,2660024,,,,,,,2024-08-05,1,,,,,マダイ,0
1066,4040003025532,新規,0,2024-08-05,2024-08-05,合同会社ｇ．ｐｉｐｉｎｇ,,合同会社,千葉県,富津市,千種新田４５番地１１１,,12,226,2930036,,,,,,,2024-08-05,1,,,,,ジードットパイピング,0
1072,4050001055175,新規,0,2024-08-05,2024-08-05,株式会社ラフジュ不動産,,株式会社,茨城県,水戸市,南町１丁目２番２９号,,08,201,3100021,,,,,,,2024-08-05,1,,,,,ラフジュフドウサン,0
1073,4050001055183,新規,0,2024-08-05,2024-08-05,株式会社令断,,株式会社,茨城県,日立市,小木津町１丁目３７番２号,,08,202,3191413,,,,,,,2024-08-05,1,,,,,レイダン,0
1077,4080101024944,新規,0,2024-08-05,2024-08-05,株式会社ＹＭＳ三島,,株式会社,静岡県,三島市,平田１００番地,,22,206,4110821,,,,,,,2024-08-05,1,,,,,ワイエムエスミシマ,0
1081,4080401027358,新規,0,2024-08-05,2024-08-05,株式会社ｖａｎ　ｓｏｃｉａ,,株式会社,静岡県,掛川市,初馬８７１番地の１,,22,213,4360081,,,,,,,2024-08-05,1,,,,,バンソウシャ,0
1086,4090001018855,新規,0,2024-08-05,2024-08-05,株式会社Ｋ．Ｈ．ＯＮＥ,,株式会社,山梨県,甲府市,武田２丁目６－１２－１Ｆ,,19,201,4000016,,,,,,,2024-08-05,1,,,,,ケイエイチワン,0
1088,4100001037696,新規,0,2024-08-05,2024-08-05,株式会社ＳＰＡＲＫＹ,,株式会社,長野県,長野市,若里５丁目１０番３８号,,20,201,3800928,,,,,,,2024-08-05,1,,,,,スパーキー,0
1093,4110003005469,新規,0,2024-08-05,2024-08-05,合同会社シーズオブライフ,,合同会社,新潟県,加茂市,寿町５番５号,,15,209,9591384,,,,,,,2024-08-05,1,,,,,シーズオブライフ,0
1108,4120001267424,新規,0,2024-08-05,2024-08-05,株式会社ウデヨシ,,株式会社,大阪府,大阪市浪速区,塩草３丁目９番１４号,,27,111,5560024,,,,,,,2024-08-05,1,,,,,ウデヨシ,0
1109,4120001267449,新規,0,2024-08-05,2024-08-05,株式会社ヘッズ,,株式会社,大阪府,大阪市阿倍野区,天王寺町北３丁目９番１６号,,27,119,5450001,,,,,,,2024-08-05,1,,,,,ヘッズ,0
1110,4120001267457,新規,0,2024-08-05,2024-08-05,株式会社ＮＥＯＮＥ,,株式会社,大阪府,大阪市淀川区,西中島６丁目１番１号新大阪プライムタワー９階,,27,123,5320011,,,,,,,2024-08-05,1,,,,,ネオン,0
1111,4120001267465,新規,0,2024-08-05,2024-08-05,株式会社Ｇ’ｚ,,株式会社,大阪府,大阪市城東区,関目１丁目１３番６号２０６号,,27,118,5360008,,,,,,,2024-08-05,1,,,,,ジーズ,0
1116,4120003027231,新規,0,2024-08-05,2024-08-05,合同会社ｃｏｎｏｃａ,,合同会社,大阪府,大阪市住之江区,中加賀屋２丁目５番８号,,27,125,5590017,,,,,,,2024-08-05,1,,,,,コノカ,0
1117,4120005024482,新規,0,2024-08-05,2024-08-05,一般社団法人全国ご縁むすび協会,,その他の設立登記法人,大阪府,大阪市北区,豊崎３丁目１０番地２号アイアンドエフ梅田１２０１,,27,127,5310072,,,,,,,2024-08-05,1,,,,,ゼンコクゴエンムスビキョウカイ,0
1121,4120901049558,新規,0,2024-08-05,2024-08-05,栗本石田産業株式会社,,株式会社,大阪府,豊中市,東豊中町３丁目１３番７号,,27,203,5600003,,,,,,,2024-08-05,1,,,,,クリモトイシダサンギョウ,0
1125,4122003002957,新規,0,2024-08-05,2024-08-05,ＭＯＴ　ＷＡＶＥ合同会社,,合同会社,大阪府,柏原市,田辺２丁目１番２１－４０５号ビューテラスミウラ,,27,221,5820024,,,,,,,2024-08-05,1,,,,,モットウェーブ,0
1127,4130001077590,新規,0,2024-08-05,2024-08-05,株式会社ＦＣＯ,,株式会社,京都府,京都市上京区,油小路通下立売上る近衛町１６０番地ライオンズマンション烏丸西２０７号室,,26,102,6028046,,,,,,,2024-08-05,1,,,,,エフシーオー,0
1129,4130003009749,新規,0,2024-08-05,2024-08-05,犬鷲交易合同会社,,合同会社,京都府,長岡京市,長岡２丁目１１番２５－１０７号ジオ長岡天神,,26,209,6170823,,,,,,,2024-08-05,1,,,,,イヌワシコウエキ,0
1135,4140001135298,新規,0,2024-08-05,2024-08-05,株式会社ハープクリエイト,,株式会社,兵庫県,姫路市,東辻井３丁目３番５１号,00135803,28,201,6700084,,,,,,,2024-08-05,1,,,,,ハープクリエイト,0
1136,4140001135356,新規,0,2024-08-05,2024-08-05,株式会社ＰＵＲＥ,,株式会社,兵庫県,尼崎市,若王寺１丁目２番２５号,,28,202,6610974,,,,,,,2024-08-05,1,,,,,ピュア,0
1138,4140003020886,新規,0,2024-08-05,2024-08-05,合同会社Ａライフ,,合同会社,兵庫県,尼崎市,東園田町１丁目３５番地の２,,28,202,6610953,,,,,,,2024-08-05,1,,,,,エーライフ,0
1139,4140005027178,新規,0,2024-08-05,2024-08-05,一般財団法人米田国際医療研究事業財団,,その他の設立登記法人,兵庫県,加西市,尾崎町字野田１０番１,,28,220,6752242,,,,,,,2024-08-05,1,,,,,ヨネダコクサイイリョウケンキュウジギョウザイダン,0
1143,4150003003329,新規,0,2024-08-05,2024-08-05,合同会社ＷＡＧＯ,,合同会社,奈良県,高市郡明日香村,大字橘５４８番地,,29,402,6340142,,,,,,,2024-08-05,1,,,,,ワゴウ,0
1144,4160001026116,新規,0,2024-08-05,2024-08-05,株式会社熊木甲賀,,株式会社,滋賀県,甲賀市,水口町八坂３番５４号,,25,209,5280032,,,,,,,2024-08-05,1,,,,,クマキコウカ,0
1145,4170001018252,新規,0,2024-08-05,2024-08-05,株式会社コンサクレファーム,,株式会社,和歌山県,日高郡日高川町,大字三百瀬１０１５番地１,,30,392,6491312,,,,,,,2024-08-05,1,,,,,コンサクレファーム,0
1153,4180001162561,新規,0,2024-08-05,2024-08-05,株式会社エステート２９,,株式会社,愛知県,名古屋市中区,大須１丁目３４番２３号グランコート大須１１０１,,23,106,4600011,,,,,,,2024-08-05,1,,,,,エステートニジュウキュー,0
1156,4180003027151,新規,0,2024-08-05,2024-08-05,合同会社ミラクルポイント,,合同会社,愛知県,名古屋市中区,栄１丁目２番３号－１９１２号,,23,106,4600008,,,,,,,2024-08-05,1,,,,,ミラクルポイント,0
1157,4180003027168,新規,0,2024-08-05,2024-08-05,合同会社シンカ,,合同会社,愛知県,弥富市,五明町小赤津外２０６１番地３０,,23,235,4980014,,,,,,,2024-08-05,1,,,,,シンカ,0
1158,4180003027192,新規,0,2024-08-05,2024-08-05,合同会社マリヨウ,,合同会社,愛知県,名古屋市中区,新栄１丁目１７番２５号,,23,106,4600007,,,,,,,2024-08-05,1,,,,,マリヨウ,0
1161,4180301038940,新規,0,2024-08-05,2024-08-05,株式会社インフォライズ,,株式会社,愛知県,岡崎市,鴨田町字広元１９５番地,,23,202,4442121,,,,,,,2024-08-05,1,,,,,インフォライズ,0
1162,4180303006219,新規,0,2024-08-05,2024-08-05,合同会社ＭＤＪトレーディング,,合同会社,愛知県,安城市,三河安城町２丁目１７番地３フローレンス三河安城１０２,,23,212,4460056,,,,,,,2024-08-05,1,,,,,エムディジェイトレーディング,0
1163,4190001031550,新規,0,2024-08-05,2024-08-05,株式会社アクトセーフティ,,株式会社,三重県,津市,江戸橋１丁目１０番地９,,24,201,5140001,,,,,,,2024-08-05,1,,,,,アクトセーフティ,0
1166,4210001019865,新規,0,2024-08-05,2024-08-05,株式会社エムクリエイト,,株式会社,福井県,福井市,福１丁目２４０６番地パストラル甚Ａ棟２０５号室,,18,201,9188027,,,,,,,2024-08-05,1,,,,,エムクリエイト,0
1169,4230003002264,新規,0,2024-08-05,2024-08-05,合同会社一翔,,合同会社,富山県,富山市,新保６６９番地１,,16,201,9398253,,,,,,,2024-08-05,1,,,,,イッショウ,0
1175,4240001063662,新規,0,2024-08-05,2024-08-05,株式会社豊島電工,,株式会社,広島県,広島市安佐北区,三入南２丁目３５番３０号,,34,106,7310213,,,,,,,2024-08-05,1,,,,,トヨシマデンコウ,0
1181,4250001020761,新規,0,2024-08-05,2024-08-05,株式会社ＭＯＴテック,,株式会社,山口県,下関市,新垢田西町１丁目５番５号,,35,201,7510844,,,,,,,2024-08-05,1,,,,,エムオーティテック,0
1184,4260001039330,新規,0,2024-08-05,2024-08-05,株式会社ｏｄｄ　ｆａｒｍ,,株式会社,岡山県,赤磐市,桜が丘西１０丁目３０番１１号,,33,213,7090802,,,,,,,2024-08-05,1,,,,,オッドファーム,0
1185,4260001039347,新規,0,2024-08-05,2024-08-05,株式会社かすがカンパニー,,株式会社,岡山県,岡山市北区,春日町４番１４号,,33,101,7000905,,,,,,,2024-08-05,1,,,,,カスガカンパニー,0
1186,4260001039355,新規,0,2024-08-05,2024-08-05,株式会社Ａｌａｋａ,,株式会社,岡山県,倉敷市,安江４１８－１,,33,202,7100825,,,,,,,2024-08-05,1,,,,,アラカ,0
1188,4260003004844,新規,0,2024-08-05,2024-08-05,合同会社ＳＯＲＡＴＯＳＥＩ,,合同会社,岡山県,都窪郡早島町,前潟５２８番地１,,33,423,7010303,,,,,,,2024-08-05,1,,,,,ソラトセイ,0
1197,4290001106557,新規,0,2024-08-05,2024-08-05,ダーツ株式会社,,株式会社,福岡県,飯塚市,北古賀６４１番地１,,40,205,8200703,,,,,,,2024-08-05,1,,,,,ダーツ,0
1198,4290001106565,新規,0,2024-08-05,2024-08-05,株式会社クレッシェンド,,株式会社,福岡県,福岡市博多区,博多駅前３丁目１２番２１号ＮＫＥビル４Ｆ,,40,132,8120011,,,,,,,2024-08-05,1,,,,,クレッシェンド,0
1199,4290001106573,新規,0,2024-08-05,2024-08-05,株式会社イーサービス,,株式会社,福岡県,糟屋郡志免町,南里６丁目７番１０号,,40,343,8112207,,,,,,,2024-08-05,1,,,,,イーサービス,0
1200,4290001106615,新規,0,2024-08-05,2024-08-05,株式会社プログレス,,株式会社,福岡県,糟屋郡新宮町,大字湊７２９番地３,,40,345,8110116,,,,,,,2024-08-05,1,,,,,プログレス,0
1201,4290001106722,新規,0,2024-08-05,2024-08-05,株式会社ｓｉｅｎ．ｓ,,株式会社,福岡県,福岡市南区,野間１丁目１０番７号,,40,134,8150041,,,,,,,2024-08-05,1,,,,,シエンス,0
1202,4290003015574,新規,0,2024-08-05,2024-08-05,アジア日本友好友の会合同会社,,合同会社,福岡県,福岡市東区,松島１丁目２８番３６号,,40,131,8120062,,,,,,,2024-08-05,1,,,,,アジアニホンユウコウトモノカイ,0
1204,4290801030758,新規,0,2024-08-05,2024-08-05,中村塗装株式会社,,株式会社,福岡県,行橋市,泉中央７丁目１２番２６号,,40,213,8240034,,,,,,,2024-08-05,1,,,,,ナカムラトソウ,0
1206,4290803004801,新規,0,2024-08-05,2024-08-05,合同会社ｉｍｉｉｍｉ,,合同会社,福岡県,遠賀郡遠賀町,大字広渡１６７２番地の１２,,40,384,8114302,,,,,,,2024-08-05,1,,,,,イミイミ,0
1207,4300001013859,新規,0,2024-08-05,2024-08-05,Ｈｅａｌｔｈ＆Ｔｅｃｈ株式会社,,株式会社,佐賀県,唐津市,菜畑３７５１番地７,,41,202,8470844,,,,,,,2024-08-05,1,,,,,ヘルスアンドテック,0
1208,4310001019145,新規,0,2024-08-05,2024-08-05,ＶＩＶＡＣＩＴＹホールディングス株式会社,,株式会社,長崎県,長崎市,栄町４番１７号,,42,201,8500875,,,,,,,2024-08-05,1,,,,,ビバシティホールディングス,0
1209,4320001020647,新規,0,2024-08-05,2024-08-05,Ｍホームルーム株式会社,,株式会社,大分県,杵築市,大字杵築６６５番地１１,,44,210,8730001,,,,,,,2024-08-05,1,,,,,エムホームルーム,0
1211,4330001032336,新規,0,2024-08-05,2024-08-05,ＹＵＴＡＫＡアウトソーシング株式会社,,株式会社,熊本県,宇城市,豊野町上郷１３１番地,,43,213,8614303,,,,,,,2024-08-05,1,,,,,ユタカアウトソーシング,0
1212,4340001026709,新規,0,2024-08-05,2024-08-05,株式会社ビジネスコラボ,,株式会社,鹿児島県,鹿児島市,下荒田３丁目４４番１８号のせビル３０１号室,,46,201,8900056,,,,,,,2024-08-05,1,,,,,ビジネスコラボ,0
1213,4340001026717,新規,0,2024-08-05,2024-08-05,株式会社ユーフォリア,,株式会社,鹿児島県,鹿児島市,南林寺町１９番３号第１トーカン１－Ｇ,,46,201,8920834,,,,,,,2024-08-05,1,,,,,ユーフォリア,0
1216,4340003004563,新規,0,2024-08-05,2024-08-05,合同会社Ｃｈｉｎｊｕｕｕｕｕ,,合同会社,鹿児島県,伊佐市,大口曽木９９０－１,,46,224,8952441,,,,,,,2024-08-05,1,,,,,チンジュウ,0
1220,4360001034032,新規,0,2024-08-05,2024-08-05,株式会社ＭＫＭアセット,,株式会社,沖縄県,中頭郡読谷村,字大湾３７２番地,,47,324,9040313,,,,,,,2024-08-05,1,,,,,エムケーエムアセット,0
1221,4360001034040,新規,0,2024-08-05,2024-08-05,ＴＣＤ株式会社,,株式会社,沖縄県,那覇市,西２丁目６番１１号神里第二ビル３０１号室,,47,201,9000036,,,,,,,2024-08-05,1,,,,,ティーシーディー,0
1225,4400005008432,新規,0,2024-08-05,2024-08-05,医療法人彩桜会,,その他の設立登記法人,岩手県,北上市,川岸１丁目１番２０号さくらＰＯＲＴ・オフィス１階,,03,206,0240032,,,,,,,2024-08-05,1,,,,,サイオウカイ,0
1228,4410002003617,新規,0,2024-08-05,2024-08-05,有限会社ミドリ薬局,,有限会社,秋田県,秋田市,手形山崎町６番９号,,05,201,0100854,,,,,,,2024-08-05,1,,,,,ミドリヤッキョク,0
1230,4420001018821,新規,0,2024-08-05,2024-08-05,株式会社北明,,株式会社,青森県,青森市,赤坂２丁目９番６号,,02,201,0300956,,,,,,,2024-08-05,1,,,,,ホクメイ,0
1241,4430003016657,新規,0,2024-08-05,2024-08-05,合同会社ＯＭＡＮＳ,,合同会社,北海道,石狩郡新篠津村,第４７線北９番地,,01,304,0681100,,,,,,,2024-08-05,1,,,,,オーマンズ,0
1244,4460001005931,新規,0,2024-08-05,2024-08-05,株式会社ＡｉＢｌｅｓｓ,,株式会社,北海道,川上郡弟子屈町,美里６丁目５番４号,,01,665,0883215,,,,,,,2024-08-05,1,,,,,エーアイブレス,0
1246,4480003002165,新規,0,2024-08-05,2024-08-05,合同会社ＳＲＨ,,合同会社,徳島県,阿南市,福井町大西９１番地１５,,36,204,7791620,,,,,,,2024-08-05,1,,,,,エスアールエイチ,0
1250,4500001025792,新規,0,2024-08-05,2024-08-05,株式会社ＳＴ工業,,株式会社,愛媛県,今治市,常盤町５丁目６－２１－２Ｆ,,38,202,7940015,,,,,,,2024-08-05,1,,,,,エスティーコウギョウ,0
1255,4700150126660,新規,0,2024-08-05,2024-08-05,ＩＳＬＡＮＤ　ＡＰＰＡＲＥＬ　ＥＮＴＥＲＰＲＩＳＥＳ,,外国会社等,茨城県,日立市,金沢町４丁目６０番地オフィス６,,08,202,3160015,スリランカ民主社会主義共和国、キャンディ、カトゥガストタ、ガッラワッタロード、１４,,,,,,2024-08-05,1,,,,,アイランドアパレルエンタープライズ,0
1264,5010001246941,新規,0,2024-08-05,2024-08-05,石切ホールディングス株式会社,,株式会社,東京都,千代田区,有楽町１丁目５番２号東宝日比谷プロムナードビル,,13,101,1000006,,,,,,,2024-08-05,1,,,,,イシキリホールディングス,0
1265,5010001247007,新規,0,2024-08-05,2024-08-05,株式会社アールエスコーポレーション,,株式会社,東京都,中央区,八丁堀４丁目１２番７号,,13,102,1040032,,,,,,,2024-08-05,1,,,,,アールエスコーポレーション,0
1266,5010001247048,新規,0,2024-08-05,2024-08-05,日本蓄電池株式会社,,株式会社,東京都,千代田区,霞が関３丁目２番５号,,13,101,1000013,,,,,,,2024-08-05,1,,,,,ニホンチクデンチ,0
1267,5010001247097,新規,0,2024-08-05,2024-08-05,株式会社ＳＡＫＵ,,株式会社,東京都,文京区,千駄木５丁目３９番２号,,13,105,1130022,,,,,,,2024-08-05,1,,,,,サク,0
1268,5010001247106,新規,0,2024-08-05,2024-08-05,株式会社Ｖｉｔａｌｉｖｅ,,株式会社,東京都,中央区,日本橋小伝馬町１番５号,,13,102,1030001,,,,,,,2024-08-05,1,,,,,バイタライブ,0
1269,5010001247171,新規,0,2024-08-05,2024-08-05,株式会社ＲＤＭＣ,,株式会社,東京都,千代田区,四番町２番地１,,13,101,1020081,,,,,,,2024-08-05,1,,,,,アールディーエムシー,0
1270,5010001247188,新規,0,2024-08-05,2024-08-05,テクノデータサイエンス株式会社,,株式会社,東京都,中央区,日本橋小網町９番９号小網町安田ビル,,13,102,1030016,,,,,,,2024-08-05,1,,,,,テクノデータサイエンス,0
1275,5010003044476,新規,0,2024-08-05,2024-08-05,大野産業衛生オフィス合同会社,,合同会社,東京都,中央区,日本橋２丁目２番３号,,13,102,1030027,,,,,,,2024-08-05,1,,,,,オオノサンギョウエイセイオフィス,0
1279,5010401184213,新規,0,2024-08-05,2024-08-05,ＩＳＳＨＯ株式会社,,株式会社,東京都,港区,北青山３丁目１０番５号ＳｐｒｉｎｇＴｅｒｒａｃｅＯｍｏｔｅｓａｎｄｏ２Ｆ,,13,103,1070061,,,,,,,2024-08-05,1,,,,,イッショ,0
1280,5010401184246,新規,0,2024-08-05,2024-08-05,株式会社Ｌｉｆｅｉｓ,,株式会社,東京都,港区,白金１丁目２番１－Ｅ１４０２号,,13,103,1080072,,,,,,,2024-08-05,1,,,,,ライフイズ,0
1281,5010401184312,新規,0,2024-08-05,2024-08-05,株式会社プリメラ・インベストメンツ,,株式会社,東京都,港区,虎ノ門１丁目１６番６号虎ノ門ＲＡＰＯ－ＴＯビルＵＣＦ７階,,13,103,1050001,,,,,,,2024-08-05,1,,,,,プリメラインベストメンツ,0
1282,5010403033161,新規,0,2024-08-05,2024-08-05,Ａｒｃｏｎｃｉｅｌ合同会社,,合同会社,東京都,港区,浜松町１丁目１７－３シダフォレスト４Ｆ,,13,103,1050013,,,,,,,2024-08-05,1,,,,,アルコンシェール,0
1283,5010405023409,新規,0,2024-08-05,2024-08-05,一般社団法人こども育成・女性支援協議会,,その他の設立登記法人,東京都,港区,赤坂３丁目１１番１４号,,13,103,1070052,,,,,,,2024-08-05,1,,,,,コドモイクセイジョセイシエンキョウギカイ,0
1286,5010501052708,新規,0,2024-08-05,2024-08-05,洛水株式会社,,株式会社,東京都,台東区,台東１丁目２９番３号イースタンクロスアキバ３１３号室,,13,106,1100016,,,,,,,2024-08-05,1,,,,,ラクスイ,0
1297,5011001163722,新規,0,2024-08-05,2024-08-05,株式会社Ｃｈｒｏｎｏｔｅｒ,,株式会社,東京都,渋谷区,神宮前６丁目２３番４号桑野ビル２階,,13,113,1500001,,,,,,,2024-08-05,1,,,,,クロノーター,0
1298,5011001163747,新規,0,2024-08-05,2024-08-05,株式会社トップティア,,株式会社,東京都,渋谷区,恵比寿西１丁目３３番６号ＪＰｎｏｉｅ恵比寿西１Ｆ,,13,113,1500021,,,,,,,2024-08-05,1,,,,,トップティア,0
1299,5011001163763,新規,0,2024-08-05,2024-08-05,ぴぴぴぷらす株式会社,,株式会社,東京都,渋谷区,神南１丁目２３番１４号リージャス渋谷公園通りセンター,,13,113,1500041,,,,,,,2024-08-05,1,,,,,ピピピプラス,0
1300,5011001163796,新規,0,2024-08-05,2024-08-05,株式会社ＲＥファーマシー,,株式会社,東京都,渋谷区,神宮前６丁目３４番２５号,,13,113,1500001,,,,,,,2024-08-05,1,,,,,アールイーファーマシー,0
1301,5011001163813,新規,0,2024-08-05,2024-08-05,株式会社ＭＭＯＬ,,株式会社,東京都,渋谷区,道玄坂２丁目１１番１号ＪＭＦビル渋谷０３－５階,,13,113,1500043,,,,,,,2024-08-05,1,,,,,ミリモル,0
1302,5011001163821,新規,0,2024-08-05,2024-08-05,株式会社Ｗｉｎ　ｓｕｃｃｅｓｓ．,,株式会社,東京都,渋谷区,円山町５番５号Ｎａｖｉ渋谷Ｖ３階,00135812,13,113,1500044,,,,,,,2024-08-05,1,,,,,ウィンサクセス,0
1303,5011003019690,新規,0,2024-08-05,2024-08-05,ＳＯＬＡＭＥＤＯ合同会社,,合同会社,東京都,渋谷区,渋谷２丁目１９－１５宮益坂ビルディング６０９,,13,113,1500002,,,,,,,2024-08-05,1,,,,,ソラメド,0
1304,5011003019765,新規,0,2024-08-05,2024-08-05,Ｓｏｒａｓｉｌ合同会社,,合同会社,東京都,渋谷区,渋谷２丁目１９‐１５宮益坂ビルディング６０９,,13,113,1500002,,,,,,,2024-08-05,1,,,,,ソラシル,0
1310,5011101108156,新規,0,2024-08-05,2024-08-05,緑能株式会社,,株式会社,東京都,新宿区,水道町４－２８ＪＣ江戸川橋ビル,,13,104,1620811,,,,,,,2024-08-05,1,,,,,リョクノウ,0
1311,5011101108222,新規,0,2024-08-05,2024-08-05,ＦＩＶＥ　ＳＴＡＲ　ＩＮＴＬ株式会社,,株式会社,東京都,新宿区,北新宿４丁目２８－１パールマンション５０３,,13,104,1690074,,,,,,,2024-08-05,1,,,,,ファイブスターインターナショナル,0
1312,5011101108296,新規,0,2024-08-05,2024-08-05,株式会社ＳＡＮＹＯ　ＨＯＬＤＩＮＧＳ,,株式会社,東京都,新宿区,新宿６丁目２７番５０号,,13,104,1600022,,,,,,,2024-08-05,1,,,,,サンヨーホールディングス,0
1313,5011103014749,新規,0,2024-08-05,2024-08-05,Ｓｍａｒｔ　Ｇｒｏｗｔｈ合同会社,,合同会社,東京都,新宿区,新宿７丁目２２－８－３０１,,13,104,1600022,,,,,,,2024-08-05,1,,,,,スマートグロース,0
1317,5011301029904,新規,0,2024-08-05,2024-08-05,株式会社陽明,,株式会社,東京都,杉並区,堀ノ内１丁目２７番９－１８号,,13,115,1660013,,,,,,,2024-08-05,1,,,,,ヨウメイ,0
1321,5011501031008,新規,0,2024-08-05,2024-08-05,株式会社青空アカデミー,,株式会社,東京都,北区,志茂５丁目３８番１７号,,13,117,1150042,,,,,,,2024-08-05,1,,,,,アオゾラアカデミー,0
1322,5011601027954,新規,0,2024-08-05,2024-08-05,株式会社Ｊ．ＢＡＺＺ,,株式会社,東京都,練馬区,春日町６丁目１１番６号デュオステージ練馬春日町３０１号,,13,120,1790074,,,,,,,2024-08-05,1,,,,,ジェイドットバズ,0
1325,5012301014037,新規,0,2024-08-05,2024-08-05,株式会社ＳＷＥＴＨ,,株式会社,東京都,町田市,鶴間３丁目１３－３－２０６,,13,209,1940004,,,,,,,2024-08-05,1,,,,,スウェース,0
1330,5012403006700,新規,0,2024-08-05,2024-08-05,合同会社イロハデザインオフィス,,合同会社,東京都,武蔵野市,吉祥寺南町１丁目１０番地１０号Ｓビル２階,,13,203,1800003,,,,,,,2024-08-05,1,,,,,イロハデザインオフィス,0
1334,5012803003470,新規,0,2024-08-05,2024-08-05,合同会社Ｊｏｓｈ,,合同会社,東京都,立川市,砂川町８丁目１１番地１８,,13,202,1900031,,,,,,,2024-08-05,1,,,,,ジョッシュ,0
1335,5012803003479,新規,0,2024-08-05,2024-08-05,ＤｎＣ合同会社,,合同会社,東京都,立川市,上砂町２丁目５番地の３ヴィラージュＲＢ１,,13,202,1900032,,,,,,,2024-08-05,1,,,,,ディエヌシー,0
1341,5013303007227,新規,0,2024-08-05,2024-08-05,ＲＥａｓｏｎ合同会社,,合同会社,東京都,豊島区,長崎６丁目３３－６－２０６,,13,116,1710051,,,,,,,2024-08-05,1,,,,,リーズン,0
1345,5020001158293,新規,0,2024-08-05,2024-08-05,ｃｌａｒｉｆｙ株式会社,,株式会社,神奈川県,川崎市多摩区,登戸新町４２７－１,,14,135,2140013,,,,,,,2024-08-05,1,,,,,クラリファイ,0
1346,5020001158327,新規,0,2024-08-05,2024-08-05,株式会社ほらく,,株式会社,神奈川県,川崎市川崎区,大島４丁目４番３号,,14,131,2100834,,,,,,,2024-08-05,1,,,,,ホラク,0
1347,5020001158335,新規,0,2024-08-05,2024-08-05,株式会社ＬＩＮＫ．ｃａｒｒｙ,,株式会社,神奈川県,横浜市西区,北幸２丁目１０番４８号むつみビル３階,,14,103,2200004,,,,,,,2024-08-05,1,,,,,リンクキャリー,0
1351,5020003026572,新規,0,2024-08-05,2024-08-05,合同会社グランディール,,合同会社,神奈川県,横浜市栄区,笠間３丁目２１－２７,,14,115,2470006,,,,,,,2024-08-05,1,,,,,グランディール,0
1363,5030001161726,新規,0,2024-08-05,2024-08-05,株式会社タイセイ,,株式会社,埼玉県,川口市,大字安行北谷５６４番地の２,,11,203,3340054,,,,,,,2024-08-05,1,,,,,タイセイ,0
1364,5030001161750,新規,0,2024-08-05,2024-08-05,ツデーホビー株式会社,,株式会社,埼玉県,川口市,大字小谷場１８８－１４,,11,203,3330857,,,,,,,2024-08-05,1,,,,,ツデーホビー,0
1365,5030001161759,新規,0,2024-08-05,2024-08-05,株式会社ｋｔｙプロ,,株式会社,埼玉県,さいたま市桜区,大字神田３０１番地１,,11,106,3380812,,,,,,,2024-08-05,1,,,,,ケーティーワイプロ,0
1366,5030001161791,新規,0,2024-08-05,2024-08-05,株式会社梅澤設備工業,,株式会社,埼玉県,東松山市,大字下野本９６７番地５,,11,212,3550036,,,,,,,2024-08-05,1,,,,,ウメザワセツビコウギョウ,0
1367,5030001161809,新規,0,2024-08-05,2024-08-05,株式会社泰智,,株式会社,埼玉県,北葛飾郡杉戸町,清地１丁目２番３１号,,11,464,3450025,,,,,,,2024-08-05,1,,,,,タイチ,0
1371,5030003024864,新規,0,2024-08-05,2024-08-05,合同会社ｉｍｘｉｍ,,合同会社,埼玉県,さいたま市浦和区,岸町５丁目１８番１２号,,11,107,3300064,,,,,,,2024-08-05,1,,,,,イムシム,0
1372,5030003024872,新規,0,2024-08-05,2024-08-05,合同会社ＭＩＫＡＴＡＫＡＮ,,合同会社,埼玉県,志木市,本町５丁目１９番２５－２０５号,,11,228,3530004,,,,,,,2024-08-05,1,,,,,ミカタカン,0
1376,5040001134755,新規,0,2024-08-05,2024-08-05,株式会社ミハラ,,株式会社,千葉県,流山市,美原３丁目４３番地の６,,12,220,2700103,,,,,,,2024-08-05,1,,,,,ミハラ,0
1377,5040001134796,新規,0,2024-08-05,2024-08-05,オートクチュール株式会社,,株式会社,千葉県,富津市,青木２丁目７番地５,,12,226,2930012,,,,,,,2024-08-05,1,,,,,オートクチュール,0
1386,5040003025515,新規,0,2024-08-05,2024-08-05,合同会社太成,,合同会社,千葉県,流山市,大字南１３４１番地の１,,12,220,2700124,,,,,,,2024-08-05,1,,,,,タイセイ,0
1387,5040003025556,新規,0,2024-08-05,2024-08-05,合同会社コンチェルト,,合同会社,千葉県,我孫子市,白山１丁目２９番１号,,12,222,2701154,,,,,,,2024-08-05,1,,,,,コンチェルト,0
1389,5050001055117,新規,0,2024-08-05,2024-08-05,株式会社幸拓,,株式会社,茨城県,那珂郡東海村,舟石川駅東３丁目１－１東海村産業・情報プラザ２階,,08,341,3191118,,,,,,,2024-08-05,1,,,,,コウタク,0
1390,5050001055199,新規,0,2024-08-05,2024-08-05,株式会社東誠,,株式会社,茨城県,取手市,戸頭６丁目２番地６号,,08,217,3020034,,,,,,,2024-08-05,1,,,,,トウセイ,0
1395,5080001026412,新規,0,2024-08-05,2024-08-05,株式会社サムロランドスケープ,,株式会社,静岡県,静岡市駿河区,手越４２０番地の１１,,22,102,4210102,,,,,,,2024-08-05,1,,,,,サムロランドスケープ,0
1396,5080101024935,新規,0,2024-08-05,2024-08-05,寶樹株式会社,,株式会社,静岡県,伊東市,岡１３９１－２７、２０２号室,,22,208,4140055,,,,,,,2024-08-05,1,,,,,ホウジュ,0
1400,5080401027349,新規,0,2024-08-05,2024-08-05,株式会社ＹＭ　ＬＩＮＫ,,株式会社,静岡県,浜松市中央区,根洗町１１番地,,22,138,4338108,,,,,,,2024-08-05,1,,,,,ワイエムリンク,0
1412,5110001038610,新規,0,2024-08-05,2024-08-05,株式会社みゆ,,株式会社,新潟県,新潟市東区,船江町１丁目３５番１０号,,15,102,9500031,,,,,,,2024-08-05,1,,,,,,0
1422,5120001267423,新規,0,2024-08-05,2024-08-05,ミラーアップ株式会社,,株式会社,大阪府,大阪市淀川区,東三国１丁目４番３０号,,27,123,5320002,,,,,,,2024-08-05,1,,,,,ミラーアップ,0
1423,5120001267448,新規,0,2024-08-05,2024-08-05,奥瑞株式会社,,株式会社,大阪府,大阪市中央区,瓦町４丁目３番１４－６１８号,,27,128,5410048,,,,,,,2024-08-05,1,,,,,オクズイ,0
1424,5120001267464,新規,0,2024-08-05,2024-08-05,株式会社Ａ　ｔｏ,,株式会社,大阪府,大阪市天王寺区,勝山３丁目１番１９号,,27,109,5430043,,,,,,,2024-08-05,1,,,,,エートゥー,0
1425,5120001267472,新規,0,2024-08-05,2024-08-05,株式会社ＳＡＲＥＤＯ,,株式会社,大阪府,大阪市北区,梅田１丁目３番１号大阪駅前第１ビル８階５号,,27,127,5300001,,,,,,,2024-08-05,1,,,,,サレド,0
1426,5120001267480,新規,0,2024-08-05,2024-08-05,株式会社ａｎ‐ｖｉ,,株式会社,大阪府,大阪市城東区,今福南１丁目８番５号,,27,118,5360003,,,,,,,2024-08-05,1,,,,,アンヴィ,0
1427,5120001267506,新規,0,2024-08-05,2024-08-05,株式会社芳樹電設,,株式会社,大阪府,交野市,私部西５丁目７番３,,27,230,5760041,,,,,,,2024-08-05,1,,,,,ホウジュデンセツ,0
1428,5120001267514,新規,0,2024-08-05,2024-08-05,株式会社ＮＩＡＳ,,株式会社,大阪府,大阪市北区,堂島２丁目２番２８号オーク堂島ビル６階,,27,127,5300003,,,,,,,2024-08-05,1,,,,,ニアス,0
1431,5120003027222,新規,0,2024-08-05,2024-08-05,天宝合同会社,,合同会社,大阪府,大阪市西成区,長橋３丁目６番１９号長橋ハイツ１０２号室,,27,122,5570025,,,,,,,2024-08-05,1,,,,,テンホウ,0
1436,5120901049565,新規,0,2024-08-05,2024-08-05,株式会社波多野組,,株式会社,大阪府,吹田市,吹東町５番８号,,27,205,5640014,,,,,,,2024-08-05,1,,,,,ハタノグミ,0
1440,5122003002948,新規,0,2024-08-05,2024-08-05,合同会社住幸,,合同会社,大阪府,八尾市,南本町４丁目６番１号,,27,212,5810081,,,,,,,2024-08-05,1,,,,,スミコウ,0
1449,5140001135371,新規,0,2024-08-05,2024-08-05,株式会社Ｐｒｏｐｉｔｉｏｕｓ,,株式会社,兵庫県,西宮市,両度町３番１－７０４号,,28,204,6620841,,,,,,,2024-08-05,1,,,,,プロピシャス,0
1453,5140005027177,新規,0,2024-08-05,2024-08-05,一般社団法人ゆりサポ,,その他の設立登記法人,兵庫県,三田市,ゆりのき台４丁目２４番地ゆりのき台小学校内ゆりのき交流室,,28,219,6691324,,,,,,,2024-08-05,1,,,,,ユリサポ,0
1458,5160003003260,新規,0,2024-08-05,2024-08-05,ペットセレモニークリスタル合同会社,,合同会社,滋賀県,東近江市,今町９６０―１,,25,213,5211211,,,,,,,2024-08-05,1,,,,,ペットセレモニークリスタル,0
1464,5180001162635,新規,0,2024-08-05,2024-08-05,Ｇｉｆｔ　Ｃｏｎｓｕｌｔｉｎｇ株式会社,,株式会社,愛知県,名古屋市中区,丸の内２丁目１４番１６号河合ビル４Ｆ,,23,106,4600002,,,,,,,2024-08-05,1,,,,,ギフトコンサルティング,0
1476,5190001031541,新規,0,2024-08-05,2024-08-05,フォーレストＨＤ株式会社,,株式会社,三重県,松阪市,中道町５２９番地４,,24,204,5152115,,,,,,,2024-08-05,1,,,,,フォーレストホールディングス,0
1480,5210001019831,新規,0,2024-08-05,2024-08-05,株式会社Ｗｉｔｈ　Ｆｒｉｅｎｄｓ,,株式会社,福井県,福井市,米松１丁目１１番１９号,,18,201,9100851,,,,,,,2024-08-05,1,,,,,ウィズフレンズ,0
1481,5210001019864,新規,0,2024-08-05,2024-08-05,株式会社くまつよ,,株式会社,福井県,福井市,新田塚２丁目３４番１３号,,18,201,9100067,,,,,,,2024-08-05,1,,,,,クマツヨ,0
1485,5220001026141,新規,0,2024-08-05,2024-08-05,住宅基礎のあんしんホーム株式会社,,株式会社,石川県,金沢市,下柿木畠１‐１５プレサンスロジェ金沢香林坊７０１,,17,201,9200991,,,,,,,2024-08-05,1,,,,,ジュウタクキソノアンシンホーム,0
1490,5240001063653,新規,0,2024-08-05,2024-08-05,株式会社ケイマックス,,株式会社,広島県,安芸郡海田町,南本町４番１４号,,34,304,7360033,,,,,,,2024-08-05,1,,,,,ケイマックス,0
1497,5260001039313,新規,0,2024-08-05,2024-08-05,株式会社ＳＵＲＦＡＣＥ　Ａｒｔ,,株式会社,岡山県,岡山市北区,今保３２９－５－３０５,,33,101,7010145,,,,,,,2024-08-05,1,,,,,サーフェスアート,0
1498,5280001009231,新規,0,2024-08-05,2024-08-05,株式会社ミライクエスト,,株式会社,島根県,浜田市,黒川町１５４番地１,,32,202,6970024,,,,,,,2024-08-05,1,,,,,ミライクエスト,0
1501,5290001106556,新規,0,2024-08-05,2024-08-05,株式会社マルハチ水産,,株式会社,福岡県,糸島市,志摩船越４１５番地１,,40,230,8191332,,,,,,,2024-08-05,1,,,,,マルハチスイサン,0
1502,5290001106564,新規,0,2024-08-05,2024-08-05,株式会社コココネクト,,株式会社,福岡県,福岡市南区,玉川町１６番１３号レイクス高宮１０３号,,40,134,8150037,,,,,,,2024-08-05,1,,,,,コココネクト,0
1503,5290001106580,新規,0,2024-08-05,2024-08-05,株式会社ＮＡＲＵコーポレーション,,株式会社,福岡県,春日市,天神山３丁目１１９番地,,40,218,8160855,,,,,,,2024-08-05,1,,,,,ナルコーポレーション,0
1504,5290001106614,新規,0,2024-08-05,2024-08-05,株式会社無限空間,,株式会社,福岡県,福岡市中央区,桜坂３丁目１番１４－３０５号,,40,133,8100024,,,,,,,2024-08-05,1,,,,,ムゲンクウカン,0
1507,5290003015581,新規,0,2024-08-05,2024-08-05,ｌｅａｐ合同会社,,合同会社,福岡県,福岡市中央区,赤坂１丁目２－６赤坂パインマンション２階,,40,133,8100042,,,,,,,2024-08-05,1,,,,,リープ,0
1508,5290003015656,新規,0,2024-08-05,2024-08-05,合同会社Ｓｔｅｌｌａ,,合同会社,福岡県,福岡市博多区,博多駅南４丁目１３－１１－２０３,,40,132,8120016,,,,,,,2024-08-05,1,,,,,ステラ,0
1513,5290801030765,新規,0,2024-08-05,2024-08-05,株式会社みらくりある,,株式会社,福岡県,宮若市,金丸４９３番地５,,40,226,8220111,,,,,,,2024-08-05,1,,,,,ミラクリアル,0
1514,5290801030773,新規,0,2024-08-05,2024-08-05,ＨＯＮＥＹ　ＥＮＴＥＲＴＡＩＮＭＥＮＴ株式会社,,株式会社,福岡県,遠賀郡遠賀町,遠賀川２丁目１番１０号,,40,384,8114307,,,,,,,2024-08-05,1,,,,,ハニーエンターテイメント,0
1517,5310001019152,新規,0,2024-08-05,2024-08-05,株式会社白井運送,,株式会社,長崎県,長崎市,柿泊町１０２３番地,,42,201,8511134,,,,,,,2024-08-05,1,,,,,シライウンソウ,0
1522,5330001032327,新規,0,2024-08-05,2024-08-05,椰暖電工株式会社,,株式会社,熊本県,合志市,上生９０７番地１,,43,216,8611105,,,,,,,2024-08-05,1,,,,,ナギノデンコウ,0
1528,5360001034023,新規,0,2024-08-05,2024-08-05,Ｎｅｗ　Ｑｕｅｓｔ株式会社,,株式会社,沖縄県,那覇市,久米２丁目３番１５号,,47,201,9000033,,,,,,,2024-08-05,1,,,,,ニュークエスト,0
1529,5360003014196,新規,0,2024-08-05,2024-08-05,合同会社識名ガス,,合同会社,沖縄県,那覇市,識名３丁目１０番５号,,47,201,9020078,,,,,,,2024-08-05,1,,,,,シキナガス,0
1530,5360003014205,新規,0,2024-08-05,2024-08-05,合同会社バディペイント,,合同会社,沖縄県,島尻郡八重瀬町,字友寄４１番地１－１０１号,,47,362,9010411,,,,,,,2024-08-05,1,,,,,バディペイント,0
1534,5390001017693,新規,0,2024-08-05,2024-08-05,株式会社わんラボ,,株式会社,山形県,東置賜郡高畠町,大字福沢２１番地の９,,06,381,9992174,,,,,,,2024-08-05,1,,,,,ワンラボ,0
1535,5400001016743,新規,0,2024-08-05,2024-08-05,株式会社要,,株式会社,岩手県,遠野市,材木町２番１７号,,03,208,0280521,,,,,,,2024-08-05,1,,,,,ヨウ,0
1538,5410001013905,新規,0,2024-08-05,2024-08-05,株式会社サードサン,,株式会社,秋田県,由利本荘市,東由利老方字西ノ浜１４番地１６,,05,210,0150211,,,,,,,2024-08-05,1,,,,,,0
1543,5430001092402,新規,0,2024-08-05,2024-08-05,株式会社色彩,,株式会社,北海道,北広島市,大曲南ヶ丘２丁目１番地１８,,01,234,0611275,,,,,,,2024-08-05,1,,,,,シキサイ,0
1549,5480001012561,新規,0,2024-08-05,2024-08-05,株式会社ヒサシ工務店,,株式会社,徳島県,徳島市,新浜本町３丁目１－５９,,36,201,7708007,,,,,,,2024-08-05,1,,,,,ヒサシコウムテン,0
1550,5480003002164,新規,0,2024-08-05,2024-08-05,合同会社Ｆｉｋａ　ｉｎｔｅｒｎａｔｉｏｎａｌ　ｆｉｌｍｓ,,合同会社,徳島県,徳島市,上八万町西山３３６番地,,36,201,7708041,,,,,,,2024-08-05,1,,,,,フィーカインターナショナルフィルムズ,0
1551,5490003001917,新規,0,2024-08-05,2024-08-05,合同会社川村,,合同会社,高知県,吾川郡いの町,清水上分１１６８番地,,39,386,7812511,,,,,,,2024-08-05,1,,,,,カワムラ,0
1562,5700150126651,新規,0,2024-08-05,2024-08-02,美祢わくわくらーくサポート協議会,,その他,山口県,美祢市,大嶺町東分４１８－８,,35,213,7592212,,,,,,,2024-08-02,1,,,,,ミネワクワクラークサポートキヨウギカイ,0
1568,6010001246800,新規,0,2024-08-05,2024-08-05,株式会社リプロイノベーション,,株式会社,東京都,中央区,勝どき４丁目６－２パークタワー勝どきミッド３１０６号室,,13,102,1040054,,,,,,,2024-08-05,1,,,,,リプロイノベーション,0
1571,6010101016269,新規,0,2024-08-05,2024-08-05,株式会社カデンツァ,,株式会社,東京都,八王子市,上柚木３丁目３番地５－９０４,,13,201,1920373,,,,,,,2024-08-05,1,,,,,カデンツァ,0
1572,6010103002399,新規,0,2024-08-05,2024-08-05,合同会社フラクチャーフローソリューションズ,,合同会社,東京都,八王子市,めじろ台２丁目１６番地２,,13,201,1930833,,,,,,,2024-08-05,1,,,,,,0
1575,6010401184195,新規,0,2024-08-05,2024-08-05,ＡＧＥＨＡＲＩＤｅ株式会社,,株式会社,東京都,港区,虎ノ門１丁目３番１号東京虎ノ門グローバルスクエア５Ｆ,,13,103,1050001,,,,,,,2024-08-05,1,,,,,アゲハライド,0
1576,6010401184204,新規,0,2024-08-05,2024-08-05,株式会社ＭｏｍｅｎｔｕｍＳｔｕｄｉｏ,,株式会社,東京都,港区,南青山３丁目１番３６号青山丸竹ビル６Ｆ,,13,103,1070062,,,,,,,2024-08-05,1,,,,,モメンタムスタジオ,0
1577,6010401184220,新規,0,2024-08-05,2024-08-05,クラルテ株式会社,,株式会社,東京都,港区,南青山３丁目１番３６号,,13,103,1070062,,,,,,,2024-08-05,1,,,,,クラルテ,0
1578,6010401184245,新規,0,2024-08-05,2024-08-05,株式会社ピュラミス,,株式会社,東京都,港区,南青山１丁目１５番１５号１階,,13,103,1070062,,,,,,,2024-08-05,1,,,,,ピュラミス,0
1579,6010401184253,新規,0,2024-08-05,2024-08-05,いわきニュータウンエリアマネジメント株式会社,,株式会社,東京都,港区,虎ノ門２丁目１０番４号,,13,103,1050001,,,,,,,2024-08-05,1,,,,,イワキニュータウンエリアマネジメント,0
1581,6010403033193,新規,0,2024-08-05,2024-08-05,バリュースピード合同会社,,合同会社,東京都,港区,浜松町２丁目２番１５号,,13,103,1050013,,,,,,,2024-08-05,1,,,,,バリュースピード,0
1582,6010405023457,新規,0,2024-08-05,2024-08-05,一般社団法人ユニバーサルデジタル推進協議会,,その他の設立登記法人,東京都,港区,虎ノ門４丁目３番１号,,13,103,1050001,,,,,,,2024-08-05,1,,,,,ユニバーサルデジタルスイシンキョウギカイ,0
1584,6010501052698,新規,0,2024-08-05,2024-08-05,株式会社ＢＵＤＤＹ,,株式会社,東京都,台東区,上野３丁目１６番２号,,13,106,1100005,,,,,,,2024-08-05,1,,,,,バディ,0
1590,6010601065682,新規,0,2024-08-05,2024-08-05,株式会社ハウオリノ,,株式会社,東京都,江東区,豊洲２丁目５番１－２３１５号,,13,108,1350061,,,,,,,2024-08-05,1,,,,,ハウオリノ,0
1591,6010701046335,新規,0,2024-08-05,2024-08-05,株式会社サイボーグ,,株式会社,東京都,品川区,小山１丁目８番１７号,,13,109,1420062,,,,,,,2024-08-05,1,,,,,サイボーグ,0
1592,6010701046351,新規,0,2024-08-05,2024-08-05,株式会社ＯＮＥ　ＴＯＤＡＹ,,株式会社,東京都,品川区,小山６丁目２１番２号ＬＥＧＡＬＡＮＤＫＯＹＡＭＡ１０１,,13,109,1420062,,,,,,,2024-08-05,1,,,,,ワントゥデイ,0
1594,6010803005040,新規,0,2024-08-05,2024-08-05,合同会社Ｈｅａｒｔ　Ｌａｎｄ,,合同会社,東京都,大田区,矢口２丁目１番２０－８１０号プライム大田矢口ウエスト棟,,13,111,1460093,,,,,,,2024-08-05,1,,,,,ハートランド,0
1596,6010901055739,新規,0,2024-08-05,2024-08-05,株式会社櫻心舎,,株式会社,東京都,世田谷区,玉堤１丁目２３番３号ローラル多摩川３０７,,13,112,1580087,,,,,,,2024-08-05,1,,,,,オウシンシャ,0
1597,6010901055747,新規,0,2024-08-05,2024-08-05,株式会社コレクトチェリー,,株式会社,東京都,世田谷区,松原１丁目４２番１３号,,13,112,1560043,,,,,,,2024-08-05,1,,,,,コレクトチェリー,0
1598,6010903009263,新規,0,2024-08-05,2024-08-05,オールドシングス合同会社,,合同会社,東京都,世田谷区,船橋６丁目１７番１３号,,13,112,1560055,,,,,,,2024-08-05,1,,,,,オールドシングス,0
1600,6011001163647,新規,0,2024-08-05,2024-08-05,株式会社Ｌｉｔｔｌｅ　Ｂｒａｖｅ　Ｏｎｅ,,株式会社,東京都,渋谷区,恵比寿３丁目９番２９号,,13,113,1500013,,,,,,,2024-08-05,1,,,,,リトルブレイブワン,0
1601,6011001163746,新規,0,2024-08-05,2024-08-05,株式会社ｂｌｏｗ,,株式会社,東京都,渋谷区,恵比寿西２丁目４番８号ウィンド恵比寿ビル８Ｆ,,13,113,1500021,,,,,,,2024-08-05,1,,,,,ブロウ,0
1602,6011001163770,新規,0,2024-08-05,2024-08-05,高徳投資管理株式会社,,株式会社,東京都,渋谷区,宇田川町１番１２－１１０４号,,13,113,1500042,,,,,,,2024-08-05,1,,,,,タカトクトウシカンリ,0
1604,6011003019681,新規,0,2024-08-05,2024-08-05,ＡＲＳ合同会社,,合同会社,東京都,渋谷区,大山町１７番２３－３０４号,,13,113,1510065,,,,,,,2024-08-05,1,,,,,エーアールエス,0
1605,6011003019707,新規,0,2024-08-05,2024-08-05,ＬＰ‐Ｂｅａｕｔｙ合同会社,,合同会社,東京都,渋谷区,神宮前６丁目２９番４号原宿ｋｏｍｉｙａビル６Ｆ,,13,113,1500001,,,,,,,2024-08-05,1,,,,,エルピービューティー,0
1606,6011003019780,新規,0,2024-08-05,2024-08-05,コイドッグ合同会社,,合同会社,東京都,渋谷区,渋谷２丁目１９‐１５宮益坂ビルディング６０９,,13,113,1500002,,,,,,,2024-08-05,1,,,,,コイドッグ,0
1607,6011005010606,新規,0,2024-08-05,2024-08-05,社会保険労務士法人まどか,,その他の設立登記法人,東京都,渋谷区,神泉町２０番２１号,,13,113,1500045,,,,,,,2024-08-05,1,,,,,マドカ,0
1611,6011101108221,新規,0,2024-08-05,2024-08-05,株式会社ＯＲＩＯＮ,,株式会社,東京都,新宿区,西新宿３丁目３－１３西新宿水間ビル２Ｆ,,13,104,1600023,,,,,,,2024-08-05,1,,,,,オリオン,0
1613,6011103014731,新規,0,2024-08-05,2024-08-05,合同会社ＴＵ００５,,合同会社,東京都,新宿区,四谷２丁目９番地１５東京ユナイテッド綜合事務所内,,13,104,1600004,,,,,,,2024-08-05,1,,,,,ティーユーゼロゼロファイブ,0
1614,6011103014756,新規,0,2024-08-05,2024-08-05,シードＸ合同会社,,合同会社,東京都,新宿区,市谷仲之町１番７－２０６号,,13,104,1620064,,,,,,,2024-08-05,1,,,,,シードエックス,0
1615,6011105011116,新規,0,2024-08-05,2024-08-05,一般社団法人ＴＵ００５,,その他の設立登記法人,東京都,新宿区,四谷２丁目９番地１５東京ユナイテッド綜合事務所内,,13,104,1600004,,,,,,,2024-08-05,1,,,,,ティーユーゼロゼロファイブ,0
1616,6011203004459,新規,0,2024-08-05,2024-08-05,合同会社アイピールート,,合同会社,東京都,中野区,東中野５丁目２３番１４－１００２号,,13,114,1640003,,,,,,,2024-08-05,1,,,,,アイピールート,0
1617,6011301029894,新規,0,2024-08-05,2024-08-05,株式会社みてり,,株式会社,東京都,杉並区,荻窪５丁目３０番１２グローリア荻窪７１３号,,13,115,1670051,,,,,,,2024-08-05,1,,,,,ミテリ,0
1618,6011301029903,新規,0,2024-08-05,2024-08-05,株式会社ＳｔｏｎｅＭｉｌｅ,,株式会社,東京都,杉並区,下高井戸４丁目１番１－４０５号,,13,115,1680073,,,,,,,2024-08-05,1,,,,,ストーンマイル,0
1619,6011401026296,新規,0,2024-08-05,2024-08-05,Ｗｉｓｈ　Ｔｒｅｅ株式会社,,株式会社,東京都,板橋区,氷川町２－１１,,13,119,1730013,,,,,,,2024-08-05,1,,,,,ウィッシュツリー,0
1620,6011403004465,新規,0,2024-08-05,2024-08-05,石渡コンサルティング事務所合同会社,,合同会社,東京都,板橋区,中丸町２６－１２,,13,119,1730026,,,,,,,2024-08-05,1,,,,,イシワタリコンサルティングジムショ,0
1621,6011601027953,新規,0,2024-08-05,2024-08-05,株式会社ＩＷＡＴＡＫＥ,,株式会社,東京都,練馬区,関町東２丁目１４番１１号,,13,120,1770052,,,,,,,2024-08-05,1,,,,,イワタケ,0
1622,6011701027507,新規,0,2024-08-05,2024-08-05,株式会社ｅｂｅＷｏｒｋ,,株式会社,東京都,江戸川区,篠崎町２丁目３４番１１号,,13,123,1330061,,,,,,,2024-08-05,1,,,,,エベワーク,0
1625,6012401042151,新規,0,2024-08-05,2024-08-05,株式会社福井建装,,株式会社,東京都,狛江市,和泉本町２丁目１１番１３号,,13,219,2010003,,,,,,,2024-08-05,1,,,,,フクイケンソウ,0
1628,6012403006699,新規,0,2024-08-05,2024-08-05,合同会社ウインディ,,合同会社,東京都,狛江市,西野川４丁目７－７－５０２,,13,219,2010001,,,,,,,2024-08-05,1,,,,,ウインディ,0
1629,6012801023370,新規,0,2024-08-05,2024-08-05,株式会社ごん設計,,株式会社,東京都,国分寺市,本多４丁目３番１１号プルミエル１０８,,13,214,1850011,,,,,,,2024-08-05,1,,,,,ゴンセッケイ,0
1630,6013101009481,新規,0,2024-08-05,2024-08-05,株式会社歩希,,株式会社,東京都,羽村市,羽加美４丁目１２番２０号,,13,227,2050016,,,,,,,2024-08-05,1,,,,,,0
1632,6013301052934,新規,0,2024-08-05,2024-08-05,株式会社Ｔプランニング,,株式会社,東京都,豊島区,池袋本町２丁目２３番１０－５０５号,,13,116,1700011,,,,,,,2024-08-05,1,,,,,ティープランニング,0
1639,6020003026563,新規,0,2024-08-05,2024-08-05,合同会社ＥＸＴＲＥＭＥ,,合同会社,神奈川県,横浜市金沢区,釜利谷東３丁目４番３６－７０５号,,14,108,2360042,,,,,,,2024-08-05,1,,,,,エクストリーム,0
1640,6020003026571,新規,0,2024-08-05,2024-08-05,ＪＥＴ合同会社,,合同会社,神奈川県,横浜市青葉区,あざみ野南３丁目５番地２４,,14,117,2250012,,,,,,,2024-08-05,1,,,,,ジェット,0
1641,6020003026679,新規,0,2024-08-05,2024-08-05,合同会社ＨＯＳＨＩＮＡ,,合同会社,神奈川県,横浜市西区,みなとみらい４丁目９番１－Ａ５０５号,,14,103,2200012,,,,,,,2024-08-05,1,,,,,ホシナ,0
1649,6030001161774,新規,0,2024-08-05,2024-08-05,株式会社酒見工業,,株式会社,埼玉県,富士見市,鶴瀬西３丁目６番８号アグリパークＫ１０３,,11,235,3540026,,,,,,,2024-08-05,1,,,,,サカミコウギョウ,0
1650,6030001161782,新規,0,2024-08-05,2024-08-05,株式会社スカイエステート,,株式会社,埼玉県,越谷市,レイクタウン２丁目２６番地５リケッツァ１０１,,11,222,3430828,,,,,,,2024-08-05,1,,,,,スカイエステート,0
1651,6030001161799,新規,0,2024-08-05,2024-08-05,株式会社オーデザイン,,株式会社,埼玉県,川口市,本町４丁目８番３－６０４号,,11,203,3320012,,,,,,,2024-08-05,1,,,,,オーデザイン,0
1652,6030001161824,新規,0,2024-08-05,2024-08-05,株式会社Ｒｏｏｔｓイナバ,,株式会社,埼玉県,新座市,栄４丁目２番１７号ハピネス新座１階Ｄ号室,,11,230,3520014,,,,,,,2024-08-05,1,,,,,ルーツイナバ,0
1653,6030001161832,新規,0,2024-08-05,2024-08-05,株式会社リゾネートグローバル,,株式会社,埼玉県,志木市,本町５丁目２３－２４第３本吉ビル４階,,11,228,3530004,,,,,,,2024-08-05,1,,,,,リゾネートグローバル,0
1661,6030003024863,新規,0,2024-08-05,2024-08-05,合同会社Ａ．ｖｅｒ,,合同会社,埼玉県,草加市,八幡町９３６番地１モア・ステージ草加公園通り２０７号,,11,221,3400006,,,,,,,2024-08-05,1,,,,,エーバー,0
1666,6040001134754,新規,0,2024-08-05,2024-08-05,株式会社ｏｆｆ,,株式会社,千葉県,市川市,富浜３丁目１３番１７号,,12,203,2720115,,,,,,,2024-08-05,1,,,,,オフ,0
1667,6040001134762,新規,0,2024-08-05,2024-08-05,ライズホーム株式会社,,株式会社,千葉県,千葉市若葉区,大宮町２４６１番地１,,12,104,2640016,,,,,,,2024-08-05,1,,,,,ライズホーム,0
1668,6040001134787,新規,0,2024-08-05,2024-08-05,森田住建株式会社,,株式会社,千葉県,野田市,瀬戸７２４番地３,,12,208,2780012,,,,,,,2024-08-05,1,,,,,モリタジュウケン,0
1669,6040001134795,新規,0,2024-08-05,2024-08-05,株式会社ＡＴＳＴ,,株式会社,千葉県,印西市,将監８５番地,,12,231,2702301,,,,,,,2024-08-05,1,,,,,エーティーエスティー,0
1670,6040001134820,新規,0,2024-08-05,2024-08-05,ＡＹＡＡＮ　ＴＲＡＤＩＮＧ株式会社,,株式会社,千葉県,野田市,関宿台町２６８１番地２,,12,208,2700202,,,,,,,2024-08-05,1,,,,,アヤントレーディング,0
1671,6040001134829,新規,0,2024-08-05,2024-08-05,株式会社ホースコネクト,,株式会社,千葉県,千葉市中央区,中央２丁目５－１千葉中央ツインビル２号館７階,,12,101,2600013,,,,,,,2024-08-05,1,,,,,ホースコネクト,0
1673,6040003025514,新規,0,2024-08-05,2024-08-05,ＫＯＹＵＭＥ合同会社,,合同会社,千葉県,佐倉市,染井野２丁目２３番地５,,12,212,2850831,,,,,,,2024-08-05,1,,,,,コユメ,0
1676,6050001055181,新規,0,2024-08-05,2024-08-05,株式会社一縷,,株式会社,茨城県,土浦市,木田余西台７番３６号,,08,203,3000056,,,,,,,2024-08-05,1,,,,,イチル,0
1678,6070001042062,新規,0,2024-08-05,2024-08-05,株式会社ｓｏｎｒｉｓａ,,株式会社,群馬県,高崎市,吉井町小暮２５－１,,10,202,3702102,,,,,,,2024-08-05,1,,,,,ソンリーサ,0
1682,6080101024918,新規,0,2024-08-05,2024-08-05,伊豆オレンジ株式会社,,株式会社,静岡県,沼津市,西浦久連２１２番地の５,,22,203,4100233,,,,,,,2024-08-05,1,,,,,イズオレンジ,0
1683,6080103003110,新規,0,2024-08-05,2024-08-05,合同会社Ｆｌｏｒ　Ｐａｒｔｎｅｒ,,合同会社,静岡県,駿東郡長泉町,竹原２６３－４グランマレ・プリモ１０３,,22,342,4110944,,,,,,,2024-08-05,1,,,,,フロルパートナー,0
1697,6110003005475,新規,0,2024-08-05,2024-08-05,ＬＯＧ合同会社,,合同会社,新潟県,魚沼市,井口新田９３７番地３,,15,225,9460076,,,,,,,2024-08-05,1,,,,,ログ,0
1699,6120001149075,新規,0,2024-08-05,2024-08-05,植西興産株式会社,,株式会社,大阪府,枚方市,東田宮１丁目６番１号,,27,210,5730023,,,,,,,2024-08-05,1,,,,,ウエニシコウサン,0
1702,6120001267273,新規,0,2024-08-05,2024-08-05,後半彩り株式会社,,株式会社,大阪府,大阪市城東区,成育４丁目２４番３号,,27,118,5360007,,,,,,,2024-08-05,1,,,,,コウハンイロドリ,0
1703,6120001267447,新規,0,2024-08-05,2024-08-05,株式会社ナカプラ,,株式会社,大阪府,大阪市平野区,加美東１丁目５番２号,,27,126,5470002,,,,,,,2024-08-05,1,,,,,ナカプラ,0
1704,6120001267463,新規,0,2024-08-05,2024-08-05,ＢＥＴＴＥＲＣＯＭＥ株式会社,,株式会社,大阪府,大阪市天王寺区,上本町８丁目１番１６－１００１号,,27,109,5430001,,,,,,,2024-08-05,1,,,,,ベターカム,0
1705,6120001267471,新規,0,2024-08-05,2024-08-05,カンスイ緊急サービス株式会社,,株式会社,大阪府,大阪市北区,天満１丁目７番２０号,,27,127,5300043,,,,,,,2024-08-05,1,,,,,カンスイキンキュウサービス,0
1706,6120001267488,新規,0,2024-08-05,2024-08-05,株式会社ＭＵＴＳＵＭＩ,,株式会社,大阪府,大阪市西成区,花園北２丁目１８番１１号ワイズレジデンス花園４０１,,27,122,5570016,,,,,,,2024-08-05,1,,,,,ムツミ,0
1707,6120001267505,新規,0,2024-08-05,2024-08-05,セプトプロパティー株式会社,,株式会社,大阪府,大阪市中央区,備後町３丁目４番１号,,27,128,5410051,,,,,,,2024-08-05,1,,,,,セプトプロパティー,0
1708,6120001267513,新規,0,2024-08-05,2024-08-05,スリーフィールドコンサルティング株式会社,,株式会社,大阪府,大阪市北区,堂島１丁目１番５号関電不動産梅田新道ビルＢ２Ｆ,,27,127,5300003,,,,,,,2024-08-05,1,,,,,スリーフィールドコンサルティング,0
1716,6120101070049,新規,0,2024-08-05,2024-08-05,株式会社フォレストバンク,,株式会社,大阪府,堺市北区,長曽根町１３０‐４２さかい新事業創造センターラボＢ２２７号室,,27,146,5918025,,,,,,,2024-08-05,1,,,,,フォレストバンク,0
1718,6120105009893,新規,0,2024-08-05,2024-08-05,一般社団法人ＹＵＲＩＨＡＫＡ,,その他の設立登記法人,大阪府,泉大津市,高津町８番４号,,27,206,5950042,,,,,,,2024-08-05,1,,,,,ユリハカ,0
1721,6122001038324,新規,0,2024-08-05,2024-08-05,株式会社アマテラス,,株式会社,大阪府,東大阪市,東山町１０番１０号,,27,227,5798027,,,,,,,2024-08-05,1,,,,,アマテラス,0
1728,6140001135437,新規,0,2024-08-05,2024-08-05,ＮＥＷＳ株式会社,,株式会社,兵庫県,神戸市中央区,海岸通６丁目１－１３－８０８,,28,110,6500024,,,,,,,2024-08-05,1,,,,,ニュース,0
1731,6140003020926,新規,0,2024-08-05,2024-08-05,合同会社ネオシア,,合同会社,兵庫県,神戸市須磨区,松風町３丁目３番１－４１０号,,28,107,6540045,,,,,,,2024-08-05,1,,,,,ネオシア,0
1733,6140005027176,新規,0,2024-08-05,2024-08-05,カナザワ行政書士法人,,その他の設立登記法人,兵庫県,加西市,北条町横尾３１３番地１－３０２号室,,28,220,6752311,,,,,,,2024-08-05,1,,,,,カナザワ,0
1736,6160005011327,新規,0,2024-08-05,2024-08-05,一般社団法人滋賀県デジタル化推進機構,,その他の設立登記法人,滋賀県,大津市,浜大津４丁目２番１５号浜大津ＳＳビル４Ｆ,,25,201,5200047,,,,,,,2024-08-05,1,,,,,シガケンデジタルカスイシンキコウ,0
1738,6170001018250,新規,0,2024-08-05,2024-08-05,株式会社眞技建,,株式会社,和歌山県,海草郡紀美野町,下佐々８７３番地２,,30,304,6401121,,,,,,,2024-08-05,1,,,,,マコトギケン,0
1747,6180301038897,新規,0,2024-08-05,2024-08-05,株式会社ＧＯＯＤ　ＬＵＣＫ,,株式会社,愛知県,岡崎市,日名本町１－１２,,23,202,4440916,,,,,,,2024-08-05,1,,,,,グッドラック,0
1752,6180305009597,新規,0,2024-08-05,2024-08-05,一般社団法人南三河食文化研究会,,その他の設立登記法人,愛知県,碧南市,作塚町１丁目１６番地,,23,209,4470874,,,,,,,2024-08-05,1,,,,,ミナミミカワショクブンカケンキュウカイ,0
1758,6200001042783,新規,0,2024-08-05,2024-08-05,株式会社サカイ板金,,株式会社,岐阜県,各務原市,蘇原新栄町３丁目２８番地７,,21,213,5040855,,,,,,,2024-08-05,1,,,,,サカイバンキン,0
1760,6200003006456,新規,0,2024-08-05,2024-08-05,ＳＫＹ合同会社,,合同会社,岐阜県,岐阜市,水海道４丁目１３番１号,,21,201,5008223,,,,,,,2024-08-05,1,,,,,スカイ,0
1762,6210001019863,新規,0,2024-08-05,2024-08-05,株式会社ＩＫ＆ＡＫ,,株式会社,福井県,吉田郡永平寺町,志比第２８号９番地２,,18,322,9101228,,,,,,,2024-08-05,1,,,,,アイケーアンドエーケー,0
1771,6260003004842,新規,0,2024-08-05,2024-08-05,合同会社窓,,合同会社,岡山県,井原市,高屋町１丁目２３番地１８,,33,207,7150024,,,,,,,2024-08-05,1,,,,,マド,0
1780,6290001106514,新規,0,2024-08-05,2024-08-05,株式会社ＳＵＮＲＩＧＨＴ,,株式会社,福岡県,福岡市中央区,天神２丁目３－１０パインクレスト１００４,,40,133,8100001,,,,,,,2024-08-05,1,,,,,サンライト,0
1781,6290001106555,新規,0,2024-08-05,2024-08-05,株式会社与吉,00135797,株式会社,福岡県,福岡市中央区,大名１丁目１番３５－７０３号,,40,133,8100041,,,,,,,2024-08-05,1,,,,,ヨキチ,0
1782,6290001106588,新規,0,2024-08-05,2024-08-05,株式会社エラスティックユニット,,株式会社,福岡県,糟屋郡須惠町,大字植木２５９番地８,,40,344,8112112,,,,,,,2024-08-05,1,,,,,エラスティックユニット,0
1786,6290801030756,新規,0,2024-08-05,2024-08-05,株式会社エムテック,,株式会社,福岡県,北九州市門司区,下馬寄１０番２８号,,40,101,8000051,,,,,,,2024-08-05,1,,,,,エムテック,0
1788,6290803004808,新規,0,2024-08-05,2024-08-05,合同会社ＡＳＡＬＴ,,合同会社,福岡県,田川市,大字位登８７番地１５,,40,206,8260044,,,,,,,2024-08-05,1,,,,,アソルト,0
1793,6320001020645,新規,0,2024-08-05,2024-08-05,株式会社タッグ,,株式会社,大分県,大分市,大字木上１０９９番地,,44,201,8701161,,,,,,,2024-08-05,1,,,,,タッグ,0
1797,6330001032318,新規,0,2024-08-05,2024-08-05,Ｇｒａｃｅ　Ｔｒａｄｉｎｇ株式会社,,株式会社,熊本県,熊本市北区,楠野町１０５２番地１,,43,105,8615511,,,,,,,2024-08-05,1,,,,,グレーストレーディング,0
1798,6330001032326,新規,0,2024-08-05,2024-08-05,ルナプログレス株式会社,,株式会社,熊本県,熊本市中央区,通町３７－２ＴＭ　ｂｕｉｌｄｉｎｇ８０３号室,,43,101,8600013,,,,,,,2024-08-05,1,,,,,ルナプログレス,0
1799,6330003010494,新規,0,2024-08-05,2024-08-05,ＳＡＮＤ　ＢＯＸ合同会社,,合同会社,熊本県,熊本市東区,御領６丁目１番５９号,,43,102,8618035,,,,,,,2024-08-05,1,,,,,サンドボックス,0
1805,6360001034030,新規,0,2024-08-05,2024-08-05,川平湾建物株式会社,,株式会社,沖縄県,石垣市,字新川２３９８番地７,,47,207,9070024,,,,,,,2024-08-05,1,,,,,カビラワンタテモノ,0
1807,6360003014195,新規,0,2024-08-05,2024-08-05,合同会社セイ,,合同会社,沖縄県,中頭郡北谷町,字浜川１６４番地,,47,326,9040112,,,,,,,2024-08-05,1,,,,,セイ,0
1808,6370001051586,新規,0,2024-08-05,2024-08-05,株式会社アイ・ティコミュニケーションズ,,株式会社,宮城県,仙台市泉区,七北田字野山１番３９号,,04,105,9813131,,,,,,,2024-08-05,1,,,,,アイティコミュニケーションズ,0
1809,6370003006704,新規,0,2024-08-05,2024-08-05,合同会社スタイルオブクリエイト,,合同会社,宮城県,仙台市太白区,越路２１番１８－３号ジャクリンコート２０２,,04,104,9820842,,,,,,,2024-08-05,1,,,,,スタイルオブクリエイト,0
1812,6390001017692,新規,0,2024-08-05,2024-08-05,株式会社Ｅｎｉｌｏｔ．,,株式会社,山形県,南陽市,宮内２６０５番地,,06,213,9920472,,,,,,,2024-08-05,1,,,,,エニロット,0
1814,6400001016750,新規,0,2024-08-05,2024-08-05,株式会社陸中機材,,株式会社,岩手県,一関市,東山町長坂字館合１４５番地１,,03,209,0290302,,,,,,,2024-08-05,1,,,,,リクチュウキザイ,0
1818,6430001092384,新規,0,2024-08-05,2024-08-05,株式会社ガンゼ,,株式会社,北海道,札幌市豊平区,西岡三条６丁目６番１９号,,01,105,0620033,,,,,,,2024-08-05,1,,,,,ガンゼ,0
1819,6430001092392,新規,0,2024-08-05,2024-08-05,ノショパークトレイディング株式会社,,株式会社,北海道,夕張郡由仁町,三川泉町１１９番地,,01,427,0691131,,,,,,,2024-08-05,1,,,,,ノショパークトレイディング,0
1825,6430003016572,新規,0,2024-08-05,2024-08-05,合同会社アミーロ,,合同会社,北海道,室蘭市,八丁平１丁目４６－１１ｃｈａｌｅｔ１０３,,01,205,0500061,,,,,,,2024-08-05,1,,,,,アミーロ,0
1826,6440003001615,新規,0,2024-08-05,2024-08-05,合同会社ＲＭＲエステート,,合同会社,北海道,函館市,美原５丁目４７番１２号,,01,202,0410806,,,,,,,2024-08-05,1,,,,,アールエムアールエステート,0
1828,6460101007586,新規,0,2024-08-05,2024-08-05,ニヒラテック株式会社,,株式会社,北海道,帯広市,西十九条北２丁目９番２４,,01,207,0802459,,,,,,,2024-08-05,1,,,,,ニヒラテック,0
1829,6470001020333,新規,0,2024-08-05,2024-08-05,株式会社ＴＫ　ＥＬＥＱ,,株式会社,香川県,高松市,香西東町９３番地２,,37,201,7618013,,,,,,,2024-08-05,1,,,,,ティーケイエレック,0
1830,6470005006576,新規,0,2024-08-05,2024-08-05,一般社団法人みとよ交通システム事業団ＭｉＬＡＩＳ,,その他の設立登記法人,香川県,三豊市,高瀬町下勝間２３７３番地１,,37,208,7670011,,,,,,,2024-08-05,1,,,,,ミトヨコウツウシステムジギョウダンミライズ,0
1838,6700150126659,新規,0,2024-08-05,2024-08-05,ＭＡＺ　ＴＲＡＤＩＮＧ　ＣＯＭＰＡＮＹ,,外国会社等,千葉県,山武市,木原１４６７番地３－Ａ,,12,237,2891212,スリランカ民主社会主義共和国、キャンディ、カトゥガストタ、クルネガラロード、Ｎｏ．４２,,,,,,2024-08-05,1,,,,,マズトレーデイングカンパニー,0
1845,7010001247087,新規,0,2024-08-05,2024-08-05,株式会社クロスリンク,,株式会社,東京都,中央区,銀座１丁目１２番４号Ｎ＆ＥＢＬＤ．７階,,13,102,1040061,,,,,,,2024-08-05,1,,,,,クロスリンク,0
1846,7010001247137,新規,0,2024-08-05,2024-08-05,京都枝一株式会社,,株式会社,東京都,文京区,千石４丁目１４番９号,,13,105,1120011,,,,,,,2024-08-05,1,,,,,キョウトエダイチ,0
1847,7010001247178,新規,0,2024-08-05,2024-08-05,株式会社国際経済戦略センター,,株式会社,東京都,千代田区,大手町２丁目３番２号,,13,101,1000004,,,,,,,2024-08-05,1,,,,,コクサイケイザイセンリャクセンター,0
1848,7010001247203,新規,0,2024-08-05,2024-08-05,山佐ＫＬＭ６リース株式会社,,株式会社,東京都,千代田区,丸の内１丁目４番１号東京共同会計事務所内,,13,101,1000005,,,,,,,2024-08-05,1,,,,,ヤマサケーエルエムシックスリース,0
1849,7010001247228,新規,0,2024-08-05,2024-08-05,株式会社ＣＡ　ＪＡＰＡＮ,,株式会社,東京都,中央区,日本橋２丁目１番３号,,13,102,1030027,,,,,,,2024-08-05,1,,,,,シーエージャパン,0
1858,7010401184194,新規,0,2024-08-05,2024-08-05,株式会社Ｊ‐Ｐｏｐ　Ｌｅｇａｃｙ,,株式会社,東京都,港区,赤坂２丁目１７番４４号福吉坂ビル１階,,13,103,1070052,,,,,,,2024-08-05,1,,,,,ジェーポップレガシー,0
1859,7010401184236,新規,0,2024-08-05,2024-08-05,株式会社ＳＱＰ,,株式会社,東京都,港区,南青山２丁目２番１５号ＷｉｎＡｏｙａｍａビルＵＣＦ９階,,13,103,1070062,,,,,,,2024-08-05,1,,,,,エスキューピー,0
1861,7010403033151,新規,0,2024-08-05,2024-08-05,ＫＲＫ合同会社,,合同会社,東京都,港区,白金５丁目１４－６－２０２,,13,103,1080072,,,,,,,2024-08-05,1,,,,,ケイアールケイ,0
1862,7010405023407,新規,0,2024-08-05,2024-08-05,一般社団法人サムワン基金,,その他の設立登記法人,東京都,港区,赤坂３丁目９番４号扇やビル５Ｆ,,13,103,1070052,,,,,,,2024-08-05,1,,,,,サムワンキキン,0
1865,7010501052722,新規,0,2024-08-05,2024-08-05,株式会社ブラスト,,株式会社,東京都,台東区,浅草橋５丁目２４番１０－１００４号,,13,106,1110053,,,,,,,2024-08-05,1,,,,,ブラスト,0
1873,7010903009246,新規,0,2024-08-05,2024-08-05,ヤウマル合同会社,,合同会社,東京都,世田谷区,上祖師谷１丁目６番２号,,13,112,1570065,,,,,,,2024-08-05,1,,,,,ヤウマル,0
1874,7011001163720,新規,0,2024-08-05,2024-08-05,株式会社ｉｎ２ｕｓ　Ｊａｐａｎ,,株式会社,東京都,渋谷区,神山町９番１７号神山ビル５０１,,13,113,1500047,,,,,,,2024-08-05,1,,,,,イントゥーアスジャパン,0
1875,7011001163729,新規,0,2024-08-05,2024-08-05,プレザント株式会社,,株式会社,東京都,渋谷区,富ヶ谷１丁目４０－１０,,13,113,1510063,,,,,,,2024-08-05,1,,,,,プレザント,0
1876,7011001163737,新規,0,2024-08-05,2024-08-05,株式会社ＫＫＬＡＢＯ,,株式会社,東京都,渋谷区,渋谷２丁目１９－１５宮益坂ビルディング６０９,,13,113,1500002,,,,,,,2024-08-05,1,,,,,ケーケーラボ,0
1877,7011001163753,新規,0,2024-08-05,2024-08-05,ＣＸＯコンサルティング株式会社,,株式会社,東京都,渋谷区,広尾５丁目４番１６号ＥＡＴＰＬＡＹＷＯＲＫＳ３階,,13,113,1500012,,,,,,,2024-08-05,1,,,,,シーエックスオーコンサルティング,0
1878,7011001163844,新規,0,2024-08-05,2024-08-05,株式会社ｃｏｍａｃｈｉ,,株式会社,東京都,渋谷区,道玄坂１丁目１０番８号渋谷道玄坂東急ビル２Ｆ－Ｃ,,13,113,1500043,,,,,,,2024-08-05,1,,,,,コマチ,0
1881,7011003019722,新規,0,2024-08-05,2024-08-05,ＯｕｓｉａＤＡＯ合同会社,,合同会社,東京都,渋谷区,円山町５番５号Ｎａｖｉ渋谷Ｖ３階,,13,113,1500044,,,,,,,2024-08-05,1,,,,,ウーシアダオ,0
1882,7011005010605,新規,0,2024-08-05,2024-08-05,行政書士法人渋谷アクア法務事務所,,その他の設立登記法人,東京都,渋谷区,円山町２０番１号新大宗道玄坂上ビル４階,,13,113,1500044,,,,,,,2024-08-05,1,,,,,シブヤアクアホウムジムショ,0
1886,7011201025695,新規,0,2024-08-05,2024-08-05,株式会社アトリエププリエ,,株式会社,東京都,中野区,中野５丁目２２番２３号,,13,114,1640001,,,,,,,2024-08-05,1,,,,,アトリエププリエ,0
1891,7011701027506,新規,0,2024-08-05,2024-08-05,日本Ｄｙｎａｍｉｔａ株式会社,,株式会社,東京都,江戸川区,西葛西６丁目１８番１０号,,13,123,1340088,,,,,,,2024-08-05,1,,,,,ニホンダイナミタ,0
1892,7011801044649,新規,0,2024-08-05,2024-08-05,株式会社友平,,株式会社,東京都,足立区,足立４丁目１０番１１号グランクオール城東２０２号室,,13,121,1200015,,,,,,,2024-08-05,1,,,,,ユウヘイ,0
1893,7011803006382,新規,0,2024-08-05,2024-08-05,フラット合同会社,,合同会社,東京都,足立区,西新井本町１丁目２７－６太平ビル３０３,,13,121,1230845,,,,,,,2024-08-05,1,,,,,フラット,0
1899,7012401042150,新規,0,2024-08-05,2024-08-05,株式会社ＭＧ　ｃｏｍｐａｎｙ,,株式会社,東京都,府中市,清水が丘１丁目７番地の２１エステートピアカトレア２０１,,13,206,1830015,,,,,,,2024-08-05,1,,,,,エムジーカンパニー,0
1900,7012401042159,新規,0,2024-08-05,2024-08-05,Ｃｏｎｔｒｏｌ　Ｄｅｓｔｉｎｙ株式会社,,株式会社,東京都,府中市,朝日町２丁目３０番地の２ライオンズマンション３０４,,13,206,1830003,,,,,,,2024-08-05,1,,,,,コントロールデステニー,0
1902,7013301052933,新規,0,2024-08-05,2024-08-05,株式会社ＰｅｔＡｉｒ,,株式会社,東京都,豊島区,南池袋２丁目４５－２－３６０５,,13,116,1710022,,,,,,,2024-08-05,1,,,,,ペットエアー,0
1914,7020001158325,新規,0,2024-08-05,2024-08-05,株式会社ＯＭＯ,,株式会社,神奈川県,横浜市戸塚区,原宿３丁目４０番５号,,14,110,2450063,,,,,,,2024-08-05,1,,,,,オーエムオー,0
1915,7020001158333,新規,0,2024-08-05,2024-08-05,株式会社Ｋ．Ｔ‐ＢＬＯＫＳ,,株式会社,神奈川県,横浜市西区,南幸２丁目８番５号小室ビル１Ｆ,,14,103,2200005,,,,,,,2024-08-05,1,,,,,ケイティブロックス,0
1920,7020003026422,新規,0,2024-08-05,2024-08-05,合同会社ＮＥＷＦＡＣＥ,,合同会社,神奈川県,横浜市南区,日枝町３丁目７２－２,,14,105,2320011,,,,,,,2024-08-05,1,,,,,ニューフェイス,0
1932,7030001161798,新規,0,2024-08-05,2024-08-05,株式会社アポイアル,,株式会社,埼玉県,行田市,大字斎条６８１,,11,206,3610005,,,,,,,2024-08-05,1,,,,,アポイアル,0
1938,7030003024821,新規,0,2024-08-05,2024-08-05,合同会社Ｚｏｓａｍａ,,合同会社,埼玉県,蓮田市,西新宿３丁目５５－２０,,11,238,3490141,,,,,,,2024-08-05,1,,,,,ゾサマ,0
1939,7030003024854,新規,0,2024-08-05,2024-08-05,埼玉ファシリティメンテナンス合同会社,,合同会社,埼玉県,ふじみ野市,苗間１丁目９番３－２０７号,,11,245,3560052,,,,,,,2024-08-05,1,,,,,サイタマファシリティメンテナンス,0
1943,7040001134753,新規,0,2024-08-05,2024-08-05,株式会社ウェイズ,,株式会社,千葉県,松戸市,小金清志町３丁目７３番地の１,,12,207,2700016,,,,,,,2024-08-05,1,,,,,ウェイズ,0
1944,7040001134761,新規,0,2024-08-05,2024-08-05,アンブレラホールディングス株式会社,,株式会社,千葉県,長生郡白子町,剃金２７３０番地６フラワーパレス白子１４１４,,12,424,2994203,,,,,,,2024-08-05,1,,,,,アンブレラホールディングス,0
1945,7040001134786,新規,0,2024-08-05,2024-08-05,ＯＮＥ＆ＭＯＴＩＯＮ株式会社,,株式会社,千葉県,千葉市中央区,宮崎町６６３番地１６,,12,101,2600805,,,,,,,2024-08-05,1,,,,,ワンアンドモーション,0
1946,7040001134803,新規,0,2024-08-05,2024-08-05,株式会社パームプロップ,,株式会社,千葉県,木更津市,千束台２丁目７番地１８,,12,206,2920808,,,,,,,2024-08-05,1,,,,,パームプロップ,0
1948,7040005022459,新規,0,2024-08-05,2024-08-05,弁護士法人むさし,,その他の設立登記法人,千葉県,千葉市中央区,中央３丁目１５番６号やまちょうビル３階,,12,101,2600013,,,,,,,2024-08-05,1,,,,,ムサシ,0
1950,7050001055189,新規,0,2024-08-05,2024-08-05,株式会社ひたち野ＢＡＳＥ,,株式会社,茨城県,牛久市,ひたち野西２丁目２６番地７,,08,219,3001206,,,,,,,2024-08-05,1,,,,,ヒタチノベース,0
1952,7070001042061,新規,0,2024-08-05,2024-08-05,株式会社森田工業,,株式会社,群馬県,太田市,石原町１０３４番地２８,,10,205,3730808,,,,,,,2024-08-05,1,,,,,モリタコウギョウ,0
1955,7070005010304,新規,0,2024-08-05,2024-08-05,一般社団法人小規模事業者ネットワーク協会,,その他の設立登記法人,群馬県,高崎市,栄町３番１１号３Ｆ・５Ｆ高崎バーナーズビル,,10,202,3700841,,,,,,,2024-08-05,1,,,,,,0
1961,7080401027347,新規,0,2024-08-05,2024-08-05,ジオワークス株式会社,,株式会社,静岡県,袋井市,下山梨２２１０番地の１０,,22,216,4370123,,,,,,,2024-08-05,1,,,,,ジオワークス,0
1962,7090001018844,新規,0,2024-08-05,2024-08-05,株式会社マザーツリー,,株式会社,山梨県,富士吉田市,下吉田３丁目１２番７９号,,19,202,4030004,,,,,,,2024-08-05,1,,,,,マザーツリー,0
1966,7100003007694,新規,0,2024-08-05,2024-08-05,サブゼロステイズ合同会社,,合同会社,長野県,北安曇郡白馬村,大字北城２９３７番地２８３,,20,485,3999301,,,,,,,2024-08-05,1,,,,,サブゼロステイズ,0
1968,7110003005466,新規,0,2024-08-05,2024-08-05,合同会社小嶋商店,,合同会社,新潟県,妙高市,大字両善寺９５,,15,217,9440062,,,,,,,2024-08-05,1,,,,,コジマショウテン,0
1979,7120001267470,新規,0,2024-08-05,2024-08-05,株式会社神武堂,,株式会社,大阪府,大阪市中央区,淡路町３丁目４番１３号東和ビル３０１,,27,128,5410047,,,,,,,2024-08-05,1,,,,,ジンブドウ,0
1980,7120001267487,新規,0,2024-08-05,2024-08-05,ボードパートナーズ株式会社,,株式会社,大阪府,大阪市中央区,淡路町３丁目４番１号,,27,128,5410047,,,,,,,2024-08-05,1,,,,,ボードパートナーズ,0
1981,7120001267495,新規,0,2024-08-05,2024-08-05,株式会社Ｍｉｙａｂｉ　Ｋｏｋｉ,,株式会社,大阪府,枚方市,楠葉面取町１丁目１２番３号,,27,210,5731113,,,,,,,2024-08-05,1,,,,,ミヤビコウキ,0
1982,7120001267504,新規,0,2024-08-05,2024-08-05,株式会社ｓｏｉｎｓ,,株式会社,大阪府,大阪市北区,天神橋８丁目７番１号,,27,127,5310041,,,,,,,2024-08-05,1,,,,,ソワン,0
1984,7120003027220,新規,0,2024-08-05,2024-08-05,合同会社トモシヤ,,合同会社,大阪府,大阪市北区,梅田１丁目２番２号大阪駅前第２ビル１２‐１２,,27,127,5300001,,,,,,,2024-08-05,1,,,,,トモシヤ,0
1985,7120101070106,新規,0,2024-08-05,2024-08-05,株式会社アルプス,,株式会社,大阪府,阪南市,自然田７９０番地の８,,27,232,5990212,,,,,,,2024-08-05,1,,,,,アルプス,0
1988,7120901049563,新規,0,2024-08-05,2024-08-05,ふるいえ株式会社,,株式会社,大阪府,茨木市,中村町１２番２５号フォアール中村町２０６号室,,27,211,5670822,,,,,,,2024-08-05,1,,,,,フルイエ,0
1992,7130001077571,新規,0,2024-08-05,2024-08-05,蘭亭株式会社,,株式会社,京都府,京都市山科区,日ノ岡石塚町３７－３５－Ｂ,,26,110,6078498,,,,,,,2024-08-05,1,,,,,ランテイ,0
1993,7130001077646,新規,0,2024-08-05,2024-08-05,株式会社Ａｕｔｈｏｒｓｈｉｐ,,株式会社,京都府,京都市下京区,中堂寺南町１３４番地ＡＳＴＥＭ棟８階,,26,106,6008813,,,,,,,2024-08-05,1,,,,,オーサーシップ,0
1998,7130003009754,新規,0,2024-08-05,2024-08-05,合同会社Ａｓｐｉｒａｔｉｏｎ,,合同会社,京都府,京都市山科区,東野八反畑町５７－１－Ｂ－２０１,,26,110,6078145,,,,,,,2024-08-05,1,,,,,アスピレーション,0
2006,7160001026138,新規,0,2024-08-05,2024-08-05,ホリゾンテクノロジーズ株式会社,,株式会社,滋賀県,高島市,新旭町旭１６０１,,25,212,5201501,,,,,,,2024-08-05,1,,,,,ホリゾンテクノロジーズ,0
2011,7170003002086,新規,0,2024-08-05,2024-08-05,合同会社グローバルゲイトインターナショナル,,合同会社,和歌山県,有田市,箕島８７番地９,,30,204,6490304,,,,,,,2024-08-05,1,,,,,グローバルゲイトインターナショナル,0
2021,7180001162542,新規,0,2024-08-05,2024-08-05,株式会社ＪＯＹＺ,,株式会社,愛知県,名古屋市昭和区,桜山町１丁目１０番地の２セントラルハイツ桜山３０１号,,23,107,4660044,,,,,,,2024-08-05,1,,,,,ジョイズ,0
2022,7180001162633,新規,0,2024-08-05,2024-08-05,ＭＡＲＯ株式会社,,株式会社,愛知県,名古屋市中区,栄１丁目１６番１６号チサンマンション栄３０５号,,23,106,4600008,,,,,,,2024-08-05,1,,,,,マロ,0
2023,7180001162666,新規,0,2024-08-05,2024-08-05,ＩＭＡプラン株式会社,,株式会社,愛知県,一宮市,今伊勢町馬寄字上畑田３９番地５,,23,203,4910051,,,,,,,2024-08-05,1,,,,,アイエムエープラン,0
2028,7180005020713,新規,0,2024-08-05,2024-08-05,一般財団法人高須先進医療振興財団,,その他の設立登記法人,愛知県,名古屋市千種区,唐山町２丁目３７番地の５,,23,101,4640806,,,,,,,2024-08-05,1,,,,,タカスセンシンイリョウシンコウザイダン,0
2037,7200001042782,新規,0,2024-08-05,2024-08-05,林工業株式会社,,株式会社,岐阜県,岐阜市,川部５丁目６１番地,,21,201,5011151,,,,,,,2024-08-05,1,,,,,ハヤシコウギョウ,0
2038,7200001042799,新規,0,2024-08-05,2024-08-05,健幸いちばん株式会社,,株式会社,岐阜県,羽島郡笠松町,東宮町５９番地,,21,303,5016059,,,,,,,2024-08-05,1,,,,,ケンコウイチバン,0
2040,7210001019862,新規,0,2024-08-05,2024-08-05,株式会社たねまき,,株式会社,福井県,あわら市,山西方寺第７号１３番地,,18,208,9190813,,,,,,,2024-08-05,1,,,,,タネマキ,0
2042,7240001063627,新規,0,2024-08-05,2024-08-05,株式会社クジョスル,,株式会社,広島県,広島市東区,曙２丁目８－３,,34,102,7320045,,,,,,,2024-08-05,1,,,,,クジョスル,0
2047,7260001039328,新規,0,2024-08-05,2024-08-05,株式会社Ｇｏａｔ,,株式会社,岡山県,倉敷市,川西町２０－１６－３０３,,33,202,7100821,,,,,,,2024-08-05,1,,,,,ゴート,0
2048,7260001039352,新規,0,2024-08-05,2024-08-05,株式会社Ｈｏｍｅ　Ｐｉｃｋｓ,,株式会社,岡山県,岡山市南区,大福１１９番地２４,,33,104,7010204,,,,,,,2024-08-05,1,,,,,ホームピックス,0
2050,7270001009024,新規,0,2024-08-05,2024-08-05,株式会社ポンプサービス秀,,株式会社,鳥取県,米子市,富益町１１０８番地１,,31,202,6830103,,,,,,,2024-08-05,1,,,,,ポンプサービスヒデ,0
2051,7270003001656,新規,0,2024-08-05,2024-08-05,合同会社Ｌｅｎｓ,,合同会社,鳥取県,鳥取市,桜谷６７７,,31,201,6800853,,,,,,,2024-08-05,1,,,,,レンズ,0
2055,7290003015571,新規,0,2024-08-05,2024-08-05,合同会社ＲＡＮＡ,,合同会社,福岡県,福岡市中央区,今川１丁目２３番２３－４０１号ネオグランデ大濠,,40,133,8100054,,,,,,,2024-08-05,1,,,,,ラナ,0
2056,7290005019455,新規,0,2024-08-05,2024-08-05,医療法人泰久会,,その他の設立登記法人,福岡県,八女郡広川町,大字新代１４２８番地９４,,40,544,8340115,,,,,,,2024-08-05,1,,,,,,0
2058,7290801030755,新規,0,2024-08-05,2024-08-05,株式会社イシマツ,,株式会社,福岡県,北九州市若松区,白山１丁目６番３５号,,40,103,8080035,,,,,,,2024-08-05,1,,,,,イシマツ,0
2059,7310001019150,新規,0,2024-08-05,2024-08-05,株式会社ＳＯＲＩＳＥ,,株式会社,長崎県,長崎市,鶴の尾町８番２５号,,42,201,8510132,,,,,,,2024-08-05,1,,,,,ソライズ,0
2060,7310001019159,新規,0,2024-08-05,2024-08-05,株式会社十八若戎丸,,株式会社,長崎県,南島原市,西有家町須川１６６７番地２,,42,214,8592212,,,,,,,2024-08-05,1,,,,,ジュウハチワカエビスマル,0
2069,7350001019130,新規,0,2024-08-05,2024-08-05,株式会社熊須碁盤店,,株式会社,宮崎県,東諸県郡綾町,大字南俣２８２番地１,,45,383,8801303,,,,,,,2024-08-05,1,,,,,クマスゴバンテン,0
2070,7360001034038,新規,0,2024-08-05,2024-08-05,株式会社大城天ぷら店,,株式会社,沖縄県,南城市,玉城字奥武２０６番地,,47,215,9010614,,,,,,,2024-08-05,1,,,,,オオシロテンプラテン,0
2073,7360003014194,新規,0,2024-08-05,2024-08-05,合同会社エヌディワールド,,合同会社,沖縄県,浦添市,港川２丁目２５番１－６０５号,,47,208,9012134,,,,,,,2024-08-05,1,,,,,エヌディワールド,0
2074,7370001051585,新規,0,2024-08-05,2024-08-05,株式会社リノレア,,株式会社,宮城県,仙台市青葉区,一番町２丁目９番２８－２０７号,,04,101,9800811,,,,,,,2024-08-05,1,,,,,リノレア,0
2075,7370001051593,新規,0,2024-08-05,2024-08-05,株式会社ＩＪＶ,,株式会社,宮城県,仙台市太白区,郡山字上野１１番地の６,,04,104,9820003,,,,,,,2024-08-05,1,,,,,アイジェーブイ,0
2076,7370003006703,新規,0,2024-08-05,2024-08-05,合同会社ＯＮ,,合同会社,宮城県,仙台市宮城野区,福室６丁目１２番３８号,,04,102,9830005,,,,,,,2024-08-05,1,,,,,オン,0
2085,7400001016741,新規,0,2024-08-05,2024-08-05,株式会社Ｍ‐ＤＥＸ,,株式会社,岩手県,盛岡市,新田町５番３５－３２５号,,03,201,0200042,,,,,,,2024-08-05,1,,,,,エムデックス,0
2089,7420003002969,新規,0,2024-08-05,2024-08-05,合同会社福井技研,,合同会社,青森県,青森市,富田２丁目１２番１３号金谷アパート５号,,02,201,0380004,,,,,,,2024-08-05,1,,,,,,0
2093,7430001092400,新規,0,2024-08-05,2024-08-05,株式会社ＦＲＯＮＴ　ＬＩＮＥ,,株式会社,北海道,札幌市東区,北二十四条東１６丁目２番２０号,,01,103,0650024,,,,,,,2024-08-05,1,,,,,フロントライン,0
2094,7430001092417,新規,0,2024-08-05,2024-08-05,株式会社ナッシュ,,株式会社,北海道,札幌市豊平区,美園一条６丁目２番２号,,01,105,0620001,,,,,,,2024-08-05,1,,,,,ナッシュ,0
2095,7430003016638,新規,0,2024-08-05,2024-08-05,合同会社エーアイ,,合同会社,北海道,札幌市北区,新川西三条７丁目１番５号,,01,102,0010933,,,,,,,2024-08-05,1,,,,,エーアイ,0
2097,7460101007585,新規,0,2024-08-05,2024-08-05,株式会社ミナカムナ,,株式会社,北海道,帯広市,東七条南１４丁目１番地２６,,01,207,0800807,,,,,,,2024-08-05,1,,,,,ミナカムナ,0
2102,7470003002691,新規,0,2024-08-05,2024-08-05,合同会社１０・３１,,合同会社,香川県,観音寺市,三本松町２丁目２番４号,,37,205,7680063,,,,,,,2024-08-05,1,,,,,トミー,0
2107,7700150126658,新規,0,2024-08-05,2024-08-05,ＨＡＮＩＹＡ　ＥＮＴＥＲＰＲＩＳＥＳ,,外国会社等,千葉県,山武市,森１４８８番地２３,,12,237,2891214,スリランカ民主社会主義共和国、中央州、キャンディ地区、キャンディ、アクラナ、ワラガシンナ、Ｎｏ．３２／Ａ,,,,,,2024-08-05,1,,,,,ハニヤエンタープライズ,0
2118,8010001246996,新規,0,2024-08-05,2024-08-05,スカイスキャニング株式会社,,株式会社,東京都,中央区,銀座１丁目１２番４号,,13,102,1040061,,,,,,,2024-08-05,1,,,,,スカイスキャニング,0
2119,8010001247078,新規,0,2024-08-05,2024-08-05,株式会社Ａｒａｎｅａ,,株式会社,東京都,中央区,銀座１丁目１２番４号Ｎ＆ＥＢＬＤ．６Ｆ,,13,102,1040061,,,,,,,2024-08-05,1,,,,,アラネア,0
2120,8010001247202,新規,0,2024-08-05,2024-08-05,山佐ＫＬＭ５リース株式会社,,株式会社,東京都,千代田区,丸の内１丁目４番１号東京共同会計事務所内,,13,101,1000005,,,,,,,2024-08-05,1,,,,,ヤマサケーエルエムファイブリース,0
2121,8010001247219,新規,0,2024-08-05,2024-08-05,株式会社トレンドワン,,株式会社,東京都,中央区,東日本橋３丁目２番５号アスコットパーク日本橋コモド１Ｆ,,13,102,1030004,,,,,,,2024-08-05,1,,,,,トレンドワン,0
2122,8010001247268,新規,0,2024-08-05,2024-08-05,株式会社アルテム,,株式会社,東京都,千代田区,平河町２丁目５－３,,13,101,1020093,,,,,,,2024-08-05,1,,,,,アルテム,0
2124,8010401184169,新規,0,2024-08-05,2024-08-05,ＥｎｔｅｒＣｏｍｍｅｒｃｅ株式会社,,株式会社,東京都,港区,芝５丁目９番４－３０２号,,13,103,1080014,,,,,,,2024-08-05,1,,,,,エンターコマース,0
2125,8010401184193,新規,0,2024-08-05,2024-08-05,株式会社ｅｎｎｐｏｗｅｒ,,株式会社,東京都,港区,北青山１丁目３番１号アールキューブ青山３階,,13,103,1070061,,,,,,,2024-08-05,1,,,,,エンパワー,0
2126,8010401184202,新規,0,2024-08-05,2024-08-05,株式会社サイドキック,,株式会社,東京都,港区,西麻布１丁目４番３６号ロジマン西麻布５０４,,13,103,1060031,,,,,,,2024-08-05,1,,,,,サイドキック,0
2127,8010401184219,新規,0,2024-08-05,2024-08-05,株式会社ＢＩＣ,,株式会社,東京都,港区,南青山２丁目２７－２１－５Ｆ,,13,103,1070062,,,,,,,2024-08-05,1,,,,,ビーアイシー,0
2128,8010401184243,新規,0,2024-08-05,2024-08-05,莱特坊株式会社,,株式会社,東京都,港区,六本木７丁目１７番１２号六本木ビジネスアパートメンツ２１４号室,,13,103,1060032,,,,,,,2024-08-05,1,,,,,ライトクボウ,0
2129,8010401184284,新規,0,2024-08-05,2024-08-05,株式会社ＥＷＧホテル＆エクスペリエンス函館,,株式会社,東京都,港区,六本木７丁目４番１号,,13,103,1060032,,,,,,,2024-08-05,1,,,,,イーダブルジーホテルアンドエクスペリエンスハコダテ,0
2132,8010403033159,新規,0,2024-08-05,2024-08-05,合同会社Ｃｏｎｆｉｄａｎｔ,,合同会社,東京都,港区,芝浦３丁目６番７号板硝子会館６階,,13,103,1080023,,,,,,,2024-08-05,1,,,,,コンフィダント,0
2135,8010601065680,新規,0,2024-08-05,2024-08-05,株式会社カムイメディカルＴＯＫＹＯ,,株式会社,東京都,墨田区,東向島３丁目２９－１０ロングビル２階,,13,107,1310032,,,,,,,2024-08-05,1,,,,,カムイメディカルトウキョウ,0
2139,8010705003660,新規,0,2024-08-05,2024-08-05,一般社団法人国際食品予防フォーラム,,その他の設立登記法人,東京都,品川区,小山１丁目５番１４号,,13,109,1420062,,,,,,,2024-08-05,1,,,,,コクサイショクヒンヨボウフォーラム,0
2141,8010803005039,新規,0,2024-08-05,2024-08-05,ＰｅａｋＮｅｘｕｓ合同会社,,合同会社,東京都,大田区,東雪谷３丁目２５番９号,,13,111,1450065,,,,,,,2024-08-05,1,,,,,ピークネクサス,0
2143,8010901055745,新規,0,2024-08-05,2024-08-05,Ｔｒｉｎｉｔａｓ　Ｃｏｎｓｕｌｔｉｎｇ株式会社,,株式会社,東京都,世田谷区,用賀４丁目１０－３世田谷ビジネススクエアヒルズＩＩ３階３２号,00135806,13,112,1580097,,,,,,,2024-08-05,1,,,,,トリニタスコンサルティング,0
2145,8010903009261,新規,0,2024-08-05,2024-08-05,合同会社ＭＡＴＳＵＭＯＴＯ,,合同会社,東京都,世田谷区,豪徳寺１丁目１２番２１号,,13,112,1540021,,,,,,,2024-08-05,1,,,,,マツモト,0
2150,8011001163694,新規,0,2024-08-05,2024-08-05,株式会社ビーンズ,,株式会社,東京都,渋谷区,恵比寿南１丁目１番４号スカイビル３階,,13,113,1500022,,,,,,,2024-08-05,1,,,,,ビーンズ,0
2151,8011001163728,新規,0,2024-08-05,2024-08-05,株式会社ＳＯＵＬＮＤ,,株式会社,東京都,渋谷区,神宮前４丁目１７番９号,,13,113,1500001,,,,,,,2024-08-05,1,,,,,ソウランド,0
2152,8011001163736,新規,0,2024-08-05,2024-08-05,アッシュシード株式会社,,株式会社,東京都,渋谷区,恵比寿西２丁目８番４号ＥＸ恵比寿西ビル５階,,13,113,1500021,,,,,,,2024-08-05,1,,,,,アッシュシード,0
2153,8011001163744,新規,0,2024-08-05,2024-08-05,株式会社士業ファンド,,株式会社,東京都,目黒区,目黒本町５丁目２０番１４号,,13,110,1520002,,,,,,,2024-08-05,1,,,,,シギョウファンド,0
2154,8011001163777,新規,0,2024-08-05,2024-08-05,渋谷キャピタルグループ株式会社,,株式会社,東京都,渋谷区,恵比寿西１丁目３１番１６号,,13,113,1500021,,,,,,,2024-08-05,1,,,,,シブヤキャピタルグループ,0
2155,8011001163819,新規,0,2024-08-05,2024-08-05,株式会社ＲＥＢＯＲＮＳＥ,,株式会社,東京都,渋谷区,宇田川町１２番３ニュー渋谷コーポラス６０７,,13,113,1500042,,,,,,,2024-08-05,1,,,,,リーボンス,0
2164,8011101108228,新規,0,2024-08-05,2024-08-05,ＭＡＲＵＩＳＨＩ　Ｈｏｌｄｉｎｇｓ株式会社,,株式会社,東京都,新宿区,新宿４丁目３番１５号,,13,104,1600022,,,,,,,2024-08-05,1,,,,,マルイシホールディングス,0
2165,8011203004457,新規,0,2024-08-05,2024-08-05,合同会社優’ｓペース,,合同会社,東京都,中野区,東中野２丁目２４番１号クレール東中野６０３,,13,114,1640003,,,,,,,2024-08-05,1,,,,,ユースペース,0
2170,8011701027505,新規,0,2024-08-05,2024-08-05,株式会社Ｔｈｅ　Ｂｅｓｔ,,株式会社,東京都,江戸川区,平井７丁目３２番６号,,13,123,1320035,,,,,,,2024-08-05,1,,,,,ザベスト,0
2172,8011801044648,新規,0,2024-08-05,2024-08-05,金泰安株式会社,,株式会社,東京都,足立区,千住柳町２５－１－１０２号室,,13,121,1200032,,,,,,,2024-08-05,1,,,,,キンダイアン,0
2173,8011803006373,新規,0,2024-08-05,2024-08-05,合同会社大田ベンド商事,,合同会社,東京都,足立区,辰沼２丁目１８番２１号,,13,121,1210054,,,,,,,2024-08-05,1,,,,,オオタベンドショウジ,0
2177,8012801023352,新規,0,2024-08-05,2024-08-05,株式会社ＳＴＵＷＡＲＤ,,株式会社,東京都,国分寺市,本多１丁目６－３ＴＭビル２０２,,13,214,1850011,,,,,,,2024-08-05,1,,,,,ストゥワード,0
2179,8013101009471,新規,0,2024-08-05,2024-08-05,株式会社ＹＯＬＩＭＩＣＨＩ,,株式会社,東京都,青梅市,千ヶ瀬町２丁目２３８番地の１０,,13,205,1980043,,,,,,,2024-08-05,1,,,,,ヨリミチ,0
2184,8013301052924,新規,0,2024-08-05,2024-08-05,株式会社Ｔ．Ｐ．タレントテック,,株式会社,東京都,豊島区,南池袋４丁目１９－１４－５０３,,13,116,1710022,,,,,,,2024-08-05,1,,,,,ティーピータレントテック,0
2195,8020001158340,新規,0,2024-08-05,2024-08-05,株式会社燦爛,,株式会社,神奈川県,横浜市南区,六ツ川３丁目４３番地１,,14,105,2320066,,,,,,,2024-08-05,1,,,,,サンラン,0
2202,8020003026685,新規,0,2024-08-05,2024-08-05,まるデジ合同会社,,合同会社,神奈川県,横浜市西区,浅間町１丁目４番３号ウィザードビル４０２,,14,103,2200072,,,,,,,2024-08-05,1,,,,,マルデジ,0
2203,8020005016494,新規,0,2024-08-05,2024-08-05,ＮＰＯ法人マルチカラーズ,,その他の設立登記法人,神奈川県,横浜市磯子区,栗木１丁目２３番２７号,,14,107,2350041,,,,,,,2024-08-05,1,,,,,マルチカラーズ,0
2207,8030001161657,新規,0,2024-08-05,2024-08-05,株式会社パースペクティヴ,,株式会社,埼玉県,越谷市,南越谷４丁目９番地６,,11,222,3430845,,,,,,,2024-08-05,1,,,,,パースペクティブ,0
2208,8030001161756,新規,0,2024-08-05,2024-08-05,株式会社Ｅａｒｔｈ　Ｃｌｅａｎ,,株式会社,埼玉県,春日部市,緑町２丁目８番２号,,11,214,3440063,,,,,,,2024-08-05,1,,,,,アースクリーン,0
2209,8030001161806,新規,0,2024-08-05,2024-08-05,株式会社ビジョンスリー,,株式会社,埼玉県,入間市,大字新久８４５－８５,,11,225,3580031,,,,,,,2024-08-05,1,,,,,ビジョンスリー,0
2210,8030003024787,新規,0,2024-08-05,2024-08-05,合同会社ＡＮＧＥＬ’Ｓアジアントレーディング,,合同会社,埼玉県,児玉郡上里町,大字金久保２３８－１,,11,385,3690301,,,,,,,2024-08-05,1,,,,,エンジェルズアジアントレーディング,0
2211,8030003024837,新規,0,2024-08-05,2024-08-05,Ｓｕｐｅｒ３合同会社,,合同会社,埼玉県,さいたま市南区,別所３丁目３８番２１－５０７号,,11,108,3360021,,,,,,,2024-08-05,1,,,,,スーパースリー,0
2212,8030003024853,新規,0,2024-08-05,2024-08-05,ＧＬＯＢＡＬ　ＮＥＴＷＯＲＫ合同会社,,合同会社,埼玉県,草加市,旭町２丁目５－３サンハイツ松原２１０,,11,221,3400053,,,,,,,2024-08-05,1,,,,,グローバルネットワーク,0
2213,8030003024861,新規,0,2024-08-05,2024-08-05,合同会社大川経営,,合同会社,埼玉県,北本市,宮内２丁目９１番１号,,11,233,3640002,,,,,,,2024-08-05,1,,,,,オオカワケイエイ,0
2214,8030005021790,新規,0,2024-08-05,2024-08-05,一般社団法人照覧舎,,その他の設立登記法人,埼玉県,川越市,大字大袋新田４６７番地,,11,201,3501167,,,,,,,2024-08-05,1,,,,,ショウランシャ,0
2217,8040001134686,新規,0,2024-08-05,2024-08-05,東方の星国際株式会社,,株式会社,千葉県,船橋市,高根台７丁目９番１５号,,12,204,2740065,,,,,,,2024-08-05,1,,,,,トウホウノホシコクサイ,0
2218,8040001134752,新規,0,2024-08-05,2024-08-05,株式会社イエロー,,株式会社,千葉県,浦安市,入船４丁目７番２５号ベルドミールＩＩＩ１０１,00135815,12,227,2790012,,,,,,,2024-08-05,1,,,,,イエロー,0
2219,8040001134760,新規,0,2024-08-05,2024-08-05,株式会社ＭＫコーポレーション,,株式会社,千葉県,東金市,南上宿２３番地２８ＵＫハイツ３０５,,12,213,2830066,,,,,,,2024-08-05,1,,,,,エムケーコーポレーション,0
2220,8040001134769,新規,0,2024-08-05,2024-08-05,株式会社ＳＯＲＡＬｉｕｍ,,株式会社,千葉県,松戸市,松戸１３３１番地の５,,12,207,2710092,,,,,,,2024-08-05,1,,,,,ソラリウム,0
2221,8040001134802,新規,0,2024-08-05,2024-08-05,株式会社大川機工,,株式会社,千葉県,松戸市,河原塚１００番地の５,,12,207,2702254,,,,,,,2024-08-05,1,,,,,オオカワキコウ,0
2222,8040001134843,新規,0,2024-08-05,2024-08-05,株式会社ＳＹＨ,,株式会社,千葉県,鴨川市,天津１４０９,,12,223,2995503,,,,,,,2024-08-05,1,,,,,エスワイエイチ,0
2225,8040002105323,新規,0,2024-08-05,2024-08-05,有限会社山仁,,有限会社,千葉県,銚子市,馬場町２８６番地,,12,202,2880054,,,,,,,2024-08-05,1,,,,,,0
2226,8040003025520,新規,0,2024-08-05,2024-08-05,合同会社ＳＯＲＩＺＥ,,合同会社,千葉県,船橋市,南海神１丁目１番３号,,12,204,2730023,,,,,,,2024-08-05,1,,,,,ソライズ,0
2227,8040003025553,新規,0,2024-08-05,2024-08-05,Ｋ＆Ｋホームズ合同会社,,合同会社,千葉県,柏市,西山２丁目２番１２号,,12,217,2770063,,,,,,,2024-08-05,1,,,,,ケイアンドケイホームズ,0
2229,8050001055188,新規,0,2024-08-05,2024-08-05,高盛銅業株式会社,,株式会社,茨城県,筑西市,木戸１２５６番地２,,08,227,3080104,,,,,,,2024-08-05,1,,,,,タカモリドウギョウ,0
2242,8080001026418,新規,0,2024-08-05,2024-08-05,株式会社Ｅｒｄｅ　ＴＣ,,株式会社,静岡県,静岡市駿河区,高松２９４９番地の１,,22,102,4228034,,,,,,,2024-08-05,1,,,,,エルデティーシー,0
2245,8080103003109,新規,0,2024-08-05,2024-08-05,合同会社ＭＵＲＡＳＥ,,合同会社,静岡県,沼津市,根古屋１２８番地の２プチベール竹田１０３,,22,203,4100309,,,,,,,2024-08-05,1,,,,,ムラセ,0
2248,8080401027362,新規,0,2024-08-05,2024-08-05,朝日不動産株式会社,,株式会社,静岡県,磐田市,二之宮東２３番地３,,22,211,4380073,,,,,,,2024-08-05,1,,,,,アサヒフドウサン,0
2267,8120001267420,新規,0,2024-08-05,2024-08-05,最適でんき株式会社,,株式会社,大阪府,大阪市中央区,北浜３丁目１番２２号あいおいニッセイ同和損保淀屋橋ビル９階,,27,128,5410041,,,,,,,2024-08-05,1,,,,,サイテキデンキ,0
2268,8120001267445,新規,0,2024-08-05,2024-08-05,株式会社ＳＫＧ,,株式会社,大阪府,大阪市淀川区,三津屋中１丁目２番１号フェリーチェ神崎川３０３号,,27,123,5320036,,,,,,,2024-08-05,1,,,,,エスケージー,0
2269,8120001267453,新規,0,2024-08-05,2024-08-05,株式会社ＭＳビルドアップ,,株式会社,大阪府,門真市,北岸和田３丁目１番２０号,,27,223,5710007,,,,,,,2024-08-05,1,,,,,エムエスビルドアップ,0
2270,8120001267494,新規,0,2024-08-05,2024-08-05,株式会社池宮城,,株式会社,大阪府,大阪市北区,西天満５丁目６番９－８０１号,,27,127,5300047,,,,,,,2024-08-05,1,,,,,イケミヤギ,0
2271,8120001267503,新規,0,2024-08-05,2024-08-05,山下ホールディングス株式会社,,株式会社,大阪府,大阪市大正区,泉尾３丁目１６番５号,,27,108,5510031,,,,,,,2024-08-05,1,,,,,ヤマシタホールディングス,0
2274,8120003027153,新規,0,2024-08-05,2024-08-05,合同会社フーズコンサルト,,合同会社,大阪府,大阪市住吉区,我孫子東２丁目５番７号野口ハイツ３０６号,,27,120,5580013,,,,,,,2024-08-05,1,,,,,フーズコンサルト,0
2275,8120003027244,新規,0,2024-08-05,2024-08-05,ＹｓｓＫ合同会社,,合同会社,大阪府,大阪市中央区,南船場３丁目２番２２号おおきに南船場ビル２０５,,27,128,5420081,,,,,,,2024-08-05,1,,,,,ワイエスエスケー,0
2277,8120101070047,新規,0,2024-08-05,2024-08-05,株式会社ＮＷ＆Ｓ,,株式会社,大阪府,高石市,千代田２丁目３番６－１００８号,,27,225,5920005,,,,,,,2024-08-05,1,,,,,エヌダブリューエス,0
2281,8130001077587,新規,0,2024-08-05,2024-08-05,株式会社ｙｕｗｅｌ,,株式会社,京都府,京都市下京区,仏光寺通烏丸東入上柳町３３１タカノハスクエア,,26,106,6008099,,,,,,,2024-08-05,1,,,,,ユエル,0
2282,8130001077595,新規,0,2024-08-05,2024-08-05,株式会社ＴＲＥＥ’Ｓ,,株式会社,京都府,亀岡市,篠町森下垣内１番地２６,,26,206,6210831,,,,,,,2024-08-05,1,,,,,ツリーズ,0
2283,8130001077620,新規,0,2024-08-05,2024-08-05,株式会社今村工務店,,株式会社,京都府,宇治市,伊勢田町中山４８番地の２３,,26,204,6110043,,,,,,,2024-08-05,1,,,,,イマムラコウムテン,0
2284,8130001077653,新規,0,2024-08-05,2024-08-05,株式会社コン・エスパス,,株式会社,京都府,京都市伏見区,羽束師菱川町４３９番地１１,,26,109,6128487,,,,,,,2024-08-05,1,,,,,コンエスパス,0
2286,8130003009737,新規,0,2024-08-05,2024-08-05,合同会社Ｙ企画,,合同会社,京都府,舞鶴市,字堂奥１０４６番地１,,26,202,6250044,,,,,,,2024-08-05,1,,,,,ワイキカク,0
2287,8130003009753,新規,0,2024-08-05,2024-08-05,合同会社ＳｕｎｎｙＳｌｏｐｅ,,合同会社,京都府,南丹市,美山町三埜南畑３８番地,,26,213,6010773,,,,,,,2024-08-05,1,,,,,サニースロープ,0
2290,8140001135385,新規,0,2024-08-05,2024-08-05,株式会社ＮＢＡ,,株式会社,兵庫県,神戸市中央区,海岸通６番地建隆ビルＩＩ６０３,00135796,28,110,6500024,,,,,,,2024-08-05,1,,,,,エヌビーエー,0
2313,8200003006454,新規,0,2024-08-05,2024-08-05,合同会社ケア・プロジェクト,,合同会社,岐阜県,岐阜市,加納花ノ木町４１番地３,,21,201,5008275,,,,,,,2024-08-05,1,,,,,ケアプロジェクト,0
2315,8210001019861,新規,0,2024-08-05,2024-08-05,株式会社ジェイワークス,,株式会社,福井県,敦賀市,舞崎町２丁目１８番６号ＬＩＯＮ舞崎２０２,,18,202,9140053,,,,,,,2024-08-05,1,,,,,ジェイワークス,0
2320,8240001063642,新規,0,2024-08-05,2024-08-05,株式会社ＫＳＤＬ,,株式会社,広島県,広島市佐伯区,坪井２丁目１７４番地１,,34,108,7315142,,,,,,,2024-08-05,1,,,,,ケイエスディーエル,0
2323,8260001039343,新規,0,2024-08-05,2024-08-05,株式会社ＣＦ．Ｓｃｈｏｏｌ,,株式会社,岡山県,岡山市中区,竹田３番地,,33,102,7038251,,,,,,,2024-08-05,1,,,,,シーエフスクール,0
2324,8270005005605,新規,0,2024-08-05,2024-08-05,一般社団法人鴎鳴荘・澤田メモリアル,,その他の設立登記法人,鳥取県,岩美郡岩美町,大字浦富２６０６番地１,,31,302,6810003,,,,,,,2024-08-05,1,,,,,オウメイソウサワダメモリアル,0
2330,8290001106520,新規,0,2024-08-05,2024-08-05,株式会社はな,,株式会社,福岡県,柳川市,大和町中島１６９９番地,,40,207,8390254,,,,,,,2024-08-05,1,,,,,ハナ,0
2331,8290001106628,新規,0,2024-08-05,2024-08-05,株式会社ミージ,,株式会社,福岡県,福岡市東区,箱崎６丁目１１－９－３０３,,40,131,8120053,,,,,,,2024-08-05,1,,,,,ミージ,0
2333,8290003015595,新規,0,2024-08-05,2024-08-05,合同会社木山財務コンサルティング,,合同会社,福岡県,福岡市中央区,六本松３丁目１番１１－１０２号,,40,133,8100044,,,,,,,2024-08-05,1,,,,,キヤマザイムコンサルティング,0
2334,8290801030754,新規,0,2024-08-05,2024-08-05,株式会社ＢＡＤＶＡＮＣＥ,,株式会社,福岡県,北九州市小倉北区,米町１丁目１番１号６階,,40,106,8020003,,,,,,,2024-08-05,1,,,,,バドバンス,0
2336,8320001020643,新規,0,2024-08-05,2024-08-05,株式会社アビクリエイト,,株式会社,大分県,大分市,松が丘４丁目２０番６号,,44,201,8701168,,,,,,,2024-08-05,1,,,,,アビクリエイト,0
2337,8330001032316,新規,0,2024-08-05,2024-08-05,株式会社ＭｉｚＴＡ,,株式会社,熊本県,熊本市東区,若葉１丁目１２―１東昭第二ビル１階（わさもん酒場内）,,43,102,8620903,,,,,,,2024-08-05,1,,,,,ミズタ,0
2338,8340001026688,新規,0,2024-08-05,2024-08-05,クレストカンパニー株式会社,,株式会社,鹿児島県,鹿児島市,樋之口町１２番１９－５０５号,00135816,46,201,8920845,,,,,,,2024-08-05,1,,,,,クレストカンパニー,0
2339,8340001026696,新規,0,2024-08-05,2024-08-05,株式会社松組,,株式会社,鹿児島県,鹿児島市,春山町１６０７番地１２,,46,201,8992704,,,,,,,2024-08-05,1,,,,,マツグミ,0
2340,8340001026721,新規,0,2024-08-05,2024-08-05,株式会社みかんの香果園,,株式会社,鹿児島県,出水市,美原町１２１１番地,,46,208,8990124,,,,,,,2024-08-05,1,,,,,ミカンノコウカエン,0
2341,8350001019121,新規,0,2024-08-05,2024-08-05,株式会社霧島和結,,株式会社,宮崎県,えびの市,大字末永１４９５番地足湯の駅２Ｆ,,45,209,8894302,,,,,,,2024-08-05,1,,,,,キリシマオムスビ,0
2343,8360001034037,新規,0,2024-08-05,2024-08-05,株式会社Ｃｌｉｍｂ,,株式会社,沖縄県,那覇市,久米２丁目３３番２０－２０６号西武門みーちハウス,,47,201,9000033,,,,,,,2024-08-05,1,,,,,クライム,0
2346,8370001051576,新規,0,2024-08-05,2024-08-05,株式会社グロース,,株式会社,宮城県,栗原市,若柳字川北新町２５番地,,04,213,9895501,,,,,,,2024-08-05,1,,,,,グロース,0
2347,8370001051618,新規,0,2024-08-05,2024-08-05,株式会社リボォルーバー,,株式会社,宮城県,仙台市若林区,六丁の目南町１番１６号,,04,103,9840013,,,,,,,2024-08-05,1,,,,,リボォルーバー,0
2348,8370003006702,新規,0,2024-08-05,2024-08-05,和ベンリー合同会社,,合同会社,宮城県,栗原市,栗駒桜田高木９８番地,,04,213,9895322,,,,,,,2024-08-05,1,,,,,ナゴミベンリー,0
2350,8380001034712,新規,0,2024-08-05,2024-08-05,東北ルートサービス株式会社,,株式会社,福島県,いわき市,植田町本町１丁目２－１０,,07,204,9748261,,,,,,,2024-08-05,1,,,,,トウホクルートサービス,0
2352,8380003005835,新規,0,2024-08-05,2024-08-05,合同会社ひかる,,合同会社,福島県,白河市,表郷番沢字鹿ノ内１２番地６,,07,205,9610403,,,,,,,2024-08-05,1,,,,,ヒカル,0
2353,8390001017699,新規,0,2024-08-05,2024-08-05,株式会社ＬＧ,,株式会社,山形県,天童市,北目２丁目７番７号,,06,210,9940042,,,,,,,2024-08-05,1,,,,,エルジー,0
2357,8420001018818,新規,0,2024-08-05,2024-08-05,株式会社オネスト,,株式会社,青森県,五所川原市,字上平井町８３番地,,02,205,0370054,,,,,,,2024-08-05,1,,,,,オネスト,0
2362,8430001092390,新規,0,2024-08-05,2024-08-05,株式会社テクノクラフト,,株式会社,北海道,石狩市,花川南一条１丁目９４番地,,01,235,0613201,,,,,,,2024-08-05,1,,,,,テクノクラフト,0
2363,8430001092424,新規,0,2024-08-05,2024-08-05,株式会社ゼットアクション,,株式会社,北海道,千歳市,みどり台北１丁目７番８号第２未来ビルＣ号室,,01,224,0660083,,,,,,,2024-08-05,1,,,,,ゼットアクション,0
2372,8430003016612,新規,0,2024-08-05,2024-08-05,合同会社ねこねくと,,合同会社,北海道,札幌市中央区,南二条西７丁目１番５　２・７ビル２階,,01,101,0600062,,,,,,,2024-08-05,1,,,,,ネコネクト,0
2373,8430003016645,新規,0,2024-08-05,2024-08-05,合同会社雄杜工業,,合同会社,北海道,札幌市東区,北三十八条東１８丁目２番２４－１０２号,,01,103,0070838,,,,,,,2024-08-05,1,,,,,ユウトコウギョウ,0
2374,8440001009476,新規,0,2024-08-05,2024-08-05,株式会社マーク葬儀社,,株式会社,北海道,久遠郡せたな町,北檜山区北檜山１３５番地２,,01,371,0494501,,,,,,,2024-08-05,1,,,,,マークソウギシャ,0
2379,8470001020331,新規,0,2024-08-05,2024-08-05,株式会社ｈｅｌｉｃｏ,,株式会社,香川県,綾歌郡綾川町,陶３６８１番地１,,37,387,7612103,,,,,,,2024-08-05,1,,,,,ヘリコ,0
2382,8500005008724,新規,0,2024-08-05,2024-08-05,一般社団法人愛学舎,,その他の設立登記法人,愛媛県,松山市,余戸南５丁目４番１号,,38,201,7900047,,,,,,,2024-08-05,1,,,,,アイガクシャ,0
2383,8700150126582,新規,0,2024-08-05,2024-08-01,さどの島銀河芸術祭実行委員会,,その他,新潟県,佐渡市,両津夷５３番地１,,15,224,9520011,,,,,,,2024-08-01,1,,,,,サドノシマギンガゲイジユツサイジツコウイインカイ,0
2384,8700150126657,新規,0,2024-08-05,2024-08-05,ＳＵＭＯ　ＮＥＴ　ＥＮＴＥＲＰＲＩＳＥＳ,,外国会社等,千葉県,大網白里市,南今泉６６７番地２オフィス６,,12,239,2993202,スリランカ民主社会主義共和国、アクラナ、ドダムゴラ、Ｎｏ．２０５／１,,,,,,2024-08-05,1,,,,,スモーネツトエンタープライズ,0
2389,9010001247003,新規,0,2024-08-05,2024-08-05,Ｍｕｓｕｂｕ株式会社,,株式会社,東京都,中央区,銀座７丁目１５番１８号銀ビル３階,,13,102,1040061,,,,,,,2024-08-05,1,,,,,ムスブ,0
2390,9010001247011,新規,0,2024-08-05,2024-08-05,ＪＴリサーチ＆コンサルティング株式会社,,株式会社,東京都,中央区,日本橋室町１丁目１１番１２号日本橋水野ビル７階,,13,102,1030022,,,,,,,2024-08-05,1,,,,,ジェイティリサーチアンドコンサルティング,0
2391,9010001247226,新規,0,2024-08-05,2024-08-05,株式会社ＢＣＭ３４,,株式会社,東京都,中央区,京橋２丁目２番１号,,13,102,1040031,,,,,,,2024-08-05,1,,,,,ビーシーエムサンジュウヨン,0
2392,9010003044480,新規,0,2024-08-05,2024-08-05,合同会社プラント,,合同会社,東京都,中央区,築地１丁目４番３－６０２号,,13,102,1040045,,,,,,,2024-08-05,1,,,,,プラント,0
2393,9010003044489,新規,0,2024-08-05,2024-08-05,合同会社カエデ,,合同会社,東京都,中央区,銀座１丁目１２－４Ｎ＆ＥＢＬＤ．７階,,13,102,1040061,,,,,,,2024-08-05,1,,,,,カエデ,0
2406,9010401184110,新規,0,2024-08-05,2024-08-05,ＴＤ　Ｊａｐａｎ株式会社,,株式会社,東京都,港区,新橋６丁目１６番８号２階,,13,103,1050004,,,,,,,2024-08-05,1,,,,,ティーディージャパン,0
2407,9010401184201,新規,0,2024-08-05,2024-08-05,株式会社ＫＡＦＬＩ,,株式会社,東京都,港区,西麻布１丁目４－７クレド２階,,13,103,1060031,,,,,,,2024-08-05,1,,,,,カフリ,0
2408,9010401184259,新規,0,2024-08-05,2024-08-05,あたえる株式会社,,株式会社,東京都,港区,浜松町１丁目１８番１３号高桑ビル３階,,13,103,1050013,,,,,,,2024-08-05,1,,,,,アタエル,0
2409,9010401184283,新規,0,2024-08-05,2024-08-05,株式会社ＥＷＧホテル＆エクスペリエンス小樽,,株式会社,東京都,港区,六本木７丁目４番１号,,13,103,1060032,,,,,,,2024-08-05,1,,,,,イーダブルジーホテルアンドエクスペリエンスオタル,0
2414,9010503007540,新規,0,2024-08-05,2024-08-05,合同会社ウォーカー,,合同会社,東京都,台東区,竜泉２丁目６番９－４０２号ジュネシオン竜泉,,13,106,1100012,,,,,,,2024-08-05,1,,,,,ウォーカー,0
2419,9010601065696,新規,0,2024-08-05,2024-08-05,キボウコンパス株式会社,,株式会社,東京都,江東区,大島１丁目１８番４－１２１号,,13,108,1360072,,,,,,,2024-08-05,1,,,,,キボウコンパス,0
2424,9010703007290,新規,0,2024-08-05,2024-08-05,合同会社ｄａｎｄｒｙ,,合同会社,東京都,品川区,東五反田３丁目１７番３号,,13,109,1410022,,,,,,,2024-08-05,1,,,,,ダンドリー,0
2426,9010901055744,新規,0,2024-08-05,2024-08-05,株式会社コープブレッドイースト,,株式会社,東京都,世田谷区,船橋５丁目２８番６号,,13,112,1560055,,,,,,,2024-08-05,1,,,,,コープブレッドイースト,0
2428,9011001163719,新規,0,2024-08-05,2024-08-05,株式会社ＡＭＯＲＥホールディングス,,株式会社,東京都,渋谷区,神宮前５丁目１番１５号,,13,113,1500001,,,,,,,2024-08-05,1,,,,,アモーレホールディングス,0
2429,9011001163727,新規,0,2024-08-05,2024-08-05,株式会社山悦,,株式会社,東京都,目黒区,自由が丘３丁目１７番２０号マンションサニーアンドサニー４０１,,13,110,1520035,,,,,,,2024-08-05,1,,,,,ヤマエツ,0
2430,9011001163735,新規,0,2024-08-05,2024-08-05,株式会社ＮＯＮＳ,,株式会社,東京都,渋谷区,代官山町１７番１－２００９号,,13,113,1500034,,,,,,,2024-08-05,1,,,,,ノンズ,0
2431,9011001163768,新規,0,2024-08-05,2024-08-05,株式会社ＴＯＲＯＭＥ,,株式会社,東京都,渋谷区,幡ヶ谷２丁目５番８号,,13,113,1510072,,,,,,,2024-08-05,1,,,,,トロメ,0
2432,9011001163818,新規,0,2024-08-05,2024-08-05,株式会社プラミーホーム,,株式会社,東京都,目黒区,祐天寺１丁目２番１６号,,13,110,1530052,,,,,,,2024-08-05,1,,,,,プラミーホーム,0
2433,9011001163826,新規,0,2024-08-05,2024-08-05,株式会社Ｖｉｒａｌ　Ｓｙｎｃ,,株式会社,東京都,渋谷区,道玄坂１丁目１０番８号渋谷道玄坂東急ビル２Ｆ－Ｃ,,13,113,1500043,,,,,,,2024-08-05,1,,,,,バイラルシンク,0
2434,9011005010603,新規,0,2024-08-05,2024-08-05,一般社団法人デジタル認証サービス機構,,その他の設立登記法人,東京都,目黒区,青葉台１丁目３０番１３号サンライズ中目黒４０１,,13,110,1530042,,,,,,,2024-08-05,1,,,,,デジタルニンショウサービスキコウ,0
2438,9011101108284,新規,0,2024-08-05,2024-08-05,株式会社ＷｉｔｈＦｏｘ,,株式会社,東京都,新宿区,西新宿７丁目５－５Ｐｌａｚａ西新宿ＵＣＦ４階,,13,104,1600023,,,,,,,2024-08-05,1,,,,,ウィズフォックス,0
2439,9011103014737,新規,0,2024-08-05,2024-08-05,ＧＬＤＺ合同会社,,合同会社,東京都,新宿区,西新宿３丁目３番１３号西新宿水間ビル２Ｆ,,13,104,1600023,,,,,,,2024-08-05,1,,,,,ゴールズ,0
2441,9011201025685,新規,0,2024-08-05,2024-08-05,株式会社ＲＨＬＰ,,株式会社,東京都,中野区,野方４丁目１９番６号６０３号室,,13,114,1650027,,,,,,,2024-08-05,1,,,,,アールエイチエルピー,0
2443,9011301029900,新規,0,2024-08-05,2024-08-05,ｉｓｔ株式会社,,株式会社,東京都,杉並区,阿佐谷南２丁目１番１９号,,13,115,1660004,,,,,,,2024-08-05,1,,,,,イスト,0
2445,9011303005247,新規,0,2024-08-05,2024-08-05,ＨＫＣ　ｍｅｄｉｃａｌ合同会社,,合同会社,東京都,杉並区,成田西１丁目１６－３８,,13,115,1660016,,,,,,,2024-08-05,1,,,,,エイチケーシーメディカル,0
2448,9011601027967,新規,0,2024-08-05,2024-08-05,ハッピークエスト株式会社,,株式会社,東京都,練馬区,谷原６丁目７番１号ヴィラコート．ハイム１０２号室,,13,120,1770032,,,,,,,2024-08-05,1,,,,,ハッピークエスト,0
2450,9011703003924,新規,0,2024-08-05,2024-08-05,健康合同会社,,合同会社,東京都,江戸川区,本一色１丁目７番８号,,13,123,1330044,,,,,,,2024-08-05,1,,,,,ケンコウ,0
2451,9011703003932,新規,0,2024-08-05,2024-08-05,合同会社Ｇ．Ｕ．Ｃ,,合同会社,東京都,江戸川区,東葛西６丁目６番１－３０５号サバーバン葛西,,13,123,1340084,,,,,,,2024-08-05,1,,,,,ジーユーシー,0
2452,9011801044655,新規,0,2024-08-05,2024-08-05,株式会社高山裁断,00135802,株式会社,東京都,足立区,西新井本町３丁目７番１７号,,13,121,1230845,,,,,,,2024-08-05,1,,,,,タカヤマサイダン,0
2454,9011803006380,新規,0,2024-08-05,2024-08-05,合同会社リベルタ,,合同会社,東京都,葛飾区,五丁目８番１号コールモア３０２号,,13,122,1240000,,,,,,,2024-08-05,1,,,,,リベルタ,0
2456,9012401042149,新規,0,2024-08-05,2024-08-05,株式会社サンクイン,,株式会社,東京都,府中市,晴見町３丁目２２番７号,,13,206,1830057,,,,,,,2024-08-05,1,,,,,サンクイン,0
2459,9012405005028,新規,0,2024-08-05,2024-08-05,一般社団法人ＩＴフリーランスラボ,,その他の設立登記法人,東京都,府中市,寿町１丁目４番地１７,,13,206,1830056,,,,,,,2024-08-05,1,,,,,アイティーフリーランスラボ,0
2460,9012801023368,新規,0,2024-08-05,2024-08-05,株式会社Ｋ‐ＴＲＵＳＴ,,株式会社,東京都,国分寺市,富士本１丁目１０番地４５,,13,214,1850031,,,,,,,2024-08-05,1,,,,,ケートラスト,0
2463,9013301052931,新規,0,2024-08-05,2024-08-05,株式会社ＥＳＰＯＲＴＳ　ＴＥＣＨ,,株式会社,東京都,豊島区,池袋１丁目７番１８号,,13,116,1700014,,,,,,,2024-08-05,1,,,,,イースポーツテック,0
2464,9013303007231,新規,0,2024-08-05,2024-08-05,合同会社ＷＥＳＴ　ＳＩＤＥ,,合同会社,東京都,豊島区,西池袋１丁目４０－５名取ビル７階,,13,116,1710021,,,,,,,2024-08-05,1,,,,,ウエストサイド,0
2471,9020001158298,新規,0,2024-08-05,2024-08-05,ネオトモ株式会社,,株式会社,神奈川県,横浜市西区,みなとみらい３丁目７－１オーシャンゲートみなとみらい８Ｆ,,14,103,2200012,,,,,,,2024-08-05,1,,,,,ネオトモ,0
2472,9020001158315,新規,0,2024-08-05,2024-08-05,株式会社ニシカワ内装,,株式会社,神奈川県,横浜市泉区,岡津町１４７４番地５,,14,116,2450003,,,,,,,2024-08-05,1,,,,,ニシカワナイソウ,0
2473,9020001158323,新規,0,2024-08-05,2024-08-05,株式会社Ｔ‐ＳＴＹＬＥ,,株式会社,神奈川県,横浜市西区,北幸２丁目１０番４８号むつみビル３階,,14,103,2200004,,,,,,,2024-08-05,1,,,,,ティースタイル,0
2479,9020005016493,新規,0,2024-08-05,2024-08-05,一般社団法人いいんだよ,,その他の設立登記法人,神奈川県,川崎市中原区,木月３丁目９番１０号,,14,133,2110025,,,,,,,2024-08-05,1,,,,,イインダヨ,0
2482,9021001082901,新規,0,2024-08-05,2024-08-05,株式会社ストロング,,株式会社,神奈川県,茅ヶ崎市,東海岸北１丁目２番４号,,14,207,2530053,,,,,,,2024-08-05,1,,,,,ストロング,0
2486,9030001161813,新規,0,2024-08-05,2024-08-05,株式会社ＴＬｕｃｋ,,株式会社,埼玉県,川口市,弥平１丁目７番１－１１０号,,11,203,3320002,,,,,,,2024-08-05,1,,,,,ティーラック,0
2493,9030003024877,新規,0,2024-08-05,2024-08-05,合同会社訪問看護ステーションうさぎ,,合同会社,埼玉県,越谷市,北越谷１丁目１３－３９,,11,222,3430026,,,,,,,2024-08-05,1,,,,,ホウモンカンゴステーションウサギ,0
2502,9040001134735,新規,0,2024-08-05,2024-08-05,株式会社Ｂ　ＢＵＦＦＥＲ,,株式会社,千葉県,松戸市,松戸１２２８－１松戸ステーションビル５Ｆ,,12,207,2710092,,,,,,,2024-08-05,1,,,,,ビーバッファー,0
2503,9040001134776,新規,0,2024-08-05,2024-08-05,株式会社ケイエイチシステム,,株式会社,千葉県,市川市,大野町１丁目３７１番地６,,12,203,2720805,,,,,,,2024-08-05,1,,,,,ケイエイチシステム,0
2504,9040001134792,新規,0,2024-08-05,2024-08-05,株式会社ＭＩＣ,,株式会社,千葉県,市川市,市川１丁目１２番１９号エイドビル１Ｆ,,12,203,2720034,,,,,,,2024-08-05,1,,,,,エムアイシー,0
2508,9050003008580,新規,0,2024-08-05,2024-08-05,スミヒリ合同会社,,合同会社,茨城県,筑西市,田宿９８１番地,,08,227,3004505,,,,,,,2024-08-05,1,,,,,スミヒリ,0
2514,9070002037785,新規,0,2024-08-05,2024-08-05,有限会社高橋アルミ工業,,有限会社,群馬県,高崎市,箕郷町矢原１０６０番地３１,,10,202,3703107,,,,,,,2024-08-05,1,,,,,,0
2516,9080001026409,新規,0,2024-08-05,2024-08-05,株式会社サウンド．エンジニアリング,,株式会社,静岡県,焼津市,石津２５３番地の５,,22,212,4250041,,,,,,,2024-08-05,1,,,,,サウンドエンジニアリング,0
2519,9080103003108,新規,0,2024-08-05,2024-08-05,合同会社ＮＯＩＲ,,合同会社,静岡県,富士宮市,粟倉南町１４２番地の２,,22,207,4180018,,,,,,,2024-08-05,1,,,,,ノワール,0
2531,9100003007684,新規,0,2024-08-05,2024-08-05,合同会社Ｍ＆Ｓ,,合同会社,長野県,長野市,大字北長池２４７番地４,,20,201,3810025,,,,,,,2024-08-05,1,,,,,エムアンドエス,0
2546,9120001267436,新規,0,2024-08-05,2024-08-05,株式会社Ｏｎｏｍａｔｏｐｏｅｉａ,,株式会社,大阪府,大阪市北区,梅田１丁目１番３号大阪駅前第３ビル２９階１－１－１号室,,27,127,5300001,,,,,,,2024-08-05,1,,,,,オノマトペ,0
2547,9120001267444,新規,0,2024-08-05,2024-08-05,株式会社ルミナス,,株式会社,大阪府,大阪市中央区,南船場１丁目１６番２号,,27,128,5420081,,,,,,,2024-08-05,1,,,,,ルミナス,0
2548,9120001267452,新規,0,2024-08-05,2024-08-05,株式会社クレリブ,,株式会社,大阪府,大阪市北区,梅田１丁目２番２号大阪駅前第２ビル１２－１２,,27,127,5300001,,,,,,,2024-08-05,1,,,,,クレリブ,0
2549,9120001267460,新規,0,2024-08-05,2024-08-05,株式会社桜和資本,,株式会社,大阪府,大阪市中央区,本町２丁目３番４号アソルティ本町４Ｆ,,27,128,5410053,,,,,,,2024-08-05,1,,,,,オウワシホン,0
2550,9120001267493,新規,0,2024-08-05,2024-08-05,株式会社ＰＧＧ,,株式会社,大阪府,交野市,星田８丁目８番８号,,27,230,5760016,,,,,,,2024-08-05,1,,,,,ピージージー,0
2553,9120101070104,新規,0,2024-08-05,2024-08-05,三晃アグリサービス株式会社,,株式会社,大阪府,松原市,岡５丁目１番２号,,27,217,5800014,,,,,,,2024-08-05,1,,,,,サンコウアグリサービス,0
2566,9140001135384,新規,0,2024-08-05,2024-08-05,アエリアリンク株式会社,,株式会社,兵庫県,西宮市,甲陽園目神山町２１番９号,,28,204,6620011,,,,,,,2024-08-05,1,,,,,アエリアリンク,0
2573,9140003020907,新規,0,2024-08-05,2024-08-05,ＣｒａｆｔｍａｎｓＧａｒｄｅｎ合同会社,,合同会社,兵庫県,たつの市,誉田町広山４９３－１,,28,229,6794134,,,,,,,2024-08-05,1,,,,,クラフトマンズガーデン,0
2580,9160003003265,新規,0,2024-08-05,2024-08-05,岡吉合同会社,,合同会社,滋賀県,大津市,仰木の里６丁目１番６号,,25,201,5200246,,,,,,,2024-08-05,1,,,,,オカキチ,0
2592,9180301038928,新規,0,2024-08-05,2024-08-05,株式会社ＫＴＭ急配,,株式会社,愛知県,岡崎市,美合町字中長根３６番地６０７,,23,202,4440802,,,,,,,2024-08-05,1,,,,,ケーティーエムキュウハイ,0
2593,9210001019852,新規,0,2024-08-05,2024-08-05,株式会社創咲の家,,株式会社,福井県,福井市,木田町１９１４,,18,201,9188106,,,,,,,2024-08-05,1,,,,,ソウサクノイエ,0
2594,9210001019860,新規,0,2024-08-05,2024-08-05,株式会社Ｙｏｓｈｉｚａｗａ,,株式会社,福井県,坂井市,丸岡町上安田第２号２７番地３,,18,210,9100362,,,,,,,2024-08-05,1,,,,,ヨシザワ,0
2606,9290001106536,新規,0,2024-08-05,2024-08-05,株式会社ＩＳＫ,,株式会社,福岡県,福岡市博多区,博多駅前４丁目１５番６号,,40,132,8120011,,,,,,,2024-08-05,1,,,,,アイエスケー,0
2607,9290001106858,新規,0,2024-08-05,2024-08-05,株式会社サンクカール,,株式会社,福岡県,福岡市中央区,平尾浄水町９番１０,,40,133,8100029,,,,,,,2024-08-05,1,,,,,サンクカール,0
2616,9290801030753,新規,0,2024-08-05,2024-08-05,株式会社アシスト,,株式会社,福岡県,田川郡糸田町,１７６９番地３,,40,604,8221300,,,,,,,2024-08-05,1,,,,,アシスト,0
2617,9290801030761,新規,0,2024-08-05,2024-08-05,株式会社ＬＥＤ　ＬＡＢＯ,,株式会社,福岡県,北九州市八幡西区,西曲町８番１０号,,40,109,8060000,,,,,,,2024-08-05,1,,,,,エルイーディーラボ,0
2620,9310001019149,新規,0,2024-08-05,2024-08-05,株式会社ミライエ不動産,,株式会社,長崎県,長崎市,上野町１番１号１Ｆ,,42,201,8528113,,,,,,,2024-08-05,1,,,,,ミライエフドウサン,0
2622,9320003004445,新規,0,2024-08-05,2024-08-05,合同会社ファイブサン,,合同会社,大分県,津久見市,中央町６番１８号,,44,207,8792441,,,,,,,2024-08-05,1,,,,,ファイブサン,0
2623,9320005010177,新規,0,2024-08-05,2024-08-05,宗教法人大宇真霊教,,その他の設立登記法人,大分県,別府市,大字鉄輪３６１番地の１,,44,202,8740000,,,,,,,2024-08-05,1,,,,,ダイウシンレイキョウ,0
2627,9340003004559,新規,0,2024-08-05,2024-08-05,合同会社ｅ’ｃｒｕ,,合同会社,鹿児島県,鹿児島市,武２丁目１番３号ウエストサイド武１Ｆ,,46,201,8900045,,,,,,,2024-08-05,1,,,,,エクリュ,0
2628,9350001019129,新規,0,2024-08-05,2024-08-05,株式会社ＭＩＵ,,株式会社,宮崎県,宮崎市,橘通西３丁目３番４号大太鼓ビル,,45,201,8800001,,,,,,,2024-08-05,1,,,,,エムアイユー,0
2629,9360001034036,新規,0,2024-08-05,2024-08-05,株式会社将開発,,株式会社,沖縄県,那覇市,寄宮１丁目１７番１３号,,47,201,9020064,,,,,,,2024-08-05,1,,,,,ショウカイハツ,0
2631,9370001051583,新規,0,2024-08-05,2024-08-05,株式会社ＪＵＮＩ,,株式会社,宮城県,仙台市青葉区,国分町２丁目１５番２０号よごろうビル２Ｆ,,04,101,9800803,,,,,,,2024-08-05,1,,,,,ジュニ,0
2638,9380001034711,新規,0,2024-08-05,2024-08-05,株式会社みらいエンタープライズ,,株式会社,福島県,福島市,早稲町５番１７号,,07,201,9608044,,,,,,,2024-08-05,1,,,,,ミライエンタープライズ,0
2639,9380003005834,新規,0,2024-08-05,2024-08-05,合同会社ＡＩＮＳＥＬ,,合同会社,福島県,会津若松市,八角町８番１号エミネンス１０１,,07,202,9650009,,,,,,,2024-08-05,1,,,,,エインセル,0
2641,9390001017698,新規,0,2024-08-05,2024-08-05,株式会社ｕｂｕ,,株式会社,山形県,東根市,中央２丁目１９番２１号,,06,211,9993711,,,,,,,2024-08-05,1,,,,,ウブ,0
2643,9410001013901,新規,0,2024-08-05,2024-08-05,株式会社せんじゅ,,株式会社,秋田県,秋田市,大町５丁目１番２５号,,05,201,0100921,,,,,,,2024-08-05,1,,,,,センジュ,0
2644,9410003003966,新規,0,2024-08-05,2024-08-05,合同会社ホビット,,合同会社,秋田県,由利本荘市,薬師堂字一番堰７３番地１ＺｉＮＯＢＡＢ棟２０３号室,,05,210,0150041,,,,,,,2024-08-05,1,,,,,ホビット,0
2647,9430001092407,新規,0,2024-08-05,2024-08-05,株式会社野口工業,,株式会社,北海道,札幌市東区,中沼西四条１丁目５番６号,,01,103,0070894,,,,,,,2024-08-05,1,,,,,ノグチコウギョウ,0
2648,9430001092415,新規,0,2024-08-05,2024-08-05,株式会社Ｖｉｅｗｅｒ　Ｅｌｅｃ,,株式会社,北海道,札幌市白石区,菊水元町二条５丁目２番１５号,,01,104,0030822,,,,,,,2024-08-05,1,,,,,ビュアーエレック,0
2649,9430003016636,新規,0,2024-08-05,2024-08-05,合同会社ＬＡＫＩＮＡ,,合同会社,北海道,札幌市手稲区,前田七条１１丁目８番１８号,,01,109,0060817,,,,,,,2024-08-05,1,,,,,ラキナ,0
2651,9460103001642,新規,0,2024-08-05,2024-08-05,合同会社佐藤商事,,合同会社,北海道,帯広市,東三条南１７丁目１０番地２カトルセゾン１０１号室,,01,207,0800803,,,,,,,2024-08-05,1,,,,,サトウショウジ,0
2653,9470001020322,新規,0,2024-08-05,2024-08-05,Ｈｏｒｉｚｏｎ．ＮＺＫ株式会社,,株式会社,香川県,木田郡三木町,大字井戸１１３５番地５,,37,341,7610823,,,,,,,2024-08-05,1,,,,,ホライゾンエヌゼットケイ,0
2654,9470001020330,新規,0,2024-08-05,2024-08-05,香川レンタ株式会社,,株式会社,香川県,木田郡三木町,大字池戸９３１番地９,,37,341,7610701,,,,,,,2024-08-05,1,,,,,カガワレンタ,0
2658,9500005008723,新規,0,2024-08-05,2024-08-05,一般社団法人奏和会,,その他の設立登記法人,愛媛県,松山市,余戸南５丁目４番１号,,38,201,7900047,,,,,,,2024-08-05,1,,,,,ソウワカイ,0
2661,9700150126656,新規,0,2024-08-05,2024-08-05,Ｗｈｅｅｌｓ　Ａｕｔｏ　Ｔｒａｄｉｎｇ,,外国会社等,千葉県,大網白里市,南今泉６６７番地２オフィス２,,12,239,2993202,スリランカ民主社会主義共和国、アクラナ、デメテガムルテンネ、Ｎｏ．２４３,,,,,,2024-08-05,1,,,,,ホイールズオートトレーデイング,0
