sequenceNumber,corporateNumber,process,correct,updateDate,changeDate,name,nameImageId,kind,prefectureName,cityName,streetNumber,addressImageId,prefectureCode,cityCode,postCode,addressOutside,addressOutsideImageId,closeDate,closeCause,successorCorporateNumber,changeCause,assignmentDate,latest,enName,enPrefectureName,enCityName,enAddressOutside,furigana,hihyoji
12,1010401067099,登記記録の閉鎖等,0,2021-08-27,2021-08-10,株式会社ドリームファクトリー,,株式会社,東京都,渋谷区,代々木２丁目２７番１６号ハイシティ代々木３０３,,13,113,1510053,,,2021-08-10,清算の結了等,,,2015-10-05,1,,,,,ドリームファクトリー,0
29,1010601057916,登記記録の閉鎖等,0,2021-08-27,2021-08-11,株式会社ｕｒａｃａ,,株式会社,東京都,墨田区,業平１丁目１８番５号,,13,107,1300002,,,2021-08-11,清算の結了等,,,2020-09-07,1,,,,,ウラカ,0
30,1010605002629,登記記録の閉鎖等,0,2021-08-27,2021-08-10,一般社団法人ラップルウイング工法協会,,その他の設立登記法人,東京都,墨田区,両国２丁目１番７号,,13,107,1300026,,,2021-08-10,清算の結了等,,,2015-10-05,1,,,,,ラップルウイングコウホウキョウカイ,0
40,1010902010524,登記記録の閉鎖等,0,2021-08-27,2021-08-19,有限会社ドゥーラ,,有限会社,東京都,世田谷区,祖師谷６丁目１３番地１３号,,13,112,1570072,,,2021-08-19,清算の結了等,,,2015-10-05,1,,,,,ドゥーラ,0
43,1011001127111,登記記録の閉鎖等,0,2021-08-27,2021-08-02,株式会社ＡＢＯＵＴ　ＬＩＦＥ,,株式会社,東京都,渋谷区,道玄坂１丁目１９－８,,13,113,1500043,,,2021-08-02,合併による解散等,4010901034793,令和３年８月１日東京都目黒区上目黒二丁目１４番１号株式会社ＯＮＩＢＵＳ（4010901034793）に合併し解散,2019-03-18,1,,,,,アバウトライフ,0
53,1011503002258,登記記録の閉鎖等,0,2021-08-27,2021-08-25,合同会社ファイヤアーベント,,合同会社,東京都,北区,赤羽西６丁目１０番２１－１０６号東興マンション,,13,117,1150055,,,2021-08-25,清算の結了等,,,2015-10-05,1,,,,,,0
67,1012302000106,登記記録の閉鎖等,0,2021-08-27,2021-08-11,有限会社アシスト・ツカサ,,有限会社,東京都,町田市,南成瀬２丁目２４番地１０,,13,209,1940045,,,2021-08-11,清算の結了等,,,2015-10-05,1,,,,,アシストツカサ,0
69,1012305001266,登記記録の閉鎖等,0,2021-08-27,2021-08-16,特定非営利活動法人福祉住環境改善センター,,その他の設立登記法人,東京都,町田市,能ヶ谷６丁目２番１号,,13,209,1950053,,,2021-08-16,清算の結了等,,,2015-10-05,1,,,,,フクシジュウカンキョウカイゼンセンター,0
74,1012702002734,登記記録の閉鎖等,0,2021-08-27,2021-08-25,有限会社栄富士工業,,有限会社,東京都,東村山市,廻田町１丁目２７番地１２,,13,213,1890025,,,2021-08-25,清算の結了等,,,2015-10-05,1,,,,,サカエフジコウギョウ,0
76,1012801017427,登記記録の閉鎖等,0,2021-08-27,2021-08-19,株式会社ティーエーピー,,株式会社,東京都,立川市,幸町１丁目２１番地１,,13,202,1900002,,,2021-08-19,清算の結了等,,,2016-08-02,1,,,,,ティーエーピー,0
77,1012802000051,登記記録の閉鎖等,0,2021-08-27,2021-08-23,有限会社アーバンブレイン開発,,有限会社,東京都,立川市,曙町１丁目１６番１号－４０２,00059097,13,202,1900012,,,2021-08-23,合併による解散等,2010003033985,令和３年７月３１日東京都中央区日本橋本町三丁目３番６号合同会社ＬＯＶＥ　ＡＬＬ（2010003033985）に合併し解散,2015-10-05,1,,,,,,0
86,1013401007082,登記記録の閉鎖等,0,2021-08-27,2021-08-25,株式会社エスペランサ,,株式会社,東京都,あきる野市,小峰台３７番１,,13,228,1900153,,,2021-08-25,清算の結了等,,,2015-10-05,1,,,,,,0
103,1020003018978,登記記録の閉鎖等,0,2021-08-27,2021-08-20,合同会社オトーニョ,,合同会社,神奈川県,横浜市磯子区,洋光台４丁目４２番４３号,,14,107,2350045,,,2021-08-20,清算の結了等,,,2020-12-21,1,,,,,オトーニョ,0
117,1030001113755,登記記録の閉鎖等,0,2021-08-27,2021-08-11,株式会社木づくり住建,,株式会社,埼玉県,春日部市,粕壁東６丁目１９番５０号,,11,214,3440062,,,2021-08-11,清算の結了等,,,2016-04-08,1,,,,,キヅクリジュウケン,0
127,1030002086471,登記記録の閉鎖等,0,2021-08-27,2021-08-17,有限会社下田商店,,有限会社,埼玉県,越谷市,弥栄町３丁目４３番地１２８,,11,222,3430046,,,2021-08-17,清算の結了等,,,2015-10-05,1,,,,,シモダショウテン,0
150,1080402014928,登記記録の閉鎖等,0,2021-08-27,2021-08-25,有限会社伎倍工務店,,有限会社,静岡県,浜松市浜北区,西美薗２０２５番地の１０,,22,136,4340033,,,2021-08-25,清算の結了等,,,2015-10-05,1,,,,,キベコウムテン,0
191,1130002009372,登記記録の閉鎖等,0,2021-08-27,2021-08-24,有限会社ミッキーハウス,,有限会社,京都府,京都市西京区,牛ケ瀬川原口町２３番地,,26,111,6158042,,,2021-08-24,清算の結了等,,,2015-10-05,1,,,,,ミッキーハウス,0
196,1150002011525,登記記録の閉鎖等,0,2021-08-27,2021-08-25,有限会社東海クワガタ販売,,有限会社,奈良県,大和高田市,大字高田１４１５番地３,,29,202,6350022,,,2021-08-25,清算の結了等,,,2015-10-05,1,,,,,トウカイクワガタハンバイ,0
216,1240001054417,登記記録の閉鎖等,0,2021-08-27,2021-08-18,不二マイクロバブル株式会社,,株式会社,広島県,広島市南区,宇品東６丁目１番７５－３０２号,,34,103,7340003,,,2021-08-18,清算の結了等,,,2019-05-28,1,,,,,フジマイクロバブル,0
218,1260002028624,登記記録の閉鎖等,0,2021-08-27,2021-08-24,誠和工業有限会社,,有限会社,岡山県,津山市,中原１３２番地,,33,203,7080854,,,2021-08-24,清算の結了等,,,2015-10-05,1,,,,,セイワコウギョウ,0
229,1290802013046,登記記録の閉鎖等,0,2021-08-27,2021-08-16,有限会社元田防災,,有限会社,福岡県,北九州市八幡東区,中畑１丁目３番３１号,,40,108,8050024,,,2021-08-16,清算の結了等,,,2015-10-05,1,,,,,モトダボウサイ,0
241,1370001004334,登記記録の閉鎖等,0,2021-08-27,2021-08-20,株式会社東北製材木工機商会,,株式会社,宮城県,仙台市若林区,若林５丁目８番１４号,,04,103,9840826,,,2021-08-20,清算の結了等,,,2015-10-05,1,,,,,トウホクセイザイモッコウキショウカイ,0
245,1370401000536,登記記録の閉鎖等,0,2021-08-27,2021-08-18,東北ライス販売株式会社,,株式会社,宮城県,登米市,迫町北方字舟橋前３３番地,,04,212,9870513,,,2021-08-18,清算の結了等,,,2015-10-05,1,,,,,トウホクライスハンバイ,0
263,1480002001864,登記記録の閉鎖等,0,2021-08-27,2021-08-26,斎藤果物有限会社,,有限会社,徳島県,徳島市,元町１丁目９番地,,36,201,7700834,,,2021-08-26,清算の結了等,,,2015-10-05,1,,,,,サイトウクダモノ,0
279,2010401109750,登記記録の閉鎖等,0,2021-08-27,2021-08-12,株式会社イノセント,,株式会社,東京都,港区,北青山２丁目７－１３プラセオ青山ビル３Ｆ,,13,103,1070061,,,2021-08-12,清算の結了等,,,2015-10-05,1,,,,,イノセント,0
292,2010502004826,登記記録の閉鎖等,0,2021-08-27,2021-08-20,有限会社サカモト,,有限会社,東京都,台東区,千束１丁目６番７号,,13,106,1110031,,,2021-08-20,清算の結了等,,,2015-10-05,1,,,,,サカモト,0
301,2010701023734,登記記録の閉鎖等,0,2021-08-27,2021-08-26,ノアー・エアークラフト株式会社,,株式会社,岡山県,岡山市南区,福富東２丁目２０番６号,,33,104,7028033,,,2021-08-26,清算の結了等,,,2015-10-05,1,,,,,ノアーエアークラフト,0
310,2010903002767,登記記録の閉鎖等,0,2021-08-27,2021-08-24,ラヂコネクション合同会社,,合同会社,東京都,世田谷区,世田谷１丁目１６番９号,,13,112,1540017,,,2021-08-24,清算の結了等,,,2015-10-05,1,,,,,ラヂコネクション,0
364,2030002008466,登記記録の閉鎖等,0,2021-08-27,2021-08-17,有限会社ダイイチ資材,,有限会社,埼玉県,さいたま市西区,大字内野本郷５２９番地,,11,101,3310045,,,2021-08-17,清算の結了等,,,2015-10-05,1,,,,,ダイイチシザイ,0
383,2040005003637,登記記録の閉鎖等,0,2021-08-27,2021-08-20,特定非営利活動法人福祉情報センター,,その他の設立登記法人,千葉県,船橋市,本中山３丁目２１番５号,,12,204,2730035,,,2021-08-20,清算の結了等,,,2015-10-05,1,,,,,フクシジョウホウセンター,0
389,2060002000305,登記記録の閉鎖等,0,2021-08-27,2021-08-19,有限会社関東地所,,有限会社,栃木県,宇都宮市,今泉２丁目２番１７号,,09,201,3210966,,,2021-08-19,清算の結了等,,,2015-10-05,1,,,,,カントウジショ,0
390,2060002036101,登記記録の閉鎖等,0,2021-08-27,2021-08-19,有限会社小暮車体工業,,有限会社,栃木県,足利市,田島町１丁目１番地１０,,09,202,3260061,,,2021-08-19,清算の結了等,,,2015-10-05,1,,,,,コグレシャタイコウギョウ,0
395,2080001020731,登記記録の閉鎖等,0,2021-08-27,2021-08-25,アートランド株式会社,,株式会社,静岡県,藤枝市,仮宿１６５０番地の１,,22,214,4260001,,,2021-08-25,清算の結了等,,,2016-02-03,1,,,,,アートランド,0
452,2160003001878,登記記録の閉鎖等,0,2021-08-27,2021-08-25,合同会社ヒコヨシ,,合同会社,滋賀県,東近江市,横溝町７４５番地,,25,213,5270135,,,2021-08-25,清算の結了等,,,2019-08-06,1,,,,,ヒコヨシ,0
462,2180302004596,登記記録の閉鎖等,0,2021-08-27,2021-08-26,有限会社綜和アソシエイツ,,有限会社,愛知県,岡崎市,井田町字茨坪４番地８３,00074897,23,202,4440077,,,2021-08-26,清算の結了等,,,2015-10-05,1,,,,,ソウワアソシエイツ,0
468,2200002008201,登記記録の閉鎖等,0,2021-08-27,2021-08-25,有限会社ファッションナカムラ,,有限会社,岐阜県,各務原市,成清町７丁目１７番地,,21,213,5040935,,,2021-08-25,清算の結了等,,,2015-10-05,1,,,,,ファッションナカムラ,0
473,2210001016088,登記記録の閉鎖等,0,2021-08-27,2021-08-25,株式会社Ｋプランニング,,株式会社,福井県,福井市,毛矢１丁目５番７号,,18,201,9188003,,,2021-08-25,清算の結了等,,,2015-10-05,1,,,,,ケープランニング,0
477,2240002022438,登記記録の閉鎖等,0,2021-08-27,2021-08-17,有限会社ケイアイディー,,有限会社,広島県,広島市佐伯区,皆賀３丁目１番２５－５０２号,,34,108,7315124,,,2021-08-17,清算の結了等,,,2015-10-05,1,,,,,ケイアイディー,0
496,2290801009606,登記記録の閉鎖等,0,2021-08-27,2021-08-16,株式会社石井石油店,,株式会社,福岡県,北九州市八幡西区,幸神４丁目１番２０号,,40,109,8060055,,,2021-08-16,清算の結了等,,,2015-10-05,1,,,,,イシイセキユテン,0
501,2330002014665,登記記録の閉鎖等,0,2021-08-27,2021-08-24,有限会社ライフサポート優,,有限会社,熊本県,熊本市北区,貢町１０６２番地,,43,105,8615535,,,2021-08-24,清算の結了等,,,2015-10-05,1,,,,,ライフサポートユウ,0
512,2370001014258,登記記録の閉鎖等,0,2021-08-27,2021-08-12,株式会社ユウアイ通建,,株式会社,宮城県,仙台市泉区,明通２丁目８－１,,04,105,9813206,,,2021-08-12,合併による解散等,5370001007804,令和３年８月１日仙台市青葉区大町二丁目１５番２８号エクシオ・エンジニアリング東北株式会社（5370001007804）に合併し解散,2015-10-05,1,,,,,ユウアイツウケン,0
517,2410005001487,登記記録の閉鎖等,0,2021-08-27,2021-08-25,企業組合まつざきデイサービス,,その他の設立登記法人,秋田県,秋田市,下北手松崎字家ノ前４番地の４,,05,201,0100051,,,2021-08-25,清算の結了等,,,2015-10-05,1,,,,,マツザキデイサービス,0
534,2480005005457,登記記録の閉鎖等,0,2021-08-27,2021-08-26,医療法人大池会,,その他の設立登記法人,徳島県,三好市,池田町シマ６９１番地,,36,208,7780005,,,2021-08-26,清算の結了等,,,2015-10-05,1,,,,,オオイケカイ,0
557,3010601032388,登記記録の閉鎖等,0,2021-08-27,2021-08-11,日本鰹鮪漁業開発株式会社,,株式会社,東京都,江東区,永代２丁目３１番１号,,13,108,1350034,,,2021-08-11,清算の結了等,,,2015-10-05,1,,,,,ニホンカツオマグロギョギョウカイハツ,0
569,3011102002310,登記記録の閉鎖等,0,2021-08-27,2021-08-16,有限会社エム・ワン・ファッション,,有限会社,東京都,新宿区,矢来町４番地,,13,104,1620805,,,2021-08-16,清算の結了等,,,2015-10-05,1,,,,,エムワンファッション,0
573,3011401019963,登記記録の閉鎖等,0,2021-08-27,2021-08-23,株式会社ライズジャパン,,株式会社,東京都,北区,西ケ原４丁目７番１０号,,13,117,1140024,,,2021-08-23,清算の結了等,,,2017-01-11,1,,,,,ライズジャパン,0
593,3012402014978,登記記録の閉鎖等,0,2021-08-27,2021-08-06,有限会社フクマル管財,,有限会社,東京都,国立市,中１丁目１４番地の２９,,13,215,1860004,,,2021-08-06,清算の結了等,,,2015-10-05,1,,,,,,0
602,3013302011677,登記記録の閉鎖等,0,2021-08-27,2021-08-16,有限会社東京話し方センター,,有限会社,埼玉県,和光市,本町２１番１９号,,11,229,3510114,,,2021-08-16,清算の結了等,,,2015-10-05,1,,,,,トウキョウハナシカタセンター,0
606,3020001064477,登記記録の閉鎖等,0,2021-08-27,2021-08-23,株式会社東和製作所,,株式会社,神奈川県,川崎市高津区,末長１丁目２４番３７号２０２,,14,134,2130013,,,2021-08-23,清算の結了等,,,2015-10-05,1,,,,,トウワセイサクショ,0
615,3020002067074,登記記録の閉鎖等,0,2021-08-27,2021-08-19,有限会社アールビーティー,,有限会社,神奈川県,横浜市神奈川区,旭ケ丘１５番２９号,,14,102,2210814,,,2021-08-19,清算の結了等,,,2015-10-05,1,,,,,アールビーティー,0
628,3021002020114,登記記録の閉鎖等,0,2021-08-27,2021-08-19,有限会社コトブキ,,有限会社,神奈川県,相模原市南区,上鶴間４丁目２９番３－３０３号,,14,153,2520302,,,2021-08-19,清算の結了等,,,2015-10-05,1,,,,,,0
632,3030001035832,登記記録の閉鎖等,0,2021-08-27,2021-08-16,株式会社岩崎金型製作所,,株式会社,埼玉県,八潮市,大字大原４７８番地,,11,234,3400825,,,2021-08-16,清算の結了等,,,2015-10-05,1,,,,,イワサキカナガタセイサクショ,0
633,3030001036673,登記記録の閉鎖等,0,2021-08-27,2021-08-16,興進鋼業株式会社,,株式会社,埼玉県,三郷市,高州２丁目１１７番地,,11,237,3410037,,,2021-08-16,清算の結了等,,,2015-10-05,1,,,,,,0
639,3030002031442,登記記録の閉鎖等,0,2021-08-27,2021-08-17,有限会社メタル・エス,,有限会社,埼玉県,所沢市,大字城８４４番１,,11,208,3590013,,,2021-08-17,清算の結了等,,,2015-10-05,1,,,,,メタルエス,0
643,3030003011716,登記記録の閉鎖等,0,2021-08-27,2021-08-16,合同会社羊さん,,合同会社,埼玉県,狭山市,大字水野９４９番地の１７,,11,215,3501317,,,2021-08-16,清算の結了等,,,2018-04-10,1,,,,,ヒツジサン,0
649,3040003012052,登記記録の閉鎖等,0,2021-08-27,2021-08-19,合同会社Ｓ,,合同会社,千葉県,市川市,原木１丁目２番２２号ファミール原木中山３０８号室,,12,203,2720004,,,2021-08-19,清算の結了等,,,2018-08-16,1,,,,,エス,0
658,3070001015962,登記記録の閉鎖等,0,2021-08-27,2021-08-25,株式会社宏和陸運,,株式会社,群馬県,桐生市,梅田町１丁目５８１番地の１,,10,203,3760601,,,2021-08-25,清算の結了等,,,2015-10-05,1,,,,,コウワリクウン,0
667,3110002007426,登記記録の閉鎖等,0,2021-08-27,2021-08-24,有限会社アド・オフィス・タキ,,有限会社,新潟県,新潟市西区,青山新町２５番地２１,,15,107,9502006,,,2021-08-24,清算の結了等,,,2015-10-05,1,,,,,アドオフィスタキ,0
668,3110002030064,登記記録の閉鎖等,0,2021-08-27,2021-08-25,有限会社アイ・プラ,,有限会社,新潟県,長岡市,上除町甲１１７番地１７,,15,202,9402033,,,2021-08-25,清算の結了等,,,2015-10-05,1,,,,,アイプラ,0
678,3120001225341,登記記録の閉鎖等,0,2021-08-27,2021-08-20,株式会社インフ,,株式会社,大阪府,大阪市北区,東天満２丁目６番８号篠原東天満ビル８０２号室,,27,127,5300044,,,2021-08-20,清算の結了等,,,2019-11-27,1,,,,,インフ,0
685,3120002049112,登記記録の閉鎖等,0,2021-08-27,2021-08-26,有限会社ロジ・キャスト,,有限会社,兵庫県,神戸市中央区,磯上通４丁目３番１０号,,28,110,6510086,,,2021-08-26,清算の結了等,,,2015-10-05,1,,,,,ロジキャスト,0
697,3140001014593,登記記録の閉鎖等,0,2021-08-27,2021-08-26,神戸牛乳株式会社,,株式会社,兵庫県,神戸市兵庫区,上沢通３丁目１番１６－１５０１号,,28,105,6520046,,,2021-08-26,清算の結了等,,,2015-10-05,1,,,,,コウベギュウニュウ,0
712,3170003000333,登記記録の閉鎖等,0,2021-08-27,2021-08-24,合資会社中山光栄社印刷所,,合資会社,和歌山県,紀の川市,名手市場２７７番地の１,,30,208,6496631,,,2021-08-24,清算の結了等,,,2015-10-05,1,,,,,ナカヤマコウエイシャインサツショ,0
725,3200001001247,登記記録の閉鎖等,0,2021-08-27,2021-08-26,岐阜県青果荷受株式会社,,株式会社,岐阜県,岐阜市,島原町３３番地,,21,201,5008438,,,2021-08-26,清算の結了等,,,2015-10-05,1,,,,,ギフケンセイカニウケ,0
738,3270003000892,登記記録の閉鎖等,0,2021-08-27,2021-08-23,合同会社コミュニティ・らいふ,,合同会社,鳥取県,米子市,冨士見町２丁目１４４番地,,31,202,6830055,,,2021-08-23,清算の結了等,,,2016-01-08,1,,,,,,0
763,3350002013672,登記記録の閉鎖等,0,2021-08-27,2021-08-25,有限会社松位鮮魚店,,有限会社,宮崎県,宮崎市,大橋３丁目２８３番地,,45,201,8800022,,,2021-08-25,清算の結了等,,,2015-10-05,1,,,,,マツイセンギョテン,0
765,3360001026303,登記記録の閉鎖等,0,2021-08-27,2021-08-16,株式会社真和電気,,株式会社,沖縄県,豊見城市,字金良４２８番地９,,47,212,9010204,,,2021-08-16,清算の結了等,,,2019-10-08,1,,,,,シンワデンキ,0
773,3370802001577,登記記録の閉鎖等,0,2021-08-27,2021-08-20,有限会社山元研磨工業,,有限会社,宮城県,白石市,福岡長袋字上ノ神明前４３番地１２,,04,206,9890232,,,2021-08-20,清算の結了等,,,2015-10-05,1,,,,,ヤマモトケンマコウギョウ,0
775,3380002025228,登記記録の閉鎖等,0,2021-08-27,2021-08-24,有限会社永山造園企画,,有限会社,福島県,いわき市,平赤井比良３丁目１５２番地,,07,204,9793132,,,2021-08-24,清算の結了等,,,2015-10-05,1,,,,,ナガヤマゾウエンキカク,0
777,3400002011027,登記記録の閉鎖等,0,2021-08-27,2021-08-25,株式会社富士精工,,株式会社,岩手県,宮古市,津軽石第１０地割１６１番地１,,03,202,0270203,,,2021-08-25,清算の結了等,,,2015-10-05,1,,,,,フジセイコウ,0
781,3430001041897,登記記録の閉鎖等,0,2021-08-27,2021-08-04,ＷＢＦホテル＆リゾーツ株式会社,,株式会社,大阪府,大阪市北区,中津１丁目１１番１号,,27,127,5310071,,,2021-08-04,合併による解散等,7120001195382,令和３年８月１日大阪市北区中津一丁目１１番１号ＷＢＦホールディングス株式会社（7120001195382）に合併し解散,2015-10-05,1,,,,,ダブリュービーエフホテルアンドリゾーツ,0
842,4010701023740,登記記録の閉鎖等,0,2021-08-27,2021-08-26,シュアー・エアークラフト株式会社,,株式会社,岡山県,岡山市南区,福富東２丁目２０番６号,,33,104,7028033,,,2021-08-26,清算の結了等,,,2015-10-05,1,,,,,シュアーエアークラフト,0
848,4011001045335,登記記録の閉鎖等,0,2021-08-27,2021-08-10,ＭＣソリューションズ株式会社,,株式会社,東京都,渋谷区,広尾５丁目２３番５号,,13,113,1500012,,,2021-08-10,清算の結了等,,,2015-10-05,1,,,,,エムシーソリューションズ,0
894,4020001113571,登記記録の閉鎖等,0,2021-08-27,2021-08-24,株式会社マテリアル,,株式会社,神奈川県,横浜市西区,高島２丁目１１番２スカイメナー横浜４２２号,,14,103,2200011,,,2021-08-24,合併による解散等,4010001125650,令和３年８月１日東京都新宿区新宿四丁目３番１７号株式会社ＣＬＡＲＩＴＹ　ＳＴＵＤＩＯ（4010001125650）に合併し解散,2015-11-17,1,,,,,マテリアル,0
897,4020002099843,登記記録の閉鎖等,0,2021-08-27,2021-08-23,有限会社蘭蘭,,有限会社,神奈川県,川崎市川崎区,新川通１１番１５号,,14,131,2100013,,,2021-08-23,清算の結了等,,,2015-10-05,1,,,,,ランラン,0
914,4030002106631,登記記録の閉鎖等,0,2021-08-27,2021-08-18,双葉商事有限会社,,有限会社,埼玉県,川口市,戸塚４丁目９番１１号,,11,203,3330811,,,2021-08-18,清算の結了等,,,2015-10-05,1,,,,,フタバショウジ,0
916,4040001090223,登記記録の閉鎖等,0,2021-08-27,2021-08-19,株式会社エージェントＶ,,株式会社,千葉県,流山市,駒木台４１７番地２,,12,220,2700113,,,2021-08-19,清算の結了等,,,2015-10-05,1,,,,,エージェントブイ,0
928,4050002009139,登記記録の閉鎖等,0,2021-08-27,2021-08-25,有限会社油屋呉服店,00022669,有限会社,茨城県,東茨城郡大洗町,磯浜町１０８７番地,,08,309,3111301,,,2021-08-25,清算の結了等,,,2015-10-05,1,,,,,アブラヤゴフクテン,0
929,4050002040044,登記記録の閉鎖等,0,2021-08-27,2021-08-24,有限会社ワカギ,,有限会社,茨城県,常総市,水海道宝町３３７５番地,,08,211,3030023,,,2021-08-24,清算の結了等,,,2015-10-05,1,,,,,ワカギ,0
942,4110002015436,登記記録の閉鎖等,0,2021-08-27,2021-08-20,有限会社平田製作所,,有限会社,新潟県,新発田市,五十公野４０８９番地の３,,15,206,9570021,,,2021-08-20,清算の結了等,,,2015-10-05,1,,,,,ヒラタセイサクショ,0
944,4120001107910,登記記録の閉鎖等,0,2021-08-27,2021-08-18,株式会社日本リフォームセンター,,株式会社,大阪府,大阪市淀川区,宮原４丁目４番６４号,,27,123,5320003,,,2021-08-18,清算の結了等,,,2015-10-05,1,,,,,ニホンリフォームセンター,0
947,4120001146157,登記記録の閉鎖等,0,2021-08-27,2021-08-25,コロニアル株式会社,,株式会社,大阪府,大阪市西区,江戸堀２丁目１番１号江戸堀センタービル,,27,106,5500002,,,2021-08-25,合併による解散等,2120101045632,令和３年７月３１日大阪府岸和田市土生町二丁目２７番１２－１３０３号株式会社ロゴス（2120101045632）に合併し解散,2015-10-05,1,,,,,,0
950,4120001183596,登記記録の閉鎖等,0,2021-08-27,2021-08-23,株式会社パナ・シア,,株式会社,大阪府,大阪市旭区,清水１丁目８番２２号,,27,117,5350021,,,2021-08-23,清算の結了等,,,2015-10-05,1,,,,,パナシア,0
951,4120001213881,登記記録の閉鎖等,0,2021-08-27,2021-08-20,アティチュード株式会社,,株式会社,大阪府,大阪市東淀川区,東中島１丁目１８－４ホワイトハイツカドタ３０６号,,27,114,5330033,,,2021-08-20,清算の結了等,,,2018-06-06,1,,,,,アティチュード,0
968,4120102004180,登記記録の閉鎖等,0,2021-08-27,2021-08-26,有限会社藤原工業,,有限会社,大阪府,堺市東区,高松７２番地,,27,143,5998121,,,2021-08-26,清算の結了等,,,2015-10-05,1,,,,,フジワラコウギョウ,0
978,4130001055068,登記記録の閉鎖等,0,2021-08-27,2021-08-20,株式会社ゴールドラッシュ,,株式会社,京都府,京都市東山区,祇園花見小路四条上る西側清本町３５３番地１－１花見小路ビルＢ１,00107262,26,105,6050000,,,2021-08-20,合併による解散等,6130001006102,令和３年８月２０日京都市左京区岩倉南池田町７７番地株式会社沖潮開発（6130001006102）に合併し解散,2015-10-05,1,,,,,ゴールドラッシュ,0
980,4130003003446,登記記録の閉鎖等,0,2021-08-27,2021-08-25,Ｏｄｅｏｎ合同会社,,合同会社,京都府,京都市左京区,北白川蔦町２１番地４エルアパートメント１Ｆ,,26,103,6068262,,,2021-08-25,清算の結了等,,,2015-10-05,1,,,,,オデオン,0
990,4150005004655,登記記録の閉鎖等,0,2021-08-27,2021-08-24,奈良県開発事業協同組合,,その他の設立登記法人,奈良県,橿原市,八木町３丁目１７７番地,,29,205,6340078,,,2021-08-24,清算の結了等,,,2015-10-05,1,,,,,ナラケンカイハツ,0
992,4170001008443,登記記録の閉鎖等,0,2021-08-27,2021-08-26,株式会社なでしこ,,株式会社,和歌山県,岩出市,北大池５６番地の６,,30,209,6496219,,,2021-08-26,清算の結了等,,,2015-10-05,1,,,,,ナデシコ,0
1002,4180002020685,登記記録の閉鎖等,0,2021-08-27,2021-08-24,有限会社平井工務店,,有限会社,愛知県,名古屋市熱田区,神宮２丁目８番２号,,23,109,4560031,,,2021-08-24,清算の結了等,,,2015-10-05,1,,,,,ヒライコウムテン,0
1005,4180005016425,登記記録の閉鎖等,0,2021-08-27,2021-08-25,盤桂寺,,その他の設立登記法人,愛知県,一宮市,城崎通４丁目６番地,,23,203,4910866,,,2021-08-25,清算の結了等,,,2015-10-05,1,,,,,バンケイジ,0
1010,4190001007039,登記記録の閉鎖等,0,2021-08-27,2021-08-26,ミスターシューリマン株式会社,,株式会社,三重県,伊勢市,中須町８５８番地,,24,203,5160053,,,2021-08-26,清算の結了等,,,2015-10-05,1,,,,,ミスターシューリマン,0
1023,4230002003775,登記記録の閉鎖等,0,2021-08-27,2021-08-20,有限会社ゆう建築企画,,有限会社,富山県,富山市,上袋６６３番地,,16,201,9398071,,,2021-08-20,清算の結了等,,,2015-10-05,1,,,,,ユウケンチクキカク,0
1036,4260001001117,登記記録の閉鎖等,0,2021-08-27,2021-08-27,岡山自動車株式会社,,株式会社,岡山県,岡山市北区,白石東新町１４番地１００,,33,101,7010141,,,2021-08-27,清算の結了等,,,2015-10-05,1,,,,,オカヤマジドウシャ,0
1040,4290001015436,登記記録の閉鎖等,0,2021-08-27,2021-08-24,株式会社日経福岡販売,,株式会社,福岡県,福岡市博多区,奈良屋町４番７号,,40,132,8120023,,,2021-08-24,合併による解散等,4010001053158,令和３年８月１日東京都中央区日本橋人形町一丁目５番１５号株式会社日経日本橋販売（4010001053158）に合併し解散,2015-10-05,1,,,,,ニッケイフクオカハンバイ,0
1041,4290001033561,登記記録の閉鎖等,0,2021-08-27,2021-08-05,株式会社Ｚｅｒｏ　Ｃｏｒｐ．,,株式会社,福岡県,福岡市博多区,博多駅南５丁目２番５号,,40,132,8120016,,,2021-08-05,清算の結了等,,,2015-10-05,1,,,,,ゼロコーポレーション,0
1067,4370002003002,登記記録の閉鎖等,0,2021-08-27,2021-08-19,有限会社佐々木商会,,有限会社,宮城県,仙台市太白区,日本平２０番７号,,04,104,9820221,,,2021-08-19,清算の結了等,,,2015-10-05,1,,,,,ササキショウカイ,0
1073,4380002035696,登記記録の閉鎖等,0,2021-08-27,2021-08-24,有限会社湯野上タクシー,,有限会社,福島県,南会津郡下郷町,大字湯野上字大島乙８１番地,,07,362,9695206,,,2021-08-24,清算の結了等,,,2015-10-05,1,,,,,ユノカミタクシー,0
1093,4500002004333,登記記録の閉鎖等,0,2021-08-27,2021-08-26,株式会社田那部青果,,株式会社,愛媛県,松山市,松ノ木１丁目５番１２号,,38,201,7918071,,,2021-08-26,清算の結了等,,,2015-10-05,1,,,,,タナベセイカ,0
1121,5010701023731,登記記録の閉鎖等,0,2021-08-27,2021-08-26,バロー・エアークラフト株式会社,,株式会社,岡山県,岡山市南区,福富東２丁目２０番６号,,33,104,7028033,,,2021-08-26,清算の結了等,,,2015-10-05,1,,,,,バローエアークラフト,0
1130,5011001029675,登記記録の閉鎖等,0,2021-08-27,2021-08-24,とんぼ株式会社,,株式会社,東京都,世田谷区,岡本３丁目２６番２０号,,13,112,1570076,,,2021-08-24,清算の結了等,,,2015-10-05,1,,,,,トンボ,0
1137,5011101061165,登記記録の閉鎖等,0,2021-08-27,2021-08-13,株式会社クリスチャンダダ,,株式会社,東京都,港区,北青山３丁目５番１４号６階,,13,103,1070061,,,2021-08-13,清算の結了等,,,2015-10-05,1,,,,,クリスチャンダダ,0
1144,5011501024820,登記記録の閉鎖等,0,2021-08-27,2021-08-25,株式会社オルト薬品,,株式会社,東京都,北区,堀船２丁目２２番２－３０６号,,13,117,1140004,,,2021-08-25,清算の結了等,,,2019-06-05,1,,,,,オルトヤクヒン,0
1161,5012802004098,登記記録の閉鎖等,0,2021-08-27,2021-08-20,有限会社いけだや,,有限会社,東京都,武蔵村山市,大南１丁目１６５番地の２９,,13,223,2080013,,,2021-08-20,清算の結了等,,,2015-10-05,1,,,,,イケダヤ,0
1163,5013301035717,登記記録の閉鎖等,0,2021-08-27,2021-08-16,株式会社ＫＷＳ,,株式会社,埼玉県,戸田市,喜沢南２丁目１番１０－３１２号,,11,224,3350014,,,2021-08-16,清算の結了等,,,2015-10-05,1,,,,,ケイダブリュエス,0
1171,5020001096931,登記記録の閉鎖等,0,2021-08-27,2021-08-24,株式会社塚原設備,,株式会社,神奈川県,横浜市神奈川区,菅田町２５４４番地１,,14,102,2210864,,,2021-08-24,清算の結了等,,,2015-10-05,1,,,,,ツカハラセツビ,0
1175,5020002034576,登記記録の閉鎖等,0,2021-08-27,2021-08-25,有限会社高野精機,00010728,有限会社,神奈川県,横浜市港北区,新吉田町４８８番地の１,,14,109,2230056,,,2021-08-25,清算の結了等,,,2015-10-05,1,,,,,タカノセイキ,0
1176,5020002082872,登記記録の閉鎖等,0,2021-08-27,2021-08-24,有限会社井上モータース商会,,有限会社,神奈川県,川崎市中原区,上小田中７丁目４番３号,,14,133,2110053,,,2021-08-24,清算の結了等,,,2015-10-05,1,,,,,,0
1181,5021005008179,登記記録の閉鎖等,0,2021-08-27,2021-08-23,特定非営利活動法人ねむのき,,その他の設立登記法人,神奈川県,横須賀市,久里浜７丁目３１番１号久里浜海岸マリーナタウン２０４,,14,201,2390831,,,2021-08-23,清算の結了等,,,2015-10-05,1,,,,,ネムノキ,0
1182,5021005010275,登記記録の閉鎖等,0,2021-08-27,2021-08-23,一般社団法人かながわ地域看護ネット糧,,その他の設立登記法人,神奈川県,伊勢原市,沼目３丁目１４番１６号,,14,214,2591126,,,2021-08-23,清算の結了等,,,2015-10-05,1,,,,,カナガワチイキカンゴネットカテ,0
1196,5030002077616,登記記録の閉鎖等,0,2021-08-27,2021-08-16,帝亜功業有限会社,,有限会社,埼玉県,比企郡川島町,大字上伊草１４８０番地２,,11,346,3500152,,,2021-08-16,清算の結了等,,,2015-10-05,1,,,,,テイアコウギョウ,0
1214,5080101012238,登記記録の閉鎖等,0,2021-08-27,2021-08-24,株式会社ディアベイビーズ,,株式会社,静岡県,富士市,蓼原１１０１番地の１ハイツ蓼原Ｃ１０２,,22,210,4160931,,,2021-08-24,清算の結了等,,,2015-10-05,1,,,,,ディアベイビーズ,0
1219,5090002015149,登記記録の閉鎖等,0,2021-08-27,2021-08-19,有限会社米長工業,,有限会社,山梨県,南巨摩郡富士川町,天神中条８９７番地,,19,368,4000500,,,2021-08-19,清算の結了等,,,2015-10-05,1,,,,,,0
1220,5100001002708,登記記録の閉鎖等,0,2021-08-27,2021-08-25,株式会社日鋼,,株式会社,長野県,長野市,大字稲葉字八幡田沖２４８４番地１１,,20,201,3800911,,,2021-08-25,清算の結了等,,,2015-10-05,1,,,,,ニッコウ,0
1226,5100005002150,登記記録の閉鎖等,0,2021-08-27,2021-08-24,特定非営利活動法人長野県技術士センター,,その他の設立登記法人,長野県,長野市,稲里町中央３丁目３３番２３号,,20,201,3812217,,,2021-08-24,清算の結了等,,,2015-10-05,1,,,,,ナガノケンギジュツシセンター,0
1229,5110005014896,登記記録の閉鎖等,0,2021-08-27,2021-08-25,一般社団法人土地住宅サポートセンター,,その他の設立登記法人,新潟県,新潟市東区,松崎１丁目３２番１６号,,15,102,9500014,,,2021-08-25,清算の結了等,,,2015-10-05,1,,,,,トチジュウタクサポートセンター,0
1243,5120002037973,登記記録の閉鎖等,0,2021-08-27,2021-08-17,有限会社パルス,,有限会社,大阪府,大阪市中央区,南久宝寺町４丁目４番１２号,,27,128,5410058,,,2021-08-17,清算の結了等,,,2015-10-05,1,,,,,,0
1266,5180002012483,登記記録の閉鎖等,0,2021-08-27,2021-08-25,有限会社フタバ観光物産,,有限会社,愛知県,名古屋市北区,辻町６丁目１２番地,00072886,23,103,4620032,,,2021-08-25,清算の結了等,,,2015-10-05,1,,,,,フタバカンコウブッサン,0
1275,5190002009710,登記記録の閉鎖等,0,2021-08-27,2021-08-24,有限会社間宮新聞店,,有限会社,三重県,度会郡玉城町,佐田６９４番地３,,24,461,5190414,,,2021-08-24,清算の結了等,,,2015-10-05,1,,,,,マミヤシンブンテン,0
1279,5220001021150,登記記録の閉鎖等,0,2021-08-27,2021-08-23,株式会社川島工業,,株式会社,石川県,金沢市,しじま台２丁目４番地１２,,17,201,9218132,,,2021-08-23,清算の結了等,,,2016-07-29,1,,,,,,0
1284,5240001042491,登記記録の閉鎖等,0,2021-08-27,2021-08-18,広島ビルド株式会社,,株式会社,広島県,広島市中区,幟町２番１９号ライブ・オーク幟町２０４号,,34,101,7300016,,,2021-08-18,清算の結了等,,,2015-10-05,1,,,,,ヒロシマビルド,0
1291,5280002005510,登記記録の閉鎖等,0,2021-08-27,2021-08-26,山陰情報企画有限会社,,有限会社,島根県,雲南市,掛合町掛合４３３８番地７,,32,209,6902701,,,2021-08-26,清算の結了等,,,2015-10-05,1,,,,,サンインジョウホウキカク,0
1297,5290002038591,登記記録の閉鎖等,0,2021-08-27,2021-08-03,有限会社伊藤自動車整備,,有限会社,福岡県,大野城市,御笠川５丁目７番２１号,,40,219,8160912,,,2021-08-03,清算の結了等,,,2015-10-05,1,,,,,イトウジドウシャセイビ,0
1311,5350002000990,登記記録の閉鎖等,0,2021-08-27,2021-08-26,有限会社カイ,,有限会社,宮崎県,宮崎市,清武町あさひ２丁目１番地,,45,201,8891609,,,2021-08-26,清算の結了等,,,2015-10-05,1,,,,,カイ,0
1323,5370301002323,登記記録の閉鎖等,0,2021-08-27,2021-08-18,株式会社マリーナ中瀬,,株式会社,宮城県,石巻市,中瀬３番１２号,,04,202,9860823,,,2021-08-18,清算の結了等,,,2015-10-05,1,,,,,マリーナナカゼ,0
1324,5370302002719,登記記録の閉鎖等,0,2021-08-27,2021-08-19,有限会社チャーリーズ,,有限会社,宮城県,石巻市,鹿又字道的前６０番地１,,04,202,9861111,,,2021-08-19,清算の結了等,,,2015-10-05,1,,,,,チャーリーズ,0
1338,5430005005574,登記記録の閉鎖等,0,2021-08-27,2021-08-18,公益財団法人酪農学園後援会,,その他の設立登記法人,北海道,江別市,文京台緑町５８２番地,,01,217,0690836,,,2021-08-18,清算の結了等,,,2015-10-05,1,,,,,ラクノウガクエンコウエンカイ,0
1350,6010001116251,登記記録の閉鎖等,0,2021-08-27,2021-08-19,株式会社ショッパー社,,株式会社,千葉県,八千代市,勝田台北１丁目１１番１６号,,12,221,2760020,,,2021-08-19,清算の結了等,,,2015-10-05,1,,,,,ショッパーシャ,0
1360,6010003034030,登記記録の閉鎖等,0,2021-08-27,2021-08-23,合同会社水戸ソーラー,,合同会社,東京都,中央区,八重洲２丁目７番２号,,13,102,1040028,,,2021-08-23,合併による解散等,9010403011287,令和３年８月２１日東京都中央区八重洲二丁目７番２号合同会社Ｄ２Ｋ水戸ソーラー（9010403011287）に合併し解散,2021-01-27,1,,,,,ミトソーラー,0
1370,6010403016330,登記記録の閉鎖等,0,2021-08-27,2021-08-13,合同会社エスアイエム・レジデンス・ワン,,合同会社,東京都,港区,赤坂２丁目１０番５号税理士法人赤坂国際会計事務所内,,13,103,1070052,,,2021-08-13,清算の結了等,,,2017-03-21,1,,,,,エスアイエムレジデンスワン,0
1379,6010501031867,登記記録の閉鎖等,0,2021-08-27,2021-08-20,株式会社ゴダイ,,株式会社,東京都,台東区,台東２丁目３１番１号,,13,106,1100016,,,2021-08-20,清算の結了等,,,2015-10-05,1,,,,,ゴダイ,0
1385,6010701023730,登記記録の閉鎖等,0,2021-08-27,2021-08-26,ブラックウォーター・エアークラフト株式会社,,株式会社,岡山県,岡山市南区,福富東２丁目２０番６号,,33,104,7028033,,,2021-08-26,清算の結了等,,,2015-10-05,1,,,,,ブラックウォーターエアークラフト,0
1392,6010802001726,登記記録の閉鎖等,0,2021-08-27,2021-08-20,有限会社ウィッチハウス,,有限会社,東京都,大田区,千鳥１丁目３番１９号,,13,111,1460083,,,2021-08-20,清算の結了等,,,2015-10-05,1,,,,,ウィッチハウス,0
1402,6011005007882,登記記録の閉鎖等,0,2021-08-27,2021-08-06,一般社団法人ストレスオフ・アライアンス,,その他の設立登記法人,東京都,渋谷区,恵比寿４丁目６番１号恵比寿ＭＦビル２階,,13,113,1500013,,,2021-08-06,清算の結了等,,,2018-10-26,1,,,,,ストレスオフアライアンス,0
1422,6012302008714,登記記録の閉鎖等,0,2021-08-27,2021-08-12,有限会社ザレック,,有限会社,東京都,町田市,小山町５８２番地２,,13,209,1940212,,,2021-08-12,清算の結了等,,,2015-10-05,1,,,,,,0
1423,6012403003069,登記記録の閉鎖等,0,2021-08-27,2021-08-25,スライ合同会社,,合同会社,東京都,三鷹市,深大寺３丁目３番２２号ＦＥＬＩＺ３０１,,13,204,1810016,,,2021-08-25,清算の結了等,,,2017-05-11,1,,,,,スライ,0
1427,6020001034873,登記記録の閉鎖等,0,2021-08-27,2021-08-24,株式会社四季楽,,株式会社,神奈川県,横浜市鶴見区,矢向５丁目１１番９号,,14,101,2300001,,,2021-08-24,清算の結了等,,,2015-10-05,1,,,,,シキラク,0
1435,6020002038188,登記記録の閉鎖等,0,2021-08-27,2021-08-13,有限会社サカイコーポレーション,,有限会社,神奈川県,横浜市鶴見区,矢向５丁目８番１８号,,14,101,2300001,,,2021-08-13,清算の結了等,,,2015-10-05,1,,,,,サカイコーポレーション,0
1452,6030002092465,登記記録の閉鎖等,0,2021-08-27,2021-08-17,有限会社ショウワ,,有限会社,埼玉県,坂戸市,大字森戸３４番地１,,11,239,3500244,,,2021-08-17,清算の結了等,,,2015-10-05,1,,,,,ショウワ,0
1453,6030003009501,登記記録の閉鎖等,0,2021-08-27,2021-08-24,健康経営応援合同会社,,合同会社,東京都,中野区,鷺宮６丁目１３番１５号,,13,114,1650032,,,2021-08-24,清算の結了等,,,2016-10-28,1,,,,,ケンコウケイエイオウエン,0
1466,6040002044523,登記記録の閉鎖等,0,2021-08-27,2021-08-18,有限会社エイカコーポレーション,,有限会社,千葉県,松戸市,中和倉４８２番地,,12,207,2700025,,,2021-08-18,清算の結了等,,,2015-10-05,1,,,,,エイカコーポレーション,0
1485,6080401020121,登記記録の閉鎖等,0,2021-08-27,2021-08-25,株式会社温工務店,,株式会社,静岡県,浜松市浜北区,新原１９００番地の１,,22,136,4340003,,,2021-08-25,清算の結了等,,,2015-10-05,1,,,,,ハルコウムテン,0
1488,6100001005081,登記記録の閉鎖等,0,2021-08-27,2021-08-25,株式会社樅ノ木,,株式会社,長野県,長野市,上松２丁目２４番１１－１号,,20,201,3800802,,,2021-08-25,清算の結了等,,,2015-10-05,1,,,,,モミノキ,0
1493,6120001000080,登記記録の閉鎖等,0,2021-08-27,2021-08-18,株式会社アートフーズ,,株式会社,大阪府,大阪市西区,京町堀１丁目６番２０号宮浦ビル４階,,27,106,5500003,,,2021-08-18,清算の結了等,,,2015-10-05,1,,,,,,0
1535,6180001139707,登記記録の閉鎖等,0,2021-08-27,2021-08-24,株式会社シルクトレッド,,株式会社,愛知県,名古屋市中区,大須２丁目２７番３４号,,23,106,4600011,,,2021-08-24,清算の結了等,,,2020-01-16,1,,,,,シルクトレッド,0
1551,6240002045146,登記記録の閉鎖等,0,2021-08-27,2021-08-18,有限会社モトボックスクラブ,,有限会社,広島県,福山市,明神町２丁目１０番１５号,,34,207,7210961,,,2021-08-18,清算の結了等,,,2015-10-05,1,,,,,モトボックスクラブ,0
1557,6270002002887,登記記録の閉鎖等,0,2021-08-27,2021-08-24,さくら水産有限会社,,有限会社,鳥取県,岩美郡岩美町,大字田後５３４番地の２,,31,302,6810071,,,2021-08-24,清算の結了等,,,2015-10-05,1,,,,,サクラスイサン,0
1581,6370001020038,登記記録の閉鎖等,0,2021-08-27,2021-08-19,株式会社ウフコーポレーション,,株式会社,宮城県,石巻市,門脇字青葉西２１番地１,,04,202,9860853,,,2021-08-19,清算の結了等,,,2015-10-05,1,,,,,ウフコーポレーション,0
1591,6430001078821,登記記録の閉鎖等,0,2021-08-27,2021-08-17,ルミエールワン株式会社,,株式会社,北海道,札幌市北区,新琴似七条１丁目３－３０アルファヒル麻生５０５号室,,01,102,0010907,,,2021-08-17,合併による解散等,6430002029856,令和３年８月１６日札幌市北区新琴似五条九丁目４番１８号株式会社建匠（6430002029856）に合併し解散,2019-04-22,1,,,,,ルミエールワン,0
1597,6480001004376,登記記録の閉鎖等,0,2021-08-27,2021-08-25,株式会社ＲＫ,,株式会社,徳島県,徳島市,国府町和田字表１４番地３,,36,201,7793121,,,2021-08-25,清算の結了等,,,2015-10-05,1,,,,,,0
1599,6490002004440,登記記録の閉鎖等,0,2021-08-27,2021-08-20,有限会社深瀬商店,,有限会社,高知県,高知市,十津５丁目１０番２号,,39,201,7810114,,,2021-08-20,清算の結了等,,,2015-10-05,1,,,,,フカセショウテン,0
1631,7010403016362,登記記録の閉鎖等,0,2021-08-27,2021-08-13,合同会社エスアイエム・レジデンス・ツー,,合同会社,東京都,港区,赤坂２丁目１０番５号税理士法人赤坂国際会計事務所内,,13,103,1070052,,,2021-08-13,清算の結了等,,,2017-03-27,1,,,,,エスアイエムレジデンスツー,0
1660,7011502013531,登記記録の閉鎖等,0,2021-08-27,2021-08-26,有限会社サンライズ,,有限会社,東京都,北区,西ケ原２丁目３８番９号,,13,117,1140024,,,2021-08-26,清算の結了等,,,2015-10-05,1,,,,,サンライズ,0
1661,7011702003786,登記記録の閉鎖等,0,2021-08-27,2021-08-23,有限会社ケイ・イー・エヌ,,有限会社,東京都,江戸川区,南小岩５丁目１番５号,,13,123,1330056,,,2021-08-23,清算の結了等,,,2015-10-05,1,,,,,ケイイーエヌ,0
1666,7012301009480,登記記録の閉鎖等,0,2021-08-27,2021-08-10,アイプラニング株式会社,,株式会社,東京都,町田市,玉川学園２丁目３番４１号,,13,209,1940041,,,2021-08-10,清算の結了等,,,2015-10-05,1,,,,,アイプラニング,0
1673,7012801018048,登記記録の閉鎖等,0,2021-08-27,2021-08-17,日照インベストメント株式会社,,株式会社,東京都,東大和市,向原２丁目７７８番地の５９,,13,220,2070013,,,2021-08-17,清算の結了等,,,2017-06-06,1,,,,,ニッショウインベストメント,0
1676,7020001047206,登記記録の閉鎖等,0,2021-08-27,2021-08-24,株式会社ＷＩＮ　ＦＩＥＬＤ,,株式会社,神奈川県,横浜市都筑区,北山田６丁目５２番２－１０１号,,14,118,2240021,,,2021-08-24,清算の結了等,,,2015-10-05,1,,,,,ウィンフィールド,0
1684,7020002029319,登記記録の閉鎖等,0,2021-08-27,2021-08-25,有限会社尾崎商事,,有限会社,神奈川県,横浜市南区,山王町２丁目２２番地,,14,105,2320013,,,2021-08-25,清算の結了等,,,2015-10-05,1,,,,,オザキショウジ,0
1687,7020002067277,登記記録の閉鎖等,0,2021-08-27,2021-08-25,有限会社ベンタコーポレーション,,有限会社,神奈川県,横浜市青葉区,市ケ尾町１１７５番地２４,,14,117,2250024,,,2021-08-25,清算の結了等,,,2015-10-05,1,,,,,ベンタコーポレーション,0
1689,7021002010219,登記記録の閉鎖等,0,2021-08-27,2021-08-23,有限会社インテリアシマザキ,,有限会社,神奈川県,茅ヶ崎市,十間坂１丁目４番６０号,,14,207,2530045,,,2021-08-23,清算の結了等,,,2015-10-05,1,,,,,インテリアシマザキ,0
1690,7021002035257,登記記録の閉鎖等,0,2021-08-27,2021-08-20,有限会社中外植物園,,有限会社,神奈川県,伊勢原市,小稲葉２３５８番地,,14,214,2591122,,,2021-08-20,清算の結了等,,,2015-10-05,1,,,,,チュウガイショクブツエン,0
1730,7100002003273,登記記録の閉鎖等,0,2021-08-27,2021-08-25,有限会社テクノ・ワーク,,有限会社,長野県,長野市,大字東和田４５３－３フェニックスＳＩ・Ｂ１０２,,20,201,3810038,,,2021-08-25,清算の結了等,,,2015-10-05,1,,,,,テクノワーク,0
1731,7100002023858,登記記録の閉鎖等,0,2021-08-27,2021-08-25,有限会社中澤建築設計,,有限会社,長野県,安曇野市,穂高３８５番地,,20,220,3998303,,,2021-08-25,清算の結了等,,,2015-10-05,1,,,,,ナカザワケンチクセッケイ,0
1738,7120001187009,登記記録の閉鎖等,0,2021-08-27,2021-08-23,株式会社Ｔｒｅｅｓ,,株式会社,兵庫県,芦屋市,船戸町３番２４－２０６号,,28,206,6590093,,,2021-08-23,清算の結了等,,,2015-10-05,1,,,,,ツリーズ,0
1756,7130005013589,登記記録の閉鎖等,0,2021-08-27,2021-08-10,特定非営利活動法人日本子ども政策研究推進機構,,その他の設立登記法人,東京都,渋谷区,広尾２丁目２１番１３号,,13,113,1500012,,,2021-08-10,清算の結了等,,,2015-10-05,1,,,,,ニホンコドモセイサクケンキュウスイシンキコウ,0
1758,7140001045288,登記記録の閉鎖等,0,2021-08-27,2021-08-24,エスボート株式会社,,株式会社,兵庫県,加古川市,加古川町河原１７３番地の１１,,28,210,6750067,,,2021-08-24,清算の結了等,,,2015-10-05,1,,,,,エスボート,0
1764,7140001093907,登記記録の閉鎖等,0,2021-08-27,2021-08-24,株式会社スミノ,,株式会社,兵庫県,姫路市,飾磨区中野田３丁目９８番地１,,28,201,6728045,,,2021-08-24,清算の結了等,,,2015-10-05,1,,,,,スミノ,0
1786,7180002060126,登記記録の閉鎖等,0,2021-08-27,2021-08-25,有限会社ＲＢ,,有限会社,愛知県,名古屋市名東区,社台２丁目９３番地,,23,115,4650092,,,2021-08-25,清算の結了等,,,2015-10-05,1,,,,,アールビー,0
1787,7180003014048,登記記録の閉鎖等,0,2021-08-27,2021-08-23,合同会社かえで荘,,合同会社,愛知県,一宮市,泉１丁目６番３号,,23,203,4910861,,,2021-08-23,清算の結了等,,,2015-10-05,1,,,,,カエデソウ,0
1793,7210002013237,登記記録の閉鎖等,0,2021-08-27,2021-08-25,有限会社ニシカワ保険事務所,,有限会社,福井県,鯖江市,北野町１丁目８番７号,,18,207,9160029,,,2021-08-25,清算の結了等,,,2015-10-05,1,,,,,ニシカワホケンジムショ,0
1803,7240002035113,登記記録の閉鎖等,0,2021-08-27,2021-08-17,有限会社ケイティーエス企画,,有限会社,広島県,呉市,安浦町三津口４丁目５番１９号,,34,202,7372502,,,2021-08-17,清算の結了等,,,2015-10-05,1,,,,,,0
1808,7260001025492,登記記録の閉鎖等,0,2021-08-27,2021-08-26,アクアデザイン株式会社,,株式会社,岡山県,倉敷市,中庄６０２番地１５,,33,202,7100016,,,2021-08-26,清算の結了等,,,2015-10-05,1,,,,,,0
1810,7270005003691,登記記録の閉鎖等,0,2021-08-27,2021-08-23,医療法人社団佐伯医院,,その他の設立登記法人,鳥取県,日野郡江府町,大字江尾１９９７番地,,31,403,6894401,,,2021-08-23,清算の結了等,,,2015-10-05,1,,,,,サエキイイン,0
1821,7310003003854,登記記録の閉鎖等,0,2021-08-27,2021-08-25,合同会社森興業,,合同会社,長崎県,佐世保市,木風町７０２,,42,202,8571166,,,2021-08-25,清算の結了等,,,2020-05-25,1,,,,,モリコウギョウ,0
1825,7330001002435,登記記録の閉鎖等,0,2021-08-27,2021-08-18,春風商事株式会社,,株式会社,東京都,中央区,新川２丁目１８番４号八重洲マンション４０１,,13,102,1040033,,,2021-08-18,清算の結了等,,,2015-10-05,1,,,,,ハルカゼショウジ,0
1838,7370003004021,登記記録の閉鎖等,0,2021-08-27,2021-08-19,日本技研合同会社,,合同会社,宮城県,黒川郡大和町,吉岡字上柴崎９７番地の８,,04,421,9813621,,,2021-08-19,清算の結了等,,,2017-12-05,1,,,,,ニホンギケン,0
1854,7430002023172,登記記録の閉鎖等,0,2021-08-27,2021-08-19,有限会社人材サッポロ,,有限会社,北海道,札幌市北区,北十条西４丁目１番地９,,01,102,0010010,,,2021-08-19,清算の結了等,,,2015-10-05,1,,,,,ジンザイサッポロ,0
1865,8010001142262,登記記録の閉鎖等,0,2021-08-27,2021-08-19,株式会社住化ファーム山形,,株式会社,東京都,中央区,新川２丁目２７番１号,,13,102,1040033,,,2021-08-19,清算の結了等,,,2015-10-05,1,,,,,スミカファームヤマガタ,0
1873,8010003034029,登記記録の閉鎖等,0,2021-08-27,2021-08-23,合同会社小松ソーラー,,合同会社,東京都,中央区,八重洲２丁目７番２号,,13,102,1040028,,,2021-08-23,合併による解散等,1010403012607,令和３年８月２１日東京都中央区八重洲二丁目７番２号合同会社Ｄ２Ｋ小松ソーラー（1010403012607）に合併し解散,2021-01-27,1,,,,,コマツソーラー,0
1879,8010401147290,登記記録の閉鎖等,0,2021-08-27,2021-08-13,株式会社Ｇｒａｃｅ　Ｃｏｄｅ,,株式会社,東京都,港区,南青山２丁目２番１５号ウィン青山９４２,,13,103,1070062,,,2021-08-13,清算の結了等,,,2019-08-08,1,,,,,グレースコード,0
1883,8010403019546,登記記録の閉鎖等,0,2021-08-27,2021-08-16,合同会社ＳＡＰＲ８,,合同会社,東京都,港区,虎ノ門５丁目１番４号,,13,103,1050001,,,2021-08-16,清算の結了等,,,2018-10-25,1,,,,,エスエーピーアールエイト,0
1884,8010403020966,登記記録の閉鎖等,0,2021-08-27,2021-08-23,合同会社ストレート,,合同会社,大阪府,大阪市中央区,今橋２丁目５番８号,,27,128,5410042,,,2021-08-23,清算の結了等,,,2019-07-01,1,,,,,ストレート,0
1897,8010802005213,登記記録の閉鎖等,0,2021-08-27,2021-08-18,有限会社幸保精工機,,有限会社,東京都,大田区,西糀谷２丁目１７番１９号,,13,111,1440034,,,2021-08-18,清算の結了等,,,2015-10-05,1,,,,,コウホセイコウキ,0
1899,8010802019568,登記記録の閉鎖等,0,2021-08-27,2021-08-18,有限会社恵和商事,,有限会社,東京都,大田区,多摩川１丁目１１番３号,,13,111,1460095,,,2021-08-18,清算の結了等,,,2015-10-05,1,,,,,ケイワショウジ,0
1903,8010901034914,登記記録の閉鎖等,0,2021-08-27,2021-08-25,株式会社シナジー,,株式会社,群馬県,高崎市,緑町４丁目５番地１７,,10,202,3700073,,,2021-08-25,清算の結了等,,,2015-10-05,1,,,,,シナジー,0
1922,8011401016493,登記記録の閉鎖等,0,2021-08-27,2021-08-25,株式会社ナトゥレーザ・スタイル,,株式会社,東京都,板橋区,若木３丁目３番６号,,13,119,1740065,,,2021-08-25,清算の結了等,,,2015-10-05,1,,,,,ナトゥレーザスタイル,0
1947,8020002097117,登記記録の閉鎖等,0,2021-08-27,2021-08-25,有限会社佐藤左官,,有限会社,神奈川県,川崎市川崎区,中瀬２丁目８番１８－２０６号,,14,131,2100818,,,2021-08-25,清算の結了等,,,2015-10-05,1,,,,,,0
1954,8030001039275,登記記録の閉鎖等,0,2021-08-27,2021-08-16,株式会社ビックミート,,株式会社,埼玉県,三郷市,高州１丁目２８１番地６,,11,237,3410037,,,2021-08-16,清算の結了等,,,2015-10-05,1,,,,,,0
1974,8040001077811,登記記録の閉鎖等,0,2021-08-27,2021-08-19,株式会社川内谷建材,,株式会社,千葉県,木更津市,請西３丁目３番１４号,,12,206,2920801,,,2021-08-19,清算の結了等,,,2015-10-05,1,,,,,,0
1985,8050001039075,登記記録の閉鎖等,0,2021-08-27,2021-08-20,新栄建設株式会社,,株式会社,茨城県,日立市,弁天町２丁目１４番１５号,,08,202,3170072,,,2021-08-20,清算の結了等,,,2015-10-05,1,,,,,,0
1998,8070002016294,登記記録の閉鎖等,0,2021-08-27,2021-08-25,有限会社篠原瓦店,,有限会社,群馬県,甘楽郡甘楽町,大字福島１１２２番地,,10,384,3702212,,,2021-08-25,清算の結了等,,,2015-10-05,1,,,,,シノハラカワラテン,0
2000,8080002007193,登記記録の閉鎖等,0,2021-08-27,2021-08-25,有限会社スカイハウジング,,有限会社,静岡県,静岡市葵区,横田町３番４号,,22,101,4200835,,,2021-08-25,清算の結了等,,,2015-10-05,1,,,,,スカイハウジング,0
2043,8140001001471,登記記録の閉鎖等,0,2021-08-27,2021-08-23,株式会社弘文堂,,株式会社,兵庫県,神戸市東灘区,魚崎浜町２７番の２１,,28,101,6580024,,,2021-08-23,清算の結了等,,,2015-10-05,1,,,,,コウブンドウ,0
2055,8170001011476,登記記録の閉鎖等,0,2021-08-27,2021-08-25,新宮製氷冷藏株式会社,,株式会社,和歌山県,新宮市,田鶴原町２丁目３番１１号,,30,207,6470031,,,2021-08-25,清算の結了等,,,2015-10-05,1,,,,,シングウセイヒョウレイゾウ,0
2065,8200002011265,登記記録の閉鎖等,0,2021-08-27,2021-08-25,有限会社美里商事,,有限会社,岐阜県,羽島市,堀津町２２６９番地,,21,209,5016330,,,2021-08-25,清算の結了等,,,2015-10-05,1,,,,,ミサトショウジ,0
2094,8290801011390,登記記録の閉鎖等,0,2021-08-27,2021-08-25,株式会社竹内商店,,株式会社,福岡県,中間市,大字垣生字塔ノ元２０２０番地の１,,40,215,8090001,,,2021-08-25,清算の結了等,,,2015-10-05,1,,,,,,0
2096,8310003003762,登記記録の閉鎖等,0,2021-08-27,2021-08-24,合同会社Ｃｏｍｅ　Ｔｈｅ　Ｈｏｕｒ,,合同会社,長崎県,長崎市,緑町３－２５,,42,201,8528103,,,2021-08-24,清算の結了等,,,2019-11-06,1,,,,,カンザアワー,0
2112,8380005006864,登記記録の閉鎖等,0,2021-08-27,2021-08-20,ＮＰＯ法人訪問看護ステーションぱれっと,,その他の設立登記法人,福島県,いわき市,内郷綴町沼尻４９－３,,07,204,9738403,,,2021-08-20,清算の結了等,,,2015-10-05,1,,,,,ホウモンカンゴステーションパレット,0
2118,8420001014552,登記記録の閉鎖等,0,2021-08-27,2021-08-24,株式会社アローム,,株式会社,青森県,青森市,本町２丁目１０番６号,,02,201,0300802,,,2021-08-24,清算の結了等,,,2015-10-05,1,,,,,アローム,0
2122,8420005002413,登記記録の閉鎖等,0,2021-08-27,2021-08-23,特定非営利活動法人あおもりふるさと再生機構,,その他の設立登記法人,青森県,青森市,本町２丁目６番１９号,,02,201,0300802,,,2021-08-23,清算の結了等,,,2015-10-05,1,,,,,,0
2123,8440002007248,登記記録の閉鎖等,0,2021-08-27,2021-08-26,有限会社アリエーテ,,有限会社,北海道,函館市,桔梗５丁目１４番５号,,01,202,0410808,,,2021-08-26,清算の結了等,,,2015-10-05,1,,,,,アリエーテ,0
2143,9010002036801,登記記録の閉鎖等,0,2021-08-27,2021-08-18,有限会社シーブ・エコールマネジメント,,有限会社,東京都,中央区,日本橋人形町３丁目１番１０－２０４号,,13,102,1030013,,,2021-08-18,清算の結了等,,,2015-10-05,1,,,,,シーブエコールマネジメント,0
2144,9010003031438,登記記録の閉鎖等,0,2021-08-27,2021-08-13,合同会社ＭｉＫＳ,,合同会社,東京都,台東区,松が谷２丁目１８番１２,,13,106,1110036,,,2021-08-13,清算の結了等,,,2020-01-15,1,,,,,ミクス,0
2152,9010403017763,登記記録の閉鎖等,0,2021-08-27,2021-08-13,合同会社レジデンス・フォー,,合同会社,東京都,港区,赤坂２丁目１０番５号税理士法人赤坂国際会計事務所内,,13,103,1070052,,,2021-08-13,清算の結了等,,,2017-12-07,1,,,,,レジデンスフォー,0
2166,9011003011396,登記記録の閉鎖等,0,2021-08-27,2021-08-03,合同会社ＵＴＭ,,合同会社,東京都,渋谷区,桜丘町２３番１７号シティコート桜丘４０８,,13,113,1500031,,,2021-08-03,清算の結了等,,,2020-07-10,1,,,,,ユーティーエム,0
2178,9012302003076,登記記録の閉鎖等,0,2021-08-27,2021-08-16,有限会社ちりめんや,,有限会社,東京都,町田市,原町田４丁目１９番２０－３０９号,,13,209,1940013,,,2021-08-16,清算の結了等,,,2015-10-05,1,,,,,チリメンヤ,0
2180,9012303000502,登記記録の閉鎖等,0,2021-08-27,2021-08-11,合資会社八田食料品店,,合資会社,東京都,町田市,原町田２丁目９番１８－１００２号,,13,209,1940013,,,2021-08-11,清算の結了等,,,2015-10-05,1,,,,,ハッタショクリョウヒンテン,0
2196,9020005005364,登記記録の閉鎖等,0,2021-08-27,2021-08-23,特定非営利活動法人サクラ会,,その他の設立登記法人,神奈川県,横浜市中区,万代町１丁目２番地７,,14,104,2310031,,,2021-08-23,清算の結了等,,,2015-10-05,1,,,,,サクラカイ,0
2238,9100002019664,登記記録の閉鎖等,0,2021-08-27,2021-08-26,有限会社神林鉄筋,,有限会社,長野県,松本市,大字神林１７６番地１,,20,202,3901243,,,2021-08-26,清算の結了等,,,2015-10-05,1,,,,,,0
2242,9120001160079,登記記録の閉鎖等,0,2021-08-27,2021-08-24,奥山株式会社,,株式会社,大阪府,守口市,西郷通３丁目２番２４号,,27,209,5700034,,,2021-08-24,清算の結了等,,,2015-10-05,1,,,,,オクヤマ,0
2248,9120002006636,登記記録の閉鎖等,0,2021-08-27,2021-08-12,有限会社環境企画設計,,有限会社,大阪府,大阪市東成区,中道１丁目７番３０号,,27,115,5370025,,,2021-08-12,清算の結了等,,,2015-10-05,1,,,,,カンキョウキカクセッケイ,0
2264,9122002003753,登記記録の閉鎖等,0,2021-08-27,2021-08-25,有限会社白光企画,,有限会社,大阪府,東大阪市,荒本新町２番１１号,,27,227,5770022,,,2021-08-25,清算の結了等,,,2015-10-05,1,,,,,ハッコウキカク,0
2293,9240001004991,登記記録の閉鎖等,0,2021-08-27,2021-08-16,昭和物産株式会社,,株式会社,広島県,広島市中区,広瀬北町８番２１－８０１号,,34,101,7300803,,,2021-08-16,清算の結了等,,,2015-10-05,1,,,,,,0
2297,9240002027604,登記記録の閉鎖等,0,2021-08-27,2021-08-18,有限会社光隆,00001039,有限会社,広島県,東広島市,西条町下見４６２番地の６,,34,212,7390044,,,2021-08-18,清算の結了等,,,2015-10-05,1,,,,,ミツタカ,0
2324,9330001008018,登記記録の閉鎖等,0,2021-08-27,2021-08-26,株式会社メディカルキューピット,,株式会社,熊本県,熊本市中央区,大江６丁目３０番５号,,43,101,8620971,,,2021-08-26,清算の結了等,,,2015-10-05,1,,,,,メディカルキューピット,0
2335,9370002014523,登記記録の閉鎖等,0,2021-08-27,2021-08-19,有限会社仙台西コンタクトレンズセンター,,有限会社,宮城県,仙台市青葉区,八幡２丁目１番２０号,,04,101,9800871,,,2021-08-19,清算の結了等,,,2015-10-05,1,,,,,センダイニシコンタクトレンズセンター,0
2339,9380002034347,登記記録の閉鎖等,0,2021-08-27,2021-08-23,有限会社宮川電機,,有限会社,福島県,耶麻郡西会津町,奥川大字飯里字関根２９７７番地,,07,405,9694734,,,2021-08-23,清算の結了等,,,2015-10-05,1,,,,,ミヤカワデンキ,0
2343,9390001011065,登記記録の閉鎖等,0,2021-08-27,2021-08-24,株式会社斎藤織物,,株式会社,山形県,長井市,館町北２番１８－２号,,06,209,9930011,,,2021-08-24,清算の結了等,,,2015-10-05,1,,,,,サイトウオリモノ,0
