sequenceNumber,corporateNumber,process,correct,updateDate,changeDate,name,nameImageId,kind,prefectureName,cityName,streetNumber,addressImageId,prefectureCode,cityCode,postCode,addressOutside,addressOutsideImageId,closeDate,closeCause,successorCorporateNumber,changeCause,assignmentDate,latest,enName,enPrefectureName,enCityName,enAddressOutside,furigana,hihyoji
13,1010001259484,新規,0,2025-10-20,2025-10-20,株式会社エヌ,,株式会社,東京都,千代田区,二番町７番地８レグノフォルテ二番町４０５,,13,101,1020084,,,,,,,2025-10-20,1,,,,,エヌ,0
17,1010401193580,新規,0,2025-10-20,2025-10-20,株式会社ＰＲＯＵＤ,,株式会社,東京都,港区,芝５丁目３１番７号三田ステーションビルアミタ１００１,,13,103,1080014,,,,,,,2025-10-20,1,,,,,プラウド,0
20,1010403036201,新規,0,2025-10-20,2025-10-20,合同会社Ｐｉｅｃｅｆｕｌ,,合同会社,東京都,港区,北青山１丁目３－１アールキューブ青山３階,,13,103,1070061,,,,,,,2025-10-20,1,,,,,ピースフル,0
21,1010403036300,新規,0,2025-10-20,2025-10-20,Ｐｌｕｆｆ合同会社,,合同会社,東京都,港区,浜松町２丁目３－９－４４１０,,13,103,1050013,,,,,,,2025-10-20,1,,,,,プラフ,0
22,1010403036317,新規,0,2025-10-20,2025-10-20,Ｓ．Ｇ．ＧＥＭＳ合同会社,,合同会社,東京都,港区,新橋５丁目１２番１１号天翔ビル４０６号室,,13,103,1050004,,,,,,,2025-10-20,1,,,,,エスジージェムズ,0
28,1010703007967,新規,0,2025-10-20,2025-10-20,合同会社キングス,,合同会社,東京都,品川区,大井１丁目１１番１号,,13,109,1400014,,,,,,,2025-10-20,1,,,,,キングス,0
35,1011001172578,新規,0,2025-10-20,2025-10-20,株式会社ＫＹＯＤＡＩ,,株式会社,東京都,渋谷区,神宮前４丁目１－１７ヴィラ千草３０２,,13,113,1500001,,,,,,,2025-10-20,1,,,,,キョウダイ,0
36,1011001173097,新規,0,2025-10-20,2025-10-20,株式会社Ｒ・Ｅ・Ｃ,,株式会社,東京都,目黒区,中町１丁目２９番１－１０１号シティカレント目黒学芸大学,,13,110,1530065,,,,,,,2025-10-20,1,,,,,レック,0
37,1011001173213,新規,0,2025-10-20,2025-10-20,ＭＩＲＡ株式会社,,株式会社,東京都,渋谷区,神宮前１丁目３番１２号,,13,113,1500001,,,,,,,2025-10-20,1,,,,,ミラ,0
38,1011003022590,新規,0,2025-10-20,2025-10-20,合同会社ＮＳＫ,,合同会社,東京都,渋谷区,円山町５番３号ＭＩＥＵＸ渋谷ビル８階,,13,113,1500044,,,,,,,2025-10-20,1,,,,,エヌエスケー,0
41,1011101113498,新規,0,2025-10-20,2025-10-20,株式会社オーラムキューブ,,株式会社,東京都,新宿区,西新宿７丁目５番２５号,,13,104,1600023,,,,,,,2025-10-20,1,,,,,オーラムキューブ,0
42,1011101113507,新規,0,2025-10-20,2025-10-20,株式会社トレステージ,,株式会社,東京都,新宿区,新宿１丁目３６－２新宿第七葉山ビル３Ｆ,,13,104,1600022,,,,,,,2025-10-20,1,,,,,トレステージ,0
43,1011101113515,新規,0,2025-10-20,2025-10-20,ＯＰホールディングス株式会社,,株式会社,東京都,新宿区,西早稲田３丁目３０番１６号,,13,104,1690051,,,,,,,2025-10-20,1,,,,,オーピーホールディングス,0
44,1011101113523,新規,0,2025-10-20,2025-10-20,完璧な意境株式会社,,株式会社,東京都,新宿区,歌舞伎町２丁目２５番８号２１４室,,13,104,1600021,,,,,,,2025-10-20,1,,,,,カンペキナイケイ,0
45,1011101113531,新規,0,2025-10-20,2025-10-20,株式会社ダイアログオンエア,,株式会社,東京都,新宿区,四谷４丁目３番地１,,13,104,1600004,,,,,,,2025-10-20,1,,,,,ダイアログオンエア,0
46,1011101113548,新規,0,2025-10-20,2025-10-20,Ｍ＆Ａ技研株式会社,,株式会社,東京都,新宿区,四谷１丁目７番地１０第３鹿倉ビル４Ｆ,,13,104,1600004,,,,,,,2025-10-20,1,,,,,エムアンドエーギケン,0
47,1011103016476,新規,0,2025-10-20,2025-10-20,合同会社龍の風,,合同会社,東京都,新宿区,北新宿１丁目８番１７号９階,,13,104,1690074,,,,,,,2025-10-20,1,,,,,リュウノカゼ,0
48,1011103016501,新規,0,2025-10-20,2025-10-20,ご飯の友合同会社,,合同会社,東京都,新宿区,西新宿６丁目５番１号新宿アイランドタワー２階,,13,104,1600023,,,,,,,2025-10-20,1,,,,,ゴハンノトモ,0
49,1011103016583,新規,0,2025-10-20,2025-10-20,キャリアデザインＸＰ合同会社,,合同会社,東京都,新宿区,中落合３丁目６番４－３０７号,,13,104,1610032,,,,,,,2025-10-20,1,,,,,キャリアデザインエックスピー,0
52,1011105011624,新規,0,2025-10-20,2025-10-20,一般社団法人ピュアレジャー,,その他の設立登記法人,東京都,新宿区,四谷２丁目９番地１５東京ユナイテッド綜合事務所内,,13,104,1600004,,,,,,,2025-10-20,1,,,,,ピュアレジャー,0
56,1011401027497,新規,0,2025-10-20,2025-10-20,株式会社アウフヘーベン,,株式会社,東京都,板橋区,南常盤台２丁目１８番３号コーポホリエ２０２,,13,119,1740072,,,,,,,2025-10-20,1,,,,,アウフヘーベン,0
58,1011601029104,新規,0,2025-10-20,2025-10-20,株式会社ＲＩＳＥ,,株式会社,東京都,練馬区,関町北５丁目８番３－７０６号,,13,120,1770051,,,,,,,2025-10-20,1,,,,,ライズ,0
59,1011701028864,新規,0,2025-10-20,2025-10-20,株式会社奉栄,,株式会社,東京都,江戸川区,南葛西３丁目１５番４号パールハイツ絹川１０３,,13,123,1340085,,,,,,,2025-10-20,1,,,,,ホウエイ,0
61,1012401043724,新規,0,2025-10-20,2025-10-20,ベゼルアップ株式会社,,株式会社,東京都,府中市,四谷６丁目３４番地の１５,,13,206,1830035,,,,,,,2025-10-20,1,,,,,ベゼルアップ,0
71,1013301055140,新規,0,2025-10-20,2025-10-20,安雨ホスピタリティ株式会社,,株式会社,東京都,豊島区,西巣鴨１丁目２番２２号ＷＡＮＤＡビル２階,,13,116,1700001,,,,,,,2025-10-20,1,,,,,ヤスメグミホスピタリティ,0
76,1020001165335,新規,0,2025-10-20,2025-10-20,株式会社八咫烏,,株式会社,神奈川県,川崎市幸区,中幸町３丁目４－１ザ・パークハウス川崎レジデンス１２０２,,14,132,2120012,,,,,,,2025-10-20,1,,,,,ヤタガラス,0
77,1020001165351,新規,0,2025-10-20,2025-10-20,株式会社ＡＮＭＯＬ,,株式会社,神奈川県,横浜市都筑区,葛が谷６番３６号,,14,118,2240062,,,,,,,2025-10-20,1,,,,,アンモル,0
78,1020001165376,新規,0,2025-10-20,2025-10-20,Ａｎｙ　Ｒｏｕｔｅ株式会社,,株式会社,神奈川県,川崎市中原区,小杉町２丁目２２８番地１Ｗ１８０７,,14,133,2110063,,,,,,,2025-10-20,1,,,,,エニイルート,0
81,1020003029505,新規,0,2025-10-20,2025-10-20,合同会社ＷＡＱＷＡ,,合同会社,神奈川県,川崎市高津区,蟹ケ谷２１番地１リエス蟹ヶ谷４１６,,14,134,2130025,,,,,,,2025-10-20,1,,,,,ワクワ,0
82,1020003029595,新規,0,2025-10-20,2025-10-20,合同会社モノプラス,,合同会社,神奈川県,川崎市高津区,新作５丁目１１番１号,,14,134,2130014,,,,,,,2025-10-20,1,,,,,モノプラス,0
83,1020003029620,新規,0,2025-10-20,2025-10-20,合同会社ＬＷＳ,,合同会社,神奈川県,横浜市中区,扇町１丁目１番地２５キンガビル１Ｆ,,14,104,2310027,,,,,,,2025-10-20,1,,,,,エルダブリュエス,0
86,1021001086554,新規,0,2025-10-20,2025-10-20,株式会社ＭＩＮＯホーム,,株式会社,神奈川県,座間市,東原１丁目２番１１号,,14,216,2520004,,,,,,,2025-10-20,1,,,,,ミノホーム,0
87,1021001086595,新規,0,2025-10-20,2025-10-20,株式会社ＢｌｏｏｍＡＩ,,株式会社,神奈川県,藤沢市,辻堂５丁目１－２１ノーブル湘南３０１,,14,205,2510047,,,,,,,2025-10-20,1,,,,,ブルームエーアイ,0
88,1030001169310,新規,0,2025-10-20,2025-10-20,三一株式会社,,株式会社,埼玉県,川口市,西川口６丁目４－６第二荻島ビル２０７,,11,203,3320021,,,,,,,2025-10-20,1,,,,,サンイチ,0
102,1040001140922,新規,0,2025-10-20,2025-10-20,株式会社スパークハート,,株式会社,千葉県,我孫子市,青山台３丁目３番１０号,,12,222,2701175,,,,,,,2025-10-20,1,,,,,スパークハート,0
103,1040001141012,新規,0,2025-10-20,2025-10-20,株式会社ニアノーチェスト,,株式会社,千葉県,松戸市,栄町西４丁目１２３４番地,,12,207,2710061,,,,,,,2025-10-20,1,,,,,ニアノーチェスト,0
122,1080401028227,新規,0,2025-10-20,2025-10-20,株式会社隆盛,,株式会社,静岡県,浜松市中央区,湖東町６０６３番地Ｒｙｕｓｅｉ１０６,,22,138,4311103,,,,,,,2025-10-20,1,,,,,リュウセイ,0
144,1120001280842,新規,0,2025-10-20,2025-10-20,東成株式会社,,株式会社,大阪府,大阪市平野区,平野本町４丁目５－３－４０２,,27,126,5470044,,,,,,,2025-10-20,1,,,,,トウセイ,0
145,1120001280850,新規,0,2025-10-20,2025-10-20,晴豊株式会社,,株式会社,大阪府,大阪市此花区,梅香３丁目２５番４号サカエマンション梅香３０２,,27,104,5540013,,,,,,,2025-10-20,1,,,,,ハトヨ,0
146,1120001280900,新規,0,2025-10-20,2025-10-20,株式会社シュエット,,株式会社,大阪府,大阪市福島区,海老江８丁目２番３２号,,27,103,5530001,,,,,,,2025-10-20,1,,,,,シュエット,0
147,1120001280909,新規,0,2025-10-20,2025-10-20,株式会社ＥＮＯＮ,,株式会社,大阪府,大阪市北区,中崎西４丁目３番９号ルモン東梅田１０６号,,27,127,5300015,,,,,,,2025-10-20,1,,,,,エノン,0
148,1120001281114,新規,0,2025-10-20,2025-10-20,精誠株式会社,,株式会社,大阪府,大阪市西成区,潮路１丁目３番６号６０６号室,,27,122,5570052,,,,,,,2025-10-20,1,,,,,セイセイ,0
149,1120001281295,新規,0,2025-10-20,2025-10-20,日本水生物株式会社,,株式会社,大阪府,大阪市中央区,西心斎橋２丁目１２番２２号朝日プラザ心斎橋４１６号室,,27,128,5420086,,,,,,,2025-10-20,1,,,,,ニホンスイセイブツ,0
154,1120003030989,新規,0,2025-10-20,2025-10-20,合同会社ハグルマヒーティング,,合同会社,大阪府,枚方市,北中振３丁目１７－３６中振２ライゼボックス０５号,,27,210,5730064,,,,,,,2025-10-20,1,,,,,ハグルマヒーティング,0
155,1120003031005,新規,0,2025-10-20,2025-10-20,大阪怡園商事合同会社,,合同会社,大阪府,大阪市淀川区,西宮原３丁目３番３－２３２号,,27,123,5320004,,,,,,,2025-10-20,1,,,,,オオサカイエンショウジ,0
161,1120105010071,新規,0,2025-10-20,2025-10-20,一般社団法人堺観光魚仲卸市場組合,,その他の設立登記法人,大阪府,堺市堺区,向陵中町４丁７番１１号第二三国ヶ丘コーポ１階１号,,27,141,5900024,,,,,,,2025-10-20,1,,,,,サカイカンコウウオナカオロシイチバクミアイ,0
164,1120903005909,新規,0,2025-10-20,2025-10-20,合同会社ひの木,,合同会社,大阪府,豊能郡豊能町,光風台６丁目２０－７,,27,321,5630104,,,,,,,2025-10-20,1,,,,,ヒノキ,0
167,1130001080762,新規,0,2025-10-20,2025-10-20,株式会社Ｅｘｈｉｂｉｔｉｏｎ　Ｈｕｂ　Ｊａｐａｎ,,株式会社,京都府,京都市右京区,西院平町２８番地１,,26,108,6150022,,,,,,,2025-10-20,1,,,,,エキシビションハブジャパン,0
171,1140001140334,新規,0,2025-10-20,2025-10-20,株式会社ｉｎＹｏ,,株式会社,兵庫県,神戸市中央区,加納町４丁目５番１０号北野坂ＫＩＮＳＥＮビル４階,,28,110,6500001,,,,,,,2025-10-20,1,,,,,インヨウ,0
173,1140003022662,新規,0,2025-10-20,2025-10-20,合同会社ＭＩＲＡｃｌｅ,,合同会社,兵庫県,宝塚市,武庫川町４－３宝塚第壱コーポラス７１０号室,00141170,28,214,6650844,,,,,,,2025-10-20,1,,,,,ミラクル,0
175,1140005027668,新規,0,2025-10-20,2025-10-20,一般社団法人世界物流支援連合,,その他の設立登記法人,兵庫県,神戸市中央区,楠町６丁目１２番９号１階,,28,110,6500017,,,,,,,2025-10-20,1,,,,,セカイブツリュウシエンレンゴウ,0
186,1180001169188,新規,0,2025-10-20,2025-10-20,株式会社エカラ,,株式会社,愛知県,名古屋市中区,千代田２丁目１５番２２号ＰＯＮＡＮＴ鶴舞公園４０７号,,23,106,4600012,,,,,,,2025-10-20,1,,,,,エカラ,0
191,1180003029209,新規,0,2025-10-20,2025-10-20,ＡＱＵＡＬＩＮＫ合同会社,,合同会社,愛知県,名古屋市中区,丸の内３丁目１５番１３号エンブルコート丸の内１２０５,,23,106,4600002,,,,,,,2025-10-20,1,,,,,アクアリンク,0
192,1180003029274,新規,0,2025-10-20,2025-10-20,Ｓｍａｌｌ‐ＯＫＲ合同会社,,合同会社,愛知県,愛知郡東郷町,大字諸輪字仁登５７番地,,23,302,4700151,,,,,,,2025-10-20,1,,,,,スモールオーケーアール,0
205,1200001044355,新規,0,2025-10-20,2025-10-20,株式会社ＡＮＮＥＹ,,株式会社,岐阜県,岐阜市,六条南２丁目１７番４号,,21,201,5008358,,,,,,,2025-10-20,1,,,,,アンネイ,0
214,1240001065661,新規,0,2025-10-20,2025-10-20,株式会社ＢＶｉ,,株式会社,広島県,広島市西区,草津新町１丁目８番１３－１０３号,,34,104,7330834,,,,,,,2025-10-20,1,,,,,ビビ,0
217,1250003003833,新規,0,2025-10-20,2025-10-20,なつめ合同会社,,合同会社,山口県,岩国市,由宇町南２丁目７番７号１０３号室,,35,208,7401451,,,,,,,2025-10-20,1,,,,,ナツメ,0
219,1260001040662,新規,0,2025-10-20,2025-10-20,株式会社ジオブルームラボ,,株式会社,岡山県,倉敷市,山地１８７番地１,,33,202,7010104,,,,,,,2025-10-20,1,,,,,ジオブルームラボ,0
225,1290001111691,新規,0,2025-10-20,2025-10-20,株式会社ＷｗＷ,,株式会社,福岡県,福岡市中央区,天神３丁目４－１０天神西茂ビル６階,,40,133,8100001,,,,,,,2025-10-20,1,,,,,,0
226,1290001111816,新規,0,2025-10-20,2025-10-20,株式会社ＡＫリアルエステート,,株式会社,福岡県,福岡市博多区,山王１丁目１４番３４－５０１号,,40,132,8120015,,,,,,,2025-10-20,1,,,,,エーケーリアルエステート,0
227,1290001111931,新規,0,2025-10-20,2025-10-20,いろは株式会社,,株式会社,福岡県,福岡市博多区,博多駅前２丁目１７番１号,,40,132,8120011,,,,,,,2025-10-20,1,,,,,イロハ,0
233,1310001019817,新規,0,2025-10-20,2025-10-20,株式会社大江自動車,,株式会社,長崎県,南島原市,南有馬町乙１３１０番地４,,42,214,8592412,,,,,,,2025-10-20,1,,,,,オオエジドウシャ,0
234,1320001021400,新規,0,2025-10-20,2025-10-20,株式会社Ｇａｒａｇｅ　Ｂｏｏｏｎ,,株式会社,大分県,大分市,大字細３０２番地の２,,44,201,8700305,,,,,,,2025-10-20,1,,,,,ガレージブーン,0
246,1420001019293,新規,0,2025-10-20,2025-10-20,株式会社タケナカホールディングス,,株式会社,青森県,青森市,大字野木字野尻３７番地７５８,,02,201,0300142,,,,,,,2025-10-20,1,,,,,タケナカホールディングス,0
247,1420001019302,新規,0,2025-10-20,2025-10-20,株式会社ｋｕｋｕ,,株式会社,青森県,弘前市,大字桔梗野１丁目１７番地１１,,02,202,0368227,,,,,,,2025-10-20,1,,,,,クク,0
253,1430001095417,新規,0,2025-10-20,2025-10-20,株式会社結ノース,,株式会社,北海道,札幌市東区,北四十二条東１丁目５－２４ＭＲハウス２号室,,01,103,0070842,,,,,,,2025-10-20,1,,,,,ユイノース,0
255,1430003018193,新規,0,2025-10-20,2025-10-20,合同会社スミリア,,合同会社,北海道,札幌市南区,澄川四条３丁目１－７澄川４－３ビル１階,,01,106,0050004,,,,,,,2025-10-20,1,,,,,スミリア,0
260,1470003003002,新規,0,2025-10-20,2025-10-20,安部不動産合同会社,,合同会社,香川県,坂出市,本町３丁目６番１１号,,37,203,7620044,,,,,,,2025-10-20,1,,,,,アベフドウサン,0
261,1500001026587,新規,0,2025-10-20,2025-10-20,株式会社リフォーメスト,,株式会社,愛媛県,新居浜市,西の土居町１丁目２番５１号,,38,205,7920035,,,,,,,2025-10-20,1,,,,,リフォーメスト,0
262,1500003003618,新規,0,2025-10-20,2025-10-20,合同会社ＲＥＮ,,合同会社,愛媛県,伊予市,上野８４９番地５,,38,210,7993103,,,,,,,2025-10-20,1,,,,,レン,0
266,2010001259343,新規,0,2025-10-20,2025-10-20,Ｇｒｅｅｎ　Ｈａｒｍｏｎｙ株式会社,,株式会社,東京都,中央区,日本橋小伝馬町１６―９,,13,102,1030001,,,,,,,2025-10-20,1,,,,,グリーンハーモニー,0
269,2010003049115,新規,0,2025-10-20,2025-10-20,エクサガーデンコンサルティング合同会社,,合同会社,東京都,中央区,銀座１丁目１２番４号Ｎ＆ＥＢＬＤ．６Ｆ,,13,102,1040061,,,,,,,2025-10-20,1,,,,,エクサガーデンコンサルティング,0
277,2010401193514,新規,0,2025-10-20,2025-10-20,ＹｏｕｒＣｏｎｔｅｘｔ株式会社,,株式会社,東京都,港区,東新橋２丁目７－３,,13,103,1050021,,,,,,,2025-10-20,1,,,,,ユアコンテクスト,0
290,2010701048483,新規,0,2025-10-20,2025-10-20,フレッシュキャリア株式会社,,株式会社,東京都,品川区,西五反田７丁目２３番１１号ライオンズマンション西五反田１２０３号室,,13,109,1410031,,,,,,,2025-10-20,1,,,,,フレッシュキャリア,0
291,2010701048491,新規,0,2025-10-20,2025-10-20,株式会社Ａｌｌｕｖｉａ,,株式会社,東京都,品川区,東五反田１丁目１４番９号ＦＳビル４階,,13,109,1410022,,,,,,,2025-10-20,1,,,,,アルヴィア,0
293,2010801036710,新規,0,2025-10-20,2025-10-20,株式会社ｈａｍｏｎａ,,株式会社,東京都,大田区,西蒲田５丁目１２番７号ＣＯＣＯＣＵＢＥ西蒲田４０３,,13,111,1440051,,,,,,,2025-10-20,1,,,,,ハモナ,0
295,2010901058282,新規,0,2025-10-20,2025-10-20,Ｓｐｉｒｉａ株式会社,,株式会社,東京都,世田谷区,宮坂３丁目１３番１－４０２号,,13,112,1560051,,,,,,,2025-10-20,1,,,,,スピリア,0
306,2011001173006,新規,0,2025-10-20,2025-10-20,株式会社ＢｕｚｚＴｏｇｅ,,株式会社,東京都,渋谷区,道玄坂１丁目１０番８号渋谷道玄坂東急ビル２Ｆ－Ｃ,,13,113,1500043,,,,,,,2025-10-20,1,,,,,バズトゥゲ,0
307,2011001173294,新規,0,2025-10-20,2025-10-20,ＪＰ　ＴＯＵＲＳ株式会社,,株式会社,東京都,渋谷区,神宮前６丁目２３番４号桑野ビル２階,,13,113,1500001,,,,,,,2025-10-20,1,,,,,ジェーピーツアーズ,0
310,2011003022689,新規,0,2025-10-20,2025-10-20,Ｓｏｕｎｄ＆ｓｈｏｗｅｒ合同会社,,合同会社,東京都,目黒区,下目黒１丁目３番４ベルグリーン目黒３０１号室,,13,110,1530064,,,,,,,2025-10-20,1,,,,,サウンドアンドシャワー,0
318,2011101113506,新規,0,2025-10-20,2025-10-20,株式会社ＮＯＷ　ＴＯＫＹＯ,,株式会社,東京都,新宿区,西新宿３丁目３番１３号西新宿水間ビル６階,,13,104,1600023,,,,,,,2025-10-20,1,,,,,ナウトウキョウ,0
319,2011101113514,新規,0,2025-10-20,2025-10-20,株式会社Ｗａｌｌｅｙｓ,,株式会社,東京都,新宿区,西新宿６丁目５番１号新宿アイランドタワー２階,,13,104,1600023,,,,,,,2025-10-20,1,,,,,ウォーリーズ,0
320,2011101113547,新規,0,2025-10-20,2025-10-20,ジョブリック株式会社,,株式会社,東京都,新宿区,西新宿３丁目９－２イマス西新宿第一ビル３Ｆ－Ｂ,,13,104,1600023,,,,,,,2025-10-20,1,,,,,ジョブリック,0
321,2011101113555,新規,0,2025-10-20,2025-10-20,株式会社１‐ＬＩＦＥ‐ＷＡＮ,,株式会社,東京都,新宿区,新宿５丁目１１番２３号,,13,104,1600022,,,,,,,2025-10-20,1,,,,,ワンライフワン,0
322,2011101113613,新規,0,2025-10-20,2025-10-20,株式会社ＰＬＡＹＥＲＳ,,株式会社,東京都,新宿区,西新宿３丁目３番１３号西新宿水間ビル２Ｆ,,13,104,1600023,,,,,,,2025-10-20,1,,,,,プレイヤーズ,0
324,2011103016392,新規,0,2025-10-20,2025-10-20,合同会社Ｌｕｍｉｎａｒｅ,,合同会社,東京都,新宿区,高田馬場１丁目６‐１０ハウスカブラキ１０５,,13,104,1690075,,,,,,,2025-10-20,1,,,,,ルミナーレ,0
325,2011103016500,新規,0,2025-10-20,2025-10-20,合同会社ザブックス,,合同会社,東京都,新宿区,西新宿３丁目３番１３号西新宿水間ビル６階,,13,104,1600023,,,,,,,2025-10-20,1,,,,,ザブックス,0
328,2011405002413,新規,0,2025-10-20,2025-10-20,一般社団法人日本セルフエステティック協会,,その他の設立登記法人,東京都,板橋区,南常盤台２丁目１６番２－４０１号,,13,119,1740072,,,,,,,2025-10-20,1,,,,,ニホンセルフエステティックキョウカイ,0
330,2011703004425,新規,0,2025-10-20,2025-10-20,合同会社ＡＢＣ,,合同会社,東京都,江戸川区,北小岩２丁目１６番１１号メゾンブランシュＣ,,13,123,1330051,,,,,,,2025-10-20,1,,,,,エービーシー,0
339,2012303002232,新規,0,2025-10-20,2025-10-20,ＡＺＡ　ＤＥＳＩＧＮ合同会社,,合同会社,東京都,町田市,山崎町１３８０番地シーアイハイツＨ－１２０３,,13,209,1950074,,,,,,,2025-10-20,1,,,,,アザデザイン,0
341,2012403007412,新規,0,2025-10-20,2025-10-20,綾野コンサルティング合同会社,,合同会社,東京都,武蔵野市,吉祥寺本町１丁目３０－７－２０９号室,,13,203,1800004,,,,,,,2025-10-20,1,,,,,アヤノコンサルティング,0
342,2013101009840,新規,0,2025-10-20,2025-10-20,株式会社ＴＭコーポレーション,,株式会社,東京都,羽村市,小作台５丁目１６番７号サンハイツ小作１０１,,13,227,2050001,,,,,,,2025-10-20,1,,,,,ティーエムコーポレーション,0
343,2013103001498,新規,0,2025-10-20,2025-10-20,合同会社ＴｍＴ,,合同会社,東京都,青梅市,新町９丁目２０１６番地の１０ヴェレーナ青梅新町１１３１,,13,205,1980024,,,,,,,2025-10-20,1,,,,,ティーエムティー,0
348,2013301055123,新規,0,2025-10-20,2025-10-20,株式会社ソラニア,,株式会社,東京都,豊島区,西池袋１丁目２９－５山の手ビル２Ｆ－Ｂ号室,,13,116,1710021,,,,,,,2025-10-20,1,,,,,ソラニア,0
349,2013303007923,新規,0,2025-10-20,2025-10-20,合同会社ｏｆｆｉｃｅ　ｖｅｇｇｉ,,合同会社,東京都,豊島区,池袋２丁目３９番１２号,,13,116,1710014,,,,,,,2025-10-20,1,,,,,オフィスヴェジ,0
356,2020003029529,新規,0,2025-10-20,2025-10-20,ｆｏｒｔｕｎｅ合同会社,,合同会社,神奈川県,横浜市保土ケ谷区,天王町１丁目４番地７ＨＢビル２０１号,,14,106,2400003,,,,,,,2025-10-20,1,,,,,フォルチュンヌ,0
361,2021001086594,新規,0,2025-10-20,2025-10-20,株式会社光陽企画,,株式会社,神奈川県,小田原市,国府津１９０５番地の２,,14,206,2560812,,,,,,,2025-10-20,1,,,,,コウヨウキカク,0
363,2021003016715,新規,0,2025-10-20,2025-10-20,合同会社マッパン,,合同会社,神奈川県,秦野市,堀西８９－３,,14,211,2591331,,,,,,,2025-10-20,1,,,,,マッパン,0
364,2021003016723,新規,0,2025-10-20,2025-10-20,合同会社Ｉ・ＤＥＮＫＯ,,合同会社,神奈川県,平塚市,片岡３６２番地の８,,14,203,2591213,,,,,,,2025-10-20,1,,,,,アイデンコウ,0
379,2040001140946,新規,0,2025-10-20,2025-10-20,株式会社Ｇｏａｌｄｄｙ,,株式会社,千葉県,柏市,増尾台３丁目２０番４－１号,,12,217,2770052,,,,,,,2025-10-20,1,,,,,ゴールディ,0
380,2040001141036,新規,0,2025-10-20,2025-10-20,株式会社ＴＯＭ,,株式会社,千葉県,千葉市中央区,鶴沢町２２番１号Ｇ．Ｔハウス,,12,101,2600003,,,,,,,2025-10-20,1,,,,,トム,0
386,2040003028743,新規,0,2025-10-20,2025-10-20,Ｒ　Ｓ　ＭＯＴＯＲＳ合同会社,,合同会社,千葉県,山武市,松尾町高富１５２７番地３９,,12,237,2891522,,,,,,,2025-10-20,1,,,,,アールエスモータース,0
408,2100001039050,新規,0,2025-10-20,2025-10-20,株式会社カーシールドゴウヅ,,株式会社,長野県,安曇野市,穂高８２０４番地３,,20,220,3998303,,,,,,,2025-10-20,1,,,,,カーシールドゴウヅ,0
409,2100005013407,新規,0,2025-10-20,2025-10-20,一般社団法人美須々の杜のモール,,その他の設立登記法人,長野県,松本市,波田１０３７４番地,,20,202,3901401,,,,,,,2025-10-20,1,,,,,ミスズノモリノモール,0
435,2120001280890,新規,0,2025-10-20,2025-10-20,株式会社ＯＦＦＩＣＥ　ＴＡＫＡＩ,,株式会社,大阪府,大阪市北区,天満１丁目１１番１０号,,27,127,5300043,,,,,,,2025-10-20,1,,,,,オフィスタカイ,0
436,2120001280973,新規,0,2025-10-20,2025-10-20,株式会社Ｎｏ　Ｌｉｍｉｔ,,株式会社,大阪府,寝屋川市,若葉町２９番８－２０２号シャーメゾンＡ棟,,27,215,5720031,,,,,,,2025-10-20,1,,,,,ノーリミット,0
437,2120001281030,新規,0,2025-10-20,2025-10-20,ＡＭメディカル株式会社,,株式会社,大阪府,大阪市都島区,都島北通２丁目１０－２１－１０２号,,27,102,5340014,,,,,,,2025-10-20,1,,,,,エイエムメディカル,0
438,2120001281096,新規,0,2025-10-20,2025-10-20,格格国際株式会社,,株式会社,大阪府,大阪市東淀川区,南江口１丁目１番４１－８０５号,,27,114,5330003,,,,,,,2025-10-20,1,,,,,コウコウコクサイ,0
439,2120001281113,新規,0,2025-10-20,2025-10-20,潮悦薈株式会社,,株式会社,大阪府,大阪市生野区,田島６丁目２番２８号２０４号室,,27,116,5440011,,,,,,,2025-10-20,1,,,,,チョウエツワイ,0
440,2120001281170,新規,0,2025-10-20,2025-10-20,株式会社ＡＳＳＥＣＯＭコンストラクション,,株式会社,大阪府,大阪市西区,江戸堀１丁目２３番１９－１００３号,,27,106,5500002,,,,,,,2025-10-20,1,,,,,エスコムコンストラクション,0
441,2120001281393,新規,0,2025-10-20,2025-10-20,ＬＩＮＫＳ株式会社,,株式会社,大阪府,大阪市中央区,瓦屋町３丁目１０番１,,27,128,5420066,,,,,,,2025-10-20,1,,,,,リンクス,0
451,2120003030988,新規,0,2025-10-20,2025-10-20,合同会社ダックダイブ,,合同会社,大阪府,大阪市住之江区,新北島８丁目１番１７－７０５号,,27,125,5590024,,,,,,,2025-10-20,1,,,,,ダックダイブ,0
452,2120003031012,新規,0,2025-10-20,2025-10-20,クラフトスマート合同会社,,合同会社,大阪府,大阪市東淀川区,北江口２丁目２番６－１１０７号,,27,114,5330002,,,,,,,2025-10-20,1,,,,,クラフトスマート,0
457,2120901051648,新規,0,2025-10-20,2025-10-20,株式会社太陽,,株式会社,大阪府,茨木市,上穂積４丁目１番３５－３０４,,27,211,5670036,,,,,,,2025-10-20,1,,,,,タイヨウ,0
459,2120903005899,新規,0,2025-10-20,2025-10-20,合同会社Ｐａｒｔｎｅｒａ,,合同会社,大阪府,吹田市,津雲台５丁目１８番３０－１２２号,,27,205,5650862,,,,,,,2025-10-20,1,,,,,パートネラ,0
460,2122001039755,新規,0,2025-10-20,2025-10-20,大東エンジニアリング株式会社,,株式会社,大阪府,東大阪市,柏田本町１９番６号,,27,227,5770834,,,,,,,2025-10-20,1,,,,,ダイトウエンジニアリング,0
461,2122001039771,新規,0,2025-10-20,2025-10-20,株式会社ＨＫ　Ｂａｓｅ,,株式会社,大阪府,八尾市,八尾木４丁目１３番地の１６,,27,212,5810027,,,,,,,2025-10-20,1,,,,,エイチケーベース,0
464,2130001080828,新規,0,2025-10-20,2025-10-20,楷雅株式会社,,株式会社,京都府,京都市伏見区,深草西浦町１丁目１５－６ＹＵＹＵビル２Ｃ,,26,109,6120029,,,,,,,2025-10-20,1,,,,,カイガ,0
467,2140001140416,新規,0,2025-10-20,2025-10-20,株式会社アイヴァクシス,,株式会社,兵庫県,神戸市東灘区,御影山手２丁目２２－２０－１０３,,28,101,6580065,,,,,,,2025-10-20,1,,,,,アイヴァクシス,0
471,2170001018832,新規,0,2025-10-20,2025-10-20,株式会社Ｒ．Ｅ．Ｃ．Ｓ,,株式会社,和歌山県,岩出市,吉田６８番地の３８,00141165,30,209,6496246,,,,,,,2025-10-20,1,,,,,レックス,0
474,2180001168809,新規,0,2025-10-20,2025-10-20,株式会社七宝,,株式会社,愛知県,名古屋市天白区,向が丘４丁目５２０番地,,23,116,4680012,,,,,,,2025-10-20,1,,,,,シッポウ,0
475,2180001168924,新規,0,2025-10-20,2025-10-20,セイケンホールディングス株式会社,,株式会社,愛知県,小牧市,大字文津３０４番地,,23,219,4850827,,,,,,,2025-10-20,1,,,,,セイケンホールディングス,0
476,2180001169047,新規,0,2025-10-20,2025-10-20,株式会社ＡＬＩＶＥ,,株式会社,愛知県,名古屋市西区,大野木３丁目１４番地２,,23,104,4520803,,,,,,,2025-10-20,1,,,,,アライブ,0
477,2180001169138,新規,0,2025-10-20,2025-10-20,株式会社大小,,株式会社,愛知県,名古屋市中区,丸の内２丁目１２番２６号丸の内セントラルビル５Ｆ,,23,106,4600002,,,,,,,2025-10-20,1,,,,,ダイショウ,0
478,2180001169146,新規,0,2025-10-20,2025-10-20,株式会社圓庄,,株式会社,愛知県,東海市,荒尾町見晴５０－６,,23,222,4760003,,,,,,,2025-10-20,1,,,,,エンショウ,0
479,2180001169179,新規,0,2025-10-20,2025-10-20,Ｃａｌｏｒ　Ｔｉｍｂｅｒ株式会社,,株式会社,愛知県,名古屋市守山区,天子田２丁目９０９番地２,,23,113,4630037,,,,,,,2025-10-20,1,,,,,カロルティンバー,0
480,2180001169212,新規,0,2025-10-20,2025-10-20,株式会社一輝コーポレーション,,株式会社,愛知県,名古屋市名東区,藤巻町３丁目２番地の２９５,,23,115,4650075,,,,,,,2025-10-20,1,,,,,イツキコーポレーション,0
482,2180003029133,新規,0,2025-10-20,2025-10-20,合同会社ＰＳＡ,,合同会社,愛知県,名古屋市中村区,名駅３丁目８番６号,,23,105,4500002,,,,,,,2025-10-20,1,,,,,ピーエスエー,0
483,2180003029208,新規,0,2025-10-20,2025-10-20,ＡＱＵＡ合同会社,,合同会社,愛知県,名古屋市中区,丸の内２丁目６番２７号ＢＰＲレジデンス丸の内２０２号,,23,106,4600002,,,,,,,2025-10-20,1,,,,,アクア,0
494,2190001032625,新規,0,2025-10-20,2025-10-20,ル・トレフル株式会社,,株式会社,三重県,桑名市,太一丸１８番地,,24,205,5110005,,,,,,,2025-10-20,1,,,,,ルトレフル,0
498,2190005012078,新規,0,2025-10-20,2025-10-20,特定非営利活動法人まなざしの学び場,,その他の設立登記法人,三重県,伊勢市,御薗町高向９１６番地２,,24,203,5160805,,,,,,,2025-10-20,1,,,,,マナザシノマナビバ,0
499,2200001044354,新規,0,2025-10-20,2025-10-20,株式会社アンダー・マウンテン,,株式会社,岐阜県,下呂市,小坂町坂下７１番地１,,21,220,5093105,,,,,,,2025-10-20,1,,,,,アンダーマウンテン,0
505,2240001065669,新規,0,2025-10-20,2025-10-20,野々下葬祭株式会社,,株式会社,広島県,広島市中区,江波南３丁目１２番３０－１号,,34,101,7300835,,,,,,,2025-10-20,1,,,,,ノノシタソウサイ,0
508,2260001040645,新規,0,2025-10-20,2025-10-20,アベリス株式会社,,株式会社,岡山県,岡山市中区,藤崎５０６番地１２,,33,102,7028006,,,,,,,2025-10-20,1,,,,,アベリス,0
510,2260003005381,新規,0,2025-10-20,2025-10-20,合同会社Ｂｌｏｏｍ　Ｋｉｔｃｈｅｎ,,合同会社,岡山県,笠岡市,笠岡５０７－１８－２０１,,33,205,7140081,,,,,,,2025-10-20,1,,,,,ブルームキッチン,0
518,2290001111658,新規,0,2025-10-20,2025-10-20,株式会社エンガリア,,株式会社,福岡県,福岡市南区,大池１丁目２８番２０号,,40,134,8150073,,,,,,,2025-10-20,1,,,,,エンガリア,0
519,2290001111716,新規,0,2025-10-20,2025-10-20,株式会社Ｃｈａｔｏｎ,,株式会社,福岡県,糟屋郡志免町,志免中央２丁目２番３７号,,40,343,8112244,,,,,,,2025-10-20,1,,,,,シャトン,0
520,2290001111740,新規,0,2025-10-20,2025-10-20,とくでん株式会社,,株式会社,福岡県,福岡市博多区,博多駅南２丁目１番９号博多筑紫通りセンタービル１Ｆ,,40,132,8120016,,,,,,,2025-10-20,1,,,,,トクデン,0
521,2290001111807,新規,0,2025-10-20,2025-10-20,株式会社ＢＧ,,株式会社,福岡県,福岡市南区,井尻３丁目１０番１２号,,40,134,8111302,,,,,,,2025-10-20,1,,,,,ビジ,0
522,2290001111848,新規,0,2025-10-20,2025-10-20,株式会社Ｂｉｚ９６ＯＫ,,株式会社,福岡県,久留米市,津福本町１４４１番地１,,40,203,8300047,,,,,,,2025-10-20,1,,,,,ビズクロック,0
525,2290003017531,新規,0,2025-10-20,2025-10-20,合同会社はるよか,,合同会社,福岡県,福岡市早良区,東入部２丁目３－３プレステージ入部１０１,,40,137,8111102,,,,,,,2025-10-20,1,,,,,ハルヨカ,0
526,2290003017556,新規,0,2025-10-20,2025-10-20,合同会社モダン・ラヴァーズ,,合同会社,福岡県,福岡市南区,野多目４丁目２－１・２Ｆ,,40,134,8111347,,,,,,,2025-10-20,1,,,,,モダンラヴァーズ,0
527,2290003017564,新規,0,2025-10-20,2025-10-20,合同会社井上マネジメント,,合同会社,福岡県,福岡市中央区,天神２丁目２番１２号－７Ｆ,,40,133,8100001,,,,,,,2025-10-20,1,,,,,イノウエマネジメント,0
529,2290005019848,新規,0,2025-10-20,2025-10-20,特定非営利活動法人ナースサポートくるめ,,その他の設立登記法人,福岡県,久留米市,櫛原町４５,,40,203,8300013,,,,,,,2025-10-20,1,,,,,ナースサポートクルメ,0
536,2320001021399,新規,0,2025-10-20,2025-10-20,髪製薬株式会社,,株式会社,大分県,大分市,府内町３丁目２番３４号ピッツビル３０１,,44,201,8700021,,,,,,,2025-10-20,1,,,,,カミセイヤク,0
539,2340003004986,新規,0,2025-10-20,2025-10-20,合同会社介護ステーション,,合同会社,鹿児島県,南さつま市,金峰町花瀬１６１１番地,,46,220,8993512,,,,,,,2025-10-20,1,,,,,カイゴステーション,0
545,2360005007300,新規,0,2025-10-20,2025-10-20,一般社団法人結晴,,その他の設立登記法人,沖縄県,中頭郡中城村,字南上原４７０番地３－１２１街区１３画地,,47,328,9012424,,,,,,,2025-10-20,1,,,,,ユウハレ,0
550,2380001035633,新規,0,2025-10-20,2025-10-20,グラッソアーキテクト株式会社,,株式会社,福島県,会津若松市,西年貢１丁目１番２０号,,07,202,9650830,,,,,,,2025-10-20,1,,,,,グラッソアーキテクト,0
561,2430001095473,新規,0,2025-10-20,2025-10-20,久安株式会社,,株式会社,北海道,札幌市中央区,南三条西４丁目１６番２　３・４キノシタビル１階,,01,101,0600063,,,,,,,2025-10-20,1,,,,,キュウアン,0
563,2430003018234,新規,0,2025-10-20,2025-10-20,合同会社ウィズ,,合同会社,北海道,札幌市中央区,南五条西１３丁目１番７号サンマンション５０１号,,01,101,0640805,,,,,,,2025-10-20,1,,,,,ウィズ,0
564,2430005015337,新規,0,2025-10-20,2025-10-20,一般社団法人地域創研協会,,その他の設立登記法人,北海道,札幌市中央区,南二条西５丁目３１－１ＲＭＢｌｄ．７０１,,01,101,0600062,,,,,,,2025-10-20,1,,,,,チイキソウケンキョウカイ,0
565,2450001014761,新規,0,2025-10-20,2025-10-20,株式会社萌生会,,株式会社,北海道,旭川市,神居二条１８丁目１６番１６号,,01,204,0708012,,,,,,,2025-10-20,1,,,,,,0
567,2470003003001,新規,0,2025-10-20,2025-10-20,合同会社さいわい,,合同会社,香川県,高松市,香川町川東上６２６番地３４,,37,201,7611706,,,,,,,2025-10-20,1,,,,,サイワイ,0
569,2480001012985,新規,0,2025-10-20,2025-10-20,森電器商会株式会社,,株式会社,徳島県,板野郡上板町,西分字東光３７番地１１,,36,405,7711330,,,,,,,2025-10-20,1,,,,,モリデンキショウカイ,0
572,2500001026586,新規,0,2025-10-20,2025-10-20,株式会社ａｎｄＣｕｌｔｕｒｅ．,,株式会社,愛媛県,松山市,千舟町５丁目３番地１７―４階,,38,201,7900011,,,,,,,2025-10-20,1,,,,,アンドカルチャー,0
581,3010001259540,新規,0,2025-10-20,2025-10-20,株式会社五感と想像力であそぶ,,株式会社,東京都,中央区,銀座１丁目１２番４号Ｎ＆ＥＢＬＤ．６Ｆ,,13,102,1040061,,,,,,,2025-10-20,1,,,,,ゴカントソウゾウリョクデアソブ,0
584,3010003049097,新規,0,2025-10-20,2025-10-20,合同会社ＴＫ２,,合同会社,東京都,中央区,勝どき５丁目３番１－１６１９号,,13,102,1040054,,,,,,,2025-10-20,1,,,,,ティーケーツー,0
591,3010401193538,新規,0,2025-10-20,2025-10-20,株式会社ユーラスクラフト,,株式会社,東京都,港区,南青山２丁目１５番５号ＦＡＲＯ青山１階,,13,103,1070062,,,,,,,2025-10-20,1,,,,,ユーラスクラフト,0
592,3010401193562,新規,0,2025-10-20,2025-10-20,株式会社つなぐ,,株式会社,東京都,港区,南麻布４丁目１１番２８号元山ビル３Ｆ,,13,103,1060047,,,,,,,2025-10-20,1,,,,,ツバグ,0
595,3010403036315,新規,0,2025-10-20,2025-10-20,Ｓｐｉｃａ資産管理法人合同会社,,合同会社,東京都,港区,六本木６丁目１２番２号六本木ヒルズレジデンスＢ３６０３,,13,103,1060032,,,,,,,2025-10-20,1,,,,,スピカシサンカンリホウジン,0
602,3010803005588,新規,0,2025-10-20,2025-10-20,合同会社ｍｉｒａｉ　ｐａｌｅｔｔｅ,,合同会社,東京都,大田区,雪谷大塚町７番２０―４０６号,,13,111,1450067,,,,,,,2025-10-20,1,,,,,ミライパレット,0
609,3011001173186,新規,0,2025-10-20,2025-10-20,雅政株式会社,,株式会社,東京都,目黒区,上目黒１丁目１３番１１号リバーサイド中目黒１０２,,13,110,1530051,,,,,,,2025-10-20,1,,,,,ガセイ,0
619,3011101113364,新規,0,2025-10-20,2025-10-20,株式会社Ｌｏｃｏ,,株式会社,東京都,新宿区,中落合３丁目５番１号,,13,104,1610032,,,,,,,2025-10-20,1,,,,,ロコ,0
621,3011101113538,新規,0,2025-10-20,2025-10-20,株式会社ＨＲエネクト,,株式会社,東京都,新宿区,西新宿３丁目３－１３西新宿水間ビル２Ｆ,,13,104,1600023,,,,,,,2025-10-20,1,,,,,エイチアールエネクト,0
623,3011103016573,新規,0,2025-10-20,2025-10-20,合同会社フォーバリュー,,合同会社,東京都,新宿区,高田馬場４丁目２９―２５パークシティ高田馬場７１３,,13,104,1690075,,,,,,,2025-10-20,1,,,,,フォーバリュー,0
625,3011301030970,新規,0,2025-10-20,2025-10-20,深描株式会社,,株式会社,東京都,杉並区,堀ノ内２丁目１２－１６、１０３号,,13,115,1660013,,,,,,,2025-10-20,1,,,,,シンビョウ,0
635,3011601029102,新規,0,2025-10-20,2025-10-20,株式会社Ｋ’ｓ　ＮＥＯ,,株式会社,東京都,練馬区,春日町６丁目１６番１１－３０３号,,13,120,1790074,,,,,,,2025-10-20,1,,,,,ケーズネオ,0
636,3011701028854,新規,0,2025-10-20,2025-10-20,ＸＴカーボン株式会社,,株式会社,東京都,江戸川区,瑞江１丁目６１－９,,13,123,1320011,,,,,,,2025-10-20,1,,,,,エクスティカーボン,0
637,3011701028862,新規,0,2025-10-20,2025-10-20,株式会社ＹＭＴ,,株式会社,東京都,江戸川区,中央２丁目３３番６号,,13,123,1320021,,,,,,,2025-10-20,1,,,,,ワイエムティー,0
644,3012403007411,新規,0,2025-10-20,2025-10-20,合同会社パルア,,合同会社,東京都,調布市,深大寺東町６丁目６番地６ヴァインズヒル弐番館１０１,,13,208,1820012,,,,,,,2025-10-20,1,,,,,パルア,0
652,3020001165358,新規,0,2025-10-20,2025-10-20,株式会社ＡＺＦ,,株式会社,神奈川県,横浜市中区,山下町２４番地８,,14,104,2310023,,,,,,,2025-10-20,1,,,,,エイゼットエフ,0
653,3020001165382,新規,0,2025-10-20,2025-10-20,ＭＫ商事株式会社,,株式会社,神奈川県,横浜市栄区,東上郷町２４番１２号,,14,115,2470021,,,,,,,2025-10-20,1,,,,,エムケーショウジ,0
654,3020001165390,新規,0,2025-10-20,2025-10-20,株式会社Ｍ　Ｃａｐｉｔａｌ,,株式会社,神奈川県,川崎市中原区,下沼部１７０５－２３,,14,133,2110011,,,,,,,2025-10-20,1,,,,,エムキャピタル,0
655,3020001165408,新規,0,2025-10-20,2025-10-20,株式会社Ｋｅｅｐ　Ｔｒｙｉｎ,,株式会社,神奈川県,横浜市西区,北幸２丁目１０番４８号むつみビル３階,,14,103,2200004,,,,,,,2025-10-20,1,,,,,キープトライン,0
656,3020001165432,新規,0,2025-10-20,2025-10-20,株式会社ＲｅｅｌＳｈｏｒｔ　Ｊａｐａｎ,,株式会社,神奈川県,横浜市西区,みなとみらい３丁目７番１号オーシャンゲートみなとみらい８Ｆ,,14,103,2200012,,,,,,,2025-10-20,1,,,,,リールショートジャパン,0
657,3020001165440,新規,0,2025-10-20,2025-10-20,株式会社ＺＥＲＯ,,株式会社,神奈川県,川崎市中原区,新丸子町７６８－１Ｆ,,14,133,2110005,,,,,,,2025-10-20,1,,,,,ゼロ,0
658,3020003029619,新規,0,2025-10-20,2025-10-20,合同会社空と香,,合同会社,神奈川県,横浜市西区,浅間町１丁目４番３号ウィザードビル４０２,,14,103,2200072,,,,,,,2025-10-20,1,,,,,,0
660,3020005017010,新規,0,2025-10-20,2025-10-20,社会保険労務士法人ＥＴＥＲＮＡＬ　ＣＲＥＳＴ,,その他の設立登記法人,神奈川県,横浜市中区,桜木町１丁目１番７ヒューリックみなとみらい１０階,,14,104,2310062,,,,,,,2025-10-20,1,,,,,エターナルクレスト,0
666,3021001086593,新規,0,2025-10-20,2025-10-20,株式会社テンポイント,,株式会社,神奈川県,平塚市,四之宮２丁目１８番４－３号,,14,203,2540014,,,,,,,2025-10-20,1,,,,,テンポイント,0
667,3021001086610,新規,0,2025-10-20,2025-10-20,株式会社ヘリテージグローバルマテリアルトレーディング,,株式会社,神奈川県,秦野市,本町１丁目４番７－１００１号,,14,211,2570035,,,,,,,2025-10-20,1,,,,,ヘリテージグローバルマテリアルトレーディング,0
669,3021003016714,新規,0,2025-10-20,2025-10-20,合同会社縁重,,合同会社,神奈川県,横須賀市,芦名１丁目２９番１３－３号,00141163,14,201,2400104,,,,,,,2025-10-20,1,,,,,エンジュウ,0
670,3021003016722,新規,0,2025-10-20,2025-10-20,合同会社ダイチワークス,,合同会社,神奈川県,大和市,桜森２丁目１０番２号ロゼリア３０３,,14,213,2420028,,,,,,,2025-10-20,1,,,,,ダイチワークス,0
674,3040001140978,新規,0,2025-10-20,2025-10-20,株式会社ＫＭプロダクト,,株式会社,千葉県,佐倉市,上座９２８番地５,,12,212,2850854,,,,,,,2025-10-20,1,,,,,ケーエムプロダクト,0
675,3040001140986,新規,0,2025-10-20,2025-10-20,株式会社コムギ,,株式会社,千葉県,市川市,南八幡５丁目３番２号２０５,,12,203,2720023,,,,,,,2025-10-20,1,,,,,コムギ,0
676,3040001141019,新規,0,2025-10-20,2025-10-20,株式会社１２７,,株式会社,千葉県,千葉市中央区,若草１丁目１６－１９高山ビル１階,,12,101,2600821,,,,,,,2025-10-20,1,,,,,ワンツーセブン,0
678,3040003028759,新規,0,2025-10-20,2025-10-20,ラフレア合同会社,,合同会社,千葉県,松戸市,五香南１丁目２０番地の２,,12,207,2702212,,,,,,,2025-10-20,1,,,,,ラフレア,0
679,3040003028791,新規,0,2025-10-20,2025-10-20,合同会社コラシ,,合同会社,千葉県,習志野市,谷津１丁目１３－１８－１０１,,12,216,2750026,,,,,,,2025-10-20,1,,,,,コラシ,0
687,3080001027222,新規,0,2025-10-20,2025-10-20,株式会社炎満,,株式会社,静岡県,焼津市,石津２丁目２番地の２４グラン・ソレイユ１０２,,22,212,4250041,,,,,,,2025-10-20,1,,,,,エンマン,0
690,3100001039058,新規,0,2025-10-20,2025-10-20,株式会社ＪＥＨＡＮ　ＴＲＡＤＩＮＧ,,株式会社,長野県,埴科郡坂城町,大字坂城１０３４３－６,,20,521,3890601,,,,,,,2025-10-20,1,,,,,ジェハントレーディング,0
711,3120001280568,新規,0,2025-10-20,2025-10-20,啓晟貿易株式会社,,株式会社,大阪府,大阪市天王寺区,上本町１丁目１番１８－４１１号室,,27,109,5430001,,,,,,,2025-10-20,1,,,,,ケイセイボウエキ,0
712,3120001280956,新規,0,2025-10-20,2025-10-20,ＣＡＰＴＡＩＮ株式会社,,株式会社,大阪府,大阪市住之江区,御崎１丁目１１－１９インキュセンタービル１０９号室,,27,125,5590013,,,,,,,2025-10-20,1,,,,,キャプテン,0
713,3120001281005,新規,0,2025-10-20,2025-10-20,株式会社ＤＤＩ,,株式会社,大阪府,大阪市淀川区,宮原１丁目１－１新大阪阪急ビル３階,,27,123,5320003,,,,,,,2025-10-20,1,,,,,ディーディーアイ,0
714,3120001281013,新規,0,2025-10-20,2025-10-20,株式会社桜パートナーズ,,株式会社,大阪府,大阪市西区,新町３丁目９番２号,,27,106,5500013,,,,,,,2025-10-20,1,,,,,サクラパートナーズ,0
715,3120001281046,新規,0,2025-10-20,2025-10-20,頂点株式会社,,株式会社,大阪府,大阪市住吉区,杉本１丁目９－１６グランビルドアビコＩＩ５０１,00141162,27,120,5580022,,,,,,,2025-10-20,1,,,,,チョウテン,0
716,3120001281054,新規,0,2025-10-20,2025-10-20,Ｓｈｉｆｔ　Ｗｏｒｋｓ株式会社,,株式会社,大阪府,大阪市北区,梅田１丁目２番２号大阪駅前第２ビル１２－１２,,27,127,5300001,,,,,,,2025-10-20,1,,,,,シフトワークス,0
717,3120001281095,新規,0,2025-10-20,2025-10-20,株式会社ヘレナ,,株式会社,大阪府,大阪市生野区,林寺１丁目５番９号グランデュール林寺７０３号,,27,116,5440023,,,,,,,2025-10-20,1,,,,,ヘレナ,0
718,3120001281112,新規,0,2025-10-20,2025-10-20,株式会社Ｒｅｎａｔｅｋ,,株式会社,大阪府,大阪市北区,梅田２丁目５番１３号３０４号,,27,127,5300001,,,,,,,2025-10-20,1,,,,,リナテック,0
719,3120001281178,新規,0,2025-10-20,2025-10-20,株式会社イースマイルＬＡＢＯ,,株式会社,大阪府,大阪市中央区,瓦屋町３丁目７番３号,,27,128,5420066,,,,,,,2025-10-20,1,,,,,イースマイルラボ,0
722,3120003030987,新規,0,2025-10-20,2025-10-20,合同会社ナンザン,,合同会社,大阪府,大阪市中央区,道修町２丁目２番１４号,,27,128,5410045,,,,,,,2025-10-20,1,,,,,ナンザン,0
728,3120101072650,新規,0,2025-10-20,2025-10-20,株式会社Ｃｌｏｖｅｒ　Ａｃａｄｅｍｙ,,株式会社,大阪府,河内長野市,上原西町２２－２,,27,216,5860038,,,,,,,2025-10-20,1,,,,,クローバーアカデミー,0
729,3120101072667,新規,0,2025-10-20,2025-10-20,株式会社アゴーラアライアンス,,株式会社,大阪府,堺市堺区,戎島町４丁４５番地の１,,27,141,5900985,,,,,,,2025-10-20,1,,,,,アゴーラアライアンス,0
730,3120101072675,新規,0,2025-10-20,2025-10-20,株式会社プラスクラン,,株式会社,大阪府,堺市堺区,南清水町３丁４番３号,,27,141,5900005,,,,,,,2025-10-20,1,,,,,プラスクラン,0
732,3120105010078,新規,0,2025-10-20,2025-10-20,特定非営利活動法人水越川流域生活,,その他の設立登記法人,大阪府,南河内郡河南町,大字上河内８１５番地の２,,27,382,5850024,,,,,,,2025-10-20,1,,,,,ミズコシガワリュウイキセイカツ,0
738,3120901051639,新規,0,2025-10-20,2025-10-20,株式会社Ｄ．Ｉ．マネジメント,,株式会社,大阪府,豊中市,上野東２丁目１５番１０号,,27,203,5600013,,,,,,,2025-10-20,1,,,,,ディーアイマネジメント,0
740,3120903005907,新規,0,2025-10-20,2025-10-20,アシスト合同会社,,合同会社,大阪府,吹田市,千里山上５－２３,,27,205,5640000,,,,,,,2025-10-20,1,,,,,アシスト,0
742,3122001039762,新規,0,2025-10-20,2025-10-20,株式会社久宝寺ハウジング,,株式会社,大阪府,八尾市,跡部本町３丁目３番３２号,,27,212,5810064,,,,,,,2025-10-20,1,,,,,キュウホウジハウジング,0
743,3122003003361,新規,0,2025-10-20,2025-10-20,合同会社フローラ,,合同会社,大阪府,東大阪市,御厨南２丁目４番３号,,27,227,5770034,,,,,,,2025-10-20,1,,,,,フローラ,0
751,3140001140407,新規,0,2025-10-20,2025-10-20,株式会社Ｆｉｒｓｔ　Ｒｅａｌｔｙ,,株式会社,兵庫県,南あわじ市,賀集八幡１０１－２,,28,224,6560511,,,,,,,2025-10-20,1,,,,,ファーストリアルティ,0
752,3140001140448,新規,0,2025-10-20,2025-10-20,株式会社ヨリミチ,,株式会社,兵庫県,加西市,北条町古坂１２４２番地,,28,220,6752303,,,,,,,2025-10-20,1,,,,,ヨリミチ,0
754,3140003022677,新規,0,2025-10-20,2025-10-20,合同会社Ｍａｒｌ,,合同会社,兵庫県,加古川市,志方町志方町４７０－９,,28,210,6750321,,,,,,,2025-10-20,1,,,,,,0
755,3140003022719,新規,0,2025-10-20,2025-10-20,合同会社Ｔ２Ｇソリューション,,合同会社,兵庫県,姫路市,西今宿３丁目１番９－４０１号今宿ハイツ,,28,201,6700061,,,,,,,2025-10-20,1,,,,,ティーツージーソリューション,0
756,3140003022727,新規,0,2025-10-20,2025-10-20,ＥＮＴＯ合同会社,,合同会社,兵庫県,西宮市,津門呉羽町７９番２の１０１,,28,204,6638245,,,,,,,2025-10-20,1,,,,,エント,0
759,3150001028485,新規,0,2025-10-20,2025-10-20,株式会社和,,株式会社,奈良県,奈良市,八条５丁目４９８番地１,,29,201,6308145,,,,,,,2025-10-20,1,,,,,ナゴミ,0
769,3180001168808,新規,0,2025-10-20,2025-10-20,株式会社石畳,,株式会社,愛知県,名古屋市天白区,向が丘４丁目５２０番地,,23,116,4680012,,,,,,,2025-10-20,1,,,,,イシダタミ,0
770,3180001169186,新規,0,2025-10-20,2025-10-20,株式会社心リーガルサポート神奈川,,株式会社,愛知県,名古屋市中村区,椿町１４番１３号,,23,105,4530015,,,,,,,2025-10-20,1,,,,,ココロリーガルサポートカナガワ,0
774,3180003029264,新規,0,2025-10-20,2025-10-20,ＳＨＯＫＡＩ　ＴＲＡＤＩＮＧ合同会社,,合同会社,愛知県,名古屋市中川区,東起町４丁目１０１－１・１０４－１,,23,110,4540935,,,,,,,2025-10-20,1,,,,,ショーカイトレーディング,0
780,3180303006772,新規,0,2025-10-20,2025-10-20,ＳＲＲ合同会社,,合同会社,愛知県,岡崎市,材木町１丁目２８番地吉野ビル２Ｆ,,23,202,4440057,,,,,,,2025-10-20,1,,,,,エスアールアール,0
786,3200001044353,新規,0,2025-10-20,2025-10-20,株式会社クリアポスト,,株式会社,岐阜県,大垣市,今宿６丁目５２番地１６ソフトピアジャパン・ドリームコア４０８,,21,202,5030807,,,,,,,2025-10-20,1,,,,,クリアポスト,0
795,3240001065668,新規,0,2025-10-20,2025-10-20,株式会社ｃｌａｐｔ,,株式会社,広島県,広島市中区,本川町３丁目１番５号,,34,101,7300802,,,,,,,2025-10-20,1,,,,,クラプト,0
797,3240003007445,新規,0,2025-10-20,2025-10-20,ｓｈｒｉｍｐ　ｇａｒｄｅｎ合同会社,,合同会社,広島県,広島市佐伯区,海老園２丁目１９番２０号,,34,108,7315135,,,,,,,2025-10-20,1,,,,,シュリンプガーデン,0
803,3280001009530,新規,0,2025-10-20,2025-10-20,株式会社Ｋａｄｏｗａｋｉ,,株式会社,島根県,松江市,八束町波入５６２番地２,,32,201,6901404,,,,,,,2025-10-20,1,,,,,カドワキ,0
808,3290001111640,新規,0,2025-10-20,2025-10-20,株式会社ｍ＆ｓ,,株式会社,福岡県,福岡市博多区,中洲２丁目６番１２号中洲セントラル第５ラインビル５階１１号,,40,132,8100801,,,,,,,2025-10-20,1,,,,,エムアンドエス,0
809,3290001111681,新規,0,2025-10-20,2025-10-20,株式会社ＥＴＥＲＮＡ,,株式会社,福岡県,福岡市博多区,博多駅南１丁目１２－３－９０２,,40,132,8120016,,,,,,,2025-10-20,1,,,,,エテルナ,0
810,3290001111863,新規,0,2025-10-20,2025-10-20,株式会社ＴＡＯ　Ｓｔｒａｔｅｃｈ,,株式会社,福岡県,福岡市中央区,天神２丁目５番２８号天神西通りセンタービル５階ＴｈｅＣｏｍｐａｎｙＤＡＩＭＹＯオフィスＧ,,40,133,8100001,,,,,,,2025-10-20,1,,,,,タオストラテック,0
813,3290003017539,新規,0,2025-10-20,2025-10-20,合同会社Ｈｏｍｅｄｏｏｒ,,合同会社,福岡県,福岡市早良区,早良２丁目２０番３０－２号,,40,137,8111122,,,,,,,2025-10-20,1,,,,,ホームドア,0
814,3290003017547,新規,0,2025-10-20,2025-10-20,合同会社明成,,合同会社,福岡県,嘉麻市,飯田２１３番地４,,40,227,8200501,,,,,,,2025-10-20,1,,,,,ミョウジョウ,0
831,3380005013023,新規,0,2025-10-20,2025-10-20,一般社団法人福島中華總商会,,その他の設立登記法人,福島県,伊達市,伏黒字上ケ戸６０番地,,07,213,9600501,,,,,,,2025-10-20,1,,,,,フクシマチュウカソウショウカイ,0
841,3430001095464,新規,0,2025-10-20,2025-10-20,株式会社リッカ研究所,,株式会社,北海道,美唄市,字茶志内７２６番１９,,01,215,0720000,,,,,,,2025-10-20,1,,,,,リッカケンキュウショ,0
844,3430003018233,新規,0,2025-10-20,2025-10-20,Ｏｆｆｉｃｅエージェント合同会社,,合同会社,北海道,札幌市東区,北十五条東３丁目２番４３号エルム１５６－４０３号室,,01,103,0650015,,,,,,,2025-10-20,1,,,,,オフィスエージェント,0
845,3430003018241,新規,0,2025-10-20,2025-10-20,合同会社ぐっじょぶ,,合同会社,北海道,滝川市,中島町５丁目１１番１号,,01,225,0730035,,,,,,,2025-10-20,1,,,,,グッジョブ,0
848,3430005015328,新規,0,2025-10-20,2025-10-20,一般社団法人アートブリッジコミュニティ,,その他の設立登記法人,北海道,札幌市中央区,南四条西６丁目８番地３晴ればれビル４階,,01,101,0640804,,,,,,,2025-10-20,1,,,,,アートブリッジコミュニティ,0
849,3430005015336,新規,0,2025-10-20,2025-10-20,特定非営利活動法人コミュニティサークルあいん・つばい,,その他の設立登記法人,北海道,札幌市厚別区,大谷地西４丁目９番７号,,01,108,0040042,,,,,,,2025-10-20,1,,,,,コミュニティサークルアインツバイ,0
858,3700150132569,新規,0,2025-10-20,2025-10-20,ＫＡＮＤＵＲＡＴＡ　ＣＯＮＳＴＲＵＣＴＩＯＮ,,外国会社等,千葉県,東金市,上布田５３８番地１－１,,12,213,2830834,スリランカ民主社会主義共和国、ウェリマダ、ダンバウィンナ、ハプタレロード、ボガハジャンクション,,,,,,2025-10-20,1,,,,,カンドウラタコンストラクシヨン,0
865,4010005040805,新規,0,2025-10-20,2025-10-20,ＳＲＦ１ＨＤ一般社団法人,,その他の設立登記法人,東京都,千代田区,丸の内１丁目４番１号東京共同会計事務所内,,13,101,1000005,,,,,,,2025-10-20,1,,,,,エスアールエフワンホールディング,0
874,4010401193553,新規,0,2025-10-20,2025-10-20,Ｓｕｐｅｒ　ＸＸ　Ｓｔｕｄｉｏ株式会社,,株式会社,東京都,港区,北青山１丁目３－３三橋ビル３階,,13,103,1070061,,,,,,,2025-10-20,1,,,,,スーパースタジオ,0
875,4010401193784,新規,0,2025-10-20,2025-10-20,株式会社ＡＣ,,株式会社,東京都,港区,赤坂９丁目１番２６号,,13,103,1070052,,,,,,,2025-10-20,1,,,,,エーシー,0
876,4010401193990,新規,0,2025-10-20,2025-10-20,株式会社ＲＥＡＬ　ＶＡＬＵＥ　ＡＣＡＤＥＭＩＡ,,株式会社,東京都,港区,芝２丁目２番１２号５階,,13,103,1050014,,,,,,,2025-10-20,1,,,,,リアルバリューアカデミア,0
881,4010403036306,新規,0,2025-10-20,2025-10-20,ＧＳＳＧ　Ｓｏｌａｒ　Ｊａｐａｎ　Ｈｏｌｄｉｎｇｓ１０‐２ＢＥＳＳ合同会社,,合同会社,東京都,港区,高輪１丁目３番１３号ＮＢＦ高輪ビル７階,,13,103,1080074,,,,,,,2025-10-20,1,,,,,ジーエスエスジーソーラージャパンホールディングステンツービーイーエスエス,0
885,4010501054911,新規,0,2025-10-20,2025-10-20,株式会社ＫＡＷＡ,,株式会社,東京都,台東区,根岸４丁目４番１０号,,13,106,1100003,,,,,,,2025-10-20,1,,,,,カワ,0
887,4010601068159,新規,0,2025-10-20,2025-10-20,株式会社トゥエンティフォーエンタテインメン,,株式会社,東京都,墨田区,業平４丁目５番１７－７０１号パレミーユ押上,,13,107,1300002,,,,,,,2025-10-20,1,,,,,トゥエンティフォーエンタテインメン,0
889,4010605004515,新規,0,2025-10-20,2025-10-20,ＲａｖｏＲｉｃｏ　Ｃｏｎｓｕｌｔｉｎｇ社会保険労務士法人,,その他の設立登記法人,東京都,江東区,有明３丁目７－１１有明パークビル２０Ｆ,,13,108,1350063,,,,,,,2025-10-20,1,,,,,ラボリココンサルティング,0
894,4010903010289,新規,0,2025-10-20,2025-10-20,ＶＩＮＳＵＫＡ合同会社,,合同会社,東京都,世田谷区,成城８丁目１１－１２,,13,112,1570066,,,,,,,2025-10-20,1,,,,,ヴィンスカ,0
900,4011101113611,新規,0,2025-10-20,2025-10-20,株式会社テクカク,,株式会社,東京都,新宿区,西新宿３丁目３番１３号西新宿水間ビル２Ｆ,,13,104,1600023,,,,,,,2025-10-20,1,,,,,テクカク,0
901,4011101113693,新規,0,2025-10-20,2025-10-20,株式会社ＤＳＧＮ,,株式会社,東京都,新宿区,大京町２２番地１,,13,104,1600015,,,,,,,2025-10-20,1,,,,,ディーエスジーエヌ,0
904,4011103016498,新規,0,2025-10-20,2025-10-20,合同会社プロックス,,合同会社,東京都,新宿区,西新宿３丁目５番１２号トーカン新宿第２キャステール２０９号室,,13,104,1600023,,,,,,,2025-10-20,1,,,,,プロックス,0
914,4011701028853,新規,0,2025-10-20,2025-10-20,株式会社小野寺設備工業,,株式会社,東京都,江戸川区,平井５丁目３０番６－６０４号,,13,123,1320035,,,,,,,2025-10-20,1,,,,,オノデラセツビコウギョウ,0
915,4011701028861,新規,0,2025-10-20,2025-10-20,株式会社雫,,株式会社,東京都,江戸川区,西一之江３丁目４４番１５号,,13,123,1320023,,,,,,,2025-10-20,1,,,,,シズク,0
916,4011705001914,新規,0,2025-10-20,2025-10-20,一般財団法人日本グローカル公共政策・公共経営研究機構,,その他の設立登記法人,東京都,江戸川区,西一之江２丁目２２番２２号,,13,123,1320023,,,,,,,2025-10-20,1,,,,,ニホングローカルコウキョウセイサクコウキョウケイエイケンキュウキコウ,0
918,4011801046912,新規,0,2025-10-20,2025-10-20,株式会社ＡＰサービス,,株式会社,東京都,足立区,千住仲町２６－１－１０３サンクレジデンス１０３号室,,13,121,1200036,,,,,,,2025-10-20,1,,,,,エーピーサービス,0
925,4012801024313,新規,0,2025-10-20,2025-10-20,株式会社Ｓｔｅｌｌａｒｙ,,株式会社,東京都,立川市,曙町２丁目１５番１１号第７グリーンビル２Ｆ,00141176,13,202,1900012,,,,,,,2025-10-20,1,,,,,ステラリー,0
931,4013301055146,新規,0,2025-10-20,2025-10-20,株式会社犬飯店,,株式会社,東京都,豊島区,南池袋１丁目１１―１９－１００２号室,,13,116,1710022,,,,,,,2025-10-20,1,,,,,イヌハンテン,0
932,4013301055154,新規,0,2025-10-20,2025-10-20,株式会社ＭＡＬＩＫ＆ＢＲＯＴＨＥＲ　ＴＲＡＤＩＮＧ,,株式会社,東京都,豊島区,東池袋３丁目２０－９宏和ビル３階,,13,116,1700013,,,,,,,2025-10-20,1,,,,,マークアンドブラザートレーディング,0
940,4020001165266,新規,0,2025-10-20,2025-10-20,株式会社花咲,,株式会社,神奈川県,横浜市西区,浅間町１丁目４番３号ウィザードビル４０２,,14,103,2200072,,,,,,,2025-10-20,1,,,,,ハナサキ,0
941,4020001165316,新規,0,2025-10-20,2025-10-20,株式会社Ｉｗａｏ,,株式会社,神奈川県,川崎市川崎区,池上新町１丁目９番１２号３Ｆ,,14,131,2100832,,,,,,,2025-10-20,1,,,,,,0
942,4020001165357,新規,0,2025-10-20,2025-10-20,ＢＬＯＯＭ　ＷＯＲＫＳ株式会社,,株式会社,神奈川県,川崎市麻生区,片平３丁目２８－８,,14,137,2150023,,,,,,,2025-10-20,1,,,,,ブルームワークス,0
943,4020001165365,新規,0,2025-10-20,2025-10-20,Ｓｈａｒｅａｌ　Ｊａｐａｎ株式会社,,株式会社,神奈川県,川崎市高津区,久地２丁目２４番１０－２０３号第２ケイアイマンション,,14,134,2130032,,,,,,,2025-10-20,1,,,,,シェアルジャパン,0
947,4021003016721,新規,0,2025-10-20,2025-10-20,合同会社ＣＡＲＥ　ＶＡＬＵＥ,,合同会社,神奈川県,相模原市南区,上鶴間本町２丁目１６番１３号１０２,,14,153,2520318,,,,,,,2025-10-20,1,,,,,ケアバリュー,0
969,4040001140952,新規,0,2025-10-20,2025-10-20,株式会社山惠,,株式会社,千葉県,いすみ市,岬町長者４５７番地２,,12,238,2994616,,,,,,,2025-10-20,1,,,,,ヤマケイ,0
970,4040001141018,新規,0,2025-10-20,2025-10-20,株式会社ハウオリ,,株式会社,千葉県,千葉市中央区,椿森１丁目１８番４号ファミール千葉公園８０７号,,12,101,2600042,,,,,,,2025-10-20,1,,,,,ハウオリ,0
971,4040001141034,新規,0,2025-10-20,2025-10-20,麗新株式会社,,株式会社,千葉県,柏市,松ケ崎４１９番地１７－１０３号,,12,217,2770835,,,,,,,2025-10-20,1,,,,,レイシン,0
974,4040003028824,新規,0,2025-10-20,2025-10-20,合同会社調和,,合同会社,千葉県,千葉市稲毛区,長沼町１９８番地３０,,12,103,2630005,,,,,,,2025-10-20,1,,,,,チョウワ,0
978,4050005013716,新規,0,2025-10-20,2025-10-20,一般社団法人いばらき県北里親家庭支援センター,,その他の設立登記法人,茨城県,日立市,田尻町５丁目５番１９号,,08,202,3191416,,,,,,,2025-10-20,1,,,,,イバラキケンホクサトオヤカテイシエンセンター,0
982,4060003005813,新規,0,2025-10-20,2025-10-20,合同会社ＥＮＮ．,,合同会社,栃木県,宇都宮市,下川俣町６１－１８,,09,201,3210972,,,,,,,2025-10-20,1,,,,,エン,0
1008,4120001280732,新規,0,2025-10-20,2025-10-20,株式会社ワンホーム,,株式会社,大阪府,寝屋川市,下神田町１３－１０手嶋マンション２０２,,27,215,5720054,,,,,,,2025-10-20,1,,,,,ワンホーム,0
1009,4120001280906,新規,0,2025-10-20,2025-10-20,株式会社４５,,株式会社,大阪府,大阪市西区,北堀江２丁目８番１７－２０２号,,27,106,5500014,,,,,,,2025-10-20,1,,,,,ヨンジュウゴ,0
1010,4120001281020,新規,0,2025-10-20,2025-10-20,株式会社Ａ．ｃｏｎｓｔ,,株式会社,大阪府,大阪市港区,波除４丁目２番１８号,,27,107,5520001,,,,,,,2025-10-20,1,,,,,エーコンスト,0
1011,4120001281029,新規,0,2025-10-20,2025-10-20,ＮｅｔＳｔａｒｓ株式会社,,株式会社,大阪府,大阪市中央区,農人橋１丁目１－７谷町エクセルビル８０１号室,,27,128,5400011,,,,,,,2025-10-20,1,,,,,ネットスターズ,0
1018,4120003030986,新規,0,2025-10-20,2025-10-20,合同会社グリーン,,合同会社,大阪府,大阪市此花区,桜島３丁目７番２７号,,27,104,5540031,,,,,,,2025-10-20,1,,,,,グリーン,0
1021,4120101072658,新規,0,2025-10-20,2025-10-20,ＴＥＴＯＲＡ株式会社,,株式会社,大阪府,泉大津市,小松町７番１６号,,27,206,5950067,,,,,,,2025-10-20,1,,,,,テトラ,0
1024,4120901051638,新規,0,2025-10-20,2025-10-20,株式会社ＡＶＩＰ,,株式会社,大阪府,吹田市,竹見台４丁目５番１－７２５号,,27,205,5650863,,,,,,,2025-10-20,1,,,,,エーブイアイピー,0
1029,4122001039745,新規,0,2025-10-20,2025-10-20,Ｆｏｒｔｉｓ株式会社,,株式会社,大阪府,東大阪市,足代北２丁目２番５号寿ビル４Ｃ,,27,227,5770058,,,,,,,2025-10-20,1,,,,,フォルティス,0
1030,4122001039753,新規,0,2025-10-20,2025-10-20,川口重量株式会社,,株式会社,大阪府,東大阪市,横小路町６丁目３番３５号,,27,227,5798063,,,,,,,2025-10-20,1,,,,,カワグチジュウリョウ,0
1036,4140001140356,新規,0,2025-10-20,2025-10-20,株式会社但馬ファーム,,株式会社,兵庫県,美方郡香美町,村岡区相田３９６－１,,28,585,6671312,,,,,,,2025-10-20,1,,,,,タジマファーム,0
1037,4140001140414,新規,0,2025-10-20,2025-10-20,株式会社ＡＩＸ,,株式会社,兵庫県,神戸市長田区,海運町５丁目１番２４号,,28,106,6530052,,,,,,,2025-10-20,1,,,,,エーアイエックス,0
1038,4140001140430,新規,0,2025-10-20,2025-10-20,株式会社ＢＯＮＤＩ,,株式会社,兵庫県,神戸市垂水区,舞子台６丁目５番１４号,,28,108,6550046,,,,,,,2025-10-20,1,,,,,ボンディ,0
1043,4150001028476,新規,0,2025-10-20,2025-10-20,株式会社Ｒ．Ｉ．Ａ,,株式会社,奈良県,磯城郡三宅町,大字但馬３６７番地の１,,29,362,6360214,,,,,,,2025-10-20,1,,,,,アールアイエー,0
1046,4160001027155,新規,0,2025-10-20,2025-10-20,株式会社ｔｅｎｔｏｓｅｎ,,株式会社,滋賀県,野洲市,西河原２６８７,,25,210,5202423,,,,,,,2025-10-20,1,,,,,テントセン,0
1047,4170001018839,新規,0,2025-10-20,2025-10-20,株式会社ＢＥ　ＣＯＬＯＲ,,株式会社,和歌山県,和歌山市,鳴神６６番地,,30,201,6408303,,,,,,,2025-10-20,1,,,,,ビーカラー,0
1057,4180001168807,新規,0,2025-10-20,2025-10-20,株式会社ここぱーく,,株式会社,愛知県,名古屋市天白区,向が丘４丁目５２０番地,,23,116,4680012,,,,,,,2025-10-20,1,,,,,ココパーク,0
1058,4180001169152,新規,0,2025-10-20,2025-10-20,株式会社ＣｏｒＴｅ,,株式会社,愛知県,一宮市,東五城字備前２３番地２－６０１号,,23,203,4940008,,,,,,,2025-10-20,1,,,,,コルテ,0
1059,4180001169169,新規,0,2025-10-20,2025-10-20,株式会社らいくゆう,,株式会社,愛知県,名古屋市港区,浜２丁目１２番１１号シャトレ愛松名古屋港１２０２号,,23,111,4550036,,,,,,,2025-10-20,1,,,,,ライクユウ,0
1060,4180001169185,新規,0,2025-10-20,2025-10-20,株式会社フリコ,,株式会社,愛知県,名古屋市中村区,名駅４丁目２４番５号第２森ビル４０１,,23,105,4500002,,,,,,,2025-10-20,1,,,,,フリコ,0
1062,4180003029214,新規,0,2025-10-20,2025-10-20,合同会社マンマキッズ,,合同会社,愛知県,北名古屋市,高田寺一本橋６９番地,,23,234,4810011,,,,,,,2025-10-20,1,,,,,マンマキッズ,0
1063,4180301040335,新規,0,2025-10-20,2025-10-20,株式会社ｋｏｔｏｒｉｙａ,,株式会社,愛知県,額田郡幸田町,大字相見字新田内１７Ｔステージ幸田相見駅前グランドスカイ１０３,,23,501,4440117,,,,,,,2025-10-20,1,,,,,コトリヤ,0
1068,4200001044352,新規,0,2025-10-20,2025-10-20,株式会社ＲＡ,,株式会社,岐阜県,可児郡御嵩町,御嵩２１９２番地３１８,,21,521,5050116,,,,,,,2025-10-20,1,,,,,アールエー,0
1071,4200005013808,新規,0,2025-10-20,2025-10-20,一般社団法人ＧＲＡＮＴＳ,,その他の設立登記法人,岐阜県,羽島市,福寿町間島３丁目３７番地（パーチェ福寿２０１号室）,,21,209,5016251,,,,,,,2025-10-20,1,,,,,グランツ,0
1072,4210001020360,新規,0,2025-10-20,2025-10-20,株式会社Ｍａｈｉｎａ　Ｍａｕ,,株式会社,福井県,福井市,若栄町１２２７番地,,18,201,9100831,,,,,,,2025-10-20,1,,,,,マヒナマウ,0
1086,4290001111648,新規,0,2025-10-20,2025-10-20,株式会社ＴＫＤ,,株式会社,福岡県,柳川市,大和町中島１０９５番地,,40,207,8390254,,,,,,,2025-10-20,1,,,,,ティーケーディー,0
1087,4290001111697,新規,0,2025-10-20,2025-10-20,立川住宅設備株式会社,,株式会社,福岡県,小郡市,八坂４８５番地３,,40,216,8380133,,,,,,,2025-10-20,1,,,,,タチカワジュウタクセツビ,0
1088,4290001111706,新規,0,2025-10-20,2025-10-20,株式会社エクサナイト,,株式会社,福岡県,古賀市,舞の里５丁目１４－１５,,40,223,8113114,,,,,,,2025-10-20,1,,,,,エクサナイト,0
1089,4290001111747,新規,0,2025-10-20,2025-10-20,株式会社綾屋,,株式会社,福岡県,福岡市東区,三苫６丁目１５番４８号,,40,131,8110201,,,,,,,2025-10-20,1,,,,,,0
1090,4290001111771,新規,0,2025-10-20,2025-10-20,株式会社ＭＯＴＯＪＩ,,株式会社,福岡県,糟屋郡久山町,大字久原３５４７番地１,,40,348,8112501,,,,,,,2025-10-20,1,,,,,モトジ,0
1096,4290005019854,新規,0,2025-10-20,2025-10-20,一般社団法人あさくら総合型地域スポーツクラブ,,その他の設立登記法人,福岡県,朝倉市,堤１７３６番地５,,40,228,8380062,,,,,,,2025-10-20,1,,,,,アサクラソウゴウガタチイキスポーツクラブ,0
1107,4350001019769,新規,0,2025-10-20,2025-10-20,株式会社ひむか電通,,株式会社,宮崎県,宮崎市,佐土原町下田島１２２９９番地５７,,45,201,8800211,,,,,,,2025-10-20,1,,,,,ヒムカデンツウ,0
1129,4380003006168,新規,0,2025-10-20,2025-10-20,合同会社インフィニティ,,合同会社,福島県,会津若松市,真宮新町南３丁目１７番地の３,,07,202,9650103,,,,,,,2025-10-20,1,,,,,インフィニティ,0
1144,4430003018240,新規,0,2025-10-20,2025-10-20,合同会社クレメント,,合同会社,北海道,札幌市中央区,南一条西１３丁目３１７番地,,01,101,0600061,,,,,,,2025-10-20,1,,,,,クレメント,0
1148,4490003002057,新規,0,2025-10-20,2025-10-20,合同会社ｒａｓｉｋｕｔｅ,,合同会社,高知県,高知市,塩田町３番３号,,39,201,7800065,,,,,,,2025-10-20,1,,,,,ラシクテ,0
1150,4500001026584,新規,0,2025-10-20,2025-10-20,ＢｅａｕＢｅｌｌｅＢｉｚ株式会社,,株式会社,愛媛県,伊予市,米湊３２３番地１,,38,210,7993113,,,,,,,2025-10-20,1,,,,,ボーベルビズ,0
1154,4700150132568,新規,0,2025-10-20,2025-10-20,ＷＡＮＳＡ　ＡＵＴＯ　ＴＲＡＤＩＮＧ,,外国会社等,千葉県,山武市,雨坪１０７－１－Ｇ,,12,237,2891213,スリランカ民主社会主義共和国、ＮＯ．４１、ネゴンボロード、クルネガラ,,,,,,2025-10-20,1,,,,,ワンザオートトレーデイング,0
1160,5010001259480,新規,0,2025-10-20,2025-10-20,大手町投資事業準備株式会社,,株式会社,東京都,千代田区,大手町１丁目９番２号,,13,101,1000004,,,,,,,2025-10-20,1,,,,,オオテマチトウシジギョウジュンビ,0
1161,5010001259489,新規,0,2025-10-20,2025-10-20,株式会社Ｃｏｍｕｇｉ　Ｐｈａｒｍａ　Ｃｏｎｓｕｌｔｉｎｇ,,株式会社,東京都,文京区,小日向２丁目２番１６号,,13,105,1120006,,,,,,,2025-10-20,1,,,,,コムギファーマコンサルティング,0
1162,5010001259571,新規,0,2025-10-20,2025-10-20,株式会社Ｑｕａｌｉ　Ｆｉｔ,,株式会社,東京都,中央区,日本橋茅場町１丁目１３番１３号七宝ビルディング２Ｆ,,13,102,1030025,,,,,,,2025-10-20,1,,,,,クオリフィット,0
1168,5010103002672,新規,0,2025-10-20,2025-10-20,合同会社ＪｏｙＣｏｎｎｅｃｔｉｏｎ,,合同会社,東京都,八王子市,弐分方町４２９番地１０,,13,201,1930822,,,,,,,2025-10-20,1,,,,,ジョイコネクション,0
1172,5010401193536,新規,0,2025-10-20,2025-10-20,株式会社Ｋ’ｓＨＯＭＥ,,株式会社,東京都,港区,北青山１丁目３番３号三橋ビル３階,,13,103,1070061,,,,,,,2025-10-20,1,,,,,ケーズホーム,0
1173,5010401193552,新規,0,2025-10-20,2025-10-20,株式会社ＮＥＳＴＲＩＸ,,株式会社,東京都,港区,高輪３丁目２４－１６品川偕成ビル４階,,13,103,1080074,,,,,,,2025-10-20,1,,,,,ネストリクス,0
1182,5010605004514,新規,0,2025-10-20,2025-10-20,一般社団法人ＡＩライフ協会,,その他の設立登記法人,東京都,江東区,有明１丁目４番１１－４２５号,,13,108,1350063,,,,,,,2025-10-20,1,,,,,エーアイライフキョウカイ,0
1183,5010701048489,新規,0,2025-10-20,2025-10-20,株式会社ＶｉｓｉｏｎＬｉｎｋ,,株式会社,東京都,品川区,大井５丁目１６番５号,,13,109,1400014,,,,,,,2025-10-20,1,,,,,ビジョンリンク,0
1187,5010903010338,新規,0,2025-10-20,2025-10-20,Ａｎｃｈｏｒ　Ｌｉｎｋ合同会社,,合同会社,東京都,世田谷区,宇奈根１丁目９番１７号,,13,112,1570068,,,,,,,2025-10-20,1,,,,,アンカーリンク,0
1193,5011001172979,新規,0,2025-10-20,2025-10-20,株式会社ｈａｎｎａｔ,,株式会社,東京都,渋谷区,神宮前５丁目３６番４号青山プラザＤ号室,,13,113,1500001,,,,,,,2025-10-20,1,,,,,ハナト,0
1194,5011001173127,新規,0,2025-10-20,2025-10-20,新大成株式会社,,株式会社,東京都,渋谷区,本町３丁目４１番１５号シルキーラスター６０５,,13,113,1510071,,,,,,,2025-10-20,1,,,,,シンタイセイ,0
1195,5011001173192,新規,0,2025-10-20,2025-10-20,株式会社ミライヘ,,株式会社,東京都,渋谷区,道玄坂１丁目１０番８号渋谷道玄坂東急ビル２Ｆ－Ｃ,,13,113,1500043,,,,,,,2025-10-20,1,,,,,ミライヘ,0
1196,5011001173218,新規,0,2025-10-20,2025-10-20,Ｃｌａｖｅ株式会社,,株式会社,東京都,渋谷区,恵比寿１丁目３０－１４マートルコート恵比寿１５０３,,13,113,1500013,,,,,,,2025-10-20,1,,,,,クレーヴ,0
1203,5011101113503,新規,0,2025-10-20,2025-10-20,株式会社一乃涼,,株式会社,東京都,新宿区,新宿１丁目１１番１７号,,13,104,1600022,,,,,,,2025-10-20,1,,,,,イチノリョウ,0
1205,5011105011620,新規,0,2025-10-20,2025-10-20,一般社団法人北極星経営協会,,その他の設立登記法人,東京都,新宿区,下落合２丁目２番２－１３１７号,,13,104,1610033,,,,,,,2025-10-20,1,,,,,ホッキョクセイケイエイキョウカイ,0
1207,5011201026737,新規,0,2025-10-20,2025-10-20,アンシール株式会社,,株式会社,東京都,中野区,新井１丁目４０番２－１０６号,,13,114,1650026,,,,,,,2025-10-20,1,,,,,アンシール,0
1208,5011203004823,新規,0,2025-10-20,2025-10-20,ＨＭテクノロジー合同会社,,合同会社,東京都,中野区,中央４丁目４０―７、７０２,,13,114,1640011,,,,,,,2025-10-20,1,,,,,エイチエムテクノロジー,0
1209,5011301030985,新規,0,2025-10-20,2025-10-20,株式会社アジュマル,,株式会社,東京都,杉並区,成田東５丁目４―８,,13,115,1660015,,,,,,,2025-10-20,1,,,,,アジュマル,0
1214,5011701028860,新規,0,2025-10-20,2025-10-20,株式会社サポート,,株式会社,東京都,江戸川区,北篠崎２丁目２１番３号,,13,123,1330053,,,,,,,2025-10-20,1,,,,,サポート,0
1215,5011701028869,新規,0,2025-10-20,2025-10-20,株式会社Ｈｕｍｂｌｅ　Ｈｅａｒｔ,,株式会社,東京都,江戸川区,一之江８丁目１０番１０号ハーベストＫレジデンス１００２号,,13,123,1320024,,,,,,,2025-10-20,1,,,,,ハンブルハート,0
1216,5011703004430,新規,0,2025-10-20,2025-10-20,合同会社未来クリエイター,,合同会社,東京都,江戸川区,平井５丁目３３番２号,,13,123,1320035,,,,,,,2025-10-20,1,,,,,ミライクリエイター,0
1220,5011801046928,新規,0,2025-10-20,2025-10-20,ユナイトホーム株式会社,,株式会社,東京都,葛飾区,金町１丁目１４番１１－６０２号アドバンスＤＣ金町,,13,122,1250042,,,,,,,2025-10-20,1,,,,,ユナイトホーム,0
1222,5011803007135,新規,0,2025-10-20,2025-10-20,合同会社いろどり経営デザイン,,合同会社,東京都,葛飾区,青戸４丁目１番１９－８０２号ライオンズマンション葛飾青戸,,13,122,1250062,,,,,,,2025-10-20,1,,,,,イロドリケイエイデザイン,0
1225,5012401043670,新規,0,2025-10-20,2025-10-20,株式会社速攻ＲＯＣＫＯＮ,,株式会社,東京都,武蔵野市,吉祥寺本町１丁目２８番３号ジャルダン吉祥寺１０５,,13,203,1800004,,,,,,,2025-10-20,1,,,,,ソッコウロックオン,0
1228,5013303007929,新規,0,2025-10-20,2025-10-20,合同会社Ｎｅｉｂｉｉ　Ｃｒｅａｔｉｏｎ,,合同会社,東京都,豊島区,巣鴨５丁目３８番５号グランドパレス巣鴨２０５号室,,13,116,1700002,,,,,,,2025-10-20,1,,,,,ネイビークリエイション,0
1229,5013305003777,新規,0,2025-10-20,2025-10-20,一般社団法人カリブの学港,,その他の設立登記法人,東京都,豊島区,目白２丁目１７番１７号,,13,116,1710031,,,,,,,2025-10-20,1,,,,,カリブノガッコウ,0
1232,5020001165190,新規,0,2025-10-20,2025-10-20,株式会社テキオン,,株式会社,神奈川県,横浜市都筑区,早渕３丁目４１－２４,,14,118,2240025,,,,,,,2025-10-20,1,,,,,テキオン,0
1233,5020001165380,新規,0,2025-10-20,2025-10-20,長盛株式会社,,株式会社,神奈川県,横浜市青葉区,青葉台２丁目３４番地９青葉台コートテラス６１９号,,14,117,2270062,,,,,,,2025-10-20,1,,,,,チョウセイ,0
1234,5020001165389,新規,0,2025-10-20,2025-10-20,株式会社ワイティーリユース,,株式会社,神奈川県,横浜市南区,井土ケ谷下町３７番１０号サンハイツ井土ヶ谷１０５号室,,14,105,2320053,,,,,,,2025-10-20,1,,,,,,0
1238,5020003029567,新規,0,2025-10-20,2025-10-20,Ｅ．Ｔ．ＬＡＢＯＺ合同会社,,合同会社,神奈川県,横浜市瀬谷区,橋戸２丁目９－２７,,14,114,2460037,,,,,,,2025-10-20,1,,,,,,0
1239,5020003029600,新規,0,2025-10-20,2025-10-20,合同会社ブリスライフ,,合同会社,神奈川県,川崎市川崎区,大島４丁目４番３－６０４号,,14,131,2100834,,,,,,,2025-10-20,1,,,,,ブリスライフ,0
1244,5021003016720,新規,0,2025-10-20,2025-10-20,合同会社サトウテクノ,,合同会社,神奈川県,秦野市,西田原２１１番地の２,,14,211,2570027,,,,,,,2025-10-20,1,,,,,サトウテクノ,0
1254,5040001141041,新規,0,2025-10-20,2025-10-20,株式会社秀和住建,,株式会社,千葉県,八千代市,八千代台北１６丁目１６番１３号,,12,221,2760031,,,,,,,2025-10-20,1,,,,,シュウワジュウケン,0
1255,5040003028798,新規,0,2025-10-20,2025-10-20,トウキョウツーリズム合同会社,,合同会社,千葉県,千葉市若葉区,桜木６丁目１５番５３号,,12,104,2640028,,,,,,,2025-10-20,1,,,,,トウキョウツーリズム,0
1256,5040005022907,新規,0,2025-10-20,2025-10-20,医療法人社団ヴェルフィーユ,,その他の設立登記法人,千葉県,千葉市若葉区,千城台東３丁目１番２号,,12,104,2640002,,,,,,,2025-10-20,1,,,,,ヴェルフィーユ,0
1260,5050001057419,新規,0,2025-10-20,2025-10-20,株式会社さくらガーデン,,株式会社,茨城県,土浦市,宍塚１９３８番地,,08,203,3000805,,,,,,,2025-10-20,1,,,,,サクラガーデン,0
1268,5070001043441,新規,0,2025-10-20,2025-10-20,Ｌａｎｄ　Ｍａｒｋｅｔ株式会社,,株式会社,群馬県,桐生市,宮前町１丁目２番２８号,,10,203,3760046,,,,,,,2025-10-20,1,,,,,ランドマーケット,0
1269,5080001027220,新規,0,2025-10-20,2025-10-20,東海アールテクノロジー株式会社,,株式会社,静岡県,静岡市清水区,本郷町５番８号－１０６,,22,103,4240814,,,,,,,2025-10-20,1,,,,,トウカイアールテクノロジー,0
1270,5080003003582,新規,0,2025-10-20,2025-10-20,ＢＵＤＤＨＡ合同会社,,合同会社,静岡県,静岡市葵区,馬場町１１７－１アドバンスビル１階,,22,101,4200867,,,,,,,2025-10-20,1,,,,,ブッダ,0
1273,5080403005369,新規,0,2025-10-20,2025-10-20,プラスサム合同会社,,合同会社,静岡県,浜松市中央区,鍛冶町１００番地の１ザザシティ浜松中央館Ｂ１Ｆ,,22,138,4300933,,,,,,,2025-10-20,1,,,,,プラスサム,0
1275,5100001039056,新規,0,2025-10-20,2025-10-20,Ａｋｉｙａ　Ｌａｂｓ株式会社,,株式会社,長野県,小諸市,大字菱平１２８９,,20,208,3840041,,,,,,,2025-10-20,1,,,,,アキヤラブズ,0
1278,5100003008439,新規,0,2025-10-20,2025-10-20,合同会社Ｌｅｎｉｓ,,合同会社,長野県,松本市,大字蟻ケ崎１８９２－６,,20,202,3900861,,,,,,,2025-10-20,1,,,,,レーニス,0
1290,5120001280772,新規,0,2025-10-20,2025-10-20,株式会社Ｍ＆Ｎ,,株式会社,大阪府,大阪市北区,曾根崎新地２丁目４番７号酒井ビル３Ｆ,,27,127,5300002,,,,,,,2025-10-20,1,,,,,エムアンドエヌ,0
1291,5120001280913,新規,0,2025-10-20,2025-10-20,株式会社わくすま,,株式会社,大阪府,大阪市中央区,内久宝寺町４丁目４番７－４０４号,,27,128,5400013,,,,,,,2025-10-20,1,,,,,ワクスマ,0
1292,5120001280979,新規,0,2025-10-20,2025-10-20,株式会社Ｌｅａｍｅ,,株式会社,大阪府,大阪市北区,梅田１丁目２番２号大阪駅前第２ビル１２－１２,,27,127,5300001,,,,,,,2025-10-20,1,,,,,レアム,0
1293,5120001281011,新規,0,2025-10-20,2025-10-20,グリーントレイル株式会社,,株式会社,大阪府,大阪市阿倍野区,橋本町９番１０号,,27,119,5450031,,,,,,,2025-10-20,1,,,,,グリーントレイル,0
1294,5120001281036,新規,0,2025-10-20,2025-10-20,株式会社大阪南部線,,株式会社,大阪府,大阪市東成区,大今里西１丁目１４番１２号ロフト今里５０２号室,,27,115,5370014,,,,,,,2025-10-20,1,,,,,オオサカナンブセン,0
1295,5120001281052,新規,0,2025-10-20,2025-10-20,株式会社Ｎｏｖｉｘ,,株式会社,大阪府,大阪市北区,梅田１丁目２番２号大阪駅前第２ビル１２－１２,,27,127,5300001,,,,,,,2025-10-20,1,,,,,ノビックス,0
1296,5120001281077,新規,0,2025-10-20,2025-10-20,都市山葵株式会社,,株式会社,大阪府,大阪市住吉区,帝塚山西１丁目１番１９号２階,,27,120,5580052,,,,,,,2025-10-20,1,,,,,アーバンワサビ,0
1297,5120001281151,新規,0,2025-10-20,2025-10-20,旭日紫金株式会社,,株式会社,大阪府,大阪市西成区,玉出西２丁目５番５－２０２号,,27,122,5570045,,,,,,,2025-10-20,1,,,,,キョクジツシキン,0
1303,5120003030993,新規,0,2025-10-20,2025-10-20,合同会社ＳＴ　Ｆｒｅｓｈ　Ｗｏｒｌｄ,,合同会社,大阪府,大阪市西成区,萩之茶屋２丁目６－４ニューかめや７５号室,,27,122,5570004,,,,,,,2025-10-20,1,,,,,エスティーフレッシュワールド,0
1305,5120101072649,新規,0,2025-10-20,2025-10-20,株式会社ＦＳｇｒｏｕｐ,,株式会社,大阪府,河内長野市,上原西町２２－２,,27,216,5860038,,,,,,,2025-10-20,1,,,,,エフエスグループ,0
1307,5120901051604,新規,0,2025-10-20,2025-10-20,株式会社啓越,,株式会社,大阪府,豊中市,豊南町南１丁目１番６の４号,,27,203,5610815,,,,,,,2025-10-20,1,,,,,ケイエツ,0
1308,5120901051645,新規,0,2025-10-20,2025-10-20,株式会社ＮｅｕｅＸ,,株式会社,大阪府,高槻市,大塚町５丁目５番１号,,27,207,5690034,,,,,,,2025-10-20,1,,,,,ノイエックス,0
1312,5122001039760,新規,0,2025-10-20,2025-10-20,株式会社なにわ土地管理,,株式会社,大阪府,東大阪市,柏田西１丁目６番６号,,27,227,5770835,,,,,,,2025-10-20,1,,,,,ナニワトチカンリ,0
1318,5140001140487,新規,0,2025-10-20,2025-10-20,株式会社三晃堂,,株式会社,兵庫県,姫路市,夢前町前之庄１８７番地,,28,201,6712103,,,,,,,2025-10-20,1,,,,,サンコウドウ,0
1322,5140003022733,新規,0,2025-10-20,2025-10-20,合同会社ＫＤ,,合同会社,兵庫県,神戸市東灘区,西岡本２丁目７番３－１２２１,,28,101,6580073,,,,,,,2025-10-20,1,,,,,ケーディー,0
1325,5160001027146,新規,0,2025-10-20,2025-10-20,株式会社竹谷工業,,株式会社,滋賀県,高島市,今津町松陽台１丁目７番７号,,25,212,5201633,,,,,,,2025-10-20,1,,,,,タケタニコウギョウ,0
1333,5180001168830,新規,0,2025-10-20,2025-10-20,株式会社ゆめスタ,,株式会社,愛知県,春日井市,如意申町７丁目１５－５アーバンハイツ春日井３０２,,23,206,4860918,,,,,,,2025-10-20,1,,,,,ユメスタ,0
1334,5180001169168,新規,0,2025-10-20,2025-10-20,株式会社Ｆｌｕｏｒｉｔｅ教育総合研究所,,株式会社,愛知県,日進市,赤池１丁目３００１番地第２５オーシャンプラザビル３０４,,23,230,4700125,,,,,,,2025-10-20,1,,,,,フローライトキョウイクソウゴウケンキュウジョ,0
1338,5180003029238,新規,0,2025-10-20,2025-10-20,合同会社Ｒｉｃｈｆａｍ,,合同会社,愛知県,名古屋市千種区,徳川山町４丁目１番５５号,,23,101,4640031,,,,,,,2025-10-20,1,,,,,リチファム,0
1339,5180003029262,新規,0,2025-10-20,2025-10-20,合同会社Ｇｒｏｗｔｈ,,合同会社,愛知県,名古屋市北区,成願寺１丁目６番Ｅ－８０７号,,23,103,4620021,,,,,,,2025-10-20,1,,,,,グロース,0
1343,5180301040334,新規,0,2025-10-20,2025-10-20,株式会社ｋｏｔｏｒｉｒｉ,,株式会社,愛知県,額田郡幸田町,大字相見字新田内１７Ｔステージ幸田相見駅前グランドスカイ１０３,,23,501,4440117,,,,,,,2025-10-20,1,,,,,コトリリ,0
1346,5190001032622,新規,0,2025-10-20,2025-10-20,株式会社佐藤運送,,株式会社,三重県,四日市市,九の城町１３番７号,,24,202,5100072,,,,,,,2025-10-20,1,,,,,サトウウンソウ,0
1352,5240001065674,新規,0,2025-10-20,2025-10-20,株式会社二光エステート,,株式会社,広島県,広島市西区,己斐本町１丁目１４番７－１５０３号,,34,104,7330812,,,,,,,2025-10-20,1,,,,,ニコウエステート,0
1355,5260001040659,新規,0,2025-10-20,2025-10-20,株式会社ちとせ屋,,株式会社,岡山県,真庭市,蒜山下長田１８８６番地１,,33,214,7170506,,,,,,,2025-10-20,1,,,,,チトセヤ,0
1356,5260001040667,新規,0,2025-10-20,2025-10-20,Ｂｅｎｅｓｓｅｒｅ株式会社,,株式会社,岡山県,岡山市北区,錦町８番３号ブランシエラ岡山３０１号,,33,101,7000902,,,,,,,2025-10-20,1,,,,,ベネッセレ,0
1357,5260003005387,新規,0,2025-10-20,2025-10-20,合同会社まねきねこ,,合同会社,岡山県,倉敷市,茶屋町２７２番地３,,33,202,7101101,,,,,,,2025-10-20,1,,,,,マネキネコ,0
1367,5290001111721,新規,0,2025-10-20,2025-10-20,株式会社デクシス九州,,株式会社,福岡県,福岡市博多区,博多駅前４丁目３番３号,,40,132,8120011,,,,,,,2025-10-20,1,,,,,,0
1374,5290005019845,新規,0,2025-10-20,2025-10-20,ＮＰＯ法人フウチ,,その他の設立登記法人,福岡県,うきは市,吉井町若宮７８番２号マウンテンヒル３０２,,40,225,8391311,,,,,,,2025-10-20,1,,,,,フウチ,0
1375,5290801031920,新規,0,2025-10-20,2025-10-20,株式会社北九州日本文化学院,,株式会社,福岡県,北九州市小倉北区,南丘１丁目２２番２号,,40,106,8030863,,,,,,,2025-10-20,1,,,,,キタキュウシュウニホンブンカガクイン,0
1376,5290801031953,新規,0,2025-10-20,2025-10-20,株式会社Ｋｙｕｔｅｃｈ　Ｓｐａｃｅ　Ｓｏｌｕｔｉｏｎ　ｆｏｒ　Ｅｍｅｒｇｉｎｇｓ,,株式会社,福岡県,北九州市戸畑区,仙水町１番１号,,40,105,8040015,,,,,,,2025-10-20,1,,,,,キューテックスペースソリューションフォーイマージングス,0
1378,5300003002363,新規,0,2025-10-20,2025-10-20,合同会社ＮＡＴＳＵ．Ｃｏｒｐ．,,合同会社,佐賀県,武雄市,山内町大字鳥海１０４１０番地,,41,206,8492302,,,,,,,2025-10-20,1,,,,,ナツコーポレーション,0
1387,5340003004983,新規,0,2025-10-20,2025-10-20,合同会社ソーシャルワークスＣＣ,,合同会社,鹿児島県,鹿児島市,坂之上７丁目２２番４３号,,46,201,8910150,,,,,,,2025-10-20,1,,,,,ソーシャルワークスシーシー,0
1388,5350003005048,新規,0,2025-10-20,2025-10-20,合同会社ＪＴトレーディング,,合同会社,宮崎県,都城市,今町７４９６番地,,45,202,8850064,,,,,,,2025-10-20,1,,,,,ジェイティートレーディング,0
1395,5360003015335,新規,0,2025-10-20,2025-10-20,合同会社まるよし商会,,合同会社,沖縄県,うるま市,字川田１１４番地１,,47,213,9042232,,,,,,,2025-10-20,1,,,,,マルヨシショウカイ,0
1398,5380001035647,新規,0,2025-10-20,2025-10-20,株式会社スタートライフ,,株式会社,福島県,いわき市,鹿島町久保２丁目６番地の１８,,07,204,9718144,,,,,,,2025-10-20,1,,,,,,0
1399,5380001035655,新規,0,2025-10-20,2025-10-20,テクワ株式会社,,株式会社,福島県,福島市,五老内町８番３０号,,07,201,9608111,,,,,,,2025-10-20,1,,,,,テクワ,0
1402,5430001095487,新規,0,2025-10-20,2025-10-20,株式会社ステラ,,株式会社,北海道,江別市,野幌若葉町４０番地の２９,,01,217,0690831,,,,,,,2025-10-20,1,,,,,ステラ,0
1406,5440001009702,新規,0,2025-10-20,2025-10-20,株式会社ＰＳＭ,,株式会社,北海道,函館市,湯川町３丁目４４－１７,,01,202,0420932,,,,,,,2025-10-20,1,,,,,ピーエスエム,0
1411,5500001026591,新規,0,2025-10-20,2025-10-20,株式会社ＬｉｔｔｌｅＧｉａｎｔ,,株式会社,愛媛県,松山市,余戸西１丁目１４－１９,,38,201,7900046,,,,,,,2025-10-20,1,,,,,リトルジャイアント,0
1423,6010001259579,新規,0,2025-10-20,2025-10-20,Ｓｐｏｒｔｓ　Ｓｔｒａｔｅｇｙ株式会社,,株式会社,東京都,中央区,銀座１丁目１２－４Ｎ＆ＥＢＬＤ．７階,,13,102,1040061,,,,,,,2025-10-20,1,,,,,スポーツストラテジー,0
1427,6010003049103,新規,0,2025-10-20,2025-10-20,ルビーＩＩＩ合同会社,,合同会社,東京都,千代田区,丸の内１丁目４番１号東京共同会計事務所内,,13,101,1000005,,,,,,,2025-10-20,1,,,,,ルビースリー,0
1429,6010005040778,新規,0,2025-10-20,2025-10-20,弁護士法人トニカ法律事務所,,その他の設立登記法人,東京都,中央区,京橋１丁目１４番７号４階,,13,102,1040031,,,,,,,2025-10-20,1,,,,,トニカホウリツジムショ,0
1435,6010401193634,新規,0,2025-10-20,2025-10-20,株式会社Ｇｙｍ　ｇｙｍ,,株式会社,東京都,港区,六本木５丁目１８－１,,13,103,1060032,,,,,,,2025-10-20,1,,,,,ジーワイエムジム,0
1436,6010401193725,新規,0,2025-10-20,2025-10-20,株式会社Ｋｏｔｏｎｏｎｅ,,株式会社,東京都,港区,北青山１丁目３番１号アールキューブ青山３階,,13,103,1070061,,,,,,,2025-10-20,1,,,,,コトノネ,0
1437,6010401193733,新規,0,2025-10-20,2025-10-20,株式会社Ｆｒｅｐｔｉｏｎ,,株式会社,東京都,港区,港南３丁目９番３３号ベイクレストタワー２９１１号室,,13,103,1080075,,,,,,,2025-10-20,1,,,,,フリプション,0
1438,6010401193799,新規,0,2025-10-20,2025-10-20,ＱｕｉｎＴｒａｄｅ株式会社,,株式会社,東京都,港区,元麻布３丁目１番６号,,13,103,1060046,,,,,,,2025-10-20,1,,,,,クイントレード,0
1439,6010401193989,新規,0,2025-10-20,2025-10-20,株式会社Ｎｅｗ　ｍｅ,,株式会社,東京都,港区,芝２丁目２番１２号５階,,13,103,1050014,,,,,,,2025-10-20,1,,,,,ニューミー,0
1441,6010501054892,新規,0,2025-10-20,2025-10-20,出海一叮テクノロジー株式会社,,株式会社,東京都,台東区,台東１丁目２４番９号ブライト秋葉原Ｂ１Ｆ,,13,106,1100016,,,,,,,2025-10-20,1,,,,,イズミイーテイテクノロジー,0
1445,6010601068157,新規,0,2025-10-20,2025-10-20,ＥＡＲＴＨ　ＭＡＤＥ　ＦＲＯＭ　ＨＥＡＲＴ株式会社,,株式会社,東京都,江東区,白河１丁目７番１３－３０３号,,13,108,1350021,,,,,,,2025-10-20,1,,,,,アースメイドフロムハート,0
1454,6011001172994,新規,0,2025-10-20,2025-10-20,株式会社ＥｃｈｏＮｅｔ,,株式会社,東京都,渋谷区,道玄坂１丁目１０番８号渋谷道玄坂東急ビル２Ｆ－Ｃ,,13,113,1500043,,,,,,,2025-10-20,1,,,,,エコーネット,0
1455,6011001173241,新規,0,2025-10-20,2025-10-20,ＳｏｌｖｏＭｉｎｄ株式会社,,株式会社,東京都,渋谷区,桜丘町４－１４ＶＯＲＴ渋谷桜丘ビル５Ｆ,,13,113,1500031,,,,,,,2025-10-20,1,,,,,ソルボマインド,0
1456,6011001173282,新規,0,2025-10-20,2025-10-20,株式会社ＳｔａｒＢｒｉｇｈｔｚ,,株式会社,東京都,渋谷区,渋谷２丁目２４番１２号渋谷スクランブルスクエア３８階,,13,113,1500002,,,,,,,2025-10-20,1,,,,,スターブライツ,0
1464,6011101113477,新規,0,2025-10-20,2025-10-20,Ｓｕｐｅｒａｓｙｓｔｅｍ株式会社,,株式会社,東京都,新宿区,新宿１丁目３６番２号新宿第七葉山ビル３Ｆ,,13,104,1600022,,,,,,,2025-10-20,1,,,,,スペラシステム,0
1465,6011101113502,新規,0,2025-10-20,2025-10-20,Ｍｅｒｋｍａｌ　Ｗｏｒｋｓ株式会社,,株式会社,東京都,新宿区,西新宿３丁目３番１３号西新宿水間ビル６階,,13,104,1600023,,,,,,,2025-10-20,1,,,,,メルクマールワークス,0
1466,6011103016496,新規,0,2025-10-20,2025-10-20,合同会社Ａｉｖｉｓｔａ,,合同会社,東京都,新宿区,山吹町３６５番地１プレミスト新宿山吹１３０３,,13,104,1620801,,,,,,,2025-10-20,1,,,,,アイビスタ,0
1469,6011301030984,新規,0,2025-10-20,2025-10-20,株式会社ＳＮＳ,,株式会社,東京都,杉並区,上荻１丁目５番２号コロナビル５階,,13,115,1670043,,,,,,,2025-10-20,1,,,,,エスエヌエス,0
1475,6011701028851,新規,0,2025-10-20,2025-10-20,諾衣ＩＰ株式会社,,株式会社,東京都,江戸川区,東小岩５丁目３７番１２号楽新ビル２１３号,,13,123,1330052,,,,,,,2025-10-20,1,,,,,ノイアイピー,0
1478,6011801046910,新規,0,2025-10-20,2025-10-20,株式会社勝間,,株式会社,東京都,足立区,本木１丁目２４番２１号,,13,121,1230853,,,,,,,2025-10-20,1,,,,,カツマ,0
1483,6012401043728,新規,0,2025-10-20,2025-10-20,株式会社ＤＯＫＹＯＩ,,株式会社,東京都,調布市,仙川町３丁目１番地３丸商ビル２階,,13,208,1820002,,,,,,,2025-10-20,1,,,,,ドキョウアイ,0
1484,6012701019130,新規,0,2025-10-20,2025-10-20,ｏｒｕｎｅ株式会社,,株式会社,東京都,東久留米市,神宝町２丁目２番５号,,13,222,2030002,,,,,,,2025-10-20,1,,,,,オルネ,0
1487,6013301055128,新規,0,2025-10-20,2025-10-20,拓海商貿株式会社,,株式会社,東京都,豊島区,池袋１丁目１２－１,,13,116,1700014,,,,,,,2025-10-20,1,,,,,タクミショウボウ,0
1488,6013301055136,新規,0,2025-10-20,2025-10-20,株式会社ＭＩＴＴ,,株式会社,東京都,豊島区,池袋２丁目３１番１６号,,13,116,1710014,,,,,,,2025-10-20,1,,,,,ミット,0
1489,6013301055152,新規,0,2025-10-20,2025-10-20,株式会社シェクターワークス,,株式会社,東京都,豊島区,池袋本町２丁目１２番２号,,13,116,1700011,,,,,,,2025-10-20,1,,,,,シェクターワークス,0
1493,6020001165413,新規,0,2025-10-20,2025-10-20,ＡｌｗａｙＺ株式会社,,株式会社,神奈川県,横浜市青葉区,青葉台１丁目５番地４青葉台サンクスビル３Ｆ,,14,117,2270062,,,,,,,2025-10-20,1,,,,,オールウェイズ,0
1495,6020005017008,新規,0,2025-10-20,2025-10-20,一般社団法人子ども音楽表現協会,,その他の設立登記法人,神奈川県,横浜市神奈川区,金港町５－１４クアドリフォリオ８階,,14,102,2210056,,,,,,,2025-10-20,1,,,,,コドモオンガクヒョウゲンキョウカイ,0
1499,6021001086608,新規,0,2025-10-20,2025-10-20,株式会社ＭＤＲ,,株式会社,神奈川県,相模原市緑区,相原２丁目２番４６号心の弐番館２０１号室,,14,151,2520141,,,,,,,2025-10-20,1,,,,,エムディーアール,0
1500,6021003016711,新規,0,2025-10-20,2025-10-20,Ｓｙｎｏｐｔｉｋ合同会社,,合同会社,神奈川県,厚木市,中町４丁目１４番１号サクセス本厚木ビル５階６階,,14,212,2430018,,,,,,,2025-10-20,1,,,,,シノプティック,0
1513,6030005022312,新規,0,2025-10-20,2025-10-20,医療法人社団集ＧＯ会,,その他の設立登記法人,埼玉県,川口市,並木３丁目３４番１７号,,11,203,3320034,,,,,,,2025-10-20,1,,,,,シュウゴウカイ,0
1516,6040001141016,新規,0,2025-10-20,2025-10-20,株式会社ＴＯＭＩＴＯＲＡ,,株式会社,千葉県,柏市,逆井１２５８番地２,,12,217,2770042,,,,,,,2025-10-20,1,,,,,トミトラ,0
1519,6040003028806,新規,0,2025-10-20,2025-10-20,合同会社三橋,,合同会社,千葉県,茂原市,中の島町８６５番地,,12,210,2970034,,,,,,,2025-10-20,1,,,,,ミツハシ,0
1520,6040005022906,新規,0,2025-10-20,2025-10-20,医療法人社団創生会,,その他の設立登記法人,千葉県,市原市,牛久８７９番地１,,12,219,2900225,,,,,,,2025-10-20,1,,,,,ソウセイカイ,0
1532,6080003003581,新規,0,2025-10-20,2025-10-20,合同会社らいと,,合同会社,静岡県,焼津市,利右衛門８６４番地の１,,22,212,4210212,,,,,,,2025-10-20,1,,,,,ライト,0
1544,6090001019570,新規,0,2025-10-20,2025-10-20,株式会社内藤商会,,株式会社,山梨県,大月市,富浜町鳥沢２５７０番地４,,19,206,4090502,,,,,,,2025-10-20,1,,,,,ナイトウショウカイ,0
1568,6120001280805,新規,0,2025-10-20,2025-10-20,戎征達技術株式会社,,株式会社,大阪府,大阪市淀川区,十三元今里２丁目１２番２５－２０１号,,27,123,5320028,,,,,,,2025-10-20,1,,,,,ジュウセイタツギジュツ,0
1569,6120001280846,新規,0,2025-10-20,2025-10-20,株式会社Ｕ　ＭＥＤＡＬ,,株式会社,大阪府,大阪市生野区,巽中３丁目１４番５号２階２０３号室,00141167,27,116,5440013,,,,,,,2025-10-20,1,,,,,ユーメダル,0
1570,6120001280920,新規,0,2025-10-20,2025-10-20,株式会社Ｄ．Ｉ．,,株式会社,大阪府,大阪市北区,梅田１丁目２番２号１２－１２,,27,127,5300001,,,,,,,2025-10-20,1,,,,,ディーアイ,0
1571,6120001280929,新規,0,2025-10-20,2025-10-20,株式会社あいいろ,,株式会社,大阪府,大阪市西区,北堀江３丁目１０番１７－５１１号,,27,106,5500014,,,,,,,2025-10-20,1,,,,,アイイロ,0
1572,6120001281076,新規,0,2025-10-20,2025-10-20,永盛盆栽商事株式会社,,株式会社,大阪府,大阪市西区,川口２丁目４－２川口ビル１Ｆ,,27,106,5500021,,,,,,,2025-10-20,1,,,,,エイショウボンサイショウジ,0
1573,6120001281175,新規,0,2025-10-20,2025-10-20,ネクセルインターナショナル株式会社,,株式会社,大阪府,枚方市,茄子作１丁目９番２１号,,27,210,5730071,,,,,,,2025-10-20,1,,,,,ネクセルインターナショナル,0
1576,6120003030984,新規,0,2025-10-20,2025-10-20,ＳＴＲＩＮＧ合同会社,,合同会社,大阪府,大阪市淀川区,西中島７丁目９番３号,,27,123,5320011,,,,,,,2025-10-20,1,,,,,ストリング,0
1579,6120101072524,新規,0,2025-10-20,2025-10-20,株式会社切山住設,,株式会社,大阪府,大阪狭山市,池之原４丁目６１番地の２,,27,231,5890031,,,,,,,2025-10-20,1,,,,,キリヤマジュウセツ,0
1580,6120101072648,新規,0,2025-10-20,2025-10-20,株式会社オリーブケアステーション,,株式会社,大阪府,藤井寺市,西大井１丁目４７３番地の３,,27,226,5830009,,,,,,,2025-10-20,1,,,,,オリーブケアステーション,0
1586,6122003003359,新規,0,2025-10-20,2025-10-20,合同会社ＳＡＮＣＯＭ,,合同会社,大阪府,八尾市,佐堂町２丁目４番１２号,,27,212,5810816,,,,,,,2025-10-20,1,,,,,サンコム,0
1590,6130001080832,新規,0,2025-10-20,2025-10-20,株式会社ＹＡＭＡ,,株式会社,京都府,京都市伏見区,深草大亀谷東古御香町５３番地,,26,109,6120844,,,,,,,2025-10-20,1,,,,,ヤマ,0
1592,6130003010861,新規,0,2025-10-20,2025-10-20,Ｃｏｍｆｏｒｔｉｘ合同会社,,合同会社,京都府,京都市右京区,京北下弓削町久バナ６－１,,26,108,6010534,,,,,,,2025-10-20,1,,,,,コンフォティクス,0
1595,6140001140362,新規,0,2025-10-20,2025-10-20,株式会社Ｒ‐１,,株式会社,兵庫県,宝塚市,安倉中１丁目１３－１８,,28,214,6650822,,,,,,,2025-10-20,1,,,,,アールワン,0
1596,6140001140404,新規,0,2025-10-20,2025-10-20,株式会社ＷＤＴ,,株式会社,兵庫県,尼崎市,武庫之荘本町２丁目２２－１２武庫之荘本町ライゼホビー０３,,28,202,6610031,,,,,,,2025-10-20,1,,,,,ダブリューディーティー,0
1597,6140001140412,新規,0,2025-10-20,2025-10-20,株式会社ＣｒｅＡｖｅｎｉｒ,,株式会社,兵庫県,伊丹市,安堂寺町７丁目５１番地１,,28,207,6640864,,,,,,,2025-10-20,1,,,,,クレアヴニール,0
1603,6140003022716,新規,0,2025-10-20,2025-10-20,合同会社モンテカルロ不動産管理,,合同会社,兵庫県,西宮市,屋敷町４番１２号,,28,204,6620963,,,,,,,2025-10-20,1,,,,,モンテカルロフドウサンカンリ,0
1604,6140003022732,新規,0,2025-10-20,2025-10-20,合同会社サニーヴィータ,,合同会社,兵庫県,姫路市,白浜町甲１８１２番地４４,,28,201,6728023,,,,,,,2025-10-20,1,,,,,サニーヴィータ,0
1608,6150001028466,新規,0,2025-10-20,2025-10-20,株式会社Ｅｆｈｉｎｅｓｓ,,株式会社,奈良県,奈良市,神功２丁目１３番地の１１,,29,201,6310804,,,,,,,2025-10-20,1,,,,,エフィネス,0
1609,6150001028482,新規,0,2025-10-20,2025-10-20,ＮＯＶＡＱエンジニアリング株式会社,,株式会社,奈良県,生駒郡平群町,竜田川３丁目１４番１４号,,29,342,6360912,,,,,,,2025-10-20,1,,,,,ノヴァックエンジニアリング,0
1610,6170001018837,新規,0,2025-10-20,2025-10-20,株式会社ＩｎｎｏｖａｔｉｏｎＳｙｓｔｅｍ,,株式会社,和歌山県,橋本市,恋野２３０７番地の２,,30,203,6480021,,,,,,,2025-10-20,1,,,,,イノベーションシステム,0
1616,6180001169142,新規,0,2025-10-20,2025-10-20,東野工業株式会社,,株式会社,愛知県,江南市,草井町宮東１０番地２,,23,217,4838004,,,,,,,2025-10-20,1,,,,,ヒガシノコウギョウ,0
1620,6180003029229,新規,0,2025-10-20,2025-10-20,ＣＮチャレンジ合同会社,,合同会社,愛知県,名古屋市中村区,那古野１丁目３９番３号,,23,105,4500001,,,,,,,2025-10-20,1,,,,,シーエヌチャレンジ,0
1630,6240001065649,新規,0,2025-10-20,2025-10-20,ＴＳＵＲＵＭＩ　ＥＳＴＡＴＥ株式会社,,株式会社,広島県,福山市,三吉町５丁目４番９号,,34,207,7200031,,,,,,,2025-10-20,1,,,,,ツルミエステート,0
1631,6240001065657,新規,0,2025-10-20,2025-10-20,株式会社ＺＶＴ,,株式会社,広島県,広島市安佐南区,大塚西１丁目４４番２２号,,34,105,7313167,,,,,,,2025-10-20,1,,,,,ゼベット,0
1632,6240001065665,新規,0,2025-10-20,2025-10-20,たなか不動産株式会社,,株式会社,広島県,広島市中区,袋町４番２号ひし屋ビル６０１号室,,34,101,7300036,,,,,,,2025-10-20,1,,,,,タナカフドウサン,0
1636,6250001021353,新規,0,2025-10-20,2025-10-20,株式会社魚新,,株式会社,山口県,岩国市,岩国１丁目１５番２１号,,35,208,7410062,,,,,,,2025-10-20,1,,,,,ウオシン,0
1642,6260001040658,新規,0,2025-10-20,2025-10-20,株式会社暁,,株式会社,岡山県,総社市,秦２３３６番地３７,,33,208,7191142,,,,,,,2025-10-20,1,,,,,アカツキ,0
1643,6260003005386,新規,0,2025-10-20,2025-10-20,合同会社ＢＲＩＧＨＴ　ＳＯＵＮＤ,,合同会社,岡山県,岡山市北区,中央町６－１８レインボープラザＢ１Ｆ,,33,101,7000836,,,,,,,2025-10-20,1,,,,,ブライトサウンド,0
1657,6290001111745,新規,0,2025-10-20,2025-10-20,株式会社エクソライズトレーディング,,株式会社,福岡県,柳川市,東蒲池１５７番地１０,,40,207,8320006,,,,,,,2025-10-20,1,,,,,エクソライズトレーディング,0
1662,6290005019852,新規,0,2025-10-20,2025-10-20,一般社団法人Ｔｈｅ　Ｈｉｄｅｙｕｋｉ　Ｏｋａｎｏ　Ｉｎｓｔｉｔｕｔｅ,,その他の設立登記法人,福岡県,福岡市中央区,天神４丁目６番２８号いちご天神ノースビル７階,,40,133,8100001,,,,,,,2025-10-20,1,,,,,ザヒデユキオカノインスティテュート,0
1675,6340003004990,新規,0,2025-10-20,2025-10-20,合同会社まなこほろ,,合同会社,鹿児島県,奄美市,名瀬末広町１１－８,,46,222,8940027,,,,,,,2025-10-20,1,,,,,マナコホロ,0
1677,6350001019775,新規,0,2025-10-20,2025-10-20,株式会社ＫＲ,,株式会社,宮崎県,児湯郡川南町,大字平田３０８７番地１,,45,405,8891302,,,,,,,2025-10-20,1,,,,,ケーアール,0
1681,6360003015334,新規,0,2025-10-20,2025-10-20,合同会社朝恵水産,,合同会社,沖縄県,宮古島市,伊良部字前里添６０７番地１,,47,214,9060501,,,,,,,2025-10-20,1,,,,,チョウケイスイサン,0
1682,6360003015342,新規,0,2025-10-20,2025-10-20,合同会社Ｓｏｌｅｉｌ　Ｓｅｃｏｎｄ,,合同会社,沖縄県,那覇市,松山１丁目４－８フラワードリームビル３ＦＣ号室,,47,201,9000032,,,,,,,2025-10-20,1,,,,,ソレイユセカンド,0
1687,6380005013020,新規,0,2025-10-20,2025-10-20,一般社団法人みらいネットだて,,その他の設立登記法人,福島県,伊達市,細谷４３番地８,,07,213,9600478,,,,,,,2025-10-20,1,,,,,ミライネットダテ,0
1689,6410001014299,新規,0,2025-10-20,2025-10-20,株式会社ネクストビジョン,,株式会社,秋田県,秋田市,泉南２丁目３番７号,,05,201,0100918,,,,,,,2025-10-20,1,,,,,ネクストビジョン,0
1697,6430001095404,新規,0,2025-10-20,2025-10-20,株式会社Ｍ＆Ｓ,,株式会社,北海道,札幌市中央区,南六条西８丁目８番１９号グランドール６８－２０１号,,01,101,0640806,,,,,,,2025-10-20,1,,,,,エムアンドエス,0
1698,6430001095420,新規,0,2025-10-20,2025-10-20,ｍａｔｅｒｉａｌ　ｌａｂ株式会社,,株式会社,北海道,札幌市白石区,菊水元町七条３丁目２番２４－２号,,01,104,0030827,,,,,,,2025-10-20,1,,,,,マテリアルラボ,0
1699,6430001095461,新規,0,2025-10-20,2025-10-20,株式会社安藤興産,,株式会社,北海道,札幌市豊平区,月寒東一条１７丁目５番４８号,,01,105,0620051,,,,,,,2025-10-20,1,,,,,アンドウコウサン,0
1700,6430001095478,新規,0,2025-10-20,2025-10-20,株式会社大地,,株式会社,北海道,札幌市清田区,北野二条３丁目１３番１号,,01,110,0040862,,,,,,,2025-10-20,1,,,,,ダイチ,0
1701,6430001095503,新規,0,2025-10-20,2025-10-20,株式会社ＨＳＢ,,株式会社,北海道,札幌市中央区,南七条西４丁目２番地６ＬＣ拾壱番館３Ｆ,,01,101,0640807,,,,,,,2025-10-20,1,,,,,エイチエスビー,0
1705,6430003018247,新規,0,2025-10-20,2025-10-20,合同会社健耀,,合同会社,北海道,札幌市中央区,南十二条西１２丁目１番３７号,,01,101,0640912,,,,,,,2025-10-20,1,,,,,ケンヨウ,0
1706,6440003001722,新規,0,2025-10-20,2025-10-20,合同会社オタク屋,,合同会社,北海道,函館市,海岸町９番３号,,01,202,0400061,,,,,,,2025-10-20,1,,,,,オタクヤ,0
1707,6460101007768,新規,0,2025-10-20,2025-10-20,株式会社そらいろホールディングス,,株式会社,北海道,帯広市,緑ケ丘一条通４丁目５番地,,01,207,0800841,,,,,,,2025-10-20,1,,,,,ソライロホールディングス,0
1712,6500001026590,新規,0,2025-10-20,2025-10-20,株式会社ＭＩＹＡＫＥＮ,,株式会社,愛媛県,宇和島市,愛宕町２丁目２番１３号,,38,203,7980042,,,,,,,2025-10-20,1,,,,,ミヤケン,0
1721,7010001259545,新規,0,2025-10-20,2025-10-20,嵐庭株式会社,,株式会社,東京都,千代田区,神田佐久間町１丁目８－４アルテール秋葉原８０３,,13,101,1010025,,,,,,,2025-10-20,1,,,,,ランテイ,0
1730,7010401193856,新規,0,2025-10-20,2025-10-20,株式会社ＢＩＯＡＣＣＥＬ,,株式会社,東京都,港区,六本木６丁目１番２０号７階,,13,103,1060032,,,,,,,2025-10-20,1,,,,,ビオアクセル,0
1731,7010403036336,新規,0,2025-10-20,2025-10-20,ｗｅｌｌｎａｒｅ合同会社,,合同会社,東京都,港区,南青山３丁目１番３６号青山丸竹ビル６Ｆ,,13,103,1070062,,,,,,,2025-10-20,1,,,,,ウェルナーレ,0
1735,7010501054883,新規,0,2025-10-20,2025-10-20,株式会社ＣｒｅＰｉ　ｓｙｓｔｅｍ,,株式会社,東京都,台東区,台東４丁目２７番４－５０２号コージーコート上野御徒町ＩＩ,00141166,13,106,1100016,,,,,,,2025-10-20,1,,,,,クレピシステム,0
1739,7010801036706,新規,0,2025-10-20,2025-10-20,株式会社Ｌｅｖｅｌｉａ,,株式会社,東京都,大田区,西蒲田８丁目４番１４号,,13,111,1440051,,,,,,,2025-10-20,1,,,,,レベリア,0
1742,7010903010352,新規,0,2025-10-20,2025-10-20,Ａｍｂｅｒ＆Ｃｌｏｖｅｒ合同会社,,合同会社,東京都,世田谷区,玉川台１丁目１４番１６－３０３号,,13,112,1580096,,,,,,,2025-10-20,1,,,,,アンバーアンドクローバー,0
1750,7011101113476,新規,0,2025-10-20,2025-10-20,ＩＯＲＣＰ株式会社,,株式会社,東京都,新宿区,西新宿１丁目２６番２号新宿野村ビル３２階,,13,104,1600023,,,,,,,2025-10-20,1,,,,,アイオーアールシーピー,0
1751,7011101113501,新規,0,2025-10-20,2025-10-20,株式会社Ｈｏｒｎ,,株式会社,東京都,新宿区,新宿２丁目１２番４号,,13,104,1600022,,,,,,,2025-10-20,1,,,,,ホルン,0
1752,7011101113575,新規,0,2025-10-20,2025-10-20,株式会社ｐｒｏｔｏｗｅｌｌ,,株式会社,東京都,新宿区,西新宿６丁目５番１号新宿アイランドタワー２階,,13,104,1600023,,,,,,,2025-10-20,1,,,,,プロトウェル,0
1753,7011103016578,新規,0,2025-10-20,2025-10-20,合同会社松参オフィス,,合同会社,東京都,新宿区,市谷台町７番１４号,,13,104,1620066,,,,,,,2025-10-20,1,,,,,ショウザンオフィス,0
1761,7011701028867,新規,0,2025-10-20,2025-10-20,サンリズ株式会社,,株式会社,東京都,江戸川区,東小岩６丁目３３番１８号ＺＫＹビル４０６号室,,13,123,1330052,,,,,,,2025-10-20,1,,,,,サンリズ,0
1762,7011703004429,新規,0,2025-10-20,2025-10-20,合同会社Ｌｏｄｅｍｎ,,合同会社,東京都,江戸川区,西小岩２丁目１４－１１ミリアビタＮＯ．２１－１０２号室,,13,123,1330057,,,,,,,2025-10-20,1,,,,,ロデム,0
1766,7012401043727,新規,0,2025-10-20,2025-10-20,株式会社ＫＡＬＥＩＤＯＳＣＯＰＥ,,株式会社,東京都,武蔵野市,吉祥寺本町１丁目３２番１１号地下１階,,13,203,1800004,,,,,,,2025-10-20,1,,,,,カレイドスコープ,0
1769,7012403007408,新規,0,2025-10-20,2025-10-20,合同会社ジーサンピクチャーズ,,合同会社,東京都,武蔵野市,境南町２丁目１０番２１号,,13,203,1800023,,,,,,,2025-10-20,1,,,,,ジーサンピクチャーズ,0
1770,7012801024310,新規,0,2025-10-20,2025-10-20,株式会社ふれあい,,株式会社,東京都,日野市,新井２丁目２３番地の３１ＳＶＳビル１階,,13,212,1910022,,,,,,,2025-10-20,1,,,,,フレアイ,0
1772,7013301055135,新規,0,2025-10-20,2025-10-20,株式会社ＦＵＳＩＯＮ,,株式会社,東京都,豊島区,南池袋１丁目１６番１５号ダイヤゲート池袋５階,,13,116,1710022,,,,,,,2025-10-20,1,,,,,フュージョン,0
1774,7013303007919,新規,0,2025-10-20,2025-10-20,エスワイキャピタル合同会社,,合同会社,東京都,豊島区,東池袋２丁目６２番８号ＢＩＧオフィスプラザ池袋１２０６,,13,116,1700013,,,,,,,2025-10-20,1,,,,,エスワイキャピタル,0
1777,7020001165098,新規,0,2025-10-20,2025-10-20,株式会社ＲＥＧＩＵＳ,,株式会社,神奈川県,横浜市旭区,善部町５９番地１２－１０１,,14,112,2410823,,,,,,,2025-10-20,1,,,,,リジアス,0
1779,7020003029508,新規,0,2025-10-20,2025-10-20,合同会社すまいベース,,合同会社,神奈川県,川崎市麻生区,万福寺６丁目１番２－２１２号シーズンアリーナ新百合ヶ丘,,14,137,2150004,,,,,,,2025-10-20,1,,,,,スマイベース,0
1780,7020005017007,新規,0,2025-10-20,2025-10-20,特定非営利活動法人メンタルヘルス共創拠点ピアウェル,,その他の設立登記法人,神奈川県,横浜市西区,北幸１丁目１番８号エキニア横浜５０３,,14,103,2200004,,,,,,,2025-10-20,1,,,,,メンタルヘルスキョウソウキョテンピアウェル,0
1794,7040001140990,新規,0,2025-10-20,2025-10-20,株式会社のぐち商会,,株式会社,千葉県,夷隅郡大多喜町,横山１３４２番地２,,12,441,2980206,,,,,,,2025-10-20,1,,,,,ノグチショウカイ,0
1795,7040001141015,新規,0,2025-10-20,2025-10-20,華農株式会社,,株式会社,千葉県,船橋市,海神２丁目４番８号,,12,204,2730021,,,,,,,2025-10-20,1,,,,,カノウ,0
1796,7040001141130,新規,0,2025-10-20,2025-10-20,株式会社ＮＯＶＡＱ,,株式会社,千葉県,松戸市,上矢切４４７－４,,12,207,2710094,,,,,,,2025-10-20,1,,,,,ノヴァック,0
1797,7040003028763,新規,0,2025-10-20,2025-10-20,ＧＡＫＵファーム合同会社,,合同会社,千葉県,千葉市緑区,誉田町２丁目２１番地１７４３,,12,105,2660005,,,,,,,2025-10-20,1,,,,,ガクファーム,0
1799,7050001057482,新規,0,2025-10-20,2025-10-20,株式会社縁,,株式会社,茨城県,水戸市,宮町２丁目１－１細谷ビル１階,,08,201,3100015,,,,,,,2025-10-20,1,,,,,ユカリ,0
1801,7050003009705,新規,0,2025-10-20,2025-10-20,合同会社更生工建,,合同会社,茨城県,神栖市,太田３３２４番地９,,08,232,3140254,,,,,,,2025-10-20,1,,,,,コウセイコウケン,0
1831,7120001280829,新規,0,2025-10-20,2025-10-20,株式会社関西生活音楽事務所,,株式会社,大阪府,大阪市淀川区,西中島４丁目６－３０チサンマンション第５新大阪８０８号,,27,123,5320011,,,,,,,2025-10-20,1,,,,,カンサイセイカツオンガクジムショ,0
1832,7120001280894,新規,0,2025-10-20,2025-10-20,株式会社パフォーマンス向上研究所,,株式会社,大阪府,大阪市北区,南森町１丁目３番２９号,,27,127,5300054,,,,,,,2025-10-20,1,,,,,パフォーマンスコウジョウケンキュウショ,0
1833,7120001280903,新規,0,2025-10-20,2025-10-20,株式会社ＴＩＥ,,株式会社,大阪府,大阪市北区,豊崎２丁目５番１５－１００２号,,27,127,5310072,,,,,,,2025-10-20,1,,,,,ティーアイイー,0
1834,7120001280952,新規,0,2025-10-20,2025-10-20,株式会社Ａｒｔ　Ｍｅｔａ,,株式会社,大阪府,大阪市住之江区,御崎１丁目１１－１９インキュセンタービル３１２号室,,27,125,5590013,,,,,,,2025-10-20,1,,,,,アートメタ,0
1835,7120001280969,新規,0,2025-10-20,2025-10-20,常久株式会社,,株式会社,大阪府,大阪市天王寺区,寺田町２丁目６番１０号エスティ寺田町むつみ６０５号室,,27,109,5430045,,,,,,,2025-10-20,1,,,,,ツネヒサ,0
1836,7120001280977,新規,0,2025-10-20,2025-10-20,株式会社ＭＩＲＡＩＺ・１,,株式会社,大阪府,大阪市西成区,聖天下２丁目９番１９号,,27,122,5570012,,,,,,,2025-10-20,1,,,,,ミライズワン,0
1837,7120001280985,新規,0,2025-10-20,2025-10-20,どおじゃ株式会社,,株式会社,大阪府,大阪市北区,梅田１丁目１－３大阪駅前第３ビル２９階１－１－１号室,,27,127,5300001,,,,,,,2025-10-20,1,,,,,ドオジャ,0
1838,7120001281050,新規,0,2025-10-20,2025-10-20,煥新時代株式会社,,株式会社,大阪府,大阪市北区,黒崎町３－２６－３Ｄ,,27,127,5300023,,,,,,,2025-10-20,1,,,,,カンシンジダイ,0
1839,7120001281075,新規,0,2025-10-20,2025-10-20,ｂｏｌｏ株式会社,,株式会社,大阪府,大阪市住吉区,住吉２丁目１０番２１号,,27,120,5580045,,,,,,,2025-10-20,1,,,,,ボーロ,0
1840,7120001281190,新規,0,2025-10-20,2025-10-20,ＳＵＮＲＩＳＥ株式会社,,株式会社,大阪府,大阪市東住吉区,中野４丁目１番１６号サラオリエンテ中野６１２Ａ,,27,121,5460012,,,,,,,2025-10-20,1,,,,,サンライズ,0
1843,7120003030769,新規,0,2025-10-20,2025-10-20,Ｍｕｇｉ　Ｗｏｒｋｓ合同会社,,合同会社,大阪府,大阪市中央区,南船場４丁目５番８号６０２号室,,27,128,5420081,,,,,,,2025-10-20,1,,,,,ムギワークス,0
1844,7120003030975,新規,0,2025-10-20,2025-10-20,合同会社和心ケア,,合同会社,大阪府,大阪市東住吉区,駒川５丁目２０番１１号モアナ駒川１０２号,,27,121,5460043,,,,,,,2025-10-20,1,,,,,ワゴコロケア,0
1845,7120003030991,新規,0,2025-10-20,2025-10-20,ＪＪ　ＴＲＡＤＩＮＧ合同会社,,合同会社,大阪府,枚方市,津田東町３丁目２番２２号,,27,210,5730122,,,,,,,2025-10-20,1,,,,,ジェイジェイトレーディング,0
1846,7120003031016,新規,0,2025-10-20,2025-10-20,合同会社ＭＰＣ,,合同会社,大阪府,大阪市西区,土佐堀３丁目３番２－１５０４号,,27,106,5500001,,,,,,,2025-10-20,1,,,,,エムピーシー,0
1852,7120901051593,新規,0,2025-10-20,2025-10-20,三友株式会社,,株式会社,大阪府,吹田市,円山町５３番２号,,27,205,5640061,,,,,,,2025-10-20,1,,,,,ミツトモ,0
1859,7122001039750,新規,0,2025-10-20,2025-10-20,株式会社竹内建設,,株式会社,大阪府,東大阪市,長堂１丁目２７番４－３０８号,,27,227,5770056,,,,,,,2025-10-20,1,,,,,タケウチケンセツ,0
1860,7122001039817,新規,0,2025-10-20,2025-10-20,株式会社ＡＮＩＭＡ　ＬＩＮＫ,,株式会社,大阪府,八尾市,高砂町１丁目８７番地１３,,27,212,5810822,,,,,,,2025-10-20,1,,,,,アニマリンク,0
1865,7130001080848,新規,0,2025-10-20,2025-10-20,鋒将技研株式会社,,株式会社,京都府,京都市伏見区,深草馬谷町１０－７２－３０１号室,,26,109,6120816,,,,,,,2025-10-20,1,,,,,ホウショウ,0
1869,7140001140444,新規,0,2025-10-20,2025-10-20,株式会社優,,株式会社,兵庫県,明石市,二見町西二見７５９番地の１,,28,203,6740094,,,,,,,2025-10-20,1,,,,,ユウ,0
1872,7140003022731,新規,0,2025-10-20,2025-10-20,合同会社ＣＯＣＯケアプラン,,合同会社,兵庫県,神戸市垂水区,西舞子１丁目１番１１号,,28,108,6550048,,,,,,,2025-10-20,1,,,,,ココケアプラン,0
1882,7180001169117,新規,0,2025-10-20,2025-10-20,株式会社ＧＭＫ,,株式会社,愛知県,名古屋市昭和区,川名本町３丁目１６番地,,23,107,4660855,,,,,,,2025-10-20,1,,,,,ジーエムケー,0
1883,7180001169133,新規,0,2025-10-20,2025-10-20,株式会社Ｒｉｊｅ,,株式会社,愛知県,小牧市,間々本町１２８番地名城元町ビル３０１,,23,219,4850048,,,,,,,2025-10-20,1,,,,,リジェ,0
1884,7180001169182,新規,0,2025-10-20,2025-10-20,株式会社福,,株式会社,愛知県,小牧市,大字大草６１２５番地２,,23,219,4850802,,,,,,,2025-10-20,1,,,,,フク,0
1885,7180001169190,新規,0,2025-10-20,2025-10-20,株式会社Ｍｏａｔ　ＲＩＶＥＲ,,株式会社,愛知県,北名古屋市,熊之庄山の前１３１番地,,23,234,4810006,,,,,,,2025-10-20,1,,,,,モートリバー,0
1888,7180003029244,新規,0,2025-10-20,2025-10-20,ＬＹ合同会社,,合同会社,愛知県,名古屋市西区,五才美町６番地メゾンヤスフク４０３号,,23,104,4520806,,,,,,,2025-10-20,1,,,,,エルワイ,0
1894,7190001032620,新規,0,2025-10-20,2025-10-20,松阪総合防災株式会社,,株式会社,三重県,松阪市,高町３９３番地５,,24,204,5150011,,,,,,,2025-10-20,1,,,,,マツサカソウゴウボウサイ,0
1895,7190001032629,新規,0,2025-10-20,2025-10-20,株式会社浦上溶建,,株式会社,三重県,亀山市,関ケ丘５２１番地４４４,,24,210,5191119,,,,,,,2025-10-20,1,,,,,ウラカミヨウケン,0
1902,7210001020358,新規,0,2025-10-20,2025-10-20,株式会社ＢＵＤＤＹ’Ｓ,,株式会社,福井県,福井市,経田２丁目１５０４番地,,18,201,9100011,,,,,,,2025-10-20,1,,,,,バディズ,0
1906,7240001065664,新規,0,2025-10-20,2025-10-20,株式会社ヤマモト設備,,株式会社,広島県,広島市安佐南区,山本新町４丁目２５番２８号,,34,105,7310139,,,,,,,2025-10-20,1,,,,,ヤマモトセツビ,0
1907,7260001040657,新規,0,2025-10-20,2025-10-20,株式会社ネクスガーデン,,株式会社,岡山県,岡山市南区,福富西２丁目５番６－７号,,33,104,7028031,,,,,,,2025-10-20,1,,,,,ネクスガーデン,0
1910,7290001111686,新規,0,2025-10-20,2025-10-20,蒼英興産株式会社,,株式会社,福岡県,宗像市,大井南８番２号,,40,220,8113440,,,,,,,2025-10-20,1,,,,,ソウエイコウサン,0
1911,7290001111711,新規,0,2025-10-20,2025-10-20,株式会社居酒や魚半,,株式会社,福岡県,大牟田市,本町１丁目４番地６,,40,202,8360046,,,,,,,2025-10-20,1,,,,,イザカヤウオハン,0
1912,7290001111802,新規,0,2025-10-20,2025-10-20,株式会社エムズアセット,,株式会社,福岡県,福岡市中央区,今泉１丁目２－３０天神プレイスＥａｓｔ棟５Ｆ,,40,133,8100021,,,,,,,2025-10-20,1,,,,,エムズアセット,0
1914,7290003017551,新規,0,2025-10-20,2025-10-20,合同会社フードデベロップ,,合同会社,福岡県,福津市,上西郷５２５番地の３,,40,224,8113207,,,,,,,2025-10-20,1,,,,,フードデベロップ,0
1916,7290801031951,新規,0,2025-10-20,2025-10-20,福千電設株式会社,,株式会社,福岡県,田川郡福智町,金田６５５－７,,40,610,8221201,,,,,,,2025-10-20,1,,,,,フクチデンセツ,0
1917,7290803005193,新規,0,2025-10-20,2025-10-20,Ｍ．Ｊ　ＬＡＮＫＡ合同会社,,合同会社,福岡県,行橋市,大字稲童２４４番地５,,40,213,8240022,,,,,,,2025-10-20,1,,,,,エムジェイランカ,0
1918,7310003005116,新規,0,2025-10-20,2025-10-20,Ｃ２９合同会社,,合同会社,長崎県,長崎市,田中町２５６－１－６０３,,42,201,8510134,,,,,,,2025-10-20,1,,,,,シーツーナイン,0
1920,7320003004802,新規,0,2025-10-20,2025-10-20,合同会社ＫＯＴＡＭＡホーム,,合同会社,大分県,大分市,大字野津原２９８６番地の２９,,44,201,8701203,,,,,,,2025-10-20,1,,,,,コタマホーム,0
1929,7350003005054,新規,0,2025-10-20,2025-10-20,大志建業合同会社,,合同会社,宮崎県,宮崎市,清武町木原５３３６番地２,,45,201,8891601,,,,,,,2025-10-20,1,,,,,タイシケンギョウ,0
1931,7360001035928,新規,0,2025-10-20,2025-10-20,株式会社護心,,株式会社,沖縄県,名護市,字宮里１００４番地,,47,209,9050011,,,,,,,2025-10-20,1,,,,,ゴシン,0
1934,7370003007338,新規,0,2025-10-20,2025-10-20,合同会社遠藤,,合同会社,宮城県,栗原市,志波姫新沼崎１８５番地の２,,04,213,9895613,,,,,,,2025-10-20,1,,,,,エンドウ,0
1942,7430001095394,新規,0,2025-10-20,2025-10-20,株式会社ＥＡＲＴＨＬＩＮＫ,,株式会社,北海道,苫小牧市,字糸井３４４番地１８,,01,213,0530814,,,,,,,2025-10-20,1,,,,,アースリンク,0
1943,7430001095436,新規,0,2025-10-20,2025-10-20,株式会社榮道,,株式会社,北海道,苫小牧市,ウトナイ南８丁目３番３号,,01,213,0591307,,,,,,,2025-10-20,1,,,,,エイドウ,0
1944,7430001095485,新規,0,2025-10-20,2025-10-20,株式会社Ｃａｍｕｓ,,株式会社,北海道,札幌市中央区,北一条西３丁目３番地ばらと北一条ビル９階８５,,01,101,0600001,,,,,,,2025-10-20,1,,,,,カム,0
1945,7430001095493,新規,0,2025-10-20,2025-10-20,株式会社Ｃｏｎｆｅｒｉｓｔａ,,株式会社,北海道,札幌市中央区,南八条西２５丁目２番１２－３０４,,01,101,0640808,,,,,,,2025-10-20,1,,,,,,0
1948,7460103001751,新規,0,2025-10-20,2025-10-20,合同会社田村電気,,合同会社,北海道,帯広市,白樺十六条西７丁目３番地１,,01,207,0800051,,,,,,,2025-10-20,1,,,,,タムラデンキ,0
1949,7462501001044,新規,0,2025-10-20,2025-10-20,アソビプロモーション株式会社,,株式会社,北海道,標津郡中標津町,東十三条北１丁目２番地１,,01,692,0861053,,,,,,,2025-10-20,1,,,,,,0
1956,8010001259503,新規,0,2025-10-20,2025-10-20,アセンド・エグゼクティブ・パートナーズ株式会社,,株式会社,東京都,千代田区,神田錦町３丁目１５－３１８,,13,101,1010054,,,,,,,2025-10-20,1,,,,,アセンドエグゼクティブパートナーズ,0
1957,8010001259511,新規,0,2025-10-20,2025-10-20,株式会社ＩＮＴＥＲＡＳＩＡ　ＪＡＰＡＮ,,株式会社,東京都,文京区,後楽２丁目１６番１号１階,,13,105,1120004,,,,,,,2025-10-20,1,,,,,インターアジアジャパン,0
1958,8010003049076,新規,0,2025-10-20,2025-10-20,ＧＳＩ　Ｎｉｈｏｎｂａｓｈｉ合同会社,,合同会社,東京都,中央区,日本橋１丁目４番１号日本橋一丁目ビルディング,,13,102,1030027,,,,,,,2025-10-20,1,,,,,ジーエスアイニホンバシ,0
1959,8010003049084,新規,0,2025-10-20,2025-10-20,合同会社Ｎａｇｏｍｉ,,合同会社,東京都,千代田区,霞が関３丁目２番５号霞が関ビル３５Ｆ霞ヶ関国際会計事務所・税理士法人ＫＩＡ,,13,101,1000013,,,,,,,2025-10-20,1,,,,,ナゴミ,0
1960,8010005040792,新規,0,2025-10-20,2025-10-20,一般社団法人ＣＲすし,,その他の設立登記法人,東京都,千代田区,内神田２丁目５番６号亀田ビル９階,,13,101,1010047,,,,,,,2025-10-20,1,,,,,シーアールスシ,0
1965,8010401193673,新規,0,2025-10-20,2025-10-20,株式会社悠健社,,株式会社,東京都,港区,西新橋２丁目４－３プロス西新橋ビル６Ｆ,,13,103,1050003,,,,,,,2025-10-20,1,,,,,ユウケンシャ,0
1968,8010403036302,新規,0,2025-10-20,2025-10-20,ＷＳ　Ｉｎｖｅｓｔｍｅｎｔ合同会社,,合同会社,東京都,港区,赤坂１丁目１２番３２号アーク森ビル２２階,,13,103,1070052,,,,,,,2025-10-20,1,,,,,ダブルエスインベストメント,0
1975,8010701048494,新規,0,2025-10-20,2025-10-20,株式会社ＮＥＥＭ,,株式会社,東京都,品川区,大井７丁目３番２３号,,13,109,1400014,,,,,,,2025-10-20,1,,,,,ニーム,0
1983,8011101113491,新規,0,2025-10-20,2025-10-20,Ｓｈｅｒｐａ　Ｐａｒｔｎｅｒｓ株式会社,,株式会社,東京都,新宿区,西新宿３丁目７番１号新宿パークタワーＮ棟３０階,,13,104,1600023,,,,,,,2025-10-20,1,,,,,シェルパパートナーズ,0
1984,8011101113525,新規,0,2025-10-20,2025-10-20,株式会社ＡＣＧ,,株式会社,東京都,新宿区,住吉町８－６,,13,104,1620065,,,,,,,2025-10-20,1,,,,,エーシージー,0
1987,8011201026734,新規,0,2025-10-20,2025-10-20,株式会社サークルプラステン,,株式会社,東京都,中野区,弥生町１丁目３６番１号,,13,114,1640013,,,,,,,2025-10-20,1,,,,,サークルプラステン,0
1991,8011601029114,新規,0,2025-10-20,2025-10-20,株式会社エムスクエアード,,株式会社,東京都,練馬区,石神井町２丁目７番６号,,13,120,1770041,,,,,,,2025-10-20,1,,,,,エムスクエアード,0
1994,8011701028841,新規,0,2025-10-20,2025-10-20,株式会社エポケ,,株式会社,東京都,江戸川区,西葛西１丁目１５番９号スカイビル５０３号,,13,123,1340088,,,,,,,2025-10-20,1,,,,,エポケ,0
1996,8011801046909,新規,0,2025-10-20,2025-10-20,株式会社ＦＩＳＴ,,株式会社,東京都,葛飾区,細田３丁目８－１６,,13,122,1240021,,,,,,,2025-10-20,1,,,,,フィスト,0
2000,8012401043726,新規,0,2025-10-20,2025-10-20,株式会社ＭＹ　ＧＯＡＬ　ＰＬＡＮＮＩＮＧ,,株式会社,東京都,三鷹市,井の頭５丁目２８番３号井の頭アルカディア１０１,,13,204,1810001,,,,,,,2025-10-20,1,,,,,マイゴールプラニング,0
2003,8012703003394,新規,0,2025-10-20,2025-10-20,合同会社アスモ,,合同会社,東京都,西東京市,中町３丁目３番１０号,,13,229,2020013,,,,,,,2025-10-20,1,,,,,アスモ,0
2009,8020001165048,新規,0,2025-10-20,2025-10-20,おもいつながる株式会社,,株式会社,神奈川県,横浜市旭区,若葉台１丁目８番１００８号,,14,112,2410801,,,,,,,2025-10-20,1,,,,,オモイツナガル,0
2011,8020003029416,新規,0,2025-10-20,2025-10-20,合同会社レグルス,,合同会社,神奈川県,横浜市西区,中央１丁目２０－１０－４０４,,14,103,2200051,,,,,,,2025-10-20,1,,,,,レグルス,0
2012,8020003029507,新規,0,2025-10-20,2025-10-20,ＣＷｅａｖｅ合同会社,,合同会社,神奈川県,横浜市磯子区,田中１丁目１１番６９号ＳＲアカデミア横浜磯子３１５号,,14,107,2350035,,,,,,,2025-10-20,1,,,,,シーウィーブ,0
2013,8020003029606,新規,0,2025-10-20,2025-10-20,合同会社Ｈａｋｕｒａｋｕ,,合同会社,神奈川県,横浜市神奈川区,金港町５－１４クアドリフォリオ８階,,14,102,2210056,,,,,,,2025-10-20,1,,,,,ハクラク,0
2014,8021001086523,新規,0,2025-10-20,2025-10-20,株式会社ＦＡ‐ｍｙ,,株式会社,神奈川県,海老名市,泉２丁目３番１号,,14,215,2430437,,,,,,,2025-10-20,1,,,,,ファーミー,0
2026,8040001140981,新規,0,2025-10-20,2025-10-20,株式会社セナリス,,株式会社,千葉県,柏市,南逆井６丁目１１番６６号,,12,217,2770043,,,,,,,2025-10-20,1,,,,,セナリス,0
2027,8040001141006,新規,0,2025-10-20,2025-10-20,株式会社ＹＡＨＩＫＡ　ＰＥＡＣＥ,,株式会社,千葉県,船橋市,東船橋２丁目６番１７号,,12,204,2730002,,,,,,,2025-10-20,1,,,,,ヤヒカピース,0
2028,8040001141014,新規,0,2025-10-20,2025-10-20,Ｙ＆Ｒ株式会社,,株式会社,千葉県,市川市,国府台４丁目５番２号,,12,203,2720827,,,,,,,2025-10-20,1,,,,,ワイアンドアール,0
2029,8040001141022,新規,0,2025-10-20,2025-10-20,株式会社銘森,,株式会社,千葉県,千葉市中央区,都町１０７番７,,12,101,2600001,,,,,,,2025-10-20,1,,,,,メイシン,0
2032,8040003028795,新規,0,2025-10-20,2025-10-20,Ｓｈｉｎｒｙｏ　Ｖｅｒｄｉｎ合同会社,,合同会社,千葉県,千葉市若葉区,高品町４７番地１１,,12,104,2640024,,,,,,,2025-10-20,1,,,,,シンリョウヴェルディン,0
2068,8120001280786,新規,0,2025-10-20,2025-10-20,澄宿株式会社,,株式会社,大阪府,大阪市生野区,生野東３丁目３番２８－１０１号,,27,116,5440025,,,,,,,2025-10-20,1,,,,,スミヤド,0
2069,8120001280893,新規,0,2025-10-20,2025-10-20,株式会社Ｋｖｅｌｌ　Ｈｏｍｅｙｓ,,株式会社,大阪府,大阪市東淀川区,瑞光１丁目１１番１８号ハイツシグマＩＩ１階,00141168,27,114,5330005,,,,,,,2025-10-20,1,,,,,クベルホーミー,0
2070,8120001280968,新規,0,2025-10-20,2025-10-20,東元株式会社,,株式会社,大阪府,大阪市東住吉区,湯里６丁目１３番７号１０２号室,,27,121,5460013,,,,,,,2025-10-20,1,,,,,トウゲン,0
2071,8120001281041,新規,0,2025-10-20,2025-10-20,株式会社千禧,,株式会社,大阪府,大阪市浪速区,元町１丁目１０番６号８階,,27,111,5560016,,,,,,,2025-10-20,1,,,,,センキ,0
2072,8120001281058,新規,0,2025-10-20,2025-10-20,ＪＣ株式会社,,株式会社,大阪府,大阪市港区,弁天５丁目１０番１８－２０１号,,27,107,5520007,,,,,,,2025-10-20,1,,,,,ジェイシー,0
2073,8120001281066,新規,0,2025-10-20,2025-10-20,株式会社トラストセーフコンサルティング,,株式会社,大阪府,大阪市北区,梅田２丁目５番４号,,27,127,5300001,,,,,,,2025-10-20,1,,,,,トラストセーフコンサルティング,0
2074,8120001281082,新規,0,2025-10-20,2025-10-20,株式会社キャリアアーク,,株式会社,大阪府,大阪市北区,野崎町６番８－７０７号,,27,127,5300055,,,,,,,2025-10-20,1,,,,,キャリアアーク,0
2075,8120001281149,新規,0,2025-10-20,2025-10-20,安森株式会社,,株式会社,大阪府,大阪市中央区,瓦屋町３丁目７番２０－８０３号,,27,128,5420066,,,,,,,2025-10-20,1,,,,,アンシン,0
2076,8120001281198,新規,0,2025-10-20,2025-10-20,株式会社こみらい,,株式会社,大阪府,大阪市都島区,都島本通３丁目１９番９号,,27,102,5340021,,,,,,,2025-10-20,1,,,,,コミライ,0
2079,8120003030990,新規,0,2025-10-20,2025-10-20,Ｍａｐｌｅ　Ｓａｋｕｒａ合同会社,,合同会社,大阪府,大阪市中央区,平野町２丁目５番８号,,27,128,5410046,,,,,,,2025-10-20,1,,,,,メイプルサクラ,0
2086,8120103006783,新規,0,2025-10-20,2025-10-20,合同会社グランディーエム,,合同会社,大阪府,堺市堺区,材木町東２丁２番２０号,,27,141,5900942,,,,,,,2025-10-20,1,,,,,グランディーエム,0
2102,8140003022722,新規,0,2025-10-20,2025-10-20,合同会社Ｕｒｉｙ,,合同会社,兵庫県,丹波市,氷上町稲継２６４番地１０,,28,223,6693466,,,,,,,2025-10-20,1,,,,,ユーリィ,0
2103,8140005027661,新規,0,2025-10-20,2025-10-20,一般社団法人気候と風土研究教育機構,,その他の設立登記法人,兵庫県,神戸市中央区,磯辺通２丁目３－１０ｏｎｅｋｎｏｔｔｒａｄｅｓ神戸ビル１００６号室,,28,110,6510084,,,,,,,2025-10-20,1,,,,,キコウトフウドケンキュウキョウイクキコウ,0
2105,8160001027151,新規,0,2025-10-20,2025-10-20,株式会社ビカコ,,株式会社,滋賀県,大津市,山百合の丘１７番２８号,,25,201,5200357,,,,,,,2025-10-20,1,,,,,ビカコ,0
2116,8180001168811,新規,0,2025-10-20,2025-10-20,株式会社青海波,,株式会社,愛知県,名古屋市天白区,向が丘４丁目５２０番地,,23,116,4680012,,,,,,,2025-10-20,1,,,,,セイガイハ,0
2117,8180001169198,新規,0,2025-10-20,2025-10-20,株式会社カトー,,株式会社,愛知県,長久手市,熊田２１１番地,,23,238,4801144,,,,,,,2025-10-20,1,,,,,カトー,0
2127,8190001032628,新規,0,2025-10-20,2025-10-20,株式会社カメサン,,株式会社,三重県,亀山市,和田町１５３５番地５,,24,210,5190102,,,,,,,2025-10-20,1,,,,,カメサン,0
2129,8200001044357,新規,0,2025-10-20,2025-10-20,株式会社銀角,,株式会社,岐阜県,養老郡養老町,五日市５７５番地１６４,,21,341,5031243,,,,,,,2025-10-20,1,,,,,ギンカク,0
2140,8240003007449,新規,0,2025-10-20,2025-10-20,合同会社建成,,合同会社,広島県,広島市南区,宇品御幸４丁目３番６号,,34,103,7340015,,,,,,,2025-10-20,1,,,,,ケンセイ,0
2145,8260001040656,新規,0,2025-10-20,2025-10-20,株式会社Ｒｉｓｅ　Ｇｒｉｄ,,株式会社,岡山県,都窪郡早島町,早島１８８７番地４－Ｂ２０１,,33,423,7010304,,,,,,,2025-10-20,1,,,,,ライズグリッド,0
2146,8260003005384,新規,0,2025-10-20,2025-10-20,合同会社ＨＯＧ‐Ｍｅ,,合同会社,岡山県,倉敷市,老松町２丁目３番１４号ビ・ウェル老松町３０１,,33,202,7100826,,,,,,,2025-10-20,1,,,,,ホグミイ,0
2148,8270005005662,新規,0,2025-10-20,2025-10-20,一般社団法人鳥取県防水協会,,その他の設立登記法人,鳥取県,鳥取市,浜坂４丁目６６６番地２,,31,201,6800001,,,,,,,2025-10-20,1,,,,,トットリケンボウスイキョウカイ,0
2151,8280003002000,新規,0,2025-10-20,2025-10-20,合同会社ｃｏｔｔａ,,合同会社,島根県,益田市,白上町イ８４５番地３,,32,204,6982141,,,,,,,2025-10-20,1,,,,,コッタ,0
2159,8290001111669,新規,0,2025-10-20,2025-10-20,株式会社サクセボ,,株式会社,福岡県,福岡市中央区,天神４丁目６－２８いちご天神ノースビル７階,,40,133,8100001,,,,,,,2025-10-20,1,,,,,サクセボ,0
2160,8290001111693,新規,0,2025-10-20,2025-10-20,株式会社ＨＫホールディングス,,株式会社,福岡県,筑紫野市,大字永岡１３０１番地の１,,40,217,8180066,,,,,,,2025-10-20,1,,,,,エイチケイホールディングス,0
2161,8290001111743,新規,0,2025-10-20,2025-10-20,株式会社シャローフィールド,,株式会社,福岡県,筑紫野市,大字西小田８０４番地１１,,40,217,8180032,,,,,,,2025-10-20,1,,,,,シャローフィールド,0
2162,8290001111792,新規,0,2025-10-20,2025-10-20,株式会社ＴＥＮＫＩパーク＆フーズ,,株式会社,福岡県,飯塚市,伊岐須２１７番地１０５,,40,205,8200053,,,,,,,2025-10-20,1,,,,,テンキパークアンドフーズ,0
2163,8290001111891,新規,0,2025-10-20,2025-10-20,株式会社時,,株式会社,福岡県,春日市,春日原北町４丁目２４番地ネオグランデ春日５０１号,,40,218,8160802,,,,,,,2025-10-20,1,,,,,トキ,0
2167,8290003017550,新規,0,2025-10-20,2025-10-20,ＡＭＯ　ＴＲＡＤＩＮＧ合同会社,,合同会社,福岡県,福津市,手光字山中２４９３番１６,,40,224,8113224,,,,,,,2025-10-20,1,,,,,アモトレーディング,0
2168,8290003017559,新規,0,2025-10-20,2025-10-20,岩商事合同会社,,合同会社,福岡県,福岡市城南区,片江５丁目１１番３号,,40,136,8140142,,,,,,,2025-10-20,1,,,,,イワショウジ,0
2170,8300003002360,新規,0,2025-10-20,2025-10-20,合同会社ＹｕＲｅＭａＲｉ,,合同会社,佐賀県,武雄市,武雄町大字武雄５４１８－１－１０２,,41,206,8430022,,,,,,,2025-10-20,1,,,,,ユレマリ,0
2182,8340003004989,新規,0,2025-10-20,2025-10-20,合同会社宝幸自動車,,合同会社,鹿児島県,日置市,東市来町養母３６４３番地２,,46,216,8992311,,,,,,,2025-10-20,1,,,,,ホウコウジドウシャ,0
2184,8350003005053,新規,0,2025-10-20,2025-10-20,合同会社佐土原江川蓄電発電所,,合同会社,宮崎県,宮崎市,佐土原町下田島１１２４２番地,,45,201,8800211,,,,,,,2025-10-20,1,,,,,サドワラエガワチクデンハツデンショ,0
2190,8380005013019,新規,0,2025-10-20,2025-10-20,医療法人結絆会,,その他の設立登記法人,福島県,福島市,渡利字舟場２０番地,,07,201,9608141,,,,,,,2025-10-20,1,,,,,ユウキカイ,0
2195,8430001095484,新規,0,2025-10-20,2025-10-20,株式会社Ｃｒｅｅｒ,,株式会社,北海道,札幌市中央区,南五条西４丁目４番２号第２０桂和ビル５Ｆ,,01,101,0640805,,,,,,,2025-10-20,1,,,,,クレエ,0
2198,8430003018237,新規,0,2025-10-20,2025-10-20,合同会社スカイハイ,,合同会社,北海道,室蘭市,八丁平４丁目３３番３号,,01,205,0500061,,,,,,,2025-10-20,1,,,,,スカイハイ,0
2202,8460101007766,新規,0,2025-10-20,2025-10-20,夢と株式会社,,株式会社,北海道,帯広市,東四条南１２丁目２０番地４,,01,207,0800804,,,,,,,2025-10-20,1,,,,,ユメト,0
2203,8460103001750,新規,0,2025-10-20,2025-10-20,合同会社しろくま舎,,合同会社,北海道,帯広市,西八条南２６丁目５７番地,,01,207,0800018,,,,,,,2025-10-20,1,,,,,シロクマシャ,0
2212,8500001026589,新規,0,2025-10-20,2025-10-20,株式会社ＦＵＧＥＮ人材サービス,,株式会社,愛媛県,松山市,平井町２３４７番地２２,,38,201,7910243,,,,,,,2025-10-20,1,,,,,フゲンジンザイサービス,0
2225,9010003048829,新規,0,2025-10-20,2025-10-20,合同会社Ｅｖｅｒｍｉｌｅ,,合同会社,東京都,中央区,銀座１丁目１２－４Ｎ＆ＥＢＬＤ．７階,,13,102,1040061,,,,,,,2025-10-20,1,,,,,エバーマイル,0
2226,9010005040791,新規,0,2025-10-20,2025-10-20,一般社団法人日米帰国支援センター,,その他の設立登記法人,東京都,千代田区,有楽町２丁目１０番１号,,13,101,1000006,,,,,,,2025-10-20,1,,,,,ニチベイキコクシエンセンター,0
2227,9010005040800,新規,0,2025-10-20,2025-10-20,ＳＲＦ１特定目的会社,,その他の設立登記法人,東京都,千代田区,丸の内１丁目４番１号東京共同会計事務所内,,13,101,1000005,,,,,,,2025-10-20,1,,,,,エスアールエフワン,0
2238,9010401193508,新規,0,2025-10-20,2025-10-20,ヴェリタス・ワン・パートナーズ株式会社,,株式会社,東京都,港区,赤坂９丁目１番１９－３０２号,,13,103,1070052,,,,,,,2025-10-20,1,,,,,ヴェリタスワンパートナーズ,0
2241,9010403036210,新規,0,2025-10-20,2025-10-20,合同会社ＹＯＳＨＩＺＡＮＥ,,合同会社,東京都,港区,芝大門１丁目１５－１０吉實ビル６階,,13,103,1050012,,,,,,,2025-10-20,1,,,,,ヨシザネ,0
2242,9010403036326,新規,0,2025-10-20,2025-10-20,合同会社Ｄｉｇｉｔａｌ　Ｅｎｔｅｒｔａｉｎｍｅｎｔ　Ａｓｓｅｔ,,合同会社,東京都,港区,西新橋１丁目６番１１号西新橋光和ビル２Ｆ,,13,103,1050003,,,,,,,2025-10-20,1,,,,,デジタルエンターテイメントアセット,0
2246,9010501054898,新規,0,2025-10-20,2025-10-20,株式会社ＺＯＫＩＲ,,株式会社,東京都,台東区,入谷２丁目２２番８号丸よしビル５０１,,13,106,1100013,,,,,,,2025-10-20,1,,,,,ゾキル,0
2247,9010505003653,新規,0,2025-10-20,2025-10-20,一般社団法人生命の質ＱＯＬ研究会,,その他の設立登記法人,東京都,台東区,三筋２丁目１９番３号ＦＧビル東京４階,,13,106,1110055,,,,,,,2025-10-20,1,,,,,セイメイノシツキューオーエルケンキュウカイ,0
2253,9010703007951,新規,0,2025-10-20,2025-10-20,ＮＵＪＰアセットマネジメント合同会社,,合同会社,東京都,品川区,西五反田３丁目１５番８号,,13,109,1410031,,,,,,,2025-10-20,1,,,,,エヌユージェーピーアセットマネジメント,0
2255,9010805003213,新規,0,2025-10-20,2025-10-20,一般社団法人ひなたぼっこ倶楽部,,その他の設立登記法人,東京都,大田区,北嶺町１７番８号,,13,111,1450073,,,,,,,2025-10-20,1,,,,,ヒナタボッコクラブ,0
2259,9010903010350,新規,0,2025-10-20,2025-10-20,合同会社にゃ,,合同会社,東京都,世田谷区,若林４丁目１７－１９,,13,112,1540023,,,,,,,2025-10-20,1,,,,,ニャ,0
2264,9011101113276,新規,0,2025-10-20,2025-10-20,株式会社エイユナイテッド,,株式会社,東京都,新宿区,西新宿１丁目２５番１号新宿センタービル４９階,,13,104,1600023,,,,,,,2025-10-20,1,,,,,エイユナイテッド,0
2265,9011101113524,新規,0,2025-10-20,2025-10-20,株式会社ＹＨ　ＯＮＥ,,株式会社,東京都,新宿区,高田馬場３丁目８番２０号ジャスミン高田馬場２０２,,13,104,1690075,,,,,,,2025-10-20,1,,,,,ワイエイチワン,0
2268,9011103016493,新規,0,2025-10-20,2025-10-20,合同会社リングケアサービス,,合同会社,東京都,新宿区,戸山２丁目２５番１１０号,,13,104,1620052,,,,,,,2025-10-20,1,,,,,リングケアサービス,0
2269,9011103016502,新規,0,2025-10-20,2025-10-20,エバー合同会社,,合同会社,東京都,新宿区,新宿６丁目５番１号新宿アイランドタワー２階,,13,104,1600022,,,,,,,2025-10-20,1,,,,,エバー,0
2270,9011103016592,新規,0,2025-10-20,2025-10-20,ＯＺ合同会社,,合同会社,東京都,新宿区,新宿７丁目２番３－６０１号,,13,104,1600022,,,,,,,2025-10-20,1,,,,,オズ,0
2271,9011105011625,新規,0,2025-10-20,2025-10-20,一般社団法人Ｈｅａｒｔ’ｓ　Ｆｌａｍｅ,,その他の設立登記法人,東京都,新宿区,西新宿３丁目３番１３号西新宿水間ビル６階,,13,104,1600023,,,,,,,2025-10-20,1,,,,,ハーツフレイム,0
2276,9011305003075,新規,0,2025-10-20,2025-10-20,一般社団法人東京都カヌー協会,,その他の設立登記法人,東京都,杉並区,阿佐谷北１丁目４番１２号,,13,115,1660001,,,,,,,2025-10-20,1,,,,,トウキョウトカヌーキョウカイ,0
2277,9011401027498,新規,0,2025-10-20,2025-10-20,Ｂｌｕｅ　Ｃｈｉｐ　Ｐｒｏｐｅｒｔｙ株式会社,,株式会社,東京都,板橋区,大山東町１４番１－１００６号ドルミ大山,,13,119,1730014,,,,,,,2025-10-20,1,,,,,ブルーチッププロパティー,0
2279,9011501032712,新規,0,2025-10-20,2025-10-20,未来株式会社,,株式会社,東京都,北区,滝野川６丁目９番１１号竹之内ビル１階,,13,117,1140023,,,,,,,2025-10-20,1,,,,,ミライ,0
2283,9011801046932,新規,0,2025-10-20,2025-10-20,ＳｕｎＡｏ株式会社,,株式会社,東京都,足立区,西新井栄町３丁目１番１号アーバンライフ西新井２１４,,13,121,1230843,,,,,,,2025-10-20,1,,,,,スナオ,0
2284,9011805003491,新規,0,2025-10-20,2025-10-20,一般社団法人合気道健心会,,その他の設立登記法人,東京都,足立区,興野１丁目９番１号,,13,121,1230844,,,,,,,2025-10-20,1,,,,,,0
2286,9012401043725,新規,0,2025-10-20,2025-10-20,株式会社アズユニティ,,株式会社,東京都,稲城市,百村２４０番地の１３,,13,225,2060804,,,,,,,2025-10-20,1,,,,,アズユニティ,0
2288,9012701019144,新規,0,2025-10-20,2025-10-20,株式会社イーストギャラリー,,株式会社,東京都,東久留米市,下里７丁目７番１１号,,13,222,2030043,,,,,,,2025-10-20,1,,,,,イーストギャラリー,0
2291,9012703003393,新規,0,2025-10-20,2025-10-20,合同会社トリプレット,,合同会社,東京都,清瀬市,中里５丁目５９５番地１,,13,221,2040003,,,,,,,2025-10-20,1,,,,,トリプレット,0
2292,9012801024309,新規,0,2025-10-20,2025-10-20,株式会社日刻,,株式会社,東京都,東大和市,南街４丁目５番１号ＫＴＤ南街４０４号室,,13,220,2070014,,,,,,,2025-10-20,1,,,,,ニッコク,0
2297,9013301055125,新規,0,2025-10-20,2025-10-20,ＲＡＢＥＡＮＣＯ　ＪＡＰＡＮ株式会社,,株式会社,東京都,豊島区,要町３丁目３７番１号－１Ａ,,13,116,1710043,,,,,,,2025-10-20,1,,,,,ラベアンコジャパン,0
2298,9013301055158,新規,0,2025-10-20,2025-10-20,株式会社ＳＨＩＯ,,株式会社,東京都,豊島区,南大塚３丁目５０－１ウィンド大塚ビル４１２,,13,116,1700005,,,,,,,2025-10-20,1,,,,,シオ,0
2299,9013303007925,新規,0,2025-10-20,2025-10-20,スピリット合同会社,,合同会社,東京都,豊島区,目白４丁目１番１６号クレール目白１０３号室,,13,116,1710031,,,,,,,2025-10-20,1,,,,,スピリット,0
2303,9020001165121,新規,0,2025-10-20,2025-10-20,株式会社旭２１,,株式会社,神奈川県,横浜市旭区,川島町１７２３番地４,,14,112,2410011,,,,,,,2025-10-20,1,,,,,アサヒニジュウイチ,0
2304,9020001165360,新規,0,2025-10-20,2025-10-20,株式会社Ｍｙ　Ｈ２Ｏ　Ｐｌｕｓ５,,株式会社,神奈川県,横浜市神奈川区,羽沢町１２００番地１０３,,14,102,2210863,,,,,,,2025-10-20,1,,,,,マイエイチツーオープラスファイブ,0
2305,9020001165377,新規,0,2025-10-20,2025-10-20,株式会社コマーズ,,株式会社,神奈川県,横浜市磯子区,西町６番１０－２０１号,,14,107,2350007,,,,,,,2025-10-20,1,,,,,コマーズ,0
2306,9020003029555,新規,0,2025-10-20,2025-10-20,ｎｉｃｏｂｅｒｒｙ合同会社,,合同会社,神奈川県,横浜市神奈川区,西寺尾４丁目２４番１－１０１号,,14,102,2210001,,,,,,,2025-10-20,1,,,,,ニコベリー,0
2307,9020003029621,新規,0,2025-10-20,2025-10-20,合同会社Ａｒｍｅｒｉａ,,合同会社,神奈川県,横浜市西区,北幸２丁目１０番４８号むつみビル３階,,14,103,2200004,,,,,,,2025-10-20,1,,,,,アルメリア,0
2325,9040003028794,新規,0,2025-10-20,2025-10-20,合同会社アークゲート,,合同会社,千葉県,船橋市,湊町２丁目１１－１－５０４,,12,204,2730011,,,,,,,2025-10-20,1,,,,,アークゲート,0
2340,9090001019568,新規,0,2025-10-20,2025-10-20,株式会社ＵＭＩ　ＫＡＺＥ　ＹＡＭＡ　ＯＴＯ,,株式会社,山梨県,富士吉田市,向原１丁目２２番１８号コーポ・アンゼルセン２０３,,19,202,4030018,,,,,,,2025-10-20,1,,,,,ウミカゼヤマオト,0
2358,9120001280901,新規,0,2025-10-20,2025-10-20,株式会社拓新,,株式会社,大阪府,大阪市東淀川区,菅原２丁目１３番７号,,27,114,5330022,,,,,,,2025-10-20,1,,,,,タクシン,0
2359,9120001280959,新規,0,2025-10-20,2025-10-20,株式会社センターフライ,,株式会社,大阪府,大阪市北区,梅田１丁目２番２号大阪駅前第二ビル１２－１２,,27,127,5300001,,,,,,,2025-10-20,1,,,,,センターフライ,0
2360,9120001280983,新規,0,2025-10-20,2025-10-20,株式会社ＢＥ‐ＣＵＢＥ,,株式会社,大阪府,大阪市住吉区,清水丘２丁目２７番４号,,27,120,5580033,,,,,,,2025-10-20,1,,,,,ビーキューブ,0
2361,9120001281040,新規,0,2025-10-20,2025-10-20,雲開株式会社,,株式会社,大阪府,大阪市生野区,新今里５丁目７－６新今里サクセスビル３０４号室,,27,116,5440001,,,,,,,2025-10-20,1,,,,,ウンカイ,0
2362,9120001281057,新規,0,2025-10-20,2025-10-20,天与精密部品株式会社,,株式会社,大阪府,大阪市浪速区,大国２丁目１６番１２－３０７号,,27,111,5560014,,,,,,,2025-10-20,1,,,,,テンヨセイミツブヒン,0
2363,9120001281065,新規,0,2025-10-20,2025-10-20,株式会社Ｏｃｅａｎ　Ｇａｔｅ,,株式会社,大阪府,大阪市北区,梅田１丁目１１番４号大阪駅前第４ビル９階９２３－１７３７号,,27,127,5300001,,,,,,,2025-10-20,1,,,,,オーシャンゲート,0
2364,9120001281148,新規,0,2025-10-20,2025-10-20,和心医療株式会社,,株式会社,大阪府,大阪市旭区,生江３丁目４番２０号ミンティア城北公園４Ｄ号室,,27,117,5350004,,,,,,,2025-10-20,1,,,,,ワシンイリョウ,0
2365,9120001281271,新規,0,2025-10-20,2025-10-20,株式会社ＦＬＡＴ,,株式会社,大阪府,大阪市中央区,神崎町４‐６‐１００１,,27,128,5400016,,,,,,,2025-10-20,1,,,,,フラット,0
2367,9120003030957,新規,0,2025-10-20,2025-10-20,合同会社優真,,合同会社,大阪府,大阪市東住吉区,湯里４丁目７－２４－５０４,,27,121,5460013,,,,,,,2025-10-20,1,,,,,ユウマ,0
2368,9120003030998,新規,0,2025-10-20,2025-10-20,グラヴィオテック合同会社,,合同会社,大阪府,大阪市浪速区,日本橋５丁目１２番３号,,27,111,5560005,,,,,,,2025-10-20,1,,,,,グラヴィオテック,0
2369,9120003031014,新規,0,2025-10-20,2025-10-20,ＥＮＶＹ　Ｊｅｗｅｌｒｙ合同会社,,合同会社,大阪府,大阪市大正区,平尾３丁目２３番７－３０１号,,27,108,5510012,,,,,,,2025-10-20,1,,,,,エンヴィージュエリー,0
2374,9120101072653,新規,0,2025-10-20,2025-10-20,ＨＫ住設株式会社,,株式会社,大阪府,和泉市,池上町４丁目３番４７号１０１,,27,219,5940083,,,,,,,2025-10-20,1,,,,,エイチケイジュウセツ,0
2381,9122001039749,新規,0,2025-10-20,2025-10-20,株式会社杉村ＨＤ,,株式会社,大阪府,東大阪市,渋川町４丁目６番３６号,,27,227,5770836,,,,,,,2025-10-20,1,,,,,スギムラホールディングス,0
2387,9140001140418,新規,0,2025-10-20,2025-10-20,株式会社相方,,株式会社,兵庫県,西宮市,美作町６番２４号,,28,204,6620095,,,,,,,2025-10-20,1,,,,,アイカタ,0
2388,9160001027159,新規,0,2025-10-20,2025-10-20,株式会社ライフプレイス,,株式会社,滋賀県,大津市,仰木の里東５丁目８番１８号,,25,201,5200248,,,,,,,2025-10-20,1,,,,,ライフプレイス,0
2395,9180001168810,新規,0,2025-10-20,2025-10-20,株式会社市松,,株式会社,愛知県,名古屋市天白区,向が丘４丁目５２０番地,,23,116,4680012,,,,,,,2025-10-20,1,,,,,イチマツ,0
2396,9180001169164,新規,0,2025-10-20,2025-10-20,株式会社メカトレード,,株式会社,愛知県,名古屋市東区,白壁３丁目３番３０号ラ・モヴェ―ル白壁鈴木４０１号室,,23,102,4610011,,,,,,,2025-10-20,1,,,,,メカトレード,0
2403,9190001032619,新規,0,2025-10-20,2025-10-20,株式会社アグリプロダクション,,株式会社,三重県,鈴鹿市,追分町字北能褒野２２２４－５,,24,207,5190313,,,,,,,2025-10-20,1,,,,,アグリプロダクション,0
2409,9200001044348,新規,0,2025-10-20,2025-10-20,株式会社ＫＯＬ’ｓ,,株式会社,岐阜県,関市,稲河町７－７,,21,205,5013913,,,,,,,2025-10-20,1,,,,,コルズ,0
2410,9230001021146,新規,0,2025-10-20,2025-10-20,株式会社ひとつち,,株式会社,富山県,氷見市,粟原２１３８,,16,205,9350054,,,,,,,2025-10-20,1,,,,,ヒトツチ,0
2412,9240001065662,新規,0,2025-10-20,2025-10-20,株式会社しげのぶ,,株式会社,広島県,広島市中区,宝町６番３０－３０２号,,34,101,7300044,,,,,,,2025-10-20,1,,,,,シゲノブ,0
2413,9240001065670,新規,0,2025-10-20,2025-10-20,株式会社ＣＯＤＥＭＡＲＩ,,株式会社,広島県,広島市佐伯区,美鈴が丘東３丁目８番１４号,,34,108,7315111,,,,,,,2025-10-20,1,,,,,コデマリ,0
2415,9240003007448,新規,0,2025-10-20,2025-10-20,合同会社ＢＳＲ,,合同会社,広島県,広島市中区,大手町１丁目１－２０相生橋ビル７階Ａ号室,,34,101,7300051,,,,,,,2025-10-20,1,,,,,ビーエスアール,0
2416,9240005016001,新規,0,2025-10-20,2025-10-20,医療法人武清会,,その他の設立登記法人,広島県,東広島市,西条町助実１１７２番地,,34,212,7390021,,,,,,,2025-10-20,1,,,,,ブショウカイ,0
2419,9250003003834,新規,0,2025-10-20,2025-10-20,多楽合同会社,,合同会社,山口県,下関市,みもすそ川町６番４３－４０８号山内ヴィラージュ火の山,,35,201,7510813,,,,,,,2025-10-20,1,,,,,タラク,0
2421,9260001040655,新規,0,2025-10-20,2025-10-20,株式会社ｉ‐ｓｔｙｌｅ,,株式会社,岡山県,倉敷市,船穂町船穂９３６番地１ディリジェントセブン１０２,,33,202,7100261,,,,,,,2025-10-20,1,,,,,アイスタイル,0
2432,9290001111684,新規,0,2025-10-20,2025-10-20,株式会社ＧＥＮＺＡ,,株式会社,福岡県,福岡市中央区,清川１丁目１３番１２号,,40,133,8100005,,,,,,,2025-10-20,1,,,,,ゲンザ,0
2433,9290001111692,新規,0,2025-10-20,2025-10-20,株式会社ラルジュメール,,株式会社,福岡県,福岡市南区,平和２丁目２３番６号,,40,134,8150071,,,,,,,2025-10-20,1,,,,,ラルジュメール,0
2434,9290001111750,新規,0,2025-10-20,2025-10-20,株式会社ボイスメイク,,株式会社,福岡県,福岡市中央区,天神４丁目６－２８いちご天神ノースビル７階,,40,133,8100001,,,,,,,2025-10-20,1,,,,,ボイスメイク,0
2435,9290001111791,新規,0,2025-10-20,2025-10-20,株式会社みやまロード,,株式会社,福岡県,みやま市,高田町濃施８４８番地,,40,229,8390215,,,,,,,2025-10-20,1,,,,,ミヤマロード,0
2440,9290003017517,新規,0,2025-10-20,2025-10-20,合同会社九州生活サポート,,合同会社,福岡県,福岡市中央区,天神２丁目２－１２Ｔ＆Ｊビルディング７階,,40,133,8100001,,,,,,,2025-10-20,1,,,,,キュウシュウセイカツサポート,0
2445,9340001027727,新規,0,2025-10-20,2025-10-20,株式会社いっでこんね,,株式会社,鹿児島県,鹿児島市,川上町３９５０番地,,46,201,8920875,,,,,,,2025-10-20,1,,,,,イッデコンネ,0
2447,9340003004988,新規,0,2025-10-20,2025-10-20,合同会社ＭｏｎＴｅｃｈ,,合同会社,鹿児島県,鹿児島市,大明丘１丁目１０番１８号,,46,201,8920872,,,,,,,2025-10-20,1,,,,,モンテック,0
2448,9360001035918,新規,0,2025-10-20,2025-10-20,株式会社シモジ電工,,株式会社,沖縄県,石垣市,字真栄里２０４番地１８９,,47,207,9070002,,,,,,,2025-10-20,1,,,,,シモジデンコウ,0
2449,9360003015331,新規,0,2025-10-20,2025-10-20,合同会社トロピカルファーム,,合同会社,沖縄県,宮古島市,平良字東仲宗根添１１１７番地１,,47,214,9060011,,,,,,,2025-10-20,1,,,,,トロピカルファーム,0
2450,9380005013018,新規,0,2025-10-20,2025-10-20,一般社団法人ハピネス,,その他の設立登記法人,福島県,須賀川市,長禄町１０１番地３,,07,207,9620857,,,,,,,2025-10-20,1,,,,,ハピネス,0
2451,9400003003546,新規,0,2025-10-20,2025-10-20,合同会社としの吉,,合同会社,岩手県,盛岡市,上田字宇登坂長根１６番地１５,,03,201,0200102,,,,,,,2025-10-20,1,,,,,トシノキチ,0
2459,9430001095459,新規,0,2025-10-20,2025-10-20,Ｅｐｏｃｈｙ株式会社,,株式会社,北海道,札幌市中央区,南六条西９丁目１０２３番地１８ディアコート６９－９０８号,,01,101,0640806,,,,,,,2025-10-20,1,,,,,エポシー,0
2460,9430001095467,新規,0,2025-10-20,2025-10-20,株式会社セブンスナイン,,株式会社,北海道,札幌市中央区,南五条西１５丁目２－３－５０３,,01,101,0640805,,,,,,,2025-10-20,1,,,,,セブンスナイン,0
2466,9480001012987,新規,0,2025-10-20,2025-10-20,株式会社リノハレ,,株式会社,徳島県,徳島市,徳島町２丁目２７番地徳島町ビル２０１,,36,201,7700852,,,,,,,2025-10-20,1,,,,,リノハレ,0
2468,9500001026588,新規,0,2025-10-20,2025-10-20,株式会社ヒネル,,株式会社,愛媛県,西条市,大町２６５番地１,,38,206,7930030,,,,,,,2025-10-20,1,,,,,ヒネル,0
