sequenceNumber,corporateNumber,process,correct,updateDate,changeDate,name,nameImageId,kind,prefectureName,cityName,streetNumber,addressImageId,prefectureCode,cityCode,postCode,addressOutside,addressOutsideImageId,closeDate,closeCause,successorCorporateNumber,changeCause,assignmentDate,latest,enName,enPrefectureName,enCityName,enAddressOutside,furigana,hihyoji
12,1010002002562,登記記録の閉鎖等,0,2025-12-10,2025-12-02,三慶商事有限会社,,有限会社,東京都,大田区,東嶺町１８番１０号,,13,111,1450074,,,2025-12-02,清算の結了等,,,2015-10-05,1,,,,,サンケイショウジ,0
14,1010005029801,登記記録の閉鎖等,0,2025-12-10,2025-12-05,東京レジ６一般社団法人,,その他の設立登記法人,東京都,千代田区,丸の内１丁目４番１号東京共同会計事務所内,,13,101,1000005,,,2025-12-05,清算の結了等,,,2019-03-04,1,,,,,トウキョウレジシックス,0
17,1010102011182,登記記録の閉鎖等,0,2025-12-10,2025-12-05,有限会社ハズ,,有限会社,東京都,八王子市,別所１丁目２１番地の２,,13,201,1920363,,,2025-12-05,清算の結了等,,,2015-10-05,1,,,,,ハズ,0
23,1010403027266,登記記録の閉鎖等,0,2025-12-10,2025-11-18,神谷町キャピタル・スリーＢ合同会社,,合同会社,東京都,港区,虎ノ門３丁目１８番１２－５０２号株式会社虎ノ門会計神谷町分室内,,13,103,1050001,,,2025-11-18,清算の結了等,,,2022-03-10,1,,,,,カミヤチョウキャピタルスリービー,0
31,1010602003943,登記記録の閉鎖等,0,2025-12-10,2025-12-03,有限会社杉崎縫製,,有限会社,東京都,江東区,大島２丁目１３番２号,,13,108,1360072,,,2025-12-03,清算の結了等,,,2015-10-05,1,,,,,スギサキホウセイ,0
37,1010705000631,登記記録の閉鎖等,0,2025-12-10,2025-12-04,キャプティグループ労働組合,,その他の設立登記法人,東京都,墨田区,堤通１丁目１９番９号,,13,107,1310034,,,2025-12-04,清算の結了等,,,2015-10-05,1,,,,,キャプティグループ,0
44,1010803004575,登記記録の閉鎖等,0,2025-12-10,2025-12-01,合同会社旭,,合同会社,東京都,大田区,大森西１丁目１４番１３号,,13,111,1430015,,,2025-12-01,清算の結了等,,,2023-06-14,1,,,,,アサヒ,0
58,1011105005205,登記記録の閉鎖等,0,2025-12-10,2025-11-14,一般社団法人阿貲達顕密佛学會,,その他の設立登記法人,東京都,新宿区,天神町６３番地９号,,13,104,1620808,,,2025-11-14,清算の結了等,,,2015-10-05,1,,,,,アツタシェンミフォンシュエフォイ,0
64,1011801011530,登記記録の閉鎖等,0,2025-12-10,2025-12-08,株式会社藤本工務店,,株式会社,東京都,足立区,南花畑２丁目２６番２０号,,13,121,1210062,,,2025-12-08,清算の結了等,,,2015-10-05,1,,,,,フジモトコウムテン,0
85,1021001030330,登記記録の閉鎖等,0,2025-12-10,2025-11-21,株式会社冨士異形金属,,株式会社,神奈川県,綾瀬市,上土棚北３丁目２９番２４号,,14,218,2521111,,,2025-11-21,清算の結了等,,,2015-10-05,1,,,,,フジイケイキンゾク,0
88,1021002062538,登記記録の閉鎖等,0,2025-12-10,2025-11-21,有限会社あさや商店,,有限会社,神奈川県,横須賀市,秋谷１丁目１番１６号,,14,201,2400105,,,2025-11-21,清算の結了等,,,2015-10-05,1,,,,,アサヤショウテン,0
102,1030001145550,登記記録の閉鎖等,0,2025-12-10,2025-12-01,株式会社Ｒａｖｅ　Ｔｒｉｐ,,株式会社,埼玉県,深谷市,上柴町東１丁目１６番地６,,11,218,3660051,,,2025-12-01,清算の結了等,,,2021-11-29,1,,,,,レヴトリップ,0
107,1030002057266,登記記録の閉鎖等,0,2025-12-10,2025-12-01,有限会社住まいる企画,,有限会社,埼玉県,上尾市,泉台２丁目６番地９泉台ハイツ３０２,,11,219,3620062,,,2025-12-01,清算の結了等,,,2015-10-05,1,,,,,スマイルキカク,0
108,1030002089409,登記記録の閉鎖等,0,2025-12-10,2025-12-01,有限会社エーピージャパン,,有限会社,埼玉県,北葛飾郡松伏町,大字上赤岩９９３番地６,,11,465,3430115,,,2025-12-01,清算の結了等,,,2015-10-05,1,,,,,エーピージャパン,0
112,1040001094607,登記記録の閉鎖等,0,2025-12-10,2025-11-18,株式会社アイディール,,株式会社,千葉県,市川市,福栄３丁目６番２５－１０１号,,12,203,2720137,,,2025-11-18,清算の結了等,,,2016-03-24,1,,,,,アイディール,0
118,1040002056853,登記記録の閉鎖等,0,2025-12-10,2025-11-18,有限会社浅野石油,,有限会社,千葉県,印西市,船尾１３５６番地の１,,12,231,2701345,,,2025-11-18,清算の結了等,,,2015-10-05,1,,,,,アサノセキユ,0
135,1080001016508,登記記録の閉鎖等,0,2025-12-10,2025-12-03,株式会社杉本家具センター,,株式会社,静岡県,藤枝市,藤枝３丁目５番１６号,,22,214,4260025,,,2025-12-03,清算の結了等,,,2015-10-05,1,,,,,スギモトカグセンター,0
136,1080001023371,登記記録の閉鎖等,0,2025-12-10,2025-12-01,株式会社グランツインベストメント,,株式会社,静岡県,藤枝市,青葉町４丁目７番７号,,22,214,4260066,,,2025-12-01,合併による解散等,8080001017326,令和７年１２月１日静岡県藤枝市青葉町四丁目７番７号株式会社ユニヴェールアセット（8080001017326）に合併し解散,2020-02-04,1,,,,,グランツインベストメント,0
139,1100001025332,登記記録の閉鎖等,0,2025-12-10,2025-12-08,株式会社エフアンドビー,,株式会社,長野県,長野市,篠ノ井塩崎３６９５番地１７,,20,201,3888014,,,2025-12-08,清算の結了等,,,2015-10-05,1,,,,,エフアンドビー,0
140,1100001036890,登記記録の閉鎖等,0,2025-12-10,2025-12-04,ＨＡＬＰＡＨ株式会社,,株式会社,長野県,北安曇郡白馬村,大字北城２９３７番地６５５,,20,485,3999301,,,2025-12-04,清算の結了等,,,2023-10-19,1,,,,,ハルパ,0
165,1120101032557,登記記録の閉鎖等,0,2025-12-10,2025-12-02,株式会社山本商店,,株式会社,大阪府,羽曳野市,古市７丁目４番９号,,27,222,5830852,,,2025-12-02,清算の結了等,,,2015-10-05,1,,,,,ヤマモトショウテン,0
168,1120101063560,登記記録の閉鎖等,0,2025-12-10,2025-12-04,株式会社ユウキテック,,株式会社,大阪府,堺市西区,山田４丁１４６３－５,,27,144,5938316,,,2025-12-04,清算の結了等,,,2021-04-30,1,,,,,ユウキテック,0
172,1120105007803,登記記録の閉鎖等,0,2025-12-10,2025-12-01,特定非営利活動法人スマイルフィッシングアカデミー,,その他の設立登記法人,大阪府,泉南郡熊取町,若葉１丁目１５番３２号,,27,361,5900433,,,2025-12-01,清算の結了等,,,2015-10-05,1,,,,,スマイルフィッシングアカデミー,0
180,1122002001285,登記記録の閉鎖等,0,2025-12-10,2025-12-05,有限会社希裕,,有限会社,大阪府,東大阪市,下小阪５丁目１番２１号,,27,227,5770803,,,2025-12-05,清算の結了等,,,2015-10-05,1,,,,,キユウ,0
204,1180005019232,登記記録の閉鎖等,0,2025-12-10,2025-12-05,一般社団法人国際産業文化交流協会,,その他の設立登記法人,愛知県,名古屋市中区,丸の内１丁目１７番１９号,,23,106,4600002,,,2025-12-05,清算の結了等,,,2021-04-21,1,,,,,コクサイサンギョウブンカコウリュウキョウカイ,0
208,1200001021783,登記記録の閉鎖等,0,2025-12-10,2025-12-05,株式会社柴田屋商店,,株式会社,岐阜県,瑞浪市,稲津町小里９２番地の１,,21,208,5096103,,,2025-12-05,清算の結了等,,,2015-10-05,1,,,,,シバタヤショウテン,0
217,1240001022951,登記記録の閉鎖等,0,2025-12-10,2025-12-03,ドリーム調査設計株式会社,,株式会社,広島県,東広島市,西条町西条東字実竹８９９－１,,34,212,7390042,,,2025-12-03,清算の結了等,,,2015-10-05,1,,,,,ドリームチョウサセッケイ,0
221,1240001061768,登記記録の閉鎖等,0,2025-12-10,2025-12-04,株式会社西国街道の駅,,株式会社,広島県,三原市,糸崎４丁目２１番１号,,34,204,7290324,,,2025-12-04,清算の結了等,,,2023-07-10,1,,,,,サイコクカイドウノエキ,0
223,1240005003072,登記記録の閉鎖等,0,2025-12-10,2025-12-05,特定非営利活動法人ひだまりの家,,その他の設立登記法人,広島県,広島市安佐南区,伴東７丁目５７番１４号,,34,105,7313164,,,2025-12-05,清算の結了等,,,2015-10-05,1,,,,,ヒダマリノイエ,0
227,1260002016760,登記記録の閉鎖等,0,2025-12-10,2025-12-03,有限会社栄友産業,,有限会社,岡山県,倉敷市,宮前４１９番地１２１,,33,202,7100065,,,2025-12-03,清算の結了等,,,2015-10-05,1,,,,,エイユウサンギョウ,0
230,1270002006868,登記記録の閉鎖等,0,2025-12-10,2025-12-08,有限会社ふそう別館,,有限会社,鳥取県,米子市,皆生温泉４丁目４番３５号,,31,202,6830001,,,2025-12-08,清算の結了等,,,2015-10-05,1,,,,,フソウベッカン,0
245,1290802024142,登記記録の閉鎖等,0,2025-12-10,2025-12-08,有限会社サンミユキ,,有限会社,福岡県,田川市,大字夏吉１２６１番地の２１,,40,206,8250004,,,2025-12-08,清算の結了等,,,2015-10-05,1,,,,,サンミユキ,0
266,1390002010263,登記記録の閉鎖等,0,2025-12-10,2025-12-05,菅原通商有限会社,,有限会社,山形県,東田川郡三川町,大字押切新田字対馬３５８番地２,,06,426,9971321,,,2025-12-05,清算の結了等,,,2015-10-05,1,,,,,スガワラツウショウ,0
267,1400002012191,登記記録の閉鎖等,0,2025-12-10,2025-12-02,有限会社内澤商店,,有限会社,岩手県,二戸郡一戸町,一戸字本町３７番地の６,,03,524,0285312,,,2025-12-02,清算の結了等,,,2015-10-05,1,,,,,ウチサワショウテン,0
279,1460301001121,登記記録の閉鎖等,0,2025-12-10,2025-12-05,山田酒造株式会社,,株式会社,北海道,北見市,山下町２丁目１番地１９,,01,208,0900037,,,2025-12-05,清算の結了等,,,2015-10-05,1,,,,,ヤマダシュゾウ,0
301,2010005038363,登記記録の閉鎖等,0,2025-12-10,2025-12-01,ソーラーデメルホールディングス一般社団法人,,その他の設立登記法人,東京都,中央区,京橋２丁目１２番６号ＡＯＪ税理士法人内,,13,102,1040031,,,2025-12-01,清算の結了等,,,2024-06-04,1,,,,,ソーラーデメルホールディングス,0
323,2010801013412,登記記録の閉鎖等,0,2025-12-10,2025-12-01,株式会社グランシス,,株式会社,東京都,大田区,山王３丁目６番８号,,13,111,1430023,,,2025-12-01,清算の結了等,,,2015-10-05,1,,,,,グランシス,0
333,2011001160672,登記記録の閉鎖等,0,2025-12-10,2025-11-13,ＭＢオペレーションズ株式会社,,株式会社,東京都,渋谷区,恵比寿４丁目７番６号,,13,113,1500013,,,2025-11-13,合併による解散等,9011001128003,令和７年１１月４日東京都渋谷区恵比寿四丁目７番６号ミッドナイトブレックファスト株式会社（9011001128003）に合併し解散,2024-03-22,1,,,,,エムビーオペレーションズ,0
343,2011005006905,登記記録の閉鎖等,0,2025-12-10,2025-11-14,一般社団法人サポートユアキャリア,,その他の設立登記法人,東京都,渋谷区,東２丁目２９番１０号,,13,113,1500011,,,2025-11-14,清算の結了等,,,2016-09-07,1,,,,,サポートユアキャリア,0
351,2011103010932,登記記録の閉鎖等,0,2025-12-10,2025-11-18,合同会社テンプス,,合同会社,東京都,新宿区,四谷坂町４番１号サンウィング四谷２０２,,13,104,1600002,,,2025-11-18,清算の結了等,,,2021-08-16,1,,,,,テンプス,0
353,2011202004174,登記記録の閉鎖等,0,2025-12-10,2025-12-04,東成商事有限会社,,有限会社,東京都,杉並区,阿佐谷北１丁目２２番１１号,,13,115,1660001,,,2025-12-04,清算の結了等,,,2015-10-05,1,,,,,トウセイショウジ,0
356,2011303002936,登記記録の閉鎖等,0,2025-12-10,2025-12-04,合同会社Ｋエンタープライズ,,合同会社,東京都,杉並区,永福２丁目２１番２号,,13,115,1680064,,,2025-12-04,清算の結了等,,,2018-02-22,1,,,,,ケーエンタープライズ,0
373,2013101007753,登記記録の閉鎖等,0,2025-12-10,2025-12-08,株式会社ＣＲＥＷ,,株式会社,東京都,西多摩郡瑞穂町,箱根ケ崎東松原１２番地１,,13,303,1901222,,,2025-12-08,清算の結了等,,,2017-12-26,1,,,,,,0
383,2020003009522,登記記録の閉鎖等,0,2025-12-10,2025-12-09,合同会社ＴＭ企画,,合同会社,神奈川県,川崎市川崎区,鋼管通４丁目４番１１号,,14,131,2100852,,,2025-12-09,清算の結了等,,,2015-10-05,1,,,,,ティーエムキカク,0
390,2030001055617,登記記録の閉鎖等,0,2025-12-10,2025-12-05,株式会社丸玉運送埼玉,,株式会社,埼玉県,川越市,豊田町３丁目１０番地１,,11,201,3501110,,,2025-12-05,合併による解散等,4180001094565,令和７年１２月１日愛知県東海市名和町天王前３３番地の１株式会社丸玉運送（4180001094565）に合併し解散,2015-10-05,1,,,,,マルタマウンソウサイタマ,0
393,2030001092197,登記記録の閉鎖等,0,2025-12-10,2025-12-01,株式会社メディクリエイト,,株式会社,埼玉県,熊谷市,筑波１丁目１３６番地,,11,202,3600037,,,2025-12-01,清算の結了等,,,2015-10-05,1,,,,,メディクリエイト,0
397,2030001113960,登記記録の閉鎖等,0,2025-12-10,2025-12-02,株式会社タカネ風土,,株式会社,埼玉県,熊谷市,小江川３３７番地,,11,202,3600103,,,2025-12-02,合併による解散等,5030001089216,令和７年１２月１日埼玉県熊谷市小江川２２８番地１株式会社ホテルヘリテイジ（5030001089216）に合併し解散,2016-04-21,1,,,,,タカネフウド,0
398,2030001137605,登記記録の閉鎖等,0,2025-12-10,2025-11-28,株式会社ワールドエクステンション,,株式会社,埼玉県,川越市,神明町４１－１６,,11,201,3500823,,,2025-11-28,清算の結了等,,,2020-08-04,1,,,,,ワールドエクステンション,0
425,2060001017548,登記記録の閉鎖等,0,2025-12-10,2025-12-05,株式会社天谷鐵工所,,株式会社,栃木県,栃木市,大平町蔵井５１番地４,,09,203,3294403,,,2025-12-05,清算の結了等,,,2015-10-05,1,,,,,アマガイテッコウジョ,0
434,2080002014815,登記記録の閉鎖等,0,2025-12-10,2025-12-04,有限会社魚才商店,,有限会社,静岡県,牧之原市,波津７５３番地の２,,22,226,4210523,,,2025-12-04,清算の結了等,,,2015-10-05,1,,,,,,0
441,2100002028903,登記記録の閉鎖等,0,2025-12-10,2025-12-04,有限会社保坂工業,,有限会社,長野県,諏訪市,大字中洲３７０５番地５,,20,206,3920015,,,2025-12-04,清算の結了等,,,2015-10-05,1,,,,,ホサカコウギョウ,0
445,2120001012039,登記記録の閉鎖等,0,2025-12-10,2025-12-08,河本商事株式会社,,株式会社,奈良県,奈良市,三松３丁目１０番１５号,,29,201,6310074,,,2025-12-08,清算の結了等,,,2015-10-05,1,,,,,カワモトショウジ,0
446,2120001033010,登記記録の閉鎖等,0,2025-12-10,2025-12-08,株式会社エス・イー・エル,,株式会社,大阪府,大阪市住吉区,清水丘２丁目１５番１７号ロジュマン清水丘,,27,120,5580033,,,2025-12-08,清算の結了等,,,2015-10-05,1,,,,,エスイーエル,0
465,2120002047793,登記記録の閉鎖等,0,2025-12-10,2025-12-08,有限会社昭栄企画,,有限会社,大阪府,大阪市東淀川区,大桐１丁目７番３１－４０１号,,27,114,5330011,,,2025-12-08,清算の結了等,,,2015-10-05,1,,,,,,0
466,2120002075885,登記記録の閉鎖等,0,2025-12-10,2025-12-02,有限会社滝口,,有限会社,大阪府,交野市,妙見東４丁目６番２０号,,27,230,5760012,,,2025-12-02,清算の結了等,,,2015-10-05,1,,,,,タキグチ,0
476,2120901024579,登記記録の閉鎖等,0,2025-12-10,2025-12-05,株式会社たかはし,,株式会社,大阪府,豊中市,新千里東町１丁目３番２２８号,,27,203,5600082,,,2025-12-05,合併による解散等,3130001080059,令和７年１２月１日京都市中京区両替町通姉小路下る柿本町４１２番地株式会社細尾（3130001080059）に合併し解散,2015-10-05,1,,,,,タカハシ,0
513,2190002019308,登記記録の閉鎖等,0,2025-12-10,2025-12-09,有限会社岩間設備,,有限会社,三重県,四日市市,波木町１１０５番地の２,,24,202,5100961,,,2025-12-09,清算の結了等,,,2015-10-05,1,,,,,イワマセツビ,0
519,2200002026698,登記記録の閉鎖等,0,2025-12-10,2025-12-03,有限会社アート・デンタルラボ,,有限会社,岐阜県,高山市,江名子町２６００番地３６,,21,203,5060818,,,2025-12-03,清算の結了等,,,2015-10-05,1,,,,,アートデンタルラボ,0
527,2230002011631,登記記録の閉鎖等,0,2025-12-10,2025-12-01,有限会社トナミホーム建築,,有限会社,富山県,高岡市,駅南４丁目１１番２７号,,16,202,9330871,,,2025-12-01,合併による解散等,5230002009318,令和７年１２月１日富山県砺波市鷹栖１７１０番地株式会社Ｌｉｆｅ　Ｂｌｏｏｍ　Ｉｎｎｏｖａｔｉｏｎ（5230002009318）に合併し解散,2015-10-05,1,,,,,トナミホームケンチク,0
530,2240001052345,登記記録の閉鎖等,0,2025-12-10,2025-12-03,株式会社木船総業,,株式会社,広島県,広島市安佐南区,緑井３丁目３４番２２－２０３号,,34,105,7310103,,,2025-12-03,清算の結了等,,,2018-02-06,1,,,,,キフネソウギョウ,0
534,2250002020110,登記記録の閉鎖等,0,2025-12-10,2025-12-08,有限会社久保建設,,有限会社,山口県,熊毛郡田布施町,大字下田布施４３６番地,,35,343,7421511,,,2025-12-08,清算の結了等,,,2015-10-05,1,,,,,クボケンセツ,0
564,2430002015141,登記記録の閉鎖等,0,2025-12-10,2025-12-04,有限会社日北工業,,有限会社,北海道,札幌市東区,東苗穂十四条３丁目９番７号,,01,103,0070814,,,2025-12-04,清算の結了等,,,2015-10-05,1,,,,,ニッポクコウギョウ,0
565,2430002017088,登記記録の閉鎖等,0,2025-12-10,2025-12-04,有限会社二口板金工業,,有限会社,北海道,札幌市東区,北三十五条東２３丁目２番１３号,,01,103,0070835,,,2025-12-04,清算の結了等,,,2015-10-05,1,,,,,フタグチバンキンコウギョウ,0
576,2500002006257,登記記録の閉鎖等,0,2025-12-10,2025-12-08,有限会社マイハウスプランニング,,有限会社,愛媛県,松山市,南斎院町１１８８番地,,38,201,7918032,,,2025-12-08,清算の結了等,,,2015-10-05,1,,,,,マイハウスプランニング,0
589,3010401097854,登記記録の閉鎖等,0,2025-12-10,2025-11-18,テクノギャラリー株式会社,,株式会社,東京都,港区,南青山２丁目２番１５－１４０３号,,13,103,1070062,,,2025-11-18,清算の結了等,,,2015-10-05,1,,,,,テクノギャラリー,0
591,3010401143567,登記記録の閉鎖等,0,2025-12-10,2025-11-18,株式会社アドゴッド,,株式会社,東京都,港区,六本木７丁目１５番７号,,13,103,1060032,,,2025-11-18,清算の結了等,,,2019-02-04,1,,,,,アドゴッド,0
601,3010601024212,登記記録の閉鎖等,0,2025-12-10,2025-12-04,パームトゥリーネットワーキングアジア株式会社,,株式会社,東京都,江東区,枝川１丁目１５番９－９１６号,,13,108,1350051,,,2025-12-04,清算の結了等,,,2015-10-05,1,,,,,パームトゥリーネットワーキングアジア,0
602,3010601029483,登記記録の閉鎖等,0,2025-12-10,2025-12-02,株式会社上,,株式会社,東京都,墨田区,千歳３丁目１７番１３号,,13,107,1300025,,,2025-12-02,清算の結了等,,,2015-10-05,1,,,,,ジョウ,0
606,3010602001268,登記記録の閉鎖等,0,2025-12-10,2025-12-03,有限会社赤間紙工所,,有限会社,東京都,江東区,東砂４丁目２番５号,,13,108,1360074,,,2025-12-03,清算の結了等,,,2015-10-05,1,,,,,,0
611,3010801014211,登記記録の閉鎖等,0,2025-12-10,2025-12-01,株式会社チルチルミチル,,株式会社,東京都,大田区,山王１丁目４１番１０号,,13,111,1430023,,,2025-12-01,清算の結了等,,,2015-10-05,1,,,,,チルチルミチル,0
615,3010802003089,登記記録の閉鎖等,0,2025-12-10,2025-12-02,有限会社小川製作所,,有限会社,東京都,大田区,本羽田２丁目１０番２２号,,13,111,1440044,,,2025-12-02,清算の結了等,,,2015-10-05,1,,,,,オガワセイサクジョ,0
618,3010903009927,登記記録の閉鎖等,0,2025-12-10,2025-12-09,クロムアセット合同会社,,合同会社,東京都,世田谷区,玉川１丁目１５番２―２５０１号,,13,112,1580094,,,2025-12-09,清算の結了等,,,2025-05-20,1,,,,,クロムアセット,0
630,3011101058361,登記記録の閉鎖等,0,2025-12-10,2025-11-25,ＮＧＫ株式会社,,株式会社,東京都,千代田区,神田猿楽町２丁目７番１１号ハマダビルヂング５階,,13,101,1010064,,,2025-11-25,清算の結了等,,,2015-10-05,1,,,,,エヌジーケー,0
640,3011501025234,登記記録の閉鎖等,0,2025-12-10,2025-12-04,株式会社東十条プランニング,,株式会社,東京都,北区,東十条１丁目２０番５号,,13,117,1140001,,,2025-12-04,清算の結了等,,,2019-10-18,1,,,,,ヒガシジュウジョウプランニング,0
656,3012802006699,登記記録の閉鎖等,0,2025-12-10,2025-11-20,有限会社泉設備,,有限会社,東京都,武蔵村山市,神明３丁目１０９番地の１０,,13,223,2080002,,,2025-11-20,清算の結了等,,,2015-10-05,1,,,,,イズミセツビ,0
667,3021001006477,登記記録の閉鎖等,0,2025-12-10,2025-11-25,三留建設株式会社,,株式会社,神奈川県,高座郡寒川町,岡田４丁目１５番３２号,,14,321,2530105,,,2025-11-25,清算の結了等,,,2015-10-05,1,,,,,ミトメケンセツ,0
674,3021002063278,登記記録の閉鎖等,0,2025-12-10,2025-11-21,大澤電設有限会社,,有限会社,神奈川県,横須賀市,汐見台２丁目１６番２号,,14,201,2380054,,,2025-11-21,清算の結了等,,,2015-10-05,1,,,,,,0
682,3030002067123,登記記録の閉鎖等,0,2025-12-10,2025-11-28,有限会社渡辺斫り工業,,有限会社,埼玉県,新座市,池田３丁目３番８号,,11,230,3520015,,,2025-11-28,清算の結了等,,,2015-10-05,1,,,,,ワタナベハツリコウギョウ,0
684,3030002116672,登記記録の閉鎖等,0,2025-12-10,2025-12-01,有限会社小林自動車商会,,有限会社,埼玉県,深谷市,江原７４番地,,11,218,3660012,,,2025-12-01,清算の結了等,,,2015-10-05,1,,,,,コバヤシジドウシャショウカイ,0
694,3040001105766,登記記録の閉鎖等,0,2025-12-10,2025-11-13,ヨコセラピ株式会社,,株式会社,千葉県,鎌ケ谷市,東中沢３丁目２４番３５号,,12,224,2730112,,,2025-11-13,清算の結了等,,,2018-08-13,1,,,,,ヨコセラピ,0
699,3050001040384,登記記録の閉鎖等,0,2025-12-10,2025-12-02,株式会社フィットプランニング,,株式会社,茨城県,土浦市,右籾２６０４番地１,,08,203,3000837,,,2025-12-02,清算の結了等,,,2016-01-21,1,,,,,フィットプランニング,0
704,3060002033502,登記記録の閉鎖等,0,2025-12-10,2025-12-08,有限会社石原材木店,,有限会社,栃木県,栃木市,藤岡町藤岡１２５６番地１,,09,203,3231104,,,2025-12-08,清算の結了等,,,2015-10-05,1,,,,,イシハラザイモクテン,0
712,3080102016834,登記記録の閉鎖等,0,2025-12-10,2025-12-04,有限会社諏訪邉電業社,,有限会社,静岡県,富士宮市,野中東町１５８番地,,22,207,4180033,,,2025-12-04,清算の結了等,,,2015-10-05,1,,,,,スワベデンギョウシャ,0
715,3090005006972,登記記録の閉鎖等,0,2025-12-10,2025-12-04,農事組合法人むかわ倶楽部,,その他の設立登記法人,山梨県,北杜市,武川町山高１４３６－４,,19,209,4080306,,,2025-12-04,清算の結了等,,,2016-04-20,1,,,,,ムカワクラブ,0
727,3120001253920,登記記録の閉鎖等,0,2025-12-10,2025-12-04,ＳＫＮテクノロジーズ株式会社,,株式会社,大阪府,大阪市北区,芝田２丁目８番１１号,,27,127,5300012,,,2025-12-04,清算の結了等,,,2023-04-11,1,,,,,エスケーエヌテクノロジーズ,0
736,3120101031458,登記記録の閉鎖等,0,2025-12-10,2025-12-02,大杉技研工業株式会社,,株式会社,大阪府,南河内郡太子町,大字太子１８７３番地,,27,381,5830995,,,2025-12-02,清算の結了等,,,2015-10-05,1,,,,,オオスギギケンコウギョウ,0
760,3150001025598,登記記録の閉鎖等,0,2025-12-10,2025-12-05,株式会社幸屋,,株式会社,奈良県,生駒市,壱分町１８２番地２ネオハイツ３０８,,29,209,6300222,,,2025-12-05,清算の結了等,,,2022-06-07,1,,,,,サチヤ,0
766,3180001150708,登記記録の閉鎖等,0,2025-12-10,2025-12-03,株式会社ミライサイネージ,,株式会社,岐阜県,瑞浪市,稲津町小里２１６０番地の２,,21,208,5096103,,,2025-12-03,清算の結了等,,,2022-04-08,1,,,,,ミライサイネージ,0
772,3180005020411,登記記録の閉鎖等,0,2025-12-10,2025-12-05,一般社団法人綜合継承の会,,その他の設立登記法人,愛知県,名古屋市守山区,瀬古東１丁目５１８番地,,23,113,4630090,,,2025-12-05,清算の結了等,,,2023-10-31,1,,,,,ソウゴウケイショウノカイ,0
774,3180302012383,登記記録の閉鎖等,0,2025-12-10,2025-12-01,有限会社ワイズアクトインスティテュート,,有限会社,愛知県,豊橋市,広小路１丁目１８ユメックスビル５階,,23,201,4400881,,,2025-12-01,清算の結了等,,,2015-10-05,1,,,,,ワイズアクトインスティテュート,0
776,3200001008382,登記記録の閉鎖等,0,2025-12-10,2025-12-08,株式会社Ｕｒｂｉｎｅ,,株式会社,岐阜県,岐阜市,八ッ梅町二丁目８番地,,21,201,5000000,,,2025-12-08,清算の結了等,,,2015-10-05,1,,,,,アーバイン,0
780,3210001011030,登記記録の閉鎖等,0,2025-12-10,2025-12-03,株式会社ガルディア,,株式会社,福井県,三方郡美浜町,郷市９号１０番地の１,,18,442,9191141,,,2025-12-03,清算の結了等,,,2015-10-05,1,,,,,ガルディア,0
790,3240001041074,登記記録の閉鎖等,0,2025-12-10,2025-11-25,株式会社バティス,,株式会社,東京都,千代田区,平河町２丁目７番５号砂防会館本館３階,,13,101,1020093,,,2025-11-25,清算の結了等,,,2015-10-05,1,,,,,バティス,0
812,3290001089638,登記記録の閉鎖等,0,2025-12-10,2025-11-26,株式会社エムプラン,,株式会社,福岡県,福岡市西区,生松台２丁目３６番９号,,40,135,8190044,,,2025-11-26,清算の結了等,,,2020-07-30,1,,,,,エムプラン,0
825,3320002016240,登記記録の閉鎖等,0,2025-12-10,2025-12-08,有限会社松村組,,有限会社,大分県,国東市,国見町竹田津１１８５番地,,44,214,8721321,,,2025-12-08,清算の結了等,,,2015-10-05,1,,,,,マツムラグミ,0
830,3330002021116,登記記録の閉鎖等,0,2025-12-10,2025-12-03,有限会社中九州産業,,有限会社,熊本県,玉名市,玉名８０４番地,,43,206,8650005,,,2025-12-03,清算の結了等,,,2015-10-05,1,,,,,ナカキュウシュウサンギョウ,0
831,3340002011875,登記記録の閉鎖等,0,2025-12-10,2025-12-03,有限会社ヤード・ビジネスサポート,,有限会社,鹿児島県,鹿児島市,谷山中央６丁目３７番２号,,46,201,8910141,,,2025-12-03,清算の結了等,,,2015-10-05,1,,,,,ヤードビシネスサポート,0
845,3380001019313,登記記録の閉鎖等,0,2025-12-10,2025-10-27,株式会社田島コンタクト,,株式会社,福島県,南会津郡南会津町,田島字大坪１６番地１,,07,368,9670004,,,2025-10-27,清算の結了等,,,2015-10-05,1,,,,,タジマコンタクト,0
867,4010001020117,登記記録の閉鎖等,0,2025-12-10,2025-11-25,株式会社鈴季,,株式会社,東京都,千代田区,麹町３丁目１０番地１２－１１０１号,,13,101,1020083,,,2025-11-25,清算の結了等,,,2015-10-05,1,,,,,スズキ,0
869,4010001196907,登記記録の閉鎖等,0,2025-12-10,2025-11-21,株式会社Ｓトレーニング,,株式会社,東京都,中央区,銀座４丁目１３番１１号松竹倶楽部ビル１０階,,13,102,1040061,,,2025-11-21,清算の結了等,,,2018-12-13,1,,,,,エストレーニング,0
894,4010603000912,登記記録の閉鎖等,0,2025-12-10,2025-11-28,合資会社杉,,合資会社,東京都,江東区,富岡１丁目７番１３号,,13,108,1350047,,,2025-11-28,清算の結了等,,,2015-10-05,1,,,,,スギ,0
900,4010901023994,登記記録の閉鎖等,0,2025-12-10,2025-12-08,株式会社ケー・キューブ,,株式会社,東京都,世田谷区,瀬田４丁目１１番２９号,,13,112,1580095,,,2025-12-08,清算の結了等,,,2015-10-05,1,,,,,ケーキューブ,0
927,4011802010264,登記記録の閉鎖等,0,2025-12-10,2025-12-03,有限会社栄宣ビル,,有限会社,東京都,足立区,本木１丁目１２番３号,,13,121,1230853,,,2025-12-03,清算の結了等,,,2015-10-05,1,,,,,エイセンビル,0
940,4013202001802,登記記録の閉鎖等,0,2025-12-10,2025-11-13,有限会社カシワ商工,,有限会社,東京都,目黒区,目黒本町４丁目２２番１号,,13,110,1520002,,,2025-11-13,清算の結了等,,,2015-10-05,1,,,,,カシワショウコウ,0
957,4021005012025,登記記録の閉鎖等,0,2025-12-10,2025-11-18,ＮＰＯ法人生涯学習推進会,,その他の設立登記法人,神奈川県,相模原市中央区,相模原８丁目４番１２号,,14,152,2520231,,,2025-11-18,清算の結了等,,,2020-09-30,1,,,,,ショウガイガクシュウスイシンカイ,0
969,4030002093408,登記記録の閉鎖等,0,2025-12-10,2025-12-01,有限会社セキヨシ工業,,有限会社,埼玉県,鶴ヶ島市,新町２丁目２５番地１,,11,241,3502227,,,2025-12-01,清算の結了等,,,2015-10-05,1,,,,,,0
972,4040001042067,登記記録の閉鎖等,0,2025-12-10,2025-11-18,すまいるファミリー株式会社,,株式会社,千葉県,松戸市,本町１８番地４ＮＢＦ松戸ビル８Ｆ,,12,207,2710091,,,2025-11-18,清算の結了等,,,2015-10-05,1,,,,,スマイルファミリー,0
973,4040001052082,登記記録の閉鎖等,0,2025-12-10,2025-12-03,株式会社ライセンス事業,,株式会社,栃木県,栃木市,新井町１００３番地２０さくらマンション２０２号,,09,203,3280061,,,2025-12-03,清算の結了等,,,2015-10-05,1,,,,,ライセンスジギョウ,0
992,4110002017044,登記記録の閉鎖等,0,2025-12-10,2025-12-02,有限会社グランディオ,,有限会社,新潟県,長岡市,緑町１丁目３８番地４３３ＡＤＩ緑町ビル２階２０４号室,,15,202,9402105,,,2025-12-02,合併による解散等,3110001019892,令和７年１２月１日新潟県糸魚川市大町一丁目５番１０号株式会社ツインリンク（3110001019892）に合併し解散,2015-10-05,1,,,,,グランディオ,0
1003,4120001268538,登記記録の閉鎖等,0,2025-12-10,2025-12-04,三木株式会社,,株式会社,大阪府,大阪市都島区,毛馬町１丁目２１番３８号,,27,102,5340001,,,2025-12-04,清算の結了等,,,2024-09-13,1,,,,,ミキ,0
1008,4120002029022,登記記録の閉鎖等,0,2025-12-10,2025-12-08,有限会社旭製作所,,有限会社,大阪府,大阪市都島区,毛馬町１丁目２０番１８号,,27,102,5340001,,,2025-12-08,清算の結了等,,,2015-10-05,1,,,,,アサヒセイサクショ,0
1010,4120003017686,登記記録の閉鎖等,0,2025-12-10,2025-12-08,合同会社ＭＡＫＥ　ａ,,合同会社,大阪府,大阪市北区,松ケ枝町１－４３－２０２,,27,127,5300037,,,2025-12-08,清算の結了等,,,2020-07-01,1,,,,,メイクエー,0
1016,4120101048617,登記記録の閉鎖等,0,2025-12-10,2025-12-04,ノボル工業株式会社,,株式会社,大阪府,泉佐野市,下瓦屋１２９番地,,27,213,5980062,,,2025-12-04,清算の結了等,,,2015-10-05,1,,,,,ノボルコウギョウ,0
1019,4120901007706,登記記録の閉鎖等,0,2025-12-10,2025-12-01,株式会社七福商会,,株式会社,大阪府,豊中市,上新田４丁目８番Ｄ－９０１号,,27,203,5600085,,,2025-12-01,清算の結了等,,,2015-10-05,1,,,,,シチフクショウカイ,0
1027,4122001015713,登記記録の閉鎖等,0,2025-12-10,2025-12-01,ナカムラハウジング株式会社,,株式会社,大阪府,大東市,灰塚２丁目１１番２８号,,27,218,5740043,,,2025-12-01,清算の結了等,,,2015-10-05,1,,,,,ナカムラハウジング,0
1028,4122001030811,登記記録の閉鎖等,0,2025-12-10,2025-12-08,株式会社タマイ,,株式会社,大阪府,柏原市,大正２丁目４－３２,,27,221,5820009,,,2025-12-08,清算の結了等,,,2017-07-21,1,,,,,タマイ,0
1032,4130001002136,登記記録の閉鎖等,0,2025-12-10,2025-12-09,株式会社山村,,株式会社,大阪府,枚方市,岡東町１２番３－１０３号サンプラザ３号館２階,,27,210,5730032,,,2025-12-09,清算の結了等,,,2015-10-05,1,,,,,ヤマムラ,0
1040,4140001067450,登記記録の閉鎖等,0,2025-12-10,2025-12-05,株式会社バンガート,,株式会社,兵庫県,神戸市垂水区,塩屋町６７１番地の１２５,,28,108,6550872,,,2025-12-05,清算の結了等,,,2015-10-05,1,,,,,バンガート,0
1045,4140002044531,登記記録の閉鎖等,0,2025-12-10,2025-12-08,有限会社松本工作所,,有限会社,兵庫県,尼崎市,戸ノ内町５丁目８番８号,,28,202,6610961,,,2025-12-08,清算の結了等,,,2015-10-05,1,,,,,,0
1046,4140002065833,登記記録の閉鎖等,0,2025-12-10,2025-12-02,有限会社昆陽化学,,有限会社,兵庫県,宝塚市,高司５丁目１－４４,,28,214,6650051,,,2025-12-02,清算の結了等,,,2015-10-05,1,,,,,コヤカガク,0
1057,4180001148692,登記記録の閉鎖等,0,2025-12-10,2025-12-05,株式会社トリニティ,,株式会社,愛知県,豊明市,阿野町登５１番地１,,23,229,4701141,,,2025-12-05,清算の結了等,,,2021-11-15,1,,,,,トリニティ,0
1059,4180001159698,登記記録の閉鎖等,0,2025-12-10,2025-12-04,株式会社ＡＫｓ,,株式会社,愛知県,名古屋市中区,金山４丁目６番２２号金山コスモビル７階,,23,106,4600022,,,2025-12-04,清算の結了等,,,2024-01-17,1,,,,,エーケーエス,0
1069,4190001012336,登記記録の閉鎖等,0,2025-12-10,2025-12-05,株式会社総本家新之助貝新,,株式会社,三重県,桑名市,南魚町６０番地,,24,205,5110088,,,2025-12-05,合併による解散等,5190002016723,令和７年１２月５日三重県桑名市有楽町５９番地株式会社スイホー（5190002016723）に合併し解散,2015-10-05,1,,,,,ソウホンケシンノスケカイシン,0
1070,4190005003579,登記記録の閉鎖等,0,2025-12-10,2025-12-05,特定非営利活動法人まんまんらい,,その他の設立登記法人,三重県,熊野市,井戸町６５４番地６,,24,212,5194324,,,2025-12-05,清算の結了等,,,2015-10-05,1,,,,,マンマンライ,0
1071,4200001016351,登記記録の閉鎖等,0,2025-12-10,2025-12-04,株式会社京都山村呉服店,,株式会社,岐阜県,揖斐郡池田町,粕ケ原２２２７番地,,21,404,5032402,,,2025-12-04,清算の結了等,,,2015-10-05,1,,,,,キョウトヤマムラゴフクテン,0
1076,4210002012043,登記記録の閉鎖等,0,2025-12-10,2025-12-05,有限会社アズ・コミュニケーション,,有限会社,福井県,越前市,粟田部町１６号９番地,,18,209,9150242,,,2025-12-05,清算の結了等,,,2015-10-05,1,,,,,アズコミュニケーション,0
1079,4220001009304,登記記録の閉鎖等,0,2025-12-10,2025-12-01,株式会社なかしま,,株式会社,石川県,白山市,福留町５３１番地１,,17,210,9240051,,,2025-12-01,合併による解散等,9220001008805,令和７年１２月１日石川県能美郡川北町字橘レ１０３番地中島建設株式会社（9220001008805）に合併し解散,2015-10-05,1,,,,,,0
1080,4220001009493,登記記録の閉鎖等,0,2025-12-10,2025-12-05,株式会社山岡製作所,,株式会社,石川県,野々市市,中林２丁目８６番地,,17,212,9218834,,,2025-12-05,清算の結了等,,,2015-10-05,1,,,,,ヤマオカセイサクショ,0
1081,4220002007752,登記記録の閉鎖等,0,2025-12-10,2025-12-01,有限会社アージェント・スタッフ,,有限会社,石川県,金沢市,小坂町西１２３番地,,17,201,9200811,,,2025-12-01,合併による解散等,2220001004562,令和７年１２月１日石川県金沢市小坂町西１２３番地東洋警備保障株式会社（2220001004562）に合併し解散,2015-10-05,1,,,,,アージェントスタッフ,0
1086,4240002006190,登記記録の閉鎖等,0,2025-12-10,2025-12-04,小林商事有限会社,,有限会社,広島県,広島市安佐南区,西原４丁目３５番２６号,,34,105,7310113,,,2025-12-04,清算の結了等,,,2015-10-05,1,,,,,コバヤシショウジ,0
1088,4250002015810,登記記録の閉鎖等,0,2025-12-10,2025-12-08,有限会社長英建設,,有限会社,山口県,下松市,大字末武中３３番地の５４,,35,207,7440023,,,2025-12-08,清算の結了等,,,2015-10-05,1,,,,,チョウエイケンセツ,0
1104,4330005010032,登記記録の閉鎖等,0,2025-12-10,2025-12-05,一般社団法人ムラたび九州,,その他の設立登記法人,宮崎県,西臼杵郡高千穂町,大字向山６６０４番地,,45,441,8821103,,,2025-12-05,清算の結了等,,,2019-05-20,1,,,,,ムラタビキュウシュウ,0
1121,4400005004101,登記記録の閉鎖等,0,2025-12-10,2025-12-02,みやこ映画生活協同組合,,その他の設立登記法人,岩手県,宮古市,熊野町１番５号,,03,202,0270008,,,2025-12-02,清算の結了等,,,2015-10-05,1,,,,,ミヤコエイガ,0
1122,4410003002790,登記記録の閉鎖等,0,2025-12-10,2025-12-05,合同会社実りの会,,合同会社,秋田県,能代市,向能代字上野越５３番地,,05,202,0160013,,,2025-12-05,清算の結了等,,,2015-10-05,1,,,,,,0
1124,4420002009836,登記記録の閉鎖等,0,2025-12-10,2025-12-03,株式会社マルト,,株式会社,青森県,三戸郡三戸町,大字六日町４０番地２,,02,441,0390144,,,2025-12-03,清算の結了等,,,2015-10-05,1,,,,,マルト,0
1139,4500002007138,登記記録の閉鎖等,0,2025-12-10,2025-12-08,ユーエス技建有限会社,,有限会社,愛媛県,松山市,安城寺町１７４番地の４,,38,201,7918006,,,2025-12-08,清算の結了等,,,2015-10-05,1,,,,,ユーエスギケン,0
1156,5010101004142,登記記録の閉鎖等,0,2025-12-10,2025-12-08,株式会社ワタナベ,,株式会社,東京都,八王子市,平岡町３４番２号,,13,201,1920061,,,2025-12-08,清算の結了等,,,2015-10-05,1,,,,,ワタナベ,0
1161,5010401033873,登記記録の閉鎖等,0,2025-12-10,2025-11-18,株式会社大城レース,,株式会社,東京都,港区,西新橋１丁目９番１号,,13,103,1050003,,,2025-11-18,清算の結了等,,,2015-10-05,1,,,,,オオシロレース,0
1188,5011001038123,登記記録の閉鎖等,0,2025-12-10,2025-11-13,株式会社イブアジュール,,株式会社,東京都,渋谷区,松濤１丁目２３番８号,,13,113,1500046,,,2025-11-13,清算の結了等,,,2015-10-05,1,,,,,イブアジュール,0
1189,5011001059862,登記記録の閉鎖等,0,2025-12-10,2025-12-02,株式会社シーラテクノロジーズ,,株式会社,東京都,渋谷区,広尾１丁目１番３９号,,13,113,1500012,,,2025-12-02,合併による解散等,3030001038249,令和７年１２月１日東京都渋谷区広尾一丁目１番３９号株式会社シーラホールディングス（3030001038249）に合併し解散,2015-10-05,1,,,,,シーラテクノロジーズ,0
1194,5011001142701,登記記録の閉鎖等,0,2025-12-10,2025-11-13,株式会社ＤＯＯＲＹ,,株式会社,東京都,渋谷区,広尾３丁目２番９号,,13,113,1500012,,,2025-11-13,清算の結了等,,,2021-09-10,1,,,,,ドーリー,0
1201,5011003008801,登記記録の閉鎖等,0,2025-12-10,2025-12-04,合同会社Ｐｉｃｕｎｉｑｕｅ,,合同会社,兵庫県,神戸市垂水区,青山台４丁目４番１４号,,28,108,6550873,,,2025-12-04,清算の結了等,,,2018-05-22,1,,,,,ピクニック,0
1214,5012701015089,登記記録の閉鎖等,0,2025-12-10,2025-12-05,株式会社キメラ,,株式会社,東京都,東久留米市,本町２丁目３番１号ハイツ東久留米７０９,,13,222,2030053,,,2025-12-05,合併による解散等,1010401098037,令和７年１１月１０日東京都新宿区四谷四丁目３１番四谷ＴＳビル３Ｆ株式会社ワークス（1010401098037）に合併し解散,2018-11-19,1,,,,,キメラ,0
1216,5012702009718,登記記録の閉鎖等,0,2025-12-10,2025-12-01,有限会社一光サービス,,有限会社,東京都,西東京市,保谷町２丁目２番８号,,13,229,2020015,,,2025-12-01,清算の結了等,,,2015-10-05,1,,,,,イチコウサービス,0
1233,5020003009180,登記記録の閉鎖等,0,2025-12-10,2025-12-03,合同会社プラタナス,,合同会社,神奈川県,横浜市港北区,新横浜３丁目２１番５号ワイズ新横浜５０７,,14,109,2220033,,,2025-12-03,清算の結了等,,,2015-10-05,1,,,,,プラタナス,0
1262,5040002070867,登記記録の閉鎖等,0,2025-12-10,2025-11-17,有限会社レイワ・インステック,,有限会社,千葉県,君津市,南子安４丁目１６番１０号,,12,225,2991162,,,2025-11-17,清算の結了等,,,2015-10-05,1,,,,,レイワインステック,0
1285,5120001007829,登記記録の閉鎖等,0,2025-12-10,2025-12-04,誠和設備株式会社,,株式会社,大阪府,大阪市都島区,片町２丁目７番７号,,27,102,5340025,,,2025-12-04,清算の結了等,,,2015-10-05,1,,,,,セイワセツビ,0
1298,5120002018544,登記記録の閉鎖等,0,2025-12-10,2025-12-05,有限会社河野製作所,,有限会社,大阪府,大阪市福島区,吉野４丁目２番１０号,,27,103,5530006,,,2025-12-05,清算の結了等,,,2015-10-05,1,,,,,コウノセイサクショ,0
1300,5120002031729,登記記録の閉鎖等,0,2025-12-10,2025-12-05,有限会社テレビフォト工房,,有限会社,大阪府,大阪市北区,天神橋４丁目６番１５号,,27,127,5300041,,,2025-12-05,清算の結了等,,,2015-10-05,1,,,,,テレビフォトコウボウ,0
1301,5120002041141,登記記録の閉鎖等,0,2025-12-10,2025-12-05,有限会社サンケアメディカル,,有限会社,大阪府,大阪市東成区,東中本１丁目１１番１５号,,27,115,5370021,,,2025-12-05,清算の結了等,,,2015-10-05,1,,,,,,0
1318,5140001110531,登記記録の閉鎖等,0,2025-12-10,2025-12-08,株式会社ＮＡＫＡＭＵＲＡ,,株式会社,兵庫県,加古川市,加古川町寺家町３２２番地の１１サニーハイツＫＴ２０１,,28,210,6750066,,,2025-12-08,清算の結了等,,,2018-06-28,1,,,,,,0
1319,5140001130001,登記記録の閉鎖等,0,2025-12-10,2025-12-08,株式会社ＢＣＦ,,株式会社,大阪府,大阪市西区,立売堀４丁目７番２４号Ｔ．Ｍ．Ｇ阿波座ビル６０５,,27,106,5500012,,,2025-12-08,清算の結了等,,,2023-04-28,1,,,,,ビーシーエフ,0
1333,5180001134188,登記記録の閉鎖等,0,2025-12-10,2025-12-01,株式会社Ｆｉｖｅ－Ｑ,,株式会社,愛知県,名古屋市港区,春田野１丁目１４０２番地,,23,111,4550873,,,2025-12-01,清算の結了等,,,2018-10-23,1,,,,,,0
1336,5180001143131,登記記録の閉鎖等,0,2025-12-10,2025-12-01,株式会社成栄,,株式会社,愛知県,名古屋市南区,南野２丁目２３４番地,,23,112,4570068,,,2025-12-01,清算の結了等,,,2020-10-07,1,,,,,,0
1376,5290801023100,登記記録の閉鎖等,0,2025-12-10,2025-11-27,日新上品株式会社,,株式会社,福岡県,直方市,大字上新入１６６０番地９,,40,204,8220033,,,2025-11-27,清算の結了等,,,2016-12-09,1,,,,,ニッシンジョウヒン,0
1377,5290801023645,登記記録の閉鎖等,0,2025-12-10,2025-11-27,株式会社友協,,株式会社,福岡県,北九州市小倉北区,弁天町５番２－１２０１号,,40,106,8030856,,,2025-11-27,清算の結了等,,,2017-05-23,1,,,,,ユウキョウ,0
1384,5340002003524,登記記録の閉鎖等,0,2025-12-10,2025-12-03,有限会社ライフファクトリー,,有限会社,鹿児島県,鹿児島市,薬師２丁目１６番７号ＴＳビル３階,,46,201,8900042,,,2025-12-03,清算の結了等,,,2015-10-05,1,,,,,ライフファクトリー,0
1400,5430001025106,登記記録の閉鎖等,0,2025-12-10,2025-12-04,株式会社イシカリデリカ,,株式会社,北海道,札幌市手稲区,西宮の沢一条１丁目２番１号,,01,109,0060001,,,2025-12-04,合併による解散等,4012401001092,令和７年１２月１日東京都調布市仙川町二丁目５番地７デリア食品株式会社（4012401001092）に合併し解散,2015-10-05,1,,,,,イシカリデリカ,0
1406,5430002000025,登記記録の閉鎖等,0,2025-12-10,2025-12-04,有限会社アイオイホーム,,有限会社,北海道,札幌市東区,伏古九条３丁目２番６号,,01,103,0070869,,,2025-12-04,清算の結了等,,,2015-10-05,1,,,,,アイオイホーム,0
1420,6010001222958,登記記録の閉鎖等,0,2025-12-10,2025-11-21,株式会社ワタシモ,,株式会社,東京都,中央区,銀座１丁目２２－１１,,13,102,1040061,,,2025-11-21,清算の結了等,,,2021-12-03,1,,,,,ワタシモ,0
1421,6010001228864,登記記録の閉鎖等,0,2025-12-10,2025-11-12,株式会社Ｐｅｒｉｔａｇｅ,,株式会社,東京都,中央区,銀座１丁目２２番１１号銀座大竹ビジデンス２階,,13,102,1040061,,,2025-11-12,清算の結了等,,,2022-08-16,1,,,,,ペリテージ,0
1436,6010401079057,登記記録の閉鎖等,0,2025-12-10,2025-11-19,株式会社おのじむ,,株式会社,東京都,港区,芝浦４丁目４－２７－５０５号,,13,103,1080023,,,2025-11-19,清算の結了等,,,2015-10-05,1,,,,,オノジム,0
1437,6010401118500,登記記録の閉鎖等,0,2025-12-10,2025-11-18,ギャラリーコア株式会社,,株式会社,東京都,港区,南青山６丁目１３番１５号,,13,103,1070062,,,2025-11-18,清算の結了等,,,2015-10-05,1,,,,,ギャラリーコア,0
1447,6010601064338,登記記録の閉鎖等,0,2025-12-10,2025-12-03,楽喜笑株式会社,,株式会社,東京都,江東区,亀戸９丁目３７番１号,,13,108,1360071,,,2025-12-03,清算の結了等,,,2023-12-14,1,,,,,ラッキーショー,0
1463,6011101078803,登記記録の閉鎖等,0,2025-12-10,2025-12-04,ＦＵＧＡ株式会社,,株式会社,東京都,新宿区,下宮比町２番２９号,,13,104,1620822,,,2025-12-04,合併による解散等,1110003003293,令和７年１１月１日東京都中央区銀座六丁目４番７号いらか銀座ビルＢ１Ｆ株式会社ＨＡＪＩＭＥ（1110003003293）に合併し解散,2016-11-29,1,,,,,フーガ,0
1481,6012802005657,登記記録の閉鎖等,0,2025-12-10,2025-12-04,有限会社桜が丘コンタクト,,有限会社,東京都,東大和市,桜が丘３丁目４４番地の１４,,13,220,2070022,,,2025-12-04,清算の結了等,,,2015-10-05,1,,,,,サクラガオカコンタクト,0
1485,6020001115847,登記記録の閉鎖等,0,2025-12-10,2025-12-04,株式会社ＲｅＢｏｄｙ,,株式会社,神奈川県,横浜市旭区,二俣川１丁目４５番地第二尚功ビル４階,,14,112,2410821,,,2025-12-04,清算の結了等,,,2016-04-28,1,,,,,リボディ,0
1491,6020003012183,登記記録の閉鎖等,0,2025-12-10,2025-12-05,ＩＳＨＩＷＡＴＡ－ＳＹＳ合同会社,,合同会社,神奈川県,横浜市保土ケ谷区,川辺町２番地５－２００７号,,14,106,2400001,,,2025-12-05,合併による解散等,2010703004443,令和７年１１月２８日東京都品川区西五反田三丁目６番２３－１６０３号ＴＥＥ－ＥＮＧＡＧＥＭＥＮＴ合同会社（2010703004443）に合併し解散,2016-12-28,1,,,,,,0
1503,6030001047230,登記記録の閉鎖等,0,2025-12-10,2025-12-01,株式会社伸光堂西部販売,,株式会社,埼玉県,新座市,野火止８丁目１４番２９号,,11,230,3520011,,,2025-12-01,清算の結了等,,,2015-10-05,1,,,,,シンコウドウセイブハンバイ,0
1531,6080002016519,登記記録の閉鎖等,0,2025-12-10,2025-12-03,有限会社かわばた整体療術院,,有限会社,静岡県,焼津市,上泉７０７番地の５１,,22,212,4210217,,,2025-12-03,清算の結了等,,,2015-10-05,1,,,,,,0
1540,6100002035937,登記記録の閉鎖等,0,2025-12-10,2025-12-04,有限会社エフ・エー阿智川,,有限会社,長野県,飯田市,中央通り２丁目１番地,,20,205,3950041,,,2025-12-04,清算の結了等,,,2015-10-05,1,,,,,エフエーアチガワ,0
1545,6120001073218,登記記録の閉鎖等,0,2025-12-10,2025-12-04,アイボリーシャツ株式会社,,株式会社,大阪府,大阪市中央区,博労町１丁目１番２号,,27,128,5410059,,,2025-12-04,清算の結了等,,,2025-09-09,1,,,,,アイボリーシャツ,0
1575,6120901031266,登記記録の閉鎖等,0,2025-12-10,2025-12-08,アンジップ株式会社,,株式会社,大阪府,大阪市淀川区,田川３丁目１番９号,,27,123,5320027,,,2025-12-08,清算の結了等,,,2015-10-05,1,,,,,アンジップ,0
1578,6122001035684,登記記録の閉鎖等,0,2025-12-10,2025-12-05,株式会社鯉のぼり,,株式会社,大阪府,大阪市生野区,中川西２丁目２０番１１号中川西二丁目貸家２階・３階・４階,,27,116,5440032,,,2025-12-05,清算の結了等,,,2022-03-17,1,,,,,コイノボリ,0
1593,6140003012642,登記記録の閉鎖等,0,2025-12-10,2025-12-08,木本工作所合同会社,,合同会社,兵庫県,三田市,大川瀬１４３７－１１５,,28,219,6691349,,,2025-12-08,清算の結了等,,,2017-12-15,1,,,,,キモトコウサクショ,0
1594,6150003001628,登記記録の閉鎖等,0,2025-12-10,2025-12-03,合同会社エンスパンネ,,合同会社,奈良県,大和郡山市,北郡山町１９３番地５,,29,203,6391160,,,2025-12-03,清算の結了等,,,2017-07-11,1,,,,,エンスパンネ,0
1601,6180001078946,登記記録の閉鎖等,0,2025-12-10,2025-12-04,株式会社セトデリカ,,株式会社,愛知県,瀬戸市,南山口町６４０番地,,23,204,4890965,,,2025-12-04,合併による解散等,4012401001092,令和７年１２月１日東京都調布市仙川町二丁目５番地７デリア食品株式会社（4012401001092）に合併し解散,2015-10-05,1,,,,,セトデリカ,0
1603,6180001124808,登記記録の閉鎖等,0,2025-12-10,2025-12-05,株式会社Ｌ－ＢＲＩＤＧＥ,,株式会社,愛知県,半田市,昭和町２丁目４３番地１,,23,205,4750922,,,2025-12-05,清算の結了等,,,2016-09-13,1,,,,,エルブリッジ,0
1606,6180001154482,登記記録の閉鎖等,0,2025-12-10,2025-12-04,株式会社ｉｍｐｒｏｖｅ,,株式会社,愛知県,日進市,岩崎台４丁目４０１番地,,23,230,4700135,,,2025-12-04,清算の結了等,,,2023-01-13,1,,,,,インプルーブ,0
1613,6190001026672,登記記録の閉鎖等,0,2025-12-10,2025-12-05,株式会社エーエスイノベーション,,株式会社,三重県,四日市市,笹川１丁目１１６番地,,24,202,5100944,,,2025-12-05,清算の結了等,,,2019-08-15,1,,,,,エーエスイノベーション,0
1626,6240001058462,登記記録の閉鎖等,0,2025-12-10,2025-12-03,株式会社Ｎ＆Ｓ,,株式会社,広島県,広島市西区,商工センター８丁目６番２９号,,34,104,7330833,,,2025-12-03,清算の結了等,,,2021-08-25,1,,,,,エヌアンドエス,0
1629,6240002034082,登記記録の閉鎖等,0,2025-12-10,2025-12-03,有限会社本町どうぶつ病院,,有限会社,広島県,呉市,本町１番１０号,,34,202,7370032,,,2025-12-03,清算の結了等,,,2015-10-05,1,,,,,ホンマチドウブツビョウイン,0
1630,6250001016832,登記記録の閉鎖等,0,2025-12-10,2025-12-08,株式会社リバレッジ,,株式会社,山口県,光市,大字岩田２７２５番地３,,35,210,7430103,,,2025-12-08,清算の結了等,,,2017-10-11,1,,,,,リバレッジ,0
1640,6290001057435,登記記録の閉鎖等,0,2025-12-10,2025-11-19,レイシス株式会社,,株式会社,福岡県,福岡市城南区,片江４丁目７番１２号,,40,136,8140142,,,2025-11-19,清算の結了等,,,2015-10-05,1,,,,,レイシス,0
1655,6330002015503,登記記録の閉鎖等,0,2025-12-10,2025-12-03,有限会社秋山企画,,有限会社,熊本県,熊本市東区,長嶺東６丁目１０番２号,,43,102,8618038,,,2025-12-03,清算の結了等,,,2015-10-05,1,,,,,,0
1663,6370001041414,登記記録の閉鎖等,0,2025-12-10,2025-12-03,株式会社エニシング,,株式会社,宮城県,仙台市宮城野区,新田３丁目１０番１４号サトウコーポ１０１,,04,102,9830038,,,2025-12-03,清算の結了等,,,2017-05-11,1,,,,,エニシング,0
1668,6400001001637,登記記録の閉鎖等,0,2025-12-10,2025-12-02,株式会社盛岡マイホームセンター,,株式会社,岩手県,盛岡市,館向町２番７号,,03,201,0200115,,,2025-12-02,清算の結了等,,,2015-10-05,1,,,,,モリオカマイホームセンター,0
1671,6410001003459,登記記録の閉鎖等,0,2025-12-10,2025-12-08,株式会社大道工業,,株式会社,秋田県,南秋田郡井川町,今戸字小谷地９１番地,,05,366,0181511,,,2025-12-08,清算の結了等,,,2015-10-05,1,,,,,ダイドウコウギョウ,0
1674,6420003000577,登記記録の閉鎖等,0,2025-12-10,2025-12-04,合同会社トリコシ設計室,,合同会社,青森県,八戸市,大字妙字東８番地１７,,02,203,0310814,,,2025-12-04,清算の結了等,,,2015-10-05,1,,,,,トリコシセッケイシツ,0
1699,7010001188653,登記記録の閉鎖等,0,2025-12-10,2025-11-21,ながつき株式会社,,株式会社,東京都,文京区,湯島２丁目２９番２号,,13,105,1130034,,,2025-11-21,清算の結了等,,,2017-12-27,1,,,,,ナガツキ,0
1719,7010601030504,登記記録の閉鎖等,0,2025-12-10,2025-12-03,株式会社都路フーズ,,株式会社,東京都,江東区,東陽２丁目３番５－１１０７号,,13,108,1350016,,,2025-12-03,清算の結了等,,,2015-10-05,1,,,,,ミヤコジフーズ,0
1725,7010801008399,登記記録の閉鎖等,0,2025-12-10,2025-12-01,株式会社古尾谷工務店,,株式会社,東京都,大田区,羽田６丁目２４番９号,,13,111,1440043,,,2025-12-01,清算の結了等,,,2015-10-05,1,,,,,フルオヤコウムテン,0
1754,7012403003571,登記記録の閉鎖等,0,2025-12-10,2025-11-17,合同会社ｇｏｔｏ,,合同会社,東京都,港区,南青山２丁目２番１５号ウィン青山９４２,,13,103,1070062,,,2025-11-17,清算の結了等,,,2018-08-22,1,,,,,ゴトー,0
1759,7013202001502,登記記録の閉鎖等,0,2025-12-10,2025-11-11,有限会社大八木牛乳店,,有限会社,東京都,目黒区,下目黒３丁目５７０番地,,13,110,1530064,,,2025-11-11,清算の結了等,,,2015-10-05,1,,,,,オオヤギギュウニュウテン,0
1770,7020003029045,登記記録の閉鎖等,0,2025-12-10,2025-12-08,合同会社ネクレクス,,合同会社,神奈川県,川崎市多摩区,東三田３丁目１０－２－５１１,,14,135,2140033,,,2025-12-08,清算の結了等,,,2025-08-04,1,,,,,ネクレクス,0
1773,7021002021835,登記記録の閉鎖等,0,2025-12-10,2025-11-21,有限会社大栄物産仏具店,,有限会社,神奈川県,相模原市中央区,淵野辺５丁目７番１６号,,14,152,2520206,,,2025-11-21,清算の結了等,,,2015-10-05,1,,,,,ダイエイブッサンブツグテン,0
1776,7021002048283,登記記録の閉鎖等,0,2025-12-10,2025-11-21,有限会社メビウスＹＯ,,有限会社,神奈川県,大和市,中央林間４丁目５番５号２０１,,14,213,2420007,,,2025-11-21,清算の結了等,,,2015-10-05,1,,,,,メビウスヨ,0
1807,7060003004077,登記記録の閉鎖等,0,2025-12-10,2025-12-05,合同会社とちぎスポーツ振興センター,,合同会社,栃木県,栃木市,箱森町２番４４号,,09,203,3280075,,,2025-12-05,清算の結了等,,,2022-05-24,1,,,,,トチギスポーツシンコウセンター,0
1809,7070001028746,登記記録の閉鎖等,0,2025-12-10,2025-12-03,株式会社サンスタッフ,,株式会社,群馬県,前橋市,大渡町１丁目８番地８,,10,201,3710854,,,2025-12-03,清算の結了等,,,2015-10-05,1,,,,,サンスタッフ,0
1812,7080001012179,登記記録の閉鎖等,0,2025-12-10,2025-12-03,Ｋネットサービス株式会社,,株式会社,静岡県,静岡市葵区,唐瀬２丁目２番３２号,,22,101,4200937,,,2025-12-03,清算の結了等,,,2015-10-05,1,,,,,ケイネットサービス,0
1833,7120001249097,登記記録の閉鎖等,0,2025-12-10,2025-12-08,ＭＡＣ株式会社,,株式会社,大阪府,大阪市西成区,千本北２丁目６番１１号１階,,27,122,5570053,,,2025-12-08,清算の結了等,,,2022-09-29,1,,,,,マック,0
1870,7140002005555,登記記録の閉鎖等,0,2025-12-10,2025-12-04,有限会社アカシヤクリーニング,,有限会社,兵庫県,神戸市垂水区,向陽１丁目３番１８号,,28,108,6550012,,,2025-12-04,清算の結了等,,,2015-10-05,1,,,,,アカシヤクリーニング,0
1872,7140002062737,登記記録の閉鎖等,0,2025-12-10,2025-12-08,有限会社ガーデネスク,,有限会社,兵庫県,小野市,大島町８００番地,,28,218,6751334,,,2025-12-08,清算の結了等,,,2015-10-05,1,,,,,ガーデネスク,0
1880,7180001094694,登記記録の閉鎖等,0,2025-12-10,2025-12-01,株式会社近藤印刷,,株式会社,愛知県,知多市,朝倉町３１０番地,,23,224,4780051,,,2025-12-01,清算の結了等,,,2015-10-05,1,,,,,,0
1881,7180001136802,登記記録の閉鎖等,0,2025-12-10,2025-11-18,株式会社ＡＢＳＯＬＵＴＥ　ＦＲＥＥＤＯＭ．７,,株式会社,愛知県,尾張旭市,西大道町六兵衛前３９１１番地,,23,226,4880815,,,2025-11-18,清算の結了等,,,2019-06-04,1,,,,,アブソリュートフリーダムドットセブン,0
1884,7180002023256,登記記録の閉鎖等,0,2025-12-10,2025-12-05,有限会社光和製本所,,有限会社,愛知県,名古屋市西区,花原町５９番地,,23,104,4520809,,,2025-12-05,清算の結了等,,,2015-10-05,1,,,,,コウワセイホンジョ,0
1893,7190001004999,登記記録の閉鎖等,0,2025-12-10,2025-12-08,株式会社サワダ,,株式会社,三重県,鈴鹿市,長澤町１１２３番地,,24,207,5190314,,,2025-12-08,清算の結了等,,,2015-10-05,1,,,,,サワダ,0
1895,7200002010821,登記記録の閉鎖等,0,2025-12-10,2025-12-05,有限会社ゼウス,,有限会社,岐阜県,羽島郡笠松町,美笠通２丁目５番地,,21,303,5016088,,,2025-12-05,清算の結了等,,,2015-10-05,1,,,,,ゼウス,0
1898,7220005008431,登記記録の閉鎖等,0,2025-12-10,2025-12-05,税理士法人大翔,,その他の設立登記法人,石川県,金沢市,高尾台４丁目１７４番地,,17,201,9218155,,,2025-12-05,清算の結了等,,,2020-01-14,1,,,,,ダイショウ,0
1923,7350001016466,登記記録の閉鎖等,0,2025-12-10,2025-12-05,マルマンファーム宮崎株式会社,,株式会社,宮崎県,日南市,北郷町郷之原字友原乙１６５５番地,,45,204,8892402,,,2025-12-05,合併による解散等,4011202005732,令和７年１２月１日東京都中野区中央二丁目３６番１２号マルマンホールディングス株式会社（4011202005732）に合併し解散,2020-06-05,1,,,,,マルマンファームミヤザキ,0
1927,7370002010549,登記記録の閉鎖等,0,2025-12-10,2025-12-04,有限会社クリ－エステ－ト,,有限会社,宮城県,仙台市青葉区,二日町１５番７－４０２号,,04,101,9800802,,,2025-12-04,清算の結了等,,,2015-10-05,1,,,,,クリーエステート,0
1929,7400601000987,登記記録の閉鎖等,0,2025-12-10,2025-12-02,株式会社シードグロウ,,株式会社,岩手県,奥州市,水沢真城字雷神１４３番地１３,,03,215,0230841,,,2025-12-02,清算の結了等,,,2015-10-05,1,,,,,シードグロウ,0
1934,7430001060943,登記記録の閉鎖等,0,2025-12-10,2025-12-01,Ｓ．Ｔ．Ａ．Ｒ．コンサル株式会社,,株式会社,北海道,札幌市西区,西町南１丁目２番１号千代田発寒橋ビル５階,,01,107,0630062,,,2025-12-01,合併による解散等,2430001010523,令和７年１２月１日札幌市西区西町南一丁目２番１号千代田サービス販売株式会社（2430001010523）に合併し解散,2015-10-05,1,,,,,エスティーエーアールコンサル,0
1943,7430002044623,登記記録の閉鎖等,0,2025-12-10,2025-12-08,有限会社菱畜フーズ,,有限会社,北海道,北広島市,新富町東１丁目６番地１,,01,234,0611126,,,2025-12-08,清算の結了等,,,2015-10-05,1,,,,,,0
1953,8010001035813,登記記録の閉鎖等,0,2025-12-10,2025-11-25,株式会社アート・エスタブリッシュメント,,株式会社,東京都,中央区,京橋３丁目６番５号,,13,102,1040031,,,2025-11-25,清算の結了等,,,2015-10-05,1,,,,,アートエスタブリッシュメント,0
1971,8010401143125,登記記録の閉鎖等,0,2025-12-10,2025-11-18,Ｂ‐ＯＮ株式会社,,株式会社,東京都,港区,港南２丁目１６番２号,,13,103,1080075,,,2025-11-18,清算の結了等,,,2019-01-10,1,,,,,ビーオン,0
1986,8010901019064,登記記録の閉鎖等,0,2025-12-10,2025-12-08,小林企画株式会社,,株式会社,東京都,世田谷区,祖師谷６丁目６番２１号,,13,112,1570072,,,2025-12-08,清算の結了等,,,2015-10-05,1,,,,,コバヤシキカク,0
1998,8011001141460,登記記録の閉鎖等,0,2025-12-10,2025-11-14,株式会社スキンクリアラボ,,株式会社,東京都,渋谷区,渋谷２丁目１２番４号,,13,113,1500002,,,2025-11-14,清算の結了等,,,2021-06-29,1,,,,,スキンクリアラボ,0
1999,8011001146600,登記記録の閉鎖等,0,2025-12-10,2025-11-13,株式会社ＴＨＥ　ＧＲＡＮＤ　ＯＲＧＡＮＩＺＡＴＩＯＮ,,株式会社,東京都,渋谷区,恵比寿１丁目２２番３号シルバープラザ恵比寿１０４号,,13,113,1500013,,,2025-11-13,清算の結了等,,,2022-03-30,1,,,,,ザグランドオーガニゼーション,0
2008,8011101049380,登記記録の閉鎖等,0,2025-12-10,2025-12-01,株式会社ランドネットワーク,,株式会社,東京都,渋谷区,道玄坂１丁目１６番１５号,,13,113,1500043,,,2025-12-01,合併による解散等,1011101035809,令和７年１１月２８日東京都渋谷区桜丘町２０番１号渋谷インフォスタワー２Ｆルーデン・ホールディングス株式会社（1011101035809）に合併し解散,2015-10-05,1,,,,,ランドネットワーク,0
2028,8013301033478,登記記録の閉鎖等,0,2025-12-10,2025-12-05,ソナーレエデュケーションズ株式会社,,株式会社,東京都,豊島区,西池袋１丁目１６番１号,,13,116,1710021,,,2025-12-05,合併による解散等,9012801019127,令和７年１２月１日東京都国分寺市東元町四丁目１番３６号オザキホールディングス株式会社（9012801019127）に合併し解散,2015-10-05,1,,,,,ソナーレエデュケーションズ,0
2035,8021001047517,登記記録の閉鎖等,0,2025-12-10,2025-11-25,株式会社ＷＥＳＴ湘南,,株式会社,神奈川県,茅ヶ崎市,円蔵２５１６番地６,,14,207,2530084,,,2025-11-25,清算の結了等,,,2015-10-05,1,,,,,ウエストショウナン,0
2042,8030001028625,登記記録の閉鎖等,0,2025-12-10,2025-12-01,株式会社ユーワネクスト,,株式会社,埼玉県,所沢市,泉町１８５０番地の４,,11,208,3591112,,,2025-12-01,清算の結了等,,,2015-10-05,1,,,,,ユーワネクスト,0
2044,8030001105218,登記記録の閉鎖等,0,2025-12-10,2025-12-03,ＩＳ工業株式会社,,株式会社,埼玉県,朝霞市,泉水３丁目３番５５－９０６号,,11,227,3510024,,,2025-12-03,清算の結了等,,,2015-10-05,1,,,,,イズコウギョウ,0
2046,8030001132955,登記記録の閉鎖等,0,2025-12-10,2025-12-01,株式会社建土興運,,株式会社,埼玉県,越谷市,増林２丁目１２８番地,,11,222,3430011,,,2025-12-01,清算の結了等,,,2019-10-01,1,,,,,ケンドコウウン,0
2059,8040001112650,登記記録の閉鎖等,0,2025-12-10,2025-11-18,株式会社Ｈ．Ｔ．Ｓ　ｍａｒｋｉｎｇ,,株式会社,千葉県,野田市,山崎１４４９番地の６,,12,208,2780022,,,2025-11-18,清算の結了等,,,2020-02-27,1,,,,,エイチティーエスマーキング,0
2078,8070001013821,登記記録の閉鎖等,0,2025-12-10,2025-12-04,株式会社ユニファイ,,株式会社,群馬県,伊勢崎市,日乃出町５７５番地２,,10,204,3720022,,,2025-12-04,清算の結了等,,,2015-10-05,1,,,,,ユニファイ,0
2079,8070001019422,登記記録の閉鎖等,0,2025-12-10,2025-12-05,株式会社七五商会,,株式会社,群馬県,太田市,東本町１８番２１号,,10,205,3730026,,,2025-12-05,清算の結了等,,,2015-10-05,1,,,,,シチゴショウカイ,0
2080,8070001024694,登記記録の閉鎖等,0,2025-12-10,2025-12-08,伊那倉庫運輸株式会社,,株式会社,群馬県,太田市,西野谷町４５番地,,10,205,3730043,,,2025-12-08,清算の結了等,,,2015-10-05,1,,,,,,0
2087,8080101023991,登記記録の閉鎖等,0,2025-12-10,2025-12-05,株式会社ＫＭＴ,,株式会社,静岡県,駿東郡清水町,徳倉４４１番地の３,,22,341,4110917,,,2025-12-05,清算の結了等,,,2023-05-11,1,,,,,ケーエムティー,0
2091,8080105004815,登記記録の閉鎖等,0,2025-12-10,2025-12-04,一般社団法人伊豆下田倶楽部,,その他の設立登記法人,静岡県,賀茂郡南伊豆町,入間２３８３番地１,,22,304,4150312,,,2025-12-04,清算の結了等,,,2015-10-05,1,,,,,イズシモダクラブ,0
2094,8090001002847,登記記録の閉鎖等,0,2025-12-10,2025-12-03,株式会社イノセンテ,,株式会社,山梨県,中央市,流通団地一丁目５番２号,,19,214,4093800,,,2025-12-03,合併による解散等,6090001002923,令和７年１２月１日山梨県中央市流通団地一丁目５番２号むろい株式会社（6090001002923）に合併し解散,2015-10-05,1,,,,,イノセンテ,0
2096,8110005001990,登記記録の閉鎖等,0,2025-12-10,2025-12-02,新津新光商店街協同組合,,その他の設立登記法人,新潟県,新潟市秋葉区,新津本町２丁目５番２７号,,15,105,9560864,,,2025-12-02,清算の結了等,,,2015-10-05,1,,,,,ニイツシンコウショウテンガイ,0
2106,8120001265977,登記記録の閉鎖等,0,2025-12-10,2025-12-08,静溪株式会社,,株式会社,大阪府,大阪市北区,長柄中２丁目５番３０号,,27,127,5310062,,,2025-12-08,清算の結了等,,,2024-06-17,1,,,,,セイケイ,0
2131,8122002014248,登記記録の閉鎖等,0,2025-12-10,2025-12-01,有限会社太陸産業,,有限会社,大阪府,八尾市,楠根町２丁目４番４号,,27,212,5810814,,,2025-12-01,清算の結了等,,,2015-10-05,1,,,,,,0
2143,8140001133414,登記記録の閉鎖等,0,2025-12-10,2025-12-04,株式会社パラダイス,,株式会社,兵庫県,神戸市中央区,京町７８番地三宮京町ビル３階,,28,110,6500034,,,2025-12-04,清算の結了等,,,2024-03-01,1,,,,,パラダイス,0
2146,8140002056399,登記記録の閉鎖等,0,2025-12-10,2025-12-05,有限会社甲子園メディカルコア,,有限会社,兵庫県,西宮市,甲子園七番町１２番９号,,28,204,6638177,,,2025-12-05,清算の結了等,,,2015-10-05,1,,,,,コウシエンメディカルコア,0
2148,8140003005504,登記記録の閉鎖等,0,2025-12-10,2025-12-08,和弘商会合同会社,,合同会社,兵庫県,神戸市長田区,東尻池町２丁目１７１番地,,28,106,6530022,,,2025-12-08,清算の結了等,,,2015-10-05,1,,,,,ワコウショウカイ,0
2149,8150003003036,登記記録の閉鎖等,0,2025-12-10,2025-12-04,三鶴合同会社,,合同会社,奈良県,奈良市,東紀寺町３丁目２番２－５０４号,,29,201,6308305,,,2025-12-04,清算の結了等,,,2023-08-18,1,,,,,ミツル,0
2167,8210001010110,登記記録の閉鎖等,0,2025-12-10,2025-12-04,北翔株式会社,,株式会社,福井県,勝山市,芳野町２丁目２番３２号,,18,206,9110032,,,2025-12-04,清算の結了等,,,2015-10-05,1,,,,,,0
2168,8210001019952,登記記録の閉鎖等,0,2025-12-10,2025-12-08,株式会社丸雅商事,,株式会社,福井県,坂井市,丸岡町霞町１丁目３２番地１,,18,210,9100231,,,2025-12-08,清算の結了等,,,2024-10-22,1,,,,,マルマサショウジ,0
2173,8240002009553,登記記録の閉鎖等,0,2025-12-10,2025-12-02,有限会社竹,,有限会社,広島県,広島市佐伯区,五日市中央４丁目９番１３号,,34,108,7315128,,,2025-12-02,清算の結了等,,,2015-10-05,1,,,,,タケ,0
2204,8370002006661,登記記録の閉鎖等,0,2025-12-10,2025-12-02,有限会社アルファ空調,,有限会社,宮城県,仙台市宮城野区,燕沢東３丁目１９番２号,,04,102,9830822,,,2025-12-02,清算の結了等,,,2015-10-05,1,,,,,アルファクウチョウ,0
2212,8410002008158,登記記録の閉鎖等,0,2025-12-10,2025-12-05,有限会社ジャパンクリエートアグリ,,有限会社,秋田県,湯沢市,八幡字前田３番地,,05,207,0120007,,,2025-12-05,清算の結了等,,,2015-10-05,1,,,,,ジャパンクリエートアグリ,0
2214,8430001077862,登記記録の閉鎖等,0,2025-12-10,2025-12-08,株式会社Ａｓｒｉｓｅｓ,,株式会社,北海道,札幌市豊平区,中の島二条３丁目１－２４中の島２－３ビル４０１号,,01,105,0620922,,,2025-12-08,清算の結了等,,,2018-12-06,1,,,,,アスライズ,0
2217,8450001005854,登記記録の閉鎖等,0,2025-12-10,2025-12-05,株式会社ウッドマーケット,,株式会社,北海道,旭川市,東光九条３丁目３番１号,,01,204,0788349,,,2025-12-05,清算の結了等,,,2015-10-05,1,,,,,ウッドマーケット,0
2221,8470001016362,登記記録の閉鎖等,0,2025-12-10,2025-12-08,株式会社ＬＵＸＡＳ,,株式会社,香川県,善通寺市,原田町２６３番地３,,37,204,7650032,,,2025-12-08,清算の結了等,,,2017-06-16,1,,,,,,0
2240,9010001202998,登記記録の閉鎖等,0,2025-12-10,2025-11-11,株式会社しののめ企画,,株式会社,東京都,中央区,銀座７丁目１３番６号サガミビル２階,,13,102,1040061,,,2025-11-11,清算の結了等,,,2019-08-06,1,,,,,シノノメキカク,0
2241,9010001236625,登記記録の閉鎖等,0,2025-12-10,2025-11-25,採用デザインコンサルティング株式会社,,株式会社,東京都,中央区,京橋２丁目２番１号京橋エドグラン１９階,,13,102,1040031,,,2025-11-25,清算の結了等,,,2023-07-06,1,,,,,サイヨウデザインコンサルティング,0
2250,9010401039933,登記記録の閉鎖等,0,2025-12-10,2025-11-11,株式会社ティー・シィー,,株式会社,東京都,渋谷区,神宮前５丁目１２番７号,,13,113,1500001,,,2025-11-11,合併による解散等,2011002035873,令和７年１１月１日東京都渋谷区神宮前五丁目１２番７号株式会社津森千里デザインスタジオ（2011002035873）に合併し解散,2015-10-05,1,,,,,ティーシィー,0
2263,9010403017061,登記記録の閉鎖等,0,2025-12-10,2025-11-18,オフィスユリアナ合同会社,,合同会社,東京都,港区,海岸３丁目１９番２－７１６号,,13,103,1080022,,,2025-11-18,清算の結了等,,,2017-08-17,1,,,,,オフィスユリアナ,0
2270,9010602011831,登記記録の閉鎖等,0,2025-12-10,2025-12-05,有限会社紺正染色,,有限会社,東京都,墨田区,吾妻橋２丁目２０番３号,,13,107,1300001,,,2025-12-05,清算の結了等,,,2015-10-05,1,,,,,コンショウセンショク,0
2277,9010901001186,登記記録の閉鎖等,0,2025-12-10,2025-12-08,株式会社伊藤冷凍機工業,,株式会社,東京都,世田谷区,若林３丁目１５番３１号,,13,112,1540023,,,2025-12-08,清算の結了等,,,2015-10-05,1,,,,,イトウレイトウキコウギョウ,0
2291,9011101059825,登記記録の閉鎖等,0,2025-12-10,2025-11-17,株式会社昭和村農園,,株式会社,東京都,新宿区,早稲田鶴巻町５３０番地,,13,104,1620041,,,2025-11-17,清算の結了等,,,2015-10-05,1,,,,,ショウワムラノウエン,0
2294,9011105001295,登記記録の閉鎖等,0,2025-12-10,2025-11-14,新宿製めん協同組合,,その他の設立登記法人,東京都,新宿区,北新宿３丁目１３番１号,,13,104,1690074,,,2025-11-14,清算の結了等,,,2015-10-05,1,,,,,シンジュクセイメン,0
2300,9011501004562,登記記録の閉鎖等,0,2025-12-10,2025-12-05,宮城工業株式会社,,株式会社,東京都,北区,昭和町１丁目９番１４号,,13,117,1140011,,,2025-12-05,清算の結了等,,,2015-10-05,1,,,,,ミヤギコウギョウ,0
2336,9030002063521,登記記録の閉鎖等,0,2025-12-10,2025-12-01,有限会社ハウスロッカーズ,,有限会社,埼玉県,入間市,大字仏子１３２１番地２９,,11,225,3580053,,,2025-12-01,清算の結了等,,,2015-10-05,1,,,,,ハウスロッカーズ,0
2338,9030005017227,登記記録の閉鎖等,0,2025-12-10,2025-12-03,一般社団法人向山資産管理,,その他の設立登記法人,埼玉県,川口市,幸町３丁目９番１号,,11,203,3320016,,,2025-12-03,清算の結了等,,,2015-10-05,1,,,,,ムコウヤマシサンカンリ,0
2339,9040001011050,登記記録の閉鎖等,0,2025-12-10,2025-11-18,株式会社ライトニー,,株式会社,千葉県,千葉市若葉区,大宮町２１４４番地１,,12,104,2640016,,,2025-11-18,清算の結了等,,,2015-10-05,1,,,,,ライトニー,0
2353,9060002028315,登記記録の閉鎖等,0,2025-12-10,2025-12-08,有限会社小堀商店,,有限会社,栃木県,小山市,天神町１丁目１０番６号,,09,208,3230032,,,2025-12-08,清算の結了等,,,2015-10-05,1,,,,,コボリショウテン,0
2357,9070002030600,登記記録の閉鎖等,0,2025-12-10,2025-12-08,原口商運有限会社,,有限会社,群馬県,邑楽郡大泉町,丘山３２番１５号,,10,524,3700534,,,2025-12-08,清算の結了等,,,2015-10-05,1,,,,,ハラグチショウウン,0
2365,9120001003064,登記記録の閉鎖等,0,2025-12-10,2025-11-28,小川株式会社,,株式会社,大阪府,大阪市西成区,岸里３丁目１２番８号,,27,122,5570041,,,2025-11-28,清算の結了等,,,2015-10-05,1,,,,,オガワ,0
2368,9120001165549,登記記録の閉鎖等,0,2025-12-10,2025-12-05,株式会社池田綜合経営,,株式会社,大阪府,大阪市西区,西本町２丁目４番１９－１２０５号,,27,106,5500005,,,2025-12-05,清算の結了等,,,2015-10-05,1,,,,,イケダソウゴウケイエイ,0
2387,9120002018193,登記記録の閉鎖等,0,2025-12-10,2025-12-08,有限会社明向電材,,有限会社,大阪府,大阪市住吉区,南住吉４丁目２番１５号,,27,120,5580041,,,2025-12-08,清算の結了等,,,2015-10-05,1,,,,,メイコウデンザイ,0
2388,9120002073461,登記記録の閉鎖等,0,2025-12-10,2025-12-05,有限会社浅野測量事務所,,有限会社,大阪府,枚方市,楠葉並木２丁目２２番１０号,,27,210,5731118,,,2025-12-05,清算の結了等,,,2015-10-05,1,,,,,アサノソクリョウジムショ,0
2423,9160001019577,登記記録の閉鎖等,0,2025-12-10,2025-12-01,エンゼルトランプ永源寺株式会社,,株式会社,滋賀県,東近江市,青野町４６００番地,,25,213,5270232,,,2025-12-01,合併による解散等,9160001023579,令和７年１２月１日滋賀県東近江市青野町４６００番地エンゼルパッケージング株式会社（9160001023579）に合併し解散,2016-07-04,1,,,,,エンゼルトランプエイゲンジ,0
2428,9160003001715,登記記録の閉鎖等,0,2025-12-10,2025-12-03,合同会社ＣＳＨ,,合同会社,滋賀県,草津市,西大路町１０番５－２５２号,,25,206,5250037,,,2025-12-03,清算の結了等,,,2018-08-08,1,,,,,シーエスエイチ,0
2440,9210002000555,登記記録の閉鎖等,0,2025-12-10,2025-12-04,有限会社エヌ・ケイ企画,,有限会社,福井県,福井市,江端町第３２号９２番地,,18,201,9188016,,,2025-12-04,清算の結了等,,,2015-10-05,1,,,,,エヌケイキカク,0
2448,9240001018265,登記記録の閉鎖等,0,2025-12-10,2025-12-05,株式会社優・愛,,株式会社,広島県,広島市中区,十日市町２丁目８番２６－１０１号,,34,101,7300805,,,2025-12-05,清算の結了等,,,2015-10-05,1,,,,,ユウアイ,0
2451,9240002032190,登記記録の閉鎖等,0,2025-12-10,2025-12-09,有限会社宇吹製作所,,有限会社,広島県,呉市,広多賀谷２丁目４番７号,,34,202,7370134,,,2025-12-09,清算の結了等,,,2015-10-05,1,,,,,ウスイセイサクショ,0
2473,9340002014286,登記記録の閉鎖等,0,2025-12-10,2025-12-01,有限会社湯ノ迫建設,,有限会社,鹿児島県,霧島市,隼人町姫城１８３２番地,,46,218,8995111,,,2025-12-01,清算の結了等,,,2015-10-05,1,,,,,ユノサコケンセツ,0
2480,9370005008902,登記記録の閉鎖等,0,2025-12-10,2025-12-04,特定非営利活動法人スポーツ医科学ネットワーク,,その他の設立登記法人,宮城県,仙台市太白区,富沢２丁目８番１６号,,04,104,9820032,,,2025-12-04,清算の結了等,,,2015-12-22,1,,,,,スポーツイカガクネットワーク,0
2481,9370201000290,登記記録の閉鎖等,0,2025-12-10,2025-12-02,株式会社千葉分店,,株式会社,宮城県,大崎市,古川三日町１丁目３番２７号,,04,215,9896154,,,2025-12-02,清算の結了等,,,2015-10-05,1,,,,,チバブンテン,0
2493,9430001064447,登記記録の閉鎖等,0,2025-12-10,2025-12-05,株式会社エイワ工業,,株式会社,北海道,札幌市南区,南沢三条３丁目５番１１号,,01,106,0050823,,,2025-12-05,清算の結了等,,,2015-10-05,1,,,,,,0
