sequenceNumber,corporateNumber,process,correct,updateDate,changeDate,name,nameImageId,kind,prefectureName,cityName,streetNumber,addressImageId,prefectureCode,cityCode,postCode,addressOutside,addressOutsideImageId,closeDate,closeCause,successorCorporateNumber,changeCause,assignmentDate,latest,enName,enPrefectureName,enCityName,enAddressOutside,furigana,hihyoji
7,1010001233687,新規,0,2023-03-20,2023-03-20,ｉＮｏｔｅ株式会社,,株式会社,東京都,千代田区,岩本町２丁目７－１２ビルックス３、２Ｆ,,13,101,1010032,,,,,,,2023-03-20,1,,,,,アイノート,0
8,1010001233786,新規,0,2023-03-20,2023-03-20,株式会社ＲＥｂｒａｎｄ,,株式会社,東京都,文京区,本郷１丁目３４－１,,13,105,1130033,,,,,,,2023-03-20,1,,,,,アールイーブランド,0
9,1010001233869,新規,0,2023-03-20,2023-03-20,株式会社ゼニアルセキュリティエージェント,,株式会社,東京都,千代田区,内神田１丁目１８番１１号,,13,101,1010047,,,,,,,2023-03-20,1,,,,,ゼニアルセキュリティエージェント,0
11,1010003040090,新規,0,2023-03-20,2023-03-20,合同会社竹橋製作所,,合同会社,東京都,千代田区,神田錦町１丁目１４番地１１,,13,101,1010054,,,,,,,2023-03-20,1,,,,,タケバシセイサクショ,0
15,1010005036392,新規,0,2023-03-20,2023-03-20,エネグローバルグリーンパワーホールディングス一般社団法人,,その他の設立登記法人,東京都,中央区,八丁堀４丁目２番１０号ＡＯＪ税理士法人内,,13,102,1040032,,,,,,,2023-03-20,1,,,,,エネグローバルグリーンパワーホールディングス,0
22,1010401173112,新規,0,2023-03-20,2023-03-20,Ｈ　Ｔｒａｄｉｎｇ株式会社,,株式会社,東京都,港区,六本木５丁目１６番５０号六本木デュープレックスＭ’ｓ３０２,,13,103,1060032,,,,,,,2023-03-20,1,,,,,エイチトレーディング,0
23,1010401173129,新規,0,2023-03-20,2023-03-20,ＡＺＡＢＵインベストメント株式会社,,株式会社,東京都,港区,麻布十番３丁目３番２号麻布タワー,,13,103,1060045,,,,,,,2023-03-20,1,,,,,アザブインベストメント,0
24,1010401173161,新規,0,2023-03-20,2023-03-20,株式会社ボンドリアルティ,,株式会社,東京都,港区,麻布台３丁目１番５－８０１号,,13,103,1060041,,,,,,,2023-03-20,1,,,,,ボンドリアルティ,0
25,1010401173178,新規,0,2023-03-20,2023-03-20,株式会社ＶＡＬＩＤ,,株式会社,東京都,港区,港南２丁目１２番２８,,13,103,1080075,,,,,,,2023-03-20,1,,,,,バリッド,0
26,1010401173186,新規,0,2023-03-20,2023-03-20,株式会社Ｏｎｅ　Ｃｈｅｃｋ,,株式会社,東京都,港区,虎ノ門２－３－１７虎ノ門２丁目タワー１９階,,13,103,1050000,,,,,,,2023-03-20,1,,,,,ワンチェック,0
34,1010701043997,新規,0,2023-03-20,2023-03-20,株式会社シニアモバイル,,株式会社,東京都,品川区,西五反田１丁目２６番２号五反田サンハイツ９１１,,13,109,1410031,,,,,,,2023-03-20,1,,,,,シニアモバイル,0
38,1010901052708,新規,0,2023-03-20,2023-03-20,株式会社ＵＮＮＡＭＥＤ,,株式会社,東京都,世田谷区,若林２丁目２１－１６若林ポイント２０５,,13,112,1540023,,,,,,,2023-03-20,1,,,,,アンネームド,0
39,1010901052716,新規,0,2023-03-20,2023-03-20,株式会社ＢＡＳＥ‐ＯＮ,,株式会社,東京都,世田谷区,南烏山２丁目４－１６－１３,,13,112,1570062,,,,,,,2023-03-20,1,,,,,ベースオン,0
40,1010901052732,新規,0,2023-03-20,2023-03-20,株式会社ｓｔｒｅａｍ‐ｉ,,株式会社,東京都,世田谷区,上祖師谷５丁目８番６号,,13,112,1570065,,,,,,,2023-03-20,1,,,,,ストリーミー,0
42,1010903008039,新規,0,2023-03-20,2023-03-20,合同会社ハタラコ,,合同会社,東京都,世田谷区,南烏山６丁目２７番３号,,13,112,1570062,,,,,,,2023-03-20,1,,,,,ハタラコ,0
43,1010903008047,新規,0,2023-03-20,2023-03-20,Ｋａｗａｉｉキューティーズ合同会社,,合同会社,東京都,世田谷区,桜丘２丁目１８番１６―６０４号,,13,112,1560054,,,,,,,2023-03-20,1,,,,,スリーピィドラゴン,0
49,1011001153132,新規,0,2023-03-20,2023-03-20,ＰＬＵＧ株式会社,,株式会社,東京都,目黒区,東山３丁目３番１０－６０７,,13,110,1530043,,,,,,,2023-03-20,1,,,,,プラグ,0
50,1011003016436,新規,0,2023-03-20,2023-03-20,ロコの星合同会社,,合同会社,東京都,目黒区,青葉台３丁目８番３号,,13,110,1530042,,,,,,,2023-03-20,1,,,,,ロコノホシ,0
51,1011003016460,新規,0,2023-03-20,2023-03-20,茨城米山会計合同会社,,合同会社,東京都,渋谷区,神宮前６丁目２３番４号桑野ビル２階,,13,113,1500001,,,,,,,2023-03-20,1,,,,,イバラキヨネヤマカイケイ,0
52,1011003016469,新規,0,2023-03-20,2023-03-20,ミヤビアソシエイツ合同会社,,合同会社,東京都,渋谷区,道玄坂１丁目１６－６二葉ビル８ｂ,,13,113,1500043,,,,,,,2023-03-20,1,,,,,ミヤビアソシエイツ,0
55,1011105010584,新規,0,2023-03-20,2023-03-20,一般社団法人先端臨床支援機構,,その他の設立登記法人,東京都,新宿区,市谷田町３丁目８番地市ヶ谷科学技術イノベーションセンタービル２階,,13,104,1620843,,,,,,,2023-03-20,1,,,,,センタンリンショウシエンキコウ,0
58,1011405002240,新規,0,2023-03-20,2023-03-20,一般社団法人Ｉｎｓｔｙｌｅ,,その他の設立登記法人,東京都,板橋区,中丸町３１番７号澤田ビル２Ｆ,,13,119,1730026,,,,,,,2023-03-20,1,,,,,インスタイル,0
60,1011501029063,新規,0,2023-03-20,2023-03-20,舟洋株式会社,,株式会社,東京都,荒川区,町屋３丁目１－１３－３０７,,13,118,1160001,,,,,,,2023-03-20,1,,,,,フヨウ,0
61,1011503005525,新規,0,2023-03-20,2023-03-20,ナイルズ合同会社,,合同会社,東京都,北区,西ケ原４丁目１７番７号,,13,117,1140024,,,,,,,2023-03-20,1,,,,,,0
62,1011603003858,新規,0,2023-03-20,2023-03-20,トムプランニング合同会社,,合同会社,東京都,練馬区,豊玉南１丁目１０番５号,,13,120,1760014,,,,,,,2023-03-20,1,,,,,トムプランニング,0
64,1011803005563,新規,0,2023-03-20,2023-03-20,長栄寺本堂建立共同事業合同会社,,合同会社,東京都,足立区,日ノ出町３８番４,,13,121,1200021,,,,,,,2023-03-20,1,,,,,チョウエイジホンドウコンリュウキョウドウジギョウ,0
67,1012401040300,新規,0,2023-03-20,2023-03-20,株式会社高沖工業,00129805,株式会社,東京都,府中市,白糸台３丁目２０番地の３－３０１,,13,206,1830011,,,,,,,2023-03-20,1,,,,,タカオキコウギョウ,0
68,1012403005887,新規,0,2023-03-20,2023-03-20,合同会社ＪＯＢＯＳＥ,,合同会社,東京都,狛江市,西野川１丁目２５番５７－２０２号,,13,219,2010001,,,,,,,2023-03-20,1,,,,,ジョーボーズ,0
71,1012705002351,新規,0,2023-03-20,2023-03-20,医療法人社団彦星会,,その他の設立登記法人,東京都,西東京市,芝久保町３丁目６番２６号,,13,229,1880014,,,,,,,2023-03-20,1,,,,,ヒコボシカイ,0
76,1013301050380,新規,0,2023-03-20,2023-03-20,株式会社藤原商事,,株式会社,東京都,豊島区,池袋本町２丁目６－２カミコビル７０１,,13,116,1700011,,,,,,,2023-03-20,1,,,,,,0
77,1013301050463,新規,0,2023-03-20,2023-03-20,ユー建築株式会社,,株式会社,東京都,豊島区,西巣鴨２丁目１５番２号,,13,116,1700001,,,,,,,2023-03-20,1,,,,,ユーケンチク,0
82,1020003023557,新規,0,2023-03-20,2023-03-20,合同会社やまや,,合同会社,神奈川県,横浜市磯子区,丸山２丁目２２番１－３１１号,,14,107,2350011,,,,,,,2023-03-20,1,,,,,ヤマヤ,0
85,1021005012762,新規,0,2023-03-20,2023-03-20,一般社団法人エリア．サーベイ．相模,,その他の設立登記法人,神奈川県,相模原市南区,麻溝台６丁目１６番２２号,,14,153,2520328,,,,,,,2023-03-20,1,,,,,エリアサーベイサガミ,0
94,1030003021403,新規,0,2023-03-20,2023-03-20,合同会社ＫＺＰ,,合同会社,埼玉県,所沢市,大字久米３２８－２シンコーハイツ２０１,,11,208,3591131,,,,,,,2023-03-20,1,,,,,カズピ,0
100,1040001127515,新規,0,2023-03-20,2023-03-20,株式会社ＳＣＲＳ,,株式会社,千葉県,船橋市,前原西２丁目４１番１７号,,12,204,2740825,,,,,,,2023-03-20,1,,,,,エスシーアールエス,0
103,1070001040244,新規,0,2023-03-20,2023-03-20,株式会社ＲＢ,,株式会社,群馬県,みどり市,笠懸町阿左美２１１３番地２,,10,212,3792311,,,,,,,2023-03-20,1,,,,,アールビー,0
109,1090003002281,新規,0,2023-03-20,2023-03-20,合同会社又木商店,,合同会社,山梨県,甲斐市,長塚５番地３,,19,210,4000125,,,,,,,2023-03-20,1,,,,,マタキショウテン,0
110,1100001036239,新規,0,2023-03-20,2023-03-20,株式会社フジロード,,株式会社,長野県,長野市,真島町真島１４１８番地２,,20,201,3812204,,,,,,,2023-03-20,1,,,,,フジロード,0
111,1100003006925,新規,0,2023-03-20,2023-03-20,Ａｓａｍａ　Ｃａｐｉｔａｌ合同会社,,合同会社,長野県,北佐久郡軽井沢町,大字長倉７２９番地１,,20,321,3890111,,,,,,,2023-03-20,1,,,,,アサマキャピタル,0
119,1120001253328,新規,0,2023-03-20,2023-03-20,株式会社ｇｒｅｅｎ　ｓｔｕｄｉｏ　ＰＬＵＳ,,株式会社,大阪府,大阪市中央区,内本町２丁目３番８号ダイアパレスビル本町６０８号,,27,128,5400026,,,,,,,2023-03-20,1,,,,,グリーンスタジオプラス,0
120,1120001253344,新規,0,2023-03-20,2023-03-20,株式会社Ｌｉｋｏ,,株式会社,大阪府,大阪市大正区,鶴町２丁目１７番２２号,,27,108,5510023,,,,,,,2023-03-20,1,,,,,リコ,0
121,1120001253360,新規,0,2023-03-20,2023-03-20,ＴＯＬＡＨ株式会社,,株式会社,大阪府,大阪市北区,堂山町７－２２ステージ中通りビル４階,,27,127,5300027,,,,,,,2023-03-20,1,,,,,トーラ,0
124,1120003023662,新規,0,2023-03-20,2023-03-20,合同会社冨永,,合同会社,大阪府,門真市,常盤町２５番２８号バードビル大和田１０３号室,,27,223,5710078,,,,,,,2023-03-20,1,,,,,トミナガ,0
125,1120101067165,新規,0,2023-03-20,2023-03-20,株式会社泉本装飾,,株式会社,大阪府,貝塚市,永吉１０番地３,,27,208,5970032,,,,,,,2023-03-20,1,,,,,イズモトソウショク,0
127,1120901047267,新規,0,2023-03-20,2023-03-20,株式会社田中商事,,株式会社,大阪府,池田市,木部町１５５番地２,,27,204,5630014,,,,,,,2023-03-20,1,,,,,タナカショウジ,0
130,1120903004539,新規,0,2023-03-20,2023-03-20,ＥＭＡＮＯＮ合同会社,,合同会社,大阪府,高槻市,氷室町１丁目２９－１１サンローゼ１号館３０５号室,,27,207,5691141,,,,,,,2023-03-20,1,,,,,エマノン,0
131,1120903004547,新規,0,2023-03-20,2023-03-20,合同会社アリエス,,合同会社,大阪府,高槻市,白梅町４番８－２８１１号,,27,207,5691116,,,,,,,2023-03-20,1,,,,,アリエス,0
137,1130003008596,新規,0,2023-03-20,2023-03-20,合同会社モノリス・インキュベーション,,合同会社,京都府,京都市下京区,高辻通堀川西入富永町６７２番地堀川高辻３１０ｂｌｄｇ,,26,106,6008351,,,,,,,2023-03-20,1,,,,,モノリスインキュベーション,0
143,1140001129501,新規,0,2023-03-20,2023-03-20,プロンプテック株式会社,,株式会社,兵庫県,神戸市中央区,八幡通１丁目１番１４－３０１号,,28,110,6510085,,,,,,,2023-03-20,1,,,,,プロンプテック,0
146,1140005026521,新規,0,2023-03-20,2023-03-20,医療法人カルム,,その他の設立登記法人,兵庫県,赤穂市,加里屋３０番地９,,28,212,6780239,,,,,,,2023-03-20,1,,,,,カルム,0
148,1160005011174,新規,0,2023-03-20,2023-03-20,医療法人社団のむら小児科,,その他の設立登記法人,滋賀県,湖南市,石部中央１丁目３番２６号,,25,211,5203106,,,,,,,2023-03-20,1,,,,,ノムラショウニカ,0
150,1180001155411,新規,0,2023-03-20,2023-03-20,株式会社大健,,株式会社,愛知県,名古屋市熱田区,二番２丁目２番２号サンハイツ渡辺１０３号,,23,109,4560052,,,,,,,2023-03-20,1,,,,,ダイケン,0
162,1220005008734,新規,0,2023-03-20,2023-03-20,一般社団法人スコール金沢,,その他の設立登記法人,石川県,金沢市,泉野出町４丁目１番２２号,,17,201,9218116,,,,,,,2023-03-20,1,,,,,スコールカナザワ,0
168,1240001061231,新規,0,2023-03-20,2023-03-20,株式会社ＳＥＫ,,株式会社,広島県,福山市,赤坂町大字赤坂１０９１番地３,,34,207,7200843,,,,,,,2023-03-20,1,,,,,エスイーケー,0
169,1240003006060,新規,0,2023-03-20,2023-03-20,合同会社ｐｉｎｏ,,合同会社,広島県,広島市西区,鈴が峰町３５番２９－１０４号,,34,104,7330852,,,,,,,2023-03-20,1,,,,,ピノ,0
177,1290001100934,新規,0,2023-03-20,2023-03-20,株式会社パインライト,,株式会社,福岡県,那珂川市,道善５丁目２７番１号パルティール道善Ｅ棟,,40,231,8111254,,,,,,,2023-03-20,1,,,,,パインライト,0
185,1330003009764,新規,0,2023-03-20,2023-03-20,合同会社ＫＦＫＫコンサルティング,,合同会社,熊本県,熊本市東区,昭和町３番５号,,43,102,8612108,,,,,,,2023-03-20,1,,,,,ケイエフケイケイコンサルティング,0
188,1360001031692,新規,0,2023-03-20,2023-03-20,株式会社ソニックオートサービス,,株式会社,沖縄県,那覇市,小禄１丁目５番７号,,47,201,9010152,,,,,,,2023-03-20,1,,,,,ソニックオートサービス,0
189,1360001031726,新規,0,2023-03-20,2023-03-20,株式会社名護テント,,株式会社,沖縄県,名護市,字伊差川２８２番地,,47,209,9051152,,,,,,,2023-03-20,1,,,,,ナゴテント,0
190,1360001031734,新規,0,2023-03-20,2023-03-20,株式会社Ｆｕｎ　ｏｋｉｎａｗａ,,株式会社,沖縄県,宜野湾市,真志喜３丁目２３番２－４０６号,,47,205,9012224,,,,,,,2023-03-20,1,,,,,ファンオキナワ,0
192,1360003012815,新規,0,2023-03-20,2023-03-20,農業生産法人合同会社地盛,,合同会社,沖縄県,宮古島市,平良字下里２６２５番地１,,47,214,9060013,,,,,,,2023-03-20,1,,,,,ノウギョウセイサンホウジンジモリ,0
193,1360003012823,新規,0,2023-03-20,2023-03-20,合同会社琉球,,合同会社,沖縄県,名護市,大南２丁目１２番２８－３０１号室,,47,209,9050015,,,,,,,2023-03-20,1,,,,,リュウキュウ,0
194,1370001049742,新規,0,2023-03-20,2023-03-20,株式会社フォールアップ,,株式会社,宮城県,仙台市青葉区,荒巻神明町７番７号メゾン神明１０３,,04,101,9810965,,,,,,,2023-03-20,1,,,,,フォールアップ,0
198,1380001033563,新規,0,2023-03-20,2023-03-20,株式会社ふくたけ不動産,,株式会社,福島県,福島市,南矢野目字中屋敷６１番地の８,,07,201,9600112,,,,,,,2023-03-20,1,,,,,フクタケフドウサン,0
209,1420001018196,新規,0,2023-03-20,2023-03-20,株式会社アールイーフォロー,,株式会社,青森県,八戸市,西白山台２丁目７番９号,,02,203,0391113,,,,,,,2023-03-20,1,,,,,アールイーフォロー,0
211,1430001088651,新規,0,2023-03-20,2023-03-20,株式会社ムーバー,,株式会社,北海道,千歳市,高台２丁目７番１号,,01,224,0660035,,,,,,,2023-03-20,1,,,,,ムーバー,0
212,1430001088684,新規,0,2023-03-20,2023-03-20,株式会社ＣＬＯＶＥＲ,,株式会社,北海道,札幌市豊平区,西岡三条１丁目９番１４,,01,105,0620033,,,,,,,2023-03-20,1,,,,,クローバー,0
225,2010001233158,新規,0,2023-03-20,2023-03-20,ＯＳＡ株式会社,,株式会社,東京都,中央区,銀座１丁目１２番４号Ｎ＆ＥＢＬＤ．６Ｆ,,13,102,1040061,,,,,,,2023-03-20,1,,,,,オーエスエー,0
226,2010001233835,新規,0,2023-03-20,2023-03-20,株式会社ディライトビジネスコンサルティング,,株式会社,東京都,中央区,銀座６丁目１３番１６号銀座ウォールビルＵＣＦ５階,,13,102,1040061,,,,,,,2023-03-20,1,,,,,ディライトビジネスコンサルティング,0
227,2010001233868,新規,0,2023-03-20,2023-03-20,株式会社Ａｒｋ　Ｆｏｕｎｄａｔｉｏｎ,,株式会社,東京都,中央区,銀座６丁目１３番１６号ヒューリック銀座ウォールビルＵＣＦ５階,,13,102,1040061,,,,,,,2023-03-20,1,,,,,アークファウンデーション,0
231,2010401173185,新規,0,2023-03-20,2023-03-20,株式会社ＢＴＳｃｉｅｎｃｅ,,株式会社,東京都,港区,西麻布４丁目５番１０,,13,103,1060031,,,,,,,2023-03-20,1,,,,,ビーティーサイエンス,0
232,2010403029740,新規,0,2023-03-20,2023-03-20,イヴォーク合同会社,,合同会社,東京都,港区,白金台５丁目３番６号白金台セントラルビル５階,,13,103,1080071,,,,,,,2023-03-20,1,,,,,イヴォーク,0
233,2010403029749,新規,0,2023-03-20,2023-03-20,Ｓ．Ｋａｙ２合同会社,,合同会社,東京都,港区,六本木１丁目３番２０号ホーマットプレジデント５３０,,13,103,1060032,,,,,,,2023-03-20,1,,,,,エスケイツー,0
235,2010501050144,新規,0,2023-03-20,2023-03-20,株式会社Ａｓｕ　ｃａｒｅｅｒ,,株式会社,東京都,台東区,東上野６丁目２７番２号コーポコピア２０２,,13,106,1100015,,,,,,,2023-03-20,1,,,,,アスキャリア,0
236,2010501050177,新規,0,2023-03-20,2023-03-20,ＩＭＪＡ株式会社,,株式会社,東京都,台東区,台東１丁目２９番３－１００５号イースタンクロスアキバ,,13,106,1100016,,,,,,,2023-03-20,1,,,,,イムジャ,0
240,2010803004475,新規,0,2023-03-20,2023-03-20,合同会社ミレリーブ,,合同会社,東京都,大田区,北千束３丁目３５－４,,13,111,1450062,,,,,,,2023-03-20,1,,,,,ミレリーブ,0
241,2010901052731,新規,0,2023-03-20,2023-03-20,株式会社ＰＢ,,株式会社,東京都,世田谷区,北烏山９丁目１６番７号,,13,112,1570061,,,,,,,2023-03-20,1,,,,,,0
242,2010903008021,新規,0,2023-03-20,2023-03-20,ＢＣＫＮＩＧＨＴ合同会社,,合同会社,東京都,世田谷区,南烏山１丁目５番１５号ヒエモトビル１０１号室,,13,112,1570062,,,,,,,2023-03-20,1,,,,,ビージーナイト,0
246,2011001153131,新規,0,2023-03-20,2023-03-20,株式会社Ｗｅｌｌｎｅｓｓ　Ｌｅａｄ,,株式会社,東京都,渋谷区,代々木２丁目３８番１－９０４号ＭＯＤＩＥＲＹＯＹＯＧＩＲＥＳＩＤＥＮＣＥ,,13,113,1510053,,,,,,,2023-03-20,1,,,,,ウェルネスリード,0
247,2011001153222,新規,0,2023-03-20,2023-03-20,株式会社ＡＩＮ,,株式会社,東京都,渋谷区,代々木１丁目３２番１５号第三白倉ビル２Ｆ,,13,113,1510053,,,,,,,2023-03-20,1,,,,,エーアイエヌ,0
248,2011001153247,新規,0,2023-03-20,2023-03-20,株式会社ＫＭエンターテインメント,,株式会社,東京都,目黒区,目黒本町１丁目１６番１３－２０９号マンションニュー目黒,,13,110,1520002,,,,,,,2023-03-20,1,,,,,ケイエムエンターテインメント,0
249,2011003016443,新規,0,2023-03-20,2023-03-20,合同会社ＳＫマネジメント,,合同会社,東京都,目黒区,原町１丁目２６－１,,13,110,1520011,,,,,,,2023-03-20,1,,,,,エスケイマネジメント,0
250,2011003016451,新規,0,2023-03-20,2023-03-20,まやよい合同会社,,合同会社,東京都,渋谷区,恵比寿１丁目３１番４号メゾンアーサ５０１,,13,113,1500013,,,,,,,2023-03-20,1,,,,,マヤヨイ,0
252,2011101102194,新規,0,2023-03-20,2023-03-20,株式会社ＳＨＯＷＬＩＮＥ　ＪＡＰＡＮ,,株式会社,東京都,新宿区,百人町２丁目２７番５号,,13,104,1690073,,,,,,,2023-03-20,1,,,,,ショウラインジャパン,0
255,2011105010591,新規,0,2023-03-20,2023-03-20,一般社団法人グローバル汐留,,その他の設立登記法人,東京都,新宿区,四谷２丁目９番地１５東京ユナイテッド綜合事務所内,,13,104,1600004,,,,,,,2023-03-20,1,,,,,グローバルシオドメ,0
261,2011401024989,新規,0,2023-03-20,2023-03-20,トラベルエクスプローラー株式会社,,株式会社,東京都,板橋区,大山町１８番２－９０３号室,,13,119,1730023,,,,,,,2023-03-20,1,,,,,トラベルエクスプローラー,0
266,2011801042104,新規,0,2023-03-20,2023-03-20,嵐蔦株式会社,,株式会社,東京都,足立区,東綾瀬１丁目７－１６－３０２,,13,121,1200004,,,,,,,2023-03-20,1,,,,,ランチョウ,0
268,2012405004845,新規,0,2023-03-20,2023-03-20,医療法人社団かけはし,,その他の設立登記法人,東京都,小金井市,梶野町５丁目３番６号東小金井フラワーメディカルモール２０１号室,,13,210,1840002,,,,,,,2023-03-20,1,,,,,カケハシ,0
271,2012705002350,新規,0,2023-03-20,2023-03-20,特定非営利活動法人ソレイユ,,その他の設立登記法人,東京都,西東京市,住吉町１丁目２１番２５号ハイツＳＨＩＲＡＮＥ２０１号,,13,229,2020005,,,,,,,2023-03-20,1,,,,,ソレイユ,0
273,2012803003036,新規,0,2023-03-20,2023-03-20,合同会社ＵＰ‐ＤＲＡＦＴ,,合同会社,東京都,立川市,幸町５丁目９５番地の２１,,13,202,1900002,,,,,,,2023-03-20,1,,,,,アップドラフト,0
286,2020003023556,新規,0,2023-03-20,2023-03-20,合同会社マエストーソ,,合同会社,神奈川県,横浜市旭区,今宿東町８１０番地１０サニーヒル今宿２４棟１０４号,,14,112,2410032,,,,,,,2023-03-20,1,,,,,マエストーソ,0
290,2021005012761,新規,0,2023-03-20,2023-03-20,一般社団法人日本重ね煮協会,,その他の設立登記法人,神奈川県,鎌倉市,西鎌倉２丁目２０番１０－１号,,14,204,2480035,,,,,,,2023-03-20,1,,,,,ニホンカサネニキョウカイ,0
299,2030001152901,新規,0,2023-03-20,2023-03-20,株式会社ＥＣＲ,,株式会社,埼玉県,朝霞市,根岸台４丁目１１番１２号,,11,227,3510005,,,,,,,2023-03-20,1,,,,,イーシーアール,0
300,2030001152942,新規,0,2023-03-20,2023-03-20,株式会社ＷＡＶＹ’Ｓ,,株式会社,埼玉県,さいたま市南区,曲本３丁目１－１１－１０１,,11,108,3360033,,,,,,,2023-03-20,1,,,,,ウェイビーズ,0
313,2040001127497,新規,0,2023-03-20,2023-03-20,株式会社創建,,株式会社,千葉県,千葉市稲毛区,天台４丁目８番１－１０３号,,12,103,2630016,,,,,,,2023-03-20,1,,,,,ソウケン,0
314,2040001127563,新規,0,2023-03-20,2023-03-20,株式会社Ｐｌａｎ　Ｂ,,株式会社,千葉県,市川市,塩浜４丁目２番３１棟１０１号,,12,203,2720127,,,,,,,2023-03-20,1,,,,,プランビー,0
316,2040003022201,新規,0,2023-03-20,2023-03-20,合同会社ヒューマンプロテクトアドバイザー,,合同会社,千葉県,鎌ケ谷市,くぬぎ山１丁目３番８号,,12,224,2730128,,,,,,,2023-03-20,1,,,,,ヒューマンプロテクトアドバイザー,0
317,2040003022218,新規,0,2023-03-20,2023-03-20,合同会社Ｒ．Ｅ,,合同会社,千葉県,千葉市中央区,富士見２丁目７番９号富士見ビル６０９号,,12,101,2600015,,,,,,,2023-03-20,1,,,,,アールイー,0
322,2090003002280,新規,0,2023-03-20,2023-03-20,Ｏｋｉｔａ　Ｂｏｎｄ合同会社,,合同会社,山梨県,笛吹市,一宮町金田１２２３番地,,19,211,4050079,,,,,,,2023-03-20,1,,,,,オーキタボンド,0
325,2100003006924,新規,0,2023-03-20,2023-03-20,ＯＨＫＡ合同会社,,合同会社,長野県,北佐久郡軽井沢町,大字長倉２４１番地１４,,20,321,3890111,,,,,,,2023-03-20,1,,,,,オウカ,0
347,2120003023645,新規,0,2023-03-20,2023-03-20,合同会社Ｃ‐ＷａＰ,,合同会社,大阪府,大阪市鶴見区,鶴見２丁目４番７号リブラン山内１０２号,,27,124,5380053,,,,,,,2023-03-20,1,,,,,シーワープ,0
357,2120901047274,新規,0,2023-03-20,2023-03-20,株式会社丸井地所Ｓｍｉｌｅ,,株式会社,大阪府,高槻市,芥川町１丁目２番Ａ－１１０号,,27,207,5691123,,,,,,,2023-03-20,1,,,,,マルイジショスマイル,0
363,2130001073889,新規,0,2023-03-20,2023-03-20,株式会社千昇堂,,株式会社,京都府,京都市西京区,大原野東境谷町１丁目１番地１１棟５０３号,,26,111,6101143,,,,,,,2023-03-20,1,,,,,センショウドウ,0
364,2130001073897,新規,0,2023-03-20,2023-03-20,共合貿易株式会社,,株式会社,京都府,京都市左京区,吉田中大路町２２－２０４室,,26,103,6068313,,,,,,,2023-03-20,1,,,,,キョウゴウボウエキ,0
367,2130003008595,新規,0,2023-03-20,2023-03-20,ＲＫＲ合同会社,,合同会社,京都府,京都市西京区,大枝南福西町２丁目７番地の１２,,26,111,6101113,,,,,,,2023-03-20,1,,,,,アールケーアール,0
368,2130005016720,新規,0,2023-03-20,2023-03-20,一般社団法人レイブリ,,その他の設立登記法人,京都府,京都市下京区,七条通油小路東入大黒町２２７番地,,26,106,6008223,,,,,,,2023-03-20,1,,,,,レイブリ,0
372,2140001129475,新規,0,2023-03-20,2023-03-20,取付検査機関株式会社,,株式会社,兵庫県,神戸市西区,伊川谷町井吹２０２番地,,28,111,6512106,,,,,,,2023-03-20,1,,,,,トリツケケンサキカン,0
373,2140001129500,新規,0,2023-03-20,2023-03-20,株式会社本田興業,,株式会社,兵庫県,神戸市西区,伊川谷町有瀬１０６６－７－５０１,,28,111,6512113,,,,,,,2023-03-20,1,,,,,ホンダコウギョウ,0
374,2140001129509,新規,0,2023-03-20,2023-03-20,株式会社ＰＯＲＴビルテック,,株式会社,兵庫県,神戸市中央区,元町通４丁目６番２１号,,28,110,6500022,,,,,,,2023-03-20,1,,,,,ポートビルテック,0
380,2140005026520,新規,0,2023-03-20,2023-03-20,医療法人社団加古川皮膚科クリニック,,その他の設立登記法人,兵庫県,加古川市,加古川町粟津２１８番地の１,,28,210,6750039,,,,,,,2023-03-20,1,,,,,カコガワヒフカクリニック,0
386,2180001155352,新規,0,2023-03-20,2023-03-20,株式会社バブイパートナーズ,,株式会社,愛知県,名古屋市東区,古出来１丁目２番１６号,,23,102,4610049,,,,,,,2023-03-20,1,,,,,バブイパートナーズ,0
387,2180001155427,新規,0,2023-03-20,2023-03-20,株式会社Ｆｏｓｓｅｔｔｅ,,株式会社,愛知県,名古屋市中区,正木４丁目６番６号第１３フクマルビル５０１号,,23,106,4600024,,,,,,,2023-03-20,1,,,,,フォセット,0
388,2180001155443,新規,0,2023-03-20,2023-03-20,株式会社Ｋトラスト,,株式会社,愛知県,名古屋市南区,平子１丁目２番１０号（ライオンズ新瑞橋グランゲート９１５号）,,23,112,4570001,,,,,,,2023-03-20,1,,,,,ケイトラスト,0
390,2180301037184,新規,0,2023-03-20,2023-03-20,株式会社７Ｔｏｎｅｓ　Ｓｔｕｄｉｏ,,株式会社,愛知県,豊田市,五ケ丘１丁目２４番地１１,,23,211,4710814,,,,,,,2023-03-20,1,,,,,,0
399,2240001061239,新規,0,2023-03-20,2023-03-20,株式会社レクレホールディングス,,株式会社,広島県,呉市,宝町２番２３－１号,,34,202,7370029,,,,,,,2023-03-20,1,,,,,レクレホールディングス,0
401,2250001020020,新規,0,2023-03-20,2023-03-20,株式会社ラゲッジ,,株式会社,山口県,山口市,小郡令和１丁目１番１号ＫＤＤＩ維新ホール１階Ｍｅｇｒｉｂａ内,,35,203,7540041,,,,,,,2023-03-20,1,,,,,ラゲッジ,0
403,2260001037749,新規,0,2023-03-20,2023-03-20,株式会社葵鳥事務所,,株式会社,岡山県,岡山市北区,弓之町２番９号,,33,101,7000817,,,,,,,2023-03-20,1,,,,,アオイトリジムショ,0
414,2290001100933,新規,0,2023-03-20,2023-03-20,株式会社ローゼロテック,,株式会社,福岡県,糸島市,二丈深江７８２番地,,40,230,8191601,,,,,,,2023-03-20,1,,,,,ローゼロテック,0
415,2290001100941,新規,0,2023-03-20,2023-03-20,株式会社Ａｍｉｔｉｅ,,株式会社,福岡県,福岡市城南区,田島５丁目２－５－１０２,,40,136,8140113,,,,,,,2023-03-20,1,,,,,アミティエ,0
419,2290003013670,新規,0,2023-03-20,2023-03-20,Ｋｙｕｓｈｕ　Ｆｅａｓｔ合同会社,,合同会社,福岡県,みやま市,瀬高町文廣１１６５番地,,40,229,8350022,,,,,,,2023-03-20,1,,,,,キュウシュウフィースト,0
420,2290003013687,新規,0,2023-03-20,2023-03-20,Ｈ．Ｌプランニング合同会社,,合同会社,福岡県,久留米市,南４丁目５番２号,,40,203,8300051,,,,,,,2023-03-20,1,,,,,エイチエルプランニング,0
429,2360001031733,新規,0,2023-03-20,2023-03-20,株式会社西建,,株式会社,沖縄県,南城市,玉城字船越１３４３番地２,,47,215,9010618,,,,,,,2023-03-20,1,,,,,ニシケン,0
432,2370001049725,新規,0,2023-03-20,2023-03-20,株式会社福丸,,株式会社,宮城県,仙台市泉区,鶴が丘１丁目４６番地の１７,,04,105,9813109,,,,,,,2023-03-20,1,,,,,フクマル,0
433,2370001049733,新規,0,2023-03-20,2023-03-20,株式会社パン・バーニャ,,株式会社,宮城県,仙台市青葉区,柏木１丁目２８番地２２,,04,101,9810933,,,,,,,2023-03-20,1,,,,,パンバーニャ,0
435,2370003006039,新規,0,2023-03-20,2023-03-20,合同会社ＯＭＣ,,合同会社,宮城県,石巻市,中央１丁目１４番５－１７０１号,,04,202,9860822,,,,,,,2023-03-20,1,,,,,オーエムシー,0
440,2420001018195,新規,0,2023-03-20,2023-03-20,株式会社ＫＹＯＹＡ,,株式会社,青森県,つがる市,木造大畑滝井９番地,,02,209,0383277,,,,,,,2023-03-20,1,,,,,キョーヤ,0
444,2430001088659,新規,0,2023-03-20,2023-03-20,株式会社鈴木電設,,株式会社,北海道,札幌市東区,北二十二条東３丁目１番３５号,,01,103,0650022,,,,,,,2023-03-20,1,,,,,スズキデンセツ,0
445,2430001088675,新規,0,2023-03-20,2023-03-20,株式会社ＰＵＬＣＩＮＯ,,株式会社,北海道,札幌市東区,北七条東８丁目２番１号,,01,103,0650007,,,,,,,2023-03-20,1,,,,,プルチーノ,0
447,2430003014852,新規,0,2023-03-20,2023-03-20,合同会社匠技研,,合同会社,北海道,札幌市南区,川沿十一条３丁目３番３号,,01,106,0050811,,,,,,,2023-03-20,1,,,,,タクミギケン,0
450,2490003001754,新規,0,2023-03-20,2023-03-20,合同会社Ｌｏｔｕｓ,,合同会社,高知県,高知市,神田１０６０－１,,39,201,7808040,,,,,,,2023-03-20,1,,,,,ロータス,0
462,3010001233826,新規,0,2023-03-20,2023-03-20,ＣＬＯＵＳ　ＰＬＵＳ株式会社,,株式会社,東京都,千代田区,紀尾井町３－３３－５Ｆ,,13,101,1020094,,,,,,,2023-03-20,1,,,,,クラウドプラス,0
463,3010001233867,新規,0,2023-03-20,2023-03-20,まねく．ｊｐ株式会社,,株式会社,東京都,中央区,銀座１丁目１２番地４号Ｎ＆ＥＢＬＤ．６Ｆ,,13,102,1040061,,,,,,,2023-03-20,1,,,,,マネクドットジェイピー,0
465,3010003040097,新規,0,2023-03-20,2023-03-20,ティントリマーケティング合同会社,,合同会社,東京都,千代田区,四番町６番地２東急番町ビル８Ｆ,,13,101,1020081,,,,,,,2023-03-20,1,,,,,ティントリマーケティング,0
466,3010003040130,新規,0,2023-03-20,2023-03-20,合同会社ＰｏｌｅＳｈｉｆｔ,,合同会社,東京都,中央区,銀座１丁目１２番４号Ｎ＆ＥＢＬＤ．６Ｆ,,13,102,1040061,,,,,,,2023-03-20,1,,,,,ポールシフト,0
482,3010901052739,新規,0,2023-03-20,2023-03-20,ボールド株式会社,,株式会社,東京都,世田谷区,上馬１丁目３２番８－１４０３号,,13,112,1540011,,,,,,,2023-03-20,1,,,,,ボールド,0
486,3011001153130,新規,0,2023-03-20,2023-03-20,株式会社ＳＴ　ＣＯＮＳＵＬＴＩＮＧ,,株式会社,東京都,渋谷区,神宮前６丁目２３番４号桑野ビル２階,,13,113,1500001,,,,,,,2023-03-20,1,,,,,エスティコンサルティング,0
487,3011001153171,新規,0,2023-03-20,2023-03-20,株式会社Ａｔａｒａｙｏ,,株式会社,東京都,渋谷区,桜丘町２３番１７号シティコート桜丘４０８,,13,113,1500031,,,,,,,2023-03-20,1,,,,,アタラヨ,0
488,3011001153196,新規,0,2023-03-20,2023-03-20,ＲＥＣＴＯＩＳＥ株式会社,,株式会社,東京都,渋谷区,本町６丁目２番２１号シエルテラス１０５,,13,113,1510071,,,,,,,2023-03-20,1,,,,,レクトイズ,0
489,3011001153238,新規,0,2023-03-20,2023-03-20,八代ミュージック＆ギャラリー株式会社,,株式会社,東京都,目黒区,八雲３丁目１１番２号ミリオンビル１階,,13,110,1520023,,,,,,,2023-03-20,1,,,,,ヤシロミュージックアンドギャラリー,0
490,3011003016442,新規,0,2023-03-20,2023-03-20,Ｈｕｍａｎｉａ合同会社,,合同会社,東京都,目黒区,八雲５丁目１５番８号,,13,110,1520023,,,,,,,2023-03-20,1,,,,,ヒューマニア,0
493,3011101102202,新規,0,2023-03-20,2023-03-20,株式会社Ｎ‐ｋａｒａ,,株式会社,東京都,新宿区,西新宿３丁目３番１３号西新宿水間ビル６階,,13,104,1600023,,,,,,,2023-03-20,1,,,,,エヌカラ,0
494,3011201024511,新規,0,2023-03-20,2023-03-20,株式会社ＪＯＤ,,株式会社,東京都,中野区,上高田１丁目４６番５号,,13,114,1640002,,,,,,,2023-03-20,1,,,,,ジェイオーディー,0
496,3011203004032,新規,0,2023-03-20,2023-03-20,ｏｎ　Ｔｈｅ　ｓｉＤｅ合同会社,,合同会社,東京都,中野区,鷺宮５丁目１８番１０号,,13,114,1650032,,,,,,,2023-03-20,1,,,,,,0
498,3011701026081,新規,0,2023-03-20,2023-03-20,アセットファクトリー株式会社,,株式会社,東京都,江戸川区,東葛西５丁目２番１８号,,13,123,1340084,,,,,,,2023-03-20,1,,,,,アセットファクトリー,0
500,3011801042111,新規,0,2023-03-20,2023-03-20,望月国際貿易株式会社,,株式会社,東京都,足立区,竹の塚３丁目１５番２０号,,13,121,1210813,,,,,,,2023-03-20,1,,,,,モチヅキコクサイボウエキ,0
501,3011803005561,新規,0,2023-03-20,2023-03-20,合同会社ＢｉＢｉ,,合同会社,東京都,足立区,竹の塚６丁目３番１５号ラヤマビル竹ノ塚４０２,,13,121,1210813,,,,,,,2023-03-20,1,,,,,ビビ,0
506,3012803003035,新規,0,2023-03-20,2023-03-20,合同会社エスアンドエスグループ,,合同会社,東京都,立川市,富士見町６丁目４８番３１号第一ハイツ立川５０４,,13,202,1900013,,,,,,,2023-03-20,1,,,,,エスアンドエスグループ,0
507,3012805003181,新規,0,2023-03-20,2023-03-20,一般社団法人国立ごはん,,その他の設立登記法人,東京都,国立市,中１丁目１０番地の２２天神ビル３階,,13,215,1860004,,,,,,,2023-03-20,1,,,,,クニタチゴハン,0
514,3020003023539,新規,0,2023-03-20,2023-03-20,ニアカリ合同会社,,合同会社,神奈川県,川崎市川崎区,中島３丁目９番１１号,,14,131,2100806,,,,,,,2023-03-20,1,,,,,ニアカリ,0
519,3021003012886,新規,0,2023-03-20,2023-03-20,Ｍａｙａｋｏ　Ｔｏｋｉ，ＣＰＡ合同会社,,合同会社,神奈川県,中郡大磯町,大磯６８７－３,,14,341,2550003,,,,,,,2023-03-20,1,,,,,マヤコトキシーピーエー,0
520,3021005012760,新規,0,2023-03-20,2023-03-20,一般社団法人ＡＭＩセンター,,その他の設立登記法人,神奈川県,平塚市,桃浜町１８番２８－２号,,14,203,2540815,,,,,,,2023-03-20,1,,,,,エーエムアイセンター,0
528,3040001127505,新規,0,2023-03-20,2023-03-20,株式会社Ｌａｚｏ　ｅｔｅｒｎａｌ,,株式会社,千葉県,八街市,八街ほ２２４番地１６東ビル２０２号室,,12,230,2891115,,,,,,,2023-03-20,1,,,,,ラソエターナル,0
529,3040001127513,新規,0,2023-03-20,2023-03-20,株式会社クラーク,,株式会社,千葉県,佐倉市,西志津３丁目１番７－２０４号,,12,212,2850845,,,,,,,2023-03-20,1,,,,,クラーク,0
530,3040001127554,新規,0,2023-03-20,2023-03-20,光陽総建株式会社,,株式会社,千葉県,八街市,東吉田７２７番地４,,12,230,2891114,,,,,,,2023-03-20,1,,,,,コウヨウソウケン,0
531,3040001127562,新規,0,2023-03-20,2023-03-20,株式会社ラズリライト,,株式会社,千葉県,松戸市,秋山２丁目１４－２６,,12,207,2702223,,,,,,,2023-03-20,1,,,,,ラズリライト,0
532,3040001127570,新規,0,2023-03-20,2023-03-20,株式会社アールワン,,株式会社,千葉県,市川市,下新宿８番１８号,,12,203,2720102,,,,,,,2023-03-20,1,,,,,アールワン,0
534,3040003022191,新規,0,2023-03-20,2023-03-20,野村電機合同会社,,合同会社,千葉県,松戸市,栄町７丁目５２９番地の９,,12,207,2710062,,,,,,,2023-03-20,1,,,,,ノムラデンキ,0
536,3050001052545,新規,0,2023-03-20,2023-03-20,株式会社福祉計画,,株式会社,茨城県,つくば市,鬼ケ窪１０４７－１,,08,220,3002651,,,,,,,2023-03-20,1,,,,,フクシケイカク,0
539,3060001035805,新規,0,2023-03-20,2023-03-20,ＰＯＢＬＥ株式会社,,株式会社,栃木県,真岡市,久下田１２９３番地１,,09,209,3214521,,,,,,,2023-03-20,1,,,,,ポブラ,0
540,3060003004477,新規,0,2023-03-20,2023-03-20,ＫＡＩパートナー合同会社,,合同会社,栃木県,芳賀郡茂木町,大字茂木４３１番地４,,09,343,3213531,,,,,,,2023-03-20,1,,,,,カイパートナー,0
549,3100001036237,新規,0,2023-03-20,2023-03-20,株式会社シナノキの杜,,株式会社,長野県,長野市,広田７７番地,,20,201,3812213,,,,,,,2023-03-20,1,,,,,シナノキノモリ,0
551,3100003006931,新規,0,2023-03-20,2023-03-20,合同会社東信州立花農場,,合同会社,長野県,北佐久郡立科町,大字塩沢１７５８番地,,20,324,3842303,,,,,,,2023-03-20,1,,,,,ヒガシシンシュウタチバナノウジョウ,0
552,3110001037382,新規,0,2023-03-20,2023-03-20,８６‐Ｐｒｏｊｅｃｔｓ株式会社,,株式会社,新潟県,新潟市中央区,天神１丁目１プラーカ３－２Ｆ,,15,103,9500917,,,,,,,2023-03-20,1,,,,,ハチロクプロジェクツ,0
559,3120001253359,新規,0,2023-03-20,2023-03-20,グラシアズ株式会社,,株式会社,大阪府,大阪市北区,堂山町１－５三共梅田ビル７階オギャーズ梅田内,,27,127,5300027,,,,,,,2023-03-20,1,,,,,グラシアズ,0
560,3120001253367,新規,0,2023-03-20,2023-03-20,株式会社土岐装建,,株式会社,大阪府,守口市,藤田町２丁目２１番７号,,27,209,5700014,,,,,,,2023-03-20,1,,,,,ドキソウケン,0
561,3120001253383,新規,0,2023-03-20,2023-03-20,株式会社Ｇｒａｔｉｏ,,株式会社,大阪府,大阪市北区,梅田１丁目２番２号大阪駅前第２ビル１２－１２,,27,127,5300001,,,,,,,2023-03-20,1,,,,,グラティオ,0
565,3120101067147,新規,0,2023-03-20,2023-03-20,株式会社グレードアップ,,株式会社,大阪府,和泉市,伯太町１丁目１１番４１号,,27,219,5940023,,,,,,,2023-03-20,1,,,,,グレードアップ,0
568,3122001036801,新規,0,2023-03-20,2023-03-20,株式会社ＥＡＲＴＨ　ＨＯＵＳＥ,,株式会社,大阪府,八尾市,東山本新町９丁目７番８号,,27,212,5810866,,,,,,,2023-03-20,1,,,,,アースハウス,0
571,3130001073896,新規,0,2023-03-20,2023-03-20,株式会社ＤｏｇＴｒａｉｎｉｎｇＧＩＮＧＡ,,株式会社,京都府,京都市山科区,小野御所ノ内町１番地１８８,,26,110,6078255,,,,,,,2023-03-20,1,,,,,ドッグトレーニングギンガ,0
583,3180001155418,新規,0,2023-03-20,2023-03-20,株式会社アセットスタジオ,,株式会社,愛知県,名古屋市中区,古渡町１５番２２号,,23,106,4600025,,,,,,,2023-03-20,1,,,,,アセットスタジオ,0
584,3180001155426,新規,0,2023-03-20,2023-03-20,株式会社ｔｈｅ　Ｅａｒｔｈ,,株式会社,愛知県,知多郡武豊町,字前田３４番地１,,23,447,4702338,,,,,,,2023-03-20,1,,,,,ジアース,0
590,3190001030256,新規,0,2023-03-20,2023-03-20,株式会社エスアイシーテック,,株式会社,三重県,鈴鹿市,上箕田１丁目２６２３－５,,24,207,5130056,,,,,,,2023-03-20,1,,,,,エスアイシーテック,0
596,3230001019749,新規,0,2023-03-20,2023-03-20,ｎａｎｄｏ株式会社,,株式会社,富山県,南砺市,本町３丁目２８番地１,,16,210,9320217,,,,,,,2023-03-20,1,,,,,ナンド,0
597,3230003001985,新規,0,2023-03-20,2023-03-20,合同会社ＨＡＬＵ,,合同会社,富山県,富山市,布瀬町南３丁目２番地１５,,16,201,9398208,,,,,,,2023-03-20,1,,,,,ハル,0
619,3290001100932,新規,0,2023-03-20,2023-03-20,Ｂｅｙｏｎｄコンサルティング株式会社,,株式会社,福岡県,福岡市南区,長丘２丁目２７番６号,,40,134,8150075,,,,,,,2023-03-20,1,,,,,ビヨンドコンサルティング,0
624,3290801029388,新規,0,2023-03-20,2023-03-20,株式会社ＯＮＥ,,株式会社,福岡県,北九州市八幡西区,引野２丁目１２番４６号,,40,109,8060067,,,,,,,2023-03-20,1,,,,,ワン,0
633,3330001030687,新規,0,2023-03-20,2023-03-20,株式会社九州和牛専門店,,株式会社,熊本県,玉名市,岱明町野口２０７７番地２,,43,206,8690222,,,,,,,2023-03-20,1,,,,,キュウシュウワギュウセンモンテン,0
637,3360001031674,新規,0,2023-03-20,2023-03-20,株式会社ティーダ運送,,株式会社,沖縄県,那覇市,識名２丁目９番２０号,,47,201,9020078,,,,,,,2023-03-20,1,,,,,ティーダウンソウ,0
638,3360001031724,新規,0,2023-03-20,2023-03-20,株式会社Ｔａｋｉ　Ｔｏｋ,,株式会社,沖縄県,うるま市,石川東恩納６０番地２,,47,213,9041111,,,,,,,2023-03-20,1,,,,,タッキトック,0
639,3360003012821,新規,0,2023-03-20,2023-03-20,合同会社まとばクリエイト,,合同会社,沖縄県,浦添市,伊祖１丁目２４－９ワイズＥＣ伊祖ウェスト１４０３,,47,208,9012132,,,,,,,2023-03-20,1,,,,,マトバクリエイト,0
644,3380001033561,新規,0,2023-03-20,2023-03-20,株式会社ミナミデザインオフィス,,株式会社,福島県,福島市,土船字上林３番地の８,,07,201,9602152,,,,,,,2023-03-20,1,,,,,ミナミデザインオフィス,0
645,3380005012693,新規,0,2023-03-20,2023-03-20,医療法人悠心会,,その他の設立登記法人,福島県,いわき市,好間町下好間字一町坪４９番地の３,,07,204,9701151,,,,,,,2023-03-20,1,,,,,ユウシンカイ,0
647,3420001018194,新規,0,2023-03-20,2023-03-20,猪股ビジネスサポート株式会社,,株式会社,青森県,黒石市,ぐみの木１丁目２４０番地,,02,204,0360316,,,,,,,2023-03-20,1,,,,,イノマタビジネスサポート,0
659,3500001024820,新規,0,2023-03-20,2023-03-20,株式会社岡山水産,,株式会社,愛媛県,宇和島市,吉田町南君３０７５番地１,,38,203,7993771,,,,,,,2023-03-20,1,,,,,オカヤマスイサン,0
663,4010001233759,新規,0,2023-03-20,2023-03-20,株式会社青月社ホールディングス,,株式会社,東京都,千代田区,岩本町３丁目２番１号,,13,101,1010032,,,,,,,2023-03-20,1,,,,,セイゲツシャホールディングス,0
664,4010001233825,新規,0,2023-03-20,2023-03-20,いろは実業株式会社,,株式会社,東京都,文京区,白山４丁目３０番１０号,,13,105,1120001,,,,,,,2023-03-20,1,,,,,イロハジツギョウ,0
665,4010001233833,新規,0,2023-03-20,2023-03-20,株式会社Ｍｅｔａ　Ｃｈｅｅｓｅ,,株式会社,東京都,中央区,銀座１丁目１２番４号Ｎ＆ＥＢＬＤ．６Ｆ,,13,102,1040061,,,,,,,2023-03-20,1,,,,,メタチーズ,0
667,4010003040096,新規,0,2023-03-20,2023-03-20,合同会社ねっこ‐ＤＥＳＩＧＮ‐ＡＮＤ,,合同会社,東京都,中央区,日本橋室町１丁目１１番１２号日本橋水野ビル７階,,13,102,1030022,,,,,,,2023-03-20,1,,,,,ネッコデザインアンド,0
673,4010401173183,新規,0,2023-03-20,2023-03-20,ｙａｓ株式会社,,株式会社,東京都,港区,三田３丁目５番２７号ラ・トゥール三田３５１０,,13,103,1080073,,,,,,,2023-03-20,1,,,,,ヤス,0
674,4010401173191,新規,0,2023-03-20,2023-03-20,Ｍ＆Ｕ株式会社,,株式会社,東京都,港区,東麻布１丁目１０－１３アネックス東麻布６階,,13,103,1060044,,,,,,,2023-03-20,1,,,,,エムアンドユー,0
677,4010501050167,新規,0,2023-03-20,2023-03-20,株式会社ｏｎｅ　ｍｉｌｌｉｏｎ,,株式会社,東京都,台東区,千束４丁目４３番２－５０４号,,13,106,1110031,,,,,,,2023-03-20,1,,,,,ワンミリオン,0
683,4010901052713,新規,0,2023-03-20,2023-03-20,Ｃｒｏｓｓｏｖｅｒ　Ｇｒｏｕｐ株式会社,,株式会社,東京都,世田谷区,弦巻１丁目５１番６－１０６号,,13,112,1540016,,,,,,,2023-03-20,1,,,,,,0
684,4010901052738,新規,0,2023-03-20,2023-03-20,株式会社Ｔ‐ＪＵＮＣＴＩＯＮ,,株式会社,東京都,世田谷区,北沢２丁目２３－１２下北沢デントビル３Ｂ,,13,112,1550031,,,,,,,2023-03-20,1,,,,,ティージャンクション,0
689,4011001153121,新規,0,2023-03-20,2023-03-20,株式会社オヴニル,,株式会社,東京都,渋谷区,代々木４丁目２６番１号アルス代々木参宮橋コートアデリオン３０８,,13,113,1510053,,,,,,,2023-03-20,1,,,,,オヴニル,0
690,4011001153170,新規,0,2023-03-20,2023-03-20,株式会社ＯＭＧ,,株式会社,東京都,渋谷区,恵比寿西１丁目３２－４パームヒルズ代官山１Ｆ,,13,113,1500021,,,,,,,2023-03-20,1,,,,,オーエムジー,0
691,4011001153204,新規,0,2023-03-20,2023-03-20,株式会社ボランチ,,株式会社,東京都,渋谷区,神宮前５丁目４７番１０号ＯＤ表参道ビル４階,,13,113,1500001,,,,,,,2023-03-20,1,,,,,ボランチ,0
692,4011001153278,新規,0,2023-03-20,2023-03-20,株式会社クラメル,,株式会社,東京都,渋谷区,南平台町１６番２８号Ｄａｉｗａ渋谷スクエア６Ｆ,,13,113,1500036,,,,,,,2023-03-20,1,,,,,クラメル,0
694,4011003016441,新規,0,2023-03-20,2023-03-20,ｃｒｅａｔｉｖｅｓｏｅｒｕ合同会社,,合同会社,東京都,渋谷区,渋谷２丁目１９－１５宮益坂ビルディング６０９,,13,113,1500002,,,,,,,2023-03-20,1,,,,,クリエイティブソエル,0
700,4011401024987,新規,0,2023-03-20,2023-03-20,株式会社Ｖｖｉｎｏ,,株式会社,東京都,板橋区,高島平１丁目７８番１０号、日神パレス西台第二５１１号室,,13,119,1750082,,,,,,,2023-03-20,1,,,,,ビビーノ,0
701,4011601026668,新規,0,2023-03-20,2023-03-20,Ａｒｃｈｐｌａｎ　Ｃｏｎｓｕｌｔｉｎｇ株式会社,,株式会社,東京都,練馬区,南大泉４丁目２４番１２号,,13,120,1780064,,,,,,,2023-03-20,1,,,,,アーチプランコンサルティング,0
709,4013103001216,新規,0,2023-03-20,2023-03-20,未來図トランスポーター合同会社,,合同会社,東京都,西多摩郡日の出町,大字平井３２３１番地５,,13,305,1900182,,,,,,,2023-03-20,1,,,,,ミライズトランスポーター,0
718,4021001078482,新規,0,2023-03-20,2023-03-20,株式会社ＯＬＩＶＥｉｎｇ,,株式会社,神奈川県,藤沢市,弥勒寺２丁目２－２７,,14,205,2510016,,,,,,,2023-03-20,1,,,,,オリービング,0
722,4030001152940,新規,0,2023-03-20,2023-03-20,鈴野株式会社,,株式会社,埼玉県,所沢市,小手指町３丁目７番地の３煉瓦館２５－１０３,,11,208,3591141,,,,,,,2023-03-20,1,,,,,スズノ,0
723,4030003021367,新規,0,2023-03-20,2023-03-20,合同会社アルバトロス,,合同会社,埼玉県,川口市,大字安行領根岸１０２７－１川口根岸パークホームズ弐番館８０１,,11,203,3330834,,,,,,,2023-03-20,1,,,,,アルバトロス,0
729,4040003022224,新規,0,2023-03-20,2023-03-20,合同会社スチールテック,,合同会社,千葉県,船橋市,習志野台６丁目３番１－１３０号,,12,204,2740063,,,,,,,2023-03-20,1,,,,,スチールテック,0
736,4080401026376,新規,0,2023-03-20,2023-03-20,株式会社ＨＵＭＡＮＳ　ＧＬＯＢＡＬ　ＩＮＳＴＩＴＵＴＥ,,株式会社,静岡県,浜松市南区,石原町７９０番地の１古山テラスハウスＢ号室,,22,134,4350033,,,,,,,2023-03-20,1,,,,,ヒューマンズグローバルインスティテュート,0
737,4080401026384,新規,0,2023-03-20,2023-03-20,株式会社Ｑ‐ｄｅａｖｏｒ,,株式会社,静岡県,浜松市東区,西塚町３０５番地の４テラスハウス鈴木Ａ棟Ａ２,,22,132,4350044,,,,,,,2023-03-20,1,,,,,キューデバー,0
741,4110001037381,新規,0,2023-03-20,2023-03-20,株式会社Ｏｔａｓ,,株式会社,新潟県,見附市,学校町２丁目５番２４号,,15,211,9540052,,,,,,,2023-03-20,1,,,,,オータス,0
748,4120001253333,新規,0,2023-03-20,2023-03-20,株式会社いし川,,株式会社,大阪府,守口市,藤田町１丁目４６番１号,,27,209,5700014,,,,,,,2023-03-20,1,,,,,イシカワ,0
749,4120001253358,新規,0,2023-03-20,2023-03-20,株式会社Ｎチャレンジ,,株式会社,大阪府,大阪市西淀川区,福町１丁目１２－３４－７１７,,27,113,5550034,,,,,,,2023-03-20,1,,,,,エヌチャレンジ,0
750,4120001253366,新規,0,2023-03-20,2023-03-20,Ｇｌａｎｚ株式会社,,株式会社,大阪府,守口市,寺方本通２丁目６－３－Ｂ－２０３,,27,209,5700048,,,,,,,2023-03-20,1,,,,,グランツ,0
751,4120001253382,新規,0,2023-03-20,2023-03-20,株式会社日新精工業,,株式会社,大阪府,大阪市淀川区,宮原１丁目１９番２３－９２０号,,27,123,5320003,,,,,,,2023-03-20,1,,,,,ニッシンセイコウギョウ,0
752,4120003023635,新規,0,2023-03-20,2023-03-20,ｋ‐ｈａｓｈｉｉ‐ｊａｐａｎ．ｃｏｍ合同会社,,合同会社,大阪府,大阪市鶴見区,横堤５丁目５番５５号,,27,124,5380052,,,,,,,2023-03-20,1,,,,,ケイハイフンハシイハイフンジャパンドットコム,0
763,4120901047272,新規,0,2023-03-20,2023-03-20,株式会社Ｉ　Ｂｒｅａｚ　Ａｓｓｅｔｓ,,株式会社,大阪府,吹田市,古江台１丁目２７番１０号,,27,205,5650874,,,,,,,2023-03-20,1,,,,,アイブレズアセッツ,0
764,4120903004544,新規,0,2023-03-20,2023-03-20,合同会社リクリエイトインフラメンテナンス,,合同会社,大阪府,池田市,城山町２番１２号,,27,204,5630052,,,,,,,2023-03-20,1,,,,,リクリエイトインフラメンテナンス,0
777,4140003018848,新規,0,2023-03-20,2023-03-20,合同会社オフィスミナミ,,合同会社,兵庫県,神戸市中央区,中山手通７丁目２３番１６号,,28,110,6500004,,,,,,,2023-03-20,1,,,,,オフィスミナミ,0
778,4140003018864,新規,0,2023-03-20,2023-03-20,合同会社Ｅｍｍａ,,合同会社,兵庫県,明石市,桜町１４－２２－４０５,,28,203,6730885,,,,,,,2023-03-20,1,,,,,エマ,0
779,4150005009464,新規,0,2023-03-20,2023-03-20,一般社団法人下北山つちのこパーク,,その他の設立登記法人,奈良県,吉野郡下北山村,大字上桑原８４９番地,,29,450,6393808,,,,,,,2023-03-20,1,,,,,シモキタヤマツチノコパーク,0
786,4180001155383,新規,0,2023-03-20,2023-03-20,株式会社Ｍプロジェクト,,株式会社,愛知県,名古屋市中区,金山１丁目２番４号ＩＤエリアビル４０３号,,23,106,4600022,,,,,,,2023-03-20,1,,,,,エムプロジェクト,0
787,4180001155433,新規,0,2023-03-20,2023-03-20,東白壁メディカルサービス株式会社,,株式会社,愛知県,名古屋市東区,代官町３番１２号,,23,102,4610002,,,,,,,2023-03-20,1,,,,,ヒガシシラカベメディカルサービス,0
788,4180001155458,新規,0,2023-03-20,2023-03-20,株式会社Ｆｉｒｓｔ　Ｉｎ　Ｔｒｕｓｔ,,株式会社,愛知県,名古屋市北区,中丸町１丁目１番地中丸団地３棟８０１号,,23,103,4620056,,,,,,,2023-03-20,1,,,,,ファーストイントラスト,0
792,4180003024999,新規,0,2023-03-20,2023-03-20,合同会社ＭＥＴＳＡ,,合同会社,愛知県,名古屋市千種区,東山通５丁目３０－２、４階,,23,101,4640807,,,,,,,2023-03-20,1,,,,,メッツァ,0
805,4220001025318,新規,0,2023-03-20,2023-03-20,株式会社ＦＴＳ,,株式会社,石川県,金沢市,片町２丁目２１番２２号ＥＸＹビル３Ｆ,,17,201,9200981,,,,,,,2023-03-20,1,,,,,エフティエス,0
807,4230003001984,新規,0,2023-03-20,2023-03-20,Ｓｈｉｍｏｏ　Ａｓｓｅｔ　Ｍａｎａｇｅｍｅｎｔ　Ｃｏｍｐａｎｙ合同会社,,合同会社,富山県,富山市,八尾町松原２５１番地８,,16,201,9392367,,,,,,,2023-03-20,1,,,,,シモオアセットマネジメントカンパニー,0
808,4230005009282,新規,0,2023-03-20,2023-03-20,一般社団法人富山県信用調査事業協会,,その他の設立登記法人,富山県,富山市,越前町３番５号谷川ビル２階,,16,201,9300067,,,,,,,2023-03-20,1,,,,,トヤマケンシンヨウチョウサジギョウキョウカイ,0
810,4240005015544,新規,0,2023-03-20,2023-03-20,医療法人純医会三上内科医院,,その他の設立登記法人,広島県,広島市南区,松原町３番１－２０５号,,34,103,7320822,,,,,,,2023-03-20,1,,,,,ジュンイカイミカミナイカイイン,0
815,4290003013685,新規,0,2023-03-20,2023-03-20,合同会社ＨＭＳ‐ＪＡＰＡＮ,,合同会社,福岡県,福岡市西区,横浜１丁目４７－１５Ｂ－１,,40,135,8190166,,,,,,,2023-03-20,1,,,,,エイチエムエスジャパン,0
821,4300001013248,新規,0,2023-03-20,2023-03-20,株式会社Ｕ‐ＭＡＮ,,株式会社,佐賀県,小城市,牛津町下砥川２０９番地,,41,208,8490304,,,,,,,2023-03-20,1,,,,,ユーマン,0
829,4350005006144,新規,0,2023-03-20,2023-03-20,一般社団法人いわとむら,,その他の設立登記法人,宮崎県,西臼杵郡高千穂町,大字岩戸１０７３番地１,,45,441,8821621,,,,,,,2023-03-20,1,,,,,イワトムラ,0
830,4360001031731,新規,0,2023-03-20,2023-03-20,株式会社エメラルド,,株式会社,沖縄県,宮古島市,平良字西里７２０番地８－Ｂ,,47,214,9060012,,,,,,,2023-03-20,1,,,,,エメラルド,0
836,4370001049715,新規,0,2023-03-20,2023-03-20,株式会社ビーアップ,,株式会社,宮城県,仙台市青葉区,国分町２丁目２－１６、１Ｆ,,04,101,9800803,,,,,,,2023-03-20,1,,,,,ビーアップ,0
842,4430001088657,新規,0,2023-03-20,2023-03-20,株式会社来豊建設,,株式会社,北海道,札幌市厚別区,厚別西二条５丁目６番２５号,,01,108,0040062,,,,,,,2023-03-20,1,,,,,ライホウケンセツ,0
848,4480003001951,新規,0,2023-03-20,2023-03-20,合同会社９Ｎｉｎｅ,,合同会社,徳島県,板野郡藍住町,徳命字小塚６１番地３,,36,403,7711210,,,,,,,2023-03-20,1,,,,,ナイン,0
863,5010001233857,新規,0,2023-03-20,2023-03-20,株式会社ＭＩＫＥＩ,,株式会社,東京都,中央区,勝どき６丁目３番２－４３０２号,,13,102,1040054,,,,,,,2023-03-20,1,,,,,ミケイ,0
865,5010003039988,新規,0,2023-03-20,2023-03-20,合同会社Ｍｓｈｏｕｓｅ,,合同会社,東京都,小笠原村,母島字静沢わんとね３Ｆ,,13,421,1002211,,,,,,,2023-03-20,1,,,,,エムズハウス,0
866,5010005036397,新規,0,2023-03-20,2023-03-20,一般社団法人Ｊエナジー,,その他の設立登記法人,東京都,千代田区,丸の内３丁目１番１号東京共同会計事務所内,,13,101,1000005,,,,,,,2023-03-20,1,,,,,ジェイエナジー,0
868,5010103002103,新規,0,2023-03-20,2023-03-20,ＧＯＬＤＥＮ　ＪＡＣＫ合同会社,,合同会社,東京都,八王子市,子安町１丁目４８番９号１０２号室,,13,201,1920904,,,,,,,2023-03-20,1,,,,,ゴールデンジャック,0
876,5010501050174,新規,0,2023-03-20,2023-03-20,楽遊苑株式会社,,株式会社,東京都,台東区,松が谷２丁目９番１－２０１号,,13,106,1110036,,,,,,,2023-03-20,1,,,,,ラクユウエン,0
878,5010603010068,新規,0,2023-03-20,2023-03-20,マイクロコズム合同会社,,合同会社,東京都,江東区,辰巳１丁目１－１３,,13,108,1350053,,,,,,,2023-03-20,1,,,,,マイクロコズム,0
887,5010901052737,新規,0,2023-03-20,2023-03-20,株式会社ｆｏｏ,,株式会社,東京都,世田谷区,桜上水２丁目１９番１２号ベルビサージュ３棟,,13,112,1560045,,,,,,,2023-03-20,1,,,,,フー,0
896,5011001153228,新規,0,2023-03-20,2023-03-20,株式会社強み開花,,株式会社,東京都,渋谷区,恵比寿西２丁目８番１－６０３号,,13,113,1500021,,,,,,,2023-03-20,1,,,,,ツヨミカイカ,0
897,5011001153285,新規,0,2023-03-20,2023-03-20,エンジ株式会社,,株式会社,東京都,渋谷区,代々木１丁目３０番１５号天翔オフィス代々木Ｓ－５０２,,13,113,1510053,,,,,,,2023-03-20,1,,,,,エンジ,0
898,5011003016465,新規,0,2023-03-20,2023-03-20,合同会社Ｍａｒｋｅ　Ｖａｌｕｅ,,合同会社,東京都,目黒区,自由が丘３丁目６番６号レジデンス自由が丘２－３０１,,13,110,1520035,,,,,,,2023-03-20,1,,,,,マーケバリュー,0
899,5011003016481,新規,0,2023-03-20,2023-03-20,合同会社スリーブ,,合同会社,東京都,渋谷区,幡ヶ谷３丁目１４番７号,,13,113,1510072,,,,,,,2023-03-20,1,,,,,スリーブ,0
900,5011005009979,新規,0,2023-03-20,2023-03-20,一般財団法人首都大学野球連盟,,その他の設立登記法人,東京都,渋谷区,富ヶ谷１丁目３６番６号齋藤ビル４階,,13,113,1510063,,,,,,,2023-03-20,1,,,,,シュトダイガクヤキュウレンメイ,0
903,5011503005521,新規,0,2023-03-20,2023-03-20,合同会社若林工業,,合同会社,東京都,北区,中十条２丁目１６－１,,13,117,1140032,,,,,,,2023-03-20,1,,,,,ワカバヤシコウギョウ,0
905,5011601026675,新規,0,2023-03-20,2023-03-20,株式会社Ｍｕｓｕｂｉ,,株式会社,東京都,練馬区,平和台１丁目３４－１２,,13,120,1790083,,,,,,,2023-03-20,1,,,,,ムスビ,0
911,5011703003416,新規,0,2023-03-20,2023-03-20,合同会社エバーグリーン・ソリューションズ,,合同会社,東京都,江戸川区,瑞江２丁目５番３号グレイス瑞江５０６,,13,123,1320011,,,,,,,2023-03-20,1,,,,,エバーグリーンソリューションズ,0
918,5013301050484,新規,0,2023-03-20,2023-03-20,株式会社ＦＣ,,株式会社,東京都,豊島区,南大塚１丁目６０番２０号天翔大塚駅前ビル８１０号室,,13,116,1700005,,,,,,,2023-03-20,1,,,,,エフシー,0
924,5021001078481,新規,0,2023-03-20,2023-03-20,株式会社ＡＣＳＳ,,株式会社,神奈川県,相模原市緑区,橋本３丁目２７番６号,,14,151,2520143,,,,,,,2023-03-20,1,,,,,アクス,0
933,5040001127560,新規,0,2023-03-20,2023-03-20,株式会社ボックスマン,,株式会社,千葉県,八千代市,上高野１４３６番地２,,12,221,2760022,,,,,,,2023-03-20,1,,,,,ボックスマン,0
934,5040001127569,新規,0,2023-03-20,2023-03-20,株式会社ＯＧＵＲＡ,,株式会社,千葉県,成田市,大室１７６７番地３４,,12,211,2860821,,,,,,,2023-03-20,1,,,,,オグラ,0
935,5040001127577,新規,0,2023-03-20,2023-03-20,４ＤＬ　Ｔｅｃｈｎｏｌｏｇｉｅｓ株式会社,,株式会社,千葉県,千葉市中央区,中央２丁目５－１千葉中央ツインビル２号館７階,,12,101,2600013,,,,,,,2023-03-20,1,,,,,フォーディーエルテクノロジーズ,0
936,5040001127585,新規,0,2023-03-20,2023-03-20,クローバーガーデン株式会社,,株式会社,千葉県,四街道市,めいわ４丁目１２番１７号,,12,228,2840043,,,,,,,2023-03-20,1,,,,,クローバーガーデン,0
941,5040005021933,新規,0,2023-03-20,2023-03-20,一般社団法人スマートフィルムデバイス協会,,その他の設立登記法人,千葉県,柏市,若柴１７８番地４柏の葉キャンパス１４８街区２,,12,217,2770871,,,,,,,2023-03-20,1,,,,,スマートフィルムデバイスキョウカイ,0
943,5060003004475,新規,0,2023-03-20,2023-03-20,合同会社ＦＣＳ,,合同会社,栃木県,足利市,中川町３５９９番８,,09,202,3260825,,,,,,,2023-03-20,1,,,,,エフシーエス,0
944,5060003004483,新規,0,2023-03-20,2023-03-20,合同会社季節計画,,合同会社,栃木県,那須塩原市,戸田５０３番地,,09,213,3250114,,,,,,,2023-03-20,1,,,,,キセツケイカク,0
955,5080403004759,新規,0,2023-03-20,2023-03-20,合同会社はぴらいふ,,合同会社,静岡県,浜松市東区,有玉南町１３９４－３,,22,132,4313122,,,,,,,2023-03-20,1,,,,,ハピライフ,0
956,5110001037380,新規,0,2023-03-20,2023-03-20,ＡＺ株式会社,,株式会社,新潟県,新潟市中央区,上大川前通８番町１２５５番地１階,,15,103,9518068,,,,,,,2023-03-20,1,,,,,エーゼット,0
967,5120001253290,新規,0,2023-03-20,2023-03-20,玉拓株式会社,,株式会社,大阪府,大阪市生野区,勝山南１丁目１番２０号１０２号室,,27,116,5440021,,,,,,,2023-03-20,1,,,,,ギョクタク,0
968,5120001253332,新規,0,2023-03-20,2023-03-20,オデッセイ株式会社,,株式会社,大阪府,寝屋川市,成田東町３番２６号,,27,215,5720001,,,,,,,2023-03-20,1,,,,,オデッセイ,0
969,5120001253349,新規,0,2023-03-20,2023-03-20,株式会社リリーフ,,株式会社,大阪府,大阪市東住吉区,鷹合２丁目１５番１０－１０３号室,,27,121,5460014,,,,,,,2023-03-20,1,,,,,リリーフ,0
970,5120001253365,新規,0,2023-03-20,2023-03-20,株式会社プライムサービス,,株式会社,大阪府,大阪市西成区,長橋１丁目１０－１２,,27,122,5570025,,,,,,,2023-03-20,1,,,,,プライムサービス,0
977,5120005023517,新規,0,2023-03-20,2023-03-20,一般社団法人未来の智慧,,その他の設立登記法人,大阪府,大阪市中央区,森ノ宮中央２丁目１０番７－５０６号,,27,128,5400003,,,,,,,2023-03-20,1,,,,,ミライノチエ,0
982,5120903004551,新規,0,2023-03-20,2023-03-20,づぼら商事合同会社,,合同会社,大阪府,高槻市,南平台１丁目２－５４,,27,207,5691042,,,,,,,2023-03-20,1,,,,,ヅボラショウジ,0
988,5130001073886,新規,0,2023-03-20,2023-03-20,株式会社ＫｏｊｉｍａＳＴ,,株式会社,京都府,京都市下京区,梅小路本町１８番地,,26,106,6008856,,,,,,,2023-03-20,1,,,,,コジマエスティー,0
989,5130001073903,新規,0,2023-03-20,2023-03-20,株式会社オメガアルファ,,株式会社,京都府,京都市北区,大宮一ノ井町２１番地５,,26,101,6038477,,,,,,,2023-03-20,1,,,,,オメガアルファ,0
995,5140001129489,新規,0,2023-03-20,2023-03-20,株式会社インテリアハウス・ヨシイ,,株式会社,兵庫県,宝塚市,安倉西２丁目５番２０号,,28,214,6650825,,,,,,,2023-03-20,1,,,,,インテリアハウスヨシイ,0
999,5150005009463,新規,0,2023-03-20,2023-03-20,一般社団法人メープルクラブたかとり,,その他の設立登記法人,奈良県,高市郡高取町,大字観覚寺１０２３番地,,29,401,6350154,,,,,,,2023-03-20,1,,,,,メープルクラブタカトリ,0
1003,5180001155416,新規,0,2023-03-20,2023-03-20,株式会社４１７,,株式会社,愛知県,名古屋市中区,新栄１丁目１２番２５号華陽ビル３階,,23,106,4600007,,,,,,,2023-03-20,1,,,,,シイナ,0
1004,5180001155424,新規,0,2023-03-20,2023-03-20,株式会社ＤＡＷＮ,,株式会社,愛知県,名古屋市中村区,則武２丁目１４番１１号名駅富士ビル,,23,105,4530014,,,,,,,2023-03-20,1,,,,,ドーン,0
1005,5180001155440,新規,0,2023-03-20,2023-03-20,エステック株式会社,,株式会社,愛知県,名古屋市北区,安井１丁目４番７号,,23,103,4620023,,,,,,,2023-03-20,1,,,,,エステック,0
1006,5180001155449,新規,0,2023-03-20,2023-03-20,株式会社グランディア,,株式会社,愛知県,名古屋市守山区,川東山５０２番地,,23,113,4630006,,,,,,,2023-03-20,1,,,,,グランディア,0
1012,5220001025317,新規,0,2023-03-20,2023-03-20,株式会社ＭＯＲＩ　ＧＲＡＰＨＩＣ,,株式会社,石川県,野々市市,郷１丁目２０２番地５,,17,212,9218849,,,,,,,2023-03-20,1,,,,,モリグラフィック,0
1014,5240001061236,新規,0,2023-03-20,2023-03-20,はなまる運輸株式会社,,株式会社,広島県,広島市安佐北区,亀山２丁目７番３６号２階,,34,106,7310231,,,,,,,2023-03-20,1,,,,,ハナマルウンユ,0
1017,5250001020018,新規,0,2023-03-20,2023-03-20,ヒロサービス株式会社,,株式会社,山口県,岩国市,旭町２丁目９番４６号,,35,208,7400024,,,,,,,2023-03-20,1,,,,,ヒロサービス,0
1028,5290001100939,新規,0,2023-03-20,2023-03-20,株式会社あんしん建材,,株式会社,福岡県,筑後市,大字溝口７６２－１・２Ｆ,,40,211,8330012,,,,,,,2023-03-20,1,,,,,アンシンケンザイ,0
1035,5290801029386,新規,0,2023-03-20,2023-03-20,株式会社サニー・ブルーム,,株式会社,福岡県,直方市,大字下境３９７１番地１８,,40,204,8220007,,,,,,,2023-03-20,1,,,,,サニーブルーム,0
1039,5320005010057,新規,0,2023-03-20,2023-03-20,ニッポン労務社会保険労務士法人,,その他の設立登記法人,大分県,大分市,城崎町２丁目５番４号サンパーク城址公園グラッセ１００１号,,44,201,8700045,,,,,,,2023-03-20,1,,,,,ニッポンロウム,0
1040,5330001030693,新規,0,2023-03-20,2023-03-20,ＯｈＥＮ　Ｇｒｏｕｐ株式会社,,株式会社,熊本県,熊本市中央区,大江３丁目８－３５,,43,101,8620971,,,,,,,2023-03-20,1,,,,,オーエングループ,0
1044,5360001031672,新規,0,2023-03-20,2023-03-20,株式会社三高,,株式会社,沖縄県,糸満市,西崎町４丁目１７番１０,,47,210,9010306,,,,,,,2023-03-20,1,,,,,サンコウ,0
1045,5360001031697,新規,0,2023-03-20,2023-03-20,株式会社７２セブン・ツーリゾート,,株式会社,沖縄県,石垣市,字大浜２０６４番地４９５,,47,207,9070001,,,,,,,2023-03-20,1,,,,,ナナジュウニセブンツーリゾート,0
1046,5360001031730,新規,0,2023-03-20,2023-03-20,株式会社大奨興業,,株式会社,沖縄県,那覇市,寄宮１丁目６番１４号,,47,201,9020064,,,,,,,2023-03-20,1,,,,,ダイショウコウギョウ,0
1047,5360003012803,新規,0,2023-03-20,2023-03-20,合同会社ＧＧＫ沖縄,,合同会社,沖縄県,那覇市,松尾２丁目９－２３、２階,,47,201,9000014,,,,,,,2023-03-20,1,,,,,ジージーケーオキナワ,0
1048,5370001049730,新規,0,2023-03-20,2023-03-20,株式会社ｉｎｕｎｏｔｅ,,株式会社,宮城県,仙台市青葉区,本町２丁目６番１５号,,04,101,9800014,,,,,,,2023-03-20,1,,,,,イヌノテ,0
1053,5390001017198,新規,0,2023-03-20,2023-03-20,株式会社ＬＩＧ,,株式会社,山形県,山形市,やよい２丁目１番４７号ダイヤ４５やよい２０１,,06,201,9900835,,,,,,,2023-03-20,1,,,,,リグ,0
1054,5400001016181,新規,0,2023-03-20,2023-03-20,株式会社ヒカリ新業,,株式会社,岩手県,盛岡市,津志田町２丁目１番７０号さくらビル１Ｆ,,03,201,0200837,,,,,,,2023-03-20,1,,,,,ヒカリシンギョウ,0
1070,6010001233757,新規,0,2023-03-20,2023-03-20,株式会社オクト,,株式会社,東京都,中央区,銀座８丁目７番１６号,,13,102,1040061,,,,,,,2023-03-20,1,,,,,オクト,0
1071,6010001233781,新規,0,2023-03-20,2023-03-20,株式会社ｅ‐ＬＩＦＥ‐ＬＡＢ,,株式会社,東京都,中央区,京橋２丁目１２番９号,,13,102,1040031,,,,,,,2023-03-20,1,,,,,イーライフラボ,0
1072,6010001233807,新規,0,2023-03-20,2023-03-20,株式会社スローホープ,,株式会社,東京都,千代田区,紀尾井町４番１号新紀尾井町ビル３階株式会社ロータス・ワイズ・パートナーズ内,,13,101,1020094,,,,,,,2023-03-20,1,,,,,スローホープ,0
1073,6010003040078,新規,0,2023-03-20,2023-03-20,シエルクリニカル合同会社,,合同会社,東京都,中央区,日本橋２丁目２番３号ＲＩＳＨＥビルＵＣＦ４階,,13,102,1030027,,,,,,,2023-03-20,1,,,,,シエルクリニカル,0
1074,6010003040094,新規,0,2023-03-20,2023-03-20,アイテムバンク合同会社,,合同会社,東京都,中央区,日本橋室町１丁目１１番１２号日本橋水野ビル７階,,13,102,1030022,,,,,,,2023-03-20,1,,,,,アイテムバンク,0
1075,6010003040111,新規,0,2023-03-20,2023-03-20,合同会社アシスト,,合同会社,東京都,中央区,銀座１丁目１２－４Ｎ＆ＥＢＬＤ７階,,13,102,1040061,,,,,,,2023-03-20,1,,,,,アシスト,0
1083,6010401173149,新規,0,2023-03-20,2023-03-20,株式会社東京ＡＮＧＥＬ,,株式会社,東京都,港区,白金６丁目１６番２０－５０２号,,13,103,1080072,,,,,,,2023-03-20,1,,,,,トウキョウエンジェル,0
1084,6010403029695,新規,0,2023-03-20,2023-03-20,ＦＥＭＩＲＥＬ合同会社,,合同会社,東京都,港区,南青山２丁目２番１５号ＷｉｎＡｏｙａｍａビルＵＣＦ６３５,,13,103,1070062,,,,,,,2023-03-20,1,,,,,フェミール,0
1085,6010501050173,新規,0,2023-03-20,2023-03-20,夏和株式会社,,株式会社,東京都,台東区,松が谷２丁目９番１－１０２号,,13,106,1110036,,,,,,,2023-03-20,1,,,,,ナツワ,0
1091,6010801033794,新規,0,2023-03-20,2023-03-20,日本総合管理サービス株式会社,,株式会社,東京都,大田区,西蒲田８丁目２４番１号ミマツビル,,13,111,1440051,,,,,,,2023-03-20,1,,,,,ニホンソウゴウカンリサービス,0
1096,6010901052736,新規,0,2023-03-20,2023-03-20,Ｄ１Ｊ株式会社,,株式会社,東京都,世田谷区,豪徳寺１丁目４５番１０号,,13,112,1540021,,,,,,,2023-03-20,1,,,,,,0
1106,6011001153268,新規,0,2023-03-20,2023-03-20,株式会社ｎｅｂｕｌａ,,株式会社,東京都,渋谷区,神泉町１０番１５号,,13,113,1500045,,,,,,,2023-03-20,1,,,,,ネビュラ,0
1109,6011003016448,新規,0,2023-03-20,2023-03-20,合同会社ｕｎａｚｕｋｕ,,合同会社,東京都,渋谷区,渋谷４丁目３番１７号,,13,113,1500002,,,,,,,2023-03-20,1,,,,,ウナズク,0
1110,6011003016464,新規,0,2023-03-20,2023-03-20,合同会社松島,,合同会社,東京都,目黒区,自由が丘１丁目１１番１号丸家ビル２Ｆ,,13,110,1520035,,,,,,,2023-03-20,1,,,,,マツシマ,0
1111,6011005009986,新規,0,2023-03-20,2023-03-20,渋谷マンションウェルス管理組合法人,,その他の設立登記法人,東京都,渋谷区,神泉町２５番８号渋谷マンションウェルス１階管理室,,13,113,1500045,,,,,,,2023-03-20,1,,,,,シブヤマンションウェルス,0
1113,6011101102199,新規,0,2023-03-20,2023-03-20,ＤＨＷ株式会社,,株式会社,東京都,新宿区,高田馬場４丁目２－９コスタレイ高田馬場５０２号,,13,104,1690075,,,,,,,2023-03-20,1,,,,,ディーエイチダブル,0
1114,6011101102208,新規,0,2023-03-20,2023-03-20,Ｘ‐ｍａｋｅｓ株式会社,,株式会社,東京都,新宿区,西新宿３丁目３番１３号西新宿水間ビル２Ｆ,,13,104,1600023,,,,,,,2023-03-20,1,,,,,エックスメイクス,0
1115,6011201024500,新規,0,2023-03-20,2023-03-20,得永株式会社,,株式会社,東京都,中野区,東中野５丁目２５－１－１０１,,13,114,1640003,,,,,,,2023-03-20,1,,,,,トクエイ,0
1116,6011201024509,新規,0,2023-03-20,2023-03-20,株式会社ＨＹＤｒｅａｍ,,株式会社,東京都,中野区,中央５丁目２０番１３号,,13,114,1640011,,,,,,,2023-03-20,1,,,,,エイチワイドリーム,0
1117,6011501029067,新規,0,2023-03-20,2023-03-20,日本松下自転車株式会社,,株式会社,東京都,北区,滝野川７丁目３５－３メゾンドール・イズ２０３,,13,117,1140023,,,,,,,2023-03-20,1,,,,,ニホンマツシタジテンシャ,0
1118,6011503005520,新規,0,2023-03-20,2023-03-20,マキタ・コーポレーション合同会社,,合同会社,東京都,荒川区,南千住６丁目３７番９－２４０１号,,13,118,1160003,,,,,,,2023-03-20,1,,,,,マキタコーポレーション,0
1119,6011601026658,新規,0,2023-03-20,2023-03-20,株式会社ＳＴ企画,,株式会社,東京都,練馬区,南大泉２丁目２２番１号,,13,120,1780064,,,,,,,2023-03-20,1,,,,,エスティーキカク,0
1123,6011803005559,新規,0,2023-03-20,2023-03-20,ブランシュ合同会社,,合同会社,東京都,葛飾区,東水元２丁目３番４号,,13,122,1250033,,,,,,,2023-03-20,1,,,,,ブランシュ,0
1126,6012801022208,新規,0,2023-03-20,2023-03-20,株式会社Ｓｈｉｕ,,株式会社,東京都,東大和市,蔵敷３丁目７６６番地芝中住宅イ８－４０１号,,13,220,2070032,,,,,,,2023-03-20,1,,,,,シウ,0
1135,6013301050459,新規,0,2023-03-20,2023-03-20,株式会社ＫＡＩＭＩ,,株式会社,東京都,豊島区,目白２丁目３６番９号,,13,116,1710031,,,,,,,2023-03-20,1,,,,,カイミ,0
1136,6013301050483,新規,0,2023-03-20,2023-03-20,椎名設計工房株式会社,,株式会社,東京都,豊島区,南長崎５丁目１番５号サンライズマンション東長崎４０１号,,13,116,1710052,,,,,,,2023-03-20,1,,,,,シイナセッケイコウボウ,0
1137,6013303006541,新規,0,2023-03-20,2023-03-20,合同会社ＤＩＧ　ＵＰ,,合同会社,東京都,豊島区,西池袋４丁目８－２ハーモニーレジデンス池袋３０７,,13,116,1710021,,,,,,,2023-03-20,1,,,,,ディグアップ,0
1140,6020001150729,新規,0,2023-03-20,2023-03-20,株式会社マルタケ,,株式会社,神奈川県,横浜市旭区,南希望が丘１３番地９,,14,112,2410824,,,,,,,2023-03-20,1,,,,,マルタケ,0
1141,6020001150753,新規,0,2023-03-20,2023-03-20,株式会社リゾネートクローバー,,株式会社,神奈川県,横浜市戸塚区,川上町８７番地４Ｎ＆Ｆビル１－２ＦＢ２,,14,110,2440805,,,,,,,2023-03-20,1,,,,,リゾネートクローバー,0
1145,6020005015894,新規,0,2023-03-20,2023-03-20,一般社団法人横浜シニアライフサポート,,その他の設立登記法人,神奈川県,横浜市中区,住吉町２丁目２２番地松栄関内ビル２階赤崎・佐藤会計事務所内,,14,104,2310013,,,,,,,2023-03-20,1,,,,,ヨコハマシニアライフサポート,0
1153,6021005012758,新規,0,2023-03-20,2023-03-20,医療法人オルトンシア,,その他の設立登記法人,神奈川県,横須賀市,追浜町３丁目１４番地９和幸ビル４Ｆ,,14,201,2370064,,,,,,,2023-03-20,1,,,,,オルトンシア,0
1164,6040003022214,新規,0,2023-03-20,2023-03-20,合同会社想,,合同会社,千葉県,東金市,東上宿６番地１ファインコート１０２,,12,213,2830067,,,,,,,2023-03-20,1,,,,,ソウ,0
1165,6040003022222,新規,0,2023-03-20,2023-03-20,ｙｏｎｅｃｃｏ合同会社,,合同会社,千葉県,松戸市,馬橋１９２３番地の６グラン・リーオ９０４号,,12,207,2710051,,,,,,,2023-03-20,1,,,,,ヨネッコ,0
1169,6050001052559,新規,0,2023-03-20,2023-03-20,株式会社ＬＡＳＨＩＳＡ,,株式会社,茨城県,つくば市,松代５丁目２番地２９つくばアイビースクエア３０１号,,08,220,3050035,,,,,,,2023-03-20,1,,,,,ラシサ,0
1179,6110003005005,新規,0,2023-03-20,2023-03-20,東日本トータル合同会社,,合同会社,新潟県,新潟市南区,次郎右エ門興野２０６番地,,15,106,9501433,,,,,,,2023-03-20,1,,,,,ヒガシニホントータル,0
1193,6120003023658,新規,0,2023-03-20,2023-03-20,合同会社リアン,,合同会社,大阪府,大阪市西区,新町１丁目１０－２４,,27,106,5500013,,,,,,,2023-03-20,1,,,,,リアン,0
1194,6120005023516,新規,0,2023-03-20,2023-03-20,弁護士法人長堀橋フィル,,その他の設立登記法人,大阪府,大阪市中央区,南船場２丁目３番１１号田渕南船場ビル３階,,27,128,5420081,,,,,,,2023-03-20,1,,,,,ナガホリバシフィル,0
1195,6120103005102,新規,0,2023-03-20,2023-03-20,合同会社Ｒｅｃｅｓｓ,,合同会社,大阪府,松原市,三宅西３丁目２５８－２－４０１,,27,217,5800045,,,,,,,2023-03-20,1,,,,,リセス,0
1196,6120103005127,新規,0,2023-03-20,2023-03-20,合同会社ナンセ,,合同会社,大阪府,堺市中区,深井清水町２０９０番地２,,27,142,5998273,,,,,,,2023-03-20,1,,,,,ナンセ,0
1197,6120901047270,新規,0,2023-03-20,2023-03-20,株式会社メスコム,,株式会社,大阪府,豊中市,少路１丁目５番１２－１０３号,,27,203,5600004,,,,,,,2023-03-20,1,,,,,メスコム,0
1198,6120901047279,新規,0,2023-03-20,2023-03-20,株式会社Ｋカンパニー,,株式会社,大阪府,箕面市,如意谷３丁目５番１０号（１０１号）,,27,220,5620011,,,,,,,2023-03-20,1,,,,,ケーカンパニー,0
1200,6120903004501,新規,0,2023-03-20,2023-03-20,Ａｕｄｒｅｙ合同会社,,合同会社,大阪府,吹田市,山手町３丁目９番１３号２０７号室,,27,205,5640073,,,,,,,2023-03-20,1,,,,,オードリー,0
1201,6120903004550,新規,0,2023-03-20,2023-03-20,合同会社Ａ．Ｒ．Ｔ．,,合同会社,大阪府,摂津市,千里丘４丁目１１番５－５０２号,,27,224,5660001,,,,,,,2023-03-20,1,,,,,エーアールティー,0
1213,6130003008600,新規,0,2023-03-20,2023-03-20,ｓａｈａｒａ合同会社,,合同会社,京都府,京都市左京区,田中里ノ内町１６－２－２０５,,26,103,6068212,,,,,,,2023-03-20,1,,,,,サハラ,0
1215,6140001129471,新規,0,2023-03-20,2023-03-20,ウィルクラウド株式会社,,株式会社,兵庫県,芦屋市,精道町４番１５号３階,,28,206,6590064,,,,,,,2023-03-20,1,,,,,ウィルクラウド,0
1216,6140001129505,新規,0,2023-03-20,2023-03-20,トライジャパン株式会社,,株式会社,兵庫県,明石市,鍛冶屋町１番１５号ハモニカビル３Ｆ,,28,203,6730000,,,,,,,2023-03-20,1,,,,,トライジャパン,0
1220,6150001026247,新規,0,2023-03-20,2023-03-20,花桃ホールディングス株式会社,,株式会社,奈良県,香芝市,高山台２丁目１５番地２,,29,210,6390256,,,,,,,2023-03-20,1,,,,,ハナモモホールディングス,0
1221,6160001024910,新規,0,2023-03-20,2023-03-20,株式会社ウエタマリンサービス,,株式会社,滋賀県,大津市,衣川２丁目３１番２０号,,25,201,5200244,,,,,,,2023-03-20,1,,,,,ウエタマリンサービス,0
1222,6170005007002,新規,0,2023-03-20,2023-03-20,一般社団法人Ｓｏｃｉａｌ　Ｒｅｆｏｒｍ,,その他の設立登記法人,和歌山県,和歌山市,湊３２１５,,30,201,6408404,,,,,,,2023-03-20,1,,,,,ソーシャルリフォーム,0
1232,6180001155423,新規,0,2023-03-20,2023-03-20,株式会社名古屋ＴＲＵＳＴ,,株式会社,愛知県,名古屋市西区,名駅３丁目６番２２号ＨＫビル第一５０３,,23,104,4510045,,,,,,,2023-03-20,1,,,,,ナゴヤトラスト,0
1242,6210001019260,新規,0,2023-03-20,2023-03-20,株式会社ｓｉｇｎ,,株式会社,福井県,福井市,問屋町１丁目１２０番地,,18,201,9188231,,,,,,,2023-03-20,1,,,,,サイン,0
1243,6220001025316,新規,0,2023-03-20,2023-03-20,株式会社防災リブート,,株式会社,石川県,金沢市,粟崎町４丁目７８番地２０,,17,201,9200226,,,,,,,2023-03-20,1,,,,,ボウサイリブート,0
1257,6290005018978,新規,0,2023-03-20,2023-03-20,菰田総合税理士法人,,その他の設立登記法人,福岡県,福岡市博多区,博多駅前２丁目２０番１号大博多ビル８Ｆ,,40,132,8120011,,,,,,,2023-03-20,1,,,,,コモダソウゴウ,0
1259,6310001018319,新規,0,2023-03-20,2023-03-20,サンキュー交通株式会社,,株式会社,長崎県,長崎市,新戸町１丁目６番２号,,42,201,8500954,,,,,,,2023-03-20,1,,,,,サンキューコウツウ,0
1262,6330001030692,新規,0,2023-03-20,2023-03-20,株式会社ＲｅＬＡＮＤ,,株式会社,熊本県,阿蘇郡南小国町,大字赤馬場１８７４番地,,43,423,8692401,,,,,,,2023-03-20,1,,,,,リランド,0
1266,6340001025436,新規,0,2023-03-20,2023-03-20,株式会社濱田商会,00129801,株式会社,鹿児島県,姶良市,加治木町小山田９４０番地１,,46,225,8995203,,,,,,,2023-03-20,1,,,,,ハマダショウカイ,0
1267,6340001025444,新規,0,2023-03-20,2023-03-20,株式会社ｙ’ｓ　ｐａｖｅｍｅｎｔ,,株式会社,鹿児島県,鹿児島市,本城町６５１番地１,,46,201,8911303,,,,,,,2023-03-20,1,,,,,ワイズペーブメント,0
1271,6360003012810,新規,0,2023-03-20,2023-03-20,合同会社シマシマ企画,,合同会社,沖縄県,浦添市,字経塚４３７番地２,,47,208,9012111,,,,,,,2023-03-20,1,,,,,シマシマキカク,0
1277,6380005012690,新規,0,2023-03-20,2023-03-20,特定非営利活動法人ＨＣＡふくしま,,その他の設立登記法人,福島県,白河市,桜町１３９番地,,07,205,9610911,,,,,,,2023-03-20,1,,,,,エイチシーエーフクシマ,0
1278,6390001017197,新規,0,2023-03-20,2023-03-20,株式会社スマートテクノ,,株式会社,山形県,米沢市,城北２丁目４‐１２,,06,202,9920051,,,,,,,2023-03-20,1,,,,,スマートテクノ,0
1279,6400001016180,新規,0,2023-03-20,2023-03-20,株式会社Ｒ．Ｃコーポレーション,,株式会社,岩手県,盛岡市,羽場１０地割１００番地３,,03,201,0200841,,,,,,,2023-03-20,1,,,,,アールシーコーポレーション,0
1300,7010001233797,新規,0,2023-03-20,2023-03-20,紅屋グループホールディングス株式会社,,株式会社,東京都,文京区,大塚３丁目２０番１号,,13,105,1120012,,,,,,,2023-03-20,1,,,,,ベニヤグループホールディングス,0
1301,7010001233814,新規,0,2023-03-20,2023-03-20,株式会社ＪＴＲ,,株式会社,東京都,中央区,銀座１丁目１２番４号Ｎ＆ＥＢＬＤ．６Ｆ,,13,102,1040061,,,,,,,2023-03-20,1,,,,,ジェイティーアール,0
1304,7010003040069,新規,0,2023-03-20,2023-03-20,合同会社ｃａｍｅｌｌｉａｆｉｅｌｄ,,合同会社,東京都,中央区,月島１丁目２２番１－３０４号,,13,102,1040052,,,,,,,2023-03-20,1,,,,,カメリアフィールド,0
1305,7010003040110,新規,0,2023-03-20,2023-03-20,ＧＦ　Ｍａｎａｇｅｍｅｎｔ合同会社,,合同会社,東京都,千代田区,麹町４丁目５番２０号ＫＳビル４階,,13,101,1020083,,,,,,,2023-03-20,1,,,,,ジーエフマネージメント,0
1314,7010401173098,新規,0,2023-03-20,2023-03-20,ブルースカイ・インベストメント株式会社,,株式会社,東京都,港区,東新橋１丁目５番２号汐留シティセンター８階,,13,103,1050021,,,,,,,2023-03-20,1,,,,,ブルースカイインベストメント,0
1315,7010401173156,新規,0,2023-03-20,2023-03-20,株式会社ＴＲＳ,,株式会社,東京都,港区,芝大門２丁目４番５号芝ダイヤハイツ９０８,,13,103,1050012,,,,,,,2023-03-20,1,,,,,ティーアールエス,0
1318,7010403029760,新規,0,2023-03-20,2023-03-20,合同会社ｈａｈａ,,合同会社,東京都,港区,南青山２丁目２番１５号ウイン青山９４２,,13,103,1070062,,,,,,,2023-03-20,1,,,,,ハハ,0
1326,7010501050172,新規,0,2023-03-20,2023-03-20,株式会社ＧｅｅｋＡｃａ,,株式会社,東京都,台東区,上野３丁目１６番２号,,13,106,1100005,,,,,,,2023-03-20,1,,,,,ギークアーカー,0
1330,7010503006916,新規,0,2023-03-20,2023-03-20,合同会社Ｄ．Ａｎｄａ,,合同会社,東京都,台東区,元浅草４丁目５－１１誠和ビル６０１,,13,106,1110041,,,,,,,2023-03-20,1,,,,,ディアンダ,0
1332,7010803004479,新規,0,2023-03-20,2023-03-20,合同会社Ａｆａｎ,,合同会社,東京都,大田区,下丸子２丁目１２番３－１００７号,,13,111,1460092,,,,,,,2023-03-20,1,,,,,アファン,0
1337,7011001153119,新規,0,2023-03-20,2023-03-20,モンキートラベル株式会社,,株式会社,東京都,渋谷区,恵比寿西２丁目１番８号,,13,113,1500021,,,,,,,2023-03-20,1,,,,,モンキートラベル,0
1338,7011001153135,新規,0,2023-03-20,2023-03-20,ｍｉｘｊｕｉｃｅ株式会社,,株式会社,東京都,渋谷区,渋谷１丁目１－３アミーホール３階,,13,113,1500002,,,,,,,2023-03-20,1,,,,,ミックスジュース,0
1339,7011001153226,新規,0,2023-03-20,2023-03-20,株式会社リハブリッジ,,株式会社,東京都,目黒区,下目黒５丁目２２番５号,,13,110,1530064,,,,,,,2023-03-20,1,,,,,リハブリッジ,0
1340,7011001153267,新規,0,2023-03-20,2023-03-20,株式会社ＡＸＥＳ．,,株式会社,東京都,渋谷区,神泉町１０番１５号,,13,113,1500045,,,,,,,2023-03-20,1,,,,,アクシズ,0
1341,7011001153283,新規,0,2023-03-20,2023-03-20,株式会社リアステージキャリア,,株式会社,東京都,渋谷区,円山町３番地６Ｅ・スペースタワー４階,,13,113,1500044,,,,,,,2023-03-20,1,,,,,リアステージキャリア,0
1343,7011003016463,新規,0,2023-03-20,2023-03-20,合同会社ゼロ・ザ・フール,,合同会社,東京都,渋谷区,笹塚２丁目３４番１０号３０２,,13,113,1510073,,,,,,,2023-03-20,1,,,,,ゼロザフール,0
1344,7011003016471,新規,0,2023-03-20,2023-03-20,ガリンペイロ合同会社,,合同会社,東京都,渋谷区,幡ヶ谷３丁目２２番１１号,,13,113,1510072,,,,,,,2023-03-20,1,,,,,ガリンペイロ,0
1348,7011101102181,新規,0,2023-03-20,2023-03-20,株式会社烏龍倶楽部,,株式会社,東京都,新宿区,歌舞伎町２丁目１０－７ダイヤモンドビル３階Ｄ室,,13,104,1600021,,,,,,,2023-03-20,1,,,,,ウーロンクラブ,0
1350,7011501029066,新規,0,2023-03-20,2023-03-20,ＪＡＣＡＴ株式会社,,株式会社,東京都,荒川区,町屋６丁目１９－１プレミアムレジデンス町屋４０２号室,,13,118,1160001,,,,,,,2023-03-20,1,,,,,ジャカト,0
1356,7012801022207,新規,0,2023-03-20,2023-03-20,株式会社泉人,,株式会社,東京都,東大和市,蔵敷３丁目１１９７番地の１芝中住宅イ２－３０１号,,13,220,2070032,,,,,,,2023-03-20,1,,,,,センニン,0
1364,7021005012757,新規,0,2023-03-20,2023-03-20,医療法人社団Ｌ＆Ｐ　Ｍｅｄｉｃａｌ,,その他の設立登記法人,神奈川県,鎌倉市,大船２丁目２６番２２号湘風館３階,,14,204,2470056,,,,,,,2023-03-20,1,,,,,エルアンドピーメディカル,0
1378,7030005021164,新規,0,2023-03-20,2023-03-20,特定非営利活動法人音楽ボランティアゆっぴーず,,その他の設立登記法人,埼玉県,春日部市,粕壁６８３２ライオンズマンション春日部２０６,,11,214,3440061,,,,,,,2023-03-20,1,,,,,,0
1379,7030005021172,新規,0,2023-03-20,2023-03-20,協同組合ＪＣＵ,,その他の設立登記法人,埼玉県,川口市,南前川１丁目１２番１５号,,11,203,3330846,,,,,,,2023-03-20,1,,,,,ジェーシーユー,0
1381,7040001127567,新規,0,2023-03-20,2023-03-20,Ｎｕｌｌ　ｔｅｃｈｎｏｌｏｇｙ株式会社,,株式会社,千葉県,船橋市,前原西１丁目３８番５号,,12,204,2740825,,,,,,,2023-03-20,1,,,,,ナルテクノロジー,0
1382,7040001127625,新規,0,2023-03-20,2023-03-20,株式会社新光興産,,株式会社,千葉県,船橋市,本町５丁目１９－２,,12,204,2730005,,,,,,,2023-03-20,1,,,,,シンコウコウサン,0
1383,7040003022171,新規,0,2023-03-20,2023-03-20,合同会社ｕｒｏｋｏｇｕｍｏ,,合同会社,千葉県,柏市,松葉町２丁目１５番１１よしいビル２階Ｅ号室,,12,217,2770827,,,,,,,2023-03-20,1,,,,,ウロコグモ,0
1384,7040003022213,新規,0,2023-03-20,2023-03-20,合同会社ＴＨカンパニー,,合同会社,千葉県,柏市,柏３丁目４番２号２階,,12,217,2770005,,,,,,,2023-03-20,1,,,,,ティーエイチカンパニー,0
1385,7040003022221,新規,0,2023-03-20,2023-03-20,ＲＣＣ合同会社,,合同会社,千葉県,四街道市,めいわ１丁目２９番地３,,12,228,2840043,,,,,,,2023-03-20,1,,,,,アールシーシー,0
1386,7040005021923,新規,0,2023-03-20,2023-03-20,一般社団法人うみかぜ,,その他の設立登記法人,千葉県,いすみ市,釈迦谷７４６－７,,12,238,2980015,,,,,,,2023-03-20,1,,,,,ウミカゼ,0
1388,7050003007329,新規,0,2023-03-20,2023-03-20,合同会社ＢＯＴ,,合同会社,茨城県,東茨城郡大洗町,磯浜町５３８９番地,,08,309,3111301,,,,,,,2023-03-20,1,,,,,ビーオーティー,0
1391,7060003004481,新規,0,2023-03-20,2023-03-20,ＹＵＥ　ＧＬＯＢＡＬ合同会社,,合同会社,栃木県,栃木市,都賀町升塚６４５番地２,,09,203,3280114,,,,,,,2023-03-20,1,,,,,ユエグローバル,0
1393,7070001040247,新規,0,2023-03-20,2023-03-20,株式会社ＡＵＴＯ　ＰＡＲＫ,,株式会社,群馬県,北群馬郡榛東村,大字広馬場２１２５番地１,,10,344,3703504,,,,,,,2023-03-20,1,,,,,オートパーク,0
1408,7120001253306,新規,0,2023-03-20,2023-03-20,株式会社アーリーダイニング,,株式会社,大阪府,大阪市西区,北堀江４丁目２番４０号Ｓ１０,,27,106,5500014,,,,,,,2023-03-20,1,,,,,アーリーダイニング,0
1409,7120001253322,新規,0,2023-03-20,2023-03-20,株式会社夏空,,株式会社,大阪府,寝屋川市,中木田町２５番２３－２０７号,,27,215,5720820,,,,,,,2023-03-20,1,,,,,ナツゾラ,0
1410,7120001253330,新規,0,2023-03-20,2023-03-20,株式会社リトレージ,,株式会社,大阪府,門真市,寿町５番２０号グランデ寿１０３号室,,27,223,5710032,,,,,,,2023-03-20,1,,,,,リトレージ,0
1411,7120001253347,新規,0,2023-03-20,2023-03-20,洋森株式会社,,株式会社,大阪府,大阪市東住吉区,住道矢田９丁目１８－１３－１０３,,27,121,5460022,,,,,,,2023-03-20,1,,,,,ヨウモリ,0
1412,7120001253363,新規,0,2023-03-20,2023-03-20,株式会社立直,,株式会社,大阪府,大阪市生野区,生野西１丁目１２番３号,,27,116,5440024,,,,,,,2023-03-20,1,,,,,リーチ,0
1416,7120003023665,新規,0,2023-03-20,2023-03-20,クレバーコーポレーション合同会社,,合同会社,大阪府,枚方市,藤阪西町１番３－５０３号,,27,210,5730158,,,,,,,2023-03-20,1,,,,,クレバーコーポレーション,0
1419,7130003008582,新規,0,2023-03-20,2023-03-20,合同会社Ｐｅｎｓ　ａｎｄ　Ｎｅｅｄｌｅｓ,,合同会社,京都府,京都市右京区,嵯峨広沢南下馬野町１－１昭和ハイツ１０７,,26,108,6168303,,,,,,,2023-03-20,1,,,,,ペンズアンドニードルズ,0
1420,7130003008599,新規,0,2023-03-20,2023-03-20,合同会社長岡電気,,合同会社,京都府,宇治市,木幡西中３３番地ユニ宇治川マンション４棟２０６号,,26,204,6110002,,,,,,,2023-03-20,1,,,,,ナガオカデンキ,0
1424,7140001129470,新規,0,2023-03-20,2023-03-20,株式会社Ｋスタイルオート,,株式会社,兵庫県,川西市,多田院西２丁目４－６,,28,217,6660128,,,,,,,2023-03-20,1,,,,,ケイスタイルオート,0
1436,7180001155430,新規,0,2023-03-20,2023-03-20,株式会社ｍｅｅｔゆかいな仲間たち,,株式会社,愛知県,名古屋市昭和区,小桜町２丁目２９番地の２小桜レジデンス４０１号,,23,107,4660012,,,,,,,2023-03-20,1,,,,,ミートユカイナナカマタチ,0
1437,7180001155463,新規,0,2023-03-20,2023-03-20,株式会社ＶＩＮＡテクノ,,株式会社,愛知県,愛西市,勝幡町石塚１７１１番地２５,,23,232,4968001,,,,,,,2023-03-20,1,,,,,ヴィナテクノ,0
1440,7180005020135,新規,0,2023-03-20,2023-03-20,医療法人Ｍｙ　Ｌｉｆｅ,,その他の設立登記法人,愛知県,名古屋市東区,葵１丁目２番２０号シティタワー葵１７１４号,,23,102,4610004,,,,,,,2023-03-20,1,,,,,マイライフ,0
1446,7200001041090,新規,0,2023-03-20,2023-03-20,株式会社トレジャー,,株式会社,岐阜県,大垣市,笠縫町２２番地４,,21,202,5030027,,,,,,,2023-03-20,1,,,,,トレジャー,0
1450,7240001061234,新規,0,2023-03-20,2023-03-20,株式会社エンポート三次,,株式会社,広島県,三次市,南畑敷町２９４番地７８,,34,209,7280017,,,,,,,2023-03-20,1,,,,,エンポートミヨシ,0
1452,7250001020016,新規,0,2023-03-20,2023-03-20,株式会社ＮＩＳＳＨＯ　ＡＧＲＩ,,株式会社,山口県,下関市,菊川町大字久野１８９５番地,,35,201,7500324,,,,,,,2023-03-20,1,,,,,ニッショーアグリ,0
1453,7270001008744,新規,0,2023-03-20,2023-03-20,株式会社山根工業,,株式会社,鳥取県,東伯郡琴浦町,大字光好５７０番地,,31,371,6892326,,,,,,,2023-03-20,1,,,,,ヤマネコウギョウ,0
1455,7280001008900,新規,0,2023-03-20,2023-03-20,株式会社永幸丸,,株式会社,島根県,松江市,島根町野井６７８番地４,,32,201,6901211,,,,,,,2023-03-20,1,,,,,エイコウマル,0
1470,7290801029384,新規,0,2023-03-20,2023-03-20,株式会社エル・アール,,株式会社,福岡県,北九州市若松区,高須北３丁目５番３８号,,40,103,8080147,,,,,,,2023-03-20,1,,,,,エルアール,0
1475,7360001031687,新規,0,2023-03-20,2023-03-20,株式会社ＷＡＡＰ,,株式会社,沖縄県,石垣市,字桃里１６５番地１２,,47,207,9070241,,,,,,,2023-03-20,1,,,,,ワープ,0
1476,7360003012801,新規,0,2023-03-20,2023-03-20,合同会社スクランブル,,合同会社,沖縄県,宜野湾市,宜野湾３丁目１３番８号,,47,205,9012211,,,,,,,2023-03-20,1,,,,,スクランブル,0
1481,7370001049704,新規,0,2023-03-20,2023-03-20,株式会社みらい,,株式会社,宮城県,仙台市青葉区,国見ケ丘３丁目９番１２号,,04,101,9893201,,,,,,,2023-03-20,1,,,,,ミライ,0
1482,7370001049712,新規,0,2023-03-20,2023-03-20,リプロス株式会社,,株式会社,宮城県,石巻市,須江字茄子川２４番地,,04,202,9871221,,,,,,,2023-03-20,1,,,,,リプロス,0
1484,7380001033558,新規,0,2023-03-20,2023-03-20,株式会社ＭＯＭＯ,,株式会社,福島県,東白川郡矢祭町,大字東舘字山野井２８０番地１,,07,482,9635118,,,,,,,2023-03-20,1,,,,,,0
1487,7390001017196,新規,0,2023-03-20,2023-03-20,株式会社アール総建,,株式会社,山形県,山形市,新開２丁目８番地７０,,06,201,9902164,,,,,,,2023-03-20,1,,,,,アールソウケン,0
1489,7390003002064,新規,0,2023-03-20,2023-03-20,合同会社大征,,合同会社,山形県,南陽市,宮内１２７９‐１,,06,213,9920472,,,,,,,2023-03-20,1,,,,,タイセイ,0
1501,7430001088679,新規,0,2023-03-20,2023-03-20,よこい株式会社,,株式会社,北海道,札幌市中央区,北一条西２６丁目３番３２号,,01,101,0640821,,,,,,,2023-03-20,1,,,,,ヨコイ,0
1502,7430003014848,新規,0,2023-03-20,2023-03-20,合同会社ウエスタン・リバー・ラボ,,合同会社,北海道,札幌市豊平区,美園十条６丁目３番１８号,,01,105,0620010,,,,,,,2023-03-20,1,,,,,ウエスタンリバーラボ,0
1506,8010001233763,新規,0,2023-03-20,2023-03-20,株式会社三峰不動産,,株式会社,東京都,中央区,日本橋室町１丁目１番５号,,13,102,1030022,,,,,,,2023-03-20,1,,,,,ミツミネフドウサン,0
1507,8010001233788,新規,0,2023-03-20,2023-03-20,ＨＫＯ　ＪＡＰＡＮ株式会社,,株式会社,東京都,千代田区,外神田５丁目３番６号フィールドスリー外神田ビル１Ｆ,,13,101,1010021,,,,,,,2023-03-20,1,,,,,エイチケイオージャパン,0
1508,8010001233821,新規,0,2023-03-20,2023-03-20,株式会社Ｐｒｉｍｅ　Ｃｏｍｍｉｔｍｅｎｔ,,株式会社,東京都,千代田区,丸の内１丁目１１番１号パシフィックセンチュリープレイス丸の内１３階,,13,101,1000005,,,,,,,2023-03-20,1,,,,,プライムコミットメント,0
1509,8010001233838,新規,0,2023-03-20,2023-03-20,株式会社アウグス・ブリューアンドスティルハウス,,株式会社,東京都,文京区,湯島２丁目２７番４号,,13,105,1130034,,,,,,,2023-03-20,1,,,,,アウグスブリューアンドスティルハウス,0
1510,8010001233870,新規,0,2023-03-20,2023-03-20,ワイズアドバイザーズ株式会社,,株式会社,東京都,千代田区,飯田橋１丁目８番９号ニューシティハイツ飯田橋７０７,,13,101,1020072,,,,,,,2023-03-20,1,,,,,ワイズアドバイザーズ,0
1514,8010003040019,新規,0,2023-03-20,2023-03-20,エピニティー合同会社,,合同会社,東京都,中央区,日本橋室町１丁目１１－６サンパティーク日本橋三越前５０５,,13,102,1030022,,,,,,,2023-03-20,1,,,,,エピニティー,0
1515,8010003040084,新規,0,2023-03-20,2023-03-20,Ｒｏｂｉｎ’ｓ合同会社,,合同会社,東京都,中央区,銀座７丁目１４－１５ＳＫビル７Ｆ,,13,102,1040061,,,,,,,2023-03-20,1,,,,,ロビンズ,0
1516,8010003040126,新規,0,2023-03-20,2023-03-20,合同会社ＰｏｗｅｒＬｅｖｅｌｉｎｇ,,合同会社,東京都,中央区,銀座１丁目１２－４Ｎ＆ＥＢＬＤ．７階,,13,102,1040061,,,,,,,2023-03-20,1,,,,,パワーレベリング,0
1522,8010401173106,新規,0,2023-03-20,2023-03-20,株式会社Ｄｉｖｅｒｓｅ,,株式会社,東京都,港区,海岸３丁目２－３パークアクシス芝浦キャナル７０３,,13,103,1080022,,,,,,,2023-03-20,1,,,,,ダイバース,0
1523,8010401173147,新規,0,2023-03-20,2023-03-20,Ｔｈｅ　Ｇｅｎｅｒａｌ株式会社,,株式会社,東京都,港区,芝大門１丁目３番６号喜多ビル３０１,,13,103,1050012,,,,,,,2023-03-20,1,,,,,ザジェネラル,0
1526,8010503006923,新規,0,2023-03-20,2023-03-20,合同会社スマイル雅カンパニー,,合同会社,東京都,台東区,上野７丁目３番９－３２２号,,13,106,1100005,,,,,,,2023-03-20,1,,,,,スマイルミヤビカンパニー,0
1530,8010603010065,新規,0,2023-03-20,2023-03-20,合同会社ＢＤエステート,,合同会社,東京都,江東区,大島３丁目２５番１０－１０１号,,13,108,1360072,,,,,,,2023-03-20,1,,,,,ビーディーエステート,0
1537,8011001153126,新規,0,2023-03-20,2023-03-20,ｔｒｉｂｅｒ株式会社,,株式会社,東京都,渋谷区,上原２丁目３６－１７－１０１,,13,113,1510064,,,,,,,2023-03-20,1,,,,,トリバー,0
1538,8011001153134,新規,0,2023-03-20,2023-03-20,株式会社ＢＬＡＲＥ,,株式会社,東京都,渋谷区,道玄坂１丁目１０番８号渋谷道玄坂東急ビル２Ｆ－Ｃ,,13,113,1500043,,,,,,,2023-03-20,1,,,,,ブレア,0
1539,8011001153233,新規,0,2023-03-20,2023-03-20,株式会社Ｔａｓｋｍｉｒｕ,,株式会社,東京都,渋谷区,道玄坂１丁目１２番１号渋谷マークシティウエスト２２階,,13,113,1500043,,,,,,,2023-03-20,1,,,,,タスクミル,0
1543,8011003016462,新規,0,2023-03-20,2023-03-20,合同会社アプリシエイト,,合同会社,東京都,渋谷区,桜丘町４番８号,,13,113,1500031,,,,,,,2023-03-20,1,,,,,アプリシエイト,0
1544,8011003016479,新規,0,2023-03-20,2023-03-20,合同会社Ｒ‐ｃｒｅａｔｅ,,合同会社,東京都,渋谷区,本町３丁目３６番１５号ＩｄｅａｌＢｉｔｔｅｒＶａｌｌｅｙ１０２,,13,113,1510071,,,,,,,2023-03-20,1,,,,,アールクリエイト,0
1550,8011101102206,新規,0,2023-03-20,2023-03-20,Ｔｕｎｅ株式会社,,株式会社,東京都,新宿区,市谷加賀町２丁目４番１１号パークコート市谷加賀町２０４,,13,104,1620062,,,,,,,2023-03-20,1,,,,,チューン,0
1552,8011201024507,新規,0,2023-03-20,2023-03-20,瞳学テクノロジー株式会社,,株式会社,東京都,中野区,江古田２丁目２１番３号ハイツベルナール,,13,114,1650022,,,,,,,2023-03-20,1,,,,,ドウガクテクノロジー,0
1556,8011601026672,新規,0,2023-03-20,2023-03-20,株式会社トラスティ,,株式会社,東京都,練馬区,氷川台４丁目４０番２２号,,13,120,1790084,,,,,,,2023-03-20,1,,,,,トラスティ,0
1568,8012701017545,新規,0,2023-03-20,2023-03-20,株式会社新樹防災工業,,株式会社,東京都,西東京市,向台町２丁目６番１１号,,13,229,1880013,,,,,,,2023-03-20,1,,,,,シンキボウサイコウギョウ,0
1580,8020003023550,新規,0,2023-03-20,2023-03-20,Ｐｏｌｉｔｅ合同会社,,合同会社,神奈川県,横浜市旭区,南本宿町１３４－３４,,14,112,2410833,,,,,,,2023-03-20,1,,,,,ポライト,0
1583,8030001152862,新規,0,2023-03-20,2023-03-20,株式会社泰平,,株式会社,埼玉県,川口市,長蔵１丁目１番２０号,,11,203,3330807,,,,,,,2023-03-20,1,,,,,タイヘイ,0
1585,8030003021405,新規,0,2023-03-20,2023-03-20,合同会社鹿興業,,合同会社,埼玉県,さいたま市岩槻区,大字浮谷１１１４番地３,,11,110,3390037,,,,,,,2023-03-20,1,,,,,シカコウギョウ,0
1588,8040001127533,新規,0,2023-03-20,2023-03-20,株式会社ＷＡＶＥ,,株式会社,千葉県,市原市,ちはら台西３丁目４番,,12,219,2900143,,,,,,,2023-03-20,1,,,,,ウェーブ,0
1589,8040001127566,新規,0,2023-03-20,2023-03-20,株式会社ヒカリ工業,,株式会社,千葉県,船橋市,田喜野井４丁目２０－６－２０２,,12,204,2740073,,,,,,,2023-03-20,1,,,,,ヒカリコウギョウ,0
1591,8040003022212,新規,0,2023-03-20,2023-03-20,合同会社Ｒａｙｌｅｉｇｈ　Ｒｏｇｅｒ,,合同会社,千葉県,船橋市,印内町６５６－２０６,,12,204,2730025,,,,,,,2023-03-20,1,,,,,レイリーロジャー,0
1592,8050005013225,新規,0,2023-03-20,2023-03-20,医療法人社団靜樹会,,その他の設立登記法人,茨城県,桜川市,岩瀬２０７番地１,,08,231,3091211,,,,,,,2023-03-20,1,,,,,セイジュカイ,0
1596,8070001040246,新規,0,2023-03-20,2023-03-20,株式会社ＨＡＬ,,株式会社,群馬県,前橋市,総社町総社１５６９番地５,,10,201,3710852,,,,,,,2023-03-20,1,,,,,ハル,0
1610,8120001253288,新規,0,2023-03-20,2023-03-20,華港株式会社,,株式会社,大阪府,大阪市東成区,深江南２丁目８－８－２０５号室,,27,115,5370002,,,,,,,2023-03-20,1,,,,,カコウ,0
1611,8120001253296,新規,0,2023-03-20,2023-03-20,株式会社エーコム,,株式会社,大阪府,大阪市中央区,本町橋６番６号,,27,128,5400029,,,,,,,2023-03-20,1,,,,,エーコム,0
1612,8120001253305,新規,0,2023-03-20,2023-03-20,ＵＬＵ株式会社,,株式会社,大阪府,大阪市北区,東天満２丁目２番３号,,27,127,5300044,,,,,,,2023-03-20,1,,,,,ウル,0
1613,8120001253354,新規,0,2023-03-20,2023-03-20,株式会社ＡＲＢＡＤＥＮＴ,,株式会社,大阪府,守口市,寺内町１丁目１３番１６－３０２号,,27,209,5700056,,,,,,,2023-03-20,1,,,,,アルバデント,0
1614,8120001253362,新規,0,2023-03-20,2023-03-20,株式会社ＬＯＧＩＣ　ＳＴＡＮＤＡＲＤ,,株式会社,大阪府,大阪市西区,南堀江４丁目２９番１５－１００３号,,27,106,5500015,,,,,,,2023-03-20,1,,,,,ロジックスタンダード,0
1615,8120001253370,新規,0,2023-03-20,2023-03-20,株式会社ＪＥＡ,,株式会社,大阪府,大阪市北区,梅田１丁目１１番４号大阪駅前第４ビル９階９２３－１６６４号,,27,127,5300001,,,,,,,2023-03-20,1,,,,,ジェイイーエー,0
1616,8120001253395,新規,0,2023-03-20,2023-03-20,はた楽株式会社,,株式会社,大阪府,大阪市中央区,瓦町１丁目７番１号,,27,128,5410048,,,,,,,2023-03-20,1,,,,,ハタラク,0
1624,8120003023648,新規,0,2023-03-20,2023-03-20,ＲＯＹＡＬ　ＥＸＰＲＥＳＳ合同会社,,合同会社,大阪府,枚方市,田口１丁目２３番１３号,,27,210,5731162,,,,,,,2023-03-20,1,,,,,ロイヤルエキスプレス,0
1627,8120101067167,新規,0,2023-03-20,2023-03-20,株式会社Ｚｌｅａｄ,,株式会社,大阪府,堺市北区,金岡町１６５６番地１３,,27,146,5918022,,,,,,,2023-03-20,1,,,,,ゼットリード,0
1629,8120901047178,新規,0,2023-03-20,2023-03-20,株式会社ＵＰＳＴＡＲＴ,,株式会社,大阪府,茨木市,東宮町５－３ｃｕｒｖａ１号室,,27,211,5670812,,,,,,,2023-03-20,1,,,,,アップスタート,0
1630,8120903004549,新規,0,2023-03-20,2023-03-20,合同会社Ｍａｎａ,,合同会社,大阪府,豊中市,熊野町４丁目２３番５号,,27,203,5600014,,,,,,,2023-03-20,1,,,,,マナ,0
1639,8130001073891,新規,0,2023-03-20,2023-03-20,株式会社品之物,,株式会社,京都府,京都市右京区,西京極東池田町３７番地－３Ｆ,,26,108,6150805,,,,,,,2023-03-20,1,,,,,シナノモノ,0
1640,8130001073900,新規,0,2023-03-20,2023-03-20,株式会社Ｕｎｉｍｏｒ,,株式会社,京都府,京都市東山区,宮川筋２丁目２５５,,26,105,6050801,,,,,,,2023-03-20,1,,,,,ユニモア,0
1641,8130001073909,新規,0,2023-03-20,2023-03-20,株式会社ｍｉｌｌｅｎｎｉｕｍ,,株式会社,京都府,八幡市,橋本栗ケ谷６９番地の１６,,26,210,6148327,,,,,,,2023-03-20,1,,,,,ミレニアム,0
1644,8130003008598,新規,0,2023-03-20,2023-03-20,丹山合同会社,,合同会社,京都府,京都市北区,大宮田尻町１１２番地６,,26,101,6038838,,,,,,,2023-03-20,1,,,,,ニヤマ,0
1647,8140001129486,新規,0,2023-03-20,2023-03-20,株式会社ＨＥＸＡ,,株式会社,兵庫県,神戸市東灘区,御影本町８丁目６番１４－１０５号,,28,101,6580046,,,,,,,2023-03-20,1,,,,,ヘクサ,0
1655,8140003018860,新規,0,2023-03-20,2023-03-20,合同会社Ｚａｎａａｔｓ,,合同会社,兵庫県,神戸市北区,南五葉５丁目４番１０号,,28,109,6511132,,,,,,,2023-03-20,1,,,,,ザナッツ,0
1656,8150001026245,新規,0,2023-03-20,2023-03-20,ドローンスカイネット株式会社,,株式会社,奈良県,奈良市,西寺林町１７番地コーポ島田３０１号室,,29,201,6308372,,,,,,,2023-03-20,1,,,,,ドローンスカイネット,0
1660,8180001155438,新規,0,2023-03-20,2023-03-20,株式会社Ｖｉｔａ　ｒｉｃｃｏ,,株式会社,愛知県,江南市,般若町中山１３６番地,,23,217,4838018,,,,,,,2023-03-20,1,,,,,ヴィータリッコ,0
1661,8180001155446,新規,0,2023-03-20,2023-03-20,株式会社ｍｙｓａ,,株式会社,愛知県,名古屋市東区,徳川１丁目５０５番地４,,23,102,4610025,,,,,,,2023-03-20,1,,,,,ミーサ,0
1662,8180001155454,新規,0,2023-03-20,2023-03-20,株式会社ＨＡＬＵＲＥ．,,株式会社,愛知県,丹羽郡扶桑町,大字南山名字前ノ浦３０－２,,23,362,4800105,,,,,,,2023-03-20,1,,,,,ハルレ,0
1665,8180301037212,新規,0,2023-03-20,2023-03-20,株式会社カオルウィスタリア,,株式会社,愛知県,西尾市,米津町天竺桂４１番地,,23,213,4450802,,,,,,,2023-03-20,1,,,,,カオルウィスタリア,0
1671,8220001025314,新規,0,2023-03-20,2023-03-20,株式会社Ｓｉｍｐｌｉｃｉｔｙ,,株式会社,石川県,小松市,日の出町２丁目１３８番地ＲｉｔｚＳｑｕａｒｅ,,17,203,9230868,,,,,,,2023-03-20,1,,,,,シンプリシティー,0
1673,8230001019752,新規,0,2023-03-20,2023-03-20,株式会社ルーシャン,,株式会社,富山県,黒部市,植木１６５番地２,,16,207,9380014,,,,,,,2023-03-20,1,,,,,ルーシャン,0
1677,8240001061225,新規,0,2023-03-20,2023-03-20,株式会社マイレ,,株式会社,広島県,広島市安佐南区,大塚西７丁目３６番７号,,34,105,7313167,,,,,,,2023-03-20,1,,,,,マイレ,0
1678,8240001061233,新規,0,2023-03-20,2023-03-20,株式会社ＫＴ,,株式会社,広島県,三原市,下北方１丁目７番３号,,34,204,7290414,,,,,,,2023-03-20,1,,,,,ケーティー,0
1681,8280001008899,新規,0,2023-03-20,2023-03-20,株式会社中下農園,,株式会社,島根県,浜田市,金城町下来原８６６番地１,,32,202,6970121,,,,,,,2023-03-20,1,,,,,ナカシタノウエン,0
1695,8310005008669,新規,0,2023-03-20,2023-03-20,平戸市特定地域づくり事業協同組合,,その他の設立登記法人,長崎県,平戸市,浦の町７５６番地１,,42,207,8595111,,,,,,,2023-03-20,1,,,,,ヒラドシトクテイチイキヅクリ,0
1697,8330003009766,新規,0,2023-03-20,2023-03-20,Ｓ‐ＰＬＵＳ合同会社,,合同会社,熊本県,熊本市北区,楠７丁目１５番４３号サンコラージュ３０２,,43,105,8618003,,,,,,,2023-03-20,1,,,,,エスプラス,0
1701,8360003012809,新規,0,2023-03-20,2023-03-20,合同会社Ｇｒｏｏｖｅｌｉｎｅ,,合同会社,沖縄県,宜野湾市,大謝名５丁目１１－１５リラッサンテ１０１,,47,205,9012225,,,,,,,2023-03-20,1,,,,,グルーブライン,0
1705,8370001049728,新規,0,2023-03-20,2023-03-20,株式会社Ｍテック,,株式会社,宮城県,牡鹿郡女川町,浦宿浜字大沢４６番地の１,,04,581,9862231,,,,,,,2023-03-20,1,,,,,エムテック,0
1711,8390001017195,新規,0,2023-03-20,2023-03-20,株式会社ケイティス,,株式会社,山形県,西村山郡河北町,谷地字谷地２０番地の２メゾンＪ１、２０１,,06,321,9993511,,,,,,,2023-03-20,1,,,,,ケイティス,0
1713,8400001016179,新規,0,2023-03-20,2023-03-20,株式会社リラウェル保健師事務所,,株式会社,岩手県,花巻市,上根子字欠端１６８番地１,,03,205,0250043,,,,,,,2023-03-20,1,,,,,リラウェルホケンシジムショ,0
1714,8400003003043,新規,0,2023-03-20,2023-03-20,ひふみカンパニー合同会社,,合同会社,岩手県,盛岡市,長橋町１６番４５号,,03,201,0200146,,,,,,,2023-03-20,1,,,,,ヒフミカンパニー,0
1722,8430001088661,新規,0,2023-03-20,2023-03-20,ｍａｒｕｔｅ株式会社,,株式会社,北海道,札幌市中央区,南九条西６丁目１番１２号,,01,101,0640809,,,,,,,2023-03-20,1,,,,,マルテ,0
1723,8430001088678,新規,0,2023-03-20,2023-03-20,株式会社ａｓａｔｔｅ,,株式会社,北海道,札幌市東区,北七条東３丁目２８番３２号井門札幌東ビル４階,,01,103,0600907,,,,,,,2023-03-20,1,,,,,アサッテ,0
1729,8470001019522,新規,0,2023-03-20,2023-03-20,そらなみどり株式会社,,株式会社,香川県,高松市,今新町８番１６号,,37,201,7600043,,,,,,,2023-03-20,1,,,,,ソラナミドリ,0
1730,8470003002369,新規,0,2023-03-20,2023-03-20,合同会社音花一,,合同会社,香川県,坂出市,京町３丁目５番１３号,,37,203,7620001,,,,,,,2023-03-20,1,,,,,オトハナイチ,0
1737,9010001233820,新規,0,2023-03-20,2023-03-20,株式会社キャリアロケッツ,,株式会社,東京都,文京区,本郷４丁目１６番６号,,13,105,1130033,,,,,,,2023-03-20,1,,,,,キャリアロケッツ,0
1738,9010001233837,新規,0,2023-03-20,2023-03-20,ＫＡＯＰＡ株式会社,,株式会社,東京都,中央区,湊３丁目６番１号,,13,102,1040043,,,,,,,2023-03-20,1,,,,,カオパ,0
1750,9010403029734,新規,0,2023-03-20,2023-03-20,ｉｔｓｕｈｏ合同会社,,合同会社,東京都,港区,南青山６丁目８番８号,,13,103,1070062,,,,,,,2023-03-20,1,,,,,イツホ,0
1752,9010405021912,新規,0,2023-03-20,2023-03-20,一般社団法人日本名誉領事連盟,,その他の設立登記法人,東京都,港区,西新橋１丁目１７番１１号ＴＡＭＡＷＯＯＤＹＧＡＴＥＳＨＩＭＢＡＳＨＩ６階,,13,103,1050003,,,,,,,2023-03-20,1,,,,,ニホンメイヨリョウジレンメイ,0
1753,9010405021920,新規,0,2023-03-20,2023-03-20,ＹＡＹＯＩ特定目的会社,,その他の設立登記法人,東京都,港区,赤坂２丁目１０番５号税理士法人赤坂国際会計事務所内,,13,103,1070052,,,,,,,2023-03-20,1,,,,,ヤヨイ,0
1754,9010503006922,新規,0,2023-03-20,2023-03-20,エッジプレス合同会社,,合同会社,東京都,台東区,浅草橋５丁目２－３鈴和ビル２Ｆ,,13,106,1110053,,,,,,,2023-03-20,1,,,,,エッジプレス,0
1757,9010601062784,新規,0,2023-03-20,2023-03-20,Ｗｉｌｄｗｅｂ株式会社,,株式会社,東京都,江東区,亀戸１丁目２５番６号鈴佐ビル３０１,,13,108,1360071,,,,,,,2023-03-20,1,,,,,ワイルドウェブ,0
1759,9010701043965,新規,0,2023-03-20,2023-03-20,株式会社スペースバンク・システム,,株式会社,東京都,品川区,東五反田２丁目３番５号,,13,109,1410022,,,,,,,2023-03-20,1,,,,,スペースバンクシステム,0
1771,9011003016445,新規,0,2023-03-20,2023-03-20,合同会社ＳｔａｔｅＡｒｔ,,合同会社,東京都,渋谷区,神泉町１０番１５号,,13,113,1500045,,,,,,,2023-03-20,1,,,,,ステートアート,0
1778,9011701026084,新規,0,2023-03-20,2023-03-20,日中産経株式会社,,株式会社,東京都,江戸川区,平井７丁目１６号２番,,13,123,1320035,,,,,,,2023-03-20,1,,,,,ニッチュウサンケイ,0
1780,9011803005564,新規,0,2023-03-20,2023-03-20,合同会社六花,,合同会社,東京都,足立区,東伊興１丁目２番１５号カーサ・レバンテ－４－２０２,,13,121,1210801,,,,,,,2023-03-20,1,,,,,リッカ,0
1783,9012301013357,新規,0,2023-03-20,2023-03-20,ＧＯＺ株式会社,,株式会社,東京都,町田市,鶴間２丁目７番地７,,13,209,1940004,,,,,,,2023-03-20,1,,,,,ゴズ,0
1787,9012701017544,新規,0,2023-03-20,2023-03-20,ＮｅｏＶｉｓｉｏｎ株式会社,,株式会社,東京都,西東京市,田無町１丁目６番１５－７０２号,,13,229,1880011,,,,,,,2023-03-20,1,,,,,ネオビジョン,0
1788,9012801022205,新規,0,2023-03-20,2023-03-20,株式会社ＨＡＮＡＢＵＳＡ,,株式会社,東京都,昭島市,美堀町１丁目１９番１６号,,13,207,1960001,,,,,,,2023-03-20,1,,,,,ハナブサ,0
1789,9013301050423,新規,0,2023-03-20,2023-03-20,康納商事株式会社,,株式会社,東京都,豊島区,南大塚１丁目６０－２０天翔大塚駅前ビル８階Ｓ８１２号室,,13,116,1700005,,,,,,,2023-03-20,1,,,,,カンノショウジ,0
1790,9013303006547,新規,0,2023-03-20,2023-03-20,合同会社Ｂｅｓｔ　ｊｏｂ　ｓｏｌｕｔｉｏｎ,,合同会社,東京都,豊島区,東池袋２丁目６２番８号ＢＩＧオフィスプラザ池袋１１０２,,13,116,1700013,,,,,,,2023-03-20,1,,,,,ベストジョブソリューション,0
1806,9030001152936,新規,0,2023-03-20,2023-03-20,株式会社三栄物産,,株式会社,埼玉県,飯能市,新町２２番４号,,11,209,3570004,,,,,,,2023-03-20,1,,,,,サンエイブッサン,0
1819,9040001127565,新規,0,2023-03-20,2023-03-20,株式会社瀧興業,,株式会社,千葉県,松戸市,新松戸南１丁目３８７番地川村ハイム２０３号,,12,207,2700035,,,,,,,2023-03-20,1,,,,,タキコウギョウ,0
1820,9040001127573,新規,0,2023-03-20,2023-03-20,ＡＺＴＵＮサービス株式会社,,株式会社,千葉県,印西市,滝野１丁目１５番１０号,,12,231,2702329,,,,,,,2023-03-20,1,,,,,アズチューンサービス,0
1822,9040005021921,新規,0,2023-03-20,2023-03-20,農事組合法人佐倉市蓮根生産組合,,その他の設立登記法人,千葉県,佐倉市,八木１０００番地１,,12,212,2850052,,,,,,,2023-03-20,1,,,,,サクラシレンコンセイサンクミアイ,0
1826,9050001052481,新規,0,2023-03-20,2023-03-20,アマテラスホールディングス株式会社,,株式会社,茨城県,取手市,新町１丁目９－１リボンとりで５Ｆ,,08,217,3020024,,,,,,,2023-03-20,1,,,,,アマテラスホールディングス,0
1831,9070001040245,新規,0,2023-03-20,2023-03-20,株式会社マイデザイン,,株式会社,群馬県,高崎市,上中居町４９４番地１４,,10,202,3700851,,,,,,,2023-03-20,1,,,,,マイデザイン,0
1833,9070003004867,新規,0,2023-03-20,2023-03-20,合同会社ルーチェ,,合同会社,群馬県,高崎市,上中居町１２２番地９リジョンＣ３０６号,,10,202,3700851,,,,,,,2023-03-20,1,,,,,ルーチェ,0
1835,9070005010095,新規,0,2023-03-20,2023-03-20,特定非営利活動法人ＳＫＩＬＬＳカウンセリングセンター,,その他の設立登記法人,群馬県,伊勢崎市,除ケ町３８０番地６グリーンベール除ヶ町Ａ２１０,,10,204,3720832,,,,,,,2023-03-20,1,,,,,スキルズカウンセリングセンター,0
1836,9080001025526,新規,0,2023-03-20,2023-03-20,株式会社Ｄｉｖａ　Ｐｌｕｓ,,株式会社,静岡県,静岡市葵区,唐瀬１丁目２１番７号,,22,101,4200937,,,,,,,2023-03-20,1,,,,,ディーバプラス,0
1842,9100001036215,新規,0,2023-03-20,2023-03-20,株式会社ケンキ,,株式会社,長野県,北佐久郡御代田町,大字塩野３２０１番地２,,20,323,3890201,,,,,,,2023-03-20,1,,,,,ケンキ,0
1843,9110001037377,新規,0,2023-03-20,2023-03-20,アサヒプランニング株式会社,,株式会社,新潟県,三条市,横町１丁目７番１号,,15,204,9550064,,,,,,,2023-03-20,1,,,,,アサヒプランニング,0
1851,9120001253345,新規,0,2023-03-20,2023-03-20,株式会社ＬＵＣＫＹ　ＣＡＴＳ,,株式会社,大阪府,枚方市,津田駅前１丁目７番１号,,27,210,5730125,,,,,,,2023-03-20,1,,,,,ラッキーキャッツ,0
1852,9120001253353,新規,0,2023-03-20,2023-03-20,王貴開発株式会社,,株式会社,大阪府,大阪市天王寺区,寺田町２丁目５－６－８０５,,27,109,5430045,,,,,,,2023-03-20,1,,,,,オウキカイハツ,0
1854,9120003023630,新規,0,2023-03-20,2023-03-20,合同会社セブンエイト,,合同会社,大阪府,守口市,梶町１丁目５８－８－４０５,,27,209,5700015,,,,,,,2023-03-20,1,,,,,セブンエイト,0
1855,9120003023639,新規,0,2023-03-20,2023-03-20,ＡＤ‐ＨＯＣ合同会社,,合同会社,大阪府,大阪市北区,万歳町１番７号,,27,127,5300028,,,,,,,2023-03-20,1,,,,,アドホック,0
1856,9120003023647,新規,0,2023-03-20,2023-03-20,合同会社海心和,,合同会社,大阪府,大阪市西成区,松３丁目１１－２９,,27,122,5570034,,,,,,,2023-03-20,1,,,,,ミコト,0
1857,9120003023655,新規,0,2023-03-20,2023-03-20,合同会社シャングリラ,,合同会社,大阪府,寝屋川市,春日町２８番９号,,27,215,5720063,,,,,,,2023-03-20,1,,,,,シャングリラ,0
1858,9120005023521,新規,0,2023-03-20,2023-03-20,特定非営利活動法人いきいきムーン,,その他の設立登記法人,大阪府,大阪市鶴見区,横堤４丁目２０番１０－８０３号,,27,124,5380052,,,,,,,2023-03-20,1,,,,,イキイキムーン,0
1861,9120103005124,新規,0,2023-03-20,2023-03-20,ヴェアリアスカラーズ合同会社,,合同会社,大阪府,堺市中区,陶器北１０４６番地１２,,27,142,5998242,,,,,,,2023-03-20,1,,,,,ヴェアリアスカラーズ,0
1865,9130001073899,新規,0,2023-03-20,2023-03-20,株式会社智慧門,,株式会社,京都府,京都市中京区,新町通三条上る町頭町１１２番地菊三ビル２０１号,,26,104,6048206,,,,,,,2023-03-20,1,,,,,チエモン,0
1866,9130001073908,新規,0,2023-03-20,2023-03-20,株式会社ＳＡＶＬＡＴ　ＴＲＡＤＩＮＧ,,株式会社,京都府,京田辺市,田辺茂ケ谷１４２番３,,26,211,6100331,,,,,,,2023-03-20,1,,,,,サブラタトレーディング,0
1870,9140001129502,新規,0,2023-03-20,2023-03-20,株式会社ヴィルモス,,株式会社,兵庫県,伊丹市,稲野町６丁目５番地,,28,207,6640861,,,,,,,2023-03-20,1,,,,,ヴィルモス,0
1871,9140001129510,新規,0,2023-03-20,2023-03-20,おはし総研株式会社,,株式会社,兵庫県,西宮市,桜谷町１１－２０－１０３,,28,204,6620032,,,,,,,2023-03-20,1,,,,,オハシソウケン,0
1872,9160005011175,新規,0,2023-03-20,2023-03-20,一般社団法人グラウンドギャランティー,,その他の設立登記法人,滋賀県,彦根市,小泉町３００－９サンロードビルＩＩ３０３Ａ号室,00129803,25,202,5220043,,,,,,,2023-03-20,1,,,,,グラウンドギャランティー,0
1875,9180001155412,新規,0,2023-03-20,2023-03-20,株式会社ジェネシスジャパン,,株式会社,愛知県,名古屋市中村区,太閤４丁目４番９号,,23,105,4530801,,,,,,,2023-03-20,1,,,,,ジェネシスジャパン,0
1876,9180003025002,新規,0,2023-03-20,2023-03-20,カナウ合同会社,,合同会社,愛知県,名古屋市東区,大幸南２丁目２番６－４０４号（サンハイツ鍋屋上野）,,23,102,4610047,,,,,,,2023-03-20,1,,,,,カナウ,0
1878,9180005020141,新規,0,2023-03-20,2023-03-20,医療法人桜昂会,,その他の設立登記法人,愛知県,尾張旭市,東印場町１丁目１番地６,,23,226,4880830,,,,,,,2023-03-20,1,,,,,オウコウカイ,0
1880,9180301037194,新規,0,2023-03-20,2023-03-20,株式会社庄屋アグリ,,株式会社,愛知県,豊橋市,羽根井本町１１０番地１,,23,201,4418029,,,,,,,2023-03-20,1,,,,,ショウヤアグリ,0
1886,9190001030259,新規,0,2023-03-20,2023-03-20,株式会社Ｔ．Ｍホールディングス,,株式会社,三重県,尾鷲市,中川３０番１０号,,24,209,5193639,,,,,,,2023-03-20,1,,,,,ティーエムホールディングス,0
1890,9210003001619,新規,0,2023-03-20,2023-03-20,合同会社ＲＥＴＥＮＴＩＲ．,,合同会社,福井県,福井市,順化２丁目１２番１号ＫＴ・ＮＩＮＥビル２Ｆ,,18,201,9100023,,,,,,,2023-03-20,1,,,,,ルタンティール,0
1891,9230001019751,新規,0,2023-03-20,2023-03-20,株式会社サポートアンドケア,,株式会社,富山県,富山市,米田すずかけ台２丁目９番１号,,16,201,9318306,,,,,,,2023-03-20,1,,,,,サポートアンドケア,0
1900,9270003001506,新規,0,2023-03-20,2023-03-20,イートビート合同会社,,合同会社,鳥取県,鳥取市,湯所町２丁目５６１番地,,31,201,6800007,,,,,,,2023-03-20,1,,,,,,0
1903,9290001100919,新規,0,2023-03-20,2023-03-20,株式会社ノヴァイフ,,株式会社,福岡県,福岡市中央区,六本松２丁目５番９号,,40,133,8100044,,,,,,,2023-03-20,1,,,,,ノヴァイフ,0
1904,9290001100935,新規,0,2023-03-20,2023-03-20,株式会社ＨＮＹパートナーズ,,株式会社,福岡県,福岡市中央区,大名１丁目８番１２号２階,,40,133,8100041,,,,,,,2023-03-20,1,,,,,エイチエヌワイパートナーズ,0
1913,9290801029390,新規,0,2023-03-20,2023-03-20,株式会社カンティ,,株式会社,福岡県,北九州市小倉北区,黒住町５番１６号６号室,,40,106,8020056,,,,,,,2023-03-20,1,,,,,カンティ,0
1919,9360001031719,新規,0,2023-03-20,2023-03-20,株式会社千秀,,株式会社,沖縄県,沖縄市,諸見里１丁目７番１号１階,,47,211,9040032,,,,,,,2023-03-20,1,,,,,センシュウ,0
1920,9360001031727,新規,0,2023-03-20,2023-03-20,ＯＦＩ株式会社,,株式会社,沖縄県,国頭郡国頭村,字辺土名１４２９番地,,47,301,9051411,,,,,,,2023-03-20,1,,,,,オーエフアイ,0
1922,9370001049702,新規,0,2023-03-20,2023-03-20,株式会社すずや,,株式会社,宮城県,仙台市太白区,西多賀４丁目１６番３１号,,04,104,9820034,,,,,,,2023-03-20,1,,,,,スズヤ,0
1927,9390001017194,新規,0,2023-03-20,2023-03-20,株式会社環ｍｅｇｕｒｕ,,株式会社,山形県,山形市,六日町９番３０号,,06,201,9900054,,,,,,,2023-03-20,1,,,,,メグル,0
1932,9430001088660,新規,0,2023-03-20,2023-03-20,株式会社リサイクルショップアース,,株式会社,北海道,江別市,美原１４０１番地,,01,217,0670056,,,,,,,2023-03-20,1,,,,,リサイクルショップアース,0
1933,9430001088685,新規,0,2023-03-20,2023-03-20,Ｔ‐ＳＫＹ株式会社,,株式会社,北海道,札幌市白石区,東米里２１９２－８６,,01,104,0030876,,,,,,,2023-03-20,1,,,,,ティースカイ,0
1935,9430005014654,新規,0,2023-03-20,2023-03-20,特定非営利活動法人岩見沢学童野球クラブ,,その他の設立登記法人,北海道,岩見沢市,緑が丘３丁目２００番地２３,,01,210,0680835,,,,,,,2023-03-20,1,,,,,イワミザワガクドウヤキュウクラブ,0
1941,9500005008590,新規,0,2023-03-20,2023-03-20,特定非営利活動法人シーグラス,,その他の設立登記法人,愛媛県,松山市,畑寺町乙１６番地,,38,201,7900912,,,,,,,2023-03-20,1,,,,,シーグラス,0
