sequenceNumber,corporateNumber,process,correct,updateDate,changeDate,name,nameImageId,kind,prefectureName,cityName,streetNumber,addressImageId,prefectureCode,cityCode,postCode,addressOutside,addressOutsideImageId,closeDate,closeCause,successorCorporateNumber,changeCause,assignmentDate,latest,enName,enPrefectureName,enCityName,enAddressOutside,furigana,hihyoji
1,1010001002852,登記記録の閉鎖等,0,2024-11-14,2024-10-31,株式会社小森不動産鑑定事務所,,株式会社,東京都,文京区,千駄木３丁目５０番２号,,13,105,1130022,,,2024-10-31,清算の結了等,,,2015-10-05,1,,,,,コモリフドウサンカンテイジムショ,0
58,1010403024998,登記記録の閉鎖等,0,2024-11-14,2024-10-28,合同会社トレック・マーキュリー,,合同会社,東京都,港区,赤坂７丁目６番１５号,,13,103,1070052,,,2024-10-28,清算の結了等,,,2021-03-30,1,,,,,トレックマーキュリー,0
75,1011001023475,登記記録の閉鎖等,0,2024-11-14,2024-11-07,株式会社八木原建具製作所,,株式会社,東京都,渋谷区,松濤２丁目１７番１号,,13,113,1500046,,,2024-11-07,清算の結了等,,,2015-10-05,1,,,,,ヤギハラタテグセイサクショ,0
100,1011601024880,登記記録の閉鎖等,0,2024-11-14,2024-11-08,株式会社ジャニス,,株式会社,東京都,練馬区,大泉学園町５丁目１３番２号,,13,120,1780061,,,2024-11-08,清算の結了等,,,2021-03-01,1,,,,,ジャニス,0
109,1013301027651,登記記録の閉鎖等,0,2024-11-14,2024-11-05,サンコー・エンジニアリング株式会社,,株式会社,東京都,豊島区,池袋３丁目５１番７－４０５号,,13,116,1710014,,,2024-11-05,清算の結了等,,,2015-10-05,1,,,,,サンコーエンジニアリング,0
112,1013303007107,登記記録の閉鎖等,0,2024-11-14,2024-11-05,合同会社ＪＡＰＡＮ　ＡＮＥＴ,,合同会社,東京都,豊島区,南池袋１丁目９番１８号,,13,116,1710022,,,2024-11-05,清算の結了等,,,2024-04-22,1,,,,,ジャパンアネット,0
133,1021003008077,登記記録の閉鎖等,0,2024-11-14,2024-11-12,エイ・マックス生化学研究所合同会社,,合同会社,神奈川県,相模原市南区,大野台１丁目８番３１－６０１号,,14,153,2520331,,,2024-11-12,清算の結了等,,,2019-01-17,1,,,,,エイマックスセイカガクケンキュウジョ,0
145,1040002024224,登記記録の閉鎖等,0,2024-11-14,2024-11-08,有限会社中村屋肉店,,有限会社,千葉県,船橋市,市場１丁目８番１号,,12,204,2730001,,,2024-11-08,清算の結了等,,,2015-10-05,1,,,,,ナカムラヤニクテン,0
146,1040002092832,登記記録の閉鎖等,0,2024-11-14,2024-11-08,有限会社千葉ダイワエンタープライズ,,有限会社,千葉県,我孫子市,湖北台１０丁目７番８号,,12,222,2701132,,,2024-11-08,清算の結了等,,,2015-10-05,1,,,,,チバダイワエンタープライズ,0
159,1080002009031,登記記録の閉鎖等,0,2024-11-14,2024-11-07,株式会社ミューフル・ワールド,,株式会社,静岡県,静岡市清水区,緑が丘町２２番１８号,,22,103,4240928,,,2024-11-07,清算の結了等,,,2015-10-05,1,,,,,ミューフルワールド,0
170,1100002015217,登記記録の閉鎖等,0,2024-11-14,2024-11-06,有限会社古沢電子産業,,有限会社,長野県,小県郡青木村,大字村松２０７１番地７,,20,349,3861602,,,2024-11-06,清算の結了等,,,2015-10-05,1,,,,,フルサワデンシサンギョウ,0
173,1120001034422,登記記録の閉鎖等,0,2024-11-14,2024-11-13,恵美須屋塗料株式会社,,株式会社,大阪府,守口市,大宮通１丁目１１番３号,,27,209,5700033,,,2024-11-13,清算の結了等,,,2015-10-05,1,,,,,エビスヤトリョウ,0
176,1120001071531,登記記録の閉鎖等,0,2024-11-14,2024-11-11,株式会社山なみ,,株式会社,大阪府,大阪市北区,中津１丁目２番１０号,,27,127,5310071,,,2024-11-11,清算の結了等,,,2015-10-05,1,,,,,ヤマナミ,0
191,1122005002660,登記記録の閉鎖等,0,2024-11-14,2024-11-12,特定非営利活動法人コミュニティースポーツシステム研究会,,その他の設立登記法人,大阪府,柏原市,旭ケ丘４丁目６９８番地１,,27,221,5820026,,,2024-11-12,清算の結了等,,,2015-10-05,1,,,,,コミュニティースポーツシステムケンキュウカイ,0
201,1140002040979,登記記録の閉鎖等,0,2024-11-14,2024-11-08,有限会社サンセイ産業,,有限会社,大阪府,枚方市,香里ケ丘１１丁目５番１５号,,27,210,5730084,,,2024-11-08,清算の結了等,,,2015-10-05,1,,,,,サンセイサンギョウ,0
202,1150001001618,登記記録の閉鎖等,0,2024-11-14,2024-11-11,南都ビジネスサービス株式会社,,株式会社,奈良県,奈良市,南京終町１丁目９３番地２,,29,201,6308141,,,2024-11-11,清算の結了等,,,2015-10-05,1,,,,,ナントビジネスサービス,0
203,1150001015493,登記記録の閉鎖等,0,2024-11-14,2024-11-11,株式会社視聴覚システム岡本デンキ,,株式会社,奈良県,五條市,野原西１丁目１番３号,,29,207,6370036,,,2024-11-11,清算の結了等,,,2015-10-05,1,,,,,シチョウカクシステムオカモトデンキ,0
204,1150002011269,登記記録の閉鎖等,0,2024-11-14,2024-11-11,有限会社フクニシ,,有限会社,奈良県,吉野郡下市町,大字新住１４５番地,,29,443,6380045,,,2024-11-11,清算の結了等,,,2015-10-05,1,,,,,フクニシ,0
211,1180001134332,登記記録の閉鎖等,0,2024-11-14,2024-11-05,ビナメックス株式会社,,株式会社,愛知県,豊明市,沓掛町井ノ上１番地１,,23,229,4701101,,,2024-11-05,清算の結了等,,,2018-11-05,1,,,,,ビナメックス,0
220,1190005003581,登記記録の閉鎖等,0,2024-11-14,2024-11-12,紀宝ウミガメ物産振興協同組合,,その他の設立登記法人,三重県,南牟婁郡紀宝町,鵜殿１３８８番地,,24,562,5195701,,,2024-11-12,清算の結了等,,,2015-10-05,1,,,,,キホウウミガメブッサンシンコウ,0
224,1210002007789,登記記録の閉鎖等,0,2024-11-14,2024-11-12,サカイ電子工業有限会社,,有限会社,福井県,坂井市,丸岡町霞町１丁目５７番地３,,18,210,9100231,,,2024-11-12,清算の結了等,,,2015-10-05,1,,,,,サカイデンシコウギョウ,0
232,1270001008238,登記記録の閉鎖等,0,2024-11-14,2024-11-12,株式会社皆風,,株式会社,鳥取県,米子市,新開７丁目１０番５号２０３号,,31,202,6830801,,,2024-11-12,清算の結了等,,,2021-04-01,1,,,,,ミナミカゼ,0
253,1370003003887,登記記録の閉鎖等,0,2024-11-14,2024-11-01,扇ボーリング合同会社,,合同会社,宮城県,塩竈市,みのが丘６番１３号,,04,203,9850073,,,2024-11-01,清算の結了等,,,2017-07-31,1,,,,,オオギボーリング,0
258,1410001007159,登記記録の閉鎖等,0,2024-11-14,2024-10-25,塚本建設株式会社,,株式会社,秋田県,能代市,大手町３番５号,,05,202,0160805,,,2024-10-25,清算の結了等,,,2015-10-05,1,,,,,,0
266,1430003003303,登記記録の閉鎖等,0,2024-11-14,2024-11-08,合名会社山十村木,,合名会社,北海道,小樽市,富岡１丁目１５番１３号,,01,203,0470033,,,2024-11-08,清算の結了等,,,2015-10-05,1,,,,,ヤマジュウムラキ,0
267,1430003010134,登記記録の閉鎖等,0,2024-11-14,2024-11-11,ＪＭＣ　ＣＡＲＥ合同会社,,合同会社,北海道,札幌市東区,北四十三条東４丁目１番２０－１０１号,,01,103,0070843,,,2024-11-11,清算の結了等,,,2019-02-08,1,,,,,ジェイエムシーケア,0
269,1460301000775,登記記録の閉鎖等,0,2024-11-14,2024-11-14,株式会社西川工務店,,株式会社,北海道,北見市,留辺蘂町栄町３３番地１,,01,208,0910033,,,2024-11-14,清算の結了等,,,2015-10-05,1,,,,,,0
284,2010001012470,登記記録の閉鎖等,0,2024-11-14,2024-11-11,株式会社エフ・ビー・エス,,株式会社,東京都,中野区,本町２丁目４６番１号,,13,114,1640012,,,2024-11-11,合併による解散等,6011101018180,令和６年１１月１日東京都新宿区西新宿七丁目５番２５号ヒューマンリソシア株式会社（6011101018180）に合併し解散,2015-10-05,1,,,,,エフビーエス,0
288,2010001167182,登記記録の閉鎖等,0,2024-11-14,2024-10-31,ＪＰＣ第１５号株式会社,,株式会社,東京都,千代田区,霞が関３丁目２番１号,,13,101,1000013,,,2024-10-31,清算の結了等,,,2015-10-05,1,,,,,ジェイピーシーダイジュウゴゴウ,0
324,2010102004499,登記記録の閉鎖等,0,2024-11-14,2024-11-11,有限会社つしま塗装,,有限会社,東京都,八王子市,戸吹町１１３番地の３,,13,201,1920001,,,2024-11-11,清算の結了等,,,2015-10-05,1,,,,,,0
325,2010102007460,登記記録の閉鎖等,0,2024-11-14,2024-11-11,有限会社和田製作所,,有限会社,東京都,八王子市,川町６３０番地,,13,201,1930821,,,2024-11-11,清算の結了等,,,2015-10-05,1,,,,,,0
326,2010401069672,登記記録の閉鎖等,0,2024-11-14,2024-10-28,３８５インターナショナル株式会社,,株式会社,東京都,港区,港南２丁目１６番７号,,13,103,1080075,,,2024-10-28,清算の結了等,,,2015-10-05,1,,,,,サンハチゴインターナショナル,0
335,2010501003886,登記記録の閉鎖等,0,2024-11-14,2024-11-07,株式会社小滝商会,,株式会社,東京都,台東区,今戸１丁目１３番１０号,,13,106,1110024,,,2024-11-07,清算の結了等,,,2015-10-05,1,,,,,コタキショウカイ,0
336,2010502004883,登記記録の閉鎖等,0,2024-11-14,2024-11-06,有限会社サトル,,有限会社,東京都,台東区,花川戸１丁目１５番７号,,13,106,1110033,,,2024-11-06,清算の結了等,,,2015-10-05,1,,,,,サトル,0
407,2021001039288,登記記録の閉鎖等,0,2024-11-14,2024-11-12,株式会社アールドットシフル,,株式会社,神奈川県,平塚市,岡崎３３２７番地の９,,14,203,2591212,,,2024-11-12,清算の結了等,,,2015-10-05,1,,,,,アールドットシフル,0
413,2021002060805,登記記録の閉鎖等,0,2024-11-14,2024-11-13,有限会社参拾商事,,有限会社,神奈川県,中郡二宮町,一色３６５番地の４,,14,342,2590134,,,2024-11-13,清算の結了等,,,2015-10-05,1,,,,,,0
419,2030001120767,登記記録の閉鎖等,0,2024-11-14,2024-11-06,株式会社スターライツマネージメント,,株式会社,埼玉県,上尾市,東町２丁目６番１３－３１号,,11,219,3620031,,,2024-11-06,清算の結了等,,,2017-06-13,1,,,,,スターライツマネージメント,0
421,2030001141557,登記記録の閉鎖等,0,2024-11-14,2024-11-11,株式会社みらい生命研究所,,株式会社,埼玉県,越谷市,赤山本町２番地１１プランドール雅ビルＩＩ,00122630,11,222,3430808,,,2024-11-11,清算の結了等,,,2021-04-06,1,,,,,ミライセイメイケンキュウジョ,0
425,2030002020157,登記記録の閉鎖等,0,2024-11-14,2024-11-11,有限会社コスモステンレス,,有限会社,埼玉県,さいたま市緑区,大字寺山１９３番地,,11,109,3360976,,,2024-11-11,清算の結了等,,,2015-10-05,1,,,,,コスモステンレス,0
431,2040001030973,登記記録の閉鎖等,0,2024-11-14,2024-11-07,株式会社藤,,株式会社,千葉県,市川市,市川１丁目２３番９号,,12,203,2720034,,,2024-11-07,清算の結了等,,,2015-10-05,1,,,,,フジ,0
432,2040001084994,登記記録の閉鎖等,0,2024-11-14,2024-11-08,Ｓｐｌｕｓ株式会社,,株式会社,千葉県,浦安市,富士見５丁目２番４３号メゾンドグリシーヌ２０２,,12,227,2790043,,,2024-11-08,清算の結了等,,,2015-10-05,1,,,,,エスプラス,0
450,2080101016381,登記記録の閉鎖等,0,2024-11-14,2024-11-12,Ｄｅｓｋ＆Ｃｈａｉｒ株式会社,,株式会社,静岡県,沼津市,庄栄町２番地１８庄栄ビル３階,,22,203,4100047,,,2024-11-12,清算の結了等,,,2015-10-05,1,,,,,デスクアンドチェア,0
451,2080101024979,登記記録の閉鎖等,0,2024-11-14,2024-11-08,株式会社富士見製作所,,株式会社,静岡県,富士宮市,山本４７５番地の１,,22,207,4180023,,,2024-11-08,清算の結了等,,,2024-09-03,1,,,,,フジミセイサクショ,0
452,2080102011811,登記記録の閉鎖等,0,2024-11-14,2024-11-13,有限会社村田精工,,有限会社,静岡県,田方郡函南町,肥田５１６番地の２,,22,325,4190125,,,2024-11-13,清算の結了等,,,2015-10-05,1,,,,,ムラタセイコウ,0
453,2080102011869,登記記録の閉鎖等,0,2024-11-14,2024-11-11,有限会社ヤスナ,,有限会社,静岡県,三島市,西若町９番３６号,,22,206,4110038,,,2024-11-11,清算の結了等,,,2015-10-05,1,,,,,ヤスナ,0
460,2110001008467,登記記録の閉鎖等,0,2024-11-14,2024-11-08,株式会社ＪＳＮ,,株式会社,新潟県,新潟市中央区,東堀通１番町４９４番地３,,15,103,9518065,,,2024-11-08,合併による解散等,6110001001105,令和６年１１月１日新潟市中央区東堀通一番町４９４番地３愛宕商事株式会社（6110001001105）に合併し解散,2015-10-05,1,,,,,ジェイエスエヌ,0
466,2120001246743,登記記録の閉鎖等,0,2024-11-14,2024-11-07,アシスト株式会社,,株式会社,大阪府,大阪市東淀川区,東中島１丁目６番１４号,,27,114,5330033,,,2024-11-07,清算の結了等,,,2022-06-17,1,,,,,アシスト,0
488,2140002025946,登記記録の閉鎖等,0,2024-11-14,2024-11-11,有限会社ソフィア,,有限会社,兵庫県,芦屋市,東山町１６番１－５０８号,,28,206,6590091,,,2024-11-11,清算の結了等,,,2015-10-05,1,,,,,ソフィア,0
489,2140002027810,登記記録の閉鎖等,0,2024-11-14,2024-11-11,有限会社アイック,,有限会社,兵庫県,神戸市東灘区,本山中町４丁目９番２７ベルレーブ本山３０６号,,28,101,6580016,,,2024-11-11,清算の結了等,,,2015-10-05,1,,,,,アイック,0
499,2150002010435,登記記録の閉鎖等,0,2024-11-14,2024-11-11,吉井薬品有限会社,,有限会社,奈良県,橿原市,八木町１丁目４番９号,,29,205,6340078,,,2024-11-11,清算の結了等,,,2015-10-05,1,,,,,ヨシイヤクヒン,0
515,2180301030866,登記記録の閉鎖等,0,2024-11-14,2024-11-13,株式会社ＡＴライン,,株式会社,愛知県,西尾市,住崎２丁目９番地,,23,213,4450879,,,2024-11-13,清算の結了等,,,2017-10-17,1,,,,,エーティーライン,0
522,2200002026921,登記記録の閉鎖等,0,2024-11-14,2024-11-12,有限会社中田産業,,有限会社,岐阜県,飛騨市,神岡町船津１３２５番地,,21,217,5061161,,,2024-11-12,清算の結了等,,,2015-10-05,1,,,,,ナカダサンギョウ,0
537,2260002017907,登記記録の閉鎖等,0,2024-11-14,2024-11-11,有限会社久良夢・二,,有限会社,岡山県,倉敷市,児島味野上２丁目８番８号,,33,202,7110917,,,2024-11-11,清算の結了等,,,2015-10-05,1,,,,,クラムツー,0
551,2320001001806,登記記録の閉鎖等,0,2024-11-14,2024-11-12,株式会社鶴崎青果魚市場,,株式会社,大分県,大分市,徳島１丁目９番１３号,,44,201,8700109,,,2024-11-12,清算の結了等,,,2015-10-05,1,,,,,ツルサキセイカウオイチバ,0
559,2350002005563,登記記録の閉鎖等,0,2024-11-14,2024-11-08,有限会社アドバイザータカヤマ,,有限会社,宮崎県,宮崎市,江南２丁目２１番１７号,,45,201,8800944,,,2024-11-08,清算の結了等,,,2015-10-05,1,,,,,アドバイザータカヤマ,0
580,2500001015291,登記記録の閉鎖等,0,2024-11-14,2024-11-08,氏原商事株式会社,,株式会社,愛媛県,宇和島市,坂下津甲４０７番地の５４,,38,203,7980087,,,2024-11-08,清算の結了等,,,2015-10-05,1,,,,,ウジハラショウジ,0
588,3010001166687,登記記録の閉鎖等,0,2024-11-14,2024-11-12,フューチャー・ビジョン株式会社,,株式会社,静岡県,御殿場市,板妻５８１番地２,,22,215,4120048,,,2024-11-12,清算の結了等,,,2015-10-05,1,,,,,フューチャービジョン,0
589,3010001178930,登記記録の閉鎖等,0,2024-11-14,2024-10-31,ＪＰＡ第４７号株式会社,,株式会社,東京都,千代田区,霞が関３丁目２番１号,,13,101,1000013,,,2024-10-31,清算の結了等,,,2016-10-14,1,,,,,ジェイピーエーダイヨンジュウナナゴウ,0
591,3010001192072,登記記録の閉鎖等,0,2024-11-14,2024-10-31,ＪＰＯ第４号株式会社,,株式会社,東京都,千代田区,霞が関３丁目２番１号,,13,101,1000013,,,2024-10-31,清算の結了等,,,2018-05-25,1,,,,,ジェイピーオーダイヨンゴウ,0
625,3010401130680,登記記録の閉鎖等,0,2024-11-14,2024-10-25,株式会社ライフスタイルマイニング,,株式会社,東京都,港区,港南２丁目１５番１号,,13,103,1080075,,,2024-10-25,清算の結了等,,,2017-04-13,1,,,,,ライフスタイルマイニング,0
681,3011601025191,登記記録の閉鎖等,0,2024-11-14,2024-11-08,株式会社コードフィールド,,株式会社,東京都,練馬区,北町１丁目２４－１５,,13,120,1790081,,,2024-11-08,清算の結了等,,,2021-06-21,1,,,,,コードフィールド,0
697,3013301050817,登記記録の閉鎖等,0,2024-11-14,2024-11-08,ＭＯＳＯ株式会社,,株式会社,東京都,豊島区,目白５丁目３０番８号リバティパレス目白１０１号室,,13,116,1710031,,,2024-11-08,清算の結了等,,,2023-05-25,1,,,,,モソ,0
705,3020002094639,登記記録の閉鎖等,0,2024-11-14,2024-10-28,有限会社大遊商事,,有限会社,神奈川県,川崎市麻生区,片平１７４７番地３,,14,137,2150023,,,2024-10-28,清算の結了等,,,2015-10-05,1,,,,,ダイユウショウジ,0
718,3021002005602,登記記録の閉鎖等,0,2024-11-14,2024-11-12,有限会社丸達,,有限会社,神奈川県,藤沢市,善行１丁目１５番地の１,,14,205,2510871,,,2024-11-12,清算の結了等,,,2015-10-05,1,,,,,マルタツ,0
725,3030001083501,登記記録の閉鎖等,0,2024-11-14,2024-11-11,株式会社小栗商会,,株式会社,埼玉県,川口市,飯塚２丁目２番１０－１８０８号ドリームタワー,,11,203,3320023,,,2024-11-11,清算の結了等,,,2015-10-05,1,,,,,オグリショウカイ,0
726,3030001085514,登記記録の閉鎖等,0,2024-11-14,2024-11-11,荒川石産興業株式会社,,株式会社,埼玉県,熊谷市,手島８４番地,,11,202,3600121,,,2024-11-11,清算の結了等,,,2015-10-05,1,,,,,アラカワセキサンコウギョウ,0
742,3030002097285,登記記録の閉鎖等,0,2024-11-14,2024-11-11,有限会社えじまや,,有限会社,埼玉県,比企郡小川町,大字小川１８２番地４,,11,343,3550321,,,2024-11-11,清算の結了等,,,2015-10-05,1,,,,,,0
744,3030002121722,登記記録の閉鎖等,0,2024-11-14,2024-11-11,株式会社星野商会,,株式会社,埼玉県,秩父市,中宮地町７番２１号,,11,207,3680022,,,2024-11-11,清算の結了等,,,2015-10-05,1,,,,,ホシノショウカイ,0
774,3080101015622,登記記録の閉鎖等,0,2024-11-14,2024-11-05,株式会社御殿場とうふ直売店ＺＯＯ,,株式会社,静岡県,御殿場市,竈１３４番地,,22,215,4120039,,,2024-11-05,清算の結了等,,,2015-10-05,1,,,,,ゴテンバトウフチョクバイテンズー,0
776,3080102009648,登記記録の閉鎖等,0,2024-11-14,2024-11-08,有限会社エス企画,,有限会社,静岡県,三島市,初音台１１番地の２６,,22,206,4110018,,,2024-11-08,清算の結了等,,,2015-10-05,1,,,,,エスキカク,0
777,3090001014418,登記記録の閉鎖等,0,2024-11-14,2024-11-08,株式会社Ｃｏｍｐａｎｙ　Ｇ,,株式会社,山梨県,中巨摩郡昭和町,西条１７９２番地３,,19,384,4093866,,,2024-11-08,清算の結了等,,,2016-01-08,1,,,,,カンパニージー,0
778,3090001016760,登記記録の閉鎖等,0,2024-11-14,2024-11-08,株式会社ＩＬＭ,,株式会社,山梨県,韮崎市,若宮２丁目９番４７号,,19,207,4070015,,,2024-11-08,清算の結了等,,,2020-12-15,1,,,,,イルム,0
787,3100003006345,登記記録の閉鎖等,0,2024-11-14,2024-11-05,丸美農園合同会社,,合同会社,長野県,須坂市,村山町４１１,,20,207,3820000,,,2024-11-05,清算の結了等,,,2022-01-07,1,,,,,マルビノウエン,0
793,3120001247971,登記記録の閉鎖等,0,2024-11-14,2024-10-31,株式会社スマートフィックス,,株式会社,大阪府,大阪市北区,梅田１丁目１番３号大阪駅前第三ビル７階,,27,127,5300001,,,2024-10-31,合併による解散等,8120901039241,令和６年１０月３１日大阪市淀川区西中島六丁目１番３号株式会社シナジーグローバル（8120901039241）に合併し解散,2022-08-09,1,,,,,スマートフィックス,0
794,3120001259439,登記記録の閉鎖等,0,2024-11-14,2024-11-12,大阪萌櫻株式会社,,株式会社,大阪府,大阪市港区,池島３丁目１０－１１船田マンション１階,,27,107,5520015,,,2024-11-12,清算の結了等,,,2023-11-07,1,,,,,オオサカホウオウ,0
850,3180301006824,登記記録の閉鎖等,0,2024-11-14,2024-11-13,株式会社ハミング,,株式会社,愛知県,豊橋市,植田町字西ケ谷４６番地,,23,201,4418134,,,2024-11-13,清算の結了等,,,2015-10-05,1,,,,,ハミング,0
854,3190001004078,登記記録の閉鎖等,0,2024-11-14,2024-11-11,メイシン工業株式会社,,株式会社,三重県,津市,大里川北町２９５番地５２,,24,201,5140124,,,2024-11-11,清算の結了等,,,2015-10-05,1,,,,,メイシンコウギョウ,0
858,3200003005898,登記記録の閉鎖等,0,2024-11-14,2024-11-11,合同会社飛騨サポート,,合同会社,岐阜県,高山市,花里町１丁目１３７番地９ベルシエルＩＩＩ号室,00129753,21,203,5060026,,,2024-11-11,清算の結了等,,,2023-03-15,1,,,,,ヒダサポート,0
860,3220002000535,登記記録の閉鎖等,0,2024-11-14,2024-11-08,有限会社ディーアンドイー,,有限会社,石川県,野々市市,新庄３丁目４番地,,17,212,9218824,,,2024-11-08,清算の結了等,,,2015-10-05,1,,,,,ディーアンドイー,0
861,3220002007968,登記記録の閉鎖等,0,2024-11-14,2024-11-08,有限会社アペックス商事,,有限会社,石川県,金沢市,馬替２丁目１７８番地５,,17,201,9218141,,,2024-11-08,清算の結了等,,,2015-10-05,1,,,,,アペックスショウジ,0
862,3230001006920,登記記録の閉鎖等,0,2024-11-14,2024-11-11,株式会社色彩工房藍,,株式会社,富山県,富山市,城川原２丁目８番１５号,,16,201,9318325,,,2024-11-11,清算の結了等,,,2015-10-05,1,,,,,シキサイコウボウアイ,0
867,3240002015440,登記記録の閉鎖等,0,2024-11-14,2024-11-11,有限会社正木設備,,有限会社,広島県,広島市安佐南区,緑井７丁目２８番１３号,,34,105,7310103,,,2024-11-11,清算の結了等,,,2015-10-05,1,,,,,マサキセツビ,0
872,3260002028110,登記記録の閉鎖等,0,2024-11-14,2024-11-01,有限会社キシヤ食品,,有限会社,岡山県,津山市,加茂町桑原５１番地,,33,203,7093923,,,2024-11-01,清算の結了等,,,2015-10-05,1,,,,,キシヤショクヒン,0
893,3320001001128,登記記録の閉鎖等,0,2024-11-14,2024-11-01,株式会社後藤組,,株式会社,大分県,大分市,生石４丁目１番２０号,,44,201,8700003,,,2024-11-01,清算の結了等,,,2024-03-25,1,,,,,,0
894,3320001013791,登記記録の閉鎖等,0,2024-11-14,2024-11-11,株式会社ソーイック,,株式会社,大分県,大分市,府内町１丁目３番２５号（ブルーステートビル２０１）,,44,201,8700021,,,2024-11-11,清算の結了等,,,2015-10-05,1,,,,,ソーイック,0
898,3350001017550,登記記録の閉鎖等,0,2024-11-14,2024-11-07,株式会社アクトインターナショナルフード,,株式会社,宮崎県,都城市,都原町３６番地７,,45,202,8850094,,,2024-11-07,清算の結了等,,,2022-01-24,1,,,,,アクトインターナショナルフード,0
912,3370003005857,登記記録の閉鎖等,0,2024-11-14,2024-11-05,合同会社楽市,,合同会社,宮城県,大崎市,古川中里５丁目６番２２号,,04,215,9896143,,,2024-11-05,清算の結了等,,,2022-10-07,1,,,,,ラクイチ,0
918,3430001089037,登記記録の閉鎖等,0,2024-11-14,2024-11-08,株式会社奥山の商店,,株式会社,北海道,石狩郡当別町,太美南１５０３番地８３,,01,303,0613778,,,2024-11-08,清算の結了等,,,2023-05-12,1,,,,,オクヤマノショウテン,0
922,3430002057166,登記記録の閉鎖等,0,2024-11-14,2024-11-08,有限会社藤沢デンキ,,有限会社,北海道,虻田郡京極町,字京極２２９番地,,01,399,0440101,,,2024-11-08,清算の結了等,,,2015-10-05,1,,,,,フジサワデンキ,0
925,3450001009513,登記記録の閉鎖等,0,2024-11-14,2024-10-25,株式会社丸三岩倉商店,,株式会社,北海道,紋別市,港町３丁目１番３号,,01,219,0940011,,,2024-10-25,清算の結了等,,,2015-10-05,1,,,,,マルサンイワクラショウテン,0
984,4010403019310,登記記録の閉鎖等,0,2024-11-14,2024-11-11,合同会社シバレジデンス,,合同会社,東京都,港区,芝５丁目２７番３号ＭＢＣ,,13,103,1080014,,,2024-11-11,合併による解散等,3010401146735,令和６年１１月１日東京都中央区日本橋大伝馬町１３－７日本橋大富ビル３Ｆ株式会社チェインフォレスト（3010401146735）に合併し解散,2018-09-13,1,,,,,シバレジデンス,0
1011,4011002014677,登記記録の閉鎖等,0,2024-11-14,2024-10-31,有限会社アルカディア社,,有限会社,東京都,豊島区,雑司が谷１丁目３９－６－５０３,,13,116,1710032,,,2024-10-31,清算の結了等,,,2015-10-05,1,,,,,アルカディアシャ,0
1021,4011203003330,登記記録の閉鎖等,0,2024-11-14,2024-11-06,ＡＳＡＭＡ合同会社,,合同会社,東京都,千代田区,神田佐久間町１丁目１６番地大橋ビル５０３,,13,101,1010025,,,2024-11-06,合併による解散等,8011203003624,令和６年１１月１日東京都中野区江原町二丁目２１番７－５０４号松山合同会社（8011203003624）に合併し解散,2020-07-03,1,,,,,アサマ,0
1028,4011401017719,登記記録の閉鎖等,0,2024-11-14,2024-11-11,サン・フレンズ株式会社,,株式会社,埼玉県,蕨市,中央４丁目１１番１２号アネックス蕨２０８号,,11,223,3350004,,,2024-11-11,清算の結了等,,,2015-10-05,1,,,,,サンフレンズ,0
1041,4012401001794,登記記録の閉鎖等,0,2024-11-14,2024-11-12,株式会社ヨコタ,,株式会社,東京都,府中市,府中町１丁目１０番７号,,13,206,1830055,,,2024-11-12,清算の結了等,,,2015-10-05,1,,,,,ヨコタ,0
1042,4012401011471,登記記録の閉鎖等,0,2024-11-14,2024-11-12,ティ橋本薬品株式会社,,株式会社,東京都,武蔵野市,吉祥寺南町３丁目３０番１５号,,13,203,1800003,,,2024-11-12,清算の結了等,,,2015-10-05,1,,,,,ティハシモトヤクヒン,0
1056,4020003015725,登記記録の閉鎖等,0,2024-11-14,2024-10-28,合同会社アナン港商,,合同会社,神奈川県,川崎市川崎区,観音２丁目２１番３－２０１号,,14,131,2100831,,,2024-10-28,清算の結了等,,,2019-03-07,1,,,,,アナンコウショウ,0
1065,4030001074722,登記記録の閉鎖等,0,2024-11-14,2024-11-11,黄海板金工業株式会社,,株式会社,埼玉県,川口市,榛松３丁目４２番４号,,11,203,3340062,,,2024-11-11,清算の結了等,,,2015-10-05,1,,,,,,0
1077,4030002112836,登記記録の閉鎖等,0,2024-11-14,2024-11-11,有限会社エイ・ワン,,有限会社,埼玉県,熊谷市,三ヶ尻３３４８番地１,,11,202,3600843,,,2024-11-11,清算の結了等,,,2015-10-05,1,,,,,エイワン,0
1080,4040001036812,登記記録の閉鎖等,0,2024-11-14,2024-11-08,北都防災商事株式会社,,株式会社,千葉県,流山市,宮園２丁目１８番地の５,,12,220,2700155,,,2024-11-08,清算の結了等,,,2015-10-05,1,,,,,ホクトボウサイショウジ,0
1086,4040002026473,登記記録の閉鎖等,0,2024-11-14,2024-11-08,有限会社渡辺プレス,,有限会社,千葉県,船橋市,二和西４丁目３６番１２号,,12,204,2740806,,,2024-11-08,清算の結了等,,,2015-10-05,1,,,,,ワタナベプレス,0
1092,4060001007803,登記記録の閉鎖等,0,2024-11-14,2024-11-07,株式会社ル・クラージュ,,株式会社,栃木県,宇都宮市,元今泉２丁目３８番２号,,09,201,3210954,,,2024-11-07,清算の結了等,,,2015-10-05,1,,,,,ルクラージュ,0
1104,4080101007940,登記記録の閉鎖等,0,2024-11-14,2024-11-11,株式会社ＴＭ　Ｐｒｏｊｅｃｔ,,株式会社,静岡県,沼津市,駿河台７番地の１２,,22,203,4100015,,,2024-11-11,清算の結了等,,,2015-10-05,1,,,,,ティーエムプロジェクト,0
1107,4080102008649,登記記録の閉鎖等,0,2024-11-14,2024-11-11,有限会社升上商店,,有限会社,静岡県,伊豆市,本立野９４番地,,22,222,4102414,,,2024-11-11,清算の結了等,,,2015-10-05,1,,,,,マスジョウショウテン,0
1112,4100001030362,登記記録の閉鎖等,0,2024-11-14,2024-11-06,株式会社弱電屋,,株式会社,長野県,飯田市,北方３６９５番地５,,20,205,3950151,,,2024-11-06,清算の結了等,,,2017-06-08,1,,,,,ジャクデンヤ,0
1117,4110002033982,登記記録の閉鎖等,0,2024-11-14,2024-11-06,有限会社山内配管,,有限会社,新潟県,魚沼市,江口新田４８番地,,15,225,9460052,,,2024-11-06,清算の結了等,,,2015-10-05,1,,,,,ヤマウチハイカン,0
1131,4122002017080,登記記録の閉鎖等,0,2024-11-14,2024-11-05,有限会社山本保険サービス,,有限会社,大阪府,八尾市,八尾木４丁目６番１０６号,,27,212,5810027,,,2024-11-05,清算の結了等,,,2015-10-05,1,,,,,,0
1135,4130003007265,登記記録の閉鎖等,0,2024-11-14,2024-11-08,ＢｌｕｅＳｋｙパイオニア合同会社,,合同会社,京都府,京都市下京区,油小路通四条下る石井筒町５２９番地ティファール７０１,,26,106,6008496,,,2024-11-08,清算の結了等,,,2021-05-31,1,,,,,ブルースカイパイオニア,0
1156,4160003002585,登記記録の閉鎖等,0,2024-11-14,2024-11-12,合同会社ＢＡＣＥ　ＣＡＭＰ,,合同会社,滋賀県,彦根市,高宮町１６４４－１５,,25,202,5220201,,,2024-11-12,清算の結了等,,,2022-06-08,1,,,,,ベースキャンプ,0
1172,4180003014991,登記記録の閉鎖等,0,2024-11-14,2024-11-05,合同会社ハッピーリング,,合同会社,愛知県,名古屋市中川区,大当郎３丁目８１６番地の３,,23,110,4540943,,,2024-11-05,清算の結了等,,,2015-10-05,1,,,,,ハッピーリング,0
1191,4250001020745,登記記録の閉鎖等,0,2024-11-14,2024-10-21,山東ボーリング株式会社,,株式会社,山口県,周南市,大字呼坂７４６番地の１,,35,215,7450612,,,2024-10-21,清算の結了等,,,2024-07-31,1,,,,,,0
1195,4280005007001,登記記録の閉鎖等,0,2024-11-14,2024-11-13,特定非営利活動法人中山間地域問題研究会,,その他の設立登記法人,島根県,出雲市,上塩冶町４７番地,,32,203,6930022,,,2024-11-13,清算の結了等,,,2015-10-05,1,,,,,チュウサンカンチイキモンダイケンキュウカイ,0
1196,4290001104924,登記記録の閉鎖等,0,2024-11-14,2024-11-01,Ｈａｎｇｅｒ７４株式会社,,株式会社,福岡県,福岡市東区,舞松原２丁目１０番７号,,40,131,8130042,,,2024-11-01,合併による解散等,3290001099406,令和６年１１月１日福岡市東区舞松原二丁目１０番７号ＧＭホールディングス株式会社（3290001099406）に合併し解散,2024-03-11,1,,,,,ハンガーセブンティフォー,0
1199,4290002020245,登記記録の閉鎖等,0,2024-11-14,2024-10-08,有限会社アイ・リープ,,有限会社,福岡県,福岡市早良区,祖原２９－２８西新石橋ビル５０３,,40,137,8140005,,,2024-10-08,清算の結了等,,,2015-10-05,1,,,,,アイリープ,0
1208,4350003000933,登記記録の閉鎖等,0,2024-11-14,2024-10-21,合資会社金丸水産,,合資会社,宮崎県,東臼杵郡門川町,中須５丁目１６番地,,45,421,8890612,,,2024-10-21,清算の結了等,,,2015-10-05,1,,,,,カネマルスイサン,0
1232,4430001072165,登記記録の閉鎖等,0,2024-11-14,2024-11-13,株式会社プロスリード,,株式会社,北海道,札幌市北区,南あいの里７丁目３０番１７号,,01,102,0028091,,,2024-11-13,清算の結了等,,,2016-08-16,1,,,,,プロスリード,0
1240,4470001004379,登記記録の閉鎖等,0,2024-11-14,2024-11-06,株式会社ワールドフーズ,,株式会社,香川県,高松市,屋島西町８６２番地,,37,201,7610113,,,2024-11-06,清算の結了等,,,2015-10-05,1,,,,,ワールドフーズ,0
1251,5010001132811,登記記録の閉鎖等,0,2024-11-14,2024-10-31,ホワイトボックス株式会社,,株式会社,東京都,中央区,銀座１丁目２０番１１号,,13,102,1040061,,,2024-10-31,清算の結了等,,,2015-10-05,1,,,,,ホワイトボックス,0
1252,5010001161513,登記記録の閉鎖等,0,2024-11-14,2024-10-31,ＪＰＣ第１２号株式会社,,株式会社,東京都,千代田区,霞が関３丁目２番１号,,13,101,1000013,,,2024-10-31,清算の結了等,,,2015-10-05,1,,,,,ジェイピーシーダイジュウニゴウ,0
1257,5010001210096,登記記録の閉鎖等,0,2024-11-14,2024-10-31,中泰金融日本株式会社,,株式会社,東京都,千代田区,六番町１５番２号鳳翔ビル３階,,13,101,1020085,,,2024-10-31,清算の結了等,,,2020-06-08,1,,,,,チュウタイキンユウニホン,0
1279,5010003042059,登記記録の閉鎖等,0,2024-11-14,2024-11-06,ＤＲＶ　Ｊａｐａｎ合同会社,,合同会社,東京都,渋谷区,東３丁目２５番１１号ＴＯＫＹＵＲＥＩＴ恵比寿ビル２Ｆ,,13,113,1500011,,,2024-11-06,合併による解散等,3011001052902,令和６年１１月１日東京都渋谷区東三丁目２５番１１号ＴＯＫＹＵＲＥＩＴ恵比寿ビル２Ｆ株式会社Ｄｒ．Ｖｒａｎｊｅｓ　ＪＡＰＡＮ（3011001052902）に合併し解散,2023-10-26,1,,,,,ディーアールヴィージャパン,0
1281,5010005027173,登記記録の閉鎖等,0,2024-11-14,2024-11-07,ＧＩ再生可能エネルギー４一般社団法人,,その他の設立登記法人,東京都,千代田区,麹町１丁目７番地相互半蔵門ビルディング３階ＧＩキャピタル・マネジメント株式会社内,,13,101,1020083,,,2024-11-07,清算の結了等,,,2017-07-25,1,,,,,ジーアイサイセイカノウエネルギーフォー,0
1282,5010005028171,登記記録の閉鎖等,0,2024-11-14,2024-11-08,一般社団法人ＡＦ　ＩＶ,,その他の設立登記法人,東京都,中央区,銀座１丁目６番１１号アースタックス税理士法人内,,13,102,1040061,,,2024-11-08,清算の結了等,,,2018-02-28,1,,,,,エイエフフォー,0
1290,5010401174131,登記記録の閉鎖等,0,2024-11-14,2024-11-11,株式会社ｕｎｌｏｃｋ．ｌｙ１号,,株式会社,東京都,港区,赤坂７丁目９番７号Ｂａｒｂｉｚｏｎ７４・４階,,13,103,1070052,,,2024-11-11,合併による解散等,9130001013260,令和６年１１月１日京都市山科区大宅向山６番地株式会社ＦＵＫＵＤＡ（9130001013260）に合併し解散,2023-05-02,1,,,,,アンロックリーイチゴウ,0
1294,5010403009384,登記記録の閉鎖等,0,2024-11-14,2024-10-28,ＩＳＯＦＯＴＯＮ　ＪＡＰＡＮ合同会社,,合同会社,東京都,港区,麻布台１丁目１１番１０号日総第２２ビル９０５,,13,103,1060041,,,2024-10-28,清算の結了等,,,2015-10-05,1,,,,,イソフォトンジャパン,0
1315,5011001050680,登記記録の閉鎖等,0,2024-11-14,2024-11-12,株式会社プレイエンターテイメント,,株式会社,東京都,渋谷区,笹塚１丁目５６番６号,,13,113,1510073,,,2024-11-12,合併による解散等,7010903007753,令和６年１１月１日東京都世田谷区成城八丁目８番２２号カジホールディングス合同会社（7010903007753）に合併し解散,2015-10-05,1,,,,,プレイエンターテイメント,0
1333,5011401016240,登記記録の閉鎖等,0,2024-11-14,2024-11-11,株式会社文昇堂,,株式会社,東京都,板橋区,舟渡２丁目３４番１８号,,13,119,1740041,,,2024-11-11,清算の結了等,,,2015-10-05,1,,,,,ブンショウドウ,0
1346,5012402017228,登記記録の閉鎖等,0,2024-11-14,2024-11-12,有限会社タマキ,,有限会社,東京都,武蔵野市,吉祥寺南町１丁目１番１０号吉祥寺ＭＡビル６階,,13,203,1800003,,,2024-11-12,清算の結了等,,,2015-10-05,1,,,,,タマキ,0
1348,5013301042358,登記記録の閉鎖等,0,2024-11-14,2024-11-07,株式会社Ａｐｐ　Ｃｒａｆｔ,,株式会社,東京都,豊島区,東池袋３丁目２０番９号宏和ビル２Ｆ,,13,116,1700013,,,2024-11-07,清算の結了等,,,2018-06-07,1,,,,,アップクラフト,0
1360,5020002058690,登記記録の閉鎖等,0,2024-11-14,2024-10-28,有限会社タウンメンテナンス,,有限会社,神奈川県,横浜市港南区,野庭町５６２番地の８,,14,111,2340056,,,2024-10-28,清算の結了等,,,2015-10-05,1,,,,,タウンメンテナンス,0
1369,5021001006525,登記記録の閉鎖等,0,2024-11-14,2024-10-31,暁建設株式会社,,株式会社,神奈川県,茅ヶ崎市,香川１丁目４１番５号,,14,207,2530082,,,2024-10-31,清算の結了等,,,2015-10-05,1,,,,,,0
1381,5030001152733,登記記録の閉鎖等,0,2024-11-14,2024-11-07,株式会社耐震工事,,株式会社,埼玉県,所沢市,大字上安松９６１－１－１０５号,,11,208,3590025,,,2024-11-07,清算の結了等,,,2023-03-08,1,,,,,タイシンコウジ,0
1385,5030002084298,登記記録の閉鎖等,0,2024-11-14,2024-11-11,有限会社今井工務店,,有限会社,埼玉県,鴻巣市,広田２３７２番地２,,11,217,3650005,,,2024-11-11,清算の結了等,,,2015-10-05,1,,,,,イマイコウムテン,0
1388,5030002114641,登記記録の閉鎖等,0,2024-11-14,2024-11-08,有限会社千代桝材木店,,有限会社,埼玉県,熊谷市,妻沼１４９３番地１,,11,202,3600201,,,2024-11-08,清算の結了等,,,2015-10-05,1,,,,,チヨマスザイモクテン,0
1393,5040001104304,登記記録の閉鎖等,0,2024-11-14,2024-11-05,株式会社サンセントラル,,株式会社,東京都,新宿区,新宿１丁目３０番１６－２５０１号,,13,104,1600022,,,2024-11-05,清算の結了等,,,2018-04-16,1,,,,,サンセントラル,0
1402,5050001019897,登記記録の閉鎖等,0,2024-11-14,2024-11-01,アルファサービス株式会社,,株式会社,茨城県,古河市,駒羽根１４２０番地１,,08,204,3060221,,,2024-11-01,合併による解散等,8030002016513,令和６年１１月１日茨城県古河市駒羽根１４２０番地１アサヒケアサービス株式会社（8030002016513）に合併し解散,2015-10-05,1,,,,,アルファサービス,0
1415,5090003001643,登記記録の閉鎖等,0,2024-11-14,2024-11-08,合同会社戸川水力発電,,合同会社,山梨県,中央市,臼井阿原７１２番地１,,19,214,4093844,,,2024-11-08,清算の結了等,,,2020-02-13,1,,,,,,0
1421,5120001036209,登記記録の閉鎖等,0,2024-11-14,2024-11-11,株式会社ビッグワンジャパン,,株式会社,大阪府,寝屋川市,東香里園町９番５８号,,27,215,5720081,,,2024-11-11,清算の結了等,,,2015-10-05,1,,,,,ビッグワンジャパン,0
1423,5120001186615,登記記録の閉鎖等,0,2024-11-14,2024-11-11,株式会社リソース・コミュニケーション,,株式会社,大阪府,大阪市福島区,福島１丁目１番４８号ザ・タワー大阪２２０７,,27,103,5530003,,,2024-11-11,清算の結了等,,,2015-10-05,1,,,,,リソースコミュニケーション,0
1449,5140001132187,登記記録の閉鎖等,0,2024-11-14,2024-11-11,株式会社ＳＦミート,,株式会社,兵庫県,三田市,南が丘１丁目５１番２号,,28,219,6691535,,,2024-11-11,合併による解散等,3140001110582,令和６年１１月１日兵庫県三田市南が丘一丁目５１番２号株式会社ＤＥＫＵＮＩＯ（3140001110582）に合併し解散,2023-11-06,1,,,,,エスエフミート,0
1452,5150001012264,登記記録の閉鎖等,0,2024-11-14,2024-11-11,朝日製薬株式会社,,株式会社,奈良県,大和高田市,大字曽大根５００番地,,29,202,6350054,,,2024-11-11,清算の結了等,,,2015-10-05,1,,,,,アサヒセイヤク,0
1477,5200001036794,登記記録の閉鎖等,0,2024-11-14,2024-11-12,株式会社トラストオートクリニック,,株式会社,岐阜県,岐阜市,竜田町６丁目５番地４,,21,201,5008402,,,2024-11-12,清算の結了等,,,2019-10-29,1,,,,,トラストオートクリニック,0
1482,5220002004162,登記記録の閉鎖等,0,2024-11-14,2024-11-08,有限会社供田書店,,有限会社,石川県,金沢市,東山３丁目２番１９号,,17,201,9200831,,,2024-11-08,清算の結了等,,,2015-10-05,1,,,,,トモダショテン,0
1483,5220002012603,登記記録の閉鎖等,0,2024-11-14,2024-11-08,有限会社テクニカルサービス,,有限会社,石川県,加賀市,冨塚町チの７６番地の１３,,17,206,9220421,,,2024-11-08,清算の結了等,,,2015-10-05,1,,,,,テクニカルサービス,0
1488,5240001035644,登記記録の閉鎖等,0,2024-11-14,2024-11-11,株式会社ＫＯＢＡＹＡＳＨＩ,,株式会社,広島県,福山市,駅家町上山守４３３番地１,,34,207,7210000,,,2024-11-11,清算の結了等,,,2015-10-05,1,,,,,コバヤシ,0
1492,5240002038539,登記記録の閉鎖等,0,2024-11-14,2024-11-12,有限会社青木商店,,有限会社,広島県,福山市,神辺町字東中条２０１５番地の４,,34,207,7202102,,,2024-11-12,清算の結了等,,,2015-10-05,1,,,,,アオキショウテン,0
1523,5350002000958,登記記録の閉鎖等,0,2024-11-14,2024-10-31,有限会社オネスティー,,有限会社,宮崎県,宮崎市,大字田吉２０２番地,,45,201,8800911,,,2024-10-31,清算の結了等,,,2015-10-05,1,,,,,オネスティー,0
1534,5390002007999,登記記録の閉鎖等,0,2024-11-14,2024-11-05,萬年自動車工業有限会社,,有限会社,山形県,酒田市,東町１丁目１８番地の２,,06,204,9980875,,,2024-11-05,清算の結了等,,,2015-10-05,1,,,,,マンネンジドウシャコウギョウ,0
1535,5390005005570,登記記録の閉鎖等,0,2024-11-14,2024-11-05,特定非営利活動法人ふるさと振興機構,,その他の設立登記法人,山形県,最上郡真室川町,大字川ノ内１２１４番地１,,06,364,9995301,,,2024-11-05,清算の結了等,,,2015-10-05,1,,,,,フルサトシンコウキコウ,0
1538,5440002005254,登記記録の閉鎖等,0,2024-11-14,2024-11-12,有限会社リアルエイト,,有限会社,北海道,函館市,美原２丁目４６番２号,,01,202,0410806,,,2024-11-12,清算の結了等,,,2015-10-05,1,,,,,リアルエイト,0
1554,6010001127067,登記記録の閉鎖等,0,2024-11-14,2024-10-31,株式会社Ｋグリーンフィールド,,株式会社,東京都,中央区,勝どき５丁目１２番４－１５０３号,,13,102,1040054,,,2024-10-31,清算の結了等,,,2015-10-05,1,,,,,ケーグリーンフィールド,0
1558,6010001241842,登記記録の閉鎖等,0,2024-11-14,2024-10-31,クリーフワールド株式会社,,株式会社,東京都,中央区,銀座１丁目２２番１１号銀座大竹ビジデンス２Ｆ,,13,102,1040061,,,2024-10-31,清算の結了等,,,2024-02-01,1,,,,,クリーフワールド,0
1576,6010005029367,登記記録の閉鎖等,0,2024-11-14,2024-11-07,一般社団法人ＦＦホールディングス,,その他の設立登記法人,東京都,中央区,日本橋１丁目４番１号,,13,102,1030027,,,2024-11-07,清算の結了等,,,2018-11-16,1,,,,,エフエフホールディングス,0
1586,6010401040423,登記記録の閉鎖等,0,2024-11-14,2024-10-25,株式会社イーナ,,株式会社,東京都,港区,六本木６丁目６番９号,,13,103,1060032,,,2024-10-25,清算の結了等,,,2015-10-05,1,,,,,イーナ,0
1594,6010403025785,登記記録の閉鎖等,0,2024-11-14,2024-10-25,オーグノート合同会社,,合同会社,東京都,港区,高輪３丁目１４番２５－３０２号,,13,103,1080074,,,2024-10-25,清算の結了等,,,2021-07-28,1,,,,,オーグノート,0
1598,6010501030927,登記記録の閉鎖等,0,2024-11-14,2024-11-08,株式会社ラ・キッカ,,株式会社,東京都,台東区,台東３丁目３１番４号,,13,106,1100016,,,2024-11-08,清算の結了等,,,2015-10-05,1,,,,,ラキッカ,0
1611,6010802001412,登記記録の閉鎖等,0,2024-11-14,2024-11-05,有限会社一味,,有限会社,東京都,大田区,池上７丁目６番５号,,13,111,1460082,,,2024-11-05,清算の結了等,,,2015-10-05,1,,,,,イチミ,0
1625,6011003017487,登記記録の閉鎖等,0,2024-11-14,2024-11-06,合同会社リンク,,合同会社,東京都,台東区,駒形２丁目３番４号,,13,106,1110043,,,2024-11-06,清算の結了等,,,2023-09-07,1,,,,,リンク,0
1630,6011102005013,登記記録の閉鎖等,0,2024-11-14,2024-11-06,有限会社サンエイプレス,,有限会社,東京都,大田区,大森中１丁目１９番１７号,,13,111,1430014,,,2024-11-06,清算の結了等,,,2015-10-05,1,,,,,サンエイプレス,0
1631,6011102015482,登記記録の閉鎖等,0,2024-11-14,2024-11-05,有限会社テクノ清水,,有限会社,東京都,新宿区,高田馬場４丁目１３番９号,,13,104,1690075,,,2024-11-05,清算の結了等,,,2015-10-05,1,,,,,テクノシミズ,0
1651,6012402017004,登記記録の閉鎖等,0,2024-11-14,2024-11-12,有限会社シャトル,,有限会社,東京都,武蔵野市,吉祥寺南町３丁目３０番１５号,,13,203,1800003,,,2024-11-12,清算の結了等,,,2015-10-05,1,,,,,シャトル,0
1652,6012403005073,登記記録の閉鎖等,0,2024-11-14,2024-10-17,Ｓｔａｒｔ　ｉＴ合同会社,,合同会社,東京都,渋谷区,桜丘町２３番１７号シティコート桜丘４０８,,13,113,1500031,,,2024-10-17,清算の結了等,,,2021-10-18,1,,,,,スタートイット,0
1656,6013301022532,登記記録の閉鎖等,0,2024-11-14,2024-11-07,ＫＪ貿易株式会社,,株式会社,東京都,豊島区,西池袋１丁目３６－４Ｓ・Ｉコンソートビル３Ｆ,,13,116,1710021,,,2024-11-07,清算の結了等,,,2015-10-05,1,,,,,ケージェイボウエキ,0
1657,6013301041350,登記記録の閉鎖等,0,2024-11-14,2024-10-31,株式会社Ｍａｒｋｕｓ,,株式会社,東京都,豊島区,池袋２丁目４５番１号（８０２）,,13,116,1710014,,,2024-10-31,清算の結了等,,,2017-11-06,1,,,,,マーカス,0
1668,6021002020672,登記記録の閉鎖等,0,2024-11-14,2024-11-12,有限会社サトウ,,有限会社,神奈川県,相模原市南区,西大沼１丁目３２番２１号,,14,153,2520332,,,2024-11-12,清算の結了等,,,2015-10-05,1,,,,,サトウ,0
1673,6030001014412,登記記録の閉鎖等,0,2024-11-14,2024-10-29,株式会社エス・タイプ,,株式会社,埼玉県,さいたま市大宮区,大門町２丁目２番地２丸藤ビル,,11,103,3300846,,,2024-10-29,清算の結了等,,,2015-10-05,1,,,,,エスタイプ,0
1674,6030001075355,登記記録の閉鎖等,0,2024-11-14,2024-11-11,株式会社芝江電機川口店,,株式会社,埼玉県,川口市,芝２丁目１３番２３号,,11,203,3330866,,,2024-11-11,清算の結了等,,,2015-10-05,1,,,,,シバエデンキカワグチテン,0
1678,6030001114575,登記記録の閉鎖等,0,2024-11-14,2024-11-05,株式会社丹羽クロス,,株式会社,埼玉県,川口市,北原台３丁目３番６号,,11,203,3330815,,,2024-11-05,清算の結了等,,,2016-05-25,1,,,,,ニワクロス,0
1683,6030002050134,登記記録の閉鎖等,0,2024-11-14,2024-11-11,有限会社ヨシオカ産商,,有限会社,埼玉県,三郷市,半田１４４番地３,,11,237,3410012,,,2024-11-11,清算の結了等,,,2015-10-05,1,,,,,ヨシオカサンショウ,0
1687,6040001024022,登記記録の閉鎖等,0,2024-11-14,2024-11-08,飛翔建設株式会社,,株式会社,千葉県,八千代市,大和田１００９－３,,12,221,2760045,,,2024-11-08,清算の結了等,,,2015-10-05,1,,,,,ヒショウケンセツ,0
1699,6050001000889,登記記録の閉鎖等,0,2024-11-14,2024-11-07,株式会社計画自治研究所,,株式会社,茨城県,水戸市,見川５丁目１２７番地の２８１,,08,201,3100912,,,2024-11-07,清算の結了等,,,2015-10-05,1,,,,,ケイカクジチケンキュウショ,0
1703,6060002038639,登記記録の閉鎖等,0,2024-11-14,2024-11-11,有限会社旭ビルタカセテナント,,有限会社,栃木県,佐野市,植上町１７５５番地,,09,204,3270832,,,2024-11-11,清算の結了等,,,2015-10-05,1,,,,,アサヒビルタカセテナント,0
1735,6120001269220,登記記録の閉鎖等,0,2024-11-14,2024-11-12,松尾株式会社,,株式会社,大阪府,大阪市天王寺区,東上町８番２６号,,27,109,5430026,,,2024-11-12,清算の結了等,,,2024-10-16,1,,,,,マツオ,0
1765,6180001064161,登記記録の閉鎖等,0,2024-11-14,2024-10-30,株式会社Ｒｅｐｏｓ－ルポ,,株式会社,愛知県,清須市,西枇杷島町城並２丁目１６番地５,,23,233,4520011,,,2024-10-30,清算の結了等,,,2015-10-05,1,,,,,ルポルポ,0
1775,6180002042546,登記記録の閉鎖等,0,2024-11-14,2024-11-12,有限会社山本,,有限会社,愛知県,名古屋市緑区,池上台１丁目１１２番地,,23,114,4580044,,,2024-11-12,清算の結了等,,,2015-10-05,1,,,,,ヤマモト,0
1776,6180003017687,登記記録の閉鎖等,0,2024-11-14,2024-10-31,合同会社明建工房,,合同会社,愛知県,名古屋市西区,東岸町２丁目５０番地堀越ハウス５０４号,,23,104,4510076,,,2024-10-31,清算の結了等,,,2017-02-08,1,,,,,メイケンコウボウ,0
1786,6210002011068,登記記録の閉鎖等,0,2024-11-14,2024-11-11,有限会社寺井建設,,有限会社,福井県,三方上中郡若狭町,上野第８号２番地,,18,501,9191321,,,2024-11-11,清算の結了等,,,2015-10-05,1,,,,,テライケンセツ,0
1811,6290801024659,登記記録の閉鎖等,0,2024-11-14,2024-10-31,株式会社ＹＭテクノ,,株式会社,福岡県,北九州市小倉南区,蒲生２丁目１２番２８号（１０１）,,40,107,8020978,,,2024-10-31,清算の結了等,,,2018-06-05,1,,,,,ワイエムテクノ,0
1816,6340002001287,登記記録の閉鎖等,0,2024-11-14,2024-11-11,有限会社椅子の松山,,有限会社,鹿児島県,鹿児島市,平之町７番２２号,,46,201,8920848,,,2024-11-11,清算の結了等,,,2015-10-05,1,,,,,イスノマツヤマ,0
1849,7010001122216,登記記録の閉鎖等,0,2024-11-14,2024-11-07,アップクロス株式会社,,株式会社,東京都,千代田区,神田神保町１丁目１４番地,,13,101,1010051,,,2024-11-07,合併による解散等,6190001014859,令和６年１０月１日三重県四日市市栄町１番１１号サイネット株式会社（6190001014859）に合併し解散,2015-10-05,1,,,,,アップクロス,0
1851,7010001218625,登記記録の閉鎖等,0,2024-11-14,2024-11-06,Ｇｒｏｗｔｈｉｘ　Ｉｎｖｅｓｔｍｅｎｔ株式会社,,株式会社,東京都,中央区,日本橋兜町２２－６東京セントラルプレイス６階,,13,102,1030026,,,2024-11-06,合併による解散等,6010001245348,令和６年１１月１日東京都中央区日本橋蛎殻町一丁目３０番１１号ヨートービル３階Ｆｏｒｅ　Ｂｒｉｄｇｅ株式会社（6010001245348）に合併し解散,2021-06-07,1,,,,,グローシックスインベストメント,0
1855,7010003032900,登記記録の閉鎖等,0,2024-11-14,2024-10-31,ＴＳＥ　Ｊａｐａｎ合同会社,,合同会社,東京都,千代田区,大手町２丁目２番１号新大手町ビル３階ｘＬＩＮＫ大手町１０４号,,13,101,1000004,,,2024-10-31,清算の結了等,,,2020-08-26,1,,,,,ティーエスイージャパン,0
1878,7010003044805,登記記録の閉鎖等,0,2024-11-14,2024-10-08,合資会社賀田組,,合資会社,東京都,中央区,日本橋本石町３丁目２番２号,,13,102,1030021,,,2024-10-08,清算の結了等,,,2024-09-26,1,,,,,カダグミ,0
1882,7010005026768,登記記録の閉鎖等,0,2024-11-14,2024-11-07,一般社団法人ＵＳＰＯＦ１号,,その他の設立登記法人,東京都,千代田区,丸の内３丁目１番１号東京共同会計事務所内,,13,101,1000005,,,2024-11-07,清算の結了等,,,2017-04-24,1,,,,,ユーエスピーオーエフイチゴウ,0
1895,7010501030926,登記記録の閉鎖等,0,2024-11-14,2024-11-08,株式会社ダックインターナショナル,,株式会社,東京都,台東区,台東３丁目３１番４号,,13,106,1100016,,,2024-11-08,清算の結了等,,,2015-10-05,1,,,,,ダックインターナショナル,0
1897,7010503005034,登記記録の閉鎖等,0,2024-11-14,2024-10-29,合同会社ＮＫ６号,,合同会社,東京都,台東区,台東４丁目２９番１３－８０２号,,13,106,1100016,,,2024-10-29,清算の結了等,,,2017-07-24,1,,,,,エヌケーロクゴウ,0
1911,7010801021930,登記記録の閉鎖等,0,2024-11-14,2024-11-01,株式会社サリカ,,株式会社,東京都,大田区,西蒲田８丁目１２番６号３０１,,13,111,1440051,,,2024-11-01,合併による解散等,3010802007874,令和６年１１月１日東京都大田区西蒲田八丁目１２番６号－３０１株式会社エバーグリーン（3010802007874）に合併し解散,2015-10-05,1,,,,,サリカ,0
1921,7011001120218,登記記録の閉鎖等,0,2024-11-14,2024-11-06,株式会社Ｄｒ．Ｖｒａｎｊｅｓ　Ｒｅｔａｉｌ　ＪＡＰＡＮ,,株式会社,東京都,渋谷区,東３丁目２５番１１号ＴＯＫＹＵＲＥＩＴ恵比寿ビル２Ｆ,,13,113,1500011,,,2024-11-06,合併による解散等,3011001052902,令和６年１１月１日東京都渋谷区東三丁目２５番１１号ＴＯＫＹＵＲＥＩＴ恵比寿ビル２Ｆ株式会社Ｄｒ．Ｖｒａｎｊｅｓ　ＪＡＰＡＮ（3011001052902）に合併し解散,2018-01-18,1,,,,,ドットールヴラニエスリテイルジャパン,0
1930,7011105005141,登記記録の閉鎖等,0,2024-11-14,2024-11-05,社会保険労務士法人野中事務所,,その他の設立登記法人,東京都,新宿区,高田馬場１丁目１６番８号,,13,104,1690075,,,2024-11-05,清算の結了等,,,2015-10-05,1,,,,,ノナカジムショ,0
1935,7011302006561,登記記録の閉鎖等,0,2024-11-14,2024-11-08,有限会社辻会計事務所,00054545,有限会社,東京都,杉並区,浜田山３丁目３４番２８号ＺＥＲＯ１ビル２階,,13,115,1680065,,,2024-11-08,清算の結了等,,,2015-10-05,1,,,,,ツジカイケイジムショ,0
1939,7011402017715,登記記録の閉鎖等,0,2024-11-14,2024-11-08,有限会社高力設備,,有限会社,東京都,板橋区,赤塚４丁目３７番８号,00066402,13,119,1750092,,,2024-11-08,清算の結了等,,,2015-10-05,1,,,,,,0
1951,7011803003792,登記記録の閉鎖等,0,2024-11-14,2024-11-07,合同会社グリーンメイト,,合同会社,東京都,足立区,東保木間１丁目２４番１７－２０７号,,13,121,1210063,,,2024-11-07,清算の結了等,,,2019-08-02,1,,,,,グリーンメイト,0
1955,7012402012532,登記記録の閉鎖等,0,2024-11-14,2024-11-13,有限会社マソン,,有限会社,東京都,調布市,入間町１丁目３９番地７,,13,208,1820004,,,2024-11-13,清算の結了等,,,2015-10-05,1,,,,,マソン,0
1959,7013301035500,登記記録の閉鎖等,0,2024-11-14,2024-11-08,株式会社アカツキ,,株式会社,東京都,練馬区,旭丘１丁目２２－１３日本通運（株）江古田流通センタービル４階,,13,120,1760005,,,2024-11-08,清算の結了等,,,2015-10-05,1,,,,,アカツキ,0
1990,7030002066765,登記記録の閉鎖等,0,2024-11-14,2024-11-11,有限会社荻原紙工,,有限会社,埼玉県,志木市,中宗岡３丁目４番１号,,11,228,3530002,,,2024-11-11,清算の結了等,,,2015-10-05,1,,,,,,0
2009,7100002003802,登記記録の閉鎖等,0,2024-11-14,2024-11-06,有限会社仲俣商事,,有限会社,長野県,長野市,中御所２丁目２６番１２号,,20,201,3800935,,,2024-11-06,清算の結了等,,,2015-10-05,1,,,,,ナカマタショウジ,0
2012,7100003004295,登記記録の閉鎖等,0,2024-11-14,2024-11-05,信濃のかがやき合同会社,,合同会社,長野県,松本市,村井町北２丁目１０番２３号,,20,202,3990035,,,2024-11-05,清算の結了等,,,2015-10-05,1,,,,,シナノノカガヤキ,0
2020,7120001246359,登記記録の閉鎖等,0,2024-11-14,2024-10-31,株式会社シナジーグローバル東海,,株式会社,大阪府,大阪市淀川区,西中島６丁目１番３号,,27,123,5320011,,,2024-10-31,合併による解散等,8120901039241,令和６年１０月３１日大阪市淀川区西中島六丁目１番３号株式会社シナジーグローバル（8120901039241）に合併し解散,2022-06-13,1,,,,,シナジーグローバルトウカイ,0
2022,7120001257001,登記記録の閉鎖等,0,2024-11-14,2024-11-11,株式会社ＵＮＩＴＥ,,株式会社,大阪府,寝屋川市,萱島南町２１番１－３０５号,,27,215,5720825,,,2024-11-11,清算の結了等,,,2023-08-03,1,,,,,ユナイト,0
2030,7120003024036,登記記録の閉鎖等,0,2024-11-14,2024-11-13,合同会社Ｓ＆Ｎ,,合同会社,大阪府,大阪市都島区,都島北通２丁目１－５ハイツ大東１Ｆ,,27,102,5340014,,,2024-11-13,清算の結了等,,,2023-05-12,1,,,,,エスアンドエヌ,0
2049,7130003003245,登記記録の閉鎖等,0,2024-11-14,2024-11-11,谷口電設合同会社,,合同会社,京都府,京都市右京区,山越東町２６番地４０,,26,108,6168194,,,2024-11-11,清算の結了等,,,2015-10-05,1,,,,,,0
2052,7140001072423,登記記録の閉鎖等,0,2024-11-14,2024-11-08,株式会社梶建設工業,,株式会社,兵庫県,西宮市,広田町１２番９－５０３号,,28,204,6620837,,,2024-11-08,清算の結了等,,,2015-10-05,1,,,,,カジケンセツコウギョウ,0
2060,7140005019800,登記記録の閉鎖等,0,2024-11-14,2024-11-13,協同組合南淡ショッピングセンター,,その他の設立登記法人,兵庫県,南あわじ市,賀集八幡３３０番地,,28,224,6560511,,,2024-11-13,清算の結了等,,,2015-10-05,1,,,,,,0
2064,7150002001041,登記記録の閉鎖等,0,2024-11-14,2024-10-28,大和織布有限会社,,有限会社,奈良県,奈良市,山陵町７７番地,,29,201,6310803,,,2024-10-28,清算の結了等,,,2015-10-05,1,,,,,,0
2069,7180001016021,登記記録の閉鎖等,0,2024-11-14,2024-11-05,株式会社アプレイザル・ナゴヤ,,株式会社,愛知県,名古屋市西区,菊井２丁目４番３号,,23,104,4510044,,,2024-11-05,清算の結了等,,,2015-10-05,1,,,,,アプレイザルナゴヤ,0
2077,7180002010881,登記記録の閉鎖等,0,2024-11-14,2024-11-05,有限会社大栗産業,,有限会社,愛知県,名古屋市北区,大我麻町３５番地,,23,103,4620064,,,2024-11-05,清算の結了等,,,2015-10-05,1,,,,,オオグリサンギョウ,0
2090,7190005000061,登記記録の閉鎖等,0,2024-11-14,2024-11-11,ＪＦＥエンジニアリング労働組合,,その他の設立登記法人,三重県,津市,雲出鋼管町１番地,,24,201,5140301,,,2024-11-11,清算の結了等,,,2015-10-05,1,,,,,ジェイエフイーエンジニアリング,0
2093,7200001013321,登記記録の閉鎖等,0,2024-11-14,2024-11-11,株式会社大橋プロパン,,株式会社,東京都,台東区,上野１丁目１５番５号,,13,106,1100005,,,2024-11-11,合併による解散等,2400001001533,令和６年１１月１日岩手県盛岡市開運橋通４番１２号株式会社宮田燃料（2400001001533）に合併し解散,2015-10-05,1,,,,,オオハシプロパン,0
2094,7200001027296,登記記録の閉鎖等,0,2024-11-14,2024-10-30,株式会社大進テック,,株式会社,岐阜県,大垣市,外渕２丁目１４３番地３,,21,202,5030934,,,2024-10-30,清算の結了等,,,2015-10-05,1,,,,,ダイシンテック,0
2097,7200002017412,登記記録の閉鎖等,0,2024-11-14,2024-11-11,有限会社アオヤマ,,有限会社,岐阜県,可児郡御嵩町,上恵土２１４番地の１,,21,521,5050126,,,2024-11-11,清算の結了等,,,2015-10-05,1,,,,,アオヤマ,0
2104,7240001051821,登記記録の閉鎖等,0,2024-11-14,2024-11-12,株式会社ブランドル,,株式会社,広島県,廿日市市,四季が丘２丁目２番地８,,34,213,7380036,,,2024-11-12,清算の結了等,,,2017-10-12,1,,,,,ブランドル,0
2108,7250001010784,登記記録の閉鎖等,0,2024-11-14,2024-11-08,株式会社サンショウ物流システム,,株式会社,山口県,周南市,大字戸田１８６１番地の３,,35,215,7451131,,,2024-11-08,清算の結了等,,,2015-10-05,1,,,,,サンショウブツリュウシステム,0
2109,7260002022480,登記記録の閉鎖等,0,2024-11-14,2024-11-06,有限会社日振テック,,有限会社,岡山県,倉敷市,大内１００９番地１,,33,202,7100817,,,2024-11-06,清算の結了等,,,2015-10-05,1,,,,,ニッシンテック,0
2110,7290001054943,登記記録の閉鎖等,0,2024-11-14,2024-10-08,マツフジ管理株式会社,,株式会社,福岡県,柳川市,大和町六合１６１２番地３,,40,207,8390244,,,2024-10-08,清算の結了等,,,2015-10-05,1,,,,,マツフジカンリ,0
2119,7320002008770,登記記録の閉鎖等,0,2024-11-14,2024-11-11,株式会社ＢＰＳ,,株式会社,愛媛県,松山市,枝松４丁目３番３１号,,38,201,7900962,,,2024-11-11,清算の結了等,,,2015-10-05,1,,,,,ビーピーエス,0
2120,7330001013110,登記記録の閉鎖等,0,2024-11-14,2024-10-16,株式会社坂本建設,,株式会社,熊本県,宇城市,三角町波多５３６番地の４,,43,213,8693205,,,2024-10-16,清算の結了等,,,2024-01-24,1,,,,,サカモトケンセツ,0
2137,7410001006171,登記記録の閉鎖等,0,2024-11-14,2024-11-11,株式会社リトル大滝温泉,,株式会社,秋田県,大館市,十二所字町頭５５番地,,05,204,0185601,,,2024-11-11,清算の結了等,,,2015-10-05,1,,,,,リトルオオタキオンセン,0
2141,7430001053030,登記記録の閉鎖等,0,2024-11-14,2024-11-13,三陽木材株式会社,,株式会社,北海道,苫小牧市,柳町１丁目６番５号,,01,213,0530053,,,2024-11-13,清算の結了等,,,2015-10-05,1,,,,,サンヨウモクザイ,0
2142,7430001074489,登記記録の閉鎖等,0,2024-11-14,2024-11-11,株式会社菊地,,株式会社,北海道,札幌市北区,新川二条３丁目３番１１号,,01,102,0010922,,,2024-11-11,清算の結了等,,,2017-07-05,1,,,,,キクチ,0
2150,7470002008335,登記記録の閉鎖等,0,2024-11-14,2024-11-12,有限会社生そば丸ふく,,有限会社,香川県,高松市,南新町８番地３９,,37,201,7600051,,,2024-11-12,清算の結了等,,,2015-10-05,1,,,,,キソバマルフク,0
2238,8011301029505,登記記録の閉鎖等,0,2024-11-14,2024-11-08,Ｙ＆Ｊ　Ｃｌｉｎｉｃａｌ株式会社,,株式会社,東京都,杉並区,天沼３丁目６番２７号,,13,115,1670032,,,2024-11-08,清算の結了等,,,2024-03-21,1,,,,,ワイアンドジェイクリニカル,0
2240,8011303001536,登記記録の閉鎖等,0,2024-11-14,2024-11-08,合同会社つくし,,合同会社,東京都,杉並区,梅里２丁目１７番１号,,13,115,1660011,,,2024-11-08,清算の結了等,,,2015-10-05,1,,,,,,0
2253,8012401042232,登記記録の閉鎖等,0,2024-11-14,2024-11-11,株式会社セブン,,株式会社,東京都,武蔵野市,吉祥寺本町２丁目５番１０号,,13,203,1800004,,,2024-11-11,合併による解散等,8012401023513,令和６年１１月１日東京都世田谷区三軒茶屋一丁目３２番３号株式会社武蔵野ビジネスサービス（8012401023513）に合併し解散,2024-09-03,1,,,,,セブン,0
2254,8012402013430,登記記録の閉鎖等,0,2024-11-14,2024-11-12,有限会社スタジオイチゼロイチニ,,有限会社,東京都,狛江市,和泉本町１丁目２５番１４号,,13,219,2010003,,,2024-11-12,清算の結了等,,,2015-10-05,1,,,,,スタジオイチゼロイチニ,0
2259,8020001092564,登記記録の閉鎖等,0,2024-11-14,2024-10-28,三共コンサルタント株式会社,,株式会社,神奈川県,横浜市中区,日ノ出町１丁目４番地１－９０３号室,,14,104,2310066,,,2024-10-28,清算の結了等,,,2015-10-05,1,,,,,サンキョウコンサルタント,0
2284,8030002060189,登記記録の閉鎖等,0,2024-11-14,2024-11-12,有限会社中村左官工業,,有限会社,埼玉県,志木市,下宗岡４丁目４番２号,,11,228,3530003,,,2024-11-12,清算の結了等,,,2015-10-05,1,,,,,ナカムラサカンコウギョウ,0
2288,8030005015017,登記記録の閉鎖等,0,2024-11-14,2024-10-28,秩父米穀企業組合,,その他の設立登記法人,埼玉県,秩父市,上宮地町７番８号,,11,207,3680024,,,2024-10-28,清算の結了等,,,2015-10-05,1,,,,,チチブベイコク,0
2295,8040002050073,登記記録の閉鎖等,0,2024-11-14,2024-11-08,有限会社アップラインインターナショナル,,有限会社,千葉県,松戸市,西馬橋相川町１３９番地の８,,12,207,2710045,,,2024-11-08,清算の結了等,,,2015-10-05,1,,,,,アップラインインターナショナル,0
2303,8060002023283,登記記録の閉鎖等,0,2024-11-14,2024-11-08,有限会社益子商店,,有限会社,栃木県,那須郡那須町,大字横岡１３６番地,,09,407,3293442,,,2024-11-08,清算の結了等,,,2015-10-05,1,,,,,マシコショウテン,0
2311,8080103002894,登記記録の閉鎖等,0,2024-11-14,2024-11-12,ＪＮＴ合同会社,,合同会社,静岡県,沼津市,幸町１８１番地東海プラント第２ビル２Ｆ,,22,203,4100862,,,2024-11-12,清算の結了等,,,2023-09-28,1,,,,,ジェイエヌティ,0
2325,8120001246358,登記記録の閉鎖等,0,2024-11-14,2024-10-31,株式会社シナジーグローバル九州,,株式会社,大阪府,大阪市北区,梅田１丁目１番３号大阪駅前第三ビル７階,,27,127,5300001,,,2024-10-31,合併による解散等,8120901039241,令和６年１０月３１日大阪市淀川区西中島六丁目１番３号株式会社シナジーグローバル（8120901039241）に合併し解散,2022-06-08,1,,,,,シナジーグローバルキュウシュウ,0
2333,8122001033133,登記記録の閉鎖等,0,2024-11-14,2024-11-11,株式会社コニリオ,,株式会社,大阪府,四條畷市,岡山東２丁目３番２号笠神ビル１Ｆ,,27,229,5750003,,,2024-11-11,合併による解散等,9380001008764,令和６年１１月１日福島県郡山市桑野三丁目１２番２号株式会社コスモファーマ大阪（9380001008764）に合併し解散,2019-11-12,1,,,,,コニリオ,0
2335,8130001008617,登記記録の閉鎖等,0,2024-11-14,2024-11-11,株式会社福岡建工,,株式会社,京都府,京都市西京区,樫原畔ノ海道１番地の１２２,,26,111,6158142,,,2024-11-11,清算の結了等,,,2015-10-05,1,,,,,,0
2336,8130001034183,登記記録の閉鎖等,0,2024-11-14,2024-11-05,セキュリス株式会社,,株式会社,京都府,久世郡久御山町,森川端７７番地の８,,26,322,6130024,,,2024-11-05,合併による解散等,9130001034199,令和６年１１月１日京都府久世郡久御山町森川端７７番地の８京都ランドリーサービス株式会社（9130001034199）に合併し解散,2015-10-05,1,,,,,セキュリス,0
2337,8130001041717,登記記録の閉鎖等,0,2024-11-14,2024-11-07,京都冷菓株式会社,,株式会社,京都府,綾部市,味方町久保勝１番地,,26,203,6230031,,,2024-11-07,清算の結了等,,,2015-10-05,1,,,,,キョウトレイカ,0
2351,8160003003258,登記記録の閉鎖等,0,2024-11-14,2024-11-12,西邑システムズ合同会社,,合同会社,滋賀県,長浜市,錦織町３３２番地,,25,203,5260101,,,2024-11-12,清算の結了等,,,2024-08-02,1,,,,,ニシムラシステムズ,0
2354,8170005001861,登記記録の閉鎖等,0,2024-11-14,2024-11-13,特定非営利活動法人わかやま薬物依存症からの回復を支援する会,,その他の設立登記法人,和歌山県,和歌山市,西庄２２７番地の１８,,30,201,6400112,,,2024-11-13,清算の結了等,,,2015-10-05,1,,,,,ワカヤマヤクブツイゾンショウカラノカイフクヲシエンスルカイ,0
2368,8190001006730,登記記録の閉鎖等,0,2024-11-14,2024-11-12,鈴木ペイント販売株式会社,,株式会社,三重県,伊勢市,竹ケ鼻町１７２番地,,24,203,5160005,,,2024-11-12,清算の結了等,,,2015-10-05,1,,,,,スズキペイントハンバイ,0
2369,8190002001160,登記記録の閉鎖等,0,2024-11-14,2024-11-11,有限会社中川製函,,有限会社,三重県,津市,藤方字亀の越９７９番地の１,,24,201,5140815,,,2024-11-11,清算の結了等,,,2015-10-05,1,,,,,ナカガワセイカン,0
2373,8200002012973,登記記録の閉鎖等,0,2024-11-14,2024-11-08,有限会社ナック,,有限会社,岐阜県,大垣市,昼飯町４０８番地の１８,,21,202,5032216,,,2024-11-08,清算の結了等,,,2015-10-05,1,,,,,ナック,0
2402,8290002039570,登記記録の閉鎖等,0,2024-11-14,2024-10-08,有限会社田仲,,有限会社,福岡県,筑紫野市,美咲１９番地の２,,40,217,8180026,,,2024-10-08,清算の結了等,,,2015-10-05,1,,,,,タナカ,0
2407,8310001013739,登記記録の閉鎖等,0,2024-11-14,2024-11-05,株式会社デルタガス,,株式会社,長崎県,長崎市,界２丁目４番１号,,42,201,8510122,,,2024-11-05,清算の結了等,,,2015-10-05,1,,,,,デルタガス,0
2408,8320002022878,登記記録の閉鎖等,0,2024-11-14,2024-10-23,幸野建設有限会社,,有限会社,大分県,大分市,長浜町３丁目１２番２２号,,44,201,8700023,,,2024-10-23,清算の結了等,,,2024-08-13,1,,,,,コウノケンセツ,0
2409,8340002023783,登記記録の閉鎖等,0,2024-11-14,2024-11-11,有限会社カネマツ,,有限会社,鹿児島県,枕崎市,恵比須町２３番地,,46,204,8980009,,,2024-11-11,清算の結了等,,,2015-10-05,1,,,,,カネマツ,0
2412,8350002008486,登記記録の閉鎖等,0,2024-11-14,2024-11-11,有限会社愛ヴィレッジ,,有限会社,宮崎県,宮崎市,学園木花台桜２丁目２１番地３,,45,201,8892154,,,2024-11-11,清算の結了等,,,2015-10-05,1,,,,,アイヴィレッジ,0
2421,8410001006419,登記記録の閉鎖等,0,2024-11-14,2024-11-11,九島木材株式会社,,株式会社,秋田県,北秋田市,坊沢字中柳生９５番地,,05,213,0183333,,,2024-11-11,清算の結了等,,,2015-10-05,1,,,,,クシマモクザイ,0
2432,8500003002828,登記記録の閉鎖等,0,2024-11-14,2024-11-11,合同会社Ｌｅｇａｌ　Ｉｓｌａｎｄ,,合同会社,愛媛県,東温市,志津川南１丁目２番地５,,38,215,7910206,,,2024-11-11,清算の結了等,,,2022-05-10,1,,,,,リーガルアイランド,0
2442,9010001158753,登記記録の閉鎖等,0,2024-11-14,2024-11-05,株式会社ボーディングパス,,株式会社,東京都,台東区,西浅草２丁目１４番１３－７０３号,,13,106,1110035,,,2024-11-05,清算の結了等,,,2015-10-05,1,,,,,ボーディングパス,0
2446,9010001193230,登記記録の閉鎖等,0,2024-11-14,2024-10-31,ＪＰＯ第６号株式会社,,株式会社,東京都,千代田区,霞が関３丁目２番１号,,13,101,1000013,,,2024-10-31,清算の結了等,,,2018-07-11,1,,,,,ジェイピーオーダイロクゴウ,0
2447,9010001211834,登記記録の閉鎖等,0,2024-11-14,2024-10-31,ＪＰＡ第２０４号株式会社,,株式会社,東京都,千代田区,霞が関３丁目２番１号,,13,101,1000013,,,2024-10-31,清算の結了等,,,2020-08-27,1,,,,,ジェイピーエーダイニヒャクヨンゴウ,0
2449,9010001218598,登記記録の閉鎖等,0,2024-11-14,2024-10-18,株式会社ＰＫＢ　Ｌａｂ,,株式会社,東京都,千代田区,神田錦町１丁目１６番地１いちご神田錦町ビル９階,,13,101,1010054,,,2024-10-18,清算の結了等,,,2021-06-07,1,,,,,ピーケイビーラボ,0
2488,9010501021898,登記記録の閉鎖等,0,2024-11-14,2024-11-01,エスイーシージャパン株式会社,,株式会社,東京都,台東区,上野３丁目１５番９号,,13,106,1100005,,,2024-11-01,合併による解散等,4010501029129,令和６年１１月１日東京都台東区上野三丁目１５番９号株式会社エスイーシー（4010501029129）に合併し解散,2015-10-05,1,,,,,エスイーシージャパン,0
2489,9010502015998,登記記録の閉鎖等,0,2024-11-14,2024-11-11,どうるっと有限会社,,有限会社,埼玉県,さいたま市緑区,馬場１丁目１５番地１４,,11,109,3360912,,,2024-11-11,清算の結了等,,,2015-10-05,1,,,,,ドウルット,0
2521,9011105002104,登記記録の閉鎖等,0,2024-11-14,2024-11-01,特定非営利活動法人腎泌尿器疾患研究所,,その他の設立登記法人,東京都,新宿区,河田町６番１５号－２０１号室,,13,104,1620054,,,2024-11-01,清算の結了等,,,2015-10-05,1,,,,,ジンヒニョウキシッカンケンキュウショ,0
2532,9011602023610,登記記録の閉鎖等,0,2024-11-14,2024-11-05,有限会社ガイア,,有限会社,東京都,練馬区,豊玉上１丁目２０番１３号ハニービル３０２号,,13,120,1760011,,,2024-11-05,清算の結了等,,,2015-10-05,1,,,,,ガイア,0
2533,9011602023701,登記記録の閉鎖等,0,2024-11-14,2024-11-05,有限会社ピンク・タンク,,有限会社,千葉県,南房総市,和田町柴７番地１,,12,234,2992702,,,2024-11-05,清算の結了等,,,2015-10-05,1,,,,,ピンクタンク,0
2536,9012402008108,登記記録の閉鎖等,0,2024-11-14,2024-11-12,有限会社エヌエス美術印刷企画,,有限会社,東京都,調布市,下石原２丁目３１番地５,,13,208,1820034,,,2024-11-12,清算の結了等,,,2015-10-05,1,,,,,エヌエスビジュツインサツキカク,0
2561,9021001035289,登記記録の閉鎖等,0,2024-11-14,2024-11-11,東京クォーク株式会社,,株式会社,神奈川県,小田原市,城山３丁目１９番４３号,,14,206,2500045,,,2024-11-11,清算の結了等,,,2015-10-05,1,,,,,トウキョウクォーク,0
2565,9021002022427,登記記録の閉鎖等,0,2024-11-14,2024-11-06,有限会社鶴町工業,,有限会社,神奈川県,相模原市南区,古淵４丁目３５番２号,,14,153,2520344,,,2024-11-06,清算の結了等,,,2015-10-05,1,,,,,,0
2567,9021002049164,登記記録の閉鎖等,0,2024-11-14,2024-11-13,有限会社大上空調サービス,,有限会社,神奈川県,綾瀬市,早川２１６１番地８,,14,218,2521123,,,2024-11-13,清算の結了等,,,2015-10-05,1,,,,,,0
2583,9030003014580,登記記録の閉鎖等,0,2024-11-14,2024-11-11,ＧＬＵＧ合同会社,,合同会社,埼玉県,川越市,新富町１丁目１番地１１信富イハラビル１Ｆ,,11,201,3500043,,,2024-11-11,清算の結了等,,,2019-12-27,1,,,,,ジーエルユージー,0
2608,9100001034887,登記記録の閉鎖等,0,2024-11-14,2024-11-01,アットツリー株式会社,,株式会社,長野県,大町市,大町４１３４番地１,,20,212,3980002,,,2024-11-01,合併による解散等,4100001031360,令和６年１１月１日長野県大町市大町４１３４番地１株式会社北アルプスブルワリー（4100001031360）に合併し解散,2021-12-15,1,,,,,アットツリー,0
2609,9100002022998,登記記録の閉鎖等,0,2024-11-14,2024-11-06,有限会社エフワイエル,,有限会社,長野県,松本市,蟻ケ崎台２４番３号,,20,202,3900867,,,2024-11-06,清算の結了等,,,2015-10-05,1,,,,,エフワイエル,0
2651,9180001124301,登記記録の閉鎖等,0,2024-11-14,2024-11-05,株式会社ＮＨＴ,,株式会社,愛知県,名古屋市名東区,照が丘６６番地プレナス藤が丘２Ｂ号,,23,115,4650042,,,2024-11-05,清算の結了等,,,2016-08-02,1,,,,,エヌエイチティー,0
2659,9180002084123,登記記録の閉鎖等,0,2024-11-14,2024-11-05,有限会社ヤマショー,,有限会社,愛知県,半田市,亀崎月見町１丁目１１６番地の１,,23,205,4750022,,,2024-11-05,清算の結了等,,,2015-10-05,1,,,,,ヤマショー,0
2675,9200001024671,登記記録の閉鎖等,0,2024-11-14,2024-11-12,株式会社朝日産業,,株式会社,岐阜県,高山市,朝日町甲１４６７番地,,21,203,5093326,,,2024-11-12,清算の結了等,,,2015-10-05,1,,,,,アサヒサンギョウ,0
2684,9220002015412,登記記録の閉鎖等,0,2024-11-14,2024-10-31,有限会社重兵衛,,有限会社,石川県,七尾市,能登島野崎町八七部１７番地,,17,202,9260205,,,2024-10-31,清算の結了等,,,2015-10-05,1,,,,,,0
2695,9240001051704,登記記録の閉鎖等,0,2024-11-14,2024-11-12,ママさんホンポ広島株式会社,,株式会社,広島県,広島市西区,三滝本町１丁目２４番８号３３３－７,,34,104,7330802,,,2024-11-12,清算の結了等,,,2017-09-14,1,,,,,ママサンホンポヒロシマ,0
2698,9240005011844,登記記録の閉鎖等,0,2024-11-14,2024-11-12,医療法人社団難波外科医院,,その他の設立登記法人,広島県,三原市,古浜１丁目３番５号,,34,204,7230013,,,2024-11-12,清算の結了等,,,2015-10-05,1,,,,,ナンバゲカイイン,0
2704,9270001005459,登記記録の閉鎖等,0,2024-11-14,2024-10-28,株式会社鶴太屋,,株式会社,神奈川県,川崎市高津区,坂戸２丁目７番１－１０８号グランデリシェス溝の口,,14,134,2130012,,,2024-10-28,清算の結了等,,,2015-10-05,1,,,,,ツルダヤ,0
2705,9280002011570,登記記録の閉鎖等,0,2024-11-14,2024-11-12,有限会社三刀屋衛生社,,有限会社,島根県,雲南市,三刀屋町乙加宮１３００番地１,,32,209,6902634,,,2024-11-12,清算の結了等,,,2015-10-05,1,,,,,ミトヤエイセイシャ,0
2714,9330002006920,登記記録の閉鎖等,0,2024-11-14,2024-11-06,有限会社つむぎ屋,,有限会社,熊本県,熊本市中央区,保田窪１丁目２番６９号,,43,101,8620926,,,2024-11-06,清算の結了等,,,2015-10-05,1,,,,,ツムギヤ,0
2719,9350002011729,登記記録の閉鎖等,0,2024-11-14,2024-11-07,有限会社池部陶器店,,有限会社,宮崎県,延岡市,祇園町２丁目４番地１,,45,203,8820043,,,2024-11-07,清算の結了等,,,2015-10-05,1,,,,,イケベトウキテン,0
2733,9420002008305,登記記録の閉鎖等,0,2024-11-14,2024-11-08,有限会社八戸中央温泉卵湯,,有限会社,青森県,八戸市,柏崎５丁目１番１７号,,02,203,0310081,,,2024-11-08,清算の結了等,,,2015-10-05,1,,,,,ハチノヘチュウオウオンセンタマゴユ,0
2743,9490005003429,登記記録の閉鎖等,0,2024-11-14,2024-11-11,医療法人光陽会,,その他の設立登記法人,高知県,吾川郡いの町,３８６４番地１,,39,386,7812110,,,2024-11-11,清算の結了等,,,2015-10-05,1,,,,,コウヨウカイ,0
