sequenceNumber,corporateNumber,process,correct,updateDate,changeDate,name,nameImageId,kind,prefectureName,cityName,streetNumber,addressImageId,prefectureCode,cityCode,postCode,addressOutside,addressOutsideImageId,closeDate,closeCause,successorCorporateNumber,changeCause,assignmentDate,latest,enName,enPrefectureName,enCityName,enAddressOutside,furigana,hihyoji
4,1010001233423,登記記録の閉鎖等,0,2025-08-15,2025-07-16,まりもの株式会社,,株式会社,東京都,中央区,築地７丁目１５番１１号レジーナ銀座東８０１号,,13,102,1040045,,,2025-07-16,清算の結了等,,,2023-03-06,1,,,,,マリモノ,0
8,1010003043201,登記記録の閉鎖等,0,2025-08-15,2025-07-15,ＪＰＥ第３号合同会社,,合同会社,東京都,千代田区,霞が関３丁目２番１号,,13,101,1000013,,,2025-07-15,清算の結了等,,,2024-03-14,1,,,,,ジェイピーイーダイサンゴウ,0
13,1010401006189,登記記録の閉鎖等,0,2025-08-15,2025-07-30,株式会社オフイスコントロール,,株式会社,東京都,港区,芝大門１丁目１５番１号第３高千穂ビル５階,,13,103,1050012,,,2025-07-30,清算の結了等,,,2015-10-05,1,,,,,オフイスコントロール,0
26,1010502007499,登記記録の閉鎖等,0,2025-08-15,2025-07-14,有限会社スポーツショップルーキー,,有限会社,東京都,台東区,雷門１丁目１２番１２号スズキビル,,13,106,1110034,,,2025-07-14,合併による解散等,2010501009652,令和７年７月１日東京都台東区浅草二丁目５番５号株式会社ながさわ（2010501009652）に合併し解散,2015-10-05,1,,,,,スポーツショップルーキー,0
29,1010602001955,登記記録の閉鎖等,0,2025-08-15,2025-08-08,有限会社錦糸堂,,有限会社,東京都,江東区,毛利１丁目９番７号,,13,108,1350001,,,2025-08-08,清算の結了等,,,2015-10-05,1,,,,,キンシドウ,0
52,1011401003143,登記記録の閉鎖等,0,2025-08-15,2025-08-08,秀和管理株式会社,,株式会社,東京都,板橋区,徳丸６丁目３４番９号,,13,119,1750083,,,2025-08-08,清算の結了等,,,2015-10-05,1,,,,,シュウワカンリ,0
58,1011802011793,登記記録の閉鎖等,0,2025-08-15,2025-08-12,有限会社木村プロセス,,有限会社,東京都,足立区,西保木間２丁目４番１６－５０１号,,13,121,1210812,,,2025-08-12,清算の結了等,,,2015-10-05,1,,,,,キムラプロセス,0
62,1012403005342,登記記録の閉鎖等,0,2025-08-15,2025-08-05,光宝合同会社,,合同会社,東京都,調布市,布田２丁目２番地６調布マンション２０５,,13,208,1820024,,,2025-08-05,清算の結了等,,,2022-04-28,1,,,,,コウホウ,0
80,1030001155905,登記記録の閉鎖等,0,2025-08-15,2025-08-06,株式会社木づくり不動産,,株式会社,埼玉県,戸田市,上戸田２丁目３２番１７号第一ゆりハイツ１０３号,,11,224,3350022,,,2025-08-06,清算の結了等,,,2023-09-20,1,,,,,キヅクリフドウサン,0
102,1080001012911,登記記録の閉鎖等,0,2025-08-15,2025-08-06,株式会社池田機械,,株式会社,静岡県,島田市,本通６丁目６０４６番地の８,,22,209,4270022,,,2025-08-06,清算の結了等,,,2015-10-05,1,,,,,イケダキカイ,0
108,1080402005654,登記記録の閉鎖等,0,2025-08-15,2025-08-05,長尾硝子建材有限会社,,有限会社,静岡県,浜松市中央区,高丘東２丁目１７番８号,,22,138,4338117,,,2025-08-05,清算の結了等,,,2015-10-05,1,,,,,ナガオガラスケンザイ,0
109,1090001005071,登記記録の閉鎖等,0,2025-08-15,2025-08-07,株式会社明治,,株式会社,山梨県,南アルプス市,在家塚７３０番地１,,19,208,4000221,,,2025-08-07,清算の結了等,,,2015-10-05,1,,,,,メイジ,0
111,1100003002437,登記記録の閉鎖等,0,2025-08-15,2025-08-08,合同会社シニアライフステージ,,合同会社,長野県,松本市,大字島内３７７７番地７,,20,202,3900851,,,2025-08-08,清算の結了等,,,2015-10-05,1,,,,,シニアライフステージ,0
113,1110001021388,登記記録の閉鎖等,0,2025-08-15,2025-07-28,株式会社タクト創建,,株式会社,新潟県,十日町市,白羽毛辰３４４番地,,15,210,9498427,,,2025-07-28,清算の結了等,,,2015-10-05,1,,,,,タクトソウケン,0
116,1110002004508,登記記録の閉鎖等,0,2025-08-15,2025-07-25,有限会社トラステイ,,有限会社,新潟県,新潟市江南区,曽野木２丁目２５番２２号,,15,104,9501135,,,2025-07-25,清算の結了等,,,2015-10-05,1,,,,,トラステイ,0
122,1120001090449,登記記録の閉鎖等,0,2025-08-15,2025-08-04,株式会社三都屋商店,,株式会社,大阪府,大阪市中央区,船場中央３丁目２番８－２０３号,,27,128,5410055,,,2025-08-04,清算の結了等,,,2015-10-05,1,,,,,ミトヤショウテン,0
126,1120001228379,登記記録の閉鎖等,0,2025-08-15,2025-07-28,株式会社オーティーエス,,株式会社,大阪府,枚方市,三栗１丁目２８番４９－２０１号室,,27,210,5731171,,,2025-07-28,清算の結了等,,,2020-04-07,1,,,,,オーティーエス,0
137,1120002012526,登記記録の閉鎖等,0,2025-08-15,2025-08-01,有限会社イーティエムコンサルタント,,有限会社,大阪府,大阪市天王寺区,上汐５丁目７番２９号,,27,109,5430002,,,2025-08-01,清算の結了等,,,2015-10-05,1,,,,,イーティエムコンサルタント,0
157,1140001060623,登記記録の閉鎖等,0,2025-08-15,2025-08-06,株式会社ノバ,,株式会社,兵庫県,姫路市,城北本町５番２７号,,28,201,6700884,,,2025-08-06,清算の結了等,,,2015-10-05,1,,,,,ノバ,0
185,1190001020754,登記記録の閉鎖等,0,2025-08-15,2025-08-07,株式会社たけしろうカンパニー,,株式会社,三重県,津市,一志町虹が丘８番９号,,24,201,5152513,,,2025-08-07,清算の結了等,,,2015-10-05,1,,,,,タケシロウカンパニー,0
193,1240001016581,登記記録の閉鎖等,0,2025-08-15,2025-08-07,株式会社ＴＹ商会,,株式会社,広島県,広島市中区,白島九軒町７番１５号,,34,101,7300003,,,2025-08-07,清算の結了等,,,2015-10-05,1,,,,,ティーワイショウカイ,0
198,1240003003735,登記記録の閉鎖等,0,2025-08-15,2025-08-06,合同会社ファースト．Ｃ,,合同会社,広島県,広島市安佐南区,山本７丁目８番１３号,,34,105,7310137,,,2025-08-06,清算の結了等,,,2017-11-29,1,,,,,ファーストシー,0
200,1250005008153,登記記録の閉鎖等,0,2025-08-15,2025-08-12,特定非営利活動法人やまぐち子育て四訓の会,,その他の設立登記法人,山口県,山口市,大内氷上３丁目４番２５号,,35,203,7530231,,,2025-08-12,清算の結了等,,,2015-10-05,1,,,,,ヤマグチコソダテシクンノカイ,0
201,1260001028195,登記記録の閉鎖等,0,2025-08-15,2025-07-22,株式会社ヒューマンカンパニー,,株式会社,岡山県,岡山市南区,築港栄町２８番５号ポレスターブロードシティ岡山南５０２号,,33,104,7028053,,,2025-07-22,清算の結了等,,,2015-10-05,1,,,,,,0
211,1310001011856,登記記録の閉鎖等,0,2025-08-15,2025-08-07,ＧＩＦＹ株式会社,,株式会社,長崎県,北松浦郡佐々町,松瀬免２１０番地,,42,391,8570322,,,2025-08-07,清算の結了等,,,2015-10-05,1,,,,,ジフィ,0
224,1370001019010,登記記録の閉鎖等,0,2025-08-15,2025-07-28,東亜電機株式会社,,株式会社,宮城県,仙台市泉区,鶴が丘１丁目１２－１４,,04,105,9813109,,,2025-07-28,清算の結了等,,,2015-10-05,1,,,,,トウアデンキ,0
228,1370202004975,登記記録の閉鎖等,0,2025-08-15,2025-07-25,有限会社トムテックス,,有限会社,宮城県,栗原市,高清水上佐野９番地,,04,213,9872121,,,2025-07-25,清算の結了等,,,2015-10-05,1,,,,,トムテックス,0
229,1370402001806,登記記録の閉鎖等,0,2025-08-15,2025-07-25,有限会社粧苑オカベ,,有限会社,宮城県,登米市,迫町佐沼字錦１６９番地,,04,212,9870511,,,2025-07-25,清算の結了等,,,2015-10-05,1,,,,,ショウエンオカベ,0
232,1380002034379,登記記録の閉鎖等,0,2025-08-15,2025-07-25,有限会社ハチヤ,,有限会社,福島県,河沼郡柳津町,大字柳津字一王町甲２７番地,,07,423,9697201,,,2025-07-25,清算の結了等,,,2015-10-05,1,,,,,ハチヤ,0
239,1430002053588,登記記録の閉鎖等,0,2025-08-15,2025-07-24,有限会社ルック,,有限会社,北海道,樺戸郡新十津川町,字中央３０２番地５,,01,432,0731103,,,2025-07-24,清算の結了等,,,2015-10-05,1,,,,,ルック,0
240,1470002011781,登記記録の閉鎖等,0,2025-08-15,2025-08-12,有限会社白川建設,,有限会社,香川県,丸亀市,郡家町１８５番地５,,37,202,7630093,,,2025-08-12,清算の結了等,,,2015-10-05,1,,,,,シラカワケンセツ,0
261,2010405017495,登記記録の閉鎖等,0,2025-08-15,2025-07-04,一般社団法人人生１００年生き方塾,,その他の設立登記法人,東京都,港区,南青山２丁目２番１５号ウィン青山９４２,,13,103,1070062,,,2025-07-04,清算の結了等,,,2019-02-28,1,,,,,ジンセイヒャクネンイキカタジュク,0
288,2011101095562,登記記録の閉鎖等,0,2025-08-15,2025-08-05,株式会社ＬｉｇｈｔＷｏｒｋｓ,,株式会社,東京都,調布市,上石原２丁目４６番地１３Ｌｕａｎａ１０１,,13,208,1820035,,,2025-08-05,清算の結了等,,,2021-06-29,1,,,,,ライトワークス,0
296,2011501004750,登記記録の閉鎖等,0,2025-08-15,2025-08-08,株式会社柳沢製作所,,株式会社,東京都,北区,堀船３丁目１６番１５号,,13,117,1140004,,,2025-08-08,清算の結了等,,,2015-10-05,1,,,,,ヤナギサワセイサクショ,0
326,2021002022664,登記記録の閉鎖等,0,2025-08-15,2025-07-31,有限会社東北建設,,有限会社,神奈川県,相模原市中央区,富士見５丁目１２番１２号,,14,152,2520236,,,2025-07-31,清算の結了等,,,2015-10-05,1,,,,,トウホクケンセツ,0
329,2030001022352,登記記録の閉鎖等,0,2025-08-15,2025-07-22,株式会社東名マイスター,,株式会社,愛知県,名古屋市名東区,高針原２丁目６０６番地,,23,115,4650073,,,2025-07-22,清算の結了等,,,2015-10-05,1,,,,,トウメイマイスター,0
346,2050002001031,登記記録の閉鎖等,0,2025-08-15,2025-08-04,有限会社ケイ・アイシステムズ,,有限会社,茨城県,水戸市,渡里町３０３０番地の５,,08,201,3100902,,,2025-08-04,清算の結了等,,,2015-10-05,1,,,,,ケイアイシステムズ,0
354,2080002017438,登記記録の閉鎖等,0,2025-08-15,2025-08-05,有限会社加藤鉄筋,,有限会社,静岡県,藤枝市,築地４６９番地の７,,22,214,4260031,,,2025-08-05,清算の結了等,,,2015-10-05,1,,,,,カトウテッキン,0
355,2080102004039,登記記録の閉鎖等,0,2025-08-15,2025-08-07,有限会社カレッジ沼津,,有限会社,静岡県,沼津市,大手町１丁目２番１号,,22,203,4100801,,,2025-08-07,清算の結了等,,,2015-10-05,1,,,,,カレッジヌマヅ,0
357,2080102021455,登記記録の閉鎖等,0,2025-08-15,2025-08-08,有限会社稲葉石油,,有限会社,静岡県,賀茂郡南伊豆町,伊浜６４番地の１,,22,304,4150531,,,2025-08-08,清算の結了等,,,2015-10-05,1,,,,,イナバセキユ,0
359,2100001019481,登記記録の閉鎖等,0,2025-08-15,2025-08-08,バーズィスジャパン株式会社,,株式会社,長野県,茅野市,ちの１７６番地の５,,20,214,3910001,,,2025-08-08,清算の結了等,,,2015-10-05,1,,,,,バーズィスジャパン,0
360,2100001033813,登記記録の閉鎖等,0,2025-08-15,2025-08-08,株式会社ＮＦＰ,,株式会社,長野県,塩尻市,大字広丘野村６７８番地３,,20,215,3990702,,,2025-08-08,清算の結了等,,,2020-12-24,1,,,,,エヌエフピー,0
366,2110001006504,登記記録の閉鎖等,0,2025-08-15,2025-07-25,日本制御株式会社,,株式会社,新潟県,新潟市江南区,袋津５丁目６番１４号,,15,104,9500131,,,2025-07-25,清算の結了等,,,2015-10-05,1,,,,,ニホンセイギョ,0
367,2110001024349,登記記録の閉鎖等,0,2025-08-15,2025-07-29,株式会社リブレ,,株式会社,新潟県,長岡市,稽古町１６２８番地５,,15,202,9400054,,,2025-07-29,清算の結了等,,,2015-10-05,1,,,,,リブレ,0
371,2110002028150,登記記録の閉鎖等,0,2025-08-15,2025-07-28,第一設備有限会社,,有限会社,新潟県,長岡市,下々条町６７１番地,,15,202,9400011,,,2025-07-28,清算の結了等,,,2015-10-05,1,,,,,ダイイチセツビ,0
373,2120001071811,登記記録の閉鎖等,0,2025-08-15,2025-07-28,吉本電機住宅設備株式会社,,株式会社,大阪府,大阪市北区,中崎３丁目２番２６号,,27,127,5300016,,,2025-07-28,清算の結了等,,,2015-10-05,1,,,,,ヨシモトデンキジュウタクセツビ,0
376,2120001155003,登記記録の閉鎖等,0,2025-08-15,2025-07-28,株式会社まるせん,,株式会社,大阪府,大阪市福島区,吉野２丁目１１番２０－５１６号,,27,103,5530006,,,2025-07-28,清算の結了等,,,2015-10-05,1,,,,,マルセン,0
377,2120001176123,登記記録の閉鎖等,0,2025-08-15,2025-07-28,株式会社シークルー,,株式会社,大阪府,大阪市北区,天神橋１丁目１２番１５－６０１号,,27,127,5300041,,,2025-07-28,清算の結了等,,,2015-10-05,1,,,,,シークルー,0
392,2120002033496,登記記録の閉鎖等,0,2025-08-15,2025-08-01,有限会社アドマン,,有限会社,大阪府,大阪市東住吉区,東田辺３丁目１０番１３号,,27,121,5460032,,,2025-08-01,清算の結了等,,,2015-10-05,1,,,,,アドマン,0
407,2130002032357,登記記録の閉鎖等,0,2025-08-15,2025-07-31,有限会社西太織物,,有限会社,京都府,与謝郡与謝野町,字岩滝１１４５番地,,26,465,6292262,,,2025-07-31,清算の結了等,,,2015-10-05,1,,,,,ニシタオリモノ,0
419,2150002003802,登記記録の閉鎖等,0,2025-08-15,2025-08-12,有限会社アローファイブ,,有限会社,奈良県,生駒市,あすか野北２丁目１０番１３号,,29,209,6300134,,,2025-08-12,清算の結了等,,,2015-10-05,1,,,,,アローファイブ,0
440,2190003004630,登記記録の閉鎖等,0,2025-08-15,2025-08-07,ＶＩＮＨ　ＮＧＯＣ　ＫＨＡＮＧ合同会社,,合同会社,三重県,四日市市,十志町１２８番地２,,24,202,5108026,,,2025-08-07,清算の結了等,,,2024-04-04,1,,,,,ヴィンゴックハン,0
449,2230003001978,登記記録の閉鎖等,0,2025-08-15,2025-08-12,合同会社刺繍技法,,合同会社,富山県,小矢部市,蓮沼７０９番地２,,16,209,9320834,,,2025-08-12,清算の結了等,,,2023-03-06,1,,,,,シシュウギホウ,0
451,2230003002290,登記記録の閉鎖等,0,2025-08-15,2025-08-14,合同会社荒戸運送,,合同会社,富山県,氷見市,下久津呂３５８番地１,,16,205,9350046,,,2025-08-14,清算の結了等,,,2024-09-19,1,,,,,アラトウンソウ,0
452,2240001053070,登記記録の閉鎖等,0,2025-08-15,2025-08-01,株式会社瀬潮,,株式会社,広島県,三原市,城町１丁目１２番５号,,34,204,7230014,,,2025-08-01,合併による解散等,4240001040141,令和７年８月１日広島県三原市城町一丁目１２番５号株式会社ネクストアイ（4240001040141）に合併し解散,2018-07-06,1,,,,,セシオ,0
453,2240002013503,登記記録の閉鎖等,0,2025-08-15,2025-08-07,有限会社花福,,有限会社,広島県,広島市南区,段原南１丁目１９番６号,,34,103,7320814,,,2025-08-07,清算の結了等,,,2015-10-05,1,,,,,ハナフク,0
455,2240003004914,登記記録の閉鎖等,0,2025-08-15,2025-08-08,Ｆｒｕｉｔｆｕｌ－Ｋｏｍ合同会社,,合同会社,広島県,広島市南区,皆実町５丁目１６番３５号,,34,103,7340007,,,2025-08-08,清算の結了等,,,2020-12-17,1,,,,,フルーツフルコム,0
456,2250002001143,登記記録の閉鎖等,0,2025-08-15,2025-08-07,有限会社日建,,有限会社,山口県,山口市,大内長野９２９番地の２,,35,203,7530211,,,2025-08-07,清算の結了等,,,2015-10-05,1,,,,,ニッケン,0
459,2260002026833,登記記録の閉鎖等,0,2025-08-15,2025-07-22,西医療商事有限会社,,有限会社,岡山県,高梁市,中之町２１番地,,33,209,7160014,,,2025-07-22,清算の結了等,,,2015-10-05,1,,,,,ニシイリョウショウジ,0
467,2290801030594,登記記録の閉鎖等,0,2025-08-15,2025-07-11,株式会社ｓｏｃｉａｌｍａｇｉｃ,,株式会社,福岡県,北九州市小倉北区,木町２丁目１７－３　２０２,,40,106,8030851,,,2025-07-11,清算の結了等,,,2024-05-23,1,,,,,ソーシャルマジック,0
483,2340002006562,登記記録の閉鎖等,0,2025-08-15,2025-07-31,有限会社東洋エステート,,有限会社,鹿児島県,鹿児島市,宇宿５丁目３番１号,,46,201,8900073,,,2025-07-31,清算の結了等,,,2015-10-05,1,,,,,トウヨウエステート,0
484,2340002017304,登記記録の閉鎖等,0,2025-08-15,2025-07-31,有限会社平野建設,,有限会社,鹿児島県,薩摩川内市,樋脇町市比野７８１番地,00099529,46,215,8951203,,,2025-07-31,清算の結了等,,,2015-10-05,1,,,,,ヒラノケンセツ,0
487,2350002013161,登記記録の閉鎖等,0,2025-08-15,2025-08-01,有限会社平成造園土木,,有限会社,宮崎県,延岡市,北方町南久保山子３２９６－１,,45,203,8820128,,,2025-08-01,清算の結了等,,,2015-10-05,1,,,,,ヘイセイゾウエンドボク,0
494,2360005002615,登記記録の閉鎖等,0,2025-08-15,2025-07-28,沖縄県自動車電装品整備商工組合,,その他の設立登記法人,沖縄県,浦添市,字港川４０９番地,,47,208,9012134,,,2025-07-28,清算の結了等,,,2015-10-05,1,,,,,オキナワケンジドウシャデンソウヒンセイビ,0
502,2370201002789,登記記録の閉鎖等,0,2025-08-15,2025-07-25,株式会社タイヘイメタル工業,,株式会社,宮城県,遠田郡涌谷町,涌谷字黄金山６番地２,,04,501,9870121,,,2025-07-25,清算の結了等,,,2015-10-05,1,,,,,タイヘイメタルコウギョウ,0
505,2400502000694,登記記録の閉鎖等,0,2025-08-15,2025-07-23,有限会社雪印牛乳一関サービスセンター,,有限会社,岩手県,一関市,滝沢字鶴ケ沢７番地４２,,03,209,0290132,,,2025-07-23,清算の結了等,,,2015-10-05,1,,,,,ユキジルシギュウニュウイチノセキサービスセンター,0
507,2410003001209,登記記録の閉鎖等,0,2025-08-15,2025-08-12,合同会社オフィスＨＩＮＯ,,合同会社,秋田県,湯沢市,駒形町字東福寺沖５番地２,,05,207,0120104,,,2025-08-12,清算の結了等,,,2015-10-05,1,,,,,,0
510,2430001056871,登記記録の閉鎖等,0,2025-08-15,2025-08-07,株式会社富岡鉄工所,,株式会社,北海道,室蘭市,東町３丁目１番３号,,01,205,0500083,,,2025-08-07,清算の結了等,,,2015-10-05,1,,,,,トミオカテッコウショ,0
537,3010501052387,登記記録の閉鎖等,0,2025-08-15,2025-08-07,株式会社ツージャック,,株式会社,東京都,江東区,森下３丁目１９番１９号－２０３,,13,108,1350004,,,2025-08-07,清算の結了等,,,2024-06-05,1,,,,,ツージャック,0
546,3011001130625,登記記録の閉鎖等,0,2025-08-15,2025-07-10,株式会社Ａ＆Ｍ　ｐｌａｎｎｉｎｇ＆ｐｒｏｄｕｃｔｉｏｎ．ｃｏ,,株式会社,東京都,渋谷区,神宮前４丁目１３番４号,,13,113,1500001,,,2025-07-10,清算の結了等,,,2019-10-30,1,,,,,エーアンドエムプランニングアンドプロダクションドットシーオー,0
560,3011601010581,登記記録の閉鎖等,0,2025-08-15,2025-07-29,株式会社米伸,,株式会社,東京都,練馬区,谷原４丁目２０番３１号,,13,120,1770032,,,2025-07-29,清算の結了等,,,2015-10-05,1,,,,,ヨネシン,0
568,3011801002164,登記記録の閉鎖等,0,2025-08-15,2025-08-08,株式会社シムラ,,株式会社,東京都,葛飾区,堀切７丁目２０番１０号,,13,122,1240006,,,2025-08-08,清算の結了等,,,2015-10-05,1,,,,,シムラ,0
589,3020002071150,登記記録の閉鎖等,0,2025-08-15,2025-07-29,有限会社ティーティーケー,,有限会社,神奈川県,横浜市鶴見区,東寺尾２丁目２０番９－３０２号,,14,101,2300077,,,2025-07-29,清算の結了等,,,2015-10-05,1,,,,,ティーティーケー,0
602,3021002012053,登記記録の閉鎖等,0,2025-08-15,2025-08-14,有限会社萌夢舎,,有限会社,神奈川県,茅ヶ崎市,南湖４丁目１９番１３号,,14,207,2530061,,,2025-08-14,清算の結了等,,,2015-10-05,1,,,,,ホウムシャ,0
612,3030001130121,登記記録の閉鎖等,0,2025-08-15,2025-08-07,株式会社花音,,株式会社,埼玉県,川口市,大字安行北谷５９１番地の４,,11,203,3340054,,,2025-08-07,清算の結了等,,,2019-03-29,1,,,,,カノン,0
632,3080002012487,登記記録の閉鎖等,0,2025-08-15,2025-08-06,有限会社Ｋ２－ｗｅｂ,,有限会社,静岡県,静岡市葵区,八千代町７３番地の３,,22,101,4200013,,,2025-08-06,清算の結了等,,,2015-10-05,1,,,,,ケイツーウェブ,0
636,3100002028613,登記記録の閉鎖等,0,2025-08-15,2025-08-12,有限会社ドリームカンパニー,,有限会社,長野県,諏訪市,清水１丁目６番２１号,,20,206,3920007,,,2025-08-12,清算の結了等,,,2015-10-05,1,,,,,ドリームカンパニー,0
642,3110002018588,登記記録の閉鎖等,0,2025-08-15,2025-07-25,有限会社宮口木材,,有限会社,新潟県,南蒲原郡田上町,大字羽生田乙５９８番地,,15,361,9591512,,,2025-07-25,清算の結了等,,,2015-10-05,1,,,,,ミヤグチモクザイ,0
649,3120001172518,登記記録の閉鎖等,0,2025-08-15,2025-08-01,株式会社まど屋,,株式会社,大阪府,枚方市,高塚町１５－１５アルス枚方高塚町１０４号室,,27,210,5730035,,,2025-08-01,清算の結了等,,,2015-10-05,1,,,,,マドヤ,0
652,3120001250612,登記記録の閉鎖等,0,2025-08-15,2025-08-01,わかな株式会社,,株式会社,大阪府,大阪市城東区,今福東１丁目８番３１号,,27,118,5360002,,,2025-08-01,清算の結了等,,,2022-11-30,1,,,,,ワカナ,0
701,3170001014855,登記記録の閉鎖等,0,2025-08-15,2025-08-13,ＨＲ　ＬＯＧＩ株式会社,,株式会社,和歌山県,岩出市,相谷８０番地の１９,,30,209,6496257,,,2025-08-13,清算の結了等,,,2017-08-03,1,,,,,エイチアールロジ,0
709,3180001146771,登記記録の閉鎖等,0,2025-08-15,2025-07-22,株式会社ＬｏｎＧｏ,,株式会社,愛知県,名古屋市千種区,今池４丁目６番１８ＳＢＰ今池ビル３Ｆ,,23,101,4640850,,,2025-07-22,清算の結了等,,,2021-07-02,1,,,,,ロンゴー,0
713,3180002017303,登記記録の閉鎖等,0,2025-08-15,2025-07-22,有限会社アドエム,,有限会社,愛知県,名古屋市中村区,烏森町８丁目３１３番地５,,23,105,4530855,,,2025-07-22,清算の結了等,,,2015-10-05,1,,,,,アドエム,0
714,3180003027053,登記記録の閉鎖等,0,2025-08-15,2025-07-18,合同会社Ｏｔａｉｅｎ,,合同会社,愛知県,一宮市,今伊勢町馬寄字福塚前８－２,,23,203,4910051,,,2025-07-18,清算の結了等,,,2024-07-08,1,,,,,オタイエン,0
721,3190001029091,登記記録の閉鎖等,0,2025-08-15,2025-08-06,株式会社ＲＣＸＩＡ,,株式会社,三重県,伊勢市,吹上１丁目７番３号,,24,203,5160073,,,2025-08-06,清算の結了等,,,2022-02-03,1,,,,,レクシア,0
723,3200001010066,登記記録の閉鎖等,0,2025-08-15,2025-08-04,東海公営事業サービス株式会社,,株式会社,岐阜県,瑞穂市,別府６０４番地の２,,21,216,5010222,,,2025-08-04,清算の結了等,,,2015-10-05,1,,,,,トウカイコウエイジギョウサービス,0
727,3210001013621,登記記録の閉鎖等,0,2025-08-15,2025-08-13,株式会社サンサン,,株式会社,福井県,鯖江市,幸町２丁目６番１１号,,18,207,9160018,,,2025-08-13,清算の結了等,,,2015-10-05,1,,,,,サンサン,0
747,3340005001056,登記記録の閉鎖等,0,2025-08-15,2025-08-01,医療法人回生会,,その他の設立登記法人,鹿児島県,鹿児島市,中町５番地１,,46,201,8920827,,,2025-08-01,清算の結了等,,,2015-10-05,1,,,,,カイセイカイ,0
753,3390002014436,登記記録の閉鎖等,0,2025-08-15,2025-08-05,有限会社中野商店,,有限会社,山形県,南陽市,漆山１１４５番地,,06,213,9920474,,,2025-08-05,清算の結了等,,,2015-10-05,1,,,,,,0
773,4010003026995,登記記録の閉鎖等,0,2025-08-15,2025-07-15,ＡＬＰＳ合同会社,,合同会社,東京都,千代田区,丸の内２丁目４番１号,,13,101,1000005,,,2025-07-15,清算の結了等,,,2018-02-20,1,,,,,アルプス,0
799,4010901035882,登記記録の閉鎖等,0,2025-08-15,2025-08-12,株式会社トロワ,,株式会社,東京都,世田谷区,北沢２丁目２４番６号Ｂ１Ｆ,,13,112,1550031,,,2025-08-12,清算の結了等,,,2015-10-05,1,,,,,トロワ,0
805,4011001132414,登記記録の閉鎖等,0,2025-08-15,2025-06-27,イチノヤ・マーケティング・ジャパン株式会社,,株式会社,東京都,渋谷区,恵比寿南２丁目１３‐９美芳ビル４階,,13,113,1500022,,,2025-06-27,合併による解散等,7011003011092,令和７年４月２９日東京都渋谷区代々木３－１１－７プリンスハイツ代々木１０３合同会社イチノヤアセットマネジメント（7011003011092）に合併し解散,2020-02-18,1,,,,,イチノヤマーケティングジャパン,0
813,4011401014121,登記記録の閉鎖等,0,2025-08-15,2025-08-07,株式会社パスタ工房あ・まーの,,株式会社,東京都,板橋区,高島平９丁目２２番１－８０４号,,13,119,1750082,,,2025-08-07,清算の結了等,,,2015-10-05,1,,,,,パスタコウボウアマーノ,0
814,4011401018477,登記記録の閉鎖等,0,2025-08-15,2025-08-08,株式会社小島真知建築設計事務所,,株式会社,東京都,多摩市,桜ヶ丘２丁目１０番地の２３,,13,224,2060013,,,2025-08-08,清算の結了等,,,2015-10-05,1,,,,,コジママサトモケンチクセッケイジムショ,0
817,4011601026718,登記記録の閉鎖等,0,2025-08-15,2025-07-30,株式会社ＰＳＩ,,株式会社,東京都,練馬区,東大泉３丁目３０番９号,,13,120,1780063,,,2025-07-30,清算の結了等,,,2023-04-11,1,,,,,ピーエスアイ,0
819,4011703002666,登記記録の閉鎖等,0,2025-08-15,2025-08-05,ミオテゾーロ２合同会社,,合同会社,東京都,江戸川区,東小岩３丁目７番１８号,,13,123,1330052,,,2025-08-05,清算の結了等,,,2020-10-12,1,,,,,ミオテゾーロニ,0
822,4011803005602,登記記録の閉鎖等,0,2025-08-15,2025-08-06,ＬＰＩ　ｃｏｎｓｕｌｔｉｎｇ合同会社,,合同会社,東京都,足立区,青井５丁目１２番４１号４Ｆ,,13,121,1210012,,,2025-08-06,清算の結了等,,,2023-04-12,1,,,,,エルピーアイコンサルティング,0
841,4021001055985,登記記録の閉鎖等,0,2025-08-15,2025-08-01,ＧＣ株式会社,,株式会社,神奈川県,横須賀市,平作８丁目７番４号,,14,201,2380032,,,2025-08-01,清算の結了等,,,2015-10-05,1,,,,,,0
853,4030002072881,登記記録の閉鎖等,0,2025-08-15,2025-08-01,有限会社桂メンテナンス,,有限会社,神奈川県,逗子市,小坪４丁目９番２３号,,14,208,2490008,,,2025-08-01,清算の結了等,,,2015-10-05,1,,,,,カツラメンテナンス,0
854,4030002076180,登記記録の閉鎖等,0,2025-08-15,2025-08-06,有限会社福島スクリーン,,有限会社,埼玉県,ふじみ野市,福岡中央２丁目９番４号,,11,245,3560031,,,2025-08-06,清算の結了等,,,2015-10-05,1,,,,,フクシマスクリーン,0
864,4040003006813,登記記録の閉鎖等,0,2025-08-15,2025-08-05,ロザージュジャパン合同会社,,合同会社,東京都,大田区,東蒲田２丁目３５番１６号,,13,111,1440031,,,2025-08-05,清算の結了等,,,2015-10-05,1,,,,,ロザージュジャパン,0
875,4080001011027,登記記録の閉鎖等,0,2025-08-15,2025-08-07,静岡土地建物株式会社,,株式会社,静岡県,静岡市葵区,緑町９番７号,,22,101,4200844,,,2025-08-07,清算の結了等,,,2015-10-05,1,,,,,シズオカトチタテモノ,0
885,4100002026483,登記記録の閉鎖等,0,2025-08-15,2025-08-08,有限会社スミヨシ,,有限会社,長野県,大町市,大町２６５２番地,,20,212,3980002,,,2025-08-08,清算の結了等,,,2015-10-05,1,,,,,スミヨシ,0
886,4100002029189,登記記録の閉鎖等,0,2025-08-15,2025-08-12,若増製パン有限会社,,有限会社,長野県,諏訪市,湖岸通り４丁目１１番１０号,,20,206,3920027,,,2025-08-12,清算の結了等,,,2015-10-05,1,,,,,ワカマスセイパン,0
890,4110001007995,登記記録の閉鎖等,0,2025-08-15,2025-07-28,関根金属株式会社,,株式会社,新潟県,新潟市西蒲区,真木１３５４番地,,15,108,9501346,,,2025-07-28,清算の結了等,,,2015-10-05,1,,,,,セキネキンゾク,0
901,4120001197324,登記記録の閉鎖等,0,2025-08-15,2025-07-28,株式会社ＴＭＧエンタープライズ,,株式会社,大阪府,大阪市中央区,南船場３丁目１番１６号,,27,128,5420081,,,2025-07-28,清算の結了等,,,2016-04-07,1,,,,,,0
902,4120001238788,登記記録の閉鎖等,0,2025-08-15,2025-08-01,株式会社Ｍ＆Ｉ　Ｓｃｉｅｎｃｅ,,株式会社,大阪府,大阪市北区,梅田２丁目６番２０号,,27,127,5300001,,,2025-08-01,合併による解散等,5120001238787,令和７年８月１日大阪市北区梅田三丁目３番４５号株式会社ＭＩＳ（5120001238787）に合併し解散,2021-07-06,1,,,,,エムアンドアイサイエンス,0
914,4120105007882,登記記録の閉鎖等,0,2025-08-15,2025-08-04,特定非営利活動法人憩の家かつら,,その他の設立登記法人,大阪府,堺市北区,中長尾町４丁３番２９号,,27,146,5918044,,,2025-08-04,清算の結了等,,,2015-10-05,1,,,,,イコイノイエカツラ,0
918,4130002021969,登記記録の閉鎖等,0,2025-08-15,2025-07-31,有限会社京都メンテナンス,,有限会社,京都府,京都市下京区,堺町通松原下ル鍜冶屋町２５２ラ・フォーレ堺町１００号室,,26,106,6000000,,,2025-07-31,清算の結了等,,,2015-10-05,1,,,,,キョウトメンテナンス,0
926,4140002048912,登記記録の閉鎖等,0,2025-08-15,2025-08-06,飾磨渡船有限会社,,有限会社,兵庫県,姫路市,飾磨区大浜３０番地,,28,201,6728062,,,2025-08-06,清算の結了等,,,2015-10-05,1,,,,,シカマトセン,0
929,4140003009780,登記記録の閉鎖等,0,2025-08-15,2025-08-07,合同会社ＧＬＯＢＥ,,合同会社,兵庫県,神戸市中央区,北長狭通１丁目２０－２ＴＡＫＡＩ．ＢＬＤ．６Ｆ,,28,110,6500012,,,2025-08-07,清算の結了等,,,2015-10-05,1,,,,,グローブ,0
942,4180001112756,登記記録の閉鎖等,0,2025-08-15,2025-08-08,株式会社名古屋茶源ホール,,株式会社,三重県,四日市市,松本３丁目４番７号,,24,202,5100836,,,2025-08-08,清算の結了等,,,2015-10-05,1,,,,,ナゴヤチャゲンホール,0
945,4180002001446,登記記録の閉鎖等,0,2025-08-15,2025-07-22,有限会社スズタン,,有限会社,愛知県,名古屋市守山区,新守町１７６番地,,23,113,4630071,,,2025-07-22,清算の結了等,,,2015-10-05,1,,,,,スズタン,0
954,4190005003744,登記記録の閉鎖等,0,2025-08-15,2025-08-01,尾鷲市開拓農業協同組合,,その他の設立登記法人,三重県,尾鷲市,中央町１０番４３号,,24,209,5193615,,,2025-08-01,清算の結了等,,,2015-10-05,1,,,,,オワセシカイタク,0
959,4210002013702,登記記録の閉鎖等,0,2025-08-15,2025-08-04,有限会社小浜クレーン,,有限会社,福井県,小浜市,生守第３０号３１番地,,18,204,9170027,,,2025-08-04,清算の結了等,,,2015-10-05,1,,,,,オバマクレーン,0
968,4260002031105,登記記録の閉鎖等,0,2025-08-15,2025-07-22,有限会社ニチヨー洋服店,,有限会社,岡山県,備前市,吉永町吉永中３１１番地の１,,33,211,7090224,,,2025-07-22,清算の結了等,,,2015-10-05,1,,,,,ニチヨーヨウフクテン,0
982,4310002002901,登記記録の閉鎖等,0,2025-08-15,2025-08-07,有限会社泰西堂,,有限会社,長崎県,長崎市,旭町１７番１６号,,42,201,8528003,,,2025-08-07,清算の結了等,,,2015-10-05,1,,,,,タイセイドウ,0
983,4310002011885,登記記録の閉鎖等,0,2025-08-15,2025-08-07,有限会社森調剤薬局,,有限会社,長崎県,佐世保市,矢峰町２２３番地３,,42,202,8570133,,,2025-08-07,清算の結了等,,,2015-10-05,1,,,,,モリチョウザイヤッキョク,0
985,4310002015993,登記記録の閉鎖等,0,2025-08-15,2025-08-07,有限会社井手果樹園,,有限会社,長崎県,諫早市,多良見町野川内６５４番地,,42,204,8590416,,,2025-08-07,清算の結了等,,,2015-10-05,1,,,,,イデカジュエン,0
989,4330001030686,登記記録の閉鎖等,0,2025-08-15,2025-07-31,株式会社スマイルビー,,株式会社,熊本県,合志市,合生４２１８番地３,,43,216,8611101,,,2025-07-31,清算の結了等,,,2023-03-15,1,,,,,スマイルビー,0
992,4330005009041,登記記録の閉鎖等,0,2025-08-15,2025-07-29,ＮＰＯ法人ＡＢＣネットワーク,,その他の設立登記法人,熊本県,熊本市東区,尾ノ上２丁目２５番１１号,,43,102,8620913,,,2025-07-29,清算の結了等,,,2015-10-05,1,,,,,エービーシーネットワーク,0
993,4340001010869,登記記録の閉鎖等,0,2025-08-15,2025-07-30,西南水産株式会社,,株式会社,鹿児島県,大島郡瀬戸内町,大字久慈１３９番地２,,46,525,8941851,,,2025-07-30,清算の結了等,,,2015-10-05,1,,,,,セイナンスイサン,0
1001,4390002010260,登記記録の閉鎖等,0,2025-08-15,2025-08-04,有限会社市場容器センター,,有限会社,山形県,東田川郡三川町,大字押切新田字茨谷地５０番地,00084953,06,426,9971321,,,2025-08-04,清算の結了等,,,2015-10-05,1,,,,,シジョウヨウキセンター,0
1003,4400502001410,登記記録の閉鎖等,0,2025-08-15,2025-07-25,有限会社ポポちゃんのりんご園,,有限会社,岩手県,一関市,藤沢町黄海字辻山２４４番地１,00085884,03,209,0293311,,,2025-07-25,清算の結了等,,,2015-10-05,1,,,,,ポポチャンノリンゴエン,0
1006,4420003002311,登記記録の閉鎖等,0,2025-08-15,2025-07-25,合同会社ｍｉａｕ　ｍｉａｕ,,合同会社,青森県,弘前市,大字新寺町８４番地３４号,,02,202,0368214,,,2025-07-25,清算の結了等,,,2021-05-20,1,,,,,ミャウミャウ,0
1018,4500001011405,登記記録の閉鎖等,0,2025-08-15,2025-08-07,株式会社カナヤ,,株式会社,愛媛県,今治市,米屋町１丁目２番地２２,,38,202,7940021,,,2025-08-07,清算の結了等,,,2015-10-05,1,,,,,カナヤ,0
1044,5010601051436,登記記録の閉鎖等,0,2025-08-15,2025-08-07,株式会社ＡＭＹ,,株式会社,東京都,江東区,新砂１丁目６番２７号新砂プラザ,,13,108,1360075,,,2025-08-07,清算の結了等,,,2017-04-17,1,,,,,エイエムワイ,0
1071,5011801011502,登記記録の閉鎖等,0,2025-08-15,2025-08-12,株式会社フジ電化センター,,株式会社,東京都,足立区,千住中居町２８番８号,,13,121,1200035,,,2025-08-12,清算の結了等,,,2015-10-05,1,,,,,フジデンカセンター,0
1077,5012401018854,登記記録の閉鎖等,0,2025-08-15,2025-07-30,Ｂｌａｎｃｈｅｕｒ　Ｗａｋａ株式会社,,株式会社,神奈川県,横浜市港北区,下田町１丁目２３番４号,,14,109,2230064,,,2025-07-30,清算の結了等,,,2015-10-05,1,,,,,ブランシュールワカ,0
1083,5013301016270,登記記録の閉鎖等,0,2025-08-15,2025-08-08,三立建設株式会社,,株式会社,東京都,多摩市,和田１７１８番地の２新都市わだ弐番館１０７,,13,224,2060001,,,2025-08-08,清算の結了等,,,2015-10-05,1,,,,,サンリツケンセツ,0
1084,5013301035527,登記記録の閉鎖等,0,2025-08-15,2025-07-31,株式会社ディー・デンタル・システムズ,,株式会社,東京都,豊島区,目白２丁目２番１号,,13,116,1710031,,,2025-07-31,清算の結了等,,,2015-10-05,1,,,,,ディーデンタルシステムズ,0
1086,5013301051160,登記記録の閉鎖等,0,2025-08-15,2025-07-31,株式会社アウンプラス,,株式会社,東京都,豊島区,南大塚３丁目２４－２ギターセンタービル３０３,,13,116,1700005,,,2025-07-31,合併による解散等,4013301017146,令和７年７月３１日東京都豊島区南大塚三丁目２１番６号株式会社アウン（4013301017146）に合併し解散,2023-08-08,1,,,,,アウンプラス,0
1092,5021001046174,登記記録の閉鎖等,0,2025-08-15,2025-08-01,株式会社トータル・コミュニケーション,,株式会社,神奈川県,茅ヶ崎市,松林３丁目３番４１号サーフコート湘南Ａ１０２,,14,207,2530017,,,2025-08-01,清算の結了等,,,2015-10-05,1,,,,,トータルコミュニケーション,0
1107,5030002036282,登記記録の閉鎖等,0,2025-08-15,2025-08-06,あおばガス有限会社,,有限会社,埼玉県,狭山市,入間川４丁目１５番２１号,,11,215,3501305,,,2025-08-06,清算の結了等,,,2015-10-05,1,,,,,アオバガス,0
1109,5030002042891,登記記録の閉鎖等,0,2025-08-15,2025-08-06,有限会社東和工芸社,,有限会社,埼玉県,白岡市,下野田３７７番地１０,,11,246,3490223,,,2025-08-06,清算の結了等,,,2015-10-05,1,,,,,トウワコウゲイシャ,0
1110,5030002096087,登記記録の閉鎖等,0,2025-08-15,2025-08-06,有限会社テクノドナース,,有限会社,埼玉県,東松山市,五領町９番地２９,,11,212,3550031,,,2025-08-06,清算の結了等,,,2015-10-05,1,,,,,テクノドナース,0
1127,5070002000540,登記記録の閉鎖等,0,2025-08-15,2025-08-06,石橋設備工業有限会社,,有限会社,群馬県,前橋市,苗ヶ島町３番地５,,10,201,3710241,,,2025-08-06,清算の結了等,,,2015-10-05,1,,,,,,0
1129,5080001007957,登記記録の閉鎖等,0,2025-08-15,2025-08-07,株式会社小林無線製作所,,株式会社,静岡県,静岡市清水区,天神２丁目１０番２３号,,22,103,4240809,,,2025-08-07,清算の結了等,,,2015-10-05,1,,,,,コバヤシムセンセイサクショ,0
1133,5080102001173,登記記録の閉鎖等,0,2025-08-15,2025-08-08,有限会社建栄木工所,,有限会社,静岡県,沼津市,新沢田町３番７号,,22,203,4100003,,,2025-08-08,清算の結了等,,,2015-10-05,1,,,,,タテエイモッコウショ,0
1145,5110002011112,登記記録の閉鎖等,0,2025-08-15,2025-07-29,有限会社新和電工,,有限会社,新潟県,新潟市西蒲区,松崎２６番地１,,15,108,9590424,,,2025-07-29,清算の結了等,,,2015-10-05,1,,,,,シンワデンコウ,0
1151,5120001162649,登記記録の閉鎖等,0,2025-08-15,2025-07-30,アップル株式会社,,株式会社,大阪府,大阪市住吉区,墨江２丁目４番７号,,27,120,5580043,,,2025-07-30,清算の結了等,,,2015-10-05,1,,,,,アップル,0
1164,5120002014114,登記記録の閉鎖等,0,2025-08-15,2025-08-01,有限会社孝文堂,,有限会社,大阪府,大阪市此花区,春日出北２丁目７番２０号,,27,104,5540021,,,2025-08-01,清算の結了等,,,2015-10-05,1,,,,,コウブンドウ,0
1181,5140005001900,登記記録の閉鎖等,0,2025-08-15,2025-08-06,医療法人社団黒瀬内科,,その他の設立登記法人,兵庫県,神戸市北区,北五葉２丁目４番２８号,,28,109,6511131,,,2025-08-06,清算の結了等,,,2015-10-05,1,,,,,クロセナイカ,0
1183,5150002004475,登記記録の閉鎖等,0,2025-08-15,2025-08-13,有限会社ユー・エム・ティ研究所,,有限会社,奈良県,生駒市,あすか野北１丁目７番１７号,,29,209,6300134,,,2025-08-13,清算の結了等,,,2015-10-05,1,,,,,ユーエムティケンキュウショ,0
1189,5180005012605,登記記録の閉鎖等,0,2025-08-15,2025-07-31,名古屋あられ協同組合,,その他の設立登記法人,愛知県,知多市,岡田字太郎坊１０９番地の３,,23,224,4780021,,,2025-07-31,清算の結了等,,,2015-10-05,1,,,,,ナゴヤアラレ,0
1191,5180303005995,登記記録の閉鎖等,0,2025-08-15,2025-08-01,合同会社Ａｌａｍ,,合同会社,愛知県,岡崎市,日名中町１５番地１２,,23,202,4440918,,,2025-08-01,清算の結了等,,,2024-02-06,1,,,,,アラム,0
1215,5260003001295,登記記録の閉鎖等,0,2025-08-15,2025-07-18,合同会社ウエルハウス,,合同会社,岡山県,倉敷市,日吉町２６９番地６,,33,202,7100815,,,2025-07-18,清算の結了等,,,2015-10-05,1,,,,,ウエルハウス,0
1217,5270002001584,登記記録の閉鎖等,0,2025-08-15,2025-08-14,有限会社中杉,,有限会社,鳥取県,鳥取市,元町１３５番地,,31,201,6800037,,,2025-08-14,清算の結了等,,,2015-10-05,1,,,,,ナカスギ,0
1218,5290001045201,登記記録の閉鎖等,0,2025-08-15,2025-08-13,株式会社ｃｅｃ,,株式会社,三重県,桑名市,長島町押付６９番地３,,24,205,5111113,,,2025-08-13,合併による解散等,3180001069139,令和７年７月１日東京都港区虎ノ門一丁目１１番２号株式会社秀真（3180001069139）に合併し解散,2015-10-05,1,,,,,シーイーシー,0
1222,5290001100831,登記記録の閉鎖等,0,2025-08-15,2025-07-16,株式会社試験屋あびる,,株式会社,福岡県,福岡市南区,筑紫丘１丁目１２番１号,,40,134,8150036,,,2025-07-16,清算の結了等,,,2023-03-09,1,,,,,シケンヤアビル,0
1236,5340002000819,登記記録の閉鎖等,0,2025-08-15,2025-08-08,有限会社青山美容室,,有限会社,鹿児島県,鹿児島市,東千石町９番２号,,46,201,8920842,,,2025-08-08,清算の結了等,,,2015-10-05,1,,,,,アオヤマビヨウシツ,0
1237,5340002001783,登記記録の閉鎖等,0,2025-08-15,2025-08-08,栄和冷熱工業有限会社,,有限会社,鹿児島県,鹿児島市,西伊敷６丁目１５番８号,,46,201,8911202,,,2025-08-08,清算の結了等,,,2015-10-05,1,,,,,エイワレイネツコウギョウ,0
1245,5370001014890,登記記録の閉鎖等,0,2025-08-15,2025-07-25,株式会社文理ラーニング,,株式会社,宮城県,仙台市青葉区,本町２丁目７番２０号,,04,101,9800014,,,2025-07-25,清算の結了等,,,2015-10-05,1,,,,,ブンリラーニング,0
1251,5380003004872,登記記録の閉鎖等,0,2025-08-15,2025-07-11,合同会社Ｒｅｃｏｎｓｔｒｕｃｔｉｏｎ　Ｂｒｉｇａｄｅ,,合同会社,福島県,会津若松市,中町１番９号,,07,202,9650878,,,2025-07-11,清算の結了等,,,2021-03-12,1,,,,,リコンストラクションブリゲード,0
1252,5390001008726,登記記録の閉鎖等,0,2025-08-15,2025-08-04,肘折温泉郷振興株式会社,,株式会社,山形県,最上郡大蔵村,大字南山４５１番地２,,06,365,9960201,,,2025-08-04,清算の結了等,,,2015-10-05,1,,,,,ヒジオリオンセンキョウシンコウ,0
1253,5390001008957,登記記録の閉鎖等,0,2025-08-15,2025-08-04,株式会社リヴィントン,,株式会社,山形県,新庄市,金沢１０７３番地の２,,06,205,9960002,,,2025-08-04,清算の結了等,,,2015-10-05,1,,,,,リヴィントン,0
1269,5500002012442,登記記録の閉鎖等,0,2025-08-15,2025-08-08,有限会社須賀水産,,有限会社,愛媛県,西予市,明浜町田之浜甲１１７２番地,,38,214,7970203,,,2025-08-08,清算の結了等,,,2015-10-05,1,,,,,スガスイサン,0
1277,6010001208379,登記記録の閉鎖等,0,2025-08-15,2025-07-16,株式会社ディーエムジー,,株式会社,東京都,千代田区,三番町６番地４ラ・メール三番町レジデンス１５０４号,,13,101,1020075,,,2025-07-16,清算の結了等,,,2020-03-23,1,,,,,ディーエムジー,0
1290,6010403030521,登記記録の閉鎖等,0,2025-08-15,2025-07-18,合同会社こいぬ,,合同会社,東京都,港区,六本木４丁目３番１１号六本木ユニハウス２２３,,13,103,1060032,,,2025-07-18,清算の結了等,,,2023-07-13,1,,,,,コイヌ,0
1320,6011102016563,登記記録の閉鎖等,0,2025-08-15,2025-07-14,有限会社ディオ,,有限会社,東京都,新宿区,下宮比町１－９,,13,104,1620822,,,2025-07-14,清算の結了等,,,2015-10-05,1,,,,,ディオ,0
1321,6011201015887,登記記録の閉鎖等,0,2025-08-15,2025-08-05,株式会社アプリこっと,,株式会社,東京都,中野区,大和町１丁目６６番３号,,13,114,1650034,,,2025-08-05,清算の結了等,,,2015-10-05,1,,,,,,0
1334,6011801027489,登記記録の閉鎖等,0,2025-08-15,2025-08-08,株式会社サンアース,,株式会社,東京都,足立区,千住橋戸町７２番地３,,13,121,1200038,,,2025-08-08,清算の結了等,,,2015-10-05,1,,,,,サンアース,0
1356,6021002066749,登記記録の閉鎖等,0,2025-08-15,2025-07-31,有限会社報和電業,,有限会社,神奈川県,横須賀市,浦賀１丁目１１番３号,,14,201,2390822,,,2025-07-31,清算の結了等,,,2015-10-05,1,,,,,ホウワデンギョウ,0
1358,6030001023677,登記記録の閉鎖等,0,2025-08-15,2025-08-06,一匠建設株式会社,,株式会社,埼玉県,所沢市,向陽町２０８７番地の７３,,11,208,3591103,,,2025-08-06,清算の結了等,,,2015-10-05,1,,,,,イッショウケンセツ,0
1365,6030002041488,登記記録の閉鎖等,0,2025-08-15,2025-08-06,有限会社山田屋荒物店,,有限会社,埼玉県,加須市,不動岡３丁目２番１６号,,11,210,3470054,,,2025-08-06,清算の結了等,,,2015-10-05,1,,,,,ヤマダヤアラモノテン,0
1383,6050002013717,登記記録の閉鎖等,0,2025-08-15,2025-08-01,有限会社中技研,,有限会社,茨城県,土浦市,木田余３１６０番地１－５０１号,,08,203,3000026,,,2025-08-01,清算の結了等,,,2015-10-05,1,,,,,ナカギケン,0
1387,6060003002957,登記記録の閉鎖等,0,2025-08-15,2025-08-01,合同会社叶,,合同会社,栃木県,宇都宮市,大寛２丁目５番２５号,,09,201,3200867,,,2025-08-01,清算の結了等,,,2018-11-08,1,,,,,カノウ,0
1393,6080001012964,登記記録の閉鎖等,0,2025-08-15,2025-08-06,株式会社お茶の佐寿喜園,00067325,株式会社,静岡県,島田市,阪本９３８番地の１,,22,209,4270111,,,2025-08-06,清算の結了等,,,2015-10-05,1,,,,,オチャノサツキエン,0
1397,6080003002815,登記記録の閉鎖等,0,2025-08-15,2025-08-07,合同会社Ｙｕｕ’ｓ　Ｌａｂ,,合同会社,静岡県,静岡市葵区,安西５丁目７０番地の５,,22,101,4200011,,,2025-08-07,清算の結了等,,,2022-06-09,1,,,,,ユウズラボ,0
1398,6080102008110,登記記録の閉鎖等,0,2025-08-15,2025-08-08,有限会社大澤屋商店,,有限会社,静岡県,伊豆の国市,大仁４８４番地,,22,225,4102323,,,2025-08-08,清算の結了等,,,2015-10-05,1,,,,,オオサワヤショウテン,0
1401,6080401016020,登記記録の閉鎖等,0,2025-08-15,2025-08-01,前島電気工事株式会社,,株式会社,静岡県,磐田市,中泉２４４３番地の３,,22,211,4380078,,,2025-08-01,合併による解散等,9080401004922,令和７年８月１日静岡県浜松市中央区植松町１４６７番地の５株式会社前島電気工業社（9080401004922）に合併し解散,2015-10-05,1,,,,,マエジマデンキコウジ,0
1406,6100002007226,登記記録の閉鎖等,0,2025-08-15,2025-08-08,有限会社ながぬま,,有限会社,長野県,長野市,大字穂保２７４番地１,,20,201,3810003,,,2025-08-08,清算の結了等,,,2015-10-05,1,,,,,ナガヌマ,0
1408,6110001032975,登記記録の閉鎖等,0,2025-08-15,2025-07-29,株式会社亀井プロジェクト,,株式会社,新潟県,新潟市西区,山田２３１０番地３１,,15,107,9501101,,,2025-07-29,清算の結了等,,,2018-01-26,1,,,,,カメイプロジェクト,0
1410,6110002025581,登記記録の閉鎖等,0,2025-08-15,2025-07-29,有限会社信越清掃社,,有限会社,新潟県,中魚沼郡津南町,大字上郷寺石戊８２２番地,,15,482,9498126,,,2025-07-29,清算の結了等,,,2015-10-05,1,,,,,シンエツセイソウシャ,0
1411,6110002033873,登記記録の閉鎖等,0,2025-08-15,2025-07-29,有限会社駒の湯山荘,,有限会社,新潟県,魚沼市,大湯温泉７１９番地１,,15,225,9460088,,,2025-07-29,清算の結了等,,,2015-10-05,1,,,,,コマノユサンソウ,0
1414,6120001124656,登記記録の閉鎖等,0,2025-08-15,2025-08-01,株式会社フェニックス,,株式会社,大阪府,吹田市,千里山西４丁目９番２２号,,27,205,5650851,,,2025-08-01,合併による解散等,2120901017021,令和７年８月１日大阪府吹田市千里山西四丁目９番２２号株式会社メディサーブ（2120901017021）に合併し解散,2015-10-05,1,,,,,,0
1415,6120001136742,登記記録の閉鎖等,0,2025-08-15,2025-07-28,株式会社エスト,,株式会社,大阪府,大阪市淀川区,西中島３丁目２３番９号,,27,123,5320011,,,2025-07-28,清算の結了等,,,2015-10-05,1,,,,,エスト,0
1443,6130001030341,登記記録の閉鎖等,0,2025-08-15,2025-07-31,日晃薬品株式会社,,株式会社,京都府,長岡京市,天神３丁目１８番９号,,26,209,6170824,,,2025-07-31,清算の結了等,,,2015-10-05,1,,,,,ニッコウヤクヒン,0
1468,6180002023843,登記記録の閉鎖等,0,2025-08-15,2025-07-23,有限会社田口商店,,有限会社,愛知県,名古屋市西区,名西２丁目１８番２０号,,23,104,4510064,,,2025-07-23,清算の結了等,,,2015-10-05,1,,,,,タグチショウテン,0
1471,6180002085900,登記記録の閉鎖等,0,2025-08-15,2025-07-22,有限会社美浜商会,,有限会社,愛知県,知多郡美浜町,大字北方字立戸２７番地１,,23,446,4702403,,,2025-07-22,清算の結了等,,,2015-10-05,1,,,,,ミハマショウカイ,0
1472,6180005016282,登記記録の閉鎖等,0,2025-08-15,2025-07-28,特定非営利活動法人友遊舎,,その他の設立登記法人,愛知県,知多郡武豊町,字口田１７番地１,,23,447,4702323,,,2025-07-28,清算の結了等,,,2015-10-05,1,,,,,ユウユウシャ,0
1480,6180305007956,登記記録の閉鎖等,0,2025-08-15,2025-07-28,一般社団法人スポーツアカデミー,,その他の設立登記法人,愛知県,名古屋市中村区,名駅４丁目２４番５号第２森ビル４０１,,23,105,4500002,,,2025-07-28,清算の結了等,,,2015-10-05,1,,,,,スポーツアカデミー,0
1486,6190002019824,登記記録の閉鎖等,0,2025-08-15,2025-08-07,有限会社カワムラ建設,,有限会社,三重県,三重郡川越町,大字高松１８１番地,,24,344,5108121,,,2025-08-07,清算の結了等,,,2015-10-05,1,,,,,カワムラケンセツ,0
1488,6200001030152,登記記録の閉鎖等,0,2025-08-15,2025-08-01,株式会社Ｊ・ＡＲＴホールディングス,,株式会社,岐阜県,各務原市,蘇原東島町４丁目６１番地,,21,213,5040816,,,2025-08-01,合併による解散等,3200001012608,令和７年８月１日岐阜県各務原市蘇原東島町四丁目６１番地株式会社Ｊ・ＡＲＴ（3200001012608）に合併し解散,2015-10-05,1,,,,,ジェイアートホールディングス,0
1493,6250002003631,登記記録の閉鎖等,0,2025-08-15,2025-08-08,有限会社渡辺興産,,有限会社,山口県,防府市,自由ケ丘２丁目９番８号,,35,206,7470066,,,2025-08-08,清算の結了等,,,2015-10-05,1,,,,,ワタナベコウサン,0
1510,6340002010354,登記記録の閉鎖等,0,2025-08-15,2025-08-08,有限会社ラジャコーポレーション,,有限会社,鹿児島県,鹿児島市,加治屋町９番２０号,,46,201,8920846,,,2025-08-08,清算の結了等,,,2015-10-05,1,,,,,ラジャコーポレーション,0
1512,6340002015832,登記記録の閉鎖等,0,2025-08-15,2025-08-01,有限会社さえき,,有限会社,鹿児島県,姶良市,平松４７３６番地,,46,225,8995652,,,2025-08-01,清算の結了等,,,2015-10-05,1,,,,,サエキ,0
1516,6360002003521,登記記録の閉鎖等,0,2025-08-15,2025-07-29,有限会社八十八,,有限会社,沖縄県,那覇市,辻２丁目８番２１号,00101499,47,201,9000037,,,2025-07-29,清算の結了等,,,2015-10-05,1,,,,,ハチジュウハチ,0
1518,6370001019856,登記記録の閉鎖等,0,2025-08-15,2025-07-28,株式会社ＮＯＩ　ＭＥＤＩＡ,,株式会社,宮城県,仙台市宮城野区,原町５丁目５番３５号,,04,102,9830841,,,2025-07-28,清算の結了等,,,2015-10-05,1,,,,,ノイメディア,0
1520,6370202005218,登記記録の閉鎖等,0,2025-08-15,2025-07-25,有限会社後藤商会,,有限会社,宮城県,栗原市,若柳字川北荒町１３番地２,,04,213,9895501,,,2025-07-25,清算の結了等,,,2015-10-05,1,,,,,ゴトウショウカイ,0
1522,6380002018088,登記記録の閉鎖等,0,2025-08-15,2025-07-25,有限会社高村建創,00083726,有限会社,福島県,白河市,旭町３丁目２５番地１,,07,205,9610912,,,2025-07-25,清算の結了等,,,2015-10-05,1,,,,,タカムラケンソウ,0
1524,6380005001586,登記記録の閉鎖等,0,2025-08-15,2025-07-25,中屋敷観音堂,,その他の設立登記法人,福島県,伊達郡桑折町,大字万正寺字古釈迦堂２４番地,00084353,07,301,9691651,,,2025-07-25,清算の結了等,,,2015-10-05,1,,,,,,0
1528,6430002000395,登記記録の閉鎖等,0,2025-08-15,2025-07-25,有限会社あい薬局,,有限会社,北海道,札幌市北区,あいの里一条４丁目１３番７号,,01,102,0028071,,,2025-07-25,清算の結了等,,,2015-10-05,1,,,,,アイヤッキョク,0
1532,6500001025502,登記記録の閉鎖等,0,2025-08-15,2025-08-12,Ｆ‐ＬＯＧＩ株式会社,,株式会社,愛媛県,松山市,北梅本町６６,,38,201,7910242,,,2025-08-12,清算の結了等,,,2024-03-06,1,,,,,エフロジ,0
1534,6500002000669,登記記録の閉鎖等,0,2025-08-15,2025-08-13,有限会社旭青果,,有限会社,愛媛県,松山市,青葉台１４番地１４,,38,201,7918019,,,2025-08-13,清算の結了等,,,2015-10-05,1,,,,,アサヒセイカ,0
1573,7010901046489,登記記録の閉鎖等,0,2025-08-15,2025-08-12,パーセントリース株式会社,,株式会社,東京都,世田谷区,北沢２丁目２４番６号Ｂ１Ｆ,,13,112,1550031,,,2025-08-12,清算の結了等,,,2020-06-29,1,,,,,パーセントリース,0
1579,7011003017998,登記記録の閉鎖等,0,2025-08-15,2025-07-10,合同会社オクタゴン,,合同会社,東京都,渋谷区,恵比寿西２丁目８番４号ＥＸ恵比寿西ビル５階,,13,113,1500021,,,2025-07-10,清算の結了等,,,2023-11-29,1,,,,,オクタゴン,0
1619,7030002122444,登記記録の閉鎖等,0,2025-08-15,2025-08-06,有限会社荒川水産,,有限会社,埼玉県,秩父市,荒川贄川３４３番地３,,11,207,3691911,,,2025-08-06,清算の結了等,,,2015-10-05,1,,,,,アラカワスイサン,0
1621,7040001017834,登記記録の閉鎖等,0,2025-08-15,2025-07-15,株式会社精古堂印舖,,株式会社,千葉県,船橋市,本町３丁目９番６号,,12,204,2730005,,,2025-07-15,清算の結了等,,,2015-10-05,1,,,,,セイコドウインポ,0
1622,7040001022628,登記記録の閉鎖等,0,2025-08-15,2025-07-14,株式会社ＴＯＣ,,株式会社,千葉県,船橋市,前原西４丁目２３番３号,,12,204,2740825,,,2025-07-14,清算の結了等,,,2015-10-05,1,,,,,ティーオーシー,0
1640,7100002008636,登記記録の閉鎖等,0,2025-08-15,2025-08-12,有限会社中友製作所,,有限会社,長野県,須坂市,大字須坂字金井原１４７１番地の５,,20,207,3820911,,,2025-08-12,清算の結了等,,,2015-10-05,1,,,,,ナカトモセイサクショ,0
1641,7100002021762,登記記録の閉鎖等,0,2025-08-15,2025-08-08,有限会社ミノン商事,,有限会社,長野県,松本市,寿北７丁目１番１７号,,20,202,3990011,,,2025-08-08,清算の結了等,,,2015-10-05,1,,,,,ミノンショウジ,0
1665,7130003006529,登記記録の閉鎖等,0,2025-08-15,2025-08-01,合同会社ペグス,,合同会社,京都府,木津川市,城山台６丁目３３番地２０,,26,214,6190218,,,2025-08-01,清算の結了等,,,2020-05-01,1,,,,,ペグス,0
1690,7180001166147,登記記録の閉鎖等,0,2025-08-15,2025-07-18,株式会社カステルム,,株式会社,愛知県,名古屋市中区,新栄３丁目１４番６号,,23,106,4600007,,,2025-07-18,清算の結了等,,,2025-04-04,1,,,,,カステルム,0
1693,7180003020946,登記記録の閉鎖等,0,2025-08-15,2025-07-22,合同会社こころや,,合同会社,愛知県,名古屋市西区,笠取町２丁目２３番地の２,,23,104,4510072,,,2025-07-22,清算の結了等,,,2020-03-12,1,,,,,ココロヤ,0
1695,7190002023651,登記記録の閉鎖等,0,2025-08-15,2025-08-05,有限会社イナホ電機,,有限会社,三重県,三重郡菰野町,大字潤田２９７７番地１,,24,341,5101253,,,2025-08-05,清算の結了等,,,2015-10-05,1,,,,,イナホデンキ,0
1700,7210001015449,登記記録の閉鎖等,0,2025-08-15,2025-08-13,株式会社フェール,,株式会社,福井県,越前市,堀川町１１番４４号,,18,209,9150061,,,2025-08-13,清算の結了等,,,2015-10-05,1,,,,,フェール,0
1701,7210001015779,登記記録の閉鎖等,0,2025-08-15,2025-08-14,株式会社ＴＡＣ,,株式会社,福井県,福井市,在田町第１０号１番地,,18,201,9103614,,,2025-08-14,清算の結了等,,,2015-10-05,1,,,,,,0
1707,7240001036913,登記記録の閉鎖等,0,2025-08-15,2025-08-07,株式会社ＮＡＫＡＧＯ,,株式会社,広島県,広島市中区,上八丁堀４番１－３６０１号（アーバンビューグランドタワー）,,34,101,7300012,,,2025-08-07,清算の結了等,,,2015-10-05,1,,,,,ナカゴウ,0
1709,7240002008457,登記記録の閉鎖等,0,2025-08-15,2025-08-07,有限会社スター・リフォーム,,有限会社,広島県,広島市中区,袋町８番１０号,,34,101,7300036,,,2025-08-07,清算の結了等,,,2015-10-05,1,,,,,スターリフォーム,0
1713,7290001032825,登記記録の閉鎖等,0,2025-08-15,2025-08-01,株式会社井上写真スタジオ,,株式会社,神奈川県,鎌倉市,大町７丁目１５６４番地２,,14,204,2480007,,,2025-08-01,清算の結了等,,,2015-10-05,1,,,,,イノウエシャシンスタジオ,0
1720,7310002002493,登記記録の閉鎖等,0,2025-08-15,2025-08-07,有限会社順天堂,,有限会社,長崎県,長崎市,鳴見台１丁目１４番２号,,42,201,8512215,,,2025-08-07,清算の結了等,,,2015-10-05,1,,,,,ジュンテンドウ,0
1721,7310002007492,登記記録の閉鎖等,0,2025-08-15,2025-08-08,有限会社ライトケア,,有限会社,長崎県,長崎市,毛井首町７６番地２,,42,201,8500976,,,2025-08-08,清算の結了等,,,2015-10-05,1,,,,,ライトケア,0
1724,7330001018349,登記記録の閉鎖等,0,2025-08-15,2025-07-31,株式会社環境ホールディングス,,株式会社,熊本県,熊本市西区,花園７丁目２８番３８号,,43,103,8600072,,,2025-07-31,清算の結了等,,,2015-10-05,1,,,,,カンキョウホールディングス,0
1726,7330002013679,登記記録の閉鎖等,0,2025-08-15,2025-07-31,有限会社ボヤージ,,有限会社,熊本県,熊本市南区,御幸笛田１丁目１２番７号,,43,104,8614172,,,2025-07-31,清算の結了等,,,2015-10-05,1,,,,,ボヤージ,0
1727,7330002017052,登記記録の閉鎖等,0,2025-08-15,2025-08-01,光洋建機有限会社,,有限会社,熊本県,合志市,幾久富１８６６番地１００５,,43,216,8611112,,,2025-08-01,清算の結了等,,,2015-10-05,1,,,,,コウヨウケンキ,0
1731,7360002011325,登記記録の閉鎖等,0,2025-08-15,2025-07-30,有限会社石原工業,,有限会社,沖縄県,沖縄市,比屋根７丁目２４番１号,,47,211,9042173,,,2025-07-30,清算の結了等,,,2015-10-05,1,,,,,イシハラコウギョウ,0
1735,7370001039242,登記記録の閉鎖等,0,2025-08-15,2025-07-28,株式会社慈善導・トワ,,株式会社,宮城県,黒川郡大和町,鶴巣大平字新田７３番地の１,,04,421,9813411,,,2025-07-28,清算の結了等,,,2016-03-01,1,,,,,ジゼンドウトワ,0
1738,7370202000036,登記記録の閉鎖等,0,2025-08-15,2025-07-25,有限会社あやめ商事,,有限会社,宮城県,大崎市,古川十日町４番２１号２Ｆ,,04,215,9896165,,,2025-07-25,清算の結了等,,,2015-10-05,1,,,,,アヤメショウジ,0
1741,7380005000117,登記記録の閉鎖等,0,2025-08-15,2025-07-28,一般社団法人福島県調理師会,,その他の設立登記法人,福島県,福島市,中町５番１８号福島県林業会館２階,,07,201,9608043,,,2025-07-28,清算の結了等,,,2015-10-05,1,,,,,フクシマケンチョウリシカイ,0
1749,7500002017423,登記記録の閉鎖等,0,2025-08-15,2025-08-12,有限会社ワイエムテック,,有限会社,愛媛県,新居浜市,新田町２丁目１３番１６号,,38,205,7920003,,,2025-08-12,清算の結了等,,,2015-10-05,1,,,,,ワイエムテック,0
1752,8010001207420,登記記録の閉鎖等,0,2025-08-15,2025-08-13,株式会社Ｔ－Ｇａｒｄｅｎ,,株式会社,東京都,渋谷区,渋谷３丁目２７番１１号祐真ビル新館５Ｆ,,13,113,1500002,,,2025-08-13,合併による解散等,6010401183222,令和７年７月１日東京都港区赤坂二丁目１２番８号株式会社Ｔ‐Ｇａｒｄｅｎ（6010401183222）に合併し解散,2020-02-12,1,,,,,ティーガーデン,0
1787,8010901027686,登記記録の閉鎖等,0,2025-08-15,2025-07-15,ＩＮＳＰＩＲＩＳＹＳ　ＳＯＬＵＴＩＯＮＳ　ＪＡＰＡＮ株式会社,,株式会社,東京都,中央区,日本橋箱崎町２４番１号,,13,102,1030015,,,2025-07-15,清算の結了等,,,2015-10-05,1,,,,,,0
1798,8011201009540,登記記録の閉鎖等,0,2025-08-15,2025-08-05,株式会社メロス・アーツ・マネジメント,,株式会社,東京都,中野区,中野６丁目３番５－１２０６号,,13,114,1640001,,,2025-08-05,清算の結了等,,,2015-10-05,1,,,,,メロスアーツマネジメント,0
1799,8011201022411,登記記録の閉鎖等,0,2025-08-15,2025-08-13,株式会社クリック,,株式会社,東京都,中野区,大和町２丁目１２－１１舟戸荘２０２,,13,114,1650034,,,2025-08-13,清算の結了等,,,2020-09-18,1,,,,,クリック,0
1808,8011801035597,登記記録の閉鎖等,0,2025-08-15,2025-08-08,伝統本草漢方産業株式会社,,株式会社,東京都,葛飾区,お花茶屋１丁目１９番１８－３０２号,,13,122,1240003,,,2025-08-08,清算の結了等,,,2019-01-10,1,,,,,デントウホンソウカンポウサンギョウ,0
1812,8011802027197,登記記録の閉鎖等,0,2025-08-15,2025-08-12,有限会社ウエーズネットワークエクスプレス,,有限会社,東京都,足立区,日ノ出町３３番１４－４０６号,,13,121,1200021,,,2025-08-12,清算の結了等,,,2015-10-05,1,,,,,ウエーズネットワークエクスプレス,0
1813,8012401041176,登記記録の閉鎖等,0,2025-08-15,2025-08-04,株式会社ツイレン,,株式会社,東京都,三鷹市,牟礼７丁目３番２４－１０３号,,13,204,1810002,,,2025-08-04,清算の結了等,,,2023-11-06,1,,,,,ツイレン,0
1816,8012403004271,登記記録の閉鎖等,0,2025-08-15,2025-08-05,合同会社つばさ,,合同会社,東京都,多摩市,永山５丁目２５番地の１１,,13,224,2060025,,,2025-08-05,清算の結了等,,,2020-03-16,1,,,,,ツバサ,0
1820,8013301038221,登記記録の閉鎖等,0,2025-08-15,2025-07-18,株式会社セメル,,株式会社,東京都,港区,白金１丁目１４番５号,,13,103,1080072,,,2025-07-18,清算の結了等,,,2016-01-20,1,,,,,セメル,0
1823,8013305002751,登記記録の閉鎖等,0,2025-08-15,2025-07-30,一般社団法人Ｊａｐａｎｅｓｅ＆Ｍａｎｄａｒｉｎ　Ｕｎｉｏｎ,,その他の設立登記法人,東京都,豊島区,池袋４丁目２９番６号アクシア池袋１１０３号室,,13,116,1710014,,,2025-07-30,清算の結了等,,,2018-02-13,1,,,,,ジャパニーズアンドマンダリンユニオン,0
1832,8021001062631,登記記録の閉鎖等,0,2025-08-15,2025-08-14,株式会社Ｃｒｅａ　Ｂｏｘ,,株式会社,神奈川県,藤沢市,善行７丁目１１－１０－２０３,,14,205,2510871,,,2025-08-14,清算の結了等,,,2017-07-24,1,,,,,クレアボックス,0
1861,8060003005058,登記記録の閉鎖等,0,2025-08-15,2025-07-29,Ｐｉｘｅｌ　Ｅｘｐｌｏｒｅｒ合同会社,,合同会社,栃木県,佐野市,高萩町１３０４－１１,,09,204,3270821,,,2025-07-29,清算の結了等,,,2024-05-14,1,,,,,ピクセルエクスプローラー,0
1867,8070005008132,登記記録の閉鎖等,0,2025-08-15,2025-08-05,特定非営利活動法人ソフトボール・ドリーム,,その他の設立登記法人,群馬県,高崎市,双葉町１番１号ラシーナ高崎８０１号,,10,202,3700843,,,2025-08-05,清算の結了等,,,2015-10-05,1,,,,,ソフトボールドリーム,0
1894,8120002025744,登記記録の閉鎖等,0,2025-08-15,2025-08-01,有限会社丸山工作所,,有限会社,大阪府,大阪市東淀川区,淡路１丁目２０番１３号,,27,114,5330032,,,2025-08-01,清算の結了等,,,2015-10-05,1,,,,,マルヤマコウサクショ,0
1927,8180003027305,登記記録の閉鎖等,0,2025-08-15,2025-07-18,合同会社ＥＤＶＳ,,合同会社,愛知県,一宮市,多加木１丁目６番３号,,23,203,4910837,,,2025-07-18,清算の結了等,,,2024-09-06,1,,,,,イーディーブイエス,0
1929,8180301020738,登記記録の閉鎖等,0,2025-08-15,2025-08-01,クロケン三好倉庫株式会社,,株式会社,愛知県,みよし市,明知町八幡前２２番地,,23,236,4700214,,,2025-08-01,合併による解散等,3180301022474,令和７年８月１日愛知県西尾市西浅井町宮下３８番地黒柳建設株式会社（3180301022474）に合併し解散,2015-10-05,1,,,,,クロケンミヨシソウコ,0
1931,8190001018387,登記記録の閉鎖等,0,2025-08-15,2025-08-07,株式会社シルバーフードサービス,,株式会社,三重県,四日市市,浮橋１丁目４番地３,,24,202,5120931,,,2025-08-07,清算の結了等,,,2015-10-05,1,,,,,シルバーフードサービス,0
1936,8200005004043,登記記録の閉鎖等,0,2025-08-15,2025-08-05,一般社団法人かみいしづ緑の村公社,,その他の設立登記法人,岐阜県,大垣市,上石津町上多良前ケ瀬入会１番地１大垣市かみいしづ緑の村公園自然環境活用センター,,21,202,5030000,,,2025-08-05,清算の結了等,,,2015-10-05,1,,,,,カミイシヅミドリノムラコウシャ,0
1958,8290002011232,登記記録の閉鎖等,0,2025-08-15,2025-07-18,有限会社ショウゾウ,,有限会社,福岡県,福岡市中央区,薬院４丁目１８番２４－２０３号,,40,133,8100022,,,2025-07-18,清算の結了等,,,2015-10-05,1,,,,,ショウゾウ,0
1959,8290005001791,登記記録の閉鎖等,0,2025-08-15,2025-07-24,医療法人日の出会,,その他の設立登記法人,福岡県,福岡市西区,野方１丁目１６番３２号,,40,135,8190043,,,2025-07-24,清算の結了等,,,2015-10-05,1,,,,,ヒノデカイ,0
1960,8290802003932,登記記録の閉鎖等,0,2025-08-15,2025-08-08,有限会社第一宣広,,有限会社,福岡県,北九州市小倉南区,大字横代１８０６番地の７,,40,107,8020824,,,2025-08-08,清算の結了等,,,2015-10-05,1,,,,,,0
1965,8330001008019,登記記録の閉鎖等,0,2025-08-15,2025-07-31,株式会社Ｊａｍ　Ｓｐｉｒｉｔｓ,,株式会社,熊本県,熊本市中央区,出水８丁目２９番１２号２Ｆ,,43,101,8620941,,,2025-07-31,清算の結了等,,,2015-10-05,1,,,,,ジャムスピリッツ,0
1977,8340001007960,登記記録の閉鎖等,0,2025-08-15,2025-08-01,菅原産業株式会社,,株式会社,鹿児島県,姶良市,池島町１９番地１,,46,225,8995653,,,2025-08-01,清算の結了等,,,2015-10-05,1,,,,,スガワラサンギョウ,0
1986,8402701000461,登記記録の閉鎖等,0,2025-08-15,2025-07-25,株式会社コウ,,株式会社,岩手県,大船渡市,盛町字みどり町１２番地５,,03,203,0220003,,,2025-07-25,清算の結了等,,,2015-10-05,1,,,,,コウ,0
1991,8430002002836,登記記録の閉鎖等,0,2025-08-15,2025-07-25,有限会社エイワ,,有限会社,北海道,札幌市北区,篠路二条１０丁目９番２３号,,01,102,0028022,,,2025-07-25,清算の結了等,,,2015-10-05,1,,,,,エイワ,0
1995,8440005001289,登記記録の閉鎖等,0,2025-08-15,2025-08-08,医療法人社団たかはし皮膚科クリニック,,その他の設立登記法人,北海道,亀田郡七飯町,大川８丁目１２番２１号,,01,337,0411122,,,2025-08-08,清算の結了等,,,2015-10-05,1,,,,,タカハシヒフカクリニック,0
1999,8470001004053,登記記録の閉鎖等,0,2025-08-15,2025-08-12,元好マネージメントサービス株式会社,,株式会社,香川県,高松市,宮脇町２丁目１８番２３号,,37,201,7600005,,,2025-08-12,清算の結了等,,,2015-10-05,1,,,,,モトヨシマネージメントサービス,0
2010,9010001247201,登記記録の閉鎖等,0,2025-08-15,2025-08-07,株式会社イバン,,株式会社,東京都,江東区,森下３丁目１９番１９号－２０３,,13,108,1350004,,,2025-08-07,清算の結了等,,,2024-08-07,1,,,,,イバン,0
2015,9010002026967,登記記録の閉鎖等,0,2025-08-15,2025-07-15,有限会社日本橋企画,,有限会社,東京都,中央区,日本橋浜町２丁目１番３号,,13,102,1030007,,,2025-07-15,清算の結了等,,,2015-10-05,1,,,,,ニホンバシキカク,0
2019,9010401001133,登記記録の閉鎖等,0,2025-08-15,2025-08-12,株式会社アクティビティ・インターナショナル,,株式会社,栃木県,日光市,萩垣面２３９６番地１,,09,206,3211414,,,2025-08-12,合併による解散等,1120001193672,令和７年８月１日大阪市旭区中宮三丁目１５番１７号内外ホールディングス株式会社（1120001193672）に合併し解散,2015-10-05,1,,,,,アクティビティインターナショナル,0
2020,9010401154798,登記記録の閉鎖等,0,2025-08-15,2025-07-18,Ｓｉｇｎａｌ＆Ｃｏｍｐａｎｙ株式会社,,株式会社,東京都,港区,浜松町２丁目２番１５号浜松町ダイヤビル２Ｆ,,13,103,1050013,,,2025-07-18,清算の結了等,,,2020-08-26,1,,,,,シグナルアンドカンパニー,0
2036,9010605002803,登記記録の閉鎖等,0,2025-08-15,2025-07-23,一般社団法人東京都女性薬剤師会,,その他の設立登記法人,東京都,千代田区,外神田２丁目２番１７号,,13,101,1010021,,,2025-07-23,清算の結了等,,,2015-10-05,1,,,,,トウキョウトジョセイヤクザイシカイ,0
2043,9011001070502,登記記録の閉鎖等,0,2025-08-15,2025-07-14,デコスタイル・デリ株式会社,,株式会社,東京都,渋谷区,恵比寿３丁目７番１７号,,13,113,1500013,,,2025-07-14,清算の結了等,,,2015-10-05,1,,,,,,0
2044,9011001123813,登記記録の閉鎖等,0,2025-08-15,2025-07-14,株式会社Ｕ．Ｓ．　Ｃｏｎｎｅｃｔ,,株式会社,東京都,渋谷区,恵比寿４丁目２０番３号恵比寿ガーデンプレイスタワー１８階,,13,113,1500013,,,2025-07-14,清算の結了等,,,2018-08-20,1,,,,,アスコネクト,0
2045,9011001152003,登記記録の閉鎖等,0,2025-08-15,2025-07-14,株式会社ノルディス,,株式会社,東京都,目黒区,鷹番２丁目１６番１４号ラディアスＲビル３Ｂ,,13,110,1520004,,,2025-07-14,清算の結了等,,,2023-01-19,1,,,,,ノルディス,0
2048,9011101044141,登記記録の閉鎖等,0,2025-08-15,2025-07-14,株式会社ピーシーウイング,,株式会社,東京都,新宿区,四谷４丁目２２,,13,104,1600004,,,2025-07-14,清算の結了等,,,2015-10-05,1,,,,,ピーシーウイング,0
2064,9011703001647,登記記録の閉鎖等,0,2025-08-15,2025-07-31,蕪木発電合同会社,,合同会社,東京都,江戸川区,東小岩１丁目１番４号,,13,123,1330052,,,2025-07-31,合併による解散等,3010001148644,令和７年７月３１日東京都江戸川区東小岩一丁目１番４号株式会社ＥＤＦ（3010001148644）に合併し解散,2017-01-10,1,,,,,カブキハツデン,0
2071,9012701017214,登記記録の閉鎖等,0,2025-08-15,2025-08-06,株式会社ＳＧＴ,,株式会社,東京都,西東京市,西原町５丁目１番１７号,,13,229,1880004,,,2025-08-06,清算の結了等,,,2022-08-23,1,,,,,エスジーティー,0
2072,9012703000820,登記記録の閉鎖等,0,2025-08-15,2025-08-04,合同会社介護プランレインボー,,合同会社,東京都,武蔵野市,境南町２丁目５番１０号４０２,,13,203,1800023,,,2025-08-04,清算の結了等,,,2015-10-05,1,,,,,カイゴプランレインボー,0
2078,9013201002466,登記記録の閉鎖等,0,2025-08-15,2025-07-10,ジェイ・エフ・コンサルティング株式会社,,株式会社,東京都,目黒区,鷹番３丁目１３番５－４０４号,,13,110,1520004,,,2025-07-10,清算の結了等,,,2015-10-05,1,,,,,ジェイエフコンサルティング,0
2097,9021002067661,登記記録の閉鎖等,0,2025-08-15,2025-07-31,有限会社横須賀リフォーム,,有限会社,神奈川県,横須賀市,長井１丁目１９番１３号,,14,201,2380316,,,2025-07-31,清算の結了等,,,2015-10-05,1,,,,,ヨコスカリフォーム,0
2100,9030001059727,登記記録の閉鎖等,0,2025-08-15,2025-08-06,株式会社フェイス,,株式会社,埼玉県,上尾市,愛宕２丁目１番５号,,11,219,3620034,,,2025-08-06,清算の結了等,,,2015-10-05,1,,,,,フェイス,0
2117,9060001016262,登記記録の閉鎖等,0,2025-08-15,2025-08-04,株式会社大川冷暖,,株式会社,栃木県,栃木市,平柳町１丁目３３番２９号,,09,203,3280012,,,2025-08-04,清算の結了等,,,2015-10-05,1,,,,,オオカワレイダン,0
2119,9060003004744,登記記録の閉鎖等,0,2025-08-15,2025-08-01,合同会社大地,,合同会社,栃木県,栃木市,嘉右衛門町１２番１５号,,09,203,3280072,,,2025-08-01,清算の結了等,,,2023-10-05,1,,,,,ダイチ,0
2124,9080001019354,登記記録の閉鎖等,0,2025-08-15,2025-08-07,株式会社ＴＯＫＡＩヒューマンリソースエボル,,株式会社,静岡県,静岡市葵区,常磐町２丁目６番地の８,,22,101,4200034,,,2025-08-07,清算の結了等,,,2015-10-05,1,,,,,トーカイヒューマンリソースエボル,0
2128,9080101017596,登記記録の閉鎖等,0,2025-08-15,2025-08-08,株式会社船原温泉組合,,株式会社,静岡県,伊豆市,上船原１４２４番地,,22,222,4103216,,,2025-08-08,清算の結了等,,,2015-10-05,1,,,,,フナバラオンセンクミアイ,0
2131,9100001015053,登記記録の閉鎖等,0,2025-08-15,2025-08-12,株式会社安曇野自然倶楽部,,株式会社,長野県,安曇野市,穂高有明８５５０番地１,,20,220,3998301,,,2025-08-12,清算の結了等,,,2015-10-05,1,,,,,アヅミノシゼンクラブ,0
2134,9100005006949,登記記録の閉鎖等,0,2025-08-15,2025-08-08,特定非営利活動法人ちゃ・茶,,その他の設立登記法人,長野県,安曇野市,三郷明盛２３５２番地５,,20,220,3998101,,,2025-08-08,清算の結了等,,,2015-10-05,1,,,,,チャチャ,0
2136,9110003003088,登記記録の閉鎖等,0,2025-08-15,2025-07-28,合同会社ＡＲＴ　ＺＯＮＥ,,合同会社,新潟県,新潟市中央区,東幸町四丁目１０番ダイヤパレス西２０３号,,15,103,9500906,,,2025-07-28,清算の結了等,,,2015-10-05,1,,,,,アートゾーン,0
2138,9120001020563,登記記録の閉鎖等,0,2025-08-15,2025-07-28,昭和ハウジング販売株式会社,,株式会社,大阪府,大阪市平野区,流町１丁目７番７号,,27,126,5470032,,,2025-07-28,清算の結了等,,,2015-10-05,1,,,,,,0
2139,9120001098261,登記記録の閉鎖等,0,2025-08-15,2025-07-31,阪急阪神エステート・サービス株式会社,,株式会社,大阪府,大阪市福島区,海老江１丁目１番３１号,,27,103,5530001,,,2025-07-31,合併による解散等,8120001098931,令和７年７月１日大阪市北区芝田一丁目１番４号阪急阪神ビルマネジメント株式会社（8120001098931）に合併し解散,2015-10-05,1,,,,,ハンキュウハンシンエステートサービス,0
2143,9120001196684,登記記録の閉鎖等,0,2025-08-15,2025-08-01,株式会社グランツ,,株式会社,大阪府,大阪市北区,曾根崎２丁目３番５号,,27,127,5300057,,,2025-08-01,清算の結了等,,,2016-03-04,1,,,,,グランツ,0
2157,9120101021172,登記記録の閉鎖等,0,2025-08-15,2025-08-12,ユニ・イマニシ株式会社,,株式会社,大阪府,堺市東区,丈六１７１番地の３７,,27,143,5998122,,,2025-08-12,合併による解散等,2120001072677,令和７年８月１日大阪市浪速区桜川二丁目５番３号大阪ユニ株式会社（2120001072677）に合併し解散,2015-10-05,1,,,,,ユニイマニシ,0
2165,9130003006312,登記記録の閉鎖等,0,2025-08-15,2025-07-28,京都与謝野酒造合同会社,,合同会社,京都府,与謝郡与謝野町,字与謝８５５番地,,26,465,6292423,,,2025-07-28,清算の結了等,,,2019-12-06,1,,,,,キョウトヨサノシュゾウ,0
2168,9140001122639,登記記録の閉鎖等,0,2025-08-15,2025-07-28,ｉｃａｒｓ株式会社,,株式会社,大阪府,大阪市中央区,瓦町１丁目５－８日宝ダイヤビル３０２,,27,128,5410048,,,2025-07-28,清算の結了等,,,2021-08-06,1,,,,,アイカーズ,0
2182,9160003001731,登記記録の閉鎖等,0,2025-08-15,2025-08-07,合同会社三幸,,合同会社,滋賀県,大津市,湖城が丘１番１６号,,25,201,5200821,,,2025-08-07,清算の結了等,,,2018-10-03,1,,,,,サンコウ,0
2184,9180001072104,登記記録の閉鎖等,0,2025-08-15,2025-07-22,株式会社アラレス,,株式会社,愛知県,名古屋市南区,中江２丁目１番６号,,23,112,4570004,,,2025-07-22,清算の結了等,,,2015-10-05,1,,,,,アラレス,0
2198,9200003003707,登記記録の閉鎖等,0,2025-08-15,2025-07-22,Ｔｓアテンド合同会社,,合同会社,愛知県,名古屋市港区,辰巳町３９番１６号,,23,111,4550003,,,2025-07-22,清算の結了等,,,2016-02-15,1,,,,,ティーズアテンド,0
2199,9200005004083,登記記録の閉鎖等,0,2025-08-15,2025-08-06,岐阜県引越専門協同組合,,その他の設立登記法人,岐阜県,大垣市,南若森６丁目５番地の１,,21,202,5030977,,,2025-08-06,清算の結了等,,,2015-10-05,1,,,,,ギフケンヒッコシセンモン,0
2203,9240001011526,登記記録の閉鎖等,0,2025-08-15,2025-08-08,株式会社Ｍ’ｚＷＯＲＫＳミヤケ,,株式会社,広島県,広島市西区,己斐本町２丁目５番１５号,,34,104,7330812,,,2025-08-08,清算の結了等,,,2015-10-05,1,,,,,エムズワークスミヤケ,0
2213,9310001009793,登記記録の閉鎖等,0,2025-08-15,2025-08-06,有馬屋水産株式会社,,株式会社,長崎県,南島原市,口之津町丁５５９４番地２,,42,214,8592503,,,2025-08-06,清算の結了等,,,2015-10-05,1,,,,,アリマヤスイサン,0
2220,9330003009567,登記記録の閉鎖等,0,2025-08-15,2025-07-31,玉東町役場庁舎建設事業共同企業体合同会社,,合同会社,熊本県,熊本市南区,御幸笛田２丁目１５番１号,,43,104,8614172,,,2025-07-31,清算の結了等,,,2022-10-28,1,,,,,ギョクトウマチヤクバチョウシャケンセツジギョウキョウドウキギョウタイ,0
2223,9340002005021,登記記録の閉鎖等,0,2025-08-15,2025-07-31,有限会社昌和堂印刷,,有限会社,鹿児島県,鹿児島市,宇宿２丁目１６番１１号,,46,201,8900073,,,2025-07-31,清算の結了等,,,2015-10-05,1,,,,,ショウワドウインサツ,0
2228,9360003010373,登記記録の閉鎖等,0,2025-08-15,2025-07-29,合同会社医琉海星,,合同会社,沖縄県,浦添市,経塚１丁目１８番９号,,47,208,9012111,,,2025-07-29,清算の結了等,,,2020-06-17,1,,,,,イリュウカイセイ,0
2237,9430002059322,登記記録の閉鎖等,0,2025-08-15,2025-07-23,トライアングル有限会社,,有限会社,北海道,白老郡白老町,字北吉原１２５番地５,,01,578,0590923,,,2025-07-23,清算の結了等,,,2015-10-05,1,,,,,,0
