sequenceNumber,corporateNumber,process,correct,updateDate,changeDate,name,nameImageId,kind,prefectureName,cityName,streetNumber,addressImageId,prefectureCode,cityCode,postCode,addressOutside,addressOutsideImageId,closeDate,closeCause,successorCorporateNumber,changeCause,assignmentDate,latest,enName,enPrefectureName,enCityName,enAddressOutside,furigana,hihyoji
8,1010001235576,新規,0,2023-05-29,2023-05-29,ＫＰａｙ　Ｊａｐａｎ株式会社,,株式会社,東京都,千代田区,六番町１５番２号,,13,101,1020085,,,,,,,2023-05-29,1,,,,,ケイペイジャパン,0
12,1010005036748,新規,0,2023-05-29,2023-05-29,特定非営利活動法人ちよだニャンとなる会,,その他の設立登記法人,東京都,千代田区,三番町９番地１麹町三番町マンション３１２号,,13,101,1020075,,,,,,,2023-05-29,1,,,,,チヨダニャントナルカイ,0
19,1010401174589,新規,0,2023-05-29,2023-05-29,株式会社ＡＴ７,,株式会社,東京都,港区,元麻布３丁目７番１０号,,13,103,1060046,,,,,,,2023-05-29,1,,,,,エーティーセブン,0
24,1010405022174,新規,0,2023-05-29,2023-05-29,港インベストメンツ１一般社団法人,,その他の設立登記法人,東京都,港区,六本木１丁目６番１号泉ガーデンタワー,,13,103,1060032,,,,,,,2023-05-29,1,,,,,ミナトインベストメンツワン,0
26,1010601063170,新規,0,2023-05-29,2023-05-29,ＢＯＯＫＥＲＳ株式会社,,株式会社,東京都,墨田区,石原４丁目３２番１６－３０８号,,13,107,1300011,,,,,,,2023-05-29,1,,,,,ブッカーズ,0
30,1010901053128,新規,0,2023-05-29,2023-05-29,株式会社レーヴ,,株式会社,東京都,世田谷区,等々力５丁目１９番９号,,13,112,1580082,,,,,,,2023-05-29,1,,,,,レーヴ,0
31,1010903008195,新規,0,2023-05-29,2023-05-29,合同会社レディネス,,合同会社,東京都,世田谷区,弦巻３丁目１３－８－４０２,,13,112,1540016,,,,,,,2023-05-29,1,,,,,レディネス,0
40,1011003016898,新規,0,2023-05-29,2023-05-29,合同会社ＳＤＲ,,合同会社,東京都,渋谷区,代々木５丁目５７－２ザ・パークハビオＳＯＨＯ代々木公園３０６,,13,113,1510053,,,,,,,2023-05-29,1,,,,,エスディアール,0
51,1012401040572,新規,0,2023-05-29,2023-05-29,Ｃ．Ｋ株式会社,,株式会社,東京都,多摩市,愛宕４丁目２１番地の１－１０７号,,13,224,2060041,,,,,,,2023-05-29,1,,,,,シーケー,0
59,1013301050827,新規,0,2023-05-29,2023-05-29,株式会社Ｗｉｌｌａｔｅ,,株式会社,東京都,豊島区,東池袋１丁目３４番５号いちご東池袋ビル６階,,13,116,1700013,,,,,,,2023-05-29,1,,,,,ウィルエイト,0
66,1021001079153,新規,0,2023-05-29,2023-05-29,株式会社ＳＡＲＣ,,株式会社,神奈川県,大和市,福田５５２４－１７シティーホーム桜ヶ丘３０５,,14,213,2420024,,,,,,,2023-05-29,1,,,,,サーク,0
74,1030001154056,新規,0,2023-05-29,2023-05-29,株式会社成澤サービス,,株式会社,埼玉県,川口市,弥平１丁目１５番９号,,11,203,3320002,,,,,,,2023-05-29,1,,,,,ナリサワサービス,0
75,1030001154089,新規,0,2023-05-29,2023-05-29,株式会社弥栄工務店,,株式会社,埼玉県,さいたま市見沼区,大字蓮沼１５４１番地２,,11,104,3370015,,,,,,,2023-05-29,1,,,,,ヤサカコウムテン,0
76,1030001154097,新規,0,2023-05-29,2023-05-29,株式会社ＺＯＺＡＮ,,株式会社,埼玉県,川口市,大字東内野５２８番地の１７,,11,203,3330821,,,,,,,2023-05-29,1,,,,,ゾザン,0
77,1030001154106,新規,0,2023-05-29,2023-05-29,株式会社ごきげんにゃんわん,,株式会社,埼玉県,秩父市,上野町６番９号,,11,207,3680031,,,,,,,2023-05-29,1,,,,,ゴキゲンニャンワン,0
78,1030001154139,新規,0,2023-05-29,2023-05-29,株式会社ＲＫＯ，Ｉｎｃ．,,株式会社,埼玉県,上尾市,大字大谷本郷９７７番地３,,11,219,3620044,,,,,,,2023-05-29,1,,,,,アールケーオーインク,0
79,1030001154155,新規,0,2023-05-29,2023-05-29,株式会社クアム,,株式会社,埼玉県,さいたま市見沼区,大和田町１丁目１４６２,,11,104,3370053,,,,,,,2023-05-29,1,,,,,クアム,0
88,1030003021808,新規,0,2023-05-29,2023-05-29,合同会社よかった,,合同会社,埼玉県,さいたま市南区,大字大谷口５２９８番地２Ａ－１０２,,11,108,3360042,,,,,,,2023-05-29,1,,,,,ヨカッタ,0
89,1030003021824,新規,0,2023-05-29,2023-05-29,合同会社グラッチェ,,合同会社,埼玉県,本庄市,都島１２番地,,11,211,3670073,,,,,,,2023-05-29,1,,,,,グラッチェ,0
99,1040001128562,新規,0,2023-05-29,2023-05-29,嘉通株式会社,,株式会社,千葉県,千葉市稲毛区,園生町３９１番地２８１,,12,103,2630051,,,,,,,2023-05-29,1,,,,,カツウ,0
103,1040002044321,新規,0,2023-05-29,2023-05-29,有限会社伊藤住設,,有限会社,千葉県,松戸市,大金平４丁目２６７番地,,12,207,2700006,,,,,,,2023-05-29,1,,,,,イトウジュウセツ,0
109,1050001052893,新規,0,2023-05-29,2023-05-29,株式会社Ａｌｌｉｅ＆Ｃｏ．,,株式会社,茨城県,守谷市,ひがし野２丁目１－１８０２,,08,224,3020131,,,,,,,2023-05-29,1,,,,,アリエアンドカンパニー,0
119,1060001036029,新規,0,2023-05-29,2023-05-29,株式会社鳥居,,株式会社,栃木県,宇都宮市,大通り２丁目４番７号,,09,201,3200811,,,,,,,2023-05-29,1,,,,,トリイ,0
127,1080401026503,新規,0,2023-05-29,2023-05-29,株式会社ＴＯＰ　ＩＮＫ,,株式会社,静岡県,浜松市南区,楊子町１９９－４ＬｅｙｌａｎｄｙｖｉｌｌａｇｅＤ号室,,22,134,4300855,,,,,,,2023-05-29,1,,,,,トップインク,0
139,1120001255241,新規,0,2023-05-29,2023-05-29,株式会社リバイザーエステート,,株式会社,大阪府,大阪市平野区,平野市町３丁目５番２０号マイコート平野２０１号,,27,126,5470042,,,,,,,2023-05-29,1,,,,,リバイザーエステート,0
164,1180001156467,新規,0,2023-05-29,2023-05-29,株式会社リファ,,株式会社,愛知県,一宮市,森本１丁目３０番２２号プラッサムコート森本Ｂ棟１０１号,,23,203,4910831,,,,,,,2023-05-29,1,,,,,リファ,0
173,1180301037425,新規,0,2023-05-29,2023-05-29,株式会社ジャスティス,,株式会社,愛知県,岡崎市,小呂町字２丁目８７番地１－６０２,,23,202,4440009,,,,,,,2023-05-29,1,,,,,ジャスティス,0
174,1190005011824,新規,0,2023-05-29,2023-05-29,一般社団法人三重県バレーボール協会,,その他の設立登記法人,三重県,津市,河芸町中別保１８１１番地,,24,201,5100305,,,,,,,2023-05-29,1,,,,,ミエケンバレーボールキョウカイ,0
178,1220001025428,新規,0,2023-05-29,2023-05-29,株式会社ＧＲＯＷＩＮＧ　ＵＰ,,株式会社,石川県,白山市,博労１丁目６０番地,,17,210,9240863,,,,,,,2023-05-29,1,,,,,グローイングアップ,0
189,1290001101643,新規,0,2023-05-29,2023-05-29,ＮＯＲＩ　Ｆｏｏｄｓ株式会社,,株式会社,福岡県,福岡市博多区,博多駅前２丁目１０番１２号ハイラーク博多駅前１Ｆ,,40,132,8120011,,,,,,,2023-05-29,1,,,,,ノリフーズ,0
190,1290001101668,新規,0,2023-05-29,2023-05-29,志銘産業株式会社,,株式会社,福岡県,糟屋郡宇美町,貴船２丁目４０番１０号,,40,341,8112131,,,,,,,2023-05-29,1,,,,,シメイサンギョウ,0
191,1290001101676,新規,0,2023-05-29,2023-05-29,株式会社アーリーバード,,株式会社,福岡県,筑紫野市,大字本道寺６２６,,40,217,8180007,,,,,,,2023-05-29,1,,,,,アーリーバード,0
192,1290001101684,新規,0,2023-05-29,2023-05-29,株式会社アクシスジャパン,,株式会社,福岡県,太宰府市,水城３丁目９番８－３０６号,,40,221,8180131,,,,,,,2023-05-29,1,,,,,アクシスジャパン,0
207,1330003009847,新規,0,2023-05-29,2023-05-29,Ｇエナジー合同会社,,合同会社,熊本県,菊池郡大津町,大字杉水８３１－９,,43,403,8691236,,,,,,,2023-05-29,1,,,,,ジーエナジー,0
211,1360001032071,新規,0,2023-05-29,2023-05-29,ＥＩＫＥＮ株式会社,,株式会社,沖縄県,那覇市,繁多川５丁目１４番４３号シティービューハウス３０１,,47,201,9020071,,,,,,,2023-05-29,1,,,,,エイケン,0
212,1360003013004,新規,0,2023-05-29,2023-05-29,リバーサンド合同会社,,合同会社,沖縄県,那覇市,安謝１丁目１２－１３トスカーナ２０１,,47,201,9000003,,,,,,,2023-05-29,1,,,,,リバーサンド,0
224,1430001089212,新規,0,2023-05-29,2023-05-29,ネクストロード株式会社,,株式会社,北海道,石狩市,新港南１丁目２２番地５７,,01,235,0613244,,,,,,,2023-05-29,1,,,,,ネクストロード,0
227,1700150116532,新規,0,2023-05-29,2023-05-29,Ｓｈｅｎｚｈｅｎ　Ｗｕｊｉ　Ｔｅｃｈｎｏｌｏｇｙ　Ｃｏ．，Ｌｔｄ．,,外国会社等,,,,,,,,Ｒｏｏｍ　２３０６－２３０７，Ｈｕａｔｏｎｇ　Ｂｕｉｌｄｉｎｇ，Ｎｏ．８　Ｇａｎｌｉ　２ｎｄ　Ｒｏａｄ　Ｊｉｈｕａ　Ｓｔｒｅｅｔ，Ｌｏｎｇｇａｎｇ　Ｄｉｓｔｒｉｃｔ　Ｓｈｅｎｚｈｅｎ　Ｇｕａｎｇｄｏｎｇ,,,,,,2023-05-29,1,,,,,シンセンウジテクノロジーカンパニーリミテッド,0
228,1700150116540,新規,0,2023-05-29,2023-05-29,ｃｈａｌｉｎｇ　ｓｈｕｎｋａｎｇｃｈｅｎｇｓｈａｎｇｍａｏ　ｙｏｕｘｉａｎｇｏｎｇｓｉ,,外国会社等,,,,,,,,ｃｈｅｎｇｇｕａｎｚｈｅｎｙａｎｄｉｓｈｅｑｕ　ｃｈａｏｙａｎｇｘｉｎｃｈｅｎｇ１１ｈａｏｌｏｕ　ｚｈｕｚｈｏｕｓｈｉ　ｃｈａｌｉｎｇｘｉａｎ　ｈｕｎａｎｓｈｅｎｇ　ＣＮ,,,,,,2023-05-29,1,,,,,チャリンスンカンチェンシャンマオユウゲンコウシ,0
229,1700150116549,新規,0,2023-05-29,2023-05-29,Ｓｈｅｎｚｈｅｎ　Ｌｕｅｒｍａｎ　Ｍａｏｙｉ　Ｙｏｕｘｉａｎ　Ｇｏｎｇｓｉ,,外国会社等,,,,,,,,Ｌｏｎｇｈｕａｘｉｎｑｕ　Ｍｉｎｚｈｉｊｉｅｄａｏ　Ｍｉｎｚｈｉｄａｄａｏ　Ｗａｎｚｈｏｎｇｓｈｅｎｇｈｕｏｃｕｎ　１８ｄｏｎｇ７ｈａｏ　Ｓｈｅｎｚｈｅｎｓｈｉ　Ｇｕａｎｇｄｏｎｇｓｈｅｎｇ　５１８０００　ＣＮ,,,,,,2023-05-29,1,,,,,シェンジェンルーアーマンマオイーヨウシエンゴンスー,0
246,2010003040718,新規,0,2023-05-29,2023-05-29,ＭＩコンサルティング合同会社,,合同会社,東京都,中央区,日本橋兜町８‐４トーシンフェニックス日本橋兜町参番館４０２号室,,13,102,1030026,,,,,,,2023-05-29,1,,,,,エムアイコンサルティング,0
253,2010401174464,新規,0,2023-05-29,2023-05-29,株式会社ダブルスラッシュ,,株式会社,東京都,港区,浜松町２丁目２番１５号,,13,103,1050013,,,,,,,2023-05-29,1,,,,,ダブルスラッシュ,0
254,2010401174588,新規,0,2023-05-29,2023-05-29,株式会社Ｃｒｏｓｓｏｖｅｒ,,株式会社,東京都,港区,南青山２丁目１４番１４号,,13,103,1070062,,,,,,,2023-05-29,1,,,,,クロスオーバー,0
255,2010401174638,新規,0,2023-05-29,2023-05-29,ＣＬＷ　Ｊａｐａｎ　Ｔｒａｄｉｎｇ株式会社,,株式会社,東京都,港区,芝３丁目５－３－３０１,,13,103,1050014,,,,,,,2023-05-29,1,,,,,シーエルダブリュージャパントレーディング,0
259,2010405022173,新規,0,2023-05-29,2023-05-29,港プロパティ一般社団法人,,その他の設立登記法人,東京都,港区,六本木１丁目６番１号泉ガーデンタワー,,13,103,1060032,,,,,,,2023-05-29,1,,,,,ミナトプロパティ,0
273,2011001154699,新規,0,2023-05-29,2023-05-29,株式会社ブルークリスタル,,株式会社,東京都,渋谷区,神宮前６丁目１２番１８号ＴｈｅＩｃｅｂｅｒｇ１Ｆ,,13,113,1500001,,,,,,,2023-05-29,1,,,,,ブルークリスタル,0
287,2011101102962,新規,0,2023-05-29,2023-05-29,株式会社ＰＵ２,,株式会社,東京都,新宿区,北新宿１丁目８番２０－７０３号,,13,104,1690074,,,,,,,2023-05-29,1,,,,,ピーユーツー,0
288,2011101103036,新規,0,2023-05-29,2023-05-29,株式会社コアラ,,株式会社,東京都,新宿区,西新宿３丁目３番１３号西新宿水間ビル２Ｆ,,13,104,1600023,,,,,,,2023-05-29,1,,,,,コアラ,0
289,2011103013084,新規,0,2023-05-29,2023-05-29,Ｔ＆Ｃ合同会社,,合同会社,東京都,新宿区,大久保１丁目１５－２５フラット大久保１０１号,,13,104,1690072,,,,,,,2023-05-29,1,,,,,ティアンドシー,0
290,2011201024669,新規,0,2023-05-29,2023-05-29,株式会社Ｇｒａｔｅｆｕｌ　Ｕｎｉｖｅｒｓｅ,,株式会社,東京都,中野区,大和町３丁目２１番１１号ノーブル中野１０２,,13,114,1650034,,,,,,,2023-05-29,1,,,,,グレイトフルユニバース,0
295,2011505002552,新規,0,2023-05-29,2023-05-29,特定非営利活動法人希望と文化のまち北区推進会議,,その他の設立登記法人,東京都,北区,上中里１丁目３７番１５－６０２号,,13,117,1140016,,,,,,,2023-05-29,1,,,,,キボウトブンカノマチキタクスイシンカイギ,0
298,2012401040571,新規,0,2023-05-29,2023-05-29,株式会社ｒｅｐｅａｔ,,株式会社,東京都,武蔵野市,吉祥寺本町１丁目８－２－３階,,13,203,1800004,,,,,,,2023-05-29,1,,,,,リピート,0
309,2020001151763,新規,0,2023-05-29,2023-05-29,株式会社ｓｏｎａ,,株式会社,神奈川県,横浜市西区,みなとみらい４丁目７番１－２２１７号,,14,103,2200012,,,,,,,2023-05-29,1,,,,,ソナ,0
310,2020001151796,新規,0,2023-05-29,2023-05-29,株式会社Ｓｉｄｅｍｅｎ,,株式会社,神奈川県,横浜市鶴見区,尻手２丁目３－３－３１３,,14,101,2300003,,,,,,,2023-05-29,1,,,,,サイドマン,0
327,2030001154113,新規,0,2023-05-29,2023-05-29,株式会社イーアールケー,,株式会社,埼玉県,さいたま市桜区,西堀７丁目１５番８－２０８号,,11,106,3380832,,,,,,,2023-05-29,1,,,,,イーアールケー,0
328,2030001154154,新規,0,2023-05-29,2023-05-29,株式会社ｄｒｉｐ,,株式会社,埼玉県,戸田市,大字新曽２１８４番地シャンピエール１階,,11,224,3350021,,,,,,,2023-05-29,1,,,,,ドリップ,0
329,2030001154170,新規,0,2023-05-29,2023-05-29,株式会社Ｔ‐ＬＩＮＥ,,株式会社,埼玉県,川口市,大字新井宿９７７番地の１,,11,203,3330826,,,,,,,2023-05-29,1,,,,,ティーライン,0
337,2030003021815,新規,0,2023-05-29,2023-05-29,Ｎｅｗ　Ｗａｌｌ合同会社,,合同会社,埼玉県,川越市,南台２丁目１１番地８（ハイマート南大塚Ａ－４０４号室）,,11,201,3501165,,,,,,,2023-05-29,1,,,,,ニューウォール,0
338,2030003021848,新規,0,2023-05-29,2023-05-29,合同会社エブリイ,,合同会社,埼玉県,越谷市,大沢６５６－２,,11,222,3430025,,,,,,,2023-05-29,1,,,,,エブリイ,0
345,2040001128545,新規,0,2023-05-29,2023-05-29,株式会社ＳＡＧＥ,,株式会社,千葉県,八街市,中央１０番地１０,,12,230,2891116,,,,,,,2023-05-29,1,,,,,セイジ,0
346,2040001128561,新規,0,2023-05-29,2023-05-29,ＮＯＯＲ　ＪＡＨＡＡＮ　ＪＡＰＡＮ株式会社,,株式会社,千葉県,野田市,木間ケ瀬４６３２番地６,,12,208,2700222,,,,,,,2023-05-29,1,,,,,ヌールジャハーンジャパン,0
350,2040003022696,新規,0,2023-05-29,2023-05-29,合同会社ユキフーズ,,合同会社,千葉県,船橋市,旭町１丁目１１番３１号,,12,204,2730041,,,,,,,2023-05-29,1,,,,,ユキフーズ,0
354,2050001052819,新規,0,2023-05-29,2023-05-29,ＵＫＡ株式会社,,株式会社,茨城県,行方市,青沼８４１番地１４（みなみ原団地Ｎ６－１号室）,,08,233,3113831,,,,,,,2023-05-29,1,,,,,ユーケイエイ,0
355,2050001052892,新規,0,2023-05-29,2023-05-29,株式会社Ｌｉｆｅｅｌ,,株式会社,茨城県,水戸市,内原町７０５番地の２,,08,201,3190315,,,,,,,2023-05-29,1,,,,,ライフィール,0
372,2080401026502,新規,0,2023-05-29,2023-05-29,株式会社ケイラインズ,,株式会社,静岡県,浜松市浜北区,小松４３８８－１１,,22,136,4340042,,,,,,,2023-05-29,1,,,,,ケイラインズ,0
374,2090001018139,新規,0,2023-05-29,2023-05-29,株式会社めぐとも,,株式会社,山梨県,山梨市,三ヶ所９９８番地,,19,205,4050011,,,,,,,2023-05-29,1,,,,,メグトモ,0
375,2100001036452,新規,0,2023-05-29,2023-05-29,ＳＬＧ株式会社,,株式会社,長野県,千曲市,大字磯部１３番地２５,,20,218,3890806,,,,,,,2023-05-29,1,,,,,エスエルジー,0
380,2110001037565,新規,0,2023-05-29,2023-05-29,株式会社Ｎ．Ｏ．Ｉ,,株式会社,新潟県,三条市,上須頃４８２３番地,,15,204,9550091,,,,,,,2023-05-29,1,,,,,エヌオーアイ,0
382,2110005016937,新規,0,2023-05-29,2023-05-29,特定非営利活動法人大井田,,その他の設立登記法人,新潟県,十日町市,四日町新田２番地１,,15,210,9480007,,,,,,,2023-05-29,1,,,,,オオイダ,0
388,2120001255216,新規,0,2023-05-29,2023-05-29,株式会社ＬＰ,,株式会社,大阪府,大阪市北区,神山町９番１６号山名ビル２階２２号室,,27,127,5300026,,,,,,,2023-05-29,1,,,,,エルピー,0
398,2130001074383,新規,0,2023-05-29,2023-05-29,プラス０１株式会社,,株式会社,京都府,京都市南区,東九条南河辺町１１番地シャーメゾン１１ｂａｎｃｈｉ１０６号室,,26,107,6018034,,,,,,,2023-05-29,1,,,,,プラスゼロワン,0
412,2180001156466,新規,0,2023-05-29,2023-05-29,グローバルオート株式会社,,株式会社,愛知県,名古屋市北区,中切町４丁目６６番地の４,,23,103,4620051,,,,,,,2023-05-29,1,,,,,グローバルオート,0
416,2180003025272,新規,0,2023-05-29,2023-05-29,合同会社Ｉ．Ｓ．Ｔ企画,,合同会社,愛知県,名古屋市昭和区,萩原町１丁目２３番地ハイツ藤文Ａ１０１,,23,107,4660852,,,,,,,2023-05-29,1,,,,,アイエスティーキカク,0
417,2180003025280,新規,0,2023-05-29,2023-05-29,合同会社ＴＡＫ,,合同会社,愛知県,名古屋市北区,金城４丁目８番１５号ａｔｒｉｏ金城１０２号,,23,103,4620847,,,,,,,2023-05-29,1,,,,,タック,0
419,2180301037424,新規,0,2023-05-29,2023-05-29,株式会社ひこうせん,,株式会社,愛知県,豊田市,小坂町１４丁目４９番地２,,23,211,4710035,,,,,,,2023-05-29,1,,,,,ヒコウセン,0
422,2180303005726,新規,0,2023-05-29,2023-05-29,ＳＧ商会合同会社,,合同会社,愛知県,新城市,野田字観音５６番地１,,23,221,4411343,,,,,,,2023-05-29,1,,,,,エスジーショウカイ,0
423,2190003004333,新規,0,2023-05-29,2023-05-29,ＫＤＭ合同会社,,合同会社,三重県,津市,一身田上津部田１５０４番地１４５,,24,201,5140061,,,,,,,2023-05-29,1,,,,,ケーディーエム,0
430,2210005010095,新規,0,2023-05-29,2023-05-29,社会福祉法人ケアふくい,,その他の設立登記法人,福井県,吉田郡永平寺町,松岡薬師１丁目１４５番地,,18,322,9101118,,,,,,,2023-05-29,1,,,,,ケアフクイ,0
444,2280003001734,新規,0,2023-05-29,2023-05-29,合同会社Ｃｈａｎｇｅ　ｔｈｅ　ｆｕｔｕｒｅ,,合同会社,島根県,松江市,西茶町１番地２２,,32,201,6900845,,,,,,,2023-05-29,1,,,,,チェンジザフューチャー,0
451,2290001101667,新規,0,2023-05-29,2023-05-29,株式会社ウグイス製薬,,株式会社,福岡県,久留米市,御井町２３４番地２,,40,203,8390851,,,,,,,2023-05-29,1,,,,,ウグイスセイヤク,0
460,2290801029554,新規,0,2023-05-29,2023-05-29,株式会社Ｏｒａｎｇｅ,,株式会社,福岡県,北九州市門司区,柳原町６番１３－５０２号,,40,101,8000036,,,,,,,2023-05-29,1,,,,,オレンジ,0
473,2350005006162,新規,0,2023-05-29,2023-05-29,税理士法人ステラ,,その他の設立登記法人,宮崎県,宮崎市,大島町馬場尻１８８７番地１５,,45,201,8800824,,,,,,,2023-05-29,1,,,,,ステラ,0
478,2360001032070,新規,0,2023-05-29,2023-05-29,株式会社メイビスケア,,株式会社,沖縄県,南城市,玉城字當山１８７番地３,,47,215,9010612,,,,,,,2023-05-29,1,,,,,メイビスケア,0
479,2360003013003,新規,0,2023-05-29,2023-05-29,合同会社Ｙ’ｓコネクト,,合同会社,沖縄県,名護市,字伊差川２３９番地４,,47,209,9051152,,,,,,,2023-05-29,1,,,,,ワイズコネクト,0
490,2430001089203,新規,0,2023-05-29,2023-05-29,株式会社Ｎｅｘｕｓ,,株式会社,北海道,苫小牧市,木場町２丁目３番１５－７０４号,,01,213,0530033,,,,,,,2023-05-29,1,,,,,ネクサス,0
492,2430003015090,新規,0,2023-05-29,2023-05-29,ＵＲＡＬスペース北海道合同会社,,合同会社,北海道,札幌市手稲区,富丘二条７丁目３番３１号,,01,109,0060012,,,,,,,2023-05-29,1,,,,,ウラルスペースホッカイドウ,0
500,2700150116531,新規,0,2023-05-29,2023-05-29,ｓｈｅｎｚｈｅｎｓｈｉ　ｐｅｉｚｈｅｎｇｍａｏｙｉ　ｙｏｕｘｉａｎｇｏｎｇｓｉ,,外国会社等,,,,,,,,４０６，１３３ｄｏｎｇ，ｚｈａｎｇｋｅｎｇｙｉｑｕ，ｍｉｎｋａｎｇｌｕ　ｍｉｎｚｈｉｊｉｅｄａｏ，ｌｏｎｇｈｕａｘｉｎｑｕ　Ｓｈｅｎｚｈｅｎ　Ｇｕａｎｇｄｏｎｇ,,,,,,2023-05-29,1,,,,,シンセンシペイゼンマオイユウゲンコウシ,0
501,2700150116548,新規,0,2023-05-29,2023-05-29,Ｗｕｚｈｏｕ　Ｊｉａｎｇ　Ｙｕａｎ　Ｇｅｍｓ　Ｃｏ．，Ｌｔｄ,,外国会社等,,,,,,,,Ｓｈｏｐ　１６２－１６７，４ｔｈ　Ｆｌｏｏｒ，Ｎｏ．６９，Ｃｅｎｔｒａｌ　Ｓｅｃｔｉｏｎ，Ｘｉｈｕａｎ　Ｒｏａｄ，Ｗｕｚｈｏｕ,,,,,,2023-05-29,1,,,,,ウージョウシージャンユエンバオシーヨウシエンゴンスー,0
518,3010101015661,新規,0,2023-05-29,2023-05-29,株式会社ＡＲＥＡ６,,株式会社,東京都,八王子市,旭町６番３号カドキビルＢ１Ｆ,,13,201,1920083,,,,,,,2023-05-29,1,,,,,エリアシックス,0
527,3010401174587,新規,0,2023-05-29,2023-05-29,株式会社ＣＵＥ,,株式会社,東京都,港区,六本木７丁目６番１８－９０１号,,13,103,1060032,,,,,,,2023-05-29,1,,,,,キュー,0
531,3010403030185,新規,0,2023-05-29,2023-05-29,合同会社サステックス,,合同会社,東京都,港区,南青山２丁目２番１５号,,13,103,1070062,,,,,,,2023-05-29,1,,,,,サステックス,0
539,3010603010169,新規,0,2023-05-29,2023-05-29,合同会社ＴＯＭＡＴＯ,,合同会社,東京都,墨田区,両国１丁目３番１１号アオヤギ両国ビル３階,,13,107,1300026,,,,,,,2023-05-29,1,,,,,トマト,0
552,3011101102945,新規,0,2023-05-29,2023-05-29,株式会社ライフツリーコンサルティング,,株式会社,東京都,新宿区,新宿２丁目４番９号,,13,104,1600022,,,,,,,2023-05-29,1,,,,,ライフツリーコンサルティング,0
553,3011101103019,新規,0,2023-05-29,2023-05-29,株式会社Ｓｏｂａｓ,,株式会社,東京都,新宿区,百人町１丁目１０番１５号ＪＲ新大久保駅ビル４階,,13,104,1690073,,,,,,,2023-05-29,1,,,,,ソバーズ,0
555,3011103013067,新規,0,2023-05-29,2023-05-29,合同会社ＭＫＡＩＤ,,合同会社,東京都,新宿区,西早稲田２丁目８番６号プレベール西早稲田２０１号室,,13,104,1690051,,,,,,,2023-05-29,1,,,,,エムケイエイド,0
557,3011501029334,新規,0,2023-05-29,2023-05-29,ＭＥＬＦＩＤ株式会社,,株式会社,東京都,北区,赤羽２丁目２５－１エターナルビル２階,,13,117,1150045,,,,,,,2023-05-29,1,,,,,メルフィード,0
559,3011601026850,新規,0,2023-05-29,2023-05-29,絶好調株式会社,,株式会社,東京都,練馬区,豊玉北６丁目３番３号,,13,120,1760012,,,,,,,2023-05-29,1,,,,,ゼッコウチョウ,0
567,3013301050783,新規,0,2023-05-29,2023-05-29,豊華通信株式会社,,株式会社,東京都,豊島区,池袋１丁目７番２３号エルミタージュ池袋５０３号室,,13,116,1700014,,,,,,,2023-05-29,1,,,,,トヨナハツウシン,0
575,3020001151754,新規,0,2023-05-29,2023-05-29,株式会社ＴＯＫＩＯ　ＷＯＲＫＳ,,株式会社,神奈川県,横浜市中区,住吉町３丁目２９番地関内住吉ビル６Ａ,,14,104,2310013,,,,,,,2023-05-29,1,,,,,トキオワークス,0
576,3020001151787,新規,0,2023-05-29,2023-05-29,スイングバイ株式会社,,株式会社,神奈川県,横浜市西区,浅間町１丁目４－３ウィザードビル４０２,,14,103,2200072,,,,,,,2023-05-29,1,,,,,スイングバイ,0
584,3021001079176,新規,0,2023-05-29,2023-05-29,湘南メンテナンス株式会社,,株式会社,神奈川県,平塚市,中原２丁目７番２４号,,14,203,2540075,,,,,,,2023-05-29,1,,,,,ショウナンメンテナンス,0
585,3021003013133,新規,0,2023-05-29,2023-05-29,合同会社ＶＡＮＥＣＴ,,合同会社,神奈川県,相模原市中央区,田名１２０１番地１ルミエールＡ２０３号,,14,152,2520244,,,,,,,2023-05-29,1,,,,,バネクト,0
586,3021003013141,新規,0,2023-05-29,2023-05-29,合同会社ＧｏＤｏ,,合同会社,神奈川県,藤沢市,辻堂東海岸３丁目９番ＦＥ～３１１,,14,205,2510045,,,,,,,2023-05-29,1,,,,,ゴードゥー,0
598,3030001154062,新規,0,2023-05-29,2023-05-29,株式会社ＥＧＧＧ,,株式会社,埼玉県,さいたま市大宮区,宮町２丁目９３番地２号,,11,103,3300802,,,,,,,2023-05-29,1,,,,,エッグ,0
599,3030001154095,新規,0,2023-05-29,2023-05-29,Ｓｋｙ　Ｈｉｇｈ　Ｉｎｔｅｒｎａｔｉｏｎａｌ　Ｅｎｇｌｉｓｈ　Ａｃａｄｅｍｙ株式会社,,株式会社,埼玉県,所沢市,弥生町１７５５－９６,,11,208,3590043,,,,,,,2023-05-29,1,,,,,スカイハイインターナショナルイングリッシュアカデミー,0
600,3030001154129,新規,0,2023-05-29,2023-05-29,アライアンス株式会社,,株式会社,埼玉県,所沢市,くすのき台１丁目１３－２ガーデンシティ所沢０２号室,,11,208,3590037,,,,,,,2023-05-29,1,,,,,アライアンス,0
605,3030003021830,新規,0,2023-05-29,2023-05-29,合同会社Ｓｔｅｐ　ｂｙ　Ｓｔｅｐ,,合同会社,埼玉県,春日部市,豊町５丁目１０番地８ＳｔａｒｔＥｌｅｇａｎｃｅＩＩ１０２,00130646,11,214,3440066,,,,,,,2023-05-29,1,,,,,ステップバイステップ,0
615,3040001128552,新規,0,2023-05-29,2023-05-29,株式会社ＴＯＫＹＯ　ＲＯＡＤ　ＭＡＸ,,株式会社,千葉県,八街市,八街に２８７番地３,,12,230,2891103,,,,,,,2023-05-29,1,,,,,トーキョーロードマックス,0
616,3040001128577,新規,0,2023-05-29,2023-05-29,株式会社ユーアイ,,株式会社,千葉県,市川市,北方町４丁目２０６６番地１１,,12,203,2720811,,,,,,,2023-05-29,1,,,,,ユーアイ,0
622,3050001052875,新規,0,2023-05-29,2023-05-29,株式会社琉輝興業,,株式会社,茨城県,古河市,東諸川１４５番地４グリーンテラスＡ１０３,,08,204,3060124,,,,,,,2023-05-29,1,,,,,リュウキコウギョウ,0
623,3050001052891,新規,0,2023-05-29,2023-05-29,株式会社ＫＥＩ,,株式会社,茨城県,水戸市,藤が原３丁目２１番地の１０,,08,201,3114208,,,,,,,2023-05-29,1,,,,,ケイ,0
636,3060001036027,新規,0,2023-05-29,2023-05-29,ハートフルふきあげマトマ株式会社,,株式会社,栃木県,栃木市,大平町伯仲２６５６番１－１,,09,203,3294424,,,,,,,2023-05-29,1,,,,,ハートフルフキアゲマトマ,0
648,3090001018138,新規,0,2023-05-29,2023-05-29,株式会社遊,,株式会社,山梨県,南巨摩郡南部町,福士１７７３２番地１,,19,366,4092102,,,,,,,2023-05-29,1,,,,,ユウ,0
650,3100001036443,新規,0,2023-05-29,2023-05-29,株式会社Ｌ　Ｐｅａｃｅ,,株式会社,長野県,諏訪市,沖田町１丁目１３１番地１,,20,206,3920013,,,,,,,2023-05-29,1,,,,,エルピース,0
651,3100001036451,新規,0,2023-05-29,2023-05-29,株式会社ゆたかな暮らしの仲介舎,,株式会社,長野県,上田市,真田町傍陽１１４６７,,20,203,3862203,,,,,,,2023-05-29,1,,,,,ユタカナクラシノチュウカイシャ,0
654,3100005013018,新規,0,2023-05-29,2023-05-29,一般社団法人Ｒｏｏｔｓ　Ｏｎｔａｋｅ,,その他の設立登記法人,長野県,木曽郡木曽町,福島１２４０番地,,20,432,3970001,,,,,,,2023-05-29,1,,,,,ルーツオンタケ,0
655,3120001009273,新規,0,2023-05-29,2023-05-29,株式会社上田商店,,株式会社,大阪府,大阪市東住吉区,今林１丁目２番６８号大阪市中央卸売市場東部市場内,,27,121,5460001,,,,,,,2023-05-29,1,,,,,ウエダショウテン,0
661,3120001254910,新規,0,2023-05-29,2023-05-29,ＴＨＩＮＫＥＲ株式会社,,株式会社,大阪府,枚方市,茄子作４丁目２１番１号ケーズコート１０２,,27,210,5730071,,,,,,,2023-05-29,1,,,,,シンカー,0
662,3120001255223,新規,0,2023-05-29,2023-05-29,株式会社やで,,株式会社,大阪府,大阪市天王寺区,生玉前町５番２１号,,27,109,5430072,,,,,,,2023-05-29,1,,,,,ヤデ,0
663,3120001255248,新規,0,2023-05-29,2023-05-29,株式会社ｆｒａｉｓｅ,,株式会社,大阪府,大阪市中央区,東心斎橋２丁目６番２８号第２山田ビル１階東室,,27,128,5420083,,,,,,,2023-05-29,1,,,,,フレーズ,0
670,3122003002594,新規,0,2023-05-29,2023-05-29,ＨＵＹ　ＬＥ合同会社,,合同会社,大阪府,東大阪市,小阪２丁目１０番２８号ＪＰ小阪１階１Ａ号室,,27,227,5770801,,,,,,,2023-05-29,1,,,,,フィレ,0
672,3130001074399,新規,0,2023-05-29,2023-05-29,株式会社ＲＥＪＯＩＣＥＦＵＬ,,株式会社,京都府,城陽市,枇杷庄島ノ宮１０２番地の８,,26,207,6100117,,,,,,,2023-05-29,1,,,,,リジョイスフル,0
684,3140005026635,新規,0,2023-05-29,2023-05-29,アトラス行政書士法人,,その他の設立登記法人,兵庫県,西宮市,柏堂西町１４番２５号,,28,204,6620098,,,,,,,2023-05-29,1,,,,,アトラス,0
687,3160005011197,新規,0,2023-05-29,2023-05-29,一般社団法人バリューアート,,その他の設立登記法人,滋賀県,大津市,和邇高城３４１番地の５,,25,201,5200528,,,,,,,2023-05-29,1,,,,,バリューアート,0
694,3180001156481,新規,0,2023-05-29,2023-05-29,株式会社ラフターゲート,,株式会社,愛知県,清須市,土田１丁目５番地１５,,23,233,4520945,,,,,,,2023-05-29,1,,,,,ラフターゲート,0
701,3180301037415,新規,0,2023-05-29,2023-05-29,株式会社ＹＭ技研,,株式会社,愛知県,安城市,古井町大久後２８番地１０,,23,212,4460025,,,,,,,2023-05-29,1,,,,,ワイエムギケン,0
702,3180301037423,新規,0,2023-05-29,2023-05-29,株式会社ＫＡＰＰＡ‐ＬＡＢ,,株式会社,愛知県,新城市,字町並１９０番地１,,23,221,4411374,,,,,,,2023-05-29,1,,,,,カッパラボ,0
714,3260005011237,新規,0,2023-05-29,2023-05-29,特定非営利活動法人ＬＩＮＫ　ＨＥＡＲＴ　ＳＣＨＯＯＬ,,その他の設立登記法人,岡山県,真庭市,豊栄９４１番地１,,33,214,7170406,,,,,,,2023-05-29,1,,,,,リンクハートスクール,0
722,3290001101633,新規,0,2023-05-29,2023-05-29,株式会社Ｅｍｏｉ,,株式会社,福岡県,福岡市中央区,赤坂１丁目７番５号ロマネスク赤坂第２,,40,133,8100042,,,,,,,2023-05-29,1,,,,,エモイ,0
723,3290001101658,新規,0,2023-05-29,2023-05-29,ＧＡＴＵＮ株式会社,,株式会社,福岡県,福岡市博多区,博多駅前２丁目５番８号,,40,132,8120011,,,,,,,2023-05-29,1,,,,,ガツン,0
724,3290001101666,新規,0,2023-05-29,2023-05-29,株式会社ＢＬＩＮＫＳ　ｉｎｖｅｓｔｍｅｎｔ,,株式会社,福岡県,那珂川市,今光１丁目８０番地,,40,231,8111211,,,,,,,2023-05-29,1,,,,,ブリンクスインベストメント,0
725,3290001101674,新規,0,2023-05-29,2023-05-29,ＭａｒｉｎｅＡｃｔｉｖｉｔｙＦｕｋｕｏｋａ株式会社,,株式会社,福岡県,福津市,津屋崎７丁目９番１５号,,40,224,8113304,,,,,,,2023-05-29,1,,,,,マリンアクティビティフクオカ,0
726,3290001101682,新規,0,2023-05-29,2023-05-29,ＮＡＫＡＹＡＭＡ　ＩＮＤＵＳＴＲＩＥＳ株式会社,,株式会社,福岡県,朝倉郡筑前町,下高場９５０番地２７,00130655,40,447,8380211,,,,,,,2023-05-29,1,,,,,ナカヤマインダストリーズ,0
729,3290003013950,新規,0,2023-05-29,2023-05-29,合同会社みずきコンサルティング,,合同会社,福岡県,飯塚市,新飯塚６番６号,,40,205,8200005,,,,,,,2023-05-29,1,,,,,ミズキコンサルティング,0
730,3290003013959,新規,0,2023-05-29,2023-05-29,みらいホープ合同会社,,合同会社,福岡県,糟屋郡志免町,桜丘４丁目５番１号,,40,343,8112201,,,,,,,2023-05-29,1,,,,,ミライホープ,0
734,3290803004422,新規,0,2023-05-29,2023-05-29,合同会社ＨＡＲＴ　ＨＡＲＭＯＮＩＥＳ,,合同会社,福岡県,北九州市小倉南区,蒲生４丁目５番６‐２０６号,,40,107,8020978,,,,,,,2023-05-29,1,,,,,ハートハーモニーズ,0
736,3330003009861,新規,0,2023-05-29,2023-05-29,ＳＡＰＡ　ＭＡＲＴ合同会社,,合同会社,熊本県,玉名市,中４６番地,,43,206,8650064,,,,,,,2023-05-29,1,,,,,サパマート,0
743,3360003013002,新規,0,2023-05-29,2023-05-29,合同会社石原商事,,合同会社,沖縄県,宮古島市,平良字西里８８２番地,,47,214,9060012,,,,,,,2023-05-29,1,,,,,イシハラショウジ,0
744,3380001033719,新規,0,2023-05-29,2023-05-29,株式会社ＩＢリノベーションズ,,株式会社,福島県,郡山市,富久山町福原字三斗蒔田３０－８－１０２,,07,203,9638061,,,,,,,2023-05-29,1,,,,,アイビーリノベーションズ,0
748,3390005009012,新規,0,2023-05-29,2023-05-29,一般社団法人みどりまち文庫,,その他の設立登記法人,山形県,鶴岡市,本町１丁目７番４５号,,06,203,9970034,,,,,,,2023-05-29,1,,,,,ミドリマチブンコ,0
751,3410003003807,新規,0,2023-05-29,2023-05-29,合同会社ＳＡＴＯＲＵ,,合同会社,秋田県,大館市,泉町５番３０号ビューハイツ泉２０２号,,05,204,0170845,,,,,,,2023-05-29,1,,,,,サトル,0
756,3430001089227,新規,0,2023-05-29,2023-05-29,株式会社明明後日,,株式会社,北海道,小樽市,花園２丁目８番１７号,,01,203,0470024,,,,,,,2023-05-29,1,,,,,シアサッテ,0
759,3440001009266,新規,0,2023-05-29,2023-05-29,株式会社Ｓｔａｐｌｅ函館,,株式会社,北海道,函館市,大町９番１号,,01,202,0400052,,,,,,,2023-05-29,1,,,,,ステイプルハコダテ,0
766,3700150116539,新規,0,2023-05-29,2023-05-29,ＳｈｅｎＺｈｅｎＳｈｉ　ＷｅｎＹａｎＫｅＪｉＦａＺｈａｎ　ＹｏｕＸｉａｎＧｏｎｇＳｉ,,外国会社等,,,,,,,,ＬｏｎｇＧａｎｇＱｕ　Ｌｏｎｇ　Ｇａｎｇ　Ｊｉｅ　Ｄａｏ　Ｊｉ　Ｓｈａ　Ｔｏｎｇ　Ｊｉａｎ　Ｌｏｕ　Ｇ　Ｄｏｎｇ　３０１　Ｓｈｅｎ　Ｚｈｅｎ　Ｇｕａｎｇ　Ｄｏｎｇ　ＣＮ,,,,,,2023-05-29,1,,,,,シンセンシウェンイェンケジファザンユウゲンコウシ,0
767,3700150116547,新規,0,2023-05-29,2023-05-29,Ｗｕｘｉ　Ｊｕｒａｎ　Ｔｒａｄｉｎｇ　Ｃｏ．，Ｌｔｄ,,外国会社等,,,,,,,,Ｗｕｘｉｓｈｉｘｉｎｗｕｑｕｗａｎｇｚｈｕａｎｇｌｕ６０ｈａｏ４１３－６　Ｗｕｘｉｓｈｉ　Ｊｉａｎｇｓｕｓｈｅｎｇ,,,,,,2023-05-29,1,,,,,ウシジュラントレーディングカンパニーリミテッド,0
768,3700150116555,新規,0,2023-05-29,2023-05-29,Ｊｉｈａｉ　ｔｅｃｈｎｏｌｏｇｙ（ｓｈｅｎｚｈｅｎ）ｃｏ．，ＬＴＤ,,外国会社等,,,,,,,,Ｒｏｏｍ２０１，Ｂｕｉｌｄｉｎｇ　Ａ，Ｎｏ．１　Ｑｉａｎｗａｎ　Ｒｏａｄ　１　Ｑｉａｎｈａｉ　Ｓｈｅｎｚｈｅｎ－Ｈｏｎｇ　Ｋｏｎｇ　ｃｏｏｐｅｒａｔｉｏｎ　Ｄｉｓｔｒｉｃｔ　Ｇｕａｎｇｄｏｎｇ,,,,,,2023-05-29,1,,,,,ジハイテクノロジーシンセンカンパニーリミテッド,0
777,4010001235581,新規,0,2023-05-29,2023-05-29,株式会社明邦,,株式会社,東京都,文京区,音羽１丁目８番３号,,13,105,1120013,,,,,,,2023-05-29,1,,,,,メイホウ,0
778,4010001235623,新規,0,2023-05-29,2023-05-29,株式会社ＴｒｉＲｅｄ,,株式会社,東京都,千代田区,神田和泉町１番地６－１６ヤマトビル４０５,,13,101,1010024,,,,,,,2023-05-29,1,,,,,トライレッド,0
779,4010001235631,新規,0,2023-05-29,2023-05-29,宮智デザイン事務所株式会社,,株式会社,東京都,文京区,大塚５丁目２８番１２号吉田ビル３０２,,13,105,1120012,,,,,,,2023-05-29,1,,,,,ミヤチデザインジムショ,0
780,4010001235656,新規,0,2023-05-29,2023-05-29,株式会社東北十和田青葉会,,株式会社,東京都,中央区,京橋２丁目２番１号,,13,102,1040031,,,,,,,2023-05-29,1,,,,,トウホクトワダアオバカイ,0
781,4010001235689,新規,0,2023-05-29,2023-05-29,株式会社グリーンアップル,,株式会社,東京都,中央区,新富１丁目１５番１１－４０２号,,13,102,1040041,,,,,,,2023-05-29,1,,,,,グリーンアップル,0
782,4010003040716,新規,0,2023-05-29,2023-05-29,合同会社ＵＮＩＧＲＹ,,合同会社,東京都,中央区,銀座１丁目１２番４号Ｎ＆ＥＢＬＤ．６Ｆ,,13,102,1040061,,,,,,,2023-05-29,1,,,,,ユニグリー,0
783,4010005036753,新規,0,2023-05-29,2023-05-29,弁護士法人岩田合同法律事務所,,その他の設立登記法人,東京都,千代田区,丸の内２丁目４番１号丸の内ビルディング１５階,,13,101,1000005,,,,,,,2023-05-29,1,,,,,イワタゴウドウホウリツジムショ,0
790,4010401174470,新規,0,2023-05-29,2023-05-29,株式会社アシスト,,株式会社,東京都,港区,高輪１丁目５－１９ヒルトップ高輪３０３,,13,103,1080074,,,,,,,2023-05-29,1,,,,,アシスト,0
791,4010401174603,新規,0,2023-05-29,2023-05-29,ＩＭＤ株式会社,,株式会社,東京都,港区,六本木１丁目９番１８－２００１号,,13,103,1060032,,,,,,,2023-05-29,1,,,,,アイエムディー,0
793,4010403030176,新規,0,2023-05-29,2023-05-29,スタートワークス合同会社,,合同会社,東京都,港区,南青山２丁目２番１５号,,13,103,1070062,,,,,,,2023-05-29,1,,,,,スタートワークス,0
794,4010403030184,新規,0,2023-05-29,2023-05-29,ＹＤＥＳＩＧＮ合同会社,,合同会社,東京都,港区,北青山２丁目７－２０猪瀬ビル２階,,13,103,1070061,,,,,,,2023-05-29,1,,,,,ワイデザイン,0
797,4010405022080,新規,0,2023-05-29,2023-05-29,一般社団法人日中文化観光交流協会,,その他の設立登記法人,東京都,港区,西麻布４丁目１番１－８０２号,,13,103,1060031,,,,,,,2023-05-29,1,,,,,ニッチュウブンカカンコウコウリュウキョウカイ,0
815,4011001154631,新規,0,2023-05-29,2023-05-29,株式会社ＮＵＴＳ,,株式会社,東京都,渋谷区,渋谷２丁目１９番１５号宮益坂ビルディング６０９,,13,113,1500002,,,,,,,2023-05-29,1,,,,,ナッツ,0
816,4011001154672,新規,0,2023-05-29,2023-05-29,株式会社Ｋｉｄｓｗｅｌｌ,,株式会社,東京都,渋谷区,渋谷１丁目２３番２１号,,13,113,1500002,,,,,,,2023-05-29,1,,,,,キッズウェル,0
825,4011303004773,新規,0,2023-05-29,2023-05-29,合同会社Ａｒｏｕ,,合同会社,東京都,杉並区,下井草１丁目２３番地２６号,,13,115,1670022,,,,,,,2023-05-29,1,,,,,アロウ,0
827,4011503005621,新規,0,2023-05-29,2023-05-29,合同会社岩上コンサルティング,,合同会社,東京都,北区,赤羽西３丁目３５番１７号,,13,117,1150055,,,,,,,2023-05-29,1,,,,,イワカミコンサルティング,0
830,4011701026262,新規,0,2023-05-29,2023-05-29,株式会社ＡＫＧ,,株式会社,東京都,江戸川区,新堀１丁目４番地１０号,,13,123,1320001,,,,,,,2023-05-29,1,,,,,エイケイジイ,0
839,4013301050832,新規,0,2023-05-29,2023-05-29,久秀アセットマネジメント株式会社,,株式会社,東京都,豊島区,東池袋２丁目６２番８号,,13,116,1700013,,,,,,,2023-05-29,1,,,,,ヒサヒデアセットマネジメント,0
840,4013301050840,新規,0,2023-05-29,2023-05-29,エンジェルラウンド株式会社,,株式会社,東京都,豊島区,池袋２丁目４０－１３池袋デュープレックスビズ６Ｆ,,13,116,1710014,,,,,,,2023-05-29,1,,,,,エンジェルラウンド,0
846,4020001151778,新規,0,2023-05-29,2023-05-29,キューレック株式会社,,株式会社,神奈川県,横浜市保土ケ谷区,神戸町１３４番地９,,14,106,2400005,,,,,,,2023-05-29,1,,,,,キューレック,0
847,4020001151786,新規,0,2023-05-29,2023-05-29,ＤＣＤ　ＳＣＩＥＮＣＥ株式会社,,株式会社,神奈川県,川崎市幸区,中幸町３丁目２６－２４クレッセント川崎タワー１８０１,,14,132,2120012,,,,,,,2023-05-29,1,,,,,ディシーディサイエンス,0
859,4021003013132,新規,0,2023-05-29,2023-05-29,合同会社パートナー,,合同会社,神奈川県,平塚市,南金目１３８６番地の３,,14,203,2591201,,,,,,,2023-05-29,1,,,,,パートナー,0
865,4030001154061,新規,0,2023-05-29,2023-05-29,住まいのかけはし株式会社,,株式会社,埼玉県,和光市,中央１丁目１番２３号志幸２７ＤＯＭＩＮＩ２０５号室,,11,229,3510113,,,,,,,2023-05-29,1,,,,,スマイノカケハシ,0
866,4030001154078,新規,0,2023-05-29,2023-05-29,東日株式会社,,株式会社,埼玉県,上尾市,大字上野１６８番地８,,11,219,3620058,,,,,,,2023-05-29,1,,,,,トウニチ,0
867,4030001154086,新規,0,2023-05-29,2023-05-29,株式会社Ｎ．Ｂ．Ｒ,,株式会社,埼玉県,入間郡三芳町,大字上富９２７番地２,,11,324,3540045,,,,,,,2023-05-29,1,,,,,エヌドットビードットアール,0
868,4030001154111,新規,0,2023-05-29,2023-05-29,株式会社吉田工務店,,株式会社,埼玉県,所沢市,西狭山ケ丘２丁目２１０２番５号,,11,208,3591163,,,,,,,2023-05-29,1,,,,,ヨシダコウムテン,0
869,4030001154136,新規,0,2023-05-29,2023-05-29,株式会社ＬＵＣＡ,,株式会社,埼玉県,熊谷市,筑波２丁目５６番３号,,11,202,3600037,,,,,,,2023-05-29,1,,,,,ルカ,0
870,4030001154144,新規,0,2023-05-29,2023-05-29,株式会社ケイズリゾート,,株式会社,埼玉県,桶川市,大字篠津１５４番地の２,,11,231,3630003,,,,,,,2023-05-29,1,,,,,ケイズリゾート,0
873,4030003021813,新規,0,2023-05-29,2023-05-29,ＤＨＡ　ＭＩＲＡＩ合同会社,,合同会社,埼玉県,鴻巣市,上谷２１７５番地５パルファン２０２号,,11,217,3650027,,,,,,,2023-05-29,1,,,,,ディーエイチエイミライ,0
880,4040001128576,新規,0,2023-05-29,2023-05-29,潤祥株式会社,,株式会社,千葉県,松戸市,松戸新田５８７番地の１アンビシャス新八柱６０４号,,12,207,2702241,,,,,,,2023-05-29,1,,,,,ジュンショウ,0
886,4040003022703,新規,0,2023-05-29,2023-05-29,合同会社Ｒｅ・ｌｉｆｅ,,合同会社,千葉県,松戸市,松戸１４３４－２リバーシティ松戸３０８号,,12,207,2710092,,,,,,,2023-05-29,1,,,,,リライフ,0
887,4040005022016,新規,0,2023-05-29,2023-05-29,一般社団法人全国移動販売協会,,その他の設立登記法人,千葉県,白井市,堀込１丁目１－１９一越ビル１階,,12,232,2701424,,,,,,,2023-05-29,1,,,,,ゼンコクイドウハンバイキョウカイ,0
893,4050003007538,新規,0,2023-05-29,2023-05-29,合同会社ワールドグローバル,,合同会社,茨城県,下妻市,江２０８７番地１,,08,210,3040002,,,,,,,2023-05-29,1,,,,,ワールドグローバル,0
905,4100001036450,新規,0,2023-05-29,2023-05-29,株式会社Ｔｏｎｅ　Ｃｏｎｓｕｌｔｉｎｇ,,株式会社,長野県,飯田市,箕瀬町３丁目２５２９番地１,,20,205,3950054,,,,,,,2023-05-29,1,,,,,トーンコンサルティング,0
921,4120001255040,新規,0,2023-05-29,2023-05-29,株式会社布三,,株式会社,大阪府,大阪市東住吉区,公園南矢田１丁目３番１１号,,27,121,5460024,,,,,,,2023-05-29,1,,,,,ヌノサン,0
922,4120001255222,新規,0,2023-05-29,2023-05-29,アジトカヲリ株式会社,,株式会社,大阪府,大阪市中央区,平野町４丁目６番４号メディアバードビル５階,,27,128,5410046,,,,,,,2023-05-29,1,,,,,アジトカヲリ,0
923,4120001255247,新規,0,2023-05-29,2023-05-29,株式会社天馳産業,,株式会社,大阪府,大阪市阿倍野区,西田辺町２丁目１１－３－４０１号,,27,119,5450014,,,,,,,2023-05-29,1,,,,,テンチサンギョウ,0
925,4120003024154,新規,0,2023-05-29,2023-05-29,合同会社イミアル,,合同会社,大阪府,大阪市中央区,瓦町４丁目６番１５号瓦町浪速ビル２０２号室,,27,128,5410048,,,,,,,2023-05-29,1,,,,,イミアル,0
926,4120003024162,新規,0,2023-05-29,2023-05-29,合同会社ＣＲＡＮＥ　ＳＴＡＮＤＡＲＤ,,合同会社,大阪府,大阪市西淀川区,姫島３丁目１３番４１号サンドミール西淀８０３号室,,27,113,5550033,,,,,,,2023-05-29,1,,,,,クレインスタンダード,0
927,4120005023641,新規,0,2023-05-29,2023-05-29,ＮＰＯ法人ＣｏＣｏＴＥＬＩ,,その他の設立登記法人,大阪府,大阪市中央区,平野町１丁目７－１堺筋高橋ビル５階Ｂ－５０６,,27,128,5410046,,,,,,,2023-05-29,1,,,,,ココテリ,0
936,4140001130299,新規,0,2023-05-29,2023-05-29,株式会社ブロッサムルーツ,,株式会社,兵庫県,加西市,網引町７９１番地の１,,28,220,6752113,,,,,,,2023-05-29,1,,,,,ブロッサムルーツ,0
938,4140003019144,新規,0,2023-05-29,2023-05-29,合同会社アラタ,,合同会社,兵庫県,神戸市東灘区,田中町４丁目８－１,,28,101,6580081,,,,,,,2023-05-29,1,,,,,アラタ,0
940,4140005026634,新規,0,2023-05-29,2023-05-29,一般社団法人豊岡市国際交流協会,,その他の設立登記法人,兵庫県,豊岡市,城南町２３番６号豊岡健康福祉センター３階,,28,209,6680045,,,,,,,2023-05-29,1,,,,,トヨオカシコクサイコウリュウキョウカイ,0
950,4180001156472,新規,0,2023-05-29,2023-05-29,井田投資株式会社,,株式会社,愛知県,名古屋市東区,相生町３２番地の１プラウド高岳７０４号,,23,102,4610012,,,,,,,2023-05-29,1,,,,,イダトウシ,0
951,4180001156480,新規,0,2023-05-29,2023-05-29,株式会社ＯＪＣＯ,,株式会社,愛知県,名古屋市中区,千代田３丁目３１番４号,,23,106,4600012,,,,,,,2023-05-29,1,,,,,オジコ,0
952,4180001156489,新規,0,2023-05-29,2023-05-29,株式会社瑛翔,,株式会社,愛知県,名古屋市南区,阿原町３４番地の１,,23,112,4570063,,,,,,,2023-05-29,1,,,,,エイト,0
958,4180303005724,新規,0,2023-05-29,2023-05-29,合同会社ＮＡＫＡＮＯ,,合同会社,愛知県,西尾市,道光寺町藪後２０番地７,,23,213,4450811,,,,,,,2023-05-29,1,,,,,ナカノ,0
959,4190001030445,新規,0,2023-05-29,2023-05-29,株式会社ｓｕｐｅｒｓｔａｒ,,株式会社,三重県,桑名市,大字東方１３５５番地５,,24,205,5110811,,,,,,,2023-05-29,1,,,,,スーパースター,0
960,4200003005971,新規,0,2023-05-29,2023-05-29,合同会社Ｎｉｃｏ,,合同会社,岐阜県,岐阜市,南本荘二条通２１－１,,21,201,5008343,,,,,,,2023-05-29,1,,,,,ニコ,0
966,4240001061583,新規,0,2023-05-29,2023-05-29,株式会社ＹＯＲＯＺＵＹＡ,,株式会社,広島県,広島市中区,西白島町２２番５８－４１０号,,34,101,7300005,,,,,,,2023-05-29,1,,,,,ヨロズヤ,0
980,4290001101657,新規,0,2023-05-29,2023-05-29,株式会社琉空内装,,株式会社,福岡県,福岡市早良区,田隈３丁目３０番３０号,,40,137,8140174,,,,,,,2023-05-29,1,,,,,ルウアナイソウ,0
981,4290001101665,新規,0,2023-05-29,2023-05-29,株式会社プロクレア,,株式会社,福岡県,福岡市博多区,博多駅東３丁目９番７号,,40,132,8120013,,,,,,,2023-05-29,1,,,,,プロクレア,0
982,4290001101673,新規,0,2023-05-29,2023-05-29,株式会社Ｃｈｅｒｉｅ,,株式会社,福岡県,福岡市博多区,榎田１丁目３番５５－７０８号,,40,132,8120004,,,,,,,2023-05-29,1,,,,,シェリー,0
988,4290803004421,新規,0,2023-05-29,2023-05-29,合同会社ＢＬＡＣＫ　ＢＥＲＲＹ,,合同会社,福岡県,北九州市小倉北区,浅野３丁目８‐１ＡＩＭビル６階,,40,106,8020001,,,,,,,2023-05-29,1,,,,,ブラックベリー,0
990,4300001013314,新規,0,2023-05-29,2023-05-29,株式会社ライズシステム,,株式会社,佐賀県,佐賀市,東与賀町大字田中４２３番地８,,41,201,8402222,,,,,,,2023-05-29,1,,,,,ライズシステム,0
996,4360001032077,新規,0,2023-05-29,2023-05-29,Ｒ・Ｓ株式会社,,株式会社,沖縄県,糸満市,字糸満９８９番地７４,,47,210,9010361,,,,,,,2023-05-29,1,,,,,アールエス,0
1001,4360003012993,新規,0,2023-05-29,2023-05-29,合同会社くまタックスファーム,,合同会社,沖縄県,浦添市,屋富祖３丁目７番６号,,47,208,9012127,,,,,,,2023-05-29,1,,,,,クマタックスファーム,0
1002,4360003013001,新規,0,2023-05-29,2023-05-29,川平合同会社,,合同会社,沖縄県,石垣市,字川平９７１－４,,47,207,9070453,,,,,,,2023-05-29,1,,,,,カビラ,0
1004,4370001050004,新規,0,2023-05-29,2023-05-29,株式会社ＲｉｇｈｔＰｅａｃｅ,,株式会社,宮城県,名取市,増田３丁目３番１１号佐藤ビル２階,,04,207,9811224,,,,,,,2023-05-29,1,,,,,ライトピース,0
1009,4400003003088,新規,0,2023-05-29,2023-05-29,合同会社ジャパンフォレスト,,合同会社,岩手県,九戸郡軽米町,大字上舘第１地割７５番２２光陽ハイツ５号Ｆ,,03,501,0286301,,,,,,,2023-05-29,1,,,,,ジャパンフォレスト,0
1010,4410003003806,新規,0,2023-05-29,2023-05-29,合同会社Ａｎｉｑｕｅ,,合同会社,秋田県,北秋田市,阿仁比立内字積沢１２８,,05,213,0184735,,,,,,,2023-05-29,1,,,,,アニーク,0
1013,4430003015089,新規,0,2023-05-29,2023-05-29,合同会社ノストルム,,合同会社,北海道,札幌市中央区,北二条西３丁目１－３４正門館ビル９階,,01,101,0600002,,,,,,,2023-05-29,1,,,,,ノストルム,0
1025,4700150115779,新規,0,2023-05-29,2023-04-27,ＭＩＤ　ＴＯＷＥＲ　ＧＲＡＮＤ　住宅部会,,その他,東京都,中央区,月島１丁目２２－１,,13,102,1040052,,,,,,,2023-04-27,1,,,,,ミツドタワーグランドジユウタクブカイ,0
1026,4700150116538,新規,0,2023-05-29,2023-05-29,Ｈｅｆｅｉ　Ｙｅ　Ｊｉａ　Ｅｌｅｃｔｒｏｎｉｃ　Ｃｏｍｍｅｒｃｅ．，Ｌｔｄ,,外国会社等,,,,,,,,ｓｈｕｓｈａｎｑｕｗａｎｇｊｉａｎｇｘｉｌｕ２１８ｈａｏ　ｇａｎｇｈｕｉｇｕａｎｇｃｈａｎｇＢｑｕｓｈａｎｇｙｅＡｚｈｕａｎｇＢ－１４０３　ｈｅｆｅｉｓｈｉ　ａｎｈｕｉｓｈｅｎｇ　ＣＮ,,,,,,2023-05-29,1,,,,,ヘフェイイェジャイレクトゥロニックコマースリミテッド,0
1027,4700150116546,新規,0,2023-05-29,2023-05-29,ＧＵＡＮＧ　ＺＨＯＵ　ＳＨＩ　ＫＵＡ　ＬＩＮＧ　ＴＲＡＤＩＮＧ　ＣＯ．，ＬＴＤ,,外国会社等,,,,,,,,１　Ｆｌｏｏｒ，６，ＸＩ　ＪＩＵ　ＳＴＲＥＥＴ　ＳＨＡ　ＦＥＮＧ，ＪＩＮ　ＳＨＡ　ＳＴＲＥＥＴ　ＢＡＩ　ＹＵＮ　ＧＵＡＮＧＺＨＯＵ　ＧＵＡＮＧＤＯＮＧ　ＣＮ,,,,,,2023-05-29,1,,,,,グゥアンゾォウシクアリントゥレイディングカンパニーリミテッド,0
1034,5010001235606,新規,0,2023-05-29,2023-05-29,株式会社ドローンオペレーション,,株式会社,東京都,千代田区,富士見１丁目３番１１号富士見デュープレックスＢ’ｓ４Ｆ,,13,101,1020071,,,,,,,2023-05-29,1,,,,,ドローンオペレーション,0
1035,5010001235655,新規,0,2023-05-29,2023-05-29,株式会社Ｓｕｃｃｅｓｓｉｏｎ,,株式会社,東京都,中央区,銀座６丁目２番１号Ｄａｉｗａ銀座ビル８階,,13,102,1040061,,,,,,,2023-05-29,1,,,,,サクセッション,0
1040,5010003040698,新規,0,2023-05-29,2023-05-29,ＧＩＮＺＡ５合同会社,,合同会社,東京都,中央区,日本橋１丁目４番１号日本橋一丁目ビルディング,,13,102,1030027,,,,,,,2023-05-29,1,,,,,ギンザファイブ,0
1041,5010003040715,新規,0,2023-05-29,2023-05-29,ＬＮＣ合同会社,,合同会社,東京都,中央区,銀座８丁目１８番１２－１２０１号,,13,102,1040061,,,,,,,2023-05-29,1,,,,,エルエヌシー,0
1042,5010103002144,新規,0,2023-05-29,2023-05-29,Ｇｉｆｔｉｎｇ　ｐｌｕｓ合同会社,,合同会社,東京都,八王子市,楢原町２７９‐３,,13,201,1930803,,,,,,,2023-05-29,1,,,,,ギフティングプラス,0
1058,5010405022138,新規,0,2023-05-29,2023-05-29,一般社団法人オフィス日野原,,その他の設立登記法人,東京都,港区,白金２丁目５番１０－３６０３号,,13,103,1080072,,,,,,,2023-05-29,1,,,,,オフィスヒノハラ,0
1060,5010503007008,新規,0,2023-05-29,2023-05-29,ＯＦＦＩＣＥ　ＨＯＲＩＥ合同会社,,合同会社,東京都,台東区,池之端３丁目３―９花園アレイ１０７,,13,106,1100008,,,,,,,2023-05-29,1,,,,,オフィスホリエ,0
1062,5010601063167,新規,0,2023-05-29,2023-05-29,ボスサイズ株式会社,,株式会社,東京都,墨田区,石原２丁目２８番８－７０５号,,13,107,1300011,,,,,,,2023-05-29,1,,,,,ボスサイズ,0
1065,5010805003027,新規,0,2023-05-29,2023-05-29,ＮＰＯ法人かがやき健康予防促進会,,その他の設立登記法人,東京都,大田区,南六郷３丁目１６番２６号,,13,111,1440045,,,,,,,2023-05-29,1,,,,,カガヤキケンコウヨボウソクシンカイ,0
1068,5010901053124,新規,0,2023-05-29,2023-05-29,株式会社ワイツー,,株式会社,東京都,世田谷区,駒沢５丁目１４番１２号２１号室,,13,112,1540012,,,,,,,2023-05-29,1,,,,,ワイツー,0
1069,5010903008191,新規,0,2023-05-29,2023-05-29,合同会社ＲＩＫＡＩ,,合同会社,東京都,世田谷区,上馬２丁目４番１８号,,13,112,1540011,,,,,,,2023-05-29,1,,,,,リカイ,0
1075,5011001154630,新規,0,2023-05-29,2023-05-29,株式会社ナノマシン３６９,,株式会社,東京都,渋谷区,神宮前６丁目２３番４号桑野ビル２階,,13,113,1500001,,,,,,,2023-05-29,1,,,,,ナノマシンサンロクキュウ,0
1076,5011001154671,新規,0,2023-05-29,2023-05-29,株式会社ｂｅｓｏｋ,,株式会社,東京都,渋谷区,渋谷３丁目５－１６渋谷三丁目スクエアビル２Ｆ,,13,113,1500002,,,,,,,2023-05-29,1,,,,,ベソック,0
1077,5011001154696,新規,0,2023-05-29,2023-05-29,ｔｏｎｅ　ｇａｒｄｅｎ　ｇｒｏｕｐ株式会社,,株式会社,東京都,渋谷区,神泉町１番２２号コラム神泉１１０６,,13,113,1500045,,,,,,,2023-05-29,1,,,,,トーンガーデングループ,0
1079,5011101103017,新規,0,2023-05-29,2023-05-29,ＰｉｘＰｏｔ株式会社,,株式会社,東京都,新宿区,新宿５丁目１５－１４,,13,104,1600022,,,,,,,2023-05-29,1,,,,,ピクスポット,0
1082,5011501029349,新規,0,2023-05-29,2023-05-29,ｖｉｖｙ　ｗｏｒｋｓ株式会社,,株式会社,東京都,荒川区,西日暮里６丁目３４番４号,,13,118,1160013,,,,,,,2023-05-29,1,,,,,ヴィヴィーワークス,0
1085,5012401040569,新規,0,2023-05-29,2023-05-29,株式会社ｍｅａｎ　ｔｏ　ｂｅ,,株式会社,東京都,三鷹市,下連雀６丁目１７番３４号,,13,204,1810013,,,,,,,2023-05-29,1,,,,,ミーントゥービー,0
1094,5020001151760,新規,0,2023-05-29,2023-05-29,８ｓ株式会社,,株式会社,神奈川県,川崎市川崎区,東門前３丁目２番２号,,14,131,2100812,,,,,,,2023-05-29,1,,,,,エイツ,0
1095,5020001151777,新規,0,2023-05-29,2023-05-29,株式会社八六商店,,株式会社,神奈川県,横浜市港南区,丸山台３丁目１番６号,,14,111,2330013,,,,,,,2023-05-29,1,,,,,ハチロクショウテン,0
1096,5020001151785,新規,0,2023-05-29,2023-05-29,株式会社エステックサービス,,株式会社,神奈川県,横浜市港北区,鳥山町１６２番地１,,14,109,2220035,,,,,,,2023-05-29,1,,,,,エステックサービス,0
1098,5021001079158,新規,0,2023-05-29,2023-05-29,株式会社ＰＲＯＭＯＮＥＴ,,株式会社,神奈川県,藤沢市,藤沢６０７番地の１,,14,205,2510052,,,,,,,2023-05-29,1,,,,,プロモネット,0
1099,5021001079166,新規,0,2023-05-29,2023-05-29,株式会社ｆｅｅｌ　ｆｒｅｅ,,株式会社,神奈川県,小田原市,早川１丁目１５番地の４,,14,206,2500021,,,,,,,2023-05-29,1,,,,,フィールフリー,0
1102,5021003013131,新規,0,2023-05-29,2023-05-29,合同会社ＡＲＣＨ,,合同会社,神奈川県,茅ヶ崎市,浜見平１５番３４号,,14,207,2530062,,,,,,,2023-05-29,1,,,,,アーチ,0
1107,5030001154052,新規,0,2023-05-29,2023-05-29,飛騰商事株式会社,,株式会社,埼玉県,川越市,大字大仙波３４７番地１９,,11,201,3500032,,,,,,,2023-05-29,1,,,,,ヒトウショウジ,0
1108,5030001154077,新規,0,2023-05-29,2023-05-29,株式会社杜仕安,,株式会社,埼玉県,川口市,北園町４１番８号,,11,203,3330862,,,,,,,2023-05-29,1,,,,,トシアン,0
1109,5030001154110,新規,0,2023-05-29,2023-05-29,株式会社Ｌｕｃｋ　Ｂｒｉｄｇｅ,,株式会社,埼玉県,さいたま市北区,吉野町１丁目３５９番地３６,,11,102,3310811,,,,,,,2023-05-29,1,,,,,ラックブリッジ,0
1110,5030001154127,新規,0,2023-05-29,2023-05-29,株式会社ＲＵＳＨ,,株式会社,埼玉県,所沢市,小手指町１丁目１４－４ラシュレ３０５号室,,11,208,3591141,,,,,,,2023-05-29,1,,,,,ラッシュ,0
1111,5030001154151,新規,0,2023-05-29,2023-05-29,アルストロメディア株式会社,,株式会社,埼玉県,坂戸市,関間４丁目４番２１号,,11,239,3500215,,,,,,,2023-05-29,1,,,,,アルストロメディア,0
1118,5030003021812,新規,0,2023-05-29,2023-05-29,合同会社ＡＩＦ,,合同会社,埼玉県,さいたま市桜区,田島２丁目１２番地１０－５０２号,,11,106,3380837,,,,,,,2023-05-29,1,,,,,アイフ,0
1119,5030005021265,新規,0,2023-05-29,2023-05-29,特定非営利活動法人あすてりずむ,,その他の設立登記法人,埼玉県,さいたま市見沼区,大字御蔵１１１３番地６９,,11,104,3370033,,,,,,,2023-05-29,1,,,,,アステリズム,0
1120,5030005021281,新規,0,2023-05-29,2023-05-29,ニッショウビル１１管理組合法人,,その他の設立登記法人,埼玉県,川口市,東川口２丁目６番８号,,11,203,3330801,,,,,,,2023-05-29,1,,,,,ニッショウビルジュウイチ,0
1129,5040003022693,新規,0,2023-05-29,2023-05-29,合同会社Ｏｆｆ‐Ｌｅａｓｈ,,合同会社,千葉県,山武郡横芝光町,木戸台１８９２番地１,,12,410,2891744,,,,,,,2023-05-29,1,,,,,オフリーシュ,0
1130,5040003022702,新規,0,2023-05-29,2023-05-29,合同会社ミレイ,,合同会社,千葉県,船橋市,浜町２丁目２番５－１４１５号,,12,204,2730012,,,,,,,2023-05-29,1,,,,,ミレイ,0
1135,5050001052898,新規,0,2023-05-29,2023-05-29,株式会社ウゴーク,,株式会社,茨城県,神栖市,平泉９０３番地２１０,,08,232,3140146,,,,,,,2023-05-29,1,,,,,ウゴーク,0
1143,5070002013971,新規,0,2023-05-29,2023-05-29,有限会社冨士見屋商店,,有限会社,群馬県,高崎市,金古町２６８番地の１,,10,202,3703511,,,,,,,2023-05-29,1,,,,,フジミヤショウテン,0
1147,5080105006343,新規,0,2023-05-29,2023-05-29,一般社団法人富士しらす鰻採捕組合,,その他の設立登記法人,静岡県,富士市,松岡１０７６番地の７,,22,210,4160909,,,,,,,2023-05-29,1,,,,,フジシラスウナギサイホクミアイ,0
1148,5090001018144,新規,0,2023-05-29,2023-05-29,株式会社ＹＫホーム,,株式会社,山梨県,笛吹市,春日居町国府２１８,,19,211,4060014,,,,,,,2023-05-29,1,,,,,ワイケイホーム,0
1155,5120001255262,新規,0,2023-05-29,2023-05-29,株式会社Ｇａｒｄｅｎ,,株式会社,大阪府,大阪市西成区,松２丁目１番１４号,,27,122,5570034,,,,,,,2023-05-29,1,,,,,ガーデン,0
1160,5120101067599,新規,0,2023-05-29,2023-05-29,株式会社Ｎ．Ｓｔａｒｔ,,株式会社,大阪府,堺市東区,南野田５０番地１４,,27,143,5998124,,,,,,,2023-05-29,1,,,,,エヌスタート,0
1164,5130001074331,新規,0,2023-05-29,2023-05-29,アスリートキャリアサポート株式会社,,株式会社,京都府,京都市伏見区,横大路下三栖城ノ前町５８番１,,26,109,6128243,,,,,,,2023-05-29,1,,,,,アスリートキャリアサポート,0
1165,5130001074397,新規,0,2023-05-29,2023-05-29,ハヤトインターナショナル株式会社,,株式会社,京都府,京田辺市,山手西２丁目１６番地１,,26,211,6100355,,,,,,,2023-05-29,1,,,,,ハヤトインターナショナル,0
1174,5140003019135,新規,0,2023-05-29,2023-05-29,合同会社パートナーズ,,合同会社,兵庫県,南あわじ市,榎列大榎列５８３－１サニーウェル２号,,28,224,6560426,,,,,,,2023-05-29,1,,,,,パートナーズ,0
1178,5150001026421,新規,0,2023-05-29,2023-05-29,株式会社オールドルーキー,,株式会社,奈良県,天理市,前栽町１０４番地１クラウンハイム天理８０１,,29,204,6320094,,,,,,,2023-05-29,1,,,,,オールドルーキー,0
1181,5170001017625,新規,0,2023-05-29,2023-05-29,株式会社Ｃａｎｃｅｒ　Ｊａｐａｎ,,株式会社,和歌山県,新宮市,下田２丁目３番２号,,30,207,6470042,,,,,,,2023-05-29,1,,,,,キャンサージャパン,0
1183,5180001156488,新規,0,2023-05-29,2023-05-29,株式会社クロスコート,,株式会社,愛知県,名古屋市東区,砂田橋３丁目２番１０７－１４０１号,,23,102,4610045,,,,,,,2023-05-29,1,,,,,クロスコート,0
1188,5180303005723,新規,0,2023-05-29,2023-05-29,ＮＡＭＩＫＡＷＡ　ＥＸＰＲＥＳＳ合同会社,,合同会社,愛知県,高浜市,湯山町４丁目７番地２（県営葭池住宅１０棟２０７号）,,23,227,4441332,,,,,,,2023-05-29,1,,,,,ナミカワエキスプレス,0
1196,5240001061574,新規,0,2023-05-29,2023-05-29,株式会社Ｎａｔｕｒａｌ　Ｂｏｄｙ,,株式会社,広島県,東広島市,福富町下竹仁１７４５番地,,34,212,7392302,,,,,,,2023-05-29,1,,,,,ナチュラルボディ,0
1204,5290001101631,新規,0,2023-05-29,2023-05-29,ゼロから創める株式会社,,株式会社,福岡県,福岡市早良区,荒江３丁目１１番１５－３０１号,,40,137,8140021,,,,,,,2023-05-29,1,,,,,ゼロカラハジメル,0
1205,5290001101656,新規,0,2023-05-29,2023-05-29,株式会社ワンエイト,,株式会社,福岡県,福岡市博多区,中洲５丁目６番２８号リバーフロント中洲川端５階,,40,132,8100801,,,,,,,2023-05-29,1,,,,,ワンエイト,0
1206,5290001101664,新規,0,2023-05-29,2023-05-29,株式会社Ｃｙａｎ,,株式会社,福岡県,福岡市南区,柳河内２丁目６番８１号,,40,134,8150063,,,,,,,2023-05-29,1,,,,,シアン,0
1210,5290003013957,新規,0,2023-05-29,2023-05-29,合同会社ＳＨＩ,,合同会社,福岡県,八女市,豊福３０６番地３,,40,210,8340016,,,,,,,2023-05-29,1,,,,,エスエイチアイ,0
1213,5310001018435,新規,0,2023-05-29,2023-05-29,株式会社ＫＯＵ　ＨＯＭＥ,,株式会社,長崎県,諫早市,長田町２２５６－１,,42,204,8590301,,,,,,,2023-05-29,1,,,,,コウホーム,0
1223,5350001018373,新規,0,2023-05-29,2023-05-29,エコライズ株式会社,,株式会社,宮崎県,都城市,姫城町３８街区６の１号,,45,202,8850073,,,,,,,2023-05-29,1,,,,,エコライズ,0
1225,5360001032068,新規,0,2023-05-29,2023-05-29,ＡＣＳホールディングス株式会社,,株式会社,沖縄県,那覇市,上之屋１丁目１７番１０号,,47,201,9000011,,,,,,,2023-05-29,1,,,,,エーシーエスホールディングス,0
1226,5360001032076,新規,0,2023-05-29,2023-05-29,株式会社ナナミコーポレーション,,株式会社,沖縄県,宮古島市,平良字西里７２２番地２,,47,214,9060012,,,,,,,2023-05-29,1,,,,,ナナミコーポレーション,0
1229,5370003006151,新規,0,2023-05-29,2023-05-29,ＨＳＮ．ｇｒｏｕｐ合同会社,,合同会社,宮城県,大崎市,松山金谷字二ノ沢５４番地,,04,215,9871303,,,,,,,2023-05-29,1,,,,,エイチエスエヌグループ,0
1234,5400001016264,新規,0,2023-05-29,2023-05-29,株式会社秀真,,株式会社,岩手県,盛岡市,大館町２３番６２号マンションマルニ２０１,,03,201,0200147,,,,,,,2023-05-29,1,,,,,ホツマ,0
1239,5420003002731,新規,0,2023-05-29,2023-05-29,合同会社Ａｌｌ‐ｇｏｏｏ,,合同会社,青森県,三沢市,松園町２丁目１９番９号,,02,207,0330037,,,,,,,2023-05-29,1,,,,,アルグー,0
1242,5430001089200,新規,0,2023-05-29,2023-05-29,株式会社英子,,株式会社,北海道,恵庭市,島松寿町１丁目１１番地５,,01,231,0611355,,,,,,,2023-05-29,1,,,,,エイコ,0
1251,5460301005151,新規,0,2023-05-29,2023-05-29,株式会社ＭＥＮ’ＴＥＬ,,株式会社,北海道,北見市,北七条西２丁目７番地８,,01,208,0900047,,,,,,,2023-05-29,1,,,,,メンテル,0
1261,5700150116537,新規,0,2023-05-29,2023-05-29,ｙｉ　ｗｕ　ｓｈｉ　ｍｉ　ｌｅｉ　ｄｉａｎ　ｚｉ　ｓｈａｎｇ　ｗｕ　ｙｏｕ　ｘｉａｎ　ｇｏｎｇ　ｓｉ,,外国会社等,,,,,,,,ｂｅｉ　ｙｕａｎ　ｊｉｅ　ｄａｏ　ｃｈｕｎ　ｈｕａ　ｌｕ　５８８　ｈａｏ　Ａ３　ｚｈｕａｎｇ　６０９　ｙｉ　ｗｕ　ｓｈｉ　ｚｈｅ　ｊｉａｎｇ　ｓｈｅｎｇ　ＣＮ,,,,,,2023-05-29,1,,,,,イウシミレイデンシショウムユウゲンコウシ,0
1262,5700150116545,新規,0,2023-05-29,2023-05-29,ＧＡＮＺＨＯＵＳＨＩ　ＢＡＩＸＵＮＭＡＯＹＩ　ＹＯＵＸＩＡＮＧＯＮＧＳＩ,,外国会社等,,,,,,,,Ｎｏ．７０　Ｓｈｅｎｇｔａ　Ｗｅｓｔ　Ｒｏａｄ，Ｊｉａｄｉｎｇ　Ｔｏｗｎ，Ｘｉｎｆｅｎｇ　Ｃｏｕｎｔｙ，Ｇａｎｚｈｏｕ　Ｃｉｔｙ，Ｊｉａｎｇｘｉ　Ｐｒｏｖｉｎｃｅ，ＣＮ,,,,,,2023-05-29,1,,,,,ガンヂョウシバイシュンマオイユウゲンコウシ,0
1263,5700150116553,新規,0,2023-05-29,2023-05-29,ｓｈｅｎｚｈｅｎｓｈｉｚｈｉｔｏｎｇｗａｎｇｌｕｏｙｏｕｘｉａｎｇｏｎｇｓｉ,,外国会社等,,,,,,,,ｌｏｎｇｇａｎｇｑｕｌｏｎｇｇａｎｇｊｉｅｄａｏｎａｎｌｉａｎｓｈｅｑｕｌｏｎｇｃｈｅｎｇｄａｄａｏ３１ｈａｏ　ｊｉｎｄｉｋｕａｉｘｕａｎｇｕａｎｇｃｈａｎｇ４ｄｏｎｇ２１１１　ｓｈｅｎｚｈｅｎ　ｇｕａｎｇｄｏｎｇ　５１８０００　ＣＮ,,,,,,2023-05-29,1,,,,,シェンジェンシージートンワンルオヨウシエンゴンスー,0
1268,6010001235150,新規,0,2023-05-29,2023-05-29,匯仁株式会社,,株式会社,東京都,中央区,日本橋小伝馬町１－１日本橋末広ビル５０２,,13,102,1030001,,,,,,,2023-05-29,1,,,,,カイジン,0
1269,6010001235605,新規,0,2023-05-29,2023-05-29,株式会社メセジャパン,,株式会社,東京都,中央区,日本橋堀留町１丁目１０番１号カクタビル２Ｆ,,13,102,1030012,,,,,,,2023-05-29,1,,,,,メセジャパン,0
1272,6010003040706,新規,0,2023-05-29,2023-05-29,合同会社ＪＲＷＤファンド第７号,,合同会社,東京都,中央区,日本橋１丁目４番１号日本橋一丁目ビルディング,,13,102,1030027,,,,,,,2023-05-29,1,,,,,ジェイアールダブリューディーダイナナゴウ,0
1290,6010403030174,新規,0,2023-05-29,2023-05-29,ＤＫＪ　Ｃｏｎｓｕｌｔｉｎｇ合同会社,,合同会社,東京都,港区,南青山５丁目１７番２号,,13,103,1070062,,,,,,,2023-05-29,1,,,,,ディーケージェーコンサルティング,0
1291,6010405022178,新規,0,2023-05-29,2023-05-29,銀座６丁目一般社団法人,,その他の設立登記法人,東京都,港区,六本木１丁目６番１号泉ガーデンタワー,,13,103,1060032,,,,,,,2023-05-29,1,,,,,ギンザロクチョウメ,0
1296,6010701044330,新規,0,2023-05-29,2023-05-29,株式会社クイックパーソン,,株式会社,東京都,品川区,旗の台４丁目４番１５号,,13,109,1420064,,,,,,,2023-05-29,1,,,,,クイックパーソン,0
1307,6011001154547,新規,0,2023-05-29,2023-05-29,ＡＮＤ　ＰＡＲＫＯＵＲ株式会社,,株式会社,東京都,渋谷区,千駄ヶ谷３丁目５１番１０号,,13,113,1510051,,,,,,,2023-05-29,1,,,,,アンドパルクール,0
1311,6011101103008,新規,0,2023-05-29,2023-05-29,株式会社ＡＭＯ,,株式会社,東京都,新宿区,新宿１丁目２９－５－４０８室,,13,104,1600022,,,,,,,2023-05-29,1,,,,,アモー,0
1312,6011101103016,新規,0,2023-05-29,2023-05-29,株式会社ＯＫ,,株式会社,東京都,新宿区,大久保１丁目１５番１８号,,13,104,1690072,,,,,,,2023-05-29,1,,,,,オーケー,0
1313,6011101103032,新規,0,2023-05-29,2023-05-29,株式会社ＳＫ　ＳＨＩＰＰＩＮＧ,,株式会社,東京都,新宿区,西新宿３丁目３番１３号西新宿水間ビル２Ｆ,,13,104,1600023,,,,,,,2023-05-29,1,,,,,エスケーシッピング,0
1314,6011103013080,新規,0,2023-05-29,2023-05-29,Ｓｅｒｅｎｄｉｐｉｔｙ　Ｎｅｗ　Ｙｏｒｋ合同会社,,合同会社,東京都,新宿区,西新宿３丁目３番１３号西新宿水間ビル６階,,13,104,1600023,,,,,,,2023-05-29,1,,,,,セレンディピティニューヨーク,0
1321,6011501029331,新規,0,2023-05-29,2023-05-29,株式会社ＹＵＫＩ電気,,株式会社,東京都,荒川区,町屋４丁目３番１２号,,13,118,1160001,,,,,,,2023-05-29,1,,,,,ユキデンキ,0
1323,6011601026848,新規,0,2023-05-29,2023-05-29,株式会社ＰＩＮＫ　ＦＲＥＡＫ,,株式会社,東京都,練馬区,北町８丁目１１番１５号,,13,120,1790081,,,,,,,2023-05-29,1,,,,,ピンクフリーク,0
1327,6012401040551,新規,0,2023-05-29,2023-05-29,株式会社グローバルネットミュージック,,株式会社,東京都,武蔵野市,中町１丁目１０番６号三鷹北口共同ビル７０１,,13,203,1800006,,,,,,,2023-05-29,1,,,,,グローバルネットミュージック,0
1344,6020001151784,新規,0,2023-05-29,2023-05-29,株式会社ＨＳＣ,,株式会社,神奈川県,横浜市青葉区,しらとり台６１番地２,,14,117,2270054,,,,,,,2023-05-29,1,,,,,エイチエスシー,0
1345,6020001151792,新規,0,2023-05-29,2023-05-29,株式会社富山,,株式会社,神奈川県,横浜市中区,長者町９丁目１７３番,,14,104,2310033,,,,,,,2023-05-29,1,,,,,トヤマ,0
1352,6021001079116,新規,0,2023-05-29,2023-05-29,株式会社花月,,株式会社,神奈川県,相模原市緑区,与瀬６７３,,14,151,2520171,,,,,,,2023-05-29,1,,,,,カゲツ,0
1360,6030001154068,新規,0,2023-05-29,2023-05-29,ＫＯＹＡＭＡ　ＡＺＡＭ　ＲＥＨＭＡＮ株式会社,,株式会社,埼玉県,久喜市,菖蒲町新堀２３７３番地２,,11,232,3460105,,,,,,,2023-05-29,1,,,,,コヤマアザムレヘマン,0
1361,6030001154118,新規,0,2023-05-29,2023-05-29,株式会社ＬｕＱｅｎ,,株式会社,埼玉県,春日部市,大場１１８６番地１,,11,214,3440021,,,,,,,2023-05-29,1,,,,,ラケン,0
1362,6030001154126,新規,0,2023-05-29,2023-05-29,株式会社Ｅｎｄｅｒ,,株式会社,埼玉県,川口市,東領家３丁目２３番１１号コーポ栄１０１,,11,203,3320003,,,,,,,2023-05-29,1,,,,,エンダー,0
1363,6030001154142,新規,0,2023-05-29,2023-05-29,リアルリンクス株式会社,,株式会社,埼玉県,さいたま市岩槻区,本町１丁目４番２１号喜楽ビル３０１,,11,110,3390057,,,,,,,2023-05-29,1,,,,,リアルリンクス,0
1364,6030001154150,新規,0,2023-05-29,2023-05-29,株式会社イーズ,,株式会社,埼玉県,川口市,元郷５丁目２４番１０号,,11,203,3320011,,,,,,,2023-05-29,1,,,,,イーズ,0
1365,6030001154159,新規,0,2023-05-29,2023-05-29,株式会社ＡＤＡＭＡＳ,,株式会社,埼玉県,さいたま市南区,文蔵２丁目２３－１－２１０号,,11,108,3360025,,,,,,,2023-05-29,1,,,,,アダマス,0
1371,6030003021844,新規,0,2023-05-29,2023-05-29,合同会社ＣｏＣｏ,,合同会社,埼玉県,川口市,青木３丁目７番３０号,,11,203,3320031,,,,,,,2023-05-29,1,,,,,ココ,0
1372,6030005021272,新規,0,2023-05-29,2023-05-29,一般財団法人こもれび,,その他の設立登記法人,埼玉県,所沢市,大字山口１０６２番地の１１,,11,208,3591145,,,,,,,2023-05-29,1,,,,,コモレビ,0
1382,6060001036024,新規,0,2023-05-29,2023-05-29,株式会社宇井興業,,株式会社,栃木県,宇都宮市,石井町４８７５番地２,,09,201,3210912,,,,,,,2023-05-29,1,,,,,ウイコウギョウ,0
1386,6070003004952,新規,0,2023-05-29,2023-05-29,ＨＡＮＪＲＡ　ＭＯＴＯＲＳ合同会社,,合同会社,群馬県,伊勢崎市,安堀町１８９７番地３,,10,204,3720007,,,,,,,2023-05-29,1,,,,,ハンジラモータース,0
1390,6080103002814,新規,0,2023-05-29,2023-05-29,合同会社富士山飲料,,合同会社,静岡県,御殿場市,川島田２５２番地の１７,,22,215,4120045,,,,,,,2023-05-29,1,,,,,フジサンインリョウ,0
1394,6090005007571,新規,0,2023-05-29,2023-05-29,特定非営利活動法人アエラスポーツアカデミー,,その他の設立登記法人,山梨県,富士吉田市,上吉田東３丁目１番６８号,,19,202,4030032,,,,,,,2023-05-29,1,,,,,アエラスポーツアカデミー,0
1396,6100001036440,新規,0,2023-05-29,2023-05-29,株式会社マネサポ,,株式会社,長野県,岡谷市,赤羽１丁目５番３５号,,20,204,3940002,,,,,,,2023-05-29,1,,,,,マネサポ,0
1397,6100001036449,新規,0,2023-05-29,2023-05-29,株式会社しなふー,,株式会社,長野県,千曲市,大字稲荷山９９６－１,,20,218,3870021,,,,,,,2023-05-29,1,,,,,シナフー,0
1414,6120001255212,新規,0,2023-05-29,2023-05-29,株式会社Ｖｉｄａ　Ｆｅｌｉｚ,,株式会社,大阪府,門真市,脇田町１２番３号２階,,27,223,5710011,,,,,,,2023-05-29,1,,,,,ヴィーダフェリス,0
1415,6120001255245,新規,0,2023-05-29,2023-05-29,株式会社フェアパート,,株式会社,大阪府,大阪市福島区,福島６丁目８番１３－７０７号,,27,103,5530003,,,,,,,2023-05-29,1,,,,,フェアパート,0
1416,6120001255253,新規,0,2023-05-29,2023-05-29,傲庭株式会社,,株式会社,大阪府,大阪市西成区,鶴見橋２丁目１１番３３－３０１号,,27,122,5570031,,,,,,,2023-05-29,1,,,,,ゴウテイ,0
1418,6120003024152,新規,0,2023-05-29,2023-05-29,合同会社Ｌｉｂｒｅ,,合同会社,大阪府,大阪市北区,梅田１丁目２－２大阪駅前第２ビル１２－１２,,27,127,5300001,,,,,,,2023-05-29,1,,,,,リブレ,0
1423,6130001074388,新規,0,2023-05-29,2023-05-29,株式会社ｇｌｏｗ　ｕｓ,,株式会社,京都府,八幡市,八幡樋ノ口３番地の２０,00130644,26,210,6130852,,,,,,,2023-05-29,1,,,,,グローアス,0
1429,6140003019142,新規,0,2023-05-29,2023-05-29,ｓｕｍｉｃａ合同会社,,合同会社,兵庫県,西宮市,甲子園浜田町５番２２－３０６号,,28,204,6638167,,,,,,,2023-05-29,1,,,,,スミカ,0
1434,6160001025066,新規,0,2023-05-29,2023-05-29,株式会社Ｋ‐ＨＥＡＤ,,株式会社,滋賀県,野洲市,行畑２丁目３番３６号,,25,210,5202341,,,,,,,2023-05-29,1,,,,,ケーヘッド,0
1440,6180001156479,新規,0,2023-05-29,2023-05-29,株式会社ひろせ工業,,株式会社,愛知県,東海市,名和町長生９番地の５,,23,222,4760002,,,,,,,2023-05-29,1,,,,,ヒロセコウギョウ,0
1444,6180003025277,新規,0,2023-05-29,2023-05-29,合同会社和田一家,,合同会社,愛知県,名古屋市北区,山田１丁目１番３号,,23,103,4620810,,,,,,,2023-05-29,1,,,,,ワダイッカ,0
1445,6180003025285,新規,0,2023-05-29,2023-05-29,ＧＷＯＲＫＳ合同会社,,合同会社,愛知県,名古屋市東区,矢田南２丁目８番２０号－５,,23,102,4610048,,,,,,,2023-05-29,1,,,,,ジーワークス,0
1446,6180305009481,新規,0,2023-05-29,2023-05-29,一般社団法人あしもとテラス,,その他の設立登記法人,愛知県,豊田市,乙ケ林町鰐作２８０番２２,,23,211,4700552,,,,,,,2023-05-29,1,,,,,アシモトテラス,0
1466,6290001101655,新規,0,2023-05-29,2023-05-29,ＥＦアセットマネジメント株式会社,,株式会社,福岡県,福岡市早良区,百道２丁目４番４１号,,40,137,8140006,,,,,,,2023-05-29,1,,,,,イーエフアセットマネジメント,0
1467,6290001101671,新規,0,2023-05-29,2023-05-29,株式会社Ｋ＆Ｑ,,株式会社,福岡県,福岡市西区,今津４７９８番地４５５,,40,135,8190165,,,,,,,2023-05-29,1,,,,,ケーアンドキュー,0
1470,6290003013948,新規,0,2023-05-29,2023-05-29,Ｄ＆Ｎ合同会社,,合同会社,福岡県,福岡市博多区,吉塚２丁目３番３３－３０２号,,40,132,8120041,,,,,,,2023-05-29,1,,,,,ディーアンドエヌ,0
1471,6290003013956,新規,0,2023-05-29,2023-05-29,快食商事合同会社,,合同会社,福岡県,福岡市東区,原田１丁目４２－５キャンパスシティ５４２,,40,131,8120063,,,,,,,2023-05-29,1,,,,,カイショクショウジ,0
1472,6290003013964,新規,0,2023-05-29,2023-05-29,ＣａｔＤＩＹ合同会社,,合同会社,福岡県,糟屋郡志免町,別府西３丁目１４－１－４１６,,40,343,8112232,,,,,,,2023-05-29,1,,,,,キャットディーアイワイ,0
1475,6320001019786,新規,0,2023-05-29,2023-05-29,株式会社グライフ,,株式会社,大分県,中津市,大字大貞１１５番地,,44,203,8710153,,,,,,,2023-05-29,1,,,,,グライフ,0
1484,6340005009609,新規,0,2023-05-29,2023-05-29,一般社団法人チーム西方,,その他の設立登記法人,鹿児島県,大島郡瀬戸内町,大字久慈５３９番地,,46,525,8941851,,,,,,,2023-05-29,1,,,,,チームニシカタ,0
1485,6350001018372,新規,0,2023-05-29,2023-05-29,株式会社仕立,,株式会社,宮崎県,都城市,八幡町１１－２０,,45,202,8850075,,,,,,,2023-05-29,1,,,,,シタテ,0
1487,6360001032075,新規,0,2023-05-29,2023-05-29,Ｗａｒｒｅｎ’ｓ　Ｐｌａｃｅ株式会社,,株式会社,沖縄県,名護市,宮里１丁目１６番９号,,47,209,9050011,,,,,,,2023-05-29,1,,,,,ウォーレンズプレイス,0
1490,6360003012991,新規,0,2023-05-29,2023-05-29,アレシア合同会社,,合同会社,沖縄県,宮古島市,平良字西里７８４－１,,47,214,9060012,,,,,,,2023-05-29,1,,,,,アレシア,0
1492,6380001033724,新規,0,2023-05-29,2023-05-29,株式会社稲穂工業,,株式会社,福島県,南相馬市,鹿島区西町１丁目８３番地ドミール西町３０１,,07,212,9792334,,,,,,,2023-05-29,1,,,,,イナホコウギョウ,0
1493,6390001017263,新規,0,2023-05-29,2023-05-29,株式会社相馬板金,,株式会社,山形県,天童市,久野本４丁目８番２６号,,06,210,9940012,,,,,,,2023-05-29,1,,,,,ソウマバンキン,0
1496,6420003002730,新規,0,2023-05-29,2023-05-29,郭瑩海釣り観光合同会社,,合同会社,青森県,青森市,栄町２丁目２番８号,,02,201,0300903,,,,,,,2023-05-29,1,,,,,カクエイウミヅリカンコウ,0
1497,6430001089199,新規,0,2023-05-29,2023-05-29,株式会社ＡＲＣ　ＤＲＥＡＭＳ,,株式会社,北海道,札幌市中央区,南五条東３丁目１０－１クラシックハイム３０１,,01,101,0600055,,,,,,,2023-05-29,1,,,,,アークドリームス,0
1498,6430001089208,新規,0,2023-05-29,2023-05-29,株式会社幸愛,,株式会社,北海道,苫小牧市,住吉町１丁目３番５－４０１号,,01,213,0530046,,,,,,,2023-05-29,1,,,,,ユナ,0
1499,6430001089224,新規,0,2023-05-29,2023-05-29,株式会社ポラリス,,株式会社,北海道,札幌市南区,澄川五条１１丁目１７番３２号,,01,106,0050005,,,,,,,2023-05-29,1,,,,,ポラリス,0
1509,6700150116536,新規,0,2023-05-29,2023-05-29,ｗｕ　ｈａｎ　ｗａｎ　ｈｅ　ｈｏｎｇ　ｙｕ　ｄｉａｎ　ｚｉ　ｓｈａｎｇ　ｗｕ　Ｃｏ．Ｌｔｄ,,外国会社等,,,,,,,,ｊｉｎｇ　ｊｉ　ｋａｉ　ｆａ　ｑｕ　ｊｕ　ｌｏｎｇ　ｄａ　ｄａｏ　ｔｅ　８　ｈａｏ　Ｆ　ｙａｎｇ　ｇｕａｎｇ　ｃｈｅｎｇ　１９　ｄｏｎｇ　１　ｄａｎ　ｙｕａｎ　１０　ｃｅｎｇ　１　ｓｈｉ　ｈｕａｎｇ　ｐｉ　ｑｕ　ｐａｎ　ｌｏｎｇ　ｃｈｅｎｇ　ｗｕ　ｈａｎ　ｓｈｉ　ＣＮ,,,,,,2023-05-29,1,,,,,ウハンワンヘホンユデンシショウムカンパニーリミテッド,0
1510,6700150116544,新規,0,2023-05-29,2023-05-29,ｇｕａｎｇｚｈｏｕｓｈｉ　ｋａｉｑｉｍａｏｙｉ　ｙｏｕｘｉａｎｇｏｎｇｓｉ,,外国会社等,,,,,,,,ｇｕａｎｇｚｈｏｕｓｈｉ　ｈａｉｚｈｕｑｕｙｉｊｉｎｇｌｕ２３６／２３８ｈａｏ６０９５ｆａｎｇ,,,,,,2023-05-29,1,,,,,グゥアンゾォウシカイチマオイユウゲンコウシ,0
1511,6700150116552,新規,0,2023-05-29,2023-05-29,Ｓｈｅｎｚｈｅｎｓｈｉｘｕｈａｎｄｉａｎｚｉｓｈａｎｇｗｕｙｏｕｘｉａｎｚｅｒｅｎｇｏｎｇｓｉ,,外国会社等,,,,,,,,Ｄａｌｉｎｇ　Ｃｏｍｍｕｎｉｔｙ　Ｍａｎｓｉｏｎ，１８６６，Ｈｕａｙｕａｎ　Ｓｏｕｔｈ　Ｄｉｓｔｒｉｃｔ，Ｌｏｎｇｈｕａ　Ｄｉｓｔｒｉｃｔ，２３Ａ　ａｎｄ　２３Ｂ，Ｂｕｉｌｄｉｎｇ　２，Ｂｌｏｃｋ　Ａ　５１８１１０　ＣＮ,,,,,,2023-05-29,1,,,,,シェンジェンシーシーハンディエンズーシャンウーヨウシエンゾーレンゴンスー,0
1524,7010001235661,新規,0,2023-05-29,2023-05-29,株式会社Ｓｔａｐｌｅ日本橋,,株式会社,東京都,中央区,日本橋小舟町１４－７ＳＯＩＬＮｉｈｏｎｂａｓｈｉ４０１,,13,102,1030024,,,,,,,2023-05-29,1,,,,,ステイプルニホンバシ,0
1538,7010401174583,新規,0,2023-05-29,2023-05-29,株式会社ｍｉｒｂｅｉｔ,,株式会社,東京都,港区,芝浦３丁目１３番９号藤ビル３階,,13,103,1080023,,,,,,,2023-05-29,1,,,,,ミルバイト,0
1539,7010401174591,新規,0,2023-05-29,2023-05-29,株式会社Ｌｉｂｅｒｔｙホールディングス,,株式会社,東京都,港区,赤坂９丁目７番１号ミッドタウン・タワー３７階,,13,103,1070052,,,,,,,2023-05-29,1,,,,,リバティホールディングス,0
1540,7010401174600,新規,0,2023-05-29,2023-05-29,ｌｅｍｏｎ　ｓｏｄａ　ｍｕｓｉｃ　ｊａｐａｎ株式会社,,株式会社,東京都,港区,三田１丁目１番１２号,,13,103,1080073,,,,,,,2023-05-29,1,,,,,レモンソーダミュージックジャパン,0
1541,7010401174617,新規,0,2023-05-29,2023-05-29,ＭＣＰ１７株式会社,,株式会社,東京都,港区,元赤坂１丁目１番８号株式会社赤坂国際会計内,,13,103,1070051,,,,,,,2023-05-29,1,,,,,エムシーピーワンセブン,0
1542,7010401174625,新規,0,2023-05-29,2023-05-29,株式会社ＢＵＣＨＩＥＥ,,株式会社,東京都,港区,麻布十番２番７号ラフィネ麻布十番７０１号室,,13,103,1050000,,,,,,,2023-05-29,1,,,,,ブチィ,0
1543,7010405022177,新規,0,2023-05-29,2023-05-29,銀座マネジメント１一般社団法人,,その他の設立登記法人,東京都,港区,六本木１丁目６番１号泉ガーデンタワー,,13,103,1060032,,,,,,,2023-05-29,1,,,,,ギンザマネジメントワン,0
1549,7010701044321,新規,0,2023-05-29,2023-05-29,株式会社Ｒ‐ＭＡＤＥ,,株式会社,東京都,品川区,中延６丁目４番５号アーバンステージ中延１階（Ｄ号室）,,13,109,1420053,,,,,,,2023-05-29,1,,,,,アールメイド,0
1552,7010901053089,新規,0,2023-05-29,2023-05-29,株式会社令和ＰＲ,,株式会社,東京都,世田谷区,南烏山２丁目３０番１３－２１３号,,13,112,1570062,,,,,,,2023-05-29,1,,,,,レイワピーアール,0
1553,7010901053122,新規,0,2023-05-29,2023-05-29,株式会社ＫＭＯ企画,,株式会社,東京都,世田谷区,喜多見１丁目１０番８号,,13,112,1570067,,,,,,,2023-05-29,1,,,,,ケイエムオーキカク,0
1557,7011001154661,新規,0,2023-05-29,2023-05-29,株式会社Ｃａｒｒｙ　Ｐｌａｎｅｔ,,株式会社,東京都,渋谷区,渋谷２丁目１９ー１５宮益坂ビルディング６０９号,,13,113,1500002,,,,,,,2023-05-29,1,,,,,キャリープラネット,0
1564,7011101103015,新規,0,2023-05-29,2023-05-29,六禾株式会社,,株式会社,東京都,新宿区,歌舞伎町２丁目２５番８号－２１４,,13,104,1600021,,,,,,,2023-05-29,1,,,,,ロッカ,0
1569,7011503005619,新規,0,2023-05-29,2023-05-29,合同会社水壬,,合同会社,東京都,北区,王子１丁目２７番２－４０１号コアプラス王子,,13,117,1140002,,,,,,,2023-05-29,1,,,,,スイジン,0
1571,7011603003935,新規,0,2023-05-29,2023-05-29,合同会社カインズ,,合同会社,東京都,練馬区,東大泉６丁目８番２７号,,13,120,1780063,,,,,,,2023-05-29,1,,,,,カインズ,0
1574,7012401040575,新規,0,2023-05-29,2023-05-29,株式会社ＳＡＫＵＲＡブレインズ,,株式会社,東京都,多摩市,落合１丁目１０－１京王多摩センターＳＣ２階ＫＥＩＯＢＩＺＰＬＡＺＡ多摩センター内３番,,13,224,2060033,,,,,,,2023-05-29,1,,,,,サクラブレインズ,0
1576,7012403005997,新規,0,2023-05-29,2023-05-29,武蔵野ＥＳＧアドバイザリー合同会社,,合同会社,東京都,武蔵野市,吉祥寺本町４丁目２‐５‐２０２,,13,203,1800004,,,,,,,2023-05-29,1,,,,,ムサシノイーエスジーアドバイザリー,0
1584,7020001151759,新規,0,2023-05-29,2023-05-29,芝崎企画株式会社,,株式会社,神奈川県,川崎市川崎区,東門前３丁目２番２号,,14,131,2100812,,,,,,,2023-05-29,1,,,,,シバサキキカク,0
1585,7020001151775,新規,0,2023-05-29,2023-05-29,株式会社Ｆｉｒｓｔ　Ｄｒｅａｍ,,株式会社,神奈川県,横浜市鶴見区,東寺尾東台８番１号,,14,101,2300018,,,,,,,2023-05-29,1,,,,,ファーストドリーム,0
1592,7021001079156,新規,0,2023-05-29,2023-05-29,株式会社ＶＧＣ,,株式会社,神奈川県,茅ヶ崎市,矢畑２４６番地,,14,207,2530085,,,,,,,2023-05-29,1,,,,,ブイジーシー,0
1593,7021001079172,新規,0,2023-05-29,2023-05-29,株式会社ＫＡＬＩＫＡ,,株式会社,神奈川県,藤沢市,羽鳥１丁目２番１２号栄壮２０１,,14,205,2510056,,,,,,,2023-05-29,1,,,,,カリカ,0
1598,7030001154100,新規,0,2023-05-29,2023-05-29,株式会社リベロ,,株式会社,埼玉県,春日部市,南中曽根９５７番地９,,11,214,3440048,,,,,,,2023-05-29,1,,,,,リベロ,0
1599,7030001154117,新規,0,2023-05-29,2023-05-29,株式会社Ａｄｏｎｉｓｓ,,株式会社,埼玉県,草加市,吉町１丁目１番２５号,,11,221,3400017,,,,,,,2023-05-29,1,,,,,アドニス,0
1603,7030003021819,新規,0,2023-05-29,2023-05-29,合同会社とだや,,合同会社,埼玉県,戸田市,本町１丁目３番３－９０２号,,11,224,3350023,,,,,,,2023-05-29,1,,,,,トダヤ,0
1604,7030003021827,新規,0,2023-05-29,2023-05-29,合同会社ＷＢ,,合同会社,埼玉県,川口市,江戸袋１丁目２１番１４号,,11,203,3340075,,,,,,,2023-05-29,1,,,,,ダブリュービー,0
1617,7040001128557,新規,0,2023-05-29,2023-05-29,キコ株式会社,,株式会社,千葉県,柏市,藤心９６２－１,,12,217,2770034,,,,,,,2023-05-29,1,,,,,キコ,0
1618,7040001128581,新規,0,2023-05-29,2023-05-29,山丸商会株式会社,,株式会社,千葉県,柏市,増尾７丁目２０番３５号,,12,217,2770033,,,,,,,2023-05-29,1,,,,,ヤママルショウカイ,0
1620,7040003022683,新規,0,2023-05-29,2023-05-29,合同会社ＴＧプラス,,合同会社,千葉県,木更津市,大和２丁目１７－６－１０１,,12,206,2920805,,,,,,,2023-05-29,1,,,,,ティージープラス,0
1621,7040003022700,新規,0,2023-05-29,2023-05-29,Ｏｋｏｂａ　Ｈｏｍｅｓ合同会社,,合同会社,千葉県,白井市,笹塚３丁目１１番８号,,12,232,2701426,,,,,,,2023-05-29,1,,,,,オオコバホームズ,0
1623,7040005022013,新規,0,2023-05-29,2023-05-29,一般社団法人日本麻結,,その他の設立登記法人,千葉県,浦安市,猫実２丁目１０番２７－１０２号,,12,227,2790004,,,,,,,2023-05-29,1,,,,,ニホンアサムスビ,0
1625,7050001052888,新規,0,2023-05-29,2023-05-29,ＱＵＡＮＧ　ＢＡＯ株式会社,,株式会社,茨城県,かすみがうら市,稲吉３丁目３番４号,,08,230,3150054,,,,,,,2023-05-29,1,,,,,クアンバオ,0
1639,7090005007570,新規,0,2023-05-29,2023-05-29,一般社団法人Ｆｏｒｅｓｔ　Ｔｒｉｂｅｓ,,その他の設立登記法人,山梨県,都留市,つる１丁目１０番地３,,19,204,4020056,,,,,,,2023-05-29,1,,,,,フォレストトライブス,0
1649,7120001255153,新規,0,2023-05-29,2023-05-29,株式会社エムツー,,株式会社,大阪府,大阪市中央区,上本町西５丁目１番３５－１００６号,,27,128,5420062,,,,,,,2023-05-29,1,,,,,エムツー,0
1650,7120001255244,新規,0,2023-05-29,2023-05-29,株式会社みやびコンサルティング,,株式会社,大阪府,大阪市平野区,喜連東１丁目７番４１号,,27,126,5470021,,,,,,,2023-05-29,1,,,,,ミヤビコンサルティング,0
1651,7120001255252,新規,0,2023-05-29,2023-05-29,ＭＡ＆Ｓ株式会社,,株式会社,大阪府,大阪市天王寺区,堂ケ芝２丁目１０番２号,,27,109,5430033,,,,,,,2023-05-29,1,,,,,エムエーアンドエス,0
1654,7120005023647,新規,0,2023-05-29,2023-05-29,税理士法人ＯＫＵＤＡ＆Ｐａｒｔｎｅｒｓ,,その他の設立登記法人,大阪府,大阪市中央区,北久宝寺町３丁目５番１４号,,27,128,5410057,,,,,,,2023-05-29,1,,,,,オクダアンドパートナーズ,0
1657,7120101067597,新規,0,2023-05-29,2023-05-29,株式会社レイズ,,株式会社,大阪府,岸和田市,土生町１２６１番地の８,,27,202,5960825,,,,,,,2023-05-29,1,,,,,レイズ,0
1658,7120103005241,新規,0,2023-05-29,2023-05-29,合同会社亮丸商事,,合同会社,大阪府,羽曳野市,向野３丁目２６７－１,,27,222,5830883,,,,,,,2023-05-29,1,,,,,リョウマルショウジ,0
1664,7140001130305,新規,0,2023-05-29,2023-05-29,ａｎｎｅｘ株式会社,,株式会社,兵庫県,姫路市,苫編南２丁目３６３番地１ロワイヤル英賀保五番館４０３,,28,201,6700987,,,,,,,2023-05-29,1,,,,,アネックス,0
1665,7140001130313,新規,0,2023-05-29,2023-05-29,翔平金属株式会社,,株式会社,兵庫県,加西市,西谷町１６５番地の１,,28,220,6752366,,,,,,,2023-05-29,1,,,,,ショウヘイキンゾク,0
1670,7150003002971,新規,0,2023-05-29,2023-05-29,合同会社縁和コーポレーション,,合同会社,奈良県,奈良市,西大寺国見町２丁目１３番３１号,,29,201,6310823,,,,,,,2023-05-29,1,,,,,エンワコーポレーション,0
1675,7180001156478,新規,0,2023-05-29,2023-05-29,株式会社ＷＡＳＰ,,株式会社,愛知県,北名古屋市,中之郷神明５３番地,,23,234,4810045,,,,,,,2023-05-29,1,,,,,ワスプ,0
1676,7180001156486,新規,0,2023-05-29,2023-05-29,株式会社明宏ｗｏｒｋｓ,,株式会社,愛知県,名古屋市中村区,名駅４丁目２４番５号第２森ビル４０１,,23,105,4500002,,,,,,,2023-05-29,1,,,,,メイコウワークス,0
1677,7180003025276,新規,0,2023-05-29,2023-05-29,合同会社ＢｌｏｏｍＳｉｇｎ,,合同会社,愛知県,名古屋市中村区,名駅４丁目２４番５号第２森ビル４０１,,23,105,4500002,,,,,,,2023-05-29,1,,,,,ブルームサイン,0
1678,7180301037428,新規,0,2023-05-29,2023-05-29,株式会社トータルサポート誠心,,株式会社,愛知県,西尾市,今川町石橋９０,,23,213,4450063,,,,,,,2023-05-29,1,,,,,トータルサポートセンシン,0
1679,7180303005721,新規,0,2023-05-29,2023-05-29,合同会社ＫＴＬ,,合同会社,愛知県,豊橋市,吉川町２６番地,,23,201,4418002,,,,,,,2023-05-29,1,,,,,ケイティーエル,0
1683,7240001061580,新規,0,2023-05-29,2023-05-29,株式会社ＰＬＡＮ　Ｂ,,株式会社,広島県,広島市東区,牛田新町４丁目７－２０リバーパレス牛田新町１０４,,34,102,7320068,,,,,,,2023-05-29,1,,,,,プランビー,0
1703,7290001101662,新規,0,2023-05-29,2023-05-29,明建工業株式会社,,株式会社,福岡県,福岡市中央区,平尾２丁目３番２４－３０９号,,40,133,8100014,,,,,,,2023-05-29,1,,,,,メイケンコウギョウ,0
1704,7290001101670,新規,0,2023-05-29,2023-05-29,Ｈ＆Ｈ株式会社,,株式会社,福岡県,福岡市博多区,博多駅東２丁目５番１９号,,40,132,8120013,,,,,,,2023-05-29,1,,,,,エイチアンドエイチ,0
1705,7290001101679,新規,0,2023-05-29,2023-05-29,九州モビリティサービス株式会社,,株式会社,福岡県,久留米市,日吉町２４番地の２,,40,203,8300017,,,,,,,2023-05-29,1,,,,,キュウシュウモビリティサービス,0
1708,7290003013963,新規,0,2023-05-29,2023-05-29,ルミナス合同会社,,合同会社,福岡県,福岡市博多区,博多駅前１丁目１５－２０ＮＭＦ博多駅前ビル２階,,40,132,8120011,,,,,,,2023-05-29,1,,,,,ルミナス,0
1711,7290005019050,新規,0,2023-05-29,2023-05-29,ＮＰＯ法人華僑華人新芸術文化センター,,その他の設立登記法人,福岡県,福岡市東区,香住ヶ丘５丁目７番９号,,40,131,8130003,,,,,,,2023-05-29,1,,,,,カキョウカジンシンゲイジュツブンカセンター,0
1714,7320001019793,新規,0,2023-05-29,2023-05-29,株式会社Ｍ‐Ｋ,,株式会社,大分県,大分市,中島西１丁目８番１５号,,44,201,8700047,,,,,,,2023-05-29,1,,,,,エムケイ,0
1715,7330003009858,新規,0,2023-05-29,2023-05-29,合同会社ワイエス企画,,合同会社,熊本県,熊本市南区,野田３丁目９番７０号,,43,104,8614114,,,,,,,2023-05-29,1,,,,,ワイエスキカク,0
1717,7340001025609,新規,0,2023-05-29,2023-05-29,株式会社セントラル,,株式会社,鹿児島県,鹿児島市,上之園町１５－１１－７０１,,46,201,8900052,,,,,,,2023-05-29,1,,,,,セントラル,0
1721,7360003012990,新規,0,2023-05-29,2023-05-29,合同会社アグリストーリーやんばる,,合同会社,沖縄県,名護市,字仲尾６８番地,,47,209,9051153,,,,,,,2023-05-29,1,,,,,アグリストーリーヤンバル,0
1741,7450003002339,新規,0,2023-05-29,2023-05-29,合同会社Ａｓｉｆ,,合同会社,北海道,旭川市,豊岡四条６丁目１１―１６,,01,204,0788234,,,,,,,2023-05-29,1,,,,,アズイフ,0
1745,7700150116535,新規,0,2023-05-29,2023-05-29,ＳＨＥＮＺＨＥＮＳＨＩ　ＬＡＮＹＵＫＥＪＩ　ＹＯＵＸＩＡＮＧＯＮＧＳＩ,,外国会社等,,,,,,,,ｌｏｎｇｈｕａｑｕ　ｍｉｎｚｈｉｊｉｅｄａｏ　ｘｉｎｎｉｕｓｈｅｑｑｕ　ｍｉｎｚｈｉｄａｄａｏ　ｙｕｇｏｎｇｙｅｄｏｎｇｌｕ　ｊｉｚｈａｎｔａｏｋｅｊｉｄａｓｈａ　ＣｚｕｏＣ１８０８　ｓｈｅｎｚｈｅｎ　ｇｕａｎｇｄｏｎｇ,,,,,,2023-05-29,1,,,,,シンセンシランユケジユウゲンコウシ,0
1746,7700150116543,新規,0,2023-05-29,2023-05-29,ｂｅｉｊｉｎｇ　ｆｅｎｇｙｕｈｕａｇｕｏｊｉｋｅｊｉ　ｙｏｕｘｉａｎｇｏｎｇｓｉ,,外国会社等,,,,,,,,ｂｅｉｊｉｎｇｓｈｉ　ｃｈａｏｙａｎｇｑｕ　ｗａｎｇｊｉｎｇｌｕ　４ｈａｏｌｏｕ１１ｃｅｎｇ１１０５,,,,,,2023-05-29,1,,,,,ベイジンフェンユフアゴウジケジユウゲンコウシ,0
1747,7700150116551,新規,0,2023-05-29,2023-05-29,Ｓｈｅｎｚｈｅｎｓｈｉ　Ｔｅｆｕａｎ　Ｔｅｃｈｎｏｌｏｇｙ　Ｃｏ．，Ｌｔｄ．,,外国会社等,,,,,,,,Ｌｏｎｇｈｕａｘｉｎｑｕ　Ｍｉｎｚｈｉｊｉｅｄａｏ　Ｈｅｎｇｊｉａｎｇｄａｓｈａ　８ｌｏｕＡ８０８ｓｈｉ　Ｓｈｅｎｚｈｅｎｓｈｉ　Ｇｕａｎｇｄｏｎｇｓｈｅｎｇ　５１８０００　ＣＮ,,,,,,2023-05-29,1,,,,,シェンジェンシーターフーアンコージーヨウシエンゴンスー,0
1756,8010003040712,新規,0,2023-05-29,2023-05-29,ＧＡＭ合同会社,,合同会社,東京都,中央区,銀座１丁目６番８号,,13,102,1040061,,,,,,,2023-05-29,1,,,,,ガム,0
1761,8010401174590,新規,0,2023-05-29,2023-05-29,株式会社ＫＴ７,,株式会社,東京都,港区,元麻布３丁目７番１０号,,13,103,1060046,,,,,,,2023-05-29,1,,,,,ケーティーセブン,0
1762,8010401174599,新規,0,2023-05-29,2023-05-29,株式会社しん,,株式会社,東京都,港区,赤坂６丁目４－１８,,13,103,1070052,,,,,,,2023-05-29,1,,,,,シン,0
1763,8010401174616,新規,0,2023-05-29,2023-05-29,ＭＣＰ１８株式会社,,株式会社,東京都,港区,元赤坂１丁目１番８号株式会社赤坂国際会計内,,13,103,1070051,,,,,,,2023-05-29,1,,,,,エムシーピーワンエイト,0
1764,8010401174632,新規,0,2023-05-29,2023-05-29,株式会社ＣＨＥＳＴＮＵＴＴ,,株式会社,東京都,港区,南青山３丁目１番３６号青山丸竹ビル６Ｆ,,13,103,1070062,,,,,,,2023-05-29,1,,,,,チェスナッツ,0
1766,8010403030156,新規,0,2023-05-29,2023-05-29,合同会社東京幹細胞移植治療研究所,,合同会社,東京都,港区,愛宕１丁目１番１－２３０６号,,13,103,1050002,,,,,,,2023-05-29,1,,,,,トウキョウカンサイボウイショクチリョウケンキュウジョ,0
1769,8010405022176,新規,0,2023-05-29,2023-05-29,港インベストメンツ３一般社団法人,,その他の設立登記法人,東京都,港区,六本木１丁目６番１号泉ガーデンタワー,,13,103,1060032,,,,,,,2023-05-29,1,,,,,ミナトインベストメンツスリー,0
1770,8010601063180,新規,0,2023-05-29,2023-05-29,バタフライ株式会社,,株式会社,東京都,墨田区,横川３丁目６番７号,,13,107,1300003,,,,,,,2023-05-29,1,,,,,バタフライ,0
1784,8011003016611,新規,0,2023-05-29,2023-05-29,ＳＨＡＲＩ合同会社,,合同会社,東京都,渋谷区,渋谷２丁目１９－１５宮益坂ビルディング６０９,,13,113,1500002,,,,,,,2023-05-29,1,,,,,シャリ,0
1785,8011003016900,新規,0,2023-05-29,2023-05-29,Ｏｆｆｉｃｅ　ＫＵＭＩＫＯ合同会社,,合同会社,東京都,目黒区,中央町１丁目３番５－３０４号学芸大ゴールデンハイツ,,13,110,1520001,,,,,,,2023-05-29,1,,,,,オフィスクミコ,0
1789,8011101103030,新規,0,2023-05-29,2023-05-29,株式会社ＡｄｖｅｎｔｕｒｅＣｏｎｎｅｃｔ,,株式会社,東京都,新宿区,四谷２丁目１２番ダイヤモンドビル３階,,13,104,1600004,,,,,,,2023-05-29,1,,,,,アドベンチャーコネクト,0
1790,8011105010669,新規,0,2023-05-29,2023-05-29,ＡＩ行政書士法人,,その他の設立登記法人,東京都,新宿区,市谷甲良町２－１９－１Ｆ,,13,104,1620856,,,,,,,2023-05-29,1,,,,,エーアイ,0
1793,8011301028738,新規,0,2023-05-29,2023-05-29,株式会社Ｔ’ｓ　Ｌｉｎｋａｇｅ,,株式会社,東京都,杉並区,荻窪５丁目９番３－７０１号,,13,115,1670051,,,,,,,2023-05-29,1,,,,,ティーズリンケージ,0
1796,8011503005618,新規,0,2023-05-29,2023-05-29,合同会社木仏,,合同会社,東京都,北区,王子１丁目２７番２－４０１号コアプラス王子,,13,117,1140002,,,,,,,2023-05-29,1,,,,,キブツ,0
1799,8011703003479,新規,0,2023-05-29,2023-05-29,Ｙ　ＳＵＺＵＫＩ　ＮＩＨＯＮＧＧＯ　ＬＥＡＲＮＩＮＧ　ＣＥＮＴＥＲ　ＩＮＣ合同会社,,合同会社,東京都,江戸川区,上篠崎４丁目６－５カサブランカ１０１,,13,123,1330054,,,,,,,2023-05-29,1,,,,,ワイスズキニホンゴラーニングセンターインク,0
1800,8011801042486,新規,0,2023-05-29,2023-05-29,＿鵬株式会社,00130647,株式会社,東京都,足立区,関原２丁目４１－２０塚田荘２０２号室,,13,121,1230852,,,,,,,2023-05-29,1,,,,,キンホウ,0
1801,8012401040574,新規,0,2023-05-29,2023-05-29,株式会社Ｎｅｕｅａｌｌｅ,,株式会社,東京都,稲城市,矢野口３７５０番１９号,,13,225,2060812,,,,,,,2023-05-29,1,,,,,ノイエアル,0
1802,8013301050820,新規,0,2023-05-29,2023-05-29,株式会社メビウス,,株式会社,東京都,豊島区,池袋２丁目５３番３号,,13,116,1710014,,,,,,,2023-05-29,1,,,,,メビウス,0
1805,8020001151790,新規,0,2023-05-29,2023-05-29,株式会社ＬＭＲ,,株式会社,神奈川県,横浜市中区,日本大通７番地合人社横浜日本大通７ビル４階,,14,104,2310021,,,,,,,2023-05-29,1,,,,,エルエムアール,0
1808,8021001079155,新規,0,2023-05-29,2023-05-29,株式会社ＲＥＳＩＬＩＥ,,株式会社,神奈川県,大和市,下鶴間７８０－１シャトレ―つきみ野１０３,,14,213,2420001,,,,,,,2023-05-29,1,,,,,レジリエ,0
1809,8021001079171,新規,0,2023-05-29,2023-05-29,株式会社キースコンサルティング,,株式会社,神奈川県,藤沢市,石川２１番地の１－７０１,,14,205,2520815,,,,,,,2023-05-29,1,,,,,キースコンサルティング,0
1811,8021003013145,新規,0,2023-05-29,2023-05-29,合同会社空・流・海,,合同会社,神奈川県,三浦郡葉山町,堀内９３４番地の３,,14,301,2400112,,,,,,,2023-05-29,1,,,,,クルミ,0
1817,8030001153919,新規,0,2023-05-29,2023-05-29,株式会社ＲＩＯ工業,,株式会社,埼玉県,川口市,前川２丁目１７－８シンハイム３０２号,,11,203,3330842,,,,,,,2023-05-29,1,,,,,リオコウギョウ,0
1818,8030001154033,新規,0,2023-05-29,2023-05-29,アリヤ株式会社,,株式会社,埼玉県,川口市,本前川３丁目１４番５号,,11,203,3330849,,,,,,,2023-05-29,1,,,,,アリヤ,0
1819,8030001154058,新規,0,2023-05-29,2023-05-29,株式会社オリエンタル,,株式会社,埼玉県,戸田市,上戸田３丁目４番１－１０１号,,11,224,3350022,,,,,,,2023-05-29,1,,,,,オリエンタル,0
1820,8030001154066,新規,0,2023-05-29,2023-05-29,株式会社上田組,,株式会社,埼玉県,東松山市,大字石橋１５６４番地１９,,11,212,3550072,,,,,,,2023-05-29,1,,,,,ウエダグミ,0
1821,8030001154074,新規,0,2023-05-29,2023-05-29,株式会社ＭＳ　ＴＲＡＤＩＮＧ,,株式会社,埼玉県,羽生市,大字上村君新田７６０番地,,11,216,3480005,,,,,,,2023-05-29,1,,,,,エムエストレーディング,0
1822,8030001154082,新規,0,2023-05-29,2023-05-29,池田産業株式会社,,株式会社,埼玉県,さいたま市浦和区,駒場１丁目２９番１３－１号,,11,107,3300051,,,,,,,2023-05-29,1,,,,,イケダサンギョウ,0
1823,8030001154099,新規,0,2023-05-29,2023-05-29,アールスリーデザイン株式会社,,株式会社,埼玉県,富士見市,鶴馬２丁目２２番１９号メゾンドみずほ２０１,,11,235,3540021,,,,,,,2023-05-29,1,,,,,アールスリーデザイン,0
1824,8030001154116,新規,0,2023-05-29,2023-05-29,Ｗｏｒｌｄ　Ａｕｔｏ株式会社,,株式会社,埼玉県,鶴ヶ島市,富士見５丁目７番１４－１０５号,,11,241,3502201,,,,,,,2023-05-29,1,,,,,ワールドオート,0
1825,8030001154124,新規,0,2023-05-29,2023-05-29,ツーブリッジ株式会社,,株式会社,埼玉県,川越市,大字今福１４４３番地１,,11,201,3501151,,,,,,,2023-05-29,1,,,,,ツーブリッジ,0
1826,8030001154140,新規,0,2023-05-29,2023-05-29,株式会社イーファクトリー,,株式会社,埼玉県,さいたま市緑区,東大門３丁目９番地１ランドステージ東川口パークサイド３０７号,,11,109,3360964,,,,,,,2023-05-29,1,,,,,,0
1831,8030003021818,新規,0,2023-05-29,2023-05-29,合同会社フードウェーブ,,合同会社,埼玉県,狭山市,大字南入曽８５９番地の２５,,11,215,3501316,,,,,,,2023-05-29,1,,,,,フードウェーブ,0
1832,8030003021842,新規,0,2023-05-29,2023-05-29,スマホ研究所合同会社,,合同会社,埼玉県,北葛飾郡杉戸町,大字鷲巣６１２番地１７,,11,464,3450002,,,,,,,2023-05-29,1,,,,,スマホケンキュウジョ,0
1841,8040001128580,新規,0,2023-05-29,2023-05-29,株式会社オープンスペースインターナショナル,,株式会社,千葉県,印西市,岩戸１３３５－１,,12,231,2701616,,,,,,,2023-05-29,1,,,,,オープンスペースインターナショナル,0
1846,8040003022658,新規,0,2023-05-29,2023-05-29,合同会社火成,,合同会社,千葉県,市原市,五所１７５７番地５,,12,219,2900066,,,,,,,2023-05-29,1,,,,,カセイ,0
1847,8040003022699,新規,0,2023-05-29,2023-05-29,合同会社チップイン,,合同会社,千葉県,柏市,十余二２５４番地２２７,,12,217,2770872,,,,,,,2023-05-29,1,,,,,チップイン,0
1848,8040003022708,新規,0,2023-05-29,2023-05-29,合同会社ＮＡＯインター,,合同会社,千葉県,浦安市,高洲３丁目１５番３０号,,12,227,2790023,,,,,,,2023-05-29,1,,,,,エヌエーオーインター,0
1874,8100003007033,新規,0,2023-05-29,2023-05-29,合同会社ＮＡＧＡＫＩ　ＩＮＴＥＲＮＡＴＩＯＮＡＬ,,合同会社,長野県,中野市,大字柳沢５２９番地２,,20,211,3830003,,,,,,,2023-05-29,1,,,,,ナガキインターナショナル,0
1875,8100005013021,新規,0,2023-05-29,2023-05-29,一般社団法人学び舎楽人,,その他の設立登記法人,長野県,岡谷市,長地小萩２丁目１０番６号,,20,204,3940085,,,,,,,2023-05-29,1,,,,,マナビヤガクト,0
1882,8120001255243,新規,0,2023-05-29,2023-05-29,株式会社ＨＩＴ＆ＬＥＡＲＮ,,株式会社,大阪府,大阪市福島区,福島４丁目３番２３－３７０２号,,27,103,5530003,,,,,,,2023-05-29,1,,,,,ヒットエンドラーン,0
1892,8122001037010,新規,0,2023-05-29,2023-05-29,株式会社ジョー・コート,,株式会社,大阪府,東大阪市,永和３丁目２番９号,,27,227,5770809,,,,,,,2023-05-29,1,,,,,ジョーコート,0
1900,8140001130312,新規,0,2023-05-29,2023-05-29,株式会社あわらいふ,,株式会社,兵庫県,南あわじ市,阿万上町１０１３,,28,224,6560541,,,,,,,2023-05-29,1,,,,,アワライフ,0
1916,8180001156428,新規,0,2023-05-29,2023-05-29,株式会社正航,,株式会社,愛知県,名古屋市守山区,大牧町２番２５号大牧ヒルズ４０４号,,23,113,4630085,,,,,,,2023-05-29,1,,,,,セイコウ,0
1919,8180005020233,新規,0,2023-05-29,2023-05-29,一般社団法人いちじく福祉会,,その他の設立登記法人,愛知県,名古屋市北区,柳原４丁目５番１号２階,,23,103,4620845,,,,,,,2023-05-29,1,,,,,イチジクフクシカイ,0
1924,8180301037419,新規,0,2023-05-29,2023-05-29,株式会社地域活性研究所,,株式会社,愛知県,豊橋市,八通町５０番地４（９０１）,,23,201,4418023,,,,,,,2023-05-29,1,,,,,チイキカッセイケンキュウジョ,0
1926,8180303005720,新規,0,2023-05-29,2023-05-29,合同会社Ｂｅ　Ｔｈｅ　Ｌｉｇｈｔ,,合同会社,愛知県,岡崎市,大西町字南ケ原２１番地６,,23,202,4440812,,,,,,,2023-05-29,1,,,,,ビーザライト,0
1927,8190005011826,新規,0,2023-05-29,2023-05-29,特定非営利活動法人ととのえ,,その他の設立登記法人,三重県,津市,高茶屋小森町１４５１番地３３,,24,201,5140817,,,,,,,2023-05-29,1,,,,,トトノエ,0
1938,8250001020114,新規,0,2023-05-29,2023-05-29,カイキョーエリアマネジメント株式会社,,株式会社,山口県,下関市,中之町１１番７号,,35,201,7500004,,,,,,,2023-05-29,1,,,,,カイキョーエリアマネジメント,0
1940,8260003004320,新規,0,2023-05-29,2023-05-29,合同会社おがわ真家,,合同会社,岡山県,岡山市中区,湊２６０番地３号,,33,102,7038266,,,,,,,2023-05-29,1,,,,,オガワマジメヤ,0
1941,8270003001531,新規,0,2023-05-29,2023-05-29,合同会社陽蘭,,合同会社,鳥取県,鳥取市,的場４丁目２６番地１タウンアローズ３０－１０４号,,31,201,6800873,,,,,,,2023-05-29,1,,,,,ヨウラン,0
1942,8270005005555,新規,0,2023-05-29,2023-05-29,一般社団法人ハマムラソシアルクラブ,,その他の設立登記法人,鳥取県,鳥取市,気高町浜村５５番地３,,31,201,6890331,,,,,,,2023-05-29,1,,,,,ハマムラソシアルクラブ,0
1947,8290001101645,新規,0,2023-05-29,2023-05-29,株式会社望スタジオ,,株式会社,福岡県,福岡市中央区,荒戸１丁目１番２９－４０１号大濠パークサイドレジデンス,,40,133,8100062,,,,,,,2023-05-29,1,,,,,ノゾミスタジオ,0
1948,8290001101653,新規,0,2023-05-29,2023-05-29,株式会社アンベリーノ,,株式会社,福岡県,福岡市博多区,博多駅前３丁目９－５－１００５,,40,132,8120011,,,,,,,2023-05-29,1,,,,,アンベリーノ,0
1949,8290001101661,新規,0,2023-05-29,2023-05-29,株式会社ＦＡＬ,,株式会社,福岡県,福岡市西区,姪の浜２丁目１３番２２号,,40,135,8190002,,,,,,,2023-05-29,1,,,,,ファル,0
1950,8290001101678,新規,0,2023-05-29,2023-05-29,３Ｒシステム株式会社,,株式会社,福岡県,糟屋郡宇美町,光正寺２丁目８番２２号,,40,341,8112123,,,,,,,2023-05-29,1,,,,,スリーアールシステム,0
1957,8320001019792,新規,0,2023-05-29,2023-05-29,株式会社ＺＥＲＯ‐ＯＮＥ,,株式会社,大分県,大分市,王子西町１０番２２号,,44,201,8700008,,,,,,,2023-05-29,1,,,,,ゼロワン,0
1963,8360001032081,新規,0,2023-05-29,2023-05-29,株式会社ＩＣＨＩＣＡ,,株式会社,沖縄県,石垣市,字石垣２３５番地,,47,207,9070023,,,,,,,2023-05-29,1,,,,,イチカ,0
1966,8360003013006,新規,0,2023-05-29,2023-05-29,合同会社サンキュウマルシェ,,合同会社,沖縄県,沖縄市,美原１丁目１１番８号２０５,,47,211,9042155,,,,,,,2023-05-29,1,,,,,サンキュウマルシェ,0
1977,8380001033722,新規,0,2023-05-29,2023-05-29,メモリアルセレクト株式会社,,株式会社,福島県,郡山市,久留米５丁目１００番地６,,07,203,9638846,,,,,,,2023-05-29,1,,,,,メモリアルセレクト,0
1978,8380005012714,新規,0,2023-05-29,2023-05-29,一般社団法人日本サウナソムリエ協会,,その他の設立登記法人,福島県,郡山市,駅前１丁目１４－２１,,07,203,9638002,,,,,,,2023-05-29,1,,,,,ニホンサウナソムリエキョウカイ,0
1995,8700150116229,新規,0,2023-05-29,2023-05-17,片倉ダム周辺環境管理委員会,,その他,千葉県,君津市,笹１７６５－９,,12,225,2920526,,,,,,,2023-05-17,1,,,,,カタクラダムシユウヘンカンキヨウカンリイインカイ,0
1996,8700150116534,新規,0,2023-05-29,2023-05-29,Ｇｕａｎｇｚｈｏｕｓｈｉ　Ｑｉａｎｈａｉ　Ｍａｏｙｉ　Ｙｏｕｘｉａｎｇｏｎｇｓｉ,,外国会社等,,,,,,,,Ｒｏｏｍ　４８，Ｆｌｏｏｒ　４，Ｎｏ．５５，Ｘｉｄｉ　Ｓｅｃｏｎｄ　Ｒｏａｄ，Ｌｉｗａｎ　Ｄｉｓｔｒｉｃｔ　Ｇｕａｎｇｚｈｏｕ　Ｇｕａｎｇｄｏｎｇ,,,,,,2023-05-29,1,,,,,グァンゾォウシチェンハイマオイユウゲンコウシ,0
1997,8700150116542,新規,0,2023-05-29,2023-05-29,ｓｈｅｎｚｈｅｎｓｈｉ　ａｎｔｅｌｕｎ　ｔｏｎｇｘｉｎ　ｊｉｓｈｕ　ｙｏｕｘｉａｎ　ｇｏｎｇｓｉ,,外国会社等,,,,,,,,ｌｏｎｇｈｕａｘｉｎｑｕ　ｍｉｎｚｈｉｊｉｅｄａｏ，ｍｉｎｄｅｌｕ　ｎａｎｃｅ　ｈａｏｙｕｅｈｕａｙｕａｎ１０ｄｏｎｇ１ｄａｎｙｕａｎ　６０１，ｓｈｅｎｚｈｅｎｓｈｉ，ｇｕａｎｇｄｏｎｇ　ＣＮ,,,,,,2023-05-29,1,,,,,シンセンシアンテルントンシンジスユウゲンコウシ,0
1998,8700150116550,新規,0,2023-05-29,2023-05-29,Ｇｕａｎｇｚｈｏｕｂｏｙｕｘｉａｎｇｂａｏｚｈｉｐｉｎｙｏｕｘｉａｎｇｏｎｇｓｉ,,外国会社等,,,,,,,,ｈｕａｄｕｑｕｓｈｉｌｉｎｇｚｈｅｎｙｉｓｈａｎｃｕｎｌｕｋｅｎｇｌｕ２ｈａｏ　ｇｕａｎｇｚｈｏｕｓｈｉ　ｇｕａｎｇｄｏｎｇｓｈｅｎｇ　５１０８５０　ＣＮ,,,,,,2023-05-29,1,,,,,グワンジョウボーイーシャンバオジーピンヨウシエンゴンスー,0
2014,9010001235602,新規,0,2023-05-29,2023-05-29,アセットヒルズ株式会社,,株式会社,東京都,文京区,関口３丁目３番３号,,13,105,1120014,,,,,,,2023-05-29,1,,,,,アセットヒルズ,0
2017,9010003040711,新規,0,2023-05-29,2023-05-29,合同会社ＢＳＰＶ２号,,合同会社,東京都,千代田区,九段南１丁目６番５号九段会館テラス,,13,101,1020074,,,,,,,2023-05-29,1,,,,,ビーエスピーブイニゴウ,0
2025,9010401174598,新規,0,2023-05-29,2023-05-29,テンパレード株式会社,,株式会社,東京都,港区,西麻布３丁目２３番４号,,13,103,1060031,,,,,,,2023-05-29,1,,,,,テンパレード,0
2026,9010401174631,新規,0,2023-05-29,2023-05-29,株式会社ＭａＩｓｏｎ　ＵｓａｇＩ,,株式会社,東京都,港区,南麻布４丁目４番１０－４０４号,,13,103,1060047,,,,,,,2023-05-29,1,,,,,メゾンウサギ,0
2030,9010405022175,新規,0,2023-05-29,2023-05-29,港インベストメンツ２一般社団法人,,その他の設立登記法人,東京都,港区,六本木１丁目６番１号泉ガーデンタワー,,13,103,1060032,,,,,,,2023-05-29,1,,,,,ミナトインベストメンツツー,0
2032,9010601063163,新規,0,2023-05-29,2023-05-29,ＨＡＮ株式会社,,株式会社,東京都,墨田区,京島２丁目１５番１３号,,13,107,1310046,,,,,,,2023-05-29,1,,,,,ハン,0
2038,9010901053112,新規,0,2023-05-29,2023-05-29,株式会社ＨＡＲＳ　ＨＯＬＤＩＮＧＳ,,株式会社,東京都,世田谷区,赤堤５丁目１３番１８号,,13,112,1560044,,,,,,,2023-05-29,1,,,,,ハースホールディングス,0
2048,9011001154692,新規,0,2023-05-29,2023-05-29,株式会社ｍａｎｏａ,,株式会社,東京都,渋谷区,恵比寿１丁目１３番６号恵比寿ＩＳビル７号棟６階,,13,113,1500013,,,,,,,2023-05-29,1,,,,,マノア,0
2049,9011005010090,新規,0,2023-05-29,2023-05-29,一般社団法人オキナカラニ,,その他の設立登記法人,東京都,渋谷区,幡ヶ谷１丁目２番８号林ビル３階,,13,113,1510072,,,,,,,2023-05-29,1,,,,,オキナカラニ,0
2053,9011101102997,新規,0,2023-05-29,2023-05-29,株式会社ＱＮＡＮＣＥ,,株式会社,東京都,新宿区,新宿７丁目４番１６号シティプラザ東新宿２０５,,13,104,1600022,,,,,,,2023-05-29,1,,,,,キューナンス,0
2054,9011101103013,新規,0,2023-05-29,2023-05-29,ＮＴコンシェルジュ株式会社,,株式会社,東京都,新宿区,新宿１丁目３６－２新宿第七葉山ビル３Ｆ,,13,104,1600022,,,,,,,2023-05-29,1,,,,,エヌティーコンシェルジュ,0
2057,9011103013086,新規,0,2023-05-29,2023-05-29,ホールトーン合同会社,,合同会社,東京都,新宿区,西新宿３丁目３番１３号西新宿水間ビル６階,,13,104,1600023,,,,,,,2023-05-29,1,,,,,ホールトーン,0
2058,9011105010668,新規,0,2023-05-29,2023-05-29,一般社団法人ＯＡＳＩＳ,,その他の設立登記法人,東京都,新宿区,西新宿７丁目２２番３１号柏木ＭＵＲＡ３１５,,13,104,1600023,,,,,,,2023-05-29,1,,,,,オアシス,0
2062,9011203004092,新規,0,2023-05-29,2023-05-29,アークレイリ合同会社,,合同会社,東京都,中野区,中野４丁目１０－２中野セントラルパークサウス棟２階,,13,114,1640001,,,,,,,2023-05-29,1,,,,,アークレイリ,0
2065,9011401025155,新規,0,2023-05-29,2023-05-29,株式会社匠心,,株式会社,東京都,板橋区,弥生町５番７号,,13,119,1730021,,,,,,,2023-05-29,1,,,,,ショウシン,0
2068,9011801042485,新規,0,2023-05-29,2023-05-29,永程株式会社,,株式会社,東京都,足立区,栗原３丁目２６番１号２Ｆ,,13,121,1230842,,,,,,,2023-05-29,1,,,,,エイテイ,0
2073,9013301050844,新規,0,2023-05-29,2023-05-29,株式会社きっかけ,,株式会社,東京都,豊島区,南池袋１丁目１６－１５ダイヤゲート池袋４・５階,,13,116,1710022,,,,,,,2023-05-29,1,,,,,キッカケ,0
2076,9020001151773,新規,0,2023-05-29,2023-05-29,株式会社榎本裕亮建築設計事務所,,株式会社,神奈川県,横浜市中区,扇町１丁目１番２５号５１０号室,,14,104,2310027,,,,,,,2023-05-29,1,,,,,エノモトヒロアキケンチクセッケイジムショ,0
2084,9021003013144,新規,0,2023-05-29,2023-05-29,森本技研合同会社,,合同会社,神奈川県,小田原市,板橋３７５番地の２０,,14,206,2500034,,,,,,,2023-05-29,1,,,,,モリモトギケン,0
2091,9030001154065,新規,0,2023-05-29,2023-05-29,スマートサービス上尾株式会社,,株式会社,埼玉県,上尾市,大字畔吉６０５番地の１,,11,219,3620065,,,,,,,2023-05-29,1,,,,,スマートサービスアゲオ,0
2092,9030001154073,新規,0,2023-05-29,2023-05-29,株式会社ＳＥＲＵ,,株式会社,埼玉県,川口市,大字安行領根岸２８７６番地フラワーコーポＫ２０２号,,11,203,3330834,,,,,,,2023-05-29,1,,,,,セル,0
2093,9030001154098,新規,0,2023-05-29,2023-05-29,株式会社藤井工業,,株式会社,埼玉県,八潮市,大字南後谷３６番地１０,,11,234,3400831,,,,,,,2023-05-29,1,,,,,フジイコウギョウ,0
2094,9030001154115,新規,0,2023-05-29,2023-05-29,株式会社トーサイリフォーム,,株式会社,埼玉県,三郷市,三郷３丁目１６番地２,,11,237,3410024,,,,,,,2023-05-29,1,,,,,トーサイリフォーム,0
2095,9030001154123,新規,0,2023-05-29,2023-05-29,株式会社Ｋ’ｓ　Ｌａｂ,,株式会社,埼玉県,幸手市,大字高須賀４５１番地２,,11,240,3400102,,,,,,,2023-05-29,1,,,,,ケーズラボ,0
2096,9030001154156,新規,0,2023-05-29,2023-05-29,株式会社盛世国際,,株式会社,埼玉県,吉川市,吉川２丁目２４番地１８－３０３,,11,243,3420055,,,,,,,2023-05-29,1,,,,,セイセイコクサイ,0
2098,9030005021278,新規,0,2023-05-29,2023-05-29,特定非営利活動法人成年後見人本庄,,その他の設立登記法人,埼玉県,本庄市,東台２丁目６番２６号,,11,211,3670021,,,,,,,2023-05-29,1,,,,,セイネンコウケンニンホンジョウ,0
2105,9040003022707,新規,0,2023-05-29,2023-05-29,合同会社サーフサイドヴィラ,,合同会社,千葉県,印西市,船尾１４６７番地４３,,12,231,2701345,,,,,,,2023-05-29,1,,,,,サーフサイドヴィラ,0
2106,9040005022011,新規,0,2023-05-29,2023-05-29,はるか事業協同組合,,その他の設立登記法人,千葉県,香取市,神生１０１０番地,,12,236,2890408,,,,,,,2023-05-29,1,,,,,ハルカ,0
2120,9080101024031,新規,0,2023-05-29,2023-05-29,株式会社伊豆幸,,株式会社,静岡県,下田市,外ケ岡１１番,,22,219,4150000,,,,,,,2023-05-29,1,,,,,イズコウ,0
2122,9090001018140,新規,0,2023-05-29,2023-05-29,株式会社アズサ,,株式会社,山梨県,甲府市,小松町４４０番地,,19,201,4000002,,,,,,,2023-05-29,1,,,,,アズサ,0
2123,9090005007569,新規,0,2023-05-29,2023-05-29,特定非営利活動法人ＡＲＴＳ草山丹花,,その他の設立登記法人,山梨県,甲府市,貢川１丁目１番１２号,,19,201,4000065,,,,,,,2023-05-29,1,,,,,アーツクササンタンカ,0
2125,9100003007032,新規,0,2023-05-29,2023-05-29,手帳コンサル合同会社,,合同会社,長野県,北安曇郡白馬村,大字北城１３０８－３アルプスハイツＣ２２,,20,485,3999301,,,,,,,2023-05-29,1,,,,,テチョウコンサル,0
2129,9110001037567,新規,0,2023-05-29,2023-05-29,ニイガタソウゾウ株式会社,,株式会社,新潟県,燕市,本町１丁目３－３６－１,,15,213,9591253,,,,,,,2023-05-29,1,,,,,ニイガタソウゾウ,0
2143,9120901047573,新規,0,2023-05-29,2023-05-29,株式会社Ａｓｔｒａｍａｒｅ,,株式会社,大阪府,吹田市,広芝町１２番３１－１００５号,,27,205,5640052,,,,,,,2023-05-29,1,,,,,アストロマレ,0
2144,9120901047581,新規,0,2023-05-29,2023-05-29,株式会社ｔｏｙｏｕ,,株式会社,大阪府,豊中市,上新田１丁目１０番１０－３０２号,,27,203,5600085,,,,,,,2023-05-29,1,,,,,トゥーユー,0
2146,9130001074393,新規,0,2023-05-29,2023-05-29,株式会社Ｍ１００,,株式会社,京都府,京都市下京区,七条通油小路東入大黒町２２７番地第２キョートビル４０２,,26,106,6008223,,,,,,,2023-05-29,1,,,,,エムヒャク,0
2154,9170005007016,新規,0,2023-05-29,2023-05-29,一般社団法人不動産管理協会,,その他の設立登記法人,和歌山県,有田郡有田川町,大字上中島７７５番地１,,30,366,6430855,,,,,,,2023-05-29,1,,,,,フドウサンカンリキョウカイ,0
2172,9220001025429,新規,0,2023-05-29,2023-05-29,株式会社ラクロス,,株式会社,石川県,金沢市,堀川新町５番１号,,17,201,9200849,,,,,,,2023-05-29,1,,,,,ラクロス,0
2179,9240001061579,新規,0,2023-05-29,2023-05-29,ココロラボラトリー株式会社,,株式会社,広島県,広島市西区,庚午中３丁目２番８号１階,,34,104,7330822,,,,,,,2023-05-29,1,,,,,ココロラボラトリー,0
2188,9290001101660,新規,0,2023-05-29,2023-05-29,株式会社福健,,株式会社,福岡県,福岡市中央区,天神３丁目８－１３－４階,,40,133,8100001,,,,,,,2023-05-29,1,,,,,フクケン,0
2189,9290001101669,新規,0,2023-05-29,2023-05-29,株式会社ＴＳ　ＺＡＭＰＡ,,株式会社,福岡県,福岡市中央区,黒門６番４‐３０３号,,40,133,8100055,,,,,,,2023-05-29,1,,,,,ティエスジャンパー,0
2190,9290001101677,新規,0,2023-05-29,2023-05-29,株式会社ＪＴＬ　ＰＲＥＬＵＤＥ,,株式会社,福岡県,福岡市博多区,神屋町４－５ＫＳ神屋町ビル３０１,,40,132,8120022,,,,,,,2023-05-29,1,,,,,ジェイティエルプレリュード,0
2191,9290001101685,新規,0,2023-05-29,2023-05-29,株式会社Ｓｏｌ,,株式会社,福岡県,福岡市城南区,長尾３丁目９番３－４１２号アンピール長尾,,40,136,8140123,,,,,,,2023-05-29,1,,,,,ソル,0
2194,9290003013953,新規,0,2023-05-29,2023-05-29,エースマネージ合同会社,,合同会社,福岡県,福岡市博多区,東比恵１丁目２－３０ＤＭＯＳ内,,40,132,8120007,,,,,,,2023-05-29,1,,,,,エースマネージ,0
2195,9290003013961,新規,0,2023-05-29,2023-05-29,アドバリュークリエイション合同会社,,合同会社,福岡県,福岡市城南区,田島６丁目１２番３０号,,40,136,8140113,,,,,,,2023-05-29,1,,,,,アドバリュークリエイション,0
2200,9330001030888,新規,0,2023-05-29,2023-05-29,平成物産株式会社,,株式会社,熊本県,熊本市南区,馬渡１丁目１６番６－４０１号,,43,104,8620968,,,,,,,2023-05-29,1,,,,,ヘイセイブッサン,0
2203,9360001032072,新規,0,2023-05-29,2023-05-29,株式会社みどりデザイン,,株式会社,沖縄県,那覇市,久米２丁目３番１５号５階,,47,201,9000033,,,,,,,2023-05-29,1,,,,,ミドリデザイン,0
2210,9370001050008,新規,0,2023-05-29,2023-05-29,株式会社オフィスオチアイ,,株式会社,宮城県,仙台市泉区,将監殿３丁目７番地の７,,04,105,9813136,,,,,,,2023-05-29,1,,,,,オフィスオチアイ,0
2223,9430001089205,新規,0,2023-05-29,2023-05-29,株式会社グランドル,,株式会社,北海道,札幌市白石区,菊水六条２丁目９番１－２０６号,,01,104,0030806,,,,,,,2023-05-29,1,,,,,グランドル,0
2224,9430003015101,新規,0,2023-05-29,2023-05-29,合同会社ハル,,合同会社,北海道,岩見沢市,上幌向南二条９丁目１１－６,,01,210,0690363,,,,,,,2023-05-29,1,,,,,ハル,0
2225,9430005014695,新規,0,2023-05-29,2023-05-29,労働者協同組合倖羽堂本舗,,その他の設立登記法人,北海道,札幌市豊平区,平岸一条１６丁目８－２４,,01,105,0620931,,,,,,,2023-05-29,1,,,,,コウハドウホンポ,0
2232,9700150116533,新規,0,2023-05-29,2023-05-29,ｓｈｅｎｚｈｅｎｓｈｉ　ｈｕａｙｉｃｈｕａｎｇｇｕｏｊｉｍａｏｙｉ　ｙｏｕｘｉａｎｇｏｎｇｓｉ,,外国会社等,,,,,,,,ＬｏｎｇＨｕａＱｕ　ＦｕＣｈｅｎｇＪｉｅＤａｏ　ＸｉＫｅｎｇＳｈｅＱｕ　ＹｉｎｇＱｉａｏＨｕａＹｕａｎ１６Ｄｏｎｇ４０１　ＳｈｅｎＺｈｅｎ　ＧｕａｎｇＤｏｎｇ,,,,,,2023-05-29,1,,,,,シンセンシフアイツゥアングォウジマオイユウゲンコウシ,0
2233,9700150116541,新規,0,2023-05-29,2023-05-29,Ｆｅｎｇｊｉｎ　ｅｌｅｃｔｒｏｎｉｃｓ　ｔｅｃｈｎｏｌｏｇｙ　Ｃｏ．，Ｌｔｄ．,,外国会社等,,,,,,,,Ｌｏｎｇｇａｎｇ　Ｄｉｓｔｒｉｃｔ，Ｂａｎｔｉａｎ　Ｓｔｒｅｅｔ，Ｙａｙｕａｎ　Ｒｏａｄ，Ｂａｎｔｉａｎ　Ｃｒｅａｔｉｖｅ　Ｐａｒｋ，Ｂｕｉｌｄｉｎｇ　Ｙ４，Ｒｏｏｍ　４０４，Ｓｈｅｎｚｈｅｎ　ＧｕａｎｇＤｏｎｇ　ＣＮ,,,,,,2023-05-29,1,,,,,フェンジンイレクトゥロニクステクノロジーカンパニーリミテッド,0
