sequenceNumber,corporateNumber,process,correct,updateDate,changeDate,name,nameImageId,kind,prefectureName,cityName,streetNumber,addressImageId,prefectureCode,cityCode,postCode,addressOutside,addressOutsideImageId,closeDate,closeCause,successorCorporateNumber,changeCause,assignmentDate,latest,enName,enPrefectureName,enCityName,enAddressOutside,furigana,hihyoji
23,1010805002932,新規,0,2022-04-01,2022-04-01,医療法人社団石庄会,,その他の設立登記法人,東京都,大田区,東糀谷１丁目２０番１８号１階,,13,111,1440033,,,,,,,2022-04-01,1,,,,,イシショウカイ,0
26,1010901050595,新規,0,2022-04-01,2022-04-01,株式会社ベルチェ,,株式会社,東京都,世田谷区,松原３丁目３９番２１－７０５号,,13,112,1560043,,,,,,,2022-04-01,1,,,,,ベルチェ,0
27,1010901050604,新規,0,2022-04-01,2022-04-01,株式会社Ｋホールディングス,,株式会社,東京都,世田谷区,野毛２丁目１３番１５号,,13,112,1580092,,,,,,,2022-04-01,1,,,,,ケーホールディングス,0
35,1011001146631,新規,0,2022-04-01,2022-04-01,株式会社いずみ企画,,株式会社,東京都,渋谷区,円山町５番５号Ｎａｖｉ渋谷Ｖ３階,,13,113,1500044,,,,,,,2022-04-01,1,,,,,イズミキカク,0
40,1011101098384,新規,0,2022-04-01,2022-04-01,恵龍株式会社,,株式会社,東京都,新宿区,西新宿６丁目１５番１－３９０７号,,13,104,1600023,,,,,,,2022-04-01,1,,,,,エリュウ,0
43,1011401024131,新規,0,2022-04-01,2022-04-01,株式会社板橋ＢＡＳＥ,,株式会社,東京都,板橋区,清水町４３番７－１０２号リビオン板橋本町,,13,119,1740053,,,,,,,2022-04-01,1,,,,,イタバシベース,0
44,1011405002190,新規,0,2022-04-01,2022-04-01,一般社団法人日本メディカルコーチコミュニケーター協会,,その他の設立登記法人,東京都,板橋区,南常盤台１丁目１１番６号レフア南常盤台１０１号室,,13,119,1740072,,,,,,,2022-04-01,1,,,,,ニホンメディカルコーチコミュニケーターキョウカイ,0
45,1011601025838,新規,0,2022-04-01,2022-04-01,株式会社ぽん出版,,株式会社,東京都,練馬区,大泉学園町７丁目４番２７号,,13,120,1780061,,,,,,,2022-04-01,1,,,,,ポンシュッパン,0
46,1011701025168,新規,0,2022-04-01,2022-04-01,株式会社島田興業,,株式会社,東京都,江戸川区,東葛西７丁目２０番１２－５０５号,,13,123,1340084,,,,,,,2022-04-01,1,,,,,シマダコウギョウ,0
53,1012701017007,新規,0,2022-04-01,2022-04-01,株式会社ｅｘｐｅｒｉｉｉ,,株式会社,東京都,小平市,仲町５５２,,13,211,1870042,,,,,,,2022-04-01,1,,,,,エクスペリー,0
57,1020001145873,新規,0,2022-04-01,2022-04-01,株式会社匠,,株式会社,神奈川県,川崎市多摩区,登戸３１２９－２－１０６,,14,135,2140014,,,,,,,2022-04-01,1,,,,,タクミ,0
60,1021001075573,新規,0,2022-04-01,2022-04-01,株式会社ＮＯＭＡＤ,,株式会社,神奈川県,小田原市,栄町２丁目１１番１９号,,14,206,2500011,,,,,,,2022-04-01,1,,,,,ノマド,0
66,1030001147407,新規,0,2022-04-01,2022-04-01,株式会社ｖｉｓｉｏｎ,,株式会社,埼玉県,吉川市,大字川野７５番地２,,11,243,3420051,,,,,,,2022-04-01,1,,,,,ヴィジョン,0
67,1030001147497,新規,0,2022-04-01,2022-04-01,株式会社タカギ,,株式会社,埼玉県,さいたま市岩槻区,本町３丁目３番４号７０４,,11,110,3390057,,,,,,,2022-04-01,1,,,,,タカギ,0
68,1030001147514,新規,0,2022-04-01,2022-04-01,株式会社街並み創造建築利活用ラボ,,株式会社,埼玉県,川口市,中青木３丁目２番５号,,11,203,3320032,,,,,,,2022-04-01,1,,,,,マチナミソウゾウケンチクリカツヨウラボ,0
72,1030003019100,新規,0,2022-04-01,2022-04-01,ＳＰＩＮＡ　ＰＡＲＴＮＥＲＳ合同会社,,合同会社,埼玉県,朝霞市,根岸台５丁目１４番１号,,11,227,3510005,,,,,,,2022-04-01,1,,,,,スピナパートナーズ,0
73,1030003019117,新規,0,2022-04-01,2022-04-01,合同会社ハートレスサークル,,合同会社,埼玉県,北葛飾郡杉戸町,杉戸４丁目１５番１号コスモ東武動物公園３０２,,11,464,3450036,,,,,,,2022-04-01,1,,,,,ハートレスサークル,0
74,1030003019125,新規,0,2022-04-01,2022-04-01,栄貿金属合同会社,,合同会社,埼玉県,鴻巣市,箕田３４０１番地１,,11,217,3650062,,,,,,,2022-04-01,1,,,,,エイボウキンゾク,0
75,1030003019133,新規,0,2022-04-01,2022-04-01,ＹＡＭＡＴＯ　ＩＮＴＥＲＮＡＴＩＯＮＡＬ合同会社,,合同会社,埼玉県,川口市,川口４丁目５番３９号,,11,203,3320015,,,,,,,2022-04-01,1,,,,,ヤマトインターナショナル,0
86,1040005021557,新規,0,2022-04-01,2022-04-01,八千代台グレイスフィールド団地管理組合法人,,その他の設立登記法人,千葉県,八千代市,八千代台北１１丁目３０８番１,,12,221,2760031,,,,,,,2022-04-01,1,,,,,ヤチヨダイグレイスフィールド,0
87,1050001050880,新規,0,2022-04-01,2022-04-01,株式会社ユイ通信,,株式会社,茨城県,水戸市,吉沢町１２番地の２７アビタシオン２０１号,,08,201,3100845,,,,,,,2022-04-01,1,,,,,ユイツウシン,0
94,1070003004437,新規,0,2022-04-01,2022-04-01,合同会社ＯＷＬＩＮＫ,,合同会社,群馬県,前橋市,西片貝町２丁目７１番地３,,10,201,3710013,,,,,,,2022-04-01,1,,,,,アウリンク,0
98,1080103002562,新規,0,2022-04-01,2022-04-01,合同会社松崎アーカイブ,,合同会社,静岡県,賀茂郡松崎町,松崎３２２番地の４,,22,305,4103611,,,,,,,2022-04-01,1,,,,,マツザキアーカイブ,0
100,1080401025711,新規,0,2022-04-01,2022-04-01,株式会社ＢＪＮ　ＩＮＴＥＲＮＡＴＩＯＮＡＬ,,株式会社,静岡県,浜松市中区,伝馬町３１２番地の１９、３階,,22,131,4300935,,,,,,,2022-04-01,1,,,,,ビージェイエヌインターナショナル,0
102,1090001017496,新規,0,2022-04-01,2022-04-01,桜子健康スタジオ株式会社,,株式会社,山梨県,南アルプス市,古市場７０２番地２,,19,208,4000404,,,,,,,2022-04-01,1,,,,,サクラコケンコウスタジオ,0
103,1100001035208,新規,0,2022-04-01,2022-04-01,株式会社ＡＬＢＡ　ＬＩＺＥ,,株式会社,長野県,松本市,寿北３丁目１０番１２号,,20,202,3990011,,,,,,,2022-04-01,1,,,,,アルバライズ,0
107,1110005016772,新規,0,2022-04-01,2022-04-01,特定非営利活動法人介護者支援会議,,その他の設立登記法人,新潟県,新潟市江南区,茜ケ丘６番１６号,,15,104,9500212,,,,,,,2022-04-01,1,,,,,カイゴシャシエンカイギ,0
115,1120001244756,新規,0,2022-04-01,2022-04-01,バイトブーム株式会社,,株式会社,大阪府,大阪市旭区,新森３丁目１４番２０号,,27,117,5350022,,,,,,,2022-04-01,1,,,,,バイトブーム,0
116,1120001244789,新規,0,2022-04-01,2022-04-01,Ｂｅｌｌｅ　Ｓｔｅｌｌａ株式会社,,株式会社,大阪府,大阪市北区,中之島６丁目２番２７号中之島センタービルホテルＮＣＢ２Ｆ,,27,127,5300005,,,,,,,2022-04-01,1,,,,,ベルステラ,0
117,1120001244806,新規,0,2022-04-01,2022-04-01,株式会社ＫＯＭＡホールディングス,,株式会社,大阪府,大阪市西区,西本町１丁目１２番１０号,,27,106,5500005,,,,,,,2022-04-01,1,,,,,コマホールディングス,0
120,1120003021385,新規,0,2022-04-01,2022-04-01,ワイエフ合資会社,,合資会社,大阪府,大阪市北区,天神橋３丁目１番２１号,,27,127,5300041,,,,,,,2022-04-01,1,,,,,ワイエフ,0
124,1120101065301,新規,0,2022-04-01,2022-04-01,株式会社プロバイニング,,株式会社,大阪府,羽曳野市,伊賀５丁目１２番１号,,27,222,5830876,,,,,,,2022-04-01,1,,,,,プロバイニング,0
127,1120901045782,新規,0,2022-04-01,2022-04-01,株式会社ＬＩＮＫＡＧＥ　ＮＥＸＴ,,株式会社,大阪府,茨木市,大池２丁目１８番２３号,,27,211,5670826,,,,,,,2022-04-01,1,,,,,リンケージネクスト,0
148,1140001125426,新規,0,2022-04-01,2022-04-01,株式会社たにけんＨＯＭＥ,,株式会社,兵庫県,姫路市,下手野４丁目３番３２号,,28,201,6700063,,,,,,,2022-04-01,1,,,,,タニケンホーム,0
151,1140003017514,新規,0,2022-04-01,2022-04-01,合同会社ＪｏＲｉｋｕ,,合同会社,兵庫県,宝塚市,中筋山手１丁目１１番１号,,28,214,6650875,,,,,,,2022-04-01,1,,,,,ジョウリク,0
157,1170001017034,新規,0,2022-04-01,2022-04-01,株式会社リリーデザイン,,株式会社,和歌山県,新宮市,神倉２丁目８番１３号,,30,207,6470044,,,,,,,2022-04-01,1,,,,,リリーデザイン,0
162,1180001150560,新規,0,2022-04-01,2022-04-01,かわづ不動産株式会社,,株式会社,愛知県,名古屋市天白区,原２丁目１７０１番地,,23,116,4680015,,,,,,,2022-04-01,1,,,,,カワヅフドウサン,0
163,1180001150610,新規,0,2022-04-01,2022-04-01,株式会社ｔｒｅｅ,,株式会社,愛知県,名古屋市中区,丸の内２丁目６番２０号プレサンス丸の内レジデンスＩＩＩ７０３号,00126127,23,106,4600002,,,,,,,2022-04-01,1,,,,,ツリー,0
164,1180001150619,新規,0,2022-04-01,2022-04-01,株式会社ＬｅａＬｅａｄ,,株式会社,愛知県,名古屋市中村区,名駅３丁目２８－１２大名古屋ビルヂング１１階,,23,105,4500002,,,,,,,2022-04-01,1,,,,,レアリード,0
174,1200003005520,新規,0,2022-04-01,2022-04-01,コネクトワークス合同会社,,合同会社,岐阜県,瑞浪市,釜戸町５７－２６,,21,208,5096472,,,,,,,2022-04-01,1,,,,,コネクトワークス,0
182,1240001059531,新規,0,2022-04-01,2022-04-01,株式会社エール,,株式会社,広島県,東広島市,西条町御薗宇５４６９番地７エール３０１号,,34,212,7390024,,,,,,,2022-04-01,1,,,,,エール,0
186,1240005015365,新規,0,2022-04-01,2022-04-01,一般社団法人ＳＵＮＳ　ＰＲＯＧＲＥＤＩＲＥ,,その他の設立登記法人,広島県,廿日市市,住吉２丁目１４番１－５０４号,,34,213,7380014,,,,,,,2022-04-01,1,,,,,サンズプログレディーレ,0
193,1290001096990,新規,0,2022-04-01,2022-04-01,株式会社Ｂｒｉｄｇｅｔｙ,,株式会社,福岡県,福岡市城南区,別府６丁目１０番２７号,,40,136,8140104,,,,,,,2022-04-01,1,,,,,ブリジティー,0
200,1300001012855,新規,0,2022-04-01,2022-04-01,株式会社ヨシドミ,,株式会社,佐賀県,佐賀市,諸富町大字山領７５１番地イ,,41,201,8402106,,,,,,,2022-04-01,1,,,,,ヨシドミ,0
209,1360001030182,新規,0,2022-04-01,2022-04-01,株式会社マーシュ,,株式会社,沖縄県,糸満市,字武富３６５番地,,47,210,9010311,,,,,,,2022-04-01,1,,,,,マーシュ,0
210,1370001048372,新規,0,2022-04-01,2022-04-01,株式会社福猫本舗,,株式会社,宮城県,仙台市宮城野区,銀杏町７番３９号,,04,102,9830047,,,,,,,2022-04-01,1,,,,,フクネコホンポ,0
218,1410001013132,新規,0,2022-04-01,2022-04-01,株式会社ハウスフォワード,,株式会社,秋田県,北秋田市,綴子字糠沢３５番地１,,05,213,0183301,,,,,,,2022-04-01,1,,,,,ハウスフォワード,0
224,1430001086300,新規,0,2022-04-01,2022-04-01,株式会社ニボーデコ,,株式会社,北海道,札幌市中央区,南三条西２丁目１７番地２,,01,101,0600063,,,,,,,2022-04-01,1,,,,,ニボーデコ,0
235,1490001010147,新規,0,2022-04-01,2022-04-01,株式会社大誠,,株式会社,高知県,高知市,潮新町２丁目１２番２３号,,39,201,7818008,,,,,,,2022-04-01,1,,,,,タイセイ,0
241,1700150107606,新規,0,2022-04-01,2022-04-01,Ｙａｎｋａ　Ｉｎｄｕｓｔｒｉｅｓ，Ｉｎｃ．,,外国会社等,,,,,,,,４７５　ＢＲＡＮＮＡＮ　ＳＴ，＃２３０，ＳＡＮ　ＦＲＡＮＣＩＳＣＯ，　９４１０７，ＣＡＬＩＦＯＲＮＩＡ，ＵＳ,,,,,,2022-04-01,1,,,,,ヤンカインダストリーズインク,0
249,2010001225527,新規,0,2022-04-01,2022-04-01,株式会社コスモクオークインターナショナル,,株式会社,東京都,中央区,銀座１丁目２０番１１号銀座１２０ビル３階,,13,102,1040061,,,,,,,2022-04-01,1,,,,,コスモクオークインターナショナル,0
250,2010001225576,新規,0,2022-04-01,2022-04-01,株式会社Ｕｐｄｒａｆｔ　ｍｅｄｉａ,,株式会社,東京都,中央区,日本橋３丁目２番１４号新槇町ビル別館第一２階,,13,102,1030027,,,,,,,2022-04-01,1,,,,,アップドラフトメディア,0
260,2010401166528,新規,0,2022-04-01,2022-04-01,ＧＵＬＵ株式会社,,株式会社,東京都,港区,虎ノ門１丁目２１番１０－４０９号,,13,103,1050001,,,,,,,2022-04-01,1,,,,,グル,0
261,2010401166552,新規,0,2022-04-01,2022-04-01,ＬＥＮＧＴＨ株式会社,,株式会社,東京都,港区,東新橋２丁目５番１１号,,13,103,1050021,,,,,,,2022-04-01,1,,,,,レングス,0
265,2010601060902,新規,0,2022-04-01,2022-04-01,株式会社エムズフラット,,株式会社,東京都,墨田区,錦糸１丁目１５番１６号,,13,107,1300013,,,,,,,2022-04-01,1,,,,,エムズフラット,0
266,2010701042445,新規,0,2022-04-01,2022-04-01,株式会社アルクススタッフィング,,株式会社,東京都,品川区,西五反田７丁目２２番１７号,,13,109,1410031,,,,,,,2022-04-01,1,,,,,アルクススタッフィング,0
267,2010703006175,新規,0,2022-04-01,2022-04-01,合同会社ＧＲＡＮＣ,,合同会社,東京都,品川区,南大井１丁目１２－１グランククナ４０６,,13,109,1400013,,,,,,,2022-04-01,1,,,,,グラン,0
268,2010803004112,新規,0,2022-04-01,2022-04-01,Ａコネクト合同会社,,合同会社,東京都,大田区,西馬込２丁目３０－５,,13,111,1430026,,,,,,,2022-04-01,1,,,,,エーコネクト,0
273,2010903007270,新規,0,2022-04-01,2022-04-01,ストリーム・ワークス合同会社,,合同会社,東京都,世田谷区,三軒茶屋２丁目４１番２号ダイヤアクティ三軒茶屋２０１号室,,13,112,1540024,,,,,,,2022-04-01,1,,,,,ストリームワークス,0
274,2010905004290,新規,0,2022-04-01,2022-04-01,一般社団法人戦災復興支援センター,,その他の設立登記法人,東京都,世田谷区,代田６丁目８番１７号ベルエアレジデンス下北沢３号,,13,112,1550033,,,,,,,2022-04-01,1,,,,,センサイフッコウシエンセンター,0
277,2011001146630,新規,0,2022-04-01,2022-04-01,ＦＬＵＦＦＹ株式会社,,株式会社,東京都,渋谷区,幡ヶ谷３丁目５０番２号,,13,113,1510072,,,,,,,2022-04-01,1,,,,,フルッフィー,0
278,2011001146655,新規,0,2022-04-01,2022-04-01,株式会社ＯＰＴＩＣＯ,,株式会社,東京都,渋谷区,渋谷４丁目２－２４Ｌｉｖｅ青山３階,,13,113,1500002,,,,,,,2022-04-01,1,,,,,オプティコ,0
284,2011101098342,新規,0,2022-04-01,2022-04-01,株式会社ＦｌｏｗｅｒＦｅｅｌｄ,,株式会社,東京都,新宿区,西新宿３丁目３－１３西新宿水間ビル６Ｆ,,13,104,1600023,,,,,,,2022-04-01,1,,,,,フラワーフィールド,0
287,2011203003786,新規,0,2022-04-01,2022-04-01,合同会社Ｐｏｎｔｅ　Ｐｉｎｏ,,合同会社,東京都,中野区,野方１丁目３０番４号クイーンズ野方５０２,,13,114,1650027,,,,,,,2022-04-01,1,,,,,ポンテピノ,0
301,2011801040520,新規,0,2022-04-01,2022-04-01,株式会社鐵,,株式会社,東京都,葛飾区,高砂５丁目３９番１号サンワールドビル３階,,13,122,1250054,,,,,,,2022-04-01,1,,,,,クロガネ,0
307,2013303006108,新規,0,2022-04-01,2022-04-01,合同会社プライドパンチ,,合同会社,東京都,豊島区,池袋３丁目６７番２号,,13,116,1710014,,,,,,,2022-04-01,1,,,,,プライドパンチ,0
313,2020001145906,新規,0,2022-04-01,2022-04-01,株式会社ＧＯ,,株式会社,神奈川県,横浜市南区,別所６丁目４番４３号,,14,105,2320064,,,,,,,2022-04-01,1,,,,,ジーオー,0
316,2020003021477,新規,0,2022-04-01,2022-04-01,ヒトココロラボ合同会社,,合同会社,神奈川県,横浜市港北区,新横浜１丁目１８－３エトワールＩＩ－２０１,00126129,14,109,2220033,,,,,,,2022-04-01,1,,,,,ヒトココロラボ,0
318,2021001075572,新規,0,2022-04-01,2022-04-01,プログレス株式会社,,株式会社,神奈川県,相模原市南区,相模台５丁目６番１８号,,14,153,2520321,,,,,,,2022-04-01,1,,,,,プログレス,0
323,2030003019124,新規,0,2022-04-01,2022-04-01,合同会社ＬＩＢ,,合同会社,埼玉県,さいたま市岩槻区,美幸町４－３４,,11,110,3390063,,,,,,,2022-04-01,1,,,,,リブ,0
326,2040001122829,新規,0,2022-04-01,2022-04-01,株式会社Ｔｒｅａｓｕｒｅ　Ｙａｒｄ,,株式会社,千葉県,市川市,南八幡３丁目７－７内宮シティハイツ５０５,,12,203,2720023,,,,,,,2022-04-01,1,,,,,トレジャーヤード,0
337,2080103002561,新規,0,2022-04-01,2022-04-01,合同会社マミヤ,,合同会社,静岡県,裾野市,桃園５２番地の７０,,22,220,4101126,,,,,,,2022-04-01,1,,,,,マミヤ,0
339,2080401025710,新規,0,2022-04-01,2022-04-01,株式会社Ｓ．ＦＡＲＭ,,株式会社,静岡県,掛川市,板沢４９６番地の５,,22,213,4360016,,,,,,,2022-04-01,1,,,,,エスファーム,0
340,2080405007440,新規,0,2022-04-01,2022-04-01,医療法人社団太田歯科,,その他の設立登記法人,静岡県,湖西市,新居町中之郷４００４番地,,22,221,4310301,,,,,,,2022-04-01,1,,,,,オオタシカ,0
347,2120001244755,新規,0,2022-04-01,2022-04-01,新澤国際株式会社,,株式会社,大阪府,大阪市浪速区,芦原２丁目５番４０号,,27,111,5560029,,,,,,,2022-04-01,1,,,,,シンザワコクサイ,0
348,2120001244805,新規,0,2022-04-01,2022-04-01,あいた株式会社,,株式会社,大阪府,大阪市中央区,農人橋２丁目４番３号Ｔａｎｉ－ｍａｔｃｈＦｕｋｕｂ．ｌ．ｄ．３Ｆ－Ｂ,,27,128,5400011,,,,,,,2022-04-01,1,,,,,アイタ,0
359,2130003007845,新規,0,2022-04-01,2022-04-01,合同会社Ｋｏｓ,,合同会社,京都府,京都市右京区,太秦馬塚町１８番地９,,26,108,6168177,,,,,,,2022-04-01,1,,,,,コス,0
363,2140001125417,新規,0,2022-04-01,2022-04-01,株式会社アイアーツ,,株式会社,兵庫県,神戸市中央区,浜辺通４丁目１番２３号,,28,110,6510083,,,,,,,2022-04-01,1,,,,,アイアーツ,0
364,2140001125425,新規,0,2022-04-01,2022-04-01,こばん産業株式会社,,株式会社,兵庫県,川西市,湯山台２丁目８２番地の４,,28,217,6660137,,,,,,,2022-04-01,1,,,,,コバンサンギョウ,0
365,2140001125433,新規,0,2022-04-01,2022-04-01,株式会社ＦＵＺＩＸ,,株式会社,兵庫県,尼崎市,建家町５２番地オリオンハープクリーク４０２,,28,202,6600871,,,,,,,2022-04-01,1,,,,,フジックス,0
369,2140003017521,新規,0,2022-04-01,2022-04-01,合同会社ＤＥＥＢＯ,,合同会社,兵庫県,姫路市,六角４２３番地３,,28,201,6712242,,,,,,,2022-04-01,1,,,,,ディーボ,0
373,2170003001704,新規,0,2022-04-01,2022-04-01,合同会社おいけ,,合同会社,和歌山県,紀の川市,貴志川町長山１２８２番地３号,,30,208,6400416,,,,,,,2022-04-01,1,,,,,オイケ,0
385,2180001150601,新規,0,2022-04-01,2022-04-01,株式会社トランザム,,株式会社,愛知県,名古屋市中川区,山王１丁目８番１９号ミコノス山王４０２,,23,110,4540011,,,,,,,2022-04-01,1,,,,,トランザム,0
386,2180001150634,新規,0,2022-04-01,2022-04-01,株式会社オールスターズ,,株式会社,愛知県,弥富市,操出１０丁目２番地,,23,235,4980061,,,,,,,2022-04-01,1,,,,,オールスターズ,0
392,2200003005511,新規,0,2022-04-01,2022-04-01,合同会社前田コーポレーション,,合同会社,岐阜県,可児市,羽崎２３０番地１,,21,214,5090222,,,,,,,2022-04-01,1,,,,,マエダコーポレーション,0
402,2240001059530,新規,0,2022-04-01,2022-04-01,株式会社ＦＵＬＬ　ＦＬＡＳＨ,,株式会社,広島県,広島市東区,中山中町１番１号,,34,102,7320026,,,,,,,2022-04-01,1,,,,,フルフラッシュ,0
405,2250001019475,新規,0,2022-04-01,2022-04-01,株式会社ＴＷＯ　ＴＯＰ,,株式会社,山口県,下松市,大字末武中１３８９番地１,,35,207,7440023,,,,,,,2022-04-01,1,,,,,ツートップ,0
416,2280001008665,新規,0,2022-04-01,2022-04-01,株式会社やぎのいえ,,株式会社,島根県,安来市,伯太町峠之内４１６番地,,32,206,6920218,,,,,,,2022-04-01,1,,,,,,0
430,2330001029565,新規,0,2022-04-01,2022-04-01,株式会社優建設,,株式会社,熊本県,天草市,有明町上津浦１２４６番地７,,43,215,8617311,,,,,,,2022-04-01,1,,,,,ユウケンセツ,0
431,2350005006055,新規,0,2022-04-01,2022-04-01,一般社団法人延岡こども未来創造機構,,その他の設立登記法人,宮崎県,延岡市,栄町５番地１,,45,203,8820054,,,,,,,2022-04-01,1,,,,,ノベオカコドモミライソウゾウキコウ,0
440,2380001032696,新規,0,2022-04-01,2022-04-01,株式会社ｋｕｍａｐｒｏ,,株式会社,福島県,郡山市,町東３丁目１番地ハイライズＭＲ－Ａ１０２,,07,203,9638046,,,,,,,2022-04-01,1,,,,,クマプロ,0
441,2390001016839,新規,0,2022-04-01,2022-04-01,株式会社アドミンフリー,,株式会社,山形県,天童市,大字藤内新田１５１５番地の１,,06,210,9940074,,,,,,,2022-04-01,1,,,,,アドミンフリー,0
444,2410001013131,新規,0,2022-04-01,2022-04-01,株式会社ＳＴＭ,,株式会社,秋田県,横手市,前郷二番町８番１８号,,05,203,0130037,,,,,,,2022-04-01,1,,,,,エスティーエム,0
448,2430001086299,新規,0,2022-04-01,2022-04-01,株式会社ｌｉｅｎ,,株式会社,北海道,札幌市白石区,平和通２丁目南６番３４－２１２号,,01,104,0030028,,,,,,,2022-04-01,1,,,,,リアン,0
449,2430001086308,新規,0,2022-04-01,2022-04-01,株式会社リソルド,,株式会社,北海道,札幌市中央区,南二条西１０丁目１０００番地２０ＵＧＡ札幌南２条ビル４階,,01,101,0600062,,,,,,,2022-04-01,1,,,,,リソルド,0
453,2430005014421,新規,0,2022-04-01,2022-04-01,特定非営利活動法人森のこころね,,その他の設立登記法人,北海道,勇払郡厚真町,字豊沢２４０番地の１４１,,01,581,0591624,,,,,,,2022-04-01,1,,,,,モリノココロネ,0
456,2490005006834,新規,0,2022-04-01,2022-04-01,一般社団法人高知イノベーションベース,,その他の設立登記法人,高知県,高知市,新本町２丁目４番地３,,39,201,7800062,,,,,,,2022-04-01,1,,,,,コウチイノベーションベース,0
458,2700150107605,新規,0,2022-04-01,2022-04-01,Ｓｍａｌｌ　Ｇｉａｎｔ　Ｇａｍｅｓ　Ｏｙ,,外国会社等,,,,,,,,Ｋａｓａｒｍｉｋａｔｕ　４２　００１３０　Ｈｅｌｓｉｎｋｉ　Ｆｉｎｌａｎｄ,,,,,,2022-04-01,1,,,,,スモールジヤイアントゲームズ,0
459,2700150107646,新規,0,2022-04-01,2022-04-01,Ｉｎｔｅｒｎａｔｉｏｎａｌ　Ｓｏｃｉｅｔｙ　ｏｆ　Ｍｙａｎｍａｒ　Ｓｃｈｏｌａｒｓ　ａｎｄ　Ｐｒｏｆｅｓｓｉｏｎａｌｓ（ＩＳＭＳＰ－ＭＭ）,,その他,東京都,江東区,枝川１丁目１５番１１号,,13,108,1350051,,,,,,,2022-04-01,1,,,,,インターナションナルソサイアティオブミャンマースコラズアンドプロフェッショナルズアイエスエムエスピーエムエム,0
471,3010401166403,新規,0,2022-04-01,2022-04-01,ジェイマルシェ株式会社,,株式会社,東京都,港区,南青山２丁目２番１５号ウィン青山９４２,,13,103,1070062,,,,,,,2022-04-01,1,,,,,ジェイマルシェ,0
472,3010401166510,新規,0,2022-04-01,2022-04-01,バイオヘルステック株式会社,,株式会社,東京都,港区,北青山２丁目７番１３号プラセオ青山ビル３階,,13,103,1070061,,,,,,,2022-04-01,1,,,,,バイオヘルステック,0
473,3010401166519,新規,0,2022-04-01,2022-04-01,株式会社日本３Ｄコンサルティンググループ,,株式会社,東京都,港区,芝浦４丁目４番２７－５１６号,,13,103,1080023,,,,,,,2022-04-01,1,,,,,ニホンスリーディーコンサルティンググループ,0
476,3010601060901,新規,0,2022-04-01,2022-04-01,株式会社深川蒸留所,,株式会社,東京都,江東区,平野２丁目３番１５号,,13,108,1350023,,,,,,,2022-04-01,1,,,,,フカガワジョウリュウショ,0
478,3010603009467,新規,0,2022-04-01,2022-04-01,宏盛合同会社,,合同会社,東京都,江東区,亀戸５丁目９番１５号ホームタウンハヤシＩ－２０５,00126124,13,108,1360071,,,,,,,2022-04-01,1,,,,,コウセイ,0
483,3010701042436,新規,0,2022-04-01,2022-04-01,ＭＭＭ　Ｈｏｌｄｉｎｇｓ株式会社,,株式会社,東京都,品川区,小山７丁目８番２２号松本ハウスＡ棟,,13,109,1420062,,,,,,,2022-04-01,1,,,,,エムエムエムホールディングス,0
484,3010703006174,新規,0,2022-04-01,2022-04-01,合同会社ＫＯＩＫＥ,,合同会社,東京都,品川区,豊町１丁目５番３－１００３号,,13,109,1420042,,,,,,,2022-04-01,1,,,,,コイケ,0
488,3010803004111,新規,0,2022-04-01,2022-04-01,合同会社Ａｒｅｉ,,合同会社,東京都,大田区,山王４丁目２番１８－４０８号,,13,111,1430023,,,,,,,2022-04-01,1,,,,,アレイ,0
495,3011001146613,新規,0,2022-04-01,2022-04-01,株式会社インクリースアイランド,,株式会社,東京都,渋谷区,神宮前１丁目６番１２号ｉｔｏビル２階Ｅ,,13,113,1500001,,,,,,,2022-04-01,1,,,,,インクリースアイランド,0
500,3011101098341,新規,0,2022-04-01,2022-04-01,株式会社ＮＯＶＥＬ　ＲＥＰＵＢＬＩＣ,,株式会社,東京都,新宿区,西新宿５丁目５－１ザ・パークハウス西新宿タワー６０、９１５号室,,13,104,1600023,,,,,,,2022-04-01,1,,,,,,0
503,3011103011574,新規,0,2022-04-01,2022-04-01,ＩＴＥＲＲＡ合同会社,,合同会社,東京都,新宿区,西新宿５丁目２１番１６号セゾン松本２０２,,13,104,1600023,,,,,,,2022-04-01,1,,,,,イテラ,0
508,3011501027890,新規,0,2022-04-01,2022-04-01,株式会社イマン,,株式会社,東京都,北区,田端新町２丁目３２番１号,,13,117,1140012,,,,,,,2022-04-01,1,,,,,イマン,0
529,3020001145863,新規,0,2022-04-01,2022-04-01,株式会社クローバーセイカ,,株式会社,神奈川県,川崎市幸区,塚越３丁目３８０－６,,14,132,2120024,,,,,,,2022-04-01,1,,,,,クローバーセイカ,0
530,3020001145888,新規,0,2022-04-01,2022-04-01,株式会社ＮＫＵ　ＦＬＥＵＲ,,株式会社,神奈川県,横浜市港北区,鳥山町２９２番地４,,14,109,2220035,,,,,,,2022-04-01,1,,,,,エヌケイユーフルール,0
546,3030001147487,新規,0,2022-04-01,2022-04-01,渡邊建設工業株式会社,,株式会社,埼玉県,川口市,青木４丁目２１番２１－１００５号,,11,203,3320031,,,,,,,2022-04-01,1,,,,,ワタナベケンセツコウギョウ,0
547,3030001147495,新規,0,2022-04-01,2022-04-01,株式会社匠,,株式会社,埼玉県,所沢市,東所沢４丁目１８番地の４,,11,208,3590021,,,,,,,2022-04-01,1,,,,,タクミ,0
549,3030003019123,新規,0,2022-04-01,2022-04-01,Ｚｅｒｏ　Ｃｉｒｃｌｅ合同会社,,合同会社,埼玉県,加須市,南篠崎７７５番地８,,11,210,3470017,,,,,,,2022-04-01,1,,,,,ゼロサークル,0
550,3030003019131,新規,0,2022-04-01,2022-04-01,Ａ＆Ｋ合同会社,,合同会社,埼玉県,入間市,大字二本木１２１３－１,,11,225,3580015,,,,,,,2022-04-01,1,,,,,エーアンドケー,0
559,3050001050862,新規,0,2022-04-01,2022-04-01,四会富仕日本株式会社,,株式会社,茨城県,筑西市,一本松３５２番地１,,08,227,3080842,,,,,,,2022-04-01,1,,,,,シカイフシニホン,0
566,3060003003999,新規,0,2022-04-01,2022-04-01,合同会社とちぎ電力,,合同会社,栃木県,下野市,駅東３丁目６番９号,,09,216,3290413,,,,,,,2022-04-01,1,,,,,トチギデンリョク,0
571,3070005009969,新規,0,2022-04-01,2022-04-01,一般社団法人明日笑,,その他の設立登記法人,群馬県,太田市,鳥山上町２３３１番地６,,10,205,3730061,,,,,,,2022-04-01,1,,,,,アスエミ,0
572,3080001024830,新規,0,2022-04-01,2022-04-01,株式会社ドリームペイント,,株式会社,静岡県,静岡市清水区,袖師町３７０番地の２,,22,103,4240037,,,,,,,2022-04-01,1,,,,,ドリームペイント,0
575,3080103002552,新規,0,2022-04-01,2022-04-01,合同会社松崎プロジェクト,,合同会社,静岡県,賀茂郡松崎町,道部３７１番地の９,,22,305,4103618,,,,,,,2022-04-01,1,,,,,マツザキプロジェクト,0
584,3110005016770,新規,0,2022-04-01,2022-04-01,一般社団法人日本リーガル相続・事業承継支援機構,,その他の設立登記法人,新潟県,新潟市中央区,東大通１丁目１番１５号,,15,103,9500087,,,,,,,2022-04-01,1,,,,,ニホンリーガルソウゾクジギョウショウケイシエンキコウ,0
590,3120001244804,新規,0,2022-04-01,2022-04-01,株式会社ＴＯＭ　ＪＡＰＡＮ,,株式会社,大阪府,大阪市中央区,南船場３丁目１番７号日宝東心斎橋ビル６Ｆ７,,27,128,5420081,,,,,,,2022-04-01,1,,,,,トムジャパン,0
601,3130001071438,新規,0,2022-04-01,2022-04-01,株式会社一陽舎,,株式会社,京都府,京都市左京区,大原来迎院町３４６番地,,26,103,6011242,,,,,,,2022-04-01,1,,,,,イチヨウシャ,0
626,3180001150625,新規,0,2022-04-01,2022-04-01,株式会社ＡＩＲ　ＬＩＦＥ,,株式会社,愛知県,一宮市,赤見２丁目１１番１０号,,23,203,4910023,,,,,,,2022-04-01,1,,,,,エアーライフ,0
627,3180001150633,新規,0,2022-04-01,2022-04-01,株式会社ＩＣ　Ｇｒｏｕｐ,,株式会社,愛知県,名古屋市中区,栄５丁目２６番３９号ＧＳ栄ビル３Ｆ,,23,106,4600008,,,,,,,2022-04-01,1,,,,,アイシーグループ,0
629,3180003023663,新規,0,2022-04-01,2022-04-01,合同会社ＣＨＡＴ,,合同会社,愛知県,名古屋市東区,豊前町３丁目３４番地オープンレジデンシア桜通豊前町３０２号,,23,102,4610034,,,,,,,2022-04-01,1,,,,,チャット,0
634,3190001029265,新規,0,2022-04-01,2022-04-01,株式会社ＮＥＸＴクリエイト,,株式会社,三重県,津市,久居一色町３１２番地１,,24,201,5141253,,,,,,,2022-04-01,1,,,,,ネクストクリエイト,0
638,3200003005519,新規,0,2022-04-01,2022-04-01,エイティパーソナライズ合同会社,,合同会社,岐阜県,瑞穂市,只越８９７番地７,,21,216,5010221,,,,,,,2022-04-01,1,,,,,エイティパーソナライズ,0
643,3220001024766,新規,0,2022-04-01,2022-04-01,ｕｒｕ株式会社,,株式会社,石川県,金沢市,増泉２丁目１２番１２号,,17,201,9218025,,,,,,,2022-04-01,1,,,,,ウル,0
647,3240001059521,新規,0,2022-04-01,2022-04-01,谷川工務店株式会社,,株式会社,広島県,尾道市,美ノ郷町本郷１０８１番地５,,34,205,7220212,,,,,,,2022-04-01,1,,,,,タニガワコウムテン,0
654,3290001096989,新規,0,2022-04-01,2022-04-01,エイチアイグループ株式会社,,株式会社,福岡県,久留米市,北野町石崎５６番地１,,40,203,8301116,,,,,,,2022-04-01,1,,,,,エイチアイグループ,0
655,3290003012341,新規,0,2022-04-01,2022-04-01,合同会社ＡＲＫ　ＴＹＰ,,合同会社,福岡県,福岡市南区,平和１丁目２３番４３号ライオンズマンション平和ガーデン２０１号,,40,134,8150071,,,,,,,2022-04-01,1,,,,,アークタイプ,0
657,3320001018989,新規,0,2022-04-01,2022-04-01,株式会社祐貴や,,株式会社,大分県,宇佐市,大字法鏡寺１８８番地の１,,44,211,8790454,,,,,,,2022-04-01,1,,,,,ユウキヤ,0
664,3350005006054,新規,0,2022-04-01,2022-04-01,農事組合法人すっのだん,,その他の設立登記法人,宮崎県,都城市,丸谷町５４番地１,,45,202,8851105,,,,,,,2022-04-01,1,,,,,スッノダン,0
666,3360003011906,新規,0,2022-04-01,2022-04-01,合同会社トミューアソシエイツ,,合同会社,沖縄県,豊見城市,字翁長８５４番地１,,47,212,9010223,,,,,,,2022-04-01,1,,,,,トミューアソシエイツ,0
676,3380003005138,新規,0,2022-04-01,2022-04-01,合同会社まぐプロ,,合同会社,福島県,南相馬市,小高区塚原字堂林３４－１,,07,212,9792104,,,,,,,2022-04-01,1,,,,,マグプロ,0
679,3400003002917,新規,0,2022-04-01,2022-04-01,合同会社シップラス,,合同会社,岩手県,紫波郡紫波町,北日詰字下東ノ坊８番地２アルバエスト１０３号室,,03,321,0283309,,,,,,,2022-04-01,1,,,,,シップラス,0
689,3430003013770,新規,0,2022-04-01,2022-04-01,ＴｈｉｎｋＨｅｌｐｅｒ合同会社,,合同会社,北海道,札幌市中央区,大通西１丁目１４－２桂和大通ビル５０・９Ｆ,,01,101,0600042,,,,,,,2022-04-01,1,,,,,シンクヘルパー,0
696,3470003002159,新規,0,2022-04-01,2022-04-01,Ｒｉｓｉｎｇ　Ｍｅｄｉａ合同会社,,合同会社,香川県,高松市,三条町５４４番地７,,37,201,7618072,,,,,,,2022-04-01,1,,,,,ライジングメディア,0
701,3700150107604,新規,0,2022-04-01,2022-04-01,ＭＤＰＩ　ＡＧ,,外国会社等,,,,,,,,Ｓｔ．　Ａｌｂａｎ－Ａｎｌａｇｅ　６６，　ＣＨ－４０５２　Ｂａｓｅｌ，　Ｓｗｉｔｚｅｒｌａｎｄ,,,,,,2022-04-01,1,,,,,エムデイーピーアイエージー,0
702,3700150107612,新規,0,2022-04-01,2022-04-01,Ｎａｖｉｇａｔｏｒ　Ａｖｉａｔｉｏｎ　Ｉｒｅｌａｎｄ　１０　Ｌｉｍｉｔｅｄ,,外国会社等,,,,,,,,Ｃ／Ｏ　Ｆｅｃｘｏ　Ａｖｉａｔｉｏｎ　Ｓｅｒｖｉｃｅｓ　Ｓｕｉｔｅ　３１５，　Ａｉｒｐｏｒｔ　Ｈｏｕｓｅ，　Ｓｈａｎｎｏｎ，　Ｉｒｅｌａｎｄ,,,,,,2022-04-01,1,,,,,ナビゲーターアヴイエーシヨンアイルランドテンリミテツド,0
703,3700150107645,新規,0,2022-04-01,2022-04-01,ＺＯＯＧＵＥ，ＩＮＣ．,,外国会社等,,,,,,,,２４３１０　Ｍｏｕｌｔｏｎ　Ｐｋｗｙ，Ｓｕｉｔｅ　０　＃１０１５，Ｌａｇｕｎａ　Ｈｉｌｌｓ，Ｃａｌｉｆｏｒｎｉａ　９２６３７，Ｕ．Ｓ．Ａ．,,,,,,2022-04-01,1,,,,,ズーグーインク,0
707,4010001225566,新規,0,2022-04-01,2022-04-01,ＤＤホールディングス株式会社,,株式会社,東京都,中央区,東日本橋２丁目１１番５号,,13,102,1030004,,,,,,,2022-04-01,1,,,,,ディーディーホールディングス,0
714,4010401166534,新規,0,2022-04-01,2022-04-01,株式会社ＮＩＮＥ,,株式会社,東京都,港区,白金２丁目１番１－２０３号,,13,103,1080072,,,,,,,2022-04-01,1,,,,,ナイン,0
716,4010403027387,新規,0,2022-04-01,2022-04-01,Ｍｒ．Ｈ　Ｃａｐｉｔａｌ合同会社,,合同会社,東京都,港区,西麻布２丁目２４－３１－２０７,,13,103,1060031,,,,,,,2022-04-01,1,,,,,ミスターエイチ,0
719,4010601060909,新規,0,2022-04-01,2022-04-01,株式会社シーナイズ,,株式会社,東京都,江東区,東雲１丁目５－３０－１４０５,,13,108,1350062,,,,,,,2022-04-01,1,,,,,シーナイズ,0
726,4010803004110,新規,0,2022-04-01,2022-04-01,合同会社ハッシュタグ,,合同会社,東京都,大田区,大森東４丁目１９番２７－１１０２号,,13,111,1430012,,,,,,,2022-04-01,1,,,,,ハッシュタグ,0
728,4010901050601,新規,0,2022-04-01,2022-04-01,株式会社ＮＯＩＬＬ,,株式会社,東京都,世田谷区,北沢２丁目１２番１６号三鈴ビル３０２号室,,13,112,1550031,,,,,,,2022-04-01,1,,,,,ノイル,0
732,4011001146629,新規,0,2022-04-01,2022-04-01,Ｎｏｍｏｄｅｌ株式会社,,株式会社,東京都,渋谷区,円山町５番５号ｎａｖｉ渋谷Ｖ３階,,13,113,1500044,,,,,,,2022-04-01,1,,,,,ノモデル,0
733,4011001146645,新規,0,2022-04-01,2022-04-01,株式会社Ｙ‐２,,株式会社,東京都,渋谷区,西原３丁目１２番５－３０２号,,13,113,1510066,,,,,,,2022-04-01,1,,,,,ワイズ,0
739,4011101098308,新規,0,2022-04-01,2022-04-01,株式会社のぼけあ,,株式会社,東京都,新宿区,片町２－３菱和ビル４階,,13,104,1600001,,,,,,,2022-04-01,1,,,,,ノボケア,0
740,4011103011557,新規,0,2022-04-01,2022-04-01,Ｎｉｓｈｉｍｏ　Ｉｎｔｅｒｎａｔｉｏｎａｌ　Ｊａｐａｎ合同会社,,合同会社,東京都,新宿区,西新宿３丁目３番１３号西新宿水間ビル６階,,13,104,1600023,,,,,,,2022-04-01,1,,,,,ニシモインターナショナルジャパン,0
747,4011401024129,新規,0,2022-04-01,2022-04-01,ポケットデジタル株式会社,,株式会社,東京都,板橋区,南常盤台１丁目１１－６－１０１,,13,119,1740072,,,,,,,2022-04-01,1,,,,,ポケットデジタル,0
752,4011603003558,新規,0,2022-04-01,2022-04-01,ＶＯＦＴＭ合同会社,,合同会社,東京都,練馬区,向山４丁目２１－２５,,13,120,1760022,,,,,,,2022-04-01,1,,,,,ヴォフトム,0
759,4020001145862,新規,0,2022-04-01,2022-04-01,株式会社ＩＭＯ,,株式会社,神奈川県,川崎市中原区,中丸子１３番地７リエトコート武蔵小杉２１０３,,14,133,2110012,,,,,,,2022-04-01,1,,,,,アイエムオー,0
765,4021003011540,新規,0,2022-04-01,2022-04-01,合同会社ＳＩＭＰＬＡＮ,,合同会社,神奈川県,大和市,代官１丁目６番１５号ウッドコート桜ヶ丘４０３,,14,213,2420025,,,,,,,2022-04-01,1,,,,,シムプラン,0
769,4030001147486,新規,0,2022-04-01,2022-04-01,株式会社信雅冷熱,,株式会社,埼玉県,北葛飾郡杉戸町,大字木野川４３８番地,,11,464,3450003,,,,,,,2022-04-01,1,,,,,シンガレイネツ,0
770,4030001147494,新規,0,2022-04-01,2022-04-01,三英ホールディングス株式会社,,株式会社,埼玉県,熊谷市,三ヶ尻３６４３番地,,11,202,3600843,,,,,,,2022-04-01,1,,,,,サンエイホールディングス,0
775,4040001122810,新規,0,2022-04-01,2022-04-01,株式会社友信,,株式会社,千葉県,鎌ケ谷市,東初富５丁目５番３号,,12,224,2730122,,,,,,,2022-04-01,1,,,,,ユウシン,0
776,4040001122827,新規,0,2022-04-01,2022-04-01,株式会社双一総業,,株式会社,千葉県,市原市,青葉台１丁目５番地４３,,12,219,2990117,,,,,,,2022-04-01,1,,,,,ソウイツソウギョウ,0
781,4050001050878,新規,0,2022-04-01,2022-04-01,ＣＨＡＳ‐ＣＨＵＮＫ‐Ａ株式会社,,株式会社,茨城県,水戸市,吉沢町３５番地１,,08,201,3100845,,,,,,,2022-04-01,1,,,,,チャスチャンカ,0
785,4060001034707,新規,0,2022-04-01,2022-04-01,株式会社イチノニ,,株式会社,栃木県,宇都宮市,中岡本町２５０４番地１１,,09,201,3291105,,,,,,,2022-04-01,1,,,,,,0
790,4080105006237,新規,0,2022-04-01,2022-04-01,医療法人社団弥華会,,その他の設立登記法人,静岡県,駿東郡小山町,一色３３１番地の１,,22,344,4101325,,,,,,,2022-04-01,1,,,,,ミカカイ,0
809,4120001244712,新規,0,2022-04-01,2022-04-01,株式会社中小企業支援隊,,株式会社,大阪府,大阪市中央区,安堂寺町２丁目１番１０号,,27,128,5420061,,,,,,,2022-04-01,1,,,,,チュウショウキギョウシエンタイ,0
810,4120001244778,新規,0,2022-04-01,2022-04-01,株式会社ＮＡＬＵ,,株式会社,大阪府,大阪市東成区,玉津１丁目１－２９不燃ビル３Ｆ,,27,115,5370023,,,,,,,2022-04-01,1,,,,,ナル,0
811,4120001244786,新規,0,2022-04-01,2022-04-01,株式会社トジマ健創,,株式会社,大阪府,大阪市西区,北堀江３丁目６番２６－８００３号,,27,106,5500014,,,,,,,2022-04-01,1,,,,,トジマケンソウ,0
812,4120001244803,新規,0,2022-04-01,2022-04-01,株式会社ＮＳＰ,,株式会社,大阪府,大阪市中央区,上町Ｂ番８号クリエイト上町ビル２階,,27,128,5400005,,,,,,,2022-04-01,1,,,,,エヌエスピー,0
814,4120003021341,新規,0,2022-04-01,2022-04-01,合同会社ネオハートＣＳＴ,,合同会社,大阪府,大阪市中央区,大手通１丁目４番１１号,,27,128,5400021,,,,,,,2022-04-01,1,,,,,ネオハートシーエスティー,0
815,4120003021382,新規,0,2022-04-01,2022-04-01,ほのか合同会社,,合同会社,大阪府,大阪市中央区,東心斎橋２丁目６番３２号,,27,128,5420083,,,,,,,2022-04-01,1,,,,,ホノカ,0
816,4120003021390,新規,0,2022-04-01,2022-04-01,合同会社ラッキーハウス,,合同会社,大阪府,大阪市生野区,桃谷３丁目４番１２号３階,,27,116,5440034,,,,,,,2022-04-01,1,,,,,ラッキーハウス,0
830,4130003007843,新規,0,2022-04-01,2022-04-01,あの世とこの世合同会社,,合同会社,京都府,京都市山科区,四ノ宮大将軍町１６－３ＬＡＮＡＳＵＮ－ＹＯＵ１Ｆ,,26,110,6078029,,,,,,,2022-04-01,1,,,,,アノヨトコノヨ,0
831,4140001125415,新規,0,2022-04-01,2022-04-01,株式会社トライアングル,,株式会社,兵庫県,伊丹市,西台５丁目１番１６号,,28,207,6640858,,,,,,,2022-04-01,1,,,,,トライアングル,0
832,4140001125423,新規,0,2022-04-01,2022-04-01,株式会社岸本建築,,株式会社,兵庫県,神戸市北区,星和台２丁目５７番地の５,,28,109,6511121,,,,,,,2022-04-01,1,,,,,キシモトケンチク,0
833,4140005026106,新規,0,2022-04-01,2022-04-01,医療法人社団桜輪会,,その他の設立登記法人,兵庫県,尼崎市,上坂部１丁目１番１号ＶＩＥＲＲＡ塚口３０２号室,,28,202,6610979,,,,,,,2022-04-01,1,,,,,オウリンカイ,0
835,4150001025432,新規,0,2022-04-01,2022-04-01,新城防災設備株式会社,,株式会社,奈良県,橿原市,西池尻町２５８－１－１０５,,29,205,6340821,,,,,,,2022-04-01,1,,,,,シンジョウボウサイセツビ,0
851,4180001150517,新規,0,2022-04-01,2022-04-01,株式会社Ｒｅｃｔ,,株式会社,愛知県,北名古屋市,徳重米野４０番地,,23,234,4810038,,,,,,,2022-04-01,1,,,,,レクト,0
852,4180001150582,新規,0,2022-04-01,2022-04-01,株式会社リスペック,,株式会社,愛知県,名古屋市中川区,西中島２丁目１０６番地ハイツ中柳６０５号,,23,110,4540934,,,,,,,2022-04-01,1,,,,,リスペック,0
853,4180001150616,新規,0,2022-04-01,2022-04-01,株式会社ＦＯＣＵＳ　ＯＮ,,株式会社,愛知県,名古屋市名東区,藤が丘１３番地の１,,23,115,4650032,,,,,,,2022-04-01,1,,,,,フォーカスオン,0
854,4180001150632,新規,0,2022-04-01,2022-04-01,株式会社ｇｒｏｗ　ｕｐ,,株式会社,愛知県,海部郡大治町,大字鎌須賀字川畔１５０番地の５,,23,424,4901135,,,,,,,2022-04-01,1,,,,,グロウアップ,0
855,4180001150640,新規,0,2022-04-01,2022-04-01,株式会社ＡＪマネジメント,,株式会社,愛知県,名古屋市東区,泉１丁目２３番３７号,,23,102,4610001,,,,,,,2022-04-01,1,,,,,エージェイマネジメント,0
858,4180303005294,新規,0,2022-04-01,2022-04-01,合同会社ＨＡＮＡＫＡプリントプロジェクト,,合同会社,愛知県,豊橋市,中世古町１５７番地の１,,23,201,4400815,,,,,,,2022-04-01,1,,,,,ハナカプリントプロジェクト,0
866,4200003005518,新規,0,2022-04-01,2022-04-01,合同会社Ｒｅ　Ｂｏｎｄｓ,,合同会社,岐阜県,岐阜市,萱場南１丁目９番地１０,,21,201,5020936,,,,,,,2022-04-01,1,,,,,リボンズ,0
867,4210001018867,新規,0,2022-04-01,2022-04-01,株式会社アドマニア,,株式会社,福井県,坂井市,坂井町下新庄第１６号８番地,,18,210,9190521,,,,,,,2022-04-01,1,,,,,アドマニア,0
875,4230001019293,新規,0,2022-04-01,2022-04-01,株式会社ＩＳＯ,,株式会社,富山県,富山市,大島２丁目５９６番地９,,16,201,9398025,,,,,,,2022-04-01,1,,,,,アイエスオー,0
879,4240001059529,新規,0,2022-04-01,2022-04-01,株式会社エイドテクノ,,株式会社,広島県,福山市,北本庄２丁目１４番１４－２号シュトラールＢ２０２,,34,207,7200074,,,,,,,2022-04-01,1,,,,,エイドテクノ,0
890,4260001036682,新規,0,2022-04-01,2022-04-01,街の保健室ＬＩＮＫ株式会社,,株式会社,岡山県,岡山市北区,丸の内１丁目７番１２号サクシード丸の内６０５号,,33,101,7000823,,,,,,,2022-04-01,1,,,,,マチノホケンシツリンク,0
894,4290001096996,新規,0,2022-04-01,2022-04-01,株式会社Ｒｉｒｉｈａｎａ,,株式会社,福岡県,福岡市中央区,平尾５丁目１６番２８－５０２号,,40,133,8100014,,,,,,,2022-04-01,1,,,,,リリハナ,0
895,4290001097012,新規,0,2022-04-01,2022-04-01,株式会社Ｓｔｒａｔａ,,株式会社,福岡県,福岡市中央区,天神２丁目３番１０－７１９号,,40,133,8100001,,,,,,,2022-04-01,1,,,,,ストレータ,0
896,4290003012340,新規,0,2022-04-01,2022-04-01,Ｆｏｒ２Ｃ　ｐａｒｔｎｅｒｓ合同会社,,合同会社,福岡県,福岡市南区,向野２丁目６－１０パークハイツ大橋３０２,,40,134,8150035,,,,,,,2022-04-01,1,,,,,フォートゥーシーパートナーズ,0
897,4290005018609,新規,0,2022-04-01,2022-04-01,ミライネクスト協同組合,,その他の設立登記法人,福岡県,福岡市博多区,祇園町６番２６号,,40,132,8120038,,,,,,,2022-04-01,1,,,,,ミライネクスト,0
901,4300003001812,新規,0,2022-04-01,2022-04-01,合同会社Ｌａ　Ｆｏｒｅｓｔ,,合同会社,佐賀県,鳥栖市,山浦町３０８１番地,,41,203,8410084,,,,,,,2022-04-01,1,,,,,ラフォレスト,0
911,4380003005137,新規,0,2022-04-01,2022-04-01,りんくす合同会社,,合同会社,福島県,郡山市,大町１丁目９－１３ＨＤ郡山大町ビル６Ｆ,,07,203,9638001,,,,,,,2022-04-01,1,,,,,リンクス,0
926,4450001013646,新規,0,2022-04-01,2022-04-01,株式会社阿部板金工業,,株式会社,北海道,上川郡東川町,西２号北３０番地,,01,458,0711402,,,,,,,2022-04-01,1,,,,,アベバンキンコウギョウ,0
927,4460001005675,新規,0,2022-04-01,2022-04-01,株式会社斉藤建設,,株式会社,北海道,釧路市,昭和町４丁目７番１９号ハイツ井田Ｃ号室,,01,206,0840903,,,,,,,2022-04-01,1,,,,,サイトウケンセツ,0
937,4500001024092,新規,0,2022-04-01,2022-04-01,株式会社Ｓ＆Ｋ,,株式会社,愛媛県,松山市,清水町３丁目１０７番地Ａ,,38,201,7900823,,,,,,,2022-04-01,1,,,,,エスアンドケー,0
938,4700150036835,新規,0,2022-04-01,2015-10-09,五位塚営農組合,,その他,岩手県,奥州市,江刺岩谷堂字五位塚４２３,,03,215,0231101,,,,,,,2015-10-09,1,,,,,ゴイヅカエイノウクミアイ,0
939,4700150107603,新規,0,2022-04-01,2022-04-01,ＲＯＳＥ　ＳＨＩＰＰＩＮＧ　Ｓ．Ａ．,,外国会社等,岡山県,備前市,日生町日生６２番地の３,,33,211,7013204,ＢＩＣＳＡ　ＦＩＮＡＮＣＩＡＬ　ＣＥＮＴＥＲ，　６０ｔｈ　Ｆｌｏｏｒ，　Ｂａｌｂｏａ　Ａｖｅｎｕｅ，　Ｐａｎａｍａ　Ｃｉｔｙ，　Ｒｅｐｕｂｌｉｃ　ｏｆ　Ｐａｎａｍａ,,,,,,2022-04-01,1,,,,,ローズシツピングエスエー,0
940,4700150107611,新規,0,2022-04-01,2022-04-01,Ｗｉｓｈｃｏｍｐａｎｙ　Ｉｎｃ．,,外国会社等,,,,,,,,１４Ｆ，２１１，Ｔｅｈｅｒａｎ－ｒｏ，Ｇａｎｇｎａｍ－ｇｕ，Ｓｅｏｕｌ，Ｋｏｒｅａ　０６１４１,,,,,,2022-04-01,1,,,,,ウイツシユカンパニーインク,0
945,5010001225565,新規,0,2022-04-01,2022-04-01,ＥＬＤＯＭＡＮ株式会社,,株式会社,東京都,中央区,銀座６丁目１３番１６号銀座ＷａｌｌビルＵＣＦ５階,,13,102,1040061,,,,,,,2022-04-01,1,,,,,エルドマン,0
953,5010003037380,新規,0,2022-04-01,2022-04-01,Ｔｈｅ　Ｌｏｏｐ合同会社,,合同会社,東京都,中央区,日本橋室町１丁目２番６号日本橋大栄ビル７階,,13,102,1030022,,,,,,,2022-04-01,1,,,,,ザループ,0
954,5010005034797,新規,0,2022-04-01,2022-04-01,一般社団法人千代田スポーツクラブ,,その他の設立登記法人,東京都,千代田区,平河町２丁目１２番２号,,13,101,1020093,,,,,,,2022-04-01,1,,,,,チヨダスポーツクラブ,0
965,5010401166533,新規,0,2022-04-01,2022-04-01,シエル株式会社,,株式会社,東京都,港区,南青山２丁目２番１５号,,13,103,1070062,,,,,,,2022-04-01,1,,,,,シエル,0
969,5010801032847,新規,0,2022-04-01,2022-04-01,株式会社コレカナ,,株式会社,東京都,大田区,東雪谷２丁目３４番１５号,,13,111,1450065,,,,,,,2022-04-01,1,,,,,コレカナ,0
973,5010901050591,新規,0,2022-04-01,2022-04-01,株式会社下北沢投研,,株式会社,東京都,世田谷区,代沢２丁目７番９号,,13,112,1550032,,,,,,,2022-04-01,1,,,,,シモキタザワトウケン,0
974,5010901050609,新規,0,2022-04-01,2022-04-01,株式会社アラン,,株式会社,東京都,世田谷区,成城１丁目１４番２９号,,13,112,1570066,,,,,,,2022-04-01,1,,,,,アラン,0
982,5011001146644,新規,0,2022-04-01,2022-04-01,株式会社ジョイエ,,株式会社,東京都,渋谷区,恵比寿１丁目１５番９号日宝恵比寿ビル４０３,,13,113,1500013,,,,,,,2022-04-01,1,,,,,ジョイエ,0
990,5011101098315,新規,0,2022-04-01,2022-04-01,株式会社ＯＧＡＮＡＣＥＬＬ,,株式会社,東京都,新宿区,新宿５丁目１８番２０号ルックハイツ新宿８０３号,,13,104,1600022,,,,,,,2022-04-01,1,,,,,オガナセル,0
991,5011103011606,新規,0,2022-04-01,2022-04-01,フライワークス合同会社,,合同会社,東京都,新宿区,西新宿３丁目３番１３号西新宿水間ビル６階,,13,104,1600023,,,,,,,2022-04-01,1,,,,,フライワークス,0
992,5011103011622,新規,0,2022-04-01,2022-04-01,サブトニックＭＣ合同会社,,合同会社,東京都,新宿区,中落合１丁目１４番３２号,,13,104,1610032,,,,,,,2022-04-01,1,,,,,サブトニックエムシー,0
1002,5011501027897,新規,0,2022-04-01,2022-04-01,株式会社タケシレアリティ,,株式会社,東京都,北区,豊島５丁目５番６－１４１５号,,13,117,1140003,,,,,,,2022-04-01,1,,,,,タケシレアリティ,0
1005,5011701025172,新規,0,2022-04-01,2022-04-01,株式会社ＤＦ,,株式会社,東京都,江戸川区,東葛西５丁目１番４号,,13,123,1340084,,,,,,,2022-04-01,1,,,,,ディーエフ,0
1015,5012703002432,新規,0,2022-04-01,2022-04-01,合同会社北村由衣,,合同会社,東京都,清瀬市,野塩５丁目３３１番地第２グリーンコーポ１０１号室,,13,221,2040004,,,,,,,2022-04-01,1,,,,,キタムラユイ,0
1017,5013301048891,新規,0,2022-04-01,2022-04-01,ウェブラク株式会社,,株式会社,東京都,豊島区,目白４丁目２８番１７号アークビル目白２０１号,,13,116,1710031,,,,,,,2022-04-01,1,,,,,ウェブラク,0
1020,5013303006105,新規,0,2022-04-01,2022-04-01,合同会社ｅｓｓｅｒｅ,,合同会社,東京都,豊島区,東池袋１丁目１７番１１号パークハイツ池袋１１０５号,,13,116,1700013,,,,,,,2022-04-01,1,,,,,エッセレ,0
1024,5020001145894,新規,0,2022-04-01,2022-04-01,株式会社エピック‐ウイン,,株式会社,神奈川県,横浜市港南区,上永谷町４５９３番地,,14,111,2330014,,,,,,,2022-04-01,1,,,,,エピックウイン,0
1035,5030001147485,新規,0,2022-04-01,2022-04-01,株式会社ＳＨＯＷＡ,,株式会社,埼玉県,坂戸市,花影町２６番地１７,,11,239,3500236,,,,,,,2022-04-01,1,,,,,ショウワ,0
1036,5030001147493,新規,0,2022-04-01,2022-04-01,株式会社三和建装,,株式会社,埼玉県,日高市,大字南平沢１１３４番地２８,,11,242,3501206,,,,,,,2022-04-01,1,,,,,サンワケンソウ,0
1037,5030003019105,新規,0,2022-04-01,2022-04-01,合同会社ＮＡＣＳ,,合同会社,埼玉県,草加市,谷塚上町７００番地１５,,11,221,3400024,,,,,,,2022-04-01,1,,,,,ナックス,0
1043,5040003019789,新規,0,2022-04-01,2022-04-01,合同会社珈琲香房Ｇｒｉｅｓｓａｃｈ,,合同会社,千葉県,千葉市若葉区,加曽利町２６６－１,,12,104,2640017,,,,,,,2022-04-01,1,,,,,コーヒーコウボウグリエッサ,0
1053,5080001024829,新規,0,2022-04-01,2022-04-01,株式会社ディグスピーク,,株式会社,静岡県,静岡市清水区,袖師町４９番地の１,,22,103,4240037,,,,,,,2022-04-01,1,,,,,ディグスピーク,0
1057,5080401025708,新規,0,2022-04-01,2022-04-01,株式会社ＡＮＤ．ｉｏ,,株式会社,静岡県,浜松市中区,鍛冶町１００番地の１ザザシティ浜松中央館地下１階,,22,131,4300933,,,,,,,2022-04-01,1,,,,,アンドアイオー,0
1063,5100003006467,新規,0,2022-04-01,2022-04-01,合同会社Ｅｎｕ‐ｔｒｙ,,合同会社,長野県,上田市,保野２１２－１,,20,203,3861321,,,,,,,2022-04-01,1,,,,,エヌトライ,0
1070,5120001244810,新規,0,2022-04-01,2022-04-01,株式会社ＨＥＡＲＴ建設,,株式会社,大阪府,大阪市住吉区,墨江３丁目１３番１２号グランコート住吉大社南５０１,,27,120,5580043,,,,,,,2022-04-01,1,,,,,ハートケンセツ,0
1083,5122001035719,新規,0,2022-04-01,2022-04-01,株式会社ＰＬＵＣＫ,,株式会社,大阪府,八尾市,南太子堂４丁目３番８号,,27,212,5810056,,,,,,,2022-04-01,1,,,,,プラック,0
1094,5140001125414,新規,0,2022-04-01,2022-04-01,株式会社Ｒｉｍ’ｓＦａｃｔｏｒｙ．,,株式会社,兵庫県,姫路市,花田町上原田１７０番地１,,28,201,6710251,,,,,,,2022-04-01,1,,,,,リムズファクトリー,0
1095,5140001125422,新規,0,2022-04-01,2022-04-01,株式会社ｇｒｏｖｅ,,株式会社,兵庫県,宝塚市,平井山荘１６番２４号,,28,214,6650817,,,,,,,2022-04-01,1,,,,,グローブ,0
1096,5140001125430,新規,0,2022-04-01,2022-04-01,シーガル株式会社,,株式会社,兵庫県,加東市,山国２００４番地３７３,,28,228,6731421,,,,,,,2022-04-01,1,,,,,シーガル,0
1097,5140003017519,新規,0,2022-04-01,2022-04-01,合同会社Ｒ２,,合同会社,兵庫県,宝塚市,中山桜台２丁目３番１号,,28,214,6650877,,,,,,,2022-04-01,1,,,,,アールツー,0
1098,5140005026105,新規,0,2022-04-01,2022-04-01,一般社団法人ミニマルな暮らし研究会,,その他の設立登記法人,兵庫県,尼崎市,道意町６丁目４８番３号,,28,202,6600083,,,,,,,2022-04-01,1,,,,,ミニマルナクラシケンキュウカイ,0
1101,5150005009380,新規,0,2022-04-01,2022-04-01,一般社団法人三郷ＴｒｅａＳｓｕｒｅ,,その他の設立登記法人,奈良県,生駒郡三郷町,城山台１丁目１１番１１号,,29,343,6360824,,,,,,,2022-04-01,1,,,,,サンゴウトレジャー,0
1102,5160003002527,新規,0,2022-04-01,2022-04-01,合同会社Ｔ’ｓ　Ｒｅｐａｉｒ,,合同会社,滋賀県,大津市,朝日が丘２丁目１０番２３号,,25,201,5200052,,,,,,,2022-04-01,1,,,,,ティーズリペアー,0
1111,5180001150607,新規,0,2022-04-01,2022-04-01,株式会社サザンブリーズ・パートナーズ,,株式会社,愛知県,名古屋市天白区,天白町大字八事字山田２４番地の８４,,23,116,4680071,,,,,,,2022-04-01,1,,,,,サザンブリーズパートナーズ,0
1113,5180003023661,新規,0,2022-04-01,2022-04-01,合同会社元気堂,,合同会社,愛知県,小牧市,高根３丁目４８５番地,,23,219,4850803,,,,,,,2022-04-01,1,,,,,ゲンキドウ,0
1130,5240001059528,新規,0,2022-04-01,2022-04-01,株式会社ナッカサン,,株式会社,広島県,広島市中区,大手町２丁目２番９号ビル博丈大手町２階,,34,101,7300051,,,,,,,2022-04-01,1,,,,,ナッカサン,0
1131,5240001059536,新規,0,2022-04-01,2022-04-01,株式会社ＮＺＣ,,株式会社,広島県,広島市安佐南区,安東５丁目２５番７号,,34,105,7310153,,,,,,,2022-04-01,1,,,,,エヌゼットシー,0
1132,5240001059544,新規,0,2022-04-01,2022-04-01,株式会社ＳＹ,,株式会社,広島県,広島市安佐南区,東野２丁目２６番３１号,,34,105,7310111,,,,,,,2022-04-01,1,,,,,エスワイ,0
1145,5290001096995,新規,0,2022-04-01,2022-04-01,株式会社ＴＥＲＩＯＳ　ＲＥＥＬ,,株式会社,福岡県,糟屋郡志免町,志免中央３丁目８番１１号,,40,343,8112244,,,,,,,2022-04-01,1,,,,,テリオスリール,0
1163,5360001030195,新規,0,2022-04-01,2022-04-01,株式会社博開発,,株式会社,沖縄県,島尻郡八重瀬町,字友寄９８番地,,47,362,9010411,,,,,,,2022-04-01,1,,,,,ヒロカイハツ,0
1164,5370001048369,新規,0,2022-04-01,2022-04-01,株式会社ウイ,,株式会社,宮城県,仙台市泉区,泉中央１丁目１５番地の１,,04,105,9813133,,,,,,,2022-04-01,1,,,,,ウイ,0
1176,5430003013769,新規,0,2022-04-01,2022-04-01,松太郎産業合同会社,,合同会社,北海道,札幌市中央区,北一条西１９丁目１－７円山表参道小川ビル２階,,01,101,0600001,,,,,,,2022-04-01,1,,,,,マツタロウサンギョウ,0
1188,5700150107610,新規,0,2022-04-01,2022-04-01,ＳＯＣＩＡＬ　ＭＵＬＴＩＰＵＲＰＯＳＥ　ＣＯ－ＯＰＥＲＡＴＩＶＥ　ＬＴＤ．,,外国会社等,千葉県,松戸市,松戸１５５４番地の４ジュネパレス松戸第６７－１０４号,,12,207,2710092,ネパール連邦民主共和国カトマンズ、ナヤバザル－１６,,,,,,2022-04-01,1,,,,,ソーシヤルマルチパーパスコオペラテイブ,0
1193,6010001225564,新規,0,2022-04-01,2022-04-01,株式会社カルテット,,株式会社,東京都,中央区,新富１丁目５番１３－７０４号,,13,102,1040041,,,,,,,2022-04-01,1,,,,,カルテット,0
1197,6010003037289,新規,0,2022-04-01,2022-04-01,合同会社Ｃｏｍｆｉｅｌｄ,,合同会社,東京都,中央区,銀座１丁目２２番１１号銀座大竹ビジデンス２階,,13,102,1040061,,,,,,,2022-04-01,1,,,,,コムフィールド,0
1203,6010401166490,新規,0,2022-04-01,2022-04-01,株式会社ＵＮＹＯＵ,,株式会社,東京都,港区,北青山２丁目７番１３号,,13,103,1070061,,,,,,,2022-04-01,1,,,,,アンユー,0
1204,6010401166524,新規,0,2022-04-01,2022-04-01,株式会社Ｆａｖｏｓｉａ,,株式会社,東京都,港区,赤坂３丁目１１番１４号,,13,103,1070052,,,,,,,2022-04-01,1,,,,,ファボシア,0
1205,6010401166532,新規,0,2022-04-01,2022-04-01,株式会社ＨＩＧＨ　ＷＥＡＬＴＨ　ＰＡＲＴＮＥＲＳ,,株式会社,東京都,港区,南青山３丁目４番８号,,13,103,1070062,,,,,,,2022-04-01,1,,,,,ハイウェルスパートナーズ,0
1206,6010403027377,新規,0,2022-04-01,2022-04-01,合同会社Ｔｒｉｇｇｅｒ,,合同会社,東京都,港区,南青山２丁目２－１５,,13,103,1070062,,,,,,,2022-04-01,1,,,,,トリガー,0
1207,6010501048647,新規,0,2022-04-01,2022-04-01,Ｔｏｋｙｏ　Ｓｔａｒ株式会社,,株式会社,東京都,台東区,松が谷４丁目２７－１５,,13,106,1110036,,,,,,,2022-04-01,1,,,,,トウキョウスター,0
1208,6010501048655,新規,0,2022-04-01,2022-04-01,株式会社ＭＯＲＥ　ＴＨＡＮ,,株式会社,東京都,台東区,浅草２丁目１７番４号,,13,106,1110032,,,,,,,2022-04-01,1,,,,,モアザン,0
1209,6010501048663,新規,0,2022-04-01,2022-04-01,株式会社祐政会,,株式会社,東京都,台東区,柳橋１丁目１０番１３号,,13,106,1110052,,,,,,,2022-04-01,1,,,,,ユウセイカイ,0
1210,6010601060907,新規,0,2022-04-01,2022-04-01,株式会社エール,,株式会社,東京都,墨田区,本所３丁目１３番１号,,13,107,1300004,,,,,,,2022-04-01,1,,,,,エール,0
1216,6010801032846,新規,0,2022-04-01,2022-04-01,ファーストリバー株式会社,,株式会社,東京都,大田区,西蒲田７丁目５２番３号,,13,111,1440051,,,,,,,2022-04-01,1,,,,,ファーストリバー,0
1218,6010901050590,新規,0,2022-04-01,2022-04-01,株式会社ＴＤＹ　Ｄｅｓｔｉｎａｔｉｏｎ,,株式会社,東京都,世田谷区,等々力２丁目５番３－１０２号,,13,112,1580082,,,,,,,2022-04-01,1,,,,,ティーディーワイディスティネーション,0
1226,6011003014443,新規,0,2022-04-01,2022-04-01,マリーナ合同会社,,合同会社,東京都,渋谷区,道玄坂１丁目１５番３号プリメーラ道玄坂４１８号室,,13,113,1500043,,,,,,,2022-04-01,1,,,,,マリーナ,0
1231,6011201023741,新規,0,2022-04-01,2022-04-01,株式会社ＤＥＡＲ,,株式会社,東京都,中野区,中央２丁目３９番２０号,,13,114,1640011,,,,,,,2022-04-01,1,,,,,ディア,0
1234,6011403003616,新規,0,2022-04-01,2022-04-01,博洋国際合同会社,,合同会社,東京都,板橋区,成増２丁目１９番２号ＥＨ第７ビル２Ｆ,,13,119,1750094,,,,,,,2022-04-01,1,,,,,ハクヨウコクサイ,0
1241,6011801040517,新規,0,2022-04-01,2022-04-01,株式会社インクホールディングス,,株式会社,東京都,葛飾区,立石８丁目３９番６号,,13,122,1240012,,,,,,,2022-04-01,1,,,,,インクホールディングス,0
1242,6012703002431,新規,0,2022-04-01,2022-04-01,合同会社ＳＨＯＫＥＮ,,合同会社,東京都,東久留米市,下里１丁目７番９号パレ・アージュ１０３,,13,222,2030043,,,,,,,2022-04-01,1,,,,,ショウケン,0
1247,6020001145902,新規,0,2022-04-01,2022-04-01,株式会社フェムゾーンラボ,,株式会社,神奈川県,横浜市中区,元町１丁目３２番地１元町１３２ビル３階,,14,104,2310861,,,,,,,2022-04-01,1,,,,,フェムゾーンラボ,0
1254,6021001075577,新規,0,2022-04-01,2022-04-01,株式会社林興業,,株式会社,神奈川県,小田原市,永塚１０３番１,,14,206,2500214,,,,,,,2022-04-01,1,,,,,ハヤシコウギョウ,0
1260,6030001147476,新規,0,2022-04-01,2022-04-01,株式会社ネバローズ,,株式会社,埼玉県,さいたま市浦和区,東仲町１７番８号Ｃａｒｏ東仲町２０２,,11,107,3300056,,,,,,,2022-04-01,1,,,,,ネバローズ,0
1261,6030001147492,新規,0,2022-04-01,2022-04-01,アルファ薬局株式会社,,株式会社,埼玉県,三郷市,戸ケ崎２丁目２８６番地１,,11,237,3410044,,,,,,,2022-04-01,1,,,,,アルファヤッキョク,0
1262,6030001147501,新規,0,2022-04-01,2022-04-01,株式会社ＯＤＯ,,株式会社,埼玉県,さいたま市大宮区,三橋４丁目６０２番地８,,11,103,3300856,,,,,,,2022-04-01,1,,,,,オドウ,0
1265,6030003019095,新規,0,2022-04-01,2022-04-01,合同会社フォーエバーインカムジャパン,,合同会社,埼玉県,川越市,大字的場２８４０番地３,,11,201,3501101,,,,,,,2022-04-01,1,,,,,フォーエバーインカムジャパン,0
1266,6030003019129,新規,0,2022-04-01,2022-04-01,Ｂｅｉｎｇ合同会社,,合同会社,埼玉県,飯能市,大字前ヶ貫２４０－４４,,11,209,3570043,,,,,,,2022-04-01,1,,,,,ビーイング,0
1267,6030003019137,新規,0,2022-04-01,2022-04-01,ＤＡＩ　ＤＵＯＮＧ合同会社,,合同会社,埼玉県,入間市,鍵山３丁目２番１号,,11,225,3580004,,,,,,,2022-04-01,1,,,,,ダイズーン,0
1270,6040003019796,新規,0,2022-04-01,2022-04-01,合同会社マリリン,,合同会社,千葉県,習志野市,津田沼５丁目３番７号,,12,216,2750016,,,,,,,2022-04-01,1,,,,,マリリン,0
1275,6060001034705,新規,0,2022-04-01,2022-04-01,ＳＣ建築株式会社,,株式会社,栃木県,宇都宮市,中今泉３丁目９番１号,,09,201,3210968,,,,,,,2022-04-01,1,,,,,エスシーケンチク,0
1279,6060003004004,新規,0,2022-04-01,2022-04-01,隆盛合同会社,,合同会社,栃木県,日光市,荊沢６００番地４,,09,206,3212336,,,,,,,2022-04-01,1,,,,,リュウセイ,0
1282,6070001039091,新規,0,2022-04-01,2022-04-01,株式会社Ｔ‐ＣＯＲＰＯＲＡＴＩＯＮ,,株式会社,群馬県,高崎市,飯塚町９７番地１高義ビル６０３号,,10,202,3700069,,,,,,,2022-04-01,1,,,,,ティーコーポレーション,0
1287,6080005007440,新規,0,2022-04-01,2022-04-01,医療法人社団あおば,,その他の設立登記法人,静岡県,藤枝市,末広１丁目３番地の１７,,22,214,4260065,,,,,,,2022-04-01,1,,,,,アオバ,0
1293,6100001035203,新規,0,2022-04-01,2022-04-01,株式会社Ｉ．ＷＯＲＬＤ,,株式会社,長野県,諏訪市,沖田町４丁目２１番２号ＴＨビル１階,,20,206,3920013,,,,,,,2022-04-01,1,,,,,アイワールド,0
1310,6120001244801,新規,0,2022-04-01,2022-04-01,株式会社リライフアップ,,株式会社,大阪府,大阪市生野区,勝山北５丁目２１番１３号４Ｆ,,27,116,5440033,,,,,,,2022-04-01,1,,,,,リライフアップ,0
1314,6120003021331,新規,0,2022-04-01,2022-04-01,合同会社ＨＩＲＡＹＡＭＡ・ＢＵＩＬＤ,,合同会社,大阪府,大阪市西淀川区,中島１丁目２０番２４号,,27,113,5550041,,,,,,,2022-04-01,1,,,,,ヒラヤマビルド,0
1315,6120003021389,新規,0,2022-04-01,2022-04-01,合同会社アズプレイス,,合同会社,大阪府,寝屋川市,仁和寺本町４丁目２番３５号,,27,215,5720076,,,,,,,2022-04-01,1,,,,,アズプレイス,0
1316,6120005022864,新規,0,2022-04-01,2022-04-01,ディアステージ玉出管理組合法人,,その他の設立登記法人,大阪府,大阪市西成区,玉出西１丁目１４番７号,,27,122,5570045,,,,,,,2022-04-01,1,,,,,ディアステージタマデ,0
1317,6120103004632,新規,0,2022-04-01,2022-04-01,合同会社Ｍ＆Ｋテック,,合同会社,大阪府,岸和田市,八幡町２番１７号,,27,202,5960023,,,,,,,2022-04-01,1,,,,,エムアンドケーテック,0
1323,6122003002303,新規,0,2022-04-01,2022-04-01,ａｃｉｅｒ．ｎｃｋｃ合同会社,,合同会社,大阪府,東大阪市,若江南町２丁目７番１１号,,27,227,5780943,,,,,,,2022-04-01,1,,,,,アシエ,0
1327,6140001125413,新規,0,2022-04-01,2022-04-01,株式会社ＤＯＮ,,株式会社,兵庫県,加古川市,別府町新野辺北町３丁目６３番地３,,28,210,6750121,,,,,,,2022-04-01,1,,,,,ドン,0
1328,6140001125421,新規,0,2022-04-01,2022-04-01,株式会社ＰＰＫ,,株式会社,兵庫県,神戸市中央区,八幡通４丁目２番１２号,,28,110,6510085,,,,,,,2022-04-01,1,,,,,ピーピーケイ,0
1342,6180001150589,新規,0,2022-04-01,2022-04-01,株式会社プリエンド・マーケティング,,株式会社,愛知県,名古屋市緑区,鳴海町字作町４４番地,,23,114,4580801,,,,,,,2022-04-01,1,,,,,プリエンドマーケティング,0
1343,6180001150597,新規,0,2022-04-01,2022-04-01,株式会社ベルスタッフ愛知,,株式会社,愛知県,東海市,名和町焼山６１番地の１,,23,222,4760002,,,,,,,2022-04-01,1,,,,,ベルスタッフアイチ,0
1344,6180001150622,新規,0,2022-04-01,2022-04-01,株式会社ＯＲＺＯ,,株式会社,愛知県,丹羽郡大口町,堀尾跡１丁目９７番地,,23,361,4800136,,,,,,,2022-04-01,1,,,,,オルゾ,0
1351,6180003023669,新規,0,2022-04-01,2022-04-01,合同会社さじかげん,,合同会社,愛知県,名古屋市北区,中丸町１丁目９番地の２,,23,103,4620056,,,,,,,2022-04-01,1,,,,,サジカゲン,0
1354,6200003005516,新規,0,2022-04-01,2022-04-01,青木林業土木合同会社,,合同会社,岐阜県,下呂市,萩原町尾崎２４９６番地１,,21,220,5092508,,,,,,,2022-04-01,1,,,,,アオキリンギョウドボク,0
1356,6200005013319,新規,0,2022-04-01,2022-04-01,医療法人しまメンタルクリニック,,その他の設立登記法人,岐阜県,岐阜市,東島２丁目１４番地２ハイム山王１Ｆ,,21,201,5020913,,,,,,,2022-04-01,1,,,,,シマメンタルクリニック,0
1357,6210003001480,新規,0,2022-04-01,2022-04-01,合同会社慈道企画,,合同会社,福井県,福井市,本堂町８９－６－１０４,,18,201,9188076,,,,,,,2022-04-01,1,,,,,ジドウキカク,0
1358,6220003003253,新規,0,2022-04-01,2022-04-01,合同会社ＯＲｃｏｍｐａｎｙ,,合同会社,石川県,鹿島郡中能登町,能登部上ホ部５番地,,17,407,9291602,,,,,,,2022-04-01,1,,,,,オーアールカンパニー,0
1359,6230001019291,新規,0,2022-04-01,2022-04-01,株式会社よしはし,,株式会社,富山県,射水市,堀岡古明神３１９番地１マノワール３０１号,,16,211,9330224,,,,,,,2022-04-01,1,,,,,ヨシハシ,0
1361,6240001059519,新規,0,2022-04-01,2022-04-01,株式会社小林通商,,株式会社,広島県,福山市,手城町４丁目２１番１４号,,34,207,7210966,,,,,,,2022-04-01,1,,,,,コバヤシツウショウ,0
1365,6290001096986,新規,0,2022-04-01,2022-04-01,株式会社ＮＩＴ,,株式会社,福岡県,古賀市,小竹１１５番地１６,,40,223,8113135,,,,,,,2022-04-01,1,,,,,エヌアイティー,0
1366,6290001096994,新規,0,2022-04-01,2022-04-01,株式会社ＴＥＮＥＴ,,株式会社,福岡県,福岡市中央区,清川２丁目１７番１４号,,40,133,8100005,,,,,,,2022-04-01,1,,,,,テネット,0
1379,6330001029586,新規,0,2022-04-01,2022-04-01,スウェット株式会社,,株式会社,熊本県,熊本市東区,健軍本町２２番１１号,,43,102,8620910,,,,,,,2022-04-01,1,,,,,スウェット,0
1381,6370001048368,新規,0,2022-04-01,2022-04-01,アミスタ株式会社,,株式会社,宮城県,仙台市太白区,茂ケ崎３丁目１２番１号,,04,104,9820843,,,,,,,2022-04-01,1,,,,,アミスタ,0
1394,6430001086295,新規,0,2022-04-01,2022-04-01,株式会社タスカナル,,株式会社,北海道,札幌市中央区,南十一条西２３丁目４番１８号,,01,101,0640811,,,,,,,2022-04-01,1,,,,,タスカナル,0
1398,6430003013768,新規,0,2022-04-01,2022-04-01,合同会社ｗａｔｅｒｓ,,合同会社,北海道,札幌市豊平区,中の島一条４丁目６番１７－３０２号,,01,105,0620921,,,,,,,2022-04-01,1,,,,,ウォーターズ,0
1407,6700150047013,新規,0,2022-04-01,2015-10-09,水沢共同食鶏組合,,その他,三重県,四日市市,水沢町本町２４０４－４,,24,202,5121105,,,,,,,2015-10-09,1,,,,,スイザワキヨウドウシヨクケイクミアイ,0
1416,7010001225316,新規,0,2022-04-01,2022-04-01,株式会社モレカル,,株式会社,東京都,中央区,日本橋本町４丁目５番１３号日本橋本町ＴＨビル６Ｆ,,13,102,1030023,,,,,,,2022-04-01,1,,,,,モレカル,0
1426,7010401166408,新規,0,2022-04-01,2022-04-01,アールビー・ライズ株式会社,,株式会社,東京都,港区,北青山２丁目１２番１６号,,13,103,1070061,,,,,,,2022-04-01,1,,,,,アールビーライズ,0
1427,7010401166473,新規,0,2022-04-01,2022-04-01,株式会社ＬＩＢ,,株式会社,東京都,港区,浜松町２丁目２番１５号,,13,103,1050013,,,,,,,2022-04-01,1,,,,,リブ,0
1428,7010401166531,新規,0,2022-04-01,2022-04-01,株式会社ＢＩＯＴＥＸ,,株式会社,東京都,港区,西麻布１丁目１４番１号井門西麻布ビル５階,,13,103,1060031,,,,,,,2022-04-01,1,,,,,ビオテックス,0
1429,7010403027368,新規,0,2022-04-01,2022-04-01,合同会社ハイネットワース,,合同会社,東京都,港区,白金５丁目７番１２号,,13,103,1080072,,,,,,,2022-04-01,1,,,,,ハイネットワーク,0
1430,7010403027376,新規,0,2022-04-01,2022-04-01,合同会社ＴＲＡＮＳＡＭ,,合同会社,東京都,港区,浜松町２丁目２番１５号浜松町ダイヤビル２Ｆ,,13,103,1050013,,,,,,,2022-04-01,1,,,,,トランザム,0
1435,7010701042449,新規,0,2022-04-01,2022-04-01,株式会社Ｓａａｓｐｏｒｔ,,株式会社,東京都,品川区,北品川５丁目９－４２クレール御殿山９０５号,,13,109,1410001,,,,,,,2022-04-01,1,,,,,サースサポート,0
1442,7011001146691,新規,0,2022-04-01,2022-04-01,株式会社Ｍｅｒｉｃｅ,,株式会社,東京都,渋谷区,恵比寿４丁目１９番３号,,13,113,1500013,,,,,,,2022-04-01,1,,,,,ミライス,0
1443,7011005009523,新規,0,2022-04-01,2022-04-01,一般社団法人教育ジャパン３７７６地域コンソーシアム,,その他の設立登記法人,東京都,渋谷区,渋谷２丁目１４番１３号,,13,113,1500002,,,,,,,2022-04-01,1,,,,,キョウイクジャパンサンナナロクチイキコンソーシアム,0
1445,7011101098346,新規,0,2022-04-01,2022-04-01,株式会社Ｈ．Ｍ,,株式会社,東京都,新宿区,新宿５丁目１１番１３号富士新宿ビル４階,,13,104,1600022,,,,,,,2022-04-01,1,,,,,エイチエム,0
1446,7011101098379,新規,0,2022-04-01,2022-04-01,ハイディールパートナーズ株式会社,,株式会社,東京都,新宿区,水道町１番２－２０２号,,13,104,1620811,,,,,,,2022-04-01,1,,,,,ハイディールパートナーズ,0
1447,7011103011612,新規,0,2022-04-01,2022-04-01,合同会社Ｈｏｎ　Ｈａｉ,,合同会社,東京都,新宿区,歌舞伎町１丁目２番７号歌舞伎町ダイカンプラザ星座館ビル８０４号,,13,104,1600021,,,,,,,2022-04-01,1,,,,,ホンハイ,0
1450,7011105010199,新規,0,2022-04-01,2022-04-01,一般社団法人ＯＨＧ,,その他の設立登記法人,東京都,新宿区,四谷２丁目９番地１５東京ユナイテッド綜合事務所内,,13,104,1600004,,,,,,,2022-04-01,1,,,,,オーエイチジー,0
1460,7011701025170,新規,0,2022-04-01,2022-04-01,スキージーズ株式会社,,株式会社,東京都,江戸川区,南篠崎町４丁目８番２－５０４号,,13,123,1330065,,,,,,,2022-04-01,1,,,,,スキージーズ,0
1468,7012801021480,新規,0,2022-04-01,2022-04-01,株式会社Ｋ‐ｓｔｙｌｅ,,株式会社,東京都,昭島市,拝島町２丁目１６番３－２０６号,,13,207,1960002,,,,,,,2022-04-01,1,,,,,ケースタイル,0
1473,7013301048857,新規,0,2022-04-01,2022-04-01,ごが株式会社,,株式会社,東京都,豊島区,池袋４丁目２１番１８号,,13,116,1710014,,,,,,,2022-04-01,1,,,,,ゴガ,0
1479,7020001145868,新規,0,2022-04-01,2022-04-01,株式会社ＬＡＢ,,株式会社,神奈川県,川崎市中原区,西加瀬５－１－１０４,,14,133,2110024,,,,,,,2022-04-01,1,,,,,ラボ,0
1480,7020001145892,新規,0,2022-04-01,2022-04-01,株式会社ＳＯＬＯ　ＪＡＰＡＮ,,株式会社,神奈川県,横浜市金沢区,鳥浜町３番５号,,14,108,2360002,,,,,,,2022-04-01,1,,,,,ソロジャパン,0
1481,7020001145901,新規,0,2022-04-01,2022-04-01,株式会社ＭＡＺＥ　ＷＯＲＫＳ,,株式会社,神奈川県,川崎市川崎区,大島１丁目２７番６号二階,,14,131,2100834,,,,,,,2022-04-01,1,,,,,メイズワークス,0
1483,7020003021530,新規,0,2022-04-01,2022-04-01,合同会社ＧＥＢ,,合同会社,神奈川県,横浜市西区,西戸部町３丁目３０３番地１４,,14,103,2200046,,,,,,,2022-04-01,1,,,,,ゲブ,0
1488,7021001075576,新規,0,2022-04-01,2022-04-01,株式会社レストル,,株式会社,神奈川県,中郡二宮町,山西５９番地,,14,342,2590124,,,,,,,2022-04-01,1,,,,,レストル,0
1495,7030001147483,新規,0,2022-04-01,2022-04-01,株式会社大和塗装,,株式会社,埼玉県,飯能市,八幡町２６番１２号,,11,209,3570033,,,,,,,2022-04-01,1,,,,,ヤマトトソウ,0
1496,7030001147500,新規,0,2022-04-01,2022-04-01,株式会社金子建設,,株式会社,埼玉県,加須市,中央１丁目５番１９号,,11,210,3470055,,,,,,,2022-04-01,1,,,,,カネコケンセツ,0
1497,7030003019128,新規,0,2022-04-01,2022-04-01,合同会社ハピネス,,合同会社,埼玉県,さいたま市西区,大字中釘２９０－２３,,11,101,3310077,,,,,,,2022-04-01,1,,,,,ハピネス,0
1503,7040001122808,新規,0,2022-04-01,2022-04-01,株式会社ＨＹ,,株式会社,千葉県,市川市,妙典５丁目１６番８号センチュリオン３０１号室,,12,203,2720111,,,,,,,2022-04-01,1,,,,,エイチワイ,0
1504,7040001122824,新規,0,2022-04-01,2022-04-01,株式会社ユエーズ,,株式会社,千葉県,船橋市,夏見５丁目１４番２６号,,12,204,2730865,,,,,,,2022-04-01,1,,,,,ユエーズ,0
1506,7040003019795,新規,0,2022-04-01,2022-04-01,合同会社ヒガシエクスポート,,合同会社,千葉県,千葉市若葉区,多部田町４２５番地１－Ａ,,12,104,2650066,,,,,,,2022-04-01,1,,,,,ヒガシエクスポート,0
1514,7060003004003,新規,0,2022-04-01,2022-04-01,合同会社サンピラー,,合同会社,栃木県,河内郡上三川町,大字多功５６０番地３,,09,301,3290524,,,,,,,2022-04-01,1,,,,,サンピラー,0
1521,7100001035202,新規,0,2022-04-01,2022-04-01,株式会社荻原,,株式会社,長野県,小諸市,与良町３丁目９番８号,,20,208,3840006,,,,,,,2022-04-01,1,,,,,オギハラ,0
1534,7120001244750,新規,0,2022-04-01,2022-04-01,山久国際株式会社,,株式会社,大阪府,大阪市浪速区,湊町２丁目２番５－４０８号,,27,111,5560017,,,,,,,2022-04-01,1,,,,,ヤマヒサコクサイ,0
1535,7120001244791,新規,0,2022-04-01,2022-04-01,株式会社Ｍｅｄｉｃａｒｅ　Ｌｕａｎａ,,株式会社,大阪府,大阪市東淀川区,淡路２丁目６番９号,,27,114,5330032,,,,,,,2022-04-01,1,,,,,メディケアルアナ,0
1538,7120003021388,新規,0,2022-04-01,2022-04-01,合同会社ＰＬＡＹＰＥＮ,,合同会社,大阪府,大阪市都島区,中野町２丁目７番１１号グランドールハタダ９０４号,,27,102,5340027,,,,,,,2022-04-01,1,,,,,プレイペン,0
1542,7120103004631,新規,0,2022-04-01,2022-04-01,合同会社ナカオカ,,合同会社,大阪府,堺市南区,高倉台２丁１７番３６号,,27,145,5900117,,,,,,,2022-04-01,1,,,,,ナカオカ,0
1544,7120901045785,新規,0,2022-04-01,2022-04-01,株式会社Ｌｕｃｅ,,株式会社,大阪府,箕面市,新稲５丁目２１番３３号,,27,220,5620005,,,,,,,2022-04-01,1,,,,,ルーチェ,0
1548,7120905006305,新規,0,2022-04-01,2022-04-01,一般社団法人いきいきライフ協会みのお,,その他の設立登記法人,大阪府,箕面市,箕面３丁目１番５号１Ｆ,,27,220,5620001,,,,,,,2022-04-01,1,,,,,イキイキライフキョウカイミノオ,0
1565,7140001125412,新規,0,2022-04-01,2022-04-01,株式会社勝つ経営戦略研究所,,株式会社,兵庫県,神戸市中央区,割塚通４丁目２番１６号,,28,110,6510065,,,,,,,2022-04-01,1,,,,,カツケイエイセンリャクケンキュウショ,0
1566,7140001125420,新規,0,2022-04-01,2022-04-01,ＡＩ株式会社,,株式会社,兵庫県,神戸市東灘区,向洋町中６丁目３番地の４０,,28,101,6580032,,,,,,,2022-04-01,1,,,,,エーアイ,0
1569,7140005026103,新規,0,2022-04-01,2022-04-01,医療法人社団平井内科クリニック,,その他の設立登記法人,兵庫県,加古川市,志方町上冨木４８１番地の１,,28,210,6750314,,,,,,,2022-04-01,1,,,,,ヒライナイカクリニック,0
1571,7150003002658,新規,0,2022-04-01,2022-04-01,ＳｕｎＢｒｉｇｈｔ合同会社,,合同会社,奈良県,大和高田市,神楽２丁目１３番４０－３０２号,,29,202,6350025,,,,,,,2022-04-01,1,,,,,サンブライト,0
1581,7180001150588,新規,0,2022-04-01,2022-04-01,株式会社アップデート,,株式会社,愛知県,名古屋市瑞穂区,中山町２丁目１２番地の３,,23,108,4670803,,,,,,,2022-04-01,1,,,,,アップデート,0
1582,7180001150613,新規,0,2022-04-01,2022-04-01,株式会社Ｎ,,株式会社,愛知県,半田市,青山４丁目３番地２,,23,205,4750836,,,,,,,2022-04-01,1,,,,,エヌ,0
1583,7180001150621,新規,0,2022-04-01,2022-04-01,株式会社十八番,,株式会社,愛知県,名古屋市瑞穂区,春敲町３丁目２０番地の１（Ａ棟）,,23,108,4670867,,,,,,,2022-04-01,1,,,,,オハコ,0
1590,7180003023676,新規,0,2022-04-01,2022-04-01,合同会社ＯＧＳ,,合同会社,愛知県,名古屋市中村区,二瀬町１００番地二瀬マンション１０３,,23,105,4530837,,,,,,,2022-04-01,1,,,,,オージーエス,0
1601,7230001019290,新規,0,2022-04-01,2022-04-01,株式会社ＣＲＡＦＩＴ,,株式会社,富山県,射水市,小林４３３,,16,211,9390288,,,,,,,2022-04-01,1,,,,,クラフィット,0
1604,7240001059518,新規,0,2022-04-01,2022-04-01,株式会社ＰＬＵＳ　ＳＩＸ,,株式会社,広島県,福山市,久松台１丁目７番２９号,,34,207,7200083,,,,,,,2022-04-01,1,,,,,プラスシックス,0
1620,7290001096985,新規,0,2022-04-01,2022-04-01,株式会社キャピタルグラフ,,株式会社,福岡県,福岡市博多区,博多駅東２丁目１３番２６－８０３号,,40,132,8120013,,,,,,,2022-04-01,1,,,,,キャピタルグラフ,0
1621,7290001097001,新規,0,2022-04-01,2022-04-01,株式会社暦,,株式会社,福岡県,福岡市中央区,渡辺通５丁目１４番１２号南天神ビル３階,,40,133,8100004,,,,,,,2022-04-01,1,,,,,コヨミ,0
1628,7310003004316,新規,0,2022-04-01,2022-04-01,合同会社ＭＥＲＺＹ,,合同会社,長崎県,諫早市,小船越町６１１番地４,,42,204,8540062,,,,,,,2022-04-01,1,,,,,,0
1650,7390001016842,新規,0,2022-04-01,2022-04-01,株式会社Ｎマネジメント,,株式会社,山形県,鶴岡市,伊勢原町１３番２７号,,06,203,9970802,,,,,,,2022-04-01,1,,,,,エヌマネジメント,0
1663,7430001086253,新規,0,2022-04-01,2022-04-01,株式会社エールファーム,,株式会社,北海道,札幌市東区,北十条東２丁目１番２０－８０１号,,01,103,0650010,,,,,,,2022-04-01,1,,,,,エールファーム,0
1664,7430001086303,新規,0,2022-04-01,2022-04-01,株式会社エス・ユー・エフ,,株式会社,北海道,札幌市中央区,北五条西６丁目１番地第二道通ビル,,01,101,0600005,,,,,,,2022-04-01,1,,,,,エスユーエフ,0
1665,7430001086311,新規,0,2022-04-01,2022-04-01,株式会社Ｓｐａｒｋ　ｊｏｙ　ｐｌａｎｎｉｎｇ,,株式会社,北海道,札幌市中央区,南五条西９丁目１００８番地セントラルハイム２０２号,,01,101,0640805,,,,,,,2022-04-01,1,,,,,スパークジョイプランニング,0
1668,7430003013759,新規,0,2022-04-01,2022-04-01,カネ本佐藤商事合同会社,,合同会社,北海道,札幌市手稲区,曙五条２丁目７－６３　２Ｆ,,01,109,0060835,,,,,,,2022-04-01,1,,,,,カネホンサトウショウジ,0
1692,8010401166522,新規,0,2022-04-01,2022-04-01,株式会社ＧｉｔＨｏｕｓｅ,,株式会社,東京都,港区,南青山２丁目２番１５号,,13,103,1070062,,,,,,,2022-04-01,1,,,,,ギットハウス,0
1693,8010401166547,新規,0,2022-04-01,2022-04-01,株式会社ＧＰ,,株式会社,東京都,港区,六本木６丁目３番１号,,13,103,1060032,,,,,,,2022-04-01,1,,,,,ジーピー,0
1702,8010403027367,新規,0,2022-04-01,2022-04-01,合同会社蓮華,,合同会社,東京都,港区,元麻布１丁目３番３－２０２号,,13,103,1060046,,,,,,,2022-04-01,1,,,,,レンゲ,0
1703,8010403027383,新規,0,2022-04-01,2022-04-01,合同会社Ｒｉｃｃａ,,合同会社,東京都,港区,白金１丁目２８－１８Ｙビル２階,,13,103,1080072,,,,,,,2022-04-01,1,,,,,リッカ,0
1704,8010601060888,新規,0,2022-04-01,2022-04-01,株式会社Ｍｙｓｅｌｆ,,株式会社,東京都,墨田区,向島５丁目２７番５－２０４号,,13,107,1310033,,,,,,,2022-04-01,1,,,,,マイセルフ,0
1705,8010603009462,新規,0,2022-04-01,2022-04-01,合同会社ＮＩＣＯＬＡ,,合同会社,東京都,江東区,豊洲３丁目６－５ザトヨスタワー４００８,,13,108,1350061,,,,,,,2022-04-01,1,,,,,ニコラ,0
1706,8010701042448,新規,0,2022-04-01,2022-04-01,株式会社アンザイギャラリー,,株式会社,東京都,品川区,東品川１丁目３２番８号,,13,109,1400002,,,,,,,2022-04-01,1,,,,,アンザイギャラリー,0
1714,8010901050614,新規,0,2022-04-01,2022-04-01,株式会社アイズビー,,株式会社,東京都,世田谷区,喜多見６丁目１７番２０号,,13,112,1570067,,,,,,,2022-04-01,1,,,,,アイズビー,0
1716,8011001146344,新規,0,2022-04-01,2022-04-01,株式会社キリコキカク,,株式会社,東京都,渋谷区,恵比寿１丁目２４－１６カルチェ恵比寿３０４号室,,13,113,1500013,,,,,,,2022-04-01,1,,,,,キリコキカク,0
1718,8011003014391,新規,0,2022-04-01,2022-04-01,合同会社ティーアンドティー,,合同会社,東京都,目黒区,碑文谷４丁目５－２８－１０８号,,13,110,1520003,,,,,,,2022-04-01,1,,,,,ティーアンドティー,0
1719,8011003014433,新規,0,2022-04-01,2022-04-01,ＦＡ合同会社,,合同会社,東京都,目黒区,上目黒１丁目２６番１－１２０７号中目黒アトラスタワー１２０７,,13,110,1530051,,,,,,,2022-04-01,1,,,,,エフエー,0
1720,8011003014458,新規,0,2022-04-01,2022-04-01,合同会社サンライズ,,合同会社,東京都,渋谷区,恵比寿２丁目２８番１０号,,13,113,1500013,,,,,,,2022-04-01,1,,,,,サンライズ,0
1721,8011005009514,新規,0,2022-04-01,2022-04-01,一般財団法人文化職人振興財団,,その他の設立登記法人,東京都,渋谷区,恵比寿西２丁目２１番１０号ハイマート代官山２０１号,,13,113,1500021,,,,,,,2022-04-01,1,,,,,ブンカショクニンシンコウザイダン,0
1722,8011101098386,新規,0,2022-04-01,2022-04-01,株式会社コトバワード,,株式会社,東京都,新宿区,高田馬場２丁目１４番５号,,13,104,1690075,,,,,,,2022-04-01,1,,,,,コトバワード,0
1729,8011501027886,新規,0,2022-04-01,2022-04-01,株式会社ＦＯＮＤ,,株式会社,東京都,北区,中里３丁目１６番８号,,13,117,1140015,,,,,,,2022-04-01,1,,,,,フォンド,0
1740,8011801040515,新規,0,2022-04-01,2022-04-01,株式会社ＪＴ,,株式会社,東京都,足立区,南花畑５丁目７番１０－１０１号,,13,121,1210062,,,,,,,2022-04-01,1,,,,,ジェーティー,0
1746,8012401039030,新規,0,2022-04-01,2022-04-01,株式会社起電力,,株式会社,東京都,三鷹市,井の頭４丁目１９番２号,,13,204,1810001,,,,,,,2022-04-01,1,,,,,キデンリョク,0
1750,8012701017009,新規,0,2022-04-01,2022-04-01,株式会社Ｍ．Ｋ．Ｓ,,株式会社,東京都,西東京市,保谷町５丁目６番２１号,,13,229,2020015,,,,,,,2022-04-01,1,,,,,エムケーエス,0
1753,8013301048872,新規,0,2022-04-01,2022-04-01,株式会社ｄｅｗｏｒｋｓ,,株式会社,東京都,豊島区,西巣鴨２丁目３３番７号パレット西巣鴨１０４,,13,116,1700001,,,,,,,2022-04-01,1,,,,,ディーワークス,0
1754,8013303006102,新規,0,2022-04-01,2022-04-01,Ｆｕｔｕｒｅ　Ｉｎｎｏｖａｔｉｏｎ合同会社,,合同会社,東京都,豊島区,上池袋１丁目９－１７,,13,116,1700012,,,,,,,2022-04-01,1,,,,,フューチャーイノベーション,0
1760,8020001145867,新規,0,2022-04-01,2022-04-01,株式会社ワイツーエー,,株式会社,神奈川県,横浜市都筑区,茅ケ崎南５丁目２２番４９号,,14,118,2240037,,,,,,,2022-04-01,1,,,,,ワイツーエー,0
1761,8020001145883,新規,0,2022-04-01,2022-04-01,アクシアスプレイホールディングス株式会社,,株式会社,神奈川県,横浜市中区,相生町１丁目１７番地１パークビュー横浜７０１,,14,104,2310012,,,,,,,2022-04-01,1,,,,,アクシアスプレイホールディングス,0
1762,8020001145909,新規,0,2022-04-01,2022-04-01,株式会社ＬＵＣＫＹＳＴＡＲＴ,,株式会社,神奈川県,横浜市青葉区,もみの木台２５番地５０,,14,117,2250026,,,,,,,2022-04-01,1,,,,,ラッキースタート,0
1769,8020003021521,新規,0,2022-04-01,2022-04-01,ＲＡＩ　ＥＮＴＥＲＰＲＩＳＥＳ合同会社,,合同会社,神奈川県,川崎市中原区,苅宿５番１４号市村ハイツ２０２,,14,133,2110022,,,,,,,2022-04-01,1,,,,,ライエンタープライズ,0
1773,8030001147482,新規,0,2022-04-01,2022-04-01,株式会社メディ・カトル,,株式会社,埼玉県,さいたま市大宮区,桜木町４丁目６９２番地１伊田グループビルＩＩＩ３０１号,00126126,11,103,3300854,,,,,,,2022-04-01,1,,,,,メディカトル,0
1774,8030001147490,新規,0,2022-04-01,2022-04-01,株式会社共栄精機,,株式会社,埼玉県,川口市,東領家５丁目１２番１１号,,11,203,3320003,,,,,,,2022-04-01,1,,,,,キョウエイセイキ,0
1775,8030003019135,新規,0,2022-04-01,2022-04-01,ＲＵＡＮＡ合同会社,,合同会社,埼玉県,蕨市,塚越３丁目２３番４号楽風５０３号,,11,223,3350002,,,,,,,2022-04-01,1,,,,,ルアナ,0
1777,8030005020768,新規,0,2022-04-01,2022-04-01,医療法人社団Ｍｅｄｓｕｒｆ,,その他の設立登記法人,埼玉県,志木市,幸町４丁目１番１号,,11,228,3530005,,,,,,,2022-04-01,1,,,,,メドサーフ,0
1779,8040001122798,新規,0,2022-04-01,2022-04-01,株式会社オーシャンリゾート,,株式会社,千葉県,館山市,正木字干潟１１５５番１,,12,205,2940051,,,,,,,2022-04-01,1,,,,,オーシャンリゾート,0
1780,8040001122823,新規,0,2022-04-01,2022-04-01,株式会社ワイム,,株式会社,千葉県,千葉市中央区,蘇我１丁目５番１７号グリーンコーポ蘇我１０２号,,12,101,2600822,,,,,,,2022-04-01,1,,,,,ワイム,0
1785,8050001050882,新規,0,2022-04-01,2022-04-01,株式会社タカノクリーンサービス,,株式会社,茨城県,結城郡八千代町,大字沼森２８１番地３,,08,521,3003525,,,,,,,2022-04-01,1,,,,,タカノクリーンサービス,0
1795,8080101023182,新規,0,2022-04-01,2022-04-01,株式会社さくら,,株式会社,静岡県,富士市,中島１０１番地の３,,22,210,4160907,,,,,,,2022-04-01,1,,,,,サクラ,0
1798,8100001035201,新規,0,2022-04-01,2022-04-01,株式会社ＧＵＳＨ,,株式会社,長野県,上田市,古安曽８８６番地２,,20,203,3861213,,,,,,,2022-04-01,1,,,,,ガッシュ,0
1807,8120001244782,新規,0,2022-04-01,2022-04-01,株式会社Ｈａｎｎａｈ,,株式会社,大阪府,大阪市中央区,北浜東４番２４－１８０４号,,27,128,5400031,,,,,,,2022-04-01,1,,,,,アンナ,0
1808,8120001244790,新規,0,2022-04-01,2022-04-01,株式会社ピーアンドエフライズ,,株式会社,大阪府,大阪市福島区,福島３丁目１番６１号リバーサイドタワー中之島２３０３号室,,27,103,5530003,,,,,,,2022-04-01,1,,,,,ピーアンドエフライズ,0
1809,8120003021362,新規,0,2022-04-01,2022-04-01,ＮＴＨ合同会社,,合同会社,大阪府,大阪市淀川区,新北野１丁目１２番１１－３０８号,,27,123,5320025,,,,,,,2022-04-01,1,,,,,エヌテーエイチ,0
1815,8120103004630,新規,0,2022-04-01,2022-04-01,合同会社さんぽうよし,,合同会社,大阪府,和泉市,のぞみ野３丁目１６番２６号,,27,219,5941105,,,,,,,2022-04-01,1,,,,,サンポウヨシ,0
1816,8120105009537,新規,0,2022-04-01,2022-04-01,タックス・プラン税理士法人,,その他の設立登記法人,大阪府,堺市西区,鳳東町１丁２９番地１ＮＯＡビル２階,,27,144,5938324,,,,,,,2022-04-01,1,,,,,タックスプラン,0
1818,8120901045784,新規,0,2022-04-01,2022-04-01,株式会社グランツコーポレーション,,株式会社,大阪府,摂津市,東別府５丁目４番１８－１０２号,,27,224,5660042,,,,,,,2022-04-01,1,,,,,グランツコーポレーション,0
1822,8122001035716,新規,0,2022-04-01,2022-04-01,ＩＷＡＳＡ株式会社,,株式会社,大阪府,東大阪市,若江南町１丁目５番２９号,,27,227,5780943,,,,,,,2022-04-01,1,,,,,イワサ,0
1826,8130001071441,新規,0,2022-04-01,2022-04-01,株式会社三佑貿易,,株式会社,京都府,京都市南区,久世大藪町５３番地大喜マンション３０６号,,26,107,6010000,,,,,,,2022-04-01,1,,,,,サンユウボウエキ,0
1832,8140003017508,新規,0,2022-04-01,2022-04-01,合同会社河洛,,合同会社,兵庫県,加西市,福住町１０８７番地,,28,220,6752334,,,,,,,2022-04-01,1,,,,,コウラク,0
1836,8150003002657,新規,0,2022-04-01,2022-04-01,ＭＯＯＩ合同会社,,合同会社,奈良県,奈良市,中町４８７６,,29,201,6310052,,,,,,,2022-04-01,1,,,,,モーイ,0
1844,8180001150587,新規,0,2022-04-01,2022-04-01,Ｓａｌｕｓ　Ｍａｎａｇｅｒ株式会社,,株式会社,愛知県,名古屋市瑞穂区,亀城町３丁目１番地,,23,108,4670876,,,,,,,2022-04-01,1,,,,,サルースマネージャー,0
1845,8180001150620,新規,0,2022-04-01,2022-04-01,株式会社ディッシュコーポレーション,,株式会社,愛知県,津島市,牛田町字黒佛７番地２,,23,208,4960018,,,,,,,2022-04-01,1,,,,,ディッシュコーポレーション,0
1846,8180001150629,新規,0,2022-04-01,2022-04-01,株式会社ライク,,株式会社,愛知県,名古屋市千種区,内山３丁目１番１５号,,23,101,4640075,,,,,,,2022-04-01,1,,,,,ライク,0
1849,8180003023592,新規,0,2022-04-01,2022-04-01,合同会社ＤＲＥＡＭＥＲ,,合同会社,愛知県,東海市,荒尾町寺下１３番地の１,,23,222,4760003,,,,,,,2022-04-01,1,,,,,ドリーマー,0
1854,8190003003940,新規,0,2022-04-01,2022-04-01,合同会社辻エンタープライズ,,合同会社,三重県,伊勢市,馬瀬町４２９番地５,,24,203,5160002,,,,,,,2022-04-01,1,,,,,ツジエンタープライズ,0
1859,8200003005514,新規,0,2022-04-01,2022-04-01,合同会社ＭＳＫ,,合同会社,岐阜県,多治見市,大原町７丁目８２番地の１,,21,204,5070074,,,,,,,2022-04-01,1,,,,,エムエスケイ,0
1862,8210001018863,新規,0,2022-04-01,2022-04-01,株式会社９,,株式会社,福井県,福井市,順化２丁目２０番１３号友邦ビル４階４０２号室,,18,201,9100023,,,,,,,2022-04-01,1,,,,,ナイン,0
1863,8210003001487,新規,0,2022-04-01,2022-04-01,合同会社ｎｉｃｏ,,合同会社,福井県,鯖江市,水落町３丁目９番１９－２号,,18,207,9160022,,,,,,,2022-04-01,1,,,,,ニコ,0
1888,8290001096992,新規,0,2022-04-01,2022-04-01,株式会社Ａｏ,,株式会社,福岡県,福岡市中央区,大濠２丁目１２番１９号,,40,133,8100052,,,,,,,2022-04-01,1,,,,,アオ,0
1889,8290001097000,新規,0,2022-04-01,2022-04-01,株式会社ＡＰＰＬＥ　ＢＵＴＴＥＲ,,株式会社,福岡県,福岡市中央区,今泉１丁目４番２５号サミット天神南１Ｆ－Ａ,,40,133,8100021,,,,,,,2022-04-01,1,,,,,アップルバター,0
1895,8320001018992,新規,0,2022-04-01,2022-04-01,株式会社大一建設工業,,株式会社,大分県,大分市,萩原１丁目２番３３号,,44,201,8700921,,,,,,,2022-04-01,1,,,,,ダイイチケンセツコウギョウ,0
1900,8340003003743,新規,0,2022-04-01,2022-04-01,合同会社アスク,,合同会社,鹿児島県,南九州市,川辺町下山田９８９番地,,46,223,8970133,,,,,,,2022-04-01,1,,,,,アスク,0
1901,8350001017661,新規,0,2022-04-01,2022-04-01,株式会社Ｉｎｔｅｒｍｅｄｉａｔｏｒ,,株式会社,宮崎県,宮崎市,宮田町２番２９号燃料会館２Ｆ,,45,201,8800804,,,,,,,2022-04-01,1,,,,,インターメディエーター,0
1909,8390001016841,新規,0,2022-04-01,2022-04-01,株式会社ＹＫファーム,,株式会社,山形県,鶴岡市,羽黒町後田字中島１９４番地６,,06,203,9970157,,,,,,,2022-04-01,1,,,,,ワイケーファーム,0
1921,8430001086302,新規,0,2022-04-01,2022-04-01,Ｌｅｍｏｎｅ株式会社,,株式会社,北海道,札幌市北区,北二十七条西７丁目３－７－５,,01,102,0010027,,,,,,,2022-04-01,1,,,,,レモネ,0
1922,8430003013766,新規,0,2022-04-01,2022-04-01,合同会社ＴＳセントラル,,合同会社,北海道,札幌市豊平区,月寒東二条５丁目２番１号,,01,105,0620052,,,,,,,2022-04-01,1,,,,,ティーエスセントラル,0
1929,8470003002154,新規,0,2022-04-01,2022-04-01,合同会社エドテック,,合同会社,香川県,三豊市,三野町吉津甲２８８－８,,37,208,7670033,,,,,,,2022-04-01,1,,,,,エドテック,0
1931,8480001011692,新規,0,2022-04-01,2022-04-01,株式会社ガーベラナガオ,,株式会社,徳島県,徳島市,国府町井戸字高輪地９６番地の１,,36,201,7793118,,,,,,,2022-04-01,1,,,,,ガーベラナガオ,0
1933,8500001024089,新規,0,2022-04-01,2022-04-01,株式会社ジークカイザージャパン,,株式会社,愛媛県,西予市,宇和町上松葉７６番地１,,38,214,7970046,,,,,,,2022-04-01,1,,,,,ジークカイザージャパン,0
1935,8700150107434,新規,0,2022-04-01,2022-03-18,椿正範コンサート製作委員会,,その他,千葉県,松戸市,栄町２丁目１２１,,12,207,2710062,,,,,,,2022-03-18,1,,,,,ツバキマサノリコンサートセイサクイインカイ,0
1936,8700150107608,新規,0,2022-04-01,2022-04-01,ＫＳＡＴ　Ｇｌｏｂａｌ　ＡＳ,,外国会社等,,,,,,,,Ｐｒｅｓｔｖａｎｎｖｅｉｅｎ　３８　９０１１　Ｔｒｏｍｓｏ，　Ｎｏｒｗａｙ,,,,,,2022-04-01,1,,,,,ケイサツトグローバルエーエス,0
1943,9010001225545,新規,0,2022-04-01,2022-04-01,株式会社サニーチャート,,株式会社,東京都,千代田区,外神田３丁目１番３号,,13,101,1010021,,,,,,,2022-04-01,1,,,,,サニーチャート,0
1944,9010003037352,新規,0,2022-04-01,2022-04-01,合同会社Ａｎｙｔｈｉｎｇ　Ｇｏｅｓ,,合同会社,東京都,中央区,日本橋２丁目２番３号ＲＩＳＨＥビルＵＣＦ４０２,,13,102,1030027,,,,,,,2022-04-01,1,,,,,エニシングゴーズ,0
1954,9010401166570,新規,0,2022-04-01,2022-04-01,株式会社ＫＩＮＧ　ＧＲＯＵＰ,,株式会社,東京都,港区,六本木７丁目１４－７荻原ビルＢ１,,13,103,1060032,,,,,,,2022-04-01,1,,,,,キンググループ,0
1962,9010701042439,新規,0,2022-04-01,2022-04-01,ボカルデジャパン株式会社,,株式会社,東京都,品川区,南品川２丁目２番５号,,13,109,1400004,,,,,,,2022-04-01,1,,,,,ボカルデジャパン,0
1963,9010701042447,新規,0,2022-04-01,2022-04-01,ＪＡＰＡＮ　ＧＯＬＤ　ＲＥＦＩＮＥＲＹ株式会社,,株式会社,東京都,品川区,大崎３丁目５番３号ＬＤＳ本社ビル,,13,109,1410032,,,,,,,2022-04-01,1,,,,,ジャパンゴールドリファイナリー,0
1965,9010801032851,新規,0,2022-04-01,2022-04-01,ＬＩＮＤＡ　ＰＥＳＡ株式会社,,株式会社,東京都,大田区,羽田２丁目２５－１２,,13,111,1440043,,,,,,,2022-04-01,1,,,,,リンダペサ,0
1966,9010803004106,新規,0,2022-04-01,2022-04-01,合同会社人間の条件,,合同会社,東京都,大田区,大森北３丁目２２番１３号,,13,111,1430016,,,,,,,2022-04-01,1,,,,,ニンゲンノジョウケン,0
1979,9011001146649,新規,0,2022-04-01,2022-04-01,株式会社ＰＬＡＮＥｄ,,株式会社,東京都,渋谷区,鶯谷町１５番１０号,,13,113,1500032,,,,,,,2022-04-01,1,,,,,プランド,0
1980,9011003014440,新規,0,2022-04-01,2022-04-01,アファアップ合同会社,,合同会社,東京都,渋谷区,道玄坂１丁目１０番８号渋谷道玄坂東急ビル２階Ｃ,,13,113,1500043,,,,,,,2022-04-01,1,,,,,アファアップ,0
1984,9011101098278,新規,0,2022-04-01,2022-04-01,紫陽株式会社,,株式会社,東京都,新宿区,新宿７丁目１２番１号新宿平和ビル１階,,13,104,1600022,,,,,,,2022-04-01,1,,,,,シヨウ,0
1985,9011101098303,新規,0,2022-04-01,2022-04-01,株式会社インセプション,,株式会社,東京都,新宿区,荒木町５番地７ジオ四谷荒木町１０３,,13,104,1600007,,,,,,,2022-04-01,1,,,,,インセプション,0
1986,9011101098344,新規,0,2022-04-01,2022-04-01,株式会社ぴよん,,株式会社,東京都,新宿区,新宿５丁目１８番２０号ルックハイツ新宿８０３号,,13,104,1600022,,,,,,,2022-04-01,1,,,,,,0
1988,9011201023739,新規,0,2022-04-01,2022-04-01,株式会社ＤＣＭ,,株式会社,東京都,中野区,中央４丁目１９番１４号,,13,114,1640011,,,,,,,2022-04-01,1,,,,,ディーシーエム,0
1993,9011601025839,新規,0,2022-04-01,2022-04-01,ＳＯ‐ＹＯＵ株式会社,,株式会社,東京都,練馬区,練馬３丁目２５番１０号,,13,120,1760001,,,,,,,2022-04-01,1,,,,,ソーユー,0
1998,9012701017008,新規,0,2022-04-01,2022-04-01,株式会社西和ハウジング,,株式会社,東京都,小平市,花小金井南町１丁目３番１１－Ａ３０９号,,13,211,1870003,,,,,,,2022-04-01,1,,,,,セイワハウジング,0
2000,9013101008877,新規,0,2022-04-01,2022-04-01,ヨクトアセットマネジメント株式会社,,株式会社,東京都,青梅市,長淵７丁目３９１番地,,13,205,1980052,,,,,,,2022-04-01,1,,,,,ヨクトアセットマネジメント,0
2001,9013301048888,新規,0,2022-04-01,2022-04-01,株式会社リュクス,,株式会社,東京都,豊島区,池袋３丁目２６番１８号メリス池袋イースト２０２号,,13,116,1710014,,,,,,,2022-04-01,1,,,,,リュクス,0
2006,9020001145908,新規,0,2022-04-01,2022-04-01,株式会社ユメホーム,,株式会社,神奈川県,横浜市旭区,本宿町１０５番地５０,,14,112,2410023,,,,,,,2022-04-01,1,,,,,ユメホーム,0
2009,9021001075574,新規,0,2022-04-01,2022-04-01,株式会社ローズピリオド,,株式会社,神奈川県,中郡二宮町,緑が丘２丁目１３番地の１５,,14,342,2590132,,,,,,,2022-04-01,1,,,,,ローズピリオド,0
2018,9040001122830,新規,0,2022-04-01,2022-04-01,株式会社大日創業,,株式会社,千葉県,市原市,椎津６４０番地,,12,219,2990118,,,,,,,2022-04-01,1,,,,,ダイニチソウギョウ,0
2021,9040003019777,新規,0,2022-04-01,2022-04-01,ＴＬＰ合同会社,,合同会社,千葉県,千葉市花見川区,幕張本郷２丁目５番１号,,12,102,2620033,,,,,,,2022-04-01,1,,,,,ティーエルピー,0
2023,9050001050881,新規,0,2022-04-01,2022-04-01,株式会社ＣＨＩＨＩＲＯ,,株式会社,茨城県,ひたちなか市,大字足崎１４５８番地１０２コーポラスアメニティ足崎Ｃ棟１０１号,,08,221,3120003,,,,,,,2022-04-01,1,,,,,チヒロ,0
2025,9070001039089,新規,0,2022-04-01,2022-04-01,株式会社ｃｏｎｃｉｓｅ,,株式会社,群馬県,高崎市,中泉町６４９番地１８,,10,202,3703524,,,,,,,2022-04-01,1,,,,,コンサイス,0
2038,9080403004499,新規,0,2022-04-01,2022-04-01,千石丸ＪＡＰＡＮ合同会社,,合同会社,静岡県,浜松市西区,舞阪町舞阪１９７２番地の２,,22,133,4310211,,,,,,,2022-04-01,1,,,,,センゴクマルジャパン,0
2041,9100003006488,新規,0,2022-04-01,2022-04-01,信州エンタープライズ合同会社,,合同会社,長野県,長野市,大字赤沼２１６９番地４１,,20,201,3810001,,,,,,,2022-04-01,1,,,,,シンシュウエンタープライズ,0
2049,9120001244773,新規,0,2022-04-01,2022-04-01,株式会社グッドリリーフ,,株式会社,大阪府,大阪市中央区,西心斎橋２丁目１７番１３号,,27,128,5420086,,,,,,,2022-04-01,1,,,,,グッドリリーフ,0
2050,9120001244781,新規,0,2022-04-01,2022-04-01,株式会社リフォックス,,株式会社,大阪府,大阪市北区,梅田１丁目１－３大阪駅前第３ビル２９階１－１－１号室,,27,127,5300001,,,,,,,2022-04-01,1,,,,,リフォックス,0
2051,9120001244815,新規,0,2022-04-01,2022-04-01,イーリス株式会社,,株式会社,大阪府,大阪市天王寺区,清水谷町１３番５－４０２号,,27,109,5430011,,,,,,,2022-04-01,1,,,,,イーリス,0
2062,9130001071408,新規,0,2022-04-01,2022-04-01,株式会社５９年会ホールディングス,,株式会社,京都府,京都市南区,唐橋赤金町５２番地２,,26,107,6018463,,,,,,,2022-04-01,1,,,,,ゴジュウキュウネンカイホールディングス,0
2065,9140001125419,新規,0,2022-04-01,2022-04-01,ＭＴメディックス株式会社,,株式会社,兵庫県,神戸市東灘区,向洋町中６丁目３番地の４０,,28,101,6580032,,,,,,,2022-04-01,1,,,,,エムティーメディックス,0
2066,9150001025428,新規,0,2022-04-01,2022-04-01,ＹＯＳＨＩＤＡ　ＷＯＯＤ　ＳＴＹＬＥ株式会社,,株式会社,奈良県,桜井市,大字吉備５５７番地,,29,206,6330065,,,,,,,2022-04-01,1,,,,,ヨシダウッドスタイル,0
2076,9180001150512,新規,0,2022-04-01,2022-04-01,株式会社ＣＡＲＥＸ,,株式会社,愛知県,豊明市,栄町南舘２４０番地１０,,23,229,4701168,,,,,,,2022-04-01,1,,,,,カーレックス,0
2077,9180001150578,新規,0,2022-04-01,2022-04-01,大和ホールディングス株式会社,,株式会社,愛知県,名古屋市中区,金山１丁目１４番１６号トキワビル５階,,23,106,4600022,,,,,,,2022-04-01,1,,,,,ダイワホールディングス,0
2078,9180001150594,新規,0,2022-04-01,2022-04-01,株式会社ＩＲＯＤＯＲＩ　ＬＩＦＥ,,株式会社,愛知県,名古屋市天白区,井口２丁目９０１番地の３,,23,116,4680052,,,,,,,2022-04-01,1,,,,,イロドリライフ,0
2079,9180001150611,新規,0,2022-04-01,2022-04-01,株式会社ウォーレン,,株式会社,愛知県,名古屋市守山区,小六町１番２０号,,23,113,4630054,,,,,,,2022-04-01,1,,,,,ウォーレン,0
2087,9210001018862,新規,0,2022-04-01,2022-04-01,株式会社７．Ｓｔｙｌｅ,,株式会社,福井県,福井市,米松２丁目２－１６,,18,201,9100851,,,,,,,2022-04-01,1,,,,,セブンスタイル,0
2097,9240001059532,新規,0,2022-04-01,2022-04-01,株式会社佐々木工務店,,株式会社,広島県,安芸郡府中町,山田４丁目１７番１６号,,34,302,7350004,,,,,,,2022-04-01,1,,,,,ササキコウムテン,0
2098,9240001059540,新規,0,2022-04-01,2022-04-01,株式会社美匠,,株式会社,広島県,呉市,広中新開１丁目８番５３号,,34,202,7370124,,,,,,,2022-04-01,1,,,,,ビショウ,0
2101,9240003005567,新規,0,2022-04-01,2022-04-01,合同会社きず企画,,合同会社,広島県,広島市安佐北区,小河原町１４３７番地,,34,106,7391754,,,,,,,2022-04-01,1,,,,,キズキカク,0
2105,9250005008732,新規,0,2022-04-01,2022-04-01,公立大学法人周南公立大学,,その他の設立登記法人,山口県,周南市,学園台８４３番地の４の２番地,,35,215,7450000,,,,,,,2022-04-01,1,,,,,シュウナンコウリツダイガク,0
2109,9260001036678,新規,0,2022-04-01,2022-04-01,株式会社ＴＥＮＮ,,株式会社,岡山県,岡山市南区,新保６５３番地１８,,33,104,7000945,,,,,,,2022-04-01,1,,,,,テン,0
2111,9270005005505,新規,0,2022-04-01,2022-04-01,特定非営利活動法人因幡クラウド地震予知研究所,,その他の設立登記法人,鳥取県,鳥取市,面影１丁目３番４号,,31,201,6800855,,,,,,,2022-04-01,1,,,,,イナバクラウドジシンヨチケンキュウジョ,0
2112,9280001008667,新規,0,2022-04-01,2022-04-01,株式会社志騰興業,,株式会社,島根県,松江市,宍道町東来待１１９２番地５,,32,201,6990404,,,,,,,2022-04-01,1,,,,,シトウコウギョウ,0
2120,9320003003760,新規,0,2022-04-01,2022-04-01,合同会社Ｙｏｕ　ｐｉｎｅ,,合同会社,大分県,大分市,弁天２丁目１－５３コーポ丸萬２０１,,44,201,8700017,,,,,,,2022-04-01,1,,,,,,0
2122,9340001024609,新規,0,2022-04-01,2022-04-01,株式会社梁瀬工業,,株式会社,鹿児島県,霧島市,隼人町小田２９７６番地２,,46,218,8995105,,,,,,,2022-04-01,1,,,,,ヤナセコウギョウ,0
2123,9360003011891,新規,0,2022-04-01,2022-04-01,合同会社キノボリトカゲ,,合同会社,沖縄県,国頭郡大宜味村,字謝名城８８７,,47,302,9051302,,,,,,,2022-04-01,1,,,,,キノボリトカゲ,0
2127,9410001013133,新規,0,2022-04-01,2022-04-01,株式会社やま咲き農園,,株式会社,秋田県,秋田市,雄和田草川字山崎３９番地,,05,201,0101201,,,,,,,2022-04-01,1,,,,,ヤマザキノウエン,0
2138,9430005014431,新規,0,2022-04-01,2022-04-01,医療法人社団さっぽろ眼科・眼形成クリニック,,その他の設立登記法人,北海道,札幌市中央区,南一条西１４丁目２９１－８１ウィステリア南１条ビル２Ｆ,,01,101,0600061,,,,,,,2022-04-01,1,,,,,サッポロガンカガンケイセイクリニック,0
2139,9470001019018,新規,0,2022-04-01,2022-04-01,株式会社トライ,,株式会社,香川県,高松市,浜ノ町１８番２３号,,37,201,7600011,,,,,,,2022-04-01,1,,,,,トライ,0
2142,9480001011691,新規,0,2022-04-01,2022-04-01,株式会社ジオサーベイ,,株式会社,徳島県,美馬市,美馬町字北東原１７番地,,36,207,7712106,,,,,,,2022-04-01,1,,,,,ジオサーベイ,0
2147,9700150080358,新規,0,2022-04-01,2017-01-26,日本アッセンブリーズ・オブ・ゴッド教団　シャロンキリスト教会,,その他,熊本県,八代市,永碇町９８３番地,,43,202,8660885,,,,,,,2017-01-26,1,,,,,ニホンアッセンブリーズオブゴッドキョウダンシャロンキリストキョウカイ,0
2148,9700150107607,新規,0,2022-04-01,2022-04-01,泓瀛投資股斌有限公司,00126121,外国会社等,東京都,千代田区,平河町２丁目５－２－１６０１,,13,101,1020093,台湾　高雄市新興區民生二路３６號２２棲之１,,,,,,2022-04-01,1,,,,,オーエイトーシコブンユーゲンコーシ,0
