sequenceNumber,corporateNumber,process,correct,updateDate,changeDate,name,nameImageId,kind,prefectureName,cityName,streetNumber,addressImageId,prefectureCode,cityCode,postCode,addressOutside,addressOutsideImageId,closeDate,closeCause,successorCorporateNumber,changeCause,assignmentDate,latest,enName,enPrefectureName,enCityName,enAddressOutside,furigana,hihyoji
7,1010001224109,登記記録の閉鎖等,0,2024-07-02,2024-06-20,ＪＩＡ河野コンサル株式会社,,株式会社,東京都,千代田区,霞が関３丁目２番１号,,13,101,1000013,,,2024-06-20,清算の結了等,,,2022-01-27,1,,,,,ジェイアイエーカワノコンサル,0
31,1011801018897,登記記録の閉鎖等,0,2024-07-02,2024-06-20,株式会社Ｊａｐａｎ　Ｅｎｇｉｎｅｅｒ’ｓ　Ｃｏｍｐａｎｙ,,株式会社,千葉県,茂原市,粟生野３５１５番地５,,12,210,2994106,,,2024-06-20,清算の結了等,,,2015-10-05,1,,,,,ジャパンエンジニアーズカンパニー,0
32,1011802002553,登記記録の閉鎖等,0,2024-07-02,2024-06-27,有限会社ケーデーエル研究所,,有限会社,東京都,葛飾区,東堀切１丁目２４番７号,,13,122,1240004,,,2024-06-27,清算の結了等,,,2015-10-05,1,,,,,ケーデーエルケンキュウジョ,0
33,1012301010213,登記記録の閉鎖等,0,2024-07-02,2024-06-27,株式会社シーズ,,株式会社,東京都,町田市,森野３丁目１８番１７号ウイング森野２０３,,13,209,1940022,,,2024-06-27,清算の結了等,,,2015-10-05,1,,,,,シーズ,0
40,1013302003627,登記記録の閉鎖等,0,2024-07-02,2024-06-24,有限会社小湊工業所,,有限会社,東京都,豊島区,池袋本町２丁目４番３号,,13,116,1700011,,,2024-06-24,清算の結了等,,,2015-10-05,1,,,,,コミナトコウギョウショ,0
44,1020001142053,登記記録の閉鎖等,0,2024-07-02,2024-06-19,株式会社Ｙｏｕ　Ｓｈｉｐ,,株式会社,神奈川県,川崎市麻生区,五力田２２４番地１ピアリヴェール１０１,,14,137,2150025,,,2024-06-19,清算の結了等,,,2021-07-02,1,,,,,ユーシップ,0
57,1030003007245,登記記録の閉鎖等,0,2024-07-02,2024-06-24,合同会社ＥｃｏＩｎｆｏｒｍａｔｉｃｓ,,合同会社,東京都,国分寺市,日吉町２丁目３１番地２１,,13,214,1850032,,,2024-06-24,清算の結了等,,,2015-10-05,1,,,,,エコインフォマティクス,0
75,1080002015715,登記記録の閉鎖等,0,2024-07-02,2024-06-24,有限会社カクハチ,,有限会社,静岡県,焼津市,鰯ケ島２７９番地,,22,212,4250032,,,2024-06-24,清算の結了等,,,2015-10-05,1,,,,,カクハチ,0
80,1080101014543,登記記録の閉鎖等,0,2024-07-02,2024-06-27,株式会社日藻,,株式会社,静岡県,下田市,柿崎３８６番地１,,22,219,4150013,,,2024-06-27,清算の結了等,,,2015-10-05,1,,,,,ニッソウ,0
82,1080102007315,登記記録の閉鎖等,0,2024-07-02,2024-06-27,有限会社早川板金工業所,,有限会社,静岡県,御殿場市,川島田１８８０番地の２,,22,215,4120045,,,2024-06-27,清算の結了等,,,2015-10-05,1,,,,,ハヤカワバンキンコウギョウショ,0
87,1090001014064,登記記録の閉鎖等,0,2024-07-02,2024-06-26,株式会社菊島,,株式会社,山梨県,甲州市,塩山上塩後１２７０番地,,19,213,4040045,,,2024-06-26,清算の結了等,,,2015-10-05,1,,,,,,0
96,1100002008880,登記記録の閉鎖等,0,2024-07-02,2024-06-17,有限会社アクアシステム,,有限会社,長野県,上高井郡小布施町,大字都住８０７番地,,20,541,3810208,,,2024-06-17,清算の結了等,,,2015-10-05,1,,,,,アクアシステム,0
101,1110005002467,登記記録の閉鎖等,0,2024-07-02,2024-06-19,特定非営利活動法人消防記念新潟保存会,,その他の設立登記法人,新潟県,新潟市西区,寺尾２０番１７号,,15,107,9502052,,,2024-06-19,清算の結了等,,,2015-10-05,1,,,,,ショウボウキネンニイガタホゾンカイ,0
160,1190002017031,登記記録の閉鎖等,0,2024-07-02,2024-06-25,有限会社百十紅,,有限会社,三重県,いなべ市,大安町石榑南１８３９番地,,24,214,5110266,,,2024-06-25,清算の結了等,,,2024-05-01,1,,,,,ヒャクジュウコウ,0
165,1220002001353,登記記録の閉鎖等,0,2024-07-02,2024-06-27,有限会社栄建設計事務所,,有限会社,石川県,金沢市,八日市２丁目２２３番地４,,17,201,9218064,,,2024-06-27,清算の結了等,,,2015-10-05,1,,,,,エイケンセッケイジムショ,0
166,1220005002605,登記記録の閉鎖等,0,2024-07-02,2024-06-19,特定非営利活動法人ネイチャープロジェクト白山,,その他の設立登記法人,石川県,金沢市,山科町へ２４番１６号,,17,201,9218174,,,2024-06-19,清算の結了等,,,2015-10-05,1,,,,,ネイチャープロジェクトハクサン,0
168,1230002007548,登記記録の閉鎖等,0,2024-07-02,2024-06-25,有限会社カツミ建材,,有限会社,富山県,魚津市,宮津字上大平２番８０,,16,204,9370853,,,2024-06-25,清算の結了等,,,2015-10-05,1,,,,,カツミケンザイ,0
176,1260002000319,登記記録の閉鎖等,0,2024-07-02,2024-06-18,有限会社明日香,,有限会社,岡山県,岡山市南区,浦安西町１４０番地８,,33,104,7028025,,,2024-06-18,清算の結了等,,,2015-10-05,1,,,,,アスカ,0
191,1340005009002,登記記録の閉鎖等,0,2024-07-02,2024-06-26,ＮＰＯ法人ひまわり育成会,,その他の設立登記法人,鹿児島県,いちき串木野市,大里字橋ノ口３９３９番地,,46,219,8992103,,,2024-06-26,清算の結了等,,,2019-04-08,1,,,,,ヒマワリイクセイカイ,0
202,1370501000064,登記記録の閉鎖等,0,2024-07-02,2024-06-19,株式会社大内薬店,,株式会社,宮城県,気仙沼市,南町３丁目１番３号,,04,205,9880017,,,2024-06-19,清算の結了等,,,2015-10-05,1,,,,,オオウチヤクテン,0
224,1460101005917,登記記録の閉鎖等,0,2024-07-02,2024-06-27,株式会社梅本塗工店,,株式会社,北海道,上川郡清水町,南三条８丁目１９番地,,01,636,0890111,,,2024-06-27,清算の結了等,,,2016-04-18,1,,,,,ウメモトトコウテン,0
225,1460301003621,登記記録の閉鎖等,0,2024-07-02,2024-07-01,株式会社マルホ阿部水産,,株式会社,北海道,網走市,海岸町１番１２号,,01,211,0930083,,,2024-07-01,清算の結了等,,,2015-10-05,1,,,,,,0
240,2010003023994,登記記録の閉鎖等,0,2024-07-02,2024-06-21,合同会社カウウェラ,,合同会社,東京都,中央区,日本橋浜町１丁目７番４,,13,102,1030007,,,2024-06-21,清算の結了等,,,2016-08-18,1,,,,,カウウェラ,0
272,2011101024059,登記記録の閉鎖等,0,2024-07-02,2024-06-27,ライトロン株式会社,,株式会社,東京都,三鷹市,井の頭３丁目３２番１５号,,13,204,1810001,,,2024-06-27,清算の結了等,,,2015-10-05,1,,,,,ライトロン,0
282,2011601003545,登記記録の閉鎖等,0,2024-07-02,2024-06-27,株式会社清建,,株式会社,東京都,練馬区,豊玉南１丁目１４番１５－１０１号,,13,120,1760014,,,2024-06-27,清算の結了等,,,2015-10-05,1,,,,,セイケン,0
294,2013102001557,登記記録の閉鎖等,0,2024-07-02,2024-06-26,有限会社ヤマザキ,,有限会社,東京都,羽村市,小作台１丁目１３番地の７,,13,227,2050001,,,2024-06-26,清算の結了等,,,2015-10-05,1,,,,,,0
296,2013302008014,登記記録の閉鎖等,0,2024-07-02,2024-06-20,有限会社日新薬品,,有限会社,東京都,豊島区,池袋２丁目４４番１号,,13,116,1710014,,,2024-06-20,清算の結了等,,,2015-10-05,1,,,,,ニッシンヤクヒン,0
305,2021001009092,登記記録の閉鎖等,0,2024-07-02,2024-07-01,株式会社サンエイ,,株式会社,神奈川県,相模原市中央区,上溝２３４６番地１５,,14,152,2520243,,,2024-07-01,清算の結了等,,,2015-10-05,1,,,,,サンエイ,0
306,2021005001442,登記記録の閉鎖等,0,2024-07-02,2024-06-17,天理教東堺分教会,,その他の設立登記法人,神奈川県,高座郡寒川町,宮山１８４６番地２,,14,321,2530106,,,2024-06-17,合併による解散等,3120105001044,令和６年６月１０日大阪府堺市堺区石津町一丁１６番２４号天理教石津分教会（3120105001044）に合併し解散,2015-10-05,1,,,,,,0
308,2021005012638,登記記録の閉鎖等,0,2024-07-02,2024-06-28,超小型ＥＶ技術研究組合,,その他の設立登記法人,神奈川県,厚木市,七沢２１７８,,14,212,2430121,,,2024-06-28,清算の結了等,,,2022-10-14,1,,,,,チョウコガタイーブイ,0
320,2050002022085,登記記録の閉鎖等,0,2024-07-02,2024-06-28,朋典商事有限会社,,有限会社,茨城県,つくば市,栗原１４９５番地の１,,08,220,3050001,,,2024-06-28,清算の結了等,,,2015-10-05,1,,,,,トモノリショウジ,0
362,2122001000667,登記記録の閉鎖等,0,2024-07-02,2024-06-26,株式会社イモト,,株式会社,大阪府,東大阪市,若江南町２丁目１０番１４号,,27,227,5780943,,,2024-06-26,清算の結了等,,,2015-10-05,1,,,,,イモト,0
372,2140001091436,登記記録の閉鎖等,0,2024-07-02,2024-07-01,株式会社ＩＲＡ　ＫＯＢＥ,,株式会社,兵庫県,神戸市東灘区,魚崎浜町２０番地,,28,101,6580024,,,2024-07-01,合併による解散等,1140001026054,令和６年７月１日神戸市東灘区魚崎浜町２０番地株式会社アクティブプロモーション（1140001026054）に合併し解散,2015-10-05,1,,,,,アイアールエーコウベ,0
379,2160001010872,登記記録の閉鎖等,0,2024-07-02,2024-06-27,南和株式会社,,株式会社,滋賀県,近江八幡市,若宮町２３０番地２,,25,204,5230034,,,2024-06-27,清算の結了等,,,2015-10-05,1,,,,,ナンワ,0
385,2180001068554,登記記録の閉鎖等,0,2024-07-02,2024-06-19,株式会社ライラスエージェント,,株式会社,愛知県,名古屋市天白区,一本松１丁目５１５番地三京マンション３０２号,,23,116,4680008,,,2024-06-19,清算の結了等,,,2015-10-05,1,,,,,ライラスエージェント,0
386,2180001142747,登記記録の閉鎖等,0,2024-07-02,2024-06-19,株式会社アッサンブラージュ,,株式会社,愛知県,北名古屋市,中之郷南７３番地,,23,234,4810045,,,2024-06-19,清算の結了等,,,2020-09-07,1,,,,,アッサンブラージュ,0
394,2180002069650,登記記録の閉鎖等,0,2024-07-02,2024-06-24,有限会社ニチマツ,,有限会社,静岡県,焼津市,大村１丁目１１番地の１,,22,212,4250082,,,2024-06-24,清算の結了等,,,2015-10-05,1,,,,,ニチマツ,0
400,2180301009539,登記記録の閉鎖等,0,2024-07-02,2024-06-28,株式会社ピース,,株式会社,愛知県,豊橋市,広小路１丁目６番地の２,,23,201,4400881,,,2024-06-28,清算の結了等,,,2015-10-05,1,,,,,ピース,0
405,2210005005120,登記記録の閉鎖等,0,2024-07-02,2024-06-25,企業組合若鮎グループ加工部,,その他の設立登記法人,福井県,吉田郡永平寺町,吉波第１８号２３番地,,18,322,9101205,,,2024-06-25,清算の結了等,,,2015-10-05,1,,,,,ワカアユグループカコウブ,0
417,2260002004665,登記記録の閉鎖等,0,2024-07-02,2024-06-18,有限会社じん,,有限会社,岡山県,岡山市北区,中山下１丁目４番４７号,,33,101,7000821,,,2024-06-18,清算の結了等,,,2015-10-05,1,,,,,ジン,0
419,2280002006024,登記記録の閉鎖等,0,2024-07-02,2024-06-28,有限会社まるふみ,,有限会社,島根県,出雲市,西平田町２番地,,32,203,6910002,,,2024-06-28,清算の結了等,,,2015-10-05,1,,,,,マルフミ,0
420,2280002011560,登記記録の閉鎖等,0,2024-07-02,2024-06-28,有限会社みことくん,,有限会社,島根県,雲南市,三刀屋町根波別所６７９番地,,32,209,6902631,,,2024-06-28,清算の結了等,,,2015-10-05,1,,,,,ミコトクン,0
435,2390002001732,登記記録の閉鎖等,0,2024-07-02,2024-06-17,有限会社武田正貴商店,,有限会社,山形県,山形市,錦町１１番１４号,,06,201,9900056,,,2024-06-17,清算の結了等,,,2015-10-05,1,,,,,タケダマサキショウテン,0
436,2400502000257,登記記録の閉鎖等,0,2024-07-02,2024-06-13,有限会社黒勘商店,,有限会社,岩手県,一関市,地主町６番３号,,03,209,0210893,,,2024-06-13,清算の結了等,,,2015-10-05,1,,,,,,0
439,2430001051336,登記記録の閉鎖等,0,2024-07-02,2024-07-01,株式会社ピュアフーズ,,株式会社,北海道,小樽市,桂岡町１４番５号,,01,203,0470264,,,2024-07-01,清算の結了等,,,2015-10-05,1,,,,,ピュアフーズ,0
440,2430001072159,登記記録の閉鎖等,0,2024-07-02,2024-07-01,株式会社嶺一組,,株式会社,北海道,札幌市白石区,本通７丁目南７－８－３０５号,,01,104,0030026,,,2024-07-01,清算の結了等,,,2016-08-15,1,,,,,ミネイチグミ,0
464,3010403015681,登記記録の閉鎖等,0,2024-07-02,2024-06-19,合同会社ひすいインベストメント,,合同会社,東京都,港区,北青山１丁目２番３号,,13,103,1070061,,,2024-06-19,清算の結了等,,,2016-12-01,1,,,,,ヒスイインベストメント,0
467,3010501010485,登記記録の閉鎖等,0,2024-07-02,2024-06-25,日本総合舞台美術株式会社,,株式会社,東京都,台東区,浅草６丁目３番４号藤浪小道具株式会社内,,13,106,1110032,,,2024-06-25,清算の結了等,,,2015-10-05,1,,,,,ニホンソウゴウブタイビジュツ,0
470,3010601039367,登記記録の閉鎖等,0,2024-07-02,2024-06-28,草薙電気工事株式会社,,株式会社,東京都,江東区,亀戸３丁目６０番１３号,,13,108,1360071,,,2024-06-28,清算の結了等,,,2015-10-05,1,,,,,クサナギデンキコウジ,0
497,3012405001759,登記記録の閉鎖等,0,2024-07-02,2024-06-27,特定非営利活動法人レッド,,その他の設立登記法人,東京都,武蔵野市,吉祥寺南町３丁目１７番１７号,,13,203,1800003,,,2024-06-27,清算の結了等,,,2015-10-05,1,,,,,レッド,0
502,3013301030884,登記記録の閉鎖等,0,2024-07-02,2024-06-19,株式会社一伸興業,,株式会社,千葉県,市川市,高谷２丁目１３番２号ガレージメイプルＦ－６号,,12,203,2720013,,,2024-06-19,清算の結了等,,,2015-10-05,1,,,,,イッシンコウギョウ,0
510,3020002098672,登記記録の閉鎖等,0,2024-07-02,2024-06-19,有限会社バンズ,,有限会社,神奈川県,川崎市川崎区,東田町１０番２０号,,14,131,2100005,,,2024-06-19,清算の結了等,,,2015-10-05,1,,,,,バンズ,0
517,3030002012021,登記記録の閉鎖等,0,2024-07-02,2024-06-28,有限会社古山無線,,有限会社,埼玉県,さいたま市大宮区,桜木町４丁目１２６番地,,11,103,3300854,,,2024-06-28,清算の結了等,,,2015-10-05,1,,,,,コヤマムセン,0
523,3040002044947,登記記録の閉鎖等,0,2024-07-02,2024-06-19,有限会社オフィスはなまる,,有限会社,千葉県,船橋市,馬込西２丁目２３番６号,,12,204,2730855,,,2024-06-19,清算の結了等,,,2015-10-05,1,,,,,オフィスハナマル,0
537,3080001023064,登記記録の閉鎖等,0,2024-07-02,2024-06-24,株式会社ボーザー,,株式会社,静岡県,藤枝市,青南町３丁目２番地の１８,,22,214,4260063,,,2024-06-24,清算の結了等,,,2019-08-29,1,,,,,ボーザー,0
539,3080005005439,登記記録の閉鎖等,0,2024-07-02,2024-06-21,学校法人松光学園,,その他の設立登記法人,静岡県,焼津市,浜当目３丁目１４番７号,,22,212,4250012,,,2024-06-21,清算の結了等,,,2015-10-05,1,,,,,ショウコウガクエン,0
548,3110003001816,登記記録の閉鎖等,0,2024-07-02,2024-06-25,北越不動産合資会社,,合資会社,新潟県,新潟市東区,卸新町３丁目１６番地１９,,15,102,9500863,,,2024-06-25,清算の結了等,,,2015-10-05,1,,,,,ホクエツフドウサン,0
559,3120002056372,登記記録の閉鎖等,0,2024-07-02,2024-06-27,有限会社いながき食品,,有限会社,大阪府,大阪市旭区,千林２丁目１２番３５号,,27,117,5350012,,,2024-06-27,清算の結了等,,,2015-10-05,1,,,,,イナガキショクヒン,0
564,3120003024948,登記記録の閉鎖等,0,2024-07-02,2024-06-27,ＡＡＲＯＮ合同会社,,合同会社,大阪府,大阪市北区,南森町１丁目２番２２－５０６号,,27,127,5300054,,,2024-06-27,清算の結了等,,,2023-09-26,1,,,,,アアロン,0
602,3180003015140,登記記録の閉鎖等,0,2024-07-02,2024-06-20,合同会社村一設備,,合同会社,愛知県,海部郡蟹江町,学戸６丁目１３０番地,,23,425,4970050,,,2024-06-20,清算の結了等,,,2015-10-05,1,,,,,ムライチセツビ,0
606,3180302016293,登記記録の閉鎖等,0,2024-07-02,2024-06-21,有限会社安藤木型製作所,,有限会社,愛知県,安城市,新田町縦町３７番地２,,23,212,4460061,,,2024-06-21,清算の結了等,,,2015-10-05,1,,,,,アンドウキガタセイサクショ,0
618,3230002006011,登記記録の閉鎖等,0,2024-07-02,2024-06-27,有限会社ベスト建設,,有限会社,富山県,富山市,山田赤目谷４９１番地,,16,201,9302117,,,2024-06-27,清算の結了等,,,2015-10-05,1,,,,,ベストケンセツ,0
634,3310002002464,登記記録の閉鎖等,0,2024-07-02,2024-06-25,有限会社昭和設備設計事務所,,有限会社,長崎県,長崎市,橋口町１６番１９号,,42,201,8528114,,,2024-06-25,清算の結了等,,,2015-10-05,1,,,,,ショウワセツビセッケイジムショ,0
635,3310005004029,登記記録の閉鎖等,0,2024-07-02,2024-06-24,医療法人大石クリニック,,その他の設立登記法人,長崎県,佐世保市,京坪町８番４号,,42,202,8570874,,,2024-06-24,清算の結了等,,,2015-10-05,1,,,,,オオイシクリニック,0
642,3360003007094,登記記録の閉鎖等,0,2024-07-02,2024-06-27,全都開発合同会社,,合同会社,沖縄県,名護市,字豊原１９０番地６,,47,209,9052172,,,2024-06-27,清算の結了等,,,2015-10-05,1,,,,,ゼントカイハツ,0
647,3380002026597,登記記録の閉鎖等,0,2024-07-02,2024-06-24,有限会社結伸工業,,有限会社,福島県,いわき市,内郷内町堤田８９番地の３,,07,204,9738404,,,2024-06-24,清算の結了等,,,2015-10-05,1,,,,,ユウシンコウギョウ,0
654,3420005006682,登記記録の閉鎖等,0,2024-07-02,2024-06-24,特定非営利活動法人Ｆａｉｒ　Ｔｒａｄｅ　Ｆｉｓｈｅｒｙ．,,その他の設立登記法人,青森県,青森市,大字大野字若宮４６番地１９,,02,201,0300852,,,2024-06-24,清算の結了等,,,2015-10-05,1,,,,,フェアトレードフィッシャリィ,0
659,3440002005041,登記記録の閉鎖等,0,2024-07-02,2024-06-27,有限会社山徳食品,,有限会社,北海道,函館市,弁天町１８番８号,,01,202,0400051,,,2024-06-27,清算の結了等,,,2015-10-05,1,,,,,,0
662,3460302000797,登記記録の閉鎖等,0,2024-07-02,2024-07-01,有限会社重建興業,,有限会社,北海道,北見市,東陵町１８９番地の７３,,01,208,0900061,,,2024-07-01,清算の結了等,,,2015-10-05,1,,,,,ジュウケンコウギョウ,0
663,3470002017348,登記記録の閉鎖等,0,2024-07-02,2024-06-26,有限会社コムネット,,有限会社,香川県,観音寺市,池之尻町３８３番地,,37,205,7680031,,,2024-06-26,清算の結了等,,,2015-10-05,1,,,,,コムネット,0
691,4010801033128,登記記録の閉鎖等,0,2024-07-02,2024-06-24,株式会社グローバルライフデザイン,,株式会社,東京都,大田区,大森北２丁目３－１５第１５下川ビル４階,,13,111,1430016,,,2024-06-24,清算の結了等,,,2022-07-21,1,,,,,グローバルライフデザイン,0
701,4011002007648,登記記録の閉鎖等,0,2024-07-02,2024-06-27,有限会社壽インベストメント,,有限会社,東京都,世田谷区,駒沢２丁目４６番１号,,13,112,1540012,,,2024-06-27,清算の結了等,,,2015-10-05,1,,,,,コトブキインベストメント,0
725,4013202000242,登記記録の閉鎖等,0,2024-07-02,2024-06-18,有限会社アイレック,,有限会社,東京都,目黒区,駒場１丁目４４番２７号,,13,110,1530041,,,2024-06-18,清算の結了等,,,2015-10-05,1,,,,,アイレック,0
734,4020003017606,登記記録の閉鎖等,0,2024-07-02,2024-06-19,合同会社ＴＧＣ,,合同会社,神奈川県,横浜市戸塚区,鳥が丘２７番地１３,,14,110,2440001,,,2024-06-19,合併による解散等,1020003014837,令和６年６月１９日横浜市戸塚区鳥が丘２７番地１３合同会社鳥が丘コンサルティング（1020003014837）に合併し解散,2020-03-26,1,,,,,ティージーシー,0
735,4021003013644,登記記録の閉鎖等,0,2024-07-02,2024-06-27,ＤＭＣ合同会社,,合同会社,神奈川県,伊勢原市,高森１４９４番地の９－１２－１０４,,14,214,2591114,,,2024-06-27,清算の結了等,,,2023-10-05,1,,,,,ディウエムシィウ,0
750,4040001076255,登記記録の閉鎖等,0,2024-07-02,2024-06-20,株式会社シーエスエス,,株式会社,千葉県,君津市,貞元２３８番地,,12,225,2991133,,,2024-06-20,清算の結了等,,,2015-10-05,1,,,,,シーエスエス,0
751,4040003020748,登記記録の閉鎖等,0,2024-07-02,2024-06-19,梅木フーズ合同会社,,合同会社,千葉県,八千代市,八千代台東１丁目２番１２号第２イーストビル１階,,12,221,2760032,,,2024-06-19,清算の結了等,,,2022-09-06,1,,,,,ウメキフーズ,0
755,4050002026233,登記記録の閉鎖等,0,2024-07-02,2024-06-27,有限会社イルポート,,有限会社,茨城県,鹿嶋市,大字沼尾１２０３番地の５,,08,222,3140041,,,2024-06-27,清算の結了等,,,2015-10-05,1,,,,,イルポート,0
757,4060001028031,登記記録の閉鎖等,0,2024-07-02,2024-06-25,株式会社あんしん葬儀社,,株式会社,栃木県,宇都宮市,鶴田町１４０４番地１８,,09,201,3200851,,,2024-06-25,清算の結了等,,,2016-03-02,1,,,,,アンシンソウギシャ,0
763,4070002034432,登記記録の閉鎖等,0,2024-07-02,2024-06-26,有限会社ハートフルケア,,有限会社,群馬県,館林市,苗木町２６３６番地の２,,10,207,3740043,,,2024-06-26,清算の結了等,,,2015-10-05,1,,,,,ハートフルケア,0
767,4080402002178,登記記録の閉鎖等,0,2024-07-02,2024-06-27,有限会社カミエレキャスト,,有限会社,静岡県,浜松市中央区,若林町２１３４番地の１,,22,138,4328051,,,2024-06-27,清算の結了等,,,2015-10-05,1,,,,,カミエレキャスト,0
768,4080403003753,登記記録の閉鎖等,0,2024-07-02,2024-06-27,ＴＨＲＰ合同会社,,合同会社,静岡県,浜松市浜名区,平口２７８２番地の１,,22,139,4340041,,,2024-06-27,清算の結了等,,,2018-11-14,1,,,,,ティーエイチアールピー,0
775,4120001060176,登記記録の閉鎖等,0,2024-07-02,2024-07-01,株式会社アック総合計画,,株式会社,大阪府,大阪市北区,天神橋１丁目６番６号ＡＸＩＳビル２階２０２号室,,27,127,5300041,,,2024-07-01,清算の結了等,,,2015-10-05,1,,,,,アックソウゴウケイカク,0
799,4120102014659,登記記録の閉鎖等,0,2024-07-02,2024-06-28,有限会社もとえ,,有限会社,大阪府,松原市,北新町２丁目５番５号,,27,217,5800025,,,2024-06-28,清算の結了等,,,2015-10-05,1,,,,,モトエ,0
807,4130005004129,登記記録の閉鎖等,0,2024-07-02,2024-06-27,医療法人社団修仁会,,その他の設立登記法人,京都府,京都市北区,紫竹下芝本町６番１,,26,101,6038424,,,2024-06-27,清算の結了等,,,2015-10-05,1,,,,,シュウジンカイ,0
829,4210001017381,登記記録の閉鎖等,0,2024-07-02,2024-06-25,株式会社イイグリーン,,株式会社,福井県,勝山市,旭毛屋町２３０１番地,,18,206,9110817,,,2024-06-25,清算の結了等,,,2018-12-27,1,,,,,イイグリーン,0
830,4210002010633,登記記録の閉鎖等,0,2024-07-02,2024-06-27,有限会社冨士原鉄工所,,有限会社,福井県,敦賀市,砂流２５号５番地,,18,202,9140136,,,2024-06-27,清算の結了等,,,2015-10-05,1,,,,,フジハラテッコウショ,0
831,4230001017520,登記記録の閉鎖等,0,2024-07-02,2024-06-27,大和管財株式会社,,株式会社,富山県,富山市,才覚寺２１１番地２,,16,201,9398263,,,2024-06-27,合併による解散等,1230001003069,令和６年６月２４日富山市才覚寺２１１番地の２株式会社マツモト（1230001003069）に合併し解散,2018-07-23,1,,,,,ダイワカンザイ,0
836,4240002003799,登記記録の閉鎖等,0,2024-07-02,2024-06-28,有限会社加治商会,,有限会社,広島県,広島市安佐北区,可部町大字綾ケ谷２７６６番地１,,34,106,7310236,,,2024-06-28,清算の結了等,,,2015-10-05,1,,,,,カジショウカイ,0
843,4260002008029,登記記録の閉鎖等,0,2024-07-02,2024-06-20,有限会社春田工務店,,有限会社,岡山県,岡山市北区,富原３６５８番地の２,,33,101,7011153,,,2024-06-20,清算の結了等,,,2015-10-05,1,,,,,ハルタコウムテン,0
850,4290002053848,登記記録の閉鎖等,0,2024-07-02,2024-06-04,有限会社平川土木,,有限会社,福岡県,柳川市,大和町塩塚９３９番地,,40,207,8390243,,,2024-06-04,清算の結了等,,,2015-10-05,1,,,,,ヒラカワドボク,0
858,4320002012783,登記記録の閉鎖等,0,2024-07-02,2024-06-28,有限会社ライフクリエート,,有限会社,大分県,大分市,広瀬町２丁目３番４０号,,44,201,8700847,,,2024-06-28,清算の結了等,,,2015-10-05,1,,,,,ライフクリエート,0
876,4380001017175,登記記録の閉鎖等,0,2024-07-02,2024-06-25,株式会社会津ホンダ販売,,株式会社,福島県,会津若松市,一箕町大字亀賀字藤原１７５番地,,07,202,9650005,,,2024-06-25,清算の結了等,,,2015-10-05,1,,,,,アイヅホンダハンバイ,0
881,4380002012340,登記記録の閉鎖等,0,2024-07-02,2024-06-25,有限会社丸幸,,有限会社,福島県,郡山市,麓山２丁目２番２号,,07,203,9638876,,,2024-06-25,清算の結了等,,,2015-10-05,1,,,,,マルコウ,0
888,4400002007494,登記記録の閉鎖等,0,2024-07-02,2024-06-19,有限会社小林建具製作所,,有限会社,岩手県,八幡平市,堀切第９地割８８番地１,,03,214,0287404,,,2024-06-19,清算の結了等,,,2015-10-05,1,,,,,コバヤシタテグセイサクジョ,0
897,4430003011253,登記記録の閉鎖等,0,2024-07-02,2024-06-24,合同会社リベルタ,,合同会社,北海道,札幌市西区,西野三条５丁目７－１－４０１,,01,107,0630033,,,2024-06-24,清算の結了等,,,2020-02-12,1,,,,,リベルタ,0
901,4500005004537,登記記録の閉鎖等,0,2024-07-02,2024-06-11,天理教新金分教会,,その他の設立登記法人,愛媛県,新居浜市,坂井町１丁目７番７号,,38,205,7920812,,,2024-06-11,合併による解散等,4500005004545,令和６年６月１１日愛媛県新居浜市郷四丁目１１番２４号天理教新居郷分教会（4500005004545）に合併し解散,2015-10-05,1,,,,,テンリキョウシンカネブンキョウカイ,0
914,5010003032191,登記記録の閉鎖等,0,2024-07-02,2024-06-20,Ｄｅｅｔｈａ合同会社,,合同会社,東京都,文京区,目白台１丁目３番１０号,,13,105,1120015,,,2024-06-20,清算の結了等,,,2020-05-13,1,,,,,ディーサ,0
920,5010401161385,登記記録の閉鎖等,0,2024-07-02,2024-06-27,ＣＲＯＳＳ株式会社,,株式会社,埼玉県,蓮田市,末広１丁目６番１７号,,11,238,3490124,,,2024-06-27,清算の結了等,,,2021-07-16,1,,,,,クロス,0
970,5011801021245,登記記録の閉鎖等,0,2024-07-02,2024-06-28,ＴＳＧ株式会社,,株式会社,東京都,葛飾区,青戸６丁目３７番５号,,13,122,1250062,,,2024-06-28,清算の結了等,,,2015-10-05,1,,,,,ティーエスジー,0
979,5013303004835,登記記録の閉鎖等,0,2024-07-02,2024-06-24,Ｆａｈｒｅｎｈｅｉｔ　Ｎａｔｉｏｎ合同会社,,合同会社,東京都,豊島区,南長崎１丁目１９番２号アイフォート椎名町１０３号,,13,116,1710052,,,2024-06-24,清算の結了等,,,2019-10-03,1,,,,,ファーレンハイトネイション,0
981,5020001092410,登記記録の閉鎖等,0,2024-07-02,2024-06-19,株式会社ライフサービス,,株式会社,神奈川県,横浜市泉区,弥生台２２番地３グリーンハイム弥生台９棟５０２号,,14,116,2450008,,,2024-06-19,清算の結了等,,,2015-10-05,1,,,,,ライフサービス,0
992,5030001118791,登記記録の閉鎖等,0,2024-07-02,2024-06-27,ＤＵＲＰ株式会社,,株式会社,埼玉県,八潮市,大字大原６４４番地２,,11,234,3400825,,,2024-06-27,清算の結了等,,,2017-02-21,1,,,,,ドゥープ,0
994,5030001134946,登記記録の閉鎖等,0,2024-07-02,2024-06-27,株式会社Ｅ－Ｇａｏ,,株式会社,埼玉県,桶川市,北１丁目１８番１９－４号,,11,231,3630011,,,2024-06-27,清算の結了等,,,2020-01-28,1,,,,,エガオ,0
1024,5080001000714,登記記録の閉鎖等,0,2024-07-02,2024-06-21,エヌ・ティ・ティ・システムサポート株式会社,,株式会社,静岡県,静岡市葵区,東千代田１丁目８番３０号,,22,101,4200801,,,2024-06-21,清算の結了等,,,2015-10-05,1,,,,,エヌティティシステムサポート,0
1027,5080102011362,登記記録の閉鎖等,0,2024-07-02,2024-07-01,有限会社古田自工,,有限会社,静岡県,駿東郡長泉町,本宿１１０番地の２４,,22,342,4110945,,,2024-07-01,清算の結了等,,,2015-10-05,1,,,,,フルタジコウ,0
1062,5140001048350,登記記録の閉鎖等,0,2024-07-02,2024-06-27,株式会社川上総合事務所,,株式会社,兵庫県,尼崎市,南武庫之荘１丁目１５番８－６０６号,,28,202,6610033,,,2024-06-27,清算の結了等,,,2015-10-05,1,,,,,カワカミソウゴウジムショ,0
1071,5140002046477,登記記録の閉鎖等,0,2024-07-02,2024-06-27,せきまる有限会社,,有限会社,兵庫県,豊岡市,出石町川原１２４番地の２,,28,209,6680231,,,2024-06-27,清算の結了等,,,2015-10-05,1,,,,,セキマル,0
1074,5140005003401,登記記録の閉鎖等,0,2024-07-02,2024-06-25,三田食肉卸事業協同組合,,その他の設立登記法人,兵庫県,神戸市北区,長尾町宅原１１番地,,28,109,6511511,,,2024-06-25,清算の結了等,,,2015-10-05,1,,,,,サンダショクニクオロシ,0
1083,5180005005237,登記記録の閉鎖等,0,2024-07-02,2024-06-19,特定非営利活動法人宅老所はじめのいっぽ,,その他の設立登記法人,愛知県,名古屋市中村区,藤江町３丁目４１番地の１,,23,105,4530045,,,2024-06-19,清算の結了等,,,2015-10-05,1,,,,,タクロウショハジメノイッポ,0
1089,5200001012696,登記記録の閉鎖等,0,2024-07-02,2024-06-28,株式会社ＲＡＫＵ・ＲＡＫＵ,,株式会社,岐阜県,各務原市,川島松倉町２２０７番地４８,,21,213,5016022,,,2024-06-28,清算の結了等,,,2015-10-05,1,,,,,ラクラク,0
1090,5200001029385,登記記録の閉鎖等,0,2024-07-02,2024-06-28,株式会社ギリョウ,,株式会社,岐阜県,岐阜市,次木６１８番地１,,21,201,5016132,,,2024-06-28,清算の結了等,,,2015-10-05,1,,,,,ギリョウ,0
1099,5260001015132,登記記録の閉鎖等,0,2024-07-02,2024-05-30,株式会社吉富呉服店,,株式会社,岡山県,倉敷市,幸町１１番３０号,,33,202,7100051,,,2024-05-30,清算の結了等,,,2022-09-26,1,,,,,,0
1110,5290002043501,登記記録の閉鎖等,0,2024-07-02,2024-06-03,有限会社黒岩酸素商会,,有限会社,福岡県,朝倉市,平塚１０９８番地の１,,40,228,8380059,,,2024-06-03,合併による解散等,1290001049544,令和６年６月１日福岡県久留米市東町３３番地の２１福岡酸素株式会社（1290001049544）に合併し解散,2015-10-05,1,,,,,クロイワサンソショウカイ,0
1111,5290802004636,登記記録の閉鎖等,0,2024-07-02,2024-06-19,有限会社ＴＧコーポレーション,,有限会社,福岡県,北九州市小倉南区,上吉田２丁目１８番２号,,40,107,8000201,,,2024-06-19,清算の結了等,,,2015-10-05,1,,,,,,0
1139,5450001011731,登記記録の閉鎖等,0,2024-07-02,2024-06-27,株式会社総合企画販売,,株式会社,北海道,旭川市,永山四条２２丁目３番６号,,01,204,0798414,,,2024-06-27,清算の結了等,,,2016-05-26,1,,,,,ソウゴウキカクハンバイ,0
1140,5460002000138,登記記録の閉鎖等,0,2024-07-02,2024-06-26,有限会社アミユーズ,,有限会社,北海道,釧路市,新川町７番３号,,01,206,0850047,,,2024-06-26,清算の結了等,,,2015-10-05,1,,,,,,0
1146,5500001010397,登記記録の閉鎖等,0,2024-07-02,2024-06-25,株式会社東豫建設,,株式会社,愛媛県,新居浜市,垣生４丁目１番２９号,,38,205,7920872,,,2024-06-25,清算の結了等,,,2015-10-05,1,,,,,トウヨケンセツ,0
1151,6010001087022,登記記録の閉鎖等,0,2024-07-02,2024-06-25,アルビス株式会社,,株式会社,東京都,国立市,北１丁目７番の１クレッセント国立ディアナプレイス３２３,,13,215,1860001,,,2024-06-25,清算の結了等,,,2015-10-05,1,,,,,アルビス,0
1161,6010003029831,登記記録の閉鎖等,0,2024-07-02,2024-06-21,合同会社ＲＬＳプロパティ,,合同会社,東京都,中央区,銀座２丁目１０番８号マニエラ銀座ビル４階ブリッジ・シー会計事務所内,,13,102,1040061,,,2024-06-21,清算の結了等,,,2019-05-15,1,,,,,アールエルエスプロパティ,0
1170,6010502008889,登記記録の閉鎖等,0,2024-07-02,2024-06-26,有限会社萩原商店,,有限会社,東京都,台東区,柳橋１丁目１０番２号,,13,106,1110052,,,2024-06-26,清算の結了等,,,2015-10-05,1,,,,,ハギワラショウテン,0
1171,6010601001596,登記記録の閉鎖等,0,2024-07-02,2024-06-19,株式会社サンケミカ・パック,,株式会社,千葉県,習志野市,本大久保４丁目６番３５号,,12,216,2750012,,,2024-06-19,清算の結了等,,,2015-10-05,1,,,,,サンケミカパック,0
1202,6011501008863,登記記録の閉鎖等,0,2024-07-02,2024-06-27,株式会社マルヨシ,,株式会社,東京都,荒川区,南千住２丁目１１番５号,,13,118,1160003,,,2024-06-27,清算の結了等,,,2015-10-05,1,,,,,マルヨシ,0
1206,6011702016384,登記記録の閉鎖等,0,2024-07-02,2024-06-28,有限会社Ｃ．Ｐエンジニアリング,,有限会社,東京都,江戸川区,松江７丁目１４番２０－２０５号,,13,123,1320025,,,2024-06-28,清算の結了等,,,2015-10-05,1,,,,,シーピーエンジニアリング,0
1211,6012402022747,登記記録の閉鎖等,0,2024-07-02,2024-06-28,有限会社ＢＭＣ,,有限会社,静岡県,御殿場市,深沢１５１０番地の１,,22,215,4120023,,,2024-06-28,清算の結了等,,,2015-10-05,1,,,,,ビーエムシー,0
1235,6030003005161,登記記録の閉鎖等,0,2024-07-02,2024-06-27,合同会社まなコーポレーション,,合同会社,東京都,西東京市,東町６丁目６番９号サンハイツ東１０１,,13,229,2020012,,,2024-06-27,清算の結了等,,,2015-10-05,1,,,,,マナコーポレーション,0
1250,6080001013384,登記記録の閉鎖等,0,2024-07-02,2024-06-21,株式会社河崎菓子本店,00067332,株式会社,静岡県,島田市,金谷田町２０４６番地,,22,209,4280025,,,2024-06-21,清算の結了等,,,2015-10-05,1,,,,,カワサキカシホンテン,0
1252,6080102002369,登記記録の閉鎖等,0,2024-07-02,2024-06-28,有限会社ティ・エム・シー,,有限会社,静岡県,沼津市,本郷町５番１４号,,22,203,4100817,,,2024-06-28,清算の結了等,,,2015-10-05,1,,,,,ティエムシー,0
1270,6120903004526,登記記録の閉鎖等,0,2024-07-02,2024-06-27,合同会社岩成商会,,合同会社,大阪府,豊中市,寺内２丁目３番３‐８１０号,,27,203,5610872,,,2024-06-27,清算の結了等,,,2023-03-08,1,,,,,イワナリショウカイ,0
1305,6180302022966,登記記録の閉鎖等,0,2024-07-02,2024-06-20,有限会社永田屋米酒店,,有限会社,愛知県,豊田市,永覚新町１丁目１０番地３,,23,211,4701206,,,2024-06-20,清算の結了等,,,2015-10-05,1,,,,,ナガタヤコメサケテン,0
1310,6220005008564,登記記録の閉鎖等,0,2024-07-02,2024-06-25,石川あすなろ事業協同組合,,その他の設立登記法人,石川県,羽咋市,大川町２丁目１００番地,,17,207,9250015,,,2024-06-25,清算の結了等,,,2021-06-22,1,,,,,イシカワアスナロ,0
1350,6410001006809,登記記録の閉鎖等,0,2024-07-02,2024-06-25,日通大館運輸株式会社,,株式会社,秋田県,大館市,根下戸新町５番１５０号,,05,204,0170864,,,2024-06-25,清算の結了等,,,2015-10-05,1,,,,,ニッツウオオダテウンユ,0
1352,6410005005773,登記記録の閉鎖等,0,2024-07-02,2024-06-03,農事組合法人夏美沢高原ファーム,,その他の設立登記法人,秋田県,横手市,大森町猿田字昼花沢４８番地３,,05,203,0130551,,,2024-06-03,合併による解散等,6410005004643,令和６年６月３日秋田県大仙市協和小種字泉沢山６４番地農事組合法人ビクトリーファーム（6410005004643）に合併し解散,2015-10-05,1,,,,,ナツミザワコウゲンファーム,0
1353,6430001025039,登記記録の閉鎖等,0,2024-07-02,2024-06-28,株式会社エートス,,株式会社,北海道,札幌市西区,琴似二条３丁目１番５号,,01,107,0630812,,,2024-06-28,清算の結了等,,,2015-10-05,1,,,,,エートス,0
1354,6430001030641,登記記録の閉鎖等,0,2024-07-02,2024-06-26,株式会社ＨＳＪ,,株式会社,北海道,札幌市東区,伏古八条２丁目３番２５号,,01,103,0070868,,,2024-06-26,清算の結了等,,,2015-10-05,1,,,,,エイチエスジェイ,0
1358,6430001078111,登記記録の閉鎖等,0,2024-07-02,2024-07-01,株式会社ラーメン麺匠,,株式会社,北海道,札幌市白石区,南郷通９丁目南６番１８号,,01,104,0030022,,,2024-07-01,清算の結了等,,,2019-01-11,1,,,,,ラーメンメンショウ,0
1371,6450001013082,登記記録の閉鎖等,0,2024-07-02,2024-06-19,松建ホーム株式会社稚内,,株式会社,北海道,稚内市,港１丁目２番３号,,01,214,0970021,,,2024-06-19,清算の結了等,,,2020-08-14,1,,,,,マツケンホームワッカナイ,0
1379,6500001025543,登記記録の閉鎖等,0,2024-07-02,2024-06-25,株式会社ティケイエス,,株式会社,愛媛県,新居浜市,西喜光地町４番３号,,38,205,7920827,,,2024-06-25,合併による解散等,9500001009816,令和６年６月２５日愛媛県新居浜市高木町３番１３号株式会社日光商事（9500001009816）に合併し解散,2024-04-09,1,,,,,ティケイエス,0
1388,7010401016389,登記記録の閉鎖等,0,2024-07-02,2024-06-18,株式会社大一精機,,株式会社,東京都,港区,新橋５丁目８番４号,,13,103,1050004,,,2024-06-18,清算の結了等,,,2015-10-05,1,,,,,ダイイチセイキ,0
1390,7010401027989,登記記録の閉鎖等,0,2024-07-02,2024-06-18,株式会社ＭＡＳＡＴＯＭＯ,,株式会社,東京都,港区,南青山４丁目１８番１０号,,13,103,1070062,,,2024-06-18,清算の結了等,,,2015-10-05,1,,,,,マサトモ,0
1391,7010401046353,登記記録の閉鎖等,0,2024-07-02,2024-06-18,株式会社アールオーシー,,株式会社,東京都,港区,赤坂４丁目６番３号,,13,103,1070052,,,2024-06-18,清算の結了等,,,2015-10-05,1,,,,,アールオーシー,0
1405,7010801018811,登記記録の閉鎖等,0,2024-07-02,2024-06-25,株式会社三光クリーン,,株式会社,東京都,大田区,鵜の木２丁目４２番９号,,13,111,1460091,,,2024-06-25,清算の結了等,,,2015-10-05,1,,,,,サンコウクリーン,0
1406,7010805002893,登記記録の閉鎖等,0,2024-07-02,2024-06-21,小南給湯協同組合,,その他の設立登記法人,東京都,大田区,大森東５丁目３１番３号,,13,111,1430012,,,2024-06-21,清算の結了等,,,2021-10-28,1,,,,,コナンキュウトウ,0
1426,7012401022094,登記記録の閉鎖等,0,2024-07-02,2024-06-28,株式会社東亜経済研究機構,,株式会社,東京都,武蔵野市,中町１丁目３５番地６桜井ビル３０３,,13,203,1800006,,,2024-06-28,清算の結了等,,,2015-10-05,1,,,,,トウアケイザイケンキュウキコウ,0
1429,7013301037554,登記記録の閉鎖等,0,2024-07-02,2024-06-19,株式会社ＡＣＴ４ＪＡＰＡＮ,,株式会社,神奈川県,横浜市鶴見区,鶴見中央１丁目３１番２２－７０６号,,14,101,2300051,,,2024-06-19,清算の結了等,,,2015-10-05,1,,,,,アクトフォージャパン,0
1430,7020001089660,登記記録の閉鎖等,0,2024-07-02,2024-06-19,株式会社濱鈴,,株式会社,神奈川県,横浜市金沢区,幸浦２丁目２１番１号,,14,108,2360003,,,2024-06-19,清算の結了等,,,2015-10-05,1,,,,,ハマスズ,0
1447,7030005005761,登記記録の閉鎖等,0,2024-07-02,2024-06-26,協同組合南東武第一保安センター,,その他の設立登記法人,埼玉県,草加市,中央２丁目１番８号,,11,221,3400016,,,2024-06-26,清算の結了等,,,2015-10-05,1,,,,,ミナミトウブダイイチホアンセンター,0
1453,7040001097694,登記記録の閉鎖等,0,2024-07-02,2024-06-20,東和産業株式会社,,株式会社,千葉県,市川市,下貝塚２丁目３５番６号,,12,203,2720821,,,2024-06-20,清算の結了等,,,2016-11-15,1,,,,,トウワサンギョウ,0
1455,7040002050272,登記記録の閉鎖等,0,2024-07-02,2024-06-20,有限会社アムテック,,有限会社,千葉県,松戸市,二十世紀が丘萩町５８番地の１,,12,207,2710086,,,2024-06-20,清算の結了等,,,2015-10-05,1,,,,,アムテック,0
1471,7080101001040,登記記録の閉鎖等,0,2024-07-02,2024-06-28,株式会社大和化工機,,株式会社,静岡県,沼津市,庄栄町１０番５０号,,22,203,4100047,,,2024-06-28,清算の結了等,,,2015-10-05,1,,,,,ダイワカコウキ,0
1478,7100001005774,登記記録の閉鎖等,0,2024-07-02,2024-06-17,株式会社ロゴス,,株式会社,長野県,須坂市,大字八町２２４１番地,,20,207,3820000,,,2024-06-17,清算の結了等,,,2015-10-05,1,,,,,ロゴス,0
1496,7130001026842,登記記録の閉鎖等,0,2024-07-02,2024-06-26,株式会社メイクデザイン事務所,,株式会社,京都府,京都市中京区,河原町通三条下ル二丁目山崎町２５１番地,,26,104,6040000,,,2024-06-26,清算の結了等,,,2015-10-05,1,,,,,メイクデザインジムショ,0
1528,7180301014113,登記記録の閉鎖等,0,2024-07-02,2024-06-19,株式会社鈴木工務店,,株式会社,愛知県,刈谷市,南桜町１丁目７２番地１アルバックスタワー刈谷駅前６０３号,,23,210,4480841,,,2024-06-19,清算の結了等,,,2015-10-05,1,,,,,スズキコウムテン,0
1529,7180302002471,登記記録の閉鎖等,0,2024-07-02,2024-06-24,有限会社日吉金型,,有限会社,愛知県,岡崎市,丸山町字上地畑６２番地１,,23,202,4440006,,,2024-06-24,清算の結了等,,,2015-10-05,1,,,,,ヒヨシカナガタ,0
1532,7190005011298,登記記録の閉鎖等,0,2024-07-02,2024-06-24,一般社団法人日本森の十字社,,その他の設立登記法人,三重県,いなべ市,藤原町坂本１２４３番地,,24,214,5110518,,,2024-06-24,清算の結了等,,,2019-04-12,1,,,,,ニホンモリノジュウジシャ,0
1541,7250002005387,登記記録の閉鎖等,0,2024-07-02,2024-06-28,有限会社二宝電気工事社,,有限会社,山口県,宇部市,大字東須恵２８００番地,,35,202,7590206,,,2024-06-28,清算の結了等,,,2015-10-05,1,,,,,ニホウデンキコウジシャ,0
1554,7340005005549,登記記録の閉鎖等,0,2024-07-02,2024-06-24,特定非営利活動法人みどりの風かんかん,,その他の設立登記法人,鹿児島県,鹿児島市,草牟田１丁目１番２号,,46,201,8900014,,,2024-06-24,清算の結了等,,,2015-10-05,1,,,,,ミドリノカゼカンカン,0
1578,7450001010830,登記記録の閉鎖等,0,2024-07-02,2024-06-26,株式会社北海道新聞虫谷販売所,,株式会社,北海道,紋別市,南が丘町１丁目５番２０号,,01,219,0940013,,,2024-06-26,清算の結了等,,,2015-10-05,1,,,,,ホッカイドウシンブンムシタニハンバイジョ,0
1599,8010101000849,登記記録の閉鎖等,0,2024-07-02,2024-06-28,株式会社勝田ナセン,,株式会社,東京都,八王子市,小比企町１７４３番地,,13,201,1930934,,,2024-06-28,清算の結了等,,,2015-10-05,1,,,,,カツタナセン,0
1614,8010502015941,登記記録の閉鎖等,0,2024-07-02,2024-06-26,有限会社オン企画,,有限会社,東京都,台東区,小島１丁目２－９光重第二ビル１Ｆ,,13,106,1110056,,,2024-06-26,清算の結了等,,,2015-10-05,1,,,,,オンキカク,0
1619,8010801029683,登記記録の閉鎖等,0,2024-07-02,2024-06-27,株式会社デフィニシォン,,株式会社,東京都,町田市,高ヶ坂２丁目７番１８号,,13,209,1940014,,,2024-06-27,清算の結了等,,,2019-03-14,1,,,,,デフィニシォン,0
1626,8011002001465,登記記録の閉鎖等,0,2024-07-02,2024-06-18,有限会社エム・エッチ・ティー,,有限会社,東京都,渋谷区,宇田川町２番１号,,13,113,1500042,,,2024-06-18,清算の結了等,,,2015-10-05,1,,,,,エムエッチティー,0
1639,8012301008705,登記記録の閉鎖等,0,2024-07-02,2024-06-28,株式会社小山田端,,株式会社,東京都,町田市,小山町３１６１番地,,13,209,1940212,,,2024-06-28,清算の結了等,,,2015-10-05,1,,,,,オヤマタバタ,0
1658,8040003009804,登記記録の閉鎖等,0,2024-07-02,2024-06-19,合同会社ＴＭプランニング,,合同会社,千葉県,千葉市花見川区,作新台２丁目２７番３１号,,12,102,2620045,,,2024-06-19,清算の結了等,,,2017-03-10,1,,,,,ティーエムプランニング,0
1669,8060001004557,登記記録の閉鎖等,0,2024-07-02,2024-06-24,株式会社大和木材,,株式会社,栃木県,宇都宮市,東塙田１丁目７番１０号,,09,201,3200021,,,2024-06-24,清算の結了等,,,2015-10-05,1,,,,,ダイワモクザイ,0
1671,8070001026006,登記記録の閉鎖等,0,2024-07-02,2024-06-28,株式会社リードプランニング,,株式会社,群馬県,高崎市,飯塚町１２３番地,,10,202,3700069,,,2024-06-28,清算の結了等,,,2015-10-05,1,,,,,リードプランニング,0
1678,8080102012382,登記記録の閉鎖等,0,2024-07-02,2024-06-28,有限会社香,,有限会社,静岡県,三島市,４３７９番地の７,,22,206,4110000,,,2024-06-28,清算の結了等,,,2015-10-05,1,,,,,カオリ,0
1680,8080401006110,登記記録の閉鎖等,0,2024-07-02,2024-06-28,アライ開発株式会社,,株式会社,静岡県,湖西市,新居町新居８６８番地,,22,221,4310302,,,2024-06-28,清算の結了等,,,2015-10-05,1,,,,,アライカイハツ,0
1704,8120005007632,登記記録の閉鎖等,0,2024-07-02,2024-06-28,特定非営利活動法人航空医療研究所,,その他の設立登記法人,大阪府,大阪市淀川区,加島３丁目５番３３号,,27,123,5320031,,,2024-06-28,清算の結了等,,,2015-10-05,1,,,,,コウクウイリョウケンキュウショ,0
1732,8160001020230,登記記録の閉鎖等,0,2024-07-02,2024-06-27,株式会社ＫＢコンサルティング,,株式会社,滋賀県,湖南市,吉永１０４番地１,,25,211,5203222,,,2024-06-27,清算の結了等,,,2017-05-30,1,,,,,ケービーコンサルティング,0
1758,8290001087554,登記記録の閉鎖等,0,2024-07-02,2024-05-27,株式会社エスアールデザイン福岡,,株式会社,福岡県,福岡市博多区,上呉服町２番１５号ＳＯＨＡＫＡＴＡビル３Ｆ,,40,132,8120036,,,2024-05-27,清算の結了等,,,2020-01-06,1,,,,,エスアールデザインフクオカ,0
1766,8290805005224,登記記録の閉鎖等,0,2024-07-02,2024-06-13,厳島神社,,その他の設立登記法人,福岡県,北九州市若松区,古前１丁目１番２０号,,40,103,8080062,,,2024-06-13,合併による解散等,1290805005313,令和６年６月１３日北九州市若松区赤島町１４番１２号白山神社（1290805005313）に合併し解散,2015-10-05,1,,,,,イツクシマジンジャ,0
1769,8330002029740,登記記録の閉鎖等,0,2024-07-02,2024-06-20,有限会社濱崎水産,00098028,有限会社,熊本県,上天草市,大矢野町中３７３８番地１,,43,212,8693603,,,2024-06-20,清算の結了等,,,2015-10-05,1,,,,,ハマサキスイサン,0
1782,8380005010569,登記記録の閉鎖等,0,2024-07-02,2024-06-20,ふくしま復興事業協同組合,,その他の設立登記法人,福島県,郡山市,長者１丁目４番５号,,07,203,9638017,,,2024-06-20,清算の結了等,,,2015-10-05,1,,,,,,0
1792,8420002001319,登記記録の閉鎖等,0,2024-07-02,2024-06-28,有限会社さわきフォトサービス,,有限会社,青森県,青森市,大字三内字丸山３０５番地,,02,201,0380031,,,2024-06-28,清算の結了等,,,2015-10-05,1,,,,,サワキフォトサービス,0
1795,8430001070413,登記記録の閉鎖等,0,2024-07-02,2024-07-01,株式会社高松商店,00105215,株式会社,北海道,札幌市中央区,北十二条西２０丁目１番２０号マルカ食品卸売センター１階,,01,101,0600012,,,2024-07-01,清算の結了等,,,2015-12-09,1,,,,,,0
1799,8430005007832,登記記録の閉鎖等,0,2024-07-02,2024-06-17,天理教緑岡分教会,,その他の設立登記法人,北海道,小樽市,松ケ枝２丁目５番１号,,01,203,0470022,,,2024-06-17,合併による解散等,5430005008189,令和６年６月１７日北海道古平郡古平町大字浜町９３４番地２天理教古平分教会（5430005008189）に合併し解散,2015-10-05,1,,,,,テンリキョウミドリオカブンキョウカイ,0
1800,8460305001029,登記記録の閉鎖等,0,2024-07-02,2024-07-01,協同組合北勝水産,,その他の設立登記法人,北海道,常呂郡佐呂間町,字浪速５１番地,,01,552,0930421,,,2024-07-01,清算の結了等,,,2015-10-05,1,,,,,,0
1801,8500001017893,登記記録の閉鎖等,0,2024-07-02,2024-06-26,株式会社ニッショウ,,株式会社,愛媛県,西条市,大町１３９９番地３,,38,206,7930030,,,2024-06-26,清算の結了等,,,2015-10-05,1,,,,,ニッショウ,0
1806,9010002053607,登記記録の閉鎖等,0,2024-07-02,2024-06-21,有限会社Ｈ＆Ｈ　ＩＮＴＥＲＮＡＴＩＯＮＡＬ,,有限会社,東京都,中央区,銀座３丁目９番５号,,13,102,1040061,,,2024-06-21,清算の結了等,,,2015-10-05,1,,,,,エイチアンドエイチインターナショナル,0
1813,9010701000421,登記記録の閉鎖等,0,2024-07-02,2024-06-26,株式会社アズ・カンパニー,,株式会社,東京都,品川区,西品川１丁目２６番１４号,,13,109,1410033,,,2024-06-26,清算の結了等,,,2015-10-05,1,,,,,アズカンパニー,0
1836,9011103000241,登記記録の閉鎖等,0,2024-07-02,2024-06-24,合名会社吉野庵,,合名会社,東京都,新宿区,住吉町１０番９号,,13,104,1620065,,,2024-06-24,清算の結了等,,,2015-10-05,1,,,,,ヨシノアン,0
1852,9012402023461,登記記録の閉鎖等,0,2024-07-02,2024-06-27,有限会社藤蔵電設,,有限会社,東京都,府中市,朝日町１丁目４番地の１２,,13,206,1830003,,,2024-06-27,清算の結了等,,,2015-10-05,1,,,,,フジクラデンセツ,0
1861,9021002034546,登記記録の閉鎖等,0,2024-07-02,2024-07-01,有限会社穴沢電気設計,,有限会社,神奈川県,伊勢原市,板戸１６２番地１３,,14,214,2591145,,,2024-07-01,清算の結了等,,,2015-10-05,1,,,,,,0
1865,9030001068653,登記記録の閉鎖等,0,2024-07-02,2024-07-01,株式会社エコライフジャパン,,株式会社,東京都,北区,赤羽南１丁目３番１号高橋ビル６階,,13,117,1150044,,,2024-07-01,清算の結了等,,,2015-10-05,1,,,,,エコライフジャパン,0
1922,9130001041501,登記記録の閉鎖等,0,2024-07-02,2024-06-28,株式会社夜久野商工振興公社,,株式会社,京都府,福知山市,夜久野町平野１７２４番地,,26,201,6291322,,,2024-06-28,清算の結了等,,,2015-10-05,1,,,,,ヤクノショウコウシンコウコウシャ,0
1923,9130001042482,登記記録の閉鎖等,0,2024-07-02,2024-06-27,株式会社ネクストプラス,,株式会社,京都府,京都市右京区,嵯峨中山町１１番地５ラウンドガーデン嵐山５０３号,,26,108,6168364,,,2024-06-27,清算の結了等,,,2015-10-05,1,,,,,ネクストプラス,0
1943,9180001058227,登記記録の閉鎖等,0,2024-07-02,2024-06-19,株式会社ファンタジスタ,,株式会社,愛知県,名古屋市中川区,昭和橋通２丁目２４番地,,23,110,4540852,,,2024-06-19,清算の結了等,,,2015-10-05,1,,,,,ファンタジスタ,0
1944,9180001122148,登記記録の閉鎖等,0,2024-07-02,2024-06-19,株式会社Ｊ　Ｓｔｙｌｅ,,株式会社,愛知県,清須市,清洲２７３３番地１,,23,233,4520942,,,2024-06-19,清算の結了等,,,2016-02-17,1,,,,,ジェイスタイル,0
1954,9180002010137,登記記録の閉鎖等,0,2024-07-02,2024-06-19,有限会社ヒルトン,,有限会社,愛知県,名古屋市瑞穂区,瑞穂通４丁目４２番地,,23,108,4670806,,,2024-06-19,清算の結了等,,,2015-10-05,1,,,,,ヒルトン,0
1959,9180302016239,登記記録の閉鎖等,0,2024-07-02,2024-06-21,有限会社アクト,,有限会社,愛知県,安城市,里町今池１０番地２,,23,212,4460001,,,2024-06-21,清算の結了等,,,2015-10-05,1,,,,,アクト,0
1960,9180305009198,登記記録の閉鎖等,0,2024-07-02,2024-06-24,一般社団法人グランチャエンターテインメント,,その他の設立登記法人,愛知県,安城市,花ノ木町８番６号,,23,212,4460039,,,2024-06-24,清算の結了等,,,2021-04-16,1,,,,,グランチャエンターテインメント,0
1968,9250001003506,登記記録の閉鎖等,0,2024-07-02,2024-06-28,日通宇部運輸株式会社,,株式会社,山口県,宇部市,大字善和字石ケ谷２０４番地４５,,35,202,7590134,,,2024-06-28,清算の結了等,,,2015-10-05,1,,,,,ニッツウウベウンユ,0
1974,9260001024096,登記記録の閉鎖等,0,2024-07-02,2024-05-30,株式会社ひかりハウジング,,株式会社,岡山県,岡山市中区,倉田５２７番地の１１,,33,102,7038265,,,2024-05-30,清算の結了等,,,2017-12-21,1,,,,,ヒカリハウジング,0
1983,9280002005746,登記記録の閉鎖等,0,2024-07-02,2024-06-28,有限会社中央輪業社,,有限会社,島根県,出雲市,今市町８７０番地６,,32,203,6930001,,,2024-06-28,清算の結了等,,,2015-10-05,1,,,,,チュウオウリンギョウシャ,0
1988,9290001040628,登記記録の閉鎖等,0,2024-07-02,2024-06-06,九州新生物流株式会社,,株式会社,福岡県,太宰府市,大字北谷８６８－７２,,40,221,8180114,,,2024-06-06,清算の結了等,,,2015-10-05,1,,,,,キュウシュウシンセイブツリュウ,0
1997,9310002003184,登記記録の閉鎖等,0,2024-07-02,2024-06-24,有限会社田縁商会,,有限会社,長崎県,長崎市,筑後町４番１４号,,42,201,8500052,,,2024-06-24,清算の結了等,,,2015-10-05,1,,,,,タブチショウカイ,0
2006,9400001014702,登記記録の閉鎖等,0,2024-07-02,2024-06-18,株式会社ミノフジャパン,,株式会社,岩手県,盛岡市,大通２丁目３番１４号アンデルセンハウス１階,,03,201,0200022,,,2024-06-18,清算の結了等,,,2019-07-30,1,,,,,ミノフジャパン,0
2015,9430001060479,登記記録の閉鎖等,0,2024-07-02,2024-07-01,株式会社サン・住まいる,,株式会社,北海道,札幌市東区,東苗穂五条１丁目１２番３０号,,01,103,0070805,,,2024-07-01,清算の結了等,,,2015-10-05,1,,,,,サンスマイル,0
2017,9430001064835,登記記録の閉鎖等,0,2024-07-02,2024-06-26,株式会社北梱,,株式会社,北海道,札幌市東区,北丘珠五条１丁目４番２１号,,01,103,0070885,,,2024-06-26,清算の結了等,,,2015-10-05,1,,,,,キタコン,0
2021,9430005008490,登記記録の閉鎖等,0,2024-07-02,2024-06-17,天理教船澗分教会,,その他の設立登記法人,北海道,虻田郡喜茂別町,字喜茂別２５２番地１２,,01,398,0440201,,,2024-06-17,合併による解散等,5430005008189,令和６年６月１７日北海道古平郡古平町大字浜町９３４番地２天理教古平分教会（5430005008189）に合併し解散,2015-10-05,1,,,,,テンリキョウフナマブンキョウカイ,0
2026,9480001004514,登記記録の閉鎖等,0,2024-07-02,2024-06-28,東洋ハーネス株式会社,,株式会社,徳島県,吉野川市,鴨島町牛島字先須賀ノ三１２０番２,,36,205,7760001,,,2024-06-28,清算の結了等,,,2015-10-05,1,,,,,トウヨウハーネス,0
