sequenceNumber,corporateNumber,process,correct,updateDate,changeDate,name,nameImageId,kind,prefectureName,cityName,streetNumber,addressImageId,prefectureCode,cityCode,postCode,addressOutside,addressOutsideImageId,closeDate,closeCause,successorCorporateNumber,changeCause,assignmentDate,latest,enName,enPrefectureName,enCityName,enAddressOutside,furigana,hihyoji
7,1010001240279,新規,0,2023-11-27,2023-11-27,株式会社ＨＡＰＰＹ　ＳＰＩＲＡＬ,,株式会社,東京都,中央区,銀座１丁目３番先北有楽ビル１階１１号,,13,102,1040061,,,,,,,2023-11-27,1,,,,,ハッピースパイラル,0
8,1010001240345,新規,0,2023-11-27,2023-11-27,株式会社ビアン・クレール,,株式会社,東京都,中央区,晴海４丁目７－４クロスドック晴海６Ｆ,,13,102,1040053,,,,,,,2023-11-27,1,,,,,ビアンクレール,0
9,1010001240353,新規,0,2023-11-27,2023-11-27,株式会社石浦,,株式会社,東京都,中央区,八丁堀３丁目５番７号ＮＲＥ八重洲ビル７階,,13,102,1040032,,,,,,,2023-11-27,1,,,,,イシウラ,0
12,1010003042293,新規,0,2023-11-27,2023-11-27,合同会社ａｌｏｎｅ,,合同会社,東京都,中央区,勝どき１丁目８番１－２７１６号,,13,102,1040054,,,,,,,2023-11-27,1,,,,,アローン,0
13,1010003042302,新規,0,2023-11-27,2023-11-27,合同会社ＫＳＭ,,合同会社,東京都,中央区,勝どき５丁目３番１－１８０１号,,13,102,1040054,,,,,,,2023-11-27,1,,,,,ケーエスエム,0
14,1010003042310,新規,0,2023-11-27,2023-11-27,合同会社ＺＥＨＰＪ１０,,合同会社,東京都,中央区,銀座４丁目６番１号三幸アセットマネジメント株式会社内,,13,102,1040061,,,,,,,2023-11-27,1,,,,,ゼッチピージェーテン,0
19,1010401178631,新規,0,2023-11-27,2023-11-27,Ｔｒａｎｓｐａｒｅｎｔ株式会社,,株式会社,東京都,港区,港南４丁目６番５－１１０４号,,13,103,1080075,,,,,,,2023-11-27,1,,,,,トランスペアレント,0
20,1010401178697,新規,0,2023-11-27,2023-11-27,ニジアス株式会社,,株式会社,東京都,港区,海岸２丁目２番６号ＤＳ海岸ビル１０Ｆ,,13,103,1050022,,,,,,,2023-11-27,1,,,,,ニジアス,0
24,1010403031441,新規,0,2023-11-27,2023-11-27,ＹＵＴＡＫＡ　Ｂ　ＪＡＰＡＮ合同会社,,合同会社,東京都,港区,元麻布２丁目１番１９号２０６号室,,13,103,1060046,,,,,,,2023-11-27,1,,,,,ユタカビージャパン,0
27,1010601064210,新規,0,2023-11-27,2023-11-27,メディプラスホールディング株式会社,,株式会社,東京都,墨田区,緑４丁目２１番１０－６０３号,,13,107,1300021,,,,,,,2023-11-27,1,,,,,メディプラスホールディング,0
31,1010701045176,新規,0,2023-11-27,2023-11-27,株式会社ＹＵＮＯＨＩＷＡ,,株式会社,東京都,品川区,大崎３丁目１番５号ルミネ五反田第２・２０２号室,,13,109,1410032,,,,,,,2023-11-27,1,,,,,ユノヒワ,0
33,1010705003568,新規,0,2023-11-27,2023-11-27,一般社団法人ＣＯＮＥＲＩＬＡ,,その他の設立登記法人,東京都,品川区,南品川５丁目８－４－２０７,,13,109,1400004,,,,,,,2023-11-27,1,,,,,コネリラ,0
34,1010801034541,新規,0,2023-11-27,2023-11-27,株式会社ポラム,,株式会社,東京都,大田区,上池台３丁目２２番１８号,,13,111,1450064,,,,,,,2023-11-27,1,,,,,ポラム,0
38,1010903008600,新規,0,2023-11-27,2023-11-27,合同会社みほ,,合同会社,東京都,世田谷区,北沢５丁目３９－３,,13,112,1550031,,,,,,,2023-11-27,1,,,,,ミホ,0
43,1011001158420,新規,0,2023-11-27,2023-11-27,株式会社Ａ‐ＯＮＥ,,株式会社,東京都,目黒区,中根１丁目３番１７号パピルス都立大３０１,,13,110,1520031,,,,,,,2023-11-27,1,,,,,エーワン,0
44,1011001158437,新規,0,2023-11-27,2023-11-27,株式会社ＦｉＧ,,株式会社,東京都,渋谷区,神宮前１丁目１５番１２号シャトーヒロ２０６,,13,113,1500001,,,,,,,2023-11-27,1,,,,,フィグ,0
46,1011003017533,新規,0,2023-11-27,2023-11-27,合同会社パーフェクトオンマネジメント,,合同会社,東京都,渋谷区,渋谷２丁目１９－１５宮益坂ビルディング６０９,,13,113,1500002,,,,,,,2023-11-27,1,,,,,パーフェクトオンマネジメント,0
47,1011003017987,新規,0,2023-11-27,2023-11-27,合同会社ＫＴＮ,,合同会社,東京都,渋谷区,千駄ヶ谷４丁目６番８号,,13,113,1510051,,,,,,,2023-11-27,1,,,,,ケーティーエヌ,0
54,1011101105231,新規,0,2023-11-27,2023-11-27,ＳＵＮ　ＨＯＭＥ株式会社,,株式会社,東京都,新宿区,北新宿４丁目１３番９号福井ビル５０１号室,,13,104,1690074,,,,,,,2023-11-27,1,,,,,サンホーム,0
63,1011201025065,新規,0,2023-11-27,2023-11-27,東京ホライゾン株式会社,,株式会社,東京都,中野区,中央３丁目１２番１７号グランヴィル中野２０２号室,,13,114,1640011,,,,,,,2023-11-27,1,,,,,トウキョウホライゾン,0
68,1011301029206,新規,0,2023-11-27,2023-11-27,四季の雅株式会社,,株式会社,東京都,杉並区,上荻１丁目２番１号,,13,115,1670043,,,,,,,2023-11-27,1,,,,,シキノミヤビ,0
70,1011401025625,新規,0,2023-11-27,2023-11-27,株式会社泰然,,株式会社,東京都,板橋区,向原１丁目２０番９号,,13,119,1730036,,,,,,,2023-11-27,1,,,,,タイゼン,0
72,1011505002594,新規,0,2023-11-27,2023-11-27,一般社団法人日本ワークシェアリング協会,,その他の設立登記法人,東京都,北区,上十条３丁目３番７号,,13,117,1140034,,,,,,,2023-11-27,1,,,,,ニホンワークシェアリングキョウカイ,0
73,1011603004146,新規,0,2023-11-27,2023-11-27,合同会社ｆ‐Ｓｔｅｐ,,合同会社,東京都,練馬区,高野台５丁目３７番８号１０１号室,,13,120,1770033,,,,,,,2023-11-27,1,,,,,エフステップ,0
76,1012701017972,新規,0,2023-11-27,2023-11-27,株式会社Ｌａｃｔｉｃ　Ｗａｙ,,株式会社,東京都,小平市,小川町１丁目９１１番地,,13,211,1870032,,,,,,,2023-11-27,1,,,,,ラクティクウェイ,0
81,1013303006884,新規,0,2023-11-27,2023-11-27,Ｎｏｋｏｂｏｔ合同会社,,合同会社,東京都,豊島区,南池袋１丁目１６番２０号ぬかりやビル６３３号,,13,116,1710022,,,,,,,2023-11-27,1,,,,,ノコボット,0
86,1020001154494,新規,0,2023-11-27,2023-11-27,株式会社テムテムエンターテイメント,,株式会社,神奈川県,横浜市青葉区,あざみ野１丁目６－３陽輪台あざみ野４０１,,14,117,2250011,,,,,,,2023-11-27,1,,,,,テムテムエンターテイメント,0
87,1020001154602,新規,0,2023-11-27,2023-11-27,ＭＣ．ボートサービス株式会社,,株式会社,神奈川県,横浜市西区,高島２丁目３番１９号,,14,103,2200011,,,,,,,2023-11-27,1,,,,,,0
88,1020001154610,新規,0,2023-11-27,2023-11-27,株式会社サイエンス,,株式会社,神奈川県,横浜市都筑区,川向町７２番地,,14,118,2240044,,,,,,,2023-11-27,1,,,,,サイエンス,0
89,1020001154619,新規,0,2023-11-27,2023-11-27,株式会社ルアナホーム,,株式会社,神奈川県,川崎市中原区,木月住吉町９－１７Ｌｕａｎａ元住吉２０１,,14,133,2110021,,,,,,,2023-11-27,1,,,,,ルアナホーム,0
90,1020001154635,新規,0,2023-11-27,2023-11-27,株式会社ハーウェイ,,株式会社,神奈川県,川崎市幸区,新小倉２番７－１３２０号,,14,132,2120031,,,,,,,2023-11-27,1,,,,,ハーウェイ,0
91,1020003025058,新規,0,2023-11-27,2023-11-27,Ｍ’ｚ　Ｃａｆｅ合同会社,,合同会社,神奈川県,横浜市中区,桜木町１丁目１０１番地１クロスゲート７階,,14,104,2310062,,,,,,,2023-11-27,1,,,,,エムズカフェ,0
94,1021001080838,新規,0,2023-11-27,2023-11-27,株式会社あおぞらハウジング,,株式会社,神奈川県,相模原市南区,南台３丁目９番３８号日神パレステージ小田急相模原１０２,,14,153,2520314,,,,,,,2023-11-27,1,,,,,アオゾラハウジング,0
96,1021003013837,新規,0,2023-11-27,2023-11-27,合同会社爽,,合同会社,神奈川県,相模原市中央区,相模原３丁目２番４－５０１号,,14,152,2520231,,,,,,,2023-11-27,1,,,,,ソウ,0
102,1030001157273,新規,0,2023-11-27,2023-11-27,ＴＹＴオート株式会社,,株式会社,埼玉県,東松山市,大字岡１８５－１,,11,212,3550001,,,,,,,2023-11-27,1,,,,,ティーワイティーオート,0
103,1030001157323,新規,0,2023-11-27,2023-11-27,株式会社ファイン不動産,,株式会社,埼玉県,川越市,大字鴨田１２０５番地２,,11,201,3500844,,,,,,,2023-11-27,1,,,,,ファインフドウサン,0
110,1030003023060,新規,0,2023-11-27,2023-11-27,エスエイティ合同会社,,合同会社,埼玉県,越谷市,大字西方２９７５番地１－６１８,,11,222,3430822,,,,,,,2023-11-27,1,,,,,エスエイティ,0
120,1040001131112,新規,0,2023-11-27,2023-11-27,コトブキ商事株式会社,,株式会社,千葉県,市川市,原木４丁目４－３,,12,203,2720004,,,,,,,2023-11-27,1,,,,,コトブキショウジ,0
123,1040003023794,新規,0,2023-11-27,2023-11-27,東＿合同会社,00132801,合同会社,千葉県,船橋市,海神町東１丁目９９９番地２,,12,204,2730028,,,,,,,2023-11-27,1,,,,,トウヨウ,0
124,1040003023803,新規,0,2023-11-27,2023-11-27,合同会社Ｎ．Ｈ,,合同会社,千葉県,千葉市中央区,栄町２６番１４号ＹＫ店舗２階,,12,101,2600016,,,,,,,2023-11-27,1,,,,,エヌエイチ,0
130,1070001041110,新規,0,2023-11-27,2023-11-27,株式会社ＢｏｎｈｅｕｒＣｈａｎｃｅ,,株式会社,群馬県,太田市,末広町５３９番地１萩本コーポＣ２０２,,10,205,3730862,,,,,,,2023-11-27,1,,,,,,0
131,1080101024360,新規,0,2023-11-27,2023-11-27,Ｍ＆Ｋコンサルティング株式会社,,株式会社,静岡県,熱海市,海光町１番５号熱海クリフサイド３３３号,,22,205,4130003,,,,,,,2023-11-27,1,,,,,エムアンドケーコンサルティング,0
152,1120001260134,新規,0,2023-11-27,2023-11-27,株式会社灯,,株式会社,大阪府,大阪市北区,梅田１丁目２番２号大阪駅前第２ビル１２－１２,,27,127,5300001,,,,,,,2023-11-27,1,,,,,トウ,0
153,1120001260159,新規,0,2023-11-27,2023-11-27,エムプライムジャパン株式会社,,株式会社,大阪府,大阪市北区,梅田１丁目２番２号大阪駅前第２ビル１２－１２,,27,127,5300001,,,,,,,2023-11-27,1,,,,,エムプライムジャパン,0
154,1120001260167,新規,0,2023-11-27,2023-11-27,株式会社モトリービークス,,株式会社,大阪府,大阪市北区,天神橋７丁目１－１６ジオタワー１２０４,,27,127,5310041,,,,,,,2023-11-27,1,,,,,モトリービークス,0
155,1120001260200,新規,0,2023-11-27,2023-11-27,株式会社ｄｕｇ,,株式会社,大阪府,大阪市北区,梅田１丁目２番２号大阪駅前第２ビル１２－１２,,27,127,5300001,,,,,,,2023-11-27,1,,,,,ダグ,0
158,1120101068592,新規,0,2023-11-27,2023-11-27,株式会社ＫＥＮＧＥＮ,,株式会社,大阪府,羽曳野市,はびきの４丁目７番１３号,,27,222,5830872,,,,,,,2023-11-27,1,,,,,ケンゲン,0
165,1130001075787,新規,0,2023-11-27,2023-11-27,株式会社今井クラフト,,株式会社,京都府,南丹市,園部町小山東町平成台２号１９番地,,26,213,6220041,,,,,,,2023-11-27,1,,,,,イマイクラフト,0
166,1130001075812,新規,0,2023-11-27,2023-11-27,株式会社ＣＯＰＥＮ,,株式会社,京都府,京都市下京区,松原通烏丸西入ル玉津島町２９４番地,,26,106,6000000,,,,,,,2023-11-27,1,,,,,コペン,0
173,1140001132496,新規,0,2023-11-27,2023-11-27,Ｓｔａｎｄｂｙ株式会社,,株式会社,兵庫県,宝塚市,南口１丁目４番２１号,,28,214,6650011,,,,,,,2023-11-27,1,,,,,スタンドバイ,0
184,1180001159032,新規,0,2023-11-27,2023-11-27,株式会社ＦＯＣＵＳ,,株式会社,愛知県,名古屋市瑞穂区,妙音通３丁目４５番地の１,,23,108,4670842,,,,,,,2023-11-27,1,,,,,フォーカス,0
185,1180001159040,新規,0,2023-11-27,2023-11-27,株式会社上野外構,,株式会社,愛知県,春日井市,前並町１丁目１９番地６コンフォート１０１号,,23,206,4860903,,,,,,,2023-11-27,1,,,,,ウエノガイコウ,0
206,1240001062444,新規,0,2023-11-27,2023-11-27,株式会社レイメイ,,株式会社,広島県,広島市中区,光南１丁目１番２０号,,34,101,7300825,,,,,,,2023-11-27,1,,,,,レイメイ,0
207,1240001062460,新規,0,2023-11-27,2023-11-27,株式会社ショットメーカー,,株式会社,広島県,広島市西区,西観音町１番２１－４０３号,,34,104,7330037,,,,,,,2023-11-27,1,,,,,,0
210,1280001009078,新規,0,2023-11-27,2023-11-27,株式会社ＬＥＡＤ,,株式会社,島根県,雲南市,三刀屋町須所６４番地１,,32,209,6902524,,,,,,,2023-11-27,1,,,,,リード,0
215,1290003014653,新規,0,2023-11-27,2023-11-27,ＨＯＮＯＭＩＫＡ合同会社,,合同会社,福岡県,糟屋郡宇美町,宇美２丁目８‐２０,,40,341,8112101,,,,,,,2023-11-27,1,,,,,ホノミカ,0
219,1290801030075,新規,0,2023-11-27,2023-11-27,株式会社ＨＩＧＨ　ＦＩＶＥ,,株式会社,福岡県,北九州市小倉北区,黒住町６番７号,,40,106,8020056,,,,,,,2023-11-27,1,,,,,ハイファイブ,0
228,1360001032856,新規,0,2023-11-27,2023-11-27,ベルリゾート株式会社,,株式会社,沖縄県,名護市,字屋部８６２番地１６－１Ｆ,,47,209,9050007,,,,,,,2023-11-27,1,,,,,ベルリゾート,0
229,1360001032864,新規,0,2023-11-27,2023-11-27,株式会社エクス,,株式会社,沖縄県,那覇市,前島３丁目２５番２号泊ポートビル１Ｆ,,47,201,9000016,,,,,,,2023-11-27,1,,,,,エクス,0
231,1360003013508,新規,0,2023-11-27,2023-11-27,合同会社叶結,,合同会社,沖縄県,沖縄市,知花６丁目３６番４４号,,47,211,9042143,,,,,,,2023-11-27,1,,,,,カナユイ,0
236,1370001050667,新規,0,2023-11-27,2023-11-27,ＳＵＮ株式会社,,株式会社,宮城県,仙台市宮城野区,岩切字昭和西１番地の１,,04,102,9830821,,,,,,,2023-11-27,1,,,,,サン,0
245,1450003002410,新規,0,2023-11-27,2023-11-27,合同会社ＡＩＲ,,合同会社,北海道,富良野市,北の峰町９番５号,,01,229,0760034,,,,,,,2023-11-27,1,,,,,,0
246,1460103001575,新規,0,2023-11-27,2023-11-27,合同会社ベータ,,合同会社,北海道,帯広市,西六条南１２丁目１０番地４プレリュード１０１号室,,01,207,0800016,,,,,,,2023-11-27,1,,,,,ベータ,0
249,1700150122258,新規,0,2023-11-27,2023-11-27,ｐｕｊｉａｎｇｘｉａｎｊｉｎｃｈａｉｄｉａｎｚｉｓｈａｎｇｗｕｙｏｕｘｉａｎｇｏｎｇｓｉ,,外国会社等,,,,,,,,ｙａｎｓｈａｎｃｕｎ３５ｈａｏｐｕｊｉａｎｇｘｉａｎｚｈｅｊｉａｎｇｓｈｅｎｇ,,,,,,2023-11-27,1,,,,,プージャンシエンジンチャイディエンズーシャンウーヨウシエンゴンスー,0
250,1700150122266,新規,0,2023-11-27,2023-11-27,Ｊ　＆　Ｄ　ＴＥＣＨ　ＩＮＣ,,外国会社等,,,,,,,,１２０ＬａｋｅＡｖｅＳ．Ｓｕｉｔｅ２２ＮｅｓｃｏｎｓｅｔＮＹ１１７６７－１０６０,,,,,,2023-11-27,1,,,,,ジェイアンドディーテクノロジーインコーポレイテッド,0
251,1700150122274,新規,0,2023-11-27,2023-11-27,ｓｈｅｎｚｈｅｎｓｈｉｄｅｓｈｕｎｙｉｎｇｍａｏｙｉｙｏｕｘｉａｎｇｏｎｇｓｉ,,外国会社等,,,,,,,,ｌｏｎｇｈｕａｊｉｅｄａｏｓｏｎｇｈｅｓｈｅｑｕｇｏｎｇｈｅｈｕａｙｕａｎ　Ａ１１．１３．１５ｄｏｎｇＡ１１ｄｏｎｇ９０５　ｓｈｅｎｚｈｅｎｓｈｉ　ｇｕａｎｇｄｏｎｇｓｈｅｎｇ　５１８０００ＣＮ,,,,,,2023-11-27,1,,,,,シェンジェンシーダーシュンインマオイーヨウシエンゴンスー,0
252,1700150122282,新規,0,2023-11-27,2023-11-27,Ｆｏ　Ｓｈａｎ　Ｓｈｉ　Ｇｅ　Ｒｕｉ　Ｌａｉ　Ｓｈａｎｇ　Ｍａｏ　Ｙｏｕ　Ｘｉａｎ　Ｇｏｎｇ　Ｓｉ,,外国会社等,,,,,,,,１０　Ｒｏｏｍ　５　Ｆｌｏｏｒ　２　ｂｕｉｌｄｉｎｇ　２，１１７　ｚｈａｎｇｃｈａ　１　Ｒｏａｄ　Ｃｈａｎｃｈｅｎｇ　Ｄｉｓｔｒｉｃｔ　Ｆｏｓｈａｎ　Ｃｉｔｙ　Ｇｕａｎｇｄｏｎｇ　Ｐｒｏｖｉｎｃｅ　Ｃｈｉｎａ,,,,,,2023-11-27,1,,,,,フオーシヤンシーゴールイライシヤンマオヨウシエンゴンスー,0
253,1700150122290,新規,0,2023-11-27,2023-11-27,ｇａｎｚｈｏｕｓｈｉｇｕａｎｇａｏｍａｏｙｉｙｏｕｘｉａｎｇｏｎｇｓｉ,,外国会社等,,,,,,,,ｘｉｎｇａｎｎａｎｄａｄａｏｓｈｕｉｙｏｕｃｈｅｎｇ　１ｄｏｎｇ３５ｈａｏ　ｇａｎｚｈｏｕｓｈｉｚｈａｎｇｇｏｎｇｑｕ　ｊｉａｎｇｘｉ　３４１０００　ＣＮ,,,,,,2023-11-27,1,,,,,ガンジヨウシーグワンアオマオイーヨウシエンゴンスー,0
254,1700150122299,新規,0,2023-11-27,2023-11-27,Ｄｒｅａｍｅ　Ｉｎｔｅｒｎａｔｉｏｎａｌ（ＨｏｎｇＫｏｎｇ）　Ｌｉｍｉｔｅｄ,,外国会社等,,,,,,,,Ｒｏｏｍ　１３１８－１９，Ｈｏｌｌｙｗｏｏｄ　Ｃｏｍｍｅｒｃｉａｌ　Ｃｅｎｔｒｅ，６１０　Ｎａｔｈａｎ　Ｒｏａｄ，Ｍｏｎｇ　Ｋｏｋ，Ｋｏｗｌｏｏｎ,,,,,,2023-11-27,1,,,,,ジユイミーグオジーシヤンガンヨウシエンゴンスー,0
255,1700150122332,新規,0,2023-11-27,2023-11-27,Ｈｏｎｇ　Ｋｏｎｇ　Ｙｉｎｇ　Ｂａｉ　Ｔｅｃｈｎｏｌｏｇｙ　Ｃｏ．，Ｌｉｍｉｔｅｄ,,外国会社等,,,,,,,,ＦＬＡＴＣ０１　５／ＦＰＯＲＭＥＥＦＡＣＴＯＲＹＢＵＩＬＤＩＮＧ５００ＣＡＳＴＬＥＰＥＡＫＲＯＡＤＣＨＥＵＮＧＳＨＡＷＡＮ　ＨＯＮＧＫＯＮＧ,,,,,,2023-11-27,1,,,,,ホンコンインバイテクノロジーカンパニーリミテッド,0
266,2010001240303,新規,0,2023-11-27,2023-11-27,株式会社斗,,株式会社,東京都,中央区,京橋１丁目１番５号セントラルビル２Ｆ,,13,102,1040031,,,,,,,2023-11-27,1,,,,,ヒシャク,0
267,2010001240311,新規,0,2023-11-27,2023-11-27,株式会社ＬｉＮｏａ,,株式会社,東京都,中央区,月島１丁目８番１号,,13,102,1040052,,,,,,,2023-11-27,1,,,,,リノア,0
272,2010401178713,新規,0,2023-11-27,2023-11-27,メディマインド株式会社,,株式会社,東京都,港区,愛宕２丁目５番１号愛宕グリーンヒルズＭＯＲＩタワー３４Ｆ,,13,103,1050002,,,,,,,2023-11-27,1,,,,,メディマインド,0
274,2010403031440,新規,0,2023-11-27,2023-11-27,ＭＯＯＤＹＴＩＧＥＲ　ＪＰ合同会社,,合同会社,東京都,港区,六本木１丁目９番１０号アークヒルズ仙石山森タワー２８階ベーカー＆マッケンジー法律事務所（外国法共同事業）内,,13,103,1060032,,,,,,,2023-11-27,1,,,,,ムーディータイガージェイピー,0
279,2010601064201,新規,0,2023-11-27,2023-11-27,株式会社夢創,,株式会社,東京都,江東区,南砂１丁目７番１０号ツチヤビル４Ｆ,,13,108,1360076,,,,,,,2023-11-27,1,,,,,ムソウ,0
281,2010801034549,新規,0,2023-11-27,2023-11-27,株式会社万屋狐,,株式会社,東京都,大田区,萩中１丁目２番８号,,13,111,1440047,,,,,,,2023-11-27,1,,,,,ヨロズヤキツネ,0
298,2011101105230,新規,0,2023-11-27,2023-11-27,株式会社ＳＰＳ,,株式会社,東京都,新宿区,新宿１丁目２８番１７－７０５号,,13,104,1600022,,,,,,,2023-11-27,1,,,,,エスピーエス,0
299,2011101105247,新規,0,2023-11-27,2023-11-27,株式会社ＨＡＤＡ,,株式会社,東京都,新宿区,西新宿３丁目３番１３号西新宿水間ビル６階,,13,104,1600023,,,,,,,2023-11-27,1,,,,,エイチエーディーエー,0
301,2011105010872,新規,0,2023-11-27,2023-11-27,一般社団法人相続太郎,,その他の設立登記法人,東京都,新宿区,神楽坂４丁目１番１号オザワビル６階,,13,104,1620825,,,,,,,2023-11-27,1,,,,,ソウゾクタロウ,0
302,2011201025064,新規,0,2023-11-27,2023-11-27,株式会社らいら,,株式会社,東京都,中野区,中央２丁目４番３号ホーメイビルディング２０５,,13,114,1640011,,,,,,,2023-11-27,1,,,,,ライラ,0
310,2011601027321,新規,0,2023-11-27,2023-11-27,株式会社ホワイトトリック,,株式会社,東京都,練馬区,北町７丁目１７番２３号,,13,120,1790081,,,,,,,2023-11-27,1,,,,,ホワイトトリック,0
315,2012803003242,新規,0,2023-11-27,2023-11-27,合同会社Ｔ．Ｂ．Ｐ,,合同会社,東京都,立川市,富士見町２丁目７番２３号イーハトーブ２０１号室,,13,202,1900013,,,,,,,2023-11-27,1,,,,,ティービーピー,0
318,2020001154568,新規,0,2023-11-27,2023-11-27,和潤日本衛生用品株式会社,,株式会社,神奈川県,横浜市中区,長者町９丁目１４７番地２,,14,104,2310033,,,,,,,2023-11-27,1,,,,,ワジュンニホンエイセイヨウヒン,0
319,2020001154592,新規,0,2023-11-27,2023-11-27,株式会社ＦＯＯＴＢＡＬＬ　Ｘ,,株式会社,神奈川県,川崎市高津区,北見方１丁目１９番３０－１０２号,,14,134,2130005,,,,,,,2023-11-27,1,,,,,フットボールエックス,0
320,2020001154626,新規,0,2023-11-27,2023-11-27,エフェクト株式会社,,株式会社,神奈川県,横浜市南区,六ツ川３丁目１０３番地７,,14,105,2320066,,,,,,,2023-11-27,1,,,,,エフェクト,0
332,2021001080837,新規,0,2023-11-27,2023-11-27,株式会社あかつきホーム,,株式会社,神奈川県,相模原市南区,南台２丁目７番６号ダイホープラザ相模原４・４０３,,14,153,2520314,,,,,,,2023-11-27,1,,,,,アカツキホーム,0
339,2030001157272,新規,0,2023-11-27,2023-11-27,株式会社ゆずる,,株式会社,埼玉県,深谷市,菅沼５８７－８,,11,218,3691104,,,,,,,2023-11-27,1,,,,,ユズル,0
340,2030001157347,新規,0,2023-11-27,2023-11-27,株式会社楽縁,,株式会社,埼玉県,三郷市,彦野１丁目１５１番地２,,11,237,3410052,,,,,,,2023-11-27,1,,,,,ラクエン,0
343,2030003023068,新規,0,2023-11-27,2023-11-27,合同会社クリプト,,合同会社,埼玉県,川口市,東川口５丁目１０番４０－２０８号ルモン東川口二番館,,11,203,3330801,,,,,,,2023-11-27,1,,,,,クリプト,0
354,2040003023793,新規,0,2023-11-27,2023-11-27,合同会社Ｈａｋｕｎａ・Ｍａｔａｔａ,,合同会社,千葉県,君津市,糸川１７９番地４,,12,225,2921145,,,,,,,2023-11-27,1,,,,,ハクナマタタ,0
355,2040005022208,新規,0,2023-11-27,2023-11-27,医療法人社団まめのき会,,その他の設立登記法人,千葉県,四街道市,和良比２５４番地２０Ｊ．Ｈビル２階２Ｂ区画,,12,228,2840044,,,,,,,2023-11-27,1,,,,,,0
358,2050001053874,新規,0,2023-11-27,2023-11-27,千依貿易株式会社,,株式会社,茨城県,稲敷市,上根本２５６２番地,,08,229,3010902,,,,,,,2023-11-27,1,,,,,センイボウエキ,0
359,2050003007960,新規,0,2023-11-27,2023-11-27,合同会社ＳＨＯＪＩ,,合同会社,茨城県,守谷市,ひがし野３丁目２４番地１３,,08,224,3020131,,,,,,,2023-11-27,1,,,,,ショウジ,0
360,2050005013354,新規,0,2023-11-27,2023-11-27,ＳＪトレーディング協同組合,,その他の設立登記法人,茨城県,ひたちなか市,大字金上１０８８番地,,08,221,3120022,,,,,,,2023-11-27,1,,,,,エスジェイトレーディング,0
362,2060003004817,新規,0,2023-11-27,2023-11-27,合同会社エムケーシー,,合同会社,栃木県,真岡市,熊倉町４９３８番地７,,09,209,3214362,,,,,,,2023-11-27,1,,,,,エムケーシー,0
372,2100001036989,新規,0,2023-11-27,2023-11-27,株式会社ＵＳＡＤＯＲＩ,,株式会社,長野県,上田市,常田１丁目４番９号,,20,203,3860018,,,,,,,2023-11-27,1,,,,,ウサドリ,0
373,2100001036997,新規,0,2023-11-27,2023-11-27,株式会社カインドハート,,株式会社,長野県,長野市,篠ノ井塩崎５７５０番地３,,20,201,3888014,,,,,,,2023-11-27,1,,,,,カインドハート,0
377,2110001037986,新規,0,2023-11-27,2023-11-27,ＡＹＣ株式会社,,株式会社,新潟県,上越市,土橋１０３６－１,,15,222,9430821,,,,,,,2023-11-27,1,,,,,エーワイシーコーポレーション,0
378,2110001037994,新規,0,2023-11-27,2023-11-27,株式会社ＲａｉｎｂｏｗＳｍｉｌｅｓ,,株式会社,新潟県,新潟市江南区,西町２丁目３番２４号２階,,15,104,9500165,,,,,,,2023-11-27,1,,,,,レインボースマイルズ,0
384,2120001260158,新規,0,2023-11-27,2023-11-27,株式会社宮本印刷所,,株式会社,大阪府,大阪市東住吉区,駒川１丁目１５番７号,,27,121,5460043,,,,,,,2023-11-27,1,,,,,ミヤモトインサツショ,0
385,2120001260166,新規,0,2023-11-27,2023-11-27,株式会社Ｈａｒｍｏｎｙ,,株式会社,大阪府,大阪市天王寺区,清水谷町３番１９－６０５号,,27,109,5430011,,,,,,,2023-11-27,1,,,,,ハーモニー,0
386,2120001260199,新規,0,2023-11-27,2023-11-27,株式会社ＮＹＣ,,株式会社,大阪府,大阪市北区,梅田１丁目２番２号大阪駅前第２ビル１２－１２,,27,127,5300001,,,,,,,2023-11-27,1,,,,,ニック,0
391,2120901048413,新規,0,2023-11-27,2023-11-27,ＳＴＥＬＬＡ‐ｋｏｅｉメンテナンス株式会社,,株式会社,大阪府,池田市,住吉１丁目１６番５－２０７号,,27,204,5630033,,,,,,,2023-11-27,1,,,,,ステラコーエイメンテナンス,0
395,2130001075737,新規,0,2023-11-27,2023-11-27,株式会社ＫＢＧ,,株式会社,京都府,京都市伏見区,淀際目町１７６番地２,,26,109,6130915,,,,,,,2023-11-27,1,,,,,ケイビージー,0
396,2130001075803,新規,0,2023-11-27,2023-11-27,株式会社Ｌｉｎｏ　Ｂｉｍｉｌｅ,,株式会社,京都府,長岡京市,天神１丁目１番５０－４１２号,,26,209,6170824,,,,,,,2023-11-27,1,,,,,リノビマイル,0
397,2130003009164,新規,0,2023-11-27,2023-11-27,マイクロプログレス合同会社,,合同会社,京都府,京都市左京区,下鴨蓼倉町７１‐１０アメティスタ１０１,,26,103,6060806,,,,,,,2023-11-27,1,,,,,マイクロプログレス,0
400,2140001132438,新規,0,2023-11-27,2023-11-27,株式会社アシスト,,株式会社,兵庫県,明石市,大久保町谷八木７５９番地２,,28,203,6740062,,,,,,,2023-11-27,1,,,,,アシスト,0
401,2140001132479,新規,0,2023-11-27,2023-11-27,株式会社Ｃｈａｔｅａｕ２Ｄ,,株式会社,兵庫県,神戸市中央区,波止場町２番８号,,28,110,6500042,,,,,,,2023-11-27,1,,,,,シャトーツーディー,0
402,2140003019848,新規,0,2023-11-27,2023-11-27,ＹＹＵ合同会社,,合同会社,兵庫県,神戸市垂水区,南多聞台４丁目４番２６号,,28,108,6550043,,,,,,,2023-11-27,1,,,,,ワイワイユー,0
413,2180001159064,新規,0,2023-11-27,2023-11-27,株式会社ＡＭＡＮ　ＡＵＴＯ　ＴＲＡＤＩＮＧ,,株式会社,愛知県,名古屋市港区,小割通２丁目５０ヨイマンション６０１号,,23,111,4550077,,,,,,,2023-11-27,1,,,,,アマンオートトレーディング,0
419,2210003001724,新規,0,2023-11-27,2023-11-27,合同会社グラース,,合同会社,福井県,福井市,徳光町第４５号４番地,,18,201,9190305,,,,,,,2023-11-27,1,,,,,グラース,0
420,2220001025708,新規,0,2023-11-27,2023-11-27,株式会社ｅｎｔｅ,,株式会社,石川県,河北郡津幡町,字中橋イ１４番地２,,17,361,9290331,,,,,,,2023-11-27,1,,,,,エンテ,0
432,2290001103795,新規,0,2023-11-27,2023-11-27,株式会社アシスト企画,,株式会社,福岡県,春日市,須玖北２丁目３０番地,,40,218,8160864,,,,,,,2023-11-27,1,,,,,,0
433,2290001103829,新規,0,2023-11-27,2023-11-27,一工業株式会社,,株式会社,福岡県,飯塚市,大分１０２７番地６,,40,205,8200712,,,,,,,2023-11-27,1,,,,,ハジメコウギョウ,0
434,2290003014644,新規,0,2023-11-27,2023-11-27,ＡＪＰ１８２合同会社,,合同会社,福岡県,福岡市中央区,桜坂１丁目４番１７－２０２号エスポワール桜坂,,40,133,8100024,,,,,,,2023-11-27,1,,,,,エージェーピーイチハチニ,0
436,2290801030033,新規,0,2023-11-27,2023-11-27,エナジーＸ株式会社,,株式会社,福岡県,北九州市門司区,大字畑２２７６－１,,40,101,8000112,,,,,,,2023-11-27,1,,,,,エナジーエックス,0
442,2330003010102,新規,0,2023-11-27,2023-11-27,ラピシュット合同会社,,合同会社,熊本県,熊本市中央区,国府３丁目１２番８９号,,43,101,8620949,,,,,,,2023-11-27,1,,,,,ラピシュット,0
445,2360001032871,新規,0,2023-11-27,2023-11-27,株式会社ウヤキー,,株式会社,沖縄県,那覇市,安謝１丁目１８番２２号コーポラス碧３０１号,,47,201,9000003,,,,,,,2023-11-27,1,,,,,ウヤキー,0
455,2440003001560,新規,0,2023-11-27,2023-11-27,合同会社楚楚,,合同会社,北海道,函館市,東山２丁目６３番１９号,,01,202,0410835,,,,,,,2023-11-27,1,,,,,ソソ,0
458,2700150121300,新規,0,2023-11-27,2023-10-20,姫路みなと祭協賛会,,その他,兵庫県,姫路市,安田４丁目１番地姫路市役所産業振興課内,,28,201,6700955,,,,,,,2023-10-20,1,,,,,ヒメジミナトマツリキヨウサンカイ,0
459,2700150122257,新規,0,2023-11-27,2023-11-27,ｊｉｕｊｉａｎｇｓｈｉｙａｎｍｏｕｄｉａｎｚｉｓｈａｎｇｗｕｙｏｕｘｉａｎｇｏｎｇｓｉ,,外国会社等,,,,,,,,ｊｉｕｊｉａｎｇｊｉｎｇｊｉｊｉｓｈｕｋａｉｆａｑｕｓｈｕｎｙｉｌｕ９ｈａｏｋｕａｊｉｎｇｄｉａｎｓｈａｎｇｃｈａｎｙｅｙｕａｎ９Ａ４７５ｊｉｕｊｉａｎｇｓｈｉ　ｊｉａｎｇｘｉｓｈｅｎｇ,,,,,,2023-11-27,1,,,,,ジュージャンシーイエンモウディエンズーシャンウーヨウシエンゴンスー,0
460,2700150122265,新規,0,2023-11-27,2023-11-27,Ｘｉａｎｑｉｂｅｎｘｉｎｙｕａｎｋｅｊｉｙｏｕｘｉａｎｇｏｎｇｓｉ,,外国会社等,,,,,,,,Ｒｍ１００７ＺｈｏｎｇｓｈａｎＩｎｔｅｒｎａｔｉｏｎａｌＢｌｄｇＮｏ．１１Ｃｈａｎｇ’ａｎＮｏｒｔｈＲｄＢｅｉｌｉｎＤｉｓｔＸｉ’ａｎＣｉｔｙＳｈａａｎｘｉ,,,,,,2023-11-27,1,,,,,セイアンチベンシンゲンカギユウゲンコウシ,0
461,2700150122273,新規,0,2023-11-27,2023-11-27,Ｘｉａｍｅｎ　Ｍａｉｃｈｅｎｇ　Ｗａｎｇｌｕｏｋｅｊｉ　Ｙｏｕｘｉａｎｇｏｎｇｓｉ,,外国会社等,,,,,,,,Ｚｈｏｎｇｇｕｏ（Ｆｕｊｉａｎ）Ｚｉｙｏｕｍａｏｙｉｓｈｉｙａｎｑｕ　ＸｉａｍｅｎｐｉａｎｑｕＸｉａｎｇｙｕｌｕ９７ｈａｏ　Ｄｄｏｎｇ８ｃｅｎｇ　０３ｄａｎｙｕａｎ　ＡｚｈｉｅｒＸｉａｍｅｎＨｕｌｉ　ＡｒｅａＦｕｊｉａｎ　３６１１００ＣＮ,,,,,,2023-11-27,1,,,,,シャーメンマイチョンワンルオコージーヨウシエンゴンスー,0
462,2700150122281,新規,0,2023-11-27,2023-11-27,ｎｉｎｇｂｏａｏｘｕｎｄｉａｎｚｉｓｈａｎｇｗｕｙｏｕｘｉａｎｇｏｎｇｓｉ,,外国会社等,,,,,,,,ｙｉｎｚｈｏｕｑｕｔｉａｎｄａｘｉａｎｇ４１６ｈａｏ１３－１ｓｈｉ１３０９　ｎｉｎｇｂｏ　ｚｈｅｊｉａｎｇ　３１５０００　ＣＮ,,,,,,2023-11-27,1,,,,,ニンボーアオシンデイエンズーシヤンウーヨウシエンゴンスー,0
463,2700150122298,新規,0,2023-11-27,2023-11-27,Ｌｅｎｇｓｈｕｉｊｉａｎｇ　Ｄｕｎｎａ　ｎｅｔｗｏｒｋ　ｔｅｃｈｎｏｌｏｇｙ　Ｃｏ．，ＬＴＤ,,外国会社等,,,,,,,,Ｒｏｏｍ　１３４８，Ｒｏｏｍ　８，１３ｔｈ　Ｆｌｏｏｒ，Ｆｉｌｍ　ａｎｄ　Ｔｅｌｅｖｉｓｉｏｎ　Ｉｎｔｅｒｎａｔｉｏｎａｌ　Ｂｕｓｉｎｅｓｓ　Ｃｅｎｔｅｒ　Ｂｕｉｌｄｉｎｇ，Ｓｔｉｉｄｕ　Ｍｉｄｄｌｅ　Ｒｏａｄ，Ｌｅｎｇｓｈｕｉｊｉａｎｇ　Ｓｔｒｅｅｔ，Ｌｅｎｇｓｈｕｉｊｉａｎｇ　Ｃｉｔｙ,,,,,,2023-11-27,1,,,,,ロンシユイジヤンシードウンナーワンルオコージーヨウシエンゴンスー,0
464,2700150122331,新規,0,2023-11-27,2023-11-27,ＧｕａｎｇｚｈｏｕＹｉｗａｎｇｑｉａｎ　Ｔｒａｄｉｎｇ　Ｃｏ．，Ｌｔｄ,,外国会社等,,,,,,,,Ｎｏ．１０６ＦｅｎｇｚｅＥａｓｔＲｏａｄＮａｎｓｈａＤｉｓｔｒｉｃｔＧｕａｎｇｚｈｏｕ（ｓｅｌｆ－ｄｅｓｉｇｎｅｄＢｕｉｌｄｉｎｇ１）Ｘ１３０１－Ｃ０１１３９２（ＣｌｕｓｔｅｒＲｅｇｉｓｔｒａｔｉｏｎ）（ＪＭ）,,,,,,2023-11-27,1,,,,,コウシュウイワンチェントレーディングカンパニーリミテッド,0
481,3010001240310,新規,0,2023-11-27,2023-11-27,株式会社ＣＡＬＯＲＥ,,株式会社,東京都,千代田区,内神田２丁目１６番１１号内神田渋谷ビル４０３,,13,101,1010047,,,,,,,2023-11-27,1,,,,,カローレ,0
482,3010001240327,新規,0,2023-11-27,2023-11-27,ＧＣＬ　Ｎｉｈｏｎ株式会社,,株式会社,東京都,千代田区,内幸町２丁目１番１号,,13,101,1000011,,,,,,,2023-11-27,1,,,,,ジーシーエルニホン,0
483,3010001240351,新規,0,2023-11-27,2023-11-27,日昇システム株式会社,,株式会社,東京都,千代田区,神田佐久間町２丁目１８－１秋葉原ＳＴＮフロント１２階,,13,101,1010025,,,,,,,2023-11-27,1,,,,,ニッショウシステム,0
484,3010001240368,新規,0,2023-11-27,2023-11-27,Ｓｅａｍｌｅｓｓ　Ｊａｐａｎ株式会社,,株式会社,東京都,中央区,銀座１丁目１２番４号Ｎ＆ＥＢＬＤ．６Ｆ,,13,102,1040061,,,,,,,2023-11-27,1,,,,,シームレスジャパン,0
487,3010003042300,新規,0,2023-11-27,2023-11-27,ＬＥＶＥＣＨＹファンド１１号合同会社,,合同会社,東京都,千代田区,紀尾井町３－８第２紀尾井町ビル９０１アクシス綜合会計事務所内,,13,101,1020094,,,,,,,2023-11-27,1,,,,,レベチーファンドジュウイチゴウ,0
497,3010401178761,新規,0,2023-11-27,2023-11-27,株式会社Ｂｌｏｏｍ・Ｗｅｄｄｉｎｇ,,株式会社,東京都,港区,南青山２丁目２‐１５ウイン青山９４２,,13,103,1070062,,,,,,,2023-11-27,1,,,,,ブルームウェディング,0
500,3010403031456,新規,0,2023-11-27,2023-11-27,合同会社ＴＡＫＡＭＩ,,合同会社,東京都,港区,麻布十番２丁目４番５号西脇ビル１階,,13,103,1060045,,,,,,,2023-11-27,1,,,,,タカミ,0
510,3010703006967,新規,0,2023-11-27,2023-11-27,合同会社Ｐｈａｔ,,合同会社,東京都,品川区,西五反田６丁目１６－９ベルクケープ２０６号室,,13,109,1410031,,,,,,,2023-11-27,1,,,,,ファット,0
511,3010801034548,新規,0,2023-11-27,2023-11-27,株式会社ＬＯＮＯ,,株式会社,東京都,大田区,上池台４丁目４４番３号,,13,111,1450064,,,,,,,2023-11-27,1,,,,,ロノ,0
513,3010805003078,新規,0,2023-11-27,2023-11-27,一般社団法人脱炭素社会構築機構,,その他の設立登記法人,東京都,大田区,千鳥３丁目７番１９号株式会社排水技研内,,13,111,1460083,,,,,,,2023-11-27,1,,,,,ダツタンソシャカイコウチクキコウ,0
524,3011001158402,新規,0,2023-11-27,2023-11-27,株式会社ｒｅｃｘ,,株式会社,東京都,渋谷区,道玄坂１丁目１０番８号渋谷道玄坂東急ビル２Ｆ－Ｃ,,13,113,1500043,,,,,,,2023-11-27,1,,,,,レックス,0
525,3011001158435,新規,0,2023-11-27,2023-11-27,株式会社ＪＡＪ,,株式会社,東京都,渋谷区,広尾５丁目４番１２号大成鋼機ビル５０３号室,,13,113,1500012,,,,,,,2023-11-27,1,,,,,ジェイエージェイ,0
526,3011001158443,新規,0,2023-11-27,2023-11-27,株式会社ＯＶＥＮ．,,株式会社,東京都,渋谷区,恵比寿西２丁目４番８号ウィンド恵比寿ビル８Ｆ,,13,113,1500021,,,,,,,2023-11-27,1,,,,,オーヴン,0
527,3011003017837,新規,0,2023-11-27,2023-11-27,合同会社ＭＯＮＯＮＯ,,合同会社,東京都,渋谷区,道玄坂１丁目１０番８号渋谷道玄坂東急ビル２Ｆ－Ｃ,,13,113,1500043,,,,,,,2023-11-27,1,,,,,モノノ,0
528,3011003017977,新規,0,2023-11-27,2023-11-27,合同会社ビーケイティー,,合同会社,東京都,渋谷区,神宮前３丁目２１－１２ＷＦＩビル４階,,13,113,1500001,,,,,,,2023-11-27,1,,,,,ビーケイティー,0
536,3011101105254,新規,0,2023-11-27,2023-11-27,秋鴻株式会社,,株式会社,東京都,新宿区,新宿７丁目１８－１フェニキアＳＴＵＤＩＯ３０２号,,13,104,1600022,,,,,,,2023-11-27,1,,,,,シュウコウ,0
549,3011601027320,新規,0,2023-11-27,2023-11-27,株式会社マウンテンキャピタル,,株式会社,東京都,練馬区,旭丘２丁目３５－１６,,13,120,1760005,,,,,,,2023-11-27,1,,,,,マウンテンキャピタル,0
550,3012701017970,新規,0,2023-11-27,2023-11-27,株式会社Ｋ’ｓ　ｐｒｏｐｅｒｔｙ,,株式会社,東京都,東村山市,野口町１丁目２６番地６２,,13,213,1890022,,,,,,,2023-11-27,1,,,,,ケーズプロパティー,0
551,3012803003241,新規,0,2023-11-27,2023-11-27,合同会社ビアンド,,合同会社,東京都,国立市,富士見台２丁目１８番地の３,,13,215,1860003,,,,,,,2023-11-27,1,,,,,ビアンド,0
558,3020001154609,新規,0,2023-11-27,2023-11-27,ｏｔｔｏ株式会社,,株式会社,神奈川県,横浜市南区,万世町１丁目１番地２４,,14,105,2320032,,,,,,,2023-11-27,1,,,,,オット,0
559,3020001154666,新規,0,2023-11-27,2023-11-27,株式会社Ｌｏｇ　ｉｎ,,株式会社,神奈川県,横浜市中区,曙町１丁目３藤和伊勢佐木町ハイタウン４１５,,14,104,2310057,,,,,,,2023-11-27,1,,,,,ログイン,0
561,3020003025056,新規,0,2023-11-27,2023-11-27,Ｃｏ‐ｃｒｅａｔｉｏｎ合同会社,,合同会社,神奈川県,川崎市多摩区,登戸２８２８番地サニーハイツ向ヶ丘２０４,,14,135,2140014,,,,,,,2023-11-27,1,,,,,コクリエイション,0
562,3020003025064,新規,0,2023-11-27,2023-11-27,合同会社ＦＬＡＩＲ,,合同会社,神奈川県,川崎市宮前区,菅生ケ丘１８－１０,,14,136,2160014,,,,,,,2023-11-27,1,,,,,フレア,0
567,3021001080828,新規,0,2023-11-27,2023-11-27,グレホールディング株式会社,,株式会社,神奈川県,平塚市,見附町１９番２号,,14,203,2540045,,,,,,,2023-11-27,1,,,,,グレホールディング,0
568,3021001080844,新規,0,2023-11-27,2023-11-27,Ｍ’ｓ株式会社,,株式会社,神奈川県,厚木市,中町３丁目９－１８－２Ｆ,,14,212,2430018,,,,,,,2023-11-27,1,,,,,エムズ,0
569,3021003013843,新規,0,2023-11-27,2023-11-27,合同会社鈴なり,,合同会社,神奈川県,鎌倉市,小袋谷１丁目６番７号,,14,204,2470055,,,,,,,2023-11-27,1,,,,,スズナリ,0
577,3030003023067,新規,0,2023-11-27,2023-11-27,ＲＥＮ２３合同会社,,合同会社,埼玉県,北葛飾郡杉戸町,内田３丁目２番８号,,11,464,3450035,,,,,,,2023-11-27,1,,,,,レンニジュウサン,0
578,3030003023083,新規,0,2023-11-27,2023-11-27,ＢＭ＆Ｓ　ＩＮＴＥＲＮＡＴＩＯＮＡＬ合同会社,,合同会社,埼玉県,草加市,金明町４６番地５ハイツ新田２０１号,,11,221,3400052,,,,,,,2023-11-27,1,,,,,ビエムアンドエスインターナショナル,0
581,3040001131060,新規,0,2023-11-27,2023-11-27,株式会社アオイエステート,,株式会社,千葉県,船橋市,海神町西１丁目１１０３番地１２,,12,204,2730027,,,,,,,2023-11-27,1,,,,,アオイエステート,0
582,3040001131102,新規,0,2023-11-27,2023-11-27,株式会社Ｃｈａ１ｒｍｅ,,株式会社,千葉県,千葉市中央区,星久喜町５９３番地６Ｂ号,,12,101,2600808,,,,,,,2023-11-27,1,,,,,シャルムワン,0
590,3060001036588,新規,0,2023-11-27,2023-11-27,株式会社マルクト,,株式会社,栃木県,宇都宮市,上戸祭３丁目４番１６号,,09,201,3200058,,,,,,,2023-11-27,1,,,,,マルクト,0
596,3070001041109,新規,0,2023-11-27,2023-11-27,株式会社バックオフィス,,株式会社,群馬県,伊勢崎市,香林町２丁目８１４番地,,10,204,3792206,,,,,,,2023-11-27,1,,,,,,0
607,3110001037993,新規,0,2023-11-27,2023-11-27,株式会社ＲＹＵＪＩ　ＡＮＤＯ,,株式会社,新潟県,新潟市西区,五十嵐２の町８０５０産学連携共同研究棟１号棟ＮｏｔＴｈｅＵｎｉｖｅｒｓｉｔｙ,,15,107,9502102,,,,,,,2023-11-27,1,,,,,リュウジアンドウ,0
624,3120001260082,新規,0,2023-11-27,2023-11-27,株式会社ＭＹＵ,,株式会社,大阪府,大阪市西区,南堀江３丁目６番５号Ａ’ｓ南堀江２０１号,,27,106,5500015,,,,,,,2023-11-27,1,,,,,ミュウ,0
625,3120001260124,新規,0,2023-11-27,2023-11-27,フォーシーズン株式会社,,株式会社,大阪府,大阪市中央区,博労町１丁目４番１０号博労町エステートビル６０３号,,27,128,5410059,,,,,,,2023-11-27,1,,,,,フォーシーズン,0
626,3120001260157,新規,0,2023-11-27,2023-11-27,株式会社Ｒａｙ　ｎｅｘｔ,,株式会社,大阪府,大阪市東成区,東小橋２丁目９番１０号,,27,115,5370024,,,,,,,2023-11-27,1,,,,,レイネクスト,0
627,3120001260198,新規,0,2023-11-27,2023-11-27,株式会社ＢＡＳＨ,,株式会社,大阪府,大阪市浪速区,難波中２丁目６番１３号,,27,111,5560011,,,,,,,2023-11-27,1,,,,,バッシュ,0
632,3120003025384,新規,0,2023-11-27,2023-11-27,ＫＥＩ合同会社,,合同会社,大阪府,大阪市中央区,高麗橋２丁目２－２－３０５,,27,128,5410043,,,,,,,2023-11-27,1,,,,,ケイ,0
633,3120003025392,新規,0,2023-11-27,2023-11-27,合同会社Ｋｅｒｉｓｔｏｕ,,合同会社,大阪府,大阪市住之江区,西住之江３丁目１番２号ロイヤル西住之江４０３号,,27,125,5590005,,,,,,,2023-11-27,1,,,,,コリシト,0
634,3120005023997,新規,0,2023-11-27,2023-11-27,特定非営利活動法人国際産業文化教育交流協会,,その他の設立登記法人,大阪府,大阪市生野区,巽西３丁目６－８,00132803,27,116,5440012,,,,,,,2023-11-27,1,,,,,コクサイサンギョウブンカキョウイクコウリュウキョウカイ,0
638,3122001037601,新規,0,2023-11-27,2023-11-27,株式会社トラスト,,株式会社,大阪府,東大阪市,御厨西ノ町２丁目１番２４号,,27,227,5770037,,,,,,,2023-11-27,1,,,,,トラスト,0
643,3130001075819,新規,0,2023-11-27,2023-11-27,株式会社オクシゲ,,株式会社,京都府,京都市左京区,下鴨松ノ木町５１番地６,,26,103,6060816,,,,,,,2023-11-27,1,,,,,オクシゲ,0
650,3140001132453,新規,0,2023-11-27,2023-11-27,ケイズウェスト株式会社,,株式会社,兵庫県,尼崎市,立花町１丁目２１番５号,,28,202,6610025,,,,,,,2023-11-27,1,,,,,ケイズウェスト,0
651,3140001132461,新規,0,2023-11-27,2023-11-27,株式会社シュナテック,,株式会社,兵庫県,神戸市中央区,磯上通８丁目１番２９号カサベラビルＣ＆Ｍ４０３号室,,28,110,6510086,,,,,,,2023-11-27,1,,,,,シュナテック,0
652,3140001132486,新規,0,2023-11-27,2023-11-27,株式会社アドバンスソリューション,,株式会社,兵庫県,宍粟市,山崎町野１,,28,227,6712543,,,,,,,2023-11-27,1,,,,,アドバンスソリューション,0
654,3150001026902,新規,0,2023-11-27,2023-11-27,ＬｉＢメディカル株式会社,,株式会社,奈良県,奈良市,登美ヶ丘２丁目１番４４号,,29,201,6310004,,,,,,,2023-11-27,1,,,,,リブメディカル,0
665,3180001159047,新規,0,2023-11-27,2023-11-27,株式会社Ｓｐｉｃａ,,株式会社,愛知県,名古屋市名東区,藤が丘１３７番地,,23,115,4650032,,,,,,,2023-11-27,1,,,,,スピカ,0
674,3190005011888,新規,0,2023-11-27,2023-11-27,一般社団法人ファンプラス,,その他の設立登記法人,三重県,桑名市,大字西別所１０３８番地５,,24,205,5110851,,,,,,,2023-11-27,1,,,,,ファンプラス,0
677,3210003001723,新規,0,2023-11-27,2023-11-27,合同会社ケーエネ,,合同会社,福井県,あわら市,東温泉１丁目３０４番地３,,18,208,9104121,,,,,,,2023-11-27,1,,,,,ケーエネ,0
678,3220001025707,新規,0,2023-11-27,2023-11-27,株式会社ＳＲＫｏｍａｔｓｕ,,株式会社,石川県,小松市,本鍛冶町３２番地１,,17,203,9230933,,,,,,,2023-11-27,1,,,,,エスアールコマツ,0
681,3230001020120,新規,0,2023-11-27,2023-11-27,株式会社ショウゲツ,,株式会社,富山県,富山市,堀川小泉町６９６番地９,,16,201,9398081,,,,,,,2023-11-27,1,,,,,ショウゲツ,0
685,3260001038515,新規,0,2023-11-27,2023-11-27,株式会社ゆいまーる,,株式会社,岡山県,岡山市北区,昭和町１４－２８,,33,101,7000032,,,,,,,2023-11-27,1,,,,,ユイマール,0
686,3260003004507,新規,0,2023-11-27,2023-11-27,合同会社ＹＫキビ,,合同会社,岡山県,岡山市北区,庭瀬９５７番地１,,33,101,7010153,,,,,,,2023-11-27,1,,,,,ワイケイキビ,0
696,3290001103786,新規,0,2023-11-27,2023-11-27,株式会社シニア英語,,株式会社,福岡県,福岡市南区,大橋２丁目２５－１０ロマネスク大橋３０２号室,,40,134,8150033,,,,,,,2023-11-27,1,,,,,シニアエイゴ,0
697,3290001103794,新規,0,2023-11-27,2023-11-27,株式会社ＢＥ．ＣＯＬＬＥＣＴＩＯＮ．５,,株式会社,福岡県,福岡市南区,三宅３丁目２３番２２－５０２号アンピール第５西大橋,,40,134,8111344,,,,,,,2023-11-27,1,,,,,ビーコレクションファイブ,0
698,3290001103811,新規,0,2023-11-27,2023-11-27,吉永ホールディングス株式会社,00132799,株式会社,福岡県,福岡市中央区,平尾３丁目２６番１７号,,40,133,8100014,,,,,,,2023-11-27,1,,,,,ヨシナガホールディングス,0
699,3290003014643,新規,0,2023-11-27,2023-11-27,合同会社ｐｉｇｒｏ,,合同会社,福岡県,福岡市城南区,七隈４丁目２４番３４号,,40,136,8140133,,,,,,,2023-11-27,1,,,,,ピグロ,0
700,3290801030073,新規,0,2023-11-27,2023-11-27,株式会社松田商事,,株式会社,福岡県,遠賀郡遠賀町,遠賀川２丁目４番１０号２０５号,,40,384,8114307,,,,,,,2023-11-27,1,,,,,マツダショウジ,0
706,3320001020160,新規,0,2023-11-27,2023-11-27,株式会社Ｃｌｏｃｈｅｔｔｅ,,株式会社,大分県,豊後高田市,玉津２０７０番地１,,44,209,8790606,,,,,,,2023-11-27,1,,,,,クロシェット,0
711,3330003010101,新規,0,2023-11-27,2023-11-27,合同会社ストロベリィ,,合同会社,熊本県,上益城郡益城町,大字広崎３９６番地４,,43,443,8612236,,,,,,,2023-11-27,1,,,,,,0
713,3350001018680,新規,0,2023-11-27,2023-11-27,株式会社Ｔｈｅ　ＢｌｕｅＣｈｅｅｋ,,株式会社,宮崎県,宮崎市,船塚３丁目１５５番地,,45,201,8800031,,,,,,,2023-11-27,1,,,,,ザブルーチーク,0
715,3360003013506,新規,0,2023-11-27,2023-11-27,合同会社琉球ばらいちご,,合同会社,沖縄県,那覇市,宇栄原２丁目１８番１２号,,47,201,9010153,,,,,,,2023-11-27,1,,,,,リュウキュウバライチゴ,0
720,3370001050665,新規,0,2023-11-27,2023-11-27,株式会社門前伊藤商会,,株式会社,宮城県,富谷市,富谷新町９５,,04,216,9813311,,,,,,,2023-11-27,1,,,,,モンゼンイトウショウカイ,0
723,3370003006401,新規,0,2023-11-27,2023-11-27,合同会社鈴屋,,合同会社,宮城県,宮城郡利府町,加瀬字北窪３１番地４,,04,406,9810111,,,,,,,2023-11-27,1,,,,,スズヤ,0
724,3380003005625,新規,0,2023-11-27,2023-11-27,合同会社誠信あいづ,,合同会社,福島県,会津若松市,館馬町４番２７号,,07,202,9650835,,,,,,,2023-11-27,1,,,,,セイシンアイヅ,0
738,3700150121984,新規,0,2023-11-27,2023-11-10,加倉生産組合,,その他,福島県,双葉郡浪江町,大字加倉字北柴田２４,,07,547,9791536,,,,,,,2023-11-10,1,,,,,カクラセイサンクミアイ,0
739,3700150122256,新規,0,2023-11-27,2023-11-27,ｊｉｕｊｉａｎｇｓｈｉｈｅｎｇｔｉｅｓｈａｎｇｍａｏｙｏｕｘｉａｎｇｏｎｇｓｉ,,外国会社等,,,,,,,,ｃｈａｎｇｈｏｎｇｂｅｉｌｕ１５ｈａｏｇａｎｔａｎｇｊｉｅｄａｏｚｈｕｂａｊｉｅｊｉｕｊｉａｎｇｙｕａｎｑｕＧ４１７ｊｉｕｊｉａｎｇｓｈｉ　ｊｉａｎｇｘｉｓｈｅｎｇ,,,,,,2023-11-27,1,,,,,ジュージャンシーホンティエシャンマオヨウシエンゴンスー,0
740,3700150122264,新規,0,2023-11-27,2023-11-27,ＢＯＳＩＢＡＯＧＯＮＧＪＵ（ＫＵＮＳＨＡＮ）ＹＯＵＸＩＡＮＧＯＮＧＳＩ,,外国会社等,,,,,,,,Ｎｏ．２７５ＳｈｅｎｇｆａｎＲｏａｄＸｉｎｚｈｅｎＩｎｄｕｓｔｒｉａｌＺｏｎｅＺｈｏｕｓｈｉ　Ｔｏｗｎ　ＫｕｎｓｈａｎＣｉｔｙ　ＪｉａｎｇｓｕＰｒｏｖｉｎｃｅ,,,,,,2023-11-27,1,,,,,ボシバオゴンジュコンザンユウゲンコウシ,0
741,3700150122272,新規,0,2023-11-27,2023-11-27,ｆｏｓｈａｎｓｈｉｈｅｂａｎｇｓｈｅｎｇｙａｎｇｊｉａｊｕｙｏｕｘｉａｎｇｏｎｇｓｉ,,外国会社等,,,,,,,,ｆｏｓｈａｎｓｈｉ　ｃｈａｎｃｈｅｎｇｑｕ　ｆｅｎｊｉａｎｇｎａｎｌｕ６ｈａｏｄｉｅｒｃｅｎｇｚｉｂｉａｎＦ２０１－０４（ｚｈｕｓｕｏｓｈｅｎｂａｏ，ｊｉｑｕｎｄｅｎｇｊｉ）,,,,,,2023-11-27,1,,,,,フツザンシヘバンセンヨウジャジュユウゲンコウシ,0
742,3700150122280,新規,0,2023-11-27,2023-11-27,Ｓｈａｎｘｉ　Ｊｉｎｔｉｎｇ　Ｍｉｎｇ　Ｈｕｉ　ｓｃｉｅｎｃｅ　ａｎｄ　ｔｒａｄｅ　Ｃｏ．，ＬＴＤ,,外国会社等,,,,,,,,Ｎｏ．１１１６，１１ｔｈ　ｆｌｏｏｒ，Ｔｏｗｅｒ　１，ｔｏｒｃｈ　ｐｉｏｎｅｅｒｉｎｇ　ｂｕｉｌｄｉｎｇ，Ｎｏ．３０６　Ｃｈａｎｇｚｈｉ　Ｒｏａｄ，ｉｎｄｕｓｔｒｉａｌ　ｐａｒｋ，Ｓｈａｎｘｉ　Ｔｒａｎｓｉｔｉｏｎ　Ｃｏｍｐｒｅｈｅｎｓｉｖｅ　Ｒｅｆｏｒｍ　Ｄｅｍｏｎｓｔｒａｔｉｏｎ　Ｚｏｎｅ,,,,,,2023-11-27,1,,,,,シヤンシージンテインミンフイコーマオヨウシエンゴンスー,0
743,3700150122289,新規,0,2023-11-27,2023-11-27,ｓｈｅｎｚｈｅｎｓｈｉｙｏｎｇｈｕｉｓｈｉｓｈａｎｇｙｏｕｘｉａｎｇｏｎｇｓｉ,,外国会社等,,,,,,,,ｌｏｎｇｇａｎｇｑｕｌｏｎｇｇａｎｇｊｉｅｄａｏｌｏｎｇｘｉｓｈｅｑｕ　ｔｉａｎｌｉｘｉｎｃｈｕａｎｇｙｅｙｕａｎ９ｈａｏ１４０５Ａ　ｓｈｅｎｚｈｅｎ　ｇｕａｎｇｄｏｎｇ　５１８１００　ＣＮ,,,,,,2023-11-27,1,,,,,シエンジエンシーヨンフイシーシヤンヨウシエンゴンスー,0
744,3700150122297,新規,0,2023-11-27,2023-11-27,Ｈｕｎａｎ　Ｐｉｎｌｉｎｇ　ｎｅｔｗｏｒｋ　Ｔｅｃｈｎｏｌｏｇｙ　Ｃｏ．，ＬＴＤ,,外国会社等,,,,,,,,Ｒｏｏｍ　１３４５－Ａｒｅａ　３，１３ｔｈ　Ｆｌｏｏｒ，Ｆｉｌｍ　ａｎｄ　Ｔｅｌｅｖｉｓｉｏｎ　Ｉｎｔｅｒｎａｔｉｏｎａｌ　Ｂｕｓｉｎｅｓｓ　Ｃｅｎｔｅｒ　Ｂｕｉｌｄｉｎｇ，Ｓｔｉｉｄｕ　Ｍｉｄｄｌｅ　Ｒｏａｄ，Ｌｅｎｇｓｈｕｉｊｉａｎｇ　Ｓｔｒｅｅｔ，Ｌｅｎｇｓｈｕｉｊｉａｎｇ　Ｃｉｔｙ,,,,,,2023-11-27,1,,,,,フーナンシヨンピンリンワンルオコージーヨウシエンゴンスー,0
745,3700150122330,新規,0,2023-11-27,2023-11-27,ｓｈｅｎｚｈｅｎｓｈｉｐｉｎｇｊｉｎｇｋｅｊｉｙｏｕｘｉａｎｇｏｎｇｓｉ,,外国会社等,,,,,,,,Ｓｈｅｎｚｈｅｎｓｈｉ　Ｌｏｎｇｇａｎｇｑｕ　ＰｉｎｇｄｉｊｉｅｄａｏＧａｏｑｉａｏｓｈｅｑｕ　Ｊｉａｏｙｕｂｅｉｌｕ７８ｈａｏ３＃ｃｈａｎｇｆａｎｇ１０１,,,,,,2023-11-27,1,,,,,シンセンシピンジンカギユウゲンコウシ,0
752,4010001240227,新規,0,2023-11-27,2023-11-27,株式会社ＬＦＰ　Ｇｒｏｗｔｈ,,株式会社,東京都,中央区,日本橋２丁目２番３号ＲＩＳＨＥビルＵＣＦ４階,,13,102,1030027,,,,,,,2023-11-27,1,,,,,エルエフピーグロース,0
753,4010001240334,新規,0,2023-11-27,2023-11-27,東融財富日本株式会社,,株式会社,東京都,千代田区,有楽町１丁目５番２号,,13,101,1000006,,,,,,,2023-11-27,1,,,,,トウユウツァイフーニホン,0
756,4010003042308,新規,0,2023-11-27,2023-11-27,合同会社スリーパール,,合同会社,東京都,中央区,日本橋３丁目２番１４号新槇町ビル別館第一１階,,13,102,1030027,,,,,,,2023-11-27,1,,,,,スリーパール,0
760,4010401178661,新規,0,2023-11-27,2023-11-27,株式会社エルニュート,,株式会社,東京都,港区,浜松町２丁目２番１５号浜松町ダイヤビル２Ｆ,,13,103,1050013,,,,,,,2023-11-27,1,,,,,エルニュート,0
761,4010401178686,新規,0,2023-11-27,2023-11-27,キラキラリア株式会社,,株式会社,東京都,港区,芝大門１丁目６－６芝大門ヤマトビル３Ｆ,,13,103,1050012,,,,,,,2023-11-27,1,,,,,キラキラリア,0
762,4010401178752,新規,0,2023-11-27,2023-11-27,株式会社エスプラチナ,,株式会社,東京都,港区,南青山４丁目１７番３３号グランカーサ南青山２Ｆ,,13,103,1070062,,,,,,,2023-11-27,1,,,,,エスプラチナ,0
763,4010401178760,新規,0,2023-11-27,2023-11-27,株式会社イザグニ,,株式会社,東京都,港区,赤坂９丁目５番２９号,,13,103,1070052,,,,,,,2023-11-27,1,,,,,,0
766,4010503007223,新規,0,2023-11-27,2023-11-27,合同会社ＴＨＲＥＥ‐ＳＩＤＥＤ,,合同会社,東京都,台東区,谷中３丁目１８番９号,,13,106,1100001,,,,,,,2023-11-27,1,,,,,スリーサイデッド,0
767,4010703006966,新規,0,2023-11-27,2023-11-27,ユーワホールディングス合同会社,,合同会社,東京都,品川区,上大崎３丁目１番１号目黒セントラルスクエア１５階,,13,109,1410021,,,,,,,2023-11-27,1,,,,,ユーワホールディングス,0
770,4010801034539,新規,0,2023-11-27,2023-11-27,株式会社ＭＹＮＡＭＥ,,株式会社,東京都,大田区,田園調布１丁目６番１９号ベルメゾン田園調布２０５,,13,111,1450071,,,,,,,2023-11-27,1,,,,,マイネーム,0
778,4011001158442,新規,0,2023-11-27,2023-11-27,株式会社ＤＢＬ,,株式会社,東京都,渋谷区,代々木１丁目３４－５渡辺ビル５Ｆ,,13,113,1510053,,,,,,,2023-11-27,1,,,,,ディービーエル,0
780,4011003017976,新規,0,2023-11-27,2023-11-27,Ｗｅｌｐｉｅｃｅ合同会社,,合同会社,東京都,渋谷区,笹塚２丁目１５番２号ＶＩＡＬＡＴＴＥＡ笹塚１１０２,,13,113,1510073,,,,,,,2023-11-27,1,,,,,ウェルピース,0
783,4011101105245,新規,0,2023-11-27,2023-11-27,株式会社ＡＮＯＫＡＹ,,株式会社,東京都,新宿区,西新宿３丁目３番１３号西新宿水間ビル６階,,13,104,1600023,,,,,,,2023-11-27,1,,,,,アノカイ,0
820,4020001154269,新規,0,2023-11-27,2023-11-27,Ｈ＆Ｑシステムズ株式会社,,株式会社,神奈川県,川崎市川崎区,砂子２丁目８番地１シャンボール互恵ビル１００９号室,,14,131,2100006,,,,,,,2023-11-27,1,,,,,エイチアンドキュウシステムズ,0
821,4020001154590,新規,0,2023-11-27,2023-11-27,大誠株式会社,,株式会社,神奈川県,横浜市南区,浦舟町１丁目１番地５８,,14,105,2320024,,,,,,,2023-11-27,1,,,,,ダイセイ,0
822,4020001154632,新規,0,2023-11-27,2023-11-27,株式会社オフィス上原,,株式会社,神奈川県,横浜市青葉区,市ケ尾町５２４番地４,,14,117,2250024,,,,,,,2023-11-27,1,,,,,オフィスウエハラ,0
826,4020003025055,新規,0,2023-11-27,2023-11-27,合同会社シルバーサポート横浜,,合同会社,神奈川県,横浜市中区,日本大通７,,14,104,2310021,,,,,,,2023-11-27,1,,,,,シルバーサポートヨコハマ,0
827,4021001080843,新規,0,2023-11-27,2023-11-27,株式会社ＰＲ　Ｌｅ　Ｃｈａｔ,,株式会社,神奈川県,茅ヶ崎市,元町１０番４１号,,14,207,2530043,,,,,,,2023-11-27,1,,,,,ピーアールルーシャ,0
834,4030001157270,新規,0,2023-11-27,2023-11-27,株式会社ＥＬＣ,,株式会社,埼玉県,草加市,八幡町８２１番地１２,,11,221,3400006,,,,,,,2023-11-27,1,,,,,イーエルシー,0
835,4030001157329,新規,0,2023-11-27,2023-11-27,株式会社こむぎ,,株式会社,埼玉県,本庄市,栗崎１１５番地３フルールＢ棟２０１,,11,211,3670032,,,,,,,2023-11-27,1,,,,,コムギ,0
845,4040001131092,新規,0,2023-11-27,2023-11-27,株式会社ＺＥＲＯ,,株式会社,千葉県,袖ケ浦市,長浦駅前２丁目２４番地９,,12,229,2990246,,,,,,,2023-11-27,1,,,,,ゼロ,0
846,4040003023800,新規,0,2023-11-27,2023-11-27,ＭＯＮＴＡＮＡ　ＣＯＲＰＯＲＡＴＩＯＮ合同会社,,合同会社,千葉県,船橋市,前原東５丁目３番２５－１０１号,,12,204,2740824,,,,,,,2023-11-27,1,,,,,モンタナコーポレーション,0
847,4040003023817,新規,0,2023-11-27,2023-11-27,合同会社ｎｏａ,,合同会社,千葉県,千葉市花見川区,畑町１３０２番地,,12,102,2620018,,,,,,,2023-11-27,1,,,,,ノア,0
851,4050003007926,新規,0,2023-11-27,2023-11-27,合同会社おおかわ,,合同会社,茨城県,鹿嶋市,高天原１丁目３－２５高天リリックス１０３,,08,222,3140005,,,,,,,2023-11-27,1,,,,,オオカワ,0
863,4100001037011,新規,0,2023-11-27,2023-11-27,株式会社みらいのもり総合研究所,,株式会社,長野県,茅野市,ちの３５０２番地１ベルビア２Ｆワークラボ八ヶ岳２１８,,20,214,3910001,,,,,,,2023-11-27,1,,,,,ミライノモリソウゴウケンキュウショ,0
868,4110001037992,新規,0,2023-11-27,2023-11-27,もふぅ株式会社,,株式会社,新潟県,新潟市東区,有楽２丁目４番地５,,15,102,9500012,,,,,,,2023-11-27,1,,,,,モフゥ,0
872,4120001260148,新規,0,2023-11-27,2023-11-27,株式会社ＧＲＥＥＮ,,株式会社,大阪府,大阪市東成区,大今里１丁目２０番３４号,,27,115,5370012,,,,,,,2023-11-27,1,,,,,グリーン,0
873,4120001260189,新規,0,2023-11-27,2023-11-27,株式会社桜,,株式会社,大阪府,枚方市,杉山手２丁目１９番９－２号,,27,210,5730118,,,,,,,2023-11-27,1,,,,,サクラ,0
886,4130001075801,新規,0,2023-11-27,2023-11-27,株式会社ｉ若藤,,株式会社,京都府,京都市山科区,川田欠ノ上１０番地,,26,110,6078334,,,,,,,2023-11-27,1,,,,,アイワカトウ,0
889,4130003009162,新規,0,2023-11-27,2023-11-27,合同会社ｃｏｌｏｒ,,合同会社,京都府,福知山市,夜久野町額田２４０番地,,26,201,6291304,,,,,,,2023-11-27,1,,,,,カラー,0
894,4140001132444,新規,0,2023-11-27,2023-11-27,株式会社ＣＬＩＭＡＬ,,株式会社,兵庫県,神戸市長田区,名倉町２丁目４番４号楠木ハイツ２０２号,,28,106,6530883,,,,,,,2023-11-27,1,,,,,クライマル,0
895,4140001132477,新規,0,2023-11-27,2023-11-27,株式会社エコリングＣＯＮＮＥＣＴ,,株式会社,兵庫県,姫路市,飾磨区恵美酒２１３番地,,28,201,6728057,,,,,,,2023-11-27,1,,,,,エコリングコネクト,0
897,4140003019846,新規,0,2023-11-27,2023-11-27,ＴＥａｍつくる合同会社,,合同会社,兵庫県,神崎郡福崎町,東田原１１４０番地１,,28,443,6792205,,,,,,,2023-11-27,1,,,,,チームツクル,0
898,4140003019854,新規,0,2023-11-27,2023-11-27,合同会社ａｎｄＹ,,合同会社,兵庫県,西宮市,満池谷町７番１３－１０２号,,28,204,6620031,,,,,,,2023-11-27,1,,,,,アンドワイ,0
899,4140005026808,新規,0,2023-11-27,2023-11-27,一般社団法人神戸インターナショナル成原会,,その他の設立登記法人,兵庫県,神戸市中央区,加納町４丁目８番１７号高井ビル２階,,28,110,6500001,,,,,,,2023-11-27,1,,,,,コウベインターナショナルナリハラカイ,0
907,4180001159062,新規,0,2023-11-27,2023-11-27,株式会社ＴＷＧ,,株式会社,愛知県,名古屋市北区,如意３丁目７５番地,,23,103,4620007,,,,,,,2023-11-27,1,,,,,ティーダブルジー,0
908,4180005020435,新規,0,2023-11-27,2023-11-27,一般社団法人全国シニアサポート,,その他の設立登記法人,愛知県,名古屋市名東区,西山本通２丁目１２番地,,23,115,4650085,,,,,,,2023-11-27,1,,,,,ゼンコクシニアサポート,0
918,4200001041928,新規,0,2023-11-27,2023-11-27,東ひかりソフトエクスプレス株式会社,,株式会社,岐阜県,海津市,海津町平原１２５１－１,,21,221,5030651,,,,,,,2023-11-27,1,,,,,ヒガシソフトエクスプレス,0
933,4270003001576,新規,0,2023-11-27,2023-11-27,合同会社プレミアムカーファンド２号,,合同会社,鳥取県,米子市,加茂町２丁目１８０番地国際ファミリープラザ７１０号,,31,202,6830823,,,,,,,2023-11-27,1,,,,,プレミアムカーファンドニゴウ,0
936,4290001103810,新規,0,2023-11-27,2023-11-27,株式会社海雲亭,,株式会社,福岡県,福岡市南区,那の川１丁目２２番２２号,,40,134,8150081,,,,,,,2023-11-27,1,,,,,カイウンテイ,0
937,4290001103835,新規,0,2023-11-27,2023-11-27,ランドサイド株式会社,,株式会社,福岡県,福津市,渡１５９８番地の１０,,40,224,8113307,,,,,,,2023-11-27,1,,,,,ランドサイド,0
939,4290003014642,新規,0,2023-11-27,2023-11-27,合同会社真,,合同会社,福岡県,宗像市,土穴４丁目３番６号,,40,220,8114183,,,,,,,2023-11-27,1,,,,,マコト,0
951,4330003010100,新規,0,2023-11-27,2023-11-27,合同会社Ｋ,,合同会社,熊本県,熊本市東区,戸島西３丁目５番５２号,,43,102,8618043,,,,,,,2023-11-27,1,,,,,ケイ,0
954,4340003004316,新規,0,2023-11-27,2023-11-27,合同会社Ｏ＆Ｍ,,合同会社,鹿児島県,鹿児島市,山田町１９４番地２０１号,,46,201,8910104,,,,,,,2023-11-27,1,,,,,オーアンドエム,0
958,4360001032861,新規,0,2023-11-27,2023-11-27,ＫＡＩ株式会社,,株式会社,沖縄県,沖縄市,比屋根７丁目７番１４号,,47,211,9042173,,,,,,,2023-11-27,1,,,,,カイ,0
960,4360003013513,新規,0,2023-11-27,2023-11-27,合同会社ＣｏＨａＫｕ,,合同会社,沖縄県,那覇市,字大道２７番地１１０５,,47,201,9020066,,,,,,,2023-11-27,1,,,,,コハク,0
965,4370003006391,新規,0,2023-11-27,2023-11-27,合同会社ａｄｅｌｆｉｌｌａ,,合同会社,宮城県,石巻市,渡波町１丁目６番５号,,04,202,9862121,,,,,,,2023-11-27,1,,,,,アデルフィーリャ,0
975,4450001014149,新規,0,2023-11-27,2023-11-27,株式会社Ｓｌｕｎｃｅ,,株式会社,北海道,旭川市,東光十三条１丁目２番１５号,,01,204,0788353,,,,,,,2023-11-27,1,,,,,スルンツェ,0
986,4700150003934,新規,0,2023-11-27,2015-10-09,日本ジェネリック製薬協会,,その他,東京都,中央区,日本橋本町３丁目３－４－７Ｆ,,13,102,1030023,,,,,,,2015-10-09,1,,,,,ニホンジエネリツクセイヤクキヨウカイ,0
988,4700150122255,新規,0,2023-11-27,2023-11-27,ｊｉｕｊｉａｎｇｓｈｉｄａｉｘｉａｏｄｏｎｇｗａｎｊｕｙｏｕｘｉａｎｇｏｎｇｓｉ,,外国会社等,,,,,,,,ｃｈａｎｇｈｏｎｇｂｅｉｌｕ１５ｈａｏｇａｎｔａｎｇｊｉｅｄａｏｊｉｅｄａｏｚｈｕｂａｊｉｅｊｉｕｊｉａｎｇｙｕａｎｑｕＧ４２９ｊｉｕｊｉａｎｇｓｈｉｊｉａｎｇｘｉｓｈｅｎｇ,,,,,,2023-11-27,1,,,,,ジュージャンシーダイシャオドンワンジーヨウシエンゴンスー,0
989,4700150122263,新規,0,2023-11-27,2023-11-27,ＤＯＮＧＧＵＡＮＳＨＩＬＯＮＧＸＩＮＰＩＪＵＹＯＵＸＩＡＮＧＯＮＧＳＩ,,外国会社等,,,,,,,,Ｇｕａｎｇｄｏｎｇｓｈｅｎｇ　ｄｏｎｇｇｕａｎｓｈｉ　ｇａｏｂｕｚｈｅｎｇａｏｂｕｄａｄａｏ２１２ｈａｏ３０１ｓｈｉ,,,,,,2023-11-27,1,,,,,トンガンシロンシンピジュユウゲンコウシ,0
990,4700150122271,新規,0,2023-11-27,2023-11-27,ｗｅｎｚｈｏｕｑｉｆａｎｄｉａｎｚｉｓｈａｎｇｗｕｙｏｕｘｉａｎｇｏｎｇｓｉ,,外国会社等,,,,,,,,ｌｏｎｇｇａｎｇｓｈｉｔａｏｃｉｓｈｉｃｈａｎｇ２ｄｏｎｇ３ｄａｎｙｕａｎ２０２ｓｈｉ　ｗｅｎｚｈｏｕ　ｚｈｅｊｉａｎｇ,,,,,,2023-11-27,1,,,,,オンシュウチファンデンシショウムユウゲンコウシ,0
991,4700150122288,新規,0,2023-11-27,2023-11-27,ＡＣＥＴＫ　ＣＯＲＰ　ＬＴＤ．,,外国会社等,,,,,,,,９Ｆ．，Ｎ０．１１６，Ｓｅｃ．１，Ｘｉｎｔａｉ　５ｔｈ　Ｒｄ．，Ｘｉｚｈｉ　Ｄｉｓｔ．，Ｎｅｗ　Ｔａｉｐｅｉ　Ｃｉｔｙ　２２１０２，Ｔａｉｗａｎ　（Ｒ．Ｏ．Ｃ）,,,,,,2023-11-27,1,,,,,ホンシヤンシヨンデイーグーフエンヨウシエンゴンスー,0
992,4700150122296,新規,0,2023-11-27,2023-11-27,Ｇｕａｎｇｘｉ　ｈｅｎｇｚｈｉｈｕａ　ｄｉａｎｚｉ　ｓｈａｎｇ　ｗｕ　ｙｏｕ　ｘｉａｎ　ｇｏｎｇｓｉ,,外国会社等,,,,,,,,１　Ｄｏｎｇ　２　ＤａｎＹｕａｎ　５０３　ＨａｏＦａｎｇ　ＸｉＸｉａｎｇＴａｎｇＱｖ　ＸｉｕＬｉｎｇＬｕ　１７　Ｈａｏ　ＮａｎＮｉｎｇＳｈｉ　ＧｕａｎｇＸｉ,,,,,,2023-11-27,1,,,,,グワンシーホンジーフワーデイエンズーシヤンウーヨウシエンゴンスー,0
1001,5010001240341,新規,0,2023-11-27,2023-11-27,株式会社ユニマ,,株式会社,東京都,中央区,銀座１丁目２２－１１銀座大竹ビジデンス２Ｆ,,13,102,1040061,,,,,,,2023-11-27,1,,,,,ユニマ,0
1002,5010003042298,新規,0,2023-11-27,2023-11-27,合同会社パラノイドジニアス,,合同会社,東京都,文京区,後楽２丁目３－１０－２０２号室,,13,105,1120004,,,,,,,2023-11-27,1,,,,,パラノイドジニアス,0
1003,5010003042307,新規,0,2023-11-27,2023-11-27,フィオーレホームズ合同会社,,合同会社,東京都,千代田区,神田須田町１丁目７番１号,,13,101,1010041,,,,,,,2023-11-27,1,,,,,フィオーレホームズ,0
1013,5010401178743,新規,0,2023-11-27,2023-11-27,ＩＸ株式会社,,株式会社,東京都,港区,赤坂２丁目５番８号ヒューリックＪＰ赤坂ビル５Ｆ,,13,103,1070052,,,,,,,2023-11-27,1,,,,,アイエックス,0
1017,5010403031388,新規,0,2023-11-27,2023-11-27,ＹＵＴＡＫＡ　Ａ　ＪＡＰＡＮ合同会社,,合同会社,東京都,港区,元麻布２丁目１番１９号２０６号室,,13,103,1060046,,,,,,,2023-11-27,1,,,,,ユタカエージャパン,0
1018,5010403031446,新規,0,2023-11-27,2023-11-27,合同会社Ａｐｒｉｒｅ,,合同会社,東京都,港区,港南４丁目６番７－２８０２号,,13,103,1080075,,,,,,,2023-11-27,1,,,,,アプリール,0
1020,5010601064198,新規,0,2023-11-27,2023-11-27,株式会社Ｋｉｏｎａ,,株式会社,東京都,江東区,豊洲４丁目４番２４号渡辺ビル１階,,13,108,1350061,,,,,,,2023-11-27,1,,,,,キオナ,0
1027,5010703006957,新規,0,2023-11-27,2023-11-27,合同会社ふたば,,合同会社,東京都,品川区,東五反田２丁目１０番１－２４１８号,,13,109,1410022,,,,,,,2023-11-27,1,,,,,フタバ,0
1030,5010801034546,新規,0,2023-11-27,2023-11-27,株式会社三日月不動産,,株式会社,東京都,大田区,蒲田５丁目４３番７号,,13,111,1440052,,,,,,,2023-11-27,1,,,,,ミカヅキフドウサン,0
1038,5011001158474,新規,0,2023-11-27,2023-11-27,株式会社ｓｉｎ,,株式会社,東京都,渋谷区,南平台町１２番９号南平台サニーハイツ２０７,,13,113,1500036,,,,,,,2023-11-27,1,,,,,,0
1041,5011003017975,新規,0,2023-11-27,2023-11-27,東京川崎コンサルティング合同会社,,合同会社,東京都,渋谷区,渋谷２丁目１９番１５号宮益坂ビルディング６０９,,13,113,1500002,,,,,,,2023-11-27,1,,,,,トウキョウカワサキコンサルティング,0
1042,5011003017991,新規,0,2023-11-27,2023-11-27,合同会社トーナス,,合同会社,東京都,渋谷区,神宮前６丁目２３番４号桑野ビル２階,,13,113,1500001,,,,,,,2023-11-27,1,,,,,トーナス,0
1050,5011101105228,新規,0,2023-11-27,2023-11-27,株式会社聯尚,,株式会社,東京都,新宿区,新宿２丁目１２番１３号新宿アントレサロンビル２階,,13,104,1600022,,,,,,,2023-11-27,1,,,,,レンショウ,0
1052,5011103013775,新規,0,2023-11-27,2023-11-27,ＭＡＣ合同会社,,合同会社,東京都,新宿区,西新宿３丁目３番１３号西新宿水間ビル２Ｆ,,13,104,1600023,,,,,,,2023-11-27,1,,,,,マック,0
1053,5011103013783,新規,0,2023-11-27,2023-11-27,合同会社ｔａｍｕｒｏ,,合同会社,東京都,新宿区,西早稲田２丁目９－１６東急ドエルアルス早稲田３０７号,,13,104,1690051,,,,,,,2023-11-27,1,,,,,タムロ,0
1055,5011401025613,新規,0,2023-11-27,2023-11-27,Ｍｉｌｅ株式会社,,株式会社,東京都,板橋区,南常盤台１丁目２２－９,,13,119,1740072,,,,,,,2023-11-27,1,,,,,マイル,0
1062,5013101009292,新規,0,2023-11-27,2023-11-27,株式会社ＥＮ‐ＴＡＫＥ,,株式会社,東京都,あきる野市,上代継４番地,,13,228,1970832,,,,,,,2023-11-27,1,,,,,エンタケ,0
1073,5020003025062,新規,0,2023-11-27,2023-11-27,合同会社ＲＵＮ,,合同会社,神奈川県,横浜市旭区,今宿東町８０９－１６,,14,112,2410032,,,,,,,2023-11-27,1,,,,,ラン,0
1096,5030003023065,新規,0,2023-11-27,2023-11-27,合同会社ＢＥＳＴＷＲＡＰ,,合同会社,埼玉県,行田市,大字和田１３７番地２,,11,206,3610061,,,,,,,2023-11-27,1,,,,,ベストラップ,0
1105,5040001131083,新規,0,2023-11-27,2023-11-27,株式会社ファイブウィン,,株式会社,千葉県,船橋市,印内３丁目３４－１－６０１,,12,204,2730039,,,,,,,2023-11-27,1,,,,,ファイブウィン,0
1110,5040003023816,新規,0,2023-11-27,2023-11-27,合同会社福成,,合同会社,千葉県,千葉市緑区,あすみが丘２丁目３番４ビバリーヒルズ５棟１０１号,,12,105,2670066,,,,,,,2023-11-27,1,,,,,フクセイ,0
1115,5060001036586,新規,0,2023-11-27,2023-11-27,株式会社高銀,,株式会社,栃木県,宇都宮市,泉が丘４丁目４番２号今泉市営住宅２号棟４１ロ号室,,09,201,3210952,,,,,,,2023-11-27,1,,,,,コウギン,0
1117,5070001041098,新規,0,2023-11-27,2023-11-27,株式会社Ａｌｓｉｓ,,株式会社,群馬県,高崎市,日高町１３７６番地,,10,202,3700002,,,,,,,2023-11-27,1,,,,,アルシス,0
1125,5080401026854,新規,0,2023-11-27,2023-11-27,ＫＩＭＰＡＲＡホールディングス株式会社,,株式会社,静岡県,浜松市北区,三方原町２１９４番地,,22,135,4338105,,,,,,,2023-11-27,1,,,,,キンパラホールディングス,0
1133,5090003002435,新規,0,2023-11-27,2023-11-27,合同会社ＰＥＬＣＬＥＡＮ,,合同会社,山梨県,甲府市,西田町２番４２号,,19,201,4000004,,,,,,,2023-11-27,1,,,,,ペルクリーン,0
1135,5100001036986,新規,0,2023-11-27,2023-11-27,株式会社メタトロンクリエイティブ,,株式会社,長野県,北佐久郡御代田町,大字御代田２５７６番地２,,20,323,3890206,,,,,,,2023-11-27,1,,,,,メタトロンクリエイティブ,0
1136,5100001037010,新規,0,2023-11-27,2023-11-27,株式会社みずのおかげ,,株式会社,長野県,須坂市,大字小河原２５８６番地１,,20,207,3820000,,,,,,,2023-11-27,1,,,,,ミズノオカゲ,0
1139,5100005013098,新規,0,2023-11-27,2023-11-27,一般社団法人クロスオーバー,,その他の設立登記法人,長野県,長野市,大字南長野西後町１５９７番地１長野表参道ビル４階,,20,201,3800845,,,,,,,2023-11-27,1,,,,,クロスオーバー,0
1147,5120001260122,新規,0,2023-11-27,2023-11-27,株式会社セールスリーチ,,株式会社,大阪府,大阪市北区,梅田１丁目２番２号大阪駅前第２ビル１２－１２,,27,127,5300001,,,,,,,2023-11-27,1,,,,,セールスリーチ,0
1148,5120001260188,新規,0,2023-11-27,2023-11-27,株式会社ＰＣＯＮＥＣＴＯ,,株式会社,大阪府,大阪市北区,角田町８－４７阪急グランドビル２０Ｆ,,27,127,5300017,,,,,,,2023-11-27,1,,,,,ピコネクト,0
1152,5120005024011,新規,0,2023-11-27,2023-11-27,一般社団法人ｓｈｉｎｗａ,,その他の設立登記法人,大阪府,大阪市中央区,今橋１丁目７番３号トラスティルグループ内,,27,128,5410042,,,,,,,2023-11-27,1,,,,,シンワ,0
1155,5122001037599,新規,0,2023-11-27,2023-11-27,株式会社ＪＣＴ,,株式会社,大阪府,東大阪市,瓜生堂１丁目１３番１－１０２号,,27,227,5780946,,,,,,,2023-11-27,1,,,,,ジェイシーティー,0
1159,5130001075767,新規,0,2023-11-27,2023-11-27,闊歩株式会社,,株式会社,京都府,京都市左京区,新丸太町７５－１１ＡＹＭ三条３０２,,26,103,6068386,,,,,,,2023-11-27,1,,,,,カッポ,0
1160,5130001075783,新規,0,2023-11-27,2023-11-27,株式会社風姿,,株式会社,京都府,京都市西京区,大原野南春日町８８９番地８,,26,111,6101153,,,,,,,2023-11-27,1,,,,,フウシ,0
1167,5140001132443,新規,0,2023-11-27,2023-11-27,株式会社ｉ．メディア,,株式会社,兵庫県,神戸市須磨区,多井畑東町１４番地の２０,,28,107,6540134,,,,,,,2023-11-27,1,,,,,アイメディア,0
1172,5150001026900,新規,0,2023-11-27,2023-11-27,株式会社ひなくみ,,株式会社,奈良県,宇陀郡御杖村,大字神末５４３３番地,,29,386,6331301,,,,,,,2023-11-27,1,,,,,ヒナクミ,0
1188,5180001159037,新規,0,2023-11-27,2023-11-27,中島株式会社,,株式会社,愛知県,名古屋市緑区,大高町字己新田１５７番地１,,23,114,4598001,,,,,,,2023-11-27,1,,,,,ナカシマ,0
1189,5180001159045,新規,0,2023-11-27,2023-11-27,株式会社ＴＳ　ＣＲＥＡＴＥ,,株式会社,愛知県,名古屋市港区,野跡１丁目４番４６号Ａ・Ｃｉｔｙ野跡１２０,,23,111,4550845,,,,,,,2023-11-27,1,,,,,ティーエスクリエイト,0
1196,5230001020119,新規,0,2023-11-27,2023-11-27,株式会社ＮＡＮＡＩＲＯ,,株式会社,富山県,射水市,緑町８番２０号,,16,211,9340014,,,,,,,2023-11-27,1,,,,,ナナイロ,0
1199,5240001062465,新規,0,2023-11-27,2023-11-27,株式会社アイリーファーム,,株式会社,広島県,広島市安佐南区,山本８丁目１０番４４‐３号,,34,105,7310137,,,,,,,2023-11-27,1,,,,,アイリーファーム,0
1200,5250001020406,新規,0,2023-11-27,2023-11-27,Ｗａｔａ株式会社,,株式会社,山口県,宇部市,中尾１丁目９番４３－５号,,35,202,7550073,,,,,,,2023-11-27,1,,,,,ワタ,0
1203,5260001038513,新規,0,2023-11-27,2023-11-27,株式会社Ｆ．Ｈスポーツクラブ,,株式会社,岡山県,岡山市北区,厚生町３丁目１番１５号岡山商工会議所ビル６Ｆ,,33,101,7000985,,,,,,,2023-11-27,1,,,,,エフエイチスポーツクラブ,0
1208,5290801030071,新規,0,2023-11-27,2023-11-27,株式会社サポートライン,,株式会社,福岡県,築上郡上毛町,大字下唐原２１４８番地２９,,40,646,8710923,,,,,,,2023-11-27,1,,,,,サポートライン,0
1215,5330003010099,新規,0,2023-11-27,2023-11-27,ＹＵＫＩ合同会社,,合同会社,熊本県,阿蘇郡西原村,大字小森３６２２－１－３０３,,43,432,8612402,,,,,,,2023-11-27,1,,,,,ユキ,0
1216,5340001026096,新規,0,2023-11-27,2023-11-27,株式会社ＳＵＮＬＥＶＩＮ,,株式会社,鹿児島県,鹿児島市,宇宿５丁目３１番８号,,46,201,8900073,,,,,,,2023-11-27,1,,,,,サンレヴィン,0
1221,5360001032869,新規,0,2023-11-27,2023-11-27,株式会社メドテック・イノベーションズ,,株式会社,沖縄県,沖縄市,与儀３丁目１４番９号,,47,211,9042174,,,,,,,2023-11-27,1,,,,,メドテックイノベーションズ,0
1233,5430001090513,新規,0,2023-11-27,2023-11-27,株式会社余市リテール,,株式会社,北海道,余市郡余市町,黒川町８８５番地４,,01,408,0460003,,,,,,,2023-11-27,1,,,,,ヨイチリテール,0
1238,5462501000972,新規,0,2023-11-27,2023-11-27,ＺＡＣＣ株式会社,,株式会社,北海道,標津郡中標津町,北町２丁目２２番地,,01,692,0861152,,,,,,,2023-11-27,1,,,,,ザック,0
1241,5480001012297,新規,0,2023-11-27,2023-11-27,株式会社ＳＵＧＡＲ　ＦＩＸ,,株式会社,徳島県,三好市,池田町マチ２１９１番地３,,36,208,7780002,,,,,,,2023-11-27,1,,,,,シュガーフィックス,0
1243,5700150037840,新規,0,2023-11-27,2015-10-09,会津労務協会,,その他,福島県,会津若松市,山鹿町１－８,,07,202,9650876,,,,,,,2015-10-09,1,,,,,アイヅロウムキヨウカイ,0
1245,5700150122254,新規,0,2023-11-27,2023-11-27,ｇｕａｎｇｚｈｏｕ　ｃｈｏｎｇａｎ　ｍａｏｙｉ　ｙｏｕｘｉａｎｇｏｎｇｓｉ,,外国会社等,,,,,,,,Ｙｕｅｘｉｕｑｕ　Ｄａｎａｎｌｕ２Ｈａｏ　１８０２ＦａｎｇＡ２２９Ｄａｎｙｕａｎ（Ｊｉｑｕｎｚｈｕｃｅ）,,,,,,2023-11-27,1,,,,,グワンジョウチョンアンマオイーヨウシエンゴンスー,0
1246,5700150122262,新規,0,2023-11-27,2023-11-27,ＨｕｎａｎＳｈｅｎｇｒｏｎｇＫｅｊｉＹｏｕｘｉａｎＧｏｎｇｓｉ,,外国会社等,,,,,,,,６０８ｈａｏＤ６ｄｏｎｇｚｈｏｎｇｄｉａｎｒｕａｎｊｉａｎｙｕａｎｅｒｑｉｊｉａｎｓｈａｎｌｕ１８ｈａｏｌｕｇｕｊｉｅｄａｏｘｉａｎｇｊｉａｎｇｘｉｎｑｕ　Ｈｕｎａｎ,,,,,,2023-11-27,1,,,,,コナンセンロンカギユウゲンコウシ,0
1247,5700150122270,新規,0,2023-11-27,2023-11-27,ｓｈｅｎｚｈｅｎｓｈｉｒｕｉｋｅｒｕｉｑｉｋｅｊｉｙｏｕｘｉａｎｇｏｎｇｓｉ,,外国会社等,,,,,,,,ｓｈｅｎｚｈｅｎｓｈｉ　ｌｏｎｇｇａｎｇｑｕ　ｂａｎｔｉａｎｊｉｅｄａｏｍａａｎｔａｎｇｓｈｅｑｕｚｈｏｎｇｘｉｎｇｌｕ１４３ｈａｏｈｏｎｇｄａｄａｓｈａ３０１－３０２,,,,,,2023-11-27,1,,,,,シンセンシルイコルイチカギユウゲンコウシ,0
1248,5700150122279,新規,0,2023-11-27,2023-11-27,ｔｉａｎｊｉｎｘｉｙｕｅｙｏｕｐｉｎｍａｏｙｉｙｏｕｘｉａｎｇｏｎｇｓｉ,,外国会社等,,,,,,,,ｂｉｎｓｈｕｉｄａｏｏｕｙａｈｕａｙｕａｎ６－５０３－Ｂ　ｈｅｘｉｑｕ　ｔｉａｎｊｉｎｓｈｉ　３０００６０　ＣＮ,,,,,,2023-11-27,1,,,,,テイエンジンシーユエヨウピンマオイーヨウシエンゴンスー,0
1249,5700150122287,新規,0,2023-11-27,2023-11-27,ＳｈａｎＸｉＢａｏＹｕＳｈａｎｇＭａｏＹｏｕＸｉａｎＧｏｎｇＳｉ,,外国会社等,,,,,,,,ＳｈａｎＸｉＳｈｅｎｇＹｕｎＣｈｅｎｇＳｈｉＹａｎＨｕＱｕＧｏｎｇＮｏｎｇＸｉＪｉｅ２９９ｈａｏＹｉＴｉｎｇＤａＳｈａＳｉＬｏｕ４１２Ｓｈｉ,,,,,,2023-11-27,1,,,,,シヤンシーバオイーシヤンマオヨウシエンゴンスー,0
1250,5700150122295,新規,0,2023-11-27,2023-11-27,Ｎｉｎｇｂｏ　Ｑｉａｎｘｉｎｇ　Ｔｒａｄｉｎｇ　Ｃｏ　Ｌｔｄ,,外国会社等,,,,,,,,Ｒｏｏｍ　４－１，Ｎｏ．１，Ｌａｎｅ　１０６６，Ｓａｎｗｕ　Ｒｏａｄ，Ｌｕｏｔｕｏ　Ｓｔｒｅｅｔ，Ｚｈｅｎｈａｉ　Ｄｉｓｔｒｉｃｔ，Ｎｉｎｇｂｏ，Ｚｈｅｊｉａｎｇ,,,,,,2023-11-27,1,,,,,ニンボーチエンシンマオイーヨウシエンゴンスー,0
1258,6010001240274,新規,0,2023-11-27,2023-11-27,Ｃｉｔｙ　Ｇｉｎｚａ株式会社,,株式会社,東京都,中央区,銀座６丁目７番６号ラペビル６階,,13,102,1040061,,,,,,,2023-11-27,1,,,,,シティーギンザ,0
1259,6010001240290,新規,0,2023-11-27,2023-11-27,株式会社Ｎａｔｕｒａｌ　Ａｒｃｈｉｔｅｃｔ,,株式会社,東京都,中央区,銀座１丁目１２－４Ｎ＆ＥＢＬＤ．７階,,13,102,1040061,,,,,,,2023-11-27,1,,,,,ナチュラルアーキテクト,0
1260,6010001240340,新規,0,2023-11-27,2023-11-27,ＩＨＵＢ株式会社,,株式会社,東京都,千代田区,神田三崎町３丁目２番１３－４０１号,,13,101,1010061,,,,,,,2023-11-27,1,,,,,アイハブ,0
1261,6010001240365,新規,0,2023-11-27,2023-11-27,株式会社ＯＧＡ,,株式会社,東京都,中央区,日本橋室町１丁目１１番１２号日本橋水野ビル７階,,13,102,1030022,,,,,,,2023-11-27,1,,,,,オージーエー,0
1263,6010003042297,新規,0,2023-11-27,2023-11-27,Ｋｕｒｏｋｉ合同会社,,合同会社,東京都,千代田区,飯田橋２丁目１６番４号九段下コート２階２０３号室,,13,101,1020072,,,,,,,2023-11-27,1,,,,,クロキ,0
1264,6010003042306,新規,0,2023-11-27,2023-11-27,合同会社三歩,,合同会社,東京都,中央区,日本橋室町１丁目１１番１２号日本橋水野ビル７階,,13,102,1030022,,,,,,,2023-11-27,1,,,,,サンポ,0
1269,6010401178734,新規,0,2023-11-27,2023-11-27,株式会社インザフォレスト,,株式会社,東京都,港区,港南４丁目２番７－３９１５号,,13,103,1080075,,,,,,,2023-11-27,1,,,,,,0
1270,6010403031420,新規,0,2023-11-27,2023-11-27,Ｎｏｖａ合同会社,,合同会社,東京都,港区,芝浦２丁目１４番１８号サカイビル５階,,13,103,1080023,,,,,,,2023-11-27,1,,,,,ノヴァ,0
1278,6010801034537,新規,0,2023-11-27,2023-11-27,マルサイ化学産業株式会社,,株式会社,東京都,大田区,南蒲田１丁目４番１号,,13,111,1440035,,,,,,,2023-11-27,1,,,,,マルサイカガクサンギョウ,0
1288,6011001158449,新規,0,2023-11-27,2023-11-27,株式会社ＧＩＦＴＯ,,株式会社,東京都,渋谷区,恵比寿西１丁目３３番６号１Ｆ,,13,113,1500021,,,,,,,2023-11-27,1,,,,,ギフト,0
1289,6011003017982,新規,0,2023-11-27,2023-11-27,ＦＬＹ合同会社,,合同会社,東京都,渋谷区,恵比寿西２丁目８番４号ＥＸ恵比寿西ビル５階,,13,113,1500021,,,,,,,2023-11-27,1,,,,,フライ,0
1290,6011005010283,新規,0,2023-11-27,2023-11-27,一般財団法人日本ウエルネス協会,,その他の設立登記法人,東京都,目黒区,緑が丘１丁目６番３号,,13,110,1520034,,,,,,,2023-11-27,1,,,,,ニホンウエルネスキョウカイ,0
1292,6011101105243,新規,0,2023-11-27,2023-11-27,ワイプファクトリー株式会社,,株式会社,東京都,新宿区,西新宿３丁目９－７フロンティア新宿タワーオフィス２Ｆ,,13,104,1600023,,,,,,,2023-11-27,1,,,,,ワイプファクトリー,0
1293,6011103013782,新規,0,2023-11-27,2023-11-27,合同会社エフエムエスアール,,合同会社,東京都,新宿区,西新宿３丁目３番１３号西新宿水間ビル６階,,13,104,1600023,,,,,,,2023-11-27,1,,,,,,0
1294,6011105010869,新規,0,2023-11-27,2023-11-27,一般社団法人飯田橋ともじり皮ふ科,,その他の設立登記法人,東京都,新宿区,神楽坂１丁目１０神楽坂アイダビル５階,,13,104,1620825,,,,,,,2023-11-27,1,,,,,イイダバシトモジリヒフカ,0
1296,6011203004236,新規,0,2023-11-27,2023-11-27,合同会社ＢＲＡＳＨ,,合同会社,東京都,中野区,本町２丁目２８番１１号,,13,114,1640012,,,,,,,2023-11-27,1,,,,,ブラッシュ,0
1297,6011303004978,新規,0,2023-11-27,2023-11-27,合同会社Ａｍｐｌｅｓｔ,,合同会社,東京都,杉並区,上井草３丁目３８番３号第２上井草パールマンション２０３,,13,115,1670023,,,,,,,2023-11-27,1,,,,,アンプレスト,0
1299,6011401025637,新規,0,2023-11-27,2023-11-27,株式会社青空商会,,株式会社,東京都,板橋区,大山町３－６ビアンハイム,,13,119,1730023,,,,,,,2023-11-27,1,,,,,アオゾラショウカイ,0
1301,6011601027318,新規,0,2023-11-27,2023-11-27,株式会社Ｌ‐ＢＯＸ,,株式会社,東京都,練馬区,豊玉北５丁目１５番１２号花園ビル５階,,13,120,1760012,,,,,,,2023-11-27,1,,,,,エルボックス,0
1307,6012401041260,新規,0,2023-11-27,2023-11-27,株式会社ゼロワン,,株式会社,東京都,武蔵野市,吉祥寺本町２丁目５番１号アヴァンセ吉祥寺４０３,,13,203,1800004,,,,,,,2023-11-27,1,,,,,ゼロワン,0
1308,6012403006294,新規,0,2023-11-27,2023-11-27,合同会社Ａｂｉｌｉｚｅ,,合同会社,東京都,武蔵野市,吉祥寺本町１丁目３２番９号吉祥寺モトハシビル３０８,,13,203,1800004,,,,,,,2023-11-27,1,,,,,アビライズ,0
1310,6012801022785,新規,0,2023-11-27,2023-11-27,株式会社ＤＥＮＡＬＩ,,株式会社,東京都,立川市,錦町６丁目１１－２１杉田ビル３０５号室,,13,202,1900022,,,,,,,2023-11-27,1,,,,,デナリ,0
1322,6020001154572,新規,0,2023-11-27,2023-11-27,株式会社キッズトミー,,株式会社,神奈川県,横浜市西区,浅間町１丁目４番３号ウィザードビル４０２,,14,103,2200072,,,,,,,2023-11-27,1,,,,,キッズトミー,0
1323,6020001154606,新規,0,2023-11-27,2023-11-27,株式会社Ｐｅｅｖｏ,,株式会社,神奈川県,横浜市神奈川区,菅田町１０９１番地１ダイアパレス菅田３０５号,,14,102,2210864,,,,,,,2023-11-27,1,,,,,ピーヴォ,0
1324,6020001154614,新規,0,2023-11-27,2023-11-27,株式会社ミスティックフラワー,,株式会社,神奈川県,横浜市青葉区,鉄町１７５０番地４・ボナール６・１０８号室,,14,117,2250025,,,,,,,2023-11-27,1,,,,,ミスティックフラワー,0
1325,6020001154655,新規,0,2023-11-27,2023-11-27,株式会社漸屋,,株式会社,神奈川県,横浜市港南区,港南台１丁目２５番２１－１０７号,,14,111,2340054,,,,,,,2023-11-27,1,,,,,ゼンヤ,0
1326,6020001154663,新規,0,2023-11-27,2023-11-27,株式会社本吉,,株式会社,神奈川県,川崎市多摩区,宿河原２丁目３７番２０号,,14,135,2140021,,,,,,,2023-11-27,1,,,,,ホンキチ,0
1341,6030001156493,新規,0,2023-11-27,2023-11-27,株式会社ＢＢＨｃｏｒｐ,,株式会社,埼玉県,川越市,新宿町３丁目１４番地６３,,11,201,3501124,,,,,,,2023-11-27,1,,,,,ビービーエイチコープ,0
1342,6030001157236,新規,0,2023-11-27,2023-11-27,株式会社夢愛,,株式会社,埼玉県,飯能市,仲町１４－１１,,11,209,3570038,,,,,,,2023-11-27,1,,,,,ユア,0
1343,6030001157310,新規,0,2023-11-27,2023-11-27,岡安建築株式会社,,株式会社,埼玉県,久喜市,間鎌２９９番地１８,,11,232,3491123,,,,,,,2023-11-27,1,,,,,オカヤスケンチク,0
1344,6030001157335,新規,0,2023-11-27,2023-11-27,三幸商運株式会社,,株式会社,埼玉県,八潮市,大字伊勢野２１８番地１,,11,234,3400821,,,,,,,2023-11-27,1,,,,,サンコウショウウン,0
1345,6030001157343,新規,0,2023-11-27,2023-11-27,株式会社ワイズ,,株式会社,埼玉県,川口市,坂下町３丁目２６番６号,,11,203,3340003,,,,,,,2023-11-27,1,,,,,ワイズ,0
1356,6040001131116,新規,0,2023-11-27,2023-11-27,株式会社Ｔ‐ＮＥＸＴ,,株式会社,千葉県,市原市,五井４７３９番地２リヴィエール１０３号,,12,219,2900056,,,,,,,2023-11-27,1,,,,,ティーネクスト,0
1358,6040003023798,新規,0,2023-11-27,2023-11-27,ＫＨＡＩ　ＡＮ　ＭＯＢＩＬＥ合同会社,,合同会社,千葉県,柏市,泉町６番３８号サポーレ柏２０５号,,12,217,2770022,,,,,,,2023-11-27,1,,,,,カイアンモバイル,0
1361,6060001036560,新規,0,2023-11-27,2023-11-27,株式会社わんにゃん,,株式会社,栃木県,宇都宮市,鶴田町１９５７－９,,09,201,3200851,,,,,,,2023-11-27,1,,,,,ワンニャン,0
1362,6060001036569,新規,0,2023-11-27,2023-11-27,ＦＡＺＡＬ　ＴＲＡＤＩＮＧ株式会社,,株式会社,栃木県,栃木市,岩舟町新里１３０４番地－３８号室,,09,203,3294316,,,,,,,2023-11-27,1,,,,,ファザルトレーディング,0
1368,6070001041114,新規,0,2023-11-27,2023-11-27,株式会社ＪＦＥ,,株式会社,群馬県,沼田市,下之町８２７番地,,10,206,3780044,,,,,,,2023-11-27,1,,,,,,0
1369,6070001041122,新規,0,2023-11-27,2023-11-27,株式会社観光農園うーちゃん家,,株式会社,群馬県,伊勢崎市,香林町１丁目１３０５番地４,,10,204,3792206,,,,,,,2023-11-27,1,,,,,カンコウノウエンウーチャンチ,0
1379,6110001037990,新規,0,2023-11-27,2023-11-27,株式会社テイクケア・ジャパン,,株式会社,新潟県,見附市,今町２丁目４番３８号,,15,211,9540111,,,,,,,2023-11-27,1,,,,,テイクケアジャパン,0
1389,6120001260039,新規,0,2023-11-27,2023-11-27,株式会社Ｐ＆ＮＥＷ,,株式会社,大阪府,大阪市中央区,徳井町２丁目２－１４日宝徳井ビル４階,,27,128,5400025,,,,,,,2023-11-27,1,,,,,ピーアンドニュー,0
1390,6120001260121,新規,0,2023-11-27,2023-11-27,株式会社ＲＥ‐Ｑ　ＪＡＰＡＮネクスト,,株式会社,大阪府,大阪市西区,北堀江１丁目１番２４号四ツ橋近商ビル４Ｂ,,27,106,5500014,,,,,,,2023-11-27,1,,,,,リキュウジャパンネクスト,0
1391,6120001260154,新規,0,2023-11-27,2023-11-27,株式会社Ｐｒｅｃｉｏｕｓ,,株式会社,大阪府,大阪市東成区,深江北３丁目２番６号,,27,115,5370001,,,,,,,2023-11-27,1,,,,,プレシャス,0
1392,6120001260187,新規,0,2023-11-27,2023-11-27,株式会社ｄａｒａｚ,,株式会社,大阪府,大阪市北区,芝田２丁目８番１１号,,27,127,5300012,,,,,,,2023-11-27,1,,,,,ダラズ,0
1393,6120003025415,新規,0,2023-11-27,2023-11-27,合同会社黒船,,合同会社,大阪府,大阪市天王寺区,空堀町１２番１２－３０６号,,27,109,5430012,,,,,,,2023-11-27,1,,,,,クロフネ,0
1394,6120005024010,新規,0,2023-11-27,2023-11-27,一般社団法人ともしび,,その他の設立登記法人,大阪府,大阪市北区,南森町１丁目３番２９号ＭＳＴ南森町ビル５０３,,27,127,5300054,,,,,,,2023-11-27,1,,,,,トモシビ,0
1395,6120101068563,新規,0,2023-11-27,2023-11-27,株式会社ＥＴＯプランニング,,株式会社,大阪府,泉南郡熊取町,大久保中３丁目２２番１－９号,,27,361,5900403,,,,,,,2023-11-27,1,,,,,イーティーオープランニング,0
1402,6130003009160,新規,0,2023-11-27,2023-11-27,合同会社四五六,,合同会社,京都府,京都市中京区,西ノ京職司町６９番地インパクトイク北３０６,,26,104,6048381,,,,,,,2023-11-27,1,,,,,ヨンゴーロク,0
1404,6140001132384,新規,0,2023-11-27,2023-11-27,禮遇株式会社,,株式会社,兵庫県,尼崎市,塚口町１丁目５番地の１,,28,202,6610002,,,,,,,2023-11-27,1,,,,,レイグウ,0
1405,6140001132442,新規,0,2023-11-27,2023-11-27,清水機工設備株式会社,,株式会社,兵庫県,多可郡多可町,中区安楽田４０６番地１,,28,365,6791102,,,,,,,2023-11-27,1,,,,,シミズキコウセツビ,0
1406,6140001132467,新規,0,2023-11-27,2023-11-27,まったり株式会社,,株式会社,兵庫県,西宮市,甲子園浦風町２番１１－３号,,28,204,6638165,,,,,,,2023-11-27,1,,,,,マッタリ,0
1407,6140001132483,新規,0,2023-11-27,2023-11-27,Ｅｘｐｏｒｔａｄｏｒａ　ｏｒｉｅｎｔａｌ　Ｒａｍｉｒｅｚ株式会社,,株式会社,兵庫県,加西市,鶉野町１９５７番地,,28,220,6752103,,,,,,,2023-11-27,1,,,,,エクスポルタドラオリエンタルラミレス,0
1411,6140005026806,新規,0,2023-11-27,2023-11-27,一般社団法人丹波篠山いぬねこ友の会,,その他の設立登記法人,兵庫県,丹波篠山市,今田町本荘６番地３,,28,221,6692163,,,,,,,2023-11-27,1,,,,,タンバササヤマイヌネコトモノカイ,0
1420,6180001159052,新規,0,2023-11-27,2023-11-27,株式会社ＮＫ,,株式会社,愛知県,名古屋市中川区,中郷３丁目２６２番地の１,,23,110,4540921,,,,,,,2023-11-27,1,,,,,エヌケー,0
1424,6180301038055,新規,0,2023-11-27,2023-11-27,株式会社くわたか不動産,,株式会社,愛知県,豊田市,小坂本町８丁目７１番地,,23,211,4710034,,,,,,,2023-11-27,1,,,,,クワタカフドウサン,0
1429,6240001062464,新規,0,2023-11-27,2023-11-27,偉誠設備株式会社,,株式会社,広島県,広島市西区,福島町１丁目６番１－３０４号,,34,104,7330024,,,,,,,2023-11-27,1,,,,,イセイセツビ,0
1430,6240003006428,新規,0,2023-11-27,2023-11-27,合同会社スマイルハッチ,,合同会社,広島県,安芸郡府中町,宮の町２丁目９番２０号,,34,302,7350005,,,,,,,2023-11-27,1,,,,,スマイルハッチ,0
1431,6260005011300,新規,0,2023-11-27,2023-11-27,一般社団法人こどもみらい機構,,その他の設立登記法人,岡山県,岡山市北区,弓之町１３番８号８０２,,33,101,7000817,,,,,,,2023-11-27,1,,,,,コドモミライキコウ,0
1440,6290001103817,新規,0,2023-11-27,2023-11-27,株式会社千里庵,,株式会社,福岡県,福岡市博多区,冷泉町１０－２３博多冷泉町ビル２階,,40,132,8120039,,,,,,,2023-11-27,1,,,,,センリアン,0
1441,6290001103825,新規,0,2023-11-27,2023-11-27,藍講株式会社,,株式会社,福岡県,糟屋郡粕屋町,大字上大隈３５２番地１０－４０１号,,40,349,8112301,,,,,,,2023-11-27,1,,,,,アイコウ,0
1446,6290003014649,新規,0,2023-11-27,2023-11-27,合同会社形勢逆転,,合同会社,福岡県,福岡市博多区,比恵町１８－５チェスナッツ比恵９０２,,40,132,8120014,,,,,,,2023-11-27,1,,,,,,0
1447,6290801030070,新規,0,2023-11-27,2023-11-27,株式会社久保崎ソリューションズ,00132792,株式会社,福岡県,北九州市小倉北区,平松町４番１８号,,40,106,8030832,,,,,,,2023-11-27,1,,,,,クボサキソリューションズ,0
1448,6300001013535,新規,0,2023-11-27,2023-11-27,株式会社アンジュ,,株式会社,佐賀県,小城市,小城町畑田２５００番地９,,41,208,8450002,,,,,,,2023-11-27,1,,,,,アンジュ,0
1453,6340001026095,新規,0,2023-11-27,2023-11-27,株式会社想,,株式会社,鹿児島県,曽於郡大崎町,假宿３４５９番地,,46,468,8997305,,,,,,,2023-11-27,1,,,,,ソウ,0
1455,6360001032868,新規,0,2023-11-27,2023-11-27,株式会社照栄サービス,,株式会社,沖縄県,浦添市,港川１丁目３６番７号－１０２号,,47,208,9012134,,,,,,,2023-11-27,1,,,,,ショウエイサービス,0
1458,6360003013511,新規,0,2023-11-27,2023-11-27,合同会社かなさん,,合同会社,沖縄県,豊見城市,字高嶺３７０番地９レーガ豊見城１０３号,,47,212,9010213,,,,,,,2023-11-27,1,,,,,カナサン,0
1459,6370003006398,新規,0,2023-11-27,2023-11-27,合同会社鍵粋,,合同会社,宮城県,仙台市青葉区,本町１丁目５番２８号カーニープレイス仙台駅前通６０３号室,,04,101,9800014,,,,,,,2023-11-27,1,,,,,カギスイ,0
1462,6380001034152,新規,0,2023-11-27,2023-11-27,株式会社源興産,,株式会社,福島県,郡山市,大槻町字針生北１８番地の１４,,07,203,9630201,,,,,,,2023-11-27,1,,,,,ミナモトコウサン,0
1472,6430001090512,新規,0,2023-11-27,2023-11-27,株式会社大麻商事,,株式会社,北海道,江別市,工栄町２７番地の３,,01,217,0670051,,,,,,,2023-11-27,1,,,,,オオアサショウジ,0
1491,6700150122253,新規,0,2023-11-27,2023-11-27,Ｗｅｉ　Ｌａｉ　Ｃｈｕａｎ　Ｄａｉ（Ｈａｉ　Ｎａｎ）Ｊｉ　Ｓｈｕ　Ｙｏｕ　Ｘｉａｎ　Ｇｏｎｇ　Ｓｉ,,外国会社等,,,,,,,,ｈａｉｎａｎｓｈｅｎｇｃｈｅｎｇｍａｉｘｉａｎｌａｏｃｈｅｎｇｚｈｅｎｈａｉｎａｎｓｈｅｎｇｔａｉｒｕａｎｊｉａｎｙｕａｎｗｏｋｅｇｏｎｇｙｕａｎ８８０９ｄｏｎｇ５０２ｓｈｉ,,,,,,2023-11-27,1,,,,,ウェイライチュワンダイハイナンジーシューヨウシエンゴンスー,0
1492,6700150122261,新規,0,2023-11-27,2023-11-27,ｔａｉｙｕａｎｊｉａｈｅｎｇｋｅｊｉｙｏｕｘｉａｎｇｏｎｇｓｉ,,外国会社等,,,,,,,,ｘｉ　ｙｕ　ｊｉｅ　１８　ｈａｏ　２　ｌｏｕ　３　ｄａｎ　ｙｕａｎ　４０３　ｈｕ　ｔａｉ　ｙｕａｎ　ｓｈｉ　ｊｉｎ　ｙｕａｎ　ｑｕ　ｓｈａｎ　ｘｉ　ｓｈｅｎｇ　０３００２１　ＣＮ,,,,,,2023-11-27,1,,,,,タイユエンジャーホンコージーヨウシエンゴンスー,0
1493,6700150122278,新規,0,2023-11-27,2023-11-27,Ｇｕａｎｇｚｈｏｕ　Ｈａｎｈｅｗｅｉ　Ｔｒａｄｉｎｇ　Ｃｏ．，Ｌｔｄ．,,外国会社等,,,,,,,,Ｒｏｏｍ　６０３，Ｎｏ．４７３，Ｈａｎｙｕｎ　Ｒｏａｄ，Ｂａｉｙｕｎ　Ｄｉｓｔｒｉｃｔ，Ｇｕａｎｇｚｈｏｕ　Ｃｉｔｙ　（Ｐａｒｔ　２）,,,,,,2023-11-27,1,,,,,グワンジヨウハンホーウエイマオイーヨウシエンゴンスー,0
1494,6700150122286,新規,0,2023-11-27,2023-11-27,ＮＡＮＪＩＮＧ　ＹＯＵＸＩＮ　ＦＵＺＨＵＡＮＧＭＡＯＹＩＹＯＵＸＩＡＮＧＯＮＧＳＩ,,外国会社等,,,,,,,,ＮＡＮＪＩＮＧＳＨＩ　ＪＩＡＮＧＢＥＩＸＩＮＱＵ　ＸＩＮＧＺＨＩＬＵ２ＨＡＯ　２ＤＯＮＧ　８０７ＳＨＩ　ＮＡＮＪＩＮＧ　ＪＩＡＮＧＳＵＳＨＥＮＧ　２２００００　ＣＮ,,,,,,2023-11-27,1,,,,,ナンジンヨウシンフージユワンマオイーヨウシエンゴンスー,0
1495,6700150122294,新規,0,2023-11-27,2023-11-27,Ｈｕｎａｎ　Ｚｈｕｏｊｉａｎ　ｅｌｅｃｔｒｏｎｉｃ　Ｔｅｃｈｎｏｌｏｇｙ　Ｃｏ．，ＬＴＤ,,外国会社等,,,,,,,,Ｎｏ．０３３，ｔｈｅ　ｓｅｃｏｎｄ　ｖｉｌｌａｇｅｒ　Ｇｒｏｕｐ，Ｗｅｎｔｉａｎ　Ｖｉｌｌａｇｅ，Ｗｅｎｔｉａｎ　Ｔｏｗｎ，Ｘｉｎｈｕａ　Ｃｏｕｎｔｙ，Ｌｏｕｄｉ　Ｃｉｔｙ，Ｈｕｎａｎ　Ｐｒｏｖｉｎｃｅ,,,,,,2023-11-27,1,,,,,フーナンシヨンジユオジエンデイエンズーコージーヨウシエンゴンスー,0
1508,7010001240323,新規,0,2023-11-27,2023-11-27,株式会社ナチュラル・ラボラトリー,,株式会社,東京都,中央区,日本橋堀留町１丁目１０番１号カクタビル２Ｆ,,13,102,1030012,,,,,,,2023-11-27,1,,,,,ナチュラルラボラトリー,0
1509,7010001240356,新規,0,2023-11-27,2023-11-27,智成株式会社,,株式会社,東京都,中央区,日本橋茅場町３丁目８－１０リベラ茅場町７Ｆ,,13,102,1030025,,,,,,,2023-11-27,1,,,,,チセイ,0
1521,7010401178691,新規,0,2023-11-27,2023-11-27,株式会社ＦＤＧ　Ａ,,株式会社,東京都,港区,赤坂２丁目１８番１４号赤坂ＳＴビル２階,,13,103,1070052,,,,,,,2023-11-27,1,,,,,エフディージーエー,0
1522,7010401178766,新規,0,2023-11-27,2023-11-27,株式会社Ｄｉａｎａ,,株式会社,東京都,港区,南青山２丁目２番１５号,,13,103,1070062,,,,,,,2023-11-27,1,,,,,ダイアナ,0
1527,7010601064205,新規,0,2023-11-27,2023-11-27,株式会社リバイブ,,株式会社,東京都,墨田区,横川５丁目９－４－２０７,,13,107,1300003,,,,,,,2023-11-27,1,,,,,リバイブ,0
1531,7010801034544,新規,0,2023-11-27,2023-11-27,株式会社ＹＤＫ,,株式会社,東京都,大田区,山王４丁目１４番８号メゾン・ド・ミサ４０３,,13,111,1430023,,,,,,,2023-11-27,1,,,,,ワイデーケー,0
1532,7010801034552,新規,0,2023-11-27,2023-11-27,株式会社ＦＯＣＵＳ,,株式会社,東京都,大田区,鵜の木３丁目５番２号ｔｒａｃｅｒｙ・ｒｏｏｍ４,,13,111,1460091,,,,,,,2023-11-27,1,,,,,フォーカス,0
1544,7011001158448,新規,0,2023-11-27,2023-11-27,ＫＩＴＡＩ株式会社,,株式会社,東京都,渋谷区,道玄坂１丁目１０番８号渋谷道玄坂東急ビル２Ｆ－Ｃ,,13,113,1500043,,,,,,,2023-11-27,1,,,,,キタイ,0
1547,7011003017825,新規,0,2023-11-27,2023-11-27,合同会社ＯＰＴ,,合同会社,東京都,渋谷区,神泉町１０番１５号,,13,113,1500045,,,,,,,2023-11-27,1,,,,,オプト,0
1548,7011003017965,新規,0,2023-11-27,2023-11-27,合同会社ライフバディ,,合同会社,東京都,渋谷区,代々木１丁目５４－８アビエス代々木１Ｆ,,13,113,1510053,,,,,,,2023-11-27,1,,,,,ライフバディ,0
1549,7011003017973,新規,0,2023-11-27,2023-11-27,３４８合同会社,,合同会社,東京都,渋谷区,渋谷２丁目１９－１５宮益坂ビルディング６０９,,13,113,1500002,,,,,,,2023-11-27,1,,,,,サンヨンハチ,0
1550,7011003017981,新規,0,2023-11-27,2023-11-27,Ｌ＆Ｍｅｔｅｏｒ合同会社,,合同会社,東京都,目黒区,中目黒４丁目６番１－３０７号プラウド中目黒,,13,110,1530061,,,,,,,2023-11-27,1,,,,,エルアンドメテオ,0
1555,7011101105218,新規,0,2023-11-27,2023-11-27,東京ＳＲ株式会社,,株式会社,東京都,新宿区,北新宿１丁目１－１６ＪＳビル９０３号,,13,104,1690074,,,,,,,2023-11-27,1,,,,,トウキョウエスアール,0
1556,7011101105242,新規,0,2023-11-27,2023-11-27,ＤＧ株式会社,,株式会社,東京都,新宿区,西新宿３丁目３番１３号西新宿水間ビル６階,,13,104,1600023,,,,,,,2023-11-27,1,,,,,ディージー,0
1557,7011105010868,新規,0,2023-11-27,2023-11-27,一般社団法人友明会,,その他の設立登記法人,東京都,新宿区,西新宿１丁目４番１０号フジタ新宿ウエストビル３階,,13,104,1600023,,,,,,,2023-11-27,1,,,,,ユウメイカイ,0
1561,7011303004977,新規,0,2023-11-27,2023-11-27,合同会社ガジュマルの樹,,合同会社,東京都,杉並区,阿佐谷北３丁目４３番６号,,13,115,1660001,,,,,,,2023-11-27,1,,,,,ガジュマルノキ,0
1562,7011401025636,新規,0,2023-11-27,2023-11-27,Ｏｒａｎｇｅｓｋｙ株式会社,,株式会社,東京都,板橋区,小茂根２丁目１２－１０－１階,,13,119,1730037,,,,,,,2023-11-27,1,,,,,オレンジスカイ,0
1568,7011701026788,新規,0,2023-11-27,2023-11-27,Ａ＆Ｊ株式会社,,株式会社,東京都,江戸川区,南小岩５丁目２０－３ヴィラ四宮３０１,,13,123,1330056,,,,,,,2023-11-27,1,,,,,エーアンドジェイ,0
1570,7012401041251,新規,0,2023-11-27,2023-11-27,株式会社ＯＦＦＩＣＥ　ＳＨＩＢＡＣＨＡＮ,,株式会社,東京都,小金井市,梶野町１丁目２番３６号,,13,210,1840002,,,,,,,2023-11-27,1,,,,,オフィスシバチャン,0
1589,7020003025060,新規,0,2023-11-27,2023-11-27,合同会社ＨＹＹプランニング,,合同会社,神奈川県,川崎市多摩区,宿河原２丁目２９番１号３０５号室,,14,135,2140021,,,,,,,2023-11-27,1,,,,,エイチワイワイプランニング,0
1590,7021001080840,新規,0,2023-11-27,2023-11-27,株式会社Ｓｅｅｅｅｄ,,株式会社,神奈川県,海老名市,国分北２丁目７－３３－３０４,,14,215,2430406,,,,,,,2023-11-27,1,,,,,シード,0
1602,7030001157367,新規,0,2023-11-27,2023-11-27,株式会社ｔｏｆｌＡｐ,,株式会社,埼玉県,川口市,元郷３丁目２番２号,,11,203,3320011,,,,,,,2023-11-27,1,,,,,トゥーフラップ,0
1611,7040001131107,新規,0,2023-11-27,2023-11-27,株式会社ガレージ宮美,,株式会社,千葉県,香取市,多田２０７１番地の１,,12,236,2870014,,,,,,,2023-11-27,1,,,,,,0
1614,7040003023814,新規,0,2023-11-27,2023-11-27,合同会社Ｌａｎｄ,,合同会社,千葉県,君津市,東坂田２丁目９番１２号２０２,,12,225,2991144,,,,,,,2023-11-27,1,,,,,ランド,0
1617,7050003007956,新規,0,2023-11-27,2023-11-27,合同会社Ａｖａｌｏｎ,,合同会社,茨城県,神栖市,大野原２丁目２９－４１,,08,232,3140144,,,,,,,2023-11-27,1,,,,,アヴァロン,0
1618,7060001036576,新規,0,2023-11-27,2023-11-27,株式会社ＳＦ　ｂａｓｅ,,株式会社,栃木県,足利市,島田町６４９番地３,,09,202,3260337,,,,,,,2023-11-27,1,,,,,エスエフベース,0
1622,7080103002929,新規,0,2023-11-27,2023-11-27,合同会社ワンズカルチャースクール,,合同会社,静岡県,田方郡函南町,丹那１３１２番地の２１８,,22,325,4190105,,,,,,,2023-11-27,1,,,,,ワンズカルチャースクール,0
1625,7090003002433,新規,0,2023-11-27,2023-11-27,合同会社トライホーク,,合同会社,山梨県,富士吉田市,上吉田東５丁目８番３６号ソレイユ１０１号,,19,202,4030032,,,,,,,2023-11-27,1,,,,,トライホーク,0
1628,7100001036976,新規,0,2023-11-27,2023-11-27,株式会社秋芳企画,,株式会社,長野県,千曲市,上山田温泉１丁目６９番地３,,20,218,3890821,,,,,,,2023-11-27,1,,,,,シュウホウキカク,0
1629,7100001037000,新規,0,2023-11-27,2023-11-27,株式会社ｃａｌｌ,,株式会社,長野県,上伊那郡南箕輪村,５４２４番地７,,20,385,3994511,,,,,,,2023-11-27,1,,,,,コール,0
1639,7120001260062,新規,0,2023-11-27,2023-11-27,株式会社橋本工業,,株式会社,大阪府,大阪市西成区,松２丁目１番３２号ＦＤＳＦｉｅｒｔｅ２０８号,,27,122,5570034,,,,,,,2023-11-27,1,,,,,ハシモトコウギョウ,0
1640,7120001260095,新規,0,2023-11-27,2023-11-27,株式会社中西ホールディングス,,株式会社,大阪府,大阪市港区,福崎２丁目８番３９号,,27,107,5520013,,,,,,,2023-11-27,1,,,,,ナカニシホールディングス,0
1641,7120001260112,新規,0,2023-11-27,2023-11-27,株式会社カウダム,,株式会社,大阪府,大阪市西成区,南津守６丁目１番１０５－２５号,,27,122,5570063,,,,,,,2023-11-27,1,,,,,カウダム,0
1642,7120001260129,新規,0,2023-11-27,2023-11-27,株式会社未来建設,,株式会社,大阪府,守口市,佐太中町３丁目７番１３号,,27,209,5700002,,,,,,,2023-11-27,1,,,,,ミライケンセツ,0
1643,7120001260153,新規,0,2023-11-27,2023-11-27,株式会社アクアス,,株式会社,大阪府,大阪市北区,梅田１丁目２番２号大阪駅前第２ビル１２－１２,,27,127,5300001,,,,,,,2023-11-27,1,,,,,アクアス,0
1644,7120001260186,新規,0,2023-11-27,2023-11-27,ＰＩＣＫ　ＣＡＲＲＹ株式会社,,株式会社,大阪府,大阪市北区,梅田１丁目１番３号大阪駅前第３ビル２９階１－１－１号室,,27,127,5300001,,,,,,,2023-11-27,1,,,,,ピックキャリー,0
1646,7120003025406,新規,0,2023-11-27,2023-11-27,ＯＭＩＺＵ合同会社,,合同会社,大阪府,寝屋川市,黒原旭町１６－４,,27,215,5720057,,,,,,,2023-11-27,1,,,,,オオミズ,0
1651,7120901048417,新規,0,2023-11-27,2023-11-27,ＬＵＸＥ建材株式会社,,株式会社,大阪府,吹田市,千里丘北１番２８－１３１１号,,27,205,5650815,,,,,,,2023-11-27,1,,,,,リュクスケンザイ,0
1653,7122001037606,新規,0,2023-11-27,2023-11-27,ユニオン株式会社,,株式会社,大阪府,東大阪市,衣摺４丁目２５番２４号,,27,227,5770827,,,,,,,2023-11-27,1,,,,,ユニオン,0
1663,7130001075807,新規,0,2023-11-27,2023-11-27,ＭＯＮ　ＨＯＴＥＬ株式会社,,株式会社,京都府,京都市中京区,上一文字町２８５ＭＯＮビルディング,,26,104,6048325,,,,,,,2023-11-27,1,,,,,モンホテル,0
1667,7140001132466,新規,0,2023-11-27,2023-11-27,株式会社スミモザ,,株式会社,兵庫県,神戸市中央区,磯辺通４丁目１番２８号,,28,110,6510084,,,,,,,2023-11-27,1,,,,,スミモザ,0
1678,7180001159035,新規,0,2023-11-27,2023-11-27,株式会社ＳＡＬＯＮＤＥＣ,,株式会社,愛知県,名古屋市昭和区,荒田町１丁目１７番地,,23,107,4660844,,,,,,,2023-11-27,1,,,,,サロンドシー,0
1679,7180001159051,新規,0,2023-11-27,2023-11-27,株式会社ブライトフューチャー,,株式会社,愛知県,東海市,富木島町東脇２１番地１,,23,222,4760011,,,,,,,2023-11-27,1,,,,,ブライトフューチャー,0
1681,7180003026027,新規,0,2023-11-27,2023-11-27,合同会社マーブル,,合同会社,愛知県,名古屋市東区,泉３丁目１番１８号,,23,102,4610001,,,,,,,2023-11-27,1,,,,,マーブル,0
1682,7180003026035,新規,0,2023-11-27,2023-11-27,合同会社四軒家総研,,合同会社,愛知県,名古屋市守山区,森孝東１丁目１２２番地,,23,113,4630033,,,,,,,2023-11-27,1,,,,,シケンヤソウケン,0
1690,7240001062455,新規,0,2023-11-27,2023-11-27,ＨＩＹＯＳＨＩ株式会社,,株式会社,広島県,福山市,瀬戸町地頭分１１８３－３－１０２,,34,207,7210000,,,,,,,2023-11-27,1,,,,,ヒヨシ,0
1691,7240003006419,新規,0,2023-11-27,2023-11-27,村鑑合同会社,,合同会社,広島県,福山市,駅家町大字万能倉３５番地１８３,,34,207,7201131,,,,,,,2023-11-27,1,,,,,ムラカン,0
1696,7290001103816,新規,0,2023-11-27,2023-11-27,株式会社ＳＵＢＴＥＸＴ,,株式会社,福岡県,福岡市中央区,草香江２丁目２－３－６０５号,,40,133,8100045,,,,,,,2023-11-27,1,,,,,,0
1700,7290003014648,新規,0,2023-11-27,2023-11-27,ルアナ合同会社,,合同会社,福岡県,福岡市東区,千早５丁目４番２５－７０８号ルネッサンス２１千早,,40,131,8130044,,,,,,,2023-11-27,1,,,,,ルアナ,0
1709,7320001020157,新規,0,2023-11-27,2023-11-27,株式会社颯電工,,株式会社,大分県,中津市,大字蛎瀬４６６番地１,,44,203,8710007,,,,,,,2023-11-27,1,,,,,ハヤテデンコウ,0
1711,7330001031517,新規,0,2023-11-27,2023-11-27,サンコア流通株式会社,,株式会社,熊本県,玉名市,大倉１７８１－１,,43,206,8650023,,,,,,,2023-11-27,1,,,,,サンコアリュウツウ,0
1716,7360001032867,新規,0,2023-11-27,2023-11-27,うるま石川学校給食サービス株式会社,,株式会社,沖縄県,うるま市,与那城平安座８２９０番地,,47,213,9042426,,,,,,,2023-11-27,1,,,,,ウルマイシカワガッコウキュウショクサービス,0
1717,7360003013502,新規,0,2023-11-27,2023-11-27,ＮＵＢＵＩ合同会社,,合同会社,沖縄県,沖縄市,登川３丁目８番９号,,47,211,9042142,,,,,,,2023-11-27,1,,,,,ヌブイ,0
1720,7370003006397,新規,0,2023-11-27,2023-11-27,合同会社ＦＩＥＬＤ,,合同会社,宮城県,仙台市青葉区,国分町２丁目１３番１号セブンコートビル２Ｆ,,04,101,9800803,,,,,,,2023-11-27,1,,,,,フィールド,0
1721,7380001034151,新規,0,2023-11-27,2023-11-27,サンダイ株式会社,,株式会社,福島県,郡山市,喜久田町字松ケ作１６番地７３第３近内ビル１０５,,07,203,9630551,,,,,,,2023-11-27,1,,,,,サンダイ,0
1724,7400003003168,新規,0,2023-11-27,2023-11-27,合同会社江刺佐藤農園,,合同会社,岩手県,奥州市,江刺愛宕字大畑５２番地,,03,215,0231131,,,,,,,2023-11-27,1,,,,,エサシサトウノウエン,0
1729,7430001090511,新規,0,2023-11-27,2023-11-27,株式会社ひだかリテール,,株式会社,北海道,浦河郡浦河町,字西幌別８番１０号,,01,607,0570002,,,,,,,2023-11-27,1,,,,,ヒダカリテール,0
1733,7440001009353,新規,0,2023-11-27,2023-11-27,株式会社道南装具製作所,,株式会社,北海道,函館市,昭和２丁目１５番３号,,01,202,0410812,,,,,,,2023-11-27,1,,,,,ドウナンソウグセイサクショ,0
1735,7460103001578,新規,0,2023-11-27,2023-11-27,合同会社クナウトラベル北海道,,合同会社,北海道,帯広市,西十六条北１丁目２５番地４４,,01,207,0800046,,,,,,,2023-11-27,1,,,,,クナウトラベルホッカイドウ,0
1737,7470005006534,新規,0,2023-11-27,2023-11-27,一般社団法人英志会,,その他の設立登記法人,香川県,丸亀市,土器町東７丁目１６３番地２,,37,202,7630082,,,,,,,2023-11-27,1,,,,,エイシカイ,0
1743,7700150121865,新規,0,2023-11-27,2023-11-07,神戸地区地域運行バス（かんべ北斗号）運営協議会,,その他,三重県,伊賀市,上神戸２２０－３（神戸地区市民センター内）,,24,216,5180116,,,,,,,2023-11-07,1,,,,,カンベチクチイキウンコウバスカンベホクトゴウウンエイキヨウギカイ,0
1744,7700150122252,新規,0,2023-11-27,2023-11-27,Ｓｕｚｈｏｕｃｈｏｎｇｇｕｇｕｊｉｓｈｕｙｏｕｘｉａｎｇｏｎｇｓｉ,,外国会社等,,,,,,,,ｓｕｚｈｏｕｓｈｉｗｕｊｉａｎｇｑｕｄｏｎｇｔａｉｈｕｓｈｅｎｇｔａｉｌｙｏｕｄｕｊｉａｑｕ（ｔａｉｈｕｘｉｎｃｈｅｎｇ）ｘｉａｒｏｎｇｊｉｅ３９９ｈａｏ１７ｚｈｕａｎｇ１０１,,,,,,2023-11-27,1,,,,,スージョウチョングーグージーシューヨウシエンゴンスー,0
1745,7700150122260,新規,0,2023-11-27,2023-11-27,ｐｕｊｉａｎｇｘｉａｎｘｉｎｇｆａｎｇｄｉａｎｚｉｓｈａｎｇｗｕｙｏｕｘｉａｎｇｏｎｇｓｉ,,外国会社等,,,,,,,,ｘｉａｑｕａｎｃｕｎｅｒｑｕ２０ｈａｏｐｕｊｉａｎｇｘｉａｎｚｈｅｊｉａｎｇｓｈｅｎｇ,,,,,,2023-11-27,1,,,,,プージャンシエンシンファンディエンズーシャンウーヨウシエンゴンスー,0
1746,7700150122269,新規,0,2023-11-27,2023-11-27,ＳｈｅｎＺｈｅｎ　Ｋｕａｉｑｕ　ｅｌｅｃｔｒｏｎｉｃ　Ｃｏ．，Ｌｔｄ,,外国会社等,,,,,,,,４０２Ｎｏ．２ＦａｃｔｏｒｙＢｕｉｌｄｉｎｇＰｈａｓｅＩＩＪｉｅｗｅｉＩｎｄｕｓｔｒｉａｌＣｉｔｙＳｈａｎｇｍｕｇｕＣｏｍｍｕｎｉｔｙＰｉｎｇｈｕＳｔｒｅｅｔＬｏｎｇｇａｎｇＤｉｓｔｒｉｃｔＳｈｅｎｚｈｅｎ,00132710,,,,,2023-11-27,1,,,,,シンセンカイシュエレクトロニックカンパニーリミテッド,0
1747,7700150122277,新規,0,2023-11-27,2023-11-27,Ｇｕａｎｇｚｈｏｕ　Ｙｉ　Ｈａｏ　Ｘｉａｎｇ　Ｂａｏ　Ｍａｏ　Ｙｉ　Ｙｏｕ　Ｘｉａｎ　Ｇｏｎｇ　Ｓｉ,,外国会社等,,,,,,,,Ｄｏｎｇｇｕａｎｅｒｄｕｉ　Ｈｕａｎｃｕｎｊｉｅ　９－９　Ｈａｏ　１０３，Ｘｉｎｙａｊｉｅ　Ｈｕａｄｕｑｕ　Ｇｕａｎｇｚｈｏｕ　Ｇｕａｎｇｄｏｎｇ　５１００００，ＣＮ,,,,,,2023-11-27,1,,,,,グワンジヨウイーハオシヤンバオマオイーヨウシエンゴンスー,0
1748,7700150122285,新規,0,2023-11-27,2023-11-27,ｈａｎｇｚｈｏｕｘｉａｏｙｉｍｅｉｍａｏｙｉｙｏｕｘｉａｎｇｏｎｇｓｉ,,外国会社等,,,,,,,,ｑｉａｎｔａｎｇｑｕ　ｌｉｎｊｉａｎｇｊｉｅｄａｏ　ｌｉｎｊｉａｎｇｋｅｊｉｆｕｈｕａｙｕａｎ７－３５３　ｈａｎｇｚｈｏｕ　ｚｈｅｊｉａｎｇ　３１１１１３　ＣＮ,,,,,,2023-11-27,1,,,,,ハンジヨウシヤオイーメイマオイーヨウシエンゴンスー,0
1749,7700150122293,新規,0,2023-11-27,2023-11-27,Ｈｕｎａｎ　Ｘｉａｏｈａｏ　ｅｌｅｃｔｒｏｎｉｃ　Ｔｅｃｈｎｏｌｏｇｙ　Ｃｏ．，ＬＴＤ,,外国会社等,,,,,,,,Ｎｏ．０２２，Ｇｒｏｕｐ　６，Ｆａｎｇｚｈｕ　Ｖｉｌｌａｇｅ．Ｗｅｎｔｉａｎ　Ｔｏｗｎ，Ｘｉｎｈｕａ　Ｃｏｕｎｔｙ，Ｌｏｕｄｉ　Ｃｉｔｙ，Ｈｕｎａｎ　Ｐｒｏｖｉｎｃｅ,,,,,,2023-11-27,1,,,,,フーナンシヨンシヤオハオデイエンズーコージーヨウシエンゴンスー,0
1759,8010001240322,新規,0,2023-11-27,2023-11-27,株式会社ＴｉＡＧ,,株式会社,東京都,千代田区,神田和泉町１番地６の１６ヤマトビル４０５,,13,101,1010024,,,,,,,2023-11-27,1,,,,,ティーアイエージー,0
1760,8010001240330,新規,0,2023-11-27,2023-11-27,株式会社ＫＳＴ８,,株式会社,東京都,千代田区,内幸町２丁目１番６号,,13,101,1000011,,,,,,,2023-11-27,1,,,,,ケイエスティーエイト,0
1761,8010001240363,新規,0,2023-11-27,2023-11-27,ビジョナリー・トレーダーズ株式会社,,株式会社,東京都,中央区,湊２丁目１２番１６－６０６号,,13,102,1040043,,,,,,,2023-11-27,1,,,,,ビジョナリートレーダーズ,0
1762,8010003042287,新規,0,2023-11-27,2023-11-27,合同会社ＭＩＵＫＹＵ,,合同会社,東京都,中央区,築地１丁目２番１号,,13,102,1040045,,,,,,,2023-11-27,1,,,,,ミューキュー,0
1763,8010003042295,新規,0,2023-11-27,2023-11-27,合同会社ｍｏｋｕ‐ｒｅｎ,,合同会社,東京都,中央区,日本橋堀留町１丁目１０番１号カクタビル２Ｆ,,13,102,1030012,,,,,,,2023-11-27,1,,,,,モクレン,0
1764,8010003042304,新規,0,2023-11-27,2023-11-27,合同会社ＡＬＯＣＡＲＡ,,合同会社,東京都,千代田区,神田和泉町１番地６－１６ヤマトビル４０５,,13,101,1010024,,,,,,,2023-11-27,1,,,,,アロカラ,0
1774,8010401178583,新規,0,2023-11-27,2023-11-27,Ｐｌａｎ　Ｊａｐａｎ株式会社,,株式会社,東京都,港区,元麻布３丁目１番６号,,13,103,1060046,,,,,,,2023-11-27,1,,,,,プランジャパン,0
1776,8010403031451,新規,0,2023-11-27,2023-11-27,麻布商事合同会社,,合同会社,東京都,港区,麻布十番１丁目２番７号,,13,103,1060045,,,,,,,2023-11-27,1,,,,,アザブショウジ,0
1779,8010701045178,新規,0,2023-11-27,2023-11-27,株式会社ＬＩＮＥ　ＤＲＩＶＥ,,株式会社,東京都,品川区,南品川４丁目１１番１２号,,13,109,1400004,,,,,,,2023-11-27,1,,,,,ラインドライブ,0
1789,8011001158240,新規,0,2023-11-27,2023-11-27,株式会社ニライカ,,株式会社,東京都,渋谷区,代々木２丁目２番１号,,13,113,1510053,,,,,,,2023-11-27,1,,,,,ニライカ,0
1790,8011001158397,新規,0,2023-11-27,2023-11-27,株式会社アイビーネットワークス,,株式会社,東京都,渋谷区,神宮前６丁目２３番４号桑野ビル２階,,13,113,1500001,,,,,,,2023-11-27,1,,,,,アイビーネットワークス,0
1791,8011001158422,新規,0,2023-11-27,2023-11-27,Ｔｏｋｙｏ　Ｂａｙ株式会社,,株式会社,東京都,渋谷区,代々木１丁目３０番１５号天翔代々木ビル４階Ｓ４０２－Ｂ号室,,13,113,1510053,,,,,,,2023-11-27,1,,,,,トウキョウベイ,0
1792,8011001158430,新規,0,2023-11-27,2023-11-27,ＵＮＳＴＥＡＤＹ株式会社,,株式会社,東京都,渋谷区,円山町５番５号Ｎａｖｉ渋谷Ｖ３階,,13,113,1500044,,,,,,,2023-11-27,1,,,,,アンステディ,0
1793,8011001158439,新規,0,2023-11-27,2023-11-27,中目黒コンサルティング株式会社,,株式会社,東京都,目黒区,中目黒２丁目８番１７号,,13,110,1530061,,,,,,,2023-11-27,1,,,,,ナカメグロコンサルティング,0
1794,8011001158447,新規,0,2023-11-27,2023-11-27,株式会社エフエム＆カンパニー,,株式会社,東京都,渋谷区,神宮前３丁目３８番５号,,13,113,1500001,,,,,,,2023-11-27,1,,,,,エフエムアンドカンパニー,0
1795,8011001158471,新規,0,2023-11-27,2023-11-27,株式会社Ｄｒｅａｍ　Ｉｎｎｏｖａｔｉｏｎ,,株式会社,東京都,渋谷区,神山町１０－４ルーエ渋谷神山町８０１,,13,113,1500047,,,,,,,2023-11-27,1,,,,,ドリームイノベーション,0
1796,8011003017980,新規,0,2023-11-27,2023-11-27,合同会社ｕｎｇｒａｐｈｉｃｏ,,合同会社,東京都,渋谷区,神宮前６丁目２３番４号桑野ビル２階,,13,113,1500001,,,,,,,2023-11-27,1,,,,,アングラフィコ,0
1800,8011101105200,新規,0,2023-11-27,2023-11-27,株式会社ワンライン,,株式会社,東京都,新宿区,新宿５丁目７－９レジディア新宿イースト８０２号室,,13,104,1600022,,,,,,,2023-11-27,1,,,,,ワンライン,0
1801,8011101105225,新規,0,2023-11-27,2023-11-27,ｅｖｅ株式会社,,株式会社,東京都,新宿区,四谷４丁目３１番地３エスレジデンス新宿御苑１５０３,,13,104,1600004,,,,,,,2023-11-27,1,,,,,イヴ,0
1802,8011101105233,新規,0,2023-11-27,2023-11-27,株式会社ＡＫＴ,,株式会社,東京都,新宿区,百人町１丁目２３－２６みなみビル１階Ｂ室,,13,104,1690073,,,,,,,2023-11-27,1,,,,,エーケーティー,0
1807,8011201025067,新規,0,2023-11-27,2023-11-27,株式会社ＭＩＴＡＭＡ,,株式会社,東京都,中野区,東中野１丁目４６番３号ＭＡＩＳＯＮＴＲＯＩＳ３０２,,13,114,1640003,,,,,,,2023-11-27,1,,,,,ミタマ,0
1814,8011501030048,新規,0,2023-11-27,2023-11-27,銀杏株式会社,,株式会社,東京都,荒川区,町屋３丁目２４番２号面川ビル３１３号室,,13,118,1160001,,,,,,,2023-11-27,1,,,,,ギンナン,0
1823,8012403006292,新規,0,2023-11-27,2023-11-27,合同会社ＣＢＸ,,合同会社,東京都,府中市,紅葉丘２丁目１３番地の１３サンハイツミキＢ－１０７,,13,206,1830004,,,,,,,2023-11-27,1,,,,,シービーエックス,0
1833,8020001154521,新規,0,2023-11-27,2023-11-27,株式会社Ｍ．Ｏ．Ｌｓｕｐｐｏｒｔ,,株式会社,神奈川県,横浜市都筑区,茅ケ崎中央１３－２宮下ビル４０１,,14,118,2240032,,,,,,,2023-11-27,1,,,,,エムオーエルサポート,0
1834,8020001154595,新規,0,2023-11-27,2023-11-27,株式会社ｂｌａｎｃｏ,,株式会社,神奈川県,横浜市西区,岡野１丁目９－９冨田ビル３Ｆ,,14,103,2200073,,,,,,,2023-11-27,1,,,,,ブランコ,0
1835,8020001154629,新規,0,2023-11-27,2023-11-27,株式会社一騎当千,,株式会社,神奈川県,横浜市港北区,日吉本町１丁目４－１１ＨＡＮＡＭＵＲＡビル３０３,,14,109,2230062,,,,,,,2023-11-27,1,,,,,イッキトウセン,0
1840,8020003025051,新規,0,2023-11-27,2023-11-27,合同会社Ｙ’ｓ　Ｆｕｎ,,合同会社,神奈川県,横浜市中区,尾上町３丁目４０番地第２柳下ビルディング３０１号室,,14,104,2310015,,,,,,,2023-11-27,1,,,,,ワイズファン,0
1846,8021001080625,新規,0,2023-11-27,2023-11-27,株式会社ＭＩＮＡＣＩ,,株式会社,神奈川県,三浦郡葉山町,堀内１７３５－５３－１０２,,14,301,2400112,,,,,,,2023-11-27,1,,,,,ミナチ,0
1847,8021001080773,新規,0,2023-11-27,2023-11-27,株式会社県央ファーム,,株式会社,神奈川県,海老名市,中野３丁目１３番１２号,,14,215,2430425,,,,,,,2023-11-27,1,,,,,,0
1862,8030001157325,新規,0,2023-11-27,2023-11-27,株式会社ＳＡＫＵＲＡ　ＰＲＯＰ,,株式会社,埼玉県,熊谷市,末広１丁目４１番地３階－Ａ,,11,202,3600031,,,,,,,2023-11-27,1,,,,,サクラプロップ,0
1863,8030001157333,新規,0,2023-11-27,2023-11-27,株式会社コンパス,,株式会社,埼玉県,所沢市,緑町４丁目３８番１４号,,11,208,3591111,,,,,,,2023-11-27,1,,,,,コンパス,0
1864,8030003023070,新規,0,2023-11-27,2023-11-27,合同会社ひのき,,合同会社,埼玉県,幸手市,大字上高野２９５番地,,11,240,3400155,,,,,,,2023-11-27,1,,,,,ヒノキ,0
1870,8040001131089,新規,0,2023-11-27,2023-11-27,株式会社Ｊｏ　Ｎｉｎｅ,,株式会社,千葉県,千葉市若葉区,千城台東２丁目３８番８号,,12,104,2640002,,,,,,,2023-11-27,1,,,,,ジョーナイン,0
1871,8040001131106,新規,0,2023-11-27,2023-11-27,株式会社Ｔｅａｍ高建,00132793,株式会社,千葉県,千葉市花見川区,作新台１丁目２５番３７号,,12,102,2620045,,,,,,,2023-11-27,1,,,,,チームコウケン,0
1874,8040003023813,新規,0,2023-11-27,2023-11-27,合同会社九龍,,合同会社,千葉県,柏市,大室１６８番地２レオパレスクリサンスマムＩＩ－１０３号,00132802,12,217,2770813,,,,,,,2023-11-27,1,,,,,キュウリュウ,0
1892,8070001041104,新規,0,2023-11-27,2023-11-27,ｙｅｌｌｏｗｃｏｄｅ株式会社,,株式会社,群馬県,伊勢崎市,今泉町２丁目１０６１番地１,,10,204,3720031,,,,,,,2023-11-27,1,,,,,イエローコード,0
1896,8070005010195,新規,0,2023-11-27,2023-11-27,ＮＰＯ法人北の杜,,その他の設立登記法人,群馬県,太田市,金山町１８番１号,,10,205,3730027,,,,,,,2023-11-27,1,,,,,,0
1905,8100001037008,新規,0,2023-11-27,2023-11-27,株式会社ＳＨＩＭＩＺＵ,,株式会社,長野県,上伊那郡箕輪町,大字中箕輪北島７９７９番地８ハイツ北島１０８号,,20,383,3994601,,,,,,,2023-11-27,1,,,,,シミズ,0
1908,8100003007280,新規,0,2023-11-27,2023-11-27,フレイル予防センター合同会社,,合同会社,長野県,松本市,宮渕２丁目７番２８号,,20,202,3900862,,,,,,,2023-11-27,1,,,,,フレイルヨボウセンター,0
1919,8120001260128,新規,0,2023-11-27,2023-11-27,ウタゲ・ワークス株式会社,,株式会社,大阪府,大阪市西区,南堀江１丁目１６番１１号,,27,106,5500015,,,,,,,2023-11-27,1,,,,,ウタゲワークス,0
1920,8120001260152,新規,0,2023-11-27,2023-11-27,株式会社ＡｌｉＴｅｒｒａ,,株式会社,大阪府,大阪市阿倍野区,丸山通２丁目８番１８号,,27,119,5450042,,,,,,,2023-11-27,1,,,,,アリテラ,0
1922,8120003025405,新規,0,2023-11-27,2023-11-27,合同会社こころ,,合同会社,大阪府,大阪市北区,東天満２丁目２－１５－２０３,,27,127,5300044,,,,,,,2023-11-27,1,,,,,ココロ,0
1937,8130001075780,新規,0,2023-11-27,2023-11-27,莵道コンサルティング株式会社,,株式会社,京都府,京都市下京区,七条通油小路東入大黒町２２７番地第２キョートビル４０２,,26,106,6008223,,,,,,,2023-11-27,1,,,,,トドウコンサルティング,0
1938,8130001075806,新規,0,2023-11-27,2023-11-27,同理株式会社,,株式会社,京都府,京都市左京区,岡崎東福ノ川町１０番地７,,26,103,6068321,,,,,,,2023-11-27,1,,,,,ドウリ,0
1939,8130001075814,新規,0,2023-11-27,2023-11-27,株式会社ＧＯＧ,,株式会社,京都府,京都市伏見区,久我森の宮町９番地１３５,,26,109,6128495,,,,,,,2023-11-27,1,,,,,ジーオージー,0
1941,8130003009167,新規,0,2023-11-27,2023-11-27,ＴＯＹＡＲ合同会社,,合同会社,京都府,宇治市,伊勢田町ウトロ３番地の１９,,26,204,6110043,,,,,,,2023-11-27,1,,,,,トヤル,0
1943,8140001132440,新規,0,2023-11-27,2023-11-27,Ｉｎｔｅｇｒａｔｅｄ　Ｈｅａｌｔｈ　Ｓｃｉｅｎｃｅ株式会社,,株式会社,兵庫県,神戸市中央区,伊藤町１１０－２,,28,110,6500032,,,,,,,2023-11-27,1,,,,,インテグレーテッドヘルスサイエンス,0
1944,8140001132465,新規,0,2023-11-27,2023-11-27,株式会社ＢＯＮ‐ＢＡＹ,,株式会社,兵庫県,神戸市中央区,元町通３丁目９番２３号,,28,110,6500022,,,,,,,2023-11-27,1,,,,,ボンベイ,0
1945,8140003019859,新規,0,2023-11-27,2023-11-27,ソラーレル合同会社,,合同会社,兵庫県,神戸市垂水区,日向１丁目５番１－６０３号,,28,108,6550893,,,,,,,2023-11-27,1,,,,,ソラーレル,0
1948,8150005009527,新規,0,2023-11-27,2023-11-27,一般社団法人こもど,,その他の設立登記法人,奈良県,生駒郡三郷町,立野南２丁目９番１３号ヤマセンビル２階,,29,343,6360822,,,,,,,2023-11-27,1,,,,,コモド,0
1952,8180001159034,新規,0,2023-11-27,2023-11-27,株式会社Ａ‐Ｓ,,株式会社,愛知県,名古屋市中区,栄３丁目３１番１３号加地ビル１階,,23,106,4600008,,,,,,,2023-11-27,1,,,,,エース,0
1953,8180001159059,新規,0,2023-11-27,2023-11-27,株式会社アレテイア,,株式会社,愛知県,小牧市,大字村中２６９９番地,,23,219,4850082,,,,,,,2023-11-27,1,,,,,アレテイア,0
1956,8180003026026,新規,0,2023-11-27,2023-11-27,金城工業合同会社,,合同会社,愛知県,稲沢市,増田西町１４４番地ビレッジハウス増田２－３０４,,23,220,4928429,,,,,,,2023-11-27,1,,,,,キンジョウコウギョウ,0
1960,8200001041924,新規,0,2023-11-27,2023-11-27,株式会社ＭＧＮ,,株式会社,岐阜県,高山市,久々野町無数河４１４１番地,,21,203,5093214,,,,,,,2023-11-27,1,,,,,エムジーエヌ,0
1963,8220001025710,新規,0,2023-11-27,2023-11-27,株式会社黎明,,株式会社,石川県,金沢市,矢木１丁目５０番地３,,17,201,9218066,,,,,,,2023-11-27,1,,,,,レイメイ,0
1968,8250003003389,新規,0,2023-11-27,2023-11-27,合同会社フロムハンズ,,合同会社,山口県,周南市,今住町８番１７－２０１号,,35,215,7450063,,,,,,,2023-11-27,1,,,,,フロムハンズ,0
1973,8290001103815,新規,0,2023-11-27,2023-11-27,株式会社ｐｌａｃｅ,,株式会社,福岡県,福岡市博多区,住吉２丁目４番７－１３１２号,,40,132,8120018,,,,,,,2023-11-27,1,,,,,プレイス,0
1974,8290001103823,新規,0,2023-11-27,2023-11-27,株式会社クライム,,株式会社,福岡県,古賀市,今の庄１丁目２６番４６号,,40,223,8113117,,,,,,,2023-11-27,1,,,,,クライム,0
1975,8290001103848,新規,0,2023-11-27,2023-11-27,株式会社フレキツール,,株式会社,福岡県,福岡市博多区,諸岡２丁目４番６号,,40,132,8120894,,,,,,,2023-11-27,1,,,,,フレキツール,0
1976,8290003014630,新規,0,2023-11-27,2023-11-27,Ｆ・Ｙ商事合同会社,,合同会社,福岡県,福岡市東区,筥松４丁目１番２８号エバーライフ筥松第２－１０２号,,40,131,8120061,,,,,,,2023-11-27,1,,,,,エフワイショウジ,0
1985,8360001032858,新規,0,2023-11-27,2023-11-27,楽淨天株式会社,,株式会社,沖縄県,沖縄市,比屋根６丁目６番６－２０１号,,47,211,9042173,,,,,,,2023-11-27,1,,,,,ラクジョウテン,0
1986,8360001032866,新規,0,2023-11-27,2023-11-27,エール管理サービス株式会社,,株式会社,沖縄県,那覇市,泊１丁目１１番地９,,47,201,9000012,,,,,,,2023-11-27,1,,,,,エールカンリサービス,0
1990,8370001050644,新規,0,2023-11-27,2023-11-27,Ｓａｌｏｏｎ株式会社,,株式会社,宮城県,大崎市,古川七日町１０番地２,,04,215,9896153,,,,,,,2023-11-27,1,,,,,サルーン,0
1996,8420001018495,新規,0,2023-11-27,2023-11-27,株式会社Ｉｎｖｅｓｔｏｒ　Ｂａｎｋ,,株式会社,青森県,青森市,本町５丁目６番２号,,02,201,0300802,,,,,,,2023-11-27,1,,,,,インベスターバンク,0
1997,8420003002836,新規,0,2023-11-27,2023-11-27,合同会社藤蘭,,合同会社,青森県,八戸市,大字田面木字上田面木１番地２８,,02,203,0391104,,,,,,,2023-11-27,1,,,,,フジラン,0
1999,8430001090510,新規,0,2023-11-27,2023-11-27,株式会社沼拓サポート,,株式会社,北海道,苫小牧市,拓勇東町６丁目４番１６号,,01,213,0591303,,,,,,,2023-11-27,1,,,,,ヌマタクサポート,0
2003,8440001009352,新規,0,2023-11-27,2023-11-27,株式会社つなぐ,,株式会社,北海道,久遠郡せたな町,北檜山区北檜山２５８番地,,01,371,0494501,,,,,,,2023-11-27,1,,,,,ツナグ,0
2007,8470001019919,新規,0,2023-11-27,2023-11-27,株式会社ｈｉｉｒａｇｉ,,株式会社,香川県,丸亀市,土器町西２丁目４４５番地,,37,202,7630081,,,,,,,2023-11-27,1,,,,,ヒイラギ,0
2015,8700150122251,新規,0,2023-11-27,2023-11-27,Ｑｉｎｇｐｉｎｇ　Ｔｅｃｈｎｏｌｏｇｙ（Ｂｅｉｊｉｎｇ）Ｃｏ．，Ｌｔｄ．,,外国会社等,,,,,,,,３０９，Ｂｌｏｃｋ　Ｃ，Ｙｅｑｉｎｇ　Ｍａｎｓｉｏｎ，Ｎｏ．９　Ｗａｎｇｊｉｎｇ　Ｎｏｒｔｈ　Ｓｔｒｅｅｔ，Ｃｈａｏｙａｎｇ　Ｄｉｓｔｒｉｃｔ，Ｂｅｉｊｉｎｇ,,,,,,2023-11-27,1,,,,,チンピンコージーベイジンヨウシエンゴンスー,0
2016,8700150122268,新規,0,2023-11-27,2023-11-27,ＤＬＡＢ　Ｓｃｉｅｎｔｉｆｉｃ　Ｃｏ．，Ｌｔｄ．,,外国会社等,,,,,,,,３１Ｙｕ’ａｎＲｏａｄＬｉｎｋｏｎｇＥｃｏｎｏｍｉｃＣｏｒｅＺｏｎｅ　ＳｈｕｎｙｉＤｉｓｔｒｉｃｔ　Ｂｅｉｊｉｎｇ,,,,,,2023-11-27,1,,,,,ディーラブサイエンティフィックカンパニーリミテッド,0
2017,8700150122276,新規,0,2023-11-27,2023-11-27,ＳＥＶＥＮＳＴＡＲ　ＨＯＵＳＥＨＯＬＤ　ＧＯＯＤＳ（ＨＫ）ＣＯ．，ＬＩＭＩＴＥＤ,,外国会社等,,,,,,,,ＦＬＡＴ　１００８／１０　ＦＬＯＯＲ，ＷＩＮＧ　ＴＵＣＫ　ＣＯＭＭＥＲＣＩＡＬ　ＣＥＮＴＲＥ　１７７－１８３　ＷＩＮＧ　ＬＯＫ　ＳＴＲＥＥＴ　ＳＨＥＵＮＧ　ＷＡＮ　９９９０７７　ＨＯＮＧＫＯＮＧ,,,,,,2023-11-27,1,,,,,セブンスターハウスホールドグッズホンコンカンパニーリミティッド,0
2018,8700150122284,新規,0,2023-11-27,2023-11-27,ＱＩＮＧＤＡＯ　ＬＥＩＣＨＩＩＮＤＵＳＴＲＩＡＬ＆ＴＲＡＤＥ　ＣＯ．，ＬＴＤ,,外国会社等,,,,,,,,Ｒｏｏｍ　５０１，Ｂｕｉｌｄｉｎｇ　１，Ｎｏ．１８，Ｈｏｎｇ　Ｋｏｎｇ　Ｍｉｄｄｌｅ　Ｒｏａｄ，Ｓｈｉｎａｎ　Ｄｉｓｔｒｉｃｔ　Ｑｉｎｇｄａｏ　Ｓｈａｎｄｏｎｇ　２６６０７１　ＣＮ,,,,,,2023-11-27,1,,,,,チンダオレイチーゴンマオヨウシエンゴンスー,0
2019,8700150122292,新規,0,2023-11-27,2023-11-27,Ｄｏｎｇｇｕａｎｓｈｉ　Ｈｅｗａｎｇ　Ｄｉａｎｑｉ　Ｙｏｕｘｉａｎｇｏｎｇｓｉ,,外国会社等,,,,,,,,ｔａｎｇ　ｘｉａ　ｚｈｅｎ　ｄｏｎｇ　ｓｈｅｎ　ｈｅｎｇｌｕ　９　ｈａｏ　Ｄｏｎｇｇｕａｎ　ｓｈｉ　Ｇｕａｎｇｄｏｎｇｓｈｅｎｇ　５２３７１６　ＣＮ,,,,,,2023-11-27,1,,,,,ドングワンシーホーワンデイエンチーヨウシエンゴンスー,0
2020,8700150122334,新規,0,2023-11-27,2023-11-27,Ｄｏｎｇｇｕａｎｓｈｉ　ｆｕｑｉｎｇ　ｄｉａｎｚｉｘｉａｎｃａｉ　ｙｏｕｘｉａｎｇｏｎｇｓｉ,,外国会社等,,,,,,,,ｑｉｎｇｘｉｚｈｅｎ　ｑｉｎｇｘｉｋｅｊｉｌｕ　ｄｏｎｇｑｉｊｉｅ　４０ｈａｏ　１ｈａｏｌｏｕ　１０１ｓｈｉ　ｄｏｎｇｇｕａｎ　ｇｕａｎｇｄｏｎｇ　５２３０００　ＣＮ,,,,,,2023-11-27,1,,,,,ドングワンシーフーチンディエンズーシエンツァイヨウシエンゴンスー,0
2025,9010001240296,新規,0,2023-11-27,2023-11-27,Ｐｕｒｅ　Ｂｉｏｋｅｙｚ　Ｊａｐａｎ株式会社,,株式会社,東京都,中央区,日本橋蛎殻町１丁目３５番８号２Ｆ,,13,102,1030014,,,,,,,2023-11-27,1,,,,,ピュアバイオキーズジャパン,0
2026,9010001240305,新規,0,2023-11-27,2023-11-27,揚帆株式会社,,株式会社,東京都,中央区,銀座３丁目１３番１－１００６号,,13,102,1040061,,,,,,,2023-11-27,1,,,,,ヨウハン,0
2027,9010001240321,新規,0,2023-11-27,2023-11-27,株式会社Ｆｕｎｄｃｒａｆｔ　Ｓｅｒｖｉｃｅｓ,,株式会社,東京都,千代田区,丸の内３丁目２番２号,,13,101,1000005,,,,,,,2023-11-27,1,,,,,ファンドクラフトサービス,0
2028,9010001240338,新規,0,2023-11-27,2023-11-27,株式会社ＫＯＵミュージックジャパン,,株式会社,東京都,中央区,銀座８丁目１０番８号,,13,102,1040061,,,,,,,2023-11-27,1,,,,,コウミュージックジャパン,0
2029,9010001240362,新規,0,2023-11-27,2023-11-27,テラ風力株式会社,,株式会社,東京都,文京区,本郷５丁目３３番１０号,,13,105,1130033,,,,,,,2023-11-27,1,,,,,テラフウリョク,0
2037,9010401178764,新規,0,2023-11-27,2023-11-27,ファイン株式会社,,株式会社,東京都,港区,南青山１丁目４番２号南青山八並ビル８０１,,13,103,1070062,,,,,,,2023-11-27,1,,,,,ファイン,0
2039,9010403031450,新規,0,2023-11-27,2023-11-27,合同会社ＲＦ　ＪＡＰＡＮ,,合同会社,東京都,港区,芝公園３丁目５番８号,,13,103,1050011,,,,,,,2023-11-27,1,,,,,アールエフジャパン,0
2040,9010405022729,新規,0,2023-11-27,2023-11-27,印西ＤＣ１特定目的会社,,その他の設立登記法人,東京都,港区,虎ノ門５丁目１番４号,,13,103,1050001,,,,,,,2023-11-27,1,,,,,インザイディーシーワン,0
2042,9010501051433,新規,0,2023-11-27,2023-11-27,株式会社南極スタジオ,,株式会社,東京都,台東区,北上野２丁目５番３－５０３号ザ・パークハウス上野プレイス,,13,106,1100014,,,,,,,2023-11-27,1,,,,,ナンキョクスタジオ,0
2053,9011001158421,新規,0,2023-11-27,2023-11-27,株式会社Ｓ,,株式会社,東京都,目黒区,碑文谷１丁目４－２０ＫＡＮＮＡ碑文谷１Ｆ－２号,,13,110,1520003,,,,,,,2023-11-27,1,,,,,エス,0
2054,9011001158446,新規,0,2023-11-27,2023-11-27,松島株式会社,,株式会社,東京都,渋谷区,本町３丁目４９－１５トップルーム新宿公園第２・８０２号室,,13,113,1510071,,,,,,,2023-11-27,1,,,,,マツシマ,0
2062,9011101105190,新規,0,2023-11-27,2023-11-27,ＡＭ　ＧＬＯＢＡＬ　ＴＲＡＤＩＮＧ株式会社,,株式会社,東京都,新宿区,南元町４番地２０信濃町マンション３３,,13,104,1600012,,,,,,,2023-11-27,1,,,,,エイエムグローバルトレーディング,0
2063,9011101105208,新規,0,2023-11-27,2023-11-27,Ａｇｅｌｅｓｓ　Ｗｅｌｌｎｅｓｓ株式会社,,株式会社,東京都,新宿区,市谷八幡町１１番地１市ヶ谷八幡町ビル４階,,13,104,1620844,,,,,,,2023-11-27,1,,,,,エイジレスウェルネス,0
2064,9011101105224,新規,0,2023-11-27,2023-11-27,株式会社Ｐｕｌｃｈｒａｍ,,株式会社,東京都,新宿区,新宿２丁目１１番４号ストークビル長崎８０１,,13,104,1600022,,,,,,,2023-11-27,1,,,,,プルチャーム,0
2065,9011101105232,新規,0,2023-11-27,2023-11-27,株式会社Ｌ,,株式会社,東京都,新宿区,若松町６番１１－８０８号,,13,104,1620056,,,,,,,2023-11-27,1,,,,,エル,0
2071,9011301029207,新規,0,2023-11-27,2023-11-27,Ａｚｕｒｅｌａｎｄ　Ｈｏｌｄｉｎｇ株式会社,,株式会社,東京都,杉並区,高円寺南２丁目２－１３アンビエンス高円寺３０－Ｇ室,,13,115,1660003,,,,,,,2023-11-27,1,,,,,アズールランドホールディングス,0
2074,9011601027315,新規,0,2023-11-27,2023-11-27,株式会社いっぽ,,株式会社,東京都,練馬区,西大泉６丁目２番２６号ヴィラ・スプリング１０５号,,13,120,1780065,,,,,,,2023-11-27,1,,,,,イッポ,0
2075,9011601027323,新規,0,2023-11-27,2023-11-27,石原株式会社,,株式会社,東京都,練馬区,北町１丁目３１－７,,13,120,1790081,,,,,,,2023-11-27,1,,,,,イシハラ,0
2086,9012701017973,新規,0,2023-11-27,2023-11-27,株式会社冬亭,,株式会社,東京都,小平市,仲町１９０－８カイリホームＡ１０１,,13,211,1870042,,,,,,,2023-11-27,1,,,,,トウテイ,0
2091,9013301051669,新規,0,2023-11-27,2023-11-27,龍馬株式会社,,株式会社,東京都,豊島区,東池袋１丁目３１番１０号,,13,116,1700013,,,,,,,2023-11-27,1,,,,,リュウマ,0
2100,9020001154636,新規,0,2023-11-27,2023-11-27,株式会社Ｒｅｄｉｖｉｖｏ,,株式会社,神奈川県,横浜市神奈川区,栄町６－１ヨコハマポートサイドロア壱番館７０４号室,,14,102,2210052,,,,,,,2023-11-27,1,,,,,レディヴィーボ,0
2101,9020001154669,新規,0,2023-11-27,2023-11-27,ジェムポトス株式会社,,株式会社,神奈川県,横浜市港南区,上大岡東２丁目３６－８,,14,111,2330001,,,,,,,2023-11-27,1,,,,,ジェムポトス,0
2103,9020003025050,新規,0,2023-11-27,2023-11-27,合同会社ネクストライト,,合同会社,神奈川県,横浜市西区,北幸２丁目１０番地４８むつみビル３Ｆ,,14,103,2200004,,,,,,,2023-11-27,1,,,,,ネクストライト,0
2104,9020003025059,新規,0,2023-11-27,2023-11-27,合同会社Ｅｅｌ　Ｎｅｓｔ,,合同会社,神奈川県,横浜市旭区,若葉台２丁目１２番７０３号,,14,112,2410801,,,,,,,2023-11-27,1,,,,,イールネスト,0
2105,9020005016196,新規,0,2023-11-27,2023-11-27,特定非営利活動法人領域横断疾患研究機構,,その他の設立登記法人,神奈川県,横浜市中区,根岸旭台１１番地レガティス横浜１０４号室,,14,104,2310854,,,,,,,2023-11-27,1,,,,,リョウイキオウダンシッカンケンキュウキコウ,0
2107,9021001080806,新規,0,2023-11-27,2023-11-27,株式会社レディーバード,,株式会社,神奈川県,藤沢市,石川１４７番地の７,,14,205,2520815,,,,,,,2023-11-27,1,,,,,レディーバード,0
2108,9021001080822,新規,0,2023-11-27,2023-11-27,株式会社ジョブキャリー,,株式会社,神奈川県,厚木市,寿町３丁目１４番３号,,14,212,2430003,,,,,,,2023-11-27,1,,,,,ジョブキャリー,0
2109,9021001080847,新規,0,2023-11-27,2023-11-27,株式会社８８ｄｅｓｉｇｎ,,株式会社,神奈川県,相模原市南区,相模大野１丁目１０番１５号リノア相模大野１０１,,14,153,2520303,,,,,,,2023-11-27,1,,,,,ハチハチデザイン,0
2110,9021003013838,新規,0,2023-11-27,2023-11-27,合同会社Ｔｗｉｎｋ,,合同会社,神奈川県,藤沢市,湘南台１丁目１２番地の７カーサ湘南台９０３号,,14,205,2520804,,,,,,,2023-11-27,1,,,,,トゥウィンク,0
2136,9040001131088,新規,0,2023-11-27,2023-11-27,晃桜花プロダクション株式会社,,株式会社,千葉県,船橋市,前原西１丁目１０番５号,,12,204,2740825,,,,,,,2023-11-27,1,,,,,コウオウカプロダクション,0
2145,9060001036582,新規,0,2023-11-27,2023-11-27,光榮株式会社,,株式会社,栃木県,大田原市,紫塚２丁目２５８６番地７,,09,210,3240058,,,,,,,2023-11-27,1,,,,,コウエイ,0
2149,9070001041103,新規,0,2023-11-27,2023-11-27,株式会社ミネギシ不動産,,株式会社,群馬県,高崎市,下小鳥町６７番地１０ラパンスクエア２Ａ,,10,202,3700074,,,,,,,2023-11-27,1,,,,,ミネギシフドウサン,0
2155,9100001036999,新規,0,2023-11-27,2023-11-27,株式会社小諸不動産商会,,株式会社,長野県,松本市,桐２丁目１番１３号,,20,202,3900871,,,,,,,2023-11-27,1,,,,,コモロフドウサンショウカイ,0
2159,9110001037988,新規,0,2023-11-27,2023-11-27,株式会社メイプルトーン,,株式会社,新潟県,新潟市中央区,関屋松波町３丁目２１９番地２,,15,103,9518161,,,,,,,2023-11-27,1,,,,,メイプルトーン,0
2164,9120001260135,新規,0,2023-11-27,2023-11-27,株式会社ネイヴル,,株式会社,大阪府,大阪市天王寺区,上本町１丁目１番１号,,27,109,5430001,,,,,,,2023-11-27,1,,,,,ネイヴル,0
2169,9120003025404,新規,0,2023-11-27,2023-11-27,ｓｉｇｎ．ｓｉｍｐｌｅ合同会社,,合同会社,大阪府,大阪市中央区,島之内２丁目１２番１５号ロイヤルコーポ鍛冶屋町１Ｆ,,27,128,5420082,,,,,,,2023-11-27,1,,,,,サインシンプル,0
2170,9120005024016,新規,0,2023-11-27,2023-11-27,一般社団法人北大阪メディカルネットワーク,,その他の設立登記法人,大阪府,守口市,八雲東町２丁目４７番１２号,,27,209,5700021,,,,,,,2023-11-27,1,,,,,キタオオサカメディカルネットワーク,0
2174,9120901048415,新規,0,2023-11-27,2023-11-27,アースエンリッチ株式会社,,株式会社,大阪府,豊中市,中桜塚２丁目１８番８号丸正ビル２階,,27,203,5610881,,,,,,,2023-11-27,1,,,,,アースエンリッチ,0
2183,9130001075771,新規,0,2023-11-27,2023-11-27,＿盛商貿株式会社,00132794,株式会社,京都府,京都市伏見区,深草小久保町２３９番地,,26,109,6128437,,,,,,,2023-11-27,1,,,,,キンセイショウボウ,0
2184,9130001075788,新規,0,2023-11-27,2023-11-27,グリーンアップル株式会社,,株式会社,京都府,京都市伏見区,久我石原町４番地３５,,26,109,6128491,,,,,,,2023-11-27,1,,,,,グリーンアップル,0
2185,9130001075805,新規,0,2023-11-27,2023-11-27,株式会社オフィス彩,,株式会社,京都府,京都市中京区,高宮町２０６御池ビル７Ｆ－Ａ,,26,104,6048056,,,,,,,2023-11-27,1,,,,,オフィスアヤ,0
2192,9140001132464,新規,0,2023-11-27,2023-11-27,株式会社Ｏａｈｋ,,株式会社,兵庫県,神戸市灘区,泉通５丁目３番５号,,28,102,6570834,,,,,,,2023-11-27,1,,,,,オーク,0
2193,9140001132489,新規,0,2023-11-27,2023-11-27,株式会社Ｅａｓｙ　Ｇｏｉｎｇ,,株式会社,兵庫県,神戸市中央区,相生町１丁目１番１－１４０５号,,28,110,6500025,,,,,,,2023-11-27,1,,,,,,0
2197,9170001017902,新規,0,2023-11-27,2023-11-27,株式会社ドリーム,,株式会社,和歌山県,和歌山市,大谷２３７番地１,,30,201,6408472,,,,,,,2023-11-27,1,,,,,ドリーム,0
2205,9180001159041,新規,0,2023-11-27,2023-11-27,株式会社アーチル,,株式会社,愛知県,知多市,南粕谷１丁目２０番地の１２６,,23,224,4780024,,,,,,,2023-11-27,1,,,,,アーチル,0
2209,9180003026041,新規,0,2023-11-27,2023-11-27,合同会社Ｇｌｏｗ　ｕｐ,,合同会社,愛知県,名古屋市緑区,亀が洞１丁目６０４アーク徳重４０１,,23,114,4580804,,,,,,,2023-11-27,1,,,,,グロウアップ,0
2214,9200001041915,新規,0,2023-11-27,2023-11-27,かもフードサイクル株式会社,,株式会社,岐阜県,美濃加茂市,加茂野町市橋１１２９番地,,21,211,5050056,,,,,,,2023-11-27,1,,,,,カモフードサイクル,0
2219,9230001020123,新規,0,2023-11-27,2023-11-27,ＮＡＧＡＥ株式会社,,株式会社,富山県,射水市,戸破４０７１番地,,16,211,9390351,,,,,,,2023-11-27,1,,,,,ナガエ,0
2225,9290001103814,新規,0,2023-11-27,2023-11-27,株式会社Ｄａｉｊｏｕｂｕ,,株式会社,福岡県,福岡市中央区,鳥飼３丁目１５番５号リバーサイドソシアル２０６,,40,133,8100053,,,,,,,2023-11-27,1,,,,,ダイジョウブ,0
2226,9290001103822,新規,0,2023-11-27,2023-11-27,株式会社ｂｕｚｚｌｉｆｅ,,株式会社,福岡県,福岡市中央区,天神２丁目３番１０号天神パインクレスト７１９号,,40,133,8100001,,,,,,,2023-11-27,1,,,,,バズライフ,0
2227,9290001103839,新規,0,2023-11-27,2023-11-27,株式会社ＤＡＭＥ　ＮＡＴＵＲＥ,,株式会社,福岡県,福岡市西区,愛宕浜２丁目３番１１－９０６号,,40,135,8190013,,,,,,,2023-11-27,1,,,,,ダムナチュール,0
2228,9290801030068,新規,0,2023-11-27,2023-11-27,株式会社Ｊグループ,,株式会社,福岡県,北九州市小倉北区,片野３丁目１番１６号,,40,106,8020064,,,,,,,2023-11-27,1,,,,,ジェイグループ,0
2234,9330003010104,新規,0,2023-11-27,2023-11-27,合同会社熊誠,,合同会社,熊本県,合志市,須屋２６９５番地７９６,,43,216,8611102,,,,,,,2023-11-27,1,,,,,クマセイ,0
2236,9350001018675,新規,0,2023-11-27,2023-11-27,幸永木材株式会社,,株式会社,宮崎県,東臼杵郡門川町,庵川西３丁目１番地６,,45,421,8890605,,,,,,,2023-11-27,1,,,,,コウエイモクザイ,0
2239,9360001032849,新規,0,2023-11-27,2023-11-27,株式会社ＳＨＴＩＲＹ,,株式会社,沖縄県,宮古島市,平良字下里１２５９番地２８,,47,214,9060013,,,,,,,2023-11-27,1,,,,,スタイリー,0
2240,9360001032865,新規,0,2023-11-27,2023-11-27,株式会社美ら牧場,,株式会社,沖縄県,浦添市,字経塚７２６番地,,47,208,9012111,,,,,,,2023-11-27,1,,,,,チュラボクジョウ,0
2243,9390001017426,新規,0,2023-11-27,2023-11-27,株式会社エスアンドエストレーディング,,株式会社,山形県,鶴岡市,大山３丁目３１番２７号,,06,203,9971124,,,,,,,2023-11-27,1,,,,,エスアンドエストレーディング,0
2253,9500005008657,新規,0,2023-11-27,2023-11-27,パークベルズ木屋町管理組合法人,,その他の設立登記法人,愛媛県,松山市,木屋町１丁目５番地６,,38,201,7900821,,,,,,,2023-11-27,1,,,,,パークベルズキヤチョウ,0
2255,9700150121509,新規,0,2023-11-27,2023-10-27,ピロール農法研究会御殿場,,その他,静岡県,御殿場市,中丸２９９－１,,22,215,4120015,,,,,,,2023-10-27,1,,,,,ピロールノウホウケンキユウカイゴテンバ,0
2256,9700150121863,新規,0,2023-11-27,2023-11-07,宮崎市まちなかグリスロ運行協議会,,その他,宮崎県,宮崎市,橘通西１丁目１－１宮崎市役所まちづくり課内,,45,201,8800001,,,,,,,2023-11-07,1,,,,,ミヤザキシマチナカグリスロウンコウキヨウギカイ,0
2257,9700150122259,新規,0,2023-11-27,2023-11-27,ｐｕｊｉａｎｇｘｉａｎｒｏｎｇｘｉｎｇｄｉａｎｚｉｓｈａｎｇｗｕｙｏｕｘｉａｎｇｏｎｇｓｉ,,外国会社等,,,,,,,,ｈｅｘｉｎｃｕｎｌｏｕｌａｉ４３ｈａｏｐｕｊｉａｎｇｘｉａｎｚｈｅｊｉａｎｇｓｈｅｎｇ,,,,,,2023-11-27,1,,,,,プージャンシエンロンシンディエンズーシャンウーヨウシエンゴンスー,0
2258,9700150122267,新規,0,2023-11-27,2023-11-27,ＳｈｅｎｚｈｅｎｓｈｉＳｈｅｎｇｔｕｏｌｕｏｄｉｋｅｊｉｙｏｕｘｉａｎｇｏｎｇｓｉ,,外国会社等,,,,,,,,Ｓｈｅｎｚｈｅｎｓｈｉ　Ｌｏｎｇｇａｎｇｑｕ　ＨｅｎｇｇａｎｇｊｉｅｄａｏＪｉｎｈｕｉＰＡＲＫ３ＤｏｎｇＡＺｕｏ２４０２,,,,,,2023-11-27,1,,,,,シンセンシセントロディカギユウゲンコウシ,0
2259,9700150122275,新規,0,2023-11-27,2023-11-27,ＳｈｅｎＺｈｅｎＳｈｉＧｅＲｕｉＴｅＧｕｏＪｉＭａｏＹｉＹｏｕＸｉａｎＧｏｎｇＳｉ,,外国会社等,,,,,,,,Ｌｏｎｇｈｕａ　Ｄｉｓｔｒｉｃｔ，Ｄａｌａｎｇ　ｓｔｒｅｅｔ，Ｔａｏｘｉａ　Ｘｉｎｃｕｎ，７７＃２０２　Ｓｈｅｎｚｈｅｎ　Ｇｕａｎｇｄｏｎｇ　５１８０００ＣＮ,,,,,,2023-11-27,1,,,,,シェンジェンシーゴールイターグオジーマオイーヨウシエンゴンスー,0
2260,9700150122283,新規,0,2023-11-27,2023-11-27,Ｓｈｅｎｚｈｅｎ　Ｙｕａｎｚｈｉｔｏｎｇ　Ｔｅｃｈｎｏｌｏｇｙ　Ｃｏ．，Ｌｔｄ．,,外国会社等,,,,,,,,２０５，Ｔｏｗｅｒ　Ａ，Ｓｍａｒｔ　Ｃｌｏｕｄ　Ｖａｌｌｅｙ，Ｎｏ．１，Ｓａｎｈｅ　Ｒｏａｄ，Ｇａｏｆｅｎｇ　Ｃｏｍｍｕｎｉｔｙ，Ｄａｌａｎｇ　Ｓｕｂ－ｄｉｓｔｒｉｃｔ，Ｌｏｎｇｈｕａ　Ｄｉｓｔｒｉｃｔ，Ｓｈｅｎｚｈｅｎ　Ｃｉｔｙ,,,,,,2023-11-27,1,,,,,シエンジエンシーユエンジートンコージーヨウシエンゴンスー,0
2261,9700150122291,新規,0,2023-11-27,2023-11-27,Ｚｈｅｎｇ　ｚｈｏｕ　ｓｈｕａｎｇ　ｇｅ　ｘｉｎ　ｘｉ　ｊｉ　ｓｈｕ　ｙｏｕ　ｘｉａｎ　ｇｏｎｇｓｉ,,外国会社等,,,,,,,,ｈｅ　ｎａｎ　ｓｈｅｎｇ　ｚｈｅｎｇ　ｚｈｏｕ　ｓｈｉ　ｇａｏ　ｘｉｎ　ｊｉ　ｓｈｕ　ｃｈａｎ　ｙｅ　ｋａｉ　ｆａ　ｑｕ　ｙｕ　ｌａｎ　ｊｉｅ　７９　ｈａｏ　３　ｈａｏ　ｌｏｕ　１　ｄａｎ　ｙｕａｎ　１７　ｃｅｎｇ　１０１　ｈａｏ,,,,,,2023-11-27,1,,,,,ジヨンジヨウシユワンゴーシンシージーシユーヨウシエンゴンスー,0
2262,9700150122333,新規,0,2023-11-27,2023-11-27,Ｎｉｎｇｂｏ　Ｚｈｅｎｈａｉ　Ａｉｂｏｄａ　Ｅｌｅｃｔｒｏｎｉｃ　Ｃｏｍｍｅｒｃｅ　Ｃｏ．，Ｌｔｄ,,外国会社等,,,,,,,,１１－１　Ｒｏｏｍ，Ｌａｎｅ　１０６６，Ｎｏ．１，Ｓａｎｗｕ　Ｒｏａｄ，Ｌｕｏｔｕｏ　Ｓｔｒｅｅｔ，Ｚｈｅｎｈａｉ　Ｄｉｓｔｒｉｃｔ，Ｎｉｎｇｂｏ　Ｃｉｔｙ，Ｚｈｅｊｉａｎｇ　Ｐｒｏｖｉｎｃｅ,,,,,,2023-11-27,1,,,,,ニンボージェンハイアイボーダーディエンズーシャンウーヨウシエンゴンスー,0
