sequenceNumber,corporateNumber,process,correct,updateDate,changeDate,name,nameImageId,kind,prefectureName,cityName,streetNumber,addressImageId,prefectureCode,cityCode,postCode,addressOutside,addressOutsideImageId,closeDate,closeCause,successorCorporateNumber,changeCause,assignmentDate,latest,enName,enPrefectureName,enCityName,enAddressOutside,furigana,hihyoji
9,1010001170798,登記記録の閉鎖等,0,2023-11-15,2023-11-07,株式会社ＰＲＯ工房,,株式会社,千葉県,大網白里市,季美の森南５丁目３番地４,,12,239,2993241,,,2023-11-07,清算の結了等,,,2015-10-05,1,,,,,プロコウボウ,0
10,1010001188733,登記記録の閉鎖等,0,2023-11-15,2023-10-18,株式会社ヴィトーリアアルマ,,株式会社,東京都,中央区,銀座８丁目１４番９号,,13,102,1040061,,,2023-10-18,合併による解散等,7010001158243,令和５年９月１日東京都中央区八丁堀三丁目１４番４号株式会社ヴィトーリア（7010001158243）に合併し解散,2018-01-05,1,,,,,ヴィトーリアアルマ,0
11,1010001207971,登記記録の閉鎖等,0,2023-11-15,2023-10-18,株式会社ヴィトーリアノルン,,株式会社,東京都,中央区,銀座８丁目１４番９号,,13,102,1040061,,,2023-10-18,合併による解散等,7010001158243,令和５年９月１日東京都中央区八丁堀三丁目１４番４号株式会社ヴィトーリア（7010001158243）に合併し解散,2020-03-06,1,,,,,ヴィトーリアノルン,0
33,1010501041689,登記記録の閉鎖等,0,2023-11-15,2023-11-06,株式会社ＤＨＰ,,株式会社,東京都,文京区,本郷３丁目２６番６号,,13,105,1130033,,,2023-11-06,合併による解散等,5010001100314,令和５年１１月１日東京都文京区本郷三丁目２６番６号メディア株式会社（5010001100314）に合併し解散,2017-10-16,1,,,,,ディーエイチピー,0
41,1010901008924,登記記録の閉鎖等,0,2023-11-15,2023-11-13,日本アテナ産業株式会社,,株式会社,東京都,調布市,緑ケ丘２丁目６０番８号,,13,208,1820001,,,2023-11-13,清算の結了等,,,2015-10-05,1,,,,,,0
63,1011301012731,登記記録の閉鎖等,0,2023-11-15,2023-11-06,トシビデオ企画株式会社,,株式会社,東京都,杉並区,和田３丁目９番５号,,13,115,1660012,,,2023-11-06,清算の結了等,,,2015-10-05,1,,,,,トシビデオキカク,0
69,1011403003050,登記記録の閉鎖等,0,2023-11-15,2023-11-13,合同会社けっぱれ,,合同会社,東京都,板橋区,蓮根２丁目２７番１２号古谷野ビル２Ｆ－２８,,13,119,1740046,,,2023-11-13,清算の結了等,,,2020-07-03,1,,,,,ケッパレ,0
82,1011802017584,登記記録の閉鎖等,0,2023-11-15,2023-11-13,有限会社ビックバン,,有限会社,東京都,新宿区,西新宿７丁目４番５号,,13,104,1600023,,,2023-11-13,清算の結了等,,,2015-10-05,1,,,,,ビックバン,0
88,1020001004930,登記記録の閉鎖等,0,2023-11-15,2023-11-07,株式会社釜組,,株式会社,神奈川県,横浜市旭区,白根６丁目２３番１６号,,14,112,2410005,,,2023-11-07,清算の結了等,,,2015-10-05,1,,,,,カマグミ,0
102,1021001059510,登記記録の閉鎖等,0,2023-11-15,2023-11-10,株式会社グランツ,,株式会社,神奈川県,横須賀市,安浦町２丁目３３番地１,,14,201,2380012,,,2023-11-10,合併による解散等,8021001054075,令和５年１１月１日東京都港区南麻布四丁目５番６３号株式会社インベスト（8021001054075）に合併し解散,2016-06-13,1,,,,,,0
103,1021001076654,登記記録の閉鎖等,0,2023-11-15,2023-11-09,株式会社東京衡機不動産,,株式会社,神奈川県,相模原市緑区,三井３１５番地,,14,151,2520151,,,2023-11-09,清算の結了等,,,2022-08-03,1,,,,,トウキョウコウキフドウサン,0
114,1030001130965,登記記録の閉鎖等,0,2023-11-15,2023-11-01,Ｊ－Ｓｈｏｗａ株式会社,,株式会社,埼玉県,さいたま市岩槻区,加倉４丁目２５番２７号,,11,110,3390056,,,2023-11-01,清算の結了等,,,2019-05-24,1,,,,,ジェイショーワ,0
119,1030002025669,登記記録の閉鎖等,0,2023-11-15,2023-11-02,有限会社今泉電気,,有限会社,埼玉県,蕨市,錦町３丁目３番３５号,,11,223,3350005,,,2023-11-02,清算の結了等,,,2015-10-05,1,,,,,イマイズミデンキ,0
123,1040001013921,登記記録の閉鎖等,0,2023-11-15,2023-11-07,京葉サービス株式会社,,株式会社,千葉県,千葉市美浜区,真砂５丁目２０番１７－１１０６号,,12,106,2610011,,,2023-11-07,清算の結了等,,,2015-10-05,1,,,,,ケイヨウサービス,0
177,1130001071423,登記記録の閉鎖等,0,2023-11-15,2023-11-01,索朗商事株式会社,,株式会社,京都府,京都市東山区,今熊野阿弥陀ケ峯町４番地６,,26,105,6050924,,,2023-11-01,清算の結了等,,,2022-03-31,1,,,,,サクロウショウジ,0
185,1140001117976,登記記録の閉鎖等,0,2023-11-15,2023-11-10,株式会社ＣＡＴＣＨ１,,株式会社,兵庫県,三田市,三輪４丁目１１番３２号,,28,219,6691513,,,2023-11-10,清算の結了等,,,2020-07-14,1,,,,,,0
186,1140001119106,登記記録の閉鎖等,0,2023-11-15,2023-11-06,株式会社アカキリン,,株式会社,兵庫県,姫路市,忍町１１９番地１階Ｄ室,,28,201,6700917,,,2023-11-06,清算の結了等,,,2020-10-16,1,,,,,アカキリン,0
194,1140005006135,登記記録の閉鎖等,0,2023-11-15,2023-10-25,天理教三廣分教会,,その他の設立登記法人,兵庫県,三木市,志染町吉田５４２番地,,28,215,6730501,,,2023-10-25,合併による解散等,5140005006172,令和５年１０月２５日兵庫県三木市本町三丁目６番１６号天理教三木分教会（5140005006172）に合併し解散,2015-10-05,1,,,,,テンリキョウミヒロブンキョウカイ,0
199,1180001082317,登記記録の閉鎖等,0,2023-11-15,2023-11-13,奥商株式会社,,株式会社,愛知県,一宮市,千秋町加納馬場字五台戸４１番地２,,23,203,4910811,,,2023-11-13,清算の結了等,,,2015-10-05,1,,,,,オクショウ,0
218,1200002017442,登記記録の閉鎖等,0,2023-11-15,2023-11-10,有限会社ケイエーユニオン,,有限会社,岐阜県,可児郡御嵩町,比衣１３４番地の１,,21,521,5050124,,,2023-11-10,清算の結了等,,,2015-10-05,1,,,,,ケイエーユニオン,0
232,1260001032503,登記記録の閉鎖等,0,2023-11-15,2023-11-13,株式会社ＬＹＣｉＯＮ,,株式会社,岡山県,倉敷市,鶴形１丁目３番３７号ビバリープラザビル２Ｆ,,33,202,7100056,,,2023-11-13,清算の結了等,,,2018-10-15,1,,,,,リュシオン,0
250,1290005017340,登記記録の閉鎖等,0,2023-11-15,2023-11-06,一般社団法人Ｇｒａｎｄｊｏｕｒ,,その他の設立登記法人,福岡県,宗像市,日の里５丁目３番地９８ひのさと４８－３０４号,,40,220,8113425,,,2023-11-06,清算の結了等,,,2019-06-07,1,,,,,グランジュール,0
267,1370102001916,登記記録の閉鎖等,0,2023-11-15,2023-11-13,有限会社三和商事,,有限会社,宮城県,角田市,角田字町４４番地,,04,208,9811505,,,2023-11-13,清算の結了等,,,2015-10-05,1,,,,,サンワショウジ,0
270,1380001025016,登記記録の閉鎖等,0,2023-11-15,2023-11-13,株式会社ＭＴＣヨコタ,,株式会社,福島県,いわき市,平字童子町３番地の５グランフォセット平中央公園１００３,,07,204,9708026,,,2023-11-13,清算の結了等,,,2015-10-05,1,,,,,エムティーシーヨコタ,0
293,1470001018191,登記記録の閉鎖等,0,2023-11-15,2023-11-10,株式会社さぬき市場,,株式会社,香川県,高松市,鶴市町１０１０番地１,,37,201,7618032,,,2023-11-10,合併による解散等,9470002006634,令和５年１１月１日香川県高松市香西東町３００番地株式会社ＭＩコーポレーション（9470002006634）に合併し解散,2020-09-11,1,,,,,サヌキイチバ,0
298,2010001051337,登記記録の閉鎖等,0,2023-11-15,2023-11-10,株式会社みずほ,,株式会社,広島県,東広島市,八本松町大字吉川５５６２番地２３,,34,212,7390000,,,2023-11-10,合併による解散等,8040001067705,令和５年１１月１日千葉県我孫子市天王台一丁目５番１号バイオシステム株式会社（8040001067705）に合併し解散,2015-10-05,1,,,,,ミズホ,0
322,2010401138576,登記記録の閉鎖等,0,2023-11-15,2023-11-08,Ｃｈａｒｔインダストリーズジャパン株式会社,,株式会社,東京都,中央区,日本橋小網町１２番７号日本橋小網ビル８階,,13,102,1030016,,,2023-11-08,清算の結了等,,,2018-05-25,1,,,,,チャートインダストリーズジャパン,0
335,2010601061776,登記記録の閉鎖等,0,2023-11-15,2023-11-07,株式会社スターライト,,株式会社,東京都,江東区,亀戸５丁目３２番４－１０１号,,13,108,1360071,,,2023-11-07,清算の結了等,,,2022-09-02,1,,,,,スターライト,0
348,2010901047384,登記記録の閉鎖等,0,2023-11-15,2023-11-13,株式会社Ｆ．Ｄ,,株式会社,東京都,新宿区,中落合２丁目２０番３－３０４号,,13,104,1610032,,,2023-11-13,清算の結了等,,,2020-11-10,1,,,,,エフディー,0
352,2011001058140,登記記録の閉鎖等,0,2023-11-15,2023-10-27,株式会社テスコムリンク,,株式会社,東京都,渋谷区,恵比寿南２丁目１９番３号,,13,113,1500022,,,2023-10-27,合併による解散等,1011001014953,令和５年９月２１日東京都渋谷区恵比寿南二丁目１９番３号テスコム電機株式会社（1011001014953）に合併して解散,2015-10-05,1,,,,,テスコムリンク,0
393,2020002070946,登記記録の閉鎖等,0,2023-11-15,2023-11-08,有限会社ハート・プランニング,,有限会社,神奈川県,横浜市鶴見区,尻手２丁目１番地５４号２階,,14,101,2300003,,,2023-11-08,清算の結了等,,,2015-10-05,1,,,,,ハートプランニング,0
397,2021001045922,登記記録の閉鎖等,0,2023-11-15,2023-11-10,株式会社オウルシステム,,株式会社,神奈川県,藤沢市,辻堂神台１丁目６番３－１４０３号,,14,205,2510041,,,2023-11-10,清算の結了等,,,2015-10-05,1,,,,,オウルシステム,0
409,2030001060897,登記記録の閉鎖等,0,2023-11-15,2023-11-01,株式会社サン・エコー,,株式会社,埼玉県,児玉郡美里町,大字阿那志諏訪山１６９７番地１０,,11,381,3670103,,,2023-11-01,合併による解散等,8030001008239,令和５年１１月１日埼玉県児玉郡美里町大字沼上３８９番地４武藏化成株式会社（8030001008239）に合併し解散,2015-10-05,1,,,,,サンエコー,0
422,2030005007226,登記記録の閉鎖等,0,2023-11-15,2023-11-01,特定非営利活動法人ＮＰＯゆめつるせ,,その他の設立登記法人,埼玉県,富士見市,大字鶴馬２５８９番地３,,11,235,3540021,,,2023-11-01,清算の結了等,,,2015-10-05,1,,,,,エヌピーオーユメツルセ,0
435,2040001075952,登記記録の閉鎖等,0,2023-11-15,2023-11-06,株式会社九十九里,,株式会社,千葉県,旭市,行内１１０８番地,,12,215,2892707,,,2023-11-06,清算の結了等,,,2015-10-05,1,,,,,クジュウクリ,0
436,2040001127811,登記記録の閉鎖等,0,2023-11-15,2023-11-08,広栄ホールディングス株式会社,,株式会社,千葉県,習志野市,東習志野６丁目１６番１１号,,12,216,2750001,,,2023-11-08,清算の結了等,,,2023-04-07,1,,,,,コウエイホールディングス,0
441,2040002055664,登記記録の閉鎖等,0,2023-11-15,2023-11-07,有限会社藤崎商事,,有限会社,千葉県,成田市,宗吾４丁目５番１号,,12,211,2860004,,,2023-11-07,清算の結了等,,,2015-10-05,1,,,,,フジサキショウジ,0
442,2040002094596,登記記録の閉鎖等,0,2023-11-15,2023-11-07,有限会社鵜ノ澤水産,,有限会社,千葉県,柏市,若柴６９番地１,,12,217,2770871,,,2023-11-07,清算の結了等,,,2015-10-05,1,,,,,,0
450,2060001031821,登記記録の閉鎖等,0,2023-11-15,2023-10-30,こもれび林業株式会社,,株式会社,栃木県,那須塩原市,北弥六４１２番地３,,09,213,3293132,,,2023-10-30,清算の結了等,,,2019-08-08,1,,,,,コモレビリンギョウ,0
457,2070003000476,登記記録の閉鎖等,0,2023-11-15,2023-11-02,合同会社ケアサポートぶなの木,,合同会社,群馬県,前橋市,茂木町１２０１番地７,,10,201,3710232,,,2023-11-02,清算の結了等,,,2015-10-05,1,,,,,ケアサポートブナノキ,0
460,2080101015094,登記記録の閉鎖等,0,2023-11-15,2023-10-02,株式会社コレダコーポレーション,,株式会社,東京都,港区,新橋４丁目２４番１０号,,13,103,1050004,,,2023-10-02,合併による解散等,4010401078382,令和５年１０月１日東京都港区新橋四丁目２４番１０号ミノルホールディングス株式会社（4010401078382）に合併し解散,2015-10-05,1,,,,,コレダコーポレーション,0
464,2080401024349,登記記録の閉鎖等,0,2023-11-15,2023-11-09,株式会社タカ・ライジング,,株式会社,静岡県,浜松市西区,伊左地町２７３１番地の１,,22,133,4311111,,,2023-11-09,清算の結了等,,,2020-06-04,1,,,,,タカライジング,0
493,2130001035170,登記記録の閉鎖等,0,2023-11-15,2023-11-07,株式会社平尾組,,株式会社,京都府,船井郡京丹波町,和田寺谷７番地１,,26,407,6220311,,,2023-11-07,清算の結了等,,,2015-10-05,1,,,,,ヒラオグミ,0
498,2140001086080,登記記録の閉鎖等,0,2023-11-15,2023-11-08,三原ガス株式会社,,株式会社,兵庫県,南あわじ市,中条中筋１５７８番地２,,28,224,6560143,,,2023-11-08,清算の結了等,,,2015-10-05,1,,,,,ミハラガス,0
509,2150001013496,登記記録の閉鎖等,0,2023-11-15,2023-11-14,株式会社三吉商事,,株式会社,奈良県,北葛城郡広陵町,馬見中２丁目５番１０号,,29,426,6350832,,,2023-11-14,清算の結了等,,,2015-10-05,1,,,,,ミヨシショウジ,0
511,2150005003907,登記記録の閉鎖等,0,2023-11-15,2023-10-24,天理教桑城分教会,,その他の設立登記法人,奈良県,桜井市,大字粟殿７１４番地,,29,206,6330062,,,2023-10-24,合併による解散等,6170005000601,令和５年１０月２３日和歌山市北中間町３番地天理教紀榮分教会（6170005000601）に合併し解散,2015-10-05,1,,,,,,0
512,2160001007506,登記記録の閉鎖等,0,2023-11-15,2023-11-13,株式会社ふじ石亭,,株式会社,滋賀県,長浜市,朝日町１３番２１号,,25,203,5260056,,,2023-11-13,清算の結了等,,,2015-10-05,1,,,,,フジセキテイ,0
517,2180001031157,登記記録の閉鎖等,0,2023-11-15,2023-11-08,株式会社竹内商店,,株式会社,愛知県,名古屋市中村区,名駅３丁目４番１１号,,23,105,4500002,,,2023-11-08,清算の結了等,,,2015-10-05,1,,,,,タケウチショウテン,0
530,2180005013671,登記記録の閉鎖等,0,2023-11-15,2023-10-10,天神社,,その他の設立登記法人,愛知県,あま市,下萱津宿ノ口８番地,,23,237,4901114,,,2023-10-10,合併による解散等,5180005013677,令和５年１０月１０日愛知県あま市下萱津池端３０番地八王子社（5180005013677）に合併し解散,2015-10-05,1,,,,,テンジンシャ,0
532,2180301028084,登記記録の閉鎖等,0,2023-11-15,2023-11-01,株式会社アシストワークス,,株式会社,愛知県,豊川市,御津町御幸浜一号地２番２６,,23,207,4410314,,,2023-11-01,合併による解散等,8180302015068,令和５年１１月１日愛知県豊川市御津町御幸浜１号地２番２６株式会社アシスト（8180302015068）に合併し解散,2015-10-05,1,,,,,アシストワークス,0
539,2200002007905,登記記録の閉鎖等,0,2023-11-15,2023-11-14,有限会社トキワハウス,,有限会社,岐阜県,各務原市,蘇原瑞雲町１丁目４番地の６,,21,213,5040821,,,2023-11-14,清算の結了等,,,2015-10-05,1,,,,,トキワハウス,0
543,2240001046776,登記記録の閉鎖等,0,2023-11-15,2023-11-10,株式会社もみじファミリコ,,株式会社,広島県,広島市西区,己斐上２丁目４２番２９号,,34,104,7330815,,,2023-11-10,清算の結了等,,,2015-10-05,1,,,,,モミジファミリコ,0
547,2240002034994,登記記録の閉鎖等,0,2023-11-15,2023-11-13,有限会社共生工業,,有限会社,広島県,呉市,川尻町東１丁目１４番６号,,34,202,7372607,,,2023-11-13,清算の結了等,,,2015-10-05,1,,,,,キョウセイコウギョウ,0
559,2290003005957,登記記録の閉鎖等,0,2023-11-15,2023-11-01,合同会社ミソロリア,,合同会社,福岡県,糸島市,蔵持８５７番地１３,,40,230,8191141,,,2023-11-01,清算の結了等,,,2015-10-05,1,,,,,ミソロリア,0
560,2290003008720,登記記録の閉鎖等,0,2023-11-15,2023-11-02,合同会社マイスターＦＰ事務所,,合同会社,福岡県,大野城市,瓦田１丁目９番３６号,,40,219,8160932,,,2023-11-02,清算の結了等,,,2019-02-04,1,,,,,マイスターエフピージムショ,0
570,2310002020491,登記記録の閉鎖等,0,2023-11-15,2023-11-09,有限会社しらゆり美容院,,有限会社,長崎県,五島市,栄町１番地４３,,42,211,8530001,,,2023-11-09,清算の結了等,,,2015-10-05,1,,,,,,0
582,2370002015008,登記記録の閉鎖等,0,2023-11-15,2023-11-13,有限会社後藤住建,,有限会社,宮城県,仙台市太白区,富田字八幡中８５番地の６,,04,104,9820033,,,2023-11-13,清算の結了等,,,2015-10-05,1,,,,,ゴトウジュウケン,0
587,2390001010701,登記記録の閉鎖等,0,2023-11-15,2023-11-13,山形配電製造株式会社,,株式会社,山形県,南陽市,川樋２２９番地の１,00084772,06,213,9992204,,,2023-11-13,清算の結了等,,,2015-10-05,1,,,,,ヤマガタハイデンセイゾウ,0
598,2430005013695,登記記録の閉鎖等,0,2023-11-15,2023-11-13,一般社団法人アップワード,,その他の設立登記法人,北海道,札幌市白石区,本通３丁目南２番１８号,,01,104,0030026,,,2023-11-13,清算の結了等,,,2019-06-04,1,,,,,アップワード,0
607,2500002000771,登記記録の閉鎖等,0,2023-11-15,2023-11-13,有限会社天地商事,,有限会社,愛媛県,松山市,福音寺町３９５番地１６,,38,201,7900921,,,2023-11-13,清算の結了等,,,2015-10-05,1,,,,,アマチショウジ,0
636,3010403011846,登記記録の閉鎖等,0,2023-11-15,2023-11-06,ベテル・エナジー合同会社,,合同会社,広島県,廿日市市,阿品台４丁目１１番９号,,34,213,7380053,,,2023-11-06,合併による解散等,5011101050481,令和５年１１月１日広島県廿日市市阿品台四丁目１１番９号ベテル・キャピタル・パートナーズ株式会社（5011101050481）に合併し解散,2015-10-05,1,,,,,ベテルエナジー,0
648,3010902003591,登記記録の閉鎖等,0,2023-11-15,2023-11-08,有限会社オフィス・エフ・アイ,,有限会社,東京都,世田谷区,祖師谷３丁目１１番２－５０８号,,13,112,1570072,,,2023-11-08,清算の結了等,,,2015-10-05,1,,,,,オフィスエフアイ,0
663,3011101010867,登記記録の閉鎖等,0,2023-11-15,2023-11-09,メイコウエンジ株式会社,,株式会社,東京都,北区,王子本町３丁目５－５後藤ビル３０１,,13,117,1140022,,,2023-11-09,清算の結了等,,,2015-10-05,1,,,,,メイコウエンジ,0
681,3011602005507,登記記録の閉鎖等,0,2023-11-15,2023-11-08,有限会社ステップアップ,,有限会社,東京都,練馬区,富士見台２丁目４番１５号,,13,120,1770034,,,2023-11-08,清算の結了等,,,2015-10-05,1,,,,,ステップアップ,0
699,3012802005932,登記記録の閉鎖等,0,2023-11-15,2023-11-09,有限会社玉ずし,,有限会社,東京都,東大和市,清原１丁目１２００番地２５,,13,220,2070011,,,2023-11-09,清算の結了等,,,2015-10-05,1,,,,,タマズシ,0
750,3040005006779,登記記録の閉鎖等,0,2023-11-15,2023-11-08,特定非営利活動法人日本知的障がい者陸上競技連盟,,その他の設立登記法人,千葉県,山武市,上横地２６８番地１０,,12,237,2891313,,,2023-11-08,清算の結了等,,,2015-10-05,1,Japan Intellectual Disability Athletics Federations,Chiba,"268-10,Kamiyokochi, Sammu shi",,ニホンチテキショウガイシャリクジョウキョウギレンメイ,0
779,3110001022459,登記記録の閉鎖等,0,2023-11-15,2023-11-13,株式会社コンフォートスタッフ,,株式会社,新潟県,長岡市,三島新保６３３番地１,,15,202,9402311,,,2023-11-13,清算の結了等,,,2015-10-05,1,,,,,コンフォートスタッフ,0
801,3120102018082,登記記録の閉鎖等,0,2023-11-15,2023-11-14,有限会社芝池建材,,有限会社,大阪府,羽曳野市,南恵我之荘５丁目２番８号,,27,222,5830885,,,2023-11-14,清算の結了等,,,2015-10-05,1,,,,,シバイケケンザイ,0
813,3140001088596,登記記録の閉鎖等,0,2023-11-15,2023-11-09,株式会社オークランド,,株式会社,兵庫県,神戸市灘区,一王山町７番９号３０１号,,28,102,6570012,,,2023-11-09,清算の結了等,,,2015-10-05,1,,,,,オークランド,0
821,3150002002209,登記記録の閉鎖等,0,2023-11-15,2023-11-14,有限会社神崎ツール,,有限会社,奈良県,奈良市,四条大路１丁目４番５２－４１２号,,29,201,6308014,,,2023-11-14,清算の結了等,,,2015-10-05,1,,,,,,0
850,3270002001529,登記記録の閉鎖等,0,2023-11-15,2023-11-13,有限会社冨吉工務店,,有限会社,鳥取県,鳥取市,湖山町北３丁目４０７番地,,31,201,6800941,,,2023-11-13,清算の結了等,,,2015-10-05,1,,,,,トミヨシコウムテン,0
878,3360001022756,登記記録の閉鎖等,0,2023-11-15,2023-11-09,リアン・エンジェル沖縄株式会社,,株式会社,北海道,札幌市東区,北十一条東４丁目２番４号,,01,103,0650011,,,2023-11-09,清算の結了等,,,2017-08-08,1,,,,,リアンエンジェルオキナワ,0
893,3430002055120,登記記録の閉鎖等,0,2023-11-15,2023-11-07,有限会社藤丸むとう呉服店,,有限会社,北海道,小樽市,花園１丁目１０番１号,,01,203,0470024,,,2023-11-07,清算の結了等,,,2015-10-05,1,,,,,フジマルムトウゴフクテン,0
905,3490002012578,登記記録の閉鎖等,0,2023-11-15,2023-11-10,有限会社澤田医用画像,,有限会社,高知県,香南市,野市町西野６３７番地９,,39,211,7815232,,,2023-11-10,清算の結了等,,,2015-10-05,1,,,,,サワダイヨウガゾウ,0
926,4010005008422,登記記録の閉鎖等,0,2023-11-15,2023-11-10,特定非営利活動法人文化通信ネットワーク,,その他の設立登記法人,東京都,千代田区,神田神保町３丁目１０番地２共立ビル８階,,13,101,1010051,,,2023-11-10,清算の結了等,,,2015-10-05,1,,,,,ブンカツウシンネットワーク,0
968,4011001069251,登記記録の閉鎖等,0,2023-11-15,2023-11-13,株式会社ひふみ,,株式会社,東京都,新宿区,大京町８オークハウス四谷３０２,,13,104,1600015,,,2023-11-13,清算の結了等,,,2015-10-05,1,,,,,ヒフミ,0
985,4011101047578,登記記録の閉鎖等,0,2023-11-15,2023-11-13,株式会社ラズクリエイティブ,,株式会社,東京都,新宿区,早稲田鶴巻町５７１番地,,13,104,1620041,,,2023-11-13,清算の結了等,,,2015-10-05,1,,,,,ラズクリエイティブ,0
986,4011101068814,登記記録の閉鎖等,0,2023-11-15,2023-11-13,株式会社リリー,,株式会社,東京都,新宿区,新宿６丁目７番１号エルプリメント新宿６階,,13,104,1600022,,,2023-11-13,清算の結了等,,,2015-10-05,1,,,,,リリー,0
1002,4011801007831,登記記録の閉鎖等,0,2023-11-15,2023-11-10,三和株式会社,,株式会社,東京都,足立区,梅田２丁目１番１７号,,13,121,1230851,,,2023-11-10,清算の結了等,,,2015-10-05,1,,,,,サンワ,0
1003,4011801027565,登記記録の閉鎖等,0,2023-11-15,2023-11-08,株式会社悟成,,株式会社,東京都,墨田区,東向島２丁目１３番１２号３０１銀第２マンション,,13,107,1310032,,,2023-11-08,清算の結了等,,,2015-10-05,1,,,,,ゴセイ,0
1016,4013401000019,登記記録の閉鎖等,0,2023-11-15,2023-11-09,株式会社愛智出版,,株式会社,東京都,日野市,旭が丘１丁目１４番地１３,,13,212,1910065,,,2023-11-09,清算の結了等,,,2015-10-05,1,,,,,アイチシュッパン,0
1019,4020001113332,登記記録の閉鎖等,0,2023-11-15,2023-11-01,アイバック株式会社,,株式会社,神奈川県,横浜市都筑区,川向町８５２番地１,,14,118,2240044,,,2023-11-01,清算の結了等,,,2015-10-26,1,,,,,アイバック,0
1035,4030001091949,登記記録の閉鎖等,0,2023-11-15,2023-10-19,株式会社トーハンロジテックス,,株式会社,埼玉県,桶川市,大字上日出谷１２０２番地の１,,11,231,3630026,,,2023-10-19,合併による解散等,6011101014262,令和５年１０月１日東京都板橋区東坂下一丁目１８番１５号東販自動車株式会社（6011101014262）に合併し解散,2015-10-05,1,,,,,トーハンロジテックス,0
1057,4050005012445,登記記録の閉鎖等,0,2023-11-15,2023-11-06,特定非営利活動法人えがおの輪,,その他の設立登記法人,茨城県,笠間市,鯉淵６２４０番地１６レジデンス鯉渕２０７,,08,216,3091703,,,2023-11-06,清算の結了等,,,2019-03-01,1,,,,,エガオノワ,0
1072,4080102013319,登記記録の閉鎖等,0,2023-11-15,2023-11-13,有限会社インターナショナル・セイフティー・サービス,,有限会社,静岡県,富士市,大渕５３番地の３９,,22,210,4170000,,,2023-11-13,清算の結了等,,,2015-10-05,1,,,,,インターナショナルセイフティーサービス,0
1095,4120005017206,登記記録の閉鎖等,0,2023-11-15,2023-11-01,一般社団法人資産活用研究会,,その他の設立登記法人,沖縄県,名護市,字豊原７３番地１,,47,209,9052172,,,2023-11-01,清算の結了等,,,2015-10-05,1,,,,,シサンカツヨウケンキュウカイ,0
1097,4120101023586,登記記録の閉鎖等,0,2023-11-15,2023-11-13,株式会社タイガー,,株式会社,大阪府,堺市西区,草部７７５番地１,,27,144,5938312,,,2023-11-13,清算の結了等,,,2015-10-05,1,,,,,タイガー,0
1099,4120101058104,登記記録の閉鎖等,0,2023-11-15,2023-11-13,株式会社ＡＬＤＯ,,株式会社,大阪府,和泉市,池上町４丁目１８番３１号,,27,219,5940083,,,2023-11-13,清算の結了等,,,2018-04-24,1,,,,,アルド,0
1133,4180001009936,登記記録の閉鎖等,0,2023-11-15,2023-11-10,株式会社オーリンタイラー,,株式会社,愛知県,名古屋市瑞穂区,中根町２丁目７番地の１,,23,108,4670055,,,2023-11-10,清算の結了等,,,2015-10-05,1,,,,,オーリンタイラー,0
1135,4180001036567,登記記録の閉鎖等,0,2023-11-15,2023-11-10,沢本器材株式会社,,株式会社,愛知県,名古屋市港区,大手町６丁目２３番地,,23,111,4550046,,,2023-11-10,清算の結了等,,,2015-10-05,1,,,,,サワモトキザイ,0
1143,4180002002080,登記記録の閉鎖等,0,2023-11-15,2023-11-10,有限会社神丘商事,,有限会社,愛知県,名古屋市名東区,神丘町１丁目２５番地,,23,115,4650083,,,2023-11-10,清算の結了等,,,2015-10-05,1,,,,,カミオカショウジ,0
1145,4180002041459,登記記録の閉鎖等,0,2023-11-15,2023-11-13,有限会社神治,,有限会社,愛知県,名古屋市中区,大井町６番２４号,,23,106,4600015,,,2023-11-13,清算の結了等,,,2015-10-05,1,,,,,シンジ,0
1150,4180005013678,登記記録の閉鎖等,0,2023-11-15,2023-10-10,八幡社,,その他の設立登記法人,愛知県,あま市,下萱津宿ノ口９番地,,23,237,4901114,,,2023-10-10,合併による解散等,5180005013677,令和５年１０月１０日愛知県あま市下萱津池端３０番地八王子社（5180005013677）に合併し解散,2015-10-05,1,,,,,ハチマンシャ,0
1151,4190001025577,登記記録の閉鎖等,0,2023-11-15,2023-11-09,株式会社ビジネスウーマン,,株式会社,三重県,四日市市,諏訪栄町４番１０号,,24,202,5100086,,,2023-11-09,清算の結了等,,,2018-05-25,1,,,,,ビジネスウーマン,0
1156,4220001011895,登記記録の閉鎖等,0,2023-11-15,2023-11-10,北川製餡株式会社,,株式会社,石川県,小松市,本大工町１丁目１７番地,,17,203,9230936,,,2023-11-10,清算の結了等,,,2015-10-05,1,,,,,キタガワセイアン,0
1160,4230002006019,登記記録の閉鎖等,0,2023-11-15,2023-11-10,有限会社エム・ツー,,有限会社,富山県,富山市,千石町３丁目８番６号,,16,201,9300066,,,2023-11-10,清算の結了等,,,2015-10-05,1,,,,,エムツー,0
1161,4230005004333,登記記録の閉鎖等,0,2023-11-15,2023-11-13,広恵寺,,その他の設立登記法人,富山県,滑川市,下小泉町１３９番地,,16,206,9360058,,,2023-11-13,清算の結了等,,,2015-10-05,1,,,,,コウエイジ,0
1170,4250002008293,登記記録の閉鎖等,0,2023-11-15,2023-11-13,有限会社スマイルプラン,,有限会社,山口県,下関市,川中本町１丁目２２番８号,,35,201,7510859,,,2023-11-13,清算の結了等,,,2015-10-05,1,,,,,スマイルプラン,0
1171,4250003003145,登記記録の閉鎖等,0,2023-11-15,2023-11-13,合同会社ＬＸｉ,,合同会社,山口県,周南市,大字徳山１０５８７番地の４８グランベール遠石壱番館３０１号,,35,215,7450851,,,2023-11-13,清算の結了等,,,2022-09-12,1,,,,,エルシ,0
1200,4350002003193,登記記録の閉鎖等,0,2023-11-15,2023-11-07,有限会社トミー商事,,有限会社,宮崎県,宮崎市,橘通東３丁目７番２号,,45,201,8800805,,,2023-11-07,清算の結了等,,,2015-10-05,1,,,,,トミーショウジ,0
1214,4370801000422,登記記録の閉鎖等,0,2023-11-15,2023-11-13,株式会社タマヤ,,株式会社,宮城県,岩沼市,中央４丁目１番３号,,04,211,9892432,,,2023-11-13,清算の結了等,,,2015-10-05,1,,,,,タマヤ,0
1217,4380002006788,登記記録の閉鎖等,0,2023-11-15,2023-11-14,有限会社桑島工務店,,有限会社,福島県,伊達市,月舘町糠田字天平６７番地,,07,213,9600905,,,2023-11-14,清算の結了等,,,2015-10-05,1,,,,,クワシマコウムテン,0
1220,4390001010699,登記記録の閉鎖等,0,2023-11-15,2023-11-13,株式会社山形明工,,株式会社,山形県,南陽市,川樋１７６４番地,,06,213,9992204,,,2023-11-13,清算の結了等,,,2015-10-05,1,,,,,ヤマガタメイコウ,0
1222,4400601000156,登記記録の閉鎖等,0,2023-11-15,2023-11-02,三幸農材株式会社,,株式会社,岩手県,奥州市,水沢真城字中上野６７番地の５,,03,215,0230841,,,2023-11-02,清算の結了等,,,2015-10-05,1,,,,,サンコウノウザイ,0
1229,4450002001600,登記記録の閉鎖等,0,2023-11-15,2023-11-13,有限会社旭光硝子サービス,,有限会社,北海道,旭川市,旭町一条１９丁目２１５６番地の９８,,01,204,0700831,,,2023-11-13,清算の結了等,,,2015-10-05,1,,,,,キョッコウガラスサービス,0
1232,4450005001936,登記記録の閉鎖等,0,2023-11-15,2023-11-13,特定非営利活動法人住まいるイン旭川,,その他の設立登記法人,北海道,旭川市,九条通１２丁目５５番地の３,,01,204,0700039,,,2023-11-13,清算の結了等,,,2015-10-05,1,,,,,スマイルインアサヒカワ,0
1236,4480002013238,登記記録の閉鎖等,0,2023-11-15,2023-11-14,高橋商事有限会社,,有限会社,徳島県,徳島市,東出来島町４０番地１－１３０６号,,36,201,7700822,,,2023-11-14,清算の結了等,,,2015-10-05,1,,,,,タカハシショウジ,0
1245,5010001120956,登記記録の閉鎖等,0,2023-11-15,2023-11-14,株式会社ワークワース,,株式会社,広島県,福山市,南蔵王町４丁目８番３７号,,34,207,7210973,,,2023-11-14,清算の結了等,,,2015-10-05,1,,,,,,0
1250,5010001185834,登記記録の閉鎖等,0,2023-11-15,2023-10-20,ダイアトップ株式会社,,株式会社,岐阜県,郡上市,白鳥町向小駄良８０９番地の１,,21,219,5015126,,,2023-10-20,合併による解散等,2190001029753,令和５年１０月１日三重県津市栄町三丁目１２３番地１ＤＩＡホールディングス株式会社（2190001029753）に合併し解散,2017-08-23,1,,,,,ダイアトップ,0
1267,5010401132799,登記記録の閉鎖等,0,2023-11-15,2023-11-08,Ｍ　Ｅｎｔｅｒｔａｉｎｍｅｎｔ　Ｗｏｒｋｓ株式会社,,株式会社,東京都,港区,西麻布２丁目２２番１号,,13,103,1060031,,,2023-11-08,清算の結了等,,,2017-07-28,1,,,,,エムエンターテインメントワークス,0
1307,5011101068680,登記記録の閉鎖等,0,2023-11-15,2023-11-13,プレストワン株式会社,,株式会社,東京都,新宿区,愛住町１７番地１１号,,13,104,1600005,,,2023-11-13,清算の結了等,,,2015-10-05,1,,,,,プレストワン,0
1308,5011101089124,登記記録の閉鎖等,0,2023-11-15,2023-11-13,株式会社Ｍｉｃｏｎｉｒ,,株式会社,東京都,新宿区,西新宿６丁目１５番１－６０７号,,13,104,1600023,,,2023-11-13,清算の結了等,,,2019-10-07,1,,,,,ミコニール,0
1324,5011701006453,登記記録の閉鎖等,0,2023-11-15,2023-11-13,橋本線材株式会社,,株式会社,東京都,江戸川区,中葛西２丁目４番２６号,,13,123,1340083,,,2023-11-13,清算の結了等,,,2015-10-05,1,,,,,ハシモトセンザイ,0
1327,5011805002349,登記記録の閉鎖等,0,2023-11-15,2023-11-13,特定非営利活動法人国際経済協力開発支援機構,,その他の設立登記法人,東京都,足立区,中央本町２丁目１４番１７－５０２号,,13,121,1200011,,,2023-11-13,清算の結了等,,,2015-10-05,1,,,,,コクサイケイザイキョウリョクカイハツシエンキコウ,0
1328,5012301012759,登記記録の閉鎖等,0,2023-11-15,2023-11-08,株式会社ハイジェア,,株式会社,東京都,豊島区,長崎４丁目２６番４号,,13,116,1710051,,,2023-11-08,清算の結了等,,,2021-11-08,1,,,,,ハイジェア,0
1341,5020001132918,登記記録の閉鎖等,0,2023-11-15,2023-11-02,ＧＦｉｖｅ株式会社,,株式会社,神奈川県,横浜市都筑区,仲町台１丁目８番９号仲町台フェニックスコート３０８,,14,118,2240041,,,2023-11-02,清算の結了等,,,2019-09-27,1,,,,,ジーファイブ,0
1347,5020002004959,登記記録の閉鎖等,0,2023-11-15,2023-11-09,有限会社みちわき,,有限会社,神奈川県,横浜市緑区,長津田町３０９７番地１２,,14,113,2260026,,,2023-11-09,清算の結了等,,,2015-10-05,1,,,,,ミチワキ,0
1349,5020003007655,登記記録の閉鎖等,0,2023-11-15,2023-11-02,グローバル知的資産戦略合同会社,,合同会社,神奈川県,川崎市中原区,木月４丁目４９番１－３２４号,,14,133,2110025,,,2023-11-02,清算の結了等,,,2015-10-05,1,,,,,グローバルチテキシサンセンリャク,0
1376,5030002103371,登記記録の閉鎖等,0,2023-11-15,2023-11-02,有限会社シンエイ,,有限会社,埼玉県,川口市,東川口２丁目１６番１号,,11,203,3330801,,,2023-11-02,清算の結了等,,,2015-10-05,1,,,,,シンエイ,0
1383,5040002003505,登記記録の閉鎖等,0,2023-11-15,2023-11-08,有限会社くに,,有限会社,千葉県,千葉市中央区,仁戸名町２１４番地７,,12,101,2600801,,,2023-11-08,清算の結了等,,,2015-10-05,1,,,,,クニ,0
1384,5040002036199,登記記録の閉鎖等,0,2023-11-15,2023-11-08,有限会社フォーユー,,有限会社,千葉県,市川市,平田１丁目９番２６号,,12,203,2720031,,,2023-11-08,清算の結了等,,,2015-10-05,1,,,,,フォーユー,0
1389,5050001029533,登記記録の閉鎖等,0,2023-11-15,2023-11-08,株式会社三谷木工所,,株式会社,茨城県,常総市,水海道渕頭町３０８６番地,,08,211,3030000,,,2023-11-08,清算の結了等,,,2015-10-05,1,,,,,,0
1402,5070002025736,登記記録の閉鎖等,0,2023-11-15,2023-11-10,有限会社寿工業,,有限会社,群馬県,みどり市,大間々町大間々１２番地３,,10,212,3760101,,,2023-11-10,清算の結了等,,,2015-10-05,1,,,,,コトブキコウギョウ,0
1410,5110002020195,登記記録の閉鎖等,0,2023-11-15,2023-11-13,有限会社旭寿司,,有限会社,新潟県,柏崎市,柳橋町９番２０号,,15,205,9450831,,,2023-11-13,清算の結了等,,,2015-10-05,1,,,,,アサヒズシ,0
1411,5110002020435,登記記録の閉鎖等,0,2023-11-15,2023-11-13,有限会社カピーレ,,有限会社,新潟県,柏崎市,穂波町６番２９号,,15,205,9450822,,,2023-11-13,清算の結了等,,,2015-10-05,1,,,,,カピーレ,0
1426,5120102001078,登記記録の閉鎖等,0,2023-11-15,2023-11-10,有限会社オフイステラ,,有限会社,大阪府,堺市北区,百舌鳥西之町３丁５６７番地,,27,146,5918033,,,2023-11-10,清算の結了等,,,2015-10-05,1,,,,,オフイステラ,0
1427,5120901000189,登記記録の閉鎖等,0,2023-11-15,2023-11-10,株式会社今井製作所,,株式会社,大阪府,茨木市,島２丁目６番４０号,,27,211,5670854,,,2023-11-10,清算の結了等,,,2015-10-05,1,,,,,イマイセイサクショ,0
1428,5120901005270,登記記録の閉鎖等,0,2023-11-15,2023-11-08,株式会社アイガスエンジニアリング,,株式会社,大阪府,吹田市,千里山西６丁目２９番２７号,,27,205,5650851,,,2023-11-08,清算の結了等,,,2015-10-05,1,,,,,アイガスエンジニアリング,0
1444,5140001089659,登記記録の閉鎖等,0,2023-11-15,2023-11-10,株式会社ヨシタケ興業,,株式会社,兵庫県,宍粟市,一宮町安積５４０番地６,,28,227,6714131,,,2023-11-10,清算の結了等,,,2015-10-05,1,,,,,ヨシタケコウギョウ,0
1446,5140001121140,登記記録の閉鎖等,0,2023-11-15,2023-11-13,兵庫栄養サービス株式会社,,株式会社,兵庫県,尼崎市,塚口町２丁目２３番地の１,,28,202,6610002,,,2023-11-13,清算の結了等,,,2021-04-08,1,,,,,ヒョウゴエイヨウサービス,0
1464,5180002018349,登記記録の閉鎖等,0,2023-11-15,2023-11-09,有限会社鈴秀ビル管理,,有限会社,愛知県,名古屋市中川区,東中島町８丁目６５番地,,23,110,4540866,,,2023-11-09,清算の結了等,,,2015-10-05,1,,,,,スズヒデビルカンリ,0
1471,5180301014957,登記記録の閉鎖等,0,2023-11-15,2023-11-07,株式会社四元工務店,,株式会社,愛知県,知立市,山町小林１番地６,,23,225,4720006,,,2023-11-07,清算の結了等,,,2015-10-05,1,,,,,,0
1472,5180301015468,登記記録の閉鎖等,0,2023-11-15,2023-11-06,株式会社光塗装工業所,,株式会社,愛知県,碧南市,荒子町６丁目７２番地,,23,209,4470038,,,2023-11-06,清算の結了等,,,2015-10-05,1,,,,,ヒカリトソウコウギョウショ,0
1473,5180301017431,登記記録の閉鎖等,0,2023-11-15,2023-11-07,株式会社ツイーンズ,,株式会社,愛知県,岡崎市,井内町字手保１４番地５０２号,,23,202,4440203,,,2023-11-07,清算の結了等,,,2015-10-05,1,,,,,ツイーンズ,0
1485,5220002013626,登記記録の閉鎖等,0,2023-11-15,2023-11-13,有限会社麻生自動車鈑金,,有限会社,石川県,七尾市,江曽町ロ部２９番地,,17,202,9260825,,,2023-11-13,清算の結了等,,,2015-10-05,1,,,,,アソウジドウシャバンキン,0
1487,5230002014284,登記記録の閉鎖等,0,2023-11-15,2023-11-10,有限会社イミズ,,有限会社,富山県,射水市,加茂東部６１８番地の２,,16,211,9330203,,,2023-11-10,清算の結了等,,,2015-10-05,1,,,,,イミズ,0
1496,5240002025495,登記記録の閉鎖等,0,2023-11-15,2023-11-10,有限会社温品一丁目,,有限会社,広島県,安芸郡府中町,青崎東４番１１号,,34,302,7350015,,,2023-11-10,清算の結了等,,,2015-10-05,1,,,,,ヌクシナイッチョウメ,0
1499,5280001007763,登記記録の閉鎖等,0,2023-11-15,2023-11-13,株式会社エフシーバンク,,株式会社,島根県,出雲市,渡橋町１２２７番地,,32,203,6930004,,,2023-11-13,合併による解散等,6280001004074,令和５年１１月１３日島根県出雲市渡橋町７０６番地１株式会社丸三島根（6280001004074）に合併し解散,2018-07-09,1,,,,,エフシーバンク,0
1506,5290002027140,登記記録の閉鎖等,0,2023-11-15,2023-11-02,有限会社珪州館,,有限会社,福岡県,福岡市城南区,田島２丁目２６番１１－１号,,40,136,8140113,,,2023-11-02,清算の結了等,,,2015-10-05,1,,,,,ケイシュウカン,0
1510,5310003002098,登記記録の閉鎖等,0,2023-11-15,2023-11-13,合資会社本村長盛堂,,合資会社,長崎県,南島原市,南有馬町乙４０８番地,,42,214,8592412,,,2023-11-13,清算の結了等,,,2015-10-05,1,,,,,モトムラチョウセイドウ,0
1513,5340001014448,登記記録の閉鎖等,0,2023-11-15,2023-11-14,ミサキコーポレーション株式会社,,株式会社,鹿児島県,肝属郡南大隅町,佐多伊座敷３９９０番地,,46,491,8932601,,,2023-11-14,清算の結了等,,,2015-10-05,1,,,,,ミサキコーポレーション,0
1516,5350002000529,登記記録の閉鎖等,0,2023-11-15,2023-11-07,浮之城商事有限会社,,有限会社,宮崎県,宮崎市,柳丸町３２番地,,45,201,8800844,,,2023-11-07,清算の結了等,,,2015-10-05,1,,,,,ウキノジョウショウジ,0
1522,5370001006327,登記記録の閉鎖等,0,2023-11-15,2023-11-13,リーズン株式会社,,株式会社,宮城県,仙台市宮城野区,榴岡４丁目１番８号－７０１,,04,102,9830852,,,2023-11-13,清算の結了等,,,2015-10-05,1,,,,,リーズン,0
1531,5390001010541,登記記録の閉鎖等,0,2023-11-15,2023-11-13,荒鈑産業株式会社,,株式会社,山形県,南陽市,川樋２２９番地の１,00084764,06,213,9992204,,,2023-11-13,清算の結了等,,,2015-10-05,1,,,,,アラバンサンギョウ,0
1534,5420002002674,登記記録の閉鎖等,0,2023-11-15,2023-11-06,有限会社丸久運送,,有限会社,青森県,青森市,大字石江字三好１６６番地３,,02,201,0380003,,,2023-11-06,清算の結了等,,,2015-10-05,1,,,,,マルヒサウンソウ,0
1538,5430001012161,登記記録の閉鎖等,0,2023-11-15,2023-11-10,株式会社ナガノ,,株式会社,北海道,札幌市白石区,中央三条５丁目４番３３号,,01,104,0030013,,,2023-11-10,合併による解散等,8040001067705,令和５年１１月１日千葉県我孫子市天王台一丁目５番１号バイオシステム株式会社（8040001067705）に合併し解散,2015-10-05,1,,,,,ナガノ,0
1549,5450001005428,登記記録の閉鎖等,0,2023-11-15,2023-11-13,ノベモト商店株式会社,,株式会社,北海道,深川市,二条３番２９号,,01,228,0740002,,,2023-11-13,清算の結了等,,,2015-10-05,1,,,,,,0
1550,5460101006093,登記記録の閉鎖等,0,2023-11-15,2023-11-13,株式会社マイマーケティング,,株式会社,北海道,帯広市,東六条南７丁目１番地１,,01,207,0800806,,,2023-11-13,清算の結了等,,,2017-02-28,1,,,,,マイマーケティング,0
1555,5470005006239,登記記録の閉鎖等,0,2023-11-15,2023-11-08,特定非営利活動法人咸臨丸・福祉とアート,,その他の設立登記法人,香川県,丸亀市,本島町泊４８１番地２号,,37,202,7630223,,,2023-11-08,清算の結了等,,,2020-01-31,1,,,,,カンリンマルフクシトアート,0
1566,6010001186063,登記記録の閉鎖等,0,2023-11-15,2023-10-18,株式会社ヴィトーリアフリント,,株式会社,東京都,中央区,銀座８丁目１４番９号,,13,102,1040061,,,2023-10-18,合併による解散等,7010001158243,令和５年９月１日東京都中央区八丁堀三丁目１４番４号株式会社ヴィトーリア（7010001158243）に合併し解散,2017-09-11,1,,,,,ヴィトーリアフリント,0
1568,6010001191542,登記記録の閉鎖等,0,2023-11-15,2023-11-09,株式会社カウンターカルチャー,,株式会社,東京都,中央区,八重洲２丁目１１番２号,,13,102,1040028,,,2023-11-09,合併による解散等,4080101017964,令和５年１１月１日東京都港区西新橋三丁目５番９号株式会社カワムラ建設（4080101017964）に合併し解散,2018-05-08,1,,,,,カウンターカルチャー,0
1576,6010005034788,登記記録の閉鎖等,0,2023-11-15,2023-11-10,一般社団法人板橋本町２,,その他の設立登記法人,東京都,千代田区,麹町５丁目１番地ＮＫ真和ビル９階,,13,101,1020083,,,2023-11-10,清算の結了等,,,2022-03-30,1,,,,,イタバシホンチョウツー,0
1581,6010401156418,登記記録の閉鎖等,0,2023-11-15,2023-11-07,ゲンダイハイテック株式会社,,株式会社,埼玉県,春日部市,中央１丁目５０－１２,,11,214,3440067,,,2023-11-07,清算の結了等,,,2020-11-13,1,,,,,ゲンダイハイテック,0
1588,6010403020489,登記記録の閉鎖等,0,2023-11-15,2023-11-08,合同会社Ｔｅｉｓｔｏｒｙ,,合同会社,東京都,世田谷区,宮坂２丁目１番２１号,,13,112,1560051,,,2023-11-08,清算の結了等,,,2019-04-04,1,,,,,テイストーリー,0
1591,6010405018936,登記記録の閉鎖等,0,2023-11-15,2023-11-09,一般社団法人レジデンス・エイト,,その他の設立登記法人,東京都,港区,赤坂２丁目１０番５号税理士法人赤坂国際会計事務所内,,13,103,1070052,,,2023-11-09,清算の結了等,,,2020-07-31,1,,,,,レジデンスエイト,0
1593,6010502006810,登記記録の閉鎖等,0,2023-11-15,2023-11-08,有限会社ダイマス,,有限会社,東京都,台東区,上野４丁目６番１３号,,13,106,1100005,,,2023-11-08,清算の結了等,,,2015-10-05,1,,,,,ダイマス,0
1597,6010601037392,登記記録の閉鎖等,0,2023-11-15,2023-11-07,株式会社ビーエスフォアサイト,,株式会社,千葉県,浦安市,日の出６丁目２番Ｂ－７０１号アールフォーラム新浦安,,12,227,2790013,,,2023-11-07,清算の結了等,,,2015-10-05,1,,,,,ビーエスフォアサイト,0
1628,6011201020722,登記記録の閉鎖等,0,2023-11-15,2023-11-10,株式会社Ｔｏｒｅｍｏｒｏ,,株式会社,東京都,港区,港南２丁目１５－１品川インターシティＡ棟２２階,,13,103,1080075,,,2023-11-10,合併による解散等,3011701023533,令和５年１１月１日東京都品川区上大崎三丁目１番１号ＷａｎｎａＥａｔ株式会社（3011701023533）に合併し解散,2018-07-05,1,,,,,トレモロ,0
1659,6020003022348,登記記録の閉鎖等,0,2023-11-15,2023-11-08,合同会社ヒカリノユイ,,合同会社,神奈川県,川崎市中原区,上新城２丁目７番１９－１１０号ダイアパレスステーションプラザ,,14,133,2110045,,,2023-11-08,清算の結了等,,,2022-09-06,1,,,,,ヒカリノユイ,0
1668,6021002042064,登記記録の閉鎖等,0,2023-11-15,2023-11-10,有限会社華和,,有限会社,神奈川県,大和市,代官３丁目１３番地の４,,14,213,2420025,,,2023-11-10,清算の結了等,,,2015-10-05,1,,,,,ハナワ,0
1679,6040001058177,登記記録の閉鎖等,0,2023-11-15,2023-11-07,株式会社高橋水道工業,00019275,株式会社,千葉県,山武市,富口２２７８番地,,12,237,2891323,,,2023-11-07,清算の結了等,,,2015-10-05,1,,,,,タカハシスイドウコウギョウ,0
1698,6050003006199,登記記録の閉鎖等,0,2023-11-15,2023-11-09,合同会社Ｃ．Ｎ．Ｉエクステリア,,合同会社,茨城県,牛久市,牛久町２４７番地２,,08,219,3001221,,,2023-11-09,清算の結了等,,,2021-11-15,1,,,,,シエヌアイエクステリア,0
1704,6070002004648,登記記録の閉鎖等,0,2023-11-15,2023-11-10,有限会社双葉製図事務所,,有限会社,群馬県,前橋市,元総社町８５６番地の７,,10,201,3710846,,,2023-11-10,清算の結了等,,,2015-10-05,1,,,,,フタバセイズジムショ,0
1710,6080001012551,登記記録の閉鎖等,0,2023-11-15,2023-11-13,株式会社スギテックエンジニアリング,,株式会社,静岡県,静岡市葵区,田町４丁目６８番地の２,,22,101,4200068,,,2023-11-13,清算の結了等,,,2015-10-05,1,,,,,スギテックエンジニアリング,0
1715,6100002005320,登記記録の閉鎖等,0,2023-11-15,2023-11-08,有限会社柳沢木工,,有限会社,長野県,長野市,大字南長池４４０番地１１,,20,201,3810024,,,2023-11-08,清算の結了等,,,2015-10-05,1,,,,,ヤナギサワモッコウ,0
1723,6120001030235,登記記録の閉鎖等,0,2023-11-15,2023-11-13,株式会社アルバ,,株式会社,大阪府,堺市南区,槇塚台４丁３番３号,,27,145,5900114,,,2023-11-13,清算の結了等,,,2015-10-05,1,,,,,,0
1728,6120003009731,登記記録の閉鎖等,0,2023-11-15,2023-11-07,合同会社アスカコーポレーション,,合同会社,大阪府,大阪市西区,土佐堀１丁目５－２１－１００４,,27,106,5500001,,,2023-11-07,清算の結了等,,,2015-10-05,1,,,,,アスカコーポレーション,0
1737,6120901026489,登記記録の閉鎖等,0,2023-11-15,2023-11-09,株式会社サンタックス,,株式会社,大阪府,豊中市,島江町２丁目４番４号サンコービル３階,,27,203,5610826,,,2023-11-09,清算の結了等,,,2015-10-05,1,,,,,サンタックス,0
1738,6120901029723,登記記録の閉鎖等,0,2023-11-15,2023-11-10,株式会社ケイズファブリック,,株式会社,大阪府,箕面市,半町２丁目１１番３９号,,27,220,5620044,,,2023-11-10,清算の結了等,,,2015-10-05,1,,,,,,0
1748,6140001056105,登記記録の閉鎖等,0,2023-11-15,2023-11-10,株式会社コーポレーション大丸,,株式会社,兵庫県,豊岡市,大手町１番２７号,,28,209,6680031,,,2023-11-10,清算の結了等,,,2015-10-05,1,,,,,,0
1756,6150001005226,登記記録の閉鎖等,0,2023-11-15,2023-11-14,株式会社メガ,,株式会社,奈良県,生駒市,北田原町２４７６番地,,29,209,6300142,,,2023-11-14,清算の結了等,,,2015-10-05,1,,,,,メガ,0
1761,6180001016451,登記記録の閉鎖等,0,2023-11-15,2023-11-06,株式会社菊田工務店,,株式会社,愛知県,名古屋市東区,出来町１丁目１０番３０号,,23,102,4610032,,,2023-11-06,清算の結了等,,,2015-10-05,1,,,,,キクタコウムテン,0
1766,6180001090216,登記記録の閉鎖等,0,2023-11-15,2023-11-09,株式会社ブレス,,株式会社,愛知県,名古屋市中区,丸の内１丁目１５番２８号,,23,106,4600002,,,2023-11-09,清算の結了等,,,2015-10-05,1,,,,,ブレス,0
1792,6200002000906,登記記録の閉鎖等,0,2023-11-15,2023-11-14,有限会社オプトシステム,,有限会社,岐阜県,岐阜市,西荘２丁目６番１号,,21,201,5008362,,,2023-11-14,清算の結了等,,,2015-10-05,1,,,,,オプトシステム,0
1795,6200005007650,登記記録の閉鎖等,0,2023-11-15,2023-10-19,阿弥陀寺,,その他の設立登記法人,岐阜県,関市,小野１４３３番地,,21,205,5013201,,,2023-10-19,合併による解散等,8200005007566,令和５年１０月１９日岐阜県関市小野９３１番地徳巖寺（8200005007566）に合併し解散,2015-10-05,1,,,,,アミダジ,0
1796,6210001015094,登記記録の閉鎖等,0,2023-11-15,2023-11-07,マシーンツールセンター株式会社,,株式会社,福井県,あわら市,熊坂第９号１７番地１,,18,208,9190723,,,2023-11-07,清算の結了等,,,2015-10-05,1,,,,,マシーンツールセンター,0
1799,6230005002847,登記記録の閉鎖等,0,2023-11-15,2023-10-25,八幡社,,その他の設立登記法人,富山県,富山市,八尾町中島３４２番地,,16,201,9392436,,,2023-10-25,合併による解散等,7230005002788,令和５年１０月２５日富山市八尾町黒田３９２８番地杉原神社（7230005002788）に合併し解散,2015-10-05,1,,,,,ハチマンシャ,0
1809,6240002053066,登記記録の閉鎖等,0,2023-11-15,2023-11-10,有限会社岸田不動産,,有限会社,広島県,三原市,宗郷２丁目３番３５号,,34,204,7230044,,,2023-11-10,清算の結了等,,,2015-10-05,1,,,,,キシダフドウサン,0
1811,6260001016427,登記記録の閉鎖等,0,2023-11-15,2023-11-13,株式会社メイク,,株式会社,岡山県,倉敷市,川入７１７番地２,,33,202,7100811,,,2023-11-13,清算の結了等,,,2015-10-05,1,,,,,メイク,0
1838,6380002007009,登記記録の閉鎖等,0,2023-11-15,2023-11-10,有限会社ケイジェイ,,有限会社,福島県,福島市,春日町１１番３９号,,07,201,9608116,,,2023-11-10,清算の結了等,,,2015-10-05,1,,,,,ケイジェイ,0
1845,6430002044970,登記記録の閉鎖等,0,2023-11-15,2023-11-07,有限会社ユーテック,,有限会社,北海道,北広島市,稲穂町東１１丁目４番地２,,01,234,0611125,,,2023-11-07,清算の結了等,,,2015-10-05,1,,,,,ユーテック,0
1856,6460101004550,登記記録の閉鎖等,0,2023-11-15,2023-11-13,株式会社北の栖,,株式会社,北海道,帯広市,西七条南１６丁目１１番地５,,01,207,0800017,,,2023-11-13,清算の結了等,,,2015-10-05,1,,,,,キタノスミカ,0
1862,7010001174034,登記記録の閉鎖等,0,2023-11-15,2023-10-18,株式会社ヴィトーリアステラ,,株式会社,東京都,中央区,八丁堀３丁目１９番２号,,13,102,1040032,,,2023-10-18,合併による解散等,7010001158243,令和５年９月１日東京都中央区八丁堀三丁目１４番４号株式会社ヴィトーリア（7010001158243）に合併し解散,2016-03-10,1,,,,,ヴィトーリアステラ,0
1864,7010001224664,登記記録の閉鎖等,0,2023-11-15,2023-11-08,株式会社Ａｔｅｌｉｅｒ,,株式会社,東京都,千代田区,九段南１丁目５番６号りそな九段ビル５Ｆ,,13,101,1020074,,,2023-11-08,清算の結了等,,,2022-02-18,1,,,,,アトリエ,0
1865,7010001227915,登記記録の閉鎖等,0,2023-11-15,2023-11-07,株式会社Ｋａｇａｒｉｂｉ,,株式会社,東京都,中央区,銀座４丁目８番２号,,13,102,1040061,,,2023-11-07,合併による解散等,5011001110204,令和５年１１月１日東京都中央区築地四丁目１番１７号株式会社カケハシ（5011001110204）に合併し解散,2022-07-07,1,,,,,カガリビ,0
1877,7010005034787,登記記録の閉鎖等,0,2023-11-15,2023-11-10,一般社団法人ＤＡＷＮ２,,その他の設立登記法人,東京都,千代田区,麹町５丁目１番地ＮＫ真和ビル９階,,13,101,1020083,,,2023-11-10,清算の結了等,,,2022-03-30,1,,,,,ドーンツー,0
1881,7010401098758,登記記録の閉鎖等,0,2023-11-15,2023-11-10,ＭａｒｋＬｏｇｉｃ株式会社,,株式会社,東京都,渋谷区,神宮前１丁目５番８号,,13,113,1500001,,,2023-11-10,合併による解散等,7010401069593,令和５年１１月１日東京都港区南麻布四丁目１１番２２号プログレス・ソフトウェア・ジャパン株式会社（7010401069593）に合併し解散,2015-10-05,1,,,,,マークロジック,0
1903,7010801031748,登記記録の閉鎖等,0,2023-11-15,2023-11-10,株式会社ＰＦＳ,,株式会社,東京都,大田区,西糀谷４丁目８－１２,,13,111,1440034,,,2023-11-10,清算の結了等,,,2021-03-12,1,,,,,ピーエフエス,0
1906,7010902013364,登記記録の閉鎖等,0,2023-11-15,2023-11-10,有限会社プライム・サウンド,,有限会社,東京都,世田谷区,若林１丁目２番７号,,13,112,1540023,,,2023-11-10,清算の結了等,,,2015-10-05,1,,,,,プライムサウンド,0
1912,7011001098710,登記記録の閉鎖等,0,2023-11-15,2023-10-17,株式会社ダイアナホールディングス,,株式会社,東京都,渋谷区,富ヶ谷１丁目３５番２３号,,13,113,1510063,,,2023-10-17,合併による解散等,6011001048419,令和５年９月３０日東京都渋谷区富ケ谷一丁目３５番２３号株式会社ダイアナ（6011001048419）に合併し解散,2015-10-05,1,,,,,ダイアナホールディングス,0
1914,7011001119210,登記記録の閉鎖等,0,2023-11-15,2023-11-13,株式会社ＮＥＸＴ,,株式会社,北海道,札幌市中央区,南八条西５丁目２８９番８８号,,01,101,0640808,,,2023-11-13,清算の結了等,,,2017-11-14,1,,,,,ネクスト,0
1921,7011302006256,登記記録の閉鎖等,0,2023-11-15,2023-11-01,有限会社天ぷら矢吹,,有限会社,東京都,杉並区,高井戸東３丁目２８番２４号,,13,115,1680072,,,2023-11-01,清算の結了等,,,2015-10-05,1,,,,,,0
1945,7020001049367,登記記録の閉鎖等,0,2023-11-15,2023-11-06,アーム横浜株式会社,,株式会社,神奈川県,横浜市港南区,笹下４丁目１３番７号,,14,111,2340052,,,2023-11-06,清算の結了等,,,2015-10-05,1,,,,,アームヨコハマ,0
1964,7020005004351,登記記録の閉鎖等,0,2023-11-15,2023-11-06,特定非営利活動法人地球宇宙平和研究所,,その他の設立登記法人,神奈川県,横浜市磯子区,上町六丁目１２番２号,,14,107,2350001,,,2023-11-06,清算の結了等,,,2015-10-05,1,,,,,チキュウウチュウヘイワケンキュウジョ,0
1989,7040003013550,登記記録の閉鎖等,0,2023-11-15,2023-11-09,合同会社みやびリンクス,,合同会社,千葉県,千葉市若葉区,みつわ台１丁目１６番１７号,,12,104,2640032,,,2023-11-09,清算の結了等,,,2019-06-19,1,,,,,ミヤビリンクス,0
1998,7060002039017,登記記録の閉鎖等,0,2023-11-15,2023-11-10,有限会社齋川鉄工所,,有限会社,栃木県,佐野市,大橋町１６６８番地,,09,204,3270003,,,2023-11-10,清算の結了等,,,2015-10-05,1,,,,,サイカワテッコウジョ,0
1999,7070002012237,登記記録の閉鎖等,0,2023-11-15,2023-11-08,有限会社三沢なめこ園,,有限会社,群馬県,高崎市,倉渕町川浦６０５番地,,10,202,3703405,,,2023-11-08,清算の結了等,,,2015-10-05,1,,,,,ミサワナメコエン,0
2000,7070002014010,登記記録の閉鎖等,0,2023-11-15,2023-11-09,有限会社丸本工業,,有限会社,群馬県,高崎市,稲荷台町３２番地１６,,10,202,3703516,,,2023-11-09,清算の結了等,,,2015-10-05,1,,,,,マルモトコウギョウ,0
2012,7110005014969,登記記録の閉鎖等,0,2023-11-15,2023-11-10,特定非営利活動法人鳥獣被害防止対策猟友会,,その他の設立登記法人,新潟県,上越市,栄町２丁目６番９号,,15,222,9420072,,,2023-11-10,清算の結了等,,,2015-10-05,1,,,,,チョウジュウヒガイボウシタイサクリョウユウカイ,0
2026,7120002079460,登記記録の閉鎖等,0,2023-11-15,2023-10-04,大利運送有限会社,,有限会社,大阪府,門真市,堂山町９番９号,,27,223,5710059,,,2023-10-04,合併による解散等,3120001157642,令和５年１０月１日大阪府門真市岸和田四丁目１番７号誠和運輸株式会社（3120001157642）に合併し解散,2015-10-05,1,,,,,オオトシウンソウ,0
2028,7120101021182,登記記録の閉鎖等,0,2023-11-15,2023-11-13,株式会社佐野商会,,株式会社,大阪府,堺市中区,田園４０５－１,,27,142,5998246,,,2023-11-13,清算の結了等,,,2015-10-05,1,,,,,サノショウカイ,0
2078,7180002017869,登記記録の閉鎖等,0,2023-11-15,2023-11-10,有限会社久保田建工,,有限会社,愛知県,名古屋市港区,築盛町１０２番地の５,,23,111,4550057,,,2023-11-10,清算の結了等,,,2015-10-05,1,,,,,クボタケンコウ,0
2092,7200005001636,登記記録の閉鎖等,0,2023-11-15,2023-11-14,特定非営利活動法人環境共生型すまい推進ネットワーク・ヴィヴィッド岐阜,,その他の設立登記法人,岐阜県,岐阜市,六条南２丁目１２番２０,,21,201,5008358,,,2023-11-14,清算の結了等,,,2015-10-05,1,,,,,カンキョウキョウセイカタスマイスイシンネットワークヴィヴィッドギフ,0
2096,7230002012435,登記記録の閉鎖等,0,2023-11-15,2023-11-13,有限会社村口鉄筋工業所,,有限会社,富山県,高岡市,福岡町大滝９６３番地の９,,16,202,9390132,,,2023-11-13,清算の結了等,,,2015-10-05,1,,,,,ムラクチテッキンコウギョウショ,0
2115,7290801003678,登記記録の閉鎖等,0,2023-11-15,2023-11-13,株式会社メイケン九州,,株式会社,福岡県,北九州市小倉北区,上富野１丁目４番１号,,40,106,8020022,,,2023-11-13,合併による解散等,4290001002252,令和５年１１月１日福岡市博多区板付四丁目６番３３号株式会社北洋建設（4290001002252）に合併し解散,2015-10-05,1,,,,,メイケンキュウシュウ,0
2119,7340001002921,登記記録の閉鎖等,0,2023-11-15,2023-11-14,株式会社トーナン,,株式会社,鹿児島県,鹿児島市,中山町５２５０番地１,,46,201,8910105,,,2023-11-14,清算の結了等,,,2015-10-05,1,,,,,トーナン,0
2127,7370005009902,登記記録の閉鎖等,0,2023-11-15,2023-11-13,農事組合法人ゆめ工房小坂,,その他の設立登記法人,宮城県,角田市,小坂字沼ノ入３５番地,,04,208,9811532,,,2023-11-13,清算の結了等,,,2019-03-15,1,,,,,ユメコウボウコサカ,0
2130,7420002007416,登記記録の閉鎖等,0,2023-11-15,2023-11-08,有限会社スタジオ・ホット,,有限会社,青森県,八戸市,諏訪３丁目１番８号,,02,203,0310803,,,2023-11-08,清算の結了等,,,2015-10-05,1,,,,,スタジオホット,0
2131,7420002011896,登記記録の閉鎖等,0,2023-11-15,2023-11-08,有限会社肉の木村,,有限会社,青森県,北津軽郡中泊町,大字深郷田字富森７７番地,,02,387,0370308,,,2023-11-08,清算の結了等,,,2015-10-05,1,,,,,ニクノキムラ,0
2132,7430001063715,登記記録の閉鎖等,0,2023-11-15,2023-11-01,株式会社ライデン,,株式会社,北海道,札幌市東区,北二十四条東１２丁目１番３４号,,01,103,0650024,,,2023-11-01,合併による解散等,1430001021100,令和５年１１月１日札幌市東区北二十四条東十二丁目１番３４号日本雷電株式会社（1430001021100）に合併し解散,2015-10-05,1,,,,,ライデン,0
2136,7430002001640,登記記録の閉鎖等,0,2023-11-15,2023-11-07,有限会社石塚建具製作所,,有限会社,北海道,札幌市北区,太平七条５丁目５番１０号,,01,102,0028007,,,2023-11-07,清算の結了等,,,2015-10-05,1,,,,,イシヅカタテグセイサクショ,0
2137,7430002039532,登記記録の閉鎖等,0,2023-11-15,2023-11-07,有限会社テラ・メリタ,,有限会社,北海道,札幌市中央区,南三条西２７丁目３番１２－３０１,,01,101,0640803,,,2023-11-07,清算の結了等,,,2015-10-05,1,,,,,テラメリタ,0
2140,7450003001695,登記記録の閉鎖等,0,2023-11-15,2023-11-13,合同会社カフェ旭荘,,合同会社,北海道,旭川市,旭町一条２丁目４３９番地の７５,,01,204,0700831,,,2023-11-13,清算の結了等,,,2018-02-02,1,,,,,カフェアサヒソウ,0
2147,8010001073086,登記記録の閉鎖等,0,2023-11-15,2023-11-09,株式会社尾沢工房,,株式会社,東京都,練馬区,栄町６番６－８０１号,,13,120,1760006,,,2023-11-09,清算の結了等,,,2015-10-05,1,,,,,オザワコウボウ,0
2197,8011102009490,登記記録の閉鎖等,0,2023-11-15,2023-11-10,永山ステンレス有限会社,,有限会社,神奈川県,逗子市,小坪５丁目２３番６－６４０９号,,14,208,2490008,,,2023-11-10,清算の結了等,,,2015-10-05,1,,,,,ナガヤマステンレス,0
2211,8011802009798,登記記録の閉鎖等,0,2023-11-15,2023-11-13,有限会社いづも,,有限会社,東京都,足立区,中央本町４丁目１３番１４号,,13,121,1210011,,,2023-11-13,清算の結了等,,,2015-10-05,1,,,,,,0
2247,8021001071756,登記記録の閉鎖等,0,2023-11-15,2023-11-10,株式会社セラピスタ,,株式会社,神奈川県,小田原市,扇町３丁目２２番１号,,14,206,2500001,,,2023-11-10,清算の結了等,,,2021-01-08,1,,,,,セラピスタ,0
2251,8021002056483,登記記録の閉鎖等,0,2023-11-15,2023-10-31,有限会社ハローテクノ,,有限会社,神奈川県,相模原市南区,相模台団地一丁目５番１０３号,,14,153,2520322,,,2023-10-31,清算の結了等,,,2015-10-05,1,,,,,ハローテクノ,0
2263,8030002035216,登記記録の閉鎖等,0,2023-11-15,2023-11-02,有限会社佐藤建築工業,,有限会社,埼玉県,入間市,久保稲荷５丁目１４番地２４,,11,225,3580024,,,2023-11-02,清算の結了等,,,2015-10-05,1,,,,,サトウケンチクコウギョウ,0
2265,8030002120620,登記記録の閉鎖等,0,2023-11-15,2023-10-11,有限会社安斎エンジニアリング,,有限会社,埼玉県,飯能市,大字双柳３５２番地４,,11,209,3570021,,,2023-10-11,清算の結了等,,,2015-10-05,1,,,,,アンザイエンジニアリング,0
2273,8040001037195,登記記録の閉鎖等,0,2023-11-15,2023-11-09,ユニテック株式会社,,株式会社,千葉県,松戸市,西馬橋２丁目８番地の２９,,12,207,2710044,,,2023-11-09,清算の結了等,,,2015-10-05,1,,,,,ユニテック,0
2284,8040005004720,登記記録の閉鎖等,0,2023-11-15,2023-11-09,特定非営利活動法人千楽ｃｈｉ－ｒａｋｕ,,その他の設立登記法人,千葉県,浦安市,東野１丁目７番５号,,12,227,2790042,,,2023-11-09,清算の結了等,,,2015-10-05,1,,,,,チラクチラク,0
2302,8080101007391,登記記録の閉鎖等,0,2023-11-15,2023-11-14,株式会社エムエス・パドック,,株式会社,静岡県,駿東郡小山町,一色１６０番地,,22,344,4101325,,,2023-11-14,清算の結了等,,,2015-10-05,1,,,,,エムエスパドック,0
2311,8100002010896,登記記録の閉鎖等,0,2023-11-15,2023-11-08,有限会社ジュエリーワイアール,,有限会社,長野県,佐久市,北川５３０番地３,,20,217,3840304,,,2023-11-08,清算の結了等,,,2023-03-29,1,,,,,ジュエリーワイアール,0
2316,8110002005557,登記記録の閉鎖等,0,2023-11-15,2023-11-02,有限会社ヒロヤ商事,,有限会社,新潟県,新潟市東区,大形本町４丁目１１番７号,,15,102,9500813,,,2023-11-02,清算の結了等,,,2015-10-05,1,,,,,ヒロヤショウジ,0
2317,8120001010292,登記記録の閉鎖等,0,2023-11-15,2023-11-08,大光水産株式会社,,株式会社,大阪府,大阪市東住吉区,今林１丁目２番６８号大阪市中央卸売市場東部市場内,,27,121,5460001,,,2023-11-08,清算の結了等,,,2015-10-05,1,,,,,ダイコウスイサン,0
2355,8130001065121,登記記録の閉鎖等,0,2023-11-15,2023-10-20,ヒューリックホテルマネジメント京都株式会社,,株式会社,京都府,京都市中京区,蛸薬師通河原町東入備前島町３１０番地２,,26,104,6048023,,,2023-10-20,合併による解散等,1010501033785,令和５年１０月１日東京都中央区日本橋小舟町１３番８号ヒューリックホテルマネジメント株式会社（1010501033785）に合併し解散,2019-08-19,1,,,,,ヒューリックホテルマネジメントキョウト,0
2366,8150001014729,登記記録の閉鎖等,0,2023-11-15,2023-11-14,グローバル実業株式会社,,株式会社,奈良県,大和高田市,南今里町７番２７号,,29,202,6350033,,,2023-11-14,清算の結了等,,,2015-10-05,1,,,,,,0
2367,8160001001866,登記記録の閉鎖等,0,2023-11-15,2023-11-13,株式会社丸泰,,株式会社,滋賀県,大津市,瀬田大江町５９番地の１,,25,201,5202123,,,2023-11-13,清算の結了等,,,2015-10-05,1,,,,,マルヤス,0
2374,8180001087755,登記記録の閉鎖等,0,2023-11-15,2023-11-10,アスト総合不動産株式会社,,株式会社,愛知県,一宮市,城崎通５丁目２９番地２,,23,203,4910866,,,2023-11-10,清算の結了等,,,2015-10-05,1,,,,,アストソウゴウフドウサン,0
2393,8200001013782,登記記録の閉鎖等,0,2023-11-15,2023-11-10,株式会社成和工業,,株式会社,岐阜県,養老郡養老町,船附字中代１３０６番地の３,,21,341,5031382,,,2023-11-10,清算の結了等,,,2015-10-05,1,,,,,セイワコウギョウ,0
2400,8220002009209,登記記録の閉鎖等,0,2023-11-15,2023-11-13,有限会社第一信販,,有限会社,石川県,白山市,辰巳町５７番地１,,17,210,9240875,,,2023-11-13,清算の結了等,,,2015-10-05,1,,,,,ダイイチシンパン,0
2403,8230001005819,登記記録の閉鎖等,0,2023-11-15,2023-11-07,株式会社シーベヌ北陸支社,,株式会社,富山県,射水市,戸破１０３０－１８,,16,211,9390351,,,2023-11-07,清算の結了等,,,2015-10-05,1,,,,,シーベヌホクリクシシャ,0
2405,8240001029817,登記記録の閉鎖等,0,2023-11-15,2023-11-10,池尻塗装株式会社,,株式会社,広島県,福山市,南本庄１丁目１２番１２号,,34,207,7200077,,,2023-11-10,清算の結了等,,,2015-10-05,1,,,,,イケジリトソウ,0
2408,8240002023835,登記記録の閉鎖等,0,2023-11-15,2023-11-10,有限会社メゾン東本浦,,有限会社,広島県,広島市南区,東本浦町１０番２７号,,34,103,7340025,,,2023-11-10,清算の結了等,,,2015-10-05,1,,,,,メゾンヒガシホンウラ,0
2417,8290001029275,登記記録の閉鎖等,0,2023-11-15,2023-11-02,株式会社フォルス,,株式会社,福岡県,福岡市博多区,中洲５丁目３番８号アクア博多５階,,40,132,8100801,,,2023-11-02,清算の結了等,,,2015-10-05,1,,,,,フォルス,0
2453,8380003002403,登記記録の閉鎖等,0,2023-11-15,2023-11-13,合同会社ケアステーション愛,,合同会社,福島県,いわき市,内郷高坂町立野９９番地の３０,,07,204,9738408,,,2023-11-13,清算の結了等,,,2015-10-05,1,,,,,ケアステーションアイ,0
2456,8430001075841,登記記録の閉鎖等,0,2023-11-15,2023-11-02,株式会社ＭＡ,,株式会社,北海道,札幌市南区,石山二条２丁目１３番２２号,,01,106,0050842,,,2023-11-02,清算の結了等,,,2018-02-05,1,,,,,エムエー,0
2457,8430001078324,登記記録の閉鎖等,0,2023-11-15,2023-11-09,株式会社古川,,株式会社,北海道,滝川市,扇町２丁目１番２４号,,01,225,0730046,,,2023-11-09,清算の結了等,,,2019-02-15,1,,,,,フルカワ,0
2472,9010001188734,登記記録の閉鎖等,0,2023-11-15,2023-10-18,株式会社ヴィトーリアゼーロ,,株式会社,東京都,中央区,銀座８丁目１４番９号,,13,102,1040061,,,2023-10-18,合併による解散等,7010001158243,令和５年９月１日東京都中央区八丁堀三丁目１４番４号株式会社ヴィトーリア（7010001158243）に合併し解散,2018-01-10,1,,,,,ヴィトーリアゼーロ,0
2499,9010502006353,登記記録の閉鎖等,0,2023-11-15,2023-11-13,有限会社田中屋,,有限会社,東京都,台東区,駒形１丁目５番４号,,13,106,1110043,,,2023-11-13,清算の結了等,,,2015-10-05,1,,,,,タナカヤ,0
2523,9011101030769,登記記録の閉鎖等,0,2023-11-15,2023-11-07,株式会社きっとエイエスピー,,株式会社,東京都,千代田区,麹町５丁目７番２号,,13,101,1020083,,,2023-11-07,合併による解散等,2010001069602,令和５年１１月１日東京都千代田区麹町五丁目７番２号デンタルシステムズ株式会社（2010001069602）に合併し解散,2015-10-05,1,,,,,キットエイエスピー,0
2534,9011503005047,登記記録の閉鎖等,0,2023-11-15,2023-11-06,合同会社トージャンプ,,合同会社,東京都,荒川区,東日暮里６丁目１５－９小磯ビル１０２,,13,118,1160014,,,2023-11-06,清算の結了等,,,2022-01-21,1,,,,,トージャンプ,0
2543,9011802003008,登記記録の閉鎖等,0,2023-11-15,2023-11-13,有限会社三和商事,,有限会社,東京都,葛飾区,新小岩３丁目１２番１０号,,13,122,1240024,,,2023-11-13,清算の結了等,,,2015-10-05,1,,,,,,0
2547,9012403005756,登記記録の閉鎖等,0,2023-11-15,2023-11-10,合同会社Ｗｅｓｔ,,合同会社,東京都,稲城市,大丸３５８番地の４,,13,225,2060801,,,2023-11-10,清算の結了等,,,2022-12-27,1,,,,,ウェスト,0
2551,9013102002490,登記記録の閉鎖等,0,2023-11-15,2023-11-08,有限会社山口設備工業,,有限会社,東京都,あきる野市,小川東１丁目１８番地２３の１０６,,13,228,1970822,,,2023-11-08,清算の結了等,,,2015-10-05,1,,,,,ヤマグチセツビコウギョウ,0
2552,9013201018438,登記記録の閉鎖等,0,2023-11-15,2023-11-10,株式会社ワンダーワールド,,株式会社,東京都,港区,六本木６丁目１２番４－８０７号,,13,103,1060032,,,2023-11-10,清算の結了等,,,2015-10-05,1,,,,,ワンダーワールド,0
2560,9020001002316,登記記録の閉鎖等,0,2023-11-15,2023-11-06,株式会社二橋商店,,株式会社,神奈川県,横浜市緑区,長津田４丁目１番８号,,14,113,2260027,,,2023-11-06,清算の結了等,,,2015-10-05,1,,,,,ニハシショウテン,0
2561,9020001063300,登記記録の閉鎖等,0,2023-11-15,2023-11-09,日本ウエルグロー株式会社,,株式会社,神奈川県,横浜市青葉区,榎が丘２２番地２,,14,117,2270063,,,2023-11-09,清算の結了等,,,2015-10-05,1,,,,,,0
2576,9021001043837,登記記録の閉鎖等,0,2023-11-15,2023-11-10,株式会社アライドアジア日本,,株式会社,神奈川県,逗子市,小坪２丁目８番２６号,,14,208,2490008,,,2023-11-10,清算の結了等,,,2015-10-05,1,,,,,アライドアジアニホン,0
2588,9030002049578,登記記録の閉鎖等,0,2023-11-15,2023-11-08,有限会社はせ川,,有限会社,埼玉県,三郷市,天神１丁目１番地,,11,237,3410051,,,2023-11-08,清算の結了等,,,2015-10-05,1,,,,,ハセガワ,0
2601,9040002047408,登記記録の閉鎖等,0,2023-11-15,2023-11-07,有限会社東信鉄工所,,有限会社,千葉県,松戸市,河原塚３５８番地,,12,207,2702254,,,2023-11-07,清算の結了等,,,2015-10-05,1,,,,,トウシンテッコウショ,0
2616,9080101014841,登記記録の閉鎖等,0,2023-11-15,2023-11-13,佐野製麺株式会社,00067844,株式会社,静岡県,賀茂郡西伊豆町,仁科３９９番地の３,,22,306,4103514,,,2023-11-13,清算の結了等,,,2015-10-05,1,,,,,,0
2618,9080102004932,登記記録の閉鎖等,0,2023-11-15,2023-11-06,レアル有限会社,,有限会社,岡山県,井原市,井原町１３８８番地６,,33,207,7150019,,,2023-11-06,清算の結了等,,,2015-10-05,1,,,,,レアル,0
2621,9080402010820,登記記録の閉鎖等,0,2023-11-15,2023-11-09,有限会社天竜設備,,有限会社,静岡県,浜松市東区,有玉北町１７３５番地の４,,22,132,4313121,,,2023-11-09,清算の結了等,,,2015-10-05,1,,,,,テンリュウセツビ,0
2633,9120001118060,登記記録の閉鎖等,0,2023-11-15,2023-11-09,株式会社環境工房,,株式会社,大阪府,大阪市西成区,潮路１丁目６番５号エスペランサ４０７号,,27,122,5570052,,,2023-11-09,清算の結了等,,,2015-10-05,1,,,,,カンキョウコウボウ,0
2680,9160001013497,登記記録の閉鎖等,0,2023-11-15,2023-11-14,株式会社トーヨーキッチンサービス,,株式会社,滋賀県,栗東市,小平井２丁目１８番１号,,25,208,5203034,,,2023-11-14,清算の結了等,,,2015-10-05,1,,,,,トーヨーキッチンサービス,0
2681,9160001018389,登記記録の閉鎖等,0,2023-11-15,2023-11-13,トリオンフ株式会社,,株式会社,滋賀県,草津市,東矢倉３丁目２４番１２号,,25,206,5250054,,,2023-11-13,清算の結了等,,,2015-10-05,1,,,,,トリオンフ,0
2684,9180001109392,登記記録の閉鎖等,0,2023-11-15,2023-11-13,株式会社ジョイントベンチャーカンパニー,,株式会社,愛知県,名古屋市中区,錦３丁目７番１３号,,23,106,4600003,,,2023-11-13,清算の結了等,,,2015-10-05,1,,,,,ジョイントベンチャーカンパニー,0
2685,9180001117379,登記記録の閉鎖等,0,2023-11-15,2023-11-07,株式会社オーリフ,,株式会社,愛知県,名古屋市中区,栄２丁目１１番３０号,,23,106,4600008,,,2023-11-07,清算の結了等,,,2015-10-05,1,,,,,オーリフ,0
2691,9180002015152,登記記録の閉鎖等,0,2023-11-15,2023-11-13,有限会社楊枝金型,,有限会社,愛知県,名古屋市南区,南野３丁目１３５番地の２,,23,112,4570068,,,2023-11-13,清算の結了等,,,2015-10-05,1,,,,,ヨウジカナガタ,0
2700,9200001028235,登記記録の閉鎖等,0,2023-11-15,2023-11-13,株式会社天池組,,株式会社,岐阜県,多治見市,広小路２丁目６２番地,,21,204,5070833,,,2023-11-13,清算の結了等,,,2015-10-05,1,,,,,アマイケグミ,0
2716,9290003010109,登記記録の閉鎖等,0,2023-11-15,2023-11-01,合同会社とびうめ,,合同会社,福岡県,太宰府市,三条３丁目１０番２５号,,40,221,8180111,,,2023-11-01,清算の結了等,,,2020-06-12,1,,,,,トビウメ,0
2720,9290005015568,登記記録の閉鎖等,0,2023-11-15,2023-10-12,協同組合ＩＷＡＴ,,その他の設立登記法人,福岡県,福岡市中央区,天神２丁目３番１０号,,40,133,8100001,,,2023-10-12,清算の結了等,,,2015-10-05,1,,,,,アイワット,0
2737,9340005000969,登記記録の閉鎖等,0,2023-11-15,2023-11-15,鹿児島県木造住宅協同組合,,その他の設立登記法人,鹿児島県,鹿児島市,谷山港１丁目２番４号,,46,201,8910131,,,2023-11-15,清算の結了等,,,2015-10-05,1,,,,,カゴシマケンモクゾウジュウタク,0
2738,9350001008890,登記記録の閉鎖等,0,2023-11-15,2023-11-08,株式会社フィールドマルマサ,,株式会社,宮崎県,都城市,平塚町４８８９番地１,,45,202,8850085,,,2023-11-08,清算の結了等,,,2015-10-05,1,,,,,フィールドマルマサ,0
2765,9430001063779,登記記録の閉鎖等,0,2023-11-15,2023-11-09,株式会社リアン・エンジェル,,株式会社,北海道,札幌市東区,北十一条東４丁目２番４号,,01,103,0650011,,,2023-11-09,清算の結了等,,,2015-10-05,1,,,,,リアンエンジェル,0
2772,9480002007557,登記記録の閉鎖等,0,2023-11-15,2023-11-14,有限会社栄代酒店,,有限会社,徳島県,小松島市,小松島町字外開１５番６１キオイビル１階,,36,203,7730001,,,2023-11-14,清算の結了等,,,2015-10-05,1,,,,,エイダイサケテン,0
