sequenceNumber,corporateNumber,process,correct,updateDate,changeDate,name,nameImageId,kind,prefectureName,cityName,streetNumber,addressImageId,prefectureCode,cityCode,postCode,addressOutside,addressOutsideImageId,closeDate,closeCause,successorCorporateNumber,changeCause,assignmentDate,latest,enName,enPrefectureName,enCityName,enAddressOutside,furigana,hihyoji
13,1010001222260,新規,0,2021-11-09,2021-11-09,Ｉ－レジリエンス株式会社,,株式会社,東京都,中央区,日本橋兜町５番１号兜町第１平和ビル３階,,13,102,1030026,,,,,,,2021-11-09,1,,,,,アイレジリエンス,0
14,1010001222335,新規,0,2021-11-09,2021-11-09,株式会社ジャパンフォレストパワー,,株式会社,東京都,千代田区,永田町２丁目９番地６十全ビルディング６０１,,13,101,1000014,,,,,,,2021-11-09,1,,,,,ジャパンフォレストパワー,0
15,1010001222343,新規,0,2021-11-09,2021-11-09,株式会社ディライト,,株式会社,東京都,千代田区,神田神保町１丁目２０番７号,,13,101,1010051,,,,,,,2021-11-09,1,,,,,ディライト,0
16,1010003036188,新規,0,2021-11-09,2021-11-09,合同会社ＬＯＧＩ　ＦＬＡＧ３号,,合同会社,東京都,中央区,日本橋１丁目４番１号,,13,102,1030027,,,,,,,2021-11-09,1,,,,,ロジフラッグサンゴウ,0
17,1010003036254,新規,0,2021-11-09,2021-11-09,合同会社ＦＯＲＭ１ＤＥＳＩＧＮ,,合同会社,東京都,千代田区,神田猿楽町２丁目８番１４－１１０２号,,13,101,1010064,,,,,,,2021-11-09,1,,,,,フォームワンデザイン,0
34,1010403026425,新規,0,2021-11-09,2021-11-09,Ｌｉｎｏ合同会社,,合同会社,東京都,港区,南青山２丁目２番１５号ウィン青山９４２,,13,103,1070062,,,,,,,2021-11-09,1,,,,,リノ,0
35,1010403026474,新規,0,2021-11-09,2021-11-09,合同会社はすのはコンサルティング,,合同会社,東京都,港区,高輪２丁目２番１８号,,13,103,1080074,,,,,,,2021-11-09,1,,,,,ハスノハコンサルティング,0
61,1011001143810,新規,0,2021-11-09,2021-11-09,株式会社ＴＯＢＡＬＩ,,株式会社,東京都,渋谷区,神宮前３丁目５番２１号コーイヌール２・２階,,13,113,1500001,,,,,,,2021-11-09,1,,,,,トバリ,0
62,1011001143819,新規,0,2021-11-09,2021-11-09,株式会社ＳｔａｒｔＰａｓｓ,,株式会社,東京都,渋谷区,恵比寿２丁目１３番１７号,,13,113,1500013,,,,,,,2021-11-09,1,,,,,スタートパス,0
64,1011003013680,新規,0,2021-11-09,2021-11-09,リディファインダイニング合併準備合同会社,,合同会社,東京都,渋谷区,宇田川町３１番１号ＨＵＬＩＣ＆ＮｅｗＳＨＩＢＵＹＡ８Ｆ,,13,113,1500042,,,,,,,2021-11-09,1,,,,,リディファインダイニングガッペイジュンビ,0
67,1011203003688,新規,0,2021-11-09,2021-11-09,合同会社クリア,,合同会社,東京都,中野区,本町６丁目２８番１０号,,13,114,1640012,,,,,,,2021-11-09,1,,,,,クリア,0
85,1012301012762,新規,0,2021-11-09,2021-11-09,株式会社ＫＯＮＴＡＫＴ,,株式会社,東京都,町田市,東玉川学園１丁目９番５号,,13,209,1940042,,,,,,,2021-11-09,1,,,,,コンタクト,0
91,1012801021206,新規,0,2021-11-09,2021-11-09,株式会社ユニエス・シティ,,株式会社,東京都,国立市,富士見台４丁目９番地の３佐藤ビル２０１,,13,215,1860003,,,,,,,2021-11-09,1,,,,,ユニエスシティ,0
92,1012803002641,新規,0,2021-11-09,2021-11-09,合同会社ＳＯＭＰＯＣＨＥＣＫＥＲ,,合同会社,東京都,日野市,神明４丁目１８－５レジェンド１０１号,,13,212,1910016,,,,,,,2021-11-09,1,,,,,ソンポチェッカー,0
99,1020001143778,新規,0,2021-11-09,2021-11-09,株式会社ｔｕｐｌｅ,,株式会社,神奈川県,横浜市港北区,綱島東３丁目１２番２７－３０４号,,14,109,2230052,,,,,,,2021-11-09,1,,,,,タプル,0
100,1020001143786,新規,0,2021-11-09,2021-11-09,平和交通株式会社,,株式会社,神奈川県,横浜市保土ケ谷区,岩井町９０番地,,14,106,2400023,,,,,,,2021-11-09,1,,,,,ヘイワコウツウ,0
101,1020001143794,新規,0,2021-11-09,2021-11-09,平和交通株式会社,,株式会社,神奈川県,川崎市川崎区,渡田４丁目１２番３号,,14,131,2100837,,,,,,,2021-11-09,1,,,,,ヘイワコウツウ,0
102,1020001143836,新規,0,2021-11-09,2021-11-09,株式会社狩野建設,,株式会社,神奈川県,横浜市戸塚区,深谷町１２２０番地２１,,14,110,2450067,,,,,,,2021-11-09,1,,,,,カノケンセツ,0
112,1021003011072,新規,0,2021-11-09,2021-11-09,ＵＳ　Ｍｉｌｉｔａｒｙ　Ｓａｌｅｓ合同会社,,合同会社,神奈川県,横須賀市,本町２丁目３番地５,,14,201,2380041,,,,,,,2021-11-09,1,,,,,ユーエスミリタリーセールス,0
117,1030001145170,新規,0,2021-11-09,2021-11-09,ｅｃｒｕ．Ｔ株式会社,,株式会社,埼玉県,さいたま市見沼区,東大宮５丁目４７番地２９,,11,104,3370051,,,,,,,2021-11-09,1,,,,,エクリュテ,0
121,1030003018291,新規,0,2021-11-09,2021-11-09,合同会社スカイフォワード,,合同会社,埼玉県,川口市,大字新井宿５５番地の３テラッツァ・ルーチェ６０１号室,,11,203,3330826,,,,,,,2021-11-09,1,,,,,スカイフォワード,0
125,1040001120833,新規,0,2021-11-09,2021-11-09,株式会社カナスギ,,株式会社,千葉県,銚子市,犬吠埼９５８９番地の１,,12,202,2880012,,,,,,,2021-11-09,1,,,,,カナスギ,0
126,1040001120890,新規,0,2021-11-09,2021-11-09,株式会社Ｓｕｎ’ｓ,,株式会社,千葉県,袖ケ浦市,神納１１４６番地２,,12,229,2990257,,,,,,,2021-11-09,1,,,,,サンズ,0
127,1040001120924,新規,0,2021-11-09,2021-11-09,株式会社ＡＺＵ,,株式会社,千葉県,松戸市,牧の原１丁目１０４番地ヴェルデゾーナ新八柱５０５号,,12,207,2702267,,,,,,,2021-11-09,1,,,,,アズ,0
128,1040001120932,新規,0,2021-11-09,2021-11-09,株式会社ＧＡクリスタル,,株式会社,千葉県,八街市,八街ほ２１７番地７６,,12,230,2891115,,,,,,,2021-11-09,1,,,,,ジーエークリスタル,0
129,1040001120940,新規,0,2021-11-09,2021-11-09,Ｇｏｒｓｈｉｎ株式会社,,株式会社,千葉県,木更津市,羽鳥野６丁目８－５,,12,206,2920819,,,,,,,2021-11-09,1,,,,,ゴーシン,0
133,1040003018885,新規,0,2021-11-09,2021-11-09,合同会社エルピクス,,合同会社,千葉県,成田市,高岡１１５３番地,,12,211,2890108,,,,,,,2021-11-09,1,,,,,エルピクス,0
134,1040003018902,新規,0,2021-11-09,2021-11-09,合同会社ＫＵＤＯＳ,,合同会社,千葉県,市川市,加藤新田２０２番地２０－７０９,,12,203,2720124,,,,,,,2021-11-09,1,,,,,クドス,0
155,1080101022901,新規,0,2021-11-09,2021-11-09,株式会社荒瀬商会,,株式会社,静岡県,賀茂郡東伊豆町,片瀬５６１番地１３,,22,301,4130303,,,,,,,2021-11-09,1,,,,,アラセショウカイ,0
182,1120001241596,新規,0,2021-11-09,2021-11-09,株式会社明大翔,,株式会社,大阪府,大阪市淀川区,西中島５丁目７番１１号第８新大阪ビル５階,,27,123,5320011,,,,,,,2021-11-09,1,,,,,メイタイショウ,0
186,1120101064617,新規,0,2021-11-09,2021-11-09,株式会社ｔｗｏ　ｐｌｕｓ,,株式会社,大阪府,河内長野市,三日市町１７５番地の７,,27,216,5860048,,,,,,,2021-11-09,1,,,,,トゥプラス,0
187,1120101064625,新規,0,2021-11-09,2021-11-09,株式会社松下電設,,株式会社,大阪府,堺市西区,浜寺石津町中２丁１番５１号,,27,144,5928334,,,,,,,2021-11-09,1,,,,,マツシタデンセツ,0
191,1120901045139,新規,0,2021-11-09,2021-11-09,株式会社ＦＩＶＥ,,株式会社,大阪府,摂津市,三島３丁目１１番３５号,,27,224,5660022,,,,,,,2021-11-09,1,,,,,ファイブ,0
192,1120901045171,新規,0,2021-11-09,2021-11-09,株式会社Ｆｉｒｍ,,株式会社,大阪府,池田市,渋谷３丁目６番８号,,27,204,5630028,,,,,,,2021-11-09,1,,,,,ファーム,0
195,1122001035334,新規,0,2021-11-09,2021-11-09,株式会社ｂｌｏｏｍ,,株式会社,大阪府,八尾市,八尾木東２丁目２５番地の９,,27,212,5810028,,,,,,,2021-11-09,1,,,,,ブルーム,0
205,1130001070508,新規,0,2021-11-09,2021-11-09,株式会社Ｅｓｃａｐｅ,,株式会社,京都府,京都市北区,上賀茂朝露ケ原町３０番地１９玉屋ビル,,26,101,6038035,,,,,,,2021-11-09,1,,,,,エスケープ,0
207,1130003007581,新規,0,2021-11-09,2021-11-09,ＭＫエンタープライズ合同会社,,合同会社,京都府,京都市北区,上賀茂狭間町３８番地１０,,26,101,6038042,,,,,,,2021-11-09,1,,,,,エムケイエンタープライズ,0
215,1140001123768,新規,0,2021-11-09,2021-11-09,生野銀山バイオマス株式会社,,株式会社,兵庫県,朝来市,生野町新町１００１番地,,28,225,6793321,,,,,,,2021-11-09,1,,,,,イクノギンザンバイオマス,0
216,1140001123776,新規,0,2021-11-09,2021-11-09,株式会社中誠協合,,株式会社,兵庫県,神戸市西区,神出町南４４７番地の１,,28,111,6512312,,,,,,,2021-11-09,1,,,,,チュウセイキョウゴウ,0
218,1140003016937,新規,0,2021-11-09,2021-11-09,合同会社Ｚｅｒｏ－Ｏｎｅ,,合同会社,兵庫県,神戸市中央区,磯上通４丁目１番１４号三宮スカイビル７階,,28,110,6510086,,,,,,,2021-11-09,1,,,,,ゼロワン,0
232,1180001148539,新規,0,2021-11-09,2021-11-09,Ｓｕｐ　Ｃｏｎｆｉｄｅｎｃｅ株式会社,,株式会社,愛知県,名古屋市中川区,富船町３丁目１番地の１,,23,110,4540823,,,,,,,2021-11-09,1,,,,,サップコンフィデンス,0
233,1180001148547,新規,0,2021-11-09,2021-11-09,株式会社ＮＥＷ　ＴＯＷＮ,,株式会社,愛知県,知多市,新知字東屋敷７９番地（Ｃ）,,23,224,4780017,,,,,,,2021-11-09,1,,,,,ニュータウン,0
234,1180001148638,新規,0,2021-11-09,2021-11-09,アキグローバルＪＰ株式会社,,株式会社,愛知県,名古屋市中川区,西日置町９丁目１０７番地１,,23,110,4540005,,,,,,,2021-11-09,1,,,,,アキグローバルジェーピー,0
235,1180001148662,新規,0,2021-11-09,2021-11-09,株式会社三毛猫,,株式会社,愛知県,名古屋市中区,新栄２丁目２２番３号,,23,106,4600007,,,,,,,2021-11-09,1,,,,,ミケネコ,0
236,1180001148670,新規,0,2021-11-09,2021-11-09,株式会社Ｉｒｏｈａ,,株式会社,愛知県,名古屋市中区,新栄２丁目１９番３号（ＡＨビル９０５号）,,23,106,4600007,,,,,,,2021-11-09,1,,,,,イロハ,0
249,1180301035610,新規,0,2021-11-09,2021-11-09,株式会社ぽっかぽかのへや,,株式会社,愛知県,知立市,新富１丁目１７番地,,23,225,4720047,,,,,,,2021-11-09,1,,,,,ポッカポカノヘヤ,0
254,1190001028847,新規,0,2021-11-09,2021-11-09,株式会社Ｊ＆Ｋ　Ｆｏｏｄｓ,,株式会社,三重県,四日市市,本町８番８号,,24,202,5100093,,,,,,,2021-11-09,1,,,,,ジェイアンドケーフーズ,0
273,1230001019081,新規,0,2021-11-09,2021-11-09,株式会社ＤＱ貿易,,株式会社,富山県,富山市,向新庄２３３番地３杉田マンション１階,,16,201,9300916,,,,,,,2021-11-09,1,,,,,ディーキューボウエキ,0
298,1290001095233,新規,0,2021-11-09,2021-11-09,株式会社バルコムプロパティ九州,,株式会社,福岡県,福岡市東区,香椎駅前２丁目８番２２号,,40,131,8130013,,,,,,,2021-11-09,1,,,,,バルコムプロパティキュウシュウ,0
299,1290001095332,新規,0,2021-11-09,2021-11-09,池岡技建株式会社,,株式会社,福岡県,福岡市東区,千早５丁目３１番１８号,,40,131,8130044,,,,,,,2021-11-09,1,,,,,イケオカギケン,0
304,1290003011790,新規,0,2021-11-09,2021-11-09,合同会社もふもふカンパニー,,合同会社,福岡県,福岡市中央区,舞鶴１丁目２番１０号２Ｆ,,40,133,8100073,,,,,,,2021-11-09,1,,,,,モフモフカンパニー,0
305,1290003011808,新規,0,2021-11-09,2021-11-09,フードパワージャパン合同会社,,合同会社,福岡県,福岡市早良区,百道浜１丁目３番７０－３３０５号,,40,137,8140001,,,,,,,2021-11-09,1,,,,,フードパワージャパン,0
315,1340001024252,新規,0,2021-11-09,2021-11-09,株式会社龍福,,株式会社,鹿児島県,姶良市,平松４９６３番地３,,46,225,8995652,,,,,,,2021-11-09,1,,,,,リュウフク,0
326,1370001047779,新規,0,2021-11-09,2021-11-09,株式会社藤七,,株式会社,宮城県,仙台市青葉区,上杉３丁目３番１６号ＳＡビル１Ｆ,,04,101,9800011,,,,,,,2021-11-09,1,,,,,トウシチ,0
327,1370001047812,新規,0,2021-11-09,2021-11-09,株式会社スズヤトラスト,,株式会社,宮城県,仙台市泉区,長命ケ丘３丁目３２番地９ＳＴハイツＩ１０２,00124808,04,105,9813212,,,,,,,2021-11-09,1,,,,,スズヤトラスト,0
370,2010001222334,新規,0,2021-11-09,2021-11-09,九段画壇株式会社,,株式会社,東京都,千代田区,九段南４丁目２番１３－１０１号,,13,101,1020074,,,,,,,2021-11-09,1,,,,,クダンガダン,0
371,2010001222342,新規,0,2021-11-09,2021-11-09,株式会社ＫＴホールディングス,,株式会社,東京都,中央区,日本橋茅場町３丁目２番２号ＥＫＫビル,,13,102,1030025,,,,,,,2021-11-09,1,,,,,ケーティホールディングス,0
377,2010003036253,新規,0,2021-11-09,2021-11-09,ＢＡＩ　Ｐｒｏｐｅｒｔｉｅｓ合同会社,,合同会社,東京都,中央区,勝どき６丁目３番２－１９０６号,,13,102,1040054,,,,,,,2021-11-09,1,,,,,ビーエーアイプロパティーズ,0
390,2010401163723,新規,0,2021-11-09,2021-11-09,株式会社Ｓｉｒｅｍｏ,,株式会社,東京都,港区,芝４丁目１６－１－２２１１,,13,103,1080014,,,,,,,2021-11-09,1,,,,,シレモ,0
393,2010403026457,新規,0,2021-11-09,2021-11-09,合同会社ｃｒｅａｒｅ,,合同会社,東京都,港区,北青山２丁目７番１３号プラセオ青山ビル３階,,13,103,1070061,,,,,,,2021-11-09,1,,,,,クレアーレ,0
397,2010503006425,新規,0,2021-11-09,2021-11-09,合同会社ＳＫＮ,,合同会社,東京都,台東区,松が谷２丁目２７－５－２０１,,13,106,1110036,,,,,,,2021-11-09,1,,,,,エスケイエヌ,0
407,2010903006925,新規,0,2021-11-09,2021-11-09,合同会社ｃｒａｉｌ　ｓｌｉｄｅ,,合同会社,東京都,世田谷区,尾山台３丁目１３－７ヒナタハイツ１０２,,13,112,1580086,,,,,,,2021-11-09,1,,,,,クレイルスライド,0
422,2011005009296,新規,0,2021-11-09,2021-11-09,ウィズアスプラス行政書士法人,,その他の設立登記法人,東京都,渋谷区,千駄ヶ谷１丁目３番２号東京エステートビル４Ｆ,,13,113,1510051,,,,,,,2021-11-09,1,,,,,ウィズアスプラス,0
426,2011201023373,新規,0,2021-11-09,2021-11-09,株式会社ヤマアリ,,株式会社,東京都,中野区,上高田２丁目２７番６号玉井ハウス２階,,13,114,1640002,,,,,,,2021-11-09,1,,,,,ヤマアリ,0
427,2011201023398,新規,0,2021-11-09,2021-11-09,Ｊ・Ｂｌｕｅ　Ｐｏｗｅｒ株式会社,,株式会社,東京都,中野区,東中野４丁目１５番７号,,13,114,1640003,,,,,,,2021-11-09,1,,,,,ジェイブルーパワー,0
429,2011303004214,新規,0,2021-11-09,2021-11-09,合同会社Ｓｏｌａｘ　Ｐｏｗｅｒ　Ｎｅｔｗｏｒｋ,,合同会社,東京都,杉並区,和田３丁目３０番１０－２１０号,,13,115,1660012,,,,,,,2021-11-09,1,,,,,ソラックスパワーネットワーク,0
431,2011403003495,新規,0,2021-11-09,2021-11-09,マネジメント協会合同会社,,合同会社,東京都,板橋区,富士見町３４番４号,,13,119,1740062,,,,,,,2021-11-09,1,,,,,マネジメントキョウカイ,0
443,2012301012761,新規,0,2021-11-09,2021-11-09,株式会社義錬,,株式会社,東京都,町田市,図師町７２番地１９,,13,209,1940203,,,,,,,2021-11-09,1,,,,,ギレン,0
451,2012801021205,新規,0,2021-11-09,2021-11-09,株式会社ＴＧ　ＢＡＳＥ,,株式会社,東京都,立川市,柴崎町２丁目３番３号林ビル,,13,202,1900023,,,,,,,2021-11-09,1,,,,,ティージーベース,0
466,2020001143728,新規,0,2021-11-09,2021-11-09,株式会社マックス・メリー,,株式会社,神奈川県,横浜市緑区,長津田みなみ台２丁目９番地３エヴァ・アムールＢ－１０２号,,14,113,2260018,,,,,,,2021-11-09,1,,,,,マックスメリー,0
467,2020001143744,新規,0,2021-11-09,2021-11-09,株式会社国際人材交流協会,,株式会社,神奈川県,横浜市港北区,日吉本町１丁目３８番３－２１８号,,14,109,2230062,,,,,,,2021-11-09,1,,,,,コクサイジンザイコウリュウキョウカイ,0
468,2020001143785,新規,0,2021-11-09,2021-11-09,平和交通株式会社,,株式会社,神奈川県,横浜市中区,池袋３４５番地,,14,104,2310834,,,,,,,2021-11-09,1,,,,,ヘイワコウツウ,0
469,2020001143793,新規,0,2021-11-09,2021-11-09,平和交通株式会社,,株式会社,神奈川県,川崎市川崎区,浅田１丁目１１番１２号,,14,131,2100847,,,,,,,2021-11-09,1,,,,,ヘイワコウツウ,0
470,2020001143819,新規,0,2021-11-09,2021-11-09,株式会社ＥＭＢＥＬＬＩＲ,,株式会社,神奈川県,横浜市西区,高島２丁目１番１８号ロワール横濱レムナンツ１階,,14,103,2200011,,,,,,,2021-11-09,1,,,,,アンベリール,0
479,2021005012332,新規,0,2021-11-09,2021-11-09,宗教法人カンバーランド長老キリスト教会海老名シオンの丘教会,,その他の設立登記法人,神奈川県,海老名市,中新田３丁目１７番５７号,,14,215,2430422,,,,,,,2021-11-09,1,,,,,カンバーランドチョウロウキリストキョウカイエビナシオンノオカキョウカイ,0
486,2030001145244,新規,0,2021-11-09,2021-11-09,株式会社Ｒ　ｄｅｓｉｇｎ,,株式会社,埼玉県,川口市,上青木西５丁目４番５号,,11,203,3330845,,,,,,,2021-11-09,1,,,,,アールデザイン,0
487,2030001145252,新規,0,2021-11-09,2021-11-09,柏屋株式会社,,株式会社,埼玉県,さいたま市中央区,本町東３丁目６番１１号,,11,105,3380003,,,,,,,2021-11-09,1,,,,,カシワヤ,0
498,2040003018876,新規,0,2021-11-09,2021-11-09,合同会社良,,合同会社,千葉県,流山市,おおたかの森東３丁目３３番地の４Ｍ’ｓおおたか２０６,,12,220,2700138,,,,,,,2021-11-09,1,,,,,リョウ,0
512,2060005009921,新規,0,2021-11-09,2021-11-09,一般社団法人宇都宮の餃子のれん会,,その他の設立登記法人,栃木県,宇都宮市,屋板町６５６番地２,,09,201,3210112,,,,,,,2021-11-09,1,,,,,ウツノミヤノギョウザノレンカイ,0
516,2080101022909,新規,0,2021-11-09,2021-11-09,株式会社レックス,,株式会社,静岡県,富士市,松岡５４２番地の４,,22,210,4160909,,,,,,,2021-11-09,1,,,,,レックス,0
520,2080103002454,新規,0,2021-11-09,2021-11-09,Ｖ．Ｎ．Ｓ．ＪＡＰＡＮ　ＴＲＡＤＩＮＧ合同会社,,合同会社,静岡県,富士市,柏原４７,,22,210,4170835,,,,,,,2021-11-09,1,,,,,ヴイエヌエスジャパントレーディング,0
524,2110001036179,新規,0,2021-11-09,2021-11-09,株式会社ｅＮｉＮ,,株式会社,新潟県,新潟市中央区,東大通２丁目４番３３号パークソレイユ３番館１－Ａ,,15,103,9500087,,,,,,,2021-11-09,1,,,,,エニン,0
534,2120001241760,新規,0,2021-11-09,2021-11-09,株式会社ｇｒａｃｅ,,株式会社,大阪府,大阪市北区,大深町１－１リンクス梅田８Ｆ,,27,127,5300011,,,,,,,2021-11-09,1,,,,,グレイス,0
537,2120003020568,新規,0,2021-11-09,2021-11-09,合同会社ＩｍＨ,,合同会社,大阪府,大阪市福島区,吉野２丁目１１番２０－８１３号,,27,103,5530006,,,,,,,2021-11-09,1,,,,,アイエムエイチ,0
539,2120101064624,新規,0,2021-11-09,2021-11-09,株式会社ＡＲＴＨＵＲ,,株式会社,大阪府,岸和田市,岡山町９８７番地の９,,27,202,5960814,,,,,,,2021-11-09,1,,,,,アーサー,0
545,2120901045170,新規,0,2021-11-09,2021-11-09,らいず株式会社,,株式会社,大阪府,高槻市,宮之川原４丁目２番７号,,27,207,5691032,,,,,,,2021-11-09,1,,,,,ライズ,0
547,2120903003903,新規,0,2021-11-09,2021-11-09,合同会社瑞穂経営サポート,,合同会社,大阪府,茨木市,本町２番５号の１,,27,211,5670818,,,,,,,2021-11-09,1,,,,,ミズホケイエイサポート,0
551,2130003007580,新規,0,2021-11-09,2021-11-09,合同会社マックス,,合同会社,京都府,宇治市,明星町１丁目３３番地の１１,,26,204,6110014,,,,,,,2021-11-09,1,,,,,マックス,0
558,2140001123791,新規,0,2021-11-09,2021-11-09,株式会社ペリプル,,株式会社,兵庫県,神戸市中央区,熊内町４丁目４－１２－２０１,,28,110,6510056,,,,,,,2021-11-09,1,,,,,ペリプル,0
564,2160003002422,新規,0,2021-11-09,2021-11-09,Ｌａ　ｖｉｅ　ｖｅｒｔｅ合同会社,,合同会社,滋賀県,大津市,比叡辻１丁目１６－１８,00124805,25,201,5200104,,,,,,,2021-11-09,1,,,,,ラヴィヴェルテ,0
566,2170001016860,新規,0,2021-11-09,2021-11-09,株式会社鶴亀,,株式会社,和歌山県,和歌山市,直川１１７３－３,,30,201,6408481,,,,,,,2021-11-09,1,,,,,ツルカメ,0
573,2180001148587,新規,0,2021-11-09,2021-11-09,株式会社ライフクリエート,,株式会社,愛知県,一宮市,真清田１丁目３番地１３リヴェール真清田２０２,,23,203,4910043,,,,,,,2021-11-09,1,,,,,ライフクリエート,0
574,2180001148629,新規,0,2021-11-09,2021-11-09,株式会社Ｋ－ｓｔｙｌｅ,,株式会社,愛知県,江南市,宮後町砂場北１４３番地,,23,217,4838044,,,,,,,2021-11-09,1,,,,,ケイスタイル,0
575,2180001148661,新規,0,2021-11-09,2021-11-09,カノア株式会社,,株式会社,愛知県,名古屋市昭和区,南山町１５番地の１５（南山町Ｄ）,,23,107,4660835,,,,,,,2021-11-09,1,,,,,カノア,0
579,2180003023177,新規,0,2021-11-09,2021-11-09,合同会社神樂,,合同会社,愛知県,名古屋市守山区,守山２丁目３番１号守山スイートプレイスブライトレジデンス７０２号,,23,113,4630067,,,,,,,2021-11-09,1,,,,,カグラ,0
601,2250001019252,新規,0,2021-11-09,2021-11-09,株式会社Ｎｅｗ　Ｓｐａｃｅ　Ｉｎｔｅｌｌｉｇｅｎｃｅ,,株式会社,山口県,宇部市,大字西岐波３２９番地２２,,35,202,7550151,,,,,,,2021-11-09,1,,,,,ニュースペースインテリジェンス,0
616,2290801027979,新規,0,2021-11-09,2021-11-09,株式会社田中工務店,,株式会社,福岡県,北九州市八幡西区,上上津役３丁目１４番２８号,,40,109,8070072,,,,,,,2021-11-09,1,,,,,タナカコウムテン,0
618,2310001017571,新規,0,2021-11-09,2021-11-09,株式会社中島建設,,株式会社,長崎県,長崎市,古町５０番ラ・スリジェＮ・Ｓビル１階,,42,201,8500026,,,,,,,2021-11-09,1,,,,,ナカシマケンセツ,0
619,2310003004205,新規,0,2021-11-09,2021-11-09,合同会社ハウジングＫ,,合同会社,長崎県,長崎市,滑石５丁目１番１５号,,42,201,8528061,,,,,,,2021-11-09,1,,,,,ハウジングケイ,0
626,2340003003625,新規,0,2021-11-09,2021-11-09,西不動産合同会社,,合同会社,鹿児島県,南九州市,川辺町平山３３２１番地,,46,223,8970215,,,,,,,2021-11-09,1,,,,,ニシフドウサン,0
630,2360001029604,新規,0,2021-11-09,2021-11-09,株式会社ＴＥＴＯＴＥ,,株式会社,沖縄県,豊見城市,字嘉数１１１番地４,,47,212,9010202,,,,,,,2021-11-09,1,,,,,テトテ,0
633,2370001047811,新規,0,2021-11-09,2021-11-09,株式会社ハートピアエスト,,株式会社,宮城県,仙台市青葉区,下愛子字観音９－１２,,04,101,9893125,,,,,,,2021-11-09,1,,,,,ハートピアエスト,0
648,2430001085342,新規,0,2021-11-09,2021-11-09,セレクト株式会社,,株式会社,北海道,石狩市,花川北二条４丁目２２９番地,,01,235,0613212,,,,,,,2021-11-09,1,,,,,セレクト,0
654,2450003002153,新規,0,2021-11-09,2021-11-09,リバティプラス合同会社,,合同会社,北海道,旭川市,永山二条１９丁目５番１７号,,01,204,0798412,,,,,,,2021-11-09,1,,,,,リバティプラス,0
666,2500003002718,新規,0,2021-11-09,2021-11-09,篠原合同会社,,合同会社,愛媛県,喜多郡内子町,五十崎甲９９７番地１０,,38,422,7950301,,,,,,,2021-11-09,1,,,,,シノハラ,0
668,2700150105674,新規,0,2021-11-09,2021-11-09,イタリア・トラスポルト・アエレオ・エス・ピー・エイ,,外国会社等,東京都,港区,元赤坂１丁目７－１８ＫＩＺＵＮＡ　ＥＡＳＴ　３Ｆ,,13,103,1070051,イタリア共和国ローマ，ヴィア・ヴェンティ・セッテンブレ９７,,,,,,2021-11-09,1,,,,,イタリアトラスポルトアエレオエスピーエイ,0
672,3010001222259,新規,0,2021-11-09,2021-11-09,Ｇｒｅｅｎｅｓｔ　Ｅｎｅｒｇｙ株式会社,,株式会社,東京都,千代田区,丸の内２丁目３番１号,,13,101,1000005,,,,,,,2021-11-09,1,,,,,グリーネストエナジー,0
673,3010001222275,新規,0,2021-11-09,2021-11-09,グリーンハーモニー株式会社,,株式会社,東京都,千代田区,丸の内１丁目８番３号,,13,101,1000005,,,,,,,2021-11-09,1,,,,,グリーンハーモニー,0
674,3010001222317,新規,0,2021-11-09,2021-11-09,株式会社Ｎ－ｃｒｅａｔｅ,,株式会社,東京都,千代田区,麹町４丁目８番１号１０１号室,,13,101,1020083,,,,,,,2021-11-09,1,,,,,エヌクリエイト,0
675,3010001222341,新規,0,2021-11-09,2021-11-09,株式会社ＰＡＲＴＮＥＲ,,株式会社,東京都,千代田区,九段南１丁目５番６号りそな九段ビル,,13,101,1020074,,,,,,,2021-11-09,1,,,,,パートナー,0
680,3010005034196,新規,0,2021-11-09,2021-11-09,一般社団法人Ｋｕｒｕｗａ,,その他の設立登記法人,東京都,中央区,銀座１丁目６番１１号土志田ビルディング３Ｆ,,13,102,1040061,,,,,,,2021-11-09,1,,,,,クルワ,0
681,3010103001809,新規,0,2021-11-09,2021-11-09,笙機合同会社,,合同会社,東京都,八王子市,千人町１丁目２番２１号メゾン・ド・ノア千人町１０１号室,,13,201,1930835,,,,,,,2021-11-09,1,,,,,ショウキ,0
682,3010105002136,新規,0,2021-11-09,2021-11-09,特定非営利活動法人日本台湾教育支援研究者ネットワーク,,その他の設立登記法人,東京都,八王子市,大塚３５９,,13,201,1920352,,,,,,,2021-11-09,1,,,,,ニホンタイワンキョウイクシエンケンキュウシャネットワーク,0
717,3011001143882,新規,0,2021-11-09,2021-11-09,クロスオーバー株式会社,,株式会社,東京都,目黒区,青葉台４丁目４番１号,,13,110,1530042,,,,,,,2021-11-09,1,,,,,クロスオーバー,0
719,3011003013687,新規,0,2021-11-09,2021-11-09,合同会社ネゴト,,合同会社,東京都,渋谷区,渋谷２丁目１９番１５－６０９号宮益坂ビルディング,,13,113,1500002,,,,,,,2021-11-09,1,,,,,ネゴト,0
720,3011003013712,新規,0,2021-11-09,2021-11-09,合同会社Ｌ企画,,合同会社,東京都,渋谷区,南平台町１７番７号渋谷たばこ商業協同組合１０３,,13,113,1500036,,,,,,,2021-11-09,1,,,,,エルキカク,0
722,3011103011137,新規,0,2021-11-09,2021-11-09,アジア・アフリカ・インスティテュート合同会社,,合同会社,東京都,新宿区,新宿２丁目１２番１３号新宿アントレサロンビル２Ｆ,,13,104,1600022,,,,,,,2021-11-09,1,,,,,,0
723,3011201023397,新規,0,2021-11-09,2021-11-09,株式会社ＹＦｗｏｒｋ,,株式会社,東京都,中野区,上高田３丁目２０－１０,,13,114,1640002,,,,,,,2021-11-09,1,,,,,ワイエフワーク,0
727,3011703002989,新規,0,2021-11-09,2021-11-09,Ｈａｓｈｉ　Ｄｅｓｉｇｎ＆Ａｒｃｈｉｔｅｃｔｓ合同会社,,合同会社,東京都,江戸川区,中葛西３丁目１３番１５号ジュネスホーワ３０３,,13,123,1340083,,,,,,,2021-11-09,1,,,,,ハシデザインアンドアーキテクツ,0
738,3020001143792,新規,0,2021-11-09,2021-11-09,平和交通株式会社,,株式会社,神奈川県,川崎市川崎区,渡田向町１番１１号,,14,131,2100841,,,,,,,2021-11-09,1,,,,,ヘイワコウツウ,0
739,3020001143826,新規,0,2021-11-09,2021-11-09,株式会社ＬＤＤ,,株式会社,神奈川県,横浜市保土ケ谷区,西久保町１１４番地の２３３アーバンハイツ保土ヶ谷４２７号,,14,106,2400022,,,,,,,2021-11-09,1,,,,,エルディーディー,0
740,3020001143850,新規,0,2021-11-09,2021-11-09,株式会社ＩＮＳＰＩＲＡＴＩＯＮ,,株式会社,神奈川県,横浜市神奈川区,鶴屋町１丁目７番地１ＤＥＬＩＳ・ＹＯＫＯＨＡＭＡ・ＢＬＤＧ．,,14,102,2210835,,,,,,,2021-11-09,1,,,,,インスピレーション,0
742,3020003020783,新規,0,2021-11-09,2021-11-09,合同会社ＡＲＲＣＨ,,合同会社,神奈川県,横浜市中区,末吉町２丁目２６－７メインステージ横濱伊勢佐木８０２,,14,104,2310055,,,,,,,2021-11-09,1,,,,,アーチ,0
748,3021001074400,新規,0,2021-11-09,2021-11-09,丸隆ビル株式会社,00124813,株式会社,神奈川県,大和市,深見３０７９番,,14,213,2420011,,,,,,,2021-11-09,1,,,,,マルタカビル,0
755,3030001145276,新規,0,2021-11-09,2021-11-09,川島ＩＣ南開発株式会社,,株式会社,埼玉県,さいたま市大宮区,桜木町１丁目１１番地７,,11,103,3300854,,,,,,,2021-11-09,1,,,,,カワジマインターチェンジミナミカイハツ,0
760,3030003018273,新規,0,2021-11-09,2021-11-09,木吉商事合同会社,,合同会社,埼玉県,川口市,並木３丁目１３番４号７Ｆ,,11,203,3320034,,,,,,,2021-11-09,1,,,,,キヨシショウジ,0
767,3040001120914,新規,0,2021-11-09,2021-11-09,株式会社りんこぺんこ,,株式会社,千葉県,市川市,鬼高３丁目１５番１３号市川鬼高ウェルズ２１－Ｄ,,12,203,2720015,,,,,,,2021-11-09,1,,,,,リンコペンコ,0
768,3040001120922,新規,0,2021-11-09,2021-11-09,株式会社ＴＲＩＳＭ,,株式会社,千葉県,木更津市,千束台１丁目５番地５,,12,206,2920808,,,,,,,2021-11-09,1,,,,,トリズム,0
773,3040003018875,新規,0,2021-11-09,2021-11-09,Ｃ．Ｌ．Ｄ合同会社,,合同会社,千葉県,八千代市,八千代台南１丁目１番７号,,12,221,2760033,,,,,,,2021-11-09,1,,,,,シエルディ,0
774,3040003018883,新規,0,2021-11-09,2021-11-09,合同会社マンション管理支援事務所,,合同会社,千葉県,松戸市,新松戸２丁目２番地兵藤プラザ３０２号,,12,207,2700034,,,,,,,2021-11-09,1,,,,,マンションカンリシエンジムショ,0
782,3060001034286,新規,0,2021-11-09,2021-11-09,株式会社大建,,株式会社,栃木県,小山市,大字小山９９番地１,,09,208,3230825,,,,,,,2021-11-09,1,,,,,ダイケン,0
803,3110001036178,新規,0,2021-11-09,2021-11-09,株式会社寅蔵浦川養鯉場,,株式会社,新潟県,小千谷市,大字浦柄１２２６番地１,,15,208,9470001,,,,,,,2021-11-09,1,,,,,トラゾウウラガワヨウリジョウ,0
815,3120001241545,新規,0,2021-11-09,2021-11-09,ポンポン株式会社,,株式会社,大阪府,大阪市中央区,島之内２丁目４番１６号ケイアンドティ道頓堀１１１１号,,27,128,5420082,,,,,,,2021-11-09,1,,,,,ポンポン,0
821,3120101064623,新規,0,2021-11-09,2021-11-09,楓設備工業株式会社,,株式会社,大阪府,堺市堺区,海山町１丁５番地１５,,27,141,5900982,,,,,,,2021-11-09,1,,,,,カエデセツビコウギョウ,0
836,3122001035340,新規,0,2021-11-09,2021-11-09,株式会社Ｓａｌｏｎｄｅ．Ｋ．Ｌｉｅｎ,,株式会社,大阪府,東大阪市,水走２丁目１１番２号,,27,227,5780921,,,,,,,2021-11-09,1,,,,,サロンドケイリアン,0
848,3140001123717,新規,0,2021-11-09,2021-11-09,株式会社ＹＬ商事,,株式会社,兵庫県,神戸市中央区,生田町４丁目３番２号生田リバーハイツ１Ｆ,,28,110,6510092,,,,,,,2021-11-09,1,,,,,ワイエルショウジ,0
849,3140001123741,新規,0,2021-11-09,2021-11-09,株式会社ＲＵＯＬＯ,,株式会社,兵庫県,神戸市須磨区,前池町２丁目２番２号１階,,28,107,6540011,,,,,,,2021-11-09,1,,,,,ルオーロ,0
850,3140001123774,新規,0,2021-11-09,2021-11-09,株式会社ｏ－ｊａ,,株式会社,兵庫県,伊丹市,西台３丁目１番１号,,28,207,6640858,,,,,,,2021-11-09,1,,,,,オージャ,0
858,3160001023799,新規,0,2021-11-09,2021-11-09,株式会社龍匠,,株式会社,滋賀県,高島市,今津町福岡１１４０番地２,,25,212,5201652,,,,,,,2021-11-09,1,,,,,リュウショウ,0
875,3180001148586,新規,0,2021-11-09,2021-11-09,株式会社山田工業,,株式会社,愛知県,犬山市,長者町１丁目３８番地,,23,215,4840041,,,,,,,2021-11-09,1,,,,,ヤマダコウギョウ,0
891,3190005011640,新規,0,2021-11-09,2021-11-09,医療法人慈多会,,その他の設立登記法人,三重県,四日市市,堀木２丁目４番５号,,24,202,5100076,,,,,,,2021-11-09,1,,,,,ジタカイ,0
902,3230005009176,新規,0,2021-11-09,2021-11-09,一般社団法人富山ゼロカーボン推進協会,,その他の設立登記法人,富山県,富山市,新庄本町２丁目８番７号,,16,201,9300996,,,,,,,2021-11-09,1,,,,,トヤマゼロカーボンスイシンキョウカイ,0
910,3260001036188,新規,0,2021-11-09,2021-11-09,ＶＯＬＴＡＧＥ株式会社,,株式会社,岡山県,倉敷市,水島南幸町１－５０松田ビル３Ｆ,,33,202,7128063,,,,,,,2021-11-09,1,,,,,ボルテージ,0
915,3290001095256,新規,0,2021-11-09,2021-11-09,Ｓｕｎ　ｏｆ　Ｊｕｎｇｌｅ株式会社,,株式会社,福岡県,筑後市,大字志２８番地１,,40,211,8330017,,,,,,,2021-11-09,1,,,,,サンオブジャングル,0
916,3290001095272,新規,0,2021-11-09,2021-11-09,株式会社Ｄｅｓｔｉｎｏ,,株式会社,福岡県,福岡市早良区,西新２丁目２１番２５号,,40,137,8140002,,,,,,,2021-11-09,1,,,,,ディスティーノ,0
918,3290003011789,新規,0,2021-11-09,2021-11-09,ＴＥＮＫＵＵ合同会社,,合同会社,福岡県,福岡市中央区,清川２丁目１番地２３号ロマネスク南天神２０３,,40,133,8100005,,,,,,,2021-11-09,1,,,,,テンクウ,0
924,3310001017570,新規,0,2021-11-09,2021-11-09,株式会社カミックス,,株式会社,長崎県,南松浦郡新上五島町,浦桑郷１２９８番地,,42,411,8574511,,,,,,,2021-11-09,1,,,,,カミックス,0
933,3340001024242,新規,0,2021-11-09,2021-11-09,株式会社優,,株式会社,鹿児島県,阿久根市,新町１４番地,,46,206,8991613,,,,,,,2021-11-09,1,,,,,ユウ,0
934,3340001024250,新規,0,2021-11-09,2021-11-09,株式会社猫の手,,株式会社,鹿児島県,霧島市,溝辺町竹子２４４９番地１９,,46,218,8996402,,,,,,,2021-11-09,1,,,,,ネコノテ,0
936,3350001017402,新規,0,2021-11-09,2021-11-09,株式会社ｃｅｂｕ　ｔｅｌｅ－ｎｅｔ,,株式会社,宮崎県,日向市,大字幸脇８３１番地,,45,206,8891112,,,,,,,2021-11-09,1,,,,,セブテレネット,0
938,3360001029603,新規,0,2021-11-09,2021-11-09,株式会社ハコサク,,株式会社,沖縄県,那覇市,牧志１丁目８番３号ＦＡＮ緑ヶ丘ビル２Ｆ,,47,201,9000013,,,,,,,2021-11-09,1,,,,,ハコサク,0
941,3360005006549,新規,0,2021-11-09,2021-11-09,一般社団法人うるま話物語の会,,その他の設立登記法人,沖縄県,沖縄市,胡屋４丁目５番２号,,47,211,9040021,,,,,,,2021-11-09,1,,,,,ウルマハナシムヌガタヌカイ,0
953,3390001016672,新規,0,2021-11-09,2021-11-09,嘉誠商事株式会社,,株式会社,山形県,南陽市,池黒猫子屋敷１１７８の１,,06,213,9920473,,,,,,,2021-11-09,1,,,,,,0
976,3700150105665,新規,0,2021-11-09,2021-11-09,株式会社　ＴＭＺ　Ｋｏｒｅａ,,外国会社等,東京都,福生市,北田園１丁目６番地９メゾン福生３０４,,13,218,1970005,大韓民国ソウル特別市松坡区梧琴路４４ガギル７－８，３０１号（可楽洞，グリダ）,,,,,,2021-11-09,1,,,,,カブシキガイシヤテイーエムゼツトコリア,0
985,4010001222308,新規,0,2021-11-09,2021-11-09,株式会社Ｏａｓｉｓ－ｉ－Ｔｏｙｌａｎｄ,,株式会社,東京都,文京区,本駒込４丁目３５番１５－４１７号,,13,105,1130021,,,,,,,2021-11-09,1,,,,,オアシスアイトイランド,0
986,4010001222316,新規,0,2021-11-09,2021-11-09,株式会社Ｂｅ　ａｗｅｓｏｍｅ,,株式会社,東京都,中央区,日本橋浜町３丁目３－１－４４０６,,13,102,1030007,,,,,,,2021-11-09,1,,,,,ビーオウサム,0
987,4010001222340,新規,0,2021-11-09,2021-11-09,株式会社ＦＣＧ,,株式会社,東京都,中央区,八重洲２丁目５番８号,,13,102,1040028,,,,,,,2021-11-09,1,,,,,エフシージー,0
990,4010003036243,新規,0,2021-11-09,2021-11-09,合同会社Ｐａｌｌｅｔ　Ｔｏｗｎ,,合同会社,東京都,中央区,晴海３丁目１３番１－７０９号,,13,102,1040053,,,,,,,2021-11-09,1,,,,,パレットタウン,0
991,4010005034170,新規,0,2021-11-09,2021-11-09,アキュレイトパートナーズ税理士法人,,その他の設立登記法人,東京都,千代田区,内神田３丁目１０番５号満留賀ビル４階,,13,101,1010047,,,,,,,2021-11-09,1,,,,,,0
993,4010105002135,新規,0,2021-11-09,2021-11-09,特定非営利活動法人といろ,,その他の設立登記法人,東京都,八王子市,中野山王１丁目６番１５－２０４号,,13,201,1920042,,,,,,,2021-11-09,1,,,,,トイロ,0
998,4010401163663,新規,0,2021-11-09,2021-11-09,ｒｅｍｏｗ株式会社,,株式会社,東京都,港区,白金台５丁目１１番４号,,13,103,1080071,,,,,,,2021-11-09,1,,,,,リモウ,0
999,4010401163696,新規,0,2021-11-09,2021-11-09,株式会社キャリアエンジニアリング,,株式会社,東京都,港区,赤坂４丁目８番１９号赤坂フロントタウン３階,,13,103,1070052,,,,,,,2021-11-09,1,,,,,キャリアエンジニアリング,0
1000,4010401163705,新規,0,2021-11-09,2021-11-09,株式会社アートハーバー,,株式会社,東京都,港区,海岸１丁目２番３号汐留芝離宮ビルディング２１階,,13,103,1050022,,,,,,,2021-11-09,1,,,,,アートハーバー,0
1009,4010701041759,新規,0,2021-11-09,2021-11-09,株式会社ＳＢＳマーケティング,,株式会社,東京都,品川区,大井１丁目６番３号アゴラ大井町３Ｆ,,13,109,1400014,,,,,,,2021-11-09,1,,,,,エスビーエスマーケティング,0
1012,4010801032476,新規,0,2021-11-09,2021-11-09,株式会社ＬｅＮＴｅｘ,,株式会社,東京都,大田区,西蒲田６丁目３２－１１城南信用金庫創業支援施設Ｊ－ｃｒｅａｔｅ＋,,13,111,1440051,,,,,,,2021-11-09,1,,,,,レンテックス,0
1019,4010901049767,新規,0,2021-11-09,2021-11-09,株式会社ドリームパイプライン,,株式会社,東京都,世田谷区,松原１丁目５６－２１－１００１,,13,112,1560043,,,,,,,2021-11-09,1,,,,,ドリームパイプライン,0
1022,4010903006923,新規,0,2021-11-09,2021-11-09,リント合同会社,,合同会社,東京都,世田谷区,野毛２丁目２５番１４号,,13,112,1580092,,,,,,,2021-11-09,1,,,,,リント,0
1037,4011001143766,新規,0,2021-11-09,2021-11-09,株式会社Ｓｐｏｎｇｅ,,株式会社,東京都,渋谷区,神宮前６丁目２３番４号桑野ビル２階,,13,113,1500001,,,,,,,2021-11-09,1,,,,,スポンジ,0
1050,4011501027460,新規,0,2021-11-09,2021-11-09,株式会社ｓｔｅｅｒ,,株式会社,東京都,荒川区,南千住７丁目１番１－２４０８号,,13,118,1160003,,,,,,,2021-11-09,1,,,,,ステア,0
1085,4020001143791,新規,0,2021-11-09,2021-11-09,平和交通株式会社,,株式会社,神奈川県,横浜市西区,南浅間町２６番地２,,14,103,2200074,,,,,,,2021-11-09,1,,,,,ヘイワコウツウ,0
1089,4020003020709,新規,0,2021-11-09,2021-11-09,合同会社メンティラ,,合同会社,神奈川県,横浜市泉区,下和泉３丁目２６番１０号,,14,116,2450021,,,,,,,2021-11-09,1,,,,,メンティラ,0
1090,4020003020774,新規,0,2021-11-09,2021-11-09,キルフォニックジャパン合同会社,,合同会社,神奈川県,横浜市青葉区,すすき野３丁目６番地２・６－３号棟４０２号室,,14,117,2250021,,,,,,,2021-11-09,1,,,,,キルフォニックジャパン,0
1091,4020003020782,新規,0,2021-11-09,2021-11-09,合同会社ロングアイランド,,合同会社,神奈川県,横浜市青葉区,青葉台２丁目１０番地２０,,14,117,2270062,,,,,,,2021-11-09,1,,,,,ロングアイランド,0
1092,4020003020790,新規,0,2021-11-09,2021-11-09,多賀商事合同会社,,合同会社,神奈川県,横浜市西区,みなとみらい２丁目２－１横浜ランドマークプラザ５階,,14,103,2200012,,,,,,,2021-11-09,1,,,,,タガショウジ,0
1099,4021003011061,新規,0,2021-11-09,2021-11-09,合同会社丸真興業,,合同会社,神奈川県,綾瀬市,寺尾釜田１丁目５番３５号,,14,218,2521135,,,,,,,2021-11-09,1,,,,,マルシンコウギョウ,0
1105,4030001145044,新規,0,2021-11-09,2021-11-09,株式会社ＰＩＮＧＰＯＮＧ,,株式会社,埼玉県,さいたま市緑区,大字大門２７５３番地２,,11,109,3360963,,,,,,,2021-11-09,1,,,,,ピンポン,0
1106,4030001145119,新規,0,2021-11-09,2021-11-09,大太株式会社,,株式会社,埼玉県,越谷市,宮本町２丁目２８４番地１メゾンシャルム２０１,,11,222,3430806,,,,,,,2021-11-09,1,,,,,ダイタ,0
1107,4030001145184,新規,0,2021-11-09,2021-11-09,株式会社福祉タクシーつながり,,株式会社,埼玉県,さいたま市南区,大字太田窪２７１７番地１,,11,108,3360015,,,,,,,2021-11-09,1,,,,,フクシタクシーツナガリ,0
1108,4030001145250,新規,0,2021-11-09,2021-11-09,株式会社アシスト,,株式会社,埼玉県,ふじみ野市,亀久保１８１０番地４１,,11,245,3560051,,,,,,,2021-11-09,1,,,,,アシスト,0
1111,4030003018280,新規,0,2021-11-09,2021-11-09,合同会社自立支援ネット,,合同会社,埼玉県,さいたま市岩槻区,大字岩槻５３９６番地４,,11,110,3390061,,,,,,,2021-11-09,1,,,,,ジリツシエンネット,0
1112,4030003018289,新規,0,2021-11-09,2021-11-09,合同会社Ｃｏ．ＮＥＧＩ,,合同会社,埼玉県,越谷市,大字下間久里４９８－３０,,11,222,3430045,,,,,,,2021-11-09,1,,,,,コネギ,0
1122,4040003018858,新規,0,2021-11-09,2021-11-09,合同会社レスポンス,,合同会社,千葉県,千葉市中央区,長洲１丁目２５番６号２階,,12,101,2600854,,,,,,,2021-11-09,1,,,,,レスポンス,0
1126,4050003006184,新規,0,2021-11-09,2021-11-09,ｆｄｓａ合同会社,,合同会社,茨城県,石岡市,総社１丁目１０番３８号,,08,205,3150016,,,,,,,2021-11-09,1,,,,,エフディーエスエー,0
1128,4060003003858,新規,0,2021-11-09,2021-11-09,ＬＯＴＵＳ合同会社,,合同会社,栃木県,佐野市,免鳥町４８２番地１,,09,204,3270041,,,,,,,2021-11-09,1,,,,,ロータス,0
1137,4110001036177,新規,0,2021-11-09,2021-11-09,株式会社睦,,株式会社,新潟県,長岡市,宮原１丁目２番４８号,,15,202,9400083,,,,,,,2021-11-09,1,,,,,ムツミ,0
1150,4120001241726,新規,0,2021-11-09,2021-11-09,株式会社雅居,,株式会社,大阪府,大阪市港区,市岡元町２丁目６番１１－４０２号,,27,107,5520002,,,,,,,2021-11-09,1,,,,,ガキョ,0
1157,4120003020566,新規,0,2021-11-09,2021-11-09,合同会社Ａｎａｎｋｅ,,合同会社,大阪府,大阪市浪速区,立葉２丁目６番１５号チェリーハイム６０３号,,27,111,5560020,,,,,,,2021-11-09,1,,,,,アナンキ,0
1159,4120005022585,新規,0,2021-11-09,2021-11-09,ＮＰＯ法人ひらかた生物飼育部ＬＡＢＯ,,その他の設立登記法人,大阪府,枚方市,黄金野１丁目２０番７号,,27,210,5731145,,,,,,,2021-11-09,1,,,,,ヒラカタセイブツシイクブラボ,0
1160,4120101064622,新規,0,2021-11-09,2021-11-09,株式会社ＫｏｎｏｈＡ,,株式会社,大阪府,堺市西区,上野芝町３丁１０番７号,,27,144,5938301,,,,,,,2021-11-09,1,,,,,コノハ,0
1164,4120901045177,新規,0,2021-11-09,2021-11-09,フードデザイン株式会社,,株式会社,大阪府,豊中市,東豊中町４丁目３－８,,27,203,5600003,,,,,,,2021-11-09,1,,,,,フードデザイン,0
1175,4130001070505,新規,0,2021-11-09,2021-11-09,ＴＳＣホールディングス株式会社,,株式会社,京都府,京都市下京区,黒門通五条下る柿本町５９５番地,,26,106,6008357,,,,,,,2021-11-09,1,,,,,ティーエスシーホールディングス,0
1192,4140003016959,新規,0,2021-11-09,2021-11-09,合同会社ホープ,,合同会社,兵庫県,芦屋市,船戸町１－２９モンテメール西館６階,,28,206,6590093,,,,,,,2021-11-09,1,,,,,ホープ,0
1202,4180001148627,新規,0,2021-11-09,2021-11-09,株式会社３Ａｒｒｏｗｓ,,株式会社,愛知県,名古屋市西区,笠取町３丁目３９番地,,23,104,4510072,,,,,,,2021-11-09,1,,,,,スリーアローズ,0
1203,4180001148668,新規,0,2021-11-09,2021-11-09,株式会社ＧＯＬＤＥＮ　ＥＧＧ,,株式会社,愛知県,名古屋市中区,大須３丁目２３番２３号,,23,106,4600011,,,,,,,2021-11-09,1,,,,,ゴールデンエッグカブシキカシヤカイシャ,0
1234,4250001019250,新規,0,2021-11-09,2021-11-09,株式会社インフォーム,,株式会社,山口県,山陽小野田市,高栄１丁目１１番１５号,,35,216,7560815,,,,,,,2021-11-09,1,,,,,インフォーム,0
1240,4260001036187,新規,0,2021-11-09,2021-11-09,株式会社クーレックス,,株式会社,岡山県,岡山市中区,門田屋敷２丁目３番１８号,,33,102,7038275,,,,,,,2021-11-09,1,,,,,クーレックス,0
1248,4290001095247,新規,0,2021-11-09,2021-11-09,株式会社ウエルエステート,,株式会社,福岡県,福岡市中央区,春吉２丁目３番１３号,,40,133,8100003,,,,,,,2021-11-09,1,,,,,ウエルエステート,0
1249,4290001095288,新規,0,2021-11-09,2021-11-09,株式会社ＡＮＤａｓ九州,,株式会社,福岡県,福岡市博多区,店屋町１番２１号,,40,132,8120025,,,,,,,2021-11-09,1,,,,,アンダーズキュウシュウ,0
1250,4290001095346,新規,0,2021-11-09,2021-11-09,株式会社不動産情報管理センター,,株式会社,福岡県,福岡市東区,舞松原５丁目１０番５号,,40,131,8130042,,,,,,,2021-11-09,1,,,,,フドウサンジョウホウカンリセンター,0
1254,4290005018419,新規,0,2021-11-09,2021-11-09,ＮＰＯ法人祥雲,,その他の設立登記法人,福岡県,太宰府市,連歌屋３丁目１１番１号,,40,221,8180119,,,,,,,2021-11-09,1,,,,,ショウウン,0
1257,4300003001746,新規,0,2021-11-09,2021-11-09,合同会社Ｃｈａｒｔ,,合同会社,佐賀県,佐賀市,若宮３丁目１番３－４号,,41,201,8490926,,,,,,,2021-11-09,1,,,,,チャート,0
1265,4330003009126,新規,0,2021-11-09,2021-11-09,合同会社ＮＧ　ＴＲＡＤＩＮＧ,,合同会社,熊本県,荒尾市,野原９０８番７,,43,204,8640163,,,,,,,2021-11-09,1,,,,,エヌジートレーディング,0
1286,4430001085316,新規,0,2021-11-09,2021-11-09,道真商事株式会社,,株式会社,北海道,札幌市北区,篠路町上篠路２６２番地２７,,01,102,0028052,,,,,,,2021-11-09,1,,,,,ドウシンショウジ,0
1287,4430001085340,新規,0,2021-11-09,2021-11-09,株式会社ＴＡＲＭＡＣ,,株式会社,北海道,札幌市中央区,南三条西１２丁目３２５番地１３東和ビル３階,,01,101,0600063,,,,,,,2021-11-09,1,,,,,ターマック,0
1290,4430003013340,新規,0,2021-11-09,2021-11-09,美容室エルマール合同会社,,合同会社,北海道,小樽市,色内１丁目１５番７号,,01,203,0470031,,,,,,,2021-11-09,1,,,,,ビヨウシツエルマール,0
1299,4480001011548,新規,0,2021-11-09,2021-11-09,ＨＡＭＤ　ＩＮＴＥＲＮＡＴＩＯＮＡＬ株式会社,,株式会社,徳島県,徳島市,中島田町４丁目１２８－１２レクサス２０１,,36,201,7700052,,,,,,,2021-11-09,1,,,,,ハムドインターナショナル,0
1326,5010001222356,新規,0,2021-11-09,2021-11-09,株式会社ＧＲＩＴ,,株式会社,東京都,中央区,勝どき６丁目３番２－４７０１号,,13,102,1040054,,,,,,,2021-11-09,1,,,,,グリット,0
1329,5010003036151,新規,0,2021-11-09,2021-11-09,合同会社狛江和泉多摩川水力発電所,,合同会社,東京都,中央区,日本橋箱崎町５番４号アライズ第２ビル６階,,13,102,1030015,,,,,,,2021-11-09,1,,,,,コマエイズミタマガワスイリョクハツデンショ,0
1330,5010003036242,新規,0,2021-11-09,2021-11-09,合同会社ＦＤ,,合同会社,東京都,中央区,銀座１丁目６番１１号土志田ビルディング３Ｆ,,13,102,1040061,,,,,,,2021-11-09,1,,,,,エフディー,0
1331,5010005034194,新規,0,2021-11-09,2021-11-09,一般社団法人ＶＰＳ,,その他の設立登記法人,東京都,中央区,八丁堀４丁目２番１０号ＡＯＪ税理士法人内,,13,102,1040032,,,,,,,2021-11-09,1,,,,,ブイピーエス,0
1340,5010401163555,新規,0,2021-11-09,2021-11-09,ＳＢＩネオコーポレートサービシーズ株式会社,,株式会社,東京都,港区,六本木１丁目６番１号,,13,103,1060032,,,,,,,2021-11-09,1,,,,,エスビーアイネオコーポレートサービシーズ,0
1341,5010401163646,新規,0,2021-11-09,2021-11-09,株式会社Ｎｅｏｗｏｒｌｄ,,株式会社,東京都,港区,浜松町２丁目２番１５号浜松町ダイヤビル２Ｆ,,13,103,1050013,,,,,,,2021-11-09,1,,,,,ネオワールド,0
1342,5010401163687,新規,0,2021-11-09,2021-11-09,Ｐｉｎｏｅｉｇｈｔ株式会社,,株式会社,東京都,港区,北青山２丁目７番１３号プラセオ青山ビル３Ｆ,,13,103,1070061,,,,,,,2021-11-09,1,,,,,ピノエイト,0
1349,5010501048045,新規,0,2021-11-09,2021-11-09,株式会社ラフテル東京,,株式会社,東京都,台東区,上野５丁目８番５号,,13,106,1100005,,,,,,,2021-11-09,1,,,,,ラフテルトウキョウ,0
1354,5010603009234,新規,0,2021-11-09,2021-11-09,合同会社ＰＩＮＥ　ＳＴＲＥＡＭ,,合同会社,東京都,江東区,豊洲４丁目９番１３－１５１７号,,13,108,1350061,,,,,,,2021-11-09,1,,,,,パインストリーム,0
1356,5010701041733,新規,0,2021-11-09,2021-11-09,株式会社飛鳥商事,,株式会社,東京都,品川区,東五反田１丁目１４番１４号,,13,109,1410022,,,,,,,2021-11-09,1,,,,,アスカショウジ,0
1366,5011001143781,新規,0,2021-11-09,2021-11-09,株式会社Ｉｎｔｏｐｌｉｂｅｒｔｙ,,株式会社,東京都,渋谷区,広尾１丁目１５番７号アドビルディング６０３,,13,113,1500012,,,,,,,2021-11-09,1,,,,,イントップリバティー,0
1367,5011001143815,新規,0,2021-11-09,2021-11-09,株式会社アセットスコープ,,株式会社,東京都,目黒区,緑が丘２丁目１４番２５－３０５号,,13,110,1520034,,,,,,,2021-11-09,1,,,,,アセットスコープ,0
1368,5011001143864,新規,0,2021-11-09,2021-11-09,株式会社Ｌｉｔｔ　Ｕｐ,,株式会社,東京都,渋谷区,神宮前６丁目２３番４号桑野ビル２階,,13,113,1500001,,,,,,,2021-11-09,1,,,,,リットアップ,0
1371,5011005009302,新規,0,2021-11-09,2021-11-09,一般社団法人ＢＬＵＥ　ＢＡＬＬＯＯＮ,,その他の設立登記法人,東京都,渋谷区,猿楽町３０番３号,,13,113,1500033,,,,,,,2021-11-09,1,,,,,ブルーバルーン,0
1373,5011201023395,新規,0,2021-11-09,2021-11-09,株式会社Ｄａｉｌｙ　Ｓｔｅｐ,,株式会社,東京都,中野区,若宮３丁目４１番７号モン・シャトー都立家政１０１,,13,114,1650033,,,,,,,2021-11-09,1,,,,,デイリーステップ,0
1380,5011701024835,新規,0,2021-11-09,2021-11-09,株式会社ＡＤＶＡＮＣＥ　ＷＡＶＥ,,株式会社,東京都,江戸川区,南葛西１丁目１０番地２０号ユーハウス２０１,,13,123,1340085,,,,,,,2021-11-09,1,,,,,アドバンスウェーブ,0
1394,5013301048248,新規,0,2021-11-09,2021-11-09,株式会社３ＳＴＯＮＥ　Ｃоｎｓｕｌｔｉｎｇ,,株式会社,東京都,豊島区,東池袋５丁目３２番６号,,13,116,1700013,,,,,,,2021-11-09,1,,,,,スリーストーンコンサルティング,0
1402,5020001143790,新規,0,2021-11-09,2021-11-09,平和交通株式会社,,株式会社,神奈川県,横浜市鶴見区,鶴見中央２丁目１３番２２号,,14,101,2300051,,,,,,,2021-11-09,1,,,,,ヘイワコウツウ,0
1403,5020001143824,新規,0,2021-11-09,2021-11-09,株式会社Ｋ,,株式会社,神奈川県,横浜市青葉区,鴨志田町５２９番地６ミルキーウェイＢ２０１,,14,117,2270033,,,,,,,2021-11-09,1,,,,,ケー,0
1404,5020001143832,新規,0,2021-11-09,2021-11-09,株式会社ＲｏＧ,,株式会社,神奈川県,川崎市中原区,今井南町４－２６－２０４号パークホームズ武蔵小杉今井南町,,14,133,2110064,,,,,,,2021-11-09,1,,,,,ログ,0
1405,5020001143840,新規,0,2021-11-09,2021-11-09,株式会社モノリス,,株式会社,神奈川県,横浜市栄区,飯島町１０２５番地３,,14,115,2440842,,,,,,,2021-11-09,1,,,,,モノリス,0
1411,5021001074407,新規,0,2021-11-09,2021-11-09,株式会社爆安屋,,株式会社,神奈川県,三浦市,初声町下宮田２７７６番地１,,14,210,2380111,,,,,,,2021-11-09,1,,,,,バクヤスヤ,0
1412,5021005012338,新規,0,2021-11-09,2021-11-09,一般社団法人高校生みらいラボ,,その他の設立登記法人,神奈川県,足柄下郡箱根町,元箱根５５,,14,382,2500522,,,,,,,2021-11-09,1,,,,,,0
1420,5030003018271,新規,0,2021-11-09,2021-11-09,合同会社ｎａｇｅｓｈｖａｒｉ　ｆａｓｈｉｏｎ　ｇｒｏｕｐ,,合同会社,埼玉県,川越市,霞ケ関東１丁目１０－１６－１０５,,11,201,3501103,,,,,,,2021-11-09,1,,,,,ナゲシュバリファッショングループ,0
1421,5030003018296,新規,0,2021-11-09,2021-11-09,大和屋合同会社,,合同会社,埼玉県,所沢市,中新井３丁目１９番１６号,,11,208,3590041,,,,,,,2021-11-09,1,,,,,ヤマトヤ,0
1436,5040003018898,新規,0,2021-11-09,2021-11-09,合同会社ノーサイド,,合同会社,千葉県,市川市,大野町１丁目４８２番１７,,12,203,2720805,,,,,,,2021-11-09,1,,,,,ノーサイド,0
1441,5070001038623,新規,0,2021-11-09,2021-11-09,ＭｅＭｅ株式会社,,株式会社,群馬県,館林市,野辺町５７７番地,,10,207,3740047,,,,,,,2021-11-09,1,,,,,メメ,0
1472,5120001241691,新規,0,2021-11-09,2021-11-09,株式会社セプト,,株式会社,大阪府,守口市,馬場町２丁目４－１８－４０６号室,,27,209,5700062,,,,,,,2021-11-09,1,,,,,セプト,0
1473,5120001241725,新規,0,2021-11-09,2021-11-09,恩橙株式会社,,株式会社,大阪府,大阪市港区,市岡元町２丁目６番１１－４０５号,,27,107,5520002,,,,,,,2021-11-09,1,,,,,オントウ,0
1474,5120001241733,新規,0,2021-11-09,2021-11-09,アスクアウェイ株式会社,,株式会社,大阪府,大阪市西区,阿波座２丁目２番２０号６０Ｇ,,27,106,5500011,,,,,,,2021-11-09,1,,,,,アスクアウェイ,0
1486,5120901045110,新規,0,2021-11-09,2021-11-09,株式会社ヒデル企画,,株式会社,大阪府,吹田市,川園町５５番３号,,27,205,5640013,,,,,,,2021-11-09,1,,,,,ヒデルキカク,0
1487,5120901045176,新規,0,2021-11-09,2021-11-09,株式会社優家,,株式会社,大阪府,池田市,五月丘２丁目３番１７号,,27,204,5630029,,,,,,,2021-11-09,1,,,,,ユウヤ,0
1503,5140001123698,新規,0,2021-11-09,2021-11-09,株式会社みやび,,株式会社,兵庫県,明石市,大久保町西島６７３番地－２０２号,,28,203,6740065,,,,,,,2021-11-09,1,,,,,ミヤビ,0
1504,5140001123797,新規,0,2021-11-09,2021-11-09,株式会社Ｓ＆Ｈ,,株式会社,兵庫県,尼崎市,大庄西町２丁目６番１９号,,28,202,6600077,,,,,,,2021-11-09,1,,,,,エスアンドエイチ,0
1514,5140003016925,新規,0,2021-11-09,2021-11-09,合同会社水素茶研究所,,合同会社,兵庫県,姫路市,的形町的形７６０番地２１,,28,201,6710111,,,,,,,2021-11-09,1,,,,,スイソチャケンキュウショ,0
1515,5160001023789,新規,0,2021-11-09,2021-11-09,株式会社スイフト,,株式会社,滋賀県,草津市,大路２丁目１５番３７号中村ビル１階Ｂ号室,,25,206,5250032,,,,,,,2021-11-09,1,,,,,スイフト,0
1522,5180001148568,新規,0,2021-11-09,2021-11-09,飛設計株式会社,,株式会社,愛知県,津島市,大字津島字北新開１２９番地１２,,23,208,4960027,,,,,,,2021-11-09,1,,,,,トビセッケイ,0
1526,5180003023174,新規,0,2021-11-09,2021-11-09,合同会社ＭＡＲＳ,,合同会社,愛知県,名古屋市名東区,香流３丁目２１０番地の２,,23,115,4650005,,,,,,,2021-11-09,1,,,,,マーズ,0
1533,5190001028851,新規,0,2021-11-09,2021-11-09,株式会社ｅハートサービス,,株式会社,三重県,松阪市,虹が丘町１２番地７,,24,204,5150042,,,,,,,2021-11-09,1,,,,,イーハートサービス,0
1541,5220003003147,新規,0,2021-11-09,2021-11-09,ウメチ合同会社,,合同会社,石川県,白山市,湊町乙２２番地２９,,17,210,9290217,,,,,,,2021-11-09,1,,,,,ウメチ,0
1543,5230001019086,新規,0,2021-11-09,2021-11-09,Ｅ７イーセブン株式会社,,株式会社,富山県,下新川郡入善町,青木２１０５番地,,16,342,9390643,,,,,,,2021-11-09,1,,,,,イーセブンイーセブン,0
1560,5290001095254,新規,0,2021-11-09,2021-11-09,株式会社ワイエムジー,,株式会社,福岡県,筑紫野市,上古賀４丁目６番１３－２０２号,,40,217,8180041,,,,,,,2021-11-09,1,,,,,ワイエムジー,0
1563,5290003011770,新規,0,2021-11-09,2021-11-09,合同会社ビスキャリア,,合同会社,福岡県,福岡市中央区,今泉２丁目３番４１－８１０号,,40,133,8100021,,,,,,,2021-11-09,1,,,,,ビスキャリア,0
1569,5290801027968,新規,0,2021-11-09,2021-11-09,株式会社Ｆｒａｎｇｉｐａｎｉ,,株式会社,福岡県,北九州市八幡西区,日吉台３丁目１２番１５号,,40,109,8070866,,,,,,,2021-11-09,1,,,,,フランジパニ,0
1575,5310001017569,新規,0,2021-11-09,2021-11-09,株式会社Ｆ・Ｋ・ＢＡＳＥ,,株式会社,長崎県,南島原市,深江町戊２９６４番地,,42,214,8591505,,,,,,,2021-11-09,1,,,,,エフケイベース,0
1579,5330005010428,新規,0,2021-11-09,2021-11-09,特定非営利活動法人ふぁんらいふ,,その他の設立登記法人,熊本県,熊本市南区,出仲間１丁目１番６号,,43,104,8620963,,,,,,,2021-11-09,1,,,,,ファンライフ,0
1606,5430001085348,新規,0,2021-11-09,2021-11-09,株式会社ミリオンサービス,,株式会社,北海道,札幌市北区,新琴似十条１３丁目４番１５号,,01,102,0010910,,,,,,,2021-11-09,1,,,,,ミリオンサービス,0
1612,5470001018816,新規,0,2021-11-09,2021-11-09,株式会社ＭＡＲＫＳ,,株式会社,香川県,高松市,錦町１丁目１５番７号,,37,201,7600020,,,,,,,2021-11-09,1,,,,,マークス,0
1616,5500003002715,新規,0,2021-11-09,2021-11-09,合同会社あいハート,,合同会社,愛媛県,新居浜市,萩生２７２番地の５２,,38,205,7920050,,,,,,,2021-11-09,1,,,,,アイハート,0
1619,6010001222330,新規,0,2021-11-09,2021-11-09,株式会社Ｓｏｎｇｂｉｒｄ,,株式会社,東京都,中央区,佃２丁目５番７－７１４号,,13,102,1040051,,,,,,,2021-11-09,1,,,,,ソングバード,0
1620,6010001222347,新規,0,2021-11-09,2021-11-09,株式会社ａｎｄ－ｓｍｉｌｅ,,株式会社,東京都,千代田区,鍛冶町２丁目７番４号,,13,101,1010044,,,,,,,2021-11-09,1,,,,,アンドスマイル,0
1621,6010001222371,新規,0,2021-11-09,2021-11-09,株式会社フミリス,,株式会社,東京都,中央区,銀座１丁目１２－４Ｎ＆ＥＢＬＤ．７階,,13,102,1040061,,,,,,,2021-11-09,1,,,,,フミリス,0
1622,6010001222388,新規,0,2021-11-09,2021-11-09,株式会社リシーブ,,株式会社,東京都,千代田区,平河町１丁目６－１５ＵＳビル８Ｆ,,13,101,1020093,,,,,,,2021-11-09,1,,,,,リシーブ,0
1623,6010001222405,新規,0,2021-11-09,2021-11-09,株式会社ギャラクシーエンタテイメント,,株式会社,東京都,中央区,日本橋小網町１２番７号,,13,102,1030016,,,,,,,2021-11-09,1,,,,,ギャラクシーエンタテイメント,0
1627,6010003036167,新規,0,2021-11-09,2021-11-09,西新榎本合同会社,,合同会社,東京都,千代田区,神田錦町２丁目２番地１１,,13,101,1010054,,,,,,,2021-11-09,1,,,,,ニシジンエノモト,0
1635,6010401163595,新規,0,2021-11-09,2021-11-09,ＳＢＩ大学発ベンチャー育成支援株式会社,,株式会社,東京都,港区,六本木１丁目６番１号,,13,103,1060032,,,,,,,2021-11-09,1,,,,,エスビーアイダイガクハツベンチャーイクセイシエン,0
1636,6010401163645,新規,0,2021-11-09,2021-11-09,株式会社トリバス,,株式会社,東京都,港区,南麻布４丁目１３番８号,,13,103,1060047,,,,,,,2021-11-09,1,,,,,トリバス,0
1637,6010401163661,新規,0,2021-11-09,2021-11-09,株式会社Ｐｒｉｍｅ８５,,株式会社,東京都,港区,南青山２丁目２番１５号ＷｉｎＡｏｙａｍａビルＵＣＦ６３５,,13,103,1070062,,,,,,,2021-11-09,1,,,,,プライムエイティファイブ,0
1641,6010403026321,新規,0,2021-11-09,2021-11-09,リレントレス合同会社,,合同会社,東京都,港区,南青山２丁目２番１５,,13,103,1070062,,,,,,,2021-11-09,1,,,,,リレントレス,0
1642,6010403026453,新規,0,2021-11-09,2021-11-09,合同会社ＣＯＴＡＬＡＬＩＳ,,合同会社,東京都,港区,浜松町２丁目２番１５号浜松町ダイヤビル２Ｆ,,13,103,1050013,,,,,,,2021-11-09,1,,,,,コタラリス,0
1646,6010501048077,新規,0,2021-11-09,2021-11-09,ＰＯＯＯＯＮ株式会社,,株式会社,東京都,台東区,下谷３丁目１番２４号,,13,106,1100004,,,,,,,2021-11-09,1,,,,,ポーン,0
1652,6010705003290,新規,0,2021-11-09,2021-11-09,一般社団法人オンザボード,,その他の設立登記法人,東京都,品川区,平塚１丁目２１番６号中角ビル３０１,,13,109,1420051,,,,,,,2021-11-09,1,,,,,オンザボード,0
1658,6010901049757,新規,0,2021-11-09,2021-11-09,株式会社ＴＡＺＡＴ,,株式会社,東京都,世田谷区,上馬４丁目２番９－９１１号,,13,112,1540011,,,,,,,2021-11-09,1,,,,,タザット,0
1659,6010901049765,新規,0,2021-11-09,2021-11-09,株式会社幸和,,株式会社,東京都,世田谷区,鎌田３丁目２７番１４号,,13,112,1570077,,,,,,,2021-11-09,1,,,,,コウワ,0
1667,6011001143772,新規,0,2021-11-09,2021-11-09,株式会社ｂｅ,,株式会社,東京都,渋谷区,恵比寿１丁目８番１８号Ｋ－１ビル３Ｆ,,13,113,1500013,,,,,,,2021-11-09,1,,,,,ビー,0
1672,6011105010035,新規,0,2021-11-09,2021-11-09,一般社団法人日本産業保健法学会,,その他の設立登記法人,東京都,新宿区,箪笥町４３番地新神楽坂ビル２階,,13,104,1620833,,,,,,,2021-11-09,1,,,,,ニホンサンギョウホケンホウガッカイ,0
1674,6011401023822,新規,0,2021-11-09,2021-11-09,株式会社ＩＮＰ,,株式会社,東京都,板橋区,南常盤台１丁目１１－６レフア南常盤台１０１,,13,119,1740072,,,,,,,2021-11-09,1,,,,,アイエヌピー,0
1679,6011601025528,新規,0,2021-11-09,2021-11-09,株式会社白由貴建設,,株式会社,東京都,練馬区,土支田４丁目３９番５号木蓮ハウス５号,,13,120,1790076,,,,,,,2021-11-09,1,,,,,シラユキケンセツ,0
1690,6012301012766,新規,0,2021-11-09,2021-11-09,株式会社ＴＥ・ＢＡＣＫ,,株式会社,東京都,町田市,南町田１丁目１３番６号,,13,209,1940005,,,,,,,2021-11-09,1,,,,,テバック,0
1695,6012803002637,新規,0,2021-11-09,2021-11-09,伊藤幸合同会社,,合同会社,東京都,日野市,三沢２丁目２０番地の１７,,13,212,1910032,,,,,,,2021-11-09,1,,,,,イトウユキ,0
1707,6020001143823,新規,0,2021-11-09,2021-11-09,ベイジェネレーション株式会社,,株式会社,神奈川県,横浜市中区,山手町２１６番地１４,,14,104,2310862,,,,,,,2021-11-09,1,,,,,ベイジェネレーション,0
1711,6020003020780,新規,0,2021-11-09,2021-11-09,合同会社ＮＹＫ,,合同会社,神奈川県,川崎市川崎区,京町１丁目７番５号,,14,131,2100848,,,,,,,2021-11-09,1,,,,,エヌワイケー,0
1734,6030001145240,新規,0,2021-11-09,2021-11-09,株式会社鈴勝,,株式会社,埼玉県,川口市,戸塚６丁目１０番１９号,,11,203,3330811,,,,,,,2021-11-09,1,,,,,スズショウ,0
1735,6030001145249,新規,0,2021-11-09,2021-11-09,株式会社雄真鋼業,,株式会社,埼玉県,富士見市,鶴馬２丁目１２番４４号,,11,235,3540021,,,,,,,2021-11-09,1,,,,,ユウシンコウギョウ,0
1736,6030001145273,新規,0,2021-11-09,2021-11-09,株式会社Ｔ,,株式会社,埼玉県,和光市,南１丁目１３－５３,,11,229,3510104,,,,,,,2021-11-09,1,,,,,ティ,0
1741,6030003018270,新規,0,2021-11-09,2021-11-09,合同会社ＡＬＬ　ＩＮ　ＰＲＯＪＥＣＴ,,合同会社,埼玉県,川口市,大字安行慈林８４７番地３号,,11,203,3340071,,,,,,,2021-11-09,1,,,,,オールインプロジェクト,0
1742,6030003018287,新規,0,2021-11-09,2021-11-09,合同会社ステージア,,合同会社,埼玉県,草加市,草加３丁目２番１０号ファミリー５番館１０１号,,11,221,3400043,,,,,,,2021-11-09,1,,,,,ステージア,0
1746,6040001120928,新規,0,2021-11-09,2021-11-09,株式会社Ｒｏｃｋ　ｍｅ,,株式会社,千葉県,習志野市,袖ケ浦２丁目６－１番１０２号,,12,216,2750021,,,,,,,2021-11-09,1,,,,,ロックミー,0
1749,6040003018864,新規,0,2021-11-09,2021-11-09,合同会社トライジーニアス,,合同会社,千葉県,千葉市若葉区,原町９１１番地５,,12,104,2640034,,,,,,,2021-11-09,1,,,,,トライジーニアス,0
1765,6080105006193,新規,0,2021-11-09,2021-11-09,ＡＳＭ協同組合,,その他の設立登記法人,静岡県,裾野市,御宿１５２２番地の２７ＧＭＧ東富士ビル２０７,,22,220,4101107,,,,,,,2021-11-09,1,,,,,エーエスエム,0
1767,6080403004403,新規,0,2021-11-09,2021-11-09,ＮＥＷ　ＶＩＥＷ合同会社,,合同会社,静岡県,掛川市,大野１７７６番地の６,,22,213,4360009,,,,,,,2021-11-09,1,,,,,ニュービュー,0
1794,6120001241567,新規,0,2021-11-09,2021-11-09,株式会社ネクスト,,株式会社,大阪府,大阪市北区,西天満１丁目９番２０－５０２,,27,127,5300047,,,,,,,2021-11-09,1,,,,,ネクスト,0
1795,6120001241666,新規,0,2021-11-09,2021-11-09,株式会社創造,,株式会社,大阪府,大阪市浪速区,桜川２丁目８番２５－１０８号,,27,111,5560022,,,,,,,2021-11-09,1,,,,,ソウゾウ,0
1796,6120001241716,新規,0,2021-11-09,2021-11-09,株式会社ｎｕｆｆｒａｃ,,株式会社,大阪府,大阪市東淀川区,西淡路１丁目１－２８,,27,114,5330031,,,,,,,2021-11-09,1,,,,,ナフラック,0
1797,6120001241724,新規,0,2021-11-09,2021-11-09,株式会社エムワイ設備,,株式会社,大阪府,大阪市生野区,巽中３丁目８番３８号,,27,116,5440013,,,,,,,2021-11-09,1,,,,,エムワイセツビ,0
1800,6120003020564,新規,0,2021-11-09,2021-11-09,合同会社ａｎｄｏｎｅ,,合同会社,大阪府,大阪市西区,九条１丁目２８－１－１０５,,27,106,5500027,,,,,,,2021-11-09,1,,,,,アンドワン,0
1807,6122001035321,新規,0,2021-11-09,2021-11-09,株式会社グリッター,,株式会社,大阪府,八尾市,陽光園１丁目１３番２号,,27,212,5810086,,,,,,,2021-11-09,1,,,,,グリッター,0
1830,6180001148567,新規,0,2021-11-09,2021-11-09,株式会社サウナラボ,,株式会社,愛知県,名古屋市中区,栄３丁目２７番３３号,,23,106,4600008,,,,,,,2021-11-09,1,,,,,サウナラボ,0
1831,6180001148641,新規,0,2021-11-09,2021-11-09,株式会社ＦＯＳ,,株式会社,愛知県,清須市,西枇杷島町古城１丁目１１－９古城ハイツ１０１,,23,233,4520001,,,,,,,2021-11-09,1,,,,,エフオーエス,0
1832,6180001148658,新規,0,2021-11-09,2021-11-09,株式会社月うさぎ,,株式会社,愛知県,江南市,飛高町本町４番地ネスパルド江南３－Ｃ,,23,217,4838068,,,,,,,2021-11-09,1,,,,,ツキウサギ,0
1833,6180001148674,新規,0,2021-11-09,2021-11-09,ＧＬＯＢＡＬ　ＳＡＦＥＴＹ株式会社,,株式会社,愛知県,名古屋市南区,上浜町１１１番地,,23,112,4570067,,,,,,,2021-11-09,1,,,,,グローバルセーフティ,0
1837,6180003023173,新規,0,2021-11-09,2021-11-09,合同会社ラポール,,合同会社,愛知県,名古屋市中村区,大宮町２丁目２６－１,,23,105,4530821,,,,,,,2021-11-09,1,,,,,ラポール,0
1841,6180301035597,新規,0,2021-11-09,2021-11-09,株式会社Ｌａｎａ,,株式会社,愛知県,豊川市,諏訪３丁目３００番地１階１０５区画,,23,207,4420068,,,,,,,2021-11-09,1,,,,,ラナ,0
1842,6180301035606,新規,0,2021-11-09,2021-11-09,株式会社ＯＮＯ,,株式会社,愛知県,額田郡幸田町,大字坂崎字上田３６番地２,,23,501,4440104,,,,,,,2021-11-09,1,,,,,オノ,0
1846,6190001028850,新規,0,2021-11-09,2021-11-09,株式会社エイトスクエア,,株式会社,三重県,四日市市,大字羽津戊５６４番地,,24,202,5100012,,,,,,,2021-11-09,1,,,,,エイトスクエア,0
1856,6230001019069,新規,0,2021-11-09,2021-11-09,株式会社谷口板金,,株式会社,富山県,南砺市,才川七１７４３番地２,,16,210,9391681,,,,,,,2021-11-09,1,,,,,タニグチバンキン,0
1858,6230003001751,新規,0,2021-11-09,2021-11-09,合同会社ＳＥＭ,,合同会社,富山県,富山市,赤田５０５番地,,16,201,9398064,,,,,,,2021-11-09,1,,,,,エスイーエム,0
1861,6240005015294,新規,0,2021-11-09,2021-11-09,特定非営利活動法人広島マック,,その他の設立登記法人,広島県,広島市南区,比治山町１番１２号,,34,103,7320817,,,,,,,2021-11-09,1,,,,,ヒロシママック,0
1864,6250001019249,新規,0,2021-11-09,2021-11-09,株式会社リポシィ,,株式会社,山口県,宇部市,大字善和４６２番地２－２３号室,,35,202,7590134,,,,,,,2021-11-09,1,,,,,リポシィ,0
1867,6260001036185,新規,0,2021-11-09,2021-11-09,ストリーブルコンサルティング株式会社,,株式会社,岡山県,倉敷市,福田町浦田２３８０番地５,,33,202,7128031,,,,,,,2021-11-09,1,,,,,ストリーブルコンサルティング,0
1873,6290001095245,新規,0,2021-11-09,2021-11-09,株式会社スマートコネクト,,株式会社,福岡県,福岡市中央区,平丘町３番２６号,,40,133,8100017,,,,,,,2021-11-09,1,,,,,スマートコネクト,0
1874,6290001095303,新規,0,2021-11-09,2021-11-09,株式会社晴栄不動産,,株式会社,福岡県,糟屋郡志免町,石橋台６番１号神田ビル２０３,,40,343,8112203,,,,,,,2021-11-09,1,,,,,セイエイフドウサン,0
1875,6290001095336,新規,0,2021-11-09,2021-11-09,株式会社Ｌａ　ｌｅｓｓｉｖｅ．,,株式会社,福岡県,久留米市,原古賀町２０番地８エンゼルハイム六ツ門７０２号,,40,203,8300046,,,,,,,2021-11-09,1,,,,,ラレシーヴ,0
1878,6290003011803,新規,0,2021-11-09,2021-11-09,合同会社ミライト企画,,合同会社,福岡県,福岡市南区,若久団地２番１号,,40,134,8150048,,,,,,,2021-11-09,1,,,,,ミライトキカク,0
1880,6290801027975,新規,0,2021-11-09,2021-11-09,株式会社永真,,株式会社,福岡県,北九州市小倉南区,下城野２丁目５番１号－２０６,,40,107,8020804,,,,,,,2021-11-09,1,,,,,エイシン,0
1883,6310001017568,新規,0,2021-11-09,2021-11-09,株式会社クロノ,,株式会社,長崎県,長崎市,出島町５番１９号,,42,201,8500862,,,,,,,2021-11-09,1,,,,,クロノ,0
1885,6340001024256,新規,0,2021-11-09,2021-11-09,株式会社Ｅ－ｄａｙｓ,,株式会社,鹿児島県,鹿児島市,石谷町１５９２－１１,,46,201,8992701,,,,,,,2021-11-09,1,,,,,イーデイズ,0
1896,6370001047816,新規,0,2021-11-09,2021-11-09,株式会社Ｄ－ｗоｒｋｓ,,株式会社,宮城県,仙台市若林区,沖野３丁目６－６０－１Ｆ,,04,103,9840831,,,,,,,2021-11-09,1,,,,,ディーワークス,0
1915,6460103001406,新規,0,2021-11-09,2021-11-09,合同会社インデックス,,合同会社,北海道,河東郡音更町,すずらん台仲町１丁目４番地３,,01,631,0800362,,,,,,,2021-11-09,1,,,,,インデックス,0
1917,6480001011546,新規,0,2021-11-09,2021-11-09,ｍｉｒａｉクリエイト株式会社,,株式会社,徳島県,板野郡北島町,江尻字夷ノ本３９番地１０ＢＥＡＭＳ北島２０２号,,36,402,7710205,,,,,,,2021-11-09,1,,,,,ミライクリエイト,0
1927,7010001222305,新規,0,2021-11-09,2021-11-09,株式会社ＫＭＦＦ,,株式会社,東京都,中央区,晴海２丁目２番４２－４７１６号,,13,102,1040053,,,,,,,2021-11-09,1,,,,,ケイエムエフエフ,0
1928,7010001222370,新規,0,2021-11-09,2021-11-09,ベスティー株式会社,,株式会社,東京都,中央区,晴海２丁目３番２－７０２号,,13,102,1040053,,,,,,,2021-11-09,1,,,,,ベスティー,0
1932,7010005034168,新規,0,2021-11-09,2021-11-09,弁護士法人池田・染谷法律事務所,,その他の設立登記法人,東京都,千代田区,有楽町２丁目７番１号有楽町イトシア１４階,,13,101,1000006,,,,,,,2021-11-09,1,,,,,イケダソメヤホウリツジムショ,0
1944,7010505003275,新規,0,2021-11-09,2021-11-09,あおば税理士法人,,その他の設立登記法人,東京都,台東区,上野５丁目２６番１５号ＧＳＢＬＤ．１－３Ｆ,,13,106,1100005,,,,,,,2021-11-09,1,,,,,アオバ,0
1947,7010601060195,新規,0,2021-11-09,2021-11-09,株式会社エムエムキャピタル,,株式会社,東京都,江東区,新木場１丁目１番６号,,13,108,1360082,,,,,,,2021-11-09,1,,,,,エムエムキャピタル,0
1948,7010603009240,新規,0,2021-11-09,2021-11-09,合同会社ＦＩＲＥＴ,,合同会社,東京都,江東区,高橋１４番１６号,,13,108,1350005,,,,,,,2021-11-09,1,,,,,フィレット,0
1965,7011001143549,新規,0,2021-11-09,2021-11-09,株式会社Ｓａｙ,,株式会社,東京都,渋谷区,恵比寿３丁目５－９イートス恵比寿３０３,,13,113,1500013,,,,,,,2021-11-09,1,,,,,,0
1966,7011001143821,新規,0,2021-11-09,2021-11-09,株式会社トイカケ,,株式会社,東京都,渋谷区,恵比寿２丁目２８番地１０号３２６５,,13,113,1500013,,,,,,,2021-11-09,1,,,,,トイカケ,0
1967,7011001143838,新規,0,2021-11-09,2021-11-09,ＡＲＴ　Ｉｓ．株式会社,,株式会社,東京都,渋谷区,代官山町３番１３号,,13,113,1500034,,,,,,,2021-11-09,1,,,,,アートイズ,0
1974,7011401023821,新規,0,2021-11-09,2021-11-09,株式会社ＲＥＧＯＬＩＴＨ,,株式会社,東京都,板橋区,中板橋２３番１１号細川ビル,,13,119,1730016,,,,,,,2021-11-09,1,,,,,レゴリス,0
1980,7011701024825,新規,0,2021-11-09,2021-11-09,株式会社ＥＶＯ　ＮＩＮＥ,,株式会社,東京都,江戸川区,中葛西４丁目２０番４号牧野第一ビル１Ｆ,,13,123,1340083,,,,,,,2021-11-09,1,,,,,エボナイン,0
1984,7012301012765,新規,0,2021-11-09,2021-11-09,株式会社佐藤,,株式会社,東京都,町田市,原町田１丁目３番９号,,13,209,1940013,,,,,,,2021-11-09,1,,,,,サトウ,0
1988,7012403005097,新規,0,2021-11-09,2021-11-09,合同会社オハナ,,合同会社,東京都,多摩市,一ノ宮１丁目２３番地の８,,13,224,2060002,,,,,,,2021-11-09,1,,,,,オハナ,0
1995,7013301048246,新規,0,2021-11-09,2021-11-09,株式会社ハレノバ,,株式会社,東京都,豊島区,高田３丁目２１番２号ユニハイト東京ビル４階,,13,116,1710033,,,,,,,2021-11-09,1,,,,,ハレノバ,0
2003,7020001143789,新規,0,2021-11-09,2021-11-09,平和交通株式会社,,株式会社,神奈川県,横浜市保土ケ谷区,峰岡町３丁目３４５番地,,14,106,2400064,,,,,,,2021-11-09,1,,,,,ヘイワコウツウ,0
2004,7020001143814,新規,0,2021-11-09,2021-11-09,アイシークリエイト株式会社,,株式会社,神奈川県,川崎市麻生区,片平１４２９番地,,14,137,2150023,,,,,,,2021-11-09,1,,,,,アイシークリエイト,0
2005,7020001143822,新規,0,2021-11-09,2021-11-09,株式会社Ｔ＆Ｔ,,株式会社,神奈川県,横浜市緑区,中山１丁目２２番２２－５０３号,,14,113,2260019,,,,,,,2021-11-09,1,,,,,ティーアンドティー,0
2006,7020001143830,新規,0,2021-11-09,2021-11-09,株式会社リオラボ,,株式会社,神奈川県,横浜市南区,山王町４丁目２８番地１０－６０４,,14,105,2320013,,,,,,,2021-11-09,1,,,,,リオラボ,0
2007,7020001143839,新規,0,2021-11-09,2021-11-09,株式会社セプタプル,,株式会社,神奈川県,川崎市川崎区,四谷上町１６番１９号,,14,131,2100828,,,,,,,2021-11-09,1,,,,,セプタプル,0
2011,7020003020730,新規,0,2021-11-09,2021-11-09,合同会社パーティーフォト,,合同会社,神奈川県,横浜市青葉区,新石川２丁目１５―９―４０３,,14,117,2250003,,,,,,,2021-11-09,1,,,,,パーティーフォト,0
2017,7030001145264,新規,0,2021-11-09,2021-11-09,株式会社ＣＣＣ,,株式会社,埼玉県,川口市,南鳩ヶ谷１丁目２３番４号,,11,203,3340013,,,,,,,2021-11-09,1,,,,,シーシーシー,0
2020,7030003018294,新規,0,2021-11-09,2021-11-09,合同会社ＣＳＴコンサルタント,,合同会社,埼玉県,新座市,東北２丁目６－２１,,11,230,3520001,,,,,,,2021-11-09,1,,,,,シーエスティーコンサルタント,0
2029,7040001120910,新規,0,2021-11-09,2021-11-09,クルートランス株式会社,,株式会社,千葉県,旭市,ロ７４５番地１,,12,215,2892516,,,,,,,2021-11-09,1,,,,,クルートランス,0
2030,7040001120927,新規,0,2021-11-09,2021-11-09,協泰株式会社,,株式会社,千葉県,佐倉市,下志津原１６７番地,,12,212,2850842,,,,,,,2021-11-09,1,,,,,キョウタイ,0
2032,7040003018871,新規,0,2021-11-09,2021-11-09,合同会社勝浦ファーマー,,合同会社,千葉県,勝浦市,佐野４４４－２,,12,218,2995206,,,,,,,2021-11-09,1,,,,,カツウラファーマー,0
2040,7070003004290,新規,0,2021-11-09,2021-11-09,合同会社空和ダイニング,,合同会社,群馬県,前橋市,朝倉町１丁目４２番地５西棟,,10,201,3710811,,,,,,,2021-11-09,1,,,,,クウワダイニング,0
2041,7080003002681,新規,0,2021-11-09,2021-11-09,合同会社Ｋａｉｎａｌｕ　Ｂｏｄｙ　Ｔｅａｍ,,合同会社,静岡県,静岡市駿河区,中田３丁目１番９号,,22,102,4228041,,,,,,,2021-11-09,1,,,,,カイナルボディチーム,0
2046,7080405007403,新規,0,2021-11-09,2021-11-09,一般社団法人ＬＯＣＡＬ　ＡＣＴＩＯＮ　ＨＡＭＡＭＡＴＳＵ,,その他の設立登記法人,静岡県,浜松市浜北区,内野台４丁目３４番５号セゾン内野台２０２,,22,136,4340045,,,,,,,2021-11-09,1,,,,,ローカルアクションハママツ,0
2049,7110001036174,新規,0,2021-11-09,2021-11-09,ベジタリアフードテック新潟株式会社,,株式会社,新潟県,新潟市西区,坂井東６丁目１９番９号コスモビルＣ号室,,15,107,9502041,,,,,,,2021-11-09,1,,,,,ベジタリアフードテックニイガタ,0
2050,7110001036182,新規,0,2021-11-09,2021-11-09,株式会社カワショウ,,株式会社,新潟県,北蒲原郡聖籠町,東港３丁目２２６５番地６,,15,307,9570101,,,,,,,2021-11-09,1,,,,,カワショウ,0
2081,7122001035329,新規,0,2021-11-09,2021-11-09,善輪株式会社,,株式会社,大阪府,八尾市,本町５丁目２番３１号,,27,212,5810003,,,,,,,2021-11-09,1,,,,,ゼンリン,0
2082,7122001035337,新規,0,2021-11-09,2021-11-09,株式会社もりもと,,株式会社,大阪府,東大阪市,六万寺町１丁目１４－１７,,27,227,5798061,,,,,,,2021-11-09,1,,,,,モリモト,0
2084,7122003002211,新規,0,2021-11-09,2021-11-09,合同会社ｎｏｂｕ’ｓ,,合同会社,大阪府,東大阪市,鴻池元町６－１５－１１０１,,27,227,5780974,,,,,,,2021-11-09,1,,,,,ノブス,0
2112,7180001148558,新規,0,2021-11-09,2021-11-09,株式会社雅匠,,株式会社,愛知県,海部郡飛島村,大字渚１丁目１１６番地の２０,,23,427,4901433,,,,,,,2021-11-09,1,,,,,ガショウ,0
2113,7180001148582,新規,0,2021-11-09,2021-11-09,あおいホールディングス株式会社,,株式会社,愛知県,小牧市,新町３丁目４３０番地,,23,219,4850013,,,,,,,2021-11-09,1,,,,,アオイホールディングス,0
2114,7180001148599,新規,0,2021-11-09,2021-11-09,名鉄プロパティマネジメント株式会社,,株式会社,愛知県,名古屋市中村区,名駅１丁目２番４号,,23,105,4500002,,,,,,,2021-11-09,1,,,,,メイテツプロパティマネジメント,0
2115,7180001148640,新規,0,2021-11-09,2021-11-09,株式会社Ｂｏｕｎｔｉｆｕｌ　Ｓｔｙｌｅ,,株式会社,愛知県,名古屋市東区,代官町３０番１号,,23,102,4610002,,,,,,,2021-11-09,1,,,,,バウンティフルスタイル,0
2116,7180001148657,新規,0,2021-11-09,2021-11-09,株式会社ストックシェア,,株式会社,愛知県,名古屋市中村区,名駅４丁目２４番１６号広小路ガーデンアベニュー４階,,23,105,4500002,,,,,,,2021-11-09,1,,,,,ストックシェア,0
2126,7180003023131,新規,0,2021-11-09,2021-11-09,ＩＤＥＡＮＤＯ５５．ＬＬＣ合同会社,,合同会社,愛知県,名古屋市東区,泉１丁目３－３２番２０３号,,23,102,4610001,,,,,,,2021-11-09,1,,,,,イデアンドゴーゴーエルエルシ,0
2127,7180003023180,新規,0,2021-11-09,2021-11-09,合同会社Ｓｈｉｎｉｎｇ　Ｌａｂｏ,,合同会社,愛知県,名古屋市緑区,東神の倉３丁目５１９番地（３０Ｄ）,,23,114,4580808,,,,,,,2021-11-09,1,,,,,シャイニングラボ,0
2142,7230001019076,新規,0,2021-11-09,2021-11-09,ＭＯＮＯ黒部株式会社,,株式会社,富山県,黒部市,宇奈月町下立６８７番地,,16,207,9380861,,,,,,,2021-11-09,1,,,,,モノクロベ,0
2147,7240003005362,新規,0,2021-11-09,2021-11-09,合同会社サウス,,合同会社,広島県,広島市安佐北区,可部６丁目５３番１８号,,34,106,7310221,,,,,,,2021-11-09,1,,,,,サウス,0
2150,7250005008701,新規,0,2021-11-09,2021-11-09,農事組合法人あぶキウイファーム,,その他の設立登記法人,山口県,阿武郡阿武町,大字奈古１８６０番地１,,35,502,7593622,,,,,,,2021-11-09,1,,,,,アブキウイファーム,0
2156,7290001095228,新規,0,2021-11-09,2021-11-09,らいと証券アドバイザーズ株式会社,,株式会社,福岡県,福岡市中央区,清川２丁目１３番３４号プレミアージュ天神南６０１,,40,133,8100005,,,,,,,2021-11-09,1,,,,,ライトショウケンアドバイザーズ,0
2157,7290001095244,新規,0,2021-11-09,2021-11-09,株式会社ＳＴＡＲ　ＣＵＴ,,株式会社,福岡県,福岡市西区,福重３丁目１２番２１号,,40,135,8190022,,,,,,,2021-11-09,1,,,,,スターカット,0
2158,7290001095302,新規,0,2021-11-09,2021-11-09,金帝国際株式会社,,株式会社,福岡県,福岡市東区,多の津３丁目８番３３号,,40,131,8130034,,,,,,,2021-11-09,1,,,,,キンテイコクサイ,0
2159,7290001095327,新規,0,2021-11-09,2021-11-09,株式会社フロンティアグループ,,株式会社,福岡県,朝倉郡筑前町,森山３０３－Ｃ２０２,,40,447,8380804,,,,,,,2021-11-09,1,,,,,フロンティアグループ,0
2169,7290801027974,新規,0,2021-11-09,2021-11-09,株式会社Ｒｉｏ　ｄｅ　Ｒｅｇａｌｏ,,株式会社,福岡県,北九州市小倉北区,白銀１丁目１１番２９－８０１号,,40,106,8020074,,,,,,,2021-11-09,1,,,,,リオデレガロ,0
2174,7320001018721,新規,0,2021-11-09,2021-11-09,ｅファクトリー九州株式会社,,株式会社,大分県,由布市,挾間町古野５６６番地１５,,44,213,8795511,,,,,,,2021-11-09,1,,,,,イーファクトリーキュウシュウ,0
2175,7330001029172,新規,0,2021-11-09,2021-11-09,株式会社オリーブ,,株式会社,熊本県,熊本市中央区,中央街６番２８号,,43,101,8600802,,,,,,,2021-11-09,1,,,,,オリーブ,0
2176,7340001024222,新規,0,2021-11-09,2021-11-09,株式会社８ホールディングス,,株式会社,鹿児島県,鹿児島市,西陵３丁目２８番２２号,,46,201,8900032,,,,,,,2021-11-09,1,,,,,エイトホールディングス,0
2190,7370005010380,新規,0,2021-11-09,2021-11-09,一般社団法人大河原佐藤家住宅保存会,,その他の設立登記法人,宮城県,柴田郡大河原町,字町２００番地,,04,321,9891241,,,,,,,2021-11-09,1,,,,,オオガワラサトウケジュウタクホゾンカイ,0
2204,7430001085296,新規,0,2021-11-09,2021-11-09,株式会社松下フーズ,,株式会社,北海道,江別市,緑ケ丘２１番地の３,,01,217,0690823,,,,,,,2021-11-09,1,,,,,マツシタフーズ,0
2205,7430001085338,新規,0,2021-11-09,2021-11-09,株式会社ＭＡＤ,,株式会社,北海道,札幌市中央区,南六条西４丁目４番３ＬＣ壱番館八階,,01,101,0640806,,,,,,,2021-11-09,1,,,,,エムエーディー,0
2206,7430001085354,新規,0,2021-11-09,2021-11-09,株式会社北鳶工業,,株式会社,北海道,札幌市北区,新川八条１７丁目７６９番地７,,01,102,0010928,,,,,,,2021-11-09,1,,,,,ホクエンコウギョウ,0
2220,7700150024630,新規,0,2021-11-09,2015-10-09,大阪市立大学　教育後援会,,その他,大阪府,大阪市住吉区,杉本３丁目３－１３８大阪市立大学内,,27,120,5580022,,,,,,,2015-10-09,1,,,,,オオサカシリツダイガクキヨウイクコウエンカイ,0
2226,8010001222262,新規,0,2021-11-09,2021-11-09,株式会社Ｐｒｅｆｅｒｒｅｄ　Ｒｏｂｏｔｉｃｓ,,株式会社,東京都,千代田区,大手町１丁目６番１号大手町ビル,,13,101,1000004,,,,,,,2021-11-09,1,,,,,プリファードロボティクス,0
2228,8010003036149,新規,0,2021-11-09,2021-11-09,合同会社ＷＥＢＪＩＴ,,合同会社,東京都,中央区,銀座１丁目２２－１１銀座大竹ビジデンス２階,,13,102,1040061,,,,,,,2021-11-09,1,,,,,ウェブジット,0
2236,8010401163676,新規,0,2021-11-09,2021-11-09,株式会社ミライサイテキ,,株式会社,東京都,港区,虎ノ門４丁目１番２８号虎ノ門タワーズオフィス１７階,,13,103,1050001,,,,,,,2021-11-09,1,,,,,ミライサイテキ,0
2238,8010403026468,新規,0,2021-11-09,2021-11-09,合同会社アルゴ,,合同会社,東京都,港区,浜松町２丁目２番１５号ダイヤビル２Ｆ,,13,103,1050013,,,,,,,2021-11-09,1,,,,,アルゴ,0
2241,8010501048075,新規,0,2021-11-09,2021-11-09,テックラボストーリー株式会社,,株式会社,東京都,台東区,根岸２丁目１２番２号リマールビルＩＩ４Ｆ,00124809,13,106,1100003,,,,,,,2021-11-09,1,,,,,テックラボストーリー,0
2243,8010603009223,新規,0,2021-11-09,2021-11-09,合同会社雅,,合同会社,東京都,江東区,枝川２丁目５－１２プレミストベイフォートスクエア豊洲８０２,,13,108,1350051,,,,,,,2021-11-09,1,,,,,ミヤビ,0
2248,8010801032472,新規,0,2021-11-09,2021-11-09,モカハウス株式会社,,株式会社,東京都,大田区,東雪谷２丁目２８番７号,,13,111,1450065,,,,,,,2021-11-09,1,,,,,モカハウス,0
2268,8011001143804,新規,0,2021-11-09,2021-11-09,株式会社シブテナ,,株式会社,東京都,渋谷区,宇田川町１６番８号,,13,113,1500042,,,,,,,2021-11-09,1,,,,,シブテナ,0
2276,8011403003498,新規,0,2021-11-09,2021-11-09,合同会社Ｓｍｏｏｔｈ　Ｃｒａｆｔ,,合同会社,東京都,板橋区,徳丸４丁目３０番１０－４０１号,,13,119,1750083,,,,,,,2021-11-09,1,,,,,スムースクラフト,0
2287,8012703002347,新規,0,2021-11-09,2021-11-09,ＬＡＩＶＡ合同会社,,合同会社,東京都,小平市,学園東町３丁目２番１７号,,13,211,1870043,,,,,,,2021-11-09,1,,,,,ライバ,0
2301,8020001143788,新規,0,2021-11-09,2021-11-09,平和交通株式会社,,株式会社,神奈川県,横浜市港北区,篠原町１４００番地,,14,109,2220026,,,,,,,2021-11-09,1,,,,,ヘイワコウツウ,0
2302,8020001143805,新規,0,2021-11-09,2021-11-09,丸越株式会社,,株式会社,神奈川県,横浜市南区,大岡１丁目５番１号,,14,105,2320061,,,,,,,2021-11-09,1,,,,,マルコシ,0
2303,8020001143838,新規,0,2021-11-09,2021-11-09,株式会社上滝,,株式会社,神奈川県,横浜市鶴見区,市場西中町６－１０,,14,101,2300023,,,,,,,2021-11-09,1,,,,,ジョウタキ,0
2309,8020003020770,新規,0,2021-11-09,2021-11-09,大森テック合同会社,,合同会社,神奈川県,川崎市川崎区,本町２丁目１０番１４川崎ダイカンプラザＣｉｔｙ２０３,,14,131,2100001,,,,,,,2021-11-09,1,,,,,オオモリテック,0
2310,8020003020787,新規,0,2021-11-09,2021-11-09,合同会社ＴＫコーポレーション,,合同会社,神奈川県,横浜市西区,みなとみらい４丁目４番２号横浜ブルーアベニュー１４階,,14,103,2200012,,,,,,,2021-11-09,1,,,,,ティーケーコーポレーション,0
2311,8020003020795,新規,0,2021-11-09,2021-11-09,合同会社ＫＩＺＵＮＡ,,合同会社,神奈川県,横浜市旭区,中沢３丁目３２番８号,,14,112,2410814,,,,,,,2021-11-09,1,,,,,キズナ,0
2313,8020005015265,新規,0,2021-11-09,2021-11-09,日本軽貨物協同組合,,その他の設立登記法人,神奈川県,横浜市中区,千歳町１番地２横浜ＴＨビル６０７号室,,14,104,2310035,,,,,,,2021-11-09,1,,,,,ニホンケイカモツ,0
2319,8030001145197,新規,0,2021-11-09,2021-11-09,アスター株式会社,,株式会社,埼玉県,ふじみ野市,緑ケ丘１丁目３番６号,,11,245,3560043,,,,,,,2021-11-09,1,,,,,アスター,0
2320,8030001145239,新規,0,2021-11-09,2021-11-09,ＳＧＭアセットマネジメント株式会社,,株式会社,埼玉県,所沢市,東所沢和田１丁目２番１号サンモヤールヤナセ２０５,,11,208,3590023,,,,,,,2021-11-09,1,,,,,エスジーエムアセットマネジメント,0
2321,8030001145247,新規,0,2021-11-09,2021-11-09,大尽ファーム株式会社,,株式会社,埼玉県,鶴ヶ島市,大字三ツ木９１７番地６,,11,241,3502217,,,,,,,2021-11-09,1,,,,,ダイジンファーム,0
2322,8030001145255,新規,0,2021-11-09,2021-11-09,ミルクユナイテッド株式会社,,株式会社,埼玉県,本庄市,日の出３丁目４番１５号,,11,211,3670022,,,,,,,2021-11-09,1,,,,,ミルクユナイテッド,0
2333,8040001120901,新規,0,2021-11-09,2021-11-09,株式会社友寄建機サービス,,株式会社,千葉県,佐倉市,城２０４番地１２６,,12,212,2850815,,,,,,,2021-11-09,1,,,,,トモヨセケンキサービス,0
2334,8040005021419,新規,0,2021-11-09,2021-11-09,一般財団法人石脇奨学財団,00124807,その他の設立登記法人,千葉県,船橋市,前原東５丁目３２番１号,,12,204,2740824,,,,,,,2021-11-09,1,,,,,イシワキショウガクザイダン,0
2344,8060003003854,新規,0,2021-11-09,2021-11-09,アトリエＡＹＡ合同会社,,合同会社,栃木県,小山市,若木町３丁目１１番１５号,,09,208,3230028,,,,,,,2021-11-09,1,,,,,アトリエアヤ,0
2348,8070005009915,新規,0,2021-11-09,2021-11-09,特定非営利活動法人あめんぼ,,その他の設立登記法人,群馬県,桐生市,新宿３丁目６番２５号,,10,203,3760006,,,,,,,2021-11-09,1,,,,,アメンボ,0
2349,8080003002680,新規,0,2021-11-09,2021-11-09,ＮＩＮＯ合同会社,,合同会社,静岡県,静岡市清水区,迎山町７番１号,,22,103,4240913,,,,,,,2021-11-09,1,,,,,ニノ,0
2352,8080101022903,新規,0,2021-11-09,2021-11-09,株式会社ＱｗＡ,,株式会社,静岡県,三島市,徳倉２丁目１２番４１号関野ハイツ３０１,,22,206,4110044,,,,,,,2021-11-09,1,,,,,キュウワ,0
2355,8080103002449,新規,0,2021-11-09,2021-11-09,シモンズ合同会社,,合同会社,静岡県,三島市,萩７２０番地の６,,22,206,4110045,,,,,,,2021-11-09,1,,,,,シモンズ,0
2383,8120001241623,新規,0,2021-11-09,2021-11-09,株式会社Ｕ,,株式会社,大阪府,大阪市西区,九条１丁目１０番７号,,27,106,5500027,,,,,,,2021-11-09,1,,,,,ユウ,0
2384,8120001241730,新規,0,2021-11-09,2021-11-09,株式会社康家興産,,株式会社,大阪府,大阪市生野区,舎利寺２丁目１８番６号,,27,116,5440022,,,,,,,2021-11-09,1,,,,,カンガコウサン,0
2396,8120101064610,新規,0,2021-11-09,2021-11-09,バイオル株式会社,,株式会社,大阪府,堺市北区,金岡町２２７６番地１,,27,146,5918022,,,,,,,2021-11-09,1,,,,,バイオル,0
2419,8130001070501,新規,0,2021-11-09,2021-11-09,株式会社アプトワン,,株式会社,京都府,京都市北区,上賀茂今井河原町１０番地９０,,26,101,6038063,,,,,,,2021-11-09,1,,,,,アプトワン,0
2430,8140003016930,新規,0,2021-11-09,2021-11-09,合同会社ｏｎｅ　ｔｗｏ,,合同会社,兵庫県,淡路市,志筑５８１番地１長尾ビル３０３,,28,226,6562131,,,,,,,2021-11-09,1,,,,,ワントゥー,0
2444,8180001148656,新規,0,2021-11-09,2021-11-09,ＤＥＡＬ株式会社,,株式会社,愛知県,春日井市,南下原町４丁目１５番地３,,23,206,4860841,,,,,,,2021-11-09,1,,,,,ディール,0
2450,8180003023155,新規,0,2021-11-09,2021-11-09,合同会社Ａｋａｓｈｉｃ　Ｒｅｃｏｒｄｓ,,合同会社,愛知県,名古屋市中区,千代田４丁目１５番１４号ＣＳＰ・ＮＡＧＯＹＡ４０１号室,,23,106,4600012,,,,,,,2021-11-09,1,,,,,アカシックレコード,0
2459,8180301035579,新規,0,2021-11-09,2021-11-09,株式会社ｉｓｏｌａｓｉｏｎ,,株式会社,愛知県,豊田市,市木町３丁目１８番地１,,23,211,4710006,,,,,,,2021-11-09,1,,,,,アイソレーション,0
2460,8180301035612,新規,0,2021-11-09,2021-11-09,株式会社深緑,,株式会社,愛知県,豊橋市,前田中町１番地の３,,23,201,4400872,,,,,,,2021-11-09,1,,,,,シンリョク,0
2463,8190001028849,新規,0,2021-11-09,2021-11-09,伊勢志摩活性化プロジェクト株式会社,,株式会社,三重県,伊勢市,楠部町乙１３７番地１,,24,203,5160014,,,,,,,2021-11-09,1,,,,,イセシマカッセイカプロジェクト,0
2473,8230001019075,新規,0,2021-11-09,2021-11-09,株式会社テラボ,,株式会社,富山県,砺波市,三郎丸１番地,,16,208,9391308,,,,,,,2021-11-09,1,,,,,テラボ,0
2479,8250001019247,新規,0,2021-11-09,2021-11-09,Ｋｅｎ＆Ｊａｍｅｓ　Ｒａｃｉｎｇ株式会社,,株式会社,山口県,宇部市,大字東岐波１５１９番地８,,35,202,7550241,,,,,,,2021-11-09,1,,,,,ケンアンドジェームスレーシング,0
2480,8250003002936,新規,0,2021-11-09,2021-11-09,合同会社アス・モア,,合同会社,山口県,宇部市,今村北１丁目６番１２号,,35,202,7550155,,,,,,,2021-11-09,1,,,,,アスモア,0
2493,8290001095318,新規,0,2021-11-09,2021-11-09,株式会社ＫＵＲＵＭＡＹＡ,,株式会社,福岡県,糸島市,志摩馬場４４番地,,40,230,8191305,,,,,,,2021-11-09,1,,,,,クルマヤ,0
2494,8290001095326,新規,0,2021-11-09,2021-11-09,株式会社ＮｉＣＯ塾,,株式会社,福岡県,福岡市南区,大橋１丁目２５番１４号２階,,40,134,8150033,,,,,,,2021-11-09,1,,,,,ニコジュク,0
2501,8290003011801,新規,0,2021-11-09,2021-11-09,合同会社ＡＬＦＲＥＤ,,合同会社,福岡県,糟屋郡志免町,石橋台１０番７号,,40,343,8112203,,,,,,,2021-11-09,1,,,,,アルフレッド,0
2506,8290801027973,新規,0,2021-11-09,2021-11-09,武遊プロセッシング株式会社,,株式会社,福岡県,遠賀郡遠賀町,遠賀川１丁目８番５号,,40,384,8114307,,,,,,,2021-11-09,1,,,,,ブユウプロセッシング,0
2507,8290801027981,新規,0,2021-11-09,2021-11-09,株式会社ＵＮＵＳ,,株式会社,福岡県,北九州市八幡西区,熊手３丁目１－４－１２１５,,40,109,8060028,,,,,,,2021-11-09,1,,,,,ウヌス,0
2511,8320001018720,新規,0,2021-11-09,2021-11-09,藤ビル管理株式会社,,株式会社,大分県,大分市,大字政所３４９５番地３,,44,201,8700268,,,,,,,2021-11-09,1,,,,,フジビルカンリ,0
2512,8330003009122,新規,0,2021-11-09,2021-11-09,合同会社アクア,,合同会社,熊本県,熊本市中央区,水前寺公園７－４３,,43,101,8620956,,,,,,,2021-11-09,1,,,,,アクア,0
2518,8340005009367,新規,0,2021-11-09,2021-11-09,特定非営利活動法人子どもサポートグリーン,,その他の設立登記法人,鹿児島県,鹿児島市,吉野町１１０５５番地６,,46,201,8920871,,,,,,,2021-11-09,1,,,,,コドモサポートグリーン,0
2521,8360001029598,新規,0,2021-11-09,2021-11-09,株式会社ヒロプランニング,,株式会社,沖縄県,沖縄市,住吉１丁目７番３０号（３０２号）,,47,211,9040003,,,,,,,2021-11-09,1,,,,,ヒロプランニング,0
2534,8390002007385,新規,0,2021-11-09,2021-11-09,有限会社酒田マイカーサービス,,有限会社,山形県,酒田市,黒森字鏥３０番地の１,,06,204,9980111,,,,,,,2021-11-09,1,,,,,サカタマイカーサービス,0
2541,8410001013002,新規,0,2021-11-09,2021-11-09,株式会社アゲハランド,,株式会社,秋田県,横手市,平鹿町上吉田字中山２２番地１,,05,203,0130101,,,,,,,2021-11-09,1,,,,,アゲハランド,0
2542,8410001013010,新規,0,2021-11-09,2021-11-09,株式会社下岩川,,株式会社,秋田県,山本郡三種町,下岩川字長面７４番地１,,05,348,0182302,,,,,,,2021-11-09,1,,,,,,0
2570,9010003036164,新規,0,2021-11-09,2021-11-09,めるくまーる合同会社,,合同会社,東京都,文京区,白山５丁目１５番５－１０２号,,13,105,1120001,,,,,,,2021-11-09,1,,,,,メルクマール,0
2571,9010003036180,新規,0,2021-11-09,2021-11-09,ＳＴＢ合同会社,,合同会社,東京都,中央区,銀座１丁目２２番１１号銀座大竹ビジデンス２階,,13,102,1040061,,,,,,,2021-11-09,1,,,,,エスティービー,0
2572,9010003036239,新規,0,2021-11-09,2021-11-09,合同会社Ｉｎｉｔｉｕｍ,,合同会社,東京都,中央区,銀座１丁目１５－７ＭＡＣ銀座ビル３Ｆ,,13,102,1040061,,,,,,,2021-11-09,1,,,,,イニティウム,0
2578,9010401163634,新規,0,2021-11-09,2021-11-09,株式会社東京アメニティ,,株式会社,東京都,港区,元麻布３丁目１１番２号カドル麻布十番１Ｆ,,13,103,1060046,,,,,,,2021-11-09,1,,,,,トウキョウアメニティ,0
2579,9010401163691,新規,0,2021-11-09,2021-11-09,株式会社ラドゥーノ,,株式会社,東京都,港区,南麻布２丁目１５番５号,,13,103,1060047,,,,,,,2021-11-09,1,,,,,ラドゥーノ,0
2593,9010903006927,新規,0,2021-11-09,2021-11-09,合同会社日日,,合同会社,東京都,世田谷区,上用賀１丁目２番１９号ベルビー上用賀２０１,,13,112,1580098,,,,,,,2021-11-09,1,,,,,ニチニチ,0
2596,9011001143836,新規,0,2021-11-09,2021-11-09,株式会社楡,,株式会社,東京都,渋谷区,代々木１丁目４２番２号,,13,113,1510053,,,,,,,2021-11-09,1,,,,,ニレ,0
2600,9011101096851,新規,0,2021-11-09,2021-11-09,株式会社心理的安全性ラボ,,株式会社,東京都,新宿区,市谷本村町２番４－３０４号,,13,104,1620845,,,,,,,2021-11-09,1,,,,,シンリテキアンゼンセイラボ,0
2601,9011201023391,新規,0,2021-11-09,2021-11-09,株式会社ダイナブライト,,株式会社,東京都,中野区,本町４丁目１３番１５号,,13,114,1640012,,,,,,,2021-11-09,1,,,,,ダイナブライト,0
2618,9012803002642,新規,0,2021-11-09,2021-11-09,合同会社千須和会計,,合同会社,東京都,日野市,多摩平６丁目２４番地の５,,13,212,1910062,,,,,,,2021-11-09,1,,,,,センズワカイケイ,0
2630,9020001143787,新規,0,2021-11-09,2021-11-09,平和交通株式会社,,株式会社,神奈川県,横浜市神奈川区,新子安１丁目３５番５号,,14,102,2210013,,,,,,,2021-11-09,1,,,,,ヘイワコウツウ,0
2638,9020003020778,新規,0,2021-11-09,2021-11-09,Ｄｉｇｉｔａｌａｔｅ合同会社,,合同会社,神奈川県,横浜市中区,扇町２丁目５番地１４Ｙ’ｓトレゾワ関内６０２号,,14,104,2310027,,,,,,,2021-11-09,1,,,,,デジタレイト,0
2640,9020005015264,新規,0,2021-11-09,2021-11-09,一般社団法人清水会計社,,その他の設立登記法人,神奈川県,横浜市中区,山下町６１番地１横浜山下ビル３１１,,14,104,2310023,,,,,,,2021-11-09,1,,,,,シミズカイケイシャ,0
2648,9030001145254,新規,0,2021-11-09,2021-11-09,株式会社ファイブジェイ,,株式会社,埼玉県,川口市,上青木西１丁目１８－２１－４０２,,11,203,3330845,,,,,,,2021-11-09,1,,,,,ファイブジェイ,0
2650,9030003018284,新規,0,2021-11-09,2021-11-09,合同会社ＳＢＮ,,合同会社,埼玉県,和光市,新倉１丁目１０番８１号ヴィヴァーチェ１０２,,11,229,3510115,,,,,,,2021-11-09,1,,,,,エスビーエヌ,0
2658,9040001120768,新規,0,2021-11-09,2021-11-09,株式会社Ｌ－Ｆａｉｒｅ,,株式会社,千葉県,船橋市,本町５丁目８番１号小島ビルＡ,,12,204,2730005,,,,,,,2021-11-09,1,,,,,エルフェール,0
2659,9040001120909,新規,0,2021-11-09,2021-11-09,アレルヤ株式会社,,株式会社,千葉県,成田市,囲護台３丁目２番地３川豊西口館ビル４階,,12,211,2860035,,,,,,,2021-11-09,1,,,,,アレルヤ,0
2660,9040001120925,新規,0,2021-11-09,2021-11-09,株式会社Ｙ－ＳＴＹＴＲ,,株式会社,千葉県,船橋市,習志野台２丁目３１番２号,,12,204,2740063,,,,,,,2021-11-09,1,,,,,ワイスタイタル,0
2661,9040001120933,新規,0,2021-11-09,2021-11-09,株式会社印西労務,,株式会社,千葉県,千葉市若葉区,千城台北３丁目１１番４号,,12,104,2640005,,,,,,,2021-11-09,1,,,,,インザイロウム,0
2668,9040003018886,新規,0,2021-11-09,2021-11-09,ＩＳＨＩＨＡＲＡ合同会社,,合同会社,千葉県,松戸市,上本郷２２３２番地の２ライオンズプラザ北松戸９０６号,,12,207,2710064,,,,,,,2021-11-09,1,,,,,イシハラ,0
2669,9040003018903,新規,0,2021-11-09,2021-11-09,合同会社Ｂｌａｎｃｃａｒ,,合同会社,千葉県,千葉市若葉区,小倉町１２８８,,12,104,2640007,,,,,,,2021-11-09,1,,,,,ブランカー,0
2678,9070001038628,新規,0,2021-11-09,2021-11-09,株式会社ＲＡＩ　ＪＡＰＡＮ　ＴＲＡＤＩＮＧ,,株式会社,群馬県,伊勢崎市,平和町１８番１８号,,10,204,3720041,,,,,,,2021-11-09,1,,,,,ライジャパントレーディング,0
2694,9090005007445,新規,0,2021-11-09,2021-11-09,一般社団法人伝統医学応用研究所,,その他の設立登記法人,山梨県,北杜市,大泉町谷戸４３８７番地１,,19,209,4091502,,,,,,,2021-11-09,1,,,,,,0
2706,9120001241746,新規,0,2021-11-09,2021-11-09,百揚株式会社,,株式会社,大阪府,大阪市浪速区,大国３丁目９番６号ハイツヨシノ２０６室,,27,111,5560014,,,,,,,2021-11-09,1,,,,,バイヨウ,0
2707,9120001241754,新規,0,2021-11-09,2021-11-09,ビーオーエージャパン株式会社,,株式会社,大阪府,大阪市此花区,西九条２丁目１番３２－５０８号,,27,104,5540012,,,,,,,2021-11-09,1,,,,,ビーオーエージャパン,0
2711,9120005022589,新規,0,2021-11-09,2021-11-09,一般社団法人いきいきライフ協会大阪守口,,その他の設立登記法人,大阪府,守口市,大日町１丁目２番１１号２０３号,,27,209,5700003,,,,,,,2021-11-09,1,,,,,イキイキライフキョウカイオオサカモリグチ,0
2714,9120101064618,新規,0,2021-11-09,2021-11-09,株式会社寿企画,,株式会社,大阪府,堺市中区,堀上町３番地１５,,27,142,5998261,,,,,,,2021-11-09,1,,,,,コトブキキカク,0
2715,9120101064626,新規,0,2021-11-09,2021-11-09,株式会社佳佳,,株式会社,大阪府,富田林市,甲田２丁目６番９号,,27,214,5840036,,,,,,,2021-11-09,1,,,,,カカ,0
2750,9180001148572,新規,0,2021-11-09,2021-11-09,クラストホーム株式会社,,株式会社,愛知県,一宮市,上祖父江字山浦西１３番地１,,23,203,4940014,,,,,,,2021-11-09,1,,,,,クラストホーム,0
2751,9180001148597,新規,0,2021-11-09,2021-11-09,梅村商建株式会社,,株式会社,愛知県,名古屋市港区,東茶屋１丁目７１６番地,,23,111,4550851,,,,,,,2021-11-09,1,,,,,ウメムラショウケン,0
2752,9180001148663,新規,0,2021-11-09,2021-11-09,株式会社ＲＪ　Ｃｏｍｐａｎｙ,,株式会社,愛知県,名古屋市中区,栄２丁目６番１７号,,23,106,4600008,,,,,,,2021-11-09,1,,,,,アールジェイカンパニー,0
2753,9180001148671,新規,0,2021-11-09,2021-11-09,株式会社エヌシームス,,株式会社,愛知県,名古屋市中川区,東起町３丁目２０番地の１２,,23,110,4540935,,,,,,,2021-11-09,1,,,,,エヌシームス,0
2759,9180005019506,新規,0,2021-11-09,2021-11-09,特定非営利活動法人トライハートなごや,,その他の設立登記法人,愛知県,名古屋市千種区,南明町２丁目８番地の２メゾン・ド・テオリー２０８号,,23,101,4640845,,,,,,,2021-11-09,1,,,,,トライハートナゴヤ,0
2774,9230001019066,新規,0,2021-11-09,2021-11-09,株式会社アドプロコミュニケーションズ,,株式会社,富山県,富山市,婦中町西ヶ丘１番地１７８,,16,201,9392719,,,,,,,2021-11-09,1,,,,,アドプロコミュニケーションズ,0
2778,9240001058897,新規,0,2021-11-09,2021-11-09,株式会社メディツリー,,株式会社,広島県,安芸郡海田町,稲荷町３番３４号,,34,304,7360067,,,,,,,2021-11-09,1,,,,,メディツリー,0
2786,9260001036190,新規,0,2021-11-09,2021-11-09,株式会社テレサ,,株式会社,岡山県,倉敷市,玉島上成１１１番地,,33,202,7138101,,,,,,,2021-11-09,1,,,,,,0
2794,9290001095300,新規,0,2021-11-09,2021-11-09,ＵＤＸ株式会社,,株式会社,福岡県,福岡市中央区,舞鶴２丁目２番６号,,40,133,8100073,,,,,,,2021-11-09,1,,,,,ユーディーエックス,0
2795,9290001095309,新規,0,2021-11-09,2021-11-09,Ｔ‐ＢＩＯＴＥＣＨ株式会社,,株式会社,福岡県,福岡市中央区,天神１丁目２番１２号,,40,133,8100001,,,,,,,2021-11-09,1,,,,,ティーバイオテック,0
2797,9290801027972,新規,0,2021-11-09,2021-11-09,株式会社あさひ,,株式会社,福岡県,北九州市小倉南区,曽根新田北３丁目６番８号,,40,107,8000219,,,,,,,2021-11-09,1,,,,,アサヒ,0
2803,9340001024245,新規,0,2021-11-09,2021-11-09,ジョイント警備株式会社,,株式会社,鹿児島県,霧島市,隼人町真孝２６８１番地３,,46,218,8995102,,,,,,,2021-11-09,1,,,,,ジョイントケイビ,0
2804,9340003003619,新規,0,2021-11-09,2021-11-09,合同会社きさぬき,,合同会社,鹿児島県,鹿屋市,札元２丁目３８００番地３,,46,203,8930013,,,,,,,2021-11-09,1,,,,,キサヌキ,0
2807,9380001032327,新規,0,2021-11-09,2021-11-09,株式会社東都,,株式会社,福島県,田村市,船引町船引字山ノ内９７番地,,07,211,9634312,,,,,,,2021-11-09,1,,,,,トウト,0
2826,9470001018812,新規,0,2021-11-09,2021-11-09,三観サービス株式会社,,株式会社,香川県,三豊市,三野町下高瀬１６７８番地８,,37,208,7670032,,,,,,,2021-11-09,1,,,,,サンカンサービス,0
