sequenceNumber,corporateNumber,process,correct,updateDate,changeDate,name,nameImageId,kind,prefectureName,cityName,streetNumber,addressImageId,prefectureCode,cityCode,postCode,addressOutside,addressOutsideImageId,closeDate,closeCause,successorCorporateNumber,changeCause,assignmentDate,latest,enName,enPrefectureName,enCityName,enAddressOutside,furigana,hihyoji
10,1010001227292,新規,0,2022-06-14,2022-06-14,ＢＲＯＭＰＴＯＮ　ＪＡＰＡＮ株式会社,,株式会社,東京都,千代田区,霞が関３丁目２番６号東京倶楽部ビルディング１１階,,13,101,1000013,,,,,,,2022-06-14,1,,,,,ブロンプトンジャパン,0
11,1010001227334,新規,0,2022-06-14,2022-06-14,株式会社Ｍｅｄｉｃａｌ　ＡＰＩ,,株式会社,東京都,文京区,本郷３丁目３７番１５号プロムナード深瀬３階,,13,105,1130033,,,,,,,2022-06-14,1,,,,,メディカルエーピーアイ,0
12,1010001227375,新規,0,2022-06-14,2022-06-14,ＨＭＰ株式会社,,株式会社,東京都,中央区,銀座１丁目２２番１１号銀座大竹ビジデンス２階,,13,102,1040061,,,,,,,2022-06-14,1,,,,,エイチエムピー,0
13,1010001227383,新規,0,2022-06-14,2022-06-14,株式会社Ａｓｈｉ　Ｔｅｒｍｉｎａｌ,,株式会社,東京都,千代田区,神田猿楽町２丁目８番１１号ＶＯＲＴ水道橋ＩＩＩ９階,00126862,13,101,1010064,,,,,,,2022-06-14,1,,,,,アシターミナル,0
15,1010003037871,新規,0,2022-06-14,2022-06-14,日本未来合同会社,,合同会社,東京都,中央区,新富２丁目４番５号ニュー新富ビル１Ｆ,,13,102,1040041,,,,,,,2022-06-14,1,,,,,ニホンミライ,0
21,1010401167907,新規,0,2022-06-14,2022-06-14,ブルーモ・インベストメント株式会社,,株式会社,東京都,港区,東麻布３丁目５番１５号,,13,103,1060044,,,,,,,2022-06-14,1,,,,,ブルーモインベストメント,0
27,1010703006275,新規,0,2022-06-14,2022-06-14,合同会社斉藤会計事務所,,合同会社,東京都,品川区,旗の台６丁目３番４号,,13,109,1420064,,,,,,,2022-06-14,1,,,,,サイトウカイケイジムショ,0
34,1010903007453,新規,0,2022-06-14,2022-06-14,湯気合同会社,,合同会社,東京都,世田谷区,下馬５丁目３４番２６－１０２号,,13,112,1540002,,,,,,,2022-06-14,1,,,,,ユゲ,0
44,1011001148017,新規,0,2022-06-14,2022-06-14,株式会社ＨＩＰＰＳ　ＬＡＢＯＲＡＴＯＲＩＥＳ,,株式会社,東京都,渋谷区,道玄坂１丁目１０番８号渋谷道玄坂東急ビル２Ｆ－Ｃ,,13,113,1500043,,,,,,,2022-06-14,1,,,,,ヒップスラボラトリーズ,0
45,1011001148033,新規,0,2022-06-14,2022-06-14,株式会社ｄｅｓｉｇｎＦｒｅａｋ,,株式会社,東京都,目黒区,祐天寺２丁目２０－１２ＭｕｒｏＹｕｔｅｎｊｉ３０２Ｆ,,13,110,1530052,,,,,,,2022-06-14,1,,,,,デザインフリーク,0
46,1011001148041,新規,0,2022-06-14,2022-06-14,株式会社一丁目一番地,,株式会社,東京都,渋谷区,渋谷２丁目１９－１５宮益坂ビルディング６０９,,13,113,1500002,,,,,,,2022-06-14,1,,,,,イッチョウメイチバンチ,0
47,1011001148058,新規,0,2022-06-14,2022-06-14,株式会社ＪＡＭ,,株式会社,東京都,渋谷区,広尾１丁目３－１２－３０２,,13,113,1500012,,,,,,,2022-06-14,1,,,,,ジャム,0
48,1011005009611,新規,0,2022-06-14,2022-06-14,一般社団法人予防医学トレーナー協会,,その他の設立登記法人,東京都,渋谷区,恵比寿西１丁目３０番１号シーズ代官山１Ｆ,,13,113,1500021,,,,,,,2022-06-14,1,,,,,ヨボウイガクトレーナーキョウカイ,0
52,1011101099176,新規,0,2022-06-14,2022-06-14,株式会社ＲＡＦＦＩＮＥ,,株式会社,東京都,新宿区,大久保１丁目２－１９－１１０１,,13,104,1690072,,,,,,,2022-06-14,1,,,,,ラフィーネ,0
53,1011101099218,新規,0,2022-06-14,2022-06-14,株式会社ＣＲＥＢＩＡ,,株式会社,東京都,新宿区,新宿２丁目８番１－７１０号,,13,104,1600022,,,,,,,2022-06-14,1,,,,,クレビア,0
54,1011103011840,新規,0,2022-06-14,2022-06-14,合同会社Ｓ・Ｂ　ＣＯＭＰＡＮＹ,,合同会社,東京都,新宿区,歌舞伎町２丁目４５番２カイダ第３ジャストビル,,13,104,1600021,,,,,,,2022-06-14,1,,,,,エスビーカンパニー,0
56,1011203003829,新規,0,2022-06-14,2022-06-14,合同会社テラセル,,合同会社,東京都,中野区,東中野５丁目９－１シャローム東中野５０８号,,13,114,1640003,,,,,,,2022-06-14,1,,,,,テラセル,0
58,1011303004438,新規,0,2022-06-14,2022-06-14,デザインワークス合同会社,,合同会社,東京都,杉並区,和泉３丁目６１－３７グランセッテＩ１０１,00126867,13,115,1680063,,,,,,,2022-06-14,1,,,,,デザインワークス,0
62,1011401024321,新規,0,2022-06-14,2022-06-14,東京万葉オークション株式会社,,株式会社,東京都,板橋区,坂下１丁目２８番２号,,13,119,1740043,,,,,,,2022-06-14,1,,,,,トウキョウマンヨウオークション,0
63,1011503005186,新規,0,2022-06-14,2022-06-14,容通合同会社,,合同会社,東京都,北区,浮間１丁目１－１４リムジンビル３１２,,13,117,1150051,,,,,,,2022-06-14,1,,,,,ヨウツウ,0
64,1011601026035,新規,0,2022-06-14,2022-06-14,株式会社ＴＭＣ,,株式会社,東京都,練馬区,平和台１丁目２５番１１－２０３号,,13,120,1790083,,,,,,,2022-06-14,1,,,,,ティーエムシー,0
66,1011603003619,新規,0,2022-06-14,2022-06-14,合同会社オキショウ,,合同会社,東京都,練馬区,東大泉６丁目８－３５,,13,120,1780063,,,,,,,2022-06-14,1,,,,,オキショウ,0
71,1011703003163,新規,0,2022-06-14,2022-06-14,合同会社ＮＥＸＴ　ＶＥＲＳＥ,,合同会社,東京都,江戸川区,西葛西３丁目２２番１０－４０４号室,,13,123,1340088,,,,,,,2022-06-14,1,,,,,ネクストバース,0
72,1011801040843,新規,0,2022-06-14,2022-06-14,株式会社康美,,株式会社,東京都,足立区,梅田１丁目２２番５号鈴木マンション２０３,,13,121,1230851,,,,,,,2022-06-14,1,,,,,コウビ,0
73,1011801040851,新規,0,2022-06-14,2022-06-14,株式会社Ｗｉｓｅ,,株式会社,東京都,足立区,西竹の塚２丁目１３番４号２１０,,13,121,1210822,,,,,,,2022-06-14,1,,,,,ワイズ,0
75,1012401039301,新規,0,2022-06-14,2022-06-14,株式会社リルーラ,,株式会社,東京都,府中市,白糸台４丁目３５番地の１５,,13,206,1830011,,,,,,,2022-06-14,1,,,,,リルーラ,0
77,1012701017106,新規,0,2022-06-14,2022-06-14,エフウェーエストランスポート株式会社,,株式会社,東京都,清瀬市,下宿１丁目１２２番地,,13,221,2040001,,,,,,,2022-06-14,1,,,,,エフウェーエストランスポート,0
79,1012803002807,新規,0,2022-06-14,2022-06-14,ヨシダ合同会社,,合同会社,東京都,昭島市,上川原町２丁目１０－１５－１０２,,13,207,1960011,,,,,,,2022-06-14,1,,,,,ヨシダ,0
83,1020001146863,新規,0,2022-06-14,2022-06-14,株式会社優配商事,,株式会社,神奈川県,横浜市鶴見区,東寺尾中台１８番１５－２号,,14,101,2300017,,,,,,,2022-06-14,1,,,,,ユウハイ,0
88,1021001076209,新規,0,2022-06-14,2022-06-14,ファストレフ株式会社,,株式会社,神奈川県,大和市,西鶴間１丁目１０番１３号,,14,213,2420005,,,,,,,2022-06-14,1,,,,,ファストレフ,0
89,1021001076217,新規,0,2022-06-14,2022-06-14,株式会社ＳＯＮＲＩＳＡ,,株式会社,神奈川県,相模原市南区,松が枝町２３番地１コスモ相模原２Ｆ,,14,153,2520313,,,,,,,2022-06-14,1,,,,,ソンリサ,0
93,1021003011816,新規,0,2022-06-14,2022-06-14,合同会社Ｌｉｂｅｒｔｅ,,合同会社,神奈川県,綾瀬市,大上１丁目８番２５号,,14,218,2521104,,,,,,,2022-06-14,1,,,,,リベルテ,0
94,1021003011824,新規,0,2022-06-14,2022-06-14,合同会社ＪＥＳ,,合同会社,神奈川県,横須賀市,大矢部４丁目３０番２２号,,14,201,2380024,,,,,,,2022-06-14,1,,,,,ジェイイーエス,0
103,1030001148578,新規,0,2022-06-14,2022-06-14,株式会社アール・オー,,株式会社,埼玉県,狭山市,富士見１丁目３番１１号,,11,215,3501306,,,,,,,2022-06-14,1,,,,,アールオー,0
104,1030001148636,新規,0,2022-06-14,2022-06-14,株式会社ＪＩＮ不動産,,株式会社,埼玉県,さいたま市中央区,新中里２丁目１２番９号,,11,105,3380011,,,,,,,2022-06-14,1,,,,,ジンフドウサン,0
105,1030001148644,新規,0,2022-06-14,2022-06-14,株式会社我が,,株式会社,埼玉県,戸田市,下前２丁目１－５－４１９,,11,224,3350016,,,,,,,2022-06-14,1,,,,,ワガ,0
106,1030001148660,新規,0,2022-06-14,2022-06-14,礒建材工業株式会社,,株式会社,埼玉県,鴻巣市,北新宿１２１５番地,,11,217,3690116,,,,,,,2022-06-14,1,,,,,イソケンザイコウギョウ,0
107,1030001148677,新規,0,2022-06-14,2022-06-14,海通株式会社,,株式会社,埼玉県,川口市,中青木１丁目８番２－２０６号コアクレスト川口,,11,203,3320032,,,,,,,2022-06-14,1,,,,,カイツウ,0
111,1030003019587,新規,0,2022-06-14,2022-06-14,合同会社Ｓｐｉｃａ,,合同会社,埼玉県,熊谷市,久保島２１８６,,11,202,3600831,,,,,,,2022-06-14,1,,,,,スピカ,0
113,1040001123860,新規,0,2022-06-14,2022-06-14,東仁株式会社,,株式会社,千葉県,千葉市中央区,若草１丁目１６番１号マリンラグーン２０７号,,12,101,2600821,,,,,,,2022-06-14,1,,,,,トウジン,0
119,1060001034981,新規,0,2022-06-14,2022-06-14,Ｒａｐｈａｅｌ設計株式会社,,株式会社,栃木県,宇都宮市,中戸祭町２８９９番地５,,09,201,3200052,,,,,,,2022-06-14,1,,,,,ラファエルセッケイ,0
122,1080001025021,新規,0,2022-06-14,2022-06-14,株式会社ｌｉｖｏｔｉｏｎ,,株式会社,静岡県,静岡市駿河区,高松２４０３杉山戸建ｃ号室,,22,102,4228034,,,,,,,2022-06-14,1,,,,,リヴォーション,0
123,1080101023354,新規,0,2022-06-14,2022-06-14,株式会社岩本塗装,,株式会社,静岡県,田方郡函南町,平井３２番地の１１,,22,325,4190107,,,,,,,2022-06-14,1,,,,,イワモトトソウ,0
125,1080401025876,新規,0,2022-06-14,2022-06-14,株式会社大場電気工業所,,株式会社,静岡県,浜松市南区,若林町１３３９番地の１,,22,134,4328051,,,,,,,2022-06-14,1,,,,,オオバデンキコウギョウショ,0
126,1080401025884,新規,0,2022-06-14,2022-06-14,株式会社オーディング,,株式会社,静岡県,浜松市浜北区,中瀬７１３６番地の４２,,22,136,4340012,,,,,,,2022-06-14,1,,,,,オーディング,0
128,1100001035439,新規,0,2022-06-14,2022-06-14,株式会社ａｔｅｌｉｅｒ　ｎｅｎｎｅｎ,,株式会社,長野県,諏訪郡富士見町,境１１１８４番地,,20,362,3990101,,,,,,,2022-06-14,1,,,,,アトリエネネン,0
147,1120001246595,新規,0,2022-06-14,2022-06-14,株式会社ｘｒｉｕｍ,,株式会社,大阪府,大阪市鶴見区,緑１丁目１５－２６,,27,124,5380054,,,,,,,2022-06-14,1,,,,,キーリウム,0
148,1120001246604,新規,0,2022-06-14,2022-06-14,株式会社ＴＥＡＭ３Ｋ　ＯＳＡＫＡ,,株式会社,大阪府,大阪市中央区,南船場４丁目６－１１新東和ビル地下１階,,27,128,5420081,,,,,,,2022-06-14,1,,,,,チームスリーケーオーサカ,0
149,1120001246637,新規,0,2022-06-14,2022-06-14,株式会社ＳＶ,,株式会社,大阪府,大阪市中央区,東心斎橋２丁目２番１２号,,27,128,5420083,,,,,,,2022-06-14,1,,,,,エスブイ,0
150,1120001246645,新規,0,2022-06-14,2022-06-14,株式会社ＭＫＰ,,株式会社,大阪府,大阪市北区,梅田１丁目１－３大阪駅前第３ビル２９階１－１－１号室,,27,127,5300001,,,,,,,2022-06-14,1,,,,,エムケーピー,0
151,1120001246653,新規,0,2022-06-14,2022-06-14,グローワン経営株式会社,,株式会社,大阪府,大阪市福島区,鷺洲５丁目１２番２－５３６号,,27,103,5530002,,,,,,,2022-06-14,1,,,,,グローワンケイエイ,0
152,1120001246703,新規,0,2022-06-14,2022-06-14,ＳＡＮＳＡＮ株式会社,,株式会社,大阪府,大阪市城東区,天王田１４番２３号,,27,118,5360012,,,,,,,2022-06-14,1,,,,,サンサン,0
153,1120003021872,新規,0,2022-06-14,2022-06-14,合同会社ＹＴＫパートナーズ,,合同会社,大阪府,大阪市阿倍野区,播磨町１丁目２４番２２－６０３号,,27,119,5450022,,,,,,,2022-06-14,1,,,,,ワイティーケーパートナーズ,0
154,1120003021889,新規,0,2022-06-14,2022-06-14,合同会社ＡＷＯＮＥＬ,,合同会社,大阪府,大阪市住之江区,粉浜２丁目３－２６,,27,125,5590001,,,,,,,2022-06-14,1,,,,,アヲネル,0
155,1120003021897,新規,0,2022-06-14,2022-06-14,合同会社ＳＲ,,合同会社,大阪府,大阪市生野区,勝山北２丁目５番２８号,,27,116,5440033,,,,,,,2022-06-14,1,,,,,エスアール,0
161,1120005022992,新規,0,2022-06-14,2022-06-14,一般社団法人大阪コリアタウン歴史資料館,,その他の設立登記法人,大阪府,大阪市生野区,桃谷４丁目４番１１号,,27,116,5440034,,,,,,,2022-06-14,1,,,,,オオサカコリアタウンレキシシリョウカン,0
162,1120101065747,新規,0,2022-06-14,2022-06-14,Ａｒｃｈｉホールディングス株式会社,,株式会社,大阪府,河内長野市,千代田南町３番９号,,27,216,5860018,,,,,,,2022-06-14,1,,,,,アーキホールディングス,0
165,1120901046104,新規,0,2022-06-14,2022-06-14,株式会社アルファテック,,株式会社,大阪府,豊中市,上津島３丁目８番２５－２０６号,,27,203,5610843,,,,,,,2022-06-14,1,,,,,アルファテック,0
166,1120901046112,新規,0,2022-06-14,2022-06-14,株式会社Ａ．Ａ　ａｓｓｅｔ　ｍａｎａｇｅｍｅｎｔ,,株式会社,大阪府,茨木市,舟木町９番２６－９０３号,,27,211,5670828,,,,,,,2022-06-14,1,,,,,エイエイアセットマネジメント,0
168,1120903004183,新規,0,2022-06-14,2022-06-14,ヨコイサービス合同会社,,合同会社,大阪府,箕面市,船場西１丁目７番１８号ルネ桜楓館千里中央１３０２号室,,27,220,5620036,,,,,,,2022-06-14,1,,,,,ヨコイサービス,0
169,1120903004191,新規,0,2022-06-14,2022-06-14,合同会社ビシャもん,,合同会社,大阪府,箕面市,稲１丁目３－５－３０９,,27,220,5620015,,,,,,,2022-06-14,1,,,,,ビシャモン,0
178,1130001071943,新規,0,2022-06-14,2022-06-14,株式会社アイシン工機,,株式会社,京都府,綴喜郡宇治田原町,大字禅定寺小字案内９２番地,,26,344,6100201,,,,,,,2022-06-14,1,,,,,アイシンコウキ,0
183,1130003007978,新規,0,2022-06-14,2022-06-14,合同会社ＯＨＡＳＨＩ,,合同会社,京都府,京都市中京区,御池大東町５９５番地美幸ビル６階,,26,104,6040000,,,,,,,2022-06-14,1,,,,,オハシ,0
185,1140001126325,新規,0,2022-06-14,2022-06-14,株式会社ラフラン,,株式会社,兵庫県,姫路市,西八代町１３番８号,,28,201,6700876,,,,,,,2022-06-14,1,,,,,ラフラン,0
212,1180001151740,新規,0,2022-06-14,2022-06-14,せんだ株式会社,,株式会社,愛知県,名古屋市天白区,土原１丁目３３６番地,,23,116,4680026,,,,,,,2022-06-14,1,,,,,センダ,0
213,1180001151749,新規,0,2022-06-14,2022-06-14,株式会社藤聖,,株式会社,愛知県,名古屋市天白区,池見２丁目１６８－２フィオーレＪ２０２号,,23,116,4680067,,,,,,,2022-06-14,1,,,,,トウセイ,0
214,1180001151757,新規,0,2022-06-14,2022-06-14,株式会社ＴＯＧＥＴＨＥＲ,,株式会社,愛知県,名古屋市中区,新栄１丁目３番２号エムテック東新町ビル４Ｂ,,23,106,4600007,,,,,,,2022-06-14,1,,,,,トゥゲザー,0
215,1180001151765,新規,0,2022-06-14,2022-06-14,株式会社花草設備,,株式会社,愛知県,西春日井郡豊山町,大字豊場字伊勢山１８番地３,,23,342,4800202,,,,,,,2022-06-14,1,,,,,ハナクサセツビ,0
220,1180303005355,新規,0,2022-06-14,2022-06-14,合同会社よりたでんき,,合同会社,愛知県,豊田市,新町２丁目２１－１７,,23,211,4710044,,,,,,,2022-06-14,1,,,,,ヨリタデンキ,0
221,1190001029507,新規,0,2022-06-14,2022-06-14,株式会社ＥＸＤＯＯＲ,,株式会社,三重県,四日市市,京町１０番８－２号,,24,202,5100032,,,,,,,2022-06-14,1,,,,,エクスドア,0
223,1200001040156,新規,0,2022-06-14,2022-06-14,株式会社Ｋホールディングス,,株式会社,岐阜県,多治見市,小名田町西ケ洞１番地６４７,,21,204,5070007,,,,,,,2022-06-14,1,,,,,ケーホールディングス,0
224,1200001040180,新規,0,2022-06-14,2022-06-14,株式会社ＣｈｕＲａ,,株式会社,岐阜県,羽島郡岐南町,徳田３丁目１０６番地の３,,21,302,5016016,,,,,,,2022-06-14,1,,,,,チュラ,0
225,1200003005586,新規,0,2022-06-14,2022-06-14,うっきーファーム合同会社,,合同会社,岐阜県,安八郡神戸町,大字南方４２７－１,,21,381,5032328,,,,,,,2022-06-14,1,,,,,ウッキーファーム,0
233,1220001024909,新規,0,2022-06-14,2022-06-14,株式会社吉村通信,,株式会社,石川県,白山市,北安田西２丁目１１９番地,,17,210,9240039,,,,,,,2022-06-14,1,,,,,ヨシムラツウシン,0
234,1220003003299,新規,0,2022-06-14,2022-06-14,合同会社あうりおん,,合同会社,石川県,野々市市,本町２丁目１番２０号コワーキング１の１ＮＯＮＯＩＣＨＩ倶楽部３号,,17,212,9218815,,,,,,,2022-06-14,1,,,,,アウリオン,0
239,1240003005665,新規,0,2022-06-14,2022-06-14,広平設備合同会社,,合同会社,広島県,尾道市,向東町３２９６番地の２,,34,205,7220062,,,,,,,2022-06-14,1,,,,,コウヘイセツビ,0
243,1260001036925,新規,0,2022-06-14,2022-06-14,株式会社寿サポート,,株式会社,岡山県,倉敷市,児島小川４丁目８番６１４号,,33,202,7110911,,,,,,,2022-06-14,1,,,,,コトブキサポート,0
248,1290001097741,新規,0,2022-06-14,2022-06-14,株式会社ｍｉｙａｋｅｎ,,株式会社,福岡県,糟屋郡須惠町,大字須惠８３５番地５－５０７,,40,344,8112113,,,,,,,2022-06-14,1,,,,,ミヤケン,0
249,1290003012582,新規,0,2022-06-14,2022-06-14,ＰＬＥ合同会社,,合同会社,福岡県,福岡市中央区,平尾浄水町９番１０－１０４号,,40,133,8100029,,,,,,,2022-06-14,1,,,,,プル,0
254,1290801028623,新規,0,2022-06-14,2022-06-14,株式会社Ｒｅ‐ｓｅｔ,,株式会社,福岡県,中間市,上蓮花寺１丁目２番１号,,40,215,8090013,,,,,,,2022-06-14,1,,,,,リセット,0
255,1290801028631,新規,0,2022-06-14,2022-06-14,株式会社ＹＯＲＩＫＩ,,株式会社,福岡県,北九州市小倉南区,東貫３丁目１２番２７号,,40,107,8000224,,,,,,,2022-06-14,1,,,,,ヨリキ,0
257,1290803004143,新規,0,2022-06-14,2022-06-14,さくら塗装合同会社,,合同会社,福岡県,北九州市門司区,上馬寄２丁目１－２８大里フェアリーけやき坂２０７,,40,101,8000042,,,,,,,2022-06-14,1,,,,,サクラトソウ,0
262,1310003004387,新規,0,2022-06-14,2022-06-14,合同会社としまる水産,,合同会社,長崎県,五島市,三井楽町濱ノ畔２１１９番地１,,42,211,8530601,,,,,,,2022-06-14,1,,,,,トシマルスイサン,0
264,1320001019139,新規,0,2022-06-14,2022-06-14,株式会社Ｙｏｕ　Ｃｏｎｎｅｃｔ　Ｐａｒｔｎｅｒｓ,,株式会社,大分県,大分市,坂ノ市南３丁目９番３０号,,44,201,8700308,,,,,,,2022-06-14,1,,,,,ユウコネクトパートナーズ,0
267,1340001024814,新規,0,2022-06-14,2022-06-14,株式会社スタジオワザハナ,,株式会社,鹿児島県,熊毛郡屋久島町,宮之浦２４６７番地７５,,46,505,8914205,,,,,,,2022-06-14,1,,,,,スタジオワザハナ,0
274,1360001030496,新規,0,2022-06-14,2022-06-14,株式会社コルク,,株式会社,沖縄県,名護市,字為又２８３番地２,,47,209,9050005,,,,,,,2022-06-14,1,,,,,コルク,0
275,1360001030546,新規,0,2022-06-14,2022-06-14,株式会社奥原,,株式会社,沖縄県,那覇市,泉崎１丁目１７番２０号１階,,47,201,9000021,,,,,,,2022-06-14,1,,,,,オクハラ,0
281,1370001048661,新規,0,2022-06-14,2022-06-14,スイッチ株式会社,,株式会社,宮城県,仙台市青葉区,中央２丁目６番２２号,,04,101,9800021,,,,,,,2022-06-14,1,,,,,スイッチ,0
282,1370001048678,新規,0,2022-06-14,2022-06-14,株式会社リファークリエイト,,株式会社,宮城県,仙台市太白区,恵和町１７番１５号,,04,104,9820823,,,,,,,2022-06-14,1,,,,,リファークリエイト,0
283,1370003005735,新規,0,2022-06-14,2022-06-14,研学の杜合同会社,,合同会社,宮城県,仙台市青葉区,本町１丁目５－２８カーニープレイス仙台駅前通６０３,,04,101,9800014,,,,,,,2022-06-14,1,,,,,ケンガクノモリ,0
286,1370005010493,新規,0,2022-06-14,2022-06-14,医療法人黎明会,,その他の設立登記法人,宮城県,仙台市若林区,木ノ下３丁目１６番２１号薬師堂ＡＴＴＲＡ２階,,04,103,9840047,,,,,,,2022-06-14,1,,,,,レイメイカイ,0
296,1400001015914,新規,0,2022-06-14,2022-06-14,株式会社西和賀土地建物,,株式会社,岩手県,和賀郡西和賀町,上野々３９地割１０４－１,,03,366,0295511,,,,,,,2022-06-14,1,,,,,ニシワガトチタテモノ,0
308,1500001024277,新規,0,2022-06-14,2022-06-14,株式会社ｎｏｔｅ,,株式会社,愛媛県,伊予郡松前町,大字北黒田６２３番地１０,,38,401,7913102,,,,,,,2022-06-14,1,,,,,,0
311,1700150109585,新規,0,2022-06-14,2022-06-14,Ｔｏｋｙｏ　Ｌａｎｋａ,,外国会社等,千葉県,旭市,鏑木１３４４,,12,215,2890511,スリランカ民主社会主義共和国、カルタラ、カラムラ、マワタ、グナティラカ、アートゥル,,,,,,2022-06-14,1,,,,,トウキヨウランカ,0
312,1700150109593,新規,0,2022-06-14,2022-06-14,Ｓｅｖｅｎ　Ｍａｙｐｒｏ　Ｐｖｔ　Ｌｔｄ,,外国会社等,神奈川県,厚木市,下依知３丁目３０番２１Ａ－１０３,,14,212,2430806,スリランカ民主社会主義共和国、キャンディ、アクラナ、ブルゴハテンナ、ウダウェリケティヤ、１１６－Ａ,,,,,,2022-06-14,1,,,,,セブンメイプロプライベートリミテツド,0
313,1700150109643,新規,0,2022-06-14,2022-06-14,ＦＡＲＨＡ　ＡＵＴＯ　ＬＩＮＥ　ＰＶＴ　ＬＴＤ,,外国会社等,千葉県,山武市,麻生新田１５４－５８－Ａ,,12,237,2891203,スリランカ民主社会主義共和国、ノチチヤガマ、カンドゥウェワ、マワサ、スクール、Ｎｏ．６６,,,,,,2022-06-14,1,,,,,フアーハオートラインピーヴイテイエルテイデイ,0
314,1700150109692,新規,0,2022-06-14,2022-06-14,第二市ヶ谷マンション敷地売却組合,,その他,東京都,新宿区,市谷田町２丁目３２番,,13,104,1620843,,,,,,,2022-06-14,1,,,,,ダイニイチガヤマンシヨンシキチバイキヤククミアイ,0
326,2010001227325,新規,0,2022-06-14,2022-06-14,メゾン・プリムローズ株式会社,,株式会社,東京都,文京区,千駄木５丁目５０番４号,,13,105,1130022,,,,,,,2022-06-14,1,,,,,,0
327,2010001227333,新規,0,2022-06-14,2022-06-14,株式会社ＨｉＭＥＸ　Ｍａｎａｇｅｍｅｎｔ　Ｃｏｎｓｕｌｔｉｎｇ,,株式会社,東京都,千代田区,神田小川町１丁目８番３号小川町北ビル３Ｆ,,13,101,1010052,,,,,,,2022-06-14,1,,,,,ハイメックスマネジメントコンサルテイング,0
328,2010001227341,新規,0,2022-06-14,2022-06-14,株式会社ＭＡＢＩＬＩＡ,,株式会社,東京都,中央区,銀座１丁目２２番１１号銀座大竹ビジデンス２階,,13,102,1040061,,,,,,,2022-06-14,1,,,,,マビリア,0
329,2010001227358,新規,0,2022-06-14,2022-06-14,ＳＥＮライフエスコート株式会社,,株式会社,東京都,千代田区,大手町１丁目３番２号経団連会館１３階,,13,101,1000004,,,,,,,2022-06-14,1,,,,,センライフエスコート,0
330,2010001227408,新規,0,2022-06-14,2022-06-14,株式会社ＪＵＮＫＳＴＯＲＹ,,株式会社,東京都,文京区,本郷５丁目１番１１号ＫＩＩＨＯＵＳＥ２０２,,13,105,1130033,,,,,,,2022-06-14,1,,,,,ジャンクストーリー,0
332,2010003037879,新規,0,2022-06-14,2022-06-14,エスアトコス合同会社,,合同会社,東京都,中央区,銀座１丁目２２番１１号銀座大竹ビジデンス２階,,13,102,1040061,,,,,,,2022-06-14,1,,,,,エスアトコス,0
334,2010101015217,新規,0,2022-06-14,2022-06-14,株式会社ＮＩＮＥ　ＷＯＲＫＳ,,株式会社,東京都,八王子市,川口町１４６９番地,,13,201,1930801,,,,,,,2022-06-14,1,,,,,ナインワークス,0
337,2010401167872,新規,0,2022-06-14,2022-06-14,株式会社Ｐｏｉｎｔ６４,,株式会社,東京都,港区,浜松町２丁目２番１５号浜松町ダイヤビル２Ｆ,,13,103,1050013,,,,,,,2022-06-14,1,,,,,ポイントシックスティーフォー,0
338,2010401167906,新規,0,2022-06-14,2022-06-14,総合福祉計画株式会社,,株式会社,東京都,港区,三田４丁目１８番２０,,13,103,1080073,,,,,,,2022-06-14,1,,,,,ソウゴウフクシケイカク,0
340,2010403027868,新規,0,2022-06-14,2022-06-14,Ｃｏｂａｌｔ　Ｅｓｔｅｌ合同会社,,合同会社,東京都,港区,西新橋１丁目５－１０新橋アマノビル５階,,13,103,1050003,,,,,,,2022-06-14,1,,,,,コバルトエステル,0
341,2010403027901,新規,0,2022-06-14,2022-06-14,合同会社Ｓａｋｕｒａ１,,合同会社,東京都,港区,赤坂２丁目１０番５号税理士法人赤坂国際会計事務所内,,13,103,1070052,,,,,,,2022-06-14,1,,,,,サクラワン,0
342,2010501048972,新規,0,2022-06-14,2022-06-14,株式会社バトンコネクト,,株式会社,東京都,台東区,上野３丁目１６番２号,,13,106,1100005,,,,,,,2022-06-14,1,,,,,バトンコネクト,0
354,2010801033039,新規,0,2022-06-14,2022-06-14,株式会社結,,株式会社,東京都,大田区,東蒲田１丁目１番２１号パルムハウス梅屋敷７０２,,13,111,1440031,,,,,,,2022-06-14,1,,,,,ユイ,0
356,2010901051031,新規,0,2022-06-14,2022-06-14,株式会社ゼロアン,,株式会社,東京都,世田谷区,桜丘５丁目２８番６号シャーメゾン・セレッソ２０６,,13,112,1560054,,,,,,,2022-06-14,1,,,,,ゼロアン,0
357,2010903007444,新規,0,2022-06-14,2022-06-14,合同会社ｓ．ａ．ｃ．,,合同会社,東京都,世田谷区,粕谷２丁目１番１０号,,13,112,1570063,,,,,,,2022-06-14,1,,,,,エスエイシイ,0
364,2011001148032,新規,0,2022-06-14,2022-06-14,ＳＨＥＩＮ　ＪＡＰＡＮ株式会社,,株式会社,東京都,渋谷区,広尾５丁目４－１６,,13,113,1500012,,,,,,,2022-06-14,1,,,,,シェインジャパン,0
365,2011001148057,新規,0,2022-06-14,2022-06-14,株式会社１１５,,株式会社,東京都,渋谷区,富ヶ谷１丁目１９番３号山英ビル２０１,,13,113,1510063,,,,,,,2022-06-14,1,,,,,イチイチゴ,0
369,2011005009602,新規,0,2022-06-14,2022-06-14,一般社団法人ＲＯＣＡ,,その他の設立登記法人,東京都,渋谷区,渋谷２丁目１０番６号税理士法人エスミックパートナーズ内,,13,113,1500002,,,,,,,2022-06-14,1,,,,,ロカ,0
372,2011101099200,新規,0,2022-06-14,2022-06-14,レコルタン株式会社,,株式会社,東京都,新宿区,市谷田町３丁目８市ヶ谷科学技術イノベーションセンタービル２階,,13,104,1620843,,,,,,,2022-06-14,1,,,,,レコルタン,0
377,2011103011856,新規,0,2022-06-14,2022-06-14,合同会社Ｍｅｔｎａｙ,,合同会社,東京都,新宿区,富久町１５番１－１０２０号,,13,104,1620067,,,,,,,2022-06-14,1,,,,,メタニィ,0
379,2011203003844,新規,0,2022-06-14,2022-06-14,合同会社Ｔｈｏｕｔｕｓ,,合同会社,東京都,中野区,中央２丁目３０番地９,,13,114,1640011,,,,,,,2022-06-14,1,,,,,ソータス,0
380,2011301027844,新規,0,2022-06-14,2022-06-14,株式会社志田大輔,,株式会社,東京都,杉並区,和泉４丁目１８番３号,,13,115,1680063,,,,,,,2022-06-14,1,,,,,シダダイスケ,0
381,2011301027852,新規,0,2022-06-14,2022-06-14,株式会社Ｄａｙｓ,,株式会社,東京都,杉並区,松ノ木２丁目１３番６号,,13,115,1660014,,,,,,,2022-06-14,1,,,,,ダイズ,0
382,2011303004437,新規,0,2022-06-14,2022-06-14,合同会社ヨリミチ,,合同会社,東京都,杉並区,阿佐谷北１丁目３３－１６柴田方,,13,115,1660001,,,,,,,2022-06-14,1,,,,,ヨリミチ,0
383,2011401024320,新規,0,2022-06-14,2022-06-14,株式会社ＫＩＴＡＯＫＡ,,株式会社,東京都,板橋区,赤塚新町３丁目２６番９号トップ成増３０７,,13,119,1750093,,,,,,,2022-06-14,1,,,,,キタオカ,0
384,2011501028130,新規,0,2022-06-14,2022-06-14,株式会社Ｕｎｉｔｅｄ　Ｓｔａｒｓ,,株式会社,東京都,北区,西ケ原１丁目５６番１３号セラドン駒込,,13,117,1140024,,,,,,,2022-06-14,1,,,,,ユナイテッドスターズ,0
393,2012701017105,新規,0,2022-06-14,2022-06-14,株式会社エルアイ,,株式会社,東京都,小平市,上水南町２丁目２３番２３号,,13,211,1870021,,,,,,,2022-06-14,1,,,,,エルアイ,0
395,2012803002806,新規,0,2022-06-14,2022-06-14,合同会社五十鈴クリエイト,,合同会社,東京都,東大和市,清水６丁目１１５０番地の７,,13,220,2070004,,,,,,,2022-06-14,1,,,,,イスズクリエイト,0
397,2013105001802,新規,0,2022-06-14,2022-06-14,一般社団法人日本相続不動産アナリスト協会,,その他の設立登記法人,東京都,福生市,大字福生５８２番地３,,13,218,1970011,,,,,,,2022-06-14,1,,,,,ニホンソウゾクフドウサンアナリストキョウカイ,0
403,2020001146854,新規,0,2022-06-14,2022-06-14,株式会社ＣＯＣＯ８８,,株式会社,神奈川県,川崎市多摩区,三田１丁目２４－１２Ａ,,14,135,2140034,,,,,,,2022-06-14,1,,,,,ココツーエイト,0
404,2020001146887,新規,0,2022-06-14,2022-06-14,株式会社青葉システムズ,,株式会社,神奈川県,横浜市青葉区,松風台２６番地７,,14,117,2270067,,,,,,,2022-06-14,1,,,,,アオバシステムズ,0
409,2020003021907,新規,0,2022-06-14,2022-06-14,合同会社ＮＮＡ,,合同会社,神奈川県,横浜市神奈川区,橋本町２丁目５番地３ＢＷ－３５０１,,14,102,2210053,,,,,,,2022-06-14,1,,,,,エヌエヌエー,0
410,2020003021915,新規,0,2022-06-14,2022-06-14,ＮＯ　ＬＩＭＩＴＳ合同会社,,合同会社,神奈川県,横浜市旭区,左近山１６－８左近山団地１－１１－５０１,,14,112,2410831,,,,,,,2022-06-14,1,,,,,ノーリミッツ,0
411,2020003021923,新規,0,2022-06-14,2022-06-14,合同会社ＧＬＯＤ,,合同会社,神奈川県,横浜市旭区,金が谷２丁目１－１２－６,,14,112,2410812,,,,,,,2022-06-14,1,,,,,グラッド,0
422,2021003011815,新規,0,2022-06-14,2022-06-14,Ｍ＆Ｔ合同会社,,合同会社,神奈川県,厚木市,松枝１丁目８番１号,,14,212,2430005,,,,,,,2022-06-14,1,,,,,エムアンドティー,0
424,2030001148544,新規,0,2022-06-14,2022-06-14,株式会社ケーアイビルド,,株式会社,埼玉県,さいたま市大宮区,桜木町２丁目３番地大宮マルイ７階,,11,103,3300854,,,,,,,2022-06-14,1,,,,,ケーアイビルド,0
425,2030001148643,新規,0,2022-06-14,2022-06-14,株式会社ＮＥＸＴ,,株式会社,埼玉県,川口市,元郷２丁目１５番１－２８０３号,,11,203,3320011,,,,,,,2022-06-14,1,,,,,ネクスト,0
431,2030003019586,新規,0,2022-06-14,2022-06-14,ＭＨＳ合同会社,,合同会社,埼玉県,川口市,芝西２丁目３１番１５号,,11,203,3330855,,,,,,,2022-06-14,1,,,,,エムエイチエス,0
432,2030003019603,新規,0,2022-06-14,2022-06-14,合同会社ＳＵＣＣＥＳＳＩＯＮ,,合同会社,埼玉県,川口市,上青木１丁目６番２２号,,11,203,3330844,,,,,,,2022-06-14,1,,,,,サクセション,0
449,2080101023353,新規,0,2022-06-14,2022-06-14,株式会社金森建業,,株式会社,静岡県,富士宮市,大岩４３４番地の４,,22,207,4180013,,,,,,,2022-06-14,1,,,,,カナモリケンギョウ,0
453,2080401025875,新規,0,2022-06-14,2022-06-14,株式会社住空間,,株式会社,静岡県,浜松市中区,佐鳴台４丁目２９番１６号,,22,131,4328021,,,,,,,2022-06-14,1,,,,,ジュウクウカン,0
454,2080401025883,新規,0,2022-06-14,2022-06-14,株式会社インフィニバース,,株式会社,静岡県,浜松市天竜区,春野町気田９０６番地の７,,22,137,4370605,,,,,,,2022-06-14,1,,,,,インフィニバース,0
459,2100003006577,新規,0,2022-06-14,2022-06-14,合同会社東海太洋パートナーズ,,合同会社,長野県,松本市,女鳥羽１丁目３番１２号,,20,202,3900806,,,,,,,2022-06-14,1,,,,,トウカイタイヨウパートナーズ,0
460,2110001036740,新規,0,2022-06-14,2022-06-14,株式会社ヨコレイ．,,株式会社,新潟県,新潟市中央区,関屋２番地１８ダイアパレス関屋９０４号,,15,103,9518134,,,,,,,2022-06-14,1,,,,,ヨコレイ,0
472,2120001246628,新規,0,2022-06-14,2022-06-14,株式会社ｔｏｍａｔｃｈ,,株式会社,大阪府,大阪市旭区,高殿１丁目４番２３－６０７号,,27,117,5350031,,,,,,,2022-06-14,1,,,,,トゥーマッチ,0
473,2120001246636,新規,0,2022-06-14,2022-06-14,株式会社９,,株式会社,大阪府,大阪市中央区,平野町３丁目１番７号,,27,128,5410046,,,,,,,2022-06-14,1,,,,,エネア,0
474,2120001246644,新規,0,2022-06-14,2022-06-14,エコライザーズ株式会社,,株式会社,大阪府,枚方市,伊加賀西町６２－４,,27,210,5730066,,,,,,,2022-06-14,1,,,,,エコライザーズ,0
475,2120001246652,新規,0,2022-06-14,2022-06-14,株式会社ぷらす,,株式会社,大阪府,大阪市西淀川区,姫里１丁目１８番２０号－３０１,,27,113,5550025,,,,,,,2022-06-14,1,,,,,プラス,0
476,2120001246677,新規,0,2022-06-14,2022-06-14,ポルムス株式会社,,株式会社,大阪府,大阪市北区,梅田１丁目１番３号大阪駅前第３ビル２９階１－１－１号室,,27,127,5300001,,,,,,,2022-06-14,1,,,,,ポルムス,0
477,2120001246693,新規,0,2022-06-14,2022-06-14,大阪熊ＭＣＮ株式会社,,株式会社,大阪府,大阪市中央区,宗右衛門町５番１７号,,27,128,5420084,,,,,,,2022-06-14,1,,,,,オオサカクマエムシーエヌ,0
488,2120101065655,新規,0,2022-06-14,2022-06-14,株式会社ＺＥＲＯ,,株式会社,大阪府,堺市堺区,西湊町２丁１番５号,,27,141,5900835,,,,,,,2022-06-14,1,,,,,ゼロ,0
492,2120103004735,新規,0,2022-06-14,2022-06-14,合同会社ＥＳＰＯＩＲ,,合同会社,大阪府,堺市西区,浜寺南町２丁１１３－７,,27,144,5928344,,,,,,,2022-06-14,1,,,,,エスポワール,0
502,2130001071975,新規,0,2022-06-14,2022-06-14,株式会社日比野建装,,株式会社,京都府,京都市南区,上鳥羽川端町２９番地の２５,,26,107,6018171,,,,,,,2022-06-14,1,,,,,ヒビノケンソウ,0
504,2130003007969,新規,0,2022-06-14,2022-06-14,合資会社ＲＳ　Ｃａｐｉｔａｌ,,合資会社,京都府,京都市左京区,岩倉南平岡町２５番地５,,26,103,6060032,,,,,,,2022-06-14,1,,,,,アールエスキャピタル,0
505,2130003007977,新規,0,2022-06-14,2022-06-14,合同会社サイトウ企画,,合同会社,京都府,京都市西京区,桂艮町１３番地６２,,26,111,6158083,,,,,,,2022-06-14,1,,,,,サイトウキカク,0
506,2130003007985,新規,0,2022-06-14,2022-06-14,合同会社ＩＲＩＳ,,合同会社,京都府,京都市右京区,梅津南広町４１番地２ガーデンハイム梅津４０５,,26,108,6150901,,,,,,,2022-06-14,1,,,,,アイリス,0
507,2130003007993,新規,0,2022-06-14,2022-06-14,合同会社円亭,,合同会社,京都府,京都市下京区,西新屋敷中堂寺町７０番地,,26,106,6000000,,,,,,,2022-06-14,1,,,,,マドカテイ,0
520,2170003001737,新規,0,2022-06-14,2022-06-14,アルボレス合同会社,,合同会社,和歌山県,日高郡由良町,大字江ノ駒３０９番地の２,,30,383,6491104,,,,,,,2022-06-14,1,,,,,アルボレス,0
522,2180001151599,新規,0,2022-06-14,2022-06-14,株式会社ＰＡＣＩＦＩＣ　ＰＩＣＴＵＲＥＳ,,株式会社,愛知県,名古屋市東区,泉１丁目２３番３７号,,23,102,4610001,,,,,,,2022-06-14,1,,,,,パシフィックピクチャーズ,0
523,2180001151723,新規,0,2022-06-14,2022-06-14,株式会社ＲＡＦＵＣＡＬ,,株式会社,愛知県,名古屋市西区,名駅２丁目３４番１７号,,23,104,4510045,,,,,,,2022-06-14,1,,,,,ラフカル,0
524,2180001151772,新規,0,2022-06-14,2022-06-14,株式会社９９９,,株式会社,愛知県,名古屋市中区,大須４丁目１番７号サンポートヤバビル５Ｆ,,23,106,4600011,,,,,,,2022-06-14,1,,,,,スリーナイン,0
527,2180003023920,新規,0,2022-06-14,2022-06-14,バックワークス合同会社,,合同会社,愛知県,名古屋市中区,大須１丁目７番１４号パークＩＭビル２Ｆ,,23,106,4600011,,,,,,,2022-06-14,1,,,,,バックワークス,0
528,2180005019801,新規,0,2022-06-14,2022-06-14,土地家屋調査士法人アクア,,その他の設立登記法人,愛知県,一宮市,馬見塚字郷前４４番地２,,23,203,4910874,,,,,,,2022-06-14,1,,,,,アクア,0
533,2190001029514,新規,0,2022-06-14,2022-06-14,株式会社ＹＳテック,,株式会社,三重県,いなべ市,員弁町大泉新田１３１番地７,,24,214,5110217,,,,,,,2022-06-14,1,,,,,ワイズテック,0
535,2190003003995,新規,0,2022-06-14,2022-06-14,山貴山合同会社,,合同会社,三重県,松阪市,甚目町６５番地３,,24,204,5152108,,,,,,,2022-06-14,1,,,,,ヤマタカサン,0
539,2200001040155,新規,0,2022-06-14,2022-06-14,株式会社ｐｒｉｍｕｓ,,株式会社,岐阜県,各務原市,川島緑町２丁目１３７番地２,,21,213,5016027,,,,,,,2022-06-14,1,,,,,プリームス,0
540,2200001040163,新規,0,2022-06-14,2022-06-14,株式会社朱鷺乃屋,,株式会社,岐阜県,関市,本町１丁目２８番地,,21,205,5013886,,,,,,,2022-06-14,1,,,,,トキノヤ,0
541,2200003005585,新規,0,2022-06-14,2022-06-14,合同会社ＰＬＡＮ　ＣＪ,,合同会社,岐阜県,可児市,今渡１１８３番地７,,21,214,5090207,,,,,,,2022-06-14,1,,,,,プランシージェイ,0
545,2220001024908,新規,0,2022-06-14,2022-06-14,ティ・プランニング株式会社,,株式会社,石川県,金沢市,昭和町７番５号,,17,201,9200856,,,,,,,2022-06-14,1,,,,,ティプランニング,0
550,2240001059919,新規,0,2022-06-14,2022-06-14,株式会社大希,,株式会社,広島県,広島市南区,翠４丁目１２番７－１号Ｃ棟,,34,103,7340005,,,,,,,2022-06-14,1,,,,,ダイキ,0
551,2240001059935,新規,0,2022-06-14,2022-06-14,株式会社ユニフェル,,株式会社,広島県,福山市,新市町大字下安井３０５番地２,,34,207,7293105,,,,,,,2022-06-14,1,,,,,ユニフェル,0
554,2240003005656,新規,0,2022-06-14,2022-06-14,合同会社金星音楽団,,合同会社,広島県,広島市中区,舟入幸町２０番２０－３号,,34,101,7300844,,,,,,,2022-06-14,1,,,,,キンセイオンガクダン,0
555,2240003005664,新規,0,2022-06-14,2022-06-14,合同会社Ｂｃｏ,,合同会社,広島県,広島市南区,松原町３番２号－４１０８,,34,103,7320822,,,,,,,2022-06-14,1,,,,,ビーシーオー,0
558,2260001036932,新規,0,2022-06-14,2022-06-14,株式会社ネクステージホーム,,株式会社,岡山県,倉敷市,笹沖４８４番地８,,33,202,7100834,,,,,,,2022-06-14,1,,,,,ネクステージホーム,0
562,2290001097906,新規,0,2022-06-14,2022-06-14,ドット．エス株式会社,,株式会社,福岡県,福岡市博多区,祇園町８番１２号,,40,132,8120038,,,,,,,2022-06-14,1,,,,,ドットエス,0
566,2290801028622,新規,0,2022-06-14,2022-06-14,ＳＡＳＡＫＥＮ株式会社,,株式会社,福岡県,北九州市八幡西区,大字本城２９７５番地１,,40,109,8070801,,,,,,,2022-06-14,1,,,,,ササケン,0
567,2290801028630,新規,0,2022-06-14,2022-06-14,株式会社頂天,,株式会社,福岡県,北九州市小倉北区,今町２丁目２番５号,,40,106,8030862,,,,,,,2022-06-14,1,,,,,チョウテン,0
568,2290805009560,新規,0,2022-06-14,2022-06-14,ＮＰＯ法人天の羽,,その他の設立登記法人,福岡県,北九州市八幡西区,若葉３丁目２０番４１－６０６号,,40,109,8060066,,,,,,,2022-06-14,1,,,,,ソラノワ,0
570,2300003001855,新規,0,2022-06-14,2022-06-14,合同会社きりご不動産,,合同会社,佐賀県,唐津市,肥前町万賀里川６１４番地,,41,202,8471515,,,,,,,2022-06-14,1,,,,,キリゴフドウサン,0
572,2330003009409,新規,0,2022-06-14,2022-06-14,合同会社盛唐國際,,合同会社,熊本県,熊本市北区,植木町山本８７番地１,,43,105,8610101,,,,,,,2022-06-14,1,,,,,セイトウコクサイ,0
573,2340001024813,新規,0,2022-06-14,2022-06-14,八凌建設株式会社,,株式会社,鹿児島県,霧島市,国分野口西２７番３号,,46,218,8994343,,,,,,,2022-06-14,1,,,,,ハチリョウケンセツ,0
575,2350001017799,新規,0,2022-06-14,2022-06-14,株式会社あるく,,株式会社,宮崎県,宮崎市,大字郡司分甲２６４番地３,,45,201,8800924,,,,,,,2022-06-14,1,,,,,アルク,0
579,2360001030529,新規,0,2022-06-14,2022-06-14,株式会社ベストライフ,,株式会社,沖縄県,浦添市,城間３丁目１９番１０－１０２号シティライツマンション,,47,208,9012133,,,,,,,2022-06-14,1,,,,,ベストライフ,0
580,2360001030537,新規,0,2022-06-14,2022-06-14,株式会社ペイントハウス太陽,,株式会社,沖縄県,浦添市,伊祖４丁目１８番２号,,47,208,9012132,,,,,,,2022-06-14,1,,,,,ペイントハウスタイヨウ,0
582,2370001048660,新規,0,2022-06-14,2022-06-14,株式会社サニー,,株式会社,宮城県,仙台市青葉区,みやぎ台４丁目３番２号,,04,101,9893214,,,,,,,2022-06-14,1,,,,,サニー,0
583,2370001048669,新規,0,2022-06-14,2022-06-14,株式会社ＮＯＣ,,株式会社,宮城県,仙台市宮城野区,福室２丁目５番４３－１００５号,,04,102,9830005,,,,,,,2022-06-14,1,,,,,ノック,0
587,2380003005196,新規,0,2022-06-14,2022-06-14,合同会社ＴＪ診断士事務所,,合同会社,福島県,福島市,野田町３丁目２番１４号レーベンハイム福島ファーストレジデンス１２０３,,07,201,9608055,,,,,,,2022-06-14,1,,,,,,0
589,2390003001970,新規,0,2022-06-14,2022-06-14,Ｔ．Ｍ．Ｋ合同会社,,合同会社,山形県,南陽市,郡山９４７‐５栄徳ビルＢ,,06,213,9992241,,,,,,,2022-06-14,1,,,,,ティーエムケー,0
595,2430003014010,新規,0,2022-06-14,2022-06-14,合同会社雄鷹,,合同会社,北海道,札幌市東区,北七条東８丁目２－５ＦＡ－Ｎ７ビル１階,,01,103,0650007,,,,,,,2022-06-14,1,,,,,ユウオウ,0
599,2450001013722,新規,0,2022-06-14,2022-06-14,株式会社Ｓｕｎｎｙ　Ｔｏｍｏｒｒｏｗ,,株式会社,北海道,紋別市,幸町４丁目２番６号,,01,219,0940005,,,,,,,2022-06-14,1,,,,,サニートゥモロー,0
601,2480001011764,新規,0,2022-06-14,2022-06-14,株式会社Ｄｅａｒ　Ｆｒｅｅｄｏｍ,,株式会社,徳島県,阿南市,羽ノ浦町中庄川原畑２番地１,,36,204,7791101,,,,,,,2022-06-14,1,,,,,ディアーフリーダム,0
602,2700150109709,新規,0,2022-06-14,2022-06-14,ＴＲＩＮＣＯ　ＡＵＴＯ　ＴＲＡＤＩＮＧ,,外国会社等,新潟県,妙高市,大字小濁７３１レンタルスペース２Ｆ－４,,15,217,9440221,スリランカ民主社会主義共和国、オルド、マーケト、ロード、キンニヤ,,,,,,2022-06-14,1,,,,,トリンコオートトレーデイング,0
607,3010001227299,新規,0,2022-06-14,2022-06-14,株式会社ルブラメディカル,,株式会社,東京都,中央区,日本橋本石町４丁目２番１６号,,13,102,1030021,,,,,,,2022-06-14,1,,,,,ルブラメディカル,0
608,3010001227324,新規,0,2022-06-14,2022-06-14,株式会社トケナイ,,株式会社,東京都,中央区,入船１丁目４番９号,,13,102,1040042,,,,,,,2022-06-14,1,,,,,トケナイ,0
609,3010001227332,新規,0,2022-06-14,2022-06-14,限凸マーケティング株式会社,,株式会社,東京都,中央区,銀座１丁目１２－４Ｎ＆ＥＢＬＤ．７階,,13,102,1040061,,,,,,,2022-06-14,1,,,,,ゲントツマーケティング,0
610,3010001227349,新規,0,2022-06-14,2022-06-14,株式会社フォーラ,,株式会社,東京都,千代田区,三番町７番地１０,,13,101,1020075,,,,,,,2022-06-14,1,,,,,フォーラ,0
611,3010001227373,新規,0,2022-06-14,2022-06-14,株式会社インレックスジャパン,,株式会社,東京都,千代田区,丸の内１丁目１１番１号１３階,,13,101,1000005,,,,,,,2022-06-14,1,,,,,インレックスジャパン,0
614,3010003037853,新規,0,2022-06-14,2022-06-14,合同会社ナンタメ,,合同会社,東京都,中央区,銀座１丁目２２－１１銀座大竹ビジデンス２階,,13,102,1040061,,,,,,,2022-06-14,1,,,,,ナンタメ,0
615,3010003037878,新規,0,2022-06-14,2022-06-14,合同会社Ｌｉｓｍ,,合同会社,東京都,中央区,日本橋馬喰町２丁目７番１５号ザ・パークレックス日本橋馬喰町ビル３階,,13,102,1030002,,,,,,,2022-06-14,1,,,,,リズム,0
616,3010003037886,新規,0,2022-06-14,2022-06-14,合同会社ＤＳＫコンサルティング,,合同会社,東京都,中央区,銀座１丁目２２－１１銀座大竹ビジデンス２階,,13,102,1040061,,,,,,,2022-06-14,1,,,,,ディーエスケーコンサルティング,0
620,3010101015216,新規,0,2022-06-14,2022-06-14,株式会社望月造園,,株式会社,東京都,八王子市,楢原町８７５番地２,,13,201,1930803,,,,,,,2022-06-14,1,,,,,モチヅキゾウエン,0
625,3010401167896,新規,0,2022-06-14,2022-06-14,株式会社ユナイテットゲット,,株式会社,東京都,港区,北青山３丁目５－４３表参道ＬＡＢ２Ｆ,,13,103,1070061,,,,,,,2022-06-14,1,,,,,ユナイテットゲット,0
634,3010701042799,新規,0,2022-06-14,2022-06-14,株式会社クチコミュ,,株式会社,東京都,品川区,西五反田８丁目１０番１８号コリーヌ五反田２０２号室,,13,109,1410031,,,,,,,2022-06-14,1,,,,,クチコミュ,0
635,3010701042808,新規,0,2022-06-14,2022-06-14,株式会社ＧＲＡＮＳＴＡＧＥ,,株式会社,東京都,品川区,北品川１丁目９番７号トップルーム品川９０６,,13,109,1400001,,,,,,,2022-06-14,1,,,,,グランステージ,0
636,3010701042816,新規,0,2022-06-14,2022-06-14,株式会社ｐａｓｓｉｏｎ４５,,株式会社,東京都,品川区,上大崎３丁目１番３０－２００９号,,13,109,1410021,,,,,,,2022-06-14,1,,,,,パッションフォーティーファイブ,0
637,3010703006273,新規,0,2022-06-14,2022-06-14,ＩＶＹ合同会社,,合同会社,東京都,品川区,平塚１丁目１１番１８－２０５号,,13,109,1420051,,,,,,,2022-06-14,1,,,,,アイビー,0
641,3010801033046,新規,0,2022-06-14,2022-06-14,ミヨシウェルネス株式会社,,株式会社,東京都,大田区,山王３丁目６番２７号,,13,111,1430023,,,,,,,2022-06-14,1,,,,,ミヨシウェルネス,0
647,3010901051030,新規,0,2022-06-14,2022-06-14,株式会社ＬＩＦＥＳＴ　ＧＲＯＵＰ,,株式会社,東京都,世田谷区,奥沢５丁目１番１１号メゾンドジョワ２０２,,13,112,1580083,,,,,,,2022-06-14,1,,,,,ライフェストグループ,0
657,3011003014826,新規,0,2022-06-14,2022-06-14,合同会社ＭＯＳＡ,,合同会社,東京都,渋谷区,神宮前６丁目２３－４,,13,113,1500001,,,,,,,2022-06-14,1,,,,,モサ,0
660,3011101099141,新規,0,2022-06-14,2022-06-14,ニュウブラン株式会社,,株式会社,東京都,新宿区,大久保２丁目２７－１７,,13,104,1690072,,,,,,,2022-06-14,1,,,,,ニュウブラン,0
661,3011101099190,新規,0,2022-06-14,2022-06-14,株式会社Ｓｐａｃｅ　Ｒｏｂｏｔｉｃｓ,,株式会社,東京都,新宿区,高田馬場１丁目３２番１０号,,13,104,1690075,,,,,,,2022-06-14,1,,,,,スペースロボティクス,0
662,3011101099216,新規,0,2022-06-14,2022-06-14,株式会社ＴＯ　ＹＯＵ　ＳＴＵＤＩＯ　ＪＰ,,株式会社,東京都,新宿区,西新宿４丁目２番１８号武居ビル５Ｆ,,13,104,1600023,,,,,,,2022-06-14,1,,,,,トゥーユースタジオジェーピー,0
663,3011301027851,新規,0,2022-06-14,2022-06-14,株式会社Ｌａｔｅｒｕ,,株式会社,東京都,杉並区,今川１丁目１２番２１号,,13,115,1670035,,,,,,,2022-06-14,1,,,,,ラテル,0
665,3011503005184,新規,0,2022-06-14,2022-06-14,新興合同会社,,合同会社,東京都,荒川区,町屋３丁目２３番１８－５０１号,,13,118,1160001,,,,,,,2022-06-14,1,,,,,シンコウ,0
674,3012403005423,新規,0,2022-06-14,2022-06-14,合同会社ＮＫＣ映像制作,,合同会社,東京都,府中市,紅葉丘１丁目７－９,,13,206,1830004,,,,,,,2022-06-14,1,,,,,エヌケイシーエイゾウセイサク,0
675,3012801021641,新規,0,2022-06-14,2022-06-14,株式会社匠輝,,株式会社,東京都,国立市,富士見台３丁目２１番地の２７,,13,215,1860003,,,,,,,2022-06-14,1,,,,,ショウキ,0
676,3012803002796,新規,0,2022-06-14,2022-06-14,合同会社ＺＥＲＯ,,合同会社,東京都,立川市,曙町２丁目３２－３サンパレス立川６０１,,13,202,1900012,,,,,,,2022-06-14,1,,,,,ゼロ,0
682,3020001146894,新規,0,2022-06-14,2022-06-14,ｃｕｓｔｏｍｗｏｒｋｓ８ｂａｌｌ株式会社,,株式会社,神奈川県,川崎市高津区,末長３丁目４－１１－１０２,,14,134,2130013,,,,,,,2022-06-14,1,,,,,カスタムワークスエイトボール,0
684,3020003021914,新規,0,2022-06-14,2022-06-14,ＴＳ合同会社,,合同会社,神奈川県,横浜市鶴見区,元宮１丁目１４番３０号,,14,101,2300004,,,,,,,2022-06-14,1,,,,,ティエス,0
685,3020003021922,新規,0,2022-06-14,2022-06-14,合同会社Ｚｅｎ,,合同会社,神奈川県,横浜市旭区,鶴ケ峰２丁目１４番地７,,14,112,2410022,,,,,,,2022-06-14,1,,,,,ゼン,0
698,3030001148634,新規,0,2022-06-14,2022-06-14,株式会社石井電気Ａ‐ＯＮＥ,,株式会社,埼玉県,さいたま市緑区,東浦和５丁目１７番地３,,11,109,3360926,,,,,,,2022-06-14,1,,,,,イシイデンキエーワン,0
699,3030001148667,新規,0,2022-06-14,2022-06-14,株式会社ＴＥＴＯ　ｗｉｔｈ,,株式会社,埼玉県,川越市,大手町１５番地９,,11,201,3500057,,,,,,,2022-06-14,1,,,,,テトウィズ,0
701,3030003019569,新規,0,2022-06-14,2022-06-14,合同会社きずな会,,合同会社,埼玉県,川越市,川鶴１丁目２０番地６－１０２号室,,11,201,3501176,,,,,,,2022-06-14,1,,,,,キズナカイ,0
702,3030003019585,新規,0,2022-06-14,2022-06-14,熱闘スピート合同会社,,合同会社,埼玉県,春日部市,小渕３９７番地１１,,11,214,3440007,,,,,,,2022-06-14,1,,,,,ネットスピード,0
703,3030003019593,新規,0,2022-06-14,2022-06-14,みやびデジタル合同会社,,合同会社,埼玉県,川越市,大字山田１６２１－１モンドビル２Ｆ,,11,201,3500822,,,,,,,2022-06-14,1,,,,,ミヤビデジタル,0
706,3040001123818,新規,0,2022-06-14,2022-06-14,株式会社庄司,,株式会社,千葉県,千葉市中央区,本千葉町１５番１号京成千葉中央ビル３Ｆ－０４,,12,101,2600014,,,,,,,2022-06-14,1,,,,,ショウジ,0
709,3050001051225,新規,0,2022-06-14,2022-06-14,株式会社エクサゴノ,,株式会社,茨城県,水戸市,上水戸４丁目５番１号,,08,201,3100041,,,,,,,2022-06-14,1,,,,,エクサゴノ,0
721,3080401025882,新規,0,2022-06-14,2022-06-14,株式会社ａｔＡＣＥ,,株式会社,静岡県,磐田市,中泉９５６番地コーポ中泉２０１号,,22,211,4380078,,,,,,,2022-06-14,1,,,,,アットエース,0
724,3080403004562,新規,0,2022-06-14,2022-06-14,合同会社アールバディ,,合同会社,静岡県,浜松市浜北区,宮口４０４３番地の１,,22,136,4340004,,,,,,,2022-06-14,1,,,,,アールバディ,0
725,3080405007464,新規,0,2022-06-14,2022-06-14,ふじのくにアウトドア企業組合,,その他の設立登記法人,静岡県,菊川市,西方５３８０番地の１,,22,224,4390037,,,,,,,2022-06-14,1,,,,,フジノクニアウトドア,0
735,3110001036731,新規,0,2022-06-14,2022-06-14,株式会社ティースサポート,,株式会社,新潟県,上越市,春日山町３丁目１８番４１号,,15,222,9430807,,,,,,,2022-06-14,1,,,,,ティースサポート,0
737,3110005016820,新規,0,2022-06-14,2022-06-14,特定非営利活動法人巻スポーツクラブ,,その他の設立登記法人,新潟県,新潟市西蒲区,馬堀６００１番地５３,,15,108,9530061,,,,,,,2022-06-14,1,,,,,マキスポーツクラブ,0
744,3120001246544,新規,0,2022-06-14,2022-06-14,嘉恒商事株式会社,,株式会社,大阪府,大阪市西区,阿波座２丁目２－２１ダイドーメゾン本町７０２,,27,106,5500011,,,,,,,2022-06-14,1,,,,,カコウショウジ,0
745,3120001246602,新規,0,2022-06-14,2022-06-14,株式会社Ｍｅｄｐｒｅｎｅｕｒ,,株式会社,大阪府,大阪市北区,堂山町１番５号三共梅田ビル７階,,27,127,5300027,,,,,,,2022-06-14,1,,,,,メドプレナー,0
746,3120001246627,新規,0,2022-06-14,2022-06-14,株式会社１８７４,,株式会社,大阪府,大阪市都島区,片町１丁目５番１３号大手前センチュリービル４階,,27,102,5340025,,,,,,,2022-06-14,1,,,,,イチハチナナヨン,0
747,3120001246635,新規,0,2022-06-14,2022-06-14,株式会社ＡＹＡ,,株式会社,大阪府,大阪市北区,神山町３番４号,,27,127,5300026,,,,,,,2022-06-14,1,,,,,アヤ,0
748,3120001246643,新規,0,2022-06-14,2022-06-14,ＫＡＫＥＨＡＳＨＩ株式会社,,株式会社,大阪府,大阪市淀川区,木川東３丁目３番４号,,27,123,5320012,,,,,,,2022-06-14,1,,,,,カケハシ,0
749,3120001246701,新規,0,2022-06-14,2022-06-14,株式会社リブラホーム,,株式会社,大阪府,大阪市天王寺区,上本町２丁目１番１４号２０３,,27,109,5430001,,,,,,,2022-06-14,1,,,,,リブラホーム,0
750,3120003021879,新規,0,2022-06-14,2022-06-14,個クリエーション合同会社,,合同会社,大阪府,門真市,末広町３６番４－２号,,27,223,5710030,,,,,,,2022-06-14,1,,,,,コクリエーション,0
751,3120003021895,新規,0,2022-06-14,2022-06-14,合同会社安田,,合同会社,大阪府,大阪市北区,本庄東１丁目１０番１９号第２ロイヤルハイツ盛５０１号,,27,127,5310074,,,,,,,2022-06-14,1,,,,,ヤスダ,0
756,3120103004734,新規,0,2022-06-14,2022-06-14,合同会社遊ａｌｌ,,合同会社,大阪府,堺市北区,百舌鳥梅町３丁５０番地９,,27,146,5918032,,,,,,,2022-06-14,1,,,,,ユウオール,0
763,3130003007992,新規,0,2022-06-14,2022-06-14,合同会社Ｔｉｄｕｓ,,合同会社,京都府,宇治市,槇島町吹前４３番地の５,,26,204,6110041,,,,,,,2022-06-14,1,,,,,ティーダ,0
767,3140001126323,新規,0,2022-06-14,2022-06-14,株式会社Ｏｎｅ　Ｒｏｏｔｓ,,株式会社,兵庫県,神戸市灘区,鶴甲５丁目１－５０プラザ翠光２０３,,28,102,6570011,,,,,,,2022-06-14,1,,,,,ワンルーツ,0
772,3140003017776,新規,0,2022-06-14,2022-06-14,合同会社アルプス,,合同会社,兵庫県,西宮市,樋之池町５番１６号,,28,204,6620084,,,,,,,2022-06-14,1,,,,,アルプス,0
781,3160001024285,新規,0,2022-06-14,2022-06-14,株式会社きずな．,,株式会社,滋賀県,甲賀市,水口町本町３丁目２４２９番地２,,25,209,5280031,,,,,,,2022-06-14,1,,,,,キズナ,0
789,3180001151706,新規,0,2022-06-14,2022-06-14,株式会社ＨｕｅＳＴＯＲＹ,,株式会社,愛知県,名古屋市西区,比良２丁目３１３ＧＩＭＵＣＯ－Ｂ,,23,104,4520802,,,,,,,2022-06-14,1,,,,,ヒューストーリー,0
790,3180001151722,新規,0,2022-06-14,2022-06-14,株式会社フォース,,株式会社,愛知県,名古屋市守山区,吉根３丁目１２０４番地１,,23,113,4630004,,,,,,,2022-06-14,1,,,,,フォース,0
791,3180001151730,新規,0,2022-06-14,2022-06-14,株式会社ＭＴＳ,,株式会社,愛知県,名古屋市守山区,大森４丁目２１１６番地の８,,23,113,4630021,,,,,,,2022-06-14,1,,,,,エムティエス,0
792,3180001151771,新規,0,2022-06-14,2022-06-14,株式会社Ｙ＆Ｋ,,株式会社,愛知県,名古屋市北区,山田１丁目４番４６号五番街ビル６Ｆ,,23,103,4620810,,,,,,,2022-06-14,1,,,,,ワイケー,0
793,3180003023928,新規,0,2022-06-14,2022-06-14,ＥＮＺＡＡ　ＥＮＴＥＲＰＲＩＳＥ合同会社,,合同会社,愛知県,名古屋市東区,出来町３丁目４番１７号スカイプラザ５Ａ号,,23,102,4610032,,,,,,,2022-06-14,1,,,,,エンザエンタープライズ,0
797,3180005019800,新規,0,2022-06-14,2022-06-14,行政書士法人アクア,,その他の設立登記法人,愛知県,一宮市,馬見塚字郷前４４番地２,,23,203,4910874,,,,,,,2022-06-14,1,,,,,アクア,0
805,3190001029513,新規,0,2022-06-14,2022-06-14,ｍＢｈｐ株式会社,,株式会社,三重県,名張市,東町１９１１番地２グレイスコート１Ｆ,,24,208,5180711,,,,,,,2022-06-14,1,,,,,メッセンジャービューティーヘルスパートナーズ,0
810,3200001040162,新規,0,2022-06-14,2022-06-14,株式会社ＲＥ．ｌｉｆｅ,,株式会社,岐阜県,本巣市,有里５０６番地１３,,21,218,5010415,,,,,,,2022-06-14,1,,,,,リライフ,0
811,3200001040170,新規,0,2022-06-14,2022-06-14,本家白川けいちゃん株式会社,,株式会社,岐阜県,加茂郡白川町,河東３５０９番地１,,21,506,5091107,,,,,,,2022-06-14,1,,,,,ホンケシラカワケイチャン,0
812,3200001040179,新規,0,2022-06-14,2022-06-14,ミネルヴァ株式会社,,株式会社,岐阜県,安八郡安八町,西結７７８,,21,383,5030111,,,,,,,2022-06-14,1,,,,,ミネルヴァ,0
815,3220001024907,新規,0,2022-06-14,2022-06-14,Ｒｅ．ｆｏｕｎｄａｔｉｏｎ株式会社,,株式会社,石川県,野々市市,新庄４丁目１３３番地,,17,212,9218824,,,,,,,2022-06-14,1,,,,,アールイーファウンデーション,0
823,3240001059926,新規,0,2022-06-14,2022-06-14,株式会社ドリームワークス,,株式会社,広島県,東広島市,八本松町米満４７１番地８,,34,212,7390133,,,,,,,2022-06-14,1,,,,,ドリームワークス,0
824,3240001059934,新規,0,2022-06-14,2022-06-14,株式会社知恵蔵,,株式会社,広島県,福山市,春日町浦上１７５０番地６,,34,207,7210902,,,,,,,2022-06-14,1,,,,,チエゾウ,0
825,3240001059942,新規,0,2022-06-14,2022-06-14,株式会社橋本電業,,株式会社,広島県,広島市安佐北区,倉掛３丁目３８番７号,,34,106,7391743,,,,,,,2022-06-14,1,,,,,ハシモトデンギョウ,0
828,3240003005663,新規,0,2022-06-14,2022-06-14,合同会社ｇｒｅｅｎ,,合同会社,広島県,広島市中区,上幟町４番２０－５０２号,,34,101,7300014,,,,,,,2022-06-14,1,,,,,グリーン,0
831,3260001036931,新規,0,2022-06-14,2022-06-14,株式会社Ｌｉ’ｇｅｎｄ,,株式会社,岡山県,岡山市北区,中仙道５５番地１２４サンピオーネ中仙道２０１,,33,101,7000964,,,,,,,2022-06-14,1,,,,,リジェンド,0
832,3260001036956,新規,0,2022-06-14,2022-06-14,株式会社ティーズ,,株式会社,岡山県,加賀郡吉備中央町,上野２２８０番地７８,,33,681,7092344,,,,,,,2022-06-14,1,,,,,ティーズ,0
838,3290001097780,新規,0,2022-06-14,2022-06-14,株式会社筑羽工務店,,株式会社,福岡県,大野城市,御笠川５丁目９番９号,,40,219,8160912,,,,,,,2022-06-14,1,,,,,チクバコウムテン,0
841,3290801028621,新規,0,2022-06-14,2022-06-14,Ｂｏｎｊｏｕｒ株式会社,,株式会社,福岡県,北九州市八幡西区,大字本城２９７８番地２Ｆ,,40,109,8070801,,,,,,,2022-06-14,1,,,,,ボンジュール,0
842,3290801028638,新規,0,2022-06-14,2022-06-14,株式会社Ｐ＆ｈホールディングス,,株式会社,福岡県,北九州市小倉北区,室町２丁目１０－４,,40,106,8030812,,,,,,,2022-06-14,1,,,,,ピーアンドエイチホールディングス,0
846,3300001012969,新規,0,2022-06-14,2022-06-14,ＰＡＬＳ株式会社,,株式会社,佐賀県,杵島郡白石町,大字横手２６４３番地１,,41,425,8491116,,,,,,,2022-06-14,1,,,,,パルス,0
847,3310003004385,新規,0,2022-06-14,2022-06-14,合同会社心彩,,合同会社,長崎県,諫早市,多良見町シーサイド２番地１１３,,42,204,8590407,,,,,,,2022-06-14,1,,,,,コア,0
849,3320001019129,新規,0,2022-06-14,2022-06-14,株式会社ＥＮＧサービス,,株式会社,大分県,大分市,大字下郡６７０番地６２,,44,201,8700951,,,,,,,2022-06-14,1,,,,,イーエヌジーサービス,0
850,3320001019137,新規,0,2022-06-14,2022-06-14,株式会社隆乃,,株式会社,大分県,臼杵市,大字掻懐１５０８番地,,44,206,8750073,,,,,,,2022-06-14,1,,,,,タカノ,0
852,3320005010001,新規,0,2022-06-14,2022-06-14,一般社団法人ジュニアタイムマネジメント支援協会,,その他の設立登記法人,大分県,大分市,大字下郡１６０２番地の１,,44,201,8700951,,,,,,,2022-06-14,1,,,,,ジュニアタイムマネジメントシエンキョウカイ,0
857,3340001024812,新規,0,2022-06-14,2022-06-14,薩摩機械サービス株式会社,00126868,株式会社,鹿児島県,薩摩川内市,樋脇町市比野３２００番地１０３,,46,215,8951203,,,,,,,2022-06-14,1,,,,,サツマキカイサービス,0
859,3340003003830,新規,0,2022-06-14,2022-06-14,合同会社円富,,合同会社,鹿児島県,鹿児島市,東谷山５丁目３４－５,,46,201,8910113,,,,,,,2022-06-14,1,,,,,マルトミ,0
862,3370001048668,新規,0,2022-06-14,2022-06-14,株式会社アールズ,,株式会社,宮城県,仙台市宮城野区,蒲生字井戸谷地１８番地の１,,04,102,9830002,,,,,,,2022-06-14,1,,,,,アールズ,0
863,3370001048676,新規,0,2022-06-14,2022-06-14,ＳＰＥＣ株式会社,,株式会社,宮城県,多賀城市,伝上山３丁目３１番１－２０８号,,04,209,9850872,,,,,,,2022-06-14,1,,,,,スペック,0
881,3430001086802,新規,0,2022-06-14,2022-06-14,Ｆａｎｔａｓｙ＆Ｃｏ．株式会社,,株式会社,北海道,札幌市厚別区,青葉町４丁目２－２５,,01,108,0040021,,,,,,,2022-06-14,1,,,,,ファンタジーアンドコー,0
882,3430001086868,新規,0,2022-06-14,2022-06-14,株式会社米蔵,,株式会社,北海道,札幌市豊平区,月寒東三条１８丁目２番１号,,01,105,0620053,,,,,,,2022-06-14,1,,,,,コメクラ,0
892,3500001024275,新規,0,2022-06-14,2022-06-14,株式会社アイコウ,,株式会社,愛媛県,西条市,玉津６１２番地１Ｂ１０５,,38,206,7930001,,,,,,,2022-06-14,1,,,,,アイコウ,0
894,3700150109633,新規,0,2022-06-14,2022-06-14,ＨＹＰＥＲ　ＷＯＲＬＤ　ＰＲＩＶＡＴＥ　ＬＩＭＩＴＥＤ,,外国会社等,千葉県,山武市,森８３６－１,,12,237,2891214,スリランカ民主社会主義共和国、マタレ、キングストリト、１４９,,,,,,2022-06-14,1,,,,,ハイパーワールドプライベートリミテツド,0
895,3700150109708,新規,0,2022-06-14,2022-06-14,ＡＹＡＡＮＡ　ＡＵＴＯ　ＥＮＴＥＲＰＲＩＳＥＳ,,外国会社等,新潟県,妙高市,大字小濁７３１レンタルスペース１Ｆ－７,,15,217,9440221,スリランカ民主社会主義共和国、キンニヤー０７、ペリヤトムナイ、ジャワパーレ、１９／３９番,,,,,,2022-06-14,1,,,,,アヤーナオートエンタープライセス,0
907,4010001227257,新規,0,2022-06-14,2022-06-14,株式会社ｗｉｓｄｏｍａｓｉａ２,,株式会社,東京都,文京区,本駒込２丁目２７番１８－８０１号,,13,105,1130021,,,,,,,2022-06-14,1,,,,,ウィツダムアジアニ,0
908,4010001227307,新規,0,2022-06-14,2022-06-14,Ｉｃｈｏｕ　Ｍｅｄｉｃａｌ　Ｇｒｏｕｐ　Ｊａｐａｎ株式会社,,株式会社,東京都,千代田区,大手町１丁目５番１号大手町ファーストスクエアイーストタワー４階,,13,101,1000004,,,,,,,2022-06-14,1,,,,,イチョウメディカルグループジャパン,0
909,4010001227315,新規,0,2022-06-14,2022-06-14,株式会社オオモリ・アンド・カンパニー,,株式会社,東京都,中央区,日本橋室町４丁目３番１５号,,13,102,1030022,,,,,,,2022-06-14,1,,,,,オオモリアンドカンパニー,0
910,4010001227323,新規,0,2022-06-14,2022-06-14,Ｓｐｒｏｊｅｃｔ株式会社,,株式会社,東京都,文京区,小石川１丁目１５番５－９０４号,,13,105,1120002,,,,,,,2022-06-14,1,,,,,エスプロジェクト,0
913,4010003037836,新規,0,2022-06-14,2022-06-14,合同会社ＬＡＮＤ　ＷＩＺＡＲＤ,,合同会社,東京都,中央区,勝どき２丁目１０－１６－９０６,,13,102,1040054,,,,,,,2022-06-14,1,,,,,ランドウィザード,0
923,4010401167904,新規,0,2022-06-14,2022-06-14,株式会社ＡＩｓ,,株式会社,東京都,港区,南麻布４丁目５番６３号ラ・トゥール南麻布Ａ１０１,,13,103,1060047,,,,,,,2022-06-14,1,,,,,アイズ,0
927,4010403027791,新規,0,2022-06-14,2022-06-14,Ｐｏｐｐｒａｔｅ合同会社,,合同会社,東京都,港区,南青山２丁目２番１５号,,13,103,1070062,,,,,,,2022-06-14,1,,,,,ポッププレート,0
933,4010701042815,新規,0,2022-06-14,2022-06-14,株式会社ＡＮＥＳ,,株式会社,東京都,品川区,西五反田１丁目２６番２号五反田サンハイツ９１１,,13,109,1410031,,,,,,,2022-06-14,1,,,,,アネズ,0
934,4010801033037,新規,0,2022-06-14,2022-06-14,株式会社フ道,,株式会社,東京都,大田区,上池台１丁目７番１６号,,13,111,1450064,,,,,,,2022-06-14,1,,,,,フドウ,0
949,4011001148014,新規,0,2022-06-14,2022-06-14,株式会社せんぼんのっく,,株式会社,東京都,渋谷区,千駄ヶ谷３丁目２番８号第１２宮庭マンション４０１,,13,113,1510051,,,,,,,2022-06-14,1,,,,,センボンノック,0
951,4011003014825,新規,0,2022-06-14,2022-06-14,合同会社エンタメリスクマネジメント,,合同会社,東京都,渋谷区,神泉町２０番２１号,,13,113,1500045,,,,,,,2022-06-14,1,,,,,エンタメリスクマネジメント,0
952,4011003014858,新規,0,2022-06-14,2022-06-14,Ｅｘｉｓｔｅｎｃｅ合同会社,,合同会社,東京都,目黒区,下目黒５丁目１６番１４－３０７号,,13,110,1530064,,,,,,,2022-06-14,1,,,,,イグジステンス,0
955,4011101099223,新規,0,2022-06-14,2022-06-14,株式会社３ＷＩＮ　ｐａｒｔｎｅｒｓ,,株式会社,東京都,新宿区,西新宿３丁目３番１３号西新宿水間ビル６階,,13,104,1600023,,,,,,,2022-06-14,1,,,,,スリーウィンパートナーズ,0
957,4011105010284,新規,0,2022-06-14,2022-06-14,一般社団法人人間中心社会共創機構,,その他の設立登記法人,東京都,新宿区,若松町３６番１３号ＭｏｄｅｌｉａＣｏｌｏｒｓ３Ｆソシオメディア株式会社内,,13,104,1620056,,,,,,,2022-06-14,1,,,,,ニンゲンチュウシンシャカイキョウソウキコウ,0
961,4011301027859,新規,0,2022-06-14,2022-06-14,株式会社ピッケル,,株式会社,東京都,杉並区,上井草３丁目２６番１０号,,13,115,1670023,,,,,,,2022-06-14,1,,,,,ピッケル,0
963,4011401024319,新規,0,2022-06-14,2022-06-14,株式会社Ｐｌａｉｓｉｒ,,株式会社,東京都,板橋区,板橋１丁目２７番６－４０２号,,13,119,1730004,,,,,,,2022-06-14,1,,,,,プレジール,0
964,4011501028137,新規,0,2022-06-14,2022-06-14,株式会社ＴＫＤ,,株式会社,東京都,北区,王子５丁目２番６－２２７号,,13,117,1140002,,,,,,,2022-06-14,1,,,,,ティーケーディー,0
969,4011801040840,新規,0,2022-06-14,2022-06-14,株式会社伸興商事,,株式会社,東京都,葛飾区,新宿６丁目２番１－１９１７号シティタワー金町タワー棟,,13,122,1250051,,,,,,,2022-06-14,1,,,,,シンコウショウジ,0
975,4012801021649,新規,0,2022-06-14,2022-06-14,株式会社アーカス,,株式会社,東京都,国分寺市,東恋ヶ窪３丁目１０番地３国分寺北シティハウス５０１,,13,214,1850014,,,,,,,2022-06-14,1,,,,,アーカス,0
982,4020001146811,新規,0,2022-06-14,2022-06-14,株式会社Ｓａｋｕｒａ　Ｂｌｏｏｍ　Ｂｉｏ,,株式会社,神奈川県,横浜市神奈川区,金港町２番地１パークタワー横濱ポートサイド３０８号,,14,102,2210056,,,,,,,2022-06-14,1,,,,,サクラブルームバイオ,0
983,4020001146852,新規,0,2022-06-14,2022-06-14,株式会社ＡＺＵＳＡ企画,,株式会社,神奈川県,横浜市港北区,綱島東３丁目２番４０－２号エム１０１,,14,109,2230052,,,,,,,2022-06-14,1,,,,,アズサキカク,0
986,4021001076247,新規,0,2022-06-14,2022-06-14,株式会社藤沢ほんまち,,株式会社,神奈川県,藤沢市,本町３丁目１５番１６号,,14,205,2510053,,,,,,,2022-06-14,1,,,,,フジサワホンマチ,0
990,4021003011813,新規,0,2022-06-14,2022-06-14,いまどき合同会社,,合同会社,神奈川県,相模原市中央区,矢部４丁目２０―１０,,14,152,2520232,,,,,,,2022-06-14,1,,,,,イマドキ,0
991,4021003011821,新規,0,2022-06-14,2022-06-14,Ｓｙｎｋ合同会社,,合同会社,神奈川県,鎌倉市,笹目町４番３号,,14,204,2480015,,,,,,,2022-06-14,1,,,,,シンク,0
997,4030001148658,新規,0,2022-06-14,2022-06-14,株式会社Ｍｉｔｔｅ,,株式会社,埼玉県,北本市,東間６丁目７９番地４,,11,233,3640007,,,,,,,2022-06-14,1,,,,,ミッテ,0
998,4030001148674,新規,0,2022-06-14,2022-06-14,株式会社関東リサイクルセンター,,株式会社,埼玉県,さいたま市西区,大字島根２３１番地６,,11,101,3310054,,,,,,,2022-06-14,1,,,,,カントウリサイクルセンター,0
1002,4030003019592,新規,0,2022-06-14,2022-06-14,合同会社Ｐｈｏｅｎｉｘ,,合同会社,埼玉県,川越市,宮下町１丁目２番地３０,,11,201,3500052,,,,,,,2022-06-14,1,,,,,フェニックス,0
1010,4040001123800,新規,0,2022-06-14,2022-06-14,株式会社富士電工,,株式会社,千葉県,浦安市,富士見１丁目１６番１７号,,12,227,2790043,,,,,,,2022-06-14,1,,,,,フジデンコウ,0
1011,4040001123817,新規,0,2022-06-14,2022-06-14,株式会社ＡＫＤ商事,,株式会社,千葉県,八千代市,八千代台南１丁目１５番２号カサグランデ２０１号,,12,221,2760033,,,,,,,2022-06-14,1,,,,,エーケーディーショウジ,0
1023,4050003006614,新規,0,2022-06-14,2022-06-14,合同会社ＫＣＭ,,合同会社,茨城県,水戸市,桜川１丁目１番地１号５１０センチュリー水戸サウスゲートタワー,,08,201,3100801,,,,,,,2022-06-14,1,,,,,ケーシーエム,0
1030,4080403004561,新規,0,2022-06-14,2022-06-14,ＭＩＹＵＫＩ　ＪＡＶＡ　ＴＲＡＤＩＮＧ合同会社,,合同会社,静岡県,浜松市中区,海老塚１丁目５番２３号２Ｆ,,22,131,4328033,,,,,,,2022-06-14,1,,,,,ミユキジャバトレーディング,0
1031,4100001035436,新規,0,2022-06-14,2022-06-14,株式会社まるのびインプレーザ,,株式会社,長野県,須坂市,墨坂南３丁目２番１３号,,20,207,3820098,,,,,,,2022-06-14,1,,,,,マルノビインプレーザ,0
1033,4110003004792,新規,0,2022-06-14,2022-06-14,合同会社マチノちえこプラスワン,,合同会社,新潟県,新潟市秋葉区,新津本町２丁目１番２９号,,15,105,9560864,,,,,,,2022-06-14,1,,,,,マチノチエコプラスワン,0
1040,4120001246576,新規,0,2022-06-14,2022-06-14,株式会社厨設,,株式会社,大阪府,門真市,四宮６丁目１番６号,,27,223,5710017,,,,,,,2022-06-14,1,,,,,チュウセツ,0
1041,4120001246592,新規,0,2022-06-14,2022-06-14,株式会社Ｓｔｒｏｎｇ　Ｊａｐａｎ,,株式会社,大阪府,大阪市中央区,南新町１丁目２番４号,,27,128,5400024,,,,,,,2022-06-14,1,,,,,ストロングジャパン,0
1042,4120001246618,新規,0,2022-06-14,2022-06-14,株式会社長谷建設,,株式会社,大阪府,大阪市西区,九条１丁目２８番８－４１２号,,27,106,5500027,,,,,,,2022-06-14,1,,,,,ナガタニケンセツ,0
1043,4120001246626,新規,0,2022-06-14,2022-06-14,株式会社ＳＵＮＡＯ,,株式会社,大阪府,大阪市西区,北堀江１丁目６番２４号５０１号,,27,106,5500014,,,,,,,2022-06-14,1,,,,,スナオ,0
1044,4120001246634,新規,0,2022-06-14,2022-06-14,株式会社ｗｉＳｈ,,株式会社,大阪府,大阪市中央区,安堂寺町２丁目１番３－１３０１号,,27,128,5420061,,,,,,,2022-06-14,1,,,,,ウイッシュ,0
1045,4120001246642,新規,0,2022-06-14,2022-06-14,株式会社はくしん,,株式会社,大阪府,大阪市城東区,新喜多東１丁目８番４０－６０２号,,27,118,5360017,,,,,,,2022-06-14,1,,,,,ハクシン,0
1046,4120001246700,新規,0,2022-06-14,2022-06-14,コム株式会社,,株式会社,大阪府,大阪市西区,九条南２丁目１６番１３号九条南ビル３０２号室,,27,106,5500025,,,,,,,2022-06-14,1,,,,,コム,0
1052,4120003021878,新規,0,2022-06-14,2022-06-14,合同会社ＫＨサービス,,合同会社,大阪府,枚方市,長尾元町５丁目２番５号２階,,27,210,5730163,,,,,,,2022-06-14,1,,,,,ケーエイチサービス,0
1054,4120101065728,新規,0,2022-06-14,2022-06-14,株式会社タクショウ,,株式会社,大阪府,堺市西区,家原寺町２丁１２番１３号,,27,144,5938304,,,,,,,2022-06-14,1,,,,,タクショウ,0
1056,4122001035950,新規,0,2022-06-14,2022-06-14,株式会社Ｃａｓｔｌｉｎｇ,,株式会社,大阪府,四條畷市,岡山２丁目１番１０号,,27,229,5750002,,,,,,,2022-06-14,1,,,,,キャスリング,0
1057,4122003002354,新規,0,2022-06-14,2022-06-14,合同会社ＧｒａｃｅＣｏｎｖｅｒｔ,,合同会社,大阪府,八尾市,幸町３丁目１０９番地１号,,27,212,5810821,,,,,,,2022-06-14,1,,,,,グレースコンバート,0
1062,4130001071924,新規,0,2022-06-14,2022-06-14,株式会社芝田,,株式会社,京都府,舞鶴市,字吉野９１番地４,,26,202,6250003,,,,,,,2022-06-14,1,,,,,シバタ,0
1063,4130001071940,新規,0,2022-06-14,2022-06-14,株式会社ＶＩＸ,,株式会社,京都府,京都市西京区,桂坤町３２－２１,,26,111,6158084,,,,,,,2022-06-14,1,,,,,ビックス,0
1064,4130001071957,新規,0,2022-06-14,2022-06-14,株式会社一葦,,株式会社,京都府,京都市南区,東九条東岩本町１８番地第七松田荘７３号,,26,107,6018006,,,,,,,2022-06-14,1,,,,,イチヨシ,0
1067,4130003007991,新規,0,2022-06-14,2022-06-14,合同会社橘食品,,合同会社,京都府,京都市下京区,高辻通高倉東入泉正寺町４６５番地２たかくらビル１Ｆ,00126859,26,106,6008076,,,,,,,2022-06-14,1,,,,,タチバナショクヒン,0
1079,4150001025614,新規,0,2022-06-14,2022-06-14,天水株式会社,,株式会社,奈良県,奈良市,横井３丁目１７５番地２０３号室,,29,201,6308422,,,,,,,2022-06-14,1,,,,,テンスイ,0
1087,4180001151721,新規,0,2022-06-14,2022-06-14,株式会社ビューティーアンドヘルスデザイン,,株式会社,愛知県,名古屋市西区,名駅２丁目２７番１５号,,23,104,4510045,,,,,,,2022-06-14,1,,,,,ビューティーアンドヘルスデザイン,0
1091,4180005019799,新規,0,2022-06-14,2022-06-14,一般社団法人ファシアセラピスト協会,,その他の設立登記法人,愛知県,春日井市,高座町１９３０番地７９９,,23,206,4870012,,,,,,,2022-06-14,1,,,,,ファシアセラピストキョウカイ,0
1101,4200001040161,新規,0,2022-06-14,2022-06-14,株式会社ＰＡＧＵＥ　ＭＥＮＯＳ,,株式会社,岐阜県,美濃加茂市,山手町３丁目１０８番地,,21,211,5050036,,,,,,,2022-06-14,1,,,,,パギメノス,0
1105,4220001024906,新規,0,2022-06-14,2022-06-14,株式会社ｗａａａａ‐ａａｙ,,株式会社,石川県,金沢市,中村町３１番３２号,,17,201,9218022,,,,,,,2022-06-14,1,,,,,ウェーイ,0
1114,4240001059842,新規,0,2022-06-14,2022-06-14,トポラテジー株式会社,,株式会社,広島県,広島市安佐南区,東原３丁目２５－２６－１００２号,,34,105,7310112,,,,,,,2022-06-14,1,,,,,トポラテジー,0
1115,4240001059941,新規,0,2022-06-14,2022-06-14,株式会社ＯＮＥ　ＳＰＥＣ,,株式会社,広島県,東広島市,高屋町宮領１０３２番地１６４,,34,212,7392103,,,,,,,2022-06-14,1,,,,,ワンスペック,0
1118,4240003005662,新規,0,2022-06-14,2022-06-14,合同会社ＫＯＴＯＢＵＫＩＹＡ,,合同会社,広島県,広島市安佐北区,可部南５丁目３番１２号,,34,106,7310223,,,,,,,2022-06-14,1,,,,,コトブキヤ,0
1120,4250001019597,新規,0,2022-06-14,2022-06-14,ビーエックス株式会社,,株式会社,山口県,山口市,中園町４番４６号,,35,203,7530075,,,,,,,2022-06-14,1,,,,,ビーエックス,0
1121,4250003003095,新規,0,2022-06-14,2022-06-14,合同会社忠信堂,,合同会社,山口県,下関市,長府中土居本町３番２０－５０３号,,35,201,7520964,,,,,,,2022-06-14,1,,,,,チュウシンドウ,0
1125,4260001036930,新規,0,2022-06-14,2022-06-14,株式会社和,,株式会社,岡山県,真庭市,勝山５０番地１,,33,214,7170013,,,,,,,2022-06-14,1,,,,,ナゴム,0
1126,4260001036947,新規,0,2022-06-14,2022-06-14,スマイルイノベーション株式会社,,株式会社,岡山県,岡山市南区,彦崎２１０８－１,,33,104,7091213,,,,,,,2022-06-14,1,,,,,スマイルイノベーション,0
1127,4260001036955,新規,0,2022-06-14,2022-06-14,株式会社タツマル,,株式会社,岡山県,倉敷市,玉島長尾２４５番地６,,33,202,7100251,,,,,,,2022-06-14,1,,,,,タツマル,0
1129,4260003003945,新規,0,2022-06-14,2022-06-14,合同会社Ｆｏｒｅｓｔ　Ｔｏｗｎ,,合同会社,岡山県,倉敷市,西阿知町新田１３２番地９,,33,202,7100804,,,,,,,2022-06-14,1,,,,,フォレストタウン,0
1130,4290001097929,新規,0,2022-06-14,2022-06-14,株式会社ゑぐちＥＮＴＥＲＰＲＩＳＥ,,株式会社,福岡県,那珂川市,中原２丁目１３５番地ｅ企画那珂川１０１－Ａ,,40,231,8111213,,,,,,,2022-06-14,1,,,,,エグチエンタープライズ,0
1132,4290801028637,新規,0,2022-06-14,2022-06-14,株式会社Ｋ‐ＬＩＦＥ,,株式会社,福岡県,北九州市小倉南区,横代南町１丁目７番５号,,40,107,8020826,,,,,,,2022-06-14,1,,,,,ケーライフ,0
1134,4310003004384,新規,0,2022-06-14,2022-06-14,ｌｉｂｅｒｔａ合同会社,,合同会社,長崎県,佐世保市,下京町６番１５号ＹＹビル１階,,42,202,8570875,,,,,,,2022-06-14,1,,,,,リベルタ,0
1135,4320001019136,新規,0,2022-06-14,2022-06-14,株式会社ｓｉｒｕｓｕ,,株式会社,大分県,佐伯市,野岡町２丁目１３番１７号マルマツビル１Ｆ－３,,44,205,8760815,,,,,,,2022-06-14,1,,,,,シルス,0
1138,4320005010000,新規,0,2022-06-14,2022-06-14,一般社団法人ＫＩＩＳＡ,,その他の設立登記法人,大分県,佐伯市,大手町３丁目５－７,,44,205,8760831,,,,,,,2022-06-14,1,,,,,キーサ,0
1142,4340001024811,新規,0,2022-06-14,2022-06-14,株式会社岩崎,00126869,株式会社,鹿児島県,霧島市,国分福島２丁目１９番２０号,,46,218,8994322,,,,,,,2022-06-14,1,,,,,イワサキ,0
1143,4340003003821,新規,0,2022-06-14,2022-06-14,合同会社しげさん,,合同会社,鹿児島県,霧島市,国分敷根１２５７番地７,,46,218,8994462,,,,,,,2022-06-14,1,,,,,シゲサン,0
1144,4360001030510,新規,0,2022-06-14,2022-06-14,株式会社ユニバースコンストラクション,,株式会社,沖縄県,浦添市,牧港１丁目４７番２０号,,47,208,9012131,,,,,,,2022-06-14,1,,,,,ユニバースコンストラクション,0
1145,4360001030535,新規,0,2022-06-14,2022-06-14,株式会社マネージメントサービス,,株式会社,沖縄県,中頭郡読谷村,字伊良皆３４６番地,,47,324,9040303,,,,,,,2022-06-14,1,,,,,マネージメントサービス,0
1147,4370001048659,新規,0,2022-06-14,2022-06-14,株式会社テラス,,株式会社,宮城県,仙台市宮城野区,宮城野１丁目１２番１５号,,04,102,9830045,,,,,,,2022-06-14,1,,,,,テラス,0
1148,4370001048667,新規,0,2022-06-14,2022-06-14,株式会社Ｐａｉｎｔ　ＳＫＹ,,株式会社,宮城県,仙台市泉区,南光台南２丁目２３番２０‐１号,,04,105,9818002,,,,,,,2022-06-14,1,,,,,ペイントスカイ,0
1154,4380001032892,新規,0,2022-06-14,2022-06-14,株式会社拓建工業,,株式会社,福島県,いわき市,好間町上好間字洞３番地の３,,07,204,9701153,,,,,,,2022-06-14,1,,,,,タッケンコウギョウ,0
1166,4460305001981,新規,0,2022-06-14,2022-06-14,一般社団法人ネイチャーキャンパス宙,,その他の設立登記法人,北海道,網走郡美幌町,字仲町２丁目２１番地１,,01,543,0920004,,,,,,,2022-06-14,1,,,,,ネイチャーキャンパスソラ,0
1167,4470001019121,新規,0,2022-06-14,2022-06-14,株式会社ａｎｉｖｅｒｓ,,株式会社,香川県,高松市,木太町４５３番地１丸忠第１３ビル１０７,,37,201,7600080,,,,,,,2022-06-14,1,,,,,アニバース,0
1168,4470003002199,新規,0,2022-06-14,2022-06-14,合同会社カキノキ,,合同会社,香川県,丸亀市,中府町２丁目２番１６号,,37,202,7630033,,,,,,,2022-06-14,1,,,,,カキノキ,0
1175,4500003002848,新規,0,2022-06-14,2022-06-14,合同会社ＤＩＶＥ愛南,,合同会社,愛媛県,南宇和郡愛南町,外泊６７番地１,,38,506,7984208,,,,,,,2022-06-14,1,,,,,ダイブアイナン,0
1176,4700150109558,新規,0,2022-06-14,2022-06-14,仙台市愛子土地区画整理組合,,その他,宮城県,仙台市青葉区,下愛子字観音堂２２番地,,04,101,9893125,,,,,,,2022-06-14,1,,,,,センダイシアヤシトチクカクセイリクミアイ,0
1177,4700150109665,新規,0,2022-06-14,2022-06-14,華揚國際展覽有限公司,,外国会社等,東京都,港区,赤坂２丁目２３番１号アークヒルズ・フロントタワーＩｎＣｏｎｔｒｏｌ内,,13,103,1070052,台湾台北市松山區八徳路三段２３０號１３樓,00124730,,,,,2022-06-14,1,,,,,フワヤンコクサイテンランユウゲンコウシ,0
1178,4700150109707,新規,0,2022-06-14,2022-06-14,ＳＥＩＫＯ　ＣＡＲ　ＳＡＬＥ,,外国会社等,新潟県,妙高市,大字小濁７３１レンタルスペース２Ｆ－３,,15,217,9440221,スリランカ民主社会主義共和国、キャンディ、カトガストテ、ロード、２８０番,,,,,,2022-06-14,1,,,,,セイコカーセール,0
1199,5010001227272,新規,0,2022-06-14,2022-06-14,ＨＳＧ株式会社,,株式会社,東京都,千代田区,神田平河町１番地第３東ビル６階３２号室,,13,101,1010027,,,,,,,2022-06-14,1,,,,,エイチエスジー,0
1200,5010001227322,新規,0,2022-06-14,2022-06-14,株式会社ＤｅｌｔａＸ,,株式会社,東京都,中央区,銀座５丁目１３番１６号ヒューリック銀座イーストビル５階,,13,102,1040061,,,,,,,2022-06-14,1,,,,,デルタエックス,0
1201,5010003037884,新規,0,2022-06-14,2022-06-14,合同会社ＳｗｅｅｔＦａｒｍ,,合同会社,東京都,中央区,銀座７丁目１３番６号サガミビル２階,,13,102,1040061,,,,,,,2022-06-14,1,,,,,スウィートファーム,0
1208,5010401167878,新規,0,2022-06-14,2022-06-14,株式会社ＭＯＴＨＥＲ　ＮＡＴＵＲＥ,,株式会社,東京都,港区,北青山３丁目４－１,,13,103,1070061,,,,,,,2022-06-14,1,,,,,マザーネイチャー,0
1209,5010401167886,新規,0,2022-06-14,2022-06-14,ＢＣＰＢＲＡＩＮ株式会社,,株式会社,東京都,港区,芝５丁目３６番４号札の辻スクエア９階,,13,103,1080014,,,,,,,2022-06-14,1,,,,,ビーシーピーブレイン,0
1210,5010401167936,新規,0,2022-06-14,2022-06-14,株式会社ｃｏｎｏｃ,,株式会社,東京都,港区,南青山２丁目２番１５号ウィン青山９４２,,13,103,1070062,,,,,,,2022-06-14,1,,,,,コノック,0
1212,5010403027849,新規,0,2022-06-14,2022-06-14,ｓｏｚａｉ　ｌａｂｏｒａｔｏｒｙ合同会社,,合同会社,東京都,港区,南青山２丁目２番１５号,,13,103,1070062,,,,,,,2022-06-14,1,,,,,ソザイラボラトリー,0
1216,5010501048961,新規,0,2022-06-14,2022-06-14,株式会社櫻井管財,,株式会社,東京都,台東区,北上野２丁目２６番８号プレールドゥーク上野Ｎｏｒｔｈ２０２,,13,106,1100014,,,,,,,2022-06-14,1,,,,,サクライカンザイ,0
1225,5010701042814,新規,0,2022-06-14,2022-06-14,不二物産株式会社,,株式会社,東京都,品川区,上大崎４丁目６番１２号,,13,109,1410021,,,,,,,2022-06-14,1,,,,,フジブッサン,0
1247,5011303004442,新規,0,2022-06-14,2022-06-14,合同会社ゴールドレジデンス東京,,合同会社,東京都,杉並区,和泉４丁目１９番１号グレイスコート２０６号,,13,115,1680063,,,,,,,2022-06-14,1,,,,,ゴールドレジデンストウキョウ,0
1249,5011401024318,新規,0,2022-06-14,2022-06-14,株式会社ｒｅ・ｓｔｏｒｅ,,株式会社,東京都,板橋区,大谷口北町８６番７－１０５号,,13,119,1730031,,,,,,,2022-06-14,1,,,,,リストア,0
1250,5011401024326,新規,0,2022-06-14,2022-06-14,津鴻株式会社,,株式会社,東京都,板橋区,赤塚２丁目２６－３－３０３号,,13,119,1750092,,,,,,,2022-06-14,1,,,,,ジンホン,0
1253,5011505002475,新規,0,2022-06-14,2022-06-14,一般社団法人日本文化大衆演劇協会,,その他の設立登記法人,東京都,北区,中十条２丁目１７番６号,,13,117,1140032,,,,,,,2022-06-14,1,,,,,ニッポンブンカタイシュウエンゲキキョウカイ,0
1254,5011601026031,新規,0,2022-06-14,2022-06-14,株式会社マッドブル,,株式会社,東京都,練馬区,桜台１丁目３４番１９号,,13,120,1760002,,,,,,,2022-06-14,1,,,,,マッドブル,0
1259,5011801040815,新規,0,2022-06-14,2022-06-14,グリーンコネックホールディングス株式会社,,株式会社,東京都,葛飾区,柴又１丁目１６番１２号,,13,122,1250052,,,,,,,2022-06-14,1,,,,,グリーンコネックホールディングス,0
1267,5013103001140,新規,0,2022-06-14,2022-06-14,合同会社もりほっと,,合同会社,東京都,青梅市,小曾木５丁目３１７５番地の３,,13,205,1980003,,,,,,,2022-06-14,1,,,,,モリホット,0
1273,5013301049238,新規,0,2022-06-14,2022-06-14,フォーシーザー株式会社,,株式会社,東京都,豊島区,高松１丁目１３－６－１０２室,,13,116,1710042,,,,,,,2022-06-14,1,,,,,フォーシーザー,0
1279,5020001146876,新規,0,2022-06-14,2022-06-14,ルル・トランズ株式会社,,株式会社,神奈川県,横浜市都筑区,池辺町２４２４番地１ハイツアイランド２０２号室,,14,118,2240053,,,,,,,2022-06-14,1,,,,,ルルトランズ,0
1281,5020003021912,新規,0,2022-06-14,2022-06-14,ＦＵＴＡＧＯ合同会社,,合同会社,神奈川県,横浜市港北区,日吉７丁目１２番３号２０３,,14,109,2230061,,,,,,,2022-06-14,1,,,,,フタゴ,0
1290,5030001148582,新規,0,2022-06-14,2022-06-14,株式会社Ｌｉｋｎｏｗｌｅｄｇｅ,,株式会社,埼玉県,所沢市,美原町２丁目２９４１番地の２９,,11,208,3590045,,,,,,,2022-06-14,1,,,,,リナレッジ,0
1291,5030001148640,新規,0,2022-06-14,2022-06-14,株式会社ティー・アップコーポレーション,,株式会社,埼玉県,川越市,大字伊佐沼４４番地６,,11,201,3500855,,,,,,,2022-06-14,1,,,,,ティーアップコーポレーション,0
1292,5030001148665,新規,0,2022-06-14,2022-06-14,株式会社ＪＯＹ,,株式会社,埼玉県,川口市,柳崎２丁目９番３号,,11,203,3330861,,,,,,,2022-06-14,1,,,,,ジョイ,0
1293,5040001123799,新規,0,2022-06-14,2022-06-14,株式会社グラン・シャトー,,株式会社,千葉県,市川市,新井１丁目１９番３７号（エルソレイユ１０３号）,,12,203,2720144,,,,,,,2022-06-14,1,,,,,グランシャトー,0
1298,5050001051231,新規,0,2022-06-14,2022-06-14,株式会社アイプレッション,,株式会社,茨城県,筑西市,下江連１２８１番地２２,,08,227,3080851,,,,,,,2022-06-14,1,,,,,アイプレッション,0
1302,5050003006613,新規,0,2022-06-14,2022-06-14,合同会社まうむ,,合同会社,茨城県,桜川市,西飯岡５８０番地６,,08,231,3091221,,,,,,,2022-06-14,1,,,,,マウム,0
1307,5080001025018,新規,0,2022-06-14,2022-06-14,株式会社ミュージックランド山口楽器,,株式会社,静岡県,静岡市清水区,銀座１４番１４号,,22,103,4240817,,,,,,,2022-06-14,1,,,,,ミュージックランドヤマグチガッキ,0
1311,5080401025880,新規,0,2022-06-14,2022-06-14,ＧＲＥＥＮ　ＯＦＦＳＨＯＲＥ株式会社,,株式会社,静岡県,浜松市中区,鍛冶町３１９番地の３０中村ビル２Ｆ,,22,131,4300933,,,,,,,2022-06-14,1,,,,,グリーンオフショア,0
1317,5110001036746,新規,0,2022-06-14,2022-06-14,株式会社ＴＯＴＡＬ　ＣＲＥＡＴＩＯＮ,,株式会社,新潟県,新潟市東区,紫竹４丁目２０番２０号,,15,102,9500864,,,,,,,2022-06-14,1,,,,,トータルクリエイション,0
1320,5110005016819,新規,0,2022-06-14,2022-06-14,一般社団法人ＯＩＶ登録品種協議会,,その他の設立登記法人,新潟県,上越市,大字北方１２２３番地,,15,222,9430412,,,,,,,2022-06-14,1,,,,,オーアイブイトウロクヒンシュキョウギカイ,0
1335,5120001246526,新規,0,2022-06-14,2022-06-14,株式会社Ｓｋｙ‐ＨＲ,,株式会社,大阪府,大阪市中央区,安土町２丁目５－５,,27,128,5410052,,,,,,,2022-06-14,1,,,,,スカイエイチアール,0
1336,5120001246583,新規,0,2022-06-14,2022-06-14,株式会社ＫＣ＆Ｉ,,株式会社,大阪府,大阪市中央区,東高麗橋２番３３－１３０５号,,27,128,5400039,,,,,,,2022-06-14,1,,,,,ケーシーアンドアイ,0
1337,5120001246600,新規,0,2022-06-14,2022-06-14,株式会社ライゼクリエーション,,株式会社,大阪府,大阪市東淀川区,東中島１丁目１４番１号シティハイム新大阪５０８号,,27,114,5330033,,,,,,,2022-06-14,1,,,,,ライゼクリエーション,0
1338,5120001246609,新規,0,2022-06-14,2022-06-14,株式会社ジョイプレス,,株式会社,大阪府,大阪市西淀川区,福町２丁目３－２８,,27,113,5550034,,,,,,,2022-06-14,1,,,,,ジョイプレス,0
1339,5120001246617,新規,0,2022-06-14,2022-06-14,株式会社フィジオスタジオ,,株式会社,大阪府,大阪市阿倍野区,阪南町５丁目１７番２６号,,27,119,5450021,,,,,,,2022-06-14,1,,,,,フィジオスタジオ,0
1340,5120001246625,新規,0,2022-06-14,2022-06-14,株式会社ＬＲ,,株式会社,大阪府,大阪市北区,大淀中５丁目９番１１－１０１号,,27,127,5310076,,,,,,,2022-06-14,1,,,,,エルアール,0
1341,5120001246633,新規,0,2022-06-14,2022-06-14,ｍａｉｈｉｍｅ株式会社,,株式会社,大阪府,大阪市浪速区,桜川１丁目７番３号,,27,111,5560022,,,,,,,2022-06-14,1,,,,,マイヒメ,0
1342,5120001246641,新規,0,2022-06-14,2022-06-14,株式会社スマートファイナンス,,株式会社,大阪府,大阪市中央区,安堂寺町２丁目１番１５号ＴＫビル３０１号室,,27,128,5420061,,,,,,,2022-06-14,1,,,,,スマートファイナンス,0
1343,5120001246666,新規,0,2022-06-14,2022-06-14,Ｈｙｐｅｒｉｏｎ株式会社,,株式会社,大阪府,大阪市北区,曾根崎新地１丁目１０番２号北新地プレイス６－Ａ,,27,127,5300002,,,,,,,2022-06-14,1,,,,,ハイペリオン,0
1345,5120003021852,新規,0,2022-06-14,2022-06-14,合同会社ＴＨＥ　ＯＬＤＥＳＴ１,,合同会社,大阪府,大阪市西成区,橘３丁目１５－１５－２階,,27,122,5570051,,,,,,,2022-06-14,1,,,,,ザオールデストワン,0
1346,5120003021860,新規,0,2022-06-14,2022-06-14,合同会社Ａ‐ＳＴＹＬＥ,,合同会社,大阪府,守口市,河原町１０番１５－１１５号テルプラザ内,,27,209,5700038,,,,,,,2022-06-14,1,,,,,エースタイル,0
1347,5120003021877,新規,0,2022-06-14,2022-06-14,合同会社サニールーム,,合同会社,大阪府,大阪市住之江区,浜口西１丁目１３番１５号,,27,125,5590006,,,,,,,2022-06-14,1,,,,,サニールーム,0
1352,5120101065751,新規,0,2022-06-14,2022-06-14,Ｍｉｔａｓｕ株式会社,,株式会社,大阪府,堺市西区,鳳南町１丁２番地２アーバンプラザイースト３号,,27,144,5938325,,,,,,,2022-06-14,1,,,,,ミタス,0
1353,5120105009572,新規,0,2022-06-14,2022-06-14,特定非営利活動法人ｅｎジョブ,,その他の設立登記法人,大阪府,泉南市,信達牧野２３５番地の２７,,27,228,5900522,,,,,,,2022-06-14,1,,,,,エンジョブ,0
1354,5120901046100,新規,0,2022-06-14,2022-06-14,Ｓ・Ｔ不動産株式会社,,株式会社,大阪府,豊中市,岡上の町４丁目３番２号,,27,203,5600023,,,,,,,2022-06-14,1,,,,,エスティーフドウサン,0
1359,5130001071997,新規,0,2022-06-14,2022-06-14,株式会社白地図,,株式会社,京都府,京都市中京区,丸太町通室町東入常真横町１９０番地５,,26,104,6040867,,,,,,,2022-06-14,1,,,,,ハクチズ,0
1371,5140003017717,新規,0,2022-06-14,2022-06-14,合同会社Ａｎ‐ｂｌｏｏｍ,,合同会社,兵庫県,豊岡市,高屋１０８１番地の７,,28,209,6680064,,,,,,,2022-06-14,1,,,,,アンブルーム,0
1372,5140003017799,新規,0,2022-06-14,2022-06-14,合同会社中塚建築,,合同会社,兵庫県,姫路市,安富町末広８７２－１,,28,201,6712413,,,,,,,2022-06-14,1,,,,,ナカツカケンチク,0
1375,5150001025613,新規,0,2022-06-14,2022-06-14,君鴻株式会社,,株式会社,奈良県,奈良市,横井３丁目１７５番地２０４号室,,29,201,6308422,,,,,,,2022-06-14,1,,,,,クンコウ,0
1391,5180001151679,新規,0,2022-06-14,2022-06-14,株式会社ＳＴＡＲＴ　ＩＴ　ＡＧＡＩＮエンターテインメント,,株式会社,愛知県,名古屋市西区,幅下２丁目２０番１５号,,23,104,4510041,,,,,,,2022-06-14,1,,,,,スタートイットアゲインエンターテインメント,0
1392,5180001151729,新規,0,2022-06-14,2022-06-14,株式会社ウェーブコンサル,,株式会社,愛知県,名古屋市守山区,新守山２９０７番地,,23,113,4630070,,,,,,,2022-06-14,1,,,,,ウェーブコンサル,0
1393,5180001151786,新規,0,2022-06-14,2022-06-14,ＺＡＭＡ　ＩＮＴＥＲ株式会社,,株式会社,愛知県,海部郡飛島村,大字三福３丁目７５番地の１,,23,427,4901432,,,,,,,2022-06-14,1,,,,,ザマインター,0
1410,5200001040169,新規,0,2022-06-14,2022-06-14,ＫＷＳ株式会社,,株式会社,岐阜県,岐阜市,須賀３丁目１６番１７号,,21,201,5008289,,,,,,,2022-06-14,1,,,,,ケイダブリューエス,0
1417,5220001024905,新規,0,2022-06-14,2022-06-14,株式会社暮らしエステート,,株式会社,石川県,河北郡内灘町,字鶴ケ丘２丁目１６１番地１,,17,365,9200271,,,,,,,2022-06-14,1,,,,,クラシエステート,0
1421,5240003005661,新規,0,2022-06-14,2022-06-14,ミコクラース合同会社,,合同会社,広島県,広島市東区,光町２丁目３番７－９０３号,,34,102,7320052,,,,,,,2022-06-14,1,,,,,ミコクラース,0
1423,5240005015411,新規,0,2022-06-14,2022-06-14,一般社団法人旧舞のとびら,,その他の設立登記法人,広島県,安芸郡府中町,鶴江２丁目１４－２０鶴江ビル２０５号,,34,302,7350008,,,,,,,2022-06-14,1,,,,,キュウマイノトビラ,0
1424,5250003003094,新規,0,2022-06-14,2022-06-14,合同会社Ｂｅｎｅｔａｓ,,合同会社,山口県,宇部市,大字東岐波１１９６番地７６,,35,202,7550241,,,,,,,2022-06-14,1,,,,,ベェネタス,0
1426,5260001036946,新規,0,2022-06-14,2022-06-14,株式会社サンワメンテナンス岡山,,株式会社,岡山県,玉野市,和田４丁目４番８号,,33,204,7060021,,,,,,,2022-06-14,1,,,,,,0
1432,5290001097944,新規,0,2022-06-14,2022-06-14,株式会社エクセレント・ロジ,,株式会社,福岡県,筑後市,大字長崎３４９番地１　２Ｆ,,40,211,8330042,,,,,,,2022-06-14,1,,,,,エクセレントロジ,0
1436,5290801028636,新規,0,2022-06-14,2022-06-14,株式会社勝香,,株式会社,福岡県,直方市,大字下境４１７６番地５,,40,204,8220007,,,,,,,2022-06-14,1,,,,,ショウカ,0
1439,5310001017908,新規,0,2022-06-14,2022-06-14,株式会社アイネスト設計,,株式会社,長崎県,諫早市,貝津町１７２８番地１３,,42,204,8540063,,,,,,,2022-06-14,1,,,,,アイネストセッケイ,0
1442,5320001019135,新規,0,2022-06-14,2022-06-14,株式会社エムゼック,,株式会社,大分県,大分市,森町西１丁目２番１６号,,44,201,8700140,,,,,,,2022-06-14,1,,,,,エムゼック,0
1444,5320003003830,新規,0,2022-06-14,2022-06-14,合同会社環,,合同会社,大分県,佐伯市,大字鶴望２２９８番地３,,44,205,8760012,,,,,,,2022-06-14,1,,,,,タマキ,0
1447,5340001024810,新規,0,2022-06-14,2022-06-14,株式会社大隅工建,,株式会社,鹿児島県,鹿屋市,笠之原町２１８２番地１,,46,203,8930023,,,,,,,2022-06-14,1,,,,,オオスミコウケン,0
1452,5360001030567,新規,0,2022-06-14,2022-06-14,てぃーち株式会社,,株式会社,沖縄県,糸満市,字潮平６００番地の１２知名ハイツ１０１,,47,210,9010302,,,,,,,2022-06-14,1,,,,,ティーチ,0
1454,5360005006670,新規,0,2022-06-14,2022-06-14,一般社団法人沖縄個人事業主相互支援協会,,その他の設立登記法人,沖縄県,沖縄市,美里１丁目４番地６号,,47,211,9042153,,,,,,,2022-06-14,1,,,,,オキナワコジンジギョウヌシソウゴシエンキョウカイ,0
1455,5370001048666,新規,0,2022-06-14,2022-06-14,株式会社ｍａｉｍｉｃｏ,,株式会社,宮城県,仙台市青葉区,小田原４丁目８番８号,,04,101,9800003,,,,,,,2022-06-14,1,,,,,マイミコ,0
1456,5370001048674,新規,0,2022-06-14,2022-06-14,株式会社グラバーコンサルティング,,株式会社,宮城県,仙台市宮城野区,榴岡１丁目６番２２号美徳五番館２階,,04,102,9830852,,,,,,,2022-06-14,1,,,,,グラバーコンサルティング,0
1466,5430001086833,新規,0,2022-06-14,2022-06-14,株式会社ふくじん,,株式会社,北海道,札幌市豊平区,平岸一条２丁目５番８号,,01,105,0620931,,,,,,,2022-06-14,1,,,,,フクジン,0
1477,5500001024273,新規,0,2022-06-14,2022-06-14,株式会社西条プロジェクト,,株式会社,愛媛県,西条市,玉津５５８番地２,,38,206,7930001,,,,,,,2022-06-14,1,,,,,サイジョウプロジェクト,0
1480,5700150109557,新規,0,2022-06-14,2022-06-14,アンバサダー麻布マンション敷地売却組合,,その他,東京都,新宿区,神楽坂１丁目１株式会社シティコンサルタンツ内,,13,104,1620825,,,,,,,2022-06-14,1,,,,,アンバサダーアザブマンシヨンシキチバイキヤククミアイ,0
1481,5700150109706,新規,0,2022-06-14,2022-06-14,Ｍ．Ｒ．Ｓ．ＥＮＴＥＲＰＲＩＳＥＳ,,外国会社等,新潟県,妙高市,大字小濁７３１レンタルスペース１Ｆ－５,,15,217,9440221,スリランカ民主社会主義共和国、キャンデイ、ウダタラウィンナ、ウダタラウィンナ、マデイゲ、９／１番,,,,,,2022-06-14,1,,,,,エムアルエスエンタープライセス,0
1488,6010001227255,新規,0,2022-06-14,2022-06-14,株式会社ｗｉｓｄｏｍａｓｉａ１,,株式会社,東京都,文京区,本駒込２丁目２７番１８－８０１号,,13,105,1130021,,,,,,,2022-06-14,1,,,,,ウィツダムアジアイチ,0
1489,6010001227288,新規,0,2022-06-14,2022-06-14,株式会社アクイン,,株式会社,東京都,中央区,日本橋小舟町１番６号,,13,102,1030024,,,,,,,2022-06-14,1,,,,,アクイン,0
1490,6010001227313,新規,0,2022-06-14,2022-06-14,日本櫻愛綜研株式会社,,株式会社,東京都,中央区,日本橋蛎殻町１丁目３－５共同ビル２階２３号,,13,102,1030014,,,,,,,2022-06-14,1,,,,,ニホンオウアイソウケン,0
1491,6010001227321,新規,0,2022-06-14,2022-06-14,ＣＨＥＭＩＣＡＬＩＮＫ株式会社,,株式会社,東京都,千代田区,神田小川町２丁目６番地３,,13,101,1010052,,,,,,,2022-06-14,1,,,,,ケミカリンク,0
1495,6010003037867,新規,0,2022-06-14,2022-06-14,ＣＯＴＯＮＡ　Ｃｏｎｓｕｌｔｉｎｇ合同会社,,合同会社,東京都,中央区,銀座１丁目１２－４Ｎ＆Ｅ・ＢＬＤ．７階,,13,102,1040061,,,,,,,2022-06-14,1,,,,,コトナコンサルティング,0
1496,6010003037883,新規,0,2022-06-14,2022-06-14,Ｓ．ｐｌａｉｓｉｒ合同会社,,合同会社,東京都,千代田区,六番町６番地４ＬＨ番町スクエア５Ｆ,,13,101,1020085,,,,,,,2022-06-14,1,,,,,エスプレジール,0
1497,6010005035134,新規,0,2022-06-14,2022-06-14,一般社団法人Ｅ‐パートナーズ,,その他の設立登記法人,東京都,千代田区,神田駿河台３丁目１番１号大雅ビル７階,,13,101,1010062,,,,,,,2022-06-14,1,,,,,イーパートナーズ,0
1500,6010401167902,新規,0,2022-06-14,2022-06-14,株式会社サステ,,株式会社,東京都,港区,六本木４丁目３番１１－３１９号,,13,103,1060032,,,,,,,2022-06-14,1,,,,,サステ,0
1501,6010401167935,新規,0,2022-06-14,2022-06-14,株式会社Ｆｉｔ　ｏｎ,,株式会社,東京都,港区,赤坂９丁目１番７－９０１号,,13,103,1070052,,,,,,,2022-06-14,1,,,,,フィットオン,0
1502,6010401167951,新規,0,2022-06-14,2022-06-14,株式会社オルタスジャパンホールディングス,,株式会社,東京都,港区,赤坂３丁目１０番２号赤坂コマースビル７Ｆ,,13,103,1070052,,,,,,,2022-06-14,1,,,,,オルタスジャパンホールディングス,0
1508,6010701042805,新規,0,2022-06-14,2022-06-14,株式会社東京カンテイビジネスサービス,,株式会社,東京都,品川区,上大崎３丁目８番３号,,13,109,1410021,,,,,,,2022-06-14,1,,,,,トウキョウカンテイビジネスサービス,0
1509,6010701042813,新規,0,2022-06-14,2022-06-14,株式会社Ｏｏａｋ,,株式会社,東京都,品川区,戸越５丁目１８番７号４階,,13,109,1420041,,,,,,,2022-06-14,1,,,,,オーク,0
1512,6010903007449,新規,0,2022-06-14,2022-06-14,合同会社さっし,,合同会社,東京都,世田谷区,代沢２丁目２５－８代沢ウエスト１０７,,13,112,1550032,,,,,,,2022-06-14,1,,,,,サッシ,0
1519,6011001148037,新規,0,2022-06-14,2022-06-14,株式会社ｃｏｒａｇｇｉｏ,,株式会社,東京都,渋谷区,神泉町１０－１５アネックス神泉７０２,,13,113,1500045,,,,,,,2022-06-14,1,,,,,コラッジョ,0
1520,6011003014848,新規,0,2022-06-14,2022-06-14,合同会社ＫＡＫＩＡＧＥ,,合同会社,東京都,目黒区,中町２丁目４８番９－６０２号クオリア目黒祐天寺,,13,110,1530065,,,,,,,2022-06-14,1,,,,,カキアゲ,0
1521,6011003014856,新規,0,2022-06-14,2022-06-14,オイロバ＆パートナーズ合同会社,,合同会社,東京都,渋谷区,渋谷１丁目１番３号アミーホール５階,,13,113,1500002,,,,,,,2022-06-14,1,,,,,オイロバアンドパートナーズ,0
1531,6011303004441,新規,0,2022-06-14,2022-06-14,ｔｈｅ　ｃｌｕｂｒｏｏｍｓ合同会社,,合同会社,東京都,杉並区,桃井１丁目３５－１７,,13,115,1670034,,,,,,,2022-06-14,1,,,,,ザクラブルームズ,0
1535,6011401024317,新規,0,2022-06-14,2022-06-14,株式会社鹿,,株式会社,東京都,板橋区,大谷口２丁目２０番１号,,13,119,1730035,,,,,,,2022-06-14,1,,,,,シカ,0
1540,6011501028143,新規,0,2022-06-14,2022-06-14,ＨＡＭＡ開発株式会社,,株式会社,東京都,北区,赤羽２丁目６９番４号ヴェルメゾン赤羽９０３,,13,117,1150045,,,,,,,2022-06-14,1,,,,,ハマカイハツ,0
1541,6011603003614,新規,0,2022-06-14,2022-06-14,合同会社ステアー,,合同会社,東京都,練馬区,南田中２丁目１７番１１号Ｇｒｅｅｎ・Ｖｉｌｌａ２０１,,13,120,1770035,,,,,,,2022-06-14,1,,,,,ステアー,0
1548,6012801021647,新規,0,2022-06-14,2022-06-14,株式会社雷・音,,株式会社,東京都,昭島市,朝日町２丁目４番６－１５号,,13,207,1960025,,,,,,,2022-06-14,1,,,,,ライオン,0
1549,6013101008946,新規,0,2022-06-14,2022-06-14,丸吉工業株式会社,,株式会社,東京都,あきる野市,小和田１４１番地,,13,228,1900151,,,,,,,2022-06-14,1,,,,,マルヨシコウギョウ,0
1555,6013301049237,新規,0,2022-06-14,2022-06-14,株式会社グリーファ,,株式会社,東京都,豊島区,東池袋５丁目７番３号リードシー東池袋ビル２Ｆ,,13,116,1700013,,,,,,,2022-06-14,1,,,,,グリーファ,0
1558,6020001146883,新規,0,2022-06-14,2022-06-14,幸庄ハウス株式会社,,株式会社,神奈川県,川崎市幸区,幸町１丁目７４３番地,,14,132,2120011,,,,,,,2022-06-14,1,,,,,コウショウハウス,0
1559,6020001146909,新規,0,2022-06-14,2022-06-14,株式会社ＡＴＴＳ,,株式会社,神奈川県,川崎市多摩区,枡形３丁目６番５－４０３号,,14,135,2140032,,,,,,,2022-06-14,1,,,,,エーティティエス,0
1561,6020003021878,新規,0,2022-06-14,2022-06-14,ＡＩＲＩＳＨＵ合同会社,,合同会社,神奈川県,川崎市高津区,末長３丁目２－７－６０３号ＢＥＬＩＳＴＡ溝の口,,14,134,2130013,,,,,,,2022-06-14,1,,,,,アイリッシュ,0
1569,6021001076220,新規,0,2022-06-14,2022-06-14,日本シーエイダブリュウ株式会社,,株式会社,神奈川県,横須賀市,芦名２丁目１番９号Ａ１－２,,14,201,2400104,,,,,,,2022-06-14,1,,,,,ニホンシーエイダブリュウ,0
1570,6021001076229,新規,0,2022-06-14,2022-06-14,Ｉ‐Ｃｌａｒｉｔｙ株式会社,,株式会社,神奈川県,小田原市,栄町３丁目１１番２２号,,14,206,2500011,,,,,,,2022-06-14,1,,,,,アイクラリティ,0
1582,6030001148672,新規,0,2022-06-14,2022-06-14,株式会社ＴＡＫＵＭＩ,,株式会社,埼玉県,川口市,大字赤井１３１３番地の４５,,11,203,3340073,,,,,,,2022-06-14,1,,,,,タクミ,0
1586,6030003019590,新規,0,2022-06-14,2022-06-14,合同会社ＶＡＬＯ,,合同会社,埼玉県,川越市,豊田町２丁目１０番地２９,,11,201,3501110,,,,,,,2022-06-14,1,,,,,バロ,0
1590,6040001123807,新規,0,2022-06-14,2022-06-14,株式会社ＤＣコネクト,,株式会社,千葉県,船橋市,習志野台５丁目４番６号グラシア北習志野Ｂ,,12,204,2740063,,,,,,,2022-06-14,1,,,,,ディーシーコネクト,0
1591,6040001123823,新規,0,2022-06-14,2022-06-14,ＭＺＥＱ株式会社,,株式会社,千葉県,千葉市中央区,蘇我３丁目３２番３７号,,12,101,2600822,,,,,,,2022-06-14,1,,,,,エムゼック,0
1592,6040001123864,新規,0,2022-06-14,2022-06-14,株式会社ゴールデンフラワー,,株式会社,千葉県,市原市,古市場６２１番地,,12,219,2900008,,,,,,,2022-06-14,1,,,,,ゴールデンフラワー,0
1595,6040003020226,新規,0,2022-06-14,2022-06-14,Ｔ．Ｇ．アセット合同会社,,合同会社,千葉県,千葉市中央区,宮崎１丁目１８番３４号,,12,101,2600806,,,,,,,2022-06-14,1,,,,,ティージーアセット,0
1596,6040003020234,新規,0,2022-06-14,2022-06-14,合同会社Ｈａｎｄ,,合同会社,千葉県,千葉市花見川区,犢橋町１６０５番地９,,12,102,2620013,,,,,,,2022-06-14,1,,,,,ハンド,0
1601,6050001051239,新規,0,2022-06-14,2022-06-14,シケン工業株式会社,,株式会社,茨城県,水戸市,元吉田町２２６６番地２,,08,201,3100836,,,,,,,2022-06-14,1,,,,,シケンコウギョウ,0
1603,6050003006620,新規,0,2022-06-14,2022-06-14,アカシックグルーヴ合同会社,,合同会社,茨城県,守谷市,松前台７丁目２１－１６,,08,224,3020102,,,,,,,2022-06-14,1,,,,,アカシックグルーヴ,0
1608,6060001034969,新規,0,2022-06-14,2022-06-14,株式会社Ｐｒｏｍｉｓｅ　Ｔｒａｄｉｎｇ,,株式会社,栃木県,河内郡上三川町,大字東汗１０５５番地,,09,301,3290602,,,,,,,2022-06-14,1,,,,,プロミストレーディング,0
1618,6100001035434,新規,0,2022-06-14,2022-06-14,信州地域エネルギー株式会社,,株式会社,長野県,上田市,常田３丁目１５－１信州大学繊維学部ＡＲＥＣ内,,20,203,3860018,,,,,,,2022-06-14,1,,,,,シンシュウチイキエネルギー,0
1636,6120001246624,新規,0,2022-06-14,2022-06-14,株式会社ＯＳテック,,株式会社,大阪府,大阪市西区,境川１丁目５番１４号,,27,106,5500024,,,,,,,2022-06-14,1,,,,,オーエステック,0
1637,6120001246632,新規,0,2022-06-14,2022-06-14,株式会社価値を未来に,,株式会社,大阪府,大阪市北区,梅田１丁目２番２－２００号大阪駅前第２ビル２階３の１の２,,27,127,5300001,,,,,,,2022-06-14,1,,,,,カチヲミライニ,0
1638,6120001246640,新規,0,2022-06-14,2022-06-14,株式会社オゥルシード,,株式会社,大阪府,大阪市西淀川区,大野２丁目４番６号,,27,113,5550043,,,,,,,2022-06-14,1,,,,,オゥルシード,0
1639,6120001246665,新規,0,2022-06-14,2022-06-14,エストクリエイション株式会社,,株式会社,大阪府,門真市,沖町１５番１２号,,27,223,5710022,,,,,,,2022-06-14,1,,,,,エストクリエイション,0
1642,6120003021851,新規,0,2022-06-14,2022-06-14,Ｓｋｙｉｎｇ合同会社,,合同会社,大阪府,大阪市都島区,片町１丁目２－９－２０２,,27,102,5340025,,,,,,,2022-06-14,1,,,,,スカイング,0
1643,6120003021876,新規,0,2022-06-14,2022-06-14,合同会社南畑商事,,合同会社,大阪府,寝屋川市,高柳４丁目４番８－２号,,27,215,5720051,,,,,,,2022-06-14,1,,,,,ミナミハタショウジ,0
1658,6130001071947,新規,0,2022-06-14,2022-06-14,Ｊ　ＴＥＣＨ株式会社,,株式会社,京都府,久世郡久御山町,森川端８７番地１－１０４,,26,322,6130024,,,,,,,2022-06-14,1,,,,,ジェイテック,0
1659,6130001071963,新規,0,2022-06-14,2022-06-14,株式会社ベルテクノエンジニアリング,,株式会社,京都府,亀岡市,東別院町南掛南山２００番地１,,26,206,6210111,,,,,,,2022-06-14,1,,,,,ベルテクノエンジニアリング,0
1660,6130001071996,新規,0,2022-06-14,2022-06-14,株式会社ＲＳホーム,,株式会社,京都府,京都市北区,衣笠西馬場町３８番地２,,26,101,6038366,,,,,,,2022-06-14,1,,,,,アールエスホーム,0
1661,6130003007973,新規,0,2022-06-14,2022-06-14,ＯＳＣＡＡＲ　ＭＯＵＬＩＧＮＥ合同会社,,合同会社,京都府,京都市北区,紫野東野町１番地,,26,101,6038232,,,,,,,2022-06-14,1,,,,,オスカームリーン,0
1667,6140001126329,新規,0,2022-06-14,2022-06-14,株式会社大志機工,,株式会社,兵庫県,高砂市,米田町米田９６番地の１,,28,216,6760805,,,,,,,2022-06-14,1,,,,,タイシキコウ,0
1672,6150001025612,新規,0,2022-06-14,2022-06-14,株式会社小山華園,00126858,株式会社,奈良県,葛城市,辨之庄１５６番地６,,29,211,6392141,,,,,,,2022-06-14,1,,,,,コヤマカエン,0
1675,6170001017153,新規,0,2022-06-14,2022-06-14,株式会社ラソワ,,株式会社,和歌山県,橋本市,東家５丁目３－１２林ビル３Ｆ,,30,203,6480072,,,,,,,2022-06-14,1,,,,,ラソワ,0
1685,6180001151686,新規,0,2022-06-14,2022-06-14,リジットエンジニアリング株式会社,,株式会社,愛知県,犬山市,字藪畔２４番地２２,,23,215,4840865,,,,,,,2022-06-14,1,,,,,リジットエンジニアリング,0
1686,6180001151703,新規,0,2022-06-14,2022-06-14,株式会社ｒｉｚ,,株式会社,愛知県,名古屋市中区,大須１丁目７番１４号,,23,106,4600011,,,,,,,2022-06-14,1,,,,,リズ,0
1687,6180001151728,新規,0,2022-06-14,2022-06-14,株式会社アマノテックス,,株式会社,愛知県,名古屋市港区,小碓２丁目２２０番地－１０１号,,23,111,4550801,,,,,,,2022-06-14,1,,,,,アマノテックス,0
1688,6180001151736,新規,0,2022-06-14,2022-06-14,株式会社ＴＨＡＮＫ,,株式会社,愛知県,名古屋市天白区,一本松１丁目１２０９番地,,23,116,4680008,,,,,,,2022-06-14,1,,,,,サンク,0
1689,6180001151760,新規,0,2022-06-14,2022-06-14,ＮＥＷ　ＡＧＥ株式会社,,株式会社,愛知県,名古屋市港区,福田１丁目１１１８番地グランディールＤ棟１０２号,,23,111,4550887,,,,,,,2022-06-14,1,,,,,ニューエイジ,0
1690,6180001151777,新規,0,2022-06-14,2022-06-14,株式会社ＩＲＵＤＡ,,株式会社,愛知県,名古屋市名東区,上菅２丁目１００４番地の６,,23,115,4650014,,,,,,,2022-06-14,1,,,,,イルダ,0
1691,6180001151793,新規,0,2022-06-14,2022-06-14,株式会社Ｂｅｅ,,株式会社,愛知県,名古屋市守山区,幸心２丁目４１６番地,,23,113,4630079,,,,,,,2022-06-14,1,,,,,ビー,0
1695,6180003023933,新規,0,2022-06-14,2022-06-14,合同会社千のきずな,,合同会社,愛知県,名古屋市名東区,社台３丁目１１４番地の３,,23,115,4650092,,,,,,,2022-06-14,1,,,,,センノキズナ,0
1700,6190001029519,新規,0,2022-06-14,2022-06-14,株式会社Ｋ,,株式会社,三重県,四日市市,諏訪栄町４番１０号アピカビル３Ｆ・４Ｆ,,24,202,5100086,,,,,,,2022-06-14,1,,,,,ケイ,0
1703,6200001040168,新規,0,2022-06-14,2022-06-14,株式会社ランタン,,株式会社,岐阜県,多治見市,市之倉町１丁目１２番地の１,,21,204,5070814,,,,,,,2022-06-14,1,,,,,ランタン,0
1704,6200001040176,新規,0,2022-06-14,2022-06-14,株式会社Ｆｌｉｇｈｔｓ,,株式会社,岐阜県,可児市,虹ケ丘１丁目１０２番地,,21,214,5090261,,,,,,,2022-06-14,1,,,,,フライツ,0
1711,6220001024904,新規,0,2022-06-14,2022-06-14,株式会社ルーク・スタイル,,株式会社,石川県,金沢市,彦三町１丁目２番１号アソルティ金沢彦三１Ｆ,,17,201,9200901,,,,,,,2022-06-14,1,,,,,ルークスタイル,0
1714,6230001019408,新規,0,2022-06-14,2022-06-14,株式会社暁商事,,株式会社,富山県,黒部市,三日市２０６７番地１,,16,207,9380031,,,,,,,2022-06-14,1,,,,,アカツキショウジ,0
1717,6240001059931,新規,0,2022-06-14,2022-06-14,株式会社ｒｅｖｅｒｓｅ,,株式会社,広島県,広島市西区,西観音町５番４号,,34,104,7330037,,,,,,,2022-06-14,1,,,,,リバース,0
1718,6240001059948,新規,0,2022-06-14,2022-06-14,勇海建設株式会社,,株式会社,広島県,東広島市,西条町助実１７４０番地１ルミナス２０３号,,34,212,7390021,,,,,,,2022-06-14,1,,,,,イサミケンセツ,0
1719,6240003005660,新規,0,2022-06-14,2022-06-14,ＫＰ合同会社,,合同会社,広島県,広島市安佐南区,上安２丁目２番３９－１７号,,34,105,7310154,,,,,,,2022-06-14,1,,,,,ケーピー,0
1721,6240005015410,新規,0,2022-06-14,2022-06-14,一般社団法人福山子ども育成推進協会,,その他の設立登記法人,広島県,福山市,三吉町２丁目１３番２０号,,34,207,7200031,,,,,,,2022-06-14,1,,,,,フクヤマコドモイクセイスイシンキョウカイ,0
1723,6260001036937,新規,0,2022-06-14,2022-06-14,株式会社ＫＩＮＤＴＥＣＨ,,株式会社,岡山県,岡山市東区,富崎５５番地３,,33,103,7048104,,,,,,,2022-06-14,1,,,,,カインドテック,0
1724,6260001036945,新規,0,2022-06-14,2022-06-14,ＳＥＴＯＵＣＨＩ株式会社,,株式会社,岡山県,玉野市,渋川３丁目１１番３６号,,33,204,7060028,,,,,,,2022-06-14,1,,,,,,0
1729,6280001008711,新規,0,2022-06-14,2022-06-14,株式会社カクモ,,株式会社,島根県,益田市,栄町９番２１号,,32,204,6980035,,,,,,,2022-06-14,1,,,,,カクモ,0
1736,6290001097869,新規,0,2022-06-14,2022-06-14,甲州藤目株式会社,,株式会社,福岡県,福岡市早良区,西新４丁目６番６－１２０７号ロマネスク西新第５,,40,137,8140002,,,,,,,2022-06-14,1,,,,,コウシュウフジメ,0
1737,6290001097927,新規,0,2022-06-14,2022-06-14,株式会社ＥＪ,,株式会社,福岡県,福岡市早良区,荒江３丁目７番８号,,40,137,8140021,,,,,,,2022-06-14,1,,,,,イージェイ,0
1743,6290801028619,新規,0,2022-06-14,2022-06-14,おんらいん株式会社,,株式会社,福岡県,北九州市小倉北区,今町２丁目１７番８号,,40,106,8030862,,,,,,,2022-06-14,1,,,,,オンライン,0
1744,6290801028627,新規,0,2022-06-14,2022-06-14,株式会社ＴＳＵＫＡＫＥＮ,,株式会社,福岡県,北九州市小倉北区,霧ケ丘１丁目１１番１２－４０５号,,40,106,8020052,,,,,,,2022-06-14,1,,,,,ツカケン,0
1745,6290801028635,新規,0,2022-06-14,2022-06-14,ＳＩＮＳＨＯ株式会社,,株式会社,福岡県,北九州市小倉北区,鋳物師町５番８号,,40,106,8030821,,,,,,,2022-06-14,1,,,,,シンショウ,0
1747,6300001012966,新規,0,2022-06-14,2022-06-14,株式会社月塗,,株式会社,佐賀県,佐賀市,西田代２丁目２番１９号,,41,201,8400045,,,,,,,2022-06-14,1,,,,,ゲット,0
1752,6310001017907,新規,0,2022-06-14,2022-06-14,ウエノ工業株式会社,,株式会社,長崎県,壱岐市,勝本町布気触２９１番地１,,42,210,8115544,,,,,,,2022-06-14,1,,,,,ウエノコウギョウ,0
1758,6310003004390,新規,0,2022-06-14,2022-06-14,合同会社ＰＬＵＭ,,合同会社,長崎県,雲仙市,小浜町飛子１８４１番地,,42,213,8540503,,,,,,,2022-06-14,1,,,,,プリュム,0
1768,6360001030541,新規,0,2022-06-14,2022-06-14,株式会社コダマコーポレート,,株式会社,沖縄県,宜野湾市,大山５丁目３番９－８０４号,,47,205,9012223,,,,,,,2022-06-14,1,,,,,コダマコーポレート,0
1769,6360003012075,新規,0,2022-06-14,2022-06-14,合同会社ＭＡＭＡ　ＰＯＲＴ,,合同会社,沖縄県,那覇市,赤嶺１丁目１１番地１９,,47,201,9010154,,,,,,,2022-06-14,1,,,,,ママポート,0
1770,6370001048665,新規,0,2022-06-14,2022-06-14,株式会社壱祐,,株式会社,宮城県,仙台市青葉区,川内三十人町５番地の１７３,,04,101,9800866,,,,,,,2022-06-14,1,,,,,イチスケ,0
1771,6370001048673,新規,0,2022-06-14,2022-06-14,株式会社ＳｈｏＲｉ,,株式会社,宮城県,仙台市太白区,長町南３丁目１番４６－９０１号,,04,104,9820012,,,,,,,2022-06-14,1,,,,,ショウリ,0
1776,6380005012591,新規,0,2022-06-14,2022-06-14,一般社団法人ヒトトキト,,その他の設立登記法人,福島県,西白河郡矢吹町,神田南８３番地３,,07,466,9690251,,,,,,,2022-06-14,1,,,,,ヒトトキト,0
1781,6430003014007,新規,0,2022-06-14,2022-06-14,ピッチエンドラン合同会社,,合同会社,北海道,札幌市白石区,南郷通１１丁目北１－２７バレエトピア１階,,01,104,0030023,,,,,,,2022-06-14,1,,,,,ピッチエンドラン,0
1782,6430003014015,新規,0,2022-06-14,2022-06-14,合同会社エヌサンモータース,,合同会社,北海道,札幌市東区,北十二条東７丁目１番１５号,,01,103,0650012,,,,,,,2022-06-14,1,,,,,エヌサンモータース,0
1791,6500001024272,新規,0,2022-06-14,2022-06-14,ＭＯＫＵＲＥＮ株式会社,,株式会社,愛媛県,今治市,米屋町１丁目１番地３０,,38,202,7940021,,,,,,,2022-06-14,1,,,,,モクレン,0
1792,6500001024280,新規,0,2022-06-14,2022-06-14,ジゲン不動産株式会社,,株式会社,愛媛県,松山市,小栗６丁目２番１０号,,38,201,7900036,,,,,,,2022-06-14,1,,,,,ジゲンフドウサン,0
1794,6700150109647,新規,0,2022-06-14,2022-06-14,Ｇ．Ｌ．Ｍ．ＥＮＴＥＲＰＲＩＳＥＳ,,外国会社等,千葉県,東金市,極楽寺８１８番地５Ｂ,,12,213,2830835,スリランカ民主社会主義共和国、ワラカポラ、ドゥンマルデニヤ、キャンディロード,,,,,,2022-06-14,1,,,,,ジーエルエムエンタープライズ,0
1799,7010001227213,新規,0,2022-06-14,2022-06-14,株式会社ＭａｙＹｕ,,株式会社,東京都,中央区,銀座１丁目３番３号Ｇ１ビル７階１５３６号,,13,102,1040061,,,,,,,2022-06-14,1,,,,,メイユウ,0
1800,7010001227312,新規,0,2022-06-14,2022-06-14,ラグランジェ株式会社,,株式会社,東京都,中央区,銀座１丁目２２番１１号銀座大竹ビジデンス２階,,13,102,1040061,,,,,,,2022-06-14,1,,,,,ラグランジェ,0
1801,7010001227320,新規,0,2022-06-14,2022-06-14,株式会社ＡＸＯＮ,,株式会社,東京都,中央区,日本橋室町１丁目２－６日本橋大栄ビル７階,,13,102,1030022,,,,,,,2022-06-14,1,,,,,アクソン,0
1802,7010001227337,新規,0,2022-06-14,2022-06-14,株式会社縁,,株式会社,東京都,千代田区,内幸町１丁目１番１号帝国ホテルタワー１８階,,13,101,1000011,,,,,,,2022-06-14,1,,,,,エニシ,0
1803,7010001227353,新規,0,2022-06-14,2022-06-14,株式会社リカラー,,株式会社,東京都,中央区,日本橋蛎殻町１丁目２番地３号,,13,102,1030014,,,,,,,2022-06-14,1,,,,,リカラー,0
1804,7010001227411,新規,0,2022-06-14,2022-06-14,株式会社コスマグリーン,,株式会社,東京都,中央区,入船３丁目９－２佐久間ビル３Ｆ,,13,102,1040042,,,,,,,2022-06-14,1,,,,,コスマグリーン,0
1808,7010005035133,新規,0,2022-06-14,2022-06-14,一般社団法人男性美容協会,,その他の設立登記法人,東京都,中央区,晴海３丁目６番８－３６０２号,,13,102,1040053,,,,,,,2022-06-14,1,,,,,ダンセイビヨウキョウカイ,0
1809,7010101015212,新規,0,2022-06-14,2022-06-14,株式会社エクサビット,,株式会社,東京都,八王子市,大楽寺町３２２番地５,,13,201,1930816,,,,,,,2022-06-14,1,,,,,エクサビット,0
1813,7010401167711,新規,0,2022-06-14,2022-06-14,グランテック株式会社,,株式会社,東京都,港区,芝浦４丁目２１番１号,,13,103,1080023,,,,,,,2022-06-14,1,,,,,グランテック,0
1814,7010401167901,新規,0,2022-06-14,2022-06-14,株式会社ＹＥＳ,,株式会社,東京都,港区,南青山２丁目２番１５号,,13,103,1070062,,,,,,,2022-06-14,1,,,,,ワイイーエス,0
1815,7010401167926,新規,0,2022-06-14,2022-06-14,株式会社商業芸術ＣｏｍｍｅｒｃｉａｌＡｒｔ,,株式会社,東京都,港区,高輪２丁目６番５号,,13,103,1080074,,,,,,,2022-06-14,1,,,,,ショウギョウゲイジュツコマーシャルアート,0
1833,7011003014847,新規,0,2022-06-14,2022-06-14,合同会社ロコモノ,,合同会社,東京都,渋谷区,道玄坂１丁目１０番８号渋谷道玄坂東急ビル２Ｆ―Ｃ,,13,113,1500043,,,,,,,2022-06-14,1,,,,,ロコモノ,0
1834,7011003014855,新規,0,2022-06-14,2022-06-14,合同会社野田若葉写真事務所,,合同会社,東京都,目黒区,青葉台３丁目２０番３号青葉台スペース４Ａ,,13,110,1530042,,,,,,,2022-06-14,1,,,,,ノダワカバシャシンジムショ,0
1837,7011101099170,新規,0,2022-06-14,2022-06-14,ＴＳコンサルタント株式会社,,株式会社,東京都,新宿区,新宿４丁目３番１５号,,13,104,1600022,,,,,,,2022-06-14,1,,,,,ティーエスコンサルタント,0
1839,7011201023889,新規,0,2022-06-14,2022-06-14,吉屋株式会社,,株式会社,東京都,中野区,弥生町１丁目１２番２号２階,,13,114,1640013,,,,,,,2022-06-14,1,,,,,ヨシヤ,0
1841,7011203003823,新規,0,2022-06-14,2022-06-14,ＣＲＵＭＢＷＯＲＫＳ合同会社,,合同会社,東京都,中野区,新井２丁目１７番１０号ハイツダイヤフラワーズ２０１,,13,114,1650026,,,,,,,2022-06-14,1,,,,,クラムワークス,0
1843,7011403003689,新規,0,2022-06-14,2022-06-14,ＬＩＦＳ　ｅｎｔｅｒｔａｉｎｍｅｎｔ合同会社,,合同会社,東京都,板橋区,小豆沢２丁目１５番３号,,13,119,1740051,,,,,,,2022-06-14,1,,,,,リフスエンターテインメント,0
1844,7011501028134,新規,0,2022-06-14,2022-06-14,株式会社ＢｅａｒＨａｔｃｈ,,株式会社,東京都,荒川区,南千住２丁目１０番５号,,13,118,1160003,,,,,,,2022-06-14,1,,,,,ベアーハッチ,0
1849,7011703003166,新規,0,2022-06-14,2022-06-14,合同会社ＬＯＴＵＳ,,合同会社,東京都,江戸川区,南葛西６丁目９番１３号,,13,123,1340085,,,,,,,2022-06-14,1,,,,,ロータス,0
1852,7012301013020,新規,0,2022-06-14,2022-06-14,株式会社ＴＳＵＭＵＧＵ,,株式会社,東京都,町田市,中町１丁目２－５ＳＨＥＬＬＭＩＹＡＫＯＶ３Ｆ,,13,209,1940021,,,,,,,2022-06-14,1,,,,,ツムグ,0
1853,7012303001691,新規,0,2022-06-14,2022-06-14,ＳＥＩＲＯＯＭ合同会社,,合同会社,東京都,町田市,南成瀬３丁目１番１４号メゾンファミール成瀬２０８号室,,13,209,1940045,,,,,,,2022-06-14,1,,,,,セイルーム,0
1855,7012801021646,新規,0,2022-06-14,2022-06-14,株式会社ＦＯＲＥＳＴＥＰ,,株式会社,東京都,昭島市,宮沢町２丁目８番６号,,13,207,1960024,,,,,,,2022-06-14,1,,,,,フォレステップ,0
1856,7013301049228,新規,0,2022-06-14,2022-06-14,＿材株式会社,00126861,株式会社,東京都,豊島区,池袋２丁目６９番１３号白石ビル５０１号,,13,116,1710014,,,,,,,2022-06-14,1,,,,,キザイ,0
1857,7013301049236,新規,0,2022-06-14,2022-06-14,株式会社ＲｅＣＣｏ,,株式会社,東京都,豊島区,東池袋１丁目３４番５号いちご東池袋ビル６階,,13,116,1700013,,,,,,,2022-06-14,1,,,,,レッコ,0
1864,7020001146263,新規,0,2022-06-14,2022-06-14,株式会社フォスタ,,株式会社,神奈川県,横浜市青葉区,恩田町３３２８番地４,,14,117,2270065,,,,,,,2022-06-14,1,,,,,フォスタ,0
1865,7020001146858,新規,0,2022-06-14,2022-06-14,株式会社すふぃんくす,,株式会社,神奈川県,横浜市磯子区,丸山２丁目１５－７,,14,107,2350011,,,,,,,2022-06-14,1,,,,,スフィンクス,0
1880,7030003019581,新規,0,2022-06-14,2022-06-14,ＤＺＴ商事合同会社,,合同会社,埼玉県,入間郡三芳町,大字竹間沢３７７番地１－９０９号,,11,324,3540043,,,,,,,2022-06-14,1,,,,,ディーゼットティーショウジ,0
1883,7040001123806,新規,0,2022-06-14,2022-06-14,東海株式会社,,株式会社,千葉県,千葉市美浜区,稲毛海岸４丁目８－１－２Ｆ,,12,106,2610005,,,,,,,2022-06-14,1,,,,,トウカイ,0
1884,7040003020209,新規,0,2022-06-14,2022-06-14,合同会社Ｏｚ,,合同会社,千葉県,富里市,根木名１０４０番地１０,,12,233,2860205,,,,,,,2022-06-14,1,,,,,オズ,0
1885,7040003020233,新規,0,2022-06-14,2022-06-14,合同会社ｌｅｐｏｎｔ,,合同会社,千葉県,船橋市,本町６丁目１８－１９第３山中ビル４０１号室,,12,204,2730005,,,,,,,2022-06-14,1,,,,,ルポン,0
1886,7040005021642,新規,0,2022-06-14,2022-06-14,ミュアヘッド・フィールズコミュニティ団地管理組合法人,,その他の設立登記法人,千葉県,市原市,山口５６３番地１,,12,219,2900558,,,,,,,2022-06-14,1,,,,,ミュアヘッドフィールズコミュニティ,0
1889,7050001051221,新規,0,2022-06-14,2022-06-14,株式会社さんさんケアーズ,,株式会社,茨城県,日立市,諏訪町１丁目９番４号,,08,202,3160001,,,,,,,2022-06-14,1,,,,,サンサンケアーズ,0
1893,7060001034976,新規,0,2022-06-14,2022-06-14,株式会社ＷｏｒｋａＨｏｌｉｃ,,株式会社,栃木県,那須郡那須町,大字寺子丙２番地１３０,,09,407,3293222,,,,,,,2022-06-14,1,,,,,ワークホリック,0
1903,7100001035433,新規,0,2022-06-14,2022-06-14,株式会社ｇｒｕｂ,,株式会社,長野県,長野市,篠ノ井小松原９,,20,201,3812235,,,,,,,2022-06-14,1,,,,,グラブ,0
1904,7100003006580,新規,0,2022-06-14,2022-06-14,ゆう合同会社,,合同会社,長野県,安曇野市,三郷温４９１０番地３７,,20,220,3998102,,,,,,,2022-06-14,1,,,,,ユウ,0
1907,7110001036736,新規,0,2022-06-14,2022-06-14,新発田ドローンクラフィッツ株式会社,,株式会社,新潟県,新発田市,城北町２丁目９番２２号,,15,206,9570051,,,,,,,2022-06-14,1,,,,,シバタドローンクラフィッツ,0
1916,7120001246581,新規,0,2022-06-14,2022-06-14,アスリード株式会社,,株式会社,大阪府,大阪市中央区,高麗橋１丁目７番７号,,27,128,5410043,,,,,,,2022-06-14,1,,,,,アスリード,0
1917,7120001246615,新規,0,2022-06-14,2022-06-14,株式会社ｕｐｓｗｉｎｇ,,株式会社,大阪府,大阪市天王寺区,玉造本町６番８号ゼン・ラフォーレ玉造４０２号,,27,109,5430013,,,,,,,2022-06-14,1,,,,,アップスウィング,0
1918,7120001246623,新規,0,2022-06-14,2022-06-14,株式会社働き蜂ドローン事業研究所,,株式会社,大阪府,大阪市西区,北堀江３丁目７番３０号,,27,106,5500014,,,,,,,2022-06-14,1,,,,,ハタラキバチドローンジギョウケンキュウショ,0
1919,7120001246664,新規,0,2022-06-14,2022-06-14,株式会社ＵＥＤＡエンジニアリング,,株式会社,大阪府,大阪市旭区,千林２丁目１４番１１号,,27,117,5350012,,,,,,,2022-06-14,1,,,,,ウエダエンジニアリング,0
1920,7120001246689,新規,0,2022-06-14,2022-06-14,株式会社ａｓｏｂｉｓｍ,,株式会社,大阪府,大阪市中央区,西心斎橋１丁目９番３１号辻本ビル４Ｆ,,27,128,5420086,,,,,,,2022-06-14,1,,,,,アソビズム,0
1921,7120001246697,新規,0,2022-06-14,2022-06-14,Ｗａｔ株式会社,,株式会社,大阪府,大阪市北区,大淀南２丁目１番１－１７０８号,,27,127,5310075,,,,,,,2022-06-14,1,,,,,ワット,0
1925,7120003021850,新規,0,2022-06-14,2022-06-14,ＡＳＨＥＭＰ合同会社,,合同会社,大阪府,大阪市天王寺区,筆ケ崎町５番５３－６０１号,,27,109,5430027,,,,,,,2022-06-14,1,,,,,アシェンプ,0
1926,7120003021883,新規,0,2022-06-14,2022-06-14,合同会社医療ビジネスネット,,合同会社,大阪府,門真市,江端町８番６－８０６号,,27,223,5710012,,,,,,,2022-06-14,1,,,,,イリョウビジネスネット,0
1927,7120003021891,新規,0,2022-06-14,2022-06-14,合同会社エムエイトシー,,合同会社,大阪府,大阪市東淀川区,下新庄６丁目５番１１－２０５号,,27,114,5330021,,,,,,,2022-06-14,1,,,,,エムエイトシー,0
1936,7130001071954,新規,0,2022-06-14,2022-06-14,株式会社ＭＩＴＡ,,株式会社,京都府,宇治市,五ケ庄西浦２０番地２１奥田ビル３階,,26,204,6110011,,,,,,,2022-06-14,1,,,,,ミタ,0
1937,7130001071962,新規,0,2022-06-14,2022-06-14,株式会社ＳＯＵＲＡＫＵ,,株式会社,京都府,宇治市,神明石塚７３番地の２,,26,204,6110025,,,,,,,2022-06-14,1,,,,,ソウラク,0
1950,7140005026210,新規,0,2022-06-14,2022-06-14,一般社団法人うちだけのＩＫＩＫＡＴＡ,,その他の設立登記法人,兵庫県,加古川市,野口町坂元１１２０,,28,210,6750018,,,,,,,2022-06-14,1,,,,,ウチダケノイキカタ,0
1952,7160005011094,新規,0,2022-06-14,2022-06-14,一般社団法人りぶらふ,,その他の設立登記法人,滋賀県,大津市,衣川２丁目３２番２１号,,25,201,5200244,,,,,,,2022-06-14,1,,,,,リブラフ,0
1956,7180001151702,新規,0,2022-06-14,2022-06-14,株式会社フジタトラスト,,株式会社,愛知県,弥富市,平島町中新田１４６番地６,,23,235,4980031,,,,,,,2022-06-14,1,,,,,フジタトラスト,0
1957,7180001151719,新規,0,2022-06-14,2022-06-14,株式会社エバーウィン,,株式会社,愛知県,名古屋市西区,牛島町６－１名古屋ルーセントタワー４０階,,23,104,4510046,,,,,,,2022-06-14,1,,,,,エバーウィン,0
1958,7180001151727,新規,0,2022-06-14,2022-06-14,株式会社太平閣,,株式会社,愛知県,名古屋市西区,那古野２丁目４番１０号,,23,104,4510042,,,,,,,2022-06-14,1,,,,,タイヘイカク,0
1959,7180001151743,新規,0,2022-06-14,2022-06-14,株式会社サイツ建匠,,株式会社,愛知県,名古屋市緑区,浦里１丁目８６Ｂ棟,,23,114,4580847,,,,,,,2022-06-14,1,,,,,サイツケンショウ,0
1960,7180001151768,新規,0,2022-06-14,2022-06-14,極凰株式会社,,株式会社,愛知県,名古屋市西区,那古野１丁目３６番５８号１四間道ビル１階,,23,104,4510042,,,,,,,2022-06-14,1,,,,,キワコウ,0
1961,7180001151776,新規,0,2022-06-14,2022-06-14,株式会社エイチ・エス・ティー,,株式会社,愛知県,愛西市,西保町森西４０２３番地２,,23,232,4960911,,,,,,,2022-06-14,1,,,,,エイチエスティー,0
1963,7180003023932,新規,0,2022-06-14,2022-06-14,合同会社ＨＦＰ,,合同会社,愛知県,名古屋市中川区,伏屋５丁目２１０番地,,23,110,4540996,,,,,,,2022-06-14,1,,,,,エイチエフピー,0
1964,7180003023949,新規,0,2022-06-14,2022-06-14,合同会社ニシヤマイバショラボ,,合同会社,愛知県,名古屋市名東区,西山本通２丁目２７番地,,23,115,4650085,,,,,,,2022-06-14,1,,,,,ニシヤマイバショラボ,0
1966,7180301036330,新規,0,2022-06-14,2022-06-14,株式会社ｔｈｒｅｅｋ,,株式会社,愛知県,安城市,日の出町７番１２号レゾンシティ安城９０３,,23,212,4460033,,,,,,,2022-06-14,1,,,,,スリーク,0
1967,7180303005358,新規,0,2022-06-14,2022-06-14,合同会社かしわぎ,,合同会社,愛知県,岡崎市,康生通東２丁目４４番地,,23,202,4440045,,,,,,,2022-06-14,1,,,,,カシワギ,0
1973,7190001029518,新規,0,2022-06-14,2022-06-14,株式会社ＭＩＲＡ,,株式会社,三重県,員弁郡東員町,笹尾東１丁目１１番２１,,24,324,5110232,,,,,,,2022-06-14,1,,,,,ミラ,0
1976,7200001040175,新規,0,2022-06-14,2022-06-14,株式会社コネクトアース,,株式会社,岐阜県,各務原市,川島小網町２１４４番地９６,,21,213,5016023,,,,,,,2022-06-14,1,,,,,コネクトアース,0
1979,7210001018963,新規,0,2022-06-14,2022-06-14,株式会社矢木機料,,株式会社,福井県,坂井市,春江町為国西の宮１７番地９,,18,210,9190437,,,,,,,2022-06-14,1,,,,,ヤギキリョウ,0
1984,7240001059922,新規,0,2022-06-14,2022-06-14,株式会社ｐｌｕｓ　Ｈｅｅｌ,,株式会社,広島県,江田島市,能美町鹿川１８１３番地１,,34,215,7372302,,,,,,,2022-06-14,1,,,,,プラスヒール,0
1985,7240001059930,新規,0,2022-06-14,2022-06-14,株式会社Ｉｎｌｅｔ　Ｃｌｕｂ,,株式会社,広島県,広島市中区,本通７番２９号,,34,101,7300035,,,,,,,2022-06-14,1,,,,,インレットクラブ,0
1986,7240001059939,新規,0,2022-06-14,2022-06-14,株式会社Ｏｆｆｉｃｅ　Ｍ,,株式会社,広島県,福山市,東手城町２丁目１番１７号,,34,207,7210962,,,,,,,2022-06-14,1,,,,,オフィスエム,0
1987,7240001059947,新規,0,2022-06-14,2022-06-14,株式会社余白,,株式会社,広島県,広島市南区,京橋町７番１４号,,34,103,7320828,,,,,,,2022-06-14,1,,,,,ヨハク,0
1991,7260001036936,新規,0,2022-06-14,2022-06-14,株式会社Ｍ・Ｓ　Ｌｉｎｅ,,株式会社,岡山県,岡山市東区,沼１４１５番地１,,33,103,7090621,,,,,,,2022-06-14,1,,,,,エムエスライン,0
1992,7260001036944,新規,0,2022-06-14,2022-06-14,株式会社ＨＡＮＡＤＡ,,株式会社,岡山県,倉敷市,四十瀬３７５番地１,,33,202,7100835,,,,,,,2022-06-14,1,,,,,ハナダ,0
1997,7280001008710,新規,0,2022-06-14,2022-06-14,株式会社結意,,株式会社,島根県,松江市,古曽志町３０７番地１,,32,201,6900151,,,,,,,2022-06-14,1,,,,,ユイ,0
2003,7290001097868,新規,0,2022-06-14,2022-06-14,ＳＡＮＡＮ　ＴＲＡＤＩＮＧ株式会社,,株式会社,福岡県,古賀市,谷山１１０２番地２－１０２号,,40,223,8113125,,,,,,,2022-06-14,1,,,,,サナントレーディング,0
2004,7290801028634,新規,0,2022-06-14,2022-06-14,まちづくりプロジェクト株式会社,,株式会社,福岡県,北九州市小倉北区,宇佐町１丁目９番１９－１０１号,,40,106,8020016,,,,,,,2022-06-14,1,,,,,マチヅクリプロジェクト,0
2012,7330001029825,新規,0,2022-06-14,2022-06-14,株式会社アイデア商会,,株式会社,熊本県,熊本市中央区,神水１丁目１５番９号,,43,101,8620954,,,,,,,2022-06-14,1,,,,,アイデアショウカイ,0
2013,7330003009412,新規,0,2022-06-14,2022-06-14,合同会社ＪＴＳ,,合同会社,熊本県,熊本市東区,御領５丁目２番８３号グランコート御領１０６,,43,102,8618035,,,,,,,2022-06-14,1,,,,,ジェイティエス,0
2015,7340001024817,新規,0,2022-06-14,2022-06-14,株式会社レッドハーツ,,株式会社,鹿児島県,出水市,西出水町１０９１番地６ラ・ラウエストＡ号,,46,208,8990213,,,,,,,2022-06-14,1,,,,,レッドハーツ,0
2017,7340003003827,新規,0,2022-06-14,2022-06-14,ＨＳＩ合同会社,,合同会社,鹿児島県,薩摩川内市,隈之城町１７５番地１０,,46,215,8950041,,,,,,,2022-06-14,1,,,,,エイチエスアイ,0
2021,7360003012074,新規,0,2022-06-14,2022-06-14,合同会社ａｌｍａ,,合同会社,沖縄県,豊見城市,字田頭１１９番地多家ＩＶ２０７号室,00126857,47,212,9010234,,,,,,,2022-06-14,1,,,,,アルマ,0
2022,7370001048648,新規,0,2022-06-14,2022-06-14,株式会社元祖辛み噌味よしラーメン,,株式会社,宮城県,仙台市若林区,中倉１丁目７番３０号,,04,103,9840821,,,,,,,2022-06-14,1,,,,,ガンソカラミソアジヨシラーメン,0
2023,7370001048656,新規,0,2022-06-14,2022-06-14,華洋工貿株式会社,,株式会社,宮城県,仙台市青葉区,下愛子字町１７－２シティハイム城山１０３号室,,04,101,9893125,,,,,,,2022-06-14,1,,,,,カヨウコウボウ,0
2035,7430001086831,新規,0,2022-06-14,2022-06-14,株式会社ライチェス,,株式会社,北海道,札幌市豊平区,平岸四条１４丁目２番３号パサージュ南平岸７０２号,,01,105,0620934,,,,,,,2022-06-14,1,,,,,ライチェス,0
2036,7430001086856,新規,0,2022-06-14,2022-06-14,株式会社ＳＩＧＮＡＬ,,株式会社,北海道,札幌市北区,北八条西４丁目１番－１－４０１号,,01,102,0600808,,,,,,,2022-06-14,1,,,,,シグナル,0
2046,7470001019119,新規,0,2022-06-14,2022-06-14,株式会社ａｌ,,株式会社,香川県,高松市,林町１１４１番地３,,37,201,7610301,,,,,,,2022-06-14,1,,,,,アル,0
2052,7500001024271,新規,0,2022-06-14,2022-06-14,株式会社Ｓ＆Ｓ　Ｓｅｒｖｉｃｅ,,株式会社,愛媛県,今治市,南鳥生町４丁目２番１１号,,38,202,7940802,,,,,,,2022-06-14,1,,,,,エスアンドエスサービス,0
2053,7700150109638,新規,0,2022-06-14,2022-06-14,ＡＳＫ　ＬＡＮＫＡ　ＭＯＴＯＲＳ　ＰＶＴ　ＬＴＤ,,外国会社等,千葉県,山武市,麻生新田１５４－５８－Ｂ,,12,237,2891203,スリランカ民主社会主義共和国、デヒウェラ、カルボウィラ、スリサラナンカラロード、Ｎｏ．２０,,,,,,2022-06-14,1,,,,,アスクランカモータースピーヴイテイエルテイデイ,0
2054,7700150109704,新規,0,2022-06-14,2022-06-14,ＩＭＡＤＨ　ＥＮＴＥＲＰＲＩＳＥＳ,,外国会社等,新潟県,妙高市,大字小濁７３１レンタルスペース１Ｆ－４,,15,217,9440221,スリランカ民主社会主義共和国、プジャピティヤ、カサワタ、４９０／２番,,,,,,2022-06-14,1,,,,,イマドエンタープライセス,0
2062,8010001227294,新規,0,2022-06-14,2022-06-14,株式会社ビロード,,株式会社,東京都,中央区,新富２丁目１４－５－９Ｆ,,13,102,1040041,,,,,,,2022-06-14,1,,,,,ビロード,0
2063,8010001227369,新規,0,2022-06-14,2022-06-14,株式会社ベターライフスタイル,,株式会社,東京都,千代田区,丸の内１丁目１－３日本生命丸の内ガーデンタワー３Ｆ,,13,101,1000005,,,,,,,2022-06-14,1,,,,,ベターライフスタイル,0
2072,8010401167891,新規,0,2022-06-14,2022-06-14,株式会社ＰＰＧＡ,,株式会社,東京都,港区,白金６丁目１５－１４白金第一マンションズ１１０４,,13,103,1080072,,,,,,,2022-06-14,1,,,,,ピーピージーエー,0
2073,8010401167974,新規,0,2022-06-14,2022-06-14,株式会社ｐｏｍｒｙ,,株式会社,東京都,港区,六本木４丁目５番３号Ｍ．Ａ－ＲＯＰＰＯＮＧＩ－ＢＬＤ－３,,13,103,1060032,,,,,,,2022-06-14,1,,,,,ポムリー,0
2077,8010403027895,新規,0,2022-06-14,2022-06-14,ＭＦ４ＪＰＮ合同会社,,合同会社,東京都,港区,虎ノ門３丁目２２番１０－２０１号,,13,103,1050001,,,,,,,2022-06-14,1,,,,,エムエフフォージェイピーエヌ,0
2080,8010405021070,新規,0,2022-06-14,2022-06-14,一般社団法人医療材料統合流通研究会,,その他の設立登記法人,東京都,港区,芝浦３丁目４番１号グランパークタワー２３階,,13,103,1080023,,,,,,,2022-06-14,1,,,,,イリョウザイリョウトウゴウリュウツウケンキュウカイ,0
2083,8010701042803,新規,0,2022-06-14,2022-06-14,ｃｏｕｒａｇｅ株式会社,,株式会社,東京都,品川区,北品川２丁目２番１１号山田ビル,,13,109,1400001,,,,,,,2022-06-14,1,,,,,カレッジ,0
2084,8010701042811,新規,0,2022-06-14,2022-06-14,株式会社大井町萬舌,,株式会社,東京都,品川区,東大井５丁目１５－１大里ビル１Ｆ,,13,109,1400011,,,,,,,2022-06-14,1,,,,,オオイマチマンタン,0
2085,8010703006277,新規,0,2022-06-14,2022-06-14,合同会社Ｓ＆Ｔ　ＧＬＯＢＡＬ,,合同会社,東京都,品川区,東大井４丁目１番１１－９０２号,,13,109,1400011,,,,,,,2022-06-14,1,,,,,エスアンドティーグローバル,0
2086,8010801033033,新規,0,2022-06-14,2022-06-14,株式会社丸田クリエイティブパートナーズ,,株式会社,東京都,大田区,南馬込４丁目１２番６号,,13,111,1430025,,,,,,,2022-06-14,1,,,,,マルタクリエイティブパートナーズ,0
2089,8010901051018,新規,0,2022-06-14,2022-06-14,Ｈａｉ　Ｈｏｌｄｉｎｇｓ株式会社,,株式会社,東京都,世田谷区,三軒茶屋２丁目５４番３号,,13,112,1540024,,,,,,,2022-06-14,1,,,,,ハイホールディングス,0
2090,8010901051034,新規,0,2022-06-14,2022-06-14,株式会社アーバンビルド不動産,,株式会社,東京都,世田谷区,三軒茶屋２丁目４５－６トライベッカ三軒茶屋１階,,13,112,1540024,,,,,,,2022-06-14,1,,,,,アーバンビルドフドウサン,0
2092,8010903007455,新規,0,2022-06-14,2022-06-14,エミタス合同会社,,合同会社,東京都,世田谷区,成城１丁目２０番８－４０３号,,13,112,1570066,,,,,,,2022-06-14,1,,,,,エミタス,0
2093,8010905004327,新規,0,2022-06-14,2022-06-14,一般社団法人ゆかいなかみさま,,その他の設立登記法人,東京都,世田谷区,瀬田２丁目１番１５－４０１号,,13,112,1580095,,,,,,,2022-06-14,1,,,,,ユカイナカミサマ,0
2107,8011401024323,新規,0,2022-06-14,2022-06-14,Ｐｌａｎ‐Ｒ株式会社,,株式会社,東京都,板橋区,西台３丁目２９番１１号レスポワール西台Ｈ号室,,13,119,1750045,,,,,,,2022-06-14,1,,,,,プランアール,0
2109,8011501028125,新規,0,2022-06-14,2022-06-14,Ｇ．Ｃ．Ｐａｉｎｔｅｒｓ株式会社,,株式会社,東京都,荒川区,西日暮里５丁目１０番１２号ＣｏｎｆｏｒｔＩＩＩ３Ｆ,00126870,13,118,1160013,,,,,,,2022-06-14,1,,,,,ジーシーペインターズ,0
2110,8011501028133,新規,0,2022-06-14,2022-06-14,Ｅｎｔｅｒファシリティーズ株式会社,,株式会社,東京都,北区,赤羽２丁目５１番３号ＮＳ３ビル５階,,13,117,1150045,,,,,,,2022-06-14,1,,,,,エンターファシリティーズ,0
2111,8011503005188,新規,0,2022-06-14,2022-06-14,合同会社Ｂｅａｓｔ　Ｂａｒｒａｃｋｓ,,合同会社,東京都,荒川区,東日暮里６丁目１７－６ふらっとにっぽり５Ｆ,,13,118,1160014,,,,,,,2022-06-14,1,,,,,ビーストバラックス,0
2121,8012403005427,新規,0,2022-06-14,2022-06-14,合同会社ＲＳ,,合同会社,東京都,三鷹市,上連雀８丁目２３番５号,,13,204,1810012,,,,,,,2022-06-14,1,,,,,アールエス,0
2123,8012801021645,新規,0,2022-06-14,2022-06-14,株式会社Ｋ‐ＦＯＲＣＥ,,株式会社,東京都,立川市,砂川町８丁目６０番地の１１,,13,202,1900031,,,,,,,2022-06-14,1,,,,,ケイフォース,0
2125,8013101008944,新規,0,2022-06-14,2022-06-14,株式会社トラスト,,株式会社,東京都,福生市,大字熊川９９０番地７ＡＲＫＨＯＵＳＥＦ３１０号室,,13,218,1970003,,,,,,,2022-06-14,1,,,,,トラスト,0
2136,8021001076219,新規,0,2022-06-14,2022-06-14,株式会社夢王Ｊａｐａｎ,,株式会社,神奈川県,相模原市中央区,田名６２０３番地－２２－２２１号,,14,152,2520244,,,,,,,2022-06-14,1,,,,,ムオージャパン,0
2144,8030001148613,新規,0,2022-06-14,2022-06-14,ＴＫコーポレーション株式会社,,株式会社,埼玉県,さいたま市南区,根岸２丁目３番３－６０２号,,11,108,3360024,,,,,,,2022-06-14,1,,,,,ティーケーコーポレーション,0
2145,8030001148662,新規,0,2022-06-14,2022-06-14,株式会社ヒロ・オカダ,,株式会社,埼玉県,狭山市,大字南入曽５６７番地,,11,215,3501316,,,,,,,2022-06-14,1,,,,,ヒロオカダ,0
2146,8030003019589,新規,0,2022-06-14,2022-06-14,合同会社健康ランニング塾,,合同会社,埼玉県,川口市,西川口３丁目２０－２,,11,203,3320021,,,,,,,2022-06-14,1,,,,,ケンコウランニングジュク,0
2149,8040001123862,新規,0,2022-06-14,2022-06-14,株式会社ＭＭＢ,,株式会社,千葉県,印西市,東の原２丁目２８番地７,,12,231,2701336,,,,,,,2022-06-14,1,,,,,エムエムビー,0
2152,8050001051220,新規,0,2022-06-14,2022-06-14,ワダ工業株式会社,,株式会社,茨城県,ひたちなか市,大字後台４６０番地５８７,,08,221,3120031,,,,,,,2022-06-14,1,,,,,ワダコウギョウ,0
2156,8050003006610,新規,0,2022-06-14,2022-06-14,合同会社ＤＩＹＯＮ　ＭＯＴＯＲＳ,,合同会社,茨城県,筑西市,嘉家佐和１７３３番地１,,08,227,3080837,,,,,,,2022-06-14,1,,,,,ディヨンモータース,0
2159,8060001034991,新規,0,2022-06-14,2022-06-14,株式会社ｃｕｍｅ,,株式会社,栃木県,下都賀郡壬生町,大字安塚３３８１番地５,,09,361,3210201,,,,,,,2022-06-14,1,,,,,キューム,0
2166,8080001025015,新規,0,2022-06-14,2022-06-14,株式会社しらす,,株式会社,静岡県,静岡市葵区,人宿町２丁目６番地の１２,,22,101,4200037,,,,,,,2022-06-14,1,,,,,シラス,0
2170,8080401025878,新規,0,2022-06-14,2022-06-14,株式会社高野,00126860,株式会社,静岡県,浜松市中区,萩丘２丁目４番３５号セジュール・フーキＢ１０２,,22,131,4338121,,,,,,,2022-06-14,1,,,,,タカノ,0
2173,8100001035432,新規,0,2022-06-14,2022-06-14,株式会社霧ヶ峰倶楽部,,株式会社,長野県,諏訪市,大字上諏訪１３３３８番地１２０,,20,206,3920003,,,,,,,2022-06-14,1,,,,,キリガミネクラブ,0
2177,8110003004789,新規,0,2022-06-14,2022-06-14,合同会社ｗｏｒｋｎｅｌ,,合同会社,新潟県,柏崎市,大和町３－２,,15,205,9450075,,,,,,,2022-06-14,1,,,,,ワークネル,0
2187,8120001246465,新規,0,2022-06-14,2022-06-14,キマル株式会社,,株式会社,大阪府,大阪市浪速区,恵美須東３丁目２番９号パークシャトー,,27,111,5560002,,,,,,,2022-06-14,1,,,,,キマル,0
2188,8120001246572,新規,0,2022-06-14,2022-06-14,帝晶技研株式会社,,株式会社,大阪府,大阪市西成区,花園南１丁目４番２号,,27,122,5570015,,,,,,,2022-06-14,1,,,,,テイショウギケン,0
2189,8120001246614,新規,0,2022-06-14,2022-06-14,フレルゼ株式会社,,株式会社,大阪府,寝屋川市,八坂町１５番３６号今井ビル４０３,,27,215,5720838,,,,,,,2022-06-14,1,,,,,フレルゼ,0
2190,8120001246630,新規,0,2022-06-14,2022-06-14,株式会社みんばこ,,株式会社,大阪府,大阪市北区,豊崎７丁目６番地４号９０１,,27,127,5310072,,,,,,,2022-06-14,1,,,,,ミンバコ,0
2191,8120001246647,新規,0,2022-06-14,2022-06-14,株式会社ブラッシュアップ,,株式会社,大阪府,大阪市北区,中之島５丁目３番９２－４２０号,,27,127,5300005,,,,,,,2022-06-14,1,,,,,ブラッシュアップ,0
2192,8120001246705,新規,0,2022-06-14,2022-06-14,株式会社ミネルバ,,株式会社,大阪府,大阪市中央区,内久宝寺町２丁目２番２２－１１０５号,,27,128,5400013,,,,,,,2022-06-14,1,,,,,ミネルバ,0
2197,8120003021858,新規,0,2022-06-14,2022-06-14,合同会社ＬＩＴ,,合同会社,大阪府,大阪市浪速区,日本橋５丁目１４番２０号,,27,111,5560005,,,,,,,2022-06-14,1,,,,,リット,0
2198,8120003021874,新規,0,2022-06-14,2022-06-14,ｅｃｌａｔ合同会社,,合同会社,大阪府,大阪市天王寺区,上本町９丁目４番５－４０５号,,27,109,5430001,,,,,,,2022-06-14,1,,,,,エクラ,0
2199,8120003021882,新規,0,2022-06-14,2022-06-14,合同会社Ｌｉｎｋ,,合同会社,大阪府,枚方市,村野東町５１番１３号,,27,210,5730015,,,,,,,2022-06-14,1,,,,,リンク,0
2201,8120005022994,新規,0,2022-06-14,2022-06-14,一般社団法人いろは,,その他の設立登記法人,大阪府,大阪市北区,曾根崎２丁目１２番４号コフレ梅田５Ｆ,,27,127,5300057,,,,,,,2022-06-14,1,,,,,イロハ,0
2205,8120101065749,新規,0,2022-06-14,2022-06-14,株式会社ＴＯＳＴ,,株式会社,大阪府,堺市美原区,さつき野東３丁目１４番地７,,27,147,5870032,,,,,,,2022-06-14,1,,,,,トスト,0
2208,8120903004177,新規,0,2022-06-14,2022-06-14,合同会社サニーリーブス,,合同会社,大阪府,高槻市,東五百住町１丁目１１番９号,,27,207,5690811,,,,,,,2022-06-14,1,,,,,サニーリーブス,0
2209,8120903004185,新規,0,2022-06-14,2022-06-14,合同会社ｈｉｅｒｒｏ,,合同会社,大阪府,豊中市,西緑丘３丁目１１番５－２１１号,,27,203,5600005,,,,,,,2022-06-14,1,,,,,イエーロ,0
2211,8122001035947,新規,0,2022-06-14,2022-06-14,日本水道サービスセンター株式会社,,株式会社,大阪府,四條畷市,岡山２丁目１番１０号,,27,229,5750002,,,,,,,2022-06-14,1,,,,,ニホンスイドウサービスセンター,0
2215,8130001071945,新規,0,2022-06-14,2022-06-14,ＯＫコンサルティング株式会社,,株式会社,京都府,京都市右京区,西京極東池田町３９番地アフリー太田５０３,,26,108,6150805,,,,,,,2022-06-14,1,,,,,オーケーコンサルティング,0
2220,8170001017151,新規,0,2022-06-14,2022-06-14,株式会社Ｓｕｎｎｙ,,株式会社,和歌山県,橋本市,高野口町伏原１１９８番地の１,,30,203,6497202,,,,,,,2022-06-14,1,,,,,サニー,0
2232,8180001151726,新規,0,2022-06-14,2022-06-14,株式会社徳田地所,,株式会社,愛知県,小牧市,市之久田１丁目１０１番地,,23,219,4850034,,,,,,,2022-06-14,1,,,,,トクダジショ,0
2233,8180001151742,新規,0,2022-06-14,2022-06-14,株式会社Ｇｉｖｅｒ’ｓ　Ｈｉｇｈ,,株式会社,愛知県,名古屋市中村区,松原町３丁目１３番地の１ＣａｓａＳａｎａＢ号,,23,105,4530021,,,,,,,2022-06-14,1,,,,,ギバーズハイ,0
2244,8200001040158,新規,0,2022-06-14,2022-06-14,株式会社恵上組,,株式会社,岐阜県,恵那市,大井町１７８１番地１９,,21,210,5097201,,,,,,,2022-06-14,1,,,,,ケイジョウグミ,0
2245,8200001040166,新規,0,2022-06-14,2022-06-14,株式会社佐合空調,,株式会社,岐阜県,美濃加茂市,牧野２９４１番地１,,21,211,5050016,,,,,,,2022-06-14,1,,,,,サゴウクウチョウ,0
2246,8200001040174,新規,0,2022-06-14,2022-06-14,株式会社ＦＵＳＨＩ,,株式会社,岐阜県,高山市,一之宮町クルミ谷７０１９－５,,21,203,5093505,,,,,,,2022-06-14,1,,,,,フシ,0
2252,8220001024910,新規,0,2022-06-14,2022-06-14,クレイスホーム株式会社,,株式会社,石川県,金沢市,西泉３丁目１２番地,,17,201,9218043,,,,,,,2022-06-14,1,,,,,クレイスホーム,0
2261,8240001059913,新規,0,2022-06-14,2022-06-14,株式会社ＴＯＭＯ,,株式会社,広島県,安芸郡府中町,浜田本町２番１２－３０１号,,34,302,7350023,,,,,,,2022-06-14,1,,,,,トモ,0
2262,8240001059921,新規,0,2022-06-14,2022-06-14,株式会社エムカンパニー,,株式会社,広島県,呉市,音戸町早瀬１丁目１３番３８号,,34,202,7371215,,,,,,,2022-06-14,1,,,,,エムカンパニー,0
2263,8240001059938,新規,0,2022-06-14,2022-06-14,株式会社Ａ．Ｃ．Ｅ,,株式会社,広島県,広島市中区,西平塚町４番３０－１０２号,,34,101,7300024,,,,,,,2022-06-14,1,,,,,エース,0
2264,8240001059946,新規,0,2022-06-14,2022-06-14,株式会社美心家オアシス,,株式会社,広島県,広島市安佐南区,山本１丁目１２番１８－２０１号,,34,105,7310137,,,,,,,2022-06-14,1,,,,,ビジンカオアシス,0
2270,8240003005659,新規,0,2022-06-14,2022-06-14,Ｇｒｏｏｍｉｎ合同会社,,合同会社,広島県,広島市西区,中広町３丁目１０番１９－１０２号,,34,104,7330012,,,,,,,2022-06-14,1,,,,,グルーミン,0
2271,8240003005667,新規,0,2022-06-14,2022-06-14,合同会社ＲｅＡｒｃｈ,,合同会社,広島県,東広島市,黒瀬町乃美尾４２５２番地１０４,,34,212,7392622,,,,,,,2022-06-14,1,,,,,リアーチ,0
2279,8260001036951,新規,0,2022-06-14,2022-06-14,株式会社Ｎ．Ｎ．Ｋ,,株式会社,岡山県,岡山市北区,出石町２丁目２番１９号エクセレントコート２０１号室,,33,101,7000812,,,,,,,2022-06-14,1,,,,,エヌエヌケー,0
2280,8260003003941,新規,0,2022-06-14,2022-06-14,合同会社サポート・ラン,,合同会社,岡山県,岡山市北区,幸町７番８号ロイヤルガーデンタワー岡山幸町１３１２号室,,33,101,7000903,,,,,,,2022-06-14,1,,,,,サポートラン,0
2284,8280001008718,新規,0,2022-06-14,2022-06-14,株式会社９‐Ｄｅｓｉｇｎ,,株式会社,島根県,浜田市,長浜町１３４７番地２,,32,202,6970063,,,,,,,2022-06-14,1,,,,,ナインデザイン,0
2286,8290001097933,新規,0,2022-06-14,2022-06-14,ツカザキ株式会社,,株式会社,福岡県,福岡市中央区,小笹５丁目２番４０号,,40,133,8100033,,,,,,,2022-06-14,1,,,,,ツカザキ,0
2287,8290003012626,新規,0,2022-06-14,2022-06-14,合同会社Ｏｂｌｉｇｅ,,合同会社,福岡県,春日市,下白水北５丁目５９番地サングレート春日６０２号,,40,218,8160854,,,,,,,2022-06-14,1,,,,,オブリージュ,0
2288,8290801028633,新規,0,2022-06-14,2022-06-14,株式会社Ｓｍｏｏｔｈ,,株式会社,福岡県,北九州市小倉北区,赤坂２丁目１２番１３号,,40,106,8020032,,,,,,,2022-06-14,1,,,,,スムース,0
2289,8290801028641,新規,0,2022-06-14,2022-06-14,株式会社匠建,,株式会社,福岡県,京都郡苅田町,京町２丁目１６番地２,,40,621,8000351,,,,,,,2022-06-14,1,,,,,ショウケン,0
2290,8290803004145,新規,0,2022-06-14,2022-06-14,メタコンサル合同会社,,合同会社,福岡県,行橋市,西泉１丁目１番４号,,40,213,8240038,,,,,,,2022-06-14,1,,,,,メタコンサル,0
2293,8320001019140,新規,0,2022-06-14,2022-06-14,株式会社ＫＳＤ,,株式会社,大分県,杵築市,山香町大字倉成２７８５番地２,,44,210,8791305,,,,,,,2022-06-14,1,,,,,ケイエスディ,0
2297,8350001017802,新規,0,2022-06-14,2022-06-14,株式会社森光牧場,,株式会社,宮崎県,児湯郡高鍋町,大字上江７６９７番地２２７,,45,401,8840006,,,,,,,2022-06-14,1,,,,,モリミツボクジョウ,0
2300,8360001030548,新規,0,2022-06-14,2022-06-14,Ｌｉｖｅ株式会社,,株式会社,沖縄県,島尻郡与那原町,字板良敷３６２－２,,47,348,9011301,,,,,,,2022-06-14,1,,,,,ライブ,0
2304,8360003012081,新規,0,2022-06-14,2022-06-14,合同会社エール企画,,合同会社,沖縄県,南城市,大里字稲嶺９８番地１、１０２号,,47,215,9011204,,,,,,,2022-06-14,1,,,,,エールキカク,0
2307,8370001048655,新規,0,2022-06-14,2022-06-14,株式会社ＡＲＡＩ電設,,株式会社,宮城県,仙台市若林区,荒井２丁目１番地の１１,,04,103,9840032,,,,,,,2022-06-14,1,,,,,アライデンセツ,0
2322,8470001019118,新規,0,2022-06-14,2022-06-14,株式会社ＮＥＯＴＯ,,株式会社,香川県,高松市,伏石町２１５０番地６,,37,201,7618071,,,,,,,2022-06-14,1,,,,,ネオト,0
2324,8500001024279,新規,0,2022-06-14,2022-06-14,株式会社石川開発,,株式会社,愛媛県,四国中央市,金田町金川６２番地１,,38,213,7990123,,,,,,,2022-06-14,1,,,,,イシカワカイハツ,0
2325,8700150109570,新規,0,2022-06-14,2022-06-14,Ｒ　ＩＮＴＥＲＡＣＴＩＶＥ　ＰＴＥ．ＬＴＤ．,,外国会社等,東京都,品川区,西五反田４丁目１１番２－１０３,,13,109,1410031,シンガポール共和国ウィルキー・エッジ♯０３－０１ウィルキー・ロード８,,,,,,2022-06-14,1,,,,,アールインタラクテイブピーテイーイーエルテイーデイー,0
2326,8700150109686,新規,0,2022-06-14,2022-06-14,株式会社昌得,,外国会社等,三重県,鈴鹿市,住吉３丁目２６番３２号,,24,207,5130826,大韓民国ソウル、ノウォンーグ、ハングルビソクーロ１４ギル８、２０５ドン１３０２,,,,,,2022-06-14,1,,,,,カブシキガイシヤチヤンドク,0
2327,8700150109694,新規,0,2022-06-14,2022-06-14,ＬＥＥＮＡ　ＴＲＡＤＥ　ＣＯＮＣＥＲＮ　ＰＶＴ．ＬＴＤ．,,外国会社等,東京都,新宿区,大久保１丁目９－１６－３０３,,13,104,1690072,ネパール国、カトマンズ都市、デュムバラヒー４,,,,,,2022-06-14,1,,,,,リーナトレードコンサーンプライベイトリミテツド,0
2340,9010001226782,新規,0,2022-06-14,2022-06-14,ＣＧＶ株式会社,,株式会社,東京都,千代田区,丸の内３丁目２番２号２階,,13,101,1000005,,,,,,,2022-06-14,1,,,,,シージーブイ,0
2341,9010001227277,新規,0,2022-06-14,2022-06-14,果実株式会社,,株式会社,東京都,文京区,小石川１丁目５番１号ＰＣ４０２,,13,105,1120002,,,,,,,2022-06-14,1,,,,,フルーツ,0
2342,9010001227319,新規,0,2022-06-14,2022-06-14,ストロール株式会社,,株式会社,東京都,中央区,京橋１丁目１－５,,13,102,1040031,,,,,,,2022-06-14,1,,,,,ストロール,0
2343,9010001227327,新規,0,2022-06-14,2022-06-14,株式会社ＬＩＭＵ,,株式会社,東京都,中央区,晴海３丁目１３番２－４９１６号,,13,102,1040053,,,,,,,2022-06-14,1,,,,,リム,0
2344,9010001227335,新規,0,2022-06-14,2022-06-14,株式会社ＣＪＩＣジャパン,,株式会社,東京都,文京区,湯島３丁目１７番１３号,,13,105,1130034,,,,,,,2022-06-14,1,,,,,シージェイアイシージャパン,0
2345,9010001227351,新規,0,2022-06-14,2022-06-14,株式会社ＫＡＢＵＫＡＹＡ　ＴＲＡＶＥＬ,,株式会社,東京都,中央区,日本橋茅場町１丁目５番８号東京証券会館Ｂ－３１３,,13,102,1030025,,,,,,,2022-06-14,1,,,,,カブカヤトラベル,0
2346,9010001227368,新規,0,2022-06-14,2022-06-14,株式会社ぐっとらんど,,株式会社,東京都,千代田区,神田佐久間町１丁目１４番地,,13,101,1010025,,,,,,,2022-06-14,1,,,,,グットランド,0
2349,9010003037864,新規,0,2022-06-14,2022-06-14,コロナに負けない合同会社,,合同会社,東京都,中央区,銀座１丁目２２番１１号銀座大竹ビジデンス２階,,13,102,1040061,,,,,,,2022-06-14,1,,,,,コロナニマケナイ,0
2353,9010005035131,新規,0,2022-06-14,2022-06-14,一般社団法人マッハワン,,その他の設立登記法人,東京都,千代田区,内幸町１丁目３番３号内幸町ダイビル６階,,13,101,1000011,,,,,,,2022-06-14,1,,,,,マッハワン,0
2356,9010401167874,新規,0,2022-06-14,2022-06-14,株式会社オリエンタル,,株式会社,東京都,港区,南青山２丁目２番１５－１３０２号,,13,103,1070062,,,,,,,2022-06-14,1,,,,,オリエンタル,0
2357,9010401167899,新規,0,2022-06-14,2022-06-14,ＣＰ株式会社,,株式会社,東京都,港区,白金４丁目２番６号,,13,103,1080072,,,,,,,2022-06-14,1,,,,,シーピー,0
2358,9010401167908,新規,0,2022-06-14,2022-06-14,大林リアルティマネジメント株式会社,,株式会社,東京都,港区,港南２丁目１５番２号,,13,103,1080075,,,,,,,2022-06-14,1,,,,,オオバヤシリアルティマネジメント,0
2359,9010401167965,新規,0,2022-06-14,2022-06-14,株式会社光信,,株式会社,東京都,港区,元赤坂１丁目１番８号赤坂コミュニティビル４階,,13,103,1070051,,,,,,,2022-06-14,1,,,,,コウシン,0
2361,9010403027894,新規,0,2022-06-14,2022-06-14,東海林Ｉｎｔｅｒｎａｔｉｏｎａｌ東京合同会社,,合同会社,東京都,港区,麻布十番２丁目５番９号,,13,103,1060045,,,,,,,2022-06-14,1,,,,,ショウジインターナショナルトウキョウ,0
2364,9010501048958,新規,0,2022-06-14,2022-06-14,株式会社ＳＲＤマーケティング,,株式会社,東京都,台東区,台東１丁目９－４松浦ビル５Ｆ,,13,106,1100016,,,,,,,2022-06-14,1,,,,,エスアールディーマーケティング,0
2367,9010701042810,新規,0,2022-06-14,2022-06-14,ＡＴＨＥＮＡ株式会社,,株式会社,東京都,品川区,東五反田２丁目３番地５号五反田中央ビル７Ｆ,,13,109,1410022,,,,,,,2022-06-14,1,,,,,アテナ,0
2368,9010701042819,新規,0,2022-06-14,2022-06-14,株式会社Ｒｅｐｒｏ　Ａｃｃｏｍｐａｎｙ,,株式会社,東京都,品川区,西品川２丁目１４番１－７０２号,,13,109,1410033,,,,,,,2022-06-14,1,,,,,リプロアカンパニー,0
2369,9010703006276,新規,0,2022-06-14,2022-06-14,合同会社はなごろもびより,,合同会社,東京都,品川区,大崎３丁目５－３,,13,109,1410032,,,,,,,2022-06-14,1,,,,,ハナゴロモビヨリ,0
2373,9010801033040,新規,0,2022-06-14,2022-06-14,池上シンク堂株式会社,,株式会社,東京都,大田区,池上６丁目３９番３号,,13,111,1460082,,,,,,,2022-06-14,1,,,,,イケガミシンクドウ,0
2377,9010901051000,新規,0,2022-06-14,2022-06-14,株式会社ＰＯＭｎｅｔ,,株式会社,東京都,世田谷区,用賀３丁目１１番１０号,,13,112,1580097,,,,,,,2022-06-14,1,,,,,ポムネット,0
2385,9011001148018,新規,0,2022-06-14,2022-06-14,株式会社ジュガール,,株式会社,東京都,渋谷区,道玄坂１丁目１０番８号渋谷道玄坂東急ビル２Ｆ－Ｃ,,13,113,1500043,,,,,,,2022-06-14,1,,,,,ジュガール,0
2386,9011003014853,新規,0,2022-06-14,2022-06-14,合同会社ＳＨＩＮＧＵＩ,,合同会社,東京都,渋谷区,本町６丁目３０－１７,,13,113,1510071,,,,,,,2022-06-14,1,,,,,シングイ,0
2393,9011301027838,新規,0,2022-06-14,2022-06-14,株式会社ＯＲＤＡ,,株式会社,東京都,杉並区,阿佐谷北１丁目３９番３１号,,13,115,1660001,,,,,,,2022-06-14,1,,,,,オルダ,0
2394,9011301027846,新規,0,2022-06-14,2022-06-14,株式会社ＡＲＶＯ,,株式会社,東京都,杉並区,上高井戸１丁目２３番２号ハイウェルビル４Ｆ,,13,115,1680074,,,,,,,2022-06-14,1,,,,,アルボ,0
2396,9011503005187,新規,0,2022-06-14,2022-06-14,合同会社こうだ,,合同会社,東京都,荒川区,西日暮里２丁目３４番１１－１２０１号,,13,118,1160013,,,,,,,2022-06-14,1,,,,,コウダ,0
2400,9011701025383,新規,0,2022-06-14,2022-06-14,株式会社ＭｙｒＭｉｇｋｉ,,株式会社,東京都,江戸川区,西一之江４丁目１４番２１号,,13,123,1320023,,,,,,,2022-06-14,1,,,,,ミルミギ,0
2411,9013301049234,新規,0,2022-06-14,2022-06-14,株式会社ジョブらく,,株式会社,東京都,豊島区,東池袋１丁目３４番５号いちご東池袋ビル６階,,13,116,1700013,,,,,,,2022-06-14,1,,,,,ジョブラク,0
2413,9020001146906,新規,0,2022-06-14,2022-06-14,株式会社Ｂｒｅｅｄ,,株式会社,神奈川県,横浜市中区,末吉町３丁目５６番地飯塚川口ビル２０１,,14,104,2310055,,,,,,,2022-06-14,1,,,,,ブリード,0
2415,9020003021909,新規,0,2022-06-14,2022-06-14,ＰＯＯＬＰＡＲＫ合同会社,,合同会社,神奈川県,横浜市鶴見区,佃野町２９－４０－９０１,,14,101,2300061,,,,,,,2022-06-14,1,,,,,プールパーク,0
2437,9030001148595,新規,0,2022-06-14,2022-06-14,株式会社ＷＥＳＴ　ＴＯＷＥＲ,,株式会社,埼玉県,熊谷市,箱田７丁目７番６号,,11,202,3600014,,,,,,,2022-06-14,1,,,,,ウエストタワー,0
2442,9040001123837,新規,0,2022-06-14,2022-06-14,株式会社アカンサス,,株式会社,千葉県,市川市,原木２丁目５番７号,,12,203,2720004,,,,,,,2022-06-14,1,,,,,アカンサス,0
2443,9040001123853,新規,0,2022-06-14,2022-06-14,株式会社かわぐち,,株式会社,千葉県,四街道市,大日４２７番地３,,12,228,2840001,,,,,,,2022-06-14,1,,,,,カワグチ,0
2449,9060001034974,新規,0,2022-06-14,2022-06-14,株式会社クドーガレージサービス,,株式会社,栃木県,下野市,笹原９番地７,,09,216,3290402,,,,,,,2022-06-14,1,,,,,クドーガレージサービス,0
2453,9080403004565,新規,0,2022-06-14,2022-06-14,ＦＰｏｆｆｉｃｅ結い合同会社,,合同会社,静岡県,浜松市中区,中沢町２２番地３号一陽ビル１階、北,,22,131,4300904,,,,,,,2022-06-14,1,,,,,エフピーオフィスユイ,0
2454,9100001035431,新規,0,2022-06-14,2022-06-14,株式会社ＥＣＰ工建,,株式会社,長野県,長野市,若穂綿内７６０,,20,201,3810101,,,,,,,2022-06-14,1,,,,,イーシーピーコウケン,0
2461,9110001036734,新規,0,2022-06-14,2022-06-14,株式会社リクルートスクール,,株式会社,新潟県,新潟市南区,上新田甲５７５番地,,15,106,9501454,,,,,,,2022-06-14,1,,,,,リクルートスクール,0
2475,9120001246613,新規,0,2022-06-14,2022-06-14,株式会社ｎｏｖａｔｏｒ,,株式会社,大阪府,大阪市旭区,高殿４丁目１番１４－１００８号,,27,117,5350031,,,,,,,2022-06-14,1,,,,,ノワートル,0
2476,9120001246646,新規,0,2022-06-14,2022-06-14,株式会社ファーストビュー,,株式会社,大阪府,大阪市北区,西天満５丁目８番２－２０３号,,27,127,5300047,,,,,,,2022-06-14,1,,,,,ファーストビュー,0
2477,9120001246679,新規,0,2022-06-14,2022-06-14,株式会社ペンギン,,株式会社,大阪府,大阪市西区,北堀江１丁目６番２号,,27,106,5500014,,,,,,,2022-06-14,1,,,,,ペンギン,0
2478,9120001246695,新規,0,2022-06-14,2022-06-14,株式会社Ｌｉｎｋ　Ｆａｒｍ,,株式会社,大阪府,大阪市天王寺区,堂ケ芝１丁目３番３６号,,27,109,5430033,,,,,,,2022-06-14,1,,,,,リンクファーム,0
2479,9120003021898,新規,0,2022-06-14,2022-06-14,合同会社火の鳥,,合同会社,大阪府,大阪市西区,京町堀１丁目８番３５号四ツ橋鴻池ビル４Ｆ,,27,106,5500003,,,,,,,2022-06-14,1,,,,,ヒノトリ,0
2482,9120101065756,新規,0,2022-06-14,2022-06-14,泉州ジャパン株式会社,,株式会社,大阪府,和泉市,和気町２丁目１８番１９号,,27,219,5940073,,,,,,,2022-06-14,1,,,,,センシュウジャパン,0
2486,9130001071944,新規,0,2022-06-14,2022-06-14,株式会社プラス,,株式会社,京都府,京都市下京区,玉津島町２９４,,26,106,6008427,,,,,,,2022-06-14,1,,,,,プラス,0
2487,9130001071977,新規,0,2022-06-14,2022-06-14,株式会社パルフェ,,株式会社,京都府,京都市中京区,壬生朱雀町６番地２アクシルコートウェスト３０１,,26,104,6048871,,,,,,,2022-06-14,1,,,,,パルフェ,0
2488,9130003007995,新規,0,2022-06-14,2022-06-14,合同会社Ｋ‐ＬＩＮＥ,,合同会社,京都府,京都市中京区,東木屋町通四条上る鍋屋町２１７番地弥栄ビル木屋町４階,,26,104,6048015,,,,,,,2022-06-14,1,,,,,ケーライン,0
2501,9140005026191,新規,0,2022-06-14,2022-06-14,特定非営利活動法人ネパールＫＯＢＥ,,その他の設立登記法人,兵庫県,神戸市西区,玉津町新方５５１,,28,111,6512125,,,,,,,2022-06-14,1,,,,,ネパールコウベ,0
2504,9160003002589,新規,0,2022-06-14,2022-06-14,合同会社プージャー,,合同会社,滋賀県,近江八幡市,西生来町９０８－６,,25,204,5230004,,,,,,,2022-06-14,1,,,,,プージャー,0
2506,9170001017150,新規,0,2022-06-14,2022-06-14,照隅社株式会社,,株式会社,和歌山県,和歌山市,南汀丁２２番地４階Ｄ号室,,30,201,6408232,,,,,,,2022-06-14,1,,,,,ショウグウシャ,0
2510,9180001151733,新規,0,2022-06-14,2022-06-14,株式会社バイサポート,,株式会社,愛知県,名古屋市熱田区,大宝３丁目１０番１７号ニューコーポ日比野６０６,,23,109,4560062,,,,,,,2022-06-14,1,,,,,バイサポート,0
2511,9180001151741,新規,0,2022-06-14,2022-06-14,株式会社Ｔ．ｓ．Ａ,,株式会社,愛知県,尾張旭市,渋川町２丁目１番地５,,23,226,4880839,,,,,,,2022-06-14,1,,,,,ティーエスエー,0
2512,9180001151758,新規,0,2022-06-14,2022-06-14,株式会社ネクストリーム,,株式会社,愛知県,名古屋市西区,中小田井３丁目２８２番地,,23,104,4520822,,,,,,,2022-06-14,1,,,,,ネクストリーム,0
2513,9180001151774,新規,0,2022-06-14,2022-06-14,株式会社ＣＩＣ,,株式会社,愛知県,春日井市,篠木町７丁目３６番地１,,23,206,4860851,,,,,,,2022-06-14,1,,,,,シーアイシー,0
2514,9180001151799,新規,0,2022-06-14,2022-06-14,株式会社ＥＧ,,株式会社,愛知県,名古屋市中区,栄４丁目２１番２４号,,23,106,4600008,,,,,,,2022-06-14,1,,,,,イージー,0
2517,9180003023922,新規,0,2022-06-14,2022-06-14,Ｃｉａｒｏ合同会社,,合同会社,愛知県,名古屋市昭和区,阿由知通５丁目１５番地の１,,23,107,4660027,,,,,,,2022-06-14,1,,,,,シアロ,0
2524,9190001029508,新規,0,2022-06-14,2022-06-14,株式会社エクシオ,,株式会社,三重県,三重郡朝日町,大字埋縄７５９番地３,,24,343,5108104,,,,,,,2022-06-14,1,,,,,エクシオ,0
2529,9200001040165,新規,0,2022-06-14,2022-06-14,ＬＩＮＯ株式会社,,株式会社,岐阜県,高山市,新宮町４３０２番地２３,,21,203,5060035,,,,,,,2022-06-14,1,,,,,リノ,0
2530,9200003005587,新規,0,2022-06-14,2022-06-14,ＡｋｉｎＸ　Ｅｎｇｉｎｅｅｒｉｎｇ　Ｓｅｒｖｉｃｅｓ合同会社,,合同会社,岐阜県,岐阜市,洞４５８番地（学生の村１１４号室）,,21,201,5011128,,,,,,,2022-06-14,1,,,,,アキンエックスエンジニアリングサービス,0
2535,9220003003300,新規,0,2022-06-14,2022-06-14,合同会社Ｖｉｖｉｒ,,合同会社,石川県,河北郡津幡町,字庄ニ５４番地１３,,17,361,9290327,,,,,,,2022-06-14,1,,,,,ビビール,0
2541,9240001059920,新規,0,2022-06-14,2022-06-14,株式会社ＧＲＥＥＮ,,株式会社,広島県,広島市佐伯区,三筋３丁目５番１９号,,34,108,7315144,,,,,,,2022-06-14,1,,,,,グリーン,0
2542,9240001059929,新規,0,2022-06-14,2022-06-14,株式会社ファイブエスソリューションズ,,株式会社,広島県,広島市南区,西蟹屋３丁目８番１０号,,34,103,7320804,,,,,,,2022-06-14,1,,,,,ファイブエスソリューションズ,0
2543,9240001059937,新規,0,2022-06-14,2022-06-14,株式会社ｅｎ．ｌａｒｇｅ,,株式会社,広島県,広島市安佐南区,長束３丁目３７番４号,,34,105,7310135,,,,,,,2022-06-14,1,,,,,エンラージ,0
2546,9240003005666,新規,0,2022-06-14,2022-06-14,合同会社３コンサル,,合同会社,広島県,広島市中区,紙屋町１丁目４番３－４０４号,,34,101,7300031,,,,,,,2022-06-14,1,,,,,スリーコンサル,0
2556,9260001036934,新規,0,2022-06-14,2022-06-14,株式会社ＹＫＤ,,株式会社,岡山県,倉敷市,船穂町船穂１８９７番地７,,33,202,7100261,,,,,,,2022-06-14,1,,,,,ワイケイディ,0
2557,9260001036942,新規,0,2022-06-14,2022-06-14,株式会社ＬＨＳ　ＪＡＰＡＮ,,株式会社,岡山県,岡山市南区,福成３丁目２番３号,,33,104,7028022,,,,,,,2022-06-14,1,,,,,エルエイチエスジャパン,0
2558,9260001036950,新規,0,2022-06-14,2022-06-14,株式会社ＫＺ‐Ｃｏｎｓｕｌｔｉｎｇ,,株式会社,岡山県,岡山市北区,大元駅前５番１７号大元テナント２階,,33,101,7000923,,,,,,,2022-06-14,1,,,,,ケージーコンサルティング,0
2563,9270003001415,新規,0,2022-06-14,2022-06-14,合同会社ウエルビーイング,,合同会社,鳥取県,米子市,諏訪５２７番地,,31,202,6830013,,,,,,,2022-06-14,1,,,,,ウエルビーイング,0
2571,9290801028632,新規,0,2022-06-14,2022-06-14,株式会社ＨＬＫ九州,,株式会社,福岡県,田川市,大字伊加利５５５番地,,40,206,8250001,,,,,,,2022-06-14,1,,,,,エイチエルケイキュウシュウ,0
2572,9290803004144,新規,0,2022-06-14,2022-06-14,合同会社Ｓｙｌｐｈ,,合同会社,福岡県,北九州市小倉北区,大手町１７番１－２０５号,,40,106,8030814,,,,,,,2022-06-14,1,,,,,シルフ,0
2573,9320001019131,新規,0,2022-06-14,2022-06-14,統栄建設工業株式会社,,株式会社,大分県,大分市,城東町１番６号第３ハニービル１Ｆ,,44,201,8700153,,,,,,,2022-06-14,1,,,,,トウエイケンセツコウギョウ,0
2576,9320003003827,新規,0,2022-06-14,2022-06-14,合同会社カイコウラ,,合同会社,大分県,別府市,田の湯町９番３０号,,44,202,8740909,,,,,,,2022-06-14,1,,,,,カイコウラ,0
2580,9330003009419,新規,0,2022-06-14,2022-06-14,工房武富合同会社,,合同会社,熊本県,熊本市東区,御領１丁目７番３７号リュ・ミエール１Ｆ－Ａ,,43,102,8618035,,,,,,,2022-06-14,1,,,,,コウボウタケドミ,0
2582,9340001024815,新規,0,2022-06-14,2022-06-14,株式会社一國,,株式会社,鹿児島県,大島郡瀬戸内町,大字阿木名９２８番地,,46,525,8941511,,,,,,,2022-06-14,1,,,,,イッコク,0
2583,9340003003825,新規,0,2022-06-14,2022-06-14,合同会社Ｓｈｉｎｅ　Ｂｉｇ,,合同会社,鹿児島県,いちき串木野市,大里３９２１番地１,,46,219,8992103,,,,,,,2022-06-14,1,,,,,シャインビッグ,0
2588,9350001017801,新規,0,2022-06-14,2022-06-14,株式会社ＳＫＣ,,株式会社,宮崎県,都城市,今町７５０７番地７,,45,202,8850064,,,,,,,2022-06-14,1,,,,,エスケイシー,0
2592,9370001048654,新規,0,2022-06-14,2022-06-14,株式会社ＫＩＳ,,株式会社,宮城県,塩竈市,錦町１２番２号,,04,203,9850024,,,,,,,2022-06-14,1,,,,,ケイアイエス,0
2593,9370001048679,新規,0,2022-06-14,2022-06-14,ＳＡＫＵＲＡ‐ＥＸＰＲＥＳＳ株式会社,,株式会社,宮城県,栗原市,築館字沢入３３番地,,04,213,9872232,,,,,,,2022-06-14,1,,,,,サクラエクスプレス,0
2604,9440003001471,新規,0,2022-06-14,2022-06-14,合同会社巴海,,合同会社,北海道,函館市,西旭岡町２丁目２１番地４,,01,202,0420915,,,,,,,2022-06-14,1,,,,,トモミ,0
2614,9700150109693,新規,0,2022-06-14,2022-06-14,ＴＯＫＹＯ　ＡＵＴＯ　ＩＮＴＥＲＮＡＴＩＯＮＡＬ　ＰＶＴＬＴＤ,,外国会社等,千葉県,山武市,成東２５０２－５ラフェーヌ成東Ｂ２０１,,12,237,2891326,スリランカ民主社会主義共和国、アクラナ、ネーラルラ、メルチェナ５７２／１,,,,,,2022-06-14,1,,,,,トウキヨウオートインターナシヨナルピーヴイテイエルテイデイ,0
