sequenceNumber,corporateNumber,process,correct,updateDate,changeDate,name,nameImageId,kind,prefectureName,cityName,streetNumber,addressImageId,prefectureCode,cityCode,postCode,addressOutside,addressOutsideImageId,closeDate,closeCause,successorCorporateNumber,changeCause,assignmentDate,latest,enName,enPrefectureName,enCityName,enAddressOutside,furigana,hihyoji
11,1010001233299,新規,0,2023-02-28,2023-02-28,東京道路株式会社,,株式会社,東京都,中央区,日本橋本町１丁目１０番２号,,13,102,1030023,,,,,,,2023-02-28,1,,,,,トウキョウドウロ,0
14,1010003039918,新規,0,2023-02-28,2023-02-28,合同会社梨の木,,合同会社,東京都,文京区,音羽１丁目２５番１５－２０３号,,13,105,1120013,,,,,,,2023-02-28,1,,,,,ナシノキ,0
22,1010401172725,新規,0,2023-02-28,2023-02-28,株式会社Ｓ２ＰＲＯＪＥＣＴ,,株式会社,東京都,港区,南青山６丁目７番７号ファーロ南青山４０１,,13,103,1070062,,,,,,,2023-02-28,1,,,,,エスツープロジェクト,0
24,1010403029576,新規,0,2023-02-28,2023-02-28,合同会社Ｌｉｂｅｒｔａ,,合同会社,東京都,港区,赤坂４丁目２―２２―１０１,,13,103,1070052,,,,,,,2023-02-28,1,,,,,リベルタ,0
25,1010403029618,新規,0,2023-02-28,2023-02-28,合同会社ＰＬＡＴＩＮＵＭ　ＳＩＸ,,合同会社,東京都,港区,白金６丁目１６番２５号,,13,103,1080072,,,,,,,2023-02-28,1,,,,,プラチナムシックス,0
26,1010403029626,新規,0,2023-02-28,2023-02-28,合同会社ＷＩＴＨＭＡＣＨＩ,,合同会社,東京都,港区,南青山３丁目１番３６号青山丸竹ビル６Ｆ,,13,103,1070062,,,,,,,2023-02-28,1,,,,,ウィズマチ,0
36,1010501050070,新規,0,2023-02-28,2023-02-28,株式会社Ｎａｔｕｒｅｈｉｋｅ　Ｊａｐａｎ,,株式会社,東京都,台東区,台東２丁目２７番３号ＮＳＫビル１０Ｆ,,13,106,1100016,,,,,,,2023-02-28,1,,,,,ネイチャーハイクジャパン,0
41,1010901052625,新規,0,2023-02-28,2023-02-28,株式会社Ｅｌ　ｓｅｇｕｎｄｏ,,株式会社,東京都,世田谷区,深沢７丁目５番２０号ディアレンス深沢Ｆ,,13,112,1580081,,,,,,,2023-02-28,1,,,,,エルセグンド,0
48,1011001152786,新規,0,2023-02-28,2023-02-28,株式会社ｙａｍａ,,株式会社,東京都,渋谷区,道玄坂１丁目１０番８号渋谷道玄坂東急ビル２Ｆ－Ｃ,,13,113,1500043,,,,,,,2023-02-28,1,,,,,ヤマ,0
49,1011001152811,新規,0,2023-02-28,2023-02-28,株式会社ＣＡリスキリングパートナーズ,,株式会社,東京都,渋谷区,渋谷２丁目２４番１２号,,13,113,1500002,,,,,,,2023-02-28,1,,,,,シーエーリスキリングパートナーズ,0
50,1011001152828,新規,0,2023-02-28,2023-02-28,株式会社レッドシエル,,株式会社,東京都,渋谷区,桜丘町２３番１７号シティコート桜丘４０８,,13,113,1500031,,,,,,,2023-02-28,1,,,,,レッドシエル,0
52,1011005009966,新規,0,2023-02-28,2023-02-28,社会保険労務士法人ＯＭＮＩＡ　Ｃｏｎｓｕｌｔｉｎｇ,,その他の設立登記法人,東京都,渋谷区,神南１丁目１８番２号,,13,113,1500041,,,,,,,2023-02-28,1,,,,,オムニアコンサルティング,0
55,1011101101957,新規,0,2023-02-28,2023-02-28,株式会社ＳＵＮ　ＬＯＴＵＳ,,株式会社,東京都,新宿区,西新宿３丁目３番１３号西新宿水間ビル２階,,13,104,1600023,,,,,,,2023-02-28,1,,,,,サンロータス,0
56,1011101101965,新規,0,2023-02-28,2023-02-28,株式会社フィールドオブゴールド,,株式会社,東京都,新宿区,新宿２丁目１２番１３号新宿アントレサロンビル２階,,13,104,1600022,,,,,,,2023-02-28,1,,,,,フィールドオブゴールド,0
57,1011101101973,新規,0,2023-02-28,2023-02-28,ＳｗｅｅｔＧｌｏｗ　Ｈｏｎｅｙ　Ｊａｐａｎ株式会社,,株式会社,東京都,新宿区,西新宿３丁目３番１３号西新宿水間ビル２Ｆ,,13,104,1600023,,,,,,,2023-02-28,1,,,,,スイートグロウハニージャパン,0
58,1011101101981,新規,0,2023-02-28,2023-02-28,株式会社ｙｏｒｉｓｏｌ,,株式会社,東京都,新宿区,新宿１丁目３６番２号新宿第七葉山ビル３階,,13,104,1600022,,,,,,,2023-02-28,1,,,,,ヨリソル,0
62,1011201024447,新規,0,2023-02-28,2023-02-28,ＮＭＧ株式会社,,株式会社,東京都,中野区,中野４丁目１０番２号,,13,114,1640001,,,,,,,2023-02-28,1,,,,,エヌエムジー,0
66,1011501028998,新規,0,2023-02-28,2023-02-28,動く棋書株式会社,,株式会社,東京都,荒川区,西日暮里２丁目６番１８－２２１号,,13,118,1160013,,,,,,,2023-02-28,1,,,,,ウゴクキショ,0
68,1011601026621,新規,0,2023-02-28,2023-02-28,株式会社エフ・プラン,,株式会社,東京都,練馬区,富士見台２丁目１７番１３号クオテラス富士見台１階,,13,120,1770034,,,,,,,2023-02-28,1,,,,,エフプラン,0
73,1011801041957,新規,0,2023-02-28,2023-02-28,日日交通株式会社,,株式会社,東京都,足立区,保木間１丁目３２番１５－２０２号,,13,121,1210064,,,,,,,2023-02-28,1,,,,,ニチニチコウツウ,0
83,1012801022162,新規,0,2023-02-28,2023-02-28,株式会社國廣設備,00129556,株式会社,東京都,日野市,神明１丁目５番地の３１,,13,212,1910016,,,,,,,2023-02-28,1,,,,,クニヒロセツビ,0
84,1012803003020,新規,0,2023-02-28,2023-02-28,合同会社ブナサイクル,,合同会社,東京都,立川市,羽衣町２丁目２７番９号,,13,202,1900021,,,,,,,2023-02-28,1,,,,,ブナサイクル,0
89,1013301050372,新規,0,2023-02-28,2023-02-28,株式会社エヌユニ,,株式会社,東京都,豊島区,西池袋５丁目４－１,,13,116,1710021,,,,,,,2023-02-28,1,,,,,エヌユニ,0
90,1013303006513,新規,0,2023-02-28,2023-02-28,合同会社ｉａｍ,,合同会社,東京都,豊島区,南大塚３丁目２８番６－１２０２号,,13,116,1700005,,,,,,,2023-02-28,1,,,,,アイアム,0
98,1020001150436,新規,0,2023-02-28,2023-02-28,株式会社ＴＥＲＡＡＳ,,株式会社,神奈川県,川崎市高津区,下作延１丁目１－７ｎｏｋｕｔｉｃａ,,14,134,2130033,,,,,,,2023-02-28,1,,,,,テラス,0
107,1021001078304,新規,0,2023-02-28,2023-02-28,株式会社ＤＡｉＲＡ,,株式会社,神奈川県,平塚市,山下３丁目３４番４０号,,14,203,2540911,,,,,,,2023-02-28,1,,,,,ダイラ,0
108,1021003012814,新規,0,2023-02-28,2023-02-28,渡邊工業合同会社,,合同会社,神奈川県,横須賀市,公郷町３丁目１２３－２６,,14,201,2380022,,,,,,,2023-02-28,1,,,,,ワタナベコウギョウ,0
110,1021005012746,新規,0,2023-02-28,2023-02-28,司法書士法人みつよしオフィス,,その他の設立登記法人,神奈川県,大和市,大和南１丁目１３番１３号グリーンシャトー１０２号,,14,213,2420016,,,,,,,2023-02-28,1,,,,,ミツヨシオフィス,0
118,1030001152539,新規,0,2023-02-28,2023-02-28,株式会社Ｔｅｃｌｏｃｋ,,株式会社,埼玉県,所沢市,弥生町１７８１ー７,,11,208,3590043,,,,,,,2023-02-28,1,,,,,テックロック,0
119,1030001152547,新規,0,2023-02-28,2023-02-28,株式会社ロンテクノス,,株式会社,埼玉県,大里郡寄居町,大字寄居１１９３番地９,,11,408,3691203,,,,,,,2023-02-28,1,,,,,ロンテクノス,0
120,1030001152555,新規,0,2023-02-28,2023-02-28,株式会社ｌｕｎｌｕｎ,,株式会社,埼玉県,大里郡寄居町,大字寄居１１９６番地６メゾン・ド・マルベリーＢ－２０５,,11,408,3691203,,,,,,,2023-02-28,1,,,,,ルンルン,0
121,1030001152563,新規,0,2023-02-28,2023-02-28,株式会社Ｈｅｒｉｔａｇｅ,,株式会社,埼玉県,上尾市,浅間台１丁目１６－１,,11,219,3620073,,,,,,,2023-02-28,1,,,,,エリタージュ,0
128,1040001127226,新規,0,2023-02-28,2023-02-28,岳＿商事株式会社,00129562,株式会社,千葉県,千葉市若葉区,中田町２４７９番地２７,,12,104,2650043,,,,,,,2023-02-28,1,,,,,タケキンショウジ,0
129,1040001127242,新規,0,2023-02-28,2023-02-28,Ａ＆Ｍホールディングス株式会社,,株式会社,千葉県,千葉市美浜区,磯辺８丁目１５番６号,,12,106,2610012,,,,,,,2023-02-28,1,,,,,エーアンドエムホールディングス,0
132,1040003022037,新規,0,2023-02-28,2023-02-28,合同会社シークレットベース,,合同会社,千葉県,松戸市,小金１６０番地の２ヴィラウィスタリア松戸１０３号,,12,207,2700014,,,,,,,2023-02-28,1,,,,,シークレットベース,0
133,1040003022045,新規,0,2023-02-28,2023-02-28,ヴェスパ合同会社,,合同会社,千葉県,千葉市花見川区,花見川４番４棟５１２号,,12,102,2620046,,,,,,,2023-02-28,1,,,,,ヴェスパ,0
135,1050001052448,新規,0,2023-02-28,2023-02-28,みらいサポート株式会社,,株式会社,茨城県,つくば市,東２丁目１５番地３３,,08,220,3050046,,,,,,,2023-02-28,1,,,,,ミライサポート,0
136,1050003007268,新規,0,2023-02-28,2023-02-28,合同会社ＳＴＡＲ　ＦＯＯＤ,,合同会社,茨城県,下妻市,鎌庭６３番地,,08,210,3040819,,,,,,,2023-02-28,1,,,,,スターフード,0
144,1080101023809,新規,0,2023-02-28,2023-02-28,株式会社錦鴻,,株式会社,静岡県,伊東市,八幡野１０９１番地の８９,,22,208,4130232,,,,,,,2023-02-28,1,,,,,キンコウ,0
146,1080403004738,新規,0,2023-02-28,2023-02-28,合同会社ＮＫＣ,,合同会社,静岡県,浜松市中区,曳馬６丁目２１番４３号ビラ四季３０３,,22,131,4300901,,,,,,,2023-02-28,1,,,,,エヌケーシー,0
147,1100001036180,新規,0,2023-02-28,2023-02-28,株式会社エフアンドエス,,株式会社,長野県,長野市,安茂里小市４丁目５９８６番地３,,20,201,3800961,,,,,,,2023-02-28,1,,,,,エフアンドエス,0
152,1110001037310,新規,0,2023-02-28,2023-02-28,株式会社心Ｗｉｌｌ,,株式会社,新潟県,南魚沼市,坂戸２３１番地６,,15,226,9496611,,,,,,,2023-02-28,1,,,,,ココロウィル,0
167,1120001252817,新規,0,2023-02-28,2023-02-28,株式会社Ｔ‐ＬＡＣ,,株式会社,大阪府,大阪市中央区,内淡路町２丁目２番８号,,27,128,5400038,,,,,,,2023-02-28,1,,,,,ティーラック,0
170,1120003023506,新規,0,2023-02-28,2023-02-28,スクーデリア合同会社,,合同会社,大阪府,大阪市中央区,備後町１丁目２番１４－３０３号,,27,128,5410051,,,,,,,2023-02-28,1,,,,,スクーデリア,0
183,1140003018768,新規,0,2023-02-28,2023-02-28,合同会社ＳｕＵ　ａｎｄ,,合同会社,兵庫県,三田市,志手原６６９番地,,28,219,6691506,,,,,,,2023-02-28,1,,,,,スゥーアンド,0
190,1180001155072,新規,0,2023-02-28,2023-02-28,株式会社星野ｐｒｏｄｕｃｔｓ,,株式会社,愛知県,名古屋市熱田区,木之免町３０１番地４－６０３,,23,109,4560046,,,,,,,2023-02-28,1,,,,,ホシノプロダクツ,0
191,1180001155122,新規,0,2023-02-28,2023-02-28,株式会社ｎｉｃｏ,,株式会社,愛知県,名古屋市西区,庄内通５丁目７番地の１,,23,104,4510016,,,,,,,2023-02-28,1,,,,,ニコ,0
193,1180003024886,新規,0,2023-02-28,2023-02-28,合同会社ＩＳ,,合同会社,愛知県,小牧市,岩崎原１丁目１１８番地,,23,219,4850017,,,,,,,2023-02-28,1,,,,,アイエス,0
200,1200003005842,新規,0,2023-02-28,2023-02-28,合同会社ヒダセ,,合同会社,岐阜県,関市,肥田瀬３２６７―１,,21,205,5013911,,,,,,,2023-02-28,1,,,,,ヒダセ,0
205,1230001019726,新規,0,2023-02-28,2023-02-28,ＫＰＩ株式会社,,株式会社,富山県,富山市,桃井町１丁目５番９号,,16,201,9300072,,,,,,,2023-02-28,1,,,,,ケイピーアイ,0
208,1240003006036,新規,0,2023-02-28,2023-02-28,合同会社トモシビファーム,,合同会社,広島県,東広島市,安芸津町風早７６６,,34,212,7392403,,,,,,,2023-02-28,1,,,,,トモシビファーム,0
209,1240005015522,新規,0,2023-02-28,2023-02-28,医療法人こばやし眼科,,その他の設立登記法人,広島県,尾道市,天満町１６番１４－１１号,,34,205,7220038,,,,,,,2023-02-28,1,,,,,コバヤシガンカ,0
220,1290003013580,新規,0,2023-02-28,2023-02-28,Ｄｉｉ　Ｐｈｕｎ合同会社,,合同会社,福岡県,福岡市南区,大楠１丁目９－２５－１０１号,,40,134,8150082,,,,,,,2023-02-28,1,,,,,ディフン,0
232,1360003012757,新規,0,2023-02-28,2023-02-28,ｔ＆ｏ　ｉｎｖ合同会社,,合同会社,沖縄県,中頭郡北谷町,字宮城１番地１アルトゥーレ美浜１３２１,,47,326,9040113,,,,,,,2023-02-28,1,,,,,ティーアンドオーアイエヌブイ,0
239,1390001017169,新規,0,2023-02-28,2023-02-28,株式会社ＡＬＴＮＡ,,株式会社,山形県,新庄市,桧町４‐７,,06,205,9960088,,,,,,,2023-02-28,1,,,,,オルタナ,0
242,1400001016160,新規,0,2023-02-28,2023-02-28,磐井ＡＩ株式会社,,株式会社,岩手県,一関市,萩荘字高梨・一関工業高等専門学校・地域共同テクノセンター・共同研究室１,,03,209,0210902,,,,,,,2023-02-28,1,,,,,イワイエーアイ,0
247,1430001088511,新規,0,2023-02-28,2023-02-28,舞ＬＡＢＯ株式会社,,株式会社,北海道,札幌市北区,北九条西４丁目１９番３号キャッスルエルム１０４号,,01,102,0600809,,,,,,,2023-02-28,1,,,,,マイラボ,0
251,1430003014746,新規,0,2023-02-28,2023-02-28,合同会社ＭＳエイム,,合同会社,北海道,石狩市,樽川４５３番７０,,01,235,0613251,,,,,,,2023-02-28,1,,,,,エムエスエイム,0
257,1490001010411,新規,0,2023-02-28,2023-02-28,仁淀ブルーツアー株式会社,,株式会社,高知県,吾川郡仁淀川町,土居甲１０７８番地２,,39,387,7811606,,,,,,,2023-02-28,1,,,,,ニヨドブルーツアー,0
263,1700150112218,新規,0,2023-02-28,2022-10-24,ＹＯＭＡＦＩＧ．,,その他,東京都,武蔵野市,吉祥寺南町４丁目３－１３井ノ頭サマリヤマンション６０２号,,13,203,1800003,,,,,,,2022-10-24,1,,,,,ヨマフイグ,0
270,2010003039801,新規,0,2023-02-28,2023-02-28,合同会社ｐｌｕｓＬＵ,,合同会社,東京都,中央区,銀座１丁目１２番４号Ｎ＆ＥＢＬＤ．６Ｆ,,13,102,1040061,,,,,,,2023-02-28,1,,,,,プラスエルユー,0
276,2010005036284,新規,0,2023-02-28,2023-02-28,一般社団法人ＤＨ有明プロジェクト,,その他の設立登記法人,東京都,千代田区,内神田２丁目２番６号５階あすな会計事務所内,,13,101,1010047,,,,,,,2023-02-28,1,,,,,ディーエイチアリアケプロジェクト,0
286,2010501050061,新規,0,2023-02-28,2023-02-28,古井株式会社,,株式会社,東京都,台東区,浅草橋５丁目１－３１ロッキービル３階３０８号室,,13,106,1110053,,,,,,,2023-02-28,1,,,,,コイ,0
289,2010701043889,新規,0,2023-02-28,2023-02-28,ハッピーウィン株式会社,,株式会社,東京都,品川区,二葉２丁目１０番５号,,13,109,1420043,,,,,,,2023-02-28,1,,,,,ハッピーウィン,0
290,2010801033724,新規,0,2023-02-28,2023-02-28,株式会社ＪＩＸ,,株式会社,東京都,大田区,北糀谷２丁目１５番１３号,,13,111,1440032,,,,,,,2023-02-28,1,,,,,ジックス,0
295,2010903007997,新規,0,2023-02-28,2023-02-28,合同会社フジタや彬彬,,合同会社,東京都,世田谷区,南烏山２丁目３１番３１－１０５号,,13,112,1570062,,,,,,,2023-02-28,1,,,,,フジタヤヒンピン,0
303,2011001152810,新規,0,2023-02-28,2023-02-28,株式会社ハイホープ,,株式会社,東京都,目黒区,目黒２丁目１２－１目黒エースマンション３０１,,13,110,1530063,,,,,,,2023-02-28,1,,,,,,0
304,2011001152835,新規,0,2023-02-28,2023-02-28,株式会社ｌｕｘｅ,,株式会社,東京都,渋谷区,神南１丁目２３番１４号,,13,113,1500041,,,,,,,2023-02-28,1,,,,,リュクス,0
309,2011101101956,新規,0,2023-02-28,2023-02-28,株式会社Ｐｕｌｓ　Ｕｌｔｒａ,,株式会社,東京都,新宿区,西新宿３丁目３番１３号西新宿水間ビル２階,,13,104,1600023,,,,,,,2023-02-28,1,,,,,プルスウルトラ,0
310,2011101101972,新規,0,2023-02-28,2023-02-28,株式会社Ｋａｌｏｎ,,株式会社,東京都,新宿区,西新宿７丁目２２－３４新宿東海ビル３０１・３０２,,13,104,1600023,,,,,,,2023-02-28,1,,,,,カロン,0
311,2011103012739,新規,0,2023-02-28,2023-02-28,合同会社阿頼耶識,,合同会社,東京都,新宿区,新宿６丁目２７番１号,,13,104,1600022,,,,,,,2023-02-28,1,,,,,アラヤシキ,0
314,2011401024931,新規,0,2023-02-28,2023-02-28,株式会社スマート,,株式会社,東京都,板橋区,志村１丁目１２番２６号,,13,119,1740056,,,,,,,2023-02-28,1,,,,,スマート,0
318,2011801041956,新規,0,2023-02-28,2023-02-28,日日交通株式会社,,株式会社,東京都,足立区,保木間１丁目３２番１５－２０１号,,13,121,1210064,,,,,,,2023-02-28,1,,,,,ニチニチコウツウ,0
319,2011801041989,新規,0,2023-02-28,2023-02-28,小書日本株式会社,,株式会社,東京都,足立区,南花畑２丁目３９番３－Ａ号,,13,121,1210062,,,,,,,2023-02-28,1,,,,,ショウショニホン,0
322,2013101009122,新規,0,2023-02-28,2023-02-28,株式会社ＢＵＳＹＵホールディングス,,株式会社,東京都,青梅市,末広町１丁目２番地の３,,13,205,1980025,,,,,,,2023-02-28,1,,,,,ブシュウホールディングス,0
325,2013303006512,新規,0,2023-02-28,2023-02-28,合同会社カッツェクリエイティブ,,合同会社,東京都,豊島区,要町１丁目１４番５号,,13,116,1710043,,,,,,,2023-02-28,1,,,,,カッツェクリエイティブ,0
332,2020001150385,新規,0,2023-02-28,2023-02-28,株式会社ダビンチリンク,,株式会社,神奈川県,横浜市瀬谷区,橋戸２丁目４番地５コーポフェニックスＢ棟４０５,,14,114,2460037,,,,,,,2023-02-28,1,,,,,ダビンチリンク,0
339,2021001078303,新規,0,2023-02-28,2023-02-28,株式会社ＳＫプランニング,,株式会社,神奈川県,厚木市,及川２丁目１９番５６号,,14,212,2430212,,,,,,,2023-02-28,1,,,,,エスケープランニング,0
340,2021003012805,新規,0,2023-02-28,2023-02-28,合同会社イチカワ,,合同会社,神奈川県,鎌倉市,笛田５丁目９‐４１,,14,204,2480027,,,,,,,2023-02-28,1,,,,,イチカワ,0
341,2021003012813,新規,0,2023-02-28,2023-02-28,ＥＤＩＥＥＥ合同会社,,合同会社,神奈川県,藤沢市,鵠沼海岸５丁目３番１７～２０５号,,14,205,2510037,,,,,,,2023-02-28,1,,,,,エディ,0
351,2030001152570,新規,0,2023-02-28,2023-02-28,株式会社ＬｉｖＳｅａ,,株式会社,埼玉県,川口市,幸町１丁目７番１－８０４号,,11,203,3320016,,,,,,,2023-02-28,1,,,,,リブシー,0
352,2030001152579,新規,0,2023-02-28,2023-02-28,株式会社Ｄｉｅｇｅｔｉｃ,,株式会社,埼玉県,所沢市,寿町２７－７コンセールタワー所沢１８１０,,11,208,3591122,,,,,,,2023-02-28,1,,,,,ダイジェティック,0
353,2030001152587,新規,0,2023-02-28,2023-02-28,株式会社Ｃｏｄｉｅｎｃｅ,,株式会社,埼玉県,川越市,東田町２３番地２ドミ東田１０１,,11,201,3501114,,,,,,,2023-02-28,1,,,,,,0
357,2030003021261,新規,0,2023-02-28,2023-02-28,Ｎｏｒｉｏｎ合同会社,,合同会社,埼玉県,さいたま市西区,大字西遊馬２６１番地,,11,101,3310061,,,,,,,2023-02-28,1,,,,,ノリオン,0
366,2040001127209,新規,0,2023-02-28,2023-02-28,株式会社シルフィード,,株式会社,千葉県,流山市,野々下５丁目８８２番地の４１,,12,220,2700135,,,,,,,2023-02-28,1,,,,,シルフィード,0
367,2040001127217,新規,0,2023-02-28,2023-02-28,株式会社テクノエイブ,,株式会社,千葉県,千葉市中央区,富士見２丁目７番９富士見ビル６０９号,,12,101,2600015,,,,,,,2023-02-28,1,,,,,テクノエイブ,0
372,2040003022044,新規,0,2023-02-28,2023-02-28,合同会社Ｓｃｏｏｐ,,合同会社,千葉県,八千代市,八千代台東５丁目１４番８号,,12,221,2760032,,,,,,,2023-02-28,1,,,,,スクープ,0
378,2040005021911,新規,0,2023-02-28,2023-02-28,一般社団法人子ども文化芸術コミュニティＳｏｌａ,,その他の設立登記法人,千葉県,千葉市花見川区,幕張町５丁目４１７番地２４９号,,12,102,2620032,,,,,,,2023-02-28,1,,,,,コドモブンカゲイジュツコミュニティソラ,0
380,2050003007267,新規,0,2023-02-28,2023-02-28,ＲＥＧＩＮＡ　ＡＵＴＯ　ＴＲＡＤＥＲＳ合同会社,,合同会社,茨城県,稲敷郡美浦村,大字布佐１６７８番地１１－Ｂ棟,,08,442,3000427,,,,,,,2023-02-28,1,,,,,レジーナオートトレーダーズ,0
381,2060001035723,新規,0,2023-02-28,2023-02-28,株式会社４‐ＦＵＫＵ　ＰＬＡＮＮＩＮＧ,,株式会社,栃木県,宇都宮市,簗瀬町１９４３番地４,,09,201,3210933,,,,,,,2023-02-28,1,,,,,シフクプランニング,0
382,2060001035731,新規,0,2023-02-28,2023-02-28,株式会社レイアール,,株式会社,栃木県,下都賀郡壬生町,大字安塚８４８番地１３,00129563,09,361,3210201,,,,,,,2023-02-28,1,,,,,レイアール,0
385,2070003004840,新規,0,2023-02-28,2023-02-28,合同会社ことほぎ,,合同会社,群馬県,前橋市,上新田町８９０－８,,10,201,3710821,,,,,,,2023-02-28,1,,,,,コトホギ,0
401,2120001252782,新規,0,2023-02-28,2023-02-28,株式会社ＳＪＴ,,株式会社,大阪府,大阪市西区,南堀江１丁目１５－１７－９０５,,27,106,5500015,,,,,,,2023-02-28,1,,,,,エスジェイティー,0
402,2120001252799,新規,0,2023-02-28,2023-02-28,晴天株式会社,,株式会社,大阪府,大阪市中央区,道頓堀１丁目１番１３号,,27,128,5420071,,,,,,,2023-02-28,1,,,,,セイテン,0
405,2120003023488,新規,0,2023-02-28,2023-02-28,ＭＴ合同会社,,合同会社,大阪府,大阪市生野区,新今里３丁目２２番１９号サンハイツ今里３０２号,,27,116,5440001,,,,,,,2023-02-28,1,,,,,エムティー,0
406,2120003023521,新規,0,2023-02-28,2023-02-28,ＹＯＲＯＫＯＢＩ合同会社,,合同会社,大阪府,寝屋川市,御幸東町１２番４号,,27,215,5720055,,,,,,,2023-02-28,1,,,,,ヨロコビ,0
417,2130001073732,新規,0,2023-02-28,2023-02-28,京都坐地所株式会社,,株式会社,京都府,京都市下京区,東洞院通高辻下る燈籠町５８８番地,,26,106,6008401,,,,,,,2023-02-28,1,,,,,キョウトイマスジショ,0
418,2130001073740,新規,0,2023-02-28,2023-02-28,株式会社ＫＩＺＵＮＡ,,株式会社,京都府,相楽郡精華町,精華台９丁目２番４号,,26,366,6190238,,,,,,,2023-02-28,1,,,,,キズナ,0
424,2140001129260,新規,0,2023-02-28,2023-02-28,株式会社水響舎,,株式会社,兵庫県,尼崎市,武庫町４丁目１０番４号３号,,28,202,6610044,,,,,,,2023-02-28,1,,,,,スイキョウシャ,0
428,2140005026479,新規,0,2023-02-28,2023-02-28,一般社団法人グラウンドファンディング,,その他の設立登記法人,兵庫県,淡路市,竹谷４５９番地１マサイアパート４号,,28,226,6561524,,,,,,,2023-02-28,1,,,,,グラウンドファンディング,0
432,2160003002802,新規,0,2023-02-28,2023-02-28,合同会社ＹＯＬＯ．,,合同会社,滋賀県,大津市,大江３丁目１７番４号,,25,201,5202141,,,,,,,2023-02-28,1,,,,,ヨロ,0
438,2180001155105,新規,0,2023-02-28,2023-02-28,株式会社ｐｐｐ’Ｓ,,株式会社,愛知県,一宮市,東五城字篭島４０番地１Ａ１０１号,,23,203,4940008,,,,,,,2023-02-28,1,,,,,ピース,0
439,2180001155113,新規,0,2023-02-28,2023-02-28,株式会社ＰＤＬＣ　ＪＡＰＡＮ　ＧＲＯＵＰ,,株式会社,愛知県,春日井市,牛山町１５４６番地１,,23,206,4860901,,,,,,,2023-02-28,1,,,,,ピーディーエルシージャパングループ,0
445,2180003024893,新規,0,2023-02-28,2023-02-28,オフィスＴＪＫ合同会社,,合同会社,愛知県,名古屋市瑞穂区,桜見町１丁目２番地の１,,23,108,4670805,,,,,,,2023-02-28,1,,,,,オフィスティージェイケイ,0
451,2200001040956,新規,0,2023-02-28,2023-02-28,株式会社ＮＩＴＯＲＯ,,株式会社,岐阜県,羽島郡岐南町,伏屋３丁目２１３－２,,21,302,5016006,,,,,,,2023-02-28,1,,,,,ニトロ,0
452,2200001040989,新規,0,2023-02-28,2023-02-28,大和日中国際貿易株式会社,,株式会社,岐阜県,岐阜市,木ノ下町５丁目１９番地１－２Ｆ,,21,201,5008154,,,,,,,2023-02-28,1,,,,,ダイワニッチュウコクサイボウエキ,0
453,2200001040997,新規,0,2023-02-28,2023-02-28,株式会社ＫＭＹ,,株式会社,岐阜県,土岐市,土岐津町土岐口２２５５番地の３７０,,21,212,5095122,,,,,,,2023-02-28,1,,,,,ケイエムワイ,0
473,2290001100669,新規,0,2023-02-28,2023-02-28,株式会社Ａ,,株式会社,福岡県,福岡市博多区,山王１丁目８番７－３０２号,,40,132,8120015,,,,,,,2023-02-28,1,,,,,エー,0
476,2290801029307,新規,0,2023-02-28,2023-02-28,株式会社キャリーコム,,株式会社,福岡県,北九州市八幡西区,小嶺台１丁目１２番２号,,40,109,8070082,,,,,,,2023-02-28,1,,,,,キャリーコム,0
485,2330001030630,新規,0,2023-02-28,2023-02-28,株式会社芋生谷ファーム,,株式会社,熊本県,山鹿市,鹿北町芋生１９８４番地,,43,208,8610602,,,,,,,2023-02-28,1,,,,,イモウダニファーム,0
489,2350003004300,新規,0,2023-02-28,2023-02-28,合同会社ＯＺワールド,,合同会社,宮崎県,都城市,北原町１０番８号,,45,202,8850024,,,,,,,2023-02-28,1,,,,,オズワールド,0
492,2360001031618,新規,0,2023-02-28,2023-02-28,株式会社まつり農園,,株式会社,沖縄県,名護市,字名護４６０６番地１４７スカイテラスナゴ４０１号室,,47,209,9050012,,,,,,,2023-02-28,1,,,,,,0
495,2360003012756,新規,0,2023-02-28,2023-02-28,合同会社ＮＥＯ,,合同会社,沖縄県,中頭郡北中城村,字島袋５３３番地８,,47,327,9012301,,,,,,,2023-02-28,1,,,,,ネオ,0
521,2430001088485,新規,0,2023-02-28,2023-02-28,株式会社Ｌｉｖｅ　ｕｐ,,株式会社,北海道,札幌市手稲区,明日風２丁目１１番１１号,,01,109,0060861,,,,,,,2023-02-28,1,,,,,リヴアップ,0
522,2430001088493,新規,0,2023-02-28,2023-02-28,株式会社Ｖａｌｌｅｙ　Ｓｉｄｅ,,株式会社,北海道,札幌市清田区,平岡四条１丁目２１番３０号,,01,110,0040874,,,,,,,2023-02-28,1,,,,,バレイサイド,0
527,2440005002747,新規,0,2023-02-28,2023-02-28,一般社団法人想紡会,,その他の設立登記法人,北海道,函館市,石川町４６２番地７レザングレーヌＩＩ１０１号,00129554,01,202,0410802,,,,,,,2023-02-28,1,,,,,ソウボウカイ,0
537,2490001010410,新規,0,2023-02-28,2023-02-28,株式会社ブレイキングスルー,,株式会社,高知県,高知市,高須３丁目１番５１号ガーデンフラット２０２,,39,201,7818104,,,,,,,2023-02-28,1,,,,,ブレイキングスルー,0
538,2490003001746,新規,0,2023-02-28,2023-02-28,合同会社Ｃｏｃｏ．ｆ,,合同会社,高知県,高知市,南万々１３７番地２８,,39,201,7800971,,,,,,,2023-02-28,1,,,,,ココドットエフ,0
543,2700150109353,新規,0,2023-02-28,2022-06-10,ＫＯＴＨ,,その他,東京都,練馬区,小竹町２丁目１４－６ハウス司１０１,,13,120,1760004,,,,,,,2022-06-10,1,,,,,コース,0
560,3010001233264,新規,0,2023-02-28,2023-02-28,ＪＰＣ第３６号株式会社,,株式会社,東京都,千代田区,霞が関３丁目２番１号,,13,101,1000013,,,,,,,2023-02-28,1,,,,,ジェイピーシーダイサンジュウロクゴウ,0
561,3010001233272,新規,0,2023-02-28,2023-02-28,株式会社高橋企画,00129557,株式会社,東京都,千代田区,内神田３丁目１０番６号文秀堂ビル４階,,13,101,1010047,,,,,,,2023-02-28,1,,,,,タカハシキカク,0
563,3010003039916,新規,0,2023-02-28,2023-02-28,アーバンエナジーＰＶ合同会社,,合同会社,東京都,千代田区,神田練塀町３番地,,13,101,1010022,,,,,,,2023-02-28,1,,,,,アーバンエナジーピーブイ,0
566,3010401172731,新規,0,2023-02-28,2023-02-28,株式会社ＧＯＯＤ　ＦＥＥＬ　ＳＵＰＰＬＥＭＥＮＴ,,株式会社,東京都,港区,南青山２丁目２番１５号ウィン青山９４２,,13,103,1070062,,,,,,,2023-02-28,1,,,,,グッドフィールサプリメント,0
567,3010401172756,新規,0,2023-02-28,2023-02-28,ＯＭＯＹＥＬ株式会社,,株式会社,東京都,港区,元麻布２丁目１４番２６－７０２号,,13,103,1060046,,,,,,,2023-02-28,1,,,,,オモエル,0
569,3010405021843,新規,0,2023-02-28,2023-02-28,ＳＴＡＣＫ　ＯＣＭ　ＳＬＰ一般社団法人,,その他の設立登記法人,東京都,港区,愛宕２丁目５番１号,,13,103,1050002,,,,,,,2023-02-28,1,,,,,スタックオーシーエムエスエルピー,0
570,3010503006903,新規,0,2023-02-28,2023-02-28,Ｂｌｕｅ　Ｍｏｎｏｌｉｔｈ合同会社,,合同会社,東京都,台東区,浅草２丁目１６番７ー２０４号ドムール浅草ＩＩ,00129552,13,106,1110032,,,,,,,2023-02-28,1,,,,,ブルーモノリス,0
571,3010601062674,新規,0,2023-02-28,2023-02-28,株式会社プラスアクシス,,株式会社,東京都,墨田区,押上２丁目１２－７－９０１,,13,107,1310045,,,,,,,2023-02-28,1,,,,,プラスアクシス,0
572,3010701043896,新規,0,2023-02-28,2023-02-28,ＴＳＢホールディングス株式会社,,株式会社,東京都,品川区,南品川２丁目２番７号,,13,109,1400004,,,,,,,2023-02-28,1,,,,,ティーエスビーホールディングス,0
573,3010701043905,新規,0,2023-02-28,2023-02-28,株式会社パンプキン,,株式会社,東京都,品川区,東大井５丁目１３番１２号,,13,109,1400011,,,,,,,2023-02-28,1,,,,,パンプキン,0
582,3010901052607,新規,0,2023-02-28,2023-02-28,株式会社ｋｅｙｐｏｒｔ‐ｆｏｌｉｏ,,株式会社,東京都,世田谷区,北烏山７丁目２１番２２号,,13,112,1570061,,,,,,,2023-02-28,1,,,,,キーポートフォリオ,0
583,3010901052615,新規,0,2023-02-28,2023-02-28,株式会社ＡｌｉｂｉＲｏｏｍ,,株式会社,東京都,世田谷区,下馬１丁目２２番１１号,,13,112,1540002,,,,,,,2023-02-28,1,,,,,アリバイルーム,0
584,3010903007996,新規,0,2023-02-28,2023-02-28,合同会社Ｉｎｉｚｉｏ,,合同会社,東京都,世田谷区,奥沢６丁目３１番１８号ロカーサ自由ヶ丘３０２,,13,112,1580083,,,,,,,2023-02-28,1,,,,,イニッツィオ,0
592,3011001152842,新規,0,2023-02-28,2023-02-28,株式会社ルセロ,,株式会社,東京都,渋谷区,恵比寿２丁目２１番８号ＦＦＫ恵比寿３０１,,13,113,1500013,,,,,,,2023-02-28,1,,,,,ルセロ,0
600,3011101101963,新規,0,2023-02-28,2023-02-28,株式会社アーティションエンタテインメント,,株式会社,東京都,新宿区,西新宿３丁目３番１３号西新宿水間ビル６階,,13,104,1600023,,,,,,,2023-02-28,1,,,,,アーティションエンタテインメント,0
602,3011103012738,新規,0,2023-02-28,2023-02-28,合同会社Ｊｅｌｅｇａｎｔ,,合同会社,東京都,新宿区,大久保３丁目７－３３－２０７,,13,104,1690072,,,,,,,2023-02-28,1,,,,,ジェレガント,0
603,3011105010566,新規,0,2023-02-28,2023-02-28,一般社団法人ジェネレーティブＡＩ協会ＧＡＩＡ,,その他の設立登記法人,東京都,新宿区,百人町１丁目１１番１９号新大久保テラスハウスＢ棟,,13,104,1690073,,,,,,,2023-02-28,1,,,,,ジェネレーティブエーアイキョウカイガイア,0
609,3011501028996,新規,0,2023-02-28,2023-02-28,豊和商貿株式会社,,株式会社,東京都,北区,東十条３丁目１６番４号,,13,117,1140001,,,,,,,2023-02-28,1,,,,,レイワショウボウ,0
615,3012401040216,新規,0,2023-02-28,2023-02-28,株式会社グリーン商会,,株式会社,東京都,府中市,緑町２丁目２０番地の１０,,13,206,1830006,,,,,,,2023-02-28,1,,,,,グリーンショウカイ,0
616,3012401040224,新規,0,2023-02-28,2023-02-28,株式会社地域と映像,,株式会社,東京都,小金井市,東町１丁目３－２５,,13,210,1840011,,,,,,,2023-02-28,1,,,,,チイキトエイゾウ,0
619,3012803003019,新規,0,2023-02-28,2023-02-28,ユメミル企画合同会社,,合同会社,東京都,昭島市,宮沢町５１２－１パークホームズ昭島中神６０６,,13,207,1960024,,,,,,,2023-02-28,1,,,,,ユメミルキカク,0
633,3020003023407,新規,0,2023-02-28,2023-02-28,合同会社ななみお,,合同会社,神奈川県,川崎市中原区,木月４丁目４１番７５号,,14,133,2110025,,,,,,,2023-02-28,1,,,,,ナナミオ,0
634,3020005015856,新規,0,2023-02-28,2023-02-28,ＮＩＰ弁理士法人,,その他の設立登記法人,神奈川県,横浜市中区,山下町１９３番地１,,14,104,2310023,,,,,,,2023-02-28,1,,,,,エヌアイピー,0
637,3021001078293,新規,0,2023-02-28,2023-02-28,株式会社Ｃａｔ　Ｍ企画,,株式会社,神奈川県,鎌倉市,雪ノ下１丁目６番２号ね小町ビル２Ｆ,,14,204,2480005,,,,,,,2023-02-28,1,,,,,キャットエムキカク,0
638,3021001078302,新規,0,2023-02-28,2023-02-28,株式会社ＫＭＧ,,株式会社,神奈川県,厚木市,及川２丁目１９番５６号,,14,212,2430212,,,,,,,2023-02-28,1,,,,,ケーエムジー,0
639,3021001078310,新規,0,2023-02-28,2023-02-28,バイクリサイクル商会株式会社,,株式会社,神奈川県,厚木市,温水９９５番地２,,14,212,2430033,,,,,,,2023-02-28,1,,,,,バイクリサイクルショウカイ,0
642,3021005012744,新規,0,2023-02-28,2023-02-28,一般社団法人麻布大学同窓会,,その他の設立登記法人,神奈川県,相模原市中央区,淵野辺１丁目１７番７１号,,14,152,2520206,,,,,,,2023-02-28,1,,,,,アザブダイガクドウソウカイ,0
651,3030003021260,新規,0,2023-02-28,2023-02-28,合同会社Ｐｌａｉｓａｎｃｅ,,合同会社,埼玉県,所沢市,松葉町１番５号新所沢エーシービル４０２,,11,208,3590044,,,,,,,2023-02-28,1,,,,,プレゾンス,0
658,3040001127208,新規,0,2023-02-28,2023-02-28,株式会社エムエス,,株式会社,千葉県,佐倉市,上志津原２８０番地８,,12,212,2850844,,,,,,,2023-02-28,1,,,,,エムエス,0
660,3040003022043,新規,0,2023-02-28,2023-02-28,合同会社アクア,,合同会社,千葉県,浦安市,富士見３丁目１２番２１号,,12,227,2790043,,,,,,,2023-02-28,1,,,,,アクア,0
664,3050003007266,新規,0,2023-02-28,2023-02-28,Ａ＆Ｍ　Ｊａｐａｎ　Ａｕｔｏ合同会社,,合同会社,茨城県,かすみがうら市,宍倉５６８６番地２,,08,230,3000121,,,,,,,2023-02-28,1,,,,,エーアンドエムジャパンオート,0
665,3060001035722,新規,0,2023-02-28,2023-02-28,株式会社スイーズ,,株式会社,栃木県,下都賀郡壬生町,大字壬生乙１８０７番地３,,09,361,3210215,,,,,,,2023-02-28,1,,,,,スイーズ,0
666,3060001035730,新規,0,2023-02-28,2023-02-28,株式会社ユーカリの木,,株式会社,栃木県,佐野市,若松町６番地,,09,204,3270846,,,,,,,2023-02-28,1,,,,,ユーカリノキ,0
672,3090003002263,新規,0,2023-02-28,2023-02-28,合同会社ｄｉｇ,,合同会社,山梨県,南巨摩郡富士川町,最勝寺１０８５番地３アルビオン２０３号,,19,368,4000502,,,,,,,2023-02-28,1,,,,,ディグ,0
674,3100003006898,新規,0,2023-02-28,2023-02-28,合同会社信州安曇野エゴマ友の会,,合同会社,長野県,安曇野市,明科七貴１０７３７,,20,220,3997104,,,,,,,2023-02-28,1,,,,,シンシュウアズミノエゴマトモノカイ,0
685,3120001252798,新規,0,2023-02-28,2023-02-28,株式会社グッドライフアシスト,,株式会社,大阪府,大阪市中央区,北浜２丁目１番２３号日本文化会館４階,,27,128,5410041,,,,,,,2023-02-28,1,,,,,グッドライフアシスト,0
686,3120001252807,新規,0,2023-02-28,2023-02-28,株式会社大建設工業,,株式会社,大阪府,大阪市旭区,今市２丁目４－２,,27,117,5350011,,,,,,,2023-02-28,1,,,,,ダイケンセツコウギョウ,0
688,3120003023495,新規,0,2023-02-28,2023-02-28,合同会社Ｒ＆Ｎ　ｃｏｎｎｅｃｔｉｏｎ,,合同会社,大阪府,大阪市中央区,船場中央１丁目４番３－１１１号室,,27,128,5410055,,,,,,,2023-02-28,1,,,,,アールアンドエヌコネクション,0
689,3120003023504,新規,0,2023-02-28,2023-02-28,佳成合同会社,,合同会社,大阪府,大阪市中央区,玉造１丁目１５－１２－１２０３,,27,128,5400004,,,,,,,2023-02-28,1,,,,,カセイ,0
690,3120003023520,新規,0,2023-02-28,2023-02-28,合同会社渋谷カンパニー,,合同会社,大阪府,大阪市平野区,西脇３丁目１番１１号,,27,126,5470035,,,,,,,2023-02-28,1,,,,,シブヤカンパニー,0
693,3120103005096,新規,0,2023-02-28,2023-02-28,牛楽合同会社,,合同会社,大阪府,和泉市,一条院町４４－１一条院ハイツＣ号室,,27,219,5940054,,,,,,,2023-02-28,1,,,,,ギュウラク,0
698,3130001073748,新規,0,2023-02-28,2023-02-28,株式会社ＨＲＫ,,株式会社,京都府,京都市中京区,四条通高倉上る帯屋町５７４番地７高倉ビル２０５号,,26,104,6040000,,,,,,,2023-02-28,1,,,,,エイチアールケイ,0
707,3140001129251,新規,0,2023-02-28,2023-02-28,株式会社ｍｅｇｕｒｕ,,株式会社,兵庫県,西宮市,石在町１２－１８,,28,204,6620928,,,,,,,2023-02-28,1,,,,,メグル,0
712,3150001026200,新規,0,2023-02-28,2023-02-28,株式会社ＭＯＭＯＣＩ,,株式会社,奈良県,奈良市,左京６丁目５－２,,29,201,6310801,,,,,,,2023-02-28,1,,,,,モモチ,0
714,3150003002892,新規,0,2023-02-28,2023-02-28,合同会社アイネット,,合同会社,奈良県,磯城郡田原本町,１９８番地の７マンションキタヤ２０６号室,,29,363,6360300,,,,,,,2023-02-28,1,,,,,アイネット,0
726,3180001154997,新規,0,2023-02-28,2023-02-28,株式会社ＫＪ,,株式会社,愛知県,名古屋市北区,若葉通１丁目２４番地の５,,23,103,4620854,,,,,,,2023-02-28,1,,,,,ケイジェイ,0
727,3180001155104,新規,0,2023-02-28,2023-02-28,株式会社ＺＥＲＱ,,株式会社,愛知県,名古屋市熱田区,花表町２０番３５号１Ｆ,,23,109,4560033,,,,,,,2023-02-28,1,,,,,ゼルク,0
728,3180003024876,新規,0,2023-02-28,2023-02-28,すまいるファーム合同会社,,合同会社,愛知県,一宮市,昭和３丁目８番８号,,23,203,4910917,,,,,,,2023-02-28,1,,,,,スマイルファーム,0
734,3210001019239,新規,0,2023-02-28,2023-02-28,瑛基商事株式会社,,株式会社,福井県,丹生郡越前町,気比庄第２９号７番地１１,,18,423,9160133,,,,,,,2023-02-28,1,,,,,エイキショウジ,0
741,3260001037673,新規,0,2023-02-28,2023-02-28,株式会社Ｌｉｅｎ,,株式会社,岡山県,倉敷市,亀島１丁目３２番２６号,,33,202,7128013,,,,,,,2023-02-28,1,,,,,リアン,0
743,3270003001494,新規,0,2023-02-28,2023-02-28,合同会社真太カンパニー,,合同会社,鳥取県,倉吉市,福庭町２丁目１１２番地２,,31,203,6820018,,,,,,,2023-02-28,1,,,,,シンタイカンパニー,0
745,3290001100676,新規,0,2023-02-28,2023-02-28,ダイヤモンドツリー株式会社,,株式会社,福岡県,福岡市博多区,博多駅前２丁目１９番１７号トーカン博多第５ビル３１２号室,,40,132,8120011,,,,,,,2023-02-28,1,,,,,ダイヤモンドツリー,0
757,3340005009561,新規,0,2023-02-28,2023-02-28,Ｉ．Ｏ．Ｂ事業協同組合,,その他の設立登記法人,鹿児島県,鹿屋市,寿５丁目２７番４号,,46,203,8930014,,,,,,,2023-02-28,1,,,,,アイオービー,0
758,3350003004299,新規,0,2023-02-28,2023-02-28,こだまうなぎ屋合同会社,,合同会社,宮崎県,児湯郡新富町,大字上富田２９２５,,45,402,8891403,,,,,,,2023-02-28,1,,,,,コダマウナギヤ,0
761,3360001031617,新規,0,2023-02-28,2023-02-28,株式会社Ｈ＆Ｄ,,株式会社,沖縄県,宮古島市,平良字西里２７番地,,47,214,9060012,,,,,,,2023-02-28,1,,,,,エイチアンドディー,0
768,3400001016159,新規,0,2023-02-28,2023-02-28,株式会社トライワン,,株式会社,岩手県,北上市,上江釣子１２地割２６０番地１,,03,206,0240071,,,,,,,2023-02-28,1,,,,,トライワン,0
774,3480001012019,新規,0,2023-02-28,2023-02-28,株式会社山中機設,,株式会社,徳島県,三好市,池田町シマ７８９番地１江口アパート５号,,36,208,7780005,,,,,,,2023-02-28,1,,,,,ヤマナカキセツ,0
781,3700150051587,新規,0,2023-02-28,2015-10-09,メープルクラブ,,その他,広島県,広島市中区,基町３－２ひろしま美術館内　メープルクラブ,,34,101,7300011,,,,,,,2015-10-09,1,,,,,メープルクラブ,0
784,4010001233263,新規,0,2023-02-28,2023-02-28,ＪＰＣ第３５号株式会社,,株式会社,東京都,千代田区,霞が関３丁目２番１号,,13,101,1000013,,,,,,,2023-02-28,1,,,,,ジェイピーシーダイサンジュウゴゴウ,0
785,4010001233321,新規,0,2023-02-28,2023-02-28,ポートキースタジオ株式会社,,株式会社,東京都,千代田区,麹町２丁目２－４麹町セントラルビル５階,,13,101,1020083,,,,,,,2023-02-28,1,,,,,ポートキースタジオ,0
786,4010001233362,新規,0,2023-02-28,2023-02-28,ＳＵＰＥＲＹＡＲＤ株式会社,,株式会社,東京都,中央区,日本橋室町３丁目２番１号,,13,102,1030022,,,,,,,2023-02-28,1,,,,,スーパーヤード,0
787,4010003039915,新規,0,2023-02-28,2023-02-28,合同会社ＤＵＰＬＥＸさつま二渡第二発電所,,合同会社,東京都,文京区,目白台２丁目９番１３号,,13,105,1120015,,,,,,,2023-02-28,1,,,,,デュープレックスサツマフタワタリダイニハツデンショ,0
788,4010005036290,新規,0,2023-02-28,2023-02-28,医療法人社団ルネ,,その他の設立登記法人,東京都,千代田区,大手町１丁目１番３号大手センタービル１４階,,13,101,1000004,,,,,,,2023-02-28,1,,,,,ルネ,0
802,4010401172581,新規,0,2023-02-28,2023-02-28,株式会社ぱんだ,,株式会社,東京都,港区,港南１丁目９番３６号,,13,103,1080075,,,,,,,2023-02-28,1,,,,,パンダ,0
803,4010401172672,新規,0,2023-02-28,2023-02-28,株式会社ミツケ,,株式会社,東京都,港区,新橋６丁目２－６,,13,103,1050004,,,,,,,2023-02-28,1,,,,,ミツケ,0
807,4010505003377,新規,0,2023-02-28,2023-02-28,外国人労働組合,,その他の設立登記法人,東京都,台東区,東上野１丁目２０番６号,,13,106,1100015,,,,,,,2023-02-28,1,,,,,ガイコクジン,0
809,4010701043895,新規,0,2023-02-28,2023-02-28,株式会社ＬＩＦＩＸ,,株式会社,東京都,品川区,大崎５丁目１番５号高徳ビル４Ｆ・０１１号室,,13,109,1410032,,,,,,,2023-02-28,1,,,,,リフィックス,0
812,4010901052606,新規,0,2023-02-28,2023-02-28,株式会社ＲＶＳＴ,,株式会社,東京都,世田谷区,船橋６丁目１５番３－５０４号,,13,112,1560055,,,,,,,2023-02-28,1,,,,,リバスト,0
813,4010901052614,新規,0,2023-02-28,2023-02-28,Ｋ’ｓ　Ｔｒｕｓｔ株式会社,,株式会社,東京都,世田谷区,桜上水２丁目２５番３号,,13,112,1560045,,,,,,,2023-02-28,1,,,,,ケーズトラスト,0
824,4011101101962,新規,0,2023-02-28,2023-02-28,株式会社エムアールフーズ,,株式会社,東京都,新宿区,西新宿３丁目３番１３号西新宿水間ビル２階,,13,104,1600023,,,,,,,2023-02-28,1,,,,,エムアールフーズ,0
825,4011101101970,新規,0,2023-02-28,2023-02-28,株式会社ＬＵＸＭＩＮＡＴ,,株式会社,東京都,新宿区,北新宿２丁目５番１８号,,13,104,1690074,,,,,,,2023-02-28,1,,,,,ルクスミーナ,0
827,4011103012745,新規,0,2023-02-28,2023-02-28,インザフォレスト合同会社,,合同会社,東京都,新宿区,南榎町７０番地８,,13,104,1620852,,,,,,,2023-02-28,1,,,,,インザフォレスト,0
829,4011403003923,新規,0,2023-02-28,2023-02-28,合同会社ＲＫ,,合同会社,東京都,板橋区,大山町５７番４－９０２号,,13,119,1730023,,,,,,,2023-02-28,1,,,,,アールケー,0
830,4011501028995,新規,0,2023-02-28,2023-02-28,星淘芸海株式会社,,株式会社,東京都,北区,田端新町１丁目７番１４号ビズフィールド西日暮里３０３,,13,117,1140012,,,,,,,2023-02-28,1,,,,,セイトウゲイカイ,0
832,4011601026610,新規,0,2023-02-28,2023-02-28,株式会社リドゥ,,株式会社,東京都,練馬区,関町北５丁目１５番３０－２０２号,,13,120,1770051,,,,,,,2023-02-28,1,,,,,リドゥ,0
845,4012401040223,新規,0,2023-02-28,2023-02-28,株式会社牟礼ソル,,株式会社,東京都,三鷹市,牟礼３丁目１０番１１号,,13,204,1810002,,,,,,,2023-02-28,1,,,,,ムレソル,0
848,4013303006510,新規,0,2023-02-28,2023-02-28,セカイニ合同会社,,合同会社,東京都,豊島区,千早４丁目３９番１２号,,13,116,1710044,,,,,,,2023-02-28,1,,,,,セカイニ,0
855,4020001150350,新規,0,2023-02-28,2023-02-28,株式会社Ｖｅｑ,,株式会社,神奈川県,横浜市旭区,今宿１丁目２６－１３,,14,112,2410817,,,,,,,2023-02-28,1,,,,,ヴェック,0
860,4020003023406,新規,0,2023-02-28,2023-02-28,合同会社キノボリー,,合同会社,神奈川県,横浜市西区,北幸２丁目１０番地２８むつみビル３Ｆ,,14,103,2200004,,,,,,,2023-02-28,1,,,,,キノボリー,0
867,4021003012803,新規,0,2023-02-28,2023-02-28,合同会社ＮＣＴ,,合同会社,神奈川県,座間市,相武台２丁目４２番３号,,14,216,2520011,,,,,,,2023-02-28,1,,,,,エヌシーティ,0
875,4030001152577,新規,0,2023-02-28,2023-02-28,株式会社ＳＴＢ,,株式会社,埼玉県,上尾市,柏座１丁目９番８－５９号,,11,219,3620075,,,,,,,2023-02-28,1,,,,,エスティービー,0
876,4030001152585,新規,0,2023-02-28,2023-02-28,ＫＭＭ株式会社,,株式会社,埼玉県,さいたま市南区,鹿手袋６丁目２２番地３５号,,11,108,3360031,,,,,,,2023-02-28,1,,,,,ケーエムエム,0
883,4040003022018,新規,0,2023-02-28,2023-02-28,合同会社Ｍａｌａｍａ,,合同会社,千葉県,柏市,松ケ崎２２４番地５１アイヒル２０３号,,12,217,2770835,,,,,,,2023-02-28,1,,,,,マラマ,0
884,4040003022042,新規,0,2023-02-28,2023-02-28,合同会社みずなみ不動産,,合同会社,千葉県,茂原市,小林２７１７番１０号,,12,210,2970074,,,,,,,2023-02-28,1,,,,,ミズナミフドウサン,0
885,4050001052453,新規,0,2023-02-28,2023-02-28,株式会社テクノネクスト,,株式会社,茨城県,結城市,大字結城９６０３番地３,,08,207,3070001,,,,,,,2023-02-28,1,,,,,テクノネクスト,0
888,4050003007265,新規,0,2023-02-28,2023-02-28,合同会社Ｂ‐Ｌｉｎｅ,,合同会社,茨城県,取手市,本郷４丁目２２番２号,,08,217,3020022,,,,,,,2023-02-28,1,,,,,ビーライン,0
890,4060001035721,新規,0,2023-02-28,2023-02-28,株式会社シャイニングカンパニー,,株式会社,栃木県,栃木市,星野町７０１番地１,,09,203,3280201,,,,,,,2023-02-28,1,,,,,シャイニングカンパニー,0
893,4080401026327,新規,0,2023-02-28,2023-02-28,ＴＳケミカル株式会社,,株式会社,静岡県,掛川市,西大渕６４３６番地の１,,22,213,4371304,,,,,,,2023-02-28,1,,,,,ティーエスケミカル,0
894,4080401026335,新規,0,2023-02-28,2023-02-28,株式会社ＡＬＬ　ＵＮＩＴＥＤ,,株式会社,静岡県,浜松市中区,幸１丁目１番４６号,,22,131,4338123,,,,,,,2023-02-28,1,,,,,オールユナイテッド,0
896,4090001017989,新規,0,2023-02-28,2023-02-28,Ｓ．Ｔ．Ｃ．ｃｏｎｃｉｅｒｇｅ株式会社,,株式会社,山梨県,中巨摩郡昭和町,西条５２４１番地,,19,384,4093866,,,,,,,2023-02-28,1,,,,,エスティーシーコンシェルジュ,0
897,4090003002262,新規,0,2023-02-28,2023-02-28,合同会社ＯＶＡＮ富士貿易,,合同会社,山梨県,甲斐市,竜王２９７２番地６,,19,210,4000118,,,,,,,2023-02-28,1,,,,,オバンフジボウエキ,0
902,4100001036178,新規,0,2023-02-28,2023-02-28,株式会社ＣＲＯＳＳＢＯＲＤＥＲ,,株式会社,長野県,長野市,大字南長野西後町６１０番地１２・２Ｆ－Ｄ,,20,201,3800845,,,,,,,2023-02-28,1,,,,,クロスボーダー,0
905,4110001037316,新規,0,2023-02-28,2023-02-28,株式会社ＳＵＮ’Ｓ,,株式会社,新潟県,長岡市,美沢３丁目５０１,,15,202,9400856,,,,,,,2023-02-28,1,,,,,サンズ,0
920,4120001252673,新規,0,2023-02-28,2023-02-28,株式会社エエアライアンス,,株式会社,大阪府,大阪市西区,江戸堀１丁目２０番２２号ウエスト船場ビル４０３号,,27,106,5500002,,,,,,,2023-02-28,1,,,,,エエアライアンス,0
927,4120101067030,新規,0,2023-02-28,2023-02-28,株式会社ＢＳＳ岸和田,,株式会社,大阪府,岸和田市,春木若松町１３番２７号,,27,202,5960006,,,,,,,2023-02-28,1,,,,,ビーエスエスキシワダ,0
929,4122001036726,新規,0,2023-02-28,2023-02-28,株式会社ネクストエール,,株式会社,大阪府,東大阪市,長田西１丁目２番２９号,,27,227,5770016,,,,,,,2023-02-28,1,,,,,ネクストエール,0
931,4130001073739,新規,0,2023-02-28,2023-02-28,株式会社Ｌｏｒｅ　Ｊａｐａｎ,,株式会社,京都府,京都市中京区,壬生下溝町５１番地３４,,26,104,6048832,,,,,,,2023-02-28,1,,,,,ロアジャパン,0
935,4140003018765,新規,0,2023-02-28,2023-02-28,ＳＵＭＯＭＯ合同会社,,合同会社,兵庫県,淡路市,大谷９０８番地３,,28,226,6562224,,,,,,,2023-02-28,1,,,,,スモモ,0
936,4140005026493,新規,0,2023-02-28,2023-02-28,一般社団法人うきゆい,,その他の設立登記法人,兵庫県,伊丹市,池尻６丁目２６９番,,28,207,6640027,,,,,,,2023-02-28,1,,,,,ウキユイ,0
941,4160005011163,新規,0,2023-02-28,2023-02-28,医療法人明育会,,その他の設立登記法人,滋賀県,大津市,西の庄５番２５号アメニティ膳所２０３号,,25,201,5200818,,,,,,,2023-02-28,1,,,,,メイイクカイ,0
950,4180001155094,新規,0,2023-02-28,2023-02-28,東春電気工業セキュリティ株式会社,,株式会社,愛知県,春日井市,玉野町字境前５５７番地の３,,23,206,4870004,,,,,,,2023-02-28,1,,,,,トウシュンデンキコウギョウセキュリティ,0
951,4180001155103,新規,0,2023-02-28,2023-02-28,株式会社フィフネル,,株式会社,愛知県,名古屋市東区,東桜１丁目４番２９号（東櫻館１２０１号）,,23,102,4610005,,,,,,,2023-02-28,1,,,,,フィフネル,0
964,4200001040995,新規,0,2023-02-28,2023-02-28,株式会社ＦＡＢＲＩＣ　ＣＲＥＷ,,株式会社,岐阜県,大垣市,和合本町１丁目９１６,,21,202,5030005,,,,,,,2023-02-28,1,,,,,ファブリッククルー,0
970,4240001061121,新規,0,2023-02-28,2023-02-28,株式会社幸美奈,,株式会社,広島県,福山市,西町２丁目６番２－２０３号,,34,207,7200067,,,,,,,2023-02-28,1,,,,,コウビナ,0
972,4270003001493,新規,0,2023-02-28,2023-02-28,合同会社悠々,,合同会社,鳥取県,米子市,旗ヶ崎９丁目３番１０号,,31,202,6830845,,,,,,,2023-02-28,1,,,,,ユウユウ,0
984,4340001005357,新規,0,2023-02-28,2023-02-28,南林産株式会社,,株式会社,鹿児島県,鹿児島市,東開町３番地,,46,201,8910115,,,,,,,2023-02-28,1,,,,,ミナミリンサン,0
986,4350001018201,新規,0,2023-02-28,2023-02-28,株式会社のべんちゅ,,株式会社,宮崎県,延岡市,出北３丁目２９－１７,,45,203,8820856,,,,,,,2023-02-28,1,,,,,ノベンチュ,0
989,4360003012746,新規,0,2023-02-28,2023-02-28,ＩＫ建測合同会社,,合同会社,沖縄県,那覇市,天久１丁目２０番１号２階,,47,201,9000005,,,,,,,2023-02-28,1,,,,,アイケイケンソク,0
992,4370001049632,新規,0,2023-02-28,2023-02-28,株式会社住誠,,株式会社,宮城県,仙台市青葉区,堤町１丁目８番１６号ハイネスＡ棟,,04,101,9810912,,,,,,,2023-02-28,1,,,,,スミセイ,0
993,4370001049640,新規,0,2023-02-28,2023-02-28,株式会社ビーレンダ,,株式会社,宮城県,仙台市青葉区,本町１丁目５番２８号カーニープレイス仙台駅前通６０３号室,,04,101,9800014,,,,,,,2023-02-28,1,,,,,ビーレンダ,0
995,4370003006012,新規,0,2023-02-28,2023-02-28,合同会社Ｔ．Ｇ．Ｃ,,合同会社,宮城県,仙台市若林区,大和町５丁目３２番９‐３１６号,,04,103,9840042,,,,,,,2023-02-28,1,,,,,ティージーシー,0
998,4430001088491,新規,0,2023-02-28,2023-02-28,北日本ホーム株式会社,,株式会社,北海道,札幌市西区,宮の沢二条４丁目１番１２号,,01,107,0630052,,,,,,,2023-02-28,1,,,,,キタニホンホーム,0
999,4430001088500,新規,0,2023-02-28,2023-02-28,ＨＩＧＨＬＩＦＥ株式会社,,株式会社,北海道,札幌市北区,新琴似町５７７－６,,01,102,0010915,,,,,,,2023-02-28,1,,,,,ハイライフ,0
1000,4430003014776,新規,0,2023-02-28,2023-02-28,合同会社Ｂ＆Ｍサービス,,合同会社,北海道,札幌市清田区,真栄四条５丁目９番２０号,,01,110,0040834,,,,,,,2023-02-28,1,,,,,ビーアンドエムサービス,0
1006,4700150072533,新規,0,2023-02-28,2016-04-08,ライオンズマンション高砂第３管理組合,,その他,東京都,葛飾区,高砂６丁目５－３１,,13,122,1250054,,,,,,,2016-04-08,1,,,,,ライオンズマンシヨンタカサゴダイサンカンリクミアイ,0
1012,5010001233262,新規,0,2023-02-28,2023-02-28,ＪＰＣ第３４号株式会社,,株式会社,東京都,千代田区,霞が関３丁目２番１号,,13,101,1000013,,,,,,,2023-02-28,1,,,,,ジェイピーシーダイサンジュウヨンゴウ,0
1013,5010103002086,新規,0,2023-02-28,2023-02-28,八王子かわいい家族合同会社,,合同会社,東京都,八王子市,散田町５丁目５番１１号,,13,201,1930832,,,,,,,2023-02-28,1,,,,,ハチオウジカワイイカゾク,0
1017,5010401172721,新規,0,2023-02-28,2023-02-28,株式会社ドルフィン・バリュー・アップ８号,,株式会社,東京都,港区,芝公園１丁目１番１号住友不動産御成門タワー７階,,13,103,1050011,,,,,,,2023-02-28,1,,,,,ドルフィンバリューアップハチゴウ,0
1021,5010403029606,新規,0,2023-02-28,2023-02-28,イレーション・ケイ合同会社,,合同会社,東京都,港区,西麻布１丁目３番１６号,,13,103,1060031,,,,,,,2023-02-28,1,,,,,イレーションケイ,0
1025,5010501050026,新規,0,2023-02-28,2023-02-28,ＳＡＫＵＲＡ　ＴＲＡＤＩＮＧ株式会社,,株式会社,東京都,台東区,東上野１丁目１８番６号タカラ第三ビル２Ｆ,,13,106,1100015,,,,,,,2023-02-28,1,,,,,サクラトレーディング,0
1026,5010501050067,新規,0,2023-02-28,2023-02-28,株式会社ペリウィンクル,,株式会社,東京都,台東区,東上野２丁目１８番９号ファーストビル３階,,13,106,1100015,,,,,,,2023-02-28,1,,,,,ペリウィンクル,0
1028,5010601062664,新規,0,2023-02-28,2023-02-28,株式会社Ｒｏａｄ　Ｇｏａｌ　Ｈｏｌｄｉｎｇｓ,,株式会社,東京都,江東区,青海２丁目７番４号ｔｈｅＳＯＨＯ３１２号室,,13,108,1350064,,,,,,,2023-02-28,1,,,,,ロードゴールホールディングス,0
1029,5010701043894,新規,0,2023-02-28,2023-02-28,株式会社のむぴょん,,株式会社,東京都,品川区,荏原６丁目６番８号,,13,109,1420063,,,,,,,2023-02-28,1,,,,,ノムピョン,0
1030,5010703006602,新規,0,2023-02-28,2023-02-28,１４１’ｓ合同会社,,合同会社,東京都,品川区,西大井５丁目１５番２２号,,13,109,1400015,,,,,,,2023-02-28,1,,,,,ワンフォーワンズ,0
1033,5010901052605,新規,0,2023-02-28,2023-02-28,株式会社ＩＳＧ,,株式会社,東京都,世田谷区,奥沢１丁目５９番１１号,,13,112,1580083,,,,,,,2023-02-28,1,,,,,アイエスジー,0
1034,5010901052621,新規,0,2023-02-28,2023-02-28,株式会社サカウエカンパニー,,株式会社,東京都,世田谷区,北沢５丁目１３番２号,,13,112,1550031,,,,,,,2023-02-28,1,,,,,サカウエカンパニー,0
1036,5010905004437,新規,0,2023-02-28,2023-02-28,土地家屋調査士法人光登記測量,,その他の設立登記法人,東京都,世田谷区,上祖師谷７丁目３番２３号１０８,,13,112,1570065,,,,,,,2023-02-28,1,,,,,ヒカリトウキソクリョウ,0
1047,5011001152766,新規,0,2023-02-28,2023-02-28,インベスチャー株式会社,,株式会社,東京都,渋谷区,道玄坂１丁目１０番８号渋谷道玄坂東急ビル２Ｆ－Ｃ,,13,113,1500043,,,,,,,2023-02-28,1,,,,,インベスチャー,0
1050,5011003016358,新規,0,2023-02-28,2023-02-28,合同会社ＧＬｅｎｎ,,合同会社,東京都,渋谷区,神泉町１０番１５号,,13,113,1500045,,,,,,,2023-02-28,1,,,,,グレン,0
1052,5011103012744,新規,0,2023-02-28,2023-02-28,合同会社Ｌｉｆｔｅｖｅ,,合同会社,東京都,新宿区,新宿１丁目３６－２新宿第七葉山ビル３Ｆ,,13,104,1600022,,,,,,,2023-02-28,1,,,,,リフティーブ,0
1055,5011203004014,新規,0,2023-02-28,2023-02-28,合同会社優舎,,合同会社,東京都,中野区,中央１丁目４３番１５号ＶＩＰ７１１０３,,13,114,1640011,,,,,,,2023-02-28,1,,,,,ユウシャ,0
1056,5011301028492,新規,0,2023-02-28,2023-02-28,株式会社Ｖａｌｕｅｓ,,株式会社,東京都,杉並区,松庵２丁目５番１５号,,13,115,1670054,,,,,,,2023-02-28,1,,,,,バリューズ,0
1057,5011303004681,新規,0,2023-02-28,2023-02-28,合同会社Ｃｉｒｃｌｅ　Ｏｆ　Ｒａｉｎｂｏｗ,,合同会社,東京都,杉並区,上荻１丁目１４番１２号ｃｏｒｄｅｌｉａ荻窪４０４,,13,115,1670043,,,,,,,2023-02-28,1,,,,,サークルオブレインボー,0
1059,5011503005496,新規,0,2023-02-28,2023-02-28,Ｍ＆Ｍ合同会社,,合同会社,東京都,北区,赤羽南１丁目１５番３－４０７号モア・クレスト赤羽公園,,13,117,1150044,,,,,,,2023-02-28,1,,,,,エムアンドエム,0
1062,5011601026618,新規,0,2023-02-28,2023-02-28,株式会社ティーダ,,株式会社,東京都,練馬区,中村南３丁目１２－１ギャラクシー１階,,13,120,1760025,,,,,,,2023-02-28,1,,,,,ティーダ,0
1065,5011701026039,新規,0,2023-02-28,2023-02-28,東京益生株式会社,,株式会社,東京都,江戸川区,平井７丁目２０－１３－１０１,,13,123,1320035,,,,,,,2023-02-28,1,,,,,トウキョウエキセイ,0
1068,5011801041986,新規,0,2023-02-28,2023-02-28,株式会社濱名興業,,株式会社,東京都,葛飾区,新小岩４丁目４３番２号,,13,122,1240024,,,,,,,2023-02-28,1,,,,,ハマナコウギョウ,0
1069,5011801041994,新規,0,2023-02-28,2023-02-28,株式会社銀丸,,株式会社,東京都,葛飾区,立石１丁目７番５号,,13,122,1240012,,,,,,,2023-02-28,1,,,,,ギンマル,0
1073,5012401040214,新規,0,2023-02-28,2023-02-28,株式会社ツインズ,,株式会社,東京都,多摩市,東寺方６０２番地の１麗風荘１０２号室,,13,224,2060003,,,,,,,2023-02-28,1,,,,,ツインズ,0
1074,5012401040222,新規,0,2023-02-28,2023-02-28,株式会社ギフト,,株式会社,東京都,小金井市,緑町５丁目６番３２号ファインスクェア武蔵小金井１０４,,13,210,1840003,,,,,,,2023-02-28,1,,,,,ギフト,0
1076,5012403005850,新規,0,2023-02-28,2023-02-28,合同会社マクラウド,,合同会社,東京都,調布市,調布ケ丘３丁目７０－７伏木ビル３０１号,,13,208,1820021,,,,,,,2023-02-28,1,,,,,マクラウド,0
1092,5030001152519,新規,0,2023-02-28,2023-02-28,ＦＯＲＴＵＮＥ株式会社,,株式会社,埼玉県,鴻巣市,鎌塚２丁目４－３山下邸２０１,,11,217,3690112,,,,,,,2023-02-28,1,,,,,フォートゥナ,0
1093,5030001152568,新規,0,2023-02-28,2023-02-28,株式会社ＹＣＥ,,株式会社,埼玉県,川口市,西川口１丁目１６番３号堀江ビル３階,,11,203,3320021,,,,,,,2023-02-28,1,,,,,ワイシーイー,0
1094,5030001152576,新規,0,2023-02-28,2023-02-28,株式会社Ｅａｒｔｈ　Ｂｒｉｇｈｔ,,株式会社,埼玉県,さいたま市大宮区,宮町２丁目７４番地４第３秀宝ビル３階,,11,103,3300802,,,,,,,2023-02-28,1,,,,,アースブライト,0
1098,5030003021218,新規,0,2023-02-28,2023-02-28,合同会社バンデ,,合同会社,埼玉県,八潮市,大字大瀬１６２６番地１ドミールハスミ１０１,,11,234,3400822,,,,,,,2023-02-28,1,,,,,バンデ,0
1102,5050001052452,新規,0,2023-02-28,2023-02-28,株式会社Ｕ,,株式会社,茨城県,つくば市,吾妻１丁目７番地５－６０１号,,08,220,3050031,,,,,,,2023-02-28,1,,,,,ユー,0
1103,5050005013211,新規,0,2023-02-28,2023-02-28,一般社団法人Ｍａｓｊｉｄ　ＮＵ　Ａｔ‐Ｔａｑｗａ,,その他の設立登記法人,茨城県,古河市,東山田９３３番地３,,08,204,3060112,,,,,,,2023-02-28,1,,,,,マスジドエヌウーアタックワ,0
1104,5060001035729,新規,0,2023-02-28,2023-02-28,株式会社佐藤工業,,株式会社,栃木県,佐野市,朝日町８５２番地６,,09,204,3270011,,,,,,,2023-02-28,1,,,,,サトウコウギョウ,0
1105,5060003004450,新規,0,2023-02-28,2023-02-28,ＨＬＸ合同会社,,合同会社,栃木県,佐野市,米山南町１８番地２,,09,204,3270818,,,,,,,2023-02-28,1,,,,,エイチエルエックス,0
1108,5070001040166,新規,0,2023-02-28,2023-02-28,株式会社ＹＧＳｙｓｔｅｍ,,株式会社,群馬県,高崎市,東貝沢町４丁目１２番６号リベールＡ１０１号室,,10,202,3700041,,,,,,,2023-02-28,1,,,,,ワイジイシステム,0
1110,5070003004838,新規,0,2023-02-28,2023-02-28,Ｖｉｅｔｍａｓｔｅｒ合同会社,,合同会社,群馬県,邑楽郡大泉町,大字吉田３３２９番地の１アーバンファミリー夢１０２号,,10,524,3700523,,,,,,,2023-02-28,1,,,,,ヴィエットマスター,0
1115,5090003002261,新規,0,2023-02-28,2023-02-28,合同会社ふるふる本舗,,合同会社,山梨県,南都留郡富士河口湖町,小立１６７７番地,,19,430,4010302,,,,,,,2023-02-28,1,,,,,フルフルホンポ,0
1134,5120003023502,新規,0,2023-02-28,2023-02-28,合同会社ＲＤＪ,,合同会社,大阪府,大阪市鶴見区,浜２丁目１番５号,,27,124,5380035,,,,,,,2023-02-28,1,,,,,アルディージェイ,0
1136,5120101067038,新規,0,2023-02-28,2023-02-28,株式会社アンズ,,株式会社,大阪府,泉南郡熊取町,大久保中１丁目１０番２９号,,27,361,5900403,,,,,,,2023-02-28,1,,,,,アンズ,0
1139,5120901047148,新規,0,2023-02-28,2023-02-28,株式会社重里,,株式会社,大阪府,高槻市,本町５番１８号,,27,207,5690074,,,,,,,2023-02-28,1,,,,,ジュウリ,0
1143,5122001036725,新規,0,2023-02-28,2023-02-28,株式会社Ｇｒｏｗ,,株式会社,大阪府,東大阪市,喜里川町１１番２号２０１号室,,27,227,5798041,,,,,,,2023-02-28,1,,,,,グロー,0
1144,5130001073713,新規,0,2023-02-28,2023-02-28,Ｎｉｋｏ創業投資株式会社,,株式会社,京都府,京都市伏見区,深草大亀谷大山町６－４,,26,109,6120847,,,,,,,2023-02-28,1,,,,,ニコソウギョウトウシ,0
1145,5130003008551,新規,0,2023-02-28,2023-02-28,合同会社ＳＩＮ　ＳＥＩ,,合同会社,京都府,城陽市,寺田水度坂１５番地２５８,,26,207,6100121,,,,,,,2023-02-28,1,,,,,シンセイ,0
1151,5140001129241,新規,0,2023-02-28,2023-02-28,株式会社ヤマダの台所,,株式会社,兵庫県,神戸市東灘区,深江浜町１３１番地３,,28,101,6580023,,,,,,,2023-02-28,1,,,,,,0
1154,5140003018748,新規,0,2023-02-28,2023-02-28,合同会社エボリューション,,合同会社,兵庫県,姫路市,継５５番地１５,,28,201,6728004,,,,,,,2023-02-28,1,,,,,エボリューション,0
1155,5140003018772,新規,0,2023-02-28,2023-02-28,Ｍ’ｓ　Ｌａｂｏｒａｔｏｒｙ合同会社,,合同会社,兵庫県,神戸市須磨区,白川台５丁目７番地の３ロイヤルハイツ白川台２１０号,,28,107,6540103,,,,,,,2023-02-28,1,,,,,エムズラボラトリー,0
1162,5160005011162,新規,0,2023-02-28,2023-02-28,一般社団法人国際防火管理機構,,その他の設立登記法人,滋賀県,草津市,木川町１００２番地,,25,206,5250051,,,,,,,2023-02-28,1,,,,,コクサイボウカカンリキコウ,0
1169,5180001155110,新規,0,2023-02-28,2023-02-28,株式会社パズル,,株式会社,愛知県,名古屋市中区,錦２丁目１６番２１号,,23,106,4600003,,,,,,,2023-02-28,1,,,,,パズル,0
1170,5180001155135,新規,0,2023-02-28,2023-02-28,株式会社ＧＯ‐ＥＮ,,株式会社,愛知県,名古屋市千種区,今池５丁目３番５号,,23,101,4640850,,,,,,,2023-02-28,1,,,,,ゴエン,0
1174,5180003024866,新規,0,2023-02-28,2023-02-28,合同会社ＳＳＫ,,合同会社,愛知県,名古屋市中村区,名駅南３丁目９番５号スクエア名駅南９１１号,,23,105,4500003,,,,,,,2023-02-28,1,,,,,エスエスケー,0
1178,5200001041002,新規,0,2023-02-28,2023-02-28,Ａｋｕ‐ｓｈｕ株式会社,,株式会社,岐阜県,可児市,下恵土６０１４－１,,21,214,5090203,,,,,,,2023-02-28,1,,,,,アクシュ,0
1184,5260001037671,新規,0,2023-02-28,2023-02-28,ヒロマサライン株式会社,,株式会社,岡山県,岡山市北区,今保７１５番地１４,,33,101,7010145,,,,,,,2023-02-28,1,,,,,ヒロマサライン,0
1188,5260005011193,新規,0,2023-02-28,2023-02-28,岡山舞台技術事業協同組合,,その他の設立登記法人,岡山県,岡山市中区,倉益２６８番地３株式会社チクバ装飾社内,,33,102,7038263,,,,,,,2023-02-28,1,,,,,オカヤマブタイギジュツジギョウ,0
1196,5290001100674,新規,0,2023-02-28,2023-02-28,株式会社横尾クリエイト,,株式会社,福岡県,福岡市博多区,博多駅前１丁目２３番１号ＰａｒｋＦｒｏｎｔ博多駅前一丁目５Ｆ－Ｂ,,40,132,8120011,,,,,,,2023-02-28,1,,,,,ヨコオクリエイト,0
1199,5290003013585,新規,0,2023-02-28,2023-02-28,合同会社ビレッジ,,合同会社,福岡県,福岡市中央区,桜坂１丁目７番１３－２０４号ラピスラズリ桜坂,,40,133,8100024,,,,,,,2023-02-28,1,,,,,ビレッジ,0
1210,5360001031615,新規,0,2023-02-28,2023-02-28,Ｔｉｉｄａ　Ｏｋｉｎａｗａ株式会社,,株式会社,沖縄県,那覇市,山下町１８番２６号,,47,201,9000027,,,,,,,2023-02-28,1,,,,,ティーダオキナワ,0
1211,5360003012753,新規,0,2023-02-28,2023-02-28,合同会社オーシャン企画,,合同会社,沖縄県,宮古島市,上野字宮国７４６番地２０ウェルネスヴィラブリッサ２０６,,47,214,9060203,,,,,,,2023-02-28,1,,,,,オーシャンキカク,0
1214,5370003006011,新規,0,2023-02-28,2023-02-28,合同会社誠美装,,合同会社,宮城県,仙台市宮城野区,蒲生字屋倉３番地の１,,04,102,9830002,,,,,,,2023-02-28,1,,,,,マコトビソウ,0
1222,5430001088499,新規,0,2023-02-28,2023-02-28,株式会社インライズ,,株式会社,北海道,札幌市北区,拓北一条４丁目３番８号,,01,102,0028061,,,,,,,2023-02-28,1,,,,,インライズ,0
1226,5430003014767,新規,0,2023-02-28,2023-02-28,合同会社フルハーモニー,,合同会社,北海道,札幌市白石区,本郷通９丁目南３番１４号,,01,104,0030024,,,,,,,2023-02-28,1,,,,,フルハーモニー,0
1230,5460101003710,新規,0,2023-02-28,2023-02-28,橋本農機株式会社,,株式会社,北海道,上川郡新得町,屈足幸町４丁目１番地,,01,635,0810155,,,,,,,2023-02-28,1,,,,,,0
1235,5700150104269,新規,0,2023-02-28,2021-08-04,壱岐市農業機械銀行振興会,,その他,長崎県,壱岐市,郷ノ浦町柳田触１１１番地１,,42,210,8115114,,,,,,,2021-08-04,1,,,,,イキシノウギヨウキカイギンコウシンコウカイ,0
1240,6010001233261,新規,0,2023-02-28,2023-02-28,ＪＰＣ第３３号株式会社,,株式会社,東京都,千代田区,霞が関３丁目２番１号,,13,101,1000013,,,,,,,2023-02-28,1,,,,,ジェイピーシーダイサンジュウサンゴウ,0
1241,6010001233328,新規,0,2023-02-28,2023-02-28,株式会社Ｊｕｎｃｔｉｏ　ＡＫＩＢＡ,,株式会社,東京都,千代田区,外神田４丁目９番２号千住ビル８階,,13,101,1010021,,,,,,,2023-02-28,1,,,,,ユンクティオアキバ,0
1244,6010003039913,新規,0,2023-02-28,2023-02-28,合同会社ＤＵＰＬＥＸさつま二渡第一発電所,,合同会社,東京都,文京区,目白台２丁目９番１３号,,13,105,1120015,,,,,,,2023-02-28,1,,,,,デュープレックスサツマフタワタリダイイチハツデンショ,0
1248,6010401172729,新規,0,2023-02-28,2023-02-28,株式会社Ｔｉｉｄａ　Ｔａｋａｎａｗａ,,株式会社,東京都,港区,高輪２丁目１番１３号高輪タウンハウス６１０,,13,103,1080074,,,,,,,2023-02-28,1,,,,,ティーダタカナワ,0
1254,6010501050041,新規,0,2023-02-28,2023-02-28,株式会社Ｋｉｒａｋｕｔａ,,株式会社,東京都,台東区,浅草橋５丁目８－１１大富ビル４０２号室,,13,106,1110053,,,,,,,2023-02-28,1,,,,,キラクタ,0
1255,6010501050066,新規,0,2023-02-28,2023-02-28,Ｈ．Ｊ．アステラス株式会社,,株式会社,東京都,台東区,上野３丁目１６－２,,13,106,1100005,,,,,,,2023-02-28,1,,,,,エイチジェイアステラス,0
1258,6010703006601,新規,0,2023-02-28,2023-02-28,つきがさ合同会社,,合同会社,東京都,品川区,南品川５丁目１０番１９号,,13,109,1400004,,,,,,,2023-02-28,1,,,,,ツキガサ,0
1262,6010901052620,新規,0,2023-02-28,2023-02-28,株式会社ＯＲＡＴ,,株式会社,東京都,世田谷区,弦巻１丁目４１番３号,,13,112,1540016,,,,,,,2023-02-28,1,,,,,オーラット,0
1265,6010903008001,新規,0,2023-02-28,2023-02-28,合同会社Ｔ．Ｃ．Ｄ．,,合同会社,東京都,世田谷区,上用賀４丁目３５－１２上用賀パークマンション２１４号室,,13,112,1580098,,,,,,,2023-02-28,1,,,,,ティーシーディー,0
1267,6011001152807,新規,0,2023-02-28,2023-02-28,株式会社ＥＬ　ＭＡＲＩＡＣＨＩ,,株式会社,東京都,目黒区,目黒３丁目２番２号ハレロイヤル目黒２０１,,13,110,1530063,,,,,,,2023-02-28,1,,,,,エルマリアッチ,0
1268,6011001152856,新規,0,2023-02-28,2023-02-28,株式会社Ｓｐａ　Ｆｉｌａｍｅｎｔ,,株式会社,東京都,渋谷区,恵比寿１丁目１番５号エビスオークビル１,,13,113,1500013,,,,,,,2023-02-28,1,,,,,スパフィラメント,0
1269,6011003016340,新規,0,2023-02-28,2023-02-28,合同会社ネクシネマ,,合同会社,東京都,渋谷区,道玄坂１丁目１６‐６二葉ビル８Ｂ,,13,113,1500043,,,,,,,2023-02-28,1,,,,,ネクシネマ,0
1270,6011003016357,新規,0,2023-02-28,2023-02-28,合同会社ＭＥＬＴＲＥＣ,,合同会社,東京都,渋谷区,道玄坂１丁目１０番８号渋谷道玄坂東急ビル２Ｆ－Ｃ,,13,113,1500043,,,,,,,2023-02-28,1,,,,,メルトレック,0
1274,6011101101969,新規,0,2023-02-28,2023-02-28,株式会社七宝,,株式会社,東京都,新宿区,西早稲田３丁目２７番１１号,,13,104,1690051,,,,,,,2023-02-28,1,,,,,シチホウ,0
1278,6011303004680,新規,0,2023-02-28,2023-02-28,合同会社ＧＲＡＮＤＥ　ＩＮＶＥＲＳＡＯ,,合同会社,東京都,杉並区,高円寺北３丁目４０番１３号ブライズ高円寺１０５,,13,115,1660002,,,,,,,2023-02-28,1,,,,,グランデインブルサ,0
1281,6011503005495,新規,0,2023-02-28,2023-02-28,佐藤楽譜梱包合同会社,,合同会社,東京都,荒川区,荒川８丁目５番１５号－１Ｆ,,13,118,1160002,,,,,,,2023-02-28,1,,,,,サトウガクフコンポウ,0
1282,6011601026617,新規,0,2023-02-28,2023-02-28,株式会社ＨＲクロスラボ,,株式会社,東京都,練馬区,小竹町１丁目４３番８号,,13,120,1760004,,,,,,,2023-02-28,1,,,,,エイチアールクロスラボ,0
1283,6011603003837,新規,0,2023-02-28,2023-02-28,ＺＥＮ合同会社,,合同会社,東京都,練馬区,豊玉南１丁目１８番１２号カエサル豊玉南２０２,,13,120,1760014,,,,,,,2023-02-28,1,,,,,ゼン,0
1287,6011801041993,新規,0,2023-02-28,2023-02-28,株式会社雄華,,株式会社,東京都,足立区,花畑３丁目８番６号,,13,121,1210061,,,,,,,2023-02-28,1,,,,,ユウカ,0
1303,6021001078290,新規,0,2023-02-28,2023-02-28,ｈ＆ｙ　ｓｔｙｌｅ株式会社,,株式会社,神奈川県,藤沢市,辻堂元町６丁目２４番２４号,,14,205,2510043,,,,,,,2023-02-28,1,,,,,エイチアンドワイスタイル,0
1304,6021001078299,新規,0,2023-02-28,2023-02-28,株式会社ＳＴＦプロジェクト,,株式会社,神奈川県,小田原市,飯田岡１２７番地,,14,206,2500854,,,,,,,2023-02-28,1,,,,,エスティエフプロジェクト,0
1305,6021003012818,新規,0,2023-02-28,2023-02-28,トータルケアかまくら合同会社,,合同会社,神奈川県,鎌倉市,山ノ内３０９番地９号,,14,204,2470062,,,,,,,2023-02-28,1,,,,,トータルケアカマクラ,0
1311,6030001152583,新規,0,2023-02-28,2023-02-28,株式会社ひまわり,,株式会社,埼玉県,鶴ヶ島市,新町３丁目９番地８,,11,241,3502227,,,,,,,2023-02-28,1,,,,,ヒマワリ,0
1318,6040001127221,新規,0,2023-02-28,2023-02-28,株式会社ＨＮＴ,,株式会社,千葉県,白井市,笹塚２丁目５番１棟１４０２号,,12,232,2701426,,,,,,,2023-02-28,1,,,,,エイチエヌティー,0
1320,6040003022065,新規,0,2023-02-28,2023-02-28,合同会社ＴＡＫＥＳＵＮ,,合同会社,千葉県,佐倉市,ユーカリが丘４丁目１Ｗ１８０８,,12,212,2850858,,,,,,,2023-02-28,1,,,,,タケサン,0
1323,6050001052443,新規,0,2023-02-28,2023-02-28,株式会社日章開発,,株式会社,茨城県,水戸市,見和２丁目８４６番地,,08,201,3100911,,,,,,,2023-02-28,1,,,,,ニッショウカイハツ,0
1324,6050001052451,新規,0,2023-02-28,2023-02-28,株式会社久松内装,,株式会社,茨城県,つくば市,古来１１６６番地１,,08,220,3050021,,,,,,,2023-02-28,1,,,,,ヒサマツナイソウ,0
1326,6050003007271,新規,0,2023-02-28,2023-02-28,合同会社ＳＯＬ,,合同会社,茨城県,守谷市,美園３丁目５番地５パルティーレＩＩ－２０１,00129558,08,224,3020124,,,,,,,2023-02-28,1,,,,,ソル,0
1327,6060001035728,新規,0,2023-02-28,2023-02-28,株式会社イーン,,株式会社,栃木県,宇都宮市,戸祭町２６３８番１２,,09,201,3200053,,,,,,,2023-02-28,1,,,,,イーン,0
1333,6080001025479,新規,0,2023-02-28,2023-02-28,ｇｒａｐｈｅ株式会社,,株式会社,静岡県,静岡市駿河区,中田２丁目６番６号エスカイア中田１０５,,22,102,4228041,,,,,,,2023-02-28,1,,,,,グラフ,0
1339,6090003002260,新規,0,2023-02-28,2023-02-28,適度ジョギング合同会社,,合同会社,山梨県,北杜市,白州町白須１６３０番３６号,,19,209,4080315,,,,,,,2023-02-28,1,,,,,テキドジョギング,0
1353,6120001252614,新規,0,2023-02-28,2023-02-28,株式会社ビズ・テクノロジーズ,,株式会社,大阪府,大阪市港区,弁天１丁目２番１号大阪ベイタワーオフィス１４Ｆ,,27,107,5520007,,,,,,,2023-02-28,1,,,,,ビズテクノロジーズ,0
1354,6120001252754,新規,0,2023-02-28,2023-02-28,株式会社ＮＯＮＥＴ,,株式会社,大阪府,大阪市住吉区,山之内１丁目２７番２１号,,27,120,5580023,,,,,,,2023-02-28,1,,,,,ノネット,0
1355,6120001252762,新規,0,2023-02-28,2023-02-28,株式会社アンド・エン,,株式会社,大阪府,大阪市阿倍野区,北畠３丁目１２番４０号,,27,119,5450035,,,,,,,2023-02-28,1,,,,,アンドエン,0
1356,6120001252779,新規,0,2023-02-28,2023-02-28,株式会社つなぐ,,株式会社,大阪府,大阪市北区,梅田１丁目２番２号大阪駅前第２ビル１２－１２,,27,127,5300001,,,,,,,2023-02-28,1,,,,,ツナグ,0
1361,6122001036724,新規,0,2023-02-28,2023-02-28,株式会社ＫＡＩＫＡ,,株式会社,大阪府,東大阪市,永和１丁目２５番１号,,27,227,5770809,,,,,,,2023-02-28,1,,,,,カイカ,0
1362,6122001036732,新規,0,2023-02-28,2023-02-28,株式会社ＬＩＢＥＲＯ,,株式会社,大阪府,八尾市,龍華町１丁目４－２－２４１９,,27,212,5810069,,,,,,,2023-02-28,1,,,,,リベロ,0
1365,6130001073745,新規,0,2023-02-28,2023-02-28,株式会社ｎａｃａｏ,,株式会社,京都府,京都市下京区,四条通室町東入函谷鉾町１０１,,26,106,6008009,,,,,,,2023-02-28,1,,,,,ナカオ,0
1366,6130003008550,新規,0,2023-02-28,2023-02-28,合同会社えんクローバー,,合同会社,京都府,京都市南区,久世殿城町４６５番地１,,26,107,6018205,,,,,,,2023-02-28,1,,,,,エンクローバー,0
1369,6140005026491,新規,0,2023-02-28,2023-02-28,コベルコ・コンプレッサ労働組合,,その他の設立登記法人,兵庫県,加古郡播磨町,新島４１,,28,382,6750155,,,,,,,2023-02-28,1,,,,,コベルココンプレッサ,0
1373,6180001155084,新規,0,2023-02-28,2023-02-28,株式会社ルラシオン不動産,,株式会社,愛知県,名古屋市西区,花の木３丁目１０番２１号,,23,104,4510062,,,,,,,2023-02-28,1,,,,,ルラシオンフドウサン,0
1374,6180003024898,新規,0,2023-02-28,2023-02-28,合同会社バーティカル,,合同会社,愛知県,名古屋市中村区,西栄町１２－２,,23,105,4530846,,,,,,,2023-02-28,1,,,,,バーティカル,0
1378,6190001030187,新規,0,2023-02-28,2023-02-28,株式会社大晃,,株式会社,三重県,鈴鹿市,下大久保町２８３３番地６,,24,207,5131123,,,,,,,2023-02-28,1,,,,,ダイコウ,0
1383,6230003001974,新規,0,2023-02-28,2023-02-28,合同会社フルハウス,,合同会社,富山県,射水市,池多２－１,,16,211,9390318,,,,,,,2023-02-28,1,,,,,フルハウス,0
1384,6250001019975,新規,0,2023-02-28,2023-02-28,株式会社ＹＢＫ,,株式会社,山口県,下関市,椋野町３丁目１３番４５号,,35,201,7510816,,,,,,,2023-02-28,1,,,,,ワイビーケー,0
1389,6280005007536,新規,0,2023-02-28,2023-02-28,一般社団法人出雲ベース,,その他の設立登記法人,島根県,出雲市,塩冶神前３丁目７番２４号,,32,203,6930024,,,,,,,2023-02-28,1,,,,,イズモベース,0
1390,6290003013584,新規,0,2023-02-28,2023-02-28,ＳＥＬＩＮＡ合同会社,,合同会社,福岡県,福岡市東区,原田２丁目２２－５ひまわりコーポ箱崎２０２号,,40,131,8120063,,,,,,,2023-02-28,1,,,,,セリーナ,0
1407,6360001031622,新規,0,2023-02-28,2023-02-28,株式会社沖縄ファースト住宅企画,,株式会社,沖縄県,那覇市,銘苅１丁目１番地１２,,47,201,9000004,,,,,,,2023-02-28,1,,,,,オキナワファーストジュウタクキカク,0
1413,6370001049639,新規,0,2023-02-28,2023-02-28,株式会社大谷商店,,株式会社,宮城県,仙台市若林区,沖野６丁目３４番１６号,,04,103,9840831,,,,,,,2023-02-28,1,,,,,オオタニショウテン,0
1426,6430001088507,新規,0,2023-02-28,2023-02-28,株式会社ＭＲ．クリーンラボ,,株式会社,北海道,札幌市豊平区,西岡五条１３丁目１番２０号,,01,105,0620035,,,,,,,2023-02-28,1,,,,,エムアールクリーンラボ,0
1431,6470003002354,新規,0,2023-02-28,2023-02-28,合同会社Ｒｉｓｅ,,合同会社,香川県,丸亀市,土器町東７丁目３０４番地山田ハイツＩＩ３０３号,00129560,37,202,7630082,,,,,,,2023-02-28,1,,,,,ライズ,0
1436,7010001233260,新規,0,2023-02-28,2023-02-28,ＪＰＣ第３２号株式会社,,株式会社,東京都,千代田区,霞が関３丁目２番１号,,13,101,1000013,,,,,,,2023-02-28,1,,,,,ジェイピーシーダイサンジュウニゴウ,0
1437,7010001233310,新規,0,2023-02-28,2023-02-28,イスナ株式会社,,株式会社,東京都,中央区,銀座１丁目１２番４号Ｎ＆Ｅ．ＢＬＤ．７階,,13,102,1040061,,,,,,,2023-02-28,1,,,,,イスナ,0
1438,7010003039912,新規,0,2023-02-28,2023-02-28,合同会社ＤＵＰＬＥＸ那須烏山,,合同会社,東京都,文京区,目白台２丁目９番１３号,,13,105,1120015,,,,,,,2023-02-28,1,,,,,デュープレックスナスカラスヤマ,0
1441,7010005036288,新規,0,2023-02-28,2023-02-28,一般社団法人アイランドシップ５号,,その他の設立登記法人,東京都,中央区,八丁堀４丁目２番１０号ＡＯＪ税理士法人内,,13,102,1040032,,,,,,,2023-02-28,1,,,,,アイランドシップゴゴウ,0
1446,7010401172728,新規,0,2023-02-28,2023-02-28,株式会社ＭＥＤＩ　ＢＥＡＵＴＥ,,株式会社,東京都,港区,芝５丁目３６番４号札の辻スクエア９Ｆ,,13,103,1080014,,,,,,,2023-02-28,1,,,,,メディボーテ,0
1447,7010401172752,新規,0,2023-02-28,2023-02-28,株式会社ｂｒｉｌｌｏ,,株式会社,東京都,港区,赤坂２丁目１２番３２－２０８号,,13,103,1070052,,,,,,,2023-02-28,1,,,,,ブリージョ,0
1448,7010401172769,新規,0,2023-02-28,2023-02-28,株式会社ＴＯＫＹＯ　ＥＰＩＣ,,株式会社,東京都,港区,浜松町２丁目２番１５号浜松町ダイヤビル２Ｆ,,13,103,1050013,,,,,,,2023-02-28,1,,,,,トーキョーエピック,0
1451,7010601062654,新規,0,2023-02-28,2023-02-28,株式会社ＡＮＲＥＡＬ　ＳＴＵＤＩＯ,,株式会社,東京都,江東区,豊洲３丁目５番地３豊洲レジデンス１４１４,,13,108,1350061,,,,,,,2023-02-28,1,,,,,アンリアルスタジオ,0
1454,7010903008000,新規,0,2023-02-28,2023-02-28,合同会社ラ・カーサ・フェリーチェ,,合同会社,東京都,世田谷区,祖師谷５丁目３８番１７号,,13,112,1570072,,,,,,,2023-02-28,1,,,,,ラカーサフェリーチェ,0
1468,7011101101968,新規,0,2023-02-28,2023-02-28,株式会社ＹＯＰＩＡＰＩ,,株式会社,東京都,新宿区,西新宿３丁目３番１３号西新宿水間ビル６階,,13,104,1600023,,,,,,,2023-02-28,1,,,,,ヨピアピ,0
1469,7011301028490,新規,0,2023-02-28,2023-02-28,株式会社北欧研究所,,株式会社,東京都,杉並区,成田西１丁目１番７号,,13,115,1660016,,,,,,,2023-02-28,1,,,,,ホクオウケンキュウショ,0
1476,7011701026029,新規,0,2023-02-28,2023-02-28,株式会社シブヤ,,株式会社,東京都,江戸川区,江戸川１丁目１５番１４号,,13,123,1320013,,,,,,,2023-02-28,1,,,,,シブヤ,0
1481,7011801041968,新規,0,2023-02-28,2023-02-28,株式会社Ｐ・Ｊ・Ｓ商事,,株式会社,東京都,足立区,東綾瀬１丁目１３番１２号金岡ビル２階,,13,121,1200004,,,,,,,2023-02-28,1,,,,,ピージェイエスショウジ,0
1482,7011801041984,新規,0,2023-02-28,2023-02-28,大禹株式会社,,株式会社,東京都,足立区,興野２丁目３０番２６号,,13,121,1230844,,,,,,,2023-02-28,1,,,,,タイウ,0
1515,7030001152558,新規,0,2023-02-28,2023-02-28,株式会社オールマイティーホールディングス,,株式会社,埼玉県,北本市,西高尾１丁目２５７,,11,233,3640035,,,,,,,2023-02-28,1,,,,,オールマイティーホールディングス,0
1516,7030001152574,新規,0,2023-02-28,2023-02-28,株式会社ｈｏｍｅ＆ｒｏｏｍ,,株式会社,埼玉県,上尾市,春日２丁目１２番１０号,,11,219,3620074,,,,,,,2023-02-28,1,,,,,ホームアンドルーム,0
1527,7040001127162,新規,0,2023-02-28,2023-02-28,株式会社君建設,,株式会社,千葉県,八千代市,高津４１４番地４シティハイツ鈴木ＩＩ２０１号,00129561,12,221,2760036,,,,,,,2023-02-28,1,,,,,クンケンセツ,0
1528,7040001127245,新規,0,2023-02-28,2023-02-28,株式会社翼工業,,株式会社,千葉県,柏市,西原４丁目１３番４７号,,12,217,2770885,,,,,,,2023-02-28,1,,,,,ツバサコウギョウ,0
1531,7040003022064,新規,0,2023-02-28,2023-02-28,合同会社アットシンボル,,合同会社,千葉県,船橋市,習志野５丁目２－７,,12,204,2740071,,,,,,,2023-02-28,1,,,,,アットシンボル,0
1534,7050001052442,新規,0,2023-02-28,2023-02-28,ＣＯＮＮ株式会社,,株式会社,茨城県,かすみがうら市,下稲吉２６４５番地８２,,08,230,3150052,,,,,,,2023-02-28,1,,,,,シーオーエヌエヌ,0
1535,7050001052450,新規,0,2023-02-28,2023-02-28,株式会社前田コーポレーション,,株式会社,茨城県,筑西市,飯島３５８番地１,,08,227,3080064,,,,,,,2023-02-28,1,,,,,マエダコーポレーション,0
1537,7050003007262,新規,0,2023-02-28,2023-02-28,合同会社Ｖｉｓｗａ　ｉｎｔｅｒｎａｔｉｏｎａｌ,,合同会社,茨城県,つくば市,西高野８０７番地１,,08,220,3002613,,,,,,,2023-02-28,1,,,,,ヴィスワインターナショナル,0
1538,7050003007270,新規,0,2023-02-28,2023-02-28,合同会社ＡＺプロパティ,,合同会社,茨城県,つくば市,二の宮４丁目６番地３ＬＭ筑波学園都市９０３号,,08,220,3050051,,,,,,,2023-02-28,1,,,,,エーゼットプロパティ,0
1540,7060001035719,新規,0,2023-02-28,2023-02-28,ＨＡＤＩ　ＩＮＴＥＲＮＡＴＩＯＮＡＬ　ＴＲＡＤＩＮＧ株式会社,,株式会社,栃木県,栃木市,大平町富田３９２番地１１セゾン・ド・クープ２０３,,09,203,3294404,,,,,,,2023-02-28,1,,,,,ハディインターナショナルトレーディング,0
1541,7060001035727,新規,0,2023-02-28,2023-02-28,株式会社ブリューコロニー,,株式会社,栃木県,那須烏山市,旭１丁目２３－１８ピュアボナール１０３,,09,215,3210624,,,,,,,2023-02-28,1,,,,,ブリューコロニー,0
1545,7080001025478,新規,0,2023-02-28,2023-02-28,株式会社しゃらく,,株式会社,静岡県,静岡市駿河区,新川２丁目１０番４３号２０２,,22,102,4228064,,,,,,,2023-02-28,1,,,,,シャラク,0
1551,7090001017994,新規,0,2023-02-28,2023-02-28,株式会社やまなし自宅葬儀社,,株式会社,山梨県,韮崎市,円野町上円井２１６９番地８,,19,207,4070051,,,,,,,2023-02-28,1,,,,,ヤマナシジタクソウギシャ,0
1559,7120001252729,新規,0,2023-02-28,2023-02-28,株式会社メディア,,株式会社,大阪府,大阪市福島区,福島５丁目１１番７号,,27,103,5530003,,,,,,,2023-02-28,1,,,,,メディア,0
1560,7120001252761,新規,0,2023-02-28,2023-02-28,株式会社ＣＲＯＷＮ,,株式会社,大阪府,大阪市東成区,玉津１丁目３番７号１Ｆ,,27,115,5370023,,,,,,,2023-02-28,1,,,,,クラウン,0
1561,7120001252811,新規,0,2023-02-28,2023-02-28,株式会社Ｌｉｎｄｅｎ,,株式会社,大阪府,大阪市福島区,海老江１丁目６－１３,,27,103,5530001,,,,,,,2023-02-28,1,,,,,リンデン,0
1565,7122001036731,新規,0,2023-02-28,2023-02-28,株式会社守屋興業,,株式会社,大阪府,東大阪市,森河内西１丁目１番２２号,,27,227,5770061,,,,,,,2023-02-28,1,,,,,モリヤコウギョウ,0
1571,7130001073736,新規,0,2023-02-28,2023-02-28,株式会社Ａ,,株式会社,京都府,京都市下京区,中堂寺庄ノ内町１番地１７９,,26,106,6008814,,,,,,,2023-02-28,1,,,,,エー,0
1575,7140003018770,新規,0,2023-02-28,2023-02-28,合同会社インビクタス,,合同会社,兵庫県,神戸市垂水区,塩屋町９丁目２０－１２－１０１,,28,108,6550872,,,,,,,2023-02-28,1,,,,,インビクタス,0
1577,7150001026196,新規,0,2023-02-28,2023-02-28,株式会社ＭＩＫＩ　ＡＵＴＯ,,株式会社,奈良県,葛城市,當麻元大橋方１８－１,,29,211,6390276,,,,,,,2023-02-28,1,,,,,ミキオート,0
1584,7180003024889,新規,0,2023-02-28,2023-02-28,ＭＡ＆ＴＴ　Ｔｒａｄｉｎｇ合同会社,,合同会社,愛知県,名古屋市天白区,大坪２丁目７０５番地（エスパース２１－１Ｅ）,,23,116,4680072,,,,,,,2023-02-28,1,,,,,マットトレーディング,0
1587,7200001041000,新規,0,2023-02-28,2023-02-28,株式会社ＭＫ工業,,株式会社,岐阜県,可児市,土田２５４８番地６２６,,21,214,5090206,,,,,,,2023-02-28,1,,,,,エムケイコウギョウ,0
1597,7240003006030,新規,0,2023-02-28,2023-02-28,合同会社あらたま農園,,合同会社,広島県,神石郡神石高原町,近田１０７６番地,,34,545,7201622,,,,,,,2023-02-28,1,,,,,アラタマノウエン,0
1598,7240005015525,新規,0,2023-02-28,2023-02-28,一般社団法人ＨＬＬ,,その他の設立登記法人,広島県,広島市南区,京橋町１－７アスティ広島京橋ビルディング,,34,103,7320828,,,,,,,2023-02-28,1,,,,,エイチエルエル,0
1609,7290003013575,新規,0,2023-02-28,2023-02-28,ＮａＮｏ　Ｔｒｕｓｔ合同会社,,合同会社,福岡県,筑後市,大字山ノ井６６８番地１０,,40,211,8330031,,,,,,,2023-02-28,1,,,,,ナノトラスト,0
1612,7290801029302,新規,0,2023-02-28,2023-02-28,株式会社近藤建工,,株式会社,福岡県,北九州市小倉北区,高尾１丁目４１番３０－１１１号,,40,106,8030853,,,,,,,2023-02-28,1,,,,,コンドウケンコウ,0
1619,7370001049638,新規,0,2023-02-28,2023-02-28,株式会社アクトケアサービス,,株式会社,宮城県,塩竈市,錦町１４番８号,,04,203,9850024,,,,,,,2023-02-28,1,,,,,アクトケアサービス,0
1628,7430001088506,新規,0,2023-02-28,2023-02-28,株式会社フレッシュフェスト,,株式会社,北海道,札幌市中央区,宮の森二条６丁目４番１号,,01,101,0640952,,,,,,,2023-02-28,1,,,,,フレッシュフェスト,0
1629,7430003014765,新規,0,2023-02-28,2023-02-28,合同会社ブラッシー,,合同会社,北海道,札幌市東区,東苗穂十二条１丁目５番１６号,,01,103,0070812,,,,,,,2023-02-28,1,,,,,ブラッシー,0
1634,7500003002985,新規,0,2023-02-28,2023-02-28,合同会社ＫＩＲＡＫＵ,,合同会社,愛媛県,八幡浜市,大黒町２丁目１５２６番地２３１,,38,204,7960083,,,,,,,2023-02-28,1,,,,,キラク,0
1635,7500005008584,新規,0,2023-02-28,2023-02-28,一般社団法人愛媛県自転車競技連盟,,その他の設立登記法人,愛媛県,松山市,久万ノ台１１１２番地松山聖陵高等学校内,,38,201,7918016,,,,,,,2023-02-28,1,,,,,エヒメケンジテンシャキョウギレンメイ,0
1640,8010003039911,新規,0,2023-02-28,2023-02-28,合同会社ＴＹＬ　Ａｍｍｏｎ,,合同会社,東京都,千代田区,四番町８番地３ザ・パークハウス四番町レジデンス９０３号,,13,101,1020081,,,,,,,2023-02-28,1,,,,,ティーワイエルアモン,0
1643,8010005036287,新規,0,2023-02-28,2023-02-28,弁護士法人ＩＧＴ法律事務所,,その他の設立登記法人,東京都,千代田区,大手町１丁目７番２号東京サンケイビル２５階,,13,101,1000004,,,,,,,2023-02-28,1,,,,,アイジーティーホウリツジムショ,0
1649,8010401172743,新規,0,2023-02-28,2023-02-28,Ｚｏｕｋ　Ｃｏｎｓｕｌｔｉｎｇ　Ｊａｐａｎ株式会社,,株式会社,東京都,港区,六本木１丁目９番１０号アークヒルズ仙石山森タワー２８階べーカー＆マッケンジー法律事務所（外国法共同事業）内,,13,103,1060032,,,,,,,2023-02-28,1,,,,,ズークコンサルティングジャパン,0
1656,8010701043891,新規,0,2023-02-28,2023-02-28,株式会社ＺＯＯ,,株式会社,東京都,品川区,大井３丁目１５－８,,13,109,1400014,,,,,,,2023-02-28,1,,,,,ズー,0
1657,8010701043900,新規,0,2023-02-28,2023-02-28,株式会社ＴＯＫＹＯ　ＨＥＡＤＬＩＮＥ,,株式会社,東京都,品川区,西五反田２丁目９－７ドルミ五反田アンメゾン９０３,,13,109,1410031,,,,,,,2023-02-28,1,,,,,トウキョウヘッドライン,0
1674,8011101101967,新規,0,2023-02-28,2023-02-28,株式会社ＮＥＸＳＩＡＲＣ,,株式会社,東京都,新宿区,西新宿７丁目１９番７号サンローゼ新宿３０１号室,,13,104,1600023,,,,,,,2023-02-28,1,,,,,ネクシアーク,0
1676,8011303004679,新規,0,2023-02-28,2023-02-28,合同会社樋口事務所,,合同会社,東京都,杉並区,下井草１丁目２９番４号大熊レヂデンス３０３,,13,115,1670022,,,,,,,2023-02-28,1,,,,,ヒグチジムショ,0
1681,8011501028991,新規,0,2023-02-28,2023-02-28,森田製薬株式会社,,株式会社,東京都,荒川区,南千住３丁目２７－２浅草ビル,,13,118,1160003,,,,,,,2023-02-28,1,,,,,モリタセイヤク,0
1683,8011601026615,新規,0,2023-02-28,2023-02-28,株式会社ＭＡＴＥ,,株式会社,東京都,練馬区,石神井台５丁目２２番３１号,,13,120,1770045,,,,,,,2023-02-28,1,,,,,マイト,0
1686,8011701026036,新規,0,2023-02-28,2023-02-28,株式会社ＳＩＥＲＲＡ,,株式会社,東京都,江戸川区,東松本２丁目７番６号フォレスト松本橋１０２,,13,123,1330071,,,,,,,2023-02-28,1,,,,,シエラ,0
1687,8011703003396,新規,0,2023-02-28,2023-02-28,合同会社ｔｏｍａｔｏ商店,,合同会社,東京都,江戸川区,西篠崎２丁目２０番１１号,,13,123,1330055,,,,,,,2023-02-28,1,,,,,トマトショウテン,0
1698,8013103001212,新規,0,2023-02-28,2023-02-28,ＹＴ　ＴＲＡＮＳＰＯＲＴＥＲ合同会社,,合同会社,東京都,羽村市,神明台４丁目２－４０,,13,227,2050023,,,,,,,2023-02-28,1,,,,,ワイティートランスポーター,0
1712,8021003012816,新規,0,2023-02-28,2023-02-28,合同会社さくらフーヅ,,合同会社,神奈川県,横須賀市,ハイランド１丁目２６番１号,,14,201,2390833,,,,,,,2023-02-28,1,,,,,サクラフーヅ,0
1718,8030001152524,新規,0,2023-02-28,2023-02-28,株式会社Ｆｕｎプランニング,,株式会社,埼玉県,北本市,朝日２丁目２３８番地Ａ－１０１,,11,233,3640011,,,,,,,2023-02-28,1,,,,,ファンプランニング,0
1719,8030001152540,新規,0,2023-02-28,2023-02-28,株式会社中弘商事,,株式会社,埼玉県,越谷市,レイクタウン７丁目１１番地１２,,11,222,3430828,,,,,,,2023-02-28,1,,,,,ナカヒロショウジ,0
1721,8040001127161,新規,0,2023-02-28,2023-02-28,ＭＥＬＯＤＩＣＡ株式会社,,株式会社,千葉県,松戸市,上本郷４５９９番地北松戸ローヤルコーポ２０３号室,,12,207,2710064,,,,,,,2023-02-28,1,,,,,メロディカ,0
1722,8040003022047,新規,0,2023-02-28,2023-02-28,合同会社船橋企画,,合同会社,千葉県,船橋市,飯山満町３丁目１６６１番地４６,,12,204,2740822,,,,,,,2023-02-28,1,,,,,フナバシキカク,0
1726,8060001035726,新規,0,2023-02-28,2023-02-28,株式会社スマイルガレージ,,株式会社,栃木県,那須塩原市,下厚崎５番地１６８,,09,213,3250025,,,,,,,2023-02-28,1,,,,,スマイルガレージ,0
1728,8060003004448,新規,0,2023-02-28,2023-02-28,合同会社フェイムリミテッド,,合同会社,栃木県,小山市,大字喜沢１１４０番地６１,,09,208,3230014,,,,,,,2023-02-28,1,,,,,フェイムリミテッド,0
1731,8090001017993,新規,0,2023-02-28,2023-02-28,株式会社野沢,,株式会社,山梨県,山梨市,上神内川８４５番地４,,19,205,4050018,,,,,,,2023-02-28,1,,,,,ノザワ,0
1738,8120001252760,新規,0,2023-02-28,2023-02-28,株式会社ｍａｚｕＷＡ,,株式会社,大阪府,大阪市北区,梅田２丁目２番２号ヒルトンプラザウエスト１８階,,27,127,5300001,,,,,,,2023-02-28,1,,,,,マズワ,0
1739,8120001252769,新規,0,2023-02-28,2023-02-28,株式会社Ｙｓｔｙｌｅ,,株式会社,大阪府,大阪市城東区,古市２丁目８番２３－５０３号,,27,118,5360001,,,,,,,2023-02-28,1,,,,,ワイスタイル,0
1742,8120003023499,新規,0,2023-02-28,2023-02-28,合同会社ＫＭＧ　ＧＲＯＵＰ,,合同会社,大阪府,大阪市西成区,太子２丁目４番１０号２階,,27,122,5570002,,,,,,,2023-02-28,1,,,,,ケイエムジーグループ,0
1743,8120005023489,新規,0,2023-02-28,2023-02-28,ＩＧＭ税理士法人,,その他の設立登記法人,大阪府,大阪市浪速区,元町２丁目１１番１４号ＭＡビル５階,,27,111,5560016,,,,,,,2023-02-28,1,,,,,アイジーエム,0
1745,8120901047186,新規,0,2023-02-28,2023-02-28,株式会社ネオコネクト,,株式会社,大阪府,豊中市,上津島１丁目１番１４号,,27,203,5610843,,,,,,,2023-02-28,1,,,,,ネオコネクト,0
1753,8130001073743,新規,0,2023-02-28,2023-02-28,地天泰株式会社,,株式会社,京都府,京都市伏見区,醍醐外山街道町７番地１００,,26,109,6011345,,,,,,,2023-02-28,1,,,,,チテンタイ,0
1755,8130005016707,新規,0,2023-02-28,2023-02-28,一般社団法人まちの企画部,,その他の設立登記法人,京都府,京丹後市,峰山町杉谷８４３,,26,212,6270012,,,,,,,2023-02-28,1,,,,,マチノキカクブ,0
1760,8140001129247,新規,0,2023-02-28,2023-02-28,株式会社ジョージ,,株式会社,兵庫県,神戸市灘区,赤坂通８丁目１０番１２号１０４号室,,28,102,6570821,,,,,,,2023-02-28,1,,,,,ジョージ,0
1763,8150001026195,新規,0,2023-02-28,2023-02-28,株式会社Ｈ‐ＢＥＳＥ,,株式会社,奈良県,奈良市,右京３丁目８番地の１２,,29,201,6310805,,,,,,,2023-02-28,1,,,,,エイチベイス,0
1767,8180001155090,新規,0,2023-02-28,2023-02-28,株式会社ＳＹＡＮＧＤＡＮ,,株式会社,愛知県,名古屋市守山区,大森２丁目１４１３番地,,23,113,4630021,,,,,,,2023-02-28,1,,,,,シャンダン,0
1768,8180001155108,新規,0,2023-02-28,2023-02-28,株式会社ＧＡＲＡＧＥ　ＩＮＤＩＧＯ,,株式会社,愛知県,北名古屋市,久地野牧野５８番地,,23,234,4810012,,,,,,,2023-02-28,1,,,,,ガレージインディゴ,0
1769,8180001155124,新規,0,2023-02-28,2023-02-28,株式会社アイチロジス,,株式会社,愛知県,常滑市,多屋町１丁目４５番地の２,,23,216,4790839,,,,,,,2023-02-28,1,,,,,アイチロジス,0
1773,8180003024839,新規,0,2023-02-28,2023-02-28,合同会社真建サービス,,合同会社,愛知県,あま市,新居屋鶴田１２２番地ロフティ七宝３０３号,,23,237,4901105,,,,,,,2023-02-28,1,,,,,シンケンサービス,0
1774,8180003024888,新規,0,2023-02-28,2023-02-28,合同会社ＡＲＫＳ,,合同会社,愛知県,あま市,新居屋大日１８番地エルパラッシオ４０１,,23,237,4901105,,,,,,,2023-02-28,1,,,,,アークス,0
1779,8190001030185,新規,0,2023-02-28,2023-02-28,株式会社Ｕｎｉｔｅ　Ｍ’ｓ,,株式会社,三重県,名張市,鴻之台１番町１５６番地ファーストステップ２０１号,,24,208,5180701,,,,,,,2023-02-28,1,,,,,ユナイトエムズ,0
1783,8220001025289,新規,0,2023-02-28,2023-02-28,サカキ良品株式会社,,株式会社,石川県,白山市,中柏野町６番地１３,,17,210,9240036,,,,,,,2023-02-28,1,,,,,サカキリョウヒン,0
1786,8220003003458,新規,0,2023-02-28,2023-02-28,ＶＩＶＩＴＯ合同会社,,合同会社,石川県,野々市市,野代３丁目１００番地,,17,212,9218804,,,,,,,2023-02-28,1,,,,,ビビット,0
1796,8240001061134,新規,0,2023-02-28,2023-02-28,株式会社アップリフティング,,株式会社,広島県,広島市中区,本川町３丁目１番５号,,34,101,7300802,,,,,,,2023-02-28,1,,,,,アップリフティング,0
1808,8290001100572,新規,0,2023-02-28,2023-02-28,ＧＬｉｐ株式会社,,株式会社,福岡県,飯塚市,筑穂元吉５６０番地２９,,40,205,8200705,,,,,,,2023-02-28,1,,,,,グリップ,0
1809,8290001100663,新規,0,2023-02-28,2023-02-28,株式会社Ｒａｃｃｏｏｎ,,株式会社,福岡県,飯塚市,伊川３１６番地１,,40,205,8200054,,,,,,,2023-02-28,1,,,,,ラクーン,0
1811,8290003013582,新規,0,2023-02-28,2023-02-28,合同会社ＮＭ興産,,合同会社,福岡県,福岡市城南区,七隈１丁目９－１７,,40,136,8140133,,,,,,,2023-02-28,1,,,,,エヌエムコウサン,0
1816,8320005010054,新規,0,2023-02-28,2023-02-28,一般社団法人大分市ラグビーフットボール協会,,その他の設立登記法人,大分県,大分市,新川西１丁目４番１７号,,44,201,8700015,,,,,,,2023-02-28,1,,,,,オオイタシラグビーフットボールキョウカイ,0
1819,8330005010623,新規,0,2023-02-28,2023-02-28,医療法人篤行会,,その他の設立登記法人,熊本県,熊本市東区,長嶺南３丁目３－１,,43,102,8618039,,,,,,,2023-02-28,1,,,,,トッコウカイ,0
1821,8350001018206,新規,0,2023-02-28,2023-02-28,ｋｏｚｏｎｏ　ｇａｒｄｅｎ株式会社,,株式会社,宮崎県,宮崎市,松橋２丁目７番２１号ＧｒｏｗｔｈＭａｔｓｕｂａｓｈｉ５０３号室,,45,201,8800013,,,,,,,2023-02-28,1,,,,,コゾノガーデン,0
1822,8360005006791,新規,0,2023-02-28,2023-02-28,デジタルはるさー協同組合,,その他の設立登記法人,沖縄県,南城市,大里字嶺井５１８番地２,,47,215,9011201,,,,,,,2023-02-28,1,,,,,デジタルハルサー,0
1827,8390003002055,新規,0,2023-02-28,2023-02-28,合同会社ワガツマ,,合同会社,山形県,東置賜郡高畠町,大字高畠８７２番地,,06,381,9920351,,,,,,,2023-02-28,1,,,,,ワガツマ,0
1831,8430001088488,新規,0,2023-02-28,2023-02-28,株式会社アクティブ,,株式会社,北海道,札幌市北区,屯田六条６丁目４番６号クリスタルリバー五番館３０２号室,,01,102,0020856,,,,,,,2023-02-28,1,,,,,アクティブ,0
1832,8430003014772,新規,0,2023-02-28,2023-02-28,アクアＰｒｏＪＥＴ合同会社,,合同会社,北海道,札幌市白石区,栄通１４丁目３－１４－３０５号,,01,104,0030021,,,,,,,2023-02-28,1,,,,,アクアプロジェット,0
1835,8470003002352,新規,0,2023-02-28,2023-02-28,羽間上池・中池水上太陽光合同会社,,合同会社,香川県,高松市,丸の内２番５号,,37,201,7600033,,,,,,,2023-02-28,1,,,,,ハザマカミイケナカイケスイジョウタイヨウコウ,0
1838,8500005008583,新規,0,2023-02-28,2023-02-28,一般社団法人マツノイズムプロジェクト,,その他の設立登記法人,愛媛県,北宇和郡松野町,大字松丸３４３番地,,38,484,7982101,,,,,,,2023-02-28,1,,,,,マツノイズムプロジェクト,0
1839,8700150113861,新規,0,2023-02-28,2023-01-23,セントヒルズ茅ヶ崎管理組合,,その他,神奈川県,茅ヶ崎市,若松町１２－２８,,14,207,2530051,,,,,,,2023-01-23,1,,,,,セントヒルズチガサキカンリクミアイ,0
1846,9010001233259,新規,0,2023-02-28,2023-02-28,ＪＰＣ第３１号株式会社,,株式会社,東京都,千代田区,霞が関３丁目２番１号,,13,101,1000013,,,,,,,2023-02-28,1,,,,,ジェイピーシーダイサンジュウイチゴウ,0
1847,9010001233275,新規,0,2023-02-28,2023-02-28,小平株式会社,,株式会社,東京都,千代田区,神田神保町２丁目８番１６号淡景ビル１０階,,13,101,1010051,,,,,,,2023-02-28,1,,,,,ショウヘイ,0
1848,9010001233325,新規,0,2023-02-28,2023-02-28,株式会社アイガヴァー,,株式会社,東京都,中央区,勝どき４丁目１０番８号,,13,102,1040054,,,,,,,2023-02-28,1,,,,,アイガヴァー,0
1851,9010003039910,新規,0,2023-02-28,2023-02-28,ＤＧ１合同会社,,合同会社,東京都,千代田区,霞が関３丁目２番５号,,13,101,1000013,,,,,,,2023-02-28,1,,,,,ディージーワン,0
1858,9010401172726,新規,0,2023-02-28,2023-02-28,Ｆｏｏｄｏｍｉｃｓ株式会社,,株式会社,東京都,港区,東新橋１丁目６番３号,,13,103,1050021,,,,,,,2023-02-28,1,,,,,フードミクス,0
1862,9010501050063,新規,0,2023-02-28,2023-02-28,株式会社Ｈ２　Ｔｒａｄｉｎｇ,,株式会社,東京都,台東区,上野３丁目１９番４号ＫＥＮＢＵＩＬＤＩＮＧ２Ｆ,,13,106,1100005,,,,,,,2023-02-28,1,,,,,エイチツートレーディング,0
1874,9010901052601,新規,0,2023-02-28,2023-02-28,株式会社Ｈ＆Ｋ,,株式会社,東京都,世田谷区,給田３丁目２６番１０－２０８号,,13,112,1570064,,,,,,,2023-02-28,1,,,,,エイチアンドケイ,0
1876,9010903007999,新規,0,2023-02-28,2023-02-28,Ｓ２ＬＡＢ合同会社,,合同会社,東京都,世田谷区,野沢１丁目３５番１３－１１０８号,,13,112,1540003,,,,,,,2023-02-28,1,,,,,,0
1879,9011003016362,新規,0,2023-02-28,2023-02-28,合同会社Ｋ＆Ｍ,,合同会社,東京都,渋谷区,神宮前６丁目２３番４号桑野ビル２階,,13,113,1500001,,,,,,,2023-02-28,1,,,,,ケーアンドエム,0
1883,9011101101958,新規,0,2023-02-28,2023-02-28,株式会社ＲＥ,,株式会社,東京都,新宿区,大久保２丁目４番１５号サンライズ新宿５階,,13,104,1690072,,,,,,,2023-02-28,1,,,,,アールイー,0
1884,9011101101966,新規,0,2023-02-28,2023-02-28,株式会社しくみＬＡＢ,,株式会社,東京都,新宿区,横寺町１０番地１,,13,104,1620831,,,,,,,2023-02-28,1,,,,,シクミラボ,0
1886,9011501028999,新規,0,2023-02-28,2023-02-28,ＨＲＫ株式会社,,株式会社,東京都,荒川区,荒川３丁目１３番５号,,13,118,1160002,,,,,,,2023-02-28,1,,,,,エイチアールケー,0
1887,9011701026035,新規,0,2023-02-28,2023-02-28,株式会社幸友建設,,株式会社,東京都,江戸川区,一之江８丁目６番１２号メゾンサンイースト１０１号室,,13,123,1320024,,,,,,,2023-02-28,1,,,,,コウユウケンセツ,0
1889,9011703003395,新規,0,2023-02-28,2023-02-28,合同会社オールイン,,合同会社,東京都,江戸川区,北小岩２丁目１０－１東洋ビル６階,,13,123,1330051,,,,,,,2023-02-28,1,,,,,オールイン,0
1897,9013301050373,新規,0,2023-02-28,2023-02-28,元亨国際株式会社,,株式会社,東京都,豊島区,池袋４丁目３番５－６０６号,,13,116,1710014,,,,,,,2023-02-28,1,,,,,ゲンコウコクサイ,0
1910,9021003012815,新規,0,2023-02-28,2023-02-28,ＰＲＩＭＥ　ＭＯＴＯＲＳ合同会社,,合同会社,神奈川県,海老名市,国分寺台１丁目２１番３－２０２号,,14,215,2430413,,,,,,,2023-02-28,1,,,,,プライムモータース,0
1912,9030001152572,新規,0,2023-02-28,2023-02-28,株式会社インプルホーム,,株式会社,埼玉県,さいたま市西区,大字宝来１４９１番地１６,,11,101,3310074,,,,,,,2023-02-28,1,,,,,インプルホーム,0
1913,9030001152580,新規,0,2023-02-28,2023-02-28,聖縁商事株式会社,,株式会社,埼玉県,川口市,大字芝３９２０番９号,,11,203,3330866,,,,,,,2023-02-28,1,,,,,セイエンショウジ,0
1919,9040001127219,新規,0,2023-02-28,2023-02-28,株式会社アレトル,,株式会社,千葉県,浦安市,明海２丁目６番６号,,12,227,2790014,,,,,,,2023-02-28,1,,,,,アレトル,0
1921,9040003021907,新規,0,2023-02-28,2023-02-28,合同会社ＴＢＴ,,合同会社,千葉県,流山市,鰭ケ崎８番地の１３アルティスタＩＩＩ－２０１,00129555,12,220,2700161,,,,,,,2023-02-28,1,,,,,ティービーティー,0
1922,9040003022046,新規,0,2023-02-28,2023-02-28,合同会社ＡＩＬＹ,,合同会社,千葉県,船橋市,湊町２丁目１２番２４号船橋湊町日本橋ビル６Ｆ,,12,204,2730011,,,,,,,2023-02-28,1,,,,,アイリー,0
1926,9050001052449,新規,0,2023-02-28,2023-02-28,株式会社Ｒｅｘ,,株式会社,茨城県,水戸市,鯉淵町１７３５－８,,08,201,3190323,,,,,,,2023-02-28,1,,,,,レックス,0
1927,9050003007269,新規,0,2023-02-28,2023-02-28,ＯＳＡＤＡ　ＥＮＴＥＲＰＲＩＳＥＳ合同会社,,合同会社,茨城県,結城郡八千代町,大字新地９１５番地４,,08,521,3003541,,,,,,,2023-02-28,1,,,,,オサダエンタープライゼス,0
1933,9070001040170,新規,0,2023-02-28,2023-02-28,クレイ株式会社,,株式会社,群馬県,館林市,堀工町１９００番地１０７,,10,207,3740033,,,,,,,2023-02-28,1,,,,,クレイ,0
1939,9090001017984,新規,0,2023-02-28,2023-02-28,株式会社心煌,,株式会社,山梨県,甲府市,住吉３丁目１－２４シングルパラード２４－３１０号室,,19,201,4000851,,,,,,,2023-02-28,1,,,,,ミキラ,0
1940,9090001017992,新規,0,2023-02-28,2023-02-28,株式会社美純工業,,株式会社,山梨県,南都留郡富士河口湖町,船津３４５６番３,,19,430,4010301,,,,,,,2023-02-28,1,,,,,ミスミコウギョウ,0
1947,9120001252792,新規,0,2023-02-28,2023-02-28,株式会社Ｌｉｓｔ．,,株式会社,大阪府,大阪市中央区,南船場４丁目１２番８号,,27,128,5420081,,,,,,,2023-02-28,1,,,,,リスト,0
1948,9120001252801,新規,0,2023-02-28,2023-02-28,株式会社万事屋,,株式会社,大阪府,大阪市西区,江之子島１丁目７－３,,27,106,5500006,,,,,,,2023-02-28,1,,,,,バンジヤ,0
1950,9120003023507,新規,0,2023-02-28,2023-02-28,合同会社アップフィールド,,合同会社,大阪府,大阪市生野区,生野東２丁目７番３１号,,27,116,5440025,,,,,,,2023-02-28,1,,,,,アップフィールド,0
1965,9140001129246,新規,0,2023-02-28,2023-02-28,株式会社トリプルエイト,,株式会社,兵庫県,神戸市灘区,箕岡通１丁目２番９－１０５号,,28,102,6570812,,,,,,,2023-02-28,1,,,,,トリプルエイト,0
1969,9140003018728,新規,0,2023-02-28,2023-02-28,合同会社スオーロ,,合同会社,兵庫県,西宮市,甲陽園山王町５－４８,,28,204,6620018,,,,,,,2023-02-28,1,,,,,スオーロ,0
1970,9140003018769,新規,0,2023-02-28,2023-02-28,合同会社リュミエール,,合同会社,兵庫県,神戸市東灘区,御影２丁目９番３－６０３号,,28,101,6580047,,,,,,,2023-02-28,1,,,,,リュミエール,0
1976,9180001155107,新規,0,2023-02-28,2023-02-28,株式会社モンドピース,,株式会社,愛知県,名古屋市中区,金山４丁目５番１６号,,23,106,4600022,,,,,,,2023-02-28,1,,,,,モンドピース,0
1977,9180001155115,新規,0,2023-02-28,2023-02-28,株式会社神谷総業,,株式会社,愛知県,名古屋市名東区,猪高台２丁目１２０２番地,,23,115,4650028,,,,,,,2023-02-28,1,,,,,カミヤソウギョウ,0
1978,9180001155123,新規,0,2023-02-28,2023-02-28,株式会社ノワール,,株式会社,愛知県,名古屋市中区,錦３丁目１３番３２号,,23,106,4600003,,,,,,,2023-02-28,1,,,,,ノワール,0
1985,9180005020117,新規,0,2023-02-28,2023-02-28,社会福祉法人すずらん,,その他の設立登記法人,愛知県,名古屋市瑞穂区,白龍町１丁目６０番,,23,108,4670826,,,,,,,2023-02-28,1,,,,,スズラン,0
2000,9220001025288,新規,0,2023-02-28,2023-02-28,株式会社北陸未来ズ,,株式会社,石川県,金沢市,千木町リ１２９番地,,17,201,9200001,,,,,,,2023-02-28,1,,,,,ホクリクミライズ,0
2005,9230001019727,新規,0,2023-02-28,2023-02-28,株式会社Ｂｅａｔｗｏｒｋ,,株式会社,富山県,砺波市,中村３０番地２,,16,208,9391381,,,,,,,2023-02-28,1,,,,,ビートワーク,0
2009,9240001061133,新規,0,2023-02-28,2023-02-28,株式会社５ｃｏ’ｎｔａｃｔ,,株式会社,広島県,広島市東区,牛田本町２丁目９番３－１号Ｒ,,34,102,7320066,,,,,,,2023-02-28,1,,,,,ファイブコンタクト,0
2010,9290001100621,新規,0,2023-02-28,2023-02-28,株式会社エステートＣＨＳ,,株式会社,福岡県,福岡市博多区,美野島４丁目１番３号,,40,132,8120017,,,,,,,2023-02-28,1,,,,,エステートシーエイチエス,0
2011,9290001100670,新規,0,2023-02-28,2023-02-28,マイアセット株式会社,,株式会社,福岡県,福岡市博多区,山王１丁目８番７－２０７号,,40,132,8120015,,,,,,,2023-02-28,1,,,,,マイアセット,0
2019,9320003004032,新規,0,2023-02-28,2023-02-28,Ｍｒ．オマハ合同会社,,合同会社,大分県,大分市,新貝１２番５０―９０８号,,44,201,8700911,,,,,,,2023-02-28,1,,,,,ミスターオマハ,0
2028,9340001025391,新規,0,2023-02-28,2023-02-28,株式会社ケルブスタイル,,株式会社,鹿児島県,鹿屋市,下堀町９５８５番地１,,46,203,8930047,,,,,,,2023-02-28,1,,,,,ケルブスタイル,0
2030,9360003012758,新規,0,2023-02-28,2023-02-28,ＡＳＡ合同会社,,合同会社,沖縄県,那覇市,松尾２丁目１２－３６,,47,201,9000014,,,,,,,2023-02-28,1,,,,,エーエスエー,0
2034,9370003006008,新規,0,2023-02-28,2023-02-28,合同会社ＭＣＬ,,合同会社,宮城県,仙台市太白区,桜木町２３―１,,04,104,9820835,,,,,,,2023-02-28,1,,,,,エムシーエル,0
2040,9420001018164,新規,0,2023-02-28,2023-02-28,シャーム株式会社,,株式会社,青森県,青森市,新町１丁目３番２２号,,02,201,0300801,,,,,,,2023-02-28,1,,,,,シャーム,0
2043,9430001088487,新規,0,2023-02-28,2023-02-28,サンデンコー株式会社,,株式会社,北海道,岩見沢市,北一条西１４丁目２番５号,,01,210,0680041,,,,,,,2023-02-28,1,,,,,サンデンコー,0
2044,9430001088504,新規,0,2023-02-28,2023-02-28,株式会社ＯＴＨ,,株式会社,北海道,札幌市中央区,南一条西５丁目１３番地,,01,101,0600061,,,,,,,2023-02-28,1,,,,,オーティーエイチ,0
2050,9430003014771,新規,0,2023-02-28,2023-02-28,合同会社ｐｈａｔｍｅｎ,,合同会社,北海道,札幌市中央区,南五条西８丁目３番地１,,01,101,0640805,,,,,,,2023-02-28,1,,,,,ファットメン,0
2058,9470005006490,新規,0,2023-02-28,2023-02-28,医療法人社団みらい歯科クリニック,,その他の設立登記法人,香川県,丸亀市,津森町１０９５番地１,,37,202,7630052,,,,,,,2023-02-28,1,,,,,ミライシカクリニック,0
2061,9500001024773,新規,0,2023-02-28,2023-02-28,株式会社イーズカルム,,株式会社,愛媛県,西条市,三津屋南９番３ホワイトコート三津屋Ｇ号,,38,206,7991353,,,,,,,2023-02-28,1,,,,,イーズカルム,0
2063,9700150107821,新規,0,2023-02-28,2022-04-11,ＭＡＲＩＡ　＆　Ａｌｐｅｎｂｕａｍ,,その他,東京都,世田谷区,上用賀４丁目３７－１２－９０４,,13,112,1580098,,,,,,,2022-04-11,1,,,,,マリアアンドアルペンブアム,0
