sequenceNumber,corporateNumber,process,correct,updateDate,changeDate,name,nameImageId,kind,prefectureName,cityName,streetNumber,addressImageId,prefectureCode,cityCode,postCode,addressOutside,addressOutsideImageId,closeDate,closeCause,successorCorporateNumber,changeCause,assignmentDate,latest,enName,enPrefectureName,enCityName,enAddressOutside,furigana,hihyoji
4,1010001240691,新規,0,2023-12-13,2023-12-13,株式会社ＪＡＰＡＮ　ＦＯＯＤ研究所,,株式会社,東京都,千代田区,内神田１丁目６番３号南特許ビル２Ｆ,,13,101,1010047,,,,,,,2023-12-13,1,,,,,ジャパンフードケンキュウジョ,0
5,1010001240700,新規,0,2023-12-13,2023-12-13,株式会社パルプンテ,,株式会社,東京都,文京区,湯島２丁目４番３号ソフィアお茶の水１００５,,13,105,1130034,,,,,,,2023-12-13,1,,,,,パルプンテ,0
6,1010001240717,新規,0,2023-12-13,2023-12-13,株式会社ＴＣリアルエステート,,株式会社,東京都,千代田区,平河町１丁目４番１４号,,13,101,1020093,,,,,,,2023-12-13,1,,,,,ティーシーリアルエステート,0
7,1010001240725,新規,0,2023-12-13,2023-12-13,アーティッシュ株式会社,,株式会社,東京都,千代田区,丸の内１丁目１番３号,,13,101,1000005,,,,,,,2023-12-13,1,,,,,アーティッシュ,0
8,1010001240741,新規,0,2023-12-13,2023-12-13,株式会社Ｂｕｎｋａ,,株式会社,東京都,中央区,銀座１丁目２２番１１号銀座大竹ビジデンス２Ｆ,,13,102,1040061,,,,,,,2023-12-13,1,,,,,ブンカ,0
9,1010001240758,新規,0,2023-12-13,2023-12-13,株式会社杓谷技術研究所,,株式会社,東京都,千代田区,麹町１丁目４番４号２Ｆ,,13,101,1020083,,,,,,,2023-12-13,1,,,,,シャクヤギジュツケンキュウジョ,0
10,1010001240790,新規,0,2023-12-13,2023-12-13,株式会社ホクイリ,,株式会社,東京都,中央区,晴海３丁目４番９号,,13,102,1040053,,,,,,,2023-12-13,1,,,,,ホクイリ,0
14,1010003042418,新規,0,2023-12-13,2023-12-13,ネクステップ合同会社,,合同会社,東京都,中央区,銀座１丁目１２番４号Ｎ＆ＥＢＬＤ．６Ｆ,,13,102,1040061,,,,,,,2023-12-13,1,,,,,ネクステップ,0
17,1010005037630,新規,0,2023-12-13,2023-12-13,一般社団法人ＬＰ８,,その他の設立登記法人,東京都,千代田区,内神田１丁目１１番６号大丸アネックス１Ｆ,,13,101,1010047,,,,,,,2023-12-13,1,,,,,エルピーエイト,0
22,1010401179118,新規,0,2023-12-13,2023-12-13,株式会社リスコンスＥｉｎ,,株式会社,東京都,港区,赤坂５丁目２番４５号しもじまビル２階,,13,103,1070052,,,,,,,2023-12-13,1,,,,,リスコンスアイン,0
23,1010401179134,新規,0,2023-12-13,2023-12-13,株式会社Ｔｉｋａｒａｓ,,株式会社,東京都,港区,南青山２丁目２番１５号,,13,103,1070062,,,,,,,2023-12-13,1,,,,,ティカラス,0
25,1010403031549,新規,0,2023-12-13,2023-12-13,ＧＣＪＰ合同会社,,合同会社,東京都,港区,東麻布１丁目２８番１２号ＶＯＲＴ麻布ｍａｘｉｍ４階,,13,103,1060044,,,,,,,2023-12-13,1,,,,,ジーシージェイピー,0
33,1010601064334,新規,0,2023-12-13,2023-12-13,株式会社ＴＥＣＨ　ＫＩＮＤＳ,,株式会社,東京都,墨田区,吾妻橋３丁目７－４ライオンズマンション吾妻橋６０４,,13,107,1300001,,,,,,,2023-12-13,1,,,,,テックカインズ,0
34,1010701045250,新規,0,2023-12-13,2023-12-13,ＡＺマネージメントサービス株式会社,,株式会社,東京都,品川区,南品川２丁目２番５号,,13,109,1400004,,,,,,,2023-12-13,1,,,,,エーゼットマネージメントサービス,0
36,1010801034590,新規,0,2023-12-13,2023-12-13,株式会社ＮＥＸＴ,,株式会社,東京都,大田区,仲六郷４丁目３番１６－１２１号,,13,111,1440055,,,,,,,2023-12-13,1,,,,,ネクスト,0
40,1010901054332,新規,0,2023-12-13,2023-12-13,株式会社Ｎｏ　Ｎａｍｅ,,株式会社,東京都,世田谷区,桜丘４丁目２３番１８号２Ｆ,,13,112,1560054,,,,,,,2023-12-13,1,,,,,ノーネーム,0
41,1010901054349,新規,0,2023-12-13,2023-12-13,株式会社ＳＫ開発,,株式会社,東京都,世田谷区,北沢２丁目１９番２号月村光ビル３０３,,13,112,1550031,,,,,,,2023-12-13,1,,,,,エスケイカイハツ,0
43,1010905004548,新規,0,2023-12-13,2023-12-13,特定非営利活動法人ウクライナ戦後復興支援プロジェクト,,その他の設立登記法人,東京都,世田谷区,岡本２丁目１６番１５号デュオクラーレＡ－２,,13,112,1570076,,,,,,,2023-12-13,1,,,,,ウクライナセンゴフッコウシエンプロジェクト,0
46,1011001158759,新規,0,2023-12-13,2023-12-13,株式会社セキラボ,,株式会社,東京都,目黒区,自由が丘１丁目２５番２０号,,13,110,1520035,,,,,,,2023-12-13,1,,,,,セキラボ,0
47,1011001158767,新規,0,2023-12-13,2023-12-13,株式会社ＴＩＭ,,株式会社,東京都,目黒区,中目黒４丁目５番７号１０１,,13,110,1530061,,,,,,,2023-12-13,1,,,,,ティム,0
48,1011001158775,新規,0,2023-12-13,2023-12-13,株式会社ミュージック・ヴァレー,,株式会社,東京都,渋谷区,松濤１丁目２９番２４号,,13,113,1500046,,,,,,,2023-12-13,1,,,,,ミュージックヴァレー,0
49,1011001158791,新規,0,2023-12-13,2023-12-13,株式会社ＰＮＤ,,株式会社,東京都,目黒区,上目黒１丁目１５番１２号メゾン太陽３０１,,13,110,1530051,,,,,,,2023-12-13,1,,,,,ピーエヌディー,0
50,1011003018085,新規,0,2023-12-13,2023-12-13,合同会社キース,,合同会社,東京都,渋谷区,千駄ヶ谷５丁目２７番３号やまとビル８階８１９号室,,13,113,1510051,,,,,,,2023-12-13,1,,,,,キース,0
58,1011101105438,新規,0,2023-12-13,2023-12-13,株式会社寶裕,,株式会社,東京都,新宿区,市谷仲之町３番３１－３０４号,,13,104,1620064,,,,,,,2023-12-13,1,,,,,ホウユウ,0
59,1011101105446,新規,0,2023-12-13,2023-12-13,株式会社Ｏｎｅ　Ｗｅａｖｅ　Ｈｏｌｄｉｎｇｓ,,株式会社,東京都,新宿区,西新宿１丁目４番地１１号全研プラザＳＰＡＣＥＳ新宿４１６号室,,13,104,1600023,,,,,,,2023-12-13,1,,,,,ワンウィーヴホールディングス,0
60,1011101105454,新規,0,2023-12-13,2023-12-13,行動株式会社,,株式会社,東京都,新宿区,北新宿１丁目２７番７－１０１号,,13,104,1690074,,,,,,,2023-12-13,1,,,,,コウドウ,0
61,1011101105479,新規,0,2023-12-13,2023-12-13,株式会社オフビート,,株式会社,東京都,新宿区,百人町１丁目２０番１９号盟和ハイツ２０４,,13,104,1690073,,,,,,,2023-12-13,1,,,,,オフビート,0
62,1011103013837,新規,0,2023-12-13,2023-12-13,合同会社グローバルーワン,,合同会社,東京都,新宿区,西新宿６丁目１２番７号ストーク新宿１１０１,,13,104,1600023,,,,,,,2023-12-13,1,,,,,グローバルーワン,0
63,1011103013845,新規,0,2023-12-13,2023-12-13,合同会社ＭＩＣＯｈａｉｒ,,合同会社,東京都,新宿区,新宿３丁目３１番地３－３階,,13,104,1600022,,,,,,,2023-12-13,1,,,,,ミコヘアー,0
69,1011303004999,新規,0,2023-12-13,2023-12-13,合同会社ｏｆｆｉｃｅ　ＯＲＣＨＩＳ,,合同会社,東京都,杉並区,下高井戸３丁目２３番２号サンライズ２０３,,13,115,1680073,,,,,,,2023-12-13,1,,,,,オフィスオーキス,0
72,1011503005871,新規,0,2023-12-13,2023-12-13,合同会社奥本興業,,合同会社,東京都,北区,志茂５丁目２４番１－６０２号,,13,117,1150042,,,,,,,2023-12-13,1,,,,,オクモトコウギョウ,0
73,1011503005888,新規,0,2023-12-13,2023-12-13,合同会社オクストーン,,合同会社,東京都,荒川区,西尾久８丁目４４番３０－９０７号,,13,118,1160011,,,,,,,2023-12-13,1,,,,,オクストーン,0
78,1011701026851,新規,0,2023-12-13,2023-12-13,東京シッピング株式会社,,株式会社,東京都,江戸川区,西葛西２丁目２３番１９－１００１号,,13,123,1340088,,,,,,,2023-12-13,1,,,,,トウキョウシッピング,0
81,1011803005984,新規,0,2023-12-13,2023-12-13,合同会社大善建装,,合同会社,東京都,足立区,青井２丁目１０番２３号,,13,121,1200012,,,,,,,2023-12-13,1,,,,,タイゼンケンソウ,0
82,1012303001912,新規,0,2023-12-13,2023-12-13,合同会社Ａｒｏｕｎｄ‐ＡＩ,,合同会社,東京都,町田市,南大谷７４８番地５８,,13,209,1940031,,,,,,,2023-12-13,1,,,,,,0
83,1012401041323,新規,0,2023-12-13,2023-12-13,株式会社ＳＷＡＬＬＯＷ　ＤＩＭＥ　ＷＯＲＫＳ,,株式会社,東京都,狛江市,駒井町１丁目３４番９号,,13,219,2010016,,,,,,,2023-12-13,1,,,,,スワロウダイムワークス,0
84,1012403006324,新規,0,2023-12-13,2023-12-13,ＭＩＹＡＣＹＯ合同会社,,合同会社,東京都,小金井市,東町４丁目５番６号,,13,210,1840011,,,,,,,2023-12-13,1,,,,,ミヤチョウ,0
86,1012701017989,新規,0,2023-12-13,2023-12-13,株式会社Ｃｈｉｃｋ　Ｇａｒｄｅｎ,,株式会社,東京都,西東京市,ひばりが丘北１丁目７番１４号,,13,229,2020002,,,,,,,2023-12-13,1,,,,,チックガーデン,0
88,1013303006918,新規,0,2023-12-13,2023-12-13,合同会社有明亭,,合同会社,東京都,豊島区,巣鴨１丁目２０番１３号青葉ビル１階,,13,116,1700002,,,,,,,2023-12-13,1,,,,,アリアケテイ,0
90,1020001154858,新規,0,2023-12-13,2023-12-13,株式会社ＭＯＯＮＳＩＸ,,株式会社,神奈川県,横浜市西区,浅間町１丁目４番３号ウィザードビル４０２,,14,103,2200072,,,,,,,2023-12-13,1,,,,,ムーンシックス,0
91,1020001154882,新規,0,2023-12-13,2023-12-13,グローバルリスクソリューションズ株式会社,,株式会社,神奈川県,横浜市中区,尾上町５丁目７１番地横浜シティタワー馬車道１５０３号室,,14,104,2310015,,,,,,,2023-12-13,1,,,,,グローバルリスクソリューションズ,0
92,1020001154890,新規,0,2023-12-13,2023-12-13,ｉ‐Ｎｏｔｅ株式会社,,株式会社,神奈川県,川崎市高津区,蟹ケ谷２７７番地１５ポレスター日吉６１１,,14,134,2130025,,,,,,,2023-12-13,1,,,,,アイノート,0
93,1020001154899,新規,0,2023-12-13,2023-12-13,ＫＩＮＯ株式会社,,株式会社,神奈川県,川崎市川崎区,貝塚１丁目３番１９号ハイネス貝塚３０２,,14,131,2100014,,,,,,,2023-12-13,1,,,,,キノ,0
97,1020003025165,新規,0,2023-12-13,2023-12-13,合同会社ＡＬＬ　ＢＬＵＥ,,合同会社,神奈川県,横浜市磯子区,岡村８丁目１番１８－６０１号,,14,107,2350021,,,,,,,2023-12-13,1,,,,,オールブルー,0
98,1020003025181,新規,0,2023-12-13,2023-12-13,合同会社咲,,合同会社,神奈川県,横浜市西区,北幸１丁目１１番１号水信ビル７階,,14,103,2200004,,,,,,,2023-12-13,1,,,,,エム,0
100,1021001080945,新規,0,2023-12-13,2023-12-13,株式会社Ｈ．Ｓマテリアル,,株式会社,神奈川県,横須賀市,池田町３丁目４番１１号,,14,201,2390806,,,,,,,2023-12-13,1,,,,,エイチエスマテリアル,0
104,1021005012969,新規,0,2023-12-13,2023-12-13,医療法人社団タカハシ,,その他の設立登記法人,神奈川県,大和市,上草柳７丁目８番７号１・２階,,14,213,2420029,,,,,,,2023-12-13,1,,,,,タカハシ,0
107,1030001157629,新規,0,2023-12-13,2023-12-13,株式会社タスクプロパティ,,株式会社,埼玉県,蕨市,塚越７丁目３番５号,,11,223,3350002,,,,,,,2023-12-13,1,,,,,タスクプロパティ,0
108,1030001157645,新規,0,2023-12-13,2023-12-13,株式会社マツヤマクリエーション,,株式会社,埼玉県,ふじみ野市,苗間５５８番地１０,,11,245,3560052,,,,,,,2023-12-13,1,,,,,マツヤマクリエーション,0
109,1030001157678,新規,0,2023-12-13,2023-12-13,株式会社Ｅｃｌｉｐｓｅ　Ｓｔａｎｄａｒｄ,,株式会社,埼玉県,川口市,金山町１２番１－１８０７号サウスゲートタワー川口,,11,203,3320014,,,,,,,2023-12-13,1,,,,,エクリプススタンダード,0
110,1030001157686,新規,0,2023-12-13,2023-12-13,Ｆｒｅｅ　ａｓｓｅｔ株式会社,,株式会社,埼玉県,朝霞市,三原３丁目３番８号,,11,227,3510025,,,,,,,2023-12-13,1,,,,,フリーアセット,0
111,1030001157694,新規,0,2023-12-13,2023-12-13,株式会社Ｇｅｎｋｙ’ｓ,,株式会社,埼玉県,朝霞市,根岸台５丁目１９番１号,,11,227,3510005,,,,,,,2023-12-13,1,,,,,ゲンキーズ,0
112,1030003023218,新規,0,2023-12-13,2023-12-13,合同会社ＲＵＭＩ　Ｉｎｔｅｒｎａｔｉｏｎａｌ,,合同会社,埼玉県,さいたま市浦和区,上木崎６丁目２番１２号,,11,107,3300071,,,,,,,2023-12-13,1,,,,,ルミインターナショナル,0
113,1030003023226,新規,0,2023-12-13,2023-12-13,合同会社ＳＴＥＥＬＯ,,合同会社,埼玉県,越谷市,南越谷１丁目３番１号トラストコンティニュー２０１号,,11,222,3430845,,,,,,,2023-12-13,1,,,,,スティーロ,0
115,1040001131335,新規,0,2023-12-13,2023-12-13,株式会社いなほ,,株式会社,千葉県,松戸市,旭町４丁目１２１３番地,,12,207,2710043,,,,,,,2023-12-13,1,,,,,イナホ,0
116,1040001131351,新規,0,2023-12-13,2023-12-13,株式会社ガンベヤ,,株式会社,千葉県,鎌ケ谷市,東鎌ケ谷２丁目１９番１８号,,12,224,2730104,,,,,,,2023-12-13,1,,,,,ガンベヤ,0
122,1040003023893,新規,0,2023-12-13,2023-12-13,合同会社ＯＩＣ,,合同会社,千葉県,松戸市,八ケ崎緑町２９０－１ラッキーパレス２０２号,,12,207,2700024,,,,,,,2023-12-13,1,,,,,オーアイシー,0
123,1050001053958,新規,0,2023-12-13,2023-12-13,株式会社Ｊ．ｐｌｕｓ,,株式会社,茨城県,日立市,会瀬町２丁目２２番１号,,08,202,3170076,,,,,,,2023-12-13,1,,,,,ジェイプラス,0
124,1050003007986,新規,0,2023-12-13,2023-12-13,合同会社アイビー産業医,,合同会社,茨城県,つくば市,学園の森２丁目２５番地４ムランジェ１号,,08,220,3050816,,,,,,,2023-12-13,1,,,,,アイビーサンギョウイ,0
126,1060001036615,新規,0,2023-12-13,2023-12-13,株式会社ＰＯ１ＮＴ,,株式会社,栃木県,栃木市,千塚町８３番地２,,09,203,3280135,,,,,,,2023-12-13,1,,,,,ポイント,0
127,1060003004834,新規,0,2023-12-13,2023-12-13,千葉木トレーディング合同会社,,合同会社,栃木県,栃木市,大平町富田１６６７番地２,,09,203,3294404,,,,,,,2023-12-13,1,,,,,チバキトレーディング,0
128,1070001041184,新規,0,2023-12-13,2023-12-13,株式会社インダスト,,株式会社,群馬県,伊勢崎市,羽黒町２９番地１７,,10,204,3720844,,,,,,,2023-12-13,1,,,,,,0
129,1070003005187,新規,0,2023-12-13,2023-12-13,ＭＭ合同会社,,合同会社,群馬県,太田市,西本町１９番６号,,10,205,3730033,,,,,,,2023-12-13,1,,,,,,0
131,1080003003108,新規,0,2023-12-13,2023-12-13,ＴＡマネジメント合同会社,,合同会社,静岡県,静岡市葵区,安東３丁目１７番１０－３０４号,,22,101,4200882,,,,,,,2023-12-13,1,,,,,ティーエーマネジメント,0
132,1080101024393,新規,0,2023-12-13,2023-12-13,株式会社ヒナタ企画,,株式会社,静岡県,沼津市,岡宮１３５０番地の４、２階,,22,203,4100011,,,,,,,2023-12-13,1,,,,,ヒナタキカク,0
141,1120001260076,新規,0,2023-12-13,2023-12-13,誉美構造株式会社,,株式会社,大阪府,大阪市中央区,難波４丁目１－１５近鉄難波ビル１階,,27,128,5420076,,,,,,,2023-12-13,1,,,,,ヨミコウゾウ,0
142,1120001260555,新規,0,2023-12-13,2023-12-13,株式会社Ｓｉｒｉｕｓ,,株式会社,大阪府,大阪市阿倍野区,阿倍野筋１丁目３－２１岸本ビル２Ｆ,,27,119,5450052,,,,,,,2023-12-13,1,,,,,シリウス,0
143,1120001260563,新規,0,2023-12-13,2023-12-13,酒工房梅本株式会社,,株式会社,大阪府,大阪市淀川区,木川東３丁目４－２５,,27,123,5320012,,,,,,,2023-12-13,1,,,,,サケコウボウウメモト,0
144,1120001260571,新規,0,2023-12-13,2023-12-13,株式会社Ｌｕｋｅ　Ｂｅａｕｔｙ,,株式会社,大阪府,大阪市浪速区,幸町２丁目５－７－１５０４,,27,111,5560021,,,,,,,2023-12-13,1,,,,,ルークビューティー,0
145,1120001260596,新規,0,2023-12-13,2023-12-13,富伸貿易株式会社,,株式会社,大阪府,大阪市中央区,安堂寺町２丁目２番１３－３０１号,,27,128,5420061,,,,,,,2023-12-13,1,,,,,フクシンボウエキ,0
146,1120001260605,新規,0,2023-12-13,2023-12-13,株式会社ＧＲＡＮＤ　ＳＬＡＭ,,株式会社,大阪府,大阪市鶴見区,緑１丁目１２番２９号,,27,124,5380054,,,,,,,2023-12-13,1,,,,,グランドスラム,0
147,1120001260621,新規,0,2023-12-13,2023-12-13,美羊羊株式会社,,株式会社,大阪府,大阪市北区,西天満５丁目９番１０－４０７号,,27,127,5300047,,,,,,,2023-12-13,1,,,,,メイヨヨ,0
154,1120003025469,新規,0,2023-12-13,2023-12-13,合同会社ＮＢコーポレーション,,合同会社,大阪府,寝屋川市,香里南之町３３－１,,27,215,5720084,,,,,,,2023-12-13,1,,,,,エヌビーコーポレーション,0
155,1120003025477,新規,0,2023-12-13,2023-12-13,合同会社ＴＵＡＮ６８,,合同会社,大阪府,大阪市生野区,新今里３丁目１９番７号相愛マンション２３号,,27,116,5440001,,,,,,,2023-12-13,1,,,,,トゥアンロクジュウハチ,0
156,1120003025502,新規,0,2023-12-13,2023-12-13,合同会社れお・ぽっくる,,合同会社,大阪府,大阪市東成区,深江北１丁目３番１２－２１１,,27,115,5370001,,,,,,,2023-12-13,1,,,,,レオポックル,0
157,1120003025535,新規,0,2023-12-13,2023-12-13,合同会社ＰＲＯａｃｔ,,合同会社,大阪府,守口市,寺方本通２丁目４－９,,27,209,5700048,,,,,,,2023-12-13,1,,,,,プロアクト,0
161,1120101068683,新規,0,2023-12-13,2023-12-13,株式会社ＨＹＴ,,株式会社,大阪府,堺市堺区,宿院町西１丁１番６号ＩＷＣ宿院ビル２階２号室,,27,141,5900958,,,,,,,2023-12-13,1,,,,,エイチワイティ,0
162,1120103005577,新規,0,2023-12-13,2023-12-13,ＳＰＳｍｉＬＥ合同会社,,合同会社,大阪府,河内長野市,錦町３０番７－１０１号,,27,216,5860031,,,,,,,2023-12-13,1,,,,,スーパースマイル,0
166,1122001037652,新規,0,2023-12-13,2023-12-13,ライトコネクト株式会社,,株式会社,大阪府,東大阪市,鴻池元町１０番４号,,27,227,5780974,,,,,,,2023-12-13,1,,,,,ライトコネクト,0
167,1122001037660,新規,0,2023-12-13,2023-12-13,株式会社Ｃａｐｒｉｃｅ,,株式会社,大阪府,大東市,氷野３丁目１３番９号,,27,218,5740062,,,,,,,2023-12-13,1,,,,,カプリス,0
172,1130001075894,新規,0,2023-12-13,2023-12-13,株式会社ピゴセリス,,株式会社,京都府,京都市上京区,宮垣町９１番地１０２,,26,102,6020853,,,,,,,2023-12-13,1,,,,,ピゴセリス,0
181,1140003019915,新規,0,2023-12-13,2023-12-13,合同会社ワクワークス,,合同会社,兵庫県,豊岡市,日高町国分寺８０５番地１,,28,209,6695341,,,,,,,2023-12-13,1,,,,,ワクワークス,0
186,1160001025558,新規,0,2023-12-13,2023-12-13,株式会社ｒｅＬＡＮＤ,,株式会社,滋賀県,湖南市,中央４丁目１４０番地２,,25,211,5203234,,,,,,,2023-12-13,1,,,,,リランド,0
194,1180001159313,新規,0,2023-12-13,2023-12-13,株式会社ＳＹコマース,,株式会社,愛知県,名古屋市中村区,亀島１丁目３番４号,,23,105,4530013,,,,,,,2023-12-13,1,,,,,エスワイコマース,0
195,1180001159338,新規,0,2023-12-13,2023-12-13,ＷＨ株式会社,,株式会社,愛知県,一宮市,新生１丁目２番１３号柴田ビル１Ｆ,,23,203,4910912,,,,,,,2023-12-13,1,,,,,ダブルエイチ,0
196,1180001159346,新規,0,2023-12-13,2023-12-13,日穂実業株式会社,,株式会社,愛知県,名古屋市港区,港陽１丁目５番１８号,,23,111,4550013,,,,,,,2023-12-13,1,,,,,ニチホジツギョウ,0
197,1180001159362,新規,0,2023-12-13,2023-12-13,株式会社ミズタニ設備設計,,株式会社,愛知県,名古屋市東区,葵１丁目１６番１３号,,23,102,4610004,,,,,,,2023-12-13,1,,,,,ミズタニセツビセッケイ,0
201,1180003026065,新規,0,2023-12-13,2023-12-13,合同会社こもハウス,,合同会社,愛知県,名古屋市守山区,小幡中３丁目４番１号,,23,113,4630013,,,,,,,2023-12-13,1,,,,,コモハウス,0
211,1230001020139,新規,0,2023-12-13,2023-12-13,株式会社ＭＵＫＵ,,株式会社,富山県,富山市,大泉１５０９番地,,16,201,9398058,,,,,,,2023-12-13,1,,,,,ムク,0
214,1240001062535,新規,0,2023-12-13,2023-12-13,株式会社メイプル,,株式会社,広島県,安芸郡熊野町,新宮４丁目１２－４,,34,307,7314211,,,,,,,2023-12-13,1,,,,,メイプル,0
215,1240001062543,新規,0,2023-12-13,2023-12-13,株式会社ＢｅＧＬＯＷ,,株式会社,広島県,広島市中区,宝町５－９ウイング宝町ファイブ１８０１,,34,101,7300044,,,,,,,2023-12-13,1,,,,,ビーグロウ,0
217,1240003006449,新規,0,2023-12-13,2023-12-13,強運合同会社,,合同会社,広島県,福山市,松永町５丁目１６番１１号,,34,207,7290104,,,,,,,2023-12-13,1,,,,,キョウウン,0
218,1260001038558,新規,0,2023-12-13,2023-12-13,株式会社ＧＳＯインベストメント,,株式会社,岡山県,井原市,岩倉町３４０番地１,,33,207,7150016,,,,,,,2023-12-13,1,,,,,ジーエスオーインベストメント,0
224,1290001104002,新規,0,2023-12-13,2023-12-13,株式会社トラノバイオエージェンシー,,株式会社,福岡県,福岡市中央区,天神４丁目６番２８号天神ファーストビル７階,,40,133,8100001,,,,,,,2023-12-13,1,,,,,トラノバイオエージェンシー,0
225,1290001104019,新規,0,2023-12-13,2023-12-13,株式会社ネクタルソーマ,,株式会社,福岡県,福岡市博多区,祇園町８－１２－１０２２,,40,132,8120038,,,,,,,2023-12-13,1,,,,,ネクタルソーマ,0
230,1290801030125,新規,0,2023-12-13,2023-12-13,株式会社はなぶさ,,株式会社,福岡県,田川郡大任町,大字大行事２１１５番地１,,40,608,8240512,,,,,,,2023-12-13,1,,,,,ハナブサ,0
231,1290803004556,新規,0,2023-12-13,2023-12-13,合同会社カラフルらいふ,,合同会社,福岡県,行橋市,大字下剣地１９０番地コーポフジ３－５,,40,213,8240000,,,,,,,2023-12-13,1,,,,,カラフルライフ,0
232,1300001013548,新規,0,2023-12-13,2023-12-13,杵島建設株式会社,,株式会社,佐賀県,鳥栖市,宿町５１６番地４,,41,203,8410052,,,,,,,2023-12-13,1,,,,,キシマケンセツ,0
233,1300003002053,新規,0,2023-12-13,2023-12-13,合同会社Ａｕｔｏ　Ｒｅｘ,,合同会社,佐賀県,唐津市,浜玉町五反田９７７番地３,,41,202,8495102,,,,,,,2023-12-13,1,,,,,オートレックス,0
234,1310003004692,新規,0,2023-12-13,2023-12-13,合同会社モルト・グラッツェ,,合同会社,長崎県,佐世保市,卸本町１番地１７７,,42,202,8571162,,,,,,,2023-12-13,1,,,,,モルトグラッツェ,0
248,1360001032930,新規,0,2023-12-13,2023-12-13,株式会社ＨＡＴＣＨ,,株式会社,沖縄県,那覇市,真嘉比１丁目２番１１号マンションハル２０５,,47,201,9020068,,,,,,,2023-12-13,1,,,,,ハッチ,0
249,1360003013540,新規,0,2023-12-13,2023-12-13,合同会社ＫＦＨｏＭｅ,,合同会社,沖縄県,那覇市,首里石嶺町２丁目５８番地阮氏ビル首里ＩＩＩ３０２,00132968,47,201,9030804,,,,,,,2023-12-13,1,,,,,ケイエフホーム,0
253,1370005010725,新規,0,2023-12-13,2023-12-13,医療法人仙台至誠会,,その他の設立登記法人,宮城県,仙台市青葉区,木町通１丁目５番１２号レイール木町ビル２階,,04,101,9800801,,,,,,,2023-12-13,1,,,,,センダイシセイカイ,0
270,1450005004388,新規,0,2023-12-13,2023-12-13,一般財団法人学びと感謝の希望財団,,その他の設立登記法人,北海道,上川郡上川町,中央町５６６番地,,01,457,0781741,,,,,,,2023-12-13,1,,,,,マナビトカンシャノキボウザイダン,0
275,1500003003155,新規,0,2023-12-13,2023-12-13,ＣＲＡＳＯＬ合同会社,,合同会社,愛媛県,松山市,古川北４丁目６番２８号－１０１,,38,201,7900942,,,,,,,2023-12-13,1,,,,,クラソル,0
279,1700150122720,新規,0,2023-12-13,2023-12-13,ｓｈｅｎｚｈｅｎｓｈｉａｏｓｈｉｄｉａｎｚｉｓｈａｎｇｗｕ　ｙｏｕｘｉａｎｇｏｎｇｓｉ,,外国会社等,,,,,,,,ｓｈｅｎｚｈｅｎｓｈｉ　ｌｕｏｈｕｑｕ　ｇｕｉｙｕａｎｊｉｅｄａｏ　ｓｏｎｇｙｕａｎｓｈｅｑｕ　ｈｏｎｇｌｉｎｇｚｈｏｎｇｌｕ２１１８ｈａｏ　ｊｉａｎｓｈｅｊｉｔｕａｎｄａｓｈａＡｚｕｏ１６０１ｓｈｉｊｉｗｅｉ１６０６－１６０７,,,,,,2023-12-13,1,,,,,シンセンシアオシデンシシャンウユウゲンコウシ,0
280,1700150122729,新規,0,2023-12-13,2023-12-13,ｇｕａｎｇｚｈｏｕｓａｎｌｅｉｋｅｊｉ　ｙｏｕｘｉａｎｇｏｎｇｓｉ,,外国会社等,,,,,,,,ｇｕａｎｇｚｈｏｕｓｈｉ　ｔｉａｎｈｅｑｕ　ｗｕｓｈａｎｌｕ２４６　２４８　２５０ｈａｏ１５０２－０４ｚｉｂｉａｎ（Ａ５０）（ｊｉｎｘｉａｎｂａｎｇｏｎｇ）　５１００００　ＣＮ,,,,,,2023-12-13,1,,,,,コウシュウサンレイカギヨウシェンゴンスー,0
281,1700150122737,新規,0,2023-12-13,2023-12-13,Ｈｕ　ｂｅｉ　ｋｅ　ｑｉ　ｗａｎｇ　ｌｕｏ　ｋｅ　ｊｉ　ｙｏｕ　ｘｉａｎ　ｇｏｎｇ　ｓｉ,,外国会社等,,,,,,,,Ｇｕ　ｃｈｅｎｇ　ｘｉａｎ　ｓｈｉ　ｈｕａ　ｚｈｅｎ　ｈｏｕ　ｆａｎ　ｓｈｅ　ｑｕ　２４－５　ｈａｏＸｉａｎｇ　ｙａｎｇＨｕ　ｂｅｉ４４１７０５ＣＮ,,,,,,2023-12-13,1,,,,,フーベイグーチョンコーチーワンルオコージーヨウシエンゴンスー,0
291,2010001240740,新規,0,2023-12-13,2023-12-13,ＫＯＴＡＮＩ金属工業株式会社,,株式会社,東京都,千代田区,麹町４丁目５番２０号ＫＳビル８階,,13,101,1020083,,,,,,,2023-12-13,1,,,,,コタニキンゾクコウギョウ,0
292,2010001240749,新規,0,2023-12-13,2023-12-13,株式会社ＹＫ,,株式会社,東京都,千代田区,外神田３丁目６－４第一勧業信用組合秋葉原ビル,,13,101,1010021,,,,,,,2023-12-13,1,,,,,ワイケー,0
293,2010001240757,新規,0,2023-12-13,2023-12-13,株式会社ゴルフドライブ,,株式会社,東京都,中央区,日本橋兜町１７番１号日本橋ロイヤルプラザ７０６,,13,102,1030026,,,,,,,2023-12-13,1,,,,,ゴルフドライブ,0
294,2010003042417,新規,0,2023-12-13,2023-12-13,ボンサイ合同会社,,合同会社,東京都,中央区,銀座１丁目６番１１号土志田ビルディング３Ｆ,,13,102,1040061,,,,,,,2023-12-13,1,,,,,ボンサイ,0
295,2010003042433,新規,0,2023-12-13,2023-12-13,合同会社ＵＰＤＡＴＥ,,合同会社,東京都,中央区,日本橋３丁目２番１４号新槇町ビル別館第一１Ｆ,,13,102,1030027,,,,,,,2023-12-13,1,,,,,アップデート,0
296,2010005037621,新規,0,2023-12-13,2023-12-13,一般社団法人宇宙技術および科学の国際シンポジウム運営事務局,,その他の設立登記法人,東京都,中央区,日本橋室町３丁目３番９号日本橋アイティビル,,13,102,1030022,,,,,,,2023-12-13,1,,,,,ウチュウギジュツオヨビカガクノコクサイシンポジウムウンエイジムキョク,0
302,2010401179067,新規,0,2023-12-13,2023-12-13,株式会社無人航空機審査機構,,株式会社,東京都,港区,新橋５丁目１２番１号,,13,103,1050004,,,,,,,2023-12-13,1,,,,,ムジンコウクウキシンサキコウ,0
303,2010401179100,新規,0,2023-12-13,2023-12-13,株式会社ＲＥＡＤＹ　ＮＯＷ,,株式会社,東京都,港区,南麻布３丁目２０－１ＤＡＩＷＡ麻布テラス５階,,13,103,1060047,,,,,,,2023-12-13,1,,,,,,0
304,2010401179109,新規,0,2023-12-13,2023-12-13,株式会社ＨＥＲＯＥＳ,,株式会社,東京都,港区,南青山２丁目２７番２５号ヒューリック南青山ビル５Ｆ,,13,103,1070062,,,,,,,2023-12-13,1,,,,,ヒーローズ,0
305,2010401179125,新規,0,2023-12-13,2023-12-13,株式会社佳豪,,株式会社,東京都,港区,芝浦２丁目９番１－３２０１号,,13,103,1080023,,,,,,,2023-12-13,1,,,,,カゴウ,0
306,2010401179133,新規,0,2023-12-13,2023-12-13,株式会社Ａ＆Ｉインベストメント,,株式会社,東京都,港区,北青山３丁目５番２７号,,13,103,1070061,,,,,,,2023-12-13,1,,,,,エイアンドアイインベストメント,0
307,2010403031548,新規,0,2023-12-13,2023-12-13,合同会社成企画,,合同会社,東京都,港区,赤坂２丁目１２番１２号ＭａｒｔｉａｌＡｒｔｓ赤坂溜池山王ビル５Ｆ,,13,103,1070052,,,,,,,2023-12-13,1,,,,,ナルキカク,0
308,2010403031556,新規,0,2023-12-13,2023-12-13,ライズ・エステート合同会社,,合同会社,東京都,港区,芝浦１丁目６－４１－２８２７,,13,103,1050023,,,,,,,2023-12-13,1,,,,,ライズエステート,0
314,2010801034598,新規,0,2023-12-13,2023-12-13,株式会社ＴｏＲＥＳＳＥ,,株式会社,東京都,大田区,矢口１丁目２１番１８号,,13,111,1460093,,,,,,,2023-12-13,1,,,,,トレッセ,0
317,2010901054331,新規,0,2023-12-13,2023-12-13,墨宇株式会社,,株式会社,東京都,世田谷区,池尻３丁目１８番３３－１０７号,,13,112,1540001,,,,,,,2023-12-13,1,,,,,ボクウ,0
322,2011001158601,新規,0,2023-12-13,2023-12-13,株式会社Ｗａｖｉｅ,,株式会社,東京都,渋谷区,神南１丁目１４－７ワイズ神南ビル２階,,13,113,1500041,,,,,,,2023-12-13,1,,,,,ウェイビー,0
323,2011001158766,新規,0,2023-12-13,2023-12-13,株式会社ブライト,,株式会社,東京都,渋谷区,恵比寿西２丁目８番４号ＥＸ恵比寿西ビル５階,,13,113,1500021,,,,,,,2023-12-13,1,,,,,ブライト,0
324,2011001158774,新規,0,2023-12-13,2023-12-13,株式会社スペードエース,,株式会社,東京都,渋谷区,広尾５丁目２３番３－９０１号ミリアレジデンス広尾,,13,113,1500012,,,,,,,2023-12-13,1,,,,,スペードエース,0
325,2011001158782,新規,0,2023-12-13,2023-12-13,スリーウィンエンターテイメント株式会社,,株式会社,東京都,渋谷区,桜丘町２６番１号セルリアンタワー１５階,,13,113,1500031,,,,,,,2023-12-13,1,,,,,スリーウィンエンターテイメント,0
328,2011003018084,新規,0,2023-12-13,2023-12-13,合同会社ｇｒｏｏｖｙ,,合同会社,東京都,目黒区,鷹番３丁目７番１０号,,13,110,1520004,,,,,,,2023-12-13,1,,,,,グルービー,0
329,2011003018101,新規,0,2023-12-13,2023-12-13,カネコ国際運輸合同会社,,合同会社,東京都,渋谷区,代々木２丁目２３番１－８７１号Ｂ１１１,,13,113,1510053,,,,,,,2023-12-13,1,,,,,カネココクサイウンユ,0
335,2011101105445,新規,0,2023-12-13,2023-12-13,株式会社ＰＲＯｔｈｉｒｄ,,株式会社,東京都,新宿区,西新宿１丁目４番地１１号全研プラザＳＰＡＣＥＳ新宿４１６号室,,13,104,1600023,,,,,,,2023-12-13,1,,,,,プロサード,0
336,2011101105478,新規,0,2023-12-13,2023-12-13,株式会社ＦＩＲＳＴ　ＳＴＥＰ,,株式会社,東京都,新宿区,西新宿７丁目７番２８号第２山本ビル４０１,,13,104,1600023,,,,,,,2023-12-13,1,,,,,ファーストステップ,0
337,2011201025106,新規,0,2023-12-13,2023-12-13,株式会社Ｌｕｎｄｉ＆Ｃｏ,,株式会社,東京都,中野区,弥生町３丁目３６番９号５０１,,13,114,1640013,,,,,,,2023-12-13,1,,,,,ランディアンドコー,0
341,2011301029254,新規,0,2023-12-13,2023-12-13,ポニョ・ミー株式会社,,株式会社,東京都,杉並区,和泉１丁目５－８,,13,115,1680063,,,,,,,2023-12-13,1,,,,,ポニョミー,0
350,2011701026850,新規,0,2023-12-13,2023-12-13,沖程Ｃｏｕｎｔｌｅｓｓ株式会社,,株式会社,東京都,江戸川区,南葛西５丁目１５番５－２０２号,,13,123,1340085,,,,,,,2023-12-13,1,,,,,チュウテイコントレッス,0
353,2012303001911,新規,0,2023-12-13,2023-12-13,合同会社ａｗａ　ｈａｉｒ　ｓａｌｏｎ,,合同会社,東京都,町田市,成瀬が丘２丁目４番４号サンブリッジ成瀬が丘１０２,,13,209,1940011,,,,,,,2023-12-13,1,,,,,アワヘアーサロン,0
354,2012401041314,新規,0,2023-12-13,2023-12-13,株式会社ターニングポイント,,株式会社,東京都,稲城市,矢野口５１９番地の１グリーンハイツ稲城２０３,,13,225,2060812,,,,,,,2023-12-13,1,,,,,ターニングポイント,0
355,2012401041322,新規,0,2023-12-13,2023-12-13,株式会社エネペランサ,,株式会社,東京都,三鷹市,下連雀１丁目７番１７号,,13,204,1810013,,,,,,,2023-12-13,1,,,,,エネペランサ,0
356,2012403006323,新規,0,2023-12-13,2023-12-13,ビレイ合同会社,,合同会社,東京都,稲城市,矢野口２６９３番地の４,,13,225,2060812,,,,,,,2023-12-13,1,,,,,ビレイ,0
357,2012403006331,新規,0,2023-12-13,2023-12-13,合同会社トライア,,合同会社,東京都,三鷹市,上連雀６丁目４番２号,,13,204,1810012,,,,,,,2023-12-13,1,,,,,トライア,0
358,2012703002872,新規,0,2023-12-13,2023-12-13,合同会社ＬＯＴＵＳ　ＢＬＵＥ,,合同会社,東京都,小平市,御幸町７８番地の１７,,13,211,1870012,,,,,,,2023-12-13,1,,,,,ロータスブルー,0
359,2012801022830,新規,0,2023-12-13,2023-12-13,安暢株式会社,,株式会社,東京都,日野市,万願寺３丁目２９番地の２２,,13,212,1910024,,,,,,,2023-12-13,1,,,,,アンヨウ,0
365,2013301051758,新規,0,2023-12-13,2023-12-13,株式会社佳信,,株式会社,東京都,豊島区,北大塚２丁目１２番８号大星ビル５階,,13,116,1700004,,,,,,,2023-12-13,1,,,,,カシン,0
366,2013303006917,新規,0,2023-12-13,2023-12-13,合同会社シンクウェイ池袋プラス,,合同会社,東京都,豊島区,南池袋２丁目２９番１０号金井ビル６階,,13,116,1710022,,,,,,,2023-12-13,1,,,,,シンクウェイイケブクロプラス,0
369,2020001154849,新規,0,2023-12-13,2023-12-13,株式会社ラマナ,,株式会社,神奈川県,横浜市戸塚区,品濃町５４３番地４アールアンドアールビルＩＩ２－ｂ,00132973,14,110,2440801,,,,,,,2023-12-13,1,,,,,ラマナ,0
370,2020001154857,新規,0,2023-12-13,2023-12-13,株式会社Ｑｕｉｃｋ　Ａｄｊｕｓｔ,,株式会社,神奈川県,横浜市中区,桜木町３丁目１３番３号ＫＧＲＢＬＤ桜木町２Ｆ,,14,104,2310062,,,,,,,2023-12-13,1,,,,,クイックアジャスト,0
371,2020001154865,新規,0,2023-12-13,2023-12-13,株式会社夢ヶ丘工房,,株式会社,神奈川県,横浜市緑区,東本郷５丁目１６番２４号,,14,113,2260002,,,,,,,2023-12-13,1,,,,,ユメガオカコウボウ,0
372,2020001154873,新規,0,2023-12-13,2023-12-13,東神ホームマネジメント株式会社,,株式会社,神奈川県,横浜市都筑区,川和町１２４９番地１,,14,118,2240057,,,,,,,2023-12-13,1,,,,,トウシンホームマネジメント,0
373,2020001154898,新規,0,2023-12-13,2023-12-13,スマイルホーム株式会社,,株式会社,神奈川県,横浜市南区,吉野町３丁目７番地２３ポートハイム第二吉野町６０６号室,,14,105,2320014,,,,,,,2023-12-13,1,,,,,スマイルホーム,0
376,2020003025172,新規,0,2023-12-13,2023-12-13,ＲＥＤ　ｂｕｉｌｄｅｒｓ合同会社,,合同会社,神奈川県,横浜市港南区,下永谷３丁目４１番Ｈ－２０１号,,14,111,2330016,,,,,,,2023-12-13,1,,,,,レッドビルダーズ,0
384,2021005012968,新規,0,2023-12-13,2023-12-13,医療法人社団湘耀会,,その他の設立登記法人,神奈川県,高座郡寒川町,一之宮１丁目４番６号,,14,321,2530111,,,,,,,2023-12-13,1,,,,,ショウヨウカイ,0
387,2030001157628,新規,0,2023-12-13,2023-12-13,株式会社ＢＯＺＵフィット,,株式会社,埼玉県,久喜市,南栗橋１１丁目８番地２８,,11,232,3491117,,,,,,,2023-12-13,1,,,,,ボウズフィット,0
388,2030001157636,新規,0,2023-12-13,2023-12-13,株式会社愛槻建設,,株式会社,埼玉県,さいたま市緑区,馬場２丁目２４番地２,,11,109,3360912,,,,,,,2023-12-13,1,,,,,アイキケンセツ,0
389,2030001157660,新規,0,2023-12-13,2023-12-13,株式会社シグナルスリー,,株式会社,埼玉県,さいたま市北区,櫛引町２丁目２４２番地２グランボア大宮３０４号,,11,102,3310825,,,,,,,2023-12-13,1,,,,,シグナルスリー,0
390,2030001157685,新規,0,2023-12-13,2023-12-13,株式会社クロスフェイズ,,株式会社,埼玉県,川越市,砂新田１丁目１１番地４０,,11,201,3501137,,,,,,,2023-12-13,1,,,,,クロスフェイズ,0
391,2030001157702,新規,0,2023-12-13,2023-12-13,株式会社亜希電気,,株式会社,埼玉県,川口市,大字東内野７番地の１２,,11,203,3330821,,,,,,,2023-12-13,1,,,,,アキデンキ,0
395,2030003023217,新規,0,2023-12-13,2023-12-13,合同会社トランスポーター,,合同会社,埼玉県,比企郡小川町,大字上横田５７０番地４,,11,343,3550312,,,,,,,2023-12-13,1,,,,,トランスポーター,0
398,2040001131301,新規,0,2023-12-13,2023-12-13,株式会社ＫＳテクノ,,株式会社,千葉県,市原市,ちはら台南４丁目７番地２４,,12,219,2900142,,,,,,,2023-12-13,1,,,,,ケーエステクノ,0
402,2040003023884,新規,0,2023-12-13,2023-12-13,合同会社本気潤日,,合同会社,千葉県,我孫子市,根戸３２５番１９号,,12,222,2701168,,,,,,,2023-12-13,1,,,,,ホンキジュンニチ,0
403,2040005022224,新規,0,2023-12-13,2023-12-13,一般社団法人全国被害救済協会,,その他の設立登記法人,千葉県,野田市,東宝珠花５１番２,,12,208,2700226,,,,,,,2023-12-13,1,,,,,ゼンコクヒガイキュウサイキョウカイ,0
412,2050001053940,新規,0,2023-12-13,2023-12-13,株式会社悠,,株式会社,茨城県,水戸市,見川２丁目４４番地の３９フローレンスＤ棟,,08,201,3100912,,,,,,,2023-12-13,1,,,,,ユウ,0
413,2050001053957,新規,0,2023-12-13,2023-12-13,株式会社織姫と彦星,,株式会社,茨城県,土浦市,手野町３６７０番地,,08,203,3000025,,,,,,,2023-12-13,1,,,,,オリヒメトヒコボシ,0
419,2060003004833,新規,0,2023-12-13,2023-12-13,合同会社双葉,,合同会社,栃木県,足利市,山川町８９５番地１２,,09,202,3260021,,,,,,,2023-12-13,1,,,,,フタバ,0
421,2070001041191,新規,0,2023-12-13,2023-12-13,アトラクティブホーム株式会社,,株式会社,群馬県,伊勢崎市,曲輪町１１番１８号,,10,204,3720055,,,,,,,2023-12-13,1,,,,,アトラクティブホーム,0
432,2120001260397,新規,0,2023-12-13,2023-12-13,株式会社Ｓｏ　Ｇｏｏｄ,,株式会社,大阪府,大阪市浪速区,敷津西１丁目５番１１号,,27,111,5560015,,,,,,,2023-12-13,1,,,,,ソウグッド,0
433,2120001260554,新規,0,2023-12-13,2023-12-13,株式会社ｓｈｏｗｌｉｇｈｔ,,株式会社,大阪府,大阪市淀川区,木川東２丁目７番１３号,,27,123,5320012,,,,,,,2023-12-13,1,,,,,ショーライト,0
434,2120001260612,新規,0,2023-12-13,2023-12-13,株式会社サンクロノス,,株式会社,大阪府,大阪市北区,梅田１丁目１－３大阪駅前第３ビル２９階１－１－１号室,,27,127,5300001,,,,,,,2023-12-13,1,,,,,サンクロノス,0
435,2120001260661,新規,0,2023-12-13,2023-12-13,株式会社Ｓａｎｔｅｒｉａｎｔ,,株式会社,大阪府,大阪市北区,天満橋１丁目６番８号ラシーヌ東天満６Ｆ,,27,127,5300042,,,,,,,2023-12-13,1,,,,,サンテリアン,0
437,2120003025526,新規,0,2023-12-13,2023-12-13,合同会社Ｐｒａｎｋ　ＬＡＢ．,,合同会社,大阪府,大阪市西成区,松３丁目１－３７パラゴン松５０１,,27,122,5570034,,,,,,,2023-12-13,1,,,,,プランクラボ,0
440,2120101068674,新規,0,2023-12-13,2023-12-13,株式会社ＷＥＬＵＸ,,株式会社,大阪府,岸和田市,藤井町１丁目１２番５－１０１号,,27,202,5960046,,,,,,,2023-12-13,1,,,,,ウェルクス,0
445,2120901048470,新規,0,2023-12-13,2023-12-13,株式会社Ｂｅａｃｈ,,株式会社,大阪府,茨木市,春日１丁目４－１－２Ｆ,,27,211,5670031,,,,,,,2023-12-13,1,,,,,ビーチ,0
446,2120901048487,新規,0,2023-12-13,2023-12-13,カバライフ株式会社,,株式会社,大阪府,高槻市,芝生町１丁目２３－４－３０２,,27,207,5690823,,,,,,,2023-12-13,1,,,,,カバライフ,0
448,2122001037651,新規,0,2023-12-13,2023-12-13,Ｋｏｃｏサービス株式会社,,株式会社,大阪府,東大阪市,吉田６丁目２番２５号,,27,227,5780924,,,,,,,2023-12-13,1,,,,,ココサービス,0
454,2130001075893,新規,0,2023-12-13,2023-12-13,株式会社ＲＥＳＯ,,株式会社,京都府,久世郡久御山町,野村村東１３４－１,,26,322,6130023,,,,,,,2023-12-13,1,,,,,レゾ,0
455,2130001075902,新規,0,2023-12-13,2023-12-13,株式会社ドリームエナジー京都,,株式会社,京都府,京都市伏見区,深草飯食町８３９番地１４－３階,,26,109,6120028,,,,,,,2023-12-13,1,,,,,ドリームエナジーキョウト,0
456,2130001075919,新規,0,2023-12-13,2023-12-13,株式会社ＡＮ,,株式会社,京都府,京都市西京区,桂野里町３１－２９マンションサンセット藤３０３,,26,111,6158073,,,,,,,2023-12-13,1,,,,,アン,0
457,2130003009189,新規,0,2023-12-13,2023-12-13,合同会社ＡＴ＆ＱＤ,,合同会社,京都府,舞鶴市,字浜１１９９－１１,,26,202,6250036,,,,,,,2023-12-13,1,,,,,エーティーアンドキューディー,0
464,2140001132669,新規,0,2023-12-13,2023-12-13,株式会社ＳＨＩＲＯ,,株式会社,兵庫県,宝塚市,中野町７番１号すみれマンション１０１号室,,28,214,6650056,,,,,,,2023-12-13,1,,,,,シロ,0
465,2140001132685,新規,0,2023-12-13,2023-12-13,株式会社キープノーブル,,株式会社,兵庫県,神戸市垂水区,高丸８丁目４番３９号,,28,108,6550016,,,,,,,2023-12-13,1,,,,,キーブノーブル,0
467,2140003019914,新規,0,2023-12-13,2023-12-13,合同会社ｔｒｅｅ　ｆＩｅＬＤ,,合同会社,兵庫県,神戸市兵庫区,松本通３丁目１番８－１０１号,,28,105,6520045,,,,,,,2023-12-13,1,,,,,ツリーフィールド,0
468,2140003019922,新規,0,2023-12-13,2023-12-13,福山神兵合同会社,,合同会社,兵庫県,尼崎市,七松町１丁目１－１立花ジョイタウン１０９号室,,28,202,6600052,,,,,,,2023-12-13,1,,,,,フクヤマカヒョウゴウ,0
470,2140005026834,新規,0,2023-12-13,2023-12-13,一般社団法人姫路ヴィクトリーナスポーツ振興機構,,その他の設立登記法人,兵庫県,姫路市,白銀町８６番地,,28,201,6700902,,,,,,,2023-12-13,1,,,,,ヒメジヴィクトリーナスポーツシンコウキコウ,0
473,2150001026936,新規,0,2023-12-13,2023-12-13,株式会社ティアンドエム,,株式会社,奈良県,生駒市,萩の台３丁目５番３号,,29,209,6300224,,,,,,,2023-12-13,1,,,,,ティアンドエム,0
477,2160001025557,新規,0,2023-12-13,2023-12-13,株式会社末吉建設,,株式会社,滋賀県,栗東市,御園１７４４番地１,,25,208,5203005,,,,,,,2023-12-13,1,,,,,スエヨシケンセツ,0
478,2160001025565,新規,0,2023-12-13,2023-12-13,株式会社近江ハム,,株式会社,滋賀県,守山市,石田町２５９番地８,,25,207,5240014,,,,,,,2023-12-13,1,,,,,オウミハム,0
481,2170001017917,新規,0,2023-12-13,2023-12-13,岡産業株式会社,,株式会社,和歌山県,海南市,阪井１８１８番地,,30,202,6420024,,,,,,,2023-12-13,1,,,,,オカサンギョウ,0
482,2170001017925,新規,0,2023-12-13,2023-12-13,株式会社山幸建材店,,株式会社,和歌山県,御坊市,御坊１０５番地,,30,205,6440001,,,,,,,2023-12-13,1,,,,,ヤマコウケンザイテン,0
491,2180001159262,新規,0,2023-12-13,2023-12-13,日永株式会社,,株式会社,愛知県,名古屋市西区,樋の口町１番１５号ホーワビル３階１２号,,23,104,4510034,,,,,,,2023-12-13,1,,,,,ヒナガ,0
492,2180001159270,新規,0,2023-12-13,2023-12-13,株式会社アオイデベロップ,,株式会社,愛知県,名古屋市中村区,大宮町３丁目５番地の３,,23,105,4530821,,,,,,,2023-12-13,1,,,,,アオイデベロップ,0
493,2180001159304,新規,0,2023-12-13,2023-12-13,株式会社久野工業,,株式会社,愛知県,名古屋市名東区,文教台２丁目３０９番地,,23,115,4650012,,,,,,,2023-12-13,1,,,,,クノコウギョウ,0
494,2180001159345,新規,0,2023-12-13,2023-12-13,Ｊ‐ＳＰＥＣ株式会社,,株式会社,愛知県,名古屋市天白区,一本松１丁目２０９番地,,23,116,4680008,,,,,,,2023-12-13,1,,,,,ジェイスペック,0
495,2180001159353,新規,0,2023-12-13,2023-12-13,株式会社ＷＥＬＬＮＥＳＴ　Ｒ＆Ｄ,,株式会社,愛知県,名古屋市瑞穂区,御莨町２丁目１５番地の４,,23,108,4670006,,,,,,,2023-12-13,1,,,,,ウェルネストアールアンドディ,0
497,2180003026106,新規,0,2023-12-13,2023-12-13,ＳＴＵＴＳ合同会社,,合同会社,愛知県,名古屋市中村区,名駅４丁目２４番５号第２森ビル４０１,,23,105,4500002,,,,,,,2023-12-13,1,,,,,スタッツ,0
498,2180003026114,新規,0,2023-12-13,2023-12-13,合同会社ベストプレイスマネジメント,,合同会社,愛知県,名古屋市中区,栄３丁目２８番３６号アサヒドーカメラビル２Ｆ,,23,106,4600008,,,,,,,2023-12-13,1,,,,,ベストプレイスマネジメント,0
502,2180301038109,新規,0,2023-12-13,2023-12-13,株式会社スズムラ運送,,株式会社,愛知県,豊田市,鴻ノ巣町１丁目１番地１,,23,211,4710836,,,,,,,2023-12-13,1,,,,,スズムラウンソウ,0
504,2180305009535,新規,0,2023-12-13,2023-12-13,医療法人さくらぎ会,,その他の設立登記法人,愛知県,豊川市,美幸町２丁目８６番地,,23,207,4420016,,,,,,,2023-12-13,1,,,,,サクラギカイ,0
510,2200001041979,新規,0,2023-12-13,2023-12-13,株式会社３８,,株式会社,岐阜県,羽島市,竹鼻町駒塚２１４番地１,,21,209,5016234,,,,,,,2023-12-13,1,,,,,サンエイト,0
517,2240001062518,新規,0,2023-12-13,2023-12-13,株式会社サンキューエステート,,株式会社,広島県,広島市佐伯区,楽々園６丁目７番６－１１０８号,,34,108,7315136,,,,,,,2023-12-13,1,,,,,サンキューエステート,0
518,2240001062534,新規,0,2023-12-13,2023-12-13,株式会社ＤＣ広島,,株式会社,広島県,福山市,山手町７丁目１６番２８－２号,,34,207,7200092,,,,,,,2023-12-13,1,,,,,ディーシーヒロシマ,0
519,2240001062559,新規,0,2023-12-13,2023-12-13,株式会社ＯＵＴ　ＯＦ　ＳＴＥＰ,,株式会社,広島県,広島市中区,国泰寺町１丁目１０番７－３０２号,,34,101,7300042,,,,,,,2023-12-13,1,,,,,アウトオブステップ,0
523,2260001038549,新規,0,2023-12-13,2023-12-13,株式会社ｋｏｎａｙｕｋｉ,,株式会社,岡山県,岡山市東区,目黒町１８０番地５３,,33,103,7048171,,,,,,,2023-12-13,1,,,,,コナユキ,0
526,2270001008889,新規,0,2023-12-13,2023-12-13,株式会社杣重機,,株式会社,鳥取県,鳥取市,松原８３番地７,,31,201,6801444,,,,,,,2023-12-13,1,,,,,ソマジュウキ,0
530,2290001104001,新規,0,2023-12-13,2023-12-13,ふれんず少額短期設立準備株式会社,,株式会社,福岡県,福岡市博多区,古門戸町１番１３号ルモンド・博多,,40,132,8120029,,,,,,,2023-12-13,1,,,,,フレンズショウガクタンキセツリツジュンビ,0
532,2290003014719,新規,0,2023-12-13,2023-12-13,合同会社３ｒｄ　ｐｌａｃｅ,,合同会社,福岡県,福岡市中央区,天神４丁目６‐２８天神ファーストビル７階,,40,133,8100001,,,,,,,2023-12-13,1,,,,,サードプレイス,0
533,2290003014727,新規,0,2023-12-13,2023-12-13,合同会社ＵＳＨ,,合同会社,福岡県,福岡市中央区,平尾１丁目３番３８－５０１号,,40,133,8100014,,,,,,,2023-12-13,1,,,,,ユーエスエイチ,0
535,2290801030116,新規,0,2023-12-13,2023-12-13,ＡＳＢ株式会社,,株式会社,福岡県,北九州市八幡西区,大平１丁目６番３６号,,40,109,8070083,,,,,,,2023-12-13,1,,,,,エーエスビー,0
537,2310001018743,新規,0,2023-12-13,2023-12-13,シーディーシー株式会社,,株式会社,長崎県,諫早市,馬渡町５－９,,42,204,8540075,,,,,,,2023-12-13,1,,,,,シーディーシー,0
541,2360001032921,新規,0,2023-12-13,2023-12-13,株式会社ＹＵＩＴ,,株式会社,沖縄県,那覇市,字安里３８１番地１,,47,201,9020067,,,,,,,2023-12-13,1,,,,,ユイティー,0
547,2370001050724,新規,0,2023-12-13,2023-12-13,ＮＳ　ＷＡＲＣ株式会社,,株式会社,宮城県,仙台市泉区,南光台５丁目６番３号,,04,105,9818003,,,,,,,2023-12-13,1,,,,,エヌエスワーク,0
548,2370005010724,新規,0,2023-12-13,2023-12-13,医療法人岬会,,その他の設立登記法人,宮城県,仙台市宮城野区,高砂１丁目１５４番地１１,,04,102,9830014,,,,,,,2023-12-13,1,,,,,ミサキカイ,0
551,2380001034189,新規,0,2023-12-13,2023-12-13,株式会社幸村建設,,株式会社,福島県,いわき市,小名浜島字犬吠２番地２,,07,204,9718125,,,,,,,2023-12-13,1,,,,,ユキムラケンセツ,0
557,2410001013668,新規,0,2023-12-13,2023-12-13,株式会社バリアリムーブ,,株式会社,秋田県,秋田市,将軍野南３丁目１０－９,,05,201,0110936,,,,,,,2023-12-13,1,,,,,バリアリムーブ,0
560,2430003015743,新規,0,2023-12-13,2023-12-13,ＳＹＮＣＴＥＣ合同会社,,合同会社,北海道,札幌市中央区,南一条西２２丁目２番１１号裏参道シティハウス３０２号,,01,101,0640801,,,,,,,2023-12-13,1,,,,,シンクテック,0
563,2450003002418,新規,0,2023-12-13,2023-12-13,合同会社北浪三業,,合同会社,北海道,上川郡上川町,本町１２７－１,,01,457,0781751,,,,,,,2023-12-13,1,,,,,,0
569,2490001010658,新規,0,2023-12-13,2023-12-13,Ｖ‐ｌｏｃｋ　ｓｙｓｔｅｍ株式会社,,株式会社,高知県,高知市,高須８５７番地８,,39,201,7818123,,,,,,,2023-12-13,1,,,,,ブイロックシステム,0
571,2490003001845,新規,0,2023-12-13,2023-12-13,合同会社下元商店,,合同会社,高知県,高知市,大谷公園町１１番３９号,,39,201,7808085,,,,,,,2023-12-13,1,,,,,シモモトショウテン,0
572,2700150122728,新規,0,2023-12-13,2023-12-13,ｓｈｅｎ　ｚｈｅｎ　ｇｕａｎｇ　ｙｉｎｇ　ｑｉ　ｃａｉ　ｋｅ　ｊｉ　ｙｏｕ　ｘｉａｎ　ｇｏｎｇ　ｓｉ,,外国会社等,,,,,,,,Ｒｏｏｍ　４０１，Ｎｏ．１３０１－８　Ｇｕａｎｇｕａｎｇ　Ｒｏａｄ　Ｘｉｎｌａｎ　Ｃｏｍｍｕｎｉｔｙ，Ｇｕａｎｌａｎ　Ｓｔｒｅｅｔ　Ｌｏｎｇｈｕａ　Ｄｉｓｔｒｉｃｔ　Ｓｈｅｎｚｈｅｎ　５１８０００　ＣＮ,,,,,,2023-12-13,1,,,,,シェンジェングァンインチーツァイカージヨウシェンゴンスー,0
573,2700150122736,新規,0,2023-12-13,2023-12-13,Ｘｉａｍｅｎｔｕｏｋｅｍａｏｙｉ　ｙｏｕｘｉａｎｇｏｎｇｓｉ,,外国会社等,,,,,,,,Ｘｉａｍｅｎ　Ｈｕｏｊｕｇａｏｘｉｎｑｕ　ｒｕａｎｊｉａｎｙｕａｎｓａｎｑｉ　ｃｈｅｎｇｙｉｄａｊｉｅ３５９ｈａｏ１００４ｄａｎｙｕａｎｚｈｉｅｒ　３６１０００　ＣＮ,,,,,,2023-12-13,1,,,,,アモイトケマオイヨウシェンゴンスー,0
581,3010001240715,新規,0,2023-12-13,2023-12-13,株式会社Ｍｅｎｔｏｒ　Ｃａｐｉｔａｌ,,株式会社,東京都,千代田区,九段南２丁目３番２１号みづまんビル３Ｆ,,13,101,1020074,,,,,,,2023-12-13,1,,,,,メンターキャピタル,0
582,3010001240723,新規,0,2023-12-13,2023-12-13,株式会社トップソリューションズ,,株式会社,東京都,中央区,新川１丁目１０番５号ヴェルステージ茅場町６０２号室,,13,102,1040033,,,,,,,2023-12-13,1,,,,,トップソリューションズ,0
583,3010001240748,新規,0,2023-12-13,2023-12-13,株式会社Ａｋｉｒａ耀,,株式会社,東京都,中央区,日本橋本石町３丁目２－５マレ本石ビル４階５階,,13,102,1030021,,,,,,,2023-12-13,1,,,,,アキラ,0
584,3010001240764,新規,0,2023-12-13,2023-12-13,株式会社ぽにお,,株式会社,東京都,千代田区,麹町３丁目２－１３ＴＨＥ千代田麹町ＴＯＷＥＲ６０１号室,,13,101,1020083,,,,,,,2023-12-13,1,,,,,ポニオ,0
585,3010001240789,新規,0,2023-12-13,2023-12-13,アルセリオ株式会社,,株式会社,東京都,中央区,日本橋小舟町７番１２－１１０２号,,13,102,1030024,,,,,,,2023-12-13,1,,,,,アルセリオ,0
586,3010001240797,新規,0,2023-12-13,2023-12-13,株式会社バレリオン,,株式会社,東京都,千代田区,九段南１丁目５－６りそな九段ビル５Ｆ、ＫＳフロア,,13,101,1020074,,,,,,,2023-12-13,1,,,,,バレリオン,0
587,3010001240822,新規,0,2023-12-13,2023-12-13,株式会社ＳＴＥＡＬＴＨ,,株式会社,東京都,中央区,銀座１丁目２２－１１銀座大竹ビジデンス２Ｆ,,13,102,1040061,,,,,,,2023-12-13,1,,,,,ステルス,0
591,3010003042432,新規,0,2023-12-13,2023-12-13,合同会社ｍｏｏｖｅ,,合同会社,東京都,中央区,新富１丁目６－１０－８０２,,13,102,1040041,,,,,,,2023-12-13,1,,,,,ムーブ,0
599,3010401179066,新規,0,2023-12-13,2023-12-13,株式会社ＫＰＪ企画,,株式会社,東京都,港区,南青山２丁目２７番１９号,,13,103,1070062,,,,,,,2023-12-13,1,,,,,ケーピージェーキカク,0
600,3010401179099,新規,0,2023-12-13,2023-12-13,Ｔａｍｏｎ株式会社,,株式会社,東京都,港区,三田２丁目４－１８三田綱町レジデンス７０１号,,13,103,1080073,,,,,,,2023-12-13,1,,,,,タモン,0
601,3010401179108,新規,0,2023-12-13,2023-12-13,Ｎｏｅｏｎ株式会社,,株式会社,東京都,港区,赤坂９丁目７番１号,,13,103,1070052,,,,,,,2023-12-13,1,,,,,ノエオン,0
607,3010403031563,新規,0,2023-12-13,2023-12-13,リンクバリュージャパン合同会社,,合同会社,東京都,港区,西新橋１丁目１５番５号,,13,103,1050003,,,,,,,2023-12-13,1,,,,,リンクバリュージャパン,0
610,3010501051488,新規,0,2023-12-13,2023-12-13,株式会社ＳｉＬＳ,,株式会社,東京都,台東区,雷門２丁目１７番１３号ウスイビル４階,,13,106,1110034,,,,,,,2023-12-13,1,,,,,シルス,0
611,3010501051496,新規,0,2023-12-13,2023-12-13,パルテノン株式会社,,株式会社,東京都,台東区,松が谷２丁目９－２,,13,106,1110036,,,,,,,2023-12-13,1,,,,,パルテノン,0
614,3010601064332,新規,0,2023-12-13,2023-12-13,株式会社Ｂｉｍ　Ｔｏｋｙｏ,,株式会社,東京都,墨田区,両国４丁目３８番１５号,,13,107,1300026,,,,,,,2023-12-13,1,,,,,ビムトーキョー,0
615,3010601064340,新規,0,2023-12-13,2023-12-13,株式会社ゲイボルグ,,株式会社,東京都,江東区,亀戸７丁目２５番１号,,13,108,1360071,,,,,,,2023-12-13,1,,,,,ゲイボルグ,0
617,3010603010524,新規,0,2023-12-13,2023-12-13,合同会社グローバルソリューションズ,,合同会社,東京都,江東区,豊洲５丁目５番１－１７０１号,,13,108,1350061,,,,,,,2023-12-13,1,,,,,,0
621,3010701045257,新規,0,2023-12-13,2023-12-13,キャリーゴルフ株式会社,,株式会社,東京都,品川区,西五反田１丁目２６番２号五反田サンハイツ９１１,,13,109,1410031,,,,,,,2023-12-13,1,,,,,キャリーゴルフ,0
622,3010801034597,新規,0,2023-12-13,2023-12-13,株式会社花水春,,株式会社,東京都,大田区,池上６丁目２番２２号,,13,111,1460082,,,,,,,2023-12-13,1,,,,,ハナミズキ,0
624,3010903008656,新規,0,2023-12-13,2023-12-13,ｔｏｎａ合同会社,,合同会社,東京都,世田谷区,桜１丁目１６番８号,,13,112,1560053,,,,,,,2023-12-13,1,,,,,トナ,0
629,3011001158781,新規,0,2023-12-13,2023-12-13,株式会社シンライ,,株式会社,東京都,渋谷区,恵比寿南１丁目１番１号ヒューマックス恵比寿ビル８階,,13,113,1500022,,,,,,,2023-12-13,1,,,,,シンライ,0
630,3011005010311,新規,0,2023-12-13,2023-12-13,一般社団法人日本文化伝承協会,,その他の設立登記法人,東京都,渋谷区,神宮前２丁目５－６アマデウスハウス４０２,,13,113,1500001,,,,,,,2023-12-13,1,,,,,ニホンブンカデンショウキョウカイ,0
632,3011101105477,新規,0,2023-12-13,2023-12-13,株式会社スクラッチ,,株式会社,東京都,新宿区,西新宿４丁目１番１０－２０９号,,13,104,1600023,,,,,,,2023-12-13,1,,,,,スクラッチ,0
635,3011103013851,新規,0,2023-12-13,2023-12-13,ＭＡＭＡＴＡ合同会社,,合同会社,東京都,新宿区,高田馬場４丁目２２番５号三浦荘１０１,,13,104,1690075,,,,,,,2023-12-13,1,,,,,ママタ,0
638,3011301029253,新規,0,2023-12-13,2023-12-13,株式会社観,,株式会社,東京都,杉並区,阿佐谷南２丁目２１番１号フォーシーズンＡ,,13,115,1660004,,,,,,,2023-12-13,1,,,,,カン,0
640,3011401025680,新規,0,2023-12-13,2023-12-13,森山ホールディングス株式会社,,株式会社,東京都,板橋区,小茂根２丁目１２－１０－２０１,,13,119,1730037,,,,,,,2023-12-13,1,,,,,モリヤマホールディングス,0
641,3011401025697,新規,0,2023-12-13,2023-12-13,株式会社睦電設,,株式会社,東京都,板橋区,大谷口上町２４番２号,,13,119,1730032,,,,,,,2023-12-13,1,,,,,ムツミデンセツ,0
646,3011601027345,新規,0,2023-12-13,2023-12-13,株式会社ＳＫマネジメントコンサルティング,,株式会社,東京都,練馬区,東大泉３丁目１８－２－２０１,,13,120,1780063,,,,,,,2023-12-13,1,,,,,エスケーマネジメントコンサルティング,0
647,3011601027361,新規,0,2023-12-13,2023-12-13,浩辰株式会社,,株式会社,東京都,練馬区,豊玉上２丁目２１番１５号,,13,120,1760011,,,,,,,2023-12-13,1,,,,,ヒロタツ,0
656,3012403006330,新規,0,2023-12-13,2023-12-13,合同会社スリートライア,,合同会社,東京都,三鷹市,上連雀６丁目４番２号,,13,204,1810012,,,,,,,2023-12-13,1,,,,,スリートライア,0
657,3012703002871,新規,0,2023-12-13,2023-12-13,合同会社Ｗｅｌｌ　Ｂａｌａｎｃｅ,,合同会社,東京都,西東京市,北原町１丁目９番１０号,,13,229,1880003,,,,,,,2023-12-13,1,,,,,ウェルバランス,0
660,3020001154831,新規,0,2023-12-13,2023-12-13,全日本ロジスティクス株式会社,,株式会社,神奈川県,横浜市西区,北幸２丁目１０番４８号むつみビル３Ｆ,,14,103,2200004,,,,,,,2023-12-13,1,,,,,ゼンニホンロジスティクス,0
661,3020001154864,新規,0,2023-12-13,2023-12-13,株式会社３ＴＥＱ,,株式会社,神奈川県,横浜市鶴見区,駒岡２丁目２番１９号ヨコスカビル１半地下Ａ,,14,101,2300071,,,,,,,2023-12-13,1,,,,,スリーテック,0
662,3020001154872,新規,0,2023-12-13,2023-12-13,株式会社Ｎｕ,,株式会社,神奈川県,横浜市都筑区,中川７丁目１番３７号,,14,118,2240001,,,,,,,2023-12-13,1,,,,,ヌー,0
665,3021001080976,新規,0,2023-12-13,2023-12-13,株式会社ＳＳＢ　ＡＤＶＡＮＣＥ,,株式会社,神奈川県,海老名市,本郷２７２８番地,,14,215,2430417,,,,,,,2023-12-13,1,,,,,エスエスビーアドバンス,0
666,3021005012967,新規,0,2023-12-13,2023-12-13,一般社団法人イチョウ,,その他の設立登記法人,神奈川県,平塚市,松風町２６番２９号,,14,203,2540812,,,,,,,2023-12-13,1,,,,,イチョウ,0
673,3030001157651,新規,0,2023-12-13,2023-12-13,株式会社ｒｅｂｅｒｏ,,株式会社,埼玉県,越谷市,相模町３丁目１３８－５,,11,222,3430823,,,,,,,2023-12-13,1,,,,,リベロ,0
674,3030001157676,新規,0,2023-12-13,2023-12-13,株式会社ＫＵＢＫＵＬＩＮ,,株式会社,埼玉県,草加市,西町３５０－３メゾンウエストパークＢ２０３,,11,221,3400035,,,,,,,2023-12-13,1,,,,,クブクリン,0
678,3030003023182,新規,0,2023-12-13,2023-12-13,合同会社ハスコ８９,,合同会社,埼玉県,八潮市,大字新町１４５番地１－１号室,,11,234,3400807,,,,,,,2023-12-13,1,,,,,ハスコハチキュウ,0
680,3040001131300,新規,0,2023-12-13,2023-12-13,高広産業株式会社,,株式会社,千葉県,千葉市花見川区,大日町１３４７番地１３,,12,102,2620004,,,,,,,2023-12-13,1,,,,,タカヒロサンギョウ,0
681,3040001131358,新規,0,2023-12-13,2023-12-13,株式会社農縁,,株式会社,千葉県,市原市,古市場２２２番地６,,12,219,2900008,,,,,,,2023-12-13,1,,,,,ノウエン,0
683,3040003023909,新規,0,2023-12-13,2023-12-13,合同会社優和,,合同会社,千葉県,香取郡神崎町,大貫１８３７,,12,342,2890203,,,,,,,2023-12-13,1,,,,,ユウワ,0
691,3060003004832,新規,0,2023-12-13,2023-12-13,合同会社みらい,,合同会社,栃木県,足利市,葉鹿町１丁目６番地１３,,09,202,3260143,,,,,,,2023-12-13,1,,,,,ミライ,0
694,3070001041174,新規,0,2023-12-13,2023-12-13,株式会社総合企画,,株式会社,群馬県,沼田市,柳町２５２８－６,,10,206,3780055,,,,,,,2023-12-13,1,,,,,,0
700,3100001037045,新規,0,2023-12-13,2023-12-13,株式会社パーセント,,株式会社,長野県,長野市,徳間１丁目１７番１９号,,20,201,3810041,,,,,,,2023-12-13,1,,,,,パーセント,0
701,3100001037053,新規,0,2023-12-13,2023-12-13,株式会社動物病院事務サポート,,株式会社,長野県,佐久市,中込３１３３番地２,,20,217,3850051,,,,,,,2023-12-13,1,,,,,ドウブツビョウインジムサポート,0
705,3100003007293,新規,0,2023-12-13,2023-12-13,ＯＮＧマネジメント合同会社,,合同会社,長野県,長野市,大字鶴賀上千歳町１１３７－２３リアライズ長野ビル２階,,20,201,3800821,,,,,,,2023-12-13,1,,,,,オングマネジメント,0
706,3100005013100,新規,0,2023-12-13,2023-12-13,一般社団法人Ｏｐｅｎ　Ｈｅａｒｔ軽井沢,,その他の設立登記法人,長野県,北佐久郡軽井沢町,軽井沢東６６番地１,,20,321,3890104,,,,,,,2023-12-13,1,,,,,オープンハートカルイザワ,0
710,3110003005239,新規,0,2023-12-13,2023-12-13,合同会社ＬＩＦＥＬＯＧ,,合同会社,新潟県,長岡市,東宮内町３３６４番地５,,15,202,9401102,,,,,,,2023-12-13,1,,,,,ライフログ,0
728,3120001260553,新規,0,2023-12-13,2023-12-13,株式会社エルム,,株式会社,大阪府,大阪市中央区,西心斎橋１丁目８番９号,,27,128,5420086,,,,,,,2023-12-13,1,,,,,エルム,0
729,3120001260603,新規,0,2023-12-13,2023-12-13,株式会社山恭商店,,株式会社,大阪府,大阪市天王寺区,空清町１１番１８号,,27,109,5430018,,,,,,,2023-12-13,1,,,,,ヤマキョウショウテン,0
730,3120001260611,新規,0,2023-12-13,2023-12-13,株式会社ＧＭＷ,,株式会社,大阪府,大阪市生野区,巽中２丁目１６番１３号,00132969,27,116,5440013,,,,,,,2023-12-13,1,,,,,ジーエムワールド,0
733,3120003025491,新規,0,2023-12-13,2023-12-13,ビーピージー合同会社,,合同会社,大阪府,大阪市生野区,中川６丁目７番２０号プロスパーコート中川１０１,,27,116,5440005,,,,,,,2023-12-13,1,,,,,ビーピージー,0
734,3120003025525,新規,0,2023-12-13,2023-12-13,合同会社Ｂｅａｎｓ,,合同会社,大阪府,大阪市阿倍野区,松崎町４丁目４番２８号,,27,119,5450053,,,,,,,2023-12-13,1,,,,,ビーンズ,0
737,3120101068640,新規,0,2023-12-13,2023-12-13,竜木松株式会社,,株式会社,大阪府,貝塚市,久保１丁目１０番８号,,27,208,5970031,,,,,,,2023-12-13,1,,,,,リュウキマツ,0
738,3120101068673,新規,0,2023-12-13,2023-12-13,株式会社岡田商事,,株式会社,大阪府,岸和田市,中之浜町２番５号,,27,202,5960065,,,,,,,2023-12-13,1,,,,,オカダショウジ,0
739,3120101068681,新規,0,2023-12-13,2023-12-13,一陶株式会社,,株式会社,大阪府,大阪狭山市,今熊２丁目２番地の１狭山ヒルズＡ棟２０７室,,27,231,5890021,,,,,,,2023-12-13,1,,,,,イットウ,0
742,3120103005575,新規,0,2023-12-13,2023-12-13,合同会社ＳＵＳ,,合同会社,大阪府,堺市北区,東雲東町１丁７番１９号,,27,146,5918041,,,,,,,2023-12-13,1,,,,,エスユーエス,0
743,3120901048478,新規,0,2023-12-13,2023-12-13,株式会社ＳＵＫＵＭＯ,,株式会社,大阪府,吹田市,広芝町４番３４号江坂第一ビル６階１６号室,,27,205,5640052,,,,,,,2023-12-13,1,,,,,スクモ,0
748,3122001037650,新規,0,2023-12-13,2023-12-13,株式会社和,,株式会社,大阪府,東大阪市,横沼町２丁目３番１６号,,27,227,5770808,,,,,,,2023-12-13,1,,,,,ナゴミ,0
751,3122003002751,新規,0,2023-12-13,2023-12-13,合同会社ＲＥＬＹ,,合同会社,大阪府,柏原市,法善寺３丁目８５８番地,,27,221,5820005,,,,,,,2023-12-13,1,,,,,リレイ,0
752,3130001075892,新規,0,2023-12-13,2023-12-13,ＩｎｎｏＬｉｎｋ株式会社,,株式会社,京都府,京都市右京区,龍安寺斎宮町２４,,26,108,6168011,,,,,,,2023-12-13,1,,,,,イノリンク,0
753,3130001075918,新規,0,2023-12-13,2023-12-13,ミミル株式会社,,株式会社,京都府,京都市下京区,仏光寺通烏丸東入上柳町３３１タカノハスクエアＴＨＥＨＵＢ四条烏丸４１９,,26,106,6008099,,,,,,,2023-12-13,1,,,,,ミミル,0
754,3130005016950,新規,0,2023-12-13,2023-12-13,一般社団法人Ｇ８研究所,,その他の設立登記法人,京都府,京都市左京区,二条通川端東入大文字町１７０番地,,26,103,6068382,,,,,,,2023-12-13,1,,,,,ジーエイトケンキュウジョ,0
762,3140001132668,新規,0,2023-12-13,2023-12-13,株式会社ＳＵＮ　ＷＩＬＬ,,株式会社,兵庫県,神戸市中央区,小野柄通５丁目１－１２樫野ビル３０４号,,28,110,6510088,,,,,,,2023-12-13,1,,,,,サンウィル,0
763,3140001132676,新規,0,2023-12-13,2023-12-13,ライムライト株式会社,,株式会社,兵庫県,加古川市,加古川町木村１４３番地の１３,,28,210,6750038,,,,,,,2023-12-13,1,,,,,ライムライト,0
764,3140001132692,新規,0,2023-12-13,2023-12-13,喜笑商事株式会社,,株式会社,兵庫県,養父市,福定２３,,28,222,6671126,,,,,,,2023-12-13,1,,,,,キショウショウジ,0
766,3140003019921,新規,0,2023-12-13,2023-12-13,おもしろい合同会社,,合同会社,兵庫県,宝塚市,武庫川町６－２６－６１１,,28,214,6650844,,,,,,,2023-12-13,1,,,,,オモシロイ,0
772,3160001025556,新規,0,2023-12-13,2023-12-13,株式会社ティーエス,,株式会社,滋賀県,近江八幡市,桜宮町２０７番地６タイハイツ桜宮７３４号室,,25,204,5230893,,,,,,,2023-12-13,1,,,,,ティーエス,0
774,3160003003064,新規,0,2023-12-13,2023-12-13,合同会社ねこまんま,,合同会社,滋賀県,犬上郡豊郷町,大字高野瀬６８１番地１７,,25,441,5291173,,,,,,,2023-12-13,1,,,,,ネコマンマ,0
782,3180001159278,新規,0,2023-12-13,2023-12-13,株式会社サーフ,,株式会社,愛知県,名古屋市名東区,石が根町４６番地の１シティハウス藤が丘８０２号,,23,115,4650023,,,,,,,2023-12-13,1,,,,,サーフ,0
783,3180001159286,新規,0,2023-12-13,2023-12-13,株式会社ＳＯＩ　ＷＯＲＫＳ,,株式会社,愛知県,名古屋市中村区,大秋町４丁目８３番地,,23,105,4530042,,,,,,,2023-12-13,1,,,,,ソイワークス,0
784,3180001159294,新規,0,2023-12-13,2023-12-13,株式会社楽々,,株式会社,愛知県,稲沢市,高御堂１丁目９番１０号,,23,220,4928213,,,,,,,2023-12-13,1,,,,,ララ,0
785,3180001159336,新規,0,2023-12-13,2023-12-13,シンカ株式会社,,株式会社,愛知県,名古屋市中村区,名駅４丁目２４番５号第２森ビル４０１,,23,105,4500002,,,,,,,2023-12-13,1,,,,,シンカ,0
786,3180001159360,新規,0,2023-12-13,2023-12-13,ｍｅｅｋｎｅｓｓ株式会社,,株式会社,愛知県,名古屋市西区,名駅１丁目１番１７号,,23,104,4510045,,,,,,,2023-12-13,1,,,,,ミークネス,0
787,3180001159369,新規,0,2023-12-13,2023-12-13,株式会社一直屋,,株式会社,愛知県,稲沢市,稲沢町前田２８０番地４,,23,220,4928217,,,,,,,2023-12-13,1,,,,,イッチョクヤ,0
790,3180005020452,新規,0,2023-12-13,2023-12-13,税理士法人ＷＩＳＥ,,その他の設立登記法人,愛知県,名古屋市中区,栄２丁目１２番１２号アーク栄白川パークビル,,23,106,4600008,,,,,,,2023-12-13,1,,,,,ワイズ,0
792,3180301038116,新規,0,2023-12-13,2023-12-13,ＭＧファーム株式会社,,株式会社,愛知県,豊橋市,中岩田５丁目６番地１７,,23,201,4400832,,,,,,,2023-12-13,1,,,,,エムジーファーム,0
793,3190001030958,新規,0,2023-12-13,2023-12-13,株式会社ｏｎ　ｏｆｆ,,株式会社,三重県,四日市市,新正３丁目１５番１７号,,24,202,5100064,,,,,,,2023-12-13,1,,,,,オンオフ,0
795,3220001025731,新規,0,2023-12-13,2023-12-13,株式会社シード保険事務所,,株式会社,石川県,野々市市,本町１丁目４８番２１号,,17,212,9218815,,,,,,,2023-12-13,1,,,,,シードホケンジムショ,0
796,3220003003636,新規,0,2023-12-13,2023-12-13,合同会社輪島クリーンメンテナンスふうせん,,合同会社,石川県,輪島市,河井町２０部１番地１４,,17,204,9280001,,,,,,,2023-12-13,1,,,,,ワジマクリーンメンテナンスフウセン,0
808,3260001038556,新規,0,2023-12-13,2023-12-13,株式会社エムエムライフ,,株式会社,岡山県,岡山市南区,妹尾３３７７番地８,,33,104,7010205,,,,,,,2023-12-13,1,,,,,エムエムライフ,0
818,3290001103927,新規,0,2023-12-13,2023-12-13,福岡センコーロジ株式会社,,株式会社,福岡県,福岡市東区,箱崎ふ頭５丁目１番４０号,,40,131,8120051,,,,,,,2023-12-13,1,,,,,フクオカセンコーロジ,0
819,3290001104000,新規,0,2023-12-13,2023-12-13,株式会社ｃｈａｌｅｕｒｅｔｔｅ,,株式会社,福岡県,福岡市中央区,赤坂１丁目８番２３号,,40,133,8100042,,,,,,,2023-12-13,1,,,,,シャルレット,0
820,3290001104033,新規,0,2023-12-13,2023-12-13,株式会社ＨＡＮＡＭＩ,,株式会社,福岡県,福岡市中央区,天神４丁目６番２８号天神ファーストビル７階,,40,133,8100001,,,,,,,2023-12-13,1,,,,,ハナミ,0
831,3290801030131,新規,0,2023-12-13,2023-12-13,株式会社虎鉄造園,,株式会社,福岡県,北九州市小倉南区,大字高津尾９３番地,,40,107,8030268,,,,,,,2023-12-13,1,,,,,コテツゾウエン,0
835,3310003004690,新規,0,2023-12-13,2023-12-13,合同会社Ｎ,,合同会社,長崎県,佐世保市,高天町１２－８,,42,202,8570802,,,,,,,2023-12-13,1,,,,,エヌ,0
844,3360001032887,新規,0,2023-12-13,2023-12-13,株式会社琉希,,株式会社,沖縄県,那覇市,牧志２丁目１１番１２－４０１号,,47,201,9000013,,,,,,,2023-12-13,1,,,,,リュウキ,0
845,3360001032920,新規,0,2023-12-13,2023-12-13,株式会社Ｒｅｆｉｍｅ,,株式会社,沖縄県,豊見城市,字豊崎３番地５９トヨプラ内,,47,212,9010225,,,,,,,2023-12-13,1,,,,,リファイム,0
846,3360003013547,新規,0,2023-12-13,2023-12-13,合同会社ＮＥＷ　ＯＲＤＥＲ,,合同会社,沖縄県,うるま市,字赤道２９７番地,,47,213,9042245,,,,,,,2023-12-13,1,,,,,ニューオーダー,0
847,3360005006945,新規,0,2023-12-13,2023-12-13,特定非営利活動法人Ｐａｐａ　Ｎｏｅｌ,,その他の設立登記法人,沖縄県,那覇市,牧志２丁目５番２４号アルカンシエル牧志８０２,,47,201,9000013,,,,,,,2023-12-13,1,,,,,パパノエル,0
852,3370005010723,新規,0,2023-12-13,2023-12-13,医療法人氷室医院,,その他の設立登記法人,宮城県,仙台市宮城野区,宮城野１丁目２番４５号,,04,102,9830045,,,,,,,2023-12-13,1,,,,,ヒムロイイン,0
859,3380001034188,新規,0,2023-12-13,2023-12-13,株式会社サナコーポレーション,,株式会社,福島県,須賀川市,岩渕字池下９７番地１,,07,207,9620043,,,,,,,2023-12-13,1,,,,,サナコーポレーション,0
860,3380003005641,新規,0,2023-12-13,2023-12-13,合同会社ｄｏｂｂｙ,,合同会社,福島県,郡山市,大槻町字原田１９番地の２２,,07,203,9630201,,,,,,,2023-12-13,1,,,,,ドビー,0
865,3400005008375,新規,0,2023-12-13,2023-12-13,大東産地直売協同組合,,その他の設立登記法人,岩手県,一関市,大東町渋民字関ノ上１１４番地４,,03,209,0290521,,,,,,,2023-12-13,1,,,,,ダイトウサンチチョクバイ,0
868,3420003002840,新規,0,2023-12-13,2023-12-13,合同会社スキマデザイン,,合同会社,青森県,青森市,大字横内字亀井２７１番地１,,02,201,0300132,,,,,,,2023-12-13,1,,,,,スキマデザイン,0
869,3420003002849,新規,0,2023-12-13,2023-12-13,合同会社Ｏｎｅ　Ｒｅｓｐｅｃｔ,,合同会社,青森県,青森市,西大野１丁目１２番地３,,02,201,0300856,,,,,,,2023-12-13,1,,,,,ワンリスペクト,0
872,3430001090630,新規,0,2023-12-13,2023-12-13,株式会社Ｔ‐ｐｏｗｅｒｓ,,株式会社,北海道,札幌市厚別区,厚別東四条８丁目１５番７号,,01,108,0040004,,,,,,,2023-12-13,1,,,,,ティパワーズ,0
876,3450001014174,新規,0,2023-12-13,2023-12-13,日の丸旅館株式会社,,株式会社,北海道,天塩郡天塩町,新栄通６丁目１１４８番地の４,,01,487,0983303,,,,,,,2023-12-13,1,,,,,,0
882,3490001010657,新規,0,2023-12-13,2023-12-13,株式会社ＴＯＳＡレーヴ,,株式会社,高知県,土佐市,高岡町丙５０３番地２,,39,205,7811103,,,,,,,2023-12-13,1,,,,,トサレーヴ,0
888,3700150122719,新規,0,2023-12-13,2023-12-13,Ｑｕａｎｚｈｏｕ　Ｂｏｒｕｘｉｎｇ　Ｅｌｅｃｔｒｏｎｉｃ　Ｃｏｍｍｅｒｃｅ　Ｃｏ．，Ｌｔｄ,,外国会社等,,,,,,,,ＲｏｏｍＡ８１８　８ｔｈＦｌｏｏｒ　ＪｉｎｙａｆａＢｕｉｌｄｉｎｇ　Ｎｏ．４０－１ＣｉｔｏｎｇＮｅｗＶｉｌｌａｇｅ　ＬｉｕｓｈｉＶｉｌｌａｇｅ　ＣｈｉｄｉａｎＴｏｗｎ　ＪｉｎｊｉａｎｇＣｉｔｙ　ＱｕａｎｚｈｏｕＣｉｔｙ　ＦｕｊｉａｎＰｒｏｖｉｎｃｅ,,,,,,2023-12-13,1,,,,,センシュウボルシンイレクトゥロニックコマースカンパニーリミテッド,0
889,3700150122727,新規,0,2023-12-13,2023-12-13,Ｃｈａｎｇｓｈａ　Ｙａｏｌｉｎ　Ｅｌｅｃｔｒｏｎｉｃ　Ｃｏｍｍｅｒｃｅ　Ｃｏ．，Ｌｔｄ．,,外国会社等,,,,,,,,ＹｕｅＬｕＱｕＪｕＺｉＺｈｏｕＪｉｅＤａｏＢａＺｉＱｉａｎｇＳｈｅＱｕＦｕＢｕＨｅＬｕ　ＸｉａｏＸｉａｎｇＤａＳｈａ２６９，２７０Ｈａｏ－５２６　ＣｈａｎｇＳｈａＳｈｉ　ＨｕＮａｎ　４１０００６　ＣＮ,,,,,,2023-12-13,1,,,,,ジャンシャアヤオリンディエンズーシャンウヨウシェンゴンスー,0
890,3700150122735,新規,0,2023-12-13,2023-12-13,ｓｈｅｎｚｈｅｎｓｈｉｓｈｅｎｇｌｉｎｄｉａｎｚｉｓｈａｎｇｗｕ　ｙｏｕｘｉａｎｇｏｎｇｓｉ,,外国会社等,,,,,,,,８ＥＢｕｉｌｄｉｎｇ１　Ｘｉｎｇｆｕｌｉ　ＹａｎｇｔａｉＭｏｕｎｔａｉｎ　ＴａｏＹｕａｎＣｏｍｍｕｎｉｔｙ　ＤａｌａｎｇＳｔｒｅｅｔ　ＬｏｎｇｈｕａＤｉｓｔｒｉｃｔ　Ｓｈｅｎｚｈｅｎ　５１８０００　ＣＮ,,,,,,2023-12-13,1,,,,,シンセンシセンリンデンシシャンウヨウシェンゴンスー,0
897,4010001240706,新規,0,2023-12-13,2023-12-13,トップウェルエステート株式会社,,株式会社,東京都,千代田区,神田美土代町７番地５神田第二中央ビル７階,,13,101,1010053,,,,,,,2023-12-13,1,,,,,トップウェルエステート,0
898,4010001240722,新規,0,2023-12-13,2023-12-13,ｎｏｔｅ　ＡＩ　ｃｒｅａｔｉｖｅ株式会社,,株式会社,東京都,千代田区,麹町６丁目６番２号,,13,101,1020083,,,,,,,2023-12-13,1,,,,,ノートエーアイクリエイティブ,0
899,4010001240739,新規,0,2023-12-13,2023-12-13,株式会社グラウンドコンカー,,株式会社,東京都,千代田区,内神田１丁目１１番６号大丸アネックス１Ｆ,,13,101,1010047,,,,,,,2023-12-13,1,,,,,グラウンドコンカー,0
900,4010001240763,新規,0,2023-12-13,2023-12-13,株式会社セントラルテーブル,,株式会社,東京都,中央区,日本橋兜町１６番１号第１１大協ビル５階,,13,102,1030026,,,,,,,2023-12-13,1,,,,,セントラルテーブル,0
901,4010001240788,新規,0,2023-12-13,2023-12-13,株式会社ブライダル,,株式会社,東京都,中央区,晴海１丁目８番１２号,,13,102,1040053,,,,,,,2023-12-13,1,,,,,ブライダル,0
902,4010001240813,新規,0,2023-12-13,2023-12-13,株式会社ＧＯＭＡＳＡ,,株式会社,東京都,中央区,晴海３丁目１３番１－４５２４号,,13,102,1040053,,,,,,,2023-12-13,1,,,,,ゴマサ,0
903,4010003042340,新規,0,2023-12-13,2023-12-13,ＪＱＳＥＡ合同会社,,合同会社,東京都,千代田区,神田岩本町１－１岩本町ビル８階８８号室,,13,101,1010033,,,,,,,2023-12-13,1,,,,,ジェーキューエスイーエー,0
904,4010003042423,新規,0,2023-12-13,2023-12-13,首都圏総合開発合同会社,,合同会社,東京都,千代田区,神田佐久間町１丁目８番４号,,13,101,1010025,,,,,,,2023-12-13,1,,,,,シュトケンソウゴウカイハツ,0
905,4010003042431,新規,0,2023-12-13,2023-12-13,合同会社ココン,,合同会社,東京都,千代田区,神田須田町１丁目５番地,,13,101,1010041,,,,,,,2023-12-13,1,,,,,ココン,0
912,4010401179073,新規,0,2023-12-13,2023-12-13,株式会社ＭＡＪＯ,,株式会社,東京都,港区,西麻布４丁目２１番２号,,13,103,1060031,,,,,,,2023-12-13,1,,,,,エムエージェーオー,0
913,4010401179081,新規,0,2023-12-13,2023-12-13,株式会社マイダイアリー,,株式会社,東京都,港区,赤坂４丁目２番３号ディアシティ赤坂・一ツ木館６０２,,13,103,1070052,,,,,,,2023-12-13,1,,,,,マイダイアリー,0
914,4010401179098,新規,0,2023-12-13,2023-12-13,ＧＵＩＤＥ．Ａ株式会社,,株式会社,東京都,港区,北青山１丁目３番１号アールキューブ青山３階,,13,103,1070061,,,,,,,2023-12-13,1,,,,,ガイドエー,0
915,4010401179107,新規,0,2023-12-13,2023-12-13,株式会社十番堂,,株式会社,東京都,港区,麻布十番１丁目５－１１波田野ビル３０２,,13,103,1060045,,,,,,,2023-12-13,1,,,,,ジュウバンドウ,0
916,4010401179131,新規,0,2023-12-13,2023-12-13,株式会社ＴＩＢＩＤＡＢＯ,,株式会社,東京都,港区,南青山３丁目１－３６青山丸竹ビル６Ｆ,,13,103,1070062,,,,,,,2023-12-13,1,,,,,ティビダボ,0
920,4010403031546,新規,0,2023-12-13,2023-12-13,ロビンソン・ストリート合同会社,,合同会社,東京都,港区,高輪１丁目２３番２３－２３０２号,,13,103,1080074,,,,,,,2023-12-13,1,,,,,ロビンソンストリート,0
923,4010501051495,新規,0,2023-12-13,2023-12-13,株式会社Ｈｕｍａｎ　Ｈａｒｂｏｒ,,株式会社,東京都,台東区,上野３丁目１６番２号天翔上野末広町ビル７階,,13,106,1100005,,,,,,,2023-12-13,1,,,,,ヒューマンハーバー,0
927,4010603010515,新規,0,2023-12-13,2023-12-13,合同会社ｔｉｌｄｅ,,合同会社,東京都,江東区,亀戸１丁目３８番６－２０２号,,13,108,1360071,,,,,,,2023-12-13,1,,,,,チルダ,0
928,4010603010523,新規,0,2023-12-13,2023-12-13,合同会社池永コンサルティング,,合同会社,東京都,江東区,塩浜１丁目４－３３－８３６,,13,108,1350043,,,,,,,2023-12-13,1,,,,,イケナガコンサルティング,0
930,4010701045248,新規,0,2023-12-13,2023-12-13,株式会社Ｇｒｅａｔ　Ｂｕｄｄｉｅｓ,,株式会社,東京都,品川区,東大井５丁目４番１０号,,13,109,1400011,,,,,,,2023-12-13,1,,,,,グレイトバディーズ,0
931,4010701045256,新規,0,2023-12-13,2023-12-13,株式会社ＬＥＧＩＴ,,株式会社,東京都,品川区,東大井５丁目１９番６号,,13,109,1400011,,,,,,,2023-12-13,1,,,,,レジット,0
934,4010801034605,新規,0,2023-12-13,2023-12-13,株式会社ＭＡＤＯＫＡ,,株式会社,東京都,大田区,大森東２丁目３０番１８号,,13,111,1430012,,,,,,,2023-12-13,1,,,,,マドカ,0
943,4011001158764,新規,0,2023-12-13,2023-12-13,株式会社天晴,,株式会社,東京都,渋谷区,本町３丁目１番４－５０８号,,13,113,1510071,,,,,,,2023-12-13,1,,,,,アッパレ,0
945,4011003018090,新規,0,2023-12-13,2023-12-13,合同会社ｉＮｅｘｔ,,合同会社,東京都,目黒区,五本木２丁目４９番２０－２０６号,,13,110,1530053,,,,,,,2023-12-13,1,,,,,アイネクスト,0
946,4011005010310,新規,0,2023-12-13,2023-12-13,情熱クラブ一般社団法人,,その他の設立登記法人,東京都,目黒区,自由が丘１丁目２５番２０号,,13,110,1520035,,,,,,,2023-12-13,1,,,,,ジョウネツクラブ,0
952,4011101105443,新規,0,2023-12-13,2023-12-13,株式会社ＭＡＴＯ,,株式会社,東京都,新宿区,百人町２丁目２７番５号ツシマビル４階,,13,104,1690073,,,,,,,2023-12-13,1,,,,,マトウ,0
953,4011101105451,新規,0,2023-12-13,2023-12-13,株式会社ＨＩＶＥ,,株式会社,東京都,新宿区,西新宿８丁目１４番１８号,,13,104,1600023,,,,,,,2023-12-13,1,,,,,ハイヴ,0
956,4011103013850,新規,0,2023-12-13,2023-12-13,合同会社Ｔ観音寺,,合同会社,東京都,新宿区,西新宿１丁目１５番４号第２セイコービル６０１号室,,13,104,1600023,,,,,,,2023-12-13,1,,,,,ティーカンオンジ,0
959,4011401025696,新規,0,2023-12-13,2023-12-13,ＭＥ不動産城北株式会社,,株式会社,東京都,板橋区,大谷口２丁目１番１号,,13,119,1730035,,,,,,,2023-12-13,1,,,,,エムイーフドウサンジョウホク,0
961,4011503005885,新規,0,2023-12-13,2023-12-13,合同会社Ｍ‐Ｈ,,合同会社,東京都,荒川区,西日暮里２丁目１６番２号,,13,118,1160013,,,,,,,2023-12-13,1,,,,,エムエッチ,0
962,4011601027369,新規,0,2023-12-13,2023-12-13,株式会社ＶＡＬＯ,,株式会社,東京都,練馬区,下石神井５丁目１３番２号,,13,120,1770042,,,,,,,2023-12-13,1,,,,,ヴァロ,0
963,4011701026849,新規,0,2023-12-13,2023-12-13,ケイファンアプレイザル株式会社,,株式会社,東京都,江戸川区,中葛西５丁目４１番１０号ＢＰＲプレイス葛西７Ｆ,,13,123,1340083,,,,,,,2023-12-13,1,,,,,ケイファンアプレイザル,0
968,4012801022820,新規,0,2023-12-13,2023-12-13,ＰＡＴＡＰＡＴＡ株式会社,,株式会社,東京都,立川市,上砂町５丁目６２番地２１ビーグルマンション上砂４０２号室,,13,202,1900032,,,,,,,2023-12-13,1,,,,,パタパタ,0
970,4013301051756,新規,0,2023-12-13,2023-12-13,株式会社Ｌｉｎｔｕｋｏｔｏ,,株式会社,東京都,豊島区,千早２丁目３５番３号,,13,116,1710044,,,,,,,2023-12-13,1,,,,,リントゥコト,0
973,4020001154847,新規,0,2023-12-13,2023-12-13,株式会社ＡＱＳＥＮＴ,,株式会社,神奈川県,横浜市保土ケ谷区,上菅田町１０７２番地１２,,14,106,2400051,,,,,,,2023-12-13,1,,,,,アクセント,0
974,4020001154863,新規,0,2023-12-13,2023-12-13,Ｃａｒｅｅｒ４ＩＴ株式会社,,株式会社,神奈川県,横浜市神奈川区,金港町５－１４クアドリフォリオ８階,,14,102,2210056,,,,,,,2023-12-13,1,,,,,キャリアフォーアイティ,0
975,4020001154871,新規,0,2023-12-13,2023-12-13,シックスソリューションズ株式会社,,株式会社,神奈川県,横浜市西区,高島１丁目２番１３号ＬＧＹＯＫＯＨＡＭＡＩＮＮＯＶＡＴＩＯＮＣＥＮＴＥＲ１２階,,14,103,2200011,,,,,,,2023-12-13,1,,,,,シックスソリューションズ,0
976,4020001154896,新規,0,2023-12-13,2023-12-13,株式会社アイリス,,株式会社,神奈川県,横浜市金沢区,富岡西４丁目４番８号,,14,108,2360052,,,,,,,2023-12-13,1,,,,,アイリス,0
977,4020001154905,新規,0,2023-12-13,2023-12-13,株式会社Ｎ’ｓ,,株式会社,神奈川県,横浜市金沢区,谷津町４０－３８,,14,108,2360016,,,,,,,2023-12-13,1,,,,,エヌズ,0
980,4020003025179,新規,0,2023-12-13,2023-12-13,合同会社Ａｇｒｉｏ,,合同会社,神奈川県,横浜市西区,北幸２丁目１０番４８号むつみビル３Ｆ,,14,103,2200004,,,,,,,2023-12-13,1,,,,,アグリオ,0
983,4021005012966,新規,0,2023-12-13,2023-12-13,一般社団法人あっぱりしゃん石垣,,その他の設立登記法人,神奈川県,伊勢原市,沼目４丁目１７番４号,,14,214,2591126,,,,,,,2023-12-13,1,,,,,アッパリシャンイシガキ,0
987,4030001157551,新規,0,2023-12-13,2023-12-13,株式会社ＩＲＯＡＳ,,株式会社,埼玉県,さいたま市西区,大字中野林８９１番地１０,,11,101,3310057,,,,,,,2023-12-13,1,,,,,イロアス,0
988,4030001157626,新規,0,2023-12-13,2023-12-13,土屋ダクト株式会社,,株式会社,埼玉県,川越市,大字古谷上４０２８番地２６,,11,201,3500001,,,,,,,2023-12-13,1,,,,,ツチヤダクト,0
989,4030001157634,新規,0,2023-12-13,2023-12-13,Ｊシェリール株式会社,,株式会社,埼玉県,上尾市,谷津２丁目４－５,,11,219,3620042,,,,,,,2023-12-13,1,,,,,ジェーシェリール,0
990,4030001157650,新規,0,2023-12-13,2023-12-13,株式会社ＴＳ興業,,株式会社,埼玉県,さいたま市桜区,大字上大久保８１４－１３,,11,106,3380824,,,,,,,2023-12-13,1,,,,,ティーエスコウギョウ,0
991,4030001157667,新規,0,2023-12-13,2023-12-13,株式会社ｙｏｕｒｓｔａｇｅ,,株式会社,埼玉県,新座市,畑中１丁目１１番３－９１３号,,11,230,3520012,,,,,,,2023-12-13,1,,,,,ユアーステージ,0
997,4040001131290,新規,0,2023-12-13,2023-12-13,株式会社リバティインターナショナル,,株式会社,千葉県,八千代市,米本１２１９番地,,12,221,2760015,,,,,,,2023-12-13,1,,,,,リバティインターナショナル,0
998,4040001131299,新規,0,2023-12-13,2023-12-13,株式会社ユウアスホーム,,株式会社,千葉県,八千代市,八千代台東１丁目４３番１号,,12,221,2760032,,,,,,,2023-12-13,1,,,,,ユウアスホーム,0
999,4040001131349,新規,0,2023-12-13,2023-12-13,サチ・アライアンス株式会社,,株式会社,千葉県,千葉市美浜区,若葉３丁目１番地１・４３０４号,,12,106,2610014,,,,,,,2023-12-13,1,,,,,サチアライアンス,0
1001,4040003023874,新規,0,2023-12-13,2023-12-13,合同会社Ｐｉｕ,,合同会社,千葉県,白井市,清水口２丁目１番２１棟７１６号,,12,232,2701435,,,,,,,2023-12-13,1,,,,,ピウ,0
1002,4040003023908,新規,0,2023-12-13,2023-12-13,合同会社ＩＫＩ,,合同会社,千葉県,柏市,豊住３丁目１番２６－６０４号,,12,217,2770071,,,,,,,2023-12-13,1,,,,,アイケイアイ,0
1006,4050003008008,新規,0,2023-12-13,2023-12-13,合同会社和ぎ,,合同会社,茨城県,水戸市,千波町２８６２番地の２２山本マンション１０１号,,08,201,3100851,,,,,,,2023-12-13,1,,,,,ナギ,0
1011,4080101024399,新規,0,2023-12-13,2023-12-13,株式会社ＨＩＲＡＧＡ,,株式会社,静岡県,富士市,島田町１丁目５０番地,,22,210,4170033,,,,,,,2023-12-13,1,,,,,ヒラガ,0
1019,4100001037052,新規,0,2023-12-13,2023-12-13,平本創業株式会社,,株式会社,長野県,長野市,大字鶴賀上千歳町１１７７－２－４０３,,20,201,3800821,,,,,,,2023-12-13,1,,,,,ヒラモトソウギョウ,0
1023,4110003005238,新規,0,2023-12-13,2023-12-13,合同会社コネクトリング上越,,合同会社,新潟県,上越市,石橋２丁目１２番４０号,,15,222,9420074,,,,,,,2023-12-13,1,,,,,コネクトリングジョウエツ,0
1041,4120001260627,新規,0,2023-12-13,2023-12-13,ＯＮＥ＆ＳＫＹ株式会社,,株式会社,大阪府,大阪市淀川区,十三本町１丁目７番３２号,,27,123,5320024,,,,,,,2023-12-13,1,,,,,ワンアンドスカイ,0
1044,4120003025524,新規,0,2023-12-13,2023-12-13,ＬＯＫＡ合同会社,,合同会社,大阪府,大阪市西成区,天下茶屋北１丁目３番１２号,,27,122,5570003,,,,,,,2023-12-13,1,,,,,ロカ,0
1051,4120101068680,新規,0,2023-12-13,2023-12-13,ＧＴアセットマネジメント株式会社,,株式会社,大阪府,藤井寺市,大井４丁目１７番４１号,,27,226,5830008,,,,,,,2023-12-13,1,,,,,ジーティアセットマネジメント,0
1052,4120103005574,新規,0,2023-12-13,2023-12-13,インクライン・ジャパン合同会社,,合同会社,大阪府,泉大津市,池浦町１丁目１９番３号,,27,206,5950024,,,,,,,2023-12-13,1,,,,,インクラインジャパン,0
1054,4120901048469,新規,0,2023-12-13,2023-12-13,株式会社ロンフィート,,株式会社,大阪府,豊中市,寺内２丁目１３番４９号,,27,203,5610872,,,,,,,2023-12-13,1,,,,,ロンフィート,0
1057,4122001037641,新規,0,2023-12-13,2023-12-13,友人商事株式会社,,株式会社,大阪府,東大阪市,御厨東２丁目６番１９号,,27,227,5770033,,,,,,,2023-12-13,1,,,,,ユウジンショウジ,0
1058,4122001037658,新規,0,2023-12-13,2023-12-13,株式会社ＭＯＣ,,株式会社,大阪府,八尾市,恩智中町２丁目３１９番地,,27,212,5810883,,,,,,,2023-12-13,1,,,,,エムオーシー,0
1060,4130001075917,新規,0,2023-12-13,2023-12-13,株式会社千捷,,株式会社,京都府,宇治市,槇島町千足４４番地,,26,204,6110041,,,,,,,2023-12-13,1,,,,,センショウ,0
1061,4130001075925,新規,0,2023-12-13,2023-12-13,株式会社ＢＡＭ,,株式会社,京都府,亀岡市,西別院町柚原北谷１１番地,,26,206,6210124,,,,,,,2023-12-13,1,,,,,ビーエーエム,0
1063,4130003009179,新規,0,2023-12-13,2023-12-13,ＳＫサービス合同会社,,合同会社,京都府,京都市中京区,瀬戸屋町４７０,,26,104,6048122,,,,,,,2023-12-13,1,,,,,エスケーサービス,0
1064,4130003009195,新規,0,2023-12-13,2023-12-13,八十合同会社,,合同会社,京都府,京都市西京区,川島莚田町９番地３Ｄ２,,26,111,6158105,,,,,,,2023-12-13,1,,,,,ハタ,0
1070,4140001132691,新規,0,2023-12-13,2023-12-13,株式会社Ａｌｉｖｉｏ,,株式会社,兵庫県,尼崎市,善法寺町６番１２－４１０号,,28,202,6610973,,,,,,,2023-12-13,1,,,,,アリーヴィオ,0
1071,4140001132700,新規,0,2023-12-13,2023-12-13,ハウスアンドフィールド株式会社,,株式会社,兵庫県,尼崎市,築地４丁目２番１９号,,28,202,6600858,,,,,,,2023-12-13,1,,,,,ハウスアンドフィールド,0
1073,4140003019912,新規,0,2023-12-13,2023-12-13,合同会社Ａｃｃｏｍｐａｎｙ,,合同会社,兵庫県,西宮市,上甲子園４丁目９－５０,,28,204,6638114,,,,,,,2023-12-13,1,,,,,アカンパニー,0
1074,4150003003139,新規,0,2023-12-13,2023-12-13,平野アドバイザー合同会社,,合同会社,奈良県,奈良市,あやめ池南６丁目７番１０－５０７号,,29,201,6310033,,,,,,,2023-12-13,1,,,,,ヒラノアドバイザー,0
1078,4160001025563,新規,0,2023-12-13,2023-12-13,株式会社ＲＥＩＷＡ　ＳＴＥＰ,,株式会社,滋賀県,守山市,幸津川町１７２７番地１,,25,207,5240215,,,,,,,2023-12-13,1,,,,,レイワステップ,0
1080,4160003003055,新規,0,2023-12-13,2023-12-13,ＨＡＫ合同会社,,合同会社,滋賀県,甲賀市,水口町綾野３番５９号ミフクプラザ１階３号室,,25,209,5280033,,,,,,,2023-12-13,1,,,,,エイチエーケー,0
1081,4160003003063,新規,0,2023-12-13,2023-12-13,ｅ‐テック合同会社,,合同会社,滋賀県,彦根市,西今町８７番地２４,,25,202,5220054,,,,,,,2023-12-13,1,,,,,イーテック,0
1085,4180001159302,新規,0,2023-12-13,2023-12-13,株式会社青山商事,,株式会社,愛知県,名古屋市守山区,四軒家１丁目１３２８番地,,23,113,4630034,,,,,,,2023-12-13,1,,,,,アオヤマショウジ,0
1086,4180001159319,新規,0,2023-12-13,2023-12-13,株式会社零クリエイト,,株式会社,愛知県,一宮市,木曽川町里小牧字寺北８番地８,,23,203,4930005,,,,,,,2023-12-13,1,,,,,ゼロクリエイト,0
1087,4180001159343,新規,0,2023-12-13,2023-12-13,株式会社ＭＡＰコンサルタント,,株式会社,愛知県,名古屋市東区,葵１丁目１１番６号ライオンズタワー葵５０３号,,23,102,4610004,,,,,,,2023-12-13,1,,,,,マップコンサルタント,0
1088,4180001159351,新規,0,2023-12-13,2023-12-13,株式会社霧島工業,,株式会社,愛知県,清須市,西市場４丁目４番地１６,,23,233,4520941,,,,,,,2023-12-13,1,,,,,キリシマコウギョウ,0
1092,4180005020451,新規,0,2023-12-13,2023-12-13,シャトー月見坂管理組合法人,,その他の設立登記法人,愛知県,名古屋市千種区,月見坂町１丁目９番地の９,,23,101,4640056,,,,,,,2023-12-13,1,,,,,シャトーツキミザカ,0
1093,4180301038107,新規,0,2023-12-13,2023-12-13,株式会社Ｋプランニング,,株式会社,愛知県,みよし市,園原３丁目１１番地２オリオン園原３０２号,,23,236,4700227,,,,,,,2023-12-13,1,,,,,ケイプランニング,0
1094,4180301038123,新規,0,2023-12-13,2023-12-13,株式会社アカヤメンテ,,株式会社,愛知県,みよし市,園原５丁目１番地１８,,23,236,4700227,,,,,,,2023-12-13,1,,,,,アカヤメンテ,0
1095,4200001041977,新規,0,2023-12-13,2023-12-13,株式会社サカイ商店,,株式会社,岐阜県,岐阜市,城東通５丁目３６,,21,201,5008441,,,,,,,2023-12-13,1,,,,,サカイショウテン,0
1099,4220001025730,新規,0,2023-12-13,2023-12-13,株式会社稲村,,株式会社,石川県,羽咋市,島出町上１番地,,17,207,9250051,,,,,,,2023-12-13,1,,,,,イナムラ,0
1100,4220003003635,新規,0,2023-12-13,2023-12-13,合同会社Ｃｙｂｅｒ　Ｃｏｒｐ,,合同会社,石川県,金沢市,保古１丁目９０番地フロール３０５,,17,201,9218052,,,,,,,2023-12-13,1,,,,,サイバーコープ,0
1108,4290001104040,新規,0,2023-12-13,2023-12-13,株式会社アバンティ,,株式会社,福岡県,福岡市西区,大字飯盛２１８番地１,,40,135,8190037,,,,,,,2023-12-13,1,,,,,アバンティ,0
1109,4290003014725,新規,0,2023-12-13,2023-12-13,美神合同会社,,合同会社,福岡県,福岡市中央区,今泉２丁目３－２１松永ビル３Ｆ,,40,133,8100021,,,,,,,2023-12-13,1,,,,,ビシン,0
1114,4300001013553,新規,0,2023-12-13,2023-12-13,株式会社南部開発,,株式会社,佐賀県,佐賀市,木原２丁目３番２７号,,41,201,8400015,,,,,,,2023-12-13,1,,,,,ナンブカイハツ,0
1118,4360001032936,新規,0,2023-12-13,2023-12-13,プロダクティブ興業株式会社,,株式会社,沖縄県,那覇市,古島１丁目５番地１６アンソレイユ３０１,,47,201,9020061,,,,,,,2023-12-13,1,,,,,プロダクティブコウギョウ,0
1121,4360003013546,新規,0,2023-12-13,2023-12-13,合同会社ＴＡＷＡＴＡ,,合同会社,沖縄県,中頭郡北谷町,字砂辺９７－８,,47,326,9040111,,,,,,,2023-12-13,1,,,,,タワタ,0
1122,4370001050722,新規,0,2023-12-13,2023-12-13,株式会社Ｇｌｏｒｉｏｕｓ,,株式会社,宮城県,仙台市太白区,八本松２丁目１３番１０号,,04,104,9820001,,,,,,,2023-12-13,1,,,,,グロリアス,0
1123,4370001050730,新規,0,2023-12-13,2023-12-13,株式会社ヌチユイ,,株式会社,宮城県,東松島市,赤井字有明１６番地５ロワジールＢ棟１０１号室,,04,214,9810501,,,,,,,2023-12-13,1,,,,,ヌチユイ,0
1124,4380001034195,新規,0,2023-12-13,2023-12-13,株式会社ランドリー,,株式会社,福島県,二本松市,亀谷１丁目５９,,07,210,9640911,,,,,,,2023-12-13,1,,,,,ランドリー,0
1129,4400003003187,新規,0,2023-12-13,2023-12-13,ツクモバシラ合同会社,,合同会社,岩手県,花巻市,不動町１丁目７番地１０,,03,205,0250038,,,,,,,2023-12-13,1,,,,,ツクモバシラ,0
1138,4450001014173,新規,0,2023-12-13,2023-12-13,もんべつ動物病院株式会社,,株式会社,北海道,紋別市,渚滑町元新３丁目１７６番地の３,,01,219,0995172,,,,,,,2023-12-13,1,,,,,モンベツドウブツビョウイン,0
1141,4490003001843,新規,0,2023-12-13,2023-12-13,合同会社Ｃｈａｍｉｒｏ＆Ｃｏ．,,合同会社,高知県,香南市,香我美町山北６５７番地８,,39,211,7815453,,,,,,,2023-12-13,1,,,,,チャミロアンドカンパニー,0
1143,4700150122718,新規,0,2023-12-13,2023-12-13,Ｓｈｅｎｚｈｅｎ　Ｄｅｂｏ　Ｉｎｆｏｒｍａｔｉｏｎ　Ｔｅｃｈｎｏｌｏｇｙ　Ｃｏ．，Ｌｔｄ,,外国会社等,,,,,,,,Ｓｈｅｎｚｈｅｎ　Ｂａｏ’ａｎＤｉｓｔｒｉｃｔ　ＮｅｗＢｒｉｄｇｅＳｔｒｅｅｔ　ＳｈａｊｉｎｇＤｅｐｕＥｌｅｃｔｒｏｎｉｃＣｉｔｙ　ｔｈｅｆｉｒｓｔｆｌｏｏｒｏｆＢＡ８３７,,,,,,2023-12-13,1,,,,,シンセンデボインフォメイションテクノロジーカンパニーリミテッド,0
1144,4700150122726,新規,0,2023-12-13,2023-12-13,Ｓｈｅｎｚｈｅｎ　Ｗｅｎｄａ　Ｉｎｆｏｒｍａｔｉｏｎ　Ｓｅｒｖｉｃｅ　Ｃｏ．，Ｌｔｄ,,外国会社等,,,,,,,,ｐｉｎｇｓｈａｎ　ｑｕ　ｌｏｎｇｔｉａｎ　ｊｉｅｄａｏ　ｚｈｕｋｅｎｇ　ｓｈｅｑｕ　ｋｅｊｉ　ｌｕ　＃３　ｓｏｎｇｚｅ　ｃｈａｎｙｅ　ｃａｎｇｋｕ　Ｂ　ｄｏｎｇ　２０１,,,,,,2023-12-13,1,,,,,シェンジェンシーウェンダーシンシーフーウーヨウシエンゴンスー,0
1145,4700150122734,新規,0,2023-12-13,2023-12-13,ｗｅｎｚｈｏｕｓｈｉｍｕｔｕｈｅｙｅｄｉａｎｚｉｓｈａｎｇｗｕ　ｙｏｕｘｉａｎｚｅｒｅｎｇｏｎｇｓｉ,,外国会社等,,,,,,,,ｚｈｅｊｉａｎｇｓｈｅｎｇｗｅｎｚｈｏｕｓｈｉｒｕｉａｎｓｈｉｘｉｎｃｈｅｎｇｊｉｅｄａｏｈｅｐｉｎｇｃｕｎｇｏｎｇｙｅｑｕ（ｒｕｉａｎｓｈｉｍｉｎｇｒｕｉｑｉｃｈｅｐｅｉｊｉａｎｃｈａｎｇｎｅｉ）３２５２００　ＣＮ,,,,,,2023-12-13,1,,,,,オンシュウシムトヘイェデンシシャンウユウゲンゼレンコウシ,0
1155,5010001240721,新規,0,2023-12-13,2023-12-13,株式会社ＷＨ,,株式会社,東京都,文京区,千駄木４丁目１２番４号４０３,,13,105,1130022,,,,,,,2023-12-13,1,,,,,ダブリューエイチ,0
1156,5010001240738,新規,0,2023-12-13,2023-12-13,東一地所株式会社,,株式会社,東京都,中央区,日本橋人形町１丁目５番５号芳町ビル３０２,,13,102,1030013,,,,,,,2023-12-13,1,,,,,トウイチジショ,0
1157,5010001240754,新規,0,2023-12-13,2023-12-13,株式会社ＴＥＮ,,株式会社,東京都,中央区,日本橋人形町２丁目１３番９号ＦＯＲＥＣＡＳＴ人形町７階,,13,102,1030013,,,,,,,2023-12-13,1,,,,,テン,0
1158,5010001240770,新規,0,2023-12-13,2023-12-13,株式会社ＭＩＫＩ,,株式会社,東京都,文京区,春日１丁目１１番１３－１５０８号,,13,105,1120003,,,,,,,2023-12-13,1,,,,,ミキ,0
1159,5010001240804,新規,0,2023-12-13,2023-12-13,ふどうさん市場株式会社,,株式会社,東京都,中央区,銀座１丁目２２番１１号銀座大竹ビジデンス２Ｆ,,13,102,1040061,,,,,,,2023-12-13,1,,,,,フドウサンイチバ,0
1164,5010005037627,新規,0,2023-12-13,2023-12-13,一般社団法人カメラセキュリティ認証協会,,その他の設立登記法人,東京都,千代田区,神田錦町１丁目１９番１号,,13,101,1010054,,,,,,,2023-12-13,1,,,,,カメラセキュリティニンショウキョウカイ,0
1165,5010005037635,新規,0,2023-12-13,2023-12-13,一般社団法人Ｍ’ｓ　Ｏｋｏｓｈｉｙａｓｕファンド１,,その他の設立登記法人,東京都,千代田区,丸の内３丁目１番１号東京共同会計事務所内,,13,101,1000005,,,,,,,2023-12-13,1,,,,,エムズオコシヤスファンドワン,0
1171,5010401179080,新規,0,2023-12-13,2023-12-13,株式会社蛋白質免疫工学研究所,,株式会社,東京都,港区,北青山１丁目３番１号アールキューブ青山３階,,13,103,1070061,,,,,,,2023-12-13,1,,,,,タンパクシツメンエキコウガクケンキュウジョ,0
1172,5010401179089,新規,0,2023-12-13,2023-12-13,株式会社ＡＶＡＮＴ,,株式会社,東京都,港区,六本木６丁目１０番１号六本木ヒルズ森タワー１６階,,13,103,1060032,,,,,,,2023-12-13,1,,,,,アバント,0
1173,5010401179097,新規,0,2023-12-13,2023-12-13,株式会社ＫｉｎＴｉｍｅ,,株式会社,東京都,港区,北青山１丁目３番１号アールキューブ青山３階,,13,103,1070061,,,,,,,2023-12-13,1,,,,,キンタイム,0
1174,5010401179114,新規,0,2023-12-13,2023-12-13,株式会社白坂,,株式会社,東京都,港区,赤坂６丁目３番８号－１０１号室,,13,103,1070052,,,,,,,2023-12-13,1,,,,,シロサカ,0
1175,5010401179130,新規,0,2023-12-13,2023-12-13,株式会社Ｇｌｏｂａｌ　Ｃａｒｅｅｒ　Ｉｎｃｕｂａｔｏｒ,,株式会社,東京都,港区,虎ノ門３丁目１１番９号シュミット虎ノ門ビル３階,,13,103,1050001,,,,,,,2023-12-13,1,,,,,グローバルキャリアインキュベータ,0
1176,5010401179139,新規,0,2023-12-13,2023-12-13,株式会社サクラエンターテイメント,,株式会社,東京都,港区,六本木７丁目１４番５号大和ビル６Ｆ,,13,103,1060032,,,,,,,2023-12-13,1,,,,,サクラエンターテイメント,0
1177,5010401179147,新規,0,2023-12-13,2023-12-13,コンパステクノロジー株式会社,,株式会社,東京都,港区,六本木７丁目７番７号,,13,103,1060032,,,,,,,2023-12-13,1,,,,,コンパステクノロジー,0
1179,5010403031537,新規,0,2023-12-13,2023-12-13,軽貨物ドライバー合同会社,,合同会社,東京都,港区,南青山２丁目２－１５ウィン青山内,,13,103,1070062,,,,,,,2023-12-13,1,,,,,ケイカモツドライバー,0
1180,5010403031545,新規,0,2023-12-13,2023-12-13,合同会社Ｒ＆Ｓ,,合同会社,東京都,港区,麻布台３丁目４番１８号,,13,103,1060041,,,,,,,2023-12-13,1,,,,,アールアンドエス,0
1181,5010403031586,新規,0,2023-12-13,2023-12-13,マシマロ合同会社,,合同会社,東京都,港区,南青山２丁目２番１０号,,13,103,1070062,,,,,,,2023-12-13,1,,,,,マシマロ,0
1186,5010501051486,新規,0,2023-12-13,2023-12-13,ＰＣ　Ｅｎｇｉｎｅｅｒ株式会社,,株式会社,東京都,台東区,上野６丁目７番１６号４０１,,13,106,1100005,,,,,,,2023-12-13,1,,,,,ピーシーエンジニア,0
1187,5010501051494,新規,0,2023-12-13,2023-12-13,株式会社Ｉｎｆｉｎｉｔｙ,,株式会社,東京都,台東区,浅草橋３丁目３３番９号,,13,106,1110053,,,,,,,2023-12-13,1,,,,,インフィニティ,0
1190,5010705003572,新規,0,2023-12-13,2023-12-13,一般社団法人再生医療抗加齢協会,,その他の設立登記法人,東京都,品川区,東大井１丁目８－５プライム東大井２０１号室,,13,109,1400011,,,,,,,2023-12-13,1,,,,,サイセイイリョウコウカレイキョウカイ,0
1191,5010801034604,新規,0,2023-12-13,2023-12-13,株式会社ｎｅｋｋｏ,,株式会社,東京都,大田区,大森中１丁目７番２１－３０５号,,13,111,1430014,,,,,,,2023-12-13,1,,,,,ネッコ,0
1192,5010803004778,新規,0,2023-12-13,2023-12-13,合同会社ステラレクシオ,,合同会社,東京都,大田区,下丸子２丁目１８番１７号,,13,111,1460092,,,,,,,2023-12-13,1,,,,,ステラレクシオ,0
1196,5010901054345,新規,0,2023-12-13,2023-12-13,株式会社留学ｏｆｆｉｃｅ　ＬＡＵ,,株式会社,東京都,世田谷区,駒沢公園１番１号,,13,112,1540013,,,,,,,2023-12-13,1,,,,,リュウガクオフィスラウ,0
1201,5011001158771,新規,0,2023-12-13,2023-12-13,株式会社リングナイト,,株式会社,東京都,渋谷区,恵比寿１丁目１９－１９恵比寿ビジネスタワー１０Ｆ,,13,113,1500013,,,,,,,2023-12-13,1,,,,,リングナイト,0
1207,5011101105467,新規,0,2023-12-13,2023-12-13,日本コンサルティング・サービス株式会社,,株式会社,東京都,新宿区,上落合３丁目１３番２号,,13,104,1610034,,,,,,,2023-12-13,1,,,,,ニホンコンサルティングサービス,0
1212,5011401025687,新規,0,2023-12-13,2023-12-13,板橋観光株式会社,,株式会社,東京都,板橋区,高島平５丁目３６番５号,,13,119,1750082,,,,,,,2023-12-13,1,,,,,イタバシカンコウ,0
1217,5011701026856,新規,0,2023-12-13,2023-12-13,火星人株式会社,,株式会社,東京都,江戸川区,松江２丁目１－１３－１０８号室,,13,123,1320025,,,,,,,2023-12-13,1,,,,,カセイジン,0
1219,5011801043487,新規,0,2023-12-13,2023-12-13,株式会社ＳＡＫＵＲＡ,,株式会社,東京都,足立区,千住３丁目６０番１５号,,13,121,1200034,,,,,,,2023-12-13,1,,,,,サクラ,0
1220,5011801043495,新規,0,2023-12-13,2023-12-13,ＣＥＯ株式会社,,株式会社,東京都,葛飾区,東水元５丁目１９番４号,,13,122,1250033,,,,,,,2023-12-13,1,,,,,シーイーオー,0
1223,5012401041311,新規,0,2023-12-13,2023-12-13,株式会社ＫＴＳ‐ＳＴＹＬＥ,,株式会社,東京都,調布市,多摩川４丁目１９番地１－１０８,,13,208,1820025,,,,,,,2023-12-13,1,,,,,ケーティーエススタイル,0
1226,5012403006312,新規,0,2023-12-13,2023-12-13,合同会社アセントプラム,,合同会社,東京都,調布市,西つつじケ丘３丁目７番地２８,,13,208,1820006,,,,,,,2023-12-13,1,,,,,アセントプラム,0
1231,5020001154846,新規,0,2023-12-13,2023-12-13,株式会社キッズハウス,,株式会社,神奈川県,川崎市中原区,中丸子１３番地１７－４６０３,,14,133,2110012,,,,,,,2023-12-13,1,,,,,キッズハウス,0
1232,5020001154854,新規,0,2023-12-13,2023-12-13,大内商事株式会社,,株式会社,神奈川県,横浜市都筑区,茅ケ崎南４丁目１４番１－３１１号,,14,118,2240037,,,,,,,2023-12-13,1,,,,,オオウチショウジ,0
1233,5020001154887,新規,0,2023-12-13,2023-12-13,株式会社タナテック,,株式会社,神奈川県,川崎市川崎区,昭和２丁目１７番２号テラスハウスソフィ１０８,,14,131,2100813,,,,,,,2023-12-13,1,,,,,タナテック,0
1234,5020003025178,新規,0,2023-12-13,2023-12-13,合同会社メユイ,,合同会社,神奈川県,川崎市宮前区,馬絹５丁目５番５－２０４号ミオカステーロ宮崎台,,14,136,2160035,,,,,,,2023-12-13,1,,,,,メユイ,0
1235,5020003025186,新規,0,2023-12-13,2023-12-13,合同会社魚谷企画,,合同会社,神奈川県,横浜市南区,永田東２丁目４番２１号,,14,105,2320072,,,,,,,2023-12-13,1,,,,,ウオタニキカク,0
1239,5021003013890,新規,0,2023-12-13,2023-12-13,ＭＣ２合同会社,,合同会社,神奈川県,相模原市中央区,宮下本町３丁目４８－５,,14,152,2520211,,,,,,,2023-12-13,1,,,,,エムシーツー,0
1245,5030001157583,新規,0,2023-12-13,2023-12-13,株式会社ルナソル,,株式会社,埼玉県,さいたま市見沼区,大和田町１丁目１４６２－２Ａ,,11,104,3370053,,,,,,,2023-12-13,1,,,,,ルナソル,0
1246,5030001157666,新規,0,2023-12-13,2023-12-13,株式会社ｃｔｅ,,株式会社,埼玉県,さいたま市北区,吉野町２丁目２４８番地４,,11,102,3310811,,,,,,,2023-12-13,1,,,,,シーティーイー,0
1247,5030001157682,新規,0,2023-12-13,2023-12-13,株式会社ナンバースージー,,株式会社,埼玉県,熊谷市,中央２丁目２８２番地,,11,202,3600018,,,,,,,2023-12-13,1,,,,,ナンバースージー,0
1252,5040001131232,新規,0,2023-12-13,2023-12-13,株式会社ｍａｇｎｉｆｉｑｕｅ,,株式会社,千葉県,八千代市,八千代台南１丁目６－８細谷ビル３階,,12,221,2760033,,,,,,,2023-12-13,1,,,,,マニフィーク,0
1253,5040003023907,新規,0,2023-12-13,2023-12-13,スターコンパッション合同会社,,合同会社,千葉県,船橋市,夏見４丁目３５番２号,,12,204,2730865,,,,,,,2023-12-13,1,,,,,スターコンパッション,0
1254,5050001053938,新規,0,2023-12-13,2023-12-13,株式会社プロジェクトＩ,,株式会社,茨城県,那珂市,菅谷２８２７番地１２,,08,226,3110105,,,,,,,2023-12-13,1,,,,,プロジェクトワン,0
1255,5050001053946,新規,0,2023-12-13,2023-12-13,株式会社スターク,,株式会社,茨城県,守谷市,薬師台２丁目１９番地４０,,08,224,3020105,,,,,,,2023-12-13,1,,,,,スターク,0
1259,5050003007990,新規,0,2023-12-13,2023-12-13,ＭＩＮＡ合同会社,,合同会社,茨城県,鉾田市,鉾田１０９ＨＫビル２ＦＥ室,,08,234,3111517,,,,,,,2023-12-13,1,,,,,ミナ,0
1262,5060003004839,新規,0,2023-12-13,2023-12-13,合同会社ｍｙｐｌａｃｅ,,合同会社,栃木県,小山市,大字神鳥谷１２０７番地７,,09,208,3230827,,,,,,,2023-12-13,1,,,,,マイプレイス,0
1264,5070001041180,新規,0,2023-12-13,2023-12-13,株式会社ＰＯＭＧ,,株式会社,群馬県,館林市,小桑原町１０２４番地の１１,,10,207,3740037,,,,,,,2023-12-13,1,,,,,ピーオーエムジー,0
1267,5070005010207,新規,0,2023-12-13,2023-12-13,一般社団法人多汗症ケアーサポート研究会,,その他の設立登記法人,群馬県,前橋市,三河町１丁目１番１－１０３号,,10,201,3710015,,,,,,,2023-12-13,1,,,,,タカンショウケアーサポートケンキュウカイ,0
1271,5100001037043,新規,0,2023-12-13,2023-12-13,株式会社ＡＫＲ,,株式会社,長野県,須坂市,大字日滝３７５番地３,,20,207,3820000,,,,,,,2023-12-13,1,,,,,エーケーアール,0
1273,5110001038032,新規,0,2023-12-13,2023-12-13,株式会社スイーツラボ見附,,株式会社,新潟県,見附市,市野坪町１００１番地６,,15,211,9540083,,,,,,,2023-12-13,1,,,,,スイーツラボミツケ,0
1288,5120001260576,新規,0,2023-12-13,2023-12-13,株式会社ＭＡＰ,,株式会社,大阪府,枚方市,招提田近２丁目９番地,,27,210,5731132,,,,,,,2023-12-13,1,,,,,エムエーピー,0
1289,5120001260601,新規,0,2023-12-13,2023-12-13,ＭＩＬＥＳ株式会社,,株式会社,大阪府,大阪市北区,梅田２丁目５番１３号桜橋第一ビル３０４号,,27,127,5300001,,,,,,,2023-12-13,1,,,,,マイルズ,0
1290,5120001260618,新規,0,2023-12-13,2023-12-13,株式会社テックムーン,,株式会社,大阪府,大阪市北区,梅田１丁目１－３大阪駅前第３ビル２９階１－１－１号室,,27,127,5300001,,,,,,,2023-12-13,1,,,,,テックムーン,0
1291,5120001260642,新規,0,2023-12-13,2023-12-13,株式会社ＢｅｅｒＯ’Ｃｌｏｃｋ,,株式会社,大阪府,大阪市西区,江戸堀１丁目７番１３号倉庵ビル３０１号室,,27,106,5500002,,,,,,,2023-12-13,1,,,,,ビアオークロック,0
1293,5120003025507,新規,0,2023-12-13,2023-12-13,Ｊｕｍｐ合同会社,,合同会社,大阪府,大阪市北区,梅田１丁目１１番４－１０００号,,27,127,5300001,,,,,,,2023-12-13,1,,,,,ジャンプ,0
1294,5120103005581,新規,0,2023-12-13,2023-12-13,合同会社Ｓ．Ｔ,,合同会社,大阪府,堺市南区,茶山台２丁１番１２－２１０号,,27,145,5900115,,,,,,,2023-12-13,1,,,,,エスティー,0
1297,5120903004956,新規,0,2023-12-13,2023-12-13,レフズ合同会社,,合同会社,大阪府,吹田市,南金田１丁目４番１１－３０１号,,27,205,5640044,,,,,,,2023-12-13,1,,,,,レフズ,0
1300,5122001037657,新規,0,2023-12-13,2023-12-13,株式会社さくら,,株式会社,大阪府,東大阪市,菱屋西１丁目１３番３１号,,27,227,5770807,,,,,,,2023-12-13,1,,,,,サクラ,0
1303,5130001075899,新規,0,2023-12-13,2023-12-13,株式会社ＫＯＴＯ,,株式会社,京都府,船井郡京丹波町,須知狐塚４番地４,00132977,26,407,6220213,,,,,,,2023-12-13,1,,,,,ケーオーティーオー,0
1304,5130001075924,新規,0,2023-12-13,2023-12-13,環宇株式会社,,株式会社,京都府,京都市東山区,柚之木町３５３－１,,26,105,6050032,,,,,,,2023-12-13,1,,,,,カンウ,0
1305,5130003009194,新規,0,2023-12-13,2023-12-13,合同会社テクナカ,,合同会社,京都府,京都市右京区,花園段ノ岡町１２番地１,,26,108,6168046,,,,,,,2023-12-13,1,,,,,テクナカ,0
1313,5140001132674,新規,0,2023-12-13,2023-12-13,株式会社きせき,,株式会社,兵庫県,西宮市,苦楽園二番町１７番３号,,28,204,6620082,,,,,,,2023-12-13,1,,,,,,0
1314,5140001132682,新規,0,2023-12-13,2023-12-13,ＫＬＩＮＫ株式会社,,株式会社,兵庫県,姫路市,御立北３丁目２番３号,,28,201,6700071,,,,,,,2023-12-13,1,,,,,ケーリンク,0
1315,5140001132699,新規,0,2023-12-13,2023-12-13,株式会社淡海荘,,株式会社,兵庫県,淡路市,岩屋３５５９番地の４,,28,226,6562401,,,,,,,2023-12-13,1,,,,,タンカイソウ,0
1318,5140003019928,新規,0,2023-12-13,2023-12-13,合同会社ＳＡＩ,,合同会社,兵庫県,姫路市,兼田１９０番地３１,,28,201,6728001,,,,,,,2023-12-13,1,,,,,,0
1319,5140005026831,新規,0,2023-12-13,2023-12-13,特定非営利活動法人ソリューション,,その他の設立登記法人,兵庫県,明石市,大久保町西島８１６番地の１８,,28,203,6740065,,,,,,,2023-12-13,1,,,,,,0
1323,5160001025562,新規,0,2023-12-13,2023-12-13,株式会社ＫＴコーポレーション,,株式会社,滋賀県,草津市,草津町１４５８番地１,,25,206,5250036,,,,,,,2023-12-13,1,,,,,ケイティコーポレーション,0
1331,5180001159359,新規,0,2023-12-13,2023-12-13,株式会社あくるひ,,株式会社,愛知県,名古屋市中村区,名駅３丁目４－１０アルティメイト名駅１ｓｔ２階,,23,105,4500002,,,,,,,2023-12-13,1,,,,,アクルヒ,0
1333,5180003026053,新規,0,2023-12-13,2023-12-13,合同会社ＹＯＫＯＩ,,合同会社,愛知県,春日井市,東野町２丁目６番地４,,23,206,4860817,,,,,,,2023-12-13,1,,,,,ヨコイ,0
1336,5180005020450,新規,0,2023-12-13,2023-12-13,一般社団法人フォーセット名古屋,,その他の設立登記法人,愛知県,名古屋市中川区,百船町五丁目６番,,23,110,4540801,,,,,,,2023-12-13,1,,,,,,0
1337,5180301038106,新規,0,2023-12-13,2023-12-13,株式会社システムコレクト,,株式会社,愛知県,豊田市,水源町１丁目１番地３,,23,211,4710822,,,,,,,2023-12-13,1,,,,,システムコレクト,0
1339,5190003004537,新規,0,2023-12-13,2023-12-13,合同会社デルソル,,合同会社,三重県,四日市市,西新地１４番２３号,,24,202,5100087,,,,,,,2023-12-13,1,,,,,デルソル,0
1343,5220005008796,新規,0,2023-12-13,2023-12-13,一般社団法人ＲｅＧｅｎｅｒａｔｉｏｎ,,その他の設立登記法人,石川県,七尾市,能登島別所町３号１０６番地１,,17,202,9260214,,,,,,,2023-12-13,1,,,,,リジェネレーション,0
1345,5240001062531,新規,0,2023-12-13,2023-12-13,株式会社リレーションアップ,,株式会社,広島県,広島市東区,中山中町１４番１５号,,34,102,7320026,,,,,,,2023-12-13,1,,,,,リレーションアップ,0
1346,5240001062548,新規,0,2023-12-13,2023-12-13,株式会社まうなお,,株式会社,広島県,広島市中区,大手町１丁目１－２０相生橋ビル７階Ａ号室,,34,101,7300051,,,,,,,2023-12-13,1,,,,,マウナオ,0
1350,5260001038562,新規,0,2023-12-13,2023-12-13,株式会社ミライネット,,株式会社,岡山県,新見市,哲多町本郷６８３番地１,,33,210,7180303,,,,,,,2023-12-13,1,,,,,ミライネット,0
1357,5290001103990,新規,0,2023-12-13,2023-12-13,Ｔｉｍｅ　Ｔｒａｖｅｌ株式会社,,株式会社,福岡県,福岡市博多区,博多駅前１丁目５Ｆ－Ｂ,,40,132,8120011,,,,,,,2023-12-13,1,,,,,,0
1358,5290001104007,新規,0,2023-12-13,2023-12-13,株式会社ＤＯＵ,,株式会社,福岡県,福岡市博多区,須崎町８番１０号,,40,132,8120028,,,,,,,2023-12-13,1,,,,,ドウ,0
1359,5290001104015,新規,0,2023-12-13,2023-12-13,株式会社フジテクト,,株式会社,福岡県,福岡市早良区,有田１丁目２１番１９号,,40,137,8140033,,,,,,,2023-12-13,1,,,,,フジテクト,0
1360,5290001104056,新規,0,2023-12-13,2023-12-13,株式会社あなたの素敵な笑顔のために,,株式会社,福岡県,大野城市,月の浦２丁目３番１７号,,40,219,8160983,,,,,,,2023-12-13,1,,,,,アナタノステキナエガオノタメニ,0
1361,5290003014724,新規,0,2023-12-13,2023-12-13,合同会社Ａｌｂａｌｉｚｅ,,合同会社,福岡県,福岡市東区,香椎２丁目２－６エスポワール香椎２０２号,,40,131,8130011,,,,,,,2023-12-13,1,,,,,アルバライズ,0
1366,5300005007170,新規,0,2023-12-13,2023-12-13,医療法人Ｃ　ｓｔｙｌｅ,,その他の設立登記法人,佐賀県,鳥栖市,弥生が丘６丁目３２６番地,,41,203,8410005,,,,,,,2023-12-13,1,,,,,シースタイル,0
1370,5330001031568,新規,0,2023-12-13,2023-12-13,株式会社リレイト,,株式会社,熊本県,熊本市中央区,帯山１丁目２１番４４号（４０５）,,43,101,8620924,,,,,,,2023-12-13,1,,,,,リレイト,0
1372,5330003010124,新規,0,2023-12-13,2023-12-13,合同会社ｓａｖｅ,,合同会社,熊本県,八代市,千丁町新牟田５２６番地３,,43,202,8694703,,,,,,,2023-12-13,1,,,,,セーブ,0
1383,5360003013537,新規,0,2023-12-13,2023-12-13,泰山重機合同会社,,合同会社,沖縄県,国頭郡今帰仁村,字諸志４９２番地１,,47,306,9050426,,,,,,,2023-12-13,1,,,,,タイザンジュウキ,0
1384,5360003013545,新規,0,2023-12-13,2023-12-13,合同会社ＶＯＹＡＧＥＲ,,合同会社,沖縄県,中頭郡読谷村,字宇座１８６１番（残波岬いこいの広場内）,,47,324,9040328,,,,,,,2023-12-13,1,,,,,ヴォイジャー,0
1390,5380001034194,新規,0,2023-12-13,2023-12-13,株式会社中瀬工業,,株式会社,福島県,いわき市,小名浜大原字堀米１７６番地の１,,07,204,9718111,,,,,,,2023-12-13,1,,,,,ナカセコウギョウ,0
1394,5400003003186,新規,0,2023-12-13,2023-12-13,オイシステム合同会社,,合同会社,岩手県,陸前高田市,小友町字唐笠松３２番地,,03,210,0292207,,,,,,,2023-12-13,1,,,,,オイシステム,0
1395,5410001013665,新規,0,2023-12-13,2023-12-13,株式会社Ｋ‐ｆｉｖｅ,,株式会社,秋田県,潟上市,天王字江川上谷地１０５番地３２,,05,211,0100201,,,,,,,2023-12-13,1,,,,,ケーファイブ,0
1399,5430001090629,新規,0,2023-12-13,2023-12-13,株式会社ＦＯＲＴＵＮＥ,,株式会社,北海道,有珠郡壮瞥町,字壮瞥温泉６４番地,,01,575,0520103,,,,,,,2023-12-13,1,,,,,フォーチューン,0
1400,5430001090653,新規,0,2023-12-13,2023-12-13,株式会社ｔｏｋｅｌｍｏ,,株式会社,北海道,札幌市北区,北六条西６丁目２番地２４第２山崎ビル７階,,01,102,0600806,,,,,,,2023-12-13,1,,,,,トケルモ,0
1406,5700150122717,新規,0,2023-12-13,2023-12-13,ｊｉａｎｇｓｕｐｉｎｌｉａｎｇｆａｎｇｚｈｉｐｉｎ　ｙｏｕｘｉａｎｇｏｎｇｓｉ,,外国会社等,,,,,,,,ｙｉｘｉｎｇｓｈｉｄｉｎｇｓｈｕｚｈｅｎｆａｎｇｑｉａｎｃｕｎ,,,,,,2023-12-13,1,,,,,コウソピンリャンジピンユウゲンコウシ,0
1407,5700150122725,新規,0,2023-12-13,2023-12-13,ＹＩＷＵＳＨＩ　ＪＵＮＭＯ　Ｔｒａｄｅ　Ｃｏ．，Ｌｔｄ,,外国会社等,,,,,,,,Ｒｏｏｍ　１０１，Ｕｎｉｔ　２，Ｂｕｉｌｄｉｎｇ　ＮＯ．１７Ｙｏｕｂｅｉｔａｎｇｘｉｎｃｕｎ　ｏｎｅ　Ｄｉｓｔｒｉｃｔ，Ｓｕｘｉ　ＴｏｗｎＹＩＷＵ　ＺＨＥＪＩＡＮＧ　Ｃｈｉｎａ,,,,,,2023-12-13,1,,,,,イーウーシージンモーマオイーヨウシエンゴンスー,0
1408,5700150122733,新規,0,2023-12-13,2023-12-13,ｂａｏｄｉｎｇｋｕａｄｅｎｇｄｉａｎｚｉｓｈａｎｇｗｕ　ｙｏｕｘｉａｎｇｏｎｇｓｉ,,外国会社等,,,,,,,,ｈｅｂｅｉｓｈｅｎｇｂａｏｄｉｎｇｓｈｉｂａｉｇｏｕｘｉｎｃｈｅｎｇｓｈｉｄａｉｌｕ１８２ｈａｏ　５１０６３０　ＣＮ,,,,,,2023-12-13,1,,,,,ホテイクアデンデンシシャンムヨウシェンゴンスー,0
1412,6010001240605,新規,0,2023-12-13,2023-12-13,株式会社銀座ナカムラ,,株式会社,東京都,中央区,銀座１丁目９番１２号西山興業東銀座ビル７階,,13,102,1040061,,,,,,,2023-12-13,1,,,,,ギンザナカムラ,0
1413,6010001240695,新規,0,2023-12-13,2023-12-13,株式会社ワイズ,,株式会社,東京都,千代田区,神田和泉町一番地６の１６ヤマトビル４０５,,13,101,1010024,,,,,,,2023-12-13,1,,,,,ワイズ,0
1414,6010001240729,新規,0,2023-12-13,2023-12-13,株式会社ビーエムスマイルジャパン,,株式会社,東京都,千代田区,内幸町２丁目１番６号日比谷パークフロント１９Ｆ,,13,101,1000011,,,,,,,2023-12-13,1,,,,,ビーエムスマイルジャパン,0
1415,6010003042413,新規,0,2023-12-13,2023-12-13,合同会社ＨａｎｏＨａｎｏ,,合同会社,東京都,中央区,日本橋室町１丁目１１番１２号日本橋水野ビル７階,,13,102,1030022,,,,,,,2023-12-13,1,,,,,ハノハノ,0
1416,6010003042421,新規,0,2023-12-13,2023-12-13,合同会社ＳｅｃｒｅｔＳｉｇｎ,,合同会社,東京都,中央区,八重洲２丁目１１番７号一新ビル６階,,13,102,1040028,,,,,,,2023-12-13,1,,,,,シークレットサイン,0
1417,6010005037626,新規,0,2023-12-13,2023-12-13,一般社団法人人的資本と企業価値向上研究会,,その他の設立登記法人,東京都,千代田区,永田町２丁目１４番２号山王グランドビル５階,,13,101,1000014,,,,,,,2023-12-13,1,,,,,ジンテキシホントキギョウカチコウジョウケンキュウカイ,0
1418,6010101015915,新規,0,2023-12-13,2023-12-13,Ｔｅａｍ‐ＥＣ株式会社,,株式会社,東京都,八王子市,本郷町１０－６ＬＣＢＬＤＧ．,,13,201,1920052,,,,,,,2023-12-13,1,,,,,チームイーシー,0
1419,6010101015923,新規,0,2023-12-13,2023-12-13,株式会社ポラリス,,株式会社,東京都,八王子市,大和田町６丁目２２番１号,,13,201,1920045,,,,,,,2023-12-13,1,,,,,ポラリス,0
1427,6010401179088,新規,0,2023-12-13,2023-12-13,株式会社ｄａｙ１,,株式会社,東京都,港区,海岸１丁目６－１ブリリアタワー浜離宮１０１８号室,,13,103,1050022,,,,,,,2023-12-13,1,,,,,デイワン,0
1428,6010401179096,新規,0,2023-12-13,2023-12-13,株式会社Ｉｋｉｇａｉ,,株式会社,東京都,港区,愛宕２丁目５番１号愛宕グリーンヒルズＭＯＲＩタワー３４階,,13,103,1050002,,,,,,,2023-12-13,1,,,,,イキガイ,0
1429,6010401179105,新規,0,2023-12-13,2023-12-13,株式会社ＰＡＬＳ,,株式会社,東京都,港区,浜松町２丁目９番１号高橋第三ビル５階,00132970,13,103,1050013,,,,,,,2023-12-13,1,,,,,パルス,0
1430,6010401179121,新規,0,2023-12-13,2023-12-13,株式会社メディカルＲＥ,,株式会社,東京都,港区,西新橋３丁目１９番１４号東京建硝ビル２階,,13,103,1050003,,,,,,,2023-12-13,1,,,,,メディカルアールイー,0
1431,6010401179138,新規,0,2023-12-13,2023-12-13,株式会社川島町計画１号,,株式会社,東京都,港区,東麻布３丁目７番３号,,13,103,1060044,,,,,,,2023-12-13,1,,,,,カワシママチケイカクイチゴウ,0
1436,6010501051485,新規,0,2023-12-13,2023-12-13,ｄａｄａｐｅｐｅ株式会社,,株式会社,東京都,台東区,根岸３丁目１番１８－８０６号,,13,106,1100003,,,,,,,2023-12-13,1,,,,,ダダペペ,0
1437,6010501051493,新規,0,2023-12-13,2023-12-13,リジェネレーション株式会社,,株式会社,東京都,台東区,東上野４丁目１７番３号,,13,106,1100015,,,,,,,2023-12-13,1,,,,,リジェネレーション,0
1438,6010501051502,新規,0,2023-12-13,2023-12-13,Ｔｈｙｎｃ　Ｌａｂｓ株式会社,,株式会社,東京都,台東区,浅草橋４丁目１８－８－５０１,,13,106,1110053,,,,,,,2023-12-13,1,,,,,シンクラブズ,0
1440,6010503007246,新規,0,2023-12-13,2023-12-13,合同会社ＣＨ＆Ｐパートナーズ,,合同会社,東京都,台東区,台東３丁目３１番８号岸ビル３階,,13,106,1100016,,,,,,,2023-12-13,1,,,,,シーエイチアンドピーパートナーズ,0
1445,6010703006989,新規,0,2023-12-13,2023-12-13,合同会社りんぎ,,合同会社,東京都,品川区,東五反田１丁目１４－１４北原ビル６階,,13,109,1410022,,,,,,,2023-12-13,1,,,,,リンギ,0
1446,6010801034594,新規,0,2023-12-13,2023-12-13,ｃｏｒｅｚｏ株式会社,,株式会社,東京都,大田区,上池台１丁目３２番５－３０３号,,13,111,1450064,,,,,,,2023-12-13,1,,,,,コレゾ,0
1449,6010903008661,新規,0,2023-12-13,2023-12-13,合同会社プレスト,,合同会社,東京都,世田谷区,奥沢２丁目５番８号ロータス奥沢４０１号室,,13,112,1580083,,,,,,,2023-12-13,1,,,,,プレスト,0
1457,6011001158746,新規,0,2023-12-13,2023-12-13,スリーグッド株式会社,,株式会社,東京都,渋谷区,幡ヶ谷１丁目３０番１号,,13,113,1510072,,,,,,,2023-12-13,1,,,,,スリーグッド,0
1458,6011001158779,新規,0,2023-12-13,2023-12-13,株式会社ＣＨＡＲＭＬＡＮＤ,,株式会社,東京都,渋谷区,神宮前６丁目２３番４号桑野ビル２階,,13,113,1500001,,,,,,,2023-12-13,1,,,,,チャームランド,0
1460,6011003018080,新規,0,2023-12-13,2023-12-13,ミウラエンターテインメント合同会社,,合同会社,東京都,渋谷区,道玄坂１丁目１０番８号渋谷道玄坂東急ビル２Ｆ－Ｃ,,13,113,1500043,,,,,,,2023-12-13,1,,,,,ミウラエンターテインメント,0
1461,6011003018089,新規,0,2023-12-13,2023-12-13,合同会社Ｐｅｔａｒｉ,,合同会社,東京都,渋谷区,渋谷２丁目１９－１５宮益坂ビルディング６０９,,13,113,1500002,,,,,,,2023-12-13,1,,,,,ペタリ,0
1463,6011005010309,新規,0,2023-12-13,2023-12-13,弁護士法人レイスター法律事務所,,その他の設立登記法人,東京都,目黒区,青葉台１丁目２７番１２号サンライトビル７０１,,13,110,1530042,,,,,,,2023-12-13,1,,,,,レイスターホウリツジムショ,0
1467,6011103013824,新規,0,2023-12-13,2023-12-13,Ａｎｔｈｏｎｙ合同会社,,合同会社,東京都,新宿区,四谷２丁目９番地１５東京ユナイテッド綜合事務所内,,13,104,1600004,,,,,,,2023-12-13,1,,,,,アンソニー,0
1468,6011103013840,新規,0,2023-12-13,2023-12-13,合同会社３Ｄ,,合同会社,東京都,新宿区,歌舞伎町１丁目２番１６号第一オスカービル７階,,13,104,1600021,,,,,,,2023-12-13,1,,,,,スリーディー,0
1476,6011303005002,新規,0,2023-12-13,2023-12-13,ジェネラルストラテジーコンサルティング合同会社,,合同会社,東京都,杉並区,高円寺南４丁目１３番５号ライオンズマンション杉並高円寺２０５,,13,115,1660003,,,,,,,2023-12-13,1,,,,,ジェネラルストラテジーコンサルティング,0
1481,6011601027367,新規,0,2023-12-13,2023-12-13,株式会社ｏｎｅ’ｓ　ｈｅａｒｔ,,株式会社,東京都,練馬区,豊玉北５丁目３１番８号,,13,120,1760012,,,,,,,2023-12-13,1,,,,,ワンズハート,0
1493,6020001154853,新規,0,2023-12-13,2023-12-13,株式会社誠勝園,,株式会社,神奈川県,横浜市瀬谷区,本郷２丁目３９番地１９,,14,114,2460015,,,,,,,2023-12-13,1,,,,,セイショウエン,0
1494,6020001154861,新規,0,2023-12-13,2023-12-13,株式会社Ａｃｔ．１,,株式会社,神奈川県,横浜市戸塚区,品濃町５２１番地２,,14,110,2440801,,,,,,,2023-12-13,1,,,,,アクトワン,0
1495,6020001154886,新規,0,2023-12-13,2023-12-13,福與電工株式会社,,株式会社,神奈川県,横浜市都筑区,南山田３丁目３５－１９,,14,118,2240029,,,,,,,2023-12-13,1,,,,,フクヨデンコウ,0
1496,6020001154894,新規,0,2023-12-13,2023-12-13,株式会社Ｐｏｗｅｒ．ｈｏｕｓｅ,,株式会社,神奈川県,横浜市保土ケ谷区,今井町６５１番地３,,14,106,2400035,,,,,,,2023-12-13,1,,,,,パワーハウス,0
1497,6020001154911,新規,0,2023-12-13,2023-12-13,株式会社ＩＩＳＹＯ,,株式会社,神奈川県,横浜市中区,尾上町２丁目２０大和証券横浜ビル３Ｆ,,14,104,2310015,,,,,,,2023-12-13,1,,,,,イッショ,0
1504,6020003025144,新規,0,2023-12-13,2023-12-13,合同会社エルプライム,,合同会社,神奈川県,川崎市中原区,市ノ坪４４９番地３,,14,133,2110016,,,,,,,2023-12-13,1,,,,,エルプライム,0
1505,6020003025169,新規,0,2023-12-13,2023-12-13,合同会社オカモトズ,,合同会社,神奈川県,横浜市泉区,上飯田町２８０２番地１,,14,116,2450018,,,,,,,2023-12-13,1,,,,,オカモトズ,0
1506,6020003025177,新規,0,2023-12-13,2023-12-13,合同会社いえざき,,合同会社,神奈川県,横浜市南区,清水ケ丘１５７番地の２１,,14,105,2320007,,,,,,,2023-12-13,1,,,,,イエザキ,0
1511,6021005012972,新規,0,2023-12-13,2023-12-13,医療法人社団笙音会,,その他の設立登記法人,神奈川県,小田原市,本町１丁目４番４号三宅本町ビル１階２階,,14,206,2500012,,,,,,,2023-12-13,1,,,,,ショウオンカイ,0
1515,6030001157624,新規,0,2023-12-13,2023-12-13,ＴＯＹメディカルサプライ株式会社,,株式会社,埼玉県,さいたま市桜区,栄和４丁目２０番１号,,11,106,3380823,,,,,,,2023-12-13,1,,,,,ティオーワイメデカルサプライ,0
1523,6030003023221,新規,0,2023-12-13,2023-12-13,合同会社Ｇｒｅｅｎ,,合同会社,埼玉県,さいたま市浦和区,常盤１丁目３番３２－１５０１号,,11,107,3300061,,,,,,,2023-12-13,1,,,,,グリーン,0
1524,6030005021495,新規,0,2023-12-13,2023-12-13,ＮＰＯ法人ドラッカー学会,,その他の設立登記法人,埼玉県,行田市,大字前谷３３３番地ものつくり大学内製造棟Ｍ２０３１研究室内,,11,206,3610038,,,,,,,2023-12-13,1,,,,,ドラッカーガッカイ,0
1529,6040001131248,新規,0,2023-12-13,2023-12-13,株式会社ｅ‐ｐｒｉｍｅ,,株式会社,千葉県,柏市,若白毛６１番地１,,12,217,2701444,,,,,,,2023-12-13,1,,,,,イープライム,0
1530,6040001131289,新規,0,2023-12-13,2023-12-13,株式会社宮内産業,,株式会社,千葉県,市川市,田尻９９３番地１,,12,203,2720014,,,,,,,2023-12-13,1,,,,,ミヤウチサンギョウ,0
1531,6040001131306,新規,0,2023-12-13,2023-12-13,株式会社ｃｏｌｏｒｉｅｒ,,株式会社,千葉県,柏市,五條谷１４番地１３,,12,217,2770913,,,,,,,2023-12-13,1,,,,,コロリエ,0
1532,6040001131355,新規,0,2023-12-13,2023-12-13,株式会社ブラストコンサルティング,,株式会社,千葉県,船橋市,葛飾町２丁目３９１番地２アペックスＳ．３０２号室,,12,204,2730032,,,,,,,2023-12-13,1,,,,,ブラストコンサルティング,0
1535,6040003023922,新規,0,2023-12-13,2023-12-13,はぴとも合同会社,,合同会社,千葉県,習志野市,秋津３丁目２番９－１,,12,216,2750025,,,,,,,2023-12-13,1,,,,,ハピトモ,0
1540,6050001053912,新規,0,2023-12-13,2023-12-13,株式会社ハダオジ,,株式会社,茨城県,かすみがうら市,下稲吉１３６３番地１,,08,230,3150052,,,,,,,2023-12-13,1,,,,,ハダオジ,0
1541,6050001053929,新規,0,2023-12-13,2023-12-13,遠東株式会社,,株式会社,茨城県,古河市,大和田字溜下１７６７番地２,,08,204,3060111,,,,,,,2023-12-13,1,,,,,エントウ,0
1542,6050001053945,新規,0,2023-12-13,2023-12-13,株式会社ＵＭＩ,,株式会社,茨城県,かすみがうら市,田伏３７８番地,,08,230,3000202,,,,,,,2023-12-13,1,,,,,ユーエムアイ,0
1544,6050003008006,新規,0,2023-12-13,2023-12-13,合同会社ドリームタクティクス,,合同会社,茨城県,牛久市,ひたち野東３丁目３２番地４,,08,219,3001207,,,,,,,2023-12-13,1,,,,,ドリームタクティクス,0
1555,6090001018449,新規,0,2023-12-13,2023-12-13,株式会社華洋金属貿易,,株式会社,山梨県,韮崎市,龍岡町下條東割１４６６番地,,19,207,4070032,,,,,,,2023-12-13,1,,,,,カヨウキンゾクボウエキ,0
1556,6100001037050,新規,0,2023-12-13,2023-12-13,株式会社コードエー,,株式会社,長野県,上田市,越戸８８番地１２４,,20,203,3861545,,,,,,,2023-12-13,1,,,,,コードエー,0
1561,6100003007308,新規,0,2023-12-13,2023-12-13,Ｒ＆Ｒ合同会社,,合同会社,長野県,岡谷市,長地梨久保２丁目７番１８－２０２号市住中村Ａ２,,20,204,3940088,,,,,,,2023-12-13,1,,,,,アールアンドアール,0
1562,6110001038031,新規,0,2023-12-13,2023-12-13,株式会社まちづくり魚沼,,株式会社,新潟県,魚沼市,堀之内１３０番地,,15,225,9497413,,,,,,,2023-12-13,1,,,,,マチヅクリウオヌマ,0
1575,6120001260468,新規,0,2023-12-13,2023-12-13,株式会社エヌアイエスグループ,,株式会社,大阪府,守口市,大久保町４丁目９番３－４０２号,,27,209,5700012,,,,,,,2023-12-13,1,,,,,エヌアイエスグループ,0
1576,6120001260526,新規,0,2023-12-13,2023-12-13,地球村株式会社,,株式会社,大阪府,大阪市東住吉区,公園南矢田４丁目１６－１２－１０３,,27,121,5460024,,,,,,,2023-12-13,1,,,,,チキュウムラ,0
1577,6120001260559,新規,0,2023-12-13,2023-12-13,株式会社Ｖｉｖｅ,,株式会社,大阪府,大阪市平野区,平野東４丁目５番２２号,,27,126,5470043,,,,,,,2023-12-13,1,,,,,ヴィヴ,0
1578,6120001260583,新規,0,2023-12-13,2023-12-13,株式会社ＳＪ　Ｄｅｓｉｇｎ,,株式会社,大阪府,大阪市東住吉区,杭全２丁目１番１５号,,27,121,5460002,,,,,,,2023-12-13,1,,,,,エスジェイデザイン,0
1579,6120001260658,新規,0,2023-12-13,2023-12-13,株式会社キャパウェイ,,株式会社,大阪府,大阪市中央区,久太郎町４丁目１番３号大阪センタービル６Ｆ－２７６,,27,128,5410056,,,,,,,2023-12-13,1,,,,,キャパウェイ,0
1583,6120003025522,新規,0,2023-12-13,2023-12-13,合同会社Ｆｌａｔｚ,,合同会社,大阪府,大阪市東住吉区,西今川１丁目１５－１９コーポ西今川３０２号,,27,121,5460042,,,,,,,2023-12-13,1,,,,,フラッツ,0
1588,6120101068670,新規,0,2023-12-13,2023-12-13,株式会社ＯＲＩＥＮＳ,,株式会社,大阪府,和泉市,黒鳥町３丁目１１番３８号,,27,219,5940022,,,,,,,2023-12-13,1,,,,,オリエンス,0
1589,6120101068687,新規,0,2023-12-13,2023-12-13,株式会社松栄クリーン,,株式会社,大阪府,松原市,阿保５丁目１９番１６号,,27,217,5800043,,,,,,,2023-12-13,1,,,,,ショウエイクリーン,0
1590,6120103005580,新規,0,2023-12-13,2023-12-13,合同会社ＳＰＹサービス,,合同会社,大阪府,堺市西区,津久野町３丁１０－２１レジデンス津久野パート２（２０１）,,27,144,5938322,,,,,,,2023-12-13,1,,,,,エスピーワイサービス,0
1592,6120901048467,新規,0,2023-12-13,2023-12-13,株式会社アンプルスタッフ,,株式会社,大阪府,豊中市,北桜塚３丁目８－２６－３０４,,27,203,5600022,,,,,,,2023-12-13,1,,,,,アンプルスタッフ,0
1594,6122001037664,新規,0,2023-12-13,2023-12-13,株式会社タスク,,株式会社,大阪府,東大阪市,西石切町１丁目７番１１－２０６号,,27,227,5798013,,,,,,,2023-12-13,1,,,,,タスク,0
1597,6130001075915,新規,0,2023-12-13,2023-12-13,株式会社Ｍｏｄｅｒｎ,,株式会社,京都府,京田辺市,山手南２丁目１番地１,,26,211,6100354,,,,,,,2023-12-13,1,,,,,モダン,0
1598,6130003009193,新規,0,2023-12-13,2023-12-13,合同会社ｓｅｎｓｅ,,合同会社,京都府,京都市中京区,姉小路通寺町西入ル姉大東町５４７番地２,,26,104,6040000,,,,,,,2023-12-13,1,,,,,センス,0
1607,6140001132673,新規,0,2023-12-13,2023-12-13,株式会社ライズユー,,株式会社,兵庫県,三木市,別所町小林６５７番地５１,,28,215,6730434,,,,,,,2023-12-13,1,,,,,ライズユー,0
1608,6140001132681,新規,0,2023-12-13,2023-12-13,株式会社高岡不動産,00132986,株式会社,兵庫県,尼崎市,杭瀬本町１丁目４番１１号,,28,202,6600814,,,,,,,2023-12-13,1,,,,,タカオカフドウサン,0
1609,6140001132698,新規,0,2023-12-13,2023-12-13,株式会社リフージュ,,株式会社,兵庫県,朝来市,和田山町竹田５２１,,28,225,6695252,,,,,,,2023-12-13,1,,,,,リフージュ,0
1610,6140001132707,新規,0,2023-12-13,2023-12-13,ＧＯＬＤＥＮ　ＴＲＥＥ株式会社,,株式会社,兵庫県,神戸市灘区,深田町３丁目１番１６－３０２号,,28,102,6570038,,,,,,,2023-12-13,1,,,,,ゴールデンツリー,0
1611,6140003019910,新規,0,2023-12-13,2023-12-13,ハマムラ管理合同会社,,合同会社,兵庫県,神戸市東灘区,御影１丁目１１番１２号,,28,101,6580047,,,,,,,2023-12-13,1,,,,,ハマムラカンリ,0
1612,6150001026940,新規,0,2023-12-13,2023-12-13,株式会社ワンバース,,株式会社,奈良県,橿原市,東坊城町９４４番地,,29,205,6340835,,,,,,,2023-12-13,1,,,,,ワンバース,0
1614,6160001025561,新規,0,2023-12-13,2023-12-13,株式会社スミテック,,株式会社,滋賀県,東近江市,林田町１２２６番地１０,,25,213,5270051,,,,,,,2023-12-13,1,,,,,スミテック,0
1616,6160005011252,新規,0,2023-12-13,2023-12-13,一般社団法人グッドフィールズ,,その他の設立登記法人,滋賀県,大津市,穴太１丁目１３－３３,,25,201,5200114,,,,,,,2023-12-13,1,,,,,グッドフィールズ,0
1619,6180001159317,新規,0,2023-12-13,2023-12-13,朧月株式会社,,株式会社,愛知県,名古屋市中村区,藤江町３丁目５５番地の４,,23,105,4530045,,,,,,,2023-12-13,1,,,,,オボロヅキ,0
1622,6180003026093,新規,0,2023-12-13,2023-12-13,リライヤス合同会社,,合同会社,愛知県,一宮市,大江３丁目１２番２１号,,23,203,4910851,,,,,,,2023-12-13,1,,,,,リライヤス,0
1623,6180005020458,新規,0,2023-12-13,2023-12-13,一般社団法人名古屋国際藝術祭,,その他の設立登記法人,愛知県,名古屋市南区,西桜町８５番地メイツ桜台７００号,,23,112,4570039,,,,,,,2023-12-13,1,,,,,ナゴヤコクサイキゲイジュツサイ,0
1624,6190001030955,新規,0,2023-12-13,2023-12-13,株式会社ｉｎｓｔａｎｔ,,株式会社,三重県,四日市市,新正３丁目１５番１７号,,24,202,5100064,,,,,,,2023-12-13,1,,,,,インスタント,0
1625,6190003004536,新規,0,2023-12-13,2023-12-13,Ｂａｍｂｉｎａｃｃｉｏ合同会社,,合同会社,三重県,名張市,上八町１４８６－１０,,24,208,5180710,,,,,,,2023-12-13,1,,,,,バンビナッチョ,0
1626,6200001041975,新規,0,2023-12-13,2023-12-13,株式会社ＭＭＧコーポレーション,,株式会社,岐阜県,岐阜市,長良古津１３６番地１,,21,201,5020011,,,,,,,2023-12-13,1,,,,,エムエムジーコーポレション,0
1627,6200001041983,新規,0,2023-12-13,2023-12-13,株式会社ＯＺ,,株式会社,岐阜県,大垣市,島町１９２番地１,,21,202,5030996,,,,,,,2023-12-13,1,,,,,オズ,0
1633,6220001025729,新規,0,2023-12-13,2023-12-13,株式会社四王寺ベース,,株式会社,石川県,金沢市,堅田町ヘ４０番地２,,17,201,9200164,,,,,,,2023-12-13,1,,,,,シオウジベース,0
1634,6230003002114,新規,0,2023-12-13,2023-12-13,合同会社ＹＥＳ,,合同会社,富山県,富山市,向川原町４番８号,,16,201,9300041,,,,,,,2023-12-13,1,,,,,イエス,0
1636,6240001062522,新規,0,2023-12-13,2023-12-13,株式会社Ａｒｋ,,株式会社,広島県,呉市,音戸町波多見６丁目１０番１０号,,34,202,7371207,,,,,,,2023-12-13,1,,,,,アーク,0
1637,6240001062539,新規,0,2023-12-13,2023-12-13,株式会社ｅＢｅｎｅｆｉｔ,,株式会社,広島県,広島市南区,段原２丁目１３番５号,,34,103,7320811,,,,,,,2023-12-13,1,,,,,イーベネフィット,0
1640,6240003006452,新規,0,2023-12-13,2023-12-13,合同会社勇次,,合同会社,広島県,安芸郡府中町,青崎東１６番１８－１号,,34,302,7350015,,,,,,,2023-12-13,1,,,,,ユウジ,0
1643,6260001038545,新規,0,2023-12-13,2023-12-13,株式会社ＡＹ’Ｓ,,株式会社,岡山県,倉敷市,玉島阿賀崎２丁目３番５０号,,33,202,7138121,,,,,,,2023-12-13,1,,,,,アワイズ,0
1659,6290001104006,新規,0,2023-12-13,2023-12-13,株式会社順翔,,株式会社,福岡県,福岡市東区,唐原５丁目３－１０セレクトブルー九産大前,,40,131,8130001,,,,,,,2023-12-13,1,,,,,ジュンショウ,0
1660,6290001104022,新規,0,2023-12-13,2023-12-13,株式会社リベルタパートナーズ,,株式会社,福岡県,福岡市早良区,小田部７丁目１５－２９,,40,137,8140032,,,,,,,2023-12-13,1,,,,,リベルタパートナーズ,0
1661,6290001104039,新規,0,2023-12-13,2023-12-13,株式会社ＢＳＥ,,株式会社,福岡県,福岡市中央区,大手門２丁目１番１－１５０１号,,40,133,8100074,,,,,,,2023-12-13,1,,,,,ビーエスイー,0
1667,6290801030137,新規,0,2023-12-13,2023-12-13,株式会社Ｔｒａｎｓｒｏａｄ,,株式会社,福岡県,直方市,大字中泉９５７番地５,,40,204,8220011,,,,,,,2023-12-13,1,,,,,トランスロード,0
1670,6330001031550,新規,0,2023-12-13,2023-12-13,株式会社リブアップ,,株式会社,熊本県,熊本市南区,御幸笛田８丁目９番１９号,,43,104,8614172,,,,,,,2023-12-13,1,,,,,リブアップ,0
1677,6360001032926,新規,0,2023-12-13,2023-12-13,パワーリフト株式会社,,株式会社,沖縄県,那覇市,天久１丁目２２番２７号,,47,201,9000005,,,,,,,2023-12-13,1,,,,,パワーリフト,0
1678,6360003013544,新規,0,2023-12-13,2023-12-13,合同会社ａｎ　Ｃｒｅａｒｅ,,合同会社,沖縄県,糸満市,字束里３１０番地の１,,47,210,9010353,,,,,,,2023-12-13,1,,,,,アンクレアーレ,0
1681,6370001050712,新規,0,2023-12-13,2023-12-13,株式会社Ｆｕｊｉｙｕ,,株式会社,宮城県,大崎市,古川深沼字上組１３番地,,04,215,9896121,,,,,,,2023-12-13,1,,,,,フジユウ,0
1682,6370001050729,新規,0,2023-12-13,2023-12-13,株式会社ＫＯＫＯＣＨＩ,,株式会社,宮城県,仙台市泉区,黒松２丁目２８番１号,,04,105,9818006,,,,,,,2023-12-13,1,,,,,ココチ,0
1684,6370005010720,新規,0,2023-12-13,2023-12-13,医療法人もくせい会,,その他の設立登記法人,宮城県,名取市,増田１丁目９－２１,,04,207,9811224,,,,,,,2023-12-13,1,,,,,モクセイカイ,0
1686,6380001034193,新規,0,2023-12-13,2023-12-13,株式会社ＴＥＲＲＡＩＤ,,株式会社,福島県,いわき市,高倉町鶴巻５０番地,,07,204,9748204,,,,,,,2023-12-13,1,,,,,テライド,0
1700,6440001009362,新規,0,2023-12-13,2023-12-13,株式会社クレアス,,株式会社,北海道,函館市,神山３丁目５０番２３号ケリー・パーク２０２,,01,202,0410832,,,,,,,2023-12-13,1,,,,,クレアス,0
1708,6700150122724,新規,0,2023-12-13,2023-12-13,ＲＯＮＧＣＨＥＮＧＢＡＩＢＡＮＧＤＩＡＮＺＩ　ＹＯＵＸＩＡＮＧＯＮＧＳＩ,,外国会社等,,,,,,,,２０８　Ｚｏｕｔａｉ　Ｓｏｕｔｈ　Ｓｔｒｅｅｔ　Ｒｏｎｇｃｈｅｎｇ　Ｃｉｔｙ,,,,,,2023-12-13,1,,,,,ロンチェンバイバンデンシユウゲンコウシ,0
1709,6700150122732,新規,0,2023-12-13,2023-12-13,ＳｈｅｎｚｈｅｎｓｈｉＱｉｋｕａｎｇｚｉＫｅｊｉ　ＹｏｕＸｉａｎＧｏｎｇｓｉ,,外国会社等,,,,,,,,Ａ１７－６ＢＸｉｎｇｈｅＷＯＲＬＤ　Ｎｏ．１ＹａｂａｏＲｏａｄ　ＮａｎｋｅｎｇＣｏｍｍｕｎｉｔｙ　ＢａｎｔｉａｎＳｔｒｅｅｔ　ＬｏｎｇｇａｎｇＤｉｓｔｒｉｃｔ　Ｓｈｅｎｚｈｅｎ　５１８０００　ＣＮ,,,,,,2023-12-13,1,,,,,シンセンシチクァンジカギヨウシェンゴンスー,0
1716,7010001240686,新規,0,2023-12-13,2023-12-13,キャピタルフェローズ株式会社,,株式会社,東京都,中央区,日本橋室町１丁目１１番１２号,,13,102,1030022,,,,,,,2023-12-13,1,,,,,キャピタルフェローズ,0
1717,7010001240728,新規,0,2023-12-13,2023-12-13,株式会社メトロポリスネオ,,株式会社,東京都,千代田区,神田駿河台２丁目９番地３３,,13,101,1010062,,,,,,,2023-12-13,1,,,,,メトロポリスネオ,0
1718,7010001240736,新規,0,2023-12-13,2023-12-13,国吉商事株式会社,,株式会社,東京都,中央区,日本橋堀留町１丁目３番１６号－０２０４,,13,102,1030012,,,,,,,2023-12-13,1,,,,,クニヨシショウジ,0
1719,7010001240760,新規,0,2023-12-13,2023-12-13,株式会社仲吉,,株式会社,東京都,中央区,銀座１丁目２２－１１銀座大竹ビジデンス２Ｆ,,13,102,1040061,,,,,,,2023-12-13,1,,,,,ナカヨシ,0
1720,7010001240777,新規,0,2023-12-13,2023-12-13,株式会社パンデミック,,株式会社,東京都,千代田区,外神田４丁目２番６号,,13,101,1010021,,,,,,,2023-12-13,1,,,,,パンデミック,0
1721,7010001240785,新規,0,2023-12-13,2023-12-13,Ｉｎｂｏｕｎｄ　Ｘ株式会社,,株式会社,東京都,中央区,銀座１丁目１２番４号Ｎ＆Ｅ、ＢＬＤ．６Ｆ,,13,102,1040061,,,,,,,2023-12-13,1,,,,,インバウンドエックス,0
1722,7010001240793,新規,0,2023-12-13,2023-12-13,友来コンサルティング株式会社,,株式会社,東京都,中央区,銀座１丁目１２番４号Ｎ＆Ｅ・ＢＬＤ．７階,,13,102,1040061,,,,,,,2023-12-13,1,,,,,ユウライコンサルティング,0
1728,7010003042412,新規,0,2023-12-13,2023-12-13,ＭＬ神谷町２合同会社,,合同会社,東京都,千代田区,神田小川町３丁目２６番８号神田小川町三丁目ビル６階,,13,101,1010052,,,,,,,2023-12-13,1,,,,,エムエルカミヤチョウツー,0
1729,7010003042453,新規,0,2023-12-13,2023-12-13,ＴＨＲＥＡＤ合同会社,,合同会社,東京都,中央区,新川２丁目２１番１３－５０４号,,13,102,1040033,,,,,,,2023-12-13,1,,,,,スレッド,0
1731,7010101015914,新規,0,2023-12-13,2023-12-13,白鳥影像株式会社,,株式会社,東京都,八王子市,中野山王２丁目１２－８マルシンハイツ２－Ａ,,13,201,1920042,,,,,,,2023-12-13,1,,,,,シラトリエイゾウ,0
1732,7010101015922,新規,0,2023-12-13,2023-12-13,株式会社クリーンアップサービス,,株式会社,東京都,八王子市,長房町１４２６番地１４,,13,201,1930824,,,,,,,2023-12-13,1,,,,,クリーンアップサービス,0
1736,7010401179079,新規,0,2023-12-13,2023-12-13,ナンバーエム株式会社,,株式会社,東京都,港区,芝大門２丁目６番６号ＶＯＲＴ芝大門５Ｆ,,13,103,1050012,,,,,,,2023-12-13,1,,,,,ナンバーエム,0
1737,7010401179104,新規,0,2023-12-13,2023-12-13,Ｌａｎｄｆｏｒｔ株式会社,,株式会社,東京都,港区,東麻布１丁目１０番５号４０１,,13,103,1060044,,,,,,,2023-12-13,1,,,,,ランドフォート,0
1738,7010401179129,新規,0,2023-12-13,2023-12-13,Ａｃｃｅｒｔｉｆｙ　Ｊａｐａｎ株式会社,,株式会社,東京都,港区,虎ノ門４丁目１番１号,,13,103,1050001,,,,,,,2023-12-13,1,,,,,アサーティファイジャパン,0
1739,7010401179137,新規,0,2023-12-13,2023-12-13,Ｃ‐Ｓｅｎｓｅ株式会社,,株式会社,東京都,港区,麻布十番１丁目８－１１・５Ｆ,,13,103,1060045,,,,,,,2023-12-13,1,,,,,シーセンス,0
1746,7010503007253,新規,0,2023-12-13,2023-12-13,合同会社アセットアジャストメント,,合同会社,東京都,台東区,根岸１丁目１－３５配島ビル１階,,13,106,1100003,,,,,,,2023-12-13,1,,,,,アセットアジャストメント,0
1749,7010701045253,新規,0,2023-12-13,2023-12-13,９９９株式会社,,株式会社,東京都,品川区,西中延１丁目８番１７号,,13,109,1420054,,,,,,,2023-12-13,1,,,,,スリーナイン,0
1752,7010903008660,新規,0,2023-12-13,2023-12-13,Ｈａｎｅ　Ｌａｂ合同会社,,合同会社,東京都,世田谷区,松原５丁目３２番１１号,,13,112,1560043,,,,,,,2023-12-13,1,,,,,ハネラボ,0
1753,7011001158786,新規,0,2023-12-13,2023-12-13,株式会社ＯＬＩ,,株式会社,東京都,渋谷区,松濤１丁目２９番１１フェリーチェ松濤ＩＩ,00132976,13,113,1500046,,,,,,,2023-12-13,1,,,,,オリ,0
1755,7011101105465,新規,0,2023-12-13,2023-12-13,株式会社エンター,,株式会社,東京都,新宿区,高田馬場３丁目１番５－１０１号,,13,104,1690075,,,,,,,2023-12-13,1,,,,,エンター,0
1757,7011201025101,新規,0,2023-12-13,2023-12-13,株式会社ＴＤＣ,,株式会社,東京都,中野区,中野５丁目２６番８－３１２号,,13,114,1640001,,,,,,,2023-12-13,1,,,,,ティーディーシー,0
1771,7011603004165,新規,0,2023-12-13,2023-12-13,合同会社ＳＡｒ,,合同会社,東京都,練馬区,南大泉６丁目２１－１１,,13,120,1780064,,,,,,,2023-12-13,1,,,,,サァ,0
1774,7011701026846,新規,0,2023-12-13,2023-12-13,株式会社比嘉商事,,株式会社,東京都,江戸川区,東葛西５丁目１２番１５号,,13,123,1340084,,,,,,,2023-12-13,1,,,,,ヒガショウジ,0
1777,7012403006319,新規,0,2023-12-13,2023-12-13,合同会社ＫＤＸ,,合同会社,東京都,多摩市,関戸１丁目３番地の１－４０３,,13,224,2060011,,,,,,,2023-12-13,1,,,,,ケーディーエックス,0
1783,7013301051720,新規,0,2023-12-13,2023-12-13,株式会社ヒロ・コーポレーション,,株式会社,東京都,豊島区,西池袋４丁目３６番１８号ライズ栗本３０２号,,13,116,1710021,,,,,,,2023-12-13,1,,,,,ヒロコーポレーション,0
1784,7013303006912,新規,0,2023-12-13,2023-12-13,合同会社ＲＦＩＪ,,合同会社,東京都,豊島区,西池袋５丁目１８番１１号第３愛和ビル５階,,13,116,1710021,,,,,,,2023-12-13,1,,,,,アールエフアイジェイ,0
1787,7020001154877,新規,0,2023-12-13,2023-12-13,彰明商事株式会社,,株式会社,神奈川県,横浜市緑区,東本郷６丁目２２番１号,,14,113,2260002,,,,,,,2023-12-13,1,,,,,ショウメイショウジ,0
1791,7020003025143,新規,0,2023-12-13,2023-12-13,合同会社ツルバミ,,合同会社,神奈川県,横浜市神奈川区,金港町５番地１４クアドリフォリオ８階,,14,102,2210056,,,,,,,2023-12-13,1,,,,,ツルバミ,0
1792,7020003025176,新規,0,2023-12-13,2023-12-13,合同会社Ｃｒｅａｔｅ　Ｓｐａｃｅ,,合同会社,神奈川県,横浜市西区,北幸２丁目１０番地４８むつみビル３Ｆ,,14,103,2200004,,,,,,,2023-12-13,1,,,,,クリエイトスペース,0
1793,7020003025184,新規,0,2023-12-13,2023-12-13,合同会社土橋,,合同会社,神奈川県,横浜市戸塚区,品濃町１８０３番地２７ヴィルヌーブガーデンズ東戸塚Ａ－４１０号,00132974,14,110,2440801,,,,,,,2023-12-13,1,,,,,ドバシ,0
1798,7021001080956,新規,0,2023-12-13,2023-12-13,株式会社陽久,,株式会社,神奈川県,秦野市,南矢名４６６番地,,14,211,2570003,,,,,,,2023-12-13,1,,,,,ハルク,0
1809,7030001157623,新規,0,2023-12-13,2023-12-13,イーチワンスター株式会社,,株式会社,埼玉県,入間郡毛呂山町,大字毛呂本郷１５５５番地５,,11,326,3500451,,,,,,,2023-12-13,1,,,,,イーチワンスター,0
1810,7030001157664,新規,0,2023-12-13,2023-12-13,株式会社コーエーファーム,,株式会社,埼玉県,富士見市,針ケ谷１丁目１２番地１－２０２,,11,235,3540017,,,,,,,2023-12-13,1,,,,,コーエーファーム,0
1811,7030001157706,新規,0,2023-12-13,2023-12-13,株式会社ワイズ,,株式会社,埼玉県,川口市,東領家２丁目７番１２号,,11,203,3320003,,,,,,,2023-12-13,1,,,,,ワイズ,0
1817,7030003023195,新規,0,2023-12-13,2023-12-13,合同会社Ｔｅａｍ　ＨＥＮＳＨＩＮ,,合同会社,埼玉県,北葛飾郡杉戸町,大字本郷９５６－５エーワンレジデンス１０１,,11,464,3450023,,,,,,,2023-12-13,1,,,,,チームヘンシン,0
1818,7030003023220,新規,0,2023-12-13,2023-12-13,ＹＰラボ合同会社,,合同会社,埼玉県,朝霞市,栄町４丁目５番１６号,,11,227,3510012,,,,,,,2023-12-13,1,,,,,ワイピーラボ,0
1819,7030003023229,新規,0,2023-12-13,2023-12-13,合同会社ＴＭＣｌａｙ,,合同会社,埼玉県,三郷市,中央３丁目４１番地１－４０５号,,11,237,3410038,,,,,,,2023-12-13,1,,,,,ティーエムクレイ,0
1826,7040001131313,新規,0,2023-12-13,2023-12-13,株式会社ディジタルファクトリーシステム,,株式会社,千葉県,千葉市若葉区,多部田町７５５番地５,,12,104,2650066,,,,,,,2023-12-13,1,,,,,ディジタルファクトリーシステム,0
1827,7040001131354,新規,0,2023-12-13,2023-12-13,株式会社ＬＯＹ‐ｔｈ,,株式会社,千葉県,流山市,野々下３丁目７５５番６号,,12,220,2700135,,,,,,,2023-12-13,1,,,,,ロイス,0
1828,7040001131370,新規,0,2023-12-13,2023-12-13,株式会社Ｍａｌａｅ,,株式会社,千葉県,市川市,八幡２丁目１６番１５号,,12,203,2720021,,,,,,,2023-12-13,1,,,,,マラエ,0
1837,7050001053903,新規,0,2023-12-13,2023-12-13,ＲＯＣＡＮＡ　ＥＤＵ株式会社,,株式会社,茨城県,取手市,東４丁目２番１４号,,08,217,3020005,,,,,,,2023-12-13,1,,,,,ローチャナエジュ,0
1838,7050001053936,新規,0,2023-12-13,2023-12-13,ＢＬＵＥＬＩＮＥ　ＴＲＡＤＩＮＧ株式会社,,株式会社,茨城県,筑西市,藤ケ谷２０９１番地ロマ４号,,08,227,3080112,,,,,,,2023-12-13,1,,,,,ブルーライントレーディング,0
1839,7050001053944,新規,0,2023-12-13,2023-12-13,Ｚ　ＣＲＥＡＴＩＶＥ　ＯＮＥ株式会社,,株式会社,茨城県,土浦市,木田余４８４８番地２,,08,203,3000026,,,,,,,2023-12-13,1,,,,,ゼットクリエイティブワン,0
1840,7050001053960,新規,0,2023-12-13,2023-12-13,株式会社ＫＳ３,,株式会社,茨城県,神栖市,神栖１丁目２番２０号,,08,232,3140143,,,,,,,2023-12-13,1,,,,,ケイエススリー,0
1846,7050003008005,新規,0,2023-12-13,2023-12-13,合同会社ＳＡＲＡＮＤ,,合同会社,茨城県,取手市,配松３７２番地７,,08,217,3001541,,,,,,,2023-12-13,1,,,,,サランド,0
1850,7070001041170,新規,0,2023-12-13,2023-12-13,株式会社Ｃｒｅｅｄ,,株式会社,群馬県,伊勢崎市,間野谷町１１６７番地,,10,204,3792201,,,,,,,2023-12-13,1,,,,,クリード,0
1851,7070001041187,新規,0,2023-12-13,2023-12-13,十王商事株式会社,,株式会社,群馬県,伊勢崎市,平和町１４番５５号,,10,204,3720041,,,,,,,2023-12-13,1,,,,,ジュウオウショウジ,0
1860,7110001038030,新規,0,2023-12-13,2023-12-13,株式会社ＶＲＥＤＥ,,株式会社,新潟県,新潟市中央区,関屋松波町１丁目２番地２,,15,103,9518161,,,,,,,2023-12-13,1,,,,,ヴレーデゥ,0
1867,7120001260558,新規,0,2023-12-13,2023-12-13,株式会社サードイアーコーポレーション,,株式会社,大阪府,大阪市中央区,久太郎町１丁目７番１１－２５０２号,,27,128,5410056,,,,,,,2023-12-13,1,,,,,サードイアーコーポレーション,0
1868,7120001260574,新規,0,2023-12-13,2023-12-13,こと和ひと株式会社,,株式会社,大阪府,大阪市北区,芝田２丁目１番１８号西阪急ビル１Ｆ,,27,127,5300012,,,,,,,2023-12-13,1,,,,,コトワヒト,0
1869,7120001260582,新規,0,2023-12-13,2023-12-13,Ｆａｉｒｆｉｅｌｄ株式会社,,株式会社,大阪府,大阪市東淀川区,豊里７丁目２４番２２号,,27,114,5330013,,,,,,,2023-12-13,1,,,,,フェアフィールド,0
1870,7120001260590,新規,0,2023-12-13,2023-12-13,ビンビド株式会社,,株式会社,大阪府,大阪市中央区,玉造２丁目２１番１７号８０１,,27,128,5400004,,,,,,,2023-12-13,1,,,,,ビンビド,0
1871,7120001260624,新規,0,2023-12-13,2023-12-13,株式会社ゼラノス,,株式会社,大阪府,大阪市城東区,中央１丁目８番２０号シャトー中央１０１,,27,118,5360005,,,,,,,2023-12-13,1,,,,,ゼラノス,0
1872,7120001260632,新規,0,2023-12-13,2023-12-13,株式会社ｓｏｉ,,株式会社,大阪府,大阪市北区,太融寺町４番２０号すてらめいとビル７階,,27,127,5300051,,,,,,,2023-12-13,1,,,,,ソイ,0
1873,7120001260640,新規,0,2023-12-13,2023-12-13,株式会社孝清,,株式会社,大阪府,大阪市城東区,鴫野西２丁目１８番７号,,27,118,5360014,,,,,,,2023-12-13,1,,,,,タカキヨ,0
1874,7120001260649,新規,0,2023-12-13,2023-12-13,次世代ＡＩ教育株式会社,,株式会社,大阪府,大阪市中央区,南船場２丁目７番１３号日宝船場中央ビル５０４号,,27,128,5420081,,,,,,,2023-12-13,1,,,,,ジセダイエーアイキョウイク,0
1875,7120001260673,新規,0,2023-12-13,2023-12-13,株式会社ＣＨＩＫＡ,,株式会社,大阪府,大阪市北区,本庄西１丁目１番７－３３０９号,,27,127,5310073,,,,,,,2023-12-13,1,,,,,チカ,0
1879,7120003025488,新規,0,2023-12-13,2023-12-13,ＢＴＲ新材料日本合同会社,,合同会社,大阪府,大阪市淀川区,宮原４丁目２－１０,,27,123,5320003,,,,,,,2023-12-13,1,,,,,ビーティーアールシンザイリョウニホン,0
1880,7120003025496,新規,0,2023-12-13,2023-12-13,合同会社ジョイプレックス,,合同会社,大阪府,大阪市東淀川区,下新庄３丁目１１番１５－Ｃ７１５号,,27,114,5330021,,,,,,,2023-12-13,1,,,,,ジョイプレックス,0
1885,7120101068678,新規,0,2023-12-13,2023-12-13,株式会社Ｈｏｌｄｉｎｇｓ　ＩＪＫ,,株式会社,大阪府,堺市美原区,木材通２丁目２番８７号,,27,147,5870042,,,,,,,2023-12-13,1,,,,,ホールディングスアイジェイケイ,0
1886,7120101068686,新規,0,2023-12-13,2023-12-13,株式会社モビーステップ,,株式会社,大阪府,堺市中区,土師町４丁５番１－１０５号,,27,142,5998238,,,,,,,2023-12-13,1,,,,,モビーステップ,0
1887,7120101068694,新規,0,2023-12-13,2023-12-13,株式会社Ｌｉｎｋｓ,,株式会社,大阪府,岸和田市,畑町２丁目１番２９号,,27,202,5960831,,,,,,,2023-12-13,1,,,,,リンクス,0
1894,7120901048466,新規,0,2023-12-13,2023-12-13,株式会社エヌアールノット,,株式会社,大阪府,箕面市,外院２丁目５番１３号,,27,220,5620026,,,,,,,2023-12-13,1,,,,,エヌアールノット,0
1895,7120901048482,新規,0,2023-12-13,2023-12-13,株式会社ＭＡＲＳ,,株式会社,大阪府,吹田市,古江台３丁目１番３号ロイヤルコート千里古江台３０６,,27,205,5650874,,,,,,,2023-12-13,1,,,,,マーズ,0
1896,7120903004954,新規,0,2023-12-13,2023-12-13,Ｕ１合同会社,,合同会社,大阪府,摂津市,一津屋１丁目２１番１９号,,27,224,5660043,,,,,,,2023-12-13,1,,,,,ユウワン,0
1899,7122001037647,新規,0,2023-12-13,2023-12-13,大西コーポレーション株式会社,,株式会社,大阪府,八尾市,八尾木東３丁目３７番地の１７,,27,212,5810028,,,,,,,2023-12-13,1,,,,,オオニシコーポレーション,0
1900,7122003002748,新規,0,2023-12-13,2023-12-13,合同会社エヌワイ,,合同会社,大阪府,東大阪市,六万寺町１丁目５－４０,,27,227,5798061,,,,,,,2023-12-13,1,,,,,エヌワイ,0
1905,7130001075897,新規,0,2023-12-13,2023-12-13,株式会社エイタン,,株式会社,京都府,京都市下京区,松原通烏丸西入ル玉津島町２９４番地コモンルーム四条烏丸２Ｆ,,26,106,6000000,,,,,,,2023-12-13,1,,,,,エイタン,0
1906,7130001075922,新規,0,2023-12-13,2023-12-13,株式会社レイルケア,,株式会社,京都府,京都市伏見区,深草柴田屋敷町６番地４アクシアコート伏見,,26,109,6128432,,,,,,,2023-12-13,1,,,,,レイルケア,0
1910,7130003009069,新規,0,2023-12-13,2023-12-13,宝仙合同会社,,合同会社,京都府,京都市伏見区,小栗栖中山田町７１番地府営住宅小栗栖西団地２２－４０２,,26,109,6011463,,,,,,,2023-12-13,1,,,,,ホウセン,0
1920,7140001132672,新規,0,2023-12-13,2023-12-13,サイナスホールディングス株式会社,,株式会社,兵庫県,神戸市灘区,永手町５丁目２番１４号,,28,102,6570027,,,,,,,2023-12-13,1,,,,,サイナスホールディングス,0
1921,7140001132689,新規,0,2023-12-13,2023-12-13,株式会社謳歌,,株式会社,兵庫県,姫路市,駅前町２２６,,28,201,6700927,,,,,,,2023-12-13,1,,,,,オウカ,0
1922,7140001132706,新規,0,2023-12-13,2023-12-13,株式会社ＯＮＳＴＡＧＥ,,株式会社,兵庫県,三田市,ゆりのき台４丁目２０番地７０,,28,219,6691324,,,,,,,2023-12-13,1,,,,,,0
1925,7140003019918,新規,0,2023-12-13,2023-12-13,合同会社ＳＡＪＩＨＡＵＳ,,合同会社,兵庫県,丹波市,青垣町中佐治１８９番地２,,28,223,6693834,,,,,,,2023-12-13,1,,,,,サジハウス,0
1927,7160001025560,新規,0,2023-12-13,2023-12-13,クラージュデザイン株式会社,,株式会社,滋賀県,湖南市,サイドタウン４丁目１６番３８号,,25,211,5203244,,,,,,,2023-12-13,1,,,,,クラージュデザイン,0
1932,7180001159299,新規,0,2023-12-13,2023-12-13,株式会社マミリカズ,,株式会社,愛知県,稲沢市,祖父江町祖父江居中１７７番地１,,23,220,4950001,,,,,,,2023-12-13,1,,,,,マミリカズ,0
1933,7180001159365,新規,0,2023-12-13,2023-12-13,株式会社ＹＫＤ,,株式会社,愛知県,名古屋市守山区,新守山９０５,,23,113,4630070,,,,,,,2023-12-13,1,,,,,ワイケーディ,0
1934,7180003026076,新規,0,2023-12-13,2023-12-13,中日本ロジスティクス合同会社,,合同会社,愛知県,名古屋市北区,杉村１丁目２５番２３号,,23,103,4620835,,,,,,,2023-12-13,1,,,,,ナカニホンロジスティクス,0
1935,7180003026092,新規,0,2023-12-13,2023-12-13,合同会社豊松,,合同会社,愛知県,名古屋市千種区,日和町４丁目１８番地,,23,101,4640039,,,,,,,2023-12-13,1,,,,,トヨマツ,0
1936,7180003026101,新規,0,2023-12-13,2023-12-13,Ｄｅｎｔｉｓｔｒｙ　Ｔｕｔｏｒ　Ｊａｐａｎ合同会社,,合同会社,愛知県,江南市,東野町西出４３番地,,23,217,4838424,,,,,,,2023-12-13,1,,,,,デンティストリーチュータージャパン,0
1937,7180003026118,新規,0,2023-12-13,2023-12-13,合同会社ＭＭＳＯ,,合同会社,愛知県,名古屋市西区,児玉１丁目１４番９号,,23,104,4510066,,,,,,,2023-12-13,1,,,,,エムエムエスオー,0
1939,7180005020449,新規,0,2023-12-13,2023-12-13,一般社団法人ＭＩＨＫ,,その他の設立登記法人,愛知県,名古屋市東区,葵１丁目１７番１４号エルブ葵１４０１,,23,102,4610004,,,,,,,2023-12-13,1,,,,,ミック,0
1940,7180301038112,新規,0,2023-12-13,2023-12-13,株式会社きわ,,株式会社,愛知県,豊橋市,高田町字斧取６２番地４,,23,201,4418116,,,,,,,2023-12-13,1,,,,,キワ,0
1941,7180301038120,新規,0,2023-12-13,2023-12-13,株式会社櫂,,株式会社,愛知県,岡崎市,松橋町２丁目３番地１５,,23,202,4442113,,,,,,,2023-12-13,1,,,,,カイ,0
1944,7190001030954,新規,0,2023-12-13,2023-12-13,株式会社ＴＳＫ,,株式会社,三重県,鈴鹿市,南玉垣町６６０３番地の１０９,,24,207,5130816,,,,,,,2023-12-13,1,,,,,ティーエスケイ,0
1946,7190003004535,新規,0,2023-12-13,2023-12-13,合同会社安田商会,,合同会社,三重県,三重郡菰野町,大字小島６５０番地１,,24,341,5101323,,,,,,,2023-12-13,1,,,,,ヤスダショウカイ,0
1952,7220001025728,新規,0,2023-12-13,2023-12-13,株式会社エネスマ,,株式会社,石川県,金沢市,小坂町北１６２番地１（ウエルカム・１１１号）,,17,201,9200811,,,,,,,2023-12-13,1,,,,,エネスマ,0
1953,7220001025736,新規,0,2023-12-13,2023-12-13,エネアス株式会社,,株式会社,石川県,金沢市,浅野本町１丁目１５番２３号,,17,201,9200841,,,,,,,2023-12-13,1,,,,,エネアス,0
1960,7240001062546,新規,0,2023-12-13,2023-12-13,本田産業株式会社,,株式会社,広島県,世羅郡世羅町,大字黒川７３０番地,,34,462,7296711,,,,,,,2023-12-13,1,,,,,ホンダサンギョウ,0
1961,7240003006451,新規,0,2023-12-13,2023-12-13,合同会社Ｍ＆Ｋ,,合同会社,広島県,広島市安佐南区,緑井５丁目２５番３４号,,34,105,7310103,,,,,,,2023-12-13,1,,,,,エムアンドケー,0
1964,7260001038560,新規,0,2023-12-13,2023-12-13,株式会社ＭＡＢ,,株式会社,岡山県,岡山市北区,中山下１丁目１１－１５新田第一ビル４０２,,33,101,7000821,,,,,,,2023-12-13,1,,,,,エムエービー,0
1967,7290001104046,新規,0,2023-12-13,2023-12-13,株式会社ＬｏＬ,,株式会社,福岡県,福岡市南区,大橋１丁目１番１７－６０３号,,40,134,8150033,,,,,,,2023-12-13,1,,,,,エルオーエル,0
1974,7290003014697,新規,0,2023-12-13,2023-12-13,合同会社Ｍｙｔｒｅａｓｕｒｅ,,合同会社,福岡県,福岡市中央区,大宮２丁目３番２３－３０５号フォルスト平尾,,40,133,8100013,,,,,,,2023-12-13,1,,,,,マイトレジャー,0
1975,7290003014739,新規,0,2023-12-13,2023-12-13,合同会社ＡＩＲ,,合同会社,福岡県,久留米市,西町上津町１６６０番地３パークハイム浦山ＩＩ３０１号,00132985,40,203,8300038,,,,,,,2023-12-13,1,,,,,エアー,0
1976,7290801030136,新規,0,2023-12-13,2023-12-13,株式会社レポ,,株式会社,福岡県,直方市,大字植木１１２番地１１,,40,204,8220031,,,,,,,2023-12-13,1,,,,,レポ,0
1978,7310003004687,新規,0,2023-12-13,2023-12-13,合同会社Ｃｌａｓｓｉｃ,,合同会社,長崎県,佐世保市,松瀬町６９６番地１４,,42,202,8570102,,,,,,,2023-12-13,1,,,,,クラシック,0
1980,7330005010731,新規,0,2023-12-13,2023-12-13,医療法人顕美会,,その他の設立登記法人,熊本県,上益城郡嘉島町,大字上島２１８７番地１１,,43,442,8613106,,,,,,,2023-12-13,1,,,,,ケンビカイ,0
1982,7340001026136,新規,0,2023-12-13,2023-12-13,ＡＲ株式会社,,株式会社,鹿児島県,霧島市,国分中央３丁目２０番１－１４０３号,,46,218,8994332,,,,,,,2023-12-13,1,,,,,エイアール,0
1993,7360001032917,新規,0,2023-12-13,2023-12-13,株式会社ＴＲ‐ｇｒｏｕｐ,,株式会社,沖縄県,うるま市,字赤道６８９番地１０,,47,213,9042245,,,,,,,2023-12-13,1,,,,,ティーアールグループ,0
1994,7360001032925,新規,0,2023-12-13,2023-12-13,株式会社ＷｉｔｈＢｌｕｅ　ＤＭＣ,,株式会社,沖縄県,沖縄市,中央１丁目７番８号,,47,211,9040004,,,,,,,2023-12-13,1,,,,,ウィズブルーディーエムシー,0
1996,7370003006414,新規,0,2023-12-13,2023-12-13,合同会社かなめ,,合同会社,宮城県,宮城郡利府町,赤沼字須賀９８番地,,04,406,9810101,,,,,,,2023-12-13,1,,,,,カナメ,0
1997,7370005010728,新規,0,2023-12-13,2023-12-13,一般社団法人しおかぜホーム,,その他の設立登記法人,宮城県,宮城郡松島町,高城字元釜家５番地の２１,,04,401,9810215,,,,,,,2023-12-13,1,,,,,シオカゼホーム,0
1999,7380001034192,新規,0,2023-12-13,2023-12-13,株式会社Ｍａｋｅ　Ｂｒｅａｔｈ,,株式会社,福島県,いわき市,小名浜西君ケ塚町６番地の６,,07,204,9718167,,,,,,,2023-12-13,1,,,,,メイクブレス,0
2001,7380005012772,新規,0,2023-12-13,2023-12-13,一般社団法人Ｓｐｒｅａｄ　Ｆｒｏｍ　Ｆｕｋｕｓｈｉｍａ,,その他の設立登記法人,福島県,本宮市,高木字金瀬２９番地１,,07,214,9691101,,,,,,,2023-12-13,1,,,,,スプレッドフロムフクシマ,0
2003,7420001018505,新規,0,2023-12-13,2023-12-13,株式会社長楽,,株式会社,青森県,青森市,浪館前田１丁目６－３,,02,201,0380024,,,,,,,2023-12-13,1,,,,,チョウラク,0
2006,7430001090635,新規,0,2023-12-13,2023-12-13,株式会社ＡＮ　Ｇｒｏｕｐ,,株式会社,北海道,札幌市中央区,南二条東２丁目１６番地堀尾ビル２階,,01,101,0600052,,,,,,,2023-12-13,1,,,,,エーエヌグループ,0
2019,7700150122723,新規,0,2023-12-13,2023-12-13,ｊｉａｎｇｍｅｎｓｈｉｃｈｅｎｇｐａｉｊｉｎｓｈｕｓｈｉｙｅ　Ｃｏ．，ＬＴＤ,,外国会社等,,,,,,,,ＮＯ．３６　Ｉｎｄｕｓｔｒａｉｌ　Ｒｏａｄ　Ｈｕｉｃｈｅｎｇ　ｘｉｎｈｕｉ　ｄｉｓｔｒｉｃｔ　ｊｉａｎｇｍｅｎ,,,,,,2023-12-13,1,,,,,コウモンシチェンパイジンショシイェカンパニーリミテッド,0
2020,7700150122731,新規,0,2023-12-13,2023-12-13,ｓｈａｎｔｏｕｓｈｉｃｈｅｎｙｕａｎｓｈａｎｇｍａｏ　ｙｏｕｘｉａｎｇｏｎｇｓｉ,,外国会社等,,,,,,,,Ｒｏｏｍ１２１４－２Ｂｕｉｌｄｉｎｇ５　ＣｅｎｔｕｒｙＢｕｓｉｎｅｓｓＣｅｎｔｅｒ　１１５ＨａｉｂｉｎＲｏａｄ　ＳｈａｎｔｏｕＣｉｔｙ　５１５０００　ＣＮ,,,,,,2023-12-13,1,,,,,スワトウシチェンユェンシャンマオヨウシェンゴンスー,0
2028,8010001240727,新規,0,2023-12-13,2023-12-13,株式会社ワイケイプランニング,,株式会社,東京都,千代田区,内神田１丁目１５番１７号,,13,101,1010047,,,,,,,2023-12-13,1,,,,,ワイケイプランニング,0
2029,8010001240735,新規,0,2023-12-13,2023-12-13,ＧＯ　Ｃａｐｉｔａｌ株式会社,,株式会社,東京都,中央区,日本橋兜町８－１ＦｉｎＧＡＴＥＴＥＲＲＡＣＥ６Ｆ,,13,102,1030026,,,,,,,2023-12-13,1,,,,,ゴウキャピタル,0
2030,8010001240768,新規,0,2023-12-13,2023-12-13,ＴＯＫＵジャパン株式会社,,株式会社,東京都,中央区,銀座６丁目６番１号銀座風月堂ビル５階,,13,102,1040061,,,,,,,2023-12-13,1,,,,,トクジャパン,0
2032,8010003042403,新規,0,2023-12-13,2023-12-13,Ａ＆Ｈ合同会社,,合同会社,東京都,中央区,勝どき１丁目８番１－３１１２号,,13,102,1040054,,,,,,,2023-12-13,1,,,,,エーアンドエイチ,0
2033,8010003042436,新規,0,2023-12-13,2023-12-13,合同会社ＧＰＲ,,合同会社,東京都,中央区,日本橋室町１丁目１１番１２号日本橋水野ビル７階,,13,102,1030022,,,,,,,2023-12-13,1,,,,,ジーピーアール,0
2043,8010401179078,新規,0,2023-12-13,2023-12-13,レジュ株式会社,,株式会社,東京都,港区,六本木６丁目１５番１号,,13,103,1060032,,,,,,,2023-12-13,1,,,,,レジュ,0
2044,8010401179086,新規,0,2023-12-13,2023-12-13,正森商事株式会社,,株式会社,東京都,港区,赤坂３丁目４番４号専修赤坂ビル５Ｆ,,13,103,1070052,,,,,,,2023-12-13,1,,,,,マサモリショウジ,0
2045,8010401179094,新規,0,2023-12-13,2023-12-13,ひとたび株式会社,,株式会社,東京都,港区,三田３丁目１４番１０号,,13,103,1080073,,,,,,,2023-12-13,1,,,,,ヒトタビ,0
2046,8010401179103,新規,0,2023-12-13,2023-12-13,株式会社Ｍａｘｉｍａｌ,,株式会社,東京都,港区,六本木７丁目１４番２３号ラウンドクロス六本木５Ｆ,,13,103,1060032,,,,,,,2023-12-13,1,,,,,マキシマル,0
2047,8010401179136,新規,0,2023-12-13,2023-12-13,ＲＭＰ　Ｈｏｓｐｉｔａｌｉｔｙ株式会社,,株式会社,東京都,港区,南青山３丁目４番２号ＢＡＳＥ南青山２０１号室,,13,103,1070062,,,,,,,2023-12-13,1,,,,,アールエムピーホスピタリティ,0
2048,8010401179152,新規,0,2023-12-13,2023-12-13,株式会社Ｇ・Ｗ,,株式会社,東京都,港区,六本木７丁目１４－１宝祥ソシアルビル６Ｆ,,13,103,1060032,,,,,,,2023-12-13,1,,,,,,0
2049,8010403031559,新規,0,2023-12-13,2023-12-13,合同会社Ａｒｃｏｉｒｉｓ,,合同会社,東京都,港区,北青山１丁目３番１号アールキューブ青山３階,,13,103,1070061,,,,,,,2023-12-13,1,,,,,アルコイリス,0
2053,8010501051418,新規,0,2023-12-13,2023-12-13,株式会社Ｊ．Ｈ．Ｔ,,株式会社,東京都,台東区,寿３丁目１４－９スカイテラス浅草９０１,,13,106,1110042,,,,,,,2023-12-13,1,,,,,ジェイエッチティー,0
2059,8010703006987,新規,0,2023-12-13,2023-12-13,ＥＳＣＡＰＥ合同会社,,合同会社,東京都,品川区,北品川４丁目８番３３号ＦＲＯＮＴ,,13,109,1400001,,,,,,,2023-12-13,1,,,,,エスケイプ,0
2064,8010901054342,新規,0,2023-12-13,2023-12-13,株式会社東日本建設,,株式会社,東京都,世田谷区,用賀４丁目１３番３号ハイマートピア用賀４Ｆ,,13,112,1580097,,,,,,,2023-12-13,1,,,,,ヒガシニホンケンセツ,0
2073,8011001158348,新規,0,2023-12-13,2023-12-13,レッドホースグループ株式会社,,株式会社,東京都,目黒区,下目黒１丁目８番１号アルコタワー７階,,13,110,1530064,,,,,,,2023-12-13,1,,,,,レッドホースグループ,0
2074,8011001158760,新規,0,2023-12-13,2023-12-13,Ｐｕｒｅｔｅ株式会社,,株式会社,東京都,目黒区,目黒本町４丁目１６番３号,,13,110,1520002,,,,,,,2023-12-13,1,,,,,ピュルテ,0
2075,8011001158785,新規,0,2023-12-13,2023-12-13,シューティングスター株式会社,,株式会社,東京都,目黒区,目黒本町６丁目１７番９号,,13,110,1520002,,,,,,,2023-12-13,1,,,,,シューティングスター,0
2078,8011003018087,新規,0,2023-12-13,2023-12-13,ｍａｉｓｏｎ２，３合同会社,,合同会社,東京都,渋谷区,神泉町３番４号ウェルズ渋谷００１,,13,113,1500045,,,,,,,2023-12-13,1,,,,,メゾントゥーコンマスリー,0
2082,8011101105448,新規,0,2023-12-13,2023-12-13,株式会社ＭＯＧＳ,,株式会社,東京都,新宿区,富久町４番３－３０４号,,13,104,1620067,,,,,,,2023-12-13,1,,,,,エムオージーズ,0
2085,8011103013847,新規,0,2023-12-13,2023-12-13,合同会社Ｍａｃｃｈｏ,,合同会社,東京都,新宿区,西新宿３丁目３番１３号西新宿水間ビル６階,,13,104,1600023,,,,,,,2023-12-13,1,,,,,マッチョー,0
2086,8011201025100,新規,0,2023-12-13,2023-12-13,株式会社モンビジュー,,株式会社,東京都,中野区,本町４丁目３０番２１号,,13,114,1640012,,,,,,,2023-12-13,1,,,,,モンビジュー,0
2088,8011303005000,新規,0,2023-12-13,2023-12-13,プラスト・ワン合同会社,,合同会社,東京都,杉並区,堀ノ内２丁目３７番２９号,,13,115,1660013,,,,,,,2023-12-13,1,,,,,プラストワン,0
2089,8011403004199,新規,0,2023-12-13,2023-12-13,ＫＡＮＩ合同会社,,合同会社,東京都,板橋区,坂下１丁目４１番１９号ドルチェマンションオオキ３０７号,,13,119,1740043,,,,,,,2023-12-13,1,,,,,カニ,0
2094,8011503005873,新規,0,2023-12-13,2023-12-13,ＧｌｏｂａｌＪａｐａｎＷｏｒｋｓ合同会社,,合同会社,東京都,荒川区,東尾久３丁目２９－６岩崎ビル２０１,,13,118,1160012,,,,,,,2023-12-13,1,,,,,グローバルジャパンワークス,0
2096,8011601027373,新規,0,2023-12-13,2023-12-13,株式会社Ｒ１ＶＥＲＡ,,株式会社,東京都,練馬区,貫井５丁目１２番５号,,13,120,1760021,,,,,,,2023-12-13,1,,,,,リベラ,0
2098,8011701026837,新規,0,2023-12-13,2023-12-13,ＴＫ株式会社,,株式会社,東京都,江戸川区,平井５丁目４５番５号渡辺ハイツ１０１,,13,123,1320035,,,,,,,2023-12-13,1,,,,,ティーケイ,0
2099,8011703003685,新規,0,2023-12-13,2023-12-13,合同会社ＩＬＣ,,合同会社,東京都,江戸川区,中葛西５丁目４１ー１０ＢＰＲプレイス葛西,,13,123,1340083,,,,,,,2023-12-13,1,,,,,アイエルシー,0
2101,8011801043484,新規,0,2023-12-13,2023-12-13,株式会社Ｋａｕｌａ,,株式会社,東京都,葛飾区,金町６丁目７番１８号Ｄｃｏｕｒｔ３０２,,13,122,1250042,,,,,,,2023-12-13,1,,,,,カウラ,0
2103,8011803005986,新規,0,2023-12-13,2023-12-13,ＳＦＬｉｆｅ合同会社,,合同会社,東京都,足立区,中川２丁目１番１４号一階,,13,121,1200002,,,,,,,2023-12-13,1,,,,,エスエフライフ,0
2105,8012403006326,新規,0,2023-12-13,2023-12-13,合同会社ＩＮＴＩＭＥ,,合同会社,東京都,調布市,西つつじケ丘１丁目５７‐１１１,,13,208,1820006,,,,,,,2023-12-13,1,,,,,インタイム,0
2111,8013301051744,新規,0,2023-12-13,2023-12-13,株式会社ＲＹＯ,,株式会社,東京都,豊島区,東池袋１丁目３１番６号三昌ビル７０３,,13,116,1700013,,,,,,,2023-12-13,1,,,,,アールワイオー,0
2115,8020001154851,新規,0,2023-12-13,2023-12-13,株式会社Ａ＆Ｊ,,株式会社,神奈川県,横浜市港北区,篠原町９５７番地９グリーンコーポ篠原第二Ｈ棟１０２号,,14,109,2220026,,,,,,,2023-12-13,1,,,,,エイアンドジェイ,0
2116,8020001154876,新規,0,2023-12-13,2023-12-13,株式会社ｉｂｅｅ,,株式会社,神奈川県,川崎市宮前区,神木２丁目１５番地５グラシューＡ棟２０１,,14,136,2160032,,,,,,,2023-12-13,1,,,,,アイビー,0
2117,8020001154892,新規,0,2023-12-13,2023-12-13,株式会社ＪＨメディカルケア＆Ｃｏ．,,株式会社,神奈川県,横浜市港北区,篠原町２８３３番地１１,,14,109,2220026,,,,,,,2023-12-13,1,,,,,ジェイエイチメディカルケアアンドシーオー,0
2120,8020003025175,新規,0,2023-12-13,2023-12-13,合同会社アイ・エヌ・エー,,合同会社,神奈川県,川崎市多摩区,菅３丁目１１番２８号,,14,135,2140001,,,,,,,2023-12-13,1,,,,,アイエヌエー,0
2121,8020003025183,新規,0,2023-12-13,2023-12-13,Ｔａｂｉｋｅｎフレンズ合同会社,,合同会社,神奈川県,川崎市川崎区,駅前本町１１番地２川崎フロンティアビル４階,,14,131,2100007,,,,,,,2023-12-13,1,,,,,タビケンフレンズ,0
2127,8030001157630,新規,0,2023-12-13,2023-12-13,株式会社ＥＡＳ‐ｆｉｘ,,株式会社,埼玉県,川越市,大字天沼新田１９３番地１８（アドラブールＡ１０４号室）,,11,201,3500806,,,,,,,2023-12-13,1,,,,,イースフィックス,0
2128,8030001157647,新規,0,2023-12-13,2023-12-13,株式会社セフティ・クオリティサービス,,株式会社,埼玉県,坂戸市,大字中小坂３９３番地３,,11,239,3500206,,,,,,,2023-12-13,1,,,,,セフティクオリティサービス,0
2129,8030001157663,新規,0,2023-12-13,2023-12-13,株式会社Ｓｈａｒｋ,,株式会社,埼玉県,行田市,大字長野５８５８番地１,,11,206,3610023,,,,,,,2023-12-13,1,,,,,シャーク,0
2130,8030001157696,新規,0,2023-12-13,2023-12-13,株式会社Ｒ・Ｉ,,株式会社,埼玉県,川越市,大字久下戸６０９６,,11,201,3500011,,,,,,,2023-12-13,1,,,,,アールアイ,0
2131,8030003023211,新規,0,2023-12-13,2023-12-13,合同会社クリスタル,,合同会社,埼玉県,春日部市,大枝４１３番地２,,11,214,3440023,,,,,,,2023-12-13,1,,,,,クリスタル,0
2138,8040001131337,新規,0,2023-12-13,2023-12-13,株式会社ＰＳ建機レンタル,,株式会社,千葉県,流山市,駒木台３２８番２,,12,220,2700113,,,,,,,2023-12-13,1,,,,,ピーエスケンキレンタル,0
2139,8040001131378,新規,0,2023-12-13,2023-12-13,株式会社喜兵衛,,株式会社,千葉県,木更津市,ほたる野２丁目４２番地１,,12,206,2920038,,,,,,,2023-12-13,1,,,,,キヘイ,0
2146,8040003023904,新規,0,2023-12-13,2023-12-13,合同会社福来,,合同会社,千葉県,千葉市緑区,平山町１９００番地１,,12,105,2660002,,,,,,,2023-12-13,1,,,,,フクライ,0
2150,8060001036625,新規,0,2023-12-13,2023-12-13,株式会社ｖｅｒｉｔａｓ,,株式会社,栃木県,宇都宮市,御幸本町４８６３番地６７,,09,201,3210983,,,,,,,2023-12-13,1,,,,,ヴェリタス,0
2155,8060003004836,新規,0,2023-12-13,2023-12-13,ＣＬＥＩＡｗｉｚ合同会社,,合同会社,栃木県,宇都宮市,峰町５６９番地１８,,09,201,3210943,,,,,,,2023-12-13,1,,,,,クレイアウィズ,0
2159,8070001041178,新規,0,2023-12-13,2023-12-13,ＩＴＩ株式会社,,株式会社,群馬県,太田市,下浜田町９６番地１４,,10,205,3730821,,,,,,,2023-12-13,1,,,,,アイティーアイ,0
2160,8070003005197,新規,0,2023-12-13,2023-12-13,合同会社ＬＩＮＫ,,合同会社,群馬県,邑楽郡大泉町,仙石１丁目９番５号,,10,524,3700533,,,,,,,2023-12-13,1,,,,,リンク,0
2171,8100001037057,新規,0,2023-12-13,2023-12-13,株式会社ｅｎｎｅｎ,,株式会社,長野県,諏訪郡原村,１７２１７番地２９３,,20,363,3910100,,,,,,,2023-12-13,1,,,,,エンネン,0
2174,8120001008403,新規,0,2023-12-13,2023-12-13,株式会社万里住建,,株式会社,大阪府,大阪市都島区,都島本通１丁目６番１９号,,27,102,5340021,,,,,,,2023-12-13,1,,,,,,0
2185,8120001260532,新規,0,2023-12-13,2023-12-13,木林株式会社,,株式会社,大阪府,大阪市浪速区,大国１丁目３－８,,27,111,5560014,,,,,,,2023-12-13,1,,,,,キリン,0
2186,8120001260540,新規,0,2023-12-13,2023-12-13,パーソナルトリートメント株式会社,,株式会社,大阪府,大阪市東淀川区,相川２丁目１０番１６号,,27,114,5330007,,,,,,,2023-12-13,1,,,,,パーソナルトリートメント,0
2187,8120001260565,新規,0,2023-12-13,2023-12-13,株式会社ミラエミオ,,株式会社,大阪府,大阪市北区,梅田１丁目２番２号,,27,127,5300001,,,,,,,2023-12-13,1,,,,,ミラエミオ,0
2188,8120001260598,新規,0,2023-12-13,2023-12-13,ハッスル株式会社,,株式会社,大阪府,大阪市中央区,瓦町４丁目７－４南星瓦町ビル９Ｆ,,27,128,5410048,,,,,,,2023-12-13,1,,,,,ハッスル,0
2190,8120003025495,新規,0,2023-12-13,2023-12-13,ＨＡＭＡＮＩ合同会社,,合同会社,大阪府,大阪市生野区,鶴橋２丁目１１－１５,,27,116,5440031,,,,,,,2023-12-13,1,,,,,ハマニ,0
2191,8120003025504,新規,0,2023-12-13,2023-12-13,エムエフプラスチック合同会社,,合同会社,大阪府,大阪市中央区,平野町３丁目１番６号,,27,128,5410046,,,,,,,2023-12-13,1,,,,,エムエフプラスチック,0
2192,8120101068685,新規,0,2023-12-13,2023-12-13,株式会社ＣＨＩＴＯＳＥ,,株式会社,大阪府,堺市西区,草部１４８０番地,,27,144,5938312,,,,,,,2023-12-13,1,,,,,チトセ,0
2197,8120901048465,新規,0,2023-12-13,2023-12-13,株式会社日本ブレイドエッジ,,株式会社,大阪府,吹田市,清和園町２５番９号,,27,205,5640039,,,,,,,2023-12-13,1,,,,,ニホンブレイドエッジ,0
2198,8120901048481,新規,0,2023-12-13,2023-12-13,株式会社カラフルプラス,,株式会社,大阪府,吹田市,豊津町１番３０号,,27,205,5640051,,,,,,,2023-12-13,1,,,,,カラフルプラス,0
2199,8120903004953,新規,0,2023-12-13,2023-12-13,合同会社ママプラス,,合同会社,大阪府,高槻市,古曽部町２丁目３０番１－５１１号,,27,207,5691115,,,,,,,2023-12-13,1,,,,,ママプラス,0
2205,8130001075905,新規,0,2023-12-13,2023-12-13,株式会社Ｋ＆ｍａｋｅｓ,,株式会社,京都府,京都市下京区,中堂寺坊城町２番地ＢＥＡＵＴＹＢＬＤＧＴＡＮＢＡＧＵＣＨＩ５Ｆ,,26,106,6008811,,,,,,,2023-12-13,1,,,,,ケイアンドメイクス,0
2206,8130001075913,新規,0,2023-12-13,2023-12-13,株式会社実現の犬小屋,,株式会社,京都府,宇治市,小倉町春日森４０番地１,,26,204,6110042,,,,,,,2023-12-13,1,,,,,ジツゲンノイヌゴヤ,0
2209,8130003009191,新規,0,2023-12-13,2023-12-13,Ｆ‐Ｔｅｃｈ　Ｐａｒｔｎｅｒｓ合同会社,,合同会社,京都府,京都市山科区,西野櫃川町５８番地５６,,26,110,6078357,,,,,,,2023-12-13,1,,,,,エフテックパートナーズ,0
2210,8130003009200,新規,0,2023-12-13,2023-12-13,Ｆｉｎｙａｎｃｅ合同会社,,合同会社,京都府,京都市下京区,朱雀宝蔵町４４番地協栄ビル２階京都朱雀スタジオ,,26,106,6008846,,,,,,,2023-12-13,1,,,,,ファイニャンス,0
2212,8140001132647,新規,0,2023-12-13,2023-12-13,ＩＮＵＩ　ＨＯＬＤＩＮＧＳ株式会社,,株式会社,兵庫県,加古川市,野口町二屋２番地の１,,28,210,6750013,,,,,,,2023-12-13,1,,,,,イヌイホールディングス,0
2213,8140001132663,新規,0,2023-12-13,2023-12-13,株式会社Ｎクリエイティブワークス,,株式会社,兵庫県,神戸市中央区,磯辺通１丁目１番１８号カサベラ国際プラザビル７０７,,28,110,6510084,,,,,,,2023-12-13,1,,,,,エヌクリエイティブワークス,0
2214,8140001132671,新規,0,2023-12-13,2023-12-13,株式会社Ｒｅｇｅｎｅｒａｔｉｖｅ,,株式会社,兵庫県,神戸市中央区,磯辺通１丁目１番１８号カサベラ国際プラザビル７０７号,,28,110,6510084,,,,,,,2023-12-13,1,,,,,リジェネラティブ,0
2215,8140001132688,新規,0,2023-12-13,2023-12-13,株式会社ユーアイ,,株式会社,兵庫県,姫路市,駅前町２２９,,28,201,6700927,,,,,,,2023-12-13,1,,,,,ユーアイ,0
2219,8140003019925,新規,0,2023-12-13,2023-12-13,合同会社福祉サポートＭＲ,,合同会社,兵庫県,神戸市中央区,元町通６丁目５番２－４０２号,,28,110,6500022,,,,,,,2023-12-13,1,,,,,フクシサポートエムアール,0
2220,8150003003143,新規,0,2023-12-13,2023-12-13,合同会社１Ｃａｒａｔ,,合同会社,奈良県,御所市,大字林１５３番地,,29,208,6392333,,,,,,,2023-12-13,1,,,,,ワンカラット,0
2223,8170001017928,新規,0,2023-12-13,2023-12-13,株式会社Ｈｅｌｉｏ,,株式会社,和歌山県,和歌山市,有本１８０番地１７,,30,201,6408390,,,,,,,2023-12-13,1,,,,,ヘリオ,0
2225,8180001159348,新規,0,2023-12-13,2023-12-13,ジャパンサーキュラートレーディング株式会社,,株式会社,愛知県,名古屋市中村区,名駅３丁目４－１０アルティメイト名駅１ｓｔ２階,,23,105,4500002,,,,,,,2023-12-13,1,,,,,ジャパンサーキュラートレーディング,0
2226,8180001159372,新規,0,2023-12-13,2023-12-13,株式会社モデラトゥス,,株式会社,愛知県,名古屋市西区,幅下２丁目１０番３号,,23,104,4510041,,,,,,,2023-12-13,1,,,,,モデラトゥス,0
2227,8180003026091,新規,0,2023-12-13,2023-12-13,合同会社トヨコ＆Ｃｏ．,,合同会社,愛知県,名古屋市千種区,日和町４丁目１８番地,,23,101,4640039,,,,,,,2023-12-13,1,,,,,トヨコアンドカンパニー,0
2228,8180301038111,新規,0,2023-12-13,2023-12-13,株式会社一,,株式会社,愛知県,知立市,新富２丁目１番地,,23,225,4720047,,,,,,,2023-12-13,1,,,,,イチ,0
2230,8190003004534,新規,0,2023-12-13,2023-12-13,合同会社月のあかり,,合同会社,三重県,津市,藤方１９３０番地,,24,201,5140815,,,,,,,2023-12-13,1,,,,,ツキノアカリ,0
2231,8200001041981,新規,0,2023-12-13,2023-12-13,株式会社ブルーチケット,,株式会社,岐阜県,岐阜市,本荘１９４１番地６５,,21,201,5008389,,,,,,,2023-12-13,1,,,,,ブルーチケット,0
2236,8220001025735,新規,0,2023-12-13,2023-12-13,株式会社Ｔ‐ＤＥＮ,,株式会社,石川県,金沢市,戸水１丁目２８５番地,,17,201,9208204,,,,,,,2023-12-13,1,,,,,ティーデン,0
2238,8230001020140,新規,0,2023-12-13,2023-12-13,エヌアイ電工株式会社,,株式会社,富山県,富山市,中田１丁目１７番１５号フォーレスト中田１Ｆ南,,16,201,9318453,,,,,,,2023-12-13,1,,,,,エヌアイデンコウ,0
2244,8240001062537,新規,0,2023-12-13,2023-12-13,株式会社グリーンベース,,株式会社,広島県,広島市佐伯区,五日市中央５丁目４番３６号,,34,108,7315128,,,,,,,2023-12-13,1,,,,,グリーンベース,0
2249,8250001020428,新規,0,2023-12-13,2023-12-13,松明建設株式会社,,株式会社,山口県,下松市,西市１丁目１１番３５号,,35,207,7440078,,,,,,,2023-12-13,1,,,,,タイマツケンセツ,0
2257,8290001104020,新規,0,2023-12-13,2023-12-13,株式会社Ｎ‐ｚｅｒｏ,,株式会社,福岡県,福岡市南区,大橋１丁目４番５号ニーズビル３Ｆ,,40,134,8150033,,,,,,,2023-12-13,1,,,,,エヌゼロ,0
2263,8290801030119,新規,0,2023-12-13,2023-12-13,株式会社Ｇｌｏｒｙ,,株式会社,福岡県,北九州市小倉南区,田原新町１丁目１番２号（１０２）,,40,107,8000226,,,,,,,2023-12-13,1,,,,,グローリー,0
2264,8290801030127,新規,0,2023-12-13,2023-12-13,株式会社ＳＨＩＭＡＮＯ,,株式会社,福岡県,田川郡福智町,弁城２２１６番地４,,40,610,8221212,,,,,,,2023-12-13,1,,,,,シマノ,0
2265,8290801030135,新規,0,2023-12-13,2023-12-13,株式会社ｐｉｆ　ｄｅｓｉｇｎ,,株式会社,福岡県,北九州市小倉北区,紺屋町２番１７号坂井ビル２Ｆ,,40,106,8020081,,,,,,,2023-12-13,1,,,,,ピフデザイン,0
2266,8290803004558,新規,0,2023-12-13,2023-12-13,合同会社ＫＯＡ,,合同会社,福岡県,北九州市若松区,小敷ひびきの１丁目１６番１２号,,40,103,8080139,,,,,,,2023-12-13,1,,,,,コア,0
2287,8360001032916,新規,0,2023-12-13,2023-12-13,エクシードＩＤＳ株式会社,,株式会社,沖縄県,中頭郡北谷町,字桑江６１８番地７,,47,326,9040103,,,,,,,2023-12-13,1,,,,,エクシードアイディーエス,0
2288,8360001032924,新規,0,2023-12-13,2023-12-13,株式会社昇コンサルタント,,株式会社,沖縄県,那覇市,曙２丁目１２番５号,,47,201,9000002,,,,,,,2023-12-13,1,,,,,ショウコンサルタント,0
2290,8370001050719,新規,0,2023-12-13,2023-12-13,株式会社Ｓ‐ＰＥＣ,,株式会社,宮城県,仙台市宮城野区,萩野町１丁目２番地の１３,,04,102,9830043,,,,,,,2023-12-13,1,,,,,エスペック,0
2291,8370001050727,新規,0,2023-12-13,2023-12-13,株式会社ＫＴＣＭ,,株式会社,宮城県,仙台市青葉区,川平４丁目３２番３７号川平４丁目Ｋ事務所Ｂ１０１,,04,101,9810954,,,,,,,2023-12-13,1,,,,,ケイティーシーエム,0
2293,8370005010719,新規,0,2023-12-13,2023-12-13,医療法人ストラト,,その他の設立登記法人,宮城県,仙台市太白区,富沢１丁目１２番２９号,,04,104,9820032,,,,,,,2023-12-13,1,,,,,ストラト,0
2294,8370005010727,新規,0,2023-12-13,2023-12-13,一般社団法人おおさき産業推進機構,,その他の設立登記法人,宮城県,大崎市,古川駅前大通１丁目５番１８号,,04,215,9896162,,,,,,,2023-12-13,1,,,,,オオサキサンギョウスイシンキコウ,0
2295,8380001034191,新規,0,2023-12-13,2023-12-13,株式会社アプリコット,,株式会社,福島県,郡山市,熱海町石筵字飯吉１５３番地の４,,07,203,9631301,,,,,,,2023-12-13,1,,,,,アプリコット,0
2296,8380003005637,新規,0,2023-12-13,2023-12-13,福地農商合同会社,,合同会社,福島県,伊達郡桑折町,大字上郡字五郎内２５－１－２階,,07,301,9691661,,,,,,,2023-12-13,1,,,,,フクチノウショウ,0
2304,8490001010652,新規,0,2023-12-13,2023-12-13,株式会社Ｈ＆Ｅ　Ｍａｎａｇｅｍｅｎｔ,,株式会社,高知県,高知市,城見町７番１号西岡ビル１Ｆ,,39,201,7800824,,,,,,,2023-12-13,1,,,,,エイチアンドイーマネジメント,0
2305,8700150122714,新規,0,2023-12-13,2023-12-13,Ｙａｈｙａ　Ｅｎｔｅｒｐｒｉｓｅｓ,,外国会社等,神奈川県,足柄上郡松田町,松田惣領中敷７０２－９７０１－５Ｂ,,14,363,2580003,スリランカ民主社会主義共和国、Ｎｏ０２、クルンデニヤ、アクラナ、キャンディ,,,,,,2023-12-13,1,,,,,ヤヒヤエンタープライズ,0
2306,8700150122722,新規,0,2023-12-13,2023-12-13,Ｓｈｅｎｚｈｅｎｓｈｉ　Ｌｉｕｙｉ　Ｅｌｅｃｔｒｏｎｉｃ　Ｔｅｃｈｎｏｌｏｇｙ　Ｃｏ．，Ｌｔｄ,,外国会社等,,,,,,,,Ｓｈｅｎｚｈｅｎｓｈｉ　ｌｏｎｇｇａｎｇｑｕ　ｌｏｎｇｇａｎｇｊｉｅｄａｏ　Ｌｏｎｇｄｏｎｇｓｈｅｑｕ　ｘｉａｊｉｎｇｘｉｎｃｕｎ３６ｈａｏＢ５０４,,,,,,2023-12-13,1,,,,,シンセンシリュウイエレクトロニックテクノロジーカンパニーリミテッド,0
2307,8700150122730,新規,0,2023-12-13,2023-12-13,Ｓｈｅｎｚｈｅｎｓｈｉ　ｙｉｘｉｎｌｉ　Ｔｅｃｈｎｏｌｏｇｙ　Ｃｏ．，Ｌｔｄ,,外国会社等,,,,,,,,Ｒｏｏｍ１９２　１９３１９３ＢｕｉｌｄｉｎｇＮｏ．１９ｗａｎｋｅｃｈｅｎｇ　ｎｕｏｄｉｎｇｓｈａｎＦａｒｅａ　ｂａｎｘｕｅｇａｎｇＡｖｅｎｕｅ　ｗａｎｋｅｃｈｅｎｇｃｏｍｍｕｎｉｔｙ　ｂａｎｔｉａｎｓｔｒｅｅｔ　ｌｏｎｇｇａｎｇｄｉｓｔｒｉｃｔ　Ｓｈｅｎｚｈｅｎ　５１８１２９　ＣＮ,,,,,,2023-12-13,1,,,,,シンセンシイシンリテクノロジーカンパニーリミテッド,0
2318,9010001240701,新規,0,2023-12-13,2023-12-13,エムアンドケイ株式会社,,株式会社,東京都,中央区,銀座７丁目６番１１号ミクニ銀座７ビル８階,,13,102,1040061,,,,,,,2023-12-13,1,,,,,エムアンドケイ,0
2319,9010001240726,新規,0,2023-12-13,2023-12-13,クオリプスヘルスケアサイエンス株式会社,,株式会社,東京都,中央区,日本橋本町３丁目１１番５号日本橋ライフサイエンスビルディング２、５０７,,13,102,1030023,,,,,,,2023-12-13,1,,,,,クオリプスヘルスケアサイエンス,0
2320,9010001240742,新規,0,2023-12-13,2023-12-13,ＣＯＲＥＺＯ株式会社,,株式会社,東京都,千代田区,神田神保町１丁目４１番地,,13,101,1010051,,,,,,,2023-12-13,1,,,,,コレゾ,0
2321,9010001240759,新規,0,2023-12-13,2023-12-13,株式会社プラティーヌ,,株式会社,東京都,千代田区,神田駿河台２丁目１１番地７Ｂ１０３号室,,13,101,1010062,,,,,,,2023-12-13,1,,,,,プラティーヌ,0
2322,9010001240767,新規,0,2023-12-13,2023-12-13,ＫＡＹＴＵＳ　ＪＡＰＡＮ株式会社,,株式会社,東京都,千代田区,大手町２丁目６番４号,,13,101,1000004,,,,,,,2023-12-13,1,,,,,ケイタスジャパン,0
2323,9010001240775,新規,0,2023-12-13,2023-12-13,株式会社Ｂｅｗｉｔｃｈ,,株式会社,東京都,中央区,日本橋中洲４番１３－７０２号,,13,102,1030008,,,,,,,2023-12-13,1,,,,,ビーウィッチ,0
2326,9010003042419,新規,0,2023-12-13,2023-12-13,合同会社ＮＹＭＳ,,合同会社,東京都,中央区,銀座１丁目１２番４号Ｎ＆ＥＢＬＤ．６Ｆ,,13,102,1040061,,,,,,,2023-12-13,1,,,,,ニムス,0
2327,9010003042427,新規,0,2023-12-13,2023-12-13,合同会社ａｎｄＦｏｏｔ,,合同会社,東京都,中央区,日本橋堀留町２丁目５番７号クレストフォルム日本橋７０２号室,,13,102,1030012,,,,,,,2023-12-13,1,,,,,アンドフット,0
2328,9010103002272,新規,0,2023-12-13,2023-12-13,合同会社ＮＲ,,合同会社,東京都,八王子市,片倉町４９２番地１,,13,201,1920914,,,,,,,2023-12-13,1,,,,,エヌアール,0
2338,9010401179044,新規,0,2023-12-13,2023-12-13,株式会社ＧＯＡＬ‐Ｂホールディングス,,株式会社,東京都,港区,虎ノ門４丁目１番１号,,13,103,1050001,,,,,,,2023-12-13,1,,,,,ゴールビーホールディングス,0
2339,9010401179060,新規,0,2023-12-13,2023-12-13,株式会社ＮＥＦＥＲＴＩＴＩ,,株式会社,東京都,港区,六本木７丁目１８番１１号,,13,103,1060032,,,,,,,2023-12-13,1,,,,,ネフェルティティ,0
2340,9010401179069,新規,0,2023-12-13,2023-12-13,株式会社Ｓｕｐｅｒｎｏｖａ　Ｔｏｋｙｏ,,株式会社,東京都,港区,六本木７丁目１４番５号,,13,103,1060032,,,,,,,2023-12-13,1,,,,,スーパーノバトウキョウ,0
2341,9010401179077,新規,0,2023-12-13,2023-12-13,株式会社Ｍｅｄ‐Ｑｏｌ,,株式会社,東京都,港区,南青山３丁目１番３６号－６階,,13,103,1070062,,,,,,,2023-12-13,1,,,,,メドクォール,0
2342,9010401179102,新規,0,2023-12-13,2023-12-13,ＭＹＴ株式会社,,株式会社,東京都,港区,西麻布１丁目１１番１３号,,13,103,1060031,,,,,,,2023-12-13,1,,,,,エムワイティー,0
2343,9010401179127,新規,0,2023-12-13,2023-12-13,ＤＤＣ株式会社,,株式会社,東京都,港区,麻布台３丁目３番２７号麻布台フラット１０１,,13,103,1060041,,,,,,,2023-12-13,1,,,,,ディーディーシー,0
2344,9010401179135,新規,0,2023-12-13,2023-12-13,Ｈｉｒａｋｕ．ａｉ株式会社,,株式会社,東京都,港区,東麻布１丁目２２番１－８０３号,,13,103,1060044,,,,,,,2023-12-13,1,,,,,ヒラクドットエーアイ,0
2348,9010403031558,新規,0,2023-12-13,2023-12-13,合同会社芝浦第三商会,,合同会社,東京都,港区,南青山３丁目１番３６号青山丸竹ビル６Ｆ,,13,103,1070062,,,,,,,2023-12-13,1,,,,,シバウラダイサンショウカイ,0
2350,9010501051490,新規,0,2023-12-13,2023-12-13,エボニーアンドアイボリー株式会社,,株式会社,東京都,台東区,台東３丁目１５番４－４０３号,,13,106,1100016,,,,,,,2023-12-13,1,,,,,エボニーアンドアイボリー,0
2351,9010503007251,新規,0,2023-12-13,2023-12-13,アドレセンス合同会社,,合同会社,東京都,台東区,元浅草１丁目６－１２－４２３,,13,106,1110041,,,,,,,2023-12-13,1,,,,,アドレセンス,0
2352,9010601064319,新規,0,2023-12-13,2023-12-13,誠時株式会社,,株式会社,東京都,江東区,白河１丁目７番１３－９０１号,,13,108,1350021,,,,,,,2023-12-13,1,,,,,セイジ,0
2353,9010601064327,新規,0,2023-12-13,2023-12-13,株式会社経理クル,,株式会社,東京都,江東区,深川２丁目６番１１号,,13,108,1350033,,,,,,,2023-12-13,1,,,,,,0
2354,9010601064335,新規,0,2023-12-13,2023-12-13,株式会社インターロジワークス,,株式会社,東京都,江東区,佐賀１丁目１番１６号リバービュー茅場町１０階,,13,108,1350031,,,,,,,2023-12-13,1,,,,,インターロジワークス,0
2355,9010601064343,新規,0,2023-12-13,2023-12-13,一星株式会社,,株式会社,東京都,墨田区,亀沢４丁目２３番６号,,13,107,1300014,,,,,,,2023-12-13,1,,,,,イチボシ,0
2356,9010703006986,新規,0,2023-12-13,2023-12-13,合同会社グリーンアイス,,合同会社,東京都,品川区,東五反田１丁目２番４３号ハウス島津山８０２,,13,109,1410022,,,,,,,2023-12-13,1,,,,,グリーンアイス,0
2357,9010803004774,新規,0,2023-12-13,2023-12-13,オフィス・ゼロ合同会社,,合同会社,東京都,大田区,矢口３丁目９番１７号,,13,111,1460093,,,,,,,2023-12-13,1,,,,,オフィスゼロ,0
2358,9010803004782,新規,0,2023-12-13,2023-12-13,アトリア不動産合同会社,,合同会社,東京都,大田区,蒲田５丁目２８番４号ＥＣＳ第２７ビル３階２０号室,,13,111,1440052,,,,,,,2023-12-13,1,,,,,アトリアフドウサン,0
2364,9011001158776,新規,0,2023-12-13,2023-12-13,ＥＰＬＵＳエステート株式会社,,株式会社,東京都,渋谷区,渋谷１丁目１２番８号,,13,113,1500002,,,,,,,2023-12-13,1,,,,,エプラスエステート,0
2365,9011001158818,新規,0,2023-12-13,2023-12-13,株式会社ＳＡＳＡＭＯ,,株式会社,東京都,目黒区,三田１丁目７番１３－６０８号ヒューリック目黒三田,,13,110,1530062,,,,,,,2023-12-13,1,,,,,ササモ,0
2376,9011205002581,新規,0,2023-12-13,2023-12-13,やまと管理組合法人,,その他の設立登記法人,東京都,中野区,大和町３丁目２２番１１号,,13,114,1650034,,,,,,,2023-12-13,1,,,,,ヤマト,0
2385,9011603004163,新規,0,2023-12-13,2023-12-13,合同会社ＦＡＲＭＩＬＩＡ,,合同会社,東京都,練馬区,豊玉北４丁目１５番５号,,13,120,1760012,,,,,,,2023-12-13,1,,,,,ファミリア,0
2389,9011801043483,新規,0,2023-12-13,2023-12-13,游丸株式会社,,株式会社,東京都,足立区,伊興３丁目２１番１７号アレーズ竹の塚２０８号室,,13,121,1210823,,,,,,,2023-12-13,1,,,,,ユウマル,0
2391,9012401041324,新規,0,2023-12-13,2023-12-13,株式会社Ｓｃｏｐａ,,株式会社,東京都,調布市,布田６丁目２５番地１エスパシオ・カメリア１０３,,13,208,1820024,,,,,,,2023-12-13,1,,,,,スコーパ,0
2392,9013101009306,新規,0,2023-12-13,2023-12-13,株式会社梶原コーポレーション,,株式会社,東京都,あきる野市,小川東１丁目２５番地１６,,13,228,1970822,,,,,,,2023-12-13,1,,,,,カジワラコーポレーション,0
2400,9020001154834,新規,0,2023-12-13,2023-12-13,華連株式会社,,株式会社,神奈川県,川崎市川崎区,旭町２丁目１番１７号,,14,131,2100808,,,,,,,2023-12-13,1,,,,,カレン,0
2401,9020001154859,新規,0,2023-12-13,2023-12-13,オオソネ技研株式会社,,株式会社,神奈川県,横浜市瀬谷区,三ツ境１５８番地１４ハイツ相澤２０２,,14,114,2460022,,,,,,,2023-12-13,1,,,,,オオソネギケン,0
2402,9020001154867,新規,0,2023-12-13,2023-12-13,株式会社ノグ桜木町,,株式会社,神奈川県,横浜市中区,花咲町２丁目６３番地,,14,104,2310063,,,,,,,2023-12-13,1,,,,,ノグサクラギチョウ,0
2403,9020001154883,新規,0,2023-12-13,2023-12-13,株式会社ＭＡＧＯ．,,株式会社,神奈川県,横浜市中区,常盤町１丁目２番１号サンネット関内ビル４階,,14,104,2310014,,,,,,,2023-12-13,1,,,,,マゴ,0
2404,9020001154891,新規,0,2023-12-13,2023-12-13,株式会社阿部工業,,株式会社,神奈川県,川崎市宮前区,初山２丁目８番１－１号,,14,136,2160026,,,,,,,2023-12-13,1,,,,,アベコウギョウ,0
2405,9020003025182,新規,0,2023-12-13,2023-12-13,合同会社吉田,00132972,合同会社,神奈川県,川崎市川崎区,小田栄２丁目１番５－１４１３号,,14,131,2100843,,,,,,,2023-12-13,1,,,,,ヨシダ,0
2409,9021001080954,新規,0,2023-12-13,2023-12-13,株式会社ＧＥＡＲ　ＢＡＳＥ,,株式会社,神奈川県,相模原市緑区,三ケ木４０６番地,,14,151,2520159,,,,,,,2023-12-13,1,,,,,ギアベース,0
2416,9030001157605,新規,0,2023-12-13,2023-12-13,株式会社秩父銀行,,株式会社,埼玉県,秩父市,大宮１３１番,,11,207,3680023,,,,,,,2023-12-13,1,,,,,チチブギンコウ,0
2417,9030001157646,新規,0,2023-12-13,2023-12-13,株式会社Ａｏ　ｉｎｖｅｓｔｍｅｎｔ,,株式会社,埼玉県,上尾市,春日１丁目３１番地７,,11,219,3620074,,,,,,,2023-12-13,1,,,,,アオインベストメント,0
2418,9030001157670,新規,0,2023-12-13,2023-12-13,株式会社櫻不動産,,株式会社,埼玉県,所沢市,狭山ケ丘１丁目３００３番地の１０９桜ビル２階,,11,208,3591161,,,,,,,2023-12-13,1,,,,,サクラフドウサン,0
2419,9030001157679,新規,0,2023-12-13,2023-12-13,株式会社ダイゼン,,株式会社,埼玉県,戸田市,上戸田１丁目６番１０－３０２号,,11,224,3350022,,,,,,,2023-12-13,1,,,,,ダイゼン,0
2420,9030003023202,新規,0,2023-12-13,2023-12-13,龍＿商事合同会社,00132971,合同会社,埼玉県,狭山市,狭山台２丁目２８番地の１６,,11,215,3501304,,,,,,,2023-12-13,1,,,,,リュウイクショウジ,0
2421,9030003023210,新規,0,2023-12-13,2023-12-13,合同会社Ｒａｎｕｎ,,合同会社,埼玉県,さいたま市西区,大字指扇２５７１番地２,,11,101,3310047,,,,,,,2023-12-13,1,,,,,ラナン,0
2422,9030003023219,新規,0,2023-12-13,2023-12-13,合同会社Ｉｍｉａｓ,,合同会社,埼玉県,川越市,脇田町１６－２９,,11,201,3501122,,,,,,,2023-12-13,1,,,,,イミアス,0
2423,9030003023235,新規,0,2023-12-13,2023-12-13,合同会社テックリンケージ,,合同会社,埼玉県,鶴ヶ島市,松ヶ丘１丁目６―１２,,11,241,3502205,,,,,,,2023-12-13,1,,,,,テックリンケージ,0
2426,9040001131294,新規,0,2023-12-13,2023-12-13,龍俊ゴム株式会社,,株式会社,千葉県,松戸市,下矢切９６番地の１１,,12,207,2710096,,,,,,,2023-12-13,1,,,,,タツトシゴム,0
2427,9040001131303,新規,0,2023-12-13,2023-12-13,株式会社Ｅ．Ｚ,,株式会社,千葉県,松戸市,松戸１１７２番地１,,12,207,2710092,,,,,,,2023-12-13,1,,,,,イーゼット,0
2430,9040003023928,新規,0,2023-12-13,2023-12-13,合同会社ＴＩインベスト,,合同会社,千葉県,市川市,市川南３丁目１４番１１―３１８号（市川パークハウス）,,12,203,2720033,,,,,,,2023-12-13,1,,,,,ティーアイインベスト,0
2432,9050001053901,新規,0,2023-12-13,2023-12-13,金番茄株式会社,,株式会社,茨城県,常陸大宮市,上小瀬２０８４－１０１号室,,08,225,3192401,,,,,,,2023-12-13,1,,,,,キンバンカ,0
2434,9050003007995,新規,0,2023-12-13,2023-12-13,合同会社ＴＡＧコンサルティング,,合同会社,茨城県,常総市,水海道本町２６１２番地３ＪＶビル３０３号,,08,211,3030026,,,,,,,2023-12-13,1,,,,,タッグコンサルティング,0
2435,9050003008003,新規,0,2023-12-13,2023-12-13,東和商事合同会社,,合同会社,茨城県,筑西市,村田１５５７－１,,08,227,3004546,,,,,,,2023-12-13,1,,,,,トウワショウジ,0
2437,9060001036624,新規,0,2023-12-13,2023-12-13,株式会社ぐいっ,,株式会社,栃木県,宇都宮市,曲師町３番１０号ラッキープラザビル１階,,09,201,3200803,,,,,,,2023-12-13,1,,,,,グイッ,0
2438,9070001041177,新規,0,2023-12-13,2023-12-13,株式会社ｔｒｉｐＵＮＩＴＥ,,株式会社,群馬県,高崎市,新町３１２３番地１,,10,202,3701301,,,,,,,2023-12-13,1,,,,,トリップユナイト,0
2439,9070001041185,新規,0,2023-12-13,2023-12-13,株式会社Ａｕｌａｎｉ‐ｈｏｍｅ,,株式会社,群馬県,桐生市,相生町５丁目２８４番地２１,,10,203,3760011,,,,,,,2023-12-13,1,,,,,アウラニホーム,0
2440,9070003005196,新規,0,2023-12-13,2023-12-13,合同会社Ｓ‐Ｃａｒｇｏ,,合同会社,群馬県,佐波郡玉村町,大字上之手１５４３番地１ダイアパレス県立女子大前１４０４,,10,464,3701127,,,,,,,2023-12-13,1,,,,,エスカルゴ,0
2443,9080101024394,新規,0,2023-12-13,2023-12-13,株式会社エクスパンライズ,,株式会社,静岡県,沼津市,若葉町３番４６号,,22,203,4100059,,,,,,,2023-12-13,1,,,,,エクスパンライズ,0
2447,9080401026891,新規,0,2023-12-13,2023-12-13,株式会社川合土地開発,,株式会社,静岡県,浜松市浜北区,本沢合３１２番地の１,,22,136,4340014,,,,,,,2023-12-13,1,,,,,カワイトチカイハツ,0
2449,9100001037048,新規,0,2023-12-13,2023-12-13,ＳＡＫＡＩ　ＦＡＲＭ株式会社,,株式会社,長野県,上田市,菅平高原１２２３番地６８７２,,20,203,3862204,,,,,,,2023-12-13,1,,,,,サカイファーム,0
2459,9120001260317,新規,0,2023-12-13,2023-12-13,誠信株式会社,,株式会社,大阪府,大阪市西成区,津守１丁目８番８－２０１号,,27,122,5570062,,,,,,,2023-12-13,1,,,,,セイシン,0
2460,9120001260556,新規,0,2023-12-13,2023-12-13,株式会社ＭＰＭ,,株式会社,大阪府,大阪市北区,大淀南２丁目１－１グランドメゾン新梅田タワー７０９,,27,127,5310075,,,,,,,2023-12-13,1,,,,,エムピーエム,0
2461,9120001260564,新規,0,2023-12-13,2023-12-13,ＳＫ商事株式会社,,株式会社,大阪府,大阪市西淀川区,大野３丁目７番４３号,,27,113,5550043,,,,,,,2023-12-13,1,,,,,エスケーショウジ,0
2462,9120001260589,新規,0,2023-12-13,2023-12-13,セディア株式会社,,株式会社,大阪府,大阪市阿倍野区,共立通１丁目９番２３号,,27,119,5450041,,,,,,,2023-12-13,1,,,,,セディア,0
2463,9120001260614,新規,0,2023-12-13,2023-12-13,ビート株式会社,,株式会社,大阪府,大阪市中央区,大手通１丁目４番１０号大手前フタバビル９階,,27,128,5400021,,,,,,,2023-12-13,1,,,,,ビート,0
2464,9120001260647,新規,0,2023-12-13,2023-12-13,株式会社アーククリエート,,株式会社,大阪府,大阪市都島区,都島南通１丁目５番２３号,,27,102,5340023,,,,,,,2023-12-13,1,,,,,アーククリエート,0
2468,9120101068676,新規,0,2023-12-13,2023-12-13,Ｇｅｎｚｏｎｅ株式会社,,株式会社,大阪府,堺市美原区,多治井３２番地の８,,27,147,5870012,,,,,,,2023-12-13,1,,,,,ゲンゾン,0
2469,9120101068684,新規,0,2023-12-13,2023-12-13,株式会社三栄,,株式会社,大阪府,堺市堺区,三宝町１丁１４番地４７,,27,141,5900906,,,,,,,2023-12-13,1,,,,,サンエイ,0
2474,9120901048472,新規,0,2023-12-13,2023-12-13,株式会社Ｏｈａｓｈｉｒｏ,,株式会社,大阪府,池田市,石橋１丁目３番６号,,27,204,5630032,,,,,,,2023-12-13,1,,,,,オハシロ,0
2475,9120901048480,新規,0,2023-12-13,2023-12-13,株式会社碧,,株式会社,大阪府,豊中市,小曽根１丁目１５番８号,,27,203,5610813,,,,,,,2023-12-13,1,,,,,ミドリ,0
2484,9130001075895,新規,0,2023-12-13,2023-12-13,株式会社ウエイバリー,,株式会社,京都府,京都市中京区,壬生下溝町２３番地８・１０２号,,26,104,6048832,,,,,,,2023-12-13,1,,,,,ウエイバリー,0
2485,9130001075912,新規,0,2023-12-13,2023-12-13,株式会社みらい,,株式会社,京都府,京都市南区,久世大藪町７３番地１８,,26,107,6010000,,,,,,,2023-12-13,1,,,,,ミライ,0
2486,9130001075929,新規,0,2023-12-13,2023-12-13,株式会社心都,,株式会社,京都府,京都市伏見区,西尼崎町９００番地グランヴィラ桃山１１０号室,,26,109,6128358,,,,,,,2023-12-13,1,,,,,シント,0
2487,9130001075937,新規,0,2023-12-13,2023-12-13,新途ハイテク株式会社,,株式会社,京都府,京都市中京区,御池通東洞院東入笹屋町４３６永和御池ビル６０６号,,26,104,6048187,,,,,,,2023-12-13,1,,,,,シントハイテク,0
2495,9140001132679,新規,0,2023-12-13,2023-12-13,株式会社Ｄ．Ｐ,,株式会社,兵庫県,小野市,船木町５００番地の１,,28,218,6751306,,,,,,,2023-12-13,1,,,,,ディーピー,0
2496,9140001132695,新規,0,2023-12-13,2023-12-13,株式会社ＡＲＡＴＡ,,株式会社,兵庫県,尼崎市,富松町４丁目２４番７号,,28,202,6610003,,,,,,,2023-12-13,1,,,,,アラタ,0
2498,9150001026938,新規,0,2023-12-13,2023-12-13,タイヘイプレス工業株式会社,,株式会社,奈良県,大和郡山市,池沢町２３３番地３,,29,203,6391032,,,,,,,2023-12-13,1,,,,,タイヘイプレスコウギョウ,0
2500,9160003003059,新規,0,2023-12-13,2023-12-13,合同会社二階堂・サポ,,合同会社,滋賀県,東近江市,五個荘五位田町４０１番地３,,25,213,5291415,,,,,,,2023-12-13,1,,,,,ニカイドウサポ,0
2502,9170005007057,新規,0,2023-12-13,2023-12-13,特定非営利活動法人あのと,,その他の設立登記法人,和歌山県,西牟婁郡白浜町,３７７３番地の１５,,30,401,6492211,,,,,,,2023-12-13,1,,,,,アノト,0
2510,9180001159297,新規,0,2023-12-13,2023-12-13,株式会社ＮＥＸＴ　ＯＣＥＡＮ,,株式会社,愛知県,名古屋市千種区,山添町１丁目６６番地,,23,101,4640832,,,,,,,2023-12-13,1,,,,,ネクストオーシャン,0
2511,9180001159306,新規,0,2023-12-13,2023-12-13,株式会社カーザミーア,,株式会社,愛知県,名古屋市千種区,見附町２丁目１２番地,,23,101,4640817,,,,,,,2023-12-13,1,,,,,カーザミーア,0
2512,9180001159314,新規,0,2023-12-13,2023-12-13,株式会社ＩＺＵＭＩ,,株式会社,愛知県,名古屋市中川区,四女子町３丁目２９番地の２,,23,110,4540822,,,,,,,2023-12-13,1,,,,,イズミ,0
2513,9180001159322,新規,0,2023-12-13,2023-12-13,株式会社１ｐｐｏ,,株式会社,愛知県,名古屋市南区,柵下町１丁目４５番地の２,,23,112,4570044,,,,,,,2023-12-13,1,,,,,イッポ,0
2514,9180001159330,新規,0,2023-12-13,2023-12-13,株式会社エルブイアール,,株式会社,愛知県,犬山市,大字羽黒字高橋郷１９０番地１,,23,215,4840894,,,,,,,2023-12-13,1,,,,,エルブイアール,0
2515,9180001159347,新規,0,2023-12-13,2023-12-13,株式会社ＲＣコミュニケーションズ,,株式会社,愛知県,一宮市,北方町北方字狐塚郷４５番地１,,23,203,4938001,,,,,,,2023-12-13,1,,,,,アールシーコミュニケーションズ,0
2516,9180001159371,新規,0,2023-12-13,2023-12-13,Ａｐｏｌｌｏ　Ｉｎｔｅｒｍｅｄｉａｒｙ株式会社,,株式会社,愛知県,名古屋市中区,千代田３丁目２６番１５号（三旺マンション鶴舞５０３号）,,23,106,4600012,,,,,,,2023-12-13,1,,,,,アポロインターミディアリー,0
2518,9180003026058,新規,0,2023-12-13,2023-12-13,合同会社ＫＡＮＮＯＮ,,合同会社,愛知県,名古屋市中村区,名駅４丁目２４番５号第２森ビル４０１,,23,105,4500002,,,,,,,2023-12-13,1,,,,,カンノン,0
2519,9180003026108,新規,0,2023-12-13,2023-12-13,合同会社Ｐｅａｃｅｆｕｌ　Ｌｉｆｅ,,合同会社,愛知県,名古屋市名東区,貴船１丁目２９２番地,,23,115,4650058,,,,,,,2023-12-13,1,,,,,ピースフルライフ,0
2520,9180301038102,新規,0,2023-12-13,2023-12-13,株式会社ＲＥＧＯＲＮ,,株式会社,愛知県,刈谷市,小垣江町下半ノ木１－１,,23,210,4480813,,,,,,,2023-12-13,1,,,,,リゴーン,0
2521,9180301038110,新規,0,2023-12-13,2023-12-13,株式会社ＨＡＲＥＬ　ＬＩＦＥ,,株式会社,愛知県,岡崎市,竜美台１丁目３番地８,,23,202,4440873,,,,,,,2023-12-13,1,,,,,ハレルライフ,0
2522,9180301038119,新規,0,2023-12-13,2023-12-13,株式会社石川マシンテック,,株式会社,愛知県,西尾市,住吉町５丁目３７番地,,23,213,4450851,,,,,,,2023-12-13,1,,,,,イシカワマシンテック,0
2524,9190001030952,新規,0,2023-12-13,2023-12-13,株式会社ＩＣホールディングス,,株式会社,三重県,桑名市,陽だまりの丘６丁目６１１番地,,24,205,5110867,,,,,,,2023-12-13,1,,,,,アイシーホールディングス,0
2534,9220001025734,新規,0,2023-12-13,2023-12-13,株式会社モリシタフーズ,,株式会社,石川県,白山市,長竹町４９番地２２,,17,210,9240811,,,,,,,2023-12-13,1,,,,,モリシタフーズ,0
2537,9240001062544,新規,0,2023-12-13,2023-12-13,株式会社ｏｗｌ,,株式会社,広島県,広島市安佐南区,緑井２丁目１４番２６号,,34,105,7310103,,,,,,,2023-12-13,1,,,,,アウル,0
2539,9250003003396,新規,0,2023-12-13,2023-12-13,合同会社ＬＡＰＩＳ・ＧＦ,,合同会社,山口県,宇部市,神原町２丁目８番３１－８０１号,,35,202,7550022,,,,,,,2023-12-13,1,,,,,ラピスジーエフ,0
2549,9290001104028,新規,0,2023-12-13,2023-12-13,アートシステム株式会社,,株式会社,福岡県,久留米市,荒木町荒木１９７２番地１６,,40,203,8300063,,,,,,,2023-12-13,1,,,,,アートシステム,0
2550,9290001104036,新規,0,2023-12-13,2023-12-13,株式会社ギフテッド,,株式会社,福岡県,大牟田市,平原町２５５番地２,,40,202,8360813,,,,,,,2023-12-13,1,,,,,ギフテッド,0
2551,9290003014737,新規,0,2023-12-13,2023-12-13,合同会社ＴＯＫＩＮＯＭＡ,,合同会社,福岡県,糟屋郡志免町,別府３丁目２番１－４０９号,,40,343,8112205,,,,,,,2023-12-13,1,,,,,トキノマ,0
2552,9290801030126,新規,0,2023-12-13,2023-12-13,株式会社ＢｅＷｏｎｄｅｒ,,株式会社,福岡県,北九州市八幡西区,折尾４丁目８番１０号,,40,109,8070825,,,,,,,2023-12-13,1,,,,,ビーワンダー,0
2553,9290803004557,新規,0,2023-12-13,2023-12-13,合同会社ＨＹＧＧＥ,,合同会社,福岡県,北九州市若松区,青葉台西４丁目１３番１１号,,40,103,8080143,,,,,,,2023-12-13,1,,,,,ヒュッゲ,0
2554,9300001013549,新規,0,2023-12-13,2023-12-13,株式会社リアルエステート嬉野,,株式会社,佐賀県,嬉野市,嬉野町大字下宿乙２３５６番地１０,,41,209,8430301,,,,,,,2023-12-13,1,,,,,リアルエステートウレシノ,0
2556,9330003010120,新規,0,2023-12-13,2023-12-13,合同会社フルポイント,,合同会社,熊本県,熊本市中央区,水道町２番１５号,,43,101,8600844,,,,,,,2023-12-13,1,,,,,フルポイント,0
2558,9360001032923,新規,0,2023-12-13,2023-12-13,株式会社ウナシ,,株式会社,沖縄県,那覇市,泉崎１丁目２０－１カフーナ旭橋Ａ街区那覇オーパ３階,,47,201,9000021,,,,,,,2023-12-13,1,,,,,ウナシ,0
2559,9360001032931,新規,0,2023-12-13,2023-12-13,株式会社宮古海水魚,,株式会社,沖縄県,宮古島市,平良字東仲宗根９５８番地３,,47,214,9060007,,,,,,,2023-12-13,1,,,,,ミヤコカイスイギョ,0
2562,9360003013541,新規,0,2023-12-13,2023-12-13,ハブクリエイト合同会社,,合同会社,沖縄県,名護市,宮里１丁目２８番８号南西ビル２Ｆ,,47,209,9050011,,,,,,,2023-12-13,1,,,,,ハブクリエイト,0
2563,9370001050718,新規,0,2023-12-13,2023-12-13,ＡＭＡ株式会社,,株式会社,宮城県,仙台市太白区,中田７丁目９番１号,,04,104,9811104,,,,,,,2023-12-13,1,,,,,エーエムエー,0
2564,9370003006412,新規,0,2023-12-13,2023-12-13,合同会社テレジー,,合同会社,宮城県,富谷市,明石台６丁目３２番地３,,04,216,9813332,,,,,,,2023-12-13,1,,,,,テレジー,0
2567,9370005010726,新規,0,2023-12-13,2023-12-13,医療法人社団健寿会,,その他の設立登記法人,宮城県,名取市,田高字原５９７番地,,04,207,9811221,,,,,,,2023-12-13,1,,,,,ケンジュカイ,0
2571,9380001034190,新規,0,2023-12-13,2023-12-13,株式会社福,,株式会社,福島県,会津若松市,山見町４０番地の２６,,07,202,9650021,,,,,,,2023-12-13,1,,,,,フク,0
2574,9380003005636,新規,0,2023-12-13,2023-12-13,合同会社ＳＨＯＫＥＩ,,合同会社,福島県,福島市,松木町７番２１号,,07,201,9608018,,,,,,,2023-12-13,1,,,,,ショウケイ,0
2581,9420001018511,新規,0,2023-12-13,2023-12-13,株式会社トータルライフ,,株式会社,青森県,青森市,花園１丁目１５番９号ハイツソレイユ１０２号,,02,201,0300966,,,,,,,2023-12-13,1,,,,,トータルライフ,0
2589,9700150122721,新規,0,2023-12-13,2023-12-13,ＤｏｎｇＧｕａｎ　ＳｈａｎｇＭａｉ　Ｂｕｓｉｎｅｓｓ　Ｓｅｒｖｉｃｅ　Ｃｏ　Ｌｔｄ,,外国会社等,,,,,,,,１２０１Ｂｕｉｌｄｉｎｇ７１　Ｘｉａｎｇｘｉｅｌｉ　Ｓｈｉｊｉｃｈｅｎｇ　Ｇｕｏｊｉｇｏｎｇｇｕａｎ　Ｎｏ．２ＧｒｅｅｎＲｏａｄ　ＮａｎｃｈｅｎｇＳｔｒｅｅｔ　ＤｏｎｇｇｕａｎＣｉｔｙ　ＧｕａｎｇｄｏｎｇＰｒｏｖｉｎｃｅ,,,,,,2023-12-13,1,,,,,トウカンシャンマイビジネスサービスカンパニーリミテッド,0
2590,9700150122738,新規,0,2023-12-13,2023-12-13,ＡｒｏｍａｔｉｋａＢ．Ｖ．,,外国会社等,,,,,,,,Ｓｔａｄｈｏｕｄｅｒｓｌａａｎ　２５，３７６１ＥＪ　Ｓｏｅｓｔ,,,,,,2023-12-13,1,,,,,アーロマティカビーヴィー,0
