sequenceNumber,corporateNumber,process,correct,updateDate,changeDate,name,nameImageId,kind,prefectureName,cityName,streetNumber,addressImageId,prefectureCode,cityCode,postCode,addressOutside,addressOutsideImageId,closeDate,closeCause,successorCorporateNumber,changeCause,assignmentDate,latest,enName,enPrefectureName,enCityName,enAddressOutside,furigana,hihyoji
8,1010001241120,新規,0,2023-12-28,2023-12-28,株式会社ｍｉｎａｔｏ,,株式会社,東京都,中央区,新富２丁目１０番１０号,,13,102,1040041,,,,,,,2023-12-28,1,,,,,ミナト,0
9,1010001241137,新規,0,2023-12-28,2023-12-28,株式会社帝国リアルエステート,,株式会社,東京都,中央区,日本橋箱崎町１７－８・７山京ビル８階,,13,102,1030015,,,,,,,2023-12-28,1,,,,,テイコクリアルエステート,0
10,1010001241145,新規,0,2023-12-28,2023-12-28,株式会社アルゴリンク,,株式会社,東京都,中央区,日本橋２丁目１番１７号丹生ビル２階,,13,102,1030027,,,,,,,2023-12-28,1,,,,,アルゴリンク,0
11,1010001241153,新規,0,2023-12-28,2023-12-28,株式会社Ａｄｅｌｅｘ,,株式会社,東京都,中央区,月島１丁目５番１－１９０４号,,13,102,1040052,,,,,,,2023-12-28,1,,,,,アデレックス,0
12,1010001241178,新規,0,2023-12-28,2023-12-28,ＤＳコミュニケーション株式会社,,株式会社,東京都,千代田区,神田松永町１３番地,,13,101,1010023,,,,,,,2023-12-28,1,,,,,ディエスコミュニケーション,0
25,1010401179489,新規,0,2023-12-28,2023-12-28,株式会社福笑,,株式会社,東京都,港区,海岸１丁目９番１５号,,13,103,1050022,,,,,,,2023-12-28,1,,,,,フクラ,0
26,1010401179506,新規,0,2023-12-28,2023-12-28,株式会社ｗｉｓｅ　ｓｐｉｒｉｔｓ,,株式会社,東京都,港区,台場１丁目３番４－２５０３号,,13,103,1350091,,,,,,,2023-12-28,1,,,,,ワイズスピリッツ,0
28,1010403031664,新規,0,2023-12-28,2023-12-28,合同会社ＢｅＯ,,合同会社,東京都,港区,新橋５丁目１２番１１号,,13,103,1050004,,,,,,,2023-12-28,1,,,,,ベオ,0
29,1010501051564,新規,0,2023-12-28,2023-12-28,涌泉株式会社,,株式会社,東京都,台東区,浅草５丁目３５番４号,,13,106,1110032,,,,,,,2023-12-28,1,,,,,ユウセン,0
30,1010503007283,新規,0,2023-12-28,2023-12-28,合同会社ＣＨＩＣ　ＭＡＮ,,合同会社,東京都,台東区,台東３丁目１７―６,,13,106,1100016,,,,,,,2023-12-28,1,,,,,シックマン,0
31,1010601064417,新規,0,2023-12-28,2023-12-28,Ｏ２株式会社,,株式会社,東京都,江東区,新大橋１丁目５番４－３１５号,,13,108,1350007,,,,,,,2023-12-28,1,,,,,オーツー,0
40,1011001159063,新規,0,2023-12-28,2023-12-28,株式会社アンドクリーチャーズ,,株式会社,東京都,目黒区,下目黒１丁目１番１４号コノトラビル７Ｆ,,13,110,1530064,,,,,,,2023-12-28,1,,,,,アンドクリーチャーズ,0
41,1011001159113,新規,0,2023-12-28,2023-12-28,株式会社ナップフォード,,株式会社,東京都,渋谷区,代々木４丁目１２番６号Ｃａｌａ参宮橋Ｂ号室,,13,113,1510053,,,,,,,2023-12-28,1,,,,,ナップフォード,0
42,1011001159121,新規,0,2023-12-28,2023-12-28,株式会社ａｙｅ,,株式会社,東京都,渋谷区,富ヶ谷１丁目２番４号,,13,113,1510063,,,,,,,2023-12-28,1,,,,,アイ,0
43,1011001159138,新規,0,2023-12-28,2023-12-28,株式会社表現と旅,,株式会社,東京都,渋谷区,渋谷２丁目１９番１５－６０９号宮益坂ビルディング,,13,113,1500002,,,,,,,2023-12-28,1,,,,,ヒョウゲントタビ,0
46,1011003018151,新規,0,2023-12-28,2023-12-28,グローバルエクセレンス合同会社,,合同会社,東京都,渋谷区,恵比寿西２丁目８－４ＥＸ恵比寿西ビル５Ｆ,,13,113,1500021,,,,,,,2023-12-28,1,,,,,グローバルエクセレンス,0
47,1011003018184,新規,0,2023-12-28,2023-12-28,合同会社Ｇ＆Ｓ　Ｐｌａｎｎｉｎｇ,,合同会社,東京都,目黒区,柿の木坂２丁目２７番９号,,13,110,1520022,,,,,,,2023-12-28,1,,,,,ジーアンドエスプランニング,0
51,1011103013911,新規,0,2023-12-28,2023-12-28,合同会社ＪＳＯＰ,,合同会社,東京都,新宿区,西新宿３丁目３番１３号西新宿水間ビル２Ｆ,,13,104,1600023,,,,,,,2023-12-28,1,,,,,ジェイエスオーピー,0
52,1011301029288,新規,0,2023-12-28,2023-12-28,株式会社ＣＡＰｉＴＡＬ,,株式会社,東京都,杉並区,方南２丁目２０番１０号ラ・パルフェ・ド・グリシン４０８,,13,115,1680062,,,,,,,2023-12-28,1,,,,,キャピタル,0
53,1011303005015,新規,0,2023-12-28,2023-12-28,合同会社Ｂｉｒｄ‐Ｘ,,合同会社,東京都,杉並区,下井草４丁目２１番１９号,,13,115,1670022,,,,,,,2023-12-28,1,,,,,,0
55,1011401025732,新規,0,2023-12-28,2023-12-28,株式会社ＵＮＡ,,株式会社,東京都,板橋区,南常盤台１丁目２２番１１号,,13,119,1740072,,,,,,,2023-12-28,1,,,,,ユーエヌエー,0
59,1011601027405,新規,0,2023-12-28,2023-12-28,株式会社ホームベース,,株式会社,東京都,練馬区,西大泉５丁目３５番１４号サンヒルズ大泉１０１,,13,120,1780065,,,,,,,2023-12-28,1,,,,,ホームベース,0
60,1011601027413,新規,0,2023-12-28,2023-12-28,ＨａｐｐｉＮｅｘ株式会社,,株式会社,東京都,練馬区,春日町３丁目３４番２７－３０４号,,13,120,1790074,,,,,,,2023-12-28,1,,,,,ハピネックス,0
64,1011701026884,新規,0,2023-12-28,2023-12-28,株式会社Ｃｒｏｓｓｂｒｉｄｇｅ　Ｇｌｏｂａｌ,,株式会社,東京都,江戸川区,中葛西８丁目１３番３１号,,13,123,1340083,,,,,,,2023-12-28,1,,,,,クロスブリッジグローバル,0
78,1013301051841,新規,0,2023-12-28,2023-12-28,ｅｎｅｖｅｒ株式会社,,株式会社,東京都,豊島区,西池袋１丁目９番１１号,,13,116,1710021,,,,,,,2023-12-28,1,,,,,エンエヴァー,0
85,1020001155105,新規,0,2023-12-28,2023-12-28,ＡＮ　ＨＯＬＤＩＮＧＳ株式会社,,株式会社,神奈川県,川崎市麻生区,万福寺１丁目１番１号新百合ヶ丘シティビルディング６階,,14,137,2150004,,,,,,,2023-12-28,1,,,,,アンホールディングス,0
91,1021001081035,新規,0,2023-12-28,2023-12-28,株式会社エムズ,,株式会社,神奈川県,相模原市南区,相模大野３丁目３番２－１７０４号,,14,153,2520303,,,,,,,2023-12-28,1,,,,,エムズ,0
92,1021001081092,新規,0,2023-12-28,2023-12-28,ＺＡ　ＣＯＲＰＯＲＡＴＩＯＮ株式会社,,株式会社,神奈川県,相模原市南区,新戸２３３２番地２,,14,153,2520326,,,,,,,2023-12-28,1,,,,,ザコーポレーション,0
93,1021001081101,新規,0,2023-12-28,2023-12-28,株式会社ＲＩ,,株式会社,神奈川県,大和市,中央林間７丁目９番５－１３０１号,,14,213,2420007,,,,,,,2023-12-28,1,,,,,アールアイ,0
94,1021001081118,新規,0,2023-12-28,2023-12-28,株式会社エバーノーズ,,株式会社,神奈川県,愛甲郡愛川町,中津２６３２番地１,,14,401,2430303,,,,,,,2023-12-28,1,,,,,エバーノーズ,0
98,1021003013952,新規,0,2023-12-28,2023-12-28,Ｙ．Ｋｓｔｙｌｅ合同会社,,合同会社,神奈川県,藤沢市,善行６丁目５番２号サンシティハイム１０３,,14,205,2510871,,,,,,,2023-12-28,1,,,,,ワイケースタイル,0
99,1021003013969,新規,0,2023-12-28,2023-12-28,合同会社Ｓｕｇｉｃａｎ,,合同会社,神奈川県,小田原市,新屋２３１番地の２９,,14,206,2500856,,,,,,,2023-12-28,1,,,,,スギカン,0
100,1021005012985,新規,0,2023-12-28,2023-12-28,医療法人社団鶴俊会,,その他の設立登記法人,神奈川県,座間市,栗原中央４丁目１９番１４号,,14,216,2520014,,,,,,,2023-12-28,1,,,,,カクシュンカイ,0
109,1030001157918,新規,0,2023-12-28,2023-12-28,株式会社和のなごみ,,株式会社,埼玉県,加須市,上崎６７４番地１,,11,210,3470125,,,,,,,2023-12-28,1,,,,,ワノナゴミ,0
110,1030001157950,新規,0,2023-12-28,2023-12-28,株式会社陽ハマタノボル,,株式会社,埼玉県,蕨市,中央１丁目３番４号蕨名店街ビル１０３,,11,223,3350004,,,,,,,2023-12-28,1,,,,,ヒハマタノボル,0
123,1040001131599,新規,0,2023-12-28,2023-12-28,日本興業株式会社,,株式会社,千葉県,千葉市緑区,高田町１６５８－２,,12,105,2660003,,,,,,,2023-12-28,1,,,,,ニホンコウギョウ,0
126,1040003023968,新規,0,2023-12-28,2023-12-28,合同会社ＰＬＡＹ４,,合同会社,千葉県,香取市,佐原イ５５番地８,,12,236,2870003,,,,,,,2023-12-28,1,,,,,プレイフォー,0
132,1050001054056,新規,0,2023-12-28,2023-12-28,株式会社Ｚｈｉ‐Ｎｅｘｔ　Ｃｏｎｓｕｌｔｉｎｇ,,株式会社,茨城県,那珂市,中里１３７０－６,,08,226,3192103,,,,,,,2023-12-28,1,,,,,ジーネクストコンサルティング,0
135,1070003005220,新規,0,2023-12-28,2023-12-28,合同会社ＪＥＩＴ,,合同会社,群馬県,高崎市,倉賀野町６２９１番地,,10,202,3701201,,,,,,,2023-12-28,1,,,,,ジェイト,0
139,1080401026908,新規,0,2023-12-28,2023-12-28,浜名湖エナジーファーム株式会社,,株式会社,静岡県,湖西市,鷲津２８０１番地の１,,22,221,4310431,,,,,,,2023-12-28,1,,,,,ハマナコエナジーファーム,0
154,1120001260852,新規,0,2023-12-28,2023-12-28,株式会社ＲｏｕｇｈＧｒｅｎ,,株式会社,大阪府,大阪市中央区,北久宝寺町２丁目６番１号ＲＥ－０１７・５０４号室,,27,128,5410057,,,,,,,2023-12-28,1,,,,,ラフグリン,0
155,1120001260992,新規,0,2023-12-28,2023-12-28,Ｍ＆Ｆ株式会社,,株式会社,大阪府,大阪市城東区,放出西１丁目２番５９号１１０７,,27,118,5360011,,,,,,,2023-12-28,1,,,,,エムアンドエフ,0
156,1120001261025,新規,0,2023-12-28,2023-12-28,株式会社ＦＨサービス,,株式会社,大阪府,大阪市中央区,平野町１丁目８番１５号,,27,128,5410046,,,,,,,2023-12-28,1,,,,,エフエイチサービス,0
158,1120003025601,新規,0,2023-12-28,2023-12-28,合同会社ＫＧ,,合同会社,大阪府,大阪市北区,中津１丁目１３－１３西川ビル２０３号,,27,127,5310071,,,,,,,2023-12-28,1,,,,,ケージー,0
159,1120101068782,新規,0,2023-12-28,2023-12-28,株式会社エムアンドエム,,株式会社,大阪府,堺市西区,鳳南町５丁５３１番地７,,27,144,5938325,,,,,,,2023-12-28,1,,,,,エムアンドエム,0
163,1130005016960,新規,0,2023-12-28,2023-12-28,一般社団法人３Ｘ３ＵＮＩＴＥＤ,,その他の設立登記法人,京都府,京都市右京区,梅ケ畑中縄手町１３－１,,26,108,6168273,,,,,,,2023-12-28,1,,,,,スリーエックススリーユナイテッド,0
167,1140001132694,新規,0,2023-12-28,2023-12-28,株式会社ＭＯＶＥＯＮ,,株式会社,兵庫県,姫路市,東辻井４丁目５番２４号,00133154,28,201,6700084,,,,,,,2023-12-28,1,,,,,ムーブオン,0
168,1140001132843,新規,0,2023-12-28,2023-12-28,株式会社スタジオにごり,,株式会社,兵庫県,川西市,美園町６番１７号,,28,217,6660013,,,,,,,2023-12-28,1,,,,,スタジオニゴリ,0
169,1140001132851,新規,0,2023-12-28,2023-12-28,葡萄の樹株式会社,,株式会社,兵庫県,神戸市兵庫区,上庄通３丁目１番１号３階,,28,105,6520862,,,,,,,2023-12-28,1,,,,,ブドウノキ,0
171,1140003019989,新規,0,2023-12-28,2023-12-28,合同会社Ｒｅｎｅｗ,,合同会社,兵庫県,宝塚市,中山寺１丁目１７番２５号ルミエール中山１０２,,28,214,6650861,,,,,,,2023-12-28,1,,,,,リニュー,0
173,1140005026876,新規,0,2023-12-28,2023-12-28,医療法人社団Ｎ．ＹＡＭＡＧＡＭＩ,,その他の設立登記法人,兵庫県,神戸市垂水区,小束山本町３丁目１番２号,,28,108,6550003,,,,,,,2023-12-28,1,,,,,エヌヤマガミ,0
174,1160001025590,新規,0,2023-12-28,2023-12-28,株式会社タカラアセットマネジメント,,株式会社,滋賀県,草津市,芦浦町３３４番地４,00133150,25,206,5250002,,,,,,,2023-12-28,1,,,,,タカラアセットマネジメント,0
175,1160001025599,新規,0,2023-12-28,2023-12-28,株式会社テクノスファーム,,株式会社,滋賀県,甲賀市,水口町松尾３６２番地の２２,,25,209,5280074,,,,,,,2023-12-28,1,,,,,,0
185,1180301038175,新規,0,2023-12-28,2023-12-28,株式会社ＭＩＲＡＩ戦略研究所,,株式会社,愛知県,岡崎市,鴨田町字向山８２番地アーバン鴨田６０３,,23,202,4442121,,,,,,,2023-12-28,1,,,,,ミライセンリャクケンキュウジョ,0
190,1210001019587,新規,0,2023-12-28,2023-12-28,株式会社ＫＹＣ,,株式会社,福井県,福井市,経田２丁目１１０９番地,,18,201,9100011,,,,,,,2023-12-28,1,,,,,ケイワイシー,0
191,1220001025758,新規,0,2023-12-28,2023-12-28,昭和不動産経営株式会社,,株式会社,石川県,金沢市,御供田町ハ７番地４,,17,201,9208221,,,,,,,2023-12-28,1,,,,,ショウワフドウサンケイエイ,0
192,1240001062601,新規,0,2023-12-28,2023-12-28,株式会社大江地所,,株式会社,広島県,広島市中区,富士見町８番１８号,,34,101,7300043,,,,,,,2023-12-28,1,,,,,オオエジショ,0
193,1250001020450,新規,0,2023-12-28,2023-12-28,株式会社ＲＣホールディングス,,株式会社,山口県,防府市,大字浜方１１番地８,,35,206,7470833,,,,,,,2023-12-28,1,,,,,アールシーホールディングス,0
195,1260003004533,新規,0,2023-12-28,2023-12-28,ＣＳＢ合同会社,,合同会社,岡山県,赤磐市,山陽１丁目６－２,,33,213,7090827,,,,,,,2023-12-28,1,,,,,シーエスビー,0
196,1270003001587,新規,0,2023-12-28,2023-12-28,合同会社サンシースカイ,,合同会社,鳥取県,境港市,中野町５６１３番地１,,31,204,6840041,,,,,,,2023-12-28,1,,,,,サンシースカイ,0
200,1290001104209,新規,0,2023-12-28,2023-12-28,株式会社Ｏｒｔｈｏｒｔｓ,,株式会社,福岡県,福岡市中央区,草香江２丁目１３番１５－１０１号,,40,133,8100045,,,,,,,2023-12-28,1,,,,,オルソーツ,0
201,1290001104225,新規,0,2023-12-28,2023-12-28,オーガニックヴィレッジ株式会社,,株式会社,福岡県,糸島市,二丈深江８丁目３番１０号,,40,230,8191601,,,,,,,2023-12-28,1,,,,,オーガニックヴィレッジ,0
202,1290001104233,新規,0,2023-12-28,2023-12-28,株式会社ミカン,,株式会社,福岡県,みやま市,高田町江浦町１６３５－１３,,40,229,8390212,,,,,,,2023-12-28,1,,,,,ミカン,0
204,1290005019238,新規,0,2023-12-28,2023-12-28,医療法人どんぐり会,,その他の設立登記法人,福岡県,福岡市東区,香椎照葉５丁目２番地１９,,40,131,8130017,,,,,,,2023-12-28,1,,,,,ドングリカイ,0
208,1320001020212,新規,0,2023-12-28,2023-12-28,株式会社昇建工業,,株式会社,大分県,杵築市,大字守江１０４２番地５１,,44,210,8730033,,,,,,,2023-12-28,1,,,,,ショウケンコウギョウ,0
210,1330001031605,新規,0,2023-12-28,2023-12-28,ＭＩＣＯＨＡＮＡ株式会社,,株式会社,熊本県,熊本市西区,田崎本町４番１３号２０１,,43,103,8600052,,,,,,,2023-12-28,1,,,,,ミコハナ,0
213,1340001026182,新規,0,2023-12-28,2023-12-28,大松株式会社,,株式会社,鹿児島県,鹿児島市,宇宿７丁目５番２０号,,46,201,8900073,,,,,,,2023-12-28,1,,,,,オオマツ,0
214,1340005009687,新規,0,2023-12-28,2023-12-28,一般財団法人大崎町農業公社,,その他の設立登記法人,鹿児島県,曽於郡大崎町,井俣４６７番地１,,46,468,8997309,,,,,,,2023-12-28,1,,,,,オオサキチョウノウギョウコウシャ,0
216,1360001033020,新規,0,2023-12-28,2023-12-28,株式会社丸大商事,,株式会社,沖縄県,島尻郡南風原町,字宮平２５１番地,,47,350,9011104,,,,,,,2023-12-28,1,,,,,マルダイショウジ,0
218,1360005006963,新規,0,2023-12-28,2023-12-28,一般社団法人沖縄県こども福祉センター,,その他の設立登記法人,沖縄県,浦添市,字港川２８１－２ウィングシャトー浦添港川３０１,,47,208,9012134,,,,,,,2023-12-28,1,,,,,オキナワケンコドモフクシセンター,0
222,1370003006436,新規,0,2023-12-28,2023-12-28,合同会社ウッドビレッジ,,合同会社,宮城県,仙台市青葉区,春日町３番４－５０６号,,04,101,9800821,,,,,,,2023-12-28,1,,,,,ウッドビレッジ,0
224,1380005012786,新規,0,2023-12-28,2023-12-28,特定非営利活動法人穂乃花,,その他の設立登記法人,福島県,河沼郡会津坂下町,字市中三番甲３７３１番地,,07,421,9696547,,,,,,,2023-12-28,1,,,,,ホノカ,0
225,1390003002185,新規,0,2023-12-28,2023-12-28,合同会社ガンバルジャパン,,合同会社,山形県,寒河江市,大字島字島東１１７番地の１アゼリアＣ棟２０８,,06,206,9910043,,,,,,,2023-12-28,1,,,,,ガンバルジャパン,0
234,1430001090748,新規,0,2023-12-28,2023-12-28,株式会社ハートウッドケア,,株式会社,北海道,札幌市手稲区,西宮の沢三条３丁目４番１５－１０７号,,01,109,0060003,,,,,,,2023-12-28,1,,,,,ハートウッドケア,0
235,1430003015802,新規,0,2023-12-28,2023-12-28,ホールディング合同会社,,合同会社,北海道,札幌市豊平区,月寒西一条７丁目６番９号,,01,105,0620021,,,,,,,2023-12-28,1,,,,,ホールディング,0
236,1430003015810,新規,0,2023-12-28,2023-12-28,合同会社みんなの空間,,合同会社,北海道,札幌市東区,東苗穂七条１丁目１番５５号,,01,103,0070807,,,,,,,2023-12-28,1,,,,,ミンナノクウカン,0
241,1460403000244,新規,0,2023-12-28,2023-12-28,合同会社つなぐ訪問看護ステーション,,合同会社,北海道,根室市,松本町４丁目１２番地１,,01,223,0870044,,,,,,,2023-12-28,1,,,,,ツナグホウモンカンゴステーション,0
242,1462501000976,新規,0,2023-12-28,2023-12-28,株式会社中田工業,,株式会社,北海道,標津郡中標津町,西三条北２丁目１番地３シェ・モア４０４,,01,692,0861123,,,,,,,2023-12-28,1,,,,,ナカタコウギョウ,0
246,1490001010667,新規,0,2023-12-28,2023-12-28,株式会社エムアイティーガレージ,,株式会社,高知県,吾川郡いの町,池ノ内３８９番地１,,39,386,7812121,,,,,,,2023-12-28,1,,,,,エムアイティーガレージ,0
254,1500001025390,新規,0,2023-12-28,2023-12-28,株式会社Ｔａｋｅ　ｂｌｉｓｓ,,株式会社,愛媛県,松山市,千舟町２丁目８番地１１ロイヤルガーデン千舟町１４０２号,,38,201,7900011,,,,,,,2023-12-28,1,,,,,テイクブリス,0
255,1700150123108,新規,0,2023-12-28,2023-12-28,Ｐｒｉｏｒｉｔｙ　ｐａｓｓ　Ｉｎｃ,,外国会社等,,,,,,,,５２１７　ＴＥＮＮＹＳＯＮ　ＰＫＷＹ　ＳＵＩＴＥ　１００　Ｐｌａｎｏ　７５０２４　ＴＸ　ＵＳＡ,,,,,,2023-12-28,1,,,,,プライオリテイパスインク,0
256,1700150123116,新規,0,2023-12-28,2023-12-28,Ｈｕｎａｎ　Ｙａｏｌｅｉ　ｅｃｏｍｍｅｒｃｅ　Ｃｏ．，ＬＴＤ,,外国会社等,,,,,,,,Ｎｏ．０３２，Ｆｉｒｓｔ　Ｖｉｌｌａｇｅ　Ｍｉｎ　Ｇｒｏｕｐ，Ｗｅｎｔｉａｎ　Ｖｉｌｌａｇｅ，Ｗｅｎｔｉａｎ　Ｔｏｗｎ，Ｘｉｎｈｕａ　Ｃｏｕｎｔｙ，Ｌｏｕｄｉ　Ｃｉｔｙ，　Ｈｕｎａｎ　Ｐｒｏｖｉｎｃｅ,,,,,,2023-12-28,1,,,,,フーナンシヨンヤオレイデイエンズーシヤンウーヨウシエンゴンスー,0
263,2010001241111,新規,0,2023-12-28,2023-12-28,株式会社ジャパンカリー,,株式会社,東京都,千代田区,外神田３丁目６番９号,,13,101,1010021,,,,,,,2023-12-28,1,,,,,ジャパンカリー,0
264,2010001241219,新規,0,2023-12-28,2023-12-28,吉美リゾート株式会社,,株式会社,東京都,千代田区,神田須田町１丁目３番９号,,13,101,1010041,,,,,,,2023-12-28,1,,,,,ヨシミリゾート,0
266,2010003042391,新規,0,2023-12-28,2023-12-28,合同会社ＮＥＷＡＩＩＳ,,合同会社,東京都,中央区,銀座１丁目１２番４号Ｎ＆ＥＢＬＤ．６Ｆ,,13,102,1040061,,,,,,,2023-12-28,1,,,,,ニューワイズ,0
267,2010003042557,新規,0,2023-12-28,2023-12-28,合同会社小林商会,,合同会社,東京都,小笠原村,父島字宮之浜道,,13,421,1002101,,,,,,,2023-12-28,1,,,,,コバヤシショウカイ,0
269,2010005037670,新規,0,2023-12-28,2023-12-28,一般社団法人須田,,その他の設立登記法人,東京都,文京区,本郷１丁目３３番１２－９０２号,,13,105,1130033,,,,,,,2023-12-28,1,,,,,スダ,0
270,2010005037695,新規,0,2023-12-28,2023-12-28,教育無償化を実現する会,,その他の設立登記法人,東京都,千代田区,神田神保町１丁目５ステューディオ神保町２－２０４,,13,101,1010051,,,,,,,2023-12-28,1,,,,,,0
273,2010401179323,新規,0,2023-12-28,2023-12-28,Ｌｉｆｅ　ａｒｃｈｉｔｅｃｔ株式会社,,株式会社,東京都,港区,北青山１丁目３番１号アールキューブ青山３階,,13,103,1070061,,,,,,,2023-12-28,1,,,,,ライフアーキテクト,0
274,2010401179463,新規,0,2023-12-28,2023-12-28,株式会社Ｄ　Ｆｏｒｃｅ,,株式会社,東京都,港区,南青山５丁目１番３３－５１５号,,13,103,1070062,,,,,,,2023-12-28,1,,,,,ディーフォース,0
275,2010401179471,新規,0,2023-12-28,2023-12-28,株式会社ＴＡＫＡＹＯ,,株式会社,東京都,港区,南青山２丁目２番１５号,,13,103,1070062,,,,,,,2023-12-28,1,,,,,タカヨ,0
280,2010501051563,新規,0,2023-12-28,2023-12-28,蛤デザイン株式会社,,株式会社,東京都,台東区,上野６丁目８番１９号,,13,106,1100005,,,,,,,2023-12-28,1,,,,,ハマグリデザイン,0
283,2010503007258,新規,0,2023-12-28,2023-12-28,合同会社ｉｎｄｉｇｏ,,合同会社,東京都,台東区,蔵前４丁目９－７ガルデニア蔵前９０３,,13,106,1110051,,,,,,,2023-12-28,1,,,,,インディゴ,0
285,2010601064424,新規,0,2023-12-28,2023-12-28,株式会社炎ｊｉｎ,,株式会社,東京都,江東区,豊洲４丁目１０番１８－９０３号,,13,108,1350061,,,,,,,2023-12-28,1,,,,,エンジン,0
286,2010701045332,新規,0,2023-12-28,2023-12-28,株式会社ＩＮＮＯＶＯ,,株式会社,東京都,品川区,東五反田５丁目２２番３２号,,13,109,1410022,,,,,,,2023-12-28,1,,,,,イノーボ,0
297,2011001159062,新規,0,2023-12-28,2023-12-28,プライズパートナー株式会社,,株式会社,東京都,渋谷区,幡ヶ谷３丁目３９番１２号渋谷ウェストビル１階,,13,113,1510072,,,,,,,2023-12-28,1,,,,,プライズパートナー,0
298,2011001159104,新規,0,2023-12-28,2023-12-28,リサーチトランスファー株式会社,,株式会社,東京都,渋谷区,渋谷２丁目１９－１５宮益坂ビルディング６０９,,13,113,1500002,,,,,,,2023-12-28,1,,,,,リサーチトランスファー,0
299,2011001159145,新規,0,2023-12-28,2023-12-28,ＵＮＳＵＮＧ株式会社,,株式会社,東京都,目黒区,下目黒１丁目１番１４号コノトラビル７Ｆ,,13,110,1530064,,,,,,,2023-12-28,1,,,,,アンサン,0
302,2011003018183,新規,0,2023-12-28,2023-12-28,合同会社ホワイトシャロウ,,合同会社,東京都,渋谷区,恵比寿西２丁目８番４号ＥＸ恵比寿西ビル５階,,13,113,1500021,,,,,,,2023-12-28,1,,,,,ホワイトシャロウ,0
314,2011101105684,新規,0,2023-12-28,2023-12-28,株式会社Ｋｌｅａｒ,,株式会社,東京都,新宿区,西新宿７丁目２－１０栄立新宿ビル２０３,,13,104,1600023,,,,,,,2023-12-28,1,,,,,クリア,0
315,2011101105692,新規,0,2023-12-28,2023-12-28,株式会社ＰＷＦ,,株式会社,東京都,新宿区,歌舞伎町２丁目２４－３,,13,104,1600021,,,,,,,2023-12-28,1,,,,,ピーダブリューエフ,0
316,2011105010897,新規,0,2023-12-28,2023-12-28,一般社団法人障害者就労サポートグリーンライツ,,その他の設立登記法人,東京都,新宿区,弁天町８７番地,,13,104,1620851,,,,,,,2023-12-28,1,,,,,ショウガイシャシュウロウサポートグリーンライツ,0
321,2011303005014,新規,0,2023-12-28,2023-12-28,合同会社Ｒ＆Ｃｏｍｐａｎｙ,,合同会社,東京都,杉並区,和田１丁目５７番Ｎ－３０８号,,13,115,1660012,,,,,,,2023-12-28,1,,,,,アールアンドカンパニー,0
328,2011801043589,新規,0,2023-12-28,2023-12-28,ｎｏｒｉｎｏｒｉ株式会社,,株式会社,東京都,足立区,舎人４丁目５番６クレール・ド・ルネ３０３,,13,121,1210831,,,,,,,2023-12-28,1,,,,,ノリノリ,0
333,2012701018012,新規,0,2023-12-28,2023-12-28,株式会社ＳＯＬＥＩＬ　ｆｉｌｓ,,株式会社,東京都,東久留米市,本町３丁目６番８号,,13,222,2030053,,,,,,,2023-12-28,1,,,,,ソレイユフィス,0
334,2012703002880,新規,0,2023-12-28,2023-12-28,Ｙ’ｓＷｅｌｌｎｅｓｓ合同会社,,合同会社,東京都,西東京市,向台町２丁目４番２８号,,13,229,1880013,,,,,,,2023-12-28,1,,,,,ワイズウェルネス,0
335,2013103001291,新規,0,2023-12-28,2023-12-28,スピカホーム合同会社,,合同会社,東京都,青梅市,沢井２丁目９８６番地の４,,13,205,1980172,,,,,,,2023-12-28,1,,,,,スピカホーム,0
347,2020003025288,新規,0,2023-12-28,2023-12-28,オフィスラン合同会社,,合同会社,神奈川県,横浜市保土ケ谷区,狩場町５５－４－２０３,,14,106,2400025,,,,,,,2023-12-28,1,,,,,オフィスラン,0
350,2021001081091,新規,0,2023-12-28,2023-12-28,株式会社エフィーモフジャパン,,株式会社,神奈川県,小田原市,酒匂４丁目１３番４３－４０２号,,14,206,2560816,,,,,,,2023-12-28,1,,,,,エフィーモフジャパン,0
351,2021001081117,新規,0,2023-12-28,2023-12-28,株式会社ＴＨＥ　ＣＯＲＮＥＲ．,,株式会社,神奈川県,藤沢市,鵠沼花沢町１番９～２０２号,,14,205,2510023,,,,,,,2023-12-28,1,,,,,ザコーナー,0
358,2021003013968,新規,0,2023-12-28,2023-12-28,合同会社Ｄａｙｓ　ｏｎ,,合同会社,神奈川県,相模原市中央区,南橋本２丁目８番９号,,14,152,2520253,,,,,,,2023-12-28,1,,,,,デイズオン,0
359,2021005012984,新規,0,2023-12-28,2023-12-28,税理士法人小林会計,,その他の設立登記法人,神奈川県,相模原市南区,相南１丁目２２番４号,,14,153,2520312,,,,,,,2023-12-28,1,,,,,コバヤシカイケイ,0
364,2030001157933,新規,0,2023-12-28,2023-12-28,鴻宇株式会社,,株式会社,埼玉県,狭山市,新狭山２丁目１９－９－２０１,,11,215,3501331,,,,,,,2023-12-28,1,,,,,コウ,0
365,2030001157966,新規,0,2023-12-28,2023-12-28,株式会社ＳＵＳＵＭＯ　Ｔｅｃｈ,,株式会社,埼玉県,川口市,本町３丁目２番２５－４０４号,,11,203,3320012,,,,,,,2023-12-28,1,,,,,ススモテック,0
369,2030003023316,新規,0,2023-12-28,2023-12-28,合同会社ユニライズ,,合同会社,埼玉県,朝霞市,朝志ケ丘４丁目５番４号,,11,227,3510035,,,,,,,2023-12-28,1,,,,,ユニライズ,0
370,2030003023324,新規,0,2023-12-28,2023-12-28,合同会社Ｗｉｓｄｏｍ,,合同会社,埼玉県,川越市,大字砂９７９番地１,,11,201,3501133,,,,,,,2023-12-28,1,,,,,ウィスダム,0
378,2040001131508,新規,0,2023-12-28,2023-12-28,Ｖｉｍａｓ．ＣＮ株式会社,,株式会社,千葉県,富里市,七栄６４７番地１２１Ａ号室,,12,233,2860221,,,,,,,2023-12-28,1,,,,,ヴィムアスシーエヌ,0
380,2040003023991,新規,0,2023-12-28,2023-12-28,合同会社コネクトエッジ,,合同会社,千葉県,浦安市,北栄１丁目１６番１４号ＴＣ８３浦安ビル３Ｆ,,12,227,2790002,,,,,,,2023-12-28,1,,,,,コネクトエッジ,0
381,2040005022232,新規,0,2023-12-28,2023-12-28,一般社団法人サラン＆ソマン・ラボ,,その他の設立登記法人,千葉県,千葉市花見川区,幕張本郷３丁目１１番１号ダイアパレス幕張本郷７０１号,,12,102,2620033,,,,,,,2023-12-28,1,,,,,サランソマンラボ,0
388,2060001036688,新規,0,2023-12-28,2023-12-28,株式会社風と律,,株式会社,栃木県,日光市,今市３９１番地６,,09,206,3211261,,,,,,,2023-12-28,1,,,,,カゼトリツ,0
389,2070001041241,新規,0,2023-12-28,2023-12-28,株式会社すとりーむ城東,,株式会社,群馬県,前橋市,城東町５丁目２番１６号,,10,201,3710016,,,,,,,2023-12-28,1,,,,,ストリームジョウトウ,0
394,2090001018485,新規,0,2023-12-28,2023-12-28,信源商事株式会社,,株式会社,山梨県,富士吉田市,上吉田東１丁目９番２４号,,19,202,4030032,,,,,,,2023-12-28,1,,,,,シンゲンショウジ,0
395,2100001037087,新規,0,2023-12-28,2023-12-28,株式会社ｓｈｉｚｅｎ,,株式会社,長野県,飯田市,座光寺３３５４番地３,,20,205,3950001,,,,,,,2023-12-28,1,,,,,シゼン,0
401,2120001260967,新規,0,2023-12-28,2023-12-28,株式会社輪,,株式会社,大阪府,大阪市東成区,深江北１丁目１番２４号,,27,115,5370001,,,,,,,2023-12-28,1,,,,,ワ,0
402,2120001260975,新規,0,2023-12-28,2023-12-28,株式会社幸盛,,株式会社,大阪府,大阪市中央区,瓦町３丁目９－７シティライフディナスティ日本橋２０２号室,,27,128,5410048,,,,,,,2023-12-28,1,,,,,コウセイ,0
403,2120001261040,新規,0,2023-12-28,2023-12-28,ＧＵＤＣ株式会社,,株式会社,大阪府,大阪市西区,江戸堀１丁目１０番１号,,27,106,5500002,,,,,,,2023-12-28,1,,,,,ジーユーディーシー,0
412,2120101068807,新規,0,2023-12-28,2023-12-28,株式会社ファインテクノス,,株式会社,大阪府,堺市南区,赤坂台５丁２２番１号,,27,145,5900144,,,,,,,2023-12-28,1,,,,,ファインテクノス,0
424,2140001132818,新規,0,2023-12-28,2023-12-28,長城株式会社,,株式会社,兵庫県,三木市,志染町広野４丁目８５－１,,28,215,6730541,,,,,,,2023-12-28,1,,,,,チョウジョウ,0
425,2140001132826,新規,0,2023-12-28,2023-12-28,株式会社ＡＲＣＲＥＥＤ,,株式会社,兵庫県,尼崎市,立花町３丁目２４番１７－４０１号,,28,202,6610025,,,,,,,2023-12-28,1,,,,,アークリード,0
426,2140001132834,新規,0,2023-12-28,2023-12-28,ｆｉｌｌ‐ｃａｎｖａｓ株式会社,,株式会社,兵庫県,神戸市中央区,磯辺通１丁目１番１８号カサベラ国際プラザビル７０７号室,,28,110,6510084,,,,,,,2023-12-28,1,,,,,フィルキャンバス,0
427,2140001132842,新規,0,2023-12-28,2023-12-28,株式会社Ｄｒｅａｍ　ｃｏｍｅ　ｔｒｕｅ,,株式会社,兵庫県,加古川市,野口町良野６８６－３,,28,210,6750017,,,,,,,2023-12-28,1,,,,,ドリームカムトゥルー,0
429,2140005026875,新規,0,2023-12-28,2023-12-28,医療法人社団東ひめじ腎泌尿器科クリニック,,その他の設立登記法人,兵庫県,姫路市,日出町３丁目３８－１メディカルプラザ２階,,28,201,6700942,,,,,,,2023-12-28,1,,,,,ヒガシヒメジジンヒニョウキカクリニック,0
438,2180001159535,新規,0,2023-12-28,2023-12-28,株式会社メイフウ,,株式会社,愛知県,名古屋市中村区,烏森町７丁目２９６番地,,23,105,4530855,,,,,,,2023-12-28,1,,,,,メイフウ,0
439,2180001159551,新規,0,2023-12-28,2023-12-28,株式会社ＩＮＮＯＶＡＲＥ,,株式会社,愛知県,名古屋市熱田区,伝馬１丁目３番８号,,23,109,4560034,,,,,,,2023-12-28,1,,,,,インノバーレ,0
440,2180001159568,新規,0,2023-12-28,2023-12-28,株式会社ふぁくとりーＭ,,株式会社,愛知県,名古屋市中区,新栄１丁目３３番９‐７０２号,,23,106,4600007,,,,,,,2023-12-28,1,,,,,ファクトリーエム,0
441,2180001159584,新規,0,2023-12-28,2023-12-28,ｙｏｌｏ株式会社,,株式会社,愛知県,あま市,七宝町鯰橋６丁目１０－２,,23,237,4970015,,,,,,,2023-12-28,1,,,,,ヨロ,0
445,2180003026139,新規,0,2023-12-28,2023-12-28,合同会社ＷＥＳＴパートナーズ,,合同会社,愛知県,一宮市,神山１丁目５―１０ブローニュ神山３０６,,23,203,4910904,,,,,,,2023-12-28,1,,,,,ウエストパートナーズ,0
446,2180003026155,新規,0,2023-12-28,2023-12-28,Ｊ２Ｋ合同会社,,合同会社,愛知県,名古屋市中村区,名駅３丁目４番１０号アルティメイト名駅１ｓｔ２階,,23,105,4500002,,,,,,,2023-12-28,1,,,,,ジェイツーケイ,0
450,2190001030983,新規,0,2023-12-28,2023-12-28,株式会社リタプラス,,株式会社,三重県,四日市市,北浜町８番５号,,24,202,5100091,,,,,,,2023-12-28,1,,,,,リタプラス,0
453,2190005011897,新規,0,2023-12-28,2023-12-28,一般社団法人いぶき,,その他の設立登記法人,三重県,多気郡多気町,上出江１５１番地２,,24,441,5192201,,,,,,,2023-12-28,1,,,,,イブキ,0
463,2230003002126,新規,0,2023-12-28,2023-12-28,合同会社ｌａｒｍｅ,,合同会社,富山県,富山市,下新本町７－１３,,16,201,9300803,,,,,,,2023-12-28,1,,,,,ラルム,0
468,2240001062600,新規,0,2023-12-28,2023-12-28,株式会社Ｒｅｌａｔｉｏｎ,,株式会社,広島県,尾道市,向東町９２０８番地１,,34,205,7220062,,,,,,,2023-12-28,1,,,,,リレーション,0
470,2250005008887,新規,0,2023-12-28,2023-12-28,税理士法人ヴァリアス,,その他の設立登記法人,山口県,岩国市,麻里布町２丁目７番９号岩国ＹＳビル４階,,35,208,7400018,,,,,,,2023-12-28,1,,,,,ヴァリアス,0
471,2260003004532,新規,0,2023-12-28,2023-12-28,合同会社いろは,,合同会社,岡山県,岡山市北区,野田１丁目１４番１８号アルファステイツ野田ＩＩ６０２号,00133152,33,101,7000971,,,,,,,2023-12-28,1,,,,,イロハ,0
474,2270003001586,新規,0,2023-12-28,2023-12-28,合同会社ＳＮＯＷケア,,合同会社,鳥取県,鳥取市,富安３３１番地－７０５号,,31,201,6800845,,,,,,,2023-12-28,1,,,,,スノーケア,0
475,2270005005569,新規,0,2023-12-28,2023-12-28,一般社団法人Ｔ式ひらがな音読支援協会,,その他の設立登記法人,鳥取県,米子市,河崎１７３５番地２２,,31,202,6830852,,,,,,,2023-12-28,1,,,,,ティーシキヒラガナオンドクシエンキョウカイ,0
478,2280003001800,新規,0,2023-12-28,2023-12-28,合同会社ＳＴＲＩＶＥ,,合同会社,島根県,安来市,月坂町３６１番地１,,32,206,6920013,,,,,,,2023-12-28,1,,,,,ストライブ,0
487,2290001104199,新規,0,2023-12-28,2023-12-28,株式会社ココジム,,株式会社,福岡県,宗像市,土穴１丁目３番３２－１００４号,,40,220,8114183,,,,,,,2023-12-28,1,,,,,ココジム,0
488,2290001104208,新規,0,2023-12-28,2023-12-28,株式会社つながり,,株式会社,福岡県,福岡市中央区,地行３丁目２０番１２－２０１号,,40,133,8100064,,,,,,,2023-12-28,1,,,,,ツナガリ,0
489,2290001104216,新規,0,2023-12-28,2023-12-28,カイタ株式会社,,株式会社,福岡県,福岡市博多区,博多駅前１丁目２３番２号ＰａｒｋＦｒｏｎｔ博多駅前１丁目５Ｆ－Ｂ,,40,132,8120011,,,,,,,2023-12-28,1,,,,,カイタ,0
490,2290001104224,新規,0,2023-12-28,2023-12-28,豊福株式会社,,株式会社,福岡県,宗像市,平等寺６０４－１,,40,220,8113412,,,,,,,2023-12-28,1,,,,,,0
493,2290003014801,新規,0,2023-12-28,2023-12-28,ワン・ステップ合同会社,,合同会社,福岡県,朝倉市,馬田９０２番地１,,40,228,8380058,,,,,,,2023-12-28,1,,,,,ワンステップ,0
495,2290005019237,新規,0,2023-12-28,2023-12-28,一般社団法人ＣＨＵＯ　ＥＫＩＤＥＮ　ＣＬＵＢ,,その他の設立登記法人,福岡県,飯塚市,下三緒１７８番地６３,,40,205,8200012,,,,,,,2023-12-28,1,,,,,チュウオウエキデンクラブ,0
496,2290005019245,新規,0,2023-12-28,2023-12-28,医療法人二二会,,その他の設立登記法人,福岡県,糸島市,高田２丁目２０番２１号,,40,230,8191102,,,,,,,2023-12-28,1,,,,,ニイニイカイ,0
500,2320001020211,新規,0,2023-12-28,2023-12-28,株式会社貞隆,,株式会社,大分県,杵築市,大字熊野７７１番地１,,44,210,8730008,,,,,,,2023-12-28,1,,,,,テイリュウ,0
502,2330001031604,新規,0,2023-12-28,2023-12-28,金餅株式会社,,株式会社,熊本県,宇城市,不知火町浦上７４３番地,,43,213,8690563,,,,,,,2023-12-28,1,,,,,キンモチ,0
506,2360001033003,新規,0,2023-12-28,2023-12-28,株式会社勇翔,,株式会社,沖縄県,宜野湾市,大謝名５丁目１４番２３号３階,,47,205,9012225,,,,,,,2023-12-28,1,,,,,ユウショウ,0
508,2370003006435,新規,0,2023-12-28,2023-12-28,合同会社便利屋フタミ,,合同会社,宮城県,仙台市青葉区,双葉ケ丘１丁目４３番８号,,04,101,9810924,,,,,,,2023-12-28,1,,,,,ベンリヤフタミ,0
512,2380005012785,新規,0,2023-12-28,2023-12-28,一般社団法人図図倉庫Ｎｅｔ,,その他の設立登記法人,福島県,相馬郡飯舘村,深谷字二本木前５－１,,07,564,9601802,,,,,,,2023-12-28,1,,,,,ズットソーコネット,0
514,2410003003873,新規,0,2023-12-28,2023-12-28,パセリ東北合同会社,,合同会社,秋田県,秋田市,御所野地蔵田１丁目１番１号イオンモール秋田ＳＣ３階,,05,201,0101413,,,,,,,2023-12-28,1,,,,,パセリトウホク,0
521,2430003015801,新規,0,2023-12-28,2023-12-28,インジェクション合同会社,,合同会社,北海道,札幌市豊平区,月寒西一条７丁目６番９号,,01,105,0620021,,,,,,,2023-12-28,1,,,,,インジェクション,0
522,2430005014859,新規,0,2023-12-28,2023-12-28,一般社団法人日本先進医療センター,,その他の設立登記法人,北海道,札幌市中央区,南四条西２丁目８番９号リディアビル７階,,01,101,0640804,,,,,,,2023-12-28,1,,,,,ニホンセンシンイリョウセンター,0
536,2500003003162,新規,0,2023-12-28,2023-12-28,合同会社Ｂ‐Ｈｅａｄ,,合同会社,愛媛県,松山市,鴨川１丁目５－３７,,38,201,7918004,,,,,,,2023-12-28,1,,,,,ビーヘッド,0
537,2700150123107,新規,0,2023-12-28,2023-12-28,Ｐｒｉｏｒｉｔｙ　ｐａｓｓ　ｌｉｍｉｔｅｄ,,外国会社等,,,,,,,,３　Ｍｏｒｅ　Ｌｏｎｄｏｎ　Ｒｉｖｅｒｓｉｄｅ，５ｔｈ　Ｆｌｏｏｒ，Ｌｏｎｄｏｎ，ＳＥ１　２ＡＱ，Ｕｎｉｔｅｄ　Ｋｉｎｇｄｏｍ,,,,,,2023-12-28,1,,,,,プライオリテイパスリミテツド,0
538,2700150123115,新規,0,2023-12-28,2023-12-28,ＥｃｈｏＮｏｕｓ　Ｉｎｃ．,,外国会社等,,,,,,,,８３１０　１５４ｔｈ　Ａｖｅ　ＮＥ　Ｂｕｉｌｄｉｎｇ　Ｂ，Ｓｕｉｔｅ　２００　Ｒｅｄｍｏｎｄ，ＷＡ　９８０５２，Ｕ．Ｓ．Ａ．,,,,,,2023-12-28,1,,,,,エコノスインク,0
542,3010001241201,新規,0,2023-12-28,2023-12-28,株式会社保崎家,00133161,株式会社,東京都,文京区,向丘１丁目１番６号,,13,105,1130023,,,,,,,2023-12-28,1,,,,,ホザキヤ,0
544,3010003042572,新規,0,2023-12-28,2023-12-28,ＷＫａｎｄＴ合同会社,,合同会社,東京都,文京区,小石川３丁目２０－３,,13,105,1120002,,,,,,,2023-12-28,1,,,,,ダブルケイアンドティー,0
551,3010401179495,新規,0,2023-12-28,2023-12-28,株式会社メークメリー,,株式会社,東京都,港区,虎ノ門３丁目６番２号,,13,103,1050001,,,,,,,2023-12-28,1,,,,,メークメリー,0
555,3010403031662,新規,0,2023-12-28,2023-12-28,合同会社アースポート,,合同会社,東京都,港区,三田４丁目２番１８－５０２号,,13,103,1080073,,,,,,,2023-12-28,1,,,,,アースポート,0
559,3010501051562,新規,0,2023-12-28,2023-12-28,基因港製薬株式会社,,株式会社,東京都,台東区,元浅草３丁目２０番１号,,13,106,1110041,,,,,,,2023-12-28,1,,,,,キインコウセイヤク,0
560,3010501051570,新規,0,2023-12-28,2023-12-28,株式会社仲工業,,株式会社,東京都,台東区,竜泉３丁目１６番６－７０５号,,13,106,1100012,,,,,,,2023-12-28,1,,,,,ナカコウギョウ,0
561,3010503007281,新規,0,2023-12-28,2023-12-28,合同会社ＳＷＡＰ　ＳＴＡＴＩＯＮ,,合同会社,東京都,台東区,東上野２丁目２２番１０号東上野小池ビル６階,,13,106,1100015,,,,,,,2023-12-28,1,,,,,スワップステーション,0
564,3010601064423,新規,0,2023-12-28,2023-12-28,青空運輸株式会社,,株式会社,東京都,江東区,東陽５丁目２５番３号,,13,108,1350016,,,,,,,2023-12-28,1,,,,,アオゾラウンユ,0
566,3010603010557,新規,0,2023-12-28,2023-12-28,ＴＲ　Ｋｉｒａｎａ　ＣｈｉｔｔＡ合同会社,,合同会社,東京都,江東区,有明１丁目５番２－２７１６号,,13,108,1350063,,,,,,,2023-12-28,1,,,,,ティーアールキラナチッタ,0
574,3010801034622,新規,0,2023-12-28,2023-12-28,澤毅実業株式会社,,株式会社,東京都,大田区,大森西３丁目１３－２４日神パレステージ大森第二３階,,13,111,1430015,,,,,,,2023-12-28,1,,,,,サワキジツギョウ,0
575,3010801034647,新規,0,2023-12-28,2023-12-28,株式会社ルペーニュ,,株式会社,東京都,大田区,田園調布５丁目１２番２号,,13,111,1450071,,,,,,,2023-12-28,1,,,,,ルペーニュ,0
578,3010901054438,新規,0,2023-12-28,2023-12-28,Ｓｔａｒｌｉｎｋ株式会社,,株式会社,東京都,世田谷区,若林３丁目１４番１１号,,13,112,1540023,,,,,,,2023-12-28,1,,,,,スターリンク,0
579,3010901054446,新規,0,2023-12-28,2023-12-28,株式会社ＲＯＵＰＥＩＲＯ,,株式会社,東京都,世田谷区,成城９丁目３番３号,,13,112,1570066,,,,,,,2023-12-28,1,,,,,ホペイロ,0
590,3011001159103,新規,0,2023-12-28,2023-12-28,株式会社ＣＹＭＵＳＥ,,株式会社,東京都,渋谷区,渋谷２丁目１９番１５号宮益坂ビルディング６０９,,13,113,1500002,,,,,,,2023-12-28,1,,,,,サイミューズ,0
591,3011001159136,新規,0,2023-12-28,2023-12-28,株式会社テレルーム,,株式会社,東京都,渋谷区,代官山町１７番１－２４０３号,,13,113,1500034,,,,,,,2023-12-28,1,,,,,テレルーム,0
592,3011001159144,新規,0,2023-12-28,2023-12-28,株式会社渡来武,,株式会社,東京都,目黒区,自由が丘１丁目１２番４号,,13,110,1520035,,,,,,,2023-12-28,1,,,,,トライブ,0
595,3011003018182,新規,0,2023-12-28,2023-12-28,合同会社ＣｏｍｒａｄｅＬｉｎｋ,,合同会社,東京都,渋谷区,神泉町１０番１５号アネックス神泉３０１,,13,113,1500045,,,,,,,2023-12-28,1,,,,,コムレイドリンク,0
602,3011101105691,新規,0,2023-12-28,2023-12-28,株式会社Ｓｍａｌｌ　Ｖｉｌｌａｇｅ,,株式会社,東京都,新宿区,西新宿６丁目７－２０－１７１１,,13,104,1600023,,,,,,,2023-12-28,1,,,,,スモールヴィレッジ,0
607,3011501030151,新規,0,2023-12-28,2023-12-28,株式会社アークホールディングス,,株式会社,東京都,北区,王子２丁目９番３号,,13,117,1140002,,,,,,,2023-12-28,1,,,,,アークホールディングス,0
608,3011605002559,新規,0,2023-12-28,2023-12-28,特定非営利活動法人ニューロダイバーシティ,,その他の設立登記法人,東京都,練馬区,小竹町２丁目４０番４号,,13,120,1760004,,,,,,,2023-12-28,1,,,,,ニューロダイバーシティ,0
609,3011701026890,新規,0,2023-12-28,2023-12-28,株式会社ｇｅｍｍｅ,,株式会社,東京都,江戸川区,鹿骨５丁目２１番１４号,,13,123,1330073,,,,,,,2023-12-28,1,,,,,ジェム,0
611,3011801043596,新規,0,2023-12-28,2023-12-28,株式会社グッド・リーフ,,株式会社,東京都,足立区,保木間４丁目５１番７号,,13,121,1210064,,,,,,,2023-12-28,1,,,,,グッドリーフ,0
620,3013301051831,新規,0,2023-12-28,2023-12-28,株式会社東京スマートスクール,,株式会社,東京都,豊島区,巣鴨４丁目２８番１号第一エクセルイン巣鴨１Ｆ,,13,116,1700002,,,,,,,2023-12-28,1,,,,,トウキョウスマートスクール,0
635,3021001081099,新規,0,2023-12-28,2023-12-28,株式会社ｋｉｗｉ,,株式会社,神奈川県,鎌倉市,扇ガ谷２丁目２３番５号,,14,204,2480011,,,,,,,2023-12-28,1,,,,,キウイ,0
636,3021001081108,新規,0,2023-12-28,2023-12-28,株式会社ユニティ,,株式会社,神奈川県,茅ヶ崎市,共恵１丁目２番４号木村ビル３０２号,,14,207,2530056,,,,,,,2023-12-28,1,,,,,ユニティ,0
637,3021001081116,新規,0,2023-12-28,2023-12-28,株式会社愛ビルサービス,,株式会社,神奈川県,茅ヶ崎市,茅ヶ崎２３３番地５,,14,207,2530041,,,,,,,2023-12-28,1,,,,,アイビルサービス,0
639,3021003013942,新規,0,2023-12-28,2023-12-28,合同会社Ｒｉｎ,,合同会社,神奈川県,相模原市中央区,相模原３丁目９－１－９１６,,14,152,2520231,,,,,,,2023-12-28,1,,,,,リン,0
640,3021003013959,新規,0,2023-12-28,2023-12-28,ＢＬＵＥ　ＤＲＡＧＯＮ　ＷＥＡＬＴＨ　ＭＡＮＡＧＥＭＥＮＴ合同会社,,合同会社,神奈川県,逗子市,小坪５丁目２３番８－８３１２号,,14,208,2490008,,,,,,,2023-12-28,1,,,,,ブルードラゴンウェルスマネジメント,0
649,3030001157908,新規,0,2023-12-28,2023-12-28,株式会社ＴＹＸ,,株式会社,埼玉県,川口市,芝１丁目２２番５号１０１号室,,11,203,3330866,,,,,,,2023-12-28,1,,,,,ティーワイエックス,0
650,3030001157916,新規,0,2023-12-28,2023-12-28,株式会社ラング,,株式会社,埼玉県,さいたま市見沼区,大字丸ヶ崎１２２０番地,,11,104,3370001,,,,,,,2023-12-28,1,,,,,ラング,0
658,3040001131597,新規,0,2023-12-28,2023-12-28,株式会社宗真建設工業,,株式会社,千葉県,鎌ケ谷市,初富１３７番地３５５,,12,224,2730121,,,,,,,2023-12-28,1,,,,,ソウマケンセツコウギョウ,0
660,3040003023982,新規,0,2023-12-28,2023-12-28,合同会社Ｙｕｎｉ　Ｅｘｐｒｅｓｓ,,合同会社,千葉県,千葉市花見川区,千種町３３３番地１千葉北ダイヤモンドマンション３０５号,,12,102,2620012,,,,,,,2023-12-28,1,,,,,ユニエクスプレス,0
661,3040003024015,新規,0,2023-12-28,2023-12-28,合同会社順和,,合同会社,千葉県,印西市,草深字新井堀２２８番地４９－１０８号室,,12,231,2701337,,,,,,,2023-12-28,1,,,,,ジュンワ,0
664,3050001054038,新規,0,2023-12-28,2023-12-28,株式会社Ｗｏｏ　ｒｏｏ,,株式会社,茨城県,水戸市,見和２丁目２９５－３,,08,201,3100911,,,,,,,2023-12-28,1,,,,,ウールー,0
667,3060001036670,新規,0,2023-12-28,2023-12-28,株式会社板通ホールディングス,,株式会社,栃木県,足利市,旭町５５３番地,,09,202,3260802,,,,,,,2023-12-28,1,,,,,イタツウホールディングス,0
673,3070001041232,新規,0,2023-12-28,2023-12-28,日本光研技術株式会社,,株式会社,群馬県,伊勢崎市,宮子町３４７８－４,,10,204,3720801,,,,,,,2023-12-28,1,,,,,ニホンコウケンギジュツ,0
680,3080101024425,新規,0,2023-12-28,2023-12-28,株式会社伊藤測量技建,,株式会社,静岡県,沼津市,杉崎町１３番３２号奈良橋ビル２階東１号,,22,203,4100033,,,,,,,2023-12-28,1,,,,,イトウソクリョウギケン,0
681,3080101024433,新規,0,2023-12-28,2023-12-28,Ｚ‐ＡＩ株式会社,,株式会社,静岡県,駿東郡長泉町,東野５１５番地の２４,,22,342,4110931,,,,,,,2023-12-28,1,,,,,ザイ,0
686,3100001037086,新規,0,2023-12-28,2023-12-28,Ａｔｅｌｉｅｒ　Ｇｒｅｅｎ株式会社,,株式会社,長野県,塩尻市,大字洗馬４９６番地６,,20,215,3996462,,,,,,,2023-12-28,1,,,,,アトリエグリーン,0
699,3120001260875,新規,0,2023-12-28,2023-12-28,松楠株式会社,,株式会社,大阪府,大阪市西区,新町１丁目７番２２－４０４号,,27,106,5500013,,,,,,,2023-12-28,1,,,,,ショウナン,0
700,3120001260958,新規,0,2023-12-28,2023-12-28,株式会社ＮＡＩＢＩＳ,,株式会社,大阪府,大阪市東淀川区,豊里５丁目３番４号Ｄ号室,,27,114,5330013,,,,,,,2023-12-28,1,,,,,ナイビス,0
701,3120001260990,新規,0,2023-12-28,2023-12-28,青森商会株式会社,,株式会社,大阪府,大阪市天王寺区,夕陽丘町４－２四天王寺オフィス１６号室,,27,109,5430075,,,,,,,2023-12-28,1,,,,,アオモリショウカイ,0
702,3120001261114,新規,0,2023-12-28,2023-12-28,酉徳ジャパンマネジメント株式会社,00133156,株式会社,大阪府,大阪市浪速区,恵美須西２丁目１４－３０－５Ｆ,,27,111,5560003,,,,,,,2023-12-28,1,,,,,トリトクジャパンマネジメント,0
706,3120003025582,新規,0,2023-12-28,2023-12-28,ＢＮ＆Ｃｈｅｅｍａ　Ｔｒａｄｉｎｇ合同会社,,合同会社,大阪府,大阪市阿倍野区,王子町１丁目２番１６号ハニオカハイツ３０２号,,27,119,5450023,,,,,,,2023-12-28,1,,,,,ビーエヌアンドチーマトレーディング,0
709,3120101068806,新規,0,2023-12-28,2023-12-28,株式会社Ｋ２,,株式会社,大阪府,堺市西区,浜寺昭和町１丁１０番地３メゾン浜寺昭和町２０１号室,,27,144,5928345,,,,,,,2023-12-28,1,,,,,ケイツー,0
714,3130001076024,新規,0,2023-12-28,2023-12-28,株式会社川太,,株式会社,京都府,八幡市,川口堀ノ内３１番地,,26,210,6148103,,,,,,,2023-12-28,1,,,,,カワタ,0
715,3130001076049,新規,0,2023-12-28,2023-12-28,株式会社グリップ,,株式会社,京都府,京都市伏見区,深草大亀谷東安信町５９番地１,,26,109,6120832,,,,,,,2023-12-28,1,,,,,グリップ,0
716,3130003009205,新規,0,2023-12-28,2023-12-28,合同会社ラブリイ,,合同会社,京都府,城陽市,寺田市ノ久保６８番地の７,,26,207,6100121,,,,,,,2023-12-28,1,,,,,ラブリイ,0
717,3130005016967,新規,0,2023-12-28,2023-12-28,一般社団法人ＨＥＡＲＴＹ　ＰＯＲＴ,,その他の設立登記法人,京都府,京都市中京区,富小路通夷川上る大炊町３５７番地プレミスト京都御所南２０１号,,26,104,6040972,,,,,,,2023-12-28,1,,,,,ハーティーポート,0
722,3140001132825,新規,0,2023-12-28,2023-12-28,Ｐ＆Ｙ株式会社,,株式会社,兵庫県,芦屋市,三条町３５番１３号,,28,206,6590087,,,,,,,2023-12-28,1,,,,,ピーアンドワイ,0
730,3160001025597,新規,0,2023-12-28,2023-12-28,新創ペイント株式会社,,株式会社,滋賀県,大津市,大江２丁目１６番１０号,,25,201,5202141,,,,,,,2023-12-28,1,,,,,シンソウペイント,0
737,3180001159526,新規,0,2023-12-28,2023-12-28,ＰＡＮＤＡ　ＣＡＲ株式会社,,株式会社,愛知県,名古屋市南区,三吉町２丁目２７番地２,,23,112,4570805,,,,,,,2023-12-28,1,,,,,パンダカー,0
738,3180001159567,新規,0,2023-12-28,2023-12-28,株式会社翠,,株式会社,愛知県,名古屋市名東区,梅森坂２丁目１０９番地梅森坂マンション１０５号,,23,115,4650065,,,,,,,2023-12-28,1,,,,,スイ,0
740,3180301038181,新規,0,2023-12-28,2023-12-28,株式会社ユヒコ,,株式会社,愛知県,豊田市,中町中前３２番地,,23,211,4730904,,,,,,,2023-12-28,1,,,,,ユヒコ,0
743,3190001030982,新規,0,2023-12-28,2023-12-28,株式会社ワイルドボア,,株式会社,三重県,多気郡多気町,片野１２番地５,,24,441,5192203,,,,,,,2023-12-28,1,,,,,ワイルドボア,0
749,3210001019585,新規,0,2023-12-28,2023-12-28,株式会社８ＫＮＯＴ,,株式会社,福井県,鯖江市,水落町３丁目８番２０号,,18,207,9160022,,,,,,,2023-12-28,1,,,,,エイトノット,0
750,3210003001731,新規,0,2023-12-28,2023-12-28,ＫｏｕＫｅｎＪａｐａｎ合同会社,,合同会社,福井県,福井市,本堂町第６８号１番地,,18,201,9188076,,,,,,,2023-12-28,1,,,,,コウケンジャパン,0
754,3220001025756,新規,0,2023-12-28,2023-12-28,株式会社大邦電設,,株式会社,石川県,白山市,水島町４７番地,,17,210,9240855,,,,,,,2023-12-28,1,,,,,オオクニデンセツ,0
757,3230001020145,新規,0,2023-12-28,2023-12-28,株式会社金和商事,,株式会社,富山県,高岡市,十二町島１８８番地,,16,202,9330822,,,,,,,2023-12-28,1,,,,,キンワショウジ,0
759,3240001062616,新規,0,2023-12-28,2023-12-28,株式会社Ｓｔｅｐ　ｕｐ　ｉｎｆｉｎｉｔｙ,,株式会社,広島県,広島市西区,鈴が峰町３９番６－２０３号,,34,104,7330852,,,,,,,2023-12-28,1,,,,,ステップアップインフィニティ,0
764,3240003006471,新規,0,2023-12-28,2023-12-28,合同会社未来産業,,合同会社,広島県,広島市西区,己斐上５丁目３８番１７－２０１号,,34,104,7330815,,,,,,,2023-12-28,1,,,,,ミライサンギョウ,0
765,3240005015693,新規,0,2023-12-28,2023-12-28,一般社団法人Ｕｎ　ｐａｓｓｏ　ａｖａｎｔｉ．,,その他の設立登記法人,広島県,尾道市,栗原町９５６１番地４,,34,205,7220022,,,,,,,2023-12-28,1,,,,,アンパッソアヴァンティ,0
773,3290001104198,新規,0,2023-12-28,2023-12-28,株式会社アイアールミー,,株式会社,福岡県,糸島市,前原駅南２丁目２番１号ＪＡ－ＰＯＲＴＡ２Ｆ,,40,230,8191138,,,,,,,2023-12-28,1,,,,,アイアールミー,0
774,3290001104215,新規,0,2023-12-28,2023-12-28,株式会社Ｌｉｍ,,株式会社,福岡県,福岡市中央区,今泉２丁目４番６５－６０３号,,40,133,8100021,,,,,,,2023-12-28,1,,,,,リム,0
775,3290001104231,新規,0,2023-12-28,2023-12-28,恵部貿易株式会社,,株式会社,福岡県,福岡市中央区,春吉３丁目１５番４－１０１号,,40,133,8100003,,,,,,,2023-12-28,1,,,,,ケイブボウエキ,0
776,3290001104248,新規,0,2023-12-28,2023-12-28,株式会社ＤＡＩＫＥＩ,,株式会社,福岡県,福岡市城南区,南片江４丁目２３番６号,,40,136,8140143,,,,,,,2023-12-28,1,,,,,ダイケイ,0
780,3290003014800,新規,0,2023-12-28,2023-12-28,合同会社ココカラ,,合同会社,福岡県,春日市,小倉東２丁目１５番地春日サンハイツ４棟３０１号,,40,218,8160826,,,,,,,2023-12-28,1,,,,,ココカラ,0
787,3330001031611,新規,0,2023-12-28,2023-12-28,大久保工業株式会社,,株式会社,熊本県,菊池市,泗水町吉富３００番地７８,,43,210,8611201,,,,,,,2023-12-28,1,,,,,オオクボコウギョウ,0
788,3330003010142,新規,0,2023-12-28,2023-12-28,合同会社矢部Ｆ．Ｃ高橋,,合同会社,熊本県,上益城郡山都町,御所１３３１番地,,43,447,8613502,,,,,,,2023-12-28,1,,,,,ヤベエフシータカハシ,0
789,3340001026172,新規,0,2023-12-28,2023-12-28,株式会社Ｌｉｍ,,株式会社,鹿児島県,鹿児島市,星ヶ峯６丁目３６番地４,,46,201,8910102,,,,,,,2023-12-28,1,,,,,リム,0
790,3340001026180,新規,0,2023-12-28,2023-12-28,株式会社ｔｉｔｌｅ８,,株式会社,鹿児島県,阿久根市,大丸町４３番地２,,46,206,8991624,,,,,,,2023-12-28,1,,,,,タイトルエイト,0
799,3380001034213,新規,0,2023-12-28,2023-12-28,株式会社ＥＤＥＮ,,株式会社,福島県,須賀川市,市野関字舘山３番地３,,07,207,9620726,,,,,,,2023-12-28,1,,,,,エデン,0
802,3400001016506,新規,0,2023-12-28,2023-12-28,株式会社Ａｗｅｓｏｍｅ　Ｌａｂ,,株式会社,岩手県,盛岡市,仙北１丁目３番１３号,,03,201,0200861,,,,,,,2023-12-28,1,,,,,オーサムラボ,0
807,3420001018533,新規,0,2023-12-28,2023-12-28,株式会社ＣＵＯＲＥ,,株式会社,青森県,十和田市,西五番町２３番１６号,,02,206,0340085,,,,,,,2023-12-28,1,,,,,クオーレ,0
814,3430001090762,新規,0,2023-12-28,2023-12-28,株式会社Ｉ．Ｓ．Ｔ,,株式会社,北海道,札幌市清田区,平岡四条７丁目３番２１号,,01,110,0040874,,,,,,,2023-12-28,1,,,,,イスト,0
815,3430001090770,新規,0,2023-12-28,2023-12-28,株式会社エメリュンヌ,,株式会社,北海道,札幌市手稲区,曙二条３丁目６番２８号,,01,109,0060832,,,,,,,2023-12-28,1,,,,,エメリュンヌ,0
816,3430003015809,新規,0,2023-12-28,2023-12-28,合同会社ノーザンライト,,合同会社,北海道,札幌市北区,新琴似八条４丁目１番１０－２０１号,,01,102,0010908,,,,,,,2023-12-28,1,,,,,ノーザンライト,0
822,3480001012340,新規,0,2023-12-28,2023-12-28,Ｔ．Ｓ．Ｄトラスト株式会社,,株式会社,徳島県,名西郡石井町,高川原字高川原２７３番地１,,36,341,7793223,,,,,,,2023-12-28,1,,,,,ティーエスディートラスト,0
836,3700150123106,新規,0,2023-12-28,2023-12-28,Ｎｅｏｎ　Ｃｏｍｍｅｒｃｅ，　Ｉｎｃ．,,外国会社等,,,,,,,,３３３　Ｂｕｓｈ　Ｓｔｒｅｅｔ，Ｓｕｉｔｅ　４，Ｓａｎ　Ｆｒａｎｃｉｓｃｏ，Ｃａｌｉｆｏｒｎｉａ　９４１０４，ＵＳＡ,,,,,,2023-12-28,1,,,,,ネオンコマースインク,0
837,3700150123114,新規,0,2023-12-28,2023-12-28,Ｄｕｎｅ　Ａｖｉａｔｉｏｎ　１４　Ｌｉｍｉｔｅｄ,,外国会社等,,,,,,,,４ｔｈ　Ｆｌｏｏｒ，３５　Ｓｈｅｌｂｏｕｒｎｅ　Ｒｏａｄ，Ｂａｌｌｓｂｒｉｄｇｅ，Ｄｕｂｌｉｎ　４，Ｄ０４　Ａ４Ｅ０，Ｉｒｅｌａｎｄ,,,,,,2023-12-28,1,,,,,デユーンアビエーシヨンフオーテイーンリミテツド,0
843,4010001241126,新規,0,2023-12-28,2023-12-28,ＣＣホールディングス株式会社,,株式会社,東京都,千代田区,麹町３丁目５番地２,,13,101,1020083,,,,,,,2023-12-28,1,,,,,シーシーホールディングス,0
844,4010001241142,新規,0,2023-12-28,2023-12-28,盛欣株式会社,,株式会社,東京都,文京区,春日２丁目４番１０号,,13,105,1120003,,,,,,,2023-12-28,1,,,,,セイキン,0
845,4010001241175,新規,0,2023-12-28,2023-12-28,株式会社ＴＡＭＡＫＩ,,株式会社,東京都,千代田区,内幸町１丁目１番１号帝国ホテル本館５階５１４号,,13,101,1000011,,,,,,,2023-12-28,1,,,,,タマキ,0
846,4010001241200,新規,0,2023-12-28,2023-12-28,株式会社ほざき屋,,株式会社,東京都,文京区,根津１丁目１７番１－１２０５号,,13,105,1130031,,,,,,,2023-12-28,1,,,,,ホザキヤ,0
848,4010003042563,新規,0,2023-12-28,2023-12-28,三井合同会社,,合同会社,東京都,中央区,日本橋箱崎町２６番１－１２０３号,,13,102,1030015,,,,,,,2023-12-28,1,,,,,ミツイ,0
850,4010005037669,新規,0,2023-12-28,2023-12-28,一般社団法人アジアンサポート協会,,その他の設立登記法人,東京都,千代田区,一ツ橋２丁目６番６号,,13,101,1010003,,,,,,,2023-12-28,1,,,,,アジアンサポートキョウカイ,0
853,4010401179486,新規,0,2023-12-28,2023-12-28,株式会社ＳｍａｒｔＳｕｐｐｏｒｔ,,株式会社,東京都,港区,赤坂３丁目９番４号サカタニビル５階,,13,103,1070052,,,,,,,2023-12-28,1,,,,,スマートサポート,0
855,4010403031661,新規,0,2023-12-28,2023-12-28,合同会社ＡＹＭ,,合同会社,東京都,港区,三田１丁目６番３号,,13,103,1080073,,,,,,,2023-12-28,1,,,,,エーワイエム,0
857,4010501051561,新規,0,2023-12-28,2023-12-28,株式会社Ｒ．Ｈ,,株式会社,東京都,台東区,浅草１丁目３９番７号,,13,106,1110032,,,,,,,2023-12-28,1,,,,,アールエイチ,0
858,4010503007280,新規,0,2023-12-28,2023-12-28,メディカルナーシングケア合同会社,,合同会社,東京都,台東区,元浅草２丁目１番１９－１３０２号メインステージ元浅草ＩＩ,00133160,13,106,1110041,,,,,,,2023-12-28,1,,,,,メディカルナーシングケア,0
859,4010503007289,新規,0,2023-12-28,2023-12-28,全日本鑑定師協会合同会社,,合同会社,東京都,台東区,上野６丁目８番１９号小野田ビル３Ｆ,,13,106,1100005,,,,,,,2023-12-28,1,,,,,ゼンニホンカンテイシキョウカイ,0
873,4010901054395,新規,0,2023-12-28,2023-12-28,株式会社ＳＯＺＯＭ,,株式会社,東京都,世田谷区,祖師谷２丁目１０－１０－４０３,,13,112,1570072,,,,,,,2023-12-28,1,,,,,ソゾム,0
874,4010901054453,新規,0,2023-12-28,2023-12-28,株式会社チルコロ,,株式会社,東京都,世田谷区,等々力４丁目１８番１２号光和マンション１０２,,13,112,1580082,,,,,,,2023-12-28,1,,,,,チルコロ,0
875,4010901054461,新規,0,2023-12-28,2023-12-28,株式会社エスカリエ,,株式会社,東京都,世田谷区,深沢８丁目７番１５号,,13,112,1580081,,,,,,,2023-12-28,1,,,,,エスカリエ,0
876,4010901054478,新規,0,2023-12-28,2023-12-28,株式会社ＤＲＡＧＯＮ．,,株式会社,東京都,世田谷区,桜新町２丁目２７番１２号,,13,112,1540015,,,,,,,2023-12-28,1,,,,,ドラゴンドット,0
878,4011001159028,新規,0,2023-12-28,2023-12-28,株式会社モーモー・ピクチャーズ,,株式会社,東京都,渋谷区,道玄坂１丁目１０番８号渋谷道玄坂東急ビル２Ｆ－Ｃ,,13,113,1500043,,,,,,,2023-12-28,1,,,,,モーモーピクチャーズ,0
879,4011001159052,新規,0,2023-12-28,2023-12-28,Ａｔｌａｓ株式会社,,株式会社,東京都,渋谷区,道玄坂１丁目１０番８号渋谷道玄坂東急ビル２Ｆ－Ｃ,,13,113,1500043,,,,,,,2023-12-28,1,,,,,アトラス,0
880,4011001159077,新規,0,2023-12-28,2023-12-28,株式会社ＬＲ,,株式会社,東京都,渋谷区,渋谷２丁目１９番１５号宮益坂ビルディング６０９,,13,113,1500002,,,,,,,2023-12-28,1,,,,,エルアール,0
881,4011001159143,新規,0,2023-12-28,2023-12-28,株式会社ＫＲＩＳＴ,,株式会社,東京都,渋谷区,恵比寿２丁目２７番１０－２０４号ＺＯＯＭ広尾,,13,113,1500013,,,,,,,2023-12-28,1,,,,,クリスト,0
882,4011001159151,新規,0,2023-12-28,2023-12-28,ＦＩＴ　Ｍａｎａｇｅｍｅｎｔ株式会社,,株式会社,東京都,渋谷区,道玄坂１丁目１０番８号渋谷道玄坂東急ビル２Ｆ,,13,113,1500043,,,,,,,2023-12-28,1,,,,,フィットマネジメント,0
883,4011003018140,新規,0,2023-12-28,2023-12-28,ブラストワーク合同会社,,合同会社,東京都,渋谷区,渋谷２丁目１９番１５号宮益坂ビルディング６０９,,13,113,1500002,,,,,,,2023-12-28,1,,,,,ブラストワーク,0
884,4011003018149,新規,0,2023-12-28,2023-12-28,ＭＥＴ　ｅｎｔｅｒｔａｉｎｍｅｎｔ合同会社,,合同会社,東京都,渋谷区,神宮前６丁目２３番４号桑野ビル２階,,13,113,1500001,,,,,,,2023-12-28,1,,,,,エムイーティーエンターテインメント,0
898,4011301029285,新規,0,2023-12-28,2023-12-28,株式会社ヘンシュウシャ,,株式会社,東京都,杉並区,荻窪３丁目３０番１２号,,13,115,1670051,,,,,,,2023-12-28,1,,,,,ヘンシュウシャ,0
899,4011305002949,新規,0,2023-12-28,2023-12-28,一般社団法人日本デジタルウェルビーイング協会,,その他の設立登記法人,東京都,杉並区,高円寺北２丁目２９番１４号伊藤第二ビル２０５号,,13,115,1660002,,,,,,,2023-12-28,1,,,,,ニホンデジタルウェルビーイングキョウカイ,0
901,4011401025738,新規,0,2023-12-28,2023-12-28,株式会社Ｈａｐｐｅａｔ,,株式会社,東京都,板橋区,三園１丁目２９番１７号,,13,119,1750091,,,,,,,2023-12-28,1,,,,,ハピート,0
903,4011505002600,新規,0,2023-12-28,2023-12-28,一般社団法人高度専門人材研究・研修機構,,その他の設立登記法人,東京都,北区,滝野川７丁目６番１０号ダイアパレスグランデージ板橋３０５号室,,13,117,1140023,,,,,,,2023-12-28,1,,,,,コウドセンモンジンザイケンキュウケンシュウキコウ,0
908,4011801043595,新規,0,2023-12-28,2023-12-28,株式会社ＧＬＩＴＯＮＹＬ,,株式会社,東京都,葛飾区,小菅４丁目１３番１０号ライオンズマンション綾瀬１０３,,13,122,1240001,,,,,,,2023-12-28,1,,,,,グリトニル,0
909,4011805003323,新規,0,2023-12-28,2023-12-28,特定非営利活動法人下町コミュニティ,,その他の設立登記法人,東京都,葛飾区,東四つ木３丁目８番１５号,,13,122,1240014,,,,,,,2023-12-28,1,,,,,シタマチコミュニティ,0
914,4012703002879,新規,0,2023-12-28,2023-12-28,合同会社ＳＵＩＵ,,合同会社,東京都,西東京市,保谷町４丁目３番１９号,,13,229,2020015,,,,,,,2023-12-28,1,,,,,スイウ,0
918,4013301051814,新規,0,2023-12-28,2023-12-28,株式会社青天を衝け,,株式会社,東京都,豊島区,池袋本町１丁目３３番１０号,,13,116,1700011,,,,,,,2023-12-28,1,,,,,セイテンヲツケ,0
919,4013301051830,新規,0,2023-12-28,2023-12-28,株式会社Ａ‐ｓｐｅｃｓ,,株式会社,東京都,豊島区,東池袋１丁目１７－１１パークハイツ池袋１１０５号,,13,116,1700013,,,,,,,2023-12-28,1,,,,,エースペックス,0
925,4020001155093,新規,0,2023-12-28,2023-12-28,株式会社アクティーズ,,株式会社,神奈川県,川崎市高津区,東野川２丁目１３番３１号２０３,,14,134,2130029,,,,,,,2023-12-28,1,,,,,アクティーズ,0
926,4020001155110,新規,0,2023-12-28,2023-12-28,株式会社ＭＥＧ　ＴＨＥ　ＭＵＳＩＣ,,株式会社,神奈川県,川崎市麻生区,東百合丘１丁目１１番１０号,,14,137,2150012,,,,,,,2023-12-28,1,,,,,メグザミュージック,0
929,4020005016242,新規,0,2023-12-28,2023-12-28,一般社団法人トリアプローチ,,その他の設立登記法人,神奈川県,横浜市港南区,日野１丁目９番１６号パークハイム３０１,,14,111,2340051,,,,,,,2023-12-28,1,,,,,トリアプローチ,0
931,4021001081107,新規,0,2023-12-28,2023-12-28,株式会社ＣＳＫ,,株式会社,神奈川県,茅ヶ崎市,みずき２丁目２１番９号,,14,207,2530088,,,,,,,2023-12-28,1,,,,,シーエスケイ,0
932,4021001081123,新規,0,2023-12-28,2023-12-28,株式会社ＫＳ　ｄｉｎｉｎｇ,,株式会社,神奈川県,小田原市,寿町４丁目２２番５号,,14,206,2500002,,,,,,,2023-12-28,1,,,,,ケーエスダイニング,0
938,4021005012982,新規,0,2023-12-28,2023-12-28,一般社団法人コンコントフィールド,,その他の設立登記法人,神奈川県,足柄上郡大井町,山田６４３番地,,14,362,2580015,,,,,,,2023-12-28,1,,,,,コンコントフィールド,0
942,4030001157923,新規,0,2023-12-28,2023-12-28,株式会社ツナガリ,,株式会社,埼玉県,春日部市,中央１丁目１０番地３春日部三樹ビル２階,,11,214,3440067,,,,,,,2023-12-28,1,,,,,ツナガリ,0
943,4030001157948,新規,0,2023-12-28,2023-12-28,株式会社ｅｓｐｏｉｒ,,株式会社,埼玉県,戸田市,川岸２丁目１番５号,,11,224,3350015,,,,,,,2023-12-28,1,,,,,エスポワール,0
944,4030001157956,新規,0,2023-12-28,2023-12-28,株式会社ワールドネットワーク,,株式会社,埼玉県,吉川市,吉川２丁目１５番地４吉川タウンハウスＩＩ１０２号,00133148,11,243,3420055,,,,,,,2023-12-28,1,,,,,ワールドネットワーク,0
945,4030001157964,新規,0,2023-12-28,2023-12-28,株式会社ＡｉＴｏＧｅｔ,,株式会社,埼玉県,さいたま市大宮区,桜木町２丁目３番地大宮マルイ７階,,11,103,3300854,,,,,,,2023-12-28,1,,,,,アイトゥゲット,0
946,4030001157989,新規,0,2023-12-28,2023-12-28,株式会社ＶＡＳＴ,,株式会社,埼玉県,川口市,大字西新井宿５７１番地の６,,11,203,3330833,,,,,,,2023-12-28,1,,,,,ヴァスト,0
949,4030005021506,新規,0,2023-12-28,2023-12-28,一般社団法人メンターナース,,その他の設立登記法人,埼玉県,さいたま市見沼区,大字小深作５６２番地１１,,11,104,3370005,,,,,,,2023-12-28,1,,,,,メンターナース,0
951,4040001131571,新規,0,2023-12-28,2023-12-28,株式会社Ｏｎｅｎｅｓｓ　Ｌｅａｐ,,株式会社,千葉県,千葉市中央区,富士見２丁目７番９号富士見ビル６０９号,,12,101,2600015,,,,,,,2023-12-28,1,,,,,ワンネスリープ,0
970,4080001026058,新規,0,2023-12-28,2023-12-28,株式会社オーガ,,株式会社,静岡県,静岡市葵区,両替町２丁目４番地の５,,22,101,4200032,,,,,,,2023-12-28,1,,,,,オーガ,0
973,4080401026921,新規,0,2023-12-28,2023-12-28,株式会社エシステンツァ,,株式会社,静岡県,磐田市,下本郷３７１番地２,,22,211,4380823,,,,,,,2023-12-28,1,,,,,エシステンツァ,0
976,4090003002460,新規,0,2023-12-28,2023-12-28,合同会社ＡＬＬＩＥＤ　ＣＲＥＷ,,合同会社,山梨県,都留市,鹿留１２０２番地１,,19,204,4020032,,,,,,,2023-12-28,1,,,,,アライドクルー,0
991,4120001260998,新規,0,2023-12-28,2023-12-28,株式会社ジージー,,株式会社,大阪府,大阪市北区,堂島浜２丁目２番２８号堂島アクシスビル,,27,127,5300004,,,,,,,2023-12-28,1,,,,,ジージー,0
992,4120001261030,新規,0,2023-12-28,2023-12-28,株式会社コミコミ．,,株式会社,大阪府,大阪市西区,本田２丁目５番１６号ＤＡＩＩＣＨＩビル３Ｆ,,27,106,5500022,,,,,,,2023-12-28,1,,,,,コミコミドット,0
993,4120001261055,新規,0,2023-12-28,2023-12-28,株式会社マルタカ,,株式会社,大阪府,大阪市中央区,南船場４丁目１１番１７号,,27,128,5420081,,,,,,,2023-12-28,1,,,,,マルタカ,0
998,4120901048584,新規,0,2023-12-28,2023-12-28,株式会社Ｃｏｏｌｏｎ,,株式会社,大阪府,茨木市,上中条２丁目８番３２号,,27,211,5670881,,,,,,,2023-12-28,1,,,,,クーロン,0
1003,4130001076023,新規,0,2023-12-28,2023-12-28,ＴＲＵＳＴＹ株式会社,,株式会社,京都府,京都市中京区,三条通新町西入ル釜座町２２番地ストークビル三条烏丸３Ｆ,,26,104,6040000,,,,,,,2023-12-28,1,,,,,トラスティ,0
1004,4130001076031,新規,0,2023-12-28,2023-12-28,株式会社一心創房,,株式会社,京都府,亀岡市,篠町篠新畑田５－１橘テナント０３,,26,206,6210826,,,,,,,2023-12-28,1,,,,,イッシンソウボウ,0
1005,4130003009220,新規,0,2023-12-28,2023-12-28,合同会社ハコリア,,合同会社,京都府,京都市左京区,吉田中大路町３３番地吉田ヒル京園３０４号,,26,103,6068313,,,,,,,2023-12-28,1,,,,,ハコリア,0
1009,4140001132824,新規,0,2023-12-28,2023-12-28,株式会社Ｌｙｒｉｙｏｎ,,株式会社,兵庫県,姫路市,竹田町１７番地,,28,201,6700013,,,,,,,2023-12-28,1,,,,,リリヨン,0
1010,4140001132840,新規,0,2023-12-28,2023-12-28,株式会社Ｕｎｉｔｙ,,株式会社,兵庫県,神戸市須磨区,須磨浦通３丁目２－２３ＧＥＭＢＡＳＥＩＮＳＵＭＡ１０７号室,,28,107,6540055,,,,,,,2023-12-28,1,,,,,ユニティ,0
1011,4140001132849,新規,0,2023-12-28,2023-12-28,株式会社ＴＯＲＩＴＯＮ,,株式会社,兵庫県,神戸市西区,北別府４丁目１５－３,,28,111,6512117,,,,,,,2023-12-28,1,,,,,トリトン,0
1013,4140003019986,新規,0,2023-12-28,2023-12-28,たくみりぺあ合同会社,,合同会社,兵庫県,神戸市東灘区,深江南町１丁目１番９－１号,,28,101,6580022,,,,,,,2023-12-28,1,,,,,タクミリペア,0
1014,4140003019994,新規,0,2023-12-28,2023-12-28,ユキトアコウ合同会社,,合同会社,兵庫県,赤穂市,細野町１２９－２,,28,212,6780231,,,,,,,2023-12-28,1,,,,,ユキトアコウ,0
1015,4140005026881,新規,0,2023-12-28,2023-12-28,医療法人レプレ,,その他の設立登記法人,兵庫県,神戸市中央区,元町通４丁目６番２号アーバネックスみなと元町ＩＩ,00133158,28,110,6500022,,,,,,,2023-12-28,1,,,,,レプレ,0
1016,4150003003155,新規,0,2023-12-28,2023-12-28,合同会社Ｍ．Ｒｅｓｔａｒｔ,,合同会社,奈良県,五條市,今井３丁目２番５４号,,29,207,6370004,,,,,,,2023-12-28,1,,,,,エムリスタート,0
1017,4150005009539,新規,0,2023-12-28,2023-12-28,一般社団法人テラ小屋,,その他の設立登記法人,奈良県,奈良市,西木辻町３０５番地の２５,00133149,29,201,6308325,,,,,,,2023-12-28,1,,,,,テラコヤ,0
1027,4180001159582,新規,0,2023-12-28,2023-12-28,株式会社豊栄商事,,株式会社,愛知県,名古屋市千種区,今池２丁目１番１６号八晃ビルディング４０５,,23,101,4640850,,,,,,,2023-12-28,1,,,,,ホウエイショウジ,0
1028,4180001159608,新規,0,2023-12-28,2023-12-28,株式会社Ｃｏｓｙ　Ｈｏｍｅｓ,,株式会社,愛知県,名古屋市中川区,下之一色町字松蔭６丁目９番地の１,,23,110,4540945,,,,,,,2023-12-28,1,,,,,コージーホームズ,0
1041,4220001025755,新規,0,2023-12-28,2023-12-28,株式会社ニードサレル,,株式会社,石川県,小松市,有明町１０５番地５,,17,203,9230864,,,,,,,2023-12-28,1,,,,,ニードサレル,0
1043,4230001020152,新規,0,2023-12-28,2023-12-28,日中貿易株式会社,,株式会社,富山県,下新川郡朝日町,境字竹屋７２０番１,,16,343,9390704,,,,,,,2023-12-28,1,,,,,ニッチュウボウエキ,0
1044,4230003002124,新規,0,2023-12-28,2023-12-28,合同会社ＮＫコーポレーション,,合同会社,富山県,富山市,常盤台１６番８号,,16,201,9300983,,,,,,,2023-12-28,1,,,,,エヌケイコーポレーション,0
1047,4240001062607,新規,0,2023-12-28,2023-12-28,株式会社ＴＯＫＡＲＥＶ,,株式会社,広島県,三原市,長谷３丁目７４８番,,34,204,7230132,,,,,,,2023-12-28,1,,,,,トカレフ,0
1048,4240001062615,新規,0,2023-12-28,2023-12-28,ＨＥ・ＥＲＡ株式会社,,株式会社,広島県,福山市,新市町大字宮内１４３２番地７,,34,207,7293104,,,,,,,2023-12-28,1,,,,,ヘエラ,0
1051,4260001038605,新規,0,2023-12-28,2023-12-28,株式会社月夜,,株式会社,岡山県,岡山市中区,円山１１８番地６サンライズビル１Ｆ西,,33,102,7038271,,,,,,,2023-12-28,1,,,,,ツクヨ,0
1057,4280003001798,新規,0,2023-12-28,2023-12-28,合同会社アーク,,合同会社,島根県,浜田市,三隅町三隅１０４１番地２,,32,202,6993211,,,,,,,2023-12-28,1,,,,,アーク,0
1062,4290001104214,新規,0,2023-12-28,2023-12-28,株式会社アイストック,,株式会社,福岡県,福岡市東区,千早５丁目１３番１８号ＬｅＬｉｅｎ香椎参道２階Ｃ号,,40,131,8130044,,,,,,,2023-12-28,1,,,,,アイストック,0
1063,4290001104230,新規,0,2023-12-28,2023-12-28,株式会社ＦＡＴｏｋｅｎ,,株式会社,福岡県,福岡市中央区,大名２丁目６－１１,,40,133,8100041,,,,,,,2023-12-28,1,,,,,エフエートークン,0
1064,4290001104239,新規,0,2023-12-28,2023-12-28,株式会社Ｍ．Ｙ＆Ｋｉｎｄｅｒ,,株式会社,福岡県,福岡市中央区,大名２丁目２番７号大名センタービル,,40,133,8100041,,,,,,,2023-12-28,1,,,,,エムワイアンドカインダー,0
1067,4290003014808,新規,0,2023-12-28,2023-12-28,Ｄａｗｎ合同会社,,合同会社,福岡県,福岡市中央区,天神２丁目２番１２号Ｔ＆Ｊビルディング７Ｆ,,40,133,8100001,,,,,,,2023-12-28,1,,,,,,0
1079,4370001050788,新規,0,2023-12-28,2023-12-28,株式会社ＶｉｔｒｏＶｏ,,株式会社,宮城県,仙台市青葉区,本町１丁目５番２８号カーニープレイス仙台駅前通６０３号室,,04,101,9800014,,,,,,,2023-12-28,1,,,,,ヴィトロボ,0
1093,4470001019963,新規,0,2023-12-28,2023-12-28,三雄技研工業株式会社,,株式会社,香川県,坂出市,加茂町甲１２０パレスニュールミネＩＩＡ２０１,00133146,37,203,7620022,,,,,,,2023-12-28,1,,,,,サンユウギケンコウギョウ,0
1094,4470003002546,新規,0,2023-12-28,2023-12-28,ぺんぎんシッター合同会社,,合同会社,香川県,高松市,木太町２７２３－１アルファステイツ木太１１番館９０５,,37,201,7600080,,,,,,,2023-12-28,1,,,,,ペンギンシッター,0
1108,4700150123105,新規,0,2023-12-28,2023-12-28,Ｖａｎｔｉｑ，　Ｉｎｃ．,,外国会社等,,,,,,,,１９９０　Ｎｏｒｔｈ　Ｃａｌｉｆｏｒｎｉａ　Ｂｏｕｌｅｖａｒｄ，Ｓｕｉｔｅ　４００　Ｗａｌｎｕｔ　Ｃｒｅｅｋ，ＣＡ９４５９６,,,,,,2023-12-28,1,,,,,バンテイツクインク,0
1109,4700150123113,新規,0,2023-12-28,2023-12-28,ｓｈｅｎｚｈｅｎｑｉａｎｈａｉｓｈｉｙｏｕｇｕｏｊｉｍａｏｙｉｙｏｕｘｉａｎｇｏｎｇｓｉ,,外国会社等,,,,,,,,ｑｉａｎｈａｉｓｈｅｎｇａｎｇｈｅｚｕｏｑｕｑｉａｎｗａｎ１ｌｕ１ｈａｏＡｄｏｎｇ２０１ｓｈｉ　Ｓｈｅｎｚｈｅｎｓｈｉ　Ｇｕａｎｇｄｏｎｇｓｈｅｎｇ　５１８０００　ＣＮ,,,,,,2023-12-28,1,,,,,シエンジエンチエンハイシーヨウグオジーマオイーヨウシエンゴンスー,0
1110,4700150123121,新規,0,2023-12-28,2023-12-28,ｓｈｅｎｚｈｅｎｇｓｈｉｈｕａｎｐａｉｄｉａｎｚｉｋｅｊｉｙｏｕｘｉａｎｇｏｎｇｓｉ,,外国会社等,,,,,,,,ｂａｏａｎｑｕｘｉｘｉａｎｇｊｉｅｄａｏｙａｎｔｉａｎｓｈｅｑｕｙｉｎｔｉａｎｇｏｎｇｙｅｌｕｑｉａｏｈｏｎｇｓｈｅｎｇｗｅｎｈｕａｃｈｕａｎｇｙｉｙｕａｎｘｉｅｚｉｌｏｕＡｄｏｎｇ６０５Ａｓｈｅｎｚｈｅｎｓｈｉ　ｇｕａｎｇｄｏｎｇｓｈｅｎ５１８１０２,,,,,,2023-12-28,1,,,,,シェンジェンシーフアンパイディエンズーコージーヨウシエンゴンスー,0
1116,5010001241117,新規,0,2023-12-28,2023-12-28,株式会社サイコピース,,株式会社,東京都,中央区,銀座１丁目１２－４Ｎ＆ＥＢＬＤ．７階,,13,102,1040061,,,,,,,2023-12-28,1,,,,,サイコピース,0
1117,5010001241158,新規,0,2023-12-28,2023-12-28,株式会社ＭＩＹＡＢＩ,,株式会社,東京都,中央区,日本橋人形町１丁目７番１０号,,13,102,1030013,,,,,,,2023-12-28,1,,,,,ミヤビ,0
1118,5010001241166,新規,0,2023-12-28,2023-12-28,株式会社ＷＯＲＫ．ＬＡＢ,,株式会社,東京都,千代田区,神田須田町１丁目９番地１０階,,13,101,1010041,,,,,,,2023-12-28,1,,,,,ワークラボ,0
1119,5010001241199,新規,0,2023-12-28,2023-12-28,株式会社イェールアソシエイツ,,株式会社,東京都,千代田区,神田佐久間町１丁目８番４号アルテール秋葉原７０８,,13,101,1010025,,,,,,,2023-12-28,1,,,,,イェールアソシエイツ,0
1120,5010003042389,新規,0,2023-12-28,2023-12-28,合同会社ＹＵＭＭＹ　ＰＡＮ,,合同会社,東京都,中央区,銀座１丁目１２番４号Ｎ＆ＥＢＬＤ．６Ｆ,,13,102,1040061,,,,,,,2023-12-28,1,,,,,ヤミーパン,0
1121,5010003042570,新規,0,2023-12-28,2023-12-28,Ｏｒｃｈｉｄ　Ｔｗｏ合同会社,,合同会社,東京都,中央区,日本橋茅場町２丁目１７番３－６０７号,,13,102,1030025,,,,,,,2023-12-28,1,,,,,オーキッドツー,0
1122,5010003042587,新規,0,2023-12-28,2023-12-28,Ｃａｔ　Ｔｅｃｈｎｏｌｏｇｉｅｓ合同会社,,合同会社,東京都,中央区,銀座１丁目１２番４号Ｎ＆ＥＢＬＤ．６Ｆ,,13,102,1040061,,,,,,,2023-12-28,1,,,,,キャットテクノロジーズ,0
1124,5010005037676,新規,0,2023-12-28,2023-12-28,一般社団法人アスファレス心理センター,,その他の設立登記法人,東京都,文京区,大塚４丁目４５番１６号,00133151,13,105,1120012,,,,,,,2023-12-28,1,,,,,アスファレスシンリセンター,0
1132,5010401179460,新規,0,2023-12-28,2023-12-28,株式会社３８ｃｌｏｓｅ,,株式会社,東京都,港区,南青山２丁目２番１５号ウィン青山９４２,,13,103,1070062,,,,,,,2023-12-28,1,,,,,サンハチクロース,0
1133,5010401179469,新規,0,2023-12-28,2023-12-28,株式会社ドアーズ,,株式会社,東京都,港区,南青山３丁目１番３６号青山丸竹ビル６階,,13,103,1070062,,,,,,,2023-12-28,1,,,,,ドアーズ,0
1134,5010401179485,新規,0,2023-12-28,2023-12-28,Ｏｆｆｉｃｅ‐ＧＣ株式会社,,株式会社,東京都,港区,南青山２丁目２番１５号ウィン青山９４２,,13,103,1070062,,,,,,,2023-12-28,1,,,,,オフィスジーシー,0
1135,5010401179502,新規,0,2023-12-28,2023-12-28,ＧｏｏｄＳｔａｔｅ株式会社,,株式会社,東京都,港区,南青山６丁目３番１２号,,13,103,1070062,,,,,,,2023-12-28,1,,,,,グッドステイト,0
1136,5010403031660,新規,0,2023-12-28,2023-12-28,アンチマター・インベストメント合同会社,,合同会社,東京都,港区,南麻布４丁目１４番５号エスペランサ南麻布９０１,,13,103,1060047,,,,,,,2023-12-28,1,,,,,アンチマターインベストメント,0
1140,5010501051577,新規,0,2023-12-28,2023-12-28,梨絵エステート２株式会社,,株式会社,東京都,台東区,上野２丁目１１番２０号アミューズたんぽぽビル,,13,106,1100005,,,,,,,2023-12-28,1,,,,,リエエステートツー,0
1142,5010601064388,新規,0,2023-12-28,2023-12-28,株式会社コラム,,株式会社,東京都,江東区,南砂１丁目９番２１号セットアップビル３Ｆ,,13,108,1360076,,,,,,,2023-12-28,1,,,,,コラム,0
1143,5010601064421,新規,0,2023-12-28,2023-12-28,ＡｘｉｓＨｕｂ商事株式会社,,株式会社,東京都,江東区,豊洲６丁目２番３１－１９１７号,,13,108,1350061,,,,,,,2023-12-28,1,,,,,アクシスハブショウジ,0
1146,5010603010555,新規,0,2023-12-28,2023-12-28,ヴィネットデザインワークス合同会社,,合同会社,東京都,江東区,東砂７丁目５番１２号,,13,108,1360074,,,,,,,2023-12-28,1,,,,,ヴィネットデザインワークス,0
1148,5010801034653,新規,0,2023-12-28,2023-12-28,株式会社Ｃｈａｒｍｙ,,株式会社,東京都,大田区,蒲田５丁目２７番１１－１２０２号,,13,111,1440052,,,,,,,2023-12-28,1,,,,,チャーミー,0
1154,5010901054444,新規,0,2023-12-28,2023-12-28,株式会社ゆいつ,,株式会社,東京都,世田谷区,代田３丁目３２番１０号,,13,112,1550033,,,,,,,2023-12-28,1,,,,,ユイツ,0
1163,5011001159068,新規,0,2023-12-28,2023-12-28,海真株式会社,,株式会社,東京都,目黒区,南１丁目１３番１１号,,13,110,1520013,,,,,,,2023-12-28,1,,,,,カイシン,0
1164,5011001159118,新規,0,2023-12-28,2023-12-28,株式会社Ｐｕｆｆ,,株式会社,東京都,渋谷区,円山町２８番１号渋谷道玄坂スカイビル１１Ｆ,,13,113,1500044,,,,,,,2023-12-28,1,,,,,パフ,0
1165,5011001159150,新規,0,2023-12-28,2023-12-28,株式会社ｃｈｅｅｓｅ,,株式会社,東京都,渋谷区,道玄坂１丁目１０番８号渋谷道玄坂東急ビル２Ｆ,,13,113,1500043,,,,,,,2023-12-28,1,,,,,チーズ,0
1171,5011101105632,新規,0,2023-12-28,2023-12-28,株式会社ＴＡＳＵＫＥ,,株式会社,東京都,新宿区,西新宿４丁目１５番３号住友不動産西新宿ビル３号館７階,,13,104,1600023,,,,,,,2023-12-28,1,,,,,タスケ,0
1174,5011403004219,新規,0,2023-12-28,2023-12-28,合同会社フーズシステム,,合同会社,東京都,板橋区,中台１丁目１番１１号ＲＵＦ２０１,,13,119,1740064,,,,,,,2023-12-28,1,,,,,フーズシステム,0
1175,5011501030158,新規,0,2023-12-28,2023-12-28,エレクトラノーヴァ株式会社,,株式会社,東京都,荒川区,西日暮里２丁目２０番１－２００２号,,13,118,1160013,,,,,,,2023-12-28,1,,,,,,0
1176,5011603004183,新規,0,2023-12-28,2023-12-28,京極１合同会社,,合同会社,東京都,練馬区,豊玉北３丁目８番１号,,13,120,1760012,,,,,,,2023-12-28,1,,,,,キョウゴクイチ,0
1180,5011803006021,新規,0,2023-12-28,2023-12-28,Ｍｉｙｕｋｉ　Ｂｅａｕｔｙ合同会社,,合同会社,東京都,葛飾区,亀有３丁目２９番１号リリオ弐番館１０４号,,13,122,1250061,,,,,,,2023-12-28,1,,,,,ミユキビューティ,0
1182,5012801022877,新規,0,2023-12-28,2023-12-28,株式会社ＥｘＬＩＦＥ,,株式会社,東京都,国立市,西３丁目４－２１ベルジュール国立ウエスト３０５,,13,215,1860005,,,,,,,2023-12-28,1,,,,,エクスライフ,0
1184,5013301051838,新規,0,2023-12-28,2023-12-28,ＤＮＡマーケティング株式会社,,株式会社,東京都,豊島区,高田３丁目５番３号,,13,116,1710033,,,,,,,2023-12-28,1,,,,,ディーエヌエーマーケティング,0
1195,5020001155092,新規,0,2023-12-28,2023-12-28,株式会社古田住宅設備,,株式会社,神奈川県,横浜市鶴見区,市場東中町７番１７号,,14,101,2300022,,,,,,,2023-12-28,1,,,,,フルタジュウタクセツビ,0
1201,5021001081097,新規,0,2023-12-28,2023-12-28,株式会社トラスト,,株式会社,神奈川県,相模原市南区,鵜野森２丁目２５番２１号,,14,153,2520301,,,,,,,2023-12-28,1,,,,,トラスト,0
1202,5021003013957,新規,0,2023-12-28,2023-12-28,共感デザイン研究所合同会社,,合同会社,神奈川県,茅ヶ崎市,共恵１丁目１－５Ｂ．Ｌ．Ｄ．Ｎａｇａｓｈｉｍａ３０１,,14,207,2530056,,,,,,,2023-12-28,1,,,,,キョウカンデザインケンキュジョ,0
1203,5021003013965,新規,0,2023-12-28,2023-12-28,ＴＡＳＨＫＡ合同会社,,合同会社,神奈川県,三浦郡葉山町,一色５９番地の３１,,14,301,2400111,,,,,,,2023-12-28,1,,,,,タシュカ,0
1204,5021003013973,新規,0,2023-12-28,2023-12-28,合同会社かいと,,合同会社,神奈川県,藤沢市,本藤沢２丁目１５番５号,,14,205,2510875,,,,,,,2023-12-28,1,,,,,カイト,0
1208,5030001157922,新規,0,2023-12-28,2023-12-28,株式会社ベルフロント,,株式会社,埼玉県,越谷市,花田１丁目３０番地７,,11,222,3430015,,,,,,,2023-12-28,1,,,,,ベルフロント,0
1214,5030003023313,新規,0,2023-12-28,2023-12-28,スリーステップ合同会社,,合同会社,埼玉県,さいたま市桜区,新開１丁目５－１０－１０２,,11,106,3380834,,,,,,,2023-12-28,1,,,,,スリーステップ,0
1217,5040001131538,新規,0,2023-12-28,2023-12-28,株式会社マザーライクウィズ,,株式会社,千葉県,松戸市,栄町西３丁目１０４５番地,,12,207,2710061,,,,,,,2023-12-28,1,,,,,マザーライクウィズ,0
1225,5050001054052,新規,0,2023-12-28,2023-12-28,株式会社Ｍ’ｓＬａｂ,,株式会社,茨城県,猿島郡境町,上町９６０－３－１Ｆ,,08,546,3060433,,,,,,,2023-12-28,1,,,,,エムズラボ,0
1228,5070003005209,新規,0,2023-12-28,2023-12-28,チリネス合同会社,,合同会社,群馬県,前橋市,総社町総社１８８３―１,,10,201,3710852,,,,,,,2023-12-28,1,,,,,チリネス,0
1231,5080001026057,新規,0,2023-12-28,2023-12-28,株式会社ナカムラ,,株式会社,静岡県,藤枝市,志太４丁目３番８号,,22,214,4260071,,,,,,,2023-12-28,1,,,,,ナカムラ,0
1232,5080101024431,新規,0,2023-12-28,2023-12-28,株式会社佐野重機,,株式会社,静岡県,富士宮市,大岩３８４番地の１０,,22,207,4180013,,,,,,,2023-12-28,1,,,,,サノジュウキ,0
1244,5120001260980,新規,0,2023-12-28,2023-12-28,康泰株式会社,,株式会社,大阪府,大阪市中央区,高津３丁目１４番３４号インペリアル高津１０２号室,,27,128,5420072,,,,,,,2023-12-28,1,,,,,コウタイ,0
1249,5120101068787,新規,0,2023-12-28,2023-12-28,真礼企画株式会社,,株式会社,大阪府,堺市堺区,出島町３丁４番１７号,,27,141,5900834,,,,,,,2023-12-28,1,,,,,マヒロキカク,0
1250,5120901048567,新規,0,2023-12-28,2023-12-28,株式会社Ｔｈｅ　Ｔａｃｔ　Ｃｒｅｗ,,株式会社,大阪府,茨木市,宮元町７番２２号仲辻ビル５Ｄ号室,,27,211,5670810,,,,,,,2023-12-28,1,,,,,ザタクトクルー,0
1251,5120901048575,新規,0,2023-12-28,2023-12-28,株式会社Ｒａｉｓｅ　ｍｅ,,株式会社,大阪府,豊中市,新千里南町２丁目２番１３－５０７号,,27,203,5600084,,,,,,,2023-12-28,1,,,,,レイズミー,0
1252,5120901048583,新規,0,2023-12-28,2023-12-28,ＭｉｋａｎＦａｃｔｏｒｙ株式会社,,株式会社,大阪府,吹田市,垂水町３丁目６番３７－９０３号,,27,205,5640062,,,,,,,2023-12-28,1,,,,,ミカンファクトリー,0
1257,5130001076039,新規,0,2023-12-28,2023-12-28,株式会社Ｕ‐Ｍｉ,,株式会社,京都府,京都市伏見区,向島中島町５番地,,26,109,6128113,,,,,,,2023-12-28,1,,,,,ユーミー,0
1258,5130005016965,新規,0,2023-12-28,2023-12-28,一般財団法人さきぞう財団,,その他の設立登記法人,京都府,京都市中京区,木屋町通三条上る上大阪町５３０番地,,26,104,6048001,,,,,,,2023-12-28,1,,,,,サキゾウザイダン,0
1263,5140001132823,新規,0,2023-12-28,2023-12-28,株式会社谷口電気設備,,株式会社,兵庫県,宍粟市,一宮町生栖８３５番地１,,28,227,6714123,,,,,,,2023-12-28,1,,,,,タニグチデンキセツビ,0
1264,5140001132831,新規,0,2023-12-28,2023-12-28,株式会社アビック垂水,,株式会社,兵庫県,神戸市中央区,琴ノ緒町５丁目６番１号,,28,110,6510094,,,,,,,2023-12-28,1,,,,,アビックタルミ,0
1265,5140001132848,新規,0,2023-12-28,2023-12-28,株式会社ＥＥＹＡＮ,,株式会社,兵庫県,神戸市東灘区,向洋町中１丁目４－１２７－３０５,,28,101,6580032,,,,,,,2023-12-28,1,,,,,エエヤン,0
1266,5140001132864,新規,0,2023-12-28,2023-12-28,Ａｕｇｍｅｎｔａｔｉｏｎ株式会社,,株式会社,兵庫県,川西市,久代２丁目９番１９－１４号,,28,217,6660024,,,,,,,2023-12-28,1,,,,,オーグメンテーション,0
1269,5140003019993,新規,0,2023-12-28,2023-12-28,合同会社ＰＡＲＩＳ,,合同会社,兵庫県,加古川市,平岡町一色３２９－４,,28,210,6750115,,,,,,,2023-12-28,1,,,,,パリス,0
1273,5150003003154,新規,0,2023-12-28,2023-12-28,マユユ合同会社,,合同会社,奈良県,橿原市,五条野町３３７番地の９,,29,205,6340043,,,,,,,2023-12-28,1,,,,,マユユ,0
1276,5160001025587,新規,0,2023-12-28,2023-12-28,株式会社ｆｉｒｓｔ　ｈｏｍｅ,,株式会社,滋賀県,彦根市,平田町２１３番地２０,,25,202,5220041,,,,,,,2023-12-28,1,,,,,ファーストホーム,0
1288,5180001159532,新規,0,2023-12-28,2023-12-28,株式会社グラティア,,株式会社,愛知県,名古屋市東区,大松町１番３号第一林ビル１Ｆ１,,23,102,4610033,,,,,,,2023-12-28,1,,,,,グラティア,0
1289,5180001159549,新規,0,2023-12-28,2023-12-28,株式会社ＷＨＩＰ,,株式会社,愛知県,名古屋市瑞穂区,田辺通５丁目４番地の２,,23,108,4670027,,,,,,,2023-12-28,1,,,,,ウイップ,0
1290,5180001159557,新規,0,2023-12-28,2023-12-28,株式会社ＰＵＺ,,株式会社,愛知県,名古屋市緑区,徳重４丁目４１１番地の２,,23,114,4580815,,,,,,,2023-12-28,1,,,,,ピーユーゼット,0
1291,5180001159581,新規,0,2023-12-28,2023-12-28,株式会社しあわせになりたい,,株式会社,愛知県,名古屋市西区,那古野２丁目１９番２３号ＺＥＲＯ－ＮＥＸＴ１階,,23,104,4510042,,,,,,,2023-12-28,1,,,,,シアワセニナリタイ,0
1292,5180001159607,新規,0,2023-12-28,2023-12-28,株式会社Ｓメンテナンス,,株式会社,愛知県,春日井市,関田町２丁目１４９番地,,23,206,4860855,,,,,,,2023-12-28,1,,,,,エスメンテナンス,0
1299,5220001025754,新規,0,2023-12-28,2023-12-28,株式会社誠工業,,株式会社,石川県,白山市,橋爪町３３６番地,,17,210,9240812,,,,,,,2023-12-28,1,,,,,マコトコウギョウ,0
1305,5240005015691,新規,0,2023-12-28,2023-12-28,一般社団法人ペットとひとにやさしいまちづくり協会,,その他の設立登記法人,広島県,廿日市市,桜尾本町１２番５号,,34,213,7380005,,,,,,,2023-12-28,1,,,,,ペットトヒトニヤサシイマチヅクリキョウカイ,0
1307,5250003003409,新規,0,2023-12-28,2023-12-28,長門家守合同会社,,合同会社,山口県,長門市,東深川８６３,,35,211,7594101,,,,,,,2023-12-28,1,,,,,ナガトヤモリ,0
1315,5290001104205,新規,0,2023-12-28,2023-12-28,株式会社ＢＡＮＡＮＡＳ　ＷＯＲＫＳ,,株式会社,福岡県,福岡市城南区,田島６丁目６－１０,,40,136,8140113,,,,,,,2023-12-28,1,,,,,バナナズワークス,0
1316,5290001104213,新規,0,2023-12-28,2023-12-28,株式会社ａｎｄＦａｎ,,株式会社,福岡県,福岡市中央区,大名１丁目９－２４ＭｏｔｈｅｒｈｏｕｓｅＤＡＩＭＹＯ３Ｆ,,40,133,8100041,,,,,,,2023-12-28,1,,,,,アンドファン,0
1318,5290003014807,新規,0,2023-12-28,2023-12-28,合同会社西野商事,,合同会社,福岡県,福岡市東区,筥松新町５番１７号,,40,131,8120067,,,,,,,2023-12-28,1,,,,,ニシノショウジ,0
1322,5320001020217,新規,0,2023-12-28,2023-12-28,幸原運輸株式会社,,株式会社,大分県,大分市,大字中戸次５８０２番地の１ミレニアムＫＡＮ－ＩＡ２０１,,44,201,8797761,,,,,,,2023-12-28,1,,,,,コウゲンウンユ,0
1326,5330003010140,新規,0,2023-12-28,2023-12-28,合同会社ケアネス,,合同会社,熊本県,熊本市中央区,神水２丁目７番３号,,43,101,8620954,,,,,,,2023-12-28,1,,,,,ケアネス,0
1329,5340001026179,新規,0,2023-12-28,2023-12-28,株式会社ＨＩＮＡＴＡ,,株式会社,鹿児島県,鹿児島市,若葉町１番３号,,46,201,8900006,,,,,,,2023-12-28,1,,,,,ヒナタ,0
1337,5360003013578,新規,0,2023-12-28,2023-12-28,合同会社盛島農園,,合同会社,沖縄県,宮古島市,城辺字比嘉８８０番地２,,47,214,9060104,,,,,,,2023-12-28,1,,,,,モリシマノウエン,0
1342,5370003006432,新規,0,2023-12-28,2023-12-28,亘理わたなべ合同会社,,合同会社,宮城県,亘理郡亘理町,吉田字小橋１４５番地,,04,361,9892331,,,,,,,2023-12-28,1,,,,,ワタリワタナベ,0
1361,5430003015807,新規,0,2023-12-28,2023-12-28,合同会社真守,,合同会社,北海道,札幌市厚別区,厚別中央一条７丁目２番２８－１０３号,,01,108,0040051,,,,,,,2023-12-28,1,,,,,マモル,0
1369,5470001019962,新規,0,2023-12-28,2023-12-28,株式会社エレファントハウス,,株式会社,香川県,高松市,本町９－５,,37,201,7600032,,,,,,,2023-12-28,1,,,,,エレファントハウス,0
1370,5470003002545,新規,0,2023-12-28,2023-12-28,合同会社さつき,,合同会社,香川県,綾歌郡綾川町,畑田２９５７－３,,37,387,7612101,,,,,,,2023-12-28,1,,,,,サツキ,0
1375,5700150123104,新規,0,2023-12-28,2023-12-28,ｅｄＸ　ＬＬＣ,,外国会社等,,,,,,,,７９００　Ｈａｒｋｉｎｓ　Ｒｏａ，Ｌａｎｈａｍ，ＭＤ　２０７０６，ＵＳＡ,,,,,,2023-12-28,1,,,,,エデツクスエルエルシー,0
1376,5700150123112,新規,0,2023-12-28,2023-12-28,ＩＮＦＩＮＩＴＹ　ＢＲＡＮＤＳ　ＬＩＭＩＴＥＤ,,外国会社等,,,,,,,,２７　ＯＬＤ　ＧＬＯＵＣＥＳＴＥＲ　ＳＴＲＥＥＴ　ＬＯＮＤＯＮ　ＵＮＩＴＥＤ　ＫＩＮＧＤＯＭ　ＷＣ１Ｎ　３ＡＸ,,,,,,2023-12-28,1,,,,,インフイニテイブランズリミテツド,0
1377,5700150123120,新規,0,2023-12-28,2023-12-28,ｓｈｅｎｚｈｅｎｓｈｉｂｏｚｉｔｅｎｇｋｅｊｉｙｏｕｘｉａｎｇｏｎｇｓｉ,,外国会社等,,,,,,,,ｂａｏａｎｑｕｘｉｘｉａｎｇｊｉｅｄａｏｙａｎｔｉａｎｓｈｅｑｕｙｉｎｔｉａｎｇｏｎｇｙｅｌｕｑｉａｏｈｏｎｇｓｈｅｎｇｗｅｎｈｕａｃｈｕａｎｇｙｉｙｕａｎｘｉｅｚｉｌｏｕＡｄｏｎｇ６０６ｓｈｅｎｚｈｅｎｓｈｉ　ｇｕａｎｇｄｏｎｇｓｈｅｎ５１８１０２,,,,,,2023-12-28,1,,,,,シェンジェンシーボーズートンコージーヨウシエンゴンスー,0
1384,6010001240786,新規,0,2023-12-28,2023-12-28,コンフィー株式会社,,株式会社,東京都,文京区,大塚５丁目８番１２－３０１号,,13,105,1120012,,,,,,,2023-12-28,1,,,,,コンフィー,0
1385,6010001241124,新規,0,2023-12-28,2023-12-28,株式会社Ｒｅメゾン,,株式会社,東京都,千代田区,神田和泉町１番地６－１６ヤマトビル４０５,,13,101,1010024,,,,,,,2023-12-28,1,,,,,リメゾン,0
1386,6010001241140,新規,0,2023-12-28,2023-12-28,Ｅｎｅ株式会社,,株式会社,東京都,中央区,晴海３丁目１３番１－４５２４号,,13,102,1040053,,,,,,,2023-12-28,1,,,,,イイネ,0
1387,6010001241157,新規,0,2023-12-28,2023-12-28,緑パートナーズ株式会社,,株式会社,東京都,文京区,後楽２丁目６番１号１１０４号室,,13,105,1120004,,,,,,,2023-12-28,1,,,,,ミドリパートナーズ,0
1390,6010003042561,新規,0,2023-12-28,2023-12-28,三ヶ尾物流開発合同会社,,合同会社,東京都,千代田区,有楽町２丁目１０番１号株式会社アセットソリューション内,,13,101,1000006,,,,,,,2023-12-28,1,,,,,サンガオブツリュウカイハツ,0
1393,6010005037683,新規,0,2023-12-28,2023-12-28,Ｏｒｃｈｉｄ　Ｔｗｏ一般社団法人,,その他の設立登記法人,東京都,中央区,日本橋茅場町２丁目１７番３－６０７号,,13,102,1030025,,,,,,,2023-12-28,1,,,,,オーキッドツー,0
1400,6010401179476,新規,0,2023-12-28,2023-12-28,株式会社ソフネットトレーディング,,株式会社,東京都,港区,虎ノ門１丁目１７番１号,,13,103,1050001,,,,,,,2023-12-28,1,,,,,ソフネットトレーディング,0
1401,6010401179501,新規,0,2023-12-28,2023-12-28,株式会社ＳＴＣ,,株式会社,東京都,港区,白金４丁目７番２１号,,13,103,1080072,,,,,,,2023-12-28,1,,,,,エスティーシー,0
1403,6010403031668,新規,0,2023-12-28,2023-12-28,ＲａｔｅＧａｉｎ　Ａｄａｒａ　Ｊａｐａｎ合同会社,,合同会社,東京都,港区,六本木７丁目３番８号,,13,103,1060032,,,,,,,2023-12-28,1,,,,,レイトゲインアダラジャパン,0
1406,6010501051576,新規,0,2023-12-28,2023-12-28,麻友エステート２株式会社,,株式会社,東京都,台東区,上野２丁目１１番２０号アミューズたんぽぽビル,,13,106,1100005,,,,,,,2023-12-28,1,,,,,マユエステートツー,0
1407,6010503007279,新規,0,2023-12-28,2023-12-28,合同会社ＡＳＡＫＵＳＡ　ＦＩＮＡＮＣＩＡＬ　ＥＮＧＩＮＥＳ,,合同会社,東京都,台東区,西浅草３丁目２２番３－３３１１号,,13,106,1110035,,,,,,,2023-12-28,1,,,,,アサクサフィナンンシャルエンジンズ,0
1413,6010701045329,新規,0,2023-12-28,2023-12-28,イノベ８株式会社,,株式会社,東京都,品川区,上大崎１丁目１０番２９号,,13,109,1410021,,,,,,,2023-12-28,1,,,,,イノベエイト,0
1416,6010801034652,新規,0,2023-12-28,2023-12-28,株式会社ベルエア,,株式会社,東京都,大田区,山王４丁目２９番２号,,13,111,1430023,,,,,,,2023-12-28,1,,,,,ベルエア,0
1418,6010901054435,新規,0,2023-12-28,2023-12-28,株式会社Ｆｏｒｍｓ,,株式会社,東京都,世田谷区,赤堤５丁目２７番１６－１０２号,,13,112,1560044,,,,,,,2023-12-28,1,,,,,フォームス,0
1419,6010901054443,新規,0,2023-12-28,2023-12-28,株式会社リライブラ,,株式会社,東京都,世田谷区,代沢２丁目４０番１－２０２号,,13,112,1550032,,,,,,,2023-12-28,1,,,,,リライブラ,0
1420,6010901054451,新規,0,2023-12-28,2023-12-28,株式会社ＬＵＫＥ,,株式会社,東京都,世田谷区,祖師谷３丁目３６番２７号,,13,112,1570072,,,,,,,2023-12-28,1,,,,,ルーク,0
1427,6011001159026,新規,0,2023-12-28,2023-12-28,株式会社Ａｌｅｎｘ,,株式会社,東京都,渋谷区,渋谷２丁目１９－１５宮益坂ビルディング６０９,,13,113,1500002,,,,,,,2023-12-28,1,,,,,アレンクス,0
1428,6011001159117,新規,0,2023-12-28,2023-12-28,株式会社時々プロダクトプロジェクト,,株式会社,東京都,渋谷区,恵比寿４丁目２３番１０号,,13,113,1500013,,,,,,,2023-12-28,1,,,,,トキドキプロダクトプロジェクト,0
1429,6011001159125,新規,0,2023-12-28,2023-12-28,ｇｌａｓｓｏｕｔ株式会社,,株式会社,東京都,渋谷区,千駄ヶ谷１丁目２６番１０号ＣＩＴＹＳＣＡＰＥ千駄ヶ谷４０２,,13,113,1510051,,,,,,,2023-12-28,1,,,,,グラスアウト,0
1430,6011001159166,新規,0,2023-12-28,2023-12-28,株式会社ＫＩＫＯ　ＫＯＳＴＡＤＩＮＯＶ　ＪＡＰＡＮ,,株式会社,東京都,渋谷区,猿楽町１番５号代官山ハイム２Ｅ,,13,113,1500033,,,,,,,2023-12-28,1,,,,,キココスタディノフジャパン,0
1431,6011005010325,新規,0,2023-12-28,2023-12-28,一般社団法人こどものみちしるべ,,その他の設立登記法人,東京都,渋谷区,鉢山町５－１８－３０２,,13,113,1500035,,,,,,,2023-12-28,1,,,,,コドモノミチシルベ,0
1436,6011103013915,新規,0,2023-12-28,2023-12-28,合同会社高木ホールディングス,00133159,合同会社,東京都,新宿区,西新宿５丁目５番１－６００９号,,13,104,1600023,,,,,,,2023-12-28,1,,,,,タカギホールディングス,0
1438,6011201025143,新規,0,2023-12-28,2023-12-28,株式会社ｎａｎａｉｒｏ　ｐｈａｒｍａｃｙ,,株式会社,東京都,中野区,江古田４丁目３９番４号,,13,114,1650022,,,,,,,2023-12-28,1,,,,,ナナイロファーマシー,0
1439,6011205002584,新規,0,2023-12-28,2023-12-28,一般社団法人日本病院前救急診療医学会,,その他の設立登記法人,東京都,中野区,中野２丁目２番３号株式会社へるす出版内,,13,114,1640001,,,,,,,2023-12-28,1,,,,,ニホンビョウインゼンキュウキュウシンリョウイガクカイ,0
1441,6011301029283,新規,0,2023-12-28,2023-12-28,桜商事株式会社,,株式会社,東京都,杉並区,下井草２丁目３番５－３１０号,,13,115,1670022,,,,,,,2023-12-28,1,,,,,サクラショウジ,0
1442,6011401025736,新規,0,2023-12-28,2023-12-28,株式会社中村商事,,株式会社,東京都,板橋区,小豆沢２丁目２６番７号,,13,119,1740051,,,,,,,2023-12-28,1,,,,,ナカムラショウジ,0
1443,6011501030157,新規,0,2023-12-28,2023-12-28,ＪＣＭ株式会社,,株式会社,東京都,北区,滝野川５丁目３７番５号,,13,117,1140023,,,,,,,2023-12-28,1,,,,,ジェーシーエム,0
1445,6011701026888,新規,0,2023-12-28,2023-12-28,株式会社クラウン,,株式会社,東京都,江戸川区,中葛西２丁目２３番１０号,,13,123,1340083,,,,,,,2023-12-28,1,,,,,クラウン,0
1448,6011801043593,新規,0,2023-12-28,2023-12-28,株式会社瑞祥塗装,,株式会社,東京都,足立区,西伊興１丁目１７番２２号,,13,121,1210824,,,,,,,2023-12-28,1,,,,,ズイショウトソウ,0
1449,6011803006020,新規,0,2023-12-28,2023-12-28,カランガ・ランゲージアカデミー合同会社,,合同会社,東京都,足立区,千住１丁目３番３号,,13,121,1200034,,,,,,,2023-12-28,1,,,,,カランガランゲージアカデミー,0
1450,6012301013715,新規,0,2023-12-28,2023-12-28,向陽建業株式会社,,株式会社,東京都,町田市,広袴町４５８番地１２,,13,209,1950052,,,,,,,2023-12-28,1,,,,,,0
1452,6012401041376,新規,0,2023-12-28,2023-12-28,株式会社ゼウスメディカル,,株式会社,東京都,府中市,府中町２丁目２２番地６グレースコート府中１階,,13,206,1830055,,,,,,,2023-12-28,1,,,,,ゼウスメディカル,0
1472,6020001155100,新規,0,2023-12-28,2023-12-28,株式会社ＴＭ　Ａ＆Ｙ,,株式会社,神奈川県,川崎市多摩区,東生田１丁目２１番３号,,14,135,2140031,,,,,,,2023-12-28,1,,,,,ティエムエーアンドワイ,0
1476,6020005016249,新規,0,2023-12-28,2023-12-28,司法書士法人横浜ＳＡＫＵＲＡ事務所,,その他の設立登記法人,神奈川県,横浜市西区,高島２丁目１１番２号スカイメナー横浜８２４号,,14,103,2200011,,,,,,,2023-12-28,1,,,,,ヨコハマサクラジムショ,0
1481,6021001081088,新規,0,2023-12-28,2023-12-28,株式会社響駐車場,,株式会社,神奈川県,藤沢市,弥勒寺１丁目１１番５～４号,,14,205,2510016,,,,,,,2023-12-28,1,,,,,ヒビキチュウシャジョウ,0
1482,6021001081105,新規,0,2023-12-28,2023-12-28,株式会社ｐｏｉｒｙｏｑ,,株式会社,神奈川県,藤沢市,南藤沢４番１１号第５榎本ビル４階,,14,205,2510055,,,,,,,2023-12-28,1,,,,,ポイリオク,0
1483,6021001081113,新規,0,2023-12-28,2023-12-28,株式会社フォレストリゾート開発,,株式会社,神奈川県,足柄下郡湯河原町,門川４９７番地５,,14,384,2590302,,,,,,,2023-12-28,1,,,,,フォレストリゾートカイハツ,0
1484,6021001081121,新規,0,2023-12-28,2023-12-28,株式会社いろは産業,,株式会社,神奈川県,厚木市,下古沢５番地８,,14,212,2430214,,,,,,,2023-12-28,1,,,,,イロハサンギョウ,0
1485,6021003013956,新規,0,2023-12-28,2023-12-28,合同会社ＷＫＳ,,合同会社,神奈川県,足柄上郡大井町,山田１２７９番地,,14,362,2580015,,,,,,,2023-12-28,1,,,,,ダブリューケーエス,0
1486,6021003013964,新規,0,2023-12-28,2023-12-28,合同会社リモナ,,合同会社,神奈川県,厚木市,戸室４丁目１番５３号,,14,212,2430031,,,,,,,2023-12-28,1,,,,,リモナ,0
1487,6021003013972,新規,0,2023-12-28,2023-12-28,ＥＡＢ合同会社,,合同会社,神奈川県,相模原市南区,相模台６丁目１番１２―２号,,14,153,2520321,,,,,,,2023-12-28,1,,,,,イーエービー,0
1496,6030001157905,新規,0,2023-12-28,2023-12-28,株式会社ＬＩＦＥ　ＣＬＥＡＲ,,株式会社,埼玉県,日高市,大字原宿６４８番地２,,11,242,3501205,,,,,,,2023-12-28,1,,,,,ライフクリア,0
1497,6030001157921,新規,0,2023-12-28,2023-12-28,株式会社エース,,株式会社,埼玉県,川口市,大字赤井１１５２番地の９,,11,203,3340073,,,,,,,2023-12-28,1,,,,,エース,0
1498,6030001157962,新規,0,2023-12-28,2023-12-28,ＭＡＫＥ　ＭＯＯＮＳ株式会社,,株式会社,埼玉県,川口市,芝富士１丁目１５番３０号,,11,203,3330854,,,,,,,2023-12-28,1,,,,,メイクムーンズ,0
1503,6030003023312,新規,0,2023-12-28,2023-12-28,ＭＲ企画設計合同会社,,合同会社,埼玉県,さいたま市南区,白幡４丁目４番２－６０４号,,11,108,3360022,,,,,,,2023-12-28,1,,,,,エムアールキカクセッケイ,0
1505,6030005021512,新規,0,2023-12-28,2023-12-28,特定非営利活動法人戸田遊び場・遊ぼう会,,その他の設立登記法人,埼玉県,戸田市,下前１丁目１１番２０－５３６号,,11,224,3350016,,,,,,,2023-12-28,1,,,,,トダアソビバアソボウカイ,0
1508,6040001131529,新規,0,2023-12-28,2023-12-28,引化株式会社,,株式会社,千葉県,佐倉市,宮前３丁目２２番地４、２１３号室,,12,212,2850005,,,,,,,2023-12-28,1,,,,,インカ,0
1509,6040001131561,新規,0,2023-12-28,2023-12-28,根本産業株式会社,,株式会社,千葉県,長生郡長生村,岩沼２５９３番地,,12,423,2994336,,,,,,,2023-12-28,1,,,,,ネモトサンギョウ,0
1510,6040001131603,新規,0,2023-12-28,2023-12-28,株式会社ＹＥＣ,,株式会社,千葉県,鎌ケ谷市,東初富３丁目１１番２３号,,12,224,2730122,,,,,,,2023-12-28,1,,,,,ワイイーシー,0
1512,6040003024020,新規,0,2023-12-28,2023-12-28,合同会社菊三,00133155,合同会社,千葉県,船橋市,旭町５丁目３１－４６,,12,204,2730041,,,,,,,2023-12-28,1,,,,,キクミツ,0
1525,6070003005208,新規,0,2023-12-28,2023-12-28,合同会社ＭｕＭｓ,,合同会社,群馬県,伊勢崎市,曲沢町１４９番地５,,10,204,3792203,,,,,,,2023-12-28,1,,,,,マムス,0
1526,6070003005216,新規,0,2023-12-28,2023-12-28,合同会社ぴーあん,,合同会社,群馬県,渋川市,渋川１７４８番地２３,,10,208,3770008,,,,,,,2023-12-28,1,,,,,ピーアン,0
1528,6080001026056,新規,0,2023-12-28,2023-12-28,株式会社スターオフィス,,株式会社,静岡県,静岡市葵区,常磐町２丁目２番地の１,,22,101,4200034,,,,,,,2023-12-28,1,,,,,スターオフィス,0
1535,6100001037091,新規,0,2023-12-28,2023-12-28,東信濃スマートエネルギー株式会社,,株式会社,長野県,上田市,古里１４８１番地１５,,20,203,3860005,,,,,,,2023-12-28,1,,,,,ヒガシシナノスマートエネルギー,0
1538,6100003007324,新規,0,2023-12-28,2023-12-28,合同会社アンタレス,,合同会社,長野県,長野市,大字鶴賀緑町１６１８番地１,,20,201,3800813,,,,,,,2023-12-28,1,,,,,アンタレス,0
1539,6110001038072,新規,0,2023-12-28,2023-12-28,ゼロニゴマーケティング株式会社,,株式会社,新潟県,新潟市中央区,古町通４番町６３２番地,,15,103,9518063,,,,,,,2023-12-28,1,,,,,ゼロニゴマーケティング,0
1548,6120001260996,新規,0,2023-12-28,2023-12-28,株式会社ＡＸビジョン,,株式会社,大阪府,大阪市中央区,西心斎橋１丁目４番５号御堂筋ビル１１階,,27,128,5420086,,,,,,,2023-12-28,1,,,,,エーエックスビジョン,0
1549,6120001261037,新規,0,2023-12-28,2023-12-28,株式会社Ｌａｎｉｈｕｌｉ,,株式会社,大阪府,大阪市北区,天神橋４丁目８番１４号カウラナビル,,27,127,5300041,,,,,,,2023-12-28,1,,,,,ラニフリ,0
1554,6120003025588,新規,0,2023-12-28,2023-12-28,楓火合同会社,,合同会社,大阪府,大阪市淀川区,西宮原２丁目６番１６－９３０号,,27,123,5320004,,,,,,,2023-12-28,1,,,,,フウカ,0
1560,6120901048582,新規,0,2023-12-28,2023-12-28,ＡＺ株式会社,,株式会社,大阪府,茨木市,彩都あさぎ５丁目９番２５号Ａ１０２号,,27,211,5670085,,,,,,,2023-12-28,1,,,,,アズ,0
1561,6130001075997,新規,0,2023-12-28,2023-12-28,おうちカンパニー株式会社,,株式会社,京都府,京都市右京区,西院東貝川町１８番地１階Ａ,,26,108,6150057,,,,,,,2023-12-28,1,,,,,オウチカンパニー,0
1562,6130001076046,新規,0,2023-12-28,2023-12-28,株式会社ライフ＆ファイナンス,,株式会社,京都府,京都市中京区,聚楽廻西町７０番地５,,26,104,6048402,,,,,,,2023-12-28,1,,,,,ライフアンドファイナンス,0
1566,6130005016964,新規,0,2023-12-28,2023-12-28,ＳＣＧ社会保険労務士法人,,その他の設立登記法人,京都府,京都市中京区,烏丸通二条上る蒔絵屋町２６５番地２ＳＣＧビル,,26,104,6040857,,,,,,,2023-12-28,1,,,,,エスシージー,0
1571,6140001132839,新規,0,2023-12-28,2023-12-28,株式会社ＳＩホールディング,,株式会社,兵庫県,尼崎市,小中島１丁目２０番２０号エーベル小中島２０１号,,28,202,6610972,,,,,,,2023-12-28,1,,,,,エスアイホールディング,0
1572,6140001132863,新規,0,2023-12-28,2023-12-28,株式会社桜花グローバル,,株式会社,兵庫県,神戸市中央区,中島通１丁目３－１０,,28,110,6510052,,,,,,,2023-12-28,1,,,,,オウカグローバル,0
1584,6180001159564,新規,0,2023-12-28,2023-12-28,株式会社ＣＣ,,株式会社,愛知県,名古屋市千種区,園山町１丁目１８番地の１０,,23,101,4640812,,,,,,,2023-12-28,1,,,,,シーシー,0
1585,6180001159606,新規,0,2023-12-28,2023-12-28,タイホウＳＥＥＤ株式会社,,株式会社,愛知県,名古屋市中区,上前津２丁目４番１０号,,23,106,4600013,,,,,,,2023-12-28,1,,,,,タイホウシード,0
1587,6180003026176,新規,0,2023-12-28,2023-12-28,合同会社ルーチェ,,合同会社,愛知県,名古屋市中川区,丹後町２丁目５７番地の２,,23,110,4540045,,,,,,,2023-12-28,1,,,,,ルーチェ,0
1591,6180301038179,新規,0,2023-12-28,2023-12-28,株式会社ＴＭプラス,,株式会社,愛知県,岡崎市,河原町１２番地２０,,23,202,4442118,,,,,,,2023-12-28,1,,,,,ティーエムプラス,0
1594,6180303005961,新規,0,2023-12-28,2023-12-28,合同会社インプレス,,合同会社,愛知県,刈谷市,一里山町北弘法１０番地５,,23,210,4480002,,,,,,,2023-12-28,1,,,,,インプレス,0
1597,6220001025753,新規,0,2023-12-28,2023-12-28,ｅａｕ＆ｃｏｍｐａｎｙ株式会社,,株式会社,石川県,金沢市,昭和町１２番６号,,17,201,9200856,,,,,,,2023-12-28,1,,,,,オーアンドカンパニー,0
1609,6290001104096,新規,0,2023-12-28,2023-12-28,株式会社プーラビーダ,,株式会社,福岡県,糸島市,前原中央１丁目６番２７－１０２号,,40,230,8191116,,,,,,,2023-12-28,1,,,,,プーラビーダ,0
1610,6290001104204,新規,0,2023-12-28,2023-12-28,株式会社Ｆｕｔｕｒｅ　Ｄｅｓｉｇｎ　Ｃｏｍｐａｎｙ,,株式会社,福岡県,福岡市中央区,桜坂１丁目２－２９－１０１,,40,133,8100024,,,,,,,2023-12-28,1,,,,,フューチャーデザインカンパニー,0
1611,6290001104212,新規,0,2023-12-28,2023-12-28,夢Ｘ株式会社,,株式会社,福岡県,柳川市,本城町１６番地１０ロータス本城２０３号,,40,207,8320061,,,,,,,2023-12-28,1,,,,,ユメックス,0
1612,6290001104220,新規,0,2023-12-28,2023-12-28,株式会社エナディア,,株式会社,福岡県,福岡市中央区,大名２丁目６番５号,,40,133,8100041,,,,,,,2023-12-28,1,,,,,エナディア,0
1613,6290001104229,新規,0,2023-12-28,2023-12-28,タピアホールディングス株式会社,,株式会社,福岡県,糟屋郡久山町,大字久原９５５番地,,40,348,8112501,,,,,,,2023-12-28,1,,,,,タピアホールディングス,0
1614,6290803004576,新規,0,2023-12-28,2023-12-28,ＧｒａｃｅＳｏｕｔｈ合同会社,,合同会社,福岡県,北九州市若松区,塩屋１丁目１４番２１号,,40,103,8080131,,,,,,,2023-12-28,1,,,,,グレイスサウス,0
1619,6330001031609,新規,0,2023-12-28,2023-12-28,株式会社ライフクリエイト,,株式会社,熊本県,菊池郡菊陽町,大字原水１１８７番地７シャーメゾンｐｒｏｓｔ３０２,,43,404,8691102,,,,,,,2023-12-28,1,,,,,ライフクリエイト,0
1620,6330001031625,新規,0,2023-12-28,2023-12-28,株式会社ハマ建,,株式会社,熊本県,熊本市西区,池田２丁目８番１２号,,43,103,8600082,,,,,,,2023-12-28,1,,,,,ハマケン,0
1622,6340001026178,新規,0,2023-12-28,2023-12-28,株式会社Ｔ‐グロース,,株式会社,鹿児島県,鹿児島市,東谷山６丁目６番３号,,46,201,8910113,,,,,,,2023-12-28,1,,,,,ティーグロース,0
1632,6390001017461,新規,0,2023-12-28,2023-12-28,株式会社サトヤ建設企画,,株式会社,山形県,米沢市,大字李山４６４０番地,,06,202,9921461,,,,,,,2023-12-28,1,,,,,サトヤケンセツキカク,0
1643,6440005002768,新規,0,2023-12-28,2023-12-28,一般社団法人未来こども武道育成会,,その他の設立登記法人,北海道,北斗市,中野通２７０番地,,01,236,0490156,,,,,,,2023-12-28,1,,,,,ミライコドモブドウイクセイカイ,0
1646,6480001012338,新規,0,2023-12-28,2023-12-28,株式会社ＦＵＪＩＭＯＴＯ,,株式会社,徳島県,美馬市,美馬町字露口５０番地１,,36,207,7712103,,,,,,,2023-12-28,1,,,,,,0
1655,6700150123103,新規,0,2023-12-28,2023-12-28,Ｇｕａｎｇｚｈｏｕ　Ｙｏｕｔｕｏ　Ｎｅｔｗｏｒｋ　Ｔｅｃｈｎｏｌｏｇｙ　Ｃｏ．，Ｌｔｄ．,,外国会社等,,,,,,,,Ｒｏｏｍ　３０１，Ｍｉｎｇｚｈｕ　Ｃｒｅａｔｉｖｅ　Ｐａｒｋ，Ｎｏ．５２　Ｘｉａｏｇａｎｇ　Ｇａｒｄｅｎ　ＲｏａｄＹｕｎｃｈｅｎｇ　Ｓｔｒｅｅｔ，Ｂａｉｖｕｎ　ＤｉｓｔｒｉｃｔＧｕａｎｇｚｈｏｕ　Ｇｕａｎｇｄｏｎｇ,,,,,,2023-12-28,1,,,,,グワンジヨウシーヨウトウオワンルオコージーヨウシエンゴンスー,0
1656,6700150123111,新規,0,2023-12-28,2023-12-28,Ａｒｖａｔｏ　ＵＳＡ　ＬＬＣ,,外国会社等,,,,,,,,５１　Ｓａｗｙｅｒ　Ｒｏａｄ，Ｓｕｉｔｅ　６２０，Ｗａｌｔｈａｎ，ＭＡ　０２４５３，Ｕｎｉｔｅｄ　Ｓｔａｔｅｓ,,,,,,2023-12-28,1,,,,,アーヴアートユーエスエーエルエルシー,0
1666,7010001240892,新規,0,2023-12-28,2023-12-28,株式会社博愛メディカルサポート,,株式会社,東京都,中央区,銀座３丁目１４番１３号第一厚生館ビル５Ｆ,,13,102,1040061,,,,,,,2023-12-28,1,,,,,ハクアイメディカルサポート,0
1667,7010001241115,新規,0,2023-12-28,2023-12-28,株式会社ｔｈｅ　ｉ　Ｐｒｏｄｕｃｔｉｏｎ,,株式会社,東京都,千代田区,丸の内２丁目３番２号郵船ビルディング１階,,13,101,1000005,,,,,,,2023-12-28,1,,,,,ジアイプロダクション,0
1670,7010003042569,新規,0,2023-12-28,2023-12-28,Ｋａｇｅｒｏ合同会社,,合同会社,東京都,中央区,晴海３丁目１３番１－５０２４号株式会社アートリエールコンサルティング内,,13,102,1040053,,,,,,,2023-12-28,1,,,,,カゲロウ,0
1671,7010005037666,新規,0,2023-12-28,2023-12-28,一般社団法人Ｇｏ　Ｂｅｙｏｎｄ　Ｂｏａｄｅｒｓ,,その他の設立登記法人,東京都,中央区,新川１丁目２７番１０－３０２号,,13,102,1040033,,,,,,,2023-12-28,1,,,,,ゴービヨンドボーダーズ,0
1672,7010005037682,新規,0,2023-12-28,2023-12-28,Ｋａｇｅｒｏ一般社団法人,,その他の設立登記法人,東京都,中央区,晴海３丁目１３番１－５０２４号株式会社アートリエールコンサルティング内,,13,102,1040053,,,,,,,2023-12-28,1,,,,,カゲロウ,0
1685,7010401179467,新規,0,2023-12-28,2023-12-28,ＣＩＥ株式会社,,株式会社,東京都,港区,北青山１丁目３番１号アールキューブ青山３階,,13,103,1070061,,,,,,,2023-12-28,1,,,,,シーアイイー,0
1697,7010501051567,新規,0,2023-12-28,2023-12-28,フュージョンネクスト株式会社,,株式会社,東京都,台東区,台東１丁目１２番２号,,13,106,1100016,,,,,,,2023-12-28,1,,,,,フュージョンネクスト,0
1703,7010801034651,新規,0,2023-12-28,2023-12-28,タスクデザインホールディングス株式会社,,株式会社,東京都,大田区,大森中２丁目５番７号,,13,111,1430014,,,,,,,2023-12-28,1,,,,,タスクデザインホールディングス,0
1709,7010901054442,新規,0,2023-12-28,2023-12-28,ＳｕｓｔａｉｎａＮｏｖａ株式会社,,株式会社,東京都,世田谷区,代田２丁目１２番１３号代二ハイツ１０１,,13,112,1550033,,,,,,,2023-12-28,1,,,,,サステナノヴァ,0
1710,7010901054450,新規,0,2023-12-28,2023-12-28,株式会社ｔｈｅ　Ｋｏｍｐａｎｙ,,株式会社,東京都,世田谷区,松原１丁目１番２号ブランシュ明大前２０２,,13,112,1560043,,,,,,,2023-12-28,1,,,,,ザカンパニー,0
1713,7010903008693,新規,0,2023-12-28,2023-12-28,Ｇ．Ａ．ＤＥＳＩＧＮ合同会社,,合同会社,東京都,世田谷区,等々力２丁目８番１３号,,13,112,1580082,,,,,,,2023-12-28,1,,,,,ジーエーデザイン,0
1723,7011001159058,新規,0,2023-12-28,2023-12-28,株式会社グローバル,,株式会社,東京都,渋谷区,神泉町１０番１５号アネックス神泉３０１,,13,113,1500045,,,,,,,2023-12-28,1,,,,,グローバル,0
1724,7011001159108,新規,0,2023-12-28,2023-12-28,株式会社トリオ,,株式会社,東京都,渋谷区,桜丘町２３番１７号シティーコート桜丘４０８,,13,113,1500031,,,,,,,2023-12-28,1,,,,,トリオ,0
1725,7011001159116,新規,0,2023-12-28,2023-12-28,株式会社ｓｈａｍｓ,,株式会社,東京都,渋谷区,南平台町１６番２８号Ｄａｉｗａ渋谷スクエア６階,,13,113,1500036,,,,,,,2023-12-28,1,,,,,シャムス,0
1726,7011001159124,新規,0,2023-12-28,2023-12-28,株式会社ＵＥ,,株式会社,東京都,渋谷区,渋谷１丁目２２番２号グラフィオ渋谷４０２,,13,113,1500002,,,,,,,2023-12-28,1,,,,,ウエ,0
1731,7011101105655,新規,0,2023-12-28,2023-12-28,株式会社ＣＨＩＲＩ,,株式会社,東京都,新宿区,百人町１丁目２０－２６バラードハイムムサシノビル７０７,,13,104,1690073,,,,,,,2023-12-28,1,,,,,チリ,0
1735,7011501030148,新規,0,2023-12-28,2023-12-28,株式会社エヌアイシステム,,株式会社,東京都,荒川区,東日暮里２丁目４４番６号太田ビル１階,,13,118,1160014,,,,,,,2023-12-28,1,,,,,エヌアイシステム,0
1736,7011501030156,新規,0,2023-12-28,2023-12-28,株式会社ＮＫファシリティ,,株式会社,東京都,荒川区,東日暮里６丁目３８番１１号カスターニャフォレスタ３０２号室,,13,118,1160014,,,,,,,2023-12-28,1,,,,,エヌケイファシリティ,0
1739,7011801043592,新規,0,2023-12-28,2023-12-28,株式会社Ｇ‐ｓｉｇｎ,,株式会社,東京都,足立区,興野２丁目３０番２２号ＳＳＫビル,,13,121,1230844,,,,,,,2023-12-28,1,,,,,ジーサイン,0
1741,7012403006343,新規,0,2023-12-28,2023-12-28,Ｒｉｎｇ合同会社,,合同会社,東京都,三鷹市,中原４丁目２１番７号,,13,204,1810005,,,,,,,2023-12-28,1,,,,,リング,0
1746,7013101009324,新規,0,2023-12-28,2023-12-28,株式会社エフティ企画,,株式会社,東京都,青梅市,河辺町６丁目２６番地の１４,,13,205,1980036,,,,,,,2023-12-28,1,,,,,,0
1749,7013301051836,新規,0,2023-12-28,2023-12-28,ジックス株式会社,,株式会社,東京都,豊島区,東池袋１丁目３８番７号,,13,116,1700013,,,,,,,2023-12-28,1,,,,,ジックス,0
1757,7020001155124,新規,0,2023-12-28,2023-12-28,株式会社ソラトウミ,,株式会社,神奈川県,川崎市宮前区,宮崎４丁目１番地１８３,,14,136,2160033,,,,,,,2023-12-28,1,,,,,ソラトウミ,0
1763,7021001081104,新規,0,2023-12-28,2023-12-28,株式会社ＫＳＡシステムズ,,株式会社,神奈川県,相模原市中央区,相生１丁目１１番１５号,,14,152,2520235,,,,,,,2023-12-28,1,,,,,ケイエスエーシステムズ,0
1764,7021001081112,新規,0,2023-12-28,2023-12-28,株式会社鎌倉物流倉庫企画,,株式会社,神奈川県,鎌倉市,城廻６６番地の１,,14,204,2470074,,,,,,,2023-12-28,1,,,,,カマクラブツリュウソウコキカク,0
1765,7021001081129,新規,0,2023-12-28,2023-12-28,株式会社湘陽工業,,株式会社,神奈川県,藤沢市,大庭５１２１番地の５とのやまハイツＤ１０２,,14,205,2510861,,,,,,,2023-12-28,1,,,,,ショウヨウコウギョウ,0
1766,7021003013955,新規,0,2023-12-28,2023-12-28,合同会社ビーリングア,,合同会社,神奈川県,中郡二宮町,山西３１３－１,,14,342,2590124,,,,,,,2023-12-28,1,,,,,ビーリングア,0
1770,7030001157937,新規,0,2023-12-28,2023-12-28,ＴＫ株式会社,,株式会社,埼玉県,川口市,上青木３丁目１番４コーポ青木Ｂ１,,11,203,3330844,,,,,,,2023-12-28,1,,,,,ティーケィー,0
1771,7030001157945,新規,0,2023-12-28,2023-12-28,ルヴェール・ボーテ株式会社,,株式会社,埼玉県,蕨市,塚越７丁目６番１３号,,11,223,3350002,,,,,,,2023-12-28,1,,,,,ルヴェールボーテ,0
1772,7030001157953,新規,0,2023-12-28,2023-12-28,ハウオリエステート株式会社,,株式会社,埼玉県,さいたま市大宮区,東町１丁目９９番地４,,11,103,3300841,,,,,,,2023-12-28,1,,,,,ハウオリエステート,0
1773,7030001157961,新規,0,2023-12-28,2023-12-28,株式会社オーテックシステム,,株式会社,埼玉県,所沢市,小手指町１丁目１番地の３ＫＥＩＷＡ・ＴＯＷＥＲ０３０３,,11,208,3591141,,,,,,,2023-12-28,1,,,,,オーテックシステム,0
1775,7030003023311,新規,0,2023-12-28,2023-12-28,合同会社ＷＪＰＳ,,合同会社,埼玉県,越谷市,大字下間久里９７６番地１Ｋ２マンション１Ｆ,,11,222,3430045,,,,,,,2023-12-28,1,,,,,ダブリュージェーピーエス,0
1787,7040003024028,新規,0,2023-12-28,2023-12-28,インテグレーション合同会社,,合同会社,千葉県,浦安市,富士見２丁目１４－４２,,12,227,2790043,,,,,,,2023-12-28,1,,,,,インテグレーション,0
1789,7050001054042,新規,0,2023-12-28,2023-12-28,株式会社リネスト,,株式会社,茨城県,日立市,砂沢町２４５－９,,08,202,3191418,,,,,,,2023-12-28,1,,,,,リネスト,0
1790,7050001054067,新規,0,2023-12-28,2023-12-28,株式会社ＦＵＴＵＲＥ,,株式会社,茨城県,つくば市,学園の森１丁目３８－１３,,08,220,3050816,,,,,,,2023-12-28,1,,,,,フューチャー,0
1798,7080103002953,新規,0,2023-12-28,2023-12-28,伊豆バイオマス発電合同会社,,合同会社,静岡県,三島市,松本１０４番地の３５,,22,206,4110822,,,,,,,2023-12-28,1,,,,,イズバイオマスハツデン,0
1802,7090003002458,新規,0,2023-12-28,2023-12-28,ＩＦ　ＬＡＢＳ　ＪＡＰＡＮ合同会社,,合同会社,山梨県,北杜市,明野町上手５１０５番地,,19,209,4080204,,,,,,,2023-12-28,1,,,,,イフラボジャパン,0
1815,7120001260946,新規,0,2023-12-28,2023-12-28,株式会社ＳｕｎＦｉｅｌｄ建築工房,,株式会社,大阪府,寝屋川市,三井が丘３丁目９番１８号１０２号室,,27,215,5720013,,,,,,,2023-12-28,1,,,,,サンフィールドケンチクコウボウ,0
1816,7120001260954,新規,0,2023-12-28,2023-12-28,株式会社いい大家さん倶楽部,,株式会社,大阪府,大阪市北区,中津６丁目８番３５号メゾンベルクレール中津７０２号室,,27,127,5310071,,,,,,,2023-12-28,1,,,,,イイオオヤサンクラブ,0
1817,7120001260987,新規,0,2023-12-28,2023-12-28,株式会社阪和順利,,株式会社,大阪府,大阪市西成区,天下茶屋１丁目２８番１６－２０２号,,27,122,5570014,,,,,,,2023-12-28,1,,,,,ハンワジュンリ,0
1818,7120001261003,新規,0,2023-12-28,2023-12-28,株式会社２Ｄ,,株式会社,大阪府,大阪市中央区,安堂寺町２丁目６番１１－９０５号,,27,128,5420061,,,,,,,2023-12-28,1,,,,,ツーディー,0
1819,7120001261011,新規,0,2023-12-28,2023-12-28,ふくろう工務店株式会社,,株式会社,大阪府,守口市,高瀬町２丁目７－１エルメス土居１０２号,,27,209,5700053,,,,,,,2023-12-28,1,,,,,フクロウコウムテン,0
1820,7120001261052,新規,0,2023-12-28,2023-12-28,株式会社ロク,,株式会社,大阪府,大阪市東成区,玉津１丁目５番２４号有馬玉津ビル４０２号室,,27,115,5370023,,,,,,,2023-12-28,1,,,,,ロク,0
1821,7120003025587,新規,0,2023-12-28,2023-12-28,合同会社ｍｏｙｏｎｉ,,合同会社,大阪府,大阪市西区,北堀江１丁目２番１６号おおきにサイタ・サイタビルヂングＳ－８０３,,27,106,5500014,,,,,,,2023-12-28,1,,,,,モヨニ,0
1827,7120101068785,新規,0,2023-12-28,2023-12-28,株式会社ＳＫＳ　Ｎｅｏ,,株式会社,大阪府,堺市堺区,砂道町１丁１３番２５号,,27,141,5900002,,,,,,,2023-12-28,1,,,,,エスケーエスネオ,0
1829,7120901048557,新規,0,2023-12-28,2023-12-28,株式会社Ｌｉｃｏｓ,,株式会社,大阪府,豊中市,緑丘３丁目２番１２号,,27,203,5600002,,,,,,,2023-12-28,1,,,,,リコス,0
1834,7130001076037,新規,0,2023-12-28,2023-12-28,株式会社ＴＲＵＳＴ,,株式会社,京都府,京都市伏見区,醍醐柏森町３６番地３８,,26,109,6011336,,,,,,,2023-12-28,1,,,,,トラスト,0
1835,7130001076053,新規,0,2023-12-28,2023-12-28,株式会社ＳＲ‐Ｔ,,株式会社,京都府,京都市南区,久世殿城町４６６番地１３,,26,107,6018205,,,,,,,2023-12-28,1,,,,,エスアールティー,0
1838,7130005016963,新規,0,2023-12-28,2023-12-28,一般社団法人ウィルアーツ,,その他の設立登記法人,京都府,京都市東山区,三条通白川橋東入三丁目夷町１５５,,26,105,6050000,,,,,,,2023-12-28,1,,,,,ウィルアーツ,0
1846,7140001132821,新規,0,2023-12-28,2023-12-28,株式会社ＳＨＩＮＥ,,株式会社,兵庫県,神戸市垂水区,千代が丘２丁目４番５７号,,28,108,6550018,,,,,,,2023-12-28,1,,,,,シャイン,0
1847,7140001132846,新規,0,2023-12-28,2023-12-28,株式会社セリウメディカルコンサルティング,,株式会社,兵庫県,神戸市中央区,八幡通４丁目２番８号リーガル神戸三宮フラワーロード８０５,,28,110,6510085,,,,,,,2023-12-28,1,,,,,セリウメディカルコンサルティング,0
1848,7140005026879,新規,0,2023-12-28,2023-12-28,一般社団法人ありがとう,,その他の設立登記法人,兵庫県,加古川市,平岡町中野２１２番地の５万葉ハイツ東加古川４０８号,,28,210,6750113,,,,,,,2023-12-28,1,,,,,アリガトウ,0
1849,7140005026887,新規,0,2023-12-28,2023-12-28,医療法人社団豊生会いわもと内科クリニック,,その他の設立登記法人,兵庫県,西宮市,豊楽町９番２２号,,28,204,6620072,,,,,,,2023-12-28,1,,,,,ホウセイカイイワモトナイカクリニック,0
1863,7180001159605,新規,0,2023-12-28,2023-12-28,株式会社ミルクホリック,,株式会社,愛知県,名古屋市千種区,池下１丁目６番６号,,23,101,4640067,,,,,,,2023-12-28,1,,,,,ミルクホリック,0
1869,7180301038178,新規,0,2023-12-28,2023-12-28,すまいる株式会社,,株式会社,愛知県,碧南市,相生町５丁目１４４番地,,23,209,4470862,,,,,,,2023-12-28,1,,,,,スマイル,0
1872,7220001025752,新規,0,2023-12-28,2023-12-28,株式会社ラッシュ,,株式会社,石川県,金沢市,東力１丁目１６７番地マドゥーデラポ２０７号,,17,201,9218015,,,,,,,2023-12-28,1,,,,,ラッシュ,0
1875,7230005009354,新規,0,2023-12-28,2023-12-28,一般社団法人オフィスカラフル,,その他の設立登記法人,富山県,富山市,三番町３番２号,,16,201,9300059,,,,,,,2023-12-28,1,,,,,オフィスカラフル,0
1876,7240001062604,新規,0,2023-12-28,2023-12-28,株式会社ＲＥＥＴＧＥＡＲ,,株式会社,広島県,広島市中区,胡町２－２０ＦｏｒＹｏｕビルＢ１Ｆ,,34,101,7300021,,,,,,,2023-12-28,1,,,,,リートギア,0
1877,7240001062612,新規,0,2023-12-28,2023-12-28,株式会社ＳＨＩＭ,,株式会社,広島県,広島市南区,宇品御幸４丁目１５番４－１号,,34,103,7340015,,,,,,,2023-12-28,1,,,,,シム,0
1893,7290001104194,新規,0,2023-12-28,2023-12-28,株式会社Ｄ．Ｔ,,株式会社,福岡県,福岡市博多区,博多駅前４丁目１０番４号１Ｆ,,40,132,8120011,,,,,,,2023-12-28,1,,,,,ディーティー,0
1894,7290001104203,新規,0,2023-12-28,2023-12-28,株式会社イシワホールディングス,,株式会社,福岡県,福岡市早良区,大字脇山２６９３番地,,40,137,8111111,,,,,,,2023-12-28,1,,,,,イシワホールディングス,0
1895,7290001104211,新規,0,2023-12-28,2023-12-28,株式会社Ｋ２コーポレーション,,株式会社,福岡県,福岡市南区,井尻２丁目２６番５号,,40,134,8111302,,,,,,,2023-12-28,1,,,,,ケーツーコーポレーション,0
1896,7290001104236,新規,0,2023-12-28,2023-12-28,株式会社アバンティ,,株式会社,福岡県,久留米市,山川安居野３丁目１３番１３号,,40,203,8390812,,,,,,,2023-12-28,1,,,,,,0
1898,7290003014805,新規,0,2023-12-28,2023-12-28,Ｓｉｎｓｈａ＆ｓａｎｖｉ合同会社,,合同会社,福岡県,飯塚市,平恒３８４番地６,,40,205,8200073,,,,,,,2023-12-28,1,,,,,シンシャアンドサンヴィ,0
1899,7290801030177,新規,0,2023-12-28,2023-12-28,株式会社ｔａｂｉｍｏｔｏ,,株式会社,福岡県,北九州市八幡西区,陣原４丁目１４番３６号,,40,109,8070821,,,,,,,2023-12-28,1,,,,,タビモト,0
1901,7290803004567,新規,0,2023-12-28,2023-12-28,合同会社ひこさんはなやま,,合同会社,福岡県,田川郡添田町,大字英彦山１３３７番,,40,602,8240721,,,,,,,2023-12-28,1,,,,,ヒコサンハナヤマ,0
1904,7300001013567,新規,0,2023-12-28,2023-12-28,株式会社東馬ファーム,,株式会社,佐賀県,神埼市,千代田町直鳥１７３８番地,,41,210,8420053,,,,,,,2023-12-28,1,,,,,トウマファーム,0
1916,7360001033023,新規,0,2023-12-28,2023-12-28,株式会社ＮＣライフサービス,,株式会社,沖縄県,宮古島市,平良字下里１３０２番地３,,47,214,9060013,,,,,,,2023-12-28,1,,,,,エヌシーライフサービス,0
1920,7390001017460,新規,0,2023-12-28,2023-12-28,株式会社８ｂｒｉｄｇｅ,,株式会社,山形県,酒田市,福山字村上３４番地,,06,204,9998241,,,,,,,2023-12-28,1,,,,,エイトブリッジ,0
1923,7430001090742,新規,0,2023-12-28,2023-12-28,日本デュラブル株式会社,,株式会社,北海道,札幌市中央区,大通西２５丁目３番１号,,01,101,0640820,,,,,,,2023-12-28,1,,,,,ニホンデュラブル,0
1930,7480003002063,新規,0,2023-12-28,2023-12-28,合同会社ほのか,,合同会社,徳島県,美馬市,脇町字西赤谷５１８番地２ヴィラ・アンソレイエ脇町ＩＩＩ１０３,00133147,36,207,7793742,,,,,,,2023-12-28,1,,,,,ホノカ,0
1939,7700150122822,新規,0,2023-12-28,2023-12-19,富士市古紙リサイクル協議会,,その他,静岡県,富士市,新橋町８－１９,,22,210,4170004,,,,,,,2023-12-19,1,,,,,フジシコシリサイクルキヨウギカイ,0
1940,7700150122847,新規,0,2023-12-28,2023-12-20,労働保険事務組合　東京西部中小企業協会,,その他,東京都,世田谷区,代田１丁目１６－３弥栄レジデンス代田１０３号,,13,112,1550033,,,,,,,2023-12-20,1,,,,,ロウドウホケンジムクミアイトウキヨウセイブチユウシヨウキギヨウキヨウカイ,0
1941,7700150123110,新規,0,2023-12-28,2023-12-28,Ｆｌｉｃｋｒ，　ＩＮＣ,,外国会社等,,,,,,,,２５１　Ｌｉｔｔｌｅ　Ｆａｌｌｓ　Ｄｒｉｖｅ，Ｗｉｌｍｉｎｇｔｏｎ，Ｎｅｗ　Ｃａｓｔｌｅ，１９８０８，ＵＳＡ,,,,,,2023-12-28,1,,,,,フリツカーインク,0
1942,7700150123119,新規,0,2023-12-28,2023-12-28,ＯＬＡＭ　ＧＬＯＢＡＬ　ＡＧＲＩ　ＰＴＥ．ＬＴＤ．,,外国会社等,,,,,,,,７　ＳＴＲＡＩＴＳ　ＶＩＥＷ　＃２０－０１　ＭＡＲＩＮＡ　ＯＮＥ　ＥＡＳＴ　ＴＯＷＥＲ　ＳＩＮＧＡＰＯＲＥ（０１８９３６）,,,,,,2023-12-28,1,,,,,オラムグローバルアグリプライベートリミテッド,0
1949,8010001241130,新規,0,2023-12-28,2023-12-28,株式会社ＪＣ,,株式会社,東京都,千代田区,神田和泉町１番地６－１６ヤマトビル４０５,,13,101,1010024,,,,,,,2023-12-28,1,,,,,ジェーシー,0
1950,8010001241205,新規,0,2023-12-28,2023-12-28,医師の不動産株式会社,,株式会社,東京都,中央区,銀座１丁目１２－４Ｎ＆ＥＢＬＤ．７階,,13,102,1040061,,,,,,,2023-12-28,1,,,,,イシノフドウサン,0
1960,8010401179375,新規,0,2023-12-28,2023-12-28,株式会社Ｏｖｅｒｔｕｒｅ,,株式会社,東京都,港区,南青山３丁目１番３６号青山丸竹ビル６Ｆ,,13,103,1070062,,,,,,,2023-12-28,1,,,,,オーバーチュア,0
1961,8010401179508,新規,0,2023-12-28,2023-12-28,株式会社ＡＲＡＴＡＫＥ,,株式会社,東京都,港区,南青山２丁目２番１５号,,13,103,1070062,,,,,,,2023-12-28,1,,,,,アラタケ,0
1963,8010403031666,新規,0,2023-12-28,2023-12-28,合同会社Ｄ＆Ｄ,,合同会社,東京都,港区,虎ノ門３丁目１８番６－６１４号朝日虎ノ門マンション,,13,103,1050001,,,,,,,2023-12-28,1,,,,,ディーアンドディー,0
1964,8010503007277,新規,0,2023-12-28,2023-12-28,怡家合同会社,,合同会社,東京都,台東区,蔵前１丁目３－９蔵前深田ビル３０１号,,13,106,1110051,,,,,,,2023-12-28,1,,,,,イカ,0
1967,8010603010560,新規,0,2023-12-28,2023-12-28,合同会社Ｄａｉｔｏｕ　Ｓｅｒｖｉｃｅ,,合同会社,東京都,墨田区,業平４丁目１２－３,,13,107,1300002,,,,,,,2023-12-28,1,,,,,ダイトウサービス,0
1973,8010901054441,新規,0,2023-12-28,2023-12-28,株式会社ＵＭＵ,,株式会社,東京都,世田谷区,用賀３丁目１５番１８号,,13,112,1580097,,,,,,,2023-12-28,1,,,,,ウム,0
1974,8010903008692,新規,0,2023-12-28,2023-12-28,Ｐｒｏｆｅｃｔｕｓ合同会社,,合同会社,東京都,世田谷区,上野毛４丁目１７番１３号,,13,112,1580093,,,,,,,2023-12-28,1,,,,,プロフェクタス,0
1981,8011001159032,新規,0,2023-12-28,2023-12-28,株式会社ＯＮＥ　ＳＴＲＩＫＥ,,株式会社,東京都,渋谷区,恵比寿西２丁目８番４号ＥＸ恵比寿西ビル５階,,13,113,1500021,,,,,,,2023-12-28,1,,,,,ワンストライク,0
1982,8011001159057,新規,0,2023-12-28,2023-12-28,株式会社インプルーブ,,株式会社,東京都,渋谷区,千駄ヶ谷５丁目２１番８号代々木第１０下田ビル５階,,13,113,1510051,,,,,,,2023-12-28,1,,,,,インプルーブ,0
1983,8011001159073,新規,0,2023-12-28,2023-12-28,株式会社ｐｅａｋｙ,,株式会社,東京都,目黒区,上目黒１丁目２番９－６０５号,,13,110,1530051,,,,,,,2023-12-28,1,,,,,ピーキー,0
1984,8011001159123,新規,0,2023-12-28,2023-12-28,ＳＴＵＤＳ　ＳＴＡＲ株式会社,,株式会社,東京都,渋谷区,恵比寿４丁目２０番３号恵比寿ガーデンプレイスタワー１８階,,13,113,1500013,,,,,,,2023-12-28,1,,,,,スタッズスター,0
1985,8011001159148,新規,0,2023-12-28,2023-12-28,ａｖａｎ株式会社,,株式会社,東京都,目黒区,下目黒１丁目１番１４号コノトラビル７Ｆ,,13,110,1530064,,,,,,,2023-12-28,1,,,,,アヴァン,0
1987,8011003018161,新規,0,2023-12-28,2023-12-28,合同会社ユニフォーム,,合同会社,東京都,渋谷区,笹塚２丁目４７番８号,,13,113,1510073,,,,,,,2023-12-28,1,,,,,ユニフォーム,0
1993,8011105010900,新規,0,2023-12-28,2023-12-28,一般社団法人クラリス,,その他の設立登記法人,東京都,新宿区,四谷４丁目３２番８号ＹＫＢサニービル６階,,13,104,1600004,,,,,,,2023-12-28,1,,,,,クラリス,0
1996,8011301029281,新規,0,2023-12-28,2023-12-28,株式会社Ｖｅｒｂａｌｏｇｉｃａｌ,,株式会社,東京都,杉並区,高井戸東４丁目１８番２２号,,13,115,1680072,,,,,,,2023-12-28,1,,,,,ヴァーバロジカル,0
1997,8011401025734,新規,0,2023-12-28,2023-12-28,株式会社環球国際貿易,,株式会社,東京都,板橋区,徳丸３丁目４１番１２－２０７号,,13,119,1750083,,,,,,,2023-12-28,1,,,,,カンキュウコクサイボウエキ,0
2016,8013101009323,新規,0,2023-12-28,2023-12-28,株式会社オハナ介護タクシー,,株式会社,東京都,羽村市,羽東２丁目６番１３号,,13,227,2050014,,,,,,,2023-12-28,1,,,,,オハナカイゴタクシー,0
2023,8020003025266,新規,0,2023-12-28,2023-12-28,合同会社ナカミチ,,合同会社,神奈川県,横浜市旭区,本宿町１３０番地,,14,112,2410023,,,,,,,2023-12-28,1,,,,,ナカミチ,0
2030,8021003013954,新規,0,2023-12-28,2023-12-28,合同会社オーバーテイクカーセールス,,合同会社,神奈川県,茅ヶ崎市,萩園２２２５－４,,14,207,2530071,,,,,,,2023-12-28,1,,,,,オーバーテイクカーセールス,0
2038,8030001157903,新規,0,2023-12-28,2023-12-28,ＴＯ‐Ｚ株式会社,,株式会社,埼玉県,北葛飾郡松伏町,大字松伏２４５４番地７,,11,465,3430111,,,,,,,2023-12-28,1,,,,,トゥーゼット,0
2039,8030001157944,新規,0,2023-12-28,2023-12-28,株式会社石野商事,,株式会社,埼玉県,草加市,氷川町６６７番地２,,11,221,3400034,,,,,,,2023-12-28,1,,,,,イシノショウジ,0
2044,8030003023319,新規,0,2023-12-28,2023-12-28,合同会社Ｊ‐Ｌａｆ,,合同会社,埼玉県,久喜市,本町８丁目６番３０号エステートピアパレスＩ２０１号,00133153,11,232,3460005,,,,,,,2023-12-28,1,,,,,ジェイラフ,0
2045,8030005021510,新規,0,2023-12-28,2023-12-28,行政書士法人野中尚事務所,,その他の設立登記法人,埼玉県,上尾市,小泉２丁目１番４号正吉ビル２階,,11,219,3620063,,,,,,,2023-12-28,1,,,,,ノナカタカシジムショ,0
2046,8040001131576,新規,0,2023-12-28,2023-12-28,六方技研株式会社,,株式会社,千葉県,千葉市若葉区,御成台３丁目２５番地１４,,12,104,2650077,,,,,,,2023-12-28,1,,,,,ロッポウギケン,0
2049,8050001054000,新規,0,2023-12-28,2023-12-28,株式会社令和ハウジングミサキ,,株式会社,茨城県,神栖市,知手４４３５番地１,,08,232,3140115,,,,,,,2023-12-28,1,,,,,レイワハウジングミサキ,0
2057,8070003005214,新規,0,2023-12-28,2023-12-28,合同会社なゆた,,合同会社,群馬県,高崎市,筑縄町１番地４フォーティエイトビル１階ＥＡＳＴ,,10,202,3700075,,,,,,,2023-12-28,1,,,,,ナユタ,0
2059,8080001026054,新規,0,2023-12-28,2023-12-28,Ｐｏｎｏ　Ｃｏｔｔａｇｅ株式会社,,株式会社,静岡県,藤枝市,善左衛門２丁目５番地の３１,,22,214,4260053,,,,,,,2023-12-28,1,,,,,ポノコテージ,0
2062,8080101024437,新規,0,2023-12-28,2023-12-28,株式会社サンサンフーズ,,株式会社,静岡県,富士市,大淵１２２６番地,,22,210,4170801,,,,,,,2023-12-28,1,,,,,サンサンフーズ,0
2070,8110001038070,新規,0,2023-12-28,2023-12-28,株式会社３０,,株式会社,新潟県,長岡市,今朝白３丁目８番１３号－１２０３号室,,15,202,9400033,,,,,,,2023-12-28,1,,,,,サンジュウ,0
2073,8120001260986,新規,0,2023-12-28,2023-12-28,常青藤株式会社,,株式会社,大阪府,大阪市生野区,生野西１丁目１５番２－３０２号,,27,116,5440024,,,,,,,2023-12-28,1,,,,,ジョウセイトウ,0
2074,8120001260994,新規,0,2023-12-28,2023-12-28,泰好仟株式会社,,株式会社,大阪府,大阪市生野区,新今里１丁目１９－６－２０２号室,,27,116,5440001,,,,,,,2023-12-28,1,,,,,タイハオチェン,0
2075,8120001261002,新規,0,2023-12-28,2023-12-28,株式会社Ｎｅｅｎｉ,,株式会社,大阪府,大阪市住吉区,清水丘３丁目１３番２７号,,27,120,5580033,,,,,,,2023-12-28,1,,,,,ニーニ,0
2078,8120901048556,新規,0,2023-12-28,2023-12-28,株式会社Ｅｉｇｈｔｓ　Ｔｅｃｈ　Ｓｏｌｕｔｉｏｎ,,株式会社,大阪府,茨木市,水尾２丁目２番２０号の２,,27,211,5670891,,,,,,,2023-12-28,1,,,,,エイツテックソリューション,0
2079,8120901048572,新規,0,2023-12-28,2023-12-28,株式会社ＹＵＩ,,株式会社,大阪府,吹田市,春日１丁目４番２８号,,27,205,5650853,,,,,,,2023-12-28,1,,,,,ユイ,0
2080,8122001037695,新規,0,2023-12-28,2023-12-28,株式会社鳥はす,,株式会社,大阪府,東大阪市,大蓮北３丁目３－１０,,27,227,5770826,,,,,,,2023-12-28,1,,,,,トリハス,0
2089,8140001132845,新規,0,2023-12-28,2023-12-28,株式会社芦屋リムジンサービス,,株式会社,兵庫県,芦屋市,平田町７番２２号伊丹第３マンション１０２,,28,206,6590074,,,,,,,2023-12-28,1,,,,,,0
2092,8140003019982,新規,0,2023-12-28,2023-12-28,ＡＮＥＥＳＵＲＡ　ＪＡＰＡＮ合同会社,,合同会社,兵庫県,伊丹市,稲野町１丁目１００番地,,28,207,6640861,,,,,,,2023-12-28,1,,,,,アニスラジャパン,0
2099,8160003003076,新規,0,2023-12-28,2023-12-28,合同会社ａｎｏｎｅ,,合同会社,滋賀県,草津市,草津３丁目１３番５６号,,25,206,5250034,,,,,,,2023-12-28,1,,,,,アノネ,0
2107,8180001159315,新規,0,2023-12-28,2023-12-28,株式会社Ａｃｔｉｖｅ　ｗｏｒｋｓ,,株式会社,愛知県,名古屋市港区,本宮町８丁目２９－１、本宮ハイツ山田１０１,,23,111,4550064,,,,,,,2023-12-28,1,,,,,アクティブワークス,0
2108,8180001159587,新規,0,2023-12-28,2023-12-28,Ｓｔａｙ株式会社,,株式会社,愛知県,名古屋市中村区,名駅南２丁目１３－１８ＮＳビルディング２Ｆ,,23,105,4500003,,,,,,,2023-12-28,1,,,,,ステイ,0
2109,8180001159595,新規,0,2023-12-28,2023-12-28,株式会社アンノウンゲームズ,,株式会社,愛知県,大府市,北崎町井田２７番地１,,23,223,4740001,,,,,,,2023-12-28,1,,,,,アンノウンゲームズ,0
2110,8180001159604,新規,0,2023-12-28,2023-12-28,株式会社ＤＲＭ,,株式会社,愛知県,名古屋市南区,桜台１丁目２２番９号,,23,112,4570005,,,,,,,2023-12-28,1,,,,,ディーアールエム,0
2121,8180003026174,新規,0,2023-12-28,2023-12-28,合同会社ＨＩＴＳＵＤＡ　ＮＴ,,合同会社,愛知県,日進市,北新町福井１８２番地３７,,23,230,4700103,,,,,,,2023-12-28,1,,,,,ヒツダネヌティー,0
2122,8180005020456,新規,0,2023-12-28,2023-12-28,カラーズ協同組合,,その他の設立登記法人,愛知県,名古屋市北区,大曽根３丁目１０番７号,,23,103,4620825,,,,,,,2023-12-28,1,,,,,カラーズ,0
2132,8240001062603,新規,0,2023-12-28,2023-12-28,のぞみ医科器械株式会社,,株式会社,広島県,広島市西区,庚午南１丁目３０番２０号,,34,104,7330823,,,,,,,2023-12-28,1,,,,,ノゾミイカキカイ,0
2133,8240001062611,新規,0,2023-12-28,2023-12-28,株式会社あさひ,,株式会社,広島県,安芸郡海田町,新町１９番８号,,34,304,7360068,,,,,,,2023-12-28,1,,,,,,0
2141,8260003004535,新規,0,2023-12-28,2023-12-28,合同会社サンサンファクトリー,,合同会社,岡山県,岡山市北区,下中野３１６番地１１３,,33,101,7000973,,,,,,,2023-12-28,1,,,,,サンサンファクトリー,0
2149,8290001104210,新規,0,2023-12-28,2023-12-28,株式会社エムアイセーブ,,株式会社,福岡県,糟屋郡粕屋町,長者原東２丁目９番１号,,40,349,8112317,,,,,,,2023-12-28,1,,,,,エムアイセーブ,0
2150,8290001104219,新規,0,2023-12-28,2023-12-28,株式会社福岡学びフォレスト,,株式会社,福岡県,福岡市南区,大橋２丁目１９番３－４０２号メヌエット大橋駅前,,40,134,8150033,,,,,,,2023-12-28,1,,,,,フクオカマナビフォレスト,0
2151,8290001104227,新規,0,2023-12-28,2023-12-28,カラフルデイズ株式会社,,株式会社,福岡県,久留米市,津福本町１８６３－３,,40,203,8300047,,,,,,,2023-12-28,1,,,,,カラフルデイズ,0
2156,8290801030168,新規,0,2023-12-28,2023-12-28,Ｓｍａｌｌ　Ｏｎｅホールディングス株式会社,,株式会社,福岡県,田川市,大字伊田１５２番地,,40,206,8250002,,,,,,,2023-12-28,1,,,,,スモールワンホールディングス,0
2168,8340005009689,新規,0,2023-12-28,2023-12-28,一般財団法人私立新留小学校設立準備財団,,その他の設立登記法人,鹿児島県,鹿児島市,東千石町１７番１号,,46,201,8920842,,,,,,,2023-12-28,1,,,,,シリツニイドメショウガッコウセツリツジュンビザイダン,0
2170,8360001033006,新規,0,2023-12-28,2023-12-28,株式会社ＣＡＢＩＮＮ,,株式会社,沖縄県,宮古島市,下地字与那覇２８１番地８,,47,214,9060305,,,,,,,2023-12-28,1,,,,,キャビン,0
2174,8360005006965,新規,0,2023-12-28,2023-12-28,一般社団法人健康医科学プロジェクト,,その他の設立登記法人,沖縄県,中頭郡西原町,上原２丁目１１番地の３,,47,329,9030125,,,,,,,2023-12-28,1,,,,,ケンコウイカガクプロジェクト,0
2180,8380003005653,新規,0,2023-12-28,2023-12-28,合同会社リバティープロス,,合同会社,福島県,郡山市,大槻町字南反田２５番地の２,,07,203,9630201,,,,,,,2023-12-28,1,,,,,リバティープロス,0
2184,8410005006555,新規,0,2023-12-28,2023-12-28,医療法人三行会,,その他の設立登記法人,秋田県,秋田市,楢山登町５番２８号,,05,201,0100021,,,,,,,2023-12-28,1,,,,,サンコウカイ,0
2189,8430001090758,新規,0,2023-12-28,2023-12-28,株式会社スペクトル,,株式会社,北海道,札幌市中央区,南一条西７丁目１２－６パークアベニュービル４階,,01,101,0600061,,,,,,,2023-12-28,1,,,,,スペクトル,0
2190,8430001090766,新規,0,2023-12-28,2023-12-28,株式会社Ｎビークル,,株式会社,北海道,札幌市北区,太平九条２丁目１番２１号,,01,102,0028009,,,,,,,2023-12-28,1,,,,,エヌビークル,0
2191,8430003015812,新規,0,2023-12-28,2023-12-28,Ｒｈｏｍｅ合同会社,,合同会社,北海道,苫小牧市,字錦岡４９５番地の１２７９,,01,213,0591275,,,,,,,2023-12-28,1,,,,,アールホーム,0
2195,8462501000978,新規,0,2023-12-28,2023-12-28,株式会社ＡＵＲＥＮＳライフコンサルティング,,株式会社,北海道,標津郡中標津町,北町２丁目２２番地,,01,692,0861152,,,,,,,2023-12-28,1,,,,,オーレンスライフコンサルティング,0
2200,8490003001848,新規,0,2023-12-28,2023-12-28,合同会社武政建築,,合同会社,高知県,高知市,朝倉戊６０４番地１,,39,201,7808065,,,,,,,2023-12-28,1,,,,,タケマサケンチク,0
2204,8700150122367,新規,0,2023-12-28,2023-11-28,新宮熊野神社御社総代,,その他,福島県,喜多方市,慶徳町新宮字熊野２２５８,,07,208,9660923,,,,,,,2023-11-28,1,,,,,シングウクマノジンシヤゴシヤソウダイ,0
2205,8700150123118,新規,0,2023-12-28,2023-12-28,ＮＩＮＧＢＯ　ＫＥＹＬＩＳＴＳ　ＩＭＰＯＲＴ　ＡＮＤ　ＥＸＰＯＲＴ　ＣＯ．，ＬＴＤ,,外国会社等,,,,,,,,Ｒｏｏｍ　６１８　Ｂｕｉｌｄｉｎｇ　２　Ｎｏ．８５７　Ｈｕａｎｇｓｈａｎ　Ｒｄ，Ｂｅｉｌｕｎ　Ｎｉｎｇｂｏ，Ｚｈｅｊｉａｎｇ　Ｐｒｏｖｉｃｅ，Ｃｈｉｎａ,,,,,,2023-12-28,1,,,,,ニンボーチーリージンチューコウヨウシエンゴンスー,0
2208,9010001241088,新規,0,2023-12-28,2023-12-28,株式会社遊研堂,,株式会社,東京都,千代田区,神田和泉町１－４－５キンゴビル２０１,,13,101,1010024,,,,,,,2023-12-28,1,,,,,ユウケンドウ,0
2209,9010001241121,新規,0,2023-12-28,2023-12-28,ＹＴアセットマネジメント株式会社,,株式会社,東京都,中央区,勝どき４丁目６番２－２３１５号,,13,102,1040054,,,,,,,2023-12-28,1,,,,,ワイティーアセットマネジメント,0
2210,9010001241138,新規,0,2023-12-28,2023-12-28,レイクサイドドライブ株式会社,,株式会社,東京都,中央区,銀座１丁目１２－４Ｎ＆ＥＢＬＤ．７階,,13,102,1040061,,,,,,,2023-12-28,1,,,,,レイクサイドドライブ,0
2211,9010001241162,新規,0,2023-12-28,2023-12-28,株式会社ＴＲＡＤＥＳ,,株式会社,東京都,中央区,日本橋蛎殻町１丁目１２番９号カモツル日本橋ビル６階,,13,102,1030014,,,,,,,2023-12-28,1,,,,,トラディス,0
2212,9010001241179,新規,0,2023-12-28,2023-12-28,地域ヘルスケア産業活性化基盤株式会社,,株式会社,東京都,千代田区,大手町１丁目９番５号,,13,101,1000004,,,,,,,2023-12-28,1,,,,,チイキヘルスケアサンギョウカッセイカキバン,0
2213,9010001241195,新規,0,2023-12-28,2023-12-28,株式会社無我クリエイト,,株式会社,東京都,文京区,本郷４丁目１６番６号９０１号室,,13,105,1130033,,,,,,,2023-12-28,1,,,,,ムガクリエイト,0
2217,9010003042567,新規,0,2023-12-28,2023-12-28,合同会社ワインクッキー,,合同会社,東京都,文京区,白山４丁目１６番９号板倉コーポ２０３,,13,105,1120001,,,,,,,2023-12-28,1,,,,,ワインクッキー,0
2226,9010501051565,新規,0,2023-12-28,2023-12-28,株式会社三宮エンジニアリング,,株式会社,東京都,台東区,浅草橋３丁目２３番３号ＳＴＫビル４０２,,13,106,1110053,,,,,,,2023-12-28,1,,,,,サングウエンジニアリング,0
2230,9010803004799,新規,0,2023-12-28,2023-12-28,合同会社ルブラン,,合同会社,東京都,大田区,南雪谷３丁目１８番１９－３０６号,,13,111,1450066,,,,,,,2023-12-28,1,,,,,ルブラン,0
2231,9010901054449,新規,0,2023-12-28,2023-12-28,株式会社きさらぎパートナーズ,,株式会社,東京都,世田谷区,赤堤１丁目２４番１６－３０９号,,13,112,1560044,,,,,,,2023-12-28,1,,,,,キサラギパートナーズ,0
2232,9010903008691,新規,0,2023-12-28,2023-12-28,合同会社アートコフレ,,合同会社,東京都,世田谷区,成城７丁目３０番２７号,,13,112,1570066,,,,,,,2023-12-28,1,,,,,アートコフレ,0
2234,9011001159114,新規,0,2023-12-28,2023-12-28,株式会社インテリジェンス・リフォーム,,株式会社,東京都,渋谷区,笹塚２丁目１６番２号ＡＳＰ笹塚ビル５Ｆ,,13,113,1510073,,,,,,,2023-12-28,1,,,,,インテリジェンスリフォーム,0
2235,9011001159130,新規,0,2023-12-28,2023-12-28,株式会社ＰＯＰＰＩＮ,,株式会社,東京都,渋谷区,神宮前３丁目２１番１７－１階,,13,113,1500001,,,,,,,2023-12-28,1,,,,,ポッピン,0
2236,9011001159139,新規,0,2023-12-28,2023-12-28,株式会社レアッシュ,,株式会社,東京都,渋谷区,桜丘町２３番１７号シティコート桜丘４０８,,13,113,1500031,,,,,,,2023-12-28,1,,,,,レアッシュ,0
2242,9011101105629,新規,0,2023-12-28,2023-12-28,株式会社ＴｅｃｈＷｏｒｋｅｒ,,株式会社,東京都,新宿区,西早稲田１丁目２２番３号,,13,104,1690051,,,,,,,2023-12-28,1,,,,,テックワーカー,0
2245,9011301029289,新規,0,2023-12-28,2023-12-28,株式会社ＳｔｅａｍＰｏｔｓ,,株式会社,東京都,杉並区,宮前２丁目２番１５号メゾン宮前６号棟６２１号室,,13,115,1680081,,,,,,,2023-12-28,1,,,,,スチームポット,0
2251,9011701026877,新規,0,2023-12-28,2023-12-28,株式会社ＲＨＡ,,株式会社,東京都,江戸川区,東葛西２丁目６番２－７０１号,,13,123,1340084,,,,,,,2023-12-28,1,,,,,アールエイチエー,0
2254,9011801043590,新規,0,2023-12-28,2023-12-28,株式会社アルファリンク,,株式会社,東京都,足立区,西新井本町４丁目１７番Ａ－５１１号,,13,121,1230845,,,,,,,2023-12-28,1,,,,,アルファリンク,0
2255,9012401041365,新規,0,2023-12-28,2023-12-28,株式会社堀江工務店,,株式会社,東京都,府中市,天神町３丁目１１番地の５,,13,206,1830053,,,,,,,2023-12-28,1,,,,,ホリエコウムテン,0
2256,9012703002874,新規,0,2023-12-28,2023-12-28,ＫＡＶＥＥＮ　ＩＮＴＥＲＮＡＴＩＯＮＡＬ合同会社,,合同会社,東京都,東村山市,野口町１丁目１番地３,,13,213,1890022,,,,,,,2023-12-28,1,,,,,カビーンインターナショナル,0
2261,9013301051826,新規,0,2023-12-28,2023-12-28,Ｄｉｇｉｔａｌ　ＧＯＡＴ株式会社,,株式会社,東京都,豊島区,南池袋１丁目１６番２０号ぬかりやビル６Ｆ,,13,116,1710022,,,,,,,2023-12-28,1,,,,,デジタルゴート,0
2262,9013301051834,新規,0,2023-12-28,2023-12-28,株式会社ＮＦ,,株式会社,東京都,豊島区,西池袋１丁目４番１０号,,13,116,1710021,,,,,,,2023-12-28,1,,,,,エヌエフ,0
2263,9013301051850,新規,0,2023-12-28,2023-12-28,株式会社Ｂｉｇ,,株式会社,東京都,豊島区,東池袋２丁目６０番２号池袋パークハイツ２階Ｂ－０２号室,,13,116,1700013,,,,,,,2023-12-28,1,,,,,ビッグ,0
2264,9013301051859,新規,0,2023-12-28,2023-12-28,株式会社サウンド・エディター堀江,,株式会社,東京都,豊島区,池袋２丁目６２番１－７０３号,,13,116,1710014,,,,,,,2023-12-28,1,,,,,サウンドエディターホリエ,0
2271,9020001155106,新規,0,2023-12-28,2023-12-28,株式会社ＡＩ教育ラボ,,株式会社,神奈川県,横浜市西区,北幸２丁目１０番４８号むつみビル３階,,14,103,2200004,,,,,,,2023-12-28,1,,,,,エーアイキョウイクラボ,0
2277,9021001081127,新規,0,2023-12-28,2023-12-28,株式会社Ｐｅａｒｓ,,株式会社,神奈川県,藤沢市,辻堂元町５丁目１５番１６号湘南サンライズガーデンＩＩ～２０３,00133157,14,205,2510043,,,,,,,2023-12-28,1,,,,,ピアーズ,0
2280,9021003013953,新規,0,2023-12-28,2023-12-28,合同会社Ｃ．Ｘ商事,,合同会社,神奈川県,大和市,鶴間２丁目２番２２号,,14,213,2420004,,,,,,,2023-12-28,1,,,,,シーエックスショウジ,0
2288,9030001157927,新規,0,2023-12-28,2023-12-28,株式会社Ｔ‐ＯＮＥ,,株式会社,埼玉県,越谷市,大字恩間新田２２８番地１,,11,222,3430037,,,,,,,2023-12-28,1,,,,,ティーワン,0
2289,9030001157935,新規,0,2023-12-28,2023-12-28,ＤＴＴ株式会社,,株式会社,埼玉県,春日部市,藤塚１７０２番地１メゾンドネオ一ノ割１０３,,11,214,3440011,,,,,,,2023-12-28,1,,,,,ディーティーティー,0
2290,9030001157968,新規,0,2023-12-28,2023-12-28,株式会社リュプランシパル,,株式会社,埼玉県,児玉郡上里町,大字七本木３７０２番地８,,11,385,3690306,,,,,,,2023-12-28,1,,,,,リュプランシパル,0
2292,9030003023292,新規,0,2023-12-28,2023-12-28,合同会社アイリス,,合同会社,埼玉県,深谷市,上野台２４１番地３,,11,218,3660801,,,,,,,2023-12-28,1,,,,,アイリス,0
2299,9040001131600,新規,0,2023-12-28,2023-12-28,Ｌ＆Ｄ国際健康株式会社,,株式会社,千葉県,千葉市緑区,おゆみ野５丁目１６番地３,,12,105,2660031,,,,,,,2023-12-28,1,,,,,エルアンドディーコクサイケンコウ,0
2303,9060001036673,新規,0,2023-12-28,2023-12-28,株式会社ｍｏｃａ,,株式会社,栃木県,小山市,大字北飯田２８３番地１,,09,208,3230803,,,,,,,2023-12-28,1,,,,,モカ,0
2305,9070001041235,新規,0,2023-12-28,2023-12-28,株式会社太郎,,株式会社,群馬県,吾妻郡中之条町,大字伊勢町２３番地１３,,10,421,3770423,,,,,,,2023-12-28,1,,,,,タロウ,0
2309,9080001026053,新規,0,2023-12-28,2023-12-28,株式会社ジェネレーター,,株式会社,静岡県,静岡市葵区,相生町１４番地の１５,,22,101,4200838,,,,,,,2023-12-28,1,,,,,ジェネレーター,0
2312,9080101024436,新規,0,2023-12-28,2023-12-28,株式会社Ｇｏｌｅｉｒｏ,,株式会社,静岡県,伊豆の国市,奈古谷９５４番地,,22,225,4102132,,,,,,,2023-12-28,1,,,,,ゴレイロ,0
2313,9080103002951,新規,0,2023-12-28,2023-12-28,はなとこＬＡＢＯ合同会社,,合同会社,静岡県,富士市,今泉６丁目１番５号,,22,210,4170001,,,,,,,2023-12-28,1,,,,,ハナトコラボ,0
2328,9120001260878,新規,0,2023-12-28,2023-12-28,株式会社Ｇｏｏｄ　Ｆｉｎ不動産,,株式会社,大阪府,寝屋川市,石津南町９番８号,,27,215,5720024,,,,,,,2023-12-28,1,,,,,グッドフィンフドウサン,0
2329,9120001260936,新規,0,2023-12-28,2023-12-28,Ｃｈｉｌｌａｘ　Ａｂｏｄｅ株式会社,,株式会社,大阪府,大阪市淀川区,西中島６丁目２番３号チサンマンション第七新大阪３１７号,,27,123,5320011,,,,,,,2023-12-28,1,,,,,チラックスアボード,0
2330,9120001260993,新規,0,2023-12-28,2023-12-28,有米株式会社,,株式会社,大阪府,大阪市阿倍野区,阿倍野筋３丁目１０－１あべのベルタ１０６,,27,119,5450052,,,,,,,2023-12-28,1,,,,,アリマイ,0
2333,9120003025585,新規,0,2023-12-28,2023-12-28,合同会社アントナー,,合同会社,大阪府,大阪市西区,南堀江１丁目１８番２７号,,27,106,5500015,,,,,,,2023-12-28,1,,,,,アントナー,0
2334,9120003025602,新規,0,2023-12-28,2023-12-28,合同会社Ｒｏｕｔｅ‐Ｔ,,合同会社,大阪府,寝屋川市,堀溝１丁目７番１２号,,27,215,5720814,,,,,,,2023-12-28,1,,,,,ルートティー,0
2335,9120003025627,新規,0,2023-12-28,2023-12-28,ヤンバルンバ合同会社,,合同会社,大阪府,大阪市北区,西天満４丁目４番５‐１００１号,,27,127,5300047,,,,,,,2023-12-28,1,,,,,ヤンバルンバ,0
2336,9120101068783,新規,0,2023-12-28,2023-12-28,株式会社ＪＰ　ＣＲＥＡＴＥ,,株式会社,大阪府,岸和田市,藤井町２丁目１０番１２号,,27,202,5960046,,,,,,,2023-12-28,1,,,,,ジェイピークリエイト,0
2337,9120101068800,新規,0,2023-12-28,2023-12-28,若葉株式会社,,株式会社,大阪府,堺市西区,浜寺南町２丁１１４番地２９,,27,144,5928344,,,,,,,2023-12-28,1,,,,,ワカバ,0
2343,9120903004985,新規,0,2023-12-28,2023-12-28,合同会社あ・らいふ,,合同会社,大阪府,豊中市,東豊中町１丁目３１番２１号,,27,203,5600003,,,,,,,2023-12-28,1,,,,,アライフ,0
2345,9122001037703,新規,0,2023-12-28,2023-12-28,株式会社ＨＰ企画,,株式会社,大阪府,八尾市,西弓削２丁目２３８番地,,27,212,5810035,,,,,,,2023-12-28,1,,,,,エイチピーキカク,0
2352,9140001132811,新規,0,2023-12-28,2023-12-28,株式会社ＳＡＷＡＤＡＫＯＧＹＯ,,株式会社,兵庫県,宝塚市,安倉西２丁目１番４０－３１２号,,28,214,6650825,,,,,,,2023-12-28,1,,,,,サワダコウギョウ,0
2353,9140001132828,新規,0,2023-12-28,2023-12-28,株式会社Ｏｎｅｎｅｓｓ,,株式会社,兵庫県,加古川市,平岡町一色５２２番地の４,,28,210,6750115,,,,,,,2023-12-28,1,,,,,ワンネス,0
2354,9140001132844,新規,0,2023-12-28,2023-12-28,株式会社Ｍｉ　Ｆｌｅｕｒ,,株式会社,兵庫県,尼崎市,尾浜町３丁目３１番１３号,,28,202,6610022,,,,,,,2023-12-28,1,,,,,ミフルール,0
2355,9140001132852,新規,0,2023-12-28,2023-12-28,株式会社ポノワーク,,株式会社,兵庫県,明石市,貴崎２丁目１２番２号,,28,203,6730037,,,,,,,2023-12-28,1,,,,,ポノワーク,0
2358,9180001159561,新規,0,2023-12-28,2023-12-28,株式会社ｈａｒｖｅｓｔｅｒ,,株式会社,愛知県,名古屋市中村区,松重町４番５５‐１０１２号,,23,105,4500004,,,,,,,2023-12-28,1,,,,,ハーベスター,0
2359,9180001159578,新規,0,2023-12-28,2023-12-28,株式会社エルブイアールアールワイ,,株式会社,愛知県,名古屋市千種区,今池５丁目１２番５号３Ｆ,,23,101,4640850,,,,,,,2023-12-28,1,,,,,エルブイアールアールワイ,0
2366,9180003026165,新規,0,2023-12-28,2023-12-28,合同会社サカイ,,合同会社,愛知県,一宮市,花池２丁目１１番４号,,23,203,4910914,,,,,,,2023-12-28,1,,,,,サカイ,0
2367,9180003026173,新規,0,2023-12-28,2023-12-28,合同会社龍佳,,合同会社,愛知県,名古屋市名東区,猪高台１丁目６０９番地,,23,115,4650028,,,,,,,2023-12-28,1,,,,,リュウカ,0
2373,9240001062610,新規,0,2023-12-28,2023-12-28,株式会社トレカトレジャー,,株式会社,広島県,広島市東区,戸坂くるめ木２丁目４番１号,,34,102,7320008,,,,,,,2023-12-28,1,,,,,トレカトレジャー,0
2384,9270001008899,新規,0,2023-12-28,2023-12-28,株式会社丸由彦,,株式会社,鳥取県,米子市,両三柳２５１番地１,,31,202,6830853,,,,,,,2023-12-28,1,,,,,マルヨシヒコ,0
2390,9290003014794,新規,0,2023-12-28,2023-12-28,合同会社ＫＳ企画,,合同会社,福岡県,久留米市,国分町５４８番地,,40,203,8390863,,,,,,,2023-12-28,1,,,,,ケイエスキカク,0
2391,9290003014811,新規,0,2023-12-28,2023-12-28,ｅｍｒ合同会社,,合同会社,福岡県,福岡市西区,周船寺２丁目１７番１６号,,40,135,8190373,,,,,,,2023-12-28,1,,,,,イーエムアール,0
2392,9300001013573,新規,0,2023-12-28,2023-12-28,株式会社ヨシカワ,,株式会社,佐賀県,佐賀市,白山２丁目６番５号,,41,201,8400826,,,,,,,2023-12-28,1,,,,,ヨシカワ,0
2394,9320001020205,新規,0,2023-12-28,2023-12-28,株式会社相良電機設備,,株式会社,大分県,中津市,耶馬溪町大字川原口１６８番地３,,44,203,8710414,,,,,,,2023-12-28,1,,,,,サガラデンキセツビ,0
2398,9340003004336,新規,0,2023-12-28,2023-12-28,合同会社小松原,,合同会社,鹿児島県,鹿児島市,小松原１丁目５６‐１２‐１０５号,,46,201,8910114,,,,,,,2023-12-28,1,,,,,コマツバラ,0
2401,9360005006964,新規,0,2023-12-28,2023-12-28,一般社団法人大毘沙門天王,,その他の設立登記法人,沖縄県,沖縄市,泡瀬２丁目６４番１５号,,47,211,9042172,,,,,,,2023-12-28,1,,,,,ダイビシャモンテンオウ,0
2402,9370001050783,新規,0,2023-12-28,2023-12-28,株式会社Ｗｉｓｔｅｒｙ,,株式会社,宮城県,岩沼市,相の原２丁目５番３７号,,04,211,9892431,,,,,,,2023-12-28,1,,,,,ウィステリー,0
2403,9370003006437,新規,0,2023-12-28,2023-12-28,合同会社スマートアドネンス,,合同会社,宮城県,仙台市泉区,天神沢１丁目１１セントヒルズ仙台Ｃ棟００５,,04,105,9813105,,,,,,,2023-12-28,1,,,,,スマートアドネンス,0
2409,9420001018536,新規,0,2023-12-28,2023-12-28,株式会社ＷＡＹ　ＯＦ　ＬＩＦＥ,,株式会社,青森県,青森市,はまなす２丁目１１番１３号,,02,201,0300919,,,,,,,2023-12-28,1,,,,,ウェイオブライフ,0
2411,9430001090757,新規,0,2023-12-28,2023-12-28,株式会社栄真工業,,株式会社,北海道,札幌市中央区,南五条西８丁目３番地１－１２０１号,,01,101,0640805,,,,,,,2023-12-28,1,,,,,エイシンコウギョウ,0
2412,9430001090765,新規,0,2023-12-28,2023-12-28,株式会社イメルマ,,株式会社,北海道,札幌市白石区,菊水三条１丁目２番８号,,01,104,0030803,,,,,,,2023-12-28,1,,,,,イメルマ,0
2413,9430001090781,新規,0,2023-12-28,2023-12-28,株式会社札幌観光開発,,株式会社,北海道,札幌市中央区,南四条西３丁目１番１号,,01,101,0640804,,,,,,,2023-12-28,1,,,,,サッポロカンコウカイハツ,0
2418,9462501000977,新規,0,2023-12-28,2023-12-28,株式会社山岸塗装,,株式会社,北海道,標津郡中標津町,西十三条北１３丁目１番地５,,01,692,0861133,,,,,,,2023-12-28,1,,,,,ヤマギシトソウ,0
2429,9490001010668,新規,0,2023-12-28,2023-12-28,株式会社一水,,株式会社,高知県,幡多郡大月町,大字樫ノ浦１４０番地,,39,424,7880334,,,,,,,2023-12-28,1,,,,,イッスイ,0
2436,9500003003164,新規,0,2023-12-28,2023-12-28,オー・ココ・ショップ＆スタジオ合同会社,,合同会社,愛媛県,松山市,住吉２丁目２－２０・２Ｆ・２０５号室,,38,201,7918062,,,,,,,2023-12-28,1,,,,,オーココショップアンドスタジオ,0
2437,9700150075688,新規,0,2023-12-28,2016-09-20,ビーアールグループ取引先持株会東京支部,,その他,東京都,品川区,北品川５丁目１－１８住友不動産大崎ツインビル東館４Ｆ　極東興和株式会社内,,13,109,1410001,,,,,,,2016-09-20,1,,,,,ビーアールグループトリヒキサキモチカブカイトウキョウシブ,0
2438,9700150122663,新規,0,2023-12-28,2023-12-11,ＪＡＢＡ東京都野球連盟,,その他,東京都,荒川区,南千住３丁目１３－１千住ビルＡ館４階,,13,118,1160003,,,,,,,2023-12-11,1,,,,,ジヤバトウキヨウトヤキユウレンメイ,0
2439,9700150123109,新規,0,2023-12-28,2023-12-28,Ｐｒｉｏｒｉｔｙ　ｐａｓｓ（ａ．ｐ．）ｌｉｍｉｔｅｄ,,外国会社等,,,,,,,,１６ｔｈ　Ｆｌｏｏｒ，Ｏｘｆｏｒｄ　Ｈｏｕｓｅ，Ｔａｉｋｏｏ　Ｐｌａｃｅ，９７９　Ｋｉｎｇ’ｓ　Ｒｏａｄ，Ｑｕａｒｒｙ　Ｂａｙ，Ｈｏｎｇ　Ｋｏｎｇ,,,,,,2023-12-28,1,,,,,プライオリテイパスエーピーリミテツド,0
