sequenceNumber,corporateNumber,process,correct,updateDate,changeDate,name,nameImageId,kind,prefectureName,cityName,streetNumber,addressImageId,prefectureCode,cityCode,postCode,addressOutside,addressOutsideImageId,closeDate,closeCause,successorCorporateNumber,changeCause,assignmentDate,latest,enName,enPrefectureName,enCityName,enAddressOutside,furigana,hihyoji
26,1010501031921,登記記録の閉鎖等,0,2024-01-31,2024-01-29,株式会社Ｄｏｍｙ－Ｂ,,株式会社,東京都,台東区,入谷２丁目２４番３号,,13,106,1100013,,,2024-01-29,清算の結了等,,,2015-10-05,1,,,,,ドミービー,0
30,1010601005321,登記記録の閉鎖等,0,2024-01-31,2024-01-31,株式会社ナカイ運輸商会,,株式会社,東京都,江東区,南砂３丁目３番６号共同倉庫内Ｓ号倉庫２階,,13,108,1360076,,,2024-01-31,登記官による閉鎖,,,2015-10-05,1,,,,,,0
31,1010601032349,登記記録の閉鎖等,0,2024-01-31,2024-01-31,株式会社ヘアーメイク・ビーズ,,株式会社,東京都,江東区,越中島３丁目６番１－８１３号,,13,108,1350044,,,2024-01-31,登記官による閉鎖,,,2015-10-05,1,,,,,,0
32,1010601032737,登記記録の閉鎖等,0,2024-01-31,2024-01-31,ビノワコスメティック株式会社,,株式会社,東京都,墨田区,立川３丁目１１番１３号,,13,107,1300023,,,2024-01-31,登記官による閉鎖,,,2015-10-05,1,,,,,,0
33,1010601033446,登記記録の閉鎖等,0,2024-01-31,2024-01-31,株式会社協和総合設計,,株式会社,東京都,江東区,豊洲１丁目２番２７－２１６号,,13,108,1350061,,,2024-01-31,登記官による閉鎖,,,2015-10-05,1,,,,,キョウワソウゴウセッケイ,0
34,1010601041928,登記記録の閉鎖等,0,2024-01-31,2024-01-31,株式会社プロビス,,株式会社,東京都,江東区,有明３丁目７番２６号,,13,108,1350063,,,2024-01-31,登記官による閉鎖,,,2015-10-05,1,,,,,,0
35,1010601042397,登記記録の閉鎖等,0,2024-01-31,2024-01-31,ベストアシスタント株式会社,,株式会社,東京都,江東区,富岡１丁目２番５号,,13,108,1350047,,,2024-01-31,登記官による閉鎖,,,2015-10-05,1,,,,,,0
37,1010602013728,登記記録の閉鎖等,0,2024-01-31,2024-01-31,有限会社ヌクシナ工業所,,有限会社,東京都,墨田区,千歳２丁目６番３号,,13,107,1300025,,,2024-01-31,登記官による閉鎖,,,2015-10-05,1,,,,,,0
38,1010603002795,登記記録の閉鎖等,0,2024-01-31,2024-01-31,合名会社ガンベ自轉車製作所,,合名会社,東京都,墨田区,向島３丁目２２番１号,,13,107,1310033,,,2024-01-31,登記官による閉鎖,,,2015-10-05,1,,,,,,0
39,1010603003728,登記記録の閉鎖等,0,2024-01-31,2024-01-31,矢車工業合資会社,,合資会社,東京都,墨田区,菊川１丁目１７番１８－５０３号,,13,107,1300024,,,2024-01-31,登記官による閉鎖,,,2015-10-05,1,,,,,,0
66,1011201020347,登記記録の閉鎖等,0,2024-01-31,2024-01-29,株式会社ＨＡＭ’ｓ,,株式会社,東京都,新宿区,下落合４丁目２５番１８号,,13,104,1610033,,,2024-01-29,清算の結了等,,,2017-12-22,1,,,,,ハムズ,0
67,1011202005537,登記記録の閉鎖等,0,2024-01-31,2024-01-31,有限会社マエダ紙工,,有限会社,東京都,中野区,野方１丁目４０番７号,,13,114,1650027,,,2024-01-31,登記官による閉鎖,,,2015-10-05,1,,,,,,0
68,1011205000460,登記記録の閉鎖等,0,2024-01-31,2024-01-31,中野ハイツ管理組合法人,,その他の設立登記法人,東京都,中野区,野方４丁目２４番１号,,13,114,1650027,,,2024-01-31,登記官による閉鎖,,,2015-10-05,1,,,,,,0
69,1011205001913,登記記録の閉鎖等,0,2024-01-31,2024-01-25,一般社団法人大学イノベーション研究所,,その他の設立登記法人,愛知県,名古屋市昭和区,広池町２４番地の４,,23,107,4660042,,,2024-01-25,清算の結了等,,,2015-10-05,1,,,,,ダイガクイノベーションケンキュウジョ,0
76,1011503005013,登記記録の閉鎖等,0,2024-01-31,2024-01-19,合同会社ハワース,,合同会社,東京都,荒川区,西日暮里６丁目１０番１４号プエルト西日暮里１０２,,13,118,1160013,,,2024-01-19,清算の結了等,,,2021-12-22,1,,,,,ハワース,0
80,1011801003239,登記記録の閉鎖等,0,2024-01-31,2024-01-10,株式会社トーヨー建設,,株式会社,東京都,葛飾区,柴又７丁目１番１１号,,13,122,1250052,,,2024-01-10,合併による解散等,2010701017769,令和６年１月１日東京都中央区日本橋人形町一丁目３番６号株式会社冨士工（2010701017769）に合併し解散,2015-10-05,1,,,,,トーヨーケンセツ,0
113,1040001011974,登記記録の閉鎖等,0,2024-01-31,2024-01-22,株式会社ＰＨコーポレーション,,株式会社,千葉県,千葉市花見川区,幕張本郷２丁目８番２３号アミティ望月４０１号,,12,102,2620033,,,2024-01-22,清算の結了等,,,2015-10-05,1,,,,,ピーエイチコーポレーション,0
115,1040001040949,登記記録の閉鎖等,0,2024-01-31,2023-12-26,株式会社ＮＮＫ土地所有移行会社,,株式会社,千葉県,流山市,向小金３丁目１７９番地,,12,220,2700143,,,2023-12-26,合併による解散等,6040001131611,令和５年１２月２６日千葉県流山市向小金三丁目１７９番地株式会社水源土地所有移行会社（5040001040904）及び千葉県流山市向小金三丁目１７９番地株式会社水代ビル土地所有移行会社（2040001040948）と合併して千葉県流山市向小金三丁目１７９番地水代土地株式会社（6040001131611）を設立し解散,2015-10-05,1,,,,,エヌエヌケートチショユウイコウガイシャ,0
129,1070002014866,登記記録の閉鎖等,0,2024-01-31,2024-01-29,有限会社スーパーオギノ,,有限会社,群馬県,安中市,松井田町新堀３５５番地,,10,211,3790221,,,2024-01-29,清算の結了等,,,2015-10-05,1,,,,,スーパーオギノ,0
139,1120001074798,登記記録の閉鎖等,0,2024-01-31,2024-01-26,岩崎株式会社,,株式会社,大阪府,大阪市中央区,瓦屋町１丁目８番１７号,,27,128,5420066,,,2024-01-26,清算の結了等,,,2015-10-05,1,,,,,イワサキ,0
140,1120001103994,登記記録の閉鎖等,0,2024-01-31,2024-01-25,株式会社オーエヌディ,,株式会社,大阪府,大阪市西区,南堀江４丁目３３番２３号,,27,106,5500015,,,2024-01-25,清算の結了等,,,2015-10-05,1,,,,,オーエヌディ,0
143,1120001246942,登記記録の閉鎖等,0,2024-01-31,2024-01-26,株式会社従容,,株式会社,大阪府,大阪市浪速区,日本橋東３丁目１５番３号ハイツクシノ４０１号室,,27,111,5560006,,,2024-01-26,清算の結了等,,,2022-06-28,1,,,,,ジュウヨウ,0
170,1140001032639,登記記録の閉鎖等,0,2024-01-31,2024-01-26,ココボックス株式会社,,株式会社,兵庫県,神戸市須磨区,大田町７丁目４番２号,,28,107,6540024,,,2024-01-26,清算の結了等,,,2015-10-05,1,,,,,ココボックス,0
171,1140001088895,登記記録の閉鎖等,0,2024-01-31,2024-01-29,株式会社オーディアム,,株式会社,兵庫県,宝塚市,口谷東３丁目６７番４２号,,28,214,6650812,,,2024-01-29,清算の結了等,,,2015-10-05,1,,,,,オーディアム,0
183,1180005007617,登記記録の閉鎖等,0,2024-01-31,2024-01-04,医療法人社団明星会,,その他の設立登記法人,愛知県,半田市,瑞穂町８丁目１２番地１２カミヤビル２Ｂ,,23,205,4750828,,,2024-01-04,合併による解散等,8180005007809,令和６年１月４日名古屋市名東区引山二丁目１１０番地医療法人社団明照会（8180005007809）に合併し解散,2015-10-05,1,,,,,メイセイカイ,0
202,1260001016489,登記記録の閉鎖等,0,2024-01-31,2024-01-24,株式会社かたつむり,,株式会社,広島県,広島市安佐南区,相田３丁目６６－１６,,34,105,7310141,,,2024-01-24,清算の結了等,,,2015-10-05,1,,,,,カタツムリ,0
244,1440001007379,登記記録の閉鎖等,0,2024-01-31,2024-01-29,株式会社キルコート,,株式会社,北海道,函館市,弁天町１０番１２号,,01,202,0400051,,,2024-01-29,清算の結了等,,,2015-10-05,1,,,,,キルコート,0
245,1450002012518,登記記録の閉鎖等,0,2024-01-31,2024-01-29,有限会社あづま,,有限会社,北海道,紋別市,本町５丁目２番７号,,01,219,0940004,,,2024-01-29,清算の結了等,,,2015-10-05,1,,,,,アヅマ,0
274,2010401099554,登記記録の閉鎖等,0,2024-01-31,2024-01-23,株式会社ＩＢコンサルタンツ,,株式会社,東京都,港区,西麻布４丁目１１番２８号－９０４,,13,103,1060031,,,2024-01-23,清算の結了等,,,2015-10-05,1,,,,,アイビーコンサルタンツ,0
285,2010405003768,登記記録の閉鎖等,0,2024-01-31,2024-01-23,一般社団法人ディア・エイ・ケイ・エス,,その他の設立登記法人,東京都,港区,六本木１丁目６番１号,,13,103,1060032,,,2024-01-23,清算の結了等,,,2015-10-05,1,,,,,ディアエイケイエス,0
288,2010601007630,登記記録の閉鎖等,0,2024-01-31,2024-01-31,金剛電機株式会社,,株式会社,東京都,江東区,木場３丁目８番７号,,13,108,1350042,,,2024-01-31,登記官による閉鎖,,,2015-10-05,1,,,,,,0
289,2010601007762,登記記録の閉鎖等,0,2024-01-31,2024-01-31,万代建設株式会社,,株式会社,東京都,江東区,住吉２丁目４番８号,,13,108,1350002,,,2024-01-31,登記官による閉鎖,,,2015-10-05,1,,,,,,0
290,2010601014833,登記記録の閉鎖等,0,2024-01-31,2024-01-31,株式会社博文堂,,株式会社,東京都,墨田区,亀沢１丁目２３番２号,,13,107,1300014,,,2024-01-31,登記官による閉鎖,,,2015-10-05,1,,,,,,0
291,2010601029427,登記記録の閉鎖等,0,2024-01-31,2024-01-31,Ａ．Ｓ．Ｋ．株式会社,,株式会社,東京都,墨田区,業平３丁目８番６号,,13,107,1300002,,,2024-01-31,登記官による閉鎖,,,2015-10-05,1,,,,,,0
292,2010601036489,登記記録の閉鎖等,0,2024-01-31,2024-01-31,ＥＮＥＲＧＥＴＩＸ　ＪＡＰＡＮ株式会社,,株式会社,東京都,江東区,住吉２丁目５番２号,,13,108,1350002,,,2024-01-31,登記官による閉鎖,,,2015-10-05,1,,,,,,0
294,2010601042066,登記記録の閉鎖等,0,2024-01-31,2024-01-31,株式会社エヌ・ティー・エム,,株式会社,東京都,江東区,東砂４丁目２４番３－６０５号,,13,108,1360074,,,2024-01-31,登記官による閉鎖,,,2015-10-05,1,,,,,,0
296,2010602001046,登記記録の閉鎖等,0,2024-01-31,2024-01-31,有限会社アイ・エス・ディー,,有限会社,東京都,江東区,亀戸６丁目４番１０号,,13,108,1360071,,,2024-01-31,登記官による閉鎖,,,2015-10-05,1,,,,,,0
297,2010602003091,登記記録の閉鎖等,0,2024-01-31,2024-01-31,城東薬品有限会社,,有限会社,東京都,江東区,大島４丁目１番６－１０６号,,13,108,1360072,,,2024-01-31,登記官による閉鎖,,,2015-10-05,1,,,,,,0
298,2010602026464,登記記録の閉鎖等,0,2024-01-31,2024-01-31,有限会社スミダ工研,,有限会社,東京都,墨田区,両国４丁目３２番１６号,,13,107,1300026,,,2024-01-31,登記官による閉鎖,,,2015-10-05,1,,,,,,0
321,2011202002855,登記記録の閉鎖等,0,2024-01-31,2024-01-31,有限会社システム・エスビー,,有限会社,東京都,中野区,中央４丁目６番１２号,,13,114,1640011,,,2024-01-31,登記官による閉鎖,,,2015-10-05,1,,,,,,0
322,2011202010866,登記記録の閉鎖等,0,2024-01-31,2024-01-31,有限会社サカモト防災テクノ,,有限会社,東京都,中野区,中野３丁目９番６号,,13,114,1640001,,,2024-01-31,登記官による閉鎖,,,2015-10-05,1,,,,,,0
323,2011205000039,登記記録の閉鎖等,0,2024-01-31,2024-01-31,財団法人四谷ミッション基督教会維持財団,,その他の設立登記法人,東京都,中野区,東中野３丁目７番８号,,13,114,1640003,,,2024-01-31,登記官による閉鎖,,,2017-11-28,1,,,,,,0
324,2011205000096,登記記録の閉鎖等,0,2024-01-31,2024-01-31,東京三石販事業協同組合,,その他の設立登記法人,東京都,中野区,新井２丁目１８番２号,,13,114,1650026,,,2024-01-31,登記官による閉鎖,,,2015-10-05,1,,,,,,0
325,2011205001326,登記記録の閉鎖等,0,2024-01-31,2024-01-31,省エネルギー設備管理協同組合,,その他の設立登記法人,東京都,中野区,中野１丁目６２番１０号,,13,114,1640001,,,2024-01-31,登記官による閉鎖,,,2015-10-05,1,,,,,,0
326,2011205001334,登記記録の閉鎖等,0,2024-01-31,2024-01-31,特定非営利活動法人東進授産協会,,その他の設立登記法人,東京都,中野区,中央３丁目３番地６号,,13,114,1640011,,,2024-01-31,登記官による閉鎖,,,2015-10-05,1,,,,,,0
375,2021002032366,登記記録の閉鎖等,0,2024-01-31,2024-01-29,有限会社高部商店,,有限会社,神奈川県,厚木市,関口１４８番地,,14,212,2430804,,,2024-01-29,清算の結了等,,,2015-10-05,1,,,,,タカベショウテン,0
379,2021005007464,登記記録の閉鎖等,0,2024-01-31,2024-01-04,葉山町漁業協同組合,,その他の設立登記法人,神奈川県,三浦郡葉山町,堀内５０番地２０,,14,301,2400112,,,2024-01-04,合併による解散等,6021005012989,令和６年１月４日神奈川県横須賀市佐島三丁目５番１号横須賀市大楠漁業協同組合（9021005007466）と神奈川県鎌倉市坂ノ下３２番１３号鎌倉漁業協同組合（5021005002132）と神奈川県藤沢市辻堂東海岸四丁目３番２１号藤沢市漁業協同組合（9021005000413）と合併して神奈川県横須賀市佐島三丁目５番１号湘南漁業協同組合（6021005012989）を設立し解散,2015-10-05,1,,,,,ハヤママチ,0
380,2030001020752,登記記録の閉鎖等,0,2024-01-31,2024-01-18,森永産業株式会社,,株式会社,東京都,荒川区,東日暮里６丁目４２番１号,,13,118,1160014,,,2024-01-18,清算の結了等,,,2015-10-05,1,,,,,モリナガサンギョウ,0
381,2030002039412,登記記録の閉鎖等,0,2024-01-31,2024-01-24,大成金属工業有限会社,,有限会社,埼玉県,久喜市,佐間９１２番地,,11,232,3491124,,,2024-01-24,清算の結了等,,,2015-10-05,1,,,,,タイセイキンゾクコウギョウ,0
382,2030002083096,登記記録の閉鎖等,0,2024-01-31,2024-01-24,有限会社イー・アイ・コーポレーション,,有限会社,埼玉県,北本市,宮内３丁目１７８番地,,11,233,3640002,,,2024-01-24,清算の結了等,,,2015-10-05,1,,,,,イーアイコーポレーション,0
384,2040001040948,登記記録の閉鎖等,0,2024-01-31,2023-12-26,株式会社水代ビル土地所有移行会社,,株式会社,千葉県,流山市,向小金３丁目１７９番地,,12,220,2700143,,,2023-12-26,合併による解散等,6040001131611,令和５年１２月２６日千葉県流山市向小金三丁目１７９番地株式会社水源土地所有移行会社（5040001040904）及び千葉県流山市向小金三丁目１７９番地株式会社ＮＮＫ土地所有移行会社（1040001040949）と合併して千葉県流山市向小金三丁目１７９番地水代土地株式会社（6040001131611）を設立し解散,2015-10-05,1,,,,,ミズシロビルトチショユウイコウガイシャ,0
386,2040001106286,登記記録の閉鎖等,0,2024-01-31,2024-01-24,株式会社千通貿易,,株式会社,千葉県,松戸市,新松戸東１１番地の１０タルミ第３ハイツ２０６,,12,207,2700033,,,2024-01-24,清算の結了等,,,2018-09-28,1,,,,,センツウボウエキ,0
388,2040001120089,登記記録の閉鎖等,0,2024-01-31,2024-01-23,株式会社ＭＩＲＡＩ,,株式会社,千葉県,市原市,青葉台５丁目２番地の１０,,12,219,2990117,,,2024-01-23,清算の結了等,,,2021-09-06,1,,,,,ミライ,0
395,2050001001016,登記記録の閉鎖等,0,2024-01-31,2024-01-29,小室産業株式会社,,株式会社,茨城県,水戸市,末広町１丁目４番２号,,08,201,3100053,,,2024-01-29,清算の結了等,,,2015-10-05,1,,,,,コムロサンギョウ,0
402,2070001015047,登記記録の閉鎖等,0,2024-01-31,2024-01-26,株式会社Ｑｕａｔｒｅ　ｃｏｒｐｏｒａｔｉｏｎ,,株式会社,群馬県,伊勢崎市,境木島２３５番地,,10,204,3700104,,,2024-01-26,清算の結了等,,,2015-10-05,1,,,,,クワトロコーポレーション,0
403,2070002017414,登記記録の閉鎖等,0,2024-01-31,2024-01-26,寿印刷有限会社,,有限会社,群馬県,藤岡市,立石５６２番地,,10,209,3750002,,,2024-01-26,清算の結了等,,,2015-10-05,1,,,,,コトブキインサツ,0
405,2080002013321,登記記録の閉鎖等,0,2024-01-31,2024-01-29,有限会社望月組,,有限会社,静岡県,静岡市清水区,谷津町１丁目２００番地の２,,22,103,4240211,,,2024-01-29,清算の結了等,,,2015-10-05,1,,,,,モチヅキグミ,0
407,2080102007495,登記記録の閉鎖等,0,2024-01-31,2024-01-30,有限会社増田サッシ工業,,有限会社,静岡県,御殿場市,新橋１２８９番地の１２０,,22,215,4120043,,,2024-01-30,清算の結了等,,,2015-10-05,1,,,,,マスダサッシコウギョウ,0
415,2110002031699,登記記録の閉鎖等,0,2024-01-31,2024-01-26,有限会社武田建設,,有限会社,新潟県,見附市,坂井町１１３４番地,,15,211,9540104,,,2024-01-26,清算の結了等,,,2015-10-05,1,,,,,タケダケンセツ,0
417,2110005003530,登記記録の閉鎖等,0,2024-01-31,2023-12-27,橋姫神社,,その他の設立登記法人,新潟県,東蒲原郡阿賀町,津川上田町３６８３番地１,,15,385,9594402,,,2023-12-27,合併による解散等,9110005003524,令和５年１２月２７日新潟県東蒲原郡阿賀町津川伊勢ノ宮３７１８番地神明神社（9110005003524）に合併し解散,2015-10-05,1,,,,,ハシヒメジンジャ,0
431,2120002007228,登記記録の閉鎖等,0,2024-01-31,2024-01-17,有限会社ハウスメイト,,有限会社,大阪府,大阪市東成区,中道３丁目２番３２号,,27,115,5370025,,,2024-01-17,清算の結了等,,,2015-10-05,1,,,,,,0
441,2122001026200,登記記録の閉鎖等,0,2024-01-31,2024-01-30,株式会社ドリームサポート,,株式会社,大阪府,柏原市,国分市場１丁目８番５１号,,27,221,5820022,,,2024-01-30,清算の結了等,,,2015-10-05,1,,,,,ドリームサポート,0
443,2130002017498,登記記録の閉鎖等,0,2024-01-31,2024-01-05,有限会社瑞穂食品工業,,有限会社,京都府,京都市南区,上鳥羽山ノ本町２１３番地,,26,107,6018176,,,2024-01-05,合併による解散等,8010401176471,令和５年１２月２５日東京都港区北青山一丁目２番３号青山ビル１２階ノード株式会社（8010401176471）に合併し解散,2015-10-05,1,,,,,ミズホショクヒンコウギョウ,0
456,2180001010383,登記記録の閉鎖等,0,2024-01-31,2024-01-26,株式会社鈴木カメラ,,株式会社,愛知県,名古屋市瑞穂区,新開町３番１３号,,23,108,4670856,,,2024-01-26,清算の結了等,,,2015-10-05,1,,,,,スズキカメラ,0
468,2180002091142,登記記録の閉鎖等,0,2024-01-31,2024-01-25,有限会社テレジア,,有限会社,愛知県,津島市,鹿伏兎町東１３１番地,,23,208,4960023,,,2024-01-25,清算の結了等,,,2015-10-05,1,,,,,テレジア,0
474,2180303005701,登記記録の閉鎖等,0,2024-01-31,2024-01-23,合同会社Ｋｏａ,,合同会社,愛知県,高浜市,小池町５丁目３番地１０３,,23,227,4441303,,,2024-01-23,清算の結了等,,,2023-05-11,1,,,,,コア,0
492,2240002012934,登記記録の閉鎖等,0,2024-01-31,2024-01-24,有限会社広島社会保険サービスセンター,,有限会社,広島県,広島市中区,西川口町１１番２１号,,34,101,7300846,,,2024-01-24,清算の結了等,,,2015-10-05,1,,,,,ヒロシマシャカイホケンサービスセンター,0
493,2240002023725,登記記録の閉鎖等,0,2024-01-31,2024-01-23,有限会社グリーンリーフ,,有限会社,広島県,広島市安佐北区,白木町市川１６７２－７,,34,106,7391700,,,2024-01-23,清算の結了等,,,2015-10-05,1,,,,,,0
495,2250005005281,登記記録の閉鎖等,0,2024-01-31,2024-01-04,東光寺,,その他の設立登記法人,山口県,周南市,大字金峰３３２５番地,,35,215,7450402,,,2024-01-04,合併による解散等,4250005005346,令和６年１月４日山口県周南市大字鹿野上３２７２番地龍雲寺（4250005005346）に合併し解散,2015-10-05,1,,,,,トウコウジ,0
505,2290003002302,登記記録の閉鎖等,0,2024-01-31,2024-01-24,合資会社朋文堂書店,,合資会社,福岡県,飯塚市,本町２０番３３号,,40,205,8200042,,,2024-01-24,清算の結了等,,,2015-10-05,1,,,,,ホウブンドウショテン,0
510,2340003003138,登記記録の閉鎖等,0,2024-01-31,2024-01-29,株式会社南九州製茶,,株式会社,鹿児島県,南九州市,川辺町永田１２９６番地１,,46,223,8970222,,,2024-01-29,清算の結了等,,,2020-07-13,1,,,,,ミナミキュウシュウセイチャ,0
514,2370001006973,登記記録の閉鎖等,0,2024-01-31,2024-01-29,株式会社ＡＣＰ,,株式会社,東京都,練馬区,石神井町３丁目３０番３０号,,13,120,1770041,,,2024-01-29,清算の結了等,,,2015-10-05,1,,,,,エーシーピー,0
521,2400602000149,登記記録の閉鎖等,0,2024-01-31,2024-01-29,有限会社大沼グループ,,有限会社,岩手県,奥州市,水沢字堰合３２番地,,03,215,0230866,,,2024-01-29,清算の結了等,,,2015-10-05,1,,,,,オオヌマグループ,0
522,2420001010103,登記記録の閉鎖等,0,2024-01-31,2024-01-26,株式会社三浦工務店,,株式会社,青森県,平川市,新山早稲田４３番地１,,02,210,0360231,,,2024-01-26,清算の結了等,,,2015-10-05,1,,,,,ミウラコウムテン,0
532,2470002000230,登記記録の閉鎖等,0,2024-01-31,2024-01-29,荒木石材有限会社,,有限会社,香川県,高松市,牟礼町牟礼２６６７番地１,,37,201,7610121,,,2024-01-29,清算の結了等,,,2015-10-05,1,,,,,アラキセキザイ,0
550,3010401141876,登記記録の閉鎖等,0,2024-01-31,2024-01-19,株式会社キープオンゴーイング,,株式会社,東京都,港区,白金２丁目５番１２－１４０２号,,13,103,1080072,,,2024-01-19,清算の結了等,,,2018-11-06,1,,,,,キープオンゴーイング,0
557,3010501007886,登記記録の閉鎖等,0,2024-01-31,2024-01-09,株式会社ダンロップモーターサイクルコーポレーション,,株式会社,東京都,台東区,東上野４丁目１６番６号,,13,106,1100015,,,2024-01-09,合併による解散等,4010601023832,令和６年１月１日東京都港区港南一丁目６番４１号芝浦クリスタル品川６階ダンロップタイヤ中央株式会社（4010601023832）に合併し解散,2015-10-05,1,,,,,,0
559,3010601004882,登記記録の閉鎖等,0,2024-01-31,2024-01-31,株式会社東京富士商会,,株式会社,東京都,江東区,東陽５丁目１５番１２号,,13,108,1350016,,,2024-01-31,登記官による閉鎖,,,2015-10-05,1,,,,,,0
560,3010601015789,登記記録の閉鎖等,0,2024-01-31,2024-01-31,宮本工業株式会社,,株式会社,東京都,墨田区,東墨田３丁目１１番４号,,13,107,1310042,,,2024-01-31,登記官による閉鎖,,,2015-10-05,1,,,,,,0
561,3010601025045,登記記録の閉鎖等,0,2024-01-31,2024-01-31,藤栄土地建物株式会社,,株式会社,東京都,墨田区,押上２丁目２０番２号,,13,107,1310045,,,2024-01-31,登記官による閉鎖,,,2015-10-05,1,,,,,,0
562,3010601031836,登記記録の閉鎖等,0,2024-01-31,2024-01-31,株式会社ニューテック商会,,株式会社,東京都,江東区,古石場２丁目１２番６号,,13,108,1350045,,,2024-01-31,登記官による閉鎖,,,2015-10-05,1,,,,,,0
563,3010601041686,登記記録の閉鎖等,0,2024-01-31,2024-01-31,株式会社スリーライフエステート,,株式会社,東京都,江東区,豊洲２丁目５番１号パークシティー豊洲タワーＡ,,13,108,1350061,,,2024-01-31,登記官による閉鎖,,,2015-10-05,1,,,,,,0
564,3010602002943,登記記録の閉鎖等,0,2024-01-31,2024-01-31,有限会社三共印刷工芸社,,有限会社,東京都,墨田区,東向島６丁目１２番７号,,13,107,1310032,,,2024-01-31,登記官による閉鎖,,,2015-10-05,1,,,,,,0
565,3010602020128,登記記録の閉鎖等,0,2024-01-31,2024-01-31,有限会社コミュニケーションデザイン,,有限会社,東京都,江東区,北砂３丁目１７番１７号,,13,108,1360073,,,2024-01-31,登記官による閉鎖,,,2015-10-05,1,,,,,,0
566,3010602021092,登記記録の閉鎖等,0,2024-01-31,2024-01-31,有限会社小西センイ,,有限会社,東京都,墨田区,業平５丁目３番４号,,13,107,1300002,,,2024-01-31,登記官による閉鎖,,,2015-10-05,1,,,,,,0
567,3010602027610,登記記録の閉鎖等,0,2024-01-31,2024-01-31,有限会社毘社企業,,有限会社,東京都,墨田区,業平２丁目１６番８号呂府１Ｆ,,13,107,1300002,,,2024-01-31,登記官による閉鎖,,,2015-10-05,1,,,,,,0
568,3010602030515,登記記録の閉鎖等,0,2024-01-31,2024-01-31,有限会社エヌ・ビー・エス,,有限会社,東京都,墨田区,千歳３丁目８番２号,,13,107,1300025,,,2024-01-31,登記官による閉鎖,,,2015-10-05,1,,,,,,0
569,3010603000178,登記記録の閉鎖等,0,2024-01-31,2024-01-31,合資会社尾畑木工所,,合資会社,東京都,江東区,南砂４丁目１１番９－９０６号,,13,108,1360076,,,2024-01-31,登記官による閉鎖,,,2015-10-05,1,,,,,,0
571,3010605000663,登記記録の閉鎖等,0,2024-01-31,2024-01-31,ヴィックコンサルタンツ事業協同組合,,その他の設立登記法人,東京都,墨田区,東駒形４丁目１５番４号,,13,107,1300005,,,2024-01-31,登記官による閉鎖,,,2015-10-05,1,,,,,,0
572,3010605000770,登記記録の閉鎖等,0,2024-01-31,2024-01-31,東日本アサヒシューズ卸商協同組合,,その他の設立登記法人,東京都,墨田区,太平２丁目１０番１０号,,13,107,1300012,,,2024-01-31,登記官による閉鎖,,,2015-10-05,1,,,,,,0
573,3010605000993,登記記録の閉鎖等,0,2024-01-31,2024-01-31,関東レンダリング工業組合,,その他の設立登記法人,東京都,墨田区,東墨田１丁目１１番１４号,,13,107,1310042,,,2024-01-31,登記官による閉鎖,,,2015-10-05,1,,,,,,0
574,3010605002247,登記記録の閉鎖等,0,2024-01-31,2024-01-31,一般社団法人日本スロヴェニアビジネス協会,,その他の設立登記法人,東京都,江東区,豊洲３丁目６番５号,,13,108,1350061,,,2024-01-31,登記官による閉鎖,,,2015-10-05,1,,,,,,0
594,3011005002969,登記記録の閉鎖等,0,2024-01-31,2024-01-29,一般社団法人アート・アンド・パブリック協会,,その他の設立登記法人,東京都,新宿区,西早稲田２丁目１４－１５,,13,104,1690051,,,2024-01-29,清算の結了等,,,2015-10-05,1,,,,,アートアンドパブリックキョウカイ,0
598,3011202002061,登記記録の閉鎖等,0,2024-01-31,2024-01-31,有限会社恵仁マネキン紹介所,,有限会社,東京都,中野区,本町４丁目４８番１７号,,13,114,1640012,,,2024-01-31,登記官による閉鎖,,,2015-10-05,1,,,,,,0
599,3011202012738,登記記録の閉鎖等,0,2024-01-31,2024-01-31,有限会社ジョイサック,,有限会社,東京都,中野区,中央２丁目４９－６－５０１,,13,114,1640011,,,2024-01-31,登記官による閉鎖,,,2015-10-05,1,,,,,,0
600,3011205000442,登記記録の閉鎖等,0,2024-01-31,2024-01-31,特定非営利活動法人ハスキーズ・アスリート・ファクトリー,,その他の設立登記法人,東京都,中野区,中野３丁目３７番１０号,,13,114,1640001,,,2024-01-31,登記官による閉鎖,,,2015-10-05,1,,,,,,0
601,3011205001580,登記記録の閉鎖等,0,2024-01-31,2024-01-31,一般社団法人ＡＵＧＩ　Ｊａｐａｎ,,その他の設立登記法人,東京都,中野区,中央２丁目４１番８号,,13,114,1640011,,,2024-01-31,登記官による閉鎖,,,2015-10-05,1,,,,,,0
610,3011702004292,登記記録の閉鎖等,0,2024-01-31,2024-01-23,有限会社ゴトウ,,有限会社,東京都,江戸川区,中央１丁目１番５号,,13,123,1320021,,,2024-01-23,清算の結了等,,,2015-10-05,1,,,,,ゴトウ,0
639,3030001023250,登記記録の閉鎖等,0,2024-01-31,2024-01-29,株式会社クローバーインダストリーズ,,株式会社,東京都,新宿区,西新宿７丁目１４番１１号,,13,104,1600023,,,2024-01-29,清算の結了等,,,2015-10-05,1,,,,,クローバーインダストリーズ,0
641,3030001069145,登記記録の閉鎖等,0,2024-01-31,2024-01-26,東和工業株式会社,,株式会社,埼玉県,鶴ヶ島市,大字五味ヶ谷１３３番地,,11,241,3502202,,,2024-01-26,清算の結了等,,,2015-10-05,1,,,,,トウワコウギョウ,0
655,3040002023050,登記記録の閉鎖等,0,2024-01-31,2024-01-10,有限会社スタジオ中央,,有限会社,千葉県,船橋市,習志野台２丁目３３番１号,,12,204,2740063,,,2024-01-10,清算の結了等,,,2015-10-05,1,,,,,スタジオチュウオウ,0
668,3070001040589,登記記録の閉鎖等,0,2024-01-31,2024-01-26,株式会社村山園,,株式会社,群馬県,沼田市,高橋場町２１６０番地２,,10,206,3780056,,,2024-01-26,清算の結了等,,,2023-07-04,1,,,,,ムラヤマエン,0
671,3100002008375,登記記録の閉鎖等,0,2024-01-31,2024-01-26,小林輪業有限会社,,有限会社,長野県,須坂市,大字須坂１４８０番地,,20,207,3820000,,,2024-01-26,清算の結了等,,,2015-10-05,1,,,,,コバヤシリンギョウ,0
676,3120001006155,登記記録の閉鎖等,0,2024-01-31,2024-01-26,株式会社巴里,,株式会社,大阪府,大阪市天王寺区,上本町８丁目９番２３号,,27,109,5430001,,,2024-01-26,清算の結了等,,,2015-10-05,1,,,,,パリ,0
706,3180001135865,登記記録の閉鎖等,0,2024-01-31,2024-01-25,大道商事株式会社,,株式会社,愛知県,名古屋市北区,楠１丁目６３１番地,,23,103,4620012,,,2024-01-25,清算の結了等,,,2019-03-27,1,,,,,タイドウショウジ,0
709,3180002077900,登記記録の閉鎖等,0,2024-01-31,2024-01-23,有限会社山元工芸,,有限会社,愛知県,一宮市,千秋町穂積塚本字郷内３３番地,,23,203,4910803,,,2024-01-23,清算の結了等,,,2015-10-05,1,,,,,ヤマモトコウゲイ,0
721,3190005010122,登記記録の閉鎖等,0,2024-01-31,2024-01-30,医療法人ながたレディースクリニック,,その他の設立登記法人,三重県,津市,藤方１５０番地,,24,201,5140815,,,2024-01-30,清算の結了等,,,2015-10-05,1,,,,,,0
725,3240001002365,登記記録の閉鎖等,0,2024-01-31,2024-01-24,株式会社神立,,株式会社,広島県,広島市安芸区,上瀬野町３６９番地の４,,34,107,7390302,,,2024-01-24,清算の結了等,,,2015-10-05,1,,,,,カンダチ,0
727,3240003005267,登記記録の閉鎖等,0,2024-01-31,2024-01-24,合同会社ＦＡＲＭ　ＨＩＲＯＳＨＩＭＡ,,合同会社,広島県,竹原市,吉名町４５０２番地１８,,34,203,7250013,,,2024-01-24,清算の結了等,,,2021-09-03,1,,,,,ファームヒロシマ,0
743,3330005006824,登記記録の閉鎖等,0,2024-01-31,2024-01-18,一般財団法人天草下島北部地域観光振興公社,,その他の設立登記法人,熊本県,天草市,東浜町８番１号,,43,215,8630014,,,2024-01-18,清算の結了等,,,2015-10-05,1,,,,,アマクサシモシマホクブチイキカンコウシンコウコウシャ,0
754,3380002005907,登記記録の閉鎖等,0,2024-01-31,2024-01-29,有限会社尺石製作所,,有限会社,福島県,福島市,飯野町大久保字尺石５２番地,,07,201,9601304,,,2024-01-29,清算の結了等,,,2015-10-05,1,,,,,シャクイシセイサクショ,0
755,3380002020501,登記記録の閉鎖等,0,2024-01-31,2024-01-15,有限会社鈴野工業,,有限会社,福島県,岩瀬郡鏡石町,大字成田字本町３６６番地,,07,342,9690402,,,2024-01-15,登記官による閉鎖,,,2018-09-10,1,,,,,スズノコウギョウ,0
765,3400002003965,登記記録の閉鎖等,0,2024-01-31,2024-01-29,有限会社住科企画,,有限会社,岩手県,滝沢市,巣子２０８番地３６,,03,216,0200611,,,2024-01-29,清算の結了等,,,2015-10-05,1,,,,,ジュウカキカク,0
785,4010001030652,登記記録の閉鎖等,0,2024-01-31,2024-01-31,株式会社名著刊行会,,株式会社,東京都,中野区,松が丘１丁目２２番７号,,13,114,1650024,,,2024-01-31,登記官による閉鎖,,,2015-10-05,1,,,,,,0
795,4010002038199,登記記録の閉鎖等,0,2024-01-31,2024-01-25,有限会社フィッシュアイワールド,,有限会社,東京都,小笠原村,父島字清瀬,,13,421,1002101,,,2024-01-25,清算の結了等,,,2015-10-05,1,,,,,フィッシュアイワールド,0
815,4010601011151,登記記録の閉鎖等,0,2024-01-31,2024-01-31,株式会社坂本写眞台紙店,,株式会社,東京都,墨田区,本所４丁目１２番１号,,13,107,1300004,,,2024-01-31,登記官による閉鎖,,,2015-10-05,1,,,,,,0
816,4010601023378,登記記録の閉鎖等,0,2024-01-31,2024-01-31,株式会社マグコーポレーション,,株式会社,東京都,墨田区,向島２丁目２１番１４－１２０３号,,13,107,1310033,,,2024-01-31,登記官による閉鎖,,,2015-10-05,1,,,,,,0
818,4010601027544,登記記録の閉鎖等,0,2024-01-31,2024-01-31,株式会社赤松菅野建築設計事務所,,株式会社,東京都,江東区,門前仲町１丁目７番５号,,13,108,1350048,,,2024-01-31,登記官による閉鎖,,,2015-10-05,1,,,,,,0
819,4010601035019,登記記録の閉鎖等,0,2024-01-31,2024-01-31,城東情報システムズ株式会社,,株式会社,東京都,江東区,千石１丁目７番１０－４１５号,,13,108,1350015,,,2024-01-31,登記官による閉鎖,,,2015-10-05,1,,,,,,0
820,4010601037592,登記記録の閉鎖等,0,2024-01-31,2024-01-31,クライムシステム株式会社,,株式会社,東京都,江東区,北砂６丁目２７番５号,,13,108,1360073,,,2024-01-31,登記官による閉鎖,,,2015-10-05,1,,,,,,0
821,4010601042188,登記記録の閉鎖等,0,2024-01-31,2024-01-31,株式会社イーグローバル,,株式会社,東京都,江東区,海辺１５番５号,,13,108,1350012,,,2024-01-31,登記官による閉鎖,,,2015-10-05,1,,,,,,0
822,4010601042279,登記記録の閉鎖等,0,2024-01-31,2024-01-31,匠石材株式会社,,株式会社,東京都,江東区,亀戸８丁目２３番３号,,13,108,1360071,,,2024-01-31,登記官による閉鎖,,,2015-10-05,1,,,,,,0
824,4010602000401,登記記録の閉鎖等,0,2024-01-31,2024-01-31,有限会社マルタ企画,,有限会社,東京都,江東区,亀戸８丁目１３番１１号,,13,108,1360071,,,2024-01-31,登記官による閉鎖,,,2015-10-05,1,,,,,,0
825,4010602001003,登記記録の閉鎖等,0,2024-01-31,2024-01-31,有限会社アヅマ工芸,,有限会社,東京都,江東区,海辺１９番２号,,13,108,1350012,,,2024-01-31,登記官による閉鎖,,,2015-10-05,1,,,,,,0
828,4010602019482,登記記録の閉鎖等,0,2024-01-31,2024-01-31,有限会社伊達製作所,,有限会社,東京都,墨田区,八広４丁目４５番１号,,13,107,1310041,,,2024-01-31,登記官による閉鎖,,,2015-10-05,1,,,,,,0
829,4010602021018,登記記録の閉鎖等,0,2024-01-31,2024-01-31,有限会社宇井塗装工業所,,有限会社,東京都,墨田区,八広１丁目９番４号,,13,107,1310041,,,2024-01-31,登記官による閉鎖,,,2015-10-05,1,,,,,,0
830,4010602022619,登記記録の閉鎖等,0,2024-01-31,2024-01-31,有限会社ヒロコ,,有限会社,東京都,江東区,牡丹３丁目２７番９号,,13,108,1350046,,,2024-01-31,登記官による閉鎖,,,2015-10-05,1,,,,,,0
831,4010602025241,登記記録の閉鎖等,0,2024-01-31,2024-01-31,有限会社ダイヒロ,,有限会社,東京都,江東区,大島１丁目２４番７号,,13,108,1360072,,,2024-01-31,登記官による閉鎖,,,2015-10-05,1,,,,,,0
832,4010602031553,登記記録の閉鎖等,0,2024-01-31,2024-01-31,有限会社コスモス,,有限会社,東京都,江東区,大島１丁目２２番１８－３０３号,,13,108,1360072,,,2024-01-31,登記官による閉鎖,,,2015-10-05,1,,,,,,0
833,4010605002626,登記記録の閉鎖等,0,2024-01-31,2024-01-31,特定非営利活動法人社会福祉普及促進会,,その他の設立登記法人,東京都,江東区,東陽２丁目２番２０号,,13,108,1350016,,,2024-01-31,登記官による閉鎖,,,2015-10-05,1,,,,,,0
834,4010605002659,登記記録の閉鎖等,0,2024-01-31,2024-01-31,一般社団法人日本マンション管理組合理事検定協会,,その他の設立登記法人,東京都,江東区,青海２丁目７番４号,,13,108,1350064,,,2024-01-31,登記官による閉鎖,,,2015-10-05,1,,,,,,0
836,4010701031181,登記記録の閉鎖等,0,2024-01-31,2024-01-04,クアーズテック販売株式会社,,株式会社,東京都,品川区,大崎２丁目１１番１号,,13,109,1410032,,,2024-01-04,合併による解散等,8010701018794,令和６年１月１日東京都品川区大崎二丁目１１番１号クアーズテック株式会社（8010701018794）に合併し解散,2015-10-05,1,CoorsTek Sales KK,Tokyo,"11-1,Ohsaki 2-chome, Shinagawa ku",,クアーズテックハンバイ,0
857,4011101066231,登記記録の閉鎖等,0,2024-01-31,2024-01-05,株式会社Ｓｔａｃｋ－Ｕｐ,,株式会社,東京都,練馬区,豊玉北５丁目２５－６,,13,120,1760012,,,2024-01-05,合併による解散等,8013301010205,令和６年１月１日東京都新宿区水道町２番１５号株式会社パワー社（8013301010205）に合併し解散,2015-10-05,1,,,,,スタックアップ,0
865,4011105004682,登記記録の閉鎖等,0,2024-01-31,2024-01-31,一般社団法人貸切バス駐車対策協議会,,その他の設立登記法人,東京都,江東区,東陽１丁目２５番１号,,13,108,1350016,,,2024-01-31,登記官による閉鎖,,,2015-10-05,1,,,,,,0
866,4011201003588,登記記録の閉鎖等,0,2024-01-31,2024-01-31,東京カヤバ株式会社,,株式会社,東京都,中野区,沼袋３丁目５番５号,,13,114,1650025,,,2024-01-31,登記官による閉鎖,,,2015-10-05,1,,,,,,0
867,4011201004041,登記記録の閉鎖等,0,2024-01-31,2024-01-31,株式会社成木屋ヘルガ,,株式会社,東京都,中野区,中野５丁目５２番１５号,,13,114,1640001,,,2024-01-31,登記官による閉鎖,,,2015-10-05,1,,,,,,0
868,4011202011540,登記記録の閉鎖等,0,2024-01-31,2024-01-31,有限会社大恵建築事務所,,有限会社,東京都,中野区,弥生町４丁目４番４号,,13,114,1640013,,,2024-01-31,登記官による閉鎖,,,2015-10-05,1,,,,,ダイケイケンチクジムショ,0
869,4011205001522,登記記録の閉鎖等,0,2024-01-31,2024-01-31,特定非営利活動法人タケノコ,,その他の設立登記法人,東京都,中野区,南台５丁目３番３号ドミール南台３０２,,13,114,1640014,,,2024-01-31,登記官による閉鎖,,,2015-10-05,1,,,,,,0
880,4011502006083,登記記録の閉鎖等,0,2024-01-31,2024-01-18,有限会社谷澤商店,,有限会社,東京都,北区,田端２丁目１番２号,,13,117,1140014,,,2024-01-18,清算の結了等,,,2015-10-05,1,,,,,ヤザワショウテン,0
887,4011805001442,登記記録の閉鎖等,0,2024-01-31,2024-01-31,医療法人社団聖潤会,,その他の設立登記法人,東京都,江東区,新大橋２丁目１７番１０号,,13,108,1350007,,,2024-01-31,登記官による閉鎖,,,2015-10-05,1,,,,,,0
889,4012401021421,登記記録の閉鎖等,0,2024-01-31,2024-01-31,株式会社フォーユー学院,,株式会社,東京都,江東区,南砂５丁目２２番１１号ハーベストハイツ２０２,,13,108,1360076,,,2024-01-31,登記官による閉鎖,,,2015-10-05,1,,,,,,0
912,4030002006526,登記記録の閉鎖等,0,2024-01-31,2024-01-24,有限会社清水住建,,有限会社,埼玉県,さいたま市緑区,大字三室３１番地１９,,11,109,3360911,,,2024-01-24,清算の結了等,,,2015-10-05,1,,,,,シミズジュウケン,0
918,4040002026077,登記記録の閉鎖等,0,2024-01-31,2024-01-22,有限会社山正精機,,有限会社,千葉県,船橋市,浜町１丁目３８番８号,,12,204,2730012,,,2024-01-22,清算の結了等,,,2015-10-05,1,,,,,サンショウセイキ,0
933,4080401004596,登記記録の閉鎖等,0,2024-01-31,2024-01-29,富士解体株式会社,,株式会社,静岡県,浜松市中央区,早出町１２４７番地の５,,22,138,4350054,,,2024-01-29,清算の結了等,,,2015-10-05,1,,,,,フジカイタイ,0
939,4090005003408,登記記録の閉鎖等,0,2024-01-31,2024-01-04,事比羅社,,その他の設立登記法人,山梨県,都留市,井倉１１８４番地,,19,204,4020011,,,2024-01-04,合併による解散等,8090005003387,令和６年１月４日山梨県都留市井倉４５６番地生出神社（8090005003387）に合併し解散,2015-10-05,1,,,,,,0
956,4120002054086,登記記録の閉鎖等,0,2024-01-31,2024-01-24,有限会社アートフリーダム,,有限会社,大阪府,大阪市東成区,深江北１丁目９番３９号,,27,115,5370001,,,2024-01-24,清算の結了等,,,2015-10-05,1,,,,,アートフリーダム,0
976,4140002066765,登記記録の閉鎖等,0,2024-01-31,2024-01-29,有限会社響像都市社,,有限会社,兵庫県,宝塚市,平井２丁目１１番２９号,,28,214,6650816,,,2024-01-29,清算の結了等,,,2015-10-05,1,,,,,キョウゾウトシシャ,0
997,4180001092478,登記記録の閉鎖等,0,2024-01-31,2024-01-26,株式会社クリエイト中部,,株式会社,愛知県,名古屋市南区,元柴田東町４丁目１５番地,,23,112,4570816,,,2024-01-26,清算の結了等,,,2015-10-05,1,,,,,クリエイトチュウブ,0
1003,4180301010924,登記記録の閉鎖等,0,2024-01-31,2024-01-19,株式会社蒲郡防災,,株式会社,愛知県,蒲郡市,形原町北双太山１２７番地,,23,214,4430104,,,2024-01-19,清算の結了等,,,2015-10-05,1,,,,,ガマゴオリボウサイ,0
1014,4210001000123,登記記録の閉鎖等,0,2024-01-31,2024-01-30,株式会社アイメイト,,株式会社,福井県,福井市,学園１丁目６番１４号,,18,201,9100028,,,2024-01-30,清算の結了等,,,2015-10-05,1,,,,,アイメイト,0
1017,4240001021513,登記記録の閉鎖等,0,2024-01-31,2024-01-15,株式会社Ｂｌｏｏｍ　Ｐｏｉｎｔ,,株式会社,広島県,広島市中区,舟入南４丁目１０番１０号,,34,101,7300847,,,2024-01-15,合併による解散等,5240001004797,令和６年１月１日広島市中区舟入南四丁目１５番１３号株式会社清水観光（5240001004797）に合併し解散,2015-10-05,1,,,,,ブルームポイント,0
1022,4240002050684,登記記録の閉鎖等,0,2024-01-31,2024-01-24,有限会社下前浩文堂,00001670,有限会社,広島県,尾道市,栗原東２丁目２番２４号,,34,205,7220025,,,2024-01-24,清算の結了等,,,2015-10-05,1,,,,,シモマエコウブンドウ,0
1033,4290002044319,登記記録の閉鎖等,0,2024-01-31,2024-01-29,有限会社フクダ技建,,有限会社,福岡県,嘉麻市,上臼井１２５０番地２,,40,227,8200502,,,2024-01-29,清算の結了等,,,2015-10-05,1,,,,,,0
1043,4350002002170,登記記録の閉鎖等,0,2024-01-31,2024-01-22,有限会社心鏡,,有限会社,宮崎県,宮崎市,小松台北町５番地１,,45,201,8802113,,,2024-01-22,清算の結了等,,,2015-10-05,1,,,,,シンキョウ,0
1053,4370002004982,登記記録の閉鎖等,0,2024-01-31,2024-01-29,有限会社光研舎,,有限会社,宮城県,仙台市若林区,六丁の目元町９番６号,,04,103,9840014,,,2024-01-29,清算の結了等,,,2015-10-05,1,,,,,コウケンシャ,0
1054,4370002019758,登記記録の閉鎖等,0,2024-01-31,2024-01-10,株式会社ムーブ,,株式会社,東京都,千代田区,神田三崎町２丁目１７番地８号,,13,101,1010061,,,2024-01-10,合併による解散等,3370001009397,令和６年１月１日仙台市青葉区中央二丁目６番３０号株式会社東邦ビル（3370001009397）に合併し解散,2015-10-05,1,,,,,ムーブ,0
1056,4370202005244,登記記録の閉鎖等,0,2024-01-31,2024-01-25,有限会社後藤工務店,,有限会社,宮城県,栗原市,瀬峰下藤沢４１番地３,,04,213,9894512,,,2024-01-25,清算の結了等,,,2015-10-05,1,,,,,ゴトウコウムテン,0
1058,4380001001039,登記記録の閉鎖等,0,2024-01-31,2024-01-29,東洋機設工業株式会社,,株式会社,福島県,福島市,飯坂町湯野字志和田１４番地の４,,07,201,9600211,,,2024-01-29,清算の結了等,,,2015-10-05,1,,,,,トウヨウキセツコウギョウ,0
1069,4410001004005,登記記録の閉鎖等,0,2024-01-31,2024-01-24,株式会社秋田ポートリー,,株式会社,秋田県,秋田市,桜２丁目１５番３０号,,05,201,0100042,,,2024-01-24,清算の結了等,,,2015-10-05,1,,,,,アキタポートリー,0
1072,4430001076604,登記記録の閉鎖等,0,2024-01-31,2024-01-29,株式会社トータル架設サービス,,株式会社,北海道,札幌市東区,東雁来八条４丁目１０番１０号ラポルトパース１－１０１号,,01,103,0070828,,,2024-01-29,清算の結了等,,,2018-05-17,1,,,,,トータルカセツサービス,0
1112,5010501041033,登記記録の閉鎖等,0,2024-01-31,2024-01-26,株式会社坂本エレベーターサービス,,株式会社,東京都,江東区,住吉２丁目１７番４号小暮ハイツ２階,,13,108,1350002,,,2024-01-26,清算の結了等,,,2017-05-11,1,,,,,サカモトエレベーターサービス,0
1113,5010601011877,登記記録の閉鎖等,0,2024-01-31,2024-01-31,株式会社小菅鉄工所,,株式会社,東京都,墨田区,立川２丁目１１番１７号,,13,107,1300023,,,2024-01-31,登記官による閉鎖,,,2015-10-05,1,,,,,,0
1115,5010601041552,登記記録の閉鎖等,0,2024-01-31,2024-01-31,にしき水産株式会社,,株式会社,東京都,江東区,木場２丁目１７番９号,,13,108,1350042,,,2024-01-31,登記官による閉鎖,,,2015-10-05,1,,,,,,0
1116,5010602002652,登記記録の閉鎖等,0,2024-01-31,2024-01-31,有限会社寿喜屋製作所,,有限会社,東京都,墨田区,東駒形２丁目５番４号,,13,107,1300005,,,2024-01-31,登記官による閉鎖,,,2015-10-05,1,,,,,,0
1117,5010602022155,登記記録の閉鎖等,0,2024-01-31,2024-01-31,有限会社エルマーナ,,有限会社,東京都,江東区,門前仲町２丁目２番６号,,13,108,1350048,,,2024-01-31,登記官による閉鎖,,,2015-10-05,1,,,,,,0
1118,5010602023467,登記記録の閉鎖等,0,2024-01-31,2024-01-31,有限会社三洋アート,,有限会社,東京都,江東区,南砂２丁目３番４－１２２５号,,13,108,1360076,,,2024-01-31,登記官による閉鎖,,,2015-10-05,1,,,,,,0
1119,5010602033680,登記記録の閉鎖等,0,2024-01-31,2024-01-31,有限会社ヨコケン商会,,有限会社,東京都,江東区,亀戸２丁目４５番２－７０３号,,13,108,1360071,,,2024-01-31,登記官による閉鎖,,,2015-10-05,1,,,,,,0
1120,5010603004937,登記記録の閉鎖等,0,2024-01-31,2024-01-31,はふさ合同会社,,合同会社,東京都,江東区,大島６丁目１番４－３２６号,,13,108,1360072,,,2024-01-31,登記官による閉鎖,,,2015-10-05,1,,,,,,0
1123,5010605002146,登記記録の閉鎖等,0,2024-01-31,2024-01-31,特定非営利活動法人こどもりクラブ,,その他の設立登記法人,東京都,江東区,佐賀１丁目１６番３号株式会社林材新聞社内,,13,108,1350031,,,2024-01-31,登記官による閉鎖,,,2015-10-05,1,,,,,,0
1125,5010901015297,登記記録の閉鎖等,0,2024-01-31,2024-01-29,株式会社健農技研,,株式会社,東京都,世田谷区,野沢３丁目２２番８号,,13,112,1540003,,,2024-01-29,清算の結了等,,,2015-10-05,1,,,,,,0
1128,5010903007177,登記記録の閉鎖等,0,2024-01-31,2024-01-29,合同会社ｈａｔａｋｅ,,合同会社,東京都,世田谷区,深沢７丁目７－５－３０１,,13,112,1580081,,,2024-01-29,清算の結了等,,,2022-02-28,1,,,,,ハタケ,0
1144,5011101056454,登記記録の閉鎖等,0,2024-01-31,2024-01-29,ティーズアソシエーション株式会社,,株式会社,東京都,新宿区,西新宿７丁目６－６新宿久川ビル７０１,,13,104,1600023,,,2024-01-29,清算の結了等,,,2015-10-05,1,,,,,ティーズアソシエーション,0
1146,5011201000493,登記記録の閉鎖等,0,2024-01-31,2024-01-31,株式会社一心食品,,株式会社,東京都,中野区,南台２丁目２９番３号,,13,114,1640014,,,2024-01-31,登記官による閉鎖,,,2015-10-05,1,,,,,,0
1147,5011201013215,登記記録の閉鎖等,0,2024-01-31,2024-01-31,株式会社ペーハースティック,,株式会社,東京都,中野区,丸山１丁目２０番２号,,13,114,1650021,,,2024-01-31,登記官による閉鎖,,,2015-10-05,1,,,,,,0
1148,5011201015319,登記記録の閉鎖等,0,2024-01-31,2024-01-31,株式会社エルクラウン,,株式会社,東京都,中野区,野方３丁目２５番８号,,13,114,1650027,,,2024-01-31,登記官による閉鎖,,,2015-10-05,1,,,,,,0
1149,5011202002720,登記記録の閉鎖等,0,2024-01-31,2024-01-31,有限会社三龍亭,,有限会社,東京都,中野区,上高田３丁目４０番５号,,13,114,1640002,,,2024-01-31,登記官による閉鎖,,,2015-10-05,1,,,,,,0
1150,5011202003702,登記記録の閉鎖等,0,2024-01-31,2024-01-31,有限会社高沢屋滝沢酒店,00054282,有限会社,東京都,中野区,南台２丁目４１番１６号,,13,114,1640014,,,2024-01-31,登記官による閉鎖,,,2015-10-05,1,,,,,,0
1151,5011205000408,登記記録の閉鎖等,0,2024-01-31,2024-01-31,特定非営利活動法人ペムドリーム,,その他の設立登記法人,東京都,中野区,中野３丁目４０番３１号,,13,114,1640001,,,2024-01-31,登記官による閉鎖,,,2015-10-05,1,,,,,,0
1152,5011205001380,登記記録の閉鎖等,0,2024-01-31,2024-01-31,特定非営利活動法人Ｋ＆Ｊ,,その他の設立登記法人,東京都,中野区,沼袋３丁目１６番１１号,,13,114,1650025,,,2024-01-31,登記官による閉鎖,,,2015-10-05,1,,,,,,0
1157,5011501000020,登記記録の閉鎖等,0,2024-01-31,2024-01-19,朝日動力株式会社,,株式会社,東京都,北区,赤羽北１丁目２４番８号,,13,117,1150052,,,2024-01-19,清算の結了等,,,2015-10-05,1,,,,,アサヒドウリョク,0
1167,5013301038892,登記記録の閉鎖等,0,2024-01-31,2024-01-04,アラベスク株式会社,,株式会社,東京都,豊島区,西池袋３丁目７番６号,,13,116,1710021,,,2024-01-04,合併による解散等,8013301038171,令和６年１月１日東京都豊島区西池袋三丁目７番６号ロンバート株式会社（8013301038171）に合併し解散,2016-05-25,1,,,,,アラベスク,0
1173,5020001094935,登記記録の閉鎖等,0,2024-01-31,2024-01-29,株式会社ｅ－ｗａｖｅ,,株式会社,神奈川県,横浜市都筑区,川和町２５７７－１０,,14,118,2240057,,,2024-01-29,清算の結了等,,,2015-10-05,1,,,,,イーウェーブ,0
1176,5021001006533,登記記録の閉鎖等,0,2024-01-31,2024-01-30,株式会社朝日新聞経営研究センター,,株式会社,神奈川県,茅ヶ崎市,西久保１３１２番地１,,14,207,2530083,,,2024-01-30,清算の結了等,,,2015-10-05,1,,,,,アサヒシンブンケイエイケンキュウセンター,0
1180,5021002059415,登記記録の閉鎖等,0,2024-01-31,2024-01-26,有限会社フエリーチエいゝ田,,有限会社,神奈川県,平塚市,桃浜町１６番５－２号,,14,203,2540815,,,2024-01-26,清算の結了等,,,2015-10-05,1,,,,,フエリーチエイイダ,0
1182,5021003012141,登記記録の閉鎖等,0,2024-01-31,2024-01-30,合同会社ホーププランニング,,合同会社,神奈川県,座間市,入谷東２丁目３２番１４号エールハイツ座間１０８号,,14,216,2520028,,,2024-01-30,清算の結了等,,,2022-10-25,1,,,,,ホーププランニング,0
1183,5021005002132,登記記録の閉鎖等,0,2024-01-31,2024-01-04,鎌倉漁業協同組合,,その他の設立登記法人,神奈川県,鎌倉市,坂ノ下３２番１３号,,14,204,2480021,,,2024-01-04,合併による解散等,6021005012989,令和６年１月４日神奈川県横須賀市佐島三丁目５番１号横須賀市大楠漁業協同組合（9021005007466）と神奈川県三浦郡葉山町堀内５０番地２０葉山町漁業協同組合（2021005007464）と神奈川県藤沢市辻堂東海岸四丁目３番２１号藤沢市漁業協同組合（9021005000413）と合併して神奈川県横須賀市佐島三丁目５番１号湘南漁業協同組合（6021005012989）を設立し解散,2015-10-05,1,,,,,カマクラ,0
1186,5030001011360,登記記録の閉鎖等,0,2024-01-31,2024-01-09,ダンロップタイヤ関東株式会社,,株式会社,埼玉県,桶川市,赤堀２丁目１番地の１,,11,231,3630002,,,2024-01-09,合併による解散等,4010601023832,令和６年１月１日東京都港区港南一丁目６番４１号芝浦クリスタル品川６階ダンロップタイヤ中央株式会社（4010601023832）に合併し解散,2015-10-05,1,,,,,ダンロップタイヤカントウ,0
1188,5030001025278,登記記録の閉鎖等,0,2024-01-31,2024-01-24,株式会社吉澤園,00014737,株式会社,埼玉県,所沢市,大字上山口１８２７番地,,11,208,3591153,,,2024-01-24,清算の結了等,,,2015-10-05,1,,,,,ヨシザワエン,0
1196,5040001040904,登記記録の閉鎖等,0,2024-01-31,2023-12-26,株式会社水源土地所有移行会社,,株式会社,千葉県,流山市,向小金３丁目１７９番地,,12,220,2700143,,,2023-12-26,合併による解散等,6040001131611,令和５年１２月２６日千葉県流山市向小金三丁目１７９番地株式会社水代ビル土地所有移行会社（2040001040948）及び千葉県流山市向小金三丁目１７９番地株式会社ＮＮＫ土地所有移行会社（1040001040949）と合併して千葉県流山市向小金三丁目１７９番地水代土地株式会社（6040001131611）を設立し解散,2015-10-05,1,,,,,スイゲントチショユウイコウガイシャ,0
1201,5040005008138,登記記録の閉鎖等,0,2024-01-31,2024-01-23,社会福祉法人千葉県社会福祉事業団,,その他の設立登記法人,千葉県,袖ケ浦市,蔵波字鎌倉街道３１０８番地の１,,12,229,2990243,,,2024-01-23,清算の結了等,,,2015-10-05,1,,,,,チバケンシャカイフクシジギョウダン,0
1209,5060002038648,登記記録の閉鎖等,0,2024-01-31,2024-01-29,赤見染工有限会社,,有限会社,栃木県,佐野市,出流原町１１４８番地,,09,204,3270102,,,2024-01-29,清算の結了等,,,2015-10-05,1,,,,,アカミセンコウ,0
1215,5080001025430,登記記録の閉鎖等,0,2024-01-31,2024-01-26,株式会社ヒロセ,,株式会社,静岡県,焼津市,小浜２０８番地５４,,22,212,4250011,,,2024-01-26,清算の結了等,,,2023-01-30,1,,,,,ヒロセ,0
1222,5100002023620,登記記録の閉鎖等,0,2024-01-31,2024-01-26,有限会社シーティーシー,,有限会社,長野県,安曇野市,穂高有明４９３２番地８,,20,220,3998301,,,2024-01-26,清算の結了等,,,2015-10-05,1,,,,,シーティーシー,0
1229,5120001076626,登記記録の閉鎖等,0,2024-01-31,2024-01-29,株式会社オペックス,,株式会社,三重県,名張市,桔梗が丘１番町六街区５２番地,,24,208,5180621,,,2024-01-29,清算の結了等,,,2015-10-05,1,,,,,オペックス,0
1230,5120001166674,登記記録の閉鎖等,0,2024-01-31,2024-01-29,株式会社順皇堂,,株式会社,兵庫県,尼崎市,東難波町５丁目３－１３,,28,202,6600892,,,2024-01-29,清算の結了等,,,2015-10-05,1,,,,,ジュンコウドウ,0
1269,5180002059178,登記記録の閉鎖等,0,2024-01-31,2024-01-25,有限会社ひかり不動産,,有限会社,愛知県,名古屋市中川区,荒子５丁目１６２番地,,23,110,4540869,,,2024-01-25,清算の結了等,,,2015-10-05,1,,,,,ヒカリフドウサン,0
1282,5190002019916,登記記録の閉鎖等,0,2024-01-31,2024-01-29,有限会社共栄熱学,,有限会社,三重県,三重郡菰野町,大字諏訪３１２９番地,,24,341,5101223,,,2024-01-29,清算の結了等,,,2015-10-05,1,,,,,キョウエイネツガク,0
1283,5190003003613,登記記録の閉鎖等,0,2024-01-31,2024-01-25,合同会社中橋工業,,合同会社,三重県,いなべ市,藤原町山口２０７９番地,,24,214,5110524,,,2024-01-25,清算の結了等,,,2021-03-04,1,,,,,ナカハシコウギョウ,0
1287,5220001017917,登記記録の閉鎖等,0,2024-01-31,2024-01-29,株式会社月野設備,,株式会社,石川県,河北郡内灘町,字鶴ケ丘５丁目１番地８３,,17,365,9200271,,,2024-01-29,清算の結了等,,,2015-10-05,1,,,,,ツキノセツビ,0
1291,5240001028193,登記記録の閉鎖等,0,2024-01-31,2024-01-23,株式会社ドライブイン岩倉,,株式会社,広島県,廿日市市,津田３２２２番地,,34,213,7380222,,,2024-01-23,清算の結了等,,,2015-10-05,1,,,,,ドライブインイワクラ,0
1302,5290002034806,登記記録の閉鎖等,0,2024-01-31,2024-01-29,有限会社廣栄建設,,有限会社,福岡県,宗像市,日の里８丁目１７番地１４,,40,220,8113425,,,2024-01-29,清算の結了等,,,2015-10-05,1,,,,,コウエイケンセツ,0
1307,5290801011708,登記記録の閉鎖等,0,2024-01-31,2024-01-17,九州採炭株式会社,,株式会社,福岡県,中間市,大字中間２５８８番地,,40,215,8090034,,,2024-01-17,登記官による閉鎖,,,2018-03-15,1,,,,,,0
1309,5290805008485,登記記録の閉鎖等,0,2024-01-31,2024-01-05,アーバンパレス曽根グランデ管理組合法人,,その他の設立登記法人,福岡県,北九州市小倉南区,下曽根４丁目１６番１号,,40,107,8000217,,,2024-01-05,清算の結了等,,,2015-10-05,1,,,,,アーバンパレスソネグランデ,0
1325,5370002002944,登記記録の閉鎖等,0,2024-01-31,2024-01-25,有限会社佐藤吉治商店,,有限会社,宮城県,仙台市太白区,西多賀３丁目６番４５号,,04,104,9820034,,,2024-01-25,清算の結了等,,,2015-10-05,1,,,,,サトウヨシジショウテン,0
1334,5390001004741,登記記録の閉鎖等,0,2024-01-31,2024-01-26,株式会社カデック,,株式会社,山形県,上山市,中山５６３３番地,,06,207,9993246,,,2024-01-26,合併による解散等,5390001004733,令和６年１月２５日山形県上山市中山５６３３番地株式会社カネト製作所（5390001004733）に合併し解散,2015-10-05,1,,,,,カデック,0
1340,5430001001222,登記記録の閉鎖等,0,2024-01-31,2024-01-26,株式会社レモンコーポレーション,,株式会社,北海道,札幌市中央区,南一条西２丁目１８番地,,01,101,0600061,,,2024-01-26,合併による解散等,1430001023765,令和６年１月２３日札幌市中央区南一条西二丁目１８番地株式会社丸ヨ池内（1430001023765）に合併し解散,2015-10-05,1,,,,,レモンコーポレーション,0
1345,5470001005095,登記記録の閉鎖等,0,2024-01-31,2024-01-09,ダンロップタイヤ四国株式会社,,株式会社,香川県,高松市,郷東町西新開３７１番地１,,37,201,7618031,,,2024-01-09,合併による解散等,4010601023832,令和６年１月１日東京都港区港南一丁目６番４１号芝浦クリスタル品川６階ダンロップタイヤ中央株式会社（4010601023832）に合併し解散,2015-10-05,1,,,,,ダンロップタイヤシコク,0
1349,5480001000657,登記記録の閉鎖等,0,2024-01-31,2024-01-30,株式会社コスモ・インテック,,株式会社,徳島県,徳島市,大和町１丁目５番４号,,36,201,7700864,,,2024-01-30,清算の結了等,,,2015-10-05,1,,,,,コスモインテック,0
1355,6010001112085,登記記録の閉鎖等,0,2024-01-31,2024-01-31,株式会社アートコレクション,,株式会社,東京都,中野区,新井２丁目２３番２号,,13,114,1650026,,,2024-01-31,登記官による閉鎖,,,2015-10-05,1,,,,,,0
1356,6010001166387,登記記録の閉鎖等,0,2024-01-31,2024-01-29,ｍｔｅｓ　Ｎｅｕｒａｌ　Ｎｅｔｗｏｒｋｓ株式会社,,株式会社,東京都,品川区,西五反田７丁目２２番１７号,,13,109,1410031,,,2024-01-29,清算の結了等,,,2015-10-05,1,,,,,エムテスニューラルネットワークス,0
1365,6010401051866,登記記録の閉鎖等,0,2024-01-31,2024-01-24,八重洲商事株式会社,,株式会社,東京都,中央区,八重洲１丁目４番１８号,,13,102,1030028,,,2024-01-24,清算の結了等,,,2015-10-05,1,,,,,ヤエスショウジ,0
1376,6010601023789,登記記録の閉鎖等,0,2024-01-31,2024-01-31,株式会社三京総本社,,株式会社,東京都,墨田区,本所２丁目１４番５号,,13,107,1300004,,,2024-01-31,登記官による閉鎖,,,2015-10-05,1,,,,,,0
1377,6010601029860,登記記録の閉鎖等,0,2024-01-31,2024-01-31,株式会社シーピーアイ企画,,株式会社,東京都,江東区,辰巳２丁目８番２１号,,13,108,1350053,,,2024-01-31,登記官による閉鎖,,,2015-10-05,1,,,,,,0
1378,6010601043184,登記記録の閉鎖等,0,2024-01-31,2024-01-31,株式会社ａｍｉ,,株式会社,東京都,江東区,亀戸３丁目１８番２号,,13,108,1360071,,,2024-01-31,登記官による閉鎖,,,2015-10-05,1,,,,,,0
1379,6010601044612,登記記録の閉鎖等,0,2024-01-31,2024-01-31,株式会社東忠ジャパン,,株式会社,東京都,江東区,亀戸９丁目６番１８号,,13,108,1360071,,,2024-01-31,登記官による閉鎖,,,2015-10-05,1,,,,,,0
1382,6010602001141,登記記録の閉鎖等,0,2024-01-31,2024-01-31,有限会社生駒軒,,有限会社,東京都,江東区,門前仲町２丁目７番２号,,13,108,1350048,,,2024-01-31,登記官による閉鎖,,,2015-10-05,1,,,,,,0
1383,6010602008905,登記記録の閉鎖等,0,2024-01-31,2024-01-31,小川化学有限会社,,有限会社,東京都,墨田区,東墨田３丁目１５番１５号,,13,107,1310042,,,2024-01-31,登記官による閉鎖,,,2015-10-05,1,,,,,,0
1384,6010602009044,登記記録の閉鎖等,0,2024-01-31,2024-01-31,有限会社飯田立花オート,,有限会社,東京都,墨田区,立花２丁目１番２号,,13,107,1310043,,,2024-01-31,登記官による閉鎖,,,2015-10-05,1,,,,,,0
1385,6010602010134,登記記録の閉鎖等,0,2024-01-31,2024-01-31,有限会社笠原玩具製作所,,有限会社,東京都,墨田区,立花３丁目２７番８号,,13,107,1310043,,,2024-01-31,登記官による閉鎖,,,2015-10-05,1,,,,,,0
1386,6010602014028,登記記録の閉鎖等,0,2024-01-31,2024-01-31,有限会社高橋時計店,,有限会社,東京都,墨田区,石原２丁目１８番７号,,13,107,1300011,,,2024-01-31,登記官による閉鎖,,,2015-10-05,1,,,,,,0
1387,6010605001766,登記記録の閉鎖等,0,2024-01-31,2024-01-31,特定非営利活動法人全国自動車教習所個人情報協会,,その他の設立登記法人,東京都,墨田区,菊川３丁目２１番１１号レジデンス須賀菊川２０４号,,13,107,1300024,,,2024-01-31,登記官による閉鎖,,,2015-10-05,1,,,,,,0
1388,6010605002657,登記記録の閉鎖等,0,2024-01-31,2024-01-31,一般社団法人愛の手,,その他の設立登記法人,東京都,江東区,海辺１５番５号,,13,108,1350012,,,2024-01-31,登記官による閉鎖,,,2015-10-05,1,,,,,,0
1405,6011101042602,登記記録の閉鎖等,0,2024-01-31,2024-01-29,株式会社モンズコーポレーション,,株式会社,東京都,葛飾区,白鳥３丁目１５－８－２Ｆ,,13,122,1250063,,,2024-01-29,清算の結了等,,,2015-10-05,1,,,,,,0
1410,6011202006563,登記記録の閉鎖等,0,2024-01-31,2024-01-31,有限会社リファイン社,00054329,有限会社,東京都,中野区,東中野４丁目４番５－３０２号,,13,114,1640003,,,2024-01-31,登記官による閉鎖,,,2015-10-05,1,,,,,,0
1411,6011202011299,登記記録の閉鎖等,0,2024-01-31,2024-01-31,エリオン有限会社,,有限会社,東京都,中野区,野方２丁目２２番５号,,13,114,1650027,,,2024-01-31,登記官による閉鎖,,,2015-10-05,1,,,,,,0
1427,6012401034454,登記記録の閉鎖等,0,2024-01-31,2024-01-26,株式会社Ｄｒｅａｍ　Ｓｅｅｄ　Ｃｏｎｎｅｃｔ,,株式会社,東京都,調布市,調布ケ丘１丁目５番地１国立大学法人電気通信大学内,,13,208,1820021,,,2024-01-26,清算の結了等,,,2018-09-27,1,,,,,ドリームシードコネクト,0
1431,6012701007440,登記記録の閉鎖等,0,2024-01-31,2024-01-29,株式会社光和地所,,株式会社,東京都,東村山市,久米川町３丁目２７番地３６,,13,213,1890003,,,2024-01-29,清算の結了等,,,2015-10-05,1,,,,,,0
1434,6012803002744,登記記録の閉鎖等,0,2024-01-31,2024-01-29,合同会社Ｗｉｎ　Ｓｔａｃｋ,,合同会社,東京都,立川市,栄町５丁目４５番３６号,,13,202,1900003,,,2024-01-29,清算の結了等,,,2022-04-06,1,,,,,ウィンスタック,0
1436,6013301041284,登記記録の閉鎖等,0,2024-01-31,2024-01-22,株式会社アメニモ,,株式会社,東京都,豊島区,駒込２丁目３番３号,,13,116,1700003,,,2024-01-22,清算の結了等,,,2017-10-24,1,,,,,アメニモ,0
1441,6020001111243,登記記録の閉鎖等,0,2024-01-31,2024-01-29,株式会社千田屋,,株式会社,神奈川県,横浜市旭区,さちが丘１５７番地２０,,14,112,2410822,,,2024-01-29,清算の結了等,,,2015-10-05,1,,,,,チダヤ,0
1453,6030001045845,登記記録の閉鎖等,0,2024-01-31,2024-01-24,株式会社志賀工務店,,株式会社,埼玉県,新座市,池田４丁目８番３号,,11,230,3520015,,,2024-01-24,清算の結了等,,,2015-10-05,1,,,,,シガコウムテン,0
1457,6030001127783,登記記録の閉鎖等,0,2024-01-31,2024-01-26,Ｋ・Ｙプロデュース株式会社,,株式会社,埼玉県,さいたま市北区,大成町４丁目８００－１－３０２,,11,102,3310815,,,2024-01-26,清算の結了等,,,2018-10-11,1,,,,,ケイワイプロデュース,0
1468,6040002043731,登記記録の閉鎖等,0,2024-01-31,2024-01-22,有限会社デザイン宇田川,,有限会社,千葉県,鎌ケ谷市,西道野辺２番１０－１０３号,,12,224,2730117,,,2024-01-22,清算の結了等,,,2015-10-05,1,,,,,デザインウダガワ,0
1475,6040005018499,登記記録の閉鎖等,0,2024-01-31,2024-01-22,ＮＰＯ法人グッドライフ,,その他の設立登記法人,千葉県,野田市,三ツ堀１２２番地,,12,208,2780011,,,2024-01-22,清算の結了等,,,2015-10-05,1,,,,,グッドライフ,0
1481,6060002014425,登記記録の閉鎖等,0,2024-01-31,2024-01-29,有限会社関東ニューキャリーサービス,,有限会社,栃木県,那須烏山市,中央１丁目１９番２号,,09,215,3210621,,,2024-01-29,清算の結了等,,,2015-10-05,1,,,,,カントウニューキャリーサービス,0
1485,6070002035552,登記記録の閉鎖等,0,2024-01-31,2024-01-26,有限会社ゲンポー塗装店,,有限会社,群馬県,利根郡みなかみ町,湯原１０９番地の３,,10,449,3791617,,,2024-01-26,清算の結了等,,,2015-10-05,1,,,,,ゲンポートソウテン,0
1488,6080101001396,登記記録の閉鎖等,0,2024-01-31,2024-01-23,株式会社ニシヤ,,株式会社,静岡県,沼津市,大門町４０番地,,22,203,4100883,,,2024-01-23,清算の結了等,,,2015-10-05,1,,,,,ニシヤ,0
1505,6110005003519,登記記録の閉鎖等,0,2024-01-31,2023-12-27,高志王神社,,その他の設立登記法人,新潟県,東蒲原郡阿賀町,津川古四王１４８９番地,,15,385,9594402,,,2023-12-27,合併による解散等,9110005003524,令和５年１２月２７日新潟県東蒲原郡阿賀町津川伊勢ノ宮３７１８番地神明神社（9110005003524）に合併し解散,2015-10-05,1,,,,,コシオウジンジャ,0
1518,6120003018930,登記記録の閉鎖等,0,2024-01-31,2024-01-24,Ｍ＆Ｋ合同会社,,合同会社,大阪府,大阪市平野区,加美鞍作１丁目２番１６号－５０１,,27,126,5470004,,,2024-01-24,清算の結了等,,,2021-02-24,1,,,,,エムアンドケイ,0
1520,6120101067796,登記記録の閉鎖等,0,2024-01-31,2024-01-30,ＮＳＫＯ株式会社,,株式会社,大阪府,堺市堺区,熊野町西３丁２番７号,,27,141,5900947,,,2024-01-30,清算の結了等,,,2023-06-29,1,,,,,エヌエスケーオー,0
1522,6130001065800,登記記録の閉鎖等,0,2024-01-31,2024-01-29,株式会社ｈｏｐｅ,,株式会社,京都府,亀岡市,曽我部町寺長縄手１２－１６,,26,206,6210023,,,2024-01-29,清算の結了等,,,2019-11-28,1,,,,,ホープ,0
1524,6140001093767,登記記録の閉鎖等,0,2024-01-31,2024-01-29,株式会社春山機械,,株式会社,兵庫県,加古川市,志方町志方町７６,,28,210,6750321,,,2024-01-29,清算の結了等,,,2015-10-05,1,,,,,,0
1525,6140001121321,登記記録の閉鎖等,0,2024-01-31,2024-01-26,株式会社Ｆｅｉｎ,,株式会社,兵庫県,神戸市北区,鈴蘭台東町５丁目４番２７号,,28,109,6511112,,,2024-01-26,清算の結了等,,,2021-04-21,1,,,,,ファイン,0
1556,6230001003196,登記記録の閉鎖等,0,2024-01-31,2024-01-26,株式会社明文堂,,株式会社,富山県,富山市,太郎丸西町１丁目１６番１,,16,201,9398271,,,2024-01-26,合併による解散等,2230001016202,令和６年１月１日富山県黒部市前沢４３７１番地株式会社トヨックスホールディングス（2230001016202）に合併し解散,2015-10-05,1,,,,,メイブンドウ,0
1563,6280001005130,登記記録の閉鎖等,0,2024-01-31,2024-01-29,株式会社益田スイミング,,株式会社,島根県,益田市,あけぼの西町５番地５,,32,204,6980025,,,2024-01-29,清算の結了等,,,2015-10-05,1,,,,,マスダスイミング,0
1572,6290005005282,登記記録の閉鎖等,0,2024-01-31,2024-01-22,特定非営利活動法人ほたるビオトープ研究会,,その他の設立登記法人,福岡県,福岡市早良区,荒江３丁目３２番２３－４０１号,,40,137,8140021,,,2024-01-22,清算の結了等,,,2015-10-05,1,,,,,ホタルビオトープケンキュウカイ,0
1603,6430001036779,登記記録の閉鎖等,0,2024-01-31,2024-01-26,株式会社ユウ企画,,株式会社,北海道,札幌市北区,新琴似一条８丁目１２番１号,,01,102,0010901,,,2024-01-26,清算の結了等,,,2015-10-05,1,,,,,ユウキカク,0
1607,6460303000315,登記記録の閉鎖等,0,2024-01-31,2024-01-30,ＨＴソリューション合同会社,,合同会社,北海道,北見市,公園町１６１番地７,,01,208,0900015,,,2024-01-30,清算の結了等,,,2015-10-05,1,,,,,エイチティソリューション,0
1610,6470002005663,登記記録の閉鎖等,0,2024-01-31,2024-01-29,有限会社日の出タクシー,,有限会社,香川県,高松市,亀井町１２番地４,,37,201,7600050,,,2024-01-29,清算の結了等,,,2015-10-05,1,,,,,,0
1635,7010102000064,登記記録の閉鎖等,0,2024-01-31,2024-01-26,有限会社アイ・ケイコーポレーション,,有限会社,東京都,八王子市,南大沢２丁目２番地パオレビル,,13,201,1920364,,,2024-01-26,清算の結了等,,,2015-10-05,1,,,,,アイケイコーポレーション,0
1648,7010601009655,登記記録の閉鎖等,0,2024-01-31,2024-01-31,株式会社マルアスポーツニツト,,株式会社,東京都,江東区,森下５丁目１１番４号,,13,108,1350004,,,2024-01-31,登記官による閉鎖,,,2015-10-05,1,,,,,,0
1649,7010601031428,登記記録の閉鎖等,0,2024-01-31,2024-01-31,株式会社ヨシブラザース,,株式会社,東京都,墨田区,両国２丁目４番２号,,13,107,1300026,,,2024-01-31,登記官による閉鎖,,,2015-10-05,1,,,,,,0
1650,7010601032938,登記記録の閉鎖等,0,2024-01-31,2024-01-31,株式会社日本アプレイズ,,株式会社,東京都,江東区,東陽３丁目９番２号,,13,108,1350016,,,2024-01-31,登記官による閉鎖,,,2015-10-05,1,,,,,,0
1651,7010601035908,登記記録の閉鎖等,0,2024-01-31,2024-01-31,株式会社Ｇｌｏｂａｌ　Ｏｐｅｒａｔｉｏｎ　Ｓｅｒｖｉｃｅ,,株式会社,東京都,江東区,有明３丁目１番２５号有明フロンティアビルＢ棟９階,,13,108,1350063,,,2024-01-31,登記官による閉鎖,,,2015-10-05,1,,,,,,0
1652,7010601040874,登記記録の閉鎖等,0,2024-01-31,2024-01-31,株式会社コムズＦＰ事務所,,株式会社,東京都,江東区,富岡１丁目２６番１５号,,13,108,1350047,,,2024-01-31,登記官による閉鎖,,,2015-10-05,1,,,,,,0
1654,7010602021733,登記記録の閉鎖等,0,2024-01-31,2024-01-31,有限会社リタ印刷,,有限会社,東京都,墨田区,石原１丁目４番３号,,13,107,1300011,,,2024-01-31,登記官による閉鎖,,,2015-10-05,1,,,,,,0
1655,7010602027210,登記記録の閉鎖等,0,2024-01-31,2024-01-31,有限会社トミオカ,,有限会社,東京都,江東区,富岡１丁目２６番１３号,,13,108,1350047,,,2024-01-31,登記官による閉鎖,,,2018-11-09,1,,,,,トミオカ,0
1656,7010602027813,登記記録の閉鎖等,0,2024-01-31,2024-01-31,有限会社ニッソーエンタープライズ,,有限会社,東京都,江東区,南砂２丁目１番８,,13,108,1360076,,,2024-01-31,登記官による閉鎖,,,2015-10-05,1,,,,,,0
1657,7010602031848,登記記録の閉鎖等,0,2024-01-31,2024-01-31,有限会社ナカコーポレーション,,有限会社,東京都,墨田区,江東橋４丁目１０番１２号,,13,107,1300022,,,2024-01-31,登記官による閉鎖,,,2015-10-05,1,,,,,,0
1681,7011201015597,登記記録の閉鎖等,0,2024-01-31,2024-01-31,株式会社ライト,,株式会社,東京都,中野区,中央４丁目１３番１２号,,13,114,1640011,,,2024-01-31,登記官による閉鎖,,,2015-10-05,1,,,,,,0
1682,7011201015845,登記記録の閉鎖等,0,2024-01-31,2024-01-31,株式会社テミス探偵事務所,,株式会社,東京都,中野区,中央４丁目４４番１４号,,13,114,1640011,,,2024-01-31,登記官による閉鎖,,,2015-10-05,1,,,,,,0
1683,7011201016760,登記記録の閉鎖等,0,2024-01-31,2024-01-31,株式会社トータルライフ,,株式会社,東京都,中野区,中野５丁目１２－１３,,13,114,1640001,,,2024-01-31,登記官による閉鎖,,,2015-10-05,1,,,,,,0
1684,7011202001225,登記記録の閉鎖等,0,2024-01-31,2024-01-31,有限会社鳳,,有限会社,東京都,中野区,沼袋１丁目１９番７号,,13,114,1650025,,,2024-01-31,登記官による閉鎖,,,2015-10-05,1,,,,,,0
1685,7011302009135,登記記録の閉鎖等,0,2024-01-31,2024-01-23,有限会社ヒオーギ,,有限会社,東京都,立川市,曙町１丁目８番１３号,00127478,13,202,1900012,,,2024-01-23,清算の結了等,,,2015-10-05,1,,,,,ヒオーギ,0
1690,7011801002020,登記記録の閉鎖等,0,2024-01-31,2024-01-29,信光化学工業株式会社,,株式会社,東京都,葛飾区,白鳥４丁目７番９号,,13,122,1250063,,,2024-01-29,清算の結了等,,,2015-10-05,1,,,,,シンコウカガクコウギョウ,0
1702,7013305000319,登記記録の閉鎖等,0,2024-01-31,2024-01-26,医療法人社団大友会,,その他の設立登記法人,東京都,豊島区,東池袋３丁目１番１号サンシャイン６０（７階）,,13,116,1700013,,,2024-01-26,清算の結了等,,,2015-10-05,1,,,,,ダイユウカイ,0
1711,7020005014433,登記記録の閉鎖等,0,2024-01-31,2024-01-29,医療法人社団ＣＭＳ,,その他の設立登記法人,神奈川県,横浜市都筑区,中川中央１丁目１番５号ＹＯＴＳＵＢＡＫＯ５－Ａ,,14,118,2240003,,,2024-01-29,清算の結了等,,,2019-12-09,1,,,,,シーエムエス,0
1714,7021001029722,登記記録の閉鎖等,0,2024-01-31,2024-01-30,株式会社イルマーレ,,株式会社,神奈川県,大和市,深見西２丁目７番４号,,14,213,2420018,,,2024-01-30,清算の結了等,,,2015-10-05,1,,,,,イルマーレ,0
1721,7030001038451,登記記録の閉鎖等,0,2024-01-31,2024-01-26,株式会社ハクト,,株式会社,埼玉県,吉川市,大字三輪野江１６５１番地２,,11,243,3420027,,,2024-01-26,清算の結了等,,,2015-10-05,1,,,,,ハクト,0
1740,7060001021297,登記記録の閉鎖等,0,2024-01-31,2024-01-29,株式会社サンコー商事,,株式会社,栃木県,佐野市,大橋町９９９番地３,,09,204,3270003,,,2024-01-29,清算の結了等,,,2015-10-05,1,,,,,サンコーショウジ,0
1747,7080403004146,登記記録の閉鎖等,0,2024-01-31,2024-01-18,合同会社ＡＬＰ,,合同会社,静岡県,浜松市中央区,楊子町１７－４,,22,138,4300855,,,2024-01-18,清算の結了等,,,2020-11-02,1,,,,,アルプ,0
1752,7120001014501,登記記録の閉鎖等,0,2024-01-31,2024-01-29,株式会社岡俊,,株式会社,大阪府,門真市,北巣本町１８番２１号,,27,223,5710073,,,2024-01-29,清算の結了等,,,2015-10-05,1,,,,,オカトシ,0
1776,7130001007743,登記記録の閉鎖等,0,2024-01-31,2024-01-29,株式会社京都リゼ,,株式会社,京都府,京都市左京区,下鴨北茶ノ木町７番地,,26,103,6060844,,,2024-01-29,清算の結了等,,,2015-10-05,1,,,,,キョウトリゼ,0
1785,7140003003112,登記記録の閉鎖等,0,2024-01-31,2024-01-29,合同会社一瀬船具店,,合同会社,兵庫県,神戸市長田区,東尻池町４丁目２番２７号,,28,106,6530022,,,2024-01-29,清算の結了等,,,2015-10-05,1,,,,,イチセセングテン,0
1789,7180001057759,登記記録の閉鎖等,0,2024-01-31,2024-01-16,株式会社アサヒコーポレーション,,株式会社,愛知県,名古屋市守山区,大字下志段味字池田８１０番地,,23,113,4630003,,,2024-01-16,登記官による閉鎖,,,2015-10-05,1,,,,,,0
1790,7180001101319,登記記録の閉鎖等,0,2024-01-31,2024-01-23,株式会社宇佐見ＰＰＫサポート,,株式会社,愛知県,名古屋市守山区,喜多山１丁目４１８番地,,23,113,4630017,,,2024-01-23,清算の結了等,,,2015-10-05,1,,,,,ウサミピーピーケイサポート,0
1811,7190001008819,登記記録の閉鎖等,0,2024-01-31,2024-01-19,丸福食品株式会社,,株式会社,大阪府,大阪市生野区,中川５丁目１２番７号,,27,116,5440005,,,2024-01-19,合併による解散等,9122001002186,令和６年１月１９日大阪市生野区中川五丁目１２番７号株式会社グローバルフーズ（9122001002186）に合併し解散,2015-10-05,1,,,,,マルフクショクヒン,0
1829,7290001051412,登記記録の閉鎖等,0,2024-01-31,2024-01-29,株式会社井上園芸,,株式会社,福岡県,久留米市,田主丸町牧１２４５番地１,,40,203,8391224,,,2024-01-29,清算の結了等,,,2015-10-05,1,,,,,イノウエエンゲイ,0
1835,7290002044398,登記記録の閉鎖等,0,2024-01-31,2024-01-29,有限会社松尾工業,,有限会社,福岡県,飯塚市,長尾６５３番地,,40,205,8200701,,,2024-01-29,清算の結了等,,,2015-10-05,1,,,,,マツオコウギョウ,0
1845,7330001014190,登記記録の閉鎖等,0,2024-01-31,2024-01-25,さとう商事株式会社,,株式会社,熊本県,葦北郡芦北町,大字湯浦２３３番地２６,,43,482,8695563,,,2024-01-25,清算の結了等,,,2015-10-05,1,,,,,サトウショウジ,0
1850,7360001025045,登記記録の閉鎖等,0,2024-01-31,2024-01-29,株式会社石垣会館,,株式会社,沖縄県,石垣市,字平得５４５番地２０ヴィレッジハウス石垣島５０３,,47,207,9070003,,,2024-01-29,清算の結了等,,,2019-01-08,1,,,,,,0
1857,7370002020812,登記記録の閉鎖等,0,2024-01-31,2024-01-30,有限会社夢企画,,有限会社,宮城県,仙台市太白区,東大野田１４番３１号,,04,104,9820004,,,2024-01-30,清算の結了等,,,2015-10-05,1,,,,,ユメキカク,0
1858,7370003003873,登記記録の閉鎖等,0,2024-01-31,2024-01-29,仙南パソコン合同会社,,合同会社,宮城県,柴田郡柴田町,西船迫４丁目２番地５１,,04,323,9891622,,,2024-01-29,清算の結了等,,,2017-07-21,1,,,,,センナンパソコン,0
1864,7390001016594,登記記録の閉鎖等,0,2024-01-31,2024-01-30,株式会社クラシアル,,株式会社,山形県,山形市,東原町４丁目１２番地２２号庄司ビル２Ｆ,,06,201,9900034,,,2024-01-30,清算の結了等,,,2021-09-13,1,,,,,クラシアル,0
1870,7430002025598,登記記録の閉鎖等,0,2024-01-31,2024-01-24,有限会社丸寿太平洋商事,,有限会社,北海道,札幌市西区,西野四条２丁目７番３５号,,01,107,0630034,,,2024-01-24,清算の結了等,,,2015-10-05,1,,,,,マルジュタイヘイヨウショウジ,0
1873,7470001010606,登記記録の閉鎖等,0,2024-01-31,2024-01-30,株式会社高谷冷機,,株式会社,香川県,観音寺市,柞田町乙７３７番地１,,37,205,7680040,,,2024-01-30,清算の結了等,,,2015-10-05,1,,,,,タカタニレイキ,0
1894,8010401087735,登記記録の閉鎖等,0,2024-01-31,2024-01-31,株式会社アテインマネージメントジャパン,,株式会社,東京都,江東区,東砂８丁目２１番１号メゾンＭ１０１,,13,108,1360074,,,2024-01-31,登記官による閉鎖,,,2015-10-05,1,,,,,,0
1897,8010401145501,登記記録の閉鎖等,0,2024-01-31,2024-01-24,株式会社Ｃｙｐｈｅｒｄａｗｎ,,株式会社,埼玉県,さいたま市大宮区,吉敷町１丁目１０３番地,,11,103,3300843,,,2024-01-24,清算の結了等,,,2019-05-16,1,,,,,サイファードーン,0
1903,8010405007549,登記記録の閉鎖等,0,2024-01-31,2024-01-26,特定非営利活動法人国際変動研究所,,その他の設立登記法人,神奈川県,横浜市青葉区,藤が丘２丁目３７番地２６,,14,117,2270043,,,2024-01-26,清算の結了等,,,2015-10-05,1,,,,,コクサイヘンドウケンキュウジョ,0
1905,8010601011164,登記記録の閉鎖等,0,2024-01-31,2024-01-31,株式会社坂田三商店,,株式会社,東京都,墨田区,亀沢３丁目２０番３号,,13,107,1300014,,,2024-01-31,登記官による閉鎖,,,2015-10-05,1,,,,,,0
1906,8010601014968,登記記録の閉鎖等,0,2024-01-31,2024-01-31,株式会社ナカヤ楽器店,,株式会社,東京都,墨田区,向島２丁目２１番５号,,13,107,1310033,,,2024-01-31,登記官による閉鎖,,,2015-10-05,1,,,,,,0
1907,8010601016997,登記記録の閉鎖等,0,2024-01-31,2024-01-31,株式会社レーザーオート,,株式会社,東京都,墨田区,石原３丁目３４番２号,,13,107,1300011,,,2024-01-31,登記官による閉鎖,,,2015-10-05,1,,,,,,0
1908,8010601027094,登記記録の閉鎖等,0,2024-01-31,2024-01-29,株式会社エースファイブ,,株式会社,東京都,墨田区,八広２丁目５６番３－４０３号,,13,107,1310041,,,2024-01-29,清算の結了等,,,2015-10-05,1,,,,,,0
1910,8010602010082,登記記録の閉鎖等,0,2024-01-31,2024-01-31,有限会社加賀建設,,有限会社,東京都,墨田区,八広１丁目２４番６号,,13,107,1310041,,,2024-01-31,登記官による閉鎖,,,2015-10-05,1,,,,,,0
1911,8010602016419,登記記録の閉鎖等,0,2024-01-31,2024-01-31,有限会社モロ,,有限会社,東京都,墨田区,吾妻橋２丁目９番８－１０３号,,13,107,1300001,,,2024-01-31,登記官による閉鎖,,,2015-10-05,1,,,,,,0
1912,8010602018844,登記記録の閉鎖等,0,2024-01-31,2024-01-31,有限会社黒船,,有限会社,東京都,墨田区,本所３丁目２４番１号,,13,107,1300004,,,2024-01-31,登記官による閉鎖,,,2015-10-05,1,,,,,クロフネ,0
1913,8010602025659,登記記録の閉鎖等,0,2024-01-31,2024-01-31,有限会社エスアイシステム,,有限会社,東京都,江東区,豊洲１丁目３番２－１５０４号,,13,108,1350061,,,2024-01-31,登記官による閉鎖,,,2015-10-05,1,,,,,,0
1914,8010602026384,登記記録の閉鎖等,0,2024-01-31,2024-01-31,有限会社永嶋照治商店,,有限会社,東京都,墨田区,菊川２丁目１番１５号,,13,107,1300024,,,2024-01-31,登記官による閉鎖,,,2015-10-05,1,,,,,,0
1915,8010605000659,登記記録の閉鎖等,0,2024-01-31,2024-01-31,アクトフレッシュ協同組合,,その他の設立登記法人,東京都,墨田区,両国２丁目１８番１号,,13,107,1300026,,,2024-01-31,登記官による閉鎖,,,2015-10-05,1,,,,,,0
1936,8011201004962,登記記録の閉鎖等,0,2024-01-31,2024-01-31,株式会社ボイスタウン,,株式会社,東京都,中野区,新井１丁目１４番１号,,13,114,1650026,,,2024-01-31,登記官による閉鎖,,,2015-10-05,1,,,,,,0
1937,8011201011884,登記記録の閉鎖等,0,2024-01-31,2024-01-31,宴会王株式会社,,株式会社,東京都,中野区,中野２丁目２９番５号,,13,114,1640001,,,2024-01-31,登記官による閉鎖,,,2015-10-05,1,,,,,,0
1938,8011201014714,登記記録の閉鎖等,0,2024-01-31,2024-01-31,株式会社ＫＢＳ,,株式会社,東京都,中野区,中央２丁目３０番９号,,13,114,1640011,,,2024-01-31,登記官による閉鎖,,,2015-10-05,1,,,,,,0
1940,8011202000580,登記記録の閉鎖等,0,2024-01-31,2024-01-31,有限会社石山プレス,,有限会社,東京都,中野区,中央５丁目２４番７号,,13,114,1640011,,,2024-01-31,登記官による閉鎖,,,2015-10-05,1,,,,,,0
1941,8011202003947,登記記録の閉鎖等,0,2024-01-31,2024-01-31,有限会社ティー・ケィ・ディー,,有限会社,東京都,中野区,大和町２丁目１９番９号,,13,114,1650034,,,2024-01-31,登記官による閉鎖,,,2015-10-05,1,,,,,,0
1942,8011202012329,登記記録の閉鎖等,0,2024-01-31,2024-01-31,有限会社オーロラ・グラフィック,,有限会社,東京都,中野区,上高田３丁目３８番５号,,13,114,1640002,,,2024-01-31,登記官による閉鎖,,,2015-10-05,1,,,,,,0
1946,8011501014273,登記記録の閉鎖等,0,2024-01-31,2024-01-22,株式会社ジールバンガット,,株式会社,東京都,北区,東田端２丁目１０番３号,,13,117,1140013,,,2024-01-22,清算の結了等,,,2015-10-05,1,,,,,ジールバンガット,0
1949,8011503002210,登記記録の閉鎖等,0,2024-01-31,2024-01-22,合同会社シンクヴァイブ,,合同会社,東京都,北区,西ケ原１丁目５２番１４号,,13,117,1140024,,,2024-01-22,清算の結了等,,,2015-10-05,1,,,,,,0
1953,8011801004230,登記記録の閉鎖等,0,2024-01-31,2024-01-22,株式会社福井工務店,,株式会社,千葉県,松戸市,二ツ木４８２番地３,,12,207,2700027,,,2024-01-22,清算の結了等,,,2015-10-05,1,,,,,フクイコウムテン,0
1997,8040002090350,登記記録の閉鎖等,0,2024-01-31,2024-01-22,ジャパンアールベンディング有限会社,,有限会社,千葉県,柏市,豊四季９４５番地の２６４,,12,217,2770863,,,2024-01-22,清算の結了等,,,2015-10-05,1,,,,,ジャパンアールベンディング,0
2000,8050001023194,登記記録の閉鎖等,0,2024-01-31,2024-01-30,株式会社三和電機,,株式会社,茨城県,日立市,諏訪町１丁目１７番３号,,08,202,3160001,,,2024-01-30,清算の結了等,,,2015-10-05,1,,,,,サンワデンキ,0
2004,8070001037928,登記記録の閉鎖等,0,2024-01-31,2024-01-25,株式会社令,,株式会社,群馬県,吾妻郡嬬恋村,大字田代１０１７番地８８,,10,425,3771614,,,2024-01-25,清算の結了等,,,2021-04-20,1,,,,,レイ,0
2011,8100002015103,登記記録の閉鎖等,0,2024-01-31,2024-01-26,有限会社清水電気商会,,有限会社,長野県,上田市,真田町本原１７５８番地,,20,203,3862202,,,2024-01-26,清算の結了等,,,2015-10-05,1,,,,,シミズデンキショウカイ,0
2023,8120003008715,登記記録の閉鎖等,0,2024-01-31,2024-01-24,合同会社ジェミニス・ミュージアム,,合同会社,大阪府,大阪市中央区,南船場４丁目１１番５号,,27,128,5420081,,,2024-01-24,清算の結了等,,,2015-10-05,1,,,,,ジェミニスミュージアム,0
2040,8130001049818,登記記録の閉鎖等,0,2024-01-31,2024-01-29,株式会社ＥＮＳＯＵ,,株式会社,京都府,亀岡市,大井町並河鎌又１０番１号,,26,206,6210013,,,2024-01-29,清算の結了等,,,2015-10-05,1,,,,,,0
2044,8140001114991,登記記録の閉鎖等,0,2024-01-31,2024-01-25,株式会社ＨＧＣマネジメント,,株式会社,兵庫県,神戸市中央区,加納町４丁目２番１号神戸三宮阪急ビル,,28,110,6500001,,,2024-01-25,清算の結了等,,,2019-09-30,1,,,,,エイチジーシーマネジメント,0
2054,8180001097515,登記記録の閉鎖等,0,2024-01-31,2024-01-16,株式会社アール・ケーニーズ,,株式会社,愛知県,海部郡蟹江町,本町片堀４３番地,,23,425,4970038,,,2024-01-16,登記官による閉鎖,,,2015-10-05,1,,,,,,0
2063,8180005002512,登記記録の閉鎖等,0,2024-01-31,2024-01-04,医療法人社団明創会,,その他の設立登記法人,愛知県,名古屋市中区,栄４丁目１４番６号アスタープラザビル４Ｆ,,23,106,4600008,,,2024-01-04,合併による解散等,8180005007809,令和６年１月４日名古屋市名東区引山二丁目１１０番地医療法人社団明照会（8180005007809）に合併し解散,2015-10-05,1,,,,,メイソウカイ,0
2092,8310005004577,登記記録の閉鎖等,0,2024-01-31,2024-01-30,医療法人はらだ小児科医院,,その他の設立登記法人,長崎県,諫早市,久山台９番地１,,42,204,8540067,,,2024-01-30,清算の結了等,,,2015-10-05,1,,,,,ハラダショウニカイイン,0
2093,8320002003300,登記記録の閉鎖等,0,2024-01-31,2024-01-26,有限会社滋野米穀店,,有限会社,大分県,大分市,大字上戸次４７４４番地の４,,44,201,8797764,,,2024-01-26,清算の結了等,,,2015-10-05,1,,,,,,0
2098,8330002027380,登記記録の閉鎖等,0,2024-01-31,2024-01-29,有限会社泉屋支店,,有限会社,熊本県,八代市,日奈久上西町５００番地,,43,202,8695134,,,2024-01-29,清算の結了等,,,2015-10-05,1,,,,,イズミヤシテン,0
2101,8340005008253,登記記録の閉鎖等,0,2024-01-31,2024-01-30,一般社団法人二幸会,,その他の設立登記法人,鹿児島県,鹿児島市,上谷口町７８３番地２,,46,201,8992703,,,2024-01-30,清算の結了等,,,2015-10-05,1,,,,,ニコウカイ,0
2110,8370001005953,登記記録の閉鎖等,0,2024-01-31,2024-01-09,ダンロップタイヤ東北株式会社,,株式会社,宮城県,仙台市宮城野区,扇町１丁目５番３８号,,04,102,9830034,,,2024-01-09,合併による解散等,4010601023832,令和６年１月１日東京都港区港南一丁目６番４１号芝浦クリスタル品川６階ダンロップタイヤ中央株式会社（4010601023832）に合併し解散,2015-10-05,1,,,,,,0
2111,8370001019755,登記記録の閉鎖等,0,2024-01-31,2024-01-29,ＪＭトレード株式会社,,株式会社,宮城県,仙台市若林区,土樋８番地パルメゾン土樋６０４,,04,103,9840065,,,2024-01-29,清算の結了等,,,2015-10-05,1,,,,,ジェイエムトレード,0
2128,8430002063977,登記記録の閉鎖等,0,2024-01-31,2024-01-24,有限会社小川ラジエーター工業所,,有限会社,北海道,室蘭市,高砂町４丁目２９番１５号コーポ石川１０１号室,,01,205,0500072,,,2024-01-24,清算の結了等,,,2015-10-05,1,,,,,オガワラジエーターコウギョウショ,0
2144,9010001106539,登記記録の閉鎖等,0,2024-01-31,2024-01-24,つるせ台スクールアンドメディアパーク株式会社,,株式会社,東京都,千代田区,丸の内１丁目５番１号,,13,101,1000005,,,2024-01-24,清算の結了等,,,2015-10-05,1,,,,,ツルセダイスクールアンドメディアパーク,0
2152,9010003026537,登記記録の閉鎖等,0,2024-01-31,2024-01-29,ＡＭＷホールディング合同会社,,合同会社,東京都,千代田区,丸の内３丁目１番１号東京共同会計事務所内,,13,101,1000005,,,2024-01-29,清算の結了等,,,2017-12-04,1,,,,,エーエムダブリューホールディング,0
2153,9010005029496,登記記録の閉鎖等,0,2024-01-31,2024-01-26,一般社団法人ファンドドゥ２号,,その他の設立登記法人,東京都,千代田区,霞が関３丁目２番５号,,13,101,1000013,,,2024-01-26,清算の結了等,,,2018-12-12,1,,,,,ファンドドゥニゴウ,0
2157,9010401116006,登記記録の閉鎖等,0,2024-01-31,2024-01-25,リアルホールディングス株式会社,,株式会社,東京都,中央区,銀座６丁目３番１８号Ｌａ・Ｌａ・ＧｒａｎｄｅＧＩＮＺＡ４階,,13,102,1040061,,,2024-01-25,合併による解散等,1010401095389,令和６年１月１６日東京都港区虎ノ門一丁目１３番３号虎ノ門東洋共同ビル９階リアルパートナーズ株式会社（1010401095389）に合併し解散,2015-10-05,1,,,,,リアルホールディングス,0
2169,9010601017524,登記記録の閉鎖等,0,2024-01-31,2024-01-31,株式会社エヌアイデー,,株式会社,東京都,江東区,亀戸４丁目１３番３号,,13,108,1360071,,,2024-01-31,登記官による閉鎖,,,2018-10-03,1,,,,,エヌアイデー,0
2170,9010601024826,登記記録の閉鎖等,0,2024-01-31,2024-01-31,株式会社シーエス企画,,株式会社,東京都,江東区,東陽１丁目１８番７号,,13,108,1350016,,,2024-01-31,登記官による閉鎖,,,2015-10-05,1,,,,,,0
2171,9010601043082,登記記録の閉鎖等,0,2024-01-31,2024-01-31,株式会社インター,,株式会社,東京都,墨田区,向島５丁目３４番１－１０２号,,13,107,1310033,,,2024-01-31,登記官による閉鎖,,,2015-10-05,1,,,,,,0
2172,9010601043611,登記記録の閉鎖等,0,2024-01-31,2024-01-31,株式会社メディオテール,,株式会社,東京都,江東区,北砂３丁目２番８号,,13,108,1360073,,,2024-01-31,登記官による閉鎖,,,2015-10-05,1,,,,,,0
2173,9010601043660,登記記録の閉鎖等,0,2024-01-31,2024-01-31,株式会社ベストライフ,,株式会社,東京都,江東区,有明３丁目７番２６号,,13,108,1350063,,,2024-01-31,登記官による閉鎖,,,2015-10-05,1,,,,,,0
2175,9010602006757,登記記録の閉鎖等,0,2024-01-31,2024-01-31,有限会社日新ケーブル工事,,有限会社,東京都,江東区,大島７丁目１１番８号,,13,108,1360072,,,2024-01-31,登記官による閉鎖,,,2015-10-05,1,,,,,,0
2176,9010602013910,登記記録の閉鎖等,0,2024-01-31,2024-01-31,有限会社藤井喜邦商店,,有限会社,東京都,墨田区,横網１丁目１１番４号,,13,107,1300015,,,2024-01-31,登記官による閉鎖,,,2015-10-05,1,,,,,,0
2177,9010602018273,登記記録の閉鎖等,0,2024-01-31,2024-01-31,有限会社ルブラン,,有限会社,東京都,江東区,東雲２丁目６番１９号,,13,108,1350062,,,2024-01-31,登記官による閉鎖,,,2015-10-05,1,,,,,,0
2178,9010602018645,登記記録の閉鎖等,0,2024-01-31,2024-01-31,有限会社江口,,有限会社,東京都,墨田区,業平３丁目１１番１１号,,13,107,1300002,,,2024-01-31,登記官による閉鎖,,,2015-10-05,1,,,,,,0
2179,9010602022960,登記記録の閉鎖等,0,2024-01-31,2024-01-31,有限会社那珂空調,,有限会社,東京都,墨田区,江東橋４丁目３０番１－６０６号,,13,107,1300022,,,2024-01-31,登記官による閉鎖,,,2015-10-05,1,,,,,,0
2181,9010605001573,登記記録の閉鎖等,0,2024-01-31,2024-01-31,特定非営利活動法人国際協力サークル,,その他の設立登記法人,東京都,江東区,塩浜２丁目９番８－１３１６号,,13,108,1350043,,,2024-01-31,登記官による閉鎖,,,2015-10-05,1,,,,,,0
2182,9010605002043,登記記録の閉鎖等,0,2024-01-31,2024-01-31,ｉｆ冠婚葬祭事業協同組合,,その他の設立登記法人,東京都,墨田区,江東橋４丁目２４番４号,,13,107,1300022,,,2024-01-31,登記官による閉鎖,,,2015-10-05,1,,,,,,0
2195,9011001068637,登記記録の閉鎖等,0,2024-01-31,2024-01-31,株式会社ドリームビジョン,,株式会社,東京都,江東区,東陽３丁目２８番９号,,13,108,1350016,,,2024-01-31,登記官による閉鎖,,,2015-10-05,1,,,,,,0
2210,9011201011339,登記記録の閉鎖等,0,2024-01-31,2024-01-31,株式会社丸蟹堂,,株式会社,東京都,中野区,新井２丁目７番１３号,,13,114,1650026,,,2024-01-31,登記官による閉鎖,,,2015-10-05,1,,,,,,0
2211,9011202010942,登記記録の閉鎖等,0,2024-01-31,2024-01-31,有限会社ＡＢＥプロジェクトコンサルタント,,有限会社,東京都,中野区,大和町１丁目２７番１２号,,13,114,1650034,,,2024-01-31,登記官による閉鎖,,,2015-10-05,1,,,,,,0
2212,9011205000107,登記記録の閉鎖等,0,2024-01-31,2024-01-31,中野韓国人商工協同組合,,その他の設立登記法人,東京都,中野区,中野２丁目２９番１５号,,13,114,1640001,,,2024-01-31,登記官による閉鎖,,,2015-10-05,1,,,,,,0
2213,9011205001352,登記記録の閉鎖等,0,2024-01-31,2024-01-31,特定非営利活動法人いろはにほへと塾,,その他の設立登記法人,東京都,中野区,野方３丁目２９番５号アムス野方７０５,,13,114,1650027,,,2024-01-31,登記官による閉鎖,,,2015-10-05,1,,,,,,0
2214,9011205001476,登記記録の閉鎖等,0,2024-01-31,2024-01-31,特定非営利活動法人アジア太平洋クラブ,,その他の設立登記法人,東京都,中野区,本町１丁目３番１２－３０７号,,13,114,1640012,,,2024-01-31,登記官による閉鎖,,,2015-10-05,1,,,,,,0
2215,9011205001617,登記記録の閉鎖等,0,2024-01-31,2024-01-31,特定非営利活動法人トリッチトラッチ,,その他の設立登記法人,東京都,中野区,新井２丁目６番１２号高橋ビル５０１号室,,13,114,1650026,,,2024-01-31,登記官による閉鎖,,,2015-10-05,1,,,,,,0
2216,9011205001914,登記記録の閉鎖等,0,2024-01-31,2024-01-31,社団法人大日本齒科醫學會,,その他の設立登記法人,東京都,中野区,住吉町２５番地,,13,114,1640000,,,2024-01-31,登記官による閉鎖,,,2015-10-05,1,,,,,,1
2230,9011702004394,登記記録の閉鎖等,0,2024-01-31,2024-01-26,有限会社小林ハガネ,,有限会社,東京都,江戸川区,南葛西４丁目１７番１４号,,13,123,1340085,,,2024-01-26,清算の結了等,,,2015-10-05,1,,,,,コバヤシハガネ,0
2238,9013301039607,登記記録の閉鎖等,0,2024-01-31,2024-01-29,株式会社トランス・アイ,,株式会社,東京都,豊島区,北大塚２丁目２０番４号,,13,116,1700004,,,2024-01-29,合併による解散等,7260001027778,令和６年１月１日東京都港区三田三丁目１番１１号株式会社トラン・セル（7260001027778）に合併し解散,2016-10-26,1,,,,,トランスアイ,0
2244,9020002051923,登記記録の閉鎖等,0,2024-01-31,2024-01-29,有限会社三友板金工業,,有限会社,神奈川県,横浜市鶴見区,駒岡２丁目１７番１５号,,14,101,2300071,,,2024-01-29,清算の結了等,,,2015-10-05,1,,,,,サンユウバンキンコウギョウ,0
2245,9020002098469,登記記録の閉鎖等,0,2024-01-31,2024-01-29,有限会社日商,,有限会社,神奈川県,川崎市川崎区,大島３丁目３５番６号,,14,131,2100834,,,2024-01-29,清算の結了等,,,2015-10-05,1,,,,,ニッショウ,0
2251,9021001045123,登記記録の閉鎖等,0,2024-01-31,2024-01-29,株式会社望未,,株式会社,神奈川県,鎌倉市,城廻５００番地８０,,14,204,2470074,,,2024-01-29,清算の結了等,,,2015-10-05,1,,,,,ノゾミ,0
2259,9021005000413,登記記録の閉鎖等,0,2024-01-31,2024-01-04,藤沢市漁業協同組合,,その他の設立登記法人,神奈川県,藤沢市,辻堂東海岸４丁目３番２１号,,14,205,2510045,,,2024-01-04,合併による解散等,6021005012989,令和６年１月４日神奈川県横須賀市佐島三丁目５番１号横須賀市大楠漁業協同組合（9021005007466）と神奈川県三浦郡葉山町堀内５０番地２０葉山町漁業協同組合（2021005007464）と神奈川県鎌倉市坂ノ下３２番１３号鎌倉漁業協同組合（5021005002132）と合併して神奈川県横須賀市佐島三丁目５番１号湘南漁業協同組合（6021005012989）を設立し解散,2015-10-05,1,,,,,フジサワシ,0
2260,9021005007466,登記記録の閉鎖等,0,2024-01-31,2024-01-04,横須賀市大楠漁業協同組合,,その他の設立登記法人,神奈川県,横須賀市,佐島３丁目５番１号,,14,201,2400103,,,2024-01-04,合併による解散等,6021005012989,令和６年１月４日神奈川県三浦郡葉山町堀内５０番地２０葉山町漁業協同組合（2021005007464）と神奈川県鎌倉市坂ノ下３２番１３号鎌倉漁業協同組合（5021005002132）と神奈川県藤沢市辻堂東海岸四丁目３番２１号藤沢市漁業協同組合（9021005000413）と合併して神奈川県横須賀市佐島三丁目５番１号湘南漁業協同組合（6021005012989）を設立し解散,2015-10-05,1,,,,,ヨコスカシオオグス,0
2278,9040002080516,登記記録の閉鎖等,0,2024-01-31,2024-01-23,有限会社小倉ポンプ工業,,有限会社,千葉県,長生郡長南町,長南１２３５番地,,12,427,2970121,,,2024-01-23,清算の結了等,,,2015-10-05,1,,,,,オグラポンプコウギョウ,0
2301,9110001002216,登記記録の閉鎖等,0,2024-01-31,2024-01-26,山水産業株式会社,,株式会社,新潟県,新潟市東区,石山６丁目２番５号,,15,102,9500852,,,2024-01-26,清算の結了等,,,2015-10-05,1,,,,,サンスイサンギョウ,0
2308,9120001111734,登記記録の閉鎖等,0,2024-01-31,2024-01-09,ダンロップタイヤ近畿株式会社,,株式会社,大阪府,大阪市淀川区,西宮原１丁目８番２４号新大阪第３ドイビル,,27,123,5320004,,,2024-01-09,合併による解散等,4010601023832,令和６年１月１日東京都港区港南一丁目６番４１号芝浦クリスタル品川６階ダンロップタイヤ中央株式会社（4010601023832）に合併し解散,2015-10-05,1,,,,,ダンロップタイヤキンキ,0
2326,9130001044611,登記記録の閉鎖等,0,2024-01-31,2024-01-29,株式会社山本屋,,株式会社,京都府,亀岡市,大井町並河鎌又１０番１号,,26,206,6210013,,,2024-01-29,清算の結了等,,,2015-10-05,1,,,,,ヤマモトヤ,0
2333,9140002029206,登記記録の閉鎖等,0,2024-01-31,2024-01-29,有限会社チッチ・ポッポ,,有限会社,兵庫県,明石市,二見町東二見１３１１番地,,28,203,6740092,,,2024-01-29,清算の結了等,,,2015-10-05,1,,,,,チッチポッポ,0
2334,9140005015640,登記記録の閉鎖等,0,2024-01-31,2024-01-29,医療法人社団緑樹会,,その他の設立登記法人,兵庫県,三田市,南が丘２丁目６番３号,,28,219,6691535,,,2024-01-29,清算の結了等,,,2015-10-05,1,,,,,リョクジュカイ,0
2342,9180001038550,登記記録の閉鎖等,0,2024-01-31,2024-01-09,ダンロップタイヤ中部株式会社,,株式会社,愛知県,名古屋市中区,千代田４丁目２番２４号,,23,106,4600012,,,2024-01-09,合併による解散等,4010601023832,令和６年１月１日東京都港区港南一丁目６番４１号芝浦クリスタル品川６階ダンロップタイヤ中央株式会社（4010601023832）に合併し解散,2015-10-05,1,,,,,ダンロップタイヤチュウブ,0
2362,9190001010707,登記記録の閉鎖等,0,2024-01-31,2024-01-30,和興ホーム三重株式会社,,株式会社,三重県,松阪市,大黒田町５６０番地の２,,24,204,5150063,,,2024-01-30,清算の結了等,,,2015-10-05,1,,,,,,0
2373,9260002002828,登記記録の閉鎖等,0,2024-01-31,2024-01-30,有限会社ガラム・マサラ,,有限会社,岡山県,岡山市北区,津高１９３番地,,33,101,7011152,,,2024-01-30,清算の結了等,,,2015-10-05,1,,,,,ガラムマサラ,0
2385,9290802016090,登記記録の閉鎖等,0,2024-01-31,2024-01-30,有限会社尾形総合研究所,,有限会社,福岡県,北九州市八幡東区,石坪町７番２１号,,40,108,8050021,,,2024-01-30,清算の結了等,,,2015-10-05,1,,,,,オガタソウゴウケンキュウショ,0
2386,9300002002385,登記記録の閉鎖等,0,2024-01-31,2024-01-26,有限会社古賀型枠工業,,有限会社,佐賀県,佐賀市,諸富町大字為重２１１番地２５,,41,201,8402102,,,2024-01-26,清算の結了等,,,2015-10-05,1,,,,,コガカタワクコウギョウ,0
2403,9430002037492,登記記録の閉鎖等,0,2024-01-31,2024-01-24,有限会社エァテック北斗,,有限会社,北海道,札幌市西区,発寒十五条１３丁目３番２０号,,01,107,0630835,,,2024-01-24,清算の結了等,,,2015-10-05,1,,,,,エアテックホクト,0
2404,9430002057417,登記記録の閉鎖等,0,2024-01-31,2024-01-29,有限会社岩内海同運輸,,有限会社,北海道,岩内郡岩内町,字御崎６番地の４,,01,402,0450026,,,2024-01-29,清算の結了等,,,2015-10-05,1,,,,,イワナイカイドウウンユ,0
