sequenceNumber,corporateNumber,process,correct,updateDate,changeDate,name,nameImageId,kind,prefectureName,cityName,streetNumber,addressImageId,prefectureCode,cityCode,postCode,addressOutside,addressOutsideImageId,closeDate,closeCause,successorCorporateNumber,changeCause,assignmentDate,latest,enName,enPrefectureName,enCityName,enAddressOutside,furigana,hihyoji
16,1010102005259,登記記録の閉鎖等,0,2025-03-14,2025-03-12,有限会社二宮商店,,有限会社,東京都,八王子市,横山町７番７号,,13,201,1920081,,,2025-03-12,清算の結了等,,,2015-10-05,1,,,,,ニノミヤショウテン,0
33,1010403018199,登記記録の閉鎖等,0,2025-03-14,2025-03-03,合同会社ノースポイント,,合同会社,東京都,港区,虎ノ門１丁目１６－６,,13,103,1050001,,,2025-03-03,合併による解散等,6010003020369,令和７年３月１日東京都港区芝浦一丁目６－４１合同会社ファラーシャ（6010003020369）に合併し解散,2018-03-05,1,,,,,ノースポイント,0
65,1011101045667,登記記録の閉鎖等,0,2025-03-14,2025-03-03,ヒューマンデジタルコンサルタンツ株式会社,,株式会社,東京都,新宿区,新宿１丁目８－１大橋御苑駅ビル６Ｆ,,13,104,1600022,,,2025-03-03,合併による解散等,6011101018180,令和７年３月１日東京都新宿区西新宿七丁目５番２５号ヒューマンリソシア株式会社（6011101018180）に合併し解散,2015-10-05,1,,,,,ヒューマンデジタルコンサルタンツ,0
72,1011101103103,登記記録の閉鎖等,0,2025-03-14,2025-03-06,株式会社ＥＳＯＬＡ,,株式会社,東京都,新宿区,西新宿７丁目２２番４３号,,13,104,1600023,,,2025-03-06,合併による解散等,7011101057112,令和７年３月１日東京都新宿区西新宿七丁目２２番４３号株式会社Ｂｒａｎｄ　Ｂａｎｋ　Ｃｏｍｐａｎｙ（7011101057112）に合併し解散,2023-06-09,1,,,,,エソラ,0
79,1011301001206,登記記録の閉鎖等,0,2025-03-14,2025-03-11,株式会社インターフェイス,,株式会社,東京都,杉並区,和泉４丁目１５番８号,,13,115,1680063,,,2025-03-11,清算の結了等,,,2015-10-05,1,,,,,インターフェイス,0
82,1011701017850,登記記録の閉鎖等,0,2025-03-14,2025-03-10,株式会社ＩＮＳＯＬＩＴＩ,,株式会社,東京都,江戸川区,篠崎町２丁目１７番５号,,13,123,1330061,,,2025-03-10,清算の結了等,,,2015-10-05,1,,,,,,0
84,1011801033269,登記記録の閉鎖等,0,2025-03-14,2025-03-12,ＱＵＡＬＩＬＩＦＥ株式会社,,株式会社,東京都,狛江市,和泉本町４丁目２番１３号ＳＡＮＴＥＳＡＫＡＥ２０２,,13,219,2010003,,,2025-03-12,清算の結了等,,,2017-05-02,1,,,,,クオリライフ,0
85,1011802001209,登記記録の閉鎖等,0,2025-03-14,2025-03-11,有限会社エヌ・ティ・ファクトリィ,,有限会社,東京都,葛飾区,柴又７丁目１９番６号,,13,122,1250052,,,2025-03-11,清算の結了等,,,2015-10-05,1,,,,,エヌティファクトリィ,0
92,1020001054091,登記記録の閉鎖等,0,2025-03-14,2025-03-13,オーシャンプライド株式会社,,株式会社,神奈川県,横浜市港南区,最戸１丁目１８番６号,,14,111,2330008,,,2025-03-13,清算の結了等,,,2015-10-05,1,,,,,オーシャンプライド,0
109,1030001115883,登記記録の閉鎖等,0,2025-03-14,2025-03-11,Ｓｔａｙ　Ｇｏｌｄ株式会社,,株式会社,埼玉県,さいたま市見沼区,大和田町１丁目４６４番地４,,11,104,3370053,,,2025-03-11,清算の結了等,,,2016-08-09,1,,,,,,0
120,1040002059971,登記記録の閉鎖等,0,2025-03-14,2025-03-04,有限会社フジプロパティ,,有限会社,千葉県,千葉市花見川区,西小中台二番３７棟３０１号,,12,102,2620016,,,2025-03-04,清算の結了等,,,2015-10-05,1,,,,,フジプロパティ,0
122,1040003017185,登記記録の閉鎖等,0,2025-03-14,2025-03-03,株式会社クリエイション,,株式会社,千葉県,船橋市,習志野台１丁目２６番７－３０８号,,12,204,2740063,,,2025-03-03,合併による解散等,4040001135242,令和７年３月１日千葉県船橋市習志野台一丁目２６番７－３０８号ネクストボックス株式会社（4040001135242）に合併し解散,2021-03-05,1,,,,,クリエイション,0
123,1040003023274,登記記録の閉鎖等,0,2025-03-14,2025-03-03,株式会社ペア,,株式会社,千葉県,船橋市,習志野台１丁目２６番７－３０８号,,12,204,2740063,,,2025-03-03,合併による解散等,4040001135242,令和７年３月１日千葉県船橋市習志野台一丁目２６番７－３０８号ネクストボックス株式会社（4040001135242）に合併し解散,2023-09-08,1,,,,,ペア,0
124,1050001021007,登記記録の閉鎖等,0,2025-03-14,2025-03-07,東菱肥料株式会社,,株式会社,茨城県,神栖市,砂山４番地,,08,232,3140255,,,2025-03-07,清算の結了等,,,2015-10-05,1,,,,,トウビシヒリョウ,0
150,1120001022815,登記記録の閉鎖等,0,2025-03-14,2025-03-13,株式会社大倉,,株式会社,大阪府,大阪市天王寺区,上本町６丁目８番１号,,27,109,5430001,,,2025-03-13,清算の結了等,,,2015-10-05,1,,,,,オオクラ,0
178,1120902015462,登記記録の閉鎖等,0,2025-03-14,2025-03-03,有限会社ダイゴ,,有限会社,大阪府,箕面市,半町３丁目６番５号,,27,220,5620044,,,2025-03-03,清算の結了等,,,2015-10-05,1,,,,,ダイゴ,0
180,1122001019774,登記記録の閉鎖等,0,2025-03-14,2025-03-13,ハードクローム株式会社,,株式会社,大阪府,東大阪市,花園本町１丁目１１番９号,,27,227,5780937,,,2025-03-13,清算の結了等,,,2015-10-05,1,,,,,ハードクローム,0
315,2011001144353,登記記録の閉鎖等,0,2025-03-14,2025-03-06,株式会社ＯＹＡ,,株式会社,東京都,新宿区,西新宿７丁目２２番４３号,,13,104,1600023,,,2025-03-06,合併による解散等,7011101057112,令和７年３月１日東京都新宿区西新宿七丁目２２番４３号株式会社Ｂｒａｎｄ　Ｂａｎｋ　Ｃｏｍｐａｎｙ（7011101057112）に合併し解散,2021-12-09,1,,,,,オオヤ,0
323,2011103012409,登記記録の閉鎖等,0,2025-03-14,2025-03-04,合同会社ジェイ・イー・シー,,合同会社,東京都,新宿区,下宮比町１番４号,,13,104,1620822,,,2025-03-04,清算の結了等,,,2022-11-22,1,,,,,ジェイイーシー,0
335,2011702000607,登記記録の閉鎖等,0,2025-03-14,2025-03-06,有限会社アポロン・バツグ,,有限会社,東京都,江戸川区,平井２丁目１５番１５号,,13,123,1320035,,,2025-03-06,清算の結了等,,,2015-10-05,1,,,,,アポロンバツグ,0
343,2012701013351,登記記録の閉鎖等,0,2025-03-14,2025-03-11,ユーエフテクニカ株式会社,,株式会社,東京都,小平市,上水新町３丁目６番２号,,13,211,1870023,,,2025-03-11,清算の結了等,,,2015-10-05,1,,,,,,0
362,2030002037226,登記記録の閉鎖等,0,2025-03-14,2025-03-11,有限会社博勇,,有限会社,埼玉県,狭山市,大字水野５６２番地の７（１０３）,,11,215,3501317,,,2025-03-11,清算の結了等,,,2015-10-05,1,,,,,ハクユウ,0
371,2030003022202,登記記録の閉鎖等,0,2025-03-14,2025-03-10,合同会社ふきのとう,,合同会社,埼玉県,所沢市,並木２丁目３番地１－６１０,,11,208,3590042,,,2025-03-10,清算の結了等,,,2023-07-21,1,,,,,フキノトウ,0
380,2040003017184,登記記録の閉鎖等,0,2025-03-14,2025-03-03,株式会社マーチ,,株式会社,千葉県,船橋市,習志野台１丁目２６番７－３０８号,,12,204,2740063,,,2025-03-03,合併による解散等,4040001135242,令和７年３月１日千葉県船橋市習志野台一丁目２６番７－３０８号ネクストボックス株式会社（4040001135242）に合併し解散,2021-03-05,1,,,,,マーチ,0
381,2040003023273,登記記録の閉鎖等,0,2025-03-14,2025-03-03,株式会社リンク,,株式会社,千葉県,船橋市,習志野台１丁目２６番７－３０８号,,12,204,2740063,,,2025-03-03,合併による解散等,4040001135242,令和７年３月１日千葉県船橋市習志野台一丁目２６番７－３０８号ネクストボックス株式会社（4040001135242）に合併し解散,2023-09-08,1,,,,,リンク,0
384,2060001021491,登記記録の閉鎖等,0,2025-03-14,2025-03-10,ＥＣＯ企画株式会社,,株式会社,栃木県,下都賀郡壬生町,本丸２丁目１８番１０号,,09,361,3210225,,,2025-03-10,清算の結了等,,,2015-10-05,1,,,,,エコキカク,0
388,2070001005411,登記記録の閉鎖等,0,2025-03-14,2025-03-12,株式会社ビグラッド,,株式会社,群馬県,前橋市,青柳町１９８番地,,10,201,3710056,,,2025-03-12,清算の結了等,,,2015-10-05,1,,,,,ビグラッド,0
398,2110001013806,登記記録の閉鎖等,0,2025-03-14,2025-03-12,ＳＨＩＫＩＥＮ株式会社,,株式会社,新潟県,新潟市秋葉区,新津四ツ興野１７３５番地,,15,105,9560057,,,2025-03-12,合併による解散等,5011001148343,令和７年３月１日東京都渋谷区円山町５番５号Ｎａｖｉ渋谷Ｖ３階ＳＨＩＫＩＥＮ株式会社（5011001148343）に合併し解散,2015-10-05,1,,,,,シキエン,0
410,2120001250638,登記記録の閉鎖等,0,2025-03-14,2025-03-03,株式会社ＡＤＨ,,株式会社,大阪府,枚方市,長尾家具町４丁目５番３７号,,27,210,5730102,,,2025-03-03,合併による解散等,1120001235219,令和７年３月１日大阪府枚方市新町二丁目１番１２号１Ｆ株式会社ｃｏｒａｚｏｎ（1120001235219）に合併し解散,2022-11-30,1,,,,,エーディーエイチ,0
425,2120901022285,登記記録の閉鎖等,0,2025-03-14,2025-03-03,株式会社ＫＩＫＡＮ－ＴＡＲＯ,,株式会社,大阪府,池田市,栄本町６番２６号,,27,204,5630058,,,2025-03-03,清算の結了等,,,2015-10-05,1,,,,,キカンタロ,0
436,2140001114832,登記記録の閉鎖等,0,2025-03-14,2025-03-10,株式会社ｇｒａｂｕｓ,,株式会社,兵庫県,芦屋市,業平町５－２芦屋ハウス５０２,,28,206,6590068,,,2025-03-10,清算の結了等,,,2019-09-10,1,,,,,グラバス,0
437,2140001119880,登記記録の閉鎖等,0,2025-03-14,2025-03-10,株式会社７－Ｐｏｃｋｅｔｓ,,株式会社,兵庫県,神戸市北区,小倉台３丁目１１番地の１２,,28,109,6511211,,,2025-03-10,清算の結了等,,,2020-12-25,1,,,,,セブンポケット,0
450,2180001071871,登記記録の閉鎖等,0,2025-03-14,2025-03-07,株式会社トルネードジャパン,,株式会社,愛知県,名古屋市中区,大須４丁目１０番４０号,,23,106,4600011,,,2025-03-07,清算の結了等,,,2015-10-05,1,,,,,トルネードジャパン,0
453,2180001135817,登記記録の閉鎖等,0,2025-03-14,2025-03-07,株式会社モロッコ,,株式会社,愛知県,名古屋市東区,泉１丁目９番１４号,,23,102,4610001,,,2025-03-07,清算の結了等,,,2019-03-20,1,,,,,モロッコ,0
468,2260001005458,登記記録の閉鎖等,0,2025-03-14,2025-03-11,株式会社ハローハウジング,,株式会社,岡山県,岡山市北区,野田３丁目１番２９号,,33,101,7000971,,,2025-03-11,清算の結了等,,,2015-10-05,1,,,,,ハローハウジング,0
469,2260001037781,登記記録の閉鎖等,0,2025-03-14,2025-03-10,株式会社倉敷ＦＣ,,株式会社,岡山県,倉敷市,阿知３丁目２１‐１９,,33,202,7100055,,,2025-03-10,合併による解散等,7010001201341,令和７年１月１日京都市右京区西京極堤町４４番地２株式会社デポルテックコンサルティング（7010001201341）に合併し解散,2023-04-03,1,,,,,クラシキエフシー,0
473,2290001070103,登記記録の閉鎖等,0,2025-03-14,2025-03-12,株式会社まる均,,株式会社,東京都,港区,芝大門２丁目４番６号豊国ビル,,13,103,1050012,,,2025-03-12,合併による解散等,4010003043850,令和７年２月１日東京都千代田区神田和泉町１番地６－１６ハニカム１２合同会社（4010003043850）に合併し解散,2015-10-05,1,,,,,マルキン,0
492,2330003008641,登記記録の閉鎖等,0,2025-03-14,2025-03-11,合同会社サンクスコーポレーション,,合同会社,熊本県,熊本市東区,長嶺東８丁目１番１号,,43,102,8618038,,,2025-03-11,合併による解散等,5330001006330,令和７年３月１日熊本市東区長嶺東八丁目１番１号株式会社リアルエンジニア（5330001006330）に合併し解散,2020-11-17,1,,,,,サンクスコーポレーション,0
511,2420001012925,登記記録の閉鎖等,0,2025-03-14,2025-03-10,株式会社あおもり食彩工房,,株式会社,青森県,八戸市,大字尻内町字鴨ケ池１１番地２５,,02,203,0391101,,,2025-03-10,清算の結了等,,,2015-10-05,1,,,,,アオモリショクサイコウボウ,0
516,2450001003095,登記記録の閉鎖等,0,2025-03-14,2025-03-12,浅田青果株式会社,,株式会社,北海道,旭川市,流通団地一条３丁目２６番地１,,01,204,0798441,,,2025-03-12,清算の結了等,,,2015-10-05,1,,,,,アサダセイカ,0
522,2460101005924,登記記録の閉鎖等,0,2025-03-14,2025-03-10,株式会社石黒組,,株式会社,北海道,帯広市,西十七条南３丁目２２番１４号メゾン柏林台２０３号室,,01,207,0800027,,,2025-03-10,清算の結了等,,,2016-05-06,1,,,,,イシグログミ,0
525,2490002003826,登記記録の閉鎖等,0,2025-03-14,2025-03-07,有限会社中村鮮魚店,,有限会社,高知県,高知市,本町３丁目１番１１号,,39,201,7800870,,,2025-03-07,清算の結了等,,,2015-10-05,1,,,,,ナカムラセンギョテン,0
528,3010001035735,登記記録の閉鎖等,0,2025-03-14,2025-03-03,株式会社アーチフリー,,株式会社,東京都,中央区,新富２丁目３番１５号,,13,102,1040041,,,2025-03-03,清算の結了等,,,2015-10-05,1,,,,,アーチフリー,0
541,3010002051756,登記記録の閉鎖等,0,2025-03-14,2025-03-03,トロア有限会社,,有限会社,東京都,文京区,水道２丁目５番１－３０４号,,13,105,1120005,,,2025-03-03,清算の結了等,,,2015-10-05,1,,,,,,0
546,3010005024239,登記記録の閉鎖等,0,2025-03-14,2025-03-11,タカラレーベン・インフラ投資法人,,その他の設立登記法人,東京都,千代田区,大手町２丁目１番１号,,13,101,1000004,,,2025-03-11,清算の結了等,,,2015-10-05,1,,,,,タカラレーベンインフラ,0
556,3010401167599,登記記録の閉鎖等,0,2025-03-14,2025-02-25,株式会社センセーション,,株式会社,東京都,港区,北青山１丁目３番１号アールキューブ青山３階,,13,103,1070061,,,2025-02-25,清算の結了等,,,2022-05-26,1,,,,,センセーション,0
557,3010401176922,登記記録の閉鎖等,0,2025-03-14,2025-03-11,株式会社Ｌｉｇｈｔ６１,,株式会社,東京都,港区,六本木１丁目６番１号,,13,103,1060032,,,2025-03-11,合併による解散等,4410001006083,令和７年３月１日秋田県大館市釈迦内字稲荷山下１９番地１株式会社東光ホールディングス（4410001006083）に合併し解散,2023-09-04,1,,,,,ライトロクイチ,0
564,3010402004207,登記記録の閉鎖等,0,2025-03-14,2025-02-26,有限会社熊谷製作所,,有限会社,東京都,港区,白金４丁目１番４号,,13,103,1080072,,,2025-02-26,清算の結了等,,,2015-10-05,1,,,,,クマガイセイサクジョ,0
585,3011101023860,登記記録の閉鎖等,0,2025-03-14,2025-03-07,株式会社ネオリッチ,,株式会社,東京都,杉並区,梅里２丁目３４番１１号,,13,115,1660011,,,2025-03-07,清算の結了等,,,2015-10-05,1,,,,,ネオリッチ,0
588,3011101060739,登記記録の閉鎖等,0,2025-03-14,2025-03-04,株式会社ジョインアップ,,株式会社,東京都,豊島区,東池袋１丁目２５番８号,,13,116,1700013,,,2025-03-04,合併による解散等,6013301050120,令和７年３月１日東京都豊島区東池袋一丁目２５番９号株式会社アイ・ステーション（6013301050120）に合併し解散,2015-10-05,1,,,,,ジョインアップ,0
603,3011701021553,登記記録の閉鎖等,0,2025-03-14,2025-02-25,株式会社ジェイファクター,,株式会社,東京都,港区,三田４丁目１５－３５三田ヒルクレスト２Ｆ,,13,103,1080073,,,2025-02-25,清算の結了等,,,2018-02-23,1,,,,,ジェイファクター,0
616,3013401006685,登記記録の閉鎖等,0,2025-03-14,2025-03-11,株式会社習楽舎,,株式会社,東京都,多摩市,諏訪１丁目２－１５,,13,224,2060024,,,2025-03-11,清算の結了等,,,2015-10-05,1,,,,,シュウラクシャ,0
620,3020001103771,登記記録の閉鎖等,0,2025-03-14,2025-03-06,株式会社アニュー,,株式会社,神奈川県,横浜市旭区,鶴ケ峰本町３丁目２５番３２号,,14,112,2410021,,,2025-03-06,清算の結了等,,,2015-10-05,1,,,,,アニュー,0
626,3020003007112,登記記録の閉鎖等,0,2025-03-14,2025-03-03,ランドンアイピー合同会社,,合同会社,東京都,新宿区,西新宿３丁目７－１新宿パークタワーＮ３０階,,13,104,1600023,,,2025-03-03,清算の結了等,,,2015-10-05,1,,,,,ランドンアイピー,0
631,3021001008564,登記記録の閉鎖等,0,2025-03-14,2025-03-06,株式会社戸部電気工事,,株式会社,神奈川県,横浜市西区,戸部本町２３番７号,,14,103,2200041,,,2025-03-06,清算の結了等,,,2015-10-05,1,,,,,トベデンキコウジ,0
643,3040001066744,登記記録の閉鎖等,0,2025-03-14,2025-03-04,株式会社伊勢八,,株式会社,千葉県,我孫子市,つくし野５丁目１番２号,,12,222,2701164,,,2025-03-04,清算の結了等,,,2015-10-05,1,,,,,イセハチ,0
648,3040003017183,登記記録の閉鎖等,0,2025-03-14,2025-03-03,株式会社シンシア,,株式会社,千葉県,船橋市,習志野台１丁目２６番７－３０８号,,12,204,2740063,,,2025-03-03,合併による解散等,4040001135242,令和７年３月１日千葉県船橋市習志野台一丁目２６番７－３０８号ネクストボックス株式会社（4040001135242）に合併し解散,2021-03-05,1,,,,,シンシア,0
652,3050001000719,登記記録の閉鎖等,0,2025-03-14,2025-03-03,関鉄水戸タクシー株式会社,,株式会社,茨城県,水戸市,城南２丁目７番１７号,,08,201,3100803,,,2025-03-03,合併による解散等,9050001027624,令和７年３月１日茨城県取手市白山五丁目１３番８号京成タクシー茨城株式会社（9050001027624）に合併し解散,2015-10-05,1,,,,,カンテツミトタクシー,0
653,3050001011451,登記記録の閉鎖等,0,2025-03-14,2025-03-03,関鉄ハイヤー株式会社,,株式会社,茨城県,石岡市,府中１丁目２番６号,,08,205,3150013,,,2025-03-03,合併による解散等,9050001027624,令和７年３月１日茨城県取手市白山五丁目１３番８号京成タクシー茨城株式会社（9050001027624）に合併し解散,2015-10-05,1,,,,,カンテツハイヤー,0
655,3050001048460,登記記録の閉鎖等,0,2025-03-14,2025-03-07,ハチノス株式会社,,株式会社,茨城県,つくば市,大字上河原崎下河原崎入会地４番地２５２,,08,220,3002661,,,2025-03-07,清算の結了等,,,2020-12-16,1,,,,,ハチノス,0
661,3070001025706,登記記録の閉鎖等,0,2025-03-14,2025-03-12,株式会社ノア・スピリッツ,,株式会社,群馬県,伊勢崎市,連取元町７－１ハイツレトアＡ１０２,,10,204,3720818,,,2025-03-12,清算の結了等,,,2015-10-05,1,,,,,ノアスピリッツ,0
663,3080001016290,登記記録の閉鎖等,0,2025-03-14,2025-03-11,株式会社エンシウヤ,,株式会社,静岡県,藤枝市,藤枝２丁目４番３７号,,22,214,4260025,,,2025-03-11,清算の結了等,,,2015-10-05,1,,,,,エンシウヤ,0
664,3080401006313,登記記録の閉鎖等,0,2025-03-14,2025-03-05,株式会社ジャパン・ビジネス・ニュース,,株式会社,静岡県,浜松市中央区,安松町１６番地の３,,22,138,4350034,,,2025-03-05,清算の結了等,,,2015-10-05,1,,,,,ジャパンビジネスニュース,0
669,3100005001402,登記記録の閉鎖等,0,2025-03-14,2025-03-06,長野県豆腐商工業協同組合,,その他の設立登記法人,長野県,長野市,大字栗田字西番場２０５番地１,,20,201,3800921,,,2025-03-06,清算の結了等,,,2015-10-05,1,,,,,ナガノケントウフショウコウギョウ,0
672,3110002009604,登記記録の閉鎖等,0,2025-03-14,2025-03-12,株式会社四季園,,株式会社,新潟県,新潟市秋葉区,新津四ツ興野１７３５番地,,15,105,9560057,,,2025-03-12,合併による解散等,5011001148343,令和７年３月１日東京都渋谷区円山町５番５号Ｎａｖｉ渋谷Ｖ３階ＳＨＩＫＩＥＮ株式会社（5011001148343）に合併し解散,2015-10-05,1,,,,,シキエン,0
681,3120001189090,登記記録の閉鎖等,0,2025-03-14,2025-03-10,株式会社益田商事,,株式会社,兵庫県,丹波篠山市,北新町１１８番地１,,28,221,6692332,,,2025-03-10,清算の結了等,,,2015-10-05,1,,,,,マスダショウジ,0
682,3120001236801,登記記録の閉鎖等,0,2025-03-14,2025-03-12,株式会社ＬＩＱＵＡ,,株式会社,大阪府,大阪市北区,西天満６丁目２番３号ユーアイビル２１１号,,27,127,5300047,,,2025-03-12,清算の結了等,,,2021-04-13,1,,,,,リクア,0
707,3120101045697,登記記録の閉鎖等,0,2025-03-14,2025-03-07,株式会社木原組,,株式会社,宮城県,石巻市,開北３丁目５－１３サンハイツ・Ｋ２０３号,,04,202,9860806,,,2025-03-07,清算の結了等,,,2015-10-05,1,,,,,,0
733,3140002047089,登記記録の閉鎖等,0,2025-03-14,2025-03-07,有限会社大和通商,,有限会社,兵庫県,姫路市,北今宿２丁目２０５番地の１,,28,201,6700057,,,2025-03-07,清算の結了等,,,2015-10-05,1,,,,,ダイワツウショウ,0
750,3180301026657,登記記録の閉鎖等,0,2025-03-14,2025-03-06,大津商店株式会社,,株式会社,愛知県,豊田市,国附町西畑７５番地２,,23,211,4700305,,,2025-03-06,清算の結了等,,,2015-10-05,1,,,,,オオツショウテン,0
752,3190001010282,登記記録の閉鎖等,0,2025-03-14,2025-03-11,株式会社翠松閣,,株式会社,三重県,松阪市,中町１８７８番地,,24,204,5150083,,,2025-03-11,清算の結了等,,,2015-10-05,1,,,,,スイショウカク,0
753,3200001035716,登記記録の閉鎖等,0,2025-03-14,2025-03-12,株式会社なな光,,株式会社,岐阜県,恵那市,明智町大田１３９７番地１,,21,210,5097723,,,2025-03-12,清算の結了等,,,2018-11-13,1,,,,,ナナヒカリ,0
755,3200005005797,登記記録の閉鎖等,0,2025-03-14,2025-03-11,特定非営利活動法人リトミックＧｉｆｕ,,その他の設立登記法人,岐阜県,大垣市,三塚町５０１番地１,,21,202,5030808,,,2025-03-11,清算の結了等,,,2015-10-05,1,,,,,リトミックギフ,0
768,3330002027187,登記記録の閉鎖等,0,2025-03-14,2025-03-03,有限会社宮崎商店,00097939,有限会社,熊本県,八代市,坂本町荒瀬５５１０番地,,43,202,8696115,,,2025-03-03,清算の結了等,,,2015-10-05,1,,,,,ミヤザキショウテン,0
783,3380003005179,登記記録の閉鎖等,0,2025-03-14,2025-03-03,合同会社あいづの文庫,,合同会社,福島県,大沼郡会津美里町,寺崎字柿屋敷８８番地,,07,447,9696271,,,2025-03-03,清算の結了等,,,2022-05-19,1,,,,,,0
788,3430001013772,登記記録の閉鎖等,0,2025-03-14,2025-03-12,ピーシープロジェクト株式会社,,株式会社,北海道,札幌市白石区,菊水上町一条１丁目３２５番地５,,01,104,0030811,,,2025-03-12,清算の結了等,,,2015-10-05,1,,,,,ピーシープロジェクト,0
811,4010001215170,登記記録の閉鎖等,0,2025-03-14,2025-03-03,株式会社ＬＯＹ,,株式会社,東京都,品川区,上大崎３丁目１番１号,,13,109,1410021,,,2025-03-03,合併による解散等,9010701045920,令和７年３月１日東京都品川区上大崎三丁目１番１号カルチュア・エンタテインメント株式会社（9010701045920）に合併し解散,2021-01-20,1,,,,,ロイ,0
827,4010101003384,登記記録の閉鎖等,0,2025-03-14,2025-03-12,平田木材株式会社,,株式会社,東京都,八王子市,鑓水２０６９番地,,13,201,1920375,,,2025-03-12,清算の結了等,,,2015-10-05,1,,,,,ヒラタモクザイ,0
829,4010401067864,登記記録の閉鎖等,0,2025-03-14,2025-02-26,株式会社ルリ・コーポレーション,,株式会社,東京都,港区,南青山５丁目４番２９号,,13,103,1070062,,,2025-02-26,清算の結了等,,,2015-10-05,1,,,,,ルリコーポレーション,0
830,4010401070067,登記記録の閉鎖等,0,2025-03-14,2025-02-26,株式会社東京コニーズ,,株式会社,東京都,港区,芝５丁目２７番１号,,13,103,1080014,,,2025-02-26,清算の結了等,,,2015-10-05,1,,,,,トウキョウコニーズ,0
834,4010401136751,登記記録の閉鎖等,0,2025-03-14,2025-02-25,東洋イコシ株式会社,,株式会社,東京都,港区,南青山５丁目３番２４号Ｙ‘ｓハウス３階,,13,103,1070062,,,2025-02-25,清算の結了等,,,2018-02-21,1,,,,,,0
837,4010401174339,登記記録の閉鎖等,0,2025-03-14,2025-02-26,Ｓｕｐｅｒｎｏｖａ株式会社,,株式会社,東京都,港区,麻布十番１丁目２番７号ラフィネ麻布十番７０１号室,,13,103,1060045,,,2025-02-26,清算の結了等,,,2023-05-15,1,,,,,スーパーノヴァ,0
880,4011801017384,登記記録の閉鎖等,0,2025-03-14,2025-03-03,株式会社ディプロスター,,株式会社,東京都,台東区,三ノ輪２丁目２番１－３０４号,,13,106,1100011,,,2025-03-03,清算の結了等,,,2015-10-05,1,,,,,ディプロスター,0
882,4011801034033,登記記録の閉鎖等,0,2025-03-14,2025-03-11,株式会社コムレイズ,,株式会社,東京都,足立区,梅田３丁目４番８号,,13,121,1230851,,,2025-03-11,清算の結了等,,,2017-11-06,1,,,,,コムレイズ,0
887,4012301008733,登記記録の閉鎖等,0,2025-03-14,2025-03-12,株式会社ＲＰＴインターナショナル,,株式会社,東京都,町田市,中町１丁目２－２森町ビル４Ｂ－１号室,,13,209,1940021,,,2025-03-12,清算の結了等,,,2015-10-05,1,,,,,アールピーティーインターナショナル,0
904,4021001044591,登記記録の閉鎖等,0,2025-03-14,2025-03-12,株式会社サンゴ市場,,株式会社,神奈川県,横須賀市,大滝町１丁目７番地７エクセレント横須賀５０３号,,14,201,2380008,,,2025-03-12,清算の結了等,,,2015-10-05,1,,,,,サンゴイチバ,0
911,4030001007830,登記記録の閉鎖等,0,2025-03-14,2025-03-10,株式会社マルシン,,株式会社,埼玉県,さいたま市見沼区,大字中川２６９番地１,,11,104,3370043,,,2025-03-10,清算の結了等,,,2015-10-05,1,,,,,マルシン,0
920,4030002053072,登記記録の閉鎖等,0,2025-03-14,2025-03-10,有限会社荒井第二ビル管理,,有限会社,埼玉県,上尾市,愛宕３丁目１９番１６号,,11,219,3620034,,,2025-03-10,清算の結了等,,,2015-10-05,1,,,,,アライダイニビルカンリ,0
931,4040003017182,登記記録の閉鎖等,0,2025-03-14,2025-03-03,株式会社ジン,,株式会社,千葉県,船橋市,習志野台８丁目５４番１－３１３号,,12,204,2740063,,,2025-03-03,合併による解散等,5040001135241,令和７年３月１日千葉県船橋市習志野台八丁目５４番１－３１３号株式会社ローマ（5040001135241）に合併し解散,2021-03-05,1,,,,,ジン,0
936,4050001028461,登記記録の閉鎖等,0,2025-03-14,2025-03-03,関鉄タクシー株式会社,,株式会社,茨城県,つくば市,梅園２丁目１番９,,08,220,3050045,,,2025-03-03,合併による解散等,9050001027624,令和７年３月１日茨城県取手市白山五丁目１３番８号京成タクシー茨城株式会社（9050001027624）に合併し解散,2015-10-05,1,,,,,カンテツタクシー,0
946,4070002011563,登記記録の閉鎖等,0,2025-03-14,2025-03-11,有限会社柴崎会計事務所,,有限会社,群馬県,高崎市,若松町２９８番地５,,10,202,3700836,,,2025-03-11,清算の結了等,,,2015-10-05,1,,,,,シバサキカイケイジムショ,0
958,4120001239571,登記記録の閉鎖等,0,2025-03-14,2025-03-11,株式会社浪速開発,,株式会社,大阪府,大阪市西成区,萩之茶屋１丁目６番１５号,,27,122,5570004,,,2025-03-11,合併による解散等,6130001053490,令和７年３月１日滋賀県大津市茶戸町１３番９号株式会社瑞光（6130001053490）に合併し解散,2021-08-10,1,,,,,ナニワカイハツ,0
959,4120001252582,登記記録の閉鎖等,0,2025-03-14,2025-03-12,一騰株式会社,,株式会社,大阪府,大阪市中央区,松屋町９番２０号ローレルステート松屋町４０１Ｃ,,27,128,5420067,,,2025-03-12,清算の結了等,,,2023-02-17,1,,,,,イットウ,0
971,4120102018866,登記記録の閉鎖等,0,2025-03-14,2025-03-07,有限会社ヤチヨ,,有限会社,大阪府,藤井寺市,西古室２丁目１番８号,,27,226,5830018,,,2025-03-07,清算の結了等,,,2015-10-05,1,,,,,ヤチヨ,0
977,4122001035496,登記記録の閉鎖等,0,2025-03-14,2025-03-13,株式会社ＺＥＲＯ,,株式会社,大阪府,東大阪市,吉原２丁目１番４１号,,27,227,5780904,,,2025-03-13,清算の結了等,,,2022-01-12,1,,,,,ゼロ,0
1004,4170001005127,登記記録の閉鎖等,0,2025-03-14,2025-03-12,株式会社ロク・コミュニケーションズ,,株式会社,和歌山県,和歌山市,中之島１３７９番地,,30,201,6408392,,,2025-03-12,清算の結了等,,,2015-10-05,1,,,,,ロクコミュニケーションズ,0
1006,4170002001018,登記記録の閉鎖等,0,2025-03-14,2025-03-13,有限会社紀伊スクリーン,,有限会社,和歌山県,和歌山市,北野７１７番地,,30,201,6496331,,,2025-03-13,清算の結了等,,,2024-04-02,1,,,,,,0
1028,4240001052888,登記記録の閉鎖等,0,2025-03-14,2025-03-12,株式会社ＡＮＥＸ　ＡＵＴＯＭＯＢＩＬＥ,,株式会社,広島県,広島市安佐南区,相田１丁目８番２１号,,34,105,7310141,,,2025-03-12,清算の結了等,,,2018-06-05,1,,,,,アネックスオートモビル,0
1034,4280005000071,登記記録の閉鎖等,0,2025-03-14,2025-03-13,財団法人松江市開発公社,,その他の設立登記法人,島根県,松江市,中原町５番地,,32,201,6900874,,,2025-03-13,清算の結了等,,,2015-10-05,1,,,,,マツエシカイハツコウシャ,0
1035,4290001051068,登記記録の閉鎖等,0,2025-03-14,2025-03-04,株式会社アカル,,株式会社,福岡県,久留米市,東合川７丁目１２番９号,,40,203,8390809,,,2025-03-04,合併による解散等,9290001002611,令和７年２月２８日福岡市博多区中洲五丁目５番１３号株式会社アルサ（9290001002611）に合併し解散,2015-10-05,1,,,,,アカル,0
1036,4290001063848,登記記録の閉鎖等,0,2025-03-14,2025-03-11,ガルヒＪＡＰＡＮ株式会社,,株式会社,福岡県,福岡市博多区,博多駅前３丁目１２番２１号,,40,132,8120011,,,2025-03-11,清算の結了等,,,2015-10-05,1,,,,,ガルヒジャパン,0
1042,4290003007258,登記記録の閉鎖等,0,2025-03-14,2025-03-06,ＭＡＦ合同会社,,合同会社,福岡県,福岡市東区,箱崎１丁目７番３１号,,40,131,8120053,,,2025-03-06,清算の結了等,,,2017-06-02,1,,,,,エムエーエフ,0
1061,4370402001506,登記記録の閉鎖等,0,2025-03-14,2025-03-06,有限会社エム・ケイ,,有限会社,宮城県,登米市,石越町南郷字小谷地前１２０番地の５,,04,212,9894703,,,2025-03-06,清算の結了等,,,2015-10-05,1,,,,,エムケイ,0
1086,4480005005505,登記記録の閉鎖等,0,2025-03-14,2025-03-12,協同組合阿波池田銀座街,,その他の設立登記法人,徳島県,三好市,池田町マチ２１７５番地,,36,208,7780002,,,2025-03-12,清算の結了等,,,2015-10-05,1,,,,,アワイケダギンザガイ,0
1122,5010402031521,登記記録の閉鎖等,0,2025-03-14,2025-02-26,有限会社キングアンドキング事務局,,有限会社,東京都,港区,高輪２丁目１７番８号,,13,103,1080074,,,2025-02-26,清算の結了等,,,2015-10-05,1,,,,,キングアンドキングジムキョク,0
1127,5010601030142,登記記録の閉鎖等,0,2025-03-14,2025-03-11,株式会社ヤマトクリエーション,,株式会社,東京都,江東区,亀戸１丁目２８番６号タニビル,,13,108,1360071,,,2025-03-11,清算の結了等,,,2015-10-05,1,,,,,ヤマトクリエーション,0
1133,5010901014927,登記記録の閉鎖等,0,2025-03-14,2025-03-06,株式会社ティーケーエス,,株式会社,東京都,新宿区,西新宿７丁目２２番４３号,,13,104,1600023,,,2025-03-06,合併による解散等,7011101057112,令和７年３月１日東京都新宿区西新宿七丁目２２番４３号株式会社Ｂｒａｎｄ　Ｂａｎｋ　Ｃｏｍｐａｎｙ（7011101057112）に合併し解散,2015-10-05,1,,,,,ティーケーエス,0
1141,5011005006530,登記記録の閉鎖等,0,2025-03-14,2025-03-04,一般財団法人世界野球連盟,,その他の設立登記法人,千葉県,船橋市,浜町２丁目２番１－１８２２号,,12,204,2730012,,,2025-03-04,清算の結了等,,,2015-10-30,1,,,,,セカイヤキュウレンメイ,0
1150,5011501017840,登記記録の閉鎖等,0,2025-03-14,2025-03-06,株式会社牛の達人,,株式会社,東京都,新宿区,西新宿７丁目２２番４３号,,13,104,1600023,,,2025-03-06,合併による解散等,7011101057112,令和７年３月１日東京都新宿区西新宿七丁目２２番４３号株式会社Ｂｒａｎｄ　Ｂａｎｋ　Ｃｏｍｐａｎｙ（7011101057112）に合併し解散,2015-10-05,1,,,,,ギュウノタツジン,0
1151,5011505002632,登記記録の閉鎖等,0,2025-03-14,2025-03-07,一般社団法人おおやまと地域振興団,,その他の設立登記法人,東京都,北区,赤羽１丁目７－９赤羽第一葉山ビル４階,,13,117,1150045,,,2025-03-07,清算の結了等,,,2024-06-12,1,,,,,オオヤマトチイキシンコウダン,0
1156,5011801011840,登記記録の閉鎖等,0,2025-03-14,2025-03-11,本郷鍍金工業株式会社,,株式会社,東京都,足立区,本木２丁目７番１３号,,13,121,1230853,,,2025-03-11,清算の結了等,,,2015-10-05,1,,,,,ホンゴウトキンコウギョウ,0
1160,5011802003639,登記記録の閉鎖等,0,2025-03-14,2025-03-12,有限会社茂田製作所,,有限会社,東京都,葛飾区,新小岩１丁目５４番１号,,13,122,1240024,,,2025-03-12,清算の結了等,,,2015-10-05,1,,,,,シゲタセイサクショ,0
1163,5012701008654,登記記録の閉鎖等,0,2025-03-14,2025-03-03,ステップパートナーホールディングス株式会社,,株式会社,東京都,台東区,東上野５丁目１番８号８階Ａ号室,,13,106,1100015,,,2025-03-03,清算の結了等,,,2015-10-05,1,,,,,ステップパートナーホールディングス,0
1169,5020001120022,登記記録の閉鎖等,0,2025-03-14,2025-03-12,株式会社ＤＹＤ,,株式会社,神奈川県,横浜市中区,山下町７４番地１,,14,104,2310023,,,2025-03-12,合併による解散等,7360001012373,令和７年３月１日横浜市中区山下町７４番地１株式会社大和地所ホールディングス（7360001012373）に合併し解散,2017-02-21,1,,,,,ディーワイディー,0
1170,5020001135887,登記記録の閉鎖等,0,2025-03-14,2025-03-05,株式会社チカコアステリ,,株式会社,神奈川県,横浜市中区,石川町２丁目６５番地４,,14,104,2310868,,,2025-03-05,清算の結了等,,,2020-04-21,1,,,,,チカコアステリ,0
1192,5030001087756,登記記録の閉鎖等,0,2025-03-14,2025-03-11,湯本運送株式会社,,株式会社,埼玉県,行田市,大字埼玉３３３１番地,,11,206,3610025,,,2025-03-11,清算の結了等,,,2015-10-05,1,,,,,ユモトウンソウ,0
1215,5040003017181,登記記録の閉鎖等,0,2025-03-14,2025-03-03,株式会社カラー,,株式会社,千葉県,船橋市,習志野台８丁目５４番１－３１３号,,12,204,2740063,,,2025-03-03,合併による解散等,5040001135241,令和７年３月１日千葉県船橋市習志野台八丁目５４番１－３１３号株式会社ローマ（5040001135241）に合併し解散,2021-03-05,1,,,,,カラー,0
1251,5120005017485,登記記録の閉鎖等,0,2025-03-14,2025-03-13,弁護士法人あずさ法律事務所,,その他の設立登記法人,大阪府,大阪市浪速区,難波中１丁目１０番４号南海ＳＫ難波ビル９階,,27,111,5560011,,,2025-03-13,清算の結了等,,,2015-10-05,1,,,,,アズサホウリツジムショ,0
1254,5120102014617,登記記録の閉鎖等,0,2025-03-14,2025-03-07,有限会社丸元,,有限会社,大阪府,松原市,北新町２丁目５番１８号,,27,217,5800025,,,2025-03-07,清算の結了等,,,2015-10-05,1,,,,,マルモト,0
1262,5122001031552,登記記録の閉鎖等,0,2025-03-14,2025-03-13,株式会社ＬＰＳリロケーション,,株式会社,大阪府,東大阪市,吉原２丁目１番４１号,,27,227,5780904,,,2025-03-13,清算の結了等,,,2018-05-02,1,,,,,エルピーエスリロケーション,0
1278,5160001012544,登記記録の閉鎖等,0,2025-03-14,2025-03-13,ＣＡＮＡＬＴＥＫＳ株式会社,,株式会社,滋賀県,大津市,瀬田５丁目１４番１－４０６号,,25,201,5202134,,,2025-03-13,清算の結了等,,,2015-10-05,1,,,,,カナルテクス,0
1287,5180001144121,登記記録の閉鎖等,0,2025-03-14,2025-03-07,株式会社ｉＢ,,株式会社,愛知県,名古屋市港区,当知町８丁目６４－４５ニューコーポ第二当知３０１号,,23,111,4550805,,,2025-03-07,清算の結了等,,,2020-12-23,1,,,,,アイビー,0
1309,5290001085560,登記記録の閉鎖等,0,2025-03-14,2025-02-28,株式会社アイアム,,株式会社,福岡県,福岡市中央区,白金１丁目１２番８号,,40,133,8100012,,,2025-02-28,合併による解散等,6290001022034,令和７年２月２８日福岡市中央区白金一丁目１２番８号株式会社アストア（6290001022034）に合併し解散,2019-06-17,1,,,,,アイアム,0
1325,5360002012176,登記記録の閉鎖等,0,2025-03-14,2025-03-11,有限会社南海建装工業,,有限会社,沖縄県,沖縄市,泡瀬１丁目２３番１０号,,47,211,9042172,,,2025-03-11,清算の結了等,,,2015-10-05,1,,,,,ナンカイケンソウコウギョウ,0
1337,5430001090645,登記記録の閉鎖等,0,2025-03-14,2025-03-13,ｉ‐ｒｅ．ｃｒｅａｔｅ株式会社,,株式会社,北海道,札幌市中央区,南十二条西８丁目１－３パークレジデンス１０２号室,,01,101,0640912,,,2025-03-13,清算の結了等,,,2023-12-15,1,,,,,アイリクリエイト,0
1343,5460101007389,登記記録の閉鎖等,0,2025-03-14,2025-03-07,株式会社Ｈｙｂｒｉｄ,,株式会社,北海道,河東郡音更町,字下士幌４８番地１７,,01,631,0800272,,,2025-03-07,清算の結了等,,,2023-06-06,1,,,,,ハイブリッド,0
1363,6010005024616,登記記録の閉鎖等,0,2025-03-14,2025-03-11,一般社団法人木創研,,その他の設立登記法人,東京都,文京区,本郷３丁目２５番１３号,,13,105,1130033,,,2025-03-11,清算の結了等,,,2015-11-12,1,,,,,モクソウケン,0
1367,6010103001112,登記記録の閉鎖等,0,2025-03-14,2025-03-12,合同会社Ｋｏ－ｓｅｉ,,合同会社,東京都,多摩市,連光寺１丁目１９番地の２４,,13,224,2060021,,,2025-03-12,清算の結了等,,,2017-04-07,1,,,,,コーセイ,0
1385,6010601028177,登記記録の閉鎖等,0,2025-03-14,2025-03-11,株式会社ヤマトビジュアルプランニング,,株式会社,東京都,江東区,亀戸１丁目２８番６号タニビル,,13,108,1360071,,,2025-03-11,清算の結了等,,,2015-10-05,1,,,,,ヤマトビジュアルプランニング,0
1405,6011101093018,登記記録の閉鎖等,0,2025-03-14,2025-03-03,ＷｏｒｄＦｉｎｄｅｒ　Ｊａｐａｎ株式会社,,株式会社,東京都,新宿区,弁天町１７７番地,,13,104,1620851,,,2025-03-03,清算の結了等,,,2020-11-05,1,,,,,ワードファインダージャパン,0
1409,6011201004774,登記記録の閉鎖等,0,2025-03-14,2025-03-11,株式会社福島商店,,株式会社,東京都,中野区,白鷺２丁目１番１６号,,13,114,1650035,,,2025-03-11,清算の結了等,,,2015-10-05,1,,,,,フクシマショウテン,0
1418,6012705001349,登記記録の閉鎖等,0,2025-03-14,2025-03-07,特定非営利活動法人ＥＢＳ協会,,その他の設立登記法人,東京都,東久留米市,東本町３番地１７号和合ビル３階,,13,222,2030014,,,2025-03-07,清算の結了等,,,2015-10-05,1,,,,,イービーエスキョウカイ,0
1429,6020001140498,登記記録の閉鎖等,0,2025-03-14,2025-02-07,ＡｒｏＢｉｚ株式会社,,株式会社,神奈川県,横浜市中区,花咲町１丁目４８番３号,,14,104,2310063,,,2025-02-07,清算の結了等,,,2021-03-23,1,,,,,アロビズ,0
1442,6021002072169,登記記録の閉鎖等,0,2025-03-14,2025-03-11,有限会社グロウイングコマース,,有限会社,神奈川県,逗子市,桜山５丁目５２５番地の２０,,14,208,2490005,,,2025-03-11,清算の結了等,,,2015-10-05,1,,,,,グロウイングコマース,0
1443,6021005006256,登記記録の閉鎖等,0,2025-03-14,2025-03-11,医療法人社団武尾医院,,その他の設立登記法人,神奈川県,南足柄市,塚原２６４１番地,,14,217,2500117,,,2025-03-11,清算の結了等,,,2015-10-05,1,,,,,タケオイイン,0
1452,6030002045183,登記記録の閉鎖等,0,2025-03-14,2025-03-10,有限会社なかしま,,有限会社,埼玉県,草加市,新善町３４３番地１２,,11,221,3400054,,,2025-03-10,清算の結了等,,,2015-10-05,1,,,,,ナカシマ,0
1464,6040003017180,登記記録の閉鎖等,0,2025-03-14,2025-03-03,株式会社ドリーム,,株式会社,千葉県,船橋市,習志野台８丁目５４番１－３１３号,,12,204,2740063,,,2025-03-03,合併による解散等,5040001135241,令和７年３月１日千葉県船橋市習志野台八丁目５４番１－３１３号株式会社ローマ（5040001135241）に合併し解散,2021-03-05,1,,,,,ドリーム,0
1465,6040003023278,登記記録の閉鎖等,0,2025-03-14,2025-03-03,株式会社ヒート,,株式会社,千葉県,船橋市,習志野台８丁目５４番１－３１３号,,12,204,2740063,,,2025-03-03,合併による解散等,5040001135241,令和７年３月１日千葉県船橋市習志野台八丁目５４番１－３１３号株式会社ローマ（5040001135241）に合併し解散,2023-09-08,1,,,,,ヒート,0
1467,6050001006440,登記記録の閉鎖等,0,2025-03-14,2025-03-10,株式会社ジャストライン,,株式会社,茨城県,水戸市,城南２丁目１５番１６号,,08,201,3100803,,,2025-03-10,清算の結了等,,,2015-10-05,1,,,,,ジャストライン,0
1469,6050001022132,登記記録の閉鎖等,0,2025-03-14,2025-03-10,株式会社エフ・プランニング,,株式会社,茨城県,鉾田市,上幡木１３６６番地の２,,08,234,3112113,,,2025-03-10,清算の結了等,,,2015-10-05,1,,,,,エフプランニング,0
1472,6050002035026,登記記録の閉鎖等,0,2025-03-14,2025-03-10,有限会社宇野建築,,有限会社,茨城県,常陸太田市,粟原町９１０番地の４,,08,212,3130045,,,2025-03-10,清算の結了等,,,2015-10-05,1,,,,,ウノケンチク,0
1479,6080401005865,登記記録の閉鎖等,0,2025-03-14,2025-03-05,株式会社レオ,,株式会社,静岡県,浜松市中央区,和合町３１５番地の８３０,,22,138,4338125,,,2025-03-05,清算の結了等,,,2015-10-05,1,,,,,レオ,0
1494,6120001193024,登記記録の閉鎖等,0,2025-03-14,2025-03-07,株式会社Ｔａｃａ,,株式会社,兵庫県,神戸市東灘区,住吉本町１丁目１７番１５号,,28,101,6580051,,,2025-03-07,清算の結了等,,,2015-10-05,1,,,,,タカ,0
1514,6122001018672,登記記録の閉鎖等,0,2025-03-14,2025-03-13,三和クローム工業株式会社,,株式会社,大阪府,東大阪市,花園本町１丁目１１番９号,,27,227,5780937,,,2025-03-13,清算の結了等,,,2015-10-05,1,,,,,サンワクロームコウギョウ,0
1536,6140002035784,登記記録の閉鎖等,0,2025-03-14,2025-03-10,有限会社小西商店,,有限会社,兵庫県,加古川市,尾上町池田７６０番地の１,,28,210,6750023,,,2025-03-10,清算の結了等,,,2015-10-05,1,,,,,コニシショウテン,0
1567,6260002008729,登記記録の閉鎖等,0,2025-03-14,2025-03-10,有限会社藤田設計,,有限会社,岡山県,岡山市北区,今保７００番地の３,,33,101,7010145,,,2025-03-10,清算の結了等,,,2015-10-05,1,,,,,フジタセッケイ,0
1572,6290001073589,登記記録の閉鎖等,0,2025-03-14,2025-03-12,株式会社サンライフ,,株式会社,東京都,港区,芝大門２丁目４番６号豊国ビル,,13,103,1050012,,,2025-03-12,合併による解散等,4010003043850,令和７年２月１日東京都千代田区神田和泉町１番地６－１６ハニカム１２合同会社（4010003043850）に合併し解散,2016-04-18,1,,,,,サンライフ,0
1573,6290801006715,登記記録の閉鎖等,0,2025-03-14,2025-03-07,株式会社アイジーアールサービス,,株式会社,福岡県,北九州市小倉南区,下曽根新町５番５号,,40,107,8000221,,,2025-03-07,清算の結了等,,,2015-10-05,1,,,,,アイジーアールサービス,0
1594,6370802000031,登記記録の閉鎖等,0,2025-03-14,2025-03-07,有限会社浅野商事,,有限会社,宮城県,名取市,増田字柳田１３５番地の１,,04,207,9811224,,,2025-03-07,清算の結了等,,,2015-10-05,1,,,,,アサノショウジ,0
1595,6400001004029,登記記録の閉鎖等,0,2025-03-14,2025-03-07,イオンスーパーセンター株式会社,,株式会社,岩手県,盛岡市,菜園１丁目１１－５,,03,201,0200024,,,2025-03-07,合併による解散等,5410001001901,令和７年３月１日秋田市土崎港北一丁目６番２５号イオン東北株式会社（5410001001901）に合併し解散,2015-10-05,1,,,,,イオンスーパーセンター,0
1607,6430002053798,登記記録の閉鎖等,0,2025-03-14,2025-03-07,有限会社石河商事,,有限会社,北海道,小樽市,稲穂１丁目７番１６号,,01,203,0470032,,,2025-03-07,清算の結了等,,,2015-10-05,1,,,,,,0
1618,7010001099347,登記記録の閉鎖等,0,2025-03-14,2025-03-03,株式会社ラグーナ,,株式会社,東京都,千代田区,神田紺屋町２９番地１号,,13,101,1010035,,,2025-03-03,清算の結了等,,,2015-10-05,1,,,,,ラグーナ,0
1647,7010401000995,登記記録の閉鎖等,0,2025-03-14,2025-02-25,株式会社アアル建築計画,,株式会社,東京都,港区,新橋１丁目９番２号,,13,103,1050004,,,2025-02-25,清算の結了等,,,2015-10-05,1,,,,,アアルケンチクケイカク,0
1648,7010401014120,登記記録の閉鎖等,0,2025-03-14,2025-02-25,株式会社シャトレアン,,株式会社,東京都,港区,南青山５丁目１７－６－４０２,,13,103,1070062,,,2025-02-25,清算の結了等,,,2015-10-05,1,,,,,シャトレアン,0
1655,7010401187965,登記記録の閉鎖等,0,2025-03-14,2025-03-12,Ａ．Ｐ．キャピタルグループ株式会社,,株式会社,東京都,港区,白金１丁目１７番２号白金タワーテラス棟１階フロントオフィスＢ０３,,13,103,1080072,,,2025-03-12,合併による解散等,9011001073265,令和７年３月５日東京都千代田区有楽町一丁目９番４号Ａ．Ｐ．リアルティ株式会社（9011001073265）に合併し解散,2025-02-14,1,,,,,エーピーキャピタルグループ,0
1686,7011005009234,登記記録の閉鎖等,0,2025-03-14,2025-03-13,一般社団法人スポーツ先進医療普及推進機構,,その他の設立登記法人,東京都,渋谷区,松濤１丁目２８－２,,13,113,1500046,,,2025-03-13,清算の結了等,,,2021-10-11,1,,,,,スポーツセンシンイリョウフキュウスイシンキコウ,0
1717,7013305001696,登記記録の閉鎖等,0,2025-03-14,2025-03-10,医療法人社団東京クリア会,,その他の設立登記法人,東京都,文京区,大塚３丁目５番１号茗荷谷クリアビル３階,,13,105,1120012,,,2025-03-10,清算の結了等,,,2015-10-05,1,,,,,トウキョウクリアカイ,0
1757,7040003023277,登記記録の閉鎖等,0,2025-03-14,2025-03-03,株式会社ツリー,,株式会社,千葉県,船橋市,習志野台８丁目５４番１－３１３号,,12,204,2740063,,,2025-03-03,合併による解散等,5040001135241,令和７年３月１日千葉県船橋市習志野台八丁目５４番１－３１３号株式会社ローマ（5040001135241）に合併し解散,2023-09-08,1,,,,,ツリー,0
1760,7050002038218,登記記録の閉鎖等,0,2025-03-14,2025-03-07,有限会社やまぐち造園,,有限会社,茨城県,つくばみらい市,小張２８９番地,,08,235,3002353,,,2025-03-07,清算の結了等,,,2015-10-05,1,,,,,ヤマグチゾウエン,0
1761,7060001016611,登記記録の閉鎖等,0,2025-03-14,2025-03-07,星野酒造株式会社,,株式会社,栃木県,栃木市,祝町７番１２号,,09,203,3280052,,,2025-03-07,清算の結了等,,,2015-10-05,1,,,,,ホシノシュゾウ,0
1767,7080401024939,登記記録の閉鎖等,0,2025-03-14,2025-02-25,株式会社暮らし環境センター,,株式会社,静岡県,浜松市中央区,小豆餅３丁目１２番１０号サンパレス２１萩丘西２０５号,,22,138,4338113,,,2025-02-25,清算の結了等,,,2021-04-05,1,,,,,クラシカンキョウセンター,0
1769,7080402018221,登記記録の閉鎖等,0,2025-03-14,2025-02-27,有限会社鈴木土建,,有限会社,静岡県,掛川市,高瀬１２４８番地の３,,22,213,4371401,,,2025-02-27,清算の結了等,,,2015-10-05,1,,,,,スズキドケン,0
1773,7100002018230,登記記録の閉鎖等,0,2025-03-14,2025-03-06,有限会社ベテリナリイオフィス,,有限会社,長野県,中野市,大字一本木３２０番地３,,20,211,3830012,,,2025-03-06,清算の結了等,,,2015-10-05,1,,,,,ベテリナリイオフィス,0
1776,7110001032207,登記記録の閉鎖等,0,2025-03-14,2025-03-11,株式会社ＴＥＲＡＤＡ．ＤＯＮ,,株式会社,新潟県,新潟市秋葉区,新金沢町１５番３３号,,15,105,9560815,,,2025-03-11,合併による解散等,1070001012631,令和７年３月１日群馬県藤岡市森５５番地株式会社ＴＥＲＡＤＡ．ＦＡＮ（1070001012631）に合併し解散,2017-03-06,1,,,,,テラダディーオーエヌ,0
1777,7110002021984,登記記録の閉鎖等,0,2025-03-14,2025-03-10,有限会社三宅鉄工所,,有限会社,新潟県,村上市,長政１８６番地１３,,15,212,9593111,,,2025-03-10,清算の結了等,,,2015-10-05,1,,,,,ミヤケテッコウショ,0
1782,7120001209357,登記記録の閉鎖等,0,2025-03-14,2025-02-26,株式会社ＳＳＳ,,株式会社,大阪府,大阪市中央区,南船場３丁目６番２５号,,27,128,5420081,,,2025-02-26,清算の結了等,,,2017-11-07,1,,,,,トリプルエス,0
1802,7120101069593,登記記録の閉鎖等,0,2025-03-14,2025-03-07,青禾株式会社,,株式会社,大阪府,堺市中区,新家町５２４番地１９,,27,142,5998232,,,2025-03-07,清算の結了等,,,2024-05-16,1,,,,,アオノギ,0
1811,7130001078586,登記記録の閉鎖等,0,2025-03-14,2025-03-12,ＤＩＧＷＩＤＥ株式会社,,株式会社,京都府,京都市西京区,川島梅園町６５番地の２,,26,111,6158113,,,2025-03-12,清算の結了等,,,2024-12-12,1,,,,,ディグワイド,0
1813,7130002025075,登記記録の閉鎖等,0,2025-03-14,2025-03-12,大嶋有限会社,,有限会社,京都府,向日市,鶏冠井町東井戸４０番地,,26,208,6170004,,,2025-03-12,清算の結了等,,,2015-10-05,1,,,,,オオシマ,0
1814,7130003005324,登記記録の閉鎖等,0,2025-03-14,2025-03-11,合同会社夢純美,,合同会社,京都府,京田辺市,河原食田１０番地２０,,26,211,6100361,,,2025-03-11,清算の結了等,,,2017-12-21,1,,,,,ユメジュンビ,0
1816,7140001114092,登記記録の閉鎖等,0,2025-03-14,2025-03-10,エフエムティー・ジャパン株式会社,,株式会社,兵庫県,宝塚市,月見山２丁目１８番１号,,28,214,6650002,,,2025-03-10,清算の結了等,,,2019-07-02,1,,,,,エフエムティージャパン,0
1822,7140002024002,登記記録の閉鎖等,0,2025-03-14,2025-03-10,有限会社パチェット,,有限会社,兵庫県,神戸市長田区,片山町５丁目１１番３－５１４号,,28,106,6530805,,,2025-03-10,清算の結了等,,,2015-10-05,1,,,,,パチェット,0
1823,7140002031114,登記記録の閉鎖等,0,2025-03-14,2025-03-06,有限会社ピースフルユーミー,,有限会社,兵庫県,三木市,志染町西自由が丘１丁目１８８番地,,28,215,6730551,,,2025-03-06,清算の結了等,,,2015-10-05,1,,,,,ピースフルユーミー,0
1828,7140002069419,登記記録の閉鎖等,0,2025-03-14,2025-03-10,有限会社イモトエンジニアリング,,有限会社,兵庫県,淡路市,浦１２７９番地,,28,226,6562305,,,2025-03-10,清算の結了等,,,2015-10-05,1,,,,,イモトエンジニアリング,0
1836,7180001032539,登記記録の閉鎖等,0,2025-03-14,2025-03-03,株式会社ジェー・ピー・エス,,株式会社,北海道,札幌市中央区,南十四条西１１丁目１番３号,,01,101,0640914,,,2025-03-03,合併による解散等,9013301024930,令和７年３月１日札幌市中央区南十四条西十一丁目１－３株式会社アゲインスト（9013301024930）に合併し解散,2015-10-05,1,,,,,ジェーピーエス,0
1841,7180001151941,登記記録の閉鎖等,0,2025-03-14,2025-03-07,アルヴァリンクグループ株式会社,,株式会社,愛知県,名古屋市中区,丸の内３丁目６－２７ＥＢＳビル５階Ａ,,23,106,4600002,,,2025-03-07,清算の結了等,,,2022-06-29,1,,,,,アルヴァリンクグループ,0
1854,7190002015723,登記記録の閉鎖等,0,2025-03-14,2025-03-11,有限会社フクフク,,有限会社,三重県,多気郡大台町,上三瀬８９３番地６,,24,443,5192403,,,2025-03-11,清算の結了等,,,2015-10-05,1,,,,,フクフク,0
1903,7390002009580,登記記録の閉鎖等,0,2025-03-14,2025-03-06,有限会社高橋文具店,00084940,有限会社,山形県,鶴岡市,伊勢原町６番２７号,,06,203,9970802,,,2025-03-06,清算の結了等,,,2015-10-05,1,,,,,タカハシブングテン,0
1915,7440001005996,登記記録の閉鎖等,0,2025-03-14,2025-03-11,大栄商事株式会社,,株式会社,北海道,山越郡長万部町,字長万部４３４番地の７,,01,347,0493521,,,2025-03-11,清算の結了等,,,2015-10-05,1,,,,,ダイエイショウジ,0
1943,8010005023500,登記記録の閉鎖等,0,2025-03-14,2025-03-10,一般社団法人薬剤師支援協会,,その他の設立登記法人,埼玉県,さいたま市見沼区,大和田町２丁目１６６５番地２２,,11,104,3370053,,,2025-03-10,清算の結了等,,,2015-10-05,1,,,,,ヤクザイシシエンキョウカイ,0
1967,8010601042564,登記記録の閉鎖等,0,2025-03-14,2025-03-13,株式会社コーシン,,株式会社,東京都,稲城市,東長沼１３４２番地,,13,225,2060802,,,2025-03-13,清算の結了等,,,2015-10-05,1,,,,,,0
1985,8011101060032,登記記録の閉鎖等,0,2025-03-14,2025-03-06,株式会社パートナーズダイニング,,株式会社,東京都,新宿区,西新宿７丁目２２番４３号,,13,104,1600023,,,2025-03-06,合併による解散等,7011101057112,令和７年３月１日東京都新宿区西新宿七丁目２２番４３号株式会社Ｂｒａｎｄ　Ｂａｎｋ　Ｃｏｍｐａｎｙ（7011101057112）に合併し解散,2015-10-05,1,,,,,パートナーズダイニング,0
1993,8011301003906,登記記録の閉鎖等,0,2025-03-14,2025-03-12,株式会社ソリッド・コーポレーション,,株式会社,東京都,杉並区,西荻北２丁目２番１号,,13,115,1670042,,,2025-03-12,清算の結了等,,,2015-10-05,1,,,,,ソリッドコーポレーション,0
1994,8011301017451,登記記録の閉鎖等,0,2025-03-14,2025-03-07,株式会社萬感,,株式会社,東京都,杉並区,高円寺南３丁目４７番８号,,13,115,1660003,,,2025-03-07,清算の結了等,,,2015-10-05,1,,,,,バンカン,0
2009,8011703003784,登記記録の閉鎖等,0,2025-03-14,2025-03-10,合同会社Ｆｉｒｓｔ,,合同会社,東京都,江戸川区,南篠崎町４丁目３番１４号カーサヒカリ３０３,,13,123,1330065,,,2025-03-10,清算の結了等,,,2024-03-25,1,,,,,ファースト,0
2014,8012301013069,登記記録の閉鎖等,0,2025-03-14,2025-03-12,ＰＬＵＳ　ＬＯＧ株式会社,,株式会社,東京都,町田市,森野１丁目３６番２号セレステ町田１階,,13,209,1940022,,,2025-03-12,清算の結了等,,,2022-07-26,1,,,,,プラスログ,0
2015,8012401008984,登記記録の閉鎖等,0,2025-03-14,2025-03-12,株式会社川喜屋,,株式会社,東京都,狛江市,中和泉２丁目１６番８号,,13,219,2010012,,,2025-03-12,清算の結了等,,,2015-10-05,1,,,,,カワキヤ,0
2019,8012701014880,登記記録の閉鎖等,0,2025-03-14,2025-03-12,株式会社三幸給食,,株式会社,東京都,江東区,白河４丁目９番２５－２２０１号,,13,108,1350021,,,2025-03-12,清算の結了等,,,2018-07-02,1,,,,,サンコウキュウショク,0
2026,8020001139968,登記記録の閉鎖等,0,2025-03-14,2025-03-12,ジルナオーガニック株式会社,,株式会社,東京都,中野区,中野３丁目３７番７号クレストヒル桃ケ丘７０４,,13,114,1640001,,,2025-03-12,清算の結了等,,,2021-02-16,1,,,,,ジルナオーガニック,0
2033,8020002022297,登記記録の閉鎖等,0,2025-03-14,2025-03-05,有限会社フオレスト,,有限会社,神奈川県,横浜市旭区,鶴ケ峰１丁目２５番地の１１,,14,112,2410022,,,2025-03-05,清算の結了等,,,2015-10-05,1,,,,,フオレスト,0
2054,8040001046527,登記記録の閉鎖等,0,2025-03-14,2025-03-03,株式会社クッキング・ウィズ・ドッグ,,株式会社,千葉県,成田市,美郷台１丁目８番地２１,,12,211,2860013,,,2025-03-03,清算の結了等,,,2015-10-05,1,,,,,クッキングウィズドッグ,0
2056,8040001066913,登記記録の閉鎖等,0,2025-03-14,2025-03-04,株式会社大漁寿し,,株式会社,千葉県,我孫子市,つくし野５丁目１番２号,,12,222,2701164,,,2025-03-04,清算の結了等,,,2015-10-05,1,,,,,,0
2058,8040001098089,登記記録の閉鎖等,0,2025-03-14,2025-03-05,株式会社翔和,,株式会社,千葉県,流山市,鰭ケ崎８－３－２Ｂ,,12,220,2700161,,,2025-03-05,清算の結了等,,,2016-12-21,1,,,,,ショウワ,0
2071,8040003017179,登記記録の閉鎖等,0,2025-03-14,2025-03-03,株式会社ミライ,,株式会社,千葉県,船橋市,習志野台８丁目５４番１－３１３号,,12,204,2740063,,,2025-03-03,合併による解散等,5040001135241,令和７年３月１日千葉県船橋市習志野台八丁目５４番１－３１３号株式会社ローマ（5040001135241）に合併し解散,2021-03-05,1,,,,,ミライ,0
2072,8040003023276,登記記録の閉鎖等,0,2025-03-14,2025-03-03,株式会社ベル,,株式会社,千葉県,船橋市,習志野台８丁目５４番１－３１３号,,12,204,2740063,,,2025-03-03,合併による解散等,5040001135241,令和７年３月１日千葉県船橋市習志野台八丁目５４番１－３１３号株式会社ローマ（5040001135241）に合併し解散,2023-09-08,1,,,,,ベル,0
2076,8050001043713,登記記録の閉鎖等,0,2025-03-14,2025-03-03,株式会社グローカル・ユナイテッド,,株式会社,茨城県,石岡市,柏原１番地９,,08,205,3150002,,,2025-03-03,合併による解散等,5050001011904,令和７年３月１日茨城県石岡市柏原１番地９株式会社丸高商会（5050001011904）に合併し解散,2017-12-07,1,,,,,グローカルユナイテッド,0
2078,8050003004481,登記記録の閉鎖等,0,2025-03-14,2025-03-10,合同会社ｌｅｇａｒｅ,,合同会社,茨城県,古河市,松並１丁目２０番２２号,,08,204,3060021,,,2025-03-10,清算の結了等,,,2018-12-28,1,,,,,レガーレ,0
2090,8100002016992,登記記録の閉鎖等,0,2025-03-14,2025-03-06,有限会社アルペン倶楽部,,有限会社,長野県,飯山市,大字豊田６４５８番地,,20,213,3892411,,,2025-03-06,清算の結了等,,,2015-10-05,1,,,,,アルペンクラブ,0
2111,8120101049405,登記記録の閉鎖等,0,2025-03-14,2025-03-06,株式会社ダイス,,株式会社,大阪府,泉佐野市,上町２丁目７－２６,,27,213,5980007,,,2025-03-06,清算の結了等,,,2015-10-05,1,,,,,ダイス,0
2124,8130001032848,登記記録の閉鎖等,0,2025-03-14,2025-03-12,塚本工業株式会社,,株式会社,京都府,宇治市,槇島町目川２５番地１,,26,204,6110041,,,2025-03-12,清算の結了等,,,2015-10-05,1,,,,,ツカモトコウギョウ,0
2141,8140002021196,登記記録の閉鎖等,0,2025-03-14,2025-03-10,有限会社キッズワールド,,有限会社,兵庫県,神戸市中央区,中山手通２丁目４番１－１４０１号,,28,110,6500004,,,2025-03-10,清算の結了等,,,2015-10-05,1,,,,,キッズワールド,0
2142,8140002035114,登記記録の閉鎖等,0,2025-03-14,2025-03-10,有限会社丹波わらしべ屋,,有限会社,兵庫県,丹波篠山市,東新町５５番地,,28,221,6692324,,,2025-03-10,清算の結了等,,,2015-10-05,1,,,,,タンバワラシベヤ,0
2162,8200003006082,登記記録の閉鎖等,0,2025-03-14,2025-03-11,合同会社ファクト,,合同会社,岐阜県,岐阜市,矢島町１丁目４番１,,21,201,5008082,,,2025-03-11,合併による解散等,1180301038596,令和７年３月１日愛知県岡崎市大平町字天神前８番地１株式会社アース（1180301038596）に合併し解散,2023-09-13,1,,,,,ファクト,0
2192,8300001011909,登記記録の閉鎖等,0,2025-03-14,2025-03-12,株式会社志田不動産企画,,株式会社,佐賀県,武雄市,橘町大字芦原５５９１番地５,,41,206,8430011,,,2025-03-12,清算の結了等,,,2019-12-04,1,,,,,シダフドウサンキカク,0
2194,8330001026722,登記記録の閉鎖等,0,2025-03-14,2025-03-07,株式会社緑遊,,株式会社,熊本県,八代市,平山新町５１７３番地１,,43,202,8660074,,,2025-03-07,清算の結了等,,,2019-09-06,1,,,,,リョクユウ,0
2199,8390003001998,登記記録の閉鎖等,0,2025-03-14,2025-03-07,合同会社ＳＡＫＵＲＡｓｔｙｌｅ,,合同会社,山形県,寒河江市,中央１丁目８‐５１,,06,206,9910021,,,2025-03-07,清算の結了等,,,2022-09-20,1,,,,,サクラスタイル,0
2200,8410005001779,登記記録の閉鎖等,0,2025-03-14,2025-03-10,特定非営利活動法人華工房,,その他の設立登記法人,秋田県,潟上市,天王字追分西９３番地１１,,05,211,0100101,,,2025-03-10,清算の結了等,,,2015-10-05,1,,,,,ハナコウボウ,0
2208,8430002041438,登記記録の閉鎖等,0,2025-03-14,2025-03-07,有限会社野田特殊技建,,有限会社,北海道,札幌市北区,新琴似五条１７丁目１番１－１００３号,,01,102,0010905,,,2025-03-07,清算の結了等,,,2015-10-05,1,,,,,ノダトクシュギケン,0
2241,9010401142547,登記記録の閉鎖等,0,2025-03-14,2025-02-25,株式会社ＨＳＣ,,株式会社,東京都,港区,芝大門１丁目１５－１０－３階,,13,103,1050012,,,2025-02-25,清算の結了等,,,2018-12-11,1,,,,,エイチエスシー,0
2248,9010403015313,登記記録の閉鎖等,0,2025-03-14,2025-02-25,合同会社なかた企画,,合同会社,東京都,港区,浜松町２丁目２番１５号,,13,103,1050013,,,2025-02-25,清算の結了等,,,2016-09-06,1,,,,,,0
2255,9010601030139,登記記録の閉鎖等,0,2025-03-14,2025-03-11,株式会社ヤマトクリエーション・エスピー,,株式会社,東京都,江東区,亀戸１丁目２８番６号タニビル,,13,108,1360071,,,2025-03-11,清算の結了等,,,2015-10-05,1,,,,,ヤマトクリエーションエスピー,0
2291,9011801036867,登記記録の閉鎖等,0,2025-03-14,2025-03-11,セリオシステム株式会社,,株式会社,神奈川県,藤沢市,鵠沼海岸４丁目７－１６,,14,205,2510037,,,2025-03-11,清算の結了等,,,2019-11-12,1,,,,,セリオシステム,0
2294,9012401021128,登記記録の閉鎖等,0,2025-03-14,2025-03-07,株式会社Ｏｒｄｅｔ,,株式会社,東京都,杉並区,上荻１丁目２番１号,,13,115,1670043,,,2025-03-07,合併による解散等,1011301017904,令和７年３月１日東京都杉並区上荻一丁目２番１号株式会社ウルトラスーパーピクチャーズ（1011301017904）に合併し解散,2015-10-05,1,,,,,,0
2309,9020001110366,登記記録の閉鎖等,0,2025-03-14,2025-03-07,日本ユニファイド・コミュニケーションズ株式会社,,株式会社,神奈川県,横浜市中区,不老町１丁目２番１号中央第６関内ビル３階,,14,104,2310032,,,2025-03-07,清算の結了等,,,2015-10-05,1,,,,,ニホンユニファイドコミュニケーションズ,0
2327,9021001073033,登記記録の閉鎖等,0,2025-03-14,2025-02-25,株式会社ＭＡＳＨ,,株式会社,東京都,港区,南青山３丁目１番３６号青山丸竹ビル６Ｆ,,13,103,1070062,,,2025-02-25,清算の結了等,,,2021-06-04,1,,,,,マッシュ,0
2329,9021002064485,登記記録の閉鎖等,0,2025-03-14,2025-03-06,有限会社笹子豆腐店,,有限会社,神奈川県,横須賀市,佐野町６丁目３１番地,,14,201,2380052,,,2025-03-06,清算の結了等,,,2015-10-05,1,,,,,ササゴトウフテン,0
2330,9021003014043,登記記録の閉鎖等,0,2025-03-14,2025-03-12,合同会社グロディクス,,合同会社,神奈川県,横須賀市,米が浜通１丁目７番地２サクマ横須賀ビル３０４号,,14,201,2380011,,,2025-03-12,清算の結了等,,,2024-01-19,1,,,,,グロディクス,0
2332,9030001088643,登記記録の閉鎖等,0,2025-03-14,2025-03-11,株式会社タケダ建築事務所,,株式会社,埼玉県,熊谷市,池上９１８番地９,,11,202,3600011,,,2025-03-11,清算の結了等,,,2015-10-05,1,,,,,タケダケンチクジムショ,0
2342,9040002018672,登記記録の閉鎖等,0,2025-03-14,2025-03-04,有限会社都ど井,,有限会社,千葉県,習志野市,大久保３丁目１５番２号,,12,216,2750011,,,2025-03-04,清算の結了等,,,2015-10-05,1,,,,,ツドイ,0
2350,9040003017186,登記記録の閉鎖等,0,2025-03-14,2025-03-03,株式会社トライスター,,株式会社,千葉県,船橋市,習志野台１丁目２６番７－３０８号,,12,204,2740063,,,2025-03-03,合併による解散等,4040001135242,令和７年３月１日千葉県船橋市習志野台一丁目２６番７－３０８号ネクストボックス株式会社（4040001135242）に合併し解散,2021-03-05,1,,,,,トライスター,0
2352,9040003023275,登記記録の閉鎖等,0,2025-03-14,2025-03-03,株式会社スタイル,,株式会社,千葉県,船橋市,習志野台１丁目２６番７－３０８号,,12,204,2740063,,,2025-03-03,合併による解散等,4040001135242,令和７年３月１日千葉県船橋市習志野台一丁目２６番７－３０８号ネクストボックス株式会社（4040001135242）に合併し解散,2023-09-08,1,,,,,スタイル,0
2355,9040005014990,登記記録の閉鎖等,0,2025-03-14,2025-03-04,アワメディカル協同組合,,その他の設立登記法人,千葉県,館山市,長須賀６７２番地,,12,205,2940037,,,2025-03-04,清算の結了等,,,2015-10-05,1,,,,,アワメディカル,0
2358,9050001005290,登記記録の閉鎖等,0,2025-03-14,2025-03-10,株式会社オールデイベストリフォーム,,株式会社,茨城県,鉾田市,上幡木１３６６番地の２,,08,234,3112113,,,2025-03-10,清算の結了等,,,2015-10-05,1,,,,,オールデイベストリフォーム,0
2402,9130001016247,登記記録の閉鎖等,0,2025-03-14,2025-03-12,京都中岡商事株式会社,,株式会社,京都府,京都市伏見区,向島津田町９５番地の５０,,26,109,6128154,,,2025-03-12,清算の結了等,,,2015-10-05,1,,,,,キョウトナカオカショウジ,0
2426,9180003003924,登記記録の閉鎖等,0,2025-03-14,2025-03-10,合資会社細川玩具店,,合資会社,愛知県,名古屋市西区,新道２丁目１１番５号,,23,104,4510043,,,2025-03-10,清算の結了等,,,2015-10-05,1,,,,,ホソカワガンクテン,0
2438,9230001012814,登記記録の閉鎖等,0,2025-03-14,2025-03-11,株式会社パスコ,,株式会社,富山県,射水市,中太閤山１丁目１番地２,,16,211,9390363,,,2025-03-11,清算の結了等,,,2015-10-05,1,,,,,パスコ,0
2468,9370002018598,登記記録の閉鎖等,0,2025-03-14,2025-03-07,株式会社ティー・エフコーポレーション,,株式会社,宮城県,仙台市青葉区,国分町１丁目６番１５号,,04,101,9800803,,,2025-03-07,清算の結了等,,,2015-10-05,1,,,,,ティーエフコーポレーション,0
2474,9400005003676,登記記録の閉鎖等,0,2025-03-14,2025-03-05,医療法人なるいクリニック,,その他の設立登記法人,岩手県,北上市,柳原町１丁目１番４１号,,03,206,0240083,,,2025-03-05,清算の結了等,,,2015-10-05,1,,,,,ナルイクリニック,0
