sequenceNumber,corporateNumber,process,correct,updateDate,changeDate,name,nameImageId,kind,prefectureName,cityName,streetNumber,addressImageId,prefectureCode,cityCode,postCode,addressOutside,addressOutsideImageId,closeDate,closeCause,successorCorporateNumber,changeCause,assignmentDate,latest,enName,enPrefectureName,enCityName,enAddressOutside,furigana,hihyoji
13,1010003027583,登記記録の閉鎖等,0,2025-08-13,2025-07-14,ＡＦ１５合同会社,,合同会社,東京都,中央区,京橋１丁目１１番１号,,13,102,1040031,,,2025-07-14,清算の結了等,,,2018-05-24,1,,,,,エーエフフィフティーン,0
14,1010003043746,登記記録の閉鎖等,0,2025-08-13,2025-07-11,合同会社Ａｓｃｏｔ　Ｐｒｉｍｅ　Ｌｏｇｉｓｔｉｃｓ鶴ヶ島,,合同会社,東京都,千代田区,丸の内１丁目４番１号東京共同会計事務所内,,13,101,1000005,,,2025-07-11,清算の結了等,,,2024-05-15,1,,,,,アスコットプライムロジスティクスツルガシマ,0
24,1010403018637,登記記録の閉鎖等,0,2025-08-13,2025-08-08,合同会社ヒラメキ,,合同会社,東京都,港区,芝５丁目２７番３号ＭＢＣ－Ｂ－６４号,,13,103,1080014,,,2025-08-08,合併による解散等,3010401146735,令和７年８月１日東京都品川区上大崎二丁目２番３－２０１号株式会社チェインフォレスト（3010401146735）に合併し解散,2018-05-18,1,,,,,ヒラメキ,0
26,1010502015130,登記記録の閉鎖等,0,2025-08-13,2025-06-27,有限会社ケーエスプラザ,,有限会社,東京都,台東区,谷中５丁目１番１２号,,13,106,1100001,,,2025-06-27,清算の結了等,,,2015-10-05,1,,,,,ケーエスプラザ,0
30,1010701007515,登記記録の閉鎖等,0,2025-08-13,2025-08-01,ロジスティックスシステム輸送株式会社,,株式会社,東京都,大田区,東海４丁目２番２２号,,13,111,1430001,,,2025-08-01,清算の結了等,,,2015-10-05,1,,,,,ロジスティックスシステムユソウ,0
31,1010701022811,登記記録の閉鎖等,0,2025-08-13,2025-07-10,株式会社Ｇｎａｒｅｌｙ　Ｓｔｕｄｉｏｓ,,株式会社,東京都,中央区,入船２丁目１０番６号良峯ビル２Ｆ,,13,102,1040042,,,2025-07-10,清算の結了等,,,2015-10-05,1,,,,,ナーリースタジオズ,0
47,1011002018986,登記記録の閉鎖等,0,2025-08-13,2025-07-08,有限会社アドスタッフプランニング,,有限会社,東京都,渋谷区,代々木１丁目５７番２号,,13,113,1510053,,,2025-07-08,清算の結了等,,,2015-10-05,1,,,,,アドスタッフプランニング,0
48,1011002034348,登記記録の閉鎖等,0,2025-08-13,2025-07-09,有限会社クーシーラボ,,有限会社,東京都,渋谷区,東３丁目１６番３号,,13,113,1500011,,,2025-07-09,清算の結了等,,,2015-10-05,1,,,,,クーシーラボ,0
51,1011202000661,登記記録の閉鎖等,0,2025-08-13,2025-07-30,有限会社インテリアダイトー,,有限会社,東京都,中野区,弥生町１丁目３１番３号,,13,114,1640013,,,2025-07-30,清算の結了等,,,2015-10-05,1,,,,,インテリアダイトー,0
58,1011802007973,登記記録の閉鎖等,0,2025-08-13,2025-08-06,有限会社柳沢ゴム,,有限会社,東京都,葛飾区,宝町１丁目１０番１２号,,13,122,1240005,,,2025-08-06,清算の結了等,,,2015-10-05,1,,,,,ヤナギサワゴム,0
64,1013202004428,登記記録の閉鎖等,0,2025-08-13,2025-07-28,有限会社東歯歯科補綴研究所,,有限会社,神奈川県,川崎市宮前区,菅生２丁目３１番１１号,,14,136,2160015,,,2025-07-28,清算の結了等,,,2015-10-05,1,,,,,トウシシカホテツケンキュウジョ,0
65,1013301033996,登記記録の閉鎖等,0,2025-08-13,2025-08-05,トレクセルジャパン株式会社,,株式会社,東京都,品川区,大崎１丁目６番４号,,13,109,1410032,,,2025-08-05,清算の結了等,,,2015-10-05,1,,,,,トレクセルジャパン,0
66,1020001029151,登記記録の閉鎖等,0,2025-08-13,2025-07-28,メディカルサイエンス株式会社,,株式会社,神奈川県,横浜市中区,不老町３丁目１２番地５,,14,104,2310032,,,2025-07-28,清算の結了等,,,2015-10-05,1,,,,,メディカルサイエンス,0
67,1020001097388,登記記録の閉鎖等,0,2025-08-13,2025-07-17,株式会社ノザキ,,株式会社,神奈川県,横浜市保土ケ谷区,宮田町１丁目２番地の８,,14,106,2400002,,,2025-07-17,清算の結了等,,,2015-10-05,1,,,,,ノザキ,0
69,1020001137367,登記記録の閉鎖等,0,2025-08-13,2025-08-04,ジャパン・ネット株式会社,,株式会社,神奈川県,相模原市南区,南台５丁目１５番１３号サンクレストガーデン３０１号室,,14,153,2520314,,,2025-08-04,清算の結了等,,,2020-08-24,1,,,,,ジャパンネット,0
83,1030002004350,登記記録の閉鎖等,0,2025-08-13,2025-08-05,有限会社クロス企画,,有限会社,埼玉県,さいたま市中央区,本町東７丁目６番１５号,,11,105,3380003,,,2025-08-05,清算の結了等,,,2015-10-05,1,,,,,クロスキカク,0
88,1040001001257,登記記録の閉鎖等,0,2025-08-13,2025-08-08,東テク電工株式会社,,株式会社,千葉県,千葉市中央区,浜野町５９４番地３,,12,101,2600824,,,2025-08-08,合併による解散等,9010601024883,令和７年８月１日東京都墨田区立川二丁目１１番１０号日本ビルコン株式会社（9010601024883）に合併し解散,2015-10-05,1,,,,,ヒガシテクデンコウ,0
90,1040001137308,登記記録の閉鎖等,0,2025-08-13,2025-07-22,Ｅｍｅｇｏｎ株式会社,,株式会社,千葉県,浦安市,猫実５丁目９番１７号ライトエイジ８０１号室,,12,227,2790004,,,2025-07-22,清算の結了等,,,2025-02-07,1,,,,,エメゴン,0
94,1040002032359,登記記録の閉鎖等,0,2025-08-13,2025-07-22,有限会社市川建工社,,有限会社,千葉県,市川市,本北方１丁目２５番１号,,12,203,2720816,,,2025-07-22,清算の結了等,,,2015-10-05,1,,,,,イチカワケンコウシャ,0
104,1050002023877,登記記録の閉鎖等,0,2025-08-13,2025-07-30,有限会社黒岩総合企画,,有限会社,茨城県,古河市,原町１２番４０号,,08,204,3060025,,,2025-07-30,清算の結了等,,,2015-10-05,1,,,,,クロイワソウゴウキカク,0
105,1050002031946,登記記録の閉鎖等,0,2025-08-13,2025-07-31,有限会社大高建設,,有限会社,茨城県,日立市,十王町伊師１４５５番地,,08,202,3191301,,,2025-07-31,清算の結了等,,,2015-10-05,1,,,,,オオタカケンセツ,0
109,1060002038940,登記記録の閉鎖等,0,2025-08-13,2025-07-31,有限会社ケイツー,,有限会社,栃木県,佐野市,犬伏上町１８８９番地１０,,09,204,3270806,,,2025-07-31,清算の結了等,,,2015-10-05,1,,,,,ケイツー,0
113,1080101022991,登記記録の閉鎖等,0,2025-08-13,2025-08-07,株式会社石井創建,,株式会社,静岡県,三島市,長伏１００番地の１６,,22,206,4110824,,,2025-08-07,清算の結了等,,,2021-12-22,1,,,,,イシイソウケン,0
118,1120001028812,登記記録の閉鎖等,0,2025-08-13,2025-07-22,共成自動車商会株式会社,,株式会社,大阪府,大阪市港区,夕凪２丁目１７番１３号,,27,107,5520004,,,2025-07-22,清算の結了等,,,2015-10-05,1,,,,,キョウセイジドウシャショウカイ,0
119,1120001134718,登記記録の閉鎖等,0,2025-08-13,2025-07-22,株式会社緑水学舎,,株式会社,大阪府,大阪市北区,梅田１丁目１１番４－９２３号大阪駅前第４ビル９階,,27,127,5300001,,,2025-07-22,清算の結了等,,,2015-10-05,1,,,,,リョクスイガクシャ,0
136,1120902005744,登記記録の閉鎖等,0,2025-08-13,2025-07-23,有限会社カチオン,,有限会社,大阪府,吹田市,豊津町３０番１２号,,27,205,5640051,,,2025-07-23,清算の結了等,,,2015-10-05,1,,,,,カチオン,0
137,1122001007333,登記記録の閉鎖等,0,2025-08-13,2025-07-24,株式会社モナミ製作所,,株式会社,大阪府,東大阪市,若江北町３丁目３番１０号,,27,227,5780945,,,2025-07-24,清算の結了等,,,2015-10-05,1,,,,,モナミセイサクショ,0
141,1130001064955,登記記録の閉鎖等,0,2025-08-13,2025-07-30,京谷株式会社,,株式会社,京都府,京都市右京区,太秦森ケ東町７番地１５,,26,108,6168102,,,2025-07-30,清算の結了等,,,2019-07-25,1,,,,,,0
146,1130002029164,登記記録の閉鎖等,0,2025-08-13,2025-07-29,有限会社明星工業,,有限会社,京都府,亀岡市,大井町土田３丁目３１番１３号,,26,206,6210011,,,2025-07-29,清算の結了等,,,2015-10-05,1,,,,,メイセイコウギョウ,0
148,1140003005857,登記記録の閉鎖等,0,2025-08-13,2025-08-05,合同会社オフィス・ファスト,,合同会社,兵庫県,三木市,志染町中自由が丘３丁目２４０番地,,28,215,6730552,,,2025-08-05,清算の結了等,,,2015-10-05,1,,,,,オフィスファスト,0
149,1140005024005,登記記録の閉鎖等,0,2025-08-13,2025-08-04,一般財団法人ラインダンスファン,,その他の設立登記法人,兵庫県,神戸市東灘区,向洋町中１丁目１０番地１０１号棟３９０４号室,,28,101,6580032,,,2025-08-04,清算の結了等,,,2018-03-22,1,,,,,ラインダンスファン,0
153,1180001055124,登記記録の閉鎖等,0,2025-08-13,2025-07-17,東名紙業株式会社,,株式会社,愛知県,名古屋市港区,藤前２丁目２０１番地１,,23,111,4550855,,,2025-07-17,清算の結了等,,,2015-10-05,1,,,,,トウメイシギョウ,0
155,1180001121140,登記記録の閉鎖等,0,2025-08-13,2025-07-16,株式会社ＺＥＡＲ,,株式会社,愛知県,名古屋市東区,黒門町５１番地の２,,23,102,4610035,,,2025-07-16,清算の結了等,,,2015-11-27,1,,,,,ゼアー,0
157,1180001143721,登記記録の閉鎖等,0,2025-08-13,2025-08-01,株式会社エイトプラン,,株式会社,愛知県,名古屋市東区,白壁２丁目１番２０コンセール白壁６階,,23,102,4610011,,,2025-08-01,合併による解散等,7180001126803,令和７年８月１日名古屋市東区白壁二丁目１番２０号コンセール白壁６階株式会社セブンプラン（7180001126803）に合併し解散,2020-11-20,1,,,,,エイトプラン,0
160,1180002077266,登記記録の閉鎖等,0,2025-08-13,2025-07-16,有限会社萩原適塾,,有限会社,愛知県,一宮市,萩原町串作１３９９番地の５,,23,203,4910376,,,2025-07-16,清算の結了等,,,2015-10-05,1,,,,,ハギワラテキジュク,0
170,1190002017213,登記記録の閉鎖等,0,2025-08-13,2025-08-01,有限会社三林本家,,有限会社,三重県,桑名市,中山町１１１番地,,24,205,5110914,,,2025-08-01,合併による解散等,2190001012692,令和７年８月１日三重県桑名市大字森忠４６５番地の１ヤマモリフードエンジニアリング株式会社（2190001012692）に合併し解散,2015-10-05,1,,,,,ミツバヤシホンケ,0
174,1210001001099,登記記録の閉鎖等,0,2025-08-13,2025-07-31,株式会社グローバル,,株式会社,福井県,坂井市,坂井町宮領１４号２番地,,18,210,9190512,,,2025-07-31,合併による解散等,8210001002173,令和７年７月３０日福井県坂井市坂井町宮領１４号２番地トヨシマセンイ株式会社（8210001002173）に合併し解散,2015-10-05,1,,,,,グローバル,0
188,1240002032652,登記記録の閉鎖等,0,2025-08-13,2025-08-05,クシベ建設有限会社,,有限会社,広島県,呉市,神山３丁目１０番１２号,,34,202,7370923,,,2025-08-05,清算の結了等,,,2015-10-05,1,,,,,クシベケンセツ,0
190,1250002008809,登記記録の閉鎖等,0,2025-08-13,2025-08-01,有限会社キャストクラブ,,有限会社,山口県,下関市,勝谷新町１丁目１０番４号,,35,201,7510802,,,2025-08-01,合併による解散等,7250001014496,令和７年８月１日山口県下関市勝谷新町一丁目１０番４号株式会社ＨＡＬデンタルアート（7250001014496）に合併し解散,2015-10-05,1,,,,,キャストクラブ,0
195,1270002001159,登記記録の閉鎖等,0,2025-08-13,2025-08-08,有限会社住山自動車,,有限会社,鳥取県,鳥取市,興南町６６番地,,31,201,6800844,,,2025-08-08,清算の結了等,,,2015-10-05,1,,,,,,0
196,1280002005043,登記記録の閉鎖等,0,2025-08-13,2025-08-08,有限会社アイエス設計,,有限会社,島根県,出雲市,大塚町８１２番地８,,32,203,6930063,,,2025-08-08,清算の結了等,,,2015-10-05,1,,,,,アイエスセッケイ,0
217,1350002007156,登記記録の閉鎖等,0,2025-08-13,2025-08-05,有限会社とこなみ時計店,,有限会社,宮崎県,東諸県郡国富町,大字本庄４５９８番地５,,45,382,8801101,,,2025-08-05,清算の結了等,,,2015-10-05,1,,,,,トコナミトケイテン,0
234,1370601000294,登記記録の閉鎖等,0,2025-08-13,2025-08-06,株式会社三誠工業所,,株式会社,宮城県,宮城郡利府町,加瀬字野中沢４番地の１、Ｆ棟,,04,406,9810111,,,2025-08-06,清算の結了等,,,2015-10-05,1,,,,,サンセイコウギョウショ,0
237,1380002025675,登記記録の閉鎖等,0,2025-08-13,2025-07-23,有限会社平山物産,,有限会社,福島県,いわき市,勿来町窪田馬場５５番地,,07,204,9790141,,,2025-07-23,清算の結了等,,,2015-10-05,1,,,,,ヒラヤマブッサン,0
249,1470001005322,登記記録の閉鎖等,0,2025-08-13,2025-08-07,株式会社フジテックラボ,,株式会社,香川県,高松市,国分寺町新名４７０番地４,,37,201,7690104,,,2025-08-07,清算の結了等,,,2015-10-05,1,,,,,フジテックラボ,0
250,1480005006935,登記記録の閉鎖等,0,2025-08-13,2025-08-01,特定非営利活動法人あわじん,,その他の設立登記法人,徳島県,阿南市,羽ノ浦町古庄大道ノ西２７番地３,,36,204,7791105,,,2025-08-01,清算の結了等,,,2022-12-20,1,,,,,アワジン,0
271,2010501013299,登記記録の閉鎖等,0,2025-08-13,2025-07-25,株式会社輝,,株式会社,大阪府,吹田市,江坂町１丁目１３番８－３０５号,,27,205,5640063,,,2025-07-25,清算の結了等,,,2015-10-05,1,,,,,カガヤキ,0
275,2010805002782,登記記録の閉鎖等,0,2025-08-13,2025-08-01,一般社団法人薬剤業務支援機構,,その他の設立登記法人,東京都,大田区,山王２丁目５番６号,,13,111,1430023,,,2025-08-01,清算の結了等,,,2020-10-22,1,,,,,ヤクザイギョウムシエンキコウ,0
300,2011501005336,登記記録の閉鎖等,0,2025-08-13,2025-08-08,エスペランサ株式会社,,株式会社,東京都,荒川区,東日暮里６丁目２８番１８号,,13,118,1160014,,,2025-08-08,合併による解散等,2011502014988,令和７年８月１日東京都府中市晴見町一丁目７番地の３エスペランサ株式会社（2011502014988）に合併し解散,2015-10-05,1,,,,,エスペランサ,0
308,2012401017181,登記記録の閉鎖等,0,2025-08-13,2025-07-24,株式会社松籟,,株式会社,東京都,国立市,中２丁目９番地の１８,,13,215,1860004,,,2025-07-24,清算の結了等,,,2015-10-05,1,,,,,ショウライ,0
309,2012401031059,登記記録の閉鎖等,0,2025-08-13,2025-07-30,吉澤ビル株式会社,,株式会社,東京都,武蔵野市,中町１丁目３３番３号,,13,203,1800006,,,2025-07-30,清算の結了等,,,2016-02-19,1,,,,,ヨシザワビル,0
315,2012702000035,登記記録の閉鎖等,0,2025-08-13,2025-08-06,有限会社クイックライン,,有限会社,東京都,東久留米市,浅間町２丁目７番３４号,,13,222,2030012,,,2025-08-06,清算の結了等,,,2015-10-05,1,,,,,クイックライン,0
319,2013301001341,登記記録の閉鎖等,0,2025-08-13,2025-07-28,株式会社エイケイ二十一,,株式会社,東京都,豊島区,南長崎２丁目８番１２号,,13,116,1710052,,,2025-07-28,清算の結了等,,,2015-10-05,1,,,,,エイケイニジュウイチ,0
321,2020001125841,登記記録の閉鎖等,0,2025-08-13,2025-07-28,株式会社ＩＳＣ　Ｊａｐａｎ　Ｒ＆Ｄ　Ｃｅｎｔｅｒ,,株式会社,東京都,練馬区,高野台１丁目１３番２１号,,13,120,1770033,,,2025-07-28,清算の結了等,,,2018-04-12,1,,,,,アイエスシージャパンアールアンドディセンター,0
328,2030001063215,登記記録の閉鎖等,0,2025-08-13,2025-08-12,マグネター株式会社,,株式会社,埼玉県,さいたま市岩槻区,本町４丁目２番３５号,,11,110,3390057,,,2025-08-12,清算の結了等,,,2015-10-05,1,,,,,マグネター,0
332,2030002004093,登記記録の閉鎖等,0,2025-08-13,2025-07-22,きの＿た薬局有限会社,00015935,有限会社,埼玉県,さいたま市北区,本郷町１０６７番地の２,,11,102,3310802,,,2025-07-22,清算の結了等,,,2015-10-05,1,,,,,キノシタヤッキョク,0
336,2030005020212,登記記録の閉鎖等,0,2025-08-13,2025-08-05,一般社団法人武甲山未来フォーラム,,その他の設立登記法人,埼玉県,秩父市,番場町９番４号,,11,207,3680041,,,2025-08-05,清算の結了等,,,2021-01-07,1,,,,,ブコウザンミライフォーラム,0
341,2050001051515,登記記録の閉鎖等,0,2025-08-13,2025-07-31,株式会社ｊＩｔＣｏｍ,,株式会社,茨城県,稲敷郡阿見町,うずら野３丁目２７－８,,08,443,3000341,,,2025-07-31,清算の結了等,,,2022-08-05,1,,,,,ジェイアイティコム,0
346,2050002028413,登記記録の閉鎖等,0,2025-08-13,2025-07-30,小沼技研工業有限会社,,有限会社,茨城県,潮来市,水原４７０番地,,08,223,3112404,,,2025-07-30,清算の結了等,,,2015-10-05,1,,,,,オヌマギケンコウギョウ,0
354,2100005007391,登記記録の閉鎖等,0,2025-08-13,2025-08-06,いーずら大町特産館事業協同組合,,その他の設立登記法人,長野県,大町市,大町３３００番地１,,20,212,3980002,,,2025-08-06,清算の結了等,,,2015-10-05,1,,,,,イーズラオオマチトクサンカン,0
361,2120001010562,登記記録の閉鎖等,0,2025-08-13,2025-07-31,株式会社東乾,,株式会社,大阪府,大阪市東住吉区,今林１丁目２番６８号,,27,121,5460001,,,2025-07-31,清算の結了等,,,2015-10-05,1,,,,,トウカン,0
364,2120001052984,登記記録の閉鎖等,0,2025-08-13,2025-07-28,丸山アルミ建材株式会社,,株式会社,大阪府,吹田市,南吹田２丁目３番２号,,27,205,5640043,,,2025-07-28,清算の結了等,,,2015-10-05,1,,,,,,0
365,2120001166801,登記記録の閉鎖等,0,2025-08-13,2025-07-22,関西テクノ株式会社,,株式会社,大阪府,大阪市港区,波除５丁目８番１０号,,27,107,5520001,,,2025-07-22,清算の結了等,,,2015-10-05,1,,,,,カンサイテクノ,0
392,2130002026061,登記記録の閉鎖等,0,2025-08-13,2025-07-31,有限会社インテリア井上,,有限会社,京都府,宇治市,木幡南山８０番地の９０,,26,204,6110002,,,2025-07-31,清算の結了等,,,2015-10-05,1,,,,,インテリアイノウエ,0
399,2160001024105,登記記録の閉鎖等,0,2025-08-13,2025-07-31,株式会社ｃａｒｅ　ｐｉｅｃｅ,,株式会社,滋賀県,守山市,守山６丁目８番９号,,25,207,5240022,,,2025-07-31,清算の結了等,,,2022-04-13,1,,,,,ケアピース,0
404,2180001084460,登記記録の閉鎖等,0,2025-08-13,2025-07-16,ヤマトテキスタイル株式会社,,株式会社,愛知県,一宮市,東加賀野井字江西３８番地１,,23,203,4940016,,,2025-07-16,清算の結了等,,,2015-10-05,1,,,,,ヤマトテキスタイル,0
407,2180001123375,登記記録の閉鎖等,0,2025-08-13,2025-07-16,株式会社ロルフ,,株式会社,愛知県,名古屋市守山区,八剣１丁目３０３,,23,113,4630022,,,2025-07-16,清算の結了等,,,2016-05-17,1,,,,,ロルフ,0
425,2200002009059,登記記録の閉鎖等,0,2025-08-13,2025-08-05,有限会社オーテック東海,,有限会社,岐阜県,各務原市,各務おがせ町９丁目５７番地２０,,21,213,5090104,,,2025-08-05,清算の結了等,,,2015-10-05,1,,,,,オーテックトウカイ,0
441,2240001012539,登記記録の閉鎖等,0,2025-08-13,2025-08-06,株式会社リンクシステム,,株式会社,広島県,安芸郡熊野町,呉地５丁目３４番１６号,,34,307,7314222,,,2025-08-06,清算の結了等,,,2015-10-05,1,,,,,リンクシステム,0
453,2280002009852,登記記録の閉鎖等,0,2025-08-13,2025-08-08,有限会社大石水道工業所,,有限会社,島根県,益田市,乙吉町イ９９番地５,,32,204,6980003,,,2025-08-08,清算の結了等,,,2015-10-05,1,,,,,オオイシスイドウコウギョウショ,0
497,2450002000001,登記記録の閉鎖等,0,2025-08-13,2025-08-07,有限会社エッセンス,,有限会社,北海道,上川郡鷹栖町,北野東二条１丁目１０番１１号,,01,452,0711222,,,2025-08-07,清算の結了等,,,2015-10-05,1,,,,,エッセンス,0
523,3010402035887,登記記録の閉鎖等,0,2025-08-13,2025-07-24,有限会社ラージフィールド,,有限会社,千葉県,佐倉市,井野１０８番地７７,,12,212,2850855,,,2025-07-24,清算の結了等,,,2015-10-05,1,,,,,ラージフィールド,0
524,3010405001829,登記記録の閉鎖等,0,2025-08-13,2025-07-14,日本石灰工業組合,,その他の設立登記法人,東京都,港区,虎ノ門１丁目１番２１号新虎ノ門実業会館,,13,103,1050001,,,2025-07-14,清算の結了等,,,2015-10-05,1,,,,,ニホンセッカイ,0
536,3010801023591,登記記録の閉鎖等,0,2025-08-13,2025-08-01,株式会社プラス・ワン,,株式会社,東京都,大田区,萩中３丁目９番１５号,,13,111,1440047,,,2025-08-01,清算の結了等,,,2015-10-05,1,,,,,プラスワン,0
537,3010901011331,登記記録の閉鎖等,0,2025-08-13,2025-08-05,株式会社マック,,株式会社,東京都,世田谷区,船橋７丁目１番１－１３１４号,,13,112,1560055,,,2025-08-05,清算の結了等,,,2015-10-05,1,,,,,マック,0
572,3020001044108,登記記録の閉鎖等,0,2025-08-13,2025-07-18,株式会社近代化粧研究所,,株式会社,神奈川県,横浜市港北区,篠原町３１１３番１５－１１２号,,14,109,2220026,,,2025-07-18,清算の結了等,,,2015-10-05,1,,,,,キンダイケショウケンキュウジョ,0
618,3090001012487,登記記録の閉鎖等,0,2025-08-13,2025-08-08,株式会社富士山の天然水山中湖,,株式会社,山梨県,南都留郡山中湖村,山中９９３番地２,,19,425,4010501,,,2025-08-08,合併による解散等,6013301021897,令和７年８月１日東京都豊島区東池袋一丁目５番６号株式会社ラ・ホールディングス（6013301021897）に合併し解散,2015-10-05,1,,,,,フジサンノテンネンスイヤマナカコ,0
624,3110002031698,登記記録の閉鎖等,0,2025-08-13,2025-07-22,有限會社武石産業,,有限会社,新潟県,見附市,新町２丁目５番２０号,,15,211,9540057,,,2025-07-22,清算の結了等,,,2015-10-05,1,,,,,タケイシサンギョウ,0
639,3120101064425,登記記録の閉鎖等,0,2025-08-13,2025-07-25,株式会社Ｍｏｏｖｅ,,株式会社,大阪府,大阪市東住吉区,東田辺３丁目２５番２４号,,27,121,5460032,,,2025-07-25,清算の結了等,,,2021-10-07,1,,,,,ムーヴ,0
645,3120902014421,登記記録の閉鎖等,0,2025-08-13,2025-07-24,北村産業有限会社,,有限会社,大阪府,池田市,栄町８番９号,,27,204,5630056,,,2025-07-24,清算の結了等,,,2015-10-05,1,,,,,キタムラサンギョウ,0
647,3130001019024,登記記録の閉鎖等,0,2025-08-13,2025-07-29,株式会社三吉野,,株式会社,京都府,京都市下京区,木津屋橋通新町東入東塩小路町５７９番地の１１,,26,106,6008216,,,2025-07-29,清算の結了等,,,2015-10-05,1,,,,,ミヨシノ,0
652,3130002007977,登記記録の閉鎖等,0,2025-08-13,2025-07-25,有限会社三浦官蔵佛檀,,有限会社,京都府,京都市下京区,北小路通油小路西入北小路町１３８番地,,26,106,6008228,,,2025-07-25,清算の結了等,,,2015-10-05,1,,,,,ミウラカンゾウブツダン,0
654,3140001007291,登記記録の閉鎖等,0,2025-08-13,2025-08-01,株式会社ファミリアソーイング秋田,,株式会社,兵庫県,神戸市中央区,磯上通４丁目３番１０号,,28,110,6510086,,,2025-08-01,合併による解散等,5140001012273,令和７年８月１日神戸市中央区磯上通四丁目３番１０号株式会社ファミリアクリエイティブファクトリー（5140001012273）に合併し解散,2015-10-05,1,,,,,ファミリアソーイングアキタ,0
657,3140005015200,登記記録の閉鎖等,0,2025-08-13,2025-08-05,姫路運転代行事業協同組合,,その他の設立登記法人,兵庫県,姫路市,御国野町国分寺１２番地８,,28,201,6710234,,,2025-08-05,清算の結了等,,,2015-10-05,1,,,,,ヒメジウンテンダイコウ,0
658,3140005021545,登記記録の閉鎖等,0,2025-08-13,2025-08-04,一般社団法人あすなろサポートセンター,,その他の設立登記法人,兵庫県,洲本市,下内膳１６３番地２,,28,205,6560016,,,2025-08-04,清算の結了等,,,2015-10-05,1,,,,,アスナロサポートセンター,0
675,3180002070046,登記記録の閉鎖等,0,2025-08-13,2025-07-18,有限会社未来企画,,有限会社,愛知県,小牧市,応時１丁目２１３番地,,23,219,4850832,,,2025-07-18,清算の結了等,,,2015-10-05,1,,,,,ミライキカク,0
676,3180005016401,登記記録の閉鎖等,0,2025-08-13,2025-07-23,特定非営利活動法人名古屋ベトナムネット,,その他の設立登記法人,愛知県,名古屋市港区,浜２丁目１０番３２号,,23,111,4550036,,,2025-07-23,清算の結了等,,,2015-10-05,1,,,,,ナゴヤベトナムネット,0
690,3200001042778,登記記録の閉鎖等,0,2025-08-13,2025-08-01,株式会社エイト,,株式会社,岐阜県,岐阜市,長住町８丁目２４番地アシスト第２岐阜マンション４０１,,21,201,5008175,,,2025-08-01,清算の結了等,,,2024-08-01,1,,,,,エイト,0
721,3290002045202,登記記録の閉鎖等,0,2025-08-13,2025-07-15,有限会社赤間木材興業,,有限会社,福岡県,飯塚市,蓮台寺１番地,00093445,40,205,8200048,,,2025-07-15,清算の結了等,,,2015-10-05,1,,,,,アカマモクザイコウギョウ,0
725,3290802016088,登記記録の閉鎖等,0,2025-08-13,2025-08-08,有限会社山田商店,,有限会社,福岡県,北九州市八幡西区,友田２丁目６番１３号,,40,109,8070828,,,2025-08-08,清算の結了等,,,2015-10-05,1,,,,,ヤマダショウテン,0
726,3300002010022,登記記録の閉鎖等,0,2025-08-13,2025-08-06,有限会社ロイヤル健水,,有限会社,佐賀県,神埼郡吉野ヶ里町,田手１８１４番地２,,41,327,8420035,,,2025-08-06,清算の結了等,,,2015-10-05,1,,,,,ロイヤルケンスイ,0
736,3350001017880,登記記録の閉鎖等,0,2025-08-13,2025-08-05,株式会社ひなた,,株式会社,宮崎県,東諸県郡綾町,大字南俣６２２番地３,,45,383,8801303,,,2025-08-05,清算の結了等,,,2022-08-01,1,,,,,ヒナタ,0
743,3360003013506,登記記録の閉鎖等,0,2025-08-13,2025-07-22,合同会社琉球ばらいちご,,合同会社,沖縄県,那覇市,宇栄原２丁目１８番１２号,,47,201,9010153,,,2025-07-22,清算の結了等,,,2023-11-27,1,,,,,,0
751,3410003003344,登記記録の閉鎖等,0,2025-08-13,2025-08-08,アクセス合同会社,,合同会社,秋田県,北秋田市,七日市字田ノ沢１４０番地１,,05,213,0183452,,,2025-08-08,清算の結了等,,,2020-02-05,1,,,,,アクセス,0
756,3430002006552,登記記録の閉鎖等,0,2025-08-13,2025-07-23,有限会社グローイング,,有限会社,北海道,札幌市南区,真駒内２５４番地８１,,01,106,0050861,,,2025-07-23,清算の結了等,,,2015-10-05,1,,,,,グローイング,0
784,4010401172648,登記記録の閉鎖等,0,2025-08-13,2025-07-08,株式会社Ｍｅｔａｍｏｒｐｈｏｓｉｓ,,株式会社,東京都,港区,芝４丁目１３番４号田町第１６藤島ビル２階,,13,103,1080014,,,2025-07-08,清算の結了等,,,2023-02-22,1,,,,,メタモルフォーシス,0
800,4010902018606,登記記録の閉鎖等,0,2025-08-13,2025-08-08,太田ピアノ教室有限会社,,有限会社,東京都,世田谷区,宮坂３丁目３１番１３号,,13,112,1560051,,,2025-08-08,清算の結了等,,,2015-10-05,1,,,,,オオタピアノキョウシツ,0
804,4011001009117,登記記録の閉鎖等,0,2025-08-13,2025-06-02,株式会社佐昭建設,,株式会社,東京都,渋谷区,幡ヶ谷１丁目２２番３号,,13,113,1510072,,,2025-06-02,清算の結了等,,,2015-10-05,1,,,,,サショウケンセツ,0
825,4011802011080,登記記録の閉鎖等,0,2025-08-13,2025-08-06,有限会社遠田製作所,,有限会社,東京都,足立区,中川４丁目４１番２４号,,13,121,1200002,,,2025-08-06,清算の結了等,,,2015-10-05,1,,,,,オンダセイサクジョ,0
835,4020001041277,登記記録の閉鎖等,0,2025-08-13,2025-08-08,株式会社アゴラ,,株式会社,神奈川県,横浜市青葉区,藤が丘２丁目３６番地１７,,14,117,2270043,,,2025-08-08,合併による解散等,1500001021076,令和７年８月１日大阪府阪南市下出３７番地の５リクラス尾崎ビル２階株式会社ＭＥＤＩ‐ＦＵＬＬ（1500001021076）に合併し解散,2015-10-05,1,,,,,アゴラ,0
861,4050002035176,登記記録の閉鎖等,0,2025-08-13,2025-07-31,有限会社平塚長命堂,,有限会社,茨城県,常陸太田市,栄町２４６７番地,,08,212,3130005,,,2025-07-31,清算の結了等,,,2015-10-05,1,,,,,ヒラツカチョウメイドウ,0
872,4080101025281,登記記録の閉鎖等,0,2025-08-13,2025-08-06,ＭＫ機工株式会社,,株式会社,静岡県,沼津市,豊町３番地の２６,,22,203,4100018,,,2025-08-06,清算の結了等,,,2025-01-29,1,,,,,エムケイキコウ,0
873,4080102008525,登記記録の閉鎖等,0,2025-08-13,2025-08-07,有限会社西島建設,,有限会社,静岡県,伊豆の国市,吉田１２番地の８,,22,225,4102322,,,2025-08-07,清算の結了等,,,2015-10-05,1,,,,,ニシジマケンセツ,0
890,4120001161486,登記記録の閉鎖等,0,2025-08-13,2025-07-25,株式会社トリプルコスモ,,株式会社,大阪府,大阪市西区,阿波座１丁目１１番８号サンロイヤル西本町ビル６階Ｂ号室,,27,106,5500011,,,2025-07-25,清算の結了等,,,2015-10-05,1,,,,,トリプルコスモ,0
891,4120001163945,登記記録の閉鎖等,0,2025-08-13,2025-07-31,賃貸ストアグループ株式会社,,株式会社,大阪府,大阪市東成区,中道４丁目１２番９－２０２号,,27,115,5370025,,,2025-07-31,清算の結了等,,,2015-10-05,1,,,,,チンタイストアグループ,0
893,4120001243177,登記記録の閉鎖等,0,2025-08-13,2025-07-30,ぱぴふる株式会社,,株式会社,大阪府,大阪市西区,京町堀１丁目１２－２４－６０２,,27,106,5500003,,,2025-07-30,清算の結了等,,,2022-01-17,1,,,,,パピフル,0
904,4120002025343,登記記録の閉鎖等,0,2025-08-13,2025-07-23,田中工務店有限会社,,有限会社,大阪府,大阪市東淀川区,井高野４丁目８番２３号,,27,114,5330001,,,2025-07-23,清算の結了等,,,2015-10-05,1,,,,,タナカコウムテン,0
915,4120902020781,登記記録の閉鎖等,0,2025-08-13,2025-07-28,有限会社オネスティ,,有限会社,大阪府,豊中市,庄内東町２丁目７番１７号－７０１号,,27,203,5610831,,,2025-07-28,清算の結了等,,,2015-10-05,1,,,,,,0
918,4130001023388,登記記録の閉鎖等,0,2025-08-13,2025-07-29,株式会社京都桝谷設計,,株式会社,京都府,宇治市,木幡平尾４９番地の２,,26,204,6110002,,,2025-07-29,清算の結了等,,,2015-10-05,1,,,,,キョウトマスタニセッケイ,0
960,4230002006753,登記記録の閉鎖等,0,2025-08-13,2025-08-08,有限会社寺林商会,,有限会社,富山県,富山市,八尾町福島１９５の１番地,,16,201,9392376,,,2025-08-08,清算の結了等,,,2015-10-05,1,,,,,テラバヤシショウカイ,0
983,4290005010400,登記記録の閉鎖等,0,2025-08-13,2025-07-17,特定非営利活動法人東アジア交流学院,,その他の設立登記法人,福岡県,久留米市,天神町１１６番地,,40,203,8300033,,,2025-07-17,清算の結了等,,,2015-10-05,1,,,,,ヒガシアジアコウリュウガクイン,0
984,4290801022136,登記記録の閉鎖等,0,2025-08-13,2025-08-12,株式会社協建,,株式会社,福岡県,北九州市八幡西区,千代ケ崎３丁目１３番１０号,,40,109,8070803,,,2025-08-12,清算の結了等,,,2016-01-06,1,,,,,キョウケン,0
989,4300001007175,登記記録の閉鎖等,0,2025-08-13,2025-08-05,株式会社古賀,,株式会社,佐賀県,唐津市,京町１７５１番地,,41,202,8470045,,,2025-08-05,清算の結了等,,,2015-10-05,1,,,,,コガ,0
994,4320002009292,登記記録の閉鎖等,0,2025-08-13,2025-08-04,有限会社タクミコーポレーション,,有限会社,大分県,大分市,高城本町１番７号,,44,201,8700157,,,2025-08-04,清算の結了等,,,2015-10-05,1,,,,,タクミコーポレーション,0
995,4320003003542,登記記録の閉鎖等,0,2025-08-13,2025-07-31,合同会社松尾,,合同会社,大分県,速見郡日出町,大字豊岡４４３番地５,,44,341,8791507,,,2025-07-31,清算の結了等,,,2021-06-07,1,,,,,マツオ,0
1005,4380002033584,登記記録の閉鎖等,0,2025-08-13,2025-07-24,有限会社みらい,,有限会社,福島県,会津若松市,桧町７番３０号,,07,202,9650008,,,2025-07-24,清算の結了等,,,2015-10-05,1,,,,,ミライ,0
1006,4390001012415,登記記録の閉鎖等,0,2025-08-13,2025-08-01,農産舎株式会社,,株式会社,山形県,鶴岡市,上名川字堰西６５番地,,06,203,9970405,,,2025-08-01,清算の結了等,,,2015-10-05,1,,,,,ノウサンシャ,0
1012,4410002008450,登記記録の閉鎖等,0,2025-08-13,2025-08-08,有限会社木次谷運輸,,有限会社,秋田県,大館市,葛原字屋布後３５番地,,05,204,0185606,,,2025-08-08,清算の結了等,,,2015-10-05,1,,,,,キジヤウンユ,0
1013,4420001016552,登記記録の閉鎖等,0,2025-08-13,2025-08-01,株式会社トータル大阪,,株式会社,大阪府,大阪市天王寺区,生玉前町１番１３号,,27,109,5430072,,,2025-08-01,合併による解散等,4120001024503,令和７年８月１日大阪市天王寺区生玉前町１番１３号株式会社トータルプランニング（4120001024503）に合併し解散,2019-04-09,1,,,,,トータルオオサカ,0
1027,5010002049195,登記記録の閉鎖等,0,2025-08-13,2025-07-11,有限会社ＦＯＲＥＳＴ,,有限会社,東京都,千代田区,霞が関３丁目２番５号,,13,101,1000013,,,2025-07-11,清算の結了等,,,2015-10-05,1,,,,,フォレスト,0
1039,5010401133153,登記記録の閉鎖等,0,2025-08-13,2025-07-15,株式会社トラント,,株式会社,東京都,港区,南青山２丁目２番１５－９１７号,,13,103,1070062,,,2025-07-15,清算の結了等,,,2017-08-15,1,,,,,トラント,0
1044,5010403021364,登記記録の閉鎖等,0,2025-08-13,2025-07-15,ＳＣＧ５６合同会社,,合同会社,東京都,港区,虎ノ門２丁目６番１号,,13,103,1050001,,,2025-07-15,清算の結了等,,,2019-08-30,1,,,,,エスシージーフィフティシックス,0
1054,5011001071066,登記記録の閉鎖等,0,2025-08-13,2025-07-16,ＴＧＶ株式会社,,株式会社,東京都,港区,東新橋２丁目１０番１０号,,13,103,1050021,,,2025-07-16,清算の結了等,,,2015-10-05,1,,,,,ティージーブイ,0
1064,5011201020995,登記記録の閉鎖等,0,2025-08-13,2025-08-01,オレンジハート株式会社,,株式会社,東京都,中野区,上鷺宮２丁目１３番１０号,,13,114,1650031,,,2025-08-01,合併による解散等,2011201006262,令和７年８月１日東京都中野区上鷺宮二丁目１３番１０号株式会社前平工業（2011201006262）に合併し解散,2018-11-15,1,,,,,オレンジハート,0
1083,5012803002464,登記記録の閉鎖等,0,2025-08-13,2025-07-25,エイチアイティ合同会社,,合同会社,東京都,立川市,曙町１丁目３４番地の４,,13,202,1900012,,,2025-07-25,清算の結了等,,,2021-03-12,1,,,,,エイチアイティ,0
1086,5013301048149,登記記録の閉鎖等,0,2025-08-13,2025-07-28,株式会社アストロ,,株式会社,東京都,豊島区,上池袋１丁目３７－２２－５３０,,13,116,1700012,,,2025-07-28,清算の結了等,,,2021-10-13,1,,,,,アストロ,0
1103,5030001154341,登記記録の閉鎖等,0,2025-08-13,2025-08-05,株式会社ロジテム木下,,株式会社,埼玉県,所沢市,大字亀ケ谷１６８番地１,,11,208,3590014,,,2025-08-05,清算の結了等,,,2023-06-09,1,,,,,ロジテムキノシタ,0
1121,5080102005100,登記記録の閉鎖等,0,2025-08-13,2025-08-08,有限会社ダイン・プラス,,有限会社,静岡県,沼津市,花園町１１番地１２,,22,203,4100065,,,2025-08-08,合併による解散等,2010701024872,令和７年８月１日東京都品川区北品川六丁目６番５号株式会社Ｃｌｏｕｄ９Ｃ（2010701024872）に合併し解散,2015-10-05,1,,,,,ダインプラス,0
1122,5080102009522,登記記録の閉鎖等,0,2025-08-13,2025-08-06,有限会社岩城設備工業,,有限会社,静岡県,田方郡函南町,畑１５番地,,22,325,4190104,,,2025-08-06,清算の結了等,,,2015-10-05,1,,,,,イワキセツビコウギョウ,0
1124,5100001010710,登記記録の閉鎖等,0,2025-08-13,2025-08-06,株式会社アヅマプラスチック,,株式会社,長野県,東御市,和７５４６番地３,,20,219,3890505,,,2025-08-06,清算の結了等,,,2015-10-05,1,,,,,アヅマプラスチック,0
1128,5110002011954,登記記録の閉鎖等,0,2025-08-13,2025-07-18,有限会社太陽企画,,有限会社,新潟県,新潟市秋葉区,田家２丁目１番７０号,,15,105,9560836,,,2025-07-18,清算の結了等,,,2015-10-05,1,,,,,タイヨウキカク,0
1162,5140001114111,登記記録の閉鎖等,0,2025-08-13,2025-08-08,株式会社てっぽう,,株式会社,兵庫県,尼崎市,稲葉荘１丁目２６番１０号,,28,202,6600064,,,2025-08-08,合併による解散等,9010401162553,令和７年８月１日大阪市北区豊崎三丁目１９番３号シンセンフードテック株式会社（9010401162553）に合併し解散,2019-07-02,1,,,,,テッポウ,0
1191,5180003024478,登記記録の閉鎖等,0,2025-08-13,2025-07-16,合同会社Ｄｒｅａｍ　Ｍａｋｅｒ,,合同会社,愛知県,名古屋市昭和区,恵方町１丁目１４－１,,23,107,4660037,,,2025-07-16,清算の結了等,,,2022-11-10,1,,,,,ドリームメーカー,0
1202,5190001017227,登記記録の閉鎖等,0,2025-08-13,2025-08-01,株式会社ハリウッドレコード,,株式会社,三重県,四日市市,鵜の森１丁目３番２０号,,24,202,5100074,,,2025-08-01,合併による解散等,4190001023259,令和７年８月１日三重県四日市市鵜の森一丁目７番８号株式会社マイム（4190001023259）に合併し解散,2015-10-05,1,,,,,ハリウッドレコード,0
1239,5330001002222,登記記録の閉鎖等,0,2025-08-13,2025-07-25,敷島印刷株式会社,,株式会社,熊本県,宇城市,松橋町豊崎１９５９番地,,43,213,8690542,,,2025-07-25,清算の結了等,,,2015-10-05,1,,,,,シキシマインサツ,0
1250,5370001023603,登記記録の閉鎖等,0,2025-08-13,2025-07-22,株式会社さくら介護,,株式会社,宮城県,仙台市宮城野区,幸町５丁目８番３号,,04,102,9830836,,,2025-07-22,清算の結了等,,,2015-10-05,1,,,,,サクラカイゴ,0
1252,5370001044104,登記記録の閉鎖等,0,2025-08-13,2025-08-07,株式会社レインボービレッジ,,株式会社,宮城県,仙台市青葉区,八幡２丁目５番１７号,,04,101,9800871,,,2025-08-07,清算の結了等,,,2019-03-06,1,,,,,レインボービレッジ,0
1261,5380005011306,登記記録の閉鎖等,0,2025-08-13,2025-07-23,あぶくま地域広葉樹利用協同組合,,その他の設立登記法人,福島県,石川郡玉川村,大字岩法寺字下竹ノ内３６番地の６,,07,502,9636311,,,2025-07-23,清算の結了等,,,2015-10-05,1,,,,,アブクマチイキコウヨウジュ,0
1266,5420001011189,登記記録の閉鎖等,0,2025-08-13,2025-07-11,エイチエス株式会社,,株式会社,東京都,千代田区,丸の内１丁目９番２号グラントウキョウサウスタワー１３階,,13,101,1000005,,,2025-07-11,清算の結了等,,,2015-10-05,1,,,,,エイチエス,0
1282,6010001175017,登記記録の閉鎖等,0,2025-08-13,2025-07-14,株式会社ワイズ・システム,,株式会社,東京都,中央区,新川１丁目２番８号,,13,102,1040033,,,2025-07-14,清算の結了等,,,2016-04-19,1,,,,,ワイズシステム,0
1295,6010005032965,登記記録の閉鎖等,0,2025-08-13,2025-07-18,一般社団法人ウリィジップ,,その他の設立登記法人,東京都,千代田区,丸の内１丁目４番１号東京共同会計事務所内,,13,101,1000005,,,2025-07-18,清算の結了等,,,2021-02-19,1,,,,,ウリィジップ,0
1296,6010401074487,登記記録の閉鎖等,0,2025-08-13,2025-07-28,Ｌｉｇｈｔｈｏｕｓｅ　Ｊａｐａｎ株式会社,,株式会社,東京都,台東区,台東４丁目１８番７号シモジンビルディング８階,,13,106,1100016,,,2025-07-28,清算の結了等,,,2015-10-05,1,,,,,ライトハウスジャパン,0
1337,6011503002815,登記記録の閉鎖等,0,2025-08-13,2025-08-06,合同会社ミリオンバーツビューティー,,合同会社,東京都,北区,岸町１丁目２番１０号岸町ビル４階,,13,117,1140021,,,2025-08-06,清算の結了等,,,2015-10-28,1,,,,,ミリオンバーツビューティー,0
1369,6030002042065,登記記録の閉鎖等,0,2025-08-13,2025-08-06,株式会社ライベックス,,株式会社,埼玉県,加須市,日出安１３２０番地,,11,210,3470102,,,2025-08-06,合併による解散等,6070002005778,令和７年８月１日群馬県前橋市上小出町三丁目１５番地１株式会社ライベックス（6070002005778）に合併し解散,2015-10-05,1,,,,,ライベックス,0
1387,6050001033484,登記記録の閉鎖等,0,2025-08-13,2025-08-01,株式会社ＦＡｕｎｉｏｎ,,株式会社,茨城県,つくば市,高見原２丁目７番地５３,,08,220,3001252,,,2025-08-01,清算の結了等,,,2015-10-05,1,,,,,エフエイユニオン,0
1391,6060002039182,登記記録の閉鎖等,0,2025-08-13,2025-07-31,有限会社田名網商店,,有限会社,栃木県,佐野市,天神町７２７番地,,09,204,3270847,,,2025-07-31,清算の結了等,,,2015-10-05,1,,,,,タナアミショウテン,0
1402,6100001035351,登記記録の閉鎖等,0,2025-08-13,2025-08-04,株式会社ＦＵＴＵＲＥ　ＦＯＸ　ＳＡＵＮＡ,,株式会社,長野県,下伊那郡松川町,上片桐９８２番地５,,20,402,3993301,,,2025-08-04,清算の結了等,,,2022-05-20,1,,,,,フューチャーフォックスサウナ,0
1406,6110002033353,登記記録の閉鎖等,0,2025-08-13,2025-07-22,有限会社目長酒店,,有限会社,新潟県,南魚沼市,大崎２７２番地２,,15,226,9497251,,,2025-07-22,清算の結了等,,,2015-10-05,1,,,,,メチョウサケテン,0
1407,6120001174791,登記記録の閉鎖等,0,2025-08-13,2025-07-31,株式会社エイトフィールド,,株式会社,大阪府,大阪市西淀川区,中島１丁目１８番５号,,27,113,5550041,,,2025-07-31,清算の結了等,,,2015-10-05,1,,,,,エイトフィールド,0
1411,6120002046156,登記記録の閉鎖等,0,2025-08-13,2025-07-23,有限会社仁科商事,,有限会社,大阪府,大阪市旭区,今市２丁目１４番３号,,27,117,5350011,,,2025-07-23,清算の結了等,,,2015-10-05,1,,,,,,0
1412,6120002072433,登記記録の閉鎖等,0,2025-08-13,2025-07-25,有限会社庄美印刷,,有限会社,大阪府,寝屋川市,八坂町８番３号,,27,215,5720838,,,2025-07-25,清算の結了等,,,2015-10-05,1,,,,,,0
1438,6130001022090,登記記録の閉鎖等,0,2025-08-13,2025-07-29,ネットカーニバル株式会社,,株式会社,京都府,京都市左京区,修学院沖殿町２３番地４,,26,103,6068021,,,2025-07-29,清算の結了等,,,2015-10-05,1,,,,,ネットカーニバル,0
1442,6130005005298,登記記録の閉鎖等,0,2025-08-13,2025-07-22,医療法人医幸会,,その他の設立登記法人,京都府,京都市山科区,大宅五反畑町３番地３,,26,110,6078178,,,2025-07-22,清算の結了等,,,2015-10-05,1,,,,,イコウカイ,0
1446,6140001107337,登記記録の閉鎖等,0,2025-08-13,2025-08-01,株式会社ライズ・サポート,,株式会社,兵庫県,伊丹市,稲野町１丁目８１番地,,28,207,6640861,,,2025-08-01,合併による解散等,9140001079094,令和７年８月１日兵庫県伊丹市稲野町一丁目８１番地株式会社ライズ（9140001079094）に合併し解散,2017-08-25,1,,,,,ライズサポート,0
1468,6210002008527,登記記録の閉鎖等,0,2025-08-13,2025-08-05,有限会社リコンディション,,有限会社,福井県,あわら市,滝第７号２１番地,,18,208,9190805,,,2025-08-05,清算の結了等,,,2015-10-05,1,,,,,リコンディション,0
1474,6230001014516,登記記録の閉鎖等,0,2025-08-13,2025-08-08,株式会社カネナオ水産加工,,株式会社,富山県,滑川市,大町１７５７番地,,16,206,9360047,,,2025-08-08,清算の結了等,,,2015-10-05,1,,,,,カネナオスイサンカコウ,0
1481,6240003003425,登記記録の閉鎖等,0,2025-08-13,2025-08-06,合同会社ひまわり企画,,合同会社,広島県,広島市南区,宇品海岸２丁目１番１２号,,34,103,7340011,,,2025-08-06,清算の結了等,,,2016-11-16,1,,,,,ヒマワリキカク,0
1486,6250001019083,登記記録の閉鎖等,0,2025-08-13,2025-08-01,株式会社酒のバッカス下関,,株式会社,山口県,岩国市,下１４番地の５,,35,208,7400302,,,2025-08-01,合併による解散等,1250002017768,令和７年８月１日山口県岩国市下４５４番地１６株式会社江木食品（1250002017768）に合併し解散,2021-09-02,1,,,,,サケノバッカスシモノセキ,0
1499,6300002006736,登記記録の閉鎖等,0,2025-08-13,2025-08-05,有限会社共立計算センター,,有限会社,佐賀県,鹿島市,大字重ノ木乙３０５０番地１３,,41,207,8491313,,,2025-08-05,清算の結了等,,,2015-10-05,1,,,,,キョウリツケイサンセンター,0
1504,6330003007706,登記記録の閉鎖等,0,2025-08-13,2025-07-28,合同会社リュウセイ,,合同会社,熊本県,宇土市,住吉町２２１２番地１,,43,211,8690401,,,2025-07-28,清算の結了等,,,2018-11-13,1,,,,,リュウセイ,0
1508,6330005009048,登記記録の閉鎖等,0,2025-08-13,2025-07-18,特定非営利活動法人くまもとスローワーク・スクール,,その他の設立登記法人,熊本県,玉名郡和水町,平野１２５５番地２,,43,369,8610923,,,2025-07-18,清算の結了等,,,2015-10-05,1,,,,,クマモトスローワークスクール,0
1530,6400002011445,登記記録の閉鎖等,0,2025-08-13,2025-07-17,株式会社エイゼン建工,,株式会社,岩手県,釜石市,大字平田第６地割３番地２,,03,211,0260001,,,2025-07-17,清算の結了等,,,2015-10-05,1,,,,,,0
1534,6430001031879,登記記録の閉鎖等,0,2025-08-13,2025-07-23,エーコー産業株式会社,,株式会社,北海道,札幌市東区,中沼町８３番地３０,,01,103,0070890,,,2025-07-23,清算の結了等,,,2015-10-05,1,,,,,エーコーサンギョウ,0
1535,6430001061356,登記記録の閉鎖等,0,2025-08-13,2025-07-22,株式会社エスジェーシー,,株式会社,北海道,札幌市清田区,平岡八条３丁目８番１８号,,01,110,0040878,,,2025-07-22,清算の結了等,,,2015-10-05,1,,,,,エスジェーシー,0
1547,6500001006849,登記記録の閉鎖等,0,2025-08-13,2025-08-07,株式会社グリーンテック,,株式会社,愛媛県,松山市,竹原４丁目２番３９号,,38,201,7900053,,,2025-08-07,清算の結了等,,,2015-10-05,1,,,,,グリーンテック,0
1550,7010001165603,登記記録の閉鎖等,0,2025-08-13,2025-07-14,株式会社ＲｅｄＳｅａｌ,,株式会社,東京都,千代田区,永田町２丁目１１番１号山王パークタワー４階,,13,101,1000014,,,2025-07-14,清算の結了等,,,2015-10-05,1,,,,,レッドシール,0
1557,7010005031660,登記記録の閉鎖等,0,2025-08-13,2025-07-18,一般社団法人オーケーチャタン,,その他の設立登記法人,東京都,千代田区,丸の内１丁目４番１号東京共同会計事務所内,,13,101,1000005,,,2025-07-18,清算の結了等,,,2020-04-02,1,,,,,オーケーチャタン,0
1577,7011001130431,登記記録の閉鎖等,0,2025-08-13,2025-07-23,株式会社ＬＭＣＫ,,株式会社,新潟県,新潟市中央区,万代１丁目２番６号第一トーカン万代ビューハイツ９０８号,,15,103,9500088,,,2025-07-23,清算の結了等,,,2019-10-16,1,,,,,リュミック,0
1587,7012401014942,登記記録の閉鎖等,0,2025-08-13,2025-07-25,株式会社ワーク・ウィル,,株式会社,東京都,国分寺市,西町１丁目２番地２４国分寺西町一丁目アパート１号棟１０１,,13,214,1850035,,,2025-07-25,清算の結了等,,,2015-10-05,1,,,,,ワークウィル,0
1618,7040001006259,登記記録の閉鎖等,0,2025-08-13,2025-07-24,株式会社春木屋,,株式会社,千葉県,千葉市中央区,院内１丁目１８番１号,,12,101,2600018,,,2025-07-24,清算の結了等,,,2015-10-05,1,,,,,ハルキヤ,0
1622,7040002071541,登記記録の閉鎖等,0,2025-08-13,2025-07-16,有限会社中屋鉄構建設,,有限会社,千葉県,富津市,海良１３８番地,,12,226,2991616,,,2025-07-16,清算の結了等,,,2015-10-05,1,,,,,ナカヤテッコウケンセツ,0
1626,7050002032815,登記記録の閉鎖等,0,2025-08-13,2025-07-28,有限会社ファイン,,有限会社,茨城県,北茨城市,中郷町汐見ケ丘３丁目３１８番地の１０６,,08,215,3191553,,,2025-07-28,清算の結了等,,,2015-10-05,1,,,,,ファイン,0
1635,7080102013547,登記記録の閉鎖等,0,2025-08-13,2025-08-06,有限会社オオタケ住建工業,,有限会社,静岡県,富士市,川成新町１７０番地,,22,210,4160955,,,2025-08-06,清算の結了等,,,2015-10-05,1,,,,,オオタケジュウケンコウギョウ,0
1637,7090002010164,登記記録の閉鎖等,0,2025-08-13,2025-08-05,カメラタイム有限会社,,有限会社,山梨県,都留市,上谷５丁目１１番１８号,,19,204,4020053,,,2025-08-05,清算の結了等,,,2015-10-05,1,,,,,カメラタイム,0
1638,7090002014272,登記記録の閉鎖等,0,2025-08-13,2025-08-06,有限会社北高技研,,有限会社,山梨県,北杜市,高根町村山東割１５１１番地１,,19,209,4080019,,,2025-08-06,清算の結了等,,,2015-10-05,1,,,,,ホクコウギケン,0
1644,7110003000797,登記記録の閉鎖等,0,2025-08-13,2025-07-18,合同会社栄商事,,合同会社,新潟県,新発田市,中央町３丁目９番１４号,,15,206,9570053,,,2025-07-18,清算の結了等,,,2015-10-05,1,,,,,サカエショウジ,0
1646,7120001010236,登記記録の閉鎖等,0,2025-08-13,2025-07-22,株式会社巽商店,00027095,株式会社,大阪府,大阪市東住吉区,田辺６丁目７番２７号,,27,121,5460031,,,2025-07-22,清算の結了等,,,2015-10-05,1,,,,,タツミショウテン,0
1668,7130002017452,登記記録の閉鎖等,0,2025-08-13,2025-07-28,マルシン有限会社,,有限会社,京都府,京都市中京区,壬生坊城町６５番地の２,,26,104,6048804,,,2025-07-28,清算の結了等,,,2015-10-05,1,,,,,マルシン,0
1680,7170001010925,登記記録の閉鎖等,0,2025-08-13,2025-08-12,オーヤパイル株式会社,,株式会社,和歌山県,橋本市,高野口町名古曽１３２０番地の１,,30,203,6497203,,,2025-08-12,清算の結了等,,,2015-10-05,1,,,,,オーヤパイル,0
1684,7180001022622,登記記録の閉鎖等,0,2025-08-13,2025-07-18,株式会社服部精工所,,株式会社,愛知県,名古屋市熱田区,切戸町１丁目３４番地,,23,109,4560076,,,2025-07-18,清算の結了等,,,2015-10-05,1,,,,,ハットリセイコウジョ,0
1686,7180001122273,登記記録の閉鎖等,0,2025-08-13,2025-07-30,株式会社ＫＫ企画,,株式会社,愛知県,刈谷市,桜町１丁目７番地,,23,210,4480028,,,2025-07-30,清算の結了等,,,2016-02-26,1,,,,,ケイケイキカク,0
1697,7210001001069,登記記録の閉鎖等,0,2025-08-13,2025-07-31,株式会社グッドウイル,,株式会社,福井県,坂井市,坂井町宮領１４号２番地,,18,210,9190512,,,2025-07-31,合併による解散等,8210001002173,令和７年７月３０日福井県坂井市坂井町宮領１４号２番地トヨシマセンイ株式会社（8210001002173）に合併し解散,2015-10-05,1,,,,,グッドウイル,0
1712,7250003003456,登記記録の閉鎖等,0,2025-08-13,2025-08-01,合同会社海匠徳山,,合同会社,山口県,周南市,銀座１丁目３１,,35,215,7450032,,,2025-08-01,合併による解散等,6250002016311,令和７年８月１日山口県周南市銀座一丁目３１番地株式会社津秋鮮魚店（6250002016311）に合併し解散,2024-03-21,1,,,,,カイショウトクヤマ,0
1725,7290802006960,登記記録の閉鎖等,0,2025-08-13,2025-08-08,有限会社理容スマイル,,有限会社,福岡県,北九州市小倉北区,神幸町８番６号,,40,106,8020038,,,2025-08-08,清算の結了等,,,2015-10-05,1,,,,,リビヨウスマイル,0
1728,7320001008251,登記記録の閉鎖等,0,2025-08-13,2025-08-01,クリエイション・ボックス株式会社,,株式会社,大分県,国東市,安岐町成久９９４番地１,,44,214,8730204,,,2025-08-01,清算の結了等,,,2015-10-05,1,,,,,,0
1729,7330001008465,登記記録の閉鎖等,0,2025-08-13,2025-07-28,株式会社竹まさ食品,,株式会社,熊本県,熊本市東区,長嶺南４丁目４番６０号,,43,102,8618039,,,2025-07-28,清算の結了等,,,2015-10-05,1,,,,,タケマサショクヒン,0
1731,7330002028413,登記記録の閉鎖等,0,2025-08-13,2025-07-30,北野建設有限会社,,有限会社,熊本県,天草市,河浦町河浦２４０７番地の１,,43,215,8631202,,,2025-07-30,清算の結了等,,,2015-10-05,1,,,,,,0
1753,7400002002451,登記記録の閉鎖等,0,2025-08-13,2025-07-18,有限会社西青山石川酒店,,有限会社,岩手県,盛岡市,西青山２丁目３２番１２号,,03,201,0200132,,,2025-07-18,合併による解散等,5400003000068,令和７年７月１８日岩手県盛岡市西青山二丁目３１番１１号株式会社中央自動車学校（5400003000068）に合併し解散,2015-10-05,1,,,,,ニシアオヤマイシカワサケテン,0
1797,8010502021097,登記記録の閉鎖等,0,2025-08-13,2025-07-29,有限会社ＮＯＲＡジュエリー,,有限会社,東京都,台東区,台東３丁目３９番５－３０６号,,13,106,1100016,,,2025-07-29,清算の結了等,,,2015-10-05,1,,,,,,0
1813,8011101108351,登記記録の閉鎖等,0,2025-08-13,2025-08-06,ＤＥＭＬ株式会社,,株式会社,東京都,新宿区,神楽坂６丁目８番地文悠ビル７階,,13,104,1620825,,,2025-08-06,合併による解散等,9013301052007,令和７年８月１日東京都豊島区南池袋一丁目２７番１０号油木第一ビル９階ＢＬＫＳ　Ｔｅｃｈｎｏｌｏｇｙ　Ｊａｐａｎ株式会社（9013301052007）に合併し解散,2024-08-08,1,,,,,ディメル,0
1845,8030001153266,登記記録の閉鎖等,0,2025-08-13,2025-08-04,株式会社さくら,,株式会社,埼玉県,川口市,栄町３丁目１３番１‐２３０５号,,11,203,3320017,,,2025-08-04,清算の結了等,,,2023-04-11,1,,,,,サクラ,0
1853,8030003014466,登記記録の閉鎖等,0,2025-08-13,2025-08-05,武蔵野クリーンサービス合同会社,,合同会社,埼玉県,所沢市,和ケ原１丁目３０９２番３号,,11,208,3591162,,,2025-08-05,合併による解散等,1030002029918,令和７年８月５日埼玉県所沢市和ケ原一丁目３０９２番地の３株式会社セキ畳店（1030002029918）に合併し解散,2019-12-03,1,,,,,ムサシノクリーンサービス,0
1858,8040001062499,登記記録の閉鎖等,0,2025-08-13,2025-07-17,株式会社よしみや,,株式会社,千葉県,銚子市,西芝町１番地の２,,12,202,2880044,,,2025-07-17,清算の結了等,,,2015-10-05,1,,,,,ヨシミヤ,0
1859,8040001084007,登記記録の閉鎖等,0,2025-08-13,2025-07-24,株式会社ＪＹ　ｃｏｒｐｏｒａｔｉｏｎ,,株式会社,千葉県,松戸市,古ケ崎１丁目３０６９番地の１リリファ松戸Ａ－１０５号,,12,207,2710068,,,2025-07-24,清算の結了等,,,2015-10-05,1,,,,,ジェイワイコーポレーション,0
1873,8060002033571,登記記録の閉鎖等,0,2025-08-13,2025-07-31,有限会社ササラバシ,,有限会社,栃木県,栃木市,藤岡町都賀１２２８番地１,,09,203,3231106,,,2025-07-31,清算の結了等,,,2015-10-05,1,,,,,ササラバシ,0
1882,8080001011543,登記記録の閉鎖等,0,2025-08-13,2025-08-04,株式会社松永トータルサポート,,株式会社,静岡県,静岡市葵区,沓谷４丁目８番１８号,,22,101,4200816,,,2025-08-04,清算の結了等,,,2015-10-05,1,,,,,マツナガトータルサポート,0
1884,8080403003403,登記記録の閉鎖等,0,2025-08-13,2025-08-08,合同会社ＭＩＹＡＪＩＭＡ,,合同会社,静岡県,浜松市浜名区,三ヶ日町三ヶ日９００番地の１９,,22,139,4311414,,,2025-08-08,清算の結了等,,,2017-03-01,1,,,,,,0
1886,8100001013371,登記記録の閉鎖等,0,2025-08-13,2025-08-05,株式会社スギウラ,,株式会社,長野県,松本市,大字島内６１７９番地８,,20,202,3900851,,,2025-08-05,清算の結了等,,,2015-10-05,1,,,,,スギウラ,0
1892,8110002009896,登記記録の閉鎖等,0,2025-08-13,2025-07-22,有限会社山田建設,,有限会社,新潟県,新潟市秋葉区,程島９３２番地,,15,105,9560035,,,2025-07-22,清算の結了等,,,2015-10-05,1,,,,,ヤマダケンセツ,0
1894,8110003003650,登記記録の閉鎖等,0,2025-08-13,2025-07-22,合同会社やすゆき,,合同会社,新潟県,新潟市北区,太夫浜２２５５番地,,15,101,9503112,,,2025-07-22,清算の結了等,,,2018-03-19,1,,,,,ヤスユキ,0
1896,8120001142920,登記記録の閉鎖等,0,2025-08-13,2025-07-25,株式会社スタジオアーツ,,株式会社,大阪府,大阪市中央区,南船場２丁目２番２８号順慶ビル４１８,,27,128,5420081,,,2025-07-25,清算の結了等,,,2015-10-05,1,,,,,スタジオアーツ,0
1897,8120001227044,登記記録の閉鎖等,0,2025-08-13,2025-08-06,株式会社アップエイド,,株式会社,大阪府,大阪市北区,天神橋３丁目３番３号南森町イシカワビル９０１号室,,27,127,5300041,,,2025-08-06,清算の結了等,,,2020-02-12,1,,,,,アップエイド,0
1942,8180001070653,登記記録の閉鎖等,0,2025-08-13,2025-07-16,株式会社スタイルクリエイト,,株式会社,愛知県,名古屋市昭和区,鶴舞２丁目１番２号,,23,107,4660064,,,2025-07-16,清算の結了等,,,2015-10-05,1,,,,,スタイルクリエイト,0
1949,8180002073110,登記記録の閉鎖等,0,2025-08-13,2025-07-17,有限会社ラックス技研,,有限会社,愛知県,尾張旭市,狩宿町４丁目１０３番地,,23,226,4880021,,,2025-07-17,清算の結了等,,,2015-10-05,1,,,,,ラックスギケン,0
1954,8180301021653,登記記録の閉鎖等,0,2025-08-13,2025-08-01,株式会社ぺあのしすてむ,,株式会社,愛知県,みよし市,明知町平成２４番地,,23,236,4700214,,,2025-08-01,清算の結了等,,,2015-10-05,1,,,,,ペアノシステム,0
1969,8200002019028,登記記録の閉鎖等,0,2025-08-13,2025-08-01,有限会社服部ビジネス,,有限会社,岐阜県,美濃市,横越２６８番地,,21,207,5013761,,,2025-08-01,清算の結了等,,,2015-10-05,1,,,,,ハットリビジネス,0
1974,8230002010099,登記記録の閉鎖等,0,2025-08-13,2025-07-31,有限会社中元組,,有限会社,富山県,小矢部市,清水３３３番地,,16,209,9320114,,,2025-07-31,清算の結了等,,,2015-10-05,1,,,,,ナカモトグミ,0
1983,8240002049995,登記記録の閉鎖等,0,2025-08-13,2025-08-04,有限会社博愛堂,,有限会社,広島県,尾道市,因島土生町２０８５番地１０,,34,205,7222323,,,2025-08-04,清算の結了等,,,2015-10-05,1,,,,,ハクアイドウ,0
1991,8290003015380,登記記録の閉鎖等,0,2025-08-13,2025-08-07,合同会社ｃｈａｐｏ,,合同会社,福岡県,福岡市博多区,月隈６丁目９番３５号,,40,132,8120858,,,2025-08-07,合併による解散等,8290801003891,令和７年８月１日北九州市小倉北区篠崎一丁目３番４号株式会社よしむら自動車ガラス（8290801003891）に合併し解散,2024-05-29,1,,,,,チャポ,0
1995,8290803004764,登記記録の閉鎖等,0,2025-08-13,2025-08-08,アナスタシア英会話合同会社,,合同会社,福岡県,北九州市門司区,上藤松２丁目７番１８号,,40,101,8000044,,,2025-08-08,清算の結了等,,,2024-07-01,1,,,,,アナスタシアエイカイワ,0
1999,8310005001789,登記記録の閉鎖等,0,2025-08-13,2025-08-04,協同組合長崎県廃自動車リサイクル協会,,その他の設立登記法人,長崎県,長崎市,小江町１７９７番地,,42,201,8511133,,,2025-08-04,清算の結了等,,,2015-10-05,1,,,,,ナガサキケンハイジドウシャリサイクル,0
2005,8330001018273,登記記録の閉鎖等,0,2025-08-13,2025-07-25,株式会社サントピアファーム,,株式会社,熊本県,玉名市,大浜町４４９２番地,,43,206,8650055,,,2025-07-25,清算の結了等,,,2015-10-05,1,,,,,サントピアファーム,0
2015,8350002008197,登記記録の閉鎖等,0,2025-08-13,2025-08-05,有限会社福島ソーイング,,有限会社,宮崎県,東諸県郡国富町,大字三名１２９３番地１,,45,382,8801114,,,2025-08-05,清算の結了等,,,2015-10-05,1,,,,,フクシマソーイング,0
2019,8370001044258,登記記録の閉鎖等,0,2025-08-13,2025-07-18,株式会社トライブ,,株式会社,宮城県,仙台市青葉区,中央１丁目２－３仙台マークワン１９Ｆ,,04,101,9800021,,,2025-07-18,清算の結了等,,,2019-04-15,1,,,,,トライブ,0
2023,8380002002239,登記記録の閉鎖等,0,2025-08-13,2025-07-24,有限会社達磨鮨,,有限会社,福島県,福島市,野田町３丁目１番３号,,07,201,9608055,,,2025-07-24,清算の結了等,,,2015-10-05,1,,,,,ダルマズシ,0
2028,8390003001503,登記記録の閉鎖等,0,2025-08-13,2025-08-08,合同会社望見,,合同会社,山形県,山形市,馬見ケ崎１丁目１３番２０号,,06,201,9900810,,,2025-08-08,合併による解散等,1500001021076,令和７年８月１日大阪府阪南市下出３７番地の５リクラス尾崎ビル２階株式会社ＭＥＤＩ‐ＦＵＬＬ（1500001021076）に合併し解散,2018-02-15,1,,,,,ボウケン,0
2032,8400002006872,登記記録の閉鎖等,0,2025-08-13,2025-07-17,有限会社きくまる商事,,有限会社,岩手県,紫波郡矢巾町,大字広宮沢第３地割４２１番地,,03,322,0283621,,,2025-07-17,清算の結了等,,,2015-10-05,1,,,,,,0
2045,8470002006065,登記記録の閉鎖等,0,2025-08-13,2025-08-07,有限会社フルールノブ,,有限会社,香川県,高松市,古馬場町９番地３１,,37,201,7600045,,,2025-08-07,清算の結了等,,,2015-10-05,1,,,,,フルールノブ,0
2048,8480002014265,登記記録の閉鎖等,0,2025-08-13,2025-08-08,有限会社藤中豊吉商店,,有限会社,徳島県,海部郡美波町,日和佐浦１５２番地,,36,387,7792304,,,2025-08-08,清算の結了等,,,2015-10-05,1,,,,,フジナカトヨキチショウテン,0
2055,9010001003843,登記記録の閉鎖等,0,2025-08-13,2025-07-11,株式会社ジャニス,,株式会社,東京都,文京区,本郷１丁目３５番２４－４０５号,,13,105,1130033,,,2025-07-11,清算の結了等,,,2015-10-05,1,,,,,ジャニス,0
2063,9010002051602,登記記録の閉鎖等,0,2025-08-13,2025-07-14,有限会社ＮＳＫ,,有限会社,東京都,千代田区,神田須田町２丁目１９番３号,,13,101,1010041,,,2025-07-14,清算の結了等,,,2015-10-05,1,,,,,,0
2078,9010401174722,登記記録の閉鎖等,0,2025-08-13,2025-07-14,株式会社ドルフィン・バリュー・アップ１１号,,株式会社,東京都,港区,芝公園１丁目１番１号住友不動産御成門タワー７階,,13,103,1050011,,,2025-07-14,清算の結了等,,,2023-06-01,1,,,,,ドルフィンバリューアップジュウイチゴウ,0
2088,9010901056206,登記記録の閉鎖等,0,2025-08-13,2025-08-08,株式会社Ｌｉｆｅｗａｌｋ　Ｐｌｕｓ,,株式会社,東京都,世田谷区,野毛１丁目９番２７号,,13,112,1580092,,,2025-08-08,清算の結了等,,,2024-10-29,1,,,,,ライフウォークプラス,0
2145,9040001080120,登記記録の閉鎖等,0,2025-08-13,2025-07-17,株式会社ティー・エー・ケー・フーズ,,株式会社,千葉県,船橋市,みやぎ台３丁目１２番１３号,,12,204,2740804,,,2025-07-17,清算の結了等,,,2015-10-05,1,,,,,ティーエーケーフーズ,0
2148,9040001114497,登記記録の閉鎖等,0,2025-08-13,2025-07-24,株式会社クニオプランニング,,株式会社,千葉県,富里市,御料１０９０番地１６,,12,233,2860211,,,2025-07-24,清算の結了等,,,2020-07-29,1,,,,,クニオプランニング,0
2157,9050001000696,登記記録の閉鎖等,0,2025-08-13,2025-08-04,片岡自動車株式会社,,株式会社,茨城県,水戸市,見川町２５００番地の４,,08,201,3100913,,,2025-08-04,合併による解散等,7040001001441,令和７年７月１日千葉市中央区塩田町３８４番地の２関東ヂーゼル株式会社（7040001001441）に合併し解散,2015-10-05,1,,,,,カタオカジドウシャ,0
2181,9120001004640,登記記録の閉鎖等,0,2025-08-13,2025-07-31,葵機工株式会社,,株式会社,大阪府,大阪市阿倍野区,天王寺町北２丁目２番２号,,27,119,5450001,,,2025-07-31,清算の結了等,,,2015-10-05,1,,,,,アオイキコウ,0
2208,9140002005017,登記記録の閉鎖等,0,2025-08-13,2025-08-05,有限会社ニシワキ,,有限会社,兵庫県,神戸市西区,玉津町上池３１３番地の６,,28,111,6512126,,,2025-08-05,清算の結了等,,,2015-10-05,1,,,,,ニシワキ,0
2210,9140002066430,登記記録の閉鎖等,0,2025-08-13,2025-08-06,有限会社松田設計,,有限会社,兵庫県,伊丹市,昆陽東６丁目４番８号,,28,207,6640886,,,2025-08-06,清算の結了等,,,2015-10-05,1,,,,,マツダセッケイ,0
2212,9140003018892,登記記録の閉鎖等,0,2025-08-13,2025-08-12,合同会社Ｗｉｔｈ　ｉｔ,,合同会社,兵庫県,神戸市北区,谷上西町１－３２－１１０３,,28,109,6511246,,,2025-08-12,清算の結了等,,,2023-03-31,1,,,,,ウィズイット,0
2232,9180002066690,登記記録の閉鎖等,0,2025-08-13,2025-07-16,有限会社寺倉建材,,有限会社,愛知県,春日井市,朝宮町２丁目８番地の４,,23,206,4860846,,,2025-07-16,清算の結了等,,,2015-10-05,1,,,,,テラクラケンザイ,0
2234,9180003027989,登記記録の閉鎖等,0,2025-08-13,2025-07-18,伸耀合同会社,,合同会社,愛知県,名古屋市緑区,潮見が丘２丁目３３５番地の１サントピア潮見が丘１ＦＢ,,23,114,4580037,,,2025-07-18,清算の結了等,,,2025-02-18,1,,,,,シンヨウ,0
2239,9180302009358,登記記録の閉鎖等,0,2025-08-13,2025-07-29,有限会社ビューティーサロンナリタ,,有限会社,愛知県,豊橋市,菰口町６丁目４６番地第２菰口ハイム１０１号,,23,201,4418011,,,2025-07-29,清算の結了等,,,2015-10-05,1,,,,,ビューティーサロンナリタ,0
2241,9180302022360,登記記録の閉鎖等,0,2025-08-13,2025-07-31,有限会社車楽苑,,有限会社,愛知県,豊田市,大林町１５丁目５番地５,,23,211,4730902,,,2025-07-31,合併による解散等,9180303003343,令和７年７月３１日愛知県豊田市永覚町上長根３１番地１Ｋ２ホールディング合同会社（9180303003343）に合併し解散,2015-10-05,1,,,,,シャラクエン,0
2274,9290002055286,登記記録の閉鎖等,0,2025-08-13,2025-07-15,有限会社三光重機工業,,有限会社,福岡県,大牟田市,亀谷町１３２番地の１,,40,202,8360823,,,2025-07-15,清算の結了等,,,2015-10-05,1,,,,,サンコウジュウキコウギョウ,0
2281,9300002009067,登記記録の閉鎖等,0,2025-08-13,2025-08-05,有限会社オートピア西日本,,有限会社,佐賀県,鳥栖市,古賀町６７３番地,,41,203,8410083,,,2025-08-05,清算の結了等,,,2015-10-05,1,,,,,,0
2306,9370002014606,登記記録の閉鎖等,0,2025-08-13,2025-07-23,有限会社ハシバ商事,,有限会社,宮城県,仙台市青葉区,福沢町１番２９号,,04,101,9800002,,,2025-07-23,清算の結了等,,,2015-10-05,1,,,,,ハシバショウジ,0
2325,9470001001330,登記記録の閉鎖等,0,2025-08-13,2025-08-07,株式会社ぐれいと,,株式会社,香川県,高松市,古馬場町９番地３１,,37,201,7600045,,,2025-08-07,清算の結了等,,,2015-10-05,1,,,,,グレイト,0
