sequenceNumber,corporateNumber,process,correct,updateDate,changeDate,name,nameImageId,kind,prefectureName,cityName,streetNumber,addressImageId,prefectureCode,cityCode,postCode,addressOutside,addressOutsideImageId,closeDate,closeCause,successorCorporateNumber,changeCause,assignmentDate,latest,enName,enPrefectureName,enCityName,enAddressOutside,furigana,hihyoji
2,1010001148191,登記記録の閉鎖等,0,2024-08-27,2024-08-22,株式会社アポステータス,,株式会社,埼玉県,北葛飾郡松伏町,大字築比地７９５番地１,,11,465,3430102,,,2024-08-22,合併による解散等,6030001066965,令和６年８月１日埼玉県北葛飾郡松伏町築比地７９５番地１株式会社ウィーズ（6030001066965）に合併し解散,2015-10-05,1,,,,,アポステータス,0
6,1010001186687,登記記録の閉鎖等,0,2024-08-27,2024-08-14,オプティカニクス株式会社,,株式会社,東京都,中央区,東日本橋３丁目５番３号,,13,102,1030004,,,2024-08-14,清算の結了等,,,2017-10-04,1,,,,,オプティカニクス,0
13,1010003035438,登記記録の閉鎖等,0,2024-08-27,2024-08-14,ＧＰＤみどり合同会社,,合同会社,東京都,千代田区,一ツ橋２丁目５番５号,,13,101,1010003,,,2024-08-14,清算の結了等,,,2021-08-02,1,,,,,ジーピーディーミドリ,0
17,1010005025833,登記記録の閉鎖等,0,2024-08-27,2024-08-15,一般社団法人クリーンエア,,その他の設立登記法人,東京都,千代田区,内幸町２丁目２番３号,,13,101,1000011,,,2024-08-15,清算の結了等,,,2016-09-23,1,,,,,クリーンエア,0
40,1010701026325,登記記録の閉鎖等,0,2024-08-27,2024-08-05,株式会社ウイルアウェイ,,株式会社,東京都,港区,高輪４丁目２３番６号,,13,103,1080074,,,2024-08-05,清算の結了等,,,2015-10-05,1,,,,,ウイルアウェイ,0
45,1010703006192,登記記録の閉鎖等,0,2024-08-27,2024-08-14,合同会社アレグレット,,合同会社,東京都,品川区,西大井１丁目１番２－１７０６号,,13,109,1400015,,,2024-08-14,清算の結了等,,,2022-04-20,1,,,,,アレグレット,0
66,1011105004974,登記記録の閉鎖等,0,2024-08-27,2024-08-06,一般財団法人徳育経営研究所,,その他の設立登記法人,東京都,新宿区,西新宿７丁目１０番１７号,,13,104,1600023,,,2024-08-06,清算の結了等,,,2015-10-05,1,,,,,トクイクケイエイケンキュウショ,0
71,1011702015837,登記記録の閉鎖等,0,2024-08-27,2024-08-19,有限会社オズサービス,,有限会社,東京都,江戸川区,一之江４丁目１０番９号,,13,123,1320024,,,2024-08-19,清算の結了等,,,2015-10-05,1,,,,,オズサービス,0
72,1011703001588,登記記録の閉鎖等,0,2024-08-27,2024-08-19,堀越宣伝合同会社,,合同会社,東京都,江戸川区,春江町３丁目１５番２３号,,13,123,1320003,,,2024-08-19,清算の結了等,,,2016-10-25,1,,,,,,0
78,1013301028492,登記記録の閉鎖等,0,2024-08-27,2024-08-21,Ｄｏｉ－Ｔｉｌｅ株式会社,,株式会社,東京都,豊島区,池袋本町１丁目８番８号笠間ビル１Ｆ,,13,116,1700011,,,2024-08-21,清算の結了等,,,2015-10-05,1,,,,,ドイタイル,0
79,1013301047690,登記記録の閉鎖等,0,2024-08-27,2024-08-20,にゃんぽんたん株式会社,,株式会社,東京都,豊島区,東池袋１丁目１７番１１号パークハイツ池袋１１０５号,,13,116,1700013,,,2024-08-20,清算の結了等,,,2021-07-06,1,,,,,ニャンポンタン,0
81,1020001024978,登記記録の閉鎖等,0,2024-08-27,2024-08-02,株式会社リック,,株式会社,神奈川県,横浜市中区,海岸通４丁目１７番地,,14,104,2310002,,,2024-08-02,清算の結了等,,,2015-10-05,1,,,,,リック,0
82,1020001111743,登記記録の閉鎖等,0,2024-08-27,2024-08-07,株式会社アズタック,,株式会社,神奈川県,川崎市麻生区,細山８丁目１８番１号,,14,137,2150001,,,2024-08-07,清算の結了等,,,2015-10-05,1,,,,,アズタック,0
89,1020003013285,登記記録の閉鎖等,0,2024-08-27,2024-08-02,ＥＭＩ　ＴＲＡＤＩＮＧ合同会社,,合同会社,神奈川県,横浜市神奈川区,新子安１丁目２番２－Ｃ４０９号,,14,102,2210013,,,2024-08-02,清算の結了等,,,2017-09-12,1,,,,,イーエムアイトレーディング,0
118,1060001017185,登記記録の閉鎖等,0,2024-08-27,2024-08-14,株式会社ＥＭ商店,,株式会社,栃木県,下都賀郡壬生町,至宝３丁目８番３号,,09,361,3210217,,,2024-08-14,清算の結了等,,,2015-10-05,1,,,,,イーエムショウテン,0
127,1100001036206,登記記録の閉鎖等,0,2024-08-27,2024-08-09,株式会社青木商事,,株式会社,長野県,塩尻市,大字洗馬２５７番地１８,,20,215,3996462,,,2024-08-09,清算の結了等,,,2023-03-07,1,,,,,アオキショウジ,0
148,1120105009411,登記記録の閉鎖等,0,2024-08-27,2024-08-22,一般社団法人日本ロービジョンサポート協会,,その他の設立登記法人,大阪府,富田林市,若松町西２丁目１４０１番地,,27,214,5840025,,,2024-08-22,清算の結了等,,,2021-07-08,1,,,,,ニホンロービジョンサポートキョウカイ,0
149,1122001008918,登記記録の閉鎖等,0,2024-08-27,2024-08-26,森田運送株式会社,,株式会社,大阪府,東大阪市,川田４丁目５番３,,27,227,5780905,,,2024-08-26,清算の結了等,,,2015-10-05,1,,,,,,0
154,1140001028595,登記記録の閉鎖等,0,2024-08-27,2024-08-15,株式会社アルレシア,,株式会社,東京都,中央区,日本橋兜町１９－８,,13,102,1030026,,,2024-08-15,清算の結了等,,,2015-10-05,1,,,,,アルレシア,0
155,1140001084564,登記記録の閉鎖等,0,2024-08-27,2024-08-23,株式会社淡路住器,,株式会社,兵庫県,洲本市,物部３丁目７番１８号,,28,205,6560051,,,2024-08-23,清算の結了等,,,2015-10-05,1,,,,,アワジジュウキ,0
156,1140001109429,登記記録の閉鎖等,0,2024-08-27,2024-08-22,アグリサポート株式会社,,株式会社,兵庫県,丹波篠山市,長安寺２９４番地,,28,221,6692814,,,2024-08-22,清算の結了等,,,2018-03-22,1,,,,,アグリサポート,0
158,1160001024163,登記記録の閉鎖等,0,2024-08-27,2024-08-23,株式会社ＭＧＤ,,株式会社,滋賀県,大津市,におの浜３丁目４－４０,,25,201,5200801,,,2024-08-23,清算の結了等,,,2022-05-02,1,,,,,エムジーディー,0
160,1170001000964,登記記録の閉鎖等,0,2024-08-27,2024-08-23,株式会社協和,,株式会社,和歌山県,和歌山市,道場町５番地,,30,201,6408229,,,2024-08-23,清算の結了等,,,2015-10-05,1,,,,,キョウワ,0
173,1190001026776,登記記録の閉鎖等,0,2024-08-27,2024-08-26,株式会社エース,,株式会社,三重県,津市,芸濃町椋本２０７０番地,,24,201,5142211,,,2024-08-26,清算の結了等,,,2019-10-03,1,,,,,エース,0
185,1260001037857,登記記録の閉鎖等,0,2024-08-27,2024-08-20,株式会社ＲＥＮＤＥＺ‐ＶＯＵＳ,,株式会社,岡山県,岡山市南区,藤田１４２０番地４,,33,104,7010221,,,2024-08-20,清算の結了等,,,2023-04-14,1,,,,,ランデヴー,0
188,1270001003404,登記記録の閉鎖等,0,2024-08-27,2024-08-26,つばめタクシー株式会社,,株式会社,鳥取県,米子市,西福原５丁目８番１２号,,31,202,6830805,,,2024-08-26,清算の結了等,,,2015-10-05,1,,,,,ツバメタクシー,0
203,1330002026281,登記記録の閉鎖等,0,2024-08-27,2024-08-16,有限会社藤崎経営計算センター,,有限会社,熊本県,八代市,千反町１丁目七号１５番地,,43,202,8660053,,,2024-08-16,清算の結了等,,,2015-10-05,1,,,,,フジサキケイエイセンター,0
205,1340002019912,登記記録の閉鎖等,0,2024-08-27,2024-08-09,有限会社大原産業,,有限会社,鹿児島県,大島郡徳之島町,亀津２２５６番地２７３,,46,530,8917101,,,2024-08-09,清算の結了等,,,2015-10-05,1,,,,,オオハラサンギョウ,0
210,1370802000102,登記記録の閉鎖等,0,2024-08-27,2024-08-02,有限会社エンドー,,有限会社,宮城県,岩沼市,平等１丁目６番地,,04,211,9892457,,,2024-08-02,清算の結了等,,,2015-10-05,1,,,,,エンドー,0
211,1410003003635,登記記録の閉鎖等,0,2024-08-27,2024-08-22,合同会社ｃｉｖｉｌ,,合同会社,秋田県,湯沢市,字下山谷２２８番地,,05,207,0120822,,,2024-08-22,清算の結了等,,,2022-04-07,1,,,,,シビル,0
239,2010401147643,登記記録の閉鎖等,0,2024-08-27,2024-08-15,株式会社ＣｈｒｏｍｏＳ,,株式会社,東京都,中央区,京橋２丁目１２番２号ＮＥＷＳＸ２Ｆ,,13,102,1040031,,,2024-08-15,清算の結了等,,,2019-08-22,1,,,,,クロモス,0
240,2010401170224,登記記録の閉鎖等,0,2024-08-27,2024-08-05,株式会社ボディプログラミング・ラボ,,株式会社,東京都,港区,芝浦４丁目２番１０－５０２号,,13,103,1080023,,,2024-08-05,清算の結了等,,,2022-10-12,1,,,,,ボディプログラミングラボ,0
241,2010401173953,登記記録の閉鎖等,0,2024-08-27,2024-08-05,株式会社繋,,株式会社,東京都,港区,赤坂４丁目８番１９号赤坂フロントタウン３階,,13,103,1070052,,,2024-08-05,清算の結了等,,,2023-04-25,1,,,,,ケイ,0
247,2010403023834,登記記録の閉鎖等,0,2024-08-27,2024-08-06,椿合同会社,,合同会社,東京都,港区,西新橋１丁目１番１号ＥＰコンサルティングサービス内,,13,103,1050003,,,2024-08-06,清算の結了等,,,2020-10-01,1,,,,,ツバキ,0
257,2010701044045,登記記録の閉鎖等,0,2024-08-27,2024-08-20,株式会社ティーガ,,株式会社,東京都,品川区,上大崎２丁目３番２１号エヴァート長者丸１０３,,13,109,1410021,,,2024-08-20,清算の結了等,,,2023-03-30,1,,,,,ティーガ,0
262,2010901049546,登記記録の閉鎖等,0,2024-08-27,2024-08-22,株式会社Ｄｉｓｃｏｖｅｒ　Ｙｏｕｒ　Ｐｕｚｚｌｅ,,株式会社,東京都,世田谷区,粕谷３丁目３１番１８号,,13,112,1570063,,,2024-08-22,清算の結了等,,,2021-10-06,1,,,,,ディスカバーユアパズル,0
266,2011001003030,登記記録の閉鎖等,0,2024-08-27,2024-08-22,株式会社ヴォワイユ,,株式会社,東京都,渋谷区,神宮前３丁目３３番１１号,,13,113,1500001,,,2024-08-22,清算の結了等,,,2015-10-05,1,,,,,,0
274,2011003002534,登記記録の閉鎖等,0,2024-08-27,2024-08-05,チャイナ・チャレンジ合同会社,,合同会社,東京都,渋谷区,上原１丁目１７番１４号,,13,113,1510064,,,2024-08-05,清算の結了等,,,2015-10-05,1,,,,,チャイナチャレンジ,0
304,2030001107772,登記記録の閉鎖等,0,2024-08-27,2024-08-23,エムズ水楽園ファーム株式会社,,株式会社,埼玉県,上尾市,大字平塚２５５８番地４,,11,219,3620011,,,2024-08-23,合併による解散等,7011001146725,令和６年８月１日東京都渋谷区渋谷一丁目２番５号株式会社Ｄｏｒｏｎｋｏ　Ａｇｒｉ（7011001146725）に合併し解散,2015-10-05,1,,,,,エムズスイラクエンファーム,0
308,2030002098160,登記記録の閉鎖等,0,2024-08-27,2024-08-22,有限会社マエダ建装,,有限会社,埼玉県,比企郡嵐山町,大字菅谷６５６番地５,,11,342,3550221,,,2024-08-22,清算の結了等,,,2015-10-05,1,,,,,マエダケンソウ,0
317,2050001001701,登記記録の閉鎖等,0,2024-08-27,2024-08-15,株式会社ｕｃ,,株式会社,東京都,品川区,西五反田１丁目２６番２号五反田サンハイツ９１１,,13,109,1410031,,,2024-08-15,清算の結了等,,,2015-10-05,1,,,,,ユーシー,0
335,2080405007135,登記記録の閉鎖等,0,2024-08-27,2024-08-23,アジア・太平洋人材交流企業協同組合,,その他の設立登記法人,静岡県,浜松市中央区,流通元町１２番１号,,22,138,4350007,,,2024-08-23,清算の結了等,,,2019-02-04,1,,,,,アジアタイヘイヨウジンザイコウリュウキギョウ,0
345,2120001019752,登記記録の閉鎖等,0,2024-08-27,2024-08-23,株式会社オークス,,株式会社,大阪府,大阪市平野区,長吉長原１丁目１番４８号,,27,126,5470016,,,2024-08-23,清算の結了等,,,2015-10-05,1,,,,,オークス,0
367,2130002012160,登記記録の閉鎖等,0,2024-08-27,2024-08-23,有限会社京滋通信機器商会,,有限会社,京都府,京都市山科区,東野中井ノ上町１９番地の１８,,26,110,6078142,,,2024-08-23,清算の結了等,,,2015-10-05,1,,,,,ケイジツウシンキキショウカイ,0
369,2130002014371,登記記録の閉鎖等,0,2024-08-27,2024-08-20,有限会社ツボイ,,有限会社,京都府,京都市伏見区,京町１丁目２６９番地,,26,109,6128083,,,2024-08-20,清算の結了等,,,2015-10-05,1,,,,,ツボイ,0
372,2140002021474,登記記録の閉鎖等,0,2024-08-27,2024-08-22,有限会社ヒロシ,,有限会社,兵庫県,神戸市長田区,腕塚町６丁目１番１６－１００６号,,28,106,6530036,,,2024-08-22,清算の結了等,,,2015-10-05,1,,,,,ヒロシ,0
393,2180003025578,登記記録の閉鎖等,0,2024-08-27,2024-08-26,ジービーオー合同会社,,合同会社,愛知県,名古屋市名東区,藤森２丁目２６５番地（シャルマン藤ケ丘３－Ａ号）,,23,115,4650026,,,2024-08-26,清算の結了等,,,2023-08-07,1,,,,,ジービーオー,0
398,2180303004728,登記記録の閉鎖等,0,2024-08-27,2024-08-26,合同会社遊’ｓプランニング,,合同会社,愛知県,豊川市,緑町４９番地ベルデＦ号,,23,207,4420049,,,2024-08-26,清算の結了等,,,2020-09-03,1,,,,,ユウスプランニング,0
400,2190002008327,登記記録の閉鎖等,0,2024-08-27,2024-08-23,伊勢メッキン有限会社,,有限会社,三重県,伊勢市,藤里町６４番地１１,,24,203,5160043,,,2024-08-23,清算の結了等,,,2015-10-05,1,,,,,イセメッキン,0
401,2190005011105,登記記録の閉鎖等,0,2024-08-27,2024-08-26,特定非営利活動法人亀山音楽協会,,その他の設立登記法人,三重県,亀山市,東御幸町２３３番地３,,24,210,5190124,,,2024-08-26,清算の結了等,,,2017-08-14,1,,,,,カメヤマオンガクキョウカイ,0
410,2250003003444,登記記録の閉鎖等,0,2024-08-27,2024-08-22,合同会社さくら,,合同会社,山口県,宇部市,大字際波１９４番地７８,,35,202,7590207,,,2024-08-22,清算の結了等,,,2024-02-26,1,,,,,サクラ,0
432,2340001019912,登記記録の閉鎖等,0,2024-08-27,2024-08-23,株式会社ファーストコピー,,株式会社,鹿児島県,鹿児島市,加治屋町１４番１８号,,46,201,8920846,,,2024-08-23,清算の結了等,,,2016-12-16,1,,,,,,0
436,2350002014894,登記記録の閉鎖等,0,2024-08-27,2024-08-22,有限会社マコト自動車,,有限会社,宮崎県,都城市,志比田町４９３６番地１,,45,202,8850093,,,2024-08-22,清算の結了等,,,2015-10-05,1,,,,,マコトジドウシャ,0
437,2360001029216,登記記録の閉鎖等,0,2024-08-27,2024-08-22,株式会社宮古魂,,株式会社,沖縄県,宮古島市,平良字下里５６２番地１．３－Ａ,,47,214,9060013,,,2024-08-22,合併による解散等,5010401176342,令和６年８月１日東京都港区港南二丁目１２番２８号品川タワーフェイス１７０９株式会社ＮａｔｕｒａＬｉｂｅｒ（5010401176342）に合併し解散,2021-08-12,1,,,,,ミヤコダマシイ,0
439,2370001010769,登記記録の閉鎖等,0,2024-08-27,2024-08-09,株式会社吉川事務所,,株式会社,宮城県,仙台市青葉区,角五郎１丁目８番７号プラウド仙台広瀬川５０５号,,04,101,9800874,,,2024-08-09,清算の結了等,,,2015-10-05,1,,,,,ヨシカワジムショ,0
443,2430001062779,登記記録の閉鎖等,0,2024-08-27,2024-08-20,株式会社イクスパンス,,株式会社,北海道,札幌市中央区,北五条西６丁目１番地２３第二北海道通信ビル９Ｆ９０１,,01,101,0600005,,,2024-08-20,清算の結了等,,,2015-10-05,1,,,,,イクスパンス,0
449,3010001029381,登記記録の閉鎖等,0,2024-08-27,2024-08-06,株式会社丸喜,,株式会社,東京都,千代田区,岩本町３丁目８番４号,,13,101,1010032,,,2024-08-06,清算の結了等,,,2015-10-05,1,,,,,マルヨシ,0
455,3010003027284,登記記録の閉鎖等,0,2024-08-27,2024-07-31,ＮｅｘｐａｎｄｅｒＪａｐａｎ株式会社,,株式会社,東京都,渋谷区,恵比寿西２丁目３番１２号,,13,113,1500021,,,2024-07-31,清算の結了等,,,2018-04-10,1,,,,,ネクスパンダージャパン,0
456,3010003035436,登記記録の閉鎖等,0,2024-08-27,2024-08-14,ＧＰＤつばめ合同会社,,合同会社,東京都,千代田区,一ツ橋２丁目５番５号,,13,101,1010003,,,2024-08-14,清算の結了等,,,2021-08-02,1,,,,,ジーピーディーツバメ,0
459,3010105000817,登記記録の閉鎖等,0,2024-08-27,2024-08-15,特定非営利活動法人ＴＡＭＡファイナンシャル・プランニング研究会,,その他の設立登記法人,東京都,日野市,西平山５丁目１５番地の８,,13,212,1910055,,,2024-08-15,清算の結了等,,,2015-10-05,1,,,,,タマファイナンシャルプランニングケンキュウカイ,0
476,3010701005491,登記記録の閉鎖等,0,2024-08-27,2024-08-19,株式会社大栄,,株式会社,東京都,品川区,西五反田１丁目２４番１－１２１１号,,13,109,1410031,,,2024-08-19,清算の結了等,,,2015-10-05,1,,,,,ダイエイ,0
489,3011001144253,登記記録の閉鎖等,0,2024-08-27,2024-08-15,けだま株式会社,,株式会社,東京都,渋谷区,松濤１丁目２８－２,,13,113,1500046,,,2024-08-15,清算の結了等,,,2021-12-08,1,,,,,ケダマ,0
511,3011502002026,登記記録の閉鎖等,0,2024-08-27,2024-08-23,幸栄興業有限会社,,有限会社,東京都,北区,豊島４丁目４番１６号,,13,117,1140003,,,2024-08-23,清算の結了等,,,2015-10-05,1,,,,,,0
530,3020005002846,登記記録の閉鎖等,0,2024-08-27,2024-08-02,公益社団法人神奈川県工業協会,,その他の設立登記法人,神奈川県,横浜市中区,尾上町５丁目８０番地,,14,104,2310015,,,2024-08-02,清算の結了等,,,2015-10-05,1,,,,,カナガワケンコウギョウキョウカイ,0
536,3021003001674,登記記録の閉鎖等,0,2024-08-27,2024-08-23,合資会社勝栄舎,,合資会社,神奈川県,伊勢原市,西富岡８８４番地１,,14,214,2591111,,,2024-08-23,清算の結了等,,,2015-10-05,1,,,,,ショウエイシャ,0
539,3030001103589,登記記録の閉鎖等,0,2024-08-27,2024-08-22,株式会社番匠屋,,株式会社,埼玉県,比企郡ときがわ町,大字番匠７２５番地１,,11,349,3550354,,,2024-08-22,清算の結了等,,,2015-10-05,1,,,,,バンジョウヤ,0
542,3030001147529,登記記録の閉鎖等,0,2024-08-27,2024-08-22,株式会社インテリアＮＳＫ,,株式会社,埼玉県,八潮市,大字二丁目９２４番地７,,11,234,3400811,,,2024-08-22,清算の結了等,,,2022-04-06,1,,,,,インテリアエヌエスケー,0
544,3030003001485,登記記録の閉鎖等,0,2024-08-27,2024-08-13,システムコンサルティング合同会社,,合同会社,埼玉県,所沢市,中新井１丁目３４番地の８,,11,208,3590041,,,2024-08-13,清算の結了等,,,2015-10-05,1,,,,,システムコンサルティング,0
557,3040003009528,登記記録の閉鎖等,0,2024-08-27,2024-07-11,合同会社レニウム,,合同会社,千葉県,市川市,妙典４丁目８番１８－２０２号,,12,203,2720111,,,2024-07-11,清算の結了等,,,2017-01-16,1,,,,,レニウム,0
558,3040003011384,登記記録の閉鎖等,0,2024-08-27,2024-07-05,合同会社あおぞら,,合同会社,千葉県,いすみ市,大原８６７０番地１０,,12,238,2980004,,,2024-07-05,清算の結了等,,,2018-03-16,1,,,,,アオゾラ,0
559,3040003020666,登記記録の閉鎖等,0,2024-08-27,2024-08-13,パシフィックアパート合同会社,,合同会社,千葉県,山武市,森２７９番地１４９号,,12,237,2891214,,,2024-08-13,清算の結了等,,,2022-08-19,1,,,,,パシフィックアパート,0
581,3110003004208,登記記録の閉鎖等,0,2024-08-27,2024-08-22,ディファレントワールド合同会社,,合同会社,新潟県,燕市,富永１０３番地８,,15,213,9590211,,,2024-08-22,清算の結了等,,,2020-07-06,1,,,,,ディファレントワールド,0
599,3120103004973,登記記録の閉鎖等,0,2024-08-27,2024-08-26,合同会社グラシス,,合同会社,大阪府,貝塚市,麻生中１０３７番地８,,27,208,5970081,,,2024-08-26,清算の結了等,,,2022-12-14,1,,,,,グラシス,0
600,3120901023992,登記記録の閉鎖等,0,2024-08-27,2024-08-20,株式会社沢田自動車,,株式会社,大阪府,豊中市,走井２丁目８番１７号,,27,203,5610891,,,2024-08-20,清算の結了等,,,2015-10-05,1,,,,,サワダジドウシャ,0
611,3140002062633,登記記録の閉鎖等,0,2024-08-27,2024-08-22,アイネットスター有限会社,,有限会社,兵庫県,小野市,榊町６８３番地の３,00041413,28,218,6751323,,,2024-08-22,清算の結了等,,,2015-10-05,1,,,,,アイネットスター,0
613,3150005004623,登記記録の閉鎖等,0,2024-08-27,2024-08-26,特定非営利活動法人サポートセンターきずな,,その他の設立登記法人,奈良県,宇陀市,榛原萩原１７３番地の３,,29,212,6330253,,,2024-08-26,清算の結了等,,,2015-10-05,1,,,,,サポートセンターキズナ,0
616,3170001017197,登記記録の閉鎖等,0,2024-08-27,2024-08-22,株式会社ＮＡＮＯＤＡ,,株式会社,和歌山県,西牟婁郡上富田町,朝来１９８９番地の８,,30,404,6492105,,,2024-08-22,清算の結了等,,,2022-07-19,1,,,,,ナノダ,0
617,3170002001142,登記記録の閉鎖等,0,2024-08-27,2024-08-26,有限会社貴豊,,有限会社,和歌山県,和歌山市,下三毛１６５番地の４,,30,201,6496263,,,2024-08-26,清算の結了等,,,2015-10-05,1,,,,,キホウ,0
623,3180002052291,登記記録の閉鎖等,0,2024-08-27,2024-08-20,有限会社興和,,有限会社,愛知県,西春日井郡豊山町,大字豊場字神戸５２番地の２,,23,342,4800202,,,2024-08-20,清算の結了等,,,2015-10-05,1,,,,,コウワ,0
629,3190001013450,登記記録の閉鎖等,0,2024-08-27,2024-08-26,株式会社アイドリームインジャパン,,株式会社,三重県,桑名市,星見ヶ丘８丁目４１２番地,,24,205,5110912,,,2024-08-26,清算の結了等,,,2015-10-05,1,,,,,,0
637,3240005015669,登記記録の閉鎖等,0,2024-08-27,2024-08-26,一般社団法人全国地域活性イノベーション協会,,その他の設立登記法人,広島県,広島市中区,大手町１丁目７番２１－３０５号,,34,101,7300051,,,2024-08-26,清算の結了等,,,2023-10-23,1,,,,,ゼンコクチイキカッセイイノベーションキョウカイ,0
665,3340002019464,登記記録の閉鎖等,0,2024-08-27,2024-08-26,有限会社甲山ウォーターカンパニー,,有限会社,鹿児島県,熊毛郡南種子町,島間５７８７番地,,46,502,8913706,,,2024-08-26,清算の結了等,,,2015-10-05,1,,,,,コウヤマウォーターカンパニー,0
681,3420001008749,登記記録の閉鎖等,0,2024-08-27,2024-08-21,株式会社沖美ソーラ,,株式会社,愛知県,知多市,つつじが丘４丁目１３番地の２　１０４棟４０２号,,23,224,4780054,,,2024-08-21,清算の結了等,,,2015-10-05,1,,,,,オキミソーラ,0
685,3430001065442,登記記録の閉鎖等,0,2024-08-27,2024-08-26,ＬＩＦＥ－Ｇ株式会社,,株式会社,北海道,札幌市中央区,南三条西５丁目１３－２,,01,101,0600063,,,2024-08-26,清算の結了等,,,2015-10-05,1,,,,,ライフジー,0
688,3440002007228,登記記録の閉鎖等,0,2024-08-27,2024-08-21,有限会社ケーオーエムクイックサービス,,有限会社,北海道,函館市,川汲町１４４１番地,00090434,01,202,0411611,,,2024-08-21,清算の結了等,,,2015-10-05,1,,,,,ケーオーエムクイックサービス,0
698,4010002048636,登記記録の閉鎖等,0,2024-08-27,2024-08-14,有限会社イーシス・プロパティー,,有限会社,東京都,中央区,日本橋１丁目４番１号,,13,102,1030027,,,2024-08-14,清算の結了等,,,2015-10-05,1,,,,,イーシスプロパティー,0
699,4010003035435,登記記録の閉鎖等,0,2024-08-27,2024-08-14,ＧＰＤこだま合同会社,,合同会社,東京都,千代田区,一ツ橋２丁目５番５号,,13,101,1010003,,,2024-08-14,清算の結了等,,,2021-08-02,1,,,,,ジーピーディーコダマ,0
700,4010003035443,登記記録の閉鎖等,0,2024-08-27,2024-08-14,ＧＰＤ彗星合同会社,,合同会社,東京都,千代田区,一ツ橋２丁目５番５号,,13,101,1010003,,,2024-08-14,清算の結了等,,,2021-08-02,1,,,,,ジーピーディースイセイ,0
701,4010003035492,登記記録の閉鎖等,0,2024-08-27,2024-08-14,ＧＰＤさくら合同会社,,合同会社,東京都,千代田区,一ツ橋２丁目５番５号,,13,101,1010003,,,2024-08-14,清算の結了等,,,2021-08-04,1,,,,,ジーピーディーサクラ,0
725,4010701042682,登記記録の閉鎖等,0,2024-08-27,2024-08-19,株式会社ワン・サイエンス,,株式会社,東京都,品川区,大崎１丁目６番３号,,13,109,1410032,,,2024-08-19,清算の結了等,,,2022-05-24,1,,,,,ワンサイエンス,0
727,4010705002600,登記記録の閉鎖等,0,2024-08-27,2024-08-20,一般社団法人こころＵＤ研究所,,その他の設立登記法人,東京都,品川区,東五反田１丁目５番１－９０４号,,13,109,1410022,,,2024-08-20,清算の結了等,,,2017-05-16,1,,,,,ココロユーディーケンキュウジョ,0
736,4011001069838,登記記録の閉鎖等,0,2024-08-27,2024-08-02,株式会社シュガーポットシーディー,,株式会社,神奈川県,横浜市戸塚区,品濃町１８０３番地５,,14,110,2440801,,,2024-08-02,清算の結了等,,,2015-10-05,1,,,,,シュガーポットシーディー,0
753,4011302014360,登記記録の閉鎖等,0,2024-08-27,2024-08-22,有限会社メグ・ジャパン,,有限会社,東京都,杉並区,和泉１丁目９番２２号カーネ・杉並和泉３０４,,13,115,1680063,,,2024-08-22,清算の結了等,,,2015-10-05,1,,,,,,0
763,4012801022746,登記記録の閉鎖等,0,2024-08-27,2024-08-20,日本自然研究所株式会社,,株式会社,東京都,東大和市,芋窪３丁目１６７７番地の７,,13,220,2070033,,,2024-08-20,清算の結了等,,,2023-11-08,1,,,,,ニホンシゼンケンキュウジョ,0
777,4020002092047,登記記録の閉鎖等,0,2024-08-27,2024-08-02,有限会社小林青果店,,有限会社,神奈川県,川崎市多摩区,菅２丁目３番１２号,,14,135,2140001,,,2024-08-02,清算の結了等,,,2015-10-05,1,,,,,コバヤシセイカテン,0
784,4030001067627,登記記録の閉鎖等,0,2024-08-27,2024-08-22,株式会社ファーマスト,,株式会社,埼玉県,北葛飾郡松伏町,大字築比地７９５番地１,,11,465,3430102,,,2024-08-22,合併による解散等,6030001066965,令和６年８月１日埼玉県北葛飾郡松伏町築比地７９５番地１株式会社ウィーズ（6030001066965）に合併し解散,2015-10-05,1,,,,,ファーマスト,0
794,4040003013280,登記記録の閉鎖等,0,2024-08-27,2024-08-13,合同会社ＫＡＬＨＡＲＡ　ＥＮＴＥＲＰＲＩＳＥＳ,,合同会社,千葉県,山武市,横田９７９番地,,12,237,2891226,,,2024-08-13,清算の結了等,,,2019-04-22,1,,,,,カルハラエンタープライセス,0
797,4050001001014,登記記録の閉鎖等,0,2024-08-27,2024-08-22,株式会社コムロプリント,,株式会社,茨城県,水戸市,元吉田町１３３０番地の４,,08,201,3100836,,,2024-08-22,清算の結了等,,,2015-10-05,1,,,,,コムロプリント,0
801,4050002039739,登記記録の閉鎖等,0,2024-08-27,2024-08-20,有限会社三夜渡辺商店,,有限会社,茨城県,常総市,羽生町７３１番地,,08,211,3002513,,,2024-08-20,清算の結了等,,,2015-10-05,1,,,,,サンヤワタナベショウテン,0
820,4120001135408,登記記録の閉鎖等,0,2024-08-27,2024-08-21,株式会社ガーネット,,株式会社,大阪府,大阪市北区,天神橋３丁目５番３号,,27,127,5300041,,,2024-08-21,清算の結了等,,,2015-10-05,1,,,,,ガーネット,0
821,4120001140597,登記記録の閉鎖等,0,2024-08-27,2024-08-23,株式会社婚シェル,,株式会社,大阪府,大阪市北区,天神橋４丁目７番５号,,27,127,5300041,,,2024-08-23,清算の結了等,,,2015-10-05,1,,,,,コンシェル,0
823,4120001229275,登記記録の閉鎖等,0,2024-08-27,2024-08-23,株式会社Ｋ．Ｋプランニング,,株式会社,大阪府,大阪市大正区,三軒家東１丁目３番９号,,27,108,5510002,,,2024-08-23,清算の結了等,,,2020-05-26,1,,,,,ケーケープランニング,0
847,4140001000634,登記記録の閉鎖等,0,2024-08-27,2024-08-21,株式会社ネットワークインターナショナル,,株式会社,兵庫県,芦屋市,南宮町１８番１８－４１６号,,28,206,6590024,,,2024-08-21,清算の結了等,,,2015-10-05,1,,,,,ネットワークインターナショナル,0
850,4140003005375,登記記録の閉鎖等,0,2024-08-27,2024-08-23,合同会社ＥＳＴ,,合同会社,兵庫県,神戸市中央区,元町通２丁目９番１号元町プラザビル６１６号,,28,110,6500022,,,2024-08-23,清算の結了等,,,2015-10-05,1,,,,,イーエスティ,0
856,4180001126211,登記記録の閉鎖等,0,2024-08-27,2024-08-20,株式会社Ｌａ．Ｄｏｎｎａ,,株式会社,愛知県,名古屋市中区,錦３丁目７番１号,,23,106,4600003,,,2024-08-20,清算の結了等,,,2017-01-16,1,,,,,ラドンナ,0
871,4240002046930,登記記録の閉鎖等,0,2024-08-27,2024-08-23,有限会社ミヤタ,,有限会社,広島県,府中市,府川町５４４番地,,34,208,7260004,,,2024-08-23,清算の結了等,,,2015-10-05,1,,,,,ミヤタ,0
881,4290802020485,登記記録の閉鎖等,0,2024-08-27,2024-08-16,有限会社ＨＡＣＨＩＥＩ,,有限会社,福岡県,直方市,大字感田６８５番地,,40,204,8220001,,,2024-08-16,清算の結了等,,,2015-10-05,1,,,,,,0
882,4300001007902,登記記録の閉鎖等,0,2024-08-27,2024-07-19,からだ屋本舗株式会社,,株式会社,福岡県,春日市,春日原北町３丁目５８番１号春日原テルミナ８階,,40,218,8160802,,,2024-07-19,清算の結了等,,,2015-10-05,1,,,,,カラダヤホンポ,0
883,4300002011275,登記記録の閉鎖等,0,2024-08-27,2024-08-22,有限会社アミュ,,有限会社,佐賀県,唐津市,栄町２５８３番地１７,,41,202,8470011,,,2024-08-22,清算の結了等,,,2015-10-05,1,,,,,アミュ,0
888,4380001019733,登記記録の閉鎖等,0,2024-08-27,2024-08-14,寺岡瓦工業株式会社,,株式会社,福島県,南相馬市,原町区益田字雫川６番地の１,,07,212,9750053,,,2024-08-14,清算の結了等,,,2015-10-05,1,,,,,テラオカカワラコウギョウ,0
893,4430001035741,登記記録の閉鎖等,0,2024-08-27,2024-08-23,株式会社小野商事,,株式会社,北海道,札幌市清田区,美しが丘二条４丁目１１番２号,,01,110,0040812,,,2024-08-23,清算の結了等,,,2015-10-05,1,,,,,オノショウジ,0
895,4480002001746,登記記録の閉鎖等,0,2024-08-27,2024-08-23,有限会社五島コーポレーシヨン,,有限会社,徳島県,徳島市,伊賀町２丁目１２番地の２,,36,201,7700926,,,2024-08-23,清算の結了等,,,2015-10-05,1,,,,,ゴトウコーポレーション,0
897,4500001018169,登記記録の閉鎖等,0,2024-08-27,2024-08-22,株式会社ペアレンツ,,株式会社,愛媛県,新居浜市,高田２丁目５番６３号,,38,205,7920887,,,2024-08-22,清算の結了等,,,2015-10-05,1,,,,,ペアレンツ,0
908,5010001234731,登記記録の閉鎖等,0,2024-08-27,2024-08-14,フェノメバイオジャパン株式会社,,株式会社,東京都,中央区,新川１丁目４番１号ブルカージャパン株式会社内,,13,102,1040033,,,2024-08-14,清算の結了等,,,2023-04-20,1,,,,,フェノメバイオジャパン,0
910,5010002020172,登記記録の閉鎖等,0,2024-08-27,2024-08-15,有限会社三優,,有限会社,東京都,中央区,日本橋本町１丁目２番５号,,13,102,1030023,,,2024-08-15,清算の結了等,,,2015-10-05,1,,,,,サンユウ,0
912,5010003035434,登記記録の閉鎖等,0,2024-08-27,2024-08-14,ＧＰＤひかり合同会社,,合同会社,東京都,千代田区,一ツ橋２丁目５番５号,,13,101,1010003,,,2024-08-14,清算の結了等,,,2021-08-02,1,,,,,ジーピーディーヒカリ,0
925,5010405020075,登記記録の閉鎖等,0,2024-08-27,2024-08-06,藤一般社団法人,,その他の設立登記法人,東京都,港区,西新橋１丁目１番１号ＥＰコンサルティングサービス内,,13,103,1050003,,,2024-08-06,清算の結了等,,,2021-07-29,1,,,,,フジ,0
944,5011001042083,登記記録の閉鎖等,0,2024-08-27,2024-08-22,株式会社ｅ‐Ｊｕｎｃｔｉｏｎ,,株式会社,京都府,京都市中京区,一之船入町５３７番地２０ＦＩＳ御池ビル２階,,26,104,6040924,,,2024-08-22,合併による解散等,2010001141732,令和６年７月１日東京都渋谷区円山町５－５ＴＡＣＨＩ株式会社（2010001141732）に合併し解散,2015-10-05,1,,,,,イージャンクション,0
961,5011203003965,登記記録の閉鎖等,0,2024-08-27,2024-08-16,合同会社ＢＲＴＣ,,合同会社,東京都,中央区,銀座１丁目１２番４号Ｎ＆ＥＢＬＤ．６Ｆ,,13,102,1040061,,,2024-08-16,清算の結了等,,,2022-12-20,1,,,,,ビーアールティーシー,0
967,5011501013063,登記記録の閉鎖等,0,2024-08-27,2024-08-26,株式会社京成トータルホールディングス,,株式会社,東京都,荒川区,荒川７丁目５０番９号センターまちや１０８－２階,,13,118,1160002,,,2024-08-26,清算の結了等,,,2015-10-05,1,,,,,ケイセイトータルホールディングス,0
976,5013201011710,登記記録の閉鎖等,0,2024-08-27,2024-08-05,株式会社オフィスエム・ツー,,株式会社,東京都,目黒区,鷹番３丁目１０番１２号,,13,110,1520004,,,2024-08-05,清算の結了等,,,2015-10-05,1,,,,,オフィスエムツー,0
1014,5040002102876,登記記録の閉鎖等,0,2024-08-27,2024-08-13,有限会社鈴木運輸,,有限会社,千葉県,勝浦市,宿戸２６０番地１,,12,218,2995216,,,2024-08-13,清算の結了等,,,2015-10-05,1,,,,,,0
1025,5070002031569,登記記録の閉鎖等,0,2024-08-27,2024-08-23,有限会社鹿角堂,,有限会社,群馬県,太田市,上小林町２２９番地１,,10,205,3730024,,,2024-08-23,清算の結了等,,,2015-10-05,1,,,,,ロッカクドウ,0
1026,5070005004679,登記記録の閉鎖等,0,2024-08-27,2024-08-23,特定非営利活動法人りぼん,,その他の設立登記法人,群馬県,伊勢崎市,上諏訪町１２５８番地１２,,10,204,3720021,,,2024-08-23,清算の結了等,,,2015-10-05,1,,,,,リボン,0
1030,5110005005516,登記記録の閉鎖等,0,2024-08-27,2024-08-21,医療法人社団成蹊会,,その他の設立登記法人,新潟県,三条市,北新保２丁目９番２９号,,15,204,9550861,,,2024-08-21,清算の結了等,,,2015-10-05,1,,,,,セイケイカイ,0
1034,5120001120136,登記記録の閉鎖等,0,2024-08-27,2024-08-23,株式会社ピーナッツファーム,,株式会社,大阪府,大阪市中央区,南船場１丁目１０番８－１１０５号,,27,128,5420081,,,2024-08-23,清算の結了等,,,2015-10-05,1,,,,,ピーナッツファーム,0
1041,5120002076484,登記記録の閉鎖等,0,2024-08-27,2024-08-21,有限会社弘大建設,,有限会社,大阪府,枚方市,宮之阪１丁目１０番１２号,,27,210,5730022,,,2024-08-21,清算の結了等,,,2015-10-05,1,,,,,コウダイケンセツ,0
1044,5120005011884,登記記録の閉鎖等,0,2024-08-27,2024-08-27,特定非営利活動法人バイオグリッドセンター関西,,その他の設立登記法人,大阪府,大阪市北区,大深町３番１号,,27,127,5300011,,,2024-08-27,清算の結了等,,,2015-10-05,1,,,,,バイオグリッドセンターカンサイ,0
1052,5130001004123,登記記録の閉鎖等,0,2024-08-27,2024-08-26,株式会社リヨン,,株式会社,京都府,向日市,寺戸町大牧１番地の８７,,26,208,6170002,,,2024-08-26,清算の結了等,,,2015-10-05,1,,,,,リヨン,0
1057,5140001040992,登記記録の閉鎖等,0,2024-08-27,2024-08-20,梶村印刷株式会社,,株式会社,兵庫県,丹波市,春日町黒井２１４２番地,,28,223,6694141,,,2024-08-20,清算の結了等,,,2015-10-05,1,,,,,カジムラインサツ,0
1070,5180001145607,登記記録の閉鎖等,0,2024-08-27,2024-08-21,株式会社ｓ－ｔｂｌ,,株式会社,愛知県,春日井市,柏井町６丁目９１番地２,,23,206,4860927,,,2024-08-21,清算の結了等,,,2021-04-13,1,,,,,エステブル,0
1086,5270002007251,登記記録の閉鎖等,0,2024-08-27,2024-08-23,有限会社山川電工,,有限会社,鳥取県,米子市,博労町３丁目１８５番地,,31,202,6830052,,,2024-08-23,清算の結了等,,,2015-10-05,1,,,,,ヤマカワデンコウ,0
1088,5290001006161,登記記録の閉鎖等,0,2024-08-27,2024-07-23,株式会社ココ企画,,株式会社,福岡県,福岡市城南区,松山２丁目１４番１１号,,40,136,8140131,,,2024-07-23,清算の結了等,,,2015-10-05,1,,,,,ココキカク,0
1089,5290001062485,登記記録の閉鎖等,0,2024-08-27,2024-07-22,株式会社鮮商,,株式会社,福岡県,福岡市中央区,長浜３丁目１１番３－１０１５号,,40,133,8100072,,,2024-07-22,清算の結了等,,,2015-10-05,1,,,,,センショウ,0
1098,5320001018814,登記記録の閉鎖等,0,2024-08-27,2024-08-20,株式会社ポレールサイン,,株式会社,大分県,大分市,大道町１丁目６－１６－３０１号室,,44,201,8700822,,,2024-08-20,清算の結了等,,,2022-01-07,1,,,,,ポレールサイン,0
1101,5330002030098,登記記録の閉鎖等,0,2024-08-27,2024-08-15,有限会社木崎建設,,有限会社,熊本県,球磨郡相良村,大字川辺１６１５番地,,43,510,8680093,,,2024-08-15,清算の結了等,,,2015-10-05,1,,,,,キザキケンセツ,0
1103,5340005007126,登記記録の閉鎖等,0,2024-08-27,2024-08-23,特定非営利活動法人全国生産者会結,,その他の設立登記法人,鹿児島県,肝属郡肝付町,後田３５８４番地１,,46,492,8931203,,,2024-08-23,清算の結了等,,,2015-10-05,1,,,,,ゼンコクセイサンシャカイユイ,0
1122,5420005004429,登記記録の閉鎖等,0,2024-08-27,2024-08-21,土手町商店街振興組合連合会,,その他の設立登記法人,青森県,弘前市,大字土手町２２番地弘前商事ビル３階,,02,202,0368182,,,2024-08-21,清算の結了等,,,2015-10-05,1,,,,,ドテマチ,0
1135,6010003035433,登記記録の閉鎖等,0,2024-08-27,2024-08-14,ＧＰＤのぞみ合同会社,,合同会社,東京都,千代田区,一ツ橋２丁目５番５号,,13,101,1010003,,,2024-08-14,清算の結了等,,,2021-08-02,1,,,,,ジーピーディーノゾミ,0
1136,6010003035441,登記記録の閉鎖等,0,2024-08-27,2024-08-14,ＧＰＤ明星合同会社,,合同会社,東京都,千代田区,一ツ橋２丁目５番５号,,13,101,1010003,,,2024-08-14,清算の結了等,,,2021-08-02,1,,,,,ジーピーディーミョウジョウ,0
1142,6010401088207,登記記録の閉鎖等,0,2024-08-27,2024-08-05,株式会社ＳＳＫプランニング,,株式会社,東京都,港区,南青山４丁目２番１２－５１２号,,13,103,1070062,,,2024-08-05,合併による解散等,4010401088241,令和６年８月１日東京都港区南青山四丁目２番１２－５１２号株式会社アスコ（4010401088241）に合併し解散,2015-10-05,1,,,,,エスエスケイプランニング,0
1204,6011803005559,登記記録の閉鎖等,0,2024-08-27,2024-08-14,ブランシュ合同会社,,合同会社,東京都,葛飾区,東水元２丁目３番４号,,13,122,1250033,,,2024-08-14,清算の結了等,,,2023-03-20,1,,,,,ブランシュ,0
1230,6021001043105,登記記録の閉鎖等,0,2024-08-27,2024-08-23,株式会社福士養蜂場,,株式会社,神奈川県,横須賀市,長井１丁目６番３１号,,14,201,2380316,,,2024-08-23,清算の結了等,,,2015-10-05,1,,,,,フクシヨウホウジョウ,0
1242,6040001043955,登記記録の閉鎖等,0,2024-08-27,2024-08-13,豊栄物流株式会社,,株式会社,千葉県,白井市,清水口２丁目５番８棟１０４号,,12,232,2701435,,,2024-08-13,清算の結了等,,,2015-10-05,1,,,,,,0
1254,6050001014055,登記記録の閉鎖等,0,2024-08-27,2024-08-22,株式会社伸成鋼業所,,株式会社,茨城県,坂東市,山字中の台２１７８番３９１,,08,228,3060502,,,2024-08-22,合併による解散等,5010001053248,令和６年７月１日千葉県千葉市美浜区中瀬一丁目３番地日綜産業株式会社（5010001053248）に合併し解散,2015-10-05,1,,,,,シンセイコウギョウショ,0
1261,6060001030984,登記記録の閉鎖等,0,2024-08-27,2024-08-14,ツーバイス株式会社,,株式会社,栃木県,宇都宮市,西２丁目３番４１号,,09,201,3200861,,,2024-08-14,清算の結了等,,,2018-10-17,1,,,,,ツーバイス,0
1266,6070002024126,登記記録の閉鎖等,0,2024-08-27,2024-08-26,有限会社塚越鉄工,,有限会社,群馬県,桐生市,東２丁目９番２５号,,10,203,3760034,,,2024-08-26,清算の結了等,,,2015-10-05,1,,,,,ツカゴシテッコウ,0
1267,6070002027483,登記記録の閉鎖等,0,2024-08-27,2024-08-23,有限会社和,,有限会社,群馬県,渋川市,渋川９１０番地３０,,10,208,3770008,,,2024-08-23,清算の結了等,,,2015-10-05,1,,,,,ナゴミ,0
1284,6120001078299,登記記録の閉鎖等,0,2024-08-27,2024-08-23,オムロンフィールドエンジニアリング西日本株式会社,,株式会社,大阪府,大阪市中央区,南久宝寺町２丁目２番９号,,27,128,5410058,,,2024-08-23,合併による解散等,7013201017136,令和６年８月１日東京都目黒区三田一丁目６番２１号オムロンフィールドエンジニアリング株式会社（7013201017136）に合併し解散,2015-10-05,1,,,,,オムロンフィールドエンジニアリングニシニホン,0
1306,6130002023170,登記記録の閉鎖等,0,2024-08-27,2024-08-23,有限会社アンチエイジング研究所,,有限会社,京都府,京都市中京区,烏丸通二条下る秋野々町５１８番地,,26,104,6040847,,,2024-08-23,合併による解散等,3130001027976,令和６年７月１日京都市中京区烏丸通二条下ル秋野々町５１８番地株式会社ケイマリ（3130001027976）に合併し解散,2015-10-05,1,,,,,アンチエイジングケンキュウショ,0
1322,6180002058567,登記記録の閉鎖等,0,2024-08-27,2024-08-20,有限会社クレデュース,,有限会社,愛知県,名古屋市東区,葵３丁目３番８号,,23,102,4610004,,,2024-08-20,清算の結了等,,,2015-10-05,1,,,,,クレデュース,0
1342,6240002026567,登記記録の閉鎖等,0,2024-08-27,2024-08-26,有限会社わたなべ技建,,有限会社,広島県,広島市安佐南区,伴東１丁目３８番１６号,,34,105,7313164,,,2024-08-26,清算の結了等,,,2015-10-05,1,,,,,,0
1363,6290803003702,登記記録の閉鎖等,0,2024-08-27,2024-08-15,合同会社サギシマ,,合同会社,福岡県,北九州市小倉南区,湯川新町２丁目２６番１３号,,40,107,8000256,,,2024-08-15,清算の結了等,,,2020-12-08,1,,,,,サギシマ,0
1374,6400602000401,登記記録の閉鎖等,0,2024-08-27,2024-08-09,有限会社誠和電設,,有限会社,岩手県,奥州市,水沢字高屋敷２７番地１１,,03,215,0230889,,,2024-08-09,清算の結了等,,,2015-10-05,1,,,,,セイワデンセツ,0
1389,6500005004667,登記記録の閉鎖等,0,2024-08-27,2024-08-21,特定非営利活動法人新居浜ほっとねっと,,その他の設立登記法人,愛媛県,新居浜市,本郷１丁目６番１８号,,38,205,7920042,,,2024-08-21,清算の結了等,,,2015-10-05,1,,,,,ニイハマホットネット,0
1395,7010001204303,登記記録の閉鎖等,0,2024-08-27,2024-08-19,株式会社サウダーヂ,,株式会社,東京都,千代田区,一番町１０番地８一番町ウエストビル,,13,101,1020082,,,2024-08-19,清算の結了等,,,2019-10-07,1,,,,,サウダーヂ,0
1397,7010003035440,登記記録の閉鎖等,0,2024-08-27,2024-08-14,ＧＰＤ月光合同会社,,合同会社,東京都,千代田区,一ツ橋２丁目５番５号,,13,101,1010003,,,2024-08-14,清算の結了等,,,2021-08-02,1,,,,,ジーピーディーゲッコウ,0
1402,7010005016050,登記記録の閉鎖等,0,2024-08-27,2024-08-09,弁護士法人西和総合法律事務所,,その他の設立登記法人,東京都,新宿区,四谷三栄町２番１４号,,13,104,1600008,,,2024-08-09,清算の結了等,,,2015-10-05,1,,,,,セイワソウゴウホウリツジムショ,0
1409,7010401168890,登記記録の閉鎖等,0,2024-08-27,2024-08-06,株式会社東和不動産,,株式会社,東京都,港区,新橋３丁目９番１０号,,13,103,1050004,,,2024-08-06,清算の結了等,,,2022-08-05,1,,,,,トウワフドウサン,0
1414,7010402013476,登記記録の閉鎖等,0,2024-08-27,2024-08-08,有限会社吉田オプティクス,,有限会社,東京都,港区,南青山１丁目１番１号,,13,103,1070062,,,2024-08-08,清算の結了等,,,2015-10-05,1,,,,,ヨシダオプティクス,0
1416,7010403025834,登記記録の閉鎖等,0,2024-08-27,2024-08-06,藤合同会社,,合同会社,東京都,港区,西新橋１丁目１番１号ＥＰコンサルティングサービス内,,13,103,1050003,,,2024-08-06,清算の結了等,,,2021-08-03,1,,,,,フジ,0
1448,7011201022180,登記記録の閉鎖等,0,2024-08-27,2024-08-26,株式会社メディア・コマース,,株式会社,東京都,中野区,中央４丁目１番３号,,13,114,1640011,,,2024-08-26,清算の結了等,,,2020-06-04,1,,,,,メディアコマース,0
1450,7011301007593,登記記録の閉鎖等,0,2024-08-27,2024-08-13,ラボテック株式会社,,株式会社,東京都,杉並区,上荻２丁目２７番１３号,,13,115,1670043,,,2024-08-13,合併による解散等,7011301003519,令和６年８月１日東京都杉並区上荻二丁目２７番１３号ラボテック株式会社（7011301003519）に合併し解散,2015-10-05,1,,,,,ラボテック,0
1451,7011305001733,登記記録の閉鎖等,0,2024-08-27,2024-08-16,特定非営利活動法人リトルワンズ,,その他の設立登記法人,東京都,杉並区,阿佐谷南３丁目３７番地１０号３０１室,,13,115,1660004,,,2024-08-16,清算の結了等,,,2015-10-05,1,,,,,,0
1453,7011502014950,登記記録の閉鎖等,0,2024-08-27,2024-08-26,有限会社さつき亭,,有限会社,東京都,北区,中里２丁目２番６号,,13,117,1140015,,,2024-08-26,清算の結了等,,,2015-10-05,1,,,,,,0
1458,7011801033115,登記記録の閉鎖等,0,2024-08-27,2024-08-23,Ｏｆｆｉｃｅ３５８株式会社,,株式会社,東京都,葛飾区,新小岩３丁目７番１２号,,13,122,1240024,,,2024-08-23,清算の結了等,,,2017-04-06,1,,,,,,0
1462,7012401023547,登記記録の閉鎖等,0,2024-08-27,2024-08-23,Ｔ＆Ｓレジデンスサービス株式会社,,株式会社,東京都,府中市,是政１丁目２４番地の１１,,13,206,1830014,,,2024-08-23,清算の結了等,,,2015-10-05,1,,,,,ティーアンドエスレジデンスサービス,0
1465,7012701016283,登記記録の閉鎖等,0,2024-08-27,2024-08-15,品川総合サービス株式会社,,株式会社,東京都,品川区,西品川２丁目８番９号,,13,109,1410033,,,2024-08-15,清算の結了等,,,2021-01-26,1,,,,,シナガワソウゴウ,0
1467,7013201006345,登記記録の閉鎖等,0,2024-08-27,2024-08-05,株式会社リードマンユニバース,,株式会社,東京都,目黒区,中目黒１丁目４番２０ー４０３号,,13,110,1530061,,,2024-08-05,清算の結了等,,,2015-10-05,1,,,,,リードマンユニバース,0
1473,7020001137411,登記記録の閉鎖等,0,2024-08-27,2024-08-26,株式会社Ｐｌａｇｅ,,株式会社,神奈川県,座間市,相模が丘１丁目２７番１０号シャンボール相模原５０３,,14,216,2520001,,,2024-08-26,清算の結了等,,,2020-08-27,1,,,,,プラージュ,0
1480,7020003013981,登記記録の閉鎖等,0,2024-08-27,2024-08-02,合同会社ＡＪ,,合同会社,神奈川県,川崎市川崎区,東田町３番地５プリムローズ東田館２階,,14,131,2100005,,,2024-08-02,清算の結了等,,,2018-02-20,1,,,,,エージェー,0
1485,7021002010012,登記記録の閉鎖等,0,2024-08-27,2024-08-23,有限会社アイドマ湘南,,有限会社,神奈川県,茅ヶ崎市,本村５丁目１９番１３号,,14,207,2530042,,,2024-08-23,清算の結了等,,,2015-10-05,1,,,,,アイドマショウナン,0
1489,7030001115820,登記記録の閉鎖等,0,2024-08-27,2024-08-23,株式会社Ｙａｓｕｄａ,,株式会社,埼玉県,熊谷市,赤城町１丁目５２番地７パークハイツ１０１,,11,202,3600826,,,2024-08-23,合併による解散等,5011001047306,令和６年８月１日東京都練馬区早宮一丁目３番３号１Ｆ株式会社ｙａｓｕｄａ（5011001047306）に合併し解散,2016-08-09,1,,,,,ヤスダ,0
1490,7030001124912,登記記録の閉鎖等,0,2024-08-27,2024-08-23,Ａｃｃｅｓｓ・Ａｓｉａ・Ｊａｐａｎ＆Ｍａｔｓｕｏ株式会社,,株式会社,埼玉県,さいたま市南区,南本町１丁目８番５号１００５,,11,108,3360018,,,2024-08-23,清算の結了等,,,2018-03-28,1,,,,,アクセスアジアジャパンアンドマツオ,0
1497,7030003018550,登記記録の閉鎖等,0,2024-08-27,2024-08-23,合同会社ＳＹＣ,,合同会社,埼玉県,朝霞市,浜崎３丁目９番３１号,,11,227,3510033,,,2024-08-23,清算の結了等,,,2021-12-24,1,,,,,エスワイシー,0
1500,7040001049893,登記記録の閉鎖等,0,2024-08-27,2024-08-13,株式会社住忠貿易物流,,株式会社,千葉県,木更津市,本郷１丁目８番２５号,,12,206,2920015,,,2024-08-13,清算の結了等,,,2015-10-05,1,,,,,,0
1507,7040003018327,登記記録の閉鎖等,0,2024-08-27,2024-08-13,合同会社ＩＲＥ,,合同会社,千葉県,旭市,ハの２０４番地３,,12,215,2892521,,,2024-08-13,清算の結了等,,,2021-08-13,1,,,,,アイアールイー,0
1537,7120101036395,登記記録の閉鎖等,0,2024-08-27,2024-08-26,株式会社葛城防水,,株式会社,大阪府,貝塚市,脇浜３丁目２０番１２号,,27,208,5970073,,,2024-08-26,清算の結了等,,,2015-10-05,1,,,,,,0
1545,7130002030918,登記記録の閉鎖等,0,2024-08-27,2024-08-23,有限会社今村芳翠園本舗,,有限会社,京都府,京田辺市,河原神谷３番地,,26,211,6100361,,,2024-08-23,清算の結了等,,,2015-10-05,1,,,,,イマムラホウスイエンホンポ,0
1547,7140001054512,登記記録の閉鎖等,0,2024-08-27,2024-08-23,株式会社ＮＴ総合管理,,株式会社,兵庫県,尼崎市,東園田町４丁目２６番地の６,,28,202,6610953,,,2024-08-23,清算の結了等,,,2015-10-05,1,,,,,エヌティソウゴウカンリ,0
1571,7180003010063,登記記録の閉鎖等,0,2024-08-27,2024-08-20,合資会社チタケン,,合資会社,愛知県,春日井市,知多町２丁目３番地,,23,206,4860947,,,2024-08-20,清算の結了等,,,2015-10-05,1,,,,,チタケン,0
1578,7220001016883,登記記録の閉鎖等,0,2024-08-27,2024-08-19,一宮エンブ株式会社,,株式会社,石川県,珠洲市,上戸町南方テ字１番地の１,,17,205,9271217,,,2024-08-19,清算の結了等,,,2015-10-05,1,,,,,,0
1602,7310001013351,登記記録の閉鎖等,0,2024-08-27,2024-08-19,株式会社たかくら,,株式会社,長崎県,東彼杵郡波佐見町,長野郷３９８番地１,,42,323,8593725,,,2024-08-19,清算の結了等,,,2015-10-05,1,,,,,タカクラ,0
1603,7320005009007,登記記録の閉鎖等,0,2024-08-27,2024-08-26,ＮＰＯ法人日本ココロセラピー研究所,,その他の設立登記法人,大分県,大分市,大字荏隈１６９９番３ロイヤルグリーンハイツ３０１,,44,201,8700889,,,2024-08-26,清算の結了等,,,2015-10-05,1,,,,,,0
1612,7350005005829,登記記録の閉鎖等,0,2024-08-27,2024-08-22,特定非営利活動法人たすけあい蓮,,その他の設立登記法人,宮崎県,児湯郡新富町,富田北２丁目１２番地,,45,402,8891415,,,2024-08-22,清算の結了等,,,2019-03-05,1,,,,,タスケアイレン,0
1615,7370001004510,登記記録の閉鎖等,0,2024-08-27,2024-08-09,仙台マル住水産株式会社,,株式会社,宮城県,仙台市若林区,卸町４丁目３番地の１,,04,103,9840015,,,2024-08-09,清算の結了等,,,2015-10-05,1,,,,,センダイマルズミスイサン,0
1628,7470005003465,登記記録の閉鎖等,0,2024-08-27,2024-08-21,坂出港町商店街振興組合,,その他の設立登記法人,香川県,坂出市,元町２丁目６番１３号,,37,203,7620045,,,2024-08-21,清算の結了等,,,2015-10-05,1,,,,,サカイデミナトマチショウテンガイ,0
1641,8010003029937,登記記録の閉鎖等,0,2024-08-27,2024-08-16,ＭＪロジスティクスホールディング合同会社,,合同会社,東京都,千代田区,丸の内３丁目１番１号東京共同会計事務所内,,13,101,1000005,,,2024-08-16,清算の結了等,,,2019-05-31,1,,,,,エムジェイロジスティクスホールディング,0
1645,8010005022659,登記記録の閉鎖等,0,2024-08-27,2024-08-15,Ｔｅｍｐｕｓ　Ｐｌａｔｉｎｕｍ　Ｉｎｖｅｓｔｍｅｎｔｓ特定目的会社,,その他の設立登記法人,東京都,中央区,銀座１丁目６番１１号土志田ビルディング３Ｆ,,13,102,1040061,,,2024-08-15,清算の結了等,,,2015-10-05,1,,,,,テンパスプラチナインベストメンツ,0
1649,8010401120652,登記記録の閉鎖等,0,2024-08-27,2024-08-05,株式会社ドモ・ドモ,,株式会社,東京都,港区,赤坂７丁目３番３７－１０７号,,13,103,1070052,,,2024-08-05,清算の結了等,,,2015-10-05,1,,,,,ドモドモ,0
1664,8010602012483,登記記録の閉鎖等,0,2024-08-27,2024-08-23,有限会社東京金属,,有限会社,東京都,墨田区,八広４丁目４０番３号,,13,107,1310041,,,2024-08-23,清算の結了等,,,2015-10-05,1,,,,,トウキョウキンゾク,0
1665,8010602029882,登記記録の閉鎖等,0,2024-08-27,2024-08-26,有限会社宝鮮,,有限会社,東京都,江東区,枝川２丁目６番１５号,,13,108,1350051,,,2024-08-26,清算の結了等,,,2015-10-05,1,,,,,ホウセン,0
1679,8011001052971,登記記録の閉鎖等,0,2024-08-27,2024-08-05,株式会社ニキータ,,株式会社,東京都,目黒区,東山３丁目９番２号,,13,110,1530043,,,2024-08-05,清算の結了等,,,2015-10-05,1,,,,,ニキータ,0
1682,8011001148571,登記記録の閉鎖等,0,2024-08-27,2024-08-21,ブルー・モードジャパン株式会社,,株式会社,東京都,渋谷区,道玄坂１丁目１０番８号渋谷道玄坂東急ビル２Ｆ－Ｃ,,13,113,1500043,,,2024-08-21,清算の結了等,,,2022-07-12,1,,,,,ブルーモードジャパン,0
1691,8011201011439,登記記録の閉鎖等,0,2024-08-27,2024-08-26,株式会社エンジェルハート,,株式会社,東京都,中野区,上高田３丁目３８番５号,,13,114,1640002,,,2024-08-26,清算の結了等,,,2015-10-05,1,,,,,エンジェルハート,0
1697,8011701015055,登記記録の閉鎖等,0,2024-08-27,2024-08-19,フォレスト株式会社,,株式会社,東京都,江戸川区,一之江４丁目１０番９号,,13,123,1320024,,,2024-08-19,清算の結了等,,,2015-10-05,1,,,,,フォレスト,0
1699,8011703003339,登記記録の閉鎖等,0,2024-08-27,2024-08-22,龍鳴タクティカル合同会社,,合同会社,東京都,江戸川区,北小岩６丁目１１－２エールプラザ京成小岩Ｂ１０２,,13,123,1330051,,,2024-08-22,清算の結了等,,,2023-01-10,1,,,,,リュウメイタクティカル,0
1707,8020001125209,登記記録の閉鎖等,0,2024-08-27,2024-08-02,株式会社ひまわり旅行,,株式会社,神奈川県,川崎市高津区,二子６丁目１２番５－１０７号,,14,134,2130002,,,2024-08-02,清算の結了等,,,2018-02-27,1,,,,,ヒマワリリョコウ,0
1715,8020002073737,登記記録の閉鎖等,0,2024-08-27,2024-08-07,有限会社明良建設,,有限会社,神奈川県,横浜市戸塚区,南舞岡４丁目２９番２５号,,14,110,2440814,,,2024-08-07,清算の結了等,,,2015-10-05,1,,,,,アキヨシケンセツ,0
1716,8020003021348,登記記録の閉鎖等,0,2024-08-27,2024-08-02,丹羽エンジニアリングコンサルタンシー合同会社,,合同会社,神奈川県,横浜市港北区,仲手原２丁目１７番４３号,,14,109,2220023,,,2024-08-02,清算の結了等,,,2022-02-28,1,,,,,ニワエンジニアリングコンサルタンシー,0
1719,8021001063209,登記記録の閉鎖等,0,2024-08-27,2024-08-26,株式会社フィール,,株式会社,神奈川県,平塚市,明石町１６番７－３０１号シーズガーデン湘南平塚,,14,203,2540042,,,2024-08-26,清算の結了等,,,2017-10-04,1,,,,,フィール,0
1721,8021001074065,登記記録の閉鎖等,0,2024-08-27,2024-08-26,株式会社Ｕｔｏｐｉａ,,株式会社,神奈川県,秦野市,尾尻３３８番地の１３,,14,211,2570011,,,2024-08-26,清算の結了等,,,2021-09-30,1,,,,,ユートピア,0
1728,8021005003301,登記記録の閉鎖等,0,2024-08-27,2024-08-23,特定非営利活動法人竹の子作業所,,その他の設立登記法人,神奈川県,相模原市緑区,中野１００４番地３,,14,151,2520157,,,2024-08-23,清算の結了等,,,2015-10-05,1,,,,,タケノコサギョウショ,0
1729,8030001067648,登記記録の閉鎖等,0,2024-08-27,2024-08-22,株式会社ウィーズＴ,,株式会社,埼玉県,北葛飾郡松伏町,大字築比地７９５番地１,,11,465,3430102,,,2024-08-22,合併による解散等,6030001066965,令和６年８月１日埼玉県北葛飾郡松伏町築比地７９５番地１株式会社ウィーズ（6030001066965）に合併し解散,2015-10-05,1,,,,,ウィーズティー,0
1738,8030001151724,登記記録の閉鎖等,0,2024-08-27,2024-08-23,有園株式会社,,株式会社,埼玉県,蕨市,塚越２丁目１４番１２－１０５号,,11,223,3350002,,,2024-08-23,清算の結了等,,,2023-01-10,1,,,,,アリゾノ,0
1740,8030002120439,登記記録の閉鎖等,0,2024-08-27,2024-08-22,有限会社ヘアーブティックチハル,,有限会社,埼玉県,日高市,大字原宿３６５番地１０,,11,242,3501205,,,2024-08-22,清算の結了等,,,2015-10-05,1,,,,,ヘアーブティックチハル,0
1749,8040002060378,登記記録の閉鎖等,0,2024-08-27,2024-08-13,有限会社エムアンドエー,,有限会社,千葉県,佐倉市,白銀２丁目１７番地１４,,12,212,2850045,,,2024-08-13,清算の結了等,,,2015-10-05,1,,,,,エムアンドエー,0
1759,8070001013169,登記記録の閉鎖等,0,2024-08-27,2024-08-23,太田測範株式会社,,株式会社,群馬県,伊勢崎市,境伊与久１９２９番地,,10,204,3700105,,,2024-08-23,清算の結了等,,,2015-10-05,1,,,,,オオタソクハン,0
1764,8080101020064,登記記録の閉鎖等,0,2024-08-27,2024-08-15,株式会社カワグチ,,株式会社,静岡県,三島市,大場２４１番地の１,,22,206,4110803,,,2024-08-15,清算の結了等,,,2017-09-14,1,,,,,カワグチ,0
1767,8080102003670,登記記録の閉鎖等,0,2024-08-27,2024-08-21,有限会社ヤマ重,,有限会社,静岡県,沼津市,下香貫塩満１５８２番地,,22,203,4100822,,,2024-08-21,清算の結了等,,,2015-10-05,1,,,,,ヤマシゲ,0
1791,8120003020100,登記記録の閉鎖等,0,2024-08-27,2024-08-26,ＮＫカスタマーマーケティング合同会社,,合同会社,大阪府,大阪市中央区,南船場３丁目２－２８ＮＩＰＰＯタイヨービル５１１号,,27,128,5420081,,,2024-08-26,清算の結了等,,,2021-08-31,1,,,,,エヌケイカスタマーマーケティング,0
1792,8120003025891,登記記録の閉鎖等,0,2024-08-27,2024-08-26,合同会社Ｓｉｅｎサービス,,合同会社,大阪府,大阪市中央区,南船場３丁目２番２２号おおきに南船場ビル２０５,,27,128,5420081,,,2024-08-26,清算の結了等,,,2024-02-07,1,,,,,シエンサービス,0
1800,8122001030287,登記記録の閉鎖等,0,2024-08-27,2024-08-26,サカタ工業株式会社,,株式会社,大阪府,八尾市,上之島町北４丁目３番地,,27,212,5810845,,,2024-08-26,清算の結了等,,,2017-01-31,1,,,,,サカタコウギョウ,0
1803,8130002014572,登記記録の閉鎖等,0,2024-08-27,2024-08-26,有限会社西野シール,,有限会社,京都府,京都市伏見区,毛利町１１０番地,,26,109,6128373,,,2024-08-26,清算の結了等,,,2015-10-05,1,,,,,ニシノシール,0
1808,8140001085639,登記記録の閉鎖等,0,2024-08-27,2024-08-21,株式会社大正屋,,株式会社,兵庫県,南あわじ市,松帆古津路１００６番地３,,28,224,6560304,,,2024-08-21,清算の結了等,,,2015-10-05,1,,,,,タイショウヤ,0
1812,8140002024133,登記記録の閉鎖等,0,2024-08-27,2024-08-19,有限会社Ｔ＆Ｔソルーションズ,,有限会社,愛知県,名古屋市中区,千代田５丁目５番１１号８０１,,23,106,4600012,,,2024-08-19,清算の結了等,,,2015-10-05,1,,,,,ティーアンドティーソルーションズ,0
1813,8140002026591,登記記録の閉鎖等,0,2024-08-27,2024-08-06,有限会社エムアイ・コミュニケーションズ,,有限会社,東京都,港区,芝大門２丁目５番５号,,13,103,1050012,,,2024-08-06,清算の結了等,,,2015-10-05,1,,,,,エムアイコミュニケーションズ,0
1822,8160001017276,登記記録の閉鎖等,0,2024-08-27,2024-08-23,株式会社リンクス,,株式会社,滋賀県,彦根市,平田町８６８番地３,,25,202,5220041,,,2024-08-23,清算の結了等,,,2015-10-05,1,,,,,リンクス,0
1824,8160002010998,登記記録の閉鎖等,0,2024-08-27,2024-08-23,有限会社むら井,,有限会社,滋賀県,蒲生郡竜王町,大字西川２１５番地,,25,384,5202572,,,2024-08-23,清算の結了等,,,2015-10-05,1,,,,,ムライ,0
1830,8180001044459,登記記録の閉鎖等,0,2024-08-27,2024-08-20,中部日広株式会社,,株式会社,愛知県,名古屋市中川区,法華１丁目１８番地の２,,23,110,4540933,,,2024-08-20,清算の結了等,,,2015-10-05,1,,,,,チュウブニッコウ,0
1831,8180001119509,登記記録の閉鎖等,0,2024-08-27,2024-08-20,株式会社長大建設,,株式会社,愛知県,瀬戸市,穴田町５３１番地,,23,204,4890003,,,2024-08-20,清算の結了等,,,2015-10-05,1,,,,,チョウダイケンセツ,0
1832,8180001132313,登記記録の閉鎖等,0,2024-08-27,2024-08-19,株式会社コウゼン,,株式会社,愛知県,名古屋市瑞穂区,彌富通２丁目５番地の１,,23,108,4670064,,,2024-08-19,清算の結了等,,,2018-05-18,1,,,,,コウゼン,0
1837,8180003017438,登記記録の閉鎖等,0,2024-08-27,2024-08-21,颯電通システム合同会社,,合同会社,愛知県,瀬戸市,苗場町１５０番地パークシティ新瀬戸二番街１４０５,,23,204,4890983,,,2024-08-21,清算の結了等,,,2016-10-17,1,,,,,ハヤテデンツウシステム,0
1839,8190001021606,登記記録の閉鎖等,0,2024-08-27,2024-08-23,株式会社キャストリンクス,,株式会社,三重県,伊勢市,浦口３丁目４番４０号,,24,203,5160062,,,2024-08-23,清算の結了等,,,2015-10-05,1,,,,,キャストリンクス,0
1852,8240002004975,登記記録の閉鎖等,0,2024-08-27,2024-08-26,國光有限会社,,有限会社,広島県,広島市中区,宝町８番２７号,,34,101,7300044,,,2024-08-26,清算の結了等,,,2015-10-05,1,,,,,クニミツ,0
1855,8250002016788,登記記録の閉鎖等,0,2024-08-27,2024-08-22,有限会社藤友電材,,有限会社,山口県,周南市,川崎２丁目１４番１２号,,35,215,7460001,,,2024-08-22,清算の結了等,,,2015-10-05,1,,,,,トウユウデンザイ,0
1866,8310001005315,登記記録の閉鎖等,0,2024-08-27,2024-08-23,株式会社協和熱工業,,株式会社,長崎県,佐世保市,山祇町８番２号,,42,202,8570822,,,2024-08-23,清算の結了等,,,2015-10-05,1,,,,,キョウワネツコウギョウ,0
1867,8340001012795,登記記録の閉鎖等,0,2024-08-27,2024-08-26,株式会社川辺コンクリート,,株式会社,鹿児島県,南九州市,川辺町野間１５２６番地,,46,223,8970205,,,2024-08-26,清算の結了等,,,2015-10-05,1,,,,,カワナベコンクリート,0
1885,8450001012677,登記記録の閉鎖等,0,2024-08-27,2024-08-23,株式会社テクノサーブ,,株式会社,北海道,旭川市,永山九条８丁目４番２４号,,01,204,0798419,,,2024-08-23,清算の結了等,,,2019-03-18,1,,,,,テクノサーブ,0
1893,9010003035439,登記記録の閉鎖等,0,2024-08-27,2024-08-14,ＧＰＤにちりん合同会社,,合同会社,東京都,千代田区,一ツ橋２丁目５番５号,,13,101,1010003,,,2024-08-14,清算の結了等,,,2021-08-02,1,,,,,ジーピーディーニチリン,0
1906,9010405019122,登記記録の閉鎖等,0,2024-08-27,2024-08-06,椿一般社団法人,,その他の設立登記法人,東京都,港区,西新橋１丁目１番１号ＥＰコンサルティングサービス内,,13,103,1050003,,,2024-08-06,清算の結了等,,,2020-09-23,1,,,,,ツバキ,0
1913,9010701025055,登記記録の閉鎖等,0,2024-08-27,2024-08-16,株式会社ＭＢコミュニケーションズ,,株式会社,東京都,品川区,上大崎４丁目５番３７号,,13,109,1410021,,,2024-08-16,清算の結了等,,,2015-10-05,1,,,,,エムビーコミュニケーションズ,0
1914,9010701042884,登記記録の閉鎖等,0,2024-08-27,2024-08-15,華創株式会社,,株式会社,東京都,品川区,西五反田２丁目１１番１５－６０３室,,13,109,1410031,,,2024-08-15,清算の結了等,,,2022-07-05,1,,,,,カソウ,0
1916,9010702009230,登記記録の閉鎖等,0,2024-08-27,2024-08-14,有限会社谷口設備工業,,有限会社,東京都,品川区,南大井６丁目２番１６号,,13,109,1400013,,,2024-08-14,清算の結了等,,,2015-10-05,1,,,,,タニグチセツビコウギョウ,0
1939,9011502013265,登記記録の閉鎖等,0,2024-08-27,2024-08-22,有限会社水野ウレタン,,有限会社,東京都,北区,滝野川１丁目４８番８－３０１号,,13,117,1140023,,,2024-08-22,清算の結了等,,,2015-10-05,1,,,,,ミズノウレタン,0
1941,9011701013405,登記記録の閉鎖等,0,2024-08-27,2024-08-22,株式会社昭栄製作所,,株式会社,東京都,江戸川区,大杉１丁目１６番２１号,,13,123,1320022,,,2024-08-22,清算の結了等,,,2015-10-05,1,,,,,ショウエイセイサクショ,0
1946,9013301009320,登記記録の閉鎖等,0,2024-08-27,2024-08-23,日本フアーストフード株式会社,,株式会社,埼玉県,さいたま市南区,辻５丁目６番１２－３０８号,00132932,11,108,3360026,,,2024-08-23,清算の結了等,,,2015-10-05,1,,,,,ニホンファーストフード,0
1953,9020001084957,登記記録の閉鎖等,0,2024-08-27,2024-08-02,株式会社トーヨコ地所,,株式会社,神奈川県,川崎市幸区,新川崎５番１－６０１号,,14,132,2120032,,,2024-08-02,清算の結了等,,,2015-10-05,1,,,,,トーヨコヂショ,0
1968,9020002009194,登記記録の閉鎖等,0,2024-08-27,2024-08-02,有限会社和真,,有限会社,神奈川県,横浜市金沢区,泥亀１丁目１７番２０－３０２号,,14,108,2360021,,,2024-08-02,清算の結了等,,,2024-03-06,1,,,,,,0
1984,9040002051194,登記記録の閉鎖等,0,2024-08-27,2024-08-13,有限会社エムアンドエム,,有限会社,千葉県,流山市,野々下６丁目１００５番地の５２,,12,220,2700135,,,2024-08-13,清算の結了等,,,2015-10-05,1,,,,,エムアンドエム,0
1991,9060001034652,登記記録の閉鎖等,0,2024-08-27,2024-08-16,株式会社ＫＭコーポレーション,,株式会社,栃木県,河内郡上三川町,大字磯岡４２１番地１,,09,301,3290606,,,2024-08-16,清算の結了等,,,2022-03-11,1,,,,,ケーエムコーポレーション,0
1996,9080002016945,登記記録の閉鎖等,0,2024-08-27,2024-08-21,有限会社Ｅ・Ｔ・Ｎ,,有限会社,静岡県,焼津市,八楠３丁目７番地の２０,,22,212,4250091,,,2024-08-21,清算の結了等,,,2015-10-05,1,,,,,イーティーエヌ,0
2018,9120101054899,登記記録の閉鎖等,0,2024-08-27,2024-08-23,株式会社ＭＡＮＡ,,株式会社,大阪府,堺市北区,中百舌鳥町２丁５７番地,,27,146,5918023,,,2024-08-23,清算の結了等,,,2016-06-09,1,,,,,マナ,0
2022,9130001040684,登記記録の閉鎖等,0,2024-08-27,2024-08-22,株式会社石井商店,,株式会社,京都府,与謝郡与謝野町,字加悦６５１番地２,,26,465,6292403,,,2024-08-22,清算の結了等,,,2015-10-05,1,,,,,,0
2031,9140005004065,登記記録の閉鎖等,0,2024-08-27,2024-08-26,特定非営利活動法人わんぱく坊主,,その他の設立登記法人,兵庫県,芦屋市,翠ケ丘町１９番８－１０１号,,28,206,6590014,,,2024-08-26,清算の結了等,,,2015-10-05,1,,,,,ワンパクボウズ,0
2041,9180001094593,登記記録の閉鎖等,0,2024-08-27,2024-08-19,株式会社八幡屋,,株式会社,愛知県,東海市,高横須賀町町新田３１番地の５,,23,222,4770037,,,2024-08-19,清算の結了等,,,2015-10-05,1,,,,,ヤハタヤ,0
2057,9210002000951,登記記録の閉鎖等,0,2024-08-27,2024-08-26,有限会社金谷瓦工業所,,有限会社,福井県,福井市,舞屋町第１５号１０１番地,,18,201,9188024,,,2024-08-26,清算の結了等,,,2015-10-05,1,,,,,カナヤカワラコウギョウショ,0
2058,9210002002329,登記記録の閉鎖等,0,2024-08-27,2024-08-26,有限会社土信商店,,有限会社,福井県,福井市,宝永３丁目５番３号,,18,201,9100004,,,2024-08-26,清算の結了等,,,2015-10-05,1,,,,,ツチノブショウテン,0
2059,9230001005322,登記記録の閉鎖等,0,2024-08-27,2024-08-23,株式会社中部総研,,株式会社,富山県,富山市,八尾町杉田６７９番地の１,,16,201,9392302,,,2024-08-23,合併による解散等,9230001005330,令和６年８月２３日富山市八尾町新田３９１番地株式会社富山技研（9230001005330）に合併し解散,2015-10-05,1,,,,,チュウブソウケン,0
2081,9310001009050,登記記録の閉鎖等,0,2024-08-27,2024-08-20,株式会社ＳＡＩＧＯＮ,,株式会社,長崎県,東彼杵郡東彼杵町,菅無田郷二ノ瀬東平３０５番,,42,321,8593803,,,2024-08-20,清算の結了等,,,2015-10-05,1,,,,,,0
2084,9340003000731,登記記録の閉鎖等,0,2024-08-27,2024-08-22,合名会社大久保水産,,合名会社,鹿児島県,いちき串木野市,新生町３５番地,,46,219,8960035,,,2024-08-22,清算の結了等,,,2015-10-05,1,,,,,オオクボスイサン,0
2088,9370105001526,登記記録の閉鎖等,0,2024-08-27,2024-08-07,医療法人ふなばさま医院,,その他の設立登記法人,宮城県,柴田郡柴田町,大字本船迫字上町２６番地の３２,,04,323,9891621,,,2024-08-07,清算の結了等,,,2015-10-05,1,,,,,フナバサマイイン,0
