sequenceNumber,corporateNumber,process,correct,updateDate,changeDate,name,nameImageId,kind,prefectureName,cityName,streetNumber,addressImageId,prefectureCode,cityCode,postCode,addressOutside,addressOutsideImageId,closeDate,closeCause,successorCorporateNumber,changeCause,assignmentDate,latest,enName,enPrefectureName,enCityName,enAddressOutside,furigana,hihyoji
10,1010001225577,新規,0,2022-04-06,2022-04-06,株式会社長谷川,,株式会社,東京都,千代田区,大手町２丁目１番１号,,13,101,1000004,,,,,,,2022-04-06,1,,,,,ハセガワ,0
11,1010001225635,新規,0,2022-04-06,2022-04-06,みさきフェデレーション株式会社,,株式会社,東京都,千代田区,二番町８番地１,,13,101,1020084,,,,,,,2022-04-06,1,,,,,ミサキフェデレーション,0
21,1010103001892,新規,0,2022-04-06,2022-04-06,Ｐｅａｃｅｆｕｌ　Ｐｈａｒｍａｃｙ合同会社,,合同会社,東京都,八王子市,横川町８０３番地５,,13,201,1930823,,,,,,,2022-04-06,1,,,,,ピースフルファーマシー,0
25,1010401166504,新規,0,2022-04-06,2022-04-06,株式会社ｍｉｕｅｘ,,株式会社,東京都,港区,港南４丁目６番８－３１０５号,,13,103,1080075,,,,,,,2022-04-06,1,,,,,ミュー,0
27,1010405020905,新規,0,2022-04-06,2022-04-06,ＲＢソーラーウェーブホールディングス一般社団法人,,その他の設立登記法人,東京都,港区,虎ノ門３丁目２２番１０－２０１号,,13,103,1050001,,,,,,,2022-04-06,1,,,,,アールビーソーラーウェーブホールディングス,0
31,1010601060903,新規,0,2022-04-06,2022-04-06,Ａｐｐｅｔｉｔｅ　Ｓｙｓｔｅｍｓ株式会社,,株式会社,東京都,江東区,亀戸４丁目２６番３号,,13,108,1360071,,,,,,,2022-04-06,1,,,,,アッペティートシステムズ,0
32,1010601060944,新規,0,2022-04-06,2022-04-06,アクシス運送株式会社,,株式会社,東京都,墨田区,太平１丁目３１番２－３０４号,,13,107,1300012,,,,,,,2022-04-06,1,,,,,アクシスウンソウ,0
40,1010701042479,新規,0,2022-04-06,2022-04-06,株式会社リウェル,,株式会社,東京都,品川区,大崎２丁目１番１号ＴｈｉｎｋＰａｒｋＴｏｗｅｒ５階,,13,109,1410032,,,,,,,2022-04-06,1,,,,,リウェル,0
43,1010801032850,新規,0,2022-04-06,2022-04-06,卓太株式会社,,株式会社,東京都,大田区,矢口１丁目１６－１９コスモビルＩＩ３１１,00126158,13,111,1460093,,,,,,,2022-04-06,1,,,,,タクタ,0
44,1010801032859,新規,0,2022-04-06,2022-04-06,株式会社Ｍ＆Ｌｉｆｅ,,株式会社,東京都,大田区,東蒲田２丁目１７番３号１Ｆ,,13,111,1440031,,,,,,,2022-04-06,1,,,,,エムアンドライフ,0
45,1010803004121,新規,0,2022-04-06,2022-04-06,そめもよう合同会社,,合同会社,東京都,大田区,中馬込２丁目５－１０,,13,111,1430027,,,,,,,2022-04-06,1,,,,,ソメモヨウ,0
48,1010903007288,新規,0,2022-04-06,2022-04-06,合同会社Ｋブレイン,,合同会社,東京都,世田谷区,喜多見８丁目２２－７,,13,112,1570067,,,,,,,2022-04-06,1,,,,,ケイブレイン,0
54,1011001146680,新規,0,2022-04-06,2022-04-06,株式会社ＦＡＮ　ＣＲＥＡＴＩＯＮ,,株式会社,東京都,渋谷区,道玄坂１丁目２番３号渋谷フクラス１７Ｆ,,13,113,1500043,,,,,,,2022-04-06,1,,,,,ファンクリエーション,0
55,1011001146689,新規,0,2022-04-06,2022-04-06,株式会社豪真,,株式会社,東京都,渋谷区,円山町５番４号フィールＡ渋谷２１０,,13,113,1500044,,,,,,,2022-04-06,1,,,,,ゴウシン,0
56,1011001146697,新規,0,2022-04-06,2022-04-06,株式会社エタニティー,,株式会社,東京都,渋谷区,広尾４丁目１番２５号,,13,113,1500012,,,,,,,2022-04-06,1,,,,,エタニティー,0
57,1011001146755,新規,0,2022-04-06,2022-04-06,株式会社クロノセールスゲート,,株式会社,東京都,渋谷区,神宮前５丁目５２番２号,,13,113,1500001,,,,,,,2022-04-06,1,,,,,クロノセールスゲート,0
58,1011001146796,新規,0,2022-04-06,2022-04-06,ＧＭＯビジネスサポート株式会社,,株式会社,東京都,渋谷区,道玄坂１丁目２番３号,,13,113,1500043,,,,,,,2022-04-06,1,,,,,ジーエムオービジネスサポート,0
67,1011101098401,新規,0,2022-04-06,2022-04-06,ＬＩＮＥ　ＷＥＢＴＯＯＮ　ＳＴＵＤＩＯ株式会社,,株式会社,東京都,新宿区,四谷１丁目６番１号,,13,104,1600004,,,,,,,2022-04-06,1,,,,,ラインウェブトゥーンスタジオ,0
68,1011103011642,新規,0,2022-04-06,2022-04-06,ＴＨＩＳＷＡＹ合同会社,,合同会社,東京都,新宿区,西新宿３丁目３番１３号西新宿水間ビル６階,,13,104,1600023,,,,,,,2022-04-06,1,,,,,ディスウェイ,0
72,1011403003620,新規,0,2022-04-06,2022-04-06,合同会社パーセルエクスプレス,,合同会社,東京都,板橋区,赤塚４丁目３番１５号グランディール赤塚１０３,00126161,13,119,1750092,,,,,,,2022-04-06,1,,,,,パーセルエクスプレス,0
75,1011503005120,新規,0,2022-04-06,2022-04-06,合同会社ＹＥＮ　ＤＯＬＬＡＲ　ＥＵＲ,,合同会社,東京都,荒川区,西日暮里２丁目９－１０,,13,118,1160013,,,,,,,2022-04-06,1,,,,,エンドルユーロ,0
76,1011503005129,新規,0,2022-04-06,2022-04-06,合同会社０．５,,合同会社,東京都,荒川区,東日暮里４丁目３５番１１－２０３号,,13,118,1160014,,,,,,,2022-04-06,1,,,,,レイテンゴ,0
85,1012401039037,新規,0,2022-04-06,2022-04-06,株式会社リアンクール,,株式会社,東京都,稲城市,若葉台２丁目１番地の１ロイヤルパークス若葉台２１３,,13,225,2060824,,,,,,,2022-04-06,1,,,,,リアンクール,0
86,1012803002749,新規,0,2022-04-06,2022-04-06,合同会社ＬａｚｙＢｚ,,合同会社,東京都,立川市,錦町１丁目４番４号サニービル２階,,13,202,1900022,,,,,,,2022-04-06,1,,,,,レイジービズ,0
91,1020001145923,新規,0,2022-04-06,2022-04-06,テクノＲＣ株式会社,,株式会社,神奈川県,川崎市麻生区,片平６丁目３番２２号,,14,137,2150023,,,,,,,2022-04-06,1,,,,,テクノアールシー,0
92,1020001145931,新規,0,2022-04-06,2022-04-06,株式会社大和住建,,株式会社,神奈川県,横浜市港北区,新横浜１丁目１４番地２０－４０５号,,14,109,2220033,,,,,,,2022-04-06,1,,,,,ヤマトジュウケン,0
93,1020001145948,新規,0,2022-04-06,2022-04-06,株式会社Ｈ・Ｇ　Ｒｅａｌｉｚｅ,,株式会社,神奈川県,川崎市中原区,新城１０１５－３Ｆ,,14,133,2110044,,,,,,,2022-04-06,1,,,,,エイチジーリアライズ,0
94,1020001145964,新規,0,2022-04-06,2022-04-06,株式会社Ｄｒａｇｏｎ　Ｃｌａｎ,,株式会社,神奈川県,横浜市都筑区,荏田南１丁目１９番７号,,14,118,2240007,,,,,,,2022-04-06,1,,,,,ドラゴンクラン,0
95,1020001145972,新規,0,2022-04-06,2022-04-06,ホームテックパートナー株式会社,,株式会社,神奈川県,横浜市神奈川区,鶴屋町２丁目２１番地９,,14,102,2210835,,,,,,,2022-04-06,1,,,,,ホームテックパートナー,0
96,1020001145980,新規,0,2022-04-06,2022-04-06,株式会社グランワークス,,株式会社,神奈川県,横浜市神奈川区,栄町５番地１,,14,102,2210052,,,,,,,2022-04-06,1,,,,,グランワークス,0
97,1020001146005,新規,0,2022-04-06,2022-04-06,観蓮雲株式会社,,株式会社,神奈川県,横浜市中区,山下町８７番地１クリオレミントンハウス山下公園６０７号室,,14,104,2310023,,,,,,,2022-04-06,1,,,,,カンレンウン,0
99,1020003021536,新規,0,2022-04-06,2022-04-06,合同会社コンポステーラ,,合同会社,神奈川県,横浜市金沢区,能見台３丁目５１番地１ふれあいの街Ｄ棟８０６号,,14,108,2360057,,,,,,,2022-04-06,1,,,,,コンポステーラ,0
101,1020005015461,新規,0,2022-04-06,2022-04-06,学校法人星槎,,その他の設立登記法人,神奈川県,横浜市旭区,若葉台４丁目３５番１,,14,112,2410801,,,,,,,2022-04-06,1,,,,,セイサ,0
103,1021001075607,新規,0,2022-04-06,2022-04-06,株式会社ケーティープロモーション,,株式会社,神奈川県,小田原市,飯泉７番地の１－１０１,,14,206,2500863,,,,,,,2022-04-06,1,,,,,ケーティープロモーション,0
104,1021001075615,新規,0,2022-04-06,2022-04-06,株式会社惣助,,株式会社,神奈川県,高座郡寒川町,岡田４丁目６番３２号,,14,321,2530105,,,,,,,2022-04-06,1,,,,,ソウスケ,0
105,1021001075623,新規,0,2022-04-06,2022-04-06,Ｎ‐ＢＡＳＥ株式会社,,株式会社,神奈川県,綾瀬市,小園１３番地４,,14,218,2521121,,,,,,,2022-04-06,1,,,,,エヌベース,0
106,1021001075631,新規,0,2022-04-06,2022-04-06,株式会社農楽,,株式会社,神奈川県,愛甲郡愛川町,角田３００１番地の１,,14,401,2430301,,,,,,,2022-04-06,1,,,,,ノーラ,0
109,1021005012481,新規,0,2022-04-06,2022-04-06,一般社団法人日本仏教文化研究所,,その他の設立登記法人,神奈川県,大和市,西鶴間１丁目６－１２,,14,213,2420005,,,,,,,2022-04-06,1,,,,,ニホンブッキョウブンカケンキュウジョ,0
111,1030001147530,新規,0,2022-04-06,2022-04-06,株式会社ＭＯＮＴＥ　ＡＶＥＮＩＲ,,株式会社,埼玉県,東松山市,大字岩殿５４番地１,,11,212,3550065,,,,,,,2022-04-06,1,,,,,モンテアヴニール,0
112,1030001147547,新規,0,2022-04-06,2022-04-06,株式会社ケニーインターナショナル,,株式会社,埼玉県,久喜市,中妻４０３番地２,,11,232,3400213,,,,,,,2022-04-06,1,,,,,ケニーインターナショナル,0
113,1030001147563,新規,0,2022-04-06,2022-04-06,株式会社ＪＯＬ,,株式会社,埼玉県,東松山市,大字松山２３１５番地９,,11,212,3550005,,,,,,,2022-04-06,1,,,,,ジェイオーエル,0
114,1030001147605,新規,0,2022-04-06,2022-04-06,株式会社モトホリック,,株式会社,埼玉県,さいたま市中央区,上峰３丁目１１番１７号,,11,105,3380014,,,,,,,2022-04-06,1,,,,,モトホリック,0
115,1030001147613,新規,0,2022-04-06,2022-04-06,張工業株式会社,,株式会社,埼玉県,深谷市,宿根６４２番地１,,11,218,3660810,,,,,,,2022-04-06,1,,,,,チョウコウギョウ,0
116,1030001147621,新規,0,2022-04-06,2022-04-06,株式会社ダイザ,,株式会社,埼玉県,和光市,下新倉３丁目１４番３５号エクセル和光Ａ,,11,229,3510111,,,,,,,2022-04-06,1,,,,,ダイザ,0
119,1030003019158,新規,0,2022-04-06,2022-04-06,ＰＯＰ合同会社,,合同会社,埼玉県,さいたま市西区,大字佐知川４０１番地１,,11,101,3310064,,,,,,,2022-04-06,1,,,,,ポップ,0
120,1030003019166,新規,0,2022-04-06,2022-04-06,ＯＴＡＫＡＲＡ　ＭＡＲＫＥＴ合同会社,,合同会社,埼玉県,三郷市,戸ケ崎５丁目１７０番地,,11,237,3410044,,,,,,,2022-04-06,1,,,,,オタカラマーケット,0
121,1030003019174,新規,0,2022-04-06,2022-04-06,合同会社アルテミス,,合同会社,埼玉県,さいたま市見沼区,東大宮１丁目３３番地５,,11,104,3370051,,,,,,,2022-04-06,1,,,,,アルテミス,0
122,1030005020782,新規,0,2022-04-06,2022-04-06,特定非営利活動法人Ｍｕｓｉｃ　ｙｏｕｒｓｅｌｆ,,その他の設立登記法人,埼玉県,上尾市,大字瓦葺１８５７番地２６,,11,219,3620022,,,,,,,2022-04-06,1,,,,,ミュージックユアセルフ,0
129,1040001122920,新規,0,2022-04-06,2022-04-06,株式会社Ｌｉ．Ｃｒｅａｔｅ,,株式会社,千葉県,千葉市美浜区,打瀬２丁目２２番地,,12,106,2610013,,,,,,,2022-04-06,1,,,,,エルアイクリエイト,0
133,1040003019826,新規,0,2022-04-06,2022-04-06,合同会社建機サービス,,合同会社,千葉県,千葉市若葉区,小倉町８８０番地４８,,12,104,2640007,,,,,,,2022-04-06,1,,,,,ケンキサービス,0
134,1040003019834,新規,0,2022-04-06,2022-04-06,アールズホーム合同会社,,合同会社,千葉県,茂原市,緑町４７番地７,,12,210,2970025,,,,,,,2022-04-06,1,,,,,アールズホーム,0
136,1050001050906,新規,0,2022-04-06,2022-04-06,株式会社ＣＨＩＣ　ＢＯＲＮ,,株式会社,茨城県,つくば市,谷田部２９５８番地,,08,220,3050861,,,,,,,2022-04-06,1,,,,,シックボーン,0
137,1050001050914,新規,0,2022-04-06,2022-04-06,株式会社グロークラフト,,株式会社,茨城県,稲敷郡阿見町,中郷２丁目１５番地３０,,08,443,3000337,,,,,,,2022-04-06,1,,,,,グロークラフト,0
138,1060003004009,新規,0,2022-04-06,2022-04-06,合同会社アクロミレ,,合同会社,栃木県,佐野市,高砂町２８６６－１佐野ビジネスセンタービル西館４Ｆ,,09,204,3270022,,,,,,,2022-04-06,1,,,,,アクロミレ,0
139,1070001039096,新規,0,2022-04-06,2022-04-06,株式会社ヨコオみらいサポート,,株式会社,群馬県,富岡市,神農原１１１２番地,,10,210,3702455,,,,,,,2022-04-06,1,,,,,ヨコオミライサポート,0
140,1070001039121,新規,0,2022-04-06,2022-04-06,株式会社吉田技研,,株式会社,群馬県,前橋市,堀越町１７３１番地２,,10,201,3710231,,,,,,,2022-04-06,1,,,,,ヨシダギケン,0
143,1070003004445,新規,0,2022-04-06,2022-04-06,川辺合同会社,,合同会社,群馬県,高崎市,倉賀野町４９番地４－３Ｆ,,10,202,3701201,,,,,,,2022-04-06,1,,,,,カワベ,0
146,1080005007445,新規,0,2022-04-06,2022-04-06,一般社団法人島田市観光協会,,その他の設立登記法人,静岡県,島田市,金谷新町１４番地の２,,22,209,4280047,,,,,,,2022-04-06,1,,,,,シマダシカンコウキョウカイ,0
150,1090001017505,新規,0,2022-04-06,2022-04-06,テクノブレイン株式会社,,株式会社,山梨県,笛吹市,御坂町大野寺７６５番地,,19,211,4060817,,,,,,,2022-04-06,1,,,,,テクノブレイン,0
151,1090003002075,新規,0,2022-04-06,2022-04-06,Ｋ保険企画合同会社,,合同会社,山梨県,富士吉田市,大明見５丁目１３番１１号,,19,202,4030003,,,,,,,2022-04-06,1,,,,,ケーホケンキカク,0
154,1100001035224,新規,0,2022-04-06,2022-04-06,株式会社カネタ,,株式会社,長野県,南佐久郡南牧村,大字海ノ口２１２６番地,,20,305,3841302,,,,,,,2022-04-06,1,,,,,カネタ,0
168,1120001244814,新規,0,2022-04-06,2022-04-06,ライブラホーム株式会社,,株式会社,大阪府,大阪市西成区,橘１丁目１１番２８号,,27,122,5570051,,,,,,,2022-04-06,1,,,,,ライブラホーム,0
169,1120001244871,新規,0,2022-04-06,2022-04-06,株式会社Ｍ’ｓ　ＳＹＳＴＥＭ,,株式会社,大阪府,大阪市鶴見区,徳庵２丁目３番８号,,27,124,5380034,,,,,,,2022-04-06,1,,,,,エムズシステム,0
170,1120001244896,新規,0,2022-04-06,2022-04-06,株式会社ダイナマイトクイーン,,株式会社,大阪府,大阪市中央区,博労町３丁目６番１３号,,27,128,5410059,,,,,,,2022-04-06,1,,,,,ダイナマイトクイーン,0
171,1120001244905,新規,0,2022-04-06,2022-04-06,株式会社Ｊ．Ｂｌａｃｋ,,株式会社,大阪府,大阪市西淀川区,柏里２丁目１番１９号石川ビル４階,,27,113,5550022,,,,,,,2022-04-06,1,,,,,ジェイブラック,0
172,1120001244954,新規,0,2022-04-06,2022-04-06,株式会社ＴＳＣトムソーヤクラブ,,株式会社,大阪府,大阪市北区,浪花町１番１８号,,27,127,5300022,,,,,,,2022-04-06,1,,,,,ティーエスシートムソーヤクラブ,0
173,1120001245003,新規,0,2022-04-06,2022-04-06,株式会社前田歯科商店,,株式会社,大阪府,大阪市中央区,南船場４丁目１０番５号,,27,128,5420081,,,,,,,2022-04-06,1,,,,,マエダシカショウテン,0
174,1120001245011,新規,0,2022-04-06,2022-04-06,株式会社アウラニエステート,,株式会社,大阪府,枚方市,楠葉美咲１丁目４番２６号,,27,210,5731112,,,,,,,2022-04-06,1,,,,,アウラニエステート,0
177,1120003021419,新規,0,2022-04-06,2022-04-06,合同会社ＤＡＩ　ＮＨＡＴ,,合同会社,大阪府,大阪市西淀川区,福町２丁目２４番２号,,27,113,5550034,,,,,,,2022-04-06,1,,,,,ダイニャット,0
178,1120005022877,新規,0,2022-04-06,2022-04-06,一般社団法人みらい輝く第二の人生,,その他の設立登記法人,大阪府,大阪市中央区,谷町２丁目３番１号,,27,128,5400012,,,,,,,2022-04-06,1,,,,,ミライカガヤクダイニノジンセイ,0
179,1120005022885,新規,0,2022-04-06,2022-04-06,一般社団法人ＴＵＴＡＫＯ,,その他の設立登記法人,大阪府,大阪市西淀川区,福町２丁目３番２４号,,27,113,5550034,,,,,,,2022-04-06,1,,,,,ツタコ,0
180,1120005022893,新規,0,2022-04-06,2022-04-06,社会保険労務士法人ウィンクルム,,その他の設立登記法人,大阪府,大阪市北区,堂島２丁目２番２３号,,27,127,5300003,,,,,,,2022-04-06,1,,,,,ウィンクルム,0
182,1120101065326,新規,0,2022-04-06,2022-04-06,株式会社イワイ設備,,株式会社,大阪府,堺市中区,大野芝町１６０番地１０,,27,142,5998233,,,,,,,2022-04-06,1,,,,,イワイセツビ,0
183,1120101065342,新規,0,2022-04-06,2022-04-06,株式会社Ｃｒａｆｔ　Ｏｎｅ,,株式会社,大阪府,河内長野市,原町４丁目２番１２号,,27,216,5860021,,,,,,,2022-04-06,1,,,,,クラフトワン,0
185,1120103004629,新規,0,2022-04-06,2022-04-06,合同会社Ｍａｌｉｓａ十,,合同会社,大阪府,堺市堺区,東雲西町１丁２番地２２号,,27,141,5900013,,,,,,,2022-04-06,1,,,,,マリサテン,0
188,1120901045799,新規,0,2022-04-06,2022-04-06,株式会社吉村,,株式会社,大阪府,吹田市,南吹田３丁目１０番３号,,27,205,5640043,,,,,,,2022-04-06,1,,,,,ヨシムラ,0
193,1122001035739,新規,0,2022-04-06,2022-04-06,株式会社嘉藤組,,株式会社,大阪府,東大阪市,日下町３丁目３番４号,,27,227,5798003,,,,,,,2022-04-06,1,,,,,カトウグミ,0
196,1130001071489,新規,0,2022-04-06,2022-04-06,株式会社ＷＥＬＬＢｏ,,株式会社,京都府,京都市下京区,朱雀宝蔵町４４番地協栄ビル２階,,26,106,6008846,,,,,,,2022-04-06,1,,,,,ウェルボ,0
200,1140001125459,新規,0,2022-04-06,2022-04-06,株式会社木村電機製作所,,株式会社,兵庫県,伊丹市,森本８丁目９４番地１,,28,207,6640842,,,,,,,2022-04-06,1,,,,,キムラデンキセイサクショ,0
201,1140001125483,新規,0,2022-04-06,2022-04-06,株式会社タイセイコーポレーション,,株式会社,兵庫県,姫路市,花田町上原田５１３－１,,28,201,6710251,,,,,,,2022-04-06,1,,,,,タイセイコーポレーション,0
202,1140003017522,新規,0,2022-04-06,2022-04-06,ｓｋｙ合同会社,,合同会社,兵庫県,たつの市,龍野町日山３８６番地２,,28,229,6794161,,,,,,,2022-04-06,1,,,,,スカイ,0
203,1140003017530,新規,0,2022-04-06,2022-04-06,ＳＦＰ合同会社,,合同会社,兵庫県,尼崎市,立花町１丁目２７－１０リアライズ立花４０２,,28,202,6610025,,,,,,,2022-04-06,1,,,,,エスエフピー,0
213,1180003023707,新規,0,2022-04-06,2022-04-06,ＳｕｓｔａｉｎａｂｌｅＡｃｔｉｏｎ合同会社,,合同会社,愛知県,西春日井郡豊山町,大字豊場字諏訪４７番地２,,23,342,4800202,,,,,,,2022-04-06,1,,,,,サステナブルアクション,0
216,1190001029259,新規,0,2022-04-06,2022-04-06,久居産業株式会社,,株式会社,三重県,津市,久居元町２３０９番地,,24,201,5141125,,,,,,,2022-04-06,1,,,,,ヒサイサンギョウ,0
217,1190001029267,新規,0,2022-04-06,2022-04-06,株式会社竜胆,,株式会社,三重県,いなべ市,員弁町宇野３３番地４,,24,214,5110206,,,,,,,2022-04-06,1,,,,,リンドウ,0
220,1200001039933,新規,0,2022-04-06,2022-04-06,株式会社Ｔ・Ｋクリーン,,株式会社,岐阜県,多治見市,大畑町大洞３１番地の９１,,21,204,5070817,,,,,,,2022-04-06,1,,,,,ティーケークリーン,0
221,1200001039941,新規,0,2022-04-06,2022-04-06,木曽抜型株式会社,,株式会社,岐阜県,関市,山田１１４８番地１５,,21,205,5013944,,,,,,,2022-04-06,1,,,,,キソヌキガタ,0
224,1230001019305,新規,0,2022-04-06,2022-04-06,株式会社中谷板金工業,,株式会社,富山県,高岡市,下麻生伸町８５９番地２４,,16,202,9391271,,,,,,,2022-04-06,1,,,,,ナカタニバンキンコウギョウ,0
226,1240001059548,新規,0,2022-04-06,2022-04-06,株式会社Ｄｏａ,,株式会社,広島県,福山市,幕山台１丁目３番１６号,,34,207,7210913,,,,,,,2022-04-06,1,,,,,ディーオーエー,0
232,1240005015373,新規,0,2022-04-06,2022-04-06,特定非営利活動法人ひろしまピースアカデミー,,その他の設立登記法人,広島県,広島市東区,戸坂新町２丁目４４番２－２０５号,,34,102,7320012,,,,,,,2022-04-06,1,,,,,ヒロシマピースアカデミー,0
233,1250001019492,新規,0,2022-04-06,2022-04-06,株式会社ヤマヨ,,株式会社,山口県,下関市,大坪本町４８番２９号,,35,201,7500051,,,,,,,2022-04-06,1,,,,,ヤマヨ,0
237,1260001036727,新規,0,2022-04-06,2022-04-06,株式会社林田,,株式会社,岡山県,岡山市南区,藤田５６１番地の４６,,33,104,7010221,,,,,,,2022-04-06,1,,,,,ハヤシダ,0
239,1260003003873,新規,0,2022-04-06,2022-04-06,合同会社Ｇｒｏｗｉｎｇ,,合同会社,岡山県,倉敷市,東富井７４２－１,,33,202,7100847,,,,,,,2022-04-06,1,,,,,グローイング,0
242,1270001008485,新規,0,2022-04-06,2022-04-06,株式会社マタタビ,,株式会社,鳥取県,東伯郡湯梨浜町,大字久留１０４番地６,,31,370,6820723,,,,,,,2022-04-06,1,,,,,マタタビ,0
243,1270003001397,新規,0,2022-04-06,2022-04-06,合同会社武良,,合同会社,鳥取県,米子市,上後藤２丁目４番３７号,,31,202,6830841,,,,,,,2022-04-06,1,,,,,ムラ,0
248,1290001097015,新規,0,2022-04-06,2022-04-06,シアターマネジメント福岡株式会社,,株式会社,福岡県,福岡市博多区,祇園町８番１３号,,40,132,8120038,,,,,,,2022-04-06,1,,,,,シアターマネジメントフクオカ,0
249,1290001097114,新規,0,2022-04-06,2022-04-06,株式会社グラムコード,,株式会社,福岡県,福岡市博多区,寿町２丁目４番２１号,,40,132,8120884,,,,,,,2022-04-06,1,,,,,グラムコード,0
250,1290001097122,新規,0,2022-04-06,2022-04-06,株式会社ＰＳＫＰ,,株式会社,福岡県,糸島市,曽根８１１番地９,,40,230,8191561,,,,,,,2022-04-06,1,,,,,ピーエスケーピー,0
255,1290003012368,新規,0,2022-04-06,2022-04-06,大安合同会社,,合同会社,福岡県,福岡市博多区,博多駅前３丁目１６番２号,,40,132,8120011,,,,,,,2022-04-06,1,,,,,ダイアン,0
263,1300003001815,新規,0,2022-04-06,2022-04-06,合同会社さがもり,,合同会社,佐賀県,佐賀市,富士町大字古湯２７９４番地,,41,201,8400501,,,,,,,2022-04-06,1,,,,,サガモリ,0
264,1300005007067,新規,0,2022-04-06,2022-04-06,一般社団法人Ｐｏｓｉｔｉｖｅ　Ｗｏｒｋｓ,,その他の設立登記法人,佐賀県,佐賀市,北川副町大字江上１８１番地,,41,201,8400011,,,,,,,2022-04-06,1,,,,,ポジティブワークス,0
267,1310001017804,新規,0,2022-04-06,2022-04-06,株式会社恵家,,株式会社,長崎県,佐世保市,万徳町７番１２号,,42,202,8570034,,,,,,,2022-04-06,1,,,,,メグミヤ,0
268,1310001017812,新規,0,2022-04-06,2022-04-06,株式会社４ｐｏｉｎｔｓ,,株式会社,長崎県,長崎市,五島町５番３４号トーカンマンション１４０７,,42,201,8500036,,,,,,,2022-04-06,1,,,,,フォーポイント,0
269,1310003004321,新規,0,2022-04-06,2022-04-06,合同会社ＮＡＲＭ,,合同会社,長崎県,長崎市,戸町４丁目１５番１６号,,42,201,8500952,,,,,,,2022-04-06,1,,,,,ナーム,0
270,1320001018999,新規,0,2022-04-06,2022-04-06,株式会社ＳＵＮＮＹ　ＳＩＤＥ　ＬＡＢ,,株式会社,大分県,玖珠郡玖珠町,大字岩室７５０番地,,44,462,8794405,,,,,,,2022-04-06,1,,,,,サニーサイドラボ,0
272,1330001029590,新規,0,2022-04-06,2022-04-06,株式会社松内設計,,株式会社,熊本県,宇土市,松山町１７１１番地,,43,211,8690416,,,,,,,2022-04-06,1,,,,,マツウチセッケイ,0
273,1330001029608,新規,0,2022-04-06,2022-04-06,株式会社西川不動産,,株式会社,熊本県,荒尾市,蔵満２０６２番地４,,43,204,8640027,,,,,,,2022-04-06,1,,,,,ニシカワフドウサン,0
275,1330003009310,新規,0,2022-04-06,2022-04-06,合同会社ピュア,,合同会社,熊本県,熊本市東区,東町３丁目２番１８号サンロードシティマンション１０６号室,,43,102,8620901,,,,,,,2022-04-06,1,,,,,ピュア,0
276,1330003009319,新規,0,2022-04-06,2022-04-06,ホワイトクリエイティブ合同会社,,合同会社,熊本県,上益城郡御船町,大字豊秋１１４２番地８,,43,441,8613131,,,,,,,2022-04-06,1,,,,,ホワイトクリエイティブ,0
281,1340001024624,新規,0,2022-04-06,2022-04-06,株式会社エム・アイ・ティ,,株式会社,鹿児島県,鹿児島市,紫原６丁目１０番１４号,,46,201,8900082,,,,,,,2022-04-06,1,,,,,エムアイティ,0
283,1360001030208,新規,0,2022-04-06,2022-04-06,株式会社サウスフィールド,,株式会社,沖縄県,中頭郡北中城村,字美崎１７４番地１０１号,,47,327,9012321,,,,,,,2022-04-06,1,,,,,サウスフィールド,0
287,1370001048406,新規,0,2022-04-06,2022-04-06,株式会社ｂｕｚｚＲカンパニー,,株式会社,宮城県,仙台市青葉区,大町２丁目５番１０号御譜代町ビル３Ｆ,,04,101,9800804,,,,,,,2022-04-06,1,,,,,バズルカンパニー,0
294,1380001032722,新規,0,2022-04-06,2022-04-06,株式会社ｅ‐ｒａｖｅ,,株式会社,福島県,福島市,置賜町８番１５号,,07,201,9608034,,,,,,,2022-04-06,1,,,,,イーレイヴ,0
296,1390001016856,新規,0,2022-04-06,2022-04-06,株式会社ＳｐｒｉｎｇＬｉｇｈｔ,,株式会社,山形県,西置賜郡飯豊町,大字椿１９３６番地５,,06,403,9990604,,,,,,,2022-04-06,1,,,,,スプリングライト,0
306,1430001086317,新規,0,2022-04-06,2022-04-06,株式会社ａｘｉｃａｒｅ,,株式会社,北海道,札幌市東区,東苗穂七条３丁目１１番６号,,01,103,0070807,,,,,,,2022-04-06,1,,,,,アクシケア,0
313,1450001013665,新規,0,2022-04-06,2022-04-06,株式会社マーベリック,,株式会社,北海道,旭川市,永山一条２４丁目３番１０号１０６号,,01,204,0798411,,,,,,,2022-04-06,1,,,,,マーベリック,0
317,1460303000757,新規,0,2022-04-06,2022-04-06,合同会社ＲＵＲＡＬ　ＷＨＩＭ,,合同会社,北海道,斜里郡斜里町,朝日町４５番地１４,,01,545,0994114,,,,,,,2022-04-06,1,,,,,ルーラルウィム,0
318,1470003002160,新規,0,2022-04-06,2022-04-06,合同会社丸亀渡邊,,合同会社,香川県,丸亀市,土器町東１丁目９７番地,,37,202,7630082,,,,,,,2022-04-06,1,,,,,マルガメワタナベ,0
323,1480001011699,新規,0,2022-04-06,2022-04-06,ｙａｍａｋｅｎ株式会社,,株式会社,徳島県,那賀郡那賀町,和食郷字南川２５２－６,,36,368,7715203,,,,,,,2022-04-06,1,,,,,ヤマケン,0
326,1500001024129,新規,0,2022-04-06,2022-04-06,モアーズコミュニケーション株式会社,,株式会社,愛媛県,西条市,朔日市７８９番地９,,38,206,7930027,,,,,,,2022-04-06,1,,,,,モアーズコミュニケーション,0
335,2010001225618,新規,0,2022-04-06,2022-04-06,株式会社流星群,,株式会社,東京都,中央区,築地２丁目１５番１５号セントラル東銀座６０５,,13,102,1040045,,,,,,,2022-04-06,1,,,,,リュウセイグン,0
336,2010001225675,新規,0,2022-04-06,2022-04-06,ウィナーデジタル株式会社,,株式会社,東京都,千代田区,神田淡路町２丁目１０５番地,,13,101,1010063,,,,,,,2022-04-06,1,,,,,ウィナーデジタル,0
337,2010001225741,新規,0,2022-04-06,2022-04-06,株式会社Ｇａｕｄｉｕｍ,,株式会社,東京都,中央区,銀座１丁目２２番１１号銀座大竹ビジデンス２階,,13,102,1040061,,,,,,,2022-04-06,1,,,,,ガウディウム,0
343,2010005034817,新規,0,2022-04-06,2022-04-06,特定非営利活動法人２５日会,,その他の設立登記法人,東京都,中央区,銀座７丁目１０番６号アスク銀座ビル５階,,13,102,1040061,,,,,,,2022-04-06,1,,,,,ニジュウゴニチカイ,0
348,2010401166610,新規,0,2022-04-06,2022-04-06,株式会社作電工,,株式会社,東京都,港区,六本木４丁目３番１１号六本木ユニハウス２２３,,13,103,1060032,,,,,,,2022-04-06,1,,,,,サクデンコウ,0
349,2010401166643,新規,0,2022-04-06,2022-04-06,株式会社Ｙｏｔｓｕｎａｇｉ,,株式会社,東京都,港区,浜松町２丁目２－１５浜松町ダイヤビル２Ｆ,,13,103,1050013,,,,,,,2022-04-06,1,,,,,ヨツナギ,0
355,2010405020904,新規,0,2022-04-06,2022-04-06,ＲＢソーラーレイクホールディングス一般社団法人,,その他の設立登記法人,東京都,港区,虎ノ門３丁目２２番１０－２０１号,,13,103,1050001,,,,,,,2022-04-06,1,,,,,アールビーソーラーレイクホールディングス,0
357,2010601060935,新規,0,2022-04-06,2022-04-06,ｅｌｕａ株式会社,,株式会社,東京都,江東区,有明１丁目６番３０－１２０７号,,13,108,1350063,,,,,,,2022-04-06,1,,,,,エルア,0
358,2010601060951,新規,0,2022-04-06,2022-04-06,ＴＯＢＩＲＡ株式会社,,株式会社,東京都,墨田区,緑４丁目１２番１０号２階,,13,107,1300021,,,,,,,2022-04-06,1,,,,,トビラ,0
359,2010603009476,新規,0,2022-04-06,2022-04-06,合同会社ＳＴＧミライエ・ハーツプランニング,,合同会社,東京都,江東区,亀戸３丁目５０番１４号,,13,108,1360071,,,,,,,2022-04-06,1,,,,,エスティージーミライエハーツプランニング,0
360,2010701042461,新規,0,2022-04-06,2022-04-06,株式会社ＲＡＴＩＯ,,株式会社,東京都,品川区,北品川３丁目１１番５号プレミスト北品川９０２,,13,109,1400001,,,,,,,2022-04-06,1,,,,,ラティオ,0
361,2010701042478,新規,0,2022-04-06,2022-04-06,株式会社グリムスエナジー,,株式会社,東京都,品川区,東品川２丁目２番４号天王洲ファーストタワー,,13,109,1400002,,,,,,,2022-04-06,1,,,,,グリムスエナジー,0
362,2010801032858,新規,0,2022-04-06,2022-04-06,株式会社Ｓｌｏｗ＆Ｌｉｆｅ,,株式会社,東京都,大田区,東蒲田２丁目１７番３号２Ｆ,,13,111,1440031,,,,,,,2022-04-06,1,,,,,スロウアンドライフ,0
366,2010901050628,新規,0,2022-04-06,2022-04-06,株式会社クラシカルハーツ,,株式会社,東京都,世田谷区,北沢２丁目４番１０号,,13,112,1550031,,,,,,,2022-04-06,1,,,,,クラシカルハーツ,0
367,2010901050644,新規,0,2022-04-06,2022-04-06,大翔株式会社,,株式会社,東京都,世田谷区,成城９丁目３０番７号成城ガーデンホームズ７０１,,13,112,1570066,,,,,,,2022-04-06,1,,,,,ダイショウ,0
368,2010901050652,新規,0,2022-04-06,2022-04-06,株式会社ＴＲＮＫ,,株式会社,東京都,世田谷区,下馬４丁目３－２－２０８,,13,112,1540002,,,,,,,2022-04-06,1,,,,,トランク,0
369,2010901050660,新規,0,2022-04-06,2022-04-06,映像ノ乱株式会社,,株式会社,東京都,世田谷区,奥沢１丁目５１番１１号ハイツＯＺＡＷＡ１０１,,13,112,1580083,,,,,,,2022-04-06,1,,,,,エイゾウノラン,0
370,2010903007279,新規,0,2022-04-06,2022-04-06,合同会社ＮＥＷ　ＦＩＲＳＴ,,合同会社,東京都,世田谷区,代田３丁目５番３号,,13,112,1550033,,,,,,,2022-04-06,1,,,,,ニューファースト,0
374,2011001146746,新規,0,2022-04-06,2022-04-06,株式会社ラヴィリ,,株式会社,東京都,渋谷区,恵比寿４丁目３番１４号恵比寿ＳＳビル６Ｆ,,13,113,1500013,,,,,,,2022-04-06,1,,,,,ラヴィリ,0
375,2011001146754,新規,0,2022-04-06,2022-04-06,株式会社マーレ,,株式会社,東京都,目黒区,上目黒１丁目１６番１２号,,13,110,1530051,,,,,,,2022-04-06,1,,,,,マーレ,0
376,2011001146770,新規,0,2022-04-06,2022-04-06,株式会社リッチ,,株式会社,東京都,渋谷区,渋谷２丁目９番８号,,13,113,1500002,,,,,,,2022-04-06,1,,,,,リッチ,0
377,2011001146804,新規,0,2022-04-06,2022-04-06,株式会社ＨＫＲＳ　ＯＮＥ,,株式会社,東京都,渋谷区,代々木２丁目２３番１－６４１号,,13,113,1510053,,,,,,,2022-04-06,1,,,,,エイチケーアールエスワン,0
384,2011101098441,新規,0,2022-04-06,2022-04-06,株式会社ＲａｙＡｒｃ　Ａｓｔｒｏｌａｂｅ,,株式会社,東京都,新宿区,西新宿３丁目８番３号,,13,104,1600023,,,,,,,2022-04-06,1,,,,,レイアークアストロラーベ,0
385,2011103011641,新規,0,2022-04-06,2022-04-06,合同会社ＡＲＫ　Ｐｒｏｄｕｃｔｉｏｎ,,合同会社,東京都,新宿区,北新宿１丁目２７－１２グランドステータス北新宿３階,,13,104,1690074,,,,,,,2022-04-06,1,,,,,アークプロダクション,0
391,2011501027900,新規,0,2022-04-06,2022-04-06,ＢＥＴＫＡＳＨ株式会社,,株式会社,東京都,北区,浮間１丁目１番１４号リムジンビル３３４,,13,117,1150051,,,,,,,2022-04-06,1,,,,,ビーイーティケイエイエスエイチ,0
392,2011501027917,新規,0,2022-04-06,2022-04-06,ツインズ株式会社,,株式会社,東京都,北区,浮間１丁目７番２３号兆豊浮間ビル４０２号室,,13,117,1150051,,,,,,,2022-04-06,1,,,,,ツインズ,0
398,2011801040529,新規,0,2022-04-06,2022-04-06,株式会社ユニテック,,株式会社,東京都,足立区,東和３丁目１８番２号,,13,121,1200003,,,,,,,2022-04-06,1,,,,,ユニテック,0
399,2011801040537,新規,0,2022-04-06,2022-04-06,株式会社ヤネダ,,株式会社,東京都,葛飾区,東新小岩４丁目１３番２４号,,13,122,1240023,,,,,,,2022-04-06,1,,,,,ヤネダ,0
401,2011803005034,新規,0,2022-04-06,2022-04-06,合同会社空間工務店,,合同会社,東京都,足立区,伊興１丁目２番２３号,,13,121,1210823,,,,,,,2022-04-06,1,,,,,クウカンコウムテン,0
405,2012403005309,新規,0,2022-04-06,2022-04-06,合同会社ライフスタイル医学ジャパン,,合同会社,東京都,府中市,多磨町１丁目１４番地の５,,13,206,1830002,,,,,,,2022-04-06,1,,,,,ライフスタイルイガクジャパン,0
406,2012403005317,新規,0,2022-04-06,2022-04-06,合同会社ジントラスト,,合同会社,東京都,多摩市,貝取２丁目６番地,,13,224,2060012,,,,,,,2022-04-06,1,,,,,ジントラスト,0
409,2012803002748,新規,0,2022-04-06,2022-04-06,合同会社ＹＵＭ設計,,合同会社,東京都,日野市,豊田４丁目３４番地の７オーチャード１５０２,,13,212,1910053,,,,,,,2022-04-06,1,,,,,ユウマセッケイ,0
411,2013101008883,新規,0,2022-04-06,2022-04-06,株式会社ｃａｐｅｒｅｏｎ,,株式会社,東京都,西多摩郡瑞穂町,大字箱根ケ崎２２５０番地５,,13,303,1901221,,,,,,,2022-04-06,1,,,,,カペレオン,0
414,2013301048903,新規,0,2022-04-06,2022-04-06,ＫＡＨＯ株式会社,,株式会社,東京都,豊島区,東池袋１丁目３３番４号,,13,116,1700013,,,,,,,2022-04-06,1,,,,,カホ,0
417,2020001145930,新規,0,2022-04-06,2022-04-06,株式会社ふくよろ,,株式会社,神奈川県,川崎市中原区,井田三舞町１０番１０号,,14,133,2110037,,,,,,,2022-04-06,1,,,,,フクヨロ,0
418,2020001145947,新規,0,2022-04-06,2022-04-06,株式会社ピースウェーブ,,株式会社,神奈川県,横浜市都筑区,北山田２丁目８番１４号,,14,118,2240021,,,,,,,2022-04-06,1,,,,,ピースウェーブ,0
419,2020001145963,新規,0,2022-04-06,2022-04-06,株式会社ＬｉｗＭ,,株式会社,神奈川県,川崎市宮前区,宮前平３丁目８番地１,,14,136,2160006,,,,,,,2022-04-06,1,,,,,リウム,0
420,2020001145971,新規,0,2022-04-06,2022-04-06,ゲストファースト株式会社,,株式会社,神奈川県,横浜市青葉区,鉄町１０８４番地１９,,14,117,2250025,,,,,,,2022-04-06,1,,,,,ゲストファースト,0
422,2020003021551,新規,0,2022-04-06,2022-04-06,合同会社ｐｈｉｌｉａ,,合同会社,神奈川県,横浜市旭区,南本宿町１０１番地５ビオトープ２１Ａ－５０８,,14,112,2410833,,,,,,,2022-04-06,1,,,,,フィリア,0
428,2021001075622,新規,0,2022-04-06,2022-04-06,ＫＩＫ総合コンサルティング株式会社,,株式会社,神奈川県,座間市,新田宿６９８番地３,,14,216,2520026,,,,,,,2022-04-06,1,,,,,ケイアイケイソウゴウコンサルティング,0
429,2021001075630,新規,0,2022-04-06,2022-04-06,株式会社ＲＡ,,株式会社,神奈川県,相模原市中央区,田名２７３８番地５ワコーレ橋本Ｉ－１０６,00126174,14,152,2520244,,,,,,,2022-04-06,1,,,,,アールエー,0
439,2030001147570,新規,0,2022-04-06,2022-04-06,株式会社長島興業,,株式会社,埼玉県,志木市,下宗岡１丁目１９番４４号,,11,228,3530003,,,,,,,2022-04-06,1,,,,,ナガシマコウギョウ,0
440,2030001147604,新規,0,2022-04-06,2022-04-06,Ｃｏｍｅ　ｏｎ株式会社,,株式会社,埼玉県,川口市,東川口５丁目６番２４－８０４号,,11,203,3330801,,,,,,,2022-04-06,1,,,,,カムオン,0
442,2030003019157,新規,0,2022-04-06,2022-04-06,シンケールスコンサルティング合同会社,,合同会社,埼玉県,川口市,青木３丁目５番８－２０１号,,11,203,3320031,,,,,,,2022-04-06,1,,,,,シンケールスコンサルティング,0
443,2030005020798,新規,0,2022-04-06,2022-04-06,医療法人ｖｉｓｉｏｎ　ｈｅａｌｔｈ,,その他の設立登記法人,埼玉県,久喜市,久本寺３０３番地１,,11,232,3400212,,,,,,,2022-04-06,1,,,,,ビジョンヘルス,0
445,2040001122894,新規,0,2022-04-06,2022-04-06,株式会社セイワファーマシー,,株式会社,千葉県,千葉市美浜区,中瀬１丁目６番地１６階,,12,106,2610023,,,,,,,2022-04-06,1,,,,,セイワファーマシー,0
446,2040001122911,新規,0,2022-04-06,2022-04-06,株式会社ＢＬＴ,,株式会社,千葉県,佐倉市,西ユーカリが丘１丁目２７番地３１,,12,212,2850850,,,,,,,2022-04-06,1,,,,,ビーエルティー,0
450,2050001050896,新規,0,2022-04-06,2022-04-06,株式会社藤未来ホーム,,株式会社,茨城県,取手市,椚木１７０番地４,,08,217,3001511,,,,,,,2022-04-06,1,,,,,フジミライホーム,0
451,2050001050905,新規,0,2022-04-06,2022-04-06,株式会社小池地質,,株式会社,茨城県,ひたちなか市,磯崎町３８５０番地９,,08,221,3111202,,,,,,,2022-04-06,1,,,,,コイケチシツ,0
453,2050003006475,新規,0,2022-04-06,2022-04-06,ダイコウテック合同会社,,合同会社,茨城県,土浦市,大町１４番１６号桜川ハイツ８０１号,,08,203,3000038,,,,,,,2022-04-06,1,,,,,ダイコウテック,0
458,2070001039112,新規,0,2022-04-06,2022-04-06,株式会社くらまえ,,株式会社,群馬県,前橋市,六供町１０７８番地８,,10,201,3710804,,,,,,,2022-04-06,1,,,,,クラマエ,0
459,2070001039129,新規,0,2022-04-06,2022-04-06,ＴＡＮＩ　ＶＥＨＩＣＬＥ株式会社,,株式会社,群馬県,伊勢崎市,宮子町３４５４番地１１,,10,204,3720801,,,,,,,2022-04-06,1,,,,,タニビークル,0
460,2070003004444,新規,0,2022-04-06,2022-04-06,ＷＥＬＬＥ合同会社,,合同会社,群馬県,前橋市,南町３丁目７１番地１ハートフルライフＩＷＡＳＡ１、５０５号,,10,201,3710805,,,,,,,2022-04-06,1,,,,,ヴェレ,0
463,2080001024864,新規,0,2022-04-06,2022-04-06,株式会社リバスタ,,株式会社,静岡県,静岡市清水区,草ヶ谷３５－１４,,22,103,4240104,,,,,,,2022-04-06,1,,,,,リバスタ,0
469,2090001017512,新規,0,2022-04-06,2022-04-06,株式会社ＲＥＶＥ,,株式会社,山梨県,甲府市,青沼２丁目１１番１号サーパス青沼１１０１,,19,201,4000867,,,,,,,2022-04-06,1,,,,,レーヴ,0
470,2100001035223,新規,0,2022-04-06,2022-04-06,株式会社ＹＭＫ,,株式会社,長野県,長野市,大字稲葉２４６７番地７,,20,201,3800911,,,,,,,2022-04-06,1,,,,,ワイエムケイ,0
483,2120001244854,新規,0,2022-04-06,2022-04-06,株式会社東伸組,,株式会社,大阪府,大阪市旭区,新森２丁目４番１８号,,27,117,5350022,,,,,,,2022-04-06,1,,,,,トウシングミ,0
484,2120001244912,新規,0,2022-04-06,2022-04-06,株式会社高田ホームサービス,,株式会社,大阪府,大阪市浪速区,恵美須西２丁目１１番１７－８０１号,,27,111,5560003,,,,,,,2022-04-06,1,,,,,タカダホームサービス,0
485,2120001244920,新規,0,2022-04-06,2022-04-06,株式会社ＹＭＪ,,株式会社,大阪府,大阪市北区,西天満６丁目８－２ヤノシゲビル６０１号,,27,127,5300047,,,,,,,2022-04-06,1,,,,,ワイエムジェイ,0
486,2120001244961,新規,0,2022-04-06,2022-04-06,株式会社ＢＵＮＫＥＲ,,株式会社,大阪府,大阪市北区,芝田２丁目８－１１共栄ビル３Ｆ,,27,127,5300012,,,,,,,2022-04-06,1,,,,,バンカー,0
487,2120001244986,新規,0,2022-04-06,2022-04-06,ＬＵＭＩＥＣ株式会社,,株式会社,大阪府,大阪市中央区,安土町１丁目４－５－６０８,,27,128,5410052,,,,,,,2022-04-06,1,,,,,ルミーク,0
488,2120001244994,新規,0,2022-04-06,2022-04-06,株式会社八百庄,,株式会社,大阪府,大阪市北区,天神橋１丁目３番１７号,,27,127,5300041,,,,,,,2022-04-06,1,,,,,ヤオショウ,0
489,2120001245035,新規,0,2022-04-06,2022-04-06,株式会社ノーブルショア,,株式会社,大阪府,大阪市東住吉区,南田辺５丁目１１番２１号シャーメゾン南田辺２０３号,,27,121,5460033,,,,,,,2022-04-06,1,,,,,ノーブルショア,0
492,2120003021426,新規,0,2022-04-06,2022-04-06,合同会社Ｐｒｏｓｏｒａ,,合同会社,大阪府,大阪市中央区,南船場４丁目１０番５号南船場ＳＯＨＯビル７０２,,27,128,5420081,,,,,,,2022-04-06,1,,,,,プロソラ,0
503,2120101065325,新規,0,2022-04-06,2022-04-06,株式会社ぶどう農園一環堂,,株式会社,大阪府,羽曳野市,駒ケ谷６７０番地,,27,222,5830841,,,,,,,2022-04-06,1,,,,,ブドウノウエンイッカンドウ,0
511,2122001035746,新規,0,2022-04-06,2022-04-06,株式会社平川電設,,株式会社,大阪府,八尾市,若林町３丁目１２４番地の３２５,,27,212,5810038,,,,,,,2022-04-06,1,,,,,ヒラカワデンセツ,0
513,2130001071471,新規,0,2022-04-06,2022-04-06,株式会社Ｓｈａｒｉｎｇ　Ｋｙｏｔｏ,,株式会社,京都府,京都市中京区,烏丸通蛸薬師下る手洗水町６４７番地,,26,104,6048152,,,,,,,2022-04-06,1,,,,,シェアリングキョウト,0
516,2130003007853,新規,0,2022-04-06,2022-04-06,合同会社九八商店,,合同会社,京都府,京都市伏見区,桃山南大島町６５番地７,,26,109,6128017,,,,,,,2022-04-06,1,,,,,クハチショウテン,0
519,2140001125441,新規,0,2022-04-06,2022-04-06,株式会社酒井商店,,株式会社,兵庫県,尼崎市,浜田町５丁目２１番地３０１号,,28,202,6600062,,,,,,,2022-04-06,1,,,,,サカイショウテン,0
520,2140001125499,新規,0,2022-04-06,2022-04-06,株式会社Ｈａａｋ．,,株式会社,兵庫県,豊岡市,江本３６３番地,,28,209,6680852,,,,,,,2022-04-06,1,,,,,ハーク,0
521,2140001125540,新規,0,2022-04-06,2022-04-06,いい不動産プラザ株式会社,,株式会社,兵庫県,明石市,荷山町２７２３番地の１,,28,203,6730842,,,,,,,2022-04-06,1,,,,,イイフドウサンプラザ,0
522,2140001125581,新規,0,2022-04-06,2022-04-06,オフィスＹＯＵ株式会社,,株式会社,兵庫県,神戸市中央区,加納町６丁目３―１―８０９,,28,110,6500001,,,,,,,2022-04-06,1,,,,,オフィスユウ,0
524,2140005026132,新規,0,2022-04-06,2022-04-06,一般社団法人あうん,,その他の設立登記法人,兵庫県,高砂市,北浜町西濱１２１６番３,,28,216,6760000,,,,,,,2022-04-06,1,,,,,アウン,0
525,2150001025434,新規,0,2022-04-06,2022-04-06,株式会社Ｗｉｎｎｉｎｇ　Ｓｐｉｒｉｔ,,株式会社,奈良県,奈良市,東九条町８８３番地の４,,29,201,6308144,,,,,,,2022-04-06,1,,,,,ウイニングスピリット,0
527,2160005011074,新規,0,2022-04-06,2022-04-06,農事組合法人上仰木七郷,,その他の設立登記法人,滋賀県,大津市,仰木２丁目１９番３１号,,25,201,5200247,,,,,,,2022-04-06,1,,,,,カミオオギナナゴウ,0
528,2170001017041,新規,0,2022-04-06,2022-04-06,Ｃｈａｎｇｅ　Ｕｐ株式会社,,株式会社,和歌山県,和歌山市,吉田３８６番地,,30,201,6408343,,,,,,,2022-04-06,1,,,,,チェンジアップ,0
533,2180001150626,新規,0,2022-04-06,2022-04-06,株式会社ＫＥＣ,,株式会社,愛知県,名古屋市瑞穂区,八勝通２丁目２８番地の２,,23,108,4670042,,,,,,,2022-04-06,1,,,,,ケーイーシー,0
534,2180001150659,新規,0,2022-04-06,2022-04-06,ｕｐＳ株式会社,,株式会社,愛知県,津島市,江東町２丁目８０番地１ドマーニ江東１０２号,,23,208,4960855,,,,,,,2022-04-06,1,,,,,ユーピーエス,0
535,2180001150774,新規,0,2022-04-06,2022-04-06,株式会社野村石油店,,株式会社,愛知県,一宮市,佐千原字郷前３１番地５,,23,203,4910124,,,,,,,2022-04-06,1,,,,,ノムラセキユテン,0
537,2180005019702,新規,0,2022-04-06,2022-04-06,一般社団法人レモンスター未来家族図,,その他の設立登記法人,愛知県,名古屋市熱田区,六野１丁目２番２１号,,23,109,4560023,,,,,,,2022-04-06,1,,,,,レモンスターミライカゾクズ,0
538,2180005019710,新規,0,2022-04-06,2022-04-06,弁護士法人草野法律事務所,,その他の設立登記法人,愛知県,名古屋市中区,錦１丁目２０番２５号,,23,106,4600003,,,,,,,2022-04-06,1,,,,,クサノホウリツジムショ,0
539,2180301036079,新規,0,2022-04-06,2022-04-06,株式会社フォルメンテーラ,,株式会社,愛知県,西尾市,天竹町元海道１３,,23,213,4450051,,,,,,,2022-04-06,1,,,,,フォルメンテーラ,0
546,2200001039949,新規,0,2022-04-06,2022-04-06,株式会社溝口工業,,株式会社,岐阜県,羽島市,竹鼻町飯柄８４０番地,,21,209,5016233,,,,,,,2022-04-06,1,,,,,ミゾグチコウギョウ,0
550,2200003005528,新規,0,2022-04-06,2022-04-06,合同会社朴念,,合同会社,岐阜県,飛騨市,古川町栄１丁目１番３７号,,21,217,5094237,,,,,,,2022-04-06,1,,,,,ボクネン,0
551,2200005013322,新規,0,2022-04-06,2022-04-06,医療法人ダブルセブンズ,,その他の設立登記法人,岐阜県,羽島郡岐南町,三宅８丁目１３７番地ぎなんメディカルスクエアＡ区画,,21,302,5016002,,,,,,,2022-04-06,1,,,,,ダブルセブンズ,0
554,2220001024767,新規,0,2022-04-06,2022-04-06,株式会社Ｃｌａｓｐ,,株式会社,石川県,金沢市,東力３丁目１０４番地２,,17,201,9218015,,,,,,,2022-04-06,1,,,,,クラスプ,0
555,2220001024775,新規,0,2022-04-06,2022-04-06,株式会社伏原左官工業所,,株式会社,石川県,輪島市,河井町１６部１番地１,,17,204,9280001,,,,,,,2022-04-06,1,,,,,フシハラサカンコウギョウショ,0
556,2220001024783,新規,0,2022-04-06,2022-04-06,株式会社なかがわ獣医科病院,,株式会社,石川県,小松市,軽海町ワ３１番地,,17,203,9230824,,,,,,,2022-04-06,1,,,,,ナカガワジュウイカビョウイン,0
563,2240001059588,新規,0,2022-04-06,2022-04-06,株式会社セブンワークス,,株式会社,広島県,広島市南区,上東雲町２４番６－１０４号,,34,103,7340021,,,,,,,2022-04-06,1,,,,,セブンワークス,0
566,2250001019483,新規,0,2022-04-06,2022-04-06,Ｇｒｅｅｎ　Ｄａｙ株式会社,,株式会社,山口県,下関市,大字内日上２５７５番地,,35,201,7500252,,,,,,,2022-04-06,1,,,,,グリーンデイ,0
567,2250001019491,新規,0,2022-04-06,2022-04-06,ウェル・カル株式会社,,株式会社,山口県,長門市,油谷久富１３８２番地１,,35,211,7594502,,,,,,,2022-04-06,1,,,,,ウェルカル,0
572,2260003003872,新規,0,2022-04-06,2022-04-06,合同会社ライフスタート,,合同会社,岡山県,岡山市北区,奥田１丁目６番２号,,33,101,7000933,,,,,,,2022-04-06,1,,,,,ライフスタート,0
573,2270003001396,新規,0,2022-04-06,2022-04-06,合同会社ふるさと魅力デザイン研究所,,合同会社,鳥取県,境港市,弥生町１５４,,31,204,6840002,,,,,,,2022-04-06,1,,,,,フルサトミリョクデザインケンキュウジョ,0
580,2290001097030,新規,0,2022-04-06,2022-04-06,野口電器株式会社,,株式会社,福岡県,八女郡広川町,大字一條７９１番地,,40,544,8340122,,,,,,,2022-04-06,1,,,,,ノグチデンキ,0
581,2290001097063,新規,0,2022-04-06,2022-04-06,株式会社ＩＮＱ,,株式会社,福岡県,福岡市西区,横浜１丁目４７番１５号,,40,135,8190166,,,,,,,2022-04-06,1,,,,,インク,0
584,2290003012342,新規,0,2022-04-06,2022-04-06,ぷりんの宿合同会社,,合同会社,福岡県,糟屋郡新宮町,下府４丁目８番１－３０６号,,40,345,8110112,,,,,,,2022-04-06,1,,,,,プリンノヤド,0
587,2290005018619,新規,0,2022-04-06,2022-04-06,一般社団法人篠北パッションフットボールクラブ,,その他の設立登記法人,福岡県,糟屋郡須惠町,大字植木７６３番地１,,40,344,8112112,,,,,,,2022-04-06,1,,,,,ササキタパッションフットボールクラブ,0
588,2290801028408,新規,0,2022-04-06,2022-04-06,株式会社コネクト,,株式会社,福岡県,北九州市八幡西区,北筑２丁目１３番３４号,,40,109,8070857,,,,,,,2022-04-06,1,,,,,コネクト,0
590,2300005007066,新規,0,2022-04-06,2022-04-06,医療法人川口整形外科医院,,その他の設立登記法人,佐賀県,唐津市,東町１９番地６,,41,202,8470063,,,,,,,2022-04-06,1,,,,,カワグチセイケイゲカイイン,0
591,2310001017803,新規,0,2022-04-06,2022-04-06,株式会社石栄船舶,,株式会社,長崎県,佐世保市,小佐々町西川内２８０番地１６,,42,202,8570412,,,,,,,2022-04-06,1,,,,,セキエイセンパク,0
592,2310001017811,新規,0,2022-04-06,2022-04-06,株式会社ＢＡＳＥ,,株式会社,長崎県,島原市,万町４９８番地１,,42,203,8550804,,,,,,,2022-04-06,1,,,,,ベース,0
595,2330001029607,新規,0,2022-04-06,2022-04-06,株式会社ハウロラ,,株式会社,熊本県,玉名市,岱明町野口２４５６番地１,,43,206,8690222,,,,,,,2022-04-06,1,,,,,ハウロラ,0
596,2330001029615,新規,0,2022-04-06,2022-04-06,株式会社ＪＵＩＣＹ　ＮＡＧＩ,,株式会社,熊本県,八代市,西宮町１２０８番地,,43,202,8660804,,,,,,,2022-04-06,1,,,,,ジューシーナギ,0
597,2340003003749,新規,0,2022-04-06,2022-04-06,合同会社ＶＡＣ‐ＰＳ,,合同会社,鹿児島県,志布志市,有明町蓬原１８３７番地,,46,221,8997503,,,,,,,2022-04-06,1,,,,,ヴァップス,0
599,2350001017667,新規,0,2022-04-06,2022-04-06,株式会社山孝,,株式会社,宮崎県,小林市,東方５９６番地２,,45,205,8860001,,,,,,,2022-04-06,1,,,,,ヤマタカ,0
601,2370001048388,新規,0,2022-04-06,2022-04-06,ＡＤａｒｅ株式会社,,株式会社,宮城県,仙台市青葉区,星陵町２番１号,,04,101,9800872,,,,,,,2022-04-06,1,,,,,アデア,0
602,2370001048421,新規,0,2022-04-06,2022-04-06,ヒーローズカンパニー株式会社,,株式会社,宮城県,仙台市宮城野区,岩切字大正１６４番地の４,,04,102,9830821,,,,,,,2022-04-06,1,,,,,ヒーローズカンパニー,0
603,2370003005643,新規,0,2022-04-06,2022-04-06,合同会社良寿丸,,合同会社,宮城県,亘理郡亘理町,字舘南５１番地３９,,04,361,9892361,,,,,,,2022-04-06,1,,,,,リョウジュマル,0
608,2380001032705,新規,0,2022-04-06,2022-04-06,株式会社阿部建設,,株式会社,福島県,南会津郡下郷町,大字落合字下川原２２２番地,,07,362,9695343,,,,,,,2022-04-06,1,,,,,アベケンセツ,0
612,2380003005139,新規,0,2022-04-06,2022-04-06,合同会社ｋｏａｎａ,,合同会社,福島県,福島市,伏拝字沖４２番地の２パレスサザンクロスＩＩＩＢ棟１０５号室,00126160,07,201,9608154,,,,,,,2022-04-06,1,,,,,コアナ,0
613,2380003005147,新規,0,2022-04-06,2022-04-06,合同会社Ｃｅｓａｒｅ,,合同会社,福島県,会津若松市,山見町１４２番地の１,,07,202,9650021,,,,,,,2022-04-06,1,,,,,チューザレ,0
619,2400003002918,新規,0,2022-04-06,2022-04-06,合同会社メンテナンス洋野,,合同会社,岩手県,九戸郡洋野町,種市第２３地割６２番地８,,03,507,0287914,,,,,,,2022-04-06,1,,,,,メンテナンスヒロノ,0
625,2430001086340,新規,0,2022-04-06,2022-04-06,花ことば株式会社,,株式会社,北海道,札幌市中央区,南四条西２１丁目１番１２－１０８号,,01,101,0640804,,,,,,,2022-04-06,1,,,,,ハナコトバ,0
626,2430003013788,新規,0,2022-04-06,2022-04-06,合同会社Ｓｎｏｗ　Ｆｉｅｌｄ,,合同会社,北海道,札幌市西区,西野三条３丁目２番２号,,01,107,0630033,,,,,,,2022-04-06,1,,,,,スノーフィールド,0
628,2450001013664,新規,0,2022-04-06,2022-04-06,造形アートジャパン株式会社,,株式会社,北海道,旭川市,東光十条９丁目２番８号,,01,204,0788350,,,,,,,2022-04-06,1,,,,,ゾウケイアートジャパン,0
631,2460303000756,新規,0,2022-04-06,2022-04-06,合同会社Ｌａｍｂｋａ‐Ｎａ,,合同会社,北海道,北見市,高栄東町３丁目２０‐１０,,01,208,0900051,,,,,,,2022-04-06,1,,,,,ラムカーナ,0
637,2480003001813,新規,0,2022-04-06,2022-04-06,合同会社くらしメディカル,,合同会社,徳島県,阿南市,羽ノ浦町宮倉日開元１９番地１５,,36,204,7791102,,,,,,,2022-04-06,1,,,,,クラシメディカル,0
641,2500001024128,新規,0,2022-04-06,2022-04-06,レオンエンジ株式会社,,株式会社,愛媛県,松山市,北斎院町１３５番地,,38,201,7918031,,,,,,,2022-04-06,1,,,,,レオンエンジ,0
653,3010001225468,新規,0,2022-04-06,2022-04-06,株式会社Ａｉコーポレーション,,株式会社,東京都,中央区,銀座１丁目１５番４号,,13,102,1040061,,,,,,,2022-04-06,1,,,,,アイコーポレーション,0
654,3010001225690,新規,0,2022-04-06,2022-04-06,株式会社リバースエイジングリミテッド,,株式会社,東京都,中央区,勝どき２丁目１８番１号,,13,102,1040054,,,,,,,2022-04-06,1,,,,,リバースエイジングリミテッド,0
658,3010003037382,新規,0,2022-04-06,2022-04-06,合同会社ＹＵ,,合同会社,東京都,中央区,銀座８丁目８番１７号ＭＥＬＤＩＡ・ＧＩＮＺＡ・ＣＥＮＴＲＡＬ・ＢＵＩＬＤＩＮＧ２・Ｂ２,,13,102,1040061,,,,,,,2022-04-06,1,,,,,ユー,0
666,3010101015133,新規,0,2022-04-06,2022-04-06,レインズ株式会社,,株式会社,東京都,八王子市,中山５２８番地９,,13,201,1920374,,,,,,,2022-04-06,1,,,,,レインズ,0
667,3010103001890,新規,0,2022-04-06,2022-04-06,高尾コンサルティング合同会社,,合同会社,東京都,八王子市,長房町１４３６番地６,,13,201,1930824,,,,,,,2022-04-06,1,,,,,タカオコンサルティング,0
673,3010401166551,新規,0,2022-04-06,2022-04-06,株式会社ゴール,,株式会社,東京都,港区,浜松町２丁目２－１５浜松町ダイヤビル２Ｆ,,13,103,1050013,,,,,,,2022-04-06,1,,,,,ゴール,0
674,3010401166659,新規,0,2022-04-06,2022-04-06,株式会社ＭＩＫ,,株式会社,東京都,港区,南麻布２丁目８番５－１１０６号,,13,103,1060047,,,,,,,2022-04-06,1,,,,,エムアイケー,0
675,3010401166675,新規,0,2022-04-06,2022-04-06,モリソン製薬株式会社,,株式会社,東京都,港区,赤坂７丁目９－４,,13,103,1070052,,,,,,,2022-04-06,1,,,,,モリソンセイヤク,0
679,3010403027405,新規,0,2022-04-06,2022-04-06,ｆｕｉｓｅ合同会社,,合同会社,東京都,港区,南青山２丁目２番１５号ＷｉｎＡｏｙａｍａビルＵＣＦ６３５,,13,103,1070062,,,,,,,2022-04-06,1,,,,,フェイス,0
680,3010405020886,新規,0,2022-04-06,2022-04-06,一般社団法人芝浦エリアマネジメント,,その他の設立登記法人,東京都,港区,芝浦１丁目１番１号,,13,103,1050023,,,,,,,2022-04-06,1,,,,,シバウラエリアマネジメント,0
681,3010405020903,新規,0,2022-04-06,2022-04-06,ＲＢソーラーアイルホールディングス一般社団法人,,その他の設立登記法人,東京都,港区,虎ノ門３丁目２２番１０－２０１号,,13,103,1050001,,,,,,,2022-04-06,1,,,,,アールビーソーラーアイルホールディングス,0
683,3010601060926,新規,0,2022-04-06,2022-04-06,株式会社ｍａｘｉ,,株式会社,東京都,江東区,南砂７丁目５番２１－１１０９号,,13,108,1360076,,,,,,,2022-04-06,1,,,,,マキシィ,0
684,3010601060934,新規,0,2022-04-06,2022-04-06,ＹＭＫ株式会社,,株式会社,東京都,江東区,毛利１丁目２０番８号,,13,108,1350001,,,,,,,2022-04-06,1,,,,,ワイエムケー,0
687,3010701042469,新規,0,2022-04-06,2022-04-06,株式会社ｅパドック,,株式会社,東京都,品川区,勝島２丁目１番２号,,13,109,1400012,,,,,,,2022-04-06,1,,,,,イーパドック,0
689,3010801032857,新規,0,2022-04-06,2022-04-06,株式会社陶玉エステイト,,株式会社,東京都,大田区,山王２丁目３３番５号,,13,111,1430023,,,,,,,2022-04-06,1,,,,,トウギョクエステイト,0
692,3010901050668,新規,0,2022-04-06,2022-04-06,株式会社ＭｅｄｉＣｏｍａｚａｗａ,,株式会社,東京都,世田谷区,駒沢１丁目２番５－２０１,,13,112,1540012,,,,,,,2022-04-06,1,,,,,メディコマザワ,0
695,3010903007286,新規,0,2022-04-06,2022-04-06,ＬＯＲＤ　ＣＲＥＡＴＡ合同会社,,合同会社,東京都,世田谷区,宮坂２丁目１２番３号,,13,112,1560051,,,,,,,2022-04-06,1,,,,,ロードクレエイタ,0
697,3011001146745,新規,0,2022-04-06,2022-04-06,株式会社美しいままで,,株式会社,東京都,渋谷区,渋谷２丁目１９番１５号宮益坂ビルディング６０９,,13,113,1500002,,,,,,,2022-04-06,1,,,,,ウツクシイママデ,0
698,3011001146761,新規,0,2022-04-06,2022-04-06,株式会社芝山商事,,株式会社,東京都,渋谷区,千駄ヶ谷５丁目１７番２１号芝山ビル,,13,113,1510051,,,,,,,2022-04-06,1,,,,,シバヤマショウジ,0
702,3011003014446,新規,0,2022-04-06,2022-04-06,合同会社ＴＥＦＵＴＥＦＵ,,合同会社,東京都,渋谷区,神宮前６丁目２３番４号桑野ビル２階,,13,113,1500001,,,,,,,2022-04-06,1,,,,,テフテフ,0
703,3011003014470,新規,0,2022-04-06,2022-04-06,合同会社メッシュワーク,,合同会社,東京都,目黒区,目黒２丁目１１番３号印刷工場１階,,13,110,1530063,,,,,,,2022-04-06,1,,,,,メッシュワーク,0
708,3011101098416,新規,0,2022-04-06,2022-04-06,ｒ．ｎｅｘｕｓ株式会社,,株式会社,東京都,新宿区,下落合３丁目２０－３,,13,104,1610033,,,,,,,2022-04-06,1,,,,,アールネクサス,0
709,3011101098440,新規,0,2022-04-06,2022-04-06,株式会社ＴＯＲＱＵＥ,,株式会社,東京都,新宿区,西新宿７丁目５番５号Ｐｌａｚａ西新宿ＵＣＦ４０６,,13,104,1600023,,,,,,,2022-04-06,1,,,,,トルク,0
710,3011103011640,新規,0,2022-04-06,2022-04-06,Ｃｒｏｓｓｏｖｅｒ合同会社,,合同会社,東京都,新宿区,中落合３丁目２８－１４－７０２,,13,104,1610032,,,,,,,2022-04-06,1,,,,,クロスオーバー,0
713,3011203003793,新規,0,2022-04-06,2022-04-06,ピクルス合同会社,,合同会社,東京都,中野区,大和町１丁目６７番２－６０３号ザ・ウィンベル高円寺,,13,114,1650034,,,,,,,2022-04-06,1,,,,,ピクルス,0
715,3011401024138,新規,0,2022-04-06,2022-04-06,株式会社タワーズ,,株式会社,東京都,板橋区,双葉町２６番２０号,,13,119,1730011,,,,,,,2022-04-06,1,,,,,タワーズ,0
716,3011401024146,新規,0,2022-04-06,2022-04-06,株式会社ＡｑｕａＬｉＮＫ　ＴＯＫＹＯ,,株式会社,東京都,板橋区,桜川３丁目２０－１３エム桜川３０１,,13,119,1740075,,,,,,,2022-04-06,1,,,,,アクアリンクトウキョー,0
717,3011403003619,新規,0,2022-04-06,2022-04-06,合同会社陸玖創工,,合同会社,東京都,板橋区,小茂根１丁目１５番５号,,13,119,1730037,,,,,,,2022-04-06,1,,,,,リクソウコウ,0
718,3011501027916,新規,0,2022-04-06,2022-04-06,富士不動産株式会社,,株式会社,東京都,北区,東田端１丁目９番１号,,13,117,1140013,,,,,,,2022-04-06,1,,,,,フジフドウサン,0
723,3012401039051,新規,0,2022-04-06,2022-04-06,株式会社ＢＥＬＭＥ,,株式会社,東京都,武蔵野市,吉祥寺本町１丁目５番１号－８Ｆ,,13,203,1800004,,,,,,,2022-04-06,1,,,,,ベルム,0
726,3012801021484,新規,0,2022-04-06,2022-04-06,株式会社リボーンコンサルティング,,株式会社,東京都,日野市,南平６丁目２０番地の１０,,13,212,1910041,,,,,,,2022-04-06,1,,,,,リボーンコンサルティング,0
727,3012803002747,新規,0,2022-04-06,2022-04-06,ＢＥＬＩＦＵＮ合同会社,,合同会社,東京都,日野市,豊田２丁目１８番地の２ペットの気持ち１０１,,13,212,1910053,,,,,,,2022-04-06,1,,,,,ビライファン,0
732,3020001145748,新規,0,2022-04-06,2022-04-06,アロハケーキ株式会社,,株式会社,神奈川県,横浜市港北区,新吉田東３丁目３８－３,,14,109,2230058,,,,,,,2022-04-06,1,,,,,アロハケーキ,0
733,3020001145938,新規,0,2022-04-06,2022-04-06,株式会社福川工業,,株式会社,神奈川県,横浜市南区,南吉田町２丁目２３番地１ランドシティ横濱吉野町レジデンス４０４号,,14,105,2320012,,,,,,,2022-04-06,1,,,,,フクガワコウギョウ,0
734,3020001145946,新規,0,2022-04-06,2022-04-06,＿源商事株式会社,00126157,株式会社,神奈川県,横浜市神奈川区,新町５番５号ウィナス新町１Ｆ,,14,102,2210043,,,,,,,2022-04-06,1,,,,,キンゲンショウジ,0
735,3020001145962,新規,0,2022-04-06,2022-04-06,株式会社イロアス,,株式会社,神奈川県,横浜市戸塚区,下倉田町３９７番地,,14,110,2440815,,,,,,,2022-04-06,1,,,,,イロアス,0
736,3020001145979,新規,0,2022-04-06,2022-04-06,ＬＡＧ株式会社,,株式会社,神奈川県,横浜市中区,桜木町１丁目１０１番地１クロスゲート７階,,14,104,2310062,,,,,,,2022-04-06,1,,,,,ラグ,0
737,3020001145987,新規,0,2022-04-06,2022-04-06,株式会社ＳＡＫＵＲＡ　ＩＮＶＥＳＴＭＥＮＴ,,株式会社,神奈川県,横浜市中区,住吉町１丁目１番地第三柳下ビル４０３,,14,104,2310013,,,,,,,2022-04-06,1,,,,,サクラインベストメント,0
748,3021001075605,新規,0,2022-04-06,2022-04-06,株式会社ＢＡＳＨＩＴＡＫＡ,,株式会社,神奈川県,大和市,中央林間西４丁目２７番２２－３号,,14,213,2420008,,,,,,,2022-04-06,1,,,,,バシタカ,0
749,3021001075621,新規,0,2022-04-06,2022-04-06,株式会社ネクスト,,株式会社,神奈川県,足柄上郡開成町,金井島１１２７番地６,,14,366,2580028,,,,,,,2022-04-06,1,,,,,ネクスト,0
750,3021001075646,新規,0,2022-04-06,2022-04-06,Ａ．ｅｌｆ株式会社,,株式会社,神奈川県,足柄上郡開成町,みなみ４丁目６番地１７,,14,366,2580029,,,,,,,2022-04-06,1,,,,,エードットエルフ,0
758,3030001147529,新規,0,2022-04-06,2022-04-06,株式会社インテリアＮＳＫ,,株式会社,埼玉県,八潮市,大字二丁目９２４番地７,,11,234,3400811,,,,,,,2022-04-06,1,,,,,インテリアエヌエスケー,0
759,3030001147537,新規,0,2022-04-06,2022-04-06,株式会社ミキオート,,株式会社,埼玉県,草加市,柿木町２１０番地６,,11,221,3400001,,,,,,,2022-04-06,1,,,,,ミキオート,0
760,3030001147578,新規,0,2022-04-06,2022-04-06,株式会社メディスケット,,株式会社,埼玉県,三郷市,上彦川戸８５２番地１,,11,237,3410006,,,,,,,2022-04-06,1,,,,,メディスケット,0
761,3030001147586,新規,0,2022-04-06,2022-04-06,株式会社上原工業,,株式会社,埼玉県,川越市,大字下赤坂５６２番地２１,,11,201,3501155,,,,,,,2022-04-06,1,,,,,,0
762,3030001147611,新規,0,2022-04-06,2022-04-06,株式会社Ｋ‐ＳＰＥＣ,,株式会社,埼玉県,比企郡ときがわ町,大字田黒５２１番地,,11,349,3550341,,,,,,,2022-04-06,1,,,,,ケイスペック,0
763,3030001147644,新規,0,2022-04-06,2022-04-06,株式会社ＨＩＳファーマーズ,,株式会社,埼玉県,蓮田市,大字井沼２１０－７,,11,238,3490135,,,,,,,2022-04-06,1,,,,,エイチアイエスファーマーズ,0
770,3030003019148,新規,0,2022-04-06,2022-04-06,合同会社ＹＵＭＥ,,合同会社,埼玉県,春日部市,上蛭田４５２番地６,,11,214,3440046,,,,,,,2022-04-06,1,,,,,ユメ,0
771,3030003019164,新規,0,2022-04-06,2022-04-06,合同会社Ｍｉｍｉｑｕｅ,,合同会社,埼玉県,志木市,館１丁目１番５－４０１号,,11,228,3530006,,,,,,,2022-04-06,1,,,,,ミミック,0
772,3030005020780,新規,0,2022-04-06,2022-04-06,医療法人社団Ｍｉ,,その他の設立登記法人,埼玉県,さいたま市南区,文蔵２丁目１番２号信太ビル１０２号室,,11,108,3360025,,,,,,,2022-04-06,1,,,,,エムアイ,0
778,3040001122869,新規,0,2022-04-06,2022-04-06,株式会社ＨＩＫＡＲＩ　ＤＥＮＴＡＬ　ＣＲＡＦＴ,,株式会社,千葉県,山武郡横芝光町,宮川６６３６番地１,,12,410,2891727,,,,,,,2022-04-06,1,,,,,ヒカリデンタルクラフト,0
779,3040001122919,新規,0,2022-04-06,2022-04-06,株式会社ライオン,,株式会社,千葉県,市川市,市川１丁目６－１５－１２０４,,12,203,2720034,,,,,,,2022-04-06,1,,,,,ライオン,0
780,3040001122927,新規,0,2022-04-06,2022-04-06,株式会社ＳＳＳ,,株式会社,千葉県,松戸市,松戸１８３６番地の２,,12,207,2710092,,,,,,,2022-04-06,1,,,,,スリーエス,0
783,3040003019824,新規,0,2022-04-06,2022-04-06,合同会社リバーアップ,,合同会社,千葉県,佐倉市,ユーカリが丘１丁目３７番１２号,,12,212,2850858,,,,,,,2022-04-06,1,,,,,リバーアップ,0
784,3040003019832,新規,0,2022-04-06,2022-04-06,合同会社ＤＥＮＫＩＤ,,合同会社,千葉県,富里市,七栄２８２番地４２,,12,233,2860221,,,,,,,2022-04-06,1,,,,,,0
788,3050001050879,新規,0,2022-04-06,2022-04-06,株式会社ＴＳ．Ｍ,,株式会社,茨城県,下妻市,宗道１３９番地７,,08,210,3040814,,,,,,,2022-04-06,1,,,,,ティーエスドットエム,0
789,3050001050895,新規,0,2022-04-06,2022-04-06,株式会社ＣＴＣＳ,,株式会社,茨城県,牛久市,さくら台１丁目４４番地３１,,08,219,3001217,,,,,,,2022-04-06,1,,,,,シーティーシーエス,0
791,3050003006482,新規,0,2022-04-06,2022-04-06,合同会社飯田技研,,合同会社,茨城県,坂東市,弓田６１４番地,,08,228,3060607,,,,,,,2022-04-06,1,,,,,イイダギケン,0
792,3050003006490,新規,0,2022-04-06,2022-04-06,やまとひめ合同会社,,合同会社,茨城県,つくば市,吾妻１丁目１４番地１－１５１５号,,08,220,3050031,,,,,,,2022-04-06,1,,,,,ヤマトヒメ,0
794,3070001039103,新規,0,2022-04-06,2022-04-06,株式会社Ｔ’ｚ,,株式会社,群馬県,富岡市,田篠１６３６番地１,,10,210,3702314,,,,,,,2022-04-06,1,,,,,ティーズ,0
795,3070001039111,新規,0,2022-04-06,2022-04-06,株式会社オオサワガーデン,,株式会社,群馬県,前橋市,富田町１５２３番地３,,10,201,3792161,,,,,,,2022-04-06,1,,,,,オオサワガーデン,0
797,3070003004443,新規,0,2022-04-06,2022-04-06,合同会社ＫＬＬＣ,,合同会社,群馬県,みどり市,大間々町大間々１４３０番地,,10,212,3760101,,,,,,,2022-04-06,1,,,,,ケイエルエルシー,0
800,3080003002776,新規,0,2022-04-06,2022-04-06,合同会社Ｈｅａｒｔ　ｏｆ　Ｊｕｓｔｉｃｅ,,合同会社,静岡県,静岡市葵区,大岩２丁目３７番１２号,,22,101,4200886,,,,,,,2022-04-06,1,,,,,ハートオブジャスティス,0
803,3080101023187,新規,0,2022-04-06,2022-04-06,株式会社ｐｕｒａ　ｖｉｄａ,,株式会社,静岡県,沼津市,内浦三津２４８‐２,,22,203,4100223,,,,,,,2022-04-06,1,,,,,プラビーダ,0
804,3080101023204,新規,0,2022-04-06,2022-04-06,株式会社ライフライン,,株式会社,静岡県,富士市,松本３７２－１,,22,210,4160903,,,,,,,2022-04-06,1,,,,,ライフライン,0
808,3090001017503,新規,0,2022-04-06,2022-04-06,株式会社フルハウス,,株式会社,山梨県,甲府市,上石田４丁目９番３７号グローリオ昭和通り１０１,,19,201,4000041,,,,,,,2022-04-06,1,,,,,フルハウス,0
809,3090003002073,新規,0,2022-04-06,2022-04-06,合同会社源工芸,,合同会社,山梨県,甲府市,上石田４丁目５番３号,,19,201,4000041,,,,,,,2022-04-06,1,,,,,ミナモトコウゲイ,0
812,3100001035214,新規,0,2022-04-06,2022-04-06,株式会社永輝,,株式会社,長野県,小諸市,六供２丁目３番１４号,,20,208,3840027,,,,,,,2022-04-06,1,,,,,エイキ,0
815,3100003006493,新規,0,2022-04-06,2022-04-06,合同会社クー,,合同会社,長野県,諏訪市,大字四賀７７１８番地４２０,,20,206,3920012,,,,,,,2022-04-06,1,,,,,クー,0
819,3100005012845,新規,0,2022-04-06,2022-04-06,一般社団法人ながの移動販売つなぎ局,,その他の設立登記法人,長野県,長野市,大字上ケ屋２４７１番地３５５０,,20,201,3800888,,,,,,,2022-04-06,1,,,,,ナガノイドウハンバイツナギキョク,0
822,3110005016787,新規,0,2022-04-06,2022-04-06,一般社団法人美穂の里,,その他の設立登記法人,新潟県,新潟市中央区,関新３丁目３番３１号,,15,103,9518141,,,,,,,2022-04-06,1,,,,,ミホノサト,0
839,3120001244845,新規,0,2022-04-06,2022-04-06,ｓｐｅｓ株式会社,,株式会社,大阪府,大阪市東成区,深江北２丁目１番４号,,27,115,5370001,,,,,,,2022-04-06,1,,,,,スペース,0
840,3120001244928,新規,0,2022-04-06,2022-04-06,Ｆエージェンシー株式会社,,株式会社,大阪府,大阪市北区,大淀中５丁目６番６号みおつくし西梅田ＩＩＩ３０３号室,00126159,27,127,5310076,,,,,,,2022-04-06,1,,,,,エフエージェンシー,0
841,3120001244944,新規,0,2022-04-06,2022-04-06,株式会社満星,,株式会社,大阪府,大阪市住吉区,苅田１丁目５－２１シャトー繁美１Ｂ,,27,120,5580011,,,,,,,2022-04-06,1,,,,,ミツボシ,0
842,3120001244952,新規,0,2022-04-06,2022-04-06,株式会社クワトロマーモット,,株式会社,大阪府,大阪市城東区,中央２丁目１０番１９号７０４,,27,118,5360005,,,,,,,2022-04-06,1,,,,,クワトロマーモット,0
843,3120001244960,新規,0,2022-04-06,2022-04-06,株式会社Ｓｗｉｎｄｉｅ,,株式会社,大阪府,大阪市中央区,南船場１丁目１６番２７号ブラービ南船場１２０５号,,27,128,5420081,,,,,,,2022-04-06,1,,,,,スウィンディー,0
844,3120001244969,新規,0,2022-04-06,2022-04-06,小笠原住宅環境株式会社,,株式会社,大阪府,大阪市西淀川区,御幣島４丁目１３番１１号,,27,113,5550012,,,,,,,2022-04-06,1,,,,,オガサハラジュウタクカンキョウ,0
845,3120001245001,新規,0,2022-04-06,2022-04-06,コトモ株式会社,,株式会社,大阪府,大阪市西成区,南津守６丁目８番２６号,,27,122,5570063,,,,,,,2022-04-06,1,,,,,コトモ,0
846,3120003021375,新規,0,2022-04-06,2022-04-06,ＴＲＵＮＧ　ＡＮＨ合同会社,,合同会社,大阪府,大阪市大正区,三軒家西１丁目２５－２６,,27,108,5510001,,,,,,,2022-04-06,1,,,,,チュンアン,0
847,3120003021383,新規,0,2022-04-06,2022-04-06,合同会社ＣＩＥＬ,,合同会社,大阪府,大阪市旭区,清水４丁目６番１９号,,27,117,5350021,,,,,,,2022-04-06,1,,,,,シール,0
848,3120003021391,新規,0,2022-04-06,2022-04-06,合同会社Ｓｌｏｔｈｉｅｓ,,合同会社,大阪府,寝屋川市,大成町２１番２１号,,27,215,5720819,,,,,,,2022-04-06,1,,,,,スローシーズ,0
849,3120003021409,新規,0,2022-04-06,2022-04-06,合同会社城東テクノ福利厚生サービス,,合同会社,大阪府,大阪市中央区,今橋３丁目３番１３号,,27,128,5410042,,,,,,,2022-04-06,1,,,,,ジョウトウテクノフクリコウセイサービス,0
850,3120003021417,新規,0,2022-04-06,2022-04-06,Ｏｎｅ　Ｒａｂｂｉｔｓ合同会社,,合同会社,大阪府,大阪市北区,梅田１丁目１－３大阪駅前第３ビル２９階１－１－１号室,,27,127,5300001,,,,,,,2022-04-06,1,,,,,ワンラビッツ,0
851,3120003021433,新規,0,2022-04-06,2022-04-06,ＫＰＲＥ合同会社,,合同会社,大阪府,大阪市北区,中之島３丁目６番１６号,,27,127,5300005,,,,,,,2022-04-06,1,,,,,ケーピーアールイー,0
853,3120005022875,新規,0,2022-04-06,2022-04-06,一般社団法人日本ＣＢＤ研究協会,,その他の設立登記法人,大阪府,大阪市中央区,心斎橋筋１丁目８番３号心斎橋ＰＡＲＣＯ４階ＳＫｉｉＭａ内,,27,128,5420085,,,,,,,2022-04-06,1,,,,,ニホンシービーディーケンキュウキョウカイ,0
857,3120101065324,新規,0,2022-04-06,2022-04-06,株式会社ＤＡＩＳＨＩＮ,,株式会社,大阪府,堺市西区,草部２４１番地５,,27,144,5938312,,,,,,,2022-04-06,1,,,,,ダイシン,0
858,3120101065340,新規,0,2022-04-06,2022-04-06,株式会社エルホールディングス,,株式会社,大阪府,堺市西区,浜寺昭和町３丁４０３番地１,,27,144,5928345,,,,,,,2022-04-06,1,,,,,エルホールディングス,0
859,3120101065349,新規,0,2022-04-06,2022-04-06,株式会社バンビソリューションズ,,株式会社,大阪府,藤井寺市,岡２丁目８番９号,,27,226,5830027,,,,,,,2022-04-06,1,,,,,バンビソリューションズ,0
864,3120901045806,新規,0,2022-04-06,2022-04-06,株式会社栄伸塗装,,株式会社,大阪府,箕面市,粟生新家３丁目７番１０号,,27,220,5620024,,,,,,,2022-04-06,1,,,,,エイシントソウ,0
865,3120901045814,新規,0,2022-04-06,2022-04-06,ＹＫスペース株式会社,,株式会社,大阪府,箕面市,船場東３丁目１１番６号,,27,220,5620035,,,,,,,2022-04-06,1,,,,,ワイケイスペース,0
869,3122001035729,新規,0,2022-04-06,2022-04-06,株式会社プリンティング・シマ,,株式会社,大阪府,東大阪市,荒本西３丁目６番１５号,,27,227,5770024,,,,,,,2022-04-06,1,,,,,プリンティングシマ,0
874,3130001071446,新規,0,2022-04-06,2022-04-06,ＩＡＧ・ＩＳＯＩ株式会社,,株式会社,京都府,京都市南区,上鳥羽卯ノ花町４８番１長束ビル２－６,,26,107,6018141,,,,,,,2022-04-06,1,,,,,アイエージーイソイ,0
875,3130001071470,新規,0,2022-04-06,2022-04-06,株式会社ＸＩＮ,,株式会社,京都府,京都市中京区,六角通東洞院西入堂之前町２５４番地,,26,104,6048134,,,,,,,2022-04-06,1,,,,,サイン,0
876,3130001071479,新規,0,2022-04-06,2022-04-06,株式会社滝本鈑金,,株式会社,京都府,京都市伏見区,日野西風呂町５３－８,,26,109,6011423,,,,,,,2022-04-06,1,,,,,タキモトバンキン,0
877,3130001071487,新規,0,2022-04-06,2022-04-06,株式会社八紘,,株式会社,京都府,京都市下京区,仏光寺通柳馬場西入東前町４１４番地,,26,106,6008074,,,,,,,2022-04-06,1,,,,,ハッコウ,0
878,3130003007844,新規,0,2022-04-06,2022-04-06,全一国際合同会社,,合同会社,京都府,宮津市,字国分小字畔田５４番８,,26,205,6292234,,,,,,,2022-04-06,1,,,,,ゼンイチコクサイ,0
879,3130003007860,新規,0,2022-04-06,2022-04-06,合同会社エムエム,,合同会社,京都府,京都市右京区,梅津堤上町３５番地ハイメゾン伊藤１０３,,26,108,6150904,,,,,,,2022-04-06,1,,,,,エムエム,0
880,3140001125449,新規,0,2022-04-06,2022-04-06,株式会社中井建設,,株式会社,兵庫県,姫路市,御立東３丁目２１番２７号,,28,201,6700072,,,,,,,2022-04-06,1,,,,,ナカイケンセツ,0
881,3140001125498,新規,0,2022-04-06,2022-04-06,株式会社リベルテ,,株式会社,兵庫県,明石市,明南町２丁目４番２４号,,28,203,6730001,,,,,,,2022-04-06,1,,,,,リベルテ,0
882,3140003017529,新規,0,2022-04-06,2022-04-06,合同会社Ｓｉ‐ｎｏ,,合同会社,兵庫県,宝塚市,南ひばりガ丘２丁目１１番２０号,,28,214,6650811,,,,,,,2022-04-06,1,,,,,シーノ,0
883,3140003017537,新規,0,2022-04-06,2022-04-06,合同会社エムズ経営労務コンサルタント,,合同会社,兵庫県,伊丹市,西台３丁目８番１０号,,28,207,6640858,,,,,,,2022-04-06,1,,,,,エムズケイエイロウムコンサルタント,0
884,3140003017545,新規,0,2022-04-06,2022-04-06,合同会社のら猫クリニック兵庫,,合同会社,兵庫県,神戸市垂水区,名谷町字猿倉２９４,,28,108,6550852,,,,,,,2022-04-06,1,,,,,ノラネコクリニックヒョウゴ,0
886,3140005026131,新規,0,2022-04-06,2022-04-06,一般社団法人夙川座,,その他の設立登記法人,兵庫県,西宮市,樋之池町６番５－４０１号,,28,204,6620084,,,,,,,2022-04-06,1,,,,,,0
888,3170001017049,新規,0,2022-04-06,2022-04-06,寺谷農園株式会社,,株式会社,和歌山県,日高郡みなべ町,清川４３４６番地,,30,391,6450201,,,,,,,2022-04-06,1,,,,,テラタニノウエン,0
899,3180001150600,新規,0,2022-04-06,2022-04-06,株式会社ＢＲＯＴＨＥＲ,,株式会社,愛知県,名古屋市中区,栄５丁目２６番３９号ＧＳ栄ビル３Ｆ,,23,106,4600008,,,,,,,2022-04-06,1,,,,,ブラザー,0
904,3180005019718,新規,0,2022-04-06,2022-04-06,特定非営利活動法人学校図書館総合研究所,,その他の設立登記法人,愛知県,名古屋市名東区,藤里町１２０１番地藤の木団地５棟５０１号,,23,115,4650036,,,,,,,2022-04-06,1,,,,,ガッコウトショカンソウゴウケンキュウショ,0
905,3180005019726,新規,0,2022-04-06,2022-04-06,一般社団法人ソエルテ中部,,その他の設立登記法人,愛知県,名古屋市千種区,覚王山通８丁目７０番地の１サンクレア池下１号棟１２０３号室,,23,101,4640841,,,,,,,2022-04-06,1,,,,,ソエルテチュウブ,0
907,3180301036094,新規,0,2022-04-06,2022-04-06,株式会社Ｒｉｎａｎａ,,株式会社,愛知県,安城市,和泉町井ノ上３番地１４９,,23,212,4441225,,,,,,,2022-04-06,1,,,,,リナナ,0
909,3200001024826,新規,0,2022-04-06,2022-04-06,小嶋土地計画株式会社,,株式会社,岐阜県,高山市,八軒町１丁目１０番地の２,,21,203,5060012,,,,,,,2022-04-06,1,,,,,コジマトチケイカク,0
910,3200001039907,新規,0,2022-04-06,2022-04-06,株式会社筑後,,株式会社,岐阜県,多治見市,笠原町１２６４番地の３７,,21,204,5070901,,,,,,,2022-04-06,1,,,,,チクゴ,0
911,3210001018868,新規,0,2022-04-06,2022-04-06,株式会社浅藤牧場牛乃道,,株式会社,福井県,坂井市,三国町池上第１０１号４２番地,,18,210,9130001,,,,,,,2022-04-06,1,,,,,アサフジボクジョウウシノドウ,0
912,3210001018876,新規,0,2022-04-06,2022-04-06,株式会社コサカ塗装,,株式会社,福井県,福井市,西谷３丁目１０５番地,,18,201,9188023,,,,,,,2022-04-06,1,,,,,コサカトソウ,0
915,3220001024782,新規,0,2022-04-06,2022-04-06,株式会社ＢＰＯマネジメント,,株式会社,石川県,金沢市,広岡２丁目１２番６号,,17,201,9200031,,,,,,,2022-04-06,1,,,,,ビーピーオーマネジメント,0
920,3240001059538,新規,0,2022-04-06,2022-04-06,神田ドック株式会社,,株式会社,広島県,呉市,川尻町東２丁目１４番２１号,,34,202,7372607,,,,,,,2022-04-06,1,,,,,カンダドック,0
921,3240001059554,新規,0,2022-04-06,2022-04-06,株式会社池田電工,,株式会社,広島県,東広島市,西条町御薗宇４１８８番地６,,34,212,7390024,,,,,,,2022-04-06,1,,,,,イケダデンコウ,0
922,3240001059570,新規,0,2022-04-06,2022-04-06,株式会社グリーンクルセード,,株式会社,広島県,広島市佐伯区,美鈴が丘西５丁目１１番１０号,,34,108,7315114,,,,,,,2022-04-06,1,,,,,グリーンクルセード,0
923,3240001059579,新規,0,2022-04-06,2022-04-06,株式会社ミナデイン,,株式会社,広島県,三次市,十日市中３丁目１２番５号,,34,209,7280012,,,,,,,2022-04-06,1,,,,,ミナデイン,0
924,3240001059587,新規,0,2022-04-06,2022-04-06,株式会社クレスト,,株式会社,広島県,広島市南区,青崎２丁目４番３６号,,34,103,7340053,,,,,,,2022-04-06,1,,,,,クレスト,0
926,3240003005580,新規,0,2022-04-06,2022-04-06,ビーアロー合同会社,,合同会社,広島県,広島市安佐南区,高取北１丁目６番３５号,,34,105,7310144,,,,,,,2022-04-06,1,,,,,ビーアロー,0
933,3260001036700,新規,0,2022-04-06,2022-04-06,松永システム開発株式会社,,株式会社,岡山県,津山市,戸島６３４番地２８,,33,203,7080016,,,,,,,2022-04-06,1,,,,,マツナガシステムカイハツ,0
934,3260001036733,新規,0,2022-04-06,2022-04-06,株式会社悠松工業,,株式会社,岡山県,岡山市南区,西高崎９２番地２６,,33,104,7091204,,,,,,,2022-04-06,1,,,,,ユウショウコウギョウ,0
935,3280001008672,新規,0,2022-04-06,2022-04-06,株式会社ＳＴＡＮＤ　ＵＰ,,株式会社,島根県,松江市,宍道町白石１７４４番地１１,,32,201,6990402,,,,,,,2022-04-06,1,,,,,スタンドアップ,0
941,3290801028407,新規,0,2022-04-06,2022-04-06,株式会社ティラ,,株式会社,福岡県,北九州市若松区,青葉台南２丁目４番１２号,,40,103,8080142,,,,,,,2022-04-06,1,,,,,ティラ,0
942,3290801028415,新規,0,2022-04-06,2022-04-06,株式会社宍戸工業,,株式会社,福岡県,北九州市小倉北区,妙見町４番６３号,,40,106,8020041,,,,,,,2022-04-06,1,,,,,シシドコウギョウ,0
946,3300005007065,新規,0,2022-04-06,2022-04-06,一般社団法人佐賀県ｅスポーツ協会,,その他の設立登記法人,佐賀県,佐賀市,白山２丁目７番１号エスプラッツ３階,,41,201,8400826,,,,,,,2022-04-06,1,,,,,サガケンイースポーツキョウカイ,0
947,3310001017802,新規,0,2022-04-06,2022-04-06,株式会社今里興業,,株式会社,長崎県,大村市,久原１丁目２２３番地３２,,42,205,8560835,,,,,,,2022-04-06,1,,,,,イマザトコウギョウ,0
948,3320001018997,新規,0,2022-04-06,2022-04-06,株式会社彰成,,株式会社,大分県,別府市,大字鶴見２９３７番地の９,,44,202,8740840,,,,,,,2022-04-06,1,,,,,ショウセイ,0
949,3320001019005,新規,0,2022-04-06,2022-04-06,株式会社浦口工業,,株式会社,大分県,大分市,大字片島９０１番地の１ベルドミール５番館２０２,,44,201,8700943,,,,,,,2022-04-06,1,,,,,ウラグチコウギョウ,0
952,3330001029597,新規,0,2022-04-06,2022-04-06,株式会社ＡＲＣＡＴＨ　ＨＯＭＥ,,株式会社,熊本県,熊本市南区,御幸笛田２丁目３番３号,,43,104,8614172,,,,,,,2022-04-06,1,,,,,アルカスホーム,0
953,3330001029614,新規,0,2022-04-06,2022-04-06,エネフーズ株式会社,,株式会社,熊本県,熊本市北区,高平２丁目２１番２６号,,43,105,8600085,,,,,,,2022-04-06,1,,,,,エネフーズ,0
954,3330003009317,新規,0,2022-04-06,2022-04-06,合同会社オフィス内野ビル,,合同会社,熊本県,荒尾市,緑ケ丘３丁目５番地９,,43,204,8640033,,,,,,,2022-04-06,1,,,,,オフィスウチノビル,0
962,3350001017674,新規,0,2022-04-06,2022-04-06,株式会社ＯＬＥＮＯ　ＳＹＳＴＥＭ,,株式会社,宮崎県,都城市,南鷹尾町１３街区２号,,45,202,8850082,,,,,,,2022-04-06,1,,,,,オレノシステム,0
963,3350001017682,新規,0,2022-04-06,2022-04-06,裕建ホーム株式会社,,株式会社,宮崎県,宮崎市,下北方町平ノ下５２００番地３,,45,201,8800035,,,,,,,2022-04-06,1,,,,,ユウケンホーム,0
967,3370001048387,新規,0,2022-04-06,2022-04-06,株式会社ＦｉＥＬＤ　ＳＵＰＰＯＲＴ,,株式会社,宮城県,仙台市青葉区,国分町１丁目８番１３号仙台協立ビル３階２号,,04,101,9800803,,,,,,,2022-04-06,1,,,,,フィールドサポート,0
968,3370001048404,新規,0,2022-04-06,2022-04-06,宮城相馬山林株式会社,,株式会社,宮城県,石巻市,水押２丁目４番１号,,04,202,9860803,,,,,,,2022-04-06,1,,,,,ミヤギソウマサンリン,0
971,3380001032704,新規,0,2022-04-06,2022-04-06,アクアクリーン株式会社,,株式会社,福島県,石川郡石川町,字渡里沢５２番地１,,07,501,9637863,,,,,,,2022-04-06,1,,,,,アクアクリーン,0
972,3380001032712,新規,0,2022-04-06,2022-04-06,株式会社豊栄,,株式会社,福島県,いわき市,平赤井字不動堂７番地の１８,,07,204,9793131,,,,,,,2022-04-06,1,,,,,ホウエイ,0
973,3380001032729,新規,0,2022-04-06,2022-04-06,株式会社にじファーム,,株式会社,福島県,相馬市,北小泉字寺前２６番地,,07,209,9760012,,,,,,,2022-04-06,1,,,,,ニジファーム,0
974,3380003005146,新規,0,2022-04-06,2022-04-06,ジーノ合同会社,,合同会社,福島県,郡山市,七ツ池町６番３号,,07,203,9630000,,,,,,,2022-04-06,1,,,,,ジーノ,0
979,3400001015854,新規,0,2022-04-06,2022-04-06,Ｓ＆Ｈ株式会社,,株式会社,岩手県,盛岡市,向中野４丁目２４番２２号,,03,201,0200851,,,,,,,2022-04-06,1,,,,,エスアンドエイチ,0
985,3420001017790,新規,0,2022-04-06,2022-04-06,株式会社佐藤産業ビルド,,株式会社,青森県,青森市,佃２丁目９番２２号パレスフジＡ１０１,,02,201,0300962,,,,,,,2022-04-06,1,,,,,サトウサンギョウビルド,0
995,3480001011689,新規,0,2022-04-06,2022-04-06,株式会社Ｓ‐ＬＩＮＥ,,株式会社,徳島県,徳島市,南出来島町１丁目６９番地,,36,201,7700824,,,,,,,2022-04-06,1,,,,,エスライン,0
996,3480001011697,新規,0,2022-04-06,2022-04-06,株式会社ＰＲＩＳＭ,,株式会社,徳島県,徳島市,金沢１丁目１番１４号,,36,201,7700871,,,,,,,2022-04-06,1,,,,,プリズム,0
998,3480003001812,新規,0,2022-04-06,2022-04-06,合同会社はのラボ,,合同会社,徳島県,小松島市,和田島町字浜塚９番地の２３,,36,203,7730025,,,,,,,2022-04-06,1,,,,,ハノラボ,0
1000,3500003002808,新規,0,2022-04-06,2022-04-06,合同会社Ｗｏｒｌｄ　Ｂｒｉｄｇｅ　Ｊａｐａｎ,,合同会社,愛媛県,宇和島市,三間町北増穂４７６番地,,38,203,7981111,,,,,,,2022-04-06,1,,,,,ワールドブリッジジャパン,0
1003,3700150107562,新規,0,2022-04-06,2022-03-31,ＢＬＯＯＤ　ＳＴＡＩＮ　ＣＨＩＬＤ,,その他,大阪府,泉大津市,末広町２丁目１－１０,,27,206,5950002,,,,,,,2022-03-31,1,,,,,ブラツドステインチヤイルド,0
1012,4010001225616,新規,0,2022-04-06,2022-04-06,株式会社Ｒ‐ｓｔａｇｅ,,株式会社,東京都,中央区,銀座８丁目５番１３号マキシ・ド・ビル６階,,13,102,1040061,,,,,,,2022-04-06,1,,,,,アールステージ,0
1013,4010001225632,新規,0,2022-04-06,2022-04-06,株式会社Ｎｅｘｔ　Ｓｔａｇｅ,,株式会社,東京都,中央区,佃３丁目２番１２－１１０４号,,13,102,1040051,,,,,,,2022-04-06,1,,,,,ネクストステージ,0
1014,4010001225665,新規,0,2022-04-06,2022-04-06,ツリーガード株式会社,,株式会社,東京都,千代田区,丸の内２丁目３番２号郵船ビルディング１階,,13,101,1000005,,,,,,,2022-04-06,1,,,,,ツリーガード,0
1020,4010005034798,新規,0,2022-04-06,2022-04-06,一般社団法人日本カウンセリング協会,,その他の設立登記法人,東京都,中央区,京橋１丁目３番２号６１０,,13,102,1040031,,,,,,,2022-04-06,1,,,,,ニホンカウンセリングキョウカイ,0
1021,4010101015124,新規,0,2022-04-06,2022-04-06,株式会社アウォード,,株式会社,東京都,八王子市,八幡町４番１１－１４０６号,,13,201,1920053,,,,,,,2022-04-06,1,,,,,アウォード,0
1028,4010401166625,新規,0,2022-04-06,2022-04-06,ＰＥＮＴＡＫＲＯＳＳ株式会社,,株式会社,東京都,港区,南青山１丁目１４番７号ベルメーゾン１階,,13,103,1070062,,,,,,,2022-04-06,1,,,,,ペンタクロス,0
1029,4010401166666,新規,0,2022-04-06,2022-04-06,株式会社ミキホーム,,株式会社,東京都,港区,南青山７丁目１２番５号,,13,103,1070062,,,,,,,2022-04-06,1,,,,,ミキホーム,0
1032,4010405020902,新規,0,2022-04-06,2022-04-06,ＲＢソーラータウンホールディングス一般社団法人,,その他の設立登記法人,東京都,港区,虎ノ門３丁目２２番１０－２０１号,,13,103,1050001,,,,,,,2022-04-06,1,,,,,アールビーソーラータウンホールディングス,0
1034,4010503006555,新規,0,2022-04-06,2022-04-06,合同会社エンジェリックリリック,,合同会社,東京都,台東区,上野２丁目１１番２号ＴＳ不忍ビル５階Ａ号,,13,106,1100005,,,,,,,2022-04-06,1,,,,,エンジェリックリリック,0
1035,4010505003303,新規,0,2022-04-06,2022-04-06,一般社団法人寺社フェス委員会,,その他の設立登記法人,東京都,台東区,浅草２丁目７番１３号,,13,106,1110032,,,,,,,2022-04-06,1,,,,,ジシャフェスイインカイ,0
1039,4010701042468,新規,0,2022-04-06,2022-04-06,株式会社Ｂ＆Ｇエコノミーコーポレーション,,株式会社,東京都,品川区,東品川２丁目３番１５号シーフォートタワー１６０７号,,13,109,1400002,,,,,,,2022-04-06,1,,,,,ビーアンドジーエコノミーコーポレーション,0
1040,4010703006181,新規,0,2022-04-06,2022-04-06,探究横丁合同会社,,合同会社,東京都,品川区,東品川４丁目５番８－４１５号,,13,109,1400002,,,,,,,2022-04-06,1,,,,,タンキュウヨコチョウ,0
1045,4010801032856,新規,0,2022-04-06,2022-04-06,株式会社ＩＤＳ,,株式会社,東京都,大田区,大森南５丁目５番５号,,13,111,1430013,,,,,,,2022-04-06,1,,,,,アイディーエス,0
1052,4011001146744,新規,0,2022-04-06,2022-04-06,株式会社ルース,,株式会社,東京都,渋谷区,代々木５丁目６１番１号,,13,113,1510053,,,,,,,2022-04-06,1,,,,,ルース,0
1053,4011001146785,新規,0,2022-04-06,2022-04-06,株式会社ユープラス,,株式会社,東京都,渋谷区,代々木３丁目１５番７号,,13,113,1510053,,,,,,,2022-04-06,1,,,,,ユープラス,0
1057,4011003014478,新規,0,2022-04-06,2022-04-06,しぶあい合同会社,,合同会社,東京都,渋谷区,神宮前６丁目２３番４号桑野ビル２階,,13,113,1500001,,,,,,,2022-04-06,1,,,,,シブアイ,0
1063,4011101098423,新規,0,2022-04-06,2022-04-06,株式会社テックフォーカス,,株式会社,東京都,新宿区,袋町３番４,,13,104,1620828,,,,,,,2022-04-06,1,,,,,,0
1064,4011101098431,新規,0,2022-04-06,2022-04-06,株式会社アーネスト,,株式会社,東京都,新宿区,西新宿１丁目１１番１１号,,13,104,1600023,,,,,,,2022-04-06,1,,,,,アーネスト,0
1068,4011401024137,新規,0,2022-04-06,2022-04-06,株式会社日光電設,,株式会社,東京都,板橋区,西台１丁目２５番２号,,13,119,1740045,,,,,,,2022-04-06,1,,,,,ニッコウデンセツ,0
1069,4011401024145,新規,0,2022-04-06,2022-04-06,株式会社Ａｌｌｗａｙｓ,,株式会社,東京都,板橋区,南常盤台１丁目１１－６レフア南常盤台１０１号室,,13,119,1740072,,,,,,,2022-04-06,1,,,,,オールウェイズ,0
1072,4011601025843,新規,0,2022-04-06,2022-04-06,ヤマトエレクトリックホールディングス株式会社,,株式会社,東京都,練馬区,春日町２丁目１４番８号,,13,120,1790074,,,,,,,2022-04-06,1,,,,,ヤマトエレクトリックホールディングス,0
1075,4011801040535,新規,0,2022-04-06,2022-04-06,株式会社深井塗装,,株式会社,東京都,足立区,谷在家１丁目２１番３号１階,,13,121,1230863,,,,,,,2022-04-06,1,,,,,フカイトソウ,0
1077,4012401039042,新規,0,2022-04-06,2022-04-06,株式会社ＲＨ,,株式会社,東京都,三鷹市,下連雀９丁目４番９－６０５号,,13,204,1810013,,,,,,,2022-04-06,1,,,,,アールエイチ,0
1083,4012801021500,新規,0,2022-04-06,2022-04-06,株式会社亀電舎,,株式会社,東京都,東大和市,桜が丘１丁目１４２９番地の３Ｃ－４１７,,13,220,2070022,,,,,,,2022-04-06,1,,,,,カメデンシャ,0
1088,4020001145929,新規,0,2022-04-06,2022-04-06,株式会社ＬＯＯＮ　ＭＯＯＮホールディングス,,株式会社,神奈川県,横浜市中区,山下町１８５番地,,14,104,2310023,,,,,,,2022-04-06,1,,,,,リュウモンホールディングス,0
1089,4020001145953,新規,0,2022-04-06,2022-04-06,株式会社梅屋,,株式会社,神奈川県,川崎市麻生区,南黒川２番７－１０１号,,14,137,2150034,,,,,,,2022-04-06,1,,,,,ウメヤ,0
1090,4020001145961,新規,0,2022-04-06,2022-04-06,株式会社ＰＩＦ,,株式会社,神奈川県,横浜市中区,野毛町１丁目１番４号,,14,104,2310064,,,,,,,2022-04-06,1,,,,,ピーアイエフ,0
1091,4020001146010,新規,0,2022-04-06,2022-04-06,くろがね水道株式会社,,株式会社,神奈川県,横浜市青葉区,鉄町５２２番地３,,14,117,2250025,,,,,,,2022-04-06,1,,,,,クロガネスイドウ,0
1095,4021001075587,新規,0,2022-04-06,2022-04-06,株式会社ＡＴＵＫＹＯ,,株式会社,神奈川県,相模原市緑区,三ケ木２５０番地７,,14,151,2520159,,,,,,,2022-04-06,1,,,,,アツキョー,0
1096,4021001075595,新規,0,2022-04-06,2022-04-06,ＰＦＩ南下浦市民センター株式会社,,株式会社,神奈川県,三浦市,南下浦町上宮田１５８４番地,,14,210,2380101,,,,,,,2022-04-06,1,,,,,ピーエフアイミナミシタウラシミンセンター,0
1097,4021001075620,新規,0,2022-04-06,2022-04-06,株式会社けんおう建設,,株式会社,神奈川県,厚木市,旭町２丁目１番１号グレースイマダ３０２,,14,212,2430014,,,,,,,2022-04-06,1,,,,,ケンオウケンセツ,0
1098,4021001075637,新規,0,2022-04-06,2022-04-06,株式会社ＯＢＤ,,株式会社,神奈川県,座間市,相模が丘５丁目２５番１９－１号,,14,216,2520001,,,,,,,2022-04-06,1,,,,,オービーディー,0
1099,4021001075645,新規,0,2022-04-06,2022-04-06,株式会社ＩＤＥＡＬ　ＨＯＭＥ,,株式会社,神奈川県,鎌倉市,玉縄２丁目２１番地１５,,14,204,2470071,,,,,,,2022-04-06,1,,,,,イデアルホーム,0
1106,4021003011549,新規,0,2022-04-06,2022-04-06,合同会社アクト,,合同会社,神奈川県,相模原市南区,麻溝台７丁目２５番２０号,,14,153,2520328,,,,,,,2022-04-06,1,,,,,アクト,0
1107,4021003011565,新規,0,2022-04-06,2022-04-06,ヒロコーポレーション合同会社,,合同会社,神奈川県,相模原市中央区,矢部２丁目２２番８号クリーンハイツ１０３,,14,152,2520232,,,,,,,2022-04-06,1,,,,,ヒロコーポレーション,0
1108,4021005012479,新規,0,2022-04-06,2022-04-06,一般社団法人ジオックススポーツアカデミー,,その他の設立登記法人,神奈川県,大和市,下和田７８１番１,,14,213,2420015,,,,,,,2022-04-06,1,,,,,ジオックススポーツアカデミー,0
1112,4030001147536,新規,0,2022-04-06,2022-04-06,株式会社エスエスピー,,株式会社,埼玉県,川越市,大字久下戸２３１２番地,,11,201,3500011,,,,,,,2022-04-06,1,,,,,エスエスピー,0
1113,4030001147552,新規,0,2022-04-06,2022-04-06,東都製品販売株式会社,,株式会社,埼玉県,川口市,前上町３２番２４号,,11,203,3330843,,,,,,,2022-04-06,1,,,,,トウトセイヒンハンバイ,0
1114,4030001147569,新規,0,2022-04-06,2022-04-06,ａｎｙｔｈｉｎｇ株式会社,,株式会社,埼玉県,春日部市,中央２丁目１５番地７第一春日部マンション５１５号,,11,214,3440067,,,,,,,2022-04-06,1,,,,,エニシング,0
1115,4030001147577,新規,0,2022-04-06,2022-04-06,株式会社鳳凰,,株式会社,埼玉県,三郷市,泉１丁目３番地２１,,11,237,3410054,,,,,,,2022-04-06,1,,,,,ホウオウ,0
1116,4030001147585,新規,0,2022-04-06,2022-04-06,株式会社雅,,株式会社,埼玉県,飯能市,大字双柳１３５１番地３,,11,209,3570021,,,,,,,2022-04-06,1,,,,,ミヤビ,0
1117,4030001147610,新規,0,2022-04-06,2022-04-06,株式会社そのとき,,株式会社,埼玉県,さいたま市見沼区,東大宮４丁目４６－８,,11,104,3370051,,,,,,,2022-04-06,1,,,,,ソノトキ,0
1118,4030001147635,新規,0,2022-04-06,2022-04-06,Ｕｑａｂｒａｎｄ株式会社,,株式会社,埼玉県,さいたま市北区,盆栽町２３１番地１,,11,102,3310805,,,,,,,2022-04-06,1,,,,,ウカブランド,0
1119,4030001147643,新規,0,2022-04-06,2022-04-06,株式会社関根スマイル,,株式会社,埼玉県,越谷市,東越谷３丁目１番地１８,,11,222,3430023,,,,,,,2022-04-06,1,,,,,セキネスマイル,0
1126,4030003019147,新規,0,2022-04-06,2022-04-06,大久保建築設計事務所合同会社,,合同会社,埼玉県,熊谷市,佐谷田１２００番地,,11,202,3600023,,,,,,,2022-04-06,1,,,,,オオクボケンチクセッケイジムショ,0
1127,4030003019155,新規,0,2022-04-06,2022-04-06,合同会社Ｇ．Ｏインターホーム,,合同会社,埼玉県,八潮市,大字大瀬１５０９番地１,,11,234,3400822,,,,,,,2022-04-06,1,,,,,ゴーインターホーム,0
1128,4030003019171,新規,0,2022-04-06,2022-04-06,Ｆｏｎｔａｉｎｅ　Ｈｏｌｄｉｎｇｓ合同会社,,合同会社,埼玉県,川口市,青木２丁目５番２６－３０３号,,11,203,3320031,,,,,,,2022-04-06,1,,,,,,0
1130,4030005020788,新規,0,2022-04-06,2022-04-06,一般社団法人日本フライトアース,,その他の設立登記法人,埼玉県,草加市,栄町１丁目３番３号,,11,221,3400011,,,,,,,2022-04-06,1,,,,,ニホンフライトアース,0
1132,4040003019823,新規,0,2022-04-06,2022-04-06,合同会社Ｒｉｚｅ,,合同会社,千葉県,松戸市,古ケ崎２丁目３２４０－１０－１Ｆ,,12,207,2710068,,,,,,,2022-04-06,1,,,,,ライズ,0
1134,4050001050894,新規,0,2022-04-06,2022-04-06,ＳｐｒｉｎｇＦｉｅｌｄ株式会社,,株式会社,茨城県,小美玉市,小川１３４１番地８,,08,236,3113423,,,,,,,2022-04-06,1,,,,,スプリングフィールド,0
1135,4050001050911,新規,0,2022-04-06,2022-04-06,株式会社てんきち,,株式会社,茨城県,つくばみらい市,陽光台４丁目９番９号,,08,235,3002358,,,,,,,2022-04-06,1,,,,,テンキチ,0
1137,4050003006473,新規,0,2022-04-06,2022-04-06,ワーケーションスタイル茨城合同会社,,合同会社,茨城県,稲敷郡阿見町,大字青宿７２６番地２,,08,443,3000301,,,,,,,2022-04-06,1,,,,,ワーケーションスタイルイバラキ,0
1140,4060003004006,新規,0,2022-04-06,2022-04-06,合同会社Ｗｏｒｋ‐Ｓｔｙｌｅ　Ｌａｂ,,合同会社,栃木県,宇都宮市,江曽島本町４－１７メゾン石原１－Ｂ,,09,201,3210101,,,,,,,2022-04-06,1,,,,,ワークスタイルラボ,0
1144,4070001039093,新規,0,2022-04-06,2022-04-06,株式会社赤銅,,株式会社,群馬県,前橋市,上佐鳥町６４８番地１,,10,201,3710816,,,,,,,2022-04-06,1,,,,,シャクドウ,0
1147,4080101023186,新規,0,2022-04-06,2022-04-06,芝川塗装株式会社,,株式会社,静岡県,富士宮市,内房４０４６番地の１０,,22,207,4190317,,,,,,,2022-04-06,1,,,,,シバカワトソウ,0
1151,4080401025741,新規,0,2022-04-06,2022-04-06,株式会社ＦＩＤＥＳ,,株式会社,静岡県,湖西市,坊瀬８２４番地,,22,221,4310444,,,,,,,2022-04-06,1,,,,,フィデス,0
1153,4080403004504,新規,0,2022-04-06,2022-04-06,シンケイ工業合同会社,,合同会社,静岡県,浜松市東区,中里町１３５,,22,132,4350003,,,,,,,2022-04-06,1,,,,,シンケイコウギョウ,0
1154,4090001017510,新規,0,2022-04-06,2022-04-06,株式会社ＥＭ電子,,株式会社,山梨県,都留市,夏狩１２６４番地５,,19,204,4020035,,,,,,,2022-04-06,1,,,,,イーエムデンシ,0
1155,4090003002072,新規,0,2022-04-06,2022-04-06,合同会社ＯＵＬＯ,,合同会社,山梨県,富士吉田市,富士見１丁目１番５号,,19,202,4030009,,,,,,,2022-04-06,1,,,,,オウロ,0
1156,4100001035213,新規,0,2022-04-06,2022-04-06,株式会社オールワンリンク,,株式会社,長野県,長野市,大字稲葉中千田２１００－１５,,20,201,3800916,,,,,,,2022-04-06,1,,,,,オールワンリンク,0
1160,4100003006492,新規,0,2022-04-06,2022-04-06,合同会社そめや商事,,合同会社,長野県,南佐久郡川上村,大字御所平１８４１番地２３シャトレーゼリゾート１－１０７,,20,304,3841407,,,,,,,2022-04-06,1,,,,,ソメヤショウジ,0
1161,4100005012844,新規,0,2022-04-06,2022-04-06,一般社団法人森のこだま,,その他の設立登記法人,長野県,伊那市,日影７６６番地５,,20,209,3960009,,,,,,,2022-04-06,1,,,,,モリノコダマ,0
1163,4110001036540,新規,0,2022-04-06,2022-04-06,株式会社ｓａｎｔａふぁーむ,,株式会社,新潟県,村上市,長政５９５番地１,,15,212,9593111,,,,,,,2022-04-06,1,,,,,サンタファーム,0
1167,4110005016786,新規,0,2022-04-06,2022-04-06,医療法人社団ＩＵＶＯ,,その他の設立登記法人,新潟県,新潟市中央区,東中通１番町８６番地５３,,15,103,9518116,,,,,,,2022-04-06,1,,,,,ユウヴォ,0
1175,4120001244869,新規,0,2022-04-06,2022-04-06,庇株式会社,,株式会社,大阪府,大阪市中央区,上町１丁目１７番１６号,,27,128,5400005,,,,,,,2022-04-06,1,,,,,ヒサシ,0
1176,4120001244877,新規,0,2022-04-06,2022-04-06,株式会社阪神計器設備,,株式会社,大阪府,大阪市都島区,毛馬町３丁目３番９号,,27,102,5340001,,,,,,,2022-04-06,1,,,,,ハンシンケイキセツビ,0
1177,4120001244885,新規,0,2022-04-06,2022-04-06,海外人材研究所株式会社,,株式会社,大阪府,大阪市東淀川区,大桐５丁目１９番－６９号,,27,114,5330011,,,,,,,2022-04-06,1,,,,,カイガイジンザイケンキュウショ,0
1178,4120001244893,新規,0,2022-04-06,2022-04-06,株式会社ＳＨＡＵＬＡ,,株式会社,大阪府,大阪市中央区,上本町西３丁目２番５－５０２号,,27,128,5420062,,,,,,,2022-04-06,1,,,,,シャウラ,0
1179,4120001244927,新規,0,2022-04-06,2022-04-06,永田電気通信株式会社,,株式会社,大阪府,大阪市城東区,今福西６丁目７番２１号,,27,118,5360004,,,,,,,2022-04-06,1,,,,,ナガタデンキツウシン,0
1180,4120001244968,新規,0,2022-04-06,2022-04-06,阪原防災株式会社,,株式会社,大阪府,大阪市西区,南堀江１丁目１７番１１－２０４号,,27,106,5500015,,,,,,,2022-04-06,1,,,,,サカワラボウサイ,0
1181,4120001244976,新規,0,2022-04-06,2022-04-06,日本ＣＢＤ食品株式会社,,株式会社,大阪府,大阪市此花区,朝日２丁目１８番８号３Ｆ－４７５,,27,104,5540011,,,,,,,2022-04-06,1,,,,,ニホンシービーディーショクヒン,0
1182,4120001244992,新規,0,2022-04-06,2022-04-06,アヴニール株式会社,,株式会社,大阪府,大阪市鶴見区,横堤１丁目１２番１６号,,27,124,5380052,,,,,,,2022-04-06,1,,,,,アヴニール,0
1183,4120001245009,新規,0,2022-04-06,2022-04-06,株式会社ＮＭライズ,,株式会社,大阪府,大阪市大正区,鶴町２丁目１３番１１号,,27,108,5510023,,,,,,,2022-04-06,1,,,,,エヌエムライズ,0
1188,4120003021408,新規,0,2022-04-06,2022-04-06,合同会社ＧＩＧ　Ｓｔｙｌｅ,,合同会社,大阪府,枚方市,杉山手１丁目３２番２９号,,27,210,5730118,,,,,,,2022-04-06,1,,,,,ギグスタイル,0
1189,4120003021416,新規,0,2022-04-06,2022-04-06,合同会社Ｎｉｃｋ　Ｃｏｎｓｕｌｔｉｎｇ,,合同会社,大阪府,枚方市,松丘町８番１８号,,27,210,5730012,,,,,,,2022-04-06,1,,,,,ニックコンサルティング,0
1190,4120003021424,新規,0,2022-04-06,2022-04-06,リフォエイト合同会社,,合同会社,大阪府,大阪市浪速区,日本橋５丁目１１－７第一片倉ビル５Ｆ,,27,111,5560005,,,,,,,2022-04-06,1,,,,,リフォエイト,0
1191,4120003021432,新規,0,2022-04-06,2022-04-06,関電エコスタイル太陽光発電合同会社,,合同会社,大阪府,大阪市北区,中之島３丁目６番１６号,,27,127,5300005,,,,,,,2022-04-06,1,,,,,カンデンエコスタイルタイヨウコウハツデン,0
1192,4120005022874,新規,0,2022-04-06,2022-04-06,一般社団法人日本ライフジャケット協会,,その他の設立登記法人,大阪府,大阪市中央区,北久宝寺町３丁目４番７号,,27,128,5410057,,,,,,,2022-04-06,1,,,,,ニッポンライフジャケットキョウカイ,0
1193,4120005022890,新規,0,2022-04-06,2022-04-06,マークス国際弁理士法人,,その他の設立登記法人,大阪府,大阪市西区,江戸堀１丁目９番１１号,,27,106,5500002,,,,,,,2022-04-06,1,,,,,マークスコクサイ,0
1197,4120101065331,新規,0,2022-04-06,2022-04-06,株式会社イザク作画,,株式会社,大阪府,泉南郡岬町,深日９９４番地の２１０,,27,366,5990303,,,,,,,2022-04-06,1,,,,,イザクサクガ,0
1202,4120901045796,新規,0,2022-04-06,2022-04-06,株式会社Ｄ．ｃｒａｆｔ,,株式会社,大阪府,箕面市,瀬川２丁目１１番３５号の６,,27,220,5620045,,,,,,,2022-04-06,1,,,,,ディークラフト,0
1203,4120901045805,新規,0,2022-04-06,2022-04-06,株式会社ＲＩＮＧ,,株式会社,大阪府,吹田市,千里山月が丘４０番８号,,27,205,5650847,,,,,,,2022-04-06,1,,,,,リング,0
1204,4120901045821,新規,0,2022-04-06,2022-04-06,株式会社リティアコート谷,,株式会社,大阪府,高槻市,芥川町１丁目１０番３０－８０１号,,27,207,5691123,,,,,,,2022-04-06,1,,,,,リティアコートタニ,0
1207,4130001071429,新規,0,2022-04-06,2022-04-06,株式会社ＲＡＩＶＯ,,株式会社,京都府,京都市山科区,大塚元屋敷町１－１,,26,110,6078126,,,,,,,2022-04-06,1,,,,,レイヴォ,0
1208,4130005016421,新規,0,2022-04-06,2022-04-06,農事組合法人胡麻の里ファーム,,その他の設立登記法人,京都府,南丹市,日吉町上胡麻広野９３番地,,26,213,6290312,,,,,,,2022-04-06,1,,,,,ゴマノサトファーム,0
1213,4140001125472,新規,0,2022-04-06,2022-04-06,株式会社シャフト,,株式会社,兵庫県,姫路市,忍町１６９番地藤原ビル３階,,28,201,6700917,,,,,,,2022-04-06,1,,,,,シャフト,0
1214,4140001125514,新規,0,2022-04-06,2022-04-06,株式会社貞楽,,株式会社,兵庫県,明石市,本町１丁目１番５号,,28,203,6730892,,,,,,,2022-04-06,1,,,,,テイラク,0
1215,4140001125522,新規,0,2022-04-06,2022-04-06,株式会社あららぎ,,株式会社,兵庫県,西宮市,薬師町３番６６－２０２号,,28,204,6638024,,,,,,,2022-04-06,1,,,,,アララギ,0
1216,4140003017528,新規,0,2022-04-06,2022-04-06,ジュ・ジュー合同会社,,合同会社,兵庫県,姫路市,大津区天神町２丁目４５番地の２,,28,201,6711131,,,,,,,2022-04-06,1,,,,,ジュジュー,0
1219,4150001025440,新規,0,2022-04-06,2022-04-06,株式会社司設計事務所,,株式会社,奈良県,香芝市,西真美３丁目８番地７,,29,210,6390222,,,,,,,2022-04-06,1,,,,,ツカサセッケイジムショ,0
1220,4150003002660,新規,0,2022-04-06,2022-04-06,合同会社Ｃｕｐｉｘ,,合同会社,奈良県,奈良市,左京３丁目２２番地の１１,,29,201,6310801,,,,,,,2022-04-06,1,,,,,キューピックス,0
1221,4150005009381,新規,0,2022-04-06,2022-04-06,一般社団法人奈良ええクラブ,,その他の設立登記法人,奈良県,奈良市,古市町１６０４番,,29,201,6308424,,,,,,,2022-04-06,1,,,,,ナラエエクラブ,0
1225,4160005011072,新規,0,2022-04-06,2022-04-06,甲賀建設事業協同組合,,その他の設立登記法人,滋賀県,甲賀市,水口町東名坂２８７番２,,25,209,5280036,,,,,,,2022-04-06,1,,,,,コウカケンセツ,0
1228,4180001150748,新規,0,2022-04-06,2022-04-06,ＰＯＴ　ＨＯＭＥ株式会社,,株式会社,愛知県,江南市,村久野町河戸１５１番地,,23,217,4838316,,,,,,,2022-04-06,1,,,,,ポットホーム,0
1229,4180001150756,新規,0,2022-04-06,2022-04-06,株式会社ｅＲ,,株式会社,愛知県,名古屋市東区,代官町４０番２０号,,23,102,4610002,,,,,,,2022-04-06,1,,,,,イーアール,0
1232,4180005019709,新規,0,2022-04-06,2022-04-06,弁護士法人しるべ総合法律事務所,,その他の設立登記法人,愛知県,名古屋市中区,丸の内３丁目７番２７号,,23,106,4600002,,,,,,,2022-04-06,1,,,,,シルベソウゴウホウリツジムショ,0
1233,4180005019717,新規,0,2022-04-06,2022-04-06,一般社団法人地域活力承継推進機構,,その他の設立登記法人,愛知県,名古屋市中村区,名駅南２丁目３番３７号,,23,105,4500003,,,,,,,2022-04-06,1,,,,,チイキカツリョクショウケイスイシンキコウ,0
1235,4180301036093,新規,0,2022-04-06,2022-04-06,株式会社中畑塗装,,株式会社,愛知県,西尾市,中畑町北側４８番地,,23,213,4440303,,,,,,,2022-04-06,1,,,,,ナカバタトソウ,0
1242,4200001024825,新規,0,2022-04-06,2022-04-06,小嶋建設株式会社,,株式会社,岐阜県,高山市,八軒町１丁目１０番地の２,,21,203,5060012,,,,,,,2022-04-06,1,,,,,コジマケンセツ,0
1244,4200001039930,新規,0,2022-04-06,2022-04-06,田口電機株式会社,,株式会社,岐阜県,美濃加茂市,加茂川町２丁目７番２８号林マンション２０３号,,21,211,5050044,,,,,,,2022-04-06,1,,,,,タグチデンキ,0
1245,4200001039947,新規,0,2022-04-06,2022-04-06,株式会社新祥,,株式会社,岐阜県,各務原市,鵜沼各務原町２丁目３０７番地,,21,213,5090141,,,,,,,2022-04-06,1,,,,,シンショウ,0
1253,4240001059561,新規,0,2022-04-06,2022-04-06,株式会社マナーズ・クリエイトカンパニー,,株式会社,広島県,広島市中区,広瀬北町３番１１号,,34,101,7300803,,,,,,,2022-04-06,1,,,,,マナーズクリエイトカンパニー,0
1256,4240005015370,新規,0,2022-04-06,2022-04-06,税理士法人福山経営会計,,その他の設立登記法人,広島県,福山市,神辺町字徳田１１６７番地９,,34,207,7202126,,,,,,,2022-04-06,1,,,,,フクヤマケイエイカイケイ,0
1261,4260001036699,新規,0,2022-04-06,2022-04-06,株式会社経営空間研究所,,株式会社,岡山県,岡山市北区,駅前町１丁目８番１号新光ビル岡山５Ｆ,,33,101,7000023,,,,,,,2022-04-06,1,,,,,ケイエイクウカンケンキュウショ,0
1262,4280001008671,新規,0,2022-04-06,2022-04-06,菅井鮮魚株式会社,,株式会社,島根県,松江市,雑賀町３７９番地２,,32,201,6900056,,,,,,,2022-04-06,1,,,,,スガイセンギョ,0
1267,4290001097020,新規,0,2022-04-06,2022-04-06,株式会社とびこ,,株式会社,福岡県,福岡市南区,筑紫丘２丁目１６番８号,,40,134,8150036,,,,,,,2022-04-06,1,,,,,トビコ,0
1268,4290001097061,新規,0,2022-04-06,2022-04-06,株式会社ＡＬＷＡＹＳ,,株式会社,福岡県,大野城市,瓦田３丁目１１番３４号,,40,219,8160932,,,,,,,2022-04-06,1,,,,,オールウェイズ,0
1274,4300001012860,新規,0,2022-04-06,2022-04-06,中山技研株式会社,,株式会社,佐賀県,佐賀市,高木瀬西６丁目１番５号,,41,201,8490921,,,,,,,2022-04-06,1,,,,,ナカヤマギケン,0
1275,4300001012869,新規,0,2022-04-06,2022-04-06,ＳＴシステム株式会社,,株式会社,佐賀県,武雄市,朝日町大字中野１０２６２番地,,41,206,8430002,,,,,,,2022-04-06,1,,,,,エスティシステム,0
1277,4310003004319,新規,0,2022-04-06,2022-04-06,合同会社カイドウ,,合同会社,長崎県,佐世保市,大宮町４５番２０号,,42,202,8570841,,,,,,,2022-04-06,1,,,,,カイドウ,0
1278,4310005008607,新規,0,2022-04-06,2022-04-06,一般社団法人ＰｌｕｓＳｍｉｌｅ,,その他の設立登記法人,長崎県,佐世保市,有福町２９７番地３,,42,202,8593241,,,,,,,2022-04-06,1,,,,,プラススマイル,0
1279,4320001018996,新規,0,2022-04-06,2022-04-06,株式会社ＡＸ,,株式会社,大分県,由布市,挾間町古野１３０番地４,,44,213,8795511,,,,,,,2022-04-06,1,,,,,エイエックス,0
1281,4330001029596,新規,0,2022-04-06,2022-04-06,株式会社中九州装飾,,株式会社,熊本県,熊本市南区,白藤２丁目２番８号,,43,104,8614112,,,,,,,2022-04-06,1,,,,,ナカキュウシュウソウショク,0
1282,4330001029613,新規,0,2022-04-06,2022-04-06,株式会社東照地所,,株式会社,熊本県,熊本市中央区,九品寺４丁目７番８号,,43,101,8620976,,,,,,,2022-04-06,1,,,,,トウショウジショ,0
1290,4340003003747,新規,0,2022-04-06,2022-04-06,合同会社内別府コンサルタンツ,,合同会社,鹿児島県,鹿屋市,串良町細山田４９４５番地１３,,46,203,8931601,,,,,,,2022-04-06,1,,,,,ウチベップコンサルタンツ,0
1291,4350001017665,新規,0,2022-04-06,2022-04-06,不動産ａｎｔ株式会社,,株式会社,宮崎県,宮崎市,大塚町天神後２６６９番地４,,45,201,8800951,,,,,,,2022-04-06,1,,,,,フドウサンアント,0
1293,4360001030221,新規,0,2022-04-06,2022-04-06,荻堂建設株式会社,,株式会社,沖縄県,うるま市,字喜屋武６４６番地５,,47,213,9042225,,,,,,,2022-04-06,1,,,,,オギドウケンセツ,0
1294,4360003011905,新規,0,2022-04-06,2022-04-06,合同会社ＴＳＫ,,合同会社,沖縄県,浦添市,城間４丁目９－５、１Ｆ左,,47,208,9012133,,,,,,,2022-04-06,1,,,,,ティーエスケー,0
1295,4360005006630,新規,0,2022-04-06,2022-04-06,一般財団法人湧川財団,,その他の設立登記法人,沖縄県,浦添市,西洲２丁目８番地４,,47,208,9012123,,,,,,,2022-04-06,1,,,,,ワクガワザイダン,0
1296,4370001048394,新規,0,2022-04-06,2022-04-06,株式会社フリー,,株式会社,宮城県,仙台市若林区,六丁の目北町８番５号,,04,103,9840003,,,,,,,2022-04-06,1,,,,,フリー,0
1301,4380001032711,新規,0,2022-04-06,2022-04-06,飛鳥産業株式会社,,株式会社,福島県,いわき市,常磐湯本町栄田６５番地５,,07,204,9728321,,,,,,,2022-04-06,1,,,,,アスカサンギョウ,0
1303,4390001016861,新規,0,2022-04-06,2022-04-06,株式会社不動産カンパニー,,株式会社,山形県,天童市,芳賀タウン北６丁目２番２１号天童南駅前ビル１階Ａ号室,,06,210,9940082,,,,,,,2022-04-06,1,,,,,フドウサンカンパニー,0
1305,4390003001944,新規,0,2022-04-06,2022-04-06,合同会社ｏｔｏｔｓｕｂｕｈａｒｐ,,合同会社,山形県,山形市,あかねケ丘３丁目８番２３号,,06,201,9902481,,,,,,,2022-04-06,1,,,,,オトツブハープ,0
1314,4420001017798,新規,0,2022-04-06,2022-04-06,株式会社ＳＣＯＴＴ,,株式会社,青森県,青森市,北金沢１丁目１０番５号,,02,201,0300855,,,,,,,2022-04-06,1,,,,,スコット,0
1317,4450001013654,新規,0,2022-04-06,2022-04-06,株式会社ｔ‐Ａｃｅ　Ｃｏｍｐａｎｙ,,株式会社,北海道,稚内市,末広３丁目７番地,,01,214,0970001,,,,,,,2022-04-06,1,,,,,ティーエースカンパニー,0
1322,4480001011696,新規,0,2022-04-06,2022-04-06,ＫＩＴＯ　ｃｒｅａｔｉｖｅｓ株式会社,,株式会社,徳島県,那賀郡那賀町,木頭出原字マエダ１８番地１,,36,368,7716402,,,,,,,2022-04-06,1,,,,,キトークリエイティブ,0
1325,4500001024118,新規,0,2022-04-06,2022-04-06,八八グループ株式会社,,株式会社,愛媛県,新居浜市,岸の上町１丁目１４番４９号,,38,205,7920815,,,,,,,2022-04-06,1,,,,,ハチハチグループ,0
1326,4500001024126,新規,0,2022-04-06,2022-04-06,株式会社ＡＩ‐Ｔｒｕｓｔ,,株式会社,愛媛県,松山市,衣山５丁目１５９２番地４０,,38,201,7918025,,,,,,,2022-04-06,1,,,,,アイトラスト,0
1327,4500001024134,新規,0,2022-04-06,2022-04-06,株式会社トゥカン,,株式会社,愛媛県,松山市,別府町９５番地２０,,38,201,7918056,,,,,,,2022-04-06,1,,,,,トゥカン,0
1328,4500003002807,新規,0,2022-04-06,2022-04-06,合同会社朝なぎ,,合同会社,愛媛県,松山市,福角町甲２３７番地２,,38,201,7992652,,,,,,,2022-04-06,1,,,,,アサナギ,0
1340,5010003037414,新規,0,2022-04-06,2022-04-06,Ｓｕｎ　Ｔｒｉｎｉｔｙ　Ａ合同会社,,合同会社,東京都,千代田区,大手町２丁目３番２号大手町プレイスイーストタワー,,13,101,1000004,,,,,,,2022-04-06,1,,,,,サントリニティーエー,0
1350,5010103001889,新規,0,2022-04-06,2022-04-06,合同会社セロヒキノ,,合同会社,東京都,八王子市,横山町９番２２号ＯＫ－３ビル８階,,13,201,1920081,,,,,,,2022-04-06,1,,,,,セロヒキノ,0
1355,5010405020901,新規,0,2022-04-06,2022-04-06,ＲＢソーラーヒルホールディングス一般社団法人,,その他の設立登記法人,東京都,港区,虎ノ門３丁目２２番１０－２０１号,,13,103,1050001,,,,,,,2022-04-06,1,,,,,アールビーソーラーヒルホールディングス,0
1359,5010501048664,新規,0,2022-04-06,2022-04-06,株式会社キャピタルクリエイト,,株式会社,東京都,台東区,池之端１丁目５番１ー３０２号ベラカーサ池之端,,13,106,1100008,,,,,,,2022-04-06,1,,,,,キャピタルクリエイト,0
1360,5010601060932,新規,0,2022-04-06,2022-04-06,株式会社アットホームサービス,,株式会社,東京都,墨田区,文花３丁目２４番２１号,,13,107,1310044,,,,,,,2022-04-06,1,,,,,アットホームサービス,0
1361,5010603009473,新規,0,2022-04-06,2022-04-06,合同会社まりこむ,,合同会社,東京都,江東区,南砂２丁目２６番６－２０１号,,13,108,1360076,,,,,,,2022-04-06,1,,,,,マリコム,0
1365,5010701042483,新規,0,2022-04-06,2022-04-06,株式会社兜,,株式会社,東京都,品川区,西五反田１丁目２４－４タキゲンビル８０５,,13,109,1410031,,,,,,,2022-04-06,1,,,,,カブト,0
1366,5010801032855,新規,0,2022-04-06,2022-04-06,株式会社丸本,,株式会社,東京都,大田区,東海３丁目８番２号,,13,111,1430001,,,,,,,2022-04-06,1,,,,,マルモト,0
1368,5010901050641,新規,0,2022-04-06,2022-04-06,株式会社Ｃｌｏｕｄ９,,株式会社,東京都,世田谷区,南烏山３丁目２４番１－３１４号,,13,112,1570062,,,,,,,2022-04-06,1,,,,,クラウドナイン,0
1370,5011001146776,新規,0,2022-04-06,2022-04-06,ＭＭエステート株式会社,,株式会社,東京都,目黒区,目黒本町２丁目１９番２０号,,13,110,1520002,,,,,,,2022-04-06,1,,,,,エムエムエステート,0
1377,5011101098422,新規,0,2022-04-06,2022-04-06,株式会社コードネイティブ,,株式会社,東京都,新宿区,西五軒町８－１７岡村ビルＢ１－１０,,13,104,1620812,,,,,,,2022-04-06,1,,,,,コードネイティブ,0
1378,5011101098430,新規,0,2022-04-06,2022-04-06,株式会社ｔａａ,,株式会社,東京都,新宿区,西新宿３丁目３番１３号西新宿水間ビル６階,,13,104,1600023,,,,,,,2022-04-06,1,,,,,ター,0
1379,5011101098439,新規,0,2022-04-06,2022-04-06,株式会社アスソラ,,株式会社,東京都,新宿区,高田馬場１丁目２８－１０,,13,104,1690075,,,,,,,2022-04-06,1,,,,,アスソラ,0
1380,5011201023750,新規,0,2022-04-06,2022-04-06,株式会社はる,,株式会社,東京都,中野区,新井２丁目４４－１中野ハイツＤ－３０４,,13,114,1650026,,,,,,,2022-04-06,1,,,,,ハル,0
1381,5011203003791,新規,0,2022-04-06,2022-04-06,合同会社コンサルティングＦ,,合同会社,東京都,中野区,弥生町４丁目１番１号Ｔ・Ｆ、ＣＯＲＮＥＲ２０１,,13,114,1640013,,,,,,,2022-04-06,1,,,,,コンサルティングエフ,0
1390,5011601025859,新規,0,2022-04-06,2022-04-06,アートメタバースランド株式会社,,株式会社,東京都,練馬区,向山３丁目１５番１９号,,13,120,1760022,,,,,,,2022-04-06,1,,,,,アートメタバースランド,0
1395,5012803002745,新規,0,2022-04-06,2022-04-06,ＬＥＯＮＥＳＳ合同会社,,合同会社,東京都,立川市,錦町３丁目１番１１－１０２号,,13,202,1900022,,,,,,,2022-04-06,1,,,,,レオネス,0
1396,5013101008889,新規,0,2022-04-06,2022-04-06,寄口工業株式会社,,株式会社,東京都,福生市,大字熊川６６番地１９,,13,218,1970003,,,,,,,2022-04-06,1,,,,,ヨリグチコウギョウ,0
1399,5013303006088,新規,0,2022-04-06,2022-04-06,合同会社ＥＣＯフレンド,,合同会社,東京都,豊島区,池袋３丁目２－２－５Ｆ,,13,116,1710014,,,,,,,2022-04-06,1,,,,,エコフレンド,0
1400,5013303006113,新規,0,2022-04-06,2022-04-06,合同会社ＣＺプラン,,合同会社,東京都,豊島区,東池袋２丁目６２番８－３０５号,,13,116,1700013,,,,,,,2022-04-06,1,,,,,シーゼットプラン,0
1401,5013305003331,新規,0,2022-04-06,2022-04-06,一般社団法人日本マーケティング営業促進協会,,その他の設立登記法人,東京都,豊島区,東池袋３丁目２３番５号,,13,116,1700013,,,,,,,2022-04-06,1,,,,,ニホンマーケティングエイギョウソクシンキョウカイ,0
1409,5020001145911,新規,0,2022-04-06,2022-04-06,コードシール株式会社,,株式会社,神奈川県,川崎市宮前区,西野川３丁目８番２号３０２号室グリーンスペース野川台,,14,136,2160044,,,,,,,2022-04-06,1,,,,,コードシール,0
1410,5020001145944,新規,0,2022-04-06,2022-04-06,大和コミュニティサポート株式会社,,株式会社,神奈川県,横浜市中区,山下町７４番地１,,14,104,2310023,,,,,,,2022-04-06,1,,,,,ダイワコミュニティサポート,0
1411,5020001145952,新規,0,2022-04-06,2022-04-06,株式会社Ｌ横浜センター,,株式会社,神奈川県,川崎市幸区,南幸町２丁目９番地,,14,132,2120016,,,,,,,2022-04-06,1,,,,,エルヨコハマセンター,0
1412,5020001145977,新規,0,2022-04-06,2022-04-06,キキン商事株式会社,,株式会社,神奈川県,横浜市中区,山下町１００番地３,,14,104,2310023,,,,,,,2022-04-06,1,,,,,キキンショウジ,0
1413,5020001145985,新規,0,2022-04-06,2022-04-06,勝山空設株式会社,,株式会社,神奈川県,横浜市鶴見区,江ケ崎町８番６３－４３４号,,14,101,2300002,,,,,,,2022-04-06,1,,,,,カツヤマクウセツ,0
1414,5020003021549,新規,0,2022-04-06,2022-04-06,合同会社ＡＣＥ,,合同会社,神奈川県,横浜市中区,長者町７丁目１１５番地ＴＣ第４２長者町ビル１階,,14,104,2310033,,,,,,,2022-04-06,1,,,,,エース,0
1418,5021001075520,新規,0,2022-04-06,2022-04-06,株式会社コナホールディングス,,株式会社,神奈川県,藤沢市,鵠沼松が岡５丁目４－１０－１０１,,14,205,2510038,,,,,,,2022-04-06,1,,,,,コナホールディングス,0
1419,5021001075611,新規,0,2022-04-06,2022-04-06,株式会社ハルミック,,株式会社,神奈川県,厚木市,岡田１丁目７番１号,,14,212,2430021,,,,,,,2022-04-06,1,,,,,ハルミック,0
1421,5021003011548,新規,0,2022-04-06,2022-04-06,メトリア合同会社,,合同会社,神奈川県,平塚市,公所５３０番地の６,,14,203,2540906,,,,,,,2022-04-06,1,,,,,メトリア,0
1422,5021003011556,新規,0,2022-04-06,2022-04-06,半田仁合同会社,,合同会社,神奈川県,相模原市緑区,太井１５５番地１６,,14,151,2520152,,,,,,,2022-04-06,1,,,,,ハンダヒトシ,0
1424,5030001147535,新規,0,2022-04-06,2022-04-06,株式会社中埜水道工業,,株式会社,埼玉県,加須市,花崎北２丁目５番地６,,11,210,3470016,,,,,,,2022-04-06,1,,,,,ナカノスイドウコウギョウ,0
1425,5030001147551,新規,0,2022-04-06,2022-04-06,株式会社永旺管理,,株式会社,埼玉県,さいたま市浦和区,木崎４丁目１番１号,,11,107,3300042,,,,,,,2022-04-06,1,,,,,エイオウカンリ,0
1426,5030001147568,新規,0,2022-04-06,2022-04-06,株式会社デジタルアーキテクツ,,株式会社,埼玉県,吉川市,中央１丁目６番地２,,11,243,3420061,,,,,,,2022-04-06,1,,,,,,0
1427,5030001147584,新規,0,2022-04-06,2022-04-06,株式会社Ｏｎｇａｅｓｈｉ　Ｈｏｌｄｉｎｇｓ,,株式会社,埼玉県,さいたま市浦和区,前地２丁目１番地４,,11,107,3300053,,,,,,,2022-04-06,1,,,,,オンガエシホールディングス,0
1428,5030001147626,新規,0,2022-04-06,2022-04-06,株式会社リアン,,株式会社,埼玉県,所沢市,大字久米１３２６番地の１２,,11,208,3591131,,,,,,,2022-04-06,1,,,,,リアン,0
1429,5030001147642,新規,0,2022-04-06,2022-04-06,株式会社松村電気工事,,株式会社,埼玉県,さいたま市西区,大字指扇１９５８番地１６９,,11,101,3310047,,,,,,,2022-04-06,1,,,,,マツムラデンキコウジ,0
1437,5040001122867,新規,0,2022-04-06,2022-04-06,カンコース株式会社,,株式会社,千葉県,千葉市中央区,大巌寺町２３６番地１,,12,101,2600812,,,,,,,2022-04-06,1,,,,,カンコース,0
1438,5040001122900,新規,0,2022-04-06,2022-04-06,實商会株式会社,,株式会社,千葉県,市原市,辰巳台東３丁目５番地６６,,12,219,2900003,,,,,,,2022-04-06,1,,,,,ミノルショウカイ,0
1439,5040001122917,新規,0,2022-04-06,2022-04-06,株式会社グランアーク,,株式会社,千葉県,市川市,本北方１丁目２４番１０号,,12,203,2720816,,,,,,,2022-04-06,1,,,,,グランアーク,0
1442,5050001050893,新規,0,2022-04-06,2022-04-06,株式会社ＬｉＢ,,株式会社,茨城県,ひたちなか市,大字高場１４８８番地１３,,08,221,3120062,,,,,,,2022-04-06,1,,,,,リブ,0
1443,5050001050910,新規,0,2022-04-06,2022-04-06,株式会社ＲＩＧＩＤ‐Ｌｕｃｋ,,株式会社,茨城県,笠間市,笠間１６９７番地５,,08,216,3091611,,,,,,,2022-04-06,1,,,,,リジットラック,0
1446,5050003006480,新規,0,2022-04-06,2022-04-06,合同会社ジェービービージャパン,,合同会社,茨城県,土浦市,摩利山新田２６９番地５,,08,203,3000838,,,,,,,2022-04-06,1,,,,,ジェービービージャパン,0
1449,5070001039101,新規,0,2022-04-06,2022-04-06,株式会社恵比寿,,株式会社,群馬県,桐生市,相生町２丁目６１２番地の１１,,10,203,3760011,,,,,,,2022-04-06,1,,,,,エビス,0
1450,5070001039118,新規,0,2022-04-06,2022-04-06,株式会社渡邉塗装,,株式会社,群馬県,前橋市,富田町１５６８番地１,,10,201,3792161,,,,,,,2022-04-06,1,,,,,ワタナベトソウ,0
1451,5070001039126,新規,0,2022-04-06,2022-04-06,株式会社Ｖ‐ｌｉｎｋ,,株式会社,群馬県,伊勢崎市,境下渕名２０４０番地１,,10,204,3700103,,,,,,,2022-04-06,1,,,,,ブイリンク,0
1457,5080401025724,新規,0,2022-04-06,2022-04-06,株式会社Ｒｕｂｙ　ｓｍｉｌｅ,,株式会社,静岡県,掛川市,杉谷南２丁目９番地の１２かつみ歯科２階,,22,213,4360030,,,,,,,2022-04-06,1,,,,,ルビースマイル,0
1458,5080403004503,新規,0,2022-04-06,2022-04-06,合同会社Ｔ．Ｅ．Ｎ,,合同会社,静岡県,浜松市中区,西伊場町９番１４号,,22,131,4328038,,,,,,,2022-04-06,1,,,,,ティーイーエヌ,0
1461,5100001035220,新規,0,2022-04-06,2022-04-06,株式会社信州ＤＮＡ研究所,,株式会社,長野県,松本市,浅間温泉２丁目１５番１１号,,20,202,3900303,,,,,,,2022-04-06,1,,,,,シンシュウディーエヌエーケンキュウショ,0
1462,5100001035229,新規,0,2022-04-06,2022-04-06,株式会社ｄｅｖ,,株式会社,長野県,松本市,波田５４９８番地１１,,20,202,3901401,,,,,,,2022-04-06,1,,,,,デヴ,0
1464,5100003006491,新規,0,2022-04-06,2022-04-06,合同会社レテン,,合同会社,長野県,佐久市,臼田２１７７番地１,,20,217,3840301,,,,,,,2022-04-06,1,,,,,レテン,0
1475,5110005016777,新規,0,2022-04-06,2022-04-06,社会保険労務士法人あおぞら社労士事務所,,その他の設立登記法人,新潟県,新潟市西蒲区,巻甲４１６２番地３第２星武ビル２Ｆ,,15,108,9530041,,,,,,,2022-04-06,1,,,,,,0
1494,5120001244843,新規,0,2022-04-06,2022-04-06,株式会社Ｉｎｄｏｍｉｔａｂｌｅ,,株式会社,大阪府,大阪市東淀川区,相川２丁目１０番１４号嶋田マンション１階,,27,114,5330007,,,,,,,2022-04-06,1,,,,,インドミタブル,0
1495,5120001244868,新規,0,2022-04-06,2022-04-06,株式会社ＮＩＳＨＩＷＡ,,株式会社,大阪府,大阪市住之江区,浜口西１丁目１３番１５号カトレアビル２０１号室,,27,125,5590006,,,,,,,2022-04-06,1,,,,,ニシワ,0
1496,5120001244934,新規,0,2022-04-06,2022-04-06,株式会社中原電気,,株式会社,大阪府,大阪市西区,川口４丁目７番１８号,,27,106,5500021,,,,,,,2022-04-06,1,,,,,ナカハラデンキ,0
1497,5120001244967,新規,0,2022-04-06,2022-04-06,株式会社Ｌｅｎｔｅ,,株式会社,大阪府,大阪市天王寺区,上本町８丁目３番８－１００１号,,27,109,5430001,,,,,,,2022-04-06,1,,,,,レンテ,0
1498,5120001244991,新規,0,2022-04-06,2022-04-06,株式会社テンホー,,株式会社,大阪府,大阪市東住吉区,照ケ丘矢田３丁目１０－９,,27,121,5460021,,,,,,,2022-04-06,1,,,,,テンホー,0
1500,5120003021365,新規,0,2022-04-06,2022-04-06,合同会社ＺＡＳ,,合同会社,大阪府,大阪市中央区,南船場３丁目１１号１０心斎橋太陽ビル３１７,,27,128,5420081,,,,,,,2022-04-06,1,,,,,ザス,0
1501,5120003021415,新規,0,2022-04-06,2022-04-06,合同会社ハイフラット,,合同会社,大阪府,大阪市北区,中崎西１丁目３番９－３０３号,,27,127,5300015,,,,,,,2022-04-06,1,,,,,ハイフラット,0
1506,5120101065330,新規,0,2022-04-06,2022-04-06,大阪バイブロ興業株式会社,,株式会社,大阪府,堺市美原区,菅生７５０番地１,,27,147,5870041,,,,,,,2022-04-06,1,,,,,オオサカバイブロコウギョウ,0
1510,5120901045804,新規,0,2022-04-06,2022-04-06,株式会社ＬＥＧＡＲＩＯ,,株式会社,大阪府,箕面市,新稲５丁目１６番７５号,,27,220,5620005,,,,,,,2022-04-06,1,,,,,レガリオ,0
1511,5120901045812,新規,0,2022-04-06,2022-04-06,株式会社ＶＥＣＴＲＩＸ　ＪＡＰＡＮ,,株式会社,大阪府,箕面市,半町３丁目１３番４号,,27,220,5620044,,,,,,,2022-04-06,1,,,,,ヴェクトリックスジャパン,0
1512,5120901045820,新規,0,2022-04-06,2022-04-06,株式会社弥栄フードサービス,,株式会社,大阪府,吹田市,江の木町１５番５号,,27,205,5640053,,,,,,,2022-04-06,1,,,,,イヤサカフードサービス,0
1519,5130001071460,新規,0,2022-04-06,2022-04-06,ラッキー国際サービス株式会社,,株式会社,京都府,京都市下京区,玉津島町２９４－１０６号室,,26,106,6008427,,,,,,,2022-04-06,1,,,,,ラッキーコクサイサービス,0
1520,5130001071469,新規,0,2022-04-06,2022-04-06,株式会社エイジェックスデジタルストラテジーズ,,株式会社,京都府,京都市中京区,六角通東洞院西入堂之前町２５４番地,,26,104,6048134,,,,,,,2022-04-06,1,,,,,エイジェックスデジタルストラテジーズ,0
1521,5130001071485,新規,0,2022-04-06,2022-04-06,株式会社コーリング,,株式会社,京都府,京都市伏見区,向島中島町８０ジェルメメゾン２０５,,26,109,6128113,,,,,,,2022-04-06,1,,,,,コーリング,0
1522,5130003007850,新規,0,2022-04-06,2022-04-06,合同会社Ａ’ｅｔｈｅｒ　Ｓｅｅｄｓ,,合同会社,京都府,京都市左京区,松ケ崎杉ケ海道町４番地３５,,26,103,6060905,,,,,,,2022-04-06,1,,,,,エーテルシード,0
1523,5130003007859,新規,0,2022-04-06,2022-04-06,合同会社ｍａｙｂｅ,,合同会社,京都府,京都市左京区,東丸太町７,,26,103,6068395,,,,,,,2022-04-06,1,,,,,メイビー,0
1529,5140001125455,新規,0,2022-04-06,2022-04-06,株式会社出口工業所,,株式会社,兵庫県,加古川市,志方町細工所１０５８番地の２,,28,210,6750303,,,,,,,2022-04-06,1,,,,,デグチコウギョウショ,0
1530,5140001125505,新規,0,2022-04-06,2022-04-06,株式会社ヤマト,,株式会社,兵庫県,豊岡市,京町８番６号,,28,209,6680042,,,,,,,2022-04-06,1,,,,,ヤマト,0
1531,5140001125562,新規,0,2022-04-06,2022-04-06,Ｂｅｒｇ株式会社,,株式会社,兵庫県,神戸市垂水区,塩屋町６丁目３２番２５号,,28,108,6550872,,,,,,,2022-04-06,1,,,,,バーグ,0
1532,5140003017527,新規,0,2022-04-06,2022-04-06,サモエスキー合同会社,,合同会社,兵庫県,明石市,大久保町西脇５７９番地の８,,28,203,6740054,,,,,,,2022-04-06,1,,,,,サモエスキー,0
1534,5140005026121,新規,0,2022-04-06,2022-04-06,司法書士法人神戸栄町事務所,,その他の設立登記法人,兵庫県,神戸市中央区,栄町通２丁目４番１３神栄ビル２０１号,,28,110,6500023,,,,,,,2022-04-06,1,,,,,コウベサカエマチジムショ,0
1538,5160001024102,新規,0,2022-04-06,2022-04-06,株式会社サニーディ,,株式会社,滋賀県,大津市,蓮池町８－１９岩井ビル２階,,25,201,5200001,,,,,,,2022-04-06,1,,,,,サニーディ,0
1540,5170005006954,新規,0,2022-04-06,2022-04-06,一般財団法人和歌山県保菌検査管理協会,,その他の設立登記法人,和歌山県,和歌山市,中之島８２１番地,,30,201,6408392,,,,,,,2022-04-06,1,,,,,ワカヤマケンホキンケンサカンリキョウカイ,0
1544,5180001150755,新規,0,2022-04-06,2022-04-06,株式会社ＥＤＵＣＡＭＰ,,株式会社,愛知県,名古屋市名東区,一丁目８番地,,23,115,4650000,,,,,,,2022-04-06,1,,,,,エデュキャンプ,0
1553,5180301036092,新規,0,2022-04-06,2022-04-06,株式会社独立独歩,,株式会社,愛知県,豊田市,平戸橋町石平３６番地５,,23,211,4700331,,,,,,,2022-04-06,1,,,,,ドクリツドッポ,0
1563,5200001039913,新規,0,2022-04-06,2022-04-06,株式会社Ａｓ　Ｔｒｅｅ　Ｗｏｒｋｓ,,株式会社,岐阜県,中津川市,坂下３４番地６６,,21,206,5099232,,,,,,,2022-04-06,1,,,,,エースツリーワークス,0
1564,5200001039938,新規,0,2022-04-06,2022-04-06,株式会社キズナ保険サービス,,株式会社,岐阜県,下呂市,野尻１９２１番地１,,21,220,5092313,,,,,,,2022-04-06,1,,,,,キズナホケンサービス,0
1565,5200001039946,新規,0,2022-04-06,2022-04-06,株式会社Ｊ‐ｃｒｅｓｔ,,株式会社,岐阜県,大垣市,青柳町１丁目２２３番地,,21,202,5030961,,,,,,,2022-04-06,1,,,,,ジェイクレスト,0
1573,5210001018874,新規,0,2022-04-06,2022-04-06,株式会社Ａ＆ＹＺ,,株式会社,福井県,福井市,足羽４丁目７番２０号,,18,201,9188007,,,,,,,2022-04-06,1,,,,,エーアンドワイゼット,0
1577,5230001019301,新規,0,2022-04-06,2022-04-06,株式会社ＭＫＢ,,株式会社,富山県,砺波市,庄川町高儀新１９０番地２,,16,208,9320312,,,,,,,2022-04-06,1,,,,,エムケイビー,0
1583,5240001059552,新規,0,2022-04-06,2022-04-06,株式会社ＴＲＡＮＳＩＴ‐Ａ,,株式会社,広島県,東広島市,入野中山台２丁目９番２８号,,34,212,7392209,,,,,,,2022-04-06,1,,,,,トランジットアクション,0
1584,5240001059569,新規,0,2022-04-06,2022-04-06,ワイズ株式会社,,株式会社,広島県,広島市佐伯区,五日市中央１丁目８番１２号シャインライズ楽々園２０５号室,,34,108,7315128,,,,,,,2022-04-06,1,,,,,ワイズ,0
1589,5250001019480,新規,0,2022-04-06,2022-04-06,株式会社ＰＬＡＺ,,株式会社,山口県,岩国市,岩国１丁目１４番２１号,,35,208,7410062,,,,,,,2022-04-06,1,,,,,プラズ,0
1590,5250001019489,新規,0,2022-04-06,2022-04-06,橋本モータース株式会社,,株式会社,山口県,周南市,古泉１丁目８番２０号,,35,215,7460024,,,,,,,2022-04-06,1,,,,,ハシモトモータース,0
1595,5260001036723,新規,0,2022-04-06,2022-04-06,ドリームテック株式会社,,株式会社,岡山県,岡山市中区,神下１２７番地４,,33,102,7038225,,,,,,,2022-04-06,1,,,,,ドリームテック,0
1596,5280001008670,新規,0,2022-04-06,2022-04-06,株式会社ローカルガバナンス,,株式会社,島根県,邑智郡邑南町,日和２１４番地４,,32,449,6960104,,,,,,,2022-04-06,1,,,,,,0
1602,5290001097044,新規,0,2022-04-06,2022-04-06,株式会社ガレージフジノ,,株式会社,福岡県,糸島市,志摩桜井４６４３番地１,,40,230,8191304,,,,,,,2022-04-06,1,,,,,ガレージフジノ,0
1603,5290001097060,新規,0,2022-04-06,2022-04-06,株式会社Ｈ．Ｆ．Ｌ,,株式会社,福岡県,大牟田市,小浜町９５番地３－２棟２０５号,,40,202,8360034,,,,,,,2022-04-06,1,,,,,エイチエフエル,0
1604,5290001097110,新規,0,2022-04-06,2022-04-06,株式会社アルゴエナジー,,株式会社,福岡県,福岡市西区,姪浜駅南４丁目９番２３号,,40,135,8190006,,,,,,,2022-04-06,1,,,,,アルゴエナジー,0
1610,5290005018616,新規,0,2022-04-06,2022-04-06,社会福祉法人清羽会,,その他の設立登記法人,福岡県,飯塚市,相田９９番地１,,40,205,8200052,,,,,,,2022-04-06,1,,,,,セイハカイ,0
1613,5290801028396,新規,0,2022-04-06,2022-04-06,株式会社ＴＧＫ,,株式会社,福岡県,北九州市小倉北区,浅野３丁目５番７－３０４号,,40,106,8020001,,,,,,,2022-04-06,1,,,,,ティージーケー,0
1614,5290801028405,新規,0,2022-04-06,2022-04-06,株式会社北辰防災工業,,株式会社,福岡県,北九州市小倉南区,徳吉東５丁目１１番１５号,,40,107,8030277,,,,,,,2022-04-06,1,,,,,ホクシンボウサイコウギョウ,0
1623,5320001019003,新規,0,2022-04-06,2022-04-06,ライフサポート大原総合保険株式会社,,株式会社,大分県,日田市,田島２丁目１番３２号,,44,204,8770025,,,,,,,2022-04-06,1,,,,,ライフサポートオオハラソウゴウホケン,0
1624,5320003003764,新規,0,2022-04-06,2022-04-06,合同会社草野本家・升屋,,合同会社,大分県,日田市,豆田町１１番４号,,44,204,8770005,,,,,,,2022-04-06,1,,,,,クサノホンケマスヤ,0
1625,5330001029604,新規,0,2022-04-06,2022-04-06,株式会社サブロク,,株式会社,熊本県,上天草市,大矢野町登立２０３番地３,,43,212,8693601,,,,,,,2022-04-06,1,,,,,サブロク,0
1626,5330001029620,新規,0,2022-04-06,2022-04-06,株式会社疋田畳工場,,株式会社,熊本県,八代市,高島町４１７４番地９,,43,202,8660014,,,,,,,2022-04-06,1,,,,,ヒキタタタミコウジョウ,0
1628,5340001024620,新規,0,2022-04-06,2022-04-06,株式会社美希自動車,,株式会社,鹿児島県,霧島市,牧園町宿窪田２１５８番地１,,46,218,8996507,,,,,,,2022-04-06,1,,,,,ミキジドウシャ,0
1629,5340001024629,新規,0,2022-04-06,2022-04-06,株式会社種仁,,株式会社,鹿児島県,熊毛郡屋久島町,平内字新八野６３１番４９,,46,505,8914406,,,,,,,2022-04-06,1,,,,,タネジン,0
1634,5350001017664,新規,0,2022-04-06,2022-04-06,株式会社ＯＵＲ,,株式会社,宮崎県,宮崎市,花ケ島町赤江町２０９６番地,,45,201,8800036,,,,,,,2022-04-06,1,,,,,アワー,0
1635,5350001017680,新規,0,2022-04-06,2022-04-06,株式会社山當フーズ,,株式会社,宮崎県,都城市,山之口町山之口田原４１２４番地,,45,202,8891803,,,,,,,2022-04-06,1,,,,,サントウフーズ,0
1637,5360001030229,新規,0,2022-04-06,2022-04-06,株式会社アイランドエナジー,,株式会社,沖縄県,宮古島市,城辺字西里添１０２０番２,,47,214,9060106,,,,,,,2022-04-06,1,,,,,アイランドエナジー,0
1638,5360003011912,新規,0,2022-04-06,2022-04-06,合同会社Ｍ２,,合同会社,沖縄県,島尻郡八重瀬町,字友寄８１２番地,,47,362,9010411,,,,,,,2022-04-06,1,,,,,エムツー,0
1640,5370001048385,新規,0,2022-04-06,2022-04-06,株式会社アグリみらい,,株式会社,宮城県,登米市,迫町北方字堤花５１番地,,04,212,9870513,,,,,,,2022-04-06,1,,,,,アグリミライ,0
1641,5370001048402,新規,0,2022-04-06,2022-04-06,株式会社スズキホーム,,株式会社,宮城県,多賀城市,八幡３丁目１２番３０号,,04,209,9850874,,,,,,,2022-04-06,1,,,,,スズキホーム,0
1642,5370001048419,新規,0,2022-04-06,2022-04-06,ロジスティクス東北株式会社,,株式会社,宮城県,大崎市,古川稲葉１丁目５番１２号,,04,215,9896135,,,,,,,2022-04-06,1,,,,,ロジスティクストウホク,0
1643,5370001048427,新規,0,2022-04-06,2022-04-06,エバクラウド株式会社,,株式会社,宮城県,仙台市宮城野区,東仙台２丁目１４番２２号オフィスＭＡ３号室,,04,102,9830833,,,,,,,2022-04-06,1,,,,,エバクラウド,0
1646,5370003005640,新規,0,2022-04-06,2022-04-06,合同会社タナカ,,合同会社,宮城県,仙台市宮城野区,新田５丁目６番３２－３０１号,,04,102,9830038,,,,,,,2022-04-06,1,,,,,タナカ,0
1647,5370003005649,新規,0,2022-04-06,2022-04-06,合同会社ＳＴコーポレーション,,合同会社,宮城県,仙台市青葉区,中央４丁目２－９ネオブレイクスルー仙台４Ｆ,,04,101,9800021,,,,,,,2022-04-06,1,,,,,エスティーコーポレーション,0
1652,5380001032702,新規,0,2022-04-06,2022-04-06,株式会社ＵＴヘルステック,,株式会社,福島県,福島市,渡利字大久保６０番地の１Ｍ３４３,,07,201,9608141,,,,,,,2022-04-06,1,,,,,ユーティーヘルステック,0
1653,5380001032710,新規,0,2022-04-06,2022-04-06,株式会社ビーウィズ,,株式会社,福島県,郡山市,安積町成田字田向１５０番地の２７７,,07,203,9630112,,,,,,,2022-04-06,1,,,,,ビーウィズ,0
1655,5380003005144,新規,0,2022-04-06,2022-04-06,合同会社エスティー,,合同会社,福島県,会津若松市,北会津町下米塚７０７番地,,07,202,9696185,,,,,,,2022-04-06,1,,,,,エスティー,0
1658,5410001013145,新規,0,2022-04-06,2022-04-06,株式会社エムズ・フード,,株式会社,秋田県,秋田市,大町３丁目２番３０号,,05,201,0100921,,,,,,,2022-04-06,1,,,,,エムズフード,0
1662,5430001086354,新規,0,2022-04-06,2022-04-06,ホープ営繕工業株式会社,,株式会社,北海道,札幌市北区,屯田二条１丁目９番２０－７０１号,,01,102,0020852,,,,,,,2022-04-06,1,,,,,ホープエイゼンコウギョウ,0
1663,5430003013777,新規,0,2022-04-06,2022-04-06,合同会社Ｋ‐Ｗｅｌｄ,,合同会社,北海道,札幌市白石区,東札幌二条５丁目８番１０－６０２号,,01,104,0030002,,,,,,,2022-04-06,1,,,,,ケーウェルド,0
1672,5480001011695,新規,0,2022-04-06,2022-04-06,株式会社がんばろう徳島,,株式会社,徳島県,那賀郡那賀町,木頭和無田字イワツシ５番地２３,,36,368,7716403,,,,,,,2022-04-06,1,,,,,ガンバロウトクシマ,0
1676,5500001024109,新規,0,2022-04-06,2022-04-06,株式会社ＯＳＮ,,株式会社,愛媛県,八幡浜市,保内町宮内１番耕地５４５番地１,,38,204,7960202,,,,,,,2022-04-06,1,,,,,オーエスエヌ,0
1677,5500003002806,新規,0,2022-04-06,2022-04-06,合同会社ＳＥＩＢＩ設計,,合同会社,愛媛県,新居浜市,光明寺１丁目甲４２５番地の２,,38,205,7920853,,,,,,,2022-04-06,1,,,,,セイビセッケイ,0
1682,6010001225531,新規,0,2022-04-06,2022-04-06,株式会社共育住居,,株式会社,東京都,千代田区,富士見２丁目６‐９雄山閣ビル４Ｆガイアモーレプラザ,,13,101,1020071,,,,,,,2022-04-06,1,,,,,トモイクジュウキョ,0
1683,6010001225580,新規,0,2022-04-06,2022-04-06,株式会社エスピーホームズ,,株式会社,東京都,千代田区,神田松永町７ヤマリビル６０２,,13,101,1010023,,,,,,,2022-04-06,1,,,,,エスピーホームズ,0
1684,6010001225663,新規,0,2022-04-06,2022-04-06,プライムヴァース株式会社,,株式会社,東京都,千代田区,丸の内１丁目６番５号９Ｆ,,13,101,1000005,,,,,,,2022-04-06,1,,,,,プライムヴァース,0
1685,6010001225713,新規,0,2022-04-06,2022-04-06,ＡＢＣ全進商事株式会社,,株式会社,東京都,中央区,築地２丁目１番１６号５階,,13,102,1040045,,,,,,,2022-04-06,1,,,,,エービーシーゼンシンショウジ,0
1688,6010003037363,新規,0,2022-04-06,2022-04-06,紀州第一物産合同会社,,合同会社,東京都,文京区,千駄木４丁目１３番６号アドリーム文京動坂１０６,,13,105,1130022,,,,,,,2022-04-06,1,,,,,キシュウダイイチブッサン,0
1689,6010003037405,新規,0,2022-04-06,2022-04-06,合同会社ｓｏｌａｎａ,,合同会社,東京都,文京区,本郷２丁目１３番１３－４０２号,,13,105,1130033,,,,,,,2022-04-06,1,,,,,ソラナ,0
1697,6010103001888,新規,0,2022-04-06,2022-04-06,合同会社ＳＢＳ八王子,,合同会社,東京都,八王子市,散田町４丁目２０番１７号,,13,201,1930832,,,,,,,2022-04-06,1,,,,,エスビーエスハチオウジ,0
1701,6010401166631,新規,0,2022-04-06,2022-04-06,ＲＰブランド・クリエーション株式会社,,株式会社,東京都,港区,六本木７丁目３番１６号六本木インターナショナルアネックスビル２Ｆ,,13,103,1060032,,,,,,,2022-04-06,1,,,,,アールピーブランドクリエーション,0
1702,6010401166697,新規,0,2022-04-06,2022-04-06,株式会社芝浦ラボ,,株式会社,東京都,港区,芝浦４丁目１９番１号,,13,103,1080023,,,,,,,2022-04-06,1,,,,,シバウララボ,0
1705,6010403027410,新規,0,2022-04-06,2022-04-06,ＡｃｔＭａｔｅｒｉａ合同会社,,合同会社,東京都,港区,芝浦２丁目８番３号エスティメゾン芝浦６０４,,13,103,1080023,,,,,,,2022-04-06,1,,,,,アクトマテリア,0
1706,6010403027419,新規,0,2022-04-06,2022-04-06,合同会社遠洋貿易,,合同会社,東京都,港区,六本木３丁目３番２９－４０４号,,13,103,1060032,,,,,,,2022-04-06,1,,,,,エンヨウボウエキ,0
1709,6010503006553,新規,0,2022-04-06,2022-04-06,ｔａｃｏ４４．合同会社,,合同会社,東京都,台東区,浅草２丁目２６番５号ＳＤＳビル１０１,,13,106,1110032,,,,,,,2022-04-06,1,,,,,タコヨシ,0
1710,6010603009472,新規,0,2022-04-06,2022-04-06,合同会社ＭＡリサーチ,,合同会社,東京都,江東区,大島１丁目３９番２３－５０２号,,13,108,1360072,,,,,,,2022-04-06,1,,,,,エムエーリサーチ,0
1711,6010701042474,新規,0,2022-04-06,2022-04-06,株式会社新技研,,株式会社,東京都,品川区,西五反田８丁目８－１６,,13,109,1410031,,,,,,,2022-04-06,1,,,,,,0
1713,6010801032854,新規,0,2022-04-06,2022-04-06,株式会社石原商会,,株式会社,東京都,大田区,田園調布１丁目１２番１４－２０４号,,13,111,1450071,,,,,,,2022-04-06,1,,,,,イシハラショウカイ,0
1718,6011001146676,新規,0,2022-04-06,2022-04-06,株式会社ＮＫキャピタル,,株式会社,東京都,渋谷区,神宮前２丁目１６番１１号,,13,113,1500001,,,,,,,2022-04-06,1,,,,,エヌケイキャピタル,0
1719,6011001146692,新規,0,2022-04-06,2022-04-06,ＡＳＨＴｉＡＲＡ株式会社,,株式会社,東京都,渋谷区,神宮前６丁目２３番４号桑野ビル,,13,113,1500001,,,,,,,2022-04-06,1,,,,,アシュティアラ,0
1720,6011001146767,新規,0,2022-04-06,2022-04-06,株式会社プロカ,,株式会社,東京都,渋谷区,桜丘町２３番１７号シティコート桜丘４０８,,13,113,1500031,,,,,,,2022-04-06,1,,,,,プロカ,0
1721,6011001146791,新規,0,2022-04-06,2022-04-06,株式会社Ｍｅｌｔ,,株式会社,東京都,渋谷区,神宮前６丁目２３番４号桑野ビル２階,,13,113,1500001,,,,,,,2022-04-06,1,,,,,メルト,0
1722,6011001146825,新規,0,2022-04-06,2022-04-06,株式会社クラウドスタディ,,株式会社,東京都,渋谷区,幡ヶ谷３丁目３９番１２号渋谷ウェストビル１階,,13,113,1510072,,,,,,,2022-04-06,1,,,,,クラウドスタディ,0
1723,6011003014451,新規,0,2022-04-06,2022-04-06,合同会社ｔｏｋｉ‐ｄｏｋｉ,,合同会社,東京都,渋谷区,神宮前６丁目２９－４,,13,113,1500001,,,,,,,2022-04-06,1,,,,,トキドキ,0
1728,6011101098297,新規,0,2022-04-06,2022-04-06,株式会社ベイリンク,,株式会社,東京都,新宿区,四谷３丁目１３番地ＳＥＡＢＩＲＤビル２階,,13,104,1600004,,,,,,,2022-04-06,1,,,,,ベイリンク,0
1729,6011101098405,新規,0,2022-04-06,2022-04-06,株式会社日本エイル,,株式会社,東京都,新宿区,西新宿２丁目６番１号,,13,104,1600023,,,,,,,2022-04-06,1,,,,,,0
1730,6011101098421,新規,0,2022-04-06,2022-04-06,株式会社ＳＱＵＡＲＥ,,株式会社,東京都,新宿区,四谷１丁目８番８号佐伯千成ビル５階,,13,104,1600004,,,,,,,2022-04-06,1,,,,,スクエア,0
1738,6011401024143,新規,0,2022-04-06,2022-04-06,株式会社グッドライフ,,株式会社,東京都,板橋区,成増３丁目１番１９号日光ビル３Ｆ,,13,119,1750094,,,,,,,2022-04-06,1,,,,,グッドライフ,0
1739,6011501027913,新規,0,2022-04-06,2022-04-06,Ｌｏｃｕｓ株式会社,,株式会社,東京都,北区,東田端２丁目１１番１０－８０１号,,13,117,1140013,,,,,,,2022-04-06,1,,,,,ローカス,0
1740,6011501027921,新規,0,2022-04-06,2022-04-06,株式会社ＳＥＩＳＨＵＮ,,株式会社,東京都,荒川区,町屋５丁目９番３－２２０２号,,13,118,1160001,,,,,,,2022-04-06,1,,,,,セイシュン,0
1742,6011801040533,新規,0,2022-04-06,2022-04-06,株式会社大師前どうぶつ病院,,株式会社,東京都,足立区,西新井１丁目３８番１１号,,13,121,1230841,,,,,,,2022-04-06,1,,,,,ダイシマエドウブツビョウイン,0
1743,6012303001651,新規,0,2022-04-06,2022-04-06,ディーエージェンシー合同会社,,合同会社,東京都,町田市,大蔵町３０９３番地４０,,13,209,1950062,,,,,,,2022-04-06,1,,,,,ディーエージェンシー,0
1744,6012401039032,新規,0,2022-04-06,2022-04-06,株式会社Ｅｉｆｅｒ,,株式会社,東京都,小金井市,本町６丁目２番１０－１８０２号プラウドタワー武蔵小金井クロス,,13,210,1840004,,,,,,,2022-04-06,1,,,,,アイファー,0
1747,6012801021498,新規,0,2022-04-06,2022-04-06,株式会社リヴェリテ,,株式会社,東京都,国立市,東１丁目１５番地の１１、４４８ビル３Ｆ,,13,215,1860002,,,,,,,2022-04-06,1,,,,,リヴェリテ,0
1748,6012803002744,新規,0,2022-04-06,2022-04-06,合同会社Ｗｉｎ　Ｓｔａｃｋ,,合同会社,東京都,立川市,栄町５丁目４５番３６号,,13,202,1900003,,,,,,,2022-04-06,1,,,,,ウィンスタック,0
1749,6013101008888,新規,0,2022-04-06,2022-04-06,株式会社Ｈａｚｅ,,株式会社,東京都,青梅市,今寺１丁目５１３番地,,13,205,1980021,,,,,,,2022-04-06,1,,,,,ヘイズ,0
1753,6020001145919,新規,0,2022-04-06,2022-04-06,株式会社ＣＥＬＯ,,株式会社,神奈川県,川崎市多摩区,菅稲田堤１丁目１５番１１号小川ハイツ１０２,,14,135,2140003,,,,,,,2022-04-06,1,,,,,セロ,0
1754,6020001145927,新規,0,2022-04-06,2022-04-06,株式会社ＧＲｗｏｒｋｓ,,株式会社,神奈川県,横浜市保土ケ谷区,星川３丁目２番１５号,,14,106,2400006,,,,,,,2022-04-06,1,,,,,ジーアールワークス,0
1755,6020001145935,新規,0,2022-04-06,2022-04-06,株式会社インサウス,,株式会社,神奈川県,横浜市西区,高島２丁目１１番２号スカイメナー横浜５１９,,14,103,2200011,,,,,,,2022-04-06,1,,,,,インサウス,0
1756,6020001145943,新規,0,2022-04-06,2022-04-06,株式会社むつみ,,株式会社,神奈川県,横浜市西区,南軽井沢５６番地,,14,103,2200002,,,,,,,2022-04-06,1,,,,,ムツミ,0
1757,6020001145951,新規,0,2022-04-06,2022-04-06,菊水電子準備株式会社,,株式会社,神奈川県,横浜市都筑区,東山田１丁目１番３号,,14,118,2240023,,,,,,,2022-04-06,1,,,,,キクスイデンシジュンビ,0
1758,6020001145976,新規,0,2022-04-06,2022-04-06,山崎技術事務所株式会社,,株式会社,神奈川県,横浜市港北区,大倉山５丁目７番１－２１３号,,14,109,2220037,,,,,,,2022-04-06,1,,,,,ヤマサキギジュツジムショ,0
1759,6020001145984,新規,0,2022-04-06,2022-04-06,株式会社石川鑑定,,株式会社,神奈川県,横浜市港南区,笹下４丁目８番３－５０４号,,14,111,2340052,,,,,,,2022-04-06,1,,,,,イシカワカンテイ,0
1760,6020001146009,新規,0,2022-04-06,2022-04-06,ＷＯＲＬＤＭＡ株式会社,,株式会社,神奈川県,横浜市神奈川区,栄町５番地１横浜クリエーションクエア１４,,14,102,2210052,,,,,,,2022-04-06,1,,,,,ワールドマ,0
1767,6021001075619,新規,0,2022-04-06,2022-04-06,株式会社ウィングマン,,株式会社,神奈川県,厚木市,毛利台１丁目９番１号,,14,212,2430037,,,,,,,2022-04-06,1,,,,,ウィングマン,0
1768,6021001075627,新規,0,2022-04-06,2022-04-06,株式会社Ｄ‐ＳＰＩＮ,,株式会社,神奈川県,相模原市中央区,相模原４丁目３番１７号相模原ＴＯＢビル７階,,14,152,2520231,,,,,,,2022-04-06,1,,,,,ディースピン,0
1769,6021001075635,新規,0,2022-04-06,2022-04-06,株式会社ユメオイ,,株式会社,神奈川県,相模原市南区,麻溝台１丁目６番１３号,,14,153,2520328,,,,,,,2022-04-06,1,,,,,ユメオイ,0
1771,6021005012485,新規,0,2022-04-06,2022-04-06,医療法人社団ＫＥＥＰ　ＳＭＩＬＥ２８,,その他の設立登記法人,神奈川県,横須賀市,衣笠栄町１丁目４０番地,,14,201,2380031,,,,,,,2022-04-06,1,,,,,キープスマイルニジュウハチ,0
1776,6030001147419,新規,0,2022-04-06,2022-04-06,株式会社フルファンクション,,株式会社,埼玉県,所沢市,大字山口５８７番地の９,,11,208,3591145,,,,,,,2022-04-06,1,,,,,フルファンクション,0
1777,6030001147484,新規,0,2022-04-06,2022-04-06,ＡＬＬ　ＰＬＡＮＴＳ　ＡＲＣＨＩＴＥＣＴ株式会社,,株式会社,埼玉県,草加市,瀬崎４丁目１番１７号サルドセジュール１０１号,,11,221,3400022,,,,,,,2022-04-06,1,,,,,オールプランツアーキテクト,0
1778,6030001147526,新規,0,2022-04-06,2022-04-06,むさし野グリーン農園株式会社,,株式会社,埼玉県,川越市,大字下赤坂３９３番地,,11,201,3501155,,,,,,,2022-04-06,1,,,,,ムサシノグリーンノウエン,0
1779,6030001147567,新規,0,2022-04-06,2022-04-06,株式会社フィデス,,株式会社,埼玉県,白岡市,西２丁目１５番２１,,11,246,3490205,,,,,,,2022-04-06,1,,,,,フィデス,0
1780,6030001147609,新規,0,2022-04-06,2022-04-06,永盛株式会社,,株式会社,埼玉県,三郷市,戸ケ崎１丁目１９７番地３,,11,237,3410044,,,,,,,2022-04-06,1,,,,,ナガモリ,0
1786,6040001122899,新規,0,2022-04-06,2022-04-06,株式会社内山グループ,,株式会社,千葉県,松戸市,稔台７丁目３４番地の７サンフラワー小松４０３号,,12,207,2702231,,,,,,,2022-04-06,1,,,,,ウチヤマグループ,0
1787,6040001122908,新規,0,2022-04-06,2022-04-06,株式会社ＹＭ　Ｇｒｏｕｐ,,株式会社,千葉県,習志野市,東習志野２丁目１８番１１－１０８号,,12,216,2750001,,,,,,,2022-04-06,1,,,,,ワイエムグループ,0
1788,6040001122940,新規,0,2022-04-06,2022-04-06,株式会社長沢工業,,株式会社,千葉県,市原市,西広６丁目４番地４９号,,12,219,2900022,,,,,,,2022-04-06,1,,,,,ナガサワコウギョウ,0
1790,6040003019838,新規,0,2022-04-06,2022-04-06,合同会社ＣＡＴ,,合同会社,千葉県,松戸市,松戸１０９７番地の１リラヴェールレジデンス１０４号,,12,207,2710092,,,,,,,2022-04-06,1,,,,,キャット,0
1798,6060003004012,新規,0,2022-04-06,2022-04-06,Ａｒｔ　Ｊｕｎ合同会社,,合同会社,栃木県,宇都宮市,上戸祭町５７６番地６,,09,201,3200051,,,,,,,2022-04-06,1,,,,,アートジュン,0
1803,6070001039117,新規,0,2022-04-06,2022-04-06,株式会社本木製作所,,株式会社,群馬県,伊勢崎市,堀口町９４５番地１,,10,204,3720834,,,,,,,2022-04-06,1,,,,,モトキセイサクショ,0
1807,6080001024860,新規,0,2022-04-06,2022-04-06,株式会社良建築事務所,,株式会社,静岡県,静岡市清水区,村松１丁目４番４４号,,22,103,4240926,,,,,,,2022-04-06,1,,,,,ヨシケンチクジムショ,0
1808,6080003002773,新規,0,2022-04-06,2022-04-06,合同会社魚佐,,合同会社,静岡県,静岡市葵区,山崎１丁目２３番地の１,,22,101,4211213,,,,,,,2022-04-06,1,,,,,ウオサ,0
1818,6080401025723,新規,0,2022-04-06,2022-04-06,株式会社ＲｕＦｉｘ,,株式会社,静岡県,掛川市,七日町２４６番地,,22,213,4360058,,,,,,,2022-04-06,1,,,,,ラフィックス,0
1819,6080401025731,新規,0,2022-04-06,2022-04-06,株式会社樹ＶＩＳＩＯＮ,,株式会社,静岡県,浜松市北区,三ヶ日町大谷１３９９番地,,22,135,4311407,,,,,,,2022-04-06,1,,,,,イツキビジョン,0
1820,6090001017509,新規,0,2022-04-06,2022-04-06,菊水エムズ株式会社,,株式会社,山梨県,南都留郡富士河口湖町,勝山２８０５番地,,19,430,4010310,,,,,,,2022-04-06,1,,,,,キクスイエムズ,0
1823,6100003006490,新規,0,2022-04-06,2022-04-06,合同会社アートワークセツ,,合同会社,長野県,中野市,大字西条９８２番地１５、１階,,20,211,3830042,,,,,,,2022-04-06,1,,,,,アートワークセツ,0
1826,6110001036539,新規,0,2022-04-06,2022-04-06,株式会社横井工業,,株式会社,新潟県,村上市,檜原１４７７番地２９,,15,212,9580215,,,,,,,2022-04-06,1,,,,,ヨコイコウギョウ,0
1827,6110001036547,新規,0,2022-04-06,2022-04-06,株式会社ＡＩＺＡＷＡ,,株式会社,新潟県,見附市,緑町９番２０号,,15,211,9540045,,,,,,,2022-04-06,1,,,,,アイザワ,0
1829,6110005016776,新規,0,2022-04-06,2022-04-06,社会保険労務士法人ワーク社労士事務所,,その他の設立登記法人,新潟県,新潟市中央区,新和１丁目６番２０号アーク笹出,,15,103,9500972,,,,,,,2022-04-06,1,,,,,ワークシャロウシジムショ,0
1834,6120001244834,新規,0,2022-04-06,2022-04-06,株式会社賃貸ｗｉｔｈペット,,株式会社,大阪府,大阪市住之江区,北加賀屋５丁目６番１８号リアライズ北加賀屋Ｔ１１,,27,125,5590011,,,,,,,2022-04-06,1,,,,,チンタイウィズペット,0
1835,6120001244859,新規,0,2022-04-06,2022-04-06,株式会社アールロジック,,株式会社,大阪府,大阪市鶴見区,今津南１丁目２番２６号ミオハイツザコ６０２号室,,27,124,5380043,,,,,,,2022-04-06,1,,,,,アールロジック,0
1836,6120001244917,新規,0,2022-04-06,2022-04-06,株式会社石田鉄工所,,株式会社,大阪府,大阪市西淀川区,佃５丁目１０番１６号,,27,113,5550001,,,,,,,2022-04-06,1,,,,,イシダテッコウショ,0
1837,6120001244958,新規,0,2022-04-06,2022-04-06,株式会社エコクエスト,,株式会社,大阪府,大阪市東住吉区,北田辺４丁目９番６号,,27,121,5460044,,,,,,,2022-04-06,1,,,,,エコクエスト,0
1838,6120001244982,新規,0,2022-04-06,2022-04-06,ＴＲＹＡＮＧＲ株式会社,,株式会社,大阪府,大阪市中央区,本町１丁目５番６号山甚ビル５階,,27,128,5410053,,,,,,,2022-04-06,1,,,,,トライアングル,0
1839,6120001244990,新規,0,2022-04-06,2022-04-06,株式会社Ａ,,株式会社,大阪府,大阪市西区,南堀江２丁目５番３－１５０２号,,27,106,5500015,,,,,,,2022-04-06,1,,,,,エース,0
1842,6120003021406,新規,0,2022-04-06,2022-04-06,アウルエステート合同会社,,合同会社,大阪府,大阪市北区,西天満４丁目１３番５エスリード御堂筋梅田１５０９号,,27,127,5300047,,,,,,,2022-04-06,1,,,,,アウルエステート,0
1843,6120003021414,新規,0,2022-04-06,2022-04-06,合同会社Ｕｎｉｃｓ,,合同会社,大阪府,大阪市淀川区,三国本町３丁目２番１０号パルム新三国４０１,,27,123,5320005,,,,,,,2022-04-06,1,,,,,ユニックス,0
1844,6120003021422,新規,0,2022-04-06,2022-04-06,合同会社バズワゴン,,合同会社,大阪府,大阪市中央区,本町４丁目８番１号ＳＤ本町ビル７０２号,,27,128,5410053,,,,,,,2022-04-06,1,,,,,バズワゴン,0
1848,6120005022872,新規,0,2022-04-06,2022-04-06,一般社団法人全国連携福祉連合会,,その他の設立登記法人,大阪府,門真市,上野口町５４番１６号,,27,223,5710070,,,,,,,2022-04-06,1,,,,,ゼンコクレンケイフクシレンゴウカイ,0
1849,6120005022889,新規,0,2022-04-06,2022-04-06,司法書士法人さかい法務事務所,,その他の設立登記法人,大阪府,大阪市中央区,大手前１丁目７番３１号ＯＭＭビル５階,,27,128,5400008,,,,,,,2022-04-06,1,,,,,サカイホウムジムショ,0
1851,6120101065321,新規,0,2022-04-06,2022-04-06,株式会社ＡｕｔｏＦａｃｅ,,株式会社,大阪府,和泉市,池田下町３７８番地の１０,,27,219,5940032,,,,,,,2022-04-06,1,,,,,オートフェイス,0
1856,6120901045794,新規,0,2022-04-06,2022-04-06,株式会社ＢＡＣＫ　ＢＯＮＥ　ＢＲＯＴＨＥＲＳ,,株式会社,大阪府,吹田市,南金田２丁目８番３１号,,27,205,5640044,,,,,,,2022-04-06,1,,,,,バックボーンブラザーズ,0
1863,6130001071484,新規,0,2022-04-06,2022-04-06,株式会社ＤＥＮコーポレーション,,株式会社,京都府,京都市右京区,嵯峨広沢南野町４番５３,,26,108,6168304,,,,,,,2022-04-06,1,,,,,ディーイーエヌコーポレーション,0
1865,6130003007858,新規,0,2022-04-06,2022-04-06,合同会社インザリース,,合同会社,京都府,京都市下京区,七条御所ノ内本町１００番,,26,106,6008863,,,,,,,2022-04-06,1,,,,,インザリース,0
1870,6140001125470,新規,0,2022-04-06,2022-04-06,株式会社荒木,,株式会社,兵庫県,神戸市西区,狩場台５丁目５番地の９,,28,111,6512272,,,,,,,2022-04-06,1,,,,,アラキ,0
1871,6140001125512,新規,0,2022-04-06,2022-04-06,ホウエイロジスティクスイノベーション株式会社,,株式会社,兵庫県,尼崎市,丸島町３０－３,,28,202,6600086,,,,,,,2022-04-06,1,,,,,ホウエイロジスティクスイノベーション,0
1873,6140003017534,新規,0,2022-04-06,2022-04-06,ライフクエスト合同会社,,合同会社,兵庫県,神戸市西区,糀台４丁目１３番地の６５,,28,111,6512273,,,,,,,2022-04-06,1,,,,,ライフクエスト,0
1874,6140003017542,新規,0,2022-04-06,2022-04-06,合同会社クィーンリッチ,,合同会社,兵庫県,神戸市中央区,山本通２丁目７－４レジデンス北野３０３,,28,110,6500003,,,,,,,2022-04-06,1,,,,,クィーンリッチ,0
1876,6160001024084,新規,0,2022-04-06,2022-04-06,株式会社リュウズ,,株式会社,滋賀県,長浜市,元浜町７番５号,,25,203,5260059,,,,,,,2022-04-06,1,,,,,リュウズ,0
1877,6160005011070,新規,0,2022-04-06,2022-04-06,一般社団法人大津市スポーツ協会,,その他の設立登記法人,滋賀県,大津市,石場１０番５３号,,25,201,5200805,,,,,,,2022-04-06,1,,,,,オオツシスポーツキョウカイ,0
1880,6170005006953,新規,0,2022-04-06,2022-04-06,一般社団法人トーワ荘,,その他の設立登記法人,和歌山県,田辺市,高雄１丁目２番１４号,,30,206,6460028,,,,,,,2022-04-06,1,,,,,トーワソウ,0
1886,6180001150738,新規,0,2022-04-06,2022-04-06,株式会社弘,,株式会社,愛知県,名古屋市守山区,四軒家１丁目１１０番地,,23,113,4630034,,,,,,,2022-04-06,1,,,,,ヒロ,0
1890,6180005019723,新規,0,2022-04-06,2022-04-06,矢田・杉山税理士法人,,その他の設立登記法人,愛知県,名古屋市中区,栄３丁目７番１３号コスモ栄ビル２階,,23,106,4600008,,,,,,,2022-04-06,1,,,,,ヤダスギヤマ,0
1892,6180301036059,新規,0,2022-04-06,2022-04-06,株式会社ＡＴＨＥＮＡ,,株式会社,愛知県,豊田市,日之出町２丁目９番地４,,23,211,4710075,,,,,,,2022-04-06,1,,,,,アテナ,0
1894,6190001029262,新規,0,2022-04-06,2022-04-06,ＫＴＹ株式会社,,株式会社,三重県,四日市市,坂部台１丁目１１９５番地２６,,24,202,5120908,,,,,,,2022-04-06,1,,,,,ケーティーワイ,0
1896,6190005011687,新規,0,2022-04-06,2022-04-06,ＮＰＯ法人バンビの会,,その他の設立登記法人,三重県,津市,一身田町１６５番地２,,24,201,5140114,,,,,,,2022-04-06,1,,,,,バンビノカイ,0
1899,6200001039904,新規,0,2022-04-06,2022-04-06,株式会社グリーニスト,,株式会社,岐阜県,岐阜市,柳津町宮東３丁目３０番地５,,21,201,5016111,,,,,,,2022-04-06,1,,,,,グリーニスト,0
1900,6200001039912,新規,0,2022-04-06,2022-04-06,和良の郷総合開発株式会社,,株式会社,岐阜県,郡上市,和良町宮地１１５５番地,,21,219,5014507,,,,,,,2022-04-06,1,,,,,ワラノサトソウゴウカイハツ,0
1902,6210005010018,新規,0,2022-04-06,2022-04-06,一般社団法人福井県ｅスポーツ連合,,その他の設立登記法人,福井県,福井市,問屋町３丁目４１０番地,,18,201,9188231,,,,,,,2022-04-06,1,,,,,フクイケンイースポーツレンゴウ,0
1903,6220005008647,新規,0,2022-04-06,2022-04-06,一般社団法人あんずの木,,その他の設立登記法人,石川県,小松市,今江町７丁目４１６番地４,,17,203,9230964,,,,,,,2022-04-06,1,,,,,アンズノキ,0
1904,6230001019300,新規,0,2022-04-06,2022-04-06,株式会社加藤建設,,株式会社,富山県,富山市,婦中町下吉川５６８番地３,,16,201,9392611,,,,,,,2022-04-06,1,,,,,カトウケンセツ,0
1908,6240001059543,新規,0,2022-04-06,2022-04-06,株式会社３Ｄメディカルパートナーズ,,株式会社,広島県,広島市中区,国泰寺町１丁目３番２９号ＭＲＲデルタビル３階,,34,101,7300042,,,,,,,2022-04-06,1,,,,,スリーディーメディカルパートナーズ,0
1909,6240001059551,新規,0,2022-04-06,2022-04-06,アヴニール株式会社,,株式会社,広島県,安芸郡海田町,東１丁目１３番４８号,,34,304,7360013,,,,,,,2022-04-06,1,,,,,アヴニール,0
1910,6240001059568,新規,0,2022-04-06,2022-04-06,株式会社モリワキ工業,,株式会社,広島県,尾道市,因島土生町１７８４番地８,,34,205,7222323,,,,,,,2022-04-06,1,,,,,,0
1912,6240005015369,新規,0,2022-04-06,2022-04-06,一般社団法人ＮＥＸＴひろしま神楽プロジェクト,,その他の設立登記法人,広島県,安芸高田市,高宮町羽佐竹１９３０番地,,34,214,7391807,,,,,,,2022-04-06,1,,,,,ネクストヒロシマカグラプロジェクト,0
1918,6280003001598,新規,0,2022-04-06,2022-04-06,ブリッジ合同会社,,合同会社,島根県,出雲市,白枝町２６２番地オリーブハウス１００号,,32,203,6930006,,,,,,,2022-04-06,1,,,,,ブリッジ,0
1924,6290001097035,新規,0,2022-04-06,2022-04-06,トリゼンクオリティオーシャンズ株式会社,,株式会社,福岡県,福岡市博多区,千代１丁目８番２４号,,40,132,8120044,,,,,,,2022-04-06,1,,,,,トリゼンクオリティオーシャンズ,0
1925,6290001097051,新規,0,2022-04-06,2022-04-06,株式会社ＪＪ　Ｌａｂ．,,株式会社,福岡県,福岡市城南区,南片江６丁目２１番３５号,,40,136,8140143,,,,,,,2022-04-06,1,,,,,ジェイジェイラボ,0
1926,6290001097068,新規,0,2022-04-06,2022-04-06,株式会社古賀精肉,,株式会社,福岡県,柳川市,下宮永町６６９番地９,,40,207,8320059,,,,,,,2022-04-06,1,,,,,コガセイニク,0
1927,6290001097084,新規,0,2022-04-06,2022-04-06,株式会社ＭＲ,,株式会社,福岡県,久留米市,荒木町荒木３７８８番地,,40,203,8300063,,,,,,,2022-04-06,1,,,,,エムアール,0
1930,6290003012355,新規,0,2022-04-06,2022-04-06,ひびき発電合同会社,,合同会社,福岡県,福岡市中央区,天神２丁目８番３６号天神ＮＫビル４階Ｄ事務所,,40,133,8100001,,,,,,,2022-04-06,1,,,,,ヒビキハツデン,0
1931,6290005018615,新規,0,2022-04-06,2022-04-06,ＥＨＲＤ社会保険労務士法人,,その他の設立登記法人,福岡県,福岡市博多区,博多駅東２丁目１８－２８－５０４,,40,132,8120013,,,,,,,2022-04-06,1,,,,,イーハード,0
1936,6290805009540,新規,0,2022-04-06,2022-04-06,医療法人白輝会,,その他の設立登記法人,福岡県,北九州市若松区,白山１丁目９番１８号,,40,103,8080035,,,,,,,2022-04-06,1,,,,,ハッキカイ,0
1937,6300001012875,新規,0,2022-04-06,2022-04-06,株式会社サン・ホーム,,株式会社,佐賀県,佐賀市,金立町大字薬師丸１１８１番地,,41,201,8490904,,,,,,,2022-04-06,1,,,,,サンホーム,0
1938,6310001017799,新規,0,2022-04-06,2022-04-06,ＤＲＩＶＥ株式会社,,株式会社,長崎県,大村市,久原２丁目１５７８番地２,,42,205,8560835,,,,,,,2022-04-06,1,,,,,ドライブ,0
1940,6330001029594,新規,0,2022-04-06,2022-04-06,株式会社松永マンションコンサルタント,,株式会社,熊本県,熊本市北区,打越町３２番１３号,,43,105,8600086,,,,,,,2022-04-06,1,,,,,マツナガマンションコンサルタント,0
1945,6340003003753,新規,0,2022-04-06,2022-04-06,合同会社アイリス,,合同会社,鹿児島県,姶良市,松原町３丁目２番地１７,,46,225,8995422,,,,,,,2022-04-06,1,,,,,,0
1946,6340005009435,新規,0,2022-04-06,2022-04-06,特定非営利活動法人かごしまこども食堂支援センターたくして,,その他の設立登記法人,鹿児島県,鹿児島市,玉里団地１丁目６７番１７号,,46,201,8900011,,,,,,,2022-04-06,1,,,,,カゴシマコドモショクドウシエンセンター,0
1949,6350001017663,新規,0,2022-04-06,2022-04-06,萩原建設株式会社,,株式会社,宮崎県,宮崎市,吉村町西中甲１３５６番地１デーア・フィオーレ１０４号,,45,201,8800841,,,,,,,2022-04-06,1,,,,,ハギワラケンセツ,0
1950,6350001017688,新規,0,2022-04-06,2022-04-06,株式会社誠商事,,株式会社,宮崎県,都城市,山之口町富吉７１５９番地１,,45,202,8891801,,,,,,,2022-04-06,1,,,,,マコトショウジ,0
1951,6360001030228,新規,0,2022-04-06,2022-04-06,株式会社ワンダーキューブ,,株式会社,沖縄県,那覇市,松尾２丁目１２番３６号,,47,201,9000014,,,,,,,2022-04-06,1,,,,,ワンダーキューブ,0
1952,6370001048384,新規,0,2022-04-06,2022-04-06,株式会社東日本左官工業,,株式会社,宮城県,登米市,中田町宝江新井田字荒谷５７番地,,04,212,9870622,,,,,,,2022-04-06,1,,,,,ヒガシニホンサカンコウギョウ,0
1954,6370003005648,新規,0,2022-04-06,2022-04-06,合同会社ＫＹＳ,,合同会社,宮城県,仙台市青葉区,本町２丁目１９－９クリスタルパレスビル１階,,04,101,9800014,,,,,,,2022-04-06,1,,,,,ケーワイエス,0
1956,6380001032701,新規,0,2022-04-06,2022-04-06,ＨＲＭ株式会社,,株式会社,福島県,岩瀬郡天栄村,大字高林字苧畑８５番地１１,,07,344,9620515,,,,,,,2022-04-06,1,,,,,エイチアールエム,0
1959,6380003005143,新規,0,2022-04-06,2022-04-06,イシンクスジャパン合同会社,,合同会社,福島県,郡山市,鶴見坦３丁目１４番４１号,,07,203,9638861,,,,,,,2022-04-06,1,,,,,イシンクスジャパン,0
1960,6380005012559,新規,0,2022-04-06,2022-04-06,一般社団法人田村環境整備,,その他の設立登記法人,福島県,田村市,船引町笹山字仲森１７９番地２,,07,211,9634321,,,,,,,2022-04-06,1,,,,,タムラカンキョウセイビ,0
1962,6390001016843,新規,0,2022-04-06,2022-04-06,株式会社ｏｆｆｉｃｅ　Ｋ’ｓ,,株式会社,山形県,東田川郡三川町,大字横山字横山１７４番地,,06,426,9971301,,,,,,,2022-04-06,1,,,,,オフィスケーズ,0
1968,6400001015851,新規,0,2022-04-06,2022-04-06,株式会社ＦＵＫＵＲＡ,,株式会社,岩手県,盛岡市,南仙北２丁目２０番２８号,,03,201,0200863,,,,,,,2022-04-06,1,,,,,フクラ,0
1979,6430001086345,新規,0,2022-04-06,2022-04-06,株式会社寿,,株式会社,北海道,苫小牧市,見山町４丁目２番８号,,01,213,0530855,,,,,,,2022-04-06,1,,,,,コトブキ,0
1980,6430001086361,新規,0,2022-04-06,2022-04-06,八協魚類株式会社,,株式会社,北海道,札幌市西区,八軒十条東４丁目１番２６号,,01,107,0630870,,,,,,,2022-04-06,1,,,,,ハチキョウギョルイ,0
1987,6450001013660,新規,0,2022-04-06,2022-04-06,株式会社インテリア安村,,株式会社,北海道,旭川市,春光台二条５丁目３番３３号,,01,204,0718142,,,,,,,2022-04-06,1,,,,,,0
1989,6460005001553,新規,0,2022-04-06,2022-04-06,一般社団法人みらい,,その他の設立登記法人,北海道,釧路郡釧路町,桂２丁目２９番地１,,01,661,0880626,,,,,,,2022-04-06,1,,,,,ミライ,0
1999,6490003001643,新規,0,2022-04-06,2022-04-06,くろいわ農園合同会社,,合同会社,高知県,土佐市,浅井１５９０番地,,39,205,7811136,,,,,,,2022-04-06,1,,,,,クロイワノウエン,0
2003,6500003002805,新規,0,2022-04-06,2022-04-06,新須賀コンビニ合同会社,,合同会社,愛媛県,新居浜市,庄内町２丁目８番２１号,,38,205,7920811,,,,,,,2022-04-06,1,,,,,シンスカコンビニ,0
2011,7010001225605,新規,0,2022-04-06,2022-04-06,株式会社ＳＴＥＬＬＡ　ＶＩＴＡ,,株式会社,東京都,中央区,銀座８丁目１５番１０号,,13,102,1040061,,,,,,,2022-04-06,1,,,,,ステラヴィータ,0
2012,7010001225613,新規,0,2022-04-06,2022-04-06,株式会社メゾン・ド・エム,,株式会社,東京都,中央区,銀座８丁目５番１号,,13,102,1040061,,,,,,,2022-04-06,1,,,,,メゾンドエム,0
2013,7010001225654,新規,0,2022-04-06,2022-04-06,住商ベンチャー・パートナーズ株式会社,,株式会社,東京都,千代田区,大手町２丁目３番２号,,13,101,1000004,,,,,,,2022-04-06,1,,,,,スミショウベンチャーパートナーズ,0
2014,7010001225687,新規,0,2022-04-06,2022-04-06,株式会社ミクニエアロスペース,,株式会社,東京都,千代田区,外神田６丁目１３番１１号,,13,101,1010021,,,,,,,2022-04-06,1,,,,,ミクニエアロスペース,0
2015,7010001225712,新規,0,2022-04-06,2022-04-06,ＪＡＰＡＮ　ＰＲＯＰＥＲＴＹ　ＧＡＴＥＷＡＹ株式会社,,株式会社,東京都,文京区,本郷２丁目３８番１３号,,13,105,1130033,,,,,,,2022-04-06,1,,,,,ジャパンプロパティーゲートウェイ,0
2021,7010005034804,新規,0,2022-04-06,2022-04-06,ジェネシスワン一般社団法人,,その他の設立登記法人,東京都,千代田区,丸の内３丁目１番１号東京共同会計事務所内,,13,101,1000005,,,,,,,2022-04-06,1,,,,,ジェネシスワン,0
2028,7010401166614,新規,0,2022-04-06,2022-04-06,５０‐５０海運株式会社,,株式会社,東京都,港区,浜松町２丁目２番１５号浜松町ダイヤビル２Ｆ,,13,103,1050013,,,,,,,2022-04-06,1,,,,,フィフティフィフティカイウン,0
2029,7010401166630,新規,0,2022-04-06,2022-04-06,株式会社ＧＣＯＲＥ,,株式会社,東京都,港区,白金２丁目５番５－２０３号,,13,103,1080072,,,,,,,2022-04-06,1,,,,,ジーコア,0
2030,7010401166647,新規,0,2022-04-06,2022-04-06,株式会社東京中央商事,,株式会社,東京都,港区,南青山２丁目２番１５号ウィン青山９４２,,13,103,1070062,,,,,,,2022-04-06,1,,,,,トウキョウチュウオウショウジ,0
2031,7010401166663,新規,0,2022-04-06,2022-04-06,株式会社ＦＯＯＤＥＣ,,株式会社,東京都,港区,海岸１丁目２－３汐留芝離宮ビルディング２１階,,13,103,1050022,,,,,,,2022-04-06,1,,,,,フーデック,0
2033,7010405020890,新規,0,2022-04-06,2022-04-06,一般財団法人ＪＲ東日本文化創造財団,,その他の設立登記法人,東京都,港区,高輪２丁目２１番４２号,,13,103,1080074,,,,,,,2022-04-06,1,,,,,ジェイアールヒガシニホンブンカソウゾウザイダン,0
2035,7010601060922,新規,0,2022-04-06,2022-04-06,ＦｉｎＢＡＳＥ株式会社,,株式会社,東京都,江東区,木場１丁目５番２５号,,13,108,1350042,,,,,,,2022-04-06,1,,,,,フィンベース,0
2036,7010601060939,新規,0,2022-04-06,2022-04-06,株式会社車谷工業,,株式会社,東京都,江東区,東砂６丁目２０番３号,,13,108,1360074,,,,,,,2022-04-06,1,,,,,クルマタニコウギョウ,0
2038,7010701042465,新規,0,2022-04-06,2022-04-06,株式会社クラフトメンテナンス,,株式会社,東京都,品川区,西五反田７丁目２２番１７号,,13,109,1410031,,,,,,,2022-04-06,1,,,,,クラフトメンテナンス,0
2039,7010703006179,新規,0,2022-04-06,2022-04-06,合同会社エイティーワン,,合同会社,東京都,品川区,平塚１丁目１３－１,,13,109,1420051,,,,,,,2022-04-06,1,,,,,エイティーワン,0
2040,7010901050615,新規,0,2022-04-06,2022-04-06,株式会社パパスホールディングス,,株式会社,東京都,世田谷区,玉川田園調布１丁目１４番２２号,,13,112,1580085,,,,,,,2022-04-06,1,,,,,パパスホールディングス,0
2045,7011001146717,新規,0,2022-04-06,2022-04-06,株式会社ネクストフィールド,,株式会社,東京都,渋谷区,渋谷２丁目１２番４号,,13,113,1500002,,,,,,,2022-04-06,1,,,,,ネクストフィールド,0
2046,7011001146725,新規,0,2022-04-06,2022-04-06,株式会社Ｄｏｒｏｎｋｏ　Ａｇｒｉ,,株式会社,東京都,渋谷区,渋谷１丁目２番５号,,13,113,1500002,,,,,,,2022-04-06,1,,,,,ドロンコアグリ,0
2047,7011001146733,新規,0,2022-04-06,2022-04-06,株式会社Ｋｉｎｇ’ｓ．Ｌａｎｄ,,株式会社,東京都,渋谷区,千駄ヶ谷１丁目１２番９号金森ビル１Ｆ,,13,113,1510051,,,,,,,2022-04-06,1,,,,,キングスランド,0
2048,7011001146741,新規,0,2022-04-06,2022-04-06,株式会社ＡＣホールディング,,株式会社,東京都,渋谷区,広尾１丁目１番３９号,,13,113,1500012,,,,,,,2022-04-06,1,,,,,エーシーホールディング,0
2049,7011001146790,新規,0,2022-04-06,2022-04-06,東京核酸合成株式会社,,株式会社,東京都,渋谷区,千駄ヶ谷３丁目１１番８号（ＴＯＳグループ内）,,13,113,1510051,,,,,,,2022-04-06,1,,,,,トウキョウカクサンゴウセイ,0
2050,7011003014475,新規,0,2022-04-06,2022-04-06,ＥＭＯｉ合同会社,,合同会社,東京都,渋谷区,恵比寿南３丁目１番２４号,,13,113,1500022,,,,,,,2022-04-06,1,,,,,エモイ,0
2051,7011003014483,新規,0,2022-04-06,2022-04-06,合同会社Ｗｏｒｋ　ｆｌｏｗ　ｏｆ　ｆｏｏｄ　ｓｕｐｐｌｙ,,合同会社,東京都,渋谷区,神宮前６丁目２３－４桑野ビル２Ｆ,,13,113,1500001,,,,,,,2022-04-06,1,,,,,ワークフローオブフードサプライ,0
2054,7011101098412,新規,0,2022-04-06,2022-04-06,株式会社スマイルホーム,,株式会社,東京都,新宿区,四谷４丁目３０番地２３,,13,104,1600004,,,,,,,2022-04-06,1,,,,,スマイルホーム,0
2055,7011101098429,新規,0,2022-04-06,2022-04-06,株式会社リフィックス,,株式会社,東京都,新宿区,四谷三栄町１５番６号オグラビル３０１,,13,104,1600008,,,,,,,2022-04-06,1,,,,,リフィックス,0
2056,7011101098437,新規,0,2022-04-06,2022-04-06,株式会社オーバージェット,,株式会社,東京都,新宿区,西新宿３丁目２－９新宿ワシントンビル本館２Ｆ,,13,104,1600023,,,,,,,2022-04-06,1,,,,,オーバージェット,0
2058,7011103011637,新規,0,2022-04-06,2022-04-06,金堂合同会社,,合同会社,東京都,新宿区,榎町３４－３榎町ビル５階,,13,104,1620806,,,,,,,2022-04-06,1,,,,,キンドウ,0
2062,7011303004374,新規,0,2022-04-06,2022-04-06,合同会社Ｌｉｂ,,合同会社,東京都,杉並区,下高井戸１丁目９番１１号サニーヒルズ３０２,,13,115,1680073,,,,,,,2022-04-06,1,,,,,リブ,0
2063,7011401024142,新規,0,2022-04-06,2022-04-06,ＭＭＺ株式会社,,株式会社,東京都,板橋区,大谷口１丁目２番１１－５０１号,,13,119,1730035,,,,,,,2022-04-06,1,,,,,エムエムゼット,0
2070,7012301012939,新規,0,2022-04-06,2022-04-06,株式会社Ｂｒｉｄｇｅ,,株式会社,東京都,町田市,図師町６６３番地１１,,13,209,1940203,,,,,,,2022-04-06,1,,,,,ブリッジ,0
2072,7012401039048,新規,0,2022-04-06,2022-04-06,株式会社ＳＥＩＫＥＮ,,株式会社,東京都,三鷹市,中原３丁目１番４０号,,13,204,1810005,,,,,,,2022-04-06,1,,,,,セイケン,0
2073,7012401039056,新規,0,2022-04-06,2022-04-06,Ｏｃａ株式会社,,株式会社,東京都,狛江市,岩戸北２丁目１６番１２号,,13,219,2010004,,,,,,,2022-04-06,1,,,,,オーカ,0
2074,7012403005312,新規,0,2022-04-06,2022-04-06,合同会社ＥＮＬＩＧＨＴＥＮＭＥＮＴ,,合同会社,東京都,狛江市,岩戸南３丁目４番２８号,,13,219,2010005,,,,,,,2022-04-06,1,,,,,エンライトメント,0
2076,7012801021489,新規,0,2022-04-06,2022-04-06,株式会社ＬＡＢＯ,,株式会社,東京都,立川市,錦町２丁目２番２８号プレステージ立川１０３,,13,202,1900022,,,,,,,2022-04-06,1,,,,,ラボ,0
2077,7012801021497,新規,0,2022-04-06,2022-04-06,株式会社ＮＥＯモーゲージ,,株式会社,東京都,国分寺市,南町２丁目１４番１２号,,13,214,1850021,,,,,,,2022-04-06,1,,,,,ネオモーゲージ,0
2078,7013101008887,新規,0,2022-04-06,2022-04-06,株式会社梓,,株式会社,東京都,羽村市,神明台１丁目２０－１原島マンション４０５,,13,227,2050023,,,,,,,2022-04-06,1,,,,,アズサ,0
2086,7020001145918,新規,0,2022-04-06,2022-04-06,株式会社ＩＣＨＩＢＡＮ,,株式会社,神奈川県,川崎市多摩区,登戸１８３１番地１,,14,135,2140014,,,,,,,2022-04-06,1,,,,,イチバン,0
2087,7020001145926,新規,0,2022-04-06,2022-04-06,ＪＵＮ電工株式会社,,株式会社,神奈川県,横浜市港南区,笹下６丁目３４番１５－１号,,14,111,2340052,,,,,,,2022-04-06,1,,,,,ジュンデンコウ,0
2088,7020001145942,新規,0,2022-04-06,2022-04-06,株式会社リモデラーレ,,株式会社,神奈川県,横浜市中区,住吉町１丁目６番地Ｍ・Ｐ・Ｓ関内３０６号,,14,104,2310013,,,,,,,2022-04-06,1,,,,,リモデラーレ,0
2089,7020003021539,新規,0,2022-04-06,2022-04-06,ビーフィールド合同会社,,合同会社,神奈川県,横浜市青葉区,あかね台２丁目２１番地９,,14,117,2270066,,,,,,,2022-04-06,1,,,,,ビーフィールド,0
2090,7020003021547,新規,0,2022-04-06,2022-04-06,合同会社タスデザイン,,合同会社,神奈川県,川崎市中原区,小杉御殿町２丁目１０６番地,,14,133,2110068,,,,,,,2022-04-06,1,,,,,タスデザイン,0
2091,7020003021555,新規,0,2022-04-06,2022-04-06,合同会社眞晃,,合同会社,神奈川県,横浜市中区,相生町６丁目１００番地３ＰＬＡＴＩＮＥ・Ｔｏｗｅｒ４０２,,14,104,2310012,,,,,,,2022-04-06,1,,,,,マコウ,0
2096,7021001075592,新規,0,2022-04-06,2022-04-06,株式会社本多,,株式会社,神奈川県,海老名市,河原口２丁目１５番２２号,,14,215,2430433,,,,,,,2022-04-06,1,,,,,ホンダ,0
2099,7021003011546,新規,0,2022-04-06,2022-04-06,合同会社あすわコーポレーション,,合同会社,神奈川県,高座郡寒川町,小谷２丁目４番２０号,,14,321,2530103,,,,,,,2022-04-06,1,,,,,アスワコーポレーション,0
2100,7021003011570,新規,0,2022-04-06,2022-04-06,パースツリー合同会社,,合同会社,神奈川県,藤沢市,藤沢９９１－１９落合ビル２０３号室,,14,205,2510052,,,,,,,2022-04-06,1,,,,,パースツリー,0
2101,7021005012468,新規,0,2022-04-06,2022-04-06,一般社団法人関東海洋教育スポーツ振興協会,,その他の設立登記法人,神奈川県,藤沢市,片瀬海岸１丁目１２番４号,,14,205,2510035,,,,,,,2022-04-06,1,,,,,,0
2102,7021005012476,新規,0,2022-04-06,2022-04-06,医療法人湘福会,,その他の設立登記法人,神奈川県,茅ヶ崎市,東海岸南２丁目１１番１１号,,14,207,2530054,,,,,,,2022-04-06,1,,,,,ショウフクカイ,0
2105,7030001147558,新規,0,2022-04-06,2022-04-06,株式会社中野工業,,株式会社,埼玉県,八潮市,大瀬４丁目１５番地３,,11,234,3400822,,,,,,,2022-04-06,1,,,,,ナカノコウギョウ,0
2106,7030001147566,新規,0,2022-04-06,2022-04-06,株式会社ヴァーゲン,,株式会社,埼玉県,熊谷市,円光１丁目１番３３－６０１号いずみマンション,,11,202,3600813,,,,,,,2022-04-06,1,,,,,ヴァーゲン,0
2107,7030001147574,新規,0,2022-04-06,2022-04-06,株式会社川水流Ｇｌａｓｓ建窓,,株式会社,埼玉県,川口市,大字道合９１番地の１０,,11,203,3330835,,,,,,,2022-04-06,1,,,,,カワズルガラスケンソウ,0
2108,7030001147608,新規,0,2022-04-06,2022-04-06,株式会社ＮＯＡＨ,,株式会社,埼玉県,所沢市,花園２丁目２３４３番地の５６,,11,208,3590047,,,,,,,2022-04-06,1,,,,,ノア,0
2109,7030001147616,新規,0,2022-04-06,2022-04-06,株式会社Ｋファームみらいく,,株式会社,埼玉県,比企郡川島町,大字伊草７３０番地,,11,346,3500158,,,,,,,2022-04-06,1,,,,,ケイファームミライク,0
2110,7030001147624,新規,0,2022-04-06,2022-04-06,株式会社ｍｅｒｃｉ,,株式会社,埼玉県,川口市,東川口６丁目１３番２７,,11,203,3330801,,,,,,,2022-04-06,1,,,,,メルシー,0
2113,7030003019136,新規,0,2022-04-06,2022-04-06,合同会社海津,,合同会社,埼玉県,戸田市,下前１丁目１０番１－８０５号,,11,224,3350016,,,,,,,2022-04-06,1,,,,,,0
2124,7040001122898,新規,0,2022-04-06,2022-04-06,株式会社ａｒｃａ,,株式会社,千葉県,佐倉市,上座４０番地１１,,12,212,2850854,,,,,,,2022-04-06,1,,,,,アルカ,0
2125,7040001122915,新規,0,2022-04-06,2022-04-06,株式会社エイ・ピー・ジェイ,,株式会社,千葉県,浦安市,海楽２丁目３０番８号,,12,227,2790003,,,,,,,2022-04-06,1,,,,,エイピージェイ,0
2126,7040001122923,新規,0,2022-04-06,2022-04-06,株式会社農ＴＯ福,,株式会社,千葉県,松戸市,栄町西５丁目１３７９番地の２,,12,207,2710061,,,,,,,2022-04-06,1,,,,,ノウトフク,0
2127,7040001122931,新規,0,2022-04-06,2022-04-06,株式会社ＯＭＯＪＩＮ,,株式会社,千葉県,市川市,大洲３丁目１７－１７－４０４,,12,203,2720032,,,,,,,2022-04-06,1,,,,,オモジン,0
2129,7040003019829,新規,0,2022-04-06,2022-04-06,合同会社丸猪工業,,合同会社,千葉県,市原市,姉崎２４３５－１１,,12,219,2990111,,,,,,,2022-04-06,1,,,,,マルイコウギョウ,0
2133,7050001050900,新規,0,2022-04-06,2022-04-06,ライジング株式会社,,株式会社,茨城県,つくば市,吾妻１丁目５番地７ダイワロイネットつくばビル２Ｆ,,08,220,3050031,,,,,,,2022-04-06,1,,,,,ライジング,0
2136,7060001034737,新規,0,2022-04-06,2022-04-06,ＬｉｎｋＭｏｂｉｌｅ株式会社,,株式会社,栃木県,那須塩原市,下永田２丁目１０５１番１,,09,213,3292712,,,,,,,2022-04-06,1,,,,,リンクモバイル,0
2137,7070001039116,新規,0,2022-04-06,2022-04-06,株式会社エステートタジマ,,株式会社,群馬県,太田市,新田上田中町１９７番地１,,10,205,3700346,,,,,,,2022-04-06,1,,,,,エステートタジマ,0
2142,7080003002772,新規,0,2022-04-06,2022-04-06,合同会社今川会計事務所,,合同会社,静岡県,静岡市駿河区,小鹿９２１番地の１ラベンダー１５、１０１号,,22,102,4228021,,,,,,,2022-04-06,1,,,,,イマガワカイケイジムショ,0
2146,7080401025714,新規,0,2022-04-06,2022-04-06,ＰＩＣＡＸ株式会社,,株式会社,静岡県,菊川市,加茂３５２番地の２Ａアーバン大栄Ａ－１０２,,22,224,4390031,,,,,,,2022-04-06,1,,,,,ピカックス,0
2147,7080401025722,新規,0,2022-04-06,2022-04-06,株式会社左官屋朝丸,,株式会社,静岡県,周智郡森町,飯田２７６８番地,,22,461,4370222,,,,,,,2022-04-06,1,,,,,サカンヤアサマル,0
2148,7080403004501,新規,0,2022-04-06,2022-04-06,合同会社静岡ホルター心電図解析センター,,合同会社,静岡県,浜松市北区,都田町７７２０番地の５２,,22,135,4312102,,,,,,,2022-04-06,1,,,,,シズオカホルターシンデンズカイセキセンター,0
2149,7100001035219,新規,0,2022-04-06,2022-04-06,株式会社ＮＣセイコー,,株式会社,長野県,佐久市,望月９９３番地１,,20,217,3842202,,,,,,,2022-04-06,1,,,,,エヌシーセイコー,0
2150,7100001035227,新規,0,2022-04-06,2022-04-06,正伸工業株式会社,,株式会社,長野県,下伊那郡高森町,牛牧９８番地３,,20,403,3993105,,,,,,,2022-04-06,1,,,,,セイシンコウギョウ,0
2156,7110001036538,新規,0,2022-04-06,2022-04-06,株式会社アイダ,,株式会社,新潟県,三条市,嘉坪川２丁目１１番１５－８号,,15,204,9550056,,,,,,,2022-04-06,1,,,,,アイダ,0
2157,7110001036554,新規,0,2022-04-06,2022-04-06,株式会社サクセス産業,,株式会社,新潟県,新潟市南区,茨曽根２２３７番地１,,15,106,9501456,,,,,,,2022-04-06,1,,,,,サクセスサンギョウ,0
2167,7120001244809,新規,0,2022-04-06,2022-04-06,株式会社矢野総合保険サービス,,株式会社,大阪府,大阪市生野区,中川１丁目７番１４号,,27,116,5440005,,,,,,,2022-04-06,1,,,,,ヤノソウゴウホケンサービス,0
2168,7120001244833,新規,0,2022-04-06,2022-04-06,株式会社Ｒｅｓｕｌｔ,,株式会社,大阪府,大阪市北区,豊崎３丁目１８番３－５０３号,,27,127,5310072,,,,,,,2022-04-06,1,,,,,リザルト,0
2169,7120001244866,新規,0,2022-04-06,2022-04-06,エスタス株式会社,,株式会社,大阪府,大阪市西区,新町２丁目３番８号,,27,106,5500013,,,,,,,2022-04-06,1,,,,,エスタス,0
2170,7120001244874,新規,0,2022-04-06,2022-04-06,株式会社ＦＩＡ　ｔｒｕｓｔ　ｃｏｎｓｕｌｔｉｎｇ,,株式会社,大阪府,大阪市淀川区,宮原３丁目４番３０号ニッセイ新大阪ビル,,27,123,5320003,,,,,,,2022-04-06,1,,,,,エフアイエートラストコンサルティング,0
2171,7120001244882,新規,0,2022-04-06,2022-04-06,Ｑｕａｓａｒ株式会社,,株式会社,大阪府,大阪市西区,立売堀１丁目７番１２号,,27,106,5500012,,,,,,,2022-04-06,1,,,,,クエーサー,0
2172,7120001244899,新規,0,2022-04-06,2022-04-06,株式会社三軒家ハウジング,,株式会社,大阪府,大阪市大正区,泉尾１丁目３０番１５号,,27,108,5510031,,,,,,,2022-04-06,1,,,,,サンゲンヤハウジング,0
2173,7120001244908,新規,0,2022-04-06,2022-04-06,株式会社まっさん,,株式会社,大阪府,大阪市都島区,片町２丁目６番１３号,,27,102,5340025,,,,,,,2022-04-06,1,,,,,マッサン,0
2174,7120001244916,新規,0,2022-04-06,2022-04-06,ジャパンクラフト株式会社,,株式会社,大阪府,守口市,東郷通３丁目９番２１号,,27,209,5700041,,,,,,,2022-04-06,1,,,,,ジャパンクラフト,0
2175,7120001244924,新規,0,2022-04-06,2022-04-06,ＴＡＮＩＴＥＣ株式会社,,株式会社,大阪府,大阪市平野区,喜連１丁目５－１６,,27,126,5470027,,,,,,,2022-04-06,1,,,,,タニテック,0
2176,7120001244940,新規,0,2022-04-06,2022-04-06,モノリス株式会社,,株式会社,大阪府,大阪市中央区,内淡路町２丁目４番７号,,27,128,5400038,,,,,,,2022-04-06,1,,,,,モノリス,0
2177,7120001244973,新規,0,2022-04-06,2022-04-06,株式会社インザック,,株式会社,大阪府,大阪市中央区,谷町２丁目７番４号谷町スリースリーズビル３階,,27,128,5400012,,,,,,,2022-04-06,1,,,,,インザック,0
2178,7120001244998,新規,0,2022-04-06,2022-04-06,Ｎｅｗ　Ｗａｖｅ株式会社,,株式会社,大阪府,大阪市福島区,福島６丁目１番３９号,,27,103,5530003,,,,,,,2022-04-06,1,,,,,ニューウェーヴ,0
2179,7120001245006,新規,0,2022-04-06,2022-04-06,株式会社プラスシー,,株式会社,大阪府,大阪市西区,西本町１丁目４－１,,27,106,5500005,,,,,,,2022-04-06,1,,,,,プラスシー,0
2182,7120003021405,新規,0,2022-04-06,2022-04-06,合同会社Ｏｆｆｉｃｅ　Ｂｅ,,合同会社,大阪府,大阪市東淀川区,相川３丁目４番２２号,,27,114,5330007,,,,,,,2022-04-06,1,,,,,オフィスビー,0
2183,7120003021413,新規,0,2022-04-06,2022-04-06,エタニティ・システムコンサルティング合同会社,,合同会社,大阪府,守口市,橋波東之町２丁目１０番１５号,,27,209,5700031,,,,,,,2022-04-06,1,,,,,エタニティシステムコンサルティング,0
2184,7120005022896,新規,0,2022-04-06,2022-04-06,弁理士法人ＯＨＳＨＩＭＡ＆ＡＳＳＯＣＩＡＴＥＳ,,その他の設立登記法人,大阪府,大阪市中央区,南船場４丁目１１番１６号心斎橋コラムナービル,,27,128,5420081,,,,,,,2022-04-06,1,,,,,オオシマアンドアソシエイツ,0
2186,7120101065353,新規,0,2022-04-06,2022-04-06,株式会社シラベル,,株式会社,大阪府,堺市堺区,中瓦町２丁２番１６号,,27,141,5900077,,,,,,,2022-04-06,1,,,,,シラベル,0
2189,7120901045802,新規,0,2022-04-06,2022-04-06,株式会社アンディファーマパートナーズ,,株式会社,大阪府,茨木市,大池１丁目８番１４号,,27,211,5670826,,,,,,,2022-04-06,1,,,,,アンディファーマパートナーズ,0
2190,7120901045810,新規,0,2022-04-06,2022-04-06,株式会社クラシアル,,株式会社,大阪府,高槻市,寺谷町１５番１１号,,27,207,5691024,,,,,,,2022-04-06,1,,,,,クラシアル,0
2192,7122001035741,新規,0,2022-04-06,2022-04-06,株式会社Ｗａｒｏｔｔａ,,株式会社,大阪府,柏原市,国分本町７丁目９番７４号,,27,221,5820021,,,,,,,2022-04-06,1,,,,,ワロッタ,0
2195,7130001071483,新規,0,2022-04-06,2022-04-06,株式会社ＷＯＲＬＤ　ＰＬＡＣＥ,,株式会社,京都府,京都市西京区,御陵峰ケ堂町２丁目２１番地６,,26,111,6101103,,,,,,,2022-04-06,1,,,,,ワールドプレイス,0
2196,7130001071517,新規,0,2022-04-06,2022-04-06,株式会社ベルティ,,株式会社,京都府,宇治市,伊勢田町名木１丁目１番地の１１０,,26,204,6110044,,,,,,,2022-04-06,1,,,,,ベルティ,0
2201,7140001125528,新規,0,2022-04-06,2022-04-06,株式会社ローカルスクエアプラス,,株式会社,兵庫県,神戸市西区,中野１丁目１６番地の１７,,28,111,6512136,,,,,,,2022-04-06,1,,,,,ローカルスクエアプラス,0
2202,7140001125544,新規,0,2022-04-06,2022-04-06,Ｖａｌｂｏ株式会社,,株式会社,兵庫県,多可郡多可町,中区高岸１６１番地,,28,365,6791106,,,,,,,2022-04-06,1,,,,,ヴァルボ,0
2203,7140001125569,新規,0,2022-04-06,2022-04-06,株式会社キャディ,,株式会社,兵庫県,神戸市北区,大池見山台１４－１９５,,28,109,6511206,,,,,,,2022-04-06,1,,,,,キャディ,0
2208,7150001025438,新規,0,2022-04-06,2022-04-06,株式会社大野道場,,株式会社,奈良県,天理市,田部町２１０番地１１アネックスヴィラ３０１,,29,204,6320017,,,,,,,2022-04-06,1,,,,,オオノドウジョウ,0
2209,7150001025446,新規,0,2022-04-06,2022-04-06,株式会社ｎｏｒｂｉｔ,,株式会社,奈良県,奈良市,秋篠三和町１丁目１５番２号,,29,201,6310814,,,,,,,2022-04-06,1,,,,,ノービット,0
2210,7160001024083,新規,0,2022-04-06,2022-04-06,株式会社２ｎｄ　ｏｆｆｉｃｅ,,株式会社,滋賀県,長浜市,地福寺町６番３８号,,25,203,5260036,,,,,,,2022-04-06,1,,,,,セカンドオフィス,0
2211,7170001017045,新規,0,2022-04-06,2022-04-06,タワーヤーダシステム株式会社,,株式会社,和歌山県,新宮市,船町１丁目１番地の６,,30,207,6470002,,,,,,,2022-04-06,1,,,,,タワーヤーダシステム,0
2213,7170003001708,新規,0,2022-04-06,2022-04-06,合同会社さくら土建,,合同会社,和歌山県,和歌山市,山東中２２３番５,,30,201,6400303,,,,,,,2022-04-06,1,,,,,サクラドケン,0
2217,7180001150654,新規,0,2022-04-06,2022-04-06,株式会社なお季,,株式会社,愛知県,名古屋市中区,新栄３丁目２６番１７号,,23,106,4600007,,,,,,,2022-04-06,1,,,,,ナオキ,0
2218,7180001150695,新規,0,2022-04-06,2022-04-06,株式会社ステラヘア,,株式会社,愛知県,名古屋市名東区,一社１丁目１００番地エバーグレーズビル２Ｆ,,23,115,4650093,,,,,,,2022-04-06,1,,,,,ステラヘア,0
2219,7180003023692,新規,0,2022-04-06,2022-04-06,合同会社エース,,合同会社,愛知県,瀬戸市,南山町１丁目５６番地の１,,23,204,4890986,,,,,,,2022-04-06,1,,,,,エース,0
2220,7180005019722,新規,0,2022-04-06,2022-04-06,行政書士法人エムズマネジメント,,その他の設立登記法人,愛知県,名古屋市西区,山木１丁目１２１番地,,23,104,4520833,,,,,,,2022-04-06,1,,,,,エムズマネジメント,0
2222,7190001029278,新規,0,2022-04-06,2022-04-06,シシワイサービス株式会社,,株式会社,三重県,亀山市,東台町２番４０号,,24,210,5190122,,,,,,,2022-04-06,1,,,,,シシワイサービス,0
2225,7200001039911,新規,0,2022-04-06,2022-04-06,恵Ｔｒｅｅ　Ｓｅｒｖｉｃｅ株式会社,,株式会社,岐阜県,中津川市,落合３０１４番地の１,,21,206,5080006,,,,,,,2022-04-06,1,,,,,ケイツリーサービス,0
2226,7200001039944,新規,0,2022-04-06,2022-04-06,株式会社的場工機,,株式会社,岐阜県,海津市,南濃町田鶴３９８番地１３,,21,221,5030533,,,,,,,2022-04-06,1,,,,,マトバコウキ,0
2227,7200001039952,新規,0,2022-04-06,2022-04-06,カライス株式会社,,株式会社,岐阜県,岐阜市,日野東１丁目１２番３０号,,21,201,5008211,,,,,,,2022-04-06,1,,,,,カライス,0
2232,7210003001488,新規,0,2022-04-06,2022-04-06,合同会社希成り,,合同会社,福井県,大野市,南六呂師第１６９号６７番地１,,18,205,9120131,,,,,,,2022-04-06,1,,,,,キナリ,0
2233,7210005010017,新規,0,2022-04-06,2022-04-06,医療法人いちかわ歯科クリニック,,その他の設立登記法人,福井県,坂井市,春江町江留上錦６０番地２,,18,210,9190464,,,,,,,2022-04-06,1,,,,,イチカワシカクリニック,0
2235,7220001024770,新規,0,2022-04-06,2022-04-06,木村建築株式会社,,株式会社,石川県,加賀市,塩浜町リ８７番地,,17,206,9220446,,,,,,,2022-04-06,1,,,,,キムラケンチク,0
2236,7220001024787,新規,0,2022-04-06,2022-04-06,株式会社ＩＴＧ,,株式会社,石川県,金沢市,桜田町３丁目３０番地１サーパス桜田町一番館１１０６,,17,201,9200057,,,,,,,2022-04-06,1,,,,,アイティージー,0
2237,7220005008646,新規,0,2022-04-06,2022-04-06,社会福祉法人野の花福祉会,,その他の設立登記法人,石川県,七尾市,町屋町に部２４番地,,17,202,9260836,,,,,,,2022-04-06,1,,,,,ノノハナフクシカイ,0
2239,7230001019299,新規,0,2022-04-06,2022-04-06,株式会社カワハタサイクルシステムズ,,株式会社,富山県,射水市,戸破２２７３番地５,,16,211,9390351,,,,,,,2022-04-06,1,,,,,カワハタサイクルシステムズ,0
2240,7230001019308,新規,0,2022-04-06,2022-04-06,株式会社ＢＥＫＯＭＡＮＩＡ,,株式会社,富山県,高岡市,京田４６１番地４,,16,202,9330874,,,,,,,2022-04-06,1,,,,,ベコマニア,0
2245,7240001059542,新規,0,2022-04-06,2022-04-06,株式会社泰成リペイント,,株式会社,広島県,福山市,本郷町１５７１番地１,,34,207,7290252,,,,,,,2022-04-06,1,,,,,タイセイリペイント,0
2246,7240001059550,新規,0,2022-04-06,2022-04-06,株式会社ｒｅｐｒｏｄｕｃｔｉｏｎ,,株式会社,広島県,福山市,箕島町６５２１番地プレステージ南丘１０２,,34,207,7210957,,,,,,,2022-04-06,1,,,,,リプロダクション,0
2247,7240001059575,新規,0,2022-04-06,2022-04-06,株式会社尾上電機,,株式会社,広島県,呉市,広横路４丁目６番１８号,,34,202,7370113,,,,,,,2022-04-06,1,,,,,オノウエデンキ,0
2248,7240001059583,新規,0,2022-04-06,2022-04-06,株式会社ＴＳＫ,,株式会社,広島県,広島市安佐南区,祇園３丁目４８番６－１０２号,,34,105,7310138,,,,,,,2022-04-06,1,,,,,ティーエスケー,0
2249,7240001059591,新規,0,2022-04-06,2022-04-06,株式会社ｏＨａＮａ,,株式会社,広島県,広島市南区,出汐２丁目２番２０－１０１,,34,103,7340001,,,,,,,2022-04-06,1,,,,,オハナ,0
2253,7240003005577,新規,0,2022-04-06,2022-04-06,ノアエステート合同会社,,合同会社,広島県,東広島市,志和町七条椛坂１１１０番地２,,34,212,7390264,,,,,,,2022-04-06,1,,,,,ノアエステート,0
2259,7260001036705,新規,0,2022-04-06,2022-04-06,株式会社新枝,,株式会社,岡山県,倉敷市,真備町岡田４０８－５,,33,202,7101311,,,,,,,2022-04-06,1,,,,,シンエ,0
2260,7260001036713,新規,0,2022-04-06,2022-04-06,フタワカプロジェクトホールディングス株式会社,,株式会社,岡山県,真庭市,蒜山下福田２６３番地４,,33,214,7170504,,,,,,,2022-04-06,1,,,,,,0
2263,7260003003868,新規,0,2022-04-06,2022-04-06,合同会社アイ・ナースケアプランセンター,,合同会社,岡山県,岡山市東区,南古都７８番地１０,,33,103,7090632,,,,,,,2022-04-06,1,,,,,アイナースケアプランセンター,0
2266,7280003001597,新規,0,2022-04-06,2022-04-06,合同会社かしまや実業,,合同会社,島根県,邑智郡邑南町,市木２０４９番地２,,32,449,6970631,,,,,,,2022-04-06,1,,,,,カシマヤジツギョウ,0
2275,7290001097034,新規,0,2022-04-06,2022-04-06,株式会社中翔工業,,株式会社,福岡県,大野城市,仲畑２丁目８番１９－２号,,40,219,8160921,,,,,,,2022-04-06,1,,,,,ナカショウコウギョウ,0
2276,7290001097067,新規,0,2022-04-06,2022-04-06,株式会社ＡＣＮ九州,,株式会社,福岡県,福岡市中央区,天神１丁目１番１号,,40,133,8100001,,,,,,,2022-04-06,1,,,,,エーシーエヌキュウシュウ,0
2277,7290001097109,新規,0,2022-04-06,2022-04-06,ＫＮＴ株式会社,,株式会社,福岡県,福岡市西区,小戸３丁目３０－１９,,40,135,8190001,,,,,,,2022-04-06,1,,,,,ケイエヌティ,0
2278,7290003012370,新規,0,2022-04-06,2022-04-06,合同会社ＤＲＥＡＭＥＲＳ,,合同会社,福岡県,福岡市博多区,博多駅前２丁目１９番１７号トーカン博多第５ビル３１２号室,,40,132,8120011,,,,,,,2022-04-06,1,,,,,ドリーマーズ,0
2279,7290005018614,新規,0,2022-04-06,2022-04-06,一般社団法人日本消防・防災支援機構,,その他の設立登記法人,福岡県,福岡市南区,南大橋１丁目１２番１６号,,40,134,8150034,,,,,,,2022-04-06,1,,,,,ニホンショウボウボウサイシエンキコウ,0
2281,7300001012858,新規,0,2022-04-06,2022-04-06,アーキプロダクツ株式会社,,株式会社,佐賀県,唐津市,神田２４２５番地１１,,41,202,8470824,,,,,,,2022-04-06,1,,,,,アーキプロダクツ,0
2282,7300001012866,新規,0,2022-04-06,2022-04-06,株式会社カネワ中村蒲鉾店,,株式会社,佐賀県,鹿島市,浜町１２２０番地,,41,207,8491322,,,,,,,2022-04-06,1,,,,,カネワナカムラカマボコテン,0
2283,7310001017798,新規,0,2022-04-06,2022-04-06,株式会社ジオテクノ壱岐,,株式会社,長崎県,壱岐市,芦辺町諸吉大石触３２６番地６,00126166,42,210,8115316,,,,,,,2022-04-06,1,,,,,ジオテクノイキ,0
2284,7310001017807,新規,0,2022-04-06,2022-04-06,株式会社はしもと,,株式会社,長崎県,諫早市,飯盛町佐田８６３番地１,,42,204,8541122,,,,,,,2022-04-06,1,,,,,ハシモト,0
2286,7320001018993,新規,0,2022-04-06,2022-04-06,株式会社ＳＡＬＶＡＴＯＲＥ　ＣＵＯＭＯ　ＩＮＴＥＲＮＡＴＩＯＮＡＬ,,株式会社,大分県,日田市,大山町西大山４１０６番地,,44,204,8770201,,,,,,,2022-04-06,1,,,,,サルヴァトーレクオモインターナショナル,0
2287,7320001019001,新規,0,2022-04-06,2022-04-06,株式会社ホットスタッフ大分中央,,株式会社,大分県,大分市,日吉町５番２０号,,44,201,8700918,,,,,,,2022-04-06,1,,,,,ホットスタッフオオイタチュウオウ,0
2290,7330001029610,新規,0,2022-04-06,2022-04-06,株式会社Ｕ‐ＳＴＹＬＥ,,株式会社,熊本県,熊本市西区,春日４丁目２５番１号１Ｆ,,43,103,8600047,,,,,,,2022-04-06,1,,,,,ユースタイル,0
2295,7340001024619,新規,0,2022-04-06,2022-04-06,株式会社ＩＭＰＲＥＳＳ,,株式会社,鹿児島県,姶良市,西餅田３２０５番地７,,46,225,8995431,,,,,,,2022-04-06,1,,,,,インプレス,0
2297,7340005009442,新規,0,2022-04-06,2022-04-06,ヨロンまちづくり協同組合,,その他の設立登記法人,鹿児島県,大島郡与論町,大字茶花３３番地,,46,535,8919301,,,,,,,2022-04-06,1,,,,,ヨロンマチヅクリ,0
2303,7360001030185,新規,0,2022-04-06,2022-04-06,５１２株式会社,,株式会社,沖縄県,那覇市,牧志２丁目７０１‐２番,,47,201,9000013,,,,,,,2022-04-06,1,,,,,ゴウイチニ,0
2304,7360001030202,新規,0,2022-04-06,2022-04-06,株式会社Ｒｅエイドオキナワ,,株式会社,沖縄県,浦添市,伊祖２丁目９番２号てだこボウル３階,,47,208,9012132,,,,,,,2022-04-06,1,,,,,リエイドオキナワ,0
2305,7370001048383,新規,0,2022-04-06,2022-04-06,株式会社石川林業,,株式会社,宮城県,登米市,迫町北方字大洞１１８番地９５,,04,212,9870513,,,,,,,2022-04-06,1,,,,,イシカワリンギョウ,0
2306,7370001048417,新規,0,2022-04-06,2022-04-06,株式会社村澤,,株式会社,宮城県,仙台市青葉区,一番町２丁目４番地１９ザ仙台タワー一番町レジデンス６０６,,04,101,9800811,,,,,,,2022-04-06,1,,,,,ムラサワ,0
2307,7370001048425,新規,0,2022-04-06,2022-04-06,株式会社ＯｕｒＶｏｉｃｅ,,株式会社,宮城県,名取市,田高字神明１８０番地の１,,04,207,9811221,,,,,,,2022-04-06,1,,,,,アワーヴォイス,0
2308,7370003005639,新規,0,2022-04-06,2022-04-06,スマートピーク合同会社,,合同会社,宮城県,仙台市青葉区,錦町１丁目１３番２１号,,04,101,9800012,,,,,,,2022-04-06,1,,,,,スマートピーク,0
2320,7380003005142,新規,0,2022-04-06,2022-04-06,合同会社Ｒ．らいず,,合同会社,福島県,南相馬市,鹿島区江垂字榎町１０番地の１,,07,212,9792331,,,,,,,2022-04-06,1,,,,,アールライズ,0
2330,7430001086360,新規,0,2022-04-06,2022-04-06,株式会社アルファメソッド,,株式会社,北海道,札幌市中央区,南九条西５丁目１番１５号,,01,101,0640809,,,,,,,2022-04-06,1,,,,,アルファメソッド,0
2331,7430001086385,新規,0,2022-04-06,2022-04-06,株式会社Ｕｃｈｉｋｏｓｈｉ,,株式会社,北海道,札幌市東区,東雁来八条４丁目２番２１号,,01,103,0070828,,,,,,,2022-04-06,1,,,,,ウチコシ,0
2335,7460101007180,新規,0,2022-04-06,2022-04-06,グロード株式会社,,株式会社,北海道,帯広市,西六条北３丁目１２番地９,,01,207,0800036,,,,,,,2022-04-06,1,,,,,グロード,0
2338,7480003001809,新規,0,2022-04-06,2022-04-06,合同会社ＹＫテック,,合同会社,徳島県,美馬市,穴吹町三島字舞中島１５６５番地,,36,207,7770002,,,,,,,2022-04-06,1,,,,,ワイケイテック,0
2339,7480005006896,新規,0,2022-04-06,2022-04-06,一般社団法人ＩＴコーディネータ徳島,,その他の設立登記法人,徳島県,徳島市,幸町１丁目２１番地Ｋ－１クレストＩ４Ｆ,00126164,36,201,7700847,,,,,,,2022-04-06,1,,,,,アイティーコーディネータトクシマ,0
2352,8010001225554,新規,0,2022-04-06,2022-04-06,株式会社茂原パワー,,株式会社,東京都,千代田区,麹町４丁目５番２１号,,13,101,1020083,,,,,,,2022-04-06,1,,,,,モバラパワー,0
2353,8010001225579,新規,0,2022-04-06,2022-04-06,株式会社ＰＤｎａｖｉ,,株式会社,東京都,千代田区,丸の内１丁目８番３号丸の内トラストタワー本館２０階,,13,101,1000005,,,,,,,2022-04-06,1,,,,,ピーディーナビ,0
2354,8010001225604,新規,0,2022-04-06,2022-04-06,ＤＸスタートアップ株式会社,,株式会社,東京都,千代田区,平河町２丁目５番３号,,13,101,1020093,,,,,,,2022-04-06,1,,,,,ディーエックススタートアップ,0
2355,8010001225629,新規,0,2022-04-06,2022-04-06,インフロニアデジタルソリューション株式会社,,株式会社,東京都,千代田区,富士見２丁目１０番２号,,13,101,1020071,,,,,,,2022-04-06,1,,,,,インフロニアデジタルソリューション,0
2356,8010001225711,新規,0,2022-04-06,2022-04-06,株式会社ＦＧＬリースアップ・ビジネスサービス,,株式会社,東京都,千代田区,麹町５丁目１番地１,,13,101,1020083,,,,,,,2022-04-06,1,,,,,エフジーエルリースアップビジネスサービス,0
2366,8010401166621,新規,0,2022-04-06,2022-04-06,株式会社アデリーズ,,株式会社,東京都,港区,浜松町１丁目２２番８号,,13,103,1050013,,,,,,,2022-04-06,1,,,,,アデリーズ,0
2369,8010405020898,新規,0,2022-04-06,2022-04-06,一般社団法人Ｈａｓｈ静岡呉服町,,その他の設立登記法人,東京都,港区,元赤坂１丁目１番８号赤坂コミュニティビル４階,,13,103,1070051,,,,,,,2022-04-06,1,,,,,ハッシュシズオカゴフクチョウ,0
2375,8010603009479,新規,0,2022-04-06,2022-04-06,Ｉｎｔｅｇｒａ合同会社,,合同会社,東京都,江東区,塩浜１丁目４番３３号ニュートンプレイスノースコート１４１,,13,108,1350043,,,,,,,2022-04-06,1,,,,,インテグラ,0
2378,8010701042456,新規,0,2022-04-06,2022-04-06,株式会社ＨＡＦ　ＲＥＣＯＲＤＳ,,株式会社,東京都,品川区,大井４丁目７番１号フレール’９５－１階,,13,109,1400014,,,,,,,2022-04-06,1,,,,,ハフレコーズ,0
2379,8010801032869,新規,0,2022-04-06,2022-04-06,株式会社ＫｕｆｕＢａｎｋ,,株式会社,東京都,大田区,西蒲田４丁目８－６,,13,111,1440051,,,,,,,2022-04-06,1,,,,,クフウバンク,0
2380,8010803004115,新規,0,2022-04-06,2022-04-06,合同会社ｔａｄｏ,,合同会社,東京都,大田区,東馬込２丁目１８番１号ソルブリッサＤ号,,13,111,1430022,,,,,,,2022-04-06,1,,,,,タドウ,0
2381,8010905004293,新規,0,2022-04-06,2022-04-06,一般社団法人日本大動脈弁再建術学会,,その他の設立登記法人,東京都,世田谷区,池尻３丁目９番１３号東邦大学医療センター大橋病院臨床研究棟心臓血管外科医局内,,13,112,1540001,,,,,,,2022-04-06,1,,,,,ニホンダイドウミャクベンサイケンジュツガッカイ,0
2386,8011001146641,新規,0,2022-04-06,2022-04-06,株式会社ウィンセット,,株式会社,東京都,渋谷区,松濤１丁目１４番３号,,13,113,1500046,,,,,,,2022-04-06,1,,,,,ウィンセット,0
2387,8011001146658,新規,0,2022-04-06,2022-04-06,Ｇｏｗｉｎ株式会社,,株式会社,東京都,渋谷区,神宮前６丁目２３番４号桑野ビル２階,,13,113,1500001,,,,,,,2022-04-06,1,,,,,ゴーウィン,0
2388,8011001146674,新規,0,2022-04-06,2022-04-06,株式会社Ｐｅｅｐｓ,,株式会社,東京都,目黒区,中町２丁目４１番１１号祐天寺イースト１０３,,13,110,1530065,,,,,,,2022-04-06,1,,,,,ピープス,0
2389,8011001146716,新規,0,2022-04-06,2022-04-06,株式会社育‐ＨＡＧＵ,,株式会社,東京都,目黒区,上目黒３丁目１番１０号ヴェルデナポリ２０３,,13,110,1530051,,,,,,,2022-04-06,1,,,,,ハグ,0
2390,8011001146749,新規,0,2022-04-06,2022-04-06,ハチドリーム株式会社,,株式会社,東京都,渋谷区,松濤１丁目２８番２号,,13,113,1500046,,,,,,,2022-04-06,1,,,,,ハチドリーム,0
2398,8011101098378,新規,0,2022-04-06,2022-04-06,株式会社ＬＡ　ＰＡＴＴＥ,,株式会社,東京都,新宿区,西新宿３丁目３番１３号西新宿水間ビル６階,,13,104,1600023,,,,,,,2022-04-06,1,,,,,ラパテ,0
2399,8011203003789,新規,0,2022-04-06,2022-04-06,合同会社ＭＰＬＥＮＴＹ,,合同会社,東京都,中野区,新井２丁目３－１０,,13,114,1650026,,,,,,,2022-04-06,1,,,,,エムプレンティ,0
2402,8011401024141,新規,0,2022-04-06,2022-04-06,株式会社リユニオン,,株式会社,東京都,板橋区,大谷口北町６７番５号,,13,119,1730031,,,,,,,2022-04-06,1,,,,,リユニオン,0
2407,8011503005130,新規,0,2022-04-06,2022-04-06,合同会社昇源商事,,合同会社,東京都,北区,豊島１丁目５番６－３０５,,13,117,1140003,,,,,,,2022-04-06,1,,,,,ショウゲンショウジ,0
2408,8011601025856,新規,0,2022-04-06,2022-04-06,株式会社スマイルワンカルチャー,,株式会社,東京都,練馬区,富士見台３丁目６番８号,,13,120,1770034,,,,,,,2022-04-06,1,,,,,スマイルワンカルチャー,0
2409,8011605002439,新規,0,2022-04-06,2022-04-06,一般社団法人次世代こども教育協会,,その他の設立登記法人,東京都,練馬区,向山２丁目１５番６号,,13,120,1760022,,,,,,,2022-04-06,1,,,,,ジセダイコドモキョウイクキョウカイ,0
2410,8011701025178,新規,0,2022-04-06,2022-04-06,株式会社Ｏｎｅｐｌｕｓ‐Ｔｅｃｈ,,株式会社,東京都,江戸川区,西葛西２丁目２２－４５－２１１,,13,123,1340088,,,,,,,2022-04-06,1,,,,,ワンプラステクノロジー,0
2411,8011703003108,新規,0,2022-04-06,2022-04-06,合同会社鍛冶工タケヤ,,合同会社,東京都,江戸川区,本一色１丁目２１番１号２０６,,13,123,1330044,,,,,,,2022-04-06,1,,,,,カジコウタケヤ,0
2415,8012403005311,新規,0,2022-04-06,2022-04-06,フリースタイル合同会社,,合同会社,東京都,多摩市,乞田９６３－５,,13,224,2060014,,,,,,,2022-04-06,1,,,,,フリースタイル,0
2420,8012801021496,新規,0,2022-04-06,2022-04-06,株式会社共栄建装,,株式会社,東京都,東大和市,立野３丁目１２９３番地の１０グリーンタウン３号棟１１４号,,13,220,2070021,,,,,,,2022-04-06,1,,,,,キョウエイケンソウ,0
2424,8013301048897,新規,0,2022-04-06,2022-04-06,株式会社ＨＡ２未来総合研究所,,株式会社,東京都,豊島区,東池袋５丁目１９番１号プラウドタワー東池袋１６０４号,,13,116,1700013,,,,,,,2022-04-06,1,,,,,エイチエーツーミライソウゴウケンキュウジョ,0
2425,8013303006110,新規,0,2022-04-06,2022-04-06,いときち合同会社,,合同会社,東京都,豊島区,池袋２丁目７３－５ダイアパレス池袋１００２号室,,13,116,1710014,,,,,,,2022-04-06,1,,,,,イトキチ,0
2429,8020001145917,新規,0,2022-04-06,2022-04-06,株式会社Ｇｒｏｗｉｔｈ,,株式会社,神奈川県,横浜市栄区,本郷台４丁目２８番１８号,,14,115,2470008,,,,,,,2022-04-06,1,,,,,グローウィズ,0
2430,8020001145933,新規,0,2022-04-06,2022-04-06,Ｃｏｎｎｅｃｔ株式会社,,株式会社,神奈川県,横浜市中区,桜木町２丁目２番港陽ビルＴＨＥＨＵＢ横浜桜木町４階,,14,104,2310062,,,,,,,2022-04-06,1,,,,,コネクト,0
2431,8020001145941,新規,0,2022-04-06,2022-04-06,株式会社小杉工務店,,株式会社,神奈川県,横浜市保土ケ谷区,法泉３丁目１７番６－５号,,14,106,2400032,,,,,,,2022-04-06,1,,,,,コスギコウムテン,0
2432,8020001145966,新規,0,2022-04-06,2022-04-06,株式会社エイチツー,,株式会社,神奈川県,横浜市磯子区,岡村６丁目８番７－２０１号,,14,107,2350021,,,,,,,2022-04-06,1,,,,,,0
2433,8020001145982,新規,0,2022-04-06,2022-04-06,株式会社高田工業建設,00126169,株式会社,神奈川県,横浜市港北区,新羽町１６９１番地１ルネス・エスパシオ５０２号室,,14,109,2230057,,,,,,,2022-04-06,1,,,,,タカダコウギョウケンセツ,0
2434,8020001146007,新規,0,2022-04-06,2022-04-06,株式会社大輝,,株式会社,神奈川県,横浜市鶴見区,尻手２丁目６番２９号,,14,101,2300003,,,,,,,2022-04-06,1,,,,,ダイキ,0
2435,8020003021538,新規,0,2022-04-06,2022-04-06,合同会社ＯＮＯＤＥＲＡ,,合同会社,神奈川県,横浜市金沢区,金沢町４９番地１０,,14,108,2360015,,,,,,,2022-04-06,1,,,,,オノデラ,0
2436,8020003021546,新規,0,2022-04-06,2022-04-06,合同会社Ｅｍｏｔｉｏｎａｌ　Ｆａｃｔｏｒ,,合同会社,神奈川県,横浜市泉区,中田東１丁目７番１号ヴェルコリン２０３号,,14,116,2450013,,,,,,,2022-04-06,1,,,,,エモーショナルファクター,0
2441,8021001075559,新規,0,2022-04-06,2022-04-06,株式会社Ｊ＆Ｍアネザキコーポレーション,,株式会社,神奈川県,大和市,上草柳９丁目８番２号,,14,213,2420029,,,,,,,2022-04-06,1,,,,,ジェイアンドエムアネザキコーポレーション,0
2442,8021001075625,新規,0,2022-04-06,2022-04-06,ＲＡＭ　ＩＮＴＥＲＮＡＴＩＯＮＡＬ株式会社,,株式会社,神奈川県,相模原市南区,当麻８２６番地２３,,14,153,2520336,,,,,,,2022-04-06,1,,,,,ラムインターナショナル,0
2443,8021001075633,新規,0,2022-04-06,2022-04-06,株式会社ビルダーズ湘南,,株式会社,神奈川県,藤沢市,大庭５２２５番地の１８,,14,205,2510861,,,,,,,2022-04-06,1,,,,,ビルダーズショウナン,0
2448,8030001147565,新規,0,2022-04-06,2022-04-06,株式会社オフィスサガワ,,株式会社,埼玉県,川口市,並木３丁目２３番２５－１２０５号,,11,203,3320034,,,,,,,2022-04-06,1,,,,,オフィスサガワ,0
2449,8030001147573,新規,0,2022-04-06,2022-04-06,Ａｒｕｔｏｍｏ株式会社,,株式会社,埼玉県,さいたま市緑区,美園３丁目５番地９,,11,109,3360967,,,,,,,2022-04-06,1,,,,,アルトモ,0
2450,8030001147615,新規,0,2022-04-06,2022-04-06,株式会社ＨＯＮＥＳＴ,,株式会社,埼玉県,深谷市,国済寺６０３番地４ライトコートナイン２０４号,,11,218,3660033,,,,,,,2022-04-06,1,,,,,オーネスト,0
2451,8030001147648,新規,0,2022-04-06,2022-04-06,青楽株式会社,,株式会社,埼玉県,戸田市,下戸田２丁目３１番２０－４０２号,,11,224,3350011,,,,,,,2022-04-06,1,,,,,カイラ,0
2454,8030003019151,新規,0,2022-04-06,2022-04-06,合同会社Ｆｏｒ　ｔｈｅ　ｄｒｅａｍｓ,,合同会社,埼玉県,さいたま市浦和区,仲町２丁目９番６号加来ビル４０３,,11,107,3300062,,,,,,,2022-04-06,1,,,,,フォーザドリームズ,0
2455,8030003019168,新規,0,2022-04-06,2022-04-06,合同会社ケアプランつぐみ,,合同会社,埼玉県,川口市,大字安行藤八６８９－５,,11,203,3340051,,,,,,,2022-04-06,1,,,,,ケアプランツグミ,0
2461,8040001122897,新規,0,2022-04-06,2022-04-06,株式会社エルプラット,,株式会社,千葉県,八街市,八街は１８番地４６２,,12,230,2891107,,,,,,,2022-04-06,1,,,,,エルプラット,0
2462,8040001122930,新規,0,2022-04-06,2022-04-06,株式会社シティクリーン,,株式会社,千葉県,船橋市,習志野２丁目６番１９－２号,,12,204,2740071,,,,,,,2022-04-06,1,,,,,シティクリーン,0
2465,8040003019811,新規,0,2022-04-06,2022-04-06,ＳＥＮＡＲＡ　ＩＮＴＥＲＮＡＴＩＯＮＡＬ合同会社,,合同会社,千葉県,千葉市若葉区,北谷津町３００番地７－５,,12,104,2650067,,,,,,,2022-04-06,1,,,,,セナラインターナショナル,0
2466,8040003019828,新規,0,2022-04-06,2022-04-06,テンセコンド合同会社,,合同会社,千葉県,長生郡長生村,曽根４２９番地３,,12,423,2994344,,,,,,,2022-04-06,1,,,,,テンセコンド,0
2469,8050001050874,新規,0,2022-04-06,2022-04-06,株式会社光商工,,株式会社,茨城県,桜川市,平沢１２２８番地,,08,231,3091331,,,,,,,2022-04-06,1,,,,,ヒカリショウコウ,0
2470,8050001050890,新規,0,2022-04-06,2022-04-06,株式会社ＧＲＯＷ,,株式会社,茨城県,筑西市,成井３１９番地,,08,227,3004533,,,,,,,2022-04-06,1,,,,,グロウ,0
2471,8050001050899,新規,0,2022-04-06,2022-04-06,ＡｇｒｉＩＮＦＯ株式会社,,株式会社,茨城県,つくば市,観音台１丁目３４番地３１,,08,220,3050856,,,,,,,2022-04-06,1,,,,,アグリインフォ,0
2472,8050001050916,新規,0,2022-04-06,2022-04-06,株式会社トクノウスチールコンストラクション,,株式会社,茨城県,結城市,大字結城７０４番地３,,08,207,3070001,,,,,,,2022-04-06,1,,,,,トクノウスチールコンストラクション,0
2473,8050001050924,新規,0,2022-04-06,2022-04-06,株式会社ＳＢＳ　ＩＮＴＥＲＮＡＴＩＯＮＡＬ,,株式会社,茨城県,坂東市,大口６６番地１,,08,228,3060615,,,,,,,2022-04-06,1,,,,,エスビーエスインターナショナル,0
2476,8050003006478,新規,0,2022-04-06,2022-04-06,合同会社クリエイトキッズ,,合同会社,茨城県,水戸市,宮町１丁目９番８,,08,201,3100015,,,,,,,2022-04-06,1,,,,,クリエイトキッズ,0
2479,8060001034736,新規,0,2022-04-06,2022-04-06,株式会社アット警備,,株式会社,栃木県,那須塩原市,東原１３１番地６９,,09,213,3250034,,,,,,,2022-04-06,1,,,,,アットケイビ,0
2481,8060003004002,新規,0,2022-04-06,2022-04-06,合資会社舘野興農園,,合資会社,栃木県,小山市,大字鉢形２番地,,09,208,3230801,,,,,,,2022-04-06,1,,,,,タテノコウノウエン,0
2482,8070001039115,新規,0,2022-04-06,2022-04-06,株式会社森商店,,株式会社,群馬県,邑楽郡板倉町,大字飯野２３３０番地,,10,521,3740123,,,,,,,2022-04-06,1,,,,,モリショウテン,0
2484,8080001024859,新規,0,2022-04-06,2022-04-06,ＦＵＪＩＹＡＭＡ　ＢＲＩＤＧＥ　ＬＡＢ株式会社,,株式会社,静岡県,静岡市駿河区,登呂３丁目１番１号,,22,102,4228033,,,,,,,2022-04-06,1,,,,,フジヤマブリッジラボ,0
2485,8080001024867,新規,0,2022-04-06,2022-04-06,株式会社ｒ８,,株式会社,静岡県,静岡市清水区,御門台３番１０号,,22,103,4240878,,,,,,,2022-04-06,1,,,,,アールエイト,0
2489,8080101023199,新規,0,2022-04-06,2022-04-06,株式会社ＨＡＴＴ,,株式会社,静岡県,富士宮市,山宮１０２１番地の１５,,22,207,4180111,,,,,,,2022-04-06,1,,,,,ハット,0
2490,8080105006241,新規,0,2022-04-06,2022-04-06,一般社団法人ＦＳＣ,,その他の設立登記法人,静岡県,富士市,今泉２０３０番地の１,,22,210,4170001,,,,,,,2022-04-06,1,,,,,エフエスシー,0
2492,8080403004500,新規,0,2022-04-06,2022-04-06,合同会社はくちょう,,合同会社,静岡県,浜松市北区,新都田２丁目２４番９号,,22,135,4312103,,,,,,,2022-04-06,1,,,,,ハクチョウ,0
2494,8090001017507,新規,0,2022-04-06,2022-04-06,株式会社Ｂｅｌｌｆｌｏｗｅｒ,,株式会社,山梨県,富士吉田市,新町３丁目１５番５号,,19,202,4030019,,,,,,,2022-04-06,1,,,,,ベルフラワー,0
2496,8100001035218,新規,0,2022-04-06,2022-04-06,株式会社エクステック,,株式会社,長野県,長野市,篠ノ井布施五明３０３３番地,,20,201,3888011,,,,,,,2022-04-06,1,,,,,エクステック,0
2500,8110001036537,新規,0,2022-04-06,2022-04-06,株式会社藤田電気,,株式会社,新潟県,上越市,佐内町４番５０号,,15,222,9420031,,,,,,,2022-04-06,1,,,,,フジタデンキ,0
2501,8110001036545,新規,0,2022-04-06,2022-04-06,株式会社デザミ,,株式会社,新潟県,上越市,東雲町２丁目４番２５号,,15,222,9420071,,,,,,,2022-04-06,1,,,,,デザミ,0
2515,8120001244824,新規,0,2022-04-06,2022-04-06,株式会社ユナイテッド,,株式会社,大阪府,大阪市阿倍野区,相生通２丁目１４番２７号,,27,119,5450033,,,,,,,2022-04-06,1,,,,,ユナイテッド,0
2516,8120001244898,新規,0,2022-04-06,2022-04-06,アイエンス株式会社,,株式会社,大阪府,大阪市城東区,諏訪４丁目１５番１９号,,27,118,5360021,,,,,,,2022-04-06,1,,,,,アイエンス,0
2517,8120001244915,新規,0,2022-04-06,2022-04-06,株式会社ミナトガレージ,,株式会社,大阪府,大阪市港区,弁天４丁目１０番２６号,,27,107,5520007,,,,,,,2022-04-06,1,,,,,ミナトガレージ,0
2518,8120001244948,新規,0,2022-04-06,2022-04-06,株式会社ＦＲＥＥＶＥコーポレーション,,株式会社,大阪府,大阪市北区,梅田１丁目１２番１７号梅田スクエアビル１０Ｆ,,27,127,5300001,,,,,,,2022-04-06,1,,,,,フリーブコーポレーション,0
2519,8120001244956,新規,0,2022-04-06,2022-04-06,メルコモビリティーソリューションズ株式会社,,株式会社,大阪府,大阪市福島区,福島６丁目１３番１４号,,27,103,5530003,,,,,,,2022-04-06,1,,,,,メルコモビリティーソリューションズ,0
2520,8120001244989,新規,0,2022-04-06,2022-04-06,リアルエステートドック株式会社,,株式会社,大阪府,大阪市北区,西天満５丁目１番１５号,,27,127,5300047,,,,,,,2022-04-06,1,,,,,リアルエステートドック,0
2521,8120001245005,新規,0,2022-04-06,2022-04-06,株式会社宝産業,,株式会社,大阪府,大阪市生野区,勝山南１丁目１０番１０号,,27,116,5440021,,,,,,,2022-04-06,1,,,,,タカラサンギョウ,0
2523,8120003021395,新規,0,2022-04-06,2022-04-06,合同会社ｍｔ　ｄｅｓｉｇｎｓ,,合同会社,大阪府,大阪市鶴見区,今津南１丁目６番１６号,,27,124,5380043,,,,,,,2022-04-06,1,,,,,エムティデザインズ,0
2524,8120003021404,新規,0,2022-04-06,2022-04-06,Ｗｏｎｄｅｒ　Ｗａｌｌ合同会社,,合同会社,大阪府,大阪市生野区,桃谷１丁目１０番５号,,27,116,5440034,,,,,,,2022-04-06,1,,,,,ワンダーウォール,0
2525,8120003021412,新規,0,2022-04-06,2022-04-06,合同会社経慶会,,合同会社,大阪府,守口市,橋波東之町２丁目１０番１５号,,27,209,5700031,,,,,,,2022-04-06,1,,,,,ケイケイカイ,0
2526,8120003021429,新規,0,2022-04-06,2022-04-06,コルディア合同会社,,合同会社,大阪府,大阪市城東区,森之宮２丁目２番２０－３１０号,,27,118,5360025,,,,,,,2022-04-06,1,,,,,コルディア,0
2529,8120101065328,新規,0,2022-04-06,2022-04-06,株式会社ＣＥＲＯＵＮＯ,,株式会社,大阪府,岸和田市,別所町３丁目２２番１５号,,27,202,5960045,,,,,,,2022-04-06,1,,,,,セロウノ,0
2530,8120101065344,新規,0,2022-04-06,2022-04-06,株式会社バロンス,,株式会社,大阪府,堺市西区,浜寺南町１丁６７番地６,,27,144,5928344,,,,,,,2022-04-06,1,,,,,バロンス,0
2531,8120101065360,新規,0,2022-04-06,2022-04-06,株式会社ＣＬＡＹ,,株式会社,大阪府,堺市中区,土師町３丁２９番２２号,,27,142,5998238,,,,,,,2022-04-06,1,,,,,クレイ,0
2539,8122001035724,新規,0,2022-04-06,2022-04-06,川本興業株式会社,,株式会社,大阪府,八尾市,西山本町２丁目６番２６号,,27,212,5810868,,,,,,,2022-04-06,1,,,,,,0
2540,8122001035732,新規,0,2022-04-06,2022-04-06,Ｌａｙ‐ｏｕｔ株式会社,,株式会社,大阪府,東大阪市,瓢箪山町２６番８号,,27,227,5798051,,,,,,,2022-04-06,1,,,,,レイアウト,0
2541,8130001071474,新規,0,2022-04-06,2022-04-06,株式会社萬成,,株式会社,京都府,京都市南区,東九条岩本町６－４,,26,107,6010000,,,,,,,2022-04-06,1,,,,,マンセイ,0
2542,8130003007856,新規,0,2022-04-06,2022-04-06,合同会社ＷＩＺＡＲＤ,,合同会社,京都府,京都市伏見区,深草加賀屋敷町３番地６ネクスト２１－ＩＩ２Ｆ,00126168,26,109,6128434,,,,,,,2022-04-06,1,,,,,ウィザード,0
2549,8140001125444,新規,0,2022-04-06,2022-04-06,株式会社木匠,,株式会社,兵庫県,加西市,北条町横尾６４３番地の１,,28,220,6752311,,,,,,,2022-04-06,1,,,,,モクショウ,0
2550,8140001125452,新規,0,2022-04-06,2022-04-06,株式会社笑輪,,株式会社,兵庫県,神戸市北区,鈴蘭台東町３丁目３番２５号－１０１,,28,109,6511112,,,,,,,2022-04-06,1,,,,,ショウワ,0
2551,8140001125485,新規,0,2022-04-06,2022-04-06,マスタッフネクスト株式会社,,株式会社,兵庫県,尼崎市,南塚口町２丁目１番２号,,28,202,6610012,,,,,,,2022-04-06,1,,,,,マスタッフネクスト,0
2552,8140001125502,新規,0,2022-04-06,2022-04-06,未来ｉｅ不動産株式会社,,株式会社,兵庫県,相生市,那波大浜町１１番１５号,,28,208,6780051,,,,,,,2022-04-06,1,,,,,ミライイエフドウサン,0
2553,8140001125535,新規,0,2022-04-06,2022-04-06,株式会社山本実業,,株式会社,兵庫県,たつの市,揖保町栄４２４番地,,28,229,6794141,,,,,,,2022-04-06,1,,,,,ヤマモトジツギョウ,0
2555,8140003017524,新規,0,2022-04-06,2022-04-06,合同会社ネマリズ,,合同会社,兵庫県,神戸市西区,井吹台北町２丁目１９番地の１－２１１号,,28,111,6512244,,,,,,,2022-04-06,1,,,,,ネマリズ,0
2557,8150001025445,新規,0,2022-04-06,2022-04-06,株式会社Ｃｕｃｃｈａ　Ｂｅｃｃｈａ,,株式会社,奈良県,橿原市,四分町２番地の１うねびクリニックモール２Ｆ,,29,205,6340074,,,,,,,2022-04-06,1,,,,,クッチャベッチャ,0
2560,8160003002532,新規,0,2022-04-06,2022-04-06,ＹＬＳ合同会社,,合同会社,滋賀県,草津市,木川町７７６番地２９,,25,206,5250051,,,,,,,2022-04-06,1,,,,,ワイエルエス,0
2568,8180005019713,新規,0,2022-04-06,2022-04-06,特定非営利活動法人Ｋｏｈｉｔｓｕｊｉ,,その他の設立登記法人,愛知県,名古屋市緑区,大高町字町屋川６５番地の５,,23,114,4598001,,,,,,,2022-04-06,1,,,,,コヒツジ,0
2572,8200001039910,新規,0,2022-04-06,2022-04-06,友七地所パートナーズ株式会社,,株式会社,岐阜県,土岐市,泉町大富２１４番地の８,,21,212,5095132,,,,,,,2022-04-06,1,,,,,トモヒチジショパートナーズ,0
2573,8200001039935,新規,0,2022-04-06,2022-04-06,株式会社エアーム,,株式会社,岐阜県,大垣市,加賀野４丁目１番地７,,21,202,5030006,,,,,,,2022-04-06,1,,,,,エアーム,0
2576,8200005013325,新規,0,2022-04-06,2022-04-06,テクノプラザ２協同組合,,その他の設立登記法人,岐阜県,各務原市,テクノプラザ２丁目１１番地,,21,213,5090109,,,,,,,2022-04-06,1,,,,,テクノプラザニ,0
2577,8210001018871,新規,0,2022-04-06,2022-04-06,株式会社Ｗｉｓｄｏｍｓｔｈａｎ,,株式会社,福井県,坂井市,三国町加戸第１１９号１０番地３２,,18,210,9130002,,,,,,,2022-04-06,1,,,,,ウィズダムスタン,0
2580,8230001019307,新規,0,2022-04-06,2022-04-06,株式会社ＨＡＴＣＨ,,株式会社,富山県,富山市,桜町１丁目６番１６号高野ビル１階,,16,201,9300003,,,,,,,2022-04-06,1,,,,,ハッチ,0
2583,8240001059590,新規,0,2022-04-06,2022-04-06,株式会社ＰＵＴ,,株式会社,広島県,廿日市市,対厳山２丁目１６番５４号,,34,213,7390402,,,,,,,2022-04-06,1,,,,,プット,0
2584,8240003005576,新規,0,2022-04-06,2022-04-06,合同会社ベルーフ企画,,合同会社,広島県,広島市佐伯区,美鈴が丘緑３丁目７番２号,,34,108,7315113,,,,,,,2022-04-06,1,,,,,ベルーフキカク,0
2588,8250001019478,新規,0,2022-04-06,2022-04-06,株式会社Ｈｉｐｐｏｐｏ,,株式会社,山口県,光市,大字小周防９０６番地１１,,35,210,7430061,,,,,,,2022-04-06,1,,,,,ヒポポ,0
2589,8250001019486,新規,0,2022-04-06,2022-04-06,株式会社四華電気工事,,株式会社,山口県,山陽小野田市,大字小野田５３５９番地２,,35,216,7560817,,,,,,,2022-04-06,1,,,,,ヨツバデンキコウジ,0
2590,8250001019494,新規,0,2022-04-06,2022-04-06,株式会社綿ぽぽ,,株式会社,山口県,山口市,小郡下郷１５１１番地１１,,35,203,7540002,,,,,,,2022-04-06,1,,,,,ワタポポ,0
2597,8280001008668,新規,0,2022-04-06,2022-04-06,石橋電気株式会社,,株式会社,島根県,邑智郡邑南町,和田８９９番地,,32,449,6960403,,,,,,,2022-04-06,1,,,,,イシバシデンキ,0
2605,8290001096968,新規,0,2022-04-06,2022-04-06,株式会社クレイニア,,株式会社,福岡県,福岡市東区,和白５丁目５番３３－２０５号,,40,131,8110202,,,,,,,2022-04-06,1,,,,,クレイニア,0
2606,8290001097058,新規,0,2022-04-06,2022-04-06,ＭＫホールディングス株式会社,,株式会社,福岡県,福岡市早良区,野芥８丁目１番３号,,40,137,8140171,,,,,,,2022-04-06,1,,,,,エムケイホールディングス,0
2610,8290003012361,新規,0,2022-04-06,2022-04-06,合同会社山海堂,,合同会社,福岡県,福岡市中央区,清川２丁目４番２９－５０１号,,40,133,8100005,,,,,,,2022-04-06,1,,,,,サンカイドウ,0
2613,8290801028402,新規,0,2022-04-06,2022-04-06,３Ｊ　Ｂｒｏｔｈｅｒｓ株式会社,,株式会社,福岡県,北九州市若松区,赤岩町２番２号,,40,103,8080075,,,,,,,2022-04-06,1,,,,,スリージェイブラザーズ,0
2615,8300001012857,新規,0,2022-04-06,2022-04-06,坂本電設株式会社,,株式会社,佐賀県,鹿島市,大字納富分１１４８番地１,,41,207,8491312,,,,,,,2022-04-06,1,,,,,サカモトデンセツ,0
2617,8310001017797,新規,0,2022-04-06,2022-04-06,ＶＥＲＥＶＡ株式会社,,株式会社,長崎県,西海市,大瀬戸町瀬戸板浦郷６０６番地４,,42,212,8572301,,,,,,,2022-04-06,1,,,,,ヴェレーヴァ,0
2618,8310001017806,新規,0,2022-04-06,2022-04-06,株式会社荒木鉄筋,,株式会社,長崎県,島原市,大手原町甲２３７０番地,,42,203,8550012,,,,,,,2022-04-06,1,,,,,アラキテッキン,0
2620,8330001029592,新規,0,2022-04-06,2022-04-06,九州みらいインベストメンツ株式会社,,株式会社,熊本県,熊本市西区,春日１丁目１２番３号,,43,103,8600047,,,,,,,2022-04-06,1,,,,,キュウシュウミライインベストメンツ,0
2621,8330001029626,新規,0,2022-04-06,2022-04-06,株式会社ＳｅＴｕｈａ,,株式会社,熊本県,熊本市西区,新土河原２丁目２番２４号,,43,103,8600056,,,,,,,2022-04-06,1,,,,,セツハ,0
2624,8330003009312,新規,0,2022-04-06,2022-04-06,合同会社徳永,,合同会社,熊本県,菊池市,泗水町豊水３３４０番地３,,43,210,8611212,,,,,,,2022-04-06,1,,,,,トクナガ,0
2628,8340001024618,新規,0,2022-04-06,2022-04-06,株式会社鹿児島クレーンメンテナンス,,株式会社,鹿児島県,霧島市,隼人町西光寺２４６５番地１,,46,218,8995114,,,,,,,2022-04-06,1,,,,,カゴシマクレーンメンテナンス,0
2629,8340001024642,新規,0,2022-04-06,2022-04-06,株式会社ｂｏｕｎｄ　Ｕ,,株式会社,鹿児島県,霧島市,国分福島１丁目２３番２６号,,46,218,8994322,,,,,,,2022-04-06,1,,,,,バウンドユー,0
2631,8340003003751,新規,0,2022-04-06,2022-04-06,合同会社宝ファーム,,合同会社,鹿児島県,志布志市,松山町新橋３５３８番地,,46,221,8997601,,,,,,,2022-04-06,1,,,,,タカラファーム,0
2636,8370001048382,新規,0,2022-04-06,2022-04-06,株式会社Ｇ‐ｔｅｃ,,株式会社,宮城県,登米市,南方町山成前８６１番地２,,04,212,9870401,,,,,,,2022-04-06,1,,,,,ジーテック,0
2637,8370001048424,新規,0,2022-04-06,2022-04-06,Ａｔｔａ　Ｓｔｙｌｅ株式会社,,株式会社,宮城県,仙台市宮城野区,苦竹１丁目２番６号,,04,102,9830036,,,,,,,2022-04-06,1,,,,,アッタスタイル,0
2638,8370003005646,新規,0,2022-04-06,2022-04-06,合同会社東北キッチンラボ,,合同会社,宮城県,仙台市泉区,泉中央３丁目２６番地の１,,04,105,9813133,,,,,,,2022-04-06,1,,,,,トウホクキッチンラボ,0
2645,8380005012565,新規,0,2022-04-06,2022-04-06,一般社団法人ＣｌｕｂＯｌｅ,,その他の設立登記法人,福島県,本宮市,本宮字中條６５番地,,07,214,9691133,,,,,,,2022-04-06,1,,,,,クラブオーレ,0
2656,8430001086376,新規,0,2022-04-06,2022-04-06,株式会社紡,,株式会社,北海道,札幌市中央区,北一条西８丁目２番地３９ＩＳＭ札幌大通ビル９Ｆ３号室,,01,101,0600001,,,,,,,2022-04-06,1,,,,,ツムグ,0
2657,8430001086401,新規,0,2022-04-06,2022-04-06,ユーライフエステート株式会社,,株式会社,北海道,札幌市中央区,南三条西１３丁目３２０番地５,,01,101,0600063,,,,,,,2022-04-06,1,,,,,ユーライフエステート,0
2659,8430005014432,新規,0,2022-04-06,2022-04-06,特定非営利活動法人ＳＰフロンティア北海道,,その他の設立登記法人,北海道,札幌市清田区,平岡公園東１１丁目４番１号,,01,110,0040882,,,,,,,2022-04-06,1,,,,,エスピーフロンティアホッカイドウ,0
2660,8450001013659,新規,0,2022-04-06,2022-04-06,株式会社ＫＦＭ,,株式会社,北海道,旭川市,永山九条１０丁目１番１６号,,01,204,0798419,,,,,,,2022-04-06,1,,,,,ケーエフエム,0
2669,8480005006895,新規,0,2022-04-06,2022-04-06,一般社団法人勝浦町地域活性化協会,,その他の設立登記法人,徳島県,勝浦郡勝浦町,大字生名字太田４４番地１,,36,301,7714303,,,,,,,2022-04-06,1,,,,,カツウラマチチイキカッセイカキョウカイ,0
2672,8500001024122,新規,0,2022-04-06,2022-04-06,株式会社青野ゴルフアカデミー,,株式会社,愛媛県,今治市,南高下町３丁目２番３３号１－Ａ,,38,202,7940811,,,,,,,2022-04-06,1,,,,,アオノゴルフアカデミー,0
2673,8500001024130,新規,0,2022-04-06,2022-04-06,株式会社ｍｅｄｅｌ．ｉｎｃ,,株式会社,愛媛県,松山市,二番町１丁目１１番地１ニック二番町ビルＩ４階,00126172,38,201,7900002,,,,,,,2022-04-06,1,,,,,メデルインク,0
2680,9010001225413,新規,0,2022-04-06,2022-04-06,株式会社ＤＲＪ,,株式会社,東京都,千代田区,平河町１丁目４－５平和第１ビル地下１階,,13,101,1020093,,,,,,,2022-04-06,1,,,,,ディーアールジェー,0
2681,9010001225553,新規,0,2022-04-06,2022-04-06,株式会社椎の森パワー,,株式会社,東京都,千代田区,麹町４丁目５番２１号,,13,101,1020083,,,,,,,2022-04-06,1,,,,,シイノモリパワー,0
2682,9010001225660,新規,0,2022-04-06,2022-04-06,Ｒａｘｉ株式会社,,株式会社,東京都,千代田区,大手町１丁目２番１号,,13,101,1000004,,,,,,,2022-04-06,1,,,,,ラクシー,0
2691,9010105002155,新規,0,2022-04-06,2022-04-06,一般社団法人日本建物損害調査士認定協会,,その他の設立登記法人,東京都,八王子市,上壱分方町４３３番地５,,13,201,1930811,,,,,,,2022-04-06,1,,,,,ニホンタテモノソンガイチョウサシニンテイキョウカイ,0
2697,9010401166579,新規,0,2022-04-06,2022-04-06,株式会社ＢＬＯＣＫＳＭＩＴＨ＆Ｃｏ．,,株式会社,東京都,港区,六本木６丁目１０番１号,,13,103,1060032,,,,,,,2022-04-06,1,,,,,ブロックスミスアンドコー,0
2698,9010401166637,新規,0,2022-04-06,2022-04-06,株式会社永愛友クラフト,,株式会社,東京都,港区,赤坂３丁目２０番６号パシフィックマークス赤坂見附７Ｆ,,13,103,1070052,,,,,,,2022-04-06,1,,,,,エイアイユウクラフト,0
2703,9010501048677,新規,0,2022-04-06,2022-04-06,株式会社ライフピュア,,株式会社,東京都,台東区,千束４丁目３１番２号,,13,106,1110031,,,,,,,2022-04-06,1,,,,,ライフピュア,0
2704,9010601060945,新規,0,2022-04-06,2022-04-06,ＤＵＴ株式会社,,株式会社,東京都,墨田区,東向島５丁目２番７号,,13,107,1310032,,,,,,,2022-04-06,1,,,,,ディユウティ,0
2706,9010701042471,新規,0,2022-04-06,2022-04-06,藤華企画株式会社,,株式会社,東京都,品川区,南品川５丁目１２番４号,,13,109,1400004,,,,,,,2022-04-06,1,,,,,トウカキカク,0
2710,9010803004114,新規,0,2022-04-06,2022-04-06,合同会社堤方プロパティマネジメント,,合同会社,東京都,大田区,池上４丁目９番３号,,13,111,1460082,,,,,,,2022-04-06,1,,,,,ツツミカタプロパティマネジメント,0
2711,9010901050638,新規,0,2022-04-06,2022-04-06,株式会社ＴＡＭＡＢＩ　Ａ＆Ｄ,,株式会社,東京都,世田谷区,上野毛３丁目１５番３４号,,13,112,1580093,,,,,,,2022-04-06,1,,,,,タマビエーアンドディー,0
2713,9010903007280,新規,0,2022-04-06,2022-04-06,ＧＴＥコンサルティング合同会社,,合同会社,東京都,世田谷区,玉川３丁目２０番２号マノア　玉川第３ビル５０１号室,,13,112,1580094,,,,,,,2022-04-06,1,,,,,ジーティーイーコンサルティング,0
2719,9011001146756,新規,0,2022-04-06,2022-04-06,株式会社ブルームアドバイザリー,,株式会社,東京都,渋谷区,代々木１丁目２５－５ＢＩＺＳＭＡＲＴ代々木４３５号室,,13,113,1510053,,,,,,,2022-04-06,1,,,,,ブルームアドバイザリー,0
2720,9011001146797,新規,0,2022-04-06,2022-04-06,ｂｏｏｍ株式会社,,株式会社,東京都,渋谷区,道玄坂１丁目２０－８,,13,113,1500043,,,,,,,2022-04-06,1,,,,,ブーム,0
2726,9011101098419,新規,0,2022-04-06,2022-04-06,株式会社トータルアセットパートナーズ,,株式会社,東京都,新宿区,新宿２丁目４番１－６０２号,,13,104,1600022,,,,,,,2022-04-06,1,,,,,トータルアセットパートナーズ,0
2728,9011103011635,新規,0,2022-04-06,2022-04-06,ごうれむ合同会社,,合同会社,東京都,新宿区,新宿７丁目１２番２５－５０２号,,13,104,1600022,,,,,,,2022-04-06,1,,,,,,0
2729,9011201023747,新規,0,2022-04-06,2022-04-06,株式会社ＭＲＩＴｅｃｈ,,株式会社,東京都,中野区,中央４丁目２番３－６０８号,,13,114,1640011,,,,,,,2022-04-06,1,,,,,エムアールアイテック,0
2730,9011403003621,新規,0,2022-04-06,2022-04-06,合同会社私の居間,,合同会社,東京都,板橋区,志村１丁目１９番２０号,,13,119,1740056,,,,,,,2022-04-06,1,,,,,ワタシノイマ,0
2731,9011405002191,新規,0,2022-04-06,2022-04-06,一般社団法人グッドライフ,,その他の設立登記法人,東京都,板橋区,成増３丁目１番１９号３階,,13,119,1750094,,,,,,,2022-04-06,1,,,,,グッドライフ,0
2732,9011501027919,新規,0,2022-04-06,2022-04-06,株式会社こぱんはうすさくら,,株式会社,東京都,荒川区,西日暮里５丁目３４番２号,,13,118,1160013,,,,,,,2022-04-06,1,,,,,コパンハウスサクラ,0
2735,9011701025177,新規,0,2022-04-06,2022-04-06,ＲＥＢＩＶＥ・Ｅ株式会社,,株式会社,東京都,江戸川区,東小岩１丁目１番４号,,13,123,1330052,,,,,,,2022-04-06,1,,,,,リバイブイー,0
2736,9011701025193,新規,0,2022-04-06,2022-04-06,株式会社Ｋｔｒａｎｓｐｏｒｔ,,株式会社,東京都,江戸川区,瑞江３丁目３４番６号タウンカテッジ瑞江１１０号,,13,123,1320011,,,,,,,2022-04-06,1,,,,,ケイトランスポート,0
2737,9011703003107,新規,0,2022-04-06,2022-04-06,ラニロカヒ合同会社,,合同会社,東京都,江戸川区,大杉１丁目６番１５号,,13,123,1320022,,,,,,,2022-04-06,1,,,,,ラニロカヒ,0
2738,9012301012937,新規,0,2022-04-06,2022-04-06,株式会社ドリーム,,株式会社,東京都,町田市,小野路町１０２２番地１７,,13,209,1950064,,,,,,,2022-04-06,1,,,,,ドリーム,0
2739,9012401039038,新規,0,2022-04-06,2022-04-06,ヤナセ設計株式会社,,株式会社,東京都,武蔵野市,中町２丁目２０番１－２０７号東海ミタカマンション,,13,203,1800006,,,,,,,2022-04-06,1,,,,,ヤナセセッケイ,0
2741,9012403005310,新規,0,2022-04-06,2022-04-06,ＭＩＫ合同会社,,合同会社,東京都,調布市,深大寺東町５丁目２６番地３,,13,208,1820012,,,,,,,2022-04-06,1,,,,,エムアイケー,0
2744,9012703002437,新規,0,2022-04-06,2022-04-06,合同会社ｒａｓｉｉｎｅ,,合同会社,東京都,西東京市,田無町２丁目１３－１１ユニーブル田無１Ｆ,,13,229,1880011,,,,,,,2022-04-06,1,,,,,ラシイネ,0
2745,9012801021495,新規,0,2022-04-06,2022-04-06,株式会社新和コーポレーション,,株式会社,東京都,武蔵村山市,中央２丁目３７番地の１４,,13,223,2080003,,,,,,,2022-04-06,1,,,,,シンワコーポレーション,0
2746,9012801021504,新規,0,2022-04-06,2022-04-06,株式会社Ｌｏｔｕｓ,,株式会社,東京都,日野市,大坂上２丁目２番地の８,,13,212,1910061,,,,,,,2022-04-06,1,,,,,,0
2747,9012803002741,新規,0,2022-04-06,2022-04-06,合同会社ワン・イーチ,,合同会社,東京都,国分寺市,内藤２丁目２番地５９,,13,214,1850033,,,,,,,2022-04-06,1,,,,,ワンイーチ,0
2748,9013101008885,新規,0,2022-04-06,2022-04-06,株式会社ＧＡＡ,,株式会社,東京都,福生市,北田園１丁目２－１,,13,218,1970005,,,,,,,2022-04-06,1,,,,,ジーエーエー,0
2752,9013301048896,新規,0,2022-04-06,2022-04-06,林航商事株式会社,,株式会社,東京都,豊島区,高田３丁目１０－２１東宏ビル２０２,,13,116,1710033,,,,,,,2022-04-06,1,,,,,リンコウショウジ,0
2759,9020001145924,新規,0,2022-04-06,2022-04-06,株式会社クルベラ,,株式会社,神奈川県,横浜市西区,北幸１丁目１－８エキニア横浜５階ＨａｍａＰｏｒｔ内,,14,103,2200004,,,,,,,2022-04-06,1,,,,,クルベラ,0
2760,9020001145932,新規,0,2022-04-06,2022-04-06,ＫＮＤ菊地不動産株式会社,,株式会社,神奈川県,川崎市川崎区,池田１丁目８番１１号,,14,131,2100022,,,,,,,2022-04-06,1,,,,,ケーエヌディーキクチフドウサン,0
2761,9020001145949,新規,0,2022-04-06,2022-04-06,株式会社ベイトランス,,株式会社,神奈川県,横浜市戸塚区,上矢部町１７５４番地７４,,14,110,2450053,,,,,,,2022-04-06,1,,,,,ベイトランス,0
2764,9020003021545,新規,0,2022-04-06,2022-04-06,合同会社Ｆｉｇｏ,,合同会社,神奈川県,横浜市中区,長者町８丁目１２８番地第８吉田ビル１０５,,14,104,2310033,,,,,,,2022-04-06,1,,,,,フィーゴ,0
2766,9021001075582,新規,0,2022-04-06,2022-04-06,株式会社野沢工務店,,株式会社,神奈川県,大和市,下鶴間１９０５番地１フラン１０３,,14,213,2420001,,,,,,,2022-04-06,1,,,,,ノザワコウムテン,0
2767,9021001075608,新規,0,2022-04-06,2022-04-06,株式会社やまもと屋,,株式会社,神奈川県,鎌倉市,山ノ内１３１３番地３,,14,204,2470062,,,,,,,2022-04-06,1,,,,,ヤマモトヤ,0
2768,9021001075632,新規,0,2022-04-06,2022-04-06,ＳＴＵＤＩＯ　ＨＹＧＧＥ株式会社一級建築士事務所,,株式会社,神奈川県,鎌倉市,高野２２番地１２,,14,204,2470054,,,,,,,2022-04-06,1,,,,,スタジオヒュッゲイッキュウケンチクシジムショ,0
2772,9021003011552,新規,0,2022-04-06,2022-04-06,合同会社湘南アルプス,,合同会社,神奈川県,茅ヶ崎市,平和町７番６号,,14,207,2530024,,,,,,,2022-04-06,1,,,,,ショウナンアルプス,0
2779,9030001147548,新規,0,2022-04-06,2022-04-06,株式会社ＭＪワークス,,株式会社,埼玉県,川口市,幸町２丁目２番１６ー１１０３号クレール・マルシェ川口,,11,203,3320016,,,,,,,2022-04-06,1,,,,,エムジェイワークス,0
2780,9030001147564,新規,0,2022-04-06,2022-04-06,株式会社Ａ・Ｔ・Ｏ・Ｍ,,株式会社,埼玉県,川口市,金山町１２番１号サウスゲートタワー川口２ＦＭｉｏ川口,,11,203,3320014,,,,,,,2022-04-06,1,,,,,アトム,0
2781,9030001147606,新規,0,2022-04-06,2022-04-06,株式会社ＫＨ,,株式会社,埼玉県,新座市,新堀２丁目９番２５号,,11,230,3520032,,,,,,,2022-04-06,1,,,,,ケイエイチ,0
2782,9030001147639,新規,0,2022-04-06,2022-04-06,株式会社司工業,,株式会社,埼玉県,熊谷市,上之３３８番地６,,11,202,3600012,,,,,,,2022-04-06,1,,,,,,0
2784,9030003019142,新規,0,2022-04-06,2022-04-06,スマイル・ミー合同会社,,合同会社,埼玉県,さいたま市浦和区,大東１丁目１７番１４号,,11,107,3300043,,,,,,,2022-04-06,1,,,,,スマイルミー,0
2792,9040001122839,新規,0,2022-04-06,2022-04-06,株式会社ＬＡＮＩＬＩＦＥ,,株式会社,千葉県,船橋市,宮本９丁目２番１０－２０６号,,12,204,2730003,,,,,,,2022-04-06,1,,,,,ラニライフ,0
2793,9040001122913,新規,0,2022-04-06,2022-04-06,株式会社Ｒｅｊｕ,,株式会社,千葉県,松戸市,松戸新田３１１－１０,,12,207,2702241,,,,,,,2022-04-06,1,,,,,レジュ,0
2794,9040001122938,新規,0,2022-04-06,2022-04-06,株式会社ＤＯＧ　ＣＡＭＰ,,株式会社,千葉県,富津市,大田和１８５,,12,226,2991735,,,,,,,2022-04-06,1,,,,,ドッグキャンプ,0
2796,9050001050898,新規,0,2022-04-06,2022-04-06,株式会社まるしん,,株式会社,茨城県,鉾田市,安房１６５３番地７,,08,234,3111504,,,,,,,2022-04-06,1,,,,,マルシン,0
2797,9050001050907,新規,0,2022-04-06,2022-04-06,株式会社ＳＴＡＧＥ　ＯＮＥ,,株式会社,茨城県,古河市,水海２１７７番地８,,08,204,3060215,,,,,,,2022-04-06,1,,,,,ステージワン,0
2802,9060003004018,新規,0,2022-04-06,2022-04-06,大朏ファーム合同会社,,合同会社,栃木県,佐野市,船津川町１１６９番地,,09,204,3270035,,,,,,,2022-04-06,1,,,,,オオツキファーム,0
2803,9070001039106,新規,0,2022-04-06,2022-04-06,株式会社福彩,,株式会社,群馬県,太田市,六千石町４８番地,,10,205,3792305,,,,,,,2022-04-06,1,,,,,フクサイ,0
2804,9070003004446,新規,0,2022-04-06,2022-04-06,東方マネジメント合同会社,,合同会社,群馬県,高崎市,西島町７８番地５,,10,202,3700017,,,,,,,2022-04-06,1,,,,,トウホウマネジメント,0
2805,9080001024841,新規,0,2022-04-06,2022-04-06,株式会社Ｇｌａｓｓｙ,,株式会社,静岡県,静岡市清水区,堂林２丁目１５番１６号,,22,103,4240851,,,,,,,2022-04-06,1,,,,,グラッシー,0
2812,9080105006240,新規,0,2022-04-06,2022-04-06,ＦＵＪＩ社会保険労務士法人,,その他の設立登記法人,静岡県,富士市,中央町３丁目２番２号,,22,210,4170052,,,,,,,2022-04-06,1,,,,,フジ,0
2813,9080403004508,新規,0,2022-04-06,2022-04-06,ビーユナイト合同会社,,合同会社,静岡県,浜松市中区,船越町２１番８－３号,,22,131,4300913,,,,,,,2022-04-06,1,,,,,ビーユナイト,0
2814,9090001017506,新規,0,2022-04-06,2022-04-06,Ｅａｓｔｅｒｎ　Ｂｅａｖｅｒ株式会社,,株式会社,山梨県,笛吹市,御坂町栗合１７７番地１,,19,211,4060805,,,,,,,2022-04-06,1,,,,,イースタンビーバー,0
2816,9100001035217,新規,0,2022-04-06,2022-04-06,株式会社クリーンサポートＴＡＦ,,株式会社,長野県,上田市,常入１丁目５番５号,,20,203,3860015,,,,,,,2022-04-06,1,,,,,クリーンサポートタフ,0
2817,9100001035225,新規,0,2022-04-06,2022-04-06,株式会社育ちＩａｂ,,株式会社,長野県,松本市,大字笹賀５６５２番地５６管理会館２階,,20,202,3990033,,,,,,,2022-04-06,1,,,,,ソダチラボ,0
2818,9100001035233,新規,0,2022-04-06,2022-04-06,栄フロンティア株式会社,,株式会社,長野県,下水内郡栄村,大字堺１８０３３番地ロ号の２,,20,602,3892703,,,,,,,2022-04-06,1,,,,,サカエフロンティア,0
2822,9110003004730,新規,0,2022-04-06,2022-04-06,合同会社ＮＫ熔接,,合同会社,新潟県,燕市,次新５１番地,,15,213,9591222,,,,,,,2022-04-06,1,,,,,エヌケイヨウセツ,0
2836,9120001244856,新規,0,2022-04-06,2022-04-06,株式会社ＦＡＢＭＩＣ,,株式会社,大阪府,枚方市,池之宮２丁目５番１－１４０３号,,27,210,5730005,,,,,,,2022-04-06,1,,,,,ファブミック,0
2837,9120001244922,新規,0,2022-04-06,2022-04-06,ユニゾン株式会社,,株式会社,大阪府,大阪市中央区,船場中央１丁目３－２－１０１大阪デザインセンター内,,27,128,5410055,,,,,,,2022-04-06,1,,,,,ユニゾン,0
2838,9120001244930,新規,0,2022-04-06,2022-04-06,株式会社ＴｏｍＴｅｃｈ,,株式会社,大阪府,大阪市都島区,東野田町５丁目１５番１７号１Ｆ,,27,102,5340024,,,,,,,2022-04-06,1,,,,,トムテック,0
2839,9120001244939,新規,0,2022-04-06,2022-04-06,株式会社ヤンデザイン,,株式会社,大阪府,大阪市中央区,南船場４丁目１３番２２号,,27,128,5420081,,,,,,,2022-04-06,1,,,,,ヤンデザイン,0
2840,9120001244955,新規,0,2022-04-06,2022-04-06,株式会社デジタルアークス,,株式会社,大阪府,大阪市北区,大淀南１丁目３番１４号４階,,27,127,5310075,,,,,,,2022-04-06,1,,,,,デジタルアークス,0
2841,9120001244963,新規,0,2022-04-06,2022-04-06,株式会社ワイズネオ,,株式会社,大阪府,大阪市中央区,南船場２丁目６番２１号グラン・ビルド心斎橋６０４号室,,27,128,5420081,,,,,,,2022-04-06,1,,,,,ワイズネオ,0
2842,9120001244988,新規,0,2022-04-06,2022-04-06,ＫＡＷＡＹＩ株式会社,,株式会社,大阪府,大阪市住吉区,長居２丁目５番１７号１階南側,,27,120,5580003,,,,,,,2022-04-06,1,,,,,カワイ,0
2843,9120001245029,新規,0,2022-04-06,2022-04-06,株式会社ＳＥＬＥＢＲＯ,,株式会社,大阪府,大阪市中央区,南船場４丁目１０－２０グランメゾン南船場１０４号室,,27,128,5420081,,,,,,,2022-04-06,1,,,,,セレブロ,0
2844,9120001245037,新規,0,2022-04-06,2022-04-06,株式会社Ｄａｉｇｏｕ,,株式会社,大阪府,大阪市西成区,萩之茶屋２丁目５－１５,,27,122,5570004,,,,,,,2022-04-06,1,,,,,ダイゴウ,0
2848,9120003021411,新規,0,2022-04-06,2022-04-06,合同会社ｒｅｖｅｓ　ｌａｂ,,合同会社,大阪府,守口市,橋波東之町２丁目１０番１５号,,27,209,5700031,,,,,,,2022-04-06,1,,,,,リバースラボ,0
2849,9120003021428,新規,0,2022-04-06,2022-04-06,合同会社ヒロミ,,合同会社,大阪府,大阪市北区,西天満４丁目９番２号,,27,127,5300047,,,,,,,2022-04-06,1,,,,,ヒロミ,0
2858,9120901045817,新規,0,2022-04-06,2022-04-06,光商事株式会社,,株式会社,大阪府,池田市,畑４丁目２３番２号,,27,204,5630021,,,,,,,2022-04-06,1,,,,,ヒカリショウジ,0
2863,9122001035731,新規,0,2022-04-06,2022-04-06,株式会社オールテクト,,株式会社,大阪府,東大阪市,吉田３丁目５番２８号,,27,227,5780924,,,,,,,2022-04-06,1,,,,,オールテクト,0
2868,9130003007839,新規,0,2022-04-06,2022-04-06,合同会社アスミ工房,,合同会社,京都府,亀岡市,余部町前川原１５番地３９,,26,206,6210806,,,,,,,2022-04-06,1,,,,,アスミコウボウ,0
2869,9130003007855,新規,0,2022-04-06,2022-04-06,合同会社ハイライトカツサンド,,合同会社,京都府,京都市左京区,田中門前町９４番地,,26,103,6068225,,,,,,,2022-04-06,1,,,,,ハイライトカツサンド,0
2872,9140001125468,新規,0,2022-04-06,2022-04-06,株式会社ＹＴＭフードサービス,,株式会社,兵庫県,西宮市,川東町９番１９号メイプル夙川２０２号,,28,204,6620945,,,,,,,2022-04-06,1,,,,,ワイティエムフードサービス,0
2873,9140001125484,新規,0,2022-04-06,2022-04-06,株式会社Ｇａｎｅｓｈａ,,株式会社,兵庫県,尼崎市,大庄川田町６３番地の１,,28,202,6600072,,,,,,,2022-04-06,1,,,,,ガネーシャ,0
2879,9140005026126,新規,0,2022-04-06,2022-04-06,一般社団法人小野匠工業会,,その他の設立登記法人,兵庫県,小野市,匠台７番地,,28,218,6751322,,,,,,,2022-04-06,1,,,,,オノタクミコウギョウカイ,0
2883,9180001150652,新規,0,2022-04-06,2022-04-06,株式会社ソーラーポリス,,株式会社,愛知県,一宮市,三条字ヱグロ５１番地３,,23,203,4940003,,,,,,,2022-04-06,1,,,,,ソーラーポリス,0
2889,9180005019704,新規,0,2022-04-06,2022-04-06,税理士法人穂迫会計事務所,,その他の設立登記法人,愛知県,名古屋市北区,大杉町２丁目３４番地,,23,103,4620836,,,,,,,2022-04-06,1,,,,,ホサコカイケイジムショ,0
2890,9180005019712,新規,0,2022-04-06,2022-04-06,一般社団法人中日本仮設事業協会,,その他の設立登記法人,愛知県,海部郡大治町,大字北間島字柿木７１番地の１,,23,424,4901132,,,,,,,2022-04-06,1,,,,,ナカニホンカセツジギョウキョウカイ,0
2892,9180301036097,新規,0,2022-04-06,2022-04-06,株式会社シンプルＪＡＰＡＮ,,株式会社,愛知県,岡崎市,鹿勝川町字大坪５７番地２,,23,202,4443623,,,,,,,2022-04-06,1,,,,,シンプルジャパン,0
2897,9180303005298,新規,0,2022-04-06,2022-04-06,ＦＴＬ　Ｊａｐａｎ合同会社,,合同会社,愛知県,豊田市,四郷町天道４５番地３１６,,23,211,4700373,,,,,,,2022-04-06,1,,,,,エフティーエルジャパン,0
2899,9190005011684,新規,0,2022-04-06,2022-04-06,農事組合法人農地担い手管理機構,,その他の設立登記法人,三重県,四日市市,小山町２６１５番地,,24,202,5121102,,,,,,,2022-04-06,1,,,,,ノウチニナイテカンリキコウ,0
2904,9200005013324,新規,0,2022-04-06,2022-04-06,一般社団法人岐阜県老人福祉施設協議会,,その他の設立登記法人,岐阜県,岐阜市,下奈良２丁目２番１号,,21,201,5008385,,,,,,,2022-04-06,1,,,,,ギフケンロウジンフクシシセツキョウギカイ,0
2905,9210001018870,新規,0,2022-04-06,2022-04-06,島田左官株式会社,,株式会社,福井県,福井市,下莇生田町第２７号１番地１８,,18,201,9188134,,,,,,,2022-04-06,1,,,,,シマダサカン,0
2908,9220001024769,新規,0,2022-04-06,2022-04-06,株式会社Ｓｔｏｒｙ,,株式会社,石川県,小松市,上牧町一丁目３０番地２,,17,203,9230027,,,,,,,2022-04-06,1,,,,,ストーリー,0
2909,9220001024777,新規,0,2022-04-06,2022-04-06,ＭＯＰエステート株式会社,,株式会社,石川県,金沢市,横川７丁目８４番地,,17,201,9218163,,,,,,,2022-04-06,1,,,,,モップエステート,0
2910,9220001024785,新規,0,2022-04-06,2022-04-06,株式会社北村内装,,株式会社,石川県,小松市,浜佐美本町４７番地,,17,203,9230997,,,,,,,2022-04-06,1,,,,,キタムラナイソウ,0
2911,9220001024793,新規,0,2022-04-06,2022-04-06,Ｂａｕｍ株式会社,,株式会社,石川県,小松市,園町ニ６３番地１フルハウステナントＩＩ２０１号室,00126156,17,203,9230801,,,,,,,2022-04-06,1,,,,,バウム,0
2912,9230001019297,新規,0,2022-04-06,2022-04-06,アクティブテクニカ株式会社,,株式会社,富山県,富山市,向新庄町１丁目１２番２３号,,16,201,9300916,,,,,,,2022-04-06,1,,,,,アクティブテクニカ,0
2915,9240001059557,新規,0,2022-04-06,2022-04-06,株式会社アート石材合田,,株式会社,広島県,竹原市,田ノ浦３丁目８番４４号,,34,203,7250023,,,,,,,2022-04-06,1,,,,,アートセキザイゴウダ,0
2916,9240001059581,新規,0,2022-04-06,2022-04-06,株式会社ＴＡＮＩＳＥＩ,,株式会社,広島県,廿日市市,上平良４２３番地１３,,34,213,7380026,,,,,,,2022-04-06,1,,,,,タニセイ,0
2917,9250001019493,新規,0,2022-04-06,2022-04-06,株式会社Ｅｓ　Ｌｕｘｏｕｒｅ,,株式会社,山口県,柳井市,古開作４２８番地５メゾンドウルス１０３号,,35,212,7420032,,,,,,,2022-04-06,1,,,,,エスラグジュール,0
2919,9260001036728,新規,0,2022-04-06,2022-04-06,株式会社ラピノジャパン,,株式会社,岡山県,岡山市中区,門田屋敷２丁目２番１７号２０１,,33,102,7038275,,,,,,,2022-04-06,1,,,,,ラピノジャパン,0
2922,9260003003866,新規,0,2022-04-06,2022-04-06,ＩＵＷ合同会社,,合同会社,岡山県,倉敷市,連島町連島３６番地１４４,,33,202,7128011,,,,,,,2022-04-06,1,,,,,アイユーダブリュー,0
2932,9290001097040,新規,0,2022-04-06,2022-04-06,株式会社Ｂｅｙｏｎｄ,,株式会社,福岡県,福岡市早良区,有田団地３番５０１号,,40,137,8140034,,,,,,,2022-04-06,1,,,,,ビヨンド,0
2933,9290001097049,新規,0,2022-04-06,2022-04-06,株式会社ＦＲＥＥＤＯＭはまさき商店,,株式会社,福岡県,福岡市南区,柏原３丁目２６番６号,,40,134,8111353,,,,,,,2022-04-06,1,,,,,フリーダムハマサキショウテン,0
2934,9290001097073,新規,0,2022-04-06,2022-04-06,株式会社ローカルベンチャールーム,,株式会社,福岡県,福岡市中央区,今泉２丁目４番３１号,,40,133,8100021,,,,,,,2022-04-06,1,,,,,ローカルベンチャールーム,0
2935,9290001097107,新規,0,2022-04-06,2022-04-06,株式会社ａｎｄ,,株式会社,福岡県,福岡市西区,今宿東３丁目４５番２１号,,40,135,8190161,,,,,,,2022-04-06,1,,,,,アンド,0
2939,9290801028426,新規,0,2022-04-06,2022-04-06,株式会社ＭＯＯＭＯＯ,,株式会社,福岡県,北九州市小倉北区,京町１丁目６番１３号２Ｆ,,40,106,8020002,,,,,,,2022-04-06,1,,,,,モーモー,0
2943,9300003001816,新規,0,2022-04-06,2022-04-06,合同会社サンレイキサービス,,合同会社,佐賀県,小城市,小城町栗原７番地１６,,41,208,8450013,,,,,,,2022-04-06,1,,,,,サンレイキサービス,0
2945,9300005007068,新規,0,2022-04-06,2022-04-06,一般社団法人Ｊ‐Ｔｏｓｕ,,その他の設立登記法人,佐賀県,鳥栖市,萱方町２４２番地７,,41,203,8410081,,,,,,,2022-04-06,1,,,,,ジェイトス,0
2946,9310001017813,新規,0,2022-04-06,2022-04-06,株式会社太伸,,株式会社,長崎県,長崎市,新戸町４丁目９番２号,,42,201,8500954,,,,,,,2022-04-06,1,,,,,ダイシン,0
2947,9310003004322,新規,0,2022-04-06,2022-04-06,合同会社千々石衛生舎,,合同会社,長崎県,雲仙市,千々石町庚２７６番地４,,42,213,8540407,,,,,,,2022-04-06,1,,,,,チヂワエイセイシャ,0
2950,9330001029591,新規,0,2022-04-06,2022-04-06,株式会社熊本建設工業,,株式会社,熊本県,八代市,豊原中町４１９番地１,,43,202,8660062,,,,,,,2022-04-06,1,,,,,クマモトケンセツコウギョウ,0
2951,9330001029600,新規,0,2022-04-06,2022-04-06,株式会社きこり,,株式会社,熊本県,下益城郡美里町,二和田１１６６番地１,,43,348,8614733,,,,,,,2022-04-06,1,,,,,キコリ,0
2952,9330001029609,新規,0,2022-04-06,2022-04-06,株式会社仲山ライスセンター,,株式会社,熊本県,玉名市,下小田７６６番地２,,43,206,8650018,,,,,,,2022-04-06,1,,,,,ナカヤマライスセンター,0
2953,9330003009311,新規,0,2022-04-06,2022-04-06,ＭＥ合同会社,,合同会社,熊本県,熊本市中央区,大江３丁目１－７２プレミスト大江ザ・レジデンス１１０６,,43,101,8620971,,,,,,,2022-04-06,1,,,,,エムイー,0
2956,9340001024617,新規,0,2022-04-06,2022-04-06,三共リース株式会社,,株式会社,鹿児島県,霧島市,国分下井３２９１番２,,46,218,8994463,,,,,,,2022-04-06,1,,,,,サンキョウリース,0
2958,9350001017669,新規,0,2022-04-06,2022-04-06,株式会社琉栄工業,,株式会社,宮崎県,都城市,上町１４街区２１号,,45,202,8850072,,,,,,,2022-04-06,1,,,,,リュウエイコウギョウ,0
2961,9360003011909,新規,0,2022-04-06,2022-04-06,合同会社オズ学童クラブ,,合同会社,沖縄県,名護市,大南３丁目１１番９号,,47,209,9050015,,,,,,,2022-04-06,1,,,,,オズガクドウクラブ,0
2962,9360005006626,新規,0,2022-04-06,2022-04-06,一般社団法人ＬＩＢ,,その他の設立登記法人,沖縄県,沖縄市,登川１丁目２６番１５号,,47,211,9042142,,,,,,,2022-04-06,1,,,,,リブ,0
2964,9370001048381,新規,0,2022-04-06,2022-04-06,株式会社神威興業,,株式会社,宮城県,栗原市,若柳字川南道伝前１５番地,,04,213,9895502,,,,,,,2022-04-06,1,,,,,カムイコウギョウ,0
2965,9370001048398,新規,0,2022-04-06,2022-04-06,株式会社ＹＵコンサルタント,,株式会社,宮城県,仙台市宮城野区,宮城野１丁目７番５－９０２号,,04,102,9830045,,,,,,,2022-04-06,1,,,,,ワイユーコンサルタント,0
2967,9370003005637,新規,0,2022-04-06,2022-04-06,カルダモン合同会社,,合同会社,宮城県,名取市,名取が丘３丁目２０番１１号,,04,207,9811235,,,,,,,2022-04-06,1,,,,,カルダモン,0
2968,9370003005645,新規,0,2022-04-06,2022-04-06,合同会社Ｒｕｓｈ,,合同会社,宮城県,仙台市青葉区,二日町１７番３１－２０６号,,04,101,9800802,,,,,,,2022-04-06,1,,,,,ラッシュ,0
2972,9380001032698,新規,0,2022-04-06,2022-04-06,株式会社アネストサポート,,株式会社,福島県,喜多方市,豊川町米室字宮ノ中５０７５番地３,,07,208,9660914,,,,,,,2022-04-06,1,,,,,アネストサポート,0
2973,9380001032715,新規,0,2022-04-06,2022-04-06,株式会社ＯＯＫＡｃｏｎｓｔｒｕｃｔｉｏｎ,,株式会社,福島県,本宮市,仁井田字西町３８番地２ウエスト・タウン２０５,,07,214,9691103,,,,,,,2022-04-06,1,,,,,オーカコンストゥラクション,0
2976,9380005012556,新規,0,2022-04-06,2022-04-06,一般社団法人郡山交響楽団,,その他の設立登記法人,福島県,郡山市,堂前町２７番１０号,,07,203,9638877,,,,,,,2022-04-06,1,,,,,コオリヤマコウキョウガクダン,0
2979,9390001016857,新規,0,2022-04-06,2022-04-06,フルバン塗装株式会社,,株式会社,山形県,寒河江市,字中河原９１番２,,06,206,9910005,,,,,,,2022-04-06,1,,,,,フルバントソウ,0
2982,9400001015849,新規,0,2022-04-06,2022-04-06,株式会社小原,,株式会社,岩手県,花巻市,松園町４７０番地１７,,03,205,0250066,,,,,,,2022-04-06,1,,,,,オバラ,0
2994,9470003002161,新規,0,2022-04-06,2022-04-06,合同会社エムウィング,,合同会社,香川県,観音寺市,柞田町甲１４１４番地,,37,205,7680040,,,,,,,2022-04-06,1,,,,,エムウィング,0
3002,9500005008475,新規,0,2022-04-06,2022-04-06,一般社団法人ゆりラボ,,その他の設立登記法人,愛媛県,上浮穴郡久万高原町,久万３４９番地１,,38,386,7911201,,,,,,,2022-04-06,1,,,,,ユリラボ,0
