sequenceNumber,corporateNumber,process,correct,updateDate,changeDate,name,nameImageId,kind,prefectureName,cityName,streetNumber,addressImageId,prefectureCode,cityCode,postCode,addressOutside,addressOutsideImageId,closeDate,closeCause,successorCorporateNumber,changeCause,assignmentDate,latest,enName,enPrefectureName,enCityName,enAddressOutside,furigana,hihyoji
8,1010003023112,登記記録の閉鎖等,0,2025-06-24,2025-06-04,ＫＭ　Ｕｍｅｄａ　Ｊａｐａｎ合同会社,,合同会社,東京都,千代田区,霞が関３丁目２番５号霞が関ビル,,13,101,1000013,,,2025-06-04,清算の結了等,,,2016-02-24,1,,,,,ケーエムウメダジャパン,0
18,1010401122688,登記記録の閉鎖等,0,2025-06-24,2025-06-02,ＰＢＩ株式会社,,株式会社,東京都,港区,赤坂９丁目６番２８号,,13,103,1070052,,,2025-06-02,清算の結了等,,,2016-01-21,1,,,,,ピービーアイ,0
27,1010502010940,登記記録の閉鎖等,0,2025-06-24,2025-06-11,有限会社水田武則商店,,有限会社,東京都,台東区,浅草橋４丁目５番１０号,,13,106,1110053,,,2025-06-11,清算の結了等,,,2015-10-05,1,,,,,ミズタタケノリショウテン,0
29,1010601056686,登記記録の閉鎖等,0,2025-06-24,2025-06-17,オキナ株式会社,,株式会社,東京都,江東区,冬木１１番１７号,,13,108,1350041,,,2025-06-17,清算の結了等,,,2020-01-10,1,,,,,オキナ,0
52,1011302002137,登記記録の閉鎖等,0,2025-06-24,2025-06-12,有限会社小美野商店,,有限会社,東京都,杉並区,西荻南３丁目７番６号,,13,115,1670053,,,2025-06-12,清算の結了等,,,2015-10-05,1,,,,,オビノショウテン,0
123,1060001013770,登記記録の閉鎖等,0,2025-06-24,2025-06-17,株式会社ＭＫグループ,,株式会社,栃木県,宇都宮市,東宿郷２丁目７－３杏花楼ビルＢ１－Ａ号室,,09,201,3210953,,,2025-06-17,清算の結了等,,,2015-10-05,1,,,,,エムケイグループ,0
133,1120001020703,登記記録の閉鎖等,0,2025-06-24,2025-06-13,株式会社竹中工作所,,株式会社,大阪府,大阪市平野区,平野宮町２丁目６番２号,,27,126,5470046,,,2025-06-13,清算の結了等,,,2015-10-05,1,,,,,タケナカコウサクショ,0
148,1120001256009,登記記録の閉鎖等,0,2025-06-24,2025-06-19,株式会社スモールステップ,,株式会社,大阪府,大阪市東淀川区,小松１丁目１０番１８号,,27,114,5330004,,,2025-06-19,清算の結了等,,,2023-06-26,1,,,,,スモールステップ,0
155,1120002010876,登記記録の閉鎖等,0,2025-06-24,2025-06-13,加美食品工業有限会社,,有限会社,大阪府,大阪市平野区,加美正覚寺２丁目２番５号,,27,126,5470006,,,2025-06-13,清算の結了等,,,2015-10-05,1,,,,,カミショクヒンコウギョウ,0
162,1130001074715,登記記録の閉鎖等,0,2025-06-24,2025-06-12,株式会社ＫＡコンサルティング,,株式会社,京都府,京都市北区,大宮東小野堀町５１番地２,,26,101,6038406,,,2025-06-12,清算の結了等,,,2023-07-12,1,,,,,ケーエーコンサルティング,0
164,1130002003870,登記記録の閉鎖等,0,2025-06-24,2025-06-20,有限会社じん六,,有限会社,京都府,京都市北区,上賀茂桜井町６７番地,,26,101,6038054,,,2025-06-20,清算の結了等,,,2015-10-05,1,,,,,ジンロク,0
166,1140001031616,登記記録の閉鎖等,0,2025-06-24,2025-06-17,株式会社クロック,,株式会社,兵庫県,神戸市中央区,栄町通２丁目４番１３号神栄ビル３０３号室,,28,110,6500023,,,2025-06-17,清算の結了等,,,2015-10-05,1,,,,,クロック,0
170,1140002015527,登記記録の閉鎖等,0,2025-06-24,2025-06-18,有限会社ピー・ケイ・エフ,,有限会社,兵庫県,神戸市西区,桜が丘東町５丁目１４番地の１,,28,111,6512225,,,2025-06-18,清算の結了等,,,2015-10-05,1,,,,,ピーケイエフ,0
178,1180001001796,登記記録の閉鎖等,0,2025-06-24,2025-06-16,株式会社カトーテック,,株式会社,愛知県,名古屋市名東区,高社２丁目２４５番地,,23,115,4650095,,,2025-06-16,清算の結了等,,,2015-10-05,1,,,,,カトーテック,0
180,1180001094535,登記記録の閉鎖等,0,2025-06-24,2025-06-16,深谷工業株式会社,,株式会社,愛知県,東海市,荒尾町金山１３８番地,,23,222,4760003,,,2025-06-16,清算の結了等,,,2015-10-05,1,,,,,フカヤコウギョウ,0
181,1180001123566,登記記録の閉鎖等,0,2025-06-24,2025-06-16,株式会社エープロジェクト,,株式会社,愛知県,名古屋市中区,丸の内３丁目５番３３号,,23,106,4600002,,,2025-06-16,清算の結了等,,,2016-06-09,1,,,,,エープロジェクト,0
189,1180003024399,登記記録の閉鎖等,0,2025-06-24,2025-06-16,紬生合同会社,,合同会社,愛知県,名古屋市名東区,平和が丘１丁目１１０番地２サンパークマンションＡ棟６０３,,23,115,4650097,,,2025-06-16,清算の結了等,,,2022-10-27,1,,,,,ツムギ,0
205,1200002015743,登記記録の閉鎖等,0,2025-06-24,2025-06-12,丸富有限会社,,有限会社,岐阜県,揖斐郡揖斐川町,脛永９４１番地１,00081038,21,401,5010622,,,2025-06-12,清算の結了等,,,2015-10-05,1,,,,,マルトミ,0
208,1220001021658,登記記録の閉鎖等,0,2025-06-24,2025-06-23,株式会社エステートミキ,,株式会社,石川県,金沢市,北寺町ロ７番地４２,,17,201,9200206,,,2025-06-23,清算の結了等,,,2017-05-18,1,,,,,,0
218,1270001007784,登記記録の閉鎖等,0,2025-06-24,2025-06-20,株式会社アグリ東大山,,株式会社,鳥取県,倉吉市,鴨河内２１１０番地,,31,203,6820846,,,2025-06-20,清算の結了等,,,2019-06-17,1,,,,,アグリヒガシダイセン,0
219,1290001047309,登記記録の閉鎖等,0,2025-06-24,2025-06-16,株式会社大進道路施設,,株式会社,福岡県,八女市,立花町白木１０６１番地１,,40,210,8340084,,,2025-06-16,清算の結了等,,,2015-10-05,1,,,,,ダイシンドウロシセツ,0
257,2010003041344,登記記録の閉鎖等,0,2025-06-24,2025-06-05,オーパスファンディング７合同会社,,合同会社,東京都,千代田区,丸の内１丁目４番１号東京共同会計事務所内,,13,101,1000005,,,2025-06-05,清算の結了等,,,2023-08-10,1,,,,,オーパスファンディングセブン,0
272,2010401147263,登記記録の閉鎖等,0,2025-06-24,2025-05-30,株式会社ＵＩ,,株式会社,東京都,港区,赤坂２丁目２１番５号ＡＢＣ・Ｄ－３６号,,13,103,1070052,,,2025-05-30,清算の結了等,,,2019-08-07,1,,,,,ユーアイ,0
310,2011302012333,登記記録の閉鎖等,0,2025-06-24,2025-06-12,有限会社向陽企画,,有限会社,東京都,杉並区,浜田山１丁目２８番１３号,,13,115,1680065,,,2025-06-12,清算の結了等,,,2015-10-05,1,,,,,コウヨウキカク,0
322,2011802005729,登記記録の閉鎖等,0,2025-06-24,2025-06-19,有限会社長島企画,,有限会社,東京都,葛飾区,新小岩４丁目４３番１号,,13,122,1240024,,,2025-06-19,清算の結了等,,,2015-10-05,1,,,,,ナガシマキカク,0
325,2012801017038,登記記録の閉鎖等,0,2025-06-24,2025-06-11,株式会社Ｇｒａｎｄ　Ａｒｃｈ,,株式会社,東京都,日野市,新町２丁目８番２１号,,13,212,1910002,,,2025-06-11,清算の結了等,,,2016-01-26,1,,,,,グランドアーチ,0
342,2021001045113,登記記録の閉鎖等,0,2025-06-24,2025-06-18,株式会社ルーターズ・アンリミテッド,,株式会社,神奈川県,座間市,南栗原３丁目１８番１９号,,14,216,2520015,,,2025-06-18,清算の結了等,,,2015-10-05,1,,,,,ルーターズアンリミテッド,0
344,2021003012029,登記記録の閉鎖等,0,2025-06-24,2025-06-20,合同会社カランコエ,,合同会社,神奈川県,相模原市中央区,上矢部１丁目１５番１０号,,14,152,2520201,,,2025-06-20,清算の結了等,,,2022-08-12,1,,,,,カランコエ,0
347,2030001073362,登記記録の閉鎖等,0,2025-06-24,2025-06-17,株式会社堀設計事務所,,株式会社,埼玉県,川口市,南鳩ヶ谷４丁目１８番４号,,11,203,3340013,,,2025-06-17,清算の結了等,,,2015-10-05,1,,,,,ホリセッケイジムショ,0
356,2040001079557,登記記録の閉鎖等,0,2025-06-24,2025-06-06,エンパシーテーブル株式会社,,株式会社,千葉県,千葉市若葉区,大宮台１丁目１７番３６号,,12,104,2640015,,,2025-06-06,清算の結了等,,,2015-10-05,1,,,,,エンパシーテーブル,0
360,2040002046424,登記記録の閉鎖等,0,2025-06-24,2025-06-05,有限会社十兵衛,,有限会社,千葉県,松戸市,秋山３５９番地,,12,207,2702223,,,2025-06-05,清算の結了等,,,2015-10-05,1,,,,,ジュウベエ,0
368,2050001047182,登記記録の閉鎖等,0,2025-06-24,2025-06-17,株式会社技研建設,,株式会社,茨城県,かすみがうら市,西成井１２２番地８,,08,230,3000122,,,2025-06-17,清算の結了等,,,2020-02-18,1,,,,,ギケンケンセツ,0
369,2060002009593,登記記録の閉鎖等,0,2025-06-24,2025-06-17,有限会社渡辺薬局,,有限会社,栃木県,宇都宮市,江野町６番１０号,,09,201,3200802,,,2025-06-17,清算の結了等,,,2015-10-05,1,,,,,ワタナベヤッキョク,0
379,2120001129097,登記記録の閉鎖等,0,2025-06-24,2025-06-16,株式会社リンクコーポレーション,,株式会社,大阪府,大阪市西区,阿波座２丁目２番２２号,,27,106,5500011,,,2025-06-16,清算の結了等,,,2015-10-05,1,,,,,リンクコーポレーション,0
380,2120001136960,登記記録の閉鎖等,0,2025-06-24,2025-06-13,株式会社月読,,株式会社,大阪府,大阪市福島区,福島４丁目３番２３号,,27,103,5530003,,,2025-06-13,清算の結了等,,,2015-10-05,1,,,,,,0
381,2120001195346,登記記録の閉鎖等,0,2025-06-24,2025-06-09,株式会社一軒家,,株式会社,大阪府,大阪市淀川区,西中島６丁目４番１７号２Ｆ,,27,123,5320011,,,2025-06-09,清算の結了等,,,2015-12-28,1,,,,,イッケンヤ,0
385,2120001251487,登記記録の閉鎖等,0,2025-06-24,2025-06-16,株式会社ルピナス,,株式会社,大阪府,大阪市中央区,日本橋２丁目７番１３号３０３号室,,27,128,5420073,,,2025-06-16,清算の結了等,,,2023-01-06,1,,,,,ルピナス,0
392,2120003018109,登記記録の閉鎖等,0,2025-06-24,2025-06-12,リスタートソリューション合同会社,,合同会社,大阪府,大阪市北区,梅田１丁目１１番４－９２３号大阪駅前第４ビル９階,,27,127,5300001,,,2025-06-12,清算の結了等,,,2020-09-16,1,,,,,リスタートソリューション,0
394,2120101008184,登記記録の閉鎖等,0,2025-06-24,2025-06-09,Ｔ６０１株式会社,,株式会社,大阪府,大阪市北区,南扇町１番５号,,27,127,5300052,,,2025-06-09,清算の結了等,,,2015-10-05,1,,,,,ティーロクマルイチ,0
403,2122001004461,登記記録の閉鎖等,0,2025-06-24,2025-06-18,株式会社大同プラスチック,,株式会社,大阪府,東大阪市,池島町６丁目６番３２号,,27,227,5798064,,,2025-06-18,清算の結了等,,,2015-10-05,1,,,,,ダイドウプラスチック,0
419,2170003002017,登記記録の閉鎖等,0,2025-06-24,2025-06-20,合同会社アン,,合同会社,和歌山県,和歌山市,鷹匠町１丁目５６番地１,,30,201,6408135,,,2025-06-20,清算の結了等,,,2024-04-11,1,,,,,アン,0
426,2180005017631,登記記録の閉鎖等,0,2025-06-24,2025-06-17,一般社団法人そよかぜフリースクール,,その他の設立登記法人,愛知県,名古屋市守山区,喜多山１丁目１５番１６号,,23,113,4630017,,,2025-06-17,清算の結了等,,,2018-01-12,1,,,,,ソヨカゼフリースクール,0
427,2180301017640,登記記録の閉鎖等,0,2025-06-24,2025-06-16,ハッピーライフ株式会社,,株式会社,愛知県,刈谷市,小垣江町永田８番地,,23,210,4480813,,,2025-06-16,清算の結了等,,,2015-10-05,1,,,,,ハッピーライフ,0
434,2200002018431,登記記録の閉鎖等,0,2025-06-24,2025-06-20,有限会社岐阜デンタル,,有限会社,岐阜県,関市,肥田瀬１６２５番地,,21,205,5013911,,,2025-06-20,清算の結了等,,,2015-10-05,1,,,,,ギフデンタル,0
449,2290001048314,登記記録の閉鎖等,0,2025-06-24,2025-06-11,株式会社アソート,,株式会社,福岡県,久留米市,城南町５番地７,,40,203,8300022,,,2025-06-11,清算の結了等,,,2015-10-05,1,,,,,アソート,0
457,2310002011961,登記記録の閉鎖等,0,2025-06-24,2025-06-20,有限会社安永商事,,有限会社,長崎県,佐世保市,城山町１番１７号,,42,202,8570033,,,2025-06-20,清算の結了等,,,2015-10-05,1,,,,,ヤスナガショウジ,0
460,2320001010757,登記記録の閉鎖等,0,2025-06-24,2025-06-19,株式会社九州営繕センター,,株式会社,福岡県,豊前市,大字八屋１７５１番地１０,,40,214,8280021,,,2025-06-19,清算の結了等,,,2015-10-05,1,,,,,キュウシュウエイゼンセンター,0
462,2330001026026,登記記録の閉鎖等,0,2025-06-24,2025-06-18,株式会社Ｚｅｌｅ,,株式会社,熊本県,熊本市中央区,新市街２－１０コンフォートプレイス熊本新市街２Ｆ,,43,101,8600803,,,2025-06-18,合併による解散等,6011201016729,令和７年６月１日東京都台東区上野七丁目３番２号株式会社ＣＲＯＩＳ（6011201016729）に合併し解散,2019-01-21,1,,,,,ゼル,0
465,2340001021216,登記記録の閉鎖等,0,2025-06-24,2025-06-11,株式会社ＴＨＩＳ２０,,株式会社,鹿児島県,姶良市,東餅田１５９８番地１５６,,46,225,8995421,,,2025-06-11,清算の結了等,,,2018-05-29,1,,,,,ディストウエンティ,0
487,2410001012447,登記記録の閉鎖等,0,2025-06-24,2025-06-19,株式会社協和ジビエ工房,,株式会社,秋田県,大仙市,協和船岡字東兵衛屋敷７９番地１,,05,212,0192401,,,2025-06-19,清算の結了等,,,2020-03-27,1,,,,,キョウワジビエコウボウ,0
507,3010003037449,登記記録の閉鎖等,0,2025-06-24,2025-06-05,ジェイコアレジ６合同会社１６,,合同会社,東京都,千代田区,丸の内１丁目４番１号東京共同会計事務所内,,13,101,1000005,,,2025-06-05,清算の結了等,,,2022-04-11,1,,,,,ジェイコアレジシックスイチロク,0
519,3010501053674,登記記録の閉鎖等,0,2025-06-24,2025-06-11,株式会社Ｓａｋｕｒａ　Ｗｈｉｓｐｅｒ,,株式会社,東京都,台東区,浅草５丁目３４番４号２０６号室,,13,106,1110032,,,2025-06-11,清算の結了等,,,2025-02-20,1,,,,,サクラウィスパー,0
552,3011101100271,登記記録の閉鎖等,0,2025-06-24,2025-06-16,株式会社ピソライースト,,株式会社,東京都,新宿区,西新宿８丁目４番７号,,13,104,1600023,,,2025-06-16,合併による解散等,5160001021925,令和７年６月１日滋賀県草津市東矢倉一丁目５番２号株式会社ピソラ（5160001021925）に合併し解散,2022-09-26,1,,,,,ピソライースト,0
568,3011503003254,登記記録の閉鎖等,0,2025-06-24,2025-06-06,合同会社ミグ,,合同会社,東京都,北区,滝野川３丁目３９番１０号,,13,117,1140023,,,2025-06-06,清算の結了等,,,2017-04-25,1,,,,,,0
578,3013301021149,登記記録の閉鎖等,0,2025-06-24,2025-06-12,株式会社ケイ・ティー・エムインスティチュート,,株式会社,東京都,豊島区,西池袋５丁目５番２１号,,13,116,1710021,,,2025-06-12,清算の結了等,,,2015-10-05,1,,,,,ケイティーエムインスティチュート,0
585,3020002100396,登記記録の閉鎖等,0,2025-06-24,2025-06-19,有限会社藤和,,有限会社,神奈川県,川崎市高津区,溝口５丁目２３番２７号光陽マンション１０３,,14,134,2130001,,,2025-06-19,清算の結了等,,,2015-10-05,1,,,,,トウワ,0
588,3021001039519,登記記録の閉鎖等,0,2025-06-24,2025-06-23,株式会社エイ・クル,,株式会社,神奈川県,相模原市南区,旭町２２番１７号,,14,153,2520304,,,2025-06-23,清算の結了等,,,2015-10-05,1,,,,,エイクル,0
590,3021001080150,登記記録の閉鎖等,0,2025-06-24,2025-06-19,株式会社ｕｎｋｎｏｗｎ,,株式会社,東京都,府中市,白糸台１丁目１２番地の４,,13,206,1830011,,,2025-06-19,清算の結了等,,,2023-09-20,1,,,,,アンノウン,0
593,3030001026880,登記記録の閉鎖等,0,2025-06-24,2025-06-18,株式会社クラフトワーク,,株式会社,埼玉県,入間市,春日町１丁目１番１８号,,11,225,3580006,,,2025-06-18,清算の結了等,,,2015-10-05,1,,,,,クラフトワーク,0
595,3030001144831,登記記録の閉鎖等,0,2025-06-24,2025-06-20,株式会社ｍｂ,,株式会社,埼玉県,さいたま市岩槻区,城南２丁目６番１０号,,11,110,3390043,,,2025-06-20,合併による解散等,6010001216670,令和７年６月１日東京都中央区日本橋蛎殻町一丁目３番５号共同ビル（兜町）４階４１号室日本ホールディングス株式会社（6010001216670）に合併し解散,2021-10-12,1,,,,,エムビー,0
602,3030003015295,登記記録の閉鎖等,0,2025-06-24,2025-06-12,Ｍｉｄｎｉｇｈｔ　Ｒｕｎ合同会社,,合同会社,埼玉県,草加市,長栄３丁目４４番４号ｇｏｏｄｙ３－２０３号,,11,221,3400051,,,2025-06-12,清算の結了等,,,2020-05-25,1,,,,,ミッドナイトラン,0
618,3050002013414,登記記録の閉鎖等,0,2025-06-24,2025-06-17,有限会社小笠原装蹄所,,有限会社,茨城県,稲敷郡阿見町,大字若栗３７７６番地２,,08,443,3000333,,,2025-06-17,清算の結了等,,,2015-10-05,1,,,,,オガサワラソウテイジョ,0
631,3080402016914,登記記録の閉鎖等,0,2025-06-24,2025-06-20,有限会社カワフク,,有限会社,静岡県,浜松市中央区,山下町１１３番地の４,,22,138,4300941,,,2025-06-20,清算の結了等,,,2015-10-05,1,,,,,カワフク,0
640,3120001125558,登記記録の閉鎖等,0,2025-06-24,2025-06-16,アイブリッジグループ株式会社,,株式会社,大阪府,大阪市福島区,福島６丁目１３番６号,,27,103,5530003,,,2025-06-16,合併による解散等,1120001263319,令和７年６月１６日大阪市福島区福島六丁目１３番６号Ｙｕｂｉホールディングス株式会社（1120001263319）に合併し解散,2015-10-05,1,,,,,アイブリッジグループ,0
650,3120003026176,登記記録の閉鎖等,0,2025-06-24,2025-06-19,豊谷合同会社,,合同会社,大阪府,大阪市淀川区,宮原２丁目１２番１４号ライオンズマンション新大阪第五・４０４号室,,27,123,5320003,,,2025-06-19,清算の結了等,,,2024-03-25,1,,,,,トヨタニ,0
666,3130005014673,登記記録の閉鎖等,0,2025-06-24,2025-06-19,一般社団法人ＩＡＥＴ,,その他の設立登記法人,京都府,京都市左京区,吉田本町京都大学経済研究所内,,26,103,6068317,,,2025-06-19,清算の結了等,,,2016-08-15,1,,,,,アイエーイーティー,0
675,3140005023013,登記記録の閉鎖等,0,2025-06-24,2025-06-18,一般社団法人天内,,その他の設立登記法人,兵庫県,丹波篠山市,大山上６８５番地,,28,221,6692803,,,2025-06-18,清算の結了等,,,2016-06-09,1,,,,,アモチ,0
676,3150001017356,登記記録の閉鎖等,0,2025-06-24,2025-06-16,株式会社ＴＢＲＣ‐Ｚ,,株式会社,大阪府,大阪市西成区,岸里１丁目４番１４号エスペランサーユウビ１階,,27,122,5570041,,,2025-06-16,清算の結了等,,,2015-10-05,1,,,,,ティービーアールシーゼット,0
699,3220001010700,登記記録の閉鎖等,0,2025-06-24,2025-06-18,株式会社金沢東洋医学社,,株式会社,石川県,白山市,河内町江津己３７番地,,17,210,9202305,,,2025-06-18,清算の結了等,,,2015-10-05,1,,,,,,0
722,3310001014205,登記記録の閉鎖等,0,2025-06-24,2025-06-16,ビジョンプランニング株式会社,,株式会社,鹿児島県,大島郡徳之島町,亀津７４５０番地,,46,530,8917101,,,2025-06-16,清算の結了等,,,2016-05-09,1,,,,,ビジョンプランニング,0
736,3420002017765,登記記録の閉鎖等,0,2025-06-24,2025-06-16,有限会社高村石材,,有限会社,青森県,三沢市,淋代３丁目１４５番地２２２号,,02,207,0330113,,,2025-06-16,清算の結了等,,,2015-10-05,1,,,,,タカムラセキザイ,0
737,3430001084079,登記記録の閉鎖等,0,2025-06-24,2025-06-20,株式会社御縁イノベーションズ,,株式会社,北海道,札幌市中央区,北三条東６丁目３５６－３,,01,101,0600033,,,2025-06-20,清算の結了等,,,2021-05-19,1,,,,,ゴエンイノベーションズ,0
751,4010001037441,登記記録の閉鎖等,0,2025-06-24,2025-06-04,株式会社稲戸洋紙店,,株式会社,東京都,中央区,日本橋兜町１６番８号,,13,102,1030026,,,2025-06-04,清算の結了等,,,2015-10-05,1,,,,,イナトヨウシ,0
752,4010001177873,登記記録の閉鎖等,0,2025-06-24,2025-05-29,株式会社Ｏ’ｓ＆Ｔｅｃ,,株式会社,東京都,目黒区,自由が丘１丁目４番１０号,,13,110,1520035,,,2025-05-29,清算の結了等,,,2016-08-24,1,,,,,オズアンドテック,0
753,4010001226721,登記記録の閉鎖等,0,2025-06-24,2025-06-04,ｓａｌｖｕｓ株式会社,,株式会社,東京都,中央区,日本橋箱崎町１７－８山京ビル８階,,13,102,1030015,,,2025-06-04,清算の結了等,,,2022-05-20,1,,,,,サルヴァス,0
755,4010003042811,登記記録の閉鎖等,0,2025-06-24,2025-06-19,合同会社むさしの業務開発,,合同会社,東京都,東村山市,本町３丁目１９番地５４,,13,213,1890014,,,2025-06-19,清算の結了等,,,2024-01-30,1,,,,,ムサシノギョウムカイハツ,0
759,4010005011590,登記記録の閉鎖等,0,2025-06-24,2025-06-19,特定非営利活動法人双牛舎,,その他の設立登記法人,東京都,千代田区,二番町一番地番町ハイム２３９号室,,13,101,1020084,,,2025-06-19,清算の結了等,,,2015-10-05,1,,,,,ソウギュウシャ,0
794,4010901011181,登記記録の閉鎖等,0,2025-06-24,2025-06-02,株式会社ホワイトリリー東京販売,,株式会社,東京都,港区,北青山３丁目１２番７号,,13,103,1070061,,,2025-06-02,合併による解散等,1010401027680,令和７年６月１日東京都港区北青山三丁目１２番７号株式会社ホワイトリリー（1010401027680）に合併し解散,2015-10-05,1,,,,,ホワイトリリートウキョウハンバイ,0
797,4011001091081,登記記録の閉鎖等,0,2025-06-24,2025-06-02,ＨＳ　Ｒｅｔａｉｌ株式会社,,株式会社,東京都,港区,六本木１丁目１０番３－９０１号,,13,103,1060032,,,2025-06-02,清算の結了等,,,2015-10-05,1,,,,,エイチエスリテール,0
816,4011201022646,登記記録の閉鎖等,0,2025-06-24,2025-06-11,株式会社ライフ,,株式会社,東京都,中野区,弥生町１丁目３４番７号ライフピアヴィーナス１０３,,13,114,1640013,,,2025-06-11,清算の結了等,,,2021-01-04,1,,,,,ライフ,0
819,4011601002586,登記記録の閉鎖等,0,2025-06-24,2025-06-18,株式会社サカモト建設工業,,株式会社,東京都,練馬区,北町６丁目３７番３号,,13,120,1790081,,,2025-06-18,清算の結了等,,,2015-10-05,1,,,,,サカモトケンセツコウギョウ,0
823,4011703003193,登記記録の閉鎖等,0,2025-06-24,2025-06-16,株式会社ケアデザイン,,株式会社,東京都,江戸川区,南葛西２丁目２８番１２号メゾン・ド・リキ３０１,,13,123,1340085,,,2025-06-16,清算の結了等,,,2022-07-11,1,,,,,ケアデザイン,0
825,4012301000392,登記記録の閉鎖等,0,2025-06-24,2025-06-12,株式会社エラン,,株式会社,東京都,町田市,小川４丁目７２番地９,,13,209,1940003,,,2025-06-12,清算の結了等,,,2015-10-05,1,,,,,,0
831,4013301003526,登記記録の閉鎖等,0,2025-06-24,2025-06-13,株式会社ケイエムケイレンタリース,,株式会社,東京都,豊島区,池袋１丁目１６番２８号,,13,116,1700014,,,2025-06-13,清算の結了等,,,2015-10-05,1,,,,,ケイエムケイレンタリース,0
832,4020001007939,登記記録の閉鎖等,0,2025-06-24,2025-06-19,ハルナ電機産業株式会社,,株式会社,神奈川県,横浜市戸塚区,東俣野町９９０番地５,,14,110,2450065,,,2025-06-19,清算の結了等,,,2015-10-05,1,,,,,ハルナデンキサンギョウ,0
833,4020001013417,登記記録の閉鎖等,0,2025-06-24,2025-06-20,株式会社遠山,,株式会社,神奈川県,横浜市南区,別所１丁目５番１号,,14,105,2320064,,,2025-06-20,清算の結了等,,,2015-10-05,1,,,,,トオヤマ,0
836,4020001072990,登記記録の閉鎖等,0,2025-06-24,2025-06-17,株式会社佐藤油店,,株式会社,神奈川県,川崎市川崎区,元木２丁目２番１６号,,14,131,2100021,,,2025-06-17,清算の結了等,,,2015-10-05,1,,,,,サトウアブラテン,0
840,4021002055316,登記記録の閉鎖等,0,2025-06-24,2025-06-17,有限会社安藤工機,,有限会社,神奈川県,足柄上郡大井町,金子３０３番地,,14,362,2580019,,,2025-06-17,清算の結了等,,,2015-10-05,1,,,,,,0
843,4030001056869,登記記録の閉鎖等,0,2025-06-24,2025-06-18,株式会社片山製作所,,株式会社,埼玉県,比企郡川島町,大字下伊草１６４番地２,,11,346,3500157,,,2025-06-18,清算の結了等,,,2015-10-05,1,,,,,カタヤマセイサクショ,0
845,4030001111186,登記記録の閉鎖等,0,2025-06-24,2025-06-16,株式会社ＫＩＣＫＢＡＳＥ,,株式会社,埼玉県,新座市,野火止８丁目１２番３０－４０１号武蔵野北スカイハイツ,,11,230,3520011,,,2025-06-16,清算の結了等,,,2015-11-04,1,,,,,キックベース,0
850,4030002084448,登記記録の閉鎖等,0,2025-06-24,2025-06-18,有限会社藤久,,有限会社,埼玉県,鴻巣市,雷電２丁目１番８号,,11,217,3650077,,,2025-06-18,清算の結了等,,,2015-10-05,1,,,,,フジキュウ,0
851,4030005019459,登記記録の閉鎖等,0,2025-06-24,2025-06-16,一般社団法人エイトフォーゼロ,,その他の設立登記法人,埼玉県,八潮市,八潮３丁目１４番８号,,11,234,3400815,,,2025-06-16,清算の結了等,,,2019-05-17,1,,,,,エイトフォーゼロ,0
859,4040003014403,登記記録の閉鎖等,0,2025-06-24,2025-06-11,合同会社アドメディア,,合同会社,東京都,中野区,弥生町１丁目３４番７号ライフピアヴィーナス１０３,,13,114,1640013,,,2025-06-11,清算の結了等,,,2019-11-25,1,,,,,アドメディア,0
873,4070001000352,登記記録の閉鎖等,0,2025-06-24,2025-06-19,株式会社ウインドプラン,,株式会社,群馬県,前橋市,下小出町２丁目２２番地の１０,,10,201,3710031,,,2025-06-19,清算の結了等,,,2015-10-05,1,,,,,ウインドプラン,0
880,4100001026278,登記記録の閉鎖等,0,2025-06-24,2025-06-20,株式会社創輪到和,,株式会社,長野県,長野市,若穂綿内６４４６番地１,,20,201,3810101,,,2025-06-20,合併による解散等,9100001001895,令和７年６月２０日長野市若穂綿内８７６０番地田尻木材株式会社（9100001001895）に合併し解散,2015-10-05,1,,,,,ソウリントウワ,0
885,4120001126539,登記記録の閉鎖等,0,2025-06-24,2025-06-13,株式会社ラサ,,株式会社,大阪府,大阪市東淀川区,豊里６丁目２７番１５号１－Ｆ,,27,114,5330013,,,2025-06-13,清算の結了等,,,2015-10-05,1,,,,,ラサ,0
886,4120001265106,登記記録の閉鎖等,0,2025-06-24,2025-06-13,株式会社ひふみ,,株式会社,大阪府,大阪市北区,梅田１丁目１－３大阪駅前第３ビル２９階１－１－１号室,,27,127,5300001,,,2025-06-13,清算の結了等,,,2024-05-21,1,,,,,ヒフミ,0
900,4130005004079,登記記録の閉鎖等,0,2025-06-24,2025-06-18,医療法人社団金丸診療所,,その他の設立登記法人,京都府,京都市左京区,高野東開町１１番地の１,,26,103,6068107,,,2025-06-18,清算の結了等,,,2015-10-05,1,,,,,カネマルシンリョウジョ,0
917,4180001131822,登記記録の閉鎖等,0,2025-06-24,2025-06-16,アシストモーゲージ株式会社,,株式会社,愛知県,名古屋市東区,泉２丁目５番２６号,,23,102,4610001,,,2025-06-16,清算の結了等,,,2018-04-06,1,,,,,アシストモーゲージ,0
932,4200005009566,登記記録の閉鎖等,0,2025-06-24,2025-06-19,農事組合法人ふるさと松本,,その他の設立登記法人,岐阜県,恵那市,串原３６４１番地３,,21,210,5097831,,,2025-06-19,清算の結了等,,,2015-10-05,1,,,,,フルサトマツモト,0
936,4220002001433,登記記録の閉鎖等,0,2025-06-24,2025-05-27,有限会社金沢リアル・エステート,,有限会社,石川県,金沢市,彦三町１丁目２番１号,,17,201,9200901,,,2025-05-27,合併による解散等,4220001014972,令和７年３月３０日石川県金沢市彦三町一丁目２番１号株式会社金沢セントラル・リアルエステート（4220001014972）に合併し解散,2015-10-05,1,,,,,カナザワリアルエステート,0
954,4290801006782,登記記録の閉鎖等,0,2025-06-24,2025-06-19,株式会社ファインフード,,株式会社,福岡県,北九州市小倉南区,津田１丁目２番２８号,,40,107,8000242,,,2025-06-19,清算の結了等,,,2015-10-05,1,,,,,ファインフード,0
974,4380001017951,登記記録の閉鎖等,0,2025-06-24,2025-06-16,株式会社横山組,,株式会社,福島県,大沼郡会津美里町,字高田甲２８５３番地,,07,447,9696264,,,2025-06-16,清算の結了等,,,2015-10-05,1,,,,,,0
1004,5010401151007,登記記録の閉鎖等,0,2025-06-24,2025-06-02,株式会社すずらん開発,,株式会社,東京都,港区,東新橋１丁目５番２号汐留シティセンター８階ブルースカイソーラー株式会社内,,13,103,1050021,,,2025-06-02,合併による解散等,3010001154106,令和７年６月１日東京都港区東新橋一丁目５番２号汐留シティセンター８階ブルースカイソーラー株式会社（3010001154106）に合併し解散,2020-02-14,1,,,,,スズランカイハツ,0
1009,5010403022370,登記記録の閉鎖等,0,2025-06-24,2025-06-02,合同会社ＪＳＡ,,合同会社,東京都,港区,芝１丁目２番１号,,13,103,1050014,,,2025-06-02,清算の結了等,,,2020-02-20,1,,,,,ジェイエスエー,0
1040,5011701005728,登記記録の閉鎖等,0,2025-06-24,2025-06-12,株式会社東和旅行社,,株式会社,東京都,江戸川区,南小岩５丁目２０番１０号,,13,123,1330056,,,2025-06-12,清算の結了等,,,2015-10-05,1,,,,,トウワリョコウシャ,0
1043,5012701011889,登記記録の閉鎖等,0,2025-06-24,2025-06-18,株式会社ステップぱーとなー,,株式会社,東京都,西東京市,東伏見４丁目９番４号,,13,229,2020021,,,2025-06-18,清算の結了等,,,2015-10-05,1,,,,,ステップパートナー,0
1049,5013102002767,登記記録の閉鎖等,0,2025-06-24,2025-06-17,有限会社コスメティック瑞穂,,有限会社,東京都,西多摩郡瑞穂町,大字箱根ケ崎２３４６番地,,13,303,1901221,,,2025-06-17,清算の結了等,,,2015-10-05,1,,,,,,0
1051,5013301043265,登記記録の閉鎖等,0,2025-06-24,2025-06-02,株式会社スターステージ,,株式会社,東京都,港区,新橋６丁目４番３号,,13,103,1050004,,,2025-06-02,清算の結了等,,,2018-12-28,1,,,,,スターステージ,0
1056,5020001132232,登記記録の閉鎖等,0,2025-06-24,2025-06-10,森総合鑑定株式会社,,株式会社,神奈川県,横浜市青葉区,荏田町７０番地クレッセントあざみ野ヒルズ２０１号,,14,117,2250013,,,2025-06-10,清算の結了等,,,2019-08-02,1,,,,,モリソウゴウカンテイ,0
1060,5020002067444,登記記録の閉鎖等,0,2025-06-24,2025-06-18,有限会社波木井,,有限会社,神奈川県,横浜市戸塚区,品濃町５３９番地５,,14,110,2440801,,,2025-06-18,清算の結了等,,,2015-10-05,1,,,,,ハキイ,0
1062,5020003023842,登記記録の閉鎖等,0,2025-06-24,2025-06-18,野鶴合同会社,,合同会社,神奈川県,川崎市麻生区,岡上１丁目１７番１号,,14,137,2150027,,,2025-06-18,清算の結了等,,,2023-05-01,1,,,,,ヤカク,0
1072,5030001143047,登記記録の閉鎖等,0,2025-06-24,2025-06-20,株式会社ノード,,株式会社,埼玉県,さいたま市岩槻区,大字黒谷２１５８番地６４,,11,110,3390033,,,2025-06-20,合併による解散等,6010001216670,令和７年６月１日東京都中央区日本橋蛎殻町一丁目３番５号共同ビル（兜町）４階４１号室日本ホールディングス株式会社（6010001216670）に合併し解散,2021-06-30,1,,,,,ノード,0
1075,5030002102836,登記記録の閉鎖等,0,2025-06-24,2025-06-16,有限会社サンアート工芸,,有限会社,埼玉県,川口市,大字安行慈林１２９番地の３,,11,203,3340071,,,2025-06-16,清算の結了等,,,2015-10-05,1,,,,,サンアートコウゲイ,0
1085,5050002013874,登記記録の閉鎖等,0,2025-06-24,2025-06-17,有限会社茨城商事,00022787,有限会社,茨城県,稲敷郡阿見町,大字青宿７３９番地４,,08,443,3000301,,,2025-06-17,清算の結了等,,,2015-10-05,1,,,,,イバラキショウジ,0
1086,5060005008961,登記記録の閉鎖等,0,2025-06-24,2025-06-16,一般財団法人ザ・メトロポリタンミュージック,,その他の設立登記法人,栃木県,宇都宮市,塙田５丁目３番８号,,09,201,3200027,,,2025-06-16,清算の結了等,,,2015-10-05,1,,,,,ザメトロポリタンミュージック,0
1122,5140001136428,登記記録の閉鎖等,0,2025-06-24,2025-06-16,株式会社上鉄,,株式会社,兵庫県,川西市,一庫２丁目３番４７号,,28,217,6660153,,,2025-06-16,清算の結了等,,,2024-11-12,1,,,,,ウエテツ,0
1128,5160005010767,登記記録の閉鎖等,0,2025-06-24,2025-06-16,一般社団法人湖東三山自然文化連携ネットワーク,,その他の設立登記法人,滋賀県,東近江市,北坂町６３５番地,,25,213,5270145,,,2025-06-16,清算の結了等,,,2020-01-29,1,,,,,コトウサンザンシゼンブンカレンケイネットワーク,0
1162,5280001000108,登記記録の閉鎖等,0,2025-06-24,2025-06-23,株式会社エス・ビーフーズ,,株式会社,島根県,松江市,嫁島町３番２３号,,32,201,6900047,,,2025-06-23,清算の結了等,,,2015-10-05,1,,,,,エスビーフーズ,0
1178,5300002006084,登記記録の閉鎖等,0,2025-06-24,2025-06-20,古川製陶有限会社,,有限会社,佐賀県,武雄市,橘町大字大日８３８５番地,,41,206,8430013,,,2025-06-20,清算の結了等,,,2015-10-05,1,,,,,フルカワセイトウ,0
1182,5310005005677,登記記録の閉鎖等,0,2025-06-24,2025-06-19,特定非営利活動法人弘文会,,その他の設立登記法人,長崎県,島原市,門内町丙６２５番地,,42,203,8550881,,,2025-06-19,清算の結了等,,,2015-10-05,1,,,,,コウブンカイ,0
1183,5320001015365,登記記録の閉鎖等,0,2025-06-24,2025-06-13,株式会社ＴＳＹ,,株式会社,大分県,大分市,大字皆春１２５番地の１,,44,201,8700131,,,2025-06-13,清算の結了等,,,2016-12-26,1,,,,,ティーエスワイ,0
1184,5320001016462,登記記録の閉鎖等,0,2025-06-24,2025-06-13,株式会社ＴＳＩ,,株式会社,大分県,大分市,乙津町１番１６号,,44,201,8700145,,,2025-06-13,清算の結了等,,,2018-06-27,1,,,,,ティーエスアイ,0
1188,5340001024067,登記記録の閉鎖等,0,2025-06-24,2025-06-16,徳之島ガイド＆コピーサービス株式会社,,株式会社,鹿児島県,大島郡徳之島町,亀津７４５０番地,,46,530,8917101,,,2025-06-16,清算の結了等,,,2021-09-03,1,,,,,トクノシマガイドアンドコピーサービス,0
1203,5380002019062,登記記録の閉鎖等,0,2025-06-24,2025-06-11,有限会社富澤藥局,,有限会社,福島県,東白川郡棚倉町,大字棚倉字古町５８番地,,07,481,9636131,,,2025-06-11,清算の結了等,,,2015-10-05,1,,,,,トミザワヤッキョク,0
1220,6010003015220,登記記録の閉鎖等,0,2025-06-24,2025-06-06,合同会社ＩＴコンソーシアム,,合同会社,千葉県,我孫子市,柴崎台２丁目１１番２３号根基第２ビル１階株式会社ローレル内,,12,222,2701176,,,2025-06-06,清算の結了等,,,2015-10-05,1,,,,,アイティーコンソーシアム,0
1229,6010401186497,登記記録の閉鎖等,0,2025-06-24,2025-05-30,ＲＭＡ３　Ｃｏｒｐｏｒａｔｉｏｎ株式会社,,株式会社,東京都,港区,赤坂７丁目６番６６－３０４号,,13,103,1070052,,,2025-05-30,清算の結了等,,,2024-11-19,1,,,,,アールエムエイスリーコーポレーション,0
1232,6010403015101,登記記録の閉鎖等,0,2025-06-24,2025-06-02,トランザックスファクタリング３号合同会社,,合同会社,東京都,港区,浜松町２丁目２番１５号浜松町ダイヤビル２Ｆ,,13,103,1050013,,,2025-06-02,清算の結了等,,,2016-08-02,1,,,,,トランザックスファクタリングサンゴウ,0
1246,6010901049294,登記記録の閉鎖等,0,2025-06-24,2025-06-17,丸猫商事株式会社,,株式会社,東京都,千代田区,平河町１丁目３番１０号,,13,101,1020093,,,2025-06-17,合併による解散等,5010001151753,令和７年６月１７日東京都千代田区平河町一丁目３番１０号株式会社ソラノイロ（5010001151753）に合併し解散,2021-08-23,1,,,,,マルネコショウジ,0
1248,6011001055431,登記記録の閉鎖等,0,2025-06-24,2025-05-29,株式会社未来プロジェクト,,株式会社,東京都,渋谷区,神山町５番６号,,13,113,1500047,,,2025-05-29,清算の結了等,,,2015-10-05,1,,,,,ミキプロジェクト,0
1293,6030001118056,登記記録の閉鎖等,0,2025-06-24,2025-06-16,株式会社ＨＡＲＡ　ＳＥＴＵＢＩ,,株式会社,埼玉県,深谷市,上増田３５３番地,,11,218,3660021,,,2025-06-16,清算の結了等,,,2017-01-16,1,,,,,ハラセツビ,0
1308,6040002051718,登記記録の閉鎖等,0,2025-06-24,2025-06-06,有限会社杉本エンジニアリング,,有限会社,千葉県,流山市,江戸川台東３丁目３６７番地の２,,12,220,2700111,,,2025-06-06,清算の結了等,,,2015-10-05,1,,,,,スギモトエンジニアリング,0
1311,6040003005284,登記記録の閉鎖等,0,2025-06-24,2025-06-09,合同会社ラインマン,,合同会社,千葉県,柏市,宿連寺４４３番地５４,,12,217,2770826,,,2025-06-09,清算の結了等,,,2015-10-05,1,,,,,ラインマン,0
1315,6060001028368,登記記録の閉鎖等,0,2025-06-24,2025-06-06,株式会社ミンナのナカマ,,株式会社,栃木県,鹿沼市,千渡１１２０番地５,,09,205,3220002,,,2025-06-06,合併による解散等,9060001025016,令和７年６月１日栃木県鹿沼市楡木町４５８株式会社ミンナのミライ（9060001025016）に合併し解散,2016-06-15,1,,,,,ミンナノナカマ,0
1316,6060002001489,登記記録の閉鎖等,0,2025-06-24,2025-06-18,有限会社宇都宮花壇,,有限会社,栃木県,宇都宮市,新町２丁目１番３０号,,09,201,3200831,,,2025-06-18,清算の結了等,,,2015-10-05,1,,,,,ウツノミヤカダン,0
1338,6120001167317,登記記録の閉鎖等,0,2025-06-24,2025-06-16,増田建設工業株式会社,,株式会社,大阪府,大阪市淀川区,西宮原１丁目７－３６－７０１号,,27,123,5320004,,,2025-06-16,清算の結了等,,,2015-10-05,1,,,,,マスダケンセツコウギョウ,0
1347,6120002019896,登記記録の閉鎖等,0,2025-06-24,2025-06-12,光洋製綱有限会社,,有限会社,大阪府,大阪市浪速区,稲荷２丁目６番５号,,27,111,5560023,,,2025-06-12,清算の結了等,,,2015-10-05,1,,,,,コウヨウセイコウ,0
1376,6150001008468,登記記録の閉鎖等,0,2025-06-24,2025-06-13,株式会社ジャパンヘルス,,株式会社,大阪府,大阪市東淀川区,小松３丁目６番１７号,,27,114,5330004,,,2025-06-13,清算の結了等,,,2015-10-05,1,,,,,ジャパンヘルス,0
1397,6180303006010,登記記録の閉鎖等,0,2025-06-24,2025-06-16,合同会社清水おじじ農園,,合同会社,愛知県,豊田市,住吉町元辻４７,,23,211,4730905,,,2025-06-16,清算の結了等,,,2024-02-27,1,,,,,シミズオジジノウエン,0
1402,6220001023749,登記記録の閉鎖等,0,2025-06-24,2025-06-20,株式会社アルプ再生医療研究所,,株式会社,石川県,金沢市,近岡町３０９番地,,17,201,9208217,,,2025-06-20,清算の結了等,,,2020-09-24,1,,,,,アルプサイセイイリョウケンキュウジョ,0
1412,6240002046284,登記記録の閉鎖等,0,2025-06-24,2025-06-20,有限会社エムエスサービス,,有限会社,広島県,福山市,南松永町２丁目１２番２３号,,34,207,7290105,,,2025-06-20,清算の結了等,,,2015-10-05,1,,,,,エムエスサービス,0
1413,6240002046714,登記記録の閉鎖等,0,2025-06-24,2025-06-18,有限会社川村商店,,有限会社,広島県,府中市,中須町４３７番地の３,,34,208,7260012,,,2025-06-18,清算の結了等,,,2015-10-05,1,,,,,カワムラショウテン,0
1419,6290002008222,登記記録の閉鎖等,0,2025-06-24,2025-06-13,有限会社柴田組,,有限会社,福岡県,福岡市早良区,梅林６丁目２４番２４号,,40,137,8140172,,,2025-06-13,清算の結了等,,,2015-10-05,1,,,,,シバタグミ,0
1421,6290801016763,登記記録の閉鎖等,0,2025-06-24,2025-06-19,アンネル株式会社,,株式会社,福岡県,田川市,大字川宮１４９３番地の５,,40,206,8260042,,,2025-06-19,清算の結了等,,,2015-10-05,1,,,,,アンネル,0
1426,6330001011172,登記記録の閉鎖等,0,2025-06-24,2025-06-16,株式会社ごらく,,株式会社,熊本県,上益城郡益城町,大字赤井２７８番地,,43,443,8612221,,,2025-06-16,清算の結了等,,,2015-10-05,1,,,,,ゴラク,0
1466,7010003037957,登記記録の閉鎖等,0,2025-06-24,2025-06-05,オーパスファンディング６合同会社,,合同会社,東京都,千代田区,丸の内１丁目４番１号東京共同会計事務所内,,13,101,1000005,,,2025-06-05,清算の結了等,,,2022-06-22,1,,,,,オーパスファンディングシックス,0
1473,7010401186496,登記記録の閉鎖等,0,2025-06-24,2025-05-30,ＲＭＡ２　Ｃｏｒｐｏｒａｔｉｏｎ株式会社,,株式会社,東京都,港区,赤坂７丁目６番６６－３０４号,,13,103,1070052,,,2025-05-30,清算の結了等,,,2024-11-19,1,,,,,アールエムエイツーコーポレーション,0
1494,7011003004880,登記記録の閉鎖等,0,2025-06-24,2025-06-10,合同会社ＳＹＭＳ,,合同会社,東京都,台東区,浅草橋５丁目８番１１号,,13,106,1110053,,,2025-06-10,清算の結了等,,,2015-10-05,1,,,,,シムス,0
1505,7011301015357,登記記録の閉鎖等,0,2025-06-24,2025-06-12,株式会社フューチャーテクノロジーズ,,株式会社,東京都,杉並区,久我山４丁目４７番５号,,13,115,1680082,,,2025-06-12,清算の結了等,,,2015-10-05,1,,,,,フューチャーテクノロジーズ,0
1528,7012805001355,登記記録の閉鎖等,0,2025-06-24,2025-06-16,特定非営利活動法人リサイクルショップらら,,その他の設立登記法人,東京都,東大和市,南街５丁目９０番地の８,,13,220,2070014,,,2025-06-16,清算の結了等,,,2015-10-05,1,,,,,リサイクルショップララ,0
1540,7020001158218,登記記録の閉鎖等,0,2025-06-24,2025-06-16,文山文具株式会社,,株式会社,神奈川県,川崎市中原区,小杉御殿町２丁目９７番地２,,14,133,2110068,,,2025-06-16,清算の結了等,,,2024-07-23,1,,,,,ブンサンブング,0
1541,7020002003521,登記記録の閉鎖等,0,2025-06-24,2025-06-20,有限会社三河屋瀬戸睦三酒店,,有限会社,神奈川県,横浜市泉区,上飯田町１１２４番地の７,,14,116,2450018,,,2025-06-20,清算の結了等,,,2015-10-05,1,,,,,ミカワヤセトムツミサケテン,0
1544,7021001017405,登記記録の閉鎖等,0,2025-06-24,2025-06-23,株式会社モリノ,,株式会社,神奈川県,相模原市中央区,相模原５丁目５番１－１００５号,,14,152,2520231,,,2025-06-23,清算の結了等,,,2015-10-05,1,,,,,モリノ,0
1551,7030005005662,登記記録の閉鎖等,0,2025-06-24,2025-06-16,御嶽山大教,,その他の設立登記法人,埼玉県,八潮市,大字鶴ケ曽根６２５番地,,11,234,3400802,,,2025-06-16,清算の結了等,,,2015-10-05,1,,,,,オンタケサンタイキョウ,0
1552,7040001040563,登記記録の閉鎖等,0,2025-06-24,2025-06-16,株式会社さかえや繊維研究所,,株式会社,東京都,江戸川区,南葛西３丁目１番２－９０２号コスモ葛西臨海公園,,13,123,1340085,,,2025-06-16,清算の結了等,,,2015-10-05,1,,,,,サカエヤセンイケンキュウジョ,0
1560,7050002004574,登記記録の閉鎖等,0,2025-06-24,2025-06-17,有限会社オフィスケイ,,有限会社,栃木県,宇都宮市,東宿郷２丁目７－３杏花楼ビルＢ１－Ａ号室,,09,201,3210953,,,2025-06-17,清算の結了等,,,2015-10-05,1,,,,,オフィスケイ,0
1564,7060002000424,登記記録の閉鎖等,0,2025-06-24,2025-06-17,有限会社ホクエー,,有限会社,栃木県,宇都宮市,上田原町９５２番地２０１,,09,201,3291112,,,2025-06-17,清算の結了等,,,2015-10-05,1,,,,,ホクエー,0
1579,7110002013602,登記記録の閉鎖等,0,2025-06-24,2025-06-10,有限会社大塚重機,,有限会社,新潟県,五泉市,丸田戊３８番地,,15,218,9591854,,,2025-06-10,清算の結了等,,,2015-10-05,1,,,,,オオツカジュウキ,0
1582,7120001116470,登記記録の閉鎖等,0,2025-06-24,2025-06-09,株式会社柊,,株式会社,大阪府,大阪市淀川区,加島３丁目中５番４－１１０７号,,27,123,5320031,,,2025-06-09,清算の結了等,,,2015-10-05,1,,,,,,0
1584,7120001135660,登記記録の閉鎖等,0,2025-06-24,2025-06-09,株式会社ＣＳＭ,,株式会社,大阪府,大阪市西区,江戸堀１丁目２２番１５号５０１号室,,27,106,5500002,,,2025-06-09,清算の結了等,,,2015-10-05,1,,,,,シーエスエム,0
1586,7120001170625,登記記録の閉鎖等,0,2025-06-24,2025-06-19,株式会社ＬＩＣ,,株式会社,大阪府,大阪市平野区,喜連５丁目１番１１号,,27,126,5470027,,,2025-06-19,清算の結了等,,,2015-10-05,1,,,,,エルアイシー,0
1596,7120101062929,登記記録の閉鎖等,0,2025-06-24,2025-06-19,株式会社ｔｒａｄｅ　ＫＫＮ,,株式会社,大阪府,堺市堺区,新町１番７号ＳＡＫＡＩ東ビル１０２号,,27,141,5900079,,,2025-06-19,清算の結了等,,,2021-01-14,1,,,,,トレイドケーケーエヌ,0
1619,7140001073710,登記記録の閉鎖等,0,2025-06-24,2025-06-18,株式会社ぷらんと,,株式会社,兵庫県,西宮市,菊谷町１３番２０号エム苦楽園１０３号,,28,204,6620078,,,2025-06-18,清算の結了等,,,2015-10-05,1,,,,,プラント,0
1622,7180001090636,登記記録の閉鎖等,0,2025-06-24,2025-06-16,レバー整備株式会社,,株式会社,愛知県,名古屋市港区,十一屋３丁目９８番地,,23,111,4550831,,,2025-06-16,清算の結了等,,,2015-10-05,1,,,,,レバーセイビ,0
1630,7180305008714,登記記録の閉鎖等,0,2025-06-24,2025-06-13,一般社団法人広域狩猟連合,,その他の設立登記法人,愛知県,田原市,赤羽根町太田１６番地１,,23,231,4413502,,,2025-06-13,清算の結了等,,,2017-11-01,1,,,,,コウイキシュリョウレンゴウ,0
1631,7200001012298,登記記録の閉鎖等,0,2025-06-24,2025-06-20,株式会社ティーエヌイー,,株式会社,岐阜県,羽島市,福寿町平方１４０４番地２,,21,209,5016257,,,2025-06-20,清算の結了等,,,2015-10-05,1,,,,,ティーエヌイー,0
1636,7220002009705,登記記録の閉鎖等,0,2025-06-24,2025-05-27,有限会社リアル・エステート北陸,,有限会社,石川県,金沢市,彦三町１丁目２番１号,,17,201,9200901,,,2025-05-27,合併による解散等,4220001014972,令和７年３月３０日石川県金沢市彦三町一丁目２番１号株式会社金沢セントラル・リアルエステート（4220001014972）に合併し解散,2015-10-05,1,,,,,リアルエステートホクリク,0
1638,7240001037168,登記記録の閉鎖等,0,2025-06-24,2025-06-20,東洋フードサービス株式会社,,株式会社,広島県,広島市中区,広瀬北町３番１１号,,34,101,7300803,,,2025-06-20,清算の結了等,,,2015-10-05,1,,,,,トウヨウフードサービス,0
1643,7260001014421,登記記録の閉鎖等,0,2025-06-24,2025-06-18,株式会社梅月,,株式会社,岡山県,倉敷市,阿知１丁目７番２－６０２号,,33,202,7100055,,,2025-06-18,清算の結了等,,,2015-10-05,1,,,,,バイゲツ,0
1649,7290001016464,登記記録の閉鎖等,0,2025-06-24,2025-06-12,株式会社フルーツ果樹園,,株式会社,福岡県,福岡市博多区,神屋町２番４号,,40,132,8120022,,,2025-06-12,清算の結了等,,,2015-10-05,1,,,,,フルーツカジュエン,0
1665,7330002015056,登記記録の閉鎖等,0,2025-06-24,2025-06-16,有限会社リビング・ウイル・サポート,,有限会社,熊本県,熊本市東区,下南部２丁目１５－１１,,43,102,8618019,,,2025-06-16,清算の結了等,,,2015-10-05,1,,,,,リビングウイルサポート,0
1666,7330005007380,登記記録の閉鎖等,0,2025-06-24,2025-06-13,ＮＰＯ法人天草きぼうの家,,その他の設立登記法人,熊本県,天草市,浄南町５番４９号,,43,215,8630034,,,2025-06-13,清算の結了等,,,2015-10-05,1,,,,,アマクサキボウノイエ,0
1678,7370102002223,登記記録の閉鎖等,0,2025-06-24,2025-06-11,有限会社アイテム,,有限会社,宮城県,白石市,東町２丁目１番２２号,,04,206,9890225,,,2025-06-11,清算の結了等,,,2015-10-05,1,,,,,アイテム,0
1679,7390005007680,登記記録の閉鎖等,0,2025-06-24,2025-06-06,寒河江小売酒販組合,,その他の設立登記法人,山形県,寒河江市,中央工業団地１５５番地の４,,06,206,9910061,,,2025-06-06,清算の結了等,,,2015-10-05,1,,,,,サガエコウリ,0
1689,7460001003676,登記記録の閉鎖等,0,2025-06-24,2025-06-20,株式会社サポート・ホーム,,株式会社,北海道,釧路市,昭和中央３丁目５０番１９号,,01,206,0840910,,,2025-06-20,清算の結了等,,,2015-10-05,1,,,,,サポートホーム,0
1691,7500001022416,登記記録の閉鎖等,0,2025-06-24,2025-06-16,株式会社ウィルウィング,,株式会社,岡山県,岡山市北区,磨屋町２番５号安田岡山磨屋町ビル５階,,33,101,7000826,,,2025-06-16,清算の結了等,,,2019-12-12,1,,,,,ウィルウィング,0
1693,8010001174000,登記記録の閉鎖等,0,2025-06-24,2025-06-04,三光ソフランフロンティア株式会社,,株式会社,東京都,中央区,八重洲１丁目３番７号八重洲ファーストフィナンシャルビル１３Ｆ,,13,102,1030028,,,2025-06-04,清算の結了等,,,2016-03-07,1,,,,,サンコウソフランフロンティア,0
1711,8010401136252,登記記録の閉鎖等,0,2025-06-24,2025-06-02,株式会社新経典,,株式会社,東京都,港区,北青山３丁目６番７号青山パラシオタワー１１階,,13,103,1070061,,,2025-06-02,清算の結了等,,,2018-01-29,1,,,,,シンケイテン,0
1717,8010601039800,登記記録の閉鎖等,0,2025-06-24,2025-06-12,株式会社佐川商店,,株式会社,東京都,墨田区,太平１丁目１０番１２－３０２号,,13,107,1300012,,,2025-06-12,清算の結了等,,,2015-10-05,1,,,,,サガワショウテン,0
1726,8010903004254,登記記録の閉鎖等,0,2025-06-24,2025-06-06,合同会社ｌｉｆｅ　ｃｒｅａｔｉｏｎ,,合同会社,東京都,世田谷区,上馬１丁目５－１０,,13,112,1540011,,,2025-06-06,清算の結了等,,,2018-04-23,1,,,,,ライフクリエイション,0
1730,8011001145032,登記記録の閉鎖等,0,2025-06-24,2025-06-20,株式会社ジェノバ,,株式会社,埼玉県,さいたま市岩槻区,城南２丁目６番１０号,,11,110,3390043,,,2025-06-20,合併による解散等,6010001216670,令和７年６月１日東京都中央区日本橋蛎殻町一丁目３番５号共同ビル（兜町）４階４１号室日本ホールディングス株式会社（6010001216670）に合併し解散,2022-01-13,1,,,,,ジェノバ,0
1745,8011101104185,登記記録の閉鎖等,0,2025-06-24,2025-06-23,株式会社リアルトライ,,株式会社,神奈川県,相模原市中央区,相模原２丁目１３－２服部相模原ビル５０１,,14,152,2520231,,,2025-06-23,清算の結了等,,,2023-08-31,1,,,,,リアルトライ,0
1747,8011201016074,登記記録の閉鎖等,0,2025-06-24,2025-06-20,株式会社スタッカート,,株式会社,東京都,中野区,中野５丁目６５番３号ホワイトハウスビル,,13,114,1640001,,,2025-06-20,清算の結了等,,,2015-10-05,1,,,,,スタッカート,0
1766,8020001084669,登記記録の閉鎖等,0,2025-06-24,2025-06-19,ムヴィクジャパン株式会社,,株式会社,神奈川県,横浜市中区,住吉町２丁目２２番地松栄関内ビル２階,,14,104,2310013,,,2025-06-19,清算の結了等,,,2015-10-05,1,,,,,ムヴィクジャパン,0
1773,8020001131099,登記記録の閉鎖等,0,2025-06-24,2025-06-20,株式会社新横浜スタイル,,株式会社,神奈川県,横浜市港北区,新横浜２丁目５番地９新横浜フジカビル７階７０１,,14,109,2220033,,,2025-06-20,清算の結了等,,,2019-05-17,1,,,,,シンヨコハマスタイル,0
1774,8020002068662,登記記録の閉鎖等,0,2025-06-24,2025-06-18,有限会社スタジオ純,,有限会社,神奈川県,横浜市金沢区,大川７レイディアントシティ横濱カルティエ７－２１６,,14,108,2360043,,,2025-06-18,清算の結了等,,,2015-10-05,1,,,,,スタジオジュン,0
1787,8030001160238,登記記録の閉鎖等,0,2025-06-24,2025-06-18,株式会社ＨＯＮＭＡ　ＨＯＵＳＥ,,株式会社,埼玉県,狭山市,広瀬１丁目１２番７号,,11,215,3501319,,,2025-06-18,清算の結了等,,,2024-05-10,1,,,,,ホンマハウス,0
1797,8040003022443,登記記録の閉鎖等,0,2025-06-24,2025-06-09,ユーカリ合同会社,,合同会社,千葉県,流山市,野々下３丁目８９９番地の１１グレイス２０２,,12,220,2700135,,,2025-06-09,清算の結了等,,,2023-04-24,1,,,,,ユーカリ,0
1805,8060001006545,登記記録の閉鎖等,0,2025-06-24,2025-06-18,株式会社多門,,株式会社,栃木県,宇都宮市,上欠町１２８７番地２２４,,09,201,3200855,,,2025-06-18,清算の結了等,,,2015-10-05,1,,,,,タモン,0
1811,8080401002539,登記記録の閉鎖等,0,2025-06-24,2025-06-20,株式会社鈴銀自動車商会,,株式会社,静岡県,浜松市中央区,海老塚１丁目８番１６－９０４号セントラルステージパークホームズ,,22,138,4328033,,,2025-06-20,清算の結了等,,,2015-10-05,1,,,,,スズギンジドウシャショウカイ,0
1817,8110002013601,登記記録の閉鎖等,0,2025-06-24,2025-06-10,有限会社オオツカ,,有限会社,新潟県,五泉市,丸田戊３８番地,,15,218,9591854,,,2025-06-10,清算の結了等,,,2015-10-05,1,,,,,オオツカ,0
1823,8120001171465,登記記録の閉鎖等,0,2025-06-24,2025-06-19,株式会社岩原鉄工所,,株式会社,大阪府,大阪市北区,大淀中５丁目８番２１号ＭＹ西梅田４０１号,,27,127,5310076,,,2025-06-19,清算の結了等,,,2015-10-05,1,,,,,イワハラテッコウショ,0
1828,8120001212764,登記記録の閉鎖等,0,2025-06-24,2025-06-09,株式会社なが乃太重郎,,株式会社,大阪府,大阪市福島区,福島５丁目１２－１９,,27,103,5530003,,,2025-06-09,清算の結了等,,,2018-04-17,1,,,,,ナガノタジュウロウ,0
1834,8120001259228,登記記録の閉鎖等,0,2025-06-24,2025-06-16,長弓株式会社,,株式会社,大阪府,大阪市西淀川区,姫島２丁目４番１０号,,27,113,5550033,,,2025-06-16,清算の結了等,,,2023-10-31,1,,,,,ナガユミ,0
1842,8120002029308,登記記録の閉鎖等,0,2025-06-24,2025-06-09,株式会社イップ,,株式会社,大阪府,大阪市北区,紅梅町５番１３号,,27,127,5300038,,,2025-06-09,清算の結了等,,,2015-10-05,1,,,,,イップ,0
1848,8120901033327,登記記録の閉鎖等,0,2025-06-24,2025-06-13,株式会社Ｂｅｃｈｅ,,株式会社,大阪府,大阪市中央区,博労町３丁目１番１３号,,27,128,5410059,,,2025-06-13,清算の結了等,,,2015-10-05,1,,,,,ベシェ,0
1858,8140001033770,登記記録の閉鎖等,0,2025-06-24,2025-06-18,ランドフィールド株式会社,,株式会社,兵庫県,西宮市,上ケ原山田町４－１４３－２０９,,28,204,6620886,,,2025-06-18,清算の結了等,,,2015-10-05,1,,,,,ランドフィールド,0
1865,8170005005813,登記記録の閉鎖等,0,2025-06-24,2025-06-20,一般社団法人悠友,,その他の設立登記法人,和歌山県,新宮市,緑ケ丘２丁目２番１５号,,30,207,6470043,,,2025-06-20,清算の結了等,,,2015-10-05,1,,,,,ユウユウ,0
1886,8200005001206,登記記録の閉鎖等,0,2025-06-24,2025-06-20,岐阜市浴場協同組合,,その他の設立登記法人,岐阜県,岐阜市,鍵屋西町１丁目７５番地,,21,201,5008314,,,2025-06-20,清算の結了等,,,2015-10-05,1,,,,,ギフシヨクジョウ,0
1890,8220001024150,登記記録の閉鎖等,0,2025-06-24,2025-06-23,株式会社桜リフォーム,,株式会社,石川県,金沢市,若宮１丁目１６４番地,,17,201,9200054,,,2025-06-23,清算の結了等,,,2021-05-06,1,,,,,,0
1901,8300003001569,登記記録の閉鎖等,0,2025-06-24,2025-06-20,合同会社幸せを運ぶ子豚の軽急便,,合同会社,佐賀県,鳥栖市,柚比町４５９－１０,,41,203,8410002,,,2025-06-20,清算の結了等,,,2020-07-13,1,,,,,シアワセヲハコブコブタノケイキュウビン,0
1912,8340002004412,登記記録の閉鎖等,0,2025-06-24,2025-06-16,有限会社ラフィネ,,有限会社,鹿児島県,姶良市,松原町３丁目１６番地２,,46,225,8995422,,,2025-06-16,清算の結了等,,,2015-10-05,1,,,,,ラフィネ,0
1916,8370301000976,登記記録の閉鎖等,0,2025-06-24,2025-06-11,株式会社ながやま店,,株式会社,宮城県,石巻市,大街道北２丁目８番２５号,,04,202,9860854,,,2025-06-11,清算の結了等,,,2015-10-05,1,,,,,ナガヤマテン,0
1946,9010401099457,登記記録の閉鎖等,0,2025-06-24,2025-06-03,株式会社創成館,,株式会社,東京都,台東区,台東４丁目１番３号野本ビル１階,,13,106,1100016,,,2025-06-03,合併による解散等,7010503004746,令和７年６月１日東京都台東区花川戸一丁目６番８号廣野ビル１階株式会社シルバーフィッシュ（7010503004746）に合併し解散,2015-10-05,1,,,,,ソウセイカン,0
1952,9010601058064,登記記録の閉鎖等,0,2025-06-24,2025-05-29,株式会社プラムワン,,株式会社,東京都,目黒区,中目黒４丁目６番６－１００４号,,13,110,1530061,,,2025-05-29,清算の結了等,,,2020-10-01,1,,,,,プラムワン,0
1995,9012401038080,登記記録の閉鎖等,0,2025-06-24,2025-06-20,株式会社エフィロアジャパン,,株式会社,東京都,多摩市,落合１丁目１番地の１９,,13,224,2060033,,,2025-06-20,清算の結了等,,,2021-07-09,1,,,,,エフィロアジャパン,0
1996,9012403005616,登記記録の閉鎖等,0,2025-06-24,2025-06-20,テネメント合同会社,,合同会社,東京都,武蔵野市,吉祥寺東町２丁目３９番８号,,13,203,1800002,,,2025-06-20,清算の結了等,,,2022-10-06,1,,,,,テネメント,0
2004,9013301013842,登記記録の閉鎖等,0,2025-06-24,2025-06-12,株式会社昭伸技販,,株式会社,東京都,豊島区,東池袋２丁目６３番１号,,13,116,1700013,,,2025-06-12,清算の結了等,,,2015-10-05,1,,,,,ショウシンギハン,0
2011,9020002090269,登記記録の閉鎖等,0,2025-06-24,2025-06-19,有限会社サカマキ工業,,有限会社,神奈川県,川崎市宮前区,南平台１０番３８号,,14,136,2160024,,,2025-06-19,清算の結了等,,,2015-10-05,1,,,,,サカマキコウギョウ,0
2016,9021003009068,登記記録の閉鎖等,0,2025-06-24,2025-06-17,リンダ合同会社,,合同会社,神奈川県,平塚市,明石町１２番１６号リンダビル４階,,14,203,2540042,,,2025-06-17,清算の結了等,,,2020-01-29,1,,,,,リンダ,0
2032,9030002062507,登記記録の閉鎖等,0,2025-06-24,2025-06-18,有限会社山口加工所,,有限会社,埼玉県,新座市,本多１丁目１１番９号,,11,230,3520022,,,2025-06-18,清算の結了等,,,2015-10-05,1,,,,,ヤマグチカコウショ,0
2034,9040001003725,登記記録の閉鎖等,0,2025-06-24,2025-06-03,株式会社関根,,株式会社,千葉県,東金市,山田８００番地,,12,213,2830823,,,2025-06-03,清算の結了等,,,2015-10-05,1,,,,,セキネ,0
2043,9060001023382,登記記録の閉鎖等,0,2025-06-24,2025-06-17,那須エネルギー開発株式会社,,株式会社,栃木県,那須郡那須町,大字高久乙１８７７番地１９３,,09,407,3250303,,,2025-06-17,清算の結了等,,,2015-10-05,1,,,,,ナスエネルギーカイハツ,0
2050,9080002017209,登記記録の閉鎖等,0,2025-06-24,2025-06-17,有限会社共栄商会,,有限会社,静岡県,藤枝市,助宗１７５番地,,22,214,4260085,,,2025-06-17,清算の結了等,,,2015-10-05,1,,,,,キョウエイショウカイ,0
2054,9090001015451,登記記録の閉鎖等,0,2025-06-24,2025-06-16,株式会社ＪＫＫ,,株式会社,山梨県,南都留郡富士河口湖町,船津４２２４番地４,,19,430,4010301,,,2025-06-16,清算の結了等,,,2018-03-01,1,,,,,ジェイケーケー,0
2055,9090002012118,登記記録の閉鎖等,0,2025-06-24,2025-06-17,新栄電気有限会社,,有限会社,山梨県,富士吉田市,新屋３丁目５番７号,,19,202,4030006,,,2025-06-17,清算の結了等,,,2015-10-05,1,,,,,シンエイデンキ,0
2058,9100002029069,登記記録の閉鎖等,0,2025-06-24,2025-06-19,有限会社両角メンテ,,有限会社,長野県,諏訪市,元町１８番１２号,,20,206,3920006,,,2025-06-19,清算の結了等,,,2015-10-05,1,,,,,モロズミメンテ,0
2078,9120101023689,登記記録の閉鎖等,0,2025-06-24,2025-06-19,エントラスト株式会社,,株式会社,大阪府,大阪市大正区,泉尾４丁目３番２３－２０１号,,27,108,5510031,,,2025-06-19,清算の結了等,,,2015-10-05,1,,,,,,0
2081,9120105008851,登記記録の閉鎖等,0,2025-06-24,2025-06-20,特定非営利活動法人ママオアシス,,その他の設立登記法人,大阪府,堺市東区,日置荘原寺町２３６番地１エスト堺グランディール４０２号,,27,143,5998112,,,2025-06-20,清算の結了等,,,2018-04-11,1,,,,,ママオアシス,0
2094,9140001048784,登記記録の閉鎖等,0,2025-06-24,2025-06-18,株式会社小寺商店,,株式会社,兵庫県,宝塚市,栄町２丁目１０番２６－１１０６号,,28,214,6650845,,,2025-06-18,清算の結了等,,,2015-10-05,1,,,,,コテラショウテン,0
2100,9140005016614,登記記録の閉鎖等,0,2025-06-24,2025-06-18,特定非営利活動法人エフェ研究所,,その他の設立登記法人,兵庫県,西宮市,甲子園口４丁目１９番１１号,,28,204,6638113,,,2025-06-18,清算の結了等,,,2015-10-05,1,,,,,エフェケンキュウショ,0
2112,9180002009121,登記記録の閉鎖等,0,2025-06-24,2025-06-17,株式会社旭製作,,株式会社,愛知県,名古屋市瑞穂区,明前町９番２４号,,23,108,4670852,,,2025-06-17,清算の結了等,,,2015-10-05,1,,,,,アサヒセイサク,0
2114,9180002070560,登記記録の閉鎖等,0,2025-06-24,2025-06-16,有限会社イーアンドエクスレイ,,有限会社,愛知県,春日井市,四ツ家町字四ツ家６６番地,,23,206,4860909,,,2025-06-16,清算の結了等,,,2015-10-05,1,,,,,イーアンドエクスレイ,0
2116,9180301002289,登記記録の閉鎖等,0,2025-06-24,2025-06-20,株式会社永幸堂,,株式会社,愛知県,額田郡幸田町,大字横落字郷中３１番地２,,23,501,4440114,,,2025-06-20,清算の結了等,,,2015-10-05,1,,,,,,0
2129,9240001011625,登記記録の閉鎖等,0,2025-06-24,2025-06-20,株式会社１９５６,,株式会社,広島県,広島市安佐南区,祇園７丁目２９番１－１１号,,34,105,7310138,,,2025-06-20,清算の結了等,,,2015-10-05,1,,,,,イチキュウゴロク,0
2173,9430001016299,登記記録の閉鎖等,0,2025-06-24,2025-06-17,まりや興産株式会社,,株式会社,北海道,札幌市中央区,南十七条西１２丁目２番１２号,,01,101,0640917,,,2025-06-17,清算の結了等,,,2015-10-05,1,,,,,マリヤコウサン,0
2179,9490001007078,登記記録の閉鎖等,0,2025-06-24,2025-06-23,株式会社晃健,,株式会社,高知県,高知市,春野町弘岡下１９３３,,39,201,7810303,,,2025-06-23,清算の結了等,,,2015-10-05,1,,,,,コウケン,0
