sequenceNumber,corporateNumber,process,correct,updateDate,changeDate,name,nameImageId,kind,prefectureName,cityName,streetNumber,addressImageId,prefectureCode,cityCode,postCode,addressOutside,addressOutsideImageId,closeDate,closeCause,successorCorporateNumber,changeCause,assignmentDate,latest,enName,enPrefectureName,enCityName,enAddressOutside,furigana,hihyoji
5,1010001256102,新規,0,2025-06-23,2025-06-23,株式会社アンプリック,,株式会社,東京都,中央区,日本橋３丁目２番１４号新槇町ビル別館第一２階,,13,102,1030027,,,,,,,2025-06-23,1,,,,,アンプリック,0
6,1010001256201,新規,0,2025-06-23,2025-06-23,株式会社ＴａｌｅｎｔＨｕｂ,,株式会社,東京都,千代田区,神田須田町１丁目７番８号ＶＯＲＴ秋葉原ＩＶ２階,00139651,13,101,1010041,,,,,,,2025-06-23,1,,,,,タレントハブ,0
8,1010003047706,新規,0,2025-06-23,2025-06-23,合同会社Ｈａｎｏｎ　Ｌｉｎｋ,,合同会社,東京都,中央区,新富１丁目６番２号－Ｂ１,,13,102,1040041,,,,,,,2025-06-23,1,,,,,ハノンリンク,0
9,1010003047730,新規,0,2025-06-23,2025-06-23,Ｎｏｃｉｃｅｒａ　Ｔｈｅｒａｐｅｕｔｉｃｓ　Ｊａｐａｎ合同会社,,合同会社,東京都,中央区,日本橋本町３丁目８番３号,,13,102,1030023,,,,,,,2025-06-23,1,,,,,ノシセラセラピューティクスジャパン,0
10,1010003047747,新規,0,2025-06-23,2025-06-23,合同会社ＹＣ,,合同会社,東京都,千代田区,神田須田町１丁目７番８号ＶＯＲＴ秋葉原ＩＶ２Ｆ,00139644,13,101,1010041,,,,,,,2025-06-23,1,,,,,ワイシー,0
24,1010605004468,新規,0,2025-06-23,2025-06-23,一般社団法人ＪＴＰＥＮ,,その他の設立登記法人,東京都,江東区,大島６丁目２９番８号,,13,108,1360072,,,,,,,2025-06-23,1,,,,,ジェーティペン,0
28,1010801036298,新規,0,2025-06-23,2025-06-23,株式会社キーエンゲージメント,,株式会社,東京都,大田区,西蒲田７丁目４番９号,,13,111,1440051,,,,,,,2025-06-23,1,,,,,キーエンゲージメント,0
38,1011001170747,新規,0,2025-06-23,2025-06-23,株式会社ＦｉＴｉｎ,,株式会社,東京都,渋谷区,道玄坂１丁目１０番８号渋谷道玄坂東急ビル２Ｆ－Ｃ,,13,113,1500043,,,,,,,2025-06-23,1,,,,,ファイティン,0
43,1011101112178,新規,0,2025-06-23,2025-06-23,株式会社Ｒｉｍｕｅ,,株式会社,東京都,新宿区,新宿１丁目３６番２号新宿第七葉山ビル３Ｆ,,13,104,1600022,,,,,,,2025-06-23,1,,,,,リミュエ,0
46,1011201026377,新規,0,2025-06-23,2025-06-23,株式会社ｐｌａｃｅ　ｆｏｒ,,株式会社,東京都,中野区,中野５丁目６７－７プラザ中野８０１,,13,114,1640001,,,,,,,2025-06-23,1,,,,,プレイスフォー,0
47,1011205002696,新規,0,2025-06-23,2025-06-23,一般社団法人建築改修ＢＩＭ普及協議会,,その他の設立登記法人,東京都,中野区,新井１丁目３４番１４号,,13,114,1650026,,,,,,,2025-06-23,1,,,,,ケンチクカイシュウビムフキュウキョウギカイ,0
48,1011403004734,新規,0,2025-06-23,2025-06-23,合同会社笠戸丸,,合同会社,東京都,板橋区,蓮沼町２１－４,,13,119,1740052,,,,,,,2025-06-23,1,,,,,カサトマル,0
53,1013301054472,新規,0,2025-06-23,2025-06-23,株式会社ＨＫインベストメント,,株式会社,東京都,豊島区,高田１丁目１１番１－１０１号,,13,116,1710033,,,,,,,2025-06-23,1,,,,,エイチケーインベストメント,0
59,1020001163487,新規,0,2025-06-23,2025-06-23,株式会社ＢＥＡＲＩＮＧ　ＮＵＴＳ,,株式会社,神奈川県,横浜市緑区,長津田みなみ台１丁目１０番地１５,,14,113,2260018,,,,,,,2025-06-23,1,,,,,ベアリングナッツ,0
60,1020001163520,新規,0,2025-06-23,2025-06-23,株式会社Ｂｅｓｔ　ＬｉＦｅ　Ｓｕｐｐｏｒｔ,,株式会社,神奈川県,横浜市南区,宿町３丁目５６番地１アップアロー２０２,,14,105,2320017,,,,,,,2025-06-23,1,,,,,ベストライフサポート,0
61,1020001163529,新規,0,2025-06-23,2025-06-23,株式会社アイランドコンサルティング,,株式会社,神奈川県,横浜市青葉区,市ケ尾町１１６０番地１ザ・パークハウス市ヶ尾ウエスト２１８号,,14,117,2250024,,,,,,,2025-06-23,1,,,,,アイランドコンサルティング,0
70,1020003028762,新規,0,2025-06-23,2025-06-23,合同会社Ｔｉｒｔａ＆Ｃｏ．,,合同会社,神奈川県,横浜市神奈川区,金港町５－１４クアドリフォリオ８階（ＤＭＭ．ｃｏｍ内）,,14,102,2210056,,,,,,,2025-06-23,1,,,,,ティルタアンドコー,0
71,1020003028770,新規,0,2025-06-23,2025-06-23,合同会社愛光ケア,,合同会社,神奈川県,横浜市南区,前里町４丁目９２番,,14,105,2320004,,,,,,,2025-06-23,1,,,,,アイコウケア,0
73,1021003016179,新規,0,2025-06-23,2025-06-23,合同会社湘和整理サービス,,合同会社,神奈川県,平塚市,田村８丁目５－２６,,14,203,2540013,,,,,,,2025-06-23,1,,,,,ショウワセイリサービス,0
76,1030001167157,新規,0,2025-06-23,2025-06-23,ＢＥＳ商事株式会社,,株式会社,埼玉県,さいたま市西区,大字飯田新田５１０－４,,11,101,3310068,,,,,,,2025-06-23,1,,,,,ビズショウジ,0
77,1030001167207,新規,0,2025-06-23,2025-06-23,アイネ株式会社,,株式会社,埼玉県,川口市,本前川２丁目１－２０スプリングメゾン１０２,,11,203,3330849,,,,,,,2025-06-23,1,,,,,アイネ,0
78,1030001167223,新規,0,2025-06-23,2025-06-23,相原十港株式会社,,株式会社,埼玉県,川越市,大字的場１９１４番地５,,11,201,3501101,,,,,,,2025-06-23,1,,,,,アイハラジュウコウ,0
79,1030001167280,新規,0,2025-06-23,2025-06-23,株式会社飛羽工業,,株式会社,埼玉県,三郷市,早稲田２丁目４番地１エクセラン三郷４０４,,11,237,3410018,,,,,,,2025-06-23,1,,,,,ヒウコウギョウ,0
84,1030003026864,新規,0,2025-06-23,2025-06-23,合同会社ひとたね,,合同会社,埼玉県,さいたま市浦和区,常盤５丁目１３番８－５０２号,,11,107,3300061,,,,,,,2025-06-23,1,,,,,ヒトタネ,0
85,1030003027004,新規,0,2025-06-23,2025-06-23,合同会社シュガーラッシュ,,合同会社,埼玉県,越谷市,弥生町１－７エヌステージ１０１,,11,222,3430816,,,,,,,2025-06-23,1,,,,,シュガーラッシュ,0
95,1040001139304,新規,0,2025-06-23,2025-06-23,株式会社ＧＬＯＲＩＡ,,株式会社,千葉県,船橋市,本町５丁目１８番１０号,,12,204,2730005,,,,,,,2025-06-23,1,,,,,グロリア,0
96,1040001139353,新規,0,2025-06-23,2025-06-23,極上和遊株式会社,,株式会社,千葉県,山武市,富田トの４７１番地１－２Ｆ,,12,237,2891321,,,,,,,2025-06-23,1,,,,,ゴクジョウワユウ,0
97,1040001139361,新規,0,2025-06-23,2025-06-23,ＳＩＪアセットマネジメント株式会社,,株式会社,千葉県,市川市,若宮３丁目１３番９号,,12,203,2720812,,,,,,,2025-06-23,1,,,,,エスアイジェーアセットマネジメント,0
101,1040003027845,新規,0,2025-06-23,2025-06-23,美国建工合同会社,,合同会社,千葉県,流山市,駒木５３１－１－２階Ａ,,12,220,2700132,,,,,,,2025-06-23,1,,,,,ミクニケンコウ,0
102,1040003027878,新規,0,2025-06-23,2025-06-23,合同会社ＡＣベローナ,,合同会社,千葉県,千葉市中央区,松波２丁目４番１８号,,12,101,2600044,,,,,,,2025-06-23,1,,,,,エーシーベローナ,0
103,1040003027894,新規,0,2025-06-23,2025-06-23,清越合同会社,,合同会社,千葉県,船橋市,金杉９丁目１５－１６サクセス１番館１０５室,,12,204,2730853,,,,,,,2025-06-23,1,,,,,セイエツ,0
104,1050001056837,新規,0,2025-06-23,2025-06-23,株式会社ＫＧホールディングス,,株式会社,茨城県,ひたちなか市,大字東石川３５６１－１,,08,221,3120052,,,,,,,2025-06-23,1,,,,,ケージーホールディングス,0
105,1050003009371,新規,0,2025-06-23,2025-06-23,Ｌ＆Ｔ　ＥＮＴＥＲＰＲＩＳＥＳ合同会社,,合同会社,茨城県,取手市,配松４７８番地１－２０３号室,,08,217,3001541,,,,,,,2025-06-23,1,,,,,エルアンドティーエンタープライゼス,0
110,1080003003487,新規,0,2025-06-23,2025-06-23,合同会社Ｔ＆ＴＱ,,合同会社,静岡県,島田市,井口９５６番地の１ビレッジハウス船木１号棟１０１,,22,209,4270104,,,,,,,2025-06-23,1,,,,,ティーアンドティーキュー,0
111,1080401027988,新規,0,2025-06-23,2025-06-23,株式会社グッドイメージ,,株式会社,静岡県,浜松市中央区,有玉北町２０７番地の２・２Ｆ,,22,138,4313121,,,,,,,2025-06-23,1,,,,,グッドイメージ,0
112,1090001019344,新規,0,2025-06-23,2025-06-23,Ａｉ株式会社,,株式会社,山梨県,甲府市,山宮町５９５番地３,,19,201,4000075,,,,,,,2025-06-23,1,,,,,アイ,0
113,1090003002843,新規,0,2025-06-23,2025-06-23,合同会社一祐,,合同会社,山梨県,南アルプス市,大師５６６番地３,,19,208,4000416,,,,,,,2025-06-23,1,,,,,イチユウ,0
125,1120001276989,新規,0,2025-06-23,2025-06-23,模範株式会社,,株式会社,大阪府,大阪市東成区,大今里３丁目１５番６号ＩｍａｚａｔｏＴｏｗｅｒ４０７Ｃ,,27,115,5370012,,,,,,,2025-06-23,1,,,,,モハン,0
126,1120001277038,新規,0,2025-06-23,2025-06-23,ＹＵＡ　ＨＯＬＤＩＮＧＳ株式会社,,株式会社,大阪府,大阪市平野区,平野南２丁目７－２７,,27,126,5470031,,,,,,,2025-06-23,1,,,,,ユアホールディングス,0
127,1120001277070,新規,0,2025-06-23,2025-06-23,株式会社Ａｉｄｅｏｎ,,株式会社,大阪府,大阪市北区,中之島３丁目６番３２号ダイビル本館５Ｆ,,27,127,5300005,,,,,,,2025-06-23,1,,,,,アイデオン,0
128,1120001277095,新規,0,2025-06-23,2025-06-23,ＬＵＣＫＹＷＡＹ株式会社,,株式会社,大阪府,大阪市阿倍野区,共立通１丁目５番２１号,,27,119,5450041,,,,,,,2025-06-23,1,,,,,ラッキーウェイ,0
129,1120001277104,新規,0,2025-06-23,2025-06-23,龍馬株式会社,,株式会社,大阪府,大阪市住之江区,新北島１丁目４－１５－３０６号室,,27,125,5590024,,,,,,,2025-06-23,1,,,,,リョウマ,0
130,1120001277112,新規,0,2025-06-23,2025-06-23,株式会社Ｊａｐａｎｅｓｅ　Ｈｏｕｓｅ　Ｃｌｕｂ,,株式会社,大阪府,大阪市西区,南堀江３丁目１６番２１－２４１２号,,27,106,5500015,,,,,,,2025-06-23,1,,,,,ジャパニーズハウスクラブ,0
131,1120001277120,新規,0,2025-06-23,2025-06-23,思捷株式会社,,株式会社,大阪府,大阪市中央区,谷町７丁目１番３９－３０１号Ｄ,,27,128,5420012,,,,,,,2025-06-23,1,,,,,シジェ,0
132,1120003029817,新規,0,2025-06-23,2025-06-23,合同会社ブロウ,,合同会社,大阪府,大阪市東住吉区,公園南矢田３丁目１５－１５,,27,121,5460024,,,,,,,2025-06-23,1,,,,,ブロウ,0
133,1120003029841,新規,0,2025-06-23,2025-06-23,合同会社ケーアイ,,合同会社,大阪府,大阪市東住吉区,公園南矢田１丁目１番１６号,,27,121,5460024,,,,,,,2025-06-23,1,,,,,ケーアイ,0
134,1120903005719,新規,0,2025-06-23,2025-06-23,北摂の合同会社,,合同会社,大阪府,摂津市,千里丘２丁目１２－１０－１０１,,27,224,5660001,,,,,,,2025-06-23,1,,,,,ホクセツノ,0
140,1130005017389,新規,0,2025-06-23,2025-06-23,一般社団法人ｓｔｏｎｅ,,その他の設立登記法人,京都府,京都市伏見区,横大路一本木２４番９号,,26,109,6128252,,,,,,,2025-06-23,1,,,,,ストーン,0
142,1140001139005,新規,0,2025-06-23,2025-06-23,ＷＩＯの工事屋さん株式会社,,株式会社,兵庫県,川西市,中央町３番６号川西太陽ビル２０１,,28,217,6660016,,,,,,,2025-06-23,1,,,,,ホールインワンノコウジヤサン,0
143,1140001139013,新規,0,2025-06-23,2025-06-23,株式会社オルデンティアコーポレーション,,株式会社,兵庫県,神戸市中央区,御幸通４丁目１－６,,28,110,6510087,,,,,,,2025-06-23,1,,,,,オルデンティアコーポレーション,0
144,1140001139054,新規,0,2025-06-23,2025-06-23,株式会社ｏｆｆｉｃｅ　Ｒａｙ,,株式会社,兵庫県,神戸市中央区,磯辺通１丁目１番１８号７０７号室,,28,110,6510084,,,,,,,2025-06-23,1,,,,,オフィスレイ,0
150,1160001026845,新規,0,2025-06-23,2025-06-23,株式会社おおたき里づくり研究所,,株式会社,滋賀県,犬上郡多賀町,冨之尾１６５６番地,,25,443,5220300,,,,,,,2025-06-23,1,,,,,オオタキサトヅクリケンキュショ,0
160,1210003001931,新規,0,2025-06-23,2025-06-23,ａｋｕｍｉｒａ合同会社,,合同会社,福井県,越前市,野岡町第５号８番地１,,18,209,9150264,,,,,,,2025-06-23,1,,,,,アクミラ,0
169,1240001065091,新規,0,2025-06-23,2025-06-23,株式会社ハラダ,,株式会社,広島県,福山市,御幸町大字下岩成９０４番地１０,,34,207,7200002,,,,,,,2025-06-23,1,,,,,ハラダ,0
170,1240001065100,新規,0,2025-06-23,2025-06-23,株式会社セライ,,株式会社,広島県,広島市西区,草津梅が台６番２８号,,34,104,7330864,,,,,,,2025-06-23,1,,,,,セライ,0
171,1240003007265,新規,0,2025-06-23,2025-06-23,合同会社ＦＵＳＨＩＭＥ,,合同会社,広島県,福山市,幕山台５丁目１１番１６号,,34,207,7210913,,,,,,,2025-06-23,1,,,,,フシメ,0
175,1260003005226,新規,0,2025-06-23,2025-06-23,合同会社Ｐｏｎｏ,,合同会社,岡山県,岡山市中区,雄町４６４番地１２レスポワールＡ１０２,,33,102,7038204,,,,,,,2025-06-23,1,,,,,ポノ,0
182,1290001110454,新規,0,2025-06-23,2025-06-23,株式会社スライトエッジ,,株式会社,福岡県,福岡市早良区,干隈４丁目２番１５号,,40,137,8140163,,,,,,,2025-06-23,1,,,,,スライトエッジ,0
183,1290001110462,新規,0,2025-06-23,2025-06-23,Ｋ‐パートナーズ株式会社,,株式会社,福岡県,福岡市中央区,薬院４丁目１３番６２－１００５号,,40,133,8100022,,,,,,,2025-06-23,1,,,,,ケイパートナーズ,0
184,1290001110479,新規,0,2025-06-23,2025-06-23,ＩＳＧＣコンサルティング株式会社,,株式会社,福岡県,宗像市,神湊６５１番地３,,40,220,8113501,,,,,,,2025-06-23,1,,,,,アイエスジーシーコンサルティング,0
185,1290001110495,新規,0,2025-06-23,2025-06-23,株式会社ＬｏＦメンテナンス,,株式会社,福岡県,福岡市博多区,博多駅前３丁目１９番１８－８０３号,,40,132,8120011,,,,,,,2025-06-23,1,,,,,ロフメンテナンス,0
187,1290003017020,新規,0,2025-06-23,2025-06-23,合同会社ラ・ファルマシィ,,合同会社,福岡県,福岡市博多区,中洲５丁目３番８号アクア博多５階,,40,132,8100801,,,,,,,2025-06-23,1,,,,,ラファルマシィ,0
194,1290801031643,新規,0,2025-06-23,2025-06-23,株式会社鈴木商店,,株式会社,福岡県,北九州市戸畑区,浅生３丁目３番８号,,40,105,8040062,,,,,,,2025-06-23,1,,,,,スズキショウテン,0
195,1310003005030,新規,0,2025-06-23,2025-06-23,合同会社てんてん,,合同会社,長崎県,佐世保市,小佐世保町４１０－２,,42,202,8570813,,,,,,,2025-06-23,1,,,,,テンテン,0
199,1340003004871,新規,0,2025-06-23,2025-06-23,合同会社Ｌｉｇｈｔｈｏｕｓｅ　ｖｉｓｉｏｎ,,合同会社,鹿児島県,鹿児島市,紫原７丁目１０－２３黒瀬ビル２０２,,46,201,8900082,,,,,,,2025-06-23,1,,,,,ライトハウスビジョン,0
203,1350001019607,新規,0,2025-06-23,2025-06-23,京屋株式会社,,株式会社,宮崎県,日南市,油津２丁目３番２号,,45,204,8870001,,,,,,,2025-06-23,1,,,,,キョウヤ,0
207,1360003015009,新規,0,2025-06-23,2025-06-23,Ｓｅｔ　Ｕｐ　Ｓａｌｅｓ合同会社,,合同会社,沖縄県,那覇市,牧志２丁目１７－２７－４０１,,47,201,9000013,,,,,,,2025-06-23,1,,,,,セットアップセールス,0
210,1370001052738,新規,0,2025-06-23,2025-06-23,株式会社ＭＳ　ＴＲＡＤＩＮＧ,,株式会社,宮城県,遠田郡美里町,二郷字慶半３４番地１,,04,505,9894206,,,,,,,2025-06-23,1,,,,,エムエストレーディング,0
211,1370003007070,新規,0,2025-06-23,2025-06-23,地域の素材で家を創るＤＡＯ合同会社,,合同会社,宮城県,東松島市,野蒜字亀岡８０番,,04,214,9810411,,,,,,,2025-06-23,1,,,,,チイキノソザイデイエヲツクルダオ,0
213,1380001035403,新規,0,2025-06-23,2025-06-23,中和建設株式会社,,株式会社,福島県,双葉郡浪江町,大字権現堂字六反田２５番地２,,07,547,9791521,,,,,,,2025-06-23,1,,,,,チュウワケンセツ,0
218,1450003002682,新規,0,2025-06-23,2025-06-23,ケープラン合同会社,,合同会社,北海道,上川郡東神楽町,ひじり野北一条３丁目１番７号,,01,453,0711521,,,,,,,2025-06-23,1,,,,,ケープラン,0
219,1460303000872,新規,0,2025-06-23,2025-06-23,合同会社ＶＭＲＢ,,合同会社,北海道,北見市,高栄西町４丁目３番１７号,,01,208,0900058,,,,,,,2025-06-23,1,,,,,ブイエムアールビー,0
226,1490003002027,新規,0,2025-06-23,2025-06-23,ＫＵＴＶ．アスピラード合同会社,,合同会社,高知県,高知市,北本町３丁目４番２７号,,39,201,7800056,,,,,,,2025-06-23,1,,,,,ケーユーティーヴィアスピラード,0
229,1500001026364,新規,0,2025-06-23,2025-06-23,株式会社Ｂｒｉｌｌｉａｎｔ　Ｐａｔｈ,,株式会社,愛媛県,松山市,小坂４丁目１３番１５号,,38,201,7900963,,,,,,,2025-06-23,1,,,,,ブリリアントパス,0
233,1700150131234,新規,0,2025-06-23,2025-06-23,ｓｈａｎｇｈａｉ　ｙｕｎｍａｎｘｉｎｙｕｅ　ｄｉａｎｚｉｓｈａｎｇｗｕ　ｙｏｕｘｉａｎｇｏｎｇｓｉ,,外国会社等,,,,,,,,Ｎｏ．５５１７，Ｗａｉｑｉｎｇｓｏｎｇ　Ｈｉｇｈｗａｙ，Ｑｉｎｇｐｕ　Ｄｉｓｔｒｉｃｔ，Ｓｈａｎｇｈａｉ,,,,,,2025-06-23,1,,,,,シャンハイユンマンシンユエデンシショウムユウゲンコウシ,0
239,2010001256167,新規,0,2025-06-23,2025-06-23,ＱｕａｎｔａＳｈｉｅｌｄ株式会社,,株式会社,東京都,千代田区,永田町２丁目１７番１７号アイオス永田町４０１,,13,101,1000014,,,,,,,2025-06-23,1,,,,,クアンタシールド,0
240,2010001256200,新規,0,2025-06-23,2025-06-23,株式会社ＥＤＰ,,株式会社,東京都,千代田区,内幸町２丁目１番６号,,13,101,1000011,,,,,,,2025-06-23,1,,,,,イーディーピー,0
241,2010001256217,新規,0,2025-06-23,2025-06-23,株式会社クレドコラ,,株式会社,東京都,中央区,銀座１丁目２２番１１号,,13,102,1040061,,,,,,,2025-06-23,1,,,,,クレドコラ,0
245,2010003047738,新規,0,2025-06-23,2025-06-23,新富士ロジスティクス合同会社,,合同会社,東京都,中央区,日本橋１丁目４番１号,,13,102,1030027,,,,,,,2025-06-23,1,,,,,シンフジロジスティクス,0
246,2010003047770,新規,0,2025-06-23,2025-06-23,合同会社ＵＬＣ　Ｃａｐｉｔａｌ,,合同会社,東京都,文京区,白山３丁目２番４号富士峰ビル２０１,,13,105,1120001,,,,,,,2025-06-23,1,,,,,ユーエルシーキャピタル,0
249,2010005040229,新規,0,2025-06-23,2025-06-23,博多ホテル一般社団法人,,その他の設立登記法人,東京都,中央区,日本橋１丁目４番１号,,13,102,1030027,,,,,,,2025-06-23,1,,,,,ハカタホテル,0
254,2010401191229,新規,0,2025-06-23,2025-06-23,ｂｌａｎｃ株式会社,,株式会社,東京都,港区,南青山３丁目１番３６号青山丸竹ビル６Ｆ,,13,103,1070062,,,,,,,2025-06-23,1,,,,,ブラン,0
255,2010403035425,新規,0,2025-06-23,2025-06-23,ＧＳＳＧ　Ｉｎｖｅｓｔｏｒｓ合同会社,,合同会社,東京都,港区,高輪１丁目３番１３号ＮＢＦ高輪ビル７階,,13,103,1080074,,,,,,,2025-06-23,1,,,,,ジーエスエスジーインベスターズ,0
262,2010803005449,新規,0,2025-06-23,2025-06-23,Ｋａｔａｍｉ合同会社,,合同会社,東京都,大田区,南雪谷１丁目５－５,,13,111,1450066,,,,,,,2025-06-23,1,,,,,カタミ,0
269,2011001170416,新規,0,2025-06-23,2025-06-23,株式会社ＹＯＵ,,株式会社,東京都,目黒区,自由が丘２丁目１６－１２ＬＣ１Ｆ,,13,110,1520035,,,,,,,2025-06-23,1,,,,,ユー,0
271,2011003021732,新規,0,2025-06-23,2025-06-23,合同会社楽栄,,合同会社,東京都,渋谷区,円山町５－３ＭＩＥＵＸ渋谷ビル８階,,13,113,1500044,,,,,,,2025-06-23,1,,,,,ガクエイ,0
273,2011101112177,新規,0,2025-06-23,2025-06-23,株式会社キャリアス,,株式会社,東京都,新宿区,新宿１丁目３６番２号３Ｆ,,13,104,1600022,,,,,,,2025-06-23,1,,,,,キャリアス,0
274,2011101112210,新規,0,2025-06-23,2025-06-23,ネオプラズマ株式会社,,株式会社,東京都,新宿区,四谷２丁目８番地コーポクローバ駒井８０４,,13,104,1600004,,,,,,,2025-06-23,1,,,,,ネオプラズマ,0
282,2012401012083,新規,0,2025-06-23,2025-06-23,リベスト住宅株式会社,,株式会社,東京都,武蔵野市,吉祥寺本町１丁目１５番２号,,13,203,1800004,,,,,,,2025-06-23,1,,,,,リベストジュウタク,0
285,2012703003301,新規,0,2025-06-23,2025-06-23,ＭａｎｉａＭａｎｉａ合同会社,,合同会社,東京都,西東京市,新町５丁目９番６号,,13,229,2020023,,,,,,,2025-06-23,1,,,,,マニアマニア,0
287,2013101009700,新規,0,2025-06-23,2025-06-23,株式会社ＨＵＮＴＥＲ,,株式会社,東京都,福生市,加美平３丁目１７－１登紀和ビル２階,,13,218,1970012,,,,,,,2025-06-23,1,,,,,ハンター,0
293,2020001163494,新規,0,2025-06-23,2025-06-23,株式会社Ｈａｎａｋｏ,,株式会社,神奈川県,横浜市港南区,野庭町７０９番地２－４０８号,,14,111,2340056,,,,,,,2025-06-23,1,,,,,ハナコ,0
294,2020001163536,新規,0,2025-06-23,2025-06-23,株式会社丹翠工藝,,株式会社,神奈川県,横浜市神奈川区,台町１１番地３０台ビル５５号室,,14,102,2210834,,,,,,,2025-06-23,1,,,,,タンスイコウゲイ,0
298,2020003028786,新規,0,2025-06-23,2025-06-23,合同会社みやけん,,合同会社,神奈川県,横浜市金沢区,富岡東５丁目１７－２１ＷＥＬＬＨＯＵＳＥ１０１,,14,108,2360051,,,,,,,2025-06-23,1,,,,,ミヤケン,0
302,2021001085571,新規,0,2025-06-23,2025-06-23,株式会社ばかンス,,株式会社,神奈川県,大和市,下鶴間１９００番地４２,,14,213,2420001,,,,,,,2025-06-23,1,,,,,バカンス,0
305,2021003015923,新規,0,2025-06-23,2025-06-23,合同会社鎌倉山生活,,合同会社,神奈川県,鎌倉市,鎌倉山１丁目６番４号,,14,204,2480031,,,,,,,2025-06-23,1,,,,,カマクラヤマセイカツ,0
311,2030001167189,新規,0,2025-06-23,2025-06-23,株式会社ＦＩＶＥ,,株式会社,埼玉県,志木市,中宗岡４丁目１１番３０号,,11,228,3530002,,,,,,,2025-06-23,1,,,,,ファイブ,0
312,2030001167197,新規,0,2025-06-23,2025-06-23,株式会社Ｂｒｉｇｈｔ　Ｂｌｏｏｍ,,株式会社,埼玉県,川口市,南鳩ヶ谷３丁目６番１号,,11,203,3340013,,,,,,,2025-06-23,1,,,,,ブライトブルーム,0
316,2030003027036,新規,0,2025-06-23,2025-06-23,合同会社アバンギャルド,,合同会社,埼玉県,草加市,青柳５丁目１８番２４号,,11,221,3400002,,,,,,,2025-06-23,1,,,,,アバンギャルド,0
317,2030003027052,新規,0,2025-06-23,2025-06-23,合同会社結,,合同会社,埼玉県,さいたま市緑区,東浦和１丁目５番地１１メゾン永井１階,,11,109,3360926,,,,,,,2025-06-23,1,,,,,ムスビ,0
320,2040001139311,新規,0,2025-06-23,2025-06-23,エムケイリアル株式会社,,株式会社,千葉県,我孫子市,根戸１２１１番地３８,,12,222,2701168,,,,,,,2025-06-23,1,,,,,エムケイリアル,0
326,2040003027877,新規,0,2025-06-23,2025-06-23,合同会社ＡＣエウテル,,合同会社,千葉県,千葉市中央区,松波２丁目４番１８号,,12,101,2600044,,,,,,,2025-06-23,1,,,,,エーシーエウテル,0
327,2040003027885,新規,0,2025-06-23,2025-06-23,合同会社Ｒｉｓｉｎｇ　Ｉｎｆｉｎｉｔｙ,,合同会社,千葉県,成田市,西三里塚１番地１０５６,,12,211,2860115,,,,,,,2025-06-23,1,,,,,ライジングインフィニティ,0
332,2080001026992,新規,0,2025-06-23,2025-06-23,株式会社ＣＯＭＰＡＳＳ,,株式会社,静岡県,藤枝市,藤枝４丁目１番１６号,,22,214,4260025,,,,,,,2025-06-23,1,,,,,コンパス,0
333,2080101025572,新規,0,2025-06-23,2025-06-23,株式会社永信ＨＤ,,株式会社,静岡県,駿東郡長泉町,下土狩１４５２番地の４,,22,342,4110943,,,,,,,2025-06-23,1,,,,,エイシンホールディングス,0
347,2120001277103,新規,0,2025-06-23,2025-06-23,株式会社幸運,,株式会社,大阪府,大阪市中央区,淡路町２丁目１－１０－２０７号室,,27,128,5410047,,,,,,,2025-06-23,1,,,,,コウウン,0
348,2120001277111,新規,0,2025-06-23,2025-06-23,株式会社大信通商,,株式会社,大阪府,大阪市東淀川区,北江口３丁目２番５号,,27,114,5330002,,,,,,,2025-06-23,1,,,,,ダイシンツウショウ,0
350,2120003029816,新規,0,2025-06-23,2025-06-23,合同会社Ｆｏｓｔｅｒ,,合同会社,大阪府,大阪市東住吉区,公園南矢田３丁目１５－１５,,27,121,5460024,,,,,,,2025-06-23,1,,,,,フォスター,0
354,2122001039342,新規,0,2025-06-23,2025-06-23,ｚｅｎＧａｔｅ　Ｊａｐａｎ株式会社,,株式会社,大阪府,東大阪市,西堤本通東１丁目１番１号東大阪大発ビル９１０号,,27,227,5770045,,,,,,,2025-06-23,1,,,,,ゼンゲートジャパン,0
355,2122003003230,新規,0,2025-06-23,2025-06-23,ＧＨＡＦＡＲ＆ＳＯＮＳ合同会社,,合同会社,大阪府,柏原市,大字雁多尾畑５５８０－１－１０２,,27,221,5820012,,,,,,,2025-06-23,1,,,,,ガフアールアンドサンズ,0
364,2140001139053,新規,0,2025-06-23,2025-06-23,株式会社藤原左官工芸,,株式会社,兵庫県,姫路市,兼田８１３番地７１,,28,201,6728001,,,,,,,2025-06-23,1,,,,,フジワラサカンコウゲイ,0
365,2140003022240,新規,0,2025-06-23,2025-06-23,ＨＭシステム合同会社,,合同会社,兵庫県,宝塚市,武庫山２丁目４番５２－１２０２号,,28,214,6650005,,,,,,,2025-06-23,1,,,,,エイチエムシステム,0
377,2180301039924,新規,0,2025-06-23,2025-06-23,株式会社Ｐａｐｉｌｉｏ,,株式会社,愛知県,西尾市,新村町土井野字４５３番地,,23,213,4450002,,,,,,,2025-06-23,1,,,,,パーピリオ,0
378,2180301039932,新規,0,2025-06-23,2025-06-23,日本中部チタン合金株式会社,,株式会社,愛知県,蒲郡市,鹿島町西郷５番,,23,214,4430037,,,,,,,2025-06-23,1,,,,,ニホンチュウブチタンゴウキン,0
382,2190003005083,新規,0,2025-06-23,2025-06-23,合同会社サニーポート,,合同会社,三重県,桑名市,星見ヶ丘５丁目９０８番地,,24,205,5110912,,,,,,,2025-06-23,1,,,,,サニーポート,0
384,2200001043918,新規,0,2025-06-23,2025-06-23,株式会社縁道,,株式会社,岐阜県,各務原市,テクノプラザ１丁目１番地２１５,,21,213,5090109,,,,,,,2025-06-23,1,,,,,エンドウ,0
385,2200001043926,新規,0,2025-06-23,2025-06-23,Ｓｏｒａｍｙ株式会社,,株式会社,岐阜県,岐阜市,加納花ノ木町４５―２・３階,,21,201,5008275,,,,,,,2025-06-23,1,,,,,ソラミー,0
399,2260003005233,新規,0,2025-06-23,2025-06-23,栄昇合同会社,,合同会社,岡山県,瀬戸内市,長船町八日市１０７番地２,,33,212,7014272,,,,,,,2025-06-23,1,,,,,エイショウ,0
407,2290001110453,新規,0,2025-06-23,2025-06-23,株式会社ＣＣＨＳ,,株式会社,福岡県,那珂川市,五郎丸１丁目８５番地１,,40,231,8111252,,,,,,,2025-06-23,1,,,,,シーシーエイチエス,0
408,2290001110478,新規,0,2025-06-23,2025-06-23,株式会社Ｓａｔｔｖａ,,株式会社,福岡県,福岡市博多区,住吉３丁目８番３０－１４０６号エンクレスト博多ＳＴＹＬＥ,,40,132,8120018,,,,,,,2025-06-23,1,,,,,サットバ,0
409,2290001110486,新規,0,2025-06-23,2025-06-23,株式会社アンドナウ,,株式会社,福岡県,福岡市早良区,南庄２丁目２番２２号,,40,137,8140031,,,,,,,2025-06-23,1,,,,,アンドナウ,0
420,2320003004699,新規,0,2025-06-23,2025-06-23,ＴＡＣＨＩＢＡＮＡ合同会社,,合同会社,大分県,速見郡日出町,大字藤原２２２７番地７,,44,341,8791502,,,,,,,2025-06-23,1,,,,,タチバナ,0
423,2350001019606,新規,0,2025-06-23,2025-06-23,株式会社クラウドナイン,,株式会社,宮崎県,宮崎市,吉村町引土甲６２９番地３コンフォート吉村１０５号,,45,201,8800841,,,,,,,2025-06-23,1,,,,,クラウドナイン,0
424,2350003004960,新規,0,2025-06-23,2025-06-23,合同会社氣血水,,合同会社,宮崎県,宮崎市,桜町５番地５,,45,201,8800057,,,,,,,2025-06-23,1,,,,,キケツスイ,0
426,2360001035379,新規,0,2025-06-23,2025-06-23,ソウルーツ株式会社,,株式会社,沖縄県,宜野湾市,愛知１丁目４番１号愛知アンソレイエ５Ｆ,,47,205,9012206,,,,,,,2025-06-23,1,,,,,ソウルーツ,0
428,2360003015008,新規,0,2025-06-23,2025-06-23,合同会社ｏｏｌｏｏ,,合同会社,沖縄県,中頭郡北中城村,字熱田１９４番地ハイムゆうなＡ棟,,47,327,9012313,,,,,,,2025-06-23,1,,,,,オールー,0
429,2360003015016,新規,0,2025-06-23,2025-06-23,合同会社ＳＰＡＮＴＩＣ,,合同会社,沖縄県,那覇市,牧志２丁目１７－２７－４０１,,47,201,9000013,,,,,,,2025-06-23,1,,,,,スパンティック,0
430,2370001052687,新規,0,2025-06-23,2025-06-23,ＨＢＫ株式会社,,株式会社,宮城県,遠田郡美里町,字塔ノ越８２番地,,04,505,9870054,,,,,,,2025-06-23,1,,,,,エイチビーケイ,0
435,2380001035402,新規,0,2025-06-23,2025-06-23,Ａ‐ＨＯＳＥサービス株式会社,,株式会社,福島県,本宮市,本宮字南山神３番地１,,07,214,9691146,,,,,,,2025-06-23,1,,,,,エーホースサービス,0
436,2390001018026,新規,0,2025-06-23,2025-06-23,株式会社高史電気,,株式会社,山形県,寒河江市,ほなみ２丁目３番地の２,,06,206,9910028,,,,,,,2025-06-23,1,,,,,タカフミデンキ,0
438,2430001094723,新規,0,2025-06-23,2025-06-23,株式会社樹,,株式会社,北海道,札幌市白石区,北郷五条８丁目３番１３号,,01,104,0030835,,,,,,,2025-06-23,1,,,,,イツキ,0
447,2460001003284,新規,0,2025-06-23,2025-06-23,株式会社森久エンジニアリング,,株式会社,北海道,川上郡弟子屈町,字屈斜路５４９番地,,01,665,0883341,,,,,,,2025-06-23,1,,,,,,0
458,2500001026355,新規,0,2025-06-23,2025-06-23,株式会社白石工業,,株式会社,愛媛県,今治市,伯方町木浦甲３５９２番地,,38,202,7942305,,,,,,,2025-06-23,1,,,,,シライシコウギョウ,0
461,2700150131225,新規,0,2025-06-23,2025-06-23,Ｕ．Ｒ．ＭＯＴＯＲＳ,,外国会社等,千葉県,山武市,木原１４００番地オフィス４Ａ,,12,237,2891212,スリランカ民主社会主義共和国、キャンディ、アンバテンナ、マタレロード、Ｎｏ．７７／４／Ａ,,,,,,2025-06-23,1,,,,,ユーアールモータース,0
462,2700150131233,新規,0,2025-06-23,2025-06-23,Ｓｕｚｈｏｕｊｉｎｇｘｉａｎｇｘｉｎｘｉｋｅｊｉｙｏｕｘｉａｎｇｏｎｇｓｉ,,外国会社等,,,,,,,,ｓｕｚｈｏｕｇａｏｘｉｎｑｕｚｈｕｊｉａｎｇｌｕ１１７ｈａｏｃｈｕａｎｇｘｉｎｚｈｏｎｇｘｉｎ５ｚｈｕａｎｇＢｚｕｏ３Ｂ３０９ｓｈｉ,,,,,,2025-06-23,1,,,,,スゾウジンシャンシンシカギユウゲンコウシ,0
472,3010001255630,新規,0,2025-06-23,2025-06-23,モルガン・スタンレー・ホールディングス株式会社,,株式会社,東京都,千代田区,大手町１丁目９番７号大手町フィナンシャルシティサウスタワー,,13,101,1000004,,,,,,,2025-06-23,1,,,,,モルガンスタンレーホールディングス,0
473,3010001256059,新規,0,2025-06-23,2025-06-23,株式会社Ｍ．Ｋ,,株式会社,東京都,中央区,勝どき４丁目６番２号パークタワー勝どきミッド棟２６１３号,,13,102,1040054,,,,,,,2025-06-23,1,,,,,エムケー,0
474,3010001256075,新規,0,2025-06-23,2025-06-23,株式会社ホットライド,,株式会社,東京都,千代田区,神田神保町３丁目２番地１サンライトビル１０Ｆ,,13,101,1010051,,,,,,,2025-06-23,1,,,,,ホットライド,0
475,3010001256091,新規,0,2025-06-23,2025-06-23,株式会社リンディスク,,株式会社,東京都,中央区,銀座１丁目１２番４号Ｎ＆ＥＢＬＤ．６Ｆ,,13,102,1040061,,,,,,,2025-06-23,1,,,,,リンディスク,0
476,3010001256166,新規,0,2025-06-23,2025-06-23,Ｓｈｉｂｕｓａｗａ　Ｓｔｕｄｉｏｓ株式会社,,株式会社,東京都,千代田区,永田町２丁目１７番１７号アイオス永田町４０１,,13,101,1000014,,,,,,,2025-06-23,1,,,,,シブサワスタジオ,0
478,3010003047687,新規,0,2025-06-23,2025-06-23,Ｓｐｒｉｎｔ　ＭＬ合同会社,,合同会社,東京都,千代田区,霞が関３丁目２番５号,,13,101,1000013,,,,,,,2025-06-23,1,,,,,スプリントエムエル,0
479,3010003047720,新規,0,2025-06-23,2025-06-23,合同会社Ｍａｍｕｕ,,合同会社,東京都,文京区,湯島２丁目３１－５,,13,105,1130034,,,,,,,2025-06-23,1,,,,,マムー,0
480,3010003047737,新規,0,2025-06-23,2025-06-23,森海グローバル合同会社,,合同会社,東京都,中央区,銀座１丁目１２番４号Ｎ＆ＥＢＬＤ．６Ｆ,,13,102,1040061,,,,,,,2025-06-23,1,,,,,シンカイグローバル,0
481,3010003047753,新規,0,2025-06-23,2025-06-23,合同会社Ｎｅｏ,,合同会社,東京都,文京区,本郷６丁目８－１６セントラルマンション本郷１０８号室,,13,105,1130033,,,,,,,2025-06-23,1,,,,,ネオ,0
483,3010005040228,新規,0,2025-06-23,2025-06-23,一般社団法人ＯＭ名駅,,その他の設立登記法人,東京都,中央区,日本橋１丁目４番１号日本橋一丁目ビルディング,,13,102,1030027,,,,,,,2025-06-23,1,,,,,オーエムメイエキ,0
488,3010401191070,新規,0,2025-06-23,2025-06-23,株式会社Ａｌｏｈａ　Ｅｎｇｌｉｓｈ　ｆｏｒ　ｔｈｅ　Ｓｏｕｌ,,株式会社,東京都,港区,浜松町２丁目２番１５号浜松町ダイヤビル２Ｆ,,13,103,1050013,,,,,,,2025-06-23,1,,,,,アロハイングリッシュフォーザソウル,0
489,3010401191260,新規,0,2025-06-23,2025-06-23,株式会社Ｎｉｉｎｏ　Ｐｒｏ,,株式会社,東京都,港区,六本木３丁目１６番１２号六本木ＫＳビル５Ｆ,,13,103,1060032,,,,,,,2025-06-23,1,,,,,ニイノプロ,0
499,3010801036288,新規,0,2025-06-23,2025-06-23,株式会社トレスエステート,,株式会社,東京都,大田区,鵜の木２丁目２７番１０号沢原ビル３Ｂ,,13,111,1460091,,,,,,,2025-06-23,1,,,,,,0
504,3010903010026,新規,0,2025-06-23,2025-06-23,合同会社ＣａｒｅＲｏｕｔｅ世田谷山田,,合同会社,東京都,世田谷区,代沢１丁目１０－３,,13,112,1550032,,,,,,,2025-06-23,1,,,,,ケアルートセタガヤヤマダ,0
514,3011001170282,新規,0,2025-06-23,2025-06-23,大頂古株式会社,,株式会社,東京都,渋谷区,円山町５番３号ＭＩＥＵＸ渋谷ビル８階,,13,113,1500044,,,,,,,2025-06-23,1,,,,,ダイチョコ,0
516,3011003021962,新規,0,2025-06-23,2025-06-23,合同会社Ｌｅ　ＲｅｎｅＯ,,合同会社,東京都,目黒区,下目黒５丁目３０番１６号,,13,110,1530064,,,,,,,2025-06-23,1,,,,,ルールネオ,0
520,3011101112168,新規,0,2025-06-23,2025-06-23,株式会社ＩＮＮＴＥＸ,,株式会社,東京都,新宿区,西新宿１丁目４－１１全研プラザＳＰＡＣＥＳ新宿６１０,,13,104,1600023,,,,,,,2025-06-23,1,,,,,アイエヌエヌテック,0
522,3011103016029,新規,0,2025-06-23,2025-06-23,真打ブレインズ合同会社,,合同会社,東京都,新宿区,西新宿３丁目３番１３号西新宿水間ビル２Ｆ,,13,104,1600023,,,,,,,2025-06-23,1,,,,,シンウチブレインズ,0
524,3011105011473,新規,0,2025-06-23,2025-06-23,一般社団法人過秦閣学会,,その他の設立登記法人,東京都,新宿区,高田馬場４丁目１７－１５東陽ビルディング７０２,,13,104,1690075,,,,,,,2025-06-23,1,,,,,カシンカクガッカイ,0
526,3011201026458,新規,0,2025-06-23,2025-06-23,株式会社スーバーハー,,株式会社,東京都,中野区,中央１丁目４０番４号,,13,114,1640011,,,,,,,2025-06-23,1,,,,,スーバーハー,0
528,3011301030649,新規,0,2025-06-23,2025-06-23,友嘉株式会社,,株式会社,東京都,杉並区,上高井戸１丁目２４番２号,,13,115,1680074,,,,,,,2025-06-23,1,,,,,トモヨイ,0
530,3011405002395,新規,0,2025-06-23,2025-06-23,一般社団法人餐飲老板内参日本駅,,その他の設立登記法人,東京都,板橋区,板橋１丁目４７番１１－２０６号キャニオンマンション板橋,,13,119,1730004,,,,,,,2025-06-23,1,,,,,サンインロウバンナイサンニホンエキ,0
535,3011701028441,新規,0,2025-06-23,2025-06-23,潔町優日化株式会社,,株式会社,東京都,江戸川区,平井５丁目４５番５号渡辺ハイツ１０１,,13,123,1320035,,,,,,,2025-06-23,1,,,,,ケッチョウユウニッカ,0
550,3020001163485,新規,0,2025-06-23,2025-06-23,株式会社Ｎ　Ａｒｃｈｉ　Ｌａｂｏ,,株式会社,神奈川県,横浜市緑区,東本郷４丁目２９番１９－１号,,14,113,2260002,,,,,,,2025-06-23,1,,,,,エヌアーキラボ,0
551,3020001163502,新規,0,2025-06-23,2025-06-23,株式会社アイニッシュ,,株式会社,神奈川県,横浜市鶴見区,岸谷４丁目３１番７－４０９号朝日シティパリオ鶴見岸谷,,14,101,2300078,,,,,,,2025-06-23,1,,,,,アイニッシュ,0
554,3020003028760,新規,0,2025-06-23,2025-06-23,Ｌ＆Ａ合同会社,,合同会社,神奈川県,川崎市多摩区,枡形３丁目７－４－２,,14,135,2140032,,,,,,,2025-06-23,1,,,,,エルアンドエー,0
556,3021001085587,新規,0,2025-06-23,2025-06-23,株式会社アシスト,,株式会社,神奈川県,大和市,上草柳７丁目２番５号,,14,213,2420029,,,,,,,2025-06-23,1,,,,,アシスト,0
569,3030001167246,新規,0,2025-06-23,2025-06-23,株式会社Ｓ＆Ｙ,,株式会社,埼玉県,さいたま市西区,大字内野本郷１０３４番地１,,11,101,3310045,,,,,,,2025-06-23,1,,,,,エスアンドワイ,0
572,3030003027019,新規,0,2025-06-23,2025-06-23,ＲＵ合同会社,,合同会社,埼玉県,南埼玉郡宮代町,中央３丁目１０－３４,,11,442,3450821,,,,,,,2025-06-23,1,,,,,アールユー,0
573,3030003027043,新規,0,2025-06-23,2025-06-23,金瑞合同会社,,合同会社,埼玉県,さいたま市南区,内谷６丁目７番２１号東急ドエルアルス武蔵浦和２０１,,11,108,3360034,,,,,,,2025-06-23,1,,,,,キンズイ,0
574,3030003027051,新規,0,2025-06-23,2025-06-23,ＳＡＫＵ合同会社,,合同会社,埼玉県,志木市,上宗岡４丁目６番４７ー７１３号,,11,228,3530001,,,,,,,2025-06-23,1,,,,,サク,0
580,3040001139285,新規,0,2025-06-23,2025-06-23,Ｓａｎｐｏ株式会社,,株式会社,千葉県,四街道市,吉岡６１３－５,,12,228,2840032,,,,,,,2025-06-23,1,,,,,サンポ,0
581,3040001139302,新規,0,2025-06-23,2025-06-23,株式会社ナックファニチャーワークス,,株式会社,千葉県,千葉市中央区,千葉港８番１号千葉みなとパークハウス弐番館１１０８号,,12,101,2600026,,,,,,,2025-06-23,1,,,,,ナックファニチャーワークス,0
582,3040001139327,新規,0,2025-06-23,2025-06-23,株式会社Ｓｅｋｉｓａｎ　Ｌａｂ,,株式会社,千葉県,船橋市,山手１丁目１番３－１２２７号,,12,204,2730045,,,,,,,2025-06-23,1,,,,,セキサンラボ,0
583,3040001139351,新規,0,2025-06-23,2025-06-23,株式会社志誠商事,,株式会社,千葉県,鎌ケ谷市,北中沢３丁目３－１６－２０２室,,12,224,2730111,,,,,,,2025-06-23,1,,,,,シセイショウジ,0
584,3040001139368,新規,0,2025-06-23,2025-06-23,株式会社Ｇｌａｄ,,株式会社,千葉県,船橋市,前原西２丁目１番５号ヤナギヤビル２０２,,12,204,2740825,,,,,,,2025-06-23,1,,,,,グラッド,0
589,3040003027876,新規,0,2025-06-23,2025-06-23,合同会社ＡＣプロセル,,合同会社,千葉県,千葉市中央区,松波２丁目４番１８号,,12,101,2600044,,,,,,,2025-06-23,1,,,,,エーシープロセル,0
590,3040003027884,新規,0,2025-06-23,2025-06-23,合同会社ひまわり,,合同会社,千葉県,松戸市,上矢切１００７番地の１５,,12,207,2710094,,,,,,,2025-06-23,1,,,,,ヒマワリ,0
592,3050001056835,新規,0,2025-06-23,2025-06-23,百川貿易株式会社,,株式会社,茨城県,つくば市,みどりの中央７０番地１７,,08,220,3050882,,,,,,,2025-06-23,1,,,,,ヒャクセンボウエキ,0
593,3060001038279,新規,0,2025-06-23,2025-06-23,ＮＥＩＧＨＶＥＲＳＥ株式会社,,株式会社,栃木県,日光市,稲荷町１丁目６７４,,09,206,3211411,,,,,,,2025-06-23,1,,,,,ネイバース,0
600,3080401027986,新規,0,2025-06-23,2025-06-23,浜松ビジョンテクノロジー株式会社,,株式会社,静岡県,浜松市中央区,鍛冶町１００番地の１ザザシティ浜松中央館Ｂ１Ｆ,,22,138,4300933,,,,,,,2025-06-23,1,,,,,ハママツビジョンテクノロジー,0
605,3100001038712,新規,0,2025-06-23,2025-06-23,株式会社横谷峡,,株式会社,長野県,茅野市,北山５５１３番地,,20,214,3910301,,,,,,,2025-06-23,1,,,,,ヨコヤキョウ,0
619,3120001276921,新規,0,2025-06-23,2025-06-23,万盈株式会社,,株式会社,大阪府,大阪市淀川区,十三東４丁目３－２３メビウス十三レジデンス５０５,,27,123,5320023,,,,,,,2025-06-23,1,,,,,マンエイ,0
620,3120001276987,新規,0,2025-06-23,2025-06-23,ユニトン株式会社,,株式会社,大阪府,大阪市都島区,中野町４丁目３番６号Ｈ２Ｈ大阪桜之宮邸５Ｄ－６,,27,102,5340027,,,,,,,2025-06-23,1,,,,,ユニトン,0
621,3120001277044,新規,0,2025-06-23,2025-06-23,ＳＡＫＵＲＡ国際株式会社,,株式会社,大阪府,大阪市東住吉区,駒川３丁目２７番１１号,,27,121,5460043,,,,,,,2025-06-23,1,,,,,サクラコクサイ,0
622,3120001277060,新規,0,2025-06-23,2025-06-23,株式会社ラムダプロモーション,,株式会社,大阪府,大阪市中央区,北浜東４番３３号北浜ネクスビルディングＢＩＺｃｏｍｆｏｒｔ北浜,,27,128,5400031,,,,,,,2025-06-23,1,,,,,ラムダプロモーション,0
623,3120001277069,新規,0,2025-06-23,2025-06-23,西貝株式会社,,株式会社,大阪府,大阪市生野区,田島２丁目９番３号,,27,116,5440011,,,,,,,2025-06-23,1,,,,,ニシガイ,0
624,3120001277119,新規,0,2025-06-23,2025-06-23,株式会社ＬＩＲＩＯ商事コンサルティング,,株式会社,大阪府,大阪市城東区,今福西６丁目１番２７号アールヴェール城東５０５号,,27,118,5360004,,,,,,,2025-06-23,1,,,,,リリオショウジコンサルティング,0
625,3120001277143,新規,0,2025-06-23,2025-06-23,Ｎ・ＰＲＯ株式会社,,株式会社,大阪府,大阪市西成区,天下茶屋北１丁目５番６号,,27,122,5570003,,,,,,,2025-06-23,1,,,,,エヌプロ,0
627,3120003029815,新規,0,2025-06-23,2025-06-23,合同会社ＯＮＩ,,合同会社,大阪府,大阪市平野区,加美北６丁目１２番４号,,27,126,5470001,,,,,,,2025-06-23,1,,,,,オーエヌアイ,0
628,3120003029831,新規,0,2025-06-23,2025-06-23,合同会社ＴＯＷＡＬＩＮＫ,,合同会社,大阪府,大阪市生野区,中川６丁目４－３ＮＦＣ生野ハイツ,,27,116,5440005,,,,,,,2025-06-23,1,,,,,トワリンク,0
646,3130005017387,新規,0,2025-06-23,2025-06-23,一般社団法人日本ソーシャルマーケティング協会,,その他の設立登記法人,京都府,向日市,寺戸町山縄手２１番１ＺＥＴ－ＢＡＳＥＫＹＯＴＯ,,26,208,6170002,,,,,,,2025-06-23,1,,,,,ニホンソーシャルマーケティングキョウカイ,0
650,3140001139011,新規,0,2025-06-23,2025-06-23,ＰＲＯＳＴ　ｉｎｖｅｓｔｍｅｎｔ株式会社,,株式会社,兵庫県,加東市,平木１３１０番地７８１,,28,228,6731402,,,,,,,2025-06-23,1,,,,,プロストインベストメント,0
654,3140003022231,新規,0,2025-06-23,2025-06-23,ＴＫＡ合同会社,,合同会社,兵庫県,神戸市中央区,元町通６丁目８番２７－３０１号,,28,110,6500022,,,,,,,2025-06-23,1,,,,,ティーケーエー,0
664,3180303006624,新規,0,2025-06-23,2025-06-23,合同会社ＫＨ,,合同会社,愛知県,豊田市,小坂本町１丁目２番地５第２コーポみのる一階,,23,211,4710034,,,,,,,2025-06-23,1,,,,,ケーエイチ,0
667,3200005013775,新規,0,2025-06-23,2025-06-23,ＮＰＯ法人チャチャキャッツ,,その他の設立登記法人,岐阜県,揖斐郡池田町,粕ケ原２２２７番地の３,,21,404,5032402,,,,,,,2025-06-23,1,,,,,チャチャキャッツ,0
669,3220001026754,新規,0,2025-06-23,2025-06-23,ＥＣＨＥＬＯＮ株式会社,,株式会社,石川県,小松市,城南町８４番地,,17,203,9230941,,,,,,,2025-06-23,1,,,,,エシュロン,0
670,3230001020962,新規,0,2025-06-23,2025-06-23,株式会社ＭＥＲＦロジスティクス,,株式会社,富山県,射水市,奈呉の江１２番地の２,,16,211,9340031,,,,,,,2025-06-23,1,,,,,マーフロジスティクス,0
673,3240003007263,新規,0,2025-06-23,2025-06-23,ＧＦＩアセットマネジメント合同会社,,合同会社,広島県,広島市安佐北区,あさひが丘７丁目４番３号,,34,106,7313361,,,,,,,2025-06-23,1,,,,,ジーエフアイアセットマネジメント,0
674,3240003007271,新規,0,2025-06-23,2025-06-23,合同会社ＡｓＨ,,合同会社,広島県,呉市,安浦町安登西７丁目５番５号,,34,202,7372512,,,,,,,2025-06-23,1,,,,,エーエスエイチ,0
679,3260001040289,新規,0,2025-06-23,2025-06-23,株式会社山上不動産企画,,株式会社,岡山県,岡山市北区,青江５丁目４－２４,,33,101,7000941,,,,,,,2025-06-23,1,,,,,ヤマガミフドウサンキカク,0
684,3290001110444,新規,0,2025-06-23,2025-06-23,株式会社３９,,株式会社,福岡県,大野城市,大池２丁目４番２号,,40,219,8160904,,,,,,,2025-06-23,1,,,,,サンキュー,0
685,3290001110485,新規,0,2025-06-23,2025-06-23,一飴株式会社,,株式会社,福岡県,福岡市南区,高宮２丁目３番３号６階,,40,134,8150083,,,,,,,2025-06-23,1,,,,,イチアメ,0
691,3320001021175,新規,0,2025-06-23,2025-06-23,衞藤ＨＤ株式会社,,株式会社,大分県,大分市,三川下２丁目７番７号,,44,201,8700142,,,,,,,2025-06-23,1,,,,,エトウホールディングス,0
700,3350001019596,新規,0,2025-06-23,2025-06-23,株式会社ＭＨ　ＯＲＧＡＮＩＣ　ＡＲＣＨＩＴＥＣＴ,,株式会社,宮崎県,宮崎市,青島西１丁目６番地６号,,45,201,8892163,,,,,,,2025-06-23,1,,,,,エムエイチオーガニックアーキテクト,0
703,3370003007069,新規,0,2025-06-23,2025-06-23,凪Ｆｅｍ　ｎ’Ｍａｌｅ　ＤＡＯ合同会社,,合同会社,宮城県,東松島市,野蒜字亀岡８０番,,04,214,9810411,,,,,,,2025-06-23,1,,,,,ナギフェムアンドメイルダオ,0
704,3380001035401,新規,0,2025-06-23,2025-06-23,株式会社Ｙ・Ｔ・Ｍ,,株式会社,福島県,南相馬市,原町区国見町２丁目１３４番地の２１,,07,212,9750015,,,,,,,2025-06-23,1,,,,,ワイティーエム,0
706,3390001018025,新規,0,2025-06-23,2025-06-23,株式会社ＺＡＴＴＡｐｒｉｍｅ,,株式会社,山形県,東根市,大字蟹沢１６４７番地７,,06,211,9993716,,,,,,,2025-06-23,1,,,,,ザッタプライム,0
711,3410003004111,新規,0,2025-06-23,2025-06-23,合資会社田中商店,,合資会社,秋田県,北秋田市,松葉町２番２号,,05,213,0183321,,,,,,,2025-06-23,1,,,,,,0
720,3450001014653,新規,0,2025-06-23,2025-06-23,株式会社けんせいしゃわくワーク,,株式会社,北海道,旭川市,東光十三条２丁目４番２５号,,01,204,0788353,,,,,,,2025-06-23,1,,,,,ケンセイシャワクワーク,0
721,3450003002680,新規,0,2025-06-23,2025-06-23,合同会社ＢＡＢＡ　ＦＡＲＥＥＤ　ＴＲＡＤＩＮＧ,,合同会社,北海道,紋別市,渚滑町６丁目１１番地の１,,01,219,0995171,,,,,,,2025-06-23,1,,,,,ババファリードトレーディング,0
725,3490001011085,新規,0,2025-06-23,2025-06-23,株式会社ｅｉｇｈｔ警備,,株式会社,高知県,高知市,春野町弘岡上８９９番地２,,39,201,7810301,,,,,,,2025-06-23,1,,,,,エイトケイビ,0
728,3700150131224,新規,0,2025-06-23,2025-06-23,ＴＵＲＱＵＯＩＳＥ　ＭＯＴＯＲＳ　ＰＶＴ　ＬＴＤ,,外国会社等,茨城県,下妻市,下宮７番３－Ａ区間,,08,210,3040013,スリランカ民主社会主義共和国、キャンディ、アクラナクルゴダマタレロード２６８／１／Ｂ,,,,,,2025-06-23,1,,,,,ターコイズモーターズプライベートリミテツド,0
729,3700150131232,新規,0,2025-06-23,2025-06-23,ＫＡＩＹＵＮＴＯＮＧＴＡＩＺＨＩＮＥＮＧＪＩＡＪＵ（ＤＡＬＩＡＮ）ＹＯＵＸＩＡＮＧＯＮＧＳＩ,,外国会社等,,,,,,,,ＬｉａｏＮｉｎｇＳｈｅｎｇＤａＬｉａｎＳｈｉＧａｎＪｉｎｇＺｉＱｕＨｕｉＴｏｎｇＪｉｅ１１０Ｈａｏ,,,,,,2025-06-23,1,,,,,カイユントンタイチノウジャジュダレンユウゲンコウシ,0
737,4010001256140,新規,0,2025-06-23,2025-06-23,Ｆｉｖｅ　Ｌｉｎｅｓ株式会社,,株式会社,東京都,中央区,銀座２丁目１５－２ＫＲＧｉｎｚａＩＩ４Ｆ,00139643,13,102,1040061,,,,,,,2025-06-23,1,,,,,ファイブラインズ,0
738,4010001256157,新規,0,2025-06-23,2025-06-23,株式会社Ａｉｍ,,株式会社,東京都,千代田区,神田須田町１丁目１８番地２,,13,101,1010041,,,,,,,2025-06-23,1,,,,,エイム,0
739,4010001256165,新規,0,2025-06-23,2025-06-23,智家株式会社,,株式会社,東京都,文京区,千石４丁目１４番９号,,13,105,1120011,,,,,,,2025-06-23,1,,,,,チカ,0
740,4010001256173,新規,0,2025-06-23,2025-06-23,株式会社シーフィールドコンサルティング,,株式会社,東京都,中央区,銀座１丁目２２番１１号,,13,102,1040061,,,,,,,2025-06-23,1,,,,,シーフィールドコンサルティング,0
741,4010003047752,新規,0,2025-06-23,2025-06-23,合同会社Ｗ,,合同会社,東京都,中央区,銀座１丁目２７番８号セントラルビル７０３号室,,13,102,1040061,,,,,,,2025-06-23,1,,,,,ダブリュー,0
742,4010003047760,新規,0,2025-06-23,2025-06-23,合同会社ベア,,合同会社,東京都,中央区,銀座１丁目１２番４号Ｎ＆Ｅ・ＢＬＤ．７階,,13,102,1040061,,,,,,,2025-06-23,1,,,,,ベア,0
743,4010005040227,新規,0,2025-06-23,2025-06-23,一般社団法人ノンニコチン推進機構,,その他の設立登記法人,東京都,千代田区,外神田２丁目５番１２号,,13,101,1010021,,,,,,,2025-06-23,1,,,,,ノンニコチンスイシンキコウ,0
748,4010401191219,新規,0,2025-06-23,2025-06-23,株式会社Ｋ‐Ｒａｓｃａｌ,,株式会社,東京都,港区,港南１丁目６番３３－１１０８号,,13,103,1080075,,,,,,,2025-06-23,1,,,,,ケーラスカル,0
763,4010903010025,新規,0,2025-06-23,2025-06-23,Ｒｅｓｉｌｉａ合同会社,,合同会社,東京都,世田谷区,池尻４丁目２８番２１号,,13,112,1540001,,,,,,,2025-06-23,1,,,,,レジリア,0
766,4011001170488,新規,0,2025-06-23,2025-06-23,株式会社Ｆｒｅｉ,,株式会社,東京都,渋谷区,恵比寿西２丁目４番８号ウィンド恵比寿ビル８Ｆ,,13,113,1500021,,,,,,,2025-06-23,1,,,,,フレイ,0
767,4011001170612,新規,0,2025-06-23,2025-06-23,株式会社ブリランテ,,株式会社,東京都,目黒区,八雲５丁目６番１９号コートハウス八雲１０６,,13,110,1520023,,,,,,,2025-06-23,1,,,,,ブリランテ,0
770,4011101112183,新規,0,2025-06-23,2025-06-23,株式会社ニコニコ満福屋,,株式会社,東京都,新宿区,大久保２丁目３番６号シティハウス西大久保Ｂ１Ｆ,,13,104,1690072,,,,,,,2025-06-23,1,,,,,ニコニコマンプクヤ,0
771,4011103016028,新規,0,2025-06-23,2025-06-23,合同会社Ａ．Ｋ．ＮＥＴ,,合同会社,東京都,新宿区,北新宿４丁目３番１０－７０６号,,13,104,1690074,,,,,,,2025-06-23,1,,,,,エーケーネット,0
772,4011105011472,新規,0,2025-06-23,2025-06-23,一般社団法人キュレイテッド・ブックス・フロム・ジャパン,,その他の設立登記法人,東京都,新宿区,西新宿３丁目３番１３号西新宿水間ビル６階,,13,104,1600023,,,,,,,2025-06-23,1,,,,,キュレイテッドブックスフロムジャパン,0
773,4011201026457,新規,0,2025-06-23,2025-06-23,株式会社ＴＯＲＡＮＤ,,株式会社,東京都,中野区,上高田３丁目３４番８号Ｐａｒｋｈｏｕｓｅボヌール２０１,,13,114,1640002,,,,,,,2025-06-23,1,,,,,トランド,0
776,4011401027197,新規,0,2025-06-23,2025-06-23,大友株式会社,,株式会社,東京都,板橋区,中丸町１６番４－３０１号,,13,119,1730026,,,,,,,2025-06-23,1,,,,,オオトモ,0
780,4011803006930,新規,0,2025-06-23,2025-06-23,合同会社和氣,,合同会社,東京都,足立区,入谷９丁目１－２３,,13,121,1210836,,,,,,,2025-06-23,1,,,,,ワキ,0
783,4012803003777,新規,0,2025-06-23,2025-06-23,合同会社結い,,合同会社,東京都,日野市,万願寺１丁目１７番地の１０,,13,212,1910024,,,,,,,2025-06-23,1,,,,,ユイ,0
796,4020003028768,新規,0,2025-06-23,2025-06-23,合同会社大仁堂,,合同会社,神奈川県,横浜市青葉区,市ケ尾町４８３番地５,,14,117,2250024,,,,,,,2025-06-23,1,,,,,ダイジンドウ,0
805,4021003016176,新規,0,2025-06-23,2025-06-23,合同会社ｅｎＶａｌｕｅ,,合同会社,神奈川県,小田原市,鴨宮８２５－７,,14,206,2500874,,,,,,,2025-06-23,1,,,,,エンバリュー,0
808,4030001167187,新規,0,2025-06-23,2025-06-23,株式会社Ｓｏｌｌｅａ,,株式会社,埼玉県,吉川市,大字加藤６１２番地１,,11,243,3420022,,,,,,,2025-06-23,1,,,,,ソレア,0
809,4030001167229,新規,0,2025-06-23,2025-06-23,株式会社ｂｅｆｒｉｅｎｄ,,株式会社,埼玉県,さいたま市大宮区,桜木町２丁目３番地大宮マルイ７階,,11,103,3300854,,,,,,,2025-06-23,1,,,,,ビーフレンド,0
810,4030001167253,新規,0,2025-06-23,2025-06-23,株式会社ＳＴＭ,,株式会社,埼玉県,三郷市,泉１丁目２番地１７,,11,237,3410054,,,,,,,2025-06-23,1,,,,,エスティーエム,0
811,4030001167286,新規,0,2025-06-23,2025-06-23,クワーク永瀬株式会社,,株式会社,埼玉県,吉川市,大字中曽根１６４９番地１,,11,243,3420033,,,,,,,2025-06-23,1,,,,,クワークナガセ,0
822,4040001139326,新規,0,2025-06-23,2025-06-23,株式会社ＢＬＵＥ・ＳＥＡ,,株式会社,千葉県,流山市,おおたかの森西１丁目２０番地の１ルフォン流山おおたかの森１４０５,,12,220,2700128,,,,,,,2025-06-23,1,,,,,ブルーシー,0
823,4040001139350,新規,0,2025-06-23,2025-06-23,株式会社Ｍ’ｓ,,株式会社,千葉県,船橋市,飯山満町２丁目１００８番地１２街区５－２画地・グレイスペア１０２号,,12,204,2740822,,,,,,,2025-06-23,1,,,,,エムズ,0
824,4040001139367,新規,0,2025-06-23,2025-06-23,株式会社Ｌｉｅｎ,,株式会社,千葉県,市川市,曽谷７丁目４－１４,,12,203,2720832,,,,,,,2025-06-23,1,,,,,リアン,0
829,4040003027875,新規,0,2025-06-23,2025-06-23,合同会社ＡＣフォカエ,,合同会社,千葉県,千葉市中央区,松波２丁目４番１８号,,12,101,2600044,,,,,,,2025-06-23,1,,,,,エーシーフォカエ,0
830,4040003027891,新規,0,2025-06-23,2025-06-23,アセットデザイン合同会社,,合同会社,千葉県,市原市,青柳９２１,,12,219,2990102,,,,,,,2025-06-23,1,,,,,アセットデザイン,0
867,4120001276986,新規,0,2025-06-23,2025-06-23,三源バケーション株式会社,,株式会社,大阪府,大阪市西成区,鶴見橋２丁目９－１１三源ハウス２０１,,27,122,5570031,,,,,,,2025-06-23,1,,,,,ミツモトバケーション,0
868,4120001277035,新規,0,2025-06-23,2025-06-23,株式会社Ｇｌｏｖｅ,,株式会社,大阪府,大阪市淀川区,西中島３丁目１１番１４号スプランディッド新大阪キャトル３０８,,27,123,5320011,,,,,,,2025-06-23,1,,,,,グローブ,0
869,4120001277076,新規,0,2025-06-23,2025-06-23,トキワ工業株式会社,,株式会社,大阪府,大阪市生野区,中川東１丁目９－５,,27,116,5440006,,,,,,,2025-06-23,1,,,,,トキワコウギョウ,0
870,4120001277092,新規,0,2025-06-23,2025-06-23,株式会社グランフィールド,,株式会社,大阪府,大阪市北区,長柄中３丁目１１番１号,,27,127,5310062,,,,,,,2025-06-23,1,,,,,グランフィールド,0
871,4120001277134,新規,0,2025-06-23,2025-06-23,株式会社ＳＥＶＥＮ,,株式会社,大阪府,大阪市西区,西本町１丁目１０番２２号,,27,106,5500005,,,,,,,2025-06-23,1,,,,,セブン,0
872,4120001277142,新規,0,2025-06-23,2025-06-23,株式会社ＲＹＯＫＥＮ,,株式会社,大阪府,大阪市平野区,瓜破西１丁目１－１－５号,,27,126,5470025,,,,,,,2025-06-23,1,,,,,リョウケン,0
875,4120003029806,新規,0,2025-06-23,2025-06-23,合同会社グランディール・アカデミエ,,合同会社,大阪府,大阪市中央区,今橋３丁目２番１４号ＫＰＯビル２Ｆ,,27,128,5410042,,,,,,,2025-06-23,1,,,,,グランディールアカデミエ,0
876,4120003029814,新規,0,2025-06-23,2025-06-23,参観合同会社,00139653,合同会社,大阪府,大阪市中央区,島之内１丁目１７番１２号４０１号室,,27,128,5420082,,,,,,,2025-06-23,1,,,,,サンカン,0
879,4120101071957,新規,0,2025-06-23,2025-06-23,株式会社吉田仮設,,株式会社,大阪府,和泉市,納花町２２３番地の１（２０５号）,,27,219,5941116,,,,,,,2025-06-23,1,,,,,ヨシダカセツ,0
889,4130003010558,新規,0,2025-06-23,2025-06-23,合同会社恵,,合同会社,京都府,京都市中京区,西ノ京大炊御門町８番地３９,,26,104,6048467,,,,,,,2025-06-23,1,,,,,メグミ,0
899,4140001139027,新規,0,2025-06-23,2025-06-23,株式会社Ｍｅｄｉｃａｌｌ,,株式会社,兵庫県,神戸市垂水区,美山台３丁目１６番１４号,,28,108,6550874,,,,,,,2025-06-23,1,,,,,メディコール,0
901,4140003022222,新規,0,2025-06-23,2025-06-23,合同会社エムズ企画,,合同会社,兵庫県,たつの市,揖保川町正條３５４番地１,,28,229,6711621,,,,,,,2025-06-23,1,,,,,エムズキカク,0
902,4140003022239,新規,0,2025-06-23,2025-06-23,合同会社Ｔｈｒｅｅ　Ｇｏｏｄ　Ａｓｓｅｔｓ,,合同会社,兵庫県,尼崎市,武庫之荘東２丁目２４番１４号,,28,202,6610032,,,,,,,2025-06-23,1,,,,,スリーグッドアセッツ,0
904,4160001026842,新規,0,2025-06-23,2025-06-23,株式会社ＨＡＣＨＩ　ＨＬＤＧＳ,,株式会社,滋賀県,甲賀市,水口町的場１番地,,25,209,5280020,,,,,,,2025-06-23,1,,,,,ハチホールディングス,0
906,4180001167346,新規,0,2025-06-23,2025-06-23,株式会社ＣＬＮ,,株式会社,愛知県,名古屋市西区,則武新町２丁目２番３０号サンハイツ則武１０６号,,23,104,4510051,,,,,,,2025-06-23,1,,,,,シーエルエヌ,0
907,4180001167370,新規,0,2025-06-23,2025-06-23,株式会社与那嶺重機,,株式会社,愛知県,名古屋市中川区,供米田３丁目２１４番地の１,,23,110,4540984,,,,,,,2025-06-23,1,,,,,ヨナミネジュウキ,0
908,4180001167395,新規,0,2025-06-23,2025-06-23,株式会社Ｓｔｕｄｉｏ　ＧｅｎｅＧｒａｐｈ,,株式会社,愛知県,名古屋市西区,菊井１丁目５―４シャトウノダ２０３,,23,104,4510044,,,,,,,2025-06-23,1,,,,,スタジオジェネグラフ,0
911,4180303006623,新規,0,2025-06-23,2025-06-23,ＬＭＳ　ＳＥＲＶＩＣＥ合同会社,,合同会社,愛知県,岡崎市,上和田町字北屋敷５番地１グランシードクレアＡ－２０１,,23,202,4440201,,,,,,,2025-06-23,1,,,,,エルエムエスサービス,0
918,4200003006887,新規,0,2025-06-23,2025-06-23,合同会社ＯＷＬ,,合同会社,岐阜県,大垣市,林町３丁目１７０番地２,,21,202,5030015,,,,,,,2025-06-23,1,,,,,アウル,0
920,4220003004063,新規,0,2025-06-23,2025-06-23,合同会社ボナベンチャー,,合同会社,石川県,金沢市,間明町２丁目１２５番地１,,17,201,9218005,,,,,,,2025-06-23,1,,,,,ボナベンチャー,0
921,4230001020961,新規,0,2025-06-23,2025-06-23,株式会社ｐｌｕｓＴ,,株式会社,富山県,富山市,中川原２８１,,16,201,9398015,,,,,,,2025-06-23,1,,,,,プラスティー,0
925,4260001040296,新規,0,2025-06-23,2025-06-23,株式会社Ｔｒｉｎｉｔｙ,,株式会社,岡山県,岡山市北区,川入４９番地,,33,101,7010161,,,,,,,2025-06-23,1,,,,,トリニティー,0
928,4290001110451,新規,0,2025-06-23,2025-06-23,株式会社福岡アセット,,株式会社,福岡県,福岡市西区,下山門３丁目２２番２０－４０１号,,40,135,8190052,,,,,,,2025-06-23,1,,,,,フクオカアセット,0
929,4290001110476,新規,0,2025-06-23,2025-06-23,株式会社エステラ,,株式会社,福岡県,福岡市中央区,薬院２丁目１３番３３号,,40,133,8100022,,,,,,,2025-06-23,1,,,,,エステラ,0
946,4340001027450,新規,0,2025-06-23,2025-06-23,株式会社リアンドホーム,,株式会社,鹿児島県,鹿児島市,東開町４番地１８,,46,201,8910115,,,,,,,2025-06-23,1,,,,,リアンドホーム,0
949,4350003004959,新規,0,2025-06-23,2025-06-23,合同会社ウエルフエア．,,合同会社,宮崎県,宮崎市,上野町一丁目２３番地コージーマンション上野町ビル１Ｆ,,45,201,8800011,,,,,,,2025-06-23,1,,,,,ウエルフエア,0
951,4360001035294,新規,0,2025-06-23,2025-06-23,株式会社三昇コーポレーション,,株式会社,沖縄県,中頭郡北谷町,字港１５番地６１ＰａｒａｄｉｓｅＢＬＤ４Ｆ,,47,326,9040114,,,,,,,2025-06-23,1,,,,,サンシンコーポレーション,0
953,4370003007068,新規,0,2025-06-23,2025-06-23,子ども達に学びの場をＤＡＯ合同会社,,合同会社,宮城県,東松島市,野蒜字亀岡８０番,,04,214,9810411,,,,,,,2025-06-23,1,,,,,コドモタチニマナビノバヲダオ,0
954,4370003007159,新規,0,2025-06-23,2025-06-23,合同会社ＭＩＮＩＣＡＴ,,合同会社,宮城県,仙台市青葉区,中央２丁目１１―１９仙南ビル４階―Ａ,,04,101,9800021,,,,,,,2025-06-23,1,,,,,ミニキャット,0
955,4370005010978,新規,0,2025-06-23,2025-06-23,医療法人なごみ会,,その他の設立登記法人,宮城県,石巻市,蛇田字金津町１３－１４,,04,202,9860861,,,,,,,2025-06-23,1,,,,,ナゴミカイ,0
958,4380001035391,新規,0,2025-06-23,2025-06-23,株式会社ｆｒｏｇ,,株式会社,福島県,いわき市,平字田町３３番地の５第３紫ビル２Ｆ,,07,204,9708026,,,,,,,2025-06-23,1,,,,,フロック,0
968,4430001094705,新規,0,2025-06-23,2025-06-23,株式会社ハルミナ,,株式会社,北海道,札幌市手稲区,星置一条６丁目２１番２号,,01,109,0060851,,,,,,,2025-06-23,1,,,,,ハルミナ,0
978,4480001012868,新規,0,2025-06-23,2025-06-23,株式会社風林,,株式会社,徳島県,吉野川市,川島町川島２７３番地,,36,205,7793301,,,,,,,2025-06-23,1,,,,,フウリン,0
987,4700150023791,新規,0,2025-06-23,2015-10-09,大阪木津卸売市場市場協会,,その他,大阪府,大阪市浪速区,敷津東２丁目２－８,,27,111,5560012,,,,,,,2015-10-09,1,,,,,オオサカキヅオロシウリシジヨウシジヨウキヨウカイ,0
988,4700150131231,新規,0,2025-06-23,2025-06-23,ｐｕｔｉａｎｓｈｉｈａｎｊｉａｎｇｑｕｙａｏｌａｉｃａｉｄｉａｎｚｉｓｈａｎｇｗｕｙｏｕｘｉａｎｇｏｎｇｓｉ,,外国会社等,,,,,,,,Ｈａｎｊｉａｎｇ　Ｑｕ　Ｇｕｏｈｕａｎ　Ｚｈｅｎ　Ｈａｎｈｕａ　Ｄｏｎｇ　Ｌｕ　２２９９　Ｈａｏ，Ｐｕｔｉａｎ，Ｆｕｊｉａｎ,,,,,,2025-06-23,1,,,,,プテンシハンジャンクヤオライチャイデンシシャンウユウゲンコウシ,0
992,5010001256107,新規,0,2025-06-23,2025-06-23,クレディオート株式会社,,株式会社,東京都,千代田区,神田和泉町１番地６－１６ヤマトビル４０５,,13,101,1010024,,,,,,,2025-06-23,1,,,,,クレディオート,0
993,5010001256164,新規,0,2025-06-23,2025-06-23,株式会社ＧｒｏｗｔｈＰａｒｔｎｅｒｓ,,株式会社,東京都,文京区,目白台１丁目１７番７号シェラ目白台豊坂３０５,,13,105,1120015,,,,,,,2025-06-23,1,,,,,グロースパートナーズ,0
995,5010003047751,新規,0,2025-06-23,2025-06-23,ＨＪキャピタル合同会社,,合同会社,東京都,文京区,本郷１丁目２９番１０－１５０４号,,13,105,1130033,,,,,,,2025-06-23,1,,,,,エイチジェイキャピタル,0
996,5010003047776,新規,0,2025-06-23,2025-06-23,Ｓｃｅｎｔ　ｏｆ　Ａｒｔ合同会社,,合同会社,東京都,中央区,銀座１丁目１２―４Ｎ＆Ｅ・ＢＬＤ．７階,,13,102,1040061,,,,,,,2025-06-23,1,,,,,セントオヴアート,0
998,5010103002598,新規,0,2025-06-23,2025-06-23,合同会社保田西東京,,合同会社,東京都,八王子市,館町２２３２－３５,,13,201,1930944,,,,,,,2025-06-23,1,,,,,ヤスダニシトウキョウ,0
1000,5010401191192,新規,0,2025-06-23,2025-06-23,株式会社Ｍａｒｑｉｓ,,株式会社,東京都,港区,六本木３丁目１６番１２号六本木ＫＳビル５Ｆ,,13,103,1060032,,,,,,,2025-06-23,1,,,,,マルキス,0
1001,5010403035439,新規,0,2025-06-23,2025-06-23,合同会社サクシードラボ,,合同会社,東京都,港区,虎ノ門１丁目１６番１６号虎ノ門１丁目ＭＧビル３階ブレイン綜合会計事務所内,,13,103,1050001,,,,,,,2025-06-23,1,,,,,サクシードラボ,0
1018,5011001170272,新規,0,2025-06-23,2025-06-23,株式会社レンズ,,株式会社,東京都,渋谷区,本町１丁目５１番１４－７０７号ＳＨＯＷＮ・ＨＡＴＳＵＤＡＩ,,13,113,1510071,,,,,,,2025-06-23,1,,,,,レンズ,0
1019,5011001170289,新規,0,2025-06-23,2025-06-23,株式会社Ａｄｓ　ｉｓ　ａｎｄ　ｔｏ　Ｂｅ,,株式会社,東京都,目黒区,駒場１丁目１２－２８ＴｗｉｎｓＫｏｍａｂａ１０１,,13,110,1530041,,,,,,,2025-06-23,1,,,,,アズイズアンドトゥービー,0
1021,5011003021911,新規,0,2025-06-23,2025-06-23,Ｙ　Ｉｎｔｅｒｎａｔｉｏｎａｌ合同会社,,合同会社,東京都,渋谷区,広尾５丁目４番１１号,,13,113,1500012,,,,,,,2025-06-23,1,,,,,ワイインターナショナル,0
1025,5011103016027,新規,0,2025-06-23,2025-06-23,合同会社タートルクラフト,,合同会社,東京都,新宿区,西新宿３丁目３番１３号西新宿水間ビル６階,,13,104,1600023,,,,,,,2025-06-23,1,,,,,タートルクラフト,0
1026,5011103016043,新規,0,2025-06-23,2025-06-23,Ｇｏ‐Ｅｎ　Ｊａｐａｎ合同会社,,合同会社,東京都,新宿区,四谷４丁目１番地小島ビル４０１,,13,104,1600004,,,,,,,2025-06-23,1,,,,,ゴエンジャパン,0
1028,5011501032229,新規,0,2025-06-23,2025-06-23,ＬＳ株式会社,,株式会社,東京都,荒川区,町屋４丁目１１－６,,13,118,1160001,,,,,,,2025-06-23,1,,,,,エルエス,0
1030,5011601028746,新規,0,2025-06-23,2025-06-23,ＡＮＲＲＥＫ株式会社,,株式会社,東京都,練馬区,貫井２丁目２２番４号マ・メゾン２０１,,13,120,1760021,,,,,,,2025-06-23,1,,,,,アンレック,0
1044,5020001163434,新規,0,2025-06-23,2025-06-23,株式会社野島商店,,株式会社,神奈川県,横浜市青葉区,藤が丘１丁目３９番地４メゾン１３９４－６０３号,,14,117,2270043,,,,,,,2025-06-23,1,,,,,ノジマショウテン,0
1045,5020001163483,新規,0,2025-06-23,2025-06-23,株式会社Ｓ‐ＳＥＮＳＥ,,株式会社,神奈川県,横浜市神奈川区,羽沢町８１４番地７,,14,102,2210863,,,,,,,2025-06-23,1,,,,,エッセンス,0
1046,5020001163517,新規,0,2025-06-23,2025-06-23,株式会社天福,,株式会社,神奈川県,川崎市中原区,木月２丁目１８番２１号,,14,133,2110025,,,,,,,2025-06-23,1,,,,,テンフク,0
1047,5020001163525,新規,0,2025-06-23,2025-06-23,株式会社京王,,株式会社,神奈川県,横浜市神奈川区,台町７番地８ラウム横浜台町６０６号,,14,102,2210834,,,,,,,2025-06-23,1,,,,,ケイオウ,0
1048,5020001163533,新規,0,2025-06-23,2025-06-23,株式会社エアテックサービス,,株式会社,神奈川県,横浜市戸塚区,汲沢町３０５番地５,,14,110,2450062,,,,,,,2025-06-23,1,,,,,エアテックサービス,0
1051,5020003028750,新規,0,2025-06-23,2025-06-23,Ｂｌｕｅｆｉｅｌｄ合同会社,,合同会社,神奈川県,横浜市神奈川区,金港町５－１４クアドリフォリオ８階,,14,102,2210056,,,,,,,2025-06-23,1,,,,,ブルーフィールド,0
1052,5020003028759,新規,0,2025-06-23,2025-06-23,合同会社ＲＥＰＲＯＳ,,合同会社,神奈川県,横浜市港南区,芹が谷３丁目１４‐２３,,14,111,2330006,,,,,,,2025-06-23,1,,,,,リプロス,0
1057,5021001085585,新規,0,2025-06-23,2025-06-23,株式会社アリストテレス・ジャパン,,株式会社,神奈川県,横須賀市,坂本町３丁目２０番地,,14,201,2380043,,,,,,,2025-06-23,1,,,,,アリストテレスジャパン,0
1066,5030001167211,新規,0,2025-06-23,2025-06-23,株式会社スペースクリエイト,,株式会社,埼玉県,桶川市,若宮１丁目２番１０－７０２号,,11,231,3630022,,,,,,,2025-06-23,1,,,,,スペースクリエイト,0
1067,5030001167269,新規,0,2025-06-23,2025-06-23,株式会社ハイパレス,,株式会社,埼玉県,さいたま市南区,南浦和１丁目４番１２号,,11,108,3360017,,,,,,,2025-06-23,1,,,,,ハイパレス,0
1069,5030003027058,新規,0,2025-06-23,2025-06-23,合同会社ＨＡＶＩＴＡ,,合同会社,埼玉県,所沢市,美原町５丁目２０１９－７新所沢サニーハイツ３０９,,11,208,3590045,,,,,,,2025-06-23,1,,,,,ハヴィタ,0
1080,5040003027684,新規,0,2025-06-23,2025-06-23,穗積企画合同会社,,合同会社,千葉県,佐倉市,大崎台１丁目２１番地５藤コーポ１０１号,,12,212,2850817,,,,,,,2025-06-23,1,,,,,ホヅミキカク,0
1081,5040003027858,新規,0,2025-06-23,2025-06-23,満月合同会社,,合同会社,千葉県,柏市,南逆井３丁目２－２７－１階,,12,217,2770043,,,,,,,2025-06-23,1,,,,,マンゲツ,0
1082,5040003027899,新規,0,2025-06-23,2025-06-23,カイリーコンサルティングファーム合同会社,,合同会社,千葉県,市原市,加茂１丁目１番地２,,12,219,2900025,,,,,,,2025-06-23,1,,,,,カイリーコンサルティングファーム,0
1083,5040003027924,新規,0,2025-06-23,2025-06-23,カンブリアン出版合同会社,,合同会社,千葉県,山武市,木原１７４－５２,,12,237,2891212,,,,,,,2025-06-23,1,,,,,カンブリアンシュッパン,0
1086,5050005013649,新規,0,2025-06-23,2025-06-23,一般社団法人地域防災リーダーズ協会,,その他の設立登記法人,茨城県,ひたちなか市,高場５丁目１２番１９,,08,221,3120062,,,,,,,2025-06-23,1,,,,,チイキボウサイリーダーズキョウカイ,0
1088,5060001038319,新規,0,2025-06-23,2025-06-23,ＲＡＭＺＡＮ商会株式会社,,株式会社,栃木県,栃木市,皆川城内町７７２番地３,,09,203,3280067,,,,,,,2025-06-23,1,,,,,ラマザンショウカイ,0
1095,5090001019340,新規,0,2025-06-23,2025-06-23,株式会社翼商会,,株式会社,山梨県,都留市,井倉６５３番地１,,19,204,4020011,,,,,,,2025-06-23,1,,,,,ツバサショウカイ,0
1113,5120001276820,新規,0,2025-06-23,2025-06-23,株式会社ワークス,,株式会社,大阪府,大阪市北区,梅田１丁目３番１－６００号,,27,127,5300001,,,,,,,2025-06-23,1,,,,,ワークス,0
1114,5120001276969,新規,0,2025-06-23,2025-06-23,株式会社Ｂ．Ｔ．エステート,,株式会社,大阪府,大阪市東成区,玉津２丁目１１番２３号,,27,115,5370023,,,,,,,2025-06-23,1,,,,,ビーティーエステート,0
1115,5120001277050,新規,0,2025-06-23,2025-06-23,株式会社ＰＡＬ,,株式会社,大阪府,門真市,上野口町１２番９号ジュネスシャトー３０１号室,,27,223,5710070,,,,,,,2025-06-23,1,,,,,パル,0
1116,5120001277067,新規,0,2025-06-23,2025-06-23,Ｂａｕｍ　Ｈａｕｓ株式会社,,株式会社,大阪府,大阪市中央区,高津３丁目１５番６号,,27,128,5420072,,,,,,,2025-06-23,1,,,,,バウムハウス,0
1117,5120001277075,新規,0,2025-06-23,2025-06-23,株式会社佳和商事,,株式会社,大阪府,大阪市住吉区,長居東４丁目１７番２９号Ｓ．ｆｉｅｌｄ長居４０３号,,27,120,5580004,,,,,,,2025-06-23,1,,,,,カワショウジ,0
1118,5120001277100,新規,0,2025-06-23,2025-06-23,株式会社マルシン商会,,株式会社,大阪府,大阪市住吉区,沢之町１丁目５番２１号２０１,,27,120,5580031,,,,,,,2025-06-23,1,,,,,マルシンショウカイ,0
1119,5120001277133,新規,0,2025-06-23,2025-06-23,株式会社宮里工務店,,株式会社,大阪府,大阪市大正区,小林東３丁目１２番２７号,,27,108,5510011,,,,,,,2025-06-23,1,,,,,ミヤザトコウムテン,0
1124,5120003029722,新規,0,2025-06-23,2025-06-23,合同会社ｏｄｏｍａｒｉ,,合同会社,大阪府,大阪市北区,梅田１丁目２番２号大阪駅前第２ビル１２－１２,,27,127,5300001,,,,,,,2025-06-23,1,,,,,オドマリ,0
1128,5120101071931,新規,0,2025-06-23,2025-06-23,大阪櫻花株式会社,,株式会社,大阪府,河内長野市,南花台２丁目１６番２号,,27,216,5860077,,,,,,,2025-06-23,1,,,,,オオサカオウカ,0
1131,5120903005723,新規,0,2025-06-23,2025-06-23,合同会社時継,,合同会社,大阪府,茨木市,山手台７丁目５－１４,,27,211,5670009,,,,,,,2025-06-23,1,,,,,トキツグ,0
1132,5122001039348,新規,0,2025-06-23,2025-06-23,株式会社超ハル,,株式会社,大阪府,東大阪市,足代１丁目１８－７,,27,227,5770841,,,,,,,2025-06-23,1,,,,,チョウハル,0
1134,5122003003203,新規,0,2025-06-23,2025-06-23,合同会社高速成長,,合同会社,大阪府,東大阪市,衣摺１丁目９番１１号ユーハイム衣摺ＩＩ４０５号,00139645,27,227,5770827,,,,,,,2025-06-23,1,,,,,コウソクセイチョウ,0
1140,5130003010516,新規,0,2025-06-23,2025-06-23,合同会社ＨｏｅＫ,,合同会社,京都府,京都市東山区,下新シ町３４５,,26,105,6050914,,,,,,,2025-06-23,1,,,,,フーク,0
1141,5130003010540,新規,0,2025-06-23,2025-06-23,合同会社ＭＡＸ,,合同会社,京都府,京都市伏見区,竹田東小屋ノ内町２７番地エクセル竹田２０８号,,26,109,6128448,,,,,,,2025-06-23,1,,,,,マックス,0
1148,5140001139001,新規,0,2025-06-23,2025-06-23,株式会社テテ,,株式会社,兵庫県,加古川市,神野町西条１２８８番地の２,,28,210,6750009,,,,,,,2025-06-23,1,,,,,テテ,0
1149,5140001139018,新規,0,2025-06-23,2025-06-23,株式会社Ｔｒｅｓ,,株式会社,兵庫県,三田市,弥生が丘２丁目２３番地２,,28,219,6691546,,,,,,,2025-06-23,1,,,,,トレス,0
1150,5140001139050,新規,0,2025-06-23,2025-06-23,株式会社ハコモノ,,株式会社,兵庫県,川西市,小戸２丁目６番１１号河島ビル２階,,28,217,6660014,,,,,,,2025-06-23,1,,,,,ハコモノ,0
1156,5160001026841,新規,0,2025-06-23,2025-06-23,株式会社ＴＭ　ＦＡＣＴＯＲＹ,,株式会社,滋賀県,大津市,坂本１丁目２０番４３号,,25,201,5200113,,,,,,,2025-06-23,1,,,,,ティーエムファクトリー,0
1159,5180001167361,新規,0,2025-06-23,2025-06-23,株式会社おやこうこうホールディングス,,株式会社,愛知県,名古屋市中川区,柳森町２５１１番地,,23,110,4540871,,,,,,,2025-06-23,1,,,,,オヤコウコウホールディングス,0
1170,5200001043915,新規,0,2025-06-23,2025-06-23,株式会社堀エンジニアリング,,株式会社,岐阜県,中津川市,瀬戸１２３９番地の８,,21,206,5080111,,,,,,,2025-06-23,1,,,,,ホリエンジニアリング,0
1171,5200003006886,新規,0,2025-06-23,2025-06-23,今井電気合同会社,,合同会社,岐阜県,多治見市,旭ケ丘７丁目１０番地の８,,21,204,5070071,,,,,,,2025-06-23,1,,,,,イマイデンキ,0
1172,5220001026752,新規,0,2025-06-23,2025-06-23,株式会社ポタジエ,,株式会社,石川県,金沢市,泉野出町２丁目２２番６号,,17,201,9218116,,,,,,,2025-06-23,1,,,,,ポタジエ,0
1174,5230001020960,新規,0,2025-06-23,2025-06-23,株式会社Ｃｒｕ,,株式会社,富山県,中新川郡上市町,稗田７番地１ＮＯＯＫＩＴＯ３０３号,,16,322,9300362,,,,,,,2025-06-23,1,,,,,クル,0
1187,5260003005230,新規,0,2025-06-23,2025-06-23,合同会社まるっと,,合同会社,岡山県,岡山市北区,北長瀬表町２丁目１７番８０号ＢＲＡＮＣＨ岡山北長瀬ハッシュタグ岡山コワーキングスペース,,33,101,7000962,,,,,,,2025-06-23,1,,,,,マルット,0
1191,5290001110418,新規,0,2025-06-23,2025-06-23,Ｇ＆Ｈ株式会社,,株式会社,福岡県,福岡市城南区,神松寺１丁目１２番３０号１階,,40,136,8140121,,,,,,,2025-06-23,1,,,,,ジーアンドエイチ,0
1192,5290001110459,新規,0,2025-06-23,2025-06-23,モエリンク株式会社,,株式会社,福岡県,福岡市博多区,下呉服町９番２１号カルチェ恵比寿３０７号室,,40,132,8120034,,,,,,,2025-06-23,1,,,,,モエリンク,0
1193,5290001110475,新規,0,2025-06-23,2025-06-23,株式会社快復屋,,株式会社,福岡県,福岡市南区,野間４丁目３１番７号,,40,134,8150041,,,,,,,2025-06-23,1,,,,,カイフクヤ,0
1194,5290001110500,新規,0,2025-06-23,2025-06-23,株式会社セカンドアソシエイツ,,株式会社,福岡県,福岡市早良区,次郎丸１丁目２０－３０ＭタウンＩＩＩ－Ｉ棟,00139646,40,137,8140165,,,,,,,2025-06-23,1,,,,,セカンドアソシエイツ,0
1196,5290003016992,新規,0,2025-06-23,2025-06-23,合同会社つたわる,,合同会社,福岡県,福岡市中央区,小笹２丁目５番１号ロイヤルマンション小笹４０２号,,40,133,8100033,,,,,,,2025-06-23,1,,,,,ツタワル,0
1200,5290005019779,新規,0,2025-06-23,2025-06-23,一般社団法人ＦＵＫＵＯＫＡ食探求ラボ,,その他の設立登記法人,福岡県,福岡市博多区,上川端町１１－１－６０２新川端グレイスマンション,,40,132,8120026,,,,,,,2025-06-23,1,,,,,フクオカショクタンキュウラボ,0
1204,5310001019656,新規,0,2025-06-23,2025-06-23,ＩｎｖＥｓｔａｔｅ株式会社,,株式会社,長崎県,東彼杵郡波佐見町,宿郷１４５１,,42,323,8593715,,,,,,,2025-06-23,1,,,,,インベステイト,0
1206,5310005008861,新規,0,2025-06-23,2025-06-23,特定非営利活動法人Ｎ・ＢＯＳＳ,,その他の設立登記法人,長崎県,長崎市,大浜町１６０５番地１コアマンションマリナシティＢ－５０６号,,42,201,8500066,,,,,,,2025-06-23,1,,,,,エヌボス,0
1209,5320001021173,新規,0,2025-06-23,2025-06-23,株式会社ＧＡＲＹＯ,,株式会社,大分県,大分市,東浜１丁目１番１４－４０３号ＧＲＡＮ・ＧＲＯＭ東浜,,44,201,8700932,,,,,,,2025-06-23,1,,,,,ガリョウ,0
1211,5320005010247,新規,0,2025-06-23,2025-06-23,一般社団法人ふぐ推進協議会,,その他の設立登記法人,大分県,佐伯市,野岡町１丁目８番２７号,,44,205,8760815,,,,,,,2025-06-23,1,,,,,フグスイシンキョウギカイ,0
1215,5330003011064,新規,0,2025-06-23,2025-06-23,恵比寿物産合同会社,,合同会社,熊本県,熊本市中央区,練兵町４２番７号,,43,101,8600017,,,,,,,2025-06-23,1,,,,,エビスブッサン,0
1219,5340001027441,新規,0,2025-06-23,2025-06-23,株式会社輝色,,株式会社,鹿児島県,鹿児島市,吉野町５１１６番地５,,46,201,8920871,,,,,,,2025-06-23,1,,,,,キイロ,0
1223,5370001052742,新規,0,2025-06-23,2025-06-23,株式会社オット,,株式会社,宮城県,仙台市青葉区,大町１丁目４番１０－３０３号,,04,101,9800804,,,,,,,2025-06-23,1,,,,,オット,0
1225,5370003007067,新規,0,2025-06-23,2025-06-23,フードロスＤＡＯ合同会社,,合同会社,宮城県,東松島市,野蒜字亀岡８０番,,04,214,9810411,,,,,,,2025-06-23,1,,,,,フードロスダオ,0
1228,5400001017080,新規,0,2025-06-23,2025-06-23,壱や株式会社,,株式会社,岩手県,盛岡市,中ノ橋通２丁目１０番２９号,,03,201,0200871,,,,,,,2025-06-23,1,,,,,イチヤ,0
1244,5490001011091,新規,0,2025-06-23,2025-06-23,株式会社Ｊｏｙ　Ｃｏｍｐａｎｙ,,株式会社,高知県,高知市,神田２２８３番地２２,,39,201,7808040,,,,,,,2025-06-23,1,,,,,ジョイカンパニー,0
1247,5500001026360,新規,0,2025-06-23,2025-06-23,株式会社ＳＢＡ,,株式会社,愛媛県,新居浜市,庄内町１丁目１２番４３号,,38,205,7920811,,,,,,,2025-06-23,1,,,,,エスビーエー,0
1249,5700150131230,新規,0,2025-06-23,2025-06-23,ｓｈｅｎｚｈｅｎｓｈｉ　ｘｉｎｇｌｉｎ　ｃｈｕａｎｇｘｉｎ　ｋｅｊｉ　ｙｏｕｘｉａｎ　ｇｏｎｇｓｉ,,外国会社等,,,,,,,,ｓｈｅｎｚｈｅｎ　ｑｉａｎｈａｉ　ｓｈｅｎｇａｎｇ　ｈｅｚｕｏｑｕ　ｎａｎｓｈａｎ　ｊｉｅｄａｏ　ｚｉｍａｏｘｉｊｉｅ１８ｈａｏｑｉａｎｈａｉｘｉａｎｇｂｉｎ　ｄａｓｈａ１１０９ｈａｏ－０２８Ａ,,,,,,2025-06-23,1,,,,,シンセンシシンリンツゥアンシンカギユウゲンコウシ,0
1256,6010001256106,新規,0,2025-06-23,2025-06-23,株式会社ａｒｅａ３５８,,株式会社,東京都,千代田区,永田町２丁目１７番地５号ローレル永田町１１０号室,,13,101,1000014,,,,,,,2025-06-23,1,,,,,エリアサンゴウハチ,0
1258,6010003047759,新規,0,2025-06-23,2025-06-23,ＦＷＥ　Ｏｂｏｒｏ合同会社,,合同会社,東京都,中央区,銀座１丁目２２番１１号銀座大竹ビジデンス２Ｆ,,13,102,1040061,,,,,,,2025-06-23,1,,,,,エフダブリューイーオボロ,0
1271,6010401191209,新規,0,2025-06-23,2025-06-23,株式会社ＦＯＯＬ,,株式会社,東京都,港区,南麻布４丁目９－３ホーマットシャロン（３０５）,,13,103,1060047,,,,,,,2025-06-23,1,,,,,フール,0
1272,6010403035413,新規,0,2025-06-23,2025-06-23,合同会社ＧＡＰＳ,,合同会社,東京都,港区,赤坂５丁目４番９号赤坂五丁目ビル２階,,13,103,1070052,,,,,,,2025-06-23,1,,,,,ギャップス,0
1273,6010403035438,新規,0,2025-06-23,2025-06-23,ＳＭＰマネジメント合同会社,,合同会社,東京都,港区,高輪２丁目１－１３－７０５,,13,103,1080074,,,,,,,2025-06-23,1,,,,,エスエムピーマネジメント,0
1287,6011001170288,新規,0,2025-06-23,2025-06-23,Ｕｎｒｏｂｅ株式会社,,株式会社,東京都,渋谷区,大山町３４－３ミュプレ代々木上原１０８,,13,113,1510065,,,,,,,2025-06-23,1,,,,,アンローブ,0
1288,6011001170379,新規,0,2025-06-23,2025-06-23,株式会社自然の賜物,,株式会社,東京都,渋谷区,恵比寿南３丁目１番２号,,13,113,1500022,,,,,,,2025-06-23,1,,,,,シゼンノタマモノ,0
1290,6011101112157,新規,0,2025-06-23,2025-06-23,株式会社Ｊａｐａｎ　ｉｎｃｕｂａｔｉｏｎ　Ｇｒｏｕｐ,,株式会社,東京都,新宿区,新宿６丁目２４番２０号,,13,104,1600022,,,,,,,2025-06-23,1,,,,,ジャパンインキュベーショングループ,0
1293,6011401027187,新規,0,2025-06-23,2025-06-23,株式会社レアルス,,株式会社,東京都,板橋区,加賀２丁目７番１－２０６号,,13,119,1730003,,,,,,,2025-06-23,1,,,,,レアルス,0
1295,6011501032228,新規,0,2025-06-23,2025-06-23,株式会社Ｔｏｔａｌ　Ｇｉｇａ　Ｓｙｓｔｅｍｓ,,株式会社,東京都,荒川区,西日暮里１丁目６１番２３－１０１号西日暮里フラワーマンション,,13,118,1160013,,,,,,,2025-06-23,1,,,,,トータルギガシステムズ,0
1318,6020001163425,新規,0,2025-06-23,2025-06-23,ワシラヘルス株式会社,,株式会社,神奈川県,横浜市神奈川区,沢渡２３番地,,14,102,2210844,,,,,,,2025-06-23,1,,,,,ワシラヘルス,0
1319,6020001163490,新規,0,2025-06-23,2025-06-23,上野グローバル・スキル・リンク株式会社,,株式会社,神奈川県,横浜市中区,山下町７０番地３,,14,104,2310023,,,,,,,2025-06-23,1,,,,,ウエノグローバルスキルリンク,0
1320,6020001163516,新規,0,2025-06-23,2025-06-23,双日京都ファーマテック株式会社,,株式会社,神奈川県,横浜市港北区,新横浜２丁目３番地１２,,14,109,2220033,,,,,,,2025-06-23,1,,,,,ソウジツキョウトファーマテック,0
1324,6020003028700,新規,0,2025-06-23,2025-06-23,合同会社ニューサンス,,合同会社,神奈川県,横浜市西区,浅間町１丁目４番３号ウィザードビル４０３,,14,103,2200072,,,,,,,2025-06-23,1,,,,,ニューサンス,0
1325,6020003028766,新規,0,2025-06-23,2025-06-23,合同会社アクチュアリーリアルエステート研究社,,合同会社,神奈川県,川崎市高津区,坂戸１丁目１７番３‐７１１号,,14,134,2130012,,,,,,,2025-06-23,1,,,,,アクチュアリーリアルエステートケンキュウシャ,0
1326,6020003028782,新規,0,2025-06-23,2025-06-23,エルティーエフ合同会社,,合同会社,神奈川県,川崎市麻生区,向原３丁目１７番１８号,,14,137,2150007,,,,,,,2025-06-23,1,,,,,エルティーエフ,0
1336,6030001167169,新規,0,2025-06-23,2025-06-23,ＴＣ４５度株式会社,,株式会社,埼玉県,久喜市,菖蒲町上栢間３６８３,,11,232,3460114,,,,,,,2025-06-23,1,,,,,ティーシーヨンジュウゴド,0
1337,6030001167210,新規,0,2025-06-23,2025-06-23,株式会社Ｐ．ＮＥＴ,,株式会社,埼玉県,草加市,谷塚仲町８１番地２,,11,221,3400025,,,,,,,2025-06-23,1,,,,,パートナーネットワーク,0
1338,6030001167251,新規,0,2025-06-23,2025-06-23,株式会社Ｋ＆Ｓ,,株式会社,埼玉県,所沢市,大字北秋津７９０番地の２,,11,208,3590038,,,,,,,2025-06-23,1,,,,,ケイアンドエス,0
1340,6030003027016,新規,0,2025-06-23,2025-06-23,ニコン商会合同会社,,合同会社,埼玉県,さいたま市西区,大字二ツ宮１８９番地１,,11,101,3310065,,,,,,,2025-06-23,1,,,,,ニコンショウカイ,0
1347,6040001139316,新規,0,2025-06-23,2025-06-23,株式会社吉野組,00139654,株式会社,千葉県,船橋市,湊町２丁目１番１８号新堀ギタービル２Ｆ,,12,204,2730011,,,,,,,2025-06-23,1,,,,,ヨシノグミ,0
1348,6040001139357,新規,0,2025-06-23,2025-06-23,株式会社東京国際文化芸術センター,,株式会社,千葉県,茂原市,本納５１１番地２５,,12,210,2994114,,,,,,,2025-06-23,1,,,,,トウキョウコクサイブンカゲイジュツセンター,0
1352,6040003027873,新規,0,2025-06-23,2025-06-23,合同会社ＡＣタリア,,合同会社,千葉県,千葉市中央区,松波２丁目４番１８号,,12,101,2600044,,,,,,,2025-06-23,1,,,,,エーシータリア,0
1353,6040003027881,新規,0,2025-06-23,2025-06-23,合同会社渦愛ＵＺＵＭＥ,,合同会社,千葉県,船橋市,南海神１丁目１番９号,,12,204,2730023,,,,,,,2025-06-23,1,,,,,ウズメウズメ,0
1354,6040003027907,新規,0,2025-06-23,2025-06-23,合同会社美健塗装,,合同会社,千葉県,千葉市中央区,大森町４２６番地６,,12,101,2600811,,,,,,,2025-06-23,1,,,,,ビケントソウ,0
1358,6050003009367,新規,0,2025-06-23,2025-06-23,合同会社ピースリンク,,合同会社,茨城県,笠間市,福田９０６―６,,08,216,3091603,,,,,,,2025-06-23,1,,,,,ピースリンク,0
1363,6080101025577,新規,0,2025-06-23,2025-06-23,株式会社ＭＡＳＵＤＡＳ,,株式会社,静岡県,三島市,寿町７―１７ハイムスギヤマ１０７,,22,206,4110039,,,,,,,2025-06-23,1,,,,,マスダス,0
1384,6120001276860,新規,0,2025-06-23,2025-06-23,瑞良株式会社,,株式会社,大阪府,大阪市福島区,鷺洲５丁目１２番２－１１２８号,,27,103,5530002,,,,,,,2025-06-23,1,,,,,ミズヨイ,0
1385,6120001277041,新規,0,2025-06-23,2025-06-23,兆一心株式会社,,株式会社,大阪府,大阪市北区,天神橋２丁目１－２３－４階,,27,127,5300041,,,,,,,2025-06-23,1,,,,,チョウイッシン,0
1386,6120001277058,新規,0,2025-06-23,2025-06-23,日本尿素水販売株式会社,,株式会社,大阪府,大阪市淀川区,三津屋中１丁目４番４４号シャーメゾンユカリナグリーン神崎川１０３号,,27,123,5320036,,,,,,,2025-06-23,1,,,,,ニホンニョウソスイハンバイ,0
1387,6120001277074,新規,0,2025-06-23,2025-06-23,株式会社Ｎｅｘｏｖｉａ,,株式会社,大阪府,大阪市東淀川区,東中島３丁目１６番６号,,27,114,5330033,,,,,,,2025-06-23,1,,,,,ネクソヴィア,0
1388,6120001277099,新規,0,2025-06-23,2025-06-23,株式会社欣秀,,株式会社,大阪府,大阪市東住吉区,住道矢田６丁目５番１号,,27,121,5460022,,,,,,,2025-06-23,1,,,,,キュンシュウ,0
1389,6120001277132,新規,0,2025-06-23,2025-06-23,インプレイス株式会社,,株式会社,大阪府,大阪市北区,梅田１丁目１－３大阪駅前第３ビル２９階１－１－１号室,,27,127,5300001,,,,,,,2025-06-23,1,,,,,インプレイス,0
1392,6120003029812,新規,0,2025-06-23,2025-06-23,ＴＡＩＹＯ合同会社,,合同会社,大阪府,大阪市西区,靱本町２丁目６番１５号,,27,106,5500004,,,,,,,2025-06-23,1,,,,,タイヨー,0
1393,6120003029820,新規,0,2025-06-23,2025-06-23,真和堂合同会社,,合同会社,大阪府,大阪市福島区,玉川２丁目１０番２１号ハイツブラウン５０２号室,,27,103,5530004,,,,,,,2025-06-23,1,,,,,シンワドウ,0
1411,6140003022229,新規,0,2025-06-23,2025-06-23,合同会社神戸運送便,,合同会社,兵庫県,神戸市長田区,東尻池町６丁目４番７号,,28,106,6530022,,,,,,,2025-06-23,1,,,,,コウベウンシソウビン,0
1412,6160001026840,新規,0,2025-06-23,2025-06-23,株式会社ブレッシング,,株式会社,滋賀県,栗東市,安養寺３丁目３番１７号,,25,208,5203015,,,,,,,2025-06-23,1,,,,,ブレッシング,0
1424,6190001032332,新規,0,2025-06-23,2025-06-23,元三ホールディングス株式会社,,株式会社,三重県,四日市市,中川原３丁目１番４０号,,24,202,5100833,,,,,,,2025-06-23,1,,,,,モトサンホールディングス,0
1425,6200001043914,新規,0,2025-06-23,2025-06-23,株式会社冨貴堂,,株式会社,岐阜県,岐阜市,六条南１丁目２－１７－２階,,21,201,5008358,,,,,,,2025-06-23,1,,,,,フウキドウ,0
1439,6290001110441,新規,0,2025-06-23,2025-06-23,オルタスクソリューション株式会社,,株式会社,福岡県,福岡市南区,大橋１丁目１３番１２－２０１号,,40,134,8150033,,,,,,,2025-06-23,1,,,,,オルタスクソリューション,0
1440,6290001110466,新規,0,2025-06-23,2025-06-23,株式会社ＬＥＡＦ,,株式会社,福岡県,筑紫野市,大字阿志岐１３２番地５,,40,217,8180011,,,,,,,2025-06-23,1,,,,,リーフ,0
1447,6300003002305,新規,0,2025-06-23,2025-06-23,合同会社マックスファーム,,合同会社,佐賀県,唐津市,東山田野田７４０番地,,41,202,8470801,,,,,,,2025-06-23,1,,,,,マックスファーム,0
1452,6340001027457,新規,0,2025-06-23,2025-06-23,株式会社ＳＵＳＵＭＵ,,株式会社,鹿児島県,鹿児島市,加治屋町１２番８号福岡デンタルビル５０１,,46,201,8920846,,,,,,,2025-06-23,1,,,,,ススム,0
1455,6360001035367,新規,0,2025-06-23,2025-06-23,株式会社ＢＥ　ＴＨＥ　ＬＩＧＨＴ,,株式会社,沖縄県,宮古島市,平良字東仲宗根７７０番地５,,47,214,9060007,,,,,,,2025-06-23,1,,,,,ビーザライト,0
1463,6410005006648,新規,0,2025-06-23,2025-06-23,一般社団法人Ｇｒｅｅｎ　Ｖｉｌｌａｇｅ,,その他の設立登記法人,秋田県,大館市,粕田字村西５５番地,,05,204,0170004,,,,,,,2025-06-23,1,,,,,グリーンヴィレッジ,0
1466,6430001094711,新規,0,2025-06-23,2025-06-23,株式会社ＴＥＴＳＵＧＡＫＵ,,株式会社,北海道,札幌市北区,北二十一条西１１丁目北海道大学フード＆メディカルイノベーション国際拠点１階ＨＸ内,,01,102,0010021,,,,,,,2025-06-23,1,,,,,テツガク,0
1471,6470001020770,新規,0,2025-06-23,2025-06-23,株式会社Ｍａｉｓｏｎ　Ｃｏｃｏ,,株式会社,香川県,高松市,上福岡町２０３１番地１４ＴＭハイツ２０２号,,37,201,7600077,,,,,,,2025-06-23,1,,,,,メゾンココ,0
1472,6480001012866,新規,0,2025-06-23,2025-06-23,ＶＡＮＴＩＳ株式会社,,株式会社,徳島県,徳島市,川内町旭野８９番地の７,,36,201,7710101,,,,,,,2025-06-23,1,,,,,バンティス,0
1474,6700150006720,新規,0,2025-06-23,2015-10-09,東洋大学甫水会,,その他,東京都,文京区,白山５丁目２８－２０,,13,105,1120001,,,,,,,2015-10-09,1,,,,,トウヨウダイガクホスイカイ,0
1483,7010001256170,新規,0,2025-06-23,2025-06-23,株式会社ＢＬＯＯＭ,,株式会社,東京都,中央区,佃１丁目４番４号,,13,102,1040051,,,,,,,2025-06-23,1,,,,,ブルーム,0
1501,7010403035412,新規,0,2025-06-23,2025-06-23,合同会社大晟,,合同会社,東京都,港区,六本木３丁目１６番１２号六本木ＫＳビル５Ｆ,,13,103,1060032,,,,,,,2025-06-23,1,,,,,タイセイ,0
1507,7010603011634,新規,0,2025-06-23,2025-06-23,クシィ・グローブ合同会社,,合同会社,東京都,墨田区,京島１丁目８－８,,13,107,1310046,,,,,,,2025-06-23,1,,,,,クシィグローブ,0
1508,7010605004470,新規,0,2025-06-23,2025-06-23,一般社団法人といろ,,その他の設立登記法人,東京都,江東区,大島４丁目４番３号,,13,108,1360072,,,,,,,2025-06-23,1,,,,,トイロ,0
1516,7010901057627,新規,0,2025-06-23,2025-06-23,建築計画のデータベース株式会社,,株式会社,東京都,世田谷区,深沢４丁目３３番２号,,13,112,1580081,,,,,,,2025-06-23,1,,,,,ケンチクケイカクノデータベース,0
1527,7011001170279,新規,0,2025-06-23,2025-06-23,株式会社Ｇｒｏｕｐ　Ｐ,,株式会社,東京都,渋谷区,神南１丁目１１番４号ＦＰＧリンクス神南５階,,13,113,1500041,,,,,,,2025-06-23,1,,,,,グループピー,0
1528,7011001170378,新規,0,2025-06-23,2025-06-23,株式会社Ｚｅｎｉｔｈ　Ｃｏｄｅ,,株式会社,東京都,渋谷区,円山町５番５号Ｎａｖｉ渋谷Ｖ３階,,13,113,1500044,,,,,,,2025-06-23,1,,,,,ゼニスコード,0
1530,7011101112131,新規,0,2025-06-23,2025-06-23,株式会社サンクレストホールディングス,,株式会社,東京都,新宿区,西新宿４丁目１５番７号パシフィックマークス新宿パークサイド,,13,104,1600023,,,,,,,2025-06-23,1,,,,,サンクレストホールディングス,0
1531,7011101112189,新規,0,2025-06-23,2025-06-23,株式会社マツモトライフテック,,株式会社,東京都,新宿区,大久保２丁目１９番４号いせ市ビル４階,,13,104,1690072,,,,,,,2025-06-23,1,,,,,マツモトライフテック,0
1545,7020001163507,新規,0,2025-06-23,2025-06-23,株式会社トライビジョンズ,,株式会社,神奈川県,川崎市川崎区,駅前本町１１番地２川崎フロンティアビル４階,,14,131,2100007,,,,,,,2025-06-23,1,,,,,トライビジョンズ,0
1546,7020001163523,新規,0,2025-06-23,2025-06-23,恒永株式会社,,株式会社,神奈川県,横浜市西区,浜松町２番２５－４０８号,,14,103,2200055,,,,,,,2025-06-23,1,,,,,コウエイ,0
1552,7021001085567,新規,0,2025-06-23,2025-06-23,株式会社ＯＰＳ,,株式会社,神奈川県,綾瀬市,深谷中５丁目７番２０号,,14,218,2521107,,,,,,,2025-06-23,1,,,,,オーピーエス,0
1553,7021003016149,新規,0,2025-06-23,2025-06-23,相続遺言の相談窓口合同会社,,合同会社,神奈川県,厚木市,妻田東２丁目３０番３５号,,14,212,2430813,,,,,,,2025-06-23,1,,,,,ソウゾクイゴンノソウダンマドグチ,0
1559,7030001167218,新規,0,2025-06-23,2025-06-23,株式会社新井プロパティマネジメント,,株式会社,埼玉県,春日部市,西金野井１００番地３２,,11,214,3440112,,,,,,,2025-06-23,1,,,,,アライプロパティマネジメント,0
1560,7030001167226,新規,0,2025-06-23,2025-06-23,恵宏株式会社,,株式会社,埼玉県,八潮市,八潮４丁目９番地１０－３Ｆ,,11,234,3400815,,,,,,,2025-06-23,1,,,,,エコウ,0
1561,7030001167234,新規,0,2025-06-23,2025-06-23,株式会社Ｍａｌｉｅ,,株式会社,埼玉県,さいたま市緑区,大字大牧１４３４番地２４,,11,109,3360922,,,,,,,2025-06-23,1,,,,,マーリエ,0
1567,7030003026982,新規,0,2025-06-23,2025-06-23,合同会社彩創社,,合同会社,埼玉県,鶴ヶ島市,大字五味ヶ谷８８－１１,,11,241,3502202,,,,,,,2025-06-23,1,,,,,サイソウシャ,0
1568,7030003027048,新規,0,2025-06-23,2025-06-23,合同会社Ｎｅｉｎ　ｈｅａｒｔｓ,,合同会社,埼玉県,八潮市,緑町４丁目２６番２２,,11,234,3400808,,,,,,,2025-06-23,1,,,,,ナインハーツ,0
1574,7040001139323,新規,0,2025-06-23,2025-06-23,株式会社リリアーナ・プランニング,,株式会社,千葉県,松戸市,新松戸３丁目２９６番地サンライトパストラル壱番街Ｄ－２０５,,12,207,2700034,,,,,,,2025-06-23,1,,,,,リリアーナプランニング,0
1575,7040003027880,新規,0,2025-06-23,2025-06-23,合同会社ＡＣウラニア,,合同会社,千葉県,千葉市中央区,松波２丁目４番１８号,,12,101,2600044,,,,,,,2025-06-23,1,,,,,エーシーウラニア,0
1576,7040003027889,新規,0,2025-06-23,2025-06-23,合同会社響月,,合同会社,千葉県,船橋市,前原西２丁目１３番３号第一辰巳ビル２階,,12,204,2740825,,,,,,,2025-06-23,1,,,,,キョウゲツ,0
1581,7070001043035,新規,0,2025-06-23,2025-06-23,株式会社群成工,,株式会社,群馬県,安中市,下秋間２４３８番地３,,10,211,3790104,,,,,,,2025-06-23,1,,,,,グンセイコウ,0
1583,7080103003357,新規,0,2025-06-23,2025-06-23,ＵＭＡ合同会社,,合同会社,静岡県,下田市,西本郷５－３０,,22,219,4150000,,,,,,,2025-06-23,1,,,,,ユーマ,0
1600,7120001277008,新規,0,2025-06-23,2025-06-23,株式会社ＸＹＺ,,株式会社,大阪府,大阪市東住吉区,田辺１丁目１番６号,,27,121,5460031,,,,,,,2025-06-23,1,,,,,エックスワイゼット,0
1601,7120001277049,新規,0,2025-06-23,2025-06-23,翊智株式会社,,株式会社,大阪府,大阪市西成区,萩之茶屋２丁目６番４号ニューかめや１７１号室,,27,122,5570004,,,,,,,2025-06-23,1,,,,,ヨクチ,0
1602,7120001277065,新規,0,2025-06-23,2025-06-23,株式会社アキマル,,株式会社,大阪府,大阪市天王寺区,堀越町１６番１０号大信ビル８階,,27,109,5430056,,,,,,,2025-06-23,1,,,,,アキマル,0
1603,7120001277098,新規,0,2025-06-23,2025-06-23,リジュアル株式会社,,株式会社,大阪府,大阪市城東区,今福西６丁目２番１－１５０８号,,27,118,5360004,,,,,,,2025-06-23,1,,,,,リジュアル,0
1605,7120003029786,新規,0,2025-06-23,2025-06-23,家具レンタルセブンス合同会社,,合同会社,大阪府,大阪市中央区,北浜３丁目５番２２号オリックス淀屋橋ビル７階,,27,128,5410041,,,,,,,2025-06-23,1,,,,,カグレンタルセブンス,0
1608,7120101071946,新規,0,2025-06-23,2025-06-23,ｇｒａｎｅｔｅｃ株式会社,,株式会社,大阪府,泉大津市,板原町４丁目２０－３０,,27,206,5950033,,,,,,,2025-06-23,1,,,,,グランイーテック,0
1614,7122001039354,新規,0,2025-06-23,2025-06-23,吉森株式会社,,株式会社,大阪府,柏原市,大字青谷３７５－１０２号室,,27,221,5820014,,,,,,,2025-06-23,1,,,,,ヨシモリ,0
1615,7122001039362,新規,0,2025-06-23,2025-06-23,株式会社フラットテクノ,,株式会社,大阪府,大東市,赤井３丁目１１－１４,,27,218,5740046,,,,,,,2025-06-23,1,,,,,フラットテクノ,0
1619,7130001079989,新規,0,2025-06-23,2025-06-23,株式会社炭輝,,株式会社,京都府,乙訓郡大山崎町,字大山崎小字高橋１３番地１１,,26,303,6180071,,,,,,,2025-06-23,1,,,,,タンキ,0
1624,7140001138991,新規,0,2025-06-23,2025-06-23,株式会社ラビットテール,,株式会社,兵庫県,神戸市中央区,元町通５丁目８番４－３０１号,,28,110,6500022,,,,,,,2025-06-23,1,,,,,ラビットテール,0
1625,7140003022228,新規,0,2025-06-23,2025-06-23,合同会社ＹＩＣ,,合同会社,兵庫県,神戸市東灘区,住吉台２－１２－５０４,,28,101,6580062,,,,,,,2025-06-23,1,,,,,ワイアイシー,0
1630,7170001018679,新規,0,2025-06-23,2025-06-23,株式会社三優ビジネスサポート,,株式会社,和歌山県,和歌山市,永穂２８２番地１,,30,201,6496333,,,,,,,2025-06-23,1,,,,,サンユウビジネスサポート,0
1636,7180301039928,新規,0,2025-06-23,2025-06-23,株式会社いち,,株式会社,愛知県,豊田市,駒新町大坂１００番地１,,23,211,4730926,,,,,,,2025-06-23,1,,,,,イチ,0
1640,7200003006892,新規,0,2025-06-23,2025-06-23,合同会社輝龍,,合同会社,岐阜県,本巣郡北方町,北方１６番地の１リバティ北方２０４,,21,421,5010431,,,,,,,2025-06-23,1,,,,,キリュウ,0
1642,7220001026750,新規,0,2025-06-23,2025-06-23,株式会社Ｐｌｕｓ　Ａｓｈ,,株式会社,石川県,白山市,蕪城４丁目３５番地７,,17,210,9240025,,,,,,,2025-06-23,1,,,,,プラスアッシュ,0
1643,7230003002451,新規,0,2025-06-23,2025-06-23,谷口会計合同会社,,合同会社,富山県,高岡市,木津６０９番７,,16,202,9330857,,,,,,,2025-06-23,1,,,,,タニグチカイケイ,0
1648,7240005015954,新規,0,2025-06-23,2025-06-23,一般社団法人スカイヴァンガード,,その他の設立登記法人,広島県,広島市安佐南区,西原４丁目３４－２９－２０１,,34,105,7310113,,,,,,,2025-06-23,1,,,,,スカイヴァンガード,0
1654,7260003005229,新規,0,2025-06-23,2025-06-23,合同会社オジケン,,合同会社,岡山県,備前市,香登西６６番地１,,33,211,7050011,,,,,,,2025-06-23,1,,,,,オジケン,0
1666,7290001110457,新規,0,2025-06-23,2025-06-23,株式会社ＢｏｏｓｔＸ,,株式会社,福岡県,福岡市博多区,博多駅前２丁目１７―１博多プレステージ本館１Ｆ・２Ｆ,,40,132,8120011,,,,,,,2025-06-23,1,,,,,ブーストエックス,0
1667,7290001110473,新規,0,2025-06-23,2025-06-23,株式会社ジスルゲートキャピタル,,株式会社,福岡県,福岡市東区,箱崎３丁目８－３５三愛シティライフ箱崎駅前６０６,,40,131,8120053,,,,,,,2025-06-23,1,,,,,ジスルゲートキャピタル,0
1668,7290001110481,新規,0,2025-06-23,2025-06-23,ＪＭ　Ｒｕｎｎｉｎｇ　Ｃｌｕｂ　ＪＡＰＡＮ株式会社,,株式会社,福岡県,福岡市早良区,高取１丁目６番１０－４０１号,,40,137,8140011,,,,,,,2025-06-23,1,,,,,ジェイエムランニングクラブジャパン,0
1671,7290801031646,新規,0,2025-06-23,2025-06-23,株式会社わがや,,株式会社,福岡県,北九州市八幡西区,穴生４丁目１７番２２－５０７号,,40,109,8060049,,,,,,,2025-06-23,1,,,,,ワガヤ,0
1674,7290803005086,新規,0,2025-06-23,2025-06-23,合同会社Ｍａｔｔｙａ,,合同会社,福岡県,北九州市八幡西区,友田３丁目１番４－２０３号,,40,109,8070828,,,,,,,2025-06-23,1,,,,,マッチャ,0
1685,7360001035382,新規,0,2025-06-23,2025-06-23,株式会社晃ホームズ,,株式会社,沖縄県,中頭郡中城村,字伊舎堂２８４番地５７,,47,328,9012403,,,,,,,2025-06-23,1,,,,,アキホームズ,0
1692,7380001035397,新規,0,2025-06-23,2025-06-23,株式会社経営支援サポート,,株式会社,福島県,郡山市,富久山町久保田字下河原１９１番地の１,,07,203,9638071,,,,,,,2025-06-23,1,,,,,ケイエイシエンサポート,0
1698,7430003017792,新規,0,2025-06-23,2025-06-23,Ａｆｔｅｒ　ｙｏｕ合同会社,,合同会社,北海道,札幌市中央区,南五条西１５丁目２－３－５０３,,01,101,0640805,,,,,,,2025-06-23,1,,,,,アフターユー,0
1703,7700150131229,新規,0,2025-06-23,2025-06-23,Ｓｈａｎｇ　Ｈａｉ　Ｒｅ　Ｘｉａｎｇ　Ｋｅ　Ｊｉ　Ｇｕ　Ｆｅｎ　Ｙｏｕ　Ｘｉａｎ　Ｇｏｎｇ　Ｓｉ,,外国会社等,,,,,,,,Ｒｏｏｍ　７０３－７０４，Ｎｏ．２３８，Ｊｉａｎｇｃｈａｎｇ　３ｒｄ　Ｒｏａｄ，Ｊｉｎｇ’ａｎ　Ｄｉｓｔｒｉｃｔ，Ｓｈａｎｇｈａｉ,,,,,,2025-06-23,1,,,,,シャンハイレシャンカギグフェンユウゲンコウシ,0
1704,7700150131237,新規,0,2025-06-23,2025-06-23,ｘｉａｎｙｉｎｇｄｉｍａｏｙｉｙｏｕｘｉａｎｇｏｎｇｓｉ,,外国会社等,,,,,,,,Ｎｏ．１９，５ｔｈ　Ｆｌｏｏｒ，Ｉｎｃｕｂａｔｏｒ，Ｎｅｗ　Ｓｉｌｋ　Ｒｏａｄ　Ｉｎｄｕｓｔｒｉａｌ　Ｐａｒｋ，Ｉｎｔｅｒｎａｔｉｏｎａｌ　Ｐｏｒｔ　Ａｒｅａ，Ｘｉ’ａｎ　Ｃｉｔｙ，Ｓｈａａｎｘｉ　Ｐｒｏｖｉｎｃｅ,,,,,,2025-06-23,1,,,,,シーアンインディマオイユウゲンコウシ,0
1714,8010001256054,新規,0,2025-06-23,2025-06-23,株式会社夢見小屋,,株式会社,東京都,中央区,銀座１丁目１２番４号Ｎ＆ＥＢＬＤ．６Ｆ,,13,102,1040061,,,,,,,2025-06-23,1,,,,,ユメミゴヤ,0
1715,8010001256145,新規,0,2025-06-23,2025-06-23,ＳａｃｈｉＮｏｖａ株式会社,,株式会社,東京都,中央区,銀座１丁目２２番１１号銀座大竹ビジデンス２Ｆ,,13,102,1040061,,,,,,,2025-06-23,1,,,,,サチノバ,0
1718,8010003047732,新規,0,2025-06-23,2025-06-23,ＰＥＰＪ１合同会社,,合同会社,東京都,千代田区,丸の内１丁目８番２号,,13,101,1000005,,,,,,,2025-06-23,1,,,,,ピーイーピージェイイチ,0
1725,8010101016738,新規,0,2025-06-23,2025-06-23,令和厨房サステック株式会社,,株式会社,東京都,八王子市,大谷町１０４３番地６３,,13,201,1920034,,,,,,,2025-06-23,1,,,,,レイワチュウボウサステック,0
1733,8010401191215,新規,0,2025-06-23,2025-06-23,アクセラエナジー株式会社,,株式会社,東京都,港区,北青山１丁目３番１号アールキューブ青山３階,,13,103,1070061,,,,,,,2025-06-23,1,,,,,アクセラエナジー,0
1739,8010405024453,新規,0,2025-06-23,2025-06-23,一般財団法人ＵｎｔｒｏＤ,,その他の設立登記法人,東京都,港区,虎ノ門２丁目２番１号,,13,103,1050001,,,,,,,2025-06-23,1,,,,,アントロッド,0
1741,8010601067495,新規,0,2025-06-23,2025-06-23,株式会社グラチュンカ,,株式会社,東京都,江東区,亀戸９丁目３６番１８号,,13,108,1360071,,,,,,,2025-06-23,1,,,,,グラチュンカ,0
1745,8010803005451,新規,0,2025-06-23,2025-06-23,ザガロローザ合同会社,,合同会社,東京都,大田区,南蒲田３丁目１５番３５号,,13,111,1440035,,,,,,,2025-06-23,1,,,,,ザガロローザ,0
1760,8011101112072,新規,0,2025-06-23,2025-06-23,中森不動産株式会社,,株式会社,東京都,新宿区,早稲田南町５２－２シャトーモロー４０１号室,,13,104,1620043,,,,,,,2025-06-23,1,,,,,ナカモリフドウサン,0
1761,8011101112155,新規,0,2025-06-23,2025-06-23,ＭＲ　Ｈｏｌｄｉｎｇｓ株式会社,,株式会社,東京都,新宿区,西新宿１丁目２５番１号新宿センタービル４７階,,13,104,1600023,,,,,,,2025-06-23,1,,,,,エムアールホールディングス,0
1762,8011103016040,新規,0,2025-06-23,2025-06-23,ティルワークス合同会社,,合同会社,東京都,新宿区,西新宿３丁目３番１３号西新宿水間ビル６階,,13,104,1600023,,,,,,,2025-06-23,1,,,,,ティルワークス,0
1766,8011301030644,新規,0,2025-06-23,2025-06-23,Ｔｒｅｎｏ’ｓ株式会社,,株式会社,東京都,杉並区,高円寺南２丁目２３番６号ハイツトモエ１０３号,,13,115,1660003,,,,,,,2025-06-23,1,,,,,トリノス,0
1792,8020001163448,新規,0,2025-06-23,2025-06-23,株式会社Ｌｕｍｉｎｏｕｓ,,株式会社,神奈川県,川崎市川崎区,南町１６番地７かわさきスカイビル２Ｄ,,14,131,2100015,,,,,,,2025-06-23,1,,,,,ルミナス,0
1793,8020001163530,新規,0,2025-06-23,2025-06-23,株式会社ａｙｋｋｓ,,株式会社,神奈川県,川崎市高津区,下作延３丁目２８番３０号,,14,134,2130033,,,,,,,2025-06-23,1,,,,,エーワイケーケーエス,0
1803,8020003028673,新規,0,2025-06-23,2025-06-23,合同会社ノナホーム,,合同会社,神奈川県,横浜市南区,別所５丁目６番６－２号,,14,105,2320064,,,,,,,2025-06-23,1,,,,,ノナホーム,0
1804,8020003028764,新規,0,2025-06-23,2025-06-23,合同会社和く和く,,合同会社,神奈川県,横浜市旭区,中白根４丁目２１番１号,,14,112,2410004,,,,,,,2025-06-23,1,,,,,ワクワク,0
1818,8030001167209,新規,0,2025-06-23,2025-06-23,エムティーホーム株式会社,,株式会社,埼玉県,熊谷市,上江袋８０１番地１１,,11,202,3600234,,,,,,,2025-06-23,1,,,,,エムティーホーム,0
1819,8030001167217,新規,0,2025-06-23,2025-06-23,株式会社路面標示,,株式会社,埼玉県,行田市,大字若小玉２３２４番地２,,11,206,3610017,,,,,,,2025-06-23,1,,,,,ロメンヒョウジ,0
1820,8030001167233,新規,0,2025-06-23,2025-06-23,株式会社當間和睦商店,,株式会社,埼玉県,富士見市,大字水子１４９番地,,11,235,3540011,,,,,,,2025-06-23,1,,,,,トウマワボクショウテン,0
1832,8040003027896,新規,0,2025-06-23,2025-06-23,合同会社元気,,合同会社,千葉県,八街市,大木７８６－４８,,12,230,2891111,,,,,,,2025-06-23,1,,,,,モトキ,0
1837,8050005013654,新規,0,2025-06-23,2025-06-23,一般社団法人リカバリーハウス,,その他の設立登記法人,茨城県,石岡市,染谷字高根２３３０番地,,08,205,3150007,,,,,,,2025-06-23,1,,,,,リカバリーハウス,0
1838,8060003005611,新規,0,2025-06-23,2025-06-23,Ｎｅｏ１０５９合同会社,,合同会社,栃木県,足利市,大月町７６６番地２,,09,202,3260005,,,,,,,2025-06-23,1,,,,,ネオセンゴク,0
1840,8080003003489,新規,0,2025-06-23,2025-06-23,合同会社壱閃,,合同会社,静岡県,牧之原市,地頭方１７０番地１,,22,226,4210532,,,,,,,2025-06-23,1,,,,,イッセン,0
1845,8100001038708,新規,0,2025-06-23,2025-06-23,株式会社ｇｒａｃｅ,,株式会社,長野県,千曲市,大字戸倉１８９６番地５,,20,218,3890804,,,,,,,2025-06-23,1,,,,,,0
1854,8120001277031,新規,0,2025-06-23,2025-06-23,ケヤキメディック株式会社,,株式会社,大阪府,大阪市中央区,南久宝寺町２丁目２番１－９０１号,,27,128,5410058,,,,,,,2025-06-23,1,,,,,ケヤキメディック,0
1855,8120001277056,新規,0,2025-06-23,2025-06-23,株式会社ＬＩＮＫＳ,,株式会社,大阪府,寝屋川市,緑町１９番１７号産興ビル３０１,,27,215,5720022,,,,,,,2025-06-23,1,,,,,リンクス,0
1856,8120001277064,新規,0,2025-06-23,2025-06-23,天彼方株式会社,,株式会社,大阪府,大阪市中央区,平野町１丁目８番１３号平野町八千代ビル３階,,27,128,5410046,,,,,,,2025-06-23,1,,,,,アマノカナタ,0
1857,8120001277089,新規,0,2025-06-23,2025-06-23,Ｓｕｍ’ｓ　Ｍｏｄｅｌ　Ｔｏｙｓ　Ｊａｐａｎ株式会社,,株式会社,大阪府,大阪市東住吉区,今林４丁目１番２８号,,27,121,5460001,,,,,,,2025-06-23,1,,,,,サンムズモデルトイズジャパン,0
1858,8120001277122,新規,0,2025-06-23,2025-06-23,ＰＮ株式会社,,株式会社,大阪府,大阪市中央区,日本橋１丁目１７番２３号,,27,128,5420073,,,,,,,2025-06-23,1,,,,,ピーエヌ,0
1859,8120003029835,新規,0,2025-06-23,2025-06-23,門柳合同会社,,合同会社,大阪府,大阪市旭区,赤川２丁目７番２０－１０１３号,,27,117,5350005,,,,,,,2025-06-23,1,,,,,カドヤナギ,0
1872,8122003003233,新規,0,2025-06-23,2025-06-23,合同会社Ｗａｓｃｏｐｅ,,合同会社,大阪府,八尾市,南木の本７丁目２０３番地,,27,212,5810042,,,,,,,2025-06-23,1,,,,,ワスコープ,0
1877,8130001079947,新規,0,2025-06-23,2025-06-23,株式会社紫竹地所,,株式会社,京都府,京都市北区,紫竹西大門町３０－１,,26,101,6038415,,,,,,,2025-06-23,1,,,,,シチクジショ,0
1882,8140001139007,新規,0,2025-06-23,2025-06-23,ＷＣＴ株式会社,,株式会社,兵庫県,川西市,久代１丁目５番１１号,,28,217,6660024,,,,,,,2025-06-23,1,,,,,ダブルシーティ,0
1885,8140003022210,新規,0,2025-06-23,2025-06-23,合同会社ＡＹＭ,,合同会社,兵庫県,姫路市,大津区大津町３丁目２５番地６,,28,201,6711146,,,,,,,2025-06-23,1,,,,,エイワイエム,0
1887,8160001026847,新規,0,2025-06-23,2025-06-23,株式会社寺一,,株式会社,滋賀県,守山市,守山６丁目１５番５号,,25,207,5240022,,,,,,,2025-06-23,1,,,,,テライチ,0
1888,8160003003522,新規,0,2025-06-23,2025-06-23,合同会社言霊鏡社,,合同会社,滋賀県,近江八幡市,野村町１０４３番地,,25,204,5230075,,,,,,,2025-06-23,1,,,,,コトタマカガミシャ,0
1889,8180003028666,新規,0,2025-06-23,2025-06-23,合同会社ＲＫ総合サービス,,合同会社,愛知県,名古屋市緑区,徳重３丁目４０２番地の４,,23,114,4580815,,,,,,,2025-06-23,1,,,,,アールケイソウゴウサービス,0
1891,8180301039927,新規,0,2025-06-23,2025-06-23,株式会社ホンダジャパン,,株式会社,愛知県,豊橋市,高洲町字長弦１９番地１,,23,201,4418006,,,,,,,2025-06-23,1,,,,,ホンダジャパン,0
1895,8200001043920,新規,0,2025-06-23,2025-06-23,株式会社エースグループ,,株式会社,岐阜県,関市,居敷町１９番地２,,21,205,5013966,,,,,,,2025-06-23,1,,,,,エースグループ,0
1903,8230001020966,新規,0,2025-06-23,2025-06-23,株式会社モノリチ企業,,株式会社,富山県,氷見市,鞍川７５９番地、７６０番地、７６１番地,,16,205,9350025,,,,,,,2025-06-23,1,,,,,モノリチキギョウ,0
1910,8270001009221,新規,0,2025-06-23,2025-06-23,株式会社黎明,,株式会社,鳥取県,鳥取市,卯垣１３３番地１８,,31,201,6800074,,,,,,,2025-06-23,1,,,,,レイメイ,0
1913,8290001110464,新規,0,2025-06-23,2025-06-23,株式会社ＰＡＳＳＩＯＮ　ＭＫＴ,,株式会社,福岡県,福岡市中央区,大名２丁目２番１号ＭＩＫＩビル５０６号,,40,133,8100041,,,,,,,2025-06-23,1,,,,,パッションエムケイティ,0
1914,8290001110472,新規,0,2025-06-23,2025-06-23,株式会社Ｇｌｏｂａｌｉｘ,,株式会社,福岡県,福岡市博多区,博多駅東１丁目１０番－２７号－２０１,,40,132,8120013,,,,,,,2025-06-23,1,,,,,グローバリックス,0
1918,8290003017014,新規,0,2025-06-23,2025-06-23,Ｈ＆Ｎメディカルサポート合同会社,,合同会社,福岡県,久留米市,津福本町４７３－１８,,40,203,8300047,,,,,,,2025-06-23,1,,,,,エイチアンドエヌメディカルサポート,0
1929,8340001027447,新規,0,2025-06-23,2025-06-23,株式会社眞匠装業,,株式会社,鹿児島県,南九州市,知覧町塩屋１９７６１番地１,,46,223,8910911,,,,,,,2025-06-23,1,,,,,マショウソウギョウ,0
1935,8360003015043,新規,0,2025-06-23,2025-06-23,合同会社ＭＵ,,合同会社,沖縄県,宜野湾市,喜友名２丁目２４番１２号,,47,205,9012222,,,,,,,2025-06-23,1,,,,,ムー,0
1940,8400001017078,新規,0,2025-06-23,2025-06-23,株式会社Ｐｏｌａｒｉｓ,,株式会社,岩手県,九戸郡野田村,大字野田第２８地割２１番地３,,03,503,0288201,,,,,,,2025-06-23,1,,,,,ポラリス,0
1955,8480003002277,新規,0,2025-06-23,2025-06-23,合同会社ｔｗｏ‐ｐｉｅｃｅ,,合同会社,徳島県,板野郡北島町,鯛浜字西ノ須４９番地３,,36,402,7710204,,,,,,,2025-06-23,1,,,,,ツーピース,0
1956,8490001011089,新規,0,2025-06-23,2025-06-23,株式会社ＯＵＣＨＩ,,株式会社,高知県,高知市,薊野西町１丁目１番１０号,,39,201,7810015,,,,,,,2025-06-23,1,,,,,オウチ,0
1958,8500001026358,新規,0,2025-06-23,2025-06-23,６Ｖ６株式会社,,株式会社,愛媛県,宇和島市,保手２丁目６番２２号,,38,203,7980088,,,,,,,2025-06-23,1,,,,,シックスブイシックス,0
1959,8700150131228,新規,0,2025-06-23,2025-06-23,Ｇｌｏｂａｌ　Ｍａｒｋｅｔ　Ｐｔｙ　Ｌｔｄ,,外国会社等,,,,,,,,Ｓｕｉｔｅ　２　Ｌｅｖｅｌ　１４，３９０　Ｓｔ　Ｋｉｌｄａ　Ｒｏａｄ，ＭＥＬＢＯＵＲＮＥ　ＶＩＣ　３００４,,,,,,2025-06-23,1,,,,,グローバルマーケットプロプライエタリーリミテッド,0
1960,8700150131236,新規,0,2025-06-23,2025-06-23,Ｄｏｎｇｇｕａｎｓｈｉ　Ｌａｎｇｘｉｎ　Ｘｉａｎｇｊｉａｏｚｈｉｐｉｎ　Ｙｏｕｘｉａｎｇｏｎｇｓｉ,,外国会社等,,,,,,,,Ｒｏｏｍ　２０１，Ｂｕｉｌｄｉｎｇ　４，Ｎｏ．１，Ｄａｐｉｎｇ　Ｆｅｎｇｊｉｎｇ　Ｒｏａｄ，Ｔａｎｇｘｉａ　Ｔｏｗｎ，Ｄｏｎｇｇｕａｎ　Ｃｉｔｙ，Ｇｕａｎｇｄｏｎｇ　Ｐｒｏｖｉｎｃｅ,,,,,,2025-06-23,1,,,,,ドンガンシランシンシャンジャオジピンユウゲンコウシ,0
1966,9010001256061,新規,0,2025-06-23,2025-06-23,双光ホールディングス株式会社,,株式会社,東京都,中央区,築地６丁目１２番１号,,13,102,1040045,,,,,,,2025-06-23,1,,,,,ソウコウホールディングス,0
1967,9010001256086,新規,0,2025-06-23,2025-06-23,東京品尚株式会社,,株式会社,東京都,中央区,日本橋中洲６－１６－４Ｆ,,13,102,1030008,,,,,,,2025-06-23,1,,,,,トウキョウヒンショウ,0
1968,9010001256136,新規,0,2025-06-23,2025-06-23,グループ事業企画準備株式会社,,株式会社,東京都,千代田区,永田町２丁目１１番１号,,13,101,1000014,,,,,,,2025-06-23,1,,,,,グループジギョウキカクジュンビ,0
1975,9010401191081,新規,0,2025-06-23,2025-06-23,ＷＰＳ株式会社,,株式会社,東京都,港区,新橋６丁目１６番８号ＳＡＮＰＵビル４Ｆ７号室,,13,103,1050004,,,,,,,2025-06-23,1,,,,,ダブルピーエス,0
1976,9010401191189,新規,0,2025-06-23,2025-06-23,Ｃｏｐｉａ　Ｎｅｔｗｏｒｋ　Ｊａｐａｎ株式会社,,株式会社,東京都,港区,赤坂１丁目１１番４４号赤坂インターシティ５階Ｆｏｒｖｉｓ・Ｍａｚａｒｓ・Ｊａｐａｎ株式会社内,,13,103,1070052,,,,,,,2025-06-23,1,,,,,コピアネットワークジャパン,0
1986,9010603011640,新規,0,2025-06-23,2025-06-23,合同会社三結商会,,合同会社,東京都,墨田区,東向島５丁目２０番５号,,13,107,1310032,,,,,,,2025-06-23,1,,,,,サンユウショウカイ,0
1990,9010803005450,新規,0,2025-06-23,2025-06-23,合同会社サンライズ,,合同会社,東京都,大田区,西蒲田７丁目４８番１４号蒲田センタービル３Ｇ号室,,13,111,1440051,,,,,,,2025-06-23,1,,,,,サンライズ,0
1991,9010901057591,新規,0,2025-06-23,2025-06-23,株式会社ビアラ,,株式会社,東京都,世田谷区,代田６丁目２番２号メゾンヴェール下北沢３０３,,13,112,1550033,,,,,,,2025-06-23,1,,,,,ビアラ,0
2001,9011001170376,新規,0,2025-06-23,2025-06-23,Ｍ＆ＡＢｒｉｄｇｅ株式会社,,株式会社,東京都,渋谷区,道玄坂１丁目１０番８号渋谷道玄坂東急ビル２Ｆ－Ｃ,,13,113,1500043,,,,,,,2025-06-23,1,,,,,,0
2002,9011001170434,新規,0,2025-06-23,2025-06-23,株式会社ＷＥＥＢＩＮＧ,,株式会社,東京都,渋谷区,神宮前３丁目２６番５号ＵｒａｈａｒａＣｅｎｔｒａｌＡｐａｒｔｍｅｎｔ２０２号,,13,113,1500001,,,,,,,2025-06-23,1,,,,,ウィービング,0
2008,9011101112170,新規,0,2025-06-23,2025-06-23,ビジネスサポート株式会社,,株式会社,東京都,新宿区,新宿２丁目１２番１３号新宿アントレサロンビル２階,,13,104,1600022,,,,,,,2025-06-23,1,,,,,ビジネスサポート,0
2009,9011101112220,新規,0,2025-06-23,2025-06-23,株式会社カタログ,,株式会社,東京都,新宿区,新宿１丁目９番２号ナリコマＨＤ新宿ビル７Ｂ,,13,104,1600022,,,,,,,2025-06-23,1,,,,,カタログ,0
2010,9011103016048,新規,0,2025-06-23,2025-06-23,Ｄｒｅｓｓ　ａｇｉｎｇ合同会社,,合同会社,東京都,新宿区,西新宿３丁目３番１３号西新宿水間ビル２Ｆ,,13,104,1600023,,,,,,,2025-06-23,1,,,,,ドレスエイジング,0
2011,9011401027184,新規,0,2025-06-23,2025-06-23,株式会社エクセレント１,,株式会社,東京都,板橋区,若木３丁目１２番３－４０２号,,13,119,1740065,,,,,,,2025-06-23,1,,,,,エクセレントワン,0
2015,9012401043188,新規,0,2025-06-23,2025-06-23,株式会社カイシン,,株式会社,東京都,三鷹市,井の頭３丁目１１－１３スリジェＷ１０２,,13,204,1810001,,,,,,,2025-06-23,1,,,,,カイシン,0
2032,9020001163463,新規,0,2025-06-23,2025-06-23,株式会社ＭＩＹＡＧＩ,,株式会社,神奈川県,横浜市神奈川区,栄町５－１横浜クリエーションスクエア１４階,,14,102,2210052,,,,,,,2025-06-23,1,,,,,ミヤギ,0
2033,9020001163471,新規,0,2025-06-23,2025-06-23,株式会社咲工業,,株式会社,神奈川県,川崎市麻生区,下麻生１丁目１１番３２号,,14,137,2150022,,,,,,,2025-06-23,1,,,,,ショウコウギョウ,0
2034,9020001163496,新規,0,2025-06-23,2025-06-23,ＳＥＱＵＥＮＣＥ株式会社,,株式会社,神奈川県,横浜市戸塚区,深谷町２９２番地４,,14,110,2450067,,,,,,,2025-06-23,1,,,,,シーケンス,0
2035,9020001163513,新規,0,2025-06-23,2025-06-23,ＨＩＧＩＸ株式会社,,株式会社,神奈川県,横浜市戸塚区,上倉田町７６９番地１１ザ・パークハウス戸塚ガーデン５１２号,,14,110,2440816,,,,,,,2025-06-23,1,,,,,ハイジックス,0
2038,9020003028771,新規,0,2025-06-23,2025-06-23,合同会社ＴＯＭＡＲＯＵ,,合同会社,神奈川県,横浜市青葉区,みたけ台３９番地２３,,14,117,2270047,,,,,,,2025-06-23,1,,,,,トマロウ,0
2039,9021001085573,新規,0,2025-06-23,2025-06-23,株式会社ＧＳＰ,,株式会社,神奈川県,横須賀市,大滝町２丁目６番地ザ・タワー横須賀中央８０７,,14,201,2380008,,,,,,,2025-06-23,1,,,,,ジーエスピー,0
2040,9021001085598,新規,0,2025-06-23,2025-06-23,株式会社シンク,,株式会社,神奈川県,秦野市,菩提２２４番地の４,,14,211,2591302,,,,,,,2025-06-23,1,,,,,シンク,0
2045,9030001167158,新規,0,2025-06-23,2025-06-23,株式会社文吉,,株式会社,埼玉県,さいたま市西区,大字飯田新田５０９－１－２０１,,11,101,3310068,,,,,,,2025-06-23,1,,,,,フミヨシ,0
2046,9030003027054,新規,0,2025-06-23,2025-06-23,合同会社エフドリーム,,合同会社,埼玉県,新座市,馬場３丁目８番２３－１２号,,11,230,3520016,,,,,,,2025-06-23,1,,,,,エフドリーム,0
2056,9040001138942,新規,0,2025-06-23,2025-06-23,億米国際株式会社,,株式会社,千葉県,柏市,旭町３丁目３番２０号,,12,217,2770852,,,,,,,2025-06-23,1,,,,,オクマイコクサイ,0
2057,9040001139321,新規,0,2025-06-23,2025-06-23,国土総業株式会社,,株式会社,千葉県,千葉市緑区,誉田町２丁目２番地１７１,,12,105,2660005,,,,,,,2025-06-23,1,,,,,コクドソウギョウ,0
2058,9040001139346,新規,0,2025-06-23,2025-06-23,株式会社ＩＬＩＮＫＧＲＯＵＰ,,株式会社,千葉県,松戸市,六実５丁目８番地３,,12,207,2702204,,,,,,,2025-06-23,1,,,,,アイリンクグループ,0
2059,9040001139354,新規,0,2025-06-23,2025-06-23,株式会社虹屋,,株式会社,千葉県,松戸市,和名ケ谷１３３６－１２,,12,207,2702232,,,,,,,2025-06-23,1,,,,,ニジヤ,0
2063,9040003027838,新規,0,2025-06-23,2025-06-23,ＭＦＧ合同会社,,合同会社,千葉県,松戸市,稔台７丁目３番地の５アルフレンテ２０３,,12,207,2702231,,,,,,,2025-06-23,1,,,,,エムエフジー,0
2064,9040003027879,新規,0,2025-06-23,2025-06-23,合同会社ＡＣアンフィ,,合同会社,千葉県,千葉市中央区,松波２丁目４番１８号,,12,101,2600044,,,,,,,2025-06-23,1,,,,,エーシーアンフィ,0
2066,9050003009380,新規,0,2025-06-23,2025-06-23,合同会社ＥＡＴＳＨＩＦＴ,,合同会社,茨城県,石岡市,石岡２７４７－１４,,08,205,3150001,,,,,,,2025-06-23,1,,,,,イートシフト,0
2067,9050005013653,新規,0,2025-06-23,2025-06-23,一般社団法人茨城県産材普及促進協議会,,その他の設立登記法人,茨城県,坂東市,岩井４９１０番地,,08,228,3060631,,,,,,,2025-06-23,1,,,,,イバラキケンサンザイフキュウソクシンキョウギカイ,0
2068,9060003005610,新規,0,2025-06-23,2025-06-23,Ｇ’Ｓ合同会社,,合同会社,栃木県,栃木市,大平町富田１０３３番地６,,09,203,3294404,,,,,,,2025-06-23,1,,,,,ジーエス,0
2071,9080003003488,新規,0,2025-06-23,2025-06-23,合同会社Ｆｒｅｅｄｏｍ,,合同会社,静岡県,静岡市葵区,栄町２番地５アークビルディング５０２,,22,101,4200859,,,,,,,2025-06-23,1,,,,,フリーダム,0
2072,9080401027989,新規,0,2025-06-23,2025-06-23,株式会社アトラクト,,株式会社,静岡県,浜松市中央区,笠井町１００１番地の１,,22,138,4313107,,,,,,,2025-06-23,1,,,,,アトラクト,0
2078,9100001038715,新規,0,2025-06-23,2025-06-23,クォンタムワールド株式会社,,株式会社,長野県,岡谷市,大栄町２丁目６番８号,,20,204,3940025,,,,,,,2025-06-23,1,,,,,クォンタムワールド,0
2080,9120001047755,新規,0,2025-06-23,2025-06-23,株式会社ミノル貿易,,株式会社,大阪府,大阪市西区,北堀江２丁目４番４号,,27,106,5500014,,,,,,,2025-06-23,1,,,,,ミノルボウエキ,0
2087,9120001277006,新規,0,2025-06-23,2025-06-23,株式会社エピパートナーズ,,株式会社,大阪府,大阪市西区,北堀江１丁目２番１９号アステリオ北堀江ザ・メトロタワー１０Ｆ,,27,106,5500014,,,,,,,2025-06-23,1,,,,,エピパートナーズ,0
2088,9120001277030,新規,0,2025-06-23,2025-06-23,株式会社ＹＯＭＯ,,株式会社,大阪府,大阪市北区,同心１丁目７番１－６０３号,,27,127,5300035,,,,,,,2025-06-23,1,,,,,ヨモ,0
2089,9120001277055,新規,0,2025-06-23,2025-06-23,株式会社ＧＡＭＩ,,株式会社,大阪府,守口市,大日町１丁目８－１８,,27,209,5700003,,,,,,,2025-06-23,1,,,,,ガミ,0
2090,9120003029792,新規,0,2025-06-23,2025-06-23,合同会社結び,,合同会社,大阪府,大阪市住之江区,北島２丁目４－４－３０８,,27,125,5590014,,,,,,,2025-06-23,1,,,,,ムスビ,0
2095,9122001039360,新規,0,2025-06-23,2025-06-23,圓成実業株式会社,,株式会社,大阪府,東大阪市,長堂１丁目２番１６号－３０３号室,,27,227,5770056,,,,,,,2025-06-23,1,,,,,エンセイジツギョウ,0
2104,9140001138924,新規,0,2025-06-23,2025-06-23,エターナルパートナーズ株式会社,,株式会社,兵庫県,宝塚市,宝梅２丁目６番５８－３０７号,,28,214,6650013,,,,,,,2025-06-23,1,,,,,エターナルパートナーズ,0
2105,9140001139014,新規,0,2025-06-23,2025-06-23,ＣＵＬＴＵＲＡ株式会社,,株式会社,兵庫県,姫路市,町坪南町３２番地１,,28,201,6700989,,,,,,,2025-06-23,1,,,,,カルトゥーラ,0
2109,9140003022226,新規,0,2025-06-23,2025-06-23,合同会社ｈａｌｆｔｉｍｅ,,合同会社,兵庫県,宝塚市,美幸町８－５,,28,214,6650042,,,,,,,2025-06-23,1,,,,,ハーフタイム,0
2110,9140003022234,新規,0,2025-06-23,2025-06-23,ｗａｋｋａ合同会社,,合同会社,兵庫県,神戸市東灘区,御影中町１丁目１４番５－３０２号,,28,101,6580054,,,,,,,2025-06-23,1,,,,,ワッカ,0
2112,9150001028216,新規,0,2025-06-23,2025-06-23,Ｌｅｇａｍｅ株式会社,,株式会社,奈良県,橿原市,出垣内町１２番地の１５,,29,205,6340011,,,,,,,2025-06-23,1,,,,,レガーメ,0
2114,9160001026846,新規,0,2025-06-23,2025-06-23,株式会社ほとり,,株式会社,滋賀県,大津市,におの浜２丁目２番２－２０６号,,25,201,5200801,,,,,,,2025-06-23,1,,,,,ホトリ,0
2115,9160003003521,新規,0,2025-06-23,2025-06-23,合同会社百花繚乱,,合同会社,滋賀県,長浜市,南田附町４７０番地,,25,203,5260844,,,,,,,2025-06-23,1,,,,,ヒャッカリョウラン,0
2126,9240001065092,新規,0,2025-06-23,2025-06-23,株式会社美健堂,,株式会社,広島県,東広島市,高屋高美が丘３丁目１９番１３号,,34,212,7392115,,,,,,,2025-06-23,1,,,,,ビケンドウ,0
2127,9240003007274,新規,0,2025-06-23,2025-06-23,合同会社ＰａｒｉｓＧａｒｄｅｎ,,合同会社,広島県,福山市,沖野上町１丁目６番３１号,,34,207,7200825,,,,,,,2025-06-23,1,,,,,パリスガーデン,0
2135,9260001040291,新規,0,2025-06-23,2025-06-23,ルルコーポレーション株式会社,,株式会社,岡山県,岡山市北区,今８丁目１番２４号,,33,101,7000975,,,,,,,2025-06-23,1,,,,,ルルコーポレーション,0
2141,9290003017021,新規,0,2025-06-23,2025-06-23,合同会社Ｐｅｔｒｉｃｈｏｒ,,合同会社,福岡県,太宰府市,朱雀１丁目１１番２３号,,40,221,8180103,,,,,,,2025-06-23,1,,,,,ペトリコール,0
2143,9310001019652,新規,0,2025-06-23,2025-06-23,株式会社ライフスタイル,,株式会社,長崎県,佐世保市,大和町１１２番地,,42,202,8571165,,,,,,,2025-06-23,1,,,,,ライフスタイル,0
2144,9310003005031,新規,0,2025-06-23,2025-06-23,合同会社ひのひかり,,合同会社,長崎県,長崎市,田上１丁目４番２１号,,42,201,8510251,,,,,,,2025-06-23,1,,,,,ヒノヒカリ,0
2150,9340003004880,新規,0,2025-06-23,2025-06-23,合同会社大迫技建,,合同会社,鹿児島県,鹿児島市,東谷山１丁目４３番８－５号,,46,201,8910113,,,,,,,2025-06-23,1,,,,,オオサコギケン,0
2154,9360003015034,新規,0,2025-06-23,2025-06-23,ＧＮナンバーワン合同会社,,合同会社,沖縄県,那覇市,与儀２丁目２１番２９号オランジュールＹｏｇｉ３０１,,47,201,9020076,,,,,,,2025-06-23,1,,,,,ジーエヌナンバーワン,0
2161,9380005012985,新規,0,2025-06-23,2025-06-23,一般社団法人ナチュラルブロウアーティスト協会,,その他の設立登記法人,福島県,郡山市,東原３丁目３１６番地,,07,203,9630552,,,,,,,2025-06-23,1,,,,,ナチュラルブロウアーティストキョウカイ,0
2169,9410001014197,新規,0,2025-06-23,2025-06-23,株式会社ＳＷＯＲＤ,,株式会社,秋田県,秋田市,港北松野町６番２号,,05,201,0110926,,,,,,,2025-06-23,1,,,,,ソード,0
2172,9420003003131,新規,0,2025-06-23,2025-06-23,合同会社ＳＢＫワークス,,合同会社,青森県,五所川原市,大字毘沙門字中熊石２０７番地２,,02,205,0370096,,,,,,,2025-06-23,1,,,,,エスビーケーワークス,0
2181,9460303000873,新規,0,2025-06-23,2025-06-23,合同会社エリース,,合同会社,北海道,北見市,西三輪５丁目１４番地３,,01,208,0900838,,,,,,,2025-06-23,1,,,,,エリース,0
2182,9460305002026,新規,0,2025-06-23,2025-06-23,一般社団法人きゃんばす,,その他の設立登記法人,北海道,北見市,端野町端野１０３番地２０,,01,208,0992104,,,,,,,2025-06-23,1,,,,,キャンバス,0
2184,9500001026357,新規,0,2025-06-23,2025-06-23,株式会社ＳＡＫＵラボ,,株式会社,愛媛県,松山市,千舟町５丁目３－１７・４階,,38,201,7900011,,,,,,,2025-06-23,1,,,,,サクラボ,0
2185,9700150131235,新規,0,2025-06-23,2025-06-23,ｈｕｌｕｄａｏｓｈｉｙａｎｇｙａｎｇｗａｎｇｌｕｏｄｉａｎｚｉｓｈａｎｇｗｕｃｏ．ｌｔｄ,,外国会社等,,,,,,,,ｌｉａｏｎｉｎｇｓｈｅｎｇｈｕｌｕｄａｏｓｈｉｌｉａｎｓｈａｎｑｕｂｉｎｈｅｌｕ７４－１３ｈａｏｌｏｕ３ｄａｎｙｕａｎ４０２（０３０４０２）,,,,,,2025-06-23,1,,,,,フルダオシヤンヤンワンロウデンシショウムカンパニーリミテッド,0
