sequenceNumber,corporateNumber,process,correct,updateDate,changeDate,name,nameImageId,kind,prefectureName,cityName,streetNumber,addressImageId,prefectureCode,cityCode,postCode,addressOutside,addressOutsideImageId,closeDate,closeCause,successorCorporateNumber,changeCause,assignmentDate,latest,enName,enPrefectureName,enCityName,enAddressOutside,furigana,hihyoji
2,1010001014633,登記記録の閉鎖等,0,2023-04-12,2023-04-03,株式会社協和,,株式会社,東京都,千代田区,東神田２丁目１０番１６号,,13,101,1010031,,,2023-04-03,合併による解散等,6010001014661,令和５年４月１日東京都千代田区東神田二丁目１０番１６号株式会社協和（6010001014661）に合併し解散,2015-10-05,1,,,,,キョウワ,0
19,1010401121302,登記記録の閉鎖等,0,2023-04-12,2023-03-29,ＬＬａｍａｓｏｆｔ株式会社,,株式会社,東京都,港区,新橋６丁目１６番１０号,,13,103,1050004,,,2023-03-29,清算の結了等,,,2015-11-04,1,,,,,,0
45,1011102000968,登記記録の閉鎖等,0,2023-04-12,2023-04-06,有限会社イゲタ工務店,,有限会社,東京都,新宿区,北新宿２丁目４番１３号,,13,104,1690074,,,2023-04-06,清算の結了等,,,2015-10-05,1,,,,,イゲタコウムテン,0
74,1020002076564,登記記録の閉鎖等,0,2023-04-12,2023-04-03,有限会社テックプレシジョン,,有限会社,神奈川県,横浜市泉区,岡津町１１０番地４グレーシアパーク山手台ＥＡＳＴ弐番館６１３号,,14,116,2450003,,,2023-04-03,清算の結了等,,,2015-10-05,1,,,,,テックプレシジョン,0
82,1021002016709,登記記録の閉鎖等,0,2023-04-12,2023-04-07,有限会社ヨシザキ・サポート・オフィス,,有限会社,神奈川県,鎌倉市,常盤９３７番地１７７,,14,204,2480022,,,2023-04-07,清算の結了等,,,2015-10-05,1,,,,,ヨシザキサポートオフィス,0
84,1030001017329,登記記録の閉鎖等,0,2023-04-12,2023-04-03,精機工業株式会社,,株式会社,埼玉県,さいたま市桜区,栄和１丁目２番１４号,,11,106,3380823,,,2023-04-03,清算の結了等,,,2015-10-05,1,,,,,セイキコウギョウ,0
89,1030001149394,登記記録の閉鎖等,0,2023-04-12,2023-04-03,株式会社サイスラボ,,株式会社,埼玉県,さいたま市桜区,田島２丁目９番１７－６０３号,,11,106,3380837,,,2023-04-03,清算の結了等,,,2022-07-29,1,,,,,サイスラボ,0
122,1080102007653,登記記録の閉鎖等,0,2023-04-12,2023-04-07,有限会社孝時,,有限会社,静岡県,御殿場市,大坂１３６番地の１,,22,215,4120034,,,2023-04-07,清算の結了等,,,2015-10-05,1,,,,,タカトキ,0
132,1100001005672,登記記録の閉鎖等,0,2023-04-12,2023-04-03,東日本オリオン株式会社,,株式会社,長野県,須坂市,大字八町１７５４番地７,,20,207,3820000,,,2023-04-03,合併による解散等,4100001005488,令和５年４月１日長野県須坂市大字幸高２４６番地オリオン機械株式会社（4100001005488）に合併し解散,2015-10-05,1,,,,,ヒガシニホンオリオン,0
142,1120001163254,登記記録の閉鎖等,0,2023-04-12,2023-04-04,阪神トラベル・インターナショナル株式会社,,株式会社,大阪府,大阪市北区,梅田２丁目５番２５号,,27,127,5300001,,,2023-04-04,合併による解散等,4120001126778,令和５年４月１日大阪市北区梅田二丁目５番２５号株式会社阪急阪神ビジネストラベル（4120001126778）に合併し解散,2015-10-05,1,,,,,ハンシントラベルインターナショナル,0
155,1120905004033,登記記録の閉鎖等,0,2023-04-12,2023-04-10,ほくせつ医療生活協同組合,,その他の設立登記法人,大阪府,豊中市,玉井町１丁目１０番６号,,27,203,5600026,,,2023-04-10,合併による解散等,8120005004423,令和５年４月１日大阪市鶴見区鶴見三丁目６番２４号医療福祉生活協同組合おおさか（8120005004423）に合併し解散,2015-10-05,1,,,,,ホクセツ,0
161,1130001048710,登記記録の閉鎖等,0,2023-04-12,2023-04-05,丸増株式会社,,株式会社,大阪府,大阪市中央区,南本町２丁目６番１２号,,27,128,5410054,,,2023-04-05,清算の結了等,,,2015-10-05,1,,,,,マルマス,0
166,1130005016507,登記記録の閉鎖等,0,2023-04-12,2023-04-03,一般社団法人もくよう会,,その他の設立登記法人,京都府,舞鶴市,字境谷１６４番地の５,,26,202,6240815,,,2023-04-03,合併による解散等,3130005012735,令和５年４月１日京都府舞鶴市字今田８４２番地３一般社団法人もくもく（3130005012735）に合併し解散,2022-06-20,1,,,,,モクヨウカイ,0
167,1140001042679,登記記録の閉鎖等,0,2023-04-12,2023-04-06,岸本青果株式会社,,株式会社,兵庫県,加古川市,志方町横大路１１８５番地の１,,28,210,6750332,,,2023-04-06,清算の結了等,,,2015-10-05,1,,,,,キシモトセイカ,0
168,1140001056159,登記記録の閉鎖等,0,2023-04-12,2023-04-04,株式会社ライフひょうご,,株式会社,兵庫県,豊岡市,幸町９番１３号,,28,209,6680025,,,2023-04-04,清算の結了等,,,2015-10-05,1,,,,,ライフヒョウゴ,0
169,1140001081710,登記記録の閉鎖等,0,2023-04-12,2023-04-03,大伸産業株式会社,,株式会社,兵庫県,三田市,けやき台４丁目４５番地１２,,28,219,6691321,,,2023-04-03,合併による解散等,9140001081711,令和５年４月１日兵庫県宝塚市泉ガ丘４番２４号大伸産業株式会社（9140001081711）に合併し解散,2015-10-05,1,,,,,ダイシンサンギョウ,0
174,1150001010239,登記記録の閉鎖等,0,2023-04-12,2023-04-04,株式会社エスイー,,株式会社,大阪府,大阪市浪速区,恵美須東３丁目６番１号新世界ＭＤビルＩＩ,00106126,27,111,5560002,,,2023-04-04,合併による解散等,9120001117748,令和５年４月１日大阪市浪速区恵美須東三丁目６番１号新世界ＭＤビルＩＩ株式会社ＨＡＳＳＩＮ（9120001117748）に合併し解散,2015-10-05,1,,,,,エスイー,0
205,1240001011418,登記記録の閉鎖等,0,2023-04-12,2023-04-03,ＭＨＩプラント株式会社,,株式会社,広島県,広島市西区,観音新町４丁目６番２２号,,34,104,7330036,,,2023-04-03,合併による解散等,4010401113445,令和５年４月１日広島市西区観音新町四丁目６番２２号Ｐｒｉｍｅｔａｌｓ　Ｔｅｃｈｎｏｌｏｇｉｅｓ　Ｊａｐａｎ株式会社（4010401113445）に合併し解散,2015-10-05,1,,,,,エムエイチアイプラント,0
217,1260002012462,登記記録の閉鎖等,0,2023-04-12,2023-04-03,有限会社クレバー,,有限会社,岡山県,岡山市中区,江並４１１番地２７,,33,102,7028004,,,2023-04-03,清算の結了等,,,2015-10-05,1,,,,,クレバー,0
226,1290805007334,登記記録の閉鎖等,0,2023-04-12,2023-04-06,大日不動教会,,その他の設立登記法人,福岡県,田川市,大字伊田３０６１番地の１,,40,206,8250002,,,2023-04-06,清算の結了等,,,2015-10-05,1,,,,,ダイニチフドウキョウカイ,0
249,1350001006968,登記記録の閉鎖等,0,2023-04-12,2023-04-03,ヒラヌマ建材株式会社,,株式会社,宮崎県,延岡市,伊達町３丁目８８番地,,45,203,8820874,,,2023-04-03,合併による解散等,5350001001453,令和５年４月１日宮崎市大塚町原ノ前１６２２番地株式会社ヒラヌマ（5350001001453）に合併し解散,2015-10-05,1,,,,,ヒラヌマケンザイ,0
255,1370003004729,登記記録の閉鎖等,0,2023-04-12,2023-04-05,合同会社みらいサポーター,,合同会社,宮城県,仙台市宮城野区,燕沢１丁目２２番３０号サイドバイサイドＢ２０２,,04,102,9830823,,,2023-04-05,清算の結了等,,,2020-02-27,1,,,,,,0
265,1390001012954,登記記録の閉鎖等,0,2023-04-12,2023-04-03,高陽電子株式会社,,株式会社,山形県,米沢市,窪田町窪田１２２８番地,,06,202,9920003,,,2023-04-03,合併による解散等,4390001009956,令和５年４月１日山形県米沢市窪田町窪田字渋谷堰１１８８番地株式会社タカハタ電子（4390001009956）に合併し解散,2015-10-05,1,,,,,コウヨウデンシ,0
274,1440001005382,登記記録の閉鎖等,0,2023-04-12,2023-04-07,株式会社不動産プラザ・ＹＯＵ,,株式会社,北海道,函館市,石川町５２番地２,,01,202,0410802,,,2023-04-07,合併による解散等,1013301015152,令和５年４月１日東京都豊島区池袋二丁目６０番６号株式会社ＹＯＵ建築事務所（1013301015152）に合併し解散,2015-10-05,1,,,,,フドウサンプラザユー,0
277,1460301002887,登記記録の閉鎖等,0,2023-04-12,2023-04-03,株式会社フィナンシャル,,株式会社,北海道,旭川市,四条西３丁目１番１１号,,01,204,0700054,,,2023-04-03,合併による解散等,9450001010242,令和５年４月１日北海道旭川市四条西三丁目１番１１号株式会社ビジネス（9450001010242）に合併し解散,2015-10-05,1,,,,,フィナンシャル,0
292,2010001026553,登記記録の閉鎖等,0,2023-04-12,2023-04-03,株式会社パシフィック紙業,,株式会社,東京都,千代田区,神田錦町２丁目９番,,13,101,1010054,,,2023-04-03,合併による解散等,2010001017478,令和５年４月１日東京都千代田区神田錦町二丁目９番株式会社財界エージエンシー（2010001017478）に合併し解散,2015-10-05,1,,,,,パシフィックシギョウ,0
310,2010401157667,登記記録の閉鎖等,0,2023-04-12,2023-03-29,株式会社ラストウィル,,株式会社,東京都,港区,新橋２丁目１２番１号,,13,103,1050004,,,2023-03-29,清算の結了等,,,2021-01-18,1,,,,,ラストウィル,0
352,2011201000158,登記記録の閉鎖等,0,2023-04-12,2023-04-11,株式会社秋山工務店,,株式会社,東京都,中野区,中央４丁目１５番１０号,,13,114,1640011,,,2023-04-11,清算の結了等,,,2015-10-05,1,,,,,アキヤマコウムテン,0
365,2012301007365,登記記録の閉鎖等,0,2023-04-12,2023-04-07,株式会社南町田薬局,,株式会社,東京都,町田市,鶴間３丁目２番２号,,13,209,1940004,,,2023-04-07,合併による解散等,1410001002804,令和５年４月１日秋田市保戸野通町３番３１号株式会社サノ・ファーマシー（1410001002804）に合併し解散,2015-10-05,1,,,,,,0
374,2013301003569,登記記録の閉鎖等,0,2023-04-12,2023-04-03,株式会社ケーホーム管理,,株式会社,東京都,豊島区,南池袋３丁目２４番１６号,,13,116,1710022,,,2023-04-03,合併による解散等,9013301002564,令和５年４月１日東京都豊島区南池袋三丁目２４番１６号株式会社キングホーム（9013301002564）に合併し解散,2015-10-05,1,,,,,ケーホームカンリ,0
380,2020002032979,登記記録の閉鎖等,0,2023-04-12,2023-04-03,有限会社都製作所,,有限会社,埼玉県,北葛飾郡杉戸町,高野台南５丁目４番地８,,11,464,3450046,,,2023-04-03,清算の結了等,,,2015-10-05,1,,,,,,0
388,2030001090341,登記記録の閉鎖等,0,2023-04-12,2023-04-03,株式会社モリタ,,株式会社,埼玉県,飯能市,大字川寺３８６番地１ディアコ－トＣ－１０１,,11,209,3570044,,,2023-04-03,清算の結了等,,,2015-10-05,1,,,,,モリタ,0
395,2030002003145,登記記録の閉鎖等,0,2023-04-12,2023-04-03,沖眞工業有限会社,,有限会社,埼玉県,さいたま市見沼区,染谷３丁目５２５番地,,11,104,3370026,,,2023-04-03,清算の結了等,,,2015-10-05,1,,,,,オキシンコウギョウ,0
413,2050003003927,登記記録の閉鎖等,0,2023-04-12,2023-03-29,ジョイントプランニング合同会社,,合同会社,東京都,港区,元赤坂１丁目７－１０－９Ｆ,,13,103,1070051,,,2023-03-29,清算の結了等,,,2017-10-10,1,,,,,ジョイントプランニング,0
414,2060001001725,登記記録の閉鎖等,0,2023-04-12,2023-04-03,株式会社宇都宮管理,,株式会社,栃木県,宇都宮市,問屋町３１７２番地２５,,09,201,3210911,,,2023-04-03,清算の結了等,,,2015-10-05,1,,,,,ウツノミヤカンリ,0
425,2090001003099,登記記録の閉鎖等,0,2023-04-12,2023-04-07,株式会社サン宝石,,株式会社,山梨県,中央市,山之神流通団地一丁目７番１号,,19,214,4093845,,,2023-04-07,合併による解散等,4120001023983,令和５年４月１日大阪市東成区中道三丁目１５番１６号毎日東ビル６Ｆ株式会社聖和趣味の会（4120001023983）に合併し解散,2015-10-05,1,,,,,サンホウセキ,0
428,2100001006505,登記記録の閉鎖等,0,2023-04-12,2023-04-04,西沢商事株式会社,,株式会社,長野県,千曲市,上山田温泉３丁目１０番地５,,20,218,3890821,,,2023-04-04,清算の結了等,,,2015-10-05,1,,,,,ニシザワショウジ,0
433,2110002027417,登記記録の閉鎖等,0,2023-04-12,2023-04-05,有限会社銀山造園,,有限会社,新潟県,長岡市,草生津３丁目３番５号,,15,202,9400085,,,2023-04-05,清算の結了等,,,2015-10-05,1,,,,,ギンザンゾウエン,0
438,2120001170555,登記記録の閉鎖等,0,2023-04-12,2023-04-04,株式会社大阪味彩,,株式会社,大阪府,大阪市北区,芝田２丁目２番１３号日生ビル東館６０３,,27,127,5300012,,,2023-04-04,清算の結了等,,,2015-10-05,1,,,,,オオサカアジサイ,0
460,2120902010413,登記記録の閉鎖等,0,2023-04-12,2023-04-06,有限会社新栄化成,,有限会社,大阪府,摂津市,鳥飼上３丁目２番４３号,,27,224,5660062,,,2023-04-06,清算の結了等,,,2015-10-05,1,,,,,シンエイカセイ,0
503,2190001013138,登記記録の閉鎖等,0,2023-04-12,2023-04-05,昭和電線ユニマック株式会社,,株式会社,三重県,いなべ市,北勢町麻生田１３２６番地の１,,24,214,5110427,,,2023-04-05,合併による解散等,7010401061336,令和５年４月１日川崎市川崎区日進町１番１４号ＳＷＣＣ株式会社（7010401061336）に合併し解散,2015-10-05,1,,,,,ショウワデンセンユニマック,0
509,2200001031195,登記記録の閉鎖等,0,2023-04-12,2023-03-31,株式会社ケーダッシュ,,株式会社,岐阜県,多治見市,東山２丁目７番地の９,,21,204,5070019,,,2023-03-31,清算の結了等,,,2015-10-05,1,,,,,ケーダッシュ,0
532,2260002009739,登記記録の閉鎖等,0,2023-04-12,2023-04-04,三ツ和工業有限会社,,有限会社,岡山県,岡山市東区,西大寺中１丁目４番１５号,,33,103,7048116,,,2023-04-04,清算の結了等,,,2015-10-05,1,,,,,ミツワコウギョウ,0
548,2310002015995,登記記録の閉鎖等,0,2023-04-12,2023-04-05,有限会社岩永運送,,有限会社,長崎県,諫早市,多良見町化屋３２７番地,,42,204,8590401,,,2023-04-05,清算の結了等,,,2015-10-05,1,,,,,イワナガウンソウ,0
551,2330002020977,登記記録の閉鎖等,0,2023-04-12,2023-04-04,有限会社三甲,,有限会社,熊本県,玉名市,三ツ川４９４３番地,,43,206,8650009,,,2023-04-04,清算の結了等,,,2015-10-05,1,,,,,サンコウ,0
554,2340001020663,登記記録の閉鎖等,0,2023-04-12,2023-04-05,株式会社ｎｏｂｌｅ,,株式会社,鹿児島県,鹿児島市,中町８番８号,,46,201,8920827,,,2023-04-05,合併による解散等,9020002069445,令和５年３月３１日神奈川県横浜市泉区緑園五丁目２９番５カイシン株式会社（9020002069445）に合併し解散,2017-10-18,1,,,,,ノーブル,0
571,2370002001065,登記記録の閉鎖等,0,2023-04-12,2023-04-05,有限会社スマイル,,有限会社,宮城県,仙台市泉区,松陵２丁目３９番地の２,,04,105,9813108,,,2023-04-05,清算の結了等,,,2015-10-05,1,,,,,スマイル,0
591,2460005001441,登記記録の閉鎖等,0,2023-04-12,2023-04-07,一般社団法人くしろソーシャルデザインネットワーク,,その他の設立登記法人,北海道,釧路市,幸町６丁目１番地２号,,01,206,0850017,,,2023-04-07,清算の結了等,,,2015-10-05,1,,,,,クシロソーシャルデザインネットワーク,0
625,3010401169240,登記記録の閉鎖等,0,2023-04-12,2023-04-03,虎ノ門パートナーズ株式会社,,株式会社,東京都,港区,虎ノ門４丁目１番３４号,,13,103,1050001,,,2023-04-03,合併による解散等,9020002078578,令和５年４月１日東京都港区赤坂四丁目５番２１号バルミー赤坂３１７号室株式会社鈴木商店（9020002078578）に合併し解散,2022-08-19,1,,,,,トラノモンパートナーズ,0
643,3010902002222,登記記録の閉鎖等,0,2023-04-12,2023-04-07,有限会社永興商事,,有限会社,東京都,世田谷区,若林４丁目２５番１４号,,13,112,1540023,,,2023-04-07,合併による解散等,9011802005904,令和５年４月１日東京都葛飾区青戸三丁目３２番１８号日本商財株式会社（9011802005904）に合併し解散,2015-10-05,1,,,,,,0
647,3011001115774,登記記録の閉鎖等,0,2023-04-12,2023-04-04,株式会社ライブ・インデックス,,株式会社,東京都,渋谷区,桜丘町２０番１号,,13,113,1500031,,,2023-04-04,合併による解散等,4011001107606,令和５年４月１日東京都渋谷区桜丘町１８番４号株式会社希船工房（4011001107606）に合併し解散,2017-04-14,1,,,,,ライブインデックス,0
649,3011001140129,登記記録の閉鎖等,0,2023-04-12,2023-04-10,ＷＥＬＢＡＬＡＮＣＥ株式会社,,株式会社,東京都,渋谷区,神宮前６丁目２３番４号桑野ビル２階,,13,113,1500001,,,2023-04-10,清算の結了等,,,2021-05-07,1,,,,,ウェルバランス,0
653,3011101042729,登記記録の閉鎖等,0,2023-04-12,2023-04-05,共和クリエイト株式会社,,株式会社,東京都,世田谷区,宮坂３丁目４５番１７号,,13,112,1560051,,,2023-04-05,清算の結了等,,,2015-10-05,1,,,,,キョウワクリエイト,0
687,3020001024885,登記記録の閉鎖等,0,2023-04-12,2023-04-04,株式会社ヨコソー,,株式会社,神奈川県,横浜市神奈川区,東神奈川２丁目４８番地２,,14,102,2210044,,,2023-04-04,合併による解散等,7020001024964,令和５年４月１日横浜市神奈川区東神奈川二丁目４８番地２株式会社ワイ・エス・ケー（7020001024964）に合併し解散,2015-10-05,1,,,,,ヨコソー,0
691,3020001058025,登記記録の閉鎖等,0,2023-04-12,2023-04-03,株式会社ケーズ・クリエイト,,株式会社,神奈川県,横浜市青葉区,美しが丘１丁目１９番地１,,14,117,2250002,,,2023-04-03,清算の結了等,,,2015-10-05,1,,,,,ケーズクリエイト,0
708,3021001044535,登記記録の閉鎖等,0,2023-04-12,2023-04-06,株式会社ブレイヴ,,株式会社,神奈川県,横須賀市,鴨居３丁目４７番１４号,,14,201,2390813,,,2023-04-06,清算の結了等,,,2015-10-05,1,,,,,ブレイブ,0
736,3060001001121,登記記録の閉鎖等,0,2023-04-12,2023-04-03,関東産業株式会社,,株式会社,栃木県,宇都宮市,花房２丁目２番４号,,09,201,3200827,,,2023-04-03,合併による解散等,7060001014227,令和５年４月１日栃木県小山市大字稲葉郷１３４１番地１小平産業株式会社（7060001014227）に合併し解散,2015-10-05,1,,,,,カントウサンギョウ,0
752,3110001009547,登記記録の閉鎖等,0,2023-04-12,2023-04-05,株式会社グッドワン,,株式会社,新潟県,新潟市東区,牡丹山３丁目１４番２０号１,,15,102,9500872,,,2023-04-05,清算の結了等,,,2015-10-05,1,,,,,グッドワン,0
770,3120002078813,登記記録の閉鎖等,0,2023-04-12,2023-04-06,有限会社光輝システムクリエイト,,有限会社,大阪府,守口市,西郷通１丁目２４番１１－３０１号,,27,209,5700034,,,2023-04-06,清算の結了等,,,2015-10-05,1,,,,,コウキシステムクリエイト,0
814,3190002000027,登記記録の閉鎖等,0,2023-04-12,2023-04-04,有限会社アート英語学苑,,有限会社,三重県,松阪市,西町２５６１番地,,24,204,5150815,,,2023-04-04,清算の結了等,,,2015-10-05,1,,,,,アートエイゴガクエン,0
815,3190002001603,登記記録の閉鎖等,0,2023-04-12,2023-04-04,有限会社メディス,,有限会社,三重県,津市,一志町波瀬１７９２番地１,,24,201,5152522,,,2023-04-04,清算の結了等,,,2015-10-05,1,,,,,,0
826,3220001021251,登記記録の閉鎖等,0,2023-04-12,2023-04-05,株式会社Ｓ・Ｂ・Ｋ,,株式会社,石川県,金沢市,駅西本町３丁目１４番２１号リブスイート駅西７０３号,,17,201,9200025,,,2023-04-05,清算の結了等,,,2016-10-05,1,,,,,,0
849,3290002003671,登記記録の閉鎖等,0,2023-04-12,2023-04-10,有限会社バードランド博多,,有限会社,福岡県,福岡市博多区,立花寺２丁目２番１２号,,40,132,8120862,,,2023-04-10,合併による解散等,5300001006498,令和５年３月３１日佐賀県鳥栖市養父町４８８番地９株式会社バードランド（5300001006498）に合併し解散,2015-10-05,1,,,,,バードランドハカタ,0
853,3290803002673,登記記録の閉鎖等,0,2023-04-12,2023-04-10,合同会社エフライフ,,合同会社,福岡県,北九州市八幡西区,力丸町８番１８号,,40,109,8070802,,,2023-04-10,清算の結了等,,,2016-04-06,1,,,,,エフライフ,0
854,3290805006739,登記記録の閉鎖等,0,2023-04-12,2023-04-07,長玄寺,,その他の設立登記法人,福岡県,京都郡みやこ町,勝山箕田６８４番地,,40,625,8240811,,,2023-04-07,清算の結了等,,,2015-10-05,1,,,,,,0
875,3370002006088,登記記録の閉鎖等,0,2023-04-12,2023-04-04,有限会社マック冷熱,,有限会社,宮城県,仙台市若林区,今泉１丁目１番５９号,,04,103,9840835,,,2023-04-04,清算の結了等,,,2015-10-05,1,,,,,マックレイネツ,0
902,3480002001086,登記記録の閉鎖等,0,2023-04-12,2023-04-04,有限会社清重商店,,有限会社,徳島県,徳島市,南矢三町１丁目１２番１２号,,36,201,7700005,,,2023-04-04,清算の結了等,,,2015-10-05,1,,,,,キヨシゲショウテン,0
904,3500001012858,登記記録の閉鎖等,0,2023-04-12,2023-04-10,株式会社丸掬,,株式会社,愛媛県,今治市,伯方町木浦乙１９２番地の２１,,38,202,7942305,,,2023-04-10,清算の結了等,,,2015-10-05,1,,,,,マルギク,0
905,3500001018772,登記記録の閉鎖等,0,2023-04-12,2023-04-10,株式会社ＣＬＫ,,株式会社,愛媛県,松山市,三番町１丁目１６番地８,,38,201,7900003,,,2023-04-10,清算の結了等,,,2015-10-05,1,,,,,シーエルケー,0
906,3500002023292,登記記録の閉鎖等,0,2023-04-12,2023-04-10,有限会社若松屋本店,,有限会社,愛媛県,宇和島市,新町１丁目３番２６号,,38,203,7980035,,,2023-04-10,清算の結了等,,,2015-10-05,1,,,,,ワカマツヤホンテン,0
907,3700150110509,削除,,2023-04-12,,,,,,,,,,,,,,,,,,,,,,,,,
946,4010601035084,登記記録の閉鎖等,0,2023-04-12,2023-04-04,株式会社高久,00051543,株式会社,東京都,江東区,北砂６丁目１２番７号５０２号,,13,108,1360073,,,2023-04-04,清算の結了等,,,2015-10-05,1,,,,,,0
947,4010602009038,登記記録の閉鎖等,0,2023-04-12,2023-04-04,有限会社飯塚莫大小機械製作所,00051657,有限会社,東京都,墨田区,押上２丁目３７番３号,,13,107,1310045,,,2023-04-04,清算の結了等,,,2015-10-05,1,,,,,イイヅカメリヤスキカイセイサクショ,0
950,4010801032311,登記記録の閉鎖等,0,2023-04-12,2023-04-03,株式会社ＴＦＳ,,株式会社,東京都,大田区,大森南２丁目３番１０号,,13,111,1430013,,,2023-04-03,清算の結了等,,,2021-09-14,1,,,,,ティーエフエス,0
975,4011101081107,登記記録の閉鎖等,0,2023-04-12,2023-04-03,株式会社オプション,,株式会社,東京都,渋谷区,渋谷１丁目２番５号ＭＦＰＲ渋谷ビル,,13,113,1500002,,,2023-04-03,合併による解散等,2011001115189,令和５年４月１日東京都渋谷区渋谷一丁目２番５号ＭＦＰＲ渋谷ビル株式会社キューボ（2011001115189）に合併し解散,2017-07-21,1,,,,,オプション,0
1024,4030001072206,登記記録の閉鎖等,0,2023-04-12,2023-04-10,株式会社キュアメディカル,,株式会社,埼玉県,比企郡小川町,大字青山１４７１番地,,11,343,3550324,,,2023-04-10,合併による解散等,8010001191524,令和５年４月１日東京都千代田区丸の内一丁目８番１号株式会社フィールドファーマシー（8010001191524）に合併し解散,2015-10-05,1,,,,,キュアメディカル,0
1035,4040001021608,登記記録の閉鎖等,0,2023-04-12,2023-03-31,八千代ゆりのき台ＰＦＩ株式会社,,株式会社,千葉県,八千代市,緑が丘１丁目１２番５号,,12,221,2760049,,,2023-03-31,清算の結了等,,,2015-10-05,1,,,,,ヤチヨユリノキダイピーエフアイ,0
1040,4040005011101,削除,,2023-04-12,,,,,,,,,,,,,,,,,,,,,,,,,
1052,4070003003345,登記記録の閉鎖等,0,2023-04-12,2023-04-06,合同会社いべ,,合同会社,群馬県,前橋市,山王町２丁目２０番地１６,,10,201,3792123,,,2023-04-06,清算の結了等,,,2019-01-09,1,,,,,イベ,0
1059,4090001009391,登記記録の閉鎖等,0,2023-04-12,2023-04-10,株式会社フジ,,株式会社,山梨県,山梨市,上神内川１６１６,,19,205,4050018,,,2023-04-10,合併による解散等,8010001191524,令和５年４月１日東京都千代田区丸の内一丁目８番１号株式会社フィールドファーマシー（8010001191524）に合併し解散,2015-10-05,1,,,,,フジ,0
1067,4110001016146,登記記録の閉鎖等,0,2023-04-12,2023-04-04,中川ステンレス株式会社,,株式会社,新潟県,燕市,東太田１４７８番地,,15,213,9591289,,,2023-04-04,合併による解散等,8110001032271,令和５年４月１日新潟県燕市大曲３５８３番地山文中川ステンレス株式会社（8110001032271）に合併し解散,2015-10-05,1,,,,,ナカガワステンレス,0
1075,4120001085322,登記記録の閉鎖等,0,2023-04-12,2023-04-06,株式会社東宏,,株式会社,大阪府,大阪市中央区,上町１丁目２６番１７号,,27,128,5400005,,,2023-04-06,清算の結了等,,,2015-10-05,1,,,,,トウコウ,0
1078,4120001155661,登記記録の閉鎖等,0,2023-04-12,2023-04-04,株式会社京阪第一興商,,株式会社,大阪府,守口市,竜田通２丁目６番１１号,,27,209,5700025,,,2023-04-04,合併による解散等,1120001020918,令和５年４月１日大阪市平野区平野西五丁目８番１８号株式会社近畿第一興商（1120001020918）に合併し解散,2015-10-05,1,,,,,ケイハンダイイチコウショウ,0
1081,4120001212479,登記記録の閉鎖等,0,2023-04-12,2023-04-04,株式会社Ｏｆｆｉｃｅ　Ｚｅｒｏ　Ｈａｎｄ,,株式会社,大阪府,大阪市北区,中津１丁目２番２１号中津明大ビル,,27,127,5310071,,,2023-04-04,合併による解散等,9120001117748,令和５年４月１日大阪市浪速区恵美須東三丁目６番１号新世界ＭＤビルＩＩ株式会社ＨＡＳＳＩＮ（9120001117748）に合併し解散,2018-04-05,1,,,,,オフィスゼロハンド,0
1098,4130001003638,登記記録の閉鎖等,0,2023-04-12,2023-04-06,早久電工株式会社,,株式会社,京都府,京都市上京区,西三本木通荒神口下る上生洲町２２６番地,,26,102,6020855,,,2023-04-06,清算の結了等,,,2015-10-05,1,,,,,ハヤヒサデンコウ,0
1104,4130001071833,登記記録の閉鎖等,0,2023-04-12,2023-03-31,株式会社宇治再開発,,株式会社,京都府,京都市伏見区,竹田中川原町３６６番地,,26,109,6128412,,,2023-03-31,合併による解散等,5130001033080,令和５年３月３１日京都府宇治市小倉町神楽田５５番地１株式会社松原興産（5130001033080）に合併し解散,2022-05-25,1,,,,,カウジサイカイハツ,0
1107,4130002016143,登記記録の閉鎖等,0,2023-04-12,2023-04-06,キリンクラフト有限会社,,有限会社,京都府,京都市左京区,高野上竹屋町１０－４６,,26,103,6068105,,,2023-04-06,清算の結了等,,,2015-10-05,1,,,,,キリンクラフト,0
1113,4140001120226,登記記録の閉鎖等,0,2023-04-12,2023-04-04,株式会社ぼくらの事務さん,,株式会社,兵庫県,神戸市中央区,磯上通８丁目１番２９号カサベラビルＣ＆Ｍ４０３号室,,28,110,6510086,,,2023-04-04,清算の結了等,,,2021-01-25,1,,,,,ボクラノジムサン,0
1131,4160001004583,登記記録の閉鎖等,0,2023-04-12,2023-04-07,株式会社三方よし,,株式会社,滋賀県,大津市,萱野浦１６番１号,,25,201,5202143,,,2023-04-07,清算の結了等,,,2015-10-05,1,,,,,サンポウヨシ,0
1148,4190001003509,登記記録の閉鎖等,0,2023-04-12,2023-04-07,三重日東電工株式会社,,株式会社,三重県,亀山市,布気町９１９番地,,24,210,5190166,,,2023-04-07,合併による解散等,2120901001628,令和５年４月１日大阪府茨木市下穂積一丁目１番２号日東電工株式会社（2120901001628）に合併し解散,2015-10-05,1,,,,,ミエニットウデンコウ,0
1150,4190002008556,登記記録の閉鎖等,0,2023-04-12,2023-04-05,有限会社上条製作所,,有限会社,三重県,伊勢市,勢田町９４１番地８８,,24,203,5160035,,,2023-04-05,清算の結了等,,,2015-10-05,1,,,,,カミジョウセイサクショ,0
1162,4230001003280,登記記録の閉鎖等,0,2023-04-12,2023-04-10,株式会社ますだ,,株式会社,富山県,富山市,針原新町３１１番地の３,,16,201,9390000,,,2023-04-10,清算の結了等,,,2015-10-05,1,,,,,マスダ,0
1163,4230002003759,登記記録の閉鎖等,0,2023-04-12,2023-04-10,有限会社竹村会計,,有限会社,富山県,富山市,根塚町３丁目４番６,,16,201,9398204,,,2023-04-10,清算の結了等,,,2015-10-05,1,,,,,タケムラカイケイ,0
1171,4240005009868,登記記録の閉鎖等,0,2023-04-12,2023-03-16,特定非営利活動法人ゆらぎ家族支援協会,,その他の設立登記法人,広島県,福山市,野上町３丁目２番４号の２０４,,34,207,7200815,,,2023-03-16,清算の結了等,,,2015-10-05,1,,,,,ユラギカゾクシエンキョウカイ,0
1201,4370001006889,登記記録の閉鎖等,0,2023-04-12,2023-04-05,安東産業株式会社,,株式会社,宮城県,仙台市青葉区,国分町２丁目１番１５号猪股ビル,,04,101,9800803,,,2023-04-05,清算の結了等,,,2015-10-05,1,,,,,アンドウサンギョウ,0
1224,4490001008618,登記記録の閉鎖等,0,2023-04-12,2023-04-10,本川地区建設産業株式会社,,株式会社,高知県,吾川郡いの町,戸中８１番地５,,39,386,7812602,,,2023-04-10,清算の結了等,,,2017-03-24,1,,,,,ホンガワチクケンセツサンギョウ,0
1229,4700150112272,削除,,2023-04-12,,,,,,,,,,,,,,,,,,,,,,,,,
1238,5010001153329,登記記録の閉鎖等,0,2023-04-12,2023-04-03,株式会社タグキャスト,,株式会社,東京都,千代田区,九段北１丁目３番５号,,13,101,1020073,,,2023-04-03,合併による解散等,7010001116102,令和５年４月１日東京都千代田区九段北一丁目３番５号ボクシーズ株式会社（7010001116102）に合併し解散,2015-10-05,1,,,,,タグキャスト,0
1245,5010005016614,登記記録の閉鎖等,0,2023-04-12,2023-04-05,公益財団法人大和証券ヘルス財団,,その他の設立登記法人,東京都,中央区,京橋１丁目２番１号,,13,102,1040031,,,2023-04-05,合併による解散等,7010005016612,令和５年４月１日東京都中央区京橋一丁目２番１号大和八重洲ビル公益財団法人大和証券財団（7010005016612）に合併し解散,2015-10-05,1,,,,,ダイワショウケンヘルスザイダン,0
1251,5010401169239,登記記録の閉鎖等,0,2023-04-12,2023-04-03,神谷町パートナーズ株式会社,,株式会社,東京都,港区,虎ノ門４丁目１番３４号,,13,103,1050001,,,2023-04-03,合併による解散等,9020002078578,令和５年４月１日東京都港区赤坂四丁目５番２１号バルミー赤坂３１７号室株式会社鈴木商店（9020002078578）に合併し解散,2022-08-19,1,,,,,カミヤチョウパートナーズ,0
1257,5010402000311,登記記録の閉鎖等,0,2023-04-12,2023-03-31,有限会社アクト,,有限会社,東京都,港区,三田５丁目５番５号,,13,103,1080073,,,2023-03-31,清算の結了等,,,2015-10-05,1,,,,,アクト,0
1258,5010402006853,登記記録の閉鎖等,0,2023-04-12,2023-04-07,有限会社白金台南薬局,,有限会社,東京都,港区,白金６丁目６番１号,,13,103,1080072,,,2023-04-07,合併による解散等,6010901003581,令和５年４月１日東京都世田谷区成城七丁目８番１８号株式会社グラム（6010901003581）に合併し解散,2015-10-05,1,,,,,シロカネダイミナミヤッキョク,0
1263,5010501040761,登記記録の閉鎖等,0,2023-04-12,2023-04-06,株式会社ＧＯＬＤＥＮ　ＷＯＲＫＳ,,株式会社,沖縄県,那覇市,牧志２丁目２番３０号リウボウビル３階,,47,201,9000013,,,2023-04-06,清算の結了等,,,2017-03-13,1,,,,,ゴールデンワークス,0
1269,5010803003152,登記記録の閉鎖等,0,2023-04-12,2023-03-29,合同会社言通,,合同会社,東京都,港区,南青山２丁目２番１５号,,13,103,1070062,,,2023-03-29,清算の結了等,,,2019-10-17,1,,,,,ゲンツウ,0
1297,5011403002981,登記記録の閉鎖等,0,2023-04-12,2023-04-07,征信合同会社,,合同会社,東京都,板橋区,大山東町３６－１,,13,119,1730014,,,2023-04-07,清算の結了等,,,2020-04-17,1,,,,,,0
1330,5020002005049,登記記録の閉鎖等,0,2023-04-12,2023-04-03,有限会社八雲,,有限会社,神奈川県,横浜市緑区,台村町３１７番地,,14,113,2260014,,,2023-04-03,清算の結了等,,,2015-10-05,1,,,,,ヤグモ,0
1346,5030001021293,登記記録の閉鎖等,0,2023-04-12,2023-04-04,葵一土木工業株式会社,00014704,株式会社,埼玉県,戸田市,新曽南２丁目１０番３号エンゼルハイム戸田１０６,,11,224,3350026,,,2023-04-04,清算の結了等,,,2015-10-05,1,,,,,アオイドボクコウギョウ,0
1351,5030001084547,登記記録の閉鎖等,0,2023-04-12,2023-04-07,関東浅野パイプ株式会社,,株式会社,埼玉県,熊谷市,佐谷田２４１８番地,,11,202,3600023,,,2023-04-07,合併による解散等,9020001040448,令和５年４月１日横浜市鶴見区鶴見中央二丁目５番５号株式会社エーアンドエーマテリアル（9020001040448）に合併し解散,2015-10-05,1,,,,,カントウアサノパイプ,0
1369,5040005008055,削除,,2023-04-12,,,,,,,,,,,,,,,,,,,,,,,,,
1420,5130001045043,登記記録の閉鎖等,0,2023-04-12,2023-04-10,株式会社あいむホールディング,,株式会社,大阪府,大阪市中央区,大手前１丁目７番３１号ＯＭＭビル,,27,128,5400008,,,2023-04-10,合併による解散等,9160001015262,令和５年３月３１日滋賀県守山市守山四丁目６番１１号株式会社あいむ（9160001015262）に合併し解散,2015-10-05,1,,,,,アイムホールディング,0
1428,5140001078380,登記記録の閉鎖等,0,2023-04-12,2023-04-04,伊丹電機テクノ株式会社,,株式会社,兵庫県,伊丹市,南町２丁目１番３号,,28,207,6640854,,,2023-04-04,清算の結了等,,,2015-10-05,1,,,,,イタミデンキテクノ,0
1486,5290001025731,登記記録の閉鎖等,0,2023-04-12,2023-04-03,福岡セブンタクシー株式会社,,株式会社,福岡県,福岡市博多区,上牟田３丁目６番９号,,40,132,8120006,,,2023-04-03,合併による解散等,7290002031529,令和５年４月１日福岡市博多区上牟田三丁目６番９号株式会社ラッキー１（7290002031529）に合併し解散,2015-10-05,1,,,,,フクオカセブンタクシー,0
1500,5330005006839,登記記録の閉鎖等,0,2023-04-12,2023-04-03,天草畜産農業協同組合,,その他の設立登記法人,熊本県,天草市,佐伊津町６８２番地,,43,215,8632171,,,2023-04-03,合併による解散等,2330005000761,令和５年４月３日熊本市東区桜木六丁目３番５４号熊本県畜産農業協同組合（2330005000761）と合併し解散,2015-10-05,1,,,,,アマクサチクサン,0
1501,5340001017748,登記記録の閉鎖等,0,2023-04-12,2023-04-10,株式会社ｆｏｃｕｓ,,株式会社,鹿児島県,奄美市,名瀬小俣町１４番２０号,,46,222,8940012,,,2023-04-10,清算の結了等,,,2015-10-05,1,,,,,,0
1533,5420002018893,登記記録の閉鎖等,0,2023-04-12,2023-04-04,有限会社久保田鉄筋,,有限会社,青森県,上北郡東北町,字下山８４番地の５,,02,408,0392653,,,2023-04-04,清算の結了等,,,2015-10-05,1,,,,,クボタテッキン,0
1546,5500003002418,登記記録の閉鎖等,0,2023-04-12,2023-04-11,合同会社ビスポーク,,合同会社,愛媛県,松山市,岩崎町１丁目１番３１号,,38,201,7900854,,,2023-04-11,清算の結了等,,,2020-03-18,1,,,,,ビスポーク,0
1547,5700150112577,削除,,2023-04-12,,,,,,,,,,,,,,,,,,,,,,,,,
1554,6010001043743,登記記録の閉鎖等,0,2023-04-12,2023-04-06,株式会社ピースグローバ,,株式会社,東京都,葛飾区,西新小岩３丁目５番１号,,13,122,1240025,,,2023-04-06,合併による解散等,3011801002610,令和５年３月２５日東京都葛飾区西新小岩三丁目５番１号大成ホールディングス株式会社（3011801002610）に合併し解散,2015-10-05,1,,,,,ピースグローバ,0
1564,6010401003339,登記記録の閉鎖等,0,2023-04-12,2023-04-03,インターナシヨナル、エコノミツクサービス株式会社,,株式会社,東京都,渋谷区,神宮前１丁目１９番１３号,,13,113,1500001,,,2023-04-03,清算の結了等,,,2015-10-05,1,,,,,インターナシヨナルエコノミツクサービス,0
1566,6010401094519,登記記録の閉鎖等,0,2023-04-12,2023-04-03,株式会社アグリホープ,,株式会社,東京都,千代田区,麹町４丁目５番２１号,,13,101,1020083,,,2023-04-03,合併による解散等,1380001005125,令和５年４月１日東京都千代田区麹町四丁目５番２１号株式会社ライザンフォスターホールディングス（1380001005125）に合併し解散,2015-10-05,1,,,,,アグリホープ,0
1576,6010405014233,登記記録の閉鎖等,0,2023-04-12,2023-03-30,一般社団法人Ｐｒｏｊｅｃｔ７２,,その他の設立登記法人,東京都,港区,東新橋２丁目１番６号,,13,103,1050021,,,2023-03-30,清算の結了等,,,2015-10-05,1,,,,,プロジェクトナナジュウニ,0
1604,6011101051776,登記記録の閉鎖等,0,2023-04-12,2023-04-03,株式会社上高地,,株式会社,埼玉県,熊谷市,筑波２丁目４９番１号,,11,202,3600037,,,2023-04-03,清算の結了等,,,2015-10-05,1,,,,,カミコウチ,0
1693,6100001009685,登記記録の閉鎖等,0,2023-04-12,2023-04-04,オーギ産業株式会社,,株式会社,長野県,上田市,御所５２６番地,,20,203,3860033,,,2023-04-04,清算の結了等,,,2015-10-05,1,,,,,オーギサンギョウ,0
1698,6120001093083,登記記録の閉鎖等,0,2023-04-12,2023-04-06,日本インターメデイエイト株式会社,,株式会社,大阪府,大阪市中央区,道修町２丁目２番５号,,27,128,5410045,,,2023-04-06,清算の結了等,,,2015-10-05,1,,,,,ニホンインターメデイエイト,0
1711,6120101027949,登記記録の閉鎖等,0,2023-04-12,2023-04-06,株式会社サンシャインプロジェクト,,株式会社,大阪府,大阪市西区,西本町２丁目１番４１号,,27,106,5500005,,,2023-04-06,清算の結了等,,,2015-10-05,1,,,,,サンシャインプロジェクト,0
1720,6122005000123,登記記録の閉鎖等,0,2023-04-12,2023-04-10,医療生協かわち野生活協同組合,,その他の設立登記法人,大阪府,東大阪市,長瀬町１丁目６番１５号,,27,227,5770832,,,2023-04-10,合併による解散等,8120005004423,令和５年４月１日大阪市鶴見区鶴見三丁目６番２４号医療福祉生活協同組合おおさか（8120005004423）に合併し解散,2015-10-05,1,,,,,イリョウセイキョウカワチノ,0
1722,6130001050249,登記記録の閉鎖等,0,2023-04-12,2023-04-06,株式会社保険レンタリース近畿,,株式会社,京都府,京都市伏見区,横大路長畑町４２番地６,,26,109,6128286,,,2023-04-06,清算の結了等,,,2015-10-05,1,,,,,ホケンレンタリースキンキ,0
1781,6260003000429,登記記録の閉鎖等,0,2023-04-12,2023-04-06,ティーエムテレコム合同会社,,合同会社,岡山県,岡山市北区,十日市東町１番２９－４０３号,,33,101,7000854,,,2023-04-06,清算の結了等,,,2015-10-05,1,,,,,ティーエムテレコム,0
1783,6270001005081,登記記録の閉鎖等,0,2023-04-12,2023-03-29,ＯＤＳコミュニケーションサービス株式会社,,株式会社,鳥取県,倉吉市,秋喜２４３番地,,31,203,6820925,,,2023-03-29,清算の結了等,,,2015-10-05,1,,,,,オーディーエスコミュニケーションサービス,0
1786,6290001033766,登記記録の閉鎖等,0,2023-04-12,2023-04-03,株式会社伊都の国志摩の国,,株式会社,福岡県,糸島市,南風台８丁目４番１１号,,40,230,8191137,,,2023-04-03,合併による解散等,6290001071072,令和５年４月１日福岡市博多区中洲五丁目３番８号アクア博多６Ｆ株式会社ＬＡＮＤＩＣホテル＆リゾート（6290001071072）に合併し解散,2015-10-05,1,,,,,イトノクニシマノクニ,0
1816,6350003000584,登記記録の閉鎖等,0,2023-04-12,2023-04-03,合資会社住まいの相談サイトウ,,合資会社,宮崎県,宮崎市,曽師町１２５番地１０,,45,201,8800875,,,2023-04-03,清算の結了等,,,2015-10-05,1,,,,,スマイノソウダンサイトウ,0
1828,6380002005078,登記記録の閉鎖等,0,2023-04-12,2023-04-06,有限会社田中一心堂新聞店,,有限会社,福島県,伊達市,片町３６番地,,07,213,9600461,,,2023-04-06,清算の結了等,,,2015-10-05,1,,,,,タナカイッシンドウシンブンテン,0
1831,6390001006456,登記記録の閉鎖等,0,2023-04-12,2023-04-03,東洋農材株式会社,,株式会社,山形県,酒田市,相生町１丁目５番３６号,,06,204,9980032,,,2023-04-03,清算の結了等,,,2015-10-05,1,,,,,トウヨウノウザイ,0
1840,6402702000561,登記記録の閉鎖等,0,2023-04-12,2023-04-03,有限会社ナカタフーズ,,有限会社,岩手県,陸前高田市,高田町字中田６６番地８,,03,210,0292205,,,2023-04-03,清算の結了等,,,2015-10-05,1,,,,,ナカタフーズ,0
1869,7010001187903,登記記録の閉鎖等,0,2023-04-12,2023-04-03,株式会社東京屋,,株式会社,東京都,文京区,弥生１丁目３番７号,,13,105,1130032,,,2023-04-03,合併による解散等,8010001005295,令和５年４月１日東京都文京区千駄木二丁目６番６号東京不動産企画株式会社（8010001005295）に合併し解散,2017-11-27,1,,,,,トウキョウヤ,0
1870,7010001206522,登記記録の閉鎖等,0,2023-04-12,2023-04-03,ＥＮＥＯＳリニューアブルエナジー株式会社,,株式会社,東京都,千代田区,大手町１丁目１番２号,,13,101,1000004,,,2023-04-03,合併による解散等,4010001133876,令和５年４月１日東京都千代田区大手町一丁目１番２号ＥＮＥＯＳ株式会社（4010001133876）に合併し解散,2020-01-27,1,,,,,エネオスリニューアブルエナジー,0
1871,7010001221174,登記記録の閉鎖等,0,2023-04-12,2023-04-03,株式会社ＭＭＡＧ,,株式会社,東京都,中央区,日本橋１丁目１９番１号,,13,102,1030027,,,2023-04-03,合併による解散等,2010401067908,令和５年３月３１日東京都中央区日本橋一丁目１９番１号三井化学クロップ＆ライフソリューション株式会社（2010401067908）に合併し解散,2021-09-15,1,,,,,エムエムエージー,0
1872,7010001223773,登記記録の閉鎖等,0,2023-04-12,2023-04-04,株式会社ツーネーション,,株式会社,東京都,中央区,京橋３丁目１２番６号ニュー京橋ビル５階,,13,102,1040031,,,2023-04-04,清算の結了等,,,2022-01-17,1,,,,,ツーネーション,0
1884,7010101001253,登記記録の閉鎖等,0,2023-04-12,2023-04-07,株式会社コスモジーテ,,株式会社,東京都,八王子市,中町２番１号,,13,201,1920085,,,2023-04-07,合併による解散等,3010101001075,令和５年３月３１日東京都渋谷区道玄坂一丁目２０番８号株式会社グランド東京（3010101001075）に合併し解散,2015-10-05,1,,,,,コスモジーテ,0
1889,7010401092827,登記記録の閉鎖等,0,2023-04-12,2023-04-03,株式会社ザ・シネマ,,株式会社,東京都,渋谷区,恵比寿４丁目２０番３号恵比寿ガーデンプレイスタワー１７階,,13,113,1500013,,,2023-04-03,合併による解散等,5010401162193,令和５年４月１日東京都渋谷区恵比寿四丁目２０－３恵比寿ガーデンプレイスタワーＡＸＮ株式会社（5010401162193）に合併し解散,2015-10-05,1,,,,,ザシネマ,0
1895,7010501007370,登記記録の閉鎖等,0,2023-04-12,2023-04-10,高橋自動車株式会社,00051112,株式会社,東京都,台東区,東浅草１丁目１２番１２号,,13,106,1110025,,,2023-04-10,清算の結了等,,,2015-10-05,1,,,,,タカハシジドウシャ,0
1899,7010503003723,登記記録の閉鎖等,0,2023-04-12,2023-04-05,エスエヌエス合同会社,,合同会社,神奈川県,藤沢市,辻堂新町３丁目８番１１～７号,,14,205,2510042,,,2023-04-05,清算の結了等,,,2015-10-05,1,,,,,エスエヌエス,0
1908,7011001073754,登記記録の閉鎖等,0,2023-04-12,2023-04-04,ＫＹＯＲＡＫＵ　ＡＭＡＺＥ　ＭＡＧＩＣＳ株式会社,,株式会社,東京都,渋谷区,恵比寿南１丁目７番８号恵比寿サウスワン４Ｆ,,13,113,1500022,,,2023-04-04,合併による解散等,5011001059409,令和５年４月１日東京都渋谷区恵比寿南一丁目７番８号恵比寿サウスワン５Ｆ京楽ピクチャーズ．株式会社（5011001059409）に合併し解散,2015-10-05,1,,,,,キョウラクアメーズマジックス,0
1910,7011001135942,登記記録の閉鎖等,0,2023-04-12,2023-04-10,株式会社ｏ．ｇ,,株式会社,東京都,渋谷区,恵比寿西１丁目３３番６号ＪＰＮｏｉｅ１Ｆ,,13,113,1500021,,,2023-04-10,清算の結了等,,,2020-09-24,1,,,,,オージー,0
1924,7011402005744,登記記録の閉鎖等,0,2023-04-12,2023-04-10,有限会社タップエイト,,有限会社,東京都,板橋区,徳丸５丁目２７番７号,,13,119,1750083,,,2023-04-10,清算の結了等,,,2015-10-05,1,,,,,タップエイト,0
1929,7011602002780,登記記録の閉鎖等,0,2023-04-12,2023-04-03,有限会社カワイ,,有限会社,東京都,豊島区,池袋１丁目２番６号,,13,116,1700014,,,2023-04-03,清算の結了等,,,2015-10-05,1,,,,,カワイ,0
1930,7011702017043,登記記録の閉鎖等,0,2023-04-12,2023-04-03,有限会社サロン・プルメリア,,有限会社,東京都,江戸川区,一之江８丁目１７番４号,,13,123,1320024,,,2023-04-03,清算の結了等,,,2015-10-05,1,,,,,サロンプルメリア,0
1970,7021003010399,登記記録の閉鎖等,0,2023-04-12,2023-04-04,ｐｕｐａ合同会社,,合同会社,神奈川県,横須賀市,長井１丁目２６番１０－４０３号,,14,201,2380316,,,2023-04-04,清算の結了等,,,2021-04-23,1,,,,,ピューパ,0
2005,7080001015470,登記記録の閉鎖等,0,2023-04-12,2023-04-10,大井川測量設計株式会社,,株式会社,静岡県,焼津市,上新田８５８番地の１,,22,212,4210206,,,2023-04-10,清算の結了等,,,2015-10-05,1,,,,,オオイガワソクリョウセッケイ,0
2006,7080005005872,登記記録の閉鎖等,0,2023-04-12,2023-04-10,志太東部米雑穀小売企業組合,,その他の設立登記法人,静岡県,藤枝市,仮宿１６１４番地,,22,214,4260001,,,2023-04-10,清算の結了等,,,2015-10-05,1,,,,,シダトウブベイザッコクコウリ,0
2010,7080102006567,登記記録の閉鎖等,0,2023-04-12,2023-04-06,有限会社ケーワイズ,,有限会社,静岡県,沼津市,原３８０番地の１,,22,203,4100312,,,2023-04-06,清算の結了等,,,2015-10-05,1,,,,,ケーワイズ,0
2013,7080401000700,登記記録の閉鎖等,0,2023-04-12,2023-04-06,株式会社遠州塗装工業,,株式会社,静岡県,磐田市,駒場７０６１番地１６,,22,211,4380233,,,2023-04-06,合併による解散等,5080401002814,令和５年４月１日静岡県浜松市東区大島町９５５番地の９第一工業株式会社（5080401002814）に合併し解散,2015-10-05,1,,,,,エンシュウトソウコウギョウ,0
2018,7090001008300,登記記録の閉鎖等,0,2023-04-12,2023-04-05,池谷精工株式会社,,株式会社,山梨県,南都留郡道志村,１０６６７番地,,19,422,4020200,,,2023-04-05,清算の結了等,,,2015-10-05,1,,,,,イケヤセイコウ,0
2024,7100002027594,登記記録の閉鎖等,0,2023-04-12,2023-04-04,有限会社そうざいの店上平,,有限会社,長野県,木曽郡上松町,大字上松９６８番地１０,,20,422,3995601,,,2023-04-04,清算の結了等,,,2015-10-05,1,,,,,ソウザイノミセエウヒラ,0
2027,7110001035663,登記記録の閉鎖等,0,2023-04-12,2023-04-05,ａｙａｘ株式会社,,株式会社,新潟県,新潟市江南区,東船場３丁目３番３０号,,15,104,9500163,,,2023-04-05,清算の結了等,,,2021-04-02,1,,,,,アヤックス,0
2043,7120003020729,登記記録の閉鎖等,0,2023-04-12,2023-04-04,Ｎ．ｓｅｅ　ｙｏｕ合同会社,,合同会社,大阪府,枚方市,山之上４丁目６番１１号,,27,210,5730047,,,2023-04-04,清算の結了等,,,2021-12-10,1,,,,,エヌドットシーユー,0
2068,7170001007418,登記記録の閉鎖等,0,2023-04-12,2023-04-06,箕島企業株式会社,,株式会社,和歌山県,有田市,箕島６６２番地の１１岩田建設ビル内,,30,204,6490304,,,2023-04-06,清算の結了等,,,2015-10-05,1,,,,,ミノシマキギョウ,0
2077,7190001011830,登記記録の閉鎖等,0,2023-04-12,2023-04-03,株式会社サンワ,,株式会社,三重県,松阪市,松崎浦町９５番地２,,24,204,5152132,,,2023-04-03,清算の結了等,,,2015-10-05,1,,,,,サンワ,0
2111,7300001008732,登記記録の閉鎖等,0,2023-04-12,2023-04-03,株式会社海男,,株式会社,佐賀県,藤津郡太良町,大字大浦丙９７７番地１,,41,441,8491613,,,2023-04-03,合併による解散等,2250002014269,令和５年４月１日佐賀県藤津郡太良町大字大浦丙９７７番地１株式会社海男（2250002014269）に合併し解散,2015-10-05,1,,,,,ウミオトコ,0
2118,7340002012597,登記記録の閉鎖等,0,2023-04-12,2023-04-07,有限会社田渕建築建装,,有限会社,鹿児島県,日置市,東市来町養母８３８３番地２,,46,216,8992311,,,2023-04-07,清算の結了等,,,2015-10-05,1,,,,,タブチケンチクケンソウ,0
2128,7370301002362,登記記録の閉鎖等,0,2023-04-12,2023-04-03,株式会社向陽コーポレーション,,株式会社,宮城県,石巻市,北村字大尻三３番地の１,,04,202,9871103,,,2023-04-03,合併による解散等,4370301003306,令和５年４月１日宮城県石巻市北村字大尻三３番地の１株式会社向陽ホールディングス（4370301003306）に合併し解散,2015-10-05,1,,,,,コウヨウコーポレーション,0
2161,8010001208369,登記記録の閉鎖等,0,2023-04-12,2023-04-04,ＴＨＥ　ＡＭＪ株式会社,,株式会社,東京都,千代田区,東神田２丁目６－７－６０８,,13,101,1010031,,,2023-04-04,清算の結了等,,,2020-03-27,1,,,,,ザエーエムジェイ,0
2177,8010405018604,登記記録の閉鎖等,0,2023-04-12,2023-03-29,一般社団法人ＨＤＧ１８,,その他の設立登記法人,東京都,港区,虎ノ門３丁目２２番１０－２０１号,,13,103,1050001,,,2023-03-29,清算の結了等,,,2020-03-13,1,,,,,エイチディージーワンエイト,0
2184,8010601011899,登記記録の閉鎖等,0,2023-04-12,2023-04-03,株式会社古知,,株式会社,東京都,港区,虎ノ門４丁目１番３４号,,13,103,1050001,,,2023-04-03,合併による解散等,9020002078578,令和５年４月１日東京都港区赤坂四丁目５番２１号バルミー赤坂３１７号室株式会社鈴木商店（9020002078578）に合併し解散,2015-10-05,1,,,,,コチ,0
2185,8010603002764,登記記録の閉鎖等,0,2023-04-12,2023-04-03,合名会社五福,00051787,合名会社,東京都,墨田区,太平１丁目１２番４号,,13,107,1300012,,,2023-04-03,清算の結了等,,,2015-10-05,1,,,,,ゴフク,0
2194,8010902015293,登記記録の閉鎖等,0,2023-04-12,2023-04-05,有限会社モッコリース,,有限会社,東京都,世田谷区,経堂５丁目３１番１１号,,13,112,1560052,,,2023-04-05,清算の結了等,,,2015-10-05,1,,,,,モッコリース,0
2199,8011001107164,登記記録の閉鎖等,0,2023-04-12,2023-04-04,ＲＩＳＥ　Ｊａｐａｎ株式会社,,株式会社,東京都,渋谷区,恵比寿１丁目１９番１９号,,13,113,1500013,,,2023-04-04,合併による解散等,8011001112552,令和５年３月３１日東京都渋谷区恵比寿一丁目１９番１９号株式会社セルム（8011001112552）に合併し解散,2015-10-05,1,,,,,ライズジャパン,0
2237,8013103000040,登記記録の閉鎖等,0,2023-04-12,2023-04-04,トラストテック合資会社,,合資会社,東京都,羽村市,羽西３丁目３番２７号,,13,227,2050017,,,2023-04-04,清算の結了等,,,2015-10-05,1,,,,,トラストテック,0
2238,8013205001382,登記記録の閉鎖等,0,2023-04-12,2023-04-04,特定非営利活動法人ノマドインターナショナル,,その他の設立登記法人,東京都,渋谷区,神宮前６丁目２３‐４桑野ビル２階,,13,113,1500001,,,2023-04-04,清算の結了等,,,2015-10-05,1,,,,,ノマドインターナショナル,0
2245,8020001022851,登記記録の閉鎖等,0,2023-04-12,2023-04-04,協和パーツ産業株式会社,,株式会社,神奈川県,横浜市神奈川区,羽沢町５０９番地３,,14,102,2210863,,,2023-04-04,清算の結了等,,,2015-10-05,1,,,,,キョウワパーツサンギョウ,0
2258,8030001024500,登記記録の閉鎖等,0,2023-04-12,2023-04-03,株式会社タカタニ,,株式会社,埼玉県,所沢市,大字亀ケ谷２２２番地,,11,208,3590014,,,2023-04-03,清算の結了等,,,2015-10-05,1,,,,,タカタニ,0
2273,8040001049918,登記記録の閉鎖等,0,2023-04-12,2023-03-31,株式会社エヌティー,,株式会社,千葉県,佐倉市,上志津１６７３番地１０６,,12,212,2850846,,,2023-03-31,清算の結了等,,,2015-10-05,1,,,,,エヌティー,0
2297,8080003002474,登記記録の閉鎖等,0,2023-04-12,2023-04-07,合同会社福用エナジー,,合同会社,静岡県,島田市,福用９８０－１,,22,209,4280002,,,2023-04-07,合併による解散等,2010401070119,令和５年３月２９日東京都渋谷区宇田川町１４番１３号株式会社ＳＢＹデジタルプロダクツ（2010401070119）に合併し解散,2020-09-04,1,,,,,フクヨウエナジー,0
2306,8090003002119,登記記録の閉鎖等,0,2023-04-12,2023-04-03,合同会社エスエフシー,,合同会社,山梨県,中巨摩郡昭和町,河西１０８２番地１,,19,384,4093851,,,2023-04-03,合併による解散等,2090001004493,令和５年４月１日山梨県中巨摩郡昭和町河西１０８２番地１株式会社セルフカンパニー（2090001004493）に合併し解散,2022-06-27,1,,,,,エスエフシー,0
2316,8110001027841,登記記録の閉鎖等,0,2023-04-12,2023-04-05,株式会社シンワシーデリカ,,株式会社,新潟県,佐渡市,秋津１０１番地１,,15,224,9520021,,,2023-04-05,合併による解散等,8110001027676,令和５年４月１日新潟県佐渡市秋津１０１番地１株式会社廣瀬組（8110001027676）に合併し解散,2015-10-05,1,,,,,シンワシーデリカ,0
2325,8120001213754,登記記録の閉鎖等,0,2023-04-12,2023-04-05,株式会社アルカナイト,,株式会社,大阪府,大阪市中央区,難波千日前１１番６号,,27,128,5420075,,,2023-04-05,清算の結了等,,,2018-06-05,1,,,,,アルカナイト,0
2334,8120901018716,登記記録の閉鎖等,0,2023-04-12,2023-04-06,カフナコンサルティング株式会社,,株式会社,大阪府,高槻市,西之川原１丁目６番１号,,27,207,5691035,,,2023-04-06,清算の結了等,,,2015-10-05,1,,,,,カフナコンサルティング,0
2341,8122002010263,登記記録の閉鎖等,0,2023-04-12,2023-04-10,有限会社ミヤノ・コーポレーション,,有限会社,大阪府,東大阪市,御厨南１丁目１番３２－２０２号,,27,227,5770034,,,2023-04-10,清算の結了等,,,2015-10-05,1,,,,,ミヤノコーポレーション,0
2350,8140001084120,登記記録の閉鎖等,0,2023-04-12,2023-04-07,株式会社ホンダカーズ兵庫,,株式会社,兵庫県,宝塚市,武庫川町６番２４号,,28,214,6650844,,,2023-04-07,合併による解散等,8120001119497,令和５年４月１日大阪市北区南扇町７番３１号ホンダ大阪ビル５Ｆ株式会社ホンダモビリティ近畿（8120001119497）に合併し解散,2015-10-05,1,,,,,ホンダカーズヒョウゴ,0
2358,8160001007954,登記記録の閉鎖等,0,2023-04-12,2023-04-06,株式会社光陽,,株式会社,滋賀県,米原市,高溝２５７番地１,,25,214,5210074,,,2023-04-06,清算の結了等,,,2015-10-05,1,,,,,コウヨウ,0
2404,8290801019087,登記記録の閉鎖等,0,2023-04-12,2023-04-07,株式会社ＨＯＳＥＩホールディングス,,株式会社,福岡県,北九州市小倉北区,下富野３丁目６番３１号,,40,106,8020023,,,2023-04-07,清算の結了等,,,2015-10-05,1,,,,,ホーセイホールティングス,0
2407,8300001011116,登記記録の閉鎖等,0,2023-04-12,2023-04-03,朝日Ｉ＆Ｒプロパティ株式会社,,株式会社,佐賀県,武雄市,武雄町大字富岡７７５４番地１１,,41,206,8430024,,,2023-04-03,合併による解散等,6300001004559,令和５年４月１日佐賀県武雄市朝日町大字甘久３５８９番地２朝日Ｉ＆Ｒリアルティ株式会社（6300001004559）に合併し解散,2018-01-12,1,,,,,アサヒアイアンドアールプロパティ,0
2408,8300001011413,登記記録の閉鎖等,0,2023-04-12,2023-04-03,株式会社佐賀新聞エリアステーション,,株式会社,佐賀県,佐賀市,天神３丁目２番２３号,,41,201,8400815,,,2023-04-03,合併による解散等,1300001001437,令和５年４月１日佐賀市天神三丁目２番２３号株式会社佐賀新聞タウンメディア（1300001001437）に合併し解散,2018-09-05,1,,,,,サガシンブンエリアステーション,0
2426,8370002002495,登記記録の閉鎖等,0,2023-04-12,2023-04-04,有限会社エフ・エム・トレーナーズ,,有限会社,宮城県,名取市,那智が丘２丁目１９番地の３,,04,207,9811244,,,2023-04-04,清算の結了等,,,2015-10-05,1,,,,,エフエムトレーナーズ,0
2440,8420001012168,登記記録の閉鎖等,0,2023-04-12,2023-04-03,大阪フェザー株式会社,,株式会社,福岡県,福岡市中央区,大名２丁目１０番１号Ａ－３０７,,40,133,8100041,,,2023-04-03,合併による解散等,6290001071072,令和５年４月１日福岡市博多区中洲五丁目３番８号アクア博多６Ｆ株式会社ＬＡＮＤＩＣホテル＆リゾート（6290001071072）に合併し解散,2015-10-05,1,,,,,オオサカフェザー,0
2442,8420002007448,登記記録の閉鎖等,0,2023-04-12,2023-04-04,有限会社鈴勝建築工業,,有限会社,青森県,八戸市,湊高台３丁目１６番２号,,02,203,0310823,,,2023-04-04,清算の結了等,,,2015-10-05,1,,,,,スズシヨウケンチクコウギョウ,0
2450,8500002000717,登記記録の閉鎖等,0,2023-04-12,2023-04-11,有限会社アドネット,,有限会社,愛媛県,松山市,石風呂町５０８番地１,,38,201,7918084,,,2023-04-11,清算の結了等,,,2015-10-05,1,,,,,,0
2459,9010001039920,登記記録の閉鎖等,0,2023-04-12,2023-04-03,川口貿易株式会社,,株式会社,東京都,中央区,日本橋本町３丁目９番２号,,13,102,1030023,,,2023-04-03,合併による解散等,4010001039917,令和５年４月１日東京都中央区日本橋本町三丁目９番２号川口薬品株式会社（4010001039917）に合併し解散,2015-10-05,1,,,,,カワグチボウエキ,0
2500,9010601005297,登記記録の閉鎖等,0,2023-04-12,2023-04-03,東京金属株式会社,,株式会社,東京都,江東区,亀戸７丁目５３番１２号,,13,108,1360071,,,2023-04-03,清算の結了等,,,2015-10-05,1,,,,,トウキョウキンゾク,0
2501,9010601024017,登記記録の閉鎖等,0,2023-04-12,2023-04-04,いずみ出版株式会社,,株式会社,東京都,江戸川区,松島１丁目４１番１７号,,13,123,1320031,,,2023-04-04,清算の結了等,,,2015-10-05,1,,,,,イズミシュッパン,0
2512,9011001126460,登記記録の閉鎖等,0,2023-04-12,2023-04-03,株式会社ライフデザイン・コンセプト１００,,株式会社,東京都,目黒区,八雲３丁目１９番８号,,13,110,1520023,,,2023-04-03,清算の結了等,,,2019-02-05,1,,,,,ライフデザインコンセプトワンハンドレッド,0
2519,9011101009466,登記記録の閉鎖等,0,2023-04-12,2023-04-06,松風堂製菓株式会社,,株式会社,東京都,新宿区,住吉町１５番２２号,,13,104,1620065,,,2023-04-06,清算の結了等,,,2015-10-05,1,,,,,ショウフウドウセイカ,0
2535,9011701001376,登記記録の閉鎖等,0,2023-04-12,2023-04-04,アイ・ケー産業株式会社,,株式会社,東京都,江戸川区,北小岩３丁目２３番７号,,13,123,1330051,,,2023-04-04,清算の結了等,,,2015-10-05,1,,,,,,0
2554,9020002048985,登記記録の閉鎖等,0,2023-04-12,2023-04-03,株式会社ＴＩＡ,,株式会社,神奈川県,横浜市南区,永田東１丁目６番３０号,,14,105,2320072,,,2023-04-03,清算の結了等,,,2015-10-05,1,,,,,ティアイエイ,0
2562,9030001057689,登記記録の閉鎖等,0,2023-04-12,2023-04-03,株式会社ＨＭ管財,,株式会社,埼玉県,川越市,霞ケ関北２丁目３番地２,,11,201,3501109,,,2023-04-03,清算の結了等,,,2015-10-05,1,,,,,エイチエムカンザイ,0
2579,9040002083865,登記記録の閉鎖等,0,2023-04-12,2023-03-31,広瀬石材有限会社,,有限会社,千葉県,匝瑳市,若潮町５番地の７,,12,235,2892145,,,2023-03-31,清算の結了等,,,2015-10-05,1,,,,,ヒロセセキザイ,0
2589,9080002005592,登記記録の閉鎖等,0,2023-04-12,2023-04-10,有限会社マルトパン店,,有限会社,静岡県,静岡市葵区,鷹匠３丁目１番２号,,22,101,4200839,,,2023-04-10,清算の結了等,,,2015-10-05,1,,,,,マルトパンテン,0
2624,9120101037508,登記記録の閉鎖等,0,2023-04-12,2023-04-06,株式会社ハンワ薬局,,株式会社,大阪府,岸和田市,土生町２丁目３２番３号,,27,202,5960825,,,2023-04-06,清算の結了等,,,2015-10-05,1,,,,,ハンワヤッキョク,0
2687,9220001019950,登記記録の閉鎖等,0,2023-04-12,2023-04-05,株式会社ＲＵＳＥＡ　ＣＡＦＥ,,株式会社,石川県,金沢市,窪３丁目９１番地３,,17,201,9218151,,,2023-04-05,清算の結了等,,,2015-10-05,1,,,,,ルセアカフェ,0
2714,9290801001242,登記記録の閉鎖等,0,2023-04-12,2023-04-11,クラフト技研株式会社,,株式会社,福岡県,北九州市小倉北区,東港２丁目１番１８号,,40,106,8030802,,,2023-04-11,清算の結了等,,,2015-10-05,1,,,,,クラフトギケン,0
2743,9380003003466,登記記録の閉鎖等,0,2023-04-12,2023-04-06,ＺＥＮ會津合同会社,,合同会社,福島県,会津若松市,門田町大字堤沢字中田１３１番地の１０,,07,202,9650827,,,2023-04-06,清算の結了等,,,2015-10-05,1,,,,,,0
2772,9470005006202,登記記録の閉鎖等,0,2023-04-12,2023-04-03,一般社団法人カドルアップ,,その他の設立登記法人,香川県,観音寺市,植田町７０４番地,,37,205,7680012,,,2023-04-03,清算の結了等,,,2019-07-29,1,,,,,カドルアップ,0
2773,9490001007994,登記記録の閉鎖等,0,2023-04-12,2023-04-10,田所商事株式会社,,株式会社,高知県,須崎市,神田３６５１番地,,39,206,7850051,,,2023-04-10,清算の結了等,,,2015-10-05,1,,,,,タドコロショウジ,0
2777,9700150108415,削除,,2023-04-12,,,,,,,,,,,,,,,,,,,,,,,,,
