sequenceNumber,corporateNumber,process,correct,updateDate,changeDate,name,nameImageId,kind,prefectureName,cityName,streetNumber,addressImageId,prefectureCode,cityCode,postCode,addressOutside,addressOutsideImageId,closeDate,closeCause,successorCorporateNumber,changeCause,assignmentDate,latest,enName,enPrefectureName,enCityName,enAddressOutside,furigana,hihyoji
9,1010003023756,登記記録の閉鎖等,0,2023-10-10,2023-09-29,ＦＳ　Ｊａｐａｎ　Ｐｒｏｊｅｃｔ２９合同会社,,合同会社,東京都,千代田区,霞が関３丁目２番５号霞が関ビルディング３１階,,13,101,1000013,,,2023-09-29,清算の結了等,,,2016-06-30,1,,,,,エフエスジャパンプロジェクトニジュウキュウ,0
19,1010401004481,登記記録の閉鎖等,0,2023-10-10,2023-09-19,株式会社ＳＲＣ総合研究所,,株式会社,東京都,港区,虎ノ門３丁目７番９号,,13,103,1050001,,,2023-09-19,清算の結了等,,,2015-10-05,1,,,,,エスアールシーソウゴウケンキュウショ,0
31,1010405008792,登記記録の閉鎖等,0,2023-10-10,2023-10-05,一般財団法人先進医療推進機構,,その他の設立登記法人,東京都,板橋区,小豆沢３丁目３番２号,,13,119,1740051,,,2023-10-05,清算の結了等,,,2015-10-05,1,,,,,センシンイリョウスイシンキコウ,0
75,1012301011847,登記記録の閉鎖等,0,2023-10-10,2023-10-02,株式会社ノア,,株式会社,東京都,世田谷区,用賀４丁目１３番２号メゾンドシルベスト２０１,,13,112,1580097,,,2023-10-02,清算の結了等,,,2019-09-05,1,,,,,ノア,0
86,1013401007140,登記記録の閉鎖等,0,2023-10-10,2023-09-29,株式会社タサカエステート,,株式会社,東京都,日野市,百草５０７番地の７,,13,212,1910033,,,2023-09-29,清算の結了等,,,2015-10-05,1,,,,,タサカエステート,0
96,1020005003739,登記記録の閉鎖等,0,2023-10-10,2023-09-29,医療法人社団おおくぼ小児科,,その他の設立登記法人,神奈川県,横浜市都筑区,仲町台５丁目２番１１号,,14,118,2240041,,,2023-09-29,清算の結了等,,,2015-10-05,1,,,,,オオクボショウニカ,0
99,1021001060385,登記記録の閉鎖等,0,2023-10-10,2023-10-05,ｒｉｓｅＳ株式会社,,株式会社,神奈川県,小田原市,栄町２丁目８番３１号,,14,206,2500011,,,2023-10-05,合併による解散等,6080101007484,令和５年１０月１日静岡県三島市幸原町二丁目２１番３１号ｆｌａｐＳ株式会社（6080101007484）に合併し解散,2016-10-12,1,,,,,,0
107,1030001028648,登記記録の閉鎖等,0,2023-10-10,2023-09-13,株式会社ヤナセ興業,,株式会社,埼玉県,所沢市,大字坂之下若水１５番地,,11,208,3590012,,,2023-09-13,清算の結了等,,,2015-10-05,1,,,,,ヤナセコウギョウ,0
127,1030003002972,登記記録の閉鎖等,0,2023-10-10,2023-09-12,合名会社岩片商店,,合名会社,埼玉県,本庄市,駅南２丁目２０番１０号,,11,211,3670041,,,2023-09-12,清算の結了等,,,2015-10-05,1,,,,,イワカタショウテン,0
156,1070001035013,登記記録の閉鎖等,0,2023-10-10,2023-10-02,株式会社ヤマダライフ保険,,株式会社,群馬県,高崎市,栄町１番１号,,10,202,3700841,,,2023-10-02,合併による解散等,2070001036729,令和５年１０月１日群馬県高崎市栄町１番１号株式会社ヤマダデンキ（2070001036729）に合併し解散,2018-08-30,1,,,,,ヤマダライフホケン,0
167,1080401012081,登記記録の閉鎖等,0,2023-10-10,2023-10-02,株式会社バイクサポート浜松,,株式会社,静岡県,浜松市南区,石原町７４８番地の２,,22,134,4350033,,,2023-10-02,清算の結了等,,,2015-10-05,1,,,,,バイクサポートハママツ,0
168,1080401018863,登記記録の閉鎖等,0,2023-10-10,2023-10-05,株式会社ＮＩＣＯ,,株式会社,静岡県,浜松市中区,板屋町５７７番地,,22,131,4300928,,,2023-10-05,清算の結了等,,,2015-10-05,1,,,,,ニコ,0
172,1100001001481,登記記録の閉鎖等,0,2023-10-10,2023-10-02,株式会社シヨウサン,,株式会社,長野県,長野市,吉田４丁目１６番２２号,,20,201,3810043,,,2023-10-02,清算の結了等,,,2015-10-05,1,,,,,シヨウサン,0
176,1100001023609,登記記録の閉鎖等,0,2023-10-10,2023-10-02,株式会社ガルボ,,株式会社,長野県,下伊那郡高森町,下市田３１２３番地,,20,403,3993103,,,2023-10-02,合併による解散等,7100001023223,令和５年１０月１日長野県下伊那郡高森町下市田３１２３番地株式会社マツザワ（7100001023223）に合併し解散,2015-10-05,1,,,,,ガルボ,0
178,1100003001554,登記記録の閉鎖等,0,2023-10-10,2023-09-29,合名会社大塚書店,00069809,合名会社,長野県,松本市,中央２丁目７番２１号,,20,202,3900811,,,2023-09-29,清算の結了等,,,2015-10-05,1,,,,,オオツカショテン,0
179,1100003005233,登記記録の閉鎖等,0,2023-10-10,2023-09-29,合同会社クワイエット・善,,合同会社,長野県,長野市,松代町西条４３４１番地１,,20,201,3811232,,,2023-09-29,清算の結了等,,,2019-02-07,1,,,,,クワイエットゼン,0
186,1120001184267,登記記録の閉鎖等,0,2023-10-10,2023-10-02,ＴｉｎＲｏｏｆ株式会社,,株式会社,大阪府,門真市,小路町１番１２号門真グランドビル２１１号,,27,223,5710058,,,2023-10-02,合併による解散等,4120001147650,令和５年９月３０日大阪府寝屋川市点野五丁目１番２号株式会社瓦柾（4120001147650）に合併し解散,2015-10-05,1,,,,,ティンルーフ,0
193,1120001256396,登記記録の閉鎖等,0,2023-10-10,2023-10-02,株式会社サンライズＢＨＤ,,株式会社,大阪府,大阪市旭区,大宮４丁目２３番７号,,27,117,5350002,,,2023-10-02,合併による解散等,6120001254817,令和５年１０月１日大阪市旭区大宮四丁目２３番７号ＧＡＵＮ株式会社（6120001254817）に合併し解散,2023-07-24,1,,,,,サンライズビーエイチディ,0
198,1120002027375,登記記録の閉鎖等,0,2023-10-10,2023-10-02,有限会社スタディオエス・イー・エイ一級建築士事務所,,有限会社,大阪府,大阪市淀川区,東三国３丁目１０番３－５２６号,,27,123,5320002,,,2023-10-02,清算の結了等,,,2015-10-05,1,,,,,スタディオエスイーエイイッキュウケンチクシジムショ,0
200,1120003022549,登記記録の閉鎖等,0,2023-10-10,2023-09-28,ＲｅＫａｚｅ合同会社,,合同会社,大阪府,大阪市北区,梅田１丁目１－３大阪駅前第３ビル２９階１－１－１号室,,27,127,5300001,,,2023-09-28,清算の結了等,,,2022-09-28,1,,,,,リカゼ,0
213,1140001029858,登記記録の閉鎖等,0,2023-10-10,2023-10-05,株式会社つばさ企画,,株式会社,兵庫県,神戸市垂水区,清玄町１６番地の３,,28,108,6550865,,,2023-10-05,清算の結了等,,,2015-10-05,1,,,,,ツバサキカク,0
241,1180001152581,登記記録の閉鎖等,0,2023-10-10,2023-10-02,株式会社ノーサイドグループ,,株式会社,愛知県,名古屋市中村区,名駅南２丁目１１番４３号,,23,105,4500003,,,2023-10-02,合併による解散等,8180001044582,令和５年９月３０日名古屋市中村区名駅南二丁目１１番４３号株式会社ノーサイド（8180001044582）に合併し解散,2022-08-16,1,,,,,ノーサイドグループ,0
258,1210005008074,登記記録の閉鎖等,0,2023-10-10,2023-10-02,特定非営利活動法人エヌピーオふれあいそして自立,,その他の設立登記法人,福井県,鯖江市,つつじケ丘町１９番７号,,18,207,9160011,,,2023-10-02,清算の結了等,,,2015-10-05,1,,,,,エヌピーオフレアイソシテジリツ,0
266,1240005014672,登記記録の閉鎖等,0,2023-10-10,2023-09-29,びんご国際交流協同組合,,その他の設立登記法人,広島県,尾道市,高須町４８３８番地２,,34,205,7290141,,,2023-09-29,清算の結了等,,,2018-10-03,1,,,,,ビンゴコクサイコウリュウ,0
271,1250002000427,登記記録の閉鎖等,0,2023-10-10,2023-10-03,有限会社カツ電器センター,,有限会社,山口県,山口市,嘉川３４７８番地,,35,203,7540897,,,2023-10-03,清算の結了等,,,2015-10-05,1,,,,,カツデンキセンター,0
272,1260001037031,登記記録の閉鎖等,0,2023-10-10,2023-10-02,株式会社カンザキ商事,,株式会社,岡山県,備前市,三石９１番地１,,33,211,7050132,,,2023-10-02,清算の結了等,,,2022-07-12,1,,,,,カンザキショウジ,0
304,1330002004254,登記記録の閉鎖等,0,2023-10-10,2023-09-29,有限会社サウンド・ニシムラ,,有限会社,熊本県,熊本市北区,清水新地５丁目３番１８号,,43,105,8618075,,,2023-09-29,清算の結了等,,,2015-10-05,1,,,,,サウンドニシムラ,0
321,1380005005039,登記記録の閉鎖等,0,2023-10-10,2023-09-29,奥久慈建築工房協同組合,,その他の設立登記法人,福島県,東白川郡塙町,大字上石井字屋敷前９１番地２,,07,483,9635411,,,2023-09-29,清算の結了等,,,2015-10-05,1,,,,,オククジケンチクコウボウ,0
349,2010005027688,登記記録の閉鎖等,0,2023-10-10,2023-10-04,一般社団法人日本土地開発ホールディングス,,その他の設立登記法人,東京都,中央区,日本橋１丁目４番１号,,13,102,1030027,,,2023-10-04,清算の結了等,,,2017-11-07,1,,,,,ニホントチカイハツホールディングス,0
351,2010105001923,登記記録の閉鎖等,0,2023-10-10,2023-09-28,特定非営利活動法人異文化健康支援センター,,その他の設立登記法人,東京都,八王子市,子安町２丁目２３番２３号,,13,201,1920904,,,2023-09-28,清算の結了等,,,2017-06-15,1,,,,,,0
354,2010401131597,登記記録の閉鎖等,0,2023-10-10,2023-10-06,民泊インバウンドコンソーシアム株式会社,,株式会社,東京都,中野区,東中野１丁目５４番２号ＯＳ－ＤＵＯ,,13,114,1640003,,,2023-10-06,清算の結了等,,,2017-05-24,1,,,,,ミンパクインバウンドコンソーシアム,0
356,2010401148484,登記記録の閉鎖等,0,2023-10-10,2023-09-19,株式会社ハコストア,,株式会社,東京都,港区,南青山２丁目２番１５号,,13,103,1070062,,,2023-09-19,清算の結了等,,,2019-10-08,1,,,,,ハコストア,0
407,2011802019233,登記記録の閉鎖等,0,2023-10-10,2023-10-03,有限会社三村屋商店,,有限会社,東京都,足立区,梅田２丁目１８番１６号,,13,121,1230851,,,2023-10-03,清算の結了等,,,2015-10-05,1,,,,,ミムラヤショウテン,0
431,2030001003121,登記記録の閉鎖等,0,2023-10-10,2023-09-13,株式会社三建,,株式会社,埼玉県,さいたま市南区,鹿手袋２丁目３番１３号,,11,108,3360031,,,2023-09-13,清算の結了等,,,2015-10-05,1,,,,,サンケン,0
434,2030001044082,登記記録の閉鎖等,0,2023-10-10,2023-09-14,株式会社雅空調,,株式会社,埼玉県,桶川市,泉２丁目１９番５０号桶川ビレッジ４号棟１１７号,,11,231,3630021,,,2023-09-14,清算の結了等,,,2015-10-05,1,,,,,ミヤビクウチョウ,0
436,2030001068742,登記記録の閉鎖等,0,2023-10-10,2023-09-19,株式会社グリーンライフ,,株式会社,埼玉県,坂戸市,鶴舞４丁目２番２５号,,11,239,3500241,,,2023-09-19,清算の結了等,,,2015-10-05,1,,,,,グリーンライフ,0
440,2030001114892,登記記録の閉鎖等,0,2023-10-10,2023-09-15,株式会社大栄総業,,株式会社,埼玉県,さいたま市西区,大字指扇２３０１番地２,,11,101,3310047,,,2023-09-15,清算の結了等,,,2016-06-13,1,,,,,,0
458,2030002078162,登記記録の閉鎖等,0,2023-10-10,2023-09-14,有限会社クラフト社,,有限会社,埼玉県,ふじみ野市,仲１丁目２番地４２,,11,245,3560025,,,2023-09-14,清算の結了等,,,2015-10-05,1,,,,,クラフトシャ,0
461,2030002099943,登記記録の閉鎖等,0,2023-10-10,2023-09-13,有限会社あさか,,有限会社,埼玉県,川口市,朝日１丁目１７番２４号,,11,203,3320001,,,2023-09-13,清算の結了等,,,2015-10-05,1,,,,,アサカ,0
473,2040002005371,登記記録の閉鎖等,0,2023-10-10,2023-09-21,有限会社ししくら清藏,,有限会社,千葉県,千葉市若葉区,源町３４２番地,,12,104,2640037,,,2023-09-21,清算の結了等,,,2015-10-05,1,,,,,,0
492,2110001023565,登記記録の閉鎖等,0,2023-10-10,2023-09-28,株式会社ＭＳＣ,,株式会社,長野県,中野市,大字上今井１３１番地３,,20,211,3892102,,,2023-09-28,清算の結了等,,,2015-10-05,1,,,,,エムエスシー,0
521,2120901022954,登記記録の閉鎖等,0,2023-10-10,2023-09-25,株式会社エイト加工紙,,株式会社,大阪府,豊中市,庄内西町５丁目３番２号,,27,203,5610832,,,2023-09-25,清算の結了等,,,2023-07-31,1,,,,,エイトカコウシ,0
531,2140001004918,登記記録の閉鎖等,0,2023-10-10,2023-10-05,株式会社スーパーストアーアルフア,,株式会社,兵庫県,神戸市西区,伊川谷町有瀬１１７８番地の１,,28,111,6512113,,,2023-10-05,清算の結了等,,,2015-10-05,1,,,,,スーパーストアーアルフア,0
534,2140001023991,登記記録の閉鎖等,0,2023-10-10,2023-10-02,株式会社コスモホールディングズ,,株式会社,兵庫県,神戸市中央区,布引町１丁目１番７号,,28,110,6510097,,,2023-10-02,合併による解散等,5120002051512,令和５年１０月１日神戸市長田区水笠通三丁目５番１１号株式会社ＨＫホールディングズ（5120002051512）に合併し解散,2015-10-05,1,,,,,コスモホールディングズ,0
558,2180001143092,登記記録の閉鎖等,0,2023-10-10,2023-10-02,株式会社アクアマリン,,株式会社,愛知県,名古屋市中村区,名駅南２丁目１１番４３号,,23,105,4500003,,,2023-10-02,合併による解散等,8180001044582,令和５年９月３０日名古屋市中村区名駅南二丁目１１番４３号株式会社ノーサイド（8180001044582）に合併し解散,2020-10-09,1,,,,,アクアマリン,0
568,2180005003986,登記記録の閉鎖等,0,2023-10-10,2023-10-02,名古屋中電気工事業協同組合,,その他の設立登記法人,愛知県,名古屋市中区,千代田５丁目１５番２３号,,23,106,4600012,,,2023-10-02,清算の結了等,,,2015-10-05,1,,,,,ナゴヤナカデンキコウ,0
577,2220002013851,登記記録の閉鎖等,0,2023-10-10,2023-10-03,有限会社清厚,,有限会社,石川県,七尾市,南藤橋町子部５０番地の１,,17,202,9260813,,,2023-10-03,清算の結了等,,,2015-10-05,1,,,,,セイコウ,0
580,2240001005278,登記記録の閉鎖等,0,2023-10-10,2023-09-28,株式会社住まいのサン・ホーム,,株式会社,広島県,広島市東区,光町２丁目６番１８号,,34,102,7320052,,,2023-09-28,清算の結了等,,,2015-10-05,1,,,,,スマイノサンホーム,0
583,2240002036033,登記記録の閉鎖等,0,2023-10-10,2023-10-03,有限会社トキノ,,有限会社,広島県,呉市,西中央１丁目６番２８号,,34,202,7370811,,,2023-10-03,清算の結了等,,,2015-10-05,1,,,,,トキノ,0
587,2250001004543,登記記録の閉鎖等,0,2023-10-10,2023-10-02,エヌ・ワイ建設株式会社,,株式会社,山口県,宇部市,開２丁目１４番１号,,35,202,7550096,,,2023-10-02,合併による解散等,4250001003709,令和５年１０月１日山口県宇部市大字中山３３番地１雄光建設株式会社（4250001003709）に合併し解散,2015-10-05,1,,,,,,0
591,2260002020514,登記記録の閉鎖等,0,2023-10-10,2023-10-02,有限会社はら商店,,有限会社,岡山県,倉敷市,児島下の町７丁目２番１５号,,33,202,7110906,,,2023-10-02,清算の結了等,,,2015-10-05,1,,,,,ハラショウテン,0
596,2280002009753,登記記録の閉鎖等,0,2023-10-10,2023-10-03,有限会社トマム,,有限会社,島根県,益田市,水分町１７番２号,,32,204,6980032,,,2023-10-03,合併による解散等,4280001005149,令和５年１０月１日島根県益田市水分町１７番２号株式会社三浦産業（4280001005149）に合併し解散,2015-10-05,1,,,,,トマム,0
619,2330003005515,登記記録の閉鎖等,0,2023-10-10,2023-09-29,合同会社まんまファーム,,合同会社,熊本県,熊本市東区,健軍２丁目２２番８－３０３号,,43,102,8620911,,,2023-09-29,清算の結了等,,,2015-10-05,1,,,,,マンマファーム,0
637,2370001024331,登記記録の閉鎖等,0,2023-10-10,2023-10-04,株式会社ＡＭＳ,,株式会社,宮城県,仙台市太白区,東郡山２丁目１２番３５号,,04,104,9820006,,,2023-10-04,清算の結了等,,,2015-10-05,1,,,,,アムス,0
651,2430002036781,登記記録の閉鎖等,0,2023-10-10,2023-09-25,有限会社アペルト,,有限会社,北海道,札幌市中央区,南二条東５丁目１番地１４クレアホームズ札幌大通東エスシート２０２号,,01,101,0600052,,,2023-09-25,清算の結了等,,,2015-10-05,1,,,,,アペルト,0
667,3010001034126,登記記録の閉鎖等,0,2023-10-10,2023-09-29,株式会社スクローバーインターナショナル,,株式会社,東京都,杉並区,和泉２丁目１３番９号,,13,115,1680063,,,2023-09-29,清算の結了等,,,2015-10-05,1,,,,,スクローバーインターナショナル,0
678,3010002013186,登記記録の閉鎖等,0,2023-10-10,2023-10-02,有限会社ニューヨーカーカゾック,,有限会社,東京都,千代田区,外神田３丁目１番１６号,,13,101,1010021,,,2023-10-02,清算の結了等,,,2015-10-05,1,,,,,ニューヨーカーカゾック,0
680,3010003023762,登記記録の閉鎖等,0,2023-10-10,2023-10-02,ＦＳ　Ｊａｐａｎ　Ｐｒｏｊｅｃｔ３５合同会社,,合同会社,東京都,千代田区,霞が関３丁目２番５号霞が関ビルディング３１階,,13,101,1000013,,,2023-10-02,合併による解散等,8010003023766,令和５年９月３０日東京都千代田区霞が関三丁目２番５号霞が関ビルディング３１階ＦＳ　Ｊａｐａｎ　Ｐｒｏｊｅｃｔ３９合同会社（8010003023766）に合併し解散,2016-06-30,1,,,,,エフエスジャパンプロジェクトサンジュウゴ,0
681,3010003031559,登記記録の閉鎖等,0,2023-10-10,2023-09-29,柏の葉インベストメント合同会社,,合同会社,東京都,千代田区,丸の内３丁目１番１号東京共同会計事務所内,,13,101,1000005,,,2023-09-29,清算の結了等,,,2020-02-03,1,,,,,カシワノハインベストメント,0
684,3010003036442,登記記録の閉鎖等,0,2023-10-10,2023-10-02,Ｍｉｃｒｏｂｉａｌ　Ｃｏｎｔｒｏｌ　Ｊａｐａｎ合同会社,,合同会社,東京都,千代田区,丸の内１丁目６番５号,,13,101,1000005,,,2023-10-02,合併による解散等,4010001091843,令和５年１０月１日東京都千代田区丸の内一丁目６番５号ランクセス株式会社（4010001091843）に合併し解散,2021-12-02,1,,,,,マイクロバイアル,0
688,3010005034931,登記記録の閉鎖等,0,2023-10-10,2023-10-04,一般社団法人メラシス,,その他の設立登記法人,東京都,千代田区,内神田２丁目２番６号５階あすな会計事務所内,,13,101,1010047,,,2023-10-04,清算の結了等,,,2022-04-26,1,,,,,メラシス,0
691,3010401003754,登記記録の閉鎖等,0,2023-10-10,2023-09-19,宇徳陸送株式会社,,株式会社,東京都,港区,浜松町１丁目２番１７号,,13,103,1050013,,,2023-09-19,清算の結了等,,,2015-10-05,1,,,,,,0
693,3010401049995,登記記録の閉鎖等,0,2023-10-10,2023-10-02,中沢情報株式会社,,株式会社,東京都,大田区,大森本町１丁目６番１号,,13,111,1430011,,,2023-10-02,合併による解散等,7010401143844,令和５年１０月１日東京都大田区大森本町一丁目６番１号中沢グループホールディングス株式会社（7010401143844）に合併し解散,2015-10-05,1,,,,,ナカザワジョウホウ,0
708,3010502014667,登記記録の閉鎖等,0,2023-10-10,2023-10-05,有限会社ウエノ・オフィス・サプライ,,有限会社,東京都,台東区,三筋２丁目２番５号,,13,106,1110055,,,2023-10-05,清算の結了等,,,2015-10-05,1,,,,,,0
709,3010602021217,登記記録の閉鎖等,0,2023-10-10,2023-10-02,有限会社丸久紙工,,有限会社,東京都,江東区,潮見２丁目３番１３号,,13,108,1350052,,,2023-10-02,清算の結了等,,,2015-10-05,1,,,,,マルキュウシコウ,0
752,3012802010354,登記記録の閉鎖等,0,2023-10-10,2023-09-29,有限会社Ｇｒｏｗ,,有限会社,東京都,昭島市,宮沢町５１９番地３９サントノーレ３０６号,,13,207,1960024,,,2023-09-29,清算の結了等,,,2015-10-05,1,,,,,グロウ,0
765,3021001005611,登記記録の閉鎖等,0,2023-10-10,2023-10-02,株式会社エフ・インシュアランス,,株式会社,神奈川県,藤沢市,羽鳥４丁目６番４５号,,14,205,2510056,,,2023-10-02,清算の結了等,,,2015-10-05,1,,,,,エフーインシュアランス,0
775,3030001060582,登記記録の閉鎖等,0,2023-10-10,2023-09-13,株式会社イイズカ・タイルメント,,株式会社,埼玉県,本庄市,児玉町河内５４３番地１,,11,211,3670253,,,2023-09-13,清算の結了等,,,2015-10-05,1,,,,,イイズカタイルメント,0
776,3030001061663,登記記録の閉鎖等,0,2023-10-10,2023-09-14,株式会社オオツカ,,株式会社,埼玉県,鴻巣市,宮地２丁目６番２１号,,11,217,3650075,,,2023-09-14,清算の結了等,,,2015-10-05,1,,,,,オオツカ,0
777,3030001084301,登記記録の閉鎖等,0,2023-10-10,2023-09-15,日立アロイ株式会社,,株式会社,埼玉県,加須市,内田ケ谷２５４番地２,,11,210,3470122,,,2023-09-15,清算の結了等,,,2015-10-05,1,,,,,ヒタチアロイ,0
793,3030002037167,登記記録の閉鎖等,0,2023-10-10,2023-09-19,有限会社高橋測量,,有限会社,埼玉県,所沢市,上新井４丁目１８番地の５,,11,208,3591142,,,2023-09-19,清算の結了等,,,2015-10-05,1,,,,,タカハシソクリョウ,0
824,3080402003697,登記記録の閉鎖等,0,2023-10-10,2023-10-04,有限会社清水組砂利採取販売所,,有限会社,静岡県,浜松市東区,植松町２６０番地の５マンション寺田２０５号室,,22,132,4300803,,,2023-10-04,清算の結了等,,,2015-10-05,1,,,,,シミズグミジャリサイシュハンバイジョ,0
825,3080402022466,登記記録の閉鎖等,0,2023-10-10,2023-10-04,有限会社清王産業,,有限会社,静岡県,袋井市,愛野１６００番地の３６,,22,216,4370031,,,2023-10-04,清算の結了等,,,2015-10-05,1,,,,,セイオウサンギョウ,0
832,3100001033515,登記記録の閉鎖等,0,2023-10-10,2023-09-28,株式会社Ｒｉｓｉｎｇ１４,,株式会社,長野県,上田市,古里１９０７番地１染谷サンルートマンション１０２号室,,20,203,3860005,,,2023-09-28,清算の結了等,,,2020-09-15,1,,,,,ライジングワンフォー,0
836,3110002011642,登記記録の閉鎖等,0,2023-10-10,2023-10-03,有限会社環境建築事務所,,有限会社,新潟県,新潟市西蒲区,巻甲１７４７番地１８,,15,108,9530041,,,2023-10-03,清算の結了等,,,2015-10-05,1,,,,,カンキョウケンチクジムショ,0
838,3110002025733,登記記録の閉鎖等,0,2023-10-10,2023-10-03,有限会社長津乳業,,有限会社,新潟県,十日町市,山本町１丁目１０１番地,,15,210,9480031,,,2023-10-03,清算の結了等,,,2015-10-05,1,,,,,ナガツニュウギョウ,0
861,3130003004965,登記記録の閉鎖等,0,2023-10-10,2023-10-04,合同会社アーバン・エステート,,合同会社,京都府,京都市上京区,上立売通堀川西入芝薬師町６１４番地グランドパレス堀川パートＩＩ６０６号室,00109547,26,102,6028421,,,2023-10-04,合併による解散等,5110003003372,令和５年９月３０日新潟県上越市南高田町１３番１６号プラザトム３０４号室合同会社上越エステート（5110003003372）に合併し解散,2017-03-10,1,,,,,,0
864,3140001007993,登記記録の閉鎖等,0,2023-10-10,2023-10-02,株式会社三宮クリーニング,,株式会社,兵庫県,神戸市西区,池上３丁目１番地の４,,28,111,6512111,,,2023-10-02,合併による解散等,9140001015396,令和５年１０月１日神戸市北区鈴蘭台北町七丁目４番２２号株式会社ホームドライ（9140001015396）に合併し解散,2015-10-05,1,,,,,サンノミヤクリーニング,0
882,3140002026332,登記記録の閉鎖等,0,2023-10-10,2023-10-02,有限会社ＧＩＯ,,有限会社,兵庫県,神戸市北区,鳴子２丁目８番地の１７,,28,109,6511133,,,2023-10-02,合併による解散等,5120002051512,令和５年１０月１日神戸市長田区水笠通三丁目５番１１号株式会社ＨＫホールディングズ（5120002051512）に合併し解散,2015-10-05,1,,,,,ジーアイオー,0
885,3140005007610,登記記録の閉鎖等,0,2023-10-10,2023-10-05,赤穂鮮魚販売協同組合,,その他の設立登記法人,兵庫県,赤穂市,加里屋中洲３丁目２１番地,,28,212,6780233,,,2023-10-05,清算の結了等,,,2015-10-05,1,,,,,アコウセンギョハンバイ,0
892,3170001008774,登記記録の閉鎖等,0,2023-10-10,2023-10-05,株式会社津村商会,,株式会社,和歌山県,田辺市,秋津町１６１１番地の１,,30,206,6460005,,,2023-10-05,清算の結了等,,,2015-10-05,1,,,,,ツムラショウカイ,0
893,3180001014103,登記記録の閉鎖等,0,2023-10-10,2023-10-02,株式会社イムラエンジニアリング,,株式会社,愛知県,名古屋市天白区,植田東２丁目１１０４番地,,23,116,4680006,,,2023-10-02,清算の結了等,,,2015-10-05,1,,,,,イムラエンジニアリング,0
906,3180001146508,登記記録の閉鎖等,0,2023-10-10,2023-10-03,株式会社ＥＭＡグローバル,,株式会社,愛知県,名古屋市中区,新栄１丁目１０番２０号アークピュアモリロン４０１号,,23,106,4600007,,,2023-10-03,清算の結了等,,,2021-06-21,1,,,,,イーエムエーグローバル,0
907,3180001153883,登記記録の閉鎖等,0,2023-10-10,2023-10-03,株式会社ｅホームビルダー,,株式会社,愛知県,春日井市,大手町１丁目１５４番地,,23,206,4860807,,,2023-10-03,清算の結了等,,,2022-11-21,1,,,,,イーホームビルダー,0
913,3180005010346,登記記録の閉鎖等,0,2023-10-10,2023-10-03,特定非営利活動法人さわやかファミリーサポートセンター,,その他の設立登記法人,愛知県,一宮市,木曽川町黒田字北宿五の切１４３番地,,23,203,4930001,,,2023-10-03,清算の結了等,,,2015-10-05,1,,,,,サワヤカファミリーサポートセンター,0
917,3180302018521,登記記録の閉鎖等,0,2023-10-10,2023-09-25,有限会社宝精器,,有限会社,愛知県,刈谷市,井ケ谷町一本木１１番地,,23,210,4480001,,,2023-09-25,清算の結了等,,,2015-10-05,1,,,,,タカラセイキ,0
921,3200001013234,登記記録の閉鎖等,0,2023-10-10,2023-10-04,イビデングラファイト株式会社,,株式会社,岐阜県,大垣市,神田町２丁目１番地,,21,202,5030917,,,2023-10-04,合併による解散等,6200001013231,令和５年１０月１日岐阜県大垣市神田町二丁目１番地イビデン株式会社（6200001013231）に合併し解散,2015-10-05,1,,,,,イビデングラファイト,0
923,3200001023134,登記記録の閉鎖等,0,2023-10-10,2023-10-03,株式会社Ｍ＆Ｍ,,株式会社,岐阜県,多治見市,太平町３丁目１６番地,,21,204,5070041,,,2023-10-03,合併による解散等,1200001020926,令和５年９月２９日横浜市中区南仲通二丁目２５番地２株式会社パートナー（1200001020926）に合併し解散,2015-10-05,1,,,,,エムアンドエム,0
941,3250003002973,登記記録の閉鎖等,0,2023-10-10,2023-10-03,合同会社田中畳表店,,合同会社,山口県,萩市,大字熊谷町３６番地,,35,204,7580034,,,2023-10-03,清算の結了等,,,2022-01-05,1,,,,,タナカタタミオモテテン,0
945,3280002007475,登記記録の閉鎖等,0,2023-10-10,2023-10-06,有限会社あつた石油,,有限会社,島根県,大田市,大田町大田ロ１１７７番地１８,,32,205,6940064,,,2023-10-06,清算の結了等,,,2015-10-05,1,,,,,アツタセキユ,0
946,3290001017235,登記記録の閉鎖等,0,2023-10-10,2023-10-02,みらいケア株式会社,,株式会社,福岡県,福岡市東区,香椎浜３丁目２番１号,,40,131,8130016,,,2023-10-02,合併による解散等,9290001013823,令和５年１０月１日福岡市博多区金の隈三丁目２３番１０号株式会社アビタシオン（9290001013823）に合併し解散,2015-10-05,1,,,,,ミライケア,0
963,3320003000631,登記記録の閉鎖等,0,2023-10-10,2023-10-05,合資会社むらかみ園,,合資会社,大分県,別府市,南町４番１６号,,44,202,8740941,,,2023-10-05,清算の結了等,,,2015-10-05,1,,,,,,0
966,3330003005051,登記記録の閉鎖等,0,2023-10-10,2023-09-20,合同会社ベルコーポレーション,,合同会社,福岡県,福岡市東区,香椎台２丁目８番５号,,40,131,8130014,,,2023-09-20,合併による解散等,7290001085708,令和５年９月２０日福岡市中央区六本松三丁目１番１１号グランドシャルマン桜坂４０１号株式会社ルビコン（7290001085708）に合併し解散,2015-10-05,1,,,,,ベルコーポレーション,0
988,3410001005053,登記記録の閉鎖等,0,2023-10-10,2023-10-02,株式会社日本エス・イー,,株式会社,秋田県,由利本荘市,岩城内道川字中野１０番地３,,05,210,0181301,,,2023-10-02,合併による解散等,6410001001297,令和５年１０月１日秋田市山王六丁目１番１号猿田興業株式会社（6410001001297）に合併し解散,2015-10-05,1,,,,,ニホンエスイー,0
1011,4010001142687,登記記録の閉鎖等,0,2023-10-10,2023-10-05,株式会社とうふ屋須田,,株式会社,東京都,文京区,根津２丁目１９番１１号,,13,105,1130031,,,2023-10-05,合併による解散等,6011801003515,令和５年１０月１日東京都葛飾区亀有三丁目２０番１４号株式会社鳥孝（6011801003515）に合併し解散,2015-10-05,1,,,,,,0
1018,4010002006750,登記記録の閉鎖等,0,2023-10-10,2023-09-29,有限会社赤坂東急コンタクト,,有限会社,東京都,千代田区,永田町２丁目１４番３号,,13,101,1000014,,,2023-09-29,清算の結了等,,,2015-10-05,1,,,,,アカサカトウキュウコンタクト,0
1022,4010401000172,登記記録の閉鎖等,0,2023-10-10,2023-09-19,青山総業株式会社,,株式会社,東京都,港区,南青山４丁目８番２４号,,13,103,1070062,,,2023-09-19,清算の結了等,,,2015-10-05,1,,,,,,0
1029,4010403022140,登記記録の閉鎖等,0,2023-10-10,2023-09-20,Ｉｎｌｉｎｅｔｅｃｈ　ＩＴ　Ｓｏｌｕｔｉｏｎｓ合同会社,,合同会社,東京都,港区,東麻布２丁目２２番５号麻布イーストコート１階,,13,103,1060044,,,2023-09-20,清算の結了等,,,2020-01-14,1,,,,,インラインテックアイティソリューションズ,0
1065,4011802012657,登記記録の閉鎖等,0,2023-10-10,2023-10-05,有限会社近藤糸綿店,,有限会社,東京都,足立区,千住３丁目４８番地,,13,121,1200034,,,2023-10-05,清算の結了等,,,2015-10-05,1,,,,,コンドウシメンテン,0
1067,4012302003510,登記記録の閉鎖等,0,2023-10-10,2023-10-02,中川木材有限会社,,有限会社,東京都,町田市,西成瀬１丁目５１番２１号,,13,209,1940046,,,2023-10-02,清算の結了等,,,2015-10-05,1,,,,,ナカガワモクザイ,0
1069,4012401009367,登記記録の閉鎖等,0,2023-10-10,2023-10-04,八千代電気工業株式会社,,株式会社,東京都,狛江市,駒井町３丁目３２番６号,,13,219,2010016,,,2023-10-04,清算の結了等,,,2015-10-05,1,,,,,ヤチヨデンキコウギョウ,0
1071,4013102001695,登記記録の閉鎖等,0,2023-10-10,2023-10-04,有限会社伊藤建工,,有限会社,東京都,あきる野市,二宮１１５２番地１６,,13,228,1970814,,,2023-10-04,清算の結了等,,,2015-10-05,1,,,,,,0
1073,4020001053504,登記記録の閉鎖等,0,2023-10-10,2023-09-29,ＤＩＬＯＮ　ＪＡＰＡＮ株式会社,,株式会社,神奈川県,横浜市中区,海岸通３丁目９番地,,14,104,2310002,,,2023-09-29,清算の結了等,,,2015-10-05,1,,,,,ディロンジャパン,0
1080,4020001106237,登記記録の閉鎖等,0,2023-10-10,2023-09-28,株式会社タチューク・ビルド,,株式会社,神奈川県,横浜市保土ケ谷区,天王町１丁目２２番地１３トーシン天王町１０２号,,14,106,2400003,,,2023-09-28,清算の結了等,,,2015-10-05,1,,,,,タチュークビルド,0
1093,4021001002293,登記記録の閉鎖等,0,2023-10-10,2023-10-02,山佐精機株式会社,,株式会社,神奈川県,藤沢市,村岡東４丁目８番地８,,14,205,2510012,,,2023-10-02,清算の結了等,,,2015-10-05,1,,,,,ヤマサセイキ,0
1094,4021001070167,登記記録の閉鎖等,0,2023-10-10,2023-10-02,エスタイル株式会社,,株式会社,神奈川県,藤沢市,辻堂新町３丁目２番３２～１００４号,,14,205,2510042,,,2023-10-02,清算の結了等,,,2020-06-23,1,,,,,エスタイル,0
1098,4021002001906,登記記録の閉鎖等,0,2023-10-10,2023-10-02,有限会社小宮商店,,有限会社,神奈川県,藤沢市,鵠沼神明４丁目５番２２号,,14,205,2510021,,,2023-10-02,清算の結了等,,,2015-10-05,1,,,,,コミヤショウテン,0
1105,4030001133296,登記記録の閉鎖等,0,2023-10-10,2023-09-15,株式会社エスリーホーム,,株式会社,埼玉県,さいたま市北区,大成町４丁目４２１番地２エルセリート大宮大成１０２号,,11,102,3310815,,,2023-09-15,清算の結了等,,,2019-10-11,1,,,,,エスリーホーム,0
1116,4030002008662,登記記録の閉鎖等,0,2023-10-10,2023-09-19,有限会社高木商店,,有限会社,埼玉県,さいたま市北区,吉野町２丁目２２４番地の１,,11,102,3310811,,,2023-09-19,清算の結了等,,,2015-10-05,1,,,,,タカギショウテン,0
1117,4030002027084,登記記録の閉鎖等,0,2023-10-10,2023-09-15,有限会社親巧社,,有限会社,埼玉県,戸田市,大字新曽１０７０番地,,11,224,3350021,,,2023-09-15,清算の結了等,,,2015-10-05,1,,,,,シンコウシャ,0
1122,4030002071009,登記記録の閉鎖等,0,2023-10-10,2023-09-15,有限会社ケン,,有限会社,埼玉県,春日部市,中央１丁目５０番１２号ガーデンフィール中央二番館１Ｆ,,11,214,3440067,,,2023-09-15,清算の結了等,,,2015-10-05,1,,,,,ケン,0
1123,4030002082550,登記記録の閉鎖等,0,2023-10-10,2023-09-15,栗武商事有限会社,,有限会社,埼玉県,鴻巣市,東１丁目９番１１号,,11,217,3650039,,,2023-09-15,清算の結了等,,,2015-10-05,1,,,,,クリタケショウジ,0
1131,4040001103174,登記記録の閉鎖等,0,2023-10-10,2023-09-21,Ｃｌｅａｎ　Ｈａｒｖｅｓｔｅｒｓ　Ｊａｐａｎ株式会社,,株式会社,千葉県,我孫子市,我孫子１６７１番地１９,,12,222,2701166,,,2023-09-21,清算の結了等,,,2018-01-19,1,,,,,クリーンハーベスターズジャパン,0
1136,4040002015815,登記記録の閉鎖等,0,2023-10-10,2023-09-21,有限会社青葉園,,有限会社,千葉県,千葉市中央区,宮崎町５３３－１１,,12,101,2600805,,,2023-09-21,清算の結了等,,,2015-10-05,1,,,,,アオバエン,0
1138,4040002059655,登記記録の閉鎖等,0,2023-10-10,2023-09-21,有限会社更科,,有限会社,千葉県,成田市,所９６３番地の４,,12,211,2870211,,,2023-09-21,清算の結了等,,,2015-10-05,1,,,,,サラシナ,0
1147,4050001009759,登記記録の閉鎖等,0,2023-10-10,2023-09-28,株式会社丸萬金沢商店,,株式会社,茨城県,土浦市,右籾１６５５番地４,,08,203,3000837,,,2023-09-28,清算の結了等,,,2015-10-05,1,,,,,マルマンカナザワショウテン,0
1155,4060002012315,登記記録の閉鎖等,0,2023-10-10,2023-10-02,有限会社ＯＦＣ,,有限会社,栃木県,宇都宮市,中久保２丁目４番９号,,09,201,3210906,,,2023-10-02,清算の結了等,,,2015-10-05,1,,,,,オーエフシー,0
1156,4060002028526,登記記録の閉鎖等,0,2023-10-10,2023-09-29,昭光観光バス有限会社,,有限会社,栃木県,小山市,大字犬塚９９８番地９９,,09,208,3230811,,,2023-09-29,清算の結了等,,,2015-10-05,1,,,,,ショウコウカンコウバス,0
1157,4060002030309,登記記録の閉鎖等,0,2023-10-10,2023-10-02,有限会社エヌテイ精機,,有限会社,栃木県,小山市,大字大本９８番地,,09,208,3230009,,,2023-10-02,清算の結了等,,,2015-10-05,1,,,,,エヌテイセイキ,0
1170,4100002009521,登記記録の閉鎖等,0,2023-10-10,2023-09-29,有限会社ヒカリ防災,,有限会社,長野県,千曲市,大字稲荷山３９６８番地５,,20,218,3870021,,,2023-09-29,清算の結了等,,,2015-10-05,1,,,,,ヒカリボウサイ,0
1190,4120001251717,登記記録の閉鎖等,0,2023-10-10,2023-10-02,株式会社ｃｈｒｏｍｏｃｅｎｔｅｒ,,株式会社,大阪府,大阪市中央区,高麗橋４丁目６番１７号,,27,128,5410043,,,2023-10-02,合併による解散等,2120001026468,令和５年１０月１日大阪市此花区春日出中三丁目１番１３５号株式会社住化分析センター（2120001026468）に合併し解散,2023-01-17,1,,,,,クロモセンター,0
1196,4120002011517,登記記録の閉鎖等,0,2023-10-10,2023-10-05,株式会社大洋,,株式会社,大阪府,大阪市平野区,長吉長原４丁目１８番１０号,,27,126,5470016,,,2023-10-05,合併による解散等,5120001025269,令和５年１０月１日大阪市平野区長吉長原四丁目１８番１０号株式会社リッチフィールド（5120001025269）に合併し解散,2015-10-05,1,,,,,タイヨー,0
1211,4140001025821,登記記録の閉鎖等,0,2023-10-10,2023-10-02,株式会社鼎建装,,株式会社,兵庫県,神戸市北区,道場町生野５２１番地,,28,109,6511503,,,2023-10-02,清算の結了等,,,2015-10-05,1,,,,,カナエケンソウ,0
1218,4140001062229,登記記録の閉鎖等,0,2023-10-10,2023-10-03,余部建材株式会社,,株式会社,兵庫県,姫路市,飾西４１０番地,,28,201,6712216,,,2023-10-03,清算の結了等,,,2015-10-05,1,,,,,ヨベケンザイ,0
1220,4140001114822,登記記録の閉鎖等,0,2023-10-10,2023-10-04,凛瀧株式会社,,株式会社,兵庫県,神戸市兵庫区,湊川町１０丁目２３番１１号,,28,105,6520041,,,2023-10-04,清算の結了等,,,2019-09-10,1,,,,,リンタキ,0
1241,4150001021547,登記記録の閉鎖等,0,2023-10-10,2023-10-05,株式会社ＳＣＲＥＥＮラミナテック,,株式会社,滋賀県,彦根市,高宮町４８０番地１,,25,202,5220201,,,2023-10-05,清算の結了等,,,2017-05-31,1,,,,,スクリーンラミナテック,0
1255,4180301033512,登記記録の閉鎖等,0,2023-10-10,2023-09-27,株式会社Ｎｏｄａ　Ｐｒｏｇｒｅｓｓｉｖｅ,,株式会社,愛知県,刈谷市,野田町場割５０番地,,23,210,4480803,,,2023-09-27,清算の結了等,,,2020-03-13,1,,,,,ノダプログレッシブ,0
1258,4190002010850,登記記録の閉鎖等,0,2023-10-10,2023-10-02,有栄丸水産有限会社,,有限会社,三重県,度会郡南伊勢町,相賀浦４５３番地の２,,24,472,5160118,,,2023-10-02,清算の結了等,,,2015-10-05,1,,,,,ユウエイマルスイサン,0
1276,4250005005016,登記記録の閉鎖等,0,2023-10-10,2023-10-04,徳山商店連合協同組合,,その他の設立登記法人,山口県,周南市,糀町１丁目５３番地１,,35,215,7450027,,,2023-10-04,清算の結了等,,,2015-10-05,1,,,,,,0
1296,4290802020452,登記記録の閉鎖等,0,2023-10-10,2023-10-05,有限会社エンゼル,,有限会社,福岡県,直方市,大字頓野５０５番９,,40,204,8220002,,,2023-10-05,清算の結了等,,,2015-10-05,1,,,,,,0
1313,4350001007872,登記記録の閉鎖等,0,2023-10-10,2023-09-29,株式会社依夢桂,,株式会社,宮崎県,都城市,千町４９８３番地１,,45,202,8850015,,,2023-09-29,清算の結了等,,,2015-10-05,1,,,,,エムケイ,0
1320,4370001002013,登記記録の閉鎖等,0,2023-10-10,2023-10-02,株式会社トーコン,,株式会社,宮城県,仙台市太白区,東中田１丁目２番５７号,,04,104,9811107,,,2023-10-02,清算の結了等,,,2015-10-05,1,,,,,トーコン,0
1325,4380002021762,登記記録の閉鎖等,0,2023-10-10,2023-09-20,円谷ロジスティクス有限会社,,有限会社,福島県,須賀川市,滑川字池田１９１番地１,,07,207,9620403,,,2023-09-20,合併による解散等,5380001005831,令和５年９月１２日福島県郡山市喜久田町卸二丁目２８番地株式会社円谷運送店（5380001005831）に合併し解散,2015-10-05,1,,,,,ツブラヤロジスティクス,0
1334,4430003004892,登記記録の閉鎖等,0,2023-10-10,2023-09-26,合同会社クレスガーデン,,合同会社,北海道,岩見沢市,美園五条７丁目３番１４号,,01,210,0680815,,,2023-09-26,清算の結了等,,,2015-10-05,1,,,,,クレスガーデン,0
1339,4460001003200,登記記録の閉鎖等,0,2023-10-10,2023-10-05,株式会社高芝電気,,株式会社,北海道,川上郡弟子屈町,中央１丁目６番２４号,,01,665,0883211,,,2023-10-05,清算の結了等,,,2015-10-05,1,,,,,タカシバデンキ,0
1342,4470002015722,登記記録の閉鎖等,0,2023-10-10,2023-10-04,有限会社ライトハウス,,有限会社,香川県,丸亀市,飯山町上法軍寺１５５１番地,,37,202,7620084,,,2023-10-04,清算の結了等,,,2015-10-05,1,,,,,ライトハウス,0
1345,4500002014910,登記記録の閉鎖等,0,2023-10-10,2023-10-05,有限会社近藤建設工業,,有限会社,愛媛県,西条市,高田７９５番地２,,38,206,7991321,,,2023-10-05,清算の結了等,,,2015-10-05,1,,,,,コンドウケンセツコウギョウ,0
1357,5010005029707,登記記録の閉鎖等,0,2023-10-10,2023-10-04,一般社団法人ＬＩＰＴ,,その他の設立登記法人,東京都,中央区,銀座８丁目６番１８号,,13,102,1040061,,,2023-10-04,清算の結了等,,,2019-02-06,1,,,,,リプティ,0
1370,5010701017329,登記記録の閉鎖等,0,2023-10-10,2023-10-03,ロジカルテック株式会社,,株式会社,東京都,品川区,東品川２丁目５番８号天王洲パークサイドビル８階,,13,109,1400002,,,2023-10-03,合併による解散等,3010401173886,令和５年１０月１日東京都品川区東品川二丁目５番８号天王洲パークサイドビル８階ＭＣＰ１４株式会社（3010401173886）に合併し解散,2015-10-05,1,,,,,ロジカルテック,0
1394,5011102011796,登記記録の閉鎖等,0,2023-10-10,2023-10-05,有限会社ボナ・オーバーシーズ,,有限会社,東京都,新宿区,四谷三栄町１０番１２号,,13,104,1600008,,,2023-10-05,清算の結了等,,,2015-10-05,1,,,,,ボナオーバーシーズ,0
1397,5011105007668,登記記録の閉鎖等,0,2023-10-10,2023-10-05,一般社団法人アルファカレッジ,,その他の設立登記法人,東京都,新宿区,高田馬場１丁目２９番２０号安念ビル３Ｆ,,13,104,1690075,,,2023-10-05,清算の結了等,,,2017-03-06,1,,,,,アルファカレッジ,0
1410,5011602004845,登記記録の閉鎖等,0,2023-10-10,2023-10-04,七福商事有限会社,,有限会社,東京都,練馬区,桜台２丁目２５番１号,,13,120,1760002,,,2023-10-04,清算の結了等,,,2015-10-05,1,,,,,シチフクショウジ,0
1421,5012701013596,登記記録の閉鎖等,0,2023-10-10,2023-10-05,株式会社アルファシーク,,株式会社,東京都,新宿区,高田馬場１丁目２９番地２０号安念ビル３Ｆ,,13,104,1690075,,,2023-10-05,清算の結了等,,,2016-02-22,1,,,,,アルファシーク,0
1484,5050001042750,登記記録の閉鎖等,0,2023-10-10,2023-10-02,株式会社陽栄工業,,株式会社,茨城県,筑西市,舟生１０７３番地２８４,,08,227,3080111,,,2023-10-02,清算の結了等,,,2017-05-15,1,,,,,ハルエコウギョウ,0
1494,5070001014070,登記記録の閉鎖等,0,2023-10-10,2023-10-02,株式会社神倉硝子境,,株式会社,群馬県,伊勢崎市,境上武士５９８番地５,,10,204,3700127,,,2023-10-02,合併による解散等,9070001014067,令和５年１０月１日群馬県伊勢崎市境上武士５９８番地５株式会社神倉建商（9070001014067）に合併し解散,2015-10-05,1,,,,,カミクラガラスサカイ,0
1507,5100001024999,登記記録の閉鎖等,0,2023-10-10,2023-10-02,株式会社転造技術研究所,,株式会社,山梨県,大月市,富浜町鳥沢２０２２番地,,19,206,4090502,,,2023-10-02,合併による解散等,6090001007988,令和５年９月３０日山梨県大月市富浜町鳥沢２０２２番地株式会社ニッセー（6090001007988）に合併し解散,2015-10-05,1,,,,,テンゾウギジュツケンキュウジョ,0
1509,5100002004018,登記記録の閉鎖等,0,2023-10-10,2023-09-29,有限会社野村総合サービス,,有限会社,長野県,長野市,桐原１丁目５番１号,,20,201,3810045,,,2023-09-29,清算の結了等,,,2015-10-05,1,,,,,ノムラソウゴウサービス,0
1510,5110001001106,登記記録の閉鎖等,0,2023-10-10,2023-10-03,株式会社アド・コンドー,,株式会社,新潟県,新潟市東区,小金台６番７号,,15,102,9500028,,,2023-10-03,清算の結了等,,,2015-10-05,1,,,,,アドコンドー,0
1526,5120001237079,登記記録の閉鎖等,0,2023-10-10,2023-10-05,つながり株式会社,,株式会社,大阪府,大阪市中央区,安土町１丁目６番１４号,,27,128,5410052,,,2023-10-05,合併による解散等,4120101061149,令和５年１０月１日大阪府和泉市あゆみ野四丁目３番２０号ナカザワホールディングス株式会社（4120101061149）に合併し解散,2021-04-27,1,,,,,ツナガリ,0
1533,5120003012819,登記記録の閉鎖等,0,2023-10-10,2023-10-02,合同会社アース,,合同会社,大阪府,大阪市此花区,朝日２丁目１８番８号３Ｆ,,27,104,5540011,,,2023-10-02,合併による解散等,4120003013504,令和５年１０月１日大阪市此花区朝日二丁目１８番８号３Ｆ合同会社鈴（4120003013504）に合併し解散,2017-05-23,1,,,,,アース,0
1558,5140002048341,登記記録の閉鎖等,0,2023-10-10,2023-10-02,株式会社クローバー印刷,,株式会社,兵庫県,姫路市,岡田４７９番地,,28,201,6700982,,,2023-10-02,合併による解散等,8140001058272,令和５年１０月１日兵庫県姫路市岡田４７９番地関西ビジネスフォーム株式会社（8140001058272）に合併し解散,2015-10-05,1,,,,,クローバーインサツ,0
1562,5140002061055,登記記録の閉鎖等,0,2023-10-10,2023-10-04,有限会社グランデ,,有限会社,兵庫県,西宮市,獅子ケ口町７番２７号,,28,204,6620026,,,2023-10-04,清算の結了等,,,2015-10-05,1,,,,,,0
1571,5150005003672,登記記録の閉鎖等,0,2023-10-10,2023-10-05,奈良県蒟蒻協同組合,,その他の設立登記法人,奈良県,橿原市,南八木町３丁目４番２７号,,29,205,6340077,,,2023-10-05,清算の結了等,,,2015-10-05,1,,,,,ナラケンコンニャク,0
1579,5180001131235,登記記録の閉鎖等,0,2023-10-10,2023-10-02,アクセルツール株式会社,,株式会社,愛知県,名古屋市南区,泉楽通２丁目２４番地,,23,112,4570852,,,2023-10-02,清算の結了等,,,2018-02-19,1,,,,,アクセルツール,0
1597,5200001008026,登記記録の閉鎖等,0,2023-10-10,2023-10-02,株式会社コノシマ自動車,,株式会社,岐阜県,岐阜市,柳津町流通センター２丁目５番地,,21,201,5016123,,,2023-10-02,合併による解散等,2200001001594,令和５年１０月１日岐阜市大脇一丁目６７番地１北川コノシマ株式会社（2200001001594）に合併し解散,2015-10-05,1,,,,,コノシマジドウシャ,0
1602,5200002020590,登記記録の閉鎖等,0,2023-10-10,2023-10-03,有限会社ビーアンドアイ,,有限会社,岐阜県,多治見市,太平町３丁目１６番地,,21,204,5070041,,,2023-10-03,合併による解散等,1200001020926,令和５年９月２９日横浜市中区南仲通二丁目２５番地２株式会社パートナー（1200001020926）に合併し解散,2015-10-05,1,,,,,ビーアンドアイ,0
1613,5260001019760,登記記録の閉鎖等,0,2023-10-10,2023-10-04,株式会社小村工務店,,株式会社,岡山県,津山市,東一宮９１番地８,,33,203,7080814,,,2023-10-04,清算の結了等,,,2015-10-05,1,,,,,コムラコウムテン,0
1617,5280002008694,登記記録の閉鎖等,0,2023-10-10,2023-10-05,有限会社ミモザ,,有限会社,島根県,浜田市,朝日町１４５６番地,,32,202,6970033,,,2023-10-05,清算の結了等,,,2015-10-05,1,,,,,ミモザ,0
1618,5290001014602,登記記録の閉鎖等,0,2023-10-10,2023-09-27,株式会社筑水建築設計事務所,,株式会社,福岡県,福岡市博多区,寿町２丁目４番１２号,,40,132,8120884,,,2023-09-27,清算の結了等,,,2015-10-05,1,,,,,チクスイケンチクセッケイジムショ,0
1675,5500002012847,登記記録の閉鎖等,0,2023-10-10,2023-10-06,有限会社都築酒店,,有限会社,愛媛県,喜多郡内子町,小田３２２番地,,38,422,7913501,,,2023-10-06,清算の結了等,,,2015-10-05,1,,,,,ツヅキサセテン,0
1699,6010105001432,登記記録の閉鎖等,0,2023-10-10,2023-09-28,特定非営利活動法人国際保健医療支援・研究センター,,その他の設立登記法人,東京都,八王子市,子安町２丁目２３番２３号,,13,201,1920904,,,2023-09-28,清算の結了等,,,2015-10-05,1,,,,,,0
1702,6010401157928,登記記録の閉鎖等,0,2023-10-10,2023-10-02,ＡｓｉａＷｉｓｅ　Ｔｅｃｈｎｏｌｏｇｙ株式会社,,株式会社,東京都,港区,虎ノ門１丁目１７－１虎ノ門ヒルズビジネスタワー１５階,,13,103,1050001,,,2023-10-02,合併による解散等,1010401165679,令和５年１０月１日東京都港区虎ノ門一丁目１７－１虎ノ門ヒルズビジネスタワー１５階ＡｓｉａＷｉｓｅ　Ｃｏｎｓｕｌｔｉｎｇ株式会社（1010401165679）に合併し解散,2021-02-01,1,,,,,アジアワイズテクノロジー,0
1746,6012401010348,登記記録の閉鎖等,0,2023-10-10,2023-10-05,株式会社ケイ・ワタナベ,,株式会社,東京都,狛江市,和泉本町２丁目３４番２３－４０１号,,13,219,2010003,,,2023-10-05,清算の結了等,,,2015-10-05,1,,,,,,0
1750,6012405002762,登記記録の閉鎖等,0,2023-10-10,2023-10-04,特定非営利活動法人窓の安全と快適性を保つ会,,その他の設立登記法人,東京都,武蔵野市,境２丁目１０番２１－４０６号マドレーヌ武蔵野,,13,203,1800022,,,2023-10-04,清算の結了等,,,2015-10-05,1,,,,,マドノアンゼントカイテキセイヲタモツカイ,0
1756,6020001057305,登記記録の閉鎖等,0,2023-10-10,2023-09-28,株式会社オートエクセレント,,株式会社,神奈川県,横浜市旭区,南本宿町１０２番地,,14,112,2410833,,,2023-09-28,清算の結了等,,,2015-10-05,1,,,,,オートエクセレント,0
1760,6020002104774,登記記録の閉鎖等,0,2023-10-10,2023-09-29,有限会社藤原工業所,,有限会社,神奈川県,川崎市川崎区,大島４丁目１番１５－２号,,14,131,2100834,,,2023-09-29,清算の結了等,,,2015-10-05,1,,,,,,0
1785,6030002022059,登記記録の閉鎖等,0,2023-10-10,2023-09-12,有限会社アバドエンジニアリング,,有限会社,埼玉県,蓮田市,椿山４丁目１５番６号,,11,238,3490144,,,2023-09-12,清算の結了等,,,2015-10-05,1,,,,,アバドエンジニアリング,0
1790,6030002082292,登記記録の閉鎖等,0,2023-10-10,2023-09-15,有限会社シャボンシステム,,有限会社,埼玉県,児玉郡上里町,大字長浜４７６番地８,,11,385,3690316,,,2023-09-15,清算の結了等,,,2015-10-05,1,,,,,シャボンシステム,0
1793,6030002117536,登記記録の閉鎖等,0,2023-10-10,2023-09-15,有限会社エムツーインターナショナル,,有限会社,埼玉県,行田市,大字小針２２５番地１,,11,206,3610024,,,2023-09-15,清算の結了等,,,2015-10-05,1,,,,,エムツーインターナショナル,0
1794,6030002117577,登記記録の閉鎖等,0,2023-10-10,2023-09-13,おおくま物産有限会社,,有限会社,埼玉県,行田市,行田７番２号,,11,206,3610073,,,2023-09-13,清算の結了等,,,2015-10-05,1,,,,,オオクマブッサン,0
1803,6030005015638,登記記録の閉鎖等,0,2023-10-10,2023-09-13,特定非営利活動法人日中交流推進機構,,その他の設立登記法人,埼玉県,坂戸市,南町８番１０号,,11,239,3500233,,,2023-09-13,清算の結了等,,,2015-10-05,1,,,,,ニッチュウコウリュウスイシンキコウ,0
1810,6040002035670,登記記録の閉鎖等,0,2023-10-10,2023-09-22,有限会社中沢重機,,有限会社,千葉県,市原市,姉崎７８３番地１,,12,219,2990111,,,2023-09-22,清算の結了等,,,2015-10-05,1,,,,,ナカザワジュウキ,0
1832,6080401018719,登記記録の閉鎖等,0,2023-10-10,2023-10-02,ＡＴメトリック株式会社,,株式会社,静岡県,浜松市中区,佐鳴台４丁目２７番２３号,,22,131,4328021,,,2023-10-02,清算の結了等,,,2015-10-05,1,,,,,エイティーメトリック,0
1852,6120001119458,登記記録の閉鎖等,0,2023-10-10,2023-10-04,アイエスシーエス株式会社,,株式会社,大阪府,大阪市西区,南堀江１丁目２６番２７－６０８号,,27,106,5500015,,,2023-10-04,清算の結了等,,,2015-10-05,1,,,,,アイエスシーエス,0
1853,6120001125893,登記記録の閉鎖等,0,2023-10-10,2023-10-02,株式会社大昌,,株式会社,大阪府,大阪市淀川区,十三本町１丁目１６番２０号,,27,123,5320024,,,2023-10-02,合併による解散等,2120001056531,令和５年１０月１日大阪市淀川区十三本町一丁目１６番２０号大幸企業株式会社（2120001056531）に合併し解散,2015-10-05,1,,,,,ダイショウ,0
1861,6120002003925,登記記録の閉鎖等,0,2023-10-10,2023-09-28,有限会社ワップ大阪,,有限会社,大阪府,大阪市阿倍野区,昭和町１丁目５番５号,,27,119,5450011,,,2023-09-28,清算の結了等,,,2015-10-05,1,,,,,ワップオオサカ,0
1862,6120002077985,登記記録の閉鎖等,0,2023-10-10,2023-10-03,有限会社今市製作所,,有限会社,大阪府,守口市,金田町１丁目５４番１２号,,27,209,5700011,,,2023-10-03,清算の結了等,,,2015-10-05,1,,,,,イマイチセイサクショ,0
1868,6120102020358,登記記録の閉鎖等,0,2023-10-10,2023-10-06,有限会社リンクライト,,有限会社,大阪府,河内長野市,北青葉台５２番１１号,,27,216,5860068,,,2023-10-06,清算の結了等,,,2015-10-05,1,,,,,リンクライト,0
1871,6120901033642,登記記録の閉鎖等,0,2023-10-10,2023-10-02,エー・ピー・エス株式会社,,株式会社,大阪府,吹田市,江坂町１丁目１８番８号,,27,205,5640063,,,2023-10-02,合併による解散等,6120901031828,令和５年１０月１日大阪府吹田市江坂町一丁目１８番８号アパルトマンエージェント株式会社（6120901031828）に合併し解散,2015-10-05,1,,,,,エーピーエス,0
1880,6140001014186,登記記録の閉鎖等,0,2023-10-10,2023-10-02,松野資材株式会社,,株式会社,兵庫県,神戸市兵庫区,永沢町２丁目６８号,,28,105,6520816,,,2023-10-02,合併による解散等,9140001010967,令和５年１０月１日神戸市中央区相生町四丁目５番２号株式会社松野組（9140001010967）に合併し解散,2015-10-05,1,,,,,マツノシザイ,0
1881,6140001032139,登記記録の閉鎖等,0,2023-10-10,2023-10-05,ビジネス・ランニングサポート株式会社,,株式会社,東京都,三鷹市,下連雀９丁目５番３３－５０５号,,13,204,1810013,,,2023-10-05,清算の結了等,,,2015-10-05,1,,,,,ビジネスランニングサポート,0
1882,6140001046510,登記記録の閉鎖等,0,2023-10-10,2023-10-02,久木塗料販売株式会社,,株式会社,兵庫県,養父市,八鹿町八鹿１１１４番地１,,28,222,6670021,,,2023-10-02,清算の結了等,,,2015-10-05,1,,,,,クキトリョウハンバイ,0
1893,6140002039083,登記記録の閉鎖等,0,2023-10-10,2023-10-02,有限会社ギンレイ,,有限会社,兵庫県,養父市,丹戸９０９番地,,28,222,6671124,,,2023-10-02,合併による解散等,5140001103642,令和５年１０月１日兵庫県養父市丹戸８９６番地２株式会社ＭＥリゾート但馬（5140001103642）に合併し解散,2015-10-05,1,,,,,ギンレイ,0
1897,6170001003491,登記記録の閉鎖等,0,2023-10-10,2023-10-06,与太郎フレッシュフーズ株式会社,,株式会社,和歌山県,和歌山市,松江北７丁目６番２０号,,30,201,6408425,,,2023-10-06,清算の結了等,,,2015-10-05,1,,,,,ヨタロウフレッシュフーズ,0
1913,6190002020179,登記記録の閉鎖等,0,2023-10-10,2023-10-04,有限会社小林工業,,有限会社,三重県,四日市市,桜花台１丁目７番地の９,,24,202,5121216,,,2023-10-04,清算の結了等,,,2015-10-05,1,,,,,コバヤシコウギョウ,0
1917,6200001020038,登記記録の閉鎖等,0,2023-10-10,2023-10-02,株式会社ウイング,,株式会社,岐阜県,関市,西田原大千前６１番地の１,,21,205,5013928,,,2023-10-02,合併による解散等,6200001020021,令和５年１０月１日岐阜県関市西田原大千前６１番地１株式会社フィット・ワークス（6200001020021）に合併し解散,2015-10-05,1,,,,,ウイング,0
1925,6230002006768,登記記録の閉鎖等,0,2023-10-10,2023-10-02,有限会社納村電機商会,,有限会社,富山県,富山市,八尾町福島９２番地,,16,201,9392376,,,2023-10-02,清算の結了等,,,2015-10-05,1,,,,,ノウムラデンキショウカイ,0
1930,6250002013424,登記記録の閉鎖等,0,2023-10-10,2023-10-02,有限会社萩城窯,,有限会社,山口県,萩市,大字椿東３１５５番地,,35,204,7580011,,,2023-10-02,合併による解散等,3250002013393,令和５年１０月１日山口県萩市大字堀内２１０番地の１２株式会社北門屋敷（3250002013393）に合併し解散,2015-10-05,1,,,,,ハギジョウカマ,0
1933,6290001083456,登記記録の閉鎖等,0,2023-10-10,2023-09-11,株式会社シャトルＰＰＯ,,株式会社,福岡県,福岡市西区,西都２丁目２２－２－８０５,,40,135,8190367,,,2023-09-11,清算の結了等,,,2018-11-28,1,,,,,シャトルッポ,0
1939,6290003004526,登記記録の閉鎖等,0,2023-10-10,2023-09-20,合同会社ベル・リアルエステート,,合同会社,福岡県,福岡市東区,香椎台２丁目８番５号,,40,131,8130014,,,2023-09-20,合併による解散等,7290001085708,令和５年９月２０日福岡市中央区六本松三丁目１番１１号グランドシャルマン桜坂４０１号株式会社ルビコン（7290001085708）に合併し解散,2015-10-05,1,,,,,ベルリアルエステート,0
1973,6500001020412,登記記録の閉鎖等,0,2023-10-10,2023-10-04,しげまる物流株式会社,,株式会社,愛媛県,松山市,久保田町８１番地４２,,38,201,7918035,,,2023-10-04,清算の結了等,,,2017-02-15,1,,,,,シゲマルブツリュウ,0
1977,6500002016459,登記記録の閉鎖等,0,2023-10-10,2023-10-05,重田海運有限会社,,有限会社,愛媛県,新居浜市,東雲町２丁目１０番２５号,,38,205,7920864,,,2023-10-05,清算の結了等,,,2015-10-05,1,,,,,,0
1992,7010003032355,登記記録の閉鎖等,0,2023-10-10,2023-09-28,Ｎ　ｃｏｎｓｕｌｔｉｎｇ合同会社,,合同会社,東京都,中央区,銀座１丁目２２－１１銀座大竹ビジデンス２Ｆ,,13,102,1040061,,,2023-09-28,清算の結了等,,,2020-06-09,1,,,,,エヌコンサルティング,0
1994,7010005008007,登記記録の閉鎖等,0,2023-10-10,2023-09-28,一般社団法人ＣＲＥインベストメント,,その他の設立登記法人,東京都,千代田区,霞が関３丁目２番５号,,13,101,1000013,,,2023-09-28,清算の結了等,,,2015-10-05,1,,,,,シーアールイーインベストメント,0
1997,7010401127608,登記記録の閉鎖等,0,2023-10-10,2023-09-19,株式会社ＴＰマネジメント,,株式会社,東京都,港区,六本木５丁目１５番１２－２０２号,,13,103,1060032,,,2023-09-19,清算の結了等,,,2016-10-25,1,,,,,ティーピーマネジメント,0
2001,7010401157927,登記記録の閉鎖等,0,2023-10-10,2023-10-02,ＡｓｉａＷｉｓｅ　Ｄｉｇｉｔａｌ　Ｃｏｎｓｕｌｔｉｎｇ＆Ａｄｖｏｃａｃｙ株式会社,,株式会社,東京都,港区,虎ノ門１丁目１７－１虎ノ門ヒルズビジネスタワー１５階,,13,103,1050001,,,2023-10-02,合併による解散等,1010401165679,令和５年１０月１日東京都港区虎ノ門一丁目１７－１虎ノ門ヒルズビジネスタワー１５階ＡｓｉａＷｉｓｅ　Ｃｏｎｓｕｌｔｉｎｇ株式会社（1010401165679）に合併し解散,2021-02-01,1,,,,,アジアワイズデジタルコンサルティングアンドアドボカシー,0
2038,7011501019075,登記記録の閉鎖等,0,2023-10-10,2023-10-02,承天リプラス株式会社,,株式会社,東京都,荒川区,東日暮里５丁目４１番２号,,13,118,1160014,,,2023-10-02,清算の結了等,,,2015-10-05,1,,,,,ショウテンリプラス,0
2049,7012801006614,登記記録の閉鎖等,0,2023-10-10,2023-10-03,興和テックメイク株式会社,,株式会社,東京都,武蔵村山市,残堀１丁目９５番地,,13,223,2080034,,,2023-10-03,合併による解散等,4030001063915,令和５年１０月１日名古屋市中区錦三丁目６番２９号興和オプトロニクス株式会社（4030001063915）に合併し解散,2015-10-05,1,,,,,コウワテックメイク,0
2051,7013101006874,登記記録の閉鎖等,0,2023-10-10,2023-10-03,株式会社エイペックス,,株式会社,東京都,福生市,牛浜１５８番地,,13,218,1970024,,,2023-10-03,清算の結了等,,,2015-10-05,1,,,,,エイペックス,0
2053,7013301041366,登記記録の閉鎖等,0,2023-10-10,2023-09-20,ケビロ株式会社,,株式会社,東京都,豊島区,東池袋１丁目１７番１１号パークハイツ池袋１１０５,,13,116,1700013,,,2023-09-20,清算の結了等,,,2017-11-13,1,,,,,ケビロ,0
2063,7021001050224,登記記録の閉鎖等,0,2023-10-10,2023-10-02,株式会社アイ・エム・シール,,株式会社,神奈川県,相模原市中央区,淵野辺４丁目１４番６号,,14,152,2520206,,,2023-10-02,清算の結了等,,,2015-10-05,1,,,,,アイエムシール,0
2071,7021003003403,登記記録の閉鎖等,0,2023-10-10,2023-10-02,合資会社ＢＥＬＩＥＦ,,合資会社,神奈川県,横須賀市,浦賀５丁目６６番１７号,,14,201,2390822,,,2023-10-02,清算の結了等,,,2015-10-05,1,,,,,ビリーフ,0
2076,7030001028171,登記記録の閉鎖等,0,2023-10-10,2023-09-13,ターボテクノ工業株式会社,,株式会社,埼玉県,所沢市,東新井町２７０番地の１７,,11,208,3590034,,,2023-09-13,清算の結了等,,,2015-10-05,1,,,,,ターボテクノコウギョウ,0
2083,7030001118468,登記記録の閉鎖等,0,2023-10-10,2023-09-20,コミク商事株式会社,,株式会社,埼玉県,東松山市,小松原町８番地１６,,11,212,3550013,,,2023-09-20,清算の結了等,,,2017-02-07,1,,,,,コミクショウジ,0
2101,7030003005689,登記記録の閉鎖等,0,2023-10-10,2023-09-15,エフビーエス合同会社,,合同会社,埼玉県,所沢市,東狭山ケ丘１丁目５０番地の３,,11,208,3591106,,,2023-09-15,清算の結了等,,,2015-10-05,1,,,,,エフビーエス,0
2109,7040001071006,登記記録の閉鎖等,0,2023-10-10,2023-09-21,株式会社エスケーシー,,株式会社,千葉県,柏市,新柏３丁目１７番地の７アビタシオン新柏１０３,,12,217,2770084,,,2023-09-21,清算の結了等,,,2015-10-05,1,,,,,エスケーシー,0
2115,7040003022080,登記記録の閉鎖等,0,2023-10-10,2023-09-22,合同会社サクセスエージング,,合同会社,千葉県,佐倉市,井野１０５４番地６７,,12,212,2850855,,,2023-09-22,清算の結了等,,,2023-03-02,1,,,,,サクセスエージング,0
2121,7070005007671,登記記録の閉鎖等,0,2023-10-10,2023-10-03,小倉牧野農業協同組合,,その他の設立登記法人,群馬県,吾妻郡中之条町,大字入山１７３番地,,10,421,3771701,,,2023-10-03,清算の結了等,,,2015-10-05,1,,,,,,0
2136,7120001063192,登記記録の閉鎖等,0,2023-10-10,2023-10-02,株式会社ケーエー,,株式会社,大阪府,大阪市中央区,島町２丁目４番３号,,27,128,5400034,,,2023-10-02,清算の結了等,,,2015-10-05,1,,,,,ケーエー,0
2138,7120001078001,登記記録の閉鎖等,0,2023-10-10,2023-09-29,株式会社キャリーサービス,,株式会社,大阪府,大阪市中央区,内本町１丁目１番６号,,27,128,5400026,,,2023-09-29,清算の結了等,,,2015-10-05,1,,,,,,0
2143,7120001238001,登記記録の閉鎖等,0,2023-10-10,2023-10-02,株式会社Ｏｆｆｉｃｅ３１０,,株式会社,兵庫県,神戸市北区,八多町中１２７０番地の４,,28,109,6511351,,,2023-10-02,清算の結了等,,,2021-06-07,1,,,,,オフィスサンイチゼロ,0
2146,7120001246623,登記記録の閉鎖等,0,2023-10-10,2023-10-03,株式会社働き蜂ドローン事業研究所,,株式会社,大阪府,大阪市西区,北堀江３丁目７番３０号,,27,106,5500014,,,2023-10-03,清算の結了等,,,2022-06-14,1,,,,,ハタラキバチドローンジギョウケンキュウショ,0
2171,7140001092396,登記記録の閉鎖等,0,2023-10-10,2023-10-02,株式会社ＤＩＣＳ,,株式会社,兵庫県,神戸市北区,八多町中１２７０番地３,,28,109,6511351,,,2023-10-02,清算の結了等,,,2015-10-05,1,,,,,ディックス,0
2180,7140002016651,登記記録の閉鎖等,0,2023-10-10,2023-10-03,有限会社神戸ガイダンス,,有限会社,兵庫県,神戸市中央区,元町通３丁目９番４号,,28,110,6500022,,,2023-10-03,清算の結了等,,,2015-10-05,1,,,,,コウベガイダンス,0
2187,7160001014464,登記記録の閉鎖等,0,2023-10-10,2023-10-04,株式会社ＭＡＳＡ　ＳＴＡＢＬＥ,,株式会社,滋賀県,栗東市,荒張６４３番地,,25,208,5203003,,,2023-10-04,清算の結了等,,,2015-10-05,1,,,,,マサステーブル,0
2191,7180001057833,登記記録の閉鎖等,0,2023-10-10,2023-10-05,株式会社アセットマネジメント,,株式会社,愛知県,名古屋市東区,主税町４丁目８５番地,,23,102,4610018,,,2023-10-05,合併による解散等,1180001107247,令和５年１０月１日東京都品川区南大井六丁目１６番１９号株式会社ダイテックホールディング（1180001107247）に合併し解散,2015-10-05,1,,,,,アセットマネジメント,0
2196,7180001130400,登記記録の閉鎖等,0,2023-10-10,2023-10-02,株式会社ＰＬＡＲＥＡ,,株式会社,愛知県,名古屋市名東区,一社３丁目１４８番地の８,,23,115,4650093,,,2023-10-02,合併による解散等,8180001065348,令和５年９月３０日名古屋市名東区一社一丁目７９番地株式会社ＡＣＴ　ＰＬＡＮＮＩＮＧ（8180001065348）に合併し解散,2017-12-08,1,,,,,プラリア,0
2216,7230001019794,登記記録の閉鎖等,0,2023-10-10,2023-10-05,新林投資アドバイザー株式会社,,株式会社,富山県,富山市,古鍛冶町６番５号,,16,201,9300058,,,2023-10-05,清算の結了等,,,2023-04-14,1,,,,,シンバヤシトウシアドバイザー,0
2225,7250002019635,登記記録の閉鎖等,0,2023-10-10,2023-10-03,有限会社カーネル,,有限会社,山口県,柳井市,日積３１３０番地の１,,35,212,7420111,,,2023-10-03,清算の結了等,,,2015-10-05,1,,,,,カーネル,0
2226,7260001011724,登記記録の閉鎖等,0,2023-10-10,2023-10-03,岡山テクノス株式会社,,株式会社,岡山県,岡山市北区,津高７８２番地６,,33,101,7011152,,,2023-10-03,清算の結了等,,,2015-10-05,1,,,,,オカヤマテクノス,0
2228,7290001047006,登記記録の閉鎖等,0,2023-10-10,2023-09-26,株式会社アルバテック,,株式会社,福岡県,糟屋郡宇美町,障子岳南４丁目５番１２号,,40,341,8112126,,,2023-09-26,清算の結了等,,,2015-10-05,1,,,,,アルバテック,0
2231,7290001089089,登記記録の閉鎖等,0,2023-10-10,2023-09-27,株式会社ＥＭＴ,,株式会社,福岡県,福岡市東区,香椎浜３丁目３番５－２３１５号,,40,131,8130016,,,2023-09-27,清算の結了等,,,2020-06-17,1,,,,,イーエムティー,0
2237,7290005016898,登記記録の閉鎖等,0,2023-10-10,2023-10-02,社会保険労務士法人Ｋ＆Ｋ,,その他の設立登記法人,福岡県,福岡市早良区,大字内野８０９番地２,,40,137,8111123,,,2023-10-02,清算の結了等,,,2018-06-26,1,,,,,ケイアンドケイ,0
2240,7290801021408,登記記録の閉鎖等,0,2023-10-10,2023-10-05,株式会社Ｍ‐ｓｔｙｌｅ,,株式会社,福岡県,北九州市小倉南区,大字新道寺１２７５番地４,,40,107,8030186,,,2023-10-05,清算の結了等,,,2015-10-05,1,,,,,エムスタイル,0
2250,7330001013688,登記記録の閉鎖等,0,2023-10-10,2023-10-02,株式会社彦一製菓,,株式会社,熊本県,八代市,高下西町２０６８番地の３,00097403,43,202,8660072,,,2023-10-02,合併による解散等,8330003003083,令和５年１０月１日熊本県八代市高下西町２０６８番地の３株式会社お菓子の彦一本舗（8330003003083）に合併し解散,2015-10-05,1,,,,,ヒコイチセイカ,0
2266,7430001018561,登記記録の閉鎖等,0,2023-10-10,2023-09-26,株式会社リョクエイ,,株式会社,北海道,札幌市手稲区,新発寒六条４丁目２番６号,,01,109,0060806,,,2023-09-26,清算の結了等,,,2015-10-05,1,,,,,リョクエイ,0
2275,7470001015571,登記記録の閉鎖等,0,2023-10-10,2023-10-05,株式会社願,,株式会社,香川県,高松市,牟礼町牟礼３７２０番地１２２,,37,201,7610121,,,2023-10-05,合併による解散等,9122001008662,令和５年１０月１日大阪府東大阪市新家三丁目１１番３０号日本石材センター株式会社（9122001008662）に合併し解散,2016-02-25,1,,,,,,0
2286,8010001203411,登記記録の閉鎖等,0,2023-10-10,2023-09-29,株式会社ＡｐｅＸ,,株式会社,大阪府,大阪市旭区,清水４丁目１番５号,,27,117,5350021,,,2023-09-29,清算の結了等,,,2019-08-20,1,,,,,アペックス,0
2294,8010005034365,登記記録の閉鎖等,0,2023-10-10,2023-09-29,弁護士法人中崎・佐藤法律事務所,,その他の設立登記法人,東京都,千代田区,九段北１丁目７番５号九段飯田ビル２階,,13,101,1020073,,,2023-09-29,清算の結了等,,,2021-12-20,1,,,,,ナカサキサトウホウリツジムショ,0
2320,8010701037654,登記記録の閉鎖等,0,2023-10-10,2023-10-03,ＬＩＮＥ　Ｂａｎｋ設立準備株式会社,,株式会社,東京都,品川区,西品川１丁目１番１号,,13,109,1410033,,,2023-10-03,清算の結了等,,,2019-06-05,1,,,,,ラインバンクセツリツジュンビ,0
2323,8010801011435,登記記録の閉鎖等,0,2023-10-10,2023-10-05,株式会社ネクストリサーチ,,株式会社,東京都,大田区,東蒲田２丁目２１番４号,,13,111,1440031,,,2023-10-05,合併による解散等,1013401002364,令和５年１０月１日東京都渋谷区広尾三丁目２番１３号株式会社アイシン（1013401002364）に合併し解散,2015-10-05,1,,,,,ネクストリサーチ,0
2329,8010902010567,登記記録の閉鎖等,0,2023-10-10,2023-09-29,有限会社トーンズ,,有限会社,東京都,世田谷区,船橋７丁目５番１４号,,13,112,1560055,,,2023-09-29,清算の結了等,,,2015-10-05,1,,,,,トーンズ,0
2333,8011001116347,登記記録の閉鎖等,0,2023-10-10,2023-09-19,株式会社ｄｏｔ,,株式会社,東京都,港区,芝浦１丁目６番４１－２６０９号,,13,103,1050023,,,2023-09-19,清算の結了等,,,2017-05-16,1,,,,,ドット,0
2340,8011101098931,登記記録の閉鎖等,0,2023-10-10,2023-10-05,株式会社ＫＷＦ,,株式会社,東京都,新宿区,西新宿１丁目２２番２号新宿サンエービル９階,,13,104,1600023,,,2023-10-05,合併による解散等,6013101003286,令和５年１０月１日東京都福生市東町１番地１株式会社協和（6013101003286）に合併し解散,2022-05-23,1,,,,,ケーダブリュエフ,0
2363,8020001020715,登記記録の閉鎖等,0,2023-10-10,2023-09-29,全友興業株式会社,,株式会社,神奈川県,横浜市港北区,新吉田町４８８番地１,,14,109,2230056,,,2023-09-29,清算の結了等,,,2015-10-05,1,,,,,ゼンユウコウギョウ,0
2382,8030001051759,登記記録の閉鎖等,0,2023-10-10,2023-09-19,株式会社千代春,,株式会社,埼玉県,春日部市,西金野井２９１番地５０,,11,214,3440112,,,2023-09-19,清算の結了等,,,2015-10-05,1,,,,,チヨハル,0
2383,8030001052749,登記記録の閉鎖等,0,2023-10-10,2023-09-13,桂和産業株式会社,,株式会社,埼玉県,南埼玉郡宮代町,百間３丁目４番１２号,,11,442,3450801,,,2023-09-13,清算の結了等,,,2015-10-05,1,,,,,ケイワサンギョウ,0
2404,8030002038409,登記記録の閉鎖等,0,2023-10-10,2023-09-19,有限会社武蔵野体育施設,,有限会社,埼玉県,久喜市,上清久２１９番地２,,11,232,3460038,,,2023-09-19,清算の結了等,,,2015-10-05,1,,,,,ムサシノタイイクシセツ,0
2408,8030003017436,登記記録の閉鎖等,0,2023-10-10,2023-09-19,合同会社Ｔ－ｆａｍｉｌｌｅ,,合同会社,埼玉県,さいたま市南区,南浦和２丁目２８番１号,,11,108,3360017,,,2023-09-19,清算の結了等,,,2021-06-21,1,,,,,ティーファミーユ,0
2425,8050002022658,登記記録の閉鎖等,0,2023-10-10,2023-09-21,有限会社ヴィットファッションシステム,,有限会社,千葉県,夷隅郡大多喜町,下大多喜１１０６番地,,12,441,2980202,,,2023-09-21,清算の結了等,,,2015-10-05,1,,,,,ヴィットファッションシステム,0
2448,8090002000288,登記記録の閉鎖等,0,2023-10-10,2023-10-03,有限会社伊藤木工製作所,,有限会社,山梨県,甲府市,上石田４丁目３番１４号,,19,201,4000041,,,2023-10-03,清算の結了等,,,2015-10-05,1,,,,,イトウモッコウセイサクショ,0
2456,8110001006201,登記記録の閉鎖等,0,2023-10-10,2023-10-04,株式会社北都ステージ,,株式会社,新潟県,新潟市東区,長者町１５番４２号,,15,102,9500066,,,2023-10-04,清算の結了等,,,2015-10-05,1,,,,,ホクトステージ,0
2464,8120001217334,登記記録の閉鎖等,0,2023-10-10,2023-10-05,株式会社東映建設,,株式会社,大阪府,大阪市住吉区,長居東２丁目２番４号,,27,120,5580004,,,2023-10-05,合併による解散等,6120101004584,令和５年１０月１日大阪府堺市中区堀上町１０７７番地株式会社東映建設（6120101004584）に合併し解散,2018-11-29,1,,,,,トウエイケンセツ,0
2488,8140001040783,登記記録の閉鎖等,0,2023-10-10,2023-10-03,株式会社ケイエムエー,,株式会社,兵庫県,赤穂市,折方１４９５番地２２,,28,212,6780254,,,2023-10-03,清算の結了等,,,2015-10-05,1,,,,,ケイエムエー,0
2504,8140002049592,登記記録の閉鎖等,0,2023-10-10,2023-10-02,有限会社俵屋興産,,有限会社,兵庫県,姫路市,岡田４７９番地,,28,201,6700982,,,2023-10-02,合併による解散等,8140001058272,令和５年１０月１日兵庫県姫路市岡田４７９番地関西ビジネスフォーム株式会社（8140001058272）に合併し解散,2015-10-05,1,,,,,タワラヤコウサン,0
2516,8180001038345,登記記録の閉鎖等,0,2023-10-10,2023-10-03,株式会社鶴舞,,株式会社,愛知県,名古屋市中区,千代田５丁目２０３１番地,,23,106,4600012,,,2023-10-03,合併による解散等,1120001103433,令和５年１０月１日大阪市中央区今橋四丁目４番７号株式会社ニチホス（1120001103433）に合併し解散,2015-10-05,1,,,,,ツルマイ,0
2519,8180001085429,登記記録の閉鎖等,0,2023-10-10,2023-10-02,株式会社アイサン,,株式会社,愛知県,一宮市,奥町字前沼９番地,,23,203,4910201,,,2023-10-02,清算の結了等,,,2015-10-05,1,,,,,アイサン,0
2539,8200005003879,登記記録の閉鎖等,0,2023-10-10,2023-10-02,特定非営利活動法人間伐材普及協会,,その他の設立登記法人,岐阜県,羽島郡岐南町,野中１丁目８番地,,21,302,5016004,,,2023-10-02,清算の結了等,,,2015-10-05,1,,,,,カンバツザイフキュウキョウカイ,0
2540,8230001006503,登記記録の閉鎖等,0,2023-10-10,2023-10-03,中越精密工業株式会社,,株式会社,富山県,中新川郡立山町,西芦原新字西芦原前１番地１,00078838,16,323,9300224,,,2023-10-03,合併による解散等,7230001006504,令和５年１０月１日富山県中新川郡立山町西芦原新１番地１中越合金鋳工株式会社（7230001006504）に合併し解散,2015-10-05,1,,,,,チュウエツセイミツコウギョウ,0
2543,8260002017819,登記記録の閉鎖等,0,2023-10-10,2023-10-02,有限会社久満屋商店,,有限会社,岡山県,倉敷市,児島下の町１０丁目７番８号,,33,202,7110906,,,2023-10-02,清算の結了等,,,2015-10-05,1,,,,,クマヤショウテン,0
2545,8270001005476,登記記録の閉鎖等,0,2023-10-10,2023-10-04,日昇株式会社,,株式会社,鳥取県,東伯郡湯梨浜町,大字久留２番地４,,31,370,6820723,,,2023-10-04,清算の結了等,,,2015-10-05,1,,,,,ニッショウ,0
2551,8290001088783,登記記録の閉鎖等,0,2023-10-10,2023-09-25,川上工業株式会社,,株式会社,福岡県,福岡市南区,野間２丁目７－１３－４０５,,40,134,8150041,,,2023-09-25,清算の結了等,,,2020-05-26,1,,,,,カワカミコウギョウ,0
2554,8290002001712,登記記録の閉鎖等,0,2023-10-10,2023-09-26,曰佐住宅有限会社,,有限会社,福岡県,福岡市南区,曰佐１丁目１６番１０号,,40,134,8111313,,,2023-09-26,清算の結了等,,,2015-10-05,1,,,,,オサジュウタク,0
2555,8290002041436,登記記録の閉鎖等,0,2023-10-10,2023-09-26,有限会社博栄建設工業,,有限会社,福岡県,筑紫野市,美しが丘北２丁目１７番地５,,40,217,8180035,,,2023-09-26,清算の結了等,,,2015-10-05,1,,,,,ハクエイケンセツコウギョウ,0
2583,8360003011364,登記記録の閉鎖等,0,2023-10-10,2023-10-02,合同会社ちゅら結,,合同会社,沖縄県,国頭郡恩納村,字仲泊１４１１－２９,,47,311,9040415,,,2023-10-02,清算の結了等,,,2021-08-23,1,,,,,チュラユイ,0
2584,8370001007413,登記記録の閉鎖等,0,2023-10-10,2023-10-05,綿半酒類株式会社,,株式会社,宮城県,仙台市若林区,一本杉町１０－２６,,04,103,9840828,,,2023-10-05,合併による解散等,9010501019892,令和５年１０月１日東京都新宿区四谷一丁目４番地株式会社綿半ドットコム（9010501019892）に合併し解散,2015-10-05,1,,,,,,0
2596,8410001002715,登記記録の閉鎖等,0,2023-10-10,2023-10-03,株式会社オキナヤ,,株式会社,秋田県,秋田市,土崎港中央１丁目２１番２４号,,05,201,0110946,,,2023-10-03,清算の結了等,,,2015-10-05,1,,,,,オキナヤ,0
2608,8450001006869,登記記録の閉鎖等,0,2023-10-10,2023-10-04,株式会社アシスト・プロ,,株式会社,北海道,上川郡東神楽町,ひじり野南二条１丁目１番１３号,,01,453,0711524,,,2023-10-04,清算の結了等,,,2015-10-05,1,,,,,アシストプロ,0
2619,9010001046504,登記記録の閉鎖等,0,2023-10-10,2023-10-03,株式会社ジェイアール東海パッセンジャーズ,,株式会社,東京都,中央区,日本橋３丁目１番１７号,,13,102,1030027,,,2023-10-03,合併による解散等,8180001031531,令和５年１０月１日名古屋市中村区名駅三丁目２２番８号株式会社ＪＲ東海リテイリング・プラス（8180001031531）に合併し解散,2015-10-05,1,,,,,,0
2630,9010003040232,登記記録の閉鎖等,0,2023-10-10,2023-09-25,ＲＢソーラーホップ合同会社,,合同会社,東京都,中央区,八丁堀４丁目２番１０号ＡＯＪ税理士法人内,,13,102,1040032,,,2023-09-25,合併による解散等,2010001174889,令和５年９月２５日東京都中央区八丁堀四丁目２番１０号ＡＯＪ税理士法人内株式会社くろしお地所（2010001174889）に合併し解散,2023-04-10,1,,,,,アールビーソーラーホップ,0
2644,9010401138603,登記記録の閉鎖等,0,2023-10-10,2023-09-19,シーレ株式会社,,株式会社,東京都,港区,麻布十番２丁目１０番３号,,13,103,1060045,,,2023-09-19,清算の結了等,,,2018-05-28,1,,,,,シーレ,0
2663,9010703006508,登記記録の閉鎖等,0,2023-10-10,2023-10-03,合同会社松下,,合同会社,東京都,品川区,上大崎３丁目１番１号目黒セントラルスクエア１５階,,13,109,1410021,,,2023-10-03,清算の結了等,,,2022-12-20,1,,,,,マツシタ,0
2669,9010903002026,登記記録の閉鎖等,0,2023-10-10,2023-10-04,スノー・インベストメント合同会社,,合同会社,東京都,調布市,深大寺北町１丁目２５番地３１,,13,208,1820011,,,2023-10-04,清算の結了等,,,2015-10-05,1,,,,,スノーインベストメント,0
2711,9020001127030,登記記録の閉鎖等,0,2023-10-10,2023-10-05,株式会社アタック,,株式会社,神奈川県,横浜市泉区,緑園４丁目３番地１東の街７－８０８号,,14,116,2450002,,,2023-10-05,清算の結了等,,,2018-07-04,1,,,,,アタック,0
2716,9020002003791,登記記録の閉鎖等,0,2023-10-10,2023-09-27,有限会社糸井運送,,有限会社,神奈川県,横浜市緑区,青砥町３番地１,,14,113,2260022,,,2023-09-27,清算の結了等,,,2015-10-05,1,,,,,イトイウンソウ,0
2754,9030003017410,登記記録の閉鎖等,0,2023-10-10,2023-09-14,合同会社ＣＩＥＬＨＯＵＳＥ,,合同会社,埼玉県,秩父市,太田９５３番地２,,11,207,3680065,,,2023-09-14,清算の結了等,,,2021-06-14,1,,,,,シエルハウス,0
2760,9040001097288,登記記録の閉鎖等,0,2023-10-10,2023-09-21,株式会社塚崎自動車整備工場,,株式会社,千葉県,柏市,塚崎１４１６番地,,12,217,2770923,,,2023-09-21,清算の結了等,,,2016-10-11,1,,,,,ツカサキジドウシャセイビコウジョウ,0
2779,9060001023754,登記記録の閉鎖等,0,2023-10-10,2023-10-02,株式会社加藤,,株式会社,栃木県,鹿沼市,茂呂６６２番地１５,,09,205,3220026,,,2023-10-02,清算の結了等,,,2015-10-05,1,,,,,カトウ,0
2790,9080001002483,登記記録の閉鎖等,0,2023-10-10,2023-10-05,株式会社静南青山商会,,株式会社,静岡県,静岡市葵区,東千代田２丁目１１番８号,,22,101,4200801,,,2023-10-05,合併による解散等,4080101000045,令和５年１０月１日静岡県沼津市筒井町１０番地の４株式会社青山商会（4080101000045）に合併し解散,2015-10-05,1,,,,,セイナンアオヤマショウカイ,0
2793,9080102017975,登記記録の閉鎖等,0,2023-10-10,2023-10-05,有限会社阿部美容室,,有限会社,静岡県,熱海市,和田町１８番１号,,22,205,4130024,,,2023-10-05,清算の結了等,,,2015-10-05,1,,,,,アベビヨウシツ,0
2798,9100001018972,登記記録の閉鎖等,0,2023-10-10,2023-09-29,株式会社角半商店,,株式会社,長野県,茅野市,宮川４５６９番地１,,20,214,3910013,,,2023-09-29,清算の結了等,,,2015-10-05,1,,,,,カクハンショウテン,0
2801,9110002020191,登記記録の閉鎖等,0,2023-10-10,2023-10-03,有限会社荒浜屋,,有限会社,新潟県,柏崎市,東本町３丁目１０番１７号,,15,205,9450051,,,2023-10-03,清算の結了等,,,2015-10-05,1,,,,,アラハマヤ,0
2816,9120002062506,登記記録の閉鎖等,0,2023-10-10,2023-10-02,有限会社トランステクノ,,有限会社,大阪府,大阪市港区,築港３丁目８番６号,,27,107,5520021,,,2023-10-02,清算の結了等,,,2015-10-05,1,,,,,トランステクノ,0
2819,9120101005183,登記記録の閉鎖等,0,2023-10-10,2023-10-04,中田電気株式会社,,株式会社,大阪府,堺市西区,鳳南町３丁１９７番地の６,,27,144,5938325,,,2023-10-04,清算の結了等,,,2015-10-05,1,,,,,ナカタデンキ,0
2820,9120101026543,登記記録の閉鎖等,0,2023-10-10,2023-10-05,株式会社宏晃建材店,,株式会社,大阪府,大阪狭山市,大野台５丁目１番２号,,27,231,5890023,,,2023-10-05,清算の結了等,,,2015-10-05,1,,,,,コウコウケンザイテン,0
2823,9120102024521,登記記録の閉鎖等,0,2023-10-10,2023-10-04,有限会社大賢,,有限会社,大阪府,泉佐野市,本町６番１０号,,27,213,5980057,,,2023-10-04,清算の結了等,,,2015-10-05,1,,,,,ダイケン,0
2826,9122001004983,登記記録の閉鎖等,0,2023-10-10,2023-10-04,チェスイン工業株式会社,,株式会社,大阪府,東大阪市,菱屋西３丁目８番１３号,,27,227,5770807,,,2023-10-04,清算の結了等,,,2015-10-05,1,,,,,チェスインコウギョウ,0
2848,9140002042497,登記記録の閉鎖等,0,2023-10-10,2023-10-03,有限会社豊栄工業,,有限会社,兵庫県,尼崎市,久々知３丁目２４番３５号,,28,202,6610977,,,2023-10-03,清算の結了等,,,2015-10-05,1,,,,,ホウエイコウギョウ,0
2857,9180001008157,登記記録の閉鎖等,0,2023-10-10,2023-10-03,株式会社共同企画設計,,株式会社,愛知県,名古屋市昭和区,丸屋町４丁目１９番地,,23,107,4660045,,,2023-10-03,清算の結了等,,,2015-10-05,1,,,,,キョウドウキカクセッケイ,0
2858,9180001069216,登記記録の閉鎖等,0,2023-10-10,2023-10-02,ＥＰＯヒューマンリソース株式会社,,株式会社,愛知県,名古屋市中区,金山１丁目１４番１８号Ａ－ＰＬＡＣＥ金山６階,,23,106,4600022,,,2023-10-02,合併による解散等,5180001059187,令和５年１０月１日名古屋市熱田区三番町４番２８号ＡＳＡＰ　ＳＥＣＵＲＩＴＹ株式会社（5180001059187）に合併し解散,2015-10-05,1,,,,,イーピーオーヒューマンリソース,0
2861,9180001086252,登記記録の閉鎖等,0,2023-10-10,2023-10-03,株式会社ライク,,株式会社,愛知県,稲沢市,稲沢町下田１００番地,,23,220,4928217,,,2023-10-03,清算の結了等,,,2015-10-05,1,,,,,ライク,0
2862,9180001102918,登記記録の閉鎖等,0,2023-10-10,2023-10-04,株式会社日之出運輸,,株式会社,愛知県,小牧市,大字横内４３０番地,,23,219,4850081,,,2023-10-04,合併による解散等,1030001083544,令和５年９月１日埼玉県川口市本蓮一丁目１４番１号株式会社日之出運輸（1030001083544）に合併し解散,2015-10-05,1,,,,,ヒノデウンユ,0
2863,9180001145818,登記記録の閉鎖等,0,2023-10-10,2023-10-02,株式会社トライアングル,,株式会社,愛知県,名古屋市中村区,名駅南２丁目１１番４３号,,23,105,4500003,,,2023-10-02,合併による解散等,8180001044582,令和５年９月３０日名古屋市中村区名駅南二丁目１１番４３号株式会社ノーサイド（8180001044582）に合併し解散,2021-04-26,1,,,,,トライアングル,0
2872,9180003001696,登記記録の閉鎖等,0,2023-10-10,2023-10-03,合名会社幸村商會,,合名会社,愛知県,名古屋市北区,上飯田東町３丁目７番地,,23,103,4620803,,,2023-10-03,清算の結了等,,,2015-10-05,1,,,,,コウムラショウカイ,0
2873,9180003019350,登記記録の閉鎖等,0,2023-10-10,2023-10-03,合同会社オフィスエイト,,合同会社,愛知県,春日井市,出川町４丁目９番地３,,23,206,4870025,,,2023-10-03,清算の結了等,,,2018-10-10,1,,,,,オフィスエイト,0
2878,9210001009928,登記記録の閉鎖等,0,2023-10-10,2023-10-02,株式会社美喜建設,,株式会社,福井県,大野市,中保第２４号１８番地１１,,18,205,9120014,,,2023-10-02,清算の結了等,,,2015-10-05,1,,,,,ミキケンセツ,0
2926,9340002012851,登記記録の閉鎖等,0,2023-10-10,2023-10-05,Ｙｕｕｅ有限会社,,有限会社,鹿児島県,鹿児島市,宇宿２丁目２０番１－８１２号,,46,201,8900073,,,2023-10-05,清算の結了等,,,2015-10-05,1,,,,,ユウエ,0
2931,9360003005530,登記記録の閉鎖等,0,2023-10-10,2023-09-27,合同会社濱造園土木,,合同会社,沖縄県,宜野湾市,真栄原２丁目２７番６号,,47,205,9012215,,,2023-09-27,清算の結了等,,,2015-10-05,1,,,,,ハマゾウエンドボク,0
2946,9430002014847,登記記録の閉鎖等,0,2023-10-10,2023-09-25,有限会社西方商店,,有限会社,北海道,札幌市南区,真駒内泉町２丁目２番２号,,01,106,0050015,,,2023-09-25,清算の結了等,,,2015-10-05,1,,,,,ニシカタショウテン,0
2952,9460301000355,登記記録の閉鎖等,0,2023-10-10,2023-10-02,株式会社公園システム管理,,株式会社,北海道,札幌市西区,琴似二条６丁目１番１０号,,01,107,0630812,,,2023-10-02,清算の結了等,,,2015-10-05,1,,,,,コウエンシステムカンリ,0
