sequenceNumber,corporateNumber,process,correct,updateDate,changeDate,name,nameImageId,kind,prefectureName,cityName,streetNumber,addressImageId,prefectureCode,cityCode,postCode,addressOutside,addressOutsideImageId,closeDate,closeCause,successorCorporateNumber,changeCause,assignmentDate,latest,enName,enPrefectureName,enCityName,enAddressOutside,furigana,hihyoji
27,1010702008883,登記記録の閉鎖等,0,2023-11-21,2023-11-15,有限会社ワコーテクニカ,,有限会社,東京都,品川区,小山５丁目１１番６号,,13,109,1420062,,,2023-11-15,清算の結了等,,,2015-10-05,1,,,,,ワコーテクニカ,0
33,1011001100951,登記記録の閉鎖等,0,2023-11-21,2023-11-20,夢や希望やなにか株式会社,,株式会社,東京都,港区,赤坂８丁目６－２８ロータース青山５０１,,13,103,1070052,,,2023-11-20,清算の結了等,,,2015-10-05,1,,,,,ユメヤキボウヤナニカ,0
37,1011001127276,登記記録の閉鎖等,0,2023-11-21,2023-11-16,株式会社フォースワン,,株式会社,東京都,渋谷区,恵比寿４丁目２０番３号恵比寿ガーデンプレイスタワー１８Ｆ,,13,113,1500013,,,2023-11-16,清算の結了等,,,2019-03-29,1,,,,,フォースワン,0
39,1011001142201,登記記録の閉鎖等,0,2023-11-21,2023-11-16,ＴＯＫＹＯ　ＡＣＥ　ＣＬＩＮＩＣ株式会社,,株式会社,東京都,渋谷区,宇田川町１９番５号山手マンション８０４号室,,13,113,1500042,,,2023-11-16,清算の結了等,,,2021-08-11,1,,,,,トウキョウエースクリニック,0
57,1011601016184,登記記録の閉鎖等,0,2023-11-21,2023-11-17,株式会社ＣＷマネジメント,,株式会社,東京都,練馬区,光が丘３丁目８番７－４０２号,,13,120,1790072,,,2023-11-17,清算の結了等,,,2015-10-05,1,,,,,シーダブリューマネジメント,0
70,1013301012034,登記記録の閉鎖等,0,2023-11-21,2023-11-15,明邦印刷株式会社,,株式会社,東京都,豊島区,池袋本町１丁目８番６号,,13,116,1700011,,,2023-11-15,清算の結了等,,,2015-10-05,1,,,,,メイホウインサツ,0
74,1020001012347,登記記録の閉鎖等,0,2023-11-21,2023-11-16,ワーク電子工業株式会社,,株式会社,神奈川県,横浜市青葉区,榎が丘５番地３第２井上ビル３０１号,,14,117,2270063,,,2023-11-16,清算の結了等,,,2015-10-05,1,,,,,ワークデンシコウギョウ,0
77,1020002035859,登記記録の閉鎖等,0,2023-11-21,2023-11-15,有限会社まきみつや,,有限会社,神奈川県,横浜市西区,みなとみらい４丁目１０番１－Ｅ２１０５号,,14,103,2200012,,,2023-11-15,清算の結了等,,,2015-10-05,1,,,,,マキミツヤ,0
83,1020005003375,登記記録の閉鎖等,0,2023-11-21,2023-11-06,ＪＡＭ神奈川ＫＡＴＯ　ＨＩＣＯＭユニオン,,その他の設立登記法人,群馬県,太田市,東新町８２３,,10,205,3730015,,,2023-11-06,清算の結了等,,,2015-10-05,1,,,,,ジャムカナガワカトウハイコムユニオン,0
84,1020005005727,登記記録の閉鎖等,0,2023-11-21,2023-11-14,特定非営利活動法人金沢かもめの会,,その他の設立登記法人,神奈川県,横浜市金沢区,能見台通５番１８号,,14,108,2360053,,,2023-11-14,清算の結了等,,,2015-10-05,1,,,,,カナザワカモメノカイ,0
98,1030003019397,登記記録の閉鎖等,0,2023-11-21,2023-11-13,合同会社ｆｅｅｌｆｒｅｅ,,合同会社,埼玉県,秩父市,下影森１１７９番地５,,11,207,3691871,,,2023-11-13,清算の結了等,,,2022-05-16,1,,,,,フィールフリー,0
105,1040002083113,登記記録の閉鎖等,0,2023-11-21,2023-11-13,有限会社鈴久商事,,有限会社,千葉県,匝瑳市,八日市場イの４３２番地１,,12,235,2892144,,,2023-11-13,清算の結了等,,,2015-10-05,1,,,,,スズキュウショウジ,0
111,1050002042547,登記記録の閉鎖等,0,2023-11-21,2023-11-14,有限会社谷貝電子,,有限会社,茨城県,筑西市,幸町１丁目１１番１２,,08,227,3080848,,,2023-11-14,清算の結了等,,,2015-10-05,1,,,,,ヤガイデンシ,0
133,1120001058479,登記記録の閉鎖等,0,2023-11-21,2023-11-10,松波商事株式会社,,株式会社,大阪府,大阪市淀川区,西中島３丁目２０番１８号,,27,123,5320011,,,2023-11-10,清算の結了等,,,2015-10-05,1,,,,,マツナミショウジ,0
153,1130002019248,登記記録の閉鎖等,0,2023-11-21,2023-11-16,有限会社まる秀,,有限会社,京都府,京都市南区,上鳥羽南唐戸町２７番地,,26,107,6018107,,,2023-11-16,清算の結了等,,,2015-10-05,1,,,,,マルヒデ,0
155,1140001127208,登記記録の閉鎖等,0,2023-11-21,2023-11-16,株式会社コアリンクス,,株式会社,兵庫県,神戸市長田区,大橋町４丁目４番１７号,,28,106,6530037,,,2023-11-16,清算の結了等,,,2022-08-31,1,,,,,コアリンクス,0
167,1180001073605,登記記録の閉鎖等,0,2023-11-21,2023-11-16,株式会社青山ガラス店,,株式会社,愛知県,春日井市,高蔵寺町１丁目３７番地,,23,206,4870013,,,2023-11-16,清算の結了等,,,2015-10-05,1,,,,,アオヤマガラステン,0
175,1180301003740,登記記録の閉鎖等,0,2023-11-21,2023-11-10,株式会社ＨＳコーポレーション,,株式会社,愛知県,岡崎市,材木町２丁目６４番地,,23,202,4440057,,,2023-11-10,清算の結了等,,,2015-10-05,1,,,,,エイチエスコーポレーション,0
176,1180301006207,登記記録の閉鎖等,0,2023-11-21,2023-11-09,第一實業株式会社,,株式会社,愛知県,豊橋市,牛川町字南台３９番地３１,,23,201,4400016,,,2023-11-09,清算の結了等,,,2015-10-05,1,,,,,ダイイチジツギョウ,0
181,1200002025940,登記記録の閉鎖等,0,2023-11-21,2023-11-16,有限会社ほんまち池本呉服店,,有限会社,岐阜県,高山市,本町３丁目５８番地,,21,203,5060011,,,2023-11-16,清算の結了等,,,2015-10-05,1,,,,,ホンマチイケモトゴフクテン,0
196,1290001079095,登記記録の閉鎖等,0,2023-11-21,2023-11-10,株式会社筑水,,株式会社,福岡県,久留米市,安武町安武本２９３３番地１,,40,203,8300072,,,2023-11-10,清算の結了等,,,2017-09-15,1,,,,,チクスイ,0
197,1290001093410,登記記録の閉鎖等,0,2023-11-21,2023-11-10,株式会社ＣＯＲＥ,,株式会社,福岡県,大川市,大字向島２６４５番地６,,40,212,8310005,,,2023-11-10,清算の結了等,,,2021-06-09,1,,,,,コア,0
200,1290005017935,登記記録の閉鎖等,0,2023-11-21,2023-11-10,一般社団法人ＫｙｏｄｏＷｏｒｋｓ,,その他の設立登記法人,福岡県,福岡市中央区,渡辺通１丁目９番２－６０４号,,40,133,8100004,,,2023-11-10,清算の結了等,,,2020-11-04,1,,,,,キョードーワークス,0
201,1290801023599,登記記録の閉鎖等,0,2023-11-21,2023-11-20,修栄工業株式会社,,株式会社,福岡県,北九州市小倉北区,足立１丁目９番４０号,,40,106,8020042,,,2023-11-20,清算の結了等,,,2017-05-08,1,,,,,シュウエイコウギョウ,0
203,1290801028292,登記記録の閉鎖等,0,2023-11-21,2023-11-21,株式会社Ｌｕｘｅ　Ｏｕｔｓ,,株式会社,福岡県,直方市,大字感田２０１７番地１,,40,204,8220001,,,2023-11-21,清算の結了等,,,2022-03-03,1,,,,,ラックスアウツ,0
220,1360001026354,登記記録の閉鎖等,0,2023-11-21,2023-11-16,株式会社高田ブロック,,株式会社,沖縄県,中頭郡中城村,字南上原５２５番地２、２０１号,,47,328,9012424,,,2023-11-16,清算の結了等,,,2019-10-23,1,,,,,タカダブロック,0
222,1370001009655,登記記録の閉鎖等,0,2023-11-21,2023-11-20,株式会社日交東北本社,,株式会社,宮城県,仙台市青葉区,五橋１丁目１番５８号ダイアパレス仙台中央,,04,101,9800022,,,2023-11-20,清算の結了等,,,2015-10-05,1,,,,,,0
229,1400002012811,登記記録の閉鎖等,0,2023-11-21,2023-11-10,有限会社久慈鮮魚店,,有限会社,岩手県,久慈市,宇部町第５地割９番地,,03,207,0288111,,,2023-11-10,清算の結了等,,,2015-10-05,1,,,,,クジセンギョテン,0
232,1430001075030,登記記録の閉鎖等,0,2023-11-21,2023-11-17,株式会社ＳＫトラスト,,株式会社,北海道,札幌市東区,伏古八条２丁目９番２０号,,01,103,0070868,,,2023-11-17,清算の結了等,,,2017-09-26,1,,,,,エスケートラスト,0
237,1430005006130,登記記録の閉鎖等,0,2023-11-21,2023-11-15,医療法人社団小出歯科医院,,その他の設立登記法人,北海道,千歳市,新富２丁目１番２８号,,01,224,0660037,,,2023-11-15,清算の結了等,,,2015-10-05,1,,,,,コイデシカイイン,0
242,1480001007243,登記記録の閉鎖等,0,2023-11-21,2023-11-20,株式会社ＢＳグリーン,,株式会社,徳島県,阿南市,富岡町中川原２番地１８,,36,204,7740030,,,2023-11-20,清算の結了等,,,2015-10-05,1,,,,,ビーエスグリーン,0
269,2010003030446,登記記録の閉鎖等,0,2023-11-21,2023-11-20,ＭＳＰ１ｓｔ合同会社,,合同会社,東京都,新宿区,西新宿１丁目２５番１号新宿センタービル３２階,,13,104,1600023,,,2023-11-20,清算の結了等,,,2019-08-21,1,,,,,エムエスピーファースト,0
282,2010403018124,登記記録の閉鎖等,0,2023-11-21,2023-11-16,合同会社カブキレジデンシャル１号,,合同会社,東京都,港区,元赤坂１丁目１番７号,,13,103,1070051,,,2023-11-16,清算の結了等,,,2018-02-22,1,,,,,カブキレジデンシャルイチゴウ,0
284,2010405016101,登記記録の閉鎖等,0,2023-11-21,2023-11-16,一般社団法人ＢＫＣ,,その他の設立登記法人,東京都,港区,芝３丁目３番１２号松下ビル２階,,13,103,1050014,,,2023-11-16,清算の結了等,,,2017-09-26,1,,,,,ビーケーシー,0
285,2010405016472,登記記録の閉鎖等,0,2023-11-21,2023-11-17,一般社団法人カブキレジデンシャル１号,,その他の設立登記法人,東京都,港区,元赤坂１丁目１番７号,,13,103,1070051,,,2023-11-17,清算の結了等,,,2018-02-22,1,,,,,カブキレジデンシャルイチゴウ,0
288,2010601039665,登記記録の閉鎖等,0,2023-11-21,2023-11-16,株式会社フラットヒルズ,,株式会社,東京都,江東区,門前仲町２丁目２番１３号,,13,108,1350048,,,2023-11-16,清算の結了等,,,2015-10-05,1,,,,,フラットヒルズ,0
295,2010802014541,登記記録の閉鎖等,0,2023-11-21,2023-11-14,有限会社モードサロンロマン,,有限会社,東京都,大田区,田園調布２丁目４８番１６号,,13,111,1450071,,,2023-11-14,清算の結了等,,,2015-10-05,1,,,,,モードサロンロマン,0
301,2011101078526,登記記録の閉鎖等,0,2023-11-21,2023-11-17,アンドロメダ株式会社,,株式会社,東京都,渋谷区,猿楽町１４番１４号２０２号室,,13,113,1500033,,,2023-11-17,清算の結了等,,,2016-10-21,1,,,,,アンドロメダ,0
304,2011102009505,登記記録の閉鎖等,0,2023-11-21,2023-11-16,有限会社ナツ,,有限会社,東京都,新宿区,若松町２８－３ハイマート若松５０１,,13,104,1620056,,,2023-11-16,清算の結了等,,,2015-10-05,1,,,,,ナツ,0
311,2011501008495,登記記録の閉鎖等,0,2023-11-21,2023-11-16,株式会社富士屋,,株式会社,東京都,荒川区,荒川４丁目２４番９号,,13,118,1160002,,,2023-11-16,清算の結了等,,,2015-10-05,1,,,,,フジヤ,0
315,2011603003551,登記記録の閉鎖等,0,2023-11-21,2023-11-17,山河合同会社,,合同会社,東京都,練馬区,高野台２丁目２７番１２号,,13,120,1770033,,,2023-11-17,清算の結了等,,,2022-03-17,1,,,,,サンガ,0
322,2012401023097,登記記録の閉鎖等,0,2023-11-21,2023-11-16,リージョナルダイニング株式会社,,株式会社,東京都,武蔵野市,中町１丁目２４番１５号,,13,203,1800006,,,2023-11-16,清算の結了等,,,2015-10-05,1,,,,,,0
332,2013201004139,登記記録の閉鎖等,0,2023-11-21,2023-11-16,東横電設株式会社,,株式会社,東京都,目黒区,中根２丁目８番１号,,13,110,1520031,,,2023-11-16,清算の結了等,,,2015-10-05,1,,,,,トウヨコデンセツ,0
334,2013402006479,登記記録の閉鎖等,0,2023-11-21,2023-11-14,齋藤総合経営事務所有限会社,,有限会社,東京都,日野市,万願寺６丁目３４番地の１３,,13,212,1910024,,,2023-11-14,清算の結了等,,,2015-10-05,1,,,,,サイトウソウゴウケイエイジムショ,0
337,2020001078239,登記記録の閉鎖等,0,2023-11-21,2023-11-16,株式会社オディカル,,株式会社,神奈川県,川崎市宮前区,東有馬３丁目３番１号,,14,136,2160002,,,2023-11-16,清算の結了等,,,2015-10-05,1,,,,,オディカル,0
344,2020002059031,登記記録の閉鎖等,0,2023-11-21,2023-11-15,有限会社よろこびケアプラン,,有限会社,神奈川県,横浜市中区,本牧三之谷４番９号,,14,104,2310824,,,2023-11-15,清算の結了等,,,2015-10-05,1,,,,,ヨロコビケアプラン,0
347,2020003024100,登記記録の閉鎖等,0,2023-11-21,2023-11-09,合同会社ＨＴＣ,,合同会社,神奈川県,川崎市高津区,久末３８６番地１ユーカリハイツ久末９０５,,14,134,2130026,,,2023-11-09,清算の結了等,,,2023-06-21,1,,,,,エイチティーシー,0
356,2030001128406,登記記録の閉鎖等,0,2023-11-21,2023-11-13,株式会社武一工務店,,株式会社,埼玉県,上尾市,大字大谷本郷２９３番地１４,,11,219,3620044,,,2023-11-13,清算の結了等,,,2018-11-27,1,,,,,タケイチコウムテン,0
372,2040001057208,登記記録の閉鎖等,0,2023-11-21,2023-11-08,株式会社市東畜産食品,,株式会社,千葉県,東金市,東金２４０番地,,12,213,2830802,,,2023-11-08,清算の結了等,,,2015-10-05,1,,,,,シトウチクサンショクヒン,0
376,2040005017232,登記記録の閉鎖等,0,2023-11-21,2023-11-10,特定非営利活動法人天羽田市民農園,,その他の設立登記法人,千葉県,市原市,天羽田１１７０番地,,12,219,2990126,,,2023-11-10,清算の結了等,,,2015-10-05,1,,,,,アモウダシミンノウエン,0
377,2050001000959,登記記録の閉鎖等,0,2023-11-21,2023-11-14,株式会社コーワコーポレーション,,株式会社,茨城県,水戸市,新荘１丁目４番１２号ライオンズマンション水戸新荘１０１号,,08,201,3100036,,,2023-11-14,清算の結了等,,,2015-10-05,1,,,,,コーワコーポレーション,0
378,2050001008416,登記記録の閉鎖等,0,2023-11-21,2023-11-14,株式会社ネクサス・アールホームイースト,,株式会社,茨城県,水戸市,千波町１９４５番地４,,08,201,3100851,,,2023-11-14,清算の結了等,,,2015-10-05,1,,,,,ネクサスアールホームイースト,0
414,2120101054699,登記記録の閉鎖等,0,2023-11-21,2023-11-20,株式会社Ｎｏ　Ｌｉｍｉｔ,,株式会社,大阪府,泉南郡田尻町,吉見６８８番地３,,27,362,5980092,,,2023-11-20,清算の結了等,,,2016-04-27,1,,,,,ノーリミット,0
447,2180001131048,登記記録の閉鎖等,0,2023-11-21,2023-11-16,株式会社岡三,,株式会社,愛知県,名古屋市千種区,新西２丁目１番４号,,23,101,4640003,,,2023-11-16,清算の結了等,,,2018-02-05,1,,,,,オカサン,0
458,2190002012741,登記記録の閉鎖等,0,2023-11-21,2023-11-16,有限会社伊賀青山ファーム,,有限会社,三重県,伊賀市,老川６６８番地の２５,,24,216,5180219,,,2023-11-16,清算の結了等,,,2015-10-05,1,,,,,イガアオヤマファーム,0
478,2290002005660,登記記録の閉鎖等,0,2023-11-21,2023-11-10,有限会社花幸,,有限会社,福岡県,福岡市東区,松田１丁目３番２０号,,40,131,8120064,,,2023-11-10,清算の結了等,,,2015-10-05,1,,,,,ハナコウ,0
500,2380001030106,登記記録の閉鎖等,0,2023-11-21,2023-11-16,株式会社デリカアシスト,,株式会社,福島県,郡山市,富久山町八山田字前林６番地の４８,,07,203,9638051,,,2023-11-16,清算の結了等,,,2019-06-11,1,,,,,デリカアシスト,0
505,2420001005623,登記記録の閉鎖等,0,2023-11-21,2023-11-15,株式会社エコーシステム・ブレーンズ,,株式会社,青森県,八戸市,石堂１丁目１１番３号,,02,203,0391165,,,2023-11-15,清算の結了等,,,2015-10-05,1,,,,,エコーシステムブレーンズ,0
506,2420002020068,登記記録の閉鎖等,0,2023-11-21,2023-11-15,有限会社シラトリ不動産,,有限会社,青森県,むつ市,横迎町２丁目１４番３６号,,02,208,0350033,,,2023-11-15,清算の結了等,,,2015-10-05,1,,,,,シラトリフドウサン,0
520,2470002018578,登記記録の閉鎖等,0,2023-11-21,2023-11-17,有限会社ひいらぎ,,有限会社,香川県,東かがわ市,水主５番地,,37,207,7692606,,,2023-11-17,清算の結了等,,,2015-10-05,1,,,,,,0
536,3010001149378,登記記録の閉鎖等,0,2023-11-21,2023-11-15,山佐２００３ＨＫ２リース株式会社,,株式会社,東京都,千代田区,丸の内３丁目１番１号東京共同会計事務所内,,13,101,1000005,,,2023-11-15,清算の結了等,,,2015-10-05,1,,,,,ヤマサニセンサンエイチケイニリース,0
550,3010101008921,登記記録の閉鎖等,0,2023-11-21,2023-11-16,飯田設備工業株式会社,,株式会社,東京都,八王子市,千人町２丁目１３番８号モナーク西八王子３０５号,,13,201,1930835,,,2023-11-16,清算の結了等,,,2015-10-05,1,,,,,イイダセツビコウギョウ,0
557,3010501041753,登記記録の閉鎖等,0,2023-11-21,2023-11-16,Ｇｏｌｄｅｎ　Ｌｅｇｅｎｄ　Ｊａｐａｎ株式会社,,株式会社,東京都,荒川区,西日暮里２丁目５３番５号興和ビル５Ｆ,,13,118,1160013,,,2023-11-16,清算の結了等,,,2017-11-01,1,,,,,ゴールデンレジェンドジャパン,0
566,3010901036618,登記記録の閉鎖等,0,2023-11-21,2023-11-15,株式会社ファンネル,,株式会社,東京都,港区,新橋５丁目７番８号永井ビル２Ｆ,,13,103,1050004,,,2023-11-15,清算の結了等,,,2015-10-05,1,,,,,,0
580,3011003010453,登記記録の閉鎖等,0,2023-11-21,2023-11-17,ＩＭアセット合同会社,,合同会社,東京都,渋谷区,恵比寿２丁目７番４号,,13,113,1500013,,,2023-11-17,合併による解散等,5180303003999,令和５年１１月１０日愛知県岡崎市下青野町字祐知６６番地４合同会社リエステイト（5180303003999）に合併し解散,2019-10-29,1,,,,,アイエムアセット,0
597,3011502010755,登記記録の閉鎖等,0,2023-11-21,2023-11-15,藤沼運送有限会社,,有限会社,東京都,荒川区,町屋７丁目１５番６号,,13,118,1160001,,,2023-11-15,清算の結了等,,,2015-10-05,1,,,,,フジヌマウンソウ,0
599,3011601001795,登記記録の閉鎖等,0,2023-11-21,2023-11-16,共同ハウス工業株式会社,,株式会社,東京都,練馬区,高松１丁目１８番１号,,13,120,1790075,,,2023-11-16,清算の結了等,,,2015-10-05,1,,,,,キョウドウハウスコウギョウ,0
604,3012303001555,登記記録の閉鎖等,0,2023-11-21,2023-11-20,アクリオ合同会社,,合同会社,東京都,町田市,玉川学園７丁目５番６－５０３号,,13,209,1940041,,,2023-11-20,清算の結了等,,,2021-06-18,1,,,,,アクリオ,0
612,3013301044133,登記記録の閉鎖等,0,2023-11-21,2023-11-14,株式会社Ｆｒｅｅｄｅｎ,,株式会社,東京都,豊島区,池袋２丁目９番１号,,13,116,1710014,,,2023-11-14,清算の結了等,,,2019-07-03,1,,,,,フリーデン,0
614,3020001070013,登記記録の閉鎖等,0,2023-11-21,2023-11-15,株式会社平間理化研究所,,株式会社,神奈川県,川崎市宮前区,南野川１丁目３２番１号,,14,136,2160042,,,2023-11-15,清算の結了等,,,2015-10-05,1,,,,,ヒラマリカケンキュウジョ,0
625,3021001052067,登記記録の閉鎖等,0,2023-11-21,2023-11-16,株式会社ミズノ企画,,株式会社,神奈川県,小田原市,栢山３４８７番地,,14,206,2500852,,,2023-11-16,清算の結了等,,,2015-10-05,1,,,,,,0
629,3021002056728,登記記録の閉鎖等,0,2023-11-21,2023-11-17,有限会社浅沼自動車工業,,有限会社,神奈川県,平塚市,万田１丁目５番２２号,,14,203,2540913,,,2023-11-17,清算の結了等,,,2015-10-05,1,,,,,アサヌマジドウシャコウギョウ,0
630,3030001023647,登記記録の閉鎖等,0,2023-11-21,2023-11-13,池興ハウジング株式会社,,株式会社,埼玉県,所沢市,大字山口２６３番地の６,,11,208,3591145,,,2023-11-13,清算の結了等,,,2015-10-05,1,,,,,,0
638,3030002050616,登記記録の閉鎖等,0,2023-11-21,2023-11-13,有限会社グッズハウス,,有限会社,埼玉県,草加市,八幡町７５５番地６,,11,221,3400006,,,2023-11-13,清算の結了等,,,2015-10-05,1,,,,,グッズハウス,0
652,3070002030507,登記記録の閉鎖等,0,2023-11-21,2023-11-14,有限会社長谷川不動産,,有限会社,群馬県,太田市,由良町８６９番地,,10,205,3730036,,,2023-11-14,清算の結了等,,,2015-10-05,1,,,,,ハセガワフドウサン,0
657,3080402007319,登記記録の閉鎖等,0,2023-11-21,2023-11-16,有限会社ホダカ,,有限会社,静岡県,浜松市東区,豊西町３５５番地の２,,22,132,4313102,,,2023-11-16,清算の結了等,,,2015-10-05,1,,,,,ホダカ,0
671,3120001224392,登記記録の閉鎖等,0,2023-11-21,2023-11-20,株式会社プロタフ,,株式会社,大阪府,東大阪市,徳庵本町３番８号,,27,227,5770001,,,2023-11-20,清算の結了等,,,2019-10-09,1,,,,,プロタフ,0
679,3120005016761,登記記録の閉鎖等,0,2023-11-21,2023-11-20,一般社団法人ダントーＯＢ会,,その他の設立登記法人,大阪府,大阪市北区,梅田３丁目３番１０号,,27,127,5300001,,,2023-11-20,清算の結了等,,,2015-10-05,1,,,,,ダントーオービーカイ,0
682,3120101050177,登記記録の閉鎖等,0,2023-11-21,2023-11-20,株式会社ケイ・エス・アイトランスポート,,株式会社,大阪府,和泉市,いぶき野３丁目９番１号,,27,219,5940041,,,2023-11-20,清算の結了等,,,2015-10-05,1,,,,,,0
691,3130002020484,登記記録の閉鎖等,0,2023-11-21,2023-11-14,有限会社ラクトー,,有限会社,京都府,京都市山科区,東野狐薮町１６番地の９,,26,110,6070000,,,2023-11-14,清算の結了等,,,2015-10-05,1,,,,,ラクトー,0
704,3180001114282,登記記録の閉鎖等,0,2023-11-21,2023-11-15,株式会社ＶＥＧＡＳＴＡＲ,,株式会社,愛知県,名古屋市中区,大井町８番８号,,23,106,4600015,,,2023-11-15,清算の結了等,,,2015-10-05,1,,,,,ベガスター,0
707,3180002037722,登記記録の閉鎖等,0,2023-11-21,2023-11-16,有限会社トミヤ電気商会,,有限会社,愛知県,名古屋市西区,大野木２丁目１３０番地,,23,104,4520803,,,2023-11-16,清算の結了等,,,2015-10-05,1,,,,,トミヤデンキショウカイ,0
708,3180003017145,登記記録の閉鎖等,0,2023-11-21,2023-11-17,阿佐ヶ谷不動産管理合同会社,,合同会社,愛知県,名古屋市中区,大須１丁目７番１４号パークＩＭビル２Ｆ,,23,106,4600011,,,2023-11-17,合併による解散等,5180303003999,令和５年１１月１０日愛知県岡崎市下青野町字祐知６６番地４合同会社リエステイト（5180303003999）に合併し解散,2016-06-06,1,,,,,アサガヤフドウサンカンリ,0
711,3180303004966,登記記録の閉鎖等,0,2023-11-21,2023-11-14,合同会社Ｔｏｐ　Ｇｕｎ,,合同会社,愛知県,西尾市,鳥羽町赤岩３４番地,,23,213,4440704,,,2023-11-14,清算の結了等,,,2021-04-26,1,,,,,トップガン,0
714,3200002003655,登記記録の閉鎖等,0,2023-11-21,2023-11-20,有限会社白山商会,,有限会社,岐阜県,岐阜市,月丘町１丁目２９番地,,21,201,5008141,,,2023-11-20,清算の結了等,,,2015-10-05,1,,,,,ハクサンショウカイ,0
721,3230005006933,登記記録の閉鎖等,0,2023-11-21,2023-11-20,大心寺,,その他の設立登記法人,富山県,氷見市,坪池９８０番地,,16,205,9350276,,,2023-11-20,清算の結了等,,,2015-10-05,1,,,,,ダイシンジ,0
735,3290002002541,登記記録の閉鎖等,0,2023-11-21,2023-11-13,有限会社セイワ建装,,有限会社,福岡県,福岡市南区,屋形原１丁目１６番２０号,,40,134,8111351,,,2023-11-13,清算の結了等,,,2015-10-05,1,,,,,セイワケンソウ,0
741,3310002009303,登記記録の閉鎖等,0,2023-11-21,2023-11-17,有限会社エーエムビーマネジメント,,有限会社,長崎県,佐世保市,下京町８番４号,,42,202,8570875,,,2023-11-17,清算の結了等,,,2015-10-05,1,,,,,エーエムビーマネジメント,0
756,3380002023000,登記記録の閉鎖等,0,2023-11-21,2023-11-17,有限会社加藤電気設備,,有限会社,福島県,いわき市,平字愛谷町二丁目６番地の５,,07,204,9708026,,,2023-11-17,清算の結了等,,,2015-10-05,1,,,,,カトウデンキセツビ,0
757,3380002032001,登記記録の閉鎖等,0,2023-11-21,2023-11-14,有限会社佐野電気工事,,有限会社,福島県,会津若松市,金川町９番１７号,,07,202,9650056,,,2023-11-14,清算の結了等,,,2015-10-05,1,,,,,サノデンキコウジ,0
759,3400002008741,登記記録の閉鎖等,0,2023-11-21,2023-11-08,有限会社東和インテリア,,有限会社,岩手県,花巻市,東和町東晴山７区２２番地,,03,205,0280113,,,2023-11-08,清算の結了等,,,2015-10-05,1,,,,,トウワインテリア,0
762,3430001054528,登記記録の閉鎖等,0,2023-11-21,2023-11-13,株式会社大賢,,株式会社,北海道,苫小牧市,浜町２丁目１番１１号,,01,213,0530014,,,2023-11-13,清算の結了等,,,2015-10-05,1,,,,,ダイケン,0
771,3460102001599,登記記録の閉鎖等,0,2023-11-21,2023-11-16,有限会社白山,,有限会社,北海道,帯広市,西二十二条南６丁目４番地４,,01,207,0802472,,,2023-11-16,清算の結了等,,,2015-10-05,1,,,,,シラヤマ,0
779,3490002010680,登記記録の閉鎖等,0,2023-11-21,2023-11-15,有限会社順洋丸,,有限会社,高知県,高岡郡中土佐町,久礼６３０２番地,,39,401,7891301,,,2023-11-15,清算の結了等,,,2015-10-05,1,,,,,ジュンヨウマル,0
790,4010001061929,登記記録の閉鎖等,0,2023-11-21,2023-11-15,株式会社日本カメラ社,,株式会社,東京都,中央区,日本橋人形町１丁目５番１５号,,13,102,1030013,,,2023-11-15,清算の結了等,,,2015-10-05,1,,,,,ニホンカメラシャ,0
791,4010001064072,登記記録の閉鎖等,0,2023-11-21,2023-11-14,株式会社工業経営センター,,株式会社,東京都,品川区,上大崎２丁目３番２５号,,13,109,1410021,,,2023-11-14,清算の結了等,,,2015-10-05,1,,,,,コウギョウケイエイセンター,0
795,4010001149377,登記記録の閉鎖等,0,2023-11-21,2023-11-15,山佐２００３ＨＫ１リース株式会社,,株式会社,東京都,千代田区,丸の内３丁目１番１号東京共同会計事務所内,,13,101,1000005,,,2023-11-15,清算の結了等,,,2015-10-05,1,,,,,ヤマサニセンサンエイチケイイチリース,0
804,4010003024066,登記記録の閉鎖等,0,2023-11-21,2023-11-20,ＡＴ合同会社,,合同会社,東京都,中央区,日本橋人形町３丁目７番１３号,,13,102,1030013,,,2023-11-20,清算の結了等,,,2016-09-09,1,,,,,エイティ,0
807,4010401112892,登記記録の閉鎖等,0,2023-11-21,2023-11-17,株式会社ＳＵＰＥＲＢＡＬＬ,,株式会社,東京都,渋谷区,千駄ヶ谷１丁目５番１号,,13,113,1510051,,,2023-11-17,清算の結了等,,,2015-10-05,1,,,,,スーパーボール,0
808,4010401132932,登記記録の閉鎖等,0,2023-11-21,2023-11-15,株式会社Ｍａｒｋ,,株式会社,東京都,港区,南青山２丁目２番１５号ウィン青山９４２,,13,103,1070062,,,2023-11-15,清算の結了等,,,2017-08-01,1,,,,,マーク,0
814,4010501033683,登記記録の閉鎖等,0,2023-11-21,2023-11-13,株式会社プロフィット,,株式会社,埼玉県,八潮市,大字南後谷６４２番１１号,,11,234,3400831,,,2023-11-13,清算の結了等,,,2015-10-05,1,,,,,プロフィット,0
833,4011002032679,登記記録の閉鎖等,0,2023-11-21,2023-11-13,有限会社１００楽,,有限会社,東京都,渋谷区,初台１丁目３７番４号,,13,113,1510061,,,2023-11-13,清算の結了等,,,2015-10-05,1,,,,,ヒャクラク,0
836,4011101018364,登記記録の閉鎖等,0,2023-11-21,2023-11-17,株式会社ファイブ,,株式会社,東京都,新宿区,住吉町１番４号山田ビル,,13,104,1620065,,,2023-11-17,清算の結了等,,,2015-10-05,1,,,,,ファイブ,0
849,4012401015695,登記記録の閉鎖等,0,2023-11-21,2023-11-16,株式会社Ａｎｇｅｌ　Ｊａｐａｎ,,株式会社,東京都,三鷹市,上連雀８丁目１０番２４号,,13,204,1810012,,,2023-11-16,清算の結了等,,,2015-10-05,1,,,,,,0
853,4013301016552,登記記録の閉鎖等,0,2023-11-21,2023-11-13,株式会社インターメディア,,株式会社,埼玉県,川口市,八幡木３丁目１５番６号,,11,203,3340012,,,2023-11-13,清算の結了等,,,2015-10-05,1,,,,,インターメディア,0
855,4013402007087,登記記録の閉鎖等,0,2023-11-21,2023-11-17,有限会社ベストライフ,,有限会社,東京都,多摩市,永山３丁目３番地１０－３０４,,13,224,2060025,,,2023-11-17,清算の結了等,,,2015-10-05,1,,,,,,0
868,4020002023943,登記記録の閉鎖等,0,2023-11-21,2023-11-15,有限会社システム電子,,有限会社,神奈川県,横浜市保土ケ谷区,狩場町３０３番地２１７,,14,106,2400025,,,2023-11-15,清算の結了等,,,2015-10-05,1,,,,,システムデンシ,0
884,4030001086882,登記記録の閉鎖等,0,2023-11-21,2023-11-10,株式会社佐藤ガス圧接工業,,株式会社,埼玉県,行田市,大字小針３００１番１,,11,206,3610024,,,2023-11-10,清算の結了等,,,2015-10-05,1,,,,,サトウガスアッセツコウギョウ,0
893,4030002097581,登記記録の閉鎖等,0,2023-11-21,2023-11-01,有限会社村田電気,,有限会社,埼玉県,比企郡小川町,大字高谷２４９６番地９,,11,343,3550311,,,2023-11-01,清算の結了等,,,2015-10-05,1,,,,,ムラタデンキ,0
909,4050001024295,登記記録の閉鎖等,0,2023-11-21,2023-11-14,株式会社松屋,,株式会社,茨城県,北茨城市,大津町２６２２番地,,08,215,3191702,,,2023-11-14,清算の結了等,,,2015-10-05,1,,,,,マツヤ,0
913,4070002028962,登記記録の閉鎖等,0,2023-11-21,2023-11-15,有限会社ワールドロジテム,,有限会社,群馬県,みどり市,笠懸町阿左美２７６１番地１,,10,212,3792311,,,2023-11-15,清算の結了等,,,2015-10-05,1,,,,,,0
930,4120001019271,登記記録の閉鎖等,0,2023-11-21,2023-11-13,株式会社ワイエムルーフ,,株式会社,大阪府,大阪市生野区,勝山北３丁目１０番１６号,,27,116,5440033,,,2023-11-13,清算の結了等,,,2015-10-05,1,,,,,ワイエムルーフ,0
932,4120001226933,登記記録の閉鎖等,0,2023-11-21,2023-11-17,株式会社１１万分の１,,株式会社,大阪府,大阪市北区,梅田１丁目１１番４－１９００号,,27,127,5300001,,,2023-11-17,清算の結了等,,,2020-02-04,1,,,,,ジュウイチマンブンノイチ,0
944,4130001017308,登記記録の閉鎖等,0,2023-11-21,2023-11-17,株式会社こはま,,株式会社,京都府,京都市下京区,小坂町１９番地の１,,26,106,6008821,,,2023-11-17,清算の結了等,,,2015-10-05,1,,,,,,0
965,4180001109439,登記記録の閉鎖等,0,2023-11-21,2023-11-17,株式会社ＨＫＳ,,株式会社,愛知県,名古屋市守山区,菱池町６番１２号,,23,113,4630045,,,2023-11-17,清算の結了等,,,2015-10-05,1,,,,,エイチケーエス,0
971,4180301034849,登記記録の閉鎖等,0,2023-11-21,2023-11-13,株式会社ＦＡＤ,,株式会社,愛知県,豊田市,前林町南６２番地,,23,211,4730934,,,2023-11-13,清算の結了等,,,2021-04-16,1,,,,,エフエーディー,0
974,4180302022225,登記記録の閉鎖等,0,2023-11-21,2023-11-14,有限会社紫苑,,有限会社,愛知県,豊田市,九久平町簗場２２番地１,,23,211,4442216,,,2023-11-14,清算の結了等,,,2015-10-05,1,,,,,シエン,0
1004,4290802001675,登記記録の閉鎖等,0,2023-11-21,2023-11-20,有限会社九州スペーサー,,有限会社,福岡県,北九州市小倉南区,下石田３丁目５番１５号,,40,107,8020832,,,2023-11-20,清算の結了等,,,2015-10-05,1,,,,,キュウシュウスペーサー,0
1021,4420001007782,登記記録の閉鎖等,0,2023-11-21,2023-11-15,株式会社山海楼,,株式会社,青森県,八戸市,大字鷹匠小路１７番地,,02,203,0310034,,,2023-11-15,清算の結了等,,,2015-10-05,1,,,,,サンカイロウ,0
1022,4420001014085,登記記録の閉鎖等,0,2023-11-21,2023-11-15,株式会社カワヒロ住設,,株式会社,青森県,三戸郡南部町,大字苫米地字明戸２０番地１１,,02,445,0390802,,,2023-11-15,清算の結了等,,,2015-10-05,1,,,,,カワヒロジュウセツ,0
1024,4430001012617,登記記録の閉鎖等,0,2023-11-21,2023-11-17,株式会社日刊スポーツプロモーション,,株式会社,北海道,札幌市中央区,北三条東３丁目１－３０,,01,101,0600033,,,2023-11-17,清算の結了等,,,2015-10-05,1,,,,,ニッカンスポーツプロモーション,0
1027,4430002023381,登記記録の閉鎖等,0,2023-11-21,2023-11-17,有限会社札幌ジュエル,,有限会社,北海道,札幌市東区,北三十三条東６丁目２番４８－１０２号,,01,103,0650033,,,2023-11-17,清算の結了等,,,2015-10-05,1,,,,,サッポロジュエル,0
1033,4480002009293,登記記録の閉鎖等,0,2023-11-21,2023-11-17,有限会社西岡興業,,有限会社,徳島県,吉野川市,山川町翁喜台２４６番地１,,36,205,7793401,,,2023-11-17,清算の結了等,,,2015-10-05,1,,,,,ニシオカコウギョウ,0
1034,4490001005334,登記記録の閉鎖等,0,2023-11-21,2023-11-17,株式会社ＡＣＴＳ,,株式会社,高知県,土佐清水市,越前町６番３９号,,39,209,7870331,,,2023-11-17,清算の結了等,,,2015-10-05,1,,,,,アクツ,0
1035,4500001016073,登記記録の閉鎖等,0,2023-11-21,2023-11-20,えいら株式会社,,株式会社,愛媛県,宇和島市,和霊町１２２７番地３,,38,203,7980012,,,2023-11-20,清算の結了等,,,2015-10-05,1,,,,,,0
1055,5010001143998,登記記録の閉鎖等,0,2023-11-21,2023-11-15,山佐ＢＡＷ１２リース株式会社,,株式会社,東京都,千代田区,丸の内３丁目１番１号東京共同会計事務所内,,13,101,1000005,,,2023-11-15,清算の結了等,,,2015-10-05,1,,,,,ヤマサビーエーダブリュージュウニリース,0
1056,5010001172023,登記記録の閉鎖等,0,2023-11-21,2023-11-14,株式会社はやぶさ開発,,株式会社,東京都,港区,東新橋１丁目５番２号汐留シティセンター８階リアルブルーソーラー合同会社内,,13,103,1050021,,,2023-11-14,合併による解散等,2120001212712,令和５年１１月６日東京都港区東新橋一丁目５番２号汐留シティセンター８階リアルブルーソーラー合同会社内株式会社あけぼの地所（2120001212712）に合併し解散,2015-12-01,1,,,,,ハヤブサカイハツ,0
1086,5010801016734,登記記録の閉鎖等,0,2023-11-21,2023-11-14,株式会社ＴＭエステイト,,株式会社,東京都,大田区,京浜島２丁目４番１５号,,13,111,1430003,,,2023-11-14,清算の結了等,,,2015-10-05,1,,,,,ティーエムエステイト,0
1092,5010902008878,登記記録の閉鎖等,0,2023-11-21,2023-11-14,有限会社大和果実店,,有限会社,東京都,世田谷区,南烏山５丁目１６番１８号,,13,112,1570062,,,2023-11-14,清算の結了等,,,2015-10-05,1,,,,,ヤマトカジツテン,0
1110,5011002029071,登記記録の閉鎖等,0,2023-11-21,2023-11-17,有限会社エイチ・エイチ企画,,有限会社,東京都,渋谷区,幡ヶ谷２丁目１５番１２号,,13,113,1510072,,,2023-11-17,清算の結了等,,,2015-10-05,1,,,,,エイチエイチキカク,0
1120,5011201024170,登記記録の閉鎖等,0,2023-11-21,2023-11-17,Ｗ餅二ｙ株式会社,,株式会社,東京都,中野区,江古田２丁目２１番３号ハイツベルナール,,13,114,1650022,,,2023-11-17,清算の結了等,,,2022-10-20,1,,,,,ダブルパイツーワイ,0
1128,5012301009986,登記記録の閉鎖等,0,2023-11-21,2023-11-17,株式会社ｎｅｘｔ　ｏｎｅ,,株式会社,東京都,新宿区,西新宿３丁目７番１号新宿パークタワーＮ３０階,,13,104,1600023,,,2023-11-17,清算の結了等,,,2015-10-05,1,,,,,,0
1167,5040002057674,登記記録の閉鎖等,0,2023-11-21,2023-11-13,有限会社なかむら,,有限会社,千葉県,白井市,木６８３番地,,12,232,2701437,,,2023-11-13,清算の結了等,,,2015-10-05,1,,,,,ナカムラ,0
1173,5050001012514,登記記録の閉鎖等,0,2023-11-21,2023-11-13,大栄サービス株式会社,,株式会社,茨城県,水戸市,栗崎町１５３５－１,,08,201,3111133,,,2023-11-13,清算の結了等,,,2015-10-05,1,,,,,ダイエーサービス,0
1175,5050001025433,登記記録の閉鎖等,0,2023-11-21,2023-11-14,小貫工業株式会社,,株式会社,茨城県,北相馬郡利根町,大字福木５２１番地,,08,564,3001621,,,2023-11-14,清算の結了等,,,2015-10-05,1,,,,,オヌキコウギョウ,0
1213,5120101037379,登記記録の閉鎖等,0,2023-11-21,2023-11-20,株式会社ノウチ設計,,株式会社,大阪府,岸和田市,八田町３１１番地の１,,27,202,5960841,,,2023-11-20,清算の結了等,,,2015-10-05,1,,,,,,0
1219,5130003006737,登記記録の閉鎖等,0,2023-11-21,2023-10-31,デルタニュートラル合同会社,,合同会社,京都府,京都市中京区,六角通油小路西入越後町１９４番地１３,,26,104,6048256,,,2023-10-31,清算の結了等,,,2020-09-09,1,,,,,デルタニュートラル,0
1226,5160001011868,登記記録の閉鎖等,0,2023-11-21,2023-11-20,木下製材株式会社,,株式会社,滋賀県,高島市,マキノ町沢１４２５番地１,,25,212,5201821,,,2023-11-20,清算の結了等,,,2015-10-05,1,,,,,キノシタセイザイ,0
1228,5180001055236,登記記録の閉鎖等,0,2023-11-21,2023-11-17,株式会社ヴェレアル,,株式会社,愛知県,清須市,西枇杷島町地領２丁目１０番地１２,,23,233,4520008,,,2023-11-17,清算の結了等,,,2015-10-05,1,,,,,ヴェレアル,0
1234,5180002043355,登記記録の閉鎖等,0,2023-11-21,2023-11-16,有限会社共栄精工,,有限会社,愛知県,名古屋市中川区,大当郎３丁目２５１４番地,,23,110,4540943,,,2023-11-16,清算の結了等,,,2015-10-05,1,,,,,キョウエイセイコウ,0
1238,5180301037660,登記記録の閉鎖等,0,2023-11-21,2023-11-10,株式会社ＲｉｔａＭｉｒａｃｌｅ,,株式会社,愛知県,豊橋市,東雲町８６番地１,,23,201,4400051,,,2023-11-10,清算の結了等,,,2023-08-08,1,,,,,リタミラクル,0
1242,5190002010148,登記記録の閉鎖等,0,2023-11-21,2023-11-17,有限会社三重板金工業,,有限会社,三重県,度会郡度会町,大野木１４３４番地２,,24,470,5162102,,,2023-11-17,清算の結了等,,,2015-10-05,1,,,,,ミエバンキンコウギョウ,0
1246,5210001017587,登記記録の閉鎖等,0,2023-11-21,2023-11-13,株式会社春江ＣＡＤＣＡＭＬａｂｏ,,株式会社,福井県,坂井市,春江町江留上新町３６番地１,,18,210,9190465,,,2023-11-13,清算の結了等,,,2019-06-12,1,,,,,ハルエキャドカムラボ,0
1263,5290002007605,登記記録の閉鎖等,0,2023-11-21,2023-11-13,有限会社伊藤忠工務店,,有限会社,福岡県,福岡市早良区,野芥２丁目１４番１８号,,40,137,8140171,,,2023-11-13,清算の結了等,,,2015-10-05,1,,,,,イトウチュウコウムテン,0
1278,5360001000025,登記記録の閉鎖等,0,2023-11-21,2023-11-16,株式会社アオバ沖縄,,株式会社,沖縄県,豊見城市,字我那覇２１７番地の２,,47,212,9010231,,,2023-11-16,清算の結了等,,,2015-10-05,1,,,,,,0
1327,6010001143997,登記記録の閉鎖等,0,2023-11-21,2023-11-15,山佐ＢＡＷ１１リース株式会社,,株式会社,東京都,千代田区,丸の内３丁目１番１号東京共同会計事務所内,,13,101,1000005,,,2023-11-15,清算の結了等,,,2015-10-05,1,,,,,ヤマサビーエーダブリュージュウイチリース,0
1390,6011102022495,登記記録の閉鎖等,0,2023-11-21,2023-11-17,有限会社リフォームサービス,,有限会社,東京都,新宿区,中落合２丁目７番１０号,,13,104,1610032,,,2023-11-17,清算の結了等,,,2015-10-05,1,,,,,,0
1401,6011801031078,登記記録の閉鎖等,0,2023-11-21,2023-11-20,株式会社ベスパ,,株式会社,愛媛県,宇和島市,弁天町３丁目４番１７号古田マンション５０３号,,38,203,7980006,,,2023-11-20,清算の結了等,,,2015-11-25,1,,,,,ベスパ,0
1406,6013202000736,登記記録の閉鎖等,0,2023-11-21,2023-11-15,有限会社伊藤商店,,有限会社,東京都,目黒区,下目黒６丁目１６番１２号,,13,110,1530064,,,2023-11-15,清算の結了等,,,2015-10-05,1,,,,,イトウショウテン,0
1407,6013202003953,登記記録の閉鎖等,0,2023-11-21,2023-11-15,有限会社たか乃羽,00053524,有限会社,東京都,目黒区,八雲５丁目１９番７号,,13,110,1520023,,,2023-11-15,清算の結了等,,,2015-10-05,1,,,,,タカノハ,0
1418,6021001045258,登記記録の閉鎖等,0,2023-11-21,2023-11-17,株式会社リエム,,株式会社,神奈川県,逗子市,小坪２丁目１番２９号,,14,208,2490008,,,2023-11-17,清算の結了等,,,2015-10-05,1,,,,,リエム,0
1421,6021002071261,登記記録の閉鎖等,0,2023-11-21,2023-11-16,有限会社浅井鮮魚店,,有限会社,神奈川県,三浦市,三崎町小網代１７３番地の１,,14,210,2380225,,,2023-11-16,清算の結了等,,,2015-10-05,1,,,,,,0
1441,6040001099064,登記記録の閉鎖等,0,2023-11-21,2023-11-13,株式会社のぶお,,株式会社,千葉県,千葉市中央区,本千葉町１０番２３号ＤＩＫマンション９１６号,,12,101,2600014,,,2023-11-13,清算の結了等,,,2017-03-02,1,,,,,ノブオ,0
1442,6040001121050,登記記録の閉鎖等,0,2023-11-21,2023-11-13,株式会社Ｃａｔｂｏｙ,,株式会社,千葉県,千葉市稲毛区,園生町１３４０番地１ザ・クイーンズガーデン稲毛２０５号,,12,103,2630051,,,2023-11-13,清算の結了等,,,2021-11-17,1,,,,,キャットボーイ,0
1444,6050001022818,登記記録の閉鎖等,0,2023-11-21,2023-11-10,株式会社木組工房,,株式会社,茨城県,行方市,羽生字笄崎１２９６番地５,,08,233,3113507,,,2023-11-10,清算の結了等,,,2015-10-05,1,,,,,キグミコウボウ,0
1446,6050002008312,登記記録の閉鎖等,0,2023-11-21,2023-11-16,有限会社共和工業,,有限会社,茨城県,ひたちなか市,大字三反田５１５０番地１,,08,221,3120021,,,2023-11-16,清算の結了等,,,2015-10-05,1,,,,,キョウワコウギョウ,0
1447,6050002021950,登記記録の閉鎖等,0,2023-11-21,2023-11-14,有限会社長谷川製作所,,有限会社,茨城県,つくば市,谷田部１４６２番地の１,,08,220,3050861,,,2023-11-14,清算の結了等,,,2015-10-05,1,,,,,ハセガワセイサクショ,0
1452,6070002034827,登記記録の閉鎖等,0,2023-11-21,2023-11-15,有限会社清水タイヤ商会,,有限会社,群馬県,沼田市,硯田町４０番地の４,,10,206,3780032,,,2023-11-15,清算の結了等,,,2015-10-05,1,,,,,シミズタイヤショウカイ,0
1466,6120001082813,登記記録の閉鎖等,0,2023-11-21,2023-11-20,船場鋼板株式会社,,株式会社,大阪府,大阪市中央区,（大阪市南区南船場二丁目６番３号）,,27,128,5390000,,,2023-11-20,清算の結了等,,,2015-10-05,1,,,,,センバコウハン,1
1477,6120002013445,登記記録の閉鎖等,0,2023-11-21,2023-11-10,有限会社西垣商事,,有限会社,大阪府,大阪市天王寺区,北河堀町５番１０号,,27,109,5430053,,,2023-11-10,清算の結了等,,,2015-10-05,1,,,,,,0
1480,6120102016439,登記記録の閉鎖等,0,2023-11-21,2023-11-20,有限会社若草荘,,有限会社,大阪府,堺市西区,上野芝町６丁１０番１５号,,27,144,5938301,,,2023-11-20,清算の結了等,,,2015-10-05,1,,,,,ワカクサソウ,0
1486,6130002001580,登記記録の閉鎖等,0,2023-11-21,2023-11-07,マルケイ自動車鈑金塗装工業有限会社,,有限会社,京都府,京都市右京区,西京極徳大寺団子田町２７番地の４,,26,108,6150846,,,2023-11-07,清算の結了等,,,2015-10-05,1,,,,,マルケイジドウシャバンキントソウコウギョウ,0
1488,6140001079361,登記記録の閉鎖等,0,2023-11-21,2023-11-16,三和商事株式会社,,株式会社,兵庫県,川西市,緑台１丁目５番地の３５,,28,217,6660129,,,2023-11-16,清算の結了等,,,2015-10-05,1,,,,,サンワショウジ,0
1494,6180001060648,登記記録の閉鎖等,0,2023-11-21,2023-11-17,株式会社１９コーポレーション,,株式会社,愛知県,名古屋市中区,新栄２丁目２７番１５号,,23,106,4600007,,,2023-11-17,清算の結了等,,,2015-10-05,1,,,,,ナインティーンコーポレーション,0
1506,6180301035028,登記記録の閉鎖等,0,2023-11-21,2023-11-10,株式会社ニュー・アース,,株式会社,愛知県,豊橋市,神野新田町字イノ割１２１番地の２,,23,201,4418077,,,2023-11-10,清算の結了等,,,2021-06-07,1,,,,,ニューアース,0
1507,6180302018147,登記記録の閉鎖等,0,2023-11-21,2023-11-10,刈谷管工有限会社,,有限会社,愛知県,刈谷市,一里山町東吹戸５２番地２,,23,210,4480002,,,2023-11-10,清算の結了等,,,2015-10-05,1,,,,,カリヤカンコウ,0
1509,6180302024319,登記記録の閉鎖等,0,2023-11-21,2023-11-14,有限会社三好鈑金,,有限会社,愛知県,みよし市,西一色町池ノ内５７番地,,23,236,4700226,,,2023-11-14,清算の結了等,,,2015-10-05,1,,,,,ミヨシバンキン,0
1520,6260002020527,登記記録の閉鎖等,0,2023-11-21,2023-11-16,株式会社原田保温工業所,,株式会社,岡山県,倉敷市,中島１７３０番地の６,,33,202,7100803,,,2023-11-16,清算の結了等,,,2015-10-05,1,,,,,ハラダホオンコウギョウショ,0
1526,6290002039275,登記記録の閉鎖等,0,2023-11-21,2023-11-13,有限会社ジープ美容室,,有限会社,福岡県,筑紫野市,針摺西１丁目４番２号,00093355,40,217,8180084,,,2023-11-13,清算の結了等,,,2015-10-05,1,,,,,ジープビヨウシツ,0
1527,6290003009582,登記記録の閉鎖等,0,2023-11-21,2023-11-08,シープラットジャパン合同会社,,合同会社,福岡県,久留米市,三潴町草場３５３番地３,,40,203,8300105,,,2023-11-08,清算の結了等,,,2019-12-10,1,,,,,シープラットジャパン,0
1545,6420005007323,登記記録の閉鎖等,0,2023-11-21,2023-11-14,一般社団法人政策集団地域再生青森会議,,その他の設立登記法人,青森県,青森市,古川１丁目１５番５号,,02,201,0300862,,,2023-11-14,清算の結了等,,,2015-10-05,1,,,,,セイサクシュウダンチイキサイセイアオモリカイギ,0
1552,6450002011259,登記記録の閉鎖等,0,2023-11-21,2023-11-20,有限会社稚内公運,,有限会社,北海道,稚内市,はまなす２丁目１２０１番地８,,01,214,0970011,,,2023-11-20,清算の結了等,,,2015-10-05,1,,,,,,0
1560,6500001013060,登記記録の閉鎖等,0,2023-11-21,2023-11-20,株式会社ＧＡＴＴＳ,,株式会社,愛媛県,今治市,北宝来町１丁目甲７２９番地８,,38,202,7940028,,,2023-11-20,清算の結了等,,,2015-10-05,1,,,,,ガッツ,0
1568,7010001091576,登記記録の閉鎖等,0,2023-11-21,2023-11-16,株式会社マイベンチマーク,,株式会社,東京都,千代田区,飯田橋１丁目１２番７号ＭＳビル４階,,13,101,1020072,,,2023-11-16,清算の結了等,,,2015-10-05,1,,,,,マイベンチマーク,0
1569,7010001173630,登記記録の閉鎖等,0,2023-11-21,2023-11-16,株式会社ジェイエムファイブ,,株式会社,東京都,中央区,日本橋１丁目４番１号,,13,102,1030027,,,2023-11-16,清算の結了等,,,2016-02-17,1,,,,,ジェイエムファイブ,0
1575,7010003026828,登記記録の閉鎖等,0,2023-11-21,2023-11-14,オスカーＵＳファンディング８合同会社,,合同会社,東京都,千代田区,丸の内３丁目１番１号東京共同会計事務所内,,13,101,1000005,,,2023-11-14,清算の結了等,,,2018-01-24,1,,,,,オスカーユーエスファンディングエイト,0
1580,7010101009486,登記記録の閉鎖等,0,2023-11-21,2023-11-17,株式会社フラッグメン,,株式会社,東京都,八王子市,泉町１９０７番地５７,,13,201,1930814,,,2023-11-17,清算の結了等,,,2015-10-05,1,,,,,フラッグメン,0
1586,7010403014837,登記記録の閉鎖等,0,2023-11-21,2023-11-16,株式会社Ｌａｕｎｃｈｐａｄ１３,,株式会社,東京都,港区,芝大門２丁目５番５号,,13,103,1050012,,,2023-11-16,合併による解散等,9011001023963,令和５年１１月１日東京都港区芝大門二丁目５番５号株式会社ユニケソフトウェアリサーチ（9011001023963）に合併し解散,2016-05-25,1,,,,,ランチパッドサーティーン,0
1600,7011001054424,登記記録の閉鎖等,0,2023-11-21,2023-11-17,株式会社ＬｉｖｅＡｒｔ,,株式会社,東京都,渋谷区,神宮前６丁目２５番８号,,13,113,1500001,,,2023-11-17,清算の結了等,,,2015-10-05,1,,,,,ライブアート,0
1603,7011001154653,登記記録の閉鎖等,0,2023-11-21,2023-11-14,株式会社Ｓｔａｇｅ６ｉｘ,,株式会社,東京都,渋谷区,神宮前６丁目２３番４号桑野ビル２階,,13,113,1500001,,,2023-11-14,清算の結了等,,,2023-05-26,1,,,,,ステージシックス,0
1614,7011101014286,登記記録の閉鎖等,0,2023-11-21,2023-11-17,株式会社トーマスインターナショナル,,株式会社,東京都,新宿区,南元町５番地３,,13,104,1600012,,,2023-11-17,清算の結了等,,,2015-10-05,1,,,,,トーマスインターナショナル,0
1615,7011101077481,登記記録の閉鎖等,0,2023-11-21,2023-11-15,株式会社オフィス・コウ,,株式会社,東京都,渋谷区,東３丁目２５番３号ライオンズプラザ恵比寿５１１号,,13,113,1500011,,,2023-11-15,清算の結了等,,,2016-07-05,1,,,,,オフィスコウ,0
1660,7021002012652,登記記録の閉鎖等,0,2023-11-21,2023-11-20,有限会社イー・エックス・イーコーポレーション,,有限会社,神奈川県,茅ヶ崎市,矢畑１３３６番地２,,14,207,2530085,,,2023-11-20,清算の結了等,,,2015-10-05,1,,,,,イーエックスイーコーポレーション,0
1661,7021002060148,登記記録の閉鎖等,0,2023-11-21,2023-11-17,有限会社よしなが,,有限会社,神奈川県,平塚市,宝町８番１８号,,14,203,2540034,,,2023-11-17,清算の結了等,,,2015-10-05,1,,,,,ヨシナガ,0
1666,7030001055488,登記記録の閉鎖等,0,2023-11-21,2023-11-13,株式会社富士忠運輸,,株式会社,埼玉県,川越市,小仙波町４丁目８番地１,,11,201,3500036,,,2023-11-13,清算の結了等,,,2015-10-05,1,,,,,フジチュウウンユ,0
1667,7030001062294,登記記録の閉鎖等,0,2023-11-21,2023-11-13,株式会社まるおか,,株式会社,埼玉県,鴻巣市,吹上本町４丁目１５番１５号,,11,217,3690115,,,2023-11-13,清算の結了等,,,2015-10-05,1,,,,,マルオカ,0
1672,7030002104426,登記記録の閉鎖等,0,2023-11-21,2023-11-10,株式会社大伸土木工業,,株式会社,埼玉県,川口市,大字伊刈８３９番地９,,11,203,3330865,,,2023-11-10,清算の結了等,,,2015-10-05,1,,,,,ダイシンドボクコウギョウ,0
1673,7030002114227,登記記録の閉鎖等,0,2023-11-21,2023-11-13,有限会社マニール,,有限会社,埼玉県,熊谷市,下奈良２１７番地２,,11,202,3600802,,,2023-11-13,清算の結了等,,,2015-10-05,1,,,,,マニール,0
1686,7040005022054,登記記録の閉鎖等,0,2023-11-21,2023-11-08,一般社団法人国際文化交流協会素食会,,その他の設立登記法人,千葉県,松戸市,新作１０５７－２,,12,207,2710052,,,2023-11-08,清算の結了等,,,2023-06-27,1,,,,,コクサイブンカコウリュウキョウカイソショクカイ,0
1694,7070002006239,登記記録の閉鎖等,0,2023-11-21,2023-11-15,有限会社塩田保険サービス,,有限会社,群馬県,前橋市,六供町１丁目９番地の７,,10,201,3710804,,,2023-11-15,清算の結了等,,,2015-10-05,1,,,,,シオダホケンサービス,0
1695,7070002017351,登記記録の閉鎖等,0,2023-11-21,2023-11-09,有限会社神田屋根工事,,有限会社,群馬県,藤岡市,藤岡２７２４番地１,,10,209,3750024,,,2023-11-09,合併による解散等,6070001012619,令和５年８月３１日群馬県藤岡市藤岡１４５７番地１藤岡窯業株式会社（6070001012619）に合併し解散,2015-10-05,1,,,,,カンダヤネコウジ,0
1700,7080401001252,登記記録の閉鎖等,0,2023-11-21,2023-11-16,株式会社カネキチ,,株式会社,静岡県,浜松市南区,青屋町５６４番地,,22,134,4350037,,,2023-11-16,清算の結了等,,,2015-10-05,1,,,,,カネキチ,0
1733,7120003011240,登記記録の閉鎖等,0,2023-11-21,2023-11-16,合同会社ｔａｃｔ,,合同会社,大阪府,大阪市中央区,大手通３丁目３－３－５０２,,27,128,5400021,,,2023-11-16,清算の結了等,,,2015-12-28,1,,,,,,0
1738,7120901036735,登記記録の閉鎖等,0,2023-11-21,2023-11-16,株式会社スタート,,株式会社,大阪府,吹田市,千里丘上１７番７号,,27,205,5650811,,,2023-11-16,清算の結了等,,,2016-04-04,1,,,,,スタート,0
1740,7130001013097,登記記録の閉鎖等,0,2023-11-21,2023-11-15,中島設備工業株式会社,,株式会社,京都府,京都市山科区,川田御出町３番地２,,26,110,6078326,,,2023-11-15,清算の結了等,,,2015-10-05,1,,,,,ナカジマセツビコウギョウ,0
1749,7140002013038,登記記録の閉鎖等,0,2023-11-21,2023-11-16,有限会社ライン,,有限会社,大阪府,大阪市淀川区,宮原１丁目１９番２３号,,27,123,5320003,,,2023-11-16,清算の結了等,,,2015-10-05,1,,,,,ライン,0
1750,7140002069971,登記記録の閉鎖等,0,2023-11-21,2023-11-16,有限会社由井セット工場,,有限会社,兵庫県,南あわじ市,福良乙１０４２番地の３,,28,224,6560502,,,2023-11-16,清算の結了等,,,2015-10-05,1,,,,,ユイセットコウジョウ,0
1766,7180002040978,登記記録の閉鎖等,0,2023-11-21,2023-11-17,シライ工業有限会社,,有限会社,愛知県,北名古屋市,徳重長池１７番地,,23,234,4810038,,,2023-11-17,清算の結了等,,,2015-10-05,1,,,,,シライコウギョウ,0
1769,7180003017240,登記記録の閉鎖等,0,2023-11-21,2023-11-17,合同会社アイアールパートナー,,合同会社,愛知県,名古屋市中区,大須１丁目７番１４号,,23,106,4600011,,,2023-11-17,合併による解散等,5180303003999,令和５年１１月１０日愛知県岡崎市下青野町字祐知６６番地４合同会社リエステイト（5180303003999）に合併し解散,2016-07-20,1,,,,,アイアールパートナー,0
1781,7220002016395,登記記録の閉鎖等,0,2023-11-21,2023-11-16,宮本レース有限会社,,有限会社,石川県,河北郡内灘町,字西荒屋ハ７７番地４２,,17,365,9200262,,,2023-11-16,清算の結了等,,,2023-10-13,1,,,,,ミヤモトレース,0
1795,7290002017825,登記記録の閉鎖等,0,2023-11-21,2023-11-10,有限会社ミリオンサーフィストリート,,有限会社,福岡県,那珂川市,大字別所４５３番地の３０,,40,231,8111245,,,2023-11-10,清算の結了等,,,2015-10-05,1,,,,,ミリオンサーフィストリート,0
1813,7340002018413,登記記録の閉鎖等,0,2023-11-21,2023-11-02,有限会社ミッキー,,有限会社,鹿児島県,薩摩郡さつま町,宮之城屋地９７９番地２,,46,392,8951803,,,2023-11-02,清算の結了等,,,2015-10-05,1,,,,,,0
1830,7430001028180,登記記録の閉鎖等,0,2023-11-21,2023-11-14,株式会社サン技研,,株式会社,北海道,札幌市北区,新琴似三条６丁目２番１９号,,01,102,0010903,,,2023-11-14,清算の結了等,,,2015-10-05,1,,,,,,0
1855,8010001023421,登記記録の閉鎖等,0,2023-11-21,2023-11-15,ディー・ジェー・ケー興産株式会社,,株式会社,東京都,千代田区,神田駿河台４丁目６番地,,13,101,1010062,,,2023-11-15,清算の結了等,,,2015-10-05,1,,,,,ディージェーケーコウサン,0
1856,8010001101268,登記記録の閉鎖等,0,2023-11-21,2023-11-14,株式会社イケダペットファーム,,株式会社,東京都,千代田区,紀尾井町３番１２号,,13,101,1020094,,,2023-11-14,合併による解散等,5260001001660,令和５年１１月１日岡山市中区神下５６５番地オハヨー乳業株式会社（5260001001660）に合併し解散,2015-10-05,1,,,,,イケダペットファーム,0
1876,8010005030629,登記記録の閉鎖等,0,2023-11-21,2023-11-20,一般社団法人Ｔｒｉ　Ｆｌｏｒｉ,,その他の設立登記法人,東京都,新宿区,西新宿１丁目２５番１号新宿センタービル３２階,,13,104,1600023,,,2023-11-20,清算の結了等,,,2019-08-19,1,,,,,トリフローリ,0
1895,8010405011880,登記記録の閉鎖等,0,2023-11-21,2023-11-16,一般社団法人ビューティサービススーパーバイザーアカデミー,,その他の設立登記法人,東京都,港区,芝３丁目３番１２号松下ビル２階,,13,103,1050014,,,2023-11-16,清算の結了等,,,2015-10-05,1,,,,,ビューティサービススーパーバイザーアカデミー,0
1917,8011001155477,登記記録の閉鎖等,0,2023-11-21,2023-11-08,株式会社ＭＵＳＥ,,株式会社,東京都,渋谷区,渋谷２丁目１９－１５宮益坂ビルディング６０９,,13,113,1500002,,,2023-11-08,清算の結了等,,,2023-07-07,1,,,,,ミューズ,0
1954,8013202007184,登記記録の閉鎖等,0,2023-11-21,2023-11-15,有限会社大和屋企画,,有限会社,東京都,目黒区,自由が丘１丁目２６番８号キクモトビル３０６,,13,110,1520035,,,2023-11-15,清算の結了等,,,2015-10-05,1,,,,,ヤマトヤキカク,0
1968,8020001082920,登記記録の閉鎖等,0,2023-11-21,2023-11-16,アース基工株式会社,,株式会社,神奈川県,川崎市高津区,新作５丁目４番２６号,,14,134,2130014,,,2023-11-16,清算の結了等,,,2015-10-05,1,,,,,アースキコウ,0
1972,8020001124128,登記記録の閉鎖等,0,2023-11-21,2023-11-15,関内土地開発株式会社,,株式会社,神奈川県,横浜市中区,南仲通３丁目２６番地,,14,104,2310006,,,2023-11-15,清算の結了等,,,2017-12-08,1,,,,,カンナイトチカイハツ,0
1987,8021002012049,登記記録の閉鎖等,0,2023-11-21,2023-11-16,有限会社ホームガーデン弘和,,有限会社,神奈川県,茅ヶ崎市,東海岸北５丁目９番１４号,,14,207,2530053,,,2023-11-16,清算の結了等,,,2015-10-05,1,,,,,,0
1990,8030001063655,登記記録の閉鎖等,0,2023-11-21,2023-11-13,株式会社エスディーシー,,株式会社,埼玉県,越谷市,川柳町２丁目１１７番地５,,11,222,3430827,,,2023-11-13,清算の結了等,,,2015-10-05,1,,,,,エスディーシー,0
1994,8030001144934,登記記録の閉鎖等,0,2023-11-21,2023-11-10,株式会社イコール,,株式会社,埼玉県,蓮田市,蓮田２丁目２５１番地２,,11,238,3490115,,,2023-11-10,清算の結了等,,,2021-10-26,1,,,,,イコール,0
2020,8060002006602,登記記録の閉鎖等,0,2023-11-21,2023-11-20,有限会社トップボーイ,,有限会社,栃木県,宇都宮市,岩曽町１３９３番地,,09,201,3210973,,,2023-11-20,清算の結了等,,,2015-10-05,1,,,,,トップボーイ,0
2024,8080101023629,登記記録の閉鎖等,0,2023-11-21,2023-11-15,株式会社ウル,,株式会社,静岡県,富士市,中央町２丁目２番５号,,22,210,4170052,,,2023-11-15,清算の結了等,,,2022-11-09,1,,,,,ウル,0
2052,8120001064438,登記記録の閉鎖等,0,2023-11-21,2023-11-15,株式会社サンワ商店,,株式会社,大阪府,大阪市北区,堂山町１５番４－８１５号,,27,127,5300027,,,2023-11-15,清算の結了等,,,2015-10-05,1,,,,,サンワショウテン,0
2083,8130001015290,登記記録の閉鎖等,0,2023-11-21,2023-11-15,株式会社西尾食品,,株式会社,京都府,京都市伏見区,桃山町丹下２５番地の５０,,26,109,6120053,,,2023-11-15,清算の結了等,,,2015-10-05,1,,,,,ニシオショクヒン,0
2084,8130001037657,登記記録の閉鎖等,0,2023-11-21,2023-11-16,株式会社メディアデザイン,,株式会社,京都府,京都市右京区,太秦森ケ西町２１－１４０,,26,108,6168106,,,2023-11-16,清算の結了等,,,2015-10-05,1,,,,,メディアデザイン,0
2116,8180302017023,登記記録の閉鎖等,0,2023-11-21,2023-11-09,有限会社ナカガワモータース,,有限会社,愛知県,安城市,朝日町２２番１５号,,23,212,4460031,,,2023-11-09,清算の結了等,,,2015-10-05,1,,,,,ナカガワモータース,0
2118,8200001011373,登記記録の閉鎖等,0,2023-11-21,2023-11-17,羽島ダンボール株式会社,,株式会社,岐阜県,羽島市,福寿町間島２２番地,,21,209,5016251,,,2023-11-17,清算の結了等,,,2015-10-05,1,,,,,ハシマダンボール,0
2121,8210001009805,登記記録の閉鎖等,0,2023-11-21,2023-11-13,株式会社秀幸,,株式会社,福井県,大野市,下黒谷第８号６番地２,,18,205,9120075,,,2023-11-13,清算の結了等,,,2015-10-05,1,,,,,シュウコウ,0
2124,8220001022344,登記記録の閉鎖等,0,2023-11-21,2023-11-15,株式会社クレスト,,株式会社,石川県,小松市,蓑輪町ヌ５番１,,17,203,9230305,,,2023-11-15,合併による解散等,9130001054602,令和５年１１月１日京都市北区大宮玄琢北東町２番地３６株式会社ウィル（9130001054602）に合併し解散,2018-06-12,1,,,,,クレスト,0
2134,8260001029451,登記記録の閉鎖等,0,2023-11-21,2023-11-20,心接骨院株式会社,,株式会社,岡山県,岡山市北区,津島東２丁目７－１７,,33,101,7000081,,,2023-11-20,清算の結了等,,,2016-04-08,1,,,,,シンセッコツイン,0
2149,8320001009364,登記記録の閉鎖等,0,2023-11-21,2023-11-20,株式会社ＲＳＣ,,株式会社,大分県,佐伯市,上浦大字最勝海浦３７０８番地,,44,205,8792603,,,2023-11-20,清算の結了等,,,2015-10-05,1,,,,,アールエスシー,0
2161,8360002014673,登記記録の閉鎖等,0,2023-11-21,2023-11-17,有限会社えにし商事,,有限会社,沖縄県,浦添市,字前田１２８８番地１,,47,208,9012102,,,2023-11-17,清算の結了等,,,2015-10-05,1,,,,,エニシショウジ,0
2163,8360003012197,登記記録の閉鎖等,0,2023-11-21,2023-11-17,合同会社大政興業,,合同会社,沖縄県,中頭郡北中城村,字和仁屋１４２番地,,47,327,9012312,,,2023-11-17,清算の結了等,,,2022-08-02,1,,,,,オオマサコウギョウ,0
2173,8380002015174,登記記録の閉鎖等,0,2023-11-21,2023-11-14,有限会社ときわや商店,,有限会社,福島県,田村市,滝根町神俣字梵天川８４番地,,07,211,9633602,,,2023-11-14,清算の結了等,,,2015-10-05,1,,,,,トキワヤショウテン,0
2194,8480002003417,登記記録の閉鎖等,0,2023-11-21,2023-11-17,有限会社豊田食品,,有限会社,徳島県,徳島市,国府町和田字居内４２番地,,36,201,7793121,,,2023-11-17,清算の結了等,,,2015-10-05,1,,,,,,0
2256,9011402019627,登記記録の閉鎖等,0,2023-11-21,2023-11-16,有限会社小原住設,,有限会社,東京都,板橋区,本町５番１号リバーハウス１Ｆ,,13,119,1730001,,,2023-11-16,清算の結了等,,,2015-10-05,1,,,,,オハラジュウセツ,0
2283,9020001030028,登記記録の閉鎖等,0,2023-11-21,2023-11-16,藤崎建業株式会社,,株式会社,神奈川県,横浜市戸塚区,上矢部町３２５０番地,,14,110,2450053,,,2023-11-16,清算の結了等,,,2015-10-05,1,,,,,フジサキケンギョウ,0
2286,9020001134349,登記記録の閉鎖等,0,2023-11-21,2023-11-16,株式会社ＵＮＳＤＧｓコンサルティング,,株式会社,神奈川県,横浜市中区,鷺山１００番地４,,14,104,2310848,,,2023-11-16,清算の結了等,,,2020-01-09,1,,,,,ユーエヌエスディージーズコンサルティング,0
2289,9020002023344,登記記録の閉鎖等,0,2023-11-21,2023-11-14,有限会社小関工務店,,有限会社,神奈川県,横浜市保土ケ谷区,上菅田町１６３８番地の７,,14,106,2400051,,,2023-11-14,清算の結了等,,,2015-10-05,1,,,,,オゼキコウムテン,0
2296,9021001039835,登記記録の閉鎖等,0,2023-11-21,2023-11-17,株式会社ＴＴプロップ,,株式会社,神奈川県,鎌倉市,高野１８番地２５,,14,204,2470054,,,2023-11-17,清算の結了等,,,2015-10-05,1,,,,,ティティプロップ,0
2299,9021001054611,登記記録の閉鎖等,0,2023-11-21,2023-11-17,湘南フリーワーク株式会社,,株式会社,神奈川県,小田原市,扇町２丁目２８番２６号,,14,206,2500001,,,2023-11-17,清算の結了等,,,2015-10-05,1,,,,,ショウナンフリーワーク,0
2301,9021002002370,登記記録の閉鎖等,0,2023-11-21,2023-11-13,有限会社湘南福祉サービス,,有限会社,神奈川県,藤沢市,本町４丁目７番２８号,,14,205,2510053,,,2023-11-13,清算の結了等,,,2015-10-05,1,,,,,,0
2314,9030002024787,登記記録の閉鎖等,0,2023-11-21,2023-11-02,東江有限会社,,有限会社,埼玉県,戸田市,氷川町２丁目５番６号,,11,224,3350027,,,2023-11-02,清算の結了等,,,2015-10-05,1,,,,,トウコウ,0
2329,9070001031789,登記記録の閉鎖等,0,2023-11-21,2023-11-15,株式会社ＮＥＸＴエンジニア,,株式会社,群馬県,高崎市,中尾町１２４７番地１,,10,202,3700001,,,2023-11-15,清算の結了等,,,2016-01-25,1,,,,,,0
2333,9070002018604,登記記録の閉鎖等,0,2023-11-21,2023-11-15,有限会社岡崎建設,,有限会社,群馬県,伊勢崎市,宮子町３５１６番地３,,10,204,3720801,,,2023-11-15,清算の結了等,,,2015-10-05,1,,,,,オカザキケンセツ,0
2337,9070005008511,登記記録の閉鎖等,0,2023-11-21,2023-11-15,特定非営利活動法人フレンドサポート,,その他の設立登記法人,群馬県,高崎市,倉賀野町１０６９番地５,,10,202,3701201,,,2023-11-15,清算の結了等,,,2015-10-05,1,,,,,フレンドサポート,0
2347,9100002003998,登記記録の閉鎖等,0,2023-11-21,2023-11-09,有限会社ノエル,,有限会社,長野県,長野市,大字南堀２４番地１９,,20,201,3810016,,,2023-11-09,清算の結了等,,,2015-10-05,1,,,,,ノエル,0
2373,9130001068081,登記記録の閉鎖等,0,2023-11-21,2023-11-14,株式会社ＫＰ,,株式会社,京都府,京都市山科区,御陵田山町２５番地１ハーティス山科御陵Ｂ棟２０９号,,26,110,6078405,,,2023-11-14,清算の結了等,,,2020-11-24,1,,,,,ケイピー,0
2383,9140002002030,登記記録の閉鎖等,0,2023-11-21,2023-11-17,有限会社ナカヲメディカル,,有限会社,兵庫県,神戸市東灘区,田中町１丁目２番８号,,28,101,6580081,,,2023-11-17,清算の結了等,,,2015-10-05,1,,,,,ナカヲメディカル,0
2403,9240002042594,登記記録の閉鎖等,0,2023-11-21,2023-11-16,有限会社ファーストインテック,,有限会社,広島県,福山市,伊勢丘３丁目８番１号,,34,207,7210915,,,2023-11-16,清算の結了等,,,2015-10-05,1,,,,,ファーストインテック,0
2406,9250002015269,登記記録の閉鎖等,0,2023-11-21,2023-11-17,有限会社ファッションあさひ,,有限会社,山口県,下松市,東陽２丁目２７番１８号,,35,207,7440043,,,2023-11-17,清算の結了等,,,2015-10-05,1,,,,,ファッションアサヒ,0
2411,9280002009846,登記記録の閉鎖等,0,2023-11-21,2023-11-17,有限会社大原呉服店,,有限会社,島根県,益田市,常盤町２番１５号,,32,204,6980023,,,2023-11-17,清算の結了等,,,2015-10-05,1,,,,,オオハラゴフクテン,0
2412,9290001079014,登記記録の閉鎖等,0,2023-11-21,2023-11-10,株式会社ＦＩＮＥ,,株式会社,福岡県,大野城市,つつじケ丘６丁目１９番２５号,,40,219,8160962,,,2023-11-10,清算の結了等,,,2017-09-11,1,,,,,ファイン,0
2424,9360003000424,登記記録の閉鎖等,0,2023-11-21,2023-11-16,合資会社清栄荘,,合資会社,沖縄県,那覇市,楚辺２丁目３４番５４号,,47,201,9000023,,,2023-11-16,清算の結了等,,,2015-10-05,1,,,,,キヨエイソウ,0
2429,9370005010585,登記記録の閉鎖等,0,2023-11-21,2023-11-20,一般社団法人終活サポート仙台,,その他の設立登記法人,宮城県,仙台市太白区,鈎取１丁目２番７号,,04,104,9820804,,,2023-11-20,清算の結了等,,,2022-12-23,1,,,,,シュウカツサポートセンダイ,0
2431,9380001009226,登記記録の閉鎖等,0,2023-11-21,2023-11-16,ホット・ブレーン株式会社,,株式会社,福島県,郡山市,桑野２丁目４番５号不二ビル１０２号,,07,203,9638025,,,2023-11-16,清算の結了等,,,2015-10-05,1,,,,,ホットブレーン,0
2432,9420002013528,登記記録の閉鎖等,0,2023-11-21,2023-11-15,有限会社鈴木保温工業所,,有限会社,青森県,弘前市,大字浜の町東３丁目１０番地２２,,02,202,0368323,,,2023-11-15,清算の結了等,,,2015-10-05,1,,,,,スズキホオンコウギョウショ,0
