sequenceNumber,corporateNumber,process,correct,updateDate,changeDate,name,nameImageId,kind,prefectureName,cityName,streetNumber,addressImageId,prefectureCode,cityCode,postCode,addressOutside,addressOutsideImageId,closeDate,closeCause,successorCorporateNumber,changeCause,assignmentDate,latest,enName,enPrefectureName,enCityName,enAddressOutside,furigana,hihyoji
12,1010001260797,新規,0,2025-12-05,2025-12-05,株式会社ＷＳＰ‐ＨＤ,,株式会社,東京都,中央区,銀座３丁目１０番１号,,13,102,1040061,,,,,,,2025-12-05,1,,,,,ダブルエスピーホールディングス,0
13,1010001260806,新規,0,2025-12-05,2025-12-05,株式会社山正,,株式会社,東京都,中央区,日本橋浜町２丁目２８番６－１００５号,,13,102,1030007,,,,,,,2025-12-05,1,,,,,ヤママサ,0
14,1010001260830,新規,0,2025-12-05,2025-12-05,株式会社ＩＺＣＯＲＥ,,株式会社,東京都,千代田区,神田神保町３丁目１１番６号神保町ビル１０階,,13,101,1010051,,,,,,,2025-12-05,1,,,,,イズコア,0
15,1010001260863,新規,0,2025-12-05,2025-12-05,ＶｄＰ　Ｃａｐｉｔａｌ　Ｊａｐａｎ２株式会社,,株式会社,東京都,中央区,京橋１丁目１番１号八重洲ダイビル３Ｆ,,13,102,1040031,,,,,,,2025-12-05,1,,,,,ブイディーピーキャピタルジャパンツー,0
16,1010001260871,新規,0,2025-12-05,2025-12-05,株式会社ＲＩＧＡＬ,,株式会社,東京都,中央区,日本橋室町１丁目１１番１２号日本橋水野ビル７階,,13,102,1030022,,,,,,,2025-12-05,1,,,,,リガル,0
18,1010003049561,新規,0,2025-12-05,2025-12-05,合同会社ホープ,,合同会社,東京都,千代田区,神田須田町１丁目７番８号ＶＯＲＴ秋葉原ＩＶ２Ｆ,00141745,13,101,1010041,,,,,,,2025-12-05,1,,,,,ホープ,0
19,1010003049594,新規,0,2025-12-05,2025-12-05,リゲル合同会社,,合同会社,東京都,中央区,銀座２丁目１０番８号マニエラ銀座ビル４階,,13,102,1040061,,,,,,,2025-12-05,1,,,,,リゲル,0
21,1010005041038,新規,0,2025-12-05,2025-12-05,一般社団法人日本ＩＴビジネス・プロフェッショナル協会,,その他の設立登記法人,東京都,中央区,銀座１丁目１２番４号Ｎ＆Ｅ－ＢＬＤ．６Ｆ,,13,102,1040061,,,,,,,2025-12-05,1,,,,,ニホンアイティビジネスプロフェッショナルキョウカイ,0
27,1010401194843,新規,0,2025-12-05,2025-12-05,株式会社ＣｒｅｄＳｅａｌ,,株式会社,東京都,港区,南青山３丁目１番３６号青山丸竹ビル６Ｆ,,13,103,1070062,,,,,,,2025-12-05,1,,,,,,0
28,1010401194934,新規,0,2025-12-05,2025-12-05,株式会社ＳＴＵＤＩＯ１９,,株式会社,東京都,港区,南麻布２丁目９番７号メゾンベール南麻布２０７,,13,103,1060047,,,,,,,2025-12-05,1,,,,,スタジオジューク,0
37,1010501055144,新規,0,2025-12-05,2025-12-05,株式会社キモチデザイン,,株式会社,東京都,台東区,浅草橋５丁目２－３鈴和ビル２Ｆ,,13,106,1110053,,,,,,,2025-12-05,1,,,,,キモチデザイン,0
49,1011001174070,新規,0,2025-12-05,2025-12-05,株式会社パートナーシップデザインラボ,,株式会社,東京都,渋谷区,神宮前２丁目３３番１２号ビラビアンカ３０３,,13,113,1500001,,,,,,,2025-12-05,1,,,,,パートナーシップデザインラボ,0
54,1011101114208,新規,0,2025-12-05,2025-12-05,わらべや北海道株式会社,,株式会社,東京都,新宿区,富久町１３番１９号,,13,104,1620067,,,,,,,2025-12-05,1,,,,,ワラベヤホッカイドウ,0
55,1011101114216,新規,0,2025-12-05,2025-12-05,株式会社Ｓ＆Ｍ,,株式会社,東京都,新宿区,百人町１丁目６番９号,,13,104,1690073,,,,,,,2025-12-05,1,,,,,エスアンドエム,0
56,1011101114240,新規,0,2025-12-05,2025-12-05,株式会社レジェンドファーマ,,株式会社,東京都,新宿区,西新宿６丁目１０番１号日土地西新宿ビル１３階,,13,104,1600023,,,,,,,2025-12-05,1,,,,,レジェンドファーマ,0
66,1011703004475,新規,0,2025-12-05,2025-12-05,合同会社モビスト,,合同会社,東京都,江戸川区,松江３丁目１２番１４号ＶＦビル２階,,13,123,1320025,,,,,,,2025-12-05,1,,,,,モビスト,0
72,1012401043848,新規,0,2025-12-05,2025-12-05,Ｍｅｔｒｉｘ株式会社,,株式会社,東京都,府中市,緑町１丁目３１番４号,,13,206,1830006,,,,,,,2025-12-05,1,,,,,メトリクス,0
73,1012401043889,新規,0,2025-12-05,2025-12-05,トレピエ株式会社,,株式会社,東京都,小金井市,梶野町１丁目２番３６号,,13,210,1840002,,,,,,,2025-12-05,1,,,,,トレピエ,0
76,1012703003418,新規,0,2025-12-05,2025-12-05,ＯＳＫＹ合同会社,,合同会社,東京都,小平市,学園西町１丁目３２－６－１０５,,13,211,1870045,,,,,,,2025-12-05,1,,,,,オスキー,0
91,1020003029934,新規,0,2025-12-05,2025-12-05,合同会社ＡＹＧＬ,,合同会社,神奈川県,横浜市神奈川区,金港町５－１４クアドリフォリオ８階,,14,102,2210056,,,,,,,2025-12-05,1,,,,,エイグル,0
101,1021003016880,新規,0,2025-12-05,2025-12-05,名林不動産合同会社,,合同会社,神奈川県,相模原市中央区,千代田２丁目６番８号,,14,152,2520237,,,,,,,2025-12-05,1,,,,,メイリンフドウサン,0
110,1030001169938,新規,0,2025-12-05,2025-12-05,株式会社美建,,株式会社,埼玉県,新座市,野寺５丁目５番７号ルネッサンスひばりヶ丘１０４,,11,230,3520034,,,,,,,2025-12-05,1,,,,,ビケン,0
111,1030001169946,新規,0,2025-12-05,2025-12-05,株式会社ＯＨＲＡＩ　ＨＯＬＤＩＮＧＳ,,株式会社,埼玉県,川口市,本町３丁目２番２２号,,11,203,3320012,,,,,,,2025-12-05,1,,,,,オーライホールディングス,0
112,1030001169979,新規,0,2025-12-05,2025-12-05,４Ｎｓｉｂ株式会社,,株式会社,埼玉県,川口市,差間２丁目３０番７号,,11,203,3330816,,,,,,,2025-12-05,1,,,,,フォーエヌシブ,0
120,1040001141251,新規,0,2025-12-05,2025-12-05,栄進人材株式会社,,株式会社,千葉県,市川市,塩焼２丁目２番６５号,,12,203,2720114,,,,,,,2025-12-05,1,,,,,エイシンジンザイ,0
121,1040001141656,新規,0,2025-12-05,2025-12-05,ＳＴＦ　ＤＥＳＩＧＮ株式会社,,株式会社,千葉県,印西市,滝野３丁目５番３号棟９０４,,12,231,2702329,,,,,,,2025-12-05,1,,,,,エスティーエフデザイン,0
122,1040001141664,新規,0,2025-12-05,2025-12-05,株式会社ＳＥＣＯＮＤ　ＢＡＳＥ,,株式会社,千葉県,千葉市中央区,稲荷町２丁目７番５号,,12,101,2600833,,,,,,,2025-12-05,1,,,,,セカンドベース,0
123,1040001141672,新規,0,2025-12-05,2025-12-05,株式会社勇建,,株式会社,千葉県,柏市,豊住４丁目２番６号,,12,217,2770071,,,,,,,2025-12-05,1,,,,,ユウケン,0
128,1050001057629,新規,0,2025-12-05,2025-12-05,明王サイエンス株式会社,,株式会社,茨城県,つくば市,山中２０６番地１,,08,220,3050836,,,,,,,2025-12-05,1,,,,,メイオウサイエンス,0
129,1050001057678,新規,0,2025-12-05,2025-12-05,株式会社田中電機,,株式会社,茨城県,つくば市,みどりの南１０３番地７,,08,220,3050884,,,,,,,2025-12-05,1,,,,,タナカデンキ,0
135,1080001027315,新規,0,2025-12-05,2025-12-05,株式会社ｅｍａ,,株式会社,静岡県,静岡市葵区,羽鳥本町１９番３６号,,22,101,4211217,,,,,,,2025-12-05,1,,,,,イーエムエー,0
137,1080101025929,新規,0,2025-12-05,2025-12-05,Ｓｈｉｎｅ株式会社,,株式会社,静岡県,三島市,安久３２４番地の２,,22,206,4110815,,,,,,,2025-12-05,1,,,,,シャイン,0
155,1120001282434,新規,0,2025-12-05,2025-12-05,株式会社ワールドスタイルレーベルズ,,株式会社,大阪府,大阪市北区,芝田１丁目１６番１号,,27,127,5300012,,,,,,,2025-12-05,1,,,,,ワールドスタイルレーベルズ,0
156,1120001282442,新規,0,2025-12-05,2025-12-05,ＦＧＣ株式会社,,株式会社,大阪府,大阪市淀川区,西中島３丁目３番９号アクシス新大阪ＩＩ３０４号室,00141765,27,123,5320011,,,,,,,2025-12-05,1,,,,,エフジーシー,0
157,1120001282500,新規,0,2025-12-05,2025-12-05,株式会社長路,,株式会社,大阪府,大阪市旭区,高殿２丁目８番３８－１２２４号,,27,117,5350031,,,,,,,2025-12-05,1,,,,,チョウジ,0
158,1120001282541,新規,0,2025-12-05,2025-12-05,株式会社ｆａｉｒｅ．ｗ,,株式会社,大阪府,大阪市北区,中崎西３丁目３番３４号２階,,27,127,5300015,,,,,,,2025-12-05,1,,,,,フェール,0
159,1120001282566,新規,0,2025-12-05,2025-12-05,株式会社おだやか星田,,株式会社,大阪府,交野市,星田５丁目２番９号,,27,230,5760016,,,,,,,2025-12-05,1,,,,,オダヤカホシダ,0
167,1120103006889,新規,0,2025-12-05,2025-12-05,野外商店合同会社,,合同会社,大阪府,堺市堺区,東湊町３―１８０―２２東湊ラグゼガレージ４号,,27,141,5900000,,,,,,,2025-12-05,1,,,,,ヤガイショウテン,0
171,1120901051905,新規,0,2025-12-05,2025-12-05,ミリオン株式会社,,株式会社,大阪府,摂津市,千里丘２丁目６番２２号,,27,224,5660001,,,,,,,2025-12-05,1,,,,,ミリオン,0
173,1122001039987,新規,0,2025-12-05,2025-12-05,ＩＬＯ設計株式会社,,株式会社,大阪府,東大阪市,元町１丁目３番６号,,27,227,5798005,,,,,,,2025-12-05,1,,,,,イロセッケイ,0
176,1130001081125,新規,0,2025-12-05,2025-12-05,株式会社ＧｒｏｗＥｎＬｉｎｋｓ,,株式会社,京都府,京都市南区,東寺町５８５番地,,26,107,6018478,,,,,,,2025-12-05,1,,,,,グロウエンリンクス,0
177,1130001081166,新規,0,2025-12-05,2025-12-05,日東薬品工業ＪＣＫ株式会社,,株式会社,京都府,向日市,上植野町南開３５番地の３,,26,208,6170006,,,,,,,2025-12-05,1,,,,,ニットウヤクヒンコウギョウジェーシーケー,0
178,1130001081174,新規,0,2025-12-05,2025-12-05,ミヅホオートケアサービス株式会社,,株式会社,京都府,京都市南区,吉祥院車道町１４番地,,26,107,6018315,,,,,,,2025-12-05,1,,,,,ミヅホオートケアサービス,0
182,1130003010981,新規,0,2025-12-05,2025-12-05,ＭａｒｏＭａｒｏ合同会社,,合同会社,京都府,京都市西京区,大枝南福西町２丁目５番地５,,26,111,6101113,,,,,,,2025-12-05,1,,,,,マロマロ,0
184,1140001141002,新規,0,2025-12-05,2025-12-05,株式会社スギノキアニマルクリニック,,株式会社,兵庫県,加東市,上滝野６０９番地１,,28,228,6790211,,,,,,,2025-12-05,1,,,,,スギノキアニマルクリニック,0
185,1140001141010,新規,0,2025-12-05,2025-12-05,Ｔ‐スタット株式会社,,株式会社,兵庫県,伊丹市,荒牧南４丁目３番２０－２号,,28,207,6640008,,,,,,,2025-12-05,1,,,,,ティースタット,0
187,1140003022919,新規,0,2025-12-05,2025-12-05,Ｈａｓｓａｎ　ｔｒａｄｉｎｇ合同会社,,合同会社,兵庫県,神戸市中央区,元町通４丁目３番１３号ＳＥＧＯ５階,,28,110,6500022,,,,,,,2025-12-05,1,,,,,ハッサントレーディング,0
188,1140005027718,新規,0,2025-12-05,2025-12-05,一般社団法人ＮＥＴ　Ｊａｐａｎ,,その他の設立登記法人,兵庫県,神戸市中央区,中山手通７丁目１１番１２号,,28,110,6500004,,,,,,,2025-12-05,1,,,,,ネットジャパン,0
190,1150001028586,新規,0,2025-12-05,2025-12-05,関西あすなろ株式会社,,株式会社,奈良県,大和郡山市,池沢町２５８番地１０,,29,203,6391032,,,,,,,2025-12-05,1,,,,,カンサイアスナロ,0
197,1180001169766,新規,0,2025-12-05,2025-12-05,株式会社ＭＳ,,株式会社,愛知県,名古屋市東区,矢田３丁目１９番５号,,23,102,4610040,,,,,,,2025-12-05,1,,,,,エムエス,0
198,1180001169808,新規,0,2025-12-05,2025-12-05,株式会社ＦＡＭ,,株式会社,愛知県,名古屋市東区,主税町３丁目１５番地の２グランドメゾン主税町三丁目Ｓ－６０１号,,23,102,4610018,,,,,,,2025-12-05,1,,,,,エフエーエム,0
199,1180001169816,新規,0,2025-12-05,2025-12-05,株式会社Ｇｒａｎｄｅ　Ｅｃｈｅｌｌｅ,,株式会社,愛知県,名古屋市千種区,日岡町１丁目３０番地の１,,23,101,4640834,,,,,,,2025-12-05,1,,,,,グランエシュール,0
200,1180001169832,新規,0,2025-12-05,2025-12-05,株式会社ショウデン,,株式会社,愛知県,名古屋市中川区,大当郎１丁目１９１０番地の１,,23,110,4540943,,,,,,,2025-12-05,1,,,,,ショウデン,0
211,1180301040478,新規,0,2025-12-05,2025-12-05,アイワーク株式会社,,株式会社,愛知県,豊田市,東梅坪町１０丁目６番地４,,23,211,4710071,,,,,,,2025-12-05,1,,,,,アイワーク,0
214,1190001032733,新規,0,2025-12-05,2025-12-05,株式会社あいくろす,,株式会社,三重県,四日市市,川島町６６６１番地１５,,24,202,5120934,,,,,,,2025-12-05,1,,,,,アイクロス,0
216,1190003005274,新規,0,2025-12-05,2025-12-05,合同会社ＡＲＩＧＡＴＡＹＡ,,合同会社,三重県,多気郡明和町,大字斎宮３７０３番１３,,24,442,5150321,,,,,,,2025-12-05,1,,,,,アリガタヤ,0
218,1200005013827,新規,0,2025-12-05,2025-12-05,医療法人巡航会,,その他の設立登記法人,岐阜県,岐阜市,茜部中島２丁目１番地１長良コーポ１－３号室,,21,201,5008269,,,,,,,2025-12-05,1,,,,,ジュンコウカイ,0
224,1230001021203,新規,0,2025-12-05,2025-12-05,株式会社Ｒｅｆｏｒａ,,株式会社,富山県,富山市,太郎丸西町１丁目３番地６,,16,201,9398271,,,,,,,2025-12-05,1,,,,,リフォラ,0
227,1240001065876,新規,0,2025-12-05,2025-12-05,マルサンホールディングス株式会社,,株式会社,広島県,広島市南区,仁保沖町１番３３号,,34,103,7340057,,,,,,,2025-12-05,1,,,,,マルサンホールディングス,0
228,1250001021457,新規,0,2025-12-05,2025-12-05,Ｍ’ｓＣｏｍｐａｎｙ株式会社,,株式会社,山口県,山口市,吉敷上東３丁目１０番２１号,,35,203,7530818,,,,,,,2025-12-05,1,,,,,エムズカンパニー,0
230,1260001040794,新規,0,2025-12-05,2025-12-05,美匠株式会社,,株式会社,岡山県,岡山市南区,藤田１６８９番地２,,33,104,7010221,,,,,,,2025-12-05,1,,,,,ビショウ,0
240,1290003017730,新規,0,2025-12-05,2025-12-05,合同会社ＥＤＥＮ,,合同会社,福岡県,古賀市,小竹８２７－８,,40,223,8113135,,,,,,,2025-12-05,1,,,,,エデン,0
243,1300001014439,新規,0,2025-12-05,2025-12-05,株式会社ＯＭ,,株式会社,佐賀県,神埼市,神埼町城原６８０番地７アトレ城原ＩＩＩ２０３,00141751,41,210,8420122,,,,,,,2025-12-05,1,,,,,オム,0
245,1310001019882,新規,0,2025-12-05,2025-12-05,株式会社Ｓｐａｒｋｌｅ,,株式会社,長崎県,諫早市,多良見町市布１７９２番地８,,42,204,8590403,,,,,,,2025-12-05,1,,,,,スパークル,0
249,1320001021474,新規,0,2025-12-05,2025-12-05,株式会社Ｐｒｏｐｉｔａ,,株式会社,大分県,中津市,大字永添１９９６番地３３,,44,203,8710162,,,,,,,2025-12-05,1,,,,,プロピタ,0
253,1340001027825,新規,0,2025-12-05,2025-12-05,株式会社レトロタイムズ,,株式会社,鹿児島県,鹿児島市,松原町１－２１佐藤ビル１０１,,46,201,8920833,,,,,,,2025-12-05,1,,,,,レトロタイムズ,0
258,1360001036106,新規,0,2025-12-05,2025-12-05,株式会社いとかず,,株式会社,沖縄県,那覇市,久米１丁目１７番１０号,,47,201,9000033,,,,,,,2025-12-05,1,,,,,イトカズ,0
261,1370001053265,新規,0,2025-12-05,2025-12-05,ＴＹＴホールディングス株式会社,,株式会社,宮城県,仙台市太白区,長町５丁目２番６号森民ビル７１０,,04,104,9820011,,,,,,,2025-12-05,1,,,,,ティーワイティーホールディングス,0
267,1430001095813,新規,0,2025-12-05,2025-12-05,ハングルネット株式会社,,株式会社,北海道,札幌市中央区,南二条西５丁目３１－１ＲＭＢｌｄ．７０１,,01,101,0600062,,,,,,,2025-12-05,1,,,,,ハングルネット,0
272,1430003018400,新規,0,2025-12-05,2025-12-05,合同会社ＷＡＣ,,合同会社,北海道,札幌市北区,篠路一条３丁目１１番地５,,01,102,0028021,,,,,,,2025-12-05,1,,,,,ダブルエーシー,0
273,1430005015362,新規,0,2025-12-05,2025-12-05,社会保険労務士法人Ｎｏｃｔｉａ　Ｉｎｓｉｇｈｔｓ,,その他の設立登記法人,北海道,虻田郡倶知安町,北四条西２丁目５番地７,,01,400,0440054,,,,,,,2025-12-05,1,,,,,ノクティアインサイツ,0
277,1470003003027,新規,0,2025-12-05,2025-12-05,合同会社ユーティリティナース,,合同会社,香川県,高松市,香川町大野３４２番地２,,37,201,7611701,,,,,,,2025-12-05,1,,,,,,0
278,1480001013027,新規,0,2025-12-05,2025-12-05,株式会社ＢＥＳＴホームサービス,,株式会社,徳島県,鳴門市,大津町段関字宝蔵１７番地１,,36,202,7720043,,,,,,,2025-12-05,1,,,,,ベストホームサービス,0
279,1500001026661,新規,0,2025-12-05,2025-12-05,株式会社電験１２３,,株式会社,愛媛県,松山市,土手内２９８番地１,,38,201,7992432,,,,,,,2025-12-05,1,,,,,デンケンイチニサン,0
281,1700150133206,新規,0,2025-12-05,2025-12-05,日東光学健康保険組合,,その他,長野県,諏訪市,上川１丁目１５３８番地,,20,206,3920021,,,,,,,2025-12-05,1,,,,,ニットウコウガクケンコウホケンクミアイ,0
282,1700150133214,新規,0,2025-12-05,2025-12-05,日立ジョンソンコントロールズ空調健康保険組合,,その他,東京都,渋谷区,千駄ヶ谷５丁目２３番５号,,13,113,1510051,,,,,,,2025-12-05,1,,,,,ヒタチジョンソンコントロールズクウチョウケンコウホケンクミアイ,0
290,2010001260821,新規,0,2025-12-05,2025-12-05,株式会社ル・クオリア,,株式会社,東京都,中央区,日本橋室町１丁目２番６号日本橋大栄ビル７階,,13,102,1030022,,,,,,,2025-12-05,1,,,,,ルクオリア,0
291,2010001260862,新規,0,2025-12-05,2025-12-05,株式会社ＵＹＺ,,株式会社,東京都,中央区,銀座１丁目１２番４号Ｎ＆ＥＢＬＤ．６Ｆ,,13,102,1040061,,,,,,,2025-12-05,1,,,,,ユーワイゼット,0
294,2010003049593,新規,0,2025-12-05,2025-12-05,カペラ合同会社,,合同会社,東京都,中央区,銀座２丁目１０番８号マニエラ銀座ビル４階,,13,102,1040061,,,,,,,2025-12-05,1,,,,,カペラ,0
304,2010401194850,新規,0,2025-12-05,2025-12-05,株式会社Ｅｃｌａｔ,,株式会社,東京都,港区,南青山２丁目２番１５号ＷＩＮ青山５３１,,13,103,1070062,,,,,,,2025-12-05,1,,,,,,0
305,2010401194941,新規,0,2025-12-05,2025-12-05,ＭＣＰ４７株式会社,,株式会社,東京都,港区,元赤坂１丁目１番７－１２０９号株式会社赤坂国際会計内,,13,103,1070051,,,,,,,2025-12-05,1,,,,,エムシーピーフォーセブン,0
306,2010401194958,新規,0,2025-12-05,2025-12-05,株式会社ｕｎｔｏｋｏｓｈｏｗ,,株式会社,東京都,港区,六本木４丁目５－７スタジオＤ４階３０１号室,,13,103,1060032,,,,,,,2025-12-05,1,,,,,ウントコショウ,0
308,2010403036745,新規,0,2025-12-05,2025-12-05,ＤＫ　Ａｓｓｅｔ　Ｃｏｎｓｕｌｔｉｎｇ合同会社,,合同会社,東京都,港区,芝大門１丁目６‐６,,13,103,1050012,,,,,,,2025-12-05,1,,,,,ディーケーアセットコンサルティング,0
311,2010501055069,新規,0,2025-12-05,2025-12-05,Ｆｕｌｌ　Ｆｒｅｓａ株式会社,,株式会社,東京都,台東区,根岸１丁目１番３０号ツバセス鶯谷４１６号,,13,106,1100003,,,,,,,2025-12-05,1,,,,,フルフレッサ,0
327,2011001173906,新規,0,2025-12-05,2025-12-05,株式会社Ｙ　Ｇｌｏｂａｌ　Ｈｏｌｄｉｎｇｓ,,株式会社,東京都,渋谷区,代々木神園町３番３号,,13,113,1510052,,,,,,,2025-12-05,1,,,,,ワイグローバルホールディングス,0
328,2011001173996,新規,0,2025-12-05,2025-12-05,バクゲキ株式会社,,株式会社,東京都,渋谷区,道玄坂１丁目１０番８号渋谷道玄坂東急ビル２Ｆ－Ｃ,,13,113,1500043,,,,,,,2025-12-05,1,,,,,バクゲキ,0
329,2011001174061,新規,0,2025-12-05,2025-12-05,株式会社ｍｉｉｒｏ,,株式会社,東京都,渋谷区,渋谷２丁目１１番６号ラウンドクロス渋谷６階,,13,113,1500002,,,,,,,2025-12-05,1,,,,,ミイロ,0
330,2011001174185,新規,0,2025-12-05,2025-12-05,株式会社カルチャリズム,,株式会社,東京都,渋谷区,道玄坂１丁目１０番８号渋谷道玄坂東急ビル２Ｆ－Ｃ,,13,113,1500043,,,,,,,2025-12-05,1,,,,,カルチャリズム,0
332,2011003022920,新規,0,2025-12-05,2025-12-05,合同会社ＡＡＵＬ　ＳＴＵＤＩＯ,,合同会社,東京都,目黒区,目黒４丁目２６番１４号エスユー．パレス４０１,,13,110,1530063,,,,,,,2025-12-05,1,,,,,アールスタジオ,0
333,2011003022978,新規,0,2025-12-05,2025-12-05,合同会社ロータス・ローカル,,合同会社,東京都,渋谷区,道玄坂１丁目１０番８号渋谷道玄坂東急ビル２Ｆ－Ｃ,,13,113,1500043,,,,,,,2025-12-05,1,,,,,ロータスローカル,0
334,2011003023002,新規,0,2025-12-05,2025-12-05,合同会社ｔａｎｍｅｎ,,合同会社,東京都,渋谷区,代々木５丁目４４番６号ファミーユ藤Ａ棟３０１号室,,13,113,1510053,,,,,,,2025-12-05,1,,,,,タンメン,0
335,2011003023043,新規,0,2025-12-05,2025-12-05,合同会社大義経営研究所,,合同会社,東京都,渋谷区,宇田川町３６番２２号ノア渋谷パートＩＩ８０１号室,00141766,13,113,1500042,,,,,,,2025-12-05,1,,,,,タイギケイエイケンキュウジョ,0
337,2011101114198,新規,0,2025-12-05,2025-12-05,株式会社京創,,株式会社,東京都,新宿区,新小川町８番４号ラメール飯田橋２０３,,13,104,1620814,,,,,,,2025-12-05,1,,,,,キョウソウ,0
338,2011101114207,新規,0,2025-12-05,2025-12-05,わらべや中部株式会社,,株式会社,東京都,新宿区,富久町１３番１９号,,13,104,1620067,,,,,,,2025-12-05,1,,,,,ワラベヤチュウブ,0
339,2011101114215,新規,0,2025-12-05,2025-12-05,株式会社ＡＤＥＱ８,,株式会社,東京都,新宿区,新宿１丁目７番２号藤和新宿御苑コープ６０３,,13,104,1600022,,,,,,,2025-12-05,1,,,,,アデクエイト,0
343,2011103016814,新規,0,2025-12-05,2025-12-05,合同会社Ｎツインズ,,合同会社,東京都,新宿区,西落合１丁目１１番１号,,13,104,1610031,,,,,,,2025-12-05,1,,,,,エヌツインズ,0
344,2011201026830,新規,0,2025-12-05,2025-12-05,ＳＭＯ株式会社,,株式会社,東京都,中野区,大和町２丁目３１番１４号１０１号室,,13,114,1650034,,,,,,,2025-12-05,1,,,,,エスエムオー,0
360,2011801047136,新規,0,2025-12-05,2025-12-05,株式会社ＭＹ,,株式会社,東京都,足立区,江北７丁目１４番１３号小泉ビル３０１,,13,121,1230872,,,,,,,2025-12-05,1,,,,,エムワイ,0
361,2011803007220,新規,0,2025-12-05,2025-12-05,興源エステート合同会社,,合同会社,東京都,葛飾区,西新小岩５丁目２５番２号,,13,122,1240025,,,,,,,2025-12-05,1,,,,,コウゲンエステート,0
367,2020001166150,新規,0,2025-12-05,2025-12-05,株式会社ティーグレイス,,株式会社,神奈川県,横浜市旭区,中希望が丘１０２番地,,14,112,2410825,,,,,,,2025-12-05,1,,,,,ティーグレイス,0
371,2020003029875,新規,0,2025-12-05,2025-12-05,ＳＦＥ合同会社,,合同会社,神奈川県,川崎市川崎区,川中島２丁目１４‐６,,14,131,2100803,,,,,,,2025-12-05,1,,,,,エスエフイー,0
373,2020005017069,新規,0,2025-12-05,2025-12-05,一般社団法人失業保険申請支援機構,,その他の設立登記法人,神奈川県,川崎市多摩区,登戸５０番地３,,14,135,2140014,,,,,,,2025-12-05,1,,,,,シツギョウホケンシンセイシエンキコウ,0
378,2021001086974,新規,0,2025-12-05,2025-12-05,株式会社Ｎｉｕｔｉｎｙ,,株式会社,神奈川県,綾瀬市,上土棚中４丁目１番５号カインドステージ長後６０６,,14,218,2521113,,,,,,,2025-12-05,1,,,,,ニュウティニー,0
386,2030001169846,新規,0,2025-12-05,2025-12-05,株式会社慶樂,,株式会社,埼玉県,川口市,大字安行領家６１－１ソフィアカルディア２０３号室,,11,203,3340058,,,,,,,2025-12-05,1,,,,,ケイラク,0
387,2030001169929,新規,0,2025-12-05,2025-12-05,低温融合材料株式会社,,株式会社,埼玉県,川越市,幸町４－１りそなコエドテラス３Ｆ,,11,201,3500063,,,,,,,2025-12-05,1,,,,,テイオンユウゴウザイリョウ,0
388,2030001169945,新規,0,2025-12-05,2025-12-05,株式会社Ｌｅ　Ｃｈｅｌｉｅｎ,,株式会社,埼玉県,上尾市,柏座１丁目１１番１１号サンビューハイツ２０１,,11,219,3620075,,,,,,,2025-12-05,1,,,,,ルシェリア,0
389,2030001169978,新規,0,2025-12-05,2025-12-05,株式会社杉田商店,,株式会社,埼玉県,加須市,上高柳４５０番地,,11,210,3470101,,,,,,,2025-12-05,1,,,,,スギタショウテン,0
393,2030003028158,新規,0,2025-12-05,2025-12-05,合同会社茂木塗装,,合同会社,埼玉県,熊谷市,弥藤吾２３４番地３,,11,202,3600203,,,,,,,2025-12-05,1,,,,,モテギトソウ,0
394,2030003028174,新規,0,2025-12-05,2025-12-05,ＡＴ合同会社,,合同会社,埼玉県,さいたま市中央区,上峰１丁目２２－１２ドミール諏訪坂３－１０２,,11,105,3380014,,,,,,,2025-12-05,1,,,,,,0
395,2030003028232,新規,0,2025-12-05,2025-12-05,合同会社ハセガワークス,,合同会社,埼玉県,さいたま市南区,白幡３丁目８―４―２,,11,108,3360022,,,,,,,2025-12-05,1,,,,,ハセガワークス,0
401,2040001141655,新規,0,2025-12-05,2025-12-05,株式会社ＭｅＩＯ２ｎ,,株式会社,千葉県,八千代市,村上南５丁目１６－１７,,12,221,2760029,,,,,,,2025-12-05,1,,,,,メイオーツーエヌ,0
406,2040003028966,新規,0,2025-12-05,2025-12-05,合同会社ＢｒｉｇｈｔＰａｔｈ,,合同会社,千葉県,袖ケ浦市,蔵波１５８１－１,,12,229,2990243,,,,,,,2025-12-05,1,,,,,ブライトパス,0
407,2040003029089,新規,0,2025-12-05,2025-12-05,グローバルブリッジ合同会社,,合同会社,千葉県,柏市,あけぼの２丁目８番１７号メゾンＳＫ７－２階２Ｂ号室,,12,217,2770841,,,,,,,2025-12-05,1,,,,,グローバルブリッジ,0
408,2050001057677,新規,0,2025-12-05,2025-12-05,株式会社Ｙ’Ｓプロスペリティ,,株式会社,茨城県,稲敷郡阿見町,中郷２丁目１９番地５,,08,443,3000337,,,,,,,2025-12-05,1,,,,,ワイズプロスペリティ,0
409,2050001057702,新規,0,2025-12-05,2025-12-05,株式会社つむぎの手,,株式会社,茨城県,ひたちなか市,大字馬渡２８９６番地３５,,08,221,3120012,,,,,,,2025-12-05,1,,,,,ツムギノテ,0
417,2080001027314,新規,0,2025-12-05,2025-12-05,益田工業株式会社,,株式会社,静岡県,焼津市,保福島６２９番地,,22,212,4250087,,,,,,,2025-12-05,1,,,,,マスダコウギョウ,0
418,2080003003619,新規,0,2025-12-05,2025-12-05,合同会社カガヤキ,,合同会社,静岡県,静岡市清水区,下野中６番３０－１号,,22,103,4240029,,,,,,,2025-12-05,1,,,,,カガヤキ,0
440,2120001282524,新規,0,2025-12-05,2025-12-05,株式会社ＰＰ．Ｌｉｎｅ,,株式会社,大阪府,大阪市北区,天満２丁目２番２１号ヒロビル４階,,27,127,5300043,,,,,,,2025-12-05,1,,,,,ピーピーライン,0
445,2120003031409,新規,0,2025-12-05,2025-12-05,合同会社エコスペースゆう,,合同会社,大阪府,大阪市天王寺区,勝山２丁目１９番１号,,27,109,5430043,,,,,,,2025-12-05,1,,,,,エコスペースユウ,0
446,2120003031425,新規,0,2025-12-05,2025-12-05,靖峰合同会社,,合同会社,大阪府,大阪市平野区,長吉長原東３丁目７番２３－１０３号,,27,126,5470013,,,,,,,2025-12-05,1,,,,,セイホウ,0
447,2120005025292,新規,0,2025-12-05,2025-12-05,一般社団法人日本スピリチュアルエネルギー協会,,その他の設立登記法人,大阪府,大阪市北区,梅田１丁目１番３号大阪駅前第３ビル２９階１－１－１号室,,27,127,5300001,,,,,,,2025-12-05,1,,,,,ニホンスピリチュアルエネルギーキョウカイ,0
448,2120101072916,新規,0,2025-12-05,2025-12-05,騰微国際株式会社,,株式会社,大阪府,堺市北区,百舌鳥赤畑町２丁４６－２ホームライフ三国ケ丘ビル４階Ａ・Ｂ号室,,27,146,5918037,,,,,,,2025-12-05,1,,,,,トウビコクサイ,0
458,2120901051870,新規,0,2025-12-05,2025-12-05,株式会社エルミンエステート,,株式会社,大阪府,豊中市,大黒町３丁目１５番２６号,,27,203,5610827,,,,,,,2025-12-05,1,,,,,エルミンエステート,0
459,2120901051904,新規,0,2025-12-05,2025-12-05,株式会社Ｅｎｏｒ,,株式会社,大阪府,吹田市,千里山東１丁目５－１１,,27,205,5650842,,,,,,,2025-12-05,1,,,,,エノア,0
460,2120901051912,新規,0,2025-12-05,2025-12-05,株式会社シエル,,株式会社,大阪府,茨木市,舟木町９番２６－１００７号,,27,211,5670828,,,,,,,2025-12-05,1,,,,,シエル,0
465,2130001081157,新規,0,2025-12-05,2025-12-05,株式会社洛東エステート,,株式会社,京都府,京都市山科区,東野中井ノ上町１番地２１,,26,110,6078142,,,,,,,2025-12-05,1,,,,,ラクトウエステート,0
466,2130001081165,新規,0,2025-12-05,2025-12-05,株式会社ＮＩＹＵ‐ＫＡＮ,,株式会社,京都府,亀岡市,曽我部町南条宮田筋１６番地９,,26,206,6210022,,,,,,,2025-12-05,1,,,,,ニユウカン,0
469,2130003010997,新規,0,2025-12-05,2025-12-05,合同会社Ｐｌａｎｔａ,,合同会社,京都府,京都市北区,紫野上門前町２１－４,,26,101,6038217,,,,,,,2025-12-05,1,,,,,プランタ,0
473,2140001140960,新規,0,2025-12-05,2025-12-05,株式会社夢竜,,株式会社,兵庫県,姫路市,花田町小川７３４番地１,,28,201,6710255,,,,,,,2025-12-05,1,,,,,ユメリュウ,0
474,2140001140985,新規,0,2025-12-05,2025-12-05,株式会社雅,,株式会社,兵庫県,加古川市,別府町新野辺３６８Ｇ棟１４,,28,210,6750131,,,,,,,2025-12-05,1,,,,,ミヤビ,0
475,2140001141001,新規,0,2025-12-05,2025-12-05,株式会社サンクスリソース,,株式会社,兵庫県,神戸市中央区,旗塚通７丁目１番７号,,28,110,6510068,,,,,,,2025-12-05,1,,,,,サンクスリソース,0
478,2140003022934,新規,0,2025-12-05,2025-12-05,Ｐｌｅｉｇｏ　Ｉｎｔｅｒｎａｔｉｏｎａｌ　Ｄａｙｃａｒｅ合同会社,,合同会社,兵庫県,西宮市,小曽根町４丁目１番２０－２号,,28,204,6638122,,,,,,,2025-12-05,1,,,,,プレイゴインターナショナルデイケア,0
485,2180001169765,新規,0,2025-12-05,2025-12-05,株式会社利斗,,株式会社,愛知県,知多郡美浜町,大字奥田字海道田２８番地,,23,446,4703233,,,,,,,2025-12-05,1,,,,,トシト,0
486,2180001169773,新規,0,2025-12-05,2025-12-05,株式会社タニ商事,,株式会社,愛知県,名古屋市熱田区,南一番町５番１２号,,23,109,4560055,,,,,,,2025-12-05,1,,,,,タニショウジ,0
487,2180001169815,新規,0,2025-12-05,2025-12-05,株式会社ＪＣＵ,,株式会社,愛知県,名古屋市天白区,御幸山１５１５番地の３,,23,116,4680075,,,,,,,2025-12-05,1,,,,,ジェイシーユー,0
488,2180001169823,新規,0,2025-12-05,2025-12-05,株式会社トナリのトリデ,,株式会社,愛知県,知多郡東浦町,大字森岡字下今池１７番地の１３,,23,442,4702101,,,,,,,2025-12-05,1,,,,,トナリノトリデ,0
492,2180003029463,新規,0,2025-12-05,2025-12-05,ＣＰＩ合同会社,,合同会社,愛知県,名古屋市天白区,表山３丁目２００１番地,,23,116,4680069,,,,,,,2025-12-05,1,,,,,シーピーアイ,0
494,2180301040477,新規,0,2025-12-05,2025-12-05,株式会社かしわフーズ,,株式会社,愛知県,蒲郡市,豊岡町満土呂７１番地５,,23,214,4430011,,,,,,,2025-12-05,1,,,,,カシワフーズ,0
497,2190003005281,新規,0,2025-12-05,2025-12-05,Ｌｉｎｇｕａ　Ｆｒａｃｔ合同会社,,合同会社,三重県,鈴鹿市,長太栄町２丁目５番地８号,,24,207,5130043,,,,,,,2025-12-05,1,,,,,リンガフラクト,0
508,2240001065875,新規,0,2025-12-05,2025-12-05,株式会社オリデ,,株式会社,広島県,広島市南区,仁保４丁目５番７号,,34,103,7340026,,,,,,,2025-12-05,1,,,,,オリデ,0
509,2240001065883,新規,0,2025-12-05,2025-12-05,株式会社Ｎｅｃｏｔｏ,,株式会社,広島県,広島市西区,己斐本町１丁目１３番６号,,34,104,7330812,,,,,,,2025-12-05,1,,,,,ネコト,0
510,2240001065891,新規,0,2025-12-05,2025-12-05,株式会社三誠プロパティーズ,,株式会社,広島県,広島市西区,西観音町１番１８号,,34,104,7330037,,,,,,,2025-12-05,1,,,,,サンセイプロパティーズ,0
513,2260001040793,新規,0,2025-12-05,2025-12-05,株式会社Ｙ＆Ｕ,,株式会社,岡山県,倉敷市,阿知２丁目３番２１号,,33,202,7100055,,,,,,,2025-12-05,1,,,,,ワイアンドユー,0
524,2290001112350,新規,0,2025-12-05,2025-12-05,株式会社娘娘,,株式会社,福岡県,福岡市中央区,大名２丁目４番５－７０５号サンリベラ天神大名,,40,133,8100041,,,,,,,2025-12-05,1,,,,,ニャンニャン,0
526,2290003017754,新規,0,2025-12-05,2025-12-05,合同会社ＣＤＴａｉｌ,,合同会社,福岡県,八女市,井延１６－２,,40,210,8340026,,,,,,,2025-12-05,1,,,,,シーディーテイル,0
528,2310001019881,新規,0,2025-12-05,2025-12-05,株式会社ＡＬＮＯ,,株式会社,長崎県,長崎市,本石灰町５番９号なかむらビル４０１号室,,42,201,8500901,,,,,,,2025-12-05,1,,,,,オルノ,0
531,2320001021473,新規,0,2025-12-05,2025-12-05,株式会社フォーエイト,,株式会社,大分県,大分市,大字下郡３９６番地１,,44,201,8700951,,,,,,,2025-12-05,1,,,,,フォーエイト,0
532,2320001021481,新規,0,2025-12-05,2025-12-05,山田ゲームソフト開発株式会社,,株式会社,大分県,大分市,大道町４丁目１番９号スペリオーレ大道１０４号,,44,201,8700822,,,,,,,2025-12-05,1,,,,,ヤマダゲームソフトカイハツ,0
536,2330001033807,新規,0,2025-12-05,2025-12-05,株式会社松本商店,,株式会社,熊本県,熊本市西区,中島町８１３番地１,,43,103,8615272,,,,,,,2025-12-05,1,,,,,マツモトショウテン,0
539,2360001036105,新規,0,2025-12-05,2025-12-05,株式会社きらくや,,株式会社,沖縄県,那覇市,泊２丁目５番地４ミオカステーロ泊ＩＩ５０２,00141747,47,201,9000012,,,,,,,2025-12-05,1,,,,,キラクヤ,0
545,2360003015453,新規,0,2025-12-05,2025-12-05,合同会社ＫＬＡＦＴ,,合同会社,沖縄県,糸満市,西崎１丁目２３番８号,,47,210,9010305,,,,,,,2025-12-05,1,,,,,クラフト,0
548,2370001053256,新規,0,2025-12-05,2025-12-05,株式会社エステック,,株式会社,宮城県,仙台市青葉区,中央２丁目１１番１９号仙南ビル４階－Ａ,,04,101,9800021,,,,,,,2025-12-05,1,,,,,エステック,0
551,2370005011037,新規,0,2025-12-05,2025-12-05,医療法人八乙女スキンクリニック,,その他の設立登記法人,宮城県,仙台市泉区,八乙女中央１丁目６番４５号産電八乙女中央ビル１階,,04,105,9813135,,,,,,,2025-12-05,1,,,,,ヤオトメスキンクリニック,0
555,2420001019359,新規,0,2025-12-05,2025-12-05,顕光総研株式会社,,株式会社,青森県,下北郡東通村,大字尻屋字唐沢２４番地１,,02,424,0350111,,,,,,,2025-12-05,1,,,,,ケンコウソウケン,0
559,2430001095829,新規,0,2025-12-05,2025-12-05,株式会社ジェイド・エバーグリーン,,株式会社,北海道,北広島市,広葉町１丁目１－４－２広葉町テラスＢ,,01,234,0611134,,,,,,,2025-12-05,1,,,,,ジェイドエバーグリーン,0
560,2440001009721,新規,0,2025-12-05,2025-12-05,知内商事株式会社,,株式会社,北海道,上磯郡知内町,字元町２２４番地,,01,333,0491106,,,,,,,2025-12-05,1,,,,,シリウチショウジ,0
561,2460002005734,新規,0,2025-12-05,2025-12-05,有限会社ステップ,,有限会社,北海道,釧路市,北大通４丁目６番地,,01,206,0850015,,,,,,,2025-12-05,1,,,,,,0
563,2470001021005,新規,0,2025-12-05,2025-12-05,株式会社タニーズモータース,,株式会社,香川県,仲多度郡多度津町,大字道福寺１２９番地２,,37,404,7640027,,,,,,,2025-12-05,1,,,,,タニーズモータース,0
565,2480001013026,新規,0,2025-12-05,2025-12-05,株式会社サンライト,,株式会社,徳島県,徳島市,一番町２丁目２８番地２ＬａＰｒｉｍａＣｉｔｔａ１階西号室,,36,201,7700833,,,,,,,2025-12-05,1,,,,,サンライト,0
567,2500001026660,新規,0,2025-12-05,2025-12-05,株式会社アールオー,,株式会社,愛媛県,松山市,井門町５２番地１－１Ｆ,,38,201,7911114,,,,,,,2025-12-05,1,,,,,アールオー,0
569,2500003003641,新規,0,2025-12-05,2025-12-05,合同会社ＡＹＭ,,合同会社,愛媛県,松山市,和泉南２丁目８番４０－１号,,38,201,7900941,,,,,,,2025-12-05,1,,,,,エーワイエム,0
570,2700150133205,新規,0,2025-12-05,2025-12-05,日東紡績健康保険組合,,その他,東京都,千代田区,麹町２丁目４番地１,,13,101,1020083,,,,,,,2025-12-05,1,,,,,ニットウボウセキケンコウホケンクミアイ,0
571,2700150133213,新規,0,2025-12-05,2025-12-05,セールスフォース健康保険組合,,その他,東京都,千代田区,丸の内１丁目１－３,,13,101,1000005,,,,,,,2025-12-05,1,,,,,セールスフォースケンコウホケンクミアイ,0
583,3010001260861,新規,0,2025-12-05,2025-12-05,株式会社スパイスミックス,,株式会社,東京都,文京区,根津１丁目２１番１１号ＧＡＴＥ根津２０５,,13,105,1130031,,,,,,,2025-12-05,1,,,,,スパイスミックス,0
587,3010003049469,新規,0,2025-12-05,2025-12-05,合同会社Ｓｅｃｏｎｄｆｒａｍｅ,,合同会社,東京都,中央区,銀座１丁目１２番４号Ｎ＆ＥＢＬＤ．６Ｆ,,13,102,1040061,,,,,,,2025-12-05,1,,,,,セカンドフレイム,0
588,3010005041036,新規,0,2025-12-05,2025-12-05,医療法人社団Ａｒｔ　Ｂｙ　Ｃｏｌｏｒｓ,,その他の設立登記法人,東京都,千代田区,神田駿河台２丁目２番地４ＭＰＲ御茶ノ水駅前ビル７階,,13,101,1010062,,,,,,,2025-12-05,1,,,,,アートバイカラーズ,0
590,3010103002708,新規,0,2025-12-05,2025-12-05,華栄合同会社,,合同会社,東京都,八王子市,越野３８番地３,,13,201,1920361,,,,,,,2025-12-05,1,,,,,カエイ,0
594,3010401194577,新規,0,2025-12-05,2025-12-05,株式会社メモリア,,株式会社,東京都,港区,芝浦４丁目１５番１－３０７号,,13,103,1080023,,,,,,,2025-12-05,1,,,,,メモリア,0
595,3010401194940,新規,0,2025-12-05,2025-12-05,ＭＣＰ４６株式会社,,株式会社,東京都,港区,元赤坂１丁目１番７－１２０９号株式会社赤坂国際会計内,,13,103,1070051,,,,,,,2025-12-05,1,,,,,エムシーピーフォーシックス,0
596,3010401194949,新規,0,2025-12-05,2025-12-05,株式会社Ｋｏｋｏｒｏ　Ｇｌｏｂａｌ,,株式会社,東京都,港区,南青山１丁目１番１号新青山ビル東館７Ｆ,,13,103,1070062,,,,,,,2025-12-05,1,,,,,ココログローバル,0
602,3010403036736,新規,0,2025-12-05,2025-12-05,合同会社クリエイターズナレッジ,,合同会社,東京都,港区,南青山５丁目４番３５号青南吉川興産ビル３階,,13,103,1070062,,,,,,,2025-12-05,1,,,,,クリエイターズナレッジ,0
614,3010901058579,新規,0,2025-12-05,2025-12-05,ＤＫＴ２株式会社,,株式会社,東京都,世田谷区,用賀１丁目８番３号,,13,112,1580097,,,,,,,2025-12-05,1,,,,,ディーケーティーツー,0
615,3010901058587,新規,0,2025-12-05,2025-12-05,Ｔ＆Ｔアセットマネジメント株式会社,,株式会社,東京都,世田谷区,尾山台１丁目１８番２号,,13,112,1580086,,,,,,,2025-12-05,1,,,,,ティーアンドティーアセットマネジメント,0
622,3011001174052,新規,0,2025-12-05,2025-12-05,ＴＩＦＦＡ　ＢＲＡＮＤ　ＭＡＮＡＧＥＭＥＮＴ株式会社,,株式会社,東京都,渋谷区,渋谷２丁目１９番１７号グローリア渋谷１００２,,13,113,1500002,,,,,,,2025-12-05,1,,,,,ティファブランドマネジメント,0
623,3011001174168,新規,0,2025-12-05,2025-12-05,株式会社ＥＩＫＩ　ＴＯＫＹＯ,,株式会社,東京都,渋谷区,恵比寿２丁目１０－５ＲＯＺＩＳ１階,,13,113,1500013,,,,,,,2025-12-05,1,,,,,エイキトーキョー,0
624,3011001174192,新規,0,2025-12-05,2025-12-05,株式会社エイカン,,株式会社,東京都,渋谷区,道玄坂１丁目１０番８号渋谷道玄坂東急ビル２Ｆ－Ｃ,,13,113,1500043,,,,,,,2025-12-05,1,,,,,エイカン,0
625,3011001174283,新規,0,2025-12-05,2025-12-05,株式会社ファストダイヤモンズ,,株式会社,東京都,渋谷区,恵比寿２丁目２７番１０号,,13,113,1500013,,,,,,,2025-12-05,1,,,,,ファストダイヤモンズ,0
627,3011003022985,新規,0,2025-12-05,2025-12-05,合同会社ｍｉｘＬＡ,,合同会社,東京都,渋谷区,道玄坂１丁目１０番８号渋谷道玄坂東急ビル２Ｆ－Ｃ,,13,113,1500043,,,,,,,2025-12-05,1,,,,,ミックスエルエー,0
628,3011003023050,新規,0,2025-12-05,2025-12-05,合同会社ＴＫＧ,,合同会社,東京都,渋谷区,円山町５番３号ＭＩＥＵＸ渋谷ビル８階,,13,113,1500044,,,,,,,2025-12-05,1,,,,,ティーケージー,0
629,3011003023067,新規,0,2025-12-05,2025-12-05,ヒュッテ２８合同会社,,合同会社,東京都,目黒区,目黒４丁目４番７号,,13,110,1530063,,,,,,,2025-12-05,1,,,,,ヒュッテニーハチ,0
631,3011101113967,新規,0,2025-12-05,2025-12-05,ナルーエステート株式会社,,株式会社,東京都,新宿区,西新宿１丁目１９番５号第二明宝ビル地下１階,,13,104,1600023,,,,,,,2025-12-05,1,,,,,ナルーエステート,0
632,3011101114016,新規,0,2025-12-05,2025-12-05,株式会社Ｆｕｌｆｉｌｌ,,株式会社,東京都,新宿区,西新宿３丁目３番１３号西新宿水間ビル６階,,13,104,1600023,,,,,,,2025-12-05,1,,,,,フルフィル,0
633,3011101114206,新規,0,2025-12-05,2025-12-05,わらべや関西株式会社,,株式会社,東京都,新宿区,富久町１３番１９号,,13,104,1620067,,,,,,,2025-12-05,1,,,,,ワラベヤカンサイ,0
634,3011101114222,新規,0,2025-12-05,2025-12-05,ＫＳ警備保障株式会社,,株式会社,東京都,新宿区,西落合１丁目１８番７号,,13,104,1610031,,,,,,,2025-12-05,1,,,,,ケーエスケイビホショウ,0
638,3011103016838,新規,0,2025-12-05,2025-12-05,合同会社ＥＭＩＬＹ,,合同会社,東京都,新宿区,大京町１２番地６雨宮ハイツ２０１,,13,104,1600015,,,,,,,2025-12-05,1,,,,,エミリー,0
647,3011803007186,新規,0,2025-12-05,2025-12-05,合同会社Ｙ２,,合同会社,東京都,足立区,関原１丁目６番２９－２０３号,,13,121,1230852,,,,,,,2025-12-05,1,,,,,ワイツー,0
650,3012401043895,新規,0,2025-12-05,2025-12-05,株式会社クラフト,,株式会社,東京都,武蔵野市,吉祥寺本町１丁目１８番３号サニーシティ吉祥寺９０５号室,,13,203,1800004,,,,,,,2025-12-05,1,,,,,クラフト,0
651,3012403007477,新規,0,2025-12-05,2025-12-05,合同会社オリーブ産業医オフィス,,合同会社,東京都,三鷹市,井の頭３丁目５－４,,13,204,1810001,,,,,,,2025-12-05,1,,,,,オリーブサンギョウイオフィス,0
660,3013301055428,新規,0,2025-12-05,2025-12-05,ＬＳＧ株式会社,,株式会社,東京都,豊島区,南大塚２丁目２５番１５号,,13,116,1700005,,,,,,,2025-12-05,1,,,,,エルエスジー,0
673,3021003016879,新規,0,2025-12-05,2025-12-05,コンパウンド合同会社,,合同会社,神奈川県,相模原市緑区,下九沢２８６番地３７,,14,151,2520134,,,,,,,2025-12-05,1,,,,,コンパウンド,0
681,3030001169911,新規,0,2025-12-05,2025-12-05,Ｄｒｏｐｓ　Ｔｅｃｈｎｉｃａ株式会社,,株式会社,埼玉県,戸田市,新曽南２丁目４番９号,,11,224,3350026,,,,,,,2025-12-05,1,,,,,ドロップステクニカ,0
682,3030001169960,新規,0,2025-12-05,2025-12-05,株式会社Ｓｔｕｄｉｏ　Ｃｈｌｏｒｏｓ,,株式会社,埼玉県,川越市,東田町４－３２６,,11,201,3501114,,,,,,,2025-12-05,1,,,,,スタジオクロロス,0
683,3030001169969,新規,0,2025-12-05,2025-12-05,りんこうファシリティーズ株式会社,,株式会社,埼玉県,比企郡川島町,大字下伊草３０９番地２セトル・ビエント１０１号室,,11,346,3500157,,,,,,,2025-12-05,1,,,,,リンコウファシリティーズ,0
687,3030003028215,新規,0,2025-12-05,2025-12-05,合同会社Ｍ＆Ｙ,,合同会社,埼玉県,熊谷市,妻沼２４０９番地３,,11,202,3600201,,,,,,,2025-12-05,1,,,,,エムアンドワイ,0
688,3030005022348,新規,0,2025-12-05,2025-12-05,一般社団法人Ａｓａｋａ　Ｉｓｌａｍｉｃ　Ｃｕｌｔｕｒａｌ　Ｃｅｎｔｅｒ,,その他の設立登記法人,埼玉県,朝霞市,北原２丁目１２－３０大平ビル１階,,11,227,3510036,,,,,,,2025-12-05,1,,,,,アサカイスラミックカルチャーセンター,0
692,3040001141613,新規,0,2025-12-05,2025-12-05,Ｂｌｏｏｍｉｎ　Ｐａｒｔｎｅｒｓ株式会社,,株式会社,千葉県,白井市,根８００－１６５,,12,232,2701431,,,,,,,2025-12-05,1,,,,,ブルーミンパートナーズ,0
693,3040001141638,新規,0,2025-12-05,2025-12-05,株式会社ＰＩＬＩＮＡ,,株式会社,千葉県,千葉市中央区,蘇我４丁目２番６号,,12,101,2600822,,,,,,,2025-12-05,1,,,,,ピリナ,0
694,3040001141654,新規,0,2025-12-05,2025-12-05,株式会社ＭＩＹＡＢＩ,,株式会社,千葉県,長生郡長生村,一松丙４２５３番地,,12,423,2994325,,,,,,,2025-12-05,1,,,,,ミヤビ,0
695,3040001141670,新規,0,2025-12-05,2025-12-05,株式会社広尾リフォームサービス,,株式会社,千葉県,東金市,道庭３５０番地５,,12,213,2830003,,,,,,,2025-12-05,1,,,,,ヒロオリフォームサービス,0
696,3040001141687,新規,0,2025-12-05,2025-12-05,株式会社Ａ‐ＮＥＳＴ,,株式会社,千葉県,我孫子市,高野山２９８サンヴィレＢ－２０２,,12,222,2701145,,,,,,,2025-12-05,1,,,,,エーネスト,0
698,3040003029088,新規,0,2025-12-05,2025-12-05,合同会社ｃｏｍｐａｓｓ,,合同会社,千葉県,柏市,あかね町１６番９号,,12,217,2770027,,,,,,,2025-12-05,1,,,,,コンパス,0
699,3040003029096,新規,0,2025-12-05,2025-12-05,合同会社一睦,,合同会社,千葉県,千葉市中央区,大巌寺町３３４番地４１,,12,101,2600812,,,,,,,2025-12-05,1,,,,,カズチカ,0
704,3050003009799,新規,0,2025-12-05,2025-12-05,ダイレクトコネクト合同会社,,合同会社,茨城県,つくば市,春日１丁目２番地１２筑波大学春日宿舎２‐３０５,,08,220,3050821,,,,,,,2025-12-05,1,,,,,ダイレクトコネクト,0
706,3080001027313,新規,0,2025-12-05,2025-12-05,株式会社駿河の源さん,,株式会社,静岡県,静岡市清水区,草薙１３１３番地の６,,22,103,4240886,,,,,,,2025-12-05,1,,,,,スルガノゲンサン,0
708,3080003003618,新規,0,2025-12-05,2025-12-05,合同会社あめいろ,,合同会社,静岡県,静岡市清水区,楠２５８番地の３,,22,103,4240881,,,,,,,2025-12-05,1,,,,,アメイロ,0
711,3080401028282,新規,0,2025-12-05,2025-12-05,株式会社あいあい,,株式会社,静岡県,浜松市中央区,富塚町８１４番地の１４,,22,138,4328002,,,,,,,2025-12-05,1,,,,,アイアイ,0
713,3100001039181,新規,0,2025-12-05,2025-12-05,富士見解体株式会社,,株式会社,長野県,諏訪郡富士見町,落合５００１番地３,,20,362,3990214,,,,,,,2025-12-05,1,,,,,フジミカイタイ,0
714,3110001039767,新規,0,2025-12-05,2025-12-05,ＴＳホールディングス株式会社,,株式会社,新潟県,長岡市,旭岡１丁目１番地,,15,202,9400840,,,,,,,2025-12-05,1,,,,,ティーエスホールディングス,0
715,3110001039775,新規,0,2025-12-05,2025-12-05,佐藤鉄筋株式会社,,株式会社,新潟県,南魚沼市,長崎１０７２番地２,,15,226,9496545,,,,,,,2025-12-05,1,,,,,サトウテッキン,0
735,3120001282515,新規,0,2025-12-05,2025-12-05,イヨウ株式会社,,株式会社,大阪府,大阪市西成区,梅南３丁目４－２２,,27,122,5570033,,,,,,,2025-12-05,1,,,,,イヨウ,0
736,3120001282523,新規,0,2025-12-05,2025-12-05,株式会社Ｎ．Ｓ．ＷＥＬＤ,,株式会社,大阪府,大阪市大正区,北恩加島１丁目２番２０号,,27,108,5510033,,,,,,,2025-12-05,1,,,,,エヌエスウエルド,0
737,3120001282556,新規,0,2025-12-05,2025-12-05,アムニスコア株式会社,,株式会社,大阪府,大阪市浪速区,湊町２丁目２－５－２２１５号室なんばセントラルプラザリバーガーデン,,27,111,5560017,,,,,,,2025-12-05,1,,,,,アムニスコア,0
738,3120001282606,新規,0,2025-12-05,2025-12-05,株式会社Ｅｃｈｅｌｏｎ　Ｌａｂｓ,,株式会社,大阪府,大阪市福島区,福島５丁目６番３１号,,27,103,5530003,,,,,,,2025-12-05,1,,,,,エシュロンラボ,0
740,3120003031283,新規,0,2025-12-05,2025-12-05,和田合同会社,,合同会社,大阪府,大阪市中央区,瓦屋町２丁目１２－１５－９１９,,27,128,5420066,,,,,,,2025-12-05,1,,,,,ワダ,0
742,3120005025291,新規,0,2025-12-05,2025-12-05,一般社団法人わたがし,,その他の設立登記法人,大阪府,大阪市北区,梅田１丁目２番２号大阪駅前第２ビル１２－１２,,27,127,5300001,,,,,,,2025-12-05,1,,,,,ワタガシ,0
744,3120101072898,新規,0,2025-12-05,2025-12-05,株式会社ＭＵＳＵＢＩ,,株式会社,大阪府,南河内郡河南町,大字加納６５２番地の２,,27,382,5850012,,,,,,,2025-12-05,1,,,,,ムスビ,0
745,3120101072907,新規,0,2025-12-05,2025-12-05,株式会社モピア,,株式会社,大阪府,泉大津市,下条町４番６号,,27,206,5950027,,,,,,,2025-12-05,1,,,,,モピア,0
748,3120901051894,新規,0,2025-12-05,2025-12-05,東陽清和株式会社,,株式会社,大阪府,箕面市,彩都粟生北３丁目７番６２号,,27,220,5620029,,,,,,,2025-12-05,1,,,,,トウヨウセイワ,0
749,3120901051911,新規,0,2025-12-05,2025-12-05,株式会社グランツ,,株式会社,大阪府,茨木市,舟木町９番２６－１００７号,,27,211,5670828,,,,,,,2025-12-05,1,,,,,グランツ,0
752,3130003010963,新規,0,2025-12-05,2025-12-05,合同会社ＡＲＩＫＵＩ,,合同会社,京都府,京都市下京区,大黒町２２７番地第２キョートビル４０２,,26,106,6008043,,,,,,,2025-12-05,1,,,,,アリクイ,0
753,3130003010996,新規,0,2025-12-05,2025-12-05,合同会社ＡＲＴＯＳ,,合同会社,京都府,京都市北区,上賀茂津ノ国町２２番地９,,26,101,6038027,,,,,,,2025-12-05,1,,,,,アルトス,0
754,3130005017528,新規,0,2025-12-05,2025-12-05,一般社団法人日本チベット仏教およびチベット文化の芸術交流センター,,その他の設立登記法人,京都府,京都市下京区,都市町１４１番地７－４Ｆ,,26,106,6008111,,,,,,,2025-12-05,1,,,,,ニホンチベットブッキョウオヨビチベットブンカノゲイジュツコウリュウセンター,0
760,3140001140992,新規,0,2025-12-05,2025-12-05,株式会社川上,,株式会社,兵庫県,姫路市,北条５８４番地１３,,28,201,6700947,,,,,,,2025-12-05,1,,,,,カワカミ,0
763,3140003022941,新規,0,2025-12-05,2025-12-05,合同会社ＤＥＭＡＮＤ,,合同会社,兵庫県,姫路市,青山西２丁目１７番１－１０６シャトー三和青山,,28,201,6712224,,,,,,,2025-12-05,1,,,,,デマンド,0
768,3150005009746,新規,0,2025-12-05,2025-12-05,一般社団法人Ｌ・Ｔｒｅｅ,,その他の設立登記法人,奈良県,奈良市,左京４丁目１０番地の７,,29,201,6310801,,,,,,,2025-12-05,1,,,,,エルツリー,0
778,3180001169789,新規,0,2025-12-05,2025-12-05,株式会社ＪＫ　ＩＮＴＥＲＮＡＴＩＯＮＡＬ,,株式会社,愛知県,海部郡蟹江町,本町９丁目５３鈴木マンション２０３,,23,425,4970034,,,,,,,2025-12-05,1,,,,,ジェーケーインターナショナル,0
779,3180001169797,新規,0,2025-12-05,2025-12-05,株式会社ＨＯＴ　ＢＯＸ,,株式会社,愛知県,名古屋市中区,栄４丁目８番３３号,,23,106,4600008,,,,,,,2025-12-05,1,,,,,ホットボックス,0
780,3180001169814,新規,0,2025-12-05,2025-12-05,株式会社ＪＣＳ,,株式会社,愛知県,名古屋市天白区,御幸山１５１５番地の３,,23,116,4680075,,,,,,,2025-12-05,1,,,,,ジェイシーエス,0
781,3180001169822,新規,0,2025-12-05,2025-12-05,エルムアセット株式会社,,株式会社,愛知県,名古屋市中川区,八家町２丁目１６５番地,,23,110,4540835,,,,,,,2025-12-05,1,,,,,エルムアセット,0
783,3180003029454,新規,0,2025-12-05,2025-12-05,合同会社ＮＯＮ,,合同会社,愛知県,一宮市,開明字畑添９番地３,,23,203,4940001,,,,,,,2025-12-05,1,,,,,ノン,0
784,3180003029470,新規,0,2025-12-05,2025-12-05,合同会社篁月舎,,合同会社,愛知県,半田市,広小路町１５３番地の１０,,23,205,4750857,,,,,,,2025-12-05,1,,,,,コウゲツシャ,0
787,3180301040476,新規,0,2025-12-05,2025-12-05,株式会社インテグラル,,株式会社,愛知県,岡崎市,欠町字三田田北通２３番地１６,,23,202,4440011,,,,,,,2025-12-05,1,,,,,インテグラル,0
788,3180301040484,新規,0,2025-12-05,2025-12-05,株式会社ＭｉｚｕＤｅｎ,,株式会社,愛知県,豊川市,四ツ谷町１丁目５３番地２,,23,207,4420839,,,,,,,2025-12-05,1,,,,,ミズデン,0
790,3180303006830,新規,0,2025-12-05,2025-12-05,合同会社ＢｒｉｔｃＨ,,合同会社,愛知県,安城市,和泉町中北６２番地１,,23,212,4441221,,,,,,,2025-12-05,1,,,,,ブリッチ,0
792,3200001044502,新規,0,2025-12-05,2025-12-05,株式会社トラストアップ,,株式会社,岐阜県,安八郡神戸町,大字神戸１１１２番地の１,,21,381,5032305,,,,,,,2025-12-05,1,,,,,トラストアップ,0
793,3210001020411,新規,0,2025-12-05,2025-12-05,株式会社あいりぃ,,株式会社,福井県,鯖江市,吉江町４０５番地,,18,207,9160001,,,,,,,2025-12-05,1,,,,,アイリィ,0
794,3220001027059,新規,0,2025-12-05,2025-12-05,磯部商事株式会社,,株式会社,石川県,河北郡内灘町,白帆台２丁目４５１番地レオネクスト白帆台１０１号室,,17,365,9200269,,,,,,,2025-12-05,1,,,,,イソベショウジ,0
797,3240001065882,新規,0,2025-12-05,2025-12-05,株式会社ＢＫ商事,,株式会社,広島県,尾道市,新浜２丁目５番５号,,34,205,7220014,,,,,,,2025-12-05,1,,,,,ビーケーショウジ,0
798,3240003007511,新規,0,2025-12-05,2025-12-05,合同会社セティエム,,合同会社,広島県,広島市佐伯区,五日市中央１丁目１７番８号１０３号室,,34,108,7315128,,,,,,,2025-12-05,1,,,,,セティエム,0
800,3270001009341,新規,0,2025-12-05,2025-12-05,株式会社ＲｅＢａ,,株式会社,鳥取県,倉吉市,山根５３８番地７,,31,203,6820023,,,,,,,2025-12-05,1,,,,,リーバ,0
801,3270003001817,新規,0,2025-12-05,2025-12-05,合同会社ＬＢＫ,,合同会社,鳥取県,鳥取市,湖山町北４丁目７４３番地,,31,201,6800941,,,,,,,2025-12-05,1,,,,,エルビーケー,0
808,3290001112333,新規,0,2025-12-05,2025-12-05,株式会社ＴｏｍｏａＺ,,株式会社,福岡県,福岡市中央区,天神２丁目２番１２号Ｔ＆Ｊビルディング７Ｆ,,40,133,8100001,,,,,,,2025-12-05,1,,,,,トモアズ,0
809,3290001112374,新規,0,2025-12-05,2025-12-05,株式会社ｍｉＮＡｍｏ,,株式会社,福岡県,久留米市,南２丁目１５番５２号,,40,203,8300051,,,,,,,2025-12-05,1,,,,,ミナモ,0
812,3300001014429,新規,0,2025-12-05,2025-12-05,株式会社ジュネスト,,株式会社,佐賀県,西松浦郡有田町,南原甲４６５番地１,,41,401,8440027,,,,,,,2025-12-05,1,,,,,ジュネスト,0
813,3310001019880,新規,0,2025-12-05,2025-12-05,株式会社ＳＥＲＰＥＮＴＩ,,株式会社,長崎県,長崎市,川口町７番１７号,,42,201,8528108,,,,,,,2025-12-05,1,,,,,セルペンティ,0
815,3320001021472,新規,0,2025-12-05,2025-12-05,陽向団株式会社,,株式会社,大分県,日田市,本庄町１番１３号,,44,204,8770046,,,,,,,2025-12-05,1,,,,,ヒナタマル,0
819,3330001033806,新規,0,2025-12-05,2025-12-05,株式会社ハルブランディング,,株式会社,熊本県,熊本市東区,下江津８丁目７番１３号,,43,102,8620960,,,,,,,2025-12-05,1,,,,,ハルブランディング,0
842,3390001018173,新規,0,2025-12-05,2025-12-05,株式会社Ｓ．Ｋ,,株式会社,山形県,山形市,飯田４丁目５番３３号,,06,201,9902332,,,,,,,2025-12-05,1,,,,,エスケー,0
843,3390001018181,新規,0,2025-12-05,2025-12-05,株式会社丸の内ＨＤ,,株式会社,山形県,寒河江市,高田３丁目８４番地の１,,06,206,9910013,,,,,,,2025-12-05,1,,,,,マルノウチホールディングス,0
847,3420001019358,新規,0,2025-12-05,2025-12-05,株式会社Ｓｐｒｅａｄ　ｏｕｔ,,株式会社,青森県,八戸市,大字十六日町１７番地マイビル４０５,,02,203,0310043,,,,,,,2025-12-05,1,,,,,スプレッドアウト,0
853,3430003018398,新規,0,2025-12-05,2025-12-05,Ｙ’ｓ　Ｓｔａｙ合同会社,,合同会社,北海道,札幌市北区,北十六条西３丁目２－２６－２０２,,01,102,0010016,,,,,,,2025-12-05,1,,,,,ワイズステイ,0
855,3480005007114,新規,0,2025-12-05,2025-12-05,医療法人おおぐし眼科,,その他の設立登記法人,徳島県,阿波市,吉野町西条字岡ノ川原２２番地,,36,206,7711402,,,,,,,2025-12-05,1,,,,,オオグシガンカ,0
860,3500003003640,新規,0,2025-12-05,2025-12-05,合同会社ＳＥＩＷＡ,,合同会社,愛媛県,松山市,太山寺町８９４番地７１,,38,201,7992662,,,,,,,2025-12-05,1,,,,,セイワ,0
862,3700150133204,新規,0,2025-12-05,2025-12-05,ネスレ健康保険組合,,その他,兵庫県,神戸市中央区,御幸通７丁目１番１５号,,28,110,6510087,,,,,,,2025-12-05,1,,,,,ネスレケンコウホケンクミアイ,0
863,3700150133212,新規,0,2025-12-05,2025-12-05,東光高岳健康保険組合,,その他,東京都,江東区,豊洲５丁目６番３６号,,13,108,1350061,,,,,,,2025-12-05,1,,,,,トウコウタカオカケンコウホケンクミアイ,0
870,4010001260720,新規,0,2025-12-05,2025-12-05,株式会社ｘＨＥＡＲＴ,,株式会社,東京都,中央区,銀座１丁目１２番４号Ｎ＆ＥＢＬＤ．６Ｆ,,13,102,1040061,,,,,,,2025-12-05,1,,,,,クロスハート,0
871,4010001260836,新規,0,2025-12-05,2025-12-05,砂と風株式会社,,株式会社,東京都,千代田区,内幸町２丁目２番３号日比谷国際ビル１８階,,13,101,1000011,,,,,,,2025-12-05,1,,,,,スナトカゼ,0
872,4010001260860,新規,0,2025-12-05,2025-12-05,株式会社ＷＳＡ,,株式会社,東京都,中央区,銀座６丁目７番６号,,13,102,1040061,,,,,,,2025-12-05,1,,,,,ダブリューエスエー,0
873,4010001260885,新規,0,2025-12-05,2025-12-05,株式会社ＣｌｅａｒＶｅｓｔ,,株式会社,東京都,中央区,銀座１丁目１２－４Ｎ＆ＥＢＬＤ．７階,,13,102,1040061,,,,,,,2025-12-05,1,,,,,クリアヴェスト,0
874,4010001260951,新規,0,2025-12-05,2025-12-05,ＰＭ　Ｂｅｅ株式会社,,株式会社,東京都,千代田区,九段北１丁目３号１号ＶＯＲＴ九段下５Ｆ,,13,101,1020073,,,,,,,2025-12-05,1,,,,,ピーエムビー,0
875,4010001260976,新規,0,2025-12-05,2025-12-05,株式会社エス・アイ・コーポレート,,株式会社,東京都,中央区,銀座５丁目９番１７号,,13,102,1040061,,,,,,,2025-12-05,1,,,,,,0
876,4010003049609,新規,0,2025-12-05,2025-12-05,ＷＨＩＰＬＡＳＨ．合同会社,,合同会社,東京都,中央区,日本橋馬喰町１丁目２番５号アトラス日本橋鞍掛１０１,,13,102,1030002,,,,,,,2025-12-05,1,,,,,,0
888,4010401194700,新規,0,2025-12-05,2025-12-05,Ｃｏｃｏｒｏ株式会社,,株式会社,東京都,港区,三田２丁目２１－１３,,13,103,1080073,,,,,,,2025-12-05,1,,,,,ココロ,0
889,4010401194980,新規,0,2025-12-05,2025-12-05,六本木吸収分割株式会社,,株式会社,東京都,港区,六本木７丁目７番７号,,13,103,1060032,,,,,,,2025-12-05,1,,,,,ロッポンギキュウシュウブンカツ,0
890,4010401194989,新規,0,2025-12-05,2025-12-05,株式会社ＢｉｏＣｏａｌ　Ｓｏｌｕｔｉｏｎ　Ｊａｐａｎ,,株式会社,東京都,港区,南青山２丁目２番１５号ウィン青山９４２,,13,103,1070062,,,,,,,2025-12-05,1,,,,,バイオコールソリューションジャパン,0
892,4010403036702,新規,0,2025-12-05,2025-12-05,ＧＴＯ１インベストメント合同会社,,合同会社,東京都,港区,虎ノ門３丁目２２番１０－２０１号,,13,103,1050001,,,,,,,2025-12-05,1,,,,,ジーティーオーワンインベストメント,0
897,4010503008106,新規,0,2025-12-05,2025-12-05,合同会社ＰＯＬＹＰＨＯＮＹ　ＷＯＲＫＳ,,合同会社,東京都,台東区,上野１丁目１７－６広小路ビル８Ｆ－Ｂ,,13,106,1100005,,,,,,,2025-12-05,1,,,,,ポリフォニーワークス,0
899,4010701048688,新規,0,2025-12-05,2025-12-05,ＡｕｔｏＺｅｎ　Ｉｎｔｅｒｎａｔｉｏｎａｌ株式会社,,株式会社,東京都,品川区,東品川２丁目２番４号天王洲ファーストタワー天翔オフィス天王洲ファーストタワー７階７１６号室,,13,109,1400002,,,,,,,2025-12-05,1,,,,,オートゼンインターナショナル,0
902,4010801036840,新規,0,2025-12-05,2025-12-05,株式会社ポンド,,株式会社,東京都,大田区,南千束３丁目３２番１号３階,,13,111,1450063,,,,,,,2025-12-05,1,,,,,ポンド,0
909,4011001173904,新規,0,2025-12-05,2025-12-05,株式会社ミライミー,,株式会社,東京都,渋谷区,道玄坂１丁目１０番８号渋谷道玄坂東急ビル２Ｆ－Ｃ,,13,113,1500043,,,,,,,2025-12-05,1,,,,,ミライミー,0
910,4011001173920,新規,0,2025-12-05,2025-12-05,株式会社ＱｕｂｅＢａｓｅ,,株式会社,東京都,渋谷区,道玄坂１丁目１０番８号渋谷道玄坂東急ビル２Ｆ－Ｃ,,13,113,1500043,,,,,,,2025-12-05,1,,,,,キューブベース,0
911,4011001173978,新規,0,2025-12-05,2025-12-05,ヒバチ株式会社,,株式会社,東京都,渋谷区,神南１丁目１１－４ＦＰＧリンクス神南５ｆ,,13,113,1500041,,,,,,,2025-12-05,1,,,,,ヒバチ,0
912,4011001174051,新規,0,2025-12-05,2025-12-05,株式会社姜商事,,株式会社,東京都,渋谷区,道玄坂１丁目２２番９号ＡＤ－Ｏ渋谷道玄坂３階,,13,113,1500043,,,,,,,2025-12-05,1,,,,,カンショウジ,0
913,4011001174101,新規,0,2025-12-05,2025-12-05,Ｓｃａｌｅ　Ｐａｒｔｎｅｒｓ株式会社,,株式会社,東京都,渋谷区,道玄坂１丁目１０番８号渋谷道玄坂東急ビル２Ｆ－Ｃ,,13,113,1500043,,,,,,,2025-12-05,1,,,,,スケールパートナーズ,0
914,4011001174134,新規,0,2025-12-05,2025-12-05,日本住宅ローングループ株式会社,,株式会社,東京都,渋谷区,代々木２丁目１番１号,,13,113,1510053,,,,,,,2025-12-05,1,,,,,ニホンジュウタクローン,0
915,4011001174150,新規,0,2025-12-05,2025-12-05,株式会社５０ＳＴＯＲＭ,,株式会社,東京都,渋谷区,道玄坂１丁目１０番８号渋谷道玄坂東急ビル２Ｆ－Ｃ,,13,113,1500043,,,,,,,2025-12-05,1,,,,,フィフティーストーム,0
916,4011001174274,新規,0,2025-12-05,2025-12-05,ＪＴＥ株式会社,,株式会社,東京都,渋谷区,恵比寿西２丁目４番８号ウィンド恵比寿ビル８Ｆ,,13,113,1500021,,,,,,,2025-12-05,1,,,,,ジェーティーイー,0
926,4011201026829,新規,0,2025-12-05,2025-12-05,株式会社ＢＡＮＭＩＫＡＳ,,株式会社,東京都,中野区,東中野５丁目２０番７ー５２１号,,13,114,1640003,,,,,,,2025-12-05,1,,,,,バンミカス,0
933,4011601029217,新規,0,2025-12-05,2025-12-05,株式会社Ｃｏｒｅａｌｉａ,,株式会社,東京都,練馬区,豊玉北２丁目１８－５－２０２,,13,120,1760012,,,,,,,2025-12-05,1,,,,,コアリア,0
934,4011603004944,新規,0,2025-12-05,2025-12-05,合同会社Ｓｅｍｅｉａ,,合同会社,東京都,練馬区,土支田１丁目３５番６号,,13,120,1790076,,,,,,,2025-12-05,1,,,,,セメイア,0
941,4011801047134,新規,0,2025-12-05,2025-12-05,株式会社Ｋｉｎ＆Ｆａｍｉｌｙ,,株式会社,東京都,足立区,西新井栄町１丁目１８番１１－１４０８号,,13,121,1230843,,,,,,,2025-12-05,1,,,,,キンアンドファミリー,0
942,4011801047142,新規,0,2025-12-05,2025-12-05,株式会社ＡＲＫｅ,,株式会社,東京都,足立区,椿２丁目１５番１０号,,13,121,1230871,,,,,,,2025-12-05,1,,,,,アーク,0
948,4012801024404,新規,0,2025-12-05,2025-12-05,中谷機工株式会社,,株式会社,東京都,武蔵村山市,学園４丁目７番地の４１,,13,223,2080011,,,,,,,2025-12-05,1,,,,,ナカタニキコウ,0
949,4013103001513,新規,0,2025-12-05,2025-12-05,合同会社ひとつふたつ,,合同会社,東京都,青梅市,長淵４丁目４１１－１,,13,205,1980052,,,,,,,2025-12-05,1,,,,,ヒトツフタツ,0
962,4020001166116,新規,0,2025-12-05,2025-12-05,株式会社ウェルナベース,,株式会社,神奈川県,横浜市神奈川区,西神奈川１丁目２０番地６ＫＦクロス２Ｆ号室,,14,102,2210822,,,,,,,2025-12-05,1,,,,,ウェルナベース,0
968,4020003029907,新規,0,2025-12-05,2025-12-05,合同会社ｓｏｒａ,,合同会社,神奈川県,横浜市金沢区,大川７番９－１０７号,,14,108,2360043,,,,,,,2025-12-05,1,,,,,ソラ,0
976,4021003016894,新規,0,2025-12-05,2025-12-05,Ｇｌｏｂａｌ　ｗｅｌｌｓ　Ｊａｐａｎ合同会社,,合同会社,神奈川県,鎌倉市,関谷１７３１,,14,204,2470075,,,,,,,2025-12-05,1,,,,,グローバルウェルズジャパン,0
985,4030001169893,新規,0,2025-12-05,2025-12-05,株式会社山中,,株式会社,埼玉県,川口市,在家町２７番１３号アマーブレＩＩ１０１号室,00141746,11,203,3330863,,,,,,,2025-12-05,1,,,,,ヤマチュウ,0
986,4030001169927,新規,0,2025-12-05,2025-12-05,株式会社翔人,,株式会社,埼玉県,さいたま市緑区,大字三室２１２３番地１明星館Ｉ１０３,00141752,11,109,3360911,,,,,,,2025-12-05,1,,,,,ショウト,0
987,4030001169943,新規,0,2025-12-05,2025-12-05,株式会社松野製作所,,株式会社,埼玉県,新座市,野寺５丁目３番４２－４号,,11,230,3520034,,,,,,,2025-12-05,1,,,,,マツノセイサクショ,0
988,4030001169992,新規,0,2025-12-05,2025-12-05,株式会社アルケミスト,,株式会社,埼玉県,ふじみ野市,桜ケ丘１丁目３７番３７号,,11,245,3560059,,,,,,,2025-12-05,1,,,,,アルケミスト,0
994,4040001141645,新規,0,2025-12-05,2025-12-05,株式会社ＭＵＣＨＵ,,株式会社,千葉県,四街道市,和良比２４５番地９中島ビル２０５号,,12,228,2840044,,,,,,,2025-12-05,1,,,,,ムチュウ,0
995,4040001141661,新規,0,2025-12-05,2025-12-05,株式会社陽光ホールディングス,,株式会社,千葉県,市川市,奉免町８８番地,,12,203,2720803,,,,,,,2025-12-05,1,,,,,ヨウコウホールディングス,0
996,4040001141678,新規,0,2025-12-05,2025-12-05,株式会社ＫＴＦ　ＢＡＳＥ,,株式会社,千葉県,市原市,瀬又９２６番地１０２,,12,219,2900151,,,,,,,2025-12-05,1,,,,,ケイティエフベース,0
999,4040003029087,新規,0,2025-12-05,2025-12-05,ＴＯＫＹＯ　ＣＨＡＲＭＳ合同会社,,合同会社,千葉県,千葉市緑区,誉田町２丁目１６番地３,,12,105,2660005,,,,,,,2025-12-05,1,,,,,トウキョウチャームズ,0
1000,4040005022965,新規,0,2025-12-05,2025-12-05,Ｓ．Ｃ．Ｊ協同組合,,その他の設立登記法人,千葉県,松戸市,松戸４７３番地の６,,12,207,2710092,,,,,,,2025-12-05,1,,,,,エスシージェイ,0
1002,4050001057659,新規,0,2025-12-05,2025-12-05,スポーツアイス株式会社,,株式会社,茨城県,つくば市,吾妻２丁目５番地１,,08,220,3050031,,,,,,,2025-12-05,1,,,,,スポーツアイス,0
1003,4050001057683,新規,0,2025-12-05,2025-12-05,株式会社河原井クリーン,,株式会社,茨城県,水戸市,袴塚１丁目６番２６号,,08,201,3100055,,,,,,,2025-12-05,1,,,,,カワライクリーン,0
1006,4060003005879,新規,0,2025-12-05,2025-12-05,合同会社春吉,,合同会社,栃木県,栃木市,大平町富田３７５番地４サカエハイツＩＩ２０５号室,00141748,09,203,3294404,,,,,,,2025-12-05,1,,,,,ハルヨシ,0
1011,4070001043608,新規,0,2025-12-05,2025-12-05,株式会社シドニーコンサルティング,,株式会社,群馬県,高崎市,下之城町８１２番地１５,,10,202,3700854,,,,,,,2025-12-05,1,,,,,シドニーコンサルティング,0
1014,4080003003609,新規,0,2025-12-05,2025-12-05,東海総合商会合同会社,,合同会社,静岡県,静岡市葵区,安倍口新田字仲川原１３５番地８,,22,101,4212114,,,,,,,2025-12-05,1,,,,,トウカイソウゴウショウカイ,0
1015,4080003003617,新規,0,2025-12-05,2025-12-05,合同会社Ｆ＆Ｙ　ＣＯＭＰＡＮＩＥＳ,,合同会社,静岡県,静岡市清水区,北脇３３９番地の１,,22,103,4240052,,,,,,,2025-12-05,1,,,,,エフアンドワイカンパニーズ,0
1017,4080101025942,新規,0,2025-12-05,2025-12-05,株式会社ＣｏｃｏＹｏｕｒ,,株式会社,静岡県,三島市,沢地９７番地の１２,,22,206,4110043,,,,,,,2025-12-05,1,,,,,ココユアー,0
1018,4080105006550,新規,0,2025-12-05,2025-12-05,一般社団法人大淵二丁目ささば景観保存会,,その他の設立登記法人,静岡県,富士市,大淵１３７６番地１,,22,210,4170801,,,,,,,2025-12-05,1,,,,,オオブチニチョウメササバケイカンホゾンカイ,0
1024,4080401028298,新規,0,2025-12-05,2025-12-05,株式会社三光組,,株式会社,静岡県,浜松市浜名区,内野１７５１番地,,22,139,4340044,,,,,,,2025-12-05,1,,,,,サンコウグミ,0
1032,4100001039172,新規,0,2025-12-05,2025-12-05,株式会社２ｎｄクリエイト,,株式会社,長野県,長野市,大字川合新田９３９番地,,20,201,3800913,,,,,,,2025-12-05,1,,,,,セカンドクリエイト,0
1035,4100003008506,新規,0,2025-12-05,2025-12-05,片桐合原３合同会社,,合同会社,長野県,長野市,大字安茂里５２６番地２１７,,20,201,3800941,,,,,,,2025-12-05,1,,,,,カタギリゴウハラサン,0
1045,4120003031373,新規,0,2025-12-05,2025-12-05,合同会社シンフォニー,,合同会社,大阪府,大阪市淀川区,田川２丁目５－６０,,27,123,5320027,,,,,,,2025-12-05,1,,,,,シンフォニー,0
1046,4120003031407,新規,0,2025-12-05,2025-12-05,合同会社晴耕雨読らぼ,,合同会社,大阪府,大阪市北区,梅田１丁目１‐３大阪駅前第３ビル２９階１‐１‐１号室,,27,127,5300001,,,,,,,2025-12-05,1,,,,,セイコウウドクラボ,0
1052,4120101072906,新規,0,2025-12-05,2025-12-05,株式会社石川,,株式会社,大阪府,堺市堺区,大町東３丁２－６－１０１,,27,141,5900954,,,,,,,2025-12-05,1,,,,,イシカワ,0
1054,4120901051893,新規,0,2025-12-05,2025-12-05,京南物流株式会社,,株式会社,大阪府,茨木市,豊原町８番３号,,27,211,5670053,,,,,,,2025-12-05,1,,,,,キョウナンブツリュウ,0
1055,4120901051902,新規,0,2025-12-05,2025-12-05,ブライトマインズ株式会社,,株式会社,大阪府,摂津市,鳥飼八防１丁目２０番７号,,27,224,5660054,,,,,,,2025-12-05,1,,,,,ブライトマインズ,0
1056,4120901051919,新規,0,2025-12-05,2025-12-05,株式会社ＴＡＴＡＭＩ,,株式会社,大阪府,豊中市,利倉２丁目１３番３３号,,27,203,5610845,,,,,,,2025-12-05,1,,,,,タタミ,0
1058,4122001039976,新規,0,2025-12-05,2025-12-05,株式会社ハルニカ,,株式会社,大阪府,東大阪市,西石切町１丁目３番４４号,,27,227,5798013,,,,,,,2025-12-05,1,,,,,ハルニカ,0
1064,4130001081056,新規,0,2025-12-05,2025-12-05,株式会社スパロウ,,株式会社,京都府,向日市,寺戸町小佃５－１グランマークシティ東向日駅前３１４,,26,208,6170002,,,,,,,2025-12-05,1,,,,,スパロウ,0
1065,4130001081139,新規,0,2025-12-05,2025-12-05,和都リアルティ株式会社,,株式会社,京都府,京都市南区,久世大藪町８番地２２,,26,107,6010000,,,,,,,2025-12-05,1,,,,,ワトリアルティ,0
1072,4140001140959,新規,0,2025-12-05,2025-12-05,株式会社３９Ｓｋｙ　Ａｆｒｏ,,株式会社,兵庫県,神戸市西区,井吹台東町５丁目５８番地の１,,28,111,6512242,,,,,,,2025-12-05,1,,,,,サンキュースカイアフロ,0
1073,4140001141024,新規,0,2025-12-05,2025-12-05,株式会社ＵＮＩＯＮ　ＰＲＯＤＵＣＴＳ,,株式会社,兵庫県,神戸市中央区,元町通６丁目２番３４－５０１号,,28,110,6500022,,,,,,,2025-12-05,1,,,,,ユニオンプロダクツ,0
1081,4150001028583,新規,0,2025-12-05,2025-12-05,株式会社平群久八,,株式会社,奈良県,生駒郡平群町,大字椿井１１９８番地,,29,342,6360911,,,,,,,2025-12-05,1,,,,,ヘグリキュウハチ,0
1084,4160001027262,新規,0,2025-12-05,2025-12-05,株式会社ＣＲＥＡＴＥＰＡＲＴＳ,,株式会社,滋賀県,大津市,あかね町１０番８号,,25,201,5200003,,,,,,,2025-12-05,1,,,,,クリエイトパーツ,0
1085,4160001027270,新規,0,2025-12-05,2025-12-05,株式会社ユーテック,,株式会社,滋賀県,甲賀市,土山町大野２６４５番地３,,25,209,5280235,,,,,,,2025-12-05,1,,,,,ユーテック,0
1086,4170001018905,新規,0,2025-12-05,2025-12-05,株式会社Ｒ,,株式会社,和歌山県,海南市,名高４５１番地２７,,30,202,6420032,,,,,,,2025-12-05,1,,,,,アール,0
1094,4180001169739,新規,0,2025-12-05,2025-12-05,株式会社ロイヤルロジスティクス,,株式会社,愛知県,名古屋市中区,栄２丁目１１番３０号,,23,106,4600008,,,,,,,2025-12-05,1,,,,,ロイヤルロジスティクス,0
1095,4180001169788,新規,0,2025-12-05,2025-12-05,株式会社Ｓｏａｒ　ｌａｂ,,株式会社,愛知県,名古屋市名東区,藤里町１６０１プレミスト藤が丘ＳＦ６２３,,23,115,4650036,,,,,,,2025-12-05,1,,,,,ソアラボ,0
1096,4180001169821,新規,0,2025-12-05,2025-12-05,ＮＫ株式会社,,株式会社,愛知県,名古屋市中川区,愛知町１９番１６号ポルトフィーノ１０１号,,23,110,4540807,,,,,,,2025-12-05,1,,,,,エヌケイ,0
1100,4180003029453,新規,0,2025-12-05,2025-12-05,合同会社ＥＭＲ,,合同会社,愛知県,春日井市,柏原町５丁目３８５番地３プレンティ柏原Ｂ－１号,,23,206,4860913,,,,,,,2025-12-05,1,,,,,イーエムアール,0
1101,4180003029461,新規,0,2025-12-05,2025-12-05,合同会社ナカマ工房,,合同会社,愛知県,東海市,中ノ池５丁目３番地の６,,23,222,4770033,,,,,,,2025-12-05,1,,,,,ナカマコウボウ,0
1102,4180005021334,新規,0,2025-12-05,2025-12-05,一般社団法人海外邦人帰国支援活用センター,,その他の設立登記法人,愛知県,名古屋市千種区,仲田２丁目１５番８号,,23,101,4640074,,,,,,,2025-12-05,1,,,,,カイガイホウジンキコクシエンカツヨウセンター,0
1103,4180301040475,新規,0,2025-12-05,2025-12-05,ザ・ササキ・グループ株式会社,,株式会社,愛知県,岡崎市,欠町字三田田北通２２番地５,,23,202,4440011,,,,,,,2025-12-05,1,,,,,ザササキグループ,0
1106,4200001044484,新規,0,2025-12-05,2025-12-05,株式会社フィロソフィー,,株式会社,岐阜県,加茂郡八百津町,上牧野１８３番地１２,,21,505,5050304,,,,,,,2025-12-05,1,,,,,フィロソフィー,0
1107,4200001044501,新規,0,2025-12-05,2025-12-05,株式会社トラストプラス,,株式会社,岐阜県,安八郡神戸町,大字神戸１１１２番地の１,,21,381,5032305,,,,,,,2025-12-05,1,,,,,トラストプラス,0
1108,4200003007159,新規,0,2025-12-05,2025-12-05,ＡＬＩ　ＴＲＡＤＥＲ合同会社,,合同会社,岐阜県,大垣市,興福地町１丁目６６－７－３２６号室,,21,202,5032203,,,,,,,2025-12-05,1,,,,,アリトレーダー,0
1109,4210001020410,新規,0,2025-12-05,2025-12-05,株式会社ＦＵＳＡ,,株式会社,福井県,福井市,高木中央３丁目１９０６番地ピースヴィレッジ１Ｆ,,18,201,9100804,,,,,,,2025-12-05,1,,,,,フサ,0
1112,4210003001978,新規,0,2025-12-05,2025-12-05,籠掛川小水力合同会社,,合同会社,福井県,今立郡池田町,稲荷第３５号５番地,,18,382,9102512,,,,,,,2025-12-05,1,,,,,カゴカケガワショウスイリョク,0
1118,4240001065881,新規,0,2025-12-05,2025-12-05,ｆｏｌｌｏ　ＦＵＫＵ株式会社,,株式会社,広島県,広島市中区,大手町１丁目１番２０号相生橋ビル７階Ａ号室,,34,101,7300051,,,,,,,2025-12-05,1,,,,,フォロフク,0
1121,4250001021454,新規,0,2025-12-05,2025-12-05,株式会社ティエラ山口,,株式会社,山口県,山口市,小郡黄金町７番４号,,35,203,7540021,,,,,,,2025-12-05,1,,,,,ティエラヤマグチ,0
1125,4270001009340,新規,0,2025-12-05,2025-12-05,株式会社ｏｔｏｎｏｎｅ,,株式会社,鳥取県,米子市,皆生新田３丁目２番２６号,,31,202,6830002,,,,,,,2025-12-05,1,,,,,オトノネ,0
1126,4280001009554,新規,0,2025-12-05,2025-12-05,株式会社したて舎,,株式会社,島根県,松江市,乃白町５３３番地,,32,201,6900045,,,,,,,2025-12-05,1,,,,,シタテシャ,0
1127,4280003002012,新規,0,2025-12-05,2025-12-05,合同会社Ｗｅｌｌｎｅｓｓラボ,,合同会社,島根県,松江市,八雲町西岩坂３６番地,,32,201,6902103,,,,,,,2025-12-05,1,,,,,ウェルネスラボ,0
1132,4310003005119,新規,0,2025-12-05,2025-12-05,合同会社Ｇｏｔｏ　Ｐｉｌｇｒｉｍ　Ｔｏｕｒｓ,,合同会社,長崎県,五島市,末広町２番地４,,42,211,8530005,,,,,,,2025-12-05,1,,,,,ゴトウピルグリムツアーズ,0
1134,4330001033813,新規,0,2025-12-05,2025-12-05,株式会社ＡＳＯＮＡ　ＲＥＳＯＲＴＳ,,株式会社,熊本県,阿蘇郡南阿蘇村,大字河陽４３３８番地８,,43,433,8691404,,,,,,,2025-12-05,1,,,,,アソナリゾーツ,0
1136,4350001019835,新規,0,2025-12-05,2025-12-05,株式会社Ｒｅｉｍａｇｉｎｅｄ,,株式会社,宮崎県,宮崎市,吉村町大町前甲２２４９番地２,,45,201,8800841,,,,,,,2025-12-05,1,,,,,リイマジンド,0
1139,4360003015451,新規,0,2025-12-05,2025-12-05,ＨＡＲＭＯ　ＷＯＲＫＳ合同会社,,合同会社,沖縄県,豊見城市,字豊見城１５番地１カーサグレイシアゆたか５０２号室,,47,212,9010241,,,,,,,2025-12-05,1,,,,,ハルモワークス,0
1146,4390005009143,新規,0,2025-12-05,2025-12-05,一般財団法人酒田コミュニティ財団,,その他の設立登記法人,山形県,酒田市,南千日町４番８号,,06,204,9980025,,,,,,,2025-12-05,1,,,,,サカタコミュニティザイダン,0
1159,4430001095769,新規,0,2025-12-05,2025-12-05,株式会社Ｏｃｅａｎ　Ｂａｓｅ,,株式会社,北海道,札幌市白石区,東札幌二条５丁目９番１５号,,01,104,0030002,,,,,,,2025-12-05,1,,,,,オーシャンベース,0
1160,4430001095819,新規,0,2025-12-05,2025-12-05,株式会社Ｈｅｌｉｘｉａ,,株式会社,北海道,札幌市中央区,南一条西２丁目１－２木ＮＩＮＡＲＵ　ＢＬＤＧ．,,01,101,0600061,,,,,,,2025-12-05,1,,,,,ヒリクシア,0
1162,4430003018380,新規,0,2025-12-05,2025-12-05,合同会社Ａ’ｚ,,合同会社,北海道,札幌市南区,石山二条２丁目１３番２２号,,01,106,0050842,,,,,,,2025-12-05,1,,,,,エーズ,0
1164,4460301005326,新規,0,2025-12-05,2025-12-05,株式会社炉憩,,株式会社,北海道,斜里郡清里町,羽衣町２４番地,,01,546,0994405,,,,,,,2025-12-05,1,,,,,イコウ,0
1165,4460303000894,新規,0,2025-12-05,2025-12-05,合同会社ｒｉｎｔｏ,,合同会社,北海道,北見市,北二条西２丁目１５番地海田ビル２階,,01,208,0900042,,,,,,,2025-12-05,1,,,,,リント,0
1175,4500001026659,新規,0,2025-12-05,2025-12-05,株式会社Ｃｒａｘｉａ　Ｐｌｕｓ,,株式会社,愛媛県,新居浜市,中村３丁目９番４８号,,38,205,7920044,,,,,,,2025-12-05,1,,,,,クラシアプラス,0
1176,4700150133203,新規,0,2025-12-05,2025-12-05,ＺＥＲＯ　ＴＯ　ＯＮＥ　ＴＥＣＨ　ＬＩＭＩＴＥＤ,,外国会社等,,,,,,,,Ｕｎｉｔ　Ａ７，１２／Ｆ，Ａｓｔｏｒｉａ　Ｂｕｉｌｄｉｎｇ，３４　Ａｓｈｌｅｙ　Ｒｏａｄ　Ｔｓｉｍ　Ｓｈａ　Ｔｓｕｉ　Ｋｏｗｌｏｏｎ　Ｈｏｎｇ　Ｋｏｎｇ,,,,,,2025-12-05,1,,,,,ゼロトゥーワンテックリミテッド,0
1177,4700150133211,新規,0,2025-12-05,2025-12-05,ジャックス健康保険組合,,その他,東京都,渋谷区,笹塚１丁目５０番１号,,13,113,1510073,,,,,,,2025-12-05,1,,,,,ジャックスケンコウホケンクミアイ,0
1189,5010001260793,新規,0,2025-12-05,2025-12-05,株式会社ケイピーケイエムオーオー,,株式会社,東京都,文京区,千石４丁目１４番９号,,13,105,1120011,,,,,,,2025-12-05,1,,,,,ピーケイエムオーオー,0
1190,5010001260810,新規,0,2025-12-05,2025-12-05,ＫＩＮＯＫＡ株式会社,,株式会社,東京都,中央区,日本橋室町１丁目１１番１２号日本橋水野ビル７階,,13,102,1030022,,,,,,,2025-12-05,1,,,,,キノカ,0
1191,5010001260851,新規,0,2025-12-05,2025-12-05,株式会社Ｔ．Ｐ．Ｃ．Ｊａｐａｎ,,株式会社,東京都,千代田区,紀尾井町３番１０号紀尾井町ガーデンタワー２５０４号（Ｃ／Ｏｓｈｉｍａｄａ－ｏｆｆｉｃｅ）,,13,101,1020094,,,,,,,2025-12-05,1,,,,,ティーピーシージャパン,0
1192,5010001260876,新規,0,2025-12-05,2025-12-05,株式会社Ｋａｗａｒｉｍｅ,,株式会社,東京都,千代田区,鍛冶町２丁目５番４号ＣＲＥＡ神田ビル５２号室,,13,101,1010044,,,,,,,2025-12-05,1,,,,,カワリメ,0
1193,5010001260884,新規,0,2025-12-05,2025-12-05,株式会社ＫＡＴＡＲＵ,,株式会社,東京都,中央区,銀座８丁目１２－６,,13,102,1040061,,,,,,,2025-12-05,1,,,,,カタル,0
1194,5010001260967,新規,0,2025-12-05,2025-12-05,株式会社ＲＥＣＯＢＡＳＥ,,株式会社,東京都,中央区,日本橋２丁目１６－４ｒｅｍｉｘ日本橋６階,,13,102,1030027,,,,,,,2025-12-05,1,,,,,レコベース,0
1217,5010401194872,新規,0,2025-12-05,2025-12-05,株式会社ＮＡＧＩＳＡ　ＷＯＲＫＳ,,株式会社,東京都,港区,赤坂６丁目１９番５４－２１６号,,13,103,1070052,,,,,,,2025-12-05,1,,,,,ナギサワークス,0
1218,5010401194939,新規,0,2025-12-05,2025-12-05,ＭＣＰ４５株式会社,,株式会社,東京都,港区,元赤坂１丁目１番７－１２０９号株式会社赤坂国際会計内,,13,103,1070051,,,,,,,2025-12-05,1,,,,,エムシーピーフォーファイブ,0
1219,5010401194955,新規,0,2025-12-05,2025-12-05,ビクウィースＪＡＰＡＮ株式会社,,株式会社,東京都,港区,南青山２丁目２番１５号ＷｉｎＡｏｙａｍａビルＵＣＦ６階,,13,103,1070062,,,,,,,2025-12-05,1,,,,,ビクウィースジャパン,0
1220,5010401194971,新規,0,2025-12-05,2025-12-05,株式会社オタスケ,,株式会社,東京都,港区,虎ノ門３丁目２０番４号,,13,103,1050001,,,,,,,2025-12-05,1,,,,,オタスケ,0
1226,5010501055124,新規,0,2025-12-05,2025-12-05,株式会社ＭＵＮＥＥＲ　ＩＮＴＥＲＮＡＴＩＯＮＡＬ,,株式会社,東京都,台東区,蔵前４丁目１番５号,,13,106,1110051,,,,,,,2025-12-05,1,,,,,ムニールインターナショナル,0
1234,5010901058486,新規,0,2025-12-05,2025-12-05,ソリッド株式会社,,株式会社,東京都,世田谷区,弦巻１丁目１５－１－１０２,,13,112,1540016,,,,,,,2025-12-05,1,,,,,ソリッド,0
1235,5010901058593,新規,0,2025-12-05,2025-12-05,株式会社ＴＭＫ,,株式会社,東京都,世田谷区,野沢１丁目３１番１号,,13,112,1540003,,,,,,,2025-12-05,1,,,,,ティーエムケー,0
1240,5011001173985,新規,0,2025-12-05,2025-12-05,株式会社グッドカンパニー,,株式会社,東京都,渋谷区,広尾１丁目２番１号ヒカリビル４階,,13,113,1500012,,,,,,,2025-12-05,1,,,,,グッドカンパニー,0
1243,5011003023107,新規,0,2025-12-05,2025-12-05,合同会社Ｎｏｂｉｑｕｅ　ＮｅｕｒｏＴｅｃｈ,,合同会社,東京都,渋谷区,道玄坂１丁目１０番８号渋谷道玄坂東急ビル２Ｆ－Ｃ,,13,113,1500043,,,,,,,2025-12-05,1,,,,,ノビークニューロテック,0
1249,5011101114212,新規,0,2025-12-05,2025-12-05,株式会社ｆ＆ｍｓ,,株式会社,東京都,新宿区,西新宿７丁目１０番６号武蔵屋ＫＡビル３階,,13,104,1600023,,,,,,,2025-12-05,1,,,,,エフアンドエムズ,0
1250,5011101114237,新規,0,2025-12-05,2025-12-05,泰友不動産販売株式会社,,株式会社,東京都,新宿区,新宿２丁目１５番２２号,,13,104,1600022,,,,,,,2025-12-05,1,,,,,ヤストモフドウサンハンバイ,0
1257,5011201026836,新規,0,2025-12-05,2025-12-05,株式会社大津空調設備,,株式会社,東京都,中野区,上鷺宮５丁目１７番３６号,,13,114,1650031,,,,,,,2025-12-05,1,,,,,オオツクウチョウセツビ,0
1263,5011403004961,新規,0,2025-12-05,2025-12-05,合同会社フリーダム,,合同会社,東京都,板橋区,常盤台１丁目５５番９号,,13,119,1740071,,,,,,,2025-12-05,1,,,,,フリーダム,0
1268,5011601029216,新規,0,2025-12-05,2025-12-05,スリーエス株式会社,,株式会社,東京都,練馬区,土支田４丁目９番１６号モリハウス２０３,,13,120,1790076,,,,,,,2025-12-05,1,,,,,スリーエス,0
1269,5011603004943,新規,0,2025-12-05,2025-12-05,エヌアイエス合同会社,,合同会社,東京都,練馬区,南田中５丁目１７番７号,,13,120,1770035,,,,,,,2025-12-05,1,,,,,エヌアイエス,0
1271,5012401043893,新規,0,2025-12-05,2025-12-05,ＥｄｕＦｉｔ株式会社,,株式会社,東京都,三鷹市,牟礼２丁目１６番１０号,,13,204,1810002,,,,,,,2025-12-05,1,,,,,エデュフィット,0
1276,5012801024403,新規,0,2025-12-05,2025-12-05,ＢＲＩＥＤＧＥ　ＨＤ株式会社,,株式会社,東京都,国分寺市,本多５丁目１番６号,,13,214,1850011,,,,,,,2025-12-05,1,,,,,ブライエッジエイチディー,0
1284,5013303007986,新規,0,2025-12-05,2025-12-05,ＴＶＳオフィス合同会社,,合同会社,東京都,豊島区,南池袋１丁目２１番５号第７野萩ビル地下１階,,13,116,1710022,,,,,,,2025-12-05,1,,,,,ティーブイエスオフィス,0
1295,5020001166123,新規,0,2025-12-05,2025-12-05,株式会社Ｕｒａ,,株式会社,神奈川県,横浜市神奈川区,西神奈川３丁目１番地２斎藤ビル１Ｆ,,14,102,2210822,,,,,,,2025-12-05,1,,,,,ウラ,0
1296,5020001166131,新規,0,2025-12-05,2025-12-05,株式会社ＪＧ,,株式会社,神奈川県,横浜市磯子区,汐見台１丁目２番地４－３１２号,,14,107,2350022,,,,,,,2025-12-05,1,,,,,ジェージー,0
1303,5020003029889,新規,0,2025-12-05,2025-12-05,合同会社ＮＥＸ,,合同会社,神奈川県,横浜市港南区,上永谷６丁目５番２２号,,14,111,2330012,,,,,,,2025-12-05,1,,,,,ネックス,0
1304,5020003029922,新規,0,2025-12-05,2025-12-05,カノン合同会社,,合同会社,神奈川県,横浜市戸塚区,深谷町８４‐１‐１,,14,110,2450067,,,,,,,2025-12-05,1,,,,,カノン,0
1316,5030001169934,新規,0,2025-12-05,2025-12-05,株式会社ＥＮＴＲＵＳＴ,,株式会社,埼玉県,比企郡川島町,大字白井沼９３７番地１,,11,346,3500128,,,,,,,2025-12-05,1,,,,,エントラスト,0
1317,5030001169991,新規,0,2025-12-05,2025-12-05,株式会社ＳＯＮＡ,,株式会社,埼玉県,さいたま市大宮区,三橋１丁目１３４９番地２,,11,103,3300856,,,,,,,2025-12-05,1,,,,,ソナ,0
1320,5030003028196,新規,0,2025-12-05,2025-12-05,合同会社鈴源商会,,合同会社,埼玉県,川口市,青木３丁目８番３８－３号,,11,203,3320031,,,,,,,2025-12-05,1,,,,,スズゲンショウカイ,0
1328,5040001141578,新規,0,2025-12-05,2025-12-05,多賀設備株式会社,,株式会社,千葉県,千葉市中央区,蘇我２丁目２５番１号,,12,101,2600822,,,,,,,2025-12-05,1,,,,,タガセツビ,0
1329,5040001141669,新規,0,2025-12-05,2025-12-05,株式会社Ｌｕｍｉｎａ,,株式会社,千葉県,市川市,南八幡３丁目４－１２セントラル本八幡ビル５０１,,12,203,2720023,,,,,,,2025-12-05,1,,,,,ルミナ,0
1331,5040003029053,新規,0,2025-12-05,2025-12-05,ＩＴＯＨ　ＡＳＳＯＣＩＡＴＥＳ合同会社,,合同会社,千葉県,松戸市,幸谷９３８番地の１,,12,207,2700017,,,,,,,2025-12-05,1,,,,,イトウアソシエイツ,0
1332,5040003029094,新規,0,2025-12-05,2025-12-05,合同会社ナチュラル,,合同会社,千葉県,市川市,平田４丁目１４番１０－２０５号,,12,203,2720031,,,,,,,2025-12-05,1,,,,,ナチュラル,0
1334,5040005022964,新規,0,2025-12-05,2025-12-05,特定非営利活動法人空家再生,,その他の設立登記法人,千葉県,千葉市中央区,新宿１丁目２９番１３号,,12,101,2600021,,,,,,,2025-12-05,1,,,,,,0
1339,5050001057658,新規,0,2025-12-05,2025-12-05,株式会社ＢＡＳＥ,,株式会社,茨城県,常陸太田市,田渡町１００番地１,,08,212,3130026,,,,,,,2025-12-05,1,,,,,ベース,0
1341,5060001038822,新規,0,2025-12-05,2025-12-05,株式会社福田総建,,株式会社,栃木県,日光市,千本木４１６番地１７,,09,206,3211277,,,,,,,2025-12-05,1,,,,,フクダソウケン,0
1352,5080101025941,新規,0,2025-12-05,2025-12-05,株式会社武蔵建設,,株式会社,静岡県,駿東郡清水町,伏見５２２番地の４,,22,341,4110907,,,,,,,2025-12-05,1,,,,,ムサシケンセツ,0
1357,5080401028306,新規,0,2025-12-05,2025-12-05,岡本再生資源株式会社,,株式会社,静岡県,掛川市,高瀬１８３６番地の３,,22,213,4371401,,,,,,,2025-12-05,1,,,,,オカモトサイセイシゲン,0
1366,5100003008505,新規,0,2025-12-05,2025-12-05,片桐合原２合同会社,,合同会社,長野県,長野市,大字安茂里５２６番地２１７,,20,201,3800941,,,,,,,2025-12-05,1,,,,,カタギリゴウハラニ,0
1367,5110001039765,新規,0,2025-12-05,2025-12-05,越後商萬株式会社,,株式会社,新潟県,妙高市,大字関山１６７８番地３１,,15,217,9492235,,,,,,,2025-12-05,1,,,,,エチゴショウマン,0
1368,5110001039773,新規,0,2025-12-05,2025-12-05,株式会社ミヤナガ設備,,株式会社,新潟県,新潟市中央区,女池西２丁目３番３４号,,15,103,9500946,,,,,,,2025-12-05,1,,,,,ミヤナガセツビ,0
1382,5120001282315,新規,0,2025-12-05,2025-12-05,株式会社ＧＬＯＷ,,株式会社,大阪府,大阪市西成区,岸里３丁目７番１－７０３号,,27,122,5570041,,,,,,,2025-12-05,1,,,,,グロウ,0
1383,5120001282447,新規,0,2025-12-05,2025-12-05,株式会社サウスハウジング,,株式会社,大阪府,大阪市生野区,小路１丁目２３番７号,,27,116,5440002,,,,,,,2025-12-05,1,,,,,サウスハウジング,0
1384,5120001282570,新規,0,2025-12-05,2025-12-05,株式会社ＧＰＴ,,株式会社,大阪府,大阪市西成区,岸里２丁目２番４－３１０号,,27,122,5570041,,,,,,,2025-12-05,1,,,,,ジーピーティー,0
1387,5120003031372,新規,0,2025-12-05,2025-12-05,合同会社クローバー,,合同会社,大阪府,大阪市淀川区,田川２丁目８－３２,,27,123,5320027,,,,,,,2025-12-05,1,,,,,クローバー,0
1393,5120101072888,新規,0,2025-12-05,2025-12-05,横田電工株式会社,,株式会社,大阪府,堺市中区,陶器北２３４番地２１,,27,142,5998242,,,,,,,2025-12-05,1,,,,,ヨコタデンコウ,0
1394,5120101072905,新規,0,2025-12-05,2025-12-05,株式会社リブル,,株式会社,大阪府,堺市南区,和田５５７番地,,27,145,5900152,,,,,,,2025-12-05,1,,,,,リブル,0
1409,5130001081162,新規,0,2025-12-05,2025-12-05,株式会社現乎,,株式会社,京都府,八幡市,八幡長町２番地の９,,26,210,6130853,,,,,,,2025-12-05,1,,,,,アラタカ,0
1411,5130003010986,新規,0,2025-12-05,2025-12-05,合同会社Ｌｅｉ　Ｇｙｐｓｏ,,合同会社,京都府,京都市右京区,西京極畑田町４７番地５３,,26,108,6150824,,,,,,,2025-12-05,1,,,,,レイジプソ,0
1414,5140001140990,新規,0,2025-12-05,2025-12-05,株式会社ＫＯＢＯ　ＴＥＣＨ,,株式会社,兵庫県,神戸市北区,柏尾台１２番地の１１,,28,109,6511255,,,,,,,2025-12-05,1,,,,,コボテック,0
1415,5140001141007,新規,0,2025-12-05,2025-12-05,Ｉｃｏｎ　Ｌａｂ株式会社,,株式会社,兵庫県,神戸市東灘区,御影中町６丁目２番４号,,28,101,6580054,,,,,,,2025-12-05,1,,,,,アイコンラボ,0
1416,5140001141023,新規,0,2025-12-05,2025-12-05,株式会社アシスト,,株式会社,兵庫県,明石市,樽屋町３番３号梅田ビル３０１,,28,203,6730898,,,,,,,2025-12-05,1,,,,,,0
1417,5140001141031,新規,0,2025-12-05,2025-12-05,株式会社Ａｔｍｏ,,株式会社,兵庫県,明石市,魚住町錦が丘１丁目６番地の３６,,28,203,6740081,,,,,,,2025-12-05,1,,,,,アトモ,0
1418,5140003022915,新規,0,2025-12-05,2025-12-05,たのしんでる合同会社,,合同会社,兵庫県,神戸市西区,竜が岡４丁目４番地の１マウンティン・ツー３１５号,,28,111,6512412,,,,,,,2025-12-05,1,,,,,タノシンデル,0
1419,5150001028582,新規,0,2025-12-05,2025-12-05,株式会社ビジネスアドベンチャーホールディングス,,株式会社,奈良県,香芝市,磯壁３丁目６５番地１,,29,210,6390236,,,,,,,2025-12-05,1,,,,,ビジネスアドベンチャーホールディングス,0
1420,5150005009744,新規,0,2025-12-05,2025-12-05,一般社団法人オノマトペ,,その他の設立登記法人,奈良県,磯城郡三宅町,大字伴堂１２７２番地の１,,29,362,6360213,,,,,,,2025-12-05,1,,,,,オノマトペ,0
1423,5160001027261,新規,0,2025-12-05,2025-12-05,ＢＲＡＶＯ建築株式会社,,株式会社,滋賀県,米原市,梅ケ原１３９６番地,,25,214,5210013,,,,,,,2025-12-05,1,,,,,ブラボーケンチク,0
1433,5180001169738,新規,0,2025-12-05,2025-12-05,株式会社ロイヤル,,株式会社,愛知県,名古屋市中区,栄２丁目１１番３０号,,23,106,4600008,,,,,,,2025-12-05,1,,,,,ロイヤル,0
1434,5180001169762,新規,0,2025-12-05,2025-12-05,株式会社かかし,,株式会社,愛知県,名古屋市千種区,新西２丁目１４番２６号,,23,101,4640003,,,,,,,2025-12-05,1,,,,,カカシ,0
1435,5180001169787,新規,0,2025-12-05,2025-12-05,株式会社ＤＳＩ,,株式会社,愛知県,瀬戸市,穴田町８８６番地の１３,,23,204,4890003,,,,,,,2025-12-05,1,,,,,ディーエスアイ,0
1442,5180003029460,新規,0,2025-12-05,2025-12-05,合同会社遥,,合同会社,愛知県,豊明市,三崎町三崎９番地１３ラ・フレチェール３０２,,23,229,4701124,,,,,,,2025-12-05,1,,,,,ハル,0
1443,5180003029469,新規,0,2025-12-05,2025-12-05,合同会社和暢舎,,合同会社,愛知県,半田市,広小路町１５３番地の１０,,23,205,4750857,,,,,,,2025-12-05,1,,,,,ワヨウシャ,0
1459,5230005009505,新規,0,2025-12-05,2025-12-05,特定非営利活動法人森と学びの未来創造機構,,その他の設立登記法人,富山県,富山市,願海寺３９３番地,,16,201,9300175,,,,,,,2025-12-05,1,,,,,モリトマナビノミライソウゾウキコウ,0
1466,5260001040790,新規,0,2025-12-05,2025-12-05,株式会社エフ・エス・ティ,,株式会社,岡山県,岡山市南区,万倍１５７番地３,,33,104,7000955,,,,,,,2025-12-05,1,,,,,エフエスティ,0
1474,5290001112298,新規,0,2025-12-05,2025-12-05,株式会社スリーサイズリクルート,,株式会社,福岡県,福岡市南区,平和２丁目１５番１５号,,40,134,8150071,,,,,,,2025-12-05,1,,,,,スリーサイズリクルート,0
1475,5290001112315,新規,0,2025-12-05,2025-12-05,株式会社はるしお地建,,株式会社,福岡県,福岡市中央区,天神４丁目６－２８いちご天神ノースビル７階,,40,133,8100001,,,,,,,2025-12-05,1,,,,,ハルシオチケン,0
1479,5290003017537,新規,0,2025-12-05,2025-12-05,合同会社日津製作所,,合同会社,福岡県,福岡市中央区,清川３丁目８番２８－１０１０号,,40,133,8100005,,,,,,,2025-12-05,1,,,,,ニッシンセイサクショ,0
1480,5290003017751,新規,0,2025-12-05,2025-12-05,合同会社イノセント,,合同会社,福岡県,福岡市博多区,大博町６番２８－８０３号ステイツ天神東２,,40,132,8120033,,,,,,,2025-12-05,1,,,,,イノセント,0
1482,5320001021470,新規,0,2025-12-05,2025-12-05,株式会社かぐら,,株式会社,大分県,宇佐市,大字閤４７９番地,,44,211,8790455,,,,,,,2025-12-05,1,,,,,カグラ,0
1485,5330001033804,新規,0,2025-12-05,2025-12-05,ＥＭＤ九州株式会社,,株式会社,熊本県,菊池郡菊陽町,大字津久礼３０４７番地２,,43,404,8691101,,,,,,,2025-12-05,1,,,,,イーエムディーキュウシュウ,0
1486,5330001033812,新規,0,2025-12-05,2025-12-05,株式会社大武興産,,株式会社,熊本県,熊本市北区,改寄町２５０５番地３,,43,105,8615501,,,,,,,2025-12-05,1,,,,,オオタケコウサン,0
1497,5370005011034,新規,0,2025-12-05,2025-12-05,一般社団法人古川学園女子バレーボール部,,その他の設立登記法人,宮城県,大崎市,古川中里６丁目２番８号学校法人古川学園錬成館,,04,215,9896143,,,,,,,2025-12-05,1,,,,,フルカワガクエンジョシバレーボールブ,0
1508,5430001095801,新規,0,2025-12-05,2025-12-05,株式会社Ｂａｔｆｌｉｐ,,株式会社,北海道,札幌市豊平区,西岡四条５丁目８番１号,,01,105,0620034,,,,,,,2025-12-05,1,,,,,バットフリップ,0
1509,5430001095826,新規,0,2025-12-05,2025-12-05,Ｄ２Ｋアセット株式会社,,株式会社,北海道,札幌市東区,北三十二条東１丁目３番１５号,,01,103,0650032,,,,,,,2025-12-05,1,,,,,ディーツーケーアセット,0
1515,5460303000893,新規,0,2025-12-05,2025-12-05,村中農園合同会社,,合同会社,北海道,北見市,端野町二区５１９番地５,,01,208,0992102,,,,,,,2025-12-05,1,,,,,ムラナカノウエン,0
1516,5470001021010,新規,0,2025-12-05,2025-12-05,株式会社もじゃまる,,株式会社,香川県,高松市,瓦町２丁目１番１７号,,37,201,7600052,,,,,,,2025-12-05,1,,,,,モジャマル,0
1518,5480001013031,新規,0,2025-12-05,2025-12-05,株式会社ＦＵＪＩＡＲＣ,,株式会社,徳島県,阿南市,長生町平田２０番地１,,36,204,7740046,,,,,,,2025-12-05,1,,,,,フジアーク,0
1521,5500003003639,新規,0,2025-12-05,2025-12-05,合同会社ＭＩＸＨＯＳＴ,,合同会社,愛媛県,今治市,大西町別府１３６９番地,,38,202,7992209,,,,,,,2025-12-05,1,,,,,ミックスホスト,0
1522,5700150060520,新規,0,2025-12-05,2015-10-09,城野校区まちづくり協議会,,その他,福岡県,北九州市小倉南区,富士見３丁目１－３,,40,107,8020801,,,,,,,2015-10-09,1,,,,,ジヨウノコウクマチヅクリキヨウギカイ,0
1524,5700150133202,新規,0,2025-12-05,2025-12-05,ｘｕｚｈｏｕｒｅｎｙｉｓｕｌｉａｏｚｈｉｐｉｎｙｏｕｘｉａｎｇｏｎｇｓｉ,,外国会社等,,,,,,,,Ｓｈｏｐ　１０３，Ａｎ　Ｊｉｒｏｎｇ　Ｃｏｍｍｅｒｃｉａｌ　ａｎｄ　Ｒｅｓｉｄｅｎｔｉａｌ　Ｂｕｉｌｄｉｎｇ，ｎｏｒｔｈ　ｏｆ　Ｚｈｉｆｕ　Ｒｏａｄ，ｅａｓｔ　ｏｆ　ｔｈｅ　Ｃｏｍｍｅｒｃｉａｌ　Ｓｔｒｅｅｔ，Ｆａｎｇｃｕｎ　Ｔｏｗｎ，Ｔｏｎｇｓｈａｎ　Ｄｉｓｔｒｉｃｔ，Ｘｕｚｈｏｕ　Ｃｉｔｙ，Ｊｉａｎｇｓｕ　Ｐｒｏｖｉｎｃｅ,,,,,,2025-12-05,1,,,,,シュージョウレンイスリャオジピンユウゲンコウシ,0
1525,5700150133210,新規,0,2025-12-05,2025-12-05,藤田観光健康保険組合,,その他,東京都,文京区,関口２丁目１０番８号,,13,105,1120014,,,,,,,2025-12-05,1,,,,,フジタカンコウケンコウホケンクミアイ,0
1536,6010001260842,新規,0,2025-12-05,2025-12-05,株式会社ビバノッタ,,株式会社,東京都,中央区,銀座１丁目１２－４Ｎ＆ＥＢＬＤ．７階,,13,102,1040061,,,,,,,2025-12-05,1,,,,,ビバノッタ,0
1537,6010001260859,新規,0,2025-12-05,2025-12-05,株式会社Ｍ＆Ｍ,,株式会社,東京都,千代田区,神田神保町２丁目３神田古書センタービル６階,,13,101,1010051,,,,,,,2025-12-05,1,,,,,エムアンドエム,0
1538,6010001260900,新規,0,2025-12-05,2025-12-05,株式会社Ｌｏｏｐ　Ｍａｔｃｈａ　Ｔｏｋｙｏ,,株式会社,東京都,中央区,銀座１丁目２２番１１号銀座大竹ビジデンス２Ｆ,,13,102,1040061,,,,,,,2025-12-05,1,,,,,ループマッチャトウキョウ,0
1544,6010005041017,新規,0,2025-12-05,2025-12-05,一般社団法人インナーウィズダム研究所,,その他の設立登記法人,東京都,中央区,銀座１丁目１２番４号Ｎ＆ＥＢＬＤ．６Ｆ,,13,102,1040061,,,,,,,2025-12-05,1,,,,,インナーウィズダムケンキュウジョ,0
1547,6010401194962,新規,0,2025-12-05,2025-12-05,株式会社新生クラウド,,株式会社,東京都,港区,東麻布２丁目１５番４号大嶋ビル３Ｆ,,13,103,1060044,,,,,,,2025-12-05,1,,,,,シンセイクラウド,0
1549,6010403036675,新規,0,2025-12-05,2025-12-05,合同会社ＩＡＭＳ,,合同会社,東京都,港区,虎ノ門１丁目１５番１０号名和ビル４階,,13,103,1050001,,,,,,,2025-12-05,1,,,,,アイエイエムエス,0
1550,6010403036725,新規,0,2025-12-05,2025-12-05,合同会社Ｒｅｉｒｉｓ,,合同会社,東京都,港区,虎ノ門１丁目１６番６号ＲＡＰＯ－ＴＯビルＵＣＦ７０３,,13,103,1050001,,,,,,,2025-12-05,1,,,,,レイリス,0
1551,6010403036766,新規,0,2025-12-05,2025-12-05,Ｌｉｎｋ‐Ｄ　Ｈｏｌｄｉｎｇｓ合同会社,,合同会社,東京都,港区,高輪１丁目４番１０－１７０６号,,13,103,1080074,,,,,,,2025-12-05,1,,,,,リンクディーホールディングス,0
1552,6010405025107,新規,0,2025-12-05,2025-12-05,Ｐｈｏｅｎｉｘ一般社団法人,,その他の設立登記法人,東京都,港区,六本木１丁目９番１０号アークヒルズ仙石山森タワー２６０３,,13,103,1060032,,,,,,,2025-12-05,1,,,,,フェニックス,0
1556,6010501055148,新規,0,2025-12-05,2025-12-05,株式会社ＡＢＣ　ＧＲＯＵＰ,,株式会社,東京都,台東区,台東２丁目２７番３号ＮＳＫビル１０Ｆ,,13,106,1100016,,,,,,,2025-12-05,1,,,,,エービーシーグループ,0
1573,6011001173976,新規,0,2025-12-05,2025-12-05,株式会社Ｇ‐ＰＬＵＳコーポレーション,,株式会社,東京都,目黒区,中目黒３丁目６番２号,,13,110,1530061,,,,,,,2025-12-05,1,,,,,ジープラスコーポレーション,0
1574,6011001173992,新規,0,2025-12-05,2025-12-05,株式会社ＳＴＥＡＬＴＨ　ＢＵＺＺ,,株式会社,東京都,渋谷区,道玄坂１丁目１０番８号渋谷道玄坂東急ビル２Ｆ－Ｃ,,13,113,1500043,,,,,,,2025-12-05,1,,,,,ステルスバズ,0
1575,6011001174033,新規,0,2025-12-05,2025-12-05,株式会社ＬＵＣＥ,,株式会社,東京都,渋谷区,大山町１９番１０号,,13,113,1510065,,,,,,,2025-12-05,1,,,,,ルーチェ,0
1576,6011001174074,新規,0,2025-12-05,2025-12-05,ＭＩＮＤＸ株式会社,,株式会社,東京都,渋谷区,道玄坂１丁目１０番８号渋谷道玄坂東急ビル２Ｆ－Ｃ,,13,113,1500043,,,,,,,2025-12-05,1,,,,,マインデックス,0
1577,6011001174090,新規,0,2025-12-05,2025-12-05,株式会社三誠不動産,,株式会社,東京都,渋谷区,代々木４丁目５番１６号,,13,113,1510053,,,,,,,2025-12-05,1,,,,,サンセイフドウサン,0
1578,6011001174140,新規,0,2025-12-05,2025-12-05,株式会社きずな,,株式会社,東京都,渋谷区,代々木２丁目２３番地１号２２７７室,,13,113,1510053,,,,,,,2025-12-05,1,,,,,キズナ,0
1579,6011001174198,新規,0,2025-12-05,2025-12-05,トリニティ株式会社,,株式会社,東京都,目黒区,柿の木坂２丁目２５番６号,,13,110,1520022,,,,,,,2025-12-05,1,,,,,トリニティ,0
1580,6011003023007,新規,0,2025-12-05,2025-12-05,合同会社ＲｅｐｒｏＭｅｄｉａ,,合同会社,東京都,渋谷区,渋谷２丁目１９番１９号ワコー宮益坂ビル５階,,13,113,1500002,,,,,,,2025-12-05,1,,,,,リプロメディア,0
1581,6011005011281,新規,0,2025-12-05,2025-12-05,一般社団法人クラブルームズ,,その他の設立登記法人,東京都,渋谷区,神南１丁目１１－４ＦＰＧリンクス神南５階,,13,113,1500041,,,,,,,2025-12-05,1,,,,,クラブルームズ,0
1583,6011101114087,新規,0,2025-12-05,2025-12-05,株式会社ｍｅｄｉａｓ,,株式会社,東京都,新宿区,西新宿４丁目８－１１－１０４,,13,104,1600023,,,,,,,2025-12-05,1,,,,,メディアス,0
1584,6011101114236,新規,0,2025-12-05,2025-12-05,株式会社悠然,,株式会社,東京都,新宿区,西新宿７丁目２０番１－１２０３号,,13,104,1600023,,,,,,,2025-12-05,1,,,,,ユウゼン,0
1589,6011103016810,新規,0,2025-12-05,2025-12-05,合同会社ジェイ・ジー・ダブリュー,,合同会社,東京都,新宿区,下宮比町１番４号,,13,104,1620822,,,,,,,2025-12-05,1,,,,,ジェイジーダブリュー,0
1590,6011103016819,新規,0,2025-12-05,2025-12-05,ＭＩＮＪＩ合同会社,,合同会社,東京都,新宿区,新宿１丁目３６番２号新宿第七葉山ビル３階,,13,104,1600022,,,,,,,2025-12-05,1,,,,,ミンジ,0
1591,6011201026835,新規,0,2025-12-05,2025-12-05,ＫＤＳ株式会社,,株式会社,東京都,中野区,中央５丁目３８番１３号エスエス１０ビルＡ３０２,,13,114,1640011,,,,,,,2025-12-05,1,,,,,ケーディーエス,0
1593,6011303005786,新規,0,2025-12-05,2025-12-05,合同会社Ｊ．Ｉｎｖｅｓｔ,,合同会社,東京都,杉並区,本天沼２丁目２２－２０,,13,115,1670031,,,,,,,2025-12-05,1,,,,,ジェイインベスト,0
1594,6011303005794,新規,0,2025-12-05,2025-12-05,ワイズサポート合同会社,,合同会社,東京都,杉並区,成田西３丁目２０番７－１１０号ジェイパーク浜田山,,13,115,1660016,,,,,,,2025-12-05,1,,,,,ワイズサポート,0
1596,6011401027641,新規,0,2025-12-05,2025-12-05,株式会社Ｈｉｍａｗａｒｉ　Ｃｏ．,,株式会社,東京都,板橋区,中板橋２８番８号,,13,119,1730016,,,,,,,2025-12-05,1,,,,,ヒマワリ,0
1598,6011601029207,新規,0,2025-12-05,2025-12-05,株式会社ＧＬＯＷ　ＰＲＯＰＥＲＴＹ,,株式会社,東京都,練馬区,大泉学園町５丁目１１番３４号,,13,120,1780061,,,,,,,2025-12-05,1,,,,,グロウプロパティ,0
1599,6011701028991,新規,0,2025-12-05,2025-12-05,株式会社ＧＲｅｅｎ,,株式会社,東京都,江戸川区,大杉５丁目３５番６号,,13,123,1320022,,,,,,,2025-12-05,1,,,,,グリーン,0
1601,6011803007217,新規,0,2025-12-05,2025-12-05,ＤＮ合同会社,,合同会社,東京都,足立区,扇１丁目４５番２２号,,13,121,1230873,,,,,,,2025-12-05,1,,,,,ディーエヌ,0
1606,6012401043884,新規,0,2025-12-05,2025-12-05,Ｉｍｅｘｐｏｒｔａ株式会社,,株式会社,東京都,武蔵野市,吉祥寺本町１丁目２０番１－１００２号,,13,203,1800004,,,,,,,2025-12-05,1,,,,,イムエクスポルタ,0
1608,6012701019213,新規,0,2025-12-05,2025-12-05,株式会社Ｓｉｄｅｖａｌｖｅ　Ｒｅｃｏｒｄｓ,,株式会社,東京都,西東京市,柳沢２丁目１４番３－２０７号,,13,229,2020022,,,,,,,2025-12-05,1,,,,,サイドバルブレコーズ,0
1627,6020001166056,新規,0,2025-12-05,2025-12-05,株式会社三栄商事,,株式会社,神奈川県,横浜市栄区,公田町９３１番地１２１,,14,115,2470014,,,,,,,2025-12-05,1,,,,,サンエイショウジ,0
1636,6021001086979,新規,0,2025-12-05,2025-12-05,株式会社アクア・ノヴァ,,株式会社,神奈川県,南足柄市,怒田３１８番地１１,,14,217,2500106,,,,,,,2025-12-05,1,,,,,アクアノヴァ,0
1643,6030001169925,新規,0,2025-12-05,2025-12-05,株式会社ＦＩＲＳＴ,,株式会社,埼玉県,久喜市,久喜中央２丁目９番５７号,,11,232,3460003,,,,,,,2025-12-05,1,,,,,ファースト,0
1644,6030001169933,新規,0,2025-12-05,2025-12-05,株式会社南雲ホールディングス,,株式会社,埼玉県,さいたま市見沼区,大字新堤５２番地２３,,11,104,3370013,,,,,,,2025-12-05,1,,,,,ナグモホールディングス,0
1645,6030001169966,新規,0,2025-12-05,2025-12-05,株式会社松本建築,,株式会社,埼玉県,川越市,むさし野２２番地２４,,11,201,3501170,,,,,,,2025-12-05,1,,,,,マツモトケンチク,0
1646,6030001169974,新規,0,2025-12-05,2025-12-05,榊原電設株式会社,00141753,株式会社,埼玉県,さいたま市西区,大字西新井４８６番地６,,11,101,3310049,,,,,,,2025-12-05,1,,,,,サカキバラデンセツ,0
1647,6030001169999,新規,0,2025-12-05,2025-12-05,株式会社ワールドいりそ,,株式会社,埼玉県,狭山市,大字水野４５番地の２,,11,215,3501317,,,,,,,2025-12-05,1,,,,,ワールドイリソ,0
1650,6030003028195,新規,0,2025-12-05,2025-12-05,合同会社ユニバーサルコーポレーション,,合同会社,埼玉県,北足立郡伊奈町,寿１丁目３２５番地１,,11,301,3620807,,,,,,,2025-12-05,1,,,,,ユニバーサルコーポレーション,0
1651,6030003028212,新規,0,2025-12-05,2025-12-05,合同会社未来堂,,合同会社,埼玉県,草加市,瀬崎２丁目３６番３０－３０６号,,11,221,3400022,,,,,,,2025-12-05,1,,,,,ミライドウ,0
1656,6040001141651,新規,0,2025-12-05,2025-12-05,株式会社コネクト,,株式会社,千葉県,市川市,市川１丁目１－１市川メトロプラザ・５－４０５号室,,12,203,2720034,,,,,,,2025-12-05,1,,,,,コネクト,0
1657,6040001141668,新規,0,2025-12-05,2025-12-05,サンライト株式会社,,株式会社,千葉県,千葉市美浜区,若葉３丁目１番地１幕張ベイパークスカイグランドタワー２４０２号,,12,106,2610014,,,,,,,2025-12-05,1,,,,,サンライト,0
1668,6050001057657,新規,0,2025-12-05,2025-12-05,株式会社サンエイホールディングス,,株式会社,茨城県,牛久市,猪子町９４８番地１,,08,219,3001231,,,,,,,2025-12-05,1,,,,,サンエイホールディングス,0
1669,6050001057681,新規,0,2025-12-05,2025-12-05,株式会社関東アクア,,株式会社,茨城県,石岡市,山崎２２７７番地,,08,205,3150125,,,,,,,2025-12-05,1,,,,,カントウアクア,0
1677,6070001043630,新規,0,2025-12-05,2025-12-05,株式会社ＹＨプランニング,,株式会社,群馬県,高崎市,和田多中町３９６番地１,,10,202,3700844,,,,,,,2025-12-05,1,,,,,ワイエイチプランニング,0
1679,6080401028305,新規,0,2025-12-05,2025-12-05,株式会社ノッチアップ,,株式会社,静岡県,袋井市,月見町１０番地の２,,22,216,4370126,,,,,,,2025-12-05,1,,,,,ノッチアップ,0
1680,6080403005401,新規,0,2025-12-05,2025-12-05,合同会社ＬＵＣＥＮＴＩＡ,,合同会社,静岡県,菊川市,赤土２５７番地の６,,22,224,4371507,,,,,,,2025-12-05,1,,,,,ルーセンティア,0
1699,6120001282446,新規,0,2025-12-05,2025-12-05,吉田株式会社,,株式会社,大阪府,大阪市西区,南堀江３丁目１６番２１－５０８号,,27,106,5500015,,,,,,,2025-12-05,1,,,,,ヨシダ,0
1700,6120001282470,新規,0,2025-12-05,2025-12-05,ＹＳＩホールディングス株式会社,,株式会社,大阪府,大阪市北区,梅田１丁目１番３号大阪駅前第３ビル２９階１－１－１号室,,27,127,5300001,,,,,,,2025-12-05,1,,,,,ワイエスアイホールディングス,0
1701,6120001282520,新規,0,2025-12-05,2025-12-05,Ｇ＆Ｋ国際投資株式会社,,株式会社,大阪府,大阪市東淀川区,東中島１丁目６番２０－１０１号,,27,114,5330033,,,,,,,2025-12-05,1,,,,,ジーアンドケーコクサイトウシ,0
1702,6120001282545,新規,0,2025-12-05,2025-12-05,株式会社コメディコネクト,,株式会社,大阪府,大阪市城東区,古市３丁目２５番８号１階,,27,118,5360001,,,,,,,2025-12-05,1,,,,,コメディコネクト,0
1703,6120001282586,新規,0,2025-12-05,2025-12-05,株式会社Ｕｎｄｅｒｓｔａｎｄ,,株式会社,大阪府,大阪市北区,梅田２丁目５番１３号桜橋第一ビル３０４号室,,27,127,5300001,,,,,,,2025-12-05,1,,,,,アンダースタンド,0
1704,6120001282611,新規,0,2025-12-05,2025-12-05,株式会社ＭＹＭ,,株式会社,大阪府,大阪市浪速区,湊町１丁目２番１７－３３０３号,,27,111,5560017,,,,,,,2025-12-05,1,,,,,エムワイエム,0
1707,6120003031371,新規,0,2025-12-05,2025-12-05,合同会社一灯,,合同会社,大阪府,大阪市淀川区,田川２丁目５－１１,,27,123,5320027,,,,,,,2025-12-05,1,,,,,イットウ,0
1708,6120005025289,新規,0,2025-12-05,2025-12-05,土地家屋調査士法人森田登記測量事務所,,その他の設立登記法人,大阪府,大阪市旭区,新森４丁目６番７号,,27,117,5350022,,,,,,,2025-12-05,1,,,,,モリタトウキソクリョウジムショ,0
1714,6120901051900,新規,0,2025-12-05,2025-12-05,株式会社Ｓｔｅｐ　ｏｎｅ　ｒｉｓｅ,,株式会社,大阪府,摂津市,新在家１丁目１１番１号,,27,224,5660055,,,,,,,2025-12-05,1,,,,,ステップワンライズ,0
1717,6122001039974,新規,0,2025-12-05,2025-12-05,株式会社Ｓｅｒｅｎｄ,,株式会社,大阪府,東大阪市,御厨栄町１丁目７－２２,,27,227,5770036,,,,,,,2025-12-05,1,,,,,セレンド,0
1721,6130001081137,新規,0,2025-12-05,2025-12-05,株式会社七五三,,株式会社,京都府,京都市東山区,大黒町通七条上る塗師屋町５８７番地,,26,105,6050934,,,,,,,2025-12-05,1,,,,,ナゴミ,0
1722,6130001081178,新規,0,2025-12-05,2025-12-05,株式会社ｍｉｍｏｓａ　ｃｏｃｏｔｔｅ,,株式会社,京都府,京都市下京区,西七条掛越町６０番地西大路ハイム８０９,,26,106,6008881,,,,,,,2025-12-05,1,,,,,ミモザココット,0
1723,6130003010985,新規,0,2025-12-05,2025-12-05,合同会社ＴＳＴ,,合同会社,京都府,京都市右京区,西院南高田町１４－２グランコルベール西院３０２,,26,108,6150041,,,,,,,2025-12-05,1,,,,,ティエスティ,0
1732,6140001140973,新規,0,2025-12-05,2025-12-05,株式会社みらい保険パートナーズ,,株式会社,兵庫県,加古川市,野口町良野１１６番地１,,28,210,6750017,,,,,,,2025-12-05,1,,,,,ミライホケンパートナーズ,0
1733,6140001141014,新規,0,2025-12-05,2025-12-05,株式会社ＢＹＬＯＣＡＬ,,株式会社,兵庫県,神戸市中央区,磯辺通２丁目２－１０ｏｎｅｋｎｏｔｔｒａｄｅｓ神戸ビル１００６号室,,28,110,6510084,,,,,,,2025-12-05,1,,,,,バイローカル,0
1736,6140003022930,新規,0,2025-12-05,2025-12-05,ヤナケル合同会社,,合同会社,兵庫県,明石市,大久保町高丘７丁目１２番地の２０,,28,203,6740057,,,,,,,2025-12-05,1,,,,,ヤナケル,0
1738,6160001027260,新規,0,2025-12-05,2025-12-05,創和商事株式会社,,株式会社,滋賀県,栗東市,小柿９丁目７番３５号１０１室,,25,208,5203024,,,,,,,2025-12-05,1,,,,,ソウワショウジ,0
1745,6180001169745,新規,0,2025-12-05,2025-12-05,株式会社ＭＩＺＵＩＲＯ,,株式会社,愛知県,名古屋市中村区,本陣通５丁目１４１番地,,23,105,4530041,,,,,,,2025-12-05,1,,,,,ミズイロ,0
1746,6180001169753,新規,0,2025-12-05,2025-12-05,株式会社ｆｕｌｌ,,株式会社,愛知県,名古屋市中区,新栄３丁目３番８号三正ビル１Ｆ,,23,106,4600007,,,,,,,2025-12-05,1,,,,,フル,0
1747,6180001169778,新規,0,2025-12-05,2025-12-05,株式会社スパーク,,株式会社,愛知県,岩倉市,大地新町３丁目４５番地２,,23,228,4820025,,,,,,,2025-12-05,1,,,,,スパーク,0
1748,6180001169828,新規,0,2025-12-05,2025-12-05,株式会社トモニクラス,,株式会社,愛知県,名古屋市中区,栄２丁目１－１２ダイアパレス伏見６０６,,23,106,4600008,,,,,,,2025-12-05,1,,,,,トモニクラス,0
1750,6180003029468,新規,0,2025-12-05,2025-12-05,合同会社ＳＭＩＬＥ　ａｔ　ＴＡＢＬＥ,,合同会社,愛知県,長久手市,城屋敷１３０１番地２,,23,238,4801122,,,,,,,2025-12-05,1,,,,,スマイルアットテーブル,0
1751,6180301040481,新規,0,2025-12-05,2025-12-05,株式会社Ｉ＆Ｋコーポレーション,,株式会社,愛知県,田原市,赤羽根町大道浦４７番地６,,23,231,4413502,,,,,,,2025-12-05,1,,,,,アイアンドケイコーポレーション,0
1760,6190003005286,新規,0,2025-12-05,2025-12-05,シンジ合同会社,,合同会社,三重県,鈴鹿市,南堀江２丁目１０番１３号,,24,207,5130046,,,,,,,2025-12-05,1,,,,,シンジ,0
1766,6220003004185,新規,0,2025-12-05,2025-12-05,合同会社ＳＴＥＰ,,合同会社,石川県,能美市,寺井町ほ５２番地１,,17,211,9231121,,,,,,,2025-12-05,1,,,,,ステップ,0
1778,6250001021460,新規,0,2025-12-05,2025-12-05,周南住建株式会社,,株式会社,山口県,周南市,栄町２丁目４－２０３,,35,215,7450037,,,,,,,2025-12-05,1,,,,,シュウナンジュウケン,0
1785,6290001112347,新規,0,2025-12-05,2025-12-05,株式会社ＮＥＯＨＡＮＡ,,株式会社,福岡県,福岡市中央区,渡辺通５丁目２－１０渡辺通プレイス７０１号,,40,133,8100004,,,,,,,2025-12-05,1,,,,,ネオハナ,0
1789,6290801032083,新規,0,2025-12-05,2025-12-05,株式会社Ｇ‐Ｆｌｏｗ,,株式会社,福岡県,北九州市八幡西区,西神原町４番２３号,,40,109,8060026,,,,,,,2025-12-05,1,,,,,ジーフロー,0
1790,6310001019878,新規,0,2025-12-05,2025-12-05,Ｎａｇａｓａｋｉ　Ｐｒｉｖａｔｅ　Ｔｏｕｒｓ株式会社,,株式会社,長崎県,長崎市,矢の平１丁目１４－１２,,42,201,8500811,,,,,,,2025-12-05,1,,,,,ナガサキプライベートツアーズ,0
1792,6310003005133,新規,0,2025-12-05,2025-12-05,合同会社大黒屋,,合同会社,長崎県,長崎市,油木町１３－１４,,42,201,8528035,,,,,,,2025-12-05,1,,,,,ダイコクヤ,0
1797,6330001033803,新規,0,2025-12-05,2025-12-05,Ａｔｅｌｉｅｒ株式会社,,株式会社,熊本県,菊池郡大津町,大字大津２３１番地５０,,43,403,8691233,,,,,,,2025-12-05,1,,,,,アトリエ,0
1800,6340001027812,新規,0,2025-12-05,2025-12-05,株式会社ＡＴＫ,,株式会社,鹿児島県,大島郡龍郷町,龍郷字里２１９番地１,,46,527,8940321,,,,,,,2025-12-05,1,,,,,エーティーケー,0
1801,6340001027829,新規,0,2025-12-05,2025-12-05,イラフ株式会社,,株式会社,鹿児島県,鹿児島市,吉野町２３０６番地５,,46,201,8920871,,,,,,,2025-12-05,1,,,,,イラフ,0
1816,6370001053293,新規,0,2025-12-05,2025-12-05,ＫＹＳ株式会社,,株式会社,宮城県,仙台市青葉区,木町通１丁目３番３８号三省堂マンション４０１,,04,101,9800801,,,,,,,2025-12-05,1,,,,,ケーワイエス,0
1819,6370005011033,新規,0,2025-12-05,2025-12-05,オルタス税理士法人,,その他の設立登記法人,宮城県,仙台市青葉区,上杉６丁目１番１２号,,04,101,9800011,,,,,,,2025-12-05,1,,,,,オルタス,0
1829,6400001017245,新規,0,2025-12-05,2025-12-05,株式会社ＯＶＥＲ　ＨＡＮＧ,,株式会社,岩手県,盛岡市,三ツ割３丁目１８番２２号,,03,201,0200011,,,,,,,2025-12-05,1,,,,,オーバーハング,0
1830,6400003003573,新規,0,2025-12-05,2025-12-05,合同会社Ａ．Ｓ．Ｍ,,合同会社,岩手県,盛岡市,永井２４地割４６番地１,,03,201,0200834,,,,,,,2025-12-05,1,,,,,エイエスエム,0
1837,6430001095791,新規,0,2025-12-05,2025-12-05,株式会社大鈴工業,,株式会社,北海道,札幌市東区,北十四条東１４丁目２番８号,,01,103,0650014,,,,,,,2025-12-05,1,,,,,ダイリンコウギョウ,0
1838,6430001095800,新規,0,2025-12-05,2025-12-05,株式会社ネクサポ,,株式会社,北海道,札幌市中央区,南五条西１５丁目２－３－５０３,,01,101,0640805,,,,,,,2025-12-05,1,,,,,ネクサポ,0
1845,6480001013030,新規,0,2025-12-05,2025-12-05,株式会社まとな企画,,株式会社,徳島県,鳴門市,瀬戸町明神字丸山１４０番地,,36,202,7710360,,,,,,,2025-12-05,1,,,,,マトナキカク,0
1848,6500001026665,新規,0,2025-12-05,2025-12-05,株式会社ＬＥＸＯＮＥ,,株式会社,愛媛県,松山市,持田町１丁目３番４２号クレアガーデン持田９０１号,,38,201,7900855,,,,,,,2025-12-05,1,,,,,レックスワン,0
1852,6700150133201,新規,0,2025-12-05,2025-12-05,Ｂｉｌｔｏｎ　Ｈｏｌｄｉｎｇｓ　Ｌｉｍｉｔｅｄ,,外国会社等,,,,,,,,Ｍ９　Ｓｃｅｎｉｃ　Ｖｉｌｌａｓ　２６　Ｓｃｅｎｉｃ　Ｖｉｌｌａ　Ｄｒｉｖｅ　Ｐｏｋｆｕｌａｍ　ＨＫ,,,,,,2025-12-05,1,,,,,ビルトンホールデイングスリミテツド,0
1863,7010001260791,新規,0,2025-12-05,2025-12-05,ＮＵＭＥＮ株式会社,,株式会社,東京都,中央区,銀座７丁目１３番２１号ＧｉｎｚａＲｏｋｕｓｈｕビル２階,,13,102,1040061,,,,,,,2025-12-05,1,,,,,ニューメン,0
1864,7010001260874,新規,0,2025-12-05,2025-12-05,株式会社Ｆｒｅｅ　Ｄｒｅａｍｓ,,株式会社,東京都,千代田区,内神田３丁目２４番４号,,13,101,1010047,,,,,,,2025-12-05,1,,,,,フリードリームス,0
1865,7010001260882,新規,0,2025-12-05,2025-12-05,株式会社ＷＥＬＬＮＥＳＴ　ＨＯＭＥ　ＴＨＥ　ＥＡＳＴ　ＴＯＫＹＯ,,株式会社,東京都,中央区,日本橋小舟町８番１３号,,13,102,1030024,,,,,,,2025-12-05,1,,,,,ウェルネストホームザイーストトウキョウ,0
1866,7010003049597,新規,0,2025-12-05,2025-12-05,合同会社丸京ＪＡＰＡＮ,,合同会社,東京都,文京区,湯島３丁目２８番２号湯島永谷マンション１００４号室,,13,105,1130034,,,,,,,2025-12-05,1,,,,,マルキョウジャパン,0
1868,7010005041016,新規,0,2025-12-05,2025-12-05,一般社団法人スマイルフューチャーデザイン,,その他の設立登記法人,東京都,中央区,新川２丁目１２番１４号松谷ビル２階,,13,102,1040033,,,,,,,2025-12-05,1,,,,,スマイルフューチャーデザイン,0
1869,7010005041032,新規,0,2025-12-05,2025-12-05,一般社団法人東日本整形災害外科学会,,その他の設立登記法人,東京都,千代田区,一ツ橋１丁目１番１号パレスサイドビル株式会社毎日学術フォーラム内,,13,101,1000003,,,,,,,2025-12-05,1,,,,,ヒガシニホンセイケイサイガイゲカガッカイ,0
1870,7010005041040,新規,0,2025-12-05,2025-12-05,一般社団法人ＭＫＮ,,その他の設立登記法人,東京都,中央区,銀座２丁目１０番８号マニエラ銀座ビル４階,,13,102,1040061,,,,,,,2025-12-05,1,,,,,エムケイエヌ,0
1871,7010101016994,新規,0,2025-12-05,2025-12-05,フレアスミライワークス株式会社,,株式会社,東京都,八王子市,三崎町４番１１号,,13,201,1920084,,,,,,,2025-12-05,1,,,,,フレアスミライワークス,0
1874,7010401194763,新規,0,2025-12-05,2025-12-05,株式会社トランジット,,株式会社,東京都,港区,赤坂３丁目１１番１５号ＶＯＲＴ赤坂見附４Ｆ,,13,103,1070052,,,,,,,2025-12-05,1,,,,,トランジット,0
1875,7010401194805,新規,0,2025-12-05,2025-12-05,株式会社Ｍｏｎｊｉ　Ｃｏｆｆｅｅ,,株式会社,東京都,港区,新橋１丁目１８番２１号,,13,103,1050004,,,,,,,2025-12-05,1,,,,,モンジコーヒー,0
1876,7010401194854,新規,0,2025-12-05,2025-12-05,Ｋｏｒｅａｎ　Ａｉｒ　Ｔｅｃｈｎｉｃｓ　Ｊａｐａｎ株式会社,,株式会社,東京都,港区,芝３丁目４番１３号,,13,103,1050014,,,,,,,2025-12-05,1,,,,,コリアンエアーテクニクスジャパン,0
1877,7010401194887,新規,0,2025-12-05,2025-12-05,ＬＵＣＩＯＮ株式会社,,株式会社,東京都,港区,南青山２丁目２－１５－１１０３,,13,103,1070062,,,,,,,2025-12-05,1,,,,,ルシオン,0
1878,7010401194937,新規,0,2025-12-05,2025-12-05,ＯＬＩＭＯＶ株式会社,,株式会社,東京都,港区,六本木３丁目１６番１２号六本木ＫＳビル５Ｆ,,13,103,1060032,,,,,,,2025-12-05,1,,,,,オリモブ,0
1893,7010903010451,新規,0,2025-12-05,2025-12-05,合同会社Ｇ‐ＡＭＴ,,合同会社,東京都,世田谷区,船橋５丁目１１番１３－１０１号,,13,112,1560055,,,,,,,2025-12-05,1,,,,,ジーエーエムティ,0
1894,7010903010476,新規,0,2025-12-05,2025-12-05,リンク合同会社,,合同会社,東京都,世田谷区,八幡山３丁目１３番１４号,,13,112,1560056,,,,,,,2025-12-05,1,,,,,リンク,0
1897,7011001173744,新規,0,2025-12-05,2025-12-05,金土日株式会社,,株式会社,東京都,渋谷区,代々木１丁目３７－２１アイビー代々木１階,,13,113,1510053,,,,,,,2025-12-05,1,,,,,キンドニチ,0
1901,7011005011280,新規,0,2025-12-05,2025-12-05,一般社団法人あかり音,,その他の設立登記法人,東京都,目黒区,自由が丘２丁目１６番１２号,,13,110,1520035,,,,,,,2025-12-05,1,,,,,アカリネ,0
1904,7011101114227,新規,0,2025-12-05,2025-12-05,株式会社Ｓ．Ｋリユース,,株式会社,東京都,新宿区,高田馬場３丁目３７番５号,,13,104,1690075,,,,,,,2025-12-05,1,,,,,エスケーリユース,0
1909,7011105011676,新規,0,2025-12-05,2025-12-05,一般社団法人ジェイ・ピー・ビー,,その他の設立登記法人,東京都,新宿区,下宮比町１番４号,,13,104,1620822,,,,,,,2025-12-05,1,,,,,ジェイピービー,0
1911,7011601029206,新規,0,2025-12-05,2025-12-05,株式会社Ｈｅａｒｉｚｅ,,株式会社,東京都,練馬区,春日町６丁目８番４２号,,13,120,1790074,,,,,,,2025-12-05,1,,,,,ヒアライズ,0
1912,7011601029214,新規,0,2025-12-05,2025-12-05,株式会社モナリサ,,株式会社,東京都,練馬区,谷原１丁目２１番３５号,,13,120,1770032,,,,,,,2025-12-05,1,,,,,モナリサ,0
1914,7011805003502,新規,0,2025-12-05,2025-12-05,一般社団法人Ｍａｓｊｉｄ　Ａｌ　Ａｂｒａｒ　Ｔｏｋｙｏ,,その他の設立登記法人,東京都,葛飾区,お花茶屋３丁目２７番２号,,13,122,1240003,,,,,,,2025-12-05,1,,,,,マスジドアルアブラルトウキョウ,0
1915,7012401043891,新規,0,2025-12-05,2025-12-05,株式会社ｓｔｕｄｉｏｋａｎｏｎ,,株式会社,東京都,小金井市,貫井北町３丁目３０番２６号,,13,210,1840015,,,,,,,2025-12-05,1,,,,,スタジオカノン,0
1923,7013301055424,新規,0,2025-12-05,2025-12-05,株式会社ＢＬＵＥ　ＤＯＭＥ,,株式会社,東京都,豊島区,上池袋２丁目２番１１号,,13,116,1700012,,,,,,,2025-12-05,1,,,,,ブルードーム,0
1938,7020001166014,新規,0,2025-12-05,2025-12-05,株式会社ナインセンス,,株式会社,神奈川県,横浜市中区,相生町６丁目１００番地プラチナタワー馬車道６０１,,14,104,2310012,,,,,,,2025-12-05,1,,,,,ナインセンス,0
1944,7020003029937,新規,0,2025-12-05,2025-12-05,合同会社Ｙｏｕ　ａｎｄ　Ｋｏｕ,,合同会社,神奈川県,川崎市中原区,小杉町２丁目２７６番地１Ｅ３４１３,,14,133,2110063,,,,,,,2025-12-05,1,,,,,ユウアンドコウ,0
1946,7020005017072,新規,0,2025-12-05,2025-12-05,行政書士法人小出事務所,,その他の設立登記法人,神奈川県,横浜市中区,山下町７３番地山下ポートハイツ７階,,14,104,2310023,,,,,,,2025-12-05,1,,,,,コイデジムショ,0
1955,7021001086978,新規,0,2025-12-05,2025-12-05,株式会社Ｋ・ＲＩＳＩＮＧ,,株式会社,神奈川県,大和市,中央３丁目８番２６号グランディール３０７号,,14,213,2420021,,,,,,,2025-12-05,1,,,,,ケーライジング,0
1967,7030001169932,新規,0,2025-12-05,2025-12-05,株式会社ＭＥＦＡＲ,,株式会社,埼玉県,草加市,谷塚仲町４１４番地１,,11,221,3400025,,,,,,,2025-12-05,1,,,,,メファー,0
1968,7030001169957,新規,0,2025-12-05,2025-12-05,株式会社ＮＡＳ,,株式会社,埼玉県,さいたま市見沼区,春岡１丁目７番地１４,,11,104,3370008,,,,,,,2025-12-05,1,,,,,ナス,0
1969,7030001169965,新規,0,2025-12-05,2025-12-05,株式会社達也,,株式会社,埼玉県,ふじみ野市,市沢２丁目１番８号,,11,245,3560057,,,,,,,2025-12-05,1,,,,,タツヤ,0
1970,7030001170007,新規,0,2025-12-05,2025-12-05,Ｔｒｉｃｅｅｄ株式会社,,株式会社,埼玉県,さいたま市大宮区,桜木町２丁目３番地大宮マルイ７階,,11,103,3300854,,,,,,,2025-12-05,1,,,,,トライシード,0
1975,7030003028194,新規,0,2025-12-05,2025-12-05,合同会社中野製作所,,合同会社,埼玉県,上尾市,本町２丁目１３番１１号根貝戸団地１１－４０１号,,11,219,3620014,,,,,,,2025-12-05,1,,,,,ナカノセイサクジョ,0
1976,7030003028203,新規,0,2025-12-05,2025-12-05,合同会社閃光,,合同会社,埼玉県,さいたま市西区,大字指扇７７９番地６,,11,101,3310047,,,,,,,2025-12-05,1,,,,,センコウ,0
1977,7030003028211,新規,0,2025-12-05,2025-12-05,合同会社道標,,合同会社,埼玉県,さいたま市桜区,中島１丁目１１番１８号２階,,11,106,3380822,,,,,,,2025-12-05,1,,,,,ミチシルベ,0
1983,7040001141659,新規,0,2025-12-05,2025-12-05,株式会社ワンス,,株式会社,千葉県,柏市,豊四季台１丁目１番６０号,,12,217,2770845,,,,,,,2025-12-05,1,,,,,ワンス,0
1984,7040001141683,新規,0,2025-12-05,2025-12-05,株式会社コンティネント,,株式会社,千葉県,流山市,市野谷１６８番地の１１（運Ａ１５街区１６）,,12,220,2700137,,,,,,,2025-12-05,1,,,,,コンティネント,0
1987,7040003029092,新規,0,2025-12-05,2025-12-05,合同会社Ｓｈｉｎｉｎｇ,,合同会社,千葉県,木更津市,貝渕２丁目８番３－３０２号,,12,206,2920833,,,,,,,2025-12-05,1,,,,,シャイニング,0
1991,7050003009779,新規,0,2025-12-05,2025-12-05,合同会社コツコツ,,合同会社,茨城県,猿島郡境町,１４５２－７５,,08,546,3060433,,,,,,,2025-12-05,1,,,,,コツコツ,0
1996,7070001043605,新規,0,2025-12-05,2025-12-05,株式会社あき,,株式会社,群馬県,高崎市,八島町７０番地５１,,10,202,3700849,,,,,,,2025-12-05,1,,,,,アキ,0
1999,7080401028295,新規,0,2025-12-05,2025-12-05,株式会社Ｆｎｅｘｔ,,株式会社,静岡県,浜松市中央区,三島町１８０２番地,,22,138,4300853,,,,,,,2025-12-05,1,,,,,エフネクスト,0
2002,7080403005400,新規,0,2025-12-05,2025-12-05,合同会社ＣＬＡＲＩＴＡＳ,,合同会社,静岡県,御前崎市,門屋１９２８番地,,22,223,4371615,,,,,,,2025-12-05,1,,,,,クラリタス,0
2006,7110001039771,新規,0,2025-12-05,2025-12-05,株式会社ＮＪ,,株式会社,新潟県,胎内市,羽黒１３６番地,,15,227,9592624,,,,,,,2025-12-05,1,,,,,エヌジェイ,0
2008,7110003005994,新規,0,2025-12-05,2025-12-05,合同会社るるぽ,,合同会社,新潟県,見附市,新潟町４７０７番地２４,,15,211,9540006,,,,,,,2025-12-05,1,,,,,ルルポ,0
2015,7120001282404,新規,0,2025-12-05,2025-12-05,株式会社ケーティアイホールディングス,,株式会社,大阪府,大阪市淀川区,新高３丁目８番７号,,27,123,5320033,,,,,,,2025-12-05,1,,,,,ケーティアイホールディングス,0
2016,7120001282437,新規,0,2025-12-05,2025-12-05,Ｄ＆Ｎモビリティ株式会社,,株式会社,大阪府,大阪市西区,北堀江１丁目２番１９号アステリオ北堀江ザ・メトロタワー４階,,27,106,5500014,,,,,,,2025-12-05,1,,,,,ディーアンドエヌモビリティ,0
2017,7120001282478,新規,0,2025-12-05,2025-12-05,株式会社アインス,,株式会社,大阪府,大阪市鶴見区,今津中１丁目６番２８号,,27,124,5380042,,,,,,,2025-12-05,1,,,,,アインス,0
2018,7120001282486,新規,0,2025-12-05,2025-12-05,酩天株式会社,,株式会社,大阪府,大阪市西成区,南津守６丁目３番７３号１０１Ａ室,,27,122,5570063,,,,,,,2025-12-05,1,,,,,ラクテン,0
2019,7120001282528,新規,0,2025-12-05,2025-12-05,株式会社最善堂,,株式会社,大阪府,大阪市北区,角田町８－１大阪梅田ツインタワーズ・ノース１９Ｆ,,27,127,5300017,,,,,,,2025-12-05,1,,,,,サイゼンドウ,0
2020,7120001282552,新規,0,2025-12-05,2025-12-05,朝比奈デザイン株式会社,,株式会社,大阪府,大阪市阿倍野区,松崎町２丁目８番２６号,,27,119,5450053,,,,,,,2025-12-05,1,,,,,アサヒナデザイン,0
2021,7120001282569,新規,0,2025-12-05,2025-12-05,株式会社香茗軒,,株式会社,大阪府,大阪市都島区,中野町１丁目３番１６－３０４号,,27,102,5340027,,,,,,,2025-12-05,1,,,,,コウメイケン,0
2024,7120003031370,新規,0,2025-12-05,2025-12-05,合同会社アークブリッジ,,合同会社,大阪府,大阪市淀川区,十八条３丁目２－１０,,27,123,5320001,,,,,,,2025-12-05,1,,,,,アークブリッジ,0
2027,7120101072894,新規,0,2025-12-05,2025-12-05,株式会社司工業,,株式会社,大阪府,堺市中区,東八田２９番地１アーモンドアイ２０３号,,27,142,5998275,,,,,,,2025-12-05,1,,,,,ツカサコウギョウ,0
2028,7120103006883,新規,0,2025-12-05,2025-12-05,合同会社ムコリッタ,,合同会社,大阪府,河内長野市,桐ケ丘１７－１,,27,216,5860097,,,,,,,2025-12-05,1,,,,,ムコリッタ,0
2032,7122003003408,新規,0,2025-12-05,2025-12-05,合同会社もあ,,合同会社,大阪府,東大阪市,吉田７丁目８番４３号シャトー西村２１０号,,27,227,5780924,,,,,,,2025-12-05,1,,,,,モア,0
2033,7122003003416,新規,0,2025-12-05,2025-12-05,新地球研究所合同会社,,合同会社,大阪府,四條畷市,西中野３丁目１番３１－８１３号,,27,229,5750055,,,,,,,2025-12-05,1,,,,,シンチキュウケンキュウジョ,0
2041,7130001081160,新規,0,2025-12-05,2025-12-05,アスピライズ株式会社,,株式会社,京都府,京都市中京区,六角通高倉東入堀之上町１０８番地３０１号,,26,104,6048117,,,,,,,2025-12-05,1,,,,,アスピライズ,0
2044,7130003010968,新規,0,2025-12-05,2025-12-05,桜森合同会社,,合同会社,京都府,京都市東山区,常磐町４５９－８スクエア五条ビル３０１号室,,26,105,6050000,,,,,,,2025-12-05,1,,,,,サクラモリ,0
2046,7140001011323,新規,0,2025-12-05,2025-12-05,株式会社モード・パピヨン,,株式会社,兵庫県,神戸市中央区,磯辺通２丁目２番２２号,,28,110,6510084,,,,,,,2025-12-05,1,,,,,モードパピヨン,0
2052,7140001141021,新規,0,2025-12-05,2025-12-05,Ｏｎｅ　Ｃｈａｎｃｅ　Ｃｏｎｓｕｌｔｉｎｇ＆Ｐａｒｔｎｅｒｓ株式会社,,株式会社,兵庫県,西宮市,松ケ丘町１２番１２号,,28,204,6620061,,,,,,,2025-12-05,1,,,,,ワンチャンスコンサルティングアンドパートナーズ,0
2054,7160001027268,新規,0,2025-12-05,2025-12-05,桑島電工株式会社,,株式会社,滋賀県,愛知郡愛荘町,矢守９０番地,,25,425,5291228,,,,,,,2025-12-05,1,,,,,クワシマデンコウ,0
2069,7180001169752,新規,0,2025-12-05,2025-12-05,株式会社陽家,,株式会社,愛知県,春日井市,妙慶町３丁目９番地３,,23,206,4860928,,,,,,,2025-12-05,1,,,,,ヒヤ,0
2070,7180001169835,新規,0,2025-12-05,2025-12-05,ＹＫＰ株式会社,,株式会社,愛知県,名古屋市西区,上小田井１丁目４５番地の２,,23,104,4520821,,,,,,,2025-12-05,1,,,,,ワイケイピイ,0
2071,7180001169843,新規,0,2025-12-05,2025-12-05,株式会社サムライ,,株式会社,愛知県,名古屋市港区,九番町５丁目８番地の４,,23,111,4550008,,,,,,,2025-12-05,1,,,,,サムライ,0
2075,7180003029459,新規,0,2025-12-05,2025-12-05,合同会社Ｌｕｍｏ,,合同会社,愛知県,名古屋市緑区,平手南２丁目４１４番地,,23,114,4580009,,,,,,,2025-12-05,1,,,,,ルーモ,0
2080,7180301040480,新規,0,2025-12-05,2025-12-05,株式会社トムス,,株式会社,愛知県,豊田市,河合町１丁目１１番地７,,23,211,4710824,,,,,,,2025-12-05,1,,,,,トムス,0
2086,7200001044481,新規,0,2025-12-05,2025-12-05,株式会社タカギ,,株式会社,岐阜県,大垣市,牧野町１丁目２９６番地３,,21,202,5030031,,,,,,,2025-12-05,1,,,,,タカギ,0
2096,7220003004184,新規,0,2025-12-05,2025-12-05,シルタミナ合同会社,,合同会社,石川県,金沢市,米泉町９丁目１３０番地３,,17,201,9218044,,,,,,,2025-12-05,1,,,,,シルタミナ,0
2098,7240001065870,新規,0,2025-12-05,2025-12-05,株式会社岡田動物病院,,株式会社,広島県,竹原市,田ノ浦１丁目８番６号,,34,203,7250023,,,,,,,2025-12-05,1,,,,,オカダドウブツビョウイン,0
2101,7260001040797,新規,0,2025-12-05,2025-12-05,株式会社夢中コーポレーション,,株式会社,岡山県,総社市,種井４６０番地１,,33,208,7191312,,,,,,,2025-12-05,1,,,,,ムチュウコーポレーション,0
2102,7270001009338,新規,0,2025-12-05,2025-12-05,株式会社Ｂｅｅｔｌｅ,,株式会社,鳥取県,米子市,皆生温泉２丁目８番７９号０２,,31,202,6830001,,,,,,,2025-12-05,1,,,,,ビートル,0
2121,7290801032082,新規,0,2025-12-05,2025-12-05,株式会社カランコエ,,株式会社,福岡県,北九州市八幡西区,石坂３丁目９番１号,,40,109,8071121,,,,,,,2025-12-05,1,,,,,カランコエ,0
2124,7310003005140,新規,0,2025-12-05,2025-12-05,合同会社Ｂｅｌｉｅｖｅ,,合同会社,長崎県,島原市,桜門町２６８１番地３,,42,203,8550051,,,,,,,2025-12-05,1,,,,,ビリーブ,0
2135,7360001036100,新規,0,2025-12-05,2025-12-05,アカリ株式会社,,株式会社,沖縄県,那覇市,若狭１丁目２０番１８号２階,,47,201,9000031,,,,,,,2025-12-05,1,,,,,アカリ,0
2140,7370001053268,新規,0,2025-12-05,2025-12-05,Ｍａ　ｖｉｅ株式会社,,株式会社,宮城県,仙台市太白区,ひより台２９番２６号,,04,104,9820811,,,,,,,2025-12-05,1,,,,,メヴィー,0
2141,7370001053292,新規,0,2025-12-05,2025-12-05,株式会社ノーブル,,株式会社,宮城県,仙台市太白区,鹿野本町１１番２１号,,04,104,9820022,,,,,,,2025-12-05,1,,,,,ノーブル,0
2151,7420003003208,新規,0,2025-12-05,2025-12-05,合同会社幸和工業,,合同会社,青森県,東津軽郡外ヶ浜町,字平舘舟岡４３番地２,,02,307,0301415,,,,,,,2025-12-05,1,,,,,コウワコウギョウ,0
2153,7480001013021,新規,0,2025-12-05,2025-12-05,株式会社ＴＩＬＴＮＡＮＡ,,株式会社,徳島県,徳島市,山城西４丁目１６番地の５沖浜ヒルズ館４階,,36,201,7708054,,,,,,,2025-12-05,1,,,,,チルトナナ,0
2155,7500001026664,新規,0,2025-12-05,2025-12-05,株式会社ＬＩＦＩＸ,,株式会社,愛媛県,松山市,高岡町８３１番地６号,,38,201,7918036,,,,,,,2025-12-05,1,,,,,リフィックス,0
2157,7700150133200,新規,0,2025-12-05,2025-12-05,三協・立山健康保険組合,,その他,富山県,高岡市,早川２８番地,,16,202,9330957,,,,,,,2025-12-05,1,,,,,サンキョウタテヤマケンコウホケンクミアイ,0
2158,7700150133209,新規,0,2025-12-05,2025-12-05,ＪＭＡ健康保険組合,,その他,神奈川県,海老名市,めぐみ町２番２号　ＶｉＮＡ　ＧＡＲＤＥＮＳ　ＯＦＦＩＣＥ　１２Ｆ,,14,215,2430438,,,,,,,2025-12-05,1,,,,,ジェイエムエーケンコウホケンクミアイ,0
2169,8010001260642,新規,0,2025-12-05,2025-12-05,ＦｏｒＷａｒｄ　Ｅｄｇｅ‐ＡＩ　Ｊａｐａｎ株式会社,,株式会社,東京都,千代田区,神田小川町３丁目２８番５号,,13,101,1010052,,,,,,,2025-12-05,1,,,,,フォワードエッジエーアイジャパン,0
2170,8010001260774,新規,0,2025-12-05,2025-12-05,株式会社さんさんサポート,,株式会社,東京都,中央区,銀座７丁目１３番６号サガミビル２階,,13,102,1040061,,,,,,,2025-12-05,1,,,,,,0
2171,8010001260824,新規,0,2025-12-05,2025-12-05,バイヌマン株式会社,,株式会社,東京都,中央区,八重洲２丁目１－１ＹＡＮＭＡＲＴＯＫＹＯ１２階,,13,102,1040028,,,,,,,2025-12-05,1,,,,,バイヌマン,0
2172,8010001260857,新規,0,2025-12-05,2025-12-05,にんげんじゃない株式会社,,株式会社,東京都,千代田区,丸の内１丁目３番４号丸の内テラス４０８,,13,101,1000005,,,,,,,2025-12-05,1,,,,,ニンゲンジャナイ,0
2173,8010001260873,新規,0,2025-12-05,2025-12-05,株式会社ＳＡＭ,,株式会社,東京都,千代田区,内神田３丁目２４番４号,,13,101,1010047,,,,,,,2025-12-05,1,,,,,サム,0
2174,8010001260881,新規,0,2025-12-05,2025-12-05,ＡＲＮ株式会社,,株式会社,東京都,中央区,銀座１丁目１２番４号Ｎ＆ＥＢＬＤ．６Ｆ,,13,102,1040061,,,,,,,2025-12-05,1,,,,,エーアールエヌ,0
2179,8010003049596,新規,0,2025-12-05,2025-12-05,ベガ合同会社,,合同会社,東京都,中央区,銀座２丁目１０番８号マニエラ銀座ビル４階,,13,102,1040061,,,,,,,2025-12-05,1,,,,,ベガ,0
2180,8010003049613,新規,0,2025-12-05,2025-12-05,合同会社ＨＥＲＭＩＴ　ＣＬＵＢ,,合同会社,東京都,中央区,京橋１丁目１１－１,,13,102,1040031,,,,,,,2025-12-05,1,,,,,ハーミットクラブ,0
2183,8010005041031,新規,0,2025-12-05,2025-12-05,一般社団法人日本ニューロリプログラム協会,,その他の設立登記法人,東京都,中央区,銀座１丁目１２番４号Ｎ＆ＥＢＬＤ．６Ｆ,,13,102,1040061,,,,,,,2025-12-05,1,,,,,ニホンニューロリプログラムキョウカイ,0
2185,8010101016993,新規,0,2025-12-05,2025-12-05,株式会社田中管工,,株式会社,東京都,八王子市,椚田町５５５番地２６,,13,201,1930942,,,,,,,2025-12-05,1,,,,,タナカカンコウ,0
2186,8010103002703,新規,0,2025-12-05,2025-12-05,東昇芸術合同会社,,合同会社,東京都,八王子市,寺町４３－９中銀八王子マンシオン２０２号室,,13,201,1920073,,,,,,,2025-12-05,1,,,,,トウショウゲイジュツ,0
2192,8010401194878,新規,0,2025-12-05,2025-12-05,株式会社シールスキン,,株式会社,東京都,港区,南青山３丁目１番３６号青山丸竹ビル６Ｆ,,13,103,1070062,,,,,,,2025-12-05,1,,,,,シールスキン,0
2193,8010401194936,新規,0,2025-12-05,2025-12-05,Ａｎｙｐｌａｃｅ　Ｊａｐａｎ株式会社,,株式会社,東京都,港区,北青山１丁目３番１号アールキューブ青山３階,,13,103,1070061,,,,,,,2025-12-05,1,,,,,エニープレイスジャパン,0
2194,8010401194977,新規,0,2025-12-05,2025-12-05,株式会社ＳＬグループ,,株式会社,東京都,港区,南青山２丁目１３番１１号マストライフ南青山ビル４Ｆ,,13,103,1070062,,,,,,,2025-12-05,1,,,,,エスエルグループ,0
2197,8010403036467,新規,0,2025-12-05,2025-12-05,銀座一号合同会社,,合同会社,東京都,港区,浜松町２丁目２番１５号浜松町ダイヤビル２Ｆ,,13,103,1050013,,,,,,,2025-12-05,1,,,,,ギンザイチゴウ,0
2198,8010403036731,新規,0,2025-12-05,2025-12-05,合同会社ライトシング,,合同会社,東京都,港区,芝大門２丁目５番５号芝大門ハイツ１３０６,,13,103,1050012,,,,,,,2025-12-05,1,,,,,,0
2200,8010501055113,新規,0,2025-12-05,2025-12-05,Ｍａｎｇｏ　Ｅｎｔｅｒｔａｉｎｍｅｎｔ株式会社,,株式会社,東京都,台東区,清川１丁目２１－５ＷＡＬＬａｐａｒｔｍｅｎｔ５階大区画号室,,13,106,1110022,,,,,,,2025-12-05,1,,,,,マンゴーエンターテインメント,0
2208,8010901058574,新規,0,2025-12-05,2025-12-05,株式会社Ｙブリッジ,,株式会社,東京都,世田谷区,上祖師谷１丁目２６番１８号,,13,112,1570065,,,,,,,2025-12-05,1,,,,,ワイブリッジ,0
2215,8011001173743,新規,0,2025-12-05,2025-12-05,ＤＥＩＧＨＴ株式会社,,株式会社,東京都,渋谷区,円山町５番３号ＭＩＥＵＸ渋谷ビル８階,,13,113,1500044,,,,,,,2025-12-05,1,,,,,デイト,0
2216,8011001173941,新規,0,2025-12-05,2025-12-05,株式会社ＦＡＮＴＡＳＭ,,株式会社,東京都,渋谷区,神南１丁目１１－４ＦＰＧリンクス神南５階,,13,113,1500041,,,,,,,2025-12-05,1,,,,,ファンタズム,0
2217,8011001174196,新規,0,2025-12-05,2025-12-05,ｍｏｍｏ株式会社,,株式会社,東京都,渋谷区,代々木４丁目３９番１号代々木ＭＫＣＯＵＲＴ４０６,,13,113,1510053,,,,,,,2025-12-05,1,,,,,モモ,0
2219,8011003022972,新規,0,2025-12-05,2025-12-05,合同会社Ｒ２Ｃｒｅａｔｅ,,合同会社,東京都,渋谷区,円山町５番３号ＭＩＥＵＸ渋谷ビル８階,,13,113,1500044,,,,,,,2025-12-05,1,,,,,アールツークリエイト,0
2220,8011003023120,新規,0,2025-12-05,2025-12-05,合同会社トアイマイ,,合同会社,東京都,渋谷区,元代々木町３２番４号,,13,113,1510062,,,,,,,2025-12-05,1,,,,,トアイマイ,0
2225,8011101114052,新規,0,2025-12-05,2025-12-05,株式会社スマートエナジー,,株式会社,東京都,新宿区,西新宿７丁目２２番３４号新宿原田ビル５０３,,13,104,1600023,,,,,,,2025-12-05,1,,,,,スマートエナジー,0
2226,8011101114176,新規,0,2025-12-05,2025-12-05,Ｗ　Ｃｏｒｅ株式会社,,株式会社,東京都,新宿区,新宿１丁目１１番１５号３階Ｂ,,13,104,1600022,,,,,,,2025-12-05,1,,,,,ダブルコア,0
2227,8011101114192,新規,0,2025-12-05,2025-12-05,株式会社ＦＩＧＨＴ　ＭＥＡＴ,,株式会社,東京都,新宿区,新宿７丁目８－１２セブン１０３号室,,13,104,1600022,,,,,,,2025-12-05,1,,,,,ファイトミート,0
2229,8011103016809,新規,0,2025-12-05,2025-12-05,合同会社ジェイ・ジー・ヴイ,,合同会社,東京都,新宿区,下宮比町１番４号,,13,104,1620822,,,,,,,2025-12-05,1,,,,,ジェイジーヴイ,0
2230,8011103016825,新規,0,2025-12-05,2025-12-05,合同会社Ｈａｉｌｉａ,,合同会社,東京都,新宿区,西新宿３丁目３番１３号西新宿水間ビル６階,,13,104,1600023,,,,,,,2025-12-05,1,,,,,ハイリア,0
2232,8011203004903,新規,0,2025-12-05,2025-12-05,合同会社Ｍｕｌｂｅｒｒｙ,,合同会社,東京都,中野区,中野３丁目４６番１２号,,13,114,1640001,,,,,,,2025-12-05,1,,,,,マルベリー,0
2233,8011301031106,新規,0,2025-12-05,2025-12-05,株式会社正眼トラスト,,株式会社,東京都,杉並区,今川１丁目７－１２－１０２,,13,115,1670035,,,,,,,2025-12-05,1,,,,,セイガントラスト,0
2240,8011805003501,新規,0,2025-12-05,2025-12-05,一般社団法人極真空手金町道場,,その他の設立登記法人,東京都,葛飾区,南水元１丁目１５番８号,,13,122,1250035,,,,,,,2025-12-05,1,,,,,キョクシンカラテカナマチドウジョウ,0
2244,8012401043890,新規,0,2025-12-05,2025-12-05,株式会社２Ｍ．ＪＡＣＫ,,株式会社,東京都,武蔵野市,吉祥寺北町３丁目５番１７号,,13,203,1800001,,,,,,,2025-12-05,1,,,,,ツーエムジャック,0
2246,8012403007497,新規,0,2025-12-05,2025-12-05,合同会社ＥＡＲＬＹ　ＢＩＲＤ,,合同会社,東京都,武蔵野市,吉祥寺本町１丁目３６番１２号ドムール七井３０２号室,,13,203,1800004,,,,,,,2025-12-05,1,,,,,アーリーバード,0
2247,8012803003939,新規,0,2025-12-05,2025-12-05,合同会社Ｒ＆Ｍアセットマネジメント,,合同会社,東京都,国立市,北１丁目９番１０号,,13,215,1860001,,,,,,,2025-12-05,1,,,,,アールアンドエムアセットマネジメント,0
2258,8020001165972,新規,0,2025-12-05,2025-12-05,すむまち株式会社,,株式会社,神奈川県,横浜市南区,中里４丁目３１－２０,,14,105,2320063,,,,,,,2025-12-05,1,,,,,スムマチ,0
2259,8020001166013,新規,0,2025-12-05,2025-12-05,株式会社康誠サービスセンター,,株式会社,神奈川県,横浜市戸塚区,深谷町１６４７番地１１２,,14,110,2450067,,,,,,,2025-12-05,1,,,,,コウセイサービスセンター,0
2260,8020001166070,新規,0,2025-12-05,2025-12-05,横浜デリシャスパートナーズ株式会社,,株式会社,神奈川県,横浜市中区,海岸通５丁目２５番２号,,14,104,2310002,,,,,,,2025-12-05,1,,,,,ヨコハマデリシャスパートナーズ,0
2261,8020001166104,新規,0,2025-12-05,2025-12-05,株式会社ワンビジョンパートナーズ,,株式会社,神奈川県,川崎市川崎区,駅前本町１１番地２川崎フロンティアビル４階,,14,131,2100007,,,,,,,2025-12-05,1,,,,,ワンビジョンパートナーズ,0
2262,8020001166120,新規,0,2025-12-05,2025-12-05,武匠工業株式会社,,株式会社,神奈川県,横浜市金沢区,泥亀２丁目１番９号,,14,108,2360021,,,,,,,2025-12-05,1,,,,,タケショウコウギョウ,0
2263,8020001166145,新規,0,2025-12-05,2025-12-05,株式会社Ｋ２ＡＲＣ,,株式会社,神奈川県,横浜市旭区,今宿南町１９３０番地２,,14,112,2410034,,,,,,,2025-12-05,1,,,,,ケーツーアーク,0
2267,8020005017071,新規,0,2025-12-05,2025-12-05,一般社団法人日本熱中症予防協会,,その他の設立登記法人,神奈川県,横浜市鶴見区,下末吉１丁目８番５号,,14,101,2300012,,,,,,,2025-12-05,1,,,,,ニホンネッチュウショウヨボウキョウカイ,0
2270,8021001086960,新規,0,2025-12-05,2025-12-05,株式会社ｎｅｃｏｎｏ‐ｔｅ,,株式会社,神奈川県,茅ヶ崎市,中島３６１番地４２,,14,207,2530073,,,,,,,2025-12-05,1,,,,,ネコノテ,0
2278,8030001169915,新規,0,2025-12-05,2025-12-05,株式会社ＬＩＶＥＥＤＧＥ,,株式会社,埼玉県,入間市,牛沢町１５番１２号,,11,225,3580051,,,,,,,2025-12-05,1,,,,,ライブエッジ,0
2279,8030001169923,新規,0,2025-12-05,2025-12-05,株式会社ｈ．ｓ．ＺＯＥ,,株式会社,埼玉県,蕨市,北町１丁目７番１２号２階ヘアーサロンゾエ,,11,223,3350001,,,,,,,2025-12-05,1,,,,,エイチエスゾエ,0
2280,8030001169931,新規,0,2025-12-05,2025-12-05,株式会社Ｌｉｅｔｏ,,株式会社,埼玉県,草加市,谷塚１丁目２３番９号キングストンハイツ１０１号,,11,221,3400028,,,,,,,2025-12-05,1,,,,,リエート,0
2281,8030001169980,新規,0,2025-12-05,2025-12-05,株式会社ＡＳＴ,,株式会社,埼玉県,さいたま市大宮区,桜木町１丁目１番地２６第２石井ビル４Ｆ,,11,103,3300854,,,,,,,2025-12-05,1,,,,,エーエスティー,0
2288,8040001141591,新規,0,2025-12-05,2025-12-05,株式会社エクシアガーデン,,株式会社,千葉県,千葉市若葉区,加曽利町１３８２番地１,,12,104,2640017,,,,,,,2025-12-05,1,,,,,エクシアガーデン,0
2289,8040001141641,新規,0,2025-12-05,2025-12-05,イオンＣＲＥソリューションズ株式会社,,株式会社,千葉県,千葉市美浜区,中瀬１丁目５番地１,,12,106,2610023,,,,,,,2025-12-05,1,,,,,イオンシーアールイーソリューションズ,0
2290,8040001141658,新規,0,2025-12-05,2025-12-05,株式会社タオ・キャピタル,,株式会社,千葉県,千葉市美浜区,磯辺３丁目２番９号,,12,106,2610012,,,,,,,2025-12-05,1,,,,,タオキャピタル,0
2291,8040001141666,新規,0,2025-12-05,2025-12-05,株式会社ｉｓｍ,,株式会社,千葉県,茂原市,西野３１３番地１６,,12,210,2994112,,,,,,,2025-12-05,1,,,,,イズム,0
2293,8040003029091,新規,0,2025-12-05,2025-12-05,合同会社３ＲＢコンサルティング,,合同会社,千葉県,松戸市,紙敷１５７７番地の７,,12,207,2702221,,,,,,,2025-12-05,1,,,,,スリーアールビーコンサルティング,0
2296,8050001057696,新規,0,2025-12-05,2025-12-05,株式会社佐伯建設,,株式会社,茨城県,鉾田市,大戸６３１番地,,08,234,3111502,,,,,,,2025-12-05,1,,,,,サエキケンセツ,0
2299,8070001043620,新規,0,2025-12-05,2025-12-05,株式会社植松組,,株式会社,群馬県,伊勢崎市,市場町１丁目１８５番地１,,10,204,3792211,,,,,,,2025-12-05,1,,,,,ウエマツグミ,0
2304,8070005010451,新規,0,2025-12-05,2025-12-05,医療法人晃明会,,その他の設立登記法人,群馬県,高崎市,筑縄町２０番地５,,10,202,3700075,,,,,,,2025-12-05,1,,,,,,0
2312,8080401028303,新規,0,2025-12-05,2025-12-05,株式会社エイビー,,株式会社,静岡県,菊川市,加茂５９２９番地の１,,22,224,4390031,,,,,,,2025-12-05,1,,,,,エイビー,0
2313,8080401028311,新規,0,2025-12-05,2025-12-05,株式会社Ｂｒｉｇｈｔ　Ｈｏｍｅ,,株式会社,静岡県,浜松市浜名区,内野台２丁目３９番３８号,,22,139,4340045,,,,,,,2025-12-05,1,,,,,ブライトホーム,0
2323,8100001039177,新規,0,2025-12-05,2025-12-05,株式会社井上不動産,,株式会社,長野県,安曇野市,豊科５８０７番地１,,20,220,3998205,,,,,,,2025-12-05,1,,,,,イノウエフドウサン,0
2327,8110001039762,新規,0,2025-12-05,2025-12-05,株式会社バニラカンパニー,,株式会社,新潟県,新潟市中央区,鳥屋野南３丁目５－１０ウェルズ２１サリエンテＢ号室,,15,103,9500950,,,,,,,2025-12-05,1,,,,,バニラカンパニー,0
2328,8110001039770,新規,0,2025-12-05,2025-12-05,株式会社ＴＰネクサスホールディングス,,株式会社,新潟県,三条市,塚野目４丁目１９番１２号,,15,204,9550055,,,,,,,2025-12-05,1,,,,,ティーピーネクサスホールディングス,0
2330,8110003005993,新規,0,2025-12-05,2025-12-05,合同会社農家の手,,合同会社,新潟県,魚沼市,中島新田５６６番地,,15,225,9460058,,,,,,,2025-12-05,1,,,,,ノウカノテ,0
2340,8120001282411,新規,0,2025-12-05,2025-12-05,Ｇｌｏｂａｌ　ｔｒａｄｉｎｇ株式会社,,株式会社,大阪府,大阪市中央区,平野町２丁目５番８号,,27,128,5410046,,,,,,,2025-12-05,1,,,,,グローバルトレーディング,0
2341,8120001282485,新規,0,2025-12-05,2025-12-05,臻上株式会社,,株式会社,大阪府,大阪市西成区,南津守６丁目３番７３号２０２室,,27,122,5570063,,,,,,,2025-12-05,1,,,,,シンジョウ,0
2342,8120001282527,新規,0,2025-12-05,2025-12-05,株式会社リベロ,,株式会社,大阪府,寝屋川市,美井元町２９番４２－１２号,,27,215,5720006,,,,,,,2025-12-05,1,,,,,リベロ,0
2343,8120001282535,新規,0,2025-12-05,2025-12-05,株式会社Ｗｉｌｌ５,,株式会社,大阪府,大阪市浪速区,桜川３丁目６番３号１Ｆ,,27,111,5560022,,,,,,,2025-12-05,1,,,,,ウィルファイブ,0
2344,8120001282568,新規,0,2025-12-05,2025-12-05,株式会社コアエステートパートナーズ,,株式会社,大阪府,大阪市中央区,内久宝寺町４丁目３番８号,,27,128,5400013,,,,,,,2025-12-05,1,,,,,コアエステートパートナーズ,0
2349,8120003031394,新規,0,2025-12-05,2025-12-05,合同会社Ｃｏｚｙ,,合同会社,大阪府,大阪市阿倍野区,阿倍野元町１４番３－１３０１号,,27,119,5450034,,,,,,,2025-12-05,1,,,,,コーズィー,0
2350,8120005025287,新規,0,2025-12-05,2025-12-05,一般社団法人全国鳥獣害・衛生防除協会,,その他の設立登記法人,大阪府,大阪市東住吉区,照ケ丘矢田４丁目１３番１３号,,27,121,5460021,,,,,,,2025-12-05,1,,,,,ゼンコクチョウジュウガイエイセイボウジョキョウカイ,0
2352,8120101072893,新規,0,2025-12-05,2025-12-05,株式会社りんくうオートサービス,,株式会社,大阪府,泉佐野市,笠松１丁目８番１５号,,27,213,5980044,,,,,,,2025-12-05,1,,,,,リンクウオートサービス,0
2353,8120103006882,新規,0,2025-12-05,2025-12-05,快樂國際合同会社,,合同会社,大阪府,泉佐野市,羽倉崎２丁目１番５９号Ｅ１,,27,213,5980046,,,,,,,2025-12-05,1,,,,,カイラクコクサイ,0
2356,8120901051907,新規,0,2025-12-05,2025-12-05,株式会社フレンド,,株式会社,大阪府,高槻市,芥川町３丁目１２番７号,,27,207,5691123,,,,,,,2025-12-05,1,,,,,フレンド,0
2357,8120903005984,新規,0,2025-12-05,2025-12-05,Ｍｏａｎａ　Ｇｒａｎｄｅ合同会社,,合同会社,大阪府,豊中市,新千里東町２丁目５－７－８０２,,27,203,5600082,,,,,,,2025-12-05,1,,,,,モアナグランデ,0
2358,8122003003415,新規,0,2025-12-05,2025-12-05,ゴリラ建設合同会社,,合同会社,大阪府,四條畷市,大字清瀧６番地の４コーポラス三栄６０２,,27,229,5750063,,,,,,,2025-12-05,1,,,,,ゴリラケンセツ,0
2360,8130001081151,新規,0,2025-12-05,2025-12-05,ＬｅＳｈｉｆｔ株式会社,,株式会社,京都府,京都市右京区,太秦上ノ段町１０番地,,26,108,6168173,,,,,,,2025-12-05,1,,,,,レシフト,0
2367,8140001141012,新規,0,2025-12-05,2025-12-05,株式会社キタキン,,株式会社,兵庫県,朝来市,和田山町竹田２７５番地１,,28,225,6695252,,,,,,,2025-12-05,1,,,,,キタキン,0
2368,8140001141020,新規,0,2025-12-05,2025-12-05,ビジネスフォワード株式会社,,株式会社,兵庫県,宝塚市,山手台西１丁目１番１号,,28,214,6650886,,,,,,,2025-12-05,1,,,,,ビジネスフォワード,0
2371,8150001028588,新規,0,2025-12-05,2025-12-05,株式会社Ｍ．Ｉ．Ｃ,,株式会社,奈良県,橿原市,葛本町３９７番地の２,,29,205,6340007,,,,,,,2025-12-05,1,,,,,エムアイシー,0
2377,8170001018901,新規,0,2025-12-05,2025-12-05,株式会社樹,,株式会社,和歌山県,新宮市,池田３丁目１番２１号,,30,207,6470021,,,,,,,2025-12-05,1,,,,,イツキ,0
2386,8180001169784,新規,0,2025-12-05,2025-12-05,株式会社Ｙワークス,,株式会社,愛知県,名古屋市昭和区,広見町４丁目４７番地の２・７０２号,,23,107,4660046,,,,,,,2025-12-05,1,,,,,ワイワークス,0
2387,8180001169842,新規,0,2025-12-05,2025-12-05,株式会社虎要,,株式会社,愛知県,名古屋市南区,北頭町２丁目２６番地の１,,23,112,4570827,,,,,,,2025-12-05,1,,,,,コヨウ,0
2393,8180303006834,新規,0,2025-12-05,2025-12-05,ココロクリエイティブ合同会社,,合同会社,愛知県,豊橋市,西高師町字船渡１０５―５ＴＯＲＣＨ３,,23,201,4418154,,,,,,,2025-12-05,1,,,,,ココロクリエイティブ,0
2396,8200001044489,新規,0,2025-12-05,2025-12-05,株式会社ＫＯＳ,,株式会社,岐阜県,羽島市,正木町大浦新田５丁目２９番地,,21,209,5016223,,,,,,,2025-12-05,1,,,,,コス,0
2397,8210005010239,新規,0,2025-12-05,2025-12-05,一般社団法人マリーナ,,その他の設立登記法人,福井県,福井市,江守中町６－１,,18,201,9188025,,,,,,,2025-12-05,1,,,,,マリーナ,0
2404,8240001065886,新規,0,2025-12-05,2025-12-05,謙光株式会社,,株式会社,広島県,福山市,幕山台２丁目１９番６号,,34,207,7210913,,,,,,,2025-12-05,1,,,,,,0
2406,8240003007507,新規,0,2025-12-05,2025-12-05,合同会社ＭＡＳＨ,,合同会社,広島県,広島市安佐南区,高取南１丁目６番７－２０４号,,34,105,7310142,,,,,,,2025-12-05,1,,,,,マッシュ,0
2408,8260001040788,新規,0,2025-12-05,2025-12-05,株式会社オカダ,,株式会社,岡山県,岡山市中区,江崎３９３番地,,33,102,7028005,,,,,,,2025-12-05,1,,,,,オカダ,0
2409,8260003005442,新規,0,2025-12-05,2025-12-05,合同会社ＳＯＥＵＲ,,合同会社,岡山県,倉敷市,川西町１７番１２－２０５,,33,202,7100821,,,,,,,2025-12-05,1,,,,,スール,0
2410,8280001009550,新規,0,2025-12-05,2025-12-05,株式会社松江ダイワ,,株式会社,島根県,松江市,東津田町１１８４番地１,,32,201,6900011,,,,,,,2025-12-05,1,,,,,マツエダイワ,0
2416,8290001112444,新規,0,2025-12-05,2025-12-05,株式会社ＳＥＲＥＮＤＩＡ,,株式会社,福岡県,福岡市博多区,博多駅前４丁目１８番１８－８０３号,,40,132,8120011,,,,,,,2025-12-05,1,,,,,セレンディア,0
2420,8300001014424,新規,0,2025-12-05,2025-12-05,株式会社Ｃｏｃｏ　Ｄｅｎｔ．,,株式会社,佐賀県,小城市,牛津町柿樋瀬１１１５番地４,00141750,41,208,8490302,,,,,,,2025-12-05,1,,,,,ココデント,0
2421,8300003002385,新規,0,2025-12-05,2025-12-05,合同会社ひなゆい,,合同会社,佐賀県,伊万里市,二里町八谷搦１３３８－２,,41,205,8480031,,,,,,,2025-12-05,1,,,,,ヒナユイ,0
2430,8330003011342,新規,0,2025-12-05,2025-12-05,合同会社朝日産業,,合同会社,熊本県,熊本市北区,植木町豊岡２９１４番地４,,43,105,8610163,,,,,,,2025-12-05,1,,,,,アサヒサンギョウ,0
2433,8360001036099,新規,0,2025-12-05,2025-12-05,バイオミラ株式会社,,株式会社,沖縄県,宜野湾市,真志喜１丁目５番５号ＪＹＯＵＴＯＵビル１階,,47,205,9012224,,,,,,,2025-12-05,1,,,,,バイオミラ,0
2434,8360001036108,新規,0,2025-12-05,2025-12-05,株式会社ＳＵＮエージェンシー,,株式会社,沖縄県,沖縄市,与儀１丁目２番２１号イーストブルー２０１号室,,47,211,9042174,,,,,,,2025-12-05,1,,,,,サンエージェンシー,0
2447,8390001018177,新規,0,2025-12-05,2025-12-05,株式会社Ｏｈ農場,,株式会社,山形県,最上郡真室川町,大字大沢３５８６番地,,06,364,9995521,,,,,,,2025-12-05,1,,,,,オーノウジョウ,0
2449,8400001017243,新規,0,2025-12-05,2025-12-05,株式会社Ｄｅａｒｓ,,株式会社,岩手県,盛岡市,南大通１丁目３番８号,,03,201,0200874,,,,,,,2025-12-05,1,,,,,ディアーズ,0
2452,8420001019361,新規,0,2025-12-05,2025-12-05,株式会社親切モーター,,株式会社,青森県,青森市,大字新城字平岡１６０番地３６０,,02,201,0380042,,,,,,,2025-12-05,1,,,,,シンセツモーター,0
2462,8470003003029,新規,0,2025-12-05,2025-12-05,合同会社シンシアパートナーズ,,合同会社,香川県,高松市,国分寺町新名４５９番地４,,37,201,7690104,,,,,,,2025-12-05,1,,,,,シンシアパートナーズ,0
2463,8500001026663,新規,0,2025-12-05,2025-12-05,株式会社Ｌｕｖｉｌｕ,,株式会社,愛媛県,松山市,鷹子町５２０－１－１０１号室,,38,201,7900925,,,,,,,2025-12-05,1,,,,,ルヴィル,0
2464,8700150133208,新規,0,2025-12-05,2025-12-05,大和製衡健康保険組合,,その他,兵庫県,明石市,茶園場町５番２２号,,28,203,6730849,,,,,,,2025-12-05,1,,,,,ヤマトセイコウケンコウホケンクミアイ,0
2475,9010001260773,新規,0,2025-12-05,2025-12-05,サムティキャピタルマネジメント株式会社,,株式会社,東京都,千代田区,丸の内１丁目８番３号,,13,101,1000005,,,,,,,2025-12-05,1,,,,,サムティキャピタルマネジメント,0
2476,9010001260856,新規,0,2025-12-05,2025-12-05,ＮＩＳ‐３株式会社,,株式会社,東京都,中央区,銀座３丁目４番１号大倉別館５階,,13,102,1040061,,,,,,,2025-12-05,1,,,,,ニススリー,0
2477,9010001260880,新規,0,2025-12-05,2025-12-05,ＮａＳｃｅｎｔ　Ｉｎｓｉｇｈｔｓ株式会社,,株式会社,東京都,中央区,日本橋２丁目２－３ＲＩＳＨＥビルＵＣＦ４階,,13,102,1030027,,,,,,,2025-12-05,1,,,,,ナセントインサイツ,0
2485,9010003049595,新規,0,2025-12-05,2025-12-05,アークトゥルス合同会社,,合同会社,東京都,中央区,銀座２丁目１０番８号マニエラ銀座ビル４階,,13,102,1040061,,,,,,,2025-12-05,1,,,,,アークトゥルス,0
2486,9010003049653,新規,0,2025-12-05,2025-12-05,ＳＮレジデンシャル合同会社,,合同会社,東京都,千代田区,丸の内１丁目４番１号東京共同会計事務所内,,13,101,1000005,,,,,,,2025-12-05,1,,,,,エスエヌレジデンシャル,0
2487,9010005041039,新規,0,2025-12-05,2025-12-05,ＲＥＬＡインベストメント一般社団法人,,その他の設立登記法人,東京都,中央区,日本橋１丁目４番１号,,13,102,1030027,,,,,,,2025-12-05,1,,,,,リラインベストメント,0
2489,9010103002710,新規,0,2025-12-05,2025-12-05,合同会社Ｃａｒｐｅ　Ｄｉｅｍ,,合同会社,東京都,八王子市,絹ケ丘１丁目１７番４号,,13,201,1920912,,,,,,,2025-12-05,1,,,,,カルペディエム,0
2495,9010401194828,新規,0,2025-12-05,2025-12-05,株式会社ＬＩＭＩＮＡ,,株式会社,東京都,港区,白金１丁目２番１－Ｅ２７１６号,,13,103,1080072,,,,,,,2025-12-05,1,,,,,リミナ,0
2496,9010401194893,新規,0,2025-12-05,2025-12-05,ソラクモ株式会社,,株式会社,東京都,港区,芝２丁目１２－１４西川ビル５０１,,13,103,1050014,,,,,,,2025-12-05,1,,,,,,0
2497,9010401194927,新規,0,2025-12-05,2025-12-05,株式会社Ａｙａｒｉｓｅ,,株式会社,東京都,港区,麻布十番１丁目２番７号,,13,103,1060045,,,,,,,2025-12-05,1,,,,,アヤライズ,0
2498,9010401194935,新規,0,2025-12-05,2025-12-05,株式会社馬場ホールディングス,,株式会社,東京都,港区,赤坂２丁目１７番１２号チュリス赤坂１３０４,,13,103,1070052,,,,,,,2025-12-05,1,,,,,ババホールディングス,0
2499,9010401194943,新規,0,2025-12-05,2025-12-05,Ｂｅｅロジスティクスジャパン株式会社,,株式会社,東京都,港区,港南２丁目１６番１号,,13,103,1080075,,,,,,,2025-12-05,1,,,,,ビーロジスティクスジャパン,0
2500,9010401194951,新規,0,2025-12-05,2025-12-05,株式会社Ｃ’ｓ３ｆａｃｔｏｒｙ,,株式会社,東京都,港区,赤坂２丁目９番３号松浦ビル３階,,13,103,1070052,,,,,,,2025-12-05,1,,,,,シーズスリーファクトリー,0
2501,9010401194984,新規,0,2025-12-05,2025-12-05,株式会社Ｄ分割準備会社,,株式会社,東京都,港区,五丁目２９番１１号,,13,103,1050000,,,,,,,2025-12-05,1,,,,,ディーブンカツジュンビガイシャ,0
2505,9010403036689,新規,0,2025-12-05,2025-12-05,合同会社Ｅｎｌｉａ,,合同会社,東京都,港区,青山三丁目１番３６号青山丸竹ビル６Ｆ,,13,103,1050000,,,,,,,2025-12-05,1,,,,,エンリーエ,0
2514,9010901058573,新規,0,2025-12-05,2025-12-05,ＤＥＬＴＡ株式会社,,株式会社,東京都,世田谷区,三軒茶屋２丁目１１番２２号,,13,112,1540024,,,,,,,2025-12-05,1,,,,,デルタ,0
2515,9010901058598,新規,0,2025-12-05,2025-12-05,株式会社入船デザイン,,株式会社,東京都,世田谷区,八幡山１丁目２１番１４号,,13,112,1560056,,,,,,,2025-12-05,1,,,,,イリフネデザイン,0
2520,9011001173726,新規,0,2025-12-05,2025-12-05,株式会社ＦＬＹＩＮＧ　ＥＤＧＥ,,株式会社,東京都,渋谷区,道玄坂１丁目１０番８号渋谷道玄坂東急ビル２Ｆ－Ｃ,,13,113,1500043,,,,,,,2025-12-05,1,,,,,フライングエッジ,0
2521,9011001173908,新規,0,2025-12-05,2025-12-05,株式会社８,,株式会社,東京都,目黒区,中町１丁目２５番３号,,13,110,1530065,,,,,,,2025-12-05,1,,,,,エイト,0
2522,9011001173924,新規,0,2025-12-05,2025-12-05,株式会社Ｌｉｌｙ,,株式会社,東京都,渋谷区,道玄坂１丁目１０番８号渋谷道玄坂東急ビル２Ｆ－Ｃ,,13,113,1500043,,,,,,,2025-12-05,1,,,,,リリー,0
2523,9011001173981,新規,0,2025-12-05,2025-12-05,株式会社ＶＩＶＩＤ,,株式会社,東京都,渋谷区,道玄坂１丁目１０番８号渋谷道玄坂東急ビル２Ｆ－Ｃ,,13,113,1500043,,,,,,,2025-12-05,1,,,,,ビビッド,0
2524,9011001174063,新規,0,2025-12-05,2025-12-05,株式会社月香禮,,株式会社,東京都,渋谷区,恵比寿３丁目３１－１４恵比寿マナーハウス１０１,,13,113,1500013,,,,,,,2025-12-05,1,,,,,ゲッコウレイ,0
2527,9011003023061,新規,0,2025-12-05,2025-12-05,合同会社未来企画,,合同会社,東京都,渋谷区,幡ヶ谷１丁目８番４号,,13,113,1510072,,,,,,,2025-12-05,1,,,,,ミライキカク,0
2531,9011101114217,新規,0,2025-12-05,2025-12-05,株式会社Ａｐｅｘ　Ｂｅａｕｔｙ　Ｌａｂ,,株式会社,東京都,新宿区,西新宿８丁目１１番１０号星野ビル３階,,13,104,1600023,,,,,,,2025-12-05,1,,,,,エーペックススビューティラボ,0
2536,9011103016824,新規,0,2025-12-05,2025-12-05,合同会社リクロス,,合同会社,東京都,新宿区,西新宿５丁目１１番４号クオーレ西新宿４０１,,13,104,1600023,,,,,,,2025-12-05,1,,,,,リクロス,0
2537,9011103016832,新規,0,2025-12-05,2025-12-05,合同会社ベガ・アルタイル,,合同会社,東京都,新宿区,新宿２丁目５番１２号,,13,104,1600022,,,,,,,2025-12-05,1,,,,,ベガアルタイル,0
2541,9011401027639,新規,0,2025-12-05,2025-12-05,Ｍａｈａｌｏ株式会社,,株式会社,東京都,板橋区,赤塚３丁目７番８号,,13,119,1750092,,,,,,,2025-12-05,1,,,,,マハロ,0
2545,9012401043898,新規,0,2025-12-05,2025-12-05,株式会社スプルーシュ,,株式会社,東京都,府中市,白糸台５丁目１６番地の２８,,13,206,1830011,,,,,,,2025-12-05,1,,,,,スプルーシュ,0
2553,9013301055422,新規,0,2025-12-05,2025-12-05,匠風株式会社,,株式会社,東京都,豊島区,長崎４丁目３７－３,,13,116,1710051,,,,,,,2025-12-05,1,,,,,ショウフウ,0
2554,9013301055439,新規,0,2025-12-05,2025-12-05,株式会社ＡＵＲＡＥＮ　ＪＡＰＡＮ,,株式会社,東京都,豊島区,東池袋１丁目３４番５号いちご東池袋ビル６階,,13,116,1700013,,,,,,,2025-12-05,1,,,,,オーレンジャパン,0
2566,9020003029885,新規,0,2025-12-05,2025-12-05,合同会社サニーテラス山業システム,,合同会社,神奈川県,横浜市港北区,箕輪町３丁目１５番４３号,,14,109,2230051,,,,,,,2025-12-05,1,,,,,サニーテラスサンギョウシステム,0
2567,9020003029910,新規,0,2025-12-05,2025-12-05,合同会社ｓｌｏｗ　ｈａｎｄ,,合同会社,神奈川県,川崎市中原区,井田三舞町９番１５－８１１号,,14,133,2110037,,,,,,,2025-12-05,1,,,,,スローハンド,0
2568,9020005017054,新規,0,2025-12-05,2025-12-05,一般社団法人めぐみ,,その他の設立登記法人,神奈川県,横浜市鶴見区,寺谷２丁目１５－１８,,14,101,2300015,,,,,,,2025-12-05,1,,,,,メグミ,0
2577,9030001169939,新規,0,2025-12-05,2025-12-05,ＴＳＳ株式会社,,株式会社,埼玉県,さいたま市中央区,下落合４丁目７番１８号,,11,105,3380002,,,,,,,2025-12-05,1,,,,,ティーエスエス,0
2578,9030001169971,新規,0,2025-12-05,2025-12-05,株式会社滋田商店,,株式会社,埼玉県,三郷市,東町６１番地,,11,237,3410036,,,,,,,2025-12-05,1,,,,,シゲタショウテン,0
2579,9030001170046,新規,0,2025-12-05,2025-12-05,エレンシアコンサルティング株式会社,,株式会社,埼玉県,北葛飾郡松伏町,大字大川戸２０４,,11,465,3430106,,,,,,,2025-12-05,1,,,,,エレンシアコンサルティング,0
2587,9030003028192,新規,0,2025-12-05,2025-12-05,ＣａｒｄＮｉｐ合同会社,,合同会社,埼玉県,川越市,大字砂７１６―１８,,11,201,3501133,,,,,,,2025-12-05,1,,,,,カードニップ,0
2594,9040001141632,新規,0,2025-12-05,2025-12-05,株式会社ＺＥ　ＩＮＴＥＲＮＡＴＩＯＮＡＬ,,株式会社,千葉県,船橋市,本中山５丁目４番１０号,,12,204,2730035,,,,,,,2025-12-05,1,,,,,ジインターナショナル,0
2595,9040001141640,新規,0,2025-12-05,2025-12-05,株式会社アステラリンク,,株式会社,千葉県,千葉市稲毛区,天台３丁目１番１０号,,12,103,2630016,,,,,,,2025-12-05,1,,,,,アステラリンク,0
2596,9040001141657,新規,0,2025-12-05,2025-12-05,株式会社ＴＶＴホールディングス,,株式会社,千葉県,佐倉市,本町１１番地２,,12,212,2850037,,,,,,,2025-12-05,1,,,,,ティブイティホールディングス,0
2599,9040003029090,新規,0,2025-12-05,2025-12-05,Ｂｅｌｌａ　Ｌｕｃｅ合同会社,,合同会社,千葉県,四街道市,和良比９２１番地５,,12,228,2840044,,,,,,,2025-12-05,1,,,,,ベラルーチェ,0
2603,9060003005874,新規,0,2025-12-05,2025-12-05,合同会社忍者式,,合同会社,栃木県,那須塩原市,東三島１丁目１０４番地１６９,,09,213,3292751,,,,,,,2025-12-05,1,,,,,ニンジャシキ,0
2604,9070001043628,新規,0,2025-12-05,2025-12-05,株式会社神戸,,株式会社,群馬県,藤岡市,藤岡４２８番地１,,10,209,3750024,,,,,,,2025-12-05,1,,,,,カンベ,0
2608,9080401028302,新規,0,2025-12-05,2025-12-05,日ノ本財託株式会社,,株式会社,静岡県,浜松市浜名区,染地台３丁目５番９号,,22,139,4340046,,,,,,,2025-12-05,1,,,,,ヒノモトザイタク,0
2609,9080401028310,新規,0,2025-12-05,2025-12-05,株式会社Ｋ．Ｄｉｎｏ,,株式会社,静岡県,磐田市,城之崎４丁目８番地３,,22,211,4380084,,,,,,,2025-12-05,1,,,,,ケーディノ,0
2611,9090003002943,新規,0,2025-12-05,2025-12-05,合同会社ＨＲＭ,,合同会社,山梨県,甲斐市,富竹新田１６３番地２,,19,210,4000113,,,,,,,2025-12-05,1,,,,,エイチアールエム,0
2612,9110001039778,新規,0,2025-12-05,2025-12-05,株式会社ＮＢアセットマネジメント,,株式会社,新潟県,新潟市西区,鳥原６３４番地１９,,15,107,9501115,,,,,,,2025-12-05,1,,,,,エヌビーアセットマネジメント,0
2615,9110003005992,新規,0,2025-12-05,2025-12-05,ココロオドル合同会社,,合同会社,新潟県,長岡市,東坂之上町２丁目３－９,,15,202,9400066,,,,,,,2025-12-05,1,,,,,ココロオドル,0
2626,9120001282501,新規,0,2025-12-05,2025-12-05,株式会社ルリエ,,株式会社,大阪府,大阪市城東区,鴫野東１丁目６番６号,,27,118,5360013,,,,,,,2025-12-05,1,,,,,ルリエ,0
2627,9120001282526,新規,0,2025-12-05,2025-12-05,株式会社Ｙ’ｓ‐Ｇｒｏｕｐ,,株式会社,大阪府,大阪市北区,梅田１丁目２番２号大阪駅前第２ビル１２－１２,,27,127,5300001,,,,,,,2025-12-05,1,,,,,ワイズグループ,0
2629,9120003031369,新規,0,2025-12-05,2025-12-05,合同会社誠和,,合同会社,大阪府,大阪市淀川区,十八条３丁目１８－８,,27,123,5320001,,,,,,,2025-12-05,1,,,,,セイワ,0
2630,9120003031419,新規,0,2025-12-05,2025-12-05,合同会社Ｇｒｏｗｔｈ　Ｌａｂ,,合同会社,大阪府,大阪市北区,梅田１丁目２番２号大阪駅前第２ビル１２‐１２,,27,127,5300001,,,,,,,2025-12-05,1,,,,,グロースラボ,0
2631,9120101072918,新規,0,2025-12-05,2025-12-05,株式会社ＫＩＯＫＡ　ＴＲＡＮＳＰＯＲＴ,,株式会社,大阪府,岸和田市,南上町２丁目２１－１１,,27,202,5960078,,,,,,,2025-12-05,1,,,,,キオカトランスポート,0
2634,9120901051906,新規,0,2025-12-05,2025-12-05,Ａｓｃｌｅｐｉｏｎ　Ｊａｐａｎ株式会社,,株式会社,大阪府,豊中市,西緑丘３丁目２３番２５号,,27,203,5600005,,,,,,,2025-12-05,1,,,,,エースクラピオンジャパン,0
2635,9120903005983,新規,0,2025-12-05,2025-12-05,合同会社ＲｅｔａｉｌＩＱ,,合同会社,大阪府,吹田市,寿町２丁目２３－１０－１,,27,205,5640036,,,,,,,2025-12-05,1,,,,,リテイルアイキュウ,0
2641,9130001081084,新規,0,2025-12-05,2025-12-05,株式会社Ｈ＆Ｚ総合研究所,,株式会社,京都府,京都市右京区,花園艮北町２３－２０,,26,108,6168033,,,,,,,2025-12-05,1,,,,,エイチアンドゼットソウゴウケンキュウジョ,0
2642,9130001081142,新規,0,2025-12-05,2025-12-05,Ｂｅｙｏｎｄ　Ｉｎｎｏｖａｔｉｏｎ株式会社,,株式会社,京都府,京田辺市,三山木中央９丁目５番地１ディアコートＩ２０１,00141749,26,211,6100313,,,,,,,2025-12-05,1,,,,,ビヨンドイノベーション,0
2643,9130001081175,新規,0,2025-12-05,2025-12-05,株式会社キーファーズオーナーズ,,株式会社,京都府,京都市中京区,高倉通夷川上る福屋町７１８番地吉原ビル２階,,26,104,6040882,,,,,,,2025-12-05,1,,,,,キーファーズオーナーズ,0
2651,9140001140962,新規,0,2025-12-05,2025-12-05,株式会社Ｇ１７,,株式会社,兵庫県,神戸市東灘区,岡本１丁目４番２２号オーガニックビル１Ｆ,,28,101,6580072,,,,,,,2025-12-05,1,,,,,ジーセブンティーン,0
2654,9150001028587,新規,0,2025-12-05,2025-12-05,株式会社まるいち農園,,株式会社,奈良県,奈良市,丹生町１１０４番地,,29,201,6301235,,,,,,,2025-12-05,1,,,,,マルイチノウエン,0
2656,9160001027258,新規,0,2025-12-05,2025-12-05,株式会社Ｄ‐ＬＩＧＨＴ,,株式会社,滋賀県,守山市,勝部１丁目２番６号駅前橋本ビル３Ｂ,,25,207,5240041,,,,,,,2025-12-05,1,,,,,ディーライト,0
2666,9180001169734,新規,0,2025-12-05,2025-12-05,株式会社ＡＢＡＢＥＥＬ　ＭＯＴＯＲＳ,,株式会社,愛知県,春日井市,東野町西３丁目４番地７,,23,206,4860818,,,,,,,2025-12-05,1,,,,,,0
2667,9180001169775,新規,0,2025-12-05,2025-12-05,株式会社リオアセットホールディングス,,株式会社,愛知県,名古屋市中区,平和１丁目１５番２７号,,23,106,4600021,,,,,,,2025-12-05,1,,,,,リオアセットホールディングス,0
2668,9180001169817,新規,0,2025-12-05,2025-12-05,株式会社西川電気工事,,株式会社,愛知県,清須市,鍋片２丁目１２５番地,,23,233,4520907,,,,,,,2025-12-05,1,,,,,ニシカワデンキコウジ,0
2673,9180003029457,新規,0,2025-12-05,2025-12-05,合同会社ＳＨＩＰＳＴＡＲＴ,,合同会社,愛知県,一宮市,今伊勢町宮後字宮代６７番地１サクセスＯｎｅＡ２０３号,,23,203,4910057,,,,,,,2025-12-05,1,,,,,シップスタート,0
2674,9180003029473,新規,0,2025-12-05,2025-12-05,合同会社テバク,,合同会社,愛知県,名古屋市熱田区,一番３丁目２番７３号－１,,23,109,4560053,,,,,,,2025-12-05,1,,,,,テバク,0
2678,9180301040479,新規,0,2025-12-05,2025-12-05,株式会社ＴＲＥＺＯＲＩＯ,,株式会社,愛知県,豊川市,野口町長万８４番地の１,,23,207,4420851,,,,,,,2025-12-05,1,,,,,トレゾリオ,0
2680,9190003005259,新規,0,2025-12-05,2025-12-05,合同会社Ｌｕｍｉｎｏｕｓ‐Ｒｅｓｔ,,合同会社,三重県,多気郡多気町,前村３７４番地２,,24,441,5192175,,,,,,,2025-12-05,1,,,,,ルミナスレスト,0
2685,9230001021204,新規,0,2025-12-05,2025-12-05,アンド・トラスト株式会社,,株式会社,富山県,小矢部市,泉町１番７５号古庄第一ビル２Ｆ,,16,209,9320052,,,,,,,2025-12-05,1,,,,,アンドトラスト,0
2688,9230003002540,新規,0,2025-12-05,2025-12-05,合同会社コンパス,,合同会社,富山県,魚津市,新経田３２,,16,204,9370010,,,,,,,2025-12-05,1,,,,,コンパス,0
2689,9240001065893,新規,0,2025-12-05,2025-12-05,株式会社Ｌ＆Ｈ,,株式会社,広島県,広島市安佐北区,亀崎３丁目１１番１４－１号,,34,106,7391742,,,,,,,2025-12-05,1,,,,,エルアンドエイチ,0
2692,9250001021458,新規,0,2025-12-05,2025-12-05,株式会社アイネクステラ・キャピタル,,株式会社,山口県,山口市,仁保上郷１６８番地１,,35,203,7530301,,,,,,,2025-12-05,1,,,,,アイネクステラキャピタル,0
2706,9290001112286,新規,0,2025-12-05,2025-12-05,株式会社矢野栄工事,,株式会社,福岡県,朝倉市,堤２９２番地,,40,228,8380062,,,,,,,2025-12-05,1,,,,,ヤノエイコウジ,0
2709,9290005019899,新規,0,2025-12-05,2025-12-05,アクロス箱崎宮前特定目的会社,,その他の設立登記法人,福岡県,福岡市中央区,天神１丁目１３番２号,,40,133,8100001,,,,,,,2025-12-05,1,,,,,アクロスハコザキミヤマエ,0
2710,9290801032072,新規,0,2025-12-05,2025-12-05,シバタ建物株式会社,,株式会社,福岡県,遠賀郡岡垣町,野間３丁目６－２６－Ｂ,,40,383,8114233,,,,,,,2025-12-05,1,,,,,シバタタテモノ,0
2711,9290805009876,新規,0,2025-12-05,2025-12-05,農事組合法人アグリサポート笠松,,その他の設立登記法人,福岡県,宮若市,上有木９８３番地１,,40,226,8230015,,,,,,,2025-12-05,1,,,,,アグリサポートカサマツ,0
2713,9330001033800,新規,0,2025-12-05,2025-12-05,株式会社創信工務店,,株式会社,熊本県,熊本市東区,長嶺東８丁目１０－８,,43,102,8618038,,,,,,,2025-12-05,1,,,,,ソウシンコウムテン,0
2716,9330005010977,新規,0,2025-12-05,2025-12-05,税理士法人ＫＵＲＯＬＡＢ,,その他の設立登記法人,熊本県,熊本市中央区,新大江２丁目１８番２１号１Ｆ,,43,101,8620972,,,,,,,2025-12-05,1,,,,,クロラボ,0
2725,9360001036107,新規,0,2025-12-05,2025-12-05,株式会社美波ハウジング,,株式会社,沖縄県,名護市,大南２丁目５番１２号２Ｆ,,47,209,9050015,,,,,,,2025-12-05,1,,,,,ミナミハウジング,0
2728,9370001053274,新規,0,2025-12-05,2025-12-05,株式会社ＲＥＤＥＭ,,株式会社,宮城県,仙台市青葉区,熊ケ根字町六番６８番地の４,,04,101,9893432,,,,,,,2025-12-05,1,,,,,レデム,0
2729,9370001053290,新規,0,2025-12-05,2025-12-05,株式会社桜の森ナーサリー,,株式会社,宮城県,仙台市青葉区,桜ケ丘２丁目１６番１９号,,04,101,9810961,,,,,,,2025-12-05,1,,,,,サクラノモリナーサリー,0
2735,9390001018176,新規,0,2025-12-05,2025-12-05,ＴＡＩＨＥＩＤＯ　ＨＯＬＤＩＮＧＳ株式会社,,株式会社,山形県,山形市,城西町４丁目４番１３号,,06,201,9900832,,,,,,,2025-12-05,1,,,,,タイヘイドウホールディングス,0
2738,9430001095814,新規,0,2025-12-05,2025-12-05,株式会社ＡＨＯＹＡ,,株式会社,北海道,札幌市中央区,北一条東１丁目２番地５,,01,101,0600031,,,,,,,2025-12-05,1,,,,,アホヤ,0
2741,9430003018401,新規,0,2025-12-05,2025-12-05,合同会社ライフサポート,,合同会社,北海道,札幌市清田区,平岡三条４丁目２番５号,,01,110,0040873,,,,,,,2025-12-05,1,,,,,ライフサポート,0
2742,9440003001736,新規,0,2025-12-05,2025-12-05,合同会社英月堂,,合同会社,北海道,函館市,日吉町１丁目１番１４号,,01,202,0410841,,,,,,,2025-12-05,1,,,,,エイゲツドウ,0
2746,9462501001050,新規,0,2025-12-05,2025-12-05,株式会社ＮＯＫＩ通商,,株式会社,北海道,野付郡別海町,西春別１６番地２５,,01,691,0882576,,,,,,,2025-12-05,1,,,,,ノーキツウショウ,0
2751,9500001026654,新規,0,2025-12-05,2025-12-05,株式会社四国建機リース,,株式会社,愛媛県,松山市,八反地甲１６８２番地,,38,201,7992424,,,,,,,2025-12-05,1,,,,,シコクケンキリース,0
2752,9500001026662,新規,0,2025-12-05,2025-12-05,株式会社パティスリーベル,,株式会社,愛媛県,伊予市,宮下４番地１,,38,210,7993102,,,,,,,2025-12-05,1,,,,,パティスリーベル,0
2753,9700150133207,新規,0,2025-12-05,2025-12-05,日新電機健康保険組合,,その他,京都府,京都市右京区,梅津高畝町４７番地,,26,108,6150906,,,,,,,2025-12-05,1,,,,,ニッシンデンキケンコウホケンクミアイ,0
2754,9700150133215,新規,0,2025-12-05,2025-12-05,ノエビア健康保険組合,,その他,兵庫県,神戸市中央区,港島中町６丁目１３－１,,28,110,6500046,,,,,,,2025-12-05,1,,,,,ノエビアケンコウホケンクミアイ,0
