sequenceNumber,corporateNumber,process,correct,updateDate,changeDate,name,nameImageId,kind,prefectureName,cityName,streetNumber,addressImageId,prefectureCode,cityCode,postCode,addressOutside,addressOutsideImageId,closeDate,closeCause,successorCorporateNumber,changeCause,assignmentDate,latest,enName,enPrefectureName,enCityName,enAddressOutside,furigana,hihyoji
4,1010001237077,登記記録の閉鎖等,0,2024-05-22,2024-05-09,ＰＴＣＪ‐４ホールディングス株式会社,,株式会社,東京都,千代田区,丸の内１丁目９番１号,,13,101,1000005,,,2024-05-09,清算の結了等,,,2023-07-24,1,,,,,ピーティーシージェイフォーホールディングス,0
19,1010401082338,登記記録の閉鎖等,0,2024-05-22,2024-05-01,株式会社Ｓｉｇｎａｌ,,株式会社,東京都,港区,麻布十番２丁目１７番８号,,13,103,1060045,,,2024-05-01,合併による解散等,2010401175405,令和６年５月１日東京都港区六本木七丁目１１番１２－１０２号株式会社Ｓｉｇｎａｌ（2010401175405）に合併し解散,2015-10-05,1,,,,,シグナル,0
67,1011802004649,登記記録の閉鎖等,0,2024-05-22,2024-05-20,有限会社高井軽金,,有限会社,東京都,葛飾区,西水元６丁目２２番１４号,,13,122,1250031,,,2024-05-20,清算の結了等,,,2015-10-05,1,,,,,,0
75,1020001003263,登記記録の閉鎖等,0,2024-05-22,2024-05-15,株式会社ヒル,,株式会社,神奈川県,横浜市磯子区,汐見台１丁目６番地,,14,107,2350022,,,2024-05-15,清算の結了等,,,2015-10-05,1,,,,,ヒル,0
81,1020001150931,登記記録の閉鎖等,0,2024-05-22,2024-05-14,Ａ‐Ｅｉｇｈｔｉｅｓ株式会社,,株式会社,神奈川県,横浜市金沢区,福浦１丁目１１番２２号（ＹＣＢＩＧ内）,,14,108,2360004,,,2024-05-14,清算の結了等,,,2023-04-05,1,,,,,アイエイティーズ,0
103,1040002072157,登記記録の閉鎖等,0,2024-05-22,2024-05-09,有限会社市原折込,,有限会社,千葉県,市原市,小田部７４７番地の３１,,12,219,2900176,,,2024-05-09,清算の結了等,,,2015-10-05,1,,,,,イチハラオリコミ,0
104,1040002099274,登記記録の閉鎖等,0,2024-05-22,2024-05-10,有限会社小原藤太商店,,有限会社,千葉県,館山市,長須賀３２３番地の２,,12,205,2940037,,,2024-05-10,清算の結了等,,,2015-10-05,1,,,,,オバラトウタショウテン,0
125,1100001023063,登記記録の閉鎖等,0,2024-05-22,2024-05-01,株式会社セピア,,株式会社,長野県,下伊那郡松川町,生田５６７番地１,,20,402,3993302,,,2024-05-01,合併による解散等,7100001021284,令和６年５月１日長野県上伊那郡中川村片桐５１５８番地田島建設株式会社（7100001021284）に合併し解散,2015-10-05,1,,,,,セピア,0
134,1120001002800,登記記録の閉鎖等,0,2024-05-22,2024-05-20,大阪今津運輸倉庫株式会社,,株式会社,大阪府,大阪市鶴見区,今津中１丁目９番３０号,,27,124,5380042,,,2024-05-20,清算の結了等,,,2015-10-05,1,,,,,オオサカイマヅウンユソウコ,0
135,1120001105743,登記記録の閉鎖等,0,2024-05-22,2024-05-20,株式会社ＲｅＶｅ,,株式会社,大阪府,大阪市西区,本田１丁目６番２５号,,27,106,5500022,,,2024-05-20,清算の結了等,,,2015-10-05,1,,,,,レヴ,0
149,1120003019578,登記記録の閉鎖等,0,2024-05-22,2024-05-20,合同会社Ｒｉｓｉｏ,,合同会社,大阪府,大阪市都島区,都島南通２丁目１４番１１号,,27,102,5340023,,,2024-05-20,清算の結了等,,,2021-06-09,1,,,,,リシオ,0
172,1140002007276,登記記録の閉鎖等,0,2024-05-22,2024-05-20,有限会社蔵王荘,,有限会社,兵庫県,神戸市須磨区,潮見台町４丁目６番７号,,28,107,6540075,,,2024-05-20,清算の結了等,,,2015-10-05,1,,,,,ザオウソウ,0
221,1260002012875,登記記録の閉鎖等,0,2024-05-22,2024-05-13,有限会社エム工業,,有限会社,岡山県,岡山市東区,邑久郷２４８２番地７,,33,103,7048132,,,2024-05-13,清算の結了等,,,2015-10-05,1,,,,,エムコウギョウ,0
229,1290005004628,登記記録の閉鎖等,0,2024-05-22,2024-04-30,一般社団法人日本経営教育センター,,その他の設立登記法人,福岡県,福岡市博多区,豊２丁目６番１号２０２号室,,40,132,8120042,,,2024-04-30,清算の結了等,,,2015-10-05,1,,,,,ニホンケイエイキョウイクセンター,0
264,1470002009207,登記記録の閉鎖等,0,2024-05-22,2024-05-17,有限会社尾形電気工業所,,有限会社,香川県,高松市,塩江町安原上東１６３７番地,,37,201,7611612,,,2024-05-17,清算の結了等,,,2015-10-05,1,,,,,オガタデンキコウギョウショ,0
266,1480005002356,登記記録の閉鎖等,0,2024-05-22,2024-05-21,医療法人寿会,,その他の設立登記法人,徳島県,小松島市,南小松島町字中筋２番地３６,,36,203,7730005,,,2024-05-21,清算の結了等,,,2015-10-05,1,,,,,コトブキカイ,0
285,2010003025173,登記記録の閉鎖等,0,2024-05-22,2024-05-07,合同会社桜木町不動産,,合同会社,東京都,港区,南青山１丁目１番１号新青山ビル東館１９階,,13,103,1070062,,,2024-05-07,合併による解散等,1010003024861,令和６年５月１日東京都港区南青山一丁目１番１号新青山ビル東館１９階合同会社ＰＣ５（1010003024861）に合併し解散,2017-04-18,1,,,,,サクラギチョウフドウサン,0
290,2010401073732,登記記録の閉鎖等,0,2024-05-22,2024-05-07,株式会社ピーポイントプロモーション,,株式会社,東京都,港区,赤坂２丁目１６番６号ＢＩＺＭＡＲＫＳ赤坂,,13,103,1070052,,,2024-05-07,清算の結了等,,,2015-10-05,1,,,,,ピーポイントプロモーション,0
302,2010501044633,登記記録の閉鎖等,0,2024-05-22,2024-04-30,株式会社萬和,,株式会社,東京都,台東区,松が谷３丁目１０番１号,,13,106,1110036,,,2024-04-30,合併による解散等,8013301027182,令和６年４月３０日東京都台東区松が谷三丁目１０－１長和商事株式会社（8013301027182）に合併し解散,2019-09-12,1,,,,,マンワ,0
326,2011503002075,登記記録の閉鎖等,0,2024-05-22,2024-05-17,ＭＡＲＣＯ　ＳＯＲＤＩ　ＲＡＰＰＲＥＳＥＮＴＡＮＺＥ合同会社,,合同会社,東京都,荒川区,南千住８丁目９番２号,,13,118,1160003,,,2024-05-17,清算の結了等,,,2015-10-05,1,,,,,,0
328,2011702005655,登記記録の閉鎖等,0,2024-05-22,2024-05-15,有限会社清水自動車,,有限会社,東京都,江戸川区,中葛西７丁目３１番１５号,,13,123,1340083,,,2024-05-15,清算の結了等,,,2015-10-05,1,,,,,シミズジドウシャ,0
348,2021001006932,登記記録の閉鎖等,0,2024-05-22,2024-05-20,新栄工業株式会社,,株式会社,神奈川県,茅ヶ崎市,浜須賀１１番２号,,14,207,2530035,,,2024-05-20,清算の結了等,,,2015-10-05,1,,,,,シンエイコウギョウ,0
356,2030001127201,登記記録の閉鎖等,0,2024-05-22,2024-05-20,日本電産管理株式会社,,株式会社,埼玉県,所沢市,東狭山ケ丘５丁目８８５番地の６８,,11,208,3591106,,,2024-05-20,清算の結了等,,,2018-08-30,1,,,,,ニホンデンサンカンリ,0
360,2030002097708,登記記録の閉鎖等,0,2024-05-22,2024-05-17,有限会社さわらび自販,,有限会社,埼玉県,比企郡ときがわ町,大字玉川６９番地６,,11,349,3550342,,,2024-05-17,清算の結了等,,,2015-10-05,1,,,,,サワラビジハン,0
362,2030003016856,登記記録の閉鎖等,0,2024-05-22,2024-05-17,ドリンクシーカー合同会社,,合同会社,埼玉県,さいたま市見沼区,堀崎町５９５番地６,,11,104,3370052,,,2024-05-17,清算の結了等,,,2021-03-12,1,,,,,ドリンクシーカー,0
366,2040001124619,登記記録の閉鎖等,0,2024-05-22,2024-05-09,株式会社三晴,,株式会社,千葉県,木更津市,富士見１丁目２番１号株式会社木更津そごう内,,12,206,2920831,,,2024-05-09,清算の結了等,,,2022-08-23,1,,,,,サンセ,0
381,2050005011589,登記記録の閉鎖等,0,2024-05-22,2024-05-17,特定非営利活動法人ゆいの会,,その他の設立登記法人,茨城県,下妻市,下妻乙２１７番地,,08,210,3040067,,,2024-05-17,清算の結了等,,,2015-10-05,1,,,,,ユイノカイ,0
386,2060002037999,登記記録の閉鎖等,0,2024-05-22,2024-05-15,有限会社アール・ケイ,,有限会社,栃木県,足利市,助戸東山町１６９３番地３,,09,202,3260042,,,2024-05-15,清算の結了等,,,2015-10-05,1,,,,,アールケイ,0
405,2110002015041,登記記録の閉鎖等,0,2024-05-22,2024-05-20,有限会社小林電気商会,,有限会社,新潟県,新発田市,石喜２３７番地１,,15,206,9570353,,,2024-05-20,清算の結了等,,,2015-10-05,1,,,,,コバヤシデンキショウカイ,0
413,2120001178268,登記記録の閉鎖等,0,2024-05-22,2024-05-20,株式会社太陽商会,,株式会社,大阪府,大阪市浪速区,幸町１丁目３番１３号－４０５,,27,111,5560021,,,2024-05-20,清算の結了等,,,2015-10-05,1,,,,,タイヨウショウカイ,0
432,2122002009526,登記記録の閉鎖等,0,2024-05-22,2024-05-17,有限会社アド・プロスパー,,有限会社,大阪府,東大阪市,鴻池本町１０－３１－１Ｂ,,27,227,5780971,,,2024-05-17,清算の結了等,,,2015-10-05,1,,,,,アドプロスパー,0
443,2140002040004,登記記録の閉鎖等,0,2024-05-22,2024-05-20,有限会社イワハラ工業,,有限会社,兵庫県,尼崎市,南七松町１丁目１０番１－１０７号,,28,202,6600053,,,2024-05-20,清算の結了等,,,2015-10-05,1,,,,,イワハラコウギョウ,0
444,2140002054037,登記記録の閉鎖等,0,2024-05-22,2024-05-20,有限会社みなみ設計工務,,有限会社,兵庫県,姫路市,米田町１５番地１船場東ビル２階３号,,28,201,6700042,,,2024-05-20,清算の結了等,,,2015-10-05,1,,,,,,0
452,2180001122690,登記記録の閉鎖等,0,2024-05-22,2024-05-13,株式会社アイル,,株式会社,愛知県,名古屋市名東区,一社２丁目１５３番地３０５,,23,115,4650093,,,2024-05-13,清算の結了等,,,2016-04-07,1,,,,,アイル,0
460,2180005019859,登記記録の閉鎖等,0,2024-05-22,2024-05-16,一般社団法人名古屋ＦＬＳサポートネットワーク,,その他の設立登記法人,愛知県,名古屋市昭和区,山中町１丁目１１番地,,23,107,4660828,,,2024-05-16,清算の結了等,,,2022-07-22,1,,,,,ナゴヤエフエルエスサポートネットワーク,0
479,2260002025389,登記記録の閉鎖等,0,2024-05-22,2024-05-20,有限会社ボイスソーイング,,有限会社,岡山県,笠岡市,富岡９２番地の３４,,33,205,7140092,,,2024-05-20,清算の結了等,,,2015-10-05,1,,,,,ボイスソーイング,0
482,2280003000645,登記記録の閉鎖等,0,2024-05-22,2024-05-20,合同会社えむあい,,合同会社,島根県,出雲市,大社町杵築西１９５６番地６,,32,203,6990751,,,2024-05-20,清算の結了等,,,2015-10-05,1,,,,,エムアイ,0
497,2320001011879,登記記録の閉鎖等,0,2024-05-22,2024-05-01,株式会社長谷工業,,株式会社,大分県,佐伯市,大字木立４４２５番地８,,44,205,8762121,,,2024-05-01,合併による解散等,2320001009262,令和６年５月１日大分県佐伯市大字長谷６１３８番地２株式会社翔雄（2320001009262）に合併し解散,2015-10-05,1,,,,,ハセコウギョウ,0
499,2320002015813,登記記録の閉鎖等,0,2024-05-22,2024-05-17,有限会社野原リサイクルファーム,,有限会社,大分県,杵築市,山香町大字野原４６６２番地の１７５,,44,210,8791307,,,2024-05-17,清算の結了等,,,2015-10-05,1,,,,,,0
509,2360003005264,登記記録の閉鎖等,0,2024-05-22,2024-05-20,パイオニア通信工事合資会社,,合資会社,沖縄県,宮古島市,平良字久貝８１９番地１１,,47,214,9060015,,,2024-05-20,清算の結了等,,,2015-10-05,1,,,,,パイオニアツウシンコウジ,0
517,2370003001535,登記記録の閉鎖等,0,2024-05-22,2024-05-14,合同会社バリューパートナー,,合同会社,宮城県,仙台市宮城野区,幸町１丁目１５番３１号,,04,102,9830836,,,2024-05-14,清算の結了等,,,2015-10-05,1,,,,,バリューパートナー,0
531,2420002003353,登記記録の閉鎖等,0,2024-05-22,2024-05-15,有限会社須藤建業,,有限会社,青森県,東津軽郡平内町,大字山口字山口２２番地,,02,301,0393363,,,2024-05-15,清算の結了等,,,2015-10-05,1,,,,,ストウケンギョウ,0
535,2460002005569,登記記録の閉鎖等,0,2024-05-22,2024-05-21,有限会社明匠技建,,有限会社,北海道,釧路市,昭和町３丁目８番６号,,01,206,0840903,,,2024-05-21,清算の結了等,,,2015-10-05,1,,,,,メイショウギケン,0
550,3010001148207,登記記録の閉鎖等,0,2024-05-22,2024-05-15,背が高くなる靴株式会社,,株式会社,神奈川県,横浜市西区,平沼２丁目４番１号,,14,103,2200023,,,2024-05-15,清算の結了等,,,2015-10-05,1,,,,,セガタカクナルクツ,0
558,3010003026022,登記記録の閉鎖等,0,2024-05-22,2024-05-10,Ｓｔａｎｄ合同会社,,合同会社,東京都,千代田区,丸の内３丁目１番１号東京共同会計事務所内,,13,101,1000005,,,2024-05-10,清算の結了等,,,2017-09-07,1,,,,,スタンド,0
560,3010005015650,登記記録の閉鎖等,0,2024-05-22,2024-05-10,土地家屋調査士法人四門,,その他の設立登記法人,東京都,立川市,錦町４丁目５番２５号アーバンライフ立川１Ｆ,,13,202,1900022,,,2024-05-10,清算の結了等,,,2015-10-05,1,,,,,シモン,0
561,3010005026680,登記記録の閉鎖等,0,2024-05-22,2024-05-16,一般社団法人投資不動産の窓口,,その他の設立登記法人,東京都,中央区,銀座１丁目１２番４号Ｎ＆Ｅ・ＢＬＤ６Ｆ,,13,102,1040061,,,2024-05-16,清算の結了等,,,2017-04-27,1,,,,,トウシフドウサンノマドグチ,0
566,3010401096170,登記記録の閉鎖等,0,2024-05-22,2024-04-30,株式会社ハッシュ,,株式会社,東京都,港区,南青山２丁目２３番８号,,13,103,1070062,,,2024-04-30,合併による解散等,8010401174616,令和６年４月１日東京都港区南青山二丁目２３番８号株式会社ハッシュ（8010401174616）に合併し解散,2015-10-05,1,,,,,ハッシュ,0
567,3010401132669,登記記録の閉鎖等,0,2024-05-22,2024-05-02,株式会社全国情報連盟,,株式会社,東京都,港区,西麻布１丁目１５番１６号,,13,103,1060031,,,2024-05-02,清算の結了等,,,2017-07-21,1,,,,,,0
589,3010901002982,登記記録の閉鎖等,0,2024-05-22,2024-05-16,株式会社協和リファイン,,株式会社,東京都,世田谷区,上野毛４丁目３番１６号金子ハイム２０１号室,,13,112,1580093,,,2024-05-16,清算の結了等,,,2015-10-05,1,,,,,キョウワリファイン,0
595,3011001036021,登記記録の閉鎖等,0,2024-05-22,2024-04-30,株式会社グラヴィス,,株式会社,東京都,港区,六本木６丁目８番３号,,13,103,1060032,,,2024-04-30,清算の結了等,,,2015-10-05,1,,,,,グラヴィス,0
601,3011001142703,登記記録の閉鎖等,0,2024-05-22,2024-05-01,イギアルホールディングス株式会社,,株式会社,東京都,渋谷区,恵比寿南１丁目１番１号ＨｕｍａｘＥｂｉｓｕ８Ｆ,,13,113,1500022,,,2024-05-01,合併による解散等,7011301016818,令和６年５月１日東京都渋谷区恵比寿一丁目８番４号ＥＢＩＳＵ・ＯＮＥ・ＢＬＤＧ．５・７階株式会社レゾナゲート（7011301016818）に合併し解散,2021-09-10,1,,,,,イギアルホールディングス,0
618,3011802001784,登記記録の閉鎖等,0,2024-05-22,2024-05-20,有限会社カキヌマ,,有限会社,東京都,葛飾区,金町２丁目３番１３号,,13,122,1250042,,,2024-05-20,清算の結了等,,,2015-10-05,1,,,,,カキヌマ,0
619,3011802017062,登記記録の閉鎖等,0,2024-05-22,2024-05-16,有限会社ニユーキヤビン,,有限会社,東京都,足立区,江北７丁目２５番１０号,,13,121,1230872,,,2024-05-16,清算の結了等,,,2015-10-05,1,,,,,ニユーキヤビン,0
640,3030001038736,登記記録の閉鎖等,0,2024-05-22,2024-05-20,株式会社ＨＴＣ,,株式会社,埼玉県,草加市,瀬崎１丁目１番２６－３０３号,,11,221,3400022,,,2024-05-20,清算の結了等,,,2015-10-05,1,,,,,エッチティーシー,0
641,3030001106583,登記記録の閉鎖等,0,2024-05-22,2024-05-17,株式会社森江組,,株式会社,埼玉県,志木市,上宗岡５丁目１８番６号,,11,228,3530001,,,2024-05-17,清算の結了等,,,2015-10-05,1,,,,,モリエグミ,0
675,3070002018031,登記記録の閉鎖等,0,2024-05-22,2024-05-17,有限会社田野口工務店,,有限会社,群馬県,藤岡市,三本木８８番地２,,10,209,3750037,,,2024-05-17,清算の結了等,,,2015-10-05,1,,,,,タノグチコウムテン,0
680,3080001005426,登記記録の閉鎖等,0,2024-05-22,2024-05-17,ヤマヂ株式会社,,株式会社,静岡県,静岡市駿河区,中田本町５９番２２号,,22,102,4228043,,,2024-05-17,清算の結了等,,,2024-01-24,1,,,,,ヤマヂ,0
684,3120001024751,登記記録の閉鎖等,0,2024-05-22,2024-05-17,株式会社ニューライト,,株式会社,大阪府,豊中市,曽根南町２丁目２番２号,,27,203,5610804,,,2024-05-17,清算の結了等,,,2015-10-05,1,,,,,ニューライト,0
699,3120002041688,登記記録の閉鎖等,0,2024-05-22,2024-05-20,有限会社ノウズ,,有限会社,大阪府,大阪市中央区,久太郎町２丁目５番１９号丸忠第３ビル,,27,128,5410056,,,2024-05-20,清算の結了等,,,2015-10-05,1,,,,,ノウズ,0
711,3122001018832,登記記録の閉鎖等,0,2024-05-22,2024-05-17,信和工業株式会社,,株式会社,大阪府,八尾市,楽音寺２丁目２２番地,,27,212,5810853,,,2024-05-17,清算の結了等,,,2015-10-05,1,,,,,シンワコウギョウ,0
712,3140001018941,登記記録の閉鎖等,0,2024-05-22,2024-05-20,菱和工業株式会社,,株式会社,兵庫県,神戸市垂水区,下畑町字上口８６６番地の１,,28,108,6550861,,,2024-05-20,清算の結了等,,,2015-10-05,1,,,,,リョウワコウギョウ,0
714,3140001084380,登記記録の閉鎖等,0,2024-05-22,2024-05-20,内田建工株式会社,,株式会社,兵庫県,伊丹市,堀池５丁目１番１０－１号,,28,207,6640871,,,2024-05-20,清算の結了等,,,2015-10-05,1,,,,,,0
722,3140005024102,登記記録の閉鎖等,0,2024-05-22,2024-05-20,特定非営利活動法人大塩シーサイドパーク,,その他の設立登記法人,兵庫県,姫路市,大塩町２１００番３,,28,201,6710101,,,2024-05-20,清算の結了等,,,2018-04-27,1,,,,,オオシオシーサイドパーク,0
744,3180002071424,登記記録の閉鎖等,0,2024-05-22,2024-05-14,有限会社アルファ,,有限会社,愛知県,瀬戸市,紺屋田町１１番地の６８,,23,204,4890035,,,2024-05-14,清算の結了等,,,2015-10-05,1,,,,,アルファ,0
749,3190002014497,登記記録の閉鎖等,0,2024-05-22,2024-05-20,有限会社松阪米穀,,有限会社,三重県,松阪市,小阿坂町３８８５番地２,,24,204,5152343,,,2024-05-20,清算の結了等,,,2015-10-05,1,,,,,マツサカベイコク,0
758,3220003002101,登記記録の閉鎖等,0,2024-05-22,2024-05-17,合同会社工新,,合同会社,石川県,野々市市,本町６丁目１番１９号,,17,212,9218815,,,2024-05-17,清算の結了等,,,2016-02-08,1,,,,,コウシン,0
775,3290002000495,登記記録の閉鎖等,0,2024-05-22,2024-04-22,有限会社重松不動産鑑定,,有限会社,福岡県,福岡市早良区,祖原１４番１３号,,40,137,8140005,,,2024-04-22,清算の結了等,,,2015-10-05,1,,,,,シゲマツフドウサンカンテイ,0
777,3310002004345,登記記録の閉鎖等,0,2024-05-22,2024-05-20,有限会社パドウ一級建築士事務所,,有限会社,長崎県,長崎市,岩屋町４０番１８号,,42,201,8528052,,,2024-05-20,清算の結了等,,,2015-10-05,1,,,,,パドウイッキュウケンチクシジムショ,0
782,3340002016189,登記記録の閉鎖等,0,2024-05-22,2024-05-20,有限会社前田家具工芸社,,有限会社,鹿児島県,姶良市,鍋倉３０４番地１１,,46,225,8995411,,,2024-05-20,清算の結了等,,,2015-10-05,1,,,,,マエダカグコウゲイシャ,0
797,3380005010739,登記記録の閉鎖等,0,2024-05-22,2024-05-15,いわきおてんとＳＵＮ企業組合,,その他の設立登記法人,福島県,いわき市,好間町中好間字川原子作１７番地１,,07,204,9701152,,,2024-05-15,清算の結了等,,,2015-10-05,1,,,,,イワキオテントサン,0
801,3410002010936,登記記録の閉鎖等,0,2024-05-22,2024-05-16,有限会社山谷加工所,,有限会社,秋田県,能代市,二ツ井町飛根字羽立９番地の１,,05,202,0183122,,,2024-05-16,清算の結了等,,,2015-10-05,1,,,,,,0
807,3430001015208,登記記録の閉鎖等,0,2024-05-22,2024-05-17,双葉通信株式会社,,株式会社,北海道,札幌市手稲区,前田七条８丁目８番５号,,01,109,0060817,,,2024-05-17,清算の結了等,,,2015-10-05,1,,,,,フタバツウシン,0
830,4010003033612,登記記録の閉鎖等,0,2024-05-22,2024-05-09,合同会社ＤＳＢ－５,,合同会社,東京都,中央区,日本橋１丁目４番１号,,13,102,1030027,,,2024-05-09,清算の結了等,,,2020-11-26,1,,,,,ディーエスビーファイブ,0
846,4010405011934,登記記録の閉鎖等,0,2024-05-22,2024-05-02,Ｌｏｍｏｎｄ一般社団法人,,その他の設立登記法人,東京都,港区,西新橋１丁目１番１号ＥＰコンサルティングサービス内,,13,103,1050003,,,2024-05-02,清算の結了等,,,2015-10-05,1,,,,,ロモンド,0
872,4011003016532,登記記録の閉鎖等,0,2024-05-22,2024-04-24,ＳＨＫ合同会社,,合同会社,東京都,渋谷区,道玄坂１丁目１０番８号渋谷道玄坂東急ビル２Ｆ－Ｃ,,13,113,1500043,,,2024-04-24,清算の結了等,,,2023-04-03,1,,,,,エスエイチケー,0
879,4011101085933,登記記録の閉鎖等,0,2024-05-22,2024-05-16,株式会社ＬＢフォース,,株式会社,東京都,新宿区,百人町１丁目２２番３号新宿ナショナルコート,,13,104,1690073,,,2024-05-16,清算の結了等,,,2018-11-09,1,,,,,エルビーフォース,0
889,4011601004335,登記記録の閉鎖等,0,2024-05-22,2024-05-20,株式会社ティーアイケー建築研究所,,株式会社,東京都,練馬区,大泉町４丁目２４番２１号,,13,120,1780062,,,2024-05-20,清算の結了等,,,2015-10-05,1,,,,,ティーアイケーケンチクケンキュウジョ,0
917,4020002058163,登記記録の閉鎖等,0,2024-05-22,2024-05-14,有限会社スガビジネス開発,,有限会社,神奈川県,横浜市港南区,日野南６丁目１１番８号,,14,111,2340055,,,2024-05-14,清算の結了等,,,2015-10-05,1,,,,,スガビジネスカイハツ,0
939,4040002075181,登記記録の閉鎖等,0,2024-05-22,2024-05-10,有限会社まのめ興業,,有限会社,千葉県,市原市,白塚２３４番地の５,,12,219,2990104,,,2024-05-10,清算の結了等,,,2015-10-05,1,,,,,マノメコウギョウ,0
956,4090005003762,登記記録の閉鎖等,0,2024-05-22,2024-05-17,特定非営利活動法人クレスト,,その他の設立登記法人,山梨県,山梨市,一町田中９４５番地,,19,205,4050025,,,2024-05-17,清算の結了等,,,2015-10-05,1,,,,,クレスト,0
958,4100002018588,登記記録の閉鎖等,0,2024-05-22,2024-05-08,有限会社スノーピア竜王,,有限会社,長野県,下高井郡山ノ内町,大字夜間瀬１１７００番地２６,,20,561,3810405,,,2024-05-08,清算の結了等,,,2015-10-05,1,,,,,スノーピアリュウオウ,0
975,4120001255783,登記記録の閉鎖等,0,2024-05-22,2024-05-10,株式会社Ｒｅｖｉｖｅ　Ｈｕｂ,,株式会社,大阪府,大阪市北区,曾根崎新地１丁目８番１９号４階,,27,127,5300002,,,2024-05-10,清算の結了等,,,2023-06-16,1,,,,,リバイブハブ,0
989,4120902021994,登記記録の閉鎖等,0,2024-05-22,2024-05-17,有限会社ロジックコントロール,,有限会社,大阪府,豊中市,本町６丁目１番１５号,,27,203,5600021,,,2024-05-17,清算の結了等,,,2015-10-05,1,,,,,ロジックコントロール,0
1000,4140001089453,登記記録の閉鎖等,0,2024-05-22,2024-05-16,株式会社千風,,株式会社,兵庫県,加古郡稲美町,野寺１６番地の１,,28,381,6751104,,,2024-05-16,清算の結了等,,,2015-10-05,1,,,,,センプウ,0
1004,4140002058663,登記記録の閉鎖等,0,2024-05-22,2024-05-20,有限会社ティーズプランニング,,有限会社,兵庫県,西宮市,鳴尾町２丁目３番２号,,28,204,6638184,,,2024-05-20,清算の結了等,,,2015-10-05,1,,,,,ティーズプランニング,0
1005,4140002060982,登記記録の閉鎖等,0,2024-05-22,2024-05-15,有限会社オフィスワークストシ,,有限会社,兵庫県,西宮市,桜谷町８番２０号,,28,204,6620032,,,2024-05-15,清算の結了等,,,2015-10-05,1,,,,,オフィスワークストシ,0
1022,4180301032794,登記記録の閉鎖等,0,2024-05-22,2024-05-16,株式会社ワトー,,株式会社,愛知県,岡崎市,真福寺町字牛落１４番地７,,23,202,4442106,,,2024-05-16,清算の結了等,,,2019-07-23,1,,,,,ワトー,0
1047,4290003013611,登記記録の閉鎖等,0,2024-05-22,2024-04-18,合同会社ＳＰＡＣＥ　ＳＨＡＲＥＤ,,合同会社,福岡県,福岡市博多区,博多駅前１丁目２３番１号ＰａｒｋＦｒｏｎｔ博多駅前１丁目５Ｆ－Ｂ,,40,132,8120011,,,2024-04-18,清算の結了等,,,2023-03-14,1,,,,,スペースシェアード,0
1065,4430001012798,登記記録の閉鎖等,0,2024-05-22,2024-05-20,日東開発株式会社,,株式会社,北海道,札幌市中央区,南一条東２丁目１１番地４,,01,101,0600051,,,2024-05-20,清算の結了等,,,2015-10-05,1,,,,,ニットウカイハツ,0
1066,4430001014357,登記記録の閉鎖等,0,2024-05-22,2024-05-20,スミタス株式会社,,株式会社,北海道,札幌市厚別区,大谷地東１丁目３番２３号,,01,108,0040041,,,2024-05-20,清算の結了等,,,2015-10-05,1,,,,,スミタス,0
1074,4450002001765,登記記録の閉鎖等,0,2024-05-22,2024-05-17,旭東自動車工業有限会社,,有限会社,北海道,旭川市,東光二条５丁目４番２２号,,01,204,0788342,,,2024-05-17,清算の結了等,,,2015-10-05,1,,,,,,0
1078,4470005002189,登記記録の閉鎖等,0,2024-05-22,2024-05-16,善光寺,,その他の設立登記法人,香川県,木田郡三木町,大字上高岡１９３２番地,,37,341,7610613,,,2024-05-16,清算の結了等,,,2015-10-05,1,,,,,ゼンコウジ,0
1093,5010001203315,登記記録の閉鎖等,0,2024-05-22,2024-05-10,株式会社Ａｌｃｏｒ　Ｓｏｌｕｔｉｏｎｓ,,株式会社,東京都,中央区,銀座１丁目１６番７号銀座大栄ビル５Ｆ／６Ｆ,,13,102,1040061,,,2024-05-10,清算の結了等,,,2019-08-15,1,,,,,アルコンソリューション,0
1097,5010002045913,登記記録の閉鎖等,0,2024-05-22,2024-05-17,有限会社ハンド,,有限会社,埼玉県,川口市,大字安行領根岸４２８番地の９,,11,203,3330834,,,2024-05-17,清算の結了等,,,2015-10-05,1,,,,,ハンド,0
1109,5010401154281,登記記録の閉鎖等,0,2024-05-22,2024-05-02,株式会社トレセンニュース,,株式会社,東京都,港区,芝公園１丁目２番１０号,,13,103,1050011,,,2024-05-02,清算の結了等,,,2020-08-04,1,,,,,,0
1117,5010601041577,登記記録の閉鎖等,0,2024-05-22,2024-05-17,株式会社ＳＨＩＧＥＺＯ,,株式会社,埼玉県,さいたま市中央区,鈴谷２丁目７６９番地１－１０２号,,11,105,3380013,,,2024-05-17,清算の結了等,,,2015-10-05,1,,,,,シゲゾウ,0
1151,5011701023291,登記記録の閉鎖等,0,2024-05-22,2024-05-13,株式会社サントレイブ,,株式会社,東京都,江戸川区,東葛西５丁目１２番６号カワマンビル１階,,13,123,1340084,,,2024-05-13,清算の結了等,,,2020-02-07,1,,,,,サントレイブ,0
1161,5012401032228,登記記録の閉鎖等,0,2024-05-22,2024-05-16,竹林健康コンサルティング株式会社,,株式会社,東京都,府中市,若松町５丁目６番７８号クレストフォルム東府中サウスステージ２１８,,13,206,1830005,,,2024-05-16,清算の結了等,,,2017-01-16,1,,,,,チクリンケンコウコンサルティング,0
1173,5020002095882,登記記録の閉鎖等,0,2024-05-22,2024-05-15,有限会社エトワール,,有限会社,神奈川県,川崎市川崎区,日進町１番地５０太田総合病院内,,14,131,2100024,,,2024-05-15,清算の結了等,,,2015-10-05,1,,,,,エトワール,0
1206,5030005015457,登記記録の閉鎖等,0,2024-05-22,2024-05-20,特定非営利活動法人さいたまミツバチプロジェクト,,その他の設立登記法人,埼玉県,さいたま市中央区,本町東１丁目１５番３号,,11,105,3380003,,,2024-05-20,清算の結了等,,,2015-10-05,1,,,,,サイタマミツバチプロジェクト,0
1207,5040001013579,登記記録の閉鎖等,0,2024-05-22,2024-05-10,株式会社千葉プロポーションアカデミー,,株式会社,千葉県,千葉市中央区,富士見２丁目４番１３号大昌ビル３Ｆ,,12,101,2600015,,,2024-05-10,清算の結了等,,,2015-10-05,1,,,,,チバプロポーションアカデミー,0
1222,5070001025349,登記記録の閉鎖等,0,2024-05-22,2024-05-20,株式会社レクレドールジャパン,,株式会社,群馬県,伊勢崎市,連取町１６１３番地２,,10,204,3720812,,,2024-05-20,清算の結了等,,,2015-10-05,1,,,,,レクレドールジャパン,0
1225,5080101010068,登記記録の閉鎖等,0,2024-05-22,2024-05-20,株式会社大雄,,株式会社,静岡県,富士市,永田町２丁目３７番地,,22,210,4170055,,,2024-05-20,清算の結了等,,,2015-10-05,1,,,,,ダイユウ,0
1245,5120003010780,登記記録の閉鎖等,0,2024-05-22,2024-05-20,合同会社エム・ワイ・プロパティーズ,,合同会社,大阪府,大阪市東淀川区,豊新２丁目６番６－２０６号,,27,114,5330014,,,2024-05-20,清算の結了等,,,2015-10-05,1,,,,,,0
1272,5140001120919,登記記録の閉鎖等,0,2024-05-22,2024-05-21,Ｆｕｒｉｃ株式会社,,株式会社,兵庫県,神戸市中央区,磯上通８丁目１番２９号カサベラビルＣ＆Ｍ４０３号室,,28,110,6510086,,,2024-05-21,清算の結了等,,,2021-03-26,1,,,,,フリック,0
1292,5200001031399,登記記録の閉鎖等,0,2024-05-22,2024-05-20,株式会社響進,,株式会社,岐阜県,本巣市,見延３０番地２,,21,218,5010413,,,2024-05-20,清算の結了等,,,2015-10-05,1,,,,,キョウシン,0
1297,5220001016571,登記記録の閉鎖等,0,2024-05-22,2024-05-17,港交通株式会社,,株式会社,石川県,輪島市,町野町粟蔵ニ字７３番地１,,17,204,9280215,,,2024-05-17,清算の結了等,,,2015-10-05,1,,,,,ミナトコウツウウ,0
1301,5240001001308,登記記録の閉鎖等,0,2024-05-22,2024-05-20,株式会社栄和,,株式会社,広島県,広島市東区,戸坂山根３丁目８番８号,,34,102,7320002,,,2024-05-20,清算の結了等,,,2015-10-05,1,,,,,エイワ,0
1313,5280002008653,登記記録の閉鎖等,0,2024-05-22,2024-05-21,有限会社前原クリーニング店,,有限会社,島根県,浜田市,日脚町８５７番地,,32,202,6971322,,,2024-05-21,清算の結了等,,,2015-10-05,1,,,,,マエハラクリーニングテン,0
1322,5350001001024,登記記録の閉鎖等,0,2024-05-22,2024-05-17,株式会社橘友の会,,株式会社,宮崎県,宮崎市,橘通西３丁目９番１４号,,45,201,8800001,,,2024-05-17,清算の結了等,,,2015-10-05,1,,,,,タチバナトモノカイ,0
1330,5370002005088,登記記録の閉鎖等,0,2024-05-22,2024-05-16,有限会社佐功商会,,有限会社,宮城県,仙台市若林区,白萩町１８番１号,,04,103,9840048,,,2024-05-16,清算の結了等,,,2015-10-05,1,,,,,サコウショウカイ,0
1331,5370002005419,登記記録の閉鎖等,0,2024-05-22,2024-05-17,有限会社裝建設備,,有限会社,宮城県,仙台市若林区,霞目２丁目１９番４６号,,04,103,9840035,,,2024-05-17,清算の結了等,,,2015-10-05,1,,,,,ソウケンセツビ,0
1336,5380001030937,登記記録の閉鎖等,0,2024-05-22,2024-05-15,株式会社メイドイン福島,,株式会社,福島県,福島市,宮下町３番７号,,07,201,9608011,,,2024-05-15,清算の結了等,,,2020-05-15,1,,,,,メイドインフクシマ,0
1343,5430001005776,登記記録の閉鎖等,0,2024-05-22,2024-05-20,スミタスＲｅホーム株式会社,,株式会社,北海道,札幌市厚別区,大谷地東１丁目３番２３号,,01,108,0040041,,,2024-05-20,清算の結了等,,,2015-10-05,1,,,,,スミタスリホーム,0
1348,5460101003710,登記記録の閉鎖等,0,2024-05-22,2024-05-15,橋本農機株式会社,,株式会社,北海道,上川郡新得町,屈足幸町４丁目１番地,,01,635,0810155,,,2024-05-15,清算の結了等,,,2023-02-28,1,,,,,,0
1362,6010001100131,登記記録の閉鎖等,0,2024-05-22,2024-05-16,株式会社キックオフ,,株式会社,東京都,新宿区,山吹町３５６番地光洋社ビル,,13,104,1620801,,,2024-05-16,清算の結了等,,,2015-10-05,1,,,,,キックオフ,0
1376,6010101007813,登記記録の閉鎖等,0,2024-05-22,2024-05-16,株式会社レイラ東京西,,株式会社,東京都,国立市,中１丁目１４番地２３－２０７号,,13,215,1860004,,,2024-05-16,清算の結了等,,,2015-10-05,1,,,,,レイラトウキョウニシ,0
1447,6020003017380,登記記録の閉鎖等,0,2024-05-22,2024-05-14,ケーズ・インベストメント合同会社,,合同会社,神奈川県,横浜市戸塚区,戸塚町３７６３番地８,,14,110,2440003,,,2024-05-14,清算の結了等,,,2020-02-17,1,,,,,ケーズインベストメント,0
1455,6030001014676,登記記録の閉鎖等,0,2024-05-22,2024-05-09,株式会社コーケン,,株式会社,埼玉県,さいたま市南区,白幡５丁目７番９号,,11,108,3360022,,,2024-05-09,清算の結了等,,,2015-10-05,1,,,,,コーケン,0
1464,6030002001517,登記記録の閉鎖等,0,2024-05-22,2024-05-17,有限会社井上製作所,,有限会社,埼玉県,さいたま市北区,大成町４丁目６３５番地,,11,102,3310815,,,2024-05-17,清算の結了等,,,2015-10-05,1,,,,,イノウエセイサクショ,0
1465,6030002002060,登記記録の閉鎖等,0,2024-05-22,2024-05-17,有限会社エヌエスケイシステム設計,,有限会社,埼玉県,さいたま市南区,辻１丁目２番８号,00129539,11,108,3360026,,,2024-05-17,清算の結了等,,,2015-10-05,1,,,,,エヌエスケイシステムセッケイ,0
1499,6090002004282,登記記録の閉鎖等,0,2024-05-22,2024-05-16,山梨ツーバイフォー有限会社,,有限会社,山梨県,中央市,臼井阿原９３１番地の３,,19,214,4093844,,,2024-05-16,清算の結了等,,,2015-10-05,1,,,,,ヤマナシツーバイフォー,0
1559,6180001007780,登記記録の閉鎖等,0,2024-05-22,2024-05-13,株式会社浅井商店,,株式会社,愛知県,名古屋市昭和区,桜山町３丁目５５番地の１,,23,107,4660044,,,2024-05-13,清算の結了等,,,2015-10-05,1,,,,,アサイショウテン,0
1561,6180001075670,登記記録の閉鎖等,0,2024-05-22,2024-05-13,株式会社オカダ,,株式会社,愛知県,小牧市,新町２丁目８番地,,23,219,4850013,,,2024-05-13,清算の結了等,,,2015-10-05,1,,,,,オカダ,0
1572,6180003016920,登記記録の閉鎖等,0,2024-05-22,2024-05-15,合同会社クレミ,,合同会社,愛知県,一宮市,今伊勢町宮後字西松山４５番地９０１号,,23,203,4910057,,,2024-05-15,清算の結了等,,,2016-02-19,1,,,,,クレミ,0
1614,6330005010559,登記記録の閉鎖等,0,2024-05-22,2024-05-17,行政書士法人ほりかわ事務所,,その他の設立登記法人,熊本県,熊本市南区,南高江７丁目９番１５０号,,43,104,8614106,,,2024-05-17,清算の結了等,,,2022-09-09,1,,,,,ホリカワジムショ,0
1615,6340002000685,登記記録の閉鎖等,0,2024-05-22,2024-05-20,有限会社吉富工務店,,有限会社,鹿児島県,日置市,伊集院町下谷口２０２５番地,,46,216,8992501,,,2024-05-20,清算の結了等,,,2015-10-05,1,,,,,ヨシトミコウムテン,0
1620,6370103000557,登記記録の閉鎖等,0,2024-05-22,2024-05-16,合資会社石垣商店,,合資会社,宮城県,白石市,字大畑二番１０番地,,04,206,9890208,,,2024-05-16,清算の結了等,,,2015-10-05,1,,,,,イシガキショウテン,0
1625,6400001008608,登記記録の閉鎖等,0,2024-05-22,2024-05-10,株式会社ブルースター,,株式会社,岩手県,盛岡市,みたけ２丁目７番２号,,03,201,0200122,,,2024-05-10,清算の結了等,,,2015-10-05,1,,,,,ブルースター,0
1642,6490001001265,登記記録の閉鎖等,0,2024-05-22,2024-05-20,株式会社四国ユーテイーエム,,株式会社,高知県,高知市,朝倉甲２８９番地３１,,39,201,7808061,,,2024-05-20,清算の結了等,,,2015-10-05,1,,,,,シコクユーテイーエム,0
1698,7011001120309,登記記録の閉鎖等,0,2024-05-22,2024-05-16,日本ジェン・ボディ株式会社,,株式会社,京都府,宇治市,寺山台１丁目１番地の２０,,26,204,6110032,,,2024-05-16,清算の結了等,,,2018-01-30,1,,,,,ニホンジェンボディ,0
1701,7011001151493,登記記録の閉鎖等,0,2024-05-22,2024-05-17,株式会社ＮＦＴ　ＪＡＰＡＮ,,株式会社,東京都,板橋区,蓮根３丁目２６番１２－３３６号,,13,119,1740046,,,2024-05-17,合併による解散等,8020001145090,令和６年３月１９日神奈川県横浜市都筑区南山田二丁目１２番１６号株式会社ＭＡＸ（8020001145090）に合併し解散,2022-12-22,1,,,,,エヌエフティージャパン,0
1705,7011003006844,登記記録の閉鎖等,0,2024-05-22,2024-04-30,ジェイミー合同会社,,合同会社,東京都,渋谷区,桜丘町２３番１７号シティコート桜丘４０８,,13,113,1500031,,,2024-04-30,合併による解散等,9020003007429,令和６年４月３０日東京都渋谷区桜丘町２３番１７号シティコート桜丘４０８コモディア合同会社（9020003007429）に合併し解散,2016-06-07,1,,,,,ジェイミー,0
1708,7011101079131,登記記録の閉鎖等,0,2024-05-22,2024-05-16,株式会社パンプハウスプロジェクト,,株式会社,東京都,新宿区,大京町３１番地２２,,13,104,1600015,,,2024-05-16,清算の結了等,,,2016-12-28,1,,,,,パンプハウスプロジェクト,0
1730,7012801004122,登記記録の閉鎖等,0,2024-05-22,2024-05-15,株式会社アドリンクス,,株式会社,東京都,立川市,錦町２丁目２番２８号,,13,202,1900022,,,2024-05-15,清算の結了等,,,2015-10-05,1,,,,,アドリンクス,0
1740,7020001108437,登記記録の閉鎖等,0,2024-05-22,2024-05-16,株式会社ｇ．ｇ．ｉ．,,株式会社,東京都,新宿区,新宿２丁目１２番１３号新宿アントレサロンビル２階,,13,104,1600022,,,2024-05-16,清算の結了等,,,2015-10-05,1,,,,,ジージーアイ,0
1747,7020002026704,登記記録の閉鎖等,0,2024-05-22,2024-05-16,有限会社新ビルデイング,,有限会社,神奈川県,横浜市神奈川区,三ツ沢南町８番３７号,,14,102,2210854,,,2024-05-16,清算の結了等,,,2015-10-05,1,,,,,アタラシビルデイング,0
1749,7020002057889,登記記録の閉鎖等,0,2024-05-22,2024-05-14,有限会社ドリーム,,有限会社,神奈川県,横浜市青葉区,もみの木台２２番地２８,,14,117,2250026,,,2024-05-14,清算の結了等,,,2015-10-05,1,,,,,ドリーム,0
1751,7020003022768,登記記録の閉鎖等,0,2024-05-22,2024-05-14,Ｃａｓａ‐Ｍ合同会社,,合同会社,神奈川県,川崎市宮前区,小台１丁目１５番地２１,,14,136,2160007,,,2024-05-14,清算の結了等,,,2022-11-22,1,,,,,カーサエム,0
1770,7030001150875,登記記録の閉鎖等,0,2024-05-22,2024-05-20,株式会社ＧＯリフォーム,,株式会社,埼玉県,さいたま市緑区,東浦和４丁目１０番地１２,,11,109,3360926,,,2024-05-20,清算の結了等,,,2022-11-04,1,,,,,ジーオーリフォーム,0
1773,7030002081525,登記記録の閉鎖等,0,2024-05-22,2024-05-22,有限会社大央運商,,有限会社,埼玉県,児玉郡神川町,大字新里２３１６番地１,,11,383,3670232,,,2024-05-22,合併による解散等,6030002112933,令和６年５月１日埼玉県熊谷市下川上１５６８番地１１株式会社大野生研工業（6030002112933）に合併し解散,2015-10-05,1,,,,,ダイオウウンショウ,0
1792,7060001031684,登記記録の閉鎖等,0,2024-05-22,2024-05-13,株式会社ＦＯＲＭＯＳＡ,,株式会社,栃木県,宇都宮市,宿郷２丁目６番５号パークヒルズ宿郷６０３号室,,09,201,3210945,,,2024-05-13,清算の結了等,,,2019-06-26,1,,,,,フォルモサ,0
1842,7120002024961,登記記録の閉鎖等,0,2024-05-22,2024-05-17,有限会社コスモテツク,,有限会社,大阪府,大阪市東淀川区,小松４丁目１０番１号,,27,114,5330004,,,2024-05-17,清算の結了等,,,2015-10-05,1,,,,,コスモテツク,0
1850,7120005018176,登記記録の閉鎖等,0,2024-05-22,2024-05-17,一般社団法人大阪ブレンド,,その他の設立登記法人,大阪府,大阪市中央区,瓦町１丁目７番１６号,,27,128,5410048,,,2024-05-17,清算の結了等,,,2015-10-05,1,,,,,オオサカブレンド,0
1867,7140001093436,登記記録の閉鎖等,0,2024-05-22,2024-05-20,株式会社エールス,,株式会社,兵庫県,神戸市須磨区,高尾台３丁目６番１５号,,28,107,6540061,,,2024-05-20,清算の結了等,,,2015-10-05,1,,,,,,0
1883,7180001152097,登記記録の閉鎖等,0,2024-05-22,2024-05-14,株式会社ＤｘＳ,,株式会社,愛知県,名古屋市西区,那古野２丁目１４番１号,,23,104,4510042,,,2024-05-14,清算の結了等,,,2022-07-07,1,,,,,デクス,0
1893,7180301033922,登記記録の閉鎖等,0,2024-05-22,2024-05-16,株式会社ベストボディスタイル,,株式会社,愛知県,岡崎市,伊賀新町１７番地１６,,23,202,4440078,,,2024-05-16,清算の結了等,,,2020-07-29,1,,,,,ベストボディスタイル,0
1897,7200005008516,登記記録の閉鎖等,0,2024-05-22,2024-05-20,協同組合雅陶会,,その他の設立登記法人,岐阜県,土岐市,下石町１２６９番地の２,,21,212,5095202,,,2024-05-20,清算の結了等,,,2015-10-05,1,,,,,ガトウカイ,0
1900,7220001013848,登記記録の閉鎖等,0,2024-05-22,2024-05-15,株式会社芦城,00078337,株式会社,石川県,小松市,糸町１番地８,,17,203,9230813,,,2024-05-15,清算の結了等,,,2015-10-05,1,,,,,ロジョウ,0
1905,7230002010513,登記記録の閉鎖等,0,2024-05-22,2024-05-20,有限会社クリエ北陸,,有限会社,富山県,小矢部市,道林寺３１２番地６４,,16,209,9320841,,,2024-05-20,清算の結了等,,,2015-10-05,1,,,,,クリエホクリク,0
1911,7260001010874,登記記録の閉鎖等,0,2024-05-22,2024-05-15,株式会社三裕工業,,株式会社,岡山県,岡山市北区,栢谷１４５番地,,33,101,7011144,,,2024-05-15,清算の結了等,,,2015-10-05,1,,,,,サンユウコウギョウ,0
1916,7290001053714,登記記録の閉鎖等,0,2024-05-22,2024-04-17,株式会社遠藤本店,,株式会社,福岡県,大牟田市,旭町２丁目１番地の３,,40,202,8360807,,,2024-04-17,清算の結了等,,,2015-10-05,1,,,,,エンドウホンテン,0
1938,7370001043681,登記記録の閉鎖等,0,2024-05-22,2024-05-10,株式会社ｉｖｓ,,株式会社,岩手県,北上市,里分２地割２１５－４－２１０３,,03,206,0240023,,,2024-05-10,清算の結了等,,,2018-10-26,1,,,,,,0
1949,7430001023561,登記記録の閉鎖等,0,2024-05-22,2024-05-20,スミタス不動産株式会社,,株式会社,北海道,札幌市厚別区,大谷地東１丁目３番２３号,,01,108,0040041,,,2024-05-20,清算の結了等,,,2015-10-05,1,,,,,スミタスフドウサン,0
1953,7440001006342,登記記録の閉鎖等,0,2024-05-22,2024-05-17,八雲砕石株式会社,,株式会社,北海道,二海郡八雲町,熊石鮎川町２７番地,,01,346,0430402,,,2024-05-17,清算の結了等,,,2015-10-05,1,,,,,ヤクモサイセキ,0
1955,7440002008833,登記記録の閉鎖等,0,2024-05-22,2024-05-17,有限会社ワイ・サービス,,有限会社,北海道,二海郡八雲町,花浦２７４番地,,01,346,0493122,,,2024-05-17,清算の結了等,,,2015-10-05,1,,,,,ワイサービス,0
1963,7500005007818,登記記録の閉鎖等,0,2024-05-22,2024-05-20,特定非営利活動法人とうおんまちづくり工房,,その他の設立登記法人,愛媛県,東温市,横河原１８９番地４,,38,215,7910203,,,2024-05-20,清算の結了等,,,2016-12-12,1,,,,,トウオンマチヅクリコウボウ,0
1975,8010001154729,登記記録の閉鎖等,0,2024-05-22,2024-05-08,株式会社Ｔａｋｅ　Ｔｈｅ　Ｆｒｏｎｔｉｅｒ,,株式会社,東京都,中央区,銀座７丁目１３番６号サガミビル２階,,13,102,1040061,,,2024-05-08,清算の結了等,,,2015-10-05,1,,,,,テイクザフロンティア,0
2021,8011101054793,登記記録の閉鎖等,0,2024-05-22,2024-05-16,ニューホライズンインベストメント株式会社,,株式会社,東京都,新宿区,新宿１丁目２８番１０号,,13,104,1600022,,,2024-05-16,清算の結了等,,,2015-10-05,1,,,,,ニューホライズンインベストメント,0
2025,8011501001791,登記記録の閉鎖等,0,2024-05-22,2024-05-17,三共部品株式会社,,株式会社,東京都,北区,王子１丁目２７番１５号,,13,117,1140002,,,2024-05-17,清算の結了等,,,2015-10-05,1,,,,,サンキョウブヒン,0
2062,8021001062318,登記記録の閉鎖等,0,2024-05-22,2024-05-21,株式会社光星建設,,株式会社,神奈川県,足柄上郡大井町,金手９７１番地３,,14,362,2580018,,,2024-05-21,清算の結了等,,,2017-06-07,1,,,,,コウセイケンセツ,0
2091,8060002006742,登記記録の閉鎖等,0,2024-05-22,2024-05-14,有限会社直井製作所,,有限会社,栃木県,宇都宮市,陽東７丁目１０番４３号,,09,201,3210904,,,2024-05-14,清算の結了等,,,2015-10-05,1,,,,,ナオイセイサクジョ,0
2102,8080102016887,登記記録の閉鎖等,0,2024-05-22,2024-05-20,有限会社白井畜産,,有限会社,静岡県,富士宮市,西町５番１３号,,22,207,4180056,,,2024-05-20,清算の結了等,,,2015-10-05,1,,,,,シライチクサン,0
2106,8090001001403,登記記録の閉鎖等,0,2024-05-22,2024-05-17,株式会社千塚興産,,株式会社,山梨県,甲府市,千塚２丁目４番２８号３０５,,19,201,4000074,,,2024-05-17,清算の結了等,,,2015-10-05,1,,,,,チヅカコウサン,0
2109,8100001006862,登記記録の閉鎖等,0,2024-05-22,2024-05-08,ハウスリモデル株式会社,,株式会社,長野県,長野市,吉田４丁目１１番１９号ハウスリモデルビル,,20,201,3810043,,,2024-05-08,清算の結了等,,,2015-10-05,1,,,,,ハウスリモデル,0
2130,8120003016619,登記記録の閉鎖等,0,2024-05-22,2024-05-21,合同会社キヌコーポレーション,,合同会社,大阪府,門真市,野里町９番２１,,27,223,5710079,,,2024-05-21,清算の結了等,,,2019-12-04,1,,,,,キヌコーポレーション,0
2160,8180001088563,登記記録の閉鎖等,0,2024-05-22,2024-05-14,株式会社グラース,,株式会社,愛知県,名古屋市中区,金山１丁目４番４号第９タツミビル北棟２０１,,23,106,4600022,,,2024-05-14,清算の結了等,,,2015-10-05,1,,,,,グラース,0
2169,8180002019154,登記記録の閉鎖等,0,2024-05-22,2024-05-15,有限会社日吉精工,,有限会社,愛知県,名古屋市中川区,中島新町２丁目８０１番地,,23,110,4540932,,,2024-05-15,清算の結了等,,,2015-10-05,1,,,,,ヒヨシセイコウ,0
2181,8200001007009,登記記録の閉鎖等,0,2024-05-22,2024-05-20,株式会社かじ助,,株式会社,岐阜県,各務原市,那加石山町１丁目１２７番地,,21,213,5040044,,,2024-05-20,清算の結了等,,,2015-10-05,1,,,,,,0
2186,8200002025785,登記記録の閉鎖等,0,2024-05-22,2024-05-20,有限会社飛水観光,,有限会社,岐阜県,高山市,新宮町９８番地の１,,21,203,5060035,,,2024-05-20,合併による解散等,3200001025403,令和６年５月２０日岐阜県高山市奥飛騨温泉郷笹嶋３６番地蒲田川工業株式会社（3200001025403）に合併し解散,2015-10-05,1,,,,,ヒスイカンコウ,0
2191,8240002029758,登記記録の閉鎖等,0,2024-05-22,2024-05-20,有限会社サイトウ工芸,,有限会社,広島県,山県郡安芸太田町,大字加計４５４８番地の６,,34,368,7313501,,,2024-05-20,清算の結了等,,,2015-10-05,1,,,,,,0
2216,8310001009448,登記記録の閉鎖等,0,2024-05-22,2024-05-15,株式会社ＭＹ,,株式会社,長崎県,諫早市,小野島町１１４８番地,,42,204,8540031,,,2024-05-15,清算の結了等,,,2015-10-05,1,,,,,エムワイ,0
2225,8350001012200,登記記録の閉鎖等,0,2024-05-22,2024-05-21,株式会社ケー・アール・ジー,,株式会社,宮崎県,宮崎市,大字芳士字五反田５２１番地３,,45,201,8800123,,,2024-05-21,清算の結了等,,,2015-10-05,1,,,,,ケーアールジー,0
2231,8360002019086,登記記録の閉鎖等,0,2024-05-22,2024-05-17,有限会社オリエンタル・アルーア,,有限会社,神奈川県,大和市,中央林間２丁目９番７号モアリッシェル中央林間６０３号室,,14,213,2420007,,,2024-05-17,清算の結了等,,,2015-10-05,1,,,,,オリエンタルアルーア,0
2234,8370101001266,登記記録の閉鎖等,0,2024-05-22,2024-05-16,株式会社アオキ,,株式会社,宮城県,白石市,大鷹沢大町字塔ノ入５９番地の２,,04,206,9890212,,,2024-05-16,清算の結了等,,,2015-10-05,1,,,,,アオキ,0
2243,8400001013845,登記記録の閉鎖等,0,2024-05-22,2024-05-08,株式会社武田保険アシスト,,株式会社,岩手県,奥州市,水沢真城字迎畑５６番地３,,03,215,0230841,,,2024-05-08,清算の結了等,,,2017-09-06,1,,,,,タケダホケンアシスト,0
2261,9010001095278,登記記録の閉鎖等,0,2024-05-22,2024-05-14,東京レント株式会社,,株式会社,東京都,杉並区,和泉２丁目９－９,,13,115,1680063,,,2024-05-14,清算の結了等,,,2015-10-05,1,,,,,トウキョウレント,0
2265,9010001212345,登記記録の閉鎖等,0,2024-05-22,2024-05-09,ＱＮｅｓｔ株式会社,,株式会社,東京都,千代田区,大手町２丁目３番２号,,13,101,1000004,,,2024-05-09,清算の結了等,,,2020-09-17,1,,,,,キューネスト,0
2280,9010405013257,登記記録の閉鎖等,0,2024-05-22,2024-05-02,Ａｒｓｅｎａｌ　Ａｓｓｅｔ一般社団法人,,その他の設立登記法人,東京都,港区,虎ノ門３丁目２２番１０－２０１号,,13,103,1050001,,,2024-05-02,清算の結了等,,,2015-10-05,1,,,,,アーセナルアセット,0
2289,9010701040335,登記記録の閉鎖等,0,2024-05-22,2024-05-16,株式会社ｋｉｉｔｏｓ・ｋｉｉｔｏｓ,,株式会社,東京都,練馬区,旭丘１丁目１０番８号,,13,120,1760005,,,2024-05-16,清算の結了等,,,2021-01-07,1,,,,,キートスキートス,0
2312,9011101100217,登記記録の閉鎖等,0,2024-05-22,2024-05-16,株式会社世界堂人材バンク,,株式会社,東京都,新宿区,新宿３丁目１番１号,,13,104,1600022,,,2024-05-16,清算の結了等,,,2022-09-16,1,,,,,セカイドウジンザイバンク,0
2334,9020001001656,登記記録の閉鎖等,0,2024-05-22,2024-05-15,株式会社二ツ橋石井電器,,株式会社,神奈川県,横浜市瀬谷区,宮沢４丁目１８番６号,,14,114,2460038,,,2024-05-15,清算の結了等,,,2015-10-05,1,,,,,フタツバシイシイデンキ,0
2343,9020002072969,登記記録の閉鎖等,0,2024-05-22,2024-05-14,有限会社クロスエッジ・システムズ,,有限会社,神奈川県,横浜市都筑区,東山田２丁目１４番４２号,,14,118,2240023,,,2024-05-14,清算の結了等,,,2015-10-05,1,,,,,クロスエッジシステムズ,0
2363,9040001087306,登記記録の閉鎖等,0,2024-05-22,2024-05-10,株式会社重建社,,株式会社,千葉県,佐倉市,六崎２９１番地１,,12,212,2850812,,,2024-05-10,清算の結了等,,,2015-10-05,1,,,,,ジュウケンシャ,0
2365,9040001101842,登記記録の閉鎖等,0,2024-05-22,2024-05-20,株式会社ＪｕｓｔＦｉｔ,,株式会社,東京都,港区,南青山３丁目８番４０号青山センタービル２Ｆ,,13,103,1070062,,,2024-05-20,合併による解散等,3040001102227,令和６年５月１日千葉市中央区千葉寺町１２２８番地１３株式会社ＵＥＫＵＳＡ（3040001102227）に合併し解散,2017-09-19,1,,,,,ジャストフィット,0
2375,9050005012762,登記記録の閉鎖等,0,2024-05-22,2024-05-17,一般社団法人山中洋忠教育支援協会,,その他の設立登記法人,茨城県,龍ケ崎市,緑町１８３番地２－１０３,,08,208,3010832,,,2024-05-17,清算の結了等,,,2020-10-12,1,,,,,ヤマナカヒロタダキョウイクシエンキョウカイ,0
2380,9060002011279,登記記録の閉鎖等,0,2024-05-22,2024-05-15,有限会社柳屋商事,,有限会社,栃木県,河内郡上三川町,大字石田１２８９番地,,09,301,3290521,,,2024-05-15,清算の結了等,,,2015-10-05,1,,,,,ヤナギヤショウジ,0
2414,9120003022161,登記記録の閉鎖等,0,2024-05-22,2024-05-20,ｆｕｔｕｒｅ　ｓｙｓｔｅｍｓ合同会社,,合同会社,大阪府,大阪市中央区,日本橋１丁目１７番１７号ピカソ日本一ビル６０４号室,,27,128,5420073,,,2024-05-20,清算の結了等,,,2022-07-28,1,,,,,フューチャーシステムズ,0
2416,9120005015601,登記記録の閉鎖等,0,2024-05-22,2024-05-21,ＮＰＯ法人日本の健康を考える会,,その他の設立登記法人,大阪府,大阪市城東区,関目４丁目１番７号,,27,118,5360008,,,2024-05-21,清算の結了等,,,2015-10-05,1,,,,,ニホンノケンコウヲカンガエルカイ,0
2423,9122002006566,登記記録の閉鎖等,0,2024-05-22,2024-05-14,有限会社頭脳,,有限会社,大阪府,東大阪市,花園西町１丁目１１番１３号下村方内,,27,227,5780936,,,2024-05-14,清算の結了等,,,2015-10-05,1,,,,,ズノウ,0
2447,9180302026031,登記記録の閉鎖等,0,2024-05-22,2024-05-16,愛栄有限会社,,有限会社,愛知県,西尾市,菅原町２７９番地,,23,213,4450815,,,2024-05-16,清算の結了等,,,2015-10-05,1,,,,,アイエイ,0
2456,9220001018119,登記記録の閉鎖等,0,2024-05-22,2024-05-15,株式会社ダイトクエンジニアリング,,株式会社,石川県,河北郡津幡町,字旭山２１番地１,,17,361,9290447,,,2024-05-15,合併による解散等,2220001017597,令和６年５月１５日石川県河北郡津幡町字旭山２１番地１株式会社大徳鉄工（2220001017597）に合併し解散,2015-10-05,1,,,,,ダイトクエンジニアリング,0
2461,9250001001550,登記記録の閉鎖等,0,2024-05-22,2024-05-20,株式会社ＫＹシステム,,株式会社,山口県,山口市,徳地上村２３８番地１,,35,203,7470523,,,2024-05-20,清算の結了等,,,2015-10-05,1,,,,,ケイワイシステム,0
2467,9260002003611,登記記録の閉鎖等,0,2024-05-22,2024-05-15,有限会社後神製綿所,,有限会社,岡山県,岡山市中区,関１５７番地の５,,33,102,7038232,,,2024-05-15,清算の結了等,,,2015-10-05,1,,,,,ゴカンセイメンショ,0
2471,9270005004416,登記記録の閉鎖等,0,2024-05-22,2024-05-20,牧生産森林組合,,その他の設立登記法人,鳥取県,東伯郡三朝町,大字牧３９２番地,,31,364,6820178,,,2024-05-20,清算の結了等,,,2015-10-05,1,,,,,マキ,0
2473,9290001033656,登記記録の閉鎖等,0,2024-05-22,2024-05-17,株式会社ＡＬＮＩＣＯ,,株式会社,東京都,中央区,東日本橋３丁目３番７号,,13,102,1030004,,,2024-05-17,合併による解散等,1290001058776,令和６年４月１１日福岡市博多区博多駅東二丁目４番１７号第６岡部ビル６Ｆ西日本自立支援協会株式会社（1290001058776）に合併し解散,2015-10-05,1,,,,,アルニコ,0
2480,9290003008680,登記記録の閉鎖等,0,2024-05-22,2024-04-19,ＬｉｇｈＣｏ合同会社,,合同会社,福岡県,福岡市中央区,天神４丁目４番地１１号,,40,133,8100001,,,2024-04-19,清算の結了等,,,2019-01-22,1,,,,,ライコウ,0
2491,9330002026555,登記記録の閉鎖等,0,2024-05-22,2024-05-08,有限会社ユーコー商事,,有限会社,熊本県,八代市,日置町１２６番地の６,,43,202,8660896,,,2024-05-08,清算の結了等,,,2015-10-05,1,,,,,ユーコーショウジ,0
