sequenceNumber,corporateNumber,process,correct,updateDate,changeDate,name,nameImageId,kind,prefectureName,cityName,streetNumber,addressImageId,prefectureCode,cityCode,postCode,addressOutside,addressOutsideImageId,closeDate,closeCause,successorCorporateNumber,changeCause,assignmentDate,latest,enName,enPrefectureName,enCityName,enAddressOutside,furigana,hihyoji
10,1010001221485,新規,0,2021-10-04,2021-10-04,東京蒋氏貿易株式会社,,株式会社,東京都,中央区,新富２丁目１１－６Ｓ・Ｋセントラル５０２号,,13,102,1040041,,,,,,,2021-10-04,1,,,,,トウキョウショウシボウエキ,0
11,1010003035842,新規,0,2021-10-04,2021-10-04,ハッピー・イノベーター合同会社,,合同会社,東京都,中央区,日本橋堀留町１丁目１０番１号カクタビル２Ｆ,,13,102,1030012,,,,,,,2021-10-04,1,,,,,ハッピーイノベーター,0
15,1010103001785,新規,0,2021-10-04,2021-10-04,ＨＩＭデザイン合同会社,,合同会社,東京都,八王子市,寺田町４３２番地グリーンヒル寺田２２２－１,,13,201,1930943,,,,,,,2021-10-04,1,,,,,エイチアイエムデザイン,0
25,1010403026219,新規,0,2021-10-04,2021-10-04,ソピア合同会社,,合同会社,東京都,港区,高輪１丁目２７－３７－４１０２,,13,103,1080074,,,,,,,2021-10-04,1,,,,,,0
26,1010403026235,新規,0,2021-10-04,2021-10-04,Ｒｅ　Ｗｒｉｔｅ合同会社,,合同会社,東京都,港区,南青山２丁目２－１５ヴィン１３０２,,13,103,1070062,,,,,,,2021-10-04,1,,,,,リライト,0
29,1010501047884,新規,0,2021-10-04,2021-10-04,トゥールズノーム株式会社,,株式会社,東京都,台東区,寿３丁目１９番２号シュロス浅草１０２,,13,106,1110042,,,,,,,2021-10-04,1,,,,,トゥールズノーム,0
33,1010601060011,新規,0,2021-10-04,2021-10-04,株式会社三並商事,,株式会社,東京都,墨田区,本所３丁目２７番２号,,13,107,1300004,,,,,,,2021-10-04,1,,,,,ミナミショウジ,0
35,1010701041596,新規,0,2021-10-04,2021-10-04,株式会社Ｐｌｕｍｅ　Ｂａｌｌｅｔ　Ａｒｔｓ,,株式会社,東京都,品川区,東品川２丁目３番１２号,,13,109,1400002,,,,,,,2021-10-04,1,,,,,プリュムバレエアーツ,0
44,1011001142960,新規,0,2021-10-04,2021-10-04,株式会社Ｎｏｒｄ,,株式会社,東京都,渋谷区,渋谷２丁目１９番１５号宮益坂ビルディング６０９,,13,113,1500002,,,,,,,2021-10-04,1,,,,,ノード,0
45,1011001142977,新規,0,2021-10-04,2021-10-04,Ｈｉｇｈ　Ｆｉｅｌｄ株式会社,,株式会社,東京都,渋谷区,渋谷２丁目２４番１２号３９階,,13,113,1500002,,,,,,,2021-10-04,1,,,,,ハイフィールド,0
46,1011001143034,新規,0,2021-10-04,2021-10-04,株式会社シャフリヤール,,株式会社,東京都,渋谷区,恵比寿南１丁目１９番１１号５０１,,13,113,1500022,,,,,,,2021-10-04,1,,,,,シャフリヤール,0
47,1011001143174,新規,0,2021-10-04,2021-10-04,株式会社Ｈｉｇｈ　Ｓｅｅ,,株式会社,東京都,渋谷区,道玄坂１丁目７番１号渋谷グローリアビル３階,,13,113,1500043,,,,,,,2021-10-04,1,,,,,ハイシー,0
49,1011003013433,新規,0,2021-10-04,2021-10-04,インサイトフル合同会社,,合同会社,東京都,渋谷区,松濤１丁目２８－２ＷＯＲＫＣＯＵＲＴ渋谷松濤,,13,113,1500046,,,,,,,2021-10-04,1,,,,,インサイトフル,0
50,1011003013441,新規,0,2021-10-04,2021-10-04,合同会社カフカノネコ,,合同会社,東京都,渋谷区,神宮前３丁目６番１９号,,13,113,1500001,,,,,,,2021-10-04,1,,,,,カフカノネコ,0
63,1012401038344,新規,0,2021-10-04,2021-10-04,株式会社ＭＧＨ,,株式会社,東京都,調布市,小島町２丁目５５番地１－１０２号室,,13,208,1820026,,,,,,,2021-10-04,1,,,,,エムジーエイチ,0
74,1020001143258,新規,0,2021-10-04,2021-10-04,株式会社ＹＳＫ,,株式会社,神奈川県,横浜市戸塚区,上矢部町４４０番地１,,14,110,2450053,,,,,,,2021-10-04,1,,,,,ワイエスケイ,0
75,1020001143274,新規,0,2021-10-04,2021-10-04,株式会社功成リフォーム,,株式会社,神奈川県,横浜市旭区,金が谷１丁目１３番１６号,,14,112,2410812,,,,,,,2021-10-04,1,,,,,コウセイリフォーム,0
77,1020003020579,新規,0,2021-10-04,2021-10-04,合同会社新弥勒堂,,合同会社,神奈川県,横浜市鶴見区,佃野町２２番２５号,,14,101,2300061,,,,,,,2021-10-04,1,,,,,シンミロクドウ,0
78,1020003020587,新規,0,2021-10-04,2021-10-04,パブリッシャーエンジン合同会社,,合同会社,神奈川県,川崎市高津区,溝口１丁目１４－１８石原ビル１Ｆ,,14,134,2130001,,,,,,,2021-10-04,1,,,,,パブリッシャーエンジン,0
81,1021001073973,新規,0,2021-10-04,2021-10-04,ＹＵＳＥＮ　ＩＮＴＥＲＮＡＴＩＯＮＡＬ　ＧＲＯＵＰ株式会社,,株式会社,神奈川県,相模原市中央区,横山１丁目３番１７号,,14,152,2520242,,,,,,,2021-10-04,1,,,,,ユセンインターナショナルグループ,0
89,1030001144494,新規,0,2021-10-04,2021-10-04,株式会社アイビックス,,株式会社,埼玉県,さいたま市中央区,上落合５丁目３番９号,,11,105,3380001,,,,,,,2021-10-04,1,,,,,アイビックス,0
90,1030001144536,新規,0,2021-10-04,2021-10-04,株式会社Ｔｒｕｍｐ　Ｓａｉｔａｍａ,,株式会社,埼玉県,川口市,芝高木１丁目１４番３０号,,11,203,3330868,,,,,,,2021-10-04,1,,,,,トランプサイタマ,0
93,1030003018044,新規,0,2021-10-04,2021-10-04,ｇｒｅｅｎｓｈａｒｅ合同会社,,合同会社,埼玉県,川口市,北原台２丁目９番１０号,,11,203,3330815,,,,,,,2021-10-04,1,,,,,グリーンシェア,0
96,1040003018638,新規,0,2021-10-04,2021-10-04,合同会社ＳＰＡＣＥ　ＡＭＩ,,合同会社,千葉県,船橋市,二宮１丁目３番５号,,12,204,2740823,,,,,,,2021-10-04,1,,,,,スペースアミ,0
108,1070001038478,新規,0,2021-10-04,2021-10-04,株式会社Ｔ＆Ｓ,,株式会社,群馬県,高崎市,大橋町３６番地９,,10,202,3700803,,,,,,,2021-10-04,1,,,,,ティーアンドエス,0
109,1070001038486,新規,0,2021-10-04,2021-10-04,株式会社ホスピサービス,,株式会社,群馬県,藤岡市,藤岡１８２７番地,,10,209,3750024,,,,,,,2021-10-04,1,,,,,ホスピサービス,0
110,1070001038494,新規,0,2021-10-04,2021-10-04,株式会社とみオフィス,,株式会社,群馬県,前橋市,古市町２７５番地２,,10,201,3710844,,,,,,,2021-10-04,1,,,,,トミオフィス,0
112,1070005009905,新規,0,2021-10-04,2021-10-04,千葉櫻井社会保険労務士法人,,その他の設立登記法人,群馬県,伊勢崎市,東本町１０９番地２２,,10,204,3720025,,,,,,,2021-10-04,1,,,,,チバサクライシャカイホケンロウムシ,0
113,1080001024477,新規,0,2021-10-04,2021-10-04,株式会社新間建設,,株式会社,静岡県,焼津市,塩津２４７番地の１１,,22,212,4250085,,,,,,,2021-10-04,1,,,,,シンマケンセツ,0
119,1080401025406,新規,0,2021-10-04,2021-10-04,株式会社ＫＳＭ,,株式会社,静岡県,浜松市中区,旭町６番地の１一条タワー８１１,,22,131,4300927,,,,,,,2021-10-04,1,,,,,ケイエスエム,0
122,1080403004374,新規,0,2021-10-04,2021-10-04,合同会社ニッセイ,,合同会社,静岡県,浜松市南区,遠州浜３丁目３６番１９号,,22,134,4300835,,,,,,,2021-10-04,1,,,,,ニッセイ,0
139,1120001240680,新規,0,2021-10-04,2021-10-04,株式会社Ｒ,,株式会社,大阪府,大阪市西区,江戸堀１丁目１９番２３号長崎ビル４０４,,27,106,5500002,,,,,,,2021-10-04,1,,,,,アール,0
140,1120001240796,新規,0,2021-10-04,2021-10-04,株式会社オフィスループ,,株式会社,大阪府,交野市,倉治７丁目１０番１５号,,27,230,5760051,,,,,,,2021-10-04,1,,,,,オフィスループ,0
143,1120003020338,新規,0,2021-10-04,2021-10-04,合同会社コネクト,,合同会社,大阪府,大阪市淀川区,西中島４丁目５－１ＮＬＣ新大阪パワービル３階,,27,123,5320011,,,,,,,2021-10-04,1,,,,,コネクト,0
147,1120101064393,新規,0,2021-10-04,2021-10-04,株式会社ねこまご新聞,,株式会社,大阪府,堺市東区,野尻町５４２－１,,27,143,5998116,,,,,,,2021-10-04,1,,,,,ネコマゴシンブン,0
148,1120101064402,新規,0,2021-10-04,2021-10-04,株式会社ティーガＬｉｎｋ,,株式会社,大阪府,岸和田市,下野町２丁目４番２０号３階,,27,202,5960041,,,,,,,2021-10-04,1,,,,,ティーガリンク,0
149,1120101064435,新規,0,2021-10-04,2021-10-04,株式会社ホットファクトリー,,株式会社,大阪府,泉大津市,池浦町５丁目１５－４,,27,206,5950024,,,,,,,2021-10-04,1,,,,,ホットファクトリー,0
151,1120901044958,新規,0,2021-10-04,2021-10-04,株式会社アスリートＷｅｓｔ,,株式会社,大阪府,摂津市,鳥飼下３丁目８番５号,,27,224,5660071,,,,,,,2021-10-04,1,,,,,アスリートウエスト,0
152,1120901044966,新規,0,2021-10-04,2021-10-04,塩見株式会社,,株式会社,大阪府,高槻市,川西町１丁目３３番１５号,,27,207,5691133,,,,,,,2021-10-04,1,,,,,シオミ,0
156,1122001035219,新規,0,2021-10-04,2021-10-04,株式会社長川製作所,,株式会社,大阪府,東大阪市,荒本西３丁目４番４５号,,27,227,5770024,,,,,,,2021-10-04,1,,,,,ナガカワセイサクジョ,0
160,1130001070219,新規,0,2021-10-04,2021-10-04,株式会社ＪＹＮ－ＮＥＸＴ,,株式会社,京都府,京都市右京区,西京極南大入町８５番地小堀マンション旧館Ｔ－３,,26,108,6150883,,,,,,,2021-10-04,1,,,,,ジェイワイエヌネクスト,0
171,1140001123165,新規,0,2021-10-04,2021-10-04,株式会社Ｋ’ｓ　ｍａｎａｇｅｍｅｎｔ,,株式会社,兵庫県,宝塚市,平井山荘５番１２号,,28,214,6650817,,,,,,,2021-10-04,1,,,,,ケーズマネージメント,0
172,1140001123198,新規,0,2021-10-04,2021-10-04,株式会社隼,,株式会社,兵庫県,西宮市,甲陽園西山町１６番１１号,,28,204,6620017,,,,,,,2021-10-04,1,,,,,ハヤブサ,0
173,1140001123215,新規,0,2021-10-04,2021-10-04,株式会社ｅｐａ　ｓｔｙｌｅ,,株式会社,兵庫県,淡路市,郡家１１５１番地２,,28,226,6561511,,,,,,,2021-10-04,1,,,,,エパスタイル,0
174,1140001123223,新規,0,2021-10-04,2021-10-04,ＡＫ　Ｃｏｎｓｕｌｔａｎｔ株式会社,,株式会社,兵庫県,神戸市東灘区,田中町１丁目２番２１－１００１号,,28,101,6580081,,,,,,,2021-10-04,1,,,,,エイケイコンサルタント,0
175,1140001123231,新規,0,2021-10-04,2021-10-04,株式会社Ｌ－Ｉｓｔ,,株式会社,兵庫県,尼崎市,富松町２丁目１８番２－２号,,28,202,6610003,,,,,,,2021-10-04,1,,,,,エルイスト,0
176,1140001123264,新規,0,2021-10-04,2021-10-04,Ａｎｃｒｅ　Ｄｅｓ　Ｃｏｌｌｉｎｅｓ株式会社,,株式会社,兵庫県,神戸市東灘区,住吉東町２丁目６番１４号メゾン住吉川３０２号,,28,101,6580052,,,,,,,2021-10-04,1,,,,,オンクルデコリン,0
179,1140003016788,新規,0,2021-10-04,2021-10-04,合同会社はる夢,,合同会社,兵庫県,神戸市中央区,元町通４丁目３番８号元町コーポラス２Ｆ,,28,110,6500022,,,,,,,2021-10-04,1,,,,,ハルム,0
180,1140003016821,新規,0,2021-10-04,2021-10-04,合同会社ＦｕＬＦｉＬＬ,,合同会社,兵庫県,尼崎市,西本町６丁目２４３番地,,28,202,6600874,,,,,,,2021-10-04,1,,,,,フルフィル,0
186,1160001023685,新規,0,2021-10-04,2021-10-04,株式会社横山装蹄所,,株式会社,滋賀県,大津市,松が丘６丁目２番１３号,,25,201,5202102,,,,,,,2021-10-04,1,,,,,ヨコヤマソウテイショ,0
189,1170001016804,新規,0,2021-10-04,2021-10-04,株式会社早水商店,,株式会社,和歌山県,岩出市,岡田２２６番地の１マスターズエル岩出３０２号,,30,209,6496222,,,,,,,2021-10-04,1,,,,,ハヤミズショウテン,0
199,1180001148002,新規,0,2021-10-04,2021-10-04,未来藝術株式会社,,株式会社,愛知県,名古屋市南区,忠次１丁目２番９号,,23,112,4570843,,,,,,,2021-10-04,1,,,,,ミライゲイジュツ,0
200,1180001148027,新規,0,2021-10-04,2021-10-04,株式会社ＯＣＨＩ,,株式会社,愛知県,名古屋市緑区,滝ノ水５丁目１１２４番地の２,,23,114,4580021,,,,,,,2021-10-04,1,,,,,オチ,0
201,1180001148043,新規,0,2021-10-04,2021-10-04,ブリッジコネクト株式会社,,株式会社,愛知県,名古屋市西区,名駅１丁目１番１７号名駅ダイヤメイテツビル１１階,,23,104,4510045,,,,,,,2021-10-04,1,,,,,ブリッジコネクト,0
202,1180001148076,新規,0,2021-10-04,2021-10-04,株式会社鈴木ローラリンク,,株式会社,愛知県,名古屋市守山区,大屋敷９番２５号－１,,23,113,4630016,,,,,,,2021-10-04,1,,,,,スズキローラリンク,0
206,1180301035420,新規,0,2021-10-04,2021-10-04,株式会社くればぁホールディングス,,株式会社,愛知県,豊橋市,下地町字神田３８番地,,23,201,4400084,,,,,,,2021-10-04,1,,,,,クレバァホールディングス,0
207,1180301035429,新規,0,2021-10-04,2021-10-04,株式会社Ｊインダストリ,,株式会社,愛知県,岡崎市,柱町字上荒子３８番地７,,23,202,4440834,,,,,,,2021-10-04,1,,,,,ジェイインダストリ,0
209,1180303005124,新規,0,2021-10-04,2021-10-04,合同会社カルミアグループ,,合同会社,愛知県,知立市,谷田町本林１丁目１２番地の７,,23,225,4720015,,,,,,,2021-10-04,1,,,,,カルミアグループ,0
210,1180305009247,新規,0,2021-10-04,2021-10-04,社会保険労務士法人グッド労務,,その他の設立登記法人,愛知県,刈谷市,半城土中町３丁目１７番地１１,,23,210,4480805,,,,,,,2021-10-04,1,,,,,グッドロウム,0
212,1190001028731,新規,0,2021-10-04,2021-10-04,ワンステップ株式会社,,株式会社,三重県,松阪市,上川町２７３９番地６２,,24,204,5150041,,,,,,,2021-10-04,1,,,,,ワンステップ,0
215,1200001039215,新規,0,2021-10-04,2021-10-04,株式会社ノンノン,,株式会社,岐阜県,大垣市,熊野町４丁目４１番地,,21,202,5030032,,,,,,,2021-10-04,1,,,,,ノンノン,0
218,1200003005330,新規,0,2021-10-04,2021-10-04,あきらＴｅｃｈ　Ｓｔｕｄｉｏ合同会社,,合同会社,岐阜県,大垣市,林町７丁目１９３番地８,,21,202,5030015,,,,,,,2021-10-04,1,,,,,アキラテックスタジオ,0
222,1230001019008,新規,0,2021-10-04,2021-10-04,株式会社Ｍクリエイト,,株式会社,富山県,魚津市,経田西町１０番地２８シーサイドハイツ１０１,,16,204,9370006,,,,,,,2021-10-04,1,,,,,エムクリエイト,0
225,1240001058707,新規,0,2021-10-04,2021-10-04,株式会社ＧＬＬ工業,,株式会社,広島県,広島市佐伯区,美鈴が丘南２丁目７番９号,,34,108,7315112,,,,,,,2021-10-04,1,,,,,ジーエルエルコウギョウ,0
226,1240001058715,新規,0,2021-10-04,2021-10-04,株式会社和,,株式会社,広島県,東広島市,豊栄町清武１８１０番地１,,34,212,7392313,,,,,,,2021-10-04,1,,,,,カズ,0
235,1250001019170,新規,0,2021-10-04,2021-10-04,株式会社ことのは,,株式会社,山口県,下松市,南花岡５丁目３－４２ベルコート南花岡Ｅ号,,35,207,7440027,,,,,,,2021-10-04,1,,,,,コトノハ,0
237,1260001036041,新規,0,2021-10-04,2021-10-04,株式会社ハラダ内装,,株式会社,岡山県,岡山市北区,撫川５４５番地１,,33,101,7010164,,,,,,,2021-10-04,1,,,,,ハラダナイソウ,0
240,1280001008526,新規,0,2021-10-04,2021-10-04,株式会社Ｊｉ＆Ｊｉコンサルティング,,株式会社,島根県,松江市,法吉町６５番地１２０,,32,201,6900861,,,,,,,2021-10-04,1,,,,,ジジコンサルティング,0
251,1290001094722,新規,0,2021-10-04,2021-10-04,株式会社レーヴ,,株式会社,福岡県,福岡市中央区,大手門２丁目７－１１ＢＭＳ６Ｆ,,40,133,8100074,,,,,,,2021-10-04,1,,,,,レーヴ,0
252,1290001094821,新規,0,2021-10-04,2021-10-04,Ｉ株式会社,,株式会社,福岡県,福岡市博多区,奈良屋町１４番２０号ベスト大博ビル６０２,,40,132,8120023,,,,,,,2021-10-04,1,,,,,エース,0
257,1310001017498,新規,0,2021-10-04,2021-10-04,林工業株式会社,,株式会社,長崎県,長崎市,琴海戸根町７３９番地１８,,42,201,8513103,,,,,,,2021-10-04,1,,,,,ハヤシコウギョウ,0
263,1330001029021,新規,0,2021-10-04,2021-10-04,株式会社ＮＯＷ,,株式会社,熊本県,熊本市中央区,中央街８番２４号,,43,101,8600802,,,,,,,2021-10-04,1,,,,,ナウ,0
265,1330003009054,新規,0,2021-10-04,2021-10-04,合同会社アルテファーム,,合同会社,熊本県,合志市,豊岡１９００番地４１,,43,216,8611115,,,,,,,2021-10-04,1,,,,,アルテファーム,0
267,1340001024137,新規,0,2021-10-04,2021-10-04,株式会社シェア,,株式会社,鹿児島県,鹿児島市,田上２丁目１９番１２号,,46,201,8900034,,,,,,,2021-10-04,1,,,,,シェア,0
269,1340003003584,新規,0,2021-10-04,2021-10-04,合同会社元山畜産,,合同会社,鹿児島県,大島郡伊仙町,大字喜念７０番地１,,46,532,8918111,,,,,,,2021-10-04,1,,,,,モトヤマチクサン,0
271,1350001017338,新規,0,2021-10-04,2021-10-04,株式会社鈴木板金工作所,,株式会社,宮崎県,宮崎市,大字浮田９８８番地３,,45,201,8802104,,,,,,,2021-10-04,1,,,,,スズキバンキンコウサクショ,0
273,1350003003939,新規,0,2021-10-04,2021-10-04,合同会社祥義,,合同会社,宮崎県,宮崎市,大字柏原１１６４番地６,,45,201,8802111,,,,,,,2021-10-04,1,,,,,ショウギ,0
280,1370001047630,新規,0,2021-10-04,2021-10-04,株式会社ｍｕｌｂｅｒｒｙ,,株式会社,宮城県,仙台市宮城野区,榴ケ岡２７番地プレシス仙台榴ヶ岡公園１３０５,,04,102,9830851,,,,,,,2021-10-04,1,,,,,マルベリー,0
281,1370001047663,新規,0,2021-10-04,2021-10-04,株式会社ワールドトラベル仙台,,株式会社,宮城県,仙台市若林区,卸町４丁目３番地の１,,04,103,9840015,,,,,,,2021-10-04,1,,,,,ワールドトラベルセンダイ,0
282,1370001047671,新規,0,2021-10-04,2021-10-04,株式会社Ｎ－ａｃｒｏ,,株式会社,宮城県,多賀城市,新田字北２７５番地の３,,04,209,9850854,,,,,,,2021-10-04,1,,,,,エヌアクロ,0
283,1370003005413,新規,0,2021-10-04,2021-10-04,合同会社ハル,,合同会社,宮城県,仙台市泉区,虹の丘３丁目５番地の２１,,04,105,9818007,,,,,,,2021-10-04,1,,,,,ハル,0
294,1390003001880,新規,0,2021-10-04,2021-10-04,合同会社Ａ　ｐｌｕｓ,,合同会社,山形県,鶴岡市,陽光町１６－６,,06,203,9970827,,,,,,,2021-10-04,1,,,,,エープラス,0
295,1400001015609,新規,0,2021-10-04,2021-10-04,及川林業株式会社,,株式会社,岩手県,大船渡市,三陸町越喜来字西甫嶺３１番地３,,03,203,0220101,,,,,,,2021-10-04,1,,,,,オイカワリンギョウ,0
296,1400001015625,新規,0,2021-10-04,2021-10-04,株式会社中村プランニング,,株式会社,岩手県,盛岡市,本町通１丁目１４番１号,,03,201,0200015,,,,,,,2021-10-04,1,,,,,ナカムラプランニング,0
297,1400003002844,新規,0,2021-10-04,2021-10-04,合同会社Ｎ・Ｋラボ,,合同会社,岩手県,紫波郡紫波町,北日詰字外谷地９１５番地９,,03,321,0283309,,,,,,,2021-10-04,1,,,,,エヌケーラボ,0
298,1400005008187,新規,0,2021-10-04,2021-10-04,弁護士法人幹,,その他の設立登記法人,岩手県,盛岡市,菜園１丁目３番６号農林会館７階,,03,201,0200024,,,,,,,2021-10-04,1,,,,,ミキ,0
299,1420001017603,新規,0,2021-10-04,2021-10-04,自在八カンパニー株式会社,,株式会社,青森県,八戸市,大字八幡字下前田１番地３,,02,203,0391105,,,,,,,2021-10-04,1,,,,,ジザイヤカンパニー,0
304,1430001085070,新規,0,2021-10-04,2021-10-04,株式会社マキノリティー,,株式会社,北海道,札幌市南区,澄川四条２丁目６番２２号アレフ澄川３階Ｃ号室,,01,106,0050004,,,,,,,2021-10-04,1,,,,,マキノリティー,0
310,1450001013491,新規,0,2021-10-04,2021-10-04,株式会社トキノ,,株式会社,北海道,旭川市,東光九条１丁目２番１５号,,01,204,0788349,,,,,,,2021-10-04,1,,,,,トキノ,0
312,1460001005604,新規,0,2021-10-04,2021-10-04,株式会社ＹＴ,,株式会社,北海道,釧路市,城山１丁目１０番５号,,01,206,0850826,,,,,,,2021-10-04,1,,,,,ワイティ,0
320,1470001018745,新規,0,2021-10-04,2021-10-04,大島デンタルラボラトリー株式会社,,株式会社,香川県,木田郡三木町,大字下高岡２２５５番地１６,,37,341,7610704,,,,,,,2021-10-04,1,,,,,オオシマデンタルラボラトリー,0
321,1490001010007,新規,0,2021-10-04,2021-10-04,株式会社肉技,,株式会社,高知県,高知市,南万々１８番地４,,39,201,7800971,,,,,,,2021-10-04,1,,,,,ニクワザ,0
322,1490005006802,新規,0,2021-10-04,2021-10-04,一般財団法人地域みらい財団,,その他の設立登記法人,高知県,高知市,はりまや町２丁目４番４号,,39,201,7800822,,,,,,,2021-10-04,1,,,,,チイキミライザイダン,0
323,1500001023717,新規,0,2021-10-04,2021-10-04,スキマデザイン株式会社,,株式会社,愛媛県,松山市,本町６丁目６番地７ロータリー本町５２６号,,38,201,7900811,,,,,,,2021-10-04,1,,,,,スキマデザイン,0
324,1500001023725,新規,0,2021-10-04,2021-10-04,仲渡工業株式会社,,株式会社,愛媛県,今治市,鐘場町２丁目３番１７号,,38,202,7940004,,,,,,,2021-10-04,1,,,,,ナカトコウギョウ,0
330,1700150104941,新規,0,2021-10-04,2021-10-04,貸切列車乗車会,,その他,愛知県,名古屋市天白区,元八事４丁目１０８アーバン塩釜３Ｃ,,23,116,4680066,,,,,,,2021-10-04,1,,,,,カシキリレッシャジョウシャカイ,0
331,1700150104990,新規,0,2021-10-04,2021-10-04,ＭＯＤＥＲＮ　ＡＵＴＯ　ＷＯＲＬＤ　ＥＮＴＥＲＰＲＩＳＥＳ,,外国会社等,千葉県,山武市,小松１５６０番地６オフィスＢ号,,12,237,2891302,スリランカ民主社会主義共和国、アクラナ、ドダンゴラロード、１１２－９Ｃ,,,,,,2021-10-04,1,,,,,モダンオートワールドエンタープライセス,0
343,2010005034040,新規,0,2021-10-04,2021-10-04,一般社団法人ＡＣＡエナジー,,その他の設立登記法人,東京都,千代田区,永田町１丁目１１番３０号サウスヒル永田町５階,,13,101,1000014,,,,,,,2021-10-04,1,,,,,エーシーエーエナジー,0
345,2010103001784,新規,0,2021-10-04,2021-10-04,合同会社アウルス企画,,合同会社,東京都,八王子市,上柚木２丁目５番地２プルミエ・ラムール３０１号,,13,201,1920373,,,,,,,2021-10-04,1,,,,,アウルスキカク,0
346,2010403026226,新規,0,2021-10-04,2021-10-04,ＫＴ９９合同会社,,合同会社,東京都,港区,三田１丁目１番１２－２１０１号,,13,103,1080073,,,,,,,2021-10-04,1,,,,,ケイティーキュウキュウ,0
347,2010403026242,新規,0,2021-10-04,2021-10-04,合同会社ＫＴＹ,,合同会社,東京都,港区,三田５丁目１２番３－２０２号,,13,103,1080073,,,,,,,2021-10-04,1,,,,,ケーティーワイ,0
357,2010701041612,新規,0,2021-10-04,2021-10-04,株式会社８６,,株式会社,東京都,品川区,東五反田１丁目６番３号いちご東五反田ビル３１９,,13,109,1410022,,,,,,,2021-10-04,1,,,,,ハチロク,0
359,2010801032362,新規,0,2021-10-04,2021-10-04,株式会社文化財工務設計,,株式会社,東京都,大田区,平和島６丁目１番１号,,13,111,1430006,,,,,,,2021-10-04,1,,,,,ブンカザイコウムセッケイ,0
368,2011001142968,新規,0,2021-10-04,2021-10-04,株式会社ミトス,,株式会社,東京都,渋谷区,広尾１丁目１３番５号東急セットアップレジデェンス恵比寿１３０４,,13,113,1500012,,,,,,,2021-10-04,1,,,,,ミトス,0
369,2011001142976,新規,0,2021-10-04,2021-10-04,株式会社ＴＯＨＯ　Ｍｅｒｍａｉｄ,,株式会社,東京都,渋谷区,渋谷２丁目１９番１５号宮益坂ビルディング６０９,,13,113,1500002,,,,,,,2021-10-04,1,,,,,トウホウマーメイド,0
370,2011001142984,新規,0,2021-10-04,2021-10-04,株式会社ＡＲＭ,,株式会社,東京都,渋谷区,渋谷２丁目１９番１５号宮益坂ビルディング６０９,,13,113,1500002,,,,,,,2021-10-04,1,,,,,アーム,0
371,2011001143009,新規,0,2021-10-04,2021-10-04,株式会社小郡物流開発,,株式会社,東京都,渋谷区,代官山町２０番９号,,13,113,1500034,,,,,,,2021-10-04,1,,,,,オゴオリブツリュウカイハツ,0
372,2011001143017,新規,0,2021-10-04,2021-10-04,株式会社Ｌｅｍｏｎ,,株式会社,東京都,渋谷区,鶯谷町１２－５大芦ビル１階,,13,113,1500032,,,,,,,2021-10-04,1,,,,,レモン,0
373,2011001143132,新規,0,2021-10-04,2021-10-04,ＲＹＴＥ株式会社,,株式会社,東京都,渋谷区,神宮前６丁目２３番４号桑野ビル２階,,13,113,1500001,,,,,,,2021-10-04,1,,,,,ライト,0
374,2011001143173,新規,0,2021-10-04,2021-10-04,株式会社ｆａｖｃｏｍ,,株式会社,東京都,渋谷区,渋谷３丁目１３番５号,,13,113,1500002,,,,,,,2021-10-04,1,,,,,ファブコム,0
377,2011003013432,新規,0,2021-10-04,2021-10-04,合同会社アンシャンテ,,合同会社,東京都,目黒区,自由が丘２丁目１６－１２,,13,110,1520035,,,,,,,2021-10-04,1,,,,,アンシャンテ,0
387,2011401023719,新規,0,2021-10-04,2021-10-04,株式会社イムパス,,株式会社,東京都,板橋区,上板橋１丁目１３番１号,,13,119,1740076,,,,,,,2021-10-04,1,,,,,イムパス,0
390,2011601025432,新規,0,2021-10-04,2021-10-04,株式会社旭雄,,株式会社,東京都,練馬区,石神井町２丁目８番１号,,13,120,1770041,,,,,,,2021-10-04,1,,,,,キョクユウ,0
391,2011605002403,新規,0,2021-10-04,2021-10-04,一般社団法人ハワリンバヤル,,その他の設立登記法人,東京都,練馬区,高野台３丁目３７番２０号,,13,120,1770033,,,,,,,2021-10-04,1,,,,,ハワリンバヤル,0
392,2011703002957,新規,0,2021-10-04,2021-10-04,合同会社スラスラワークス,,合同会社,東京都,江戸川区,上一色２丁目６番４号,,13,123,1330041,,,,,,,2021-10-04,1,,,,,スラスラワークス,0
399,2012701016692,新規,0,2021-10-04,2021-10-04,株式会社オン・ザ・ジョブ・トレーニングス,,株式会社,東京都,清瀬市,竹丘１丁目１７番２６号９１１号室,,13,221,2040023,,,,,,,2021-10-04,1,,,,,オンザジョブトレーニングス,0
405,2013301048069,新規,0,2021-10-04,2021-10-04,イノマックス株式会社,,株式会社,東京都,豊島区,池袋３丁目２６番１５号ＹＳビル３０１号,,13,116,1710014,,,,,,,2021-10-04,1,,,,,イノマックス,0
409,2020001143224,新規,0,2021-10-04,2021-10-04,株式会社けんふくコーポレーション,,株式会社,神奈川県,川崎市多摩区,南生田２丁目１５番３５号,,14,135,2140036,,,,,,,2021-10-04,1,,,,,ケンフクコーポレーション,0
410,2020001143240,新規,0,2021-10-04,2021-10-04,株式会社ＢＭＣ,,株式会社,神奈川県,川崎市中原区,木月２丁目２番３６号,,14,133,2110025,,,,,,,2021-10-04,1,,,,,ビーエムシー,0
411,2020001143249,新規,0,2021-10-04,2021-10-04,株式会社益子工務店,,株式会社,神奈川県,横浜市港北区,新吉田東７丁目２番２５号シャルムＳＫＩＩＡ－１,00124420,14,109,2230058,,,,,,,2021-10-04,1,,,,,マスココウムテン,0
414,2020003020578,新規,0,2021-10-04,2021-10-04,合同会社ＬＩＮＫ　Ｐａｒｔｎｅｒ,,合同会社,神奈川県,川崎市宮前区,有馬６丁目１９－１－４０４,,14,136,2160003,,,,,,,2021-10-04,1,,,,,リンクパートナー,0
415,2020003020586,新規,0,2021-10-04,2021-10-04,マスモト合同会社,,合同会社,神奈川県,横浜市港北区,新横浜１丁目１６番地２,,14,109,2220033,,,,,,,2021-10-04,1,,,,,マスモト,0
419,2021001074062,新規,0,2021-10-04,2021-10-04,株式会社ＮＥＷ　ＧＡＴＥ,,株式会社,神奈川県,横須賀市,武２丁目５番８号,,14,201,2380313,,,,,,,2021-10-04,1,,,,,ニューゲート,0
420,2021001074079,新規,0,2021-10-04,2021-10-04,株式会社Ａｌｌ　ｏｎｅ,,株式会社,神奈川県,伊勢原市,上粕屋５０７番地の１,,14,214,2591141,,,,,,,2021-10-04,1,,,,,オールワン,0
421,2021003010932,新規,0,2021-10-04,2021-10-04,合同会社エンター,,合同会社,神奈川県,逗子市,久木７丁目７－６ＰｉｎｅＨｉｌｌｓＣ１０２,,14,208,2490001,,,,,,,2021-10-04,1,,,,,エンター,0
422,2021003010940,新規,0,2021-10-04,2021-10-04,合同会社ＦＵＬＬ　ＭＯＯＮ,,合同会社,神奈川県,三浦市,三崎町小網代４２番地２０３,,14,210,2380225,,,,,,,2021-10-04,1,,,,,フルムーン,0
423,2021003010949,新規,0,2021-10-04,2021-10-04,合同会社Ｎｅｉｇｈｂｏｒｓ,,合同会社,神奈川県,茅ヶ崎市,浜須賀１番５２－１２号,,14,207,2530035,,,,,,,2021-10-04,1,,,,,ネイバーズ,0
428,2030001144618,新規,0,2021-10-04,2021-10-04,株式会社ＴＲ内装,,株式会社,埼玉県,志木市,幸町４丁目２３番２７号,,11,228,3530005,,,,,,,2021-10-04,1,,,,,ティーアールナイソウ,0
443,2050001049906,新規,0,2021-10-04,2021-10-04,株式会社東日本農林,,株式会社,茨城県,土浦市,桜町１丁目１５番１１号,,08,203,3000037,,,,,,,2021-10-04,1,,,,,ヒガシニホンノウリン,0
447,2060001034139,新規,0,2021-10-04,2021-10-04,株式会社Ｍ９,,株式会社,栃木県,宇都宮市,台新田町１５７番地１,,09,201,3210103,,,,,,,2021-10-04,1,,,,,エムナイン,0
449,2070001038485,新規,0,2021-10-04,2021-10-04,株式会社山王商会,,株式会社,群馬県,高崎市,新保町１４１０番地,,10,202,3700018,,,,,,,2021-10-04,1,,,,,サンノウショウカイ,0
454,2080003002645,新規,0,2021-10-04,2021-10-04,Ｓｔａｒ　Ｐｕｌｓｅ合同会社,,合同会社,静岡県,島田市,元島田２６３番地５５,,22,209,4270057,,,,,,,2021-10-04,1,,,,,スターパルス,0
456,2080401025371,新規,0,2021-10-04,2021-10-04,株式会社イー・シャイニー,,株式会社,静岡県,浜松市中区,佐鳴台６丁目６番２７号佐鳴台テニスビレッジＢ－８,,22,131,4328021,,,,,,,2021-10-04,1,,,,,イーシャイニー,0
457,2080401025396,新規,0,2021-10-04,2021-10-04,株式会社マルイチ木材,,株式会社,静岡県,浜松市南区,新橋町１５７２番地,,22,134,4328058,,,,,,,2021-10-04,1,,,,,マルイチモクザイ,0
463,2110003004588,新規,0,2021-10-04,2021-10-04,万豪合同会社,,合同会社,新潟県,燕市,吉田日之出町２２番１０号,,15,213,9590231,,,,,,,2021-10-04,1,,,,,マンゴウ,0
475,2120001240671,新規,0,2021-10-04,2021-10-04,謙瑞国際投資株式会社,,株式会社,大阪府,大阪市北区,天満２丁目９－１７－４０５,,27,127,5300043,,,,,,,2021-10-04,1,,,,,ケンズイコクサイトウシ,0
476,2120001240804,新規,0,2021-10-04,2021-10-04,ネクスト住建株式会社,,株式会社,大阪府,大阪市北区,西天満５丁目１１番７号サンク西天満５Ｆ,,27,127,5300047,,,,,,,2021-10-04,1,,,,,ネクストジュウケン,0
477,2120001240820,新規,0,2021-10-04,2021-10-04,株式会社ＹＡＮＡＢＡＮ,,株式会社,大阪府,枚方市,長尾谷町３丁目１１番３０号,,27,210,5730164,,,,,,,2021-10-04,1,,,,,ヤナバン,0
481,2120005022521,新規,0,2021-10-04,2021-10-04,ビジョナリーホールディングス労働組合,,その他の設立登記法人,大阪府,門真市,江端町１０番２３号サングリ－ン江端２０３,,27,223,5710012,,,,,,,2021-10-04,1,,,,,ビジョナリーホールディングス,0
484,2120101064442,新規,0,2021-10-04,2021-10-04,Ｄａｔａ　Ｅｒａｓｅ　Ｊａｐａｎ株式会社,,株式会社,大阪府,貝塚市,南町２９番１２号,,27,208,5970005,,,,,,,2021-10-04,1,,,,,データイレースジャパン,0
488,2122001035226,新規,0,2021-10-04,2021-10-04,株式会社トラストホーム,,株式会社,大阪府,東大阪市,三ノ瀬３丁目６番２号,,27,227,5770849,,,,,,,2021-10-04,1,,,,,トラストホーム,0
492,2130001070184,新規,0,2021-10-04,2021-10-04,京叶観光都市開発機構株式会社,,株式会社,京都府,京都市伏見区,納所薬師堂１－２４６,,26,109,6128276,,,,,,,2021-10-04,1,,,,,キョウカカンコウトシカイハツキコウ,0
493,2130001070192,新規,0,2021-10-04,2021-10-04,株式会社キブス,,株式会社,京都府,京都市左京区,岡崎法勝寺町１２３番地,,26,103,6068333,,,,,,,2021-10-04,1,,,,,キブス,0
494,2130001070218,新規,0,2021-10-04,2021-10-04,ＤＮ　ｐｒｅｃｉｏｕｓ株式会社,,株式会社,京都府,京都市北区,小松原南町２５番地７,,26,101,6038342,,,,,,,2021-10-04,1,,,,,ディーエヌプレシャス,0
495,2130001070242,新規,0,2021-10-04,2021-10-04,株式会社くろだの郷,,株式会社,京都府,京都市右京区,京北上黒田町水野９番地,,26,108,6010402,,,,,,,2021-10-04,1,,,,,クロダノサト,0
499,2140001123214,新規,0,2021-10-04,2021-10-04,株式会社Ａｉｏｌｉｔｅ,,株式会社,兵庫県,神戸市垂水区,西舞子５丁目２番１１号,,28,108,6550048,,,,,,,2021-10-04,1,,,,,アイオライト,0
500,2140001123222,新規,0,2021-10-04,2021-10-04,株式会社エコロジー神戸,,株式会社,兵庫県,神戸市中央区,三宮町１丁目９番１号センタープラザ東館７階,,28,110,6500021,,,,,,,2021-10-04,1,,,,,エコロジーコウベ,0
502,2140003016795,新規,0,2021-10-04,2021-10-04,合同会社ＢＲＩＧＨＴ,,合同会社,兵庫県,三田市,けやき台４丁目７番地２,,28,219,6691321,,,,,,,2021-10-04,1,,,,,ブライト,0
503,2140003016812,新規,0,2021-10-04,2021-10-04,ＣＩＳネットワークサービス合同会社,,合同会社,兵庫県,神戸市兵庫区,都由乃町２丁目２番１１号,,28,105,6520023,,,,,,,2021-10-04,1,,,,,シーアイエスネットワークサービス,0
504,2140005025836,新規,0,2021-10-04,2021-10-04,一般社団法人加西市観光協会,,その他の設立登記法人,兵庫県,加西市,北条町横尾１０００番地,,28,220,6752311,,,,,,,2021-10-04,1,,,,,カサイシカンコウキョウカイ,0
505,2160001023692,新規,0,2021-10-04,2021-10-04,株式会社ｅｙｅｌｙ,,株式会社,滋賀県,東近江市,林町５２,,25,213,5211224,,,,,,,2021-10-04,1,,,,,アイリー,0
507,2170001016794,新規,0,2021-10-04,2021-10-04,株式会社Ｉｎ　Ｍｙ　Ｌｉｆｅ,,株式会社,和歌山県,伊都郡かつらぎ町,大字佐野１０１８番地の１,,30,341,6497174,,,,,,,2021-10-04,1,,,,,インマイライフ,0
508,2170001016803,新規,0,2021-10-04,2021-10-04,株式会社紀の川アグリサポート,,株式会社,和歌山県,紀の川市,桃山町調月１３３０番地,,30,208,6496112,,,,,,,2021-10-04,1,,,,,キノカワアグリサポート,0
516,2180001148018,新規,0,2021-10-04,2021-10-04,株式会社Ｒｅ．Ｂｅｌｌ,,株式会社,愛知県,名古屋市天白区,平針５丁目９０８番地（エスポワール１０２号）,,23,116,4680011,,,,,,,2021-10-04,1,,,,,リベル,0
521,2180003023012,新規,0,2021-10-04,2021-10-04,合同会社真誠,,合同会社,愛知県,名古屋市瑞穂区,桃園町２番４－６０８堀田団地,,23,108,4670855,,,,,,,2021-10-04,1,,,,,シンセイ,0
522,2180003023020,新規,0,2021-10-04,2021-10-04,Ｓｔｅｇｇｉｏ合同会社,,合同会社,愛知県,名古屋市熱田区,西野町３丁目５番地メゾン・ド・ショパン１０２号,,23,109,4560063,,,,,,,2021-10-04,1,,,,,ステッジオ,0
524,2180301035436,新規,0,2021-10-04,2021-10-04,株式会社Ｖｏｇｕｅ　Ｉｎｖｅｓｔｍｅｎｔ,,株式会社,愛知県,岡崎市,鴨田町字広元１９５番地,,23,202,4442121,,,,,,,2021-10-04,1,,,,,ヴォーグインベストメント,0
525,2180305009246,新規,0,2021-10-04,2021-10-04,医療法人おがわ歯科口腔外科・矯正歯科,,その他の設立登記法人,愛知県,豊川市,野口町西浦３番地１,,23,207,4420851,,,,,,,2021-10-04,1,,,,,オガワシカコウクウゲカキョウセイシカ,0
526,2190001028730,新規,0,2021-10-04,2021-10-04,株式会社ＡＲＯＵＮＤ,,株式会社,三重県,松阪市,嬉野上野町１１８３番地１,,24,204,5152356,,,,,,,2021-10-04,1,,,,,アラウンド,0
527,2190001028739,新規,0,2021-10-04,2021-10-04,株式会社エコロプラス,,株式会社,三重県,松阪市,上川町３６５８番地１,,24,204,5150041,,,,,,,2021-10-04,1,,,,,エコロプラス,0
533,2200001039255,新規,0,2021-10-04,2021-10-04,株式会社イチカワソリューションサービス,,株式会社,岐阜県,恵那市,笠置町河合６６０番地５,,21,210,5097207,,,,,,,2021-10-04,1,,,,,イチカワソリューションサービス,0
536,2210001018613,新規,0,2021-10-04,2021-10-04,昌福貿易株式会社,,株式会社,福井県,鯖江市,石田下町３５－１１－１,,18,207,9160081,,,,,,,2021-10-04,1,,,,,ショウフクボウエキ,0
537,2210005009988,新規,0,2021-10-04,2021-10-04,一般社団法人サトツナギ,,その他の設立登記法人,福井県,福井市,中手町第１６号４０番地,,18,201,9102464,,,,,,,2021-10-04,1,,,,,サトツナギ,0
547,2240001058672,新規,0,2021-10-04,2021-10-04,株式会社ｆ‐志摩,,株式会社,広島県,広島市南区,大須賀町１３番９号,,34,103,7320821,,,,,,,2021-10-04,1,,,,,エフシマ,0
548,2240001058680,新規,0,2021-10-04,2021-10-04,株式会社ベネフィット,,株式会社,広島県,広島市安佐南区,西原１丁目６番１号,,34,105,7310113,,,,,,,2021-10-04,1,,,,,ベネフィット,0
549,2240001058697,新規,0,2021-10-04,2021-10-04,株式会社ネオケン,,株式会社,広島県,広島市佐伯区,五月が丘２丁目１０番３１号,,34,108,7315101,,,,,,,2021-10-04,1,,,,,ネオケン,0
550,2240001058714,新規,0,2021-10-04,2021-10-04,株式会社ＨＡＲＩ５１,,株式会社,広島県,広島市中区,上八丁堀４番２８号松田ハイツ７０２,,34,101,7300012,,,,,,,2021-10-04,1,,,,,ハリゴジュウイチ,0
551,2240001058722,新規,0,2021-10-04,2021-10-04,宮の工房株式会社,,株式会社,広島県,福山市,引野町南３丁目８番１９号,,34,207,7210945,,,,,,,2021-10-04,1,,,,,ミヤノコウボウ,0
554,2250005008689,新規,0,2021-10-04,2021-10-04,学校法人岸和田学園,,その他の設立登記法人,山口県,山口市,小郡高砂町３番４,,35,203,7540014,,,,,,,2021-10-04,1,,,,,キシワダ,0
557,2260001036024,新規,0,2021-10-04,2021-10-04,株式会社創輝,,株式会社,岡山県,津山市,加茂町桑原６２番地５,,33,203,7093923,,,,,,,2021-10-04,1,,,,,ソウキ,0
568,2290001094812,新規,0,2021-10-04,2021-10-04,株式会社アリヒロジャパン,,株式会社,福岡県,福岡市博多区,美野島２丁目２０番１８号１０１号室,,40,132,8120017,,,,,,,2021-10-04,1,,,,,アリヒロジャパン,0
569,2290001094820,新規,0,2021-10-04,2021-10-04,株式会社Ｎ．Ｄ．Ｏホールディングス,,株式会社,福岡県,大野城市,乙金台２丁目７番６－１号,,40,219,8160903,,,,,,,2021-10-04,1,,,,,エヌディーオーホールディングス,0
574,2290003011666,新規,0,2021-10-04,2021-10-04,福岡メディサポ合同会社,,合同会社,福岡県,福岡市中央区,今泉２丁目２番１号,,40,133,8100021,,,,,,,2021-10-04,1,,,,,フクオカメディサポ,0
581,2310001017506,新規,0,2021-10-04,2021-10-04,株式会社Ｄ－ＣＲＥＷ,,株式会社,長崎県,長崎市,平野町１０番２６号朝日産業交通ビル２０３,,42,201,8528117,,,,,,,2021-10-04,1,,,,,ディークルー,0
583,2320001018627,新規,0,2021-10-04,2021-10-04,株式会社喜成工業,,株式会社,大分県,大分市,大字南１４番地の３,,44,201,8700117,,,,,,,2021-10-04,1,,,,,ヨシナリコウギョウ,0
586,2340003003583,新規,0,2021-10-04,2021-10-04,合同会社ミシゲ,,合同会社,鹿児島県,鹿児島市,吉野町４３７９番地５,,46,201,8920871,,,,,,,2021-10-04,1,,,,,ミシゲ,0
587,2350001017329,新規,0,2021-10-04,2021-10-04,株式会社鈴木工業,,株式会社,宮崎県,宮崎市,大字小松３２４７番地１,,45,201,8802112,,,,,,,2021-10-04,1,,,,,スズキコウギョウ,0
590,2370001047646,新規,0,2021-10-04,2021-10-04,株式会社アサダクレーンサービス,,株式会社,宮城県,宮城郡七ヶ浜町,汐見台６丁目２番地の３,,04,404,9850821,,,,,,,2021-10-04,1,,,,,アサダクレーンサービス,0
591,2370003005412,新規,0,2021-10-04,2021-10-04,合同会社アツ,,合同会社,宮城県,仙台市泉区,虹の丘３丁目５番地の２１,,04,105,9818007,,,,,,,2021-10-04,1,,,,,アツ,0
596,2390001016608,新規,0,2021-10-04,2021-10-04,株式会社ＣＲＥＡ美装,,株式会社,山形県,山形市,南栄町３丁目１番９号,,06,201,9902445,,,,,,,2021-10-04,1,,,,,クレアビソウ,0
599,2400003002843,新規,0,2021-10-04,2021-10-04,合同会社メイシンワークサービス,,合同会社,岩手県,滝沢市,大釜鬼が滝４５番地１３,,03,216,0200776,,,,,,,2021-10-04,1,,,,,メイシンワークサービス,0
608,2430001085037,新規,0,2021-10-04,2021-10-04,ＰＬＯＷＩＮＧ株式会社,,株式会社,北海道,室蘭市,中島町４丁目１７番３３号,,01,205,0500074,,,,,,,2021-10-04,1,,,,,プロウイング,0
610,2430005014297,新規,0,2021-10-04,2021-10-04,社会保険労務士法人ホワイトコンサル労務事務所,,その他の設立登記法人,北海道,札幌市東区,北丘珠四条１丁目８番１２－２０２号,,01,103,0070884,,,,,,,2021-10-04,1,,,,,ホワイトコンサルロウムジムショ,0
614,2490001010006,新規,0,2021-10-04,2021-10-04,株式会社ＳＨＳ,,株式会社,高知県,須崎市,多ノ郷甲５７４１番地,,39,206,7850030,,,,,,,2021-10-04,1,,,,,エスエイチエス,0
617,2500001023708,新規,0,2021-10-04,2021-10-04,株式会社ＧＨＩＴＡ,,株式会社,愛媛県,松山市,東垣生町４８５番地２,,38,201,7918043,,,,,,,2021-10-04,1,,,,,ギタ,0
618,2500001023724,新規,0,2021-10-04,2021-10-04,株式会社セイコースタッフサービス,,株式会社,愛媛県,松山市,北藤原町１番地１８シェレナ北藤原２０１,,38,201,7900033,,,,,,,2021-10-04,1,,,,,セイコースタッフサービス,0
620,2500003002701,新規,0,2021-10-04,2021-10-04,ＩｋｅｃｈａｎＳｙｓｔｅｍ合同会社,,合同会社,愛媛県,松山市,生石町１２２番地３,,38,201,7900051,,,,,,,2021-10-04,1,,,,,イケチャンシステム,0
622,2700150104775,新規,0,2021-10-04,2021-09-16,劇団ちりりん座,,その他,神奈川県,川崎市麻生区,王禅寺西２丁目３３－５,,14,137,2150017,,,,,,,2021-09-16,1,,,,,ゲキダンチリリンザ,0
623,2700150104940,新規,0,2021-10-04,2021-10-04,規則切符研究所,,その他,愛知県,名古屋市天白区,元八事４丁目１０８番地アーバン塩釜３Ｃ,,23,116,4680066,,,,,,,2021-10-04,1,,,,,キソクキップケンキュウジョ,0
624,2700150105014,新規,0,2021-10-04,2021-10-04,ＥＬＩＴＥ　ＭＯＴＯＲ　ＥＮＴＥＲＰＲＩＳＥＳ,,外国会社等,千葉県,山武市,松ヶ谷ロ３２１９松ヶ谷オフィス５,,12,237,2891303,スリランカ民主社会主義共和国、マヒヤンガナ、アラワサ、Ｎｏ．４４０,,,,,,2021-10-04,1,,,,,エリートモーターエンタープライセス,0
625,2700150105039,新規,0,2021-10-04,2021-10-04,ＩＤＥＡＬ　ＭＯＴＯＲ　ＶＥＨＩＣＬＥＳ　ＡＮＤ　ＳＰＡＲＥ　ＰＡＲＴＳ,,外国会社等,千葉県,山武市,松ヶ谷ロ３２１９松ヶ谷オフィス２,,12,237,2891303,スリランカ民主社会主義共和国、アクラナ、マルワナヒナロード、Ｎｏ．１０５／Ｂ,,,,,,2021-10-04,1,,,,,アイデイアルモータービークルアンドスペアパーツ,0
649,3010701041578,新規,0,2021-10-04,2021-10-04,ソニック・インターネット・サービス株式会社,,株式会社,東京都,品川区,東五反田１丁目１３番１２号いちご五反田ビル１０階,,13,109,1410022,,,,,,,2021-10-04,1,,,,,ソニックインターネットサービス,0
658,3011001142967,新規,0,2021-10-04,2021-10-04,ポロッククリエイト株式会社,,株式会社,東京都,渋谷区,代々木２丁目２３－１－４０４号,,13,113,1510053,,,,,,,2021-10-04,1,,,,,ポロッククリエイト,0
659,3011001143008,新規,0,2021-10-04,2021-10-04,株式会社ＬＤ５,,株式会社,東京都,渋谷区,代官山町２０番９号,,13,113,1500034,,,,,,,2021-10-04,1,,,,,エルディーファイブ,0
660,3011001143156,新規,0,2021-10-04,2021-10-04,株式会社ｓｉｄｅｌｉｎｅ,,株式会社,東京都,渋谷区,神宮前３丁目４１番５号,,13,113,1500001,,,,,,,2021-10-04,1,,,,,サイドライン,0
663,3011003013448,新規,0,2021-10-04,2021-10-04,山田みゆき結婚相談所合同会社,,合同会社,東京都,渋谷区,代々木５丁目２番１号,,13,113,1510053,,,,,,,2021-10-04,1,,,,,ヤマダミユキケッコンソウダンジョ,0
668,3011301027216,新規,0,2021-10-04,2021-10-04,株式会社アシスト,,株式会社,東京都,杉並区,高井戸西３丁目１番３４－４０４号,,13,115,1680071,,,,,,,2021-10-04,1,,,,,アシスト,0
669,3011401023692,新規,0,2021-10-04,2021-10-04,株式会社ＭｙＵｎｉｑｕｅ,,株式会社,東京都,板橋区,板橋１丁目３３番７号ラティエラ板橋３０４,,13,119,1730004,,,,,,,2021-10-04,1,,,,,マイユニーク,0
676,3011701024746,新規,0,2021-10-04,2021-10-04,株式会社ｈｉｌｌｆｉｅｌｄ,,株式会社,東京都,江戸川区,東葛西５丁目１２番６号カワマンビル４０４,,13,123,1340084,,,,,,,2021-10-04,1,,,,,ヒルフィールド,0
682,3011803004794,新規,0,2021-10-04,2021-10-04,ＵＭＥＣＯＮＳＵＬＴＩＮＧ合同会社,,合同会社,東京都,葛飾区,東新小岩７丁目２８番２号東新小岩パールハイツ３０１,,13,122,1240023,,,,,,,2021-10-04,1,,,,,ユメコンサルティング,0
683,3011803004803,新規,0,2021-10-04,2021-10-04,合同会社コトブキ,,合同会社,東京都,足立区,梅田３丁目５番１４号,,13,121,1230851,,,,,,,2021-10-04,1,,,,,コトブキ,0
684,3011803004811,新規,0,2021-10-04,2021-10-04,合同会社グッズショップ,,合同会社,東京都,足立区,皿沼１丁目１０番８号,,13,121,1230862,,,,,,,2021-10-04,1,,,,,グッズショップ,0
691,3013301048076,新規,0,2021-10-04,2021-10-04,株式会社大栄クリエイト,,株式会社,東京都,豊島区,目白５丁目１８番１９号,,13,116,1710031,,,,,,,2021-10-04,1,,,,,ダイエイクリエイト,0
702,3020001143248,新規,0,2021-10-04,2021-10-04,Ｔ＆Ｌ　Ｉｎｔｅｒｎａｔｉｏｎａｌ株式会社,,株式会社,神奈川県,横浜市中区,扇町２丁目３番地１－５０７号室,,14,104,2310027,,,,,,,2021-10-04,1,,,,,ティーアンドエルインターナショナル,0
703,3020001143264,新規,0,2021-10-04,2021-10-04,株式会社ＰＦＧ,,株式会社,神奈川県,横浜市中区,住吉町５丁目６４番地１ＶＥＬＵＴＩＮＡ馬車道６０８号室,,14,104,2310013,,,,,,,2021-10-04,1,,,,,ピーエフジー,0
709,3020003020577,新規,0,2021-10-04,2021-10-04,合同会社ジェダイ,,合同会社,神奈川県,横浜市南区,唐沢６５番地,,14,105,2320034,,,,,,,2021-10-04,1,,,,,ジェダイ,0
713,3021001074078,新規,0,2021-10-04,2021-10-04,株式会社ＡＲＳＰＨＥＲＥ,,株式会社,神奈川県,逗子市,桜山１丁目５番３号,,14,208,2490005,,,,,,,2021-10-04,1,,,,,アルスフィア,0
714,3021001074086,新規,0,2021-10-04,2021-10-04,株式会社善光工務店,,株式会社,神奈川県,厚木市,旭町１丁目７番３号,,14,212,2430014,,,,,,,2021-10-04,1,,,,,ゼンコウコウムテン,0
723,3030001144534,新規,0,2021-10-04,2021-10-04,ＥＲＩＤＵＮ株式会社,,株式会社,埼玉県,川越市,熊野町２０－１２旭日ビル１０１号室,,11,201,3501146,,,,,,,2021-10-04,1,,,,,エリドゥン,0
731,3040003018636,新規,0,2021-10-04,2021-10-04,合同会社田中製作所,,合同会社,千葉県,船橋市,坪井東５丁目９番２５号,,12,204,2740060,,,,,,,2021-10-04,1,,,,,タナカセイサクショ,0
737,3060001034138,新規,0,2021-10-04,2021-10-04,株式会社総伝,,株式会社,栃木県,宇都宮市,西刑部町２６８１番地４５新四号遊楽館２０２号,,09,201,3210917,,,,,,,2021-10-04,1,,,,,ソウデン,0
743,3060005009904,新規,0,2021-10-04,2021-10-04,特定非営利活動法人繭のおくりもの企画,,その他の設立登記法人,栃木県,日光市,東和町２番地９,,09,206,3211412,,,,,,,2021-10-04,1,,,,,マユノオクリモノキカク,0
745,3070001038476,新規,0,2021-10-04,2021-10-04,株式会社ＰＬＡＣＥ,,株式会社,群馬県,高崎市,浜尻町１１５４番地１ファミールＶ２０３号,00124430,10,202,3700005,,,,,,,2021-10-04,1,,,,,プレイス,0
750,3080001024467,新規,0,2021-10-04,2021-10-04,株式会社村上土木,,株式会社,静岡県,静岡市清水区,吉原６２番地,,22,103,4240111,,,,,,,2021-10-04,1,,,,,ムラカミドボク,0
751,3080001024475,新規,0,2021-10-04,2021-10-04,株式会社ホリモトライフサービス,,株式会社,静岡県,島田市,中河１３７,,22,209,4270103,,,,,,,2021-10-04,1,,,,,ホリモトライフサービス,0
752,3080001024483,新規,0,2021-10-04,2021-10-04,オールサイン株式会社,,株式会社,静岡県,静岡市駿河区,登呂２丁目２番９号,,22,102,4228033,,,,,,,2021-10-04,1,,,,,オールサイン,0
755,3080401025404,新規,0,2021-10-04,2021-10-04,エステートラン株式会社,,株式会社,静岡県,浜松市中区,早出町１２１５番地の９,,22,131,4350054,,,,,,,2021-10-04,1,,,,,エステートラン,0
757,3080403004380,新規,0,2021-10-04,2021-10-04,合同会社ＶＡＳＴ,,合同会社,静岡県,浜松市中区,泉２丁目１５番８－１１号ブライトガーデン茜ＩＩ２０２号室,00124422,22,131,4338124,,,,,,,2021-10-04,1,,,,,ヴァスト,0
765,3110001036070,新規,0,2021-10-04,2021-10-04,株式会社Ｗ＆Ｙ,,株式会社,新潟県,上越市,北城町３丁目９番２０号,,15,222,9430824,,,,,,,2021-10-04,1,,,,,ダブリュアンドワイ,0
780,3120101064391,新規,0,2021-10-04,2021-10-04,株式会社ｍｉＣｏｎｎｅｃｔ,,株式会社,大阪府,泉南市,信達市場２１４４番地１,,27,228,5900504,,,,,,,2021-10-04,1,,,,,ミコネクト,0
781,3120101064400,新規,0,2021-10-04,2021-10-04,株式会社Ｌｏｃａｌ　Ａｒｅａ　Ｌａｂ,,株式会社,大阪府,泉佐野市,上町３丁目１０－１５泉佐野ビル４階,,27,213,5980007,,,,,,,2021-10-04,1,,,,,ローカルエリアラボ,0
782,3120101064409,新規,0,2021-10-04,2021-10-04,株式会社絆ＣＯＮＮＥＣＴ,,株式会社,大阪府,和泉市,黒鳥町３丁目３番３７号,,27,219,5940022,,,,,,,2021-10-04,1,,,,,キズナコネクト,0
788,3120901044964,新規,0,2021-10-04,2021-10-04,株式会社サニークラフトホームサービス,,株式会社,大阪府,高槻市,天王町３２番２０号,,27,207,5690088,,,,,,,2021-10-04,1,,,,,サニークラフトホームサービス,0
789,3120901044980,新規,0,2021-10-04,2021-10-04,株式会社中別府建装,,株式会社,大阪府,茨木市,太田３丁目１９番１３号,,27,211,5670018,,,,,,,2021-10-04,1,,,,,ナカベップケンソウ,0
790,3120901045021,新規,0,2021-10-04,2021-10-04,ＢＡＳＥ株式会社,,株式会社,大阪府,高槻市,緑が丘１丁目１５－２,,27,207,5691026,,,,,,,2021-10-04,1,,,,,ベース,0
794,3122001035225,新規,0,2021-10-04,2021-10-04,浪速ミクロン株式会社,,株式会社,大阪府,東大阪市,楠根２丁目８番４５号,,27,227,5770006,,,,,,,2021-10-04,1,,,,,ナニワミクロン,0
805,3130001070217,新規,0,2021-10-04,2021-10-04,株式会社クボイケ工務店,,株式会社,京都府,京都市中京区,蛸薬師通猪熊西入畳屋町４２８番地,,26,104,6048351,,,,,,,2021-10-04,1,,,,,クボイケコウムテン,0
810,3130003007522,新規,0,2021-10-04,2021-10-04,合同会社ウエストＦＴ４,,合同会社,京都府,京都市西京区,山田車塚町１５番地１５,00124433,26,111,6100000,,,,,,,2021-10-04,1,,,,,ウエストエフティーフォー,0
813,3130005016281,新規,0,2021-10-04,2021-10-04,一般社団法人京都マンション管理評価機構,,その他の設立登記法人,京都府,京都市下京区,室町通四条下る鶏鉾町５０１番地,,26,106,6008491,,,,,,,2021-10-04,1,,,,,キョウトマンションカンリヒョウカキコウ,0
821,3140001123213,新規,0,2021-10-04,2021-10-04,株式会社ＯｆｆｉｃｅＫ,,株式会社,兵庫県,姫路市,延末４５０番地１グラジオ姫路駅ウエストクリスタル６０１,,28,201,6700966,,,,,,,2021-10-04,1,,,,,オフィスケイ,0
825,3140003016803,新規,0,2021-10-04,2021-10-04,合同会社ベターファミリーズ,,合同会社,兵庫県,姫路市,双葉町９６,,28,201,6700832,,,,,,,2021-10-04,1,,,,,ベターファミリーズ,0
829,3150001024963,新規,0,2021-10-04,2021-10-04,株式会社マーブルエンターテイメント,,株式会社,奈良県,生駒市,元町１丁目３－２２アクタスビル１階,,29,209,6300257,,,,,,,2021-10-04,1,,,,,マーブルエンターテイメント,0
835,3160001023667,新規,0,2021-10-04,2021-10-04,株式会社川原崎板金,00124408,株式会社,滋賀県,東近江市,種町６６０番地４２,,25,213,5211212,,,,,,,2021-10-04,1,,,,,カワハラサキバンキン,0
836,3160001023683,新規,0,2021-10-04,2021-10-04,株式会社トクシン建設,,株式会社,滋賀県,近江八幡市,野村町３２０４番地２,,25,204,5230075,,,,,,,2021-10-04,1,,,,,トクシンケンセツ,0
837,3160001023691,新規,0,2021-10-04,2021-10-04,株式会社ＴＯＭＩＤＡ,,株式会社,滋賀県,甲賀市,水口町伴中山１３４１番地,,25,209,5280064,,,,,,,2021-10-04,1,,,,,トミダ,0
838,3160003002396,新規,0,2021-10-04,2021-10-04,成陽管工合同会社,,合同会社,滋賀県,長浜市,公園町２番６０号,,25,203,5260065,,,,,,,2021-10-04,1,,,,,セイヨウカンコウ,0
839,3160005010991,新規,0,2021-10-04,2021-10-04,一般社団法人滋賀県障害者スポーツ協会,,その他の設立登記法人,滋賀県,大津市,松本１丁目２番２０号,,25,201,5200807,,,,,,,2021-10-04,1,,,,,シガケンショウガイシャ,0
840,3170001016802,新規,0,2021-10-04,2021-10-04,ＮＢＭ株式会社,,株式会社,和歌山県,橋本市,隅田町垂井５８１番地,,30,203,6480018,,,,,,,2021-10-04,1,,,,,エヌビーエム,0
853,3180001148017,新規,0,2021-10-04,2021-10-04,株式会社クリエイト,,株式会社,愛知県,名古屋市名東区,上社４丁目１３１番地,,23,115,4650025,,,,,,,2021-10-04,1,,,,,クリエイト,0
854,3180001148074,新規,0,2021-10-04,2021-10-04,株式会社プラス・１,,株式会社,愛知県,名古屋市北区,上飯田西町３丁目２４番地,,23,103,4620809,,,,,,,2021-10-04,1,,,,,プラスワン,0
857,3180003023028,新規,0,2021-10-04,2021-10-04,ＥＬＥ　ＦＵＮＤ合同会社,,合同会社,愛知県,名古屋市守山区,大字下志段味字東新外５５３番地（エディシナスＢ号）,,23,113,4630003,,,,,,,2021-10-04,1,,,,,エルファンド,0
865,3180301035427,新規,0,2021-10-04,2021-10-04,株式会社大桃,,株式会社,愛知県,額田郡幸田町,大字大草字下六條６９番地３,,23,501,4440103,,,,,,,2021-10-04,1,,,,,ダイトウ,0
869,3190001028721,新規,0,2021-10-04,2021-10-04,株式会社みそのめがね,,株式会社,三重県,伊勢市,御薗町王中島９９番地７,,24,203,5160803,,,,,,,2021-10-04,1,,,,,ミソノメガネ,0
875,3200001039213,新規,0,2021-10-04,2021-10-04,株式会社新月軒本舗,,株式会社,岐阜県,岐阜市,徹明通７丁目１番地,,21,201,5008879,,,,,,,2021-10-04,1,,,,,シンゲツケンホンポ,0
876,3200001039221,新規,0,2021-10-04,2021-10-04,株式会社三輪商会,,株式会社,岐阜県,美濃加茂市,蜂屋町上蜂屋３５１４番地１,,21,211,5050004,,,,,,,2021-10-04,1,,,,,ミワショウカイ,0
877,3200001039254,新規,0,2021-10-04,2021-10-04,株式会社やなぎはら厨房,,株式会社,岐阜県,山県市,東深瀬７６１番地１,,21,215,5012104,,,,,,,2021-10-04,1,,,,,ヤナギハラチュウボウ,0
881,3200005013255,新規,0,2021-10-04,2021-10-04,一般社団法人安田会,,その他の設立登記法人,岐阜県,岐阜市,長住町２丁目３番地,,21,201,5008175,,,,,,,2021-10-04,1,,,,,ヤスダカイ,0
888,3240001058688,新規,0,2021-10-04,2021-10-04,株式会社全商,,株式会社,広島県,広島市安佐南区,緑井３丁目２０番１号,,34,105,7310103,,,,,,,2021-10-04,1,,,,,ゼンショウ,0
889,3240001058705,新規,0,2021-10-04,2021-10-04,株式会社ビーチブック,,株式会社,広島県,広島市西区,井口台１丁目１番６号,,34,104,7330844,,,,,,,2021-10-04,1,,,,,ビーチブック,0
890,3240001058713,新規,0,2021-10-04,2021-10-04,株式会社ＣＡＲＰ計画研究所,,株式会社,広島県,広島市南区,比治山本町７番１０号,,34,103,7320816,,,,,,,2021-10-04,1,,,,,カープケイカクケンキュウショ,0
896,3250001019169,新規,0,2021-10-04,2021-10-04,株式会社鷹壱,,株式会社,山口県,宇部市,川添３丁目１１番１３－１号,,35,202,7550074,,,,,,,2021-10-04,1,,,,,タカイチ,0
900,3260001036031,新規,0,2021-10-04,2021-10-04,株式会社ＳＫコーポレーション,,株式会社,岡山県,倉敷市,福田町古新田２６４番地４１,,33,202,7128046,,,,,,,2021-10-04,1,,,,,エスケーコーポレーション,0
910,3290001094828,新規,0,2021-10-04,2021-10-04,グローバルホームズ株式会社,,株式会社,福岡県,福岡市博多区,美野島２丁目１６番１３号Ａビル１Ｆ,,40,132,8120017,,,,,,,2021-10-04,1,,,,,グローバルホームズ,0
922,3310001017496,新規,0,2021-10-04,2021-10-04,株式会社ＡＩＳ,,株式会社,長崎県,佐世保市,鹿子前町１４７番地１９パールシータウンＢ棟１０３,,42,202,8580922,,,,,,,2021-10-04,1,,,,,エーアイエス,0
925,3320001018626,新規,0,2021-10-04,2021-10-04,株式会社リーエンデ,,株式会社,大分県,大分市,大字上宗方３９２番地の１コーポ大塚１０５,00124409,44,201,8701152,,,,,,,2021-10-04,1,,,,,リーエンデ,0
929,3330001029036,新規,0,2021-10-04,2021-10-04,株式会社ライトグーン,,株式会社,熊本県,菊池市,泗水町住吉３０７１番地１,,43,210,8611203,,,,,,,2021-10-04,1,,,,,ライトグーン,0
930,3340001024135,新規,0,2021-10-04,2021-10-04,なかむら養豚株式会社,,株式会社,鹿児島県,指宿市,山川成川５９９番地３,,46,210,8910516,,,,,,,2021-10-04,1,,,,,ナカムラヨウトン,0
931,3340001024143,新規,0,2021-10-04,2021-10-04,株式会社橋口漆工房,,株式会社,鹿児島県,南九州市,川辺町平山６０６２番地１,,46,223,8970215,,,,,,,2021-10-04,1,,,,,ハシグチウルシコウボウ,0
932,3350001017328,新規,0,2021-10-04,2021-10-04,株式会社天火,,株式会社,宮崎県,宮崎市,橘通西５丁目１番２３号,,45,201,8800001,,,,,,,2021-10-04,1,,,,,テンカ,0
938,3370001047645,新規,0,2021-10-04,2021-10-04,株式会社ＳＫＨ,,株式会社,宮城県,仙台市青葉区,国見２丁目１４番２９号,,04,101,9810943,,,,,,,2021-10-04,1,,,,,エスケイエイチ,0
939,3370003005411,新規,0,2021-10-04,2021-10-04,合同会社ユウ,,合同会社,宮城県,仙台市泉区,虹の丘３丁目５番地の２１,,04,105,9818007,,,,,,,2021-10-04,1,,,,,ユウ,0
944,3390003001879,新規,0,2021-10-04,2021-10-04,合同会社アスタリスク,,合同会社,山形県,山形市,高原町１１番地１,,06,201,9900002,,,,,,,2021-10-04,1,,,,,アスタリスク,0
945,3400001015623,新規,0,2021-10-04,2021-10-04,株式会社アニマルプロダクションＲｉｃｋｙ,,株式会社,岩手県,滝沢市,牧野林９８１番地１３,,03,216,0200632,,,,,,,2021-10-04,1,,,,,アニマルプロダクションリッキー,0
951,3420001017601,新規,0,2021-10-04,2021-10-04,株式会社ＩＳＨＩＤＡシビルエンジニア,,株式会社,青森県,八戸市,下長４丁目１８番７号,,02,203,0391164,,,,,,,2021-10-04,1,,,,,イシダシビルエンジニア,0
958,3430001085102,新規,0,2021-10-04,2021-10-04,株式会社ひ・ろ,,株式会社,北海道,札幌市豊平区,旭町２丁目１番５号,,01,105,0620911,,,,,,,2021-10-04,1,,,,,ヒロ,0
963,3450003002128,新規,0,2021-10-04,2021-10-04,若崎組合同会社,,合同会社,北海道,上川郡鷹栖町,１５線二十一号８７６９番地,,01,452,0711255,,,,,,,2021-10-04,1,,,,,ワカサキグミ,0
965,3470001018743,新規,0,2021-10-04,2021-10-04,うなずき株式会社,,株式会社,香川県,高松市,磨屋町７番地１,,37,201,7600026,,,,,,,2021-10-04,1,,,,,ウナズキ,0
966,3470001018751,新規,0,2021-10-04,2021-10-04,株式会社中條商事,,株式会社,香川県,高松市,屋島西町１９２１－１３,,37,201,7610113,,,,,,,2021-10-04,1,,,,,チュウジョウショウジ,0
972,3490001010013,新規,0,2021-10-04,2021-10-04,株式会社ＮＦ５四国,,株式会社,高知県,高知市,愛宕町３丁目１２番１３号,,39,201,7800051,,,,,,,2021-10-04,1,,,,,エヌエフファイブシコク,0
977,3700150104964,新規,0,2021-10-04,2021-10-04,大連三衆科技発展有限公司,,外国会社等,千葉県,船橋市,湊町１丁目２１番２０号,,12,204,2730011,中華人民共和国遼寧省大連市高新技術産業園区七賢嶺広賢路９７号,,,,,,2021-10-04,1,,,,,ダイレンサンシユウカギハツテンユウゲンコウシ,0
978,3700150105038,新規,0,2021-10-04,2021-10-04,ＤＥＥＰ　ＢＬＵＥ　ＭＯＴＯＲＳ　ＰＲＩＶＡＴＥ　ＬＩＭＩＴＥＤ,,外国会社等,神奈川県,藤沢市,用田１８５４,,14,205,2520821,スリランカ民主社会主義共和国、キャンディ市、アクラナ、パンゴラマダ、アリヤテンナ、２７／５号,,,,,,2021-10-04,1,,,,,デイープブルーモーターズプライベートリミテツド,0
999,4010401163003,新規,0,2021-10-04,2021-10-04,株式会社グッドラック,,株式会社,東京都,港区,赤坂６丁目１１番２－７０６号,,13,103,1070052,,,,,,,2021-10-04,1,,,,,グッドラック,0
1003,4010405020241,新規,0,2021-10-04,2021-10-04,一般社団法人浪岡地域活性化基金,,その他の設立登記法人,東京都,港区,虎ノ門３丁目２２番１０－２０１号,,13,103,1050001,,,,,,,2021-10-04,1,,,,,ナミオカチイキカッセイカキキン,0
1009,4010701041577,新規,0,2021-10-04,2021-10-04,ジャパン・インターネット・グループ株式会社,,株式会社,東京都,品川区,東五反田１丁目１３番１２号いちご五反田ビル１０階,,13,109,1410022,,,,,,,2021-10-04,1,,,,,ジャパンインターネットグループ,0
1018,4011001143007,新規,0,2021-10-04,2021-10-04,株式会社ＬＤ４,,株式会社,東京都,渋谷区,代官山町２０番９号,,13,113,1500034,,,,,,,2021-10-04,1,,,,,エルディーフォー,0
1019,4011001143238,新規,0,2021-10-04,2021-10-04,株式会社Ａｎｇｅ,,株式会社,東京都,渋谷区,渋谷１丁目１９番５号渋谷美竹ビル５階,,13,113,1500002,,,,,,,2021-10-04,1,,,,,アンジュ,0
1021,4011003013430,新規,0,2021-10-04,2021-10-04,合同会社ノアデザイン,,合同会社,東京都,渋谷区,神宮前６丁目２３番４号桑野ビル２階,,13,113,1500001,,,,,,,2021-10-04,1,,,,,ノアデザイン,0
1035,4011801039775,新規,0,2021-10-04,2021-10-04,昇瑛設備株式会社,,株式会社,東京都,足立区,伊興１丁目６番１３号,,13,121,1210823,,,,,,,2021-10-04,1,,,,,ショウエイセツビ,0
1036,4011803004802,新規,0,2021-10-04,2021-10-04,合同会社はなまるトラスト,,合同会社,東京都,足立区,東綾瀬２丁目１１番１号,,13,121,1200004,,,,,,,2021-10-04,1,,,,,ハナマルトラスト,0
1037,4011803004810,新規,0,2021-10-04,2021-10-04,合同会社みるらじ,,合同会社,東京都,葛飾区,西亀有３丁目３１番２０号ピア・クレージュ３０１号,,13,122,1250002,,,,,,,2021-10-04,1,,,,,ミルラジ,0
1042,4012701016690,新規,0,2021-10-04,2021-10-04,株式会社ＫＩＲＡ３６,,株式会社,東京都,小平市,鈴木町２丁目２２８番地の２１,,13,211,1870011,,,,,,,2021-10-04,1,,,,,キラサンロク,0
1043,4012803002614,新規,0,2021-10-04,2021-10-04,合同会社きらり,,合同会社,東京都,武蔵村山市,大南１丁目８９番地の２コーポ・ハリ１０２号,,13,223,2080013,,,,,,,2021-10-04,1,,,,,キラリ,0
1045,4013101008741,新規,0,2021-10-04,2021-10-04,オープンゲート株式会社,,株式会社,東京都,あきる野市,二宮東２丁目３番地６３,,13,228,1970815,,,,,,,2021-10-04,1,,,,,オープンゲート,0
1052,4020001143214,新規,0,2021-10-04,2021-10-04,富士御墅電梯株式会社,,株式会社,神奈川県,横浜市都筑区,北山田１丁目１０－５,,14,118,2240021,,,,,,,2021-10-04,1,,,,,フジミヤデンテイ,0
1053,4020001143222,新規,0,2021-10-04,2021-10-04,株式会社アールディーエム,,株式会社,神奈川県,横浜市保土ケ谷区,峰岡町１丁目９４番地１３,,14,106,2400064,,,,,,,2021-10-04,1,,,,,アールディーエム,0
1054,4020001143263,新規,0,2021-10-04,2021-10-04,株式会社ドルフィン,,株式会社,神奈川県,横浜市神奈川区,栄町１５番地２ＢＥ－ＷＡＶＥ３Ｆ,,14,102,2210052,,,,,,,2021-10-04,1,,,,,ドルフィン,0
1055,4020003020535,新規,0,2021-10-04,2021-10-04,合同会社ＰＩＮＥ　ＴＲＥＥ,,合同会社,神奈川県,川崎市幸区,中幸町４丁目３番地５号,,14,132,2120012,,,,,,,2021-10-04,1,,,,,パインツリー,0
1056,4020003020576,新規,0,2021-10-04,2021-10-04,エピック合同会社,,合同会社,神奈川県,川崎市宮前区,宮崎３丁目７番地１５,,14,136,2160033,,,,,,,2021-10-04,1,,,,,エピック,0
1058,4021001074060,新規,0,2021-10-04,2021-10-04,株式会社ｋａｋｉｎｏｈａ,,株式会社,神奈川県,鎌倉市,雪ノ下１丁目７番２２号,,14,204,2480005,,,,,,,2021-10-04,1,,,,,カキノハ,0
1067,4030001144616,新規,0,2021-10-04,2021-10-04,株式会社地域デザインラボさいたま,,株式会社,埼玉県,さいたま市浦和区,常盤７丁目４番１号,,11,107,3300061,,,,,,,2021-10-04,1,,,,,チイキデザインラボサイタマ,0
1072,4030003018025,新規,0,2021-10-04,2021-10-04,合同会社ノースビュー,,合同会社,埼玉県,桶川市,大字川田谷２７３０番地の１０２,,11,231,3630027,,,,,,,2021-10-04,1,,,,,ノースビュー,0
1080,4060001034137,新規,0,2021-10-04,2021-10-04,Ｓａｂａｋ　Ｉｎｔｅｒｎａｔｉｏｎａｌ株式会社,,株式会社,栃木県,小山市,駅東通り１丁目４０番３号ベルディマンションＩＩ－３０７号,00124429,09,208,3230022,,,,,,,2021-10-04,1,,,,,サバクインターナショナル,0
1085,4070001038475,新規,0,2021-10-04,2021-10-04,株式会社ＶＥＲＡＮＤＡ,,株式会社,群馬県,太田市,東本町３９番２２号３０９,,10,205,3730026,,,,,,,2021-10-04,1,,,,,ベランダ,0
1086,4070001038483,新規,0,2021-10-04,2021-10-04,株式会社さくらクリエイト,,株式会社,群馬県,前橋市,南町３丁目５０番地２プラザアン２階Ｃ,,10,201,3710805,,,,,,,2021-10-04,1,,,,,サクラクリエイト,0
1093,4080001024466,新規,0,2021-10-04,2021-10-04,株式会社亀山電装,,株式会社,静岡県,静岡市葵区,春日３丁目１番４－５号,,22,101,4200823,,,,,,,2021-10-04,1,,,,,カメヤマデンソウ,0
1094,4080001024474,新規,0,2021-10-04,2021-10-04,株式会社福井組,,株式会社,静岡県,静岡市葵区,瀬名２丁目９番５４－３号,,22,101,4200911,,,,,,,2021-10-04,1,,,,,フクイグミ,0
1095,4080101022799,新規,0,2021-10-04,2021-10-04,株式会社ｖｉｃｓ,,株式会社,静岡県,沼津市,下香貫浜田２９７９番地の２ファンタジー館ＩＩ２０２号,00124412,22,203,4100822,,,,,,,2021-10-04,1,,,,,ヴィクス,0
1099,4080401025394,新規,0,2021-10-04,2021-10-04,株式会社７３,,株式会社,静岡県,湖西市,新居町中之郷３０３５番地の１５,,22,221,4310301,,,,,,,2021-10-04,1,,,,,ナナサン,0
1101,4090001017213,新規,0,2021-10-04,2021-10-04,株式会社Ｅ・ｅリンクス,,株式会社,山梨県,富士吉田市,上吉田４丁目３番１９号,,19,202,4030005,,,,,,,2021-10-04,1,,,,,イーイーリンクス,0
1113,4120001240752,新規,0,2021-10-04,2021-10-04,株式会社Ｔ・ＳＡＷＡＤＡ,,株式会社,大阪府,大阪市生野区,巽西２丁目１２番１９号,,27,116,5440012,,,,,,,2021-10-04,1,,,,,ティーサワダ,0
1114,4120001240785,新規,0,2021-10-04,2021-10-04,旭日株式会社,,株式会社,大阪府,大阪市西成区,松１丁目４番８号１Ｆ,,27,122,5570034,,,,,,,2021-10-04,1,,,,,アサヒ,0
1115,4120001240793,新規,0,2021-10-04,2021-10-04,株式会社Ｙ－Ｓｅｃｏｎｄ,,株式会社,大阪府,大阪市東淀川区,豊里７丁目３３番１４号,,27,114,5330013,,,,,,,2021-10-04,1,,,,,ワイセカンド,0
1116,4120001240802,新規,0,2021-10-04,2021-10-04,株式会社総研設備工業,,株式会社,大阪府,寝屋川市,香里新町３－１３－３０６,,27,215,5720085,,,,,,,2021-10-04,1,,,,,ソウケンセツビコウギョウ,0
1123,4120101064390,新規,0,2021-10-04,2021-10-04,株式会社ＢＡＢＥＬ,,株式会社,大阪府,堺市中区,大野芝町１００－８,,27,142,5998233,,,,,,,2021-10-04,1,,,,,バベル,0
1124,4120901044996,新規,0,2021-10-04,2021-10-04,株式会社プレジャー,,株式会社,大阪府,吹田市,千里丘下６番Ｃ－３０６号,,27,205,5650813,,,,,,,2021-10-04,1,,,,,プレジャー,0
1125,4120903003851,新規,0,2021-10-04,2021-10-04,合同会社ＫＢＹ,,合同会社,大阪府,摂津市,南千里丘２番１７－１２号,,27,224,5660021,,,,,,,2021-10-04,1,,,,,ケービーワイ,0
1127,4122001035224,新規,0,2021-10-04,2021-10-04,株式会社夏山金型,,株式会社,大阪府,東大阪市,渋川町４丁目２番４７号,,27,227,5770836,,,,,,,2021-10-04,1,,,,,ナツヤマカナガタ,0
1128,4122001035249,新規,0,2021-10-04,2021-10-04,ＪＵＰＩＴＥＲ株式会社,,株式会社,大阪府,大東市,大野１丁目５番２３号,,27,218,5740042,,,,,,,2021-10-04,1,,,,,ジュピター,0
1144,4140001123187,新規,0,2021-10-04,2021-10-04,株式会社エンドグリップ,,株式会社,兵庫県,明石市,樽屋町３－６,,28,203,6730898,,,,,,,2021-10-04,1,,,,,エンドグリップ,0
1145,4140001123195,新規,0,2021-10-04,2021-10-04,キックス株式会社,,株式会社,兵庫県,神戸市中央区,北長狭通８丁目４番１号,,28,110,6500012,,,,,,,2021-10-04,1,,,,,キックス,0
1146,4140001123220,新規,0,2021-10-04,2021-10-04,株式会社ポトマック・アセットマネジメント,,株式会社,兵庫県,神戸市中央区,波止場町２番８号,,28,110,6500042,,,,,,,2021-10-04,1,,,,,ポトマックアセットマネジメント,0
1148,4140003016785,新規,0,2021-10-04,2021-10-04,ＭＩＮＡＧＡトラストパートナーズ合同会社,,合同会社,兵庫県,神戸市中央区,山本通１丁目３番２号ヴォールゲファレン２０２号,,28,110,6500003,,,,,,,2021-10-04,1,,,,,ミナガトラストパートナーズ,0
1149,4140003016793,新規,0,2021-10-04,2021-10-04,合同会社なないろごころ,,合同会社,兵庫県,宝塚市,鹿塩１丁目３３３番地の３アビタシオン仁川ＩＩＩ２０１,00124410,28,214,6650054,,,,,,,2021-10-04,1,,,,,ナナイロゴコロ,0
1150,4140003016802,新規,0,2021-10-04,2021-10-04,合同会社センス・オブ・ワンダー,,合同会社,兵庫県,西宮市,神垣町１０番３９号,,28,204,6620865,,,,,,,2021-10-04,1,,,,,センスオブワンダー,0
1152,4150001024970,新規,0,2021-10-04,2021-10-04,株式会社Ｄａ　ｔｅｒｒａ,,株式会社,奈良県,高市郡明日香村,大字川原８８４番地,,29,402,6340141,,,,,,,2021-10-04,1,,,,,ダテッラ,0
1154,4160001023674,新規,0,2021-10-04,2021-10-04,株式会社あくひろ,,株式会社,滋賀県,大津市,小関町７－３３,,25,201,5200035,,,,,,,2021-10-04,1,,,,,アクヒロ,0
1155,4160003002395,新規,0,2021-10-04,2021-10-04,合同会社Ｋａｉ＆Ｒｉｏ,,合同会社,滋賀県,草津市,北大萱町５６０番地２,,25,206,5250016,,,,,,,2021-10-04,1,,,,,カイアンドリオ,0
1156,4170001016801,新規,0,2021-10-04,2021-10-04,株式会社ＹＡＭＡＳＨＩＮ,,株式会社,和歌山県,有田郡広川町,大字柳瀬２４２番地,,30,362,6430061,,,,,,,2021-10-04,1,,,,,ヤマシン,0
1166,4180001148008,新規,0,2021-10-04,2021-10-04,株式会社ジェイグループホールディングス,,株式会社,愛知県,名古屋市名東区,高針１丁目７０１番地,,23,115,4650061,,,,,,,2021-10-04,1,,,,,ジェイグループホールディングス,0
1169,4180003023010,新規,0,2021-10-04,2021-10-04,合同会社ＬＵＣＫＹ　ＴＲＡＤＩＮＧ,,合同会社,愛知県,春日井市,桃山町２丁目７４番地４,,23,206,4860802,,,,,,,2021-10-04,1,,,,,ラッキートレーディング,0
1170,4180003023035,新規,0,2021-10-04,2021-10-04,合同会社サツキサポート,,合同会社,愛知県,名古屋市中村区,宿跡町２丁目６３番地の１,,23,105,4530067,,,,,,,2021-10-04,1,,,,,サツキサポート,0
1173,4180301035426,新規,0,2021-10-04,2021-10-04,Ｌｅｘ株式会社,,株式会社,愛知県,知立市,新林町東新切３７番地４,,23,225,4720017,,,,,,,2021-10-04,1,,,,,レックス,0
1175,4190003003779,新規,0,2021-10-04,2021-10-04,合同会社ＳＥＩＺＥＬＩＦＥ,,合同会社,三重県,伊勢市,下野町２５７番地３,,24,203,5160003,,,,,,,2021-10-04,1,,,,,シーズライフ,0
1177,4200001039204,新規,0,2021-10-04,2021-10-04,株式会社マキ・エンタープライズ,,株式会社,岐阜県,海津市,平田町三郷１２２７番地,,21,221,5030312,,,,,,,2021-10-04,1,,,,,マキエンタープライズ,0
1178,4200001039212,新規,0,2021-10-04,2021-10-04,株式会社小林ホームペイント,,株式会社,岐阜県,岐阜市,中西郷１丁目１３６番地,,21,201,5011177,,,,,,,2021-10-04,1,,,,,ショウバヤシホームペイント,0
1179,4200001039229,新規,0,2021-10-04,2021-10-04,株式会社東海ガステクノ,,株式会社,岐阜県,山県市,上願８６番地,,21,215,5012133,,,,,,,2021-10-04,1,,,,,トウカイガステクノ,0
1180,4200001039237,新規,0,2021-10-04,2021-10-04,株式会社ヒラツカ,,株式会社,岐阜県,揖斐郡揖斐川町,脛永４００番地３,,21,401,5010622,,,,,,,2021-10-04,1,,,,,ヒラツカ,0
1181,4200001039245,新規,0,2021-10-04,2021-10-04,株式会社コネクト,,株式会社,岐阜県,大垣市,橘町１丁目８番地１,,21,202,5030892,,,,,,,2021-10-04,1,,,,,コネクト,0
1184,4200003005336,新規,0,2021-10-04,2021-10-04,合同会社ＡＤＰ,,合同会社,岐阜県,大垣市,墨俣町二ツ木２１４番地１,,21,202,5030105,,,,,,,2021-10-04,1,,,,,エーディーピー,0
1192,4240001058687,新規,0,2021-10-04,2021-10-04,株式会社Ａ．ｓｅｅｄ,,株式会社,広島県,広島市佐伯区,城山１丁目１３番６３－２０１号,,34,108,7315155,,,,,,,2021-10-04,1,,,,,アシード,0
1195,4260001036006,新規,0,2021-10-04,2021-10-04,Ａ・Ｈ産業株式会社,,株式会社,岡山県,瀬戸内市,長船町土師２３０番地１,,33,212,7014264,,,,,,,2021-10-04,1,,,,,エーエイチサンギョウ,0
1196,4260001036014,新規,0,2021-10-04,2021-10-04,株式会社杉本水道工業所,,株式会社,岡山県,玉野市,用吉５１７番地,,33,204,7060132,,,,,,,2021-10-04,1,,,,,スギモトスイドウコウギョウショ,0
1197,4260001036022,新規,0,2021-10-04,2021-10-04,株式会社優建工業,,株式会社,岡山県,都窪郡早島町,早島２０１８番地５,,33,423,7010304,,,,,,,2021-10-04,1,,,,,ユウケンコウギョウ,0
1198,4260001036047,新規,0,2021-10-04,2021-10-04,マサ建設工業株式会社,,株式会社,岡山県,都窪郡早島町,矢尾２２０番地３,,33,423,7010301,,,,,,,2021-10-04,1,,,,,,0
1201,4260003003689,新規,0,2021-10-04,2021-10-04,合同会社ｈａｒｕｃｈｉ,,合同会社,岡山県,倉敷市,藤戸町天城４２３番地,,33,202,7100132,,,,,,,2021-10-04,1,,,,,ハルチ,0
1213,4290001094802,新規,0,2021-10-04,2021-10-04,株式会社池田千穂商店,,株式会社,福岡県,福岡市博多区,博多駅南５丁目２７番３号,,40,132,8120016,,,,,,,2021-10-04,1,,,,,イケダチホショウテン,0
1214,4290001094810,新規,0,2021-10-04,2021-10-04,株式会社ＬａｉＺｅ,,株式会社,福岡県,糸島市,前原１０００番地１,,40,230,8191113,,,,,,,2021-10-04,1,,,,,ライズ,0
1215,4290001094835,新規,0,2021-10-04,2021-10-04,株式会社クリエイトブロス,,株式会社,福岡県,福岡市西区,豊浜２丁目２０番１６号,,40,135,8190014,,,,,,,2021-10-04,1,,,,,クリエイトブロス,0
1226,4320001018641,新規,0,2021-10-04,2021-10-04,ＩＳＣ株式会社,,株式会社,大分県,大分市,大字駄原１５２５番地の１３,,44,201,8700100,,,,,,,2021-10-04,1,,,,,アイエスシー,0
1230,4330001029027,新規,0,2021-10-04,2021-10-04,ダイキュー甲佐運輸株式会社,,株式会社,熊本県,上益城郡甲佐町,大字白旗１８７４番地,,43,444,8613243,,,,,,,2021-10-04,1,,,,,ダイキューコウサウンユ,0
1233,4330003009068,新規,0,2021-10-04,2021-10-04,コウキ合同会社,,合同会社,熊本県,上益城郡益城町,大字島田１８８番地２,,43,443,8612224,,,,,,,2021-10-04,1,,,,,コウキ,0
1234,4340001024134,新規,0,2021-10-04,2021-10-04,エフジーソリューション株式会社,,株式会社,鹿児島県,鹿児島市,中山町２３１５番地３,,46,201,8910105,,,,,,,2021-10-04,1,,,,,エフジーソリューション,0
1236,4350001017327,新規,0,2021-10-04,2021-10-04,株式会社Ｔａｍｅｎｉ,,株式会社,宮崎県,宮崎市,橘通西５丁目３番２２号アルテノースタワー２０１号,,45,201,8800001,,,,,,,2021-10-04,1,,,,,タメニ,0
1238,4360001029420,新規,0,2021-10-04,2021-10-04,株式会社ジャパンメディアバンク,,株式会社,沖縄県,豊見城市,字豊崎３番地８４,,47,212,9010225,,,,,,,2021-10-04,1,,,,,ジャパンメディアバンク,0
1241,4370001047660,新規,0,2021-10-04,2021-10-04,株式会社高瀬土建,,株式会社,宮城県,石巻市,蛇田字北経塚５３番地１,,04,202,9860861,,,,,,,2021-10-04,1,,,,,タカセドケン,0
1242,4370005010359,新規,0,2021-10-04,2021-10-04,一般社団法人ＲＥ　Ｆｒｅｅｄｏｍ　ＪａＰａＮ,,その他の設立登記法人,宮城県,仙台市青葉区,下愛子字二本松２４－４、１Ｆ,,04,101,9893125,,,,,,,2021-10-04,1,,,,,リフリーダムジャパン,0
1249,4400001015622,新規,0,2021-10-04,2021-10-04,ＴＨＥホールディングス株式会社,,株式会社,岩手県,盛岡市,上厨川字横沼５１番地,,03,201,0200143,,,,,,,2021-10-04,1,,,,,ティーエイチイーホールディングス,0
1250,4400003002841,新規,0,2021-10-04,2021-10-04,ＮＥＴｔｏｕｃｈ合同会社,,合同会社,岩手県,北上市,花園町２丁目２番２７号,,03,206,0240035,,,,,,,2021-10-04,1,,,,,ネットタッチ,0
1259,4430001085068,新規,0,2021-10-04,2021-10-04,株式会社ＣＬＡＶＩＳ,,株式会社,北海道,札幌市白石区,東札幌二条４丁目１１番２５号,,01,104,0030002,,,,,,,2021-10-04,1,,,,,クラヴィス,0
1260,4430001085076,新規,0,2021-10-04,2021-10-04,株式会社ＴＲ,,株式会社,北海道,札幌市手稲区,手稲前田６１４番地４５,,01,109,0060829,,,,,,,2021-10-04,1,,,,,ティーアール,0
1263,4440001008952,新規,0,2021-10-04,2021-10-04,株式会社一五,,株式会社,北海道,函館市,人見町４番１２号,,01,202,0400005,,,,,,,2021-10-04,1,,,,,イチゴ,0
1266,4450001013497,新規,0,2021-10-04,2021-10-04,株式会社ｑｕａｔｔｒｏ,,株式会社,北海道,紋別市,本町５丁目２番２３号,,01,219,0940004,,,,,,,2021-10-04,1,,,,,クアトロ,0
1267,4450003002127,新規,0,2021-10-04,2021-10-04,合同会社ミライ,,合同会社,北海道,富良野市,西町１番１６号,,01,229,0760037,,,,,,,2021-10-04,1,,,,,ミライ,0
1268,4460303000738,新規,0,2021-10-04,2021-10-04,合同会社ＣＵＲＡＯ,,合同会社,北海道,北見市,とん田西町３００番地２,,01,208,0900834,,,,,,,2021-10-04,1,,,,,クラオ,0
1272,4480005006858,新規,0,2021-10-04,2021-10-04,一般社団法人とくしま森林バンク,,その他の設立登記法人,徳島県,徳島市,川内町平石住吉２０９番地５,,36,201,7710134,,,,,,,2021-10-04,1,,,,,トクシマシンリンバンク,0
1273,4490001010004,新規,0,2021-10-04,2021-10-04,株式会社竹井水産,,株式会社,高知県,香南市,野市町西野３７０番地１,,39,211,7815232,,,,,,,2021-10-04,1,,,,,タケイスイサン,0
1276,4700150104939,新規,0,2021-10-04,2021-10-04,国際海事大学連合,,その他,東京都,港区,虎ノ門１丁目１５－１０名和ビル８階,,13,103,1050001,,,,,,,2021-10-04,1,,,,,コクサイカイジダイガクレンゴウ,0
1277,4700150104988,新規,0,2021-10-04,2021-10-04,ＧＬＯＢＡＬ　ＣＡＲＳ　ＥＮＴＥＲＰＲＩＳＥＳ,,外国会社等,千葉県,山武市,小松１５６０番地６オフィスＡ－１,,12,237,2891302,スリランカ民主社会主義共和国、アクラナ、ドダンゴラロード、３２２－１４,,,,,,2021-10-04,1,,,,,グローバルカーズエンタープライセス,0
1278,4700150104996,新規,0,2021-10-04,2021-10-04,ＡＬＡＡＹＡ　ＡＵＴＯ　ＬＩＮＥ　ＰＶＴ　ＬＴＤ,,外国会社等,千葉県,東金市,上谷３４３４－４オフィス－Ｃ,,12,213,2830046,スリランカ民主社会主義共和国、キャンディ、アクラナ、ジアホシピタルロードＮｏ．１１７／１,,,,,,2021-10-04,1,,,,,アラーヤオートラインプライベートリミテツド,0
1300,5010405020240,新規,0,2021-10-04,2021-10-04,一般社団法人七戸天間舘倉越地域活性化基金,,その他の設立登記法人,東京都,港区,虎ノ門３丁目２２番１０－２０１号,,13,103,1050001,,,,,,,2021-10-04,1,,,,,シチノヘテンマダテクラコシチイキカッセイカキキン,0
1303,5010501047880,新規,0,2021-10-04,2021-10-04,株式会社桜華,,株式会社,東京都,台東区,東上野３丁目２６番４号三島木ビル,,13,106,1100015,,,,,,,2021-10-04,1,,,,,サクラカ,0
1306,5010601059999,新規,0,2021-10-04,2021-10-04,ナカタケテック株式会社,,株式会社,東京都,墨田区,両国３丁目２１番１６号両国中屋ビル７階,,13,107,1300026,,,,,,,2021-10-04,1,,,,,ナカタケテック,0
1307,5010601060024,新規,0,2021-10-04,2021-10-04,株式会社ｆｌｅｘ　ｏｎｅ,,株式会社,東京都,江東区,千石２丁目４番１号－７１１,,13,108,1350015,,,,,,,2021-10-04,1,,,,,フレックスワン,0
1310,5010701041576,新規,0,2021-10-04,2021-10-04,フラッシュ・テクノロジーズ株式会社,,株式会社,東京都,品川区,東五反田１丁目１３番１２号いちご五反田ビル１０階,,13,109,1410022,,,,,,,2021-10-04,1,,,,,フラッシュテクノロジーズ,0
1312,5010705003275,新規,0,2021-10-04,2021-10-04,一般社団法人インド太平洋戦略研究所センター,,その他の設立登記法人,東京都,品川区,東五反田４丁目１０番９号,,13,109,1410022,,,,,,,2021-10-04,1,,,,,インドタイヘイヨウセンリャクケンキュウショセンター,0
1327,5011001142965,新規,0,2021-10-04,2021-10-04,株式会社ｍｉｈｏ建設,,株式会社,東京都,渋谷区,富ヶ谷２丁目１５－１－４０２号室,,13,113,1510063,,,,,,,2021-10-04,1,,,,,ミホケンセツ,0
1328,5011001143006,新規,0,2021-10-04,2021-10-04,株式会社ｔｈｅ．Ｒｉｃｈ,,株式会社,東京都,渋谷区,道玄坂１丁目１０－８渋谷道玄坂東急ビル,,13,113,1500043,,,,,,,2021-10-04,1,,,,,ザリッチ,0
1329,5011001143039,新規,0,2021-10-04,2021-10-04,株式会社ｏｎｅ　ｓｅｃｏｎｄ,,株式会社,東京都,渋谷区,千駄ヶ谷４丁目５番１０号コンフォリア北参道１００８,,13,113,1510051,,,,,,,2021-10-04,1,,,,,ワンセコンド,0
1330,5011001143138,新規,0,2021-10-04,2021-10-04,株式会社ＤＮコンサルティング,,株式会社,東京都,渋谷区,恵比寿４丁目２０番３号恵比寿ガーデンプレイスタワー１８階,,13,113,1500013,,,,,,,2021-10-04,1,,,,,ディーエヌコンサルティング,0
1331,5011001143146,新規,0,2021-10-04,2021-10-04,株式会社Ｆｌｙ－Ｈｅｉｇｈｔ,,株式会社,東京都,渋谷区,神宮前６丁目２３番４号桑野ビル２階,,13,113,1500001,,,,,,,2021-10-04,1,,,,,フライハイト,0
1332,5011001143162,新規,0,2021-10-04,2021-10-04,株式会社トラストギア,,株式会社,東京都,目黒区,碑文谷２丁目１１番２０号,,13,110,1520003,,,,,,,2021-10-04,1,,,,,トラストギア,0
1333,5011003013470,新規,0,2021-10-04,2021-10-04,ＧＮＤ合同会社,,合同会社,東京都,渋谷区,神宮前６丁目２３番４号桑野ビル２階,,13,113,1500001,,,,,,,2021-10-04,1,,,,,ジーエヌディー,0
1335,5011103011052,新規,0,2021-10-04,2021-10-04,クロスセブンリンクス合同会社,,合同会社,東京都,新宿区,西新宿４丁目４番１５号コマＵＤ２１－９０１,,13,104,1600023,,,,,,,2021-10-04,1,,,,,クロスセブンリンクス,0
1340,5011301027197,新規,0,2021-10-04,2021-10-04,株式会社アリィ,,株式会社,東京都,杉並区,久我山１丁目７番４１号８号館３階,,13,115,1680082,,,,,,,2021-10-04,1,,,,,アリィ,0
1341,5011301027214,新規,0,2021-10-04,2021-10-04,株式会社ＴＣラボ,,株式会社,東京都,杉並区,阿佐谷北１丁目３２番１１号,,13,115,1660001,,,,,,,2021-10-04,1,,,,,ティーシーラボ,0
1348,5011801039758,新規,0,2021-10-04,2021-10-04,株式会社希美ダイヤ,,株式会社,東京都,足立区,平野３丁目７番２７号,,13,121,1210076,,,,,,,2021-10-04,1,,,,,ノゾミダイヤ,0
1351,5012403005041,新規,0,2021-10-04,2021-10-04,Ｋメディカルサービス合同会社,,合同会社,東京都,三鷹市,下連雀５丁目３番４－６０４号,,13,204,1810013,,,,,,,2021-10-04,1,,,,,ケイメディカルサービス,0
1353,5012701016698,新規,0,2021-10-04,2021-10-04,株式会社アテンドハウス,,株式会社,東京都,東村山市,栄町２丁目１０－３３,,13,213,1890013,,,,,,,2021-10-04,1,,,,,アテンドハウス,0
1357,5013101008740,新規,0,2021-10-04,2021-10-04,ベッラ設計株式会社,,株式会社,東京都,青梅市,河辺町５丁目２２番地の３フェリースシライシ１０６号室,,13,205,1980036,,,,,,,2021-10-04,1,,,,,ベッラセッケイ,0
1369,5020001143246,新規,0,2021-10-04,2021-10-04,株式会社宮澤建築,,株式会社,神奈川県,横浜市磯子区,上中里町８６３番地３－２０１号室,,14,107,2350042,,,,,,,2021-10-04,1,,,,,,0
1372,5020005015219,新規,0,2021-10-04,2021-10-04,一般社団法人環境改善推進協会,,その他の設立登記法人,神奈川県,横浜市戸塚区,東俣野町１７４４番地２－１０２号,,14,110,2450065,,,,,,,2021-10-04,1,,,,,カンキョウカイゼンスイシンキョウカイ,0
1376,5021001074043,新規,0,2021-10-04,2021-10-04,ＧＲＯＷ　ＵＰ株式会社,,株式会社,神奈川県,相模原市緑区,相原３丁目１６番１０号エクセレント１０３号室,,14,151,2520141,,,,,,,2021-10-04,1,,,,,グロウアップ,0
1377,5021001074068,新規,0,2021-10-04,2021-10-04,株式会社セヌー,,株式会社,神奈川県,相模原市中央区,上溝２０６番地１０,,14,152,2520243,,,,,,,2021-10-04,1,,,,,セヌー,0
1378,5021003010954,新規,0,2021-10-04,2021-10-04,合同会社ムーンフェイズ,,合同会社,神奈川県,茅ヶ崎市,浜竹４丁目１番６０－２４号,,14,207,2530021,,,,,,,2021-10-04,1,,,,,ムーンフェイズ,0
1394,5040001120359,新規,0,2021-10-04,2021-10-04,株式会社ブランドン,,株式会社,千葉県,柏市,大津ケ丘３丁目１２番地２９,,12,217,2770921,,,,,,,2021-10-04,1,,,,,ブランドン,0
1395,5040001120375,新規,0,2021-10-04,2021-10-04,株式会社ルナ,,株式会社,千葉県,船橋市,高野台３丁目１４番４棟２０１号,,12,204,2740801,,,,,,,2021-10-04,1,,,,,ルナ,0
1396,5040001120383,新規,0,2021-10-04,2021-10-04,フックアップ株式会社,,株式会社,千葉県,四街道市,池花１丁目２番１６号,,12,228,2840014,,,,,,,2021-10-04,1,,,,,フックアップ,0
1402,5060001034128,新規,0,2021-10-04,2021-10-04,株式会社トライズ,,株式会社,栃木県,下都賀郡壬生町,本丸１丁目５番２１号,,09,361,3210225,,,,,,,2021-10-04,1,,,,,トライズ,0
1403,5060001034136,新規,0,2021-10-04,2021-10-04,株式会社善建,,株式会社,栃木県,鹿沼市,酒野谷５３５番地１,,09,205,3220047,,,,,,,2021-10-04,1,,,,,ヨシケン,0
1408,5080001024473,新規,0,2021-10-04,2021-10-04,株式会社静心建設,,株式会社,静岡県,静岡市清水区,石川１０番地の４グランヴェール伏見Ｉ２０２号室,00124421,22,103,4240005,,,,,,,2021-10-04,1,,,,,セイシンケンセツ,0
1409,5080005007400,新規,0,2021-10-04,2021-10-04,医療法人社団Ａｓ　Ｎａｔｕｒａｌ,,その他の設立登記法人,静岡県,静岡市葵区,瀬名３丁目３８番３号,,22,101,4200911,,,,,,,2021-10-04,1,,,,,アズナチュラル,0
1413,5080401025377,新規,0,2021-10-04,2021-10-04,株式会社ＯＤＣ,,株式会社,静岡県,浜松市南区,白羽町２４７９番地の３,,22,134,4300846,,,,,,,2021-10-04,1,,,,,オーディーシー,0
1414,5080401025385,新規,0,2021-10-04,2021-10-04,株式会社鮮魚・司,,株式会社,静岡県,浜松市中区,元魚町７３番地の２,,22,131,4328026,,,,,,,2021-10-04,1,,,,,センギョツカサ,0
1415,5080401025402,新規,0,2021-10-04,2021-10-04,株式会社Ｐａｒｔａｇｅｒ,,株式会社,静岡県,浜松市中区,旭町６番地の１－１９０８,,22,131,4300927,,,,,,,2021-10-04,1,,,,,パルタジェ,0
1416,5080403004379,新規,0,2021-10-04,2021-10-04,合同会社ＡＭＫ,,合同会社,静岡県,浜松市北区,初生町１３０３番地の９,,22,135,4338112,,,,,,,2021-10-04,1,,,,,エーエムケー,0
1417,5080405007388,新規,0,2021-10-04,2021-10-04,ＮＰＯ法人大地,,その他の設立登記法人,静岡県,浜松市北区,三方原町８４６番地の２,,22,135,4338105,,,,,,,2021-10-04,1,,,,,ダイチ,0
1419,5090003001957,新規,0,2021-10-04,2021-10-04,合同会社ＬＹＬＢａｎｋ１,,合同会社,山梨県,南都留郡山中湖村,平野３２５９,,19,425,4010502,,,,,,,2021-10-04,1,,,,,,0
1424,5110001036077,新規,0,2021-10-04,2021-10-04,株式会社総合インテリア土屋畳店,,株式会社,新潟県,東蒲原郡阿賀町,津川４８番地１,,15,385,9594402,,,,,,,2021-10-04,1,,,,,ソウゴウインテリアツチヤタタミテン,0
1435,5120001240784,新規,0,2021-10-04,2021-10-04,株式会社福岡せつ栄,,株式会社,大阪府,大阪市浪速区,湊町１丁目２番３号マルイト難波ビル,,27,111,5560017,,,,,,,2021-10-04,1,,,,,フクオカセツエイ,0
1440,5120101064373,新規,0,2021-10-04,2021-10-04,株式会社結不動産,,株式会社,大阪府,堺市東区,草尾２７７番地,,27,143,5998127,,,,,,,2021-10-04,1,,,,,ユイフドウサン,0
1441,5120101064381,新規,0,2021-10-04,2021-10-04,株式会社美速ＧＲＯＵＰ,,株式会社,大阪府,堺市中区,深井清水町３５１４番地グランドールエコー深井３０３号,,27,142,5998273,,,,,,,2021-10-04,1,,,,,ビソクグループ,0
1442,5120101064398,新規,0,2021-10-04,2021-10-04,レガリアマネジメント株式会社,,株式会社,大阪府,堺市中区,深井中町１２１１番地５３,,27,142,5998272,,,,,,,2021-10-04,1,,,,,レガリアマネジメント,0
1448,5120901044970,新規,0,2021-10-04,2021-10-04,ねこから目線株式会社,,株式会社,大阪府,池田市,針塚二丁目８番２６号,,27,204,5630000,,,,,,,2021-10-04,1,,,,,ネコカラメセン,0
1451,5122001035223,新規,0,2021-10-04,2021-10-04,ファースト株式会社,,株式会社,大阪府,八尾市,南太子堂４丁目３番１号,,27,212,5810056,,,,,,,2021-10-04,1,,,,,ファースト,0
1452,5122001035248,新規,0,2021-10-04,2021-10-04,株式会社ｎｉｃｏ,,株式会社,大阪府,東大阪市,長田中１丁目４番１７－９０４号,,27,227,5770013,,,,,,,2021-10-04,1,,,,,ニコ,0
1460,5130001070207,新規,0,2021-10-04,2021-10-04,葵テクノロジー株式会社,,株式会社,京都府,京都市中京区,錦小路通室町西入天神山町２８０番地石勘ビル４Ｆ,,26,104,6048221,,,,,,,2021-10-04,1,,,,,アオイテクノロジー,0
1461,5130001070223,新規,0,2021-10-04,2021-10-04,ＡＦマネジメントコンサルティング株式会社,,株式会社,京都府,京都市南区,西九条東島町５８ラポール壱番堂４０３,,26,107,6018432,,,,,,,2021-10-04,1,,,,,エーエフマネジメントコンサルティング,0
1462,5130001070231,新規,0,2021-10-04,2021-10-04,株式会社西賀茂デザイン設計事務所,,株式会社,京都府,京都市北区,西賀茂水垣町７９番地,,26,101,6038827,,,,,,,2021-10-04,1,,,,,ニシガモデザインセッケイジムショ,0
1466,5130003007520,新規,0,2021-10-04,2021-10-04,合同会社ファーストクオリティ,,合同会社,京都府,京都市中京区,西ノ京左馬寮町１１－２５,,26,104,6048491,,,,,,,2021-10-04,1,,,,,ファーストクオリティ,0
1475,5140003016784,新規,0,2021-10-04,2021-10-04,Ｆａｒｍａｃｉｓｔａ　Ｌａｂ合同会社,,合同会社,兵庫県,神戸市北区,京地２丁目１１番５号,,28,109,6511304,,,,,,,2021-10-04,1,,,,,ファルマシスタラボ,0
1476,5140003016792,新規,0,2021-10-04,2021-10-04,合同会社ひまわり,,合同会社,兵庫県,川西市,南花屋敷２丁目９番１号,,28,217,6660026,,,,,,,2021-10-04,1,,,,,ヒマワリ,0
1478,5140005025841,新規,0,2021-10-04,2021-10-04,一般社団法人やぶマウンテンバイカーズサポート,,その他の設立登記法人,兵庫県,養父市,大屋町中字向山１３番地８の７１,,28,222,6670304,,,,,,,2021-10-04,1,,,,,ヤブマウンテンバイカーズサポート,0
1479,5150003002503,新規,0,2021-10-04,2021-10-04,合同会社ｎｉｎｉｇｉ,,合同会社,奈良県,香芝市,下田東４丁目３－３７,,29,210,6390232,,,,,,,2021-10-04,1,,,,,ニニギ,0
1480,5160001023665,新規,0,2021-10-04,2021-10-04,Ｓｈｉｍｉｚｕ　Ｄｅｓｉｇｎ株式会社,,株式会社,滋賀県,長浜市,内保町１４１番地２,,25,203,5260244,,,,,,,2021-10-04,1,,,,,シミズデザイン,0
1481,5160003002394,新規,0,2021-10-04,2021-10-04,Ｇｒｏｗ－Ｒｉｃｈ－Ｊａｐａｎ合同会社,,合同会社,滋賀県,野洲市,栄１２番９号,,25,210,5202333,,,,,,,2021-10-04,1,,,,,グローリッチジャパン,0
1487,5180001147999,新規,0,2021-10-04,2021-10-04,株式会社ＡＭＡＮＯ,,株式会社,愛知県,名古屋市中川区,長良町３丁目１４０番地エクセシオール雅３０１号,,23,110,4540815,,,,,,,2021-10-04,1,,,,,アマノ,0
1488,5180001148023,新規,0,2021-10-04,2021-10-04,株式会社Ｓｈｉｎｉｎｇ　Ｍｏｏｎ,,株式会社,愛知県,知多郡武豊町,字廻間５８番地１２,,23,447,4702516,,,,,,,2021-10-04,1,,,,,シャイニングムーン,0
1489,5180001148031,新規,0,2021-10-04,2021-10-04,株式会社名北会計センター,,株式会社,愛知県,名古屋市千種区,池園町１丁目５３番地,,23,101,4640818,,,,,,,2021-10-04,1,,,,,メイホクカイケイセンター,0
1490,5180001148072,新規,0,2021-10-04,2021-10-04,株式会社ガーデンズ,,株式会社,愛知県,名古屋市名東区,藤香町２７番地,,23,115,4650037,,,,,,,2021-10-04,1,,,,,ガーデンズ,0
1492,5180003023018,新規,0,2021-10-04,2021-10-04,合同会社ステイカレント,,合同会社,愛知県,名古屋市東区,前浪町７番５号,,23,102,4610046,,,,,,,2021-10-04,1,,,,,ステイカレント,0
1498,5180301035417,新規,0,2021-10-04,2021-10-04,ユナイトテック株式会社,,株式会社,愛知県,豊田市,古瀬間町坂能瀬１１４番地２２２,,23,211,4710801,,,,,,,2021-10-04,1,,,,,ユナイトテック,0
1502,5190001028728,新規,0,2021-10-04,2021-10-04,株式会社伊藤新聞店,,株式会社,三重県,津市,白山町南家城９４４番地１,,24,201,5153133,,,,,,,2021-10-04,1,,,,,イトウシンブンテン,0
1505,5200001039211,新規,0,2021-10-04,2021-10-04,株式会社ＬＩＦ,,株式会社,岐阜県,岐阜市,吉津町２丁目３０番地２,,21,201,5008187,,,,,,,2021-10-04,1,,,,,リフ,0
1506,5200001039236,新規,0,2021-10-04,2021-10-04,北島電器株式会社,,株式会社,岐阜県,大垣市,墨俣町下宿５７６番地３,,21,202,5030104,,,,,,,2021-10-04,1,,,,,キタジマデンキ,0
1507,5200001039244,新規,0,2021-10-04,2021-10-04,株式会社カナモリエンジニアリング,,株式会社,岐阜県,安八郡安八町,牧１６４１番地の１,,21,383,5030125,,,,,,,2021-10-04,1,,,,,カナモリエンジニアリング,0
1508,5200001039252,新規,0,2021-10-04,2021-10-04,株式会社Ｒ・Ｐ,,株式会社,岐阜県,本巣郡北方町,北方３１６８番地の３,,21,421,5010431,,,,,,,2021-10-04,1,,,,,アールピー,0
1516,5240001058694,新規,0,2021-10-04,2021-10-04,株式会社和天,,株式会社,広島県,広島市東区,曙２丁目３番２０－１０１号,00124419,34,102,7320045,,,,,,,2021-10-04,1,,,,,ワテン,0
1517,5240001058703,新規,0,2021-10-04,2021-10-04,株式会社ＷＩＬＬ　ＨＯＭＥ,,株式会社,広島県,広島市南区,黄金山町２３番３４号,,34,103,7340041,,,,,,,2021-10-04,1,,,,,ウィルホーム,0
1522,5260001036005,新規,0,2021-10-04,2021-10-04,ダイナリィ株式会社,,株式会社,岡山県,岡山市南区,浜野１丁目１０番２２－１号グランドウールＡ２０１,,33,104,7000845,,,,,,,2021-10-04,1,,,,,ダイナリィ,0
1523,5260001036013,新規,0,2021-10-04,2021-10-04,株式会社内栄テクノ,,株式会社,岡山県,倉敷市,児島小川町４０６６番地,,33,202,7110912,,,,,,,2021-10-04,1,,,,,ウチエイテクノ,0
1524,5260001036021,新規,0,2021-10-04,2021-10-04,株式会社建匠,,株式会社,岡山県,岡山市北区,門前３９９番地１,,33,101,7011351,,,,,,,2021-10-04,1,,,,,ケンショウ,0
1527,5280003001541,新規,0,2021-10-04,2021-10-04,合同会社山本塗装,,合同会社,島根県,浜田市,下府町１６４２－２,,32,202,6970006,,,,,,,2021-10-04,1,,,,,,0
1534,5290001094818,新規,0,2021-10-04,2021-10-04,株式会社石村商店,,株式会社,福岡県,大野城市,牛頸４丁目１番１８号,,40,219,8160971,,,,,,,2021-10-04,1,,,,,イシムラショウテン,0
1535,5290001094834,新規,0,2021-10-04,2021-10-04,株式会社Ａｒｃｈ,,株式会社,福岡県,福岡市中央区,天神２丁目３番１０号天神パインクレスト７１９,,40,133,8100001,,,,,,,2021-10-04,1,,,,,アーチ,0
1536,5290001094842,新規,0,2021-10-04,2021-10-04,ＢＬＡＣＫ　ＲＡＴＳ株式会社,,株式会社,福岡県,福岡市博多区,上川端町１０番地２５５,,40,132,8120026,,,,,,,2021-10-04,1,,,,,ブラックラッツ,0
1539,5290003011663,新規,0,2021-10-04,2021-10-04,合同会社Ｂｌｕｅ　ＤｉＡ,,合同会社,福岡県,福岡市早良区,大字脇山１６９７番地９,,40,137,8111111,,,,,,,2021-10-04,1,,,,,ブルーディア,0
1540,5290003011671,新規,0,2021-10-04,2021-10-04,合同会社アビリタアカデミー,,合同会社,福岡県,福岡市中央区,春吉１丁目８番６－２０３号,,40,133,8100003,,,,,,,2021-10-04,1,,,,,アビリタアカデミー,0
1544,5310001017494,新規,0,2021-10-04,2021-10-04,アストラスト技術株式会社,,株式会社,長崎県,諫早市,八天町４番１４号ｓｕｉｔｅ２０１,,42,204,8540011,,,,,,,2021-10-04,1,,,,,アストラストギジュツ,0
1545,5310001017511,新規,0,2021-10-04,2021-10-04,メイク．ｊｐ株式会社,,株式会社,長崎県,長崎市,魚の町３番２１号,,42,201,8500874,,,,,,,2021-10-04,1,,,,,メイクジェイピー,0
1549,5330001029034,新規,0,2021-10-04,2021-10-04,株式会社Ｂ－ｅｎｅｒｇｙ,,株式会社,熊本県,上益城郡益城町,大字広崎６０６番地１Ｄ－ｒｏｏｍ広崎２０１号室,,43,443,8612236,,,,,,,2021-10-04,1,,,,,ビーエナジー,0
1553,5340001024133,新規,0,2021-10-04,2021-10-04,株式会社東建築,,株式会社,鹿児島県,鹿児島市,桜ヶ丘８丁目３６番１９号ドミール黒瀬建設Ｉ‐１Ｆ,00124418,46,201,8900075,,,,,,,2021-10-04,1,,,,,ヒガシケンチク,0
1555,5360001029444,新規,0,2021-10-04,2021-10-04,株式会社Ｚ,,株式会社,沖縄県,うるま市,石川１丁目５０－３９石橋ビル３０２,,47,213,9041106,,,,,,,2021-10-04,1,,,,,ゼット,0
1558,5370005010358,新規,0,2021-10-04,2021-10-04,農事組合法人志津農楽,,その他の設立登記法人,宮城県,加美郡色麻町,志津字川前２６番地,,04,444,9814112,,,,,,,2021-10-04,1,,,,,,0
1575,5430005014303,新規,0,2021-10-04,2021-10-04,医療法人社団Ｄｏ－Ｃｌｉｎｉｃ整形・運動器リハビリテーション,,その他の設立登記法人,北海道,札幌市中央区,南一条西１４丁目２９１番地８１ウィステリア南１条ビル３Ｆ,,01,101,0600061,,,,,,,2021-10-04,1,,,,,ドゥークリニックセイケイウンドウキリハビリテーション,0
1577,5460003000863,新規,0,2021-10-04,2021-10-04,ＭＩパートナーズ合同会社,,合同会社,北海道,釧路市,文苑１丁目４１番１１号,,01,206,0850063,,,,,,,2021-10-04,1,,,,,エムアイパートナーズ,0
1578,5460301005011,新規,0,2021-10-04,2021-10-04,株式会社ワタナベ,,株式会社,北海道,北見市,美芳町１丁目４番３号,,01,208,0900064,,,,,,,2021-10-04,1,,,,,ワタナベ,0
1581,5490001010011,新規,0,2021-10-04,2021-10-04,株式会社つなぐＨｏｍｅ,,株式会社,高知県,高知市,梅ノ辻７番１６号,,39,201,7808011,,,,,,,2021-10-04,1,,,,,ツナグホーム,0
1583,5700150105011,新規,0,2021-10-04,2021-10-04,ＭＥＲＣＩ　ＥＮＴＥＲＰＲＩＳＥＳ,,外国会社等,千葉県,山武市,川崎１４８－７,,12,237,2891331,スリランカ民主社会主義共和国、Ｎｏ．１４０Ｃ、クルンドゥガハエラ、アムバテンナ,,,,,,2021-10-04,1,,,,,メルシーエンタープライゼス,0
1584,5700150105028,新規,0,2021-10-04,2021-10-04,ＡＵＴＯＭＯＴＩＶＥ　ＥＸＰＥＲＴＳ,,外国会社等,千葉県,山武市,松ヶ谷ロ３２１９松ヶ谷オフィス４,,12,237,2891303,スリランカ民主社会主義共和国、アクラナ、テランバガハワッタ、Ｎｏ：１０Ｃ,,,,,,2021-10-04,1,,,,,オートモーテイブエキスパーツ,0
1596,6010101014883,新規,0,2021-10-04,2021-10-04,株式会社崔内装,,株式会社,東京都,八王子市,大和田町２丁目１番１７－１０５号,,13,201,1920045,,,,,,,2021-10-04,1,,,,,サイナイソウ,0
1597,6010103001780,新規,0,2021-10-04,2021-10-04,合同会社多羅葉,,合同会社,東京都,八王子市,長沼町１３４番地３３４（１０３号室）,,13,201,1920907,,,,,,,2021-10-04,1,,,,,タラヨウ,0
1614,6010501047888,新規,0,2021-10-04,2021-10-04,株式会社なないろ,,株式会社,東京都,台東区,雷門２丁目４番１号ＲＡＩＤ浅草雷門５Ｆ,,13,106,1110034,,,,,,,2021-10-04,1,,,,,ナナイロ,0
1615,6010505003268,新規,0,2021-10-04,2021-10-04,あしたの会計事務所税理士法人,,その他の設立登記法人,東京都,台東区,台東４丁目１３番２０号,,13,106,1100016,,,,,,,2021-10-04,1,,,,,アシタノカイケイジムショ,0
1619,6010701041600,新規,0,2021-10-04,2021-10-04,ｉＪＥＸ株式会社,,株式会社,東京都,品川区,大崎４丁目２－４４,,13,109,1410032,,,,,,,2021-10-04,1,,,,,アイジェックス,0
1629,6010901049542,新規,0,2021-10-04,2021-10-04,株式会社サニー,,株式会社,東京都,世田谷区,東玉川２丁目１番１２号,,13,112,1580084,,,,,,,2021-10-04,1,,,,,サニー,0
1633,6011001143095,新規,0,2021-10-04,2021-10-04,株式会社Ｎｏｔｉｃｅ,,株式会社,東京都,渋谷区,広尾１丁目１３番５－９０３号,,13,113,1500012,,,,,,,2021-10-04,1,,,,,ノーティス,0
1634,6011001143129,新規,0,2021-10-04,2021-10-04,株式会社クレデウス,,株式会社,東京都,目黒区,大橋２丁目１６番２９号,,13,110,1530044,,,,,,,2021-10-04,1,,,,,クレデウス,0
1635,6011003013362,新規,0,2021-10-04,2021-10-04,くすのき合同会社,,合同会社,東京都,目黒区,大橋１丁目５番１号,,13,110,1530044,,,,,,,2021-10-04,1,,,,,クスノキ,0
1636,6011003013429,新規,0,2021-10-04,2021-10-04,合同会社ＫＤＯ,,合同会社,東京都,渋谷区,神宮前６丁目２３番４号桑野ビル２階,,13,113,1500001,,,,,,,2021-10-04,1,,,,,ケーディーオー,0
1637,6011003013445,新規,0,2021-10-04,2021-10-04,イングリッシュラボ合同会社,,合同会社,東京都,目黒区,自由が丘２丁目１６番１２号ＬＣ１Ｆ,,13,110,1520035,,,,,,,2021-10-04,1,,,,,イングリッシュラボ,0
1638,6011003013478,新規,0,2021-10-04,2021-10-04,合同会社ＧＰプランニング,,合同会社,東京都,目黒区,東山３丁目１２番１号,,13,110,1530043,,,,,,,2021-10-04,1,,,,,ジーピープランニング,0
1646,6011401023707,新規,0,2021-10-04,2021-10-04,株式会社ＵＴＡＮ　ＨＯＵＳＥ,,株式会社,東京都,板橋区,西台２丁目４１番１３号,,13,119,1750045,,,,,,,2021-10-04,1,,,,,ウータンハウス,0
1647,6011401023715,新規,0,2021-10-04,2021-10-04,ＢＷコンサルティング株式会社,,株式会社,東京都,板橋区,上板橋１丁目１２番１３号,,13,119,1740076,,,,,,,2021-10-04,1,,,,,ビーダブリューコンサルティング,0
1657,6011801039773,新規,0,2021-10-04,2021-10-04,株式会社ＣＯＩＳＩ,,株式会社,東京都,葛飾区,青戸７丁目２３番１１号,,13,122,1250062,,,,,,,2021-10-04,1,,,,,コイシ,0
1658,6011803004800,新規,0,2021-10-04,2021-10-04,合同会社組屋,,合同会社,東京都,足立区,西伊興３丁目２番２号,,13,121,1210824,,,,,,,2021-10-04,1,,,,,クミヤ,0
1659,6012403005032,新規,0,2021-10-04,2021-10-04,Ｊｏｕｒｎｅｙ　Ｊｕｎｃｔｉｏｎ合同会社,,合同会社,東京都,調布市,緑ケ丘２丁目２５番地２５－１０８号,,13,208,1820001,,,,,,,2021-10-04,1,,,,,ジャーニージャンクション,0
1667,6020001143212,新規,0,2021-10-04,2021-10-04,株式会社ＭＯＫ　ＯＦＦＩＣＥ,,株式会社,神奈川県,横浜市都筑区,勝田南１丁目１６番２６号,,14,118,2240036,,,,,,,2021-10-04,1,,,,,モックオフィス,0
1669,6020003020574,新規,0,2021-10-04,2021-10-04,合同会社ＰｕｒａＶｉｄａ,,合同会社,神奈川県,川崎市川崎区,旭町１丁目６番２号豊田ビル３０２,,14,131,2100808,,,,,,,2021-10-04,1,,,,,プラビダ,0
1670,6020003020582,新規,0,2021-10-04,2021-10-04,合同会社うかい薬局,,合同会社,神奈川県,横浜市鶴見区,仲通２丁目６９番５号,,14,101,2300042,,,,,,,2021-10-04,1,,,,,ウカイヤッキョク,0
1678,6021003010945,新規,0,2021-10-04,2021-10-04,合同会社やどり木,,合同会社,神奈川県,相模原市中央区,並木２丁目４番３１号コスモパレス並木２０２,,14,152,2520228,,,,,,,2021-10-04,1,,,,,ヤドリギ,0
1680,6030001144580,新規,0,2021-10-04,2021-10-04,株式会社ＨＥＡＲＴＳ,,株式会社,埼玉県,さいたま市緑区,美園１丁目３７番５号,,11,109,3360967,,,,,,,2021-10-04,1,,,,,ハーツ,0
1687,6040001120358,新規,0,2021-10-04,2021-10-04,株式会社Ｇａｓｐａｒ＆Ｏａｋｍｏｎｔ,,株式会社,千葉県,東金市,川場７８２番地１,,12,213,2830064,,,,,,,2021-10-04,1,,,,,ギャスパーアンドオークモント,0
1688,6040001120366,新規,0,2021-10-04,2021-10-04,株式会社ワイティ,,株式会社,千葉県,船橋市,湊町３丁目２３番１２号,,12,204,2730011,,,,,,,2021-10-04,1,,,,,ワイティ,0
1689,6040001120374,新規,0,2021-10-04,2021-10-04,株式会社ケインズアイホールディングス,,株式会社,千葉県,千葉市中央区,問屋町１番３５号,,12,101,2600025,,,,,,,2021-10-04,1,,,,,ケインズアイホールディングス,0
1700,6050003006109,新規,0,2021-10-04,2021-10-04,合同会社Ｓｍｉｌｅ　Ｌｉｎｋ,,合同会社,茨城県,つくば市,並木３丁目２３番地２４アーバンカーサーＢ棟１０１号,,08,220,3050044,,,,,,,2021-10-04,1,,,,,スマイルリンク,0
1701,6050005012947,新規,0,2021-10-04,2021-10-04,一般社団法人ＥＸＯＮ,,その他の設立登記法人,茨城県,水戸市,中丸町５７５番地の７,,08,201,3114146,,,,,,,2021-10-04,1,,,,,エクオン,0
1703,6060001034127,新規,0,2021-10-04,2021-10-04,株式会社ＪＧＨ,,株式会社,栃木県,下野市,医大前４丁目１番地１ポレスター自治医大駅前６１１号,,09,216,3290403,,,,,,,2021-10-04,1,,,,,ジェージーエイチ,0
1704,6060001034135,新規,0,2021-10-04,2021-10-04,株式会社Ｂｅｒｒｙ　Ｆａｒｍ　ＹＡＮＡＳＥ,,株式会社,栃木県,鹿沼市,坂田山１丁目７２,,09,205,3220069,,,,,,,2021-10-04,1,,,,,ベリーファームヤナセ,0
1707,6080001024464,新規,0,2021-10-04,2021-10-04,株式会社ＡＮＴＩＤＯＴＥ,,株式会社,静岡県,静岡市葵区,伝馬町９番地の１３,,22,101,4200858,,,,,,,2021-10-04,1,,,,,アンティドート,0
1708,6080001024480,新規,0,2021-10-04,2021-10-04,株式会社ヤマユー,,株式会社,静岡県,静岡市葵区,北５丁目２８番３９号,,22,101,4200961,,,,,,,2021-10-04,1,,,,,ヤマユー,0
1711,6080401025401,新規,0,2021-10-04,2021-10-04,浜松特殊車輌株式会社,,株式会社,静岡県,浜松市浜北区,中条４７５番地の２,,22,136,4340043,,,,,,,2021-10-04,1,,,,,ハママツトクシュシャリョウ,0
1713,6080403004378,新規,0,2021-10-04,2021-10-04,合同会社亀屋マネジメント,,合同会社,静岡県,磐田市,加茂１４０番地１,,22,211,4380804,,,,,,,2021-10-04,1,,,,,カメヤマネジメント,0
1715,6090001017211,新規,0,2021-10-04,2021-10-04,株式会社ハーベストキャンプ,,株式会社,山梨県,南都留郡富士河口湖町,長浜２３１１番地,,19,430,4010331,,,,,,,2021-10-04,1,,,,,ハーベストキャンプ,0
1717,6100001034650,新規,0,2021-10-04,2021-10-04,株式会社ＢＥＮＩ　ＤＥＬＬＡ　ＮＡＴＵＲＡ,,株式会社,長野県,茅野市,米沢３０２９番地３,,20,214,3910216,,,,,,,2021-10-04,1,,,,,ベーネデッラナトゥーラ,0
1725,6110003004592,新規,0,2021-10-04,2021-10-04,合同会社ミュアレーシー,,合同会社,新潟県,新潟市中央区,本町通１２番町２７４５番地,,15,103,9518067,,,,,,,2021-10-04,1,,,,,ミュアレーシー,0
1726,6110005016719,新規,0,2021-10-04,2021-10-04,日本海アジアンブリッジ事業協同組合,,その他の設立登記法人,新潟県,新潟市中央区,古町通２番町５３８番地２愛宕古町ビル２Ｆ,,15,103,9518063,,,,,,,2021-10-04,1,,,,,ニホンカイアジアンブリッジ,0
1735,6120003020333,新規,0,2021-10-04,2021-10-04,合同会社Ｗ,,合同会社,大阪府,大阪市北区,茶屋町４番２号３階,,27,127,5300013,,,,,,,2021-10-04,1,,,,,ダブリュー,0
1743,6120103004376,新規,0,2021-10-04,2021-10-04,合同会社天神,,合同会社,大阪府,堺市南区,畑１９１６番地,,27,145,5900124,,,,,,,2021-10-04,1,,,,,テンジン,0
1744,6120901044978,新規,0,2021-10-04,2021-10-04,株式会社ＢＬＵＥ　ＴＥＣ,,株式会社,大阪府,摂津市,鳥飼下３丁目７番２０号,,27,224,5660071,,,,,,,2021-10-04,1,,,,,ブルーテック,0
1749,6122001035230,新規,0,2021-10-04,2021-10-04,株式会社クリエイト,,株式会社,大阪府,東大阪市,菱屋東３丁目７番１７号,,27,227,5780948,,,,,,,2021-10-04,1,,,,,クリエイト,0
1753,6130001070230,新規,0,2021-10-04,2021-10-04,株式会社ニシムラボ,,株式会社,京都府,京都市中京区,間之町通御池下る綿屋町５２８番地烏丸エルビル１１０１,,26,104,6048181,,,,,,,2021-10-04,1,,,,,ニシムラボ,0
1754,6130001070239,新規,0,2021-10-04,2021-10-04,株式会社アクタス,,株式会社,京都府,京都市北区,上賀茂神山４６番地,,26,101,6038002,,,,,,,2021-10-04,1,,,,,アクタス,0
1759,6130003007511,新規,0,2021-10-04,2021-10-04,合同会社チャイミー,,合同会社,京都府,木津川市,梅美台７丁目５番地５２,,26,214,6190215,,,,,,,2021-10-04,1,,,,,チャイミー,0
1764,6140001123210,新規,0,2021-10-04,2021-10-04,アン・シャーリー株式会社,,株式会社,兵庫県,宝塚市,武庫川町３番１５号,,28,214,6650844,,,,,,,2021-10-04,1,,,,,アンシャーリー,0
1765,6140001123219,新規,0,2021-10-04,2021-10-04,株式会社ＷＯＯＬ,,株式会社,兵庫県,神戸市中央区,磯上通８丁目１番２９号カサベラビルＣ＆Ｍ４０３号室,,28,110,6510086,,,,,,,2021-10-04,1,,,,,ウール,0
1766,6140001123235,新規,0,2021-10-04,2021-10-04,株式会社Ｍａ．Ｌｉｂｒｅ,,株式会社,兵庫県,川西市,見野１丁目１６－１６－３,,28,217,6660105,,,,,,,2021-10-04,1,,,,,マリブレ,0
1767,6140001123243,新規,0,2021-10-04,2021-10-04,株式会社ＲＥＤホールディングス,,株式会社,兵庫県,神戸市垂水区,王居殿３丁目２３番２２号,,28,108,6550883,,,,,,,2021-10-04,1,,,,,アールイーディーホールディングス,0
1768,6140003016791,新規,0,2021-10-04,2021-10-04,合同会社Ｆｒａｇｒａｎｔ,,合同会社,兵庫県,神戸市長田区,水笠通６丁目５番５号,,28,106,6530842,,,,,,,2021-10-04,1,,,,,フレグランツ,0
1771,6160001023689,新規,0,2021-10-04,2021-10-04,株式会社ひらまつ,,株式会社,滋賀県,大津市,秋葉台１８番２６号,,25,201,5200822,,,,,,,2021-10-04,1,,,,,ヒラマツ,0
1774,6170003001642,新規,0,2021-10-04,2021-10-04,合同会社澤田農園,,合同会社,和歌山県,田辺市,稲成町２３８２番地の２３,,30,206,6460051,,,,,,,2021-10-04,1,,,,,サワダノウエン,0
1786,6180001148014,新規,0,2021-10-04,2021-10-04,株式会社建掃,,株式会社,愛知県,名古屋市昭和区,狭間町３２番地の１ビラ三秀鶴舞２０９号,,23,107,4660062,,,,,,,2021-10-04,1,,,,,ケンソウ,0
1787,6180001148022,新規,0,2021-10-04,2021-10-04,株式会社ｊｏｕｒｎｅｙ,,株式会社,愛知県,日進市,赤池２丁目３０６番地２０３,,23,230,4700125,,,,,,,2021-10-04,1,,,,,ジャーニー,0
1788,6180001148039,新規,0,2021-10-04,2021-10-04,株式会社うみのみえるサロン,,株式会社,愛知県,知多市,南粕谷本町４丁目２２８番地,,23,224,4780025,,,,,,,2021-10-04,1,,,,,ウミノミエルサロン,0
1794,6180003023025,新規,0,2021-10-04,2021-10-04,合同会社Ｏｎｅｄａｙ,,合同会社,愛知県,瀬戸市,北松山町２丁目２３８番地の２１,,23,204,4890911,,,,,,,2021-10-04,1,,,,,ワンデイ,0
1799,6180301035424,新規,0,2021-10-04,2021-10-04,株式会社ＭＡＳＴ,,株式会社,愛知県,豊田市,栄町３丁目３８番地２,,23,211,4710066,,,,,,,2021-10-04,1,,,,,マスト,0
1800,6180301035465,新規,0,2021-10-04,2021-10-04,株式会社プラスアルファ,,株式会社,愛知県,岡崎市,伊賀町字２丁目１３番地稲垣ビル１階,,23,202,4440075,,,,,,,2021-10-04,1,,,,,プラスアルファ,0
1802,6190001028727,新規,0,2021-10-04,2021-10-04,アライアンス物流株式会社,,株式会社,三重県,津市,安濃町安濃２１８５番地４,,24,201,5142302,,,,,,,2021-10-04,1,,,,,アライアンスブツリュウ,0
1807,6200001039210,新規,0,2021-10-04,2021-10-04,宏重量機工株式会社,,株式会社,岐阜県,岐阜市,常盤町１８番地,,21,201,5008058,,,,,,,2021-10-04,1,,,,,ヒロジュウリョウキコウ,0
1808,6200001039251,新規,0,2021-10-04,2021-10-04,株式会社戸田建工,,株式会社,岐阜県,岐阜市,森東４８番地１,,21,201,5012533,,,,,,,2021-10-04,1,,,,,トダケンコウ,0
1809,6200003005334,新規,0,2021-10-04,2021-10-04,合同会社ＷｅｉＢ,,合同会社,岐阜県,安八郡安八町,大野２７８,,21,383,5030128,,,,,,,2021-10-04,1,,,,,ヴァイス,0
1811,6220001024458,新規,0,2021-10-04,2021-10-04,株式会社Ｌｕａ,,株式会社,石川県,白山市,富光寺町１８６番地,,17,210,9202165,,,,,,,2021-10-04,1,,,,,ルア,0
1812,6220005008597,新規,0,2021-10-04,2021-10-04,一般社団法人笑顔,,その他の設立登記法人,石川県,白山市,千代野東４丁目１３番地３,,17,210,9240073,,,,,,,2021-10-04,1,,,,,エガオ,0
1816,6240001058685,新規,0,2021-10-04,2021-10-04,株式会社テクニカルライフ,,株式会社,広島県,広島市安佐南区,緑井６丁目２６番８号,,34,105,7310103,,,,,,,2021-10-04,1,,,,,テクニカルライフ,0
1817,6240001058727,新規,0,2021-10-04,2021-10-04,株式会社岡田通商,,株式会社,広島県,安芸高田市,八千代町下根３２５１番地１,,34,214,7310304,,,,,,,2021-10-04,1,,,,,オカダツウショウ,0
1822,6260001036020,新規,0,2021-10-04,2021-10-04,株式会社伊成総業,,株式会社,岡山県,倉敷市,児島柳田町５２９番地５６,,33,202,7110936,,,,,,,2021-10-04,1,,,,,イセイソウギョウ,0
1824,6260003003687,新規,0,2021-10-04,2021-10-04,ゴールデンクロス合同会社,,合同会社,岡山県,総社市,井手５８４番地５,,33,208,7191125,,,,,,,2021-10-04,1,,,,,ゴールデンクロス,0
1828,6280003001540,新規,0,2021-10-04,2021-10-04,合同会社菓子処みなと,,合同会社,島根県,江津市,都野津町２０１４－１,,32,207,6950021,,,,,,,2021-10-04,1,,,,,カシドコロミナト,0
1841,6310001017502,新規,0,2021-10-04,2021-10-04,株式会社Ｌｉａ－ｌａｂ,,株式会社,長崎県,長崎市,元船町１５番３号長洋ビル１０３,,42,201,8500035,,,,,,,2021-10-04,1,,,,,リアラボ,0
1844,6320003003623,新規,0,2021-10-04,2021-10-04,ｇｌｏｗｕｐ‐ｃａｒｓ合同会社,,合同会社,大分県,大分市,大字三佐１２７８番地の３,,44,201,8700108,,,,,,,2021-10-04,1,,,,,グロウアップカーズ,0
1848,6330001029017,新規,0,2021-10-04,2021-10-04,株式会社エスキュービック,,株式会社,熊本県,熊本市中央区,下通２丁目３番１号,,43,101,8600807,,,,,,,2021-10-04,1,,,,,エスキュービック,0
1850,6340001024132,新規,0,2021-10-04,2021-10-04,ｉＤＳ株式会社,,株式会社,鹿児島県,鹿児島市,山田町４１４番地１　１０３号,,46,201,8910104,,,,,,,2021-10-04,1,,,,,アイディーエス,0
1851,6350001017325,新規,0,2021-10-04,2021-10-04,原川住研株式会社,,株式会社,宮崎県,宮崎市,清武町今泉丙２１８０番地１１,,45,201,8891602,,,,,,,2021-10-04,1,,,,,ハラカワジュウケン,0
1853,6350003003934,新規,0,2021-10-04,2021-10-04,合同会社オクトモ,,合同会社,宮崎県,宮崎市,大塚町田淵ケ原４０３３番地４,,45,201,8800951,,,,,,,2021-10-04,1,,,,,オクトモ,0
1856,6360001029435,新規,0,2021-10-04,2021-10-04,株式会社インターゲート,,株式会社,沖縄県,那覇市,泊２丁目１番地１８Ｔ＆Ｃ泊ビル５階１１６,,47,201,9000012,,,,,,,2021-10-04,1,,,,,インターゲート,0
1862,6380001032230,新規,0,2021-10-04,2021-10-04,株式会社グリーンイノベーション,,株式会社,福島県,福島市,清明町１番１０号ロイヤルレジデンス２号棟４０１,,07,201,9608062,,,,,,,2021-10-04,1,,,,,,0
1883,6430003013207,新規,0,2021-10-04,2021-10-04,札幌交易合同会社,,合同会社,北海道,恵庭市,中島町６丁目１７番地７,,01,231,0611435,,,,,,,2021-10-04,1,,,,,サッポロコウエキ,0
1884,6430005014302,新規,0,2021-10-04,2021-10-04,医療法人ちむ歯科,,その他の設立登記法人,北海道,札幌市東区,北二十二条東１６丁目１番５号レヴァンテ元町１階,,01,103,0650022,,,,,,,2021-10-04,1,,,,,チムシカ,0
1886,6450001013495,新規,0,2021-10-04,2021-10-04,株式会社ＡＲＣＩＯＮ．,,株式会社,北海道,旭川市,豊岡十二条３丁目４番１３号アークシティ旭川１Ｆ,,01,204,0788242,,,,,,,2021-10-04,1,,,,,,0
1893,6470001018732,新規,0,2021-10-04,2021-10-04,株式会社Ｒｕｎ　ＵＰ,,株式会社,香川県,高松市,田村町１０９３－２,,37,201,7618057,,,,,,,2021-10-04,1,,,,,ランアップ,0
1894,6470001018740,新規,0,2021-10-04,2021-10-04,株式会社建屋工務店,,株式会社,香川県,三豊市,高瀬町上勝間１３７０番地１,,37,208,7670012,,,,,,,2021-10-04,1,,,,,タテヤコウムテン,0
1898,6490001010002,新規,0,2021-10-04,2021-10-04,株式会社ＪＢＯＵＮＤ,,株式会社,高知県,四万十市,中村栄町２７番地野村ビル３Ｆ３０１号,,39,210,7870032,,,,,,,2021-10-04,1,,,,,ジェイバウンド,0
1900,6500001023712,新規,0,2021-10-04,2021-10-04,株式会社Ｌｅａｐｗｉｔｈ,,株式会社,愛媛県,松山市,和泉北１丁目１６番２３号,,38,201,7900038,,,,,,,2021-10-04,1,,,,,リープウィズ,0
1902,6700150104986,新規,0,2021-10-04,2021-10-04,ＮＥＷ　ＷＯＲＬＤ　ＥＮＴＥＲＰＲＩＳＥＳ,,外国会社等,千葉県,山武市,小松１５６０番地６オフィスＣ,,12,237,2891302,スリランカ民主社会主義共和国、アクラナ、ドダンゴラ、８８１－Ｃ,,,,,,2021-10-04,1,,,,,ニユーワールドエンタープライセス,0
1926,7010501047879,新規,0,2021-10-04,2021-10-04,株式会社ナチュラルボディ,,株式会社,東京都,台東区,小島１丁目１５番１１－１２０３号,,13,106,1110056,,,,,,,2021-10-04,1,,,,,ナチュラルボディ,0
1927,7010501047887,新規,0,2021-10-04,2021-10-04,株式会社ファクティオ,,株式会社,東京都,台東区,柳橋２丁目１番９号,,13,106,1110052,,,,,,,2021-10-04,1,,,,,ファクティオ,0
1930,7010701041566,新規,0,2021-10-04,2021-10-04,株式会社ＢＥＮＴＯ,,株式会社,東京都,品川区,小山６丁目２１番１１－８０２号,,13,109,1420062,,,,,,,2021-10-04,1,,,,,ベントー,0
1931,7010701041599,新規,0,2021-10-04,2021-10-04,株式会社ＯＳＥＲＳ,,株式会社,東京都,品川区,旗の台３丁目１５－１ツバセスＰＡＲＴ９－３３０号室,,13,109,1420064,,,,,,,2021-10-04,1,,,,,オスアーズ,0
1934,7010803003893,新規,0,2021-10-04,2021-10-04,合同会社ターボー,,合同会社,東京都,大田区,東嶺町３４番１０号,,13,111,1450074,,,,,,,2021-10-04,1,,,,,ターボー,0
1946,7011001143094,新規,0,2021-10-04,2021-10-04,グレースクレスト株式会社,,株式会社,東京都,目黒区,目黒４丁目６番２３号,,13,110,1530063,,,,,,,2021-10-04,1,,,,,グレースクレスト,0
1947,7011001143169,新規,0,2021-10-04,2021-10-04,ｔａｒａｒｉａ株式会社,,株式会社,東京都,渋谷区,桜丘町１７番１２号渋谷ジョンソンビル４０１,,13,113,1500031,,,,,,,2021-10-04,1,,,,,タラリア,0
1948,7011001143177,新規,0,2021-10-04,2021-10-04,株式会社ＹＯＲＩＳＯＵ,,株式会社,東京都,渋谷区,千駄ヶ谷４丁目２９番１２号北参道ダイヤモンドパレス２０８号室,,13,113,1510051,,,,,,,2021-10-04,1,,,,,ヨリソウ,0
1950,7011003013452,新規,0,2021-10-04,2021-10-04,ＣＯＶＥＲＳ　ＴＯＫＹＯ合同会社,,合同会社,東京都,渋谷区,恵比寿南２丁目９番８号落合荘苑ビル５Ａ,,13,113,1500022,,,,,,,2021-10-04,1,,,,,カバーズトウキョウ,0
1951,7011003013469,新規,0,2021-10-04,2021-10-04,デジタルデベロッパー合同会社,,合同会社,東京都,渋谷区,神宮前６丁目２３番４号桑野ビル２階,,13,113,1500001,,,,,,,2021-10-04,1,,,,,デジタルデベロッパー,0
1952,7011003013477,新規,0,2021-10-04,2021-10-04,合同会社クルーシブル,,合同会社,東京都,渋谷区,渋谷１丁目１０番６号２Ｆ,,13,113,1500002,,,,,,,2021-10-04,1,,,,,クルーシブル,0
1958,7011301027212,新規,0,2021-10-04,2021-10-04,株式会社Ａｓｐｉｄａ,,株式会社,東京都,杉並区,浜田山３丁目１０－９,,13,115,1680065,,,,,,,2021-10-04,1,,,,,アスピダ,0
1961,7011501027342,新規,0,2021-10-04,2021-10-04,株式会社Ｒｅｇａｌｏ　Ｉｎｃ．,,株式会社,東京都,荒川区,西日暮里２丁目２５番１－１１２１号ステーションガーデンタワー,,13,118,1160013,,,,,,,2021-10-04,1,,,,,レガーロインク,0
1965,7011801039764,新規,0,2021-10-04,2021-10-04,株式会社ＳＡＴＯＭＩ　ＩＴＯ,,株式会社,東京都,葛飾区,堀切２丁目１６番７－３０１号,,13,122,1240006,,,,,,,2021-10-04,1,,,,,サトミイトウ,0
1967,7011803004799,新規,0,2021-10-04,2021-10-04,合同会社堀切管財,,合同会社,東京都,葛飾区,堀切２丁目４１番１１号,,13,122,1240006,,,,,,,2021-10-04,1,,,,,ホリキリカンザイ,0
1968,7011803004808,新規,0,2021-10-04,2021-10-04,合同会社第五星ビル,,合同会社,東京都,足立区,綾瀬２丁目２５番７号第五星ビルフェミナ綾瀬９０１,,13,121,1200005,,,,,,,2021-10-04,1,,,,,ダイゴホシビル,0
1970,7012801021118,新規,0,2021-10-04,2021-10-04,株式会社Ｎ．Ｓｃａ　Ｓｙｓｔｅｍ　ｓｅｒｖｉｃｅ,,株式会社,東京都,日野市,大字日野１６２２番地の２－１０１,,13,212,1910012,,,,,,,2021-10-04,1,,,,,エヌエスシーエーシステムサービス,0
1974,7013301048080,新規,0,2021-10-04,2021-10-04,株式会社ＴＲＡＸ,,株式会社,東京都,豊島区,南池袋２丁目３０番８号友泉南池袋ビル８Ｆ,,13,116,1710022,,,,,,,2021-10-04,1,,,,,トラックス,0
1985,7020001143244,新規,0,2021-10-04,2021-10-04,株式会社エースポーター,,株式会社,神奈川県,川崎市麻生区,王禅寺東６丁目７番３１号,,14,137,2150018,,,,,,,2021-10-04,1,,,,,エースポーター,0
1986,7020001143260,新規,0,2021-10-04,2021-10-04,ＵＬＵ　ＧＡＭＥＳ　ＪＡＰＡＮ株式会社,,株式会社,神奈川県,川崎市幸区,中幸町３丁目３１番地２,,14,132,2120012,,,,,,,2021-10-04,1,,,,,ウルゲームスジャパン,0
1987,7020001143269,新規,0,2021-10-04,2021-10-04,ミンナニアウシャフト株式会社,,株式会社,神奈川県,横浜市青葉区,荏田西２丁目２２番地３２,,14,117,2250014,,,,,,,2021-10-04,1,,,,,ミンナニアウシャフト,0
1988,7020003020524,新規,0,2021-10-04,2021-10-04,オルウェイズ合同会社,,合同会社,神奈川県,横浜市神奈川区,片倉４丁目２４番３号プレミアムヒルズ横浜片倉１１１号室,,14,102,2210865,,,,,,,2021-10-04,1,,,,,オルウェイズ,0
1989,7020003020573,新規,0,2021-10-04,2021-10-04,吉澤屋合同会社,,合同会社,神奈川県,川崎市高津区,溝口１丁目９番７号長谷川ビル５階,,14,134,2130001,,,,,,,2021-10-04,1,,,,,ヨシザワヤ,0
1990,7020003020581,新規,0,2021-10-04,2021-10-04,山平テック合同会社,,合同会社,神奈川県,川崎市川崎区,宮本町８番地１２ＭＡＣ川崎コートＩＩ６０３号室,00124416,14,131,2100004,,,,,,,2021-10-04,1,,,,,サンヘイテック,0
1993,7021003010952,新規,0,2021-10-04,2021-10-04,合同会社Ｗａｎｔ　ｔｏ,,合同会社,神奈川県,綾瀬市,小園南２丁目２５－１１,,14,218,2521122,,,,,,,2021-10-04,1,,,,,ウォントトゥ,0
1996,7030001144497,新規,0,2021-10-04,2021-10-04,株式会社ちんばた,,株式会社,埼玉県,秩父市,大宮５９１９番地,,11,207,3680023,,,,,,,2021-10-04,1,,,,,チンバタ,0
1998,7040001120357,新規,0,2021-10-04,2021-10-04,株式会社ウォーターメロン,,株式会社,千葉県,松戸市,本町１７番地の１１芹澤ビル６階,,12,207,2710091,,,,,,,2021-10-04,1,,,,,ウォーターメロン,0
2006,7070001038497,新規,0,2021-10-04,2021-10-04,株式会社ＲＹ,,株式会社,群馬県,高崎市,新町１２３１番地２１,,10,202,3701301,,,,,,,2021-10-04,1,,,,,アールワイ,0
2007,7080001024463,新規,0,2021-10-04,2021-10-04,株式会社ナレッジ・アイ,,株式会社,静岡県,静岡市駿河区,広野３丁目２０番１５号,,22,102,4210121,,,,,,,2021-10-04,1,,,,,ナレッジアイ,0
2008,7080001024471,新規,0,2021-10-04,2021-10-04,株式会社あおい装飾,,株式会社,静岡県,静岡市葵区,川合２丁目６番５号,,22,101,4200923,,,,,,,2021-10-04,1,,,,,アオイソウショク,0
2009,7080005007398,新規,0,2021-10-04,2021-10-04,一般社団法人南アルプスクラブ,,その他の設立登記法人,静岡県,榛原郡川根本町,千頭２７０－３南アルプス山岳図書館内,,22,429,4280411,,,,,,,2021-10-04,1,,,,,ミナミアルプスクラブ,0
2011,7080401025375,新規,0,2021-10-04,2021-10-04,株式会社Ａｉｒ’ｓＫ,,株式会社,静岡県,浜松市浜北区,染地台３丁目７番１９号,,22,136,4340046,,,,,,,2021-10-04,1,,,,,エアーズケイ,0
2012,7080401025383,新規,0,2021-10-04,2021-10-04,株式会社ハマメイ,,株式会社,静岡県,浜松市南区,小沢渡町２２７番地の２,,22,134,4328063,,,,,,,2021-10-04,1,,,,,ハマメイ,0
2013,7090003001963,新規,0,2021-10-04,2021-10-04,合同会社はなの郷,,合同会社,山梨県,中央市,木原１３６８番地,,19,214,4001511,,,,,,,2021-10-04,1,,,,,,0
2033,7120001240551,新規,0,2021-10-04,2021-10-04,株式会社フロット,,株式会社,大阪府,大阪市浪速区,日本橋西１丁目８番２１－１１０３号,,27,111,5560004,,,,,,,2021-10-04,1,,,,,フロット,0
2034,7120001240790,新規,0,2021-10-04,2021-10-04,株式会社ＢＥＹＯＮＤ,,株式会社,大阪府,大阪市北区,芝田２丁目８番１１号,,27,127,5300012,,,,,,,2021-10-04,1,,,,,ビヨンド,0
2035,7120001240808,新規,0,2021-10-04,2021-10-04,株式会社ＴＯＫＵＳＨＩＮ　ＰＲＩＭＥ,,株式会社,大阪府,大阪市生野区,巽南２丁目３番２７号,00124414,27,116,5440015,,,,,,,2021-10-04,1,,,,,トクシンプライム,0
2036,7120001240816,新規,0,2021-10-04,2021-10-04,株式会社日本橋不動産管理,,株式会社,大阪府,大阪市浪速区,日本橋東２丁目９番１６号７階,,27,111,5560006,,,,,,,2021-10-04,1,,,,,ニッポンバシフドウサンカンリ,0
2041,7120005022525,新規,0,2021-10-04,2021-10-04,一般社団法人ＮＥＸＴＯＲＹ,,その他の設立登記法人,大阪府,大阪市北区,豊崎１丁目７番１０号,,27,127,5310072,,,,,,,2021-10-04,1,,,,,ネクストリー,0
2047,7120101064438,新規,0,2021-10-04,2021-10-04,株式会社ワイズガーデン,,株式会社,大阪府,河内長野市,原町３丁目８番１０号,,27,216,5860021,,,,,,,2021-10-04,1,,,,,ワイズガーデン,0
2048,7120103004367,新規,0,2021-10-04,2021-10-04,合同会社ＯＫＯ,,合同会社,大阪府,堺市中区,堀上町３１７番地５,,27,142,5998261,,,,,,,2021-10-04,1,,,,,オコ,0
2058,7122001035246,新規,0,2021-10-04,2021-10-04,株式会社ＡＪＭ,,株式会社,大阪府,東大阪市,立花町１番２６号,,27,227,5798023,,,,,,,2021-10-04,1,,,,,エージェーエム,0
2068,7130001070246,新規,0,2021-10-04,2021-10-04,株式会社ＡＳＡＲＯＯＴ,,株式会社,京都府,京田辺市,東古森３番地１,,26,211,6100362,,,,,,,2021-10-04,1,,,,,アサルート,0
2069,7130003007519,新規,0,2021-10-04,2021-10-04,合同会社ＤＸ　Ｕｎｉｔ,,合同会社,京都府,京都市伏見区,東朱雀町９４１－１,,26,109,6128326,,,,,,,2021-10-04,1,,,,,ディーエックスユニット,0
2081,7140001123192,新規,0,2021-10-04,2021-10-04,株式会社ルガール,,株式会社,兵庫県,姫路市,岡田６４０番地８,,28,201,6700982,,,,,,,2021-10-04,1,,,,,ルガール,0
2082,7140001123218,新規,0,2021-10-04,2021-10-04,株式会社吉成組,,株式会社,兵庫県,明石市,北王子町８番６号,,28,203,6730021,,,,,,,2021-10-04,1,,,,,ヨシナリグミ,0
2085,7140003016799,新規,0,2021-10-04,2021-10-04,合同会社瑞彩,,合同会社,兵庫県,三木市,宿原１２６５－１５６,,28,215,6730423,,,,,,,2021-10-04,1,,,,,ミズサ,0
2087,7140005025831,新規,0,2021-10-04,2021-10-04,名谷聖書協会,,その他の設立登記法人,兵庫県,神戸市須磨区,北落合５丁目７番２６号,,28,107,6540151,,,,,,,2021-10-04,1,,,,,ミョウダニセイショキョウカイ,0
2092,7150001024976,新規,0,2021-10-04,2021-10-04,株式会社越智建設,,株式会社,奈良県,奈良市,神殿町４６５番地の３,,29,201,6308441,,,,,,,2021-10-04,1,,,,,オチケンセツ,0
2094,7160001023663,新規,0,2021-10-04,2021-10-04,湖のスコーレ株式会社,,株式会社,滋賀県,長浜市,元浜町１３番２９号,,25,203,5260059,,,,,,,2021-10-04,1,,,,,ウミノスコーレ,0
2095,7160001023696,新規,0,2021-10-04,2021-10-04,株式会社アネシス,,株式会社,滋賀県,東近江市,東沖野１丁目３番１１－１０６号,,25,213,5270033,,,,,,,2021-10-04,1,,,,,アネシス,0
2097,7170001016807,新規,0,2021-10-04,2021-10-04,Ａｐｐｌａｕｓｅ株式会社,,株式会社,和歌山県,海南市,大野中６０８番地１７,,30,202,6420022,,,,,,,2021-10-04,1,,,,,アプローズ,0
2099,7170003001641,新規,0,2021-10-04,2021-10-04,合同会社林土建,,合同会社,和歌山県,和歌山市,鳴神９８３番地２０,,30,201,6408303,,,,,,,2021-10-04,1,,,,,ハヤシドケン,0
2108,7180001148005,新規,0,2021-10-04,2021-10-04,株式会社ＫＯＵ,,株式会社,愛知県,名古屋市中区,栄２丁目８番５号,,23,106,4600008,,,,,,,2021-10-04,1,,,,,コウ,0
2109,7180001148013,新規,0,2021-10-04,2021-10-04,株式会社アンドプルーフィング,,株式会社,愛知県,春日井市,如意申町４丁目１５番地２アビタシオン石黒１Ｂ号,,23,206,4860918,,,,,,,2021-10-04,1,,,,,アンドプルーフィング,0
2110,7180001148038,新規,0,2021-10-04,2021-10-04,株式会社ロアナプラ,,株式会社,愛知県,名古屋市中区,錦２丁目５番５号八木兵伝馬町ビル３Ｆ,,23,106,4600003,,,,,,,2021-10-04,1,,,,,ロアナプラ,0
2111,7180001148112,新規,0,2021-10-04,2021-10-04,株式会社グッティジャパン,,株式会社,愛知県,名古屋市中区,栄１丁目６番１５号グランドメゾン御園座タワー３２０２号,,23,106,4600008,,,,,,,2021-10-04,1,,,,,グッティジャパン,0
2115,7180003023008,新規,0,2021-10-04,2021-10-04,合同会社ＨＡＮＩＡ　ＴＲＡＤＥＲＳ,,合同会社,愛知県,名古屋市東区,泉２丁目２０番２号ヒルトップハウス６０３号,,23,102,4610001,,,,,,,2021-10-04,1,,,,,ハニアトレーダース,0
2116,7180003023016,新規,0,2021-10-04,2021-10-04,合同会社ｈａｒａｐｅｃｏ,,合同会社,愛知県,名古屋市東区,東桜２丁目９番３４号,,23,102,4610005,,,,,,,2021-10-04,1,,,,,ハラペコ,0
2117,7180003023024,新規,0,2021-10-04,2021-10-04,合同会社フクラムセイカ,,合同会社,愛知県,名古屋市熱田区,六番３丁目３番２５号,,23,109,4560058,,,,,,,2021-10-04,1,,,,,フクラムセイカ,0
2119,7180301035456,新規,0,2021-10-04,2021-10-04,株式会社不動産売却センター,,株式会社,愛知県,額田郡幸田町,大字坂崎字石ノ塔１２７番地６,,23,501,4440104,,,,,,,2021-10-04,1,,,,,フドウサンバイキャクセンター,0
2120,7180301035464,新規,0,2021-10-04,2021-10-04,ＥＬＥＣ　ＰＬＵＳ株式会社,,株式会社,愛知県,豊田市,広久手町５丁目２８番地７,,23,211,4710036,,,,,,,2021-10-04,1,,,,,エレクプラス,0
2123,7180303005127,新規,0,2021-10-04,2021-10-04,合同会社荻野化成,,合同会社,愛知県,額田郡幸田町,大字坂崎字石ノ塔１６６番地,,23,501,4440104,,,,,,,2021-10-04,1,,,,,,0
2126,7190001028726,新規,0,2021-10-04,2021-10-04,株式会社アーキテクト・パートナー,,株式会社,三重県,鈴鹿市,白子本町９番６号,,24,207,5100242,,,,,,,2021-10-04,1,,,,,アーキテクトパートナー,0
2127,7190001028742,新規,0,2021-10-04,2021-10-04,株式会社ＳＫプルーフィング,,株式会社,三重県,津市,西丸之内１８番６号西丸ノ内ビル３階Ｂ号室,,24,201,5140035,,,,,,,2021-10-04,1,,,,,エスケープルーフィング,0
2130,7200001039226,新規,0,2021-10-04,2021-10-04,株式会社アスダルファーマ,,株式会社,岐阜県,可児市,姫ケ丘４丁目５４９番５,,21,214,5090249,,,,,,,2021-10-04,1,,,,,アスダルファーマ,0
2131,7200001039234,新規,0,2021-10-04,2021-10-04,株式会社ハウスアイビー,,株式会社,岐阜県,岐阜市,本荘西２丁目１６番地笠井ビル１０３号室,,21,201,5008361,,,,,,,2021-10-04,1,,,,,ハウスアイビー,0
2132,7200001039250,新規,0,2021-10-04,2021-10-04,株式会社インフィニティ,,株式会社,岐阜県,大垣市,赤坂新町２丁目１８番地６８,,21,202,5032206,,,,,,,2021-10-04,1,,,,,インフィニティ,0
2133,7200001039259,新規,0,2021-10-04,2021-10-04,株式会社十六フィナンシャルグループ,,株式会社,岐阜県,岐阜市,神田町８丁目２６番地,,21,201,5008833,,,,,,,2021-10-04,1,,,,,ジュウロクフィナンシャルグループ,0
2143,7230003001734,新規,0,2021-10-04,2021-10-04,１５１Ａリース合同会社,,合同会社,富山県,富山市,八尾町薄島５７番地２４,,16,201,9392312,,,,,,,2021-10-04,1,,,,,イチゴイチエリース,0
2145,7230005009172,新規,0,2021-10-04,2021-10-04,特定非営利活動法人もったいないフードバンクとなみ,,その他の設立登記法人,富山県,砺波市,深江１０９８番地１４,,16,208,9391331,,,,,,,2021-10-04,1,,,,,モッタイナイフードバンクトナミ,0
2148,7240001058676,新規,0,2021-10-04,2021-10-04,ＢＺカンパニー株式会社,,株式会社,広島県,広島市西区,己斐本町２丁目１９番６－３０１号,,34,104,7330812,,,,,,,2021-10-04,1,,,,,ビズカンパニー,0
2149,7240001058684,新規,0,2021-10-04,2021-10-04,株式会社ＡＳＵＬＡＮＤ,,株式会社,広島県,広島市中区,西十日市町１番１３号ＣＡＳＡ・ＡＬＭＥＺ２階,,34,101,7300806,,,,,,,2021-10-04,1,,,,,アスランド,0
2150,7240001058692,新規,0,2021-10-04,2021-10-04,株式会社ＮＩＫＯＩＣＨＩ,,株式会社,広島県,広島市南区,旭１丁目１８番４号,,34,103,7340036,,,,,,,2021-10-04,1,,,,,ニコイチ,0
2151,7240001058718,新規,0,2021-10-04,2021-10-04,株式会社アローシステム,,株式会社,広島県,福山市,山手町１０７５－１Ｂ２０２,,34,207,7200092,,,,,,,2021-10-04,1,,,,,アローシステム,0
2152,7240001058726,新規,0,2021-10-04,2021-10-04,アクアットホーム株式会社,,株式会社,広島県,広島市安佐南区,西原４丁目３２番１４号,,34,105,7310113,,,,,,,2021-10-04,1,,,,,アクアットホーム,0
2155,7250001019165,新規,0,2021-10-04,2021-10-04,株式会社シーエスサービス,,株式会社,山口県,防府市,大字台道字後地１５６２１番１,,35,206,7471232,,,,,,,2021-10-04,1,,,,,シーエスサービス,0
2172,7290001094782,新規,0,2021-10-04,2021-10-04,株式会社ワールドゲートパートナーズ,,株式会社,福岡県,福岡市博多区,上川端町１２－１白十字ビル２階,,40,132,8120026,,,,,,,2021-10-04,1,,,,,ワールドゲートパートナーズ,0
2173,7290001094840,新規,0,2021-10-04,2021-10-04,株式会社ジャスティス,,株式会社,福岡県,福岡市東区,多の津５丁目５３番５号,,40,131,8130034,,,,,,,2021-10-04,1,,,,,ジャスティス,0
2179,7290801027883,新規,0,2021-10-04,2021-10-04,株式会社建築ＷｉｔｈＬｉｆｅ,,株式会社,福岡県,遠賀郡水巻町,頃末南３丁目３２番１４号,,40,382,8070025,,,,,,,2021-10-04,1,,,,,ケンチクウィズライフ,0
2182,7310001017501,新規,0,2021-10-04,2021-10-04,株式会社Ｔ－ＷＯＲＫＳ,,株式会社,長崎県,長崎市,鳴見町３１番４号,,42,201,8512214,,,,,,,2021-10-04,1,,,,,ティーワークス,0
2186,7310003004175,新規,0,2021-10-04,2021-10-04,合同会社ＡＳＴＯＬＴＩＡ,,合同会社,長崎県,西彼杵郡時津町,左底郷２６－２０５,,42,308,8512106,,,,,,,2021-10-04,1,,,,,アストルティア,0
2187,7330001029016,新規,0,2021-10-04,2021-10-04,株式会社下田内装,,株式会社,熊本県,宇城市,松橋町久具６０３番地１,,43,213,8690532,,,,,,,2021-10-04,1,,,,,シモダナイソウ,0
2188,7330001029040,新規,0,2021-10-04,2021-10-04,株式会社島村豆腐店,,株式会社,熊本県,熊本市西区,河内町船津２１２０番地１,,43,103,8615347,,,,,,,2021-10-04,1,,,,,シマムラトウフテン,0
2190,7330003009065,新規,0,2021-10-04,2021-10-04,合同会社竹内自動車,,合同会社,熊本県,熊本市南区,近見８丁目１２３１番地４,,43,104,8614101,,,,,,,2021-10-04,1,,,,,タケウチジドウシャ,0
2192,7340001024148,新規,0,2021-10-04,2021-10-04,佐多採石株式会社,,株式会社,鹿児島県,肝属郡南大隅町,佐多伊座敷５９２９番地７４０,,46,491,8932601,,,,,,,2021-10-04,1,,,,,サタサイセキ,0
2196,7350001017332,新規,0,2021-10-04,2021-10-04,株式会社ＷＯＲＫ,,株式会社,宮崎県,児湯郡川南町,大字川南２２５５２番地１,,45,405,8891301,,,,,,,2021-10-04,1,,,,,ワーク,0
2198,7350003003933,新規,0,2021-10-04,2021-10-04,楓華合同会社,,合同会社,宮崎県,都城市,都北町５７３７番地パル華Ａ－１０２,,45,202,8850004,,,,,,,2021-10-04,1,,,,,フウカ,0
2200,7360001029442,新規,0,2021-10-04,2021-10-04,株式会社ＷＥＢ　Ｍａ　ＴＶ,,株式会社,沖縄県,浦添市,勢理客４丁目１３－１浦添市産業振興センター５０５,,47,208,9012122,,,,,,,2021-10-04,1,,,,,ウェブマティービー,0
2202,7370001047633,新規,0,2021-10-04,2021-10-04,カレン株式会社,,株式会社,宮城県,仙台市若林区,連坊２丁目１番６５号連坊ビル３０２,,04,103,9840052,,,,,,,2021-10-04,1,,,,,カレン,0
2203,7370003005408,新規,0,2021-10-04,2021-10-04,ＭＭＬいわぬまソーラー合同会社,,合同会社,宮城県,岩沼市,中央１丁目２番２号村上ビル２階３号室,,04,211,9892432,,,,,,,2021-10-04,1,,,,,エムエムエルイワヌマソーラー,0
2204,7370003005424,新規,0,2021-10-04,2021-10-04,エスポイント合同会社,,合同会社,宮城県,仙台市宮城野区,鉄砲町東４－４－８０７,,04,102,9830867,,,,,,,2021-10-04,1,,,,,エスポイント,0
2205,7370005010356,新規,0,2021-10-04,2021-10-04,司法書士法人アレクシア,,その他の設立登記法人,宮城県,仙台市青葉区,本町２丁目１番７号本町奥田ビル８階,,04,101,9800014,,,,,,,2021-10-04,1,,,,,アレクシア,0
2212,7400001015628,新規,0,2021-10-04,2021-10-04,株式会社ＨＦＮ,,株式会社,岩手県,盛岡市,みたけ３丁目２３番３号スペースＭＹＡＩＩ２Ｆ,00124428,03,201,0200122,,,,,,,2021-10-04,1,,,,,エイチエフエヌ,0
2221,7430005014301,新規,0,2021-10-04,2021-10-04,一般社団法人ＫＡＩ－ＢＹＡＫＵ　ｃｏｌｌｅｃｔｉｖｅ,,その他の設立登記法人,北海道,札幌市東区,北二十三条東６丁目２番２５号プチフール２３－２０２号,,01,103,0650023,,,,,,,2021-10-04,1,,,,,カイビャクコレクティブ,0
2227,7460101007065,新規,0,2021-10-04,2021-10-04,株式会社テイクフィード,,株式会社,北海道,帯広市,西九条南１９丁目８番地９,,01,207,0800019,,,,,,,2021-10-04,1,,,,,テイクフィード,0
2228,7470001018748,新規,0,2021-10-04,2021-10-04,株式会社林組,,株式会社,香川県,坂出市,林田町１０５９番地２,,37,203,7620012,,,,,,,2021-10-04,1,,,,,ハヤシグミ,0
2231,7470003002048,新規,0,2021-10-04,2021-10-04,合同会社愛翔,,合同会社,香川県,東かがわ市,馬篠１３３１番地,,37,207,7692520,,,,,,,2021-10-04,1,,,,,アイショウ,0
2235,7700150095003,新規,0,2021-10-04,2019-06-21,労働協同組合　グリーンコープ在宅福祉ワーカーズ・コレクティブほっとはぁーと,,その他,広島県,広島市西区,高須２丁目２－２８,,34,104,7330871,,,,,,,2019-06-21,1,,,,,ロウドウキヨウドウクミアイグリーンコープザイタクフクシワーカーズコレクテイブホツトハアート,0
2236,7700150104977,新規,0,2021-10-04,2021-10-04,キャンディーモーターエンタープライズ,,外国会社等,神奈川県,伊勢原市,上粕屋２５１６－２６－Ｄ区間,,14,214,2591141,スリランカ民主社会主義共和国，キャンディ市，アクラーナ，ブルゴハテナ３１７／Ａ,,,,,,2021-10-04,1,,,,,キヤンデイーモーターエンタープライズ,0
2237,7700150104985,新規,0,2021-10-04,2021-10-04,Ｓｉｌｖｅｒ　Ａｕｔｏ　Ｃａｒｓ,,外国会社等,千葉県,山武市,小松１５６０番地６オフィスＤ,,12,237,2891302,スリランカ民主社会主義共和国、カサワッタ、バトゥゴダ、４４０,,,,,,2021-10-04,1,,,,,シルバーオートカーズ,0
2248,8010005034027,新規,0,2021-10-04,2021-10-04,一般社団法人社長のライフプランアドバイザー協会,,その他の設立登記法人,東京都,中央区,湊１丁目２番１０号,,13,102,1040043,,,,,,,2021-10-04,1,,,,,シャチョウノライフプランアドバイザーキョウカイ,0
2249,8010005034035,新規,0,2021-10-04,2021-10-04,一般社団法人日本医療機器開発サポートセンター,,その他の設立登記法人,東京都,千代田区,一番町２０番地５,,13,101,1020082,,,,,,,2021-10-04,1,,,,,ニホンイリョウキキカイハツサポートセンター,0
2257,8010401162926,新規,0,2021-10-04,2021-10-04,イチワークス株式会社,,株式会社,東京都,港区,新橋５丁目４番４号００２号,,13,103,1050004,,,,,,,2021-10-04,1,,,,,イチワークス,0
2259,8010501047886,新規,0,2021-10-04,2021-10-04,株式会社ご長寿メディ,,株式会社,東京都,台東区,東上野３丁目２１番３号,,13,106,1100015,,,,,,,2021-10-04,1,,,,,ゴチョウジュメディ,0
2260,8010501047894,新規,0,2021-10-04,2021-10-04,株式会社５１１,,株式会社,東京都,台東区,橋場１丁目３２番７号,,13,106,1110023,,,,,,,2021-10-04,1,,,,,ゴイチイチ,0
2261,8010701041607,新規,0,2021-10-04,2021-10-04,オレンワーク株式会社,,株式会社,東京都,品川区,豊町２丁目１２番１６号,,13,109,1420042,,,,,,,2021-10-04,1,,,,,オレンワーク,0
2264,8010901049532,新規,0,2021-10-04,2021-10-04,株式会社ディーパーブルー,,株式会社,東京都,世田谷区,岡本３丁目２２番１３号,,13,112,1570076,,,,,,,2021-10-04,1,,,,,ディーパーブルー,0
2267,8010905004211,新規,0,2021-10-04,2021-10-04,特定非営利活動法人日本プール利用推進協会,,その他の設立登記法人,東京都,世田谷区,玉堤１丁目１５番３２－２１０号,,13,112,1580087,,,,,,,2021-10-04,1,,,,,ニホンプールリヨウスイシンキョウカイ,0
2272,8011001142979,新規,0,2021-10-04,2021-10-04,株式会社ハスラボ,,株式会社,東京都,目黒区,碑文谷５丁目２番５号Ｔ＆Ａビル５階,,13,110,1520003,,,,,,,2021-10-04,1,,,,,ハスラボ,0
2273,8011001143119,新規,0,2021-10-04,2021-10-04,株式会社オプシス,,株式会社,東京都,渋谷区,渋谷２丁目１９番１５号宮益坂ビルディング６０９,,13,113,1500002,,,,,,,2021-10-04,1,,,,,オプシス,0
2274,8011001143143,新規,0,2021-10-04,2021-10-04,株式会社いきなりすごい会議,,株式会社,東京都,渋谷区,恵比寿２丁目３２番１０号ベラカーサ広尾１０８,,13,113,1500013,,,,,,,2021-10-04,1,,,,,イキナリスゴイカイギ,0
2275,8011001143192,新規,0,2021-10-04,2021-10-04,株式会社ハウディ・インベストメント,,株式会社,東京都,目黒区,上目黒２丁目１５番６号,,13,110,1530051,,,,,,,2021-10-04,1,,,,,ハウディインベストメント,0
2277,8011003013443,新規,0,2021-10-04,2021-10-04,ＴＫｓｔｒｅａｍｓ合同会社,,合同会社,東京都,渋谷区,東１丁目１６番３号,,13,113,1500011,,,,,,,2021-10-04,1,,,,,ティーケーストリームズ,0
2288,8011301027203,新規,0,2021-10-04,2021-10-04,株式会社ｂｌｉｃｋ,,株式会社,東京都,杉並区,今川１丁目１５番９号サン今川１０１,,13,115,1670035,,,,,,,2021-10-04,1,,,,,ブリック,0
2293,8011601025435,新規,0,2021-10-04,2021-10-04,株式会社オンサロ,,株式会社,東京都,練馬区,中村北１丁目１４番１３号プラザ練馬１０４,,13,120,1760023,,,,,,,2021-10-04,1,,,,,オンサロ,0
2298,8011703002951,新規,0,2021-10-04,2021-10-04,合同会社ｃｏｔｏ,,合同会社,東京都,江戸川区,南小岩７丁目１１番１号２階,,13,123,1330056,,,,,,,2021-10-04,1,,,,,コト,0
2299,8011803004798,新規,0,2021-10-04,2021-10-04,合同会社志庵,,合同会社,東京都,足立区,花畑５丁目１０番３０－３０３号,,13,121,1210061,,,,,,,2021-10-04,1,,,,,シアン,0
2300,8012305001978,新規,0,2021-10-04,2021-10-04,医療法人社団和蔵会,,その他の設立登記法人,東京都,町田市,南町田５丁目１０番３３号,,13,209,1940005,,,,,,,2021-10-04,1,,,,,ワクラカイ,0
2317,8020001143219,新規,0,2021-10-04,2021-10-04,株式会社将徳商事,,株式会社,神奈川県,横浜市中区,寿町３丁目１２番地７,,14,104,2310026,,,,,,,2021-10-04,1,,,,,ショウトクショウジ,0
2318,8020001143243,新規,0,2021-10-04,2021-10-04,株式会社馬燈書房,,株式会社,神奈川県,横浜市中区,伊勢佐木町５丁目１２７－１３伊勢佐木町ロイヤル１階,,14,104,2310045,,,,,,,2021-10-04,1,,,,,マトウショボウ,0
2319,8020001143284,新規,0,2021-10-04,2021-10-04,株式会社谷川充丈構造設計事務所,,株式会社,神奈川県,横浜市港北区,下田町６丁目３１番１号,,14,109,2230064,,,,,,,2021-10-04,1,,,,,,0
2322,8020003020580,新規,0,2021-10-04,2021-10-04,合同会社小机企画,,合同会社,神奈川県,横浜市都筑区,中川３丁目１番７号,,14,118,2240001,,,,,,,2021-10-04,1,,,,,コヅクエキカク,0
2326,8021001074016,新規,0,2021-10-04,2021-10-04,株式会社保世オート,,株式会社,神奈川県,厚木市,長谷１６４７番地１メイプルハイム１０２,,14,212,2430036,,,,,,,2021-10-04,1,,,,,ホセオート,0
2328,8021003010935,新規,0,2021-10-04,2021-10-04,ＭＩＮＡＧＵ合同会社,,合同会社,神奈川県,藤沢市,鵠沼桜が岡３丁目９－１０,,14,205,2510027,,,,,,,2021-10-04,1,,,,,ミナグ,0
2329,8021003010951,新規,0,2021-10-04,2021-10-04,合同会社ＮＭＣ,,合同会社,神奈川県,逗子市,桜山９丁目２番１９号,,14,208,2490005,,,,,,,2021-10-04,1,,,,,エヌエムシー,0
2335,8030001144604,新規,0,2021-10-04,2021-10-04,Ｍ・Ｃｒｅｗ・Ｌｅａｐ株式会社,,株式会社,埼玉県,草加市,青柳３丁目１９番２０号,,11,221,3400002,,,,,,,2021-10-04,1,,,,,エムクルーリープ,0
2340,8030003018062,新規,0,2021-10-04,2021-10-04,合同会社オルタシウス,,合同会社,埼玉県,朝霞市,根岸台６丁目９－２４サンシャイニー朝霞３０３,,11,227,3510005,,,,,,,2021-10-04,1,,,,,オルタシウス,0
2341,8030005020537,新規,0,2021-10-04,2021-10-04,一般社団法人国際ジュニアサッカー協会,,その他の設立登記法人,埼玉県,朝霞市,溝沼２丁目１番４５号,,11,227,3510023,,,,,,,2021-10-04,1,,,,,コクサイジュニアサッカーキョウカイ,0
2344,8040001120356,新規,0,2021-10-04,2021-10-04,株式会社明日真建装,,株式会社,千葉県,印西市,平賀学園台３丁目１８番１５号,,12,231,2701606,,,,,,,2021-10-04,1,,,,,アスマケンソウ,0
2345,8040001120364,新規,0,2021-10-04,2021-10-04,株式会社Ｋ２Ｃｏｎｃｅｐｔ,,株式会社,千葉県,市川市,堀之内３丁目１７番２４号,,12,203,2720837,,,,,,,2021-10-04,1,,,,,ケーツーコンセプト,0
2348,8040003018656,新規,0,2021-10-04,2021-10-04,合同会社ＶＡＬＵＥ,,合同会社,千葉県,市原市,君塚４丁目１２－１３,,12,219,2900051,,,,,,,2021-10-04,1,,,,,バリュー,0
2355,8060003003821,新規,0,2021-10-04,2021-10-04,合同会社オフィスナカジマ,,合同会社,栃木県,宇都宮市,ゆいの杜７丁目１１番２５号ショコラ３０２,,09,201,3213226,,,,,,,2021-10-04,1,,,,,オフィスナカジマ,0
2357,8070001038505,新規,0,2021-10-04,2021-10-04,株式会社ジャパンスカイサービス,,株式会社,群馬県,前橋市,泉沢町９７４番地,,10,201,3792101,,,,,,,2021-10-04,1,,,,,ジャパンスカイサービス,0
2359,8070003004249,新規,0,2021-10-04,2021-10-04,合同会社渋川飯塚ファーム,,合同会社,群馬県,渋川市,川島１０７８－３,,10,208,3770025,,,,,,,2021-10-04,1,,,,,シブカワイイヅカファーム,0
2361,8080001024479,新規,0,2021-10-04,2021-10-04,株式会社ＫＡＲＭＡ,,株式会社,静岡県,藤枝市,駅前２丁目９番４号,,22,214,4260034,,,,,,,2021-10-04,1,,,,,カルマ,0
2362,8080003002648,新規,0,2021-10-04,2021-10-04,レキノ合同会社,,合同会社,静岡県,島田市,河原１丁目３番３８号,,22,209,4270037,,,,,,,2021-10-04,1,,,,,レキノ,0
2365,8080401025382,新規,0,2021-10-04,2021-10-04,株式会社特急カーゴ,,株式会社,静岡県,浜松市中区,佐藤２丁目１７番５号,,22,131,4300807,,,,,,,2021-10-04,1,,,,,トッキュウカーゴ,0
2366,8080401025390,新規,0,2021-10-04,2021-10-04,株式会社ＷＨＩＴＥ　ＬＩＮＥ,,株式会社,静岡県,浜松市中区,肴町３１３番地の１４,,22,131,4300932,,,,,,,2021-10-04,1,,,,,ホワイトライン,0
2368,8080403004376,新規,0,2021-10-04,2021-10-04,松合同会社,,合同会社,静岡県,浜松市中区,砂山町１０９１番地キャトルセゾン６０１,,22,131,4300926,,,,,,,2021-10-04,1,,,,,マツ,0
2370,8090003001962,新規,0,2021-10-04,2021-10-04,ＴａＲＨｇｅｔ合同会社,,合同会社,山梨県,富士吉田市,新西原４丁目２－１９,,19,202,4030017,,,,,,,2021-10-04,1,,,,,ターゲット,0
2394,8120001240699,新規,0,2021-10-04,2021-10-04,株式会社ＰＩＣＫＳ　ＩＮＣ,,株式会社,大阪府,寝屋川市,東大利町１３番１９号,,27,215,5720042,,,,,,,2021-10-04,1,,,,,ピックスインク,0
2395,8120001240798,新規,0,2021-10-04,2021-10-04,株式会社ＴＡＰ,,株式会社,大阪府,大阪市北区,豊崎５丁目６番２号北梅田大宮ビル９階,,27,127,5310072,,,,,,,2021-10-04,1,,,,,タップ,0
2396,8120001240807,新規,0,2021-10-04,2021-10-04,株式会社ＳＴｒａｄｅ,,株式会社,大阪府,大阪市浪速区,桜川１丁目４番１３－６０９号,,27,111,5560022,,,,,,,2021-10-04,1,,,,,ストレード,0
2397,8120001240815,新規,0,2021-10-04,2021-10-04,株式会社エルフォーティー,,株式会社,大阪府,大阪市中央区,南本町２丁目１番１５号４階,,27,128,5410054,,,,,,,2021-10-04,1,,,,,エルフォーティー,0
2399,8120101064379,新規,0,2021-10-04,2021-10-04,株式会社ＦＯＳ,,株式会社,大阪府,堺市東区,日置荘北町３丁３番１３－２０１号,,27,143,5998111,,,,,,,2021-10-04,1,,,,,エフオーエス,0
2400,8120101064420,新規,0,2021-10-04,2021-10-04,株式会社貴志川フーズ,,株式会社,大阪府,堺市南区,宮山台４丁６番１６号,,27,145,5900101,,,,,,,2021-10-04,1,,,,,キシガワフーズ,0
2401,8120101064437,新規,0,2021-10-04,2021-10-04,株式会社Ｉ・ＳＨＩＮ,,株式会社,大阪府,羽曳野市,羽曳が丘西７丁目１番２号,,27,222,5830865,,,,,,,2021-10-04,1,,,,,アイシン,0
2404,8122001035245,新規,0,2021-10-04,2021-10-04,株式会社中島工業,,株式会社,大阪府,東大阪市,加納８丁目１４番７号,,27,227,5780901,,,,,,,2021-10-04,1,,,,,ナカジマコウギョウ,0
2408,8130001070204,新規,0,2021-10-04,2021-10-04,株式会社Ｌｉｔａ　Ｇｌｏｂａｌ　Ｗｏｒｋｓ,,株式会社,京都府,京都市下京区,鍵屋町通烏丸西入鍵屋町３３９栞庵２階,,26,106,6008178,,,,,,,2021-10-04,1,,,,,リタグローバルワークス,0
2409,8130001070220,新規,0,2021-10-04,2021-10-04,株式会社ｕｏｔｏｍｕｍ魚菊,,株式会社,京都府,京都市上京区,釜座通下立売下る東裏辻町４０９番地１,00124431,26,102,6028031,,,,,,,2021-10-04,1,,,,,ウオトマムウオギク,0
2420,8140001123225,新規,0,2021-10-04,2021-10-04,神協空設株式会社,,株式会社,兵庫県,神戸市兵庫区,松原通３丁目４番１２号,,28,105,6520881,,,,,,,2021-10-04,1,,,,,シンキョウクウセツ,0
2421,8140001123233,新規,0,2021-10-04,2021-10-04,梅澤工業株式会社,,株式会社,兵庫県,姫路市,網干区大江島９９－１,,28,201,6711231,,,,,,,2021-10-04,1,,,,,ウメザワコウギョウ,0
2424,8150001024975,新規,0,2021-10-04,2021-10-04,Ｗコーポレーション株式会社,,株式会社,奈良県,天理市,富堂町３１番地１,,29,204,6320072,,,,,,,2021-10-04,1,,,,,ダブリュコーポレーション,0
2425,8160001023662,新規,0,2021-10-04,2021-10-04,株式会社ｒａｋｕｓｈｏｕ,,株式会社,滋賀県,栗東市,安養寺７丁目１－２５,,25,208,5203015,,,,,,,2021-10-04,1,,,,,ラクショウ,0
2426,8160001023679,新規,0,2021-10-04,2021-10-04,孝俊イージーサービス株式会社,,株式会社,滋賀県,草津市,南笠東４丁目８－７－２０１,,25,206,5250071,,,,,,,2021-10-04,1,,,,,コウシュンイージーサービス,0
2427,8160001023687,新規,0,2021-10-04,2021-10-04,ＳＧ株式会社,,株式会社,滋賀県,栗東市,川辺３３１番地９,,25,208,5203014,,,,,,,2021-10-04,1,,,,,エスジー,0
2435,8180001148004,新規,0,2021-10-04,2021-10-04,ＫＯＴＯＲＡ株式会社,,株式会社,愛知県,名古屋市千種区,光が丘２丁目１５番２６号プライムメイツ光が丘６０７号,,23,101,4640006,,,,,,,2021-10-04,1,,,,,コトラ,0
2436,8180001148020,新規,0,2021-10-04,2021-10-04,成々工業株式会社,,株式会社,愛知県,半田市,桐ケ丘５丁目１０２番地の７,,23,205,4750928,,,,,,,2021-10-04,1,,,,,ナリナリコウギョウ,0
2437,8180001148037,新規,0,2021-10-04,2021-10-04,株式会社キャプテンＭＧＴ,,株式会社,愛知県,春日井市,高蔵寺町４丁目１３番地７－１Ｆ,,23,206,4870013,,,,,,,2021-10-04,1,,,,,キャプテンエムジーティー,0
2439,8180003023015,新規,0,2021-10-04,2021-10-04,合同会社ＯＨＡＮＡ,,合同会社,愛知県,名古屋市千種区,末盛通１丁目１８番地,,23,101,4640821,,,,,,,2021-10-04,1,,,,,オハナ,0
2440,8180005019457,新規,0,2021-10-04,2021-10-04,特定非営利活動法人ＡＸＥＳＳ,,その他の設立登記法人,愛知県,名古屋市西区,那古野２丁目１２番５号４階,,23,104,4510042,,,,,,,2021-10-04,1,,,,,アクセス,0
2443,8180301035422,新規,0,2021-10-04,2021-10-04,株式会社シャイン,,株式会社,愛知県,西尾市,吉良町上横須賀字元屋敷１０７番地,,23,213,4440521,,,,,,,2021-10-04,1,,,,,シャイン,0
2444,8180301035455,新規,0,2021-10-04,2021-10-04,株式会社ＫＵＲＡＫＥＮ,,株式会社,愛知県,西尾市,田貫２丁目２４番地,,23,213,4440302,,,,,,,2021-10-04,1,,,,,クラケン,0
2446,8190001028725,新規,0,2021-10-04,2021-10-04,株式会社御幸自動車,,株式会社,三重県,伊勢市,柏町８８９番地１,,24,203,5150508,,,,,,,2021-10-04,1,,,,,ミユキジドウシャ,0
2447,8190003003775,新規,0,2021-10-04,2021-10-04,合同会社ＰＯＯＬ,,合同会社,三重県,三重郡菰野町,大字切畑３０８番地１,,24,341,5101328,,,,,,,2021-10-04,1,,,,,プール,0
2452,8200005013259,新規,0,2021-10-04,2021-10-04,特定非営利活動法人おひさま福祉事業支援友の会,,その他の設立登記法人,岐阜県,美濃市,段１４３番地,,21,207,5013701,,,,,,,2021-10-04,1,,,,,オヒサマフクシジギョウシエントモノカイ,0
2459,8240001058717,新規,0,2021-10-04,2021-10-04,株式会社もみじ防災,,株式会社,広島県,広島市西区,古江東町１９番１９－２０２号,,34,104,7330872,,,,,,,2021-10-04,1,,,,,,0
2465,8260001036027,新規,0,2021-10-04,2021-10-04,リ・ライフマネジメント株式会社,,株式会社,岡山県,倉敷市,沖４３２番地４,,33,202,7100836,,,,,,,2021-10-04,1,,,,,リライフマネジメント,0
2466,8260001036035,新規,0,2021-10-04,2021-10-04,Ｆｓｔｙｌｅ株式会社,,株式会社,岡山県,岡山市北区,吉備津１１４８番地２,,33,101,7011341,,,,,,,2021-10-04,1,,,,,エフスタイル,0
2470,8260005010977,新規,0,2021-10-04,2021-10-04,医療法人社団和三会,,その他の設立登記法人,岡山県,倉敷市,新倉敷駅前２丁目６４番地５,,33,202,7100253,,,,,,,2021-10-04,1,,,,,ワサンカイ,0
2481,8290001094807,新規,0,2021-10-04,2021-10-04,株式会社ＣＯＬＯＲＳ,,株式会社,福岡県,福岡市東区,和白１丁目１番３５号,,40,131,8110202,,,,,,,2021-10-04,1,,,,,カラーズ,0
2482,8290001094831,新規,0,2021-10-04,2021-10-04,ＩＷホールディングス株式会社,,株式会社,福岡県,飯塚市,忠隈７１番地４,,40,205,8200071,,,,,,,2021-10-04,1,,,,,アイダブルホールディングス,0
2484,8300003001726,新規,0,2021-10-04,2021-10-04,合同会社ＴＩＡＲＥ,,合同会社,佐賀県,西松浦郡有田町,原明甲２４７３番地４,,41,401,8494176,,,,,,,2021-10-04,1,,,,,ティアレ,0
2488,8310003004174,新規,0,2021-10-04,2021-10-04,東長崎ペットクリニック合同会社,,合同会社,長崎県,長崎市,田中町７９番地６６,,42,201,8510134,,,,,,,2021-10-04,1,,,,,ヒガシナガサキペットクリニック,0
2489,8320001018621,新規,0,2021-10-04,2021-10-04,株式会社ＷＯＲＫＲＯＯＭ　Ｋ．Ｋ,,株式会社,大分県,大分市,都町１丁目１番１５号都ステーションビル６Ｆ,,44,201,8700034,,,,,,,2021-10-04,1,,,,,ワークルームケーケー,0
2491,8330001029023,新規,0,2021-10-04,2021-10-04,株式会社マイトレーヤ,,株式会社,熊本県,熊本市中央区,下通１丁目１２番３号,,43,101,8600807,,,,,,,2021-10-04,1,,,,,マイトレーヤ,0
2495,8330003009064,新規,0,2021-10-04,2021-10-04,合同会社ｂａｃｋｆｉｅｌｄ,,合同会社,熊本県,宇城市,松橋町曲野３３１９－１,,43,213,8690511,,,,,,,2021-10-04,1,,,,,バックフィールド,0
2496,8340001024130,新規,0,2021-10-04,2021-10-04,ＲＤＫ．ｆａｃｔｏｒｙ株式会社,,株式会社,鹿児島県,鹿児島市,宇宿１丁目５３番１８号,,46,201,8900073,,,,,,,2021-10-04,1,,,,,アールディーケードットファクトリー,0
2497,8340001024139,新規,0,2021-10-04,2021-10-04,株式会社Ｃａｓｔｌｅ　Ｍｏｕｎｔａｉｎ,,株式会社,鹿児島県,鹿児島市,中央町２４番地２０ベルストリートビル１Ｆ,,46,201,8900053,,,,,,,2021-10-04,1,,,,,キャッスルマウンテン,0
2498,8340001024147,新規,0,2021-10-04,2021-10-04,株式会社花美,,株式会社,鹿児島県,鹿児島市,東千石町１８－１１田中ビル２Ｆ,,46,201,8920842,,,,,,,2021-10-04,1,,,,,ハナビ,0
2503,8350003003932,新規,0,2021-10-04,2021-10-04,合同会社江崎養鶏,00124426,合同会社,宮崎県,西諸県郡高原町,大字西麓３６８８番地１,,45,361,8894412,,,,,,,2021-10-04,1,,,,,エザキヨウケイ,0
2504,8360001029441,新規,0,2021-10-04,2021-10-04,株式会社スタイルホープ,,株式会社,沖縄県,那覇市,曙２丁目１３番１１号ｐｒｅｎｄｒｅ４０１,,47,201,9000002,,,,,,,2021-10-04,1,,,,,スタイルホープ,0
2505,8360003011463,新規,0,2021-10-04,2021-10-04,Ｌｕｃｈｕ合同会社,,合同会社,沖縄県,沖縄市,比屋根３丁目１１番２０号,,47,211,9042173,,,,,,,2021-10-04,1,,,,,ルチュ,0
2506,8360003011471,新規,0,2021-10-04,2021-10-04,合同会社山,,合同会社,沖縄県,那覇市,古波蔵２丁目３２番１７号,,47,201,9000024,,,,,,,2021-10-04,1,,,,,ヤマ,0
2507,8370001047632,新規,0,2021-10-04,2021-10-04,株式会社ナチュラルガーデン,,株式会社,宮城県,名取市,美田園５丁目１２番地の６－４０２,,04,207,9811217,,,,,,,2021-10-04,1,,,,,ナチュラルガーデン,0
2508,8370001047657,新規,0,2021-10-04,2021-10-04,株式会社ＨＩＹＯＫＯ,,株式会社,宮城県,仙台市太白区,あすと長町４丁目２番３８－２２０６号,,04,104,9820007,,,,,,,2021-10-04,1,,,,,ヒヨコ,0
2510,8370003005423,新規,0,2021-10-04,2021-10-04,合同会社プラズマキア,,合同会社,宮城県,登米市,迫町佐沼字北散田２５番地８,,04,212,9870511,,,,,,,2021-10-04,1,,,,,プラズマキア,0
2517,8400001015619,新規,0,2021-10-04,2021-10-04,株式会社ＡＬＬＹ,,株式会社,岩手県,盛岡市,仙北２丁目７番６号,,03,201,0200861,,,,,,,2021-10-04,1,,,,,アライ,0
2520,8410001012978,新規,0,2021-10-04,2021-10-04,株式会社ＥＳＴ,,株式会社,秋田県,秋田市,雄和椿川字館ノ下２０番地１,,05,201,0101211,,,,,,,2021-10-04,1,,,,,イーエスティー,0
2522,8420001017605,新規,0,2021-10-04,2021-10-04,株式会社鶴谷建築,,株式会社,青森県,青森市,大字羽白字沢田３２番地９,,02,201,0380058,,,,,,,2021-10-04,1,,,,,ツルヤケンチク,0
2524,8430003013205,新規,0,2021-10-04,2021-10-04,合同会社Ｏｈａｎａ　ＣＯＣＯＲＯ,,合同会社,北海道,岩見沢市,八条西３丁目１番地１６,,01,210,0680028,,,,,,,2021-10-04,1,,,,,オハナココロ,0
2525,8430003013221,新規,0,2021-10-04,2021-10-04,合同会社Ａｎｙ．ｂ,,合同会社,北海道,札幌市中央区,南二条西７丁目８－２南２条ビル３０４,,01,101,0600062,,,,,,,2021-10-04,1,,,,,エニービー,0
2526,8430005014300,新規,0,2021-10-04,2021-10-04,一般社団法人ＦＰ看護師パートナー協会,,その他の設立登記法人,北海道,石狩郡当別町,若葉６５７２番地,,01,303,0610204,,,,,,,2021-10-04,1,,,,,エフピーカンゴシパートナーキョウカイ,0
2527,8450001013493,新規,0,2021-10-04,2021-10-04,株式会社ゆきむら．ＴＥＣＨ,,株式会社,北海道,深川市,文光町４４番地５９,,01,228,0740013,,,,,,,2021-10-04,1,,,,,ユキムラテック,0
2531,8460001005606,新規,0,2021-10-04,2021-10-04,株式会社シカホールディングス,,株式会社,北海道,釧路郡釧路町,睦４丁目１番地２０,,01,661,0880615,,,,,,,2021-10-04,1,,,,,シカホールディングス,0
2533,8460101007064,新規,0,2021-10-04,2021-10-04,株式会社原林業,,株式会社,北海道,帯広市,西十条南２７丁目７番地３ＤｏｌｃｅｖｉｔａＩＩ１０１,00124417,01,207,0800020,,,,,,,2021-10-04,1,,,,,ハラリンギョウ,0
2537,8500001023710,新規,0,2021-10-04,2021-10-04,株式会社Ｋ’ｓ－ＴＥＣ,,株式会社,愛媛県,東温市,見奈良１５４３番地,,38,215,7910211,,,,,,,2021-10-04,1,,,,,ケーズテック,0
2538,8500001023719,新規,0,2021-10-04,2021-10-04,株式会社ＥＧ,,株式会社,愛媛県,松山市,松末２丁目１番５０号,,38,201,7900915,,,,,,,2021-10-04,1,,,,,イージー,0
2540,8700150104992,新規,0,2021-10-04,2021-10-04,ＣＲＯＷＮ　ＡＵＴＯ　ＷＯＲＬＤ,,外国会社等,千葉県,山武市,小松１５６０番地６オフィスＡ号,,12,237,2891302,スリランカ民主社会主義共和国、アクラナ、ニーレラ、９１１－Ａ,,,,,,2021-10-04,1,,,,,クラウンオートワールド,0
2541,8700150105017,新規,0,2021-10-04,2021-10-04,ＣＲＹＳＴＡＬ　ＭＯＴＯＲ　ＶＥＨＩＣＬＥＳ,,外国会社等,千葉県,山武市,松ヶ谷ロ３２１９松ヶ谷オフィス１,,12,237,2891303,スリランカ民主社会主義共和国、アクラナ、テランバガハワッタロード、Ｎｏ．１０５／Ｂ,,,,,,2021-10-04,1,,,,,クリスタルモータービークル,0
2542,8700150105025,新規,0,2021-10-04,2021-10-04,ＥＯＮ　ＡＵＴＯ　ＣＯＲＰＯＲＡＴＩＯＮ,,外国会社等,千葉県,山武市,松ヶ谷ロ３２１９松ヶ谷オフィス３,,12,237,2891303,スリランカ民主社会主義共和国、マヒヤンガナヤ、セランカダ、Ｎｏ：８８１／Ｃ,,,,,,2021-10-04,1,,,,,イオンオートコーポレーシヨン,0
2550,9010001221313,新規,0,2021-10-04,2021-10-04,フィロソフィー天神町株式会社,,株式会社,東京都,文京区,湯島３丁目１７－３,,13,105,1130034,,,,,,,2021-10-04,1,,,,,フィロソフィーテンジンチョウ,0
2556,9010403026228,新規,0,2021-10-04,2021-10-04,合同会社ＡＺ　ｏｎｅ,,合同会社,東京都,港区,南青山２丁目２番１５号,,13,103,1070062,,,,,,,2021-10-04,1,,,,,エーゼットワン,0
2557,9010403026236,新規,0,2021-10-04,2021-10-04,合同会社Ｚａｇｉｎ　Ｂｒｏｔｈｅｒｓ,,合同会社,東京都,港区,新橋５丁目７－３－７０１,,13,103,1050004,,,,,,,2021-10-04,1,,,,,ザギンブラザーズ,0
2560,9010601060020,新規,0,2021-10-04,2021-10-04,株式会社及川幸久インスティチュート,,株式会社,東京都,江東区,有明１丁目２番１１－３０７号,,13,108,1350063,,,,,,,2021-10-04,1,,,,,オイカワユキヒサインスティチュート,0
2564,9010701041597,新規,0,2021-10-04,2021-10-04,株式会社ＭＮＣ　ｃｏｎｓｕｌｔｉｎｇ,,株式会社,東京都,品川区,東中延１丁目１０番１９号,,13,109,1420052,,,,,,,2021-10-04,1,,,,,エムエヌシーコンサルティング,0
2574,9011001143010,新規,0,2021-10-04,2021-10-04,株式会社Ｓａｎａ　Ｉｎｔ．,,株式会社,東京都,渋谷区,神宮前３丁目７番４号パークプレース神宮前４Ｆ,,13,113,1500001,,,,,,,2021-10-04,1,,,,,サナイント,0
2575,9011001143035,新規,0,2021-10-04,2021-10-04,株式会社リヴェーラ・スワン,,株式会社,東京都,渋谷区,恵比寿２丁目２８－１０,,13,113,1500013,,,,,,,2021-10-04,1,,,,,リヴェーラスワン,0
2576,9011001143118,新規,0,2021-10-04,2021-10-04,株式会社エム・ケー,,株式会社,東京都,渋谷区,恵比寿２丁目１７番２０号スクエアコート恵比寿５０１,,13,113,1500013,,,,,,,2021-10-04,1,,,,,エムケー,0
2577,9011001143175,新規,0,2021-10-04,2021-10-04,株式会社ＹａＲＥＡＬ,,株式会社,東京都,目黒区,青葉台４丁目２番１９－４０１号総和ビラ青葉台マンション,,13,110,1530042,,,,,,,2021-10-04,1,,,,,ヤリアル,0
2579,9011003013434,新規,0,2021-10-04,2021-10-04,ボーダーベース合同会社,,合同会社,東京都,渋谷区,神宮前６丁目２３番４号桑野ビル２階,,13,113,1500001,,,,,,,2021-10-04,1,,,,,ボーダーベース,0
2580,9011003013442,新規,0,2021-10-04,2021-10-04,Ｎ１０合同会社,,合同会社,東京都,渋谷区,広尾１丁目１０－６－１３０５,,13,113,1500012,,,,,,,2021-10-04,1,,,,,エヌイチゼロ,0
2581,9011003013450,新規,0,2021-10-04,2021-10-04,吉日合同会社,,合同会社,東京都,渋谷区,富ヶ谷１丁目１４番１４号４階,,13,113,1510063,,,,,,,2021-10-04,1,,,,,キツジツ,0
2582,9011003013467,新規,0,2021-10-04,2021-10-04,合同会社水木,,合同会社,東京都,渋谷区,神宮前６丁目２３番４号桑野ビル２階,,13,113,1500001,,,,,,,2021-10-04,1,,,,,ミズキ,0
2588,9011101096447,新規,0,2021-10-04,2021-10-04,株式会社Ｐｏｓｉｔｉｖｅ　Ｆｏｏｄ　Ｗｏｒｋｓ,,株式会社,東京都,新宿区,愛住町１９番地２４・３階,,13,104,1600005,,,,,,,2021-10-04,1,,,,,ポジティブフードワークス,0
2591,9011305002779,新規,0,2021-10-04,2021-10-04,一般社団法人ごみプロジェクト,,その他の設立登記法人,東京都,杉並区,梅里１丁目１１番８－４０３号,,13,115,1660011,,,,,,,2021-10-04,1,,,,,ゴミプロジェクト,0
2595,9011601025442,新規,0,2021-10-04,2021-10-04,株式会社アクティブワン,,株式会社,東京都,練馬区,桜台６丁目３３番１４号,,13,120,1760002,,,,,,,2021-10-04,1,,,,,アクティブワン,0
2603,9011805003112,新規,0,2021-10-04,2021-10-04,一般社団法人方円庵,,その他の設立登記法人,東京都,葛飾区,亀有１丁目２８番１号,,13,122,1250061,,,,,,,2021-10-04,1,,,,,ホウエンアン,0
2604,9012401038345,新規,0,2021-10-04,2021-10-04,株式会社ＣＯＦＦＥＡ　ＥＸＬＩＢＲＩＳ,,株式会社,東京都,府中市,八幡町３丁目１９番地の３,,13,206,1830016,,,,,,,2021-10-04,1,,,,,コフィアエクスリブリス,0
2605,9012403005046,新規,0,2021-10-04,2021-10-04,合同会社ｄｅ　ｃｌａｖｉｅｒ,,合同会社,東京都,小金井市,梶野町５丁目７番１８号,,13,210,1840002,,,,,,,2021-10-04,1,,,,,ドゥクラビエ,0
2607,9012701016694,新規,0,2021-10-04,2021-10-04,株式会社ネクスト,,株式会社,東京都,小平市,花小金井４丁目１２番３８号ユートピア花小金井３０１号室,,13,211,1870002,,,,,,,2021-10-04,1,,,,,ネクスト,0
2618,9020001143218,新規,0,2021-10-04,2021-10-04,ＳＡＫＡＥホールディングス株式会社,,株式会社,神奈川県,横浜市港北区,新横浜１丁目１４番地２０光正第２ビル８Ｆ,,14,109,2220033,,,,,,,2021-10-04,1,,,,,サカエホールディングス,0
2619,9020001143234,新規,0,2021-10-04,2021-10-04,株式会社進藤商店,,株式会社,神奈川県,横浜市青葉区,あかね台２丁目２３番地１４,,14,117,2270066,,,,,,,2021-10-04,1,,,,,シンドウショウテン,0
2623,9020003020571,新規,0,2021-10-04,2021-10-04,合同会社Ｋ＆Ｍパートナーズ,,合同会社,神奈川県,横浜市瀬谷区,三ツ境７２番地１０,,14,114,2460022,,,,,,,2021-10-04,1,,,,,ケーアンドエムパートナーズ,0
2639,9040001120363,新規,0,2021-10-04,2021-10-04,株式会社辻工業,00124415,株式会社,千葉県,四街道市,大日９１番地１５,,12,228,2840001,,,,,,,2021-10-04,1,,,,,ツジコウギョウ,0
2648,9070001038495,新規,0,2021-10-04,2021-10-04,アークリー株式会社,,株式会社,群馬県,藤岡市,本動堂２１５番地３,,10,209,3750051,,,,,,,2021-10-04,1,,,,,アークリー,0
2653,9080401025373,新規,0,2021-10-04,2021-10-04,株式会社ＳＯＴＯＫＡＲＡ,,株式会社,静岡県,浜松市中区,高町３００番地の２７プレミスト高町１００１号室,,22,131,4328015,,,,,,,2021-10-04,1,,,,,ソトカラ,0
2667,9100003006249,新規,0,2021-10-04,2021-10-04,合同会社ａｎｉｍａｌ　ｂｒｏｔｈｅｒｓ,,合同会社,長野県,北安曇郡白馬村,大字北城２９３７番地３０９,,20,485,3999301,,,,,,,2021-10-04,1,,,,,アニマルブラザーズ,0
2669,9110001036073,新規,0,2021-10-04,2021-10-04,株式会社長建工業,,株式会社,新潟県,新発田市,東新町１丁目１３番３４号,,15,206,9570015,,,,,,,2021-10-04,1,,,,,チョウケンコウギョウ,0
2681,9120001240780,新規,0,2021-10-04,2021-10-04,株式会社ＭｅＤｉＡ,,株式会社,大阪府,大阪市中央区,淡路町２丁目６番１０号大阪毛織会館４階,,27,128,5410047,,,,,,,2021-10-04,1,,,,,メディア,0
2682,9120001240830,新規,0,2021-10-04,2021-10-04,株式会社Ｒｉｓｉｎｇ,,株式会社,大阪府,大阪市北区,同心２丁目１１－２７－２０１,,27,127,5300035,,,,,,,2021-10-04,1,,,,,ライジング,0
2690,9120101064378,新規,0,2021-10-04,2021-10-04,株式会社ＨＡＢＩＫＩＮＯ,,株式会社,大阪府,羽曳野市,はびきの５丁目２２番５号アモール１階,,27,222,5830872,,,,,,,2021-10-04,1,,,,,ハビキノ,0
2694,9120901044959,新規,0,2021-10-04,2021-10-04,株式会社アスリートＥａｓｔ,,株式会社,大阪府,摂津市,鳥飼下３丁目８番５号,,27,224,5660071,,,,,,,2021-10-04,1,,,,,アスリートイースト,0
2695,9120903003847,新規,0,2021-10-04,2021-10-04,合同会社ＳＢＣ,,合同会社,大阪府,豊中市,新千里東町１丁目４－１阪急千里中央ビル８Ｆ,,27,203,5600082,,,,,,,2021-10-04,1,,,,,エスビーシー,0
2696,9122001035228,新規,0,2021-10-04,2021-10-04,株式会社大木谷工業,,株式会社,大阪府,八尾市,相生町２丁目１番５７号,,27,212,5810082,,,,,,,2021-10-04,1,,,,,オオギヤコウギョウ,0
2698,9130001070236,新規,0,2021-10-04,2021-10-04,株式会社横尾工務店,,株式会社,京都府,京都市南区,吉祥院西浦町１００番地７,,26,107,6018352,,,,,,,2021-10-04,1,,,,,ヨコオコウムテン,0
2707,9140001123216,新規,0,2021-10-04,2021-10-04,株式会社Ｄａｒｅ,,株式会社,兵庫県,西宮市,今津二葉町４番３９－２号,,28,204,6638228,,,,,,,2021-10-04,1,,,,,ダー,0
2708,9140001123224,新規,0,2021-10-04,2021-10-04,株式会社ＪａｙＦａｒｍ,,株式会社,兵庫県,三木市,吉川町実楽６５８番地,,28,215,6731106,,,,,,,2021-10-04,1,,,,,ジェイファーム,0
2709,9140001123240,新規,0,2021-10-04,2021-10-04,株式会社りんごのたね,,株式会社,兵庫県,神戸市垂水区,舞多聞西２丁目４番１号,,28,108,6550051,,,,,,,2021-10-04,1,,,,,リンゴノタネ,0
2712,9140003016780,新規,0,2021-10-04,2021-10-04,合同会社大冒険,,合同会社,兵庫県,神戸市兵庫区,神田町１５番１４－３０３号,,28,105,6520006,,,,,,,2021-10-04,1,,,,,ダイボウケン,0
2713,9140003016797,新規,0,2021-10-04,2021-10-04,イ・ファ合同会社,,合同会社,兵庫県,尼崎市,道意町４丁目２６番地の１,,28,202,6600083,,,,,,,2021-10-04,1,,,,,イファ,0
2719,9150001024958,新規,0,2021-10-04,2021-10-04,ＬｉＬｕＬｅＡ株式会社,,株式会社,奈良県,橿原市,十市町８３７－３,,29,205,6340008,,,,,,,2021-10-04,1,,,,,リルレア,0
2720,9160001023686,新規,0,2021-10-04,2021-10-04,株式会社堀内,,株式会社,滋賀県,草津市,大路２丁目１番６－１５０３号,,25,206,5250032,,,,,,,2021-10-04,1,,,,,ホリウチ,0
2722,9170001016805,新規,0,2021-10-04,2021-10-04,株式会社マルケンみかん,,株式会社,和歌山県,有田郡有田川町,大字賢５４番地１,,30,366,6430843,,,,,,,2021-10-04,1,,,,,マルケンミカン,0
2730,9180001147979,新規,0,2021-10-04,2021-10-04,株式会社シングトレーディング,,株式会社,愛知県,春日井市,岩成台６丁目２番地３－１６号棟４０２号室,,23,206,4870033,,,,,,,2021-10-04,1,,,,,シングトレーディング,0
2731,9180001147995,新規,0,2021-10-04,2021-10-04,株式会社ＳＴＥＲＲＡ,,株式会社,愛知県,名古屋市北区,中丸町２丁目４０番地の５,,23,103,4620056,,,,,,,2021-10-04,1,,,,,ステラ,0
2732,9180001148077,新規,0,2021-10-04,2021-10-04,株式会社戸田電気通信,,株式会社,愛知県,北名古屋市,九之坪天神２７番地３,,23,234,4810041,,,,,,,2021-10-04,1,,,,,トダデンキツウシン,0
2733,9180003023022,新規,0,2021-10-04,2021-10-04,合同会社ｓｉｇｎ,,合同会社,愛知県,名古屋市中区,栄１丁目２４番３４号（エステムコート名古屋栄プレシャス５０９号）,,23,106,4600008,,,,,,,2021-10-04,1,,,,,サイン,0
2734,9180003023030,新規,0,2021-10-04,2021-10-04,合同会社ｆｒｏｍ　ＡｔｏＺ,,合同会社,愛知県,名古屋市中区,新栄３丁目１７番９号（プレサンス新栄リミックス５０９号）,,23,106,4600007,,,,,,,2021-10-04,1,,,,,フロムエートゥゼット,0
2737,9180301035462,新規,0,2021-10-04,2021-10-04,株式会社くぼ保険事務所,,株式会社,愛知県,豊橋市,向山台町１１番地１８,,23,201,4400865,,,,,,,2021-10-04,1,,,,,クボホケンジムショ,0
2738,9180301035470,新規,0,2021-10-04,2021-10-04,株式会社ＲｅｊｉＮａ,,株式会社,愛知県,豊橋市,大清水町字大清水５５４番地の２,,23,201,4418133,,,,,,,2021-10-04,1,,,,,レジーナ,0
2740,9190001028732,新規,0,2021-10-04,2021-10-04,株式会社小嶋石油,,株式会社,三重県,度会郡南伊勢町,河内乙７０番地,,24,472,5161421,,,,,,,2021-10-04,1,,,,,コジマセキユ,0
2746,9190003003774,新規,0,2021-10-04,2021-10-04,合同会社ＡＬＢＡ,,合同会社,三重県,松阪市,久保町１８５５番地６７９,,24,204,5150044,,,,,,,2021-10-04,1,,,,,アルバ,0
2748,9200001039216,新規,0,2021-10-04,2021-10-04,株式会社Ｆｒａｎｋ,,株式会社,岐阜県,揖斐郡大野町,大字下磯１３３番地,,21,403,5010532,,,,,,,2021-10-04,1,,,,,フランク,0
2749,9200001039232,新規,0,2021-10-04,2021-10-04,株式会社ラクトコーポレーション,,株式会社,岐阜県,羽島市,竹鼻町丸の内７丁目１６番地西棟,,21,209,5016244,,,,,,,2021-10-04,1,,,,,ラクトコーポレーション,0
2750,9200001039249,新規,0,2021-10-04,2021-10-04,株式会社角田技建,,株式会社,岐阜県,揖斐郡揖斐川町,北方１８００番地２,,21,401,5010601,,,,,,,2021-10-04,1,,,,,ツノダギケン,0
2754,9210001018623,新規,0,2021-10-04,2021-10-04,鼎新株式会社,,株式会社,福井県,敦賀市,木崎３９号２６番地の９,,18,202,9140814,,,,,,,2021-10-04,1,,,,,テイシン,0
2759,9240001058690,新規,0,2021-10-04,2021-10-04,ＲＹＯＫＯ　ＴＲＡＤＩＮＧ　ＪＡＰＡＮ株式会社,,株式会社,広島県,広島市西区,商工センター１丁目８番１号,,34,104,7330833,,,,,,,2021-10-04,1,,,,,リョウコウトレーディングジャパン,0
2763,9260001036018,新規,0,2021-10-04,2021-10-04,株式会社Ｈｏｎｊｉｅｎ,,株式会社,岡山県,岡山市北区,中山下１丁目８番１２号ロイヤルガーデン中山下弐番館３０３号,,33,101,7000821,,,,,,,2021-10-04,1,,,,,ホンジエン,0
2764,9260001036026,新規,0,2021-10-04,2021-10-04,株式会社和田瓦,,株式会社,岡山県,倉敷市,茶屋町７７８番地,,33,202,7101101,,,,,,,2021-10-04,1,,,,,ワダカワラ,0
2765,9260001036042,新規,0,2021-10-04,2021-10-04,株式会社布都,,株式会社,岡山県,倉敷市,大島６４６番地,,33,202,7100047,,,,,,,2021-10-04,1,,,,,フツ,0
2768,9260005010976,新規,0,2021-10-04,2021-10-04,農事組合法人晴,,その他の設立登記法人,岡山県,津山市,山北７６４番地５,,33,203,7080004,,,,,,,2021-10-04,1,,,,,ハレ,0
2776,9290001094839,新規,0,2021-10-04,2021-10-04,城南ＷＯＲＫＳ株式会社,,株式会社,福岡県,福岡市南区,長丘２丁目３－２５サニーハウス長丘３０２,,40,134,8150075,,,,,,,2021-10-04,1,,,,,ジョウナンワークス,0
2778,9290003011676,新規,0,2021-10-04,2021-10-04,合同会社Ｃ＆Ｂ,,合同会社,福岡県,福岡市博多区,比恵町１－１８東カン第二キャステール９０３,,40,132,8120014,,,,,,,2021-10-04,1,,,,,シーアンドビー,0
2783,9310001017499,新規,0,2021-10-04,2021-10-04,株式会社大長,,株式会社,長崎県,西彼杵郡長与町,高田郷８５８番地７９,,42,307,8512127,,,,,,,2021-10-04,1,,,,,ヒロナガ,0
2789,9330001029022,新規,0,2021-10-04,2021-10-04,株式会社ＨＩＪ,,株式会社,熊本県,熊本市中央区,紺屋阿弥陀寺町１０番地,,43,101,8600033,,,,,,,2021-10-04,1,,,,,エイチアイジェイ,0
2790,9330001029030,新規,0,2021-10-04,2021-10-04,株式会社田中八,,株式会社,熊本県,熊本市西区,松尾２丁目３番１０号,,43,103,8615280,,,,,,,2021-10-04,1,,,,,タナカヤ,0
2793,9340003003569,新規,0,2021-10-04,2021-10-04,市尾畜産合同会社,,合同会社,鹿児島県,出水郡長島町,鷹巣３５９５番地６,,46,404,8991401,,,,,,,2021-10-04,1,,,,,イチオチクサン,0
2795,9350001017330,新規,0,2021-10-04,2021-10-04,株式会社シャインナック,,株式会社,宮崎県,宮崎市,大塚町西ノ後３４２０番地１,,45,201,8800951,,,,,,,2021-10-04,1,,,,,シャインナック,0
2796,9350001017339,新規,0,2021-10-04,2021-10-04,株式会社ＳＭＡＲＴ,,株式会社,宮崎県,宮崎市,高洲町１７４番地１５,,45,201,8800852,,,,,,,2021-10-04,1,,,,,スマート,0
2798,9350003003931,新規,0,2021-10-04,2021-10-04,ＫＯＣＨＩ－ＫＵＭＡ合同会社,,合同会社,宮崎県,宮崎市,恒久３丁目１９番地８カワナベビル３０１号,,45,201,8800913,,,,,,,2021-10-04,1,,,,,コチクマ,0
2799,9370001047631,新規,0,2021-10-04,2021-10-04,株式会社小幡塗装,,株式会社,宮城県,仙台市太白区,東中田１丁目２３番６号,,04,104,9811107,,,,,,,2021-10-04,1,,,,,オバタトソウ,0
2801,9370003005414,新規,0,2021-10-04,2021-10-04,合同会社アイ,,合同会社,宮城県,仙台市泉区,虹の丘３丁目５番地の２１,,04,105,9818007,,,,,,,2021-10-04,1,,,,,アイ,0
2804,9400001015626,新規,0,2021-10-04,2021-10-04,株式会社ＰａｉｎｔＷｏｒｋｓ,,株式会社,岩手県,盛岡市,津志田１５地割２９番地１６アーバンコートＩＩ１０１号,00124411,03,201,0200835,,,,,,,2021-10-04,1,,,,,ペイントワークス,0
2806,9430001085088,新規,0,2021-10-04,2021-10-04,株式会社ラッセル,,株式会社,北海道,札幌市西区,宮の沢一条５丁目１番１号,,01,107,0630051,,,,,,,2021-10-04,1,,,,,ラッセル,0
2810,9430005014299,新規,0,2021-10-04,2021-10-04,特定非営利活動法人ジャパン・ドリーム・アーツ,,その他の設立登記法人,北海道,札幌市東区,北二十五条東２２丁目１－３６－２,,01,103,0650025,,,,,,,2021-10-04,1,,,,,ジャパンドリームアーツ,0
2812,9450001013492,新規,0,2021-10-04,2021-10-04,ｏｌｂｂ株式会社,,株式会社,北海道,旭川市,豊岡七条３丁目２番１１号,,01,204,0788237,,,,,,,2021-10-04,1,,,,,オーエルビービー,0
2813,9460001005605,新規,0,2021-10-04,2021-10-04,株式会社ハウスペイントきくち,,株式会社,北海道,釧路市,芦野１丁目２５番１９号,00124413,01,206,0850061,,,,,,,2021-10-04,1,,,,,ハウスペイントキクチ,0
2819,9490001010008,新規,0,2021-10-04,2021-10-04,株式会社Ｅｌ　Ｖｏｌａｎｔｅ,,株式会社,高知県,香南市,香我美町福万４２番地５,,39,211,7815461,,,,,,,2021-10-04,1,,,,,エルボランテ,0
2824,9700150104942,新規,0,2021-10-04,2021-10-04,花鳥画に音楽をのせて実行委員会,,その他,東京都,杉並区,本天沼１丁目６番地１号,,13,115,1670031,,,,,,,2021-10-04,1,,,,,カチョウガニオンガクヲノセテジッコウイインカイ,0
2825,9700150105024,新規,0,2021-10-04,2021-10-04,Ｎａｇｏｙａ　Ａｕｔｏ　Ｇｒｏｕｐ,,外国会社等,香川県,高松市,国分寺町新居１３１９番地８－２１０,,37,201,7690101,スリランカ民主社会主義共和国、キャンディ、アンバテンナ、カハワッタ、キングスコート、２２,,,,,,2021-10-04,1,,,,,ナゴヤオートグループ,0
2826,9700150105032,新規,0,2021-10-04,2021-10-04,ＨＩＧＨＷＡＹ　ＡＵＴＯ　ＣＯＲＰＯＲＡＴＩＯＮ,,外国会社等,千葉県,東金市,極楽寺８１８－５Ｄ,,12,213,2830835,スリランカ民主社会主義共和国、キャンディ、アクラナ、テルムバガワッタ、Ｎｏ．２８０／１／Ａ,,,,,,2021-10-04,1,,,,,ハイウエイオートコーポレーシヨン,0
2827,9700150105040,新規,0,2021-10-04,2021-10-04,ＢＵＮＣＨＵＡＩ　ＡＬＡＩＹＯＮＴ　２０１１　ＬＩＭＩＴＥＤ　ＰＡＲＴＮＥＲＳＨＩＰ,,外国会社等,宮城県,角田市,尾山字大久保５５番地２,,04,208,9811502,タイ国プラナコーンシアユタヤー州ワンノ－イ郡チャマエップ地区ファホンヨーティン・ロード・ヴィレッジ第２・２０６／２８９,,,,,,2021-10-04,1,,,,,ブンチヤイアライヨントリミテツドパートナーシツプ,0
