sequenceNumber,corporateNumber,process,correct,updateDate,changeDate,name,nameImageId,kind,prefectureName,cityName,streetNumber,addressImageId,prefectureCode,cityCode,postCode,addressOutside,addressOutsideImageId,closeDate,closeCause,successorCorporateNumber,changeCause,assignmentDate,latest,enName,enPrefectureName,enCityName,enAddressOutside,furigana,hihyoji
6,1010001209407,登記記録の閉鎖等,0,2025-03-12,2025-02-28,日本青草株式会社,,株式会社,東京都,千代田区,東神田２丁目６番７号６Ｆ,,13,101,1010031,,,2025-02-28,清算の結了等,,,2020-05-07,1,,,,,ニホンセイソウ,0
23,1010601017795,登記記録の閉鎖等,0,2025-03-12,2025-03-10,株式会社アクティブクリエーション,,株式会社,神奈川県,横須賀市,汐入町５丁目２３番地,,14,201,2380042,,,2025-03-10,清算の結了等,,,2015-10-05,1,,,,,,0
27,1010701031762,登記記録の閉鎖等,0,2025-03-12,2025-02-26,株式会社ＡＬＬ　ＣＯＮＮＥＣＴ　Ｍｏｂｉｌｅ,,株式会社,福井県,福井市,栂野町第１５号１番地２,,18,201,9102178,,,2025-02-26,合併による解散等,1210001008573,令和７年２月２６日福井市栂野町第１５号１番地２株式会社ＡＬＬ　ＣＯＮＮＥＣＴ（1210001008573）に合併し解散,2015-12-25,1,,,,,オールコネクトモバイル,0
62,1012301010691,登記記録の閉鎖等,0,2025-03-12,2025-03-10,ファーフィールドサウンド株式会社,,株式会社,東京都,町田市,玉川学園１丁目２２番１０号玉川学園インペリアル１Ｆ,,13,209,1940041,,,2025-03-10,清算の結了等,,,2016-09-05,1,,,,,ファーフィールドサウンド,0
76,1020002064940,登記記録の閉鎖等,0,2025-03-12,2025-03-03,有限会社セキコム,,有限会社,神奈川県,横浜市保土ケ谷区,上星川２丁目２８番２５号,,14,106,2400042,,,2025-03-03,清算の結了等,,,2015-10-05,1,,,,,セキコム,0
103,1040001000119,登記記録の閉鎖等,0,2025-03-12,2025-03-07,株式会社アイキョーホーム,,株式会社,千葉県,千葉市若葉区,都賀３丁目２番２号ライブリー都賀,,12,104,2640025,,,2025-03-07,合併による解散等,2011701009005,令和７年３月１日東京都江戸川区平井三丁目１４番１１号株式会社アイキョーホーム（2011701009005）に合併し解散,2015-10-05,1,,,,,アイキョーホーム,0
106,1040001022922,登記記録の閉鎖等,0,2025-03-12,2025-03-04,株式会社プロスパート,,株式会社,千葉県,船橋市,前原東５丁目３６番２号,,12,204,2740824,,,2025-03-04,清算の結了等,,,2015-10-05,1,,,,,プロスパート,0
107,1040001047143,登記記録の閉鎖等,0,2025-03-12,2025-03-07,株式会社ユーピーアイ,,株式会社,千葉県,佐倉市,栄町１９番地５京成サンコーポ１０５号,,12,212,2850014,,,2025-03-07,合併による解散等,3011701009375,令和７年３月１日東京都江戸川区北葛西一丁目２２番１７号メディカル・ケア・プランニング株式会社（3011701009375）に合併し解散,2015-10-05,1,,,,,ユーピーアイ,0
117,1060002030963,登記記録の閉鎖等,0,2025-03-12,2025-03-06,有限会社ヤマヤ精密,,有限会社,栃木県,下野市,駅東３丁目３番１９号,,09,216,3290413,,,2025-03-06,清算の結了等,,,2015-10-05,1,,,,,ヤマヤセイミツ,0
118,1060002041250,登記記録の閉鎖等,0,2025-03-12,2025-03-05,有限会社かおる,,有限会社,栃木県,足利市,南大町４０７番地５,,09,202,3260836,,,2025-03-05,清算の結了等,,,2024-12-20,1,,,,,カオル,0
132,1120001020562,登記記録の閉鎖等,0,2025-03-12,2025-03-07,昭和ゴム株式会社,,株式会社,大阪府,大阪市平野区,加美北５丁目１１番４３号,,27,126,5470001,,,2025-03-07,清算の結了等,,,2015-10-05,1,,,,,ショウワゴム,0
133,1120001196642,登記記録の閉鎖等,0,2025-03-12,2025-03-03,株式会社ポパイ,,株式会社,大阪府,大阪市西区,京町堀１丁目４番２２号,,27,106,5500003,,,2025-03-03,合併による解散等,3120001200055,令和７年３月３日大阪市西区京町堀一丁目１１番７号株式会社ｍｉｖｏ　Ｓｔｅｐ（3120001200055）に合併し解散,2016-03-03,1,,,,,ポパイ,0
154,1140001075282,登記記録の閉鎖等,0,2025-03-12,2025-03-06,株式会社生田製パン所,,株式会社,兵庫県,西脇市,上比延町６４７番地,,28,213,6770039,,,2025-03-06,清算の結了等,,,2015-10-05,1,,,,,イクタセイパンショ,0
203,1240003006614,登記記録の閉鎖等,0,2025-03-12,2025-03-11,合同会社食未来Ｌａｂｏ,,合同会社,広島県,福山市,松永町４丁目９番１９号,,34,207,7290104,,,2025-03-11,清算の結了等,,,2024-04-04,1,,,,,ショクミライラボ,0
234,1330002020177,登記記録の閉鎖等,0,2025-03-12,2025-03-06,株式会社松本農園,,株式会社,熊本県,上益城郡益城町,大字上陳８３８番地,,43,443,8612203,,,2025-03-06,合併による解散等,9340001018429,令和７年３月１日鹿児島市与次郎一丁目１０番２１号株式会社ニシハラグリーンファーム（9340001018429）に合併し解散,2015-10-05,1,,,,,マツモトノウエン,0
239,1350001001382,登記記録の閉鎖等,0,2025-03-12,2025-03-10,八紘警備保障株式会社,,株式会社,宮崎県,宮崎市,権現町１１４番地１,,45,201,8800822,,,2025-03-10,清算の結了等,,,2015-10-05,1,,,,,ハッコウケイビホショウ,0
291,2010401099744,登記記録の閉鎖等,0,2025-03-12,2025-03-03,株式会社虎ノ門ファイナンシャル,,株式会社,千葉県,八千代市,村上２６６２番地１５,,12,221,2760028,,,2025-03-03,清算の結了等,,,2015-10-05,1,,,,,トラノモンファイナンシャル,0
298,2010403029550,登記記録の閉鎖等,0,2025-03-12,2025-02-28,合同会社ＫＳＩＦ,,合同会社,東京都,千代田区,内幸町２丁目１番６号,,13,101,1000011,,,2025-02-28,清算の結了等,,,2023-02-20,1,,,,,ケイエスアイエフ,0
312,2010701041281,登記記録の閉鎖等,0,2025-03-12,2025-03-07,株式会社外交研究会,,株式会社,京都府,福知山市,長田野町２丁目３８番地,,26,201,6200853,,,2025-03-07,清算の結了等,,,2021-07-26,1,,,,,ガイコウケンキュウカイ,0
340,2012401000749,登記記録の閉鎖等,0,2025-03-12,2025-03-10,株式会社しめのうち商店,,株式会社,東京都,府中市,宮町２丁目３番地の８,,13,206,1830023,,,2025-03-10,清算の結了等,,,2015-10-05,1,,,,,シメノウチショウテン,0
342,2012401033187,登記記録の閉鎖等,0,2025-03-12,2025-03-06,クライムアップ株式会社,,株式会社,東京都,稲城市,若葉台１丁目６１番地の１９,,13,225,2060824,,,2025-03-06,清算の結了等,,,2017-09-19,1,,,,,クライムアップ,0
344,2012402000987,登記記録の閉鎖等,0,2025-03-12,2025-03-07,有限会社神戸建築設計事務所,,有限会社,東京都,府中市,分梅町４丁目１０番地の２５,,13,206,1830033,,,2025-03-07,清算の結了等,,,2015-10-05,1,,,,,カンベケンチクセッケイジムショ,0
354,2020001040165,登記記録の閉鎖等,0,2025-03-12,2025-03-03,株式会社ビーコムファイナンシャルサービス,,株式会社,神奈川県,横浜市中区,羽衣町１丁目１番地１,,14,104,2310047,,,2025-03-03,合併による解散等,1020001034011,令和７年３月１日横浜市中区羽衣町一丁目１番地１株式会社三田ホールディングズ（1020001034011）に合併し解散,2015-10-05,1,,,,,ビーコムファイナンシャルサービス,0
369,2021001040163,登記記録の閉鎖等,0,2025-03-12,2025-03-11,株式会社亀葬,,株式会社,神奈川県,横須賀市,佐野町５丁目１７番地,,14,201,2380052,,,2025-03-11,清算の結了等,,,2015-10-05,1,,,,,カメソウ,0
374,2021003001221,登記記録の閉鎖等,0,2025-03-12,2025-03-10,合資会社杉山商店,,合資会社,神奈川県,相模原市中央区,上溝７丁目８番６号,,14,152,2520243,,,2025-03-10,清算の結了等,,,2015-10-05,1,,,,,スギヤマショウテン,0
381,2030003010900,登記記録の閉鎖等,0,2025-03-12,2025-03-03,合同会社パインズカーサ,,合同会社,埼玉県,さいたま市浦和区,元町３丁目２３番６号,,11,107,3300073,,,2025-03-03,合併による解散等,1030001131195,令和７年３月１日埼玉県さいたま市浦和区元町三丁目２３番６号株式会社パインズトラスト（1030001131195）に合併し解散,2017-10-16,1,,,,,パインズカーサ,0
428,2120001044008,登記記録の閉鎖等,0,2025-03-12,2025-03-10,新興＿栓株式会社,00028162,株式会社,大阪府,大阪市西区,新町３丁目１３番４号,,27,106,5500013,,,2025-03-10,清算の結了等,,,2015-10-05,1,,,,,シンコウベンセン,0
439,2120001264522,登記記録の閉鎖等,0,2025-03-12,2025-03-07,株式会社ＮＡＭＢＡ,,株式会社,大阪府,大阪市中央区,城見２丁目１番６１号,,27,128,5400001,,,2025-03-07,合併による解散等,3120001197408,令和７年３月１日東京都港区芝大門二丁目２番１号株式会社ＡＣＮ不動産（3120001197408）に合併し解散,2024-04-30,1,,,,,ナンバ,0
448,2122001024088,登記記録の閉鎖等,0,2025-03-12,2025-03-07,株式会社ピクセルラボ,,株式会社,大阪府,東大阪市,西石切町７丁目６番７－１２０６号,,27,227,5798013,,,2025-03-07,清算の結了等,,,2015-10-05,1,,,,,ピクセルラボ,0
455,2140001027976,登記記録の閉鎖等,0,2025-03-12,2025-03-07,信星国際貿易株式会社,,株式会社,兵庫県,神戸市須磨区,大田町２丁目２番１２号,,28,107,6540024,,,2025-03-07,清算の結了等,,,2015-10-05,1,,,,,シンシンコクサイボウエキ,0
488,2180003022063,登記記録の閉鎖等,0,2025-03-12,2025-03-06,合同会社ＲＩＣ,,合同会社,愛知県,あま市,七宝町下田矢倉下１４０１番地３,,23,237,4970012,,,2025-03-06,清算の結了等,,,2021-01-25,1,,,,,アールアイシー,0
506,2240001051990,登記記録の閉鎖等,0,2025-03-12,2025-03-10,Ｃｕｂｓ＆Ｂｕｂｓ株式会社,,株式会社,広島県,広島市中区,寺町５番１５号,,34,101,7300801,,,2025-03-10,清算の結了等,,,2017-11-22,1,,,,,カブスアンドバブス,0
509,2240005002016,登記記録の閉鎖等,0,2025-03-12,2025-03-11,シャンボール東雲管理組合法人,,その他の設立登記法人,広島県,広島市南区,東雲２丁目１３番１２号,,34,103,7340022,,,2025-03-11,清算の結了等,,,2015-10-05,1,,,,,シャンボールシノノメ,0
530,2290801003914,登記記録の閉鎖等,0,2025-03-12,2025-03-03,ライフライン株式会社,,株式会社,福岡県,北九州市小倉北区,金田２丁目６番１８－１００３号,,40,106,8030816,,,2025-03-03,合併による解散等,1290802004185,令和７年３月１日北九州市小倉北区田町１１番８号株式会社ティー・エス・プランニング（1290802004185）に合併し解散,2015-10-05,1,,,,,ライフライン,0
557,2420001012264,登記記録の閉鎖等,0,2025-03-12,2025-03-03,株式会社ＤＣグローバル,,株式会社,青森県,上北郡おいらせ町,神明前１４３番地１２７,,02,412,0392164,,,2025-03-03,合併による解散等,9420002010698,令和７年３月１日青森県八戸市南白山台三丁目１番１５号株式会社ブラックワン（9420002010698）に合併し解散,2015-10-05,1,,,,,ディーシーグローバル,0
565,2450001006180,登記記録の閉鎖等,0,2025-03-12,2025-03-10,株式会社ライフ・プラン一級建築士事務所,,株式会社,北海道,旭川市,豊岡九条８丁目３番２号,,01,204,0788239,,,2025-03-10,清算の結了等,,,2015-10-05,1,,,,,,0
566,2450001012591,登記記録の閉鎖等,0,2025-03-12,2025-03-10,株式会社マルコウ運輸,,株式会社,北海道,富良野市,字学田三区,,01,229,0760035,,,2025-03-10,清算の結了等,,,2018-12-17,1,,,,,マルコウウンユ,0
576,2500001001060,登記記録の閉鎖等,0,2025-03-12,2025-03-10,株式会社おおさわ,,株式会社,愛媛県,松山市,築山町７番３８号,,38,201,7900864,,,2025-03-10,清算の結了等,,,2015-10-05,1,,,,,オオサワ,0
601,3010005021649,登記記録の閉鎖等,0,2025-03-12,2025-03-06,一般社団法人銀座ジェンヌ,,その他の設立登記法人,東京都,千代田区,丸の内１丁目４番１号東京共同会計事務所内,,13,101,1000005,,,2025-03-06,清算の結了等,,,2015-10-05,1,,,,,ギンザジェンヌ,0
609,3010403022694,登記記録の閉鎖等,0,2025-03-12,2025-03-07,リテールインベストメントカンパニー合同会社,,合同会社,東京都,港区,北青山２丁目５番１号,,13,103,1070061,,,2025-03-07,清算の結了等,,,2020-03-23,1,,,,,リテールインベストメントカンパニー,0
642,3011501001821,登記記録の閉鎖等,0,2025-03-12,2025-03-06,株式会社サザンオフィス,,株式会社,東京都,北区,上十条４丁目８番２０号,,13,117,1140034,,,2025-03-06,清算の結了等,,,2015-10-05,1,,,,,サザンオフィス,0
650,3011801038695,登記記録の閉鎖等,0,2025-03-12,2025-03-04,株式会社Ｄａｉｚｏ,,株式会社,東京都,足立区,栗原３丁目１０番１９－４０７号,,13,121,1230842,,,2025-03-04,清算の結了等,,,2021-01-28,1,,,,,ダイゾー,0
654,3012401014632,登記記録の閉鎖等,0,2025-03-12,2025-03-10,株式会社サンレイ,,株式会社,東京都,三鷹市,大沢２丁目５番５号,,13,204,1810015,,,2025-03-10,清算の結了等,,,2015-10-05,1,,,,,,0
667,3020001092643,登記記録の閉鎖等,0,2025-03-12,2025-03-03,株式会社ビーコムケイ・エヌ,,株式会社,神奈川県,横浜市中区,羽衣町１丁目１番地１,,14,104,2310047,,,2025-03-03,合併による解散等,4020001051136,令和７年３月１日横浜市中区羽衣町一丁目１番地１株式会社ウォンシクホールディングス（4020001051136）に合併し解散,2015-10-05,1,,,,,ビーコムケイエヌ,0
706,3080001020053,登記記録の閉鎖等,0,2025-03-12,2025-03-07,株式会社フリーウィル,,株式会社,静岡県,島田市,野田４０５番地の７１,,22,209,4270007,,,2025-03-07,清算の結了等,,,2015-10-05,1,,,,,フリーウィル,0
723,3120001226422,登記記録の閉鎖等,0,2025-03-12,2025-03-04,株式会社吉田商事,,株式会社,大阪府,大阪市北区,梅田１丁目２番２－２００号大阪駅前第２ビル２階１の１の１番地,,27,127,5300001,,,2025-03-04,清算の結了等,,,2020-01-10,1,,,,,ヨシダショウジ,0
726,3120003016846,登記記録の閉鎖等,0,2025-03-12,2025-03-10,ＰＯＮＤＴＲＥＥ合同会社,,合同会社,大阪府,大阪市港区,三先２丁目２０番４６号伊藤ビル１Ｆ,,27,107,5520016,,,2025-03-10,清算の結了等,,,2020-01-22,1,,,,,ポンドツリー,0
746,3140001093043,登記記録の閉鎖等,0,2025-03-12,2025-03-05,マスターズディベロップメント株式会社,,株式会社,兵庫県,伊丹市,荒牧南３丁目３番１３号,,28,207,6640008,,,2025-03-05,清算の結了等,,,2015-10-05,1,,,,,マスターズディベロップメント,0
773,3210001012755,登記記録の閉鎖等,0,2025-03-12,2025-03-11,貨泉プラスチツク株式会社,,株式会社,福井県,鯖江市,莇生田町２３号８番地,,18,207,9161224,,,2025-03-11,清算の結了等,,,2015-10-05,1,,,,,カセンプラスチック,0
776,3230002000749,登記記録の閉鎖等,0,2025-03-12,2025-03-07,有限会社海洋マリンサービス,,有限会社,富山県,富山市,四方北窪１７１６番地の１,,16,201,9302242,,,2025-03-07,清算の結了等,,,2015-10-05,1,,,,,カイヨウマリンサービス,0
785,3240002039076,登記記録の閉鎖等,0,2025-03-12,2025-03-10,有限会社秋田木型製作所,,有限会社,広島県,福山市,野上町１丁目１１番２号,,34,207,7200815,,,2025-03-10,清算の結了等,,,2015-10-05,1,,,,,アキタキガタセイサクショ,0
802,3290003014189,登記記録の閉鎖等,0,2025-03-12,2025-02-25,ＳＴＥＰ　ＵＰ　ＤＲＯＮＥ合同会社,,合同会社,福岡県,久留米市,西町１１９３番地５Ｒ－ＢＬＤＧ０２－６０１号,,40,203,8300038,,,2025-02-25,清算の結了等,,,2023-08-08,1,,,,,ステップアップドローン,0
805,3290801010471,登記記録の閉鎖等,0,2025-03-12,2025-03-03,福岡化成工業株式会社,,株式会社,福岡県,京都郡みやこ町,勝山黒田５９８番地４,,40,625,8240822,,,2025-03-03,合併による解散等,1290801010770,令和７年３月１日北九州市八幡西区黒崎城石２番１号安川マニュファクチャリング株式会社（1290801010770）に合併し解散,2015-10-05,1,,,,,フクオカカセイコウギョウ,0
808,3300001009239,登記記録の閉鎖等,0,2025-03-12,2025-03-07,株式会社みのはらフードサービス,,株式会社,佐賀県,佐賀市,鍋島町大字八戸３０５５番地,,41,201,8400857,,,2025-03-07,清算の結了等,,,2015-10-05,1,,,,,,0
829,3390002009345,登記記録の閉鎖等,0,2025-03-12,2025-03-07,有限会社サニークリーンサービス,,有限会社,山形県,鶴岡市,西茅原町２４番６号,,06,203,9970039,,,2025-03-07,清算の結了等,,,2015-10-05,1,,,,,サニークリーンサービス,0
835,3430001069625,登記記録の閉鎖等,0,2025-03-12,2025-03-07,株式会社Ｗｏｒｌｄ．ｃｏ,,株式会社,東京都,豊島区,巣鴨２丁目１１番５－３階,,13,116,1700002,,,2025-03-07,合併による解散等,3430001075565,令和７年２月８日札幌市中央区大通西十八丁目１－１４－３階株式会社ＷＯＲＬＤ　ＥＳＴＡＴＥ（3430001075565）に合併し解散,2015-10-05,1,,,,,ワールドドットシーオー,0
839,3430002015306,登記記録の閉鎖等,0,2025-03-12,2025-03-05,有限会社農村空間研究所,,有限会社,北海道,札幌市北区,北六条西６丁目２番地２４,,01,102,0600806,,,2025-03-05,清算の結了等,,,2015-10-05,1,,,,,ノウソンクウカンケンキュウジョ,0
843,3460002003836,登記記録の閉鎖等,0,2025-03-12,2025-03-11,有限会社すぎな,,有限会社,北海道,釧路市,白樺台２丁目２５番３号,,01,206,0850804,,,2025-03-11,清算の結了等,,,2015-10-05,1,,,,,スギナ,0
852,4010001051608,登記記録の閉鎖等,0,2025-03-12,2025-02-18,中央実業株式会社,,株式会社,東京都,中央区,日本橋蛎殻町１丁目３４－２,,13,102,1030014,,,2025-02-18,清算の結了等,,,2015-10-05,1,,,,,チュウオウジツギョウ,0
854,4010001101552,登記記録の閉鎖等,0,2025-03-12,2025-02-19,株式会社オサミオフィス,,株式会社,東京都,文京区,大塚２丁目１７番１２号,00118421,13,105,1120012,,,2025-02-19,清算の結了等,,,2015-10-05,1,,,,,オサミオフィス,0
860,4010001244954,登記記録の閉鎖等,0,2025-03-12,2025-02-14,オンリーテック株式会社,,株式会社,東京都,中央区,八丁堀３丁目２５番９号,,13,102,1040032,,,2025-02-14,清算の結了等,,,2024-05-22,1,,,,,オンリーテック,0
866,4010003042092,登記記録の閉鎖等,0,2025-03-12,2025-02-28,合同会社ＫＲＦ１０６,,合同会社,東京都,千代田区,内幸町２丁目１番６号,,13,101,1000011,,,2025-02-28,清算の結了等,,,2023-11-07,1,,,,,ケイアールエフヒャクロク,0
874,4010102007649,登記記録の閉鎖等,0,2025-03-12,2025-03-11,有限会社フェニックス,,有限会社,東京都,八王子市,戸吹町１１２４－５,,13,201,1920001,,,2025-03-11,清算の結了等,,,2015-10-05,1,,,,,フェニックス,0
880,4010401124426,登記記録の閉鎖等,0,2025-03-12,2025-02-19,株式会社京橋キャピタル,,株式会社,東京都,中央区,京橋１丁目１４番９号,,13,102,1040031,,,2025-02-19,合併による解散等,5010001114041,令和７年２月１８日東京都中央区京橋一丁目１４番９号株式会社えいえん堂（5010001114041）に合併し解散,2016-04-27,1,,,,,キョウバシキャピタル,0
882,4010401164224,登記記録の閉鎖等,0,2025-03-12,2025-03-07,株式会社ＲＥＩＴコンサルティング,,株式会社,東京都,足立区,千住旭町１２－２,,13,121,1200026,,,2025-03-07,清算の結了等,,,2021-12-07,1,,,,,リートコンサルティング,0
886,4010405017956,登記記録の閉鎖等,0,2025-03-12,2025-02-21,ＤＳ　Ａｏｙａｍａ一般社団法人,,その他の設立登記法人,東京都,港区,虎ノ門５丁目１番４号,,13,103,1050001,,,2025-02-21,清算の結了等,,,2019-08-09,1,,,,,ディーエスアオヤマ,0
893,4010603005713,登記記録の閉鎖等,0,2025-03-12,2025-03-10,Ｈ＆Ｎ合同会社,,合同会社,東京都,江東区,東砂４丁目２４番３－３４１号,,13,108,1360074,,,2025-03-10,清算の結了等,,,2015-10-05,1,,,,,,0
920,4011602020562,登記記録の閉鎖等,0,2025-03-12,2025-03-04,有限会社伸栄理研,,有限会社,東京都,練馬区,東大泉１丁目２７番２４号ＫＡＴＯビル５Ｆ５０３号室,,13,120,1780063,,,2025-03-04,清算の結了等,,,2015-10-05,1,,,,,シンエイリケン,0
922,4011703002344,登記記録の閉鎖等,0,2025-03-12,2025-03-06,合同会社Ｙ,,合同会社,東京都,江戸川区,北葛西２丁目９番１３号ハピネスタナカ３０３,,13,123,1340081,,,2025-03-06,清算の結了等,,,2019-08-16,1,,,,,ワイ,0
931,4013202002197,登記記録の閉鎖等,0,2025-03-12,2025-02-13,有限会社グリーンヒル,,有限会社,東京都,目黒区,緑が丘２丁目２２番１１号,,13,110,1520034,,,2025-02-13,清算の結了等,,,2015-10-05,1,,,,,グリーンヒル,0
970,4030005012133,登記記録の閉鎖等,0,2025-03-12,2025-03-07,鳩ヶ谷商工会,,その他の設立登記法人,埼玉県,川口市,鳩ヶ谷本町２丁目１番１号,,11,203,3340002,,,2025-03-07,清算の結了等,,,2015-10-05,1,,,,,ハトガヤ,0
971,4040001020254,登記記録の閉鎖等,0,2025-03-12,2025-03-03,株式会社ベストハウジング千葉,,株式会社,千葉県,船橋市,東船橋３丁目４番１３号,,12,204,2730002,,,2025-03-03,合併による解散等,2040001017194,令和７年３月１日千葉県船橋市前原西四丁目３８番１９号株式会社横尾材木店千葉（2040001017194）に合併し解散,2015-10-05,1,,,,,ベストハウジングチバ,0
986,4070002037798,登記記録の閉鎖等,0,2025-03-12,2025-03-07,有限会社丸丸亭,,有限会社,群馬県,利根郡みなかみ町,小日向６７０番地の３,,10,449,3791612,,,2025-03-07,清算の結了等,,,2025-01-30,1,,,,,マルマルテイ,0
1014,4120002009949,登記記録の閉鎖等,0,2025-03-12,2025-03-10,株式会社徳映化学工業所,,株式会社,大阪府,大阪市生野区,新今里５丁目１１番３号,,27,116,5440001,,,2025-03-10,清算の結了等,,,2015-10-05,1,,,,,トクエイカガクコウギョウショ,0
1024,4120901016938,登記記録の閉鎖等,0,2025-03-12,2025-02-28,関西テク株式会社,,株式会社,大阪府,吹田市,垂水町１丁目５６番５－１０２号,,27,205,5640062,,,2025-02-28,清算の結了等,,,2015-10-05,1,,,,,カンサイテク,0
1049,4180001122367,登記記録の閉鎖等,0,2025-03-12,2025-03-06,尾州ソーイング株式会社,,株式会社,愛知県,一宮市,浅井町小日比野字大萩９５４番地２４,,23,203,4910104,,,2025-03-06,清算の結了等,,,2016-03-04,1,,,,,ビシュウソーイング,0
1056,4180302020699,登記記録の閉鎖等,0,2025-03-12,2025-03-04,有限会社ティエヌコーポレート,,有限会社,愛知県,高浜市,碧海町４丁目５番地４,,23,227,4441324,,,2025-03-04,清算の結了等,,,2015-10-05,1,,,,,ティエヌコーポレート,0
1057,4190003004868,登記記録の閉鎖等,0,2025-03-12,2025-03-11,合同会社ＭＣサポートセンター,,合同会社,三重県,松阪市,虹が丘町１７番地８,,24,204,5150042,,,2025-03-11,清算の結了等,,,2024-12-04,1,,,,,エムシーサポートセンター,0
1066,4240001008997,登記記録の閉鎖等,0,2025-03-12,2025-03-10,株式会社ハヤシ,,株式会社,広島県,広島市東区,若草町１５番１号,,34,102,7320053,,,2025-03-10,清算の結了等,,,2015-10-05,1,,,,,ハヤシ,0
1067,4240001058992,登記記録の閉鎖等,0,2025-03-12,2025-03-07,株式会社Ｌｅｄｇｅ,,株式会社,広島県,安芸郡府中町,桃山２丁目７番５号,,34,302,7350026,,,2025-03-07,清算の結了等,,,2021-12-02,1,,,,,レッジ,0
1070,4240002018946,登記記録の閉鎖等,0,2025-03-12,2025-03-10,有限会社情報通信電設,,有限会社,広島県,広島市安佐北区,真亀２丁目１３番１０－１２０６号,,34,106,7391741,,,2025-03-10,清算の結了等,,,2015-10-05,1,,,,,ジョウホウツウシンデンセツ,0
1088,4290003005245,登記記録の閉鎖等,0,2025-03-12,2025-03-03,合同会社ＴＯＭＡＴＯ　ＧＬＡＳＳＥＳ,,合同会社,福岡県,福岡市博多区,中呉服町２番２０号,,40,132,8120035,,,2025-03-03,清算の結了等,,,2015-10-05,1,,,,,トマトグラッシーズ,0
1111,4380001001377,登記記録の閉鎖等,0,2025-03-12,2025-03-03,福島アサノレミコン株式会社,,株式会社,福島県,福島市,矢剣町４番１８号,,07,201,9608066,,,2025-03-03,合併による解散等,1380001001108,令和７年３月１日福島市矢剣町４番１８号株式会社西形商店（1380001001108）に合併し解散,2015-10-05,1,,,,,フクシマアサノレミコン,0
1122,4430002044527,登記記録の閉鎖等,0,2025-03-12,2025-03-05,有限会社本と文具のみなみ,,有限会社,北海道,北広島市,大曲末広２丁目１番地６,,01,234,0611272,,,2025-03-05,清算の結了等,,,2015-10-05,1,,,,,ホントブングノミナミ,0
1130,4470001003884,登記記録の閉鎖等,0,2025-03-12,2025-03-10,株式会社マルナカツーリスト,,株式会社,香川県,高松市,多肥下町１５５２－１７,,37,201,7618075,,,2025-03-10,合併による解散等,5500001003541,令和７年３月１日愛媛県松山市宮西一丁目２番１号株式会社フジ・トラベル・サービス（5500001003541）に合併し解散,2015-10-05,1,,,,,マルナカツーリスト,0
1131,4470001007051,登記記録の閉鎖等,0,2025-03-12,2025-03-07,株式会社スズケン工業,,株式会社,香川県,木田郡三木町,大字井戸２４１２番地４,,37,341,7610823,,,2025-03-07,清算の結了等,,,2015-10-05,1,,,,,スズケンコウギョウ,0
1141,5010001174234,登記記録の閉鎖等,0,2025-03-12,2025-03-05,株式会社ミライブ,,株式会社,東京都,千代田区,飯田橋３丁目１番６号,,13,101,1020072,,,2025-03-05,合併による解散等,6240001025859,令和７年３月１日広島県呉市広多賀谷一丁目９番３０号株式会社こっこー（6240001025859）に合併し解散,2016-03-17,1,,,,,,0
1205,5011503004861,登記記録の閉鎖等,0,2025-03-12,2025-03-06,合同会社レットファイン,,合同会社,東京都,荒川区,東日暮里３丁目２番４－３０７号,,13,118,1160014,,,2025-03-06,清算の結了等,,,2021-08-18,1,,,,,レットファイン,0
1209,5011702012293,登記記録の閉鎖等,0,2025-03-12,2025-03-03,有限会社吉川商店,,有限会社,東京都,江戸川区,新堀１丁目３５番４号,,13,123,1320001,,,2025-03-03,清算の結了等,,,2015-10-05,1,,,,,キッカワショウテン,0
1215,5012301001836,登記記録の閉鎖等,0,2025-03-12,2025-03-10,さくら企画設計株式会社,,株式会社,東京都,町田市,相原町２１番地１,,13,209,1940211,,,2025-03-10,清算の結了等,,,2015-10-05,1,,,,,サクラキカクセッケイ,0
1224,5013403000544,登記記録の閉鎖等,0,2025-03-12,2025-03-10,シーエムドリーム合同会社,,合同会社,東京都,稲城市,若葉台４丁目１２番１１号,,13,225,2060824,,,2025-03-10,清算の結了等,,,2015-10-05,1,,,,,シーエムドリーム,0
1225,5020001023563,登記記録の閉鎖等,0,2025-03-12,2025-03-03,相武設備工業株式会社,,株式会社,神奈川県,横浜市神奈川区,片倉２丁目６６番６号,,14,102,2210865,,,2025-03-03,清算の結了等,,,2015-10-05,1,,,,,ソウブセツビコウギョウ,0
1238,5020003014239,登記記録の閉鎖等,0,2025-03-12,2025-03-03,アーチェリア合同会社,,合同会社,神奈川県,横浜市港北区,日吉本町３丁目２５番１０号,,14,109,2230062,,,2025-03-03,清算の結了等,,,2018-04-23,1,,,,,アーチェリア,0
1297,5120001065331,登記記録の閉鎖等,0,2025-03-12,2025-03-07,株式会社シルバー,,株式会社,大阪府,大阪市北区,本庄西３丁目６番２１号,,27,127,5310073,,,2025-03-07,清算の結了等,,,2015-10-05,1,,,,,シルバー,0
1298,5120001123007,登記記録の閉鎖等,0,2025-03-12,2025-03-03,株式会社ナープロダクション,,株式会社,大阪府,大阪市中央区,安堂寺町１丁目３番９号,,27,128,5420061,,,2025-03-03,清算の結了等,,,2015-10-05,1,,,,,ナープロダクション,0
1310,5120005022592,登記記録の閉鎖等,0,2025-03-12,2025-03-10,一般社団法人Ｃｏｒａｌ　Ｓｅａ,,その他の設立登記法人,大阪府,大阪市中央区,備後町３丁目６番２号ＫＦセンタービル,,27,128,5410051,,,2025-03-10,清算の結了等,,,2021-11-10,1,,,,,コーラルシー,0
1327,5140001074454,登記記録の閉鎖等,0,2025-03-12,2025-03-05,株式会社Ｌａｉｅ,,株式会社,兵庫県,西宮市,豊楽町４番３号,,28,204,6620072,,,2025-03-05,清算の結了等,,,2015-10-05,1,,,,,ライエ,0
1338,5160001004938,登記記録の閉鎖等,0,2025-03-12,2025-03-05,株式会社ダイハツ甲西,,株式会社,滋賀県,湖南市,夏見１７２番地の４,,25,211,5203223,,,2025-03-05,合併による解散等,1160001013406,令和７年３月１日滋賀県栗東市大橋四丁目１番５号滋賀ダイハツ販売株式会社（1160001013406）に合併し解散,2015-10-05,1,,,,,ダイハツコウセイ,0
1355,5190001021749,登記記録の閉鎖等,0,2025-03-12,2025-03-11,株式会社ネクストイノベーション,,株式会社,三重県,桑名市,大字大福４３５番地１,,24,205,5110834,,,2025-03-11,清算の結了等,,,2015-10-05,1,,,,,ネクストイノベーション,0
1356,5190001026987,登記記録の閉鎖等,0,2025-03-12,2025-02-20,株式会社アズワンスタッフ,,株式会社,三重県,松阪市,駅部田町１４８５番地５コーポ駅部田２０１号室,,24,204,5150045,,,2025-02-20,清算の結了等,,,2019-12-27,1,,,,,アズワンスタッフ,0
1360,5200002012431,登記記録の閉鎖等,0,2025-03-12,2025-03-10,有限会社大垣ゴルフサービス,,有限会社,岐阜県,安八郡神戸町,大字神戸１５２８番地,,21,381,5032305,,,2025-03-10,清算の結了等,,,2015-10-05,1,,,,,オオガキゴルフサービス,0
1391,5330001015983,登記記録の閉鎖等,0,2025-03-12,2025-03-03,人吉木炭株式会社,,株式会社,熊本県,人吉市,紺屋町１２６番地１,,43,203,8680003,,,2025-03-03,清算の結了等,,,2015-10-05,1,,,,,ヒトヨシモクタン,0
1402,5360005006836,登記記録の閉鎖等,0,2025-03-12,2025-02-26,うるま金城水産事業協同組合,,その他の設立登記法人,沖縄県,うるま市,勝連浜１１番地,,47,213,9042315,,,2025-02-26,清算の結了等,,,2023-04-25,1,,,,,ウルマキンジョウスイサン,0
1406,5370201000435,登記記録の閉鎖等,0,2025-03-12,2025-03-03,株式会社丸協,,株式会社,宮城県,遠田郡美里町,北浦１丁目１番地,,04,505,9870005,,,2025-03-03,清算の結了等,,,2015-10-05,1,,,,,マルキョウ,0
1418,5400003003021,登記記録の閉鎖等,0,2025-03-12,2025-02-21,合同会社ＳＳＹ,,合同会社,岩手県,奥州市,胆沢小山字龍ケ馬場３番地１,,03,215,0230402,,,2025-02-21,清算の結了等,,,2023-01-25,1,,,,,エスエスワイ,0
1421,5420002010438,登記記録の閉鎖等,0,2025-03-12,2025-03-10,有限会社八角産業,,有限会社,青森県,八戸市,類家５丁目２６番２６号,,02,203,0310001,,,2025-03-10,清算の結了等,,,2015-10-05,1,,,,,ヤスミサンギョウ,0
1434,5470002010029,登記記録の閉鎖等,0,2025-03-12,2025-03-07,有限会社中島建設工業,,有限会社,香川県,高松市,国分寺町新名１５３９番地１５,,37,201,7690104,,,2025-03-07,清算の結了等,,,2015-10-05,1,,,,,ナカシマケンセツコウギョウ,0
1435,5470002010334,登記記録の閉鎖等,0,2025-03-12,2025-03-10,有限会社穴吹建築,,有限会社,香川県,高松市,国分寺町福家甲２５５０番地,,37,201,7690103,,,2025-03-10,清算の結了等,,,2015-10-05,1,,,,,アナブキケンチク,0
1464,6010003040284,登記記録の閉鎖等,0,2025-03-12,2025-02-26,ＰｌａｎＧ合同会社,,合同会社,東京都,中央区,銀座１丁目１２番４号Ｎ＆Ｅ．ＢＬＤ．６Ｆ,,13,102,1040061,,,2025-02-26,清算の結了等,,,2023-04-11,1,,,,,プランジー,0
1471,6010403034076,登記記録の閉鎖等,0,2025-03-12,2025-03-07,合同会社ＹＵ,,合同会社,東京都,港区,麻布十番２丁目１０番３号,,13,103,1060045,,,2025-03-07,清算の結了等,,,2025-01-06,1,,,,,ユー,0
1478,6010701025207,登記記録の閉鎖等,0,2025-03-12,2025-02-26,株式会社ネットナビ,,株式会社,福井県,福井市,栂野町第１５号１番地２,,18,201,9102178,,,2025-02-26,合併による解散等,1210001008573,令和７年２月２６日福井市栂野町第１５号１番地２株式会社ＡＬＬ　ＣＯＮＮＥＣＴ（1210001008573）に合併し解散,2015-10-05,1,,,,,ネットナビ,0
1495,6011001150835,登記記録の閉鎖等,0,2025-03-12,2025-02-13,ＫＳＴ　Ｃｉｔｙ　Ｐａｒｔｎｅｒｓ株式会社,,株式会社,東京都,渋谷区,代々木５丁目３１番５－２２０号,,13,113,1510053,,,2025-02-13,清算の結了等,,,2022-11-09,1,,,,,ケイエスティーシティーパートナーズ,0
1525,6012701008562,登記記録の閉鎖等,0,2025-03-12,2025-03-07,株式会社日本ファイン,,株式会社,東京都,東久留米市,本町１丁目５番７－１００２号,,13,222,2030053,,,2025-03-07,清算の結了等,,,2015-10-05,1,,,,,ニホンファイン,0
1535,6020002072022,登記記録の閉鎖等,0,2025-03-12,2025-03-03,有限会社健星,,有限会社,神奈川県,横浜市栄区,桂台北３０番１３号,,14,115,2470031,,,2025-03-03,清算の結了等,,,2015-10-05,1,,,,,ケンセイ,0
1601,6120005018499,登記記録の閉鎖等,0,2025-03-12,2025-03-11,特定非営利活動法人大阪府国際結婚支援センター,,その他の設立登記法人,大阪府,大阪市中央区,安土町２丁目３番１３号大阪国際ビルディング３１階,,27,128,5410052,,,2025-03-11,清算の結了等,,,2016-02-10,1,,,,,オオサカフコクサイケッコンシエンセンター,0
1607,6122001008244,登記記録の閉鎖等,0,2025-03-12,2025-03-07,株式会社ユーインテリアワークス,,株式会社,大阪府,東大阪市,中新開２丁目１３番１６号,,27,227,5780911,,,2025-03-07,清算の結了等,,,2015-10-05,1,,,,,ユーインテリアワークス,0
1610,6130001066006,登記記録の閉鎖等,0,2025-03-12,2025-03-10,株式会社ＨａｔａＩｒｏ．,,株式会社,京都府,京都市下京区,綾小路通麩屋町西入ル塩屋町８０番地コスモファースト１階,,26,106,6000000,,,2025-03-10,清算の結了等,,,2019-12-27,1,,,,,ハタイロ,0
1618,6140002048258,登記記録の閉鎖等,0,2025-03-12,2025-03-04,有限会社共心工房,,有限会社,兵庫県,姫路市,広畑区西蒲田１１０番地の２,,28,201,6711107,,,2025-03-04,清算の結了等,,,2015-10-05,1,,,,,キョウシンコウボウ,0
1632,6180002037199,登記記録の閉鎖等,0,2025-03-12,2025-03-05,有限会社北岡塗装,,有限会社,愛知県,名古屋市中川区,供米田２丁目１９２５番地,,23,110,4540984,,,2025-03-05,清算の結了等,,,2015-10-05,1,,,,,キタオカトソウ,0
1639,6180302015920,登記記録の閉鎖等,0,2025-03-12,2025-02-19,有限会社丸石青果店,,有限会社,愛知県,蒲郡市,三谷町港町通１２番地,,23,214,4430021,,,2025-02-19,清算の結了等,,,2015-10-05,1,,,,,マルイシセイカテン,0
1640,6190001000693,登記記録の閉鎖等,0,2025-03-12,2025-03-10,津ブラザー販売株式会社,,株式会社,三重県,津市,大門２１番１１号,,24,201,5140027,,,2025-03-10,清算の結了等,,,2015-10-05,1,,,,,ツブラザーハンバイ,0
1645,6210002008832,登記記録の閉鎖等,0,2025-03-12,2025-03-11,有限会社華久,,有限会社,福井県,福井市,豊島１丁目６番２２号,,18,201,9100857,,,2025-03-11,清算の結了等,,,2015-10-05,1,,,,,ハナヒサ,0
1646,6220001006448,登記記録の閉鎖等,0,2025-03-12,2025-03-05,北陸フアミリー株式会社,,株式会社,石川県,金沢市,長町１丁目２番７号,,17,201,9200865,,,2025-03-05,清算の結了等,,,2015-10-05,1,,,,,ホクリクファミリー,0
1661,6260002023752,登記記録の閉鎖等,0,2025-03-12,2025-03-06,有限会社すいず,,有限会社,岡山県,総社市,中央２丁目１７番２５号,,33,208,7191131,,,2025-03-06,清算の結了等,,,2015-10-05,1,,,,,スイズ,0
1667,6290002052807,登記記録の閉鎖等,0,2025-03-12,2025-02-28,有限会社大栄開発,,有限会社,福岡県,朝倉市,鵜木３０３番地２,,40,228,8380038,,,2025-02-28,清算の結了等,,,2015-10-05,1,,,,,,0
1669,6290005002420,登記記録の閉鎖等,0,2025-03-12,2025-03-03,協同組合大協,,その他の設立登記法人,福岡県,福岡市南区,柳瀬１丁目３３番１０号,,40,134,8111321,,,2025-03-03,清算の結了等,,,2015-10-05,1,,,,,ダイキョー,0
1711,6410002002641,登記記録の閉鎖等,0,2025-03-12,2025-03-07,有限会社テック,,有限会社,秋田県,秋田市,浜田字元中村２８０番４２,,05,201,0101654,,,2025-03-07,清算の結了等,,,2015-10-05,1,,,,,,0
1717,6430002008884,登記記録の閉鎖等,0,2025-03-12,2025-03-04,有限会社さ和多,,有限会社,北海道,札幌市中央区,南五条西３丁目１０番地,,01,101,0640805,,,2025-03-04,清算の結了等,,,2015-10-05,1,,,,,サワダ,0
1725,6450001006656,登記記録の閉鎖等,0,2025-03-12,2025-03-06,株式会社ｕｎｏ,,株式会社,北海道,富良野市,字清水山,,01,229,0760048,,,2025-03-06,清算の結了等,,,2015-10-05,1,,,,,ウノ,0
1733,6480002009309,登記記録の閉鎖等,0,2025-03-12,2025-03-10,有限会社はらい呉服店,,有限会社,徳島県,吉野川市,山川町湯立２７６番地の４,,36,205,7793404,,,2025-03-10,清算の結了等,,,2015-10-05,1,,,,,ハライゴフクテン,0
1744,7010005029721,登記記録の閉鎖等,0,2025-03-12,2025-03-07,一般社団法人恵比寿エス・ファンディング,,その他の設立登記法人,東京都,中央区,新川２丁目２７番１号,,13,102,1040033,,,2025-03-07,清算の結了等,,,2019-02-08,1,,,,,エビスエスファンディング,0
1748,7010401050636,登記記録の閉鎖等,0,2025-03-12,2025-03-04,株式会社ビデオミックス・ラボ,,株式会社,東京都,港区,新橋３丁目４番５号,,13,103,1050004,,,2025-03-04,清算の結了等,,,2015-10-05,1,,,,,ビデオミックスラボ,0
1752,7010401169872,登記記録の閉鎖等,0,2025-03-12,2025-02-21,株式会社ＭＳＫ管理,,株式会社,東京都,港区,三田１丁目３番４０号,,13,103,1080073,,,2025-02-21,清算の結了等,,,2022-09-27,1,,,,,エムエスケーカンリ,0
1757,7010403014119,登記記録の閉鎖等,0,2025-03-12,2025-02-25,合同会社いずも,,合同会社,東京都,港区,虎ノ門５丁目１番５号,,13,103,1050001,,,2025-02-25,清算の結了等,,,2015-11-30,1,,,,,イズモ,0
1767,7010601057588,登記記録の閉鎖等,0,2025-03-12,2025-03-10,株式会社ＦＡ企画,,株式会社,東京都,江東区,大島５丁目４７番９号４０７号室,,13,108,1360072,,,2025-03-10,清算の結了等,,,2020-07-01,1,,,,,エフエーキカク,0
1820,7020001040466,登記記録の閉鎖等,0,2025-03-12,2025-03-03,株式会社ビーコムディー・エー,,株式会社,神奈川県,横浜市神奈川区,六角橋１丁目１番２号,,14,102,2210802,,,2025-03-03,合併による解散等,2020001092644,令和７年３月１日横浜市中区羽衣町一丁目１番地１株式会社ビーコムエス・ワイ（2020001092644）に合併し解散,2015-10-05,1,,,,,ビーコムディーエー,0
1827,7020001138590,登記記録の閉鎖等,0,2025-03-12,2025-03-03,東芝ネクストクラフトベルケ株式会社,,株式会社,神奈川県,川崎市幸区,堀川町７２番地３４,,14,132,2120013,,,2025-03-03,合併による解散等,7020001121200,令和７年３月１日神奈川県川崎市幸区堀川町７２番地３４東芝エネルギーシステムズ株式会社（7020001121200）に合併し解散,2020-11-17,1,,,,,トウシバネクストクラフトベルケ,0
1834,7020002044961,登記記録の閉鎖等,0,2025-03-12,2025-03-03,有限会社ベルジョン・オリジナル,,有限会社,神奈川県,横浜市中区,元町１丁目１３番地１２,,14,104,2310861,,,2025-03-03,清算の結了等,,,2015-10-05,1,,,,,ベルジョンオリジナル,0
1856,7040001100573,登記記録の閉鎖等,0,2025-03-12,2025-03-03,株式会社アーバンＥＣ,,株式会社,千葉県,成田市,加良部６丁目５番地２,,12,211,2860036,,,2025-03-03,合併による解散等,7040001043517,令和７年３月１日千葉県成田市加良部六丁目５番地２株式会社アーバン（7040001043517）に合併し解散,2017-06-15,1,,,,,アーバンイーシー,0
1873,7060002013574,登記記録の閉鎖等,0,2025-03-12,2025-03-05,有限会社ＴＳＧ,,有限会社,栃木県,宇都宮市,鶴田町２５２番地４,,09,201,3200851,,,2025-03-05,清算の結了等,,,2015-10-05,1,,,,,ティーエスジー,0
1890,7090002010486,登記記録の閉鎖等,0,2025-03-12,2025-03-06,有限会社丸榮不動産,00068912,有限会社,山梨県,都留市,田野倉４４８番地,,19,204,4020001,,,2025-03-06,清算の結了等,,,2015-10-05,1,,,,,マルエイフドウサン,0
1899,7120001004238,登記記録の閉鎖等,0,2025-03-12,2025-03-03,藤村工業株式会社,00027017,株式会社,大阪府,大阪市西成区,南津守４丁目４番１３号,,27,122,5570063,,,2025-03-03,清算の結了等,,,2015-10-05,1,,,,,,0
1900,7120001127261,登記記録の閉鎖等,0,2025-03-12,2025-03-10,株式会社ＲＯＯＫＩＥ,,株式会社,大阪府,大阪市北区,天神橋３丁目３番２０号,,27,127,5300041,,,2025-03-10,清算の結了等,,,2015-10-05,1,,,,,ルーキー,0
1901,7120001181705,登記記録の閉鎖等,0,2025-03-12,2025-03-03,株式会社フィエル・アヴニール,,株式会社,大阪府,大阪市西区,京町堀１丁目４番２２号,,27,106,5500003,,,2025-03-03,合併による解散等,3120001200055,令和７年３月３日大阪市西区京町堀一丁目１１番７号株式会社ｍｉｖｏ　Ｓｔｅｐ（3120001200055）に合併し解散,2015-10-05,1,,,,,フィエルアヴニール,0
1913,7120105001073,登記記録の閉鎖等,0,2025-03-12,2024-12-12,天理教昭栄分教会,,その他の設立登記法人,大阪府,堺市堺区,錦綾町３丁６番１５号,,27,141,5900006,,,2024-12-12,合併による解散等,2480005001225,令和６年１１月２２日徳島県名西郡石井町藍畑字高畑６６０番地の１天理教藍畑分教会（2480005001225）に合併し解散,2015-10-05,1,,,,,テンリキョウショウエイブンキョウカイ,0
1926,7140001118309,登記記録の閉鎖等,0,2025-03-12,2025-03-03,株式会社Ｆ＆Ｌ,,株式会社,兵庫県,姫路市,飾磨区構５丁目２４３番地３,,28,201,6728071,,,2025-03-03,清算の結了等,,,2020-08-05,1,,,,,エフアンドエル,0
1961,7220002015364,登記記録の閉鎖等,0,2025-03-12,2025-02-28,有限会社オカヤマ工務店,,有限会社,石川県,羽咋郡宝達志水町,坪山ヨ１７９番地,,17,386,9291325,,,2025-02-28,清算の結了等,,,2015-10-05,1,,,,,オカヤマコウムテン,0
1965,7230005005337,登記記録の閉鎖等,0,2025-03-12,2025-03-07,瑞祥寺,,その他の設立登記法人,富山県,小矢部市,石名田１４０３番地の３,,16,209,9320808,,,2025-03-07,清算の結了等,,,2015-10-05,1,,,,,ズイショウジ,0
1988,7290003015183,登記記録の閉鎖等,0,2025-03-12,2025-03-03,ＨＡＲＵＭＩ合同会社,,合同会社,福岡県,福岡市西区,福重５丁目２４番３６－１０１号,,40,135,8190022,,,2025-03-03,清算の結了等,,,2024-04-19,1,,,,,ハルミ,0
2029,7410003001170,登記記録の閉鎖等,0,2025-03-12,2025-03-07,合名会社大黒屋商店,,合名会社,秋田県,雄勝郡羽後町,西馬音内字本町３７番地,,05,463,0121131,,,2025-03-07,清算の結了等,,,2015-10-05,1,,,,,ダイコクヤショウテン,0
2052,7500001005783,登記記録の閉鎖等,0,2025-03-12,2025-03-10,株式会社ＪＡＩＳＴＡＴＩＯＮ,,株式会社,愛媛県,松山市,河野中須賀１１１番地,,38,201,7992438,,,2025-03-10,清算の結了等,,,2015-10-05,1,,,,,,0
2064,8010003017859,登記記録の閉鎖等,0,2025-03-12,2025-02-19,ビジネスフライトコンサルティング合同会社,,合同会社,東京都,港区,白金台３丁目１４番２５号白金台テラス１０１,,13,103,1080071,,,2025-02-19,清算の結了等,,,2015-10-05,1,,,,,ビジネスフライトコンサルティング,0
2070,8010401099516,登記記録の閉鎖等,0,2025-03-12,2025-02-25,日本ヤゲオ株式会社,,株式会社,東京都,千代田区,西神田３丁目８番１号千代田ファーストビル東館１０階,,13,101,1010065,,,2025-02-25,清算の結了等,,,2015-10-05,1,,,,,ニホンヤゲオ,0
2086,8010403017582,登記記録の閉鎖等,0,2025-03-12,2025-02-18,合同会社ＧＫ０１２,,合同会社,東京都,港区,虎ノ門３丁目２２番１０－２０１号,,13,103,1050001,,,2025-02-18,清算の結了等,,,2017-11-13,1,,,,,ジーケイゼロワンツー,0
2088,8010405015584,登記記録の閉鎖等,0,2025-03-12,2025-02-21,沖縄うるま一般社団法人,,その他の設立登記法人,東京都,港区,虎ノ門３丁目２２番１０－２０１号,,13,103,1050001,,,2025-02-21,清算の結了等,,,2017-03-14,1,,,,,オキナワウルマ,0
2100,8010701001833,登記記録の閉鎖等,0,2025-03-12,2025-03-06,オオイテクニカ株式会社,,株式会社,福島県,田村郡三春町,大字御祭字深田和３４４番地２,,07,521,9637772,,,2025-03-06,合併による解散等,4390001002705,令和７年１月１日山形市鋳物町３６番地株式会社サンエー（4390001002705）に合併し解散,2015-10-05,1,,,,,,0
2117,8011001158843,登記記録の閉鎖等,0,2025-03-12,2025-02-13,株式会社アイプラス,,株式会社,東京都,渋谷区,渋谷２丁目１９－１５宮益坂ビルディング６０９,,13,113,1500002,,,2025-02-13,清算の結了等,,,2023-12-18,1,,,,,アイプラス,0
2134,8012401013084,登記記録の閉鎖等,0,2025-03-12,2025-03-06,株式会社都精機,,株式会社,東京都,三鷹市,新川４丁目７番１１号,,13,204,1810004,,,2025-03-06,合併による解散等,4390001002705,令和７年１月１日山形市鋳物町３６番地株式会社サンエー（4390001002705）に合併し解散,2015-10-05,1,,,,,ミヤコセイキ,0
2145,8013402000253,登記記録の閉鎖等,0,2025-03-12,2025-03-06,有限会社エコノバランスエス,,有限会社,東京都,日野市,大字日野７７７３番地の６６２,,13,212,1910012,,,2025-03-06,合併による解散等,3020003007401,令和７年２月２８日北海道標津郡中標津町東三十二条北八丁目６番合同会社杉本会計（3020003007401）に合併し解散,2015-10-05,1,,,,,エコノバランスエス,0
2148,8020001135983,登記記録の閉鎖等,0,2025-03-12,2025-03-03,セイユークラシカル株式会社,,株式会社,東京都,国分寺市,並木町３丁目３２番地２７,,13,214,1850005,,,2025-03-03,清算の結了等,,,2020-05-07,1,,,,,セイユークラシカル,0
2149,8020001153523,登記記録の閉鎖等,0,2025-03-12,2025-03-04,株式会社ＭＡＣＨＥ,,株式会社,神奈川県,横浜市中区,長者町３丁目８－２ライトワンビル１階,,14,104,2310033,,,2025-03-04,清算の結了等,,,2023-09-15,1,,,,,マシェ,0
2156,8020002071823,登記記録の閉鎖等,0,2025-03-12,2025-02-28,有限会社不動産鑑定サービス,,有限会社,神奈川県,横浜市都筑区,荏田南１丁目１３番２０号,,14,118,2240007,,,2025-02-28,清算の結了等,,,2015-10-05,1,,,,,フドウサンカンテイサービス,0
2165,8030001097125,登記記録の閉鎖等,0,2025-03-12,2025-03-10,株式会社ＳＫＳ,,株式会社,東京都,足立区,東和５丁目７番２２号東和マンション１０３号,,13,121,1200003,,,2025-03-10,清算の結了等,,,2015-10-05,1,,,,,,0
2230,8120002022436,登記記録の閉鎖等,0,2025-03-12,2025-03-07,有限会社辻鉄工所,00030713,有限会社,大阪府,大阪市西区,安治川２丁目１番４０号,,27,106,5500026,,,2025-03-07,清算の結了等,,,2015-10-05,1,,,,,,0
2249,8130001057936,登記記録の閉鎖等,0,2025-03-12,2025-03-10,株式会社ナナハトモニー,,株式会社,京都府,宇治市,槇島町十一１２６番地の１１,,26,204,6110041,,,2025-03-10,清算の結了等,,,2016-07-25,1,,,,,ナナハトモニー,0
2278,8190002009138,登記記録の閉鎖等,0,2025-03-12,2025-03-06,有限会社中部開発,,有限会社,三重県,伊勢市,大湊町１８８番地２,,24,203,5160001,,,2025-03-06,清算の結了等,,,2015-10-05,1,,,,,チュウブカイハツ,0
2279,8190002018808,登記記録の閉鎖等,0,2025-03-12,2025-03-11,有限会社ニーズホーム,,有限会社,三重県,桑名市,大字江場１３９０番地,,24,205,5110836,,,2025-03-11,清算の結了等,,,2015-10-05,1,,,,,ニーズホーム,0
2296,8290001032832,登記記録の閉鎖等,0,2025-03-12,2025-03-03,株式会社カラーリングフィールド,,株式会社,福岡県,福岡市城南区,別府４丁目１５番１号７１３号室,,40,136,8140104,,,2025-03-03,清算の結了等,,,2015-10-05,1,,,,,カラーリングフィールド,0
2329,8370102001629,登記記録の閉鎖等,0,2025-03-12,2025-03-03,有限会社石川製材所,,有限会社,宮城県,伊具郡丸森町,字田町北２０番地,,04,341,9812168,,,2025-03-03,清算の結了等,,,2015-10-05,1,,,,,イシカワセイザイショ,0
2330,8390001012493,登記記録の閉鎖等,0,2025-03-12,2025-03-07,株式会社アークエンジニアリング,,株式会社,山形県,長井市,高野町１丁目１番３０号,,06,209,9930085,,,2025-03-07,清算の結了等,,,2015-10-05,1,,,,,アークエンジニアリング,0
2358,9010001176929,登記記録の閉鎖等,0,2025-03-12,2025-02-26,株式会社キーリンク,,株式会社,東京都,中央区,日本橋蛎殻町１丁目１３番１号ユニゾ蠣殻町北島ビルＢ１Ｆ－Ａ,,13,102,1030014,,,2025-02-26,清算の結了等,,,2016-07-27,1,,,,,キーリンク,0
2366,9010005035098,登記記録の閉鎖等,0,2025-03-12,2025-03-06,一般社団法人オルタナ１３,,その他の設立登記法人,東京都,千代田区,丸の内１丁目４番１号東京共同会計事務所内,,13,101,1000005,,,2025-03-06,清算の結了等,,,2022-06-03,1,,,,,オルタナサーティーン,0
2372,9010401128645,登記記録の閉鎖等,0,2025-03-12,2025-02-19,株式会社イーサプライズ,,株式会社,東京都,港区,南青山２丁目１４番１４号,,13,103,1070062,,,2025-02-19,清算の結了等,,,2016-12-12,1,,,,,イーサプライズ,0
2380,9010401159574,登記記録の閉鎖等,0,2025-03-12,2025-02-25,ＬｉＬｉ＆ＬｕＬｕ株式会社,,株式会社,東京都,港区,南青山３丁目１５番９号ＭＩＮＯＷＡ表参道３階－６４,,13,103,1070062,,,2025-02-25,清算の結了等,,,2021-04-14,1,,,,,リリアンドルル,0
2400,9010901028213,登記記録の閉鎖等,0,2025-03-12,2025-03-07,株式会社ミデア,,株式会社,東京都,世田谷区,代田３丁目５１番２０号,,13,112,1550033,,,2025-03-07,清算の結了等,,,2015-10-05,1,,,,,ミデア,0
2402,9011001003123,登記記録の閉鎖等,0,2025-03-12,2025-02-13,株式会社ウシヤマ建設緑化,,株式会社,東京都,渋谷区,笹塚１丁目１９番２号,00064250,13,113,1510073,,,2025-02-13,清算の結了等,,,2015-10-05,1,,,,,ウシヤマケンセツリョクカ,0
2403,9011001023708,登記記録の閉鎖等,0,2025-03-12,2025-02-27,ユーエーイー株式会社,,株式会社,東京都,渋谷区,円山町２３番７号,,13,113,1500044,,,2025-02-27,清算の結了等,,,2015-10-05,1,,,,,ユーエーイー,0
2438,9013401007091,登記記録の閉鎖等,0,2025-03-12,2025-03-10,多摩建設株式会社,,株式会社,東京都,多摩市,連光寺６丁目２６番地の１０,,13,224,2060021,,,2025-03-10,清算の結了等,,,2015-10-05,1,,,,,タマケンセツ,0
2441,9020001092101,登記記録の閉鎖等,0,2025-03-12,2025-03-03,廣島建設株式会社,00009909,株式会社,神奈川県,横浜市中区,常盤町１丁目１番地宮下ビル２階久保法律事務所,,14,104,2310014,,,2025-03-03,清算の結了等,,,2015-10-05,1,,,,,ヒロシマケンセツ,0
2453,9021002046921,登記記録の閉鎖等,0,2025-03-12,2025-03-10,有限会社堀切塗装店,,有限会社,神奈川県,綾瀬市,小園南２丁目１２番１４号,,14,218,2521122,,,2025-03-10,清算の結了等,,,2015-10-05,1,,,,,ホリキリトソウテン,0
2477,9060002000975,登記記録の閉鎖等,0,2025-03-12,2025-03-03,有賀貿易有限会社,,有限会社,栃木県,宇都宮市,旭２丁目７番１７号,,09,201,3200818,,,2025-03-03,清算の結了等,,,2015-10-05,1,,,,,アリガボウエキ,0
2483,9100001006234,登記記録の閉鎖等,0,2025-03-12,2025-03-03,フレックストレーディング株式会社,,株式会社,長野県,千曲市,大字屋代２４５１番地,,20,218,3870007,,,2025-03-03,合併による解散等,2100001006125,令和７年３月１日長野県千曲市大字屋代２４５１番地プロセレ株式会社（2100001006125）に合併し解散,2015-10-05,1,,,,,フレックストレーディング,0
2489,9110005007954,登記記録の閉鎖等,0,2025-03-12,2025-03-07,農事組合法人かみはやし有機,,その他の設立登記法人,新潟県,村上市,松沢１０９７番地３４,,15,212,9593427,,,2025-03-07,清算の結了等,,,2015-10-05,1,,,,,カミハヤシユウキ,0
2498,9120001075731,登記記録の閉鎖等,0,2025-03-12,2025-03-10,株式会社Ｇｒｅｅｎｐａｔｈ,,株式会社,大阪府,大阪市中央区,安堂寺町１丁目３番１２号大阪谷町ビル６０２,,27,128,5420061,,,2025-03-10,清算の結了等,,,2015-10-05,1,,,,,,0
2510,9120101057803,登記記録の閉鎖等,0,2025-03-12,2025-03-06,ワイコン国際株式会社,,株式会社,大阪府,羽曳野市,白鳥３丁目１０番１０号,,27,222,5830856,,,2025-03-06,清算の結了等,,,2018-02-27,1,,,,,ワイコンコクサイ,0
2515,9122001027885,登記記録の閉鎖等,0,2025-03-12,2025-03-10,株式会社レークス,,株式会社,大阪府,東大阪市,水走１丁目１６番１９号,,27,227,5780921,,,2025-03-10,清算の結了等,,,2015-10-05,1,,,,,レークス,0
2516,9122001037728,登記記録の閉鎖等,0,2025-03-12,2025-03-04,株式会社Ｒｅｕｎｉｒ,,株式会社,大阪府,八尾市,黒谷５丁目１６４番地の７,,27,212,5810873,,,2025-03-04,清算の結了等,,,2024-01-17,1,,,,,レウニール,0
2519,9130001065186,登記記録の閉鎖等,0,2025-03-12,2025-03-10,株式会社ＧＲＥＡＳＥ,,株式会社,京都府,京都市伏見区,醍醐槇ノ内町６３番地２,,26,109,6011337,,,2025-03-10,清算の結了等,,,2019-09-04,1,,,,,グリース,0
2530,9140001059724,登記記録の閉鎖等,0,2025-03-12,2025-03-06,第一不動産株式会社,,株式会社,兵庫県,姫路市,塩町３３番地,,28,201,6700904,,,2025-03-06,清算の結了等,,,2015-10-05,1,,,,,ダイイチフドウサン,0
2532,9140001109223,登記記録の閉鎖等,0,2025-03-12,2025-03-05,ダブルチェック青木株式会社,,株式会社,兵庫県,尼崎市,塚口町５丁目２５番地の６,,28,202,6610002,,,2025-03-05,清算の結了等,,,2018-02-23,1,,,,,ダブルチェックアオキ,0
2559,9180302019687,登記記録の閉鎖等,0,2025-03-12,2025-03-03,有限会社宮田工業所,,有限会社,愛知県,知立市,山屋敷町見社４８番,,23,225,4720022,,,2025-03-03,合併による解散等,3180301014934,令和７年３月１日愛知県知立市山屋敷町見社４８番地株式会社宮田工業（3180301014934）に合併し解散,2015-10-05,1,,,,,ミヤタコウギョウショ,0
2568,9240001042629,登記記録の閉鎖等,0,2025-03-12,2025-03-10,株式会社シンキ,,株式会社,広島県,安芸郡海田町,国信２丁目８番３１号,,34,304,7360002,,,2025-03-10,清算の結了等,,,2015-10-05,1,,,,,シンキ,0
2575,9250005000425,登記記録の閉鎖等,0,2025-03-12,2025-03-05,医療法人岡医院,,その他の設立登記法人,山口県,山口市,小郡新町４丁目２番２１号,,35,203,7540031,,,2025-03-05,清算の結了等,,,2015-10-05,1,,,,,オカイイン,0
2582,9270002000392,登記記録の閉鎖等,0,2025-03-12,2025-03-11,有限会社オートパーツツインズ,,有限会社,鳥取県,鳥取市,千代水２丁目１１１,,31,201,6800911,,,2025-03-11,清算の結了等,,,2015-10-05,1,,,,,オートパーツツインズ,0
2585,9290001066821,登記記録の閉鎖等,0,2025-03-12,2025-03-03,株式会社グローイング,,株式会社,福岡県,福岡市中央区,港２丁目５番２１－１号,,40,133,8100075,,,2025-03-03,清算の結了等,,,2015-10-05,1,,,,,グローイング,0
2599,9330003006226,登記記録の閉鎖等,0,2025-03-12,2025-03-03,合同会社アイビス,,合同会社,熊本県,熊本市中央区,琴平１丁目１番１１号,,43,101,8600813,,,2025-03-03,合併による解散等,4330003007583,令和７年３月１日熊本市中央区琴平一丁目１番１１号合同会社エム企画（4330003007583）に合併し解散,2015-10-05,1,,,,,アイビス,0
2619,9380001001109,登記記録の閉鎖等,0,2025-03-12,2025-03-03,西形土地株式会社,,株式会社,福島県,福島市,矢剣町４番１８号,,07,201,9608066,,,2025-03-03,合併による解散等,1380001001108,令和７年３月１日福島市矢剣町４番１８号株式会社西形商店（1380001001108）に合併し解散,2015-10-05,1,,,,,ニシカタトチ,0
2625,9400002007036,登記記録の閉鎖等,0,2025-03-12,2025-03-03,有限会社川村造園,,有限会社,岩手県,紫波郡紫波町,山屋字山口７７番地,,03,321,0283531,,,2025-03-03,清算の結了等,,,2015-10-05,1,,,,,カワムラゾウエン,0
