sequenceNumber,corporateNumber,process,correct,updateDate,changeDate,name,nameImageId,kind,prefectureName,cityName,streetNumber,addressImageId,prefectureCode,cityCode,postCode,addressOutside,addressOutsideImageId,closeDate,closeCause,successorCorporateNumber,changeCause,assignmentDate,latest,enName,enPrefectureName,enCityName,enAddressOutside,furigana,hihyoji
7,1010001203302,登記記録の閉鎖等,0,2024-10-30,2024-10-08,ＬａｓＴｒｕｓｔ株式会社,,株式会社,千葉県,市川市,二俣１丁目１１番２５－６０３号,,12,203,2720001,,,2024-10-08,清算の結了等,,,2019-08-16,1,,,,,ラストラスト,0
12,1010002044803,登記記録の閉鎖等,0,2024-10-30,2024-10-17,有限会社国府青果,,有限会社,東京都,中央区,築地２丁目１１番１２号グリーンパーク銀座デ・プレ１００２号,,13,102,1040045,,,2024-10-17,清算の結了等,,,2015-10-05,1,,,,,コクフセイカ,0
13,1010005025585,登記記録の閉鎖等,0,2024-10-30,2024-10-28,一般社団法人にちべいよしざわ,,その他の設立登記法人,東京都,千代田区,丸の内３丁目１番１号東京共同会計事務所内,,13,101,1000005,,,2024-10-28,清算の結了等,,,2016-07-26,1,,,,,ニチベイヨシザワ,0
23,1010401106699,登記記録の閉鎖等,0,2024-10-30,2024-09-09,ゆかしウェルスメディア株式会社,,株式会社,東京都,千代田区,大手町１丁目５－１,,13,101,1000004,,,2024-09-09,合併による解散等,1010401059518,令和６年８月３０日東京都千代田区大手町一丁目５－１あゆみトラスト・ホールディングス株式会社（1010401059518）に合併し解散,2015-10-05,1,,,,,ユカシウェルスメディア,0
33,1010402006849,登記記録の閉鎖等,0,2024-10-30,2024-10-15,有限会社白金コンタクトレンズ研究所,,有限会社,東京都,港区,白金台３丁目１６番１６号,,13,103,1080071,,,2024-10-15,清算の結了等,,,2015-10-05,1,,,,,シロガネコンタクトレンズケンキュウショ,0
36,1010501004381,登記記録の閉鎖等,0,2024-10-30,2024-10-21,オオタファッションジュエリー株式会社,,株式会社,東京都,台東区,台東２丁目２１番８号,,13,106,1100016,,,2024-10-21,清算の結了等,,,2015-10-05,1,,,,,オオタファッションジュエリー,0
53,1010903005003,登記記録の閉鎖等,0,2024-10-30,2024-10-23,合同会社プライマリー,,合同会社,東京都,世田谷区,三宿２丁目２５番３号ラウレア三宿２０４,,13,112,1540005,,,2024-10-23,清算の結了等,,,2019-06-11,1,,,,,プライマリー,0
61,1011002012683,登記記録の閉鎖等,0,2024-10-30,2024-10-04,有限会社吉留紘平事務所,,有限会社,東京都,渋谷区,松濤１丁目４番９号,,13,113,1500046,,,2024-10-04,清算の結了等,,,2015-10-05,1,,,,,ヨシトメコウヘイジムショ,0
81,1011802010069,登記記録の閉鎖等,0,2024-10-30,2024-10-21,有限会社上村電気工事,,有限会社,東京都,足立区,竹の塚１丁目３４番６号,,13,121,1210813,,,2024-10-21,清算の結了等,,,2015-10-05,1,,,,,カミムラデンキコウジ,0
83,1012401035572,登記記録の閉鎖等,0,2024-10-30,2024-10-16,日川科学技術株式会社,,株式会社,東京都,台東区,上野３丁目１１番５号,,13,106,1100005,,,2024-10-16,清算の結了等,,,2019-08-07,1,,,,,ニッカワカガクギジュツ,0
87,1013103001094,登記記録の閉鎖等,0,2024-10-30,2024-10-29,たんぽぽ倶楽部合同会社,,合同会社,東京都,羽村市,栄町２丁目１４番地４グランツ羽村２０８,,13,227,2050002,,,2024-10-29,清算の結了等,,,2021-11-24,1,,,,,タンポポクラブ,0
90,1020001064264,登記記録の閉鎖等,0,2024-10-30,2024-10-15,株式会社鈴幸,,株式会社,神奈川県,川崎市多摩区,宿河原６丁目５番４９号,,14,135,2140021,,,2024-10-15,清算の結了等,,,2015-10-05,1,,,,,スズコウ,0
98,1021001010472,登記記録の閉鎖等,0,2024-10-30,2024-10-28,株式会社クレア,,株式会社,神奈川県,鎌倉市,扇ガ谷１丁目１０番１２号,,14,204,2480011,,,2024-10-28,清算の結了等,,,2015-10-05,1,,,,,クレア,0
102,1021002005323,登記記録の閉鎖等,0,2024-10-30,2024-10-28,有限会社ワイケイケイ,,有限会社,神奈川県,藤沢市,大庭５０８１番地の１,,14,205,2510861,,,2024-10-28,清算の結了等,,,2015-10-05,1,,,,,ワイケイケイ,0
127,1050001015512,登記記録の閉鎖等,0,2024-10-30,2024-10-21,株式会社カズサヤ不動産,,株式会社,茨城県,つくば市,二の宮１丁目２番地５,,08,220,3050051,,,2024-10-21,清算の結了等,,,2015-10-05,1,,,,,カズサヤフドウサン,0
128,1050002029313,登記記録の閉鎖等,0,2024-10-30,2024-10-22,有限会社イシザキ商店,,有限会社,茨城県,鉾田市,柏熊９８０番地,,08,234,3111511,,,2024-10-22,清算の結了等,,,2015-10-05,1,,,,,イシザキショウテン,0
134,1080002015087,登記記録の閉鎖等,0,2024-10-30,2024-10-25,有限会社お茶の百姓園,,有限会社,静岡県,牧之原市,菅ケ谷２９５５番地１,,22,226,4210514,,,2024-10-25,清算の結了等,,,2015-10-05,1,,,,,オチャノヒャクショウエン,0
144,1100002010531,登記記録の閉鎖等,0,2024-10-30,2024-10-21,有限会社越中屋,,有限会社,長野県,佐久市,御馬寄３４番地１,,20,217,3842103,,,2024-10-21,清算の結了等,,,2015-10-05,1,,,,,エッチュウヤ,0
163,1120003015247,登記記録の閉鎖等,0,2024-10-30,2024-10-24,合同会社モモコロ,,合同会社,大阪府,大阪市東住吉区,東田辺２丁目６番４田辺マンション,,27,121,5460032,,,2024-10-24,清算の結了等,,,2019-01-29,1,,,,,モモコロ,0
164,1120003022326,登記記録の閉鎖等,0,2024-10-30,2024-10-24,合同会社Ａｒｌ,,合同会社,大阪府,大阪市中央区,日本橋１丁目３番１３号,,27,128,5420073,,,2024-10-24,清算の結了等,,,2022-08-24,1,,,,,エール,0
193,1180001091763,登記記録の閉鎖等,0,2024-10-30,2024-10-11,株式会社スーパーよしおか,,株式会社,愛知県,半田市,前田町６８番地の１,,23,205,4750082,,,2024-10-11,清算の結了等,,,2015-10-05,1,,,,,スーパーヨシオカ,0
195,1180001128540,登記記録の閉鎖等,0,2024-10-30,2024-10-18,株式会社クエスト,,株式会社,愛知県,名古屋市名東区,香流３丁目８０８番地の１,,23,115,4650005,,,2024-10-18,清算の結了等,,,2017-07-14,1,,,,,クエスト,0
196,1180001156070,登記記録の閉鎖等,0,2024-10-30,2024-10-17,株式会社Ｐｒｏｇｒｅｓｓ,,株式会社,愛知県,名古屋市西区,比良３丁目１６８番地の２,,23,104,4520802,,,2024-10-17,清算の結了等,,,2023-05-02,1,,,,,プログレス,0
203,1180002010425,登記記録の閉鎖等,0,2024-10-30,2024-10-15,株式会社森山商会,,株式会社,愛知県,名古屋市中区,丸の内２丁目１８番２２号三博ビル５階,,23,106,4600002,,,2024-10-15,清算の結了等,,,2015-10-05,1,,,,,モリヤマショウカイ,0
205,1180002066764,登記記録の閉鎖等,0,2024-10-30,2024-10-18,有限会社藤和設計,,有限会社,愛知県,春日井市,東野町６丁目１５番地の５,,23,206,4860817,,,2024-10-18,清算の結了等,,,2015-10-05,1,,,,,トウワセッケイ,0
209,1180005015322,登記記録の閉鎖等,0,2024-10-30,2024-10-25,特定非営利活動法人あいち子育て支援プログラム研究会,,その他の設立登記法人,愛知県,名古屋市昭和区,折戸町５丁目２８番地,,23,107,4660858,,,2024-10-25,清算の結了等,,,2015-10-05,1,,,,,アイチコソダテシエンプログラムケンキュウカイ,0
213,1190002010944,登記記録の閉鎖等,0,2024-10-30,2024-10-15,百福カンパニー有限会社,,有限会社,三重県,伊勢市,上地町２６９１番地６,,24,203,5160051,,,2024-10-15,合併による解散等,4190001006775,令和６年１０月１５日三重県伊勢市上地町２６９１番地６株式会社ダイム（4190001006775）に合併し解散,2015-10-05,1,,,,,ヒャクフクカンパニー,0
218,1200002020727,登記記録の閉鎖等,0,2024-10-30,2024-10-28,有限会社マルタ陶苑,,有限会社,岐阜県,多治見市,市之倉町７丁目１９番地,,21,204,5070814,,,2024-10-28,清算の結了等,,,2015-10-05,1,,,,,マルタトウエン,0
246,1360003006305,登記記録の閉鎖等,0,2024-10-30,2024-10-23,合同会社サーブ,,合同会社,沖縄県,浦添市,城間４丁目３番１８号Ｙ－ＳＰＥＣ３０３号,,47,208,9012133,,,2024-10-23,清算の結了等,,,2015-10-05,1,,,,,サーブ,0
250,1370402000147,登記記録の閉鎖等,0,2024-10-30,2024-10-15,有限会社千葉仁畜産,,有限会社,宮城県,登米市,登米町小島東岡谷地１０６番地の１,,04,212,9870701,,,2024-10-15,清算の結了等,,,2015-10-05,1,,,,,チバジンチクサン,0
252,1380001017153,登記記録の閉鎖等,0,2024-10-30,2024-10-15,会津日建サービス株式会社,,株式会社,福島県,会津若松市,高野町大字上高野字村前６５番地,,07,202,9650077,,,2024-10-15,清算の結了等,,,2015-10-05,1,,,,,,0
256,1380002009496,登記記録の閉鎖等,0,2024-10-30,2024-10-16,有限会社サイキ工業,,有限会社,福島県,郡山市,静西２丁目４１番地,,07,203,9630232,,,2024-10-16,清算の結了等,,,2015-10-05,1,,,,,サイキコウギョウ,0
257,1380002014942,登記記録の閉鎖等,0,2024-10-30,2024-10-17,有限会社佐藤瓦店,,有限会社,福島県,田村市,船引町笹山字黒井所３０８番地,,07,211,9634321,,,2024-10-17,清算の結了等,,,2015-10-05,1,,,,,サトウカワラテン,0
259,1380002032267,登記記録の閉鎖等,0,2024-10-30,2024-10-16,有限会社曾我建設,,有限会社,福島県,会津若松市,宝町４番５４号,,07,202,9650806,,,2024-10-16,清算の結了等,,,2015-10-05,1,,,,,ソガケンセツ,0
271,1430001059702,登記記録の閉鎖等,0,2024-10-30,2024-10-22,株式会社品川ネットワークス,,株式会社,北海道,札幌市白石区,南郷通１６丁目南１番２－１１０１,,01,104,0030022,,,2024-10-22,清算の結了等,,,2015-10-05,1,,,,,シナガワネットワークス,0
279,1430005008804,登記記録の閉鎖等,0,2024-10-30,2024-10-25,医療法人社団花輪内科循環器科医院,,その他の設立登記法人,北海道,苫小牧市,三光町５丁目６番１５号,,01,213,0530042,,,2024-10-25,清算の結了等,,,2015-10-05,1,,,,,ハナワナイカジュンカンキカイイン,0
307,2010003023482,登記記録の閉鎖等,0,2024-10-30,2024-10-11,ＷｅＷｏｒｋ　Ｊａｐａｎ合同会社,,合同会社,東京都,港区,南青山１丁目２４番３号,,13,103,1070062,,,2024-10-11,清算の結了等,,,2016-05-09,1,,,,,ウィーワークジャパン,0
310,2010005029288,登記記録の閉鎖等,0,2024-10-30,2024-10-25,東京リテール一般社団法人,,その他の設立登記法人,東京都,千代田区,内神田２丁目２番６号５階あすな会計事務所内,,13,101,1010047,,,2024-10-25,清算の結了等,,,2018-11-01,1,,,,,トウキョウリテール,0
312,2010005034940,登記記録の閉鎖等,0,2024-10-30,2024-10-25,ＲＢソーラーパールホールディングス一般社団法人,,その他の設立登記法人,東京都,中央区,八丁堀４丁目２番１０号ＡＯＪ税理士法人内,,13,102,1040032,,,2024-10-25,清算の結了等,,,2022-04-26,1,,,,,アールビーソーラパールホールディングス,0
314,2010101013583,登記記録の閉鎖等,0,2024-10-30,2024-10-25,株式会社葵心,,株式会社,東京都,八王子市,大楽寺町４０６番地３大楽寺田口ビル３Ｆ,,13,201,1930816,,,2024-10-25,清算の結了等,,,2019-01-21,1,,,,,キシン,0
317,2010402028124,登記記録の閉鎖等,0,2024-10-30,2024-10-09,有限会社アクレイム,,有限会社,東京都,港区,三田２丁目１９番２１号,,13,103,1080073,,,2024-10-09,清算の結了等,,,2015-10-05,1,,,,,アクレイム,0
318,2010403007300,登記記録の閉鎖等,0,2024-10-30,2024-10-10,合同会社ＵＩＭＬ－３,,合同会社,東京都,港区,赤坂２丁目５番８号,,13,103,1070052,,,2024-10-10,清算の結了等,,,2015-10-05,1,,,,,ユーアイエムエルスリー,0
321,2010405016282,登記記録の閉鎖等,0,2024-10-30,2024-10-10,一般社団法人アイオーシニアズジャパン,,その他の設立登記法人,東京都,港区,麻布十番１丁目２番７号ラフィネ麻布十番７０１号室,,13,103,1060045,,,2024-10-10,清算の結了等,,,2017-12-05,1,,,,,アイオーシニアズジャパン,0
332,2010901045504,登記記録の閉鎖等,0,2024-10-30,2024-10-24,株式会社ｔｈｍｋ,,株式会社,東京都,世田谷区,羽根木１丁目１９番１５号羽根木インターナショナルガーデンハウスＢ棟Ｂ０１,,13,112,1560042,,,2024-10-24,清算の結了等,,,2020-01-09,1,,,,,ティーエイチエムケイ,0
350,2011601026901,登記記録の閉鎖等,0,2024-10-30,2024-10-24,株式会社住光フロンティア,,株式会社,東京都,練馬区,土支田１丁目１１番５号,,13,120,1790076,,,2024-10-24,清算の結了等,,,2023-06-20,1,,,,,ジュウコウフロンティア,0
352,2011803003153,登記記録の閉鎖等,0,2024-10-30,2024-10-21,合同会社ＮＥＸＴ　ＦＵＴＵＲＥ　ＩＮＮＯＶＡＴＩＯＮ,,合同会社,東京都,葛飾区,亀有３丁目８番５号,,13,122,1250061,,,2024-10-21,清算の結了等,,,2018-01-11,1,,,,,,0
367,2020001081309,登記記録の閉鎖等,0,2024-10-30,2024-10-03,株式会社サン・リバー平,,株式会社,神奈川県,川崎市宮前区,野川９３５番地,,14,136,2160001,,,2024-10-03,清算の結了等,,,2015-10-05,1,,,,,サンリバータイラ,0
395,2030003016897,登記記録の閉鎖等,0,2024-10-30,2024-10-24,合同会社ＩＷＭ,,合同会社,埼玉県,新座市,新堀２丁目５番９号メゾン武蔵野２０２号室,,11,230,3520032,,,2024-10-24,清算の結了等,,,2021-03-18,1,,,,,アイダブリュエム,0
402,2040001095380,登記記録の閉鎖等,0,2024-10-30,2024-10-25,株式会社ＭＫＴ鋼産,,株式会社,千葉県,浦安市,鉄鋼通り１丁目２番５号,,12,227,2790025,,,2024-10-25,清算の結了等,,,2016-05-23,1,,,,,,0
409,2050001023621,登記記録の閉鎖等,0,2024-10-30,2024-10-23,株式会社花福,,株式会社,茨城県,日立市,鹿島町１丁目１５番６号,,08,202,3170071,,,2024-10-23,清算の結了等,,,2015-10-05,1,,,,,,0
416,2060002001245,登記記録の閉鎖等,0,2024-10-30,2024-10-24,イデア有限会社,,有限会社,栃木県,宇都宮市,今泉町３５１番地７,,09,201,3210962,,,2024-10-24,清算の結了等,,,2015-10-05,1,,,,,イデア,0
422,2080102013477,登記記録の閉鎖等,0,2024-10-30,2024-10-28,エスポアール有限会社,,有限会社,静岡県,富士市,津田２６０番地の３７,,22,210,4170034,,,2024-10-28,清算の結了等,,,2015-10-05,1,,,,,エスポアール,0
425,2100002010646,登記記録の閉鎖等,0,2024-10-30,2024-10-10,有限会社サクセス,,有限会社,長野県,佐久市,鳴瀬２９７５番地７,,20,217,3850016,,,2024-10-10,清算の結了等,,,2015-10-05,1,,,,,サクセス,0
432,2120001093319,登記記録の閉鎖等,0,2024-10-30,2024-10-24,日本電気ホームエレクトロニクス株式会社,,株式会社,大阪府,大阪市中央区,城見１丁目４番２４号,,27,128,5400001,,,2024-10-24,清算の結了等,,,2024-02-07,1,,,,,ニホンデンキホームエレクトロニクス,0
439,2120001191733,登記記録の閉鎖等,0,2024-10-30,2024-10-24,株式会社ＹＯＲＩ　ＹＯＲＩ,,株式会社,大阪府,大阪市北区,堂島浜１丁目４－４アクア堂島フォンターナ３Ｆ,,27,127,5300004,,,2024-10-24,清算の結了等,,,2015-10-05,1,,,,,ヨリヨリ,0
460,2120901013904,登記記録の閉鎖等,0,2024-10-30,2024-10-28,大仁プラント株式会社,,株式会社,大阪府,高槻市,日吉台五番町１１番２９号,,27,207,5691022,,,2024-10-28,清算の結了等,,,2015-10-05,1,,,,,ダイニプラント,0
462,2122001002333,登記記録の閉鎖等,0,2024-10-30,2024-10-25,株式会社コンビック,,株式会社,大阪府,東大阪市,西岩田３丁目３番１３－１０８号,,27,227,5780947,,,2024-10-25,清算の結了等,,,2015-10-05,1,,,,,コンビック,0
469,2140001075967,登記記録の閉鎖等,0,2024-10-30,2024-10-29,依藤綿業株式会社,,株式会社,兵庫県,西脇市,高田井町２５１番地,,28,213,6770016,,,2024-10-29,清算の結了等,,,2015-10-05,1,,,,,ヨリフジメンギョウ,0
471,2140001117125,登記記録の閉鎖等,0,2024-10-30,2024-10-28,株式会社嶺山エステート,,株式会社,兵庫県,神戸市中央区,磯辺通１丁目１番１８号,,28,110,6510084,,,2024-10-28,清算の結了等,,,2020-04-03,1,,,,,ミネヤマエステート,0
474,2140003005641,登記記録の閉鎖等,0,2024-10-30,2024-10-25,合資会社桑田商店,,合資会社,兵庫県,明石市,本町１丁目５番１３号,,28,203,6730892,,,2024-10-25,清算の結了等,,,2015-10-05,1,,,,,クワタショウテン,0
482,2180001099780,登記記録の閉鎖等,0,2024-10-30,2024-10-10,株式会社港南テック,,株式会社,愛知県,弥富市,鯏浦町気開１６７番地,,23,235,4980024,,,2024-10-10,清算の結了等,,,2015-10-05,1,,,,,コウナンテック,0
486,2180001104094,登記記録の閉鎖等,0,2024-10-30,2024-10-15,株式会社ビジュアルマップ,,株式会社,愛知県,愛知郡東郷町,大字春木字白土１番地２２８３,,23,302,4700162,,,2024-10-15,清算の結了等,,,2015-10-05,1,,,,,ビジュアルマップ,0
489,2180001141542,登記記録の閉鎖等,0,2024-10-30,2024-10-15,ＪＥＭＴＣテクノロジーズ株式会社,,株式会社,愛知県,名古屋市東区,白壁３丁目２番１号２Ｆ,,23,102,4610011,,,2024-10-15,清算の結了等,,,2020-06-09,1,,,,,ジェムテクテクノロジーズ,0
504,2180002048530,登記記録の閉鎖等,0,2024-10-30,2024-10-18,有限会社ワコーコーポレーション,,有限会社,愛知県,名古屋市東区,泉１丁目８番５号,,23,102,4610001,,,2024-10-18,清算の結了等,,,2015-10-05,1,,,,,ワコーコーポレーション,0
519,2190002011215,登記記録の閉鎖等,0,2024-10-30,2024-10-29,有限会社井村瓦店,,有限会社,三重県,志摩市,磯部町築地１６１７番地の１,,24,215,5170218,,,2024-10-29,清算の結了等,,,2015-10-05,1,,,,,イムラカワラテン,0
544,2300002011491,登記記録の閉鎖等,0,2024-10-30,2024-10-28,有限会社カシラ,,有限会社,佐賀県,唐津市,菜畑３２５４番地３,,41,202,8470844,,,2024-10-28,清算の結了等,,,2015-10-05,1,,,,,カシラ,0
545,2300003002003,登記記録の閉鎖等,0,2024-10-30,2024-10-25,合同会社めぶき,,合同会社,佐賀県,鳥栖市,曽根崎町１４０７－１,,41,203,8410025,,,2024-10-25,清算の結了等,,,2023-08-04,1,,,,,メブキ,0
560,2360001016148,登記記録の閉鎖等,0,2024-10-30,2024-10-23,株式会社トランクディライト,,株式会社,沖縄県,沖縄市,高原４丁目２０番２０号,,47,211,9042171,,,2024-10-23,清算の結了等,,,2015-10-05,1,,,,,トランクディライト,0
575,2400001002127,登記記録の閉鎖等,0,2024-10-30,2024-10-23,株式会社姫神設備工業,,株式会社,岩手県,盛岡市,上田字岩脇１番地２７,,03,201,0200102,,,2024-10-23,合併による解散等,1370001046070,令和６年１０月１日宮城県富谷市ひより台二丁目２番地９株式会社ＲＳ（1370001046070）に合併し解散,2015-10-05,1,,,,,ヒメカミセツビコウギョウ,0
582,2430002047325,登記記録の閉鎖等,0,2024-10-30,2024-10-28,有限会社エイト,,有限会社,北海道,千歳市,末広５丁目６番１４号,,01,224,0660027,,,2024-10-28,清算の結了等,,,2015-10-05,1,,,,,エイト,0
601,3010001213530,登記記録の閉鎖等,0,2024-10-30,2024-10-16,時物株式会社,,株式会社,東京都,中央区,日本橋蛎殻町１丁目３番５号共同ビル２階２３号,,13,102,1030014,,,2024-10-16,清算の結了等,,,2020-11-09,1,,,,,ジブツ,0
606,3010002045287,登記記録の閉鎖等,0,2024-10-30,2024-10-16,有限会社ナカケイハウジング,,有限会社,東京都,文京区,千駄木３丁目３２番１１号,,13,105,1130022,,,2024-10-16,清算の結了等,,,2015-10-05,1,,,,,ナカケイハウジング,0
611,3010101011074,登記記録の閉鎖等,0,2024-10-30,2024-10-25,株式会社アクシス,,株式会社,東京都,八王子市,打越町２０１１番地５,,13,201,1920911,,,2024-10-25,清算の結了等,,,2015-10-05,1,,,,,アクシス,0
638,3011001142356,登記記録の閉鎖等,0,2024-10-30,2024-10-21,株式会社ＭＵＳＥ,,株式会社,東京都,台東区,元浅草１丁目６番１２号ＧＯＧＯオフィス御徒町３２５号室,,13,106,1110041,,,2024-10-21,清算の結了等,,,2021-08-18,1,,,,,ミューズ,0
643,3011102013051,登記記録の閉鎖等,0,2024-10-30,2024-10-16,有限会社矢島箔押所,,有限会社,東京都,新宿区,赤城下町５０番地,,13,104,1620803,,,2024-10-16,清算の結了等,,,2015-10-05,1,,,,,ヤジマハクオシジョ,0
650,3011601003924,登記記録の閉鎖等,0,2024-10-30,2024-10-25,株式会社大國堂本舗,,株式会社,東京都,練馬区,関町東１丁目８番７号,,13,120,1770052,,,2024-10-25,清算の結了等,,,2015-10-05,1,,,,,オオクニドウホンポ,0
666,3020001002263,登記記録の閉鎖等,0,2024-10-30,2024-10-23,株式会社横浜ＬＩＸＩＬ製作所,,株式会社,東京都,品川区,西品川１丁目１番１号大崎ガーデンタワー２４階,,13,109,1410033,,,2024-10-23,清算の結了等,,,2015-10-05,1,,,,,ヨコハマリクシルセイサクショ,0
675,3021005012158,登記記録の閉鎖等,0,2024-10-30,2024-10-11,一般社団法人日本アームバランス協会,,その他の設立登記法人,神奈川県,平塚市,東真土１丁目８番９号,,14,203,2540018,,,2024-10-11,清算の結了等,,,2021-04-06,1,,,,,ニホンアームバランスキョウカイ,0
690,3030003015485,登記記録の閉鎖等,0,2024-10-30,2024-10-21,合同会社グッデイ,,合同会社,東京都,台東区,上野２丁目１２番１８号,,13,106,1100005,,,2024-10-21,清算の結了等,,,2020-07-07,1,,,,,グッデイ,0
694,3030005014320,登記記録の閉鎖等,0,2024-10-30,2024-10-23,税理士法人せいえん事務所,,その他の設立登記法人,埼玉県,深谷市,栄町１４番２２号,,11,218,3660827,,,2024-10-23,清算の結了等,,,2015-10-05,1,,,,,セイエンジムショ,0
695,3040001047496,登記記録の閉鎖等,0,2024-10-30,2024-10-25,泰成商事株式会社,,株式会社,千葉県,印西市,中央南１丁目１３番地６１３号,,12,231,2701340,,,2024-10-25,清算の結了等,,,2015-10-05,1,,,,,タイセイショウジ,0
699,3040002026334,登記記録の閉鎖等,0,2024-10-30,2024-10-15,有限会社旅館鈴木館,,有限会社,神奈川県,川崎市宮前区,けやき平１－４１－２０２,,14,136,2160023,,,2024-10-15,清算の結了等,,,2015-10-05,1,,,,,リョカンスズキカン,0
700,3040002042042,登記記録の閉鎖等,0,2024-10-30,2024-10-24,有限会社アレグリア,,有限会社,千葉県,市川市,市川１丁目２０番１５号,,12,203,2720034,,,2024-10-24,清算の結了等,,,2015-10-05,1,,,,,アレグリア,0
701,3040002061414,登記記録の閉鎖等,0,2024-10-30,2024-10-25,有限会社桧芳興産,,有限会社,千葉県,佐倉市,岩富１７６６番地,,12,212,2850071,,,2024-10-25,清算の結了等,,,2015-10-05,1,,,,,ヒヨシコウサン,0
703,3050001037414,登記記録の閉鎖等,0,2024-10-30,2024-10-23,株式会社２００５番,,株式会社,茨城県,牛久市,田宮町２６３番地５,,08,219,3001236,,,2024-10-23,清算の結了等,,,2015-10-05,1,,,,,,0
706,3060002016754,登記記録の閉鎖等,0,2024-10-30,2024-10-25,有限会社三陽,,有限会社,栃木県,日光市,所野１５４３番地４１７,,09,206,3211421,,,2024-10-25,清算の結了等,,,2015-10-05,1,,,,,サンヨウ,0
716,3080002010400,登記記録の閉鎖等,0,2024-10-30,2024-10-24,有限会社袖師の望月鐡工,,有限会社,静岡県,静岡市清水区,袖師町５９５番地の３,,22,103,4240037,,,2024-10-24,清算の結了等,,,2015-10-05,1,,,,,ソデシノモチヅキテッコウ,0
726,3100002019166,登記記録の閉鎖等,0,2024-10-30,2024-10-21,有限会社イー・セレクション・カンパニー,,有限会社,長野県,松本市,清水１丁目３番１２号,,20,202,3900805,,,2024-10-21,清算の結了等,,,2015-10-05,1,,,,,イーセレクションカンパニー,0
756,3130002025970,登記記録の閉鎖等,0,2024-10-30,2024-10-28,有限会社メディア・ワークス,,有限会社,京都府,宇治市,宇治半白５６－１５,,26,204,6110021,,,2024-10-28,清算の結了等,,,2015-10-05,1,,,,,,0
761,3140001096087,登記記録の閉鎖等,0,2024-10-30,2024-10-28,ユニスリツプジヤパン株式会社,,株式会社,兵庫県,神戸市兵庫区,本町２丁目１番４号,,28,105,6520834,,,2024-10-28,清算の結了等,,,2015-10-05,1,,,,,ユニスリツプジヤパン,0
767,3140002022620,登記記録の閉鎖等,0,2024-10-30,2024-10-28,有限会社オーディーワークス,,有限会社,兵庫県,芦屋市,高浜町３番１－２１１１号,,28,206,6590033,,,2024-10-28,清算の結了等,,,2015-10-05,1,,,,,オーディーワークス,0
771,3180001074205,登記記録の閉鎖等,0,2024-10-30,2024-10-16,株式会社ジェイアンドジェイ,,株式会社,愛知県,春日井市,六軒屋町４丁目６７番地,,23,206,4860842,,,2024-10-16,清算の結了等,,,2015-10-05,1,,,,,ジェイアンドジェイ,0
772,3180001093956,登記記録の閉鎖等,0,2024-10-30,2024-10-15,株式会社松製作所,,株式会社,愛知県,半田市,新池町１丁目２０５番地の１２,,23,205,4750078,,,2024-10-15,清算の結了等,,,2015-10-05,1,,,,,マツセイサクショ,0
787,3180003012740,登記記録の閉鎖等,0,2024-10-30,2024-10-11,合資会社戎屋,,合資会社,愛知県,半田市,新川町５７番地,,23,205,4750886,,,2024-10-11,清算の結了等,,,2015-10-05,1,,,,,エビスヤ,0
793,3180302000124,登記記録の閉鎖等,0,2024-10-30,2024-10-23,有限会社アサイハウジング,,有限会社,愛知県,岡崎市,日名南町１７番地７,,23,202,4440915,,,2024-10-23,清算の結了等,,,2015-10-05,1,,,,,アサイハウジング,0
796,3190001015109,登記記録の閉鎖等,0,2024-10-30,2024-10-25,四海商運株式会社,,株式会社,三重県,四日市市,楠町北五味塚１３５５番地１,,24,202,5100103,,,2024-10-25,清算の結了等,,,2015-10-05,1,,,,,シカイショウウン,0
801,3200002018397,登記記録の閉鎖等,0,2024-10-30,2024-10-28,有限会社足立工具店,,有限会社,岐阜県,関市,鍛冶町１７番地,,21,205,5013871,,,2024-10-28,清算の結了等,,,2015-10-05,1,,,,,アダチコウグテン,0
812,3240001006060,登記記録の閉鎖等,0,2024-10-30,2024-10-25,株式会社大東広島,,株式会社,広島県,広島市東区,光が丘１４番１１号,,34,102,7320051,,,2024-10-25,清算の結了等,,,2015-10-05,1,,,,,ダイトウヒロシマ,0
822,3290001000653,登記記録の閉鎖等,0,2024-10-30,2024-10-24,朝日オリコミ西部株式会社,,株式会社,福岡県,福岡市南区,那の川１丁目３番２５号,,40,134,8150081,,,2024-10-24,合併による解散等,4010001008871,令和６年１０月１日東京都中央区築地五丁目３番２号株式会社朝日コネクト（4010001008871）に合併し解散,2015-10-05,1,,,,,アサヒオリコミセイブ,0
847,3370501000624,登記記録の閉鎖等,0,2024-10-30,2024-10-07,株式会社ミナト海事,,株式会社,宮城県,本吉郡南三陸町,歌津字港１７５番地２,,04,606,9880402,,,2024-10-07,合併による解散等,6370501000613,令和６年９月３０日宮城県本吉郡南三陸町歌津字港１７５番地２株式会社阿部伊組（6370501000613）に合併し解散,2015-10-05,1,,,,,ミナトカイジ,0
851,3390001015641,登記記録の閉鎖等,0,2024-10-30,2024-10-18,ほずみ企画株式会社,,株式会社,山形県,山形市,穂積３７番地１,,06,201,9900001,,,2024-10-18,清算の結了等,,,2019-03-22,1,,,,,ホズミキカク,0
853,3400002010623,登記記録の閉鎖等,0,2024-10-30,2024-10-21,有限会社坂栄,,有限会社,岩手県,宮古市,本町１番３６号,,03,202,0270089,,,2024-10-21,清算の結了等,,,2015-10-05,1,,,,,サカエイ,0
862,3430002012996,登記記録の閉鎖等,0,2024-10-30,2024-10-24,有限会社ティー・アンド・ケイ,,有限会社,北海道,札幌市南区,澄川六条１１丁目１４番４５号,,01,106,0050006,,,2024-10-24,清算の結了等,,,2015-10-05,1,,,,,ティアンドケイ,0
863,3430002037820,登記記録の閉鎖等,0,2024-10-30,2024-10-28,有限会社エース産商,,有限会社,北海道,札幌市東区,東苗穂四条２丁目２番１－８０６号,,01,103,0070804,,,2024-10-28,清算の結了等,,,2015-10-05,1,,,,,エースサンショウ,0
864,3430002055178,登記記録の閉鎖等,0,2024-10-30,2024-10-25,有限会社北販住設,,有限会社,北海道,小樽市,オタモイ３丁目５番８号,,01,203,0482671,,,2024-10-25,清算の結了等,,,2015-10-05,1,,,,,ホクハンジュウセツ,0
866,3450001011881,登記記録の閉鎖等,0,2024-10-30,2024-10-28,株式会社ＯｒｌａｎｄｏＪａｐａｎ,,株式会社,東京都,江東区,豊洲３丁目６番５－１３１７号,,13,108,1350061,,,2024-10-28,合併による解散等,7011201012074,令和６年９月１日東京都千代田区麹町三丁目５番８号株式会社ＯｒｌａｎｄｏＪａｐａｎ（7011201012074）に合併し解散,2016-11-25,1,,,,,オーランドジャパン,0
877,4010001138306,登記記録の閉鎖等,0,2024-10-30,2024-10-16,山佐産業ＲＹＲ８リース株式会社,,株式会社,東京都,千代田区,丸の内３丁目１番１号東京共同会計事務所内,,13,101,1000005,,,2024-10-16,清算の結了等,,,2015-10-05,1,,,,,ヤマササンギョウアールワイアールエイトリース,0
883,4010003027944,登記記録の閉鎖等,0,2024-10-30,2024-10-17,ミライユビリーフ合同会社,,合同会社,東京都,千代田区,神田小川町１丁目６番１号宝ビル８階,,13,101,1010052,,,2024-10-17,清算の結了等,,,2018-07-23,1,,,,,ミライユビリーフ,0
886,4010005019080,登記記録の閉鎖等,0,2024-10-30,2024-10-25,一般社団法人全国自動車無線連合会,,その他の設立登記法人,東京都,千代田区,九段南４丁目８番１３号,,13,101,1020074,,,2024-10-25,清算の結了等,,,2015-10-05,1,,,,,ゼンコクジドウシャムセンレンゴウカイ,0
899,4010405021462,登記記録の閉鎖等,0,2024-10-30,2024-10-10,ＦｉｎＴａｘ税理士法人,,その他の設立登記法人,東京都,港区,新橋１丁目１８番２１号第一日比谷ビル,,13,103,1050004,,,2024-10-10,清算の結了等,,,2022-10-25,1,,,,,フィンタックス,0
900,4010501011755,登記記録の閉鎖等,0,2024-10-30,2024-10-21,株式会社福島,,株式会社,東京都,台東区,三筋１丁目１７番１２－２０２号長沼ビル,,13,106,1110055,,,2024-10-21,清算の結了等,,,2015-10-05,1,,,,,フクシマ,0
902,4010501051000,登記記録の閉鎖等,0,2024-10-30,2024-10-21,ほうせんか株式会社,,株式会社,東京都,台東区,寿１丁目１番９号,,13,106,1110042,,,2024-10-21,清算の結了等,,,2023-09-05,1,,,,,ホウセンカ,0
904,4010502018551,登記記録の閉鎖等,0,2024-10-30,2024-10-18,有限会社ナカガワアート,,有限会社,東京都,台東区,浅草橋２丁目２０番６号,,13,106,1110053,,,2024-10-18,清算の結了等,,,2015-10-05,1,,,,,ナカガワアート,0
905,4010601030696,登記記録の閉鎖等,0,2024-10-30,2024-10-28,株式会社ＣＬＯ,,株式会社,東京都,江東区,大島５丁目４２番１号,,13,108,1360072,,,2024-10-28,清算の結了等,,,2015-10-05,1,,,,,,0
928,4011601023129,登記記録の閉鎖等,0,2024-10-30,2024-10-21,株式会社アルゴ,,株式会社,東京都,練馬区,関町北３丁目４６番２号,,13,120,1770051,,,2024-10-21,清算の結了等,,,2019-02-12,1,,,,,アルゴ,0
936,4012301012248,登記記録の閉鎖等,0,2024-10-30,2024-10-24,株式会社ＩＲＩＳ,,株式会社,東京都,町田市,相原町１３２６番地３,,13,209,1940211,,,2024-10-24,清算の結了等,,,2020-08-28,1,,,,,アイリス,0
940,4012405001254,登記記録の閉鎖等,0,2024-10-30,2024-10-29,特定非営利活動法人府中ＩＣＴネットワーククラブ,,その他の設立登記法人,東京都,府中市,美好町３丁目４６番地の２６,,13,206,1830045,,,2024-10-29,清算の結了等,,,2015-10-05,1,,,,,フチュウアイシーティーネットワーククラブ,0
942,4012702009917,登記記録の閉鎖等,0,2024-10-30,2024-10-18,有限会社ヨシダ電機,,有限会社,東京都,清瀬市,竹丘２丁目２４番１号,,13,221,2040023,,,2024-10-18,清算の結了等,,,2015-10-05,1,,,,,ヨシダデンキ,0
953,4020002086858,登記記録の閉鎖等,0,2024-10-30,2024-10-15,有限会社ティーエヌケー工業,,有限会社,神奈川県,川崎市宮前区,東有馬２丁目３３番３号,,14,136,2160002,,,2024-10-15,清算の結了等,,,2015-10-05,1,,,,,テイーエヌケーコウギョウ,0
962,4021002046397,登記記録の閉鎖等,0,2024-10-30,2024-10-28,有限会社新功自動車,,有限会社,神奈川県,綾瀬市,蓼川３丁目１２番１３号,,14,218,2521105,,,2024-10-28,清算の結了等,,,2015-10-05,1,,,,,シンコウジドウシャ,0
970,4030002016046,登記記録の閉鎖等,0,2024-10-30,2024-10-23,有限会社情報建築,,有限会社,沖縄県,那覇市,松川２丁目２番１６号カーサツハ５０３,,47,201,9020062,,,2024-10-23,清算の結了等,,,2015-10-05,1,,,,,ジョウホウケンチク,0
980,4040002018801,登記記録の閉鎖等,0,2024-10-30,2024-10-22,有限会社日待石材,,有限会社,千葉県,習志野市,本大久保３丁目６番８号,,12,216,2750012,,,2024-10-22,清算の結了等,,,2015-10-05,1,,,,,ヒマチセキザイ,0
983,4050002037057,登記記録の閉鎖等,0,2024-10-30,2024-10-21,有限会社千木良工業,,有限会社,茨城県,守谷市,松前台１丁目１１番地１５,,08,224,3020102,,,2024-10-21,清算の結了等,,,2015-10-05,1,,,,,チギラコウギョウ,0
985,4060002003982,登記記録の閉鎖等,0,2024-10-30,2024-10-25,有限会社コーユー美装,,有限会社,栃木県,宇都宮市,東簗瀬１丁目３番地１０,,09,201,3210925,,,2024-10-25,清算の結了等,,,2015-10-05,1,,,,,コーユービソウ,0
986,4060002039903,登記記録の閉鎖等,0,2024-10-30,2024-10-25,長竹工業所有限会社,,有限会社,栃木県,佐野市,吉水町９６２番地１,,09,204,3270313,,,2024-10-25,清算の結了等,,,2015-10-05,1,,,,,ナガタケコウギョウショ,0
997,4100001024447,登記記録の閉鎖等,0,2024-10-30,2024-10-18,株式会社ＲＴＡ,,株式会社,長野県,安曇野市,豊科高家６６６１番地１,,20,220,3998204,,,2024-10-18,清算の結了等,,,2015-10-05,1,,,,,アールティーエー,0
1002,4110002025674,登記記録の閉鎖等,0,2024-10-30,2024-10-24,有限会社津端木工,,有限会社,新潟県,中魚沼郡津南町,大字三箇甲２４０４番地１,,15,482,9498207,,,2024-10-24,清算の結了等,,,2015-10-05,1,,,,,ツバタモッコウ,0
1038,4140001105747,登記記録の閉鎖等,0,2024-10-30,2024-10-28,株式会社中尾建設工業,,株式会社,兵庫県,神崎郡市川町,澤８５５番地,,28,442,6792336,,,2024-10-28,清算の結了等,,,2017-04-17,1,,,,,,0
1063,4180003003788,登記記録の閉鎖等,0,2024-10-30,2024-10-15,中部金網合資会社,,合資会社,愛知県,名古屋市西区,名駅２丁目１４番２３号,,23,104,4510045,,,2024-10-15,清算の結了等,,,2015-10-05,1,,,,,チュウブカナアミ,0
1095,4290801008275,登記記録の閉鎖等,0,2024-10-30,2024-10-28,株式会社丸純,,株式会社,福岡県,北九州市門司区,大字猿喰５７９番地１２,,40,101,8000102,,,2024-10-28,清算の結了等,,,2015-10-05,1,,,,,マルジュン,0
1105,4340001013616,登記記録の閉鎖等,0,2024-10-30,2024-10-28,株式会社アクティス,,株式会社,鹿児島県,鹿児島市,上荒田町１２番８－３０２号,,46,201,8900055,,,2024-10-28,清算の結了等,,,2015-10-05,1,,,,,アクティス,0
1115,4360003002615,登記記録の閉鎖等,0,2024-10-30,2024-10-28,合同会社浦崎,,合同会社,沖縄県,那覇市,久茂地３丁目９番２０号,,47,201,9000015,,,2024-10-28,清算の結了等,,,2015-10-05,1,,,,,ウラサキ,0
1135,5010001138305,登記記録の閉鎖等,0,2024-10-30,2024-10-16,山佐産業ＲＹＲ７リース株式会社,,株式会社,東京都,千代田区,丸の内３丁目１番１号東京共同会計事務所内,,13,101,1000005,,,2024-10-16,清算の結了等,,,2015-10-05,1,,,,,ヤマササンギョウアールワイアールセブンリース,0
1137,5010001214675,登記記録の閉鎖等,0,2024-10-30,2024-10-01,ＴＣホテルズ＆リゾーツ軽井沢株式会社,,株式会社,東京都,千代田区,大手町２丁目６番４号,,13,101,1000004,,,2024-10-01,合併による解散等,7010001145299,令和６年１０月１日東京都千代田区大手町二丁目６番４号ＴＣホテルズ＆リゾーツ株式会社（7010001145299）に合併し解散,2020-12-24,1,,,,,ティーシーホテルズアンドリゾーツカルイザワ,0
1158,5010405007857,登記記録の閉鎖等,0,2024-10-30,2024-10-23,全国漁港・漁村振興漁業協同組合連合会,,その他の設立登記法人,東京都,千代田区,神田鍛冶町３丁目６番７号,,13,101,1010045,,,2024-10-23,清算の結了等,,,2015-10-05,1,,,,,ゼンコクギョコウギョソンシンコウ,0
1162,5010501018130,登記記録の閉鎖等,0,2024-10-30,2024-10-21,株式会社ウィルネット,,株式会社,東京都,台東区,蔵前３丁目４番５号,,13,106,1110051,,,2024-10-21,清算の結了等,,,2015-10-05,1,,,,,ウィルネット,0
1166,5010502003916,登記記録の閉鎖等,0,2024-10-30,2024-10-18,有限会社コセイ電気設計監理事務所,,有限会社,東京都,台東区,台東４丁目７番９号,,13,106,1100016,,,2024-10-18,清算の結了等,,,2015-10-05,1,,,,,コセイデンキセッケイカンリジムショ,0
1203,5011703003416,登記記録の閉鎖等,0,2024-10-30,2024-10-25,合同会社エバーグリーン・ソリューションズ,,合同会社,東京都,江戸川区,瑞江２丁目５番３号グレイス瑞江５０６,,13,123,1320011,,,2024-10-25,清算の結了等,,,2023-03-20,1,,,,,エバーグリーンソリューションズ,0
1252,5050001034954,登記記録の閉鎖等,0,2024-10-30,2024-10-23,サイトウ匠店株式会社,,株式会社,茨城県,日立市,東成沢町２丁目１１番２０号,,08,202,3160034,,,2024-10-23,清算の結了等,,,2015-10-05,1,,,,,,0
1257,5050002044886,登記記録の閉鎖等,0,2024-10-30,2024-10-22,有限会社橋本商事,,有限会社,茨城県,結城市,大字結城１４３８番地,,08,207,3070001,,,2024-10-22,清算の結了等,,,2015-10-05,1,,,,,ハシモトショウジ,0
1295,5120902019105,登記記録の閉鎖等,0,2024-10-30,2024-10-25,有限会社デリカート,,有限会社,大阪府,豊中市,服部豊町１丁目３番２３号,,27,203,5610859,,,2024-10-25,清算の結了等,,,2015-10-05,1,,,,,デリカート,0
1323,5180002021179,登記記録の閉鎖等,0,2024-10-30,2024-10-16,有限会社エスプリ,,有限会社,愛知県,名古屋市天白区,中平３丁目２６０９番地,,23,116,4680014,,,2024-10-16,清算の結了等,,,2015-10-05,1,,,,,エスプリ,0
1336,5200001018058,登記記録の閉鎖等,0,2024-10-30,2024-10-28,株式会社渡辺建設,,株式会社,岐阜県,可児郡御嵩町,中２４１４番地,,21,521,5050121,,,2024-10-28,清算の結了等,,,2015-10-05,1,,,,,ワタナベケンセツ,0
1339,5220003002009,登記記録の閉鎖等,0,2024-10-30,2024-10-25,イロハプロダクト合同会社,,合同会社,石川県,金沢市,御所町２丁目５２番地,,17,201,9200813,,,2024-10-25,清算の結了等,,,2015-10-05,1,,,,,イロハプロダクト,0
1347,5250002009308,登記記録の閉鎖等,0,2024-10-30,2024-10-28,伸成建設有限会社,,有限会社,山口県,下関市,秋根上町３丁目８番７号,,35,201,7510878,,,2024-10-28,清算の結了等,,,2015-10-05,1,,,,,シンセイケンセツ,0
1360,5290801022341,登記記録の閉鎖等,0,2024-10-30,2024-10-24,ひびきの電子株式会社,,株式会社,福岡県,北九州市若松区,ひびきの１番８号,,40,103,8080135,,,2024-10-24,合併による解散等,2010801020029,令和６年９月３０日東京都港区新橋四丁目６番１５号日新建物新橋ビル４階ＡＩホールディングス株式会社（2010801020029）に合併し解散,2016-03-14,1,,,,,ヒビキノデンシ,0
1361,5290802001187,登記記録の閉鎖等,0,2024-10-30,2024-10-18,有限会社オモト洋装店,,有限会社,福岡県,北九州市小倉北区,上到津３丁目１０番２１－１１０１号,,40,106,8030845,,,2024-10-18,清算の結了等,,,2015-10-05,1,,,,,オモトヨウソウテン,0
1364,5310002010366,登記記録の閉鎖等,0,2024-10-30,2024-10-28,有限会社昌栄,,有限会社,長崎県,佐世保市,白岳町９５８番地３,,42,202,8571164,,,2024-10-28,清算の結了等,,,2015-10-05,1,,,,,ショウエイ,0
1372,5360003009519,登記記録の閉鎖等,0,2024-10-30,2024-10-28,オアシス印刷合同会社,,合同会社,沖縄県,那覇市,古島２丁目２６番８号,,47,201,9020061,,,2024-10-28,清算の結了等,,,2019-05-15,1,,,,,オアシスインサツ,0
1377,5380002029615,登記記録の閉鎖等,0,2024-10-30,2024-10-17,有限会社いいたていちごランド,,有限会社,福島県,相馬郡飯舘村,二枚橋字町４９４番地,,07,564,9601634,,,2024-10-17,清算の結了等,,,2015-10-05,1,,,,,イイタテイチゴランド,0
1380,5400001013022,登記記録の閉鎖等,0,2024-10-30,2024-10-22,株式会社遠野自然塾,,株式会社,岩手県,遠野市,上郷町平倉５地割２８番地,,03,208,0280775,,,2024-10-22,清算の結了等,,,2016-01-07,1,,,,,トオノシゼンジュク,0
1395,5490003001215,登記記録の閉鎖等,0,2024-10-30,2024-10-21,合同会社Ｓｏｃｉａｌ　Ｗｏｒｋ,,合同会社,高知県,安芸郡芸西村,和食甲１６０３番地マリベール芸西３０３号,,39,307,7815701,,,2024-10-21,清算の結了等,,,2018-04-09,1,,,,,ソーシャルワーク,0
1396,5500001018317,登記記録の閉鎖等,0,2024-10-30,2024-10-28,オーエスアイ株式会社,,株式会社,愛媛県,松山市,本町１丁目２番地１,,38,201,7900811,,,2024-10-28,清算の結了等,,,2015-10-05,1,,,,,オーエスアイ,0
1397,6010001103423,登記記録の閉鎖等,0,2024-10-30,2024-10-21,株式会社アイ・プロモート,,株式会社,東京都,台東区,寿１丁目１１番６号,,13,106,1110042,,,2024-10-21,清算の結了等,,,2015-10-05,1,,,,,,0
1405,6010005024830,登記記録の閉鎖等,0,2024-10-30,2024-10-23,特定非営利活動法人大人磨き研究所,,その他の設立登記法人,東京都,板橋区,向原３丁目７番Ａ－３１５号,,13,119,1730036,,,2024-10-23,清算の結了等,,,2016-01-14,1,,,,,オトナミガキケンキュウジョ,0
1406,6010005029805,登記記録の閉鎖等,0,2024-10-30,2024-10-23,一般社団法人日比谷インベストメント,,その他の設立登記法人,東京都,千代田区,神田神保町１丁目１１番地さくら綜合事務所内,,13,101,1010051,,,2024-10-23,清算の結了等,,,2019-03-05,1,,,,,ヒビヤインベストメント,0
1408,6010101009099,登記記録の閉鎖等,0,2024-10-30,2024-10-28,株式会社リノベート,,株式会社,東京都,八王子市,元横山町２丁目６番５号,,13,201,1920063,,,2024-10-28,清算の結了等,,,2015-10-05,1,,,,,リノベート,0
1410,6010401083232,登記記録の閉鎖等,0,2024-10-30,2024-10-01,株式会社イルフェボー,,株式会社,東京都,港区,西新橋３丁目９番３号内山ビル２Ｆ,,13,103,1050003,,,2024-10-01,清算の結了等,,,2015-10-05,1,,,,,イルフェボー,0
1412,6010401167547,登記記録の閉鎖等,0,2024-10-30,2024-10-10,ＥａｒｌｙＧａｍｅ株式会社,,株式会社,東京都,港区,六本木７丁目７番７号,,13,103,1060032,,,2024-10-10,清算の結了等,,,2022-06-01,1,,,,,アーリーゲーム,0
1419,6010403028937,登記記録の閉鎖等,0,2024-10-30,2024-10-10,目黒オペレーションズ合同会社,,合同会社,東京都,港区,六本木１丁目６番１号泉ガーデンタワー,,13,103,1060032,,,2024-10-10,清算の結了等,,,2022-11-17,1,,,,,メグロオペレーションズ,0
1420,6010501023971,登記記録の閉鎖等,0,2024-10-30,2024-10-21,株式会社エアーマックス,,株式会社,東京都,台東区,蔵前３丁目４番５号,,13,106,1110051,,,2024-10-21,清算の結了等,,,2015-10-05,1,,,,,,0
1423,6010602005530,登記記録の閉鎖等,0,2024-10-30,2024-10-25,有限会社芳文堂,,有限会社,東京都,江東区,東砂５丁目１１番１号,,13,108,1360074,,,2024-10-25,清算の結了等,,,2015-10-05,1,,,,,,0
1469,6020002011021,登記記録の閉鎖等,0,2024-10-30,2024-10-15,有限会社森企画,,有限会社,神奈川県,横浜市港南区,港南台９丁目２０番６号,,14,111,2340054,,,2024-10-15,清算の結了等,,,2015-10-05,1,,,,,モリキカク,0
1477,6030002068028,登記記録の閉鎖等,0,2024-10-30,2024-10-24,有限会社尾崎ネームプレート,,有限会社,埼玉県,春日部市,粕壁東２丁目１５番１８号,,11,214,3440062,,,2024-10-24,清算の結了等,,,2015-10-05,1,,,,,オザキネームプレート,0
1484,6030005016891,登記記録の閉鎖等,0,2024-10-30,2024-10-16,特定非営利活動法人きりんのゆめ,,その他の設立登記法人,埼玉県,さいたま市南区,文蔵４丁目５番６号,,11,108,3360025,,,2024-10-16,清算の結了等,,,2015-10-05,1,,,,,キリンノユメ,0
1490,6040002044465,登記記録の閉鎖等,0,2024-10-30,2024-10-25,有限会社植村ライフ,,有限会社,千葉県,松戸市,東平賀２４６番地,,12,207,2700003,,,2024-10-25,清算の結了等,,,2015-10-05,1,,,,,ウエムラライフ,0
1503,6060002030216,登記記録の閉鎖等,0,2024-10-30,2024-10-24,有限会社栃木つばさ観光,,有限会社,栃木県,下野市,駅東６丁目４番２０号,,09,216,3290413,,,2024-10-24,清算の結了等,,,2015-10-05,1,,,,,,0
1513,6100001027695,登記記録の閉鎖等,0,2024-10-30,2024-10-21,株式会社セラフィーナ,,株式会社,長野県,長野市,大字南高田二丁目３番８号サンカトレアＫ１０５,,20,201,3810000,,,2024-10-21,清算の結了等,,,2015-10-05,1,,,,,セラフィーナ,0
1514,6100002025062,登記記録の閉鎖等,0,2024-10-30,2024-10-21,有限会社千野冷食,,有限会社,長野県,塩尻市,大門泉町２番６号,,20,215,3990742,,,2024-10-21,清算の結了等,,,2015-10-05,1,,,,,チノレイショク,0
1539,6130001033427,登記記録の閉鎖等,0,2024-10-30,2024-10-25,株式会社サノテッケン,,株式会社,京都府,久世郡久御山町,佐山新開地４５番地,,26,322,6130034,,,2024-10-25,清算の結了等,,,2015-10-05,1,,,,,サノテッケン,0
1542,6140001099780,登記記録の閉鎖等,0,2024-10-30,2024-10-25,株式会社ケーセル,,株式会社,兵庫県,神戸市中央区,港島南町２丁目１番地の１１,,28,110,6500047,,,2024-10-25,清算の結了等,,,2015-10-23,1,,,,,ケーセル,0
1547,6180001033810,登記記録の閉鎖等,0,2024-10-30,2024-10-24,株式会社朝日オリコミ名古屋,,株式会社,愛知県,名古屋市中区,栄１丁目３番３号,,23,106,4600008,,,2024-10-24,合併による解散等,4010001008871,令和６年１０月１日東京都中央区築地五丁目３番２号株式会社朝日コネクト（4010001008871）に合併し解散,2015-10-05,1,,,,,アサヒオリコミナゴヤ,0
1563,6180002088894,登記記録の閉鎖等,0,2024-10-30,2024-10-15,有限会社高英工業,,有限会社,愛知県,知多市,岡田美里町２３０番地の１,,23,224,4780062,,,2024-10-15,清算の結了等,,,2015-10-05,1,,,,,コウエイコウギョウ,0
1568,6180301016366,登記記録の閉鎖等,0,2024-10-30,2024-10-25,株式会社わし鉄工所,,株式会社,愛知県,碧南市,縄手町５丁目１０７番地,,23,209,4470021,,,2024-10-25,清算の結了等,,,2015-10-05,1,,,,,ワシテッコウショ,0
1580,6250002014257,登記記録の閉鎖等,0,2024-10-30,2024-10-25,有限会社マリンテック,,有限会社,山口県,長門市,仙崎４１３４番地７,,35,211,7594106,,,2024-10-25,清算の結了等,,,2015-10-05,1,,,,,マリンテック,0
1609,6410002001437,登記記録の閉鎖等,0,2024-10-30,2024-10-25,有限会社建築サービス秋田,,有限会社,秋田県,秋田市,手形からみでん３番５４号,,05,201,0100861,,,2024-10-25,清算の結了等,,,2015-10-05,1,,,,,ケンチクサービスアキタ,0
1610,6430001053262,登記記録の閉鎖等,0,2024-10-30,2024-10-23,大進建設株式会社,,株式会社,北海道,苫小牧市,矢代町２丁目１４番１１号,,01,213,0530803,,,2024-10-23,清算の結了等,,,2015-10-05,1,,,,,タイシンケンセツ,0
1613,6470001009995,登記記録の閉鎖等,0,2024-10-30,2024-10-23,巧物産株式会社,,株式会社,香川県,観音寺市,室本町１１４５番地４６,,37,205,7680001,,,2024-10-23,清算の結了等,,,2015-10-05,1,,,,,タクミブッサン,0
1629,7010005035249,登記記録の閉鎖等,0,2024-10-30,2024-10-25,ＲＢソーラーボートホールディングス一般社団法人,,その他の設立登記法人,東京都,中央区,八丁堀４丁目２番１０号ＡＯＪ税理士法人内,,13,102,1040032,,,2024-10-25,清算の結了等,,,2022-07-13,1,,,,,アールビーソーラボートホールディングス,0
1641,7010403027302,登記記録の閉鎖等,0,2024-10-30,2024-10-10,目黒インベストメント合同会社,,合同会社,東京都,港区,六本木１丁目６番１号泉ガーデンタワー,,13,103,1060032,,,2024-10-10,清算の結了等,,,2022-03-17,1,,,,,メグロインベストメント,0
1644,7010501000219,登記記録の閉鎖等,0,2024-10-30,2024-10-17,麻生産業株式会社,,株式会社,東京都,台東区,台東２丁目１２番６号,,13,106,1100016,,,2024-10-17,清算の結了等,,,2015-10-05,1,,,,,アソウサンギョウ,0
1649,7010701004853,登記記録の閉鎖等,0,2024-10-30,2024-10-22,株式会社ジリオン,,株式会社,東京都,品川区,東品川１丁目１番９－３１０号,,13,109,1400002,,,2024-10-22,合併による解散等,1010701000998,令和６年１０月１日東京都品川区東品川一丁目１番９－３１０号株式会社一龍屋台村品川（1010701000998）に合併し解散,2015-10-05,1,,,,,ジリオン,0
1656,7011001116835,登記記録の閉鎖等,0,2024-10-30,2024-10-03,株式会社Ｄｉｇｉｔａｌ　Ｄｏｕｂｌｅ,,株式会社,東京都,渋谷区,渋谷２丁目２４番１２号,,13,113,1500002,,,2024-10-03,清算の結了等,,,2017-06-12,1,,,,,デジタルダブル,0
1676,7013101006602,登記記録の閉鎖等,0,2024-10-30,2024-10-23,株式会社技研,,株式会社,東京都,杉並区,宮前２丁目３０番２２号ウインダム宮前２０１,,13,115,1680081,,,2024-10-23,清算の結了等,,,2015-10-05,1,,,,,ギケン,0
1687,7020001106837,登記記録の閉鎖等,0,2024-10-30,2024-10-15,株式会社ワンストップ,,株式会社,神奈川県,横浜市保土ケ谷区,星川３丁目１５番５号スターライフベルキ２０２号,,14,106,2400006,,,2024-10-15,清算の結了等,,,2015-10-05,1,,,,,ワンストップ,0
1688,7020001134821,登記記録の閉鎖等,0,2024-10-30,2024-10-15,株式会社イングリッシュ・ジョイ,,株式会社,神奈川県,横浜市青葉区,荏子田２丁目２３番地７２,,14,117,2250005,,,2024-10-15,清算の結了等,,,2020-02-07,1,,,,,イングリッシュジョイ,0
1713,7040002003429,登記記録の閉鎖等,0,2024-10-30,2024-10-24,有限会社ポンテック千葉,,有限会社,千葉県,千葉市中央区,生実町１８６２番地１２,,12,101,2600813,,,2024-10-24,清算の結了等,,,2015-10-05,1,,,,,ポンテックチバ,0
1718,7040002079907,登記記録の閉鎖等,0,2024-10-30,2024-10-24,有限会社焼肉新井,,有限会社,千葉県,山武市,松尾町祝田１０６番地の６,,12,237,2891524,,,2024-10-24,清算の結了等,,,2015-10-05,1,,,,,ヤキニクアライ,0
1739,7070002035997,登記記録の閉鎖等,0,2024-10-30,2024-10-28,有限会社ビッグウェーブ,,有限会社,東京都,青梅市,柚木町３丁目５３８番地の１,,13,205,1980064,,,2024-10-28,清算の結了等,,,2015-10-05,1,,,,,ビッグウェーブ,0
1741,7080101003912,登記記録の閉鎖等,0,2024-10-30,2024-10-25,株式会社エコス,,株式会社,静岡県,沼津市,下小路町１２１番地,,22,203,4100868,,,2024-10-25,清算の結了等,,,2015-10-05,1,,,,,,0
1742,7080101012310,登記記録の閉鎖等,0,2024-10-30,2024-10-28,株式会社西富士プラスチック,,株式会社,静岡県,富士宮市,猪之頭１１４２番地の８,,22,207,4180108,,,2024-10-28,清算の結了等,,,2015-10-05,1,,,,,ニシフジプラスチック,0
1749,7100002018073,登記記録の閉鎖等,0,2024-10-30,2024-10-21,有限会社つた勘呉服店,,有限会社,長野県,中野市,中央４丁目２番１号,,20,211,3830022,,,2024-10-21,清算の結了等,,,2015-10-05,1,,,,,ツタカンゴフクテン,0
1750,7100002021102,登記記録の閉鎖等,0,2024-10-30,2024-10-18,有限会社ネクスト,,有限会社,長野県,松本市,大字島内６１７９番地１,,20,202,3900851,,,2024-10-18,清算の結了等,,,2015-10-05,1,,,,,ネクスト,0
1754,7120001012249,登記記録の閉鎖等,0,2024-10-30,2024-10-28,株式会社光信電機製作所,,株式会社,大阪府,大阪市東成区,深江南１丁目５番１５号,,27,115,5370002,,,2024-10-28,清算の結了等,,,2015-10-05,1,,,,,コウシンデンキセイサクショ,0
1756,7120001101290,登記記録の閉鎖等,0,2024-10-30,2024-10-24,株式会社フロムファースト,,株式会社,大阪府,大阪市天王寺区,堂ケ芝２丁目１４番８号リラ堂ケ芝６０１号,,27,109,5430033,,,2024-10-24,清算の結了等,,,2015-10-05,1,,,,,フロムファースト,0
1764,7120002030332,登記記録の閉鎖等,0,2024-10-30,2024-10-25,有限会社クリエイティブデザインワイズ・ワン,,有限会社,大阪府,大阪市北区,鶴野町４番Ａ－１４１４号,,27,127,5300014,,,2024-10-25,清算の結了等,,,2015-10-05,1,,,,,クリエイティブデザインワイズワン,0
1775,7122001004589,登記記録の閉鎖等,0,2024-10-30,2024-10-25,株式会社田中金属製作所,,株式会社,大阪府,東大阪市,大蓮南２丁目２１番１８号,,27,227,5770825,,,2024-10-25,清算の結了等,,,2015-10-05,1,,,,,タナカキンゾクセイサクショ,0
1776,7122001020181,登記記録の閉鎖等,0,2024-10-30,2024-10-25,やおコミュニティ放送株式会社,,株式会社,大阪府,八尾市,光町２丁目３番アリオ八尾２階,,27,212,5810803,,,2024-10-25,清算の結了等,,,2015-10-05,1,,,,,ヤオコミュニティホウソウ,0
1792,7140002049354,登記記録の閉鎖等,0,2024-10-30,2024-10-28,有限会社泰山精機,,有限会社,兵庫県,姫路市,飾磨区英賀東町１丁目５８番地,,28,201,6728087,,,2024-10-28,清算の結了等,,,2015-10-05,1,,,,,タイザンセイキ,0
1801,7180001142965,登記記録の閉鎖等,0,2024-10-30,2024-10-10,ＭＡＴＲＩＸ　ＩＮＴＥＲＮＡＴＩＯＮＡＬ株式会社,,株式会社,愛知県,名古屋市千種区,内山３丁目４番４号,,23,101,4640075,,,2024-10-10,清算の結了等,,,2020-09-28,1,,,,,マトリックスインターナショナル,0
1809,7180003022769,登記記録の閉鎖等,0,2024-10-30,2024-10-16,合同会社ＮａｇｏｙａＭＧＡ,,合同会社,愛知県,清須市,朝日貝塚５番地,,23,233,4520932,,,2024-10-16,清算の結了等,,,2021-07-26,1,,,,,ナゴヤエムジーエー,0
1820,7240001052753,登記記録の閉鎖等,0,2024-10-30,2024-10-28,株式会社コネクト,,株式会社,広島県,福山市,東川口町５丁目１７－２７,,34,207,7200821,,,2024-10-28,清算の結了等,,,2018-05-07,1,,,,,コネクト,0
1845,7290801028576,登記記録の閉鎖等,0,2024-10-30,2024-10-24,株式会社ＡＴＯＦ,,株式会社,福岡県,北九州市八幡西区,瀬板２丁目４番１６号,,40,109,8070822,,,2024-10-24,清算の結了等,,,2022-06-06,1,,,,,アトフ,0
1846,7300001005192,登記記録の閉鎖等,0,2024-10-30,2024-10-28,株式会社一福,,株式会社,佐賀県,嬉野市,嬉野町大字下宿甲３７０４番地２,,41,209,8430301,,,2024-10-28,清算の結了等,,,2015-10-05,1,,,,,イチフク,0
1854,7340001020956,登記記録の閉鎖等,0,2024-10-30,2024-10-25,株式会社さつま元気坊,,株式会社,鹿児島県,鹿児島市,小松原２丁目３７番２号,,46,201,8910114,,,2024-10-25,清算の結了等,,,2018-02-05,1,,,,,サツマゲンキボウ,0
1869,7390001014391,登記記録の閉鎖等,0,2024-10-30,2024-10-18,株式会社山和開発,,株式会社,山形県,上山市,長清水１丁目９番１６－４号,,06,207,9993232,,,2024-10-18,清算の結了等,,,2016-02-18,1,,,,,サンワカイハツ,0
1879,7430002041546,登記記録の閉鎖等,0,2024-10-30,2024-10-25,有限会社グローバル保険サービス,,有限会社,北海道,札幌市南区,澄川一条２丁目４番４３号,,01,106,0050001,,,2024-10-25,清算の結了等,,,2015-10-05,1,,,,,グローバルホケンサービス,0
1914,8010403011718,登記記録の閉鎖等,0,2024-10-30,2024-10-10,合同会社ＵＩＭＬ－６,,合同会社,東京都,港区,赤坂２丁目５番８号,,13,103,1070052,,,2024-10-10,清算の結了等,,,2015-10-05,1,,,,,ユーアイエムエルシックス,0
1918,8010502000200,登記記録の閉鎖等,0,2024-10-30,2024-10-21,有限会社アークプロダクト,,有限会社,東京都,台東区,浅草４丁目１番１１号Ａ－Ｋビル３０３,,13,106,1110032,,,2024-10-21,清算の結了等,,,2015-10-05,1,,,,,,0
1919,8010503004563,登記記録の閉鎖等,0,2024-10-30,2024-10-18,ＪＧＥＧ合同会社,,合同会社,東京都,台東区,上野７丁目１３番１０－６１２号,,13,106,1100005,,,2024-10-18,清算の結了等,,,2016-01-04,1,,,,,ジェイジーイージー,0
1920,8010505002664,登記記録の閉鎖等,0,2024-10-30,2024-10-23,一般社団法人Ｆ－Ｐａｒｔｎｅｒ,,その他の設立登記法人,東京都,台東区,蔵前３丁目２０番３－７０２号,,13,106,1110051,,,2024-10-23,清算の結了等,,,2016-05-24,1,,,,,エフパートナー,0
1960,8020003016760,登記記録の閉鎖等,0,2024-10-30,2024-10-15,合同会社ＫＥ,,合同会社,神奈川県,川崎市中原区,上新城２丁目１１番２９号,,14,133,2110045,,,2024-10-15,清算の結了等,,,2019-10-09,1,,,,,ケイイー,0
1962,8021001067911,登記記録の閉鎖等,0,2024-10-30,2024-10-16,株式会社ホームズ,,株式会社,東京都,新宿区,新宿１丁目３６番２号新宿第七葉山ビル３階,,13,104,1600022,,,2024-10-16,清算の結了等,,,2019-08-06,1,,,,,ホームズ,0
1966,8030001005112,登記記録の閉鎖等,0,2024-10-30,2024-10-25,株式会社タテイシ,,株式会社,埼玉県,さいたま市中央区,鈴谷６丁目１番５号,,11,105,3380013,,,2024-10-25,清算の結了等,,,2015-10-05,1,,,,,タテイシ,0
1979,8040001034283,登記記録の閉鎖等,0,2024-10-30,2024-10-25,株式会社ロハス,,株式会社,千葉県,浦安市,富士見５丁目２番４３号,,12,227,2790043,,,2024-10-25,清算の結了等,,,2015-10-05,1,,,,,ロハス,0
1980,8040001035686,登記記録の閉鎖等,0,2024-10-30,2024-10-24,株式会社篠田工務店,,株式会社,千葉県,松戸市,中根３９番地の２,,12,207,2710053,,,2024-10-24,清算の結了等,,,2015-10-05,1,,,,,シノダコウムテン,0
2045,8140002027219,登記記録の閉鎖等,0,2024-10-30,2024-10-28,有限会社レアーレ芦屋,00040796,有限会社,兵庫県,芦屋市,大桝町５番２１－４０１号,,28,206,6590066,,,2024-10-28,清算の結了等,,,2015-10-05,1,,,,,レアーレアシヤ,0
2053,8180001123824,登記記録の閉鎖等,0,2024-10-30,2024-10-15,株式会社Ｍａｈａｌｏ,,株式会社,愛知県,名古屋市中区,千代田１丁目５番１１号,,23,106,4600012,,,2024-10-15,清算の結了等,,,2016-06-23,1,,,,,マハロ,0
2079,8200002014581,登記記録の閉鎖等,0,2024-10-30,2024-10-29,有限会社伊藤,,有限会社,岐阜県,海津市,海津町高須町１０８９番地,,21,221,5030653,,,2024-10-29,清算の結了等,,,2015-10-05,1,,,,,,0
2081,8220001012188,登記記録の閉鎖等,0,2024-10-30,2024-10-28,株式会社辻のや,,株式会社,石川県,小松市,粟津町ワ４７番地,,17,203,9230326,,,2024-10-28,清算の結了等,,,2015-10-05,1,,,,,,0
2086,8240002042505,登記記録の閉鎖等,0,2024-10-30,2024-10-24,有限会社ビニフレーム福山販売,,有限会社,広島県,福山市,駅家町大字中島１１１２番地の１０,,34,207,7201134,,,2024-10-24,清算の結了等,,,2015-10-05,1,,,,,ビニフレームフクヤマハンバイ,0
2087,8240002044947,登記記録の閉鎖等,0,2024-10-30,2024-10-24,山岡技研有限会社,,有限会社,広島県,福山市,郷分町４９５番地の２,,34,207,7200093,,,2024-10-24,清算の結了等,,,2015-10-05,1,,,,,ヤマオカギケン,0
2092,8250002002235,登記記録の閉鎖等,0,2024-10-30,2024-10-28,有限会社八雲開発,,有限会社,山口県,山口市,鋳銭司５９５８番地の３,,35,203,7471221,,,2024-10-28,清算の結了等,,,2015-10-05,1,,,,,ヤグモカイハツ,0
2106,8290002006819,登記記録の閉鎖等,0,2024-10-30,2024-10-22,有限会社伸光,,有限会社,福岡県,福岡市城南区,南片江１丁目７番２３号,,40,136,8140143,,,2024-10-22,清算の結了等,,,2015-10-05,1,,,,,シンコウ,0
2136,8340002008314,登記記録の閉鎖等,0,2024-10-30,2024-10-28,藤崎運送有限会社,,有限会社,鹿児島県,鹿児島市,田上台３丁目６１番６号,,46,201,8900036,,,2024-10-28,清算の結了等,,,2015-10-05,1,,,,,フジサキウンソウ,0
2141,8370102000300,登記記録の閉鎖等,0,2024-10-30,2024-10-11,有限会社霜ばしら本舗大盛堂,,有限会社,宮城県,柴田郡大河原町,字西桜町３番地の５,,04,321,9891273,,,2024-10-11,清算の結了等,,,2015-10-05,1,,,,,シモバシラホンポタイセイドウ,0
2147,8390001011009,登記記録の閉鎖等,0,2024-10-30,2024-10-21,株式会社ウルテック,,株式会社,山形県,長井市,時庭１４０番地２,,06,209,9930035,,,2024-10-21,清算の結了等,,,2015-10-05,1,,,,,ウルテック,0
2148,8390001015455,登記記録の閉鎖等,0,2024-10-30,2024-10-18,株式会社さくら商会,,株式会社,山形県,上山市,長清水１丁目９番１号,,06,207,9993232,,,2024-10-18,清算の結了等,,,2018-09-27,1,,,,,サクラショウカイ,0
2155,8430001073416,登記記録の閉鎖等,0,2024-10-30,2024-10-23,Ｓ・Ｈ商事株式会社,,株式会社,北海道,樺戸郡新十津川町,字中央６番地５８,,01,432,0731103,,,2024-10-23,清算の結了等,,,2017-03-07,1,,,,,エスエイチショウジ,0
2158,8430002001202,登記記録の閉鎖等,0,2024-10-30,2024-10-25,有限会社アイワ,,有限会社,北海道,札幌市北区,太平十二条６丁目４番１０号,,01,102,0028012,,,2024-10-25,清算の結了等,,,2015-10-05,1,,,,,アイワ,0
2171,9010002026645,登記記録の閉鎖等,0,2024-10-30,2024-10-17,有限会社やまに和膳,,有限会社,東京都,中央区,勝どき１丁目７番１号,,13,102,1040054,,,2024-10-17,清算の結了等,,,2015-10-05,1,,,,,,0
2175,9010102008584,登記記録の閉鎖等,0,2024-10-30,2024-10-28,株式会社大正舎,,株式会社,東京都,八王子市,元八王子町１丁目４８８番地３,,13,201,1930826,,,2024-10-28,合併による解散等,1011401005684,令和６年１０月１日東京都板橋区小茂根一丁目２５番２２－１０１号株式会社ベスト・ケアー（1011401005684）に合併し解散,2015-10-05,1,,,,,タイショウシャ,0
2222,9011105010610,登記記録の閉鎖等,0,2024-10-30,2024-10-22,特定目的会社グローバル汐留,,その他の設立登記法人,東京都,新宿区,四谷２丁目９番地１５東京ユナイテッド綜合事務所内,,13,104,1600004,,,2024-10-22,清算の結了等,,,2023-04-05,1,,,,,グローバルシオドメ,0
2240,9012301011352,登記記録の閉鎖等,0,2024-10-30,2024-10-28,アトリエ健能アジュールブラン株式会社,,株式会社,東京都,多摩市,豊ヶ丘１丁目３番地の３－１０２号室,,13,224,2060031,,,2024-10-28,清算の結了等,,,2018-04-20,1,,,,,アトリエケンノウアジュールブラン,0
2245,9013201014247,登記記録の閉鎖等,0,2024-10-30,2024-10-24,ＭＳＦｅａｔｈｅｒ株式会社,,株式会社,群馬県,前橋市,上細井町８６９番地,,10,201,3710051,,,2024-10-24,清算の結了等,,,2015-10-05,1,,,,,エムエスフェザー,0
2247,9013301037379,登記記録の閉鎖等,0,2024-10-30,2024-10-21,駒込保険サービス株式会社,,株式会社,東京都,豊島区,駒込１丁目３５番３号,,13,116,1700003,,,2024-10-21,清算の結了等,,,2015-10-05,1,,,,,コマゴメホケンサービス,0
2249,9020001076426,登記記録の閉鎖等,0,2024-10-30,2024-10-01,株式会社リトルハピネス,,株式会社,東京都,千代田区,大手町１丁目１番３号,,13,101,1000004,,,2024-10-01,合併による解散等,9010001176805,令和６年１０月１日東京都千代田区大手町一丁目１番３号株式会社ＯＮＯＤＥＲＡフードサービス（9010001176805）に合併し解散,2015-10-05,1,,,,,リトルハピネス,0
2250,9020001089221,登記記録の閉鎖等,0,2024-10-30,2024-10-25,イーエムティー株式会社,,株式会社,神奈川県,川崎市宮前区,土橋４丁目３番地１,,14,136,2160005,,,2024-10-25,合併による解散等,7010401114457,令和６年１０月１日東京都港区麻布台三丁目３番６号ハイランドマネージメント株式会社（7010401114457）に合併し解散,2015-10-05,1,,,,,イーエムティー,0
2268,9030002019168,登記記録の閉鎖等,0,2024-10-30,2024-10-16,有限会社ツーピース,,有限会社,茨城県,常総市,豊岡町甲１３４番地２,,08,211,3030041,,,2024-10-16,清算の結了等,,,2015-10-05,1,,,,,,0
2273,9040001041080,登記記録の閉鎖等,0,2024-10-30,2024-10-24,株式会社ＭＡＫＯＴＯ　ｏｆｆｉｃｅ　ＫＡＯＲＵ　ｏｆｆｉｃｅ,,株式会社,千葉県,松戸市,竹ケ花７４番地の３０,,12,207,2710072,,,2024-10-24,清算の結了等,,,2015-10-05,1,,,,,マコトオフィスカオルオフィス,0
2276,9040001107609,登記記録の閉鎖等,0,2024-10-30,2024-10-24,株式会社君塚新聞店,,株式会社,千葉県,夷隅郡御宿町,須賀４２９番地１,,12,443,2995106,,,2024-10-24,清算の結了等,,,2019-01-15,1,,,,,キミヅカシンブンテン,0
2281,9040002039660,登記記録の閉鎖等,0,2024-10-30,2024-10-10,有限会社マスターサポート,,有限会社,千葉県,市川市,南八幡４丁目２番５号,,12,203,2720023,,,2024-10-10,清算の結了等,,,2015-10-05,1,,,,,マスターサポート,0
2296,9070002008786,登記記録の閉鎖等,0,2024-10-30,2024-10-28,有限会社インテリア・曽根,,有限会社,群馬県,高崎市,下小塙町１７９５番地,,10,202,3700076,,,2024-10-28,清算の結了等,,,2015-10-05,1,,,,,インテリアソネ,0
2300,9080102011904,登記記録の閉鎖等,0,2024-10-30,2024-10-28,有限会社山崎精機製作所,,有限会社,静岡県,駿東郡長泉町,下土狩１５６１番地の１,,22,342,4110943,,,2024-10-28,清算の結了等,,,2015-10-05,1,,,,,ヤマザキセイキセイサクショ,0
2305,9100002031883,登記記録の閉鎖等,0,2024-10-30,2024-10-21,有限会社ミヤテック,,有限会社,長野県,岡谷市,東銀座１丁目１番１６号,,20,204,3940023,,,2024-10-21,清算の結了等,,,2015-10-05,1,,,,,ミヤテック,0
2314,9120001141194,登記記録の閉鎖等,0,2024-10-30,2024-10-28,株式会社生存環境科学研究所,,株式会社,大阪府,大阪市西区,南堀江４丁目１７番１８号原田ビルディング２階,,27,106,5500015,,,2024-10-28,清算の結了等,,,2015-10-05,1,,,,,セイゾンカンキョウカガクケンキュウジョ,0
2334,9130001007056,登記記録の閉鎖等,0,2024-10-30,2024-10-28,株式会社バスケツトボールチーム,,株式会社,京都府,京都市左京区,岩倉南河原町２０７番地,,26,103,6060019,,,2024-10-28,清算の結了等,,,2015-10-05,1,,,,,バスケットボールチーム,0
2341,9140001106377,登記記録の閉鎖等,0,2024-10-30,2024-10-29,株式会社縁,,株式会社,兵庫県,神戸市中央区,中山手通７丁目１１－３０,,28,110,6500004,,,2024-10-29,清算の結了等,,,2017-06-07,1,,,,,エン,0
2343,9140002001874,登記記録の閉鎖等,0,2024-10-30,2024-10-28,有限会社高千穂,,有限会社,兵庫県,神戸市東灘区,本庄町３丁目８番１５－１０６号,,28,101,6580012,,,2024-10-28,清算の結了等,,,2015-10-05,1,,,,,タカチホ,0
2366,9180301029753,登記記録の閉鎖等,0,2024-10-30,2024-10-23,康生スピリッツ株式会社,,株式会社,愛知県,岡崎市,日名南町１７番地７レジャービル３階４号室,,23,202,4440915,,,2024-10-23,清算の結了等,,,2016-11-10,1,,,,,コウセイスピリッツ,0
2375,9200002012816,登記記録の閉鎖等,0,2024-10-30,2024-10-28,有限会社大丸呉服店,,有限会社,岐阜県,大垣市,本町１丁目３６番地,,21,202,5030885,,,2024-10-28,清算の結了等,,,2015-10-05,1,,,,,ダイマルゴフクテン,0
2376,9200002022105,登記記録の閉鎖等,0,2024-10-30,2024-10-25,有限会社橋本電機,,有限会社,岐阜県,瑞浪市,宮前町１丁目１６番地,,21,208,5096128,,,2024-10-25,清算の結了等,,,2015-10-05,1,,,,,ハシモトデンキ,0
2388,9240002025632,登記記録の閉鎖等,0,2024-10-30,2024-10-28,有限会社ＳＮＳ,,有限会社,広島県,広島市東区,戸坂出江１丁目３番６号,,34,102,7320016,,,2024-10-28,清算の結了等,,,2015-10-05,1,,,,,,0
2409,9290801026801,登記記録の閉鎖等,0,2024-10-30,2024-10-28,株式会社ＵＭＣ,,株式会社,福岡県,北九州市小倉北区,浅野３丁目８番１号,,40,106,8020001,,,2024-10-28,清算の結了等,,,2020-09-11,1,,,,,ユーエムシー,0
2416,9310001001866,登記記録の閉鎖等,0,2024-10-30,2024-10-22,株式会社深堀食品工場,,株式会社,長崎県,長崎市,網場町４８７番地,,42,201,8510123,,,2024-10-22,清算の結了等,,,2015-10-05,1,,,,,フカホリショクヒンコウジョウ,0
2418,9310001009331,登記記録の閉鎖等,0,2024-10-30,2024-10-23,長崎県央バス株式会社,,株式会社,長崎県,諫早市,貝津町１４９２番地１,,42,204,8540063,,,2024-10-23,清算の結了等,,,2015-10-05,1,,,,,,0
2421,9310003004297,登記記録の閉鎖等,0,2024-10-30,2024-10-28,合同会社ここいろ,,合同会社,長崎県,長崎市,木鉢町２丁目２２８番地１３,,42,201,8500076,,,2024-10-28,清算の結了等,,,2022-03-03,1,,,,,ココイロ,0
2430,9330005003106,登記記録の閉鎖等,0,2024-10-30,2024-10-24,農事組合法人養生農園,,その他の設立登記法人,熊本県,菊池市,泗水町吉富３１８３番地,,43,210,8611201,,,2024-10-24,清算の結了等,,,2015-10-05,1,,,,,ヨウジョウノウエン,0
2444,9390005002738,登記記録の閉鎖等,0,2024-10-30,2024-10-18,特定非営利活動法人かがやき,,その他の設立登記法人,山形県,上山市,高野字高野原１１０－５,,06,207,9993115,,,2024-10-18,清算の結了等,,,2015-10-05,1,,,,,カガヤキ,0
2458,9470002011428,登記記録の閉鎖等,0,2024-10-30,2024-10-24,オリエント被服有限会社,,有限会社,香川県,丸亀市,塩屋町３丁目４番４号,,37,202,7630065,,,2024-10-24,清算の結了等,,,2015-10-05,1,,,,,オリエントヒフク,0
