sequenceNumber,corporateNumber,process,correct,updateDate,changeDate,name,nameImageId,kind,prefectureName,cityName,streetNumber,addressImageId,prefectureCode,cityCode,postCode,addressOutside,addressOutsideImageId,closeDate,closeCause,successorCorporateNumber,changeCause,assignmentDate,latest,enName,enPrefectureName,enCityName,enAddressOutside,furigana,hihyoji
8,1010005030734,登記記録の閉鎖等,0,2023-01-05,2022-12-28,ＦＲ１一般社団法人,,その他の設立登記法人,東京都,千代田区,霞が関３丁目２番５号,,13,101,1000013,,,2022-12-28,清算の結了等,,,2019-09-06,1,,,,,エフアールワン,0
15,1010405011846,登記記録の閉鎖等,0,2023-01-05,2022-12-19,Ｆｕｊｉｎｏｍｉｙａ　Ｓｏｌａｒ　Ｈｏｌｄｉｎｇｓ一般社団法人,,その他の設立登記法人,東京都,港区,虎ノ門３丁目２２番１０－２０１号,,13,103,1050001,,,2022-12-19,清算の結了等,,,2015-10-05,1,,,,,フジノミヤソーラーホールディングス,0
24,1010901022751,登記記録の閉鎖等,0,2023-01-05,2022-12-27,株式会社別府商店,,株式会社,東京都,世田谷区,上野毛１丁目４番４号,,13,112,1580093,,,2022-12-27,清算の結了等,,,2015-10-05,1,,,,,ベップショウテン,0
50,1011701020391,登記記録の閉鎖等,0,2023-01-05,2023-01-04,プレシャスライフサポート株式会社,,株式会社,東京都,江戸川区,松島１丁目４１番２３号,,13,123,1320031,,,2023-01-04,清算の結了等,,,2016-11-30,1,,,,,プレシャスライフサポート,0
63,1013301026050,登記記録の閉鎖等,0,2023-01-05,2022-12-27,株式会社トラスト・インターナショナル,,株式会社,東京都,豊島区,南池袋２丁目２６番５号,,13,116,1710022,,,2022-12-27,合併による解散等,9011102029298,令和４年１２月２３日東京都新宿区東五軒町６番３１号慶応不動産株式会社（9011102029298）に合併し解散,2015-10-05,1,,,,,トラストインターナショナル,0
64,1013301040118,登記記録の閉鎖等,0,2023-01-05,2022-12-26,株式会社ｅｔｙ,,株式会社,東京都,豊島区,駒込２丁目１７番６号,,13,116,1700003,,,2022-12-26,清算の結了等,,,2017-03-01,1,,,,,エティ,0
76,1030001006827,登記記録の閉鎖等,0,2023-01-05,2022-12-27,株式会社バディ,,株式会社,埼玉県,さいたま市南区,南浦和２丁目４１番１５号６０１,,11,108,3360017,,,2022-12-27,清算の結了等,,,2015-10-05,1,,,,,バディ,0
84,1030003005637,登記記録の閉鎖等,0,2023-01-05,2022-12-23,合同会社ＭＡＮＥＫＩＮＥＫＯ,,合同会社,埼玉県,熊谷市,上新田２５０番地,,11,202,3600117,,,2022-12-23,清算の結了等,,,2015-10-05,1,,,,,マネキネコ,0
112,1080401001233,登記記録の閉鎖等,0,2023-01-05,2023-01-04,株式会社カントリーハウス,,株式会社,静岡県,浜松市北区,新都田２丁目１８番７号,,22,135,4312103,,,2023-01-04,清算の結了等,,,2015-10-05,1,,,,,カントリーハウス,0
116,1080405001023,登記記録の閉鎖等,0,2023-01-05,2022-12-15,天理教本翠松分教会,00068586,その他の設立登記法人,静岡県,浜松市中区,布橋３丁目１１番１号,,22,131,4328012,,,2022-12-15,合併による解散等,2080105000415,令和４年１２月１３日静岡県沼津市吉田町１１番１２号天理教本翠分教会（2080105000415）に合併し解散,2015-10-05,1,,,,,,0
124,1110001030760,登記記録の閉鎖等,0,2023-01-05,2022-12-12,株式会社いわむろバイオソリューション,,株式会社,新潟県,新潟市西蒲区,橋本２４２番地,,15,108,9530103,,,2022-12-12,清算の結了等,,,2015-10-05,1,,,,,イワムロバイオソリューション,0
125,1110005013167,登記記録の閉鎖等,0,2023-01-05,2022-12-26,大和町商品券協同組合,,その他の設立登記法人,新潟県,南魚沼市,浦佐４７８番地５,,15,226,9497302,,,2022-12-26,清算の結了等,,,2015-10-05,1,,,,,ヤマトマチショウヒンケン,0
148,1140001034718,登記記録の閉鎖等,0,2023-01-05,2022-12-22,株式会社金子建築事務所,,株式会社,兵庫県,神戸市西区,王塚台６丁目１番地の１サンガーデン浄泉１０６号,,28,111,6512135,,,2022-12-22,清算の結了等,,,2015-10-05,1,,,,,カネコケンチクジムショ,0
154,1140002043016,登記記録の閉鎖等,0,2023-01-05,2022-12-26,有限会社山花会計事務所,,有限会社,兵庫県,尼崎市,七松町１丁目２番１－４０２号,,28,202,6600052,,,2022-12-26,清算の結了等,,,2015-10-05,1,,,,,ヤマハナカイケイジムショ,0
163,1180001109755,登記記録の閉鎖等,0,2023-01-05,2022-12-28,株式会社オレンジリフォーム,,株式会社,愛知県,あま市,木田加瀬５１番地,,23,237,4901222,,,2022-12-28,清算の結了等,,,2015-10-05,1,,,,,オレンジリフォーム,0
170,1200001036014,登記記録の閉鎖等,0,2023-01-05,2023-01-04,株式会社ＢＡＳＥ,,株式会社,岐阜県,岐阜市,柳津町流通センター１丁目１４番地の１,,21,201,5016123,,,2023-01-04,合併による解散等,4200001008687,令和５年１月１日岐阜市柳津町下佐波六丁目２７番地株式会社ブルーメイト販売（4200001008687）に合併し解散,2019-03-07,1,,,,,ベース,0
185,1280005000297,登記記録の閉鎖等,0,2023-01-05,2023-01-04,松江専門店協同組合,,その他の設立登記法人,島根県,松江市,東本町３丁目２番地,,32,201,6900842,,,2023-01-04,登記官による閉鎖,,,2015-10-05,1,,,,,,0
232,2010001149619,登記記録の閉鎖等,0,2023-01-05,2022-12-26,株式会社日経カルチャー,,株式会社,東京都,千代田区,大手町１丁目３番７号日本経済新聞社内,,13,101,1000004,,,2022-12-26,清算の結了等,,,2015-10-05,1,,,,,ニッケイカルチャー,0
280,2011101086867,登記記録の閉鎖等,0,2023-01-05,2022-12-27,株式会社カワセミブルー,,株式会社,東京都,新宿区,山吹町３６６番地１新宿山吹アインスタワー１３０１,,13,104,1620801,,,2022-12-27,清算の結了等,,,2019-02-20,1,,,,,カワセミブルー,0
325,2030005006871,登記記録の閉鎖等,0,2023-01-05,2022-12-26,医療法人聖雄会,,その他の設立登記法人,埼玉県,志木市,本町６丁目１８番５号医療ビル２Ｆ,,11,228,3530004,,,2022-12-26,清算の結了等,,,2015-10-05,1,,,,,セイユウカイ,0
326,2030005012300,登記記録の閉鎖等,0,2023-01-05,2022-12-09,天理教川昇分教会,,その他の設立登記法人,埼玉県,川口市,元郷３丁目６番１４号,,11,203,3320011,,,2022-12-09,合併による解散等,6030005012288,令和４年１２月９日埼玉県川口市幸町一丁目１２番１５号天理教川口町分教会（6030005012288）に合併し解散,2015-10-05,1,,,,,テンリキョウカワノボルブンキョウカイ,0
330,2040002021261,登記記録の閉鎖等,0,2023-01-05,2022-12-23,有限会社オフィス畑中,,有限会社,千葉県,船橋市,高野台３丁目２８番１５号,,12,204,2740801,,,2022-12-23,清算の結了等,,,2015-10-05,1,,,,,オフィスハタナカ,0
347,2100003005934,登記記録の閉鎖等,0,2023-01-05,2022-12-26,合同会社Ｄ．Ｉ．Ａ．Ｓ．,,合同会社,長野県,塩尻市,大字大門７４番地１ネストボックス桔梗ケ原２０３号,,20,215,3990744,,,2022-12-26,清算の結了等,,,2021-01-14,1,,,,,ディアス,0
374,2120101026723,登記記録の閉鎖等,0,2023-01-05,2022-12-28,ＭＩＹＡＫＥ株式会社,,株式会社,大阪府,大阪市中央区,南久宝寺町２丁目１番９号,,27,128,5410058,,,2022-12-28,清算の結了等,,,2015-10-05,1,,,,,ミヤケ,0
430,2280005000296,登記記録の閉鎖等,0,2023-01-05,2023-01-04,松江専門大店協同組合,,その他の設立登記法人,島根県,松江市,和多見町１０８番地,,32,201,6900005,,,2023-01-04,登記官による閉鎖,,,2015-10-05,1,,,,,,0
431,2280005004751,登記記録の閉鎖等,0,2023-01-05,2022-12-26,一般財団法人邑南町開発公社,,その他の設立登記法人,島根県,邑智郡邑南町,矢上６０００番地,,32,449,6960103,,,2022-12-26,清算の結了等,,,2015-10-05,1,,,,,オオナンチョウカイハツコウシャ,0
432,2280005005114,登記記録の閉鎖等,0,2023-01-05,2022-12-27,医療法人ますたに小児科医院,,その他の設立登記法人,島根県,益田市,中吉田町１０９７番地１０,,32,204,6980042,,,2022-12-27,清算の結了等,,,2015-10-05,1,,,,,マスタニショウニカイイン,0
433,2280005007325,登記記録の閉鎖等,0,2023-01-05,2023-01-04,赤屋地区開拓生産農業協同組合,,その他の設立登記法人,島根県,安来市,伯太町赤屋１２７番地,,32,206,6920321,,,2023-01-04,登記官による閉鎖,,,2020-01-30,1,,,,,,0
437,2290005015434,登記記録の閉鎖等,0,2023-01-05,2022-12-28,一般社団法人九州脳神経外科コンソーシアム,,その他の設立登記法人,福岡県,福岡市東区,馬出３丁目１番１号九州大学大学院医学研究院脳神経外科内,,40,131,8120054,,,2022-12-28,清算の結了等,,,2015-10-05,1,,,,,キュウシュウノウシンケイゲカコンソーシアム,0
452,2340002017312,登記記録の閉鎖等,0,2023-01-05,2022-12-28,有限会社藤田組,,有限会社,鹿児島県,薩摩川内市,樋脇町塔之原１１８３９番地,00099537,46,215,8951202,,,2022-12-28,清算の結了等,,,2015-10-05,1,,,,,フジタグミ,0
453,2340005003499,登記記録の閉鎖等,0,2023-01-05,2022-12-14,長谷神社,,その他の設立登記法人,鹿児島県,薩摩川内市,樋脇町塔之原５３３８番地,00100159,46,215,8951202,,,2022-12-14,合併による解散等,1340005003483,令和４年１２月１４日鹿児島県薩摩川内市樋脇町塔之原５１２１番地一之宮神社（1340005003483）に合併し解散,2015-10-05,1,,,,,ハセジンジャ,0
459,2350002008285,登記記録の閉鎖等,0,2023-01-05,2023-01-04,有限会社エヌアンドエヌ,,有限会社,宮崎県,宮崎市,清水１丁目１１番１９号,,45,201,8800021,,,2023-01-04,清算の結了等,,,2015-10-05,1,,,,,エヌアンドエヌ,0
484,2480002010393,登記記録の閉鎖等,0,2023-01-05,2022-12-28,有限会社木村商店,,有限会社,徳島県,鳴門市,里浦町粟津字西開３８番地１,,36,202,7720022,,,2022-12-28,清算の結了等,,,2015-10-05,1,,,,,キムラショウテン,0
488,2490003001317,登記記録の閉鎖等,0,2023-01-05,2022-12-27,合同会社インディゴ,,合同会社,高知県,高知市,南はりまや町１丁目３番１４号シティーガーデンはりまや３０３,,39,201,7800833,,,2022-12-27,清算の結了等,,,2019-03-15,1,,,,,インディゴ,0
497,3010005030724,登記記録の閉鎖等,0,2023-01-05,2022-12-28,一般社団法人ハウス３０,,その他の設立登記法人,東京都,千代田区,丸の内３丁目１番１号東京共同会計事務所内,,13,101,1000005,,,2022-12-28,清算の結了等,,,2019-09-05,1,,,,,ハウスサンジュウ,0
513,3011001064526,登記記録の閉鎖等,0,2023-01-05,2022-12-01,株式会社アンジュ,,株式会社,東京都,渋谷区,上原１丁目３０番２号,,13,113,1510064,,,2022-12-01,合併による解散等,4011001064525,令和４年１１月３０日東京都渋谷区上原一丁目３０番２号株式会社アイ・ティー・ティー（4011001064525）に合併し解散,2015-10-05,1,,,,,アンジュ,0
529,3011301008447,登記記録の閉鎖等,0,2023-01-05,2022-12-21,東京ビジネスソリューション株式会社,,株式会社,東京都,杉並区,高井戸西１丁目２７番１８－６０１号,,13,115,1680071,,,2022-12-21,清算の結了等,,,2015-10-05,1,,,,,トウキョウビジネスソリューション,0
540,3012702013779,登記記録の閉鎖等,0,2023-01-05,2022-12-28,有限会社ケー・ツー・コーポレーション,,有限会社,東京都,小平市,美園町２丁目２番２号,,13,211,1870041,,,2022-12-28,清算の結了等,,,2015-10-05,1,,,,,ケーツーコーポレーション,0
544,3020001039090,登記記録の閉鎖等,0,2023-01-05,2022-12-26,株式会社ヒューマン・ポテンシャル・デベロップメントセンター,,株式会社,神奈川県,足柄下郡真鶴町,真鶴１１８０番地２,,14,383,2590201,,,2022-12-26,清算の結了等,,,2015-10-05,1,,,,,ヒューマンポテンシャルデベロップメントセンター,0
550,3020005004743,登記記録の閉鎖等,0,2023-01-05,2022-12-26,特定非営利活動法人縹式自然呼吸法普及センター,,その他の設立登記法人,神奈川県,横浜市港南区,丸山台２丁目３７－３７シャトー笠原２０２号,,14,111,2330013,,,2022-12-26,清算の結了等,,,2015-10-05,1,,,,,ハナダシキシゼンコキュウホウフキュウセンター,0
577,3040003002920,登記記録の閉鎖等,0,2023-01-05,2022-12-26,合資会社ケイアンドケイ,,合資会社,千葉県,市原市,五井５８８６番地１号,,12,219,2900056,,,2022-12-26,清算の結了等,,,2015-10-05,1,,,,,ケイアンドケイ,0
584,3060002018338,登記記録の閉鎖等,0,2023-01-05,2022-12-27,有限会社枝川設計,,有限会社,栃木県,芳賀郡茂木町,大字坂井１３４９番地２,,09,343,3213544,,,2022-12-27,清算の結了等,,,2015-10-05,1,,,,,エダカワセッケイ,0
589,3080405004940,登記記録の閉鎖等,0,2023-01-05,2022-12-28,菊川町金北製茶農業協同組合,,その他の設立登記法人,静岡県,菊川市,牧之原２７５９番地,,22,224,4390015,,,2022-12-28,清算の結了等,,,2015-10-05,1,,,,,キクガワチョウカネキタセイチャ,0
594,3100003004943,登記記録の閉鎖等,0,2023-01-05,2022-12-27,軽井沢風越の森合同会社,,合同会社,長野県,北佐久郡軽井沢町,大字長倉１９３番地３,,20,321,3890111,,,2022-12-27,清算の結了等,,,2018-03-26,1,,,,,カルイザワカザコシノモリ,0
600,3120001234862,登記記録の閉鎖等,0,2023-01-05,2023-01-04,株式会社Ｌａｎｉ,,株式会社,大阪府,大阪市西成区,橘２丁目６番１０号,,27,122,5570051,,,2023-01-04,清算の結了等,,,2021-01-29,1,,,,,ラニ,0
610,3120902014347,登記記録の閉鎖等,0,2023-01-05,2022-12-28,有限会社池田燃料,,有限会社,大阪府,池田市,建石町２番１０号,,27,204,5630053,,,2022-12-28,清算の結了等,,,2015-10-05,1,,,,,イケダネンリョウ,0
618,3130002027018,登記記録の閉鎖等,0,2023-01-05,2022-12-27,有限会社ヤマグチ工業,,有限会社,京都府,京都市伏見区,向島丸町２５番地１５,,26,109,6128131,,,2022-12-27,清算の結了等,,,2015-10-05,1,,,,,ヤマグチコウギョウ,0
619,3130002027629,登記記録の閉鎖等,0,2023-01-05,2022-12-26,有限会社冨士サイン,,有限会社,京都府,宇治市,木幡南山畑３３番地の１,,26,204,6110002,,,2022-12-26,清算の結了等,,,2015-10-05,1,,,,,フジサイン,0
621,3140003006481,登記記録の閉鎖等,0,2023-01-05,2022-12-26,合資会社今枝,,合資会社,兵庫県,尼崎市,神田南通２丁目４５番地,,28,202,6600885,,,2022-12-26,清算の結了等,,,2015-10-05,1,,,,,イマエダ,0
622,3140003012604,登記記録の閉鎖等,0,2023-01-05,2022-12-26,合同会社トヨダ,,合同会社,兵庫県,神戸市西区,秋葉台３丁目２番地の２０,,28,111,6512224,,,2022-12-26,清算の結了等,,,2017-12-04,1,,,,,トヨダ,0
651,3220001017217,登記記録の閉鎖等,0,2023-01-05,2023-01-04,株式会社ツインテクノス,,株式会社,石川県,能美市,粟生町西２４番地,,17,211,9231101,,,2023-01-04,清算の結了等,,,2015-10-05,1,,,,,ツインテクノス,0
654,3240002047839,登記記録の閉鎖等,0,2023-01-05,2022-12-28,有限会社岡崎ウエルポイント工業,,有限会社,広島県,安芸郡府中町,浜田２丁目１０番４号,,34,302,7350013,,,2022-12-28,清算の結了等,,,2015-10-05,1,,,,,オカザキウエルポイントコウギョウ,0
656,3250002002289,登記記録の閉鎖等,0,2023-01-05,2022-12-27,有限会社山根交安,,有限会社,山口県,山口市,阿東生雲中９６６番地,,35,203,7591342,,,2022-12-27,清算の結了等,,,2015-10-05,1,,,,,ヤマネコウアン,0
657,3260001004384,登記記録の閉鎖等,0,2023-01-05,2023-01-04,株式会社環境整備協会,,株式会社,岡山県,岡山市中区,平井１０９６番地,,33,102,7038282,,,2023-01-04,合併による解散等,1260005001223,令和５年１月１日岡山市中区平井１０９６番地株式会社岡山市環境整備協会（1260005001223）に合併し解散,2015-10-05,1,,,,,カンキョウセイビキョウカイ,0
660,3280001005323,登記記録の閉鎖等,0,2023-01-05,2022-12-28,日原ニット株式会社,,株式会社,島根県,鹿足郡津和野町,枕瀬３１番地,,32,501,6995207,,,2022-12-28,清算の結了等,,,2015-10-05,1,,,,,ニチハラニット,0
661,3280001007138,登記記録の閉鎖等,0,2023-01-05,2023-01-04,大田塩干冷蔵株式会社,,株式会社,島根県,大田市,大田町大田イ２０３番地１,,32,205,6940064,,,2023-01-04,登記官による閉鎖,,,2016-02-02,1,,,,,,0
663,3280002004258,登記記録の閉鎖等,0,2023-01-05,2023-01-04,有限会社大新産業,,有限会社,島根県,松江市,鹿島町武代３４番地２,,32,201,6900321,,,2023-01-04,登記官による閉鎖,,,2015-10-05,1,,,,,,0
664,3280002006329,登記記録の閉鎖等,0,2023-01-05,2023-01-04,有限会社島根バブコック,,有限会社,島根県,出雲市,斐川町上庄原１９７７番地,,32,203,6990505,,,2023-01-04,登記官による閉鎖,,,2015-10-05,1,,,,,,0
665,3280005007316,登記記録の閉鎖等,0,2023-01-05,2023-01-04,荒島石材商業協同組合,,その他の設立登記法人,島根県,安来市,荒島町２１７５番地,,32,206,6920007,,,2023-01-04,登記官による閉鎖,,,2019-10-18,1,,,,,,0
695,3370001008119,登記記録の閉鎖等,0,2023-01-05,2022-12-27,株式会社コンサルタント・ビサン,,株式会社,宮城県,仙台市青葉区,落合２丁目７番７号,,04,101,9893126,,,2022-12-27,清算の結了等,,,2015-10-05,1,,,,,コンサルタントビサン,0
696,3370302002150,登記記録の閉鎖等,0,2023-01-05,2022-12-28,有限会社マルエー新成工業,,有限会社,宮城県,石巻市,湊東３丁目１０番地３,,04,202,9860000,,,2022-12-28,清算の結了等,,,2015-10-05,1,,,,,マルエーシンセイコウギョウ,0
697,3410001012751,登記記録の閉鎖等,0,2023-01-05,2022-12-27,由利本荘洋上風力開発株式会社,,株式会社,秋田県,由利本荘市,薬師堂字中道２４６,,05,210,0150041,,,2022-12-27,清算の結了等,,,2021-03-02,1,,,,,ユリホンジョウヨウジョウフウリョクカイハツ,0
707,3500003001743,登記記録の閉鎖等,0,2023-01-05,2022-12-26,合同会社ヤマモト,,合同会社,愛媛県,今治市,泉川町２丁目３番４８号,,38,202,7940057,,,2022-12-26,清算の結了等,,,2015-12-17,1,,,,,ヤマモト,0
721,4010005029848,登記記録の閉鎖等,0,2023-01-05,2022-12-28,一般社団法人鍛冶町一丁目計画,,その他の設立登記法人,東京都,中央区,銀座１丁目２０番１４号,,13,102,1040061,,,2022-12-28,清算の結了等,,,2019-03-11,1,,,,,カジマチイッチョウメケイカク,0
723,4010005032728,登記記録の閉鎖等,0,2023-01-05,2022-12-28,ＫＩＣ狭山日高特定目的会社,,その他の設立登記法人,東京都,中央区,銀座１丁目６番１１号土志田ビルディング３Ｆ,,13,102,1040061,,,2022-12-28,清算の結了等,,,2020-12-23,1,,,,,ケーアイシーサヤマヒダカ,0
748,4011602001356,登記記録の閉鎖等,0,2023-01-05,2022-12-26,有限会社エヴァ,,有限会社,東京都,練馬区,東大泉１丁目３７番１号,,13,120,1780063,,,2022-12-26,清算の結了等,,,2015-10-05,1,,,,,エヴァ,0
756,4012702009875,登記記録の閉鎖等,0,2023-01-05,2022-12-28,有限会社ヴェスト,,有限会社,東京都,清瀬市,竹丘１丁目２番１６－４０４号,,13,221,2040023,,,2022-12-28,清算の結了等,,,2015-10-05,1,,,,,ヴェスト,0
760,4013303003904,登記記録の閉鎖等,0,2023-01-05,2023-01-04,株式会社ＬＹＩＮＮ,,株式会社,東京都,台東区,台東３丁目２８番４号,,13,106,1100016,,,2023-01-04,清算の結了等,,,2017-10-24,1,,,,,エルワイイン,0
765,4020002078863,登記記録の閉鎖等,0,2023-01-05,2022-12-27,有限会社サトー・オプティカル,,有限会社,神奈川県,横浜市泉区,中田南３丁目６番１号,,14,116,2450014,,,2022-12-27,清算の結了等,,,2015-10-05,1,,,,,サトーオプティカル,0
781,4030002084159,登記記録の閉鎖等,0,2023-01-05,2022-12-26,有限会社ツカサ・プランニング,,有限会社,埼玉県,鴻巣市,下忍３４８７番地４,,11,217,3690113,,,2022-12-26,清算の結了等,,,2015-10-05,1,,,,,ツカサプランニング,0
783,4040001038791,登記記録の閉鎖等,0,2023-01-05,2022-12-26,グランブルースリーディ株式会社,,株式会社,千葉県,松戸市,根本１１５番地の１ベルシェ松戸ＩＩ－４０３号,00019054,12,207,2710077,,,2022-12-26,清算の結了等,,,2015-10-05,1,,,,,グランブルースリーディ,0
796,4080102021395,登記記録の閉鎖等,0,2023-01-05,2022-12-27,有限会社ホテル東豆館,,有限会社,静岡県,賀茂郡東伊豆町,片瀬１１３９番地の７,,22,301,4130303,,,2022-12-27,清算の結了等,,,2015-10-05,1,,,,,ホテルトウズカン,0
834,4140001076468,登記記録の閉鎖等,0,2023-01-05,2022-12-26,松本化学工業株式会社,,株式会社,兵庫県,加西市,別府町甲４８４番地の３,,28,220,6790103,,,2022-12-26,清算の結了等,,,2015-10-05,1,,,,,マツモトカガクコウギョウ,0
838,4140001116810,登記記録の閉鎖等,0,2023-01-05,2022-12-26,モリス株式会社,,株式会社,兵庫県,加古郡稲美町,国岡６丁目２２６番地ル・クレア・Ｆ２０１号,,28,381,6751115,,,2022-12-26,清算の結了等,,,2020-03-16,1,,,,,モリス,0
842,4140005003261,登記記録の閉鎖等,0,2023-01-05,2022-12-27,兵庫県飼料卸協同組合,,その他の設立登記法人,兵庫県,神戸市兵庫区,上沢通２丁目３番４号,,28,105,6520046,,,2022-12-27,清算の結了等,,,2015-10-05,1,,,,,ヒョウゴケンシリョウオロシ,0
849,4160002000136,登記記録の閉鎖等,0,2023-01-05,2022-12-28,有限会社礒清呉服店,,有限会社,滋賀県,大津市,鳥居川町６番３５－２０２号,,25,201,5200854,,,2022-12-28,清算の結了等,,,2015-10-05,1,,,,,イソセイゴフクテン,0
861,4180002021056,登記記録の閉鎖等,0,2023-01-05,2022-12-28,有限会社篤彫刻,,有限会社,愛知県,名古屋市天白区,池見１丁目２５番地の２,,23,116,4680067,,,2022-12-28,清算の結了等,,,2015-10-05,1,,,,,アツシチョウコク,0
862,4180002031253,登記記録の閉鎖等,0,2023-01-05,2022-12-27,有限会社昭和調剤薬局,,有限会社,愛知県,名古屋市昭和区,永金町１丁目１７番地の３,,23,107,4660047,,,2022-12-27,清算の結了等,,,2015-10-05,1,,,,,ショウワチョウザイヤッキョク,0
874,4240001044992,登記記録の閉鎖等,0,2023-01-05,2023-01-04,株式会社最栄,,株式会社,広島県,広島市安佐北区,落合１丁目２８番３９号,,34,106,7391731,,,2023-01-04,清算の結了等,,,2015-10-05,1,,,,,サイエイ,0
878,4250002019753,登記記録の閉鎖等,0,2023-01-05,2022-12-27,有限会社タナカ,,有限会社,山口県,柳井市,南町２丁目７番７号,,35,212,7420031,,,2022-12-27,清算の結了等,,,2015-10-05,1,,,,,タナカ,0
884,4280002005073,登記記録の閉鎖等,0,2023-01-05,2023-01-04,有限会社足立文具,,有限会社,島根県,出雲市,今市町７１８番地,,32,203,6930001,,,2023-01-04,登記官による閉鎖,,,2015-10-05,1,,,,,,0
885,4280002005643,登記記録の閉鎖等,0,2023-01-05,2023-01-04,有限会社セントラル通商,,有限会社,島根県,出雲市,高松町７８９番地３,,32,203,6930053,,,2023-01-04,登記官による閉鎖,,,2015-10-05,1,,,,,,0
886,4280002008480,登記記録の閉鎖等,0,2023-01-05,2023-01-04,有限会社ながい洋装店,,有限会社,島根県,浜田市,殿町４番地２,,32,202,6970027,,,2023-01-04,登記官による閉鎖,,,2015-10-05,1,,,,,,0
887,4280005002233,登記記録の閉鎖等,0,2023-01-05,2023-01-04,協同組合ブレイン,,その他の設立登記法人,島根県,安来市,西赤江町６４３番地,,32,206,6920003,,,2023-01-04,登記官による閉鎖,,,2015-10-05,1,,,,,ブレイン,0
892,4310003000029,登記記録の閉鎖等,0,2023-01-05,2023-01-04,合資会社魚住商店,,合資会社,長崎県,長崎市,戸町１丁目１番１１号,,42,201,8500952,,,2023-01-04,清算の結了等,,,2015-10-05,1,,,,,ウオスミショウテン,0
908,4360005000765,登記記録の閉鎖等,0,2023-01-05,2022-12-05,医療法人ハートマインド,,その他の設立登記法人,沖縄県,那覇市,字国場１１６９番地の２０,,47,201,9020075,,,2022-12-05,合併による解散等,2360005001419,令和４年１２月５日沖縄県糸満市字座波３７１番地１医療法人以和貴会（2360005001419）に合併し解散,2015-10-05,1,,,,,ハートマインド,0
921,4410001012750,登記記録の閉鎖等,0,2023-01-05,2022-12-27,能代・三種・男鹿洋上風力開発株式会社,,株式会社,秋田県,男鹿市,船越字根木３４３,,05,206,0100341,,,2022-12-27,清算の結了等,,,2021-03-02,1,,,,,ノシロミタネオガヨウジョウフウリョクカイハツ,0
931,4430002047240,登記記録の閉鎖等,0,2023-01-05,2022-12-27,有限会社生駒燃料金物店,,有限会社,北海道,千歳市,東雲町１丁目９番地の３,,01,224,0660042,,,2022-12-27,清算の結了等,,,2015-10-05,1,,,,,イコマネンリョウカナモノテン,0
946,5010005030227,登記記録の閉鎖等,0,2023-01-05,2022-12-28,一般社団法人ハウス２４,,その他の設立登記法人,東京都,千代田区,丸の内３丁目１番１号東京共同会計事務所内,,13,101,1000005,,,2022-12-28,清算の結了等,,,2019-05-28,1,,,,,ハウスニジュウヨン,0
947,5010005031844,登記記録の閉鎖等,0,2023-01-05,2022-12-28,ピーアニー一般社団法人,,その他の設立登記法人,東京都,千代田区,丸の内３丁目１番１号東京共同会計事務所内,,13,101,1000005,,,2022-12-28,清算の結了等,,,2020-05-21,1,,,,,ピーアニー,0
962,5011001011055,登記記録の閉鎖等,0,2023-01-05,2022-12-26,株式会社ジャス,,株式会社,東京都,渋谷区,代々木１丁目２３番７号,,13,113,1510053,,,2022-12-26,清算の結了等,,,2015-10-05,1,,,,,ジャス,0
975,5011101083597,登記記録の閉鎖等,0,2023-01-05,2022-12-26,株式会社さすらい,,株式会社,神奈川県,小田原市,久野１５４番地の２,,14,206,2500055,,,2022-12-26,清算の結了等,,,2018-03-27,1,,,,,サスライ,0
980,5011503002915,登記記録の閉鎖等,0,2023-01-05,2022-12-23,合同会社泰,,合同会社,東京都,杉並区,善福寺３丁目１０番１１号,,13,115,1670041,,,2022-12-23,清算の結了等,,,2016-03-22,1,,,,,タイ,0
981,5011601016726,登記記録の閉鎖等,0,2023-01-05,2022-12-27,株式会社オンエイ,,株式会社,東京都,練馬区,東大泉２丁目３４番５号,,13,120,1780063,,,2022-12-27,清算の結了等,,,2015-10-05,1,,,,,オンエイ,0
1000,5021001001328,登記記録の閉鎖等,0,2023-01-05,2022-12-26,平ゴム工業株式会社,,株式会社,神奈川県,藤沢市,鵠沼１７４５番地,,14,205,2510022,,,2022-12-26,清算の結了等,,,2015-10-05,1,,,,,タイラゴムコウギョウ,0
1005,5021002002663,登記記録の閉鎖等,0,2023-01-05,2022-12-27,株式会社庄美,,株式会社,神奈川県,藤沢市,辻堂太平台１丁目８番１号,,14,205,2510044,,,2022-12-27,清算の結了等,,,2015-10-05,1,,,,,ショウビ,0
1035,5080002002305,登記記録の閉鎖等,0,2023-01-05,2023-01-04,有限会社佐藤員彬商店,,有限会社,静岡県,静岡市葵区,岳美１０番１０号,,22,101,4200934,,,2023-01-04,清算の結了等,,,2015-10-05,1,,,,,,0
1036,5080002011173,登記記録の閉鎖等,0,2023-01-05,2022-12-27,有限会社ホート,,有限会社,静岡県,静岡市清水区,千歳町７番３－５０７号,,22,103,4240828,,,2022-12-27,清算の結了等,,,2015-10-05,1,,,,,ホート,0
1039,5080402004339,登記記録の閉鎖等,0,2023-01-05,2023-01-04,有限会社西部広告,,有限会社,静岡県,浜松市中区,元浜町９２番地エンブレム元浜１Ｆ３号,,22,131,4300942,,,2023-01-04,清算の結了等,,,2015-10-05,1,,,,,,0
1040,5080403003802,登記記録の閉鎖等,0,2023-01-05,2022-12-28,合同会社サファイア,,合同会社,静岡県,浜松市中区,高丘東２丁目２番１１号,,22,131,4338117,,,2022-12-28,清算の結了等,,,2019-02-14,1,,,,,サファイア,0
1048,5110001002161,登記記録の閉鎖等,0,2023-01-05,2022-12-28,坂井電工株式会社,,株式会社,新潟県,新潟市西区,東青山１丁目１８番地５,,15,107,9502003,,,2022-12-28,清算の結了等,,,2015-10-05,1,,,,,サカイデンコウ,0
1073,5130001015491,登記記録の閉鎖等,0,2023-01-05,2022-12-26,株式会社広村製作所,,株式会社,京都府,京都市伏見区,桃山町本多上野６３番地,,26,109,6128027,,,2022-12-26,清算の結了等,,,2015-10-05,1,,,,,,0
1078,5140001041561,登記記録の閉鎖等,0,2023-01-05,2022-12-26,株式会社ミキシステム,,株式会社,兵庫県,丹波市,柏原町鴨野２５５番地,,28,223,6693316,,,2022-12-26,清算の結了等,,,2015-10-05,1,,,,,ミキシステム,0
1079,5140001060099,登記記録の閉鎖等,0,2023-01-05,2022-12-27,角田製鎖株式会社,00039834,株式会社,兵庫県,姫路市,飾磨区阿成渡場１０２６番地,,28,201,6728039,,,2022-12-27,清算の結了等,,,2015-10-05,1,,,,,カクダセイサ,0
1085,5140005015512,登記記録の閉鎖等,0,2023-01-05,2022-12-13,天理教阿古宮分教会,,その他の設立登記法人,兵庫県,三田市,乙原４３７番地,,28,219,6691503,,,2022-12-13,合併による解散等,5140005018390,令和４年１２月１３日兵庫県川辺郡猪名川町柏原２５番地の８天理教誠立分教会（5140005018390）に合併し解散,2015-10-05,1,,,,,テンリキョウアコミヤブンキョウカイ,0
1102,5180002064995,登記記録の閉鎖等,0,2023-01-05,2022-12-27,有限会社安藤造園土木,,有限会社,愛知県,春日井市,東野町６丁目６番地の１,,23,206,4860817,,,2022-12-27,清算の結了等,,,2015-10-05,1,,,,,アンドウゾンエンドボク,0
1111,5220001023254,登記記録の閉鎖等,0,2023-01-05,2023-01-04,株式会社ジェイエナジー,,株式会社,石川県,金沢市,寺町２丁目１番１号,,17,201,9218033,,,2023-01-04,清算の結了等,,,2019-12-17,1,,,,,ジェイエナジー,0
1125,5280001000909,登記記録の閉鎖等,0,2023-01-05,2023-01-04,株式会社かたよせ,,株式会社,島根県,松江市,宍道町宍道１２５５番地１,,32,201,6990401,,,2023-01-04,登記官による閉鎖,,,2015-10-05,1,,,,,,0
1128,5280002000767,登記記録の閉鎖等,0,2023-01-05,2023-01-04,有限会社幸友電工,,有限会社,島根県,松江市,東津田町１８３９番地１２,,32,201,6900011,,,2023-01-04,登記官による閉鎖,,,2015-10-05,1,,,,,,0
1129,5280002009585,登記記録の閉鎖等,0,2023-01-05,2023-01-04,有限会社タタラ,,有限会社,島根県,邑智郡川本町,大字川本５４４番地２,,32,441,6960001,,,2023-01-04,登記官による閉鎖,,,2015-10-05,1,,,,,,0
1130,5280002010741,登記記録の閉鎖等,0,2023-01-05,2023-01-04,有限会社Ｔ．Ｙ．Ｉ,,有限会社,島根県,益田市,あけぼの東町７番地３,,32,204,6980027,,,2023-01-04,登記官による閉鎖,,,2015-10-05,1,,,,,,0
1131,5280002012135,登記記録の閉鎖等,0,2023-01-05,2023-01-04,有限会社前田工務店,,有限会社,島根県,隠岐郡隠岐の島町,港町塩口１２番地１,,32,528,6850015,,,2023-01-04,登記官による閉鎖,,,2022-09-16,1,,,,,,0
1132,5290001039814,登記記録の閉鎖等,0,2023-01-05,2022-12-27,株式会社アイズ・プリンティング,,株式会社,福岡県,糟屋郡粕屋町,大字柚須６９番地１,,40,349,8112305,,,2022-12-27,清算の結了等,,,2015-10-05,1,,,,,アイズプリンティング,0
1141,5290802006847,登記記録の閉鎖等,0,2023-01-05,2023-01-04,有限会社吉田新一工業,,有限会社,福岡県,北九州市小倉北区,山門町６番３８号,,40,106,8020024,,,2023-01-04,清算の結了等,,,2015-10-05,1,,,,,ヨシダシンイチコギウギョウ,0
1148,5310002014350,登記記録の閉鎖等,0,2023-01-05,2023-01-04,有限会社ジィ・エス・ケイ,,有限会社,長崎県,南松浦郡新上五島町,鯛ノ浦郷２０９番地１,,42,411,8533321,,,2023-01-04,清算の結了等,,,2015-10-05,1,,,,,ジィエスケイ,0
1149,5320001000516,登記記録の閉鎖等,0,2023-01-05,2022-12-28,株式会社伊東伸晏商店,,株式会社,大分県,大分市,広瀬町１丁目１番１４号,,44,201,8700847,,,2022-12-28,清算の結了等,,,2015-10-05,1,,,,,イトウノブヤスショウテン,0
1172,5370401000482,登記記録の閉鎖等,0,2023-01-05,2022-12-26,株式会社島津組,,株式会社,宮城県,登米市,迫町佐沼字内町４４番地の７,,04,212,9870511,,,2022-12-26,清算の結了等,,,2015-10-05,1,,,,,シマヅグミ,0
1175,5380001030458,登記記録の閉鎖等,0,2023-01-05,2022-12-26,株式会社ハライチ,,株式会社,福島県,南相馬市,原町区上高平字川原５１３番地,,07,212,9750026,,,2022-12-26,清算の結了等,,,2019-11-11,1,,,,,ハライチ,0
1178,5400002007774,登記記録の閉鎖等,0,2023-01-05,2022-12-28,有限会社上栄運送,,有限会社,岩手県,岩手郡葛巻町,葛巻第６地割１４２番地１１,,03,302,0285402,,,2022-12-28,清算の結了等,,,2015-10-05,1,,,,,カミエイウンソウ,0
1193,6010002030039,登記記録の閉鎖等,0,2023-01-05,2022-12-26,有限会社ブレインタンク,,有限会社,東京都,千代田区,九段北１丁目３番地５,,13,101,1020073,,,2022-12-26,清算の結了等,,,2015-10-05,1,,,,,ブレインタンク,0
1195,6010005026141,登記記録の閉鎖等,0,2023-01-05,2022-12-28,一般社団法人ヴィレッジツー,,その他の設立登記法人,東京都,中央区,日本橋１丁目４番１号,,13,102,1030027,,,2022-12-28,清算の結了等,,,2016-12-16,1,,,,,ヴィレッジツー,0
1196,6010005030226,登記記録の閉鎖等,0,2023-01-05,2022-12-28,一般社団法人ハウス２５,,その他の設立登記法人,東京都,千代田区,丸の内３丁目１番１号東京共同会計事務所内,,13,101,1000005,,,2022-12-28,清算の結了等,,,2019-05-28,1,,,,,ハウスニジュウゴ,0
1208,6010403024779,登記記録の閉鎖等,0,2023-01-05,2022-12-19,ＳＳ光２７合同会社,,合同会社,東京都,港区,芝公園１丁目３番１号留園ビル６階,,13,103,1050011,,,2022-12-19,清算の結了等,,,2021-03-01,1,,,,,エスエスヒカリトゥウェンティセブン,0
1211,6010501035125,登記記録の閉鎖等,0,2023-01-05,2022-12-28,センターサークル株式会社,,株式会社,東京都,台東区,松が谷３丁目１７番３号,,13,106,1110036,,,2022-12-28,清算の結了等,,,2015-10-05,1,,,,,センターサークル,0
1215,6010602031774,登記記録の閉鎖等,0,2023-01-05,2022-12-23,有限会社Ａ、Ｋ．システムズ,,有限会社,東京都,墨田区,東駒形４丁目２０番２号,,13,107,1300005,,,2022-12-23,清算の結了等,,,2015-10-05,1,,,,,エーケーシステムズ,0
1225,6010905000369,登記記録の閉鎖等,0,2023-01-05,2022-12-12,天理教本務分教會,,その他の設立登記法人,東京都,世田谷区,野沢２丁目３２番１４号,,13,112,1540003,,,2022-12-12,合併による解散等,5011405000455,令和４年１２月８日東京都板橋区赤塚一丁目３１番４号天理教本仙分教会（5011405000455）に合併し解散,2015-10-05,1,,,,,,0
1253,6012401023440,登記記録の閉鎖等,0,2023-01-05,2022-12-27,フジワラ電器株式会社,,株式会社,東京都,武蔵野市,桜堤２丁目１２番２０号,,13,203,1800021,,,2022-12-27,清算の結了等,,,2015-10-05,1,,,,,,0
1255,6012402016212,登記記録の閉鎖等,0,2023-01-05,2023-01-04,有限会社伊千兵衛企画,,有限会社,東京都,西東京市,田無町７丁目１７－２６,,13,229,1880011,,,2023-01-04,清算の結了等,,,2015-10-05,1,,,,,イチベエキカク,0
1259,6013201002675,登記記録の閉鎖等,0,2023-01-05,2022-12-23,篠崎幌内張株式会社,,株式会社,東京都,目黒区,下目黒２丁目１７番２０号,,13,110,1530064,,,2022-12-23,清算の結了等,,,2015-10-05,1,,,,,シノザキホロウチバリ,0
1263,6013305001573,登記記録の閉鎖等,0,2023-01-05,2022-12-27,海外水循環ソリューション技術研究組合,,その他の設立登記法人,東京都,千代田区,神田三崎町３丁目５番９号,,13,101,1010061,,,2022-12-27,清算の結了等,,,2015-10-05,1,,,,,カイガイミズジュンカンソリューション,0
1268,6021001074422,登記記録の閉鎖等,0,2023-01-05,2022-12-27,裕カンパニー株式会社,,株式会社,神奈川県,鎌倉市,長谷１丁目１６番２５号ライフサポート長谷１０２号室,,14,204,2480016,,,2022-12-27,清算の結了等,,,2021-11-04,1,,,,,ユウカンパニー,0
1294,6050002022445,登記記録の閉鎖等,0,2023-01-05,2022-12-22,有限会社ティーエーシー,,有限会社,茨城県,つくば市,花室８３２番地１,,08,220,3050025,,,2022-12-22,清算の結了等,,,2015-10-05,1,,,,,ティーエーシー,0
1299,6060001035001,登記記録の閉鎖等,0,2023-01-05,2022-12-27,株式会社Ｍｏｎｊｕｕ,,株式会社,栃木県,さくら市,鷲宿３６６１番地２２１,,09,214,3291411,,,2022-12-27,清算の結了等,,,2022-06-22,1,,,,,モンジュウ,0
1305,6100001007037,登記記録の閉鎖等,0,2023-01-05,2022-12-28,株式会社サンキューフーズ,,株式会社,長野県,長野市,大字川合新田３７０番地４１６,,20,201,3800913,,,2022-12-28,合併による解散等,8100002007315,令和４年１２月２８日長野市大字川合新田３７０番地４１６株式会社Ｔ　ＳＰＡＣＥ（8100002007315）に合併し解散,2015-10-05,1,,,,,サンキューフーズ,0
1311,6100003006169,登記記録の閉鎖等,0,2023-01-05,2022-12-05,ビジョナリープロモーション合同会社,,合同会社,長野県,岡谷市,長地御所２丁目１－２２,,20,204,3940082,,,2022-12-05,清算の結了等,,,2021-07-15,1,,,,,ビジョナリープロモーション,0
1313,6120001040663,登記記録の閉鎖等,0,2023-01-05,2023-01-04,株式会社日本橋東モータープール,,株式会社,大阪府,大阪市浪速区,日本橋東３丁目１１番１８号,,27,111,5560006,,,2023-01-04,清算の結了等,,,2015-10-05,1,,,,,ニホンバシヒガシモータープール,0
1321,6120001246038,登記記録の閉鎖等,0,2023-01-05,2022-12-28,株式会社Ｈｉｇｈ　Ｌｕｃｋ　Ｅａｒｔｈ　ＨＤ,,株式会社,大阪府,大阪市東成区,中本５丁目１１番２７号,,27,115,5370022,,,2022-12-28,清算の結了等,,,2022-05-24,1,,,,,ハイラックアースホールディングス,0
1327,6120002014402,登記記録の閉鎖等,0,2023-01-05,2023-01-04,有限会社明光鐵工所,,有限会社,大阪府,大阪市此花区,島屋３丁目８番４号,,27,104,5540024,,,2023-01-04,清算の結了等,,,2015-10-05,1,,,,,メイコウテッコウショ,0
1336,6130001023262,登記記録の閉鎖等,0,2023-01-05,2022-12-27,株式会社京都麻袋,,株式会社,京都府,京都市伏見区,中島宮ノ前町２１番地,,26,109,6128457,,,2022-12-27,合併による解散等,2140001062123,令和４年１２月１日兵庫県姫路市神子岡前一丁目４番３３号株式会社ヤマノ（2140001062123）に合併し解散,2015-10-05,1,,,,,キョウトマタイ,0
1348,6140002052573,登記記録の閉鎖等,0,2023-01-05,2022-12-26,有限会社ユーネット,,有限会社,兵庫県,姫路市,網干区宮内４１９番地の６,,28,201,6711222,,,2022-12-26,清算の結了等,,,2015-10-05,1,,,,,ユーネット,0
1352,6160005004834,登記記録の閉鎖等,0,2023-01-05,2022-12-28,医療法人橘地医院,,その他の設立登記法人,滋賀県,彦根市,栄町２丁目６番４７号,,25,202,5220066,,,2022-12-28,清算の結了等,,,2015-10-05,1,,,,,キツジイイン,0
1354,6180001114032,登記記録の閉鎖等,0,2023-01-05,2022-12-26,株式会社日伊ビジネスイノベーション,,株式会社,愛知県,名古屋市中区,栄１丁目２９番２９号シモン１０栄７０１,,23,106,4600008,,,2022-12-26,清算の結了等,,,2015-10-05,1,,,,,ニチイビジネスイノベーション,0
1370,6180305003682,登記記録の閉鎖等,0,2023-01-05,2022-12-12,廣証寺,00075410,その他の設立登記法人,愛知県,豊川市,萩町宮前１９番地ノ１,,23,207,4410201,,,2022-12-12,合併による解散等,5180305003824,令和４年１２月１２日愛知県豊川市萩町大門１７番地龍源寺（5180305003824）に合併し解散,2015-10-05,1,,,,,コウショウジ,0
1371,6200001003744,登記記録の閉鎖等,0,2023-01-05,2023-01-04,トヨタカローラ岐阜株式会社,,株式会社,岐阜県,岐阜市,六条大溝４丁目１番３号,,21,201,5008357,,,2023-01-04,合併による解散等,9200001011356,令和５年１月１日岐阜市六条大溝四丁目１番３号トヨタカローラネッツ岐阜株式会社（9200001011356）に合併し解散,2015-10-05,1,,,,,トヨタカローラギフ,0
1390,6280001002210,登記記録の閉鎖等,0,2023-01-05,2023-01-04,えびす住建株式会社,,株式会社,島根県,松江市,東生馬町３８番地２５０,,32,201,6900864,,,2023-01-04,登記官による閉鎖,,,2016-12-15,1,,,,,エビスジュウケン,0
1391,6280002001723,登記記録の閉鎖等,0,2023-01-05,2023-01-04,有限会社野津食料品店,,有限会社,島根県,松江市,米子町５５番地１,,32,201,6900885,,,2023-01-04,登記官による閉鎖,,,2015-10-05,1,,,,,,0
1392,6280002009683,登記記録の閉鎖等,0,2023-01-05,2023-01-04,有限会社樋原金物店,,有限会社,島根県,邑智郡川本町,大字川本５２２番８地,,32,441,6960001,,,2023-01-04,登記官による閉鎖,,,2015-10-05,1,,,,,,0
1393,6280002009832,登記記録の閉鎖等,0,2023-01-05,2023-01-04,有限会社梅谷料理教室,,有限会社,島根県,益田市,遠田町３１１１番地７５,,32,204,6993676,,,2023-01-04,登記官による閉鎖,,,2015-10-05,1,,,,,,0
1394,6280003000542,登記記録の閉鎖等,0,2023-01-05,2023-01-04,奥村金銭貸付合名会社,,合名会社,島根県,隠岐郡隠岐の島町,西町八尾の一３７番内第１、３７番地,,32,528,6850014,,,2023-01-04,登記官による閉鎖,,,2015-10-05,1,,,,,,0
1395,6280005007206,登記記録の閉鎖等,0,2023-01-05,2023-01-04,後川農事實行組合,,その他の設立登記法人,島根県,益田市,（島根縣美濃郡鎌手村）,,32,204,6980000,,,2023-01-04,登記官による閉鎖,,,2018-01-11,1,,,,,,1
1400,6290002008189,登記記録の閉鎖等,0,2023-01-05,2022-12-27,有限会社信栄久産業,,有限会社,福岡県,福岡市早良区,荒江３丁目２０番１７－３１１,,40,137,8140021,,,2022-12-27,清算の結了等,,,2015-10-05,1,,,,,シンエイヒサシサンギョウ,0
1401,6290005006074,登記記録の閉鎖等,0,2023-01-05,2022-12-09,天理教上神在分教会,,その他の設立登記法人,福岡県,糟屋郡宇美町,貴船２丁目６番８号,,40,341,8112131,,,2022-12-09,合併による解散等,8290005000389,令和４年１２月９日福岡市早良区飯倉七丁目１５番１６号天理教九都分教会（8290005000389）に合併し解散,2015-10-05,1,,,,,テンリキョウカミジンザイブンキョウカイ,0
1426,6370302001406,登記記録の閉鎖等,0,2023-01-05,2022-12-28,有限会社成和測地,,有限会社,宮城県,東松島市,矢本字大溜６５番地２,,04,214,9810503,,,2022-12-28,清算の結了等,,,2015-10-05,1,,,,,セイワソクチ,0
1432,6430002021227,登記記録の閉鎖等,0,2023-01-05,2022-12-28,有限会社横山電気工業,,有限会社,北海道,札幌市北区,東茨戸四条１丁目９番１７号,,01,102,0028045,,,2022-12-28,清算の結了等,,,2015-10-05,1,,,,,ヨコヤマデンキコウギョウ,0
1454,7010005017692,登記記録の閉鎖等,0,2023-01-05,2022-12-22,特定非営利活動法人脳トレ麻雀推進連合会,,その他の設立登記法人,東京都,大田区,南馬込１丁目５７番１９号,,13,111,1430025,,,2022-12-22,清算の結了等,,,2015-10-05,1,,,,,ノウトレマージャンスイシンレンゴウカイ,0
1455,7010005026009,登記記録の閉鎖等,0,2023-01-05,2022-12-28,ジャパンロジスティクススリー特定目的会社,,その他の設立登記法人,東京都,千代田区,丸の内３丁目１番１号東京共同会計事務所内,,13,101,1000005,,,2022-12-28,清算の結了等,,,2016-11-16,1,,,,,ジャパンロジスティクススリー,0
1470,7010701033778,登記記録の閉鎖等,0,2023-01-05,2022-12-26,環境サミット株式会社,,株式会社,東京都,品川区,東五反田１丁目７番１１号－５１０号,,13,109,1410022,,,2022-12-26,清算の結了等,,,2017-02-20,1,,,,,カンキョウサミット,0
1475,7011001107462,登記記録の閉鎖等,0,2023-01-05,2022-12-23,ミックス株式会社,,株式会社,東京都,渋谷区,広尾１丁目７番２０号,,13,113,1500012,,,2022-12-23,清算の結了等,,,2015-10-05,1,,,,,ミックス,0
1508,7020002037362,登記記録の閉鎖等,0,2023-01-05,2022-12-23,有限会社大和田工務店,,有限会社,神奈川県,横浜市鶴見区,北寺尾７丁目１１－２,,14,101,2300074,,,2022-12-23,清算の結了等,,,2015-10-05,1,,,,,オオワダコウムテン,0
1512,7020003009435,登記記録の閉鎖等,0,2023-01-05,2022-12-27,合同会社ディプテル,,合同会社,神奈川県,横浜市鶴見区,馬場６丁目１６番５号,,14,101,2300076,,,2022-12-27,清算の結了等,,,2015-10-05,1,,,,,ディプテル,0
1535,7040001087935,登記記録の閉鎖等,0,2023-01-05,2022-12-26,株式会社ビーエムエイチ,,株式会社,埼玉県,川口市,末広２丁目１０番５号,,11,203,3320006,,,2022-12-26,清算の結了等,,,2015-10-05,1,,,,,ビーエムエイチ,0
1536,7040001113765,登記記録の閉鎖等,0,2023-01-05,2022-12-27,株式会社ＭＴＫ未来,,株式会社,千葉県,市原市,白金町１丁目９番地１４,,12,219,2900059,,,2022-12-27,清算の結了等,,,2020-05-29,1,,,,,エムティケイミライ,0
1544,7040002051881,登記記録の閉鎖等,0,2023-01-05,2022-12-26,有限会社中央電気,,有限会社,千葉県,柏市,岩井４１４番地２,,12,217,2701445,,,2022-12-26,清算の結了等,,,2015-10-05,1,,,,,チュウオウデンキ,0
1559,7120001030837,登記記録の閉鎖等,0,2023-01-05,2023-01-04,株式会社ジーフォー,,株式会社,大阪府,大阪市住之江区,平林南２丁目６番７号,,27,125,5590025,,,2023-01-04,清算の結了等,,,2015-10-05,1,,,,,,0
1587,7140002058826,登記記録の閉鎖等,0,2023-01-05,2022-12-26,有限会社オークシステム,,有限会社,兵庫県,西宮市,小松西町２丁目６番４６－６０９号,,28,204,6638125,,,2022-12-26,清算の結了等,,,2015-10-05,1,,,,,オークシステム,0
1590,7140005008761,登記記録の閉鎖等,0,2023-01-05,2022-12-13,天理教正立分教会,,その他の設立登記法人,兵庫県,丹波篠山市,奥原山２１１番地の１,,28,221,6692501,,,2022-12-13,合併による解散等,2140005008766,令和４年１２月１３日兵庫県丹波篠山市福住１３６０番地の１天理教多紀福分教会（2140005008766）に合併し解散,2015-10-05,1,,,,,テンリキョウショウリツブンキョウカイ,0
1596,7180001062585,登記記録の閉鎖等,0,2023-01-05,2022-12-27,株式会社青貝屋,,株式会社,愛知県,名古屋市守山区,新守西１３０８番地,,23,113,4630069,,,2022-12-27,清算の結了等,,,2015-10-05,1,,,,,アオガイヤ,0
1597,7180001120590,登記記録の閉鎖等,0,2023-01-05,2022-12-27,株式会社ＣＵＲＩＯＬＥＸ　ＪＡＰＡＮ,,株式会社,愛知県,東海市,加木屋町東大堀３２番地の３２５大堀ハイツ１－３０２,,23,222,4770032,,,2022-12-27,清算の結了等,,,2015-10-16,1,,,,,クリオレックスジャパン,0
1598,7180001133915,登記記録の閉鎖等,0,2023-01-05,2022-12-26,株式会社宮本精機,,株式会社,愛知県,岩倉市,大市場町郷廻１２２番地１,,23,228,4820002,,,2022-12-26,清算の結了等,,,2018-10-04,1,,,,,ミヤモトセイキ,0
1609,7220005004026,登記記録の閉鎖等,0,2023-01-05,2022-12-13,天理教江沼分教会,,その他の設立登記法人,石川県,加賀市,大聖寺相生町１９番地,,17,206,9220061,,,2022-12-13,合併による解散等,7210005008647,令和４年１１月２９日福井県小浜市千種二丁目７番１７号天理教北陸大教会（7210005008647）に合併し解散,2015-10-05,1,,,,,テンリキョウエヌマブンキョウカイ,0
1612,7240001053719,登記記録の閉鎖等,0,2023-01-05,2022-12-27,株式会社ＬＯＣＡＬＩＺＥ,,株式会社,広島県,広島市安佐北区,可部町勝木１４１１番地１,,34,106,7391700,,,2022-12-27,清算の結了等,,,2018-12-26,1,,,,,ローカライズ,0
1617,7250003001732,登記記録の閉鎖等,0,2023-01-05,2022-12-28,合同会社かかさん家,,合同会社,山口県,下関市,秋根南町１丁目１番７－５０２号,,35,201,7510872,,,2022-12-28,清算の結了等,,,2015-10-05,1,,,,,カカサンチ,0
1619,7260005010160,登記記録の閉鎖等,0,2023-01-05,2022-12-27,農事組合法人うかんハーブ,,その他の設立登記法人,岡山県,高梁市,有漢町有漢４２０８番地２,,33,209,7161321,,,2022-12-27,清算の結了等,,,2016-10-17,1,,,,,ウカンハーブ,0
1620,7280001008561,登記記録の閉鎖等,0,2023-01-05,2023-01-04,株式会社齋藤商店,,株式会社,島根県,浜田市,大字浅井８６番地,,32,202,6970000,,,2023-01-04,登記官による閉鎖,,,2021-11-17,1,,,,,サイトウショウテン,0
1621,7280002004601,登記記録の閉鎖等,0,2023-01-05,2023-01-04,有限会社賀茂水道,,有限会社,島根県,安来市,安来町４４９番地,,32,206,6920011,,,2023-01-04,登記官による閉鎖,,,2015-10-05,1,,,,,,0
1622,7280002010046,登記記録の閉鎖等,0,2023-01-05,2023-01-04,有限会社西部開発,,有限会社,島根県,益田市,東町４３番１３８号,,32,204,6980004,,,2023-01-04,登記官による閉鎖,,,2015-10-05,1,,,,,,0
1623,7280003001622,登記記録の閉鎖等,0,2023-01-05,2023-01-04,合名会社安来精米所,,合名会社,島根県,安来市,安来町２１４３番地,,32,206,6920011,,,2023-01-04,登記官による閉鎖,,,2022-06-15,1,,,,,ヤスギセイマイショ,0
1624,7280005000325,登記記録の閉鎖等,0,2023-01-05,2022-12-26,協同組合松江ショッピングプラザ,,その他の設立登記法人,島根県,松江市,黒田町字下ノ原４２７番地,,32,201,6900876,,,2022-12-26,清算の結了等,,,2015-10-05,1,,,,,マツエショッピングプラザ,0
1627,7290001062418,登記記録の閉鎖等,0,2023-01-05,2022-12-26,株式会社東洋ツーリスト,,株式会社,福岡県,福岡市中央区,薬院３丁目１１番３２号,,40,133,8100022,,,2022-12-26,合併による解散等,8290001030687,令和４年１２月２６日福岡市中央区薬院三丁目２番２３号ＫＭＧビル６階株式会社シード・コーポレーション（8290001030687）に合併し解散,2015-10-05,1,,,,,トウヨウツーリスト,0
1633,7290002024623,登記記録の閉鎖等,0,2023-01-05,2022-12-27,有限会社シン産業,,有限会社,福岡県,福岡市西区,橋本２丁目１６番３４号,,40,135,8190031,,,2022-12-27,清算の結了等,,,2015-10-05,1,,,,,シンサンギョウ,0
1636,7290005016758,登記記録の閉鎖等,0,2023-01-05,2022-12-27,アメックス波多江駅前特定目的会社,,その他の設立登記法人,福岡県,福岡市中央区,天神１丁目１３番２号,,40,133,8100001,,,2022-12-27,清算の結了等,,,2018-02-16,1,,,,,アメックスハタエエキマエ,0
1672,7460002005440,登記記録の閉鎖等,0,2023-01-05,2022-12-27,有限会社ケイ・サポート,,有限会社,北海道,釧路市,大楽毛南３丁目１番５９号,,01,206,0840915,,,2022-12-27,清算の結了等,,,2015-10-05,1,,,,,ケイサポート,0
1676,7490001007988,登記記録の閉鎖等,0,2023-01-05,2022-12-28,株式会社みかづきメディカル,,株式会社,高知県,高知市,万々２４４番地,,39,201,7800973,,,2022-12-28,清算の結了等,,,2015-10-05,1,,,,,ミカヅキメディカル,0
1681,8010003032395,登記記録の閉鎖等,0,2023-01-05,2022-12-23,合同会社マザーユニーク,,合同会社,東京都,千代田区,丸の内３丁目１番１号東京共同会計事務所内,,13,101,1000005,,,2022-12-23,清算の結了等,,,2020-06-12,1,,,,,マザーユニーク,0
1683,8010005034274,登記記録の閉鎖等,0,2023-01-05,2022-12-28,一般社団法人熊本大津ソーラーパーク,,その他の設立登記法人,東京都,千代田区,丸の内３丁目１番１号東京共同会計事務所内,,13,101,1000005,,,2022-12-28,清算の結了等,,,2021-12-01,1,,,,,クマモトオオツソーラーパーク,0
1688,8010405013150,登記記録の閉鎖等,0,2023-01-05,2022-12-19,Ｓｕｎ　Ｓｔａｔｉｏｎ　Ｈｉｋａｒｉ　ＶＩＩＩ　Ｈｏｌｄｉｎｇｓ一般社団法人,,その他の設立登記法人,東京都,港区,虎ノ門３丁目２２番１０－２０１号,,13,103,1050001,,,2022-12-19,清算の結了等,,,2015-10-05,1,,,,,サンステーションヒカリエイトホールディングス,0
1703,8011003005184,登記記録の閉鎖等,0,2023-01-05,2022-12-26,合同会社ことくま,,合同会社,東京都,渋谷区,恵比寿４丁目１１番５号,,13,113,1500013,,,2022-12-26,清算の結了等,,,2015-10-05,1,,,,,コトクマ,0
1708,8011401015727,登記記録の閉鎖等,0,2023-01-05,2022-12-28,デンゲル株式会社,,株式会社,東京都,板橋区,常盤台３丁目２４番９号,,13,119,1740071,,,2022-12-28,清算の結了等,,,2015-10-05,1,,,,,デンゲル,0
1710,8011601006427,登記記録の閉鎖等,0,2023-01-05,2022-12-20,株式会社丸美,,株式会社,東京都,文京区,千石４丁目３９番１号,,13,105,1120011,,,2022-12-20,清算の結了等,,,2015-10-05,1,,,,,マルミ,0
1720,8013301043618,登記記録の閉鎖等,0,2023-01-05,2022-12-27,日福商事株式会社,,株式会社,東京都,豊島区,上池袋２丁目３９番１３号,,13,116,1700012,,,2022-12-27,清算の結了等,,,2019-03-25,1,,,,,ニチフクショウジ,0
1721,8013303004873,登記記録の閉鎖等,0,2023-01-05,2022-12-28,ライ－トラン合同会社,,合同会社,東京都,豊島区,池袋本町２丁目２番２３－１０５号,,13,116,1700011,,,2022-12-28,清算の結了等,,,2019-11-06,1,,,,,ライートラン,0
1725,8020001096012,登記記録の閉鎖等,0,2023-01-05,2022-12-27,Ｆｌｏｗ’Ｄｅｃｏｒ株式会社,,株式会社,神奈川県,横浜市港北区,新横浜１丁目４番地４,,14,109,2220033,,,2022-12-27,清算の結了等,,,2015-10-05,1,,,,,フローデコール,0
1727,8020001135455,登記記録の閉鎖等,0,2023-01-05,2022-12-26,ジョブファインダー株式会社,,株式会社,神奈川県,横浜市中区,太田町６丁目８４番地神糧ビル２０２,,14,104,2310011,,,2022-12-26,清算の結了等,,,2020-03-24,1,,,,,ジョブファインダー,0
1729,8020003012289,登記記録の閉鎖等,0,2023-01-05,2022-12-27,合同会社翔,,合同会社,神奈川県,横浜市南区,別所中里台２－１６,,14,105,2320065,,,2022-12-27,清算の結了等,,,2017-01-30,1,,,,,ショウ,0
1730,8020005009003,登記記録の閉鎖等,0,2023-01-05,2022-12-27,一般社団法人かわさき福祉・保育研究所,,その他の設立登記法人,神奈川県,川崎市中原区,上新城２丁目２番１９号青木ハイツ１階,,14,133,2110045,,,2022-12-27,清算の結了等,,,2015-10-05,1,,,,,カワサキフクシホイクケンキュウショ,0
1744,8030001146823,登記記録の閉鎖等,0,2023-01-05,2022-12-26,わかば企画株式会社,,株式会社,埼玉県,川越市,大字小堤６７７番地１,,11,201,3500811,,,2022-12-26,清算の結了等,,,2022-02-16,1,,,,,ワカバキカク,0
1748,8030002039860,登記記録の閉鎖等,0,2023-01-05,2022-12-28,有限会社テレネットサービス,,有限会社,埼玉県,幸手市,東３丁目２８番１７号,,11,240,3400114,,,2022-12-28,清算の結了等,,,2015-10-05,1,,,,,テレネットサービス,0
1753,8030005005587,登記記録の閉鎖等,0,2023-01-05,2022-12-05,神明社,,その他の設立登記法人,埼玉県,草加市,青柳３丁目１６番２１号,,11,221,3400002,,,2022-12-05,合併による解散等,3030005005625,令和４年１２月５日埼玉県草加市青柳六丁目５番７号八幡神社（3030005005625）に合併し解散,2015-10-05,1,,,,,シンメイシャ,0
1788,8120001243693,登記記録の閉鎖等,0,2023-01-05,2022-12-28,おさき株式会社,,株式会社,大阪府,大阪市此花区,西九条３丁目４番３４－５０７号,,27,104,5540012,,,2022-12-28,清算の結了等,,,2022-02-07,1,,,,,オサキ,0
1795,8120902008988,登記記録の閉鎖等,0,2023-01-05,2022-12-27,有限会社西尾産業,,有限会社,大阪府,摂津市,一津屋２丁目３番２３号,,27,224,5660043,,,2022-12-27,清算の結了等,,,2015-10-05,1,,,,,ニシオサンギョウ,0
1798,8130005010288,登記記録の閉鎖等,0,2023-01-05,2022-12-07,天理教大地分教会,,その他の設立登記法人,京都府,福知山市,字大内４４５番地,,26,201,6200836,,,2022-12-07,合併による解散等,8130005010296,令和４年１２月７日京都府福知山市字土師５７８番地天理教福知山分教会（8130005010296）に合併し解散,2015-10-05,1,,,,,テンリキョウオオチブンキョウカイ,0
1802,8140001033886,登記記録の閉鎖等,0,2023-01-05,2022-12-27,株式会社ラペイルージア,,株式会社,兵庫県,神戸市垂水区,千代が丘２丁目４番５０号,,28,108,6550018,,,2022-12-27,清算の結了等,,,2015-10-05,1,,,,,ラペイルージア,0
1814,8160001020841,登記記録の閉鎖等,0,2023-01-05,2022-12-23,株式会社Ｎｅｗ　Ｏｍｉ　Ｄｉｎｉｎｇ,,株式会社,滋賀県,近江八幡市,鷹飼町１４８１番地,,25,204,5230891,,,2022-12-23,清算の結了等,,,2018-04-05,1,,,,,ニューオウミダイニング,0
1816,8160002014537,登記記録の閉鎖等,0,2023-01-05,2022-12-28,有限会社片山工業,,有限会社,滋賀県,守山市,伊勢町４５１番地１５０,,25,207,5240036,,,2022-12-28,清算の結了等,,,2015-10-05,1,,,,,カタヤマコウギョウ,0
1820,8180001029294,登記記録の閉鎖等,0,2023-01-05,2022-12-27,安藤貴金属精錬株式会社,,株式会社,愛知県,名古屋市中村区,則武１丁目１番２４号,,23,105,4530014,,,2022-12-27,清算の結了等,,,2015-10-05,1,,,,,アンドウキキンゾクセイレン,0
1845,8280001000393,登記記録の閉鎖等,0,2023-01-05,2023-01-04,株式会社ショウフク,,株式会社,島根県,松江市,朝日町４８８番地福島ビル,,32,201,6900003,,,2023-01-04,登記官による閉鎖,,,2015-10-05,1,,,,,,0
1847,8280002012116,登記記録の閉鎖等,0,2023-01-05,2023-01-04,有限会社楫商店,,有限会社,島根県,大田市,三瓶町池田２１７２番地内第１,,32,205,6940223,,,2023-01-04,登記官による閉鎖,,,2017-12-21,1,,,,,,0
1854,8290002020448,登記記録の閉鎖等,0,2023-01-05,2022-12-27,有限会社翔建築計画,,有限会社,福岡県,宗像市,日の里６丁目３番地１１,,40,220,8113425,,,2022-12-27,清算の結了等,,,2015-10-05,1,,,,,ショウケンチクケイカク,0
1859,8290801021563,登記記録の閉鎖等,0,2023-01-05,2023-01-04,株式会社誠伸,,株式会社,福岡県,北九州市八幡東区,平野３丁目１番３号,,40,108,8050062,,,2023-01-04,清算の結了等,,,2015-10-05,1,,,,,セイシン,0
1881,8410002007523,登記記録の閉鎖等,0,2023-01-05,2022-12-27,有限会社小番,,有限会社,秋田県,由利本荘市,矢島町元町字新町２６番地２,,05,210,0150417,,,2022-12-27,清算の結了等,,,2015-10-05,1,,,,,コツガイ,0
1894,8480005003174,登記記録の閉鎖等,0,2023-01-05,2022-12-12,金光教市場町教会,,その他の設立登記法人,徳島県,阿波市,市場町市場字上野段３８３番地の１,,36,206,7711602,,,2022-12-12,合併による解散等,7480005000940,令和４年１２月１２日徳島市佐古三番町３番２１号金光教佐古教会（7480005000940）に合併し解散,2015-10-05,1,,,,,コンコウキョウイチバマチキョウカイ,0
1895,8490002010362,登記記録の閉鎖等,0,2023-01-05,2022-12-27,有限会社伊藤商店,,有限会社,高知県,土佐市,蓮池２２４７番地１,,39,205,7811105,,,2022-12-27,清算の結了等,,,2015-10-05,1,,,,,イトウショウテン,0
1902,9010001031745,登記記録の閉鎖等,0,2023-01-05,2022-12-23,株式会社エー・スタイル,,株式会社,東京都,千代田区,九段北１丁目１３番１号,,13,101,1020073,,,2022-12-23,清算の結了等,,,2015-10-05,1,,,,,エースタイル,0
1914,9010403021914,登記記録の閉鎖等,0,2023-01-05,2022-12-19,ＯＶＯエナジージャパン合同会社,,合同会社,東京都,港区,北青山３丁目６－７青山パラシオタワー１１階,,13,103,1070061,,,2022-12-19,清算の結了等,,,2019-11-28,1,,,,,オヴォエナジージャパン,0
1927,9011001004914,登記記録の閉鎖等,0,2023-01-05,2022-12-26,株式会社オカザキ,,株式会社,東京都,渋谷区,本町６丁目２７番７号,,13,113,1510071,,,2022-12-26,清算の結了等,,,2015-10-05,1,,,,,オカザキ,0
1930,9011001147424,登記記録の閉鎖等,0,2023-01-05,2022-12-27,Ｗｉｌｄ　Ｔｒａｖｅｌｅｒ＆Ｃｏ．株式会社,,株式会社,東京都,渋谷区,神宮前２丁目３３番５－２０４号,,13,113,1500001,,,2022-12-27,清算の結了等,,,2022-05-11,1,,,,,ワイルドトラベラーアンドカンパニー,0
1938,9011101053885,登記記録の閉鎖等,0,2023-01-05,2022-12-26,ＮＬホスピタリティ株式会社,,株式会社,東京都,新宿区,西新宿３丁目２０番２号,,13,104,1600023,,,2022-12-26,清算の結了等,,,2015-10-05,1,,,,,エヌエルホスピタリティ,0
1951,9012402021168,登記記録の閉鎖等,0,2023-01-05,2022-12-27,有限会社服部コンサルタント事務所,,有限会社,東京都,三鷹市,下連雀３丁目１７番１８号ラポール三鷹１０２,,13,204,1810013,,,2022-12-27,清算の結了等,,,2015-10-05,1,,,,,ハットリコンサルタントジムショ,0
1982,9040001117780,登記記録の閉鎖等,0,2023-01-05,2022-12-27,エミシア株式会社,,株式会社,千葉県,柏市,若柴１７８番地４柏の葉キャンパス１４８街区１ザ・ゲートタワーウエスト３Ｆ,,12,217,2770871,,,2022-12-27,清算の結了等,,,2021-04-02,1,,,,,エミシア,0
1988,9040005014462,登記記録の閉鎖等,0,2023-01-05,2022-12-26,野田地区電機協同組合,,その他の設立登記法人,千葉県,野田市,中野台３６７番地,,12,208,2780035,,,2022-12-26,清算の結了等,,,2015-10-05,1,,,,,ノダチクデンキ,0
1992,9080001011591,登記記録の閉鎖等,0,2023-01-05,2023-01-04,株式会社エムプラント,,株式会社,静岡県,静岡市清水区,西大曲町９番１６号,,22,103,4240046,,,2023-01-04,清算の結了等,,,2015-10-05,1,,,,,エムプラント,0
1998,9080401024235,登記記録の閉鎖等,0,2023-01-05,2022-12-28,株式会社浜松将陽館,,株式会社,静岡県,浜松市西区,桜台３丁目２７番１７号,,22,133,4311104,,,2022-12-28,清算の結了等,,,2020-04-06,1,,,,,ハママツショウヨウカン,0
2002,9110002004863,登記記録の閉鎖等,0,2023-01-05,2022-12-27,有限会社新潟中央デンタル,,有限会社,新潟県,新潟市中央区,女池３丁目５番１０号,,15,103,9500941,,,2022-12-27,清算の結了等,,,2015-10-05,1,,,,,ニイガタチュウオウデンタル,0
2028,9122003002300,登記記録の閉鎖等,0,2023-01-05,2022-12-27,合同会社ＳＡＫＵＲＡ　ＲＥＣＹＣＬＩＮＧ,,合同会社,大阪府,東大阪市,衣摺４丁目２２番１号２０５号室,,27,227,5770827,,,2022-12-27,清算の結了等,,,2022-03-30,1,,,,,サクラリサイクル,0
2061,9190001009914,登記記録の閉鎖等,0,2023-01-05,2023-01-04,株式会社ラストフォーエバー,,株式会社,大阪府,大阪市中央区,本町橋８番１６号,,27,128,5400029,,,2023-01-04,清算の結了等,,,2015-10-05,1,,,,,,0
2070,9250001000354,登記記録の閉鎖等,0,2023-01-05,2022-12-28,三彩工房株式会社,,株式会社,山口県,山口市,宮野下５７９番地１０,,35,203,7530011,,,2022-12-28,清算の結了等,,,2015-10-05,1,,,,,サンサイコウボウ,0
2073,9250002020087,登記記録の閉鎖等,0,2023-01-05,2022-12-27,有限会社エモト,,有限会社,山口県,熊毛郡田布施町,大字大波野７８８番地,,35,343,7421501,,,2022-12-27,清算の結了等,,,2015-10-05,1,,,,,エモト,0
2077,9280001005367,登記記録の閉鎖等,0,2023-01-05,2023-01-04,株式会社メディカル工笑,,株式会社,島根県,益田市,梅月町１７６番地,,32,204,6995127,,,2023-01-04,登記官による閉鎖,,,2015-10-05,1,,,,,,0
2078,9280002002165,登記記録の閉鎖等,0,2023-01-05,2023-01-04,有限会社マイクロカーネル,,有限会社,島根県,松江市,東本町４丁目１５４,,32,201,6900842,,,2023-01-04,登記官による閉鎖,,,2015-10-05,1,,,,,,0
2079,9280002004129,登記記録の閉鎖等,0,2023-01-05,2023-01-04,有限会社アール・ヌーボー,,有限会社,島根県,松江市,西持田町３６２番地６１,,32,201,6900815,,,2023-01-04,登記官による閉鎖,,,2015-10-05,1,,,,,,0
2080,9280002008220,登記記録の閉鎖等,0,2023-01-05,2023-01-04,カワヒロ商事有限会社,,有限会社,島根県,浜田市,内田町４５９番地１,,32,202,6971323,,,2023-01-04,登記官による閉鎖,,,2015-10-05,1,,,,,,0
2082,9280002012123,登記記録の閉鎖等,0,2023-01-05,2023-01-04,有限会社稲田新建築研究室,,有限会社,島根県,安来市,伯太町西母里１３９４番地,,32,206,6920212,,,2023-01-04,登記官による閉鎖,,,2020-06-22,1,,,,,イナタシンケンチクケンキュウシツ,0
2083,9280005004539,登記記録の閉鎖等,0,2023-01-05,2023-01-04,願宗寺,,その他の設立登記法人,島根県,江津市,川平町平田ロ３９０番地,,32,207,6950014,,,2023-01-04,登記官による閉鎖,,,2015-10-05,1,,,,,,0
2084,9280005007450,登記記録の閉鎖等,0,2023-01-05,2023-01-04,大塚商栄協同組合,,その他の設立登記法人,島根県,安来市,大塚町２８７番地,,32,206,6920042,,,2023-01-04,登記官による閉鎖,,,2021-12-09,1,,,,,オオツカショウエイ,0
2092,9290005014768,登記記録の閉鎖等,0,2023-01-05,2022-12-28,ＮＰＯ法人共に経営コミュニティ,,その他の設立登記法人,福岡県,福岡市中央区,小笹１丁目１８番３０号２０６号室,,40,133,8100033,,,2022-12-28,清算の結了等,,,2015-10-05,1,,,,,トモニケイエイコミュニティ,0
2106,9340003003668,登記記録の閉鎖等,0,2023-01-05,2022-12-27,合同会社ＳＵＮ,,合同会社,鹿児島県,出水市,麓町１１０２番地,,46,208,8990204,,,2022-12-27,清算の結了等,,,2022-01-06,1,,,,,サン,0
2107,9350001001045,登記記録の閉鎖等,0,2023-01-05,2023-01-04,株式会社田端青果,,株式会社,宮崎県,宮崎市,堀川町３４番地２,,45,201,8800873,,,2023-01-04,清算の結了等,,,2015-10-05,1,,,,,タバタセイカ,0
2115,9370402001658,登記記録の閉鎖等,0,2023-01-05,2022-12-26,有限会社グレイスレンタカー,,有限会社,宮城県,登米市,迫町佐沼字萩洗１丁目５番地９,,04,212,9870511,,,2022-12-26,清算の結了等,,,2015-10-05,1,,,,,グレイスレンタカー,0
2117,9380002023928,登記記録の閉鎖等,0,2023-01-05,2022-12-27,有限会社サンワ電子研究所,,有限会社,福島県,いわき市,四倉町細谷字荒町３番地の５,,07,204,9790204,,,2022-12-27,清算の結了等,,,2015-10-05,1,,,,,サンワデンシケンキュウジョ,0
2120,9390002012995,登記記録の閉鎖等,0,2023-01-05,2022-12-26,有限会社鈴木商店,,有限会社,山形県,米沢市,中央７丁目４番４０号,,06,202,9920045,,,2022-12-26,清算の結了等,,,2015-10-05,1,,,,,スズキショウテン,0
2126,9460101006255,登記記録の閉鎖等,0,2023-01-05,2022-12-28,株式会社まつうらファーム,,株式会社,北海道,中川郡池田町,字川合２９７番地の１２,,01,644,0830041,,,2022-12-28,清算の結了等,,,2017-11-13,1,,,,,マツウラファーム,0
