sequenceNumber,corporateNumber,process,correct,updateDate,changeDate,name,nameImageId,kind,prefectureName,cityName,streetNumber,addressImageId,prefectureCode,cityCode,postCode,addressOutside,addressOutsideImageId,closeDate,closeCause,successorCorporateNumber,changeCause,assignmentDate,latest,enName,enPrefectureName,enCityName,enAddressOutside,furigana,hihyoji
20,1010501040690,登記記録の閉鎖等,0,2023-12-25,2023-12-18,ＴＳＰ株式会社,,株式会社,東京都,台東区,元浅草２丁目４番１０号五宝堂・伊藤ビル６Ｆ,,13,106,1110041,,,2023-12-18,清算の結了等,,,2017-02-24,1,,,,,ティーエスピー,0
22,1010601020205,登記記録の閉鎖等,0,2023-12-25,2023-12-20,株式会社矢田商店,,株式会社,東京都,品川区,旗の台６丁目２１番１９号,,13,109,1420064,,,2023-12-20,清算の結了等,,,2015-10-05,1,,,,,ヤダショウテン,0
44,1011101084616,登記記録の閉鎖等,0,2023-12-25,2023-12-22,株式会社Ｃａｔａｌｕ　ＪＡＰＡＮ,,株式会社,東京都,渋谷区,千駄ヶ谷５丁目３３番１号,,13,113,1510051,,,2023-12-22,清算の結了等,,,2018-06-27,1,,,,,カタルジャパン,0
61,1012401001491,登記記録の閉鎖等,0,2023-12-25,2023-12-21,株式会社府中小型生コン,,株式会社,東京都,府中市,四谷３丁目４５番地の１,,13,206,1830035,,,2023-12-21,清算の結了等,,,2015-10-05,1,,,,,,0
72,1020002061797,登記記録の閉鎖等,0,2023-12-25,2023-12-20,有限会社横浜サニーサービス,,有限会社,神奈川県,横浜市金沢区,高舟台１丁目１６番７号,,14,108,2360044,,,2023-12-20,清算の結了等,,,2015-10-05,1,,,,,ヨコハマサニーサービス,0
74,1020003013707,登記記録の閉鎖等,0,2023-12-25,2023-12-19,合同会社リンク,,合同会社,神奈川県,横浜市中区,本牧緑ケ丘８９番地１,,14,104,2310832,,,2023-12-19,清算の結了等,,,2017-12-21,1,,,,,リンク,0
81,1021002016601,登記記録の閉鎖等,0,2023-12-25,2023-12-20,有限会社アーク,,有限会社,神奈川県,鎌倉市,岡本１丁目２２番２７号,,14,204,2470072,,,2023-12-20,清算の結了等,,,2015-10-05,1,,,,,アーク,0
83,1030001033490,登記記録の閉鎖等,0,2023-12-25,2023-11-24,株式会社文和,,株式会社,埼玉県,加須市,三俣２丁目２３番地８,,11,210,3470009,,,2023-11-24,清算の結了等,,,2015-10-05,1,,,,,ブンワ,0
91,1030002115908,登記記録の閉鎖等,0,2023-12-25,2023-12-19,有限会社デーリィプロジェクト,,有限会社,埼玉県,大里郡寄居町,大字用土１６５８番地５,,11,408,3691201,,,2023-12-19,清算の結了等,,,2015-10-05,1,,,,,デーリィプロジェクト,0
110,1060002007680,登記記録の閉鎖等,0,2023-12-25,2023-12-19,有限会社福田一二商店,,有限会社,栃木県,宇都宮市,大塚町３番１３号,,09,201,3210161,,,2023-12-19,清算の結了等,,,2015-10-05,1,,,,,フクダカツジショウテン,0
112,1060002031739,登記記録の閉鎖等,0,2023-12-25,2023-12-20,有限会社大竹鉄筋工業,,有限会社,栃木県,栃木市,日ノ出町３番１１号,,09,203,3280031,,,2023-12-20,清算の結了等,,,2015-10-05,1,,,,,オオタケテッキンコウギョウ,0
118,1080401000714,登記記録の閉鎖等,0,2023-12-25,2023-12-21,株式会社遠州レンタル,,株式会社,静岡県,浜松市中区,西丘町９８５番地の１,,22,131,4338116,,,2023-12-21,清算の結了等,,,2015-10-05,1,,,,,エンシュウレンタル,0
120,1080402016453,登記記録の閉鎖等,0,2023-12-25,2023-12-21,有限会社丸十商事,,有限会社,静岡県,浜松市中区,住吉２丁目６番１３号,,22,131,4300906,,,2023-12-21,清算の結了等,,,2015-10-05,1,,,,,マルジュウショウジ,0
124,1110001019374,登記記録の閉鎖等,0,2023-12-25,2023-12-20,株式会社古川商会,,株式会社,新潟県,上越市,本町６丁目４番２４号,,15,222,9430832,,,2023-12-20,清算の結了等,,,2015-10-05,1,,,,,フルカワショウカイ,0
125,1110001036519,登記記録の閉鎖等,0,2023-12-25,2023-12-21,株式会社Ａｌｉｖｅ,,株式会社,新潟県,長岡市,要町１丁目９番３２号,,15,202,9401153,,,2023-12-21,清算の結了等,,,2022-03-22,1,,,,,アライブ,0
126,1120001008599,登記記録の閉鎖等,0,2023-12-25,2023-12-18,株式会社ホーエイ,,株式会社,大阪府,大阪市都島区,御幸町１丁目６番２２号,,27,102,5340012,,,2023-12-18,清算の結了等,,,2015-10-05,1,,,,,ホーエイ,0
142,1120101039214,登記記録の閉鎖等,0,2023-12-25,2023-12-21,株式会社塗匠,,株式会社,大阪府,岸和田市,流木町９３４番地の５,,27,202,5960835,,,2023-12-21,清算の結了等,,,2015-10-05,1,,,,,ヌリショウ,0
145,1120102022334,登記記録の閉鎖等,0,2023-12-25,2023-12-22,有限会社タナコー,,有限会社,大阪府,貝塚市,地藏堂２１９番地,,27,208,5970053,,,2023-12-22,清算の結了等,,,2015-10-05,1,,,,,,0
152,1120901031246,登記記録の閉鎖等,0,2023-12-25,2023-12-20,株式会社ユープラス研究所,,株式会社,大阪府,高槻市,城北町２丁目７番１６－４０１号,,27,207,5690071,,,2023-12-20,清算の結了等,,,2015-10-05,1,,,,,ユープラスケンキュウジョ,0
162,1140001012847,登記記録の閉鎖等,0,2023-12-25,2023-12-21,近畿プロパン株式会社,,株式会社,兵庫県,神戸市兵庫区,荒田町１丁目６番１０号,,28,105,6520032,,,2023-12-21,清算の結了等,,,2015-10-05,1,,,,,キンキプロパン,0
163,1140001095561,登記記録の閉鎖等,0,2023-12-25,2023-12-22,株式会社ｔａｋｅ３グローバルソルーション,,株式会社,大阪府,堺市西区,北条町２丁２８番１号,,27,144,5938302,,,2023-12-22,清算の結了等,,,2015-10-05,1,,,,,タケサングローバルソルーション,0
169,1150005002513,登記記録の閉鎖等,0,2023-12-25,2023-12-20,医療法人大沢眼科,,その他の設立登記法人,奈良県,大和郡山市,柳町７０番地１,,29,203,6391134,,,2023-12-20,清算の結了等,,,2015-10-05,1,,,,,オオサワガンカ,0
170,1160001008100,登記記録の閉鎖等,0,2023-12-25,2023-12-20,愛知郡建設会館株式会社,,株式会社,滋賀県,愛知郡愛荘町,市８０７番地,,25,425,5291313,,,2023-12-20,清算の結了等,,,2015-10-05,1,,,,,エチグンケンセツカイカン,0
174,1160002011739,登記記録の閉鎖等,0,2023-12-25,2023-12-21,有限会社木津新聞舗,,有限会社,滋賀県,高島市,マキノ町海津２４２０番地,,25,212,5201811,,,2023-12-21,清算の結了等,,,2015-10-05,1,,,,,キヅシンブンホ,0
177,1180001029012,登記記録の閉鎖等,0,2023-12-25,2023-12-21,株式会社矢車建設,,株式会社,愛知県,名古屋市緑区,諸の木１丁目１３０８番地,,23,114,4580817,,,2023-12-21,清算の結了等,,,2015-10-05,1,,,,,ヤグルマケンセツ,0
178,1180001038186,登記記録の閉鎖等,0,2023-12-25,2023-12-08,株式会社中部宝飾野々部,,株式会社,愛知県,名古屋市千種区,山添町１丁目４３番地,,23,101,4640832,,,2023-12-08,清算の結了等,,,2015-10-05,1,,,,,チュウブホウショクノノベ,0
191,1180002059537,登記記録の閉鎖等,0,2023-12-25,2023-12-18,有限会社アクセス,,有限会社,愛知県,名古屋市北区,福徳町３丁目１９番地,,23,103,4620052,,,2023-12-18,清算の結了等,,,2015-10-05,1,,,,,アクセス,0
192,1180003008245,登記記録の閉鎖等,0,2023-12-25,2023-12-19,合資会社メイラーシステムサクライ,,合資会社,愛知県,名古屋市北区,五反田町２２２番地,,23,103,4620011,,,2023-12-19,清算の結了等,,,2015-10-05,1,,,,,メイラーシステムサクライ,0
193,1180003014912,登記記録の閉鎖等,0,2023-12-25,2023-12-14,合同会社エムユー,,合同会社,愛知県,名古屋市名東区,上社２丁目１８２番地の１ＡＲＴ・ＣＯＲＥ、ｐａｒｔ２、１０５号,,23,115,4650025,,,2023-12-14,清算の結了等,,,2015-10-05,1,,,,,エムユー,0
200,1190002006315,登記記録の閉鎖等,0,2023-12-25,2023-12-20,有限会社コンドウ住設,,有限会社,三重県,鈴鹿市,石薬師町２４９２番地,,24,207,5130012,,,2023-12-20,清算の結了等,,,2015-10-05,1,,,,,コンドウジュウセツ,0
205,1220003002788,登記記録の閉鎖等,0,2023-12-25,2023-12-21,合同会社ＴＯＭＹ,,合同会社,石川県,白山市,相木町５３４番地１,,17,210,9240022,,,2023-12-21,清算の結了等,,,2020-04-03,1,,,,,トミー,0
215,1280001005201,登記記録の閉鎖等,0,2023-12-25,2023-12-21,株式会社オーディコンサルタンツ機構,,株式会社,島根県,鹿足郡津和野町,田二穂１０９番地,,32,501,6995617,,,2023-12-21,清算の結了等,,,2015-10-05,1,,,,,オーディコンサルタンツキコウ,0
244,1290803001529,登記記録の閉鎖等,0,2023-12-25,2023-12-20,合同会社新入グァーグァー市場,,合同会社,福岡県,直方市,大字上新入２０２４番地１,,40,204,8220033,,,2023-12-20,清算の結了等,,,2015-10-05,1,,,,,シンニュウグァーグァーイチバ,0
253,1310002005031,登記記録の閉鎖等,0,2023-12-25,2023-12-21,有限会社本多商店,,有限会社,長崎県,長崎市,西海町１５５４番地２９,,42,201,8513101,,,2023-12-21,清算の結了等,,,2015-10-05,1,,,,,ホンダショウテン,0
259,1340001010715,登記記録の閉鎖等,0,2023-12-25,2023-12-22,株式会社ファイブ企画,,株式会社,鹿児島県,鹿屋市,横山町１５０５番地,,46,203,8930046,,,2023-12-22,清算の結了等,,,2015-10-05,1,,,,,ファイブキカク,0
264,1350002015175,登記記録の閉鎖等,0,2023-12-25,2023-12-15,有限会社豊商事,,有限会社,宮崎県,都城市,姫城町２１街区２１号フランネル姫城１０３号,,45,202,8850073,,,2023-12-15,清算の結了等,,,2015-10-05,1,,,,,ユタカショウジ,0
268,1370001008038,登記記録の閉鎖等,0,2023-12-25,2023-12-15,株式会社コスモ,,株式会社,宮城県,多賀城市,高橋３丁目１１番２２号,,04,209,9850853,,,2023-12-15,清算の結了等,,,2015-10-05,1,,,,,コスモ,0
273,1380001024645,登記記録の閉鎖等,0,2023-12-25,2023-12-13,株式会社エアーダクト,,株式会社,福島県,福島市,吉倉字八幡２７番地の１,,07,201,9608165,,,2023-12-13,清算の結了等,,,2015-10-05,1,,,,,エアーダクト,0
286,1440002000044,登記記録の閉鎖等,0,2023-12-25,2023-12-21,有限会社青山葬祭,,有限会社,北海道,北斗市,公園通１丁目１５番１３号,,01,236,0490143,,,2023-12-21,清算の結了等,,,2015-10-05,1,,,,,アオヤマソウサイ,0
288,1500002000228,登記記録の閉鎖等,0,2023-12-25,2023-12-22,坪田建材有限会社,,有限会社,愛媛県,松山市,北条辻８１０番地,00007661,38,201,7992430,,,2023-12-22,清算の結了等,,,2015-10-05,1,,,,,ツボタケンザイ,0
301,2010003022699,登記記録の閉鎖等,0,2023-12-25,2023-12-20,ＴＨＥ汐留インベストメント合同会社,,合同会社,東京都,中央区,日本橋１丁目４番１号,,13,102,1030027,,,2023-12-20,清算の結了等,,,2015-11-24,1,,,,,ザシオドメインベストメント,0
314,2010403019411,登記記録の閉鎖等,0,2023-12-25,2023-12-18,Ｃｏｎｔｏｓｏ合同会社,,合同会社,東京都,港区,浜松町２丁目２番１５号,,13,103,1050013,,,2023-12-18,清算の結了等,,,2018-09-28,1,,,,,,0
318,2010705002775,登記記録の閉鎖等,0,2023-12-25,2023-12-20,一般社団法人税理士リーダーズクラブ,,その他の設立登記法人,新潟県,長岡市,呉服町２丁目２番地３３,,15,202,9400056,,,2023-12-20,清算の結了等,,,2018-05-31,1,,,,,ゼイリシリーダーズクラブ,0
335,2011101092931,登記記録の閉鎖等,0,2023-12-25,2023-12-19,エルボン株式会社,,株式会社,東京都,新宿区,新宿２丁目５番１２号ＦＯＲＥＣＡＳＴ新宿ＡＶＥＮＵＥ６Ｆ,,13,104,1600022,,,2023-12-19,清算の結了等,,,2020-10-23,1,,,,,エルボン,0
346,2011502009204,登記記録の閉鎖等,0,2023-12-25,2023-12-19,有限会社鈴木工芸,,有限会社,茨城県,稲敷郡河内町,長竿１８６７番地,,08,447,3001312,,,2023-12-19,清算の結了等,,,2015-10-05,1,,,,,スズキコウゲイ,0
356,2013301038805,登記記録の閉鎖等,0,2023-12-25,2023-12-20,株式会社Ｎバレー,,株式会社,埼玉県,朝霞市,宮戸３丁目１８番５２号,,11,227,3510031,,,2023-12-20,清算の結了等,,,2016-05-06,1,,,,,エヌバレー,0
362,2020001067885,登記記録の閉鎖等,0,2023-12-25,2023-12-19,株式会社城南印刷センター,,株式会社,神奈川県,川崎市宮前区,菅生２丁目１６番１号聖マリアンナ医科大学内,,14,136,2160015,,,2023-12-19,清算の結了等,,,2015-10-05,1,,,,,ジョウナンインサツセンター,0
369,2021001038991,登記記録の閉鎖等,0,2023-12-25,2023-12-21,株式会社春原設計,,株式会社,神奈川県,平塚市,代官町３０番４号,,14,203,2540807,,,2023-12-21,清算の結了等,,,2015-10-05,1,,,,,スノハラセッケイ,0
379,2030001008599,登記記録の閉鎖等,0,2023-12-25,2023-12-18,株式会社山中商店,,株式会社,埼玉県,さいたま市大宮区,桜木町１丁目１番地４,,11,103,3300854,,,2023-12-18,清算の結了等,,,2015-10-05,1,,,,,ヤマナカショウテン,0
412,2070002000700,登記記録の閉鎖等,0,2023-12-25,2023-12-21,有限会社今成商店,,有限会社,群馬県,前橋市,東片貝町３９４番地,,10,201,3710012,,,2023-12-21,清算の結了等,,,2015-10-05,1,,,,,イマナリショウテン,0
418,2080102011101,登記記録の閉鎖等,0,2023-12-25,2023-12-21,有限会社冨永商事,,有限会社,静岡県,三島市,中田町８番２５号,,22,206,4110838,,,2023-12-21,清算の結了等,,,2015-10-05,1,,,,,トミナガショウジ,0
420,2080401020991,登記記録の閉鎖等,0,2023-12-25,2023-12-20,株式会社モリカ,,株式会社,静岡県,浜松市浜北区,新原４２７１番地,,22,136,4340003,,,2023-12-20,清算の結了等,,,2015-10-05,1,,,,,モリカ,0
421,2080402004060,登記記録の閉鎖等,0,2023-12-25,2023-12-20,有限会社鈴甚家電,,有限会社,静岡県,浜松市南区,高塚町４７１０番地,,22,134,4328065,,,2023-12-20,清算の結了等,,,2015-10-05,1,,,,,スズジンカデン,0
422,2080402007773,登記記録の閉鎖等,0,2023-12-25,2023-12-20,有限会社ティライズ,,有限会社,東京都,目黒区,東山３丁目１５番４号メゾンドカナリ３０５,,13,110,1530043,,,2023-12-20,清算の結了等,,,2015-10-05,1,,,,,ティライズ,0
440,2120002012129,登記記録の閉鎖等,0,2023-12-25,2023-12-18,有限会社ミキハチ,,有限会社,大阪府,大阪市平野区,瓜破西１丁目８番８５号,,27,126,5470025,,,2023-12-18,清算の結了等,,,2015-10-05,1,,,,,ミキハチ,0
458,2130005008214,登記記録の閉鎖等,0,2023-12-25,2023-12-22,特定非営利活動法人動物ハート倶楽部,,その他の設立登記法人,京都府,亀岡市,西別院町寺田中大堂谷１番地７３,,26,206,6210123,,,2023-12-22,清算の結了等,,,2015-10-05,1,,,,,,0
459,2130005010533,登記記録の閉鎖等,0,2023-12-25,2023-12-20,特定非営利活動法人ふきのとう,,その他の設立登記法人,京都府,綾部市,岡町長田３番地の１,,26,203,6230042,,,2023-12-20,清算の結了等,,,2015-10-05,1,,,,,フキノトウ,0
460,2140001058360,登記記録の閉鎖等,0,2023-12-25,2023-12-19,カネミツフーズ株式会社,,株式会社,兵庫県,姫路市,城東町竹之門１２番地京口ハイツ２０１,,28,201,6700848,,,2023-12-19,清算の結了等,,,2015-10-05,1,,,,,カネミツフーズ,0
467,2150001010089,登記記録の閉鎖等,0,2023-12-25,2023-12-22,大和不動建設株式会社,,株式会社,奈良県,桜井市,安倍木材団地１丁目１番地の３２,,29,206,6330055,,,2023-12-22,清算の結了等,,,2015-10-05,1,,,,,,0
489,2200002009744,登記記録の閉鎖等,0,2023-12-25,2023-12-20,有限会社フレンド,,有限会社,岐阜県,本巣市,大字曽井中島字宮前１０１７番地の４,,21,218,5010400,,,2023-12-20,合併による解散等,5180001054725,令和５年１２月１日名古屋市緑区南大高四丁目１８０８番地株式会社愛知メディックス（5180001054725）に合併し解散,2015-10-05,1,,,,,フレンド,0
506,2290001035626,登記記録の閉鎖等,0,2023-12-25,2023-12-18,株式会社アミスター,,株式会社,福岡県,福岡市南区,三宅３丁目２番２８－６０４号,,40,134,8111344,,,2023-12-18,清算の結了等,,,2015-10-05,1,,,,,アミスター,0
514,2290001094465,登記記録の閉鎖等,0,2023-12-25,2023-12-15,株式会社邦和香,,株式会社,福岡県,福岡市早良区,百道２丁目７－２６－４０２,,40,137,8140006,,,2023-12-15,清算の結了等,,,2021-09-06,1,,,,,,0
521,2300002000809,登記記録の閉鎖等,0,2023-12-25,2023-12-22,有限会社相互自動車,,有限会社,佐賀県,佐賀市,兵庫町大字若宮１３５番地１,,41,201,8490911,,,2023-12-22,清算の結了等,,,2015-10-05,1,,,,,,0
542,2370002005248,登記記録の閉鎖等,0,2023-12-25,2023-12-22,有限会社柴田節男商店,,有限会社,宮城県,仙台市若林区,大和町２丁目１６番１５号,,04,103,9840042,,,2023-12-22,清算の結了等,,,2015-10-05,1,,,,,シバタセツオショウテン,0
543,2370002006725,登記記録の閉鎖等,0,2023-12-25,2023-12-22,有限会社伊藤金物店,,有限会社,宮城県,仙台市宮城野区,中野字寺前５９番地の１,,04,102,9830013,,,2023-12-22,清算の結了等,,,2015-10-05,1,,,,,イトウカナモノテン,0
544,2380001029346,登記記録の閉鎖等,0,2023-12-25,2023-12-22,株式会社エムティユニットシステム,,株式会社,福島県,本宮市,高木字滝ノ入５１番地６１,,07,214,9691101,,,2023-12-22,清算の結了等,,,2018-08-07,1,,,,,エムティユニットシステム,0
547,2380002015205,登記記録の閉鎖等,0,2023-12-25,2023-12-20,有限会社自然食品の会,,有限会社,福島県,田村郡三春町,字北町１６８番地,,07,521,9637751,,,2023-12-20,清算の結了等,,,2015-10-05,1,,,,,シゼンショクヒンノカイ,0
554,2420005007640,登記記録の閉鎖等,0,2023-12-25,2023-12-20,特定非営利活動法人青森キャリアコンサルティング推進協議会,,その他の設立登記法人,青森県,青森市,北金沢２丁目１９番２０号,,02,201,0300855,,,2023-12-20,清算の結了等,,,2019-09-27,1,,,,,アオモリキャリアコンサルティングスイシンキョウギカイ,0
565,2440002001520,登記記録の閉鎖等,0,2023-12-25,2023-12-21,有限会社コーシン,,有限会社,北海道,函館市,高丘町２６番１１号,,01,202,0420955,,,2023-12-21,清算の結了等,,,2015-10-05,1,,,,,コーシン,0
567,2460402000021,登記記録の閉鎖等,0,2023-12-25,2023-12-22,有限会社イズミ電機,,有限会社,北海道,根室市,緑町３丁目２０番地,,01,223,0870051,,,2023-12-22,清算の結了等,,,2015-10-05,1,,,,,イズミデンキ,0
571,2490002004972,登記記録の閉鎖等,0,2023-12-25,2023-12-22,有限会社水田商事,,有限会社,高知県,高知市,帯屋町１丁目２番１３号,,39,201,7800841,,,2023-12-22,清算の結了等,,,2015-10-05,1,,,,,ミズタショウジ,0
572,2490005000696,登記記録の閉鎖等,0,2023-12-25,2023-12-21,医療法人ふたつやま会,,その他の設立登記法人,高知県,高知市,潮新町１丁目６番３０号,,39,201,7808008,,,2023-12-21,清算の結了等,,,2015-10-05,1,,,,,フタツヤマカイ,0
573,2500001014335,登記記録の閉鎖等,0,2023-12-25,2023-12-20,株式会社新興,,株式会社,愛媛県,四国中央市,三島中央１丁目１番８５号,,38,213,7990405,,,2023-12-20,合併による解散等,2020001001712,令和５年１２月１日横浜市瀬谷区阿久和西三丁目３０番地２株式会社美友（2020001001712）に合併し解散,2015-10-05,1,,,,,シンコウ,0
592,3010401001997,登記記録の閉鎖等,0,2023-12-25,2023-12-18,株式会社アモンズ,,株式会社,東京都,港区,高輪２丁目１－１１－３１７号,,13,103,1080074,,,2023-12-18,清算の結了等,,,2015-10-05,1,,,,,,0
594,3010401128238,登記記録の閉鎖等,0,2023-12-25,2023-12-19,株式会社レンテス,,株式会社,神奈川県,横浜市中区,山下町２８番地２ライオンズプラザ山下公園４０２号室,,14,104,2310023,,,2023-12-19,清算の結了等,,,2016-11-18,1,,,,,レンテス,0
595,3010401128857,登記記録の閉鎖等,0,2023-12-25,2023-12-20,株式会社茂原火力発電所,,株式会社,東京都,千代田区,麹町４丁目５番２１号,,13,101,1020083,,,2023-12-20,清算の結了等,,,2016-12-21,1,,,,,モバラカリョクハツデンショ,0
602,3010501023446,登記記録の閉鎖等,0,2023-12-25,2023-12-19,株式会社ジェー・シー・ティージャパン,,株式会社,東京都,台東区,谷中３丁目５番１２号,,13,106,1100001,,,2023-12-19,清算の結了等,,,2015-10-05,1,,,,,ジェーシーティージャパン,0
607,3010602019418,登記記録の閉鎖等,0,2023-12-25,2023-12-18,有限会社田中彫刻所,,有限会社,東京都,墨田区,押上２丁目２４番１１号,,13,107,1310045,,,2023-12-18,清算の結了等,,,2015-10-05,1,,,,,タナカチョウコクジョ,0
608,3010603010004,登記記録の閉鎖等,0,2023-12-25,2023-12-18,合同会社Ｄ‐Ｌａｂ,,合同会社,東京都,江東区,東雲１丁目１０番１４－７０７号,,13,108,1350062,,,2023-12-18,清算の結了等,,,2023-02-15,1,,,,,ディーラボ,0
617,3010705002056,登記記録の閉鎖等,0,2023-12-25,2023-12-14,特定非営利活動法人八潮ハーモニー,,その他の設立登記法人,東京都,品川区,八潮５丁目４番１７－１１０８号,,13,109,1400003,,,2023-12-14,清算の結了等,,,2015-10-05,1,,,,,ヤシオハーモニー,0
652,3013101003925,登記記録の閉鎖等,0,2023-12-25,2023-12-21,株式会社ニュー多摩,,株式会社,東京都,青梅市,友田町４丁目９０番地,,13,205,1980051,,,2023-12-21,清算の結了等,,,2015-10-05,1,,,,,ニュータマ,0
671,3021002037067,登記記録の閉鎖等,0,2023-12-25,2023-12-20,有限会社安心堂,,有限会社,神奈川県,愛甲郡愛川町,中津１０１０番地の４,,14,401,2430303,,,2023-12-20,清算の結了等,,,2015-10-05,1,,,,,アンシンドウ,0
678,3030001096494,登記記録の閉鎖等,0,2023-12-25,2023-12-19,株式会社ジャムフレンドクラブＣＯ．，ＬＴＤ．,,株式会社,埼玉県,日高市,大字田波目９４１番地１０,,11,242,3501201,,,2023-12-19,合併による解散等,2400001013710,令和５年１２月１日岩手県久慈市田屋町第１地割１４番地１株式会社朝日アセット・マネジメント（2400001013710）に合併し解散,2015-10-05,1,,,,,ジャムフレンドクラブシーオーエルティディ,0
706,3080102003808,登記記録の閉鎖等,0,2023-12-25,2023-12-21,有限会社ライフショップサイトー,,有限会社,静岡県,沼津市,我入道江川１５番地の１,,22,203,4100823,,,2023-12-21,清算の結了等,,,2015-10-05,1,,,,,ライフショップサイトー,0
714,3100002000530,登記記録の閉鎖等,0,2023-12-25,2023-12-19,有限会社いまい,,有限会社,長野県,長野市,大字若槻団地１の１８５番地,,20,201,3810051,,,2023-12-19,清算の結了等,,,2015-10-05,1,,,,,イマイ,0
721,3120001007137,登記記録の閉鎖等,0,2023-12-25,2023-12-18,株式会社岡田ニット,,株式会社,大阪府,大阪市都島区,都島北通２丁目１５番３１号,,27,102,5340014,,,2023-12-18,清算の結了等,,,2015-10-05,1,,,,,オカダニット,0
757,3140002008363,登記記録の閉鎖等,0,2023-12-25,2023-12-20,有限会社金城機械産業,,有限会社,兵庫県,神戸市長田区,菅原通２丁目４番地の１,,28,106,6530015,,,2023-12-20,清算の結了等,,,2015-10-05,1,,,,,カネシロキカイサンギョウ,0
764,3140005024622,登記記録の閉鎖等,0,2023-12-25,2023-12-22,一般社団法人彩羽,,その他の設立登記法人,兵庫県,芦屋市,南宮町五丁目２５,,28,206,6590024,,,2023-12-22,清算の結了等,,,2019-05-10,1,,,,,イロハ,0
766,3150001024856,登記記録の閉鎖等,0,2023-12-25,2023-12-22,株式会社ＲＥＭＡＩＮ,,株式会社,奈良県,生駒市,軽井沢町１番４１－１号,,29,209,6300265,,,2023-12-22,清算の結了等,,,2021-08-12,1,,,,,リメイン,0
768,3160001022982,登記記録の閉鎖等,0,2023-12-25,2023-12-20,株式会社内藤地所,00121691,株式会社,滋賀県,高島市,新旭町饗庭４１４７番地,,25,212,5201531,,,2023-12-20,清算の結了等,,,2020-12-22,1,,,,,ナイトウジショ,0
777,3180001150831,登記記録の閉鎖等,0,2023-12-25,2023-12-20,エボリューション２株式会社,,株式会社,愛知県,名古屋市昭和区,山里町７４番地八事パークマンション１１０５号,,23,107,4660824,,,2023-12-20,清算の結了等,,,2022-04-18,1,,,,,エボリューションツー,0
779,3180002016809,登記記録の閉鎖等,0,2023-12-25,2023-12-20,有限会社ボーグ芝川,,有限会社,愛知県,名古屋市東区,東桜２丁目１１番１８号,,23,102,4610005,,,2023-12-20,清算の結了等,,,2015-10-05,1,,,,,ボーグシバカワ,0
780,3180002062448,登記記録の閉鎖等,0,2023-12-25,2023-12-15,有限会社名研,,有限会社,愛知県,日進市,浅田町森下１１番地の１１,,23,230,4700124,,,2023-12-15,清算の結了等,,,2015-10-05,1,,,,,メイケン,0
782,3180301015049,登記記録の閉鎖等,0,2023-12-25,2023-12-15,株式会社磯貝電機,,株式会社,愛知県,碧南市,築山町１丁目７２番地,,23,209,4470849,,,2023-12-15,清算の結了等,,,2015-10-05,1,,,,,イソガイデンキ,0
786,3200005004270,登記記録の閉鎖等,0,2023-12-25,2023-12-21,養老水道消費生活協同組合,,その他の設立登記法人,岐阜県,養老郡養老町,鷲巣１５６８番地の１０,,21,341,5031261,,,2023-12-21,清算の結了等,,,2015-10-05,1,,,,,ヨウロウスイドウショウヒセイカツ,0
810,3290005007240,登記記録の閉鎖等,0,2023-12-25,2023-12-15,砥上生産森林組合,,その他の設立登記法人,福岡県,朝倉郡筑前町,砥上９８０番地の１,,40,447,8380223,,,2023-12-15,清算の結了等,,,2015-10-05,1,,,,,トガミ,0
820,3330002021660,登記記録の閉鎖等,0,2023-12-25,2023-12-19,有限会社上松総業,,有限会社,熊本県,荒尾市,野原１３６６番地３,,43,204,8640163,,,2023-12-19,清算の結了等,,,2015-10-05,1,,,,,ウエマツソウギョウ,0
827,3370002010858,登記記録の閉鎖等,0,2023-12-25,2023-12-21,有限会社ケイ・エムサービス,,有限会社,宮城県,仙台市青葉区,荒巻本沢２丁目１５番１号,,04,101,9810966,,,2023-12-21,清算の結了等,,,2015-10-05,1,,,,,ケイエムサービス,0
828,3370002020519,登記記録の閉鎖等,0,2023-12-25,2023-12-20,有限会社仙塩電設,,有限会社,宮城県,仙台市宮城野区,蒲生字鍋沼４４番地の２,,04,102,9830002,,,2023-12-20,清算の結了等,,,2015-10-05,1,,,,,センエンデンセツ,0
835,3400002006968,登記記録の閉鎖等,0,2023-12-25,2023-12-20,有限会社ミィデスト,,有限会社,岩手県,紫波郡矢巾町,大字南矢幅第１３地割６０番地３１,,03,322,0283615,,,2023-12-20,清算の結了等,,,2015-10-05,1,,,,,ミィデスト,0
846,3490002012685,登記記録の閉鎖等,0,2023-12-25,2023-12-20,清岡運送有限会社,,有限会社,高知県,安芸郡安田町,大字唐浜３６６番地１,,39,304,7816422,,,2023-12-20,清算の結了等,,,2015-10-05,1,,,,,キヨオカウンソウ,0
848,3500002002032,登記記録の閉鎖等,0,2023-12-25,2023-12-21,有限会社加藤写真館,,有限会社,愛媛県,松山市,小栗６丁目１番２６号,,38,201,7900036,,,2023-12-21,清算の結了等,,,2015-10-05,1,,,,,カトウシャシンカン,0
855,4010001097964,登記記録の閉鎖等,0,2023-12-25,2023-12-18,グループネット株式会社,,株式会社,東京都,港区,南麻布５丁目２番３２号,,13,103,1060047,,,2023-12-18,清算の結了等,,,2015-10-05,1,,,,,グループネット,0
860,4010001155631,登記記録の閉鎖等,0,2023-12-25,2023-12-19,スマートビジネスサービス株式会社,,株式会社,東京都,中央区,日本橋人形町２丁目２１番１０号,,13,102,1030013,,,2023-12-19,清算の結了等,,,2015-10-05,1,,,,,スマートビジネスサービス,0
875,4010401082211,登記記録の閉鎖等,0,2023-12-25,2023-12-18,Ｄｅａｌ　Ｆｉｎｄｅｒ株式会社,,株式会社,東京都,港区,虎ノ門５丁目１３番１号虎ノ門４０ＭＴビル７階,,13,103,1050001,,,2023-12-18,清算の結了等,,,2015-10-05,1,,,,,ディールファインダー,0
877,4010401114831,登記記録の閉鎖等,0,2023-12-25,2023-12-20,株式会社五色橋,,株式会社,東京都,中央区,月島４丁目１４番１１－８０１号,,13,102,1040052,,,2023-12-20,清算の結了等,,,2015-10-05,1,,,,,ゴシキバシ,0
897,4011001157502,登記記録の閉鎖等,0,2023-12-25,2023-12-20,株式会社ＮｅｘＰｕｌｓｅ,,株式会社,東京都,渋谷区,道玄坂１丁目１０番８号渋谷道玄坂東急ビル２Ｆ－Ｃ,,13,113,1500043,,,2023-12-20,清算の結了等,,,2023-10-12,1,,,,,ネクスパルス,0
912,4011601000581,登記記録の閉鎖等,0,2023-12-25,2023-12-21,株式会社イシダエンタープライズ,,株式会社,東京都,練馬区,関町南４丁目２４番１７号,,13,120,1770053,,,2023-12-21,清算の結了等,,,2015-10-05,1,,,,,イシダエンタープライズ,0
926,4012702013976,登記記録の閉鎖等,0,2023-12-25,2023-12-20,有限会社アイ・イー,,有限会社,東京都,東久留米市,柳窪４丁目１２番３２号,,13,222,2030044,,,2023-12-20,清算の結了等,,,2015-10-05,1,,,,,アイイー,0
934,4020002063080,登記記録の閉鎖等,0,2023-12-25,2023-12-19,有限会社ケーシー・カトウ,,有限会社,神奈川県,横浜市泉区,和泉が丘２丁目３１番２９号,,14,116,2450022,,,2023-12-19,清算の結了等,,,2015-10-05,1,,,,,ケーシーカトウ,0
940,4021001044352,登記記録の閉鎖等,0,2023-12-25,2023-12-21,株式会社楠山,,株式会社,神奈川県,横須賀市,神明町１番地４１,,14,201,2390832,,,2023-12-21,清算の結了等,,,2015-10-05,1,,,,,クスヤマ,0
969,4050001017068,登記記録の閉鎖等,0,2023-12-25,2023-12-18,ニューコムテクノ株式会社,,株式会社,東京都,豊島区,東池袋１丁目３４番５号,,13,116,1700013,,,2023-12-18,清算の結了等,,,2015-10-05,1,,,,,ニューコムテクノ,0
971,4050001027001,登記記録の閉鎖等,0,2023-12-25,2023-12-21,株式会社堀江電気,,株式会社,茨城県,常陸大宮市,泉８４７番地の５,,08,225,3192144,,,2023-12-21,清算の結了等,,,2015-10-05,1,,,,,ホリエデンキ,0
986,4100002022202,登記記録の閉鎖等,0,2023-12-25,2023-12-18,有限会社六川豆腐店,,有限会社,長野県,松本市,鎌田１丁目１２番７号,,20,202,3900837,,,2023-12-18,清算の結了等,,,2015-10-05,1,,,,,ロクカワトウフテン,0
1014,4130005009243,登記記録の閉鎖等,0,2023-12-25,2023-12-18,特定非営利活動法人ホンモノづくりプロデューサー開発センター,,その他の設立登記法人,京都府,京田辺市,松井ケ丘１丁目８番地１７,,26,211,6100353,,,2023-12-18,清算の結了等,,,2015-10-05,1,,,,,ホンモノヅクリプロデューサーカイハツセンター,0
1026,4180001012527,登記記録の閉鎖等,0,2023-12-25,2023-12-19,曾我ガラス株式会社,,株式会社,愛知県,名古屋市北区,矢田町１丁目３番地,,23,103,4620812,,,2023-12-19,清算の結了等,,,2015-10-05,1,,,,,ソガガラス,0
1036,4180002013029,登記記録の閉鎖等,0,2023-12-25,2023-12-19,有限会社ワイズ,,有限会社,愛知県,名古屋市千種区,御影町１丁目３５番地の１,,23,101,4640014,,,2023-12-19,清算の結了等,,,2015-10-05,1,,,,,ワイズ,0
1040,4180003016113,登記記録の閉鎖等,0,2023-12-25,2023-12-20,合同会社尾張大文,,合同会社,愛知県,一宮市,泉２丁目１５番地６号,,23,203,4910861,,,2023-12-20,清算の結了等,,,2015-10-05,1,,,,,オワリダイモン,0
1043,4200001005271,登記記録の閉鎖等,0,2023-12-25,2023-12-21,美濃正株式会社,,株式会社,岐阜県,岐阜市,蔵前６丁目１１番１１号,,21,201,5008233,,,2023-12-21,清算の結了等,,,2015-10-05,1,,,,,ミノショウ,0
1045,4200003000361,登記記録の閉鎖等,0,2023-12-25,2023-12-20,合資会社岐阜クリーニング店,,合資会社,岐阜県,岐阜市,白山町３丁目４番地,,21,201,5008172,,,2023-12-20,清算の結了等,,,2015-10-05,1,,,,,ギフクリーニングテン,0
1049,4240001024854,登記記録の閉鎖等,0,2023-12-25,2023-12-19,安芸高田アグリフーズ株式会社,,株式会社,広島県,安芸高田市,八千代町土師６７番地２,,34,214,7310301,,,2023-12-19,清算の結了等,,,2015-10-05,1,,,,,アキタカタアグリフーズ,0
1050,4240002007750,登記記録の閉鎖等,0,2023-12-25,2023-12-19,株式会社新原商会,,株式会社,広島県,広島市安佐南区,西原２丁目２５番４号,,34,105,7310113,,,2023-12-19,清算の結了等,,,2015-10-05,1,,,,,ニイハラショウカイ,0
1052,4250002001091,登記記録の閉鎖等,0,2023-12-25,2023-12-20,有限会社中川屋,,有限会社,山口県,山口市,下竪小路６２番地,,35,203,7530034,,,2023-12-20,清算の結了等,,,2015-10-05,1,,,,,ナカガワヤ,0
1064,4290002049045,登記記録の閉鎖等,0,2023-12-25,2023-12-15,有限会社さか井薬局,,有限会社,福岡県,久留米市,西町１０６１番地の２,,40,203,8300038,,,2023-12-15,清算の結了等,,,2015-10-05,1,,,,,サカイヤッキョク,0
1068,4320002015266,登記記録の閉鎖等,0,2023-12-25,2023-12-20,有限会社国東電子工業,,有限会社,大分県,国東市,国東町重藤３５５番地,,44,214,8730514,,,2023-12-20,清算の結了等,,,2015-10-05,1,,,,,クニサキデンシコウギョウ,0
1078,4360003012556,登記記録の閉鎖等,0,2023-12-25,2023-12-21,合同会社ＨｉｎａｙＨｉｎａｙ,,合同会社,沖縄県,那覇市,牧志２丁目１７―２７―４０１,,47,201,9000013,,,2023-12-21,清算の結了等,,,2022-12-16,1,,,,,ヒナイヒナイ,0
1079,4370003006359,登記記録の閉鎖等,0,2023-12-25,2023-12-19,合同会社ｊｉｍｉｃｈｉ,,合同会社,宮城県,仙台市青葉区,中央２丁目９番１号,,04,101,9800021,,,2023-12-19,合併による解散等,2370001014869,令和５年１２月１９日仙台市青葉区中央二丁目９番１号エドワード・エンターテインメント・グループ株式会社（2370001014869）に合併し解散,2023-11-08,1,,,,,ジミチ,0
1087,4390005007782,登記記録の閉鎖等,0,2023-12-25,2023-12-21,山形中央緑化事業協同組合,,その他の設立登記法人,山形県,寒河江市,中央工業団地１８６番地２,,06,206,9910061,,,2023-12-21,清算の結了等,,,2015-10-05,1,,,,,ヤマガタチュウオウリョクカ,0
1103,4450001000669,登記記録の閉鎖等,0,2023-12-25,2023-12-25,株式会社オービー建設アスベスト事業部,,株式会社,北海道,旭川市,神楽六条１３丁目１番１６号,,01,204,0708006,,,2023-12-25,清算の結了等,,,2015-10-05,1,,,,,オービーケンセツアスベストジギョウブ,0
1122,5010401093991,登記記録の閉鎖等,0,2023-12-25,2023-12-18,株式会社ワイズ,,株式会社,東京都,港区,元赤坂１丁目１番７号,,13,103,1070051,,,2023-12-18,清算の結了等,,,2015-10-05,1,,,,,ワイズ,0
1144,5011101038080,登記記録の閉鎖等,0,2023-12-25,2023-12-20,株式会社ジシック,,株式会社,東京都,新宿区,大京町１２番地４０,,13,104,1600015,,,2023-12-20,清算の結了等,,,2015-10-05,1,,,,,ジシック,0
1154,5011601010687,登記記録の閉鎖等,0,2023-12-25,2023-12-18,株式会社カンパニー,,株式会社,東京都,練馬区,東大泉７丁目５１番２０号,,13,120,1780063,,,2023-12-18,清算の結了等,,,2015-10-05,1,,,,,カンパニー,0
1157,5011801041557,登記記録の閉鎖等,0,2023-12-25,2023-12-20,株式会社フューチャー,,株式会社,東京都,足立区,西新井本町５丁目２番４－１０１号,,13,121,1230845,,,2023-12-20,清算の結了等,,,2022-11-16,1,,,,,フューチャー,0
1164,5013302016220,登記記録の閉鎖等,0,2023-12-25,2023-12-15,有限会社シーエスニセン,,有限会社,東京都,豊島区,南大塚３丁目５２番２号,,13,116,1700005,,,2023-12-15,清算の結了等,,,2015-10-05,1,,,,,シーエスニセン,0
1168,5020001075316,登記記録の閉鎖等,0,2023-12-25,2023-12-19,株式会社プラントプラン,,株式会社,神奈川県,川崎市幸区,中幸町１丁目２９番地,,14,132,2120012,,,2023-12-19,清算の結了等,,,2015-10-05,1,,,,,プラントプラン,0
1177,5020003011649,登記記録の閉鎖等,0,2023-12-25,2023-12-18,エスウォルターズ合同会社,,合同会社,神奈川県,横浜市金沢区,柴町２６２番地,,14,108,2360012,,,2023-12-18,清算の結了等,,,2016-08-05,1,,,,,エスウォルターズ,0
1211,5060002002158,登記記録の閉鎖等,0,2023-12-25,2023-12-18,有限会社大市木材店,,有限会社,栃木県,宇都宮市,長岡町４１０番地１,,09,201,3200004,,,2023-12-18,清算の結了等,,,2015-10-05,1,,,,,オオイチモクザイテン,0
1219,5080105000668,登記記録の閉鎖等,0,2023-12-25,2023-12-21,特定非営利活動法人まごころサービス静岡東部センター,,その他の設立登記法人,静岡県,沼津市,下香貫八重２７番地の６,,22,203,4100822,,,2023-12-21,清算の結了等,,,2015-10-05,1,,,,,マゴコロサービスシズオカトウブセンター,0
1224,5100001029222,登記記録の閉鎖等,0,2023-12-25,2023-12-19,株式会社ＬＯＣＯＴＴＯ,,株式会社,東京都,渋谷区,渋谷２丁目７番５号,,13,113,1500002,,,2023-12-19,清算の結了等,,,2016-04-01,1,,,,,ロコット,0
1226,5110001020584,登記記録の閉鎖等,0,2023-12-25,2023-12-21,直江津メカニカルサービス株式会社,,株式会社,新潟県,上越市,川原町１０番１２号,,15,222,9420065,,,2023-12-21,清算の結了等,,,2015-10-05,1,,,,,ナオエツメカニカルサービス,0
1227,5110002020212,登記記録の閉鎖等,0,2023-12-25,2023-12-20,有限会社池田工業,,有限会社,新潟県,柏崎市,荒浜２丁目１４番２１号,,15,205,9450017,,,2023-12-20,清算の結了等,,,2015-10-05,1,,,,,イケダコウギョウ,0
1235,5120001165841,登記記録の閉鎖等,0,2023-12-25,2023-12-22,テラオカ株式会社,,株式会社,大阪府,大阪市東住吉区,矢田６丁目１番２４号,,27,121,5460023,,,2023-12-22,清算の結了等,,,2015-10-05,1,,,,,テラオカ,0
1277,5140001121842,登記記録の閉鎖等,0,2023-12-25,2023-12-20,株式会社姫路相生不動産,,株式会社,兵庫県,相生市,矢野町真広８１４番地４,,28,208,6780091,,,2023-12-20,合併による解散等,9010003029060,令和５年１２月１５日東京都千代田区内神田二丁目２番６号５階あすな会計事務所内ＡＣ１２合同会社（9010003029060）に合併し解散,2021-06-09,1,,,,,ヒメジアイオイフドウサン,0
1290,5180001117300,登記記録の閉鎖等,0,2023-12-25,2023-12-21,宝人財開発マネジメント株式会社,,株式会社,愛知県,名古屋市熱田区,神宮４丁目７番２７号,,23,109,4560031,,,2023-12-21,合併による解散等,3180001022171,令和５年１２月２１日名古屋市熱田区神宮四丁目７番２７号宝交通株式会社（3180001022171）に合併し解散,2015-10-05,1,,,,,タカラジンザイカイハツマネジメント,0
1300,5180302002317,登記記録の閉鎖等,0,2023-12-25,2023-12-18,ナガタオート有限会社,,有限会社,愛知県,岡崎市,山綱町字天神１８番地４,,23,202,4443513,,,2023-12-18,清算の結了等,,,2015-10-05,1,,,,,ナガタオート,0
1303,5190001018142,登記記録の閉鎖等,0,2023-12-25,2023-12-20,日英鑛油株式会社,,株式会社,三重県,四日市市,浜一色町１１番１号,,24,202,5100031,,,2023-12-20,清算の結了等,,,2023-10-18,1,,,,,ニチエイコウユ,0
1306,5200005009672,登記記録の閉鎖等,0,2023-12-25,2023-12-22,高山食品商業協同組合,,その他の設立登記法人,岐阜県,高山市,七日町３丁目９１番地,,21,203,5060005,,,2023-12-22,清算の結了等,,,2015-10-05,1,,,,,タカヤマショクヒンショウギョウ,0
1310,5220001014889,登記記録の閉鎖等,0,2023-12-25,2023-12-19,株式会社ハッピーウェーブ,,株式会社,石川県,金沢市,田上本町２丁目８３番地１,,17,201,9201155,,,2023-12-19,合併による解散等,3220002009865,令和５年１２月１９日石川県金沢市野町一丁目３番１５号株式会社香林会（3220002009865）に合併し解散,2015-10-05,1,,,,,ハッピーウェーブ,0
1314,5230001006373,登記記録の閉鎖等,0,2023-12-25,2023-12-21,東洋通商株式会社,,株式会社,富山県,富山市,下奥井１丁目２０番１号,,16,201,9300817,,,2023-12-21,清算の結了等,,,2015-10-05,1,,,,,トウヨウツウショウ,0
1316,5230002009433,登記記録の閉鎖等,0,2023-12-25,2023-12-21,有限会社宗巧,,有限会社,富山県,砺波市,太郎丸１丁目１０番７号,,16,208,9391363,,,2023-12-21,清算の結了等,,,2015-10-05,1,,,,,ムネヨシ,0
1323,5260002033728,登記記録の閉鎖等,0,2023-12-25,2023-12-20,有限会社真庭自動車整備工場,,有限会社,岡山県,真庭市,惣１２７番地の５,,33,214,7193204,,,2023-12-20,清算の結了等,,,2015-10-05,1,,,,,マニワジドウシャセイビコウジョウ,0
1327,5290001057849,登記記録の閉鎖等,0,2023-12-25,2023-12-18,株式会社スリーピースカンパニー,,株式会社,福岡県,福岡市博多区,博多駅南１丁目３番８号,,40,132,8120016,,,2023-12-18,清算の結了等,,,2015-10-05,1,,,,,,0
1351,5370002010154,登記記録の閉鎖等,0,2023-12-25,2023-12-21,有限会社大友製本所,,有限会社,宮城県,仙台市青葉区,木町５番２９号,,04,101,9810932,,,2023-12-21,清算の結了等,,,2015-10-05,1,,,,,オオトモセイホンジョ,0
1358,5410002007047,登記記録の閉鎖等,0,2023-12-25,2023-12-20,有限会社和清,,有限会社,秋田県,由利本荘市,岩城亀田大町字大町２番地,,05,210,0181218,,,2023-12-20,清算の結了等,,,2015-10-05,1,,,,,ワセイ,0
1363,5430001009802,登記記録の閉鎖等,0,2023-12-25,2023-12-15,大陸産業設備株式会社,,株式会社,北海道,札幌市東区,北四十四条東１丁目２番２８号,,01,103,0070844,,,2023-12-15,清算の結了等,,,2015-10-05,1,,,,,,0
1374,5480001010029,登記記録の閉鎖等,0,2023-12-25,2023-12-21,株式会社ゴールド,,株式会社,徳島県,徳島市,栄町２丁目２１－３０２,,36,201,7700921,,,2023-12-21,清算の結了等,,,2017-05-30,1,,,,,ゴールド,0
1378,5490002010712,登記記録の閉鎖等,0,2023-12-25,2023-12-19,有限会社秀和商事,,有限会社,高知県,高岡郡中土佐町,久礼６６６７番地１,,39,401,7891301,,,2023-12-19,合併による解散等,5490001007783,令和５年１２月１９日高知県高岡郡中土佐町久礼６６６７番地１愛が鍾まる株式会社（5490001007783）に合併し解散,2015-10-05,1,,,,,シュウワショウジ,0
1396,6010002045441,登記記録の閉鎖等,0,2023-12-25,2023-12-20,有限会社試論社,,有限会社,東京都,文京区,小石川５丁目１０番１７号,,13,105,1120002,,,2023-12-20,清算の結了等,,,2015-10-05,1,,,,,シロンシャ,0
1401,6010401018997,登記記録の閉鎖等,0,2023-12-25,2023-12-15,株式会社藤蔭会,,株式会社,東京都,港区,六本木５丁目８番４号,,13,103,1060032,,,2023-12-15,清算の結了等,,,2015-10-05,1,,,,,トウインカイ,0
1410,6010405014431,登記記録の閉鎖等,0,2023-12-25,2023-12-21,一般社団法人クラウド活用・地域ＩＣＴ投資促進協議会,,その他の設立登記法人,東京都,中央区,築地２丁目１番１７号,,13,102,1040045,,,2023-12-21,清算の結了等,,,2015-12-22,1,,,,,クラウドカツヨウチイキアイシーティートウシソクシンキョウギカイ,0
1428,6010802013960,登記記録の閉鎖等,0,2023-12-25,2023-12-19,有限会社ミクロ精機,,有限会社,東京都,大田区,多摩川２丁目５番６号,,13,111,1460095,,,2023-12-19,清算の結了等,,,2015-10-05,1,,,,,ミクロセイキ,0
1430,6010903004693,登記記録の閉鎖等,0,2023-12-25,2023-12-14,ｍｕｒａｓａｋｉ合同会社,,合同会社,東京都,世田谷区,玉堤１丁目５番２２号,,13,112,1580087,,,2023-12-14,清算の結了等,,,2018-12-07,1,,,,,ムラサキ,0
1455,6011403002832,登記記録の閉鎖等,0,2023-12-25,2023-12-21,合同会社ＬＥＭ,,合同会社,神奈川県,横浜市青葉区,荏田西１丁目１２番３４号ヒルズ市ヶ尾ビューステージ１０９,,14,117,2250014,,,2023-12-21,清算の結了等,,,2019-11-13,1,,,,,レム,0
1456,6011501023813,登記記録の閉鎖等,0,2023-12-25,2023-12-20,株式会社星の環会,,株式会社,東京都,北区,東十条３丁目１０番３６号,,13,117,1140001,,,2023-12-20,清算の結了等,,,2018-06-19,1,,,,,ホシノワカイ,0
1477,6020001106994,登記記録の閉鎖等,0,2023-12-25,2023-12-18,株式会社ＵＮＩＴＥＤグループ,,株式会社,神奈川県,川崎市川崎区,浜町２丁目２６番１－６０４号ラパントヴォリューム,,14,131,2100851,,,2023-12-18,清算の結了等,,,2015-10-05,1,,,,,ユナイテッドグループ,0
1485,6021001017876,登記記録の閉鎖等,0,2023-12-25,2023-12-14,株式会社まる松,,株式会社,東京都,町田市,野津田町３０６８番地４,,13,209,1950063,,,2023-12-14,清算の結了等,,,2015-10-05,1,,,,,マルマツ,0
1522,6060001012413,登記記録の閉鎖等,0,2023-12-25,2023-12-19,ヒューマングリーン株式会社,,株式会社,栃木県,那須郡那須町,大字高久乙７９６番地３７,,09,407,3250303,,,2023-12-19,清算の結了等,,,2015-10-05,1,,,,,ヒューマングリーン,0
1529,6080001008401,登記記録の閉鎖等,0,2023-12-25,2023-12-21,静岡油機株式会社,,株式会社,静岡県,静岡市清水区,駒越中２丁目１番６４号,,22,103,4240904,,,2023-12-21,清算の結了等,,,2015-10-05,1,,,,,,0
1532,6080401024122,登記記録の閉鎖等,0,2023-12-25,2023-12-20,株式会社ＲＥ－ＢＯＯＴ,,株式会社,静岡県,浜松市中区,高丘北１丁目１番１号アーバンシティ浜松高丘４０５号,,22,131,4338119,,,2023-12-20,清算の結了等,,,2020-02-12,1,,,,,リブート,0
1556,6122001031130,登記記録の閉鎖等,0,2023-12-25,2023-12-22,株式会社Ｍ＆Ｙ・Ｔｒａｎｓｐｏｒｔ,,株式会社,大阪府,東大阪市,吉田本町３丁目６番２０号セワール吉田６０８号,,27,227,5780982,,,2023-12-22,清算の結了等,,,2017-11-21,1,,,,,エムアンドワイトランスポート,0
1565,6140001050883,登記記録の閉鎖等,0,2023-12-25,2023-12-20,光計装株式会社,,株式会社,兵庫県,尼崎市,東園田町４丁目４５番地２,,28,202,6610953,,,2023-12-20,清算の結了等,,,2015-10-05,1,,,,,ヒカリケイソウ,0
1567,6140002059016,登記記録の閉鎖等,0,2023-12-25,2023-12-20,有限会社シンキ建築サービス,,有限会社,兵庫県,西宮市,甲子園洲鳥町８番３１号,,28,204,6638151,,,2023-12-20,清算の結了等,,,2015-10-05,1,,,,,シンキケンチクサービス,0
1569,6170001009638,登記記録の閉鎖等,0,2023-12-25,2023-12-22,株式会社ネクスト・トランスポート,,株式会社,和歌山県,田辺市,文里１丁目１番２０号,,30,206,6460023,,,2023-12-22,清算の結了等,,,2015-10-05,1,,,,,ネクストトランスポート,0
1578,6180002048584,登記記録の閉鎖等,0,2023-12-25,2023-12-19,有限会社小栗,,有限会社,愛知県,名古屋市瑞穂区,宝田町５丁目８番地,,23,108,4670866,,,2023-12-19,清算の結了等,,,2015-10-05,1,,,,,オグリ,0
1579,6180003021375,登記記録の閉鎖等,0,2023-12-25,2023-12-21,合同会社たつま,,合同会社,愛知県,名古屋市守山区,小幡４丁目１番２０号,,23,113,4630011,,,2023-12-21,清算の結了等,,,2020-07-14,1,,,,,タツマ,0
1591,6200001010740,登記記録の閉鎖等,0,2023-12-25,2023-12-21,一柳毛織株式会社,,株式会社,岐阜県,羽島市,竹鼻町１５１５番地,,21,209,5016241,,,2023-12-21,清算の結了等,,,2015-10-05,1,,,,,イチヤナギケオリ,0
1599,6220002011455,登記記録の閉鎖等,0,2023-12-25,2023-12-21,有限会社エッチ・ビー・ピー建築工房,,有限会社,石川県,能美市,大長野町リ４０番地１,,17,211,9231115,,,2023-12-21,清算の結了等,,,2015-10-05,1,,,,,エッチビーピーケンチクコウボウ,0
1604,6240002031220,登記記録の閉鎖等,0,2023-12-25,2023-12-19,有限会社村田設備,,有限会社,広島県,安芸高田市,吉田町吉田３７９６番地の３,,34,214,7310501,,,2023-12-19,清算の結了等,,,2015-10-05,1,,,,,ムラタセツビ,0
1605,6260001003656,登記記録の閉鎖等,0,2023-12-25,2023-12-20,セイレイトータルサービス株式会社,,株式会社,岡山県,岡山市中区,江並４２０番地の１,,33,102,7028004,,,2023-12-20,合併による解散等,2120001099753,令和５年１２月１日滋賀県長浜市三和町７番３５号ヤンマーロジスティクス株式会社（2120001099753）に合併し解散,2015-10-05,1,,,,,セイレイトータルサービス,0
1608,6260002028140,登記記録の閉鎖等,0,2023-12-25,2023-12-21,有限会社キムラ手芸服飾,,有限会社,岡山県,津山市,元魚町３番地,,33,203,7080061,,,2023-12-21,清算の結了等,,,2015-10-05,1,,,,,キムラシュゲイフクショク,0
1622,6290802006862,登記記録の閉鎖等,0,2023-12-25,2023-12-22,有限会社吉丸設備工業所,,有限会社,福岡県,北九州市小倉南区,朽網東２丁目８番２６号,,40,107,8000232,,,2023-12-22,清算の結了等,,,2015-10-05,1,,,,,ヨシマルセツビコウギョウショ,0
1623,6300001006852,登記記録の閉鎖等,0,2023-12-25,2023-12-20,鳥栖シヤッター株式会社,,株式会社,佐賀県,鳥栖市,村田町１７番地７,,41,203,8410072,,,2023-12-20,清算の結了等,,,2015-10-05,1,,,,,トスシャッター,0
1629,6320002008887,登記記録の閉鎖等,0,2023-12-25,2023-12-22,ユニコエンタープライズ有限会社,,有限会社,大分県,別府市,大字鶴見４２４５番地の２６,,44,202,8740840,,,2023-12-22,清算の結了等,,,2015-10-05,1,,,,,ユニコエンタープライズ,0
1630,6320002011412,登記記録の閉鎖等,0,2023-12-25,2023-12-21,有限会社サンアイ,,有限会社,大分県,別府市,上田の湯町１７番１７号,,44,202,8740908,,,2023-12-21,清算の結了等,,,2015-10-05,1,,,,,サンアイ,0
1633,6330003000446,登記記録の閉鎖等,0,2023-12-25,2023-12-19,合資会社西興,,合資会社,熊本県,熊本市東区,湖東３丁目１２番３４号,,43,102,8620909,,,2023-12-19,清算の結了等,,,2015-10-05,1,,,,,セイコウ,0
1649,6390002013690,登記記録の閉鎖等,0,2023-12-25,2023-12-06,有限会社芳賀不動産,,有限会社,山形県,米沢市,大町１丁目１番１５号,,06,202,9920031,,,2023-12-06,清算の結了等,,,2015-10-05,1,,,,,ハガフドウサン,0
1659,6430002065315,登記記録の閉鎖等,0,2023-12-25,2023-12-15,有限会社ゴトウ塗装,,有限会社,北海道,登別市,新川町４丁目３９番地１５,,01,230,0590015,,,2023-12-15,清算の結了等,,,2015-10-05,1,,,,,ゴトウトソウ,0
1662,6430005013799,登記記録の閉鎖等,0,2023-12-25,2023-12-19,一般社団法人日本アースケア協会,,その他の設立登記法人,北海道,札幌市豊平区,平岸七条１４丁目２番１７号,,01,105,0620937,,,2023-12-19,清算の結了等,,,2019-11-01,1,,,,,ニホンアースケアキョウカイ,0
1671,7010001135647,登記記録の閉鎖等,0,2023-12-25,2023-12-20,株式会社ユニパーツ,,株式会社,東京都,足立区,梅田８丁目１２番１号,,13,121,1230851,,,2023-12-20,清算の結了等,,,2015-10-05,1,,,,,ユニパーツ,0
1684,7010005022503,登記記録の閉鎖等,0,2023-12-25,2023-12-21,一般社団法人ミコノスホールディングス,,その他の設立登記法人,東京都,千代田区,丸の内３丁目１番１号東京共同会計事務所内,,13,101,1000005,,,2023-12-21,清算の結了等,,,2015-10-05,1,,,,,ミコノスホールディングス,0
1690,7010401140701,登記記録の閉鎖等,0,2023-12-25,2023-12-18,Ｏｘｆｏｒｄ　Ｐｅｒｆｏｒｍａｎｃｅ　Ｍａｔｅｒｉａｌｓ　Ｊａｐａｎ株式会社,,株式会社,東京都,港区,東新橋１丁目９番２号,,13,103,1050021,,,2023-12-18,清算の結了等,,,2018-09-20,1,,,,,オックスフォードパフォーマンスマテリアルズジャパン,0
1699,7010805002646,登記記録の閉鎖等,0,2023-12-25,2023-12-20,一般社団法人哲平,,その他の設立登記法人,東京都,大田区,蒲田２丁目２２番１２号,,13,111,1440052,,,2023-12-20,清算の結了等,,,2019-03-08,1,,,,,テッペイ,0
1717,7011005000614,登記記録の閉鎖等,0,2023-12-25,2023-12-20,医療法人社団晴梢会,,その他の設立登記法人,東京都,渋谷区,上原１丁目２３番１号地下１階、１階及び２階,,13,113,1510064,,,2023-12-20,清算の結了等,,,2015-10-05,1,,,,,セイショウカイ,0
1722,7011401007881,登記記録の閉鎖等,0,2023-12-25,2023-12-14,株式会社けんせつパーク,,株式会社,東京都,板橋区,高島平５丁目４０番８号,,13,119,1750082,,,2023-12-14,合併による解散等,7011401024274,令和５年１２月１日東京都板橋区高島平五丁目４０番８号株式会社パークホールディングス（7011401024274）に合併し解散,2015-10-05,1,,,,,ケンセツパーク,0
1731,7011801006698,登記記録の閉鎖等,0,2023-12-25,2023-12-21,株式会社奥山唐華堂,00056976,株式会社,東京都,足立区,鹿浜８丁目２０番４号,,13,121,1230864,,,2023-12-21,清算の結了等,,,2015-10-05,1,,,,,オクヤマトウカドウ,0
1736,7012401008952,登記記録の閉鎖等,0,2023-12-25,2023-12-19,エヌケーハウザー株式会社,,株式会社,東京都,狛江市,和泉本町１丁目３６番３－３１７号,,13,219,2010003,,,2023-12-19,清算の結了等,,,2015-10-05,1,,,,,エヌケーハウザー,0
1745,7020005014516,登記記録の閉鎖等,0,2023-12-25,2023-12-05,一般社団法人イレーネ,,その他の設立登記法人,神奈川県,横浜市港北区,下田町６丁目２番１－２０１号,,14,109,2230064,,,2023-12-05,清算の結了等,,,2020-01-23,1,,,,,イレーネ,0
1746,7021001022818,登記記録の閉鎖等,0,2023-12-25,2023-12-20,株式会社まるだい,,株式会社,神奈川県,秦野市,下大槻１９４番地,,14,211,2570004,,,2023-12-20,清算の結了等,,,2015-10-05,1,,,,,マルダイ,0
1747,7021001024616,登記記録の閉鎖等,0,2023-12-25,2023-12-20,株式会社香緑商事,,株式会社,神奈川県,鎌倉市,常盤６２０番地,,14,204,2480022,,,2023-12-20,清算の結了等,,,2015-10-05,1,,,,,,0
1752,7021002052228,登記記録の閉鎖等,0,2023-12-25,2023-12-20,有限会社セイショウシステム,,有限会社,神奈川県,小田原市,小竹５８６番地の５８,,14,206,2560802,,,2023-12-20,清算の結了等,,,2015-10-05,1,,,,,,0
1757,7030001117866,登記記録の閉鎖等,0,2023-12-25,2023-12-20,マインドテクノ株式会社,,株式会社,埼玉県,川越市,大字福田１６２番地１,,11,201,3500821,,,2023-12-20,清算の結了等,,,2017-01-04,1,,,,,マインドテクノ,0
1768,7040003017485,登記記録の閉鎖等,0,2023-12-25,2023-12-18,合同会社ＳＴＡＲ　ＷＯＲＬＤ,,合同会社,千葉県,四街道市,栗山２６６－３４中村ハイツ１０１号,,12,228,2840027,,,2023-12-18,清算の結了等,,,2021-04-12,1,,,,,スターワールド,0
1779,7080101006519,登記記録の閉鎖等,0,2023-12-25,2023-12-22,株式会社トミック,,株式会社,静岡県,三島市,川原ケ谷２３０番地の３ＪＭビル２０２,,22,206,4110022,,,2023-12-22,清算の結了等,,,2015-10-05,1,,,,,トミック,0
1786,7120001036215,登記記録の閉鎖等,0,2023-12-25,2023-12-15,株式会社日吉鉄工所,,株式会社,大阪府,大阪市福島区,海老江３丁目４番２２号,,27,103,5530001,,,2023-12-15,清算の結了等,,,2015-10-05,1,,,,,ヒヨシテッコウショ,0
1802,7120003008154,登記記録の閉鎖等,0,2023-12-25,2023-12-22,合同会社大阪史学総合研究所,,合同会社,大阪府,大阪市鶴見区,鶴見３丁目１２番１０－４０５号,,27,124,5380053,,,2023-12-22,清算の結了等,,,2015-10-05,1,,,,,オオサカシガクソウゴウケンキュウショ,0
1824,7140002015034,登記記録の閉鎖等,0,2023-12-25,2023-12-20,有限会社点洋商事,,有限会社,兵庫県,神戸市中央区,生田町２丁目２番５号５－Ｃ,,28,110,6510092,,,2023-12-20,清算の結了等,,,2015-10-05,1,,,,,テンヨウショウジ,0
1827,7150001004887,登記記録の閉鎖等,0,2023-12-25,2023-12-22,株式会社昭和,,株式会社,奈良県,生駒市,北田原町２４４３番地の１,,29,209,6300142,,,2023-12-22,清算の結了等,,,2015-10-05,1,,,,,,0
1839,7180001134954,登記記録の閉鎖等,0,2023-12-25,2023-12-19,株式会社ＧＵＴＳ　ＰＬＵＳ,,株式会社,愛知県,名古屋市千種区,星が丘元町１５番２１号第二ことひらビル４階,,23,101,4640802,,,2023-12-19,清算の結了等,,,2019-01-08,1,,,,,ガッツプラス,0
1848,7180302014830,登記記録の閉鎖等,0,2023-12-25,2023-12-18,有限会社ｌｉｆｅオアシス,,有限会社,愛知県,豊川市,蔵子５丁目１５番地１４,,23,207,4420842,,,2023-12-18,清算の結了等,,,2015-10-05,1,,,,,ライフオアシス,0
1851,7220001001035,登記記録の閉鎖等,0,2023-12-25,2023-12-21,株式会社飯田商店,,株式会社,石川県,金沢市,駅西本町５丁目３番４５号,,17,201,9200025,,,2023-12-21,清算の結了等,,,2015-10-05,1,,,,,イイダショウテン,0
1879,7310005003712,登記記録の閉鎖等,0,2023-12-25,2023-12-21,特定非営利活動法人ほほえみ佐世保,,その他の設立登記法人,長崎県,佐世保市,知見寺町２９２番地４,,42,202,8570101,,,2023-12-21,清算の結了等,,,2015-10-05,1,,,,,ホホエミサセボ,0
1885,7360001026002,登記記録の閉鎖等,0,2023-12-25,2023-12-20,株式会社ＢＡＳＥ沖縄野球球団,,株式会社,沖縄県,宜野湾市,字大謝名８５－５ＭＩＮＥＢｌｄｇ３－Ｂ,,47,205,9012225,,,2023-12-20,清算の結了等,,,2019-08-02,1,,,,,ベイスオキナワヤキュウキュウダン,0
1893,7370002000673,登記記録の閉鎖等,0,2023-12-25,2023-12-21,有限会社工藤産業,,有限会社,宮城県,仙台市泉区,高森５丁目１８番地の１,,04,105,9813203,,,2023-12-21,清算の結了等,,,2015-10-05,1,,,,,クドウサンギョウ,0
1921,7450001002068,登記記録の閉鎖等,0,2023-12-25,2023-12-21,株式会社タニワキ運輸,,株式会社,北海道,旭川市,永山九条１丁目１番２１号,,01,204,0798419,,,2023-12-21,清算の結了等,,,2015-10-05,1,,,,,タニワキウンユ,0
1922,7460002000706,登記記録の閉鎖等,0,2023-12-25,2023-12-21,有限会社木村水産,,有限会社,北海道,釧路郡釧路町,北見団地２丁目２８番地,,01,661,0880625,,,2023-12-21,清算の結了等,,,2015-10-05,1,,,,,キムラスイサン,0
1932,7500002009866,登記記録の閉鎖等,0,2023-12-25,2023-12-21,愛媛土地有限会社,,有限会社,愛媛県,伊予郡松前町,大字中川原１０７０番地１,,38,401,7913164,,,2023-12-21,清算の結了等,,,2015-10-05,1,,,,,エヒメトチ,0
1951,8010005031354,登記記録の閉鎖等,0,2023-12-25,2023-12-21,一般社団法人アンクレット,,その他の設立登記法人,東京都,千代田区,丸の内３丁目１番１号東京共同会計事務所内,,13,101,1000005,,,2023-12-21,清算の結了等,,,2020-01-28,1,,,,,アンクレット,0
1977,8011102001448,登記記録の閉鎖等,0,2023-12-25,2023-12-20,有限会社魚竹,,有限会社,東京都,新宿区,左門町１番地,,13,104,1600017,,,2023-12-20,清算の結了等,,,2015-10-05,1,,,,,ウオタケ,0
1992,8011502000099,登記記録の閉鎖等,0,2023-12-25,2023-12-18,有限会社愛電社工業所,,有限会社,東京都,北区,田端新町２丁目１４番７号,,13,117,1140012,,,2023-12-18,清算の結了等,,,2015-10-05,1,,,,,アイデンシャコウギョウショ,0
2018,8021001006274,登記記録の閉鎖等,0,2023-12-25,2023-12-20,カントーテクノ株式会社,,株式会社,神奈川県,高座郡寒川町,一之宮９丁目３番１６号,,14,321,2530111,,,2023-12-20,清算の結了等,,,2015-10-05,1,,,,,カントーテクノ,0
2025,8021002038250,登記記録の閉鎖等,0,2023-12-25,2023-12-21,有限会社鳶加藤,,有限会社,神奈川県,秦野市,平沢１４１５番地,,14,211,2570015,,,2023-12-21,清算の結了等,,,2015-10-05,1,,,,,トビカトウ,0
2026,8021002068487,登記記録の閉鎖等,0,2023-12-25,2023-12-20,株式会社珠生,,株式会社,神奈川県,逗子市,小坪１丁目１番３号,,14,208,2490008,,,2023-12-20,清算の結了等,,,2015-10-05,1,,,,,タマキ,0
2036,8030001116982,登記記録の閉鎖等,0,2023-12-25,2023-12-20,ライズトーン株式会社,,株式会社,埼玉県,さいたま市西区,大字指扇２６２番地７,,11,101,3310047,,,2023-12-20,清算の結了等,,,2016-10-31,1,,,,,ライズトーン,0
2041,8030003012528,登記記録の閉鎖等,0,2023-12-25,2023-12-08,Ｓｕｎ＆Ｗｉｎｄ合同会社,,合同会社,埼玉県,さいたま市浦和区,神明２丁目１６番８号,,11,107,3300065,,,2023-12-08,合併による解散等,1030003014217,令和５年１２月８日埼玉県さいたま市浦和区神明二丁目１６番８号ＡｌｌＦｏｒＯｎｅ合同会社（1030003014217）に合併し解散,2018-10-10,1,,,,,サンアンドウィンド,0
2052,8040002074650,登記記録の閉鎖等,0,2023-12-25,2023-12-15,有限会社日本テクノス,,有限会社,千葉県,市原市,惣社５丁目７番地１４,,12,219,2900023,,,2023-12-15,清算の結了等,,,2015-10-05,1,,,,,ニホンテクノス,0
2053,8050001005944,登記記録の閉鎖等,0,2023-12-25,2023-12-20,株式会社江章,,株式会社,茨城県,水戸市,川又町１８４３番地１,,08,201,3111112,,,2023-12-20,清算の結了等,,,2015-10-05,1,,,,,コウショウ,0
2071,8070002026962,登記記録の閉鎖等,0,2023-12-25,2023-12-21,有限会社森田鉄工所,,有限会社,群馬県,北群馬郡吉岡町,大字北下４６７番地の１,,10,345,3703605,,,2023-12-21,清算の結了等,,,2015-10-05,1,,,,,モリタテッコウジョ,0
2073,8080402019615,登記記録の閉鎖等,0,2023-12-25,2023-12-21,有限会社櫻井自動車,,有限会社,静岡県,磐田市,今之浦２丁目１１番地の５,,22,211,4380071,,,2023-12-21,清算の結了等,,,2015-10-05,1,,,,,サクライジドウシャ,0
2077,8110003003873,登記記録の閉鎖等,0,2023-12-25,2023-12-21,合同会社ＪＥＴ,,合同会社,新潟県,見附市,学校町２丁目４番３８号,,15,211,9540052,,,2023-12-21,清算の結了等,,,2019-03-06,1,,,,,ジェット,0
2098,8120902015489,登記記録の閉鎖等,0,2023-12-25,2023-12-20,有限会社田中板金,,有限会社,大阪府,箕面市,箕面４丁目８番１５号の３,,27,220,5620001,,,2023-12-20,清算の結了等,,,2015-10-05,1,,,,,タナカバンキン,0
2100,8130001034456,登記記録の閉鎖等,0,2023-12-25,2023-12-21,株式会社センケイ整体院,,株式会社,奈良県,奈良市,柏木町３９３番地の８,,29,201,6308031,,,2023-12-21,清算の結了等,,,2015-10-05,1,,,,,センケイセイタイイン,0
2116,8160001006948,登記記録の閉鎖等,0,2023-12-25,2023-12-21,原商事株式会社,,株式会社,滋賀県,長浜市,四ツ塚町１１９番地の４,,25,203,5260041,,,2023-12-21,清算の結了等,,,2015-10-05,1,,,,,ハラショウジ,0
2132,8180001120937,登記記録の閉鎖等,0,2023-12-25,2023-12-19,株式会社みらい電力,,株式会社,東京都,港区,虎ノ門１丁目２番８号リニューアブル・ジャパン株式会社内,,13,103,1050001,,,2023-12-19,清算の結了等,,,2015-11-11,1,,,,,ミライデンリョク,0
2178,8310001006247,登記記録の閉鎖等,0,2023-12-25,2023-12-20,株式会社田崎商店,00095699,株式会社,長崎県,東彼杵郡波佐見町,湯無田郷１２１６番地,,42,323,8593702,,,2023-12-20,清算の結了等,,,2015-10-05,1,,,,,タサキショウテン,0
2181,8320005009856,登記記録の閉鎖等,0,2023-12-25,2023-12-18,企業組合藍彩,,その他の設立登記法人,大分県,佐伯市,大字上岡２００８番地１,,44,205,8760045,,,2023-12-18,清算の結了等,,,2021-01-29,1,,,,,アイサイ,0
2184,8340001009651,登記記録の閉鎖等,0,2023-12-25,2023-12-22,株式会社蓑田組,,株式会社,鹿児島県,鹿児島市,下田町５８５番地,,46,201,8920873,,,2023-12-22,清算の結了等,,,2015-10-05,1,,,,,ミノダグミ,0
2197,8370001048135,登記記録の閉鎖等,0,2023-12-25,2023-12-19,株式会社ＳＴＢＱ　Ｌａｂ．,,株式会社,宮城県,仙台市青葉区,国分町３丁目８番２９号ＰＩＢＲＯ４Ｆ,,04,101,9800803,,,2023-12-19,清算の結了等,,,2022-01-28,1,,,,,エスティービーキューラボ,0
2213,8400002002491,登記記録の閉鎖等,0,2023-12-25,2023-12-20,有限会社ソフトフォーユー,,有限会社,岩手県,盛岡市,西青山２丁目１８番５１号,,03,201,0200132,,,2023-12-20,清算の結了等,,,2015-10-05,1,,,,,ソフトフオーユー,0
2216,8420001011137,登記記録の閉鎖等,0,2023-12-25,2023-12-21,十和田水道設備株式会社,,株式会社,青森県,十和田市,西三番町２１番７号,,02,206,0340083,,,2023-12-21,清算の結了等,,,2015-10-05,1,,,,,,0
2218,8430001069348,登記記録の閉鎖等,0,2023-12-25,2023-12-15,株式会社イトム建設,,株式会社,北海道,札幌市中央区,南二条西１２丁目３２４番地１１,,01,101,0600062,,,2023-12-15,合併による解散等,1430001073372,令和５年１２月１日札幌市中央区南一条西十一丁目１番地株式会社リホームエース（1430001073372）に合併し解散,2015-10-05,1,,,,,イトムケンセツ,0
2232,9010001148556,登記記録の閉鎖等,0,2023-12-25,2023-12-20,ｅ－ＬＡＢ株式会社,,株式会社,東京都,文京区,本郷３丁目５番１２号,,13,105,1130033,,,2023-12-20,清算の結了等,,,2015-10-05,1,,,,,イーラボ,0
2262,9010801010279,登記記録の閉鎖等,0,2023-12-25,2023-12-20,フジテクノ株式会社,,株式会社,東京都,大田区,下丸子２丁目２５番３号,,13,111,1460092,,,2023-12-20,清算の結了等,,,2015-10-05,1,,,,,フジテクノ,0
2271,9011101004731,登記記録の閉鎖等,0,2023-12-25,2023-12-20,株式会社金商,,株式会社,東京都,新宿区,下落合４丁目２１番６号,,13,104,1610033,,,2023-12-20,清算の結了等,,,2015-10-05,1,,,,,キンショウ,0
2273,9011102006108,登記記録の閉鎖等,0,2023-12-25,2023-12-15,有限会社七宝プランナー,,有限会社,東京都,新宿区,西早稲田３丁目２９番１２号,,13,104,1690051,,,2023-12-15,清算の結了等,,,2015-10-05,1,,,,,シチホウプランナー,0
2275,9011103005752,登記記録の閉鎖等,0,2023-12-25,2023-12-20,合同会社セブンスター１,,合同会社,東京都,新宿区,四谷２丁目９番地１５あると綜合事務所内,,13,104,1600004,,,2023-12-20,清算の結了等,,,2015-10-05,1,,,,,セブンスターワン,0
2276,9011201002362,登記記録の閉鎖等,0,2023-12-25,2023-12-21,信成運輸株式会社,,株式会社,東京都,中野区,本町２丁目２４番５号,,13,114,1640012,,,2023-12-21,清算の結了等,,,2015-10-05,1,,,,,シンセイウンユ,0
2280,9011402009149,登記記録の閉鎖等,0,2023-12-25,2023-12-21,有限会社山崎商会,,有限会社,東京都,板橋区,赤塚４丁目１９番５号,00066329,13,119,1750092,,,2023-12-21,清算の結了等,,,2015-10-05,1,,,,,ヤマザキショウカイ,0
2285,9011701020467,登記記録の閉鎖等,0,2023-12-25,2023-12-18,株式会社三実インターナショナルセキュリティ,,株式会社,埼玉県,南埼玉郡宮代町,百間４丁目３番２９－９号,,11,442,3450801,,,2023-12-18,清算の結了等,,,2017-01-04,1,,,,,ミツミインターナショナルセキュリティ,0
2290,9012701000509,登記記録の閉鎖等,0,2023-12-25,2023-12-20,株式会社スポーツかみなが,,株式会社,東京都,小平市,学園西町２丁目１２番３３号,,13,211,1870045,,,2023-12-20,清算の結了等,,,2015-10-05,1,,,,,,0
2297,9020001021992,登記記録の閉鎖等,0,2023-12-25,2023-12-18,株式会社矢崎製作所,,株式会社,神奈川県,横浜市港北区,樽町４丁目１５番１９号,,14,109,2220001,,,2023-12-18,清算の結了等,,,2015-10-05,1,,,,,ヤザキセイサクショ,0
2301,9020001147078,登記記録の閉鎖等,0,2023-12-25,2023-12-19,進生商事株式会社,,株式会社,神奈川県,横浜市港北区,新横浜３丁目７番地１８日総第１８ビルエキスパートオフィス新横浜７１１,,14,109,2220033,,,2023-12-19,清算の結了等,,,2022-06-28,1,,,,,シンセイショウジ,0
2326,9030002052870,登記記録の閉鎖等,0,2023-12-25,2023-12-12,有限会社村岡製作所,,有限会社,埼玉県,三郷市,栄３丁目２９０番１,,11,237,3410043,,,2023-12-12,清算の結了等,,,2015-10-05,1,,,,,ムラオカセイサクショ,0
2327,9030002057985,登記記録の閉鎖等,0,2023-12-25,2023-12-19,有限会社バリューサポート,,有限会社,埼玉県,上尾市,愛宕３丁目１番４０号,,11,219,3620034,,,2023-12-19,清算の結了等,,,2015-10-05,1,,,,,バリューサポート,0
2346,9070001036945,登記記録の閉鎖等,0,2023-12-25,2023-12-20,株式会社正田みらい塾,,株式会社,群馬県,前橋市,岩神町１丁目９番１２号,,10,201,3710035,,,2023-12-20,清算の結了等,,,2020-06-25,1,,,,,ショウダミライジュク,0
2368,9120001156424,登記記録の閉鎖等,0,2023-12-25,2023-12-22,株式会社ニュー長崎,,株式会社,大阪府,守口市,京阪北本通５番２３号,,27,209,5700094,,,2023-12-22,清算の結了等,,,2015-10-05,1,,,,,ニューナガサキ,0
2373,9120001193392,登記記録の閉鎖等,0,2023-12-25,2023-12-18,株式会社万和,,株式会社,兵庫県,宝塚市,中山桜台４丁目４番８号,,28,214,6650877,,,2023-12-18,清算の結了等,,,2015-10-05,1,,,,,マンワ,0
2397,9130001005869,登記記録の閉鎖等,0,2023-12-25,2023-12-20,株式会社アンデルセンハウス,,株式会社,京都府,京都市北区,小山上花ノ木町５９番地,,26,101,6038121,,,2023-12-20,清算の結了等,,,2015-10-05,1,,,,,アンデルセンハウス,0
2404,9140001055921,登記記録の閉鎖等,0,2023-12-25,2023-12-19,榮スポーツ産業株式会社,,株式会社,兵庫県,豊岡市,立野１９２番地,,28,209,6680000,,,2023-12-19,清算の結了等,,,2015-10-05,1,,,,,サカエスポーツサンギョウ,0
2417,9180001084280,登記記録の閉鎖等,0,2023-12-25,2023-12-18,大宝毛織株式会社,,株式会社,愛知県,一宮市,小信中島字西九反１８番地,,23,203,4940007,,,2023-12-18,清算の結了等,,,2015-10-05,1,,,,,タイホウケオリ,0
2432,9210005009503,登記記録の閉鎖等,0,2023-12-25,2023-12-19,特定非営利活動法人ＴＡＫＥ　ＹＯＵＲ　ＭＡＲＫ,,その他の設立登記法人,福井県,福井市,米松２丁目１３番１号,,18,201,9100851,,,2023-12-19,清算の結了等,,,2015-10-05,1,,,,,テイクユアマーク,0
2452,9260002029152,登記記録の閉鎖等,0,2023-12-25,2023-12-20,有限会社長谷川電機,,有限会社,岡山県,津山市,坪井町１７番地,,33,203,7080075,,,2023-12-20,清算の結了等,,,2015-10-05,1,,,,,ハセガワデンキ,0
2474,9290801028070,登記記録の閉鎖等,0,2023-12-25,2023-12-22,ＴＲＹＳｙｓｔｅｍ株式会社,,株式会社,福岡県,北九州市小倉北区,片野３丁目４－１,,40,106,8020064,,,2023-12-22,清算の結了等,,,2021-12-17,1,,,,,トライシステム,0
2483,9310002008456,登記記録の閉鎖等,0,2023-12-25,2023-12-21,有限会社トネケン,,有限会社,長崎県,長崎市,長浦町７２４番地,,42,201,8513212,,,2023-12-21,清算の結了等,,,2015-10-05,1,,,,,トネケン,0
2491,9340002004089,登記記録の閉鎖等,0,2023-12-25,2023-12-22,サンエイコウ商事有限会社,,有限会社,鹿児島県,鹿児島市,武岡４丁目４１番５号,,46,201,8900031,,,2023-12-22,清算の結了等,,,2015-10-05,1,,,,,サンエイコウショウジ,0
2495,9360001008048,登記記録の閉鎖等,0,2023-12-25,2023-12-20,株式会社ＷＩＬＬアセンド,,株式会社,沖縄県,沖縄市,上地４丁目１８番３０号２Ｂ,,47,211,9040031,,,2023-12-20,清算の結了等,,,2015-10-05,1,,,,,ウィルアセンド,0
2501,9360002002611,登記記録の閉鎖等,0,2023-12-25,2023-12-21,有限会社大晴ハウジング,,有限会社,沖縄県,豊見城市,字上田１８１番地,,47,212,9010243,,,2023-12-21,清算の結了等,,,2015-10-05,1,,,,,タイセイハウジング,0
2534,9470002000694,登記記録の閉鎖等,0,2023-12-25,2023-12-20,有限会社東塗装,,有限会社,香川県,高松市,東山崎町３８０番地５,,37,201,7610312,,,2023-12-20,清算の結了等,,,2015-10-05,1,,,,,アズマトソウ,0
2541,9500002006894,登記記録の閉鎖等,0,2023-12-25,2023-12-22,有限会社モリ印刷所,,有限会社,愛媛県,松山市,余戸西５丁目１３番２４号,,38,201,7900046,,,2023-12-22,清算の結了等,,,2015-10-05,1,,,,,,0
