sequenceNumber,corporateNumber,process,correct,updateDate,changeDate,name,nameImageId,kind,prefectureName,cityName,streetNumber,addressImageId,prefectureCode,cityCode,postCode,addressOutside,addressOutsideImageId,closeDate,closeCause,successorCorporateNumber,changeCause,assignmentDate,latest,enName,enPrefectureName,enCityName,enAddressOutside,furigana,hihyoji
2,1010001208706,登記記録の閉鎖等,0,2025-10-31,2025-10-01,Ｂｉｏ　Ｕｍｂｒｅｌｌａ株式会社,,株式会社,東京都,港区,東麻布２丁目６番５号,,13,103,1060044,,,2025-10-01,合併による解散等,6010401190953,令和７年１０月１日東京都港区赤坂九丁目７番１号株式会社ＮＸホールディングス（6010401190953）に合併し解散,2020-04-07,1,,,,,バイオアンブレラ,0
11,1010005030602,登記記録の閉鎖等,0,2025-10-31,2025-10-28,一般社団法人原価管理研究会,,その他の設立登記法人,東京都,千代田区,内幸町１丁目３番３号内幸町ダイビル３階,,13,101,1000011,,,2025-10-28,清算の結了等,,,2019-08-14,1,,,,,ゲンカカンリケンキュウカイ,0
25,1010403012631,登記記録の閉鎖等,0,2025-10-31,2025-10-01,合同会社プロスペクト牛久,,合同会社,東京都,渋谷区,千駄ヶ谷１丁目３０番８号,,13,113,1510051,,,2025-10-01,清算の結了等,,,2015-10-05,1,,,,,プロスペクトウシク,0
34,1011001015605,登記記録の閉鎖等,0,2025-10-31,2025-10-01,トービ商事株式会社,,株式会社,東京都,渋谷区,南平台町１３番３号,,13,113,1500036,,,2025-10-01,合併による解散等,3011001015553,令和７年１０月１日東京都渋谷区南平台町１３番３号株式会社トービ（3011001015553）に合併し解散,2015-10-05,1,,,,,トービショウジ,0
39,1011001133828,登記記録の閉鎖等,0,2025-10-31,2025-10-01,ライス株式会社,,株式会社,東京都,渋谷区,上原１丁目７番１９号,,13,113,1510064,,,2025-10-01,合併による解散等,7120001193130,令和７年１０月１日東京都渋谷区上原一丁目７番１９号ウエストマネージメント株式会社（7120001193130）に合併し解散,2020-05-26,1,,,,,ライス,0
47,1011101095828,登記記録の閉鎖等,0,2025-10-31,2025-10-01,株式会社ＫＯＲＥＡ　ＦＯＯＤ,,株式会社,東京都,渋谷区,神宮前１丁目２０番１０号第３ＦＭＧビル１０２号,,13,113,1500001,,,2025-10-01,合併による解散等,7011101057434,令和７年１０月１日東京都渋谷区神宮前一丁目２０番１０号第３ＦＭＧビル１０２号株式会社世一（7011101057434）に合併し解散,2021-07-30,1,,,,,コリアフード,0
85,1021001071804,登記記録の閉鎖等,0,2025-10-31,2025-10-16,株式会社Ｒｅ　ＲＩＳＥ,,株式会社,神奈川県,厚木市,旭町１丁目２４番３号アールアサオカビル５階,,14,212,2430014,,,2025-10-16,清算の結了等,,,2021-01-15,1,,,,,リライズ,0
100,1030001110422,登記記録の閉鎖等,0,2025-10-31,2025-10-23,株式会社ＥＳＧ　ＶＩＥＴＩＣＡ,,株式会社,埼玉県,川越市,東田町九丁目３９番地板弥ビル２階Ａ,,11,201,3501114,,,2025-10-23,清算の結了等,,,2015-10-05,1,,,,,イーエスジービエチカ,0
116,1050001027078,登記記録の閉鎖等,0,2025-10-31,2025-10-16,株式会社夢創,,株式会社,茨城県,常陸太田市,大里町３９１１番地の１,,08,212,3130125,,,2025-10-16,清算の結了等,,,2015-10-05,1,,,,,ムソウ,0
124,1070002031754,登記記録の閉鎖等,0,2025-10-31,2025-10-28,有限会社ラクーン・ドッグ,,有限会社,群馬県,太田市,山之神町６１３番地５,,10,205,3792302,,,2025-10-28,清算の結了等,,,2015-10-05,1,,,,,,0
126,1080001024064,登記記録の閉鎖等,0,2025-10-31,2025-10-27,抗ウイルスネット株式会社,,株式会社,静岡県,静岡市葵区,羽鳥本町２３－１４,,22,101,4211217,,,2025-10-27,清算の結了等,,,2021-03-31,1,,,,,コウウイルスネット,0
127,1080001026060,登記記録の閉鎖等,0,2025-10-31,2025-10-28,株式会社ＫＭＴ,,株式会社,静岡県,静岡市葵区,呉服町２丁目５番地の１５サンライズ呉服町２階,,22,101,4200031,,,2025-10-28,清算の結了等,,,2024-01-04,1,,,,,ケイエムティー,0
129,1080002005773,登記記録の閉鎖等,0,2025-10-31,2025-10-27,有限会社ミルクベーカリー,,有限会社,静岡県,静岡市葵区,二番町１１番地の６,,22,101,4200072,,,2025-10-27,清算の結了等,,,2015-10-05,1,,,,,ミルクベーカリー,0
174,1140001100833,登記記録の閉鎖等,0,2025-10-31,2025-10-24,Ｂｅｃｋｅｒ　Ｍａｒｉｎｅ　Ｓｙｓｔｅｍｓ　Ｊａｐａｎ株式会社,,株式会社,岡山県,岡山市東区,上道北方６８８番地の１,,33,103,7090625,,,2025-10-24,清算の結了等,,,2016-02-02,1,,,,,ベッカーマリーンシステムズジャパン,0
185,1180001065164,登記記録の閉鎖等,0,2025-10-31,2025-10-23,株式会社南川建築事務所,,株式会社,愛知県,名古屋市中区,正木２丁目１３番１６号,,23,106,4600024,,,2025-10-23,清算の結了等,,,2015-10-05,1,,,,,ミナミカワケンチクジムショ,0
188,1180001070890,登記記録の閉鎖等,0,2025-10-31,2025-10-23,大和熱処理工業株式会社,,株式会社,愛知県,清須市,土器野７０７番地,,23,233,4520914,,,2025-10-23,清算の結了等,,,2015-10-05,1,,,,,ダイワネツショリコウギョウ,0
193,1180001142104,登記記録の閉鎖等,0,2025-10-31,2025-10-20,株式会社あんき,,株式会社,愛知県,名古屋市中区,丸の内２丁目１７－１３ＮＫ丸の内ビル,,23,106,4600002,,,2025-10-20,清算の結了等,,,2020-07-21,1,,,,,アンキ,0
210,1200001039405,登記記録の閉鎖等,0,2025-10-31,2025-10-24,株式会社明豊創建,,株式会社,岐阜県,岐阜市,西中島３丁目１１番２０号,,21,201,5020916,,,2025-10-24,清算の結了等,,,2021-11-15,1,,,,,メイホウソウケン,0
217,1240003006390,登記記録の閉鎖等,0,2025-10-31,2025-10-29,合同会社広元商事,,合同会社,広島県,広島市東区,山根町５番１２号,,34,102,7320048,,,2025-10-29,清算の結了等,,,2023-10-25,1,,,,,ヒロモトショウジ,0
220,1270001000054,登記記録の閉鎖等,0,2025-10-31,2025-10-30,株式会社一広,,株式会社,鳥取県,鳥取市,叶１１５番地８,,31,201,6800874,,,2025-10-30,清算の結了等,,,2015-10-05,1,,,,,イチコウ,0
225,1290001102955,登記記録の閉鎖等,0,2025-10-31,2025-10-02,株式会社アーバンリサーチインベストメント,,株式会社,福岡県,福岡市早良区,西新２丁目２４番１７－６０１号,,40,137,8140002,,,2025-10-02,清算の結了等,,,2023-09-06,1,,,,,アーバンリサーチインベストメント,0
230,1290002032771,登記記録の閉鎖等,0,2025-10-31,2025-10-02,有限会社成龍,,有限会社,福岡県,糸島市,前原東１丁目９番１号,,40,230,8191119,,,2025-10-02,清算の結了等,,,2015-10-05,1,,,,,セイリュウ,0
239,1330002001301,登記記録の閉鎖等,0,2025-10-31,2025-10-22,有限会社英数研ゼミナール,,有限会社,熊本県,熊本市南区,御幸笛田１丁目２番１００号,,43,104,8614172,,,2025-10-22,清算の結了等,,,2015-10-05,1,,,,,エイスウケン,0
247,1340002020787,登記記録の閉鎖等,0,2025-10-31,2025-10-23,有限会社河内商事,,有限会社,鹿児島県,奄美市,名瀬幸町２５番５号,,46,222,8940025,,,2025-10-23,清算の結了等,,,2015-10-05,1,,,,,カワウチショウジ,0
254,1370001047944,登記記録の閉鎖等,0,2025-10-31,2025-10-20,株式会社リバーマウンテン,,株式会社,宮城県,仙台市青葉区,大町１丁目３番２５号,,04,101,9800804,,,2025-10-20,清算の結了等,,,2021-12-14,1,,,,,リバーマウンテン,0
255,1370301001428,登記記録の閉鎖等,0,2025-10-31,2025-10-17,株式会社リヤンド松浦,,株式会社,宮城県,石巻市,開北１丁目１１番３号,,04,202,9860806,,,2025-10-17,合併による解散等,1370001021569,令和７年１０月１６日仙台市青葉区米ケ袋一丁目６番８号ＷＩＤＥＦＯＯＤ株式会社（1370001021569）に合併し解散,2015-10-05,1,,,,,リヤンドマツウラ,0
258,1380001000761,登記記録の閉鎖等,0,2025-10-31,2025-10-09,株式会社大栄塗装,,株式会社,福島県,福島市,上名倉字中室石２８番地の１,,07,201,9602155,,,2025-10-09,清算の結了等,,,2015-10-05,1,,,,,ダイエイトソウ,0
277,1460101003862,登記記録の閉鎖等,0,2025-10-31,2025-10-27,株式会社ホーミングドック,,株式会社,北海道,帯広市,西十三条南１７丁目１番地１９,,01,207,0800023,,,2025-10-27,清算の結了等,,,2015-10-05,1,,,,,ホーミングドック,0
289,2010001195118,登記記録の閉鎖等,0,2025-10-31,2025-10-02,株式会社ＩＮＣＪ,,株式会社,東京都,港区,虎ノ門１丁目３番１号,,13,103,1050001,,,2025-10-02,合併による解散等,7010001126472,令和７年１０月１日東京都港区虎ノ門一丁目３番１号株式会社産業革新投資機構（7010001126472）に合併し解散,2018-09-25,1,,,,,アイエヌシイジェイ,0
290,2010001207921,登記記録の閉鎖等,0,2025-10-31,2025-10-14,株式会社ＳＥＩＮＳ,,株式会社,東京都,中央区,銀座１丁目２２番１１号銀座大竹ビジデンス２Ｆ,,13,102,1040061,,,2025-10-14,清算の結了等,,,2020-03-12,1,,,,,サン,0
303,2010005011023,登記記録の閉鎖等,0,2025-10-31,2025-10-27,特定非営利活動法人日本ライフリズム分析評価機構,,その他の設立登記法人,東京都,中央区,築地１丁目９番９号細川築地ビル６Ｆ,,13,102,1040045,,,2025-10-27,清算の結了等,,,2015-10-05,1,,,,,ニホンライフリズムブンセキヒョウカキコウ,0
311,2010401185585,登記記録の閉鎖等,0,2025-10-31,2025-10-02,株式会社ＦＵＮＤｉＴ　Ｍｅｄｉａ　Ｍｅｒｇｅｒｓ,,株式会社,東京都,港区,六本木１丁目３番５０号,,13,103,1060032,,,2025-10-02,合併による解散等,9011101108887,令和７年９月３０日東京都港区六本木一丁目３番５０号株式会社Ａｂｉｔｏ（9011101108887）に合併し解散,2024-10-11,1,,,,,ファンディットメディアマージャーズ,0
317,2010603010533,登記記録の閉鎖等,0,2025-10-31,2025-09-17,合同会社ＹＡＭＡ,,合同会社,東京都,江東区,永代２丁目１０‐６モノトーノ門前仲町２０８,,13,108,1350034,,,2025-09-17,清算の結了等,,,2024-01-04,1,,,,,ヤマ,0
326,2011001015604,登記記録の閉鎖等,0,2025-10-31,2025-10-01,株式会社トービサービスセンター,,株式会社,東京都,渋谷区,南平台町１３番３号,,13,113,1500036,,,2025-10-01,合併による解散等,3011001015553,令和７年１０月１日東京都渋谷区南平台町１３番３号株式会社トービ（3011001015553）に合併し解散,2015-10-05,1,,,,,トービサービスセンター,0
333,2011001133827,登記記録の閉鎖等,0,2025-10-31,2025-10-01,ウエストマネージメントインターナショナル株式会社,,株式会社,東京都,渋谷区,上原１丁目７番１９号,,13,113,1510064,,,2025-10-01,合併による解散等,7120001193130,令和７年１０月１日東京都渋谷区上原一丁目７番１９号ウエストマネージメント株式会社（7120001193130）に合併し解散,2020-05-26,1,,,,,ウエストマネージメントインターナショナル,0
340,2011101017822,登記記録の閉鎖等,0,2025-10-31,2025-10-27,株式会社ピー．シー．エー,,株式会社,東京都,小平市,花小金井南町２丁目３－２１－３０４,,13,211,1870003,,,2025-10-27,清算の結了等,,,2015-10-05,1,,,,,ピーシーエー,0
352,2011203003596,登記記録の閉鎖等,0,2025-10-31,2025-10-24,合同会社Ｋ．Ｎ．Ｄ,,合同会社,東京都,中野区,野方２丁目６３番３－５０３号,,13,114,1650027,,,2025-10-24,清算の結了等,,,2021-07-19,1,,,,,ケイエヌディー,0
359,2011602001936,登記記録の閉鎖等,0,2025-10-31,2025-10-27,有限会社大越金物店,,有限会社,東京都,練馬区,平和台１丁目２９番２０号,,13,120,1790083,,,2025-10-27,清算の結了等,,,2015-10-05,1,,,,,オオコシカナモノテン,0
375,2013301036247,登記記録の閉鎖等,0,2025-10-31,2025-10-29,株式会社ボトムハート,,株式会社,東京都,豊島区,南池袋２丁目２９番１０号,,13,116,1710022,,,2025-10-29,合併による解散等,5010401134779,令和７年１０月１日東京都港区虎ノ門四丁目３番１号城山トラストタワー３７階クオール株式会社（5010401134779）に合併し解散,2015-10-05,1,,,,,ボトムハート,0
399,2030001092544,登記記録の閉鎖等,0,2025-10-31,2025-10-23,ピースカンパニー株式会社,,株式会社,埼玉県,さいたま市南区,曲本４丁目１番１１号,,11,108,3360033,,,2025-10-23,清算の結了等,,,2015-10-05,1,,,,,ピースカンパニー,0
403,2030002011585,登記記録の閉鎖等,0,2025-10-31,2025-10-22,有限会社双葉サイン,,有限会社,埼玉県,さいたま市緑区,道祖土１丁目１８番８号,,11,109,3360907,,,2025-10-22,清算の結了等,,,2015-10-05,1,,,,,フタバサイン,0
412,2040002048874,登記記録の閉鎖等,0,2025-10-31,2025-10-09,有限会社マルチプロセッサ,,有限会社,千葉県,松戸市,小金原４丁目２１番地の５,,12,207,2700021,,,2025-10-09,清算の結了等,,,2015-10-05,1,,,,,マルチプロセッサ,0
421,2060001035302,登記記録の閉鎖等,0,2025-10-31,2025-10-29,株式会社Ｌｅｏ,,株式会社,栃木県,日光市,鬼怒川温泉大原５４１番地１,,09,206,3212522,,,2025-10-29,清算の結了等,,,2022-10-03,1,,,,,レオ,0
425,2070003004147,登記記録の閉鎖等,0,2025-10-31,2025-10-27,合同会社Ｔ，ｃａｅｒ－ＲＡＹ,,合同会社,群馬県,前橋市,堀越町８３０番地７,,10,201,3710231,,,2025-10-27,清算の結了等,,,2021-06-18,1,,,,,ティーケアレイ,0
429,2080102005111,登記記録の閉鎖等,0,2025-10-31,2025-10-16,キャリア・イノベーション有限会社,,有限会社,静岡県,沼津市,大岡３８６５番地,,22,203,4100022,,,2025-10-16,清算の結了等,,,2015-10-05,1,,,,,キャリアイノベーション,0
432,2080402010249,登記記録の閉鎖等,0,2025-10-31,2025-10-22,有限会社アクア保険設計,,有限会社,静岡県,湖西市,新居町浜名３９０番地の２,,22,221,4310303,,,2025-10-22,清算の結了等,,,2015-10-05,1,,,,,アクアホケンセッケイ,0
445,2120003007409,登記記録の閉鎖等,0,2025-10-31,2025-10-22,合同会社オオバＩＣＴ,,合同会社,大阪府,枚方市,渚東町２０番５号,00046749,27,210,5731176,,,2025-10-22,清算の結了等,,,2015-10-05,1,,,,,,0
454,2122001001459,登記記録の閉鎖等,0,2025-10-31,2025-10-17,株式会社キンキ,,株式会社,大阪府,東大阪市,額田町６番１５号,,27,227,5798021,,,2025-10-17,清算の結了等,,,2015-10-05,1,,,,,キンキ,0
470,2180001071525,登記記録の閉鎖等,0,2025-10-31,2025-10-23,株式会社ケイ・プロダクツ,,株式会社,愛知県,名古屋市中村区,豊国通２丁目７番地,,23,105,4530834,,,2025-10-23,清算の結了等,,,2015-10-05,1,,,,,ケイプロダクツ,0
476,2180002076738,登記記録の閉鎖等,0,2025-10-31,2025-10-22,有限会社大光製作所,,有限会社,愛知県,一宮市,定水寺字塚越１０番地,,23,203,4910004,,,2025-10-22,清算の結了等,,,2015-10-05,1,,,,,ダイコウセイサクショ,0
479,2180301009811,登記記録の閉鎖等,0,2025-10-31,2025-10-27,株式会社喜楽,,株式会社,愛知県,豊川市,門前町１３番地,,23,207,4420037,,,2025-10-27,清算の結了等,,,2015-10-05,1,,,,,キラク,0
483,2210001012888,登記記録の閉鎖等,0,2025-10-31,2025-10-29,株式会社鯖江地域交流センター,00077758,株式会社,福井県,鯖江市,本町２丁目２番１６号,,18,207,9160026,,,2025-10-29,清算の結了等,,,2015-10-05,1,,,,,サバエチイキコウリュウセンター,0
488,2230001016623,登記記録の閉鎖等,0,2025-10-31,2025-10-01,株式会社Ｙｏｕｔｈ　Ｄｅｓｉｇｎ,,株式会社,東京都,渋谷区,道玄坂１丁目１０番８号渋谷道玄坂東急ビル２Ｆ－Ｃ,,13,113,1500043,,,2025-10-01,合併による解散等,6010001222586,令和７年１０月１日東京都渋谷区桜丘町１７番６号株式会社ビックス（6010001222586）に合併し解散,2016-09-07,1,,,,,ユースデザイン,0
496,2280005002359,登記記録の閉鎖等,0,2025-10-31,2025-10-28,特定非営利活動法人青少年サポートの会,,その他の設立登記法人,島根県,安来市,飯島町１２４０番地３,,32,206,6920014,,,2025-10-28,清算の結了等,,,2015-10-05,1,,,,,,0
515,2310002009386,登記記録の閉鎖等,0,2025-10-31,2025-10-29,有限会社オーケー住設,,有限会社,長崎県,佐世保市,日野町１７６１番地,,42,202,8580923,,,2025-10-29,清算の結了等,,,2015-10-05,1,,,,,オーケージュウセツ,0
525,2340001001267,登記記録の閉鎖等,0,2025-10-31,2025-10-27,錦江産業株式会社,,株式会社,鹿児島県,鹿児島市,西田２丁目１２番２４－２０１号,,46,201,8900046,,,2025-10-27,清算の結了等,,,2015-10-05,1,,,,,キンコウサンギョウ,0
539,2370202003547,登記記録の閉鎖等,0,2025-10-31,2025-10-20,有限会社ロビンタカハシ,,有限会社,宮城県,大崎市,鹿島台深谷字南堀籠１７番地の２,,04,215,9894105,,,2025-10-20,清算の結了等,,,2015-10-05,1,,,,,ロビンタカハシ,0
543,2430001031841,登記記録の閉鎖等,0,2025-10-31,2025-10-27,株式会社ケーエムユー,,株式会社,北海道,札幌市中央区,北六条西１９丁目２３番地,,01,101,0600006,,,2025-10-27,清算の結了等,,,2015-10-05,1,,,,,ケーエムユー,0
551,2480001008182,登記記録の閉鎖等,0,2025-10-31,2025-10-29,株式会社八山,,株式会社,徳島県,徳島市,沖浜東１丁目２８番地の１,,36,201,7708053,,,2025-10-29,清算の結了等,,,2015-10-05,1,,,,,ハッサン,0
552,2480002008462,登記記録の閉鎖等,0,2025-10-31,2025-10-28,株式会社ＤＲＥＡＭ‐ＧＡＴＥ,,株式会社,沖縄県,宮古島市,平良字大浦１３７番地,,47,214,9060004,,,2025-10-28,清算の結了等,,,2015-10-05,1,,,,,ドリームゲート,0
558,3010001100893,登記記録の閉鎖等,0,2025-10-31,2025-10-17,株式会社アイデックス,,株式会社,東京都,中央区,八丁堀３丁目２５番７号,,13,102,1040032,,,2025-10-17,清算の結了等,,,2015-10-05,1,,,,,アイデックス,0
561,3010001138050,登記記録の閉鎖等,0,2025-10-31,2025-10-08,株式会社クローミングライフ,,株式会社,東京都,文京区,白山２丁目２６番１９号ステージグランデ文京白山１２０２号,,13,105,1120001,,,2025-10-08,清算の結了等,,,2015-10-05,1,,,,,クローミングライフ,0
563,3010001181827,登記記録の閉鎖等,0,2025-10-31,2025-10-14,株式会社秋コレ,,株式会社,東京都,千代田区,外神田６丁目１２－４加藤ビル,,13,101,1010021,,,2025-10-14,清算の結了等,,,2017-03-01,1,,,,,アキコレ,0
572,3010003037408,登記記録の閉鎖等,0,2025-10-31,2025-10-10,Ｆｒａｃｔｉ合同会社,,合同会社,東京都,千代田区,神田岩本町４番地１４神田平成ビル,,13,101,1010033,,,2025-10-10,清算の結了等,,,2022-04-14,1,,,,,フラクティ,0
576,3010005015089,登記記録の閉鎖等,0,2025-10-31,2025-10-29,目黒プロパティー特定目的会社,,その他の設立登記法人,東京都,千代田区,丸の内１丁目１１番１号,,13,101,1000005,,,2025-10-29,清算の結了等,,,2015-10-05,1,,,,,メグロプロパティー,0
588,3010403029285,登記記録の閉鎖等,0,2025-10-31,2025-09-02,Ａｌｙｓｈａ合同会社,,合同会社,東京都,港区,南青山３丁目１番３６号青山丸竹ビル６Ｆ,,13,103,1070062,,,2025-09-02,清算の結了等,,,2023-01-17,1,,,,,アリーシャ,0
602,3010901021495,登記記録の閉鎖等,0,2025-10-31,2025-10-29,株式会社みちコンサルティング,,株式会社,東京都,世田谷区,上北沢３丁目２０番１２号,,13,112,1560057,,,2025-10-29,清算の結了等,,,2015-10-05,1,,,,,ミチコンサルティング,0
617,3011003005560,登記記録の閉鎖等,0,2025-10-31,2025-10-01,合同会社プロスペクト香取,,合同会社,東京都,渋谷区,千駄ヶ谷１丁目３０番８号,,13,113,1510051,,,2025-10-01,清算の結了等,,,2015-10-05,1,,,,,プロスペクトカトリ,0
619,3011003021236,登記記録の閉鎖等,0,2025-10-31,2025-10-23,合同会社Ｒ‐Ｌａｂ,,合同会社,東京都,渋谷区,道玄坂１丁目１０番８号渋谷道玄坂東急ビル２Ｆ－Ｃ,,13,113,1500043,,,2025-10-23,清算の結了等,,,2025-04-01,1,,,,,アールラボ,0
632,3011505000340,登記記録の閉鎖等,0,2025-10-31,2025-10-29,福勝教会,,その他の設立登記法人,東京都,荒川区,東尾久８丁目２６番３号,,13,118,1160012,,,2025-10-29,清算の結了等,,,2015-10-05,1,,,,,,0
644,3012403003071,登記記録の閉鎖等,0,2025-10-31,2025-10-14,アンドアフリカ株式会社,,株式会社,東京都,千代田区,神田佐久間町１丁目１６大橋ビル５０３,,13,101,1010025,,,2025-10-14,清算の結了等,,,2017-05-16,1,,,,,アンドアフリカ,0
668,3021001060532,登記記録の閉鎖等,0,2025-10-31,2025-10-10,株式会社ＣＯＲＥ工務店,,株式会社,神奈川県,伊勢原市,高森１２９番地の１,,14,214,2591114,,,2025-10-10,清算の結了等,,,2016-10-27,1,,,,,コアコウムテン,0
671,3021002049574,登記記録の閉鎖等,0,2025-10-31,2025-10-08,有限会社佐藤建材,,有限会社,神奈川県,綾瀬市,大上７丁目５番１号－３０７号室,,14,218,2521104,,,2025-10-08,清算の結了等,,,2015-10-05,1,,,,,サトウケンザイ,0
675,3030001009167,登記記録の閉鎖等,0,2025-10-31,2025-10-24,株式会社ジオファイブ,,株式会社,埼玉県,さいたま市北区,宮原町１丁目４５３番地２,,11,102,3310812,,,2025-10-24,合併による解散等,2010001034531,令和７年９月３０日東京都千代田区神田美土代町７番地応用地質株式会社（2010001034531）に合併し解散,2015-10-05,1,,,,,ジオファイブ,0
689,3040001074433,登記記録の閉鎖等,0,2025-10-31,2025-10-02,株式会社ウィングガーデン,,株式会社,千葉県,市川市,欠真間１丁目１０番５号,,12,203,2720142,,,2025-10-02,清算の結了等,,,2015-10-05,1,,,,,ウィングガーデン,0
703,3050002000354,登記記録の閉鎖等,0,2025-10-31,2025-10-22,有限会社井沢工業,,有限会社,茨城県,水戸市,千波町１８４２番地,,08,201,3100851,,,2025-10-22,清算の結了等,,,2015-10-05,1,,,,,イザワコウギョウ,0
704,3060001008125,登記記録の閉鎖等,0,2025-10-31,2025-10-29,株式会社ニューアクト,,株式会社,栃木県,那須烏山市,藤田１１８１番地,,09,215,3210532,,,2025-10-29,清算の結了等,,,2015-10-05,1,,,,,ニューアクト,0
716,3100002037655,登記記録の閉鎖等,0,2025-10-31,2025-10-28,有限会社ルネッサンスプラザ,,有限会社,長野県,飯田市,伝馬町２丁目３番地,,20,205,3950016,,,2025-10-28,清算の結了等,,,2015-10-05,1,,,,,ルネッサンスプラザ,0
719,3110002002988,登記記録の閉鎖等,0,2025-10-31,2025-10-24,有限会社シーエッチシステム,,有限会社,新潟県,新潟市中央区,大島２０７番地,,15,103,9500953,,,2025-10-24,清算の結了等,,,2015-10-05,1,,,,,シーエッチシステム,0
722,3120001029387,登記記録の閉鎖等,0,2025-10-31,2025-10-29,電通工業株式会社,,株式会社,大阪府,大阪市港区,磯路１丁目１番１６号,,27,107,5520003,,,2025-10-29,清算の結了等,,,2015-10-05,1,,,,,デンツウコウギョウ,0
724,3120001078475,登記記録の閉鎖等,0,2025-10-31,2025-10-28,株式会社グランデイール,,株式会社,大阪府,大阪市中央区,南本町３丁目３番２３号インペリアル船場,,27,128,5410054,,,2025-10-28,清算の結了等,,,2015-10-05,1,,,,,グランディール,0
749,3120002048394,登記記録の閉鎖等,0,2025-10-31,2025-10-22,有限会社畑田,,有限会社,大阪府,大阪市中央区,高麗橋２丁目４番６号大拓ビル６０３号,,27,128,5410043,,,2025-10-22,清算の結了等,,,2015-10-05,1,,,,,ハタダ,0
757,3120101028157,登記記録の閉鎖等,0,2025-10-31,2025-10-21,株式会社アルファクラフト,,株式会社,大阪府,堺市北区,南花田町１７０５番地,,27,146,5918011,,,2025-10-21,清算の結了等,,,2015-10-05,1,,,,,アルファクラフト,0
766,3130001002491,登記記録の閉鎖等,0,2025-10-31,2025-10-29,株式会社庵原商会,,株式会社,京都府,京都市下京区,東塩小路向畑町１７番地,,26,106,6008213,,,2025-10-29,清算の結了等,,,2015-10-05,1,,,,,イハラショウカイ,0
772,3140001101664,登記記録の閉鎖等,0,2025-10-31,2025-10-01,株式会社カラーズ・エデュケーション,,株式会社,東京都,渋谷区,恵比寿西２丁目１９番９号,,13,113,1500021,,,2025-10-01,合併による解散等,1140001020940,令和７年１０月１日東京都渋谷区恵比寿西二丁目１９番９号株式会社カラーズ（1140001020940）に合併し解散,2016-04-12,1,,,,,カラーズエデュケーション,0
778,3140003010079,登記記録の閉鎖等,0,2025-10-31,2025-10-01,合同会社プロスペクト仙台,,合同会社,東京都,渋谷区,千駄ヶ谷１丁目３０番８号,,13,113,1510051,,,2025-10-01,清算の結了等,,,2015-10-05,1,,,,,プロスペクトセンダイ,0
780,3170005002518,登記記録の閉鎖等,0,2025-10-31,2025-10-29,医療法人よしむら会,,その他の設立登記法人,和歌山県,有田郡湯浅町,大字湯浅６９０番地,,30,361,6430004,,,2025-10-29,清算の結了等,,,2015-10-05,1,,,,,ヨシムラカイ,0
786,3180001134264,登記記録の閉鎖等,0,2025-10-31,2025-10-15,アドメディカル株式会社,,株式会社,愛知県,名古屋市中区,栄３丁目１４番７号,,23,106,4600008,,,2025-10-15,合併による解散等,4180001143636,令和７年１０月１日名古屋市中区栄三丁目１４番７号啓光社ホールディングス株式会社（4180001143636）に合併し解散,2018-10-31,1,,,,,アドメディカル,0
792,3180002039909,登記記録の閉鎖等,0,2025-10-31,2025-10-24,有限会社イズム,,有限会社,愛知県,名古屋市守山区,守山１丁目４番５号,,23,113,4630067,,,2025-10-24,清算の結了等,,,2015-10-05,1,,,,,イズム,0
794,3180002074286,登記記録の閉鎖等,0,2025-10-31,2025-10-24,有限会社犬山農機商会,,有限会社,愛知県,犬山市,内田東町１番地の２４,,23,215,4840071,,,2025-10-24,清算の結了等,,,2015-10-05,1,,,,,イヌヤマノウキショウカイ,0
796,3180002086199,登記記録の閉鎖等,0,2025-10-31,2025-10-22,有限会社ナカノ,,有限会社,愛知県,常滑市,古場町２丁目３５番地,,23,216,4790818,,,2025-10-22,清算の結了等,,,2015-10-05,1,,,,,ナカノ,0
797,3180002087206,登記記録の閉鎖等,0,2025-10-31,2025-10-20,有限会社神企画,,有限会社,愛知県,半田市,乙川源内林町２丁目２１番地の１,,23,205,4750066,,,2025-10-20,清算の結了等,,,2015-10-05,1,,,,,ジンキカク,0
798,3180003016394,登記記録の閉鎖等,0,2025-10-31,2025-10-23,ＴＤＭＥ合同会社,,合同会社,愛知県,春日井市,瑞穂通８丁目５８番地７,,23,206,4860845,,,2025-10-23,清算の結了等,,,2015-10-05,1,,,,,ティーディーエムイー,0
813,3200001003276,登記記録の閉鎖等,0,2025-10-31,2025-10-24,ダルマ化学工業株式会社,,株式会社,岐阜県,岐阜市,加野４丁目１１番６号,,21,201,5013107,,,2025-10-24,清算の結了等,,,2015-10-05,1,,,,,ダルマカガクコウギョウ,0
814,3200002009974,登記記録の閉鎖等,0,2025-10-31,2025-10-27,有限会社三里工業,,有限会社,岐阜県,瑞穂市,生津天王東町１丁目９８番地,,21,216,5010215,,,2025-10-27,清算の結了等,,,2015-10-05,1,,,,,ミサトコウギョウ,0
818,3220003003826,登記記録の閉鎖等,0,2025-10-31,2025-10-28,合同会社ＨＵＺＵＭＡ,,合同会社,石川県,金沢市,玉鉾３丁目２７７番地,,17,201,9218002,,,2025-10-28,清算の結了等,,,2024-08-23,1,,,,,フジマ,0
819,3240002040091,登記記録の閉鎖等,0,2025-10-31,2025-10-21,有限会社川崎建材,,有限会社,広島県,福山市,山手町６丁目２６番１号,,34,207,7200092,,,2025-10-21,清算の結了等,,,2015-10-05,1,,,,,カワサキケンザイ,0
824,3280002005289,登記記録の閉鎖等,0,2025-10-31,2025-10-29,有限会社おしゃれサロンジュリアン,,有限会社,島根県,出雲市,今市町北本町２丁目４番地２１,,32,203,6930002,,,2025-10-29,清算の結了等,,,2015-10-05,1,,,,,オシャレサロンジュリアン,0
836,3290002032712,登記記録の閉鎖等,0,2025-10-31,2025-10-02,興商貿易有限会社,,有限会社,福岡県,糸島市,前原東１丁目９番１号,,40,230,8191119,,,2025-10-02,清算の結了等,,,2015-10-05,1,,,,,コウショウボウエキ,0
848,3370001018092,登記記録の閉鎖等,0,2025-10-31,2025-10-20,株式会社メディカルパートナー,,株式会社,宮城県,仙台市青葉区,双葉ケ丘１丁目１３番８号,,04,101,9810924,,,2025-10-20,清算の結了等,,,2015-10-05,1,,,,,メディカルパートナー,0
853,3370002018414,登記記録の閉鎖等,0,2025-10-31,2025-10-20,有限会社ピース研究会,,有限会社,宮城県,仙台市若林区,成田町６６番地の７,,04,103,9840056,,,2025-10-20,清算の結了等,,,2015-10-05,1,,,,,ピースケンキュウカイ,0
870,4010001135856,登記記録の閉鎖等,0,2025-10-31,2025-10-08,株式会社大和インターナショナル,,株式会社,東京都,中央区,日本橋人形町１丁目８番４号,,13,102,1030013,,,2025-10-08,清算の結了等,,,2015-10-05,1,,,,,ダイワインターナショナル,0
889,4010401108882,登記記録の閉鎖等,0,2025-10-31,2025-10-08,株式会社アートアジア,,株式会社,神奈川県,平塚市,龍城ケ丘９番４号,,14,203,2540814,,,2025-10-08,清算の結了等,,,2015-10-05,1,,,,,アートアジア,0
891,4010401115912,登記記録の閉鎖等,0,2025-10-31,2025-10-02,株式会社オークネット・アイビーエス,,株式会社,東京都,港区,北青山２丁目５番８号,,13,103,1070061,,,2025-10-02,清算の結了等,,,2015-10-05,1,,,,,オークネットアイビーエス,0
908,4010601062376,登記記録の閉鎖等,0,2025-10-31,2025-10-21,株式会社Ｓｔｕｄｉｏ　ＯＶＩＳ,,株式会社,東京都,中央区,勝どき５丁目１１番１９号,,13,102,1040054,,,2025-10-21,清算の結了等,,,2023-01-10,1,,,,,スタジオオビス,0
928,4011001145218,登記記録の閉鎖等,0,2025-10-31,2025-10-01,株式会社ｓｕａｌｙ,,株式会社,東京都,渋谷区,神宮前６丁目２３番４号桑野ビル２階,,13,113,1500001,,,2025-10-01,清算の結了等,,,2022-01-28,1,,,,,スアリー,0
963,4011602002841,登記記録の閉鎖等,0,2025-10-31,2025-10-27,有限会社狩野電機,,有限会社,東京都,練馬区,豊玉中２丁目２番１２－２０１号,,13,120,1760013,,,2025-10-27,清算の結了等,,,2015-10-05,1,,,,,カリノデンキ,0
969,4011705001303,登記記録の閉鎖等,0,2025-10-31,2025-10-23,医療法人社団ＧＤＣ,,その他の設立登記法人,東京都,江戸川区,西葛西６丁目１５番３号中兼ビル４階４０１号,,13,123,1340088,,,2025-10-23,清算の結了等,,,2015-10-05,1,,,,,ジーディーシー,0
980,4013402001924,登記記録の閉鎖等,0,2025-10-31,2025-10-22,有限会社ライフテック,,有限会社,東京都,町田市,森野５丁目２１番１号,,13,209,1940022,,,2025-10-22,清算の結了等,,,2015-10-05,1,,,,,,0
992,4021001054351,登記記録の閉鎖等,0,2025-10-31,2025-10-08,横浜みずがめ販売株式会社,,株式会社,神奈川県,相模原市中央区,淵野辺本町１丁目３番３８号,,14,152,2520202,,,2025-10-08,清算の結了等,,,2015-10-05,1,,,,,,0
996,4021001065613,登記記録の閉鎖等,0,2025-10-31,2025-10-20,株式会社Ｂｉｒｔｈ,,株式会社,東京都,町田市,木曽東１丁目４８番１２号パストラルハイツ２０２,,13,209,1940036,,,2025-10-20,清算の結了等,,,2018-09-11,1,,,,,バース,0
1003,4030001053098,登記記録の閉鎖等,0,2025-10-31,2025-10-22,株式会社ＶＥＧＡ,,株式会社,埼玉県,春日部市,緑町４丁目３番１１号,,11,214,3440063,,,2025-10-22,清算の結了等,,,2015-10-05,1,,,,,ベガ,0
1005,4030001114081,登記記録の閉鎖等,0,2025-10-31,2025-10-23,株式会社横澤ファーネス,,株式会社,埼玉県,川口市,並木１丁目１９番２７－５０８号,,11,203,3320034,,,2025-10-23,清算の結了等,,,2016-04-27,1,,,,,ヨコザワファーネス,0
1010,4030002097895,登記記録の閉鎖等,0,2025-10-31,2025-10-23,有限会社殿商,,有限会社,埼玉県,比企郡ときがわ町,大字玉川６９番地１,,11,349,3550342,,,2025-10-23,清算の結了等,,,2015-10-05,1,,,,,トノショウ,0
1027,4060002020672,登記記録の閉鎖等,0,2025-10-31,2025-10-30,日晃ホーム有限会社,,有限会社,栃木県,鹿沼市,東町３丁目４番３５号,,09,205,3220022,,,2025-10-30,清算の結了等,,,2015-10-05,1,,,,,ニチコウホーム,0
1031,4070002010160,登記記録の閉鎖等,0,2025-10-31,2025-10-28,有限会社上州管工,,有限会社,群馬県,高崎市,吉井町塩４７番地１,,10,202,3702124,,,2025-10-28,清算の結了等,,,2015-10-05,1,,,,,ジョウシュウカンコウ,0
1038,4080105006113,登記記録の閉鎖等,0,2025-10-31,2025-10-28,一般社団法人免許返納サポートサービス,,その他の設立登記法人,静岡県,裾野市,須山２２５５番地の５４０,,22,220,4101231,,,2025-10-28,清算の結了等,,,2021-02-18,1,,,,,メンキョヘンノウサポートサービス,0
1042,4120001062684,登記記録の閉鎖等,0,2025-10-31,2025-10-28,岸本産業株式会社,,株式会社,大阪府,大阪市北区,曾根崎新地１丁目９番２号,,27,127,5300002,,,2025-10-28,清算の結了等,,,2015-10-05,1,,,,,キシモトサンギョウ,0
1043,4120001072980,登記記録の閉鎖等,0,2025-10-31,2025-10-21,日本ファイト株式会社,,株式会社,東京都,台東区,浅草橋４丁目１０番８号,,13,106,1110053,,,2025-10-21,清算の結了等,,,2015-10-05,1,,,,,ニホンファイト,0
1053,4120001249521,登記記録の閉鎖等,0,2025-10-31,2025-10-27,株式会社Ｌａ　Ｍｅｒ,,株式会社,大阪府,大阪市北区,梅田１丁目２番２号大阪駅前第２ビル１２－１２,,27,127,5300001,,,2025-10-27,清算の結了等,,,2022-10-14,1,,,,,ラメール,0
1078,4140001029698,登記記録の閉鎖等,0,2025-10-31,2025-10-27,日本一たい焼インターナショナル株式会社,,株式会社,兵庫県,神戸市北区,道場町平田１０７０番地の１,,28,109,6511504,,,2025-10-27,清算の結了等,,,2015-10-05,1,,,,,ニホンイチタイヤキインターナショナル,0
1087,4140002011325,登記記録の閉鎖等,0,2025-10-31,2025-10-27,有限会社三共測量,,有限会社,兵庫県,神戸市中央区,吾妻通５丁目２番１７－３０２号,,28,110,6510076,,,2025-10-27,清算の結了等,,,2015-10-05,1,,,,,サンキョウソクリョウ,0
1120,4240002047466,登記記録の閉鎖等,0,2025-10-31,2025-10-28,有限会社ナインイレブン,,有限会社,広島県,福山市,多治米町４丁目９番１８－１３号,,34,207,7200824,,,2025-10-28,清算の結了等,,,2015-10-05,1,,,,,,0
1127,4290001048790,登記記録の閉鎖等,0,2025-10-31,2025-10-02,株式会社高圧利器製作所,,株式会社,福岡県,久留米市,梅満町字与赤３５番地１,,40,203,8300048,,,2025-10-02,清算の結了等,,,2015-10-05,1,,,,,コウアツリキセイサクショ,0
1137,4290002048187,登記記録の閉鎖等,0,2025-10-31,2025-10-01,有限会社セイケン物流,,有限会社,福岡県,八女郡広川町,大字日吉１１５２番地３,,40,544,8340111,,,2025-10-01,合併による解散等,2290001068287,令和７年１０月１日福岡県八女郡広川町大字日吉１１５２番地３株式会社河野運送（2290001068287）に合併し解散,2015-10-05,1,,,,,セイケンブツリュウ,0
1138,4290005018914,登記記録の閉鎖等,0,2025-10-31,2025-10-02,医療法人天神会,,その他の設立登記法人,福岡県,福岡市中央区,天神２丁目６番１３号ジェムキャッスルきらめき通り３・４・５階,,40,133,8100001,,,2025-10-02,清算の結了等,,,2023-01-13,1,,,,,テンジンカイ,0
1141,4320001015556,登記記録の閉鎖等,0,2025-10-31,2025-10-30,株式会社ありの子,,株式会社,大分県,大分市,今津留２丁目３番１６号,,44,201,8700938,,,2025-10-30,清算の結了等,,,2017-04-04,1,,,,,アリノコ,0
1148,4340001015298,登記記録の閉鎖等,0,2025-10-31,2025-10-27,後藤漬物株式会社,,株式会社,鹿児島県,曽於郡大崎町,永吉２３７番地,,46,468,8997306,,,2025-10-27,清算の結了等,,,2015-10-05,1,,,,,ゴトウツケモノ,0
1155,4370001044600,登記記録の閉鎖等,0,2025-10-31,2025-10-21,杜ガス株式会社,,株式会社,宮城県,仙台市若林区,卸町東５丁目１番２６号,,04,103,9840002,,,2025-10-21,清算の結了等,,,2019-07-10,1,,,,,モリガス,0
1157,4370202004238,登記記録の閉鎖等,0,2025-10-31,2025-10-20,有限会社悠和企画,,有限会社,宮城県,遠田郡美里町,北浦字待江８３番地の４,,04,505,9870005,,,2025-10-20,清算の結了等,,,2015-10-05,1,,,,,ユウワキカク,0
1179,5010001121863,登記記録の閉鎖等,0,2025-10-31,2025-10-01,株式会社パイプシェル,,株式会社,東京都,渋谷区,恵比寿１丁目１９番１５号,,13,113,1500013,,,2025-10-01,合併による解散等,2011001062943,令和７年１０月１日東京都渋谷区恵比寿一丁目１９番１５号株式会社アクセルエンターメディア（2011001062943）に合併し解散,2015-10-05,1,,,,,パイプシェル,0
1190,5010005016184,登記記録の閉鎖等,0,2025-10-31,2025-10-24,一般社団法人ＪＰサクセス,,その他の設立登記法人,東京都,千代田区,神田錦町３丁目２０番地アイゼンビル４階,,13,101,1010054,,,2025-10-24,清算の結了等,,,2015-10-05,1,,,,,ジェーピーサクセス,0
1193,5010005035341,登記記録の閉鎖等,0,2025-10-31,2025-10-27,一般社団法人アネモネ,,その他の設立登記法人,東京都,千代田区,内神田２丁目２番６号５階あすな会計事務所内,,13,101,1010047,,,2025-10-27,清算の結了等,,,2022-07-27,1,,,,,アネモネ,0
1198,5010401120060,登記記録の閉鎖等,0,2025-10-31,2025-10-01,ハウスペイメント株式会社,,株式会社,東京都,港区,港南２丁目１６番１号,,13,103,1080075,,,2025-10-01,合併による解散等,4010401071585,令和７年１０月１日東京都港区港南二丁目１６番１号ハウスリーブ株式会社（4010401071585）に合併し解散,2015-10-05,1,,,,,ハウスペイメント,0
1220,5010901043496,登記記録の閉鎖等,0,2025-10-31,2025-10-21,株式会社ｎｉｌ,,株式会社,滋賀県,米原市,柏原８５５,,25,214,5210202,,,2025-10-21,清算の結了等,,,2019-01-16,1,,,,,ニル,0
1230,5011002007548,登記記録の閉鎖等,0,2025-10-31,2025-10-01,有限会社大豊管理,,有限会社,東京都,渋谷区,円山町２０番１号,,13,113,1500044,,,2025-10-01,合併による解散等,2011001013186,令和７年１０月１日東京都渋谷区円山町２０番１号株式会社大宗フュージョン（2011001013186）に合併し解散,2015-10-05,1,,,,,タイホウカンリ,0
1231,5011003005559,登記記録の閉鎖等,0,2025-10-31,2025-10-01,合同会社プロスペクト徳次郎,,合同会社,東京都,渋谷区,千駄ヶ谷１丁目３０番８号,,13,113,1510051,,,2025-10-01,清算の結了等,,,2015-10-05,1,,,,,プロスペクトトクジロウ,0
1250,5011702015081,登記記録の閉鎖等,0,2025-10-31,2025-10-22,有限会社ケークルーファクトリー,,有限会社,埼玉県,越谷市,大間野町２丁目８８番地１,,11,222,3430844,,,2025-10-22,清算の結了等,,,2015-10-05,1,,,,,ケークルーファクトリー,0
1253,5012301001860,登記記録の閉鎖等,0,2025-10-31,2025-10-15,仲野食品科学株式会社,,株式会社,東京都,町田市,大蔵町１０３番地３,,13,209,1950062,,,2025-10-15,清算の結了等,,,2015-10-05,1,,,,,ナカノショクヒンカガク,0
1277,5021002001599,登記記録の閉鎖等,0,2025-10-31,2025-10-08,有限会社グルービー,,有限会社,神奈川県,藤沢市,長後１２３４番地の２,,14,205,2520801,,,2025-10-08,清算の結了等,,,2015-10-05,1,,,,,グルービー,0
1279,5021003005632,登記記録の閉鎖等,0,2025-10-31,2025-10-14,ＲＡＬＬＹ　ＨＯＵＳＥリベール三条合同会社,,合同会社,東京都,町田市,本町田３４４５番地３,,13,209,1940032,,,2025-10-14,清算の結了等,,,2015-11-20,1,,,,,ラリーハウスリベールサンジョウ,0
1281,5030001090826,登記記録の閉鎖等,0,2025-10-31,2025-10-22,株式会社秩父経理,,株式会社,埼玉県,秩父市,熊木町１９番１０号,,11,207,3680032,,,2025-10-22,清算の結了等,,,2015-10-05,1,,,,,チチブケイリ,0
1292,5040001126562,登記記録の閉鎖等,0,2025-10-31,2025-10-06,株式会社スリーエスビジネスイノベーション,,株式会社,千葉県,千葉市美浜区,中瀬２丁目６番地１ワールドビジネスガーデンマリブウエスト２４階,,12,106,2610023,,,2025-10-06,合併による解散等,4040001011303,令和７年１０月１日千葉県千葉市美浜区中瀬二丁目６番地１ワールドビジネスガーデンマリブウエスト２４階株式会社スリーエスコンサルティング（4040001011303）に合併し解散,2023-01-12,1,,,,,スリーエスビジネスイノベーション,0
1297,5050001048517,登記記録の閉鎖等,0,2025-10-31,2025-10-21,株式会社マノ,,株式会社,茨城県,北茨城市,磯原町磯原４丁目１１番地,,08,215,3191541,,,2025-10-21,清算の結了等,,,2020-12-23,1,,,,,マノ,0
1305,5060001037329,登記記録の閉鎖等,0,2025-10-31,2025-10-28,株式会社ＦＯＲＥＳＴ　ＬＩＦＥ,,株式会社,栃木県,宇都宮市,西２丁目２番２４号,,09,201,3200861,,,2025-10-28,清算の結了等,,,2024-07-24,1,,,,,フォレストライフ,0
1310,5080002015579,登記記録の閉鎖等,0,2025-10-31,2025-10-27,有限会社イーエス工業,,有限会社,静岡県,焼津市,小柳津３２４番地の２,,22,212,4250073,,,2025-10-27,清算の結了等,,,2015-10-05,1,,,,,イーエスコウギョウ,0
1311,5080402004603,登記記録の閉鎖等,0,2025-10-31,2025-10-23,有限会社大祥,,有限会社,静岡県,浜松市中央区,高丘東１丁目１０番５５号,,22,138,4338117,,,2025-10-23,合併による解散等,2080401002197,令和７年１０月２１日静岡県浜松市中央区高丘東一丁目１０番５５号株式会社新機械技研（2080401002197）に合併し解散,2015-10-05,1,,,,,ダイショウ,0
1318,5110001024370,登記記録の閉鎖等,0,2025-10-31,2025-10-24,いずみ染工株式会社,,株式会社,新潟県,長岡市,栃尾泉２４７７番地１,,15,202,9400234,,,2025-10-24,清算の結了等,,,2015-10-05,1,,,,,イズミセンコウ,0
1320,5120001039566,登記記録の閉鎖等,0,2025-10-31,2025-10-23,株式会社長谷川梅士堂,,株式会社,大阪府,大阪市中央区,難波千日前５番１９号,,27,128,5420075,,,2025-10-23,清算の結了等,,,2015-10-05,1,,,,,ハセガワバイシドウ,0
1324,5120001206645,登記記録の閉鎖等,0,2025-10-31,2025-10-23,株式会社おかにわ,,株式会社,大阪府,大阪市淀川区,宮原１丁目８番３－１００４号,,27,123,5320003,,,2025-10-23,清算の結了等,,,2017-06-27,1,,,,,,0
1352,5120902015756,登記記録の閉鎖等,0,2025-10-31,2025-10-15,有限会社マックメディカル,,有限会社,大阪府,豊中市,新千里東町１丁目２番１－４１０１号,,27,203,5600082,,,2025-10-15,清算の結了等,,,2015-10-05,1,,,,,マックメディカル,0
1355,5122002013673,登記記録の閉鎖等,0,2025-10-31,2025-10-17,有限会社光英,,有限会社,大阪府,八尾市,南本町３丁目１番４号,,27,212,5810081,,,2025-10-17,清算の結了等,,,2015-10-05,1,,,,,コウエイ,0
1363,5140001046395,登記記録の閉鎖等,0,2025-10-31,2025-10-27,株式会社ＹＴＳ,,株式会社,兵庫県,高砂市,荒井町小松原１丁目１９番４４号,,28,216,6760011,,,2025-10-27,清算の結了等,,,2015-10-05,1,,,,,ワイティーエス,0
1377,5180001045526,登記記録の閉鎖等,0,2025-10-31,2025-10-23,平田大和エンジニアリング株式会社,,株式会社,愛知県,清須市,土器野宮東７０３番地の２,,23,233,4520914,,,2025-10-23,清算の結了等,,,2015-10-05,1,,,,,ヒラタダイワエンジニアリング,0
1387,5180301037751,登記記録の閉鎖等,0,2025-10-31,2025-10-15,ＧＯＡＴｃｏａｔｉｎｇ株式会社,,株式会社,愛知県,刈谷市,泉田町宮下５７－１,,23,210,4480004,,,2025-10-15,清算の結了等,,,2023-08-30,1,,,,,ゴウトコーティング,0
1394,5190001027804,登記記録の閉鎖等,0,2025-10-31,2025-10-23,株式会社Ｃｒｅｅｐｅｒ,,株式会社,愛知県,名古屋市昭和区,福江３丁目４番２８号,,23,107,4660059,,,2025-10-23,清算の結了等,,,2020-11-12,1,,,,,クリーパー,0
1407,5250001017071,登記記録の閉鎖等,0,2025-10-31,2025-10-27,株式会社敦煌,,株式会社,山口県,山陽小野田市,大字西高泊字烏帽子岩沖６７６番地９の１,,35,216,7560057,,,2025-10-27,合併による解散等,2370001010224,令和７年１０月１日名古屋市北区黒川本通二丁目４６番地株式会社焼肉坂井ホールディングス（2370001010224）に合併し解散,2018-04-04,1,,,,,トンコウ,0
1408,5250001018474,登記記録の閉鎖等,0,2025-10-31,2025-10-28,ネクストライ株式会社,,株式会社,山口県,長門市,仙崎９５６番地１,,35,211,7594106,,,2025-10-28,清算の結了等,,,2020-10-05,1,,,,,ネクストライ,0
1433,5290801024602,登記記録の閉鎖等,0,2025-10-31,2025-10-27,クラシアル株式会社,,株式会社,福岡県,北九州市若松区,鴨生田１丁目２番２５号,,40,103,8080105,,,2025-10-27,清算の結了等,,,2018-05-10,1,,,,,クラシアル,0
1447,5360003007101,登記記録の閉鎖等,0,2025-10-31,2025-10-29,合同会社アペックス,,合同会社,沖縄県,名護市,字宮里８７３番地９・３０１,,47,209,9050011,,,2025-10-29,清算の結了等,,,2015-10-05,1,,,,,アペックス,0
1449,5370001016160,登記記録の閉鎖等,0,2025-10-31,2025-10-20,株式会社Ｎ経営支援,,株式会社,宮城県,仙台市宮城野区,田子１丁目５番２７号,,04,102,9830021,,,2025-10-20,清算の結了等,,,2015-10-05,1,,,,,エヌケイエイシエン,0
1450,5370001022984,登記記録の閉鎖等,0,2025-10-31,2025-10-17,株式会社ロータスワールド,,株式会社,宮城県,仙台市宮城野区,名掛丁２０５－６イーストプラザ名掛丁６０９,,04,102,9830864,,,2025-10-17,清算の結了等,,,2015-10-05,1,,,,,ロータスワールド,0
1469,5470002018831,登記記録の閉鎖等,0,2025-10-31,2025-10-27,アジロ工業有限会社,,有限会社,香川県,小豆郡土庄町,馬越甲８７９番地２,,37,322,7614141,,,2025-10-27,清算の結了等,,,2015-10-05,1,,,,,アジロコウギョウ,0
1470,5490005006014,登記記録の閉鎖等,0,2025-10-31,2025-10-30,公益財団法人高知県美術振興会,,その他の設立登記法人,高知県,高知市,本町３丁目３番３９号,,39,201,7800870,,,2025-10-30,清算の結了等,,,2015-10-05,1,,,,,コウチケンビジュツシンコウカイ,0
1473,6010001102243,登記記録の閉鎖等,0,2025-10-31,2025-10-21,リッチヒルメディカル株式会社,,株式会社,東京都,千代田区,神田神保町２丁目１４番地,,13,101,1010051,,,2025-10-21,清算の結了等,,,2015-10-05,1,,,,,リッチヒルメディカル,0
1474,6010001134393,登記記録の閉鎖等,0,2025-10-31,2025-10-14,株式会社エイドウィズ,,株式会社,東京都,千代田区,神田佐久間町３丁目２７番３号,,13,101,1010025,,,2025-10-14,清算の結了等,,,2015-10-05,1,,,,,エイドウィズ,0
1475,6010001142388,登記記録の閉鎖等,0,2025-10-31,2025-10-17,株式会社加齢・栄養研究所,,株式会社,東京都,千代田区,神田小川町１丁目１０番地２ＡＴＥＬＩＥＲ・ＹＯＵＲＳ小川町,,13,101,1010052,,,2025-10-17,清算の結了等,,,2015-10-05,1,,,,,カレイエイヨウケンキュウジョ,0
1485,6010003037735,登記記録の閉鎖等,0,2025-10-31,2025-10-17,合同会社グッドルーティンカンパニー,,合同会社,東京都,中央区,銀座１丁目６番８号第２上一ビル２階,,13,102,1040061,,,2025-10-17,清算の結了等,,,2022-05-24,1,,,,,グッドルーティンカンパニー,0
1518,6010601066581,登記記録の閉鎖等,0,2025-10-31,2025-10-21,株式会社ＱＲＥＷ,,株式会社,東京都,江東区,平野２丁目１１－６,,13,108,1350023,,,2025-10-21,清算の結了等,,,2025-01-14,1,,,,,クルー,0
1519,6010701026097,登記記録の閉鎖等,0,2025-10-31,2025-10-01,株式会社Ｐａｔｈｅｅ,,株式会社,東京都,渋谷区,東１丁目３２番１２号渋谷プロパティータワー１０階,,13,113,1500011,,,2025-10-01,合併による解散等,1011001107195,令和７年１０月１日東京都渋谷区東一丁目３２番１２号渋谷プロパティータワー１０階株式会社ｍｏｖ（1011001107195）に合併し解散,2015-10-05,1,,,,,パシー,0
1531,6011101041091,登記記録の閉鎖等,0,2025-10-31,2025-10-01,アセッツマネジメント株式会社,,株式会社,東京都,新宿区,信濃町１２番地１,,13,104,1600016,,,2025-10-01,合併による解散等,4011101027695,令和７年１０月１日東京都新宿区信濃町１２番地１株式会社アセッツアールアンドディー（4011101027695）に合併し解散,2015-10-05,1,,,,,アセッツマネジメント,0
1534,6011101100764,登記記録の閉鎖等,0,2025-10-31,2025-10-01,株式会社Ｍｅｄｉｃａｌ‐Ａｌｌｉａｎｃｅ,,株式会社,東京都,新宿区,片町２－２エステート絹３Ｆ,,13,104,1600001,,,2025-10-01,清算の結了等,,,2022-11-08,1,,,,,メディカルアライアンス,0
1562,6013201013623,登記記録の閉鎖等,0,2025-10-31,2025-10-02,株式会社ジャパンヒューマンネットワーク,,株式会社,東京都,目黒区,八雲２丁目１２番７号,,13,110,1520023,,,2025-10-02,清算の結了等,,,2015-10-05,1,,,,,ジャパンヒューマンネットワーク,0
1573,6020001029023,登記記録の閉鎖等,0,2025-10-31,2025-10-28,株式会社港化成工業,,株式会社,茨城県,鉾田市,子生４００番地４,,08,234,3111414,,,2025-10-28,合併による解散等,4020001069780,令和７年１０月１日神奈川県横浜市都筑区川向町９５７番地３１東和プラスチックス株式会社（4020001069780）に合併し解散,2015-10-05,1,,,,,ミナトカセイコウギョウ,0
1576,6020005001580,登記記録の閉鎖等,0,2025-10-31,2025-10-20,医療法人社団清和会,,その他の設立登記法人,神奈川県,横浜市青葉区,美しが丘４丁目１番１９,,14,117,2250002,,,2025-10-20,清算の結了等,,,2015-10-05,1,,,,,セイワカイ,0
1598,6030002056222,登記記録の閉鎖等,0,2025-10-31,2025-10-15,有限会社和久津電気,,有限会社,埼玉県,桶川市,泉２丁目１番５号,,11,231,3630021,,,2025-10-15,清算の結了等,,,2015-10-05,1,,,,,ワクツデンキ,0
1613,6050001016027,登記記録の閉鎖等,0,2025-10-31,2025-10-20,株式会社プレジャー,,株式会社,茨城県,つくば市,谷田部２４１６番地１５,,08,220,3050861,,,2025-10-20,清算の結了等,,,2015-10-05,1,,,,,プレジャー,0
1629,6080102014406,登記記録の閉鎖等,0,2025-10-31,2025-10-27,有限会社高柳鉄工所,00068026,有限会社,静岡県,富士市,天間３９８番地の３,,22,210,4190205,,,2025-10-27,清算の結了等,,,2015-10-05,1,,,,,タカヤナギテッコウジョ,0
1635,6110001030987,登記記録の閉鎖等,0,2025-10-31,2025-10-27,株式会社ＳＡＩコーポレーション,,株式会社,新潟県,新潟市中央区,東幸町４番１０号,,15,103,9500906,,,2025-10-27,清算の結了等,,,2015-10-05,1,,,,,サイコーポレーション,0
1637,6120001136692,登記記録の閉鎖等,0,2025-10-31,2025-10-23,株式会社アンサー,,株式会社,大阪府,大阪市中央区,大手前１丁目６番４号,,27,128,5400008,,,2025-10-23,清算の結了等,,,2015-10-05,1,,,,,,0
1641,6120001233523,登記記録の閉鎖等,0,2025-10-31,2025-10-28,株式会社トライデント企画,,株式会社,大阪府,大阪市大正区,三軒家西２丁目１６番６号,,27,108,5510001,,,2025-10-28,清算の結了等,,,2020-12-04,1,,,,,トライデントキカク,0
1650,6120003018567,登記記録の閉鎖等,0,2025-10-31,2025-10-28,合同会社ＭＩＨＯＲＥ,,合同会社,沖縄県,那覇市,銘苅３丁目９番２２号,,47,201,9000004,,,2025-10-28,清算の結了等,,,2020-12-21,1,,,,,ミホーレ,0
1659,6130001008429,登記記録の閉鎖等,0,2025-10-31,2025-10-29,株式会社田中ガス住宅設備センター,,株式会社,京都府,京都市西京区,上桂三ノ宮町５５番地の１,,26,111,6158224,,,2025-10-29,清算の結了等,,,2015-10-05,1,,,,,タナカガスジュウタクセツビセンター,0
1676,6180001150589,登記記録の閉鎖等,0,2025-10-31,2025-10-20,株式会社プリエンド・マーケティング,,株式会社,愛知県,名古屋市緑区,鳴海町字作町４４番地,,23,114,4580801,,,2025-10-20,清算の結了等,,,2022-04-01,1,,,,,プリエンドマーケティング,0
1677,6180001163005,登記記録の閉鎖等,0,2025-10-31,2025-10-22,株式会社みかさや,,株式会社,愛知県,名古屋市西区,枇杷島３丁目２９番１８号（シャトー白菊１０５号）,,23,104,4510053,,,2025-10-22,清算の結了等,,,2024-08-23,1,,,,,ミカサヤ,0
1697,6190001027704,登記記録の閉鎖等,0,2025-10-31,2025-10-23,株式会社銀商,,株式会社,三重県,伊賀市,平野西町７２番地,,24,216,5180820,,,2025-10-23,清算の結了等,,,2020-10-06,1,,,,,ギンショウ,0
1698,6200001008446,登記記録の閉鎖等,0,2025-10-31,2025-10-23,株式会社山嘉,,株式会社,岐阜県,岐阜市,花月町２丁目２０番地１,,21,201,5008128,,,2025-10-23,清算の結了等,,,2015-10-05,1,,,,,ヤマカ,0
1700,6200001010526,登記記録の閉鎖等,0,2025-10-31,2025-10-24,株式会社ＮＡＫＡＪＩ,,株式会社,岐阜県,本巣郡北方町,春来町３丁目１０３番地,,21,421,5010435,,,2025-10-24,清算の結了等,,,2015-10-05,1,,,,,,0
1710,6250002003458,登記記録の閉鎖等,0,2025-10-31,2025-10-28,防府自動車販売有限会社,,有限会社,山口県,防府市,大字田島４３２番地の１,,35,206,7470834,,,2025-10-28,清算の結了等,,,2015-10-05,1,,,,,ホウフジドウシャハンバイ,0
1714,6280005002719,登記記録の閉鎖等,0,2025-10-31,2025-10-27,医療法人木星会,,その他の設立登記法人,島根県,出雲市,斐川町神氷２７９２番地,,32,203,6990613,,,2025-10-27,清算の結了等,,,2015-10-05,1,,,,,モクセイカイ,0
1716,6290001083514,登記記録の閉鎖等,0,2025-10-31,2025-10-01,セーフ株式会社,,株式会社,福岡県,糸島市,瀬戸３１４番,,40,230,8191156,,,2025-10-01,清算の結了等,,,2018-12-05,1,,,,,セーフ,0
1722,6290801015914,登記記録の閉鎖等,0,2025-10-31,2025-10-27,ウイルテック株式会社,,株式会社,福岡県,行橋市,大字福丸７７０番地１,,40,213,8240073,,,2025-10-27,清算の結了等,,,2015-10-05,1,,,,,ウイルテック,0
1732,6330002030171,登記記録の閉鎖等,0,2025-10-31,2025-10-22,有限会社相良ブロツク工業,,有限会社,熊本県,球磨郡錦町,大字一武２８２２番地の５,,43,501,8680302,,,2025-10-22,清算の結了等,,,2015-10-05,1,,,,,サガラブロックコウギョウ,0
1739,6360001035268,登記記録の閉鎖等,0,2025-10-31,2025-10-29,株式会社ネスト,,株式会社,沖縄県,国頭郡今帰仁村,字今泊９６０番地,,47,306,9050428,,,2025-10-29,清算の結了等,,,2025-05-28,1,,,,,ネスト,0
1744,6370502000125,登記記録の閉鎖等,0,2025-10-31,2025-10-17,有限会社オフィスエムエーシー,,有限会社,宮城県,気仙沼市,上田中１丁目４番地の５,,04,205,9880056,,,2025-10-17,清算の結了等,,,2015-10-05,1,,,,,オフィスエムエーシー,0
1776,7010003033948,登記記録の閉鎖等,0,2025-10-31,2025-10-16,合同会社南青山ビルプロジェクト,,合同会社,東京都,中央区,新川２丁目２７番１号,,13,102,1040033,,,2025-10-16,清算の結了等,,,2021-01-21,1,,,,,ミナミアオヤマビルプロジェクト,0
1794,7011001096796,登記記録の閉鎖等,0,2025-10-31,2025-10-01,株式会社通報サポートセンター・アメリカ,,株式会社,東京都,渋谷区,広尾５丁目８番１４号,,13,113,1500012,,,2025-10-01,合併による解散等,3011001096676,令和７年１０月１日東京都渋谷区広尾五丁目８番１４号株式会社通報サポートセンター（3011001096676）に合併し解散,2015-10-05,1,,,,,ツウホウサポートセンターアメリカ,0
1795,7011001104625,登記記録の閉鎖等,0,2025-10-31,2025-10-01,株式会社Ｒ２,,株式会社,東京都,渋谷区,恵比寿西２丁目１９番９号,,13,113,1500021,,,2025-10-01,合併による解散等,1140001020940,令和７年１０月１日東京都渋谷区恵比寿西二丁目１９番９号株式会社カラーズ（1140001020940）に合併し解散,2015-10-05,1,,,,,アールツー,0
1796,7011001134333,登記記録の閉鎖等,0,2025-10-31,2025-10-01,株式会社アセンドモデルズ,,株式会社,東京都,渋谷区,上原１丁目７番１９号,,13,113,1510064,,,2025-10-01,合併による解散等,7120001193130,令和７年１０月１日東京都渋谷区上原一丁目７番１９号ウエストマネージメント株式会社（7120001193130）に合併し解散,2020-06-16,1,,,,,アセンドモデルズ,0
1798,7011001160065,登記記録の閉鎖等,0,2025-10-31,2025-10-01,株式会社ＩＭＫ　Ｒｕｓｓｅｌｌ,,株式会社,東京都,渋谷区,神宮前５丁目５０番５号,,13,113,1500001,,,2025-10-01,清算の結了等,,,2024-02-22,1,,,,,アイエムケーラッセル,0
1815,7011201006076,登記記録の閉鎖等,0,2025-10-31,2025-10-27,株式会社コア・カンパニー,,株式会社,東京都,中野区,南台２丁目５番８号,,13,114,1640014,,,2025-10-27,清算の結了等,,,2015-10-05,1,,,,,コアカンパニー,0
1827,7011702014338,登記記録の閉鎖等,0,2025-10-31,2025-10-23,有限会社中村興業,,有限会社,東京都,江戸川区,南小岩６丁目１６番１４号,,13,123,1330056,,,2025-10-23,清算の結了等,,,2015-10-05,1,,,,,ナカムラコウギョウ,0
1838,7013202008605,登記記録の閉鎖等,0,2025-10-31,2025-10-01,有限会社三昌不動産,,有限会社,東京都,目黒区,八雲２丁目１１番１１号,,13,110,1520023,,,2025-10-01,清算の結了等,,,2015-10-05,1,,,,,サンショウフドウサン,0
1845,7030001054580,登記記録の閉鎖等,0,2025-10-31,2025-09-29,株式会社関東イトウ商事運輸,,株式会社,千葉県,野田市,桐ケ作２１０番地１,,12,208,2700213,,,2025-09-29,清算の結了等,,,2015-10-05,1,,,,,カントウイトウショウジウンユ,0
1861,7040001135347,登記記録の閉鎖等,0,2025-10-31,2025-10-07,株式会社縁人,,株式会社,千葉県,習志野市,谷津５丁目３６番１８－２０２号,,12,216,2750026,,,2025-10-07,清算の結了等,,,2024-09-11,1,,,,,エンジン,0
1864,7040002053283,登記記録の閉鎖等,0,2025-10-31,2025-10-06,有限会社フォーレ,,有限会社,千葉県,松戸市,常盤平３丁目２４番地の１常盤平公団住宅３街区８棟２０５号,,12,207,2702261,,,2025-10-06,清算の結了等,,,2015-10-05,1,,,,,フォーレ,0
1870,7050002003709,登記記録の閉鎖等,0,2025-10-31,2025-10-22,有限会社さぬき,,有限会社,茨城県,東茨城郡茨城町,大字長岡３４８１番地の５０６,,08,302,3113116,,,2025-10-22,清算の結了等,,,2015-10-05,1,,,,,サヌキ,0
1872,7070002016205,登記記録の閉鎖等,0,2025-10-31,2025-10-28,小島縫製工業有限会社,,有限会社,群馬県,富岡市,七日市５９９番地,,10,210,3702343,,,2025-10-28,清算の結了等,,,2015-10-05,1,,,,,コジマホウセイコウギョウ,0
1877,7080101009141,登記記録の閉鎖等,0,2025-10-31,2025-10-29,東仙商事株式会社,,株式会社,静岡県,富士市,宮島８９０番地の１,,22,210,4160945,,,2025-10-29,清算の結了等,,,2015-10-05,1,,,,,トウセンショウジ,0
1878,7080101012211,登記記録の閉鎖等,0,2025-10-31,2025-10-29,株式会社エヌ企画,,株式会社,静岡県,富士宮市,大鹿窪１１７６番地の１０,,22,207,4190303,,,2025-10-29,清算の結了等,,,2015-10-05,1,,,,,エヌキカク,0
1879,7080101017879,登記記録の閉鎖等,0,2025-10-31,2025-10-27,株式会社ＰＯＰ,,株式会社,静岡県,伊豆の国市,長岡１０９８番地の２２,,22,225,4102211,,,2025-10-27,清算の結了等,,,2015-10-05,1,,,,,ポップ,0
1887,7110003003932,登記記録の閉鎖等,0,2025-10-31,2025-10-24,合同会社ケアプラン・ホリホック,,合同会社,新潟県,新潟市西区,槇尾６２０番地５,,15,107,9502121,,,2025-10-24,清算の結了等,,,2019-05-28,1,,,,,ケアプランホリホック,0
1897,7120001210959,登記記録の閉鎖等,0,2025-10-31,2025-10-22,株式会社ＩＤｅａ,,株式会社,大阪府,大阪市北区,梅田２丁目５番１３号桜橋第一ビル３０４号,,27,127,5300001,,,2025-10-22,清算の結了等,,,2018-01-29,1,,,,,,0
1912,7120105008473,登記記録の閉鎖等,0,2025-10-31,2025-10-27,特定非営利活動法人ため池を考える会,,その他の設立登記法人,大阪府,泉南市,信達市場８９３－３、４２８号,,27,228,5900504,,,2025-10-27,清算の結了等,,,2016-03-22,1,,,,,タメイケヲカンガエルカイ,0
1913,7120901021191,登記記録の閉鎖等,0,2025-10-31,2025-10-15,牧野建設工業株式会社,,株式会社,大阪府,豊能郡豊能町,東ときわ台４丁目６番地の１５,,27,321,5630103,,,2025-10-15,清算の結了等,,,2015-10-05,1,,,,,マキノケンセツコウギョウ,0
1916,7122001000530,登記記録の閉鎖等,0,2025-10-31,2025-10-28,株式会社リビングあらた,,株式会社,大阪府,堺市美原区,丹上４３５番地１,,27,147,5870011,,,2025-10-28,合併による解散等,5040001020385,令和７年１０月１日東京都江東区東陽六丁目３番２号株式会社あらた（5040001020385）に合併し解散,2015-10-05,1,,,,,リビングアラタ,0
1943,7180001015956,登記記録の閉鎖等,0,2025-10-31,2025-10-21,株式会社浅井本店,,株式会社,愛知県,名古屋市守山区,小幡宮ノ腰４番１９号,,23,113,4630052,,,2025-10-21,清算の結了等,,,2015-10-05,1,,,,,アサイホンテン,0
1953,7180002027488,登記記録の閉鎖等,0,2025-10-31,2025-10-23,有限会社キタムラ電機,,有限会社,愛知県,名古屋市中村区,大秋町４丁目６６番地,,23,105,4530042,,,2025-10-23,清算の結了等,,,2015-10-05,1,,,,,キタムラデンキ,0
1958,7180002065166,登記記録の閉鎖等,0,2025-10-31,2025-10-23,有限会社猪尾工業,,有限会社,愛知県,春日井市,高山町２丁目１０番地７,,23,206,4860912,,,2025-10-23,清算の結了等,,,2015-10-05,1,,,,,イオコウギョウ,0
1959,7180002071767,登記記録の閉鎖等,0,2025-10-31,2025-10-22,有限会社三陶,,有限会社,愛知県,瀬戸市,西窯町１３０番地,,23,204,4890028,,,2025-10-22,清算の結了等,,,2015-10-05,1,,,,,サントウ,0
1963,7180301009451,登記記録の閉鎖等,0,2025-10-31,2025-10-29,石原ホームコンポーネント株式会社,,株式会社,静岡県,静岡市清水区,西高町１４番１１号,,22,103,4240844,,,2025-10-29,合併による解散等,3180301005074,令和７年１０月２１日愛知県豊橋市下地町字柳目２８番地イシハラ株式会社（3180301005074）に合併し解散,2015-10-05,1,,,,,イシハラホームコンポーネント,0
1964,7180301022925,登記記録の閉鎖等,0,2025-10-31,2025-10-24,株式会社竹川石油,,株式会社,愛知県,西尾市,熊味町西平角２３番地,,23,213,4450071,,,2025-10-24,清算の結了等,,,2015-10-05,1,,,,,タケカワセキユ,0
1965,7180302015151,登記記録の閉鎖等,0,2025-10-31,2025-10-20,有限会社魚良,,有限会社,愛知県,蒲郡市,形原町会下２４番地,,23,214,4430104,,,2025-10-20,清算の結了等,,,2015-10-05,1,,,,,ウオリョウ,0
1978,7250001000694,登記記録の閉鎖等,0,2025-10-31,2025-10-29,蓬莱建設株式会社,00002367,株式会社,山口県,山口市,下小鯖１０３９５番地３,00117290,35,203,7530212,,,2025-10-29,清算の結了等,,,2015-10-05,1,,,,,ホウライケンセツ,0
1986,7260002029831,登記記録の閉鎖等,0,2025-10-31,2025-10-22,有限会社サクセス,,有限会社,岡山県,津山市,宮尾１２８２番地の１,,33,203,7094613,,,2025-10-22,清算の結了等,,,2015-10-05,1,,,,,サクセス,0
1999,7290002000434,登記記録の閉鎖等,0,2025-10-31,2025-10-02,小村設備工業有限会社,,有限会社,福岡県,福岡市西区,大字周船寺１８９－２２,,40,135,8190373,,,2025-10-02,清算の結了等,,,2015-10-05,1,,,,,コムラセツビコウギョウ,0
2023,7370501000315,登記記録の閉鎖等,0,2025-10-31,2025-10-16,株式会社太気商会,,株式会社,宮城県,気仙沼市,長磯浜６２番地,,04,205,9880231,,,2025-10-16,清算の結了等,,,2015-10-05,1,,,,,タイキショウカイ,0
2028,7390001006083,登記記録の閉鎖等,0,2025-10-31,2025-10-28,株式会社上野ガラス,,株式会社,山形県,酒田市,亀ケ崎５丁目１４番４６号,,06,204,9980842,,,2025-10-28,清算の結了等,,,2015-10-05,1,,,,,ウエノガラス,0
2033,7420002013612,登記記録の閉鎖等,0,2025-10-31,2025-10-21,有限会社第一地質,,有限会社,青森県,弘前市,大字小沢字御笠見５５番地１,,02,202,0368243,,,2025-10-21,清算の結了等,,,2015-10-05,1,,,,,ダイイチチシツ,0
2037,7430003015920,登記記録の閉鎖等,0,2025-10-31,2025-10-20,合同会社ビースト,,合同会社,北海道,札幌市中央区,南九条西１０丁目１番３６号クチュール９１０－１０３号,,01,101,0640809,,,2025-10-20,清算の結了等,,,2024-02-02,1,,,,,ビースト,0
2041,7480001001629,登記記録の閉鎖等,0,2025-10-31,2025-10-30,株式会社エヌエス,,株式会社,徳島県,徳島市,津田海岸町５番４３号,,36,201,7708001,,,2025-10-30,清算の結了等,,,2015-10-05,1,,,,,エヌエス,0
2042,7480005002961,登記記録の閉鎖等,0,2025-10-31,2025-10-30,医療法人工藤歯科医院,,その他の設立登記法人,徳島県,吉野川市,鴨島町西麻植字麻植市９１番地の１,,36,205,7760020,,,2025-10-30,清算の結了等,,,2015-10-05,1,,,,,クドウシカイイン,0
2047,8010001125333,登記記録の閉鎖等,0,2025-10-31,2025-10-06,株式会社エーワンコーポレーション,,株式会社,東京都,千代田区,内神田１丁目１８番１１－５１３号,,13,101,1010047,,,2025-10-06,清算の結了等,,,2015-10-05,1,,,,,エーワンコーポレーション,0
2050,8010001250222,登記記録の閉鎖等,0,2025-10-31,2025-10-15,ＵＮＩＴＥＤ　ＯＮＥＮＥＳＳ株式会社,,株式会社,東京都,中央区,京橋３丁目９番６号ＧＭ－３ビル５Ｆ,,13,102,1040031,,,2025-10-15,清算の結了等,,,2024-11-25,1,,,,,ユナイテッドワンネス,0
2075,8010702013431,登記記録の閉鎖等,0,2025-10-31,2025-10-02,有限会社ヨーク,,有限会社,東京都,港区,南麻布５丁目１０番２７－７０３号,,13,103,1060047,,,2025-10-02,清算の結了等,,,2015-10-05,1,,,,,ヨーク,0
2077,8010801004315,登記記録の閉鎖等,0,2025-10-31,2025-10-22,株式会社三喜,,株式会社,東京都,大田区,西蒲田６丁目１７番１７号,,13,111,1440051,,,2025-10-22,清算の結了等,,,2015-10-05,1,,,,,サンキ,0
2114,8020001100368,登記記録の閉鎖等,0,2025-10-31,2025-10-20,株式会社Ｋｎｏｃｋ　Ｕｐ,,株式会社,神奈川県,川崎市幸区,矢上１番７号,,14,132,2120056,,,2025-10-20,清算の結了等,,,2015-10-05,1,,,,,ノックアップ,0
2119,8021001027700,登記記録の閉鎖等,0,2025-10-31,2025-10-10,株式会社ぴーぷる,,株式会社,神奈川県,座間市,相模が丘１丁目４０番１５号,,14,216,2520001,,,2025-10-10,清算の結了等,,,2015-10-05,1,,,,,ピープル,0
2123,8021002000615,登記記録の閉鎖等,0,2025-10-31,2025-10-14,有限会社今村建築,,有限会社,神奈川県,藤沢市,辻堂５丁目３番２４号,,14,205,2510047,,,2025-10-14,清算の結了等,,,2015-10-05,1,,,,,イマムラケンチク,0
2125,8021002062622,登記記録の閉鎖等,0,2025-10-31,2025-10-16,有限会社イーグル,,有限会社,神奈川県,横須賀市,池上３丁目１番１０号,,14,201,2380035,,,2025-10-16,清算の結了等,,,2015-10-05,1,,,,,イーグル,0
2127,8030001095970,登記記録の閉鎖等,0,2025-10-31,2025-10-23,株式会社翠屋施工,,株式会社,埼玉県,さいたま市大宮区,宮町１丁目４０番ニコニコ堂大宮本店ビル１０階,,11,103,3300802,,,2025-10-23,清算の結了等,,,2015-10-05,1,,,,,ミドリヤセコウ,0
2133,8030002014426,登記記録の閉鎖等,0,2025-10-31,2025-10-23,有限会社横溝歯科商店,,有限会社,埼玉県,さいたま市大宮区,天沼町２丁目１６３番地,,11,103,3300834,,,2025-10-23,清算の結了等,,,2015-10-05,1,,,,,ヨコミゾシカショウテン,0
2134,8030002017775,登記記録の閉鎖等,0,2025-10-31,2025-10-23,有限会社アクト・クリエイト,,有限会社,埼玉県,さいたま市北区,宮原町２丁目３番地１１,,11,102,3310812,,,2025-10-23,清算の結了等,,,2015-10-05,1,,,,,アクトクリエイト,0
2154,8080005006135,登記記録の閉鎖等,0,2025-10-31,2025-10-24,公益財団法人フジ育英会,,その他の設立登記法人,静岡県,静岡市清水区,清開１丁目４番１０号,,22,103,4240924,,,2025-10-24,清算の結了等,,,2015-10-05,1,,,,,フジイクエイカイ,0
2155,8080101017812,登記記録の閉鎖等,0,2025-10-31,2025-10-29,株式会社たんぽぽ,,株式会社,静岡県,賀茂郡河津町,見高２３１２番地の５５,,22,302,4130503,,,2025-10-29,清算の結了等,,,2015-10-05,1,,,,,タンポポ,0
2156,8080101021005,登記記録の閉鎖等,0,2025-10-31,2025-10-29,ミラクル株式会社,,株式会社,静岡県,富士宮市,大宮町１２番１号,,22,207,4180066,,,2025-10-29,清算の結了等,,,2019-03-08,1,,,,,ミラクル,0
2172,8120001263840,登記記録の閉鎖等,0,2025-10-31,2025-10-28,Ｅｐｉｃ　Ｗｏｒｌｄ株式会社,,株式会社,大阪府,大阪市北区,芝田２丁目８－１１共栄ビル２階,,27,127,5300012,,,2025-10-28,合併による解散等,9010401141334,令和７年１０月１日神奈川県相模原市中央区淵野辺本町３－２８－１株式会社雄大ヒューマニティー（9010401141334）に合併し解散,2024-04-09,1,,,,,エピックワールド,0
2177,8120002013716,登記記録の閉鎖等,0,2025-10-31,2025-10-22,有限会社マンツーマン教育,,有限会社,大阪府,大阪市天王寺区,南河堀町４番６９号,,27,109,5430054,,,2025-10-22,清算の結了等,,,2015-10-05,1,,,,,マンツーマンキョウイク,0
2192,8120903001819,登記記録の閉鎖等,0,2025-10-31,2025-10-17,ＢＳ企画合同会社,,合同会社,大阪府,吹田市,古江台５丁目１番２７号,,27,205,5650874,,,2025-10-17,清算の結了等,,,2015-12-18,1,,,,,ビーエスキカク,0
2200,8130001075005,登記記録の閉鎖等,0,2025-10-31,2025-10-28,株式会社ＪＵＳＴ　ｉＤＥＡ,,株式会社,京都府,木津川市,相楽川ノ尻２７番地２２,,26,214,6190222,,,2025-10-28,清算の結了等,,,2023-08-22,1,,,,,ジャストアイデア,0
2202,8130003007055,登記記録の閉鎖等,0,2025-10-31,2025-10-29,合同会社Ｐｅｎｏｎｏｍｅ,,合同会社,静岡県,三島市,大場１０３番地,,22,206,4110803,,,2025-10-29,清算の結了等,,,2021-02-22,1,,,,,ペノノメ,0
2203,8140001012948,登記記録の閉鎖等,0,2025-10-31,2025-10-28,株式会社黒田鉄工所,,株式会社,兵庫県,神戸市兵庫区,浜中町１丁目１２番５号,,28,105,6520875,,,2025-10-28,清算の結了等,,,2015-10-05,1,,,,,クロダテッコウショ,0
2205,8140001101668,登記記録の閉鎖等,0,2025-10-31,2025-10-01,株式会社カラーズ・プロダクツ,,株式会社,東京都,渋谷区,恵比寿西２丁目１９番９号,,13,113,1500021,,,2025-10-01,合併による解散等,1140001020940,令和７年１０月１日東京都渋谷区恵比寿西二丁目１９番９号株式会社カラーズ（1140001020940）に合併し解散,2016-04-11,1,,,,,カラーズプロダクツ,0
2207,8140002061498,登記記録の閉鎖等,0,2025-10-31,2025-10-24,有限会社すぎもと工務店,,有限会社,兵庫県,西脇市,津万４１６番地,,28,213,6770036,,,2025-10-24,清算の結了等,,,2015-10-05,1,,,,,スギモトコウムテン,0
2212,8170001007094,登記記録の閉鎖等,0,2025-10-31,2025-10-29,株式会社上丁,,株式会社,和歌山県,有田郡湯浅町,大字湯浅８４２番地,,30,361,6430004,,,2025-10-29,清算の結了等,,,2015-10-05,1,,,,,ウエチョウ,0
2215,8180001075594,登記記録の閉鎖等,0,2025-10-31,2025-10-20,ウィズラブインターナショナル株式会社,,株式会社,愛知県,犬山市,大字犬山字東古券６７３番地２,,23,215,4840083,,,2025-10-20,清算の結了等,,,2015-10-05,1,,,,,ウィズラブインターナショナル,0
2232,8180302007916,登記記録の閉鎖等,0,2025-10-31,2025-10-27,伸成紙器有限会社,,有限会社,愛知県,豊橋市,下地町字野箱６９番地,,23,201,4400083,,,2025-10-27,清算の結了等,,,2015-10-05,1,,,,,シンセイシキ,0
2260,8290002023590,登記記録の閉鎖等,0,2025-10-31,2025-10-02,有限会社アート・ステージ,,有限会社,福岡県,福岡市博多区,博多駅南５丁目１０番１３号,,40,132,8120016,,,2025-10-02,清算の結了等,,,2015-10-05,1,,,,,アートステージ,0
2263,8290802001572,登記記録の閉鎖等,0,2025-10-31,2025-10-27,有限会社喜助木材商会,,有限会社,福岡県,北九州市小倉南区,葛原本町５丁目１２番２７号,,40,107,8000253,,,2025-10-27,清算の結了等,,,2015-10-05,1,,,,,キスケモクザイショウカイ,0
2268,8330001014974,登記記録の閉鎖等,0,2025-10-31,2025-10-21,株式会社吉澤,,株式会社,熊本県,熊本市南区,良町２丁目８番８号,,43,104,8620969,,,2025-10-21,合併による解散等,3330001004773,令和７年１０月２１日熊本市南区流通団地一丁目６８番地株式会社ユーケイデンタル（3330001004773）に合併し解散,2015-10-05,1,,,,,ヨシザワ,0
2275,8370001051130,登記記録の閉鎖等,0,2025-10-31,2025-10-08,バスク株式会社,,株式会社,宮城県,仙台市青葉区,上愛子字芦見２０,,04,101,9893124,,,2025-10-08,清算の結了等,,,2024-04-05,1,,,,,バスク,0
2276,8370003003831,登記記録の閉鎖等,0,2025-10-31,2025-10-16,合同会社ぷらっとエステート,,合同会社,宮城県,大崎市,古川下中目字曲屋敷１９番地,,04,215,9896123,,,2025-10-16,清算の結了等,,,2017-06-06,1,,,,,プラットエステート,0
2279,8370602000196,登記記録の閉鎖等,0,2025-10-31,2025-10-16,有限会社一年三組,,有限会社,宮城県,多賀城市,下馬４丁目１番２５号,,04,209,9850835,,,2025-10-16,清算の結了等,,,2015-10-05,1,,,,,イチネンサンクミ,0
2285,8430001078976,登記記録の閉鎖等,0,2025-10-31,2025-10-27,株式会社北海マテリアル,,株式会社,北海道,札幌市白石区,菊水三条４丁目４－６－２階,,01,104,0030803,,,2025-10-27,清算の結了等,,,2019-05-20,1,,,,,ホッカイマテリアル,0
2299,9010002005905,登記記録の閉鎖等,0,2025-10-31,2025-10-14,有限会社美能矢工務店,,有限会社,東京都,文京区,千石１丁目２番１号,,13,105,1120011,,,2025-10-14,清算の結了等,,,2015-10-05,1,,,,,ミノヤコウムテン,0
2319,9010401185587,登記記録の閉鎖等,0,2025-10-31,2025-10-02,株式会社ＶｉＺＵＡＬＬＹ,,株式会社,東京都,港区,六本木１丁目３番５０号,,13,103,1060032,,,2025-10-02,合併による解散等,9010401182221,令和７年９月３０日東京都港区六本木一丁目３番５０号株式会社ＡＳ（9010401182221）に合併し解散,2024-10-11,1,,,,,ビジュアリー,0
2325,9010403033769,登記記録の閉鎖等,0,2025-10-31,2025-10-02,合同会社嘉華,,合同会社,東京都,港区,芝浦２丁目９番１－１２０２,,13,103,1080023,,,2025-10-02,清算の結了等,,,2024-11-13,1,,,,,ヨシカ,0
2332,9010601051886,登記記録の閉鎖等,0,2025-10-31,2025-10-20,ウィティアセットジャパン株式会社,,株式会社,東京都,墨田区,東墨田２丁目１３番１３号,,13,107,1310042,,,2025-10-20,清算の結了等,,,2017-07-13,1,,,,,ウィティアセットジャパン,0
2338,9010902024979,登記記録の閉鎖等,0,2025-10-31,2025-10-20,有限会社ハル・メディア・ランチ,,有限会社,宮城県,仙台市青葉区,高野原３丁目１２番１５号,,04,101,9893216,,,2025-10-20,清算の結了等,,,2015-10-05,1,,,,,ハルメディアランチ,0
2339,9011001048812,登記記録の閉鎖等,0,2025-10-31,2025-10-28,株式会社スイスセルラボ・ジャパン,,株式会社,東京都,渋谷区,代々木３丁目３７番５号,,13,113,1510053,,,2025-10-28,合併による解散等,7010401026933,令和７年１０月１日東京都港区南青山二丁目１２番１２号株式会社不二ビユーテイ（7010401026933）に合併し解散,2015-10-05,1,,,,,スイスセルラボジャパン,0
2343,9011001100837,登記記録の閉鎖等,0,2025-10-31,2025-10-02,Ｍｏｔｏｙｏｙｏｇｉ　Ｃｏｎｓｕｌｔｉｎｇ株式会社,,株式会社,千葉県,千葉市美浜区,真砂４丁目７番１５号,,12,106,2610011,,,2025-10-02,清算の結了等,,,2015-10-05,1,,,,,モトヨヨギコンサルティング,0
2347,9011001141617,登記記録の閉鎖等,0,2025-10-31,2025-10-01,株式会社モンスターラボジャパン,,株式会社,東京都,渋谷区,広尾１丁目１番３９号恵比寿プライムスクエアタワー４Ｆ,,13,113,1500012,,,2025-10-01,合併による解散等,3013201019037,令和７年１０月１日東京都渋谷区広尾一丁目１番３９号恵比寿プライムスクエアタワー４Ｆ株式会社モンスターラボ（3013201019037）に合併し解散,2021-08-04,1,,,,,モンスターラボジャパン,0
2355,9011002014425,登記記録の閉鎖等,0,2025-10-31,2025-10-01,有限会社新清社,,有限会社,東京都,渋谷区,南平台町１３番３号,,13,113,1500036,,,2025-10-01,合併による解散等,3011001015553,令和７年１０月１日東京都渋谷区南平台町１３番３号株式会社トービ（3011001015553）に合併し解散,2015-10-05,1,,,,,シンセイシャ,0
2364,9011202010348,登記記録の閉鎖等,0,2025-10-31,2025-10-27,有限会社リング,,有限会社,東京都,中野区,野方３丁目２９番１１－１０３号,,13,114,1650027,,,2025-10-27,清算の結了等,,,2015-10-05,1,,,,,リング,0
2365,9011501021327,登記記録の閉鎖等,0,2025-10-31,2025-10-28,株式会社Ａ・コマース,,株式会社,東京都,北区,西が丘１丁目４３番５号,,13,117,1150056,,,2025-10-28,清算の結了等,,,2016-02-15,1,,,,,エーコマース,0
2414,9040001052400,登記記録の閉鎖等,0,2025-10-31,2025-10-01,株式会社ワシヤ工業,,株式会社,千葉県,木更津市,清見台東２丁目１番１９号,,12,206,2920041,,,2025-10-01,清算の結了等,,,2015-10-05,1,,,,,ワシヤコウギョウ,0
2428,9050001054560,登記記録の閉鎖等,0,2025-10-31,2025-10-22,株式会社ケアサポート雅,,株式会社,茨城県,牛久市,栄町４丁目１３７番１グレインスクエアＥ１０２号室,,08,219,3001233,,,2025-10-22,清算の結了等,,,2024-04-05,1,,,,,ケアサポートミヤビ,0
2437,9100001008338,登記記録の閉鎖等,0,2025-10-31,2025-10-29,株式会社赤尾建設,,株式会社,長野県,小諸市,甲３４８番地１,,20,208,3840801,,,2025-10-29,清算の結了等,,,2015-10-05,1,,,,,アカオケンセツ,0
2439,9100005008549,登記記録の閉鎖等,0,2025-10-31,2025-10-28,特定非営利活動法人ＣＬＩＰ　ｉｎすわ,,その他の設立登記法人,長野県,茅野市,中大塩２２番地３５,,20,214,3910215,,,2025-10-28,清算の結了等,,,2015-10-05,1,,,,,クリップインスワ,0
2440,9110001011258,登記記録の閉鎖等,0,2025-10-31,2025-10-27,株式会社モード・ジャパン,,株式会社,新潟県,東蒲原郡阿賀町,平堀１７９１番地,,15,385,9594403,,,2025-10-27,清算の結了等,,,2015-10-05,1,,,,,モードジャパン,0
2444,9110002008328,登記記録の閉鎖等,0,2025-10-31,2025-10-23,有限会社谷沢薬局,,有限会社,新潟県,新潟市江南区,茜ケ丘２番３号,,15,104,9500212,,,2025-10-23,清算の結了等,,,2015-10-05,1,,,,,タニサワヤッキョク,0
2446,9110002025851,登記記録の閉鎖等,0,2025-10-31,2025-10-23,有限会社ボナール,,有限会社,新潟県,中魚沼郡津南町,大字下船渡甲５７６０番地,,15,482,9498201,,,2025-10-23,清算の結了等,,,2015-10-05,1,,,,,ボナール,0
2448,9120001076969,登記記録の閉鎖等,0,2025-10-31,2025-10-21,アイ・ティー・テレシス株式会社,,株式会社,大阪府,大阪市中央区,松屋町８番１号,,27,128,5420067,,,2025-10-21,合併による解散等,1020001108657,令和７年１０月１日横浜市西区南幸一丁目１番１号アイ・ティー・エックス株式会社（1020001108657）に合併し解散,2015-10-05,1,,,,,アイティーテレシス,0
2449,9120001194795,登記記録の閉鎖等,0,2025-10-31,2025-10-23,株式会社アットジョブ,,株式会社,大阪府,大阪市北区,天満２丁目１２番３号,,27,127,5300043,,,2025-10-23,清算の結了等,,,2015-12-02,1,,,,,,0
2452,9120001217242,登記記録の閉鎖等,0,2025-10-31,2025-10-29,京畿美術競賣株式会社,,株式会社,大阪府,大阪市中央区,南本町２丁目４番８号５Ｆ,,27,128,5410054,,,2025-10-29,清算の結了等,,,2018-11-19,1,,,,,ケイキビジュツキョウバイ,0
2453,9120001219230,登記記録の閉鎖等,0,2025-10-31,2025-10-28,株式会社エイチームフィナジー,,株式会社,大阪府,大阪市中央区,難波５丁目１番６０号なんばスカイオ,,27,128,5420076,,,2025-10-28,合併による解散等,3021001058790,令和７年１０月１日東京都千代田区大手町一丁目６番１号大手町ビルＦＩＮＯＬＡＢＳａｓｕｋｅ　Ｆｉｎａｎｃｉａｌ　Ｌａｂ株式会社（3021001058790）に合併し解散,2019-03-04,1,,,,,エイチームフィナジー,0
2461,9120002004334,登記記録の閉鎖等,0,2025-10-31,2025-10-20,有限会社恒栄設備工業,,有限会社,大阪府,大阪市都島区,毛馬町１丁目２０番２５号,,27,102,5340001,,,2025-10-20,清算の結了等,,,2015-10-05,1,,,,,コウエイセツビコウギョウ,0
2462,9120002044850,登記記録の閉鎖等,0,2025-10-31,2025-10-28,有限会社ハッピークローバー,,有限会社,大阪府,大阪市平野区,瓜破東３丁目１番４号,,27,126,5470022,,,2025-10-28,清算の結了等,,,2015-10-05,1,,,,,ハッピークローバー,0
2464,9120002056185,登記記録の閉鎖等,0,2025-10-31,2025-10-29,有限会社アトリエ・Ｕ建築設計室,,有限会社,大阪府,大阪市中央区,船越町２丁目１番７－３０２号,,27,128,5400036,,,2025-10-29,清算の結了等,,,2015-10-05,1,,,,,アトリエユー,0
2484,9140001015735,登記記録の閉鎖等,0,2025-10-31,2025-10-22,イノヰテクノ株式会社,,株式会社,兵庫県,神戸市長田区,東尻池町２丁目９番３号,,28,106,6530022,,,2025-10-22,清算の結了等,,,2015-10-05,1,,,,,イノイテクノ,0
2514,9180001147500,登記記録の閉鎖等,0,2025-10-31,2025-10-22,月に雁株式会社,,株式会社,愛知県,名古屋市中区,錦３丁目１８番１１号,,23,106,4600003,,,2025-10-22,清算の結了等,,,2021-08-23,1,,,,,ツキニカリ,0
2525,9190002022024,登記記録の閉鎖等,0,2025-10-31,2025-10-27,有限会社松屋コーヒー四日市店,,有限会社,三重県,四日市市,北浜町１番５号,,24,202,5100091,,,2025-10-27,清算の結了等,,,2015-10-05,1,,,,,マツヤコーヒーヨッカイチテン,0
2527,9200002020315,登記記録の閉鎖等,0,2025-10-31,2025-10-27,有限会社すいこう園,,有限会社,岐阜県,多治見市,姫町１丁目５８番地の３８,,21,204,5070061,,,2025-10-27,清算の結了等,,,2015-10-05,1,,,,,スイコウエン,0
2541,9290002033201,登記記録の閉鎖等,0,2025-10-31,2025-10-02,成功貿易有限会社,,有限会社,福岡県,糸島市,前原東１丁目９番１号,,40,230,8191119,,,2025-10-02,清算の結了等,,,2015-10-05,1,,,,,セイコウボウエキ,0
2542,9290002052837,登記記録の閉鎖等,0,2025-10-31,2025-10-01,株式会社スーパーガード,,株式会社,福岡県,福岡市中央区,平和３丁目９番２０号,,40,133,8100016,,,2025-10-01,合併による解散等,2290001011858,令和７年１０月１日福岡市中央区平和三丁目９番２０号株式会社エス・ジー・カンパニー（2290001011858）に合併し解散,2015-10-05,1,,,,,スーパーガード,0
2549,9300003002104,登記記録の閉鎖等,0,2025-10-31,2025-10-28,久宝商貿合同会社,,合同会社,佐賀県,小城市,芦刈町永田２５４番地,,41,208,8490313,,,2025-10-28,清算の結了等,,,2024-04-11,1,,,,,キュウホウショウボウ,0
2553,9330001024700,登記記録の閉鎖等,0,2025-10-31,2025-10-23,株式会社銀城工業,,株式会社,熊本県,熊本市東区,長嶺東５丁目１４番４３号,,43,102,8618038,,,2025-10-23,清算の結了等,,,2017-11-08,1,,,,,ギンジョウコウギョウ,0
2562,9370001044307,登記記録の閉鎖等,0,2025-10-31,2025-10-20,さくらハウス株式会社,,株式会社,宮城県,仙台市太白区,柳生６丁目２番地の３,,04,104,9811106,,,2025-10-20,清算の結了等,,,2019-04-25,1,,,,,サクラハウス,0
2564,9370002003856,登記記録の閉鎖等,0,2025-10-31,2025-10-20,有限会社ホールイン・ワン,,有限会社,宮城県,仙台市太白区,茂庭台１丁目１５番８号,,04,104,9820252,,,2025-10-20,清算の結了等,,,2015-10-05,1,,,,,ホールインワン,0
2565,9370301000249,登記記録の閉鎖等,0,2025-10-31,2025-10-20,株式会社オーヤマ,,株式会社,宮城県,石巻市,浜松町３番１２号,,04,202,9862131,,,2025-10-20,清算の結了等,,,2015-10-05,1,,,,,オーヤマ,0
2566,9390001017087,登記記録の閉鎖等,0,2025-10-31,2025-10-29,ホレルビットエンジニアリング株式会社,,株式会社,山形県,山形市,松山２丁目１０番２２号,,06,201,9902412,,,2025-10-29,清算の結了等,,,2022-12-02,1,,,,,ホレルビットエンジニアリング,0
2570,9410001012341,登記記録の閉鎖等,0,2025-10-31,2025-10-29,株式会社加藤新聞店,,株式会社,秋田県,由利本荘市,岩城亀田亀田町字亀田町７１番地２,,05,210,0181217,,,2025-10-29,清算の結了等,,,2019-12-06,1,,,,,カトウシンブンテン,0
2576,9460003000678,登記記録の閉鎖等,0,2025-10-31,2025-10-29,合同会社チューリップハウス農園摩周,,合同会社,北海道,川上郡弟子屈町,字屈斜路３８７番地３,,01,665,0883341,,,2025-10-29,清算の結了等,,,2016-05-17,1,,,,,チューリップハウスノウエンマシュウ,0
2579,9470005006037,登記記録の閉鎖等,0,2025-10-31,2025-10-28,一般社団法人糖質オフスタイル協会,,その他の設立登記法人,香川県,高松市,宮脇町１丁目２８番地７,,37,201,7600005,,,2025-10-28,清算の結了等,,,2017-09-04,1,,,,,トウシツオフスタイル,0
