sequenceNumber,corporateNumber,process,correct,updateDate,changeDate,name,nameImageId,kind,prefectureName,cityName,streetNumber,addressImageId,prefectureCode,cityCode,postCode,addressOutside,addressOutsideImageId,closeDate,closeCause,successorCorporateNumber,changeCause,assignmentDate,latest,enName,enPrefectureName,enCityName,enAddressOutside,furigana,hihyoji
9,1010001243216,新規,0,2024-03-25,2024-03-25,株式会社Ｇａｔｅｗａｙ,,株式会社,東京都,中央区,日本橋室町１丁目１１番１２号日本橋水野ビル７階,,13,102,1030022,,,,,,,2024-03-25,1,,,,,ゲートウェイ,0
10,1010001243364,新規,0,2024-03-25,2024-03-25,株式会社ＫＩＺＵＮＡ,,株式会社,東京都,中央区,日本橋３丁目２番１４号新槇町ビル別館第一２階,,13,102,1030027,,,,,,,2024-03-25,1,,,,,キズナ,0
11,1010001243380,新規,0,2024-03-25,2024-03-25,ＨＡＫＵＭＩ株式会社,,株式会社,東京都,中央区,銀座１丁目１２番４号Ｎ＆ＥＢＬＤ．７階,,13,102,1040061,,,,,,,2024-03-25,1,,,,,ハクミ,0
21,1010401181222,新規,0,2024-03-25,2024-03-25,株式会社ＹＵＹＥＯＮ　Ｊａｐａｎ,,株式会社,東京都,港区,高輪４丁目２番１７号ヴィヴァーチェ高輪１０１,,13,103,1080074,,,,,,,2024-03-25,1,,,,,ユーエヨンジャパン,0
22,1010401181247,新規,0,2024-03-25,2024-03-25,ＬＯＳ　ＴＯＭＯＩ株式会社,,株式会社,東京都,港区,南青山４丁目２６－１９メゾン松方４０２,,13,103,1070062,,,,,,,2024-03-25,1,,,,,ロストモイ,0
23,1010401181255,新規,0,2024-03-25,2024-03-25,株式会社ＴＨ,,株式会社,東京都,港区,南青山２丁目２番１５号,,13,103,1070062,,,,,,,2024-03-25,1,,,,,ティーエイチ,0
24,1010402019784,新規,0,2024-03-25,2024-03-25,モデラート・キャピタル有限会社,,有限会社,東京都,港区,新橋２丁目２番９号,,13,103,1050004,,,,,,,2024-03-25,1,,,,,,0
25,1010403032241,新規,0,2024-03-25,2024-03-25,ＧＳＳＧ　Ｓｏｌａｒ　Ｊａｐａｎ　Ｈｏｌｄｉｎｇｓ１４合同会社,,合同会社,東京都,港区,高輪１丁目３番１３号ＮＢＦ高輪ビル７階,,13,103,1080074,,,,,,,2024-03-25,1,,,,,ジーエスエスジーソーラージャパンホールディングスフォーティーン,0
30,1010603010708,新規,0,2024-03-25,2024-03-25,合同会社Ｔｒａｄｅ　Ｓｅｒｖｉｃｅ,,合同会社,東京都,江東区,常盤２丁目１４番１４号,,13,108,1350006,,,,,,,2024-03-25,1,,,,,トレードサービス,0
36,1011001160731,新規,0,2024-03-25,2024-03-25,株式会社ＡＬＬ　ｉｎ,,株式会社,東京都,渋谷区,恵比寿西２丁目４番８号ウィンド恵比寿ビル８Ｆ,,13,113,1500021,,,,,,,2024-03-25,1,,,,,オールイン,0
37,1011001160748,新規,0,2024-03-25,2024-03-25,株式会社ＳＳＥＮＳＥ,,株式会社,東京都,渋谷区,猿楽町９－３メゾンドコアンナフ４Ｆ,,13,113,1500033,,,,,,,2024-03-25,1,,,,,エッセンス,0
38,1011001160756,新規,0,2024-03-25,2024-03-25,株式会社ＤｅＣ,,株式会社,東京都,渋谷区,本町４丁目３１番１０号アイオン渋谷本町１０２,,13,113,1510071,,,,,,,2024-03-25,1,,,,,デック,0
39,1011001160814,新規,0,2024-03-25,2024-03-25,株式会社ＳＨＩＮＧ,,株式会社,東京都,渋谷区,恵比寿４丁目２０番３号恵比寿ガーデンプレイスタワー１８階,,13,113,1500013,,,,,,,2024-03-25,1,,,,,シン,0
42,1011003018738,新規,0,2024-03-25,2024-03-25,ＫＹＭＤ合同会社,,合同会社,東京都,渋谷区,恵比寿西１丁目４番２号川田ビル５階,,13,113,1500021,,,,,,,2024-03-25,1,,,,,ケーワイエムディー,0
51,1011401025955,新規,0,2024-03-25,2024-03-25,株式会社東日本商事,,株式会社,東京都,板橋区,本町３１番９号クレアシオン板橋本町８０１,,13,119,1730001,,,,,,,2024-03-25,1,,,,,ヒガシニホンショウジ,0
60,1012801023045,新規,0,2024-03-25,2024-03-25,株式会社ｅｒｉｄｅｓｉｇｎ,,株式会社,東京都,武蔵村山市,神明３丁目８１番地エトワール１０２号,,13,223,2080002,,,,,,,2024-03-25,1,,,,,エリデザイン,0
65,1013301052253,新規,0,2024-03-25,2024-03-25,株式会社ワーク,,株式会社,東京都,豊島区,東池袋１丁目３１番１３号,,13,116,1700013,,,,,,,2024-03-25,1,,,,,ワーク,0
73,1020001156251,新規,0,2024-03-25,2024-03-25,株式会社マツリカショウ,,株式会社,神奈川県,川崎市中原区,木月１丁目３２番３号内田マンション２階,,14,133,2110025,,,,,,,2024-03-25,1,,,,,マツリカショウ,0
74,1020001156367,新規,0,2024-03-25,2024-03-25,サクシア株式会社,,株式会社,神奈川県,横浜市港北区,新横浜２丁目４－１９富士火災横浜ビル４階,,14,109,2220033,,,,,,,2024-03-25,1,,,,,サクシア,0
75,1020001156383,新規,0,2024-03-25,2024-03-25,株式会社ＨＩ,,株式会社,神奈川県,横浜市中区,翁町２丁目８番５号関内エメラルドビル３０２,,14,104,2310028,,,,,,,2024-03-25,1,,,,,エイチアイ,0
76,1020001156391,新規,0,2024-03-25,2024-03-25,株式会社フェリシエ,,株式会社,神奈川県,横浜市鶴見区,矢向４丁目２１番９号１０３,,14,101,2300001,,,,,,,2024-03-25,1,,,,,フェリシエ,0
79,1021001081778,新規,0,2024-03-25,2024-03-25,株式会社タカハシ,,株式会社,神奈川県,平塚市,豊田本郷１６６２－２－１０３,,14,203,2540087,,,,,,,2024-03-25,1,,,,,タカハシ,0
80,1021003014298,新規,0,2024-03-25,2024-03-25,合同会社ＨＡＹＡＭＡ　ＭＯＴＯＲＳ,,合同会社,神奈川県,綾瀬市,大上３丁目２２番３２号あすか荘１０２,,14,218,2521104,,,,,,,2024-03-25,1,,,,,ハヤマモータース,0
81,1021005013050,新規,0,2024-03-25,2024-03-25,一般社団法人湘南病院連携協議会,,その他の設立登記法人,神奈川県,藤沢市,辻堂３丁目１０番２号,,14,205,2510047,,,,,,,2024-03-25,1,,,,,ショウナンビョウインレンケイキョウギカイ,0
85,1030001159369,新規,0,2024-03-25,2024-03-25,株式会社さいたままちづくり公社,,株式会社,埼玉県,さいたま市大宮区,桜木町２丁目３番地大宮マルイ７階,,11,103,3300854,,,,,,,2024-03-25,1,,,,,サイタママチヅクリコウシャ,0
86,1030001159385,新規,0,2024-03-25,2024-03-25,株式会社ワンエイト,,株式会社,埼玉県,桶川市,末広２丁目１０番１８号,,11,231,3630012,,,,,,,2024-03-25,1,,,,,ワンエイト,0
87,1030001159393,新規,0,2024-03-25,2024-03-25,株式会社光阿コーポレーション,,株式会社,埼玉県,春日部市,永沼７９５番地２,,11,214,3440123,,,,,,,2024-03-25,1,,,,,コウアコーポレーション,0
88,1030001159402,新規,0,2024-03-25,2024-03-25,株式会社ＯＮＥ,,株式会社,埼玉県,上尾市,大字原市３８３２番地６,,11,219,3620021,,,,,,,2024-03-25,1,,,,,ワン,0
89,1030001159410,新規,0,2024-03-25,2024-03-25,株式会社エフブルーム,,株式会社,埼玉県,戸田市,大字新曽９５８番地,,11,224,3350021,,,,,,,2024-03-25,1,,,,,エフブルーム,0
94,1030003023878,新規,0,2024-03-25,2024-03-25,合同会社Ｌａｎｄｍａｒｋ,,合同会社,埼玉県,さいたま市南区,南浦和２丁目３６番１６号ニューリド１０３号室,,11,108,3360017,,,,,,,2024-03-25,1,,,,,ランドマーク,0
95,1030005021599,新規,0,2024-03-25,2024-03-25,医療法人崇維会,,その他の設立登記法人,埼玉県,北足立郡伊奈町,大字小室２２１６番地１,,11,301,3620806,,,,,,,2024-03-25,1,,,,,シュウイカイ,0
97,1040001132688,新規,0,2024-03-25,2024-03-25,株式会社リノムーア,,株式会社,千葉県,船橋市,前原東２丁目１０番１号ウェルズ２１津田沼パート１０Ｂ号室,,12,204,2740824,,,,,,,2024-03-25,1,,,,,リノムーア,0
98,1040001132779,新規,0,2024-03-25,2024-03-25,株式会社ゆーふぉりあ,,株式会社,千葉県,柏市,東山２丁目５番３２号,,12,217,2770064,,,,,,,2024-03-25,1,,,,,ユーフォリア,0
99,1040001132804,新規,0,2024-03-25,2024-03-25,株式会社つなぐ,,株式会社,千葉県,市川市,南八幡４丁目１５番１７号パレスフィールド南八幡３０３号室,,12,203,2720023,,,,,,,2024-03-25,1,,,,,ツナグ,0
100,1040001132820,新規,0,2024-03-25,2024-03-25,株式会社ＧＨＢ,,株式会社,千葉県,千葉市中央区,南生実町２２番地１プライム生実ＩＶ１０１号,00134171,12,101,2600814,,,,,,,2024-03-25,1,,,,,ジーエッチビー,0
105,1040003024611,新規,0,2024-03-25,2024-03-25,合同会社アルカディア企画,,合同会社,千葉県,八千代市,緑が丘３丁目１番地６リーセントヒルズＥ－４０９,,12,221,2760049,,,,,,,2024-03-25,1,,,,,アルカディアキカク,0
111,1050001054502,新規,0,2024-03-25,2024-03-25,株式会社ＮＩＮＥ　ＳＴＡＲＳ,,株式会社,茨城県,古河市,東山田９３１番地１,,08,204,3060112,,,,,,,2024-03-25,1,,,,,ナインスターズ,0
112,1050003008217,新規,0,2024-03-25,2024-03-25,アムス合同会社,,合同会社,茨城県,守谷市,けやき台３丁目２８番地７,,08,224,3020128,,,,,,,2024-03-25,1,,,,,アムス,0
113,1050003008225,新規,0,2024-03-25,2024-03-25,合同会社ＹＧ企画,,合同会社,茨城県,守谷市,大柏８１８番地の２,,08,224,3020116,,,,,,,2024-03-25,1,,,,,ワイジーキカク,0
114,1060001036945,新規,0,2024-03-25,2024-03-25,株式会社ｔｏｃｈｉｇｉ　ｃｏｎｔｅｃ,,株式会社,栃木県,栃木市,西方町元１７８２番地２,,09,203,3220604,,,,,,,2024-03-25,1,,,,,トチギコンテック,0
119,1100001037303,新規,0,2024-03-25,2024-03-25,株式会社ＳＫソリューションズ,,株式会社,長野県,松本市,高宮中１番３０号ＡＭビル３Ｄ,,20,202,3900834,,,,,,,2024-03-25,1,,,,,エスケイソリューションズ,0
120,1100001037311,新規,0,2024-03-25,2024-03-25,株式会社ブランシャールレジス,,株式会社,長野県,北佐久郡軽井沢町,大字長倉２１１５番地１８３２,,20,321,3890111,,,,,,,2024-03-25,1,,,,,,0
123,1100003007460,新規,0,2024-03-25,2024-03-25,合同会社Ｚ農興,,合同会社,長野県,飯田市,座光寺４５２０番地３３,,20,205,3950001,,,,,,,2024-03-25,1,,,,,ゼットノウコウ,0
130,1120001263228,新規,0,2024-03-25,2024-03-25,株式会社ＰｒｉｎｃｅｓｓＶｉｓｉｏｎ,,株式会社,大阪府,大阪市淀川区,十三東１丁目１７番１３号水交ビル４０３,,27,123,5320023,,,,,,,2024-03-25,1,,,,,プリンセスビジョン,0
131,1120001263351,新規,0,2024-03-25,2024-03-25,株式会社ＢＵＺＺ,,株式会社,大阪府,大阪市浪速区,難波中３丁目３番３号北野ビル２Ｆ,,27,111,5560011,,,,,,,2024-03-25,1,,,,,バズ,0
132,1120001263376,新規,0,2024-03-25,2024-03-25,株式会社ワールドカオス,,株式会社,大阪府,大阪市北区,梅田２丁目５番１３号桜橋第一ビル３０４号,,27,127,5300001,,,,,,,2024-03-25,1,,,,,ワールドカオス,0
133,1120003026186,新規,0,2024-03-25,2024-03-25,合同会社彩,,合同会社,大阪府,大阪市西淀川区,千舟３丁目７番３５号,,27,113,5550013,,,,,,,2024-03-25,1,,,,,イロドリ,0
134,1120003026203,新規,0,2024-03-25,2024-03-25,ａｉｍ合同会社,,合同会社,大阪府,大阪市城東区,鴫野西５丁目２２番３０号,,27,118,5360014,,,,,,,2024-03-25,1,,,,,エイム,0
135,1120005024213,新規,0,2024-03-25,2024-03-25,非営利型一般社団法人ミライーね,,その他の設立登記法人,大阪府,大阪市中央区,南本町２丁目１番１号,,27,128,5410054,,,,,,,2024-03-25,1,,,,,ミライーネ,0
138,1120101069277,新規,0,2024-03-25,2024-03-25,東辰株式会社,,株式会社,大阪府,泉佐野市,中庄８２７,,27,213,5980002,,,,,,,2024-03-25,1,,,,,トウシン,0
146,1130001076661,新規,0,2024-03-25,2024-03-25,株式会社ＨＡＴＳ,,株式会社,京都府,京都市西京区,御陵大枝山町１丁目６－１１,,26,111,6101102,,,,,,,2024-03-25,1,,,,,ハッツ,0
147,1130001076678,新規,0,2024-03-25,2024-03-25,こころ株式会社,,株式会社,京都府,京都市右京区,梅津北浦町２－８スカイハイツ和新１Ｆ東,,26,108,6150934,,,,,,,2024-03-25,1,,,,,ココロ,0
148,1130003009396,新規,0,2024-03-25,2024-03-25,ＴＲＡＤＥＥＤ合同会社,,合同会社,京都府,相楽郡和束町,大字湯船小字岩倉１５番地,,26,365,6191203,,,,,,,2024-03-25,1,,,,,トレイデード,0
151,1140001133817,新規,0,2024-03-25,2024-03-25,太平トレーディング株式会社,,株式会社,兵庫県,神戸市灘区,篠原伯母野山町３丁目２６番１０号,,28,102,6570015,,,,,,,2024-03-25,1,,,,,タイヘイトレーディング,0
152,1140001133841,新規,0,2024-03-25,2024-03-25,株式会社Ｒｅｘｉｎｅｓｓ,,株式会社,兵庫県,洲本市,五色町都志１２１６,,28,205,6561301,,,,,,,2024-03-25,1,,,,,リキネス,0
154,1150003003208,新規,0,2024-03-25,2024-03-25,合同会社三貴,,合同会社,奈良県,生駒市,東新町６番３１－２１７号,,29,209,6300258,,,,,,,2024-03-25,1,,,,,ミキ,0
155,1150005009574,新規,0,2024-03-25,2024-03-25,一般社団法人つむぐ,,その他の設立登記法人,奈良県,香芝市,逢坂３丁目６１５番地１セルディーナ３０３号,00134184,29,210,6390251,,,,,,,2024-03-25,1,,,,,ツムグ,0
161,1180001160584,新規,0,2024-03-25,2024-03-25,株式会社聖成,,株式会社,愛知県,名古屋市中区,錦１丁目１７番１３号‐２Ｆ,,23,106,4600003,,,,,,,2024-03-25,1,,,,,セイセイ,0
162,1180001160626,新規,0,2024-03-25,2024-03-25,株式会社Ｍａｒｉｎｅｒａ,,株式会社,愛知県,名古屋市緑区,有松南１３０１番地（ポレスター有松パークヒルズ２１０号）,,23,114,4598004,,,,,,,2024-03-25,1,,,,,マリネラ,0
163,1180001160659,新規,0,2024-03-25,2024-03-25,株式会社松永マシンサービス,,株式会社,愛知県,名古屋市中村区,稲葉地町８丁目９６番地の２,,23,105,4530841,,,,,,,2024-03-25,1,,,,,マツナガマシンサービス,0
164,1180001160700,新規,0,2024-03-25,2024-03-25,株式会社フジウェルス,,株式会社,愛知県,名古屋市南区,桜台２丁目１７番３７号,,23,112,4570005,,,,,,,2024-03-25,1,,,,,フジウェルス,0
165,1180001160733,新規,0,2024-03-25,2024-03-25,株式会社輝,,株式会社,愛知県,春日井市,上ノ町１丁目２４番地,,23,206,4860966,,,,,,,2024-03-25,1,,,,,カガヤキ,0
170,1180003026536,新規,0,2024-03-25,2024-03-25,合同会社田口建工,,合同会社,愛知県,名古屋市緑区,亀が洞３丁目１４０３番地,,23,114,4580804,,,,,,,2024-03-25,1,,,,,タグチケンコウ,0
171,1180003026544,新規,0,2024-03-25,2024-03-25,合同会社ＨＯＳＨＩＮＯ,,合同会社,愛知県,瀬戸市,南菱野町２４４,,23,204,4890937,,,,,,,2024-03-25,1,,,,,ホシノ,0
174,1180301038448,新規,0,2024-03-25,2024-03-25,株式会社ＬｉＨ,,株式会社,愛知県,豊田市,前山町２丁目２番地３７,,23,211,4710828,,,,,,,2024-03-25,1,,,,,ライフ,0
175,1180303006056,新規,0,2024-03-25,2024-03-25,合同会社中根建設,,合同会社,愛知県,岡崎市,材木町１丁目３番地１シャンボール康生９０５,,23,202,4440057,,,,,,,2024-03-25,1,,,,,ナカネケンセツ,0
177,1190005011923,新規,0,2024-03-25,2024-03-25,医療法人大緑会,,その他の設立登記法人,三重県,員弁郡東員町,大字長深３３８３番地,,24,324,5110255,,,,,,,2024-03-25,1,,,,,ダイリョクカイ,0
182,1220001025881,新規,0,2024-03-25,2024-03-25,株式会社ＬＦＳ,,株式会社,石川県,金沢市,片町２丁目２９‐５焼肉正,,17,201,9200981,,,,,,,2024-03-25,1,,,,,エルエフエス,0
184,1230001020254,新規,0,2024-03-25,2024-03-25,株式会社ＬＡコーポレーション,,株式会社,富山県,富山市,五福１４１４番地１,,16,201,9300887,,,,,,,2024-03-25,1,,,,,エルエーコーポレーション,0
187,1250005008905,新規,0,2024-03-25,2024-03-25,医療法人りんせい会,,その他の設立登記法人,山口県,岩国市,川西１丁目２１番３０号,,35,208,7410082,,,,,,,2024-03-25,1,,,,,リンセイカイ,0
189,1280001009136,新規,0,2024-03-25,2024-03-25,株式会社石州這苔屋,,株式会社,島根県,江津市,浅利町２０８番地２,,32,207,6950002,,,,,,,2024-03-25,1,,,,,セキシュウハイゴケヤ,0
192,1290001105099,新規,0,2024-03-25,2024-03-25,株式会社ｕｎｒｅｃａ,,株式会社,福岡県,福岡市中央区,大名２丁目９－３５トウセン天神ビル９階,,40,133,8100041,,,,,,,2024-03-25,1,,,,,アンレカ,0
193,1290001105173,新規,0,2024-03-25,2024-03-25,株式会社スラッシュワン,,株式会社,福岡県,那珂川市,松木２丁目２６－１,,40,231,8111251,,,,,,,2024-03-25,1,,,,,スラッシュワン,0
198,1290801030422,新規,0,2024-03-25,2024-03-25,田川産業株式会社,,株式会社,福岡県,田川市,大字弓削田１９２４番地,,40,206,8260041,,,,,,,2024-03-25,1,,,,,タガワサンギョウ,0
205,1330001031885,新規,0,2024-03-25,2024-03-25,グローバルソリューション株式会社,,株式会社,熊本県,阿蘇郡南小国町,大字赤馬場１８９６－７,,43,423,8692401,,,,,,,2024-03-25,1,,,,,グリーバルソリューション,0
207,1330003010284,新規,0,2024-03-25,2024-03-25,合同会社たけし不動産,,合同会社,熊本県,熊本市南区,城南町東阿高４４９番地５１,,43,104,8614225,,,,,,,2024-03-25,1,,,,,タケシフドウサン,0
212,1350001018856,新規,0,2024-03-25,2024-03-25,株式会社ＢＥｓｏｌ,,株式会社,宮崎県,宮崎市,永楽町１２４番地Ｆｒａｎｃ１０５号,,45,201,8800872,,,,,,,2024-03-25,1,,,,,ビーソル,0
215,1360001033383,新規,0,2024-03-25,2024-03-25,株式会社ＫＩＮＳＨＩＳＨＩ,,株式会社,沖縄県,那覇市,松山１丁目１４番１０号クイーンズビル１Ｆ,,47,201,9000032,,,,,,,2024-03-25,1,,,,,キンシシ,0
216,1360003013788,新規,0,2024-03-25,2024-03-25,はぴはぴはっぴー合同会社,,合同会社,沖縄県,宜野湾市,伊佐２丁目１９番１７－１２０２,,47,205,9012221,,,,,,,2024-03-25,1,,,,,ハピハピハッピー,0
217,1370003006535,新規,0,2024-03-25,2024-03-25,合同会社槐寿,,合同会社,宮城県,仙台市宮城野区,福室２丁目８番１７号福室マンション３１４号,,04,102,9830005,,,,,,,2024-03-25,1,,,,,エンジュ,0
218,1370005010758,新規,0,2024-03-25,2024-03-25,一般社団法人奥州Ｐｒｅｍｉｕｍ歯科グループ,,その他の設立登記法人,宮城県,仙台市青葉区,中央３丁目１番２２号ＥＱＵＩＮＩＡ青葉通り９階,,04,101,9800021,,,,,,,2024-03-25,1,,,,,オウシュウプレミアムシカグループ,0
232,1430001091366,新規,0,2024-03-25,2024-03-25,株式会社ＡｓｓｅｔＰｉｌｌａｒ,,株式会社,北海道,札幌市中央区,南一条西１６丁目１番地３２３春野ビル３Ｆ,,01,101,0600061,,,,,,,2024-03-25,1,,,,,アセットピラー,0
233,1430001091374,新規,0,2024-03-25,2024-03-25,株式会社Ｍａｓｈ　Ｕｐ,,株式会社,北海道,札幌市豊平区,中の島一条５丁目３番１１－９０３号,,01,105,0620921,,,,,,,2024-03-25,1,,,,,マッシュアップ,0
238,1430005014884,新規,0,2024-03-25,2024-03-25,行政書士法人大西事務所,,その他の設立登記法人,北海道,札幌市東区,北二十二条東３丁目１番３５号,,01,103,0650022,,,,,,,2024-03-25,1,,,,,オオニシジムショ,0
239,1430005014934,新規,0,2024-03-25,2024-03-25,特定非営利活動法人北海道こどもホスピスプロジェクト,,その他の設立登記法人,北海道,札幌市中央区,南三条西４丁目２１番地６南３西４ビル９階,,01,101,0600063,,,,,,,2024-03-25,1,,,,,ホッカイドウコドモホスピスプロジェクト,0
241,1480001012417,新規,0,2024-03-25,2024-03-25,株式会社阿波観光ホテル,,株式会社,徳島県,徳島市,一番町３丁目１６番地の３,,36,201,7700833,,,,,,,2024-03-25,1,,,,,アワカンコウホテル,0
261,2010001243215,新規,0,2024-03-25,2024-03-25,株式会社ＧＥＮＴＥＮ,,株式会社,東京都,中央区,晴海２丁目３番２－１９１７号,,13,102,1040053,,,,,,,2024-03-25,1,,,,,ゲンテン,0
262,2010001243363,新規,0,2024-03-25,2024-03-25,森良株式会社,,株式会社,東京都,千代田区,岩本町３丁目１番９号９階,,13,101,1010032,,,,,,,2024-03-25,1,,,,,モリヨシ,0
267,2010003043290,新規,0,2024-03-25,2024-03-25,ＮａｌｕＣｒａｆｔ合同会社,,合同会社,東京都,中央区,銀座１丁目１２－４Ｎ＆ＥＢＬＤ．７階,,13,102,1040061,,,,,,,2024-03-25,1,,,,,ナルクラフト,0
268,2010003043316,新規,0,2024-03-25,2024-03-25,合同会社エー企画,,合同会社,東京都,中央区,日本橋兜町１７－１－７０７,,13,102,1030026,,,,,,,2024-03-25,1,,,,,エーキカク,0
277,2010401181023,新規,0,2024-03-25,2024-03-25,若恩株式会社,,株式会社,東京都,港区,浜松町２丁目７番１７号,,13,103,1050013,,,,,,,2024-03-25,1,,,,,ワカオン,0
278,2010403032232,新規,0,2024-03-25,2024-03-25,合同会社ＨｉＪｏＪｏ　Ｆｕｎｄ３８,,合同会社,東京都,港区,西新橋１丁目７番２号,,13,103,1050003,,,,,,,2024-03-25,1,,,,,ヒジョージョーファンドサンジュウハチ,0
279,2010403032240,新規,0,2024-03-25,2024-03-25,ＧＳＳＧ　Ｓｏｌａｒ　Ｊａｐａｎ　Ｈｏｌｄｉｎｇｓ１５合同会社,,合同会社,東京都,港区,高輪１丁目３番１３号ＮＢＦ高輪ビル７階,,13,103,1080074,,,,,,,2024-03-25,1,,,,,ジーエスエスジーソーラージャパンホールディングスフィフティーン,0
280,2010405023080,新規,0,2024-03-25,2024-03-25,一般社団法人家本会,,その他の設立登記法人,東京都,港区,芝大門２丁目１０番４号ＳＧビル４階,,13,103,1050012,,,,,,,2024-03-25,1,,,,,イエモトカイ,0
283,2010503007381,新規,0,2024-03-25,2024-03-25,合同会社ＲＯＣＫＡＷＯＲＫＳ,,合同会社,東京都,台東区,浅草６丁目４６番２－４０２号サンクレスト浅草,,13,106,1110032,,,,,,,2024-03-25,1,,,,,ロカワークス,0
284,2010601064845,新規,0,2024-03-25,2024-03-25,言語翼株式会社,,株式会社,東京都,江東区,佐賀１丁目１６番３号２０１－３号室,,13,108,1350031,,,,,,,2024-03-25,1,,,,,ゲンゴツバサ,0
285,2010601064886,新規,0,2024-03-25,2024-03-25,ＦｒｉｅｎｄＨｏｕｒｓ株式会社,,株式会社,東京都,江東区,大島４丁目１２番９号,,13,108,1360072,,,,,,,2024-03-25,1,,,,,フレンドアワーズ,0
290,2010703007082,新規,0,2024-03-25,2024-03-25,ＣＨＩＤＯＲＩ合同会社,,合同会社,東京都,品川区,東品川１丁目３６－１９,,13,109,1400002,,,,,,,2024-03-25,1,,,,,チドリ,0
291,2010703007099,新規,0,2024-03-25,2024-03-25,ＭＯＥＫＯ　ＴＯＫＹＯ合同会社,,合同会社,東京都,品川区,東大井３丁目５番９－１０１号,,13,109,1400011,,,,,,,2024-03-25,1,,,,,モエコトーキョー,0
297,2010901054901,新規,0,2024-03-25,2024-03-25,株式会社ジェン・スプリング,,株式会社,東京都,世田谷区,三軒茶屋１丁目６番４号,,13,112,1540024,,,,,,,2024-03-25,1,,,,,ジェンスプリング,0
299,2010903008913,新規,0,2024-03-25,2024-03-25,デンタルクリニカルサポート合同会社,,合同会社,東京都,世田谷区,等々力３丁目３３番１４号メルヴェーユ等々力２０５,,13,112,1580082,,,,,,,2024-03-25,1,,,,,デンタルクリニカルサポート,0
302,2011001160301,新規,0,2024-03-25,2024-03-25,株式会社彩育社,,株式会社,東京都,目黒区,下目黒１丁目１番１４号コノトラビル７Ｆ,,13,110,1530064,,,,,,,2024-03-25,1,,,,,サイイクシャ,0
304,2011001160755,新規,0,2024-03-25,2024-03-25,株式会社ｎｅｗｐａｒａｄｅ,,株式会社,東京都,渋谷区,道玄坂１丁目１０番８号渋谷道玄坂東急ビル２Ｆ－Ｃ,,13,113,1500043,,,,,,,2024-03-25,1,,,,,ニューパレード,0
305,2011001160821,新規,0,2024-03-25,2024-03-25,株式会社Ｍｏｂｏｍｕ,,株式会社,東京都,渋谷区,道玄坂１丁目１０番８号渋谷道玄坂東急ビル２Ｆ－Ｃ,,13,113,1500043,,,,,,,2024-03-25,1,,,,,モボム,0
308,2011101106658,新規,0,2024-03-25,2024-03-25,株式会社ＮＴＲ,,株式会社,東京都,新宿区,西新宿８丁目８番６号ＬＵビル３０２,,13,104,1600023,,,,,,,2024-03-25,1,,,,,エヌティーアール,0
309,2011101106682,新規,0,2024-03-25,2024-03-25,君優株式会社,,株式会社,東京都,新宿区,大久保２丁目１８番７号品盛實業ビル５Ｆ,,13,104,1690072,,,,,,,2024-03-25,1,,,,,クンユウ,0
310,2011401025954,新規,0,2024-03-25,2024-03-25,株式会社ミュージックモンスター,,株式会社,東京都,板橋区,新河岸２丁目１番４０号,,13,119,1750081,,,,,,,2024-03-25,1,,,,,ミュージックモンスター,0
311,2011701027130,新規,0,2024-03-25,2024-03-25,株式会社ＳＥＪ,,株式会社,東京都,江戸川区,新堀１丁目１０番１５号,,13,123,1320001,,,,,,,2024-03-25,1,,,,,エスイージェイ,0
312,2011701027147,新規,0,2024-03-25,2024-03-25,株式会社Ｑｕｃｋ,,株式会社,東京都,江戸川区,中葛西３丁目２６番２－４０４号協和コーポ,,13,123,1340083,,,,,,,2024-03-25,1,,,,,クック,0
313,2012301013834,新規,0,2024-03-25,2024-03-25,株式会社ＣＬＩＭＢ‐ＡＳＣＥＮＳＩＯＮ,,株式会社,東京都,町田市,玉川学園７丁目７番５号３,,13,209,1940041,,,,,,,2024-03-25,1,,,,,クライムアセンション,0
314,2012301013842,新規,0,2024-03-25,2024-03-25,株式会社ハイルインク,,株式会社,東京都,町田市,成瀬台２丁目２２番地１５,,13,209,1940043,,,,,,,2024-03-25,1,,,,,ハイルインク,0
315,2012401041669,新規,0,2024-03-25,2024-03-25,Ａ＆Ｄ株式会社,,株式会社,東京都,小金井市,本町１丁目２０番２３号,,13,210,1840004,,,,,,,2024-03-25,1,,,,,エーアンドディー,0
317,2013301052228,新規,0,2024-03-25,2024-03-25,株式会社フェムウェル,,株式会社,東京都,豊島区,千川１丁目１番１０号－２階,,13,116,1710041,,,,,,,2024-03-25,1,,,,,フェムウェル,0
318,2013301052252,新規,0,2024-03-25,2024-03-25,晴日株式会社,,株式会社,東京都,豊島区,池袋本町２丁目２９番１６号岡本ビル３０２号室,,13,116,1700011,,,,,,,2024-03-25,1,,,,,ハレカ,0
325,2020001156291,新規,0,2024-03-25,2024-03-25,株式会社ライジング・サン,,株式会社,神奈川県,川崎市川崎区,田島町１０番１１－１０１号,,14,131,2100853,,,,,,,2024-03-25,1,,,,,ライジングサン,0
326,2020001156366,新規,0,2024-03-25,2024-03-25,株式会社Ｒａｖｅｎ,,株式会社,神奈川県,横浜市西区,宮ケ谷２５番地２三ッ沢ハイタウン４号棟４０７号,,14,103,2200006,,,,,,,2024-03-25,1,,,,,レイブン,0
329,2020003025750,新規,0,2024-03-25,2024-03-25,合同会社Ｄｒｅａｍｌａｎｄ,,合同会社,神奈川県,横浜市緑区,長津田みなみ台１丁目１番地７マイキャッスル長津田６０７号,,14,113,2260018,,,,,,,2024-03-25,1,,,,,ドリームランド,0
330,2020003025791,新規,0,2024-03-25,2024-03-25,エグザムキャリア合同会社,,合同会社,神奈川県,横浜市保土ケ谷区,西谷３丁目２０番１８号,,14,106,2400054,,,,,,,2024-03-25,1,,,,,エグザムキャリア,0
335,2021001081777,新規,0,2024-03-25,2024-03-25,株式会社Ｂｅｙｏｎｄ,,株式会社,神奈川県,足柄下郡箱根町,箱根３１４番地,,14,382,2500521,,,,,,,2024-03-25,1,,,,,ビヨンド,0
336,2021001081785,新規,0,2024-03-25,2024-03-25,株式会社Ｐｒｏｃｙｏｎ　Ｖｉｓｉｏｎｓ,,株式会社,神奈川県,茅ヶ崎市,東海岸南２丁目７番５５号,,14,207,2530054,,,,,,,2024-03-25,1,,,,,プロキオンビジョンズ,0
342,2021003014297,新規,0,2024-03-25,2024-03-25,合同会社Ｌｕｄｏ　Ｔｅｃｈｎｏｌｏｇｉｅｓ,,合同会社,神奈川県,三浦郡葉山町,堀内１２５０－１２,,14,301,2400112,,,,,,,2024-03-25,1,,,,,ルードーテクノロジーズ,0
350,2030001159244,新規,0,2024-03-25,2024-03-25,株式会社ＴＡＭＡ,,株式会社,埼玉県,上尾市,弁財１丁目９番１８号,,11,219,3620076,,,,,,,2024-03-25,1,,,,,タマ,0
351,2030001159368,新規,0,2024-03-25,2024-03-25,株式会社ハリモト,,株式会社,埼玉県,川口市,金山町１４番１５－６０８号ライオンズマンション川口ブリーズコート,,11,203,3320014,,,,,,,2024-03-25,1,,,,,ハリモト,0
352,2030001159376,新規,0,2024-03-25,2024-03-25,株式会社七島工業,,株式会社,埼玉県,さいたま市西区,大字指扇４２９番地４,,11,101,3310047,,,,,,,2024-03-25,1,,,,,シチシマコウギョウ,0
353,2030001159384,新規,0,2024-03-25,2024-03-25,株式会社ＡＲＣＵＳ　Ｌａｋｅ　Ｔｏｗｎ,,株式会社,埼玉県,越谷市,相模町３丁目１０５番地１,,11,222,3430823,,,,,,,2024-03-25,1,,,,,アルクスレイクタウン,0
354,2030001159392,新規,0,2024-03-25,2024-03-25,株式会社ＥＧＡ電工,,株式会社,埼玉県,越谷市,東町５丁目１１２１番地４,,11,222,3430826,,,,,,,2024-03-25,1,,,,,イージーエーデンコウ,0
355,2030001159401,新規,0,2024-03-25,2024-03-25,株式会社Ｆｏｒｃｅ,,株式会社,埼玉県,和光市,新倉３丁目８番２８－４０１号,,11,229,3510115,,,,,,,2024-03-25,1,,,,,フォース,0
356,2030001159418,新規,0,2024-03-25,2024-03-25,株式会社ＮＳＤ,,株式会社,埼玉県,ふじみ野市,鶴ケ舞１丁目２番４１号,,11,245,3560041,,,,,,,2024-03-25,1,,,,,エヌエスディー,0
361,2030003023869,新規,0,2024-03-25,2024-03-25,ＫＩＣＨＩ合同会社,,合同会社,埼玉県,川越市,的場２丁目２０番地３０,,11,201,3501101,,,,,,,2024-03-25,1,,,,,キチ,0
368,2040001132662,新規,0,2024-03-25,2024-03-25,株式会社ＢｅＴｏｍ,,株式会社,千葉県,千葉市中央区,祐光２丁目８番８号,,12,101,2600007,,,,,,,2024-03-25,1,,,,,ビートム,0
371,2040003024619,新規,0,2024-03-25,2024-03-25,カルマインベストメント３合同会社,,合同会社,千葉県,船橋市,飯山満町１丁目７１９番地２,,12,204,2740822,,,,,,,2024-03-25,1,,,,,カルマインベストメントスリー,0
376,2050003008224,新規,0,2024-03-25,2024-03-25,合同会社海天一色,,合同会社,茨城県,取手市,戸頭７３５番地５,,08,217,3020034,,,,,,,2024-03-25,1,,,,,カイテンイッシキ,0
379,2060001036936,新規,0,2024-03-25,2024-03-25,株式会社Ｋａｉ　Ｄｅｓｉｇｎ　Ｆａｃｔｏｒｙ,,株式会社,栃木県,宇都宮市,江曽島４丁目２９５番地１２,,09,201,3210107,,,,,,,2024-03-25,1,,,,,カイデザインファクトリー,0
380,2070001041514,新規,0,2024-03-25,2024-03-25,株式会社澤田総業,,株式会社,群馬県,太田市,浜町６６番４４号,,10,205,3730853,,,,,,,2024-03-25,1,,,,,サワダソウギョウ,0
381,2070001041530,新規,0,2024-03-25,2024-03-25,株式会社らいと,,株式会社,群馬県,前橋市,小島田町４９４番地４,,10,201,3792162,,,,,,,2024-03-25,1,,,,,ライト,0
384,2080101024608,新規,0,2024-03-25,2024-03-25,株式会社Ａｐｐｌｉｇｏｎ,,株式会社,静岡県,沼津市,西椎路９６－８,,22,203,4100303,,,,,,,2024-03-25,1,,,,,アプリゴン,0
395,2100003007451,新規,0,2024-03-25,2024-03-25,合同会社ちいもり,,合同会社,長野県,上伊那郡南箕輪村,８８５７番地１,,20,385,3994511,,,,,,,2024-03-25,1,,,,,チイモリ,0
396,2110001038274,新規,0,2024-03-25,2024-03-25,株式会社アルバ,,株式会社,新潟県,加茂市,都ケ丘１７番８号,,15,209,9591323,,,,,,,2024-03-25,1,,,,,アルバ,0
398,2110003005339,新規,0,2024-03-25,2024-03-25,ＫＵＲＵＶＩＴＡ　ＭＯＴＯＲＳ合同会社,,合同会社,新潟県,南魚沼市,石打８３４‐２５‐２０８号室,,15,226,9496372,,,,,,,2024-03-25,1,,,,,クルビタモータース,0
407,2120001263185,新規,0,2024-03-25,2024-03-25,ＧＳ株式会社,,株式会社,大阪府,大阪市淀川区,塚本４丁目１７番１２号,,27,123,5320026,,,,,,,2024-03-25,1,,,,,ジーエス,0
408,2120001263367,新規,0,2024-03-25,2024-03-25,株式会社ＳＡＫＩ,,株式会社,大阪府,大阪市淀川区,加島３丁目中２番１０－６２０号,,27,123,5320031,,,,,,,2024-03-25,1,,,,,サキ,0
409,2120001263375,新規,0,2024-03-25,2024-03-25,株式会社嶋田心,,株式会社,大阪府,大阪市住吉区,長居東４丁目４番２６－８０２号,,27,120,5580004,,,,,,,2024-03-25,1,,,,,シマダシン,0
411,2120003026128,新規,0,2024-03-25,2024-03-25,ＡＴ合同会社,,合同会社,大阪府,大阪市西成区,天下茶屋北１丁目２－１６－２０２号,,27,122,5570003,,,,,,,2024-03-25,1,,,,,エイティー,0
412,2120003026185,新規,0,2024-03-25,2024-03-25,合同会社Ｃｏｒｎｕｃｏｐｉａ,,合同会社,大阪府,大阪市浪速区,難波中１丁目１０番４号加納合同事務所内,,27,111,5560011,,,,,,,2024-03-25,1,,,,,コルヌコピア,0
413,2120005024220,新規,0,2024-03-25,2024-03-25,税理士法人ミズホ,,その他の設立登記法人,大阪府,大阪市中央区,農人橋１丁目１番７号,,27,128,5400011,,,,,,,2024-03-25,1,,,,,ミズホ,0
414,2120101069219,新規,0,2024-03-25,2024-03-25,株式会社いつき貿易,,株式会社,大阪府,南河内郡河南町,大字寛弘寺８８５－２,,27,382,5850035,,,,,,,2024-03-25,1,,,,,イツキボウエキ,0
419,2120905006581,新規,0,2024-03-25,2024-03-25,一般社団法人未来キャンバスきみいろ,,その他の設立登記法人,大阪府,豊中市,豊南町西４丁目２６番１の２号,,27,203,5610816,,,,,,,2024-03-25,1,,,,,ミライキャンバスキミイロ,0
420,2122001037916,新規,0,2024-03-25,2024-03-25,株式会社辻口電気工業,00134186,株式会社,大阪府,大東市,三箇１丁目７番１４号,,27,218,5740077,,,,,,,2024-03-25,1,,,,,ツジグチデンキコウギョウ,0
422,2130001076504,新規,0,2024-03-25,2024-03-25,株式会社Ｂｅａｕｔｙ　Ｈｉｌｌｓ　Ｊａｐａｎ,,株式会社,京都府,京都市下京区,鍵屋町３４７番地１,,26,106,6008057,,,,,,,2024-03-25,1,,,,,ビューティーヒルズジャパン,0
423,2130001076636,新規,0,2024-03-25,2024-03-25,株式会社ＴｅｒｒＵＰ,,株式会社,京都府,京都市南区,東九条室町１０番地,,26,107,6018001,,,,,,,2024-03-25,1,,,,,テラップ,0
424,2130001076677,新規,0,2024-03-25,2024-03-25,株式会社エヌエヌリンク,,株式会社,京都府,京都市山科区,椥辻池尻町３番地の５,,26,110,6078168,,,,,,,2024-03-25,1,,,,,エヌエヌリンク,0
429,2140001133709,新規,0,2024-03-25,2024-03-25,株式会社貴建,,株式会社,兵庫県,尼崎市,若王寺２丁目３７番１５号,,28,202,6610974,,,,,,,2024-03-25,1,,,,,タカケン,0
430,2140001133766,新規,0,2024-03-25,2024-03-25,株式会社アサノＩＣ,,株式会社,兵庫県,西宮市,大畑町６番２－６０１号,,28,204,6620836,,,,,,,2024-03-25,1,,,,,アサノアイシー,0
431,2140001133799,新規,0,2024-03-25,2024-03-25,株式会社ヒロノ,,株式会社,兵庫県,三木市,福井２１９５番地の２,,28,215,6730433,,,,,,,2024-03-25,1,,,,,ヒロノ,0
432,2140001133840,新規,0,2024-03-25,2024-03-25,株式会社兼美,,株式会社,兵庫県,加古川市,別府町新野辺５７４番地の３２６,,28,210,6750131,,,,,,,2024-03-25,1,,,,,カネヨシ,0
433,2140003020285,新規,0,2024-03-25,2024-03-25,合同会社ＹＡＮＥＳＥＫＯ　ＡＣＡＤＥＭＹ,,合同会社,兵庫県,加古川市,加古川町粟津８１９番地の１,,28,210,6750039,,,,,,,2024-03-25,1,,,,,ヤネセコアカデミー,0
434,2140003020302,新規,0,2024-03-25,2024-03-25,合同会社サードアイズ,,合同会社,兵庫県,西宮市,甲子園砂田町６番３２号,,28,204,6638162,,,,,,,2024-03-25,1,,,,,サードアイズ,0
438,2180001160550,新規,0,2024-03-25,2024-03-25,株式会社ジーピーディ,,株式会社,愛知県,東海市,加木屋町北鹿持３４番地１５６,,23,222,4770032,,,,,,,2024-03-25,1,,,,,ジーピーディ,0
439,2180001160583,新規,0,2024-03-25,2024-03-25,ＩＦＣ株式会社,,株式会社,愛知県,海部郡大治町,大字花常字郷浦３１番地３‐Ａ号室,,23,424,4901136,,,,,,,2024-03-25,1,,,,,アイエフシー,0
440,2180001160617,新規,0,2024-03-25,2024-03-25,株式会社ＰＯＭ,,株式会社,愛知県,名古屋市守山区,小幡中１丁目５番１５号サンハイツカワイ１０３,,23,113,4630013,,,,,,,2024-03-25,1,,,,,ポム,0
441,2180001160666,新規,0,2024-03-25,2024-03-25,株式会社ＧＬＵＣＫ,,株式会社,愛知県,あま市,篠田上大門１１３,,23,237,4901211,,,,,,,2024-03-25,1,,,,,グルック,0
444,2180003026510,新規,0,2024-03-25,2024-03-25,合同会社アイプラス,,合同会社,愛知県,小牧市,桃ケ丘１丁目３７番地６０,,23,219,4850813,,,,,,,2024-03-25,1,,,,,アイプラス,0
445,2180003026519,新規,0,2024-03-25,2024-03-25,Ｔｗｅｎｔｙ‐ｔｗｏ合同会社,,合同会社,愛知県,名古屋市中村区,角割町５丁目２番地１アラベスク３０２,,23,105,4530852,,,,,,,2024-03-25,1,,,,,トゥエンティートゥー,0
446,2180003026535,新規,0,2024-03-25,2024-03-25,合同会社コスモネット,,合同会社,愛知県,名古屋市南区,内田橋２丁目３９番２４号山田ビル２Ａ,,23,112,4570862,,,,,,,2024-03-25,1,,,,,コスモネット,0
447,2180301038447,新規,0,2024-03-25,2024-03-25,株式会社Ｔ＆Ｋ　ＨＬＤＧＳ．,,株式会社,愛知県,西尾市,江原町川流１番地,,23,213,4450026,,,,,,,2024-03-25,1,,,,,ティーアンドケイホールディングス,0
450,2240002054919,新規,0,2024-03-25,2024-03-25,有限会社堀越金属工業所,,有限会社,広島県,広島市南区,堀越２丁目３番２０号,,34,103,7340052,,,,,,,2024-03-25,1,,,,,,0
461,2290001105107,新規,0,2024-03-25,2024-03-25,株式会社Ｍ＆Ｖ,,株式会社,福岡県,春日市,上白水３丁目５４番地グレイス春日西３０２号,,40,218,8160844,,,,,,,2024-03-25,1,,,,,エムアンドブイ,0
462,2290001105115,新規,0,2024-03-25,2024-03-25,ｃｏｒａｉｌ　ｄｅｓｉｇｎ株式会社,,株式会社,福岡県,福岡市博多区,博多駅前１丁目２３番２号ＰａｒｋＦｒｏｎｔ博多駅前一丁目５Ｆ－Ｂ,,40,132,8120011,,,,,,,2024-03-25,1,,,,,コライユデザイン,0
463,2290001105164,新規,0,2024-03-25,2024-03-25,株式会社Ｇｒｏｗｉｎｇ　ｔｏｇｅｔｈｅｒ,,株式会社,福岡県,飯塚市,庄司３４１番地,,40,205,8200051,,,,,,,2024-03-25,1,,,,,グローウィングトゥゲザー,0
464,2290001105172,新規,0,2024-03-25,2024-03-25,株式会社立向葵,,株式会社,福岡県,福岡市中央区,天神２丁目２番１２号,,40,133,8100001,,,,,,,2024-03-25,1,,,,,タチアオイ,0
465,2290001105180,新規,0,2024-03-25,2024-03-25,株式会社コーディリンク,,株式会社,福岡県,飯塚市,柏の森６０８番地４,,40,205,8200011,,,,,,,2024-03-25,1,,,,,コーディリンク,0
466,2290001105206,新規,0,2024-03-25,2024-03-25,株式会社小柳青果,,株式会社,福岡県,福岡市博多区,住吉４丁目１４番２１号,,40,132,8120018,,,,,,,2024-03-25,1,,,,,コヤナギセイカ,0
467,2290001105214,新規,0,2024-03-25,2024-03-25,君吉株式会社,,株式会社,福岡県,嘉麻市,下山田５３９－２,,40,227,8210011,,,,,,,2024-03-25,1,,,,,キミヨシ,0
468,2290001105230,新規,0,2024-03-25,2024-03-25,株式会社Ｔｅａｃｈｅｒ　Ｔｅａｃｈｅｒ,,株式会社,福岡県,福岡市早良区,百道浜３丁目４番１０－７０３号,,40,137,8140001,,,,,,,2024-03-25,1,,,,,ティーチャーティーチャー,0
480,2350001018855,新規,0,2024-03-25,2024-03-25,株式会社見積研究所,,株式会社,宮崎県,宮崎市,大字赤江５４３番地,,45,201,8800912,,,,,,,2024-03-25,1,,,,,ミツモリケンキュウショ,0
481,2350005006220,新規,0,2024-03-25,2024-03-25,一般社団法人かんな,,その他の設立登記法人,宮崎県,都城市,上長飯町５６号４番地,,45,202,8850042,,,,,,,2024-03-25,1,,,,,カンナ,0
486,2380001034387,新規,0,2024-03-25,2024-03-25,株式会社ＯＮＥ・ＯＮＥ,,株式会社,福島県,南相馬市,原町区本陣前２丁目２８番地,,07,212,9750062,,,,,,,2024-03-25,1,,,,,ワンワン,0
488,2380003005717,新規,0,2024-03-25,2024-03-25,ＤＣｍｉｓｓｉｏｎ合同会社,,合同会社,福島県,郡山市,富田町字愛宕前７８－２山一富田ビル店舗３０３号,,07,203,9638041,,,,,,,2024-03-25,1,,,,,ディシーミッション,0
489,2400001016597,新規,0,2024-03-25,2024-03-25,株式会社千建工房,,株式会社,岩手県,奥州市,水沢字谷地明円１９番地６号棟,,03,215,0230804,,,,,,,2024-03-25,1,,,,,センケンコウボウ,0
494,2430001091324,新規,0,2024-03-25,2024-03-25,株式会社ＦＴＨ販売,,株式会社,北海道,恵庭市,黄金南２丁目６－１１,,01,231,0611409,,,,,,,2024-03-25,1,,,,,エフティエイチハンバイ,0
495,2430001091332,新規,0,2024-03-25,2024-03-25,株式会社アーツビー,,株式会社,北海道,札幌市中央区,南五条西１５丁目２－３リズム医大前５０３号室,,01,101,0640805,,,,,,,2024-03-25,1,,,,,アーツビー,0
499,2430003016106,新規,0,2024-03-25,2024-03-25,Ａｒｋ合同会社,,合同会社,北海道,札幌市北区,北十三条西２丁目１番５－１４０１号,,01,102,0010013,,,,,,,2024-03-25,1,,,,,アーク,0
501,2460103001599,新規,0,2024-03-25,2024-03-25,合同会社Ｌｉｎｏ　Ｍｅｌｉａ,,合同会社,北海道,上川郡清水町,南三条１２丁目８番地２,,01,636,0890111,,,,,,,2024-03-25,1,,,,,リノメリア,0
503,2480001012424,新規,0,2024-03-25,2024-03-25,東亜デント株式会社,,株式会社,徳島県,徳島市,かちどき橋２丁目７－１かちどきビル３Ｆ,,36,201,7700939,,,,,,,2024-03-25,1,,,,,トウアデント,0
506,2500001025522,新規,0,2024-03-25,2024-03-25,ｉ企画ＭＯＴＩＯＮ株式会社,,株式会社,愛媛県,松山市,中村３丁目６番２０号,,38,201,7900964,,,,,,,2024-03-25,1,,,,,アイキカクモーション,0
517,3010001243362,新規,0,2024-03-25,2024-03-25,ピュア・アレイ株式会社,,株式会社,東京都,千代田区,神田須田町１丁目１４番１号,,13,101,1010041,,,,,,,2024-03-25,1,,,,,ピュアアレイ,0
518,3010003043240,新規,0,2024-03-25,2024-03-25,合同会社ＣＨＩＹＯＤＡ,,合同会社,東京都,千代田区,神田和泉町１番地６－１６ヤマトビル４０５,,13,101,1010024,,,,,,,2024-03-25,1,,,,,チヨダ,0
519,3010003043298,新規,0,2024-03-25,2024-03-25,合同会社ＮＥＤＡＷ２,,合同会社,東京都,中央区,八重洲１丁目５番１５号田中八重洲ビル２階,,13,102,1030028,,,,,,,2024-03-25,1,,,,,エヌイーディーエーダブルツー,0
521,3010101016057,新規,0,2024-03-25,2024-03-25,株式会社Ｋ‐ＦＡＣＴＯＲＹ,,株式会社,東京都,八王子市,七国２丁目１０番４号,,13,201,1920919,,,,,,,2024-03-25,1,,,,,ケイファクトリー,0
529,3010401181162,新規,0,2024-03-25,2024-03-25,株式会社ＨＡＰ,,株式会社,東京都,港区,六本木７丁目２０番２号アバンティ４０７,,13,103,1060032,,,,,,,2024-03-25,1,,,,,ハップ,0
530,3010401181253,新規,0,2024-03-25,2024-03-25,株式会社おけいすし,,株式会社,東京都,港区,港南２丁目１６－４品川グランドセントラルタワー１７階,,13,103,1080075,,,,,,,2024-03-25,1,,,,,オケイスシ,0
536,3010403032231,新規,0,2024-03-25,2024-03-25,合同会社ＨｉＪｏＪｏ　Ｆｕｎｄ３７,,合同会社,東京都,港区,西新橋１丁目７番２号,,13,103,1050003,,,,,,,2024-03-25,1,,,,,ヒジョージョーファンドサンジュウナナ,0
539,3010601064885,新規,0,2024-03-25,2024-03-25,株式会社グランド・デザイニング・グループ,,株式会社,東京都,江東区,豊洲６丁目２番１１号７２７,,13,108,1350061,,,,,,,2024-03-25,1,,,,,グランドデザイニンググループ,0
549,3010903008920,新規,0,2024-03-25,2024-03-25,ＫＡＷＡＳＡＫＩＳ合同会社,,合同会社,東京都,世田谷区,松原３丁目４２番１号クラウンズコート２階,,13,112,1560043,,,,,,,2024-03-25,1,,,,,カワサキズ,0
558,3011001160746,新規,0,2024-03-25,2024-03-25,株式会社Ａｎｄｕｐ,,株式会社,東京都,渋谷区,渋谷２丁目１９－１５宮益坂ビルディング６０９,,13,113,1500002,,,,,,,2024-03-25,1,,,,,アンドアップ,0
559,3011001160754,新規,0,2024-03-25,2024-03-25,株式会社Ｄｉｇｉｔａｌ　Ｃｏｎｄｕｃｔｏｒｓ,,株式会社,東京都,渋谷区,代官山町８－７Ｄａｉｗａ代官山ビル１Ｆ,,13,113,1500034,,,,,,,2024-03-25,1,,,,,デジタルコンダクターズ,0
560,3011001160795,新規,0,2024-03-25,2024-03-25,株式会社レスポワール,,株式会社,東京都,渋谷区,道玄坂１丁目１０番８号,,13,113,1500043,,,,,,,2024-03-25,1,,,,,レスポワール,0
561,3011001160820,新規,0,2024-03-25,2024-03-25,０１プロダクト株式会社,,株式会社,東京都,渋谷区,道玄坂１丁目１２番１号渋谷マークシティＷ２２階,,13,113,1500043,,,,,,,2024-03-25,1,,,,,ゼロワンプロダクト,0
562,3011001160853,新規,0,2024-03-25,2024-03-25,株式会社Ｏｎｅ　Ｉｎｎｏｖａｔｉｏｎ,,株式会社,東京都,渋谷区,神宮前６丁目２３番４号桑野ビル２階,,13,113,1500001,,,,,,,2024-03-25,1,,,,,ワンイノベーション,0
563,3011003018785,新規,0,2024-03-25,2024-03-25,Ｐｉｘｅｌ　Ｇｌｉｔｃｈ合同会社,,合同会社,東京都,渋谷区,神宮前６丁目２３番４号桑野ビル２階,,13,113,1500001,,,,,,,2024-03-25,1,,,,,ピクセルグリッチ,0
564,3011005010443,新規,0,2024-03-25,2024-03-25,一般社団法人ベルクアツギ,,その他の設立登記法人,東京都,目黒区,洗足２丁目１６番１９号,,13,110,1520012,,,,,,,2024-03-25,1,,,,,ベルクアツギ,0
569,3011101106649,新規,0,2024-03-25,2024-03-25,グランドリアルエステート株式会社,,株式会社,東京都,新宿区,高田馬場４丁目３番７号,,13,104,1690075,,,,,,,2024-03-25,1,,,,,グランドリアルエステート,0
578,3011601027642,新規,0,2024-03-25,2024-03-25,株式会社セントラルフィールド,,株式会社,東京都,練馬区,練馬１丁目６番６号,,13,120,1760001,,,,,,,2024-03-25,1,,,,,セントラルフィールド,0
583,3011701027138,新規,0,2024-03-25,2024-03-25,株式会社Ｒａｐｅｎｚｅ,,株式会社,東京都,江戸川区,西瑞江４丁目１４番地２都住１－１０５,,13,123,1340015,,,,,,,2024-03-25,1,,,,,ラペンツェ,0
584,3011801043976,新規,0,2024-03-25,2024-03-25,株式会社Ｔｏｋｙｏ．Ｄｒｅａｍ．Ｐａｒｔｎｅｒｓ,,株式会社,東京都,足立区,鹿浜４丁目４番８－３０４号,,13,121,1230864,,,,,,,2024-03-25,1,,,,,トウキョウドリームパートナーズ,0
586,3012301013825,新規,0,2024-03-25,2024-03-25,株式会社Ｃｈａｌｌｅｎｇｅ　Ｌｅａｇｕｅ,,株式会社,東京都,町田市,大蔵町３０７番地１ＭａｉｓｏｎＡｐｐｒｉｓ２０７,,13,209,1950062,,,,,,,2024-03-25,1,,,,,チャレンジリーグ,0
587,3012301013841,新規,0,2024-03-25,2024-03-25,株式会社渡部興業,,株式会社,東京都,町田市,鶴間６丁目６番２９号シャーメゾンＢ‐１０１,,13,209,1940004,,,,,,,2024-03-25,1,,,,,ワタベコウギョウ,0
589,3012801023051,新規,0,2024-03-25,2024-03-25,株式会社ＭＯＦ,,株式会社,東京都,国分寺市,日吉町３丁目７番地２７,,13,214,1850032,,,,,,,2024-03-25,1,,,,,モフ,0
590,3013101009377,新規,0,2024-03-25,2024-03-25,ＡＳＴＲＯ　ＧＡＴＥ株式会社,,株式会社,東京都,あきる野市,油平１３６,,13,228,1970827,,,,,,,2024-03-25,1,,,,,,0
593,3013301052251,新規,0,2024-03-25,2024-03-25,廣秋株式会社,,株式会社,東京都,豊島区,池袋２丁目５６番１号トップ池袋１０１０号室,,13,116,1710014,,,,,,,2024-03-25,1,,,,,ヒロアキ,0
597,3020001156357,新規,0,2024-03-25,2024-03-25,株式会社ＴＷＩＣＥ　ＵＰ,,株式会社,神奈川県,横浜市泉区,中田北３丁目５１番７号,,14,116,2450012,,,,,,,2024-03-25,1,,,,,トワイスアップ,0
598,3020001156407,新規,0,2024-03-25,2024-03-25,株式会社Ｆｒｅｑｂａｓｅ,,株式会社,神奈川県,横浜市都筑区,荏田東４丁目１７番１６号サニーコートＣ１０１,,14,118,2240006,,,,,,,2024-03-25,1,,,,,フリクベース,0
603,3020003025799,新規,0,2024-03-25,2024-03-25,合同会社ＷＬＰ,,合同会社,神奈川県,横浜市旭区,今宿東町１５３０番地２Ｅ３２６号,,14,112,2410032,,,,,,,2024-03-25,1,,,,,,0
606,3021001081768,新規,0,2024-03-25,2024-03-25,株式会社ＳＷＡＧ,,株式会社,神奈川県,相模原市中央区,淵野辺１丁目６番１－１０９号,,14,152,2520206,,,,,,,2024-03-25,1,,,,,スワッグ,0
607,3021001081784,新規,0,2024-03-25,2024-03-25,株式会社すずもり,,株式会社,神奈川県,鎌倉市,大船１８０４番地,,14,204,2470056,,,,,,,2024-03-25,1,,,,,スズモリ,0
608,3021001081792,新規,0,2024-03-25,2024-03-25,株式会社コネクトエステート,,株式会社,神奈川県,小田原市,下大井４６８番地の１０,,14,206,2500208,,,,,,,2024-03-25,1,,,,,コネクトエステート,0
611,3021005013049,新規,0,2024-03-25,2024-03-25,医療法人社団稜雲会,,その他の設立登記法人,神奈川県,藤沢市,藤が岡２丁目３番５号ＡＳＭＡＣＩ藤沢Ｂ１０１,,14,205,2510004,,,,,,,2024-03-25,1,,,,,リョウウンカイ,0
617,3030001159391,新規,0,2024-03-25,2024-03-25,株式会社オフィスマエダ,,株式会社,埼玉県,さいたま市南区,沼影１丁目３０番２５号６１７,,11,108,3360027,,,,,,,2024-03-25,1,,,,,オフィスマエダ,0
625,3040001132802,新規,0,2024-03-25,2024-03-25,株式会社近藤興業,,株式会社,千葉県,千葉市中央区,富士見２丁目７番９号富士見ビル６０９号,,12,101,2600015,,,,,,,2024-03-25,1,,,,,コンドウコウギョウ,0
628,3040003024618,新規,0,2024-03-25,2024-03-25,小倉興業合同会社,,合同会社,千葉県,千葉市中央区,問屋町５番２１－７１０号,,12,101,2600025,,,,,,,2024-03-25,1,,,,,オグラコウギョウ,0
630,3050001054500,新規,0,2024-03-25,2024-03-25,株式会社ＹＳホーム,,株式会社,茨城県,筑西市,玉戸１１０９番地１,,08,227,3080847,,,,,,,2024-03-25,1,,,,,ワイエスホーム,0
632,3050003008223,新規,0,2024-03-25,2024-03-25,合同会社Ｈｏｐｅ,,合同会社,茨城県,石岡市,三村５２９１番地２,,08,205,3150048,,,,,,,2024-03-25,1,,,,,ホープ,0
633,3060001036943,新規,0,2024-03-25,2024-03-25,株式会社躍秦,,株式会社,栃木県,宇都宮市,新里町丁１１１９番地９５,,09,201,3212118,,,,,,,2024-03-25,1,,,,,ヤクシン,0
634,3060001036951,新規,0,2024-03-25,2024-03-25,株式会社ＫＣＭ,,株式会社,栃木県,那須塩原市,豊浦１０番地１０サンパレス豊浦１０５号,,09,213,3250023,,,,,,,2024-03-25,1,,,,,ケーシーエム,0
636,3070003005326,新規,0,2024-03-25,2024-03-25,合同会社スピン,,合同会社,群馬県,高崎市,吉井町吉井７２５モンパレス吉井町第１－１号館２０１号,,10,202,3702132,,,,,,,2024-03-25,1,,,,,スピン,0
645,3090003002528,新規,0,2024-03-25,2024-03-25,ＳＵＮＮＳ合同会社,,合同会社,山梨県,北杜市,高根町清里３５４５番地６３５８,,19,209,4070301,,,,,,,2024-03-25,1,,,,,サンズ,0
648,3100001037301,新規,0,2024-03-25,2024-03-25,株式会社ｎｉｔｏ,,株式会社,長野県,長野市,青木島町大塚１５２５番地２０,,20,201,3812205,,,,,,,2024-03-25,1,,,,,ニト,0
650,3100003007459,新規,0,2024-03-25,2024-03-25,合同会社シビルデザイン,,合同会社,長野県,松本市,大字入山辺２００８番１,,20,202,3900222,,,,,,,2024-03-25,1,,,,,シビルデザイン,0
658,3120001263259,新規,0,2024-03-25,2024-03-25,株式会社エルリードジャパン,,株式会社,大阪府,大阪市北区,東天満１丁目７番２２－１３０５号,,27,127,5300044,,,,,,,2024-03-25,1,,,,,エルリードジャパン,0
659,3120001263291,新規,0,2024-03-25,2024-03-25,株式会社リファクト,,株式会社,大阪府,枚方市,山田池東町４６番３９号,,27,210,5730165,,,,,,,2024-03-25,1,,,,,リファクト,0
660,3120001263333,新規,0,2024-03-25,2024-03-25,株式会社Ｋｅｙ‐ｗａｙ,,株式会社,大阪府,大阪市西成区,北津守４丁目４番７５－４４号,,27,122,5570061,,,,,,,2024-03-25,1,,,,,キーウェイ,0
661,3120001263358,新規,0,2024-03-25,2024-03-25,株式会社光田,,株式会社,大阪府,大阪市中央区,南船場２丁目８番１１号シナプス心斎橋ビル,,27,128,5420081,,,,,,,2024-03-25,1,,,,,ミツダ,0
662,3120001263390,新規,0,2024-03-25,2024-03-25,株式会社仁和組,,株式会社,大阪府,寝屋川市,高柳２丁目３９番１１号,,27,215,5720051,,,,,,,2024-03-25,1,,,,,ニワグミ,0
663,3120001263399,新規,0,2024-03-25,2024-03-25,ＴＨＥ　ＣＵＥ株式会社,,株式会社,大阪府,大阪市中央区,北久宝寺町１丁目５－９,,27,128,5410057,,,,,,,2024-03-25,1,,,,,ザキュー,0
664,3120001263416,新規,0,2024-03-25,2024-03-25,株式会社ジキ,,株式会社,大阪府,大阪市北区,天神西町７番８号今村第２ビル５階,,27,127,5300045,,,,,,,2024-03-25,1,,,,,ジキ,0
665,3120001263424,新規,0,2024-03-25,2024-03-25,ａｉｐ　ｌａｂ株式会社,,株式会社,大阪府,大阪市中央区,南船場２丁目６－２ＢＳビルＢ１Ｆ,,27,128,5420081,,,,,,,2024-03-25,1,,,,,エーアイピーラボ,0
667,3120003026176,新規,0,2024-03-25,2024-03-25,豊谷合同会社,,合同会社,大阪府,大阪市東淀川区,宮原二丁目１２番１４号ライオンズマンション新大阪第五・４０４号室,,27,114,5330000,,,,,,,2024-03-25,1,,,,,トヨタニ,0
668,3120003026184,新規,0,2024-03-25,2024-03-25,合同会社Ｓａｉｎｔ　Ｂｅｎｏｉｔ,,合同会社,大阪府,大阪市浪速区,難波中１丁目１０番４号加納合同事務所内,,27,111,5560011,,,,,,,2024-03-25,1,,,,,サンブノワ,0
669,3120003026192,新規,0,2024-03-25,2024-03-25,スギゼンコンサルティング合同会社,,合同会社,大阪府,大阪市淀川区,西中島６丁目３番２５号,,27,123,5320011,,,,,,,2024-03-25,1,,,,,スギゼンコンサルティング,0
671,3120101069283,新規,0,2024-03-25,2024-03-25,株式会社エスフォーム,,株式会社,大阪府,松原市,東新町５丁目１１番２３－３０３号,,27,217,5800024,,,,,,,2024-03-25,1,,,,,エスフォーム,0
673,3120901048949,新規,0,2024-03-25,2024-03-25,株式会社ＫＤＣ,,株式会社,大阪府,豊中市,新千里東町１丁目２番３－１２０４号,,27,203,5600082,,,,,,,2024-03-25,1,,,,,ケーディーシー,0
676,3130001038486,新規,0,2024-03-25,2024-03-25,大幸林業株式会社,,株式会社,京都府,城陽市,寺田深谷６４番地の２１１,,26,207,6100121,,,,,,,2024-03-25,1,,,,,ダイコウリンギョウ,0
678,3130001076593,新規,0,2024-03-25,2024-03-25,株式会社ＢＬＩＳＳ,,株式会社,京都府,京都市中京区,松ケ枝町４５２番地２スーパーグランドビル２Ｆ,,26,104,6048034,,,,,,,2024-03-25,1,,,,,ブリス,0
679,3130001076651,新規,0,2024-03-25,2024-03-25,株式会社弘設,,株式会社,京都府,京都市伏見区,久我東町７番地１８４,,26,109,6128494,,,,,,,2024-03-25,1,,,,,コウセツ,0
685,3140001133773,新規,0,2024-03-25,2024-03-25,株式会社ｓｈｏｃｏｒｉｎ,,株式会社,兵庫県,西宮市,東町１丁目１４番２０－５０９号,,28,204,6620922,,,,,,,2024-03-25,1,,,,,ショコリン,0
690,3140003020292,新規,0,2024-03-25,2024-03-25,Ｊｏｙ　Ｉｎｎｏｖａｔｉｏｎ合同会社,,合同会社,兵庫県,姫路市,白浜町神田２丁目６９番地１,,28,201,6728011,,,,,,,2024-03-25,1,,,,,ジョイイノベーション,0
691,3140003020334,新規,0,2024-03-25,2024-03-25,合同会社ミライフリー,,合同会社,兵庫県,川西市,けやき坂２丁目５３番８号,,28,217,6660145,,,,,,,2024-03-25,1,,,,,ミライフリー,0
692,3150003003206,新規,0,2024-03-25,2024-03-25,合同会社誠,,合同会社,奈良県,北葛城郡広陵町,馬見北７丁目４番４－１号,,29,426,6350831,,,,,,,2024-03-25,1,,,,,マコト,0
704,3180001160582,新規,0,2024-03-25,2024-03-25,誉株式会社,,株式会社,愛知県,名古屋市中区,栄５丁目２６番３９号ＧＳ栄ビル３階,,23,106,4600008,,,,,,,2024-03-25,1,,,,,ホマレ,0
705,3180001160632,新規,0,2024-03-25,2024-03-25,株式会社タク,,株式会社,愛知県,北名古屋市,徳重本郷１４６番地１,,23,234,4810038,,,,,,,2024-03-25,1,,,,,タク,0
706,3180001160649,新規,0,2024-03-25,2024-03-25,株式会社Ｊｏｓｈｏ,,株式会社,愛知県,名古屋市中区,栄２丁目１２番２８号（白川公園パークマンション１００１号）,,23,106,4600008,,,,,,,2024-03-25,1,,,,,ジョウショウ,0
707,3180001160657,新規,0,2024-03-25,2024-03-25,株式会社コノハズク,,株式会社,愛知県,名古屋市中区,新栄２丁目１１番２１号カーサバレンシア６０６号室,,23,106,4600007,,,,,,,2024-03-25,1,,,,,コノハズク,0
708,3180001160681,新規,0,2024-03-25,2024-03-25,株式会社スペースリーガル,,株式会社,愛知県,名古屋市中区,丸の内２丁目２番７号丸の内弁護士ビル２０１号２０２号,,23,106,4600002,,,,,,,2024-03-25,1,,,,,スペースリーガル,0
709,3180001160698,新規,0,2024-03-25,2024-03-25,株式会社ＰＥＡＣＥ　ＴＲＥＥ,,株式会社,愛知県,知多郡南知多町,大字内海字先苅６０,,23,445,4703321,,,,,,,2024-03-25,1,,,,,ピースツリー,0
710,3180001160707,新規,0,2024-03-25,2024-03-25,株式会社ＤＡＩＳＳ,,株式会社,愛知県,愛西市,本部田町本東１４０番地,,23,232,4960915,,,,,,,2024-03-25,1,,,,,ダイス,0
711,3180001160723,新規,0,2024-03-25,2024-03-25,協和ヘルスメディケア株式会社,,株式会社,愛知県,名古屋市緑区,大高町字鶴田６１番地間瀬ビル２－Ｂ,,23,114,4598001,,,,,,,2024-03-25,1,,,,,キョウワヘルスメディケア,0
712,3180003026526,新規,0,2024-03-25,2024-03-25,合同会社ＴＮＣＫエンジニアリング,,合同会社,愛知県,名古屋市中村区,大宮町３丁目２８番地の１６,,23,105,4530821,,,,,,,2024-03-25,1,,,,,ティエヌシーケーエンジニアリング,0
713,3180003026534,新規,0,2024-03-25,2024-03-25,合同会社ＳＯＡ,,合同会社,愛知県,名古屋市中区,大須２丁目２番１７号（プレサンス大須観音ディオ１１０２号）,,23,106,4600011,,,,,,,2024-03-25,1,,,,,エスオーエイ,0
722,3200001042308,新規,0,2024-03-25,2024-03-25,株式会社モナミス,,株式会社,岐阜県,各務原市,各務おがせ町９丁目２３３,,21,213,5090104,,,,,,,2024-03-25,1,,,,,モナミス,0
723,3200001042316,新規,0,2024-03-25,2024-03-25,株式会社つばさキッチン,,株式会社,岐阜県,高山市,下切町１１９１－１,,21,203,5060041,,,,,,,2024-03-25,1,,,,,ツバサキッチン,0
728,3220001025888,新規,0,2024-03-25,2024-03-25,株式会社ニーズ・プラス,,株式会社,石川県,金沢市,八日市出町１５６番地４,,17,201,9218063,,,,,,,2024-03-25,1,,,,,ニーズプラス,0
730,3230001020260,新規,0,2024-03-25,2024-03-25,ドアマード株式会社,,株式会社,富山県,富山市,下大久保２１８７番地,,16,201,9392251,,,,,,,2024-03-25,1,,,,,ドアマード,0
732,3240005015751,新規,0,2024-03-25,2024-03-25,一般社団法人Ａ＆Ａ,,その他の設立登記法人,広島県,福山市,西町１丁目１番１号１Ｆオフィス０６,,34,207,7200067,,,,,,,2024-03-25,1,,,,,エーアンドエー,0
733,3260001038886,新規,0,2024-03-25,2024-03-25,株式会社居森企画,,株式会社,岡山県,岡山市南区,彦崎３２１４番地,,33,104,7091213,,,,,,,2024-03-25,1,,,,,イモリキカク,0
734,3290001105171,新規,0,2024-03-25,2024-03-25,株式会社Ｏｆｆｉｃｅ　Ｍｉｙａｍａ,,株式会社,福岡県,福岡市博多区,博多駅東２丁目５－１９サンライフ第３ビル８階,,40,132,8120013,,,,,,,2024-03-25,1,,,,,オフィスミヤマ,0
735,3290001105205,新規,0,2024-03-25,2024-03-25,株式会社ＪＩＮＧＬＥＪＡＭ,,株式会社,福岡県,福岡市中央区,谷１丁目１６－３０,,40,133,8100031,,,,,,,2024-03-25,1,,,,,,0
736,3290001105213,新規,0,2024-03-25,2024-03-25,株式会社ＭＵＢ,,株式会社,福岡県,福岡市博多区,金の隈２丁目３番５０号Ｃ－０２,,40,132,8120863,,,,,,,2024-03-25,1,,,,,ムーブ,0
741,3290801030395,新規,0,2024-03-25,2024-03-25,株式会社Ｒ＆Ｊ,,株式会社,福岡県,宮若市,沼口２２３番地２,,40,226,8220152,,,,,,,2024-03-25,1,,,,,アアルアンドジエイ,0
742,3320001001128,新規,0,2024-03-25,2024-03-25,株式会社後藤組,,株式会社,大分県,大分市,生石４丁目１番２０号,,44,201,8700003,,,,,,,2024-03-25,1,,,,,,0
743,3320001020375,新規,0,2024-03-25,2024-03-25,株式会社ＨＯＳＨＯ,,株式会社,大分県,宇佐市,大字長洲１２７５番地の３,,44,211,8720001,,,,,,,2024-03-25,1,,,,,ホーショウ,0
763,3430001091364,新規,0,2024-03-25,2024-03-25,株式会社ＵＰ’ＳＴＡＲ,,株式会社,北海道,札幌市豊平区,月寒東二条１１丁目１０番２０号,,01,105,0620052,,,,,,,2024-03-25,1,,,,,アップスター,0
764,3430001091389,新規,0,2024-03-25,2024-03-25,株式会社ＳＫＧ産業,,株式会社,北海道,札幌市北区,北二十九条西１３丁目１番１号松明ビル２０３号,,01,102,0010029,,,,,,,2024-03-25,1,,,,,エスケージーサンギョウ,0
765,3430001091397,新規,0,2024-03-25,2024-03-25,株式会社ＫＩＮＧ,,株式会社,北海道,札幌市中央区,南十一条西１２丁目２－１７ニューロイヤル山鼻３０２号,,01,101,0640811,,,,,,,2024-03-25,1,,,,,キング,0
767,3430003016105,新規,0,2024-03-25,2024-03-25,合同会社Ｂ＆Ｈ,,合同会社,北海道,札幌市手稲区,前田九条１４丁目２番１２号３１０号室,,01,109,0060819,,,,,,,2024-03-25,1,,,,,ビーアンドエイチ,0
768,3430003016121,新規,0,2024-03-25,2024-03-25,合同会社ｓｉ‐ｔ．ｐ,,合同会社,北海道,岩内郡岩内町,字相生１３４番地２,,01,402,0450023,,,,,,,2024-03-25,1,,,,,シータップ,0
787,4010001243295,新規,0,2024-03-25,2024-03-25,株式会社Ｋｅｅｎｅｒ,,株式会社,東京都,中央区,銀座１丁目２２番１１号銀座大竹ビジデンス２Ｆ,,13,102,1040061,,,,,,,2024-03-25,1,,,,,キーナー,0
788,4010001243345,新規,0,2024-03-25,2024-03-25,ＲＯＫＵ株式会社,,株式会社,東京都,中央区,東日本橋１丁目２番１０号,,13,102,1030004,,,,,,,2024-03-25,1,,,,,ロク,0
789,4010001243361,新規,0,2024-03-25,2024-03-25,アルケミストジャパン株式会社,,株式会社,東京都,中央区,日本橋３丁目９番１号日本橋三丁目スクエア１１階,,13,102,1030027,,,,,,,2024-03-25,1,,,,,アルケミストジャパン,0
790,4010001243386,新規,0,2024-03-25,2024-03-25,株式会社スマイルカンパニー,,株式会社,東京都,千代田区,神田佐久間町３丁目３８番地,,13,101,1010025,,,,,,,2024-03-25,1,,,,,スマイルカンパニー,0
795,4010005038072,新規,0,2024-03-25,2024-03-25,ＡＲＫ行政書士法人,,その他の設立登記法人,東京都,中央区,入船２丁目２番２号ＰＭＯ八丁堀Ｖ１０Ｆ,,13,102,1040042,,,,,,,2024-03-25,1,,,,,エーアールケー,0
796,4010005038080,新規,0,2024-03-25,2024-03-25,特定非営利活動法人地縁の輪,,その他の設立登記法人,東京都,文京区,小日向２丁目５番１号,,13,105,1120006,,,,,,,2024-03-25,1,,,,,チエノワ,0
804,4010401181194,新規,0,2024-03-25,2024-03-25,株式会社ｈｏｚｅｍｉ,,株式会社,東京都,港区,新橋５丁目３４番６号イーグル新橋ビル７階,,13,103,1050004,,,,,,,2024-03-25,1,,,,,ホゼミ,0
805,4010401181252,新規,0,2024-03-25,2024-03-25,株式会社Ｆａｉｒ　Ａｓｓｅｔ　Ｍａｎａｇｅｍｅｎｔ,,株式会社,東京都,港区,南青山２丁目２番１５号,,13,103,1070062,,,,,,,2024-03-25,1,,,,,フェアアセットマネジメント,0
807,4010403032230,新規,0,2024-03-25,2024-03-25,合同会社ＨｉＪｏＪｏ　Ｆｕｎｄ３６,,合同会社,東京都,港区,西新橋１丁目７番２号,,13,103,1050003,,,,,,,2024-03-25,1,,,,,ヒジョージョーファンドサンジュウロク,0
808,4010403032239,新規,0,2024-03-25,2024-03-25,Ｈｏｋｋａｉｄｏ　Ｚｅｒｏ　Ｃａｒｂｏｎ　Ｌａｎｄ合同会社,,合同会社,東京都,港区,高輪１丁目３番１３号ＮＢＦ高輪ビル７階,,13,103,1080074,,,,,,,2024-03-25,1,,,,,ホッカイドーゼロカーボンランド,0
809,4010403032263,新規,0,2024-03-25,2024-03-25,紅梅合同会社,,合同会社,東京都,港区,西新橋１丁目１番１号ＥＰコンサルティングサービス内,,13,103,1050003,,,,,,,2024-03-25,1,,,,,コウバイ,0
810,4010405023079,新規,0,2024-03-25,2024-03-25,一般社団法人世界酵素風呂連盟,,その他の設立登記法人,東京都,港区,高輪３丁目２３番１４号,,13,103,1080074,,,,,,,2024-03-25,1,,,,,セカイコウソブロレンメイ,0
811,4010603010713,新規,0,2024-03-25,2024-03-25,遠藤機械工業合同会社,,合同会社,東京都,墨田区,菊川３丁目１８番１号,,13,107,1300024,,,,,,,2024-03-25,1,,,,,エンドウキカイコウギョウ,0
813,4010801034869,新規,0,2024-03-25,2024-03-25,株式会社ＹＫＣ,,株式会社,東京都,大田区,南雪谷４丁目６－１１,,13,111,1450066,,,,,,,2024-03-25,1,,,,,ワイケイシイ,0
815,4010901054940,新規,0,2024-03-25,2024-03-25,株式会社ララクーン,,株式会社,東京都,世田谷区,若林２丁目３３番６号グリーンコート１０３,,13,112,1540023,,,,,,,2024-03-25,1,,,,,ララクーン,0
820,4011001160737,新規,0,2024-03-25,2024-03-25,株式会社Ｅｖｏｋｅ,,株式会社,東京都,渋谷区,恵比寿西２丁目８番４号ＥＸ恵比寿西ビル５階,,13,113,1500021,,,,,,,2024-03-25,1,,,,,エボーク,0
821,4011001160745,新規,0,2024-03-25,2024-03-25,株式会社ＮＸｖａｔｉｏｎ,,株式会社,東京都,渋谷区,渋谷２丁目１９－１５宮益坂ビルディング６０９,,13,113,1500002,,,,,,,2024-03-25,1,,,,,ネクスベーション,0
822,4011001160836,新規,0,2024-03-25,2024-03-25,株式会社フォークドラディッシュ,,株式会社,東京都,渋谷区,恵比寿南１丁目１２－５－４Ｆ,,13,113,1500022,,,,,,,2024-03-25,1,,,,,フォークドラディッシュ,0
823,4011003018743,新規,0,2024-03-25,2024-03-25,Ｖａｃａｎｚａ　ａ　Ｐａｌｅｒｍｏ合同会社,,合同会社,東京都,渋谷区,上原２丁目３１番６－２０１号,,13,113,1510064,,,,,,,2024-03-25,1,,,,,ヴァカンツァアパレルモ,0
824,4011005010426,新規,0,2024-03-25,2024-03-25,一般社団法人スポーツパフォーマンスサミット,,その他の設立登記法人,東京都,渋谷区,恵比寿西２丁目４番８号ウィンド恵比寿ビル８Ｆ,,13,113,1500021,,,,,,,2024-03-25,1,,,,,スポーツパフォーマンスサミット,0
825,4011101106672,新規,0,2024-03-25,2024-03-25,株式会社５ｒｏｏｔｓ,,株式会社,東京都,新宿区,四谷２丁目１１－１１アシストビル９Ｆ,,13,104,1600004,,,,,,,2024-03-25,1,,,,,ファイブルーツ,0
826,4011101106680,新規,0,2024-03-25,2024-03-25,株式会社ＵＮＩ,,株式会社,東京都,新宿区,歌舞伎町２丁目１１番４号Ｌｅｅ３ビル８階,,13,104,1600021,,,,,,,2024-03-25,1,,,,,ユニ,0
827,4011101106689,新規,0,2024-03-25,2024-03-25,ＹＧシステム開発株式会社,,株式会社,東京都,新宿区,百人町１丁目８番１－７０４号,,13,104,1690073,,,,,,,2024-03-25,1,,,,,ワイジーシステムカイハツ,0
828,4011103014254,新規,0,2024-03-25,2024-03-25,マルソック合同会社,,合同会社,東京都,新宿区,新宿１丁目３６番２号新宿第七葉山ビル３Ｆ,,13,104,1600022,,,,,,,2024-03-25,1,,,,,マルソック,0
829,4011201025351,新規,0,2024-03-25,2024-03-25,ピェーミヤンマースウェ株式会社,,株式会社,東京都,中野区,東中野４丁目４－５－８１８,,13,114,1640003,,,,,,,2024-03-25,1,,,,,ピェーミヤンマースウェ,0
832,4011601027633,新規,0,2024-03-25,2024-03-25,鴻徳商事株式会社,,株式会社,東京都,練馬区,豊玉北４丁目２２－３－４０６号,,13,120,1760012,,,,,,,2024-03-25,1,,,,,,0
834,4011701027137,新規,0,2024-03-25,2024-03-25,株式会社石渡重設,,株式会社,東京都,江戸川区,谷河内２丁目２番２－６０２号,,13,123,1330002,,,,,,,2024-03-25,1,,,,,イシワタジュウセツ,0
836,4011801043975,新規,0,2024-03-25,2024-03-25,株式会社ＳｅｍＦｏｌｉｏ,,株式会社,東京都,足立区,千住１丁目４番１号東京芸術センター１０階,,13,121,1200034,,,,,,,2024-03-25,1,,,,,セムフォリオ,0
837,4011803006138,新規,0,2024-03-25,2024-03-25,合同会社クマックス,,合同会社,東京都,葛飾区,宝町１丁目３番７号ラ・ティーダ堀切３０２号,,13,122,1240005,,,,,,,2024-03-25,1,,,,,クマックス,0
838,4012301013832,新規,0,2024-03-25,2024-03-25,ＣｒｅａＴｅｌｌ株式会社,,株式会社,東京都,町田市,成瀬６丁目１８番１３号ミノリハイツ３０１,,13,209,1940044,,,,,,,2024-03-25,1,,,,,クリエイテル,0
841,4012401041642,新規,0,2024-03-25,2024-03-25,株式会社ルーブ,,株式会社,東京都,小金井市,貫井北町２丁目１番８号,,13,210,1840015,,,,,,,2024-03-25,1,,,,,ルーブ,0
847,4013303007062,新規,0,2024-03-25,2024-03-25,ＴＩＭＥＬＥＳＳ　ＴＲＯＶＥ合同会社,,合同会社,東京都,豊島区,上池袋３丁目２９－８－１０２号室,,13,116,1700012,,,,,,,2024-03-25,1,,,,,タイムレストローブ,0
852,4020001156389,新規,0,2024-03-25,2024-03-25,Ｇｅｎｉｕｓｙｓｔ株式会社,,株式会社,神奈川県,横浜市西区,北幸２丁目１０－４８むつみビル３Ｆ,,14,103,2200004,,,,,,,2024-03-25,1,,,,,ジーニアシスト,0
853,4020001156397,新規,0,2024-03-25,2024-03-25,株式会社ＡＬＢＡＬＩＺＥ,,株式会社,神奈川県,横浜市南区,中里４丁目２０－１４,,14,105,2320063,,,,,,,2024-03-25,1,,,,,アルバライズ,0
855,4020003025749,新規,0,2024-03-25,2024-03-25,合同会社Ｄｒｅａｍｃａｔｃｈｅｒ,,合同会社,神奈川県,横浜市緑区,長津田みなみ台１丁目１番地７マイキャッスル長津田６０７号,,14,113,2260018,,,,,,,2024-03-25,1,,,,,ドリームキャッチャー,0
856,4020003025773,新規,0,2024-03-25,2024-03-25,合同会社オフィスモリシタ,,合同会社,神奈川県,横浜市神奈川区,片倉２丁目６９番３号,,14,102,2210865,,,,,,,2024-03-25,1,,,,,オフィスモリシタ,0
857,4020003025798,新規,0,2024-03-25,2024-03-25,合同会社作クリエィション,,合同会社,神奈川県,横浜市港北区,新横浜１丁目１７番地１５ステイブル協和７０４号室,,14,109,2220033,,,,,,,2024-03-25,1,,,,,,0
864,4021001081791,新規,0,2024-03-25,2024-03-25,ＨＥＨＥＩＮ株式会社,,株式会社,神奈川県,相模原市南区,相模台１丁目１４番３号カメヤハイツ３０１号,,14,153,2520321,,,,,,,2024-03-25,1,,,,,ヘヘイン,0
865,4021003014304,新規,0,2024-03-25,2024-03-25,シンプリファイア合同会社,,合同会社,神奈川県,三浦郡葉山町,一色３７０,,14,301,2400111,,,,,,,2024-03-25,1,,,,,シンプリファイア,0
866,4021005013048,新規,0,2024-03-25,2024-03-25,ＮＰＯ法人フリースペースいろどり,,その他の設立登記法人,神奈川県,横須賀市,ハイランド５丁目１１番１号,,14,201,2390833,,,,,,,2024-03-25,1,,,,,フリースペースイロドリ,0
869,4030001159382,新規,0,2024-03-25,2024-03-25,株式会社リブセーフ,,株式会社,埼玉県,鶴ヶ島市,脚折町１丁目７番５号,,11,241,3502211,,,,,,,2024-03-25,1,,,,,リブセーフ,0
870,4030001159399,新規,0,2024-03-25,2024-03-25,株式会社ライティア,,株式会社,埼玉県,さいたま市浦和区,東仲町８番２２号ＬＥＯＮＵＲＡＷＡ１ｓｔ４階,,11,107,3300056,,,,,,,2024-03-25,1,,,,,ライティア,0
871,4030001159408,新規,0,2024-03-25,2024-03-25,株式会社ＴＥＮ不動産,,株式会社,埼玉県,鴻巣市,原馬室８番地６,,11,217,3650043,,,,,,,2024-03-25,1,,,,,テンフドウサン,0
872,4030001159416,新規,0,2024-03-25,2024-03-25,株式会社ＡＵＴＯ　ＷＯＲＫ’Ｓ　Ｒ,,株式会社,埼玉県,東松山市,大字下青鳥１９５番地２,,11,212,3550075,,,,,,,2024-03-25,1,,,,,オートワークスアール,0
875,4030003023875,新規,0,2024-03-25,2024-03-25,ソウゾウ合同会社,,合同会社,埼玉県,さいたま市桜区,町谷３丁目１０番５号,,11,106,3380836,,,,,,,2024-03-25,1,,,,,ソウゾウ,0
879,4040001132826,新規,0,2024-03-25,2024-03-25,株式会社ライオンスター,,株式会社,千葉県,柏市,篠籠田１０７０番地２フォンテーヌ柏２０６号,,12,217,2770862,,,,,,,2024-03-25,1,,,,,ライオンスター,0
884,4040003024583,新規,0,2024-03-25,2024-03-25,ＳＰＨＥＲＥ合同会社,,合同会社,千葉県,四街道市,千代田５丁目５７番１４号,,12,228,2840015,,,,,,,2024-03-25,1,,,,,スフィア,0
885,4040003024617,新規,0,2024-03-25,2024-03-25,合同会社ＭＵＴＯ,,合同会社,千葉県,市原市,五井西５丁目１０番地８,,12,219,2900038,,,,,,,2024-03-25,1,,,,,,0
890,4060001036942,新規,0,2024-03-25,2024-03-25,株式会社イシバシ工房,,株式会社,栃木県,芳賀郡芳賀町,大字下高根沢３４７０番地２,,09,345,3213321,,,,,,,2024-03-25,1,,,,,イシバシコウボウ,0
891,4060003004988,新規,0,2024-03-25,2024-03-25,合同会社香樂,,合同会社,栃木県,宇都宮市,西一の沢町５番１２号ウインドヒルズＣ号棟,,09,201,3200046,,,,,,,2024-03-25,1,,,,,カグラ,0
908,4100001037309,新規,0,2024-03-25,2024-03-25,日本光設株式会社,,株式会社,長野県,長野市,大字大豆島６１２４番地３,,20,201,3810022,,,,,,,2024-03-25,1,,,,,ニホンコウセツ,0
912,4100003007458,新規,0,2024-03-25,2024-03-25,合同会社船木成記事務所,,合同会社,長野県,長野市,大字南長野字幅下６４４番地８,,20,201,3800837,,,,,,,2024-03-25,1,,,,,フナキシゲノリジムショ,0
913,4110003005337,新規,0,2024-03-25,2024-03-25,合同会社Ｍａｒｇｕｅｒｉｔｅ,,合同会社,新潟県,長岡市,喜多町３０３５番地,,15,202,9402121,,,,,,,2024-03-25,1,,,,,マーガレット,0
918,4120001263225,新規,0,2024-03-25,2024-03-25,株式会社Ｅ．Ｓ．Ｋ．,,株式会社,大阪府,大阪市中央区,淡路町１丁目６番９号８Ｆ,,27,128,5410047,,,,,,,2024-03-25,1,,,,,イーエスケー,0
919,4120001263258,新規,0,2024-03-25,2024-03-25,デナリフーズ株式会社,,株式会社,大阪府,大阪市北区,梅田１丁目２番２号,,27,127,5300001,,,,,,,2024-03-25,1,,,,,デナリフーズ,0
920,4120001263357,新規,0,2024-03-25,2024-03-25,ラーテル都市開発株式会社,,株式会社,大阪府,大阪市天王寺区,逢阪２丁目３番２号リンクハウス天王寺ビル６０１,,27,109,5430062,,,,,,,2024-03-25,1,,,,,ラーテルトシカイハツ,0
921,4120001263431,新規,0,2024-03-25,2024-03-25,ＨＫＪＡ　ＪＡＰＡＮ株式会社,,株式会社,大阪府,大阪市中央区,南船場３丁目２番２２号おおきに南船場ビル２０５,,27,128,5420081,,,,,,,2024-03-25,1,,,,,エイチケイジェイエイジャパン,0
923,4120003026183,新規,0,2024-03-25,2024-03-25,合同会社ＡＢＵＮＤＡＮＣＥ,,合同会社,大阪府,大阪市浪速区,難波中１丁目１０番４号加納合同事務所内,,27,111,5560011,,,,,,,2024-03-25,1,,,,,アバンダンス,0
924,4120003026200,新規,0,2024-03-25,2024-03-25,合同会社エフ,,合同会社,大阪府,大阪市浪速区,稲荷１丁目１０－１２－４０２,,27,111,5560023,,,,,,,2024-03-25,1,,,,,エフ,0
925,4120003026217,新規,0,2024-03-25,2024-03-25,合同会社Ｍｉｎｏｒｉｔｙ,,合同会社,大阪府,大阪市中央区,日本橋１丁目１７－１７ピカソ日本一ビル６０４号室,,27,128,5420073,,,,,,,2024-03-25,1,,,,,マイノリティ,0
928,4120005024219,新規,0,2024-03-25,2024-03-25,吉村司法書士法人,,その他の設立登記法人,大阪府,大阪市中央区,東心斎橋１丁目３番１０号長堀堂ビル７階,,27,128,5420083,,,,,,,2024-03-25,1,,,,,ヨシムラ,0
934,4120101069282,新規,0,2024-03-25,2024-03-25,永興株式会社,,株式会社,大阪府,泉佐野市,南中樫井４３２－１－Ａ棟,,27,213,5980035,,,,,,,2024-03-25,1,,,,,エイコウ,0
937,4122005003739,新規,0,2024-03-25,2024-03-25,一般社団法人歯科衛生士地域福祉連携協会,,その他の設立登記法人,大阪府,八尾市,本町２丁目３番１号メゾンクレール１Ｆ,,27,212,5810003,,,,,,,2024-03-25,1,,,,,シカエイセイシチイキフクシレンケイキョウカイ,0
942,4130001076642,新規,0,2024-03-25,2024-03-25,野村佃煮株式会社,,株式会社,京都府,宇治市,大久保町田原２４番地,,26,204,6110033,,,,,,,2024-03-25,1,,,,,ノムラツクダニ,0
943,4130001076650,新規,0,2024-03-25,2024-03-25,株式会社ウィズスマイル,,株式会社,京都府,京都市左京区,聖護院西町１０番地シャリエ聖護院西町４０６,,26,103,6068391,,,,,,,2024-03-25,1,,,,,ウィズスマイル,0
952,4140001133715,新規,0,2024-03-25,2024-03-25,株式会社ＴＲＵＳＴ,,株式会社,兵庫県,尼崎市,尾浜町１丁目２９番８号２号室,,28,202,6610022,,,,,,,2024-03-25,1,,,,,トラスト,0
953,4140001133764,新規,0,2024-03-25,2024-03-25,株式会社ラブリースマイル,,株式会社,兵庫県,神戸市西区,井吹台北町４丁目６２番地の３,,28,111,6512244,,,,,,,2024-03-25,1,,,,,ラブリースマイル,0
954,4140001133772,新規,0,2024-03-25,2024-03-25,株式会社Ｌｉｂｅｒａｌ,,株式会社,兵庫県,神戸市中央区,橘通４丁目１－２８歩２番館１Ｆ,,28,110,6500016,,,,,,,2024-03-25,1,,,,,リベラル,0
955,4140001133780,新規,0,2024-03-25,2024-03-25,株式会社関西パイプアート,,株式会社,兵庫県,明石市,明南町２丁目３番１２号,,28,203,6730001,,,,,,,2024-03-25,1,,,,,カンサイパイプアート,0
956,4140001133797,新規,0,2024-03-25,2024-03-25,株式会社藤原建設,,株式会社,兵庫県,神戸市北区,西大池１丁目６番３３号,,28,109,6511201,,,,,,,2024-03-25,1,,,,,フジワラケンセツ,0
957,4140001133822,新規,0,2024-03-25,2024-03-25,株式会社ＫＵＮ,,株式会社,兵庫県,神戸市北区,有野中町３丁目１７番８号,,28,109,6511313,,,,,,,2024-03-25,1,,,,,ケーユーエヌ,0
958,4140001133839,新規,0,2024-03-25,2024-03-25,株式会社Ｆｉｒｅｆｌｙ　Ｈｏｕｓｅ,,株式会社,兵庫県,豊岡市,津居山７６番地,,28,209,6696121,,,,,,,2024-03-25,1,,,,,ファイヤーフライハウス,0
960,4140003020291,新規,0,2024-03-25,2024-03-25,合同会社ラブ＆ハッピー,,合同会社,兵庫県,高砂市,神爪４丁目２番９号,,28,216,6760808,,,,,,,2024-03-25,1,,,,,ラブアンドハッピー,0
961,4140003020325,新規,0,2024-03-25,2024-03-25,合同会社Ｍ＆Ｓ　Ｈｏｍｅ’ｓ,,合同会社,兵庫県,神戸市北区,松が枝町１丁目１５番地の２,,28,109,6511232,,,,,,,2024-03-25,1,,,,,エムアンドエスホームズ,0
963,4150001027164,新規,0,2024-03-25,2024-03-25,株式会社中本建装,,株式会社,奈良県,吉野郡大淀町,大字桧垣本９９８番地の８５,,29,442,6380812,,,,,,,2024-03-25,1,,,,,ナカモトケンソウ,0
964,4150003003205,新規,0,2024-03-25,2024-03-25,合同会社Ｏｆｆｉｃｅ　Ｗａｌｋ　ｏｎ,,合同会社,奈良県,奈良市,三条桧町２０－１０,,29,201,6308124,,,,,,,2024-03-25,1,,,,,オフィスウォークオン,0
971,4180001160581,新規,0,2024-03-25,2024-03-25,株式会社イノコンバンク,,株式会社,愛知県,名古屋市中区,大須４丁目１０番４０号カジウラテックスビル２階,,23,106,4600011,,,,,,,2024-03-25,1,,,,,イノコンバンク,0
972,4180001160598,新規,0,2024-03-25,2024-03-25,株式会社中小企業診断,,株式会社,愛知県,名古屋市中区,大須１丁目７番１４号パークＩＭビル２Ｆ,,23,106,4600011,,,,,,,2024-03-25,1,,,,,チュウショウキギョウシンダン,0
973,4180001160623,新規,0,2024-03-25,2024-03-25,株式会社ＴＤＣ,,株式会社,愛知県,名古屋市中区,大須２丁目３０番１９号,,23,106,4600011,,,,,,,2024-03-25,1,,,,,ティーディーシー,0
974,4180001160648,新規,0,2024-03-25,2024-03-25,株式会社イチカワ工務店,,株式会社,愛知県,豊明市,沓掛町一長田４０番地１,,23,229,4701101,,,,,,,2024-03-25,1,,,,,イチカワコウムテン,0
975,4180001160656,新規,0,2024-03-25,2024-03-25,株式会社Ｓ‐ｍａｇｉｃ,,株式会社,愛知県,名古屋市南区,粕畠町３丁目２０番地の１（ＢＥＬＩＳＴＡ笠寺３０８号）,,23,112,4570052,,,,,,,2024-03-25,1,,,,,エスマジック,0
976,4180001160680,新規,0,2024-03-25,2024-03-25,Ｐｏｗｅｒｓ　Ｃａｌｌ株式会社,,株式会社,愛知県,名古屋市南区,立脇町１丁目６番地,,23,112,4570077,,,,,,,2024-03-25,1,,,,,パワーズコール,0
977,4180001160689,新規,0,2024-03-25,2024-03-25,シェアエコ株式会社,,株式会社,愛知県,名古屋市名東区,小井堀町１００１番地,,23,115,4650044,,,,,,,2024-03-25,1,,,,,シェアエコ,0
978,4180001160730,新規,0,2024-03-25,2024-03-25,株式会社柴田設備,,株式会社,愛知県,名古屋市名東区,一社３丁目６５番地の１コルティーレ１０３号,,23,115,4650093,,,,,,,2024-03-25,1,,,,,シバタセツビ,0
986,4180003026517,新規,0,2024-03-25,2024-03-25,ＥＭ・ＺＥＱ合同会社,,合同会社,愛知県,春日井市,大留町５丁目１３番地２,,23,206,4870024,,,,,,,2024-03-25,1,,,,,エムゼック,0
987,4180003026525,新規,0,2024-03-25,2024-03-25,合同会社ペンギンクルー,,合同会社,愛知県,名古屋市中区,栄５丁目２６番３９号ＧＳ栄ビル３Ｆ,,23,106,4600008,,,,,,,2024-03-25,1,,,,,ペンギンクルー,0
988,4180003026533,新規,0,2024-03-25,2024-03-25,合同会社ＮＩＮＫＡＳＩ,,合同会社,愛知県,名古屋市中川区,東中島町５丁目３６番地,,23,110,4540866,,,,,,,2024-03-25,1,,,,,ニンカシ,0
991,4180303006045,新規,0,2024-03-25,2024-03-25,みんなのマネサポ合同会社,,合同会社,愛知県,刈谷市,広小路７丁目１番地１,,23,210,4480844,,,,,,,2024-03-25,1,,,,,ミンナノマネサポ,0
1000,4230001020251,新規,0,2024-03-25,2024-03-25,株式会社石硝,,株式会社,富山県,高岡市,古定塚１番２１号,,16,202,9330054,,,,,,,2024-03-25,1,,,,,イシショウ,0
1001,4240001062994,新規,0,2024-03-25,2024-03-25,株式会社ＫＥＩＳＨＯＷ,,株式会社,広島県,広島市中区,江波栄町７番４号,,34,101,7300836,,,,,,,2024-03-25,1,,,,,ケイショウ,0
1004,4290001105162,新規,0,2024-03-25,2024-03-25,株式会社ＭＡＧＯＭＥ,,株式会社,福岡県,宗像市,広陵台１丁目３番地５,,40,220,8114165,,,,,,,2024-03-25,1,,,,,マゴメ,0
1005,4290001105204,新規,0,2024-03-25,2024-03-25,株式会社ＪＫＰ,,株式会社,福岡県,福岡市東区,高美台４丁目２４－１０,,40,131,8110215,,,,,,,2024-03-25,1,,,,,ジェイケイピー,0
1008,4290003015079,新規,0,2024-03-25,2024-03-25,Ｊ．Ｈｏｍｅ合同会社,,合同会社,福岡県,宗像市,東郷１丁目９番３３－２０２号,,40,220,8113436,,,,,,,2024-03-25,1,,,,,ジェイホーム,0
1009,4290003015104,新規,0,2024-03-25,2024-03-25,Ｆ＆Ｋ合同会社,,合同会社,福岡県,大野城市,白木原２丁目６番７号,,40,219,8160943,,,,,,,2024-03-25,1,,,,,エフアンドケイ,0
1010,4290003015112,新規,0,2024-03-25,2024-03-25,合同会社ＰＥＯＮＹ,,合同会社,福岡県,福岡市中央区,大手門１丁目１番２７－５０１号,,40,133,8100074,,,,,,,2024-03-25,1,,,,,ピオニー,0
1017,4320003004318,新規,0,2024-03-25,2024-03-25,合同会社ＳＡＮＫＹＯ,,合同会社,大分県,大分市,大字小池原１１０３番地の１,,44,201,8700147,,,,,,,2024-03-25,1,,,,,サンキョウ,0
1021,4360001033389,新規,0,2024-03-25,2024-03-25,ＴＫｓｐｏｒｔｓ企画沖縄株式会社,,株式会社,沖縄県,浦添市,伊祖３丁目４６番１５号,,47,208,9012132,,,,,,,2024-03-25,1,,,,,ティーケースポーツキカクオキナワ,0
1022,4360003013819,新規,0,2024-03-25,2024-03-25,合同会社大紀,,合同会社,沖縄県,島尻郡与那原町,字板良敷４６７番地６,,47,348,9011301,,,,,,,2024-03-25,1,,,,,ダイキ,0
1025,4370001051092,新規,0,2024-03-25,2024-03-25,株式会社ユーエヌ,,株式会社,宮城県,岩沼市,小川字荘司２４番地,,04,211,9892471,,,,,,,2024-03-25,1,,,,,ユーエヌ,0
1026,4380003005723,新規,0,2024-03-25,2024-03-25,ヒナタビ合同会社,,合同会社,福島県,田村郡三春町,大字御祭字幅遠内８番地の１,,07,521,9637772,,,,,,,2024-03-25,1,,,,,ヒナタビ,0
1035,4430003016070,新規,0,2024-03-25,2024-03-25,合同会社コルジュの森,,合同会社,北海道,岩見沢市,七条西１３丁目５番地１Ｐａｓｈ　Ｒｏａｄ１０２,,01,210,0680027,,,,,,,2024-03-25,1,,,,,コルジュノモリ,0
1038,4480001012422,新規,0,2024-03-25,2024-03-25,株式会社真光ハウジング,,株式会社,徳島県,徳島市,南矢三町１丁目８番１８号,,36,201,7700005,,,,,,,2024-03-25,1,,,,,シンコウハウジング,0
1041,4500001025529,新規,0,2024-03-25,2024-03-25,株式会社イージーモード,,株式会社,愛媛県,松山市,二番町２丁目２番地２黒田ビル２階,,38,201,7900002,,,,,,,2024-03-25,1,,,,,イージーモード,0
1050,5010001242692,新規,0,2024-03-25,2024-03-25,ＬＬＪ株式会社,,株式会社,東京都,文京区,白山１丁目６番４号文京ＶｅｎｔｕｒｅＢａｓｅ２０３,,13,105,1130001,,,,,,,2024-03-25,1,,,,,エルエルジェ,0
1051,5010003043305,新規,0,2024-03-25,2024-03-25,合同会社ＫＹＰ　ＪＡＰＡＮ,,合同会社,東京都,文京区,音羽１丁目２１－１２ストーク音羽３０６,,13,105,1120013,,,,,,,2024-03-25,1,,,,,ケーワイピージャパン,0
1052,5010003043313,新規,0,2024-03-25,2024-03-25,合同会社青木,,合同会社,東京都,中央区,勝どき４丁目８番９－６０４号,,13,102,1040054,,,,,,,2024-03-25,1,,,,,アオキ,0
1053,5010005038063,新規,0,2024-03-25,2024-03-25,一般社団法人瑞咲会,,その他の設立登記法人,東京都,千代田区,神田鍛冶町３丁目３番地１栄立ビル４階,,13,101,1010045,,,,,,,2024-03-25,1,,,,,ズイショウカイ,0
1058,5010401181276,新規,0,2024-03-25,2024-03-25,株式会社和田,,株式会社,東京都,港区,東麻布２丁目３３－１２,,13,103,1060044,,,,,,,2024-03-25,1,,,,,ワダ,0
1060,5010403032246,新規,0,2024-03-25,2024-03-25,合同会社ｅｙｅ‐Ｍ,,合同会社,東京都,港区,南青山２丁目２番１５号,,13,103,1070062,,,,,,,2024-03-25,1,,,,,アイエム,0
1061,5010403032262,新規,0,2024-03-25,2024-03-25,八重桜合同会社,,合同会社,東京都,港区,西新橋１丁目１番１号ＥＰコンサルティングサービス内,,13,103,1050003,,,,,,,2024-03-25,1,,,,,ヤエザクラ,0
1064,5010501051916,新規,0,2024-03-25,2024-03-25,株式会社ＫＩＰＯＮ,,株式会社,東京都,台東区,東上野２丁目２１番１号,,13,106,1100015,,,,,,,2024-03-25,1,,,,,キポン,0
1065,5010503007387,新規,0,2024-03-25,2024-03-25,合同会社ｓｃｅｎｅｓ,,合同会社,東京都,台東区,千束３丁目２７番１２－８０６号ジェノビア浅草ＩＩスカイガーデン,00134176,13,106,1110031,,,,,,,2024-03-25,1,,,,,シーンズ,0
1066,5010601064859,新規,0,2024-03-25,2024-03-25,株式会社ＶＩＮＣＥＲＥＭＯ,,株式会社,東京都,江東区,北砂４丁目３１番６号,,13,108,1360073,,,,,,,2024-03-25,1,,,,,ヴィンチェレーモ,0
1073,5010803004893,新規,0,2024-03-25,2024-03-25,合同会社ワイエムエヌ,,合同会社,東京都,大田区,大森南１丁目８番４号,,13,111,1430013,,,,,,,2024-03-25,1,,,,,ワイエムエヌ,0
1079,5011001160678,新規,0,2024-03-25,2024-03-25,ＢＯＷＺ株式会社,,株式会社,東京都,目黒区,中央町２丁目１９番９号,,13,110,1520001,,,,,,,2024-03-25,1,,,,,ボウズ,0
1080,5011001160760,新規,0,2024-03-25,2024-03-25,株式会社Ｗａｋｕｍｉ,,株式会社,東京都,渋谷区,道玄坂１丁目１０番８号渋谷道玄坂東急ビル２Ｆ－Ｃ,,13,113,1500043,,,,,,,2024-03-25,1,,,,,ワクミ,0
1081,5011001160793,新規,0,2024-03-25,2024-03-25,株式会社ＳＥＫ,,株式会社,東京都,渋谷区,神宮前２丁目３番１４号サンフェル神宮前１０４,,13,113,1500001,,,,,,,2024-03-25,1,,,,,エスイーケー,0
1082,5011001160819,新規,0,2024-03-25,2024-03-25,株式会社Ａ＆Ａ,,株式会社,東京都,渋谷区,大山町４６番１１号大山町アングル３０３,,13,113,1510065,,,,,,,2024-03-25,1,,,,,エイアンドエイ,0
1083,5011001160827,新規,0,2024-03-25,2024-03-25,株式会社今野真一自転車設計事務所,,株式会社,東京都,渋谷区,渋谷１丁目３番１８号,,13,113,1500002,,,,,,,2024-03-25,1,,,,,コンノシンイチジテンシャセッケイジムショ,0
1084,5011003018726,新規,0,2024-03-25,2024-03-25,合同会社ＰｉｃｔｏＭｏｖｉｅピクモン,,合同会社,東京都,渋谷区,代官山町１４番１４－２０３号,,13,113,1500034,,,,,,,2024-03-25,1,,,,,ピクトムービーピクモン,0
1085,5011003018767,新規,0,2024-03-25,2024-03-25,合同会社ＡｒｋＯｎｅ,,合同会社,東京都,渋谷区,道玄坂１丁目１０番８号渋谷道玄坂東急ビル２階Ｃ号室,,13,113,1500043,,,,,,,2024-03-25,1,,,,,アークワン,0
1090,5011101106647,新規,0,2024-03-25,2024-03-25,Ｂｉｏ　ＵｎｉＳｏｌｕｔｉｏｎｓ株式会社,,株式会社,東京都,新宿区,住吉町１５番１２号３０１,,13,104,1620065,,,,,,,2024-03-25,1,,,,,バイオユニソリューションズ,0
1092,5011103014245,新規,0,2024-03-25,2024-03-25,合同会社Ｆｒｅｅ　Ｓｔｙｌｅｒ,,合同会社,東京都,新宿区,西新宿３丁目３番１３号西新宿水間ビル６階,,13,104,1600023,,,,,,,2024-03-25,1,,,,,フリースタイラー,0
1093,5011103014253,新規,0,2024-03-25,2024-03-25,レトロワアザレ合同会社,,合同会社,東京都,新宿区,弁天町２３－９－２０６号室,,13,104,1620851,,,,,,,2024-03-25,1,,,,,レトロワアザレ,0
1095,5011303005102,新規,0,2024-03-25,2024-03-25,合同会社ミラリウム,,合同会社,東京都,杉並区,高円寺南４丁目７番３サンシャイン高円寺８０３号,,13,115,1660003,,,,,,,2024-03-25,1,,,,,ミラリウム,0
1098,5011501030463,新規,0,2024-03-25,2024-03-25,株式会社カンポ・グランデ,,株式会社,東京都,北区,赤羽１丁目５９番地９号ネスト赤羽,,13,117,1150045,,,,,,,2024-03-25,1,,,,,,0
1102,5011701027136,新規,0,2024-03-25,2024-03-25,株式会社ＭＩＮＨＴＨＡＩ　ＴＲＡＤＥ,,株式会社,東京都,江戸川区,中央４丁目１１－９中央ビル１０１,,13,123,1320021,,,,,,,2024-03-25,1,,,,,ミンタイトレード,0
1104,5011801043966,新規,0,2024-03-25,2024-03-25,株式会社Ａｐｒｅｎｅｕｒ,,株式会社,東京都,足立区,千住１丁目２６番１３号,,13,121,1200034,,,,,,,2024-03-25,1,,,,,エイプレナー,0
1106,5012401041666,新規,0,2024-03-25,2024-03-25,株式会社ＫＭ　Ｗｏｒｋｓ．,,株式会社,東京都,府中市,浅間町４丁目２４番地の５８,,13,206,1830001,,,,,,,2024-03-25,1,,,,,ケーエムワークス,0
1112,5020001156289,新規,0,2024-03-25,2024-03-25,株式会社ピークリアルエステート,,株式会社,神奈川県,横浜市港北区,綱島東４丁目１２－１,,14,109,2230052,,,,,,,2024-03-25,1,,,,,ピークリアルエステート,0
1113,5020001156371,新規,0,2024-03-25,2024-03-25,株式会社ゆめい,,株式会社,神奈川県,川崎市川崎区,日進町２１－７小林邸,,14,131,2100024,,,,,,,2024-03-25,1,,,,,ユメイ,0
1114,5020001156388,新規,0,2024-03-25,2024-03-25,株式会社フォーセンス,,株式会社,神奈川県,横浜市西区,東久保町２７番２０－５０１号,,14,103,2200062,,,,,,,2024-03-25,1,,,,,フォーセンス,0
1118,5020003025789,新規,0,2024-03-25,2024-03-25,合同会社ＡＫＳＫ,,合同会社,神奈川県,川崎市麻生区,高石２丁目２９番５号パール百合ヶ丘Ｂ－２０５,,14,137,2150003,,,,,,,2024-03-25,1,,,,,エーケーエスケー,0
1119,5020005016316,新規,0,2024-03-25,2024-03-25,一般社団法人しゃべらないママコーチング協会,,その他の設立登記法人,神奈川県,川崎市麻生区,高石２丁目５１番１５号,,14,137,2150003,,,,,,,2024-03-25,1,,,,,シャベラナイママコーチングキョウカイ,0
1120,5021001081774,新規,0,2024-03-25,2024-03-25,株式会社エム・スタイルズ,,株式会社,神奈川県,中郡大磯町,東町１丁目６番２１号,,14,341,2550002,,,,,,,2024-03-25,1,,,,,エムスタイルズ,0
1121,5021001081799,新規,0,2024-03-25,2024-03-25,株式会社Ｊａｃｋ＆Ｃｈｕｃｋ,,株式会社,神奈川県,平塚市,公所３９９番地の１３,,14,203,2540906,,,,,,,2024-03-25,1,,,,,ジャックアンドチャック,0
1123,5021003014303,新規,0,2024-03-25,2024-03-25,合同会社Ｄａｔａｆｏｒｃｅ,,合同会社,神奈川県,座間市,入谷西３丁目１２番４１号,,14,216,2520029,,,,,,,2024-03-25,1,,,,,データフォース,0
1124,5021003014311,新規,0,2024-03-25,2024-03-25,田中資産管理合同会社,,合同会社,神奈川県,鎌倉市,今泉台７丁目２１番３号,,14,204,2470053,,,,,,,2024-03-25,1,,,,,タナカシサンカンリ,0
1126,5030001158953,新規,0,2024-03-25,2024-03-25,株式会社山田建設,,株式会社,埼玉県,越谷市,大字長島１２５番地,,11,222,3430853,,,,,,,2024-03-25,1,,,,,ヤマダケンセツ,0
1127,5030001159308,新規,0,2024-03-25,2024-03-25,株式会社ＫＯＡホールディングス,,株式会社,埼玉県,さいたま市見沼区,大字南中野３０１２番地６,,11,104,3370042,,,,,,,2024-03-25,1,,,,,コアホールディングス,0
1128,5030001159407,新規,0,2024-03-25,2024-03-25,株式会社東日本住宅サービス,,株式会社,埼玉県,越谷市,蒲生茜町１２－７,,11,222,3430843,,,,,,,2024-03-25,1,,,,,ヒガシニホンジュウタクサービス,0
1129,5030001159415,新規,0,2024-03-25,2024-03-25,加盈株式会社,,株式会社,埼玉県,川口市,上青木４丁目１５－２３アミューズメント２１上青木Ａ棟１０２,,11,203,3330844,,,,,,,2024-03-25,1,,,,,カエイ,0
1136,5040001132775,新規,0,2024-03-25,2024-03-25,株式会社ＨＡＰＰＹ　ＨＡＰＰＹ,,株式会社,千葉県,習志野市,鷺沼２丁目１０番６号,,12,216,2750014,,,,,,,2024-03-25,1,,,,,ハッピーハッピー,0
1137,5040001132825,新規,0,2024-03-25,2024-03-25,プラウド株式会社,,株式会社,千葉県,柏市,南柏１丁目２番５号３０２,,12,217,2770855,,,,,,,2024-03-25,1,,,,,プラウド,0
1138,5040001132833,新規,0,2024-03-25,2024-03-25,株式会社アントボックス,,株式会社,千葉県,千葉市稲毛区,稲毛東５丁目９番２５号ルネ稲毛東パーク・ザ・レジデンス５０４号,,12,103,2630031,,,,,,,2024-03-25,1,,,,,アントボックス,0
1139,5040003024582,新規,0,2024-03-25,2024-03-25,合同会社ＤＩＡＭＯＮＤ　ＭＥＤＩＣＡＬ,,合同会社,千葉県,船橋市,西船２丁目１９番１－５１０号,,12,204,2730031,,,,,,,2024-03-25,1,,,,,ダイアモンドメディカル,0
1140,5040005022320,新規,0,2024-03-25,2024-03-25,医療法人社団日誠会,,その他の設立登記法人,千葉県,印西市,中央北１丁目１番地ＡＰＯＬＬＯ・ＰＬＡＮＴ・ＭＡＬＬ２Ｆ,,12,231,2701350,,,,,,,2024-03-25,1,,,,,ニッセイカイ,0
1142,5050001054507,新規,0,2024-03-25,2024-03-25,株式会社ふあいと,,株式会社,茨城県,取手市,本郷１丁目３０番４号,,08,217,3020022,,,,,,,2024-03-25,1,,,,,フアイト,0
1151,5080003003161,新規,0,2024-03-25,2024-03-25,茶懐石温石合同会社,,合同会社,静岡県,焼津市,本町６丁目１４番１２号,,22,212,4250022,,,,,,,2024-03-25,1,,,,,チャカイセキオンジャク,0
1164,5120001263257,新規,0,2024-03-25,2024-03-25,Ｈｅａｒｔｆｕｌ　Ｐｒｅｓｅｎｃｅ株式会社,,株式会社,大阪府,大阪市西区,北堀江２丁目２番２４号ＰａｒｋＬａｎｅＨｏｒｉｅＢｌｄ８２４号,,27,106,5500014,,,,,,,2024-03-25,1,,,,,ハートフルプレゼンス,0
1165,5120001263281,新規,0,2024-03-25,2024-03-25,ＮＭ建設株式会社,,株式会社,大阪府,大阪市鶴見区,中茶屋１丁目１番３２号,,27,124,5380033,,,,,,,2024-03-25,1,,,,,エヌエムケンセツ,0
1166,5120001263323,新規,0,2024-03-25,2024-03-25,Ｇｉｍｍｅ株式会社,,株式会社,大阪府,大阪市港区,弁天２丁目３番９号,,27,107,5520007,,,,,,,2024-03-25,1,,,,,ギミー,0
1167,5120001263389,新規,0,2024-03-25,2024-03-25,ＩＴ株式会社,,株式会社,大阪府,大阪市北区,梅田１丁目１１番４号大阪駅前第４ビル１９０３号,,27,127,5300001,,,,,,,2024-03-25,1,,,,,アイティー,0
1168,5120001263397,新規,0,2024-03-25,2024-03-25,株式会社Ａｉｌｅエージェント,,株式会社,大阪府,大阪市福島区,福島５丁目６番１６号ラグザ大阪２階２２９号室,,27,103,5530003,,,,,,,2024-03-25,1,,,,,エールエージェント,0
1172,5120003026174,新規,0,2024-03-25,2024-03-25,ビズプラス合同会社,,合同会社,大阪府,大阪市西区,西本町１丁目７番２１号,,27,106,5500005,,,,,,,2024-03-25,1,,,,,ビズプラス,0
1173,5120003026182,新規,0,2024-03-25,2024-03-25,合同会社ＡＩＭ　ＳＵＰＰＯＲＴ,,合同会社,大阪府,大阪市浪速区,難波中１丁目１０番４号加納合同事務所内,,27,111,5560011,,,,,,,2024-03-25,1,,,,,エイムサポート,0
1174,5120003026240,新規,0,2024-03-25,2024-03-25,合同会社オープンジャム,,合同会社,大阪府,大阪市東住吉区,中野１丁目１１番９号サンソアレ駒川中野１０２号,,27,121,5460012,,,,,,,2024-03-25,1,,,,,オープンジャム,0
1176,5120903005095,新規,0,2024-03-25,2024-03-25,新成ＧＬ合同会社,,合同会社,大阪府,摂津市,鳥飼中３丁目４－４１,,27,224,5660064,,,,,,,2024-03-25,1,,,,,シンセイジーエル,0
1179,5130001076625,新規,0,2024-03-25,2024-03-25,小井塚清掃株式会社,00134177,株式会社,京都府,京丹後市,丹後町間人４６９３番地の２,,26,212,6270201,,,,,,,2024-03-25,1,,,,,コイヅカセイソウ,0
1190,5140001133714,新規,0,2024-03-25,2024-03-25,株式会社ＡＲＮＡＮＤＡＲ,,株式会社,兵庫県,尼崎市,長洲西通１丁目７番１９号,,28,202,6600807,,,,,,,2024-03-25,1,,,,,アーナンダー,0
1191,5140001133771,新規,0,2024-03-25,2024-03-25,ヒーローズ３１６株式会社,,株式会社,兵庫県,尼崎市,上ノ島町２丁目３４番２３号,,28,202,6610014,,,,,,,2024-03-25,1,,,,,ヒーローズサンイチロク,0
1192,5140001133838,新規,0,2024-03-25,2024-03-25,株式会社古美術瀧川,,株式会社,兵庫県,西宮市,甲陽園目神山町１５番８８号,,28,204,6620011,,,,,,,2024-03-25,1,,,,,コビジュツタキガワ,0
1195,5140003020299,新規,0,2024-03-25,2024-03-25,ｍａｉｓｏｎ　Ｋ　ｅｔ　Ｍ合同会社,,合同会社,兵庫県,神戸市東灘区,青木５丁目１１番１２号,,28,101,6580027,,,,,,,2024-03-25,1,,,,,メゾンカエエム,0
1198,5150001027163,新規,0,2024-03-25,2024-03-25,株式会社ｍｕｓｕｂｉ,,株式会社,奈良県,宇陀市,大宇陀和田９９番地,,29,212,6332131,,,,,,,2024-03-25,1,,,,,ムスビ,0
1205,5180001160597,新規,0,2024-03-25,2024-03-25,株式会社ケイワークス,,株式会社,愛知県,名古屋市熱田区,大宝４丁目１７番２２号,,23,109,4560062,,,,,,,2024-03-25,1,,,,,ケイワークス,0
1206,5180001160663,新規,0,2024-03-25,2024-03-25,株式会社ＳＨＩＮＫ,,株式会社,愛知県,清須市,春日東出９２番２－２,,23,233,4520961,,,,,,,2024-03-25,1,,,,,シンク,0
1207,5180001160705,新規,0,2024-03-25,2024-03-25,株式会社イナンコーポレーション,,株式会社,愛知県,長久手市,東山１５９４番地１５５,,23,238,4801318,,,,,,,2024-03-25,1,,,,,イナンコーポレーション,0
1208,5180001160738,新規,0,2024-03-25,2024-03-25,株式会社ＥＳカンパニー,,株式会社,愛知県,春日井市,小野町６丁目５番地９,,23,206,4860926,,,,,,,2024-03-25,1,,,,,イーエスカンパニー,0
1209,5180003026516,新規,0,2024-03-25,2024-03-25,Ｙ’ｓ　Ｆｉｔ合同会社,,合同会社,愛知県,名古屋市西区,上名古屋４丁目１１番２１号メゾンＮ＆Ｔ４Ｂ,,23,104,4510025,,,,,,,2024-03-25,1,,,,,ワイズフィット,0
1210,5180003026524,新規,0,2024-03-25,2024-03-25,合同会社Ｈ＆Ｓ咲,,合同会社,愛知県,江南市,五明町天王１６８番地２０１号,,23,217,4838248,,,,,,,2024-03-25,1,,,,,エイチアンドエスサキ,0
1211,5180003026540,新規,0,2024-03-25,2024-03-25,合同会社Ｈｏｎｅｓｔｙ,,合同会社,愛知県,東海市,富木島町西山田１番地の１（Ｄ棟１０４号）,,23,222,4760011,,,,,,,2024-03-25,1,,,,,オネスティ,0
1216,5180301038460,新規,0,2024-03-25,2024-03-25,ＪＣＷ株式会社,,株式会社,愛知県,刈谷市,今岡町東畑１番地ブルーベル３０５号,,23,210,4480008,,,,,,,2024-03-25,1,,,,,ジェイシーダブリュー,0
1223,5180305009557,新規,0,2024-03-25,2024-03-25,医療法人やしのみ,,その他の設立登記法人,愛知県,田原市,神戸町新大坪１３５番地,,23,231,4413415,,,,,,,2024-03-25,1,,,,,ヤシノミ,0
1224,5190001031211,新規,0,2024-03-25,2024-03-25,株式会社エムパワー,,株式会社,三重県,四日市市,智積町５９４２番地,,24,202,5121212,,,,,,,2024-03-25,1,,,,,エムパワー,0
1229,5200001042314,新規,0,2024-03-25,2024-03-25,株式会社ＳＡＴＯＲＩ,,株式会社,岐阜県,岐阜市,下鵜飼１７６０番地７,,21,201,5011172,,,,,,,2024-03-25,1,,,,,サトリ,0
1232,5200003006275,新規,0,2024-03-25,2024-03-25,ＷＡＬＬＩ　ＩＮＴＥＲＮＡＴＩＯＮＡＬ合同会社,,合同会社,岐阜県,美濃加茂市,加茂野町今泉１５４７－２４・２０６室,,21,211,5050052,,,,,,,2024-03-25,1,,,,,ワリインターナショナル,0
1234,5220001025886,新規,0,2024-03-25,2024-03-25,株式会社ＨＩＬＡＮＤ,,株式会社,石川県,金沢市,示野町西１０番地サンドリームＩＩ・１０２号,00134173,17,201,9200059,,,,,,,2024-03-25,1,,,,,ハイランド,0
1235,5220003003700,新規,0,2024-03-25,2024-03-25,合同会社リバイＣクロス,,合同会社,石川県,加賀市,動橋町イ１０９番地１,,17,206,9220331,,,,,,,2024-03-25,1,,,,,リバイシークロス,0
1236,5230001020250,新規,0,2024-03-25,2024-03-25,株式会社龍雲,,株式会社,富山県,高岡市,野村１２２５番地,,16,202,9330014,,,,,,,2024-03-25,1,,,,,リュウウン,0
1237,5230001020259,新規,0,2024-03-25,2024-03-25,山本塗装株式会社,,株式会社,富山県,南砺市,才川七１７２６番地１,,16,210,9391681,,,,,,,2024-03-25,1,,,,,ヤマモトトソウ,0
1238,5240001062985,新規,0,2024-03-25,2024-03-25,株式会社千翔,,株式会社,広島県,山県郡北広島町,本地１０７０１番地４,,34,369,7311526,,,,,,,2024-03-25,1,,,,,センショウ,0
1239,5240001062993,新規,0,2024-03-25,2024-03-25,株式会社竜正興業,,株式会社,広島県,広島市南区,東雲２丁目２番３８－９０２号,,34,103,7340022,,,,,,,2024-03-25,1,,,,,リュウショウコウギョウ,0
1244,5260001038884,新規,0,2024-03-25,2024-03-25,株式会社Ｃｏｃｃｏｌｅ,,株式会社,岡山県,岡山市中区,海吉２０７９番地２３,,33,102,7038261,,,,,,,2024-03-25,1,,,,,コッコレ,0
1249,5290001105013,新規,0,2024-03-25,2024-03-25,株式会社ＷＯＲ　ＣＡＲＳ,,株式会社,福岡県,福岡市東区,香椎照葉６丁目２番５１－３０３号,,40,131,8130017,,,,,,,2024-03-25,1,,,,,ワーカーズ,0
1250,5290001105120,新規,0,2024-03-25,2024-03-25,Ｂｒｏｔｈｅｒ’ｓ　Ｔｒａｄｅ株式会社,,株式会社,福岡県,福岡市東区,香椎駅東３丁目１４番１５－４０８号,,40,131,8130012,,,,,,,2024-03-25,1,,,,,ブラザーズトレード,0
1251,5290001105129,新規,0,2024-03-25,2024-03-25,株式会社ＶＥＲＴＥＸ,,株式会社,福岡県,久留米市,梅満町４４－１,,40,203,8300048,,,,,,,2024-03-25,1,,,,,バーテックス,0
1252,5290001105194,新規,0,2024-03-25,2024-03-25,Ｈｏｍｉｅｓ　Ｊｏｋｓｏｎ　Ｈａｌａｌ＆Ｂｉｌｌｉａｒｄｓ株式会社,,株式会社,福岡県,福岡市東区,馬出２丁目２－１４,,40,131,8120054,,,,,,,2024-03-25,1,,,,,ホーミーズジョクソンハラールアンドビリヤーズ,0
1253,5290001105211,新規,0,2024-03-25,2024-03-25,株式会社協栄電設,,株式会社,福岡県,福岡市博多区,元町１丁目３番１８号,,40,132,8120877,,,,,,,2024-03-25,1,,,,,キョウエイデンセツ,0
1262,5320001020373,新規,0,2024-03-25,2024-03-25,株式会社ｍａｄｏｉ．,,株式会社,大分県,大分市,萩原１丁目４番２９号,,44,201,8700921,,,,,,,2024-03-25,1,,,,,マドイ,0
1263,5330005010774,新規,0,2024-03-25,2024-03-25,一般社団法人つながる,,その他の設立登記法人,熊本県,宇城市,豊野町中間４３番地,,43,213,8614302,,,,,,,2024-03-25,1,,,,,ツナガル,0
1265,5340001026377,新規,0,2024-03-25,2024-03-25,おおすみパワード株式会社,,株式会社,鹿児島県,肝属郡肝付町,前田３５４３番地３,,46,492,8931206,,,,,,,2024-03-25,1,,,,,オオスミパワード,0
1270,5380005012808,新規,0,2024-03-25,2024-03-25,特定非営利活動法人ひととその,,その他の設立登記法人,福島県,いわき市,小川町上小川字下广門８番地６,,07,204,9793124,,,,,,,2024-03-25,1,,,,,ヒトトソノ,0
1272,5400003003228,新規,0,2024-03-25,2024-03-25,合同会社ＱＵＲＯＧＯ　ＷＯＲＫＳ,,合同会社,岩手県,盛岡市,大通３丁目６番１２号開運橋センタービル,,03,201,0200022,,,,,,,2024-03-25,1,,,,,クロゴワークス,0
1275,5430001091387,新規,0,2024-03-25,2024-03-25,株式会社グッドキャリア,,株式会社,北海道,札幌市西区,山の手四条２丁目１番３８－１０３号,,01,107,0630004,,,,,,,2024-03-25,1,,,,,グッドキャリア,0
1276,5430005014939,新規,0,2024-03-25,2024-03-25,江別農産物直売所協同組合,,その他の設立登記法人,北海道,江別市,大川通７０－２,,01,217,0670000,,,,,,,2024-03-25,1,,,,,エベツノウサンブツチョクバイジョ,0
1297,6010001243236,新規,0,2024-03-25,2024-03-25,ライズ・ソリューション株式会社,,株式会社,東京都,中央区,日本橋堀留町１丁目８番１１号,,13,102,1030012,,,,,,,2024-03-25,1,,,,,ライズソリューション,0
1298,6010001243260,新規,0,2024-03-25,2024-03-25,株式会社銀座ｓｈｉｎｏ,,株式会社,東京都,中央区,銀座１丁目１０番１９号,,13,102,1040061,,,,,,,2024-03-25,1,,,,,ギンザシノ,0
1299,6010001243327,新規,0,2024-03-25,2024-03-25,株式会社ＨＥＲＯ,,株式会社,東京都,中央区,勝どき５丁目３－１－２２１０,,13,102,1040054,,,,,,,2024-03-25,1,,,,,ヒーロー,0
1300,6010001243343,新規,0,2024-03-25,2024-03-25,株式会社アクセルロッド,,株式会社,東京都,文京区,春日２丁目１５番９号,,13,105,1120003,,,,,,,2024-03-25,1,,,,,アクセルロッド,0
1301,6010001243392,新規,0,2024-03-25,2024-03-25,株式会社金太郎エンタープライズ,,株式会社,東京都,千代田区,神田富山町１番地２,,13,101,1010043,,,,,,,2024-03-25,1,,,,,キンタロウエンタープライズ,0
1302,6010001243401,新規,0,2024-03-25,2024-03-25,株式会社フィット,,株式会社,東京都,中央区,銀座１丁目１２番４号Ｎ＆ＥＢＬＤ．６Ｆ,,13,102,1040061,,,,,,,2024-03-25,1,,,,,,0
1305,6010401181242,新規,0,2024-03-25,2024-03-25,ＱＵＯＳ株式会社,,株式会社,東京都,港区,南青山１丁目１５番３３号,,13,103,1070062,,,,,,,2024-03-25,1,,,,,クオス,0
1306,6010401181250,新規,0,2024-03-25,2024-03-25,株式会社ストリームＢＩＭジャパン,,株式会社,東京都,港区,虎ノ門４丁目１－１神谷町トラストタワー２３Ｆ,,13,103,1050001,,,,,,,2024-03-25,1,,,,,ストリームビーアイエムジャパン,0
1308,6010403032195,新規,0,2024-03-25,2024-03-25,合同会社私立ニャンズケア学園,,合同会社,東京都,港区,浜松町２丁目２番１５号,,13,103,1050013,,,,,,,2024-03-25,1,,,,,シリツニャンズケアガクエン,0
1309,6010403032220,新規,0,2024-03-25,2024-03-25,ｎｉｍｂｕｓ合同会社,,合同会社,東京都,港区,赤坂４丁目９番２５号新東洋赤坂ビルＢ１,,13,103,1070052,,,,,,,2024-03-25,1,,,,,ニムバス,0
1310,6010403032237,新規,0,2024-03-25,2024-03-25,イデアルラボ合同会社,,合同会社,東京都,港区,南青山２丁目２－１５ＷｉｎＡｏｙａｍａビルＵＣＦ６３５,,13,103,1070062,,,,,,,2024-03-25,1,,,,,イデアルラボ,0
1311,6010403032245,新規,0,2024-03-25,2024-03-25,合同会社オリーブキャピタルツー,,合同会社,東京都,港区,六本木６丁目１０番１号六本木ヒルズ森タワー,,13,103,1060032,,,,,,,2024-03-25,1,,,,,オリーブキャピタルツー,0
1313,6010601064833,新規,0,2024-03-25,2024-03-25,株式会社ＢＥＥＲ　ＬＩＦＥ　ＤＥＳＩＧＮ,,株式会社,東京都,江東区,富岡２丁目６－１第五芙蓉ハイツ６０５,,13,108,1350047,,,,,,,2024-03-25,1,,,,,ビアライフデザイン,0
1314,6010601064882,新規,0,2024-03-25,2024-03-25,株式会社Ｅｓｏｌａｇ,,株式会社,東京都,墨田区,業平５丁目１番１１－１０１,,13,107,1300002,,,,,,,2024-03-25,1,,,,,エソラグ,0
1324,6010803004892,新規,0,2024-03-25,2024-03-25,ａｒｍｙ合同会社,,合同会社,東京都,大田区,大森北５丁目１６番１－２１０号,,13,111,1430016,,,,,,,2024-03-25,1,,,,,アーミー,0
1328,6010901054947,新規,0,2024-03-25,2024-03-25,株式会社ブリング・Ｔ,,株式会社,東京都,世田谷区,等々力４丁目１６番１１号,,13,112,1580082,,,,,,,2024-03-25,1,,,,,ブリングティー,0
1334,6011001160818,新規,0,2024-03-25,2024-03-25,株式会社あゆみ,,株式会社,東京都,渋谷区,渋谷１丁目１７番６－４０３号,,13,113,1500002,,,,,,,2024-03-25,1,,,,,アユミ,0
1335,6011001160859,新規,0,2024-03-25,2024-03-25,株式会社ＫＩＯ,,株式会社,東京都,渋谷区,渋谷２丁目１９番１５号宮益坂ビルディング６０９,,13,113,1500002,,,,,,,2024-03-25,1,,,,,キオ,0
1336,6011001160867,新規,0,2024-03-25,2024-03-25,株式会社雲水アンドカンパニー,,株式会社,東京都,渋谷区,渋谷２丁目１９－１５宮益坂ビルディング６０９,,13,113,1500002,,,,,,,2024-03-25,1,,,,,ウンスイアンドカンパニイ,0
1337,6011001160891,新規,0,2024-03-25,2024-03-25,株式会社ＳＧ＆ＳＯＮＳ,,株式会社,東京都,渋谷区,神南１丁目９番４号,,13,113,1500041,,,,,,,2024-03-25,1,,,,,エスジーアンドサンズ,0
1339,6011003018758,新規,0,2024-03-25,2024-03-25,合同会社Ｌｉｇｈｔ　Ｏｎｅ,,合同会社,東京都,目黒区,自由が丘２丁目１６番１２号ＲＪ３,,13,110,1520035,,,,,,,2024-03-25,1,,,,,,0
1341,6011101106662,新規,0,2024-03-25,2024-03-25,華陽株式会社,,株式会社,東京都,新宿区,富久町８番２６号,,13,104,1620067,,,,,,,2024-03-25,1,,,,,カヨウ,0
1342,6011101106679,新規,0,2024-03-25,2024-03-25,株式会社翔耀,,株式会社,東京都,新宿区,百人町１丁目２３番２６号みなみビル１Ｆ－Ａ号室,,13,104,1690073,,,,,,,2024-03-25,1,,,,,ショウヨウ,0
1343,6011101106687,新規,0,2024-03-25,2024-03-25,株式会社ＬＯＦ,,株式会社,東京都,新宿区,歌舞伎町１丁目１６番２号富士ビルディングＢＦ１．ＢＦ２,,13,104,1600021,,,,,,,2024-03-25,1,,,,,エルオーエフ,0
1347,6011303005101,新規,0,2024-03-25,2024-03-25,合同会社Ｔｅｒｒａｃｅ,,合同会社,東京都,杉並区,下高井戸１丁目２６番４号,,13,115,1680073,,,,,,,2024-03-25,1,,,,,テラス,0
1348,6011401025950,新規,0,2024-03-25,2024-03-25,株式会社森和解体工業,,株式会社,東京都,板橋区,高島平１丁目８１番１３－６０２号,,13,119,1750082,,,,,,,2024-03-25,1,,,,,シンワカイタイコウギョウ,0
1351,6011503005999,新規,0,2024-03-25,2024-03-25,合同会社男爵,,合同会社,東京都,北区,上十条２丁目３０番１２号,,13,117,1140034,,,,,,,2024-03-25,1,,,,,ダンシャク,0
1356,6011701027135,新規,0,2024-03-25,2024-03-25,芳華株式会社,,株式会社,東京都,江戸川区,西小岩３丁目２４－１５,,13,123,1330057,,,,,,,2024-03-25,1,,,,,ホウカ,0
1360,6012403006476,新規,0,2024-03-25,2024-03-25,合同会社Ｔｏｗｎ　Ｃｌｕｂ　Ｆａｃｔｏｒｙ,,合同会社,東京都,調布市,多摩川６丁目３７番地３５,,13,208,1820025,,,,,,,2024-03-25,1,,,,,タウンクラブファクトリー,0
1363,6013303007060,新規,0,2024-03-25,2024-03-25,合同会社松崎オフィス,00134183,合同会社,東京都,豊島区,西池袋２丁目１１番８号パークホームズ目白ザテラス３０３号,,13,116,1710021,,,,,,,2024-03-25,1,,,,,マツザキオフィス,0
1369,6020001156395,新規,0,2024-03-25,2024-03-25,株式会社加藤商事,,株式会社,神奈川県,横浜市港北区,日吉本町２丁目２７番２３号,,14,109,2230062,,,,,,,2024-03-25,1,,,,,カトウショウジ,0
1370,6020001156412,新規,0,2024-03-25,2024-03-25,株式会社Ｊｕｍｐｏｏｌ,,株式会社,神奈川県,川崎市川崎区,南町一丁目８,,14,131,2100015,,,,,,,2024-03-25,1,,,,,ジャンプール,0
1371,6020003025747,新規,0,2024-03-25,2024-03-25,合同会社ＩＮＶＡＰＬ,,合同会社,神奈川県,横浜市西区,みなとみらい４丁目４番２号横浜ブルーアベニュー１２階,,14,103,2200012,,,,,,,2024-03-25,1,,,,,インバプル,0
1377,6021001081798,新規,0,2024-03-25,2024-03-25,シャイニー株式会社,,株式会社,神奈川県,三浦市,南下浦町上宮田３３７４番地５,,14,210,2380101,,,,,,,2024-03-25,1,,,,,シャイニー,0
1379,6021003014293,新規,0,2024-03-25,2024-03-25,合同会社寳結,,合同会社,神奈川県,鎌倉市,津西１丁目１６－３５,,14,204,2480034,,,,,,,2024-03-25,1,,,,,ホウユウ,0
1380,6021003014302,新規,0,2024-03-25,2024-03-25,合同会社ほっとちゃいるど,,合同会社,神奈川県,相模原市中央区,相模原２丁目１１－２７,,14,152,2520231,,,,,,,2024-03-25,1,,,,,ホットチャイルド,0
1383,6030001159281,新規,0,2024-03-25,2024-03-25,株式会社八七工房,,株式会社,埼玉県,越谷市,大字大道１２９番地１プリティメゾン３０１,,11,222,3430035,,,,,,,2024-03-25,1,,,,,ハナコウボウ,0
1384,6030001159298,新規,0,2024-03-25,2024-03-25,株式会社Ｍａｒｓ,,株式会社,埼玉県,川口市,桜町１丁目１４番１１号オカダメゾン２０２号,,11,203,3340001,,,,,,,2024-03-25,1,,,,,マーズ,0
1385,6030001159389,新規,0,2024-03-25,2024-03-25,ＲＮＨ株式会社,,株式会社,埼玉県,三郷市,戸ケ崎２丁目１８９番地２エミリーパレスＩＩＩ１０１号室,00134172,11,237,3410044,,,,,,,2024-03-25,1,,,,,アールエヌエイチ,0
1389,6030003023799,新規,0,2024-03-25,2024-03-25,ネフェリバタ合同会社,,合同会社,埼玉県,蕨市,南町３丁目２０番１３号ジェムわらび南館３０６号,,11,223,3350003,,,,,,,2024-03-25,1,,,,,ネフェリバタ,0
1403,6040001132725,新規,0,2024-03-25,2024-03-25,株式会社Ｎｅｘｔ　ｉｎｎｏｖａｔｉｏｎ,,株式会社,千葉県,千葉市花見川区,浪花町９０７番地１２１,,12,102,2620024,,,,,,,2024-03-25,1,,,,,ネクストイノベーション,0
1404,6040001132774,新規,0,2024-03-25,2024-03-25,株式会社ＡＧＥＭＡＮ　ＪＡＰＡＮ,,株式会社,千葉県,野田市,東宝珠花１１１－３,,12,208,2700226,,,,,,,2024-03-25,1,,,,,アゲマンジャパン,0
1405,6040001132808,新規,0,2024-03-25,2024-03-25,株式会社ＳｕｎＥｉｇｈｔ,,株式会社,千葉県,銚子市,愛宕町３０８３番地の１,,12,202,2880007,,,,,,,2024-03-25,1,,,,,サンエイト,0
1406,6040001132816,新規,0,2024-03-25,2024-03-25,株式会社リフト,,株式会社,千葉県,佐倉市,中志津４丁目１５番地２０,,12,212,2850843,,,,,,,2024-03-25,1,,,,,リフト,0
1407,6040001132824,新規,0,2024-03-25,2024-03-25,株式会社ＳＹ工建,,株式会社,千葉県,白井市,冨士２５３番地３０,,12,232,2701432,,,,,,,2024-03-25,1,,,,,エスワイコウケン,0
1414,6040003024540,新規,0,2024-03-25,2024-03-25,サロンｋｙｏｋｏ合同会社,,合同会社,千葉県,八千代市,高津４２８番地３,,12,221,2760036,,,,,,,2024-03-25,1,,,,,サロンキョーコ,0
1415,6040005022328,新規,0,2024-03-25,2024-03-25,一般社団法人ビジュアライズ,,その他の設立登記法人,千葉県,白井市,桜台４丁目５－１１,,12,232,2701412,,,,,,,2024-03-25,1,,,,,ビジュアライズ,0
1418,6060001036949,新規,0,2024-03-25,2024-03-25,スマリベ株式会社,,株式会社,栃木県,那須塩原市,東原４番地６９５,,09,213,3250034,,,,,,,2024-03-25,1,,,,,スマリベ,0
1419,6060003004986,新規,0,2024-03-25,2024-03-25,ｉＺａｄｅＭ　Ａｕｔｏ合同会社,,合同会社,栃木県,足利市,鹿島町４４１番地みやま荘１１２,,09,202,3260844,,,,,,,2024-03-25,1,,,,,イザデムオート,0
1425,6070005010239,新規,0,2024-03-25,2024-03-25,一般社団法人トラックミーティング,,その他の設立登記法人,群馬県,安中市,下後閑１３７５番地,,10,211,3790106,,,,,,,2024-03-25,1,,,,,,0
1428,6080105006409,新規,0,2024-03-25,2024-03-25,一般社団法人フリーランスサポート機構,,その他の設立登記法人,静岡県,富士市,川成島３０６番地の７,,22,210,4160939,,,,,,,2024-03-25,1,,,,,フリーランスサポートキコウ,0
1430,6100003007456,新規,0,2024-03-25,2024-03-25,合同会社ＣｏＣｏＰｉｔ,,合同会社,長野県,塩尻市,大門八番町１－２８松本広域圏イノベーションプラザ、スナバ１階,,20,215,3990737,,,,,,,2024-03-25,1,,,,,ココピット,0
1433,6100005013147,新規,0,2024-03-25,2024-03-25,医療法人蒼,,その他の設立登記法人,長野県,千曲市,大字内川７８５番地１,,20,218,3890802,,,,,,,2024-03-25,1,,,,,ソウ,0
1446,6120001263264,新規,0,2024-03-25,2024-03-25,株式会社ＧＯＬＤ　ＳＴＲＥＮＧＴＨ,,株式会社,大阪府,大阪市北区,茶屋町６番１８号,,27,127,5300013,,,,,,,2024-03-25,1,,,,,ゴールドストレングス,0
1447,6120001263297,新規,0,2024-03-25,2024-03-25,株式会社ＩＲＩＥ　ＨＯＵＳＥ,,株式会社,大阪府,大阪市淀川区,西中島７丁目１２番５号７Ｆ６,,27,123,5320011,,,,,,,2024-03-25,1,,,,,アイリーハウス,0
1448,6120001263405,新規,0,2024-03-25,2024-03-25,株式会社ｆｕｎｓ　ｂｒｅｗｉｎｇ,,株式会社,大阪府,大阪市中央区,島町１丁目４－３,,27,128,5400034,,,,,,,2024-03-25,1,,,,,ファンズブルーイング,0
1449,6120001263413,新規,0,2024-03-25,2024-03-25,株式会社バウンドアップ・ウェルフェアテクノロジー,,株式会社,大阪府,大阪市中央区,平野町２丁目２番１２号生駒ビルヂング２階Ａ室,,27,128,5410046,,,,,,,2024-03-25,1,,,,,バウンドアップウェルフェアテクノロジー,0
1450,6120001263421,新規,0,2024-03-25,2024-03-25,株式会社リッツ・ＰＲＯ,,株式会社,大阪府,大阪市淀川区,新高６丁目１４番９－６０３号,,27,123,5320033,,,,,,,2024-03-25,1,,,,,リッツプロ,0
1451,6120001263446,新規,0,2024-03-25,2024-03-25,Ｔｅｒｒａｕｒｏｒａ株式会社,,株式会社,大阪府,大阪市東淀川区,下新庄１丁目７－１３－１０２,,27,114,5330021,,,,,,,2024-03-25,1,,,,,テラウロラ,0
1452,6120001263495,新規,0,2024-03-25,2024-03-25,株式会社ＥＳ‐Ｐ,,株式会社,大阪府,大阪市中央区,道修町１丁目４番６号,,27,128,5410045,,,,,,,2024-03-25,1,,,,,イーエスピー,0
1455,6120003026181,新規,0,2024-03-25,2024-03-25,ギフトハウスオオサカ合同会社,,合同会社,大阪府,大阪市淀川区,三津屋南１丁目１１－５,,27,123,5320035,,,,,,,2024-03-25,1,,,,,ギフトハウスオオサカ,0
1456,6120003026198,新規,0,2024-03-25,2024-03-25,ＨＯＴＬＩＮＫ合同会社,,合同会社,大阪府,大阪市淀川区,西宮原１丁目８番１０号ヴィアノード新大阪同栄株式会社内,,27,123,5320004,,,,,,,2024-03-25,1,,,,,ホットリンク,0
1459,6120101069264,新規,0,2024-03-25,2024-03-25,株式会社Ｃｙｃｌｅ,,株式会社,大阪府,堺市西区,浜寺元町４丁４１３番地３,,27,144,5928343,,,,,,,2024-03-25,1,,,,,サイクル,0
1460,6120101069272,新規,0,2024-03-25,2024-03-25,ＪＩＫＫＯホールディングス株式会社,,株式会社,大阪府,堺市堺区,錦之町西１丁１番９号,,27,141,5900931,,,,,,,2024-03-25,1,,,,,ジッコウホールディングス,0
1470,6130001076426,新規,0,2024-03-25,2024-03-25,株式会社３６Ｃｏｎｓｔｒｕｃｔｉｏｎ,,株式会社,京都府,京都市伏見区,御駕籠町１６０番地２アルシェ板橋１０１,,26,109,6128065,,,,,,,2024-03-25,1,,,,,サンロクコンストラクション,0
1471,6130001076657,新規,0,2024-03-25,2024-03-25,株式会社いけがみ,,株式会社,京都府,京都市中京区,竹屋町通御幸町西入毘沙門町５４２番地２,,26,104,6040981,,,,,,,2024-03-25,1,,,,,イケガミ,0
1477,6140001133713,新規,0,2024-03-25,2024-03-25,株式会社Ｍ‐ＢＡＳＥ,,株式会社,兵庫県,尼崎市,栗山町１丁目１８番５号,,28,202,6610013,,,,,,,2024-03-25,1,,,,,エムベース,0
1478,6140001133770,新規,0,2024-03-25,2024-03-25,ｂｌｏｏｍ．ａ株式会社,,株式会社,兵庫県,神戸市灘区,高徳町５丁目１番１号常磐館２０６号室,,28,102,6570025,,,,,,,2024-03-25,1,,,,,ブルームエー,0
1481,6140003020323,新規,0,2024-03-25,2024-03-25,合同会社重康,,合同会社,兵庫県,神戸市西区,南別府４丁目３１４番地,,28,111,6512116,,,,,,,2024-03-25,1,,,,,シゲヤス,0
1483,6160001025751,新規,0,2024-03-25,2024-03-25,エンゼルゲーミングデバイス株式会社,,株式会社,滋賀県,東近江市,青野町４６００番地,,25,213,5270232,,,,,,,2024-03-25,1,,,,,エンゼルゲーミングデバイス,0
1484,6160001025768,新規,0,2024-03-25,2024-03-25,ＳＦＫ株式会社,,株式会社,滋賀県,東近江市,青野町４６００番地,,25,213,5270232,,,,,,,2024-03-25,1,,,,,エスエフケー,0
1496,6180001160596,新規,0,2024-03-25,2024-03-25,株式会社Ｂｌｏｏｍ,,株式会社,愛知県,名古屋市天白区,平針１丁目１２０９番地Ｇｒｅｅｎｈｅｉｍファミリア２０５号,,23,116,4680011,,,,,,,2024-03-25,1,,,,,ブルーム,0
1497,6180001160654,新規,0,2024-03-25,2024-03-25,株式会社千昇,,株式会社,愛知県,一宮市,三条字郷西３番地７,,23,203,4940003,,,,,,,2024-03-25,1,,,,,センショウ,0
1498,6180001160695,新規,0,2024-03-25,2024-03-25,株式会社Ｎ．Ｅ．Ｊ．,,株式会社,愛知県,名古屋市天白区,焼山２丁目８１５番地サンフラワーカトウ２０２号,,23,116,4680002,,,,,,,2024-03-25,1,,,,,エヌイージェイ,0
1499,6180001160704,新規,0,2024-03-25,2024-03-25,株式会社ＲＩＴ,,株式会社,愛知県,清須市,春日冨士塚３３－１,,23,233,4520962,,,,,,,2024-03-25,1,,,,,アールアイティ,0
1500,6180001160729,新規,0,2024-03-25,2024-03-25,株式会社ミヤビホールディングス,,株式会社,愛知県,名古屋市瑞穂区,柏木町２丁目４１番地の１,,23,108,4670044,,,,,,,2024-03-25,1,,,,,ミヤビホールディングス,0
1501,6180001160737,新規,0,2024-03-25,2024-03-25,株式会社Ｊｙｏｒｏｎ,,株式会社,愛知県,名古屋市中区,栄５丁目２６番３９号ＧＳ栄ビル３Ｆ,,23,106,4600008,,,,,,,2024-03-25,1,,,,,ジョロン,0
1504,6180003026498,新規,0,2024-03-25,2024-03-25,合同会社オリーブの木,,合同会社,愛知県,知多郡東浦町,大字石浜字川尻１１－７,,23,442,4702103,,,,,,,2024-03-25,1,,,,,オリーブノキ,0
1505,6180003026523,新規,0,2024-03-25,2024-03-25,合同会社ＨＩＭＡＲＩＮＯ,,合同会社,愛知県,名古屋市名東区,猪高台１丁目１０２６番地（チサンマンションアルコート上社ＩＩ番館５０１号）,00134187,23,115,4650028,,,,,,,2024-03-25,1,,,,,ヒマリノ,0
1507,6180305009556,新規,0,2024-03-25,2024-03-25,一般社団法人とよてつスマイルデスク,,その他の設立登記法人,愛知県,豊田市,細谷町４丁目５０番地,,23,211,4710853,,,,,,,2024-03-25,1,,,,,トヨテツスマイルデスク,0
1508,6190003004619,新規,0,2024-03-25,2024-03-25,合同会社ＣＡＭＵＩ,,合同会社,三重県,南牟婁郡紀宝町,鵜殿２２２７番地３,,24,562,5195701,,,,,,,2024-03-25,1,,,,,カムイ,0
1510,6200003006274,新規,0,2024-03-25,2024-03-25,ＦＭ　ＰＬＡＮ合同会社,,合同会社,岐阜県,美濃加茂市,清水町２丁目１番２４号,,21,211,5050026,,,,,,,2024-03-25,1,,,,,エフエムプラン,0
1515,6230001020258,新規,0,2024-03-25,2024-03-25,株式会社アールエス・ケア,,株式会社,富山県,富山市,大島２丁目５９６番地４１,,16,201,9398025,,,,,,,2024-03-25,1,,,,,アールエスケア,0
1518,6240001062984,新規,0,2024-03-25,2024-03-25,ＰＥＡＣＥ株式会社,,株式会社,広島県,広島市佐伯区,石内上１丁目７番８号,,34,108,7315107,,,,,,,2024-03-25,1,,,,,ピース,0
1519,6240001062992,新規,0,2024-03-25,2024-03-25,株式会社フレクセルーブ,,株式会社,広島県,安芸高田市,吉田町吉田１４８９－３９,,34,214,7310501,,,,,,,2024-03-25,1,,,,,フレクセルーブ,0
1521,6240003006592,新規,0,2024-03-25,2024-03-25,合同会社ＫＯＹＡＭＡＸ,,合同会社,広島県,広島市佐伯区,石内北３丁目１１番１６号,,34,108,7315109,,,,,,,2024-03-25,1,,,,,コヤマックス,0
1526,6260001038883,新規,0,2024-03-25,2024-03-25,結昭通商株式会社,,株式会社,岡山県,笠岡市,神島４１８７番地,,33,205,7140044,,,,,,,2024-03-25,1,,,,,ユイハルツウショウ,0
1527,6260005011259,新規,0,2024-03-25,2024-03-25,前土田農事實行組合,,その他の設立登記法人,岡山県,岡山市,,,33,100,,,,,,,,2024-03-25,1,,,,,マエツチダ,0
1532,6290001105094,新規,0,2024-03-25,2024-03-25,株式会社Ａ‐ｎｅｘｔ,,株式会社,福岡県,福岡市中央区,薬院４丁目１０番２３号,,40,133,8100022,,,,,,,2024-03-25,1,,,,,エーネクスト,0
1533,6290001105185,新規,0,2024-03-25,2024-03-25,３Ｌ国際株式会社,,株式会社,福岡県,福岡市東区,箱崎ふ頭３丁目７－８エスポワール箱崎１０５,,40,131,8120051,,,,,,,2024-03-25,1,,,,,サンエルコクサイ,0
1534,6290001105202,新規,0,2024-03-25,2024-03-25,株式会社Ｄ＆Ａ,,株式会社,福岡県,福岡市博多区,祇園町６番２６号,,40,132,8120038,,,,,,,2024-03-25,1,,,,,ディーアンドエー,0
1537,6290003015110,新規,0,2024-03-25,2024-03-25,合同会社ＲＩＴＡ,,合同会社,福岡県,福岡市西区,野方１丁目２－３３,,40,135,8190043,,,,,,,2024-03-25,1,,,,,リタ,0
1539,6310001018921,新規,0,2024-03-25,2024-03-25,株式会社オートメイク未来,,株式会社,長崎県,佐世保市,黒髪町２７９１,,42,202,8571152,,,,,,,2024-03-25,1,,,,,オートメイクミライ,0
1542,6310003004754,新規,0,2024-03-25,2024-03-25,ラーテルズ合同会社,,合同会社,長崎県,佐世保市,大野町６２番地,,42,202,8570131,,,,,,,2024-03-25,1,,,,,ラーテルズ,0
1543,6330003010263,新規,0,2024-03-25,2024-03-25,合同会社パレット,,合同会社,熊本県,熊本市中央区,中央街８番４号,,43,101,8600802,,,,,,,2024-03-25,1,,,,,パレット,0
1544,6340001026376,新規,0,2024-03-25,2024-03-25,株式会社きもつきファーム,,株式会社,鹿児島県,肝属郡肝付町,前田３５４３番地３,,46,492,8931206,,,,,,,2024-03-25,1,,,,,キモツキファーム,0
1545,6360001033387,新規,0,2024-03-25,2024-03-25,株式会社ＥＸＰＲＥＳＳ,,株式会社,沖縄県,浦添市,牧港１丁目６３番７－７０１号,,47,208,9012131,,,,,,,2024-03-25,1,,,,,エクスプレス,0
1558,6430001091386,新規,0,2024-03-25,2024-03-25,株式会社キャロル,,株式会社,北海道,札幌市北区,新川西二条２丁目１１番１５号,,01,102,0010932,,,,,,,2024-03-25,1,,,,,キャロル,0
1561,6450003002455,新規,0,2024-03-25,2024-03-25,合同会社ＫＩＳＨＩＮＯ運輸,,合同会社,北海道,旭川市,新富二条１丁目５番１４号,,01,204,0700002,,,,,,,2024-03-25,1,,,,,キシノウンユ,0
1566,6500003003209,新規,0,2024-03-25,2024-03-25,樹合同会社,,合同会社,愛媛県,松山市,北久米町３０３番地１１,,38,201,7900923,,,,,,,2024-03-25,1,,,,,タツキ,0
1575,7010003043303,新規,0,2024-03-25,2024-03-25,合同会社リディアＡＩ,,合同会社,東京都,中央区,日本橋茅場町１丁目８番１号,,13,102,1030025,,,,,,,2024-03-25,1,,,,,リディアエーアイ,0
1585,7010405023076,新規,0,2024-03-25,2024-03-25,一般社団法人ウェルネスマネジメント協会,,その他の設立登記法人,東京都,港区,北青山３丁目１２番７－１００３号,,13,103,1070061,,,,,,,2024-03-25,1,,,,,ウェルネスマネジメントキョウカイ,0
1590,7010601064832,新規,0,2024-03-25,2024-03-25,浩瀚商事株式会社,,株式会社,東京都,江東区,佐賀１丁目１６番３号林ビル２０１－１０号室,,13,108,1350031,,,,,,,2024-03-25,1,,,,,コウカンショウジ,0
1591,7010601064873,新規,0,2024-03-25,2024-03-25,ミートシロクロ株式会社,,株式会社,東京都,墨田区,菊川１丁目７番１０号早川ビル３０２号,,13,107,1300024,,,,,,,2024-03-25,1,,,,,ミートシロクロ,0
1592,7010603010727,新規,0,2024-03-25,2024-03-25,合同会社ウェルリバ,,合同会社,東京都,江東区,大島１丁目１７番１２号,,13,108,1360072,,,,,,,2024-03-25,1,,,,,ウェルリバ,0
1598,7010801034890,新規,0,2024-03-25,2024-03-25,株式会社ＳＩＳＥＩ,,株式会社,東京都,大田区,中央３丁目２２番１３号,,13,111,1430024,,,,,,,2024-03-25,1,,,,,シセイ,0
1606,7011001160890,新規,0,2024-03-25,2024-03-25,株式会社ＦＬ,,株式会社,東京都,渋谷区,渋谷２丁目１９番１５号宮益坂ビルディング６０９,,13,113,1500002,,,,,,,2024-03-25,1,,,,,エフエル,0
1607,7011003018781,新規,0,2024-03-25,2024-03-25,Ｐｉｓｃｅｓアドバイザリー合同会社,,合同会社,東京都,渋谷区,道玄坂１丁目１０番８号渋谷道玄坂東急ビル２Ｆ－Ｃ,,13,113,1500043,,,,,,,2024-03-25,1,,,,,ピスケスアドバイザリー,0
1613,7011303005100,新規,0,2024-03-25,2024-03-25,Ｕｎｉｔｅｄ　Ｌａｎｄ合同会社,,合同会社,東京都,杉並区,高井戸西２丁目４番５号,,13,115,1680071,,,,,,,2024-03-25,1,,,,,ユナイテッドランド,0
1616,7011403004308,新規,0,2024-03-25,2024-03-25,紅久喜合同会社,,合同会社,東京都,板橋区,小茂根１丁目２５番１６号－２０１号室,,13,119,1730037,,,,,,,2024-03-25,1,,,,,ホンジューシ,0
1617,7011403004316,新規,0,2024-03-25,2024-03-25,合同会社たまころも,,合同会社,東京都,板橋区,南常盤台１丁目１１－６レフア南常盤台１０１号室,,13,119,1740072,,,,,,,2024-03-25,1,,,,,タマコロモ,0
1620,7011501030445,新規,0,2024-03-25,2024-03-25,株式会社ＦＢＫ,,株式会社,東京都,北区,上中里１丁目４３番１０号,,13,117,1140016,,,,,,,2024-03-25,1,,,,,エフビーケイ,0
1622,7011701027126,新規,0,2024-03-25,2024-03-25,ｋｕｋｕｎａ株式会社,,株式会社,東京都,江戸川区,西小岩３丁目６番５号,,13,123,1330057,,,,,,,2024-03-25,1,,,,,ククナ,0
1625,7011803006143,新規,0,2024-03-25,2024-03-25,ファーストラン合同会社,,合同会社,東京都,葛飾区,亀有３丁目１３番２－６１６号善ビル,,13,122,1250061,,,,,,,2024-03-25,1,,,,,ファーストラン,0
1628,7012403006467,新規,0,2024-03-25,2024-03-25,合同会社ＣＲＹＰＴＯＬＩＥＮ,,合同会社,東京都,武蔵野市,吉祥寺本町１丁目１３番２号シラカバビル５Ｆ,,13,203,1800004,,,,,,,2024-03-25,1,,,,,クリプトリアン,0
1632,7013305003585,新規,0,2024-03-25,2024-03-25,一般社団法人ＭＡＮＧＡ総合研究所,,その他の設立登記法人,東京都,豊島区,南長崎３丁目４番１０号味楽百貨店１Ｆ,,13,116,1710052,,,,,,,2024-03-25,1,,,,,マンガソウゴウケンキュウジョ,0
1636,7020001156394,新規,0,2024-03-25,2024-03-25,株式会社ウィンドパワー,,株式会社,神奈川県,横浜市青葉区,新石川３丁目１９番地３エーデルワイスたまプラーザ１０１,,14,117,2250003,,,,,,,2024-03-25,1,,,,,ウィンドパワー,0
1640,7020005016314,新規,0,2024-03-25,2024-03-25,一般社団法人音楽でニッポンを元気にしようぜ,,その他の設立登記法人,神奈川県,川崎市高津区,諏訪１丁目１９番３１号,,14,134,2130004,,,,,,,2024-03-25,1,,,,,オンガクデニッポンヲゲンキニシヨウゼ,0
1644,7021001081789,新規,0,2024-03-25,2024-03-25,株式会社ＲＦホーム,,株式会社,神奈川県,相模原市中央区,高根２丁目３番８号,,14,152,2520221,,,,,,,2024-03-25,1,,,,,アールエフホーム,0
1646,7021003014292,新規,0,2024-03-25,2024-03-25,合同会社鎌倉コトリ,,合同会社,神奈川県,鎌倉市,大町２丁目１番１１号,,14,204,2480007,,,,,,,2024-03-25,1,,,,,カマクラコトリ,0
1650,7030001159405,新規,0,2024-03-25,2024-03-25,株式会社カタパルト,,株式会社,埼玉県,八潮市,大字新町１４７－１,,11,234,3400807,,,,,,,2024-03-25,1,,,,,カタパルト,0
1651,7030001159413,新規,0,2024-03-25,2024-03-25,常武開発株式会社,,株式会社,埼玉県,富士見市,渡戸３丁目１６番１０号,,11,235,3540032,,,,,,,2024-03-25,1,,,,,ジョウブカイハツ,0
1653,7030003023856,新規,0,2024-03-25,2024-03-25,Ｓｔａｎｄｕｐ合同会社,,合同会社,埼玉県,さいたま市南区,別所７丁目１５番８－２００５号,,11,108,3360021,,,,,,,2024-03-25,1,,,,,スタンドアップ,0
1654,7040001132740,新規,0,2024-03-25,2024-03-25,株式会社ＡｌｃｏＢｅｌｌａ,,株式会社,千葉県,船橋市,咲が丘２丁目２１番１号,,12,204,2740807,,,,,,,2024-03-25,1,,,,,アルコベラ,0
1655,7040001132807,新規,0,2024-03-25,2024-03-25,Ｋ‐ｐｌｕｓ株式会社,,株式会社,千葉県,市川市,北方２丁目３７番３号,,12,203,2720815,,,,,,,2024-03-25,1,,,,,ケイプラス,0
1656,7040001132815,新規,0,2024-03-25,2024-03-25,株式会社ウィスライン,,株式会社,千葉県,流山市,流山８丁目１０３９番地の１ＴＳＧ流山ビル１階,,12,220,2700164,,,,,,,2024-03-25,1,,,,,ウィスライン,0
1657,7040001132823,新規,0,2024-03-25,2024-03-25,株式会社ＴＯＹ,,株式会社,千葉県,白井市,冨士２９１番地１０,,12,232,2701432,,,,,,,2024-03-25,1,,,,,トイ,0
1658,7040003024622,新規,0,2024-03-25,2024-03-25,合同会社Ｋｉｎｇｓ,,合同会社,千葉県,佐倉市,中志津７丁目３７７番地２２,,12,212,2850843,,,,,,,2024-03-25,1,,,,,キングス,0
1663,7060001036948,新規,0,2024-03-25,2024-03-25,株式会社ＴＨＵＭＢＳ　ＵＰ,,株式会社,栃木県,宇都宮市,インターパーク５丁目２番地１,,09,201,3210118,,,,,,,2024-03-25,1,,,,,サムズアップ,0
1666,7070001041501,新規,0,2024-03-25,2024-03-25,株式会社ロータス,,株式会社,群馬県,桐生市,宮本町３丁目４番１４号,,10,203,3760056,,,,,,,2024-03-25,1,,,,,ロータス,0
1667,7070001041518,新規,0,2024-03-25,2024-03-25,株式会社梵天,,株式会社,群馬県,太田市,只上町３６４番地１,,10,205,3730011,,,,,,,2024-03-25,1,,,,,ボンテン,0
1668,7070001041526,新規,0,2024-03-25,2024-03-25,株式会社ＰＯＮＳＵＩ,,株式会社,群馬県,伊勢崎市,連取町３０６０－９ＳＤ第５ビル２Ｆ,,10,204,3720812,,,,,,,2024-03-25,1,,,,,ポンスイ,0
1675,7080105006408,新規,0,2024-03-25,2024-03-25,特定非営利活動法人おやまアレグ,,その他の設立登記法人,静岡県,駿東郡小山町,阿多野１３０番地,,22,344,4101321,,,,,,,2024-03-25,1,,,,,オヤマアレグ,0
1687,7120001263222,新規,0,2024-03-25,2024-03-25,株式会社ＳＳＣ,,株式会社,大阪府,大阪市西区,九条南３丁目２７番１８号,,27,106,5500025,,,,,,,2024-03-25,1,,,,,エスエスシー,0
1688,7120001263230,新規,0,2024-03-25,2024-03-25,株式会社グラム工業,,株式会社,大阪府,門真市,上野口町５６番１２号,,27,223,5710070,,,,,,,2024-03-25,1,,,,,グラムコウギョウ,0
1689,7120001263354,新規,0,2024-03-25,2024-03-25,株式会社ｉｅｒｏ,,株式会社,大阪府,寝屋川市,境橋町８番１０号,,27,215,5720018,,,,,,,2024-03-25,1,,,,,イエロ,0
1690,7120001263429,新規,0,2024-03-25,2024-03-25,株式会社ＡＲＩＧＡＴＯ,,株式会社,大阪府,大阪市北区,天神橋２丁目４番１７号,,27,127,5300041,,,,,,,2024-03-25,1,,,,,アリガトウ,0
1691,7120001263478,新規,0,2024-03-25,2024-03-25,ユーネット株式会社,,株式会社,大阪府,大阪市中央区,淡路町４丁目３番１０号ＴＭＭＢＬＤＧ８Ｆ,,27,128,5410047,,,,,,,2024-03-25,1,,,,,ユーネット,0
1692,7120001263494,新規,0,2024-03-25,2024-03-25,株式会社エコスタイル５０００,,株式会社,大阪府,大阪市中央区,道修町１丁目４番６号,,27,128,5410045,,,,,,,2024-03-25,1,,,,,エコスタイルゴセン,0
1694,7120003026148,新規,0,2024-03-25,2024-03-25,Ｒｅｅｄ合同会社,,合同会社,大阪府,大阪市中央区,谷町３丁目１番２４－１００７,,27,128,5400012,,,,,,,2024-03-25,1,,,,,リード,0
1695,7120003026230,新規,0,2024-03-25,2024-03-25,合同会社オールウェブ,,合同会社,大阪府,大阪市中央区,安堂寺町２丁目６番３６号メゾンダイワ４０１,,27,128,5420061,,,,,,,2024-03-25,1,,,,,オールウェブ,0
1703,7120901048937,新規,0,2024-03-25,2024-03-25,株式会社Ｔａｆｆｙ,,株式会社,大阪府,豊中市,西泉丘３丁目１番１２号,,27,203,5610862,,,,,,,2024-03-25,1,,,,,タフィー,0
1708,7130001076664,新規,0,2024-03-25,2024-03-25,Ａｎｃｈｏｒ　Ｌｉｆｅ株式会社,,株式会社,京都府,京都市中京区,河原町通二条下る一之船入町３７６クロトビル３階,,26,104,6040924,,,,,,,2024-03-25,1,,,,,アンカーライフ,0
1709,7130001076672,新規,0,2024-03-25,2024-03-25,株式会社はるのおがわ,,株式会社,京都府,京都市左京区,静市市原町２１５番地１２,,26,103,6011123,,,,,,,2024-03-25,1,,,,,ハルノオガワ,0
1711,7130003009390,新規,0,2024-03-25,2024-03-25,合同会社ｉＰＬＵＳ,,合同会社,京都府,京都市伏見区,深草下川原町５５－１サンパレス伏見７０５,,26,109,6128401,,,,,,,2024-03-25,1,,,,,アイプラス,0
1715,7140001133712,新規,0,2024-03-25,2024-03-25,株式会社Ａｍｅｎｉｔｙ‐Ｐｌａｎｎｉｎｇ,,株式会社,兵庫県,加古川市,尾上町池田７７４番地,,28,210,6750023,,,,,,,2024-03-25,1,,,,,アメニティプランニング,0
1716,7140001133720,新規,0,2024-03-25,2024-03-25,株式会社ＪＩＮ,,株式会社,兵庫県,三田市,三田町１７番１８号,,28,219,6691533,,,,,,,2024-03-25,1,,,,,ジン,0
1717,7140001133745,新規,0,2024-03-25,2024-03-25,株式会社ＢＥＳＴ　ＣＨＡＲＭ,,株式会社,兵庫県,姫路市,網干区和久５１０番地２グランエストビル１Ｆ,,28,201,6711227,,,,,,,2024-03-25,1,,,,,ベストチャーム,0
1721,7140003020330,新規,0,2024-03-25,2024-03-25,神川合同会社,,合同会社,兵庫県,加古川市,上荘町小野７１２番地の１４,,28,210,6751218,,,,,,,2024-03-25,1,,,,,カミカワ,0
1747,7180001160595,新規,0,2024-03-25,2024-03-25,里山畜養株式会社,,株式会社,愛知県,犬山市,今井１丁目２８１番地,,23,215,4840005,,,,,,,2024-03-25,1,,,,,サトヤマチクヨウ,0
1748,7180001160612,新規,0,2024-03-25,2024-03-25,株式会社ＷＥＬＤ．,,株式会社,愛知県,小牧市,小牧４丁目２１３番地,,23,219,4850041,,,,,,,2024-03-25,1,,,,,ウェルトテン,0
1749,7180001160645,新規,0,2024-03-25,2024-03-25,ＬｉＮＫ‐Ｓ株式会社,,株式会社,愛知県,名古屋市南区,戸部下１丁目９番５７号戸部下住宅１棟４０７号,,23,112,4570842,,,,,,,2024-03-25,1,,,,,リンクス,0
1750,7180001160703,新規,0,2024-03-25,2024-03-25,株式会社ＴＨＥ　ＨＩＤＥＡＷＡＹ　ＦＡＣＴＯＲＹ,,株式会社,愛知県,名古屋市中区,丸の内１丁目９番２７号,,23,106,4600002,,,,,,,2024-03-25,1,,,,,ザハイドアウェイファクトリー,0
1751,7180001160711,新規,0,2024-03-25,2024-03-25,株式会社イコールデザイン,,株式会社,愛知県,名古屋市南区,三吉町２丁目５７番地,,23,112,4570805,,,,,,,2024-03-25,1,,,,,イコールデザイン,0
1752,7180001160728,新規,0,2024-03-25,2024-03-25,株式会社山正Ｎｅｘｔ,,株式会社,愛知県,小牧市,野口高畑２０４４番地,,23,219,4850806,,,,,,,2024-03-25,1,,,,,ヤマショウネクスト,0
1758,7180003026506,新規,0,2024-03-25,2024-03-25,合同会社アンダーウィル,,合同会社,愛知県,名古屋市千種区,猫洞通５丁目６番地ドムス本山２０７,,23,101,4640032,,,,,,,2024-03-25,1,,,,,アンダーウィル,0
1759,7180003026514,新規,0,2024-03-25,2024-03-25,合同会社Ｇｌｏｂａｌ　Ｌａｎｄ,,合同会社,愛知県,名古屋市中川区,供米田２丁目４０２番地,,23,110,4540984,,,,,,,2024-03-25,1,,,,,グローバルランド,0
1760,7180003026522,新規,0,2024-03-25,2024-03-25,合同会社Ｄｒｉｐｐｉｎｇ．,,合同会社,愛知県,名古屋市中村区,名駅３丁目４－１０アルティメイト名駅１ｓｔ２階,,23,105,4500002,,,,,,,2024-03-25,1,,,,,ドリッピン,0
1761,7180003026530,新規,0,2024-03-25,2024-03-25,合同会社サウスアップ,,合同会社,愛知県,名古屋市天白区,野並２丁目３９３番地,,23,116,4680045,,,,,,,2024-03-25,1,,,,,サウスアップ,0
1762,7180003026539,新規,0,2024-03-25,2024-03-25,ＨＯＭＥ合同会社,,合同会社,愛知県,名古屋市港区,金城ふ頭２丁目７－１,,23,111,4550848,,,,,,,2024-03-25,1,,,,,ホーム,0
1768,7200003006273,新規,0,2024-03-25,2024-03-25,ＧＩＦＵ　ＭＯＴＯＲＳ　ＴＲＡＤＩＮＧ合同会社,,合同会社,岐阜県,海津市,平田町西島８６６番地,,21,221,5030314,,,,,,,2024-03-25,1,,,,,ギフモーターストレーディング,0
1769,7210001019680,新規,0,2024-03-25,2024-03-25,株式会社ＮＩＳＨＩＹＡＭＡ,,株式会社,福井県,敦賀市,砂流５０号３８番地の９,,18,202,9140136,,,,,,,2024-03-25,1,,,,,ニシヤマ,0
1770,7210001019689,新規,0,2024-03-25,2024-03-25,株式会社ミルポート,,株式会社,福井県,あわら市,市姫４丁目７番１６号,,18,208,9190621,,,,,,,2024-03-25,1,,,,,ミルポート,0
1773,7220003003707,新規,0,2024-03-25,2024-03-25,合同会社ＲＫ,,合同会社,石川県,金沢市,東山２丁目１８番３８号クーテ・ボヌール・１０５号,,17,201,9200831,,,,,,,2024-03-25,1,,,,,アールケー,0
1784,7260005011332,新規,0,2024-03-25,2024-03-25,医療法人社団Ｄ＆Ｈ,,その他の設立登記法人,岡山県,倉敷市,北畝５丁目２番１８,,33,202,7128032,,,,,,,2024-03-25,1,,,,,ディーアンドエイチ,0
1788,7290001105069,新規,0,2024-03-25,2024-03-25,株式会社クライム,,株式会社,福岡県,福岡市博多区,博多駅東２丁目４－３０いわきビル３０２号室,,40,132,8120013,,,,,,,2024-03-25,1,,,,,クライム,0
1789,7290001105143,新規,0,2024-03-25,2024-03-25,株式会社ＳＥＶＥＮ’ＦＥＳ,,株式会社,福岡県,福岡市中央区,天神２丁目２番１２号Ｔ＆Ｊビルディング７Ｆ,,40,133,8100001,,,,,,,2024-03-25,1,,,,,セブンフェス,0
1790,7290001105168,新規,0,2024-03-25,2024-03-25,株式会社ＧｅｎｉＳｐｈｅｒｅ,,株式会社,福岡県,福岡市博多区,博多駅前１丁目２３番地２号５Ｆ－Ｂ,,40,132,8120011,,,,,,,2024-03-25,1,,,,,ジェニスフィア,0
1791,7290001105176,新規,0,2024-03-25,2024-03-25,株式会社センシブルコム,,株式会社,福岡県,福岡市東区,八田３丁目４番３号ハイツ藤１０６号,,40,131,8130031,,,,,,,2024-03-25,1,,,,,センシブルコム,0
1792,7290001105184,新規,0,2024-03-25,2024-03-25,株式会社ｂｅｎｅｆｉｃｅ,,株式会社,福岡県,福岡市中央区,天神４丁目５番１０号,,40,133,8100001,,,,,,,2024-03-25,1,,,,,ベネフィス,0
1795,7290003015076,新規,0,2024-03-25,2024-03-25,合同会社リーダー,,合同会社,福岡県,福岡市中央区,大手門３丁目７番１３号エステート芳賀大手門５０５,,40,133,8100074,,,,,,,2024-03-25,1,,,,,リーダー,0
1796,7290003015092,新規,0,2024-03-25,2024-03-25,合同会社竹平,,合同会社,福岡県,福岡市博多区,博多駅前４丁目３３番１１号２０８,,40,132,8120011,,,,,,,2024-03-25,1,,,,,タケヒラ,0
1797,7290003015101,新規,0,2024-03-25,2024-03-25,合同会社ｃｒｅａ,,合同会社,福岡県,福岡市博多区,博多駅前３丁目９－５チサンマンション第一博多６１４,,40,132,8120011,,,,,,,2024-03-25,1,,,,,クレア,0
1798,7290801030400,新規,0,2024-03-25,2024-03-25,Ｐｅａｃｅトータルケア株式会社,,株式会社,福岡県,中間市,長津３丁目２４７－２,,40,215,8090036,,,,,,,2024-03-25,1,,,,,ピーストータルケア,0
1799,7290805009721,新規,0,2024-03-25,2024-03-25,一般社団法人マルチポテンシャライト協会日本運営本部,,その他の設立登記法人,福岡県,北九州市門司区,寺内１丁目３０番３号,,40,101,8000015,,,,,,,2024-03-25,1,,,,,マルチポテンシャライトキョウカイニホンウンエイホンブ,0
1806,7310001018920,新規,0,2024-03-25,2024-03-25,株式会社内川工業,,株式会社,長崎県,松浦市,御厨町米ノ山免３９２番地,,42,208,8594765,,,,,,,2024-03-25,1,,,,,ウチカワコウギョウ,0
1812,7330003010279,新規,0,2024-03-25,2024-03-25,合同会社ＩＮ,,合同会社,熊本県,熊本市中央区,神水本町２０番３号,,43,101,8620955,,,,,,,2024-03-25,1,,,,,イン,0
1816,7360001033394,新規,0,2024-03-25,2024-03-25,ＭＨホールディングス株式会社,,株式会社,沖縄県,宜野湾市,真志喜３丁目１７－２知念氏住宅Ａ－２号,,47,205,9012224,,,,,,,2024-03-25,1,,,,,エムエイチホールディングス,0
1817,7360005007007,新規,0,2024-03-25,2024-03-25,社会福祉法人あいくる福祉会,,その他の設立登記法人,沖縄県,中頭郡嘉手納町,字屋良６８９番地５,,47,325,9040202,,,,,,,2024-03-25,1,,,,,アイクルフクシカイ,0
1826,7390005009058,新規,0,2024-03-25,2024-03-25,特定非営利活動法人Ｓｉｓｔｅｒｈｏｏｄ,,その他の設立登記法人,山形県,山形市,緑町４丁目１０－３ファートンビル３階Ｂ,,06,201,9900041,,,,,,,2024-03-25,1,,,,,シスターフッド,0
1829,7420001018653,新規,0,2024-03-25,2024-03-25,株式会社ユミエステート,,株式会社,青森県,黒石市,追子野木１丁目２６０番地,,02,204,0360357,,,,,,,2024-03-25,1,,,,,ユミエステート,0
1835,7430005014937,新規,0,2024-03-25,2024-03-25,医療法人グッドライフグループ,,その他の設立登記法人,北海道,札幌市西区,西町南１２丁目１－３８　２Ｆ,,01,107,0630062,,,,,,,2024-03-25,1,,,,,グッドライフグループ,0
1838,7460103001603,新規,0,2024-03-25,2024-03-25,合同会社十音,,合同会社,北海道,帯広市,大通南３２丁目５番地,,01,207,0800010,,,,,,,2024-03-25,1,,,,,トオン,0
1839,7460303000818,新規,0,2024-03-25,2024-03-25,合同会社おむすび,,合同会社,北海道,紋別郡湧別町,北兵村三区５１３番地の１２,,01,559,0996322,,,,,,,2024-03-25,1,,,,,オムスビ,0
1841,7500003003208,新規,0,2024-03-25,2024-03-25,合同会社柊Ａｒｔ,,合同会社,愛媛県,松山市,堀江町甲１９２９番地２,,38,201,7992651,,,,,,,2024-03-25,1,,,,,ヒイラギアート,0
1842,7500005008691,新規,0,2024-03-25,2024-03-25,一般社団法人瀬戸をわたる風,,その他の設立登記法人,愛媛県,今治市,高市甲２４６番地の４,,38,202,7991512,,,,,,,2024-03-25,1,,,,,セトヲワタルカゼ,0
1846,8010001243192,新規,0,2024-03-25,2024-03-25,株式会社ａｉｍ,,株式会社,東京都,千代田区,六番町６番４号ＬＨ番町スクエア５階,,13,101,1020085,,,,,,,2024-03-25,1,,,,,エイム,0
1847,8010001243341,新規,0,2024-03-25,2024-03-25,株式会社Ｑｒｅｅｄ,,株式会社,東京都,千代田区,九段南２丁目４番１１号,,13,101,1020074,,,,,,,2024-03-25,1,,,,,クリード,0
1848,8010001243366,新規,0,2024-03-25,2024-03-25,株式会社ＰＭＡ　Ｌａｂ,,株式会社,東京都,中央区,銀座１丁目２２番１１号銀座大竹ビジデンス２Ｆ,,13,102,1040061,,,,,,,2024-03-25,1,,,,,ピーエムエーラボ,0
1849,8010001243374,新規,0,2024-03-25,2024-03-25,株式会社ピーエーエス,,株式会社,東京都,千代田区,麹町４丁目８番地１９,,13,101,1020083,,,,,,,2024-03-25,1,,,,,ピーエーエス,0
1850,8010001243382,新規,0,2024-03-25,2024-03-25,吉佳株式会社,,株式会社,東京都,千代田区,神田和泉町１番地６－１６ヤマトビル４０５,,13,101,1010024,,,,,,,2024-03-25,1,,,,,ヨシカ,0
1852,8010003043293,新規,0,2024-03-25,2024-03-25,ＡＤ　ＳＰＣ合同会社,,合同会社,東京都,千代田区,永田町２丁目１７番３号来栖ビル１階,,13,101,1000014,,,,,,,2024-03-25,1,,,,,エーディーエスピーシー,0
1853,8010003043302,新規,0,2024-03-25,2024-03-25,合同会社Ｂｒｅａｋ,,合同会社,東京都,中央区,日本橋室町１丁目１１番１２号,,13,102,1030022,,,,,,,2024-03-25,1,,,,,ブレイク,0
1857,8010401181100,新規,0,2024-03-25,2024-03-25,ＧＡＬ株式会社,,株式会社,東京都,港区,虎ノ門３丁目４番１０号虎ノ門３５森ビル７Ｆ,,13,103,1050001,,,,,,,2024-03-25,1,,,,,ジーエーエル,0
1858,8010401181190,新規,0,2024-03-25,2024-03-25,株式会社Ｐｒｏｇｅｓｔ,,株式会社,東京都,港区,麻布十番３丁目７番５号デシモ麻布３０１,,13,103,1060045,,,,,,,2024-03-25,1,,,,,プロゲスト,0
1859,8010401181208,新規,0,2024-03-25,2024-03-25,株式会社Ｓｏｃｉａｌ　Ａｒｔ,,株式会社,東京都,港区,白金３丁目１１－１７－４０５,,13,103,1080072,,,,,,,2024-03-25,1,,,,,ソーシャルアート,0
1860,8010401181232,新規,0,2024-03-25,2024-03-25,株式会社Ｔｏｂｙｓ,,株式会社,東京都,港区,浜松町２丁目２番１５号浜松町ダイヤビル２Ｆ,,13,103,1050013,,,,,,,2024-03-25,1,,,,,トビーズ,0
1861,8010401181257,新規,0,2024-03-25,2024-03-25,株式会社石垣島不動産,,株式会社,東京都,港区,南青山１丁目１番１号新青山ビル東館１９階,,13,103,1070062,,,,,,,2024-03-25,1,,,,,イシガキジマフドウサン,0
1862,8010401181265,新規,0,2024-03-25,2024-03-25,株式会社叙々苑ホールディングス,,株式会社,東京都,港区,赤坂３丁目７番１７号,,13,103,1070052,,,,,,,2024-03-25,1,,,,,ジョジョエンホールディングス,0
1864,8010403032235,新規,0,2024-03-25,2024-03-25,アートフルマインド合同会社,,合同会社,東京都,港区,芝浦４丁目１５－１プラウドタワー芝浦７１２,,13,103,1080023,,,,,,,2024-03-25,1,,,,,アートフルマインド,0
1865,8010403032243,新規,0,2024-03-25,2024-03-25,ＵＩＢＯＺ合同会社,,合同会社,東京都,港区,北青山１丁目３番１号アールキューブ３階,,13,103,1070061,,,,,,,2024-03-25,1,,,,,ウイボウズ,0
1866,8010405023075,新規,0,2024-03-25,2024-03-25,引退馬支援カメラ一般社団法人,,その他の設立登記法人,東京都,港区,麻布十番２丁目４番１－５０２号,,13,103,1060045,,,,,,,2024-03-25,1,,,,,インタイバシエンカメラ,0
1867,8010501051995,新規,0,2024-03-25,2024-03-25,株式会社エル・エステート,,株式会社,東京都,台東区,元浅草１丁目２０番９号Ｅｓｔａｔｅ・Ｏｎｅ・Ｂｌｄｇ４０２号室,,13,106,1110041,,,,,,,2024-03-25,1,,,,,エルエステート,0
1871,8010605004305,新規,0,2024-03-25,2024-03-25,一般財団法人青木仁志啓育財団,,その他の設立登記法人,東京都,江東区,有明３丁目７番１８号,,13,108,1350063,,,,,,,2024-03-25,1,,,,,アオキサトシケイイクザイダン,0
1873,8010801034865,新規,0,2024-03-25,2024-03-25,株式会社ネクストアップ,,株式会社,東京都,大田区,池上６丁目２４番６号ｓｏｄａｔｅＡ,,13,111,1460082,,,,,,,2024-03-25,1,,,,,ネクストアップ,0
1874,8010803004890,新規,0,2024-03-25,2024-03-25,ＬＳ７合同会社,,合同会社,東京都,大田区,平和島３丁目４番１号,,13,111,1430006,,,,,,,2024-03-25,1,,,,,エルエスセブン,0
1878,8010901054937,新規,0,2024-03-25,2024-03-25,株式会社須賀企画,,株式会社,東京都,世田谷区,岡本２丁目２５番１５－１０１号,,13,112,1570076,,,,,,,2024-03-25,1,,,,,スガキカク,0
1879,8010901054953,新規,0,2024-03-25,2024-03-25,フクイキャピタルマネジメント株式会社,,株式会社,東京都,世田谷区,大蔵１丁目６－２４パークサイドアンＡ１０２,,13,112,1570074,,,,,,,2024-03-25,1,,,,,フクイキャピタルマネジメント,0
1880,8011001160766,新規,0,2024-03-25,2024-03-25,マインドゲートウェイ株式会社,,株式会社,東京都,渋谷区,恵比寿西２丁目８番４号ＥＸ恵比寿西ビル５階,,13,113,1500021,,,,,,,2024-03-25,1,,,,,マインドゲートウェイ,0
1881,8011001160816,新規,0,2024-03-25,2024-03-25,株式会社インフィニテリア,,株式会社,東京都,目黒区,洗足１丁目２１番２号エーブル目黒洗足１０４,,13,110,1520012,,,,,,,2024-03-25,1,,,,,インフィニテリア,0
1882,8011001160857,新規,0,2024-03-25,2024-03-25,株式会社クレアース,,株式会社,東京都,渋谷区,千駄ヶ谷３丁目６０番５号,,13,113,1510051,,,,,,,2024-03-25,1,,,,,クレアース,0
1890,8011003018731,新規,0,2024-03-25,2024-03-25,ＧＯＬＯＳＯ一級建築士事務所合同会社,,合同会社,東京都,渋谷区,猿楽町１４番２８－３０１号,,13,113,1500033,,,,,,,2024-03-25,1,,,,,ゴローゾイッキュウケンチクシジムショ,0
1891,8011101106677,新規,0,2024-03-25,2024-03-25,星一株式会社,,株式会社,東京都,新宿区,高田馬場１丁目３１－８高田馬場ダイカンプラザ６２５室,,13,104,1690075,,,,,,,2024-03-25,1,,,,,シンイチ,0
1892,8011101106685,新規,0,2024-03-25,2024-03-25,株式会社アヤナスタープロダクション,,株式会社,東京都,新宿区,西新宿３丁目３番１３号西新宿水間ビル６Ｆ,,13,104,1600023,,,,,,,2024-03-25,1,,,,,アヤナスタープロダクション,0
1897,8011401025949,新規,0,2024-03-25,2024-03-25,株式会社Ｌ‐ＧＯＡＴ,,株式会社,東京都,板橋区,氷川町１番１２号コスモディエース８０１,,13,119,1730013,,,,,,,2024-03-25,1,,,,,エルゴート,0
1899,8011603004288,新規,0,2024-03-25,2024-03-25,合同会社ＢＯＮＥＮ,,合同会社,東京都,練馬区,石神井台７丁目９番１２号アルザルゲート３０１号室,,13,120,1770045,,,,,,,2024-03-25,1,,,,,ボノン,0
1903,8011703003784,新規,0,2024-03-25,2024-03-25,合同会社Ｆｉｒｓｔ,,合同会社,東京都,江戸川区,南篠崎町４丁目３番１４号カーサヒカリ３０３,,13,123,1330065,,,,,,,2024-03-25,1,,,,,ファースト,0
1905,8012303001963,新規,0,2024-03-25,2024-03-25,マイシナリオ合同会社,,合同会社,東京都,町田市,鶴間５丁目２番１－８０６号,,13,209,1940004,,,,,,,2024-03-25,1,,,,,マイシナリオ,0
1906,8012401041647,新規,0,2024-03-25,2024-03-25,株式会社ＲｉｖｅＲｉｃｈ,,株式会社,東京都,稲城市,矢野口１２１２番地の６,,13,225,2060812,,,,,,,2024-03-25,1,,,,,リバーリッチ,0
1907,8012401041655,新規,0,2024-03-25,2024-03-25,株式会社キャリアイズ,,株式会社,東京都,多摩市,落合１丁目４６番地１ココリア多摩センター７階,,13,224,2060033,,,,,,,2024-03-25,1,,,,,キャリアイズ,0
1908,8012701018163,新規,0,2024-03-25,2024-03-25,株式会社さすてなぶる,,株式会社,東京都,東久留米市,本町１丁目７番１６号寿荘２０４号,,13,222,2030053,,,,,,,2024-03-25,1,,,,,サステナブル,0
1909,8012801023055,新規,0,2024-03-25,2024-03-25,Ｃｏｌｏｒｆｕｌ貿易株式会社,,株式会社,東京都,日野市,日野本町４丁目１０－１０メゾンコローナル２０２号室,,13,212,1910011,,,,,,,2024-03-25,1,,,,,カラフルボウエキ,0
1912,8013303007059,新規,0,2024-03-25,2024-03-25,ＭＯ商事合同会社,,合同会社,東京都,豊島区,池袋２丁目２番７号本州ビル３Ｆ,,13,116,1710014,,,,,,,2024-03-25,1,,,,,エムオーショウジ,0
1917,8020001156385,新規,0,2024-03-25,2024-03-25,株式会社しろくま住宅社,,株式会社,神奈川県,横浜市旭区,二俣川１丁目４－３ＭＩＳＯＮＯＧａｒｄｅｎ１Ｆ,,14,112,2410821,,,,,,,2024-03-25,1,,,,,シロクマジュウタクシャ,0
1918,8020001156393,新規,0,2024-03-25,2024-03-25,株式会社ＳＨＩＴＯＲＩ．ＣＭ,,株式会社,神奈川県,川崎市川崎区,南渡田町１－１京浜ビル２階,,14,131,2100855,,,,,,,2024-03-25,1,,,,,シトリシーエム,0
1921,8020003025811,新規,0,2024-03-25,2024-03-25,合同会社ＡＺ‐ＦＡＳ,,合同会社,神奈川県,川崎市麻生区,上麻生７丁目１６‐２３,,14,137,2150021,,,,,,,2024-03-25,1,,,,,エイゼットファス,0
1924,8021003014283,新規,0,2024-03-25,2024-03-25,伸葉インテリジェンス合同会社,,合同会社,神奈川県,相模原市南区,上鶴間１丁目３８番３号,,14,153,2520302,,,,,,,2024-03-25,1,,,,,シンヨウインテリジェンス,0
1925,8021003014300,新規,0,2024-03-25,2024-03-25,合同会社Ｈｏｌｌｙ　Ｃｒｅａｔｉｏｎ,,合同会社,神奈川県,足柄上郡松田町,松田惣領３２１番地１ｓｕｐｒａｐｏ本館２階,,14,363,2580003,,,,,,,2024-03-25,1,,,,,ホリークリエイション,0
1934,8030001159387,新規,0,2024-03-25,2024-03-25,株式会社フォーサンス,,株式会社,埼玉県,越谷市,大間野町２丁目１６１番地２レジデンス駒崎１０１,,11,222,3430844,,,,,,,2024-03-25,1,,,,,フォーサンス,0
1935,8030001159404,新規,0,2024-03-25,2024-03-25,株式会社キチミ重機,,株式会社,埼玉県,上尾市,須ケ谷２丁目２５番地,,11,219,3620004,,,,,,,2024-03-25,1,,,,,キチミジュウキ,0
1936,8030001159412,新規,0,2024-03-25,2024-03-25,栄禧貿易株式会社,,株式会社,埼玉県,飯能市,本町１番１１号ＫＩＶオフィス飯能Ｃ号室,,11,209,3570032,,,,,,,2024-03-25,1,,,,,エイキボウエキ,0
1943,8040001132780,新規,0,2024-03-25,2024-03-25,株式会社クラウドオアシス,,株式会社,千葉県,習志野市,実籾３丁目７番１４号,,12,216,2750002,,,,,,,2024-03-25,1,,,,,クラウドオアシス,0
1944,8040001132814,新規,0,2024-03-25,2024-03-25,Ｐ‐ＡＬＭキャピタル株式会社,,株式会社,千葉県,千葉市稲毛区,小仲台３丁目６番７号,,12,103,2630043,,,,,,,2024-03-25,1,,,,,パームキャピタル,0
1947,8040003024299,新規,0,2024-03-25,2024-03-25,合同会社ＭｏｕｎｔａｉｎＳｏｕｎｄ,,合同会社,千葉県,鎌ケ谷市,馬込沢４－１５,,12,224,2730116,,,,,,,2024-03-25,1,,,,,マウンテンサウンド,0
1952,8050001054504,新規,0,2024-03-25,2024-03-25,Ｔｓｕｋｕｂａ　Ｇａｓ　Ｅｎｇｉｎｅｅｒｉｎｇ株式会社,,株式会社,茨城県,つくば市,吾妻１丁目１０番地１センタービル１Ｆ,,08,220,3050031,,,,,,,2024-03-25,1,,,,,ツクバガスエンジニアリング,0
1954,8050003008202,新規,0,2024-03-25,2024-03-25,合同会社ＳＷＩＦＴ　ＲＩＳＩＮＧ,,合同会社,茨城県,日立市,西成沢町２丁目２０番１号１０３号室,,08,202,3160032,,,,,,,2024-03-25,1,,,,,スウィフトライジング,0
1957,8060001036930,新規,0,2024-03-25,2024-03-25,株式会社ナナシュヴァル,,株式会社,栃木県,那須郡那須町,大字高久甲４０４３－１,,09,407,3250001,,,,,,,2024-03-25,1,,,,,ナナシュヴァル,0
1961,8080001026203,新規,0,2024-03-25,2024-03-25,株式会社グラスウォード,,株式会社,静岡県,静岡市清水区,草薙１丁目２６番６号,,22,103,4240886,,,,,,,2024-03-25,1,,,,,グラスウォード,0
1966,8100001037305,新規,0,2024-03-25,2024-03-25,株式会社ＩＭＰＡＣＴＯ,,株式会社,長野県,伊那市,上新田２３１６番地１,,20,209,3960012,,,,,,,2024-03-25,1,,,,,インパクト,0
1971,8110003005333,新規,0,2024-03-25,2024-03-25,合同会社喜八郎,,合同会社,新潟県,上越市,国府１丁目２２番１１号,,15,222,9420082,,,,,,,2024-03-25,1,,,,,キハチロウ,0
1976,8120001263188,新規,0,2024-03-25,2024-03-25,サンリスティール株式会社,,株式会社,大阪府,大阪市西淀川区,福町３丁目３番４９号,,27,113,5550034,,,,,,,2024-03-25,1,,,,,サンリスティール,0
1977,8120001263287,新規,0,2024-03-25,2024-03-25,株式会社Ｒｅｅｃｈｐｏｍ,,株式会社,大阪府,大阪市北区,兎我野町１０番１５号２０１号室,,27,127,5300056,,,,,,,2024-03-25,1,,,,,リーチェポム,0
1978,8120001263345,新規,0,2024-03-25,2024-03-25,株式会社ビーエイト・グリット,,株式会社,大阪府,大阪市中央区,大手通３丁目２番３－７０３号,,27,128,5400021,,,,,,,2024-03-25,1,,,,,ビーエイトグリット,0
1979,8120001263361,新規,0,2024-03-25,2024-03-25,株式会社ボックス,,株式会社,大阪府,大阪市港区,市岡元町２丁目１番６－３０１号,,27,107,5520002,,,,,,,2024-03-25,1,,,,,ボックス,0
1980,8120001263428,新規,0,2024-03-25,2024-03-25,株式会社ＯＭＯＴＥＮＡＳＩ,,株式会社,大阪府,大阪市此花区,西九条１丁目３３番１６号,,27,104,5540012,,,,,,,2024-03-25,1,,,,,オモテナシ,0
1982,8120003026205,新規,0,2024-03-25,2024-03-25,ＦＩＲＳＴ　ＰｉＥＣＥ合同会社,,合同会社,大阪府,大阪市西区,新町４丁目１０－１プラネスーペリア西長堀５０３,,27,106,5500013,,,,,,,2024-03-25,1,,,,,ファーストピース,0
1983,8120101069262,新規,0,2024-03-25,2024-03-25,株式会社イノベーションネクサス,,株式会社,大阪府,堺市堺区,三国ヶ丘御幸通１５４番地（５０４号）,,27,141,5900028,,,,,,,2024-03-25,1,,,,,イノベーションネクサス,0
1992,8130001076639,新規,0,2024-03-25,2024-03-25,楽海株式会社,,株式会社,京都府,京都市下京区,五条通油小路西入北側小泉町１１３－１パティオ林６０２号室,,26,106,6000000,,,,,,,2024-03-25,1,,,,,ラクミ,0
1993,8130005017036,新規,0,2024-03-25,2024-03-25,行政書士法人ＧＲＥＥＮ,,その他の設立登記法人,京都府,福知山市,篠尾新町１丁目７５番地グランコート篠尾新町,,26,201,6200055,,,,,,,2024-03-25,1,,,,,グリーン,0
1997,8140001133711,新規,0,2024-03-25,2024-03-25,エスリール株式会社,,株式会社,兵庫県,西宮市,高木西町８番１－３０３号,,28,204,6638032,,,,,,,2024-03-25,1,,,,,エスリール,0
1998,8140001133744,新規,0,2024-03-25,2024-03-25,１０１株式会社,,株式会社,兵庫県,神戸市中央区,磯辺通１丁目１番１８号,,28,110,6510084,,,,,,,2024-03-25,1,,,,,アンゼロアン,0
1999,8140001133802,新規,0,2024-03-25,2024-03-25,株式会社ＫＥＮプランニング,,株式会社,兵庫県,西宮市,甲子園高潮町６番２５号甲子園ビル２Ｆ,,28,204,6638166,,,,,,,2024-03-25,1,,,,,ケンプランニング,0
2006,8140003020296,新規,0,2024-03-25,2024-03-25,合同会社アクセプル,,合同会社,兵庫県,神戸市西区,井吹台西町８丁目２番地の１プラウドシティ神戸西神南４１０号室,,28,111,6512243,,,,,,,2024-03-25,1,,,,,アクセプル,0
2007,8160001025766,新規,0,2024-03-25,2024-03-25,ＳＦホールディング株式会社,,株式会社,滋賀県,東近江市,青野町４６００番地,,25,213,5270232,,,,,,,2024-03-25,1,,,,,エスエフホールディング,0
2016,8180001160578,新規,0,2024-03-25,2024-03-25,株式会社ＪＡＰＡＮ　ＩＮＶＥＳＴＯＲＳ,,株式会社,愛知県,海部郡飛島村,竹之郷４丁目４３番地,,23,427,4901436,,,,,,,2024-03-25,1,,,,,ジャパンインヴェスターズ,0
2017,8180001160594,新規,0,2024-03-25,2024-03-25,株式会社ＨＯＪＯＲＩＮ,,株式会社,愛知県,愛西市,大野山町余代２５３番地４,,23,232,4968017,,,,,,,2024-03-25,1,,,,,ホジョリン,0
2018,8180001160628,新規,0,2024-03-25,2024-03-25,Ｒｅｌａｘ　ｈｏｍｅ株式会社,,株式会社,愛知県,大府市,森岡町２丁目３８０番地,,23,223,4740038,,,,,,,2024-03-25,1,,,,,リラックスホーム,0
2019,8180001160644,新規,0,2024-03-25,2024-03-25,株式会社ヲワリウェブ,,株式会社,愛知県,一宮市,三条字道東８０番地６,,23,203,4940003,,,,,,,2024-03-25,1,,,,,ヲワリウェブ,0
2020,8180001160660,新規,0,2024-03-25,2024-03-25,株式会社デンコウスタジオ,,株式会社,愛知県,名古屋市中村区,名駅３丁目４番１０号アルティメイト名駅１ｓｔ２階,,23,105,4500002,,,,,,,2024-03-25,1,,,,,デンコウスタジオ,0
2021,8180001160677,新規,0,2024-03-25,2024-03-25,株式会社五八,,株式会社,愛知県,一宮市,北方町北方字勅使２３２番１,,23,203,4938001,,,,,,,2024-03-25,1,,,,,ゴヤ,0
2022,8180001160685,新規,0,2024-03-25,2024-03-25,株式会社ＭＳＣ,,株式会社,愛知県,名古屋市中区,新栄１丁目４３番１２号ＴＨＥＲＥＳＩＤＥＮＣＥＳＨＩＮＳＡＫＡＥ１階,,23,106,4600007,,,,,,,2024-03-25,1,,,,,エムエスシー,0
2023,8180001160710,新規,0,2024-03-25,2024-03-25,株式会社マッシブグループ,,株式会社,愛知県,名古屋市西区,城西５丁目１２番２６号,,23,104,4510031,,,,,,,2024-03-25,1,,,,,マッシブグループ,0
2024,8180001160743,新規,0,2024-03-25,2024-03-25,株式会社ＫＳＫ,,株式会社,愛知県,清須市,西枇杷島町南松原３０番地２タウニー川島１０１,,23,233,4520053,,,,,,,2024-03-25,1,,,,,ケイエスケイ,0
2025,8180001160751,新規,0,2024-03-25,2024-03-25,株式会社加藤塗装,,株式会社,愛知県,名古屋市中区,橘１丁目１１番１号,,23,106,4600016,,,,,,,2024-03-25,1,,,,,カトウトソウ,0
2029,8180003026521,新規,0,2024-03-25,2024-03-25,ＡＢＣｏｌｏｒｆｕｌ合同会社,,合同会社,愛知県,名古屋市中村区,押木田町２丁目１１番地の３,,23,105,4530833,,,,,,,2024-03-25,1,,,,,アブカラフル,0
2033,8180301038433,新規,0,2024-03-25,2024-03-25,アストラル株式会社,,株式会社,愛知県,岡崎市,欠町字足延１番地１,,23,202,4440011,,,,,,,2024-03-25,1,,,,,アストラル,0
2036,8180305009554,新規,0,2024-03-25,2024-03-25,医療法人ゆかりこどもアレルギークリニック,,その他の設立登記法人,愛知県,岡崎市,美合町字つむぎ中６番地１１,,23,202,4440802,,,,,,,2024-03-25,1,,,,,ユカリコドモアレルギークリニック,0
2043,8240001062990,新規,0,2024-03-25,2024-03-25,株式会社ＬＩＭＥ,,株式会社,広島県,広島市安佐南区,山本新町４丁目３４番５号,,34,105,7310139,,,,,,,2024-03-25,1,,,,,ライム,0
2045,8240003006590,新規,0,2024-03-25,2024-03-25,合同会社ＢＡＳ,,合同会社,広島県,福山市,南蔵王町４丁目１７番４０－４０３号,,34,207,7210973,,,,,,,2024-03-25,1,,,,,ビーアンドエス,0
2047,8290001105183,新規,0,2024-03-25,2024-03-25,ＭＥＣＯＳ株式会社,,株式会社,福岡県,福岡市中央区,天神２丁目２番１２号Ｔ＆Ｊビルディング７Ｆ,,40,133,8100001,,,,,,,2024-03-25,1,,,,,ミーコス,0
2048,8290001105209,新規,0,2024-03-25,2024-03-25,株式会社エスワンテクノ,,株式会社,福岡県,福津市,津屋崎５丁目８番１号,,40,224,8113304,,,,,,,2024-03-25,1,,,,,エスワンテクノ,0
2051,8290003015050,新規,0,2024-03-25,2024-03-25,Ｓｈｏｊｉｎ　Ｊａｐａｎ合同会社,,合同会社,福岡県,福岡市博多区,博多駅前２丁目４番１２号,,40,132,8120011,,,,,,,2024-03-25,1,,,,,ショウジンジャパン,0
2052,8290003015100,新規,0,2024-03-25,2024-03-25,ＺＡＯＲＩＫ合同会社,,合同会社,福岡県,福岡市博多区,博多駅前１丁目２３－２パークフロント博多駅前１－５Ｆ－Ｂ,,40,132,8120011,,,,,,,2024-03-25,1,,,,,ザオリク,0
2053,8290003015109,新規,0,2024-03-25,2024-03-25,ＭＳＡ合同会社,,合同会社,福岡県,福岡市博多区,博多駅前１丁目２３番２号ＰａｒｋＦｒｏｎｔ博多駅前１丁目５Ｆ－Ｂ,,40,132,8120011,,,,,,,2024-03-25,1,,,,,エムエスエー,0
2054,8290801030424,新規,0,2024-03-25,2024-03-25,株式会社グリット,,株式会社,福岡県,北九州市小倉北区,東篠崎１丁目１１番５号,,40,106,8020072,,,,,,,2024-03-25,1,,,,,グリット,0
2056,8320001020354,新規,0,2024-03-25,2024-03-25,株式会社Ｆｉｘ,,株式会社,大分県,大分市,松が丘３丁目８番１４号,,44,201,8701168,,,,,,,2024-03-25,1,,,,,フィックス,0
2057,8320001020370,新規,0,2024-03-25,2024-03-25,株式会社大裕,,株式会社,大分県,大分市,上田町１丁目６番１号,,44,201,8700886,,,,,,,2024-03-25,1,,,,,タイユウ,0
2062,8340003004411,新規,0,2024-03-25,2024-03-25,古田建築設計事務所合同会社,,合同会社,鹿児島県,奄美市,名瀬仲勝町１７－１２,,46,222,8940063,,,,,,,2024-03-25,1,,,,,フルタケンチクセッケイジムショ,0
2063,8350001018858,新規,0,2024-03-25,2024-03-25,株式会社ＭＹＡＫＵ,,株式会社,宮崎県,宮崎市,橘通東４丁目１－４河北ビル１Ｆ,,45,201,8800805,,,,,,,2024-03-25,1,,,,,ミャク,0
2065,8360001033385,新規,0,2024-03-25,2024-03-25,株式会社琉球コメダ,,株式会社,沖縄県,島尻郡南風原町,字兼城２６３番地,,47,350,9011111,,,,,,,2024-03-25,1,,,,,リュウキュウコメダ,0
2067,8360003013807,新規,0,2024-03-25,2024-03-25,合同会社ＴＨＥ　ＢＲＵＳＨ　ＵＰ,,合同会社,沖縄県,浦添市,大平２丁目３－８ゴールドキャッスル４０２,,47,208,9012113,,,,,,,2024-03-25,1,,,,,ザブラッシュアップ,0
2068,8360003013831,新規,0,2024-03-25,2024-03-25,合同会社エール,,合同会社,沖縄県,宜野湾市,大山２丁目１４番６－１０１号,,47,205,9012223,,,,,,,2024-03-25,1,,,,,エール,0
2071,8370001051048,新規,0,2024-03-25,2024-03-25,株式会社みかみさかん,,株式会社,宮城県,仙台市青葉区,川内三十人町４９番地の１８９ＨａｒｕＨａｒｕＩＩ２０２,00134174,04,101,9800866,,,,,,,2024-03-25,1,,,,,ミカミサカン,0
2077,8410005006571,新規,0,2024-03-25,2024-03-25,農事組合法人芦ヶ渕ファーム,,その他の設立登記法人,秋田県,由利本荘市,鳥海町栗沢字芦ケ渕５５番地,,05,210,0150503,,,,,,,2024-03-25,1,,,,,アシガフチファーム,0
2085,8430001091335,新規,0,2024-03-25,2024-03-25,株式会社秋葉工業,,株式会社,北海道,札幌市北区,屯田五条１１丁目１３番８号,,01,102,0020855,,,,,,,2024-03-25,1,,,,,アキバコウギョウ,0
2097,8500005008690,新規,0,2024-03-25,2024-03-25,ＮＰＯ法人刀,,その他の設立登記法人,愛媛県,松山市,土居田町５０４番地３,,38,201,7900056,,,,,,,2024-03-25,1,,,,,カタナ,0
2098,8700150048819,新規,0,2024-03-25,2015-10-09,東野開発振興会,,その他,岐阜県,恵那市,東野１３４２番地の１,,21,210,5097202,,,,,,,2015-10-09,1,,,,,ヒガシノカイハツシンコウカイ,0
2109,9010001243290,新規,0,2024-03-25,2024-03-25,株式会社ＲＥＦＩＸ,,株式会社,東京都,千代田区,九段北４丁目１－３５－４０２,,13,101,1020073,,,,,,,2024-03-25,1,,,,,リフィックス,0
2110,9010001243357,新規,0,2024-03-25,2024-03-25,家禾国際投資株式会社,,株式会社,東京都,中央区,湊２丁目１１番１－９１８号,,13,102,1040043,,,,,,,2024-03-25,1,,,,,カカコクサイトウシ,0
2111,9010001243365,新規,0,2024-03-25,2024-03-25,株式会社ＢＥＮＥＳＡＬＯＮ,,株式会社,東京都,中央区,銀座１丁目１２番４号Ｎ＆ＥＢＬＤ６Ｆ,,13,102,1040061,,,,,,,2024-03-25,1,,,,,ベネサロン,0
2112,9010001243398,新規,0,2024-03-25,2024-03-25,ＴｒａｎＳＳ株式会社,,株式会社,東京都,中央区,銀座１丁目１２番４号Ｎ＆ＥＢＬＤ．７階,,13,102,1040061,,,,,,,2024-03-25,1,,,,,トランズ,0
2116,9010005038084,新規,0,2024-03-25,2024-03-25,山佐産業ＷＺＺ一般社団法人,,その他の設立登記法人,東京都,千代田区,丸の内３丁目１番１号東京共同会計事務所内,,13,101,1000005,,,,,,,2024-03-25,1,,,,,ヤマササンギョウダブリューゼットゼット,0
2123,9010401181223,新規,0,2024-03-25,2024-03-25,株式会社ＭＡＲＱＵＥＳＴ,,株式会社,東京都,港区,北青山１丁目３番１号アールキューブ青山３階,,13,103,1070061,,,,,,,2024-03-25,1,,,,,マークエスト,0
2124,9010401181248,新規,0,2024-03-25,2024-03-25,株式会社Ｎｅｗ　Ｘ,,株式会社,東京都,港区,芝浦４丁目２２－１,,13,103,1080023,,,,,,,2024-03-25,1,,,,,ニューエックス,0
2125,9010401181256,新規,0,2024-03-25,2024-03-25,Ｉｒｏｎ　Ｇａｔｅ株式会社,,株式会社,東京都,港区,赤坂９丁目７番２号ミッドタウン・イースト４階,,13,103,1070052,,,,,,,2024-03-25,1,,,,,アイアンゲート,0
2126,9010401181272,新規,0,2024-03-25,2024-03-25,株式会社ＹＵＲＩＦＵＲＩ,,株式会社,東京都,港区,南青山３丁目１番３６号青山丸竹ビル６Ｆ,,13,103,1070062,,,,,,,2024-03-25,1,,,,,ユリフリ,0
2129,9010403032234,新規,0,2024-03-25,2024-03-25,合同会社ＮＫＭヘルスケア,,合同会社,東京都,港区,南麻布３丁目８番１号,,13,103,1060047,,,,,,,2024-03-25,1,,,,,エヌケーエムヘルスケア,0
2130,9010403032242,新規,0,2024-03-25,2024-03-25,ＡＹＣＥ合同会社,,合同会社,東京都,港区,北青山１丁目３番１号アールキューブ青山３階,,13,103,1070061,,,,,,,2024-03-25,1,,,,,エーワイシーイー,0
2140,9010601064896,新規,0,2024-03-25,2024-03-25,株式会社ＴＥＲＭＩＮＡＬ,,株式会社,東京都,江東区,白河４丁目９番２５‐１６０８号,,13,108,1350021,,,,,,,2024-03-25,1,,,,,ターミナル,0
2143,9010801034872,新規,0,2024-03-25,2024-03-25,ＧＧ　Ｍａｒｋｅｔｉｎｇ株式会社,,株式会社,東京都,大田区,山王２丁目５番６号,,13,111,1430023,,,,,,,2024-03-25,1,,,,,ジージーマーケティング,0
2145,9010901054944,新規,0,2024-03-25,2024-03-25,株式会社カラッポ,,株式会社,東京都,世田谷区,尾山台３丁目２３番１２－４０３号,,13,112,1580086,,,,,,,2024-03-25,1,,,,,カラッポ,0
2146,9010901054952,新規,0,2024-03-25,2024-03-25,株式会社Ｔｈｅ　Ｈａｐｐｉｎｅｓｓ　Ｊａｐａｎ,,株式会社,東京都,世田谷区,奥沢７丁目１９番１５号Ｂ３０２,,13,112,1580083,,,,,,,2024-03-25,1,,,,,ザハピネスジャパン,0
2156,9011001160682,新規,0,2024-03-25,2024-03-25,株式会社ティービーエム,,株式会社,東京都,渋谷区,神宮前２丁目３１番１号クーラクー原宿１０４,,13,113,1500001,,,,,,,2024-03-25,1,,,,,ティービーエム,0
2157,9011001160757,新規,0,2024-03-25,2024-03-25,株式会社ネクスコア,,株式会社,東京都,渋谷区,円山町５番５号Ｎａｖｉ渋谷Ｖ３階,,13,113,1500044,,,,,,,2024-03-25,1,,,,,ネクスコア,0
2158,9011001160773,新規,0,2024-03-25,2024-03-25,株式会社万丸,,株式会社,東京都,渋谷区,神宮前６丁目２３番４号桑野ビル２階,,13,113,1500001,,,,,,,2024-03-25,1,,,,,マンマル,0
2159,9011001160798,新規,0,2024-03-25,2024-03-25,Ｋｏｏｌ‐Ａｉｄ株式会社,,株式会社,東京都,渋谷区,笹塚１丁目５８番７号,,13,113,1510073,,,,,,,2024-03-25,1,,,,,クールエイド,0
2160,9011001160864,新規,0,2024-03-25,2024-03-25,株式会社ＳｅｐｈｉｒｏｔｈｉｃＳｙｓｔｅｍ,,株式会社,東京都,渋谷区,渋谷２丁目１９－１５宮益坂ビルディング６０９,,13,113,1500002,,,,,,,2024-03-25,1,,,,,セフィロティックシステム,0
2163,9011003018747,新規,0,2024-03-25,2024-03-25,ＬＵＮＡ合同会社,,合同会社,東京都,目黒区,青葉台４丁目４番１－９０４号ライオンズ青葉台タウンハウス,,13,110,1530042,,,,,,,2024-03-25,1,,,,,ルーナ,0
2164,9011003018788,新規,0,2024-03-25,2024-03-25,合同会社ベルクアツギ,,合同会社,東京都,目黒区,洗足２丁目１６番１９号,,13,110,1520012,,,,,,,2024-03-25,1,,,,,ベルクアツギ,0
2169,9011303005098,新規,0,2024-03-25,2024-03-25,ジャントン合同会社,,合同会社,東京都,杉並区,上高井戸３丁目４番２４号三原荘,,13,115,1680074,,,,,,,2024-03-25,1,,,,,ジャントン,0
2172,9011501030468,新規,0,2024-03-25,2024-03-25,ＮＥＳＴＪＡＰＡＮ株式会社,,株式会社,東京都,北区,浮間３丁目３４－１１－３０１,,13,117,1150051,,,,,,,2024-03-25,1,,,,,ネストジャパン,0
2175,9011701027140,新規,0,2024-03-25,2024-03-25,ヒトテク株式会社,,株式会社,東京都,江戸川区,中央１丁目７番３号,,13,123,1320021,,,,,,,2024-03-25,1,,,,,ヒトテク,0
2176,9011703003783,新規,0,2024-03-25,2024-03-25,オートオーエ合同会社,,合同会社,東京都,江戸川区,西小岩５丁目１５－１１,,13,123,1330057,,,,,,,2024-03-25,1,,,,,オートオーエ,0
2178,9011803006141,新規,0,2024-03-25,2024-03-25,合同会社エーワン商事,,合同会社,東京都,足立区,千住旭町３６－１３,,13,121,1200026,,,,,,,2024-03-25,1,,,,,エーワンショウジ,0
2180,9012401041646,新規,0,2024-03-25,2024-03-25,株式会社天狐,,株式会社,東京都,調布市,布田２丁目９－５－２０５,,13,208,1820024,,,,,,,2024-03-25,1,,,,,テンコ,0
2181,9012801023046,新規,0,2024-03-25,2024-03-25,Ｆｏｒｗａｒｄｓ株式会社,,株式会社,東京都,日野市,東平山２丁目１８番地の４０,,13,212,1910054,,,,,,,2024-03-25,1,,,,,フォワーズ,0
2182,9012805003259,新規,0,2024-03-25,2024-03-25,一般社団法人ゆとろぎ,,その他の設立登記法人,東京都,日野市,三沢２丁目２２番地の１５、２Ｆ,,13,212,1910032,,,,,,,2024-03-25,1,,,,,ユトロギ,0
2183,9013301052254,新規,0,2024-03-25,2024-03-25,株式会社いえまるメンテナンス,,株式会社,東京都,豊島区,西池袋５丁目１２番７号,,13,116,1710021,,,,,,,2024-03-25,1,,,,,イエマルメンテナンス,0
2190,9020001156285,新規,0,2024-03-25,2024-03-25,株式会社マテリウル,,株式会社,神奈川県,横浜市西区,北幸１丁目１１番１号水信ビル７階,,14,103,2200004,,,,,,,2024-03-25,1,,,,,マテリウル,0
2193,9020003025752,新規,0,2024-03-25,2024-03-25,合同会社コハルナウオン,,合同会社,神奈川県,川崎市中原区,市ノ坪１９８番地７,,14,133,2110016,,,,,,,2024-03-25,1,,,,,コハルナウオン,0
2202,9021003014290,新規,0,2024-03-25,2024-03-25,合同会社ｈａｋｕ,,合同会社,神奈川県,秦野市,曽屋５８７１番地の３,,14,211,2570031,,,,,,,2024-03-25,1,,,,,ハク,0
2206,9030001159353,新規,0,2024-03-25,2024-03-25,株式会社ＲＩＳＴＩＡ,,株式会社,埼玉県,川口市,大字赤山９４３番地の６,,11,203,3330825,,,,,,,2024-03-25,1,,,,,リスティア,0
2207,9030001159378,新規,0,2024-03-25,2024-03-25,株式会社Ｆｕｊｉ　Ｌｉｆｔ＆Ｅｓｃａｌａｔｏｒ,,株式会社,埼玉県,川口市,幸町１丁目１２番２３－３１７号,,11,203,3320016,,,,,,,2024-03-25,1,,,,,フジリフトアンドエスカレーター,0
2208,9030001159386,新規,0,2024-03-25,2024-03-25,株式会社ソニックスケープ,,株式会社,埼玉県,所沢市,けやき台２丁目２番地の１,,11,208,3591118,,,,,,,2024-03-25,1,,,,,ソニックスケープ,0
2209,9030001159403,新規,0,2024-03-25,2024-03-25,株式会社ＷＩＮＧ　ＯＶＥＲ,,株式会社,埼玉県,さいたま市緑区,東浦和２丁目３４番地２１,,11,109,3360926,,,,,,,2024-03-25,1,,,,,ウィングオーバー,0
2212,9030003023805,新規,0,2024-03-25,2024-03-25,ＷｅｂＮｅｓｔ　Ｃｒｅａｔｉｏｎｓ合同会社,,合同会社,埼玉県,さいたま市岩槻区,南平野３丁目１番地１８号アップライト２０３号室,,11,110,3390051,,,,,,,2024-03-25,1,,,,,ウェブネストクリエーションズ,0
2213,9030005021600,新規,0,2024-03-25,2024-03-25,特定非営利活動法人子ども支援地域プラットフォーム,,その他の設立登記法人,埼玉県,春日部市,八丁目１４０９番地,,11,214,3440006,,,,,,,2024-03-25,1,,,,,コドモシエンチイキプラットフォーム,0
2223,9040001132788,新規,0,2024-03-25,2024-03-25,Ｅｘｃｅｌａ　Ａｓｓｅｔ　Ｍａｎａｇｅｍｅｎｔ　Ｇｒｏｕｐ株式会社,,株式会社,千葉県,八街市,八街に７２番地６９,,12,230,2891103,,,,,,,2024-03-25,1,,,,,エクセラアセットマネジメントグループ,0
2224,9040001132805,新規,0,2024-03-25,2024-03-25,御伽Ｃｏｎｎｅｃｔ株式会社,,株式会社,千葉県,茂原市,高師町２丁目７番地４,,12,210,2970021,,,,,,,2024-03-25,1,,,,,オトギコネクト,0
2228,9040002105272,新規,0,2024-03-25,2024-03-25,有限会社西川陶業,,有限会社,千葉県,富津市,西川６４番地,,12,226,2930013,,,,,,,2024-03-25,1,,,,,,0
2234,9060001036946,新規,0,2024-03-25,2024-03-25,株式会社大須賀建設,,株式会社,栃木県,那須塩原市,豊浦１０番地８２８,,09,213,3250023,,,,,,,2024-03-25,1,,,,,オオスガケンセツ,0
2237,9060003004991,新規,0,2024-03-25,2024-03-25,Ａ’ｓ合同会社,,合同会社,栃木県,宇都宮市,陽東２丁目１－２ヴィラーチェ１０３,,09,201,3210904,,,,,,,2024-03-25,1,,,,,エース,0
2238,9060005010179,新規,0,2024-03-25,2024-03-25,ヒューマンネットワーク協同組合,,その他の設立登記法人,栃木県,小山市,大字出井１９４４番地１８５,,09,208,3230808,,,,,,,2024-03-25,1,,,,,ヒューマンネットワーク,0
2239,9070001041516,新規,0,2024-03-25,2024-03-25,唐沢工業株式会社,,株式会社,群馬県,伊勢崎市,五目牛町４４番地１０,,10,204,3792213,,,,,,,2024-03-25,1,,,,,カラサワコウギョウ,0
2248,9100002006183,新規,0,2024-03-25,2024-03-25,有限会社戸隠きのこ園,,有限会社,長野県,長野市,戸隠豊岡１０４００番地１８,,20,201,3814102,,,,,,,2024-03-25,1,,,,,,0
2254,9110003005340,新規,0,2024-03-25,2024-03-25,Ｆｉｅｌｄｓｈｏｐ合同会社,,合同会社,新潟県,燕市,吉田浜首町２２番１５号,,15,213,9590248,,,,,,,2024-03-25,1,,,,,フィールドショップ,0
2260,9120001263154,新規,0,2024-03-25,2024-03-25,株式会社源睿,,株式会社,大阪府,大阪市浪速区,桜川３丁目１番３１号３Ｆ,,27,111,5560022,,,,,,,2024-03-25,1,,,,,ゲンエイ,0
2261,9120001263220,新規,0,2024-03-25,2024-03-25,株式会社ノ介,,株式会社,大阪府,大阪市中央区,松屋町４番８号９階,,27,128,5420067,,,,,,,2024-03-25,1,,,,,ノスケ,0
2262,9120001263261,新規,0,2024-03-25,2024-03-25,株式会社西江,,株式会社,大阪府,大阪市中央区,瓦屋町２丁目１２番１５号松屋町グランドハイツ５０２号,,27,128,5420066,,,,,,,2024-03-25,1,,,,,ニシエ,0
2263,9120001263294,新規,0,2024-03-25,2024-03-25,株式会社ＰＲＩＭＡ,,株式会社,大阪府,大阪市北区,万歳町３－３９－２１１０号,,27,127,5300028,,,,,,,2024-03-25,1,,,,,プリマ,0
2264,9120001263369,新規,0,2024-03-25,2024-03-25,Ｃｒｅｓｔｉｚｅ株式会社,,株式会社,大阪府,大阪市北区,梅田１丁目２番２号大阪駅前第２ビル１２－１２,,27,127,5300001,,,,,,,2024-03-25,1,,,,,クレスタイズ,0
2265,9120001263393,新規,0,2024-03-25,2024-03-25,株式会社ＧＬＥＡＭ,,株式会社,大阪府,大阪市福島区,福島３丁目１番５５－１８０１号,,27,103,5530003,,,,,,,2024-03-25,1,,,,,グリーム,0
2268,9120003026088,新規,0,2024-03-25,2024-03-25,Ｅｌｅｇａｎｔ　Ｏｎｅｎｅｓｓ　Ｌｉｆｅ合同会社,,合同会社,大阪府,大阪市此花区,酉島４丁目１番２０－１６０２号,,27,104,5540051,,,,,,,2024-03-25,1,,,,,エレガントワンネスライフ,0
2269,9120003026179,新規,0,2024-03-25,2024-03-25,Ｒａｙｃｅｎｔ合同会社,,合同会社,大阪府,大阪市東住吉区,湯里４丁目４番２０号,,27,121,5460013,,,,,,,2024-03-25,1,,,,,レイセント,0
2270,9120003026187,新規,0,2024-03-25,2024-03-25,ＢＬＵＥ　ＭＯＯＮ　ＢＡＳＥ合同会社,,合同会社,大阪府,大阪市平野区,平野南２丁目８番１３－４０３号,,27,126,5470031,,,,,,,2024-03-25,1,,,,,ブルームーンベース,0
2276,9122001037926,新規,0,2024-03-25,2024-03-25,株式会社ギブユ,,株式会社,大阪府,四條畷市,米崎町２０－２７,,27,229,5750032,,,,,,,2024-03-25,1,,,,,ギブユ,0
2278,9130001076670,新規,0,2024-03-25,2024-03-25,株式会社ディーアンドエフ,,株式会社,京都府,京都市右京区,西京極西池田町４０,,26,108,6150851,,,,,,,2024-03-25,1,,,,,ディーアンドエフ,0
2286,9140001133792,新規,0,2024-03-25,2024-03-25,株式会社ＨＫホーム,,株式会社,兵庫県,加古川市,米田町平津２７番地の２,,28,210,6750054,,,,,,,2024-03-25,1,,,,,,0
2287,9140001133826,新規,0,2024-03-25,2024-03-25,株式会社パネルホールディングス,,株式会社,兵庫県,尼崎市,大西町１丁目７番１３号,,28,202,6610023,,,,,,,2024-03-25,1,,,,,,0
2290,9140003020295,新規,0,2024-03-25,2024-03-25,合同会社鳳鳴朝陽,,合同会社,兵庫県,西宮市,城山１２番３７号,,28,204,6620023,,,,,,,2024-03-25,1,,,,,ホウメイチョウヨウ,0
2291,9140003020312,新規,0,2024-03-25,2024-03-25,合同会社ｂｅ　ｗａｖｅ,,合同会社,兵庫県,神戸市西区,枝吉５丁目１０９番地,,28,111,6512133,,,,,,,2024-03-25,1,,,,,ビーウエーブ,0
2292,9140003020329,新規,0,2024-03-25,2024-03-25,合同会社ＢＲＩＧＨＴ,,合同会社,兵庫県,西宮市,仁川町２丁目３番８号,,28,204,6620811,,,,,,,2024-03-25,1,,,,,ブライト,0
2294,9150005009575,新規,0,2024-03-25,2024-03-25,一般社団法人ａｎｎｕｌｕｓ,,その他の設立登記法人,奈良県,奈良市,月ヶ瀬尾山２３５０番１号,,29,201,6302302,,,,,,,2024-03-25,1,,,,,アニュラス,0
2295,9160001025773,新規,0,2024-03-25,2024-03-25,株式会社ＢＯＳ,,株式会社,滋賀県,高島市,今津町浜分３９５番地１０,,25,212,5201604,,,,,,,2024-03-25,1,,,,,ビーオーエス,0
2297,9170003002010,新規,0,2024-03-25,2024-03-25,合同会社色彩,,合同会社,和歌山県,伊都郡かつらぎ町,大字丁ノ町２３００,,30,341,6497121,,,,,,,2024-03-25,1,,,,,シキサイ,0
2303,9180001160619,新規,0,2024-03-25,2024-03-25,ペイントサービス株式会社,,株式会社,愛知県,名古屋市中村区,名駅１丁目１番地１ＪＰタワー名古屋２１階,,23,105,4500002,,,,,,,2024-03-25,1,,,,,ペイントサービス,0
2304,9180001160643,新規,0,2024-03-25,2024-03-25,ワン・ルミエール株式会社,,株式会社,愛知県,名古屋市中村区,名駅４丁目２４番５号,,23,105,4500002,,,,,,,2024-03-25,1,,,,,ワンルミエール,0
2305,9180001160676,新規,0,2024-03-25,2024-03-25,株式会社ミラテラス,,株式会社,愛知県,半田市,桐ケ丘５丁目１０４番地の２３,,23,205,4750928,,,,,,,2024-03-25,1,,,,,ミラテラス,0
2306,9180001160701,新規,0,2024-03-25,2024-03-25,株式会社エクト東海,,株式会社,愛知県,東海市,荒尾町御幣土１５５番地,,23,222,4760003,,,,,,,2024-03-25,1,,,,,エクトトウカイ,0
2307,9180001160726,新規,0,2024-03-25,2024-03-25,株式会社Ｋ‐ＥＮＧＩＮＥＥＲＩＮＧ,,株式会社,愛知県,知多郡阿久比町,陽なたの丘５丁目１番地２２,,23,441,4702207,,,,,,,2024-03-25,1,,,,,ケイエンジニアリング,0
2308,9180001160734,新規,0,2024-03-25,2024-03-25,株式会社Ｐｌａｉｓｉｒ　Ａｒｃｈｉｔｅｃｔ,,株式会社,愛知県,名古屋市千種区,仲田２丁目１９番１５号,,23,101,4640074,,,,,,,2024-03-25,1,,,,,プレジールアーキテクト,0
2309,9180001160742,新規,0,2024-03-25,2024-03-25,株式会社ジヒロ,,株式会社,愛知県,名古屋市瑞穂区,中根町２丁目８４番地の５,,23,108,4670055,,,,,,,2024-03-25,1,,,,,ジヒロ,0
2312,9180003026520,新規,0,2024-03-25,2024-03-25,合同会社丸石アセットマネジメント,,合同会社,愛知県,名古屋市中区,栄１丁目２番３号,,23,106,4600008,,,,,,,2024-03-25,1,,,,,マルイシアセットマネジメント,0
2313,9180003026529,新規,0,2024-03-25,2024-03-25,ＢＥＬＬＥＦＩＮＥ合同会社,,合同会社,愛知県,名古屋市中村区,名駅南２丁目１１番３７号プレサンス名古屋駅前３０８号,,23,105,4500003,,,,,,,2024-03-25,1,,,,,ベルフィーヌ,0
2314,9180003026537,新規,0,2024-03-25,2024-03-25,中部特殊興業合同会社,,合同会社,愛知県,名古屋市中区,錦３丁目７番５号シャインシグマビル１Ｆ,,23,106,4600003,,,,,,,2024-03-25,1,,,,,チュウブトクシュコウギョウ,0
2315,9180003026553,新規,0,2024-03-25,2024-03-25,合同会社ライノカンパニー,,合同会社,愛知県,長久手市,五合池１６０１―５０１,,23,238,4801156,,,,,,,2024-03-25,1,,,,,ライノカンパニー,0
2320,9200001042310,新規,0,2024-03-25,2024-03-25,ＴＡＢＡＳＡＮ株式会社,,株式会社,岐阜県,各務原市,須衛町５丁目１２７番地３,,21,213,5090108,,,,,,,2024-03-25,1,,,,,タバサン,0
2326,9220003003705,新規,0,2024-03-25,2024-03-25,ＷｅｌｌＳｃａｐｅ合同会社,,合同会社,石川県,小松市,あけぼの町４１番地,,17,203,9230035,,,,,,,2024-03-25,1,,,,,ウェルスケープ,0
2327,9230001020255,新規,0,2024-03-25,2024-03-25,フォーチュネイトリィ株式会社,,株式会社,富山県,射水市,中央町１４番４号,,16,211,9340012,,,,,,,2024-03-25,1,,,,,フォーチュネイトリィ,0
2334,9250003003462,新規,0,2024-03-25,2024-03-25,合同会社ブＰＳＹ,,合同会社,山口県,山口市,大内千坊２丁目１番２５オレンジハイツ,,35,203,7530251,,,,,,,2024-03-25,1,,,,,ブサイ,0
2335,9260003004609,新規,0,2024-03-25,2024-03-25,合同会社プナ３３,,合同会社,岡山県,岡山市北区,下中野７１３番地１０５,,33,101,7000973,,,,,,,2024-03-25,1,,,,,プナサンサン,0
2338,9280005007599,新規,0,2024-03-25,2024-03-25,益田特定地域づくり事業協同組合,,その他の設立登記法人,島根県,益田市,本町４－２０,,32,204,6980005,,,,,,,2024-03-25,1,,,,,,0
2339,9290001105034,新規,0,2024-03-25,2024-03-25,株式会社ＩＢｅＲＩＴＡＳ,,株式会社,福岡県,福岡市中央区,大手門２丁目１番１号,,40,133,8100074,,,,,,,2024-03-25,1,,,,,イベリタス,0
2340,9290001105125,新規,0,2024-03-25,2024-03-25,株式会社ＪＡＭ　ａｎｉｍａｔｉｏｎ　ｓｔｕｄｉｏ,,株式会社,福岡県,福岡市西区,今宿東２丁目１４番２７－１号,,40,135,8190161,,,,,,,2024-03-25,1,,,,,ジャムアニメーションスタジオ,0
2341,9290001105158,新規,0,2024-03-25,2024-03-25,株式会社ＹｏｒｉＳｈｉｒｏ,,株式会社,福岡県,福岡市中央区,春吉１丁目９番１６号,,40,133,8100003,,,,,,,2024-03-25,1,,,,,ヨリシロ,0
2342,9290001105174,新規,0,2024-03-25,2024-03-25,株式会社ＳＩＴＹ,,株式会社,福岡県,福岡市中央区,薬院１丁目７－１８ルリエル薬院２０１,,40,133,8100022,,,,,,,2024-03-25,1,,,,,シティ,0
2343,9290001105190,新規,0,2024-03-25,2024-03-25,株式会社ＥｄＶｅｎｔｕｒｅ,,株式会社,福岡県,福岡市博多区,石城町９番１７－５０５号,,40,132,8120032,,,,,,,2024-03-25,1,,,,,エドベンチャー,0
2344,9290001105199,新規,0,2024-03-25,2024-03-25,ＡＡ株式会社,,株式会社,福岡県,福岡市東区,多の津４丁目７番１１－４０４号,,40,131,8130034,,,,,,,2024-03-25,1,,,,,エーエー,0
2345,9290001105208,新規,0,2024-03-25,2024-03-25,株式会社だいだい,,株式会社,福岡県,飯塚市,平恒３４７番地２,,40,205,8200073,,,,,,,2024-03-25,1,,,,,ダイダイ,0
2348,9290003015066,新規,0,2024-03-25,2024-03-25,ＳＧＯＨ合同会社,,合同会社,福岡県,福岡市中央区,赤坂３丁目１３番３号赤坂Ｓａｎａｓ,,40,133,8100042,,,,,,,2024-03-25,1,,,,,エスゴー,0
2364,9350001018857,新規,0,2024-03-25,2024-03-25,ＮＯＯＮ株式会社,,株式会社,宮崎県,日向市,大字幸脇６０１番地２７,,45,206,8891112,,,,,,,2024-03-25,1,,,,,ヌーン,0
2374,9360001033392,新規,0,2024-03-25,2024-03-25,株式会社ＯＦＣ,,株式会社,沖縄県,那覇市,字古島５０４番地,,47,201,9020061,,,,,,,2024-03-25,1,,,,,オエフシー,0
2376,9360005007005,新規,0,2024-03-25,2024-03-25,ＮＰＯ法人ＬＡＲＧＯ,,その他の設立登記法人,沖縄県,那覇市,牧志２丁目１７番２７－４０１号,,47,201,9000013,,,,,,,2024-03-25,1,,,,,ラルゴ,0
2378,9370001051096,新規,0,2024-03-25,2024-03-25,Ｅｘ’ｓ株式会社,,株式会社,宮城県,仙台市若林区,三百人町２７番地クレールコート４０５,,04,103,9840057,,,,,,,2024-03-25,1,,,,,エクス,0
2390,9410005006570,新規,0,2024-03-25,2024-03-25,農事組合法人栗沢ファーム,,その他の設立登記法人,秋田県,由利本荘市,鳥海町栗沢字牛ケ首３５番地,,05,210,0150503,,,,,,,2024-03-25,1,,,,,クリサワファーム,0
2397,9430001091318,新規,0,2024-03-25,2024-03-25,株式会社ウェルビーイングラボ,,株式会社,北海道,札幌市中央区,南五条西１５丁目２番３－５０３号,,01,101,0640805,,,,,,,2024-03-25,1,,,,,ウェルビーイングラボ,0
2398,9430001091334,新規,0,2024-03-25,2024-03-25,金子電器株式会社,,株式会社,北海道,苫小牧市,字糸井３４３－１０,,01,213,0530814,,,,,,,2024-03-25,1,,,,,カネコデンキ,0
2399,9430001091375,新規,0,2024-03-25,2024-03-25,株式会社ＯＮＣＥ,,株式会社,北海道,札幌市中央区,南四条西５丁目３番３号第二観光会館ビル６階,,01,101,0640804,,,,,,,2024-03-25,1,,,,,ワンス,0
2400,9430001091391,新規,0,2024-03-25,2024-03-25,株式会社ＮＯＲＴＨ　ＦＩＥＬＤＥＲ,,株式会社,北海道,札幌市白石区,北郷２３４６－８４,,01,104,0030849,,,,,,,2024-03-25,1,,,,,ノースフィールダー,0
2405,9430005014935,新規,0,2024-03-25,2024-03-25,苗穂基地労働者協同組合,,その他の設立登記法人,北海道,札幌市中央区,北二条東１１丁目８２－３５　１Ｆ,,01,101,0600032,,,,,,,2024-03-25,1,,,,,ナエボキチ,0
