sequenceNumber,corporateNumber,process,correct,updateDate,changeDate,name,nameImageId,kind,prefectureName,cityName,streetNumber,addressImageId,prefectureCode,cityCode,postCode,addressOutside,addressOutsideImageId,closeDate,closeCause,successorCorporateNumber,changeCause,assignmentDate,latest,enName,enPrefectureName,enCityName,enAddressOutside,furigana,hihyoji
16,1010001225123,新規,0,2022-03-10,2022-03-10,恒遠株式会社,,株式会社,東京都,中央区,勝どき５丁目１２番４－１２０３号,,13,102,1040054,,,,,,,2022-03-10,1,,,,,コウエン,0
24,1010401166165,新規,0,2022-03-10,2022-03-10,株式会社Ｃｈｏｒｉｔｓｕ,,株式会社,東京都,港区,南青山２丁目２番１５号ウィン青山９４２,,13,103,1070062,,,,,,,2022-03-10,1,,,,,チョウリツ,0
26,1010403027266,新規,0,2022-03-10,2022-03-10,神谷町キャピタル・スリーＢ合同会社,,合同会社,東京都,港区,虎ノ門３丁目１８番１２－５０２号株式会社虎ノ門会計神谷町分室内,,13,103,1050001,,,,,,,2022-03-10,1,,,,,カミヤチョウキャピタルスリービー,0
29,1010601060812,新規,0,2022-03-10,2022-03-10,株式会社ジャパン・クリエーション,,株式会社,東京都,墨田区,墨田５丁目２６番１４号,,13,107,1310031,,,,,,,2022-03-10,1,,,,,ジャパンクリエーション,0
32,1010903007214,新規,0,2022-03-10,2022-03-10,合同会社Ｌ＆Ｋインベストメント,,合同会社,東京都,世田谷区,瀬田１丁目２番１７号４０２,,13,112,1580095,,,,,,,2022-03-10,1,,,,,エルアンドケイインベストメント,0
36,1011001146020,新規,0,2022-03-10,2022-03-10,株式会社ＢＴＵＮＥ,,株式会社,東京都,渋谷区,恵比寿１丁目２４番１６－３０４号,,13,113,1500013,,,,,,,2022-03-10,1,,,,,ビチューン,0
37,1011001146185,新規,0,2022-03-10,2022-03-10,株式会社グッドムード,,株式会社,東京都,渋谷区,代々木５丁目６０番１号５Ｆ,,13,113,1510053,,,,,,,2022-03-10,1,,,,,グッドムード,0
38,1011003014349,新規,0,2022-03-10,2022-03-10,Ｍｅｒｒｏｗ合同会社,,合同会社,東京都,目黒区,上目黒２丁目４９番１６－５０１号フレシア中目黒,,13,110,1530051,,,,,,,2022-03-10,1,,,,,メロウ,0
51,1011301027622,新規,0,2022-03-10,2022-03-10,株式会社シュラインファーム,,株式会社,東京都,杉並区,和田３丁目４７番１号,,13,115,1660012,,,,,,,2022-03-10,1,,,,,シュラインファーム,0
65,1011701025110,新規,0,2022-03-10,2022-03-10,株式会社Ｏｎｐｕ,,株式会社,東京都,江戸川区,清新町１丁目１番１－１０２号,,13,123,1340087,,,,,,,2022-03-10,1,,,,,オンプ,0
66,1011801040430,新規,0,2022-03-10,2022-03-10,森川株式会社,,株式会社,東京都,足立区,西新井本町５丁目２番４－２０１号,,13,121,1230845,,,,,,,2022-03-10,1,,,,,モリカワ,0
68,1012401038955,新規,0,2022-03-10,2022-03-10,株式会社ｅｖｅｒｙｄａｙ,,株式会社,東京都,武蔵野市,吉祥寺本町４丁目１８番１２号,,13,203,1800004,,,,,,,2022-03-10,1,,,,,エブリデイ,0
70,1012403005276,新規,0,2022-03-10,2022-03-10,合同会社Ｖｉｓｉｏｎ　Ｗｏｒｋｅｒ,,合同会社,東京都,府中市,多磨町１丁目１０－２６,,13,206,1830002,,,,,,,2022-03-10,1,,,,,ビジョンワーカー,0
71,1012803002724,新規,0,2022-03-10,2022-03-10,ｓｔｏｒｙ合同会社,,合同会社,東京都,立川市,柴崎町３丁目４番８号２階,,13,202,1900023,,,,,,,2022-03-10,1,,,,,ストーリー,0
86,1021001075409,新規,0,2022-03-10,2022-03-10,マリンクラフト株式会社,,株式会社,神奈川県,厚木市,上依知２６６３番地１,,14,212,2430801,,,,,,,2022-03-10,1,,,,,マリンクラフト,0
93,1030001147150,新規,0,2022-03-10,2022-03-10,株式会社小林興業,,株式会社,埼玉県,新座市,東北２丁目２４番２３号,,11,230,3520001,,,,,,,2022-03-10,1,,,,,コバヤシコウギョウ,0
99,1040001122549,新規,0,2022-03-10,2022-03-10,株式会社アド・レジデンス,,株式会社,千葉県,印西市,船尾７８３番地６,,12,231,2701345,,,,,,,2022-03-10,1,,,,,アドレジデンス,0
102,1040003019636,新規,0,2022-03-10,2022-03-10,合同会社アルファデザイン,,合同会社,千葉県,館山市,北条１３９６番地１,,12,205,2940045,,,,,,,2022-03-10,1,,,,,アルファデザイン,0
109,1070001039030,新規,0,2022-03-10,2022-03-10,ＹＵＲＡ　ＴＲＡＤＩＮＧ株式会社,,株式会社,群馬県,太田市,由良町９７３番地１スカイハイツＩＶ－１０１号,00125925,10,205,3730036,,,,,,,2022-03-10,1,,,,,ユラトレーディング,0
112,1080101023131,新規,0,2022-03-10,2022-03-10,株式会社丸井,,株式会社,静岡県,駿東郡小山町,小山１番地の１,,22,344,4101311,,,,,,,2022-03-10,1,,,,,マルイ,0
115,1110003004713,新規,0,2022-03-10,2022-03-10,合同会社ＴＩ・コーポレーション,,合同会社,新潟県,燕市,水道町４丁目１７番６２号,,15,213,9591262,,,,,,,2022-03-10,1,,,,,ティーアイコーポレーション,0
129,1120001244384,新規,0,2022-03-10,2022-03-10,ＳＥＬＨＯＰＥ　Ｉｎｔｅｒｎａｔｉｏｎａｌ株式会社,,株式会社,大阪府,大阪市北区,芝田２丁目８－１共栄ビル３階,,27,127,5300012,,,,,,,2022-03-10,1,,,,,セルホープインターナショナル,0
136,1120101065202,新規,0,2022-03-10,2022-03-10,株式会社イイシゴト,,株式会社,大阪府,和泉市,上代町１１３８番地の３,,27,219,5940011,,,,,,,2022-03-10,1,,,,,イイシゴト,0
141,1122001035656,新規,0,2022-03-10,2022-03-10,株式会社近大ウィズ,,株式会社,大阪府,東大阪市,小若江３丁目４番１号近畿大学７号館,,27,227,5770818,,,,,,,2022-03-10,1,,,,,キンダイウィズ,0
149,1130001071274,新規,0,2022-03-10,2022-03-10,株式会社Ｒｅｌｉｇｉｏｎ,,株式会社,京都府,京都市東山区,八坂新地清本町３５７番地呑太呂ビル５階Ｈ号室,,26,105,6050084,,,,,,,2022-03-10,1,,,,,レリジュン,0
150,1130001071316,新規,0,2022-03-10,2022-03-10,株式会社やわら,,株式会社,京都府,京都市山科区,勧修寺堂田４８番地７,,26,110,6078231,,,,,,,2022-03-10,1,,,,,ヤワラ,0
151,1130001071332,新規,0,2022-03-10,2022-03-10,株式会社ＫＧ,,株式会社,京都府,京都市山科区,椥辻平田町１０５番地,00125924,26,110,6078165,,,,,,,2022-03-10,1,,,,,ケイジー,0
152,1130003007805,新規,0,2022-03-10,2022-03-10,丸忠アーキテクト合同会社,,合同会社,京都府,宇治市,木幡内畑３４番地の１０ユニ宇治マンション５棟３０３号,,26,204,6110002,,,,,,,2022-03-10,1,,,,,マルチュウアーキテクト,0
173,1160005011059,新規,0,2022-03-10,2022-03-10,医療法人杏華会,,その他の設立登記法人,滋賀県,大津市,大江７丁目６番４６号,,25,201,5202141,,,,,,,2022-03-10,1,,,,,アンハナカイ,0
184,1180001150247,新規,0,2022-03-10,2022-03-10,株式会社ＰＵＢＬＩＣ　ＯＮＥ　ＨＤ,,株式会社,愛知県,名古屋市瑞穂区,汐路町３丁目３４番地２,,23,108,4670003,,,,,,,2022-03-10,1,,,,,パブリックワンホールディングス,0
185,1180001150362,新規,0,2022-03-10,2022-03-10,株式会社大林商事,,株式会社,愛知県,江南市,野白町西千丸７３番地１,,23,217,4838203,,,,,,,2022-03-10,1,,,,,オオバヤシショウジ,0
189,1180003023590,新規,0,2022-03-10,2022-03-10,合同会社リンク,,合同会社,愛知県,春日井市,味美上ノ町２０６４番地３,,23,206,4860965,,,,,,,2022-03-10,1,,,,,リンク,0
190,1180003023599,新規,0,2022-03-10,2022-03-10,合同会社ミズイ製作所,,合同会社,愛知県,丹羽郡扶桑町,大字南山名字本郷１４５番地１,,23,362,4800105,,,,,,,2022-03-10,1,,,,,ミズイセイサクショ,0
193,1180301036014,新規,0,2022-03-10,2022-03-10,パネル株式会社,,株式会社,愛知県,豊橋市,駒形町字駒郷１５４番地,,23,201,4418145,,,,,,,2022-03-10,1,,,,,パネル,0
200,1200003005487,新規,0,2022-03-10,2022-03-10,Ｚａｐ　Ｃｏｍｐａｎｙ合同会社,,合同会社,岐阜県,加茂郡富加町,羽生２１３８－２,,21,502,5013303,,,,,,,2022-03-10,1,,,,,ザーピコンパニ,0
201,1220001024735,新規,0,2022-03-10,2022-03-10,株式会社ＴｅｃｈＴｒｕｓｔＯｎｅ,,株式会社,石川県,白山市,若宮２丁目１９番地,,17,210,9240805,,,,,,,2022-03-10,1,,,,,ティクトラストワン,0
210,1240001059449,新規,0,2022-03-10,2022-03-10,岡野製パン株式会社,,株式会社,広島県,福山市,神村町３１２０番地１,,34,207,7290112,,,,,,,2022-03-10,1,,,,,オカノセイパン,0
213,1240003005533,新規,0,2022-03-10,2022-03-10,合同会社ケーエムスタイル,,合同会社,広島県,福山市,神辺町字湯野９３１番地３,,34,207,7202121,,,,,,,2022-03-10,1,,,,,ケーエムスタイル,0
218,1260001036628,新規,0,2022-03-10,2022-03-10,株式会社クローバー,,株式会社,岡山県,岡山市南区,西市２５２－１－２０１,,33,104,7000953,,,,,,,2022-03-10,1,,,,,クローバー,0
220,1260003003840,新規,0,2022-03-10,2022-03-10,合同会社大日本電力,,合同会社,岡山県,岡山市北区,佐山２１０４－１０,,33,101,7011205,,,,,,,2022-03-10,1,,,,,ダイニッポンデンリョク,0
227,1290001096735,新規,0,2022-03-10,2022-03-10,エムテックス株式会社,,株式会社,福岡県,福岡市東区,下原２丁目１６番１号,,40,131,8130002,,,,,,,2022-03-10,1,,,,,エムテックス,0
229,1290003012269,新規,0,2022-03-10,2022-03-10,ＢＯＡＲＦＡＣＴＯＲＹ合同会社,,合同会社,福岡県,福岡市中央区,天神２丁目３番１０号天神パインクレスト７１９号,,40,133,8100001,,,,,,,2022-03-10,1,,,,,ボアファクトリー,0
230,1300003001807,新規,0,2022-03-10,2022-03-10,合同会社アイティＥＮ,,合同会社,佐賀県,佐賀市,八戸２丁目３番１４号,,41,201,8400854,,,,,,,2022-03-10,1,,,,,アイティイーエヌ,0
240,1370005010452,新規,0,2022-03-10,2022-03-10,一般社団法人Ｂｉｒｄ’ｓ‐ｅｙｅ,,その他の設立登記法人,宮城県,仙台市青葉区,五橋２丁目１０番６号,,04,101,9800022,,,,,,,2022-03-10,1,,,,,バーズアイ,0
253,1380003005115,新規,0,2022-03-10,2022-03-10,ＷＡＴＡＮＡＢＥホールディングス合同会社,,合同会社,福島県,二本松市,中町１３１番地,,07,210,9640991,,,,,,,2022-03-10,1,,,,,ワタナベホールディングス,0
257,1400001015807,新規,0,2022-03-10,2022-03-10,株式会社福栄会,,株式会社,岩手県,盛岡市,土淵字北野３０番地３,,03,201,0200144,,,,,,,2022-03-10,1,,,,,,0
258,1400003002910,新規,0,2022-03-10,2022-03-10,フォレストリーはなまき合同会社,,合同会社,岩手県,花巻市,東和町北川目４区１４９番地,,03,205,0280102,,,,,,,2022-03-10,1,,,,,フォレストリーハナマキ,0
261,1430001086110,新規,0,2022-03-10,2022-03-10,北伸ホールディングス株式会社,,株式会社,北海道,砂川市,西一条北２０丁目１番２５号,,01,226,0730161,,,,,,,2022-03-10,1,,,,,ホクシンホールディングス,0
262,1430001086168,新規,0,2022-03-10,2022-03-10,株式会社祝苑,,株式会社,北海道,札幌市北区,北十条西３丁目２３番１号,,01,102,0010010,,,,,,,2022-03-10,1,,,,,シュウエン,0
263,1430001086176,新規,0,2022-03-10,2022-03-10,リングコネクト株式会社,,株式会社,北海道,札幌市東区,北十五条東１４丁目３番１０－１０２号,,01,103,0650015,,,,,,,2022-03-10,1,,,,,リングコネクト,0
264,1430003013698,新規,0,2022-03-10,2022-03-10,合同会社スペースデザイン,,合同会社,北海道,札幌市南区,簾舞二条１丁目５－１８,,01,106,0612262,,,,,,,2022-03-10,1,,,,,スペースデザイン,0
268,1480001011674,新規,0,2022-03-10,2022-03-10,株式会社ＬＩＦ　ＣＲＡＦＴ,,株式会社,徳島県,徳島市,方上町上六拾間２６番地の３,,36,201,7708033,,,,,,,2022-03-10,1,,,,,リフクラフト,0
275,1500003002792,新規,0,2022-03-10,2022-03-10,合同会社沢新一郎,,合同会社,愛媛県,松山市,小栗４丁目３番１２号クリーンハイツ弓立１０１号,,38,201,7900036,,,,,,,2022-03-10,1,,,,,サワシンイチロウ,0
283,2010003037136,新規,0,2022-03-10,2022-03-10,鯨屋不動産合同会社,,合同会社,東京都,中央区,銀座８丁目１５番１０号,,13,102,1040061,,,,,,,2022-03-10,1,,,,,,0
284,2010003037193,新規,0,2022-03-10,2022-03-10,大関鑑定・経営研究所合同会社,,合同会社,東京都,中央区,銀座１丁目２２番１１号銀座大竹ビジデンス２階,,13,102,1040061,,,,,,,2022-03-10,1,,,,,オオゼキカンテイケイエイケンキュウショ,0
285,2010003037227,新規,0,2022-03-10,2022-03-10,合同会社ＰＵＫＵＰＵＫＵ．ＡＫＢ,,合同会社,東京都,千代田区,外神田４丁目２番６号ＡＫＩＢＡ４２６ビル７Ｆ,,13,101,1010021,,,,,,,2022-03-10,1,,,,,プクプクエーケービー,0
292,2010403027265,新規,0,2022-03-10,2022-03-10,神谷町キャピタル・スリーＡ合同会社,,合同会社,東京都,港区,虎ノ門３丁目１８番１２－５０２号株式会社虎ノ門会計神谷町分室内,,13,103,1050001,,,,,,,2022-03-10,1,,,,,カミヤチョウキャピタルスリーエー,0
314,2011001146192,新規,0,2022-03-10,2022-03-10,株式会社ＭＥＥＮ,,株式会社,東京都,渋谷区,渋谷１丁目８番５号,,13,113,1500002,,,,,,,2022-03-10,1,,,,,ミーン,0
315,2011001146201,新規,0,2022-03-10,2022-03-10,株式会社ＲＩＣＣａ,,株式会社,東京都,渋谷区,神宮前５丁目１６番１３号Ｘ４－２Ｆ,,13,113,1500001,,,,,,,2022-03-10,1,,,,,リッカ,0
320,2011101098053,新規,0,2022-03-10,2022-03-10,株式会社ａｒｔ　ｏｆ　ｄａｙｓ,,株式会社,東京都,新宿区,西新宿７丁目７番２６号ワコーレ新宿第一ビル４１０,,13,104,1600023,,,,,,,2022-03-10,1,,,,,アートオブデイズ,0
323,2011403003594,新規,0,2022-03-10,2022-03-10,合同会社Ｖｅｇｅｋ,,合同会社,東京都,板橋区,徳丸１丁目６番１－４１４号,,13,119,1750083,,,,,,,2022-03-10,1,,,,,ベジク,0
337,2012703002419,新規,0,2022-03-10,2022-03-10,ファミーユ・ジェイピー合同会社,,合同会社,東京都,西東京市,柳沢４丁目１番２１号,,13,229,2020022,,,,,,,2022-03-10,1,,,,,ファミーユジェイピー,0
339,2013301048787,新規,0,2022-03-10,2022-03-10,株式会社ＭＯＲＩ　ＰＨＡＲＭＡＣＹ,,株式会社,東京都,豊島区,東池袋３丁目５番７号ユニオンビル８Ｆ,,13,116,1700013,,,,,,,2022-03-10,1,,,,,モリファーマシー,0
350,2020001145609,新規,0,2022-03-10,2022-03-10,株式会社アトランテ,,株式会社,神奈川県,横浜市港北区,大倉山３丁目６０番３－４２０号,,14,109,2220037,,,,,,,2022-03-10,1,,,,,アトランテ,0
352,2020003021428,新規,0,2022-03-10,2022-03-10,合同会社むすび,,合同会社,神奈川県,横浜市港北区,鳥山町８９２番地１６,,14,109,2220035,,,,,,,2022-03-10,1,,,,,ムスビ,0
370,2030001147208,新規,0,2022-03-10,2022-03-10,アールプラント株式会社,,株式会社,埼玉県,さいたま市見沼区,大字蓮沼９８７番地９,,11,104,3370015,,,,,,,2022-03-10,1,,,,,アールプラント,0
382,2050003006418,新規,0,2022-03-10,2022-03-10,合同会社Ｃ．Ａ．Ｒ,,合同会社,茨城県,龍ケ崎市,緑町１００番地緑町テラスＡ棟１０１号室,,08,208,3010832,,,,,,,2022-03-10,1,,,,,シーエーアール,0
386,2110003004712,新規,0,2022-03-10,2022-03-10,合同会社ぎぜむ,,合同会社,新潟県,佐渡市,三瀬川６８７番地,,15,224,9521204,,,,,,,2022-03-10,1,,,,,ギゼム,0
397,2120001244350,新規,0,2022-03-10,2022-03-10,株式会社ＢＵＬ　ＤＥ　ＢＯＩＮ,,株式会社,大阪府,大阪市中央区,安土町１丁目５番７号,,27,128,5410052,,,,,,,2022-03-10,1,,,,,ブルデボイン,0
398,2120001244375,新規,0,2022-03-10,2022-03-10,株式会社ＧＹ,,株式会社,大阪府,大阪市港区,弁天２丁目６番２０号グランドール弁天２０２号室,,27,107,5520007,,,,,,,2022-03-10,1,,,,,ジーワイ,0
399,2120001244400,新規,0,2022-03-10,2022-03-10,株式会社金生組,,株式会社,大阪府,大阪市住吉区,長居西２丁目９－５－１Ｆ,,27,120,5580002,,,,,,,2022-03-10,1,,,,,キンショウグミ,0
419,2130001071323,新規,0,2022-03-10,2022-03-10,俺のレンタルバイク株式会社,,株式会社,京都府,木津川市,加茂町大野内畑３７番地,,26,214,6191142,,,,,,,2022-03-10,1,,,,,オレノレンタルバイク,0
420,2130001071331,新規,0,2022-03-10,2022-03-10,株式会社ＪＩＮ,,株式会社,京都府,京都市左京区,田中飛鳥井町１３６番地,,26,103,6068226,,,,,,,2022-03-10,1,,,,,ジン,0
425,2130003007804,新規,0,2022-03-10,2022-03-10,エイシンエコ・サービス合同会社,,合同会社,京都府,八幡市,男山香呂４番地－Ａ４３－１０３,,26,210,6148377,,,,,,,2022-03-10,1,,,,,エイシンエコサービス,0
429,2140001125219,新規,0,2022-03-10,2022-03-10,株式会社オフィスＭ．Ｍ,,株式会社,兵庫県,姫路市,忍町１７２番地１ワコーレ姫路クロススクエア４０１号,,28,201,6700917,,,,,,,2022-03-10,1,,,,,オフィスエムドットエム,0
432,2140003017439,新規,0,2022-03-10,2022-03-10,合同会社テックス,,合同会社,兵庫県,神戸市須磨区,横尾５丁目１－１－６７－２０３,,28,107,6540131,,,,,,,2022-03-10,1,,,,,テックス,0
434,2150003002638,新規,0,2022-03-10,2022-03-10,合同会社ｆ,,合同会社,奈良県,桜井市,大字金屋３６番地の５,,29,206,6330002,,,,,,,2022-03-10,1,,,,,エフ,0
438,2160005011058,新規,0,2022-03-10,2022-03-10,医療法人智景会,,その他の設立登記法人,滋賀県,大津市,大江７丁目６番４５号,,25,201,5202141,,,,,,,2022-03-10,1,,,,,チケイカイ,0
439,2170001017009,新規,0,2022-03-10,2022-03-10,Ｂｒｉｇｈｔ　Ｈｏｐｅ株式会社,,株式会社,和歌山県,和歌山市,内原６４２番地１４,,30,201,6410013,,,,,,,2022-03-10,1,,,,,ブライトホープ,0
446,2180001150337,新規,0,2022-03-10,2022-03-10,株式会社ＲＫ,,株式会社,愛知県,名古屋市中区,錦２丁目１２番３２号さくらＨｉｌｌｓＮＩＳＨＩＫＩ１１０４号,,23,106,4600003,,,,,,,2022-03-10,1,,,,,アールケイ,0
450,2180005019669,新規,0,2022-03-10,2022-03-10,司法書士法人吉見事務所,,その他の設立登記法人,愛知県,名古屋市千種区,末盛通１丁目１番地弘法屋本店ビル３Ｆ,,23,101,4640821,,,,,,,2022-03-10,1,,,,,ヨシミジムショ,0
453,2190001029209,新規,0,2022-03-10,2022-03-10,株式会社ＷＩＴＨ,,株式会社,三重県,桑名郡木曽岬町,大字見入４１６番地,,24,303,4980802,,,,,,,2022-03-10,1,,,,,ウイズ,0
455,2190003003921,新規,0,2022-03-10,2022-03-10,伊賀ほのぼのファーム合同会社,,合同会社,三重県,伊賀市,山畑５１３６番地の１,,24,216,5191421,,,,,,,2022-03-10,1,,,,,イガホノボノファーム,0
469,2240001059448,新規,0,2022-03-10,2022-03-10,株式会社やま友,,株式会社,広島県,広島市安佐南区,山本４丁目１３番５３号,,34,105,7310137,,,,,,,2022-03-10,1,,,,,ヤマトモ,0
477,2260001036627,新規,0,2022-03-10,2022-03-10,株式会社エフ,,株式会社,岡山県,岡山市北区,奥田１丁目６番１６号,,33,101,7000933,,,,,,,2022-03-10,1,,,,,エフ,0
479,2280003001593,新規,0,2022-03-10,2022-03-10,合同会社煌,,合同会社,島根県,松江市,雑賀町２２１番地２階,,32,201,6900056,,,,,,,2022-03-10,1,,,,,キラメキ,0
484,2290001096651,新規,0,2022-03-10,2022-03-10,ＤＩＳＴ株式会社,,株式会社,福岡県,福岡市博多区,博多駅東１丁目１１番１５号博多駅東口ビル２０３,,40,132,8120013,,,,,,,2022-03-10,1,,,,,ディスト,0
485,2290001096742,新規,0,2022-03-10,2022-03-10,株式会社ＥＭＬ,,株式会社,福岡県,久留米市,六ツ門町７番地２４－１６０５号,,40,203,8300031,,,,,,,2022-03-10,1,,,,,イーエムエル,0
486,2290001096750,新規,0,2022-03-10,2022-03-10,株式会社一喜,,株式会社,福岡県,福岡市博多区,金の隈３丁目２番３－２０８号グランデスカイ空港南,,40,132,8120863,,,,,,,2022-03-10,1,,,,,イッキ,0
489,2290003012268,新規,0,2022-03-10,2022-03-10,ｕｎｋｎｏｗｎ合同会社,,合同会社,福岡県,久留米市,野中町１５１９－９アルファスマート西国分ＩＩ９０１,00125926,40,203,8390862,,,,,,,2022-03-10,1,,,,,アンノウン,0
495,2310003004304,新規,0,2022-03-10,2022-03-10,エス・ブランコ合同会社,,合同会社,長崎県,諫早市,小船越町１５番地５,,42,204,8540062,,,,,,,2022-03-10,1,,,,,,0
523,2420001017767,新規,0,2022-03-10,2022-03-10,クイックサポート株式会社,,株式会社,青森県,青森市,大字油川字大浜１３０番地,,02,201,0380059,,,,,,,2022-03-10,1,,,,,クイックサポート,0
527,2430001086167,新規,0,2022-03-10,2022-03-10,川田住宅設備株式会社,,株式会社,北海道,千歳市,みどり台南３丁目２番１９号,,01,224,0660084,,,,,,,2022-03-10,1,,,,,カワタジュウタクセツビ,0
530,2430003013697,新規,0,2022-03-10,2022-03-10,合同会社ライフサポート,,合同会社,北海道,札幌市南区,簾舞二条１丁目５－１８,,01,106,0612262,,,,,,,2022-03-10,1,,,,,ライフサポート,0
531,2430003013706,新規,0,2022-03-10,2022-03-10,合同会社開智,,合同会社,北海道,札幌市西区,西野五条７丁目１１番１２号,,01,107,0630035,,,,,,,2022-03-10,1,,,,,カイチ,0
537,2500003002791,新規,0,2022-03-10,2022-03-10,しおらいプランニング合同会社,,合同会社,愛媛県,四国中央市,妻鳥町１４５７番地６,,38,213,7990113,,,,,,,2022-03-10,1,,,,,シオライプランニング,0
550,3010003037184,新規,0,2022-03-10,2022-03-10,Ｅａｓｔｅｒｎ　Ｗｉｎｄ　ＪＰ合同会社,,合同会社,東京都,千代田区,神田錦町３丁目７番地２,,13,101,1010054,,,,,,,2022-03-10,1,,,,,イースターンウィンドジェイピー,0
552,3010103001874,新規,0,2022-03-10,2022-03-10,アイダパートナーズ合同会社,,合同会社,東京都,八王子市,明神町４丁目２－１０京王八王子駅前ビル６階,,13,201,1920046,,,,,,,2022-03-10,1,,,,,アイダパートナーズ,0
560,3010401166023,新規,0,2022-03-10,2022-03-10,株式会社ＭＡＣＫＩＮ　ＳＴＯＲＹ　ＨＯＬＤＩＮＧＳ,,株式会社,東京都,港区,赤坂４丁目１３番５号赤坂オフィスハイツ２８１号,,13,103,1070052,,,,,,,2022-03-10,1,,,,,マッキンストーリーホールディングス,0
561,3010401166097,新規,0,2022-03-10,2022-03-10,株式会社常岡,,株式会社,東京都,港区,白金６丁目１６番２０号,,13,103,1080072,,,,,,,2022-03-10,1,,,,,ツネオカ,0
562,3010403027198,新規,0,2022-03-10,2022-03-10,合同会社Ｃａｒｓ,,合同会社,東京都,港区,白金３丁目３番１８号,,13,103,1080072,,,,,,,2022-03-10,1,,,,,カーズ,0
569,3010603009434,新規,0,2022-03-10,2022-03-10,ＡＮＭＩ合同会社,,合同会社,東京都,江東区,亀戸５丁目１３番２号スクエア三報２階Ａ,,13,108,1360071,,,,,,,2022-03-10,1,,,,,アンミー,0
575,3010801032799,新規,0,2022-03-10,2022-03-10,株式会社ｓｐｏｒｔｓｄｅｓｉｇｎ,,株式会社,東京都,大田区,北千束１丁目４－２０Ｇ－ｆｌａｔ３０２,,13,111,1450062,,,,,,,2022-03-10,1,,,,,スポーツデザイン,0
581,3011001146191,新規,0,2022-03-10,2022-03-10,株式会社Ｓ．ｋｕｓｕｎｏｋｉ,,株式会社,東京都,渋谷区,幡ヶ谷３丁目３７番１８号,,13,113,1510072,,,,,,,2022-03-10,1,,,,,エスクスノキ,0
582,3011001146241,新規,0,2022-03-10,2022-03-10,Ｆｏｕｎｄａｔｉｏｎ　Ｐａｒｔｎｅｒｓ　Ｃｏｎｓｕｌｔｉｎｇ株式会社,,株式会社,東京都,渋谷区,猿楽町１４－２８－１１６,,13,113,1500033,,,,,,,2022-03-10,1,,,,,ファウンデーションパートナーズコンサルティング,0
583,3011003014330,新規,0,2022-03-10,2022-03-10,合同会社ＮＳＹＳ,,合同会社,東京都,渋谷区,代々木１丁目２５番５号ＢＩＺＳＭＡＲＴ代々木,,13,113,1510053,,,,,,,2022-03-10,1,,,,,エヌシス,0
591,3011303004312,新規,0,2022-03-10,2022-03-10,合同会社チャオス企画,,合同会社,東京都,杉並区,阿佐谷南３丁目３８番３１号稲葉ビル３０１,,13,115,1660004,,,,,,,2022-03-10,1,,,,,チャオスキカク,0
600,3012401038953,新規,0,2022-03-10,2022-03-10,株式会社ＢｅａｒＲｏｓｅ,,株式会社,東京都,府中市,幸町１丁目７番地の６,,13,206,1830054,,,,,,,2022-03-10,1,,,,,ベアーローズ,0
601,3012405004712,新規,0,2022-03-10,2022-03-10,医療法人社団Ｗｉｔｈ　ａ　Ｓｍｉｌｅ,,その他の設立登記法人,東京都,三鷹市,下連雀３丁目４３番３２号松川ビル２階,,13,204,1810013,,,,,,,2022-03-10,1,,,,,ウィズアスマイル,0
609,3013301048794,新規,0,2022-03-10,2022-03-10,株式会社冷食推進委員会,,株式会社,東京都,豊島区,巣鴨２丁目４番２号,,13,116,1700002,,,,,,,2022-03-10,1,,,,,レイショクスイシンイインカイ,0
616,3020001145491,新規,0,2022-03-10,2022-03-10,大洋物産株式会社,,株式会社,神奈川県,横浜市中区,山下町１５１番地７,,14,104,2310023,,,,,,,2022-03-10,1,,,,,ダイヨウブッサン,0
617,3020001145582,新規,0,2022-03-10,2022-03-10,株式会社東京膝診る研究会,,株式会社,神奈川県,横浜市都筑区,北山田６丁目４３番１３－１０４号,,14,118,2240021,,,,,,,2022-03-10,1,,,,,トウキョウヒザミルケンキュウカイ,0
618,3020001145616,新規,0,2022-03-10,2022-03-10,株式会社ライゼル,,株式会社,神奈川県,横浜市神奈川区,大口通８７－３,,14,102,2210002,,,,,,,2022-03-10,1,,,,,ライゼル,0
620,3020003021443,新規,0,2022-03-10,2022-03-10,合同会社暮楽,,合同会社,神奈川県,横浜市港南区,日野南２丁目２２番２７号,,14,111,2340055,,,,,,,2022-03-10,1,,,,,クレラク,0
641,3030001147181,新規,0,2022-03-10,2022-03-10,みんなの株式会社,,株式会社,埼玉県,川越市,霞ケ関東１丁目３番地２１－２階,,11,201,3501103,,,,,,,2022-03-10,1,,,,,ミンナノ,0
648,3040001122514,新規,0,2022-03-10,2022-03-10,株式会社チープシック,,株式会社,千葉県,市原市,八幡９８９番地メゾン南１階,,12,219,2900062,,,,,,,2022-03-10,1,,,,,チープシック,0
649,3040001122571,新規,0,2022-03-10,2022-03-10,株式会社スターカントリー,,株式会社,千葉県,鎌ケ谷市,南佐津間１４－１８,,12,224,2730133,,,,,,,2022-03-10,1,,,,,スターカントリー,0
659,3050001050771,新規,0,2022-03-10,2022-03-10,株式会社サウザー,,株式会社,茨城県,つくば市,並木３丁目７番地３,,08,220,3050044,,,,,,,2022-03-10,1,,,,,サウザー,0
666,3080101023146,新規,0,2022-03-10,2022-03-10,株式会社ホームパートナーズ,,株式会社,静岡県,沼津市,大岡６３６番地の１アーバンシティ中石田４０５号,,22,203,4100022,,,,,,,2022-03-10,1,,,,,ホームパートナーズ,0
670,3110001036491,新規,0,2022-03-10,2022-03-10,Ｇｒｅｅｎ　Ｒｅｎｏｖａｔｉｏｎ株式会社,,株式会社,新潟県,新潟市中央区,鳥屋野南２丁目１０番２０号桜ハイツ１０１,,15,103,9500950,,,,,,,2022-03-10,1,,,,,グリーンリノベーション,0
691,3120101065200,新規,0,2022-03-10,2022-03-10,ベスティーズ株式会社,,株式会社,大阪府,堺市西区,鳳南町２丁１０７番地１,,27,144,5938325,,,,,,,2022-03-10,1,,,,,ベスティーズ,0
692,3120101065209,新規,0,2022-03-10,2022-03-10,マテックスアドバンスドエンジニアリング株式会社,,株式会社,大阪府,泉南市,りんくう南浜３番３,,27,228,5900535,,,,,,,2022-03-10,1,,,,,マテックスアドバンスドエンジニアリング,0
693,3120103004602,新規,0,2022-03-10,2022-03-10,合同会社ＥＵＲ,,合同会社,大阪府,堺市西区,浜寺船尾町西１丁４番地１５,,27,144,5928342,,,,,,,2022-03-10,1,,,,,イーユーアール,0
696,3122001035638,新規,0,2022-03-10,2022-03-10,ヒロギテック株式会社,,株式会社,大阪府,東大阪市,若江本町１丁目１番５１号,,27,227,5780942,,,,,,,2022-03-10,1,,,,,ヒロギテック,0
703,3130001071322,新規,0,2022-03-10,2022-03-10,株式会社クラマス,,株式会社,京都府,京都市左京区,下鴨松ノ木町７１－２,,26,103,6060816,,,,,,,2022-03-10,1,,,,,クラマス,0
704,3130001071330,新規,0,2022-03-10,2022-03-10,株式会社Ｚｉｒｉ　Ｔｅｃｈｎｏｌｏｇｉｅｓ,,株式会社,京都府,京都市北区,紫竹西高縄町１７番地,,26,101,6038205,,,,,,,2022-03-10,1,,,,,ジリテクノロジーズ,0
722,3180001150286,新規,0,2022-03-10,2022-03-10,株式会社優里,,株式会社,愛知県,名古屋市中区,丸の内３丁目１５－１５,,23,106,4600002,,,,,,,2022-03-10,1,,,,,ユウリ,0
729,3200001039849,新規,0,2022-03-10,2022-03-10,株式会社ＤＥＪＡＶＵ,,株式会社,岐阜県,岐阜市,鷹見町１６－８０３,,21,201,5008821,,,,,,,2022-03-10,1,,,,,デジャブ,0
732,3210001018843,新規,0,2022-03-10,2022-03-10,株式会社ＰＯＯＬ,,株式会社,福井県,福井市,若杉２丁目１２１０番地,,18,201,9188055,,,,,,,2022-03-10,1,,,,,プール,0
738,3240001059447,新規,0,2022-03-10,2022-03-10,株式会社順興国際貿易,,株式会社,広島県,東広島市,西条町助実１６２０番地１,,34,212,7390021,,,,,,,2022-03-10,1,,,,,ジュンコウコクサイボウエキ,0
739,3240003005548,新規,0,2022-03-10,2022-03-10,Ｏｕｒ　Ｐｒｏｊｅｃｔ合同会社,,合同会社,広島県,尾道市,土堂２丁目１０番２４号,,34,205,7220035,,,,,,,2022-03-10,1,,,,,アワープロジェクト,0
741,3260001036626,新規,0,2022-03-10,2022-03-10,ＴＫ・ＣＯＭＰＡＮＹ株式会社,,株式会社,岡山県,倉敷市,船穂町船穂３０９４番地２,,33,202,7100261,,,,,,,2022-03-10,1,,,,,ティーケーカンパニー,0
746,3310001017760,新規,0,2022-03-10,2022-03-10,アルファス株式会社,,株式会社,長崎県,長崎市,岩川町２番１４号５Ｆ,,42,201,8528106,,,,,,,2022-03-10,1,,,,,アルファス,0
747,3310003004303,新規,0,2022-03-10,2022-03-10,ＧＩＡ　ＨＵＮＧ合同会社,,合同会社,長崎県,諫早市,栄田町４５－３７－１０１号,,42,204,8540081,,,,,,,2022-03-10,1,,,,,ジアフーン,0
754,3330003009283,新規,0,2022-03-10,2022-03-10,合同会社ｏｎｅｓｅｌｆ,,合同会社,熊本県,天草市,今釜新町３５４８番地２,,43,215,8630013,,,,,,,2022-03-10,1,,,,,ワンセルフ,0
772,3380001032654,新規,0,2022-03-10,2022-03-10,株式会社ラブアンドライトインスティテュート,,株式会社,福島県,いわき市,錦町中央３丁目１番地の５オリエントコーポ１棟２０１号,,07,204,9748233,,,,,,,2022-03-10,1,,,,,ラブアンドライトインスティテュート,0
781,3420001017766,新規,0,2022-03-10,2022-03-10,株式会社ぷらす,,株式会社,青森県,弘前市,大字栄町３丁目１番地２,,02,202,0368336,,,,,,,2022-03-10,1,,,,,プラス,0
786,3430001086158,新規,0,2022-03-10,2022-03-10,株式会社ネオビオラス,,株式会社,北海道,札幌市中央区,南四条西２３丁目１番１２－１００６号,,01,101,0640804,,,,,,,2022-03-10,1,,,,,ネオビオラス,0
787,3430005014412,新規,0,2022-03-10,2022-03-10,医療法人脳神経よしだクリニック,,その他の設立登記法人,北海道,滝川市,空知町２丁目１０番１５号,,01,225,0730034,,,,,,,2022-03-10,1,,,,,ノウシンケイヨシダクリニック,0
791,3460103001433,新規,0,2022-03-10,2022-03-10,合同会社ｈｉｙｏｓｈｉ．ｓ,,合同会社,北海道,帯広市,西十八条南４丁目５０‐５,,01,207,0800028,,,,,,,2022-03-10,1,,,,,ヒヨシ,0
792,3460305001974,新規,0,2022-03-10,2022-03-10,一般社団法人オホーツク自然教育普及協会,,その他の設立登記法人,北海道,網走郡美幌町,字東二条北４丁目１番地２Ｆ,,01,543,0920052,,,,,,,2022-03-10,1,,,,,オホーツクシゼンキョウイクフキュウキョウカイ,0
797,3480001011672,新規,0,2022-03-10,2022-03-10,未来創造技術研究所株式会社,,株式会社,徳島県,徳島市,助任本町４丁目１９番地の６ＥＮビル２Ｆ,,36,201,7700816,,,,,,,2022-03-10,1,,,,,ミライソウゾウギジュツケンキュウショ,0
799,3700150107190,新規,0,2022-03-10,2022-02-25,鉾田市地域公共交通会議,,その他,茨城県,鉾田市,鉾田１４４４番地１,,08,234,3111517,,,,,,,2022-02-25,1,,,,,ホコタシチイキコウキヨウコウツウカイギ,0
805,4010001225079,新規,0,2022-03-10,2022-03-10,Ｏｒｂｉｔｉｃｓ株式会社,,株式会社,東京都,中央区,日本橋２丁目１４番１号,,13,102,1030027,,,,,,,2022-03-10,1,,,,,オービティクス,0
806,4010001225120,新規,0,2022-03-10,2022-03-10,メタミン株式会社,,株式会社,東京都,中央区,日本橋室町１丁目２番６号日本橋大栄ビル７階,,13,102,1030022,,,,,,,2022-03-10,1,,,,,メタミン,0
807,4010001225129,新規,0,2022-03-10,2022-03-10,日本生命第７回劣後ローン流動化株式会社,,株式会社,東京都,千代田区,丸の内３丁目１番１号東京共同会計事務所内,,13,101,1000005,,,,,,,2022-03-10,1,,,,,ニホンセイメイダイナナカイレツゴローンリュウドウカ,0
808,4010001225153,新規,0,2022-03-10,2022-03-10,株式会社ＴＦＳソリューションズ,,株式会社,東京都,千代田区,六番町４－１１朝日六番町プラザ６０４号,,13,101,1020085,,,,,,,2022-03-10,1,,,,,ティエフエスソリューションズ,0
812,4010003037209,新規,0,2022-03-10,2022-03-10,ＴＬＤファンドマネジメント合同会社,,合同会社,東京都,中央区,日本橋１丁目４番１号,,13,102,1030027,,,,,,,2022-03-10,1,,,,,ティーエルディーファンドマネジメント,0
821,4010401166105,新規,0,2022-03-10,2022-03-10,株式会社ＤＩＯＮＥ,,株式会社,東京都,港区,麻布十番２丁目２０番７号ＢＩＲＴＨ－ＡＺＡＢＵ－ＪＵＢＡＮ,,13,103,1060045,,,,,,,2022-03-10,1,,,,,ディオネ,0
836,4011101098084,新規,0,2022-03-10,2022-03-10,株式会社ｉｍａｇｉｎｅｅｒ　ｎｅｘｕｓ,,株式会社,東京都,新宿区,西新宿２丁目７番１号,,13,104,1600023,,,,,,,2022-03-10,1,,,,,イマジニアネクサス,0
839,4011405002188,新規,0,2022-03-10,2022-03-10,一般社団法人りんごのたね,,その他の設立登記法人,東京都,板橋区,成増２丁目１７番２２号,,13,119,1750094,,,,,,,2022-03-10,1,,,,,リンゴノタネ,0
846,4011801040428,新規,0,2022-03-10,2022-03-10,株式会社レクソル,,株式会社,東京都,足立区,新田３丁目３５番２０－４１８号,,13,121,1230865,,,,,,,2022-03-10,1,,,,,レクソル,0
849,4012401038952,新規,0,2022-03-10,2022-03-10,リワードローブ株式会社,,株式会社,東京都,調布市,多摩川７丁目１９番９７号,,13,208,1820025,,,,,,,2022-03-10,1,,,,,リワードローブ,0
850,4012405004711,新規,0,2022-03-10,2022-03-10,一般社団法人グッド・コモンズ,,その他の設立登記法人,東京都,調布市,佐須町４丁目２４番地３０,,13,208,1820016,,,,,,,2022-03-10,1,,,,,グッドコモンズ,0
858,4013301048785,新規,0,2022-03-10,2022-03-10,ＫＫＢ株式会社,,株式会社,東京都,豊島区,東池袋３丁目１－２メゾンサンシャイン－１１２５号室,,13,116,1700013,,,,,,,2022-03-10,1,,,,,ケーケービー,0
864,4020001145615,新規,0,2022-03-10,2022-03-10,株式会社ＨＲＣ,,株式会社,神奈川県,川崎市幸区,中幸町４丁目２２番地２,,14,132,2120012,,,,,,,2022-03-10,1,,,,,エイチアールシー,0
865,4020003021434,新規,0,2022-03-10,2022-03-10,ａｎｄ　Ｇｅｎｔｈ合同会社,,合同会社,神奈川県,横浜市緑区,鴨居２丁目１９－６,,14,113,2260003,,,,,,,2022-03-10,1,,,,,アンドジェンス,0
874,4030001147206,新規,0,2022-03-10,2022-03-10,株式会社Ｎｅｘｔ　Ｇｅｎｅｒａｔｉｏｎ,,株式会社,埼玉県,さいたま市中央区,大戸５丁目２０番２２号,,11,105,3380012,,,,,,,2022-03-10,1,,,,,ネクストジェネレーション,0
878,4030003018999,新規,0,2022-03-10,2022-03-10,ＡＹＡＴＡ合同会社,,合同会社,埼玉県,さいたま市大宮区,浅間町１丁目１１９ー３０３,,11,103,3300842,,,,,,,2022-03-10,1,,,,,アヤタ,0
886,4040003019633,新規,0,2022-03-10,2022-03-10,合同会社アトム,,合同会社,千葉県,八千代市,八千代台南１丁目３番１７号２階,,12,221,2760033,,,,,,,2022-03-10,1,,,,,アトム,0
893,4050001050762,新規,0,2022-03-10,2022-03-10,Ｂ２Ｌ株式会社,,株式会社,茨城県,つくば市,要３１５番地７８,,08,220,3002622,,,,,,,2022-03-10,1,,,,,ブニエル,0
894,4050001050779,新規,0,2022-03-10,2022-03-10,株式会社ＧＯＬＤＳ,,株式会社,茨城県,常陸太田市,馬場町５２１番地,,08,212,3130004,,,,,,,2022-03-10,1,,,,,ゴールズ,0
896,4050003006424,新規,0,2022-03-10,2022-03-10,合同会社斎藤造園,,合同会社,茨城県,古河市,下大野１６８０,,08,204,3060204,,,,,,,2022-03-10,1,,,,,サイトウゾウエン,0
903,4080003002750,新規,0,2022-03-10,2022-03-10,三達合同会社,,合同会社,静岡県,静岡市清水区,船原１丁目３４９番地の１８,,22,103,4240845,,,,,,,2022-03-10,1,,,,,サンタツ,0
904,4080101023145,新規,0,2022-03-10,2022-03-10,株式会社望月,,株式会社,静岡県,富士市,中之郷１３９４番地の１,,22,210,4213306,,,,,,,2022-03-10,1,,,,,モチヅキ,0
908,4080405007439,新規,0,2022-03-10,2022-03-10,一般社団法人滑川,,その他の設立登記法人,静岡県,掛川市,伊達方５７４番地,,22,213,4360005,,,,,,,2022-03-10,1,,,,,ナメリカワ,0
913,4100003006451,新規,0,2022-03-10,2022-03-10,合同会社デルト,,合同会社,長野県,茅野市,玉川９２７－５２,,20,214,3910011,,,,,,,2022-03-10,1,,,,,デルト,0
914,4110001036490,新規,0,2022-03-10,2022-03-10,株式会社松建オールトレーズ,,株式会社,新潟県,新潟市北区,新崎３７０番地２０,,15,101,9503134,,,,,,,2022-03-10,1,,,,,マツケンオールトレーズ,0
931,4120001244398,新規,0,2022-03-10,2022-03-10,株式会社ＫＩＣホールディングス,,株式会社,大阪府,大阪市中央区,本町３丁目３番８号,,27,128,5410053,,,,,,,2022-03-10,1,,,,,ケイアイシーホールディングス,0
934,4120005022841,新規,0,2022-03-10,2022-03-10,一般社団法人日本ＡＭ協会,,その他の設立登記法人,大阪府,大阪市西区,西本町１丁目１４番１８号,,27,106,5500005,,,,,,,2022-03-10,1,,,,,ニホンエイエムキョウカイ,0
936,4120101065199,新規,0,2022-03-10,2022-03-10,ＹＳＲ株式会社,,株式会社,大阪府,堺市西区,浜寺昭和町５丁６４３番３,,27,144,5928345,,,,,,,2022-03-10,1,,,,,ワイエスアール,0
943,4130001071313,新規,0,2022-03-10,2022-03-10,株式会社ＦＲＥＡＫＳ,,株式会社,京都府,京都市伏見区,下鳥羽澱女町１０７番地,,26,109,6128386,,,,,,,2022-03-10,1,,,,,フリークス,0
944,4130001071321,新規,0,2022-03-10,2022-03-10,株式会社田中商店,,株式会社,京都府,綾部市,位田町田岸４１番地２,,26,203,6230221,,,,,,,2022-03-10,1,,,,,タナカショウテン,0
953,4140001125225,新規,0,2022-03-10,2022-03-10,株式会社ライフスマイル,,株式会社,兵庫県,小野市,小田町１９１０番地の４１２,,28,218,6751301,,,,,,,2022-03-10,1,,,,,ライフスマイル,0
954,4140003017404,新規,0,2022-03-10,2022-03-10,ルミエール合同会社,,合同会社,兵庫県,姫路市,飾磨区加茂３３９番地８,,28,201,6728074,,,,,,,2022-03-10,1,,,,,ルミエール,0
955,4140003017429,新規,0,2022-03-10,2022-03-10,月うさぎ合同会社,,合同会社,兵庫県,川西市,大和西３丁目８番地の１０,,28,217,6660112,,,,,,,2022-03-10,1,,,,,ツキウサギ,0
956,4140003017437,新規,0,2022-03-10,2022-03-10,Ｍｅｉｌｌｌ合同会社,,合同会社,兵庫県,赤穂市,城西町４３番地,,28,212,6780244,,,,,,,2022-03-10,1,,,,,メイル,0
960,4150003002636,新規,0,2022-03-10,2022-03-10,合同会社ワークひまわり,,合同会社,奈良県,橿原市,大久保町４８４番地,,29,205,6340061,,,,,,,2022-03-10,1,,,,,ワークヒマワリ,0
962,4160001024045,新規,0,2022-03-10,2022-03-10,株式会社Ｒ・Ａ・Ｋ,,株式会社,滋賀県,草津市,桜ケ丘３丁目９番１２号,,25,206,5250057,,,,,,,2022-03-10,1,,,,,アールエーケー,0
974,4180001150343,新規,0,2022-03-10,2022-03-10,株式会社ｔａｓｋ－Ｕ,,株式会社,愛知県,北名古屋市,久地野北浦９８番地１,,23,234,4810012,,,,,,,2022-03-10,1,,,,,タスクユー,0
975,4180001150351,新規,0,2022-03-10,2022-03-10,株式会社Ａｍｏｕｒ　ｅｔ　Ｊｏｉｅ,,株式会社,愛知県,長久手市,岩作西浦４５番地２,,23,238,4801103,,,,,,,2022-03-10,1,,,,,アムールエジョア,0
977,4180003023605,新規,0,2022-03-10,2022-03-10,リトル・トリー合同会社,,合同会社,愛知県,春日井市,篠田町３６番地麗乃郷２０３号,,23,206,4860922,,,,,,,2022-03-10,1,,,,,リトルトリー,0
984,4200001039848,新規,0,2022-03-10,2022-03-10,ハル株式会社,,株式会社,岐阜県,岐阜市,手力町１番１号,,21,201,5008236,,,,,,,2022-03-10,1,,,,,ハル,0
999,4240001059454,新規,0,2022-03-10,2022-03-10,株式会社ｏＭｏ,,株式会社,広島県,広島市安佐南区,川内１丁目２７番２号,,34,105,7310102,,,,,,,2022-03-10,1,,,,,オーエムオー,0
1001,4240005015354,新規,0,2022-03-10,2022-03-10,広進協同組合,,その他の設立登記法人,広島県,広島市中区,江波南１丁目３８番１２－２号,,34,101,7300835,,,,,,,2022-03-10,1,,,,,コウシン,0
1013,4290001096740,新規,0,2022-03-10,2022-03-10,株式会社まさごや,,株式会社,福岡県,福岡市東区,大字勝馬２５７－５,,40,131,8110325,,,,,,,2022-03-10,1,,,,,マサゴヤ,0
1014,4290001096749,新規,0,2022-03-10,2022-03-10,株式会社ＰＯＷＥＲ,,株式会社,福岡県,福岡市西区,大字田尻６３５番地３,,40,135,8190383,,,,,,,2022-03-10,1,,,,,パワー,0
1015,4290001096757,新規,0,2022-03-10,2022-03-10,株式会社マナ観光,,株式会社,福岡県,福岡市博多区,中洲２丁目７番２５号丸源３７ビル２階２０３号室,,40,132,8100801,,,,,,,2022-03-10,1,,,,,マナカンコウ,0
1017,4290005018591,新規,0,2022-03-10,2022-03-10,一般社団法人社会問題研究会,,その他の設立登記法人,福岡県,福岡市中央区,警固２丁目１２番１９号アイリス警固ビル,,40,133,8100023,,,,,,,2022-03-10,1,,,,,シャカイモンダイケンキュウカイ,0
1018,4300001012836,新規,0,2022-03-10,2022-03-10,株式会社アニマ,,株式会社,佐賀県,鳥栖市,本鳥栖町６１１番地４,,41,203,8410026,,,,,,,2022-03-10,1,,,,,アニマ,0
1029,4360001030114,新規,0,2022-03-10,2022-03-10,株式会社ＡＱＵＡ,,株式会社,沖縄県,沖縄市,室川２丁目４番１５号,,47,211,9040013,,,,,,,2022-03-10,1,,,,,アクア,0
1033,4370001048312,新規,0,2022-03-10,2022-03-10,株式会社ピクシエイト,,株式会社,宮城県,仙台市青葉区,二日町１７番２１号,,04,101,9800802,,,,,,,2022-03-10,1,,,,,ピクシエイト,0
1035,4370003005617,新規,0,2022-03-10,2022-03-10,仙台さんぽ合同会社,,合同会社,宮城県,仙台市宮城野区,宮城野１丁目５番２８,,04,102,9830045,,,,,,,2022-03-10,1,,,,,センダイサンポ,0
1042,4390003001936,新規,0,2022-03-10,2022-03-10,合同会社Ｋ，ｓ,,合同会社,山形県,山形市,松山３丁目１４番６０号菱ビル１Ｆ,,06,201,9902412,,,,,,,2022-03-10,1,,,,,ケーズ,0
1048,4430001086181,新規,0,2022-03-10,2022-03-10,Ｈ＆Ｃサービス株式会社,,株式会社,北海道,札幌市西区,八軒八条西１丁目３番２０号,,01,107,0630848,,,,,,,2022-03-10,1,,,,,エイチアンドシーサービス,0
1050,4450001013638,新規,0,2022-03-10,2022-03-10,株式会社櫻田工務店,,株式会社,北海道,旭川市,神楽岡三条７丁目１番４号,,01,204,0788313,,,,,,,2022-03-10,1,,,,,サクラダコウムテン,0
1060,4470001018981,新規,0,2022-03-10,2022-03-10,株式会社創都,,株式会社,香川県,三豊市,仁尾町仁尾丁１２９１番地３,,37,208,7691407,,,,,,,2022-03-10,1,,,,,ソウト,0
1061,4470001018998,新規,0,2022-03-10,2022-03-10,株式会社アイエスアイ,,株式会社,香川県,高松市,高松町５２８番地１シャンテル２０１,,37,201,7610104,,,,,,,2022-03-10,1,,,,,アイエスアイ,0
1074,5010105002150,新規,0,2022-03-10,2022-03-10,一般社団法人マルベリーヒルズ,,その他の設立登記法人,東京都,八王子市,暁町１丁目４５番４号,,13,201,1920043,,,,,,,2022-03-10,1,,,,,マルベリーヒルズ,0
1077,5010401166005,新規,0,2022-03-10,2022-03-10,Ｎｉｈｏｎ　Ｚｙｃｕｓ株式会社,,株式会社,東京都,港区,元麻布３丁目１番６号,,13,103,1060046,,,,,,,2022-03-10,1,,,,,ニホンザイカス,0
1078,5010401166013,新規,0,2022-03-10,2022-03-10,株式会社スート,,株式会社,東京都,港区,南青山６丁目３番７号,,13,103,1070062,,,,,,,2022-03-10,1,,,,,スート,0
1079,5010401166104,新規,0,2022-03-10,2022-03-10,株式会社ＳＴホールディングス,,株式会社,東京都,港区,赤坂９丁目６番２６号フォンテ六本木２０１,,13,103,1070052,,,,,,,2022-03-10,1,,,,,エスティホールディングス,0
1093,5011003014329,新規,0,2022-03-10,2022-03-10,合同会社ｃｕｌ,,合同会社,東京都,目黒区,五本木３丁目２７番９－６０２号,,13,110,1530053,,,,,,,2022-03-10,1,,,,,クル,0
1095,5011101098100,新規,0,2022-03-10,2022-03-10,株式会社ビゼック,,株式会社,東京都,新宿区,若葉１丁目６番地１,,13,104,1600011,,,,,,,2022-03-10,1,,,,,ビゼック,0
1101,5011503005100,新規,0,2022-03-10,2022-03-10,合同会社雅,,合同会社,東京都,北区,滝野川５丁目２番２－４０１号アネックスミウラ,,13,117,1140023,,,,,,,2022-03-10,1,,,,,ミヤビ,0
1102,5011601025784,新規,0,2022-03-10,2022-03-10,Ｓａｆｅｉｏ株式会社,,株式会社,東京都,練馬区,小竹町１丁目７７－１３Ｊｓビル,,13,120,1760004,,,,,,,2022-03-10,1,,,,,サッフェイオ,0
1107,5011701025107,新規,0,2022-03-10,2022-03-10,ＨＧ株式会社,,株式会社,東京都,江戸川区,平井５丁目２２－５－２０２,,13,123,1320035,,,,,,,2022-03-10,1,,,,,エイチジー,0
1110,5011801040435,新規,0,2022-03-10,2022-03-10,株式会社キリン堂,,株式会社,東京都,足立区,神明南２丁目１０番２５号,,13,121,1210057,,,,,,,2022-03-10,1,,,,,キリンドウ,0
1113,5012805003097,新規,0,2022-03-10,2022-03-10,医療法人社団舜成会,,その他の設立登記法人,東京都,立川市,羽衣町２丁目４９番７号,,13,202,1900021,,,,,,,2022-03-10,1,,,,,シュンセイカイ,0
1117,5013301048792,新規,0,2022-03-10,2022-03-10,株式会社プレプラント,,株式会社,東京都,豊島区,東池袋１丁目２８番１号タクトＴ・Ｏビルグローリア初穂８０７,,13,116,1700013,,,,,,,2022-03-10,1,,,,,プレプラント,0
1119,5013305003315,新規,0,2022-03-10,2022-03-10,医療法人社団ＴＳＯＣ,,その他の設立登記法人,東京都,豊島区,上池袋４丁目２９番９号ＫＩＴＡＩＫＥＴＥＲＲＡＣＥ２階,,13,116,1700012,,,,,,,2022-03-10,1,,,,,ティーエスオーシー,0
1130,5020001145606,新規,0,2022-03-10,2022-03-10,恒豊株式会社,,株式会社,神奈川県,川崎市川崎区,砂子２丁目１０番７号,,14,131,2100006,,,,,,,2022-03-10,1,,,,,コウホウ,0
1139,5030001147130,新規,0,2022-03-10,2022-03-10,株式会社ＯＦＡ,,株式会社,埼玉県,さいたま市浦和区,上木崎７丁目１１番２３号ライオンズマンション浦和西高前５０１号室,,11,107,3300071,,,,,,,2022-03-10,1,,,,,オーエフエー,0
1140,5030001147196,新規,0,2022-03-10,2022-03-10,株式会社ＳＴＡＲ興業,,株式会社,埼玉県,さいたま市南区,文蔵５丁目９番１８号,,11,108,3360025,,,,,,,2022-03-10,1,,,,,スターコウギョウ,0
1145,5040001122479,新規,0,2022-03-10,2022-03-10,株式会社三興ベンディング,,株式会社,千葉県,習志野市,茜浜１丁目１１番１０号,,12,216,2750024,,,,,,,2022-03-10,1,,,,,サンコウベンディング,0
1146,5040001122504,新規,0,2022-03-10,2022-03-10,パロンキャピタル株式会社,,株式会社,千葉県,千葉市美浜区,ひび野２丁目１番１号,,12,106,2610021,,,,,,,2022-03-10,1,,,,,パロンキャピタル,0
1149,5040003019649,新規,0,2022-03-10,2022-03-10,合同会社ＴＨＱ,,合同会社,千葉県,松戸市,松戸１１４９番地２階Ｆ０５区画,,12,207,2710092,,,,,,,2022-03-10,1,,,,,ティーエイチキュー,0
1150,5040003019657,新規,0,2022-03-10,2022-03-10,合同会社ＨＩｉＲＯ,,合同会社,千葉県,八千代市,上高野１１７７番地２２,,12,221,2760022,,,,,,,2022-03-10,1,,,,,ヒイロ,0
1155,5050001050753,新規,0,2022-03-10,2022-03-10,株式会社ＹＳＫ,,株式会社,茨城県,常総市,大塚戸町２９４３番地１３,,08,211,3030045,,,,,,,2022-03-10,1,,,,,ワイエスケー,0
1156,5050001050761,新規,0,2022-03-10,2022-03-10,株式会社こよみ,,株式会社,茨城県,小美玉市,上吉影４５７,,08,236,3113403,,,,,,,2022-03-10,1,,,,,,0
1158,5050003006423,新規,0,2022-03-10,2022-03-10,ハスティインターナショナル合同会社,,合同会社,茨城県,龍ケ崎市,佐貫３丁目１０番８コーポ西１０１号室,,08,208,3010032,,,,,,,2022-03-10,1,,,,,ハスティインターナショナル,0
1162,5080405007438,新規,0,2022-03-10,2022-03-10,Ｃ‐Ｌｏｔ協同組合,,その他の設立登記法人,静岡県,湖西市,吉美３２５７番コサイグリーンビルＡ棟１Ｈ号室,,22,221,4310441,,,,,,,2022-03-10,1,,,,,シーロット,0
1164,5100003006442,新規,0,2022-03-10,2022-03-10,合同会社ＳｔａｒＥａｒｔｈ,,合同会社,長野県,安曇野市,穂高有明７８７８番地３,,20,220,3998301,,,,,,,2022-03-10,1,,,,,スターアース,0
1165,5100003006450,新規,0,2022-03-10,2022-03-10,レインボー商店合同会社,,合同会社,長野県,安曇野市,堀金三田３２５８－２,,20,220,3998212,,,,,,,2022-03-10,1,,,,,レインボーショウテン,0
1166,5100005012835,新規,0,2022-03-10,2022-03-10,一般社団法人手袋衛生協会,,その他の設立登記法人,長野県,上伊那郡辰野町,大字平出２０００番地１,,20,382,3990422,,,,,,,2022-03-10,1,,,,,テブクロエイセイキョウカイ,0
1178,5120001244158,新規,0,2022-03-10,2022-03-10,恒顔株式会社,,株式会社,大阪府,大阪市中央区,松屋町９番２０号ローレルステート松屋町８０４Ａ,,27,128,5420067,,,,,,,2022-03-10,1,,,,,ツネカオ,0
1180,5120003021266,新規,0,2022-03-10,2022-03-10,合同会社志づき倉庫,,合同会社,大阪府,大阪市中央区,上汐２丁目２番１２号,,27,128,5420064,,,,,,,2022-03-10,1,,,,,シヅキソウコ,0
1186,5130001071262,新規,0,2022-03-10,2022-03-10,株式会社ｉｎｏｒｉｅ,,株式会社,京都府,京都市伏見区,深草綿森町２１番地パデシオン深草６０６号,,26,109,6120022,,,,,,,2022-03-10,1,,,,,イノリエ,0
1187,5130001071279,新規,0,2022-03-10,2022-03-10,株式会社イミラボ,,株式会社,京都府,京都市左京区,吉田本町３６番地１京都大学国際科学イノベーション棟西館１階１０４号室ベンチャーインキュベーションセンター内,,26,103,6068317,,,,,,,2022-03-10,1,,,,,イミラボ,0
1188,5130001071304,新規,0,2022-03-10,2022-03-10,株式会社ＫｙｏｔｏＳｏｌｕｔｉｏｎＷｏｒｋｓ,,株式会社,京都府,相楽郡精華町,光台１丁目７番地けいはんなプラザラボ棟,,26,366,6190237,,,,,,,2022-03-10,1,,,,,キョウトソリューションワークス,0
1189,5130001071312,新規,0,2022-03-10,2022-03-10,翔陽株式会社,,株式会社,京都府,宇治市,羽拍子町５６番地の３３,,26,204,6110027,,,,,,,2022-03-10,1,,,,,ショウヨウ,0
1197,5140001125190,新規,0,2022-03-10,2022-03-10,株式会社ｍｉｓｔｙ,,株式会社,兵庫県,明石市,旭が丘８番２２号,,28,203,6730002,,,,,,,2022-03-10,1,,,,,ミスティ,0
1198,5140001125224,新規,0,2022-03-10,2022-03-10,株式会社丸福,00125934,株式会社,兵庫県,神戸市須磨区,大手町３丁目１番１１号,,28,107,6540013,,,,,,,2022-03-10,1,,,,,マルフク,0
1201,5140003017444,新規,0,2022-03-10,2022-03-10,Ｎ設計合同会社,,合同会社,兵庫県,相生市,陸本町５番５号,,28,208,6780007,,,,,,,2022-03-10,1,,,,,エヌセッケイ,0
1207,5150003002635,新規,0,2022-03-10,2022-03-10,合同会社ひまわりの郷,,合同会社,奈良県,橿原市,大久保町４８４番地,,29,205,6340061,,,,,,,2022-03-10,1,,,,,ヒマワリノサト,0
1210,5160001024044,新規,0,2022-03-10,2022-03-10,ＡＮＡＸ　Ｏｐｔｉｃｓ株式会社,,株式会社,滋賀県,大津市,朝日２丁目１番地８,,25,201,5200533,,,,,,,2022-03-10,1,,,,,エーナックスオプティクス,0
1213,5180001150350,新規,0,2022-03-10,2022-03-10,株式会社ＥＤＯ　ＳＹＳＴＥＭ,,株式会社,愛知県,春日井市,味美上ノ町２１５７番地３,,23,206,4860965,,,,,,,2022-03-10,1,,,,,エドシステム,0
1236,5240001059453,新規,0,2022-03-10,2022-03-10,株式会社フィールドワン,,株式会社,広島県,広島市東区,牛田本町１丁目１０番３７－７０１号,,34,102,7320066,,,,,,,2022-03-10,1,,,,,フィールドワン,0
1244,5260003003837,新規,0,2022-03-10,2022-03-10,合同会社Ｌｉａｎｄ,,合同会社,岡山県,岡山市北区,柳町２丁目１１－２０ダイレクトビル２Ｆ,,33,101,7000904,,,,,,,2022-03-10,1,,,,,リアンド,0
1251,5290001096756,新規,0,2022-03-10,2022-03-10,株式会社Ｔｅｔｏｔｅ,,株式会社,福岡県,福岡市博多区,寿町３丁目３番１３－１３０５号,,40,132,8120884,,,,,,,2022-03-10,1,,,,,テトテ,0
1254,5290005018590,新規,0,2022-03-10,2022-03-10,協同組合ＷＯＲＫＳ　ＪＡＰＡＮ,,その他の設立登記法人,福岡県,福岡市博多区,大井２丁目８番１６号,,40,132,8120001,,,,,,,2022-03-10,1,,,,,ワークスジャパン,0
1258,5320001018954,新規,0,2022-03-10,2022-03-10,Ｙａｍａｉｄｅ　Ａｒｔ　Ｏｆｆｉｃｅ株式会社,,株式会社,大分県,別府市,北浜２丁目１番１８号,,44,202,8740920,,,,,,,2022-03-10,1,,,,,ヤマイデアートオフィス,0
1262,5330003009281,新規,0,2022-03-10,2022-03-10,Ｋ＆Ｊ合同会社,,合同会社,熊本県,山鹿市,山鹿２７３－２,,43,208,8610501,,,,,,,2022-03-10,1,,,,,ケイアンドジェイ,0
1264,5340001024562,新規,0,2022-03-10,2022-03-10,株式会社田野四草,,株式会社,鹿児島県,鹿屋市,上野町５７４番地１,,46,203,8930056,,,,,,,2022-03-10,1,,,,,タノシソウ,0
1272,5380001032652,新規,0,2022-03-10,2022-03-10,株式会社Ｌｉｆｅ’ｓ,,株式会社,福島県,郡山市,並木５丁目８番１９号,,07,203,9638026,,,,,,,2022-03-10,1,,,,,ライフズ,0
1290,5430003013686,新規,0,2022-03-10,2022-03-10,合同会社サツエイ,,合同会社,北海道,苫小牧市,栄町２丁目５番１７号,,01,213,0530017,,,,,,,2022-03-10,1,,,,,サツエイ,0
1291,5430003013703,新規,0,2022-03-10,2022-03-10,合同会社Ｓｃｈｅｍａｓａｕｎａ,,合同会社,北海道,札幌市中央区,南三条西７丁目６番タヌキスクエア１Ｆ,,01,101,0600063,,,,,,,2022-03-10,1,,,,,スキマサウナ,0
1292,5430005014410,新規,0,2022-03-10,2022-03-10,医療法人アントン矯正歯科クリニック,,その他の設立登記法人,北海道,札幌市北区,北七条西５丁目７番１号札幌北スカイビル１５階,,01,102,0600807,,,,,,,2022-03-10,1,,,,,アントンキョウセイシカクリニック,0
1295,5470001018997,新規,0,2022-03-10,2022-03-10,株式会社クレドプラス,,株式会社,香川県,高松市,西の丸町１１番１０号,,37,201,7600021,,,,,,,2022-03-10,1,,,,,クレドプラス,0
1296,5470003002149,新規,0,2022-03-10,2022-03-10,合同会社Ｂｒｅｉｎ配送サービス,,合同会社,香川県,高松市,三谷町７１１－１２,,37,201,7610450,,,,,,,2022-03-10,1,,,,,ブレインハイソウサービス,0
1299,5700150107164,新規,0,2022-03-10,2022-02-22,美波のＳＯＲＡ,,その他,徳島県,海部郡美波町,西の地字西地６－７,,36,387,7792103,,,,,,,2022-02-22,1,,,,,ミナミノソラ,0
1300,5700150107338,新規,0,2022-03-10,2022-03-10,豊岡市田結区,,その他,兵庫県,豊岡市,田結１７９９,,28,209,6696125,,,,,,,2022-03-10,1,,,,,トヨオカシタイク,0
1309,6010001225102,新規,0,2022-03-10,2022-03-10,株式会社ひねりや,,株式会社,東京都,中央区,銀座１丁目２３番８号平凡商事音響ビル１Ｆ,,13,102,1040061,,,,,,,2022-03-10,1,,,,,ヒネリヤ,0
1310,6010001225127,新規,0,2022-03-10,2022-03-10,ＵＮＩＴ　Ｌｏｇｉｓｔｉｃｓ　Ｊａｐａｎ株式会社,,株式会社,東京都,中央区,日本橋人形町１丁目７番９号,,13,102,1030013,,,,,,,2022-03-10,1,,,,,ユニットロジスティックスジャパン,0
1313,6010003037173,新規,0,2022-03-10,2022-03-10,ビューティスジャパン合同会社,,合同会社,東京都,文京区,西片２丁目２５番８－３０１号,,13,105,1130024,,,,,,,2022-03-10,1,,,,,ビューティスジャパン,0
1319,6010401165848,新規,0,2022-03-10,2022-03-10,鮨なかむら株式会社,,株式会社,東京都,港区,西新橋３丁目１４番８号パークリュクス虎ノ門９０３,,13,103,1050003,,,,,,,2022-03-10,1,,,,,スシナカムラ,0
1320,6010401166128,新規,0,2022-03-10,2022-03-10,株式会社テクノベーション,,株式会社,東京都,港区,南青山２丁目２番１５号,,13,103,1070062,,,,,,,2022-03-10,1,,,,,テクノベーション,0
1322,6010405020784,新規,0,2022-03-10,2022-03-10,医療法人社団慶朋会,,その他の設立登記法人,東京都,港区,三田１丁目４番２８号三田国際ビル３階,,13,103,1080073,,,,,,,2022-03-10,1,,,,,ケイホウカイ,0
1323,6010503006529,新規,0,2022-03-10,2022-03-10,あじぷら合同会社,,合同会社,東京都,台東区,谷中３丁目２２番８号,,13,106,1100001,,,,,,,2022-03-10,1,,,,,アジプラ,0
1324,6010701042342,新規,0,2022-03-10,2022-03-10,株式会社ＶＡＬＯＲＥ,,株式会社,東京都,品川区,西五反田２丁目１８番３号,,13,109,1410031,,,,,,,2022-03-10,1,,,,,ヴァローレ,0
1325,6010705003332,新規,0,2022-03-10,2022-03-10,一般社団法人ＬＩＴＴＬＥ　ＡＲＴＩＳＴＳ　ＬＥＡＧＵＥ,,その他の設立登記法人,東京都,品川区,西品川１丁目２４番５号,,13,109,1410033,,,,,,,2022-03-10,1,,,,,リトルアーティストリーグ,0
1326,6010801032796,新規,0,2022-03-10,2022-03-10,悦達株式会社,,株式会社,東京都,大田区,矢口１丁目１６－１９コスモビルＩＩ－３１０号室,00125923,13,111,1460093,,,,,,,2022-03-10,1,,,,,エツタツ,0
1328,6010901050491,新規,0,2022-03-10,2022-03-10,株式会社エムファースト,,株式会社,東京都,世田谷区,奥沢２丁目３７番１５号,,13,112,1580083,,,,,,,2022-03-10,1,,,,,エムファースト,0
1334,6011001146172,新規,0,2022-03-10,2022-03-10,Ｍｕｇｕｅｔ　Ｄｅｓｓｉｎｅｒ株式会社,,株式会社,東京都,渋谷区,渋谷２丁目１９番１５号宮益坂ビルディング６０９,,13,113,1500002,,,,,,,2022-03-10,1,,,,,ミュゲデスィネ,0
1344,6011201023691,新規,0,2022-03-10,2022-03-10,株式会社なかのチャレンジャーズ,,株式会社,東京都,中野区,江原町１丁目２８番１０号,,13,114,1650023,,,,,,,2022-03-10,1,,,,,ナカノチャレンジャーズ,0
1355,6013301048783,新規,0,2022-03-10,2022-03-10,ガーディアン保証株式会社,,株式会社,東京都,豊島区,目白４丁目１番１１号,,13,116,1710031,,,,,,,2022-03-10,1,,,,,ガーディアンホショウ,0
1363,6020001145605,新規,0,2022-03-10,2022-03-10,株式会社ハピランド,,株式会社,神奈川県,横浜市青葉区,あかね台２丁目１番地２７,,14,117,2270066,,,,,,,2022-03-10,1,,,,,ハピランド,0
1368,6021001032660,新規,0,2022-03-10,2022-03-10,株式会社ゴルフパーク・いこいの森,,株式会社,神奈川県,小田原市,荻窪１９７０番地,,14,206,2500042,,,,,,,2022-03-10,1,,,,,ゴルフパークイコイノモリ,0
1371,6021001075379,新規,0,2022-03-10,2022-03-10,株式会社ウィンコレクトリー,,株式会社,神奈川県,平塚市,大神２５４５番地,,14,203,2540012,,,,,,,2022-03-10,1,,,,,ウィンコレクトリー,0
1388,6030001147229,新規,0,2022-03-10,2022-03-10,株式会社ＫＲＥＥＴ,,株式会社,埼玉県,戸田市,大字新曽２４２９－１ヴィラ・ボヌール２０２号,,11,224,3350021,,,,,,,2022-03-10,1,,,,,クリート,0
1399,6040001122569,新規,0,2022-03-10,2022-03-10,株式会社プロクリ,,株式会社,千葉県,船橋市,咲が丘３丁目１９－１３,,12,204,2740807,,,,,,,2022-03-10,1,,,,,プロクリ,0
1402,6050001050744,新規,0,2022-03-10,2022-03-10,株式会社ＵＭＥＨＡＲＡホールディングス,,株式会社,茨城県,常陸太田市,小目町５１７番地,,08,212,3130033,,,,,,,2022-03-10,1,,,,,ウメハラホールディングス,0
1407,6070001039034,新規,0,2022-03-10,2022-03-10,株式会社Ｙ・コーポレーション,,株式会社,群馬県,高崎市,上室田町２４２６－１,,10,202,3703346,,,,,,,2022-03-10,1,,,,,ワイコーポレーション,0
1421,6100005012834,新規,0,2022-03-10,2022-03-10,特定非営利活動法人北アルプス自転車協議会,,その他の設立登記法人,長野県,北安曇郡白馬村,大字北城５５９５番地３,,20,485,3999301,,,,,,,2022-03-10,1,,,,,キタアルプス,0
1436,6120001244347,新規,0,2022-03-10,2022-03-10,株式会社サークル,,株式会社,大阪府,大阪市東淀川区,下新庄３丁目８－３２,,27,114,5330021,,,,,,,2022-03-10,1,,,,,サークル,0
1437,6120001244388,新規,0,2022-03-10,2022-03-10,株式会社Ｌａｕｌｅ’ａ,,株式会社,大阪府,寝屋川市,成田東町２４番１１－２号,,27,215,5720001,,,,,,,2022-03-10,1,,,,,ラウレア,0
1445,6120003021265,新規,0,2022-03-10,2022-03-10,ＥＸＣＥＰＴＩＯＮ合同会社,,合同会社,大阪府,大阪市中央区,高津３丁目３番３４－８０１号,,27,128,5420072,,,,,,,2022-03-10,1,,,,,エクセプション,0
1458,6130001071212,新規,0,2022-03-10,2022-03-10,株式会社光悦自動車教習所,,株式会社,京都府,京都市北区,大宮玄琢南町２５番地,,26,101,6038463,,,,,,,2022-03-10,1,,,,,コウエツジドウシャキョウシュウジョ,0
1459,6130001071303,新規,0,2022-03-10,2022-03-10,株式会社アテナスクラブ,,株式会社,京都府,京都市東山区,大和大路通四条下る四丁目小松町５６４番地１７,,26,105,6050000,,,,,,,2022-03-10,1,,,,,アテナスクラブ,0
1467,6140003017435,新規,0,2022-03-10,2022-03-10,神戸会計サポート合同会社,,合同会社,兵庫県,神戸市中央区,元町通５丁目４番３－７０１号,,28,110,6500022,,,,,,,2022-03-10,1,,,,,コウベカイケイサポート,0
1468,6150003002634,新規,0,2022-03-10,2022-03-10,合同会社ひまわり福祉会,,合同会社,奈良県,橿原市,大久保町４８４番地,,29,205,6340061,,,,,,,2022-03-10,1,,,,,ヒマワリフクシカイ,0
1480,6180003023586,新規,0,2022-03-10,2022-03-10,合同会社ＴＩＭＥ　ＩＳ　ＬＩＦＥ,,合同会社,愛知県,春日井市,旭町２丁目８番地２,,23,206,4860929,,,,,,,2022-03-10,1,,,,,タイムイズライフ,0
1481,6180005019673,新規,0,2022-03-10,2022-03-10,医療法人弘賢,,その他の設立登記法人,愛知県,春日井市,高蔵寺町３丁目２番地１１ＰＲＩＭＡ高蔵寺１階,,23,206,4870013,,,,,,,2022-03-10,1,,,,,コウケン,0
1486,6200001039846,新規,0,2022-03-10,2022-03-10,ＳＥＩＩ株式会社,,株式会社,岐阜県,瑞浪市,土岐町７９４番地１,,21,208,5096101,,,,,,,2022-03-10,1,,,,,セイイ,0
1496,6240001059452,新規,0,2022-03-10,2022-03-10,株式会社バルコムニューグロウス,,株式会社,広島県,広島市安佐南区,中筋３丁目８番１０号,,34,105,7310122,,,,,,,2022-03-10,1,,,,,バルコムニューグロウス,0
1519,6310001017758,新規,0,2022-03-10,2022-03-10,株式会社正龍,,株式会社,長崎県,佐世保市,小佐々町田原６９番地３４,,42,202,8570404,,,,,,,2022-03-10,1,,,,,マサタツ,0
1524,6320001018953,新規,0,2022-03-10,2022-03-10,穴井電設株式会社,,株式会社,大分県,大分市,畑中１丁目４番５５号,,44,201,8700856,,,,,,,2022-03-10,1,,,,,アナイデンセツ,0
1529,6370001048302,新規,0,2022-03-10,2022-03-10,株式会社兵藤電機,,株式会社,宮城県,仙台市宮城野区,岩切字畑中２６番地の４兵藤住宅１,,04,102,9830821,,,,,,,2022-03-10,1,,,,,ヒョウドウデンキ,0
1555,6430001086171,新規,0,2022-03-10,2022-03-10,株式会社ココスタージャパン,,株式会社,北海道,札幌市豊平区,平岸六条１３丁目３番８号,,01,105,0620936,,,,,,,2022-03-10,1,,,,,ココスタージャパン,0
1562,6490001010134,新規,0,2022-03-10,2022-03-10,高知軌道株式会社,,株式会社,高知県,高知市,一宮南町１丁目１４番７号２,,39,201,7818135,,,,,,,2022-03-10,1,,,,,コウチキドウ,0
1564,6700150107130,新規,0,2022-03-10,2022-02-18,ライフピア柏フィオーレ管理組合,,その他,千葉県,柏市,旭町１丁目７－１,,12,217,2770852,,,,,,,2022-02-18,1,,,,,ライフピアカシワフイオーレカンリクミアイ,0
1576,7010001225134,新規,0,2022-03-10,2022-03-10,株式会社永善堂画廊,,株式会社,東京都,中央区,銀座６丁目４番７号１１階,,13,102,1040061,,,,,,,2022-03-10,1,,,,,エイゼンドウガロウ,0
1577,7010001225159,新規,0,2022-03-10,2022-03-10,株式会社アロウズ,,株式会社,東京都,文京区,千駄木１丁目２２番１号,,13,105,1130022,,,,,,,2022-03-10,1,,,,,アロウズ,0
1591,7010403027260,新規,0,2022-03-10,2022-03-10,ザクロテクノロジーコンサルティング合同会社,,合同会社,東京都,港区,港南２丁目１２番１９－９０４号,,13,103,1080075,,,,,,,2022-03-10,1,,,,,ザクロテクノロジーコンサルティング,0
1596,7010601060724,新規,0,2022-03-10,2022-03-10,ＮＤＲ　Ｍｅｄｉｃａｌ　Ｔｅｃｈｎｏｌｏｇｙ　Ｊａｐａｎ株式会社,,株式会社,東京都,墨田区,横川１丁目１６番３号,,13,107,1300003,,,,,,,2022-03-10,1,,,,,エヌディーアールメディカルテクノロジージャパン,0
1601,7010801032795,新規,0,2022-03-10,2022-03-10,株式会社シュタットヴィラバーゼス,,株式会社,東京都,大田区,大森西６丁目１５番９号３Ｆ,,13,111,1430015,,,,,,,2022-03-10,1,,,,,シュタットヴィラバーゼス,0
1602,7010803004090,新規,0,2022-03-10,2022-03-10,合同会社Ｔ＆Ｉホールディングス,,合同会社,東京都,大田区,西六郷２丁目４６－３,,13,111,1440056,,,,,,,2022-03-10,1,,,,,ティアンドアイホールディングス,0
1608,7010901050499,新規,0,2022-03-10,2022-03-10,株式会社プレニチュード,,株式会社,東京都,世田谷区,太子堂４丁目１番１号キャロットタワー,,13,112,1540004,,,,,,,2022-03-10,1,,,,,プレニチュード,0
1616,7011001146155,新規,0,2022-03-10,2022-03-10,株式会社レキシントン,,株式会社,東京都,渋谷区,恵比寿南１丁目１６番３号,,13,113,1500022,,,,,,,2022-03-10,1,,,,,レキシントン,0
1617,7011001146196,新規,0,2022-03-10,2022-03-10,株式会社ＦＥＢＲＵＡＲＹ．,,株式会社,東京都,渋谷区,桜丘町１７番１２号渋谷ジョンソンビル４０１,,13,113,1500031,,,,,,,2022-03-10,1,,,,,フェブラリー,0
1619,7011005009481,新規,0,2022-03-10,2022-03-10,医療法人社団オーバル,,その他の設立登記法人,東京都,目黒区,上目黒２丁目１５番１４号ＩＲＯＮＳＩＤＥＮＡＫＡМＥＧＵＲＯ５階,,13,110,1530051,,,,,,,2022-03-10,1,,,,,オーバル,0
1621,7011101098057,新規,0,2022-03-10,2022-03-10,株式会社アーチ,,株式会社,東京都,新宿区,西新宿３丁目９番３号,,13,104,1600023,,,,,,,2022-03-10,1,,,,,アーチ,0
1622,7011101098098,新規,0,2022-03-10,2022-03-10,ＲＥ‐Ｓｏｕｌ株式会社,,株式会社,東京都,新宿区,北新宿２丁目２－２５令和新宿レジデンス２Ｆ,,13,104,1690074,,,,,,,2022-03-10,1,,,,,リソウル,0
1623,7011301027617,新規,0,2022-03-10,2022-03-10,一城建設株式会社,,株式会社,東京都,杉並区,和田１丁目１１番５号メゾン富士２０５,,13,115,1660012,,,,,,,2022-03-10,1,,,,,イチジョウケンセツ,0
1629,7011805003155,新規,0,2022-03-10,2022-03-10,医療法人社団啓晴会,,その他の設立登記法人,東京都,足立区,栗原３丁目１番４号エスポワールＫＩＪＩＭＡ１号室,,13,121,1230842,,,,,,,2022-03-10,1,,,,,ケイセイカイ,0
1631,7012801021448,新規,0,2022-03-10,2022-03-10,株式会社プティメゾン,,株式会社,東京都,立川市,一番町３丁目２９番地の２８,,13,202,1900033,,,,,,,2022-03-10,1,,,,,プティメゾン,0
1641,7020001145612,新規,0,2022-03-10,2022-03-10,ラウレアシッピング株式会社,,株式会社,神奈川県,横浜市中区,海岸通４丁目１７番地,,14,104,2310002,,,,,,,2022-03-10,1,,,,,ラウレアシッピング,0
1646,7021001075386,新規,0,2022-03-10,2022-03-10,株式会社ＮＦＳ,,株式会社,神奈川県,相模原市南区,上鶴間３丁目２６番２１号,,14,153,2520302,,,,,,,2022-03-10,1,,,,,エヌエフエス,0
1651,7030001147161,新規,0,2022-03-10,2022-03-10,株式会社三寅商店,,株式会社,埼玉県,戸田市,大字新曽１９９７番地の３ＬａＶｅｒｔ北戸田９０７号室,,11,224,3350021,,,,,,,2022-03-10,1,,,,,サントラショウテンンサン,0
1670,7070001039033,新規,0,2022-03-10,2022-03-10,ファームパワー株式会社,,株式会社,群馬県,前橋市,問屋町１丁目１番１号,,10,201,3710855,,,,,,,2022-03-10,1,,,,,ファームパワー,0
1677,7100001035144,新規,0,2022-03-10,2022-03-10,株式会社ライフサポート,,株式会社,長野県,大町市,平２８１１－６－２Ｆ,,20,212,3980001,,,,,,,2022-03-10,1,,,,,ライフサポート,0
1679,7100003006449,新規,0,2022-03-10,2022-03-10,合同会社まるごと,,合同会社,長野県,東御市,本海野１６５０番地,,20,219,3890518,,,,,,,2022-03-10,1,,,,,マルゴト,0
1699,7120001244362,新規,0,2022-03-10,2022-03-10,３６５ＪＡＰＡＮ株式会社,,株式会社,大阪府,大阪市中央区,南船場１丁目１２番３号,,27,128,5420081,,,,,,,2022-03-10,1,,,,,サンロクゴジャパン,0
1704,7120003021256,新規,0,2022-03-10,2022-03-10,合同会社みらいラボ,,合同会社,大阪府,交野市,天野が原町２丁目３７－９,,27,230,5760034,,,,,,,2022-03-10,1,,,,,ミライラボ,0
1705,7120003021264,新規,0,2022-03-10,2022-03-10,合同会社Ｅ．Ｍ．Ｃ,,合同会社,大阪府,大阪市中央区,高津１丁目１０－１５シュトラール高津１００２,,27,128,5420072,,,,,,,2022-03-10,1,,,,,イーエムシー,0
1708,7120005022822,新規,0,2022-03-10,2022-03-10,弁護士法人アスト,,その他の設立登記法人,大阪府,大阪市北区,西天満４丁目７番１号北ビル１号館３０３号室,,27,127,5300047,,,,,,,2022-03-10,1,,,,,アスト,0
1713,7120901045711,新規,0,2022-03-10,2022-03-10,株式会社Ｍ＆Ｒ,,株式会社,大阪府,池田市,渋谷１丁目１１番１－４０２号,,27,204,5630028,,,,,,,2022-03-10,1,,,,,エムアンドアール,0
1724,7130001071319,新規,0,2022-03-10,2022-03-10,株式会社ｆｌｏｗ,,株式会社,京都府,京都市下京区,新町通花屋町上る艮町８４８,,26,106,6008304,,,,,,,2022-03-10,1,,,,,フロー,0
1731,7140001125222,新規,0,2022-03-10,2022-03-10,株式会社ウッドティンプル,,株式会社,兵庫県,神戸市垂水区,本多聞２丁目１２番３０号－１０５,,28,108,6550006,,,,,,,2022-03-10,1,,,,,ウッドティンプル,0
1732,7140003017434,新規,0,2022-03-10,2022-03-10,合同会社Ｓｅｍｐｅｒ　Ｆｏｒｔｕｎａ,,合同会社,兵庫県,神戸市中央区,中山手通１丁目２２番２３号藤正ファインクラフト２０３,,28,110,6500004,,,,,,,2022-03-10,1,,,,,センペルフォルトゥナ,0
1733,7140003017442,新規,0,2022-03-10,2022-03-10,合同会社ＨＩＭＡＷＡＲＩ,,合同会社,兵庫県,尼崎市,口田中１丁目２１番１－３０４号,,28,202,6610983,,,,,,,2022-03-10,1,,,,,ヒマワリ,0
1743,7180001150225,新規,0,2022-03-10,2022-03-10,株式会社キチＤＥＳＩＧＮＯＦＦＩＣＥ,,株式会社,愛知県,半田市,花園町１丁目１８番地の１８,,23,205,4750833,,,,,,,2022-03-10,1,,,,,キチデザインオフィス,0
1744,7180001150332,新規,0,2022-03-10,2022-03-10,株式会社丸金不動産,,株式会社,愛知県,名古屋市中区,栄２丁目７番１３号ヴィア白川１００１,,23,106,4600008,,,,,,,2022-03-10,1,,,,,マルキンフドウサン,0
1745,7180001150340,新規,0,2022-03-10,2022-03-10,株式会社三矢,,株式会社,愛知県,名古屋市南区,呼続元町２１番３号,,23,112,4570011,,,,,,,2022-03-10,1,,,,,ミツヤ,0
1746,7180001150349,新規,0,2022-03-10,2022-03-10,株式会社ＫＳＫホールディングス,,株式会社,愛知県,名古屋市千種区,月ケ丘２丁目１番１７号,,23,101,4640043,,,,,,,2022-03-10,1,,,,,ケイエスケイホールディングス,0
1749,7180003023577,新規,0,2022-03-10,2022-03-10,大岩プランニング合同会社,,合同会社,愛知県,長久手市,仏が根８０８番地,,23,238,4801177,,,,,,,2022-03-10,1,,,,,オオイワプランニング,0
1750,7180003023602,新規,0,2022-03-10,2022-03-10,合同会社ミスターアウトバウンド,,合同会社,愛知県,日進市,藤島町長塚２２－７,,23,230,4700102,,,,,,,2022-03-10,1,,,,,ミスターアウトバウンド,0
1753,7180301036017,新規,0,2022-03-10,2022-03-10,株式会社美寛,,株式会社,愛知県,安城市,古井町揚リ登２６番地１ワールドワン２０２,,23,212,4460025,,,,,,,2022-03-10,1,,,,,ミヒロ,0
1754,7180303005275,新規,0,2022-03-10,2022-03-10,合同会社早川,,合同会社,愛知県,刈谷市,泉田町向畑１７番地１,,23,210,4480004,,,,,,,2022-03-10,1,,,,,ハヤカワ,0
1757,7210003001471,新規,0,2022-03-10,2022-03-10,Ｓｐａａａｃｅ合同会社,,合同会社,福井県,敦賀市,三島町２丁目６番１８号,,18,202,9140058,,,,,,,2022-03-10,1,,,,,スペース,0
1758,7220001024738,新規,0,2022-03-10,2022-03-10,株式会社Ａ．Ｔ．Ｐ．Ｓ．,,株式会社,石川県,金沢市,福久町ロ１１７番地２,,17,201,9203122,,,,,,,2022-03-10,1,,,,,エーティーピーエス,0
1765,7240001059451,新規,0,2022-03-10,2022-03-10,株式会社ＭｅｔｓＪａｐａｎ,,株式会社,広島県,広島市西区,小河内町２丁目２０－５－１００２,,34,104,7330025,,,,,,,2022-03-10,1,,,,,メッツジャパン,0
1772,7250003003019,新規,0,2022-03-10,2022-03-10,なかむら合同会社,,合同会社,山口県,下関市,武久町１丁目３２番１８号,,35,201,7510833,,,,,,,2022-03-10,1,,,,,ナカムラ,0
1777,7270002011359,新規,0,2022-03-10,2022-03-10,有限会社ダイモン商事,,有限会社,鳥取県,鳥取市,末広温泉町３６１番地,,31,201,6800833,,,,,,,2022-03-10,1,,,,,ダイモンショウジ,0
1782,7290005018589,新規,0,2022-03-10,2022-03-10,一般社団法人グローバルマインドヨガ協会,,その他の設立登記法人,福岡県,八女市,本町３７０番地２,,40,210,8340031,,,,,,,2022-03-10,1,,,,,グローバルマインドヨガキョウカイ,0
1784,7300003001801,新規,0,2022-03-10,2022-03-10,ｄｉｇｉｋｏｗｏｒｋｓ合同会社,,合同会社,佐賀県,伊万里市,東山代町里１１５８－１,,41,205,8494282,,,,,,,2022-03-10,1,,,,,デジコワークス,0
1786,7310001017757,新規,0,2022-03-10,2022-03-10,株式会社中山,,株式会社,長崎県,東彼杵郡川棚町,中山郷１２７３番地１１,,42,322,8593611,,,,,,,2022-03-10,1,,,,,ナカヤマ,0
1809,7430001086187,新規,0,2022-03-10,2022-03-10,株式会社後志リテール,,株式会社,北海道,小樽市,入船４丁目７番２号,,01,203,0470021,,,,,,,2022-03-10,1,,,,,シリベシリテール,0
1810,7430003013692,新規,0,2022-03-10,2022-03-10,合同会社Ｍａｍｅｚｏ　Ｆｅｅｄ,,合同会社,北海道,夕張郡長沼町,東５線南７番地,,01,428,0691455,,,,,,,2022-03-10,1,,,,,マメゾーフィード,0
1811,7430005014409,新規,0,2022-03-10,2022-03-10,特定非営利活動法人アート・ウイズ・ライト臨床美術,,その他の設立登記法人,北海道,札幌市豊平区,平岸四条７丁目１２番１０号Ｙ’ｓ　ＣＩＴＹ　ＢＬＤ２階,,01,105,0620934,,,,,,,2022-03-10,1,,,,,アートウイズライトリンショウビジュツ,0
1815,7480003001800,新規,0,2022-03-10,2022-03-10,合同会社ＲＩＢＯＲＮ,,合同会社,徳島県,名西郡石井町,石井字石井２０３番地３,,36,341,7793233,,,,,,,2022-03-10,1,,,,,リボーン,0
1816,7500001024057,新規,0,2022-03-10,2022-03-10,株式会社Ｍ,,株式会社,愛媛県,松山市,石手１丁目４番２４号,,38,201,7900852,,,,,,,2022-03-10,1,,,,,エム,0
1817,7700150107154,新規,0,2022-03-10,2022-02-22,日本木質構造用ねじ工業会,,その他,大阪府,東大阪市,森河内西１丁目６－３０若井ホールディングス株式会社内,,27,227,5770061,,,,,,,2022-02-22,1,,,,,ニホンモクシツコウゾウヨウネジコウギヨウカイ,0
1826,8010001225141,新規,0,2022-03-10,2022-03-10,ＥＯＯホールディングス株式会社,,株式会社,東京都,千代田区,永田町１丁目１１番３０号サウスヒル永田町５階,,13,101,1000014,,,,,,,2022-03-10,1,,,,,イーオーオーホールディングス,0
1827,8010001225158,新規,0,2022-03-10,2022-03-10,株式会社ビオレッテ,,株式会社,東京都,中央区,新川２丁目１３番１１号内田ビル４階,,13,102,1040033,,,,,,,2022-03-10,1,,,,,ビオレッテ,0
1830,8010003037188,新規,0,2022-03-10,2022-03-10,合同会社あんばいＬＢ３号,,合同会社,東京都,千代田区,霞が関３丁目２番５号,,13,101,1000013,,,,,,,2022-03-10,1,,,,,アンバイエルビーサンゴウ,0
1839,8010401166002,新規,0,2022-03-10,2022-03-10,株式会社スリーセブン,,株式会社,東京都,港区,南青山２丁目２番１５号ウィン青山９４２,,13,103,1070062,,,,,,,2022-03-10,1,,,,,スリーセブン,0
1840,8010401166076,新規,0,2022-03-10,2022-03-10,株式会社ＦＡＲ　ＥＡＳＴ　ＳＩＣＫＨＥＡＤＳ,,株式会社,東京都,港区,南麻布１丁目７番２４号,,13,103,1060047,,,,,,,2022-03-10,1,,,,,ファーイーストシックヘッズ,0
1841,8010403027227,新規,0,2022-03-10,2022-03-10,Ｗｅｌｌ‐ｂｅｉｎｇ　Ｓｏｃｉｅｔｙ合同会社,,合同会社,東京都,港区,虎ノ門１丁目１７－１虎ノ門ヒルズビジネスタワー１５階,,13,103,1050001,,,,,,,2022-03-10,1,,,,,ウェルビーングソサエティ,0
1842,8010405020799,新規,0,2022-03-10,2022-03-10,一般社団法人神谷町キャピタル・スリー,,その他の設立登記法人,東京都,港区,虎ノ門３丁目１８番１２－５０２号株式会社虎ノ門会計神谷町分室内,,13,103,1050001,,,,,,,2022-03-10,1,,,,,カミヤチョウキャピタルスリー,0
1850,8010903007216,新規,0,2022-03-10,2022-03-10,合同会社ニューエイト,,合同会社,東京都,世田谷区,経堂１丁目１１－１３プレステージ経堂Ｂ１階,,13,112,1560052,,,,,,,2022-03-10,1,,,,,ニューエイト,0
1859,8011001146022,新規,0,2022-03-10,2022-03-10,株式会社ｔｉｋ‐ｍａ,,株式会社,東京都,渋谷区,恵比寿１丁目２１番８号,,13,113,1500013,,,,,,,2022-03-10,1,,,,,ティックマ,0
1860,8011001146063,新規,0,2022-03-10,2022-03-10,株式会社いちふく,,株式会社,東京都,渋谷区,神宮前２丁目２－３９－１１０７,,13,113,1500001,,,,,,,2022-03-10,1,,,,,イチフク,0
1861,8011001146146,新規,0,2022-03-10,2022-03-10,Ｎｅｐｓｔｏｎｅ　Ｍｅｔａ　Ｊａｐａｎ株式会社,,株式会社,東京都,渋谷区,渋谷２丁目２１番１号渋谷ヒカリエ３３Ｆ,,13,113,1500002,,,,,,,2022-03-10,1,,,,,ネプストーンメタジャパン,0
1862,8011001146179,新規,0,2022-03-10,2022-03-10,株式会社ＢＥＶＡＲＹ,,株式会社,東京都,目黒区,柿の木坂１丁目２２番６号,,13,110,1520022,,,,,,,2022-03-10,1,,,,,ビバリー,0
1863,8011001146195,新規,0,2022-03-10,2022-03-10,弥生リサーチ＆コンサルティング株式会社,,株式会社,東京都,目黒区,上目黒２丁目４４番１０－５０２号,,13,110,1530051,,,,,,,2022-03-10,1,,,,,ヤヨイリサーチアンドコンサルティング,0
1866,8011101098015,新規,0,2022-03-10,2022-03-10,株式会社レスポス,,株式会社,東京都,新宿区,西新宿１丁目２０－３,,13,104,1600023,,,,,,,2022-03-10,1,,,,,レスポス,0
1867,8011101098089,新規,0,2022-03-10,2022-03-10,株式会社ロッテベンチャーズ・ジャパン,,株式会社,東京都,新宿区,西新宿３丁目２０番１号,,13,104,1600023,,,,,,,2022-03-10,1,,,,,ロッテベンチャーズジャパン,0
1868,8011103011545,新規,0,2022-03-10,2022-03-10,Ｏｒｂｉｃ　Ｊａｐａｎ合同会社,,合同会社,東京都,新宿区,西新宿７丁目４番３号,,13,104,1600023,,,,,,,2022-03-10,1,,,,,オルビックジャパン,0
1871,8011203003756,新規,0,2022-03-10,2022-03-10,合同会社Ｏｆｆ,,合同会社,東京都,中野区,中野３丁目４７－１１,,13,114,1640001,,,,,,,2022-03-10,1,,,,,オフ,0
1874,8011301027616,新規,0,2022-03-10,2022-03-10,株式会社百錬剛,,株式会社,東京都,杉並区,成田西２丁目１９番２２号,,13,115,1660016,,,,,,,2022-03-10,1,,,,,ヒャクレンゴウ,0
1879,8011801040432,新規,0,2022-03-10,2022-03-10,株式会社Ｔ　ＲＥＬＯＣＡＴＩＯＮ,,株式会社,東京都,足立区,保木間５丁目２番１０号,,13,121,1210064,,,,,,,2022-03-10,1,,,,,ティーリロケーション,0
1883,8011805003154,新規,0,2022-03-10,2022-03-10,医療法人社団恵羊会,,その他の設立登記法人,東京都,足立区,花畑４丁目３９番２１号１階,,13,121,1210061,,,,,,,2022-03-10,1,,,,,ケイヨウカイ,0
1887,8012801021447,新規,0,2022-03-10,2022-03-10,株式会社ＵＧ,,株式会社,東京都,立川市,柴崎町３丁目５番１１号辰午ビル３０１,,13,202,1900023,,,,,,,2022-03-10,1,,,,,ユージー,0
1889,8012803002726,新規,0,2022-03-10,2022-03-10,合同会社Ｄ’ｓ　Ｃｏｍｐａｎｙ,,合同会社,東京都,昭島市,福島町２丁目１１番４号,,13,207,1960031,,,,,,,2022-03-10,1,,,,,ディーズカンパニー,0
1898,8020001145603,新規,0,2022-03-10,2022-03-10,株式会社ＮｉＸ,,株式会社,神奈川県,横浜市金沢区,泥亀１丁目１８番７号睦月ビル２階,,14,108,2360021,,,,,,,2022-03-10,1,,,,,ニックス,0
1899,8020001145611,新規,0,2022-03-10,2022-03-10,ＤＡＸ　ＪＰ株式会社,,株式会社,神奈川県,横浜市港北区,新羽町１７４７番地,,14,109,2230057,,,,,,,2022-03-10,1,,,,,ダックスジェイピー,0
1900,8020001145636,新規,0,2022-03-10,2022-03-10,株式会社エムプラン,,株式会社,神奈川県,横浜市保土ケ谷区,岩井町３９５番地５,,14,106,2400023,,,,,,,2022-03-10,1,,,,,エムプラン,0
1903,8020003021414,新規,0,2022-03-10,2022-03-10,合同会社シンシア,,合同会社,神奈川県,川崎市麻生区,高石１丁目１５－１３－２０２,,14,137,2150003,,,,,,,2022-03-10,1,,,,,シンシア,0
1904,8020003021430,新規,0,2022-03-10,2022-03-10,合同会社ウォームシャイン,,合同会社,神奈川県,横浜市青葉区,市ケ尾町１６３４番地２９,,14,117,2250024,,,,,,,2022-03-10,1,,,,,ウォームシャイン,0
1906,8021001075410,新規,0,2022-03-10,2022-03-10,三方良し株式会社,,株式会社,神奈川県,藤沢市,柄沢２丁目３６番地１３,,14,205,2510003,,,,,,,2022-03-10,1,,,,,サンポウヨシ,0
1919,8040001122559,新規,0,2022-03-10,2022-03-10,株式会社ナナクレーション,,株式会社,千葉県,浦安市,海楽２丁目３番５号,,12,227,2790003,,,,,,,2022-03-10,1,,,,,ナナクレーション,0
1920,8040001122583,新規,0,2022-03-10,2022-03-10,株式会社アラタ,,株式会社,千葉県,東金市,東金１５０２番地１,,12,213,2830802,,,,,,,2022-03-10,1,,,,,アラタ,0
1924,8040003019539,新規,0,2022-03-10,2022-03-10,合同会社いしだ企画,,合同会社,千葉県,船橋市,丸山３丁目５１－２９,,12,204,2730048,,,,,,,2022-03-10,1,,,,,イシダキカク,0
1941,8100003006448,新規,0,2022-03-10,2022-03-10,合同会社インシュアランスオフィス佐藤,,合同会社,長野県,小諸市,大字和田６５１番地５,,20,208,3840093,,,,,,,2022-03-10,1,,,,,インシュアランスオフィスサトウ,0
1948,8120001244378,新規,0,2022-03-10,2022-03-10,株式会社Ｏｍｉｔａｓ,,株式会社,大阪府,大阪市城東区,関目５丁目３番９号,,27,118,5360008,,,,,,,2022-03-10,1,,,,,オミタス,0
1954,8120005022838,新規,0,2022-03-10,2022-03-10,ハートランド社会保険労務士法人,,その他の設立登記法人,大阪府,大阪市北区,本庄東１丁目２４番５号,,27,127,5310074,,,,,,,2022-03-10,1,,,,,ハートランド,0
1956,8120101065204,新規,0,2022-03-10,2022-03-10,株式会社Ａｊ工業,,株式会社,大阪府,松原市,天美我堂２丁目３８１－２,,27,217,5800026,,,,,,,2022-03-10,1,,,,,エージェイコウギョウ,0
1970,8140001125155,新規,0,2022-03-10,2022-03-10,株式会社クララス,,株式会社,兵庫県,神戸市垂水区,山手５丁目１０番７号ラピート山手２０４号,,28,108,6550891,,,,,,,2022-03-10,1,,,,,クララス,0
1971,8140001125163,新規,0,2022-03-10,2022-03-10,スマートテック株式会社,,株式会社,兵庫県,神戸市垂水区,つつじが丘５丁目２４－１ハイムアゼーリア１階,,28,108,6550853,,,,,,,2022-03-10,1,,,,,スマートテック,0
1972,8140001125221,新規,0,2022-03-10,2022-03-10,株式会社ＥｏＬ,,株式会社,兵庫県,尼崎市,杭瀬本町１丁目１９番２０号,,28,202,6600814,,,,,,,2022-03-10,1,,,,,イーオーエル,0
1974,8140003017383,新規,0,2022-03-10,2022-03-10,合同会社ビッグマウンテン,,合同会社,兵庫県,西宮市,甲陽園東山町８番４号ハイツ甲陽園,,28,204,6620012,,,,,,,2022-03-10,1,,,,,ビッグマウンテン,0
1975,8140003017433,新規,0,2022-03-10,2022-03-10,Ｚｅｉｄｙ合同会社,,合同会社,兵庫県,神戸市兵庫区,湊町４丁目１番５号湊町ビル２階２０１号室,,28,105,6520812,,,,,,,2022-03-10,1,,,,,ゼイディ,0
1976,8140003017441,新規,0,2022-03-10,2022-03-10,合同会社ラ・クール,,合同会社,兵庫県,尼崎市,上坂部２丁目２４番２０－７０８号,,28,202,6610979,,,,,,,2022-03-10,1,,,,,ラクール,0
1985,8160005011060,新規,0,2022-03-10,2022-03-10,特定非営利活動法人フリースクールてだのふあ,,その他の設立登記法人,滋賀県,彦根市,銀座町６番３号,,25,202,5220088,,,,,,,2022-03-10,1,,,,,フリースクールテダノフア,0
2000,8180005019671,新規,0,2022-03-10,2022-03-10,医療法人梅香会,,その他の設立登記法人,愛知県,名古屋市東区,芳野１丁目２番１号,,23,102,4610027,,,,,,,2022-03-10,1,,,,,バイコウカイ,0
2003,8180301036008,新規,0,2022-03-10,2022-03-10,株式会社ファンタジスタ,,株式会社,愛知県,碧南市,浅間町２丁目１２４番地,,23,209,4470865,,,,,,,2022-03-10,1,,,,,ファンタジスタ,0
2006,8190001029211,新規,0,2022-03-10,2022-03-10,東和商事株式会社,,株式会社,三重県,四日市市,小牧町字野畑２３８－１,,24,202,5121303,,,,,,,2022-03-10,1,,,,,トウワショウジ,0
2007,8190005011677,新規,0,2022-03-10,2022-03-10,一般社団法人三重福利厚生推進協会,,その他の設立登記法人,三重県,四日市市,栄町１番１１号,,24,202,5100084,,,,,,,2022-03-10,1,,,,,ミエフクリコウセイスイシンキョウカイ,0
2026,8260002007951,新規,0,2022-03-10,2022-03-10,有限会社浜井建設,,有限会社,岡山県,岡山市,東山内８３番地,,33,201,7011611,,,,,,,2022-03-10,1,,,,,ハマイケンセツ,0
2030,8290001096753,新規,0,2022-03-10,2022-03-10,株式会社三ッ星商会,,株式会社,福岡県,福岡市博多区,中洲５丁目３番８号５Ｆ,,40,132,8100801,,,,,,,2022-03-10,1,,,,,ミツボシショウカイ,0
2033,8290003012262,新規,0,2022-03-10,2022-03-10,天神一丁目７６１プロジェクト合同会社,,合同会社,福岡県,福岡市博多区,住吉１丁目２番２５号キャナルシティ・ビジネスセンタービル１０Ｆ福岡地所株式会社内,,40,132,8120018,,,,,,,2022-03-10,1,,,,,テンジンイッチョウメナナロクイチプロジェクト,0
2063,8400005008222,新規,0,2022-03-10,2022-03-10,医療法人社団明琴会,,その他の設立登記法人,岩手県,盛岡市,月が丘３丁目２９番２号,,03,201,0200121,,,,,,,2022-03-10,1,,,,,メイキンカイ,0
2069,8430001086178,新規,0,2022-03-10,2022-03-10,縁旺株式会社,,株式会社,北海道,札幌市豊平区,平岸五条１３丁目４番１５号,,01,105,0620935,,,,,,,2022-03-10,1,,,,,エンオウ,0
2072,8430003013700,新規,0,2022-03-10,2022-03-10,合同会社エンジェル,,合同会社,北海道,札幌市南区,簾舞二条１丁目５－１８,,01,106,0612262,,,,,,,2022-03-10,1,,,,,エンジェル,0
2076,8450005004332,新規,0,2022-03-10,2022-03-10,特定非営利活動法人三室番屋復活プロジェクト,,その他の設立登記法人,北海道,紋別市,元紋別１０２番地の３０,,01,219,0940023,,,,,,,2022-03-10,1,,,,,ミムロバンヤフッカツプロジェクト,0
2077,8460003000885,新規,0,2022-03-10,2022-03-10,いとぐちＬａｂｏ合同会社,,合同会社,北海道,釧路市,新川町１０番８号,,01,206,0850047,,,,,,,2022-03-10,1,,,,,イトグチラボ,0
2080,8470003002146,新規,0,2022-03-10,2022-03-10,Ｄ．ベリーズ合同会社,,合同会社,香川県,坂出市,加茂町８番地３,,37,203,7620023,,,,,,,2022-03-10,1,,,,,ディーベリーズ,0
2082,8500001024056,新規,0,2022-03-10,2022-03-10,株式会社ＰＲＥＶＥＮＴＳ,,株式会社,愛媛県,松山市,和泉北１丁目５番２２号,,38,201,7900038,,,,,,,2022-03-10,1,,,,,プリベンツ,0
2089,9010001224984,新規,0,2022-03-10,2022-03-10,株式会社ケアオペレーションライン,,株式会社,東京都,中央区,日本橋２丁目１番１７号丹生ビル２階,,13,102,1030027,,,,,,,2022-03-10,1,,,,,ケアオペレーション,0
2090,9010001225124,新規,0,2022-03-10,2022-03-10,株式会社ＴＭ＆Ｙ　ｃｏｎｓｕｌｔｉｎｇ,,株式会社,東京都,千代田区,大手町１丁目７－２東京サンケイビル２７階,,13,101,1000004,,,,,,,2022-03-10,1,,,,,ティエムアンドワイコンサルティング,0
2091,9010001225157,新規,0,2022-03-10,2022-03-10,株式会社トゥリパーノ,,株式会社,東京都,中央区,新川２丁目１３番１１号内田ビル４階,,13,102,1040033,,,,,,,2022-03-10,1,,,,,トゥリパーノ,0
2094,9010003037195,新規,0,2022-03-10,2022-03-10,合同会社ｐｕｒｅ＆ｆｌｏｗｅｒｙマネジメント,,合同会社,東京都,中央区,新川１丁目２８番７号,,13,102,1040033,,,,,,,2022-03-10,1,,,,,ピュアアンドフラワリーマネジメント,0
2095,9010003037204,新規,0,2022-03-10,2022-03-10,合同会社ＣＩ‐ＬＩＮＥ,,合同会社,東京都,千代田区,麹町２丁目１０番３号,,13,101,1020083,,,,,,,2022-03-10,1,,,,,シーライン,0
2097,9010005034711,新規,0,2022-03-10,2022-03-10,一般社団法人水素バリューチェーン推進協議会,,その他の設立登記法人,東京都,千代田区,霞が関３丁目２番５号,,13,101,1000013,,,,,,,2022-03-10,1,,,,,スイソバリューチェーンスイシンキョウギカイ,0
2108,9010401166075,新規,0,2022-03-10,2022-03-10,株式会社松脳,,株式会社,東京都,港区,南麻布１丁目７番２４号,,13,103,1060047,,,,,,,2022-03-10,1,,,,,マツノウ,0
2114,9010403027259,新規,0,2022-03-10,2022-03-10,ＧｏＢｅｙｏｎｄ合同会社,,合同会社,東京都,港区,南青山２丁目２番１５号,,13,103,1070062,,,,,,,2022-03-10,1,,,,,ゴービヨンド,0
2125,9010901050497,新規,0,2022-03-10,2022-03-10,株式会社ＮＩＲＶＡＮＡ,,株式会社,東京都,世田谷区,船橋１丁目１８番１８号,,13,112,1560055,,,,,,,2022-03-10,1,,,,,ニルヴァーナ,0
2129,9010903007215,新規,0,2022-03-10,2022-03-10,合同会社アルバ,,合同会社,東京都,世田谷区,給田３丁目２６番３号,,13,112,1570064,,,,,,,2022-03-10,1,,,,,アルバ,0
2135,9011001146021,新規,0,2022-03-10,2022-03-10,ＮＦＴテクノロジー株式会社,,株式会社,東京都,渋谷区,恵比寿１丁目２１番８号,,13,113,1500013,,,,,,,2022-03-10,1,,,,,エヌエフティーテクノロジー,0
2140,9011101098055,新規,0,2022-03-10,2022-03-10,株式会社ＭＵＳＡＳＨＩ　Ｅｎｔｅｒｔａｉｎｍｅｎｔ,,株式会社,東京都,新宿区,余丁町１３番２３－００１号室,,13,104,1620055,,,,,,,2022-03-10,1,,,,,ムサシエンターテインメント,0
2142,9011401024082,新規,0,2022-03-10,2022-03-10,ポルトレス株式会社,,株式会社,東京都,板橋区,若木１丁目２７番３１－４０２号,,13,119,1740065,,,,,,,2022-03-10,1,,,,,ポルトレス,0
2143,9011401024090,新規,0,2022-03-10,2022-03-10,株式会社ＯＷＮＮＥＥＤＳ,,株式会社,東京都,板橋区,蓮根３丁目１４番２５－５０９号,,13,119,1740046,,,,,,,2022-03-10,1,,,,,オウンニーズ,0
2149,9011701025111,新規,0,2022-03-10,2022-03-10,株式会社Ｌａｐｉｓクリーン＆コートサービス,,株式会社,東京都,江戸川区,西葛西４丁目２番５－１１５号コンドミニアム葛西,,13,123,1340088,,,,,,,2022-03-10,1,,,,,ラピスクリーンアンドコートサービス,0
2152,9011803004995,新規,0,2022-03-10,2022-03-10,アクアフォーム合同会社,,合同会社,東京都,葛飾区,青戸７丁目２７番３－７０１号,,13,122,1250062,,,,,,,2022-03-10,1,,,,,アクアフォーム,0
2165,9020001145560,新規,0,2022-03-10,2022-03-10,ラックフィールド株式会社,,株式会社,神奈川県,横浜市南区,通町３丁目７０番地ディアナ弘明寺９０４号,,14,105,2320056,,,,,,,2022-03-10,1,,,,,ラックフィールド,0
2166,9020001145619,新規,0,2022-03-10,2022-03-10,アスミテ株式会社,,株式会社,神奈川県,川崎市川崎区,渡田山王町７－１０,,14,131,2100845,,,,,,,2022-03-10,1,,,,,アスミテ,0
2177,9030001147218,新規,0,2022-03-10,2022-03-10,マザーズラブ株式会社,,株式会社,埼玉県,熊谷市,久保島７９７番地３,,11,202,3600831,,,,,,,2022-03-10,1,,,,,マザーズラブ,0
2178,9030003019010,新規,0,2022-03-10,2022-03-10,合同会社リーディングアソシエイツ,,合同会社,埼玉県,川越市,大字山田１６２１番地１・２Ｆ,,11,201,3500822,,,,,,,2022-03-10,1,,,,,リーディングアソシエイツ,0
2186,9040003019637,新規,0,2022-03-10,2022-03-10,合同会社ＰＲＩＧ,,合同会社,千葉県,柏市,今谷上町３２番地７５,,12,217,2770074,,,,,,,2022-03-10,1,,,,,プリッグ,0
2187,9040003019645,新規,0,2022-03-10,2022-03-10,合同会社Ｆａｒ‐Ｏｕｔ,,合同会社,千葉県,千葉市美浜区,打瀬２丁目２１幕張サウスコートＡ棟４０５,,12,106,2610013,,,,,,,2022-03-10,1,,,,,ファーアウト,0
2201,9100003006447,新規,0,2022-03-10,2022-03-10,合同会社Ｓ‐ＣＬＡＳＳ,,合同会社,長野県,上伊那郡南箕輪村,９４６７番地１,,20,385,3994511,,,,,,,2022-03-10,1,,,,,エスクラス,0
2214,9120003021246,新規,0,2022-03-10,2022-03-10,十倉商店合同会社,,合同会社,大阪府,大阪市浪速区,難波中２丁目１０番７０号なんばパークス１９Ｆ,,27,111,5560011,,,,,,,2022-03-10,1,,,,,トクラショウテン,0
2215,9120003021270,新規,0,2022-03-10,2022-03-10,合同会社ＳＫＳ,,合同会社,大阪府,大阪市阿倍野区,長池町５番１６号,,27,119,5450013,,,,,,,2022-03-10,1,,,,,エスケーエス,0
2226,9122001035649,新規,0,2022-03-10,2022-03-10,株式会社Ｎｅｘｕｓ,,株式会社,大阪府,東大阪市,長栄寺２丁目１２,,27,227,,,,,,,,2022-03-10,1,,,,,ネクサス,0
2232,9130001071317,新規,0,2022-03-10,2022-03-10,株式会社北新,,株式会社,京都府,京都市伏見区,竹田三ツ杭町７４番地,,26,109,6128413,,,,,,,2022-03-10,1,,,,,キタシン,0
2236,9130003007780,新規,0,2022-03-10,2022-03-10,合同会社メリアのコンサル,,合同会社,京都府,向日市,寺戸町七ノ坪１５８番地,,26,208,6170002,,,,,,,2022-03-10,1,,,,,メリアノコンサル,0
2248,9140001125088,新規,0,2022-03-10,2022-03-10,株式会社野首鉄筋工業,,株式会社,兵庫県,高砂市,阿弥陀１丁目１４番５－２号,,28,216,6760815,,,,,,,2022-03-10,1,,,,,ノクビテッキンコウギョウ,0
2249,9140001125195,新規,0,2022-03-10,2022-03-10,産富電機株式会社,,株式会社,兵庫県,尼崎市,久々知西町２丁目４番７号,,28,202,6610978,,,,,,,2022-03-10,1,,,,,サントミデンキ,0
2278,9180003023591,新規,0,2022-03-10,2022-03-10,合同会社狼煙,,合同会社,愛知県,名古屋市千種区,千種通５丁目２０番地の３（サンパレス千種５０３）,,23,101,4640855,,,,,,,2022-03-10,1,,,,,ノロシ,0
2279,9180301036015,新規,0,2022-03-10,2022-03-10,株式会社ｔａｉｗａ,,株式会社,愛知県,高浜市,青木町７丁目５番地６（チッタ高浜５０７）,,23,227,4441325,,,,,,,2022-03-10,1,,,,,タイワ,0
2288,9200003005488,新規,0,2022-03-10,2022-03-10,ながら企画開発合同会社,,合同会社,岐阜県,郡上市,白鳥町中津屋６９２番地１,,21,219,5015123,,,,,,,2022-03-10,1,,,,,ナガラキカクカイハツ,0
2290,9220001024736,新規,0,2022-03-10,2022-03-10,株式会社ＣＯＬＯＲＳ　ＰＬＵＳ,,株式会社,石川県,金沢市,片町１丁目６番１６号,,17,201,9200981,,,,,,,2022-03-10,1,,,,,カラーズプラス,0
2306,9280001008659,新規,0,2022-03-10,2022-03-10,ｈｏｐｅ株式会社,,株式会社,島根県,松江市,竹矢町１５５０番地５４,,32,201,6900023,,,,,,,2022-03-10,1,,,,,ホープ,0
2309,9290001096744,新規,0,2022-03-10,2022-03-10,株式会社糸島不動産開発,,株式会社,福岡県,糸島市,神在西３丁目１１番２５号,,40,230,8191148,,,,,,,2022-03-10,1,,,,,イトシマフドウサンカイハツ,0
2310,9290001096752,新規,0,2022-03-10,2022-03-10,株式会社百年堂,,株式会社,福岡県,福岡市中央区,天神２丁目１３番１８号,,40,133,8100001,,,,,,,2022-03-10,1,,,,,ヒャクネンドウ,0
2329,9370001048308,新規,0,2022-03-10,2022-03-10,株式会社みつばちサポート,,株式会社,宮城県,仙台市青葉区,上杉１丁目４－３０上杉サショウビル３０１,,04,101,9800011,,,,,,,2022-03-10,1,,,,,ミツバチサポート,0
2345,9380005012548,新規,0,2022-03-10,2022-03-10,医療法人社団隆歯会,,その他の設立登記法人,福島県,いわき市,小名浜大原小滝町６番地の２,,07,204,9718111,,,,,,,2022-03-10,1,,,,,シャダンタカシカイ,0
2347,9400001015808,新規,0,2022-03-10,2022-03-10,株式会社カインド,,株式会社,岩手県,紫波郡矢巾町,大字白沢第７地割４３番地,,03,322,0283616,,,,,,,2022-03-10,1,,,,,カインド,0
2353,9430001086177,新規,0,2022-03-10,2022-03-10,九州ケアミックス株式会社,,株式会社,北海道,札幌市中央区,北五条西１２丁目２－２４ａｒａｎｙａビル２階,,01,101,0600005,,,,,,,2022-03-10,1,,,,,キュウシュウケアミックス,0
2354,9430003013699,新規,0,2022-03-10,2022-03-10,合同会社リゾート２１,,合同会社,北海道,札幌市南区,簾舞二条１丁目５－１８,,01,106,0612262,,,,,,,2022-03-10,1,,,,,リゾートニジュウイチ,0
