sequenceNumber,corporateNumber,process,correct,updateDate,changeDate,name,nameImageId,kind,prefectureName,cityName,streetNumber,addressImageId,prefectureCode,cityCode,postCode,addressOutside,addressOutsideImageId,closeDate,closeCause,successorCorporateNumber,changeCause,assignmentDate,latest,enName,enPrefectureName,enCityName,enAddressOutside,furigana,hihyoji
5,1010001245047,新規,0,2024-05-22,2024-05-22,ハウデン・リー・ジャパン株式会社,,株式会社,東京都,千代田区,丸の内１丁目４番１号丸の内永楽ビルディング,,13,101,1000005,,,,,,,2024-05-22,1,,,,,ハウデンリージャパン,0
6,1010001245063,新規,0,2024-05-22,2024-05-22,山佐産業ＢＡＷ６リース株式会社,,株式会社,東京都,千代田区,丸の内３丁目１番１号東京共同会計事務所内,,13,101,1000005,,,,,,,2024-05-22,1,,,,,ヤマササンギョウビーエーダブリューシックスリース,0
7,1010001245105,新規,0,2024-05-22,2024-05-22,ゆうちょキャピタルパートナーズ株式会社,,株式会社,東京都,千代田区,大手町２丁目３番１号,,13,101,1000004,,,,,,,2024-05-22,1,,,,,ユウチョキャピタルパートナーズ,0
11,1010003043779,新規,0,2024-05-22,2024-05-22,合同会社Ｒｅａｌｉｚｅ,,合同会社,東京都,中央区,銀座１丁目２２番１１号銀座大竹ビジデンス２Ｆ,,13,102,1040061,,,,,,,2024-05-22,1,,,,,リアライズ,0
12,1010003043812,新規,0,2024-05-22,2024-05-22,トウハラデザイン合同会社,,合同会社,東京都,文京区,小日向１丁目２１番１４号,,13,105,1120006,,,,,,,2024-05-22,1,,,,,トウハラデザイン,0
13,1010003043820,新規,0,2024-05-22,2024-05-22,合同会社ＢｅａＭ,,合同会社,東京都,中央区,日本橋室町１丁目１１番１２号日本橋水野ビル７階,,13,102,1030022,,,,,,,2024-05-22,1,,,,,ビーム,0
23,1010401182245,新規,0,2024-05-22,2024-05-22,株式会社ｓｕｐｒｅｍｅ　ｃａｒｅ,,株式会社,東京都,港区,北青山１丁目２番３号,,13,103,1070061,,,,,,,2024-05-22,1,,,,,シュプリームケア,0
24,1010401182476,新規,0,2024-05-22,2024-05-22,株式会社ラスミッシュ,,株式会社,東京都,港区,白金６丁目１６－２５グランドメゾン白金の杜ザ・タワー２７０３,,13,103,1080072,,,,,,,2024-05-22,1,,,,,ラスミッシュ,0
25,1010401182492,新規,0,2024-05-22,2024-05-22,株式会社ＲｉＭ,,株式会社,東京都,港区,南青山２丁目２番１５号ＷｉｎＡｏｙａｍａビルＵＣＦ６３５,,13,103,1070062,,,,,,,2024-05-22,1,,,,,リム,0
28,1010403032654,新規,0,2024-05-22,2024-05-22,ネイバーアセットマネージメント合同会社,,合同会社,東京都,港区,赤坂９丁目２番１８－１０１号,,13,103,1070052,,,,,,,2024-05-22,1,,,,,ネイバーアセットマネージメント,0
29,1010403032670,新規,0,2024-05-22,2024-05-22,Ｔｅｌｌｕｓ合同会社,,合同会社,東京都,港区,白金台５丁目１５番５号トゥワインデール２階,,13,103,1080071,,,,,,,2024-05-22,1,,,,,テルース,0
31,1010405023247,新規,0,2024-05-22,2024-05-22,ｂ社会保険労務士法人,,その他の設立登記法人,東京都,港区,海岸３丁目７番１８号ＡＬＴＯ－Ｂ１１０１号室,,13,103,1080022,,,,,,,2024-05-22,1,,,,,ビー,0
35,1010601065258,新規,0,2024-05-22,2024-05-22,Ｔｉｍｅ　Ｖａｌｕｅ株式会社,,株式会社,東京都,江東区,南砂２丁目３４番４－４０２号,,13,108,1360076,,,,,,,2024-05-22,1,,,,,タイムバリュー,0
38,1010701045960,新規,0,2024-05-22,2024-05-22,ＦＰコンサルタント株式会社,,株式会社,東京都,品川区,東品川１丁目３１番４－４０３号,,13,109,1400002,,,,,,,2024-05-22,1,,,,,エフピーコンサルタント,0
39,1010801035077,新規,0,2024-05-22,2024-05-22,株式会社センコマンド,,株式会社,東京都,大田区,蒲田５丁目５番９－５０４号,,13,111,1440052,,,,,,,2024-05-22,1,,,,,センコマンド,0
41,1010901055330,新規,0,2024-05-22,2024-05-22,株式会社喫音屋,,株式会社,東京都,世田谷区,代田４丁目２４番１７号ガーデンホームズ羽根木公園１０３,,13,112,1550033,,,,,,,2024-05-22,1,,,,,キツネヤ,0
42,1010903009061,新規,0,2024-05-22,2024-05-22,ＷＥＳＴ　ＧＡＴＥ　ＪＡＰＡＮ合同会社,,合同会社,東京都,世田谷区,下馬３丁目１２番１４号,,13,112,1540002,,,,,,,2024-05-22,1,,,,,ウエストゲートジャパン,0
56,1011105011021,新規,0,2024-05-22,2024-05-22,一般社団法人アジア未来ラボラトリー,,その他の設立登記法人,東京都,新宿区,西新宿６丁目５番１号新宿アイランドタワー２階,,13,104,1600023,,,,,,,2024-05-22,1,,,,,アジアミライラボラトリー,0
59,1011301029684,新規,0,2024-05-22,2024-05-22,株式会社ＢＡＲＤ,,株式会社,東京都,杉並区,久我山５丁目７－５－１０１,,13,115,1680082,,,,,,,2024-05-22,1,,,,,バード,0
60,1011403004387,新規,0,2024-05-22,2024-05-22,ＮＡＮＡ合同会社,,合同会社,東京都,板橋区,常盤台１丁目６０番２号－４０２号室,,13,119,1740071,,,,,,,2024-05-22,1,,,,,ナナ,0
64,1011601027768,新規,0,2024-05-22,2024-05-22,Ｇ＆Ｍ株式会社,,株式会社,東京都,練馬区,旭町１丁目８番１サンフラワー徳力ビル４１７号室,,13,120,1790071,,,,,,,2024-05-22,1,,,,,ジーアンドエム,0
65,1011601027776,新規,0,2024-05-22,2024-05-22,株式会社リアベル,,株式会社,東京都,練馬区,南田中４丁目２３番４号,,13,120,1770035,,,,,,,2024-05-22,1,,,,,リアベル,0
70,1012401041884,新規,0,2024-05-22,2024-05-22,株式会社賃貸住宅研究会,,株式会社,東京都,府中市,宮町１丁目３４番地の１４デュオ府中３０３,,13,206,1830023,,,,,,,2024-05-22,1,,,,,チンタイジュウタクケンキュウカイ,0
72,1012801023185,新規,0,2024-05-22,2024-05-22,株式会社八宝グループ,,株式会社,東京都,立川市,高松町２丁目２５番１－７０５号,,13,202,1900011,,,,,,,2024-05-22,1,,,,,ハッポウグループ,0
73,1013301052492,新規,0,2024-05-22,2024-05-22,興宇株式会社,,株式会社,東京都,豊島区,池袋本町２丁目７番１８号,,13,116,1700011,,,,,,,2024-05-22,1,,,,,コウウ,0
74,1013301052567,新規,0,2024-05-22,2024-05-22,株式会社ビジョンザハイドウェイ,,株式会社,東京都,豊島区,池袋２丁目２番４号,,13,116,1710014,,,,,,,2024-05-22,1,,,,,ビジョンザハイドウェイ,0
85,1021001082280,新規,0,2024-05-22,2024-05-22,株式会社ＹＤＫ,,株式会社,神奈川県,大和市,中央林間１丁目５番６号,,14,213,2420007,,,,,,,2024-05-22,1,,,,,ワイディーケー,0
89,1021003014546,新規,0,2024-05-22,2024-05-22,合同会社ＳＥ深,,合同会社,神奈川県,相模原市南区,新磯野４丁目７番２－５０８号,,14,153,2520325,,,,,,,2024-05-22,1,,,,,エスイーシン,0
96,1030003024331,新規,0,2024-05-22,2024-05-22,サイバネティック合同会社,,合同会社,埼玉県,志木市,幸町４丁目２２番２０号,,11,228,3530005,,,,,,,2024-05-22,1,,,,,サイバネティック,0
97,1030005021698,新規,0,2024-05-22,2024-05-22,一般社団法人サポートリンク鳩山,,その他の設立登記法人,埼玉県,比企郡鳩山町,鳩ヶ丘２丁目１６番１号,,11,348,3500312,,,,,,,2024-05-22,1,,,,,,0
100,1040001133661,新規,0,2024-05-22,2024-05-22,株式会社スズタカ工業,,株式会社,千葉県,八街市,沖７０番地２,,12,230,2891126,,,,,,,2024-05-22,1,,,,,スズタカコウギョウ,0
101,1040001133694,新規,0,2024-05-22,2024-05-22,ＳＫＯＫＳ株式会社,,株式会社,千葉県,佐倉市,西志津６丁目１９番９号,,12,212,2850845,,,,,,,2024-05-22,1,,,,,エスケーオーケーエス,0
110,1060003005056,新規,0,2024-05-22,2024-05-22,ＥＭＰＯＲＩＯ合同会社,,合同会社,栃木県,真岡市,並木町４丁目４番地３,,09,209,3214361,,,,,,,2024-05-22,1,,,,,エンポリオ,0
122,1080403005018,新規,0,2024-05-22,2024-05-22,Ｔ‐ｓｔｙｌｅ合同会社,,合同会社,静岡県,浜松市浜名区,引佐町井伊谷２０７番地の１,,22,139,4312212,,,,,,,2024-05-22,1,,,,,ティースタイル,0
124,1090001018726,新規,0,2024-05-22,2024-05-22,オザワ農場株式会社,,株式会社,山梨県,甲府市,上曽根町２３８９番地,,19,201,4001501,,,,,,,2024-05-22,1,,,,,オザワノウジョウ,0
126,1100001037443,新規,0,2024-05-22,2024-05-22,長野森林管財株式会社,,株式会社,長野県,長野市,中曽根２１８８番地５,,20,201,3810074,,,,,,,2024-05-22,1,,,,,ナガノシンリンカンザイ,0
127,1100001037468,新規,0,2024-05-22,2024-05-22,株式会社水上解体,,株式会社,長野県,伊那市,上牧７２３４番地１,,20,209,3960006,,,,,,,2024-05-22,1,,,,,ミズカミカイタイ,0
146,1120001265208,新規,0,2024-05-22,2024-05-22,株式会社タンポポ,,株式会社,大阪府,大阪市中央区,森ノ宮中央２丁目１１－６シュライン森ノ宮１０２号,,27,128,5400003,,,,,,,2024-05-22,1,,,,,タンポポ,0
147,1120001265216,新規,0,2024-05-22,2024-05-22,楽進株式会社,,株式会社,大阪府,大阪市東住吉区,湯里５丁目１６番地５号３Ｆ－Ｅ,,27,121,5460013,,,,,,,2024-05-22,1,,,,,ラクシン,0
151,1120003026640,新規,0,2024-05-22,2024-05-22,合同会社ＳＰＮ,,合同会社,大阪府,大阪市北区,梅田１丁目２番２号大阪駅前第２ビル１２－１２,,27,127,5300001,,,,,,,2024-05-22,1,,,,,エスピーエヌ,0
152,1120003026649,新規,0,2024-05-22,2024-05-22,合同会社ソロ,,合同会社,大阪府,大阪市中央区,南船場２丁目６番２９号,,27,128,5420081,,,,,,,2024-05-22,1,,,,,ソロ,0
156,1120103005833,新規,0,2024-05-22,2024-05-22,ハヤシ商事合同会社,,合同会社,大阪府,岸和田市,天神山町２丁目９－６－１１１,,27,202,5960834,,,,,,,2024-05-22,1,,,,,ハヤシショウジ,0
160,1122003002885,新規,0,2024-05-22,2024-05-22,合同会社ＲＡＹＥＬ,,合同会社,大阪府,柏原市,田辺２丁目１番２６号,,27,221,5820024,,,,,,,2024-05-22,1,,,,,,0
161,1122003002893,新規,0,2024-05-22,2024-05-22,合同会社セルフォレスト,,合同会社,大阪府,東大阪市,楠根３丁目１３－１１－３０１,,27,227,5770006,,,,,,,2024-05-22,1,,,,,セルフォレスト,0
162,1130001077115,新規,0,2024-05-22,2024-05-22,株式会社天カンパニー,,株式会社,京都府,八幡市,男山吉井１０番地２６,,26,210,6148363,,,,,,,2024-05-22,1,,,,,テンカンパニー,0
170,1140001134476,新規,0,2024-05-22,2024-05-22,株式会社ソアレ,,株式会社,兵庫県,神戸市中央区,磯上通４丁目１番３２号ロイヤル磯上２０１号室,,28,110,6510086,,,,,,,2024-05-22,1,,,,,ソアレ,0
171,1140001134518,新規,0,2024-05-22,2024-05-22,株式会社日本住宅サポート,,株式会社,兵庫県,神戸市灘区,国玉通３丁目１番１２号,,28,102,6570816,,,,,,,2024-05-22,1,,,,,ニホンジュウタクサポート,0
179,1140003020609,新規,0,2024-05-22,2024-05-22,エスケー合同会社,,合同会社,兵庫県,小野市,大島町１６３７番地,,28,218,6751334,,,,,,,2024-05-22,1,,,,,エスケー,0
188,1180001161525,新規,0,2024-05-22,2024-05-22,イーアンドブラザーズ株式会社,,株式会社,愛知県,名古屋市東区,泉２丁目２５番２２号泉グランドビル３Ｂ,,23,102,4610001,,,,,,,2024-05-22,1,,,,,イーアンドブラザーズ,0
189,1180001161558,新規,0,2024-05-22,2024-05-22,名誠電工株式会社,,株式会社,愛知県,名古屋市緑区,大清水東８１４番地,,23,114,4580849,,,,,,,2024-05-22,1,,,,,メイセイデンコウ,0
190,1180001161566,新規,0,2024-05-22,2024-05-22,株式会社ＳＫＭテック,,株式会社,愛知県,大府市,北崎町梨ノ木９１番地,,23,223,4740001,,,,,,,2024-05-22,1,,,,,エスケーエムテック,0
191,1180001161574,新規,0,2024-05-22,2024-05-22,くるまや川原株式会社,,株式会社,愛知県,名古屋市瑞穂区,軍水町１丁目３２番地,,23,108,4670059,,,,,,,2024-05-22,1,,,,,クルマヤカワハラ,0
192,1180001161590,新規,0,2024-05-22,2024-05-22,絹庄ホールディングス株式会社,,株式会社,愛知県,小牧市,中央１丁目３１７番地,,23,219,4850029,,,,,,,2024-05-22,1,,,,,キヌショウホールディングス,0
193,1180001161599,新規,0,2024-05-22,2024-05-22,株式会社ＬＯＲＥＮ,,株式会社,愛知県,常滑市,塩田町１丁目１２９番地の３,,23,216,4790813,,,,,,,2024-05-22,1,,,,,ローレン,0
194,1180001161608,新規,0,2024-05-22,2024-05-22,株式会社回覧屋,,株式会社,愛知県,名古屋市守山区,大森１丁目３３０３番地,,23,113,4630021,,,,,,,2024-05-22,1,,,,,カイランヤ,0
195,1180001161632,新規,0,2024-05-22,2024-05-22,シンフォメンテ株式会社,,株式会社,愛知県,名古屋市瑞穂区,牛巻町１０－２３、２－６０２,,23,108,4670863,,,,,,,2024-05-22,1,,,,,シンフォメンテ,0
199,1180003026800,新規,0,2024-05-22,2024-05-22,合同会社ＢＡＴＳＵＭＡＲＵ　ｄｅｓｉｇｎ,,合同会社,愛知県,名古屋市西区,那古野１丁目１９－４,,23,104,4510042,,,,,,,2024-05-22,1,,,,,バツマルデザイン,0
200,1180003026825,新規,0,2024-05-22,2024-05-22,合同会社企業事務支援センター,,合同会社,愛知県,名古屋市西区,浄心２丁目４番２５号,,23,104,4510061,,,,,,,2024-05-22,1,,,,,キギョウジムシエンセンター,0
203,1180301038654,新規,0,2024-05-22,2024-05-22,株式会社ＯＴＯＭＯ,,株式会社,愛知県,岡崎市,大和町字桑子５３番地８,,23,202,4440931,,,,,,,2024-05-22,1,,,,,オトモ,0
204,1180303006130,新規,0,2024-05-22,2024-05-22,クロニクス合同会社,,合同会社,愛知県,岡崎市,北野町字大訳７番地５,,23,202,4440951,,,,,,,2024-05-22,1,,,,,クロニクス,0
207,1190005011956,新規,0,2024-05-22,2024-05-22,一般社団法人ハートランド,,その他の設立登記法人,三重県,鈴鹿市,江島町５１５番地の１,,24,207,5100237,,,,,,,2024-05-22,1,,,,,ハートランド,0
209,1200001042532,新規,0,2024-05-22,2024-05-22,株式会社Ｍｏｏ,,株式会社,岐阜県,岐阜市,柳津町上佐波１丁目３３６番地（アミティ２１Ｂ３０４）,,21,201,5016121,,,,,,,2024-05-22,1,,,,,モー,0
210,1200003006353,新規,0,2024-05-22,2024-05-22,合同会社ＬＳ企画,,合同会社,岐阜県,瑞浪市,西小田町６丁目１３７番地の１,,21,208,5096114,,,,,,,2024-05-22,1,,,,,エルエスキカク,0
211,1210001019769,新規,0,2024-05-22,2024-05-22,株式会社農仁産業,,株式会社,福井県,大野市,五條方第１４号２９番地,,18,205,9120421,,,,,,,2024-05-22,1,,,,,ノウジンサンギョウ,0
215,1240001063260,新規,0,2024-05-22,2024-05-22,株式会社Ａｉｂｉｎ,,株式会社,広島県,広島市中区,大手町５丁目１番１号大手町ファーストビル６階,,34,101,7300051,,,,,,,2024-05-22,1,,,,,アイビン,0
216,1240001063269,新規,0,2024-05-22,2024-05-22,株式会社藤井工芸,,株式会社,広島県,広島市安佐南区,西原８丁目１５番４０－３号,,34,105,7310113,,,,,,,2024-05-22,1,,,,,フジイコウゲイ,0
227,1290001105818,新規,0,2024-05-22,2024-05-22,株式会社ワイ・スマイル,,株式会社,福岡県,古賀市,舞の里４丁目３番６号,,40,223,8113114,,,,,,,2024-05-22,1,,,,,ワイスマイル,0
231,1320001020476,新規,0,2024-05-22,2024-05-22,萬屋田村株式会社,,株式会社,大分県,日田市,前津江町赤石９６５番地１,,44,204,8770211,,,,,,,2024-05-22,1,,,,,ヨロズヤタムラ,0
232,1330001032017,新規,0,2024-05-22,2024-05-22,株式会社Ｈ．Ｒ．Ａ,,株式会社,熊本県,玉名市,天水町部田見６８６番地,,43,206,8615403,,,,,,,2024-05-22,1,,,,,エイチアールエー,0
233,1330001032090,新規,0,2024-05-22,2024-05-22,株式会社和,,株式会社,熊本県,熊本市北区,龍田２丁目３－３,,43,105,8618006,,,,,,,2024-05-22,1,,,,,ワ,0
236,1350001018971,新規,0,2024-05-22,2024-05-22,株式会社ケービー笑司,,株式会社,宮崎県,宮崎市,大字浮田４５９番地２,,45,201,8802104,,,,,,,2024-05-22,1,,,,,ケービーショウジ,0
238,1360005007037,新規,0,2024-05-22,2024-05-22,一般社団法人助っ人一番,,その他の設立登記法人,沖縄県,糸満市,西崎６丁目４番５－３０２号マルキヨ開発ビル,,47,210,9010305,,,,,,,2024-05-22,1,,,,,スケットイチバン,0
240,1370001051319,新規,0,2024-05-22,2024-05-22,株式会社アストロマーニ,,株式会社,宮城県,仙台市太白区,長町６丁目２番１号,,04,104,9820011,,,,,,,2024-05-22,1,,,,,アストロマーニ,0
241,1380001034553,新規,0,2024-05-22,2024-05-22,ＳＫ株式会社,,株式会社,福島県,いわき市,泉町５丁目６番地の１０フィオーレ・ド・メゾン１０１号室,,07,204,9718185,,,,,,,2024-05-22,1,,,,,エスケー,0
242,1380001034561,新規,0,2024-05-22,2024-05-22,株式会社ミナミ,,株式会社,福島県,いわき市,小島町３丁目７番地の４,,07,204,9738411,,,,,,,2024-05-22,1,,,,,ミナミ,0
249,1410003003932,新規,0,2024-05-22,2024-05-22,合同会社インタラクション,,合同会社,秋田県,秋田市,川尻上野町１番６０－３号,,05,201,0100947,,,,,,,2024-05-22,1,,,,,インタラクション,0
250,1420001018733,新規,0,2024-05-22,2024-05-22,Ｂｌｕｅ　Ｆｏｒｅｓｔ　Ｗｏｒｋｓ株式会社,,株式会社,青森県,弘前市,大字早稲田４丁目９番地５,,02,202,0368087,,,,,,,2024-05-22,1,,,,,ブルーフォレストワークス,0
256,1430003016288,新規,0,2024-05-22,2024-05-22,日新設計合同会社,,合同会社,北海道,札幌市豊平区,豊平六条７丁目１番２７－１０１号,,01,105,0620906,,,,,,,2024-05-22,1,,,,,ニッシンセッケイ,0
257,1430003016362,新規,0,2024-05-22,2024-05-22,合同会社ＴＡＫＥ,,合同会社,北海道,札幌市中央区,南七条西１２丁目４番１０－４０３号,,01,101,0640807,,,,,,,2024-05-22,1,,,,,タケ,0
258,1450003002492,新規,0,2024-05-22,2024-05-22,合同会社ＤＵＮＡＭＩＳ,,合同会社,北海道,枝幸郡枝幸町,歌登東歌登６０８番地１３,,01,514,0985202,,,,,,,2024-05-22,1,,,,,ディナミス,0
267,1490001010774,新規,0,2024-05-22,2024-05-22,構営テック株式会社,,株式会社,高知県,高知市,城北町３番５号,,39,201,7800916,,,,,,,2024-05-22,1,,,,,コウエイテック,0
271,1700150125491,新規,0,2024-05-22,2024-05-22,ｈａｎｇｚｈｏｕｘｉａｏｘｉａｏｊｉｎｃｈｕｋｏｕｙｏｕｘｉａｎｇｏｎｇｓｉ,,外国会社等,,,,,,,,ｚｈｅｊｉａｎｇｓｈｅｎｇｈａｎｇｚｈｏｕｓｈｉｘｉａｏｓｈａｎｑｕｃｈｅｎｇｘｉａｎｇｊｉｅｄａｏｘｉｎｓｈｉｊｉｇｕａｎｇｃｈａｎｇＣｚｕｏ６１０ｓｈｉ,,,,,,2024-05-22,1,,,,,ハンゾウシャオシャオジンツウコウユウゲンコウシ,0
272,1700150125500,新規,0,2024-05-22,2024-05-22,Ｈｏｈｅｍ　Ｔｅｃｈｎｏｌｏｇｙ　Ｃｏ．，Ｌｔｄ．,,外国会社等,,,,,,,,１０６　Ｂｕｉｌｄｉｎｇ２　Ｊｉｕｘｉａｎｇｌｉｎｇ　Ｎｅｗ　Ｉｎｄｕｓｔｒｙ　Ｐａｒｋ　４２２７　Ｘｉｌｉ　Ｌａｋｅ　Ｒｏａｄ　Ｘｉｌｉ　Ｓｔｒｅｅｔ　Ｎａｎｓｈａｎ　Ｓｈｅｎｚｈｅｎ　Ｇｕａｎｇｄｏｎｇ　ＣＮ,,,,,,2024-05-22,1,,,,,ホヘムテクノロジーカンパニーリミテッド,0
280,2010001245005,新規,0,2024-05-22,2024-05-22,悠悠ライフ株式会社,,株式会社,東京都,千代田区,一番町２０番地５Ｂｒｉｌｌｉａ一番町９０７号,,13,101,1020082,,,,,,,2024-05-22,1,,,,,ユウユウライフ,0
281,2010001245054,新規,0,2024-05-22,2024-05-22,コスプラットフォーム株式会社,,株式会社,東京都,中央区,銀座１丁目１２番４号Ｎ＆ＥＢＬＤ．６Ｆ,,13,102,1040061,,,,,,,2024-05-22,1,,,,,コスプラットフォーム,0
282,2010001245062,新規,0,2024-05-22,2024-05-22,山佐産業ＢＡＷ５リース株式会社,,株式会社,東京都,千代田区,丸の内３丁目１番１号東京共同会計事務所内,,13,101,1000005,,,,,,,2024-05-22,1,,,,,ヤマササンギョウビーエーダブリューファイブリース,0
286,2010003043794,新規,0,2024-05-22,2024-05-22,合同会社ビー和食居酒屋木場,,合同会社,東京都,中央区,日本橋兜町１７－１－７０７,,13,102,1030026,,,,,,,2024-05-22,1,,,,,ビーワショクイザカヤキバ,0
287,2010003043811,新規,0,2024-05-22,2024-05-22,合同会社プードル,,合同会社,東京都,千代田区,神田佐久間町３丁目２１番地５ヒガシカンダビル３０７号,,13,101,1010025,,,,,,,2024-05-22,1,,,,,プードル,0
289,2010005038314,新規,0,2024-05-22,2024-05-22,ＭＳ＆ＡＤインターリスク総研労働組合,,その他の設立登記法人,東京都,千代田区,神田淡路町２丁目１０５番地ＭＳ＆ＡＤインターリスク総研株式会社内,,13,101,1010063,,,,,,,2024-05-22,1,,,,,エムエスアンドエーディーインターリスクソウケン,0
297,2010401182392,新規,0,2024-05-22,2024-05-22,株式会社Ｌｉｆｅ　Ｗｉｚ,,株式会社,東京都,港区,芝浦４丁目１９番１－２９０９号,,13,103,1080023,,,,,,,2024-05-22,1,,,,,ライフウィズ,0
298,2010401182533,新規,0,2024-05-22,2024-05-22,株式会社ＨＩＲＯ,,株式会社,東京都,港区,西麻布３丁目８番４－７０３号,,13,103,1060031,,,,,,,2024-05-22,1,,,,,ヒロ,0
299,2010401182558,新規,0,2024-05-22,2024-05-22,ｕｎｉｐｌｅ株式会社,,株式会社,東京都,港区,南青山２丁目２－１５,,13,103,1070062,,,,,,,2024-05-22,1,,,,,ユニプル,0
300,2010405023238,新規,0,2024-05-22,2024-05-22,特定目的会社ＰＲＥ３,,その他の設立登記法人,東京都,港区,虎ノ門２丁目６番１号,,13,103,1050001,,,,,,,2024-05-22,1,,,,,ピーアールイースリー,0
304,2010601065224,新規,0,2024-05-22,2024-05-22,株式会社ＭＳ　Ｆｏｏｄ,,株式会社,東京都,江東区,富岡１丁目１３番２号山本ビル１Ｆ,,13,108,1350047,,,,,,,2024-05-22,1,,,,,エムエスフード,0
305,2010601065240,新規,0,2024-05-22,2024-05-22,株式会社Ｎｅｗ　Ｍｉｌｅ,,株式会社,東京都,江東区,東砂７丁目３－１６号,,13,108,1360074,,,,,,,2024-05-22,1,,,,,ニューマイル,0
306,2010601065249,新規,0,2024-05-22,2024-05-22,アイリーテックジャパン株式会社,,株式会社,東京都,江東区,東陽２丁目４番３９号新東陽ビル４階,,13,108,1350016,,,,,,,2024-05-22,1,,,,,アイリーテックジャパン,0
307,2010603010830,新規,0,2024-05-22,2024-05-22,Ｌｏｎｇ　Ｔａｉｌｓ合同会社,,合同会社,東京都,江東区,富岡２丁目７番４－９０１号,,13,108,1350047,,,,,,,2024-05-22,1,,,,,ロングテイルズ,0
309,2010703007157,新規,0,2024-05-22,2024-05-22,合同会社コミットリング,,合同会社,東京都,品川区,西大井６丁目１４－７,,13,109,1400015,,,,,,,2024-05-22,1,,,,,コミットリング,0
311,2010801035076,新規,0,2024-05-22,2024-05-22,株式会社ＴＪ,,株式会社,東京都,大田区,東雪谷２丁目９番１４号,,13,111,1450065,,,,,,,2024-05-22,1,,,,,ティージェイ,0
313,2010901055321,新規,0,2024-05-22,2024-05-22,株式会社大起,,株式会社,東京都,世田谷区,弦巻２丁目１２番２４号,,13,112,1540016,,,,,,,2024-05-22,1,,,,,ダイキ,0
318,2011001162149,新規,0,2024-05-22,2024-05-22,株式会社Ｕ　ａｒ,,株式会社,東京都,渋谷区,神南１丁目４－１３、３０５号室,,13,113,1500041,,,,,,,2024-05-22,1,,,,,ユアー,0
319,2011001162181,新規,0,2024-05-22,2024-05-22,株式会社日烏,,株式会社,東京都,渋谷区,円山町５番５号Ｎａｖｉ渋谷Ｖ３階,,13,113,1500044,,,,,,,2024-05-22,1,,,,,ニチウ,0
322,2011101107334,新規,0,2024-05-22,2024-05-22,株式会社ｆｕｕｎ,,株式会社,東京都,新宿区,新宿２丁目１４番４－３０５号,,13,104,1600022,,,,,,,2024-05-22,1,,,,,フウウン,0
323,2011105011037,新規,0,2024-05-22,2024-05-22,社会保険労務士法人ＡＬＬＲＯＵＮＤ新宿,,その他の設立登記法人,東京都,新宿区,西新宿３丁目７番２６号ハイネスロワイヤル１１１１号室,,13,104,1600023,,,,,,,2024-05-22,1,,,,,オールラウンドシンジュク,0
324,2011301029667,新規,0,2024-05-22,2024-05-22,株式会社ブームプロジェクト,,株式会社,東京都,杉並区,和田３丁目５３番１０号,,13,115,1660012,,,,,,,2024-05-22,1,,,,,ブームプロジェクト,0
330,2012303001993,新規,0,2024-05-22,2024-05-22,Ｒｕｎ　Ｂｅａｕｔｙ　Ｃｏｍｐａｎｙ合同会社,,合同会社,東京都,町田市,原町田６丁目２７－８サイドパーク５０２,,13,209,1940013,,,,,,,2024-05-22,1,,,,,ルンビューティーカンパニー,0
331,2012401041900,新規,0,2024-05-22,2024-05-22,株式会社三井商事,,株式会社,東京都,稲城市,矢野口５５４－９,,13,225,2060812,,,,,,,2024-05-22,1,,,,,ミツイショウジ,0
332,2012701018268,新規,0,2024-05-22,2024-05-22,株式会社ＰｏｒｔＰｏｒｔ,,株式会社,東京都,東久留米市,氷川台１丁目１９番２号,,13,222,2030004,,,,,,,2024-05-22,1,,,,,ポートポート,0
334,2012801023192,新規,0,2024-05-22,2024-05-22,ＵＮＩＳＯＮ株式会社,,株式会社,東京都,国立市,東１丁目４番地の６国立商協ビル２ＦＳＯＨＯプラザハニカム,,13,215,1860002,,,,,,,2024-05-22,1,,,,,ユニゾン,0
337,2013301052558,新規,0,2024-05-22,2024-05-22,株式会社住まいる,,株式会社,東京都,豊島区,長崎３丁目２６番２号,,13,116,1710051,,,,,,,2024-05-22,1,,,,,スマイル,0
338,2013301052566,新規,0,2024-05-22,2024-05-22,Ｈｕｍａｎ　Ｓｔｅｌｌａｒ　Ｃｏｎｓｕｌｔｉｎｇ株式会社,,株式会社,東京都,豊島区,池袋２丁目１７番８号天翔池袋西口ＡＮＮＥＸビル,,13,116,1710014,,,,,,,2024-05-22,1,,,,,ヒューマンステラーコンサルティング,0
343,2020001157364,新規,0,2024-05-22,2024-05-22,やさしい薬局株式会社,,株式会社,神奈川県,横浜市青葉区,美しが丘２丁目２０－１９,,14,117,2250002,,,,,,,2024-05-22,1,,,,,ヤサシイヤッキョク,0
344,2020001157372,新規,0,2024-05-22,2024-05-22,株式会社ＰＡＲＣＨ,,株式会社,神奈川県,川崎市高津区,溝口６丁目７番２８－２号,,14,134,2130001,,,,,,,2024-05-22,1,,,,,パーチ,0
351,2021005013099,新規,0,2024-05-22,2024-05-22,一般社団法人オホーツク次世代創造研究機構,,その他の設立登記法人,神奈川県,座間市,南栗原１丁目１３番３８－５０４号クリオかしわ台伍番館,,14,216,2520015,,,,,,,2024-05-22,1,,,,,オホーツクジセダイソウゾウケンキュウキコウ,0
363,2030003024355,新規,0,2024-05-22,2024-05-22,ＴＤＫ合同会社,,合同会社,埼玉県,坂戸市,大字片柳７４７番地,,11,239,3500219,,,,,,,2024-05-22,1,,,,,ティーディーケー,0
368,2040001133710,新規,0,2024-05-22,2024-05-22,株式会社エイチキューブ,,株式会社,千葉県,千葉市美浜区,中瀬２丁目６番地１,,12,106,2610023,,,,,,,2024-05-22,1,,,,,エイチキューブ,0
369,2040001133727,新規,0,2024-05-22,2024-05-22,株式会社ｘＩＰａｒｔｎｅｒｓ,,株式会社,千葉県,船橋市,本町７丁目１７番２５－１３０２号,,12,204,2730005,,,,,,,2024-05-22,1,,,,,エックスアイパートナーズ,0
374,2040003025039,新規,0,2024-05-22,2024-05-22,合同会社グラビティ,,合同会社,千葉県,千葉市中央区,中央３丁目４番１０号千葉銀座ビル６階Ｂ号室,,12,101,2600013,,,,,,,2024-05-22,1,,,,,グラビティ,0
377,2050001054781,新規,0,2024-05-22,2024-05-22,株式会社タテノ,,株式会社,茨城県,かすみがうら市,稲吉東４丁目１２番３号,,08,230,3150053,,,,,,,2024-05-22,1,,,,,タテノ,0
379,2050003008380,新規,0,2024-05-22,2024-05-22,東京先進機構合同会社,,合同会社,茨城県,龍ケ崎市,平台４丁目１９番地２１,,08,208,3010003,,,,,,,2024-05-22,1,,,,,トウキョウセンシンキコウ,0
380,2050003008389,新規,0,2024-05-22,2024-05-22,合同会社ＡＩＭ　ＪＰソリューション,,合同会社,茨城県,つくば市,吾妻２丁目５番地１つくば市産業振興センター１Ｆ,,08,220,3050031,,,,,,,2024-05-22,1,,,,,アイムジェーピーソリューション,0
385,2060001037125,新規,0,2024-05-22,2024-05-22,吉和商事株式会社,,株式会社,栃木県,日光市,轟１３８３番地１,,09,206,3212404,,,,,,,2024-05-22,1,,,,,ヨシワショウジ,0
392,2070003005426,新規,0,2024-05-22,2024-05-22,合同会社ＩＲＩＳＡＷＡ,,合同会社,群馬県,利根郡片品村,大字越本字細工屋１８７１番地４,,10,443,3780413,,,,,,,2024-05-22,1,,,,,イリサワ,0
395,2080101024764,新規,0,2024-05-22,2024-05-22,株式会社Ｅｖｏｌｕｔｉｏｎ　Ｆａｃｔｏｒｙ,,株式会社,静岡県,三島市,谷田４７番地の５,,22,206,4110801,,,,,,,2024-05-22,1,,,,,エボリューションファクトリー,0
396,2080401027194,新規,0,2024-05-22,2024-05-22,株式会社ｉｓ,,株式会社,静岡県,浜松市中央区,根洗町２８８番地,,22,138,4338108,,,,,,,2024-05-22,1,,,,,イズ,0
397,2080403005017,新規,0,2024-05-22,2024-05-22,ドラマカンパニー合同会社,,合同会社,静岡県,菊川市,堀之内１４４６番地１階,,22,224,4390006,,,,,,,2024-05-22,1,,,,,ドラマカンパニー,0
401,2100003007559,新規,0,2024-05-22,2024-05-22,合同会社４３２,,合同会社,長野県,中野市,大字金井４７７番地５,,20,211,3830008,,,,,,,2024-05-22,1,,,,,シミズ,0
420,2120001265025,新規,0,2024-05-22,2024-05-22,サンライズ株式会社,,株式会社,大阪府,大阪市西成区,太子１丁目１１番３号,,27,122,5570002,,,,,,,2024-05-22,1,,,,,サンライズ,0
421,2120001265099,新規,0,2024-05-22,2024-05-22,株式会社Ｍａｄｅ　Ｏｎｅ,,株式会社,大阪府,大阪市東成区,大今里２丁目１３番３号,,27,115,5370012,,,,,,,2024-05-22,1,,,,,メイドワン,0
422,2120001265149,新規,0,2024-05-22,2024-05-22,株式会社ＢＡＵＭ　ｄｅｓｉｇｎ,,株式会社,大阪府,大阪市住吉区,殿辻１丁目４番１４号,00134854,27,120,5580042,,,,,,,2024-05-22,1,,,,,バウムデザイン,0
426,2120003026648,新規,0,2024-05-22,2024-05-22,合同会社ＳＥＩＥＩ,,合同会社,大阪府,大阪市東住吉区,湯里６丁目９－２１,,27,121,5460013,,,,,,,2024-05-22,1,,,,,セイエイ,0
430,2120103005840,新規,0,2024-05-22,2024-05-22,合同会社春陽,,合同会社,大阪府,堺市西区,浜寺元町５丁７８８－１ヨーク浜寺３０３,,27,144,5928343,,,,,,,2024-05-22,1,,,,,ハルヒ,0
435,2130001077106,新規,0,2024-05-22,2024-05-22,株式会社学園生活向上研究所ＳＯＡＲ,,株式会社,京都府,京都市中京区,藤木町２４－２藤ビル２階,,26,104,6040992,,,,,,,2024-05-22,1,,,,,ガクエンセイカツコウジョウケンキュウショソー,0
437,2130003009569,新規,0,2024-05-22,2024-05-22,合同会社防災ラボラトリー,,合同会社,京都府,福知山市,夜久野町直見２７３７,,26,201,6291321,,,,,,,2024-05-22,1,,,,,ボウサイラボラトリー,0
440,2140001134500,新規,0,2024-05-22,2024-05-22,ＳＫクリエイト株式会社,,株式会社,兵庫県,川西市,錦松台５番６－２号,,28,217,6660135,,,,,,,2024-05-22,1,,,,,エスケークリエイト,0
441,2140001134509,新規,0,2024-05-22,2024-05-22,樂悠園株式会社,,株式会社,兵庫県,神戸市灘区,大月台１－９,,28,102,6570017,,,,,,,2024-05-22,1,,,,,ラクユウエン,0
445,2140003020608,新規,0,2024-05-22,2024-05-22,合同会社しがき,,合同会社,兵庫県,西宮市,若松町２番２５号,,28,204,6620035,,,,,,,2024-05-22,1,,,,,シガキ,0
446,2140005027089,新規,0,2024-05-22,2024-05-22,一般社団法人プライムパートナーズ,,その他の設立登記法人,兵庫県,尼崎市,御園町２４番地尼崎第一ビル４０２号,,28,202,6600861,,,,,,,2024-05-22,1,,,,,プライムパートナーズ,0
448,2150003003264,新規,0,2024-05-22,2024-05-22,合同会社晴風,,合同会社,奈良県,五條市,原町３１２番地の１,,29,207,6370028,,,,,,,2024-05-22,1,,,,,ハレカゼ,0
449,2160003003197,新規,0,2024-05-22,2024-05-22,合同会社旨味家,,合同会社,滋賀県,大津市,国分１丁目１６－３７もみの木ハウス１階,,25,201,5200844,,,,,,,2024-05-22,1,,,,,ウマミヤ,0
453,2180001161524,新規,0,2024-05-22,2024-05-22,株式会社栄会,,株式会社,愛知県,名古屋市中区,千代田３丁目１番７号,,23,106,4600012,,,,,,,2024-05-22,1,,,,,サカエ,0
454,2180001161557,新規,0,2024-05-22,2024-05-22,ＫＭシミズ株式会社,,株式会社,愛知県,豊明市,新栄町２丁目１８９番地,,23,229,4701154,,,,,,,2024-05-22,1,,,,,ケイエムシミズ,0
455,2180001161581,新規,0,2024-05-22,2024-05-22,株式会社ｆｉｎｎ,,株式会社,愛知県,名古屋市中村区,名駅１丁目１番３号ＪＲゲートタワー２７階,,23,105,4500002,,,,,,,2024-05-22,1,,,,,フィン,0
463,2190005011955,新規,0,2024-05-22,2024-05-22,農事組合法人佐々木ファーム,,その他の設立登記法人,三重県,鈴鹿市,平田本町２丁目１０番１０号小林ビル２０６号室,,24,207,5130848,,,,,,,2024-05-22,1,,,,,ササキファーム,0
469,2210001019768,新規,0,2024-05-22,2024-05-22,株式会社ＡＡＭ,,株式会社,福井県,福井市,二の宮３丁目４番１４号,,18,201,9100015,,,,,,,2024-05-22,1,,,,,エーエーエム,0
473,2230005009391,新規,0,2024-05-22,2024-05-22,行政書士法人大岩事務所,,その他の設立登記法人,富山県,富山市,向新庄町１丁目５番１号,,16,201,9300916,,,,,,,2024-05-22,1,,,,,オオイワジムショ,0
485,2290001105841,新規,0,2024-05-22,2024-05-22,株式会社キープ,,株式会社,福岡県,福岡市中央区,警固１丁目１番１５号リヴィエール警固５０２,,40,133,8100023,,,,,,,2024-05-22,1,,,,,キープ,0
486,2290001105858,新規,0,2024-05-22,2024-05-22,株式会社アスロウ,,株式会社,福岡県,糸島市,神在東２丁目６番２６号（１０２）,,40,230,8191120,,,,,,,2024-05-22,1,,,,,アスロウ,0
487,2290001105866,新規,0,2024-05-22,2024-05-22,株式会社オスソワケグループ,,株式会社,福岡県,福岡市中央区,今川２丁目１１番５号大濠ルッソＩＩ５号,00134859,40,133,8100054,,,,,,,2024-05-22,1,,,,,オスソワケグループ,0
506,2350003004655,新規,0,2024-05-22,2024-05-22,合同会社彌榮,,合同会社,宮崎県,都城市,高城町桜木１４５１番地８,,45,202,8851204,,,,,,,2024-05-22,1,,,,,イヤサカ,0
510,2360003013993,新規,0,2024-05-22,2024-05-22,合同会社粟国商店,,合同会社,沖縄県,浦添市,城間３丁目２５番６－２０１号サンパークパレス浦添,,47,208,9012133,,,,,,,2024-05-22,1,,,,,アグニショウテン,0
511,2360005007036,新規,0,2024-05-22,2024-05-22,一般社団法人沖縄県害虫防除業協会,,その他の設立登記法人,沖縄県,那覇市,松山２丁目８番地８号３階,,47,201,9000032,,,,,,,2024-05-22,1,,,,,オキナワケンガイチュウボウジョギョウキョウカイ,0
515,2370001051318,新規,0,2024-05-22,2024-05-22,クリコマヤマビール株式会社,,株式会社,宮城県,栗原市,栗駒岩ケ崎六日町８４,,04,213,9895301,,,,,,,2024-05-22,1,,,,,クリコマヤマビール,0
541,2480001012481,新規,0,2024-05-22,2024-05-22,株式会社ＰＬＡＹＬＩＳＴ,,株式会社,徳島県,徳島市,南島田町３丁目２６番地の６,,36,201,7700053,,,,,,,2024-05-22,1,,,,,プレイリスト,0
543,2490001010773,新規,0,2024-05-22,2024-05-22,ちえふくろうＭＳ株式会社,,株式会社,高知県,高知市,福井扇町１１８２－１,,39,201,7800966,,,,,,,2024-05-22,1,,,,,チエフクロウエムエス,0
547,2700150125490,新規,0,2024-05-22,2024-05-22,ｓｈｅｎｚｈｅｎｓｈｉｂｅｉｈｅｋｅｊｉｙｏｕｘｉａｎｇｏｎｇｓｉ,,外国会社等,,,,,,,,１９０１，Ｂｌｏｃｋ　Ｂ，Ｂｕｉｌｄｉｎｇ　３，Ｋａｎｇｄａｌ　Ｓｈａｎｈａｉ　Ｐａｒｋ，Ｎｏ．４５６８　Ｂａｏ’ａｎ　Ａｖｅｎｕｅ，Ｇｕｘｉｎｇ　Ｃｏｍｍｕｎｉｔｙ，Ｘｉｘｉａｎｇ　Ｓｔｒｅｅｔ，Ｂａｏ’ａｎ　Ｄｉｓｔｒｉｃｔ，Ｓｈｅｎｚｈｅｎ，Ｃｈｉｎａ．,,,,,,2024-05-22,1,,,,,シンセンシベイヘカギユウゲンコウシ,0
548,2700150125499,新規,0,2024-05-22,2024-05-22,ｇｕａｎｇｄｏｎｇ　ｊｉｎｄａ　ｋａｎｇｆｕ　ｈｕｌｉ　ｙｏｎｇｐｉｎ　ｙｏｕｘｉａｎ　ｇｏｎｇｓｉ,,外国会社等,,,,,,,,Ｃ　２ｒｄ　Ｆｌ．１　ｄｏｎｇ　ＮＯ．１７　ｓｈｉｙｏｎｇ　Ｒｄ．Ｈｕｏｊｕ　ｋａｉｆａｑｕ　ｚｈｏｎｇｓｈａｎ　ｇｕａｎｇｄｏｎｇ,,,,,,2024-05-22,1,,,,,カントンジンダカンフフリヨンピンユウゲンコウシ,0
556,3010001245012,新規,0,2024-05-22,2024-05-22,株式会社Ｉ＆Ｄ　ＧＲＯＵＰ,,株式会社,東京都,中央区,築地７丁目８番３－８０２号,,13,102,1040045,,,,,,,2024-05-22,1,,,,,アイアンドディーグループ,0
557,3010001245053,新規,0,2024-05-22,2024-05-22,株式会社ストフラ,,株式会社,東京都,中央区,勝どき４丁目６－２－３３０８パークタワー勝どきミッド,,13,102,1040054,,,,,,,2024-05-22,1,,,,,ストフラ,0
559,3010003043802,新規,0,2024-05-22,2024-05-22,Ｉｚｕｍｉ合同会社,,合同会社,東京都,中央区,銀座１丁目２２番１１号銀座大竹ビジデンス２Ｆ,,13,102,1040061,,,,,,,2024-05-22,1,,,,,イズミ,0
570,3010401182524,新規,0,2024-05-22,2024-05-22,株式会社ＴＴ３,,株式会社,東京都,港区,西麻布４丁目１番１号,,13,103,1060031,,,,,,,2024-05-22,1,,,,,ティーティースリー,0
571,3010401182532,新規,0,2024-05-22,2024-05-22,３ＡＭ　ＪＡＰＡＮ株式会社,,株式会社,東京都,港区,南青山３丁目１番３６号青山丸竹ビル６Ｆ,,13,103,1070062,,,,,,,2024-05-22,1,,,,,スリーエーエムジャパン,0
572,3010401182540,新規,0,2024-05-22,2024-05-22,株式会社マイサプリメント研究所,,株式会社,東京都,港区,芝浦１丁目９番７号おもだかビル４階４１６,,13,103,1050023,,,,,,,2024-05-22,1,,,,,マイサプリメントケンキュウジョ,0
573,3010403032669,新規,0,2024-05-22,2024-05-22,合同会社Ｍ‐ｍｅｄ,,合同会社,東京都,港区,白金台５丁目１４番２号プラチナビュー白金台３０１,,13,103,1080071,,,,,,,2024-05-22,1,,,,,エムメッド,0
574,3010403032677,新規,0,2024-05-22,2024-05-22,千葉日の出合同会社,,合同会社,東京都,港区,元赤坂１丁目１番８号株式会社赤坂国際会計内,,13,103,1070051,,,,,,,2024-05-22,1,,,,,チバヒノデ,0
575,3010405023237,新規,0,2024-05-22,2024-05-22,特定目的会社ＰＲＥ２,,その他の設立登記法人,東京都,港区,虎ノ門２丁目６番１号,,13,103,1050001,,,,,,,2024-05-22,1,,,,,ピーアールイーツー,0
576,3010405023245,新規,0,2024-05-22,2024-05-22,一般社団法人人事労務システム協議会,,その他の設立登記法人,東京都,港区,赤坂１丁目３番６号赤坂グレースビル,,13,103,1070052,,,,,,,2024-05-22,1,,,,,ジンジロウムシステムキョウギカイ,0
578,3010501052313,新規,0,2024-05-22,2024-05-22,Ｓｔａｇｅ＆Ｃｏ株式会社,,株式会社,東京都,台東区,蔵前３丁目９－３臼井ビル５階,,13,106,1110051,,,,,,,2024-05-22,1,,,,,ステージアンドコー,0
581,3010601065231,新規,0,2024-05-22,2024-05-22,株式会社Ｄ．Ｃ,,株式会社,東京都,江東区,新砂２丁目５番２０号ＧＬＰ新砂１号棟Ｃブロック,,13,108,1360075,,,,,,,2024-05-22,1,,,,,ディードットシー,0
583,3010701046024,新規,0,2024-05-22,2024-05-22,株式会社ＢＯＬＥＲＯ,,株式会社,東京都,品川区,東五反田２丁目５－５－１０１,,13,109,1410022,,,,,,,2024-05-22,1,,,,,ボレロ,0
584,3010701046032,新規,0,2024-05-22,2024-05-22,株式会社ココロヤドル,,株式会社,東京都,品川区,戸越２丁目６番１３号,,13,109,1420041,,,,,,,2024-05-22,1,,,,,ココロヤドル,0
586,3010801035075,新規,0,2024-05-22,2024-05-22,ＴＹＲ　Ｔｏｋｙｏ株式会社,,株式会社,東京都,大田区,田園調布２丁目９番８号,,13,111,1450071,,,,,,,2024-05-22,1,,,,,ティーワイアールトウキョウ,0
593,3010901055320,新規,0,2024-05-22,2024-05-22,ＭＧＡ株式会社,,株式会社,東京都,世田谷区,池尻３丁目６－９メゾン雨宮３０３,,13,112,1540001,,,,,,,2024-05-22,1,,,,,ミライグローバルエージェント,0
594,3010903009051,新規,0,2024-05-22,2024-05-22,合同会社モフミ,,合同会社,東京都,世田谷区,上馬４丁目１番４－１１０１号,,13,112,1540011,,,,,,,2024-05-22,1,,,,,モフミ,0
613,3011601027766,新規,0,2024-05-22,2024-05-22,株式会社一心創建,,株式会社,東京都,練馬区,田柄２丁目１６番１７号,,13,120,1790073,,,,,,,2024-05-22,1,,,,,イッシンソウケン,0
615,3011703003830,新規,0,2024-05-22,2024-05-22,合同会社ワールドマーケティング,,合同会社,東京都,江戸川区,東葛西５丁目５２番１０号ハイム東葛西１０１,,13,123,1340084,,,,,,,2024-05-22,1,,,,,ワールドマーケティング,0
617,3011801044264,新規,0,2024-05-22,2024-05-22,株式会社ＪＩ　ＰＡＲＴＮＥＲＳ,,株式会社,東京都,足立区,保木間１丁目３３番４号,,13,121,1210064,,,,,,,2024-05-22,1,,,,,ジェイアイパートナーズ,0
624,3012701018267,新規,0,2024-05-22,2024-05-22,株式会社ネクトレ,,株式会社,東京都,西東京市,栄町１丁目３－１,,13,229,2020006,,,,,,,2024-05-22,1,,,,,ネクトレ,0
635,3020003026137,新規,0,2024-05-22,2024-05-22,アジアビジネス・コンサルティング合同会社,,合同会社,神奈川県,横浜市青葉区,荏田西２丁目３８－３８,,14,117,2250014,,,,,,,2024-05-22,1,,,,,アジアビジネスコンサルティング,0
636,3020003026178,新規,0,2024-05-22,2024-05-22,横浜関内＆みなとみらい合同会社,,合同会社,神奈川県,横浜市中区,桜木町１丁目１０１番地１クロスゲート７階,,14,104,2310062,,,,,,,2024-05-22,1,,,,,ヨコハマカンナイアンドミナトミライ,0
638,3021001082304,新規,0,2024-05-22,2024-05-22,９５ＢＡＳＥ株式会社,,株式会社,神奈川県,茅ヶ崎市,西久保７０２－１１,,14,207,2530083,,,,,,,2024-05-22,1,,,,,キュウゴーベース,0
639,3021003014544,新規,0,2024-05-22,2024-05-22,合同会社マークウェル,,合同会社,神奈川県,中郡二宮町,山西９２４番地の２ブランドール３０６号,,14,342,2590124,,,,,,,2024-05-22,1,,,,,マークウェル,0
648,3030001160507,新規,0,2024-05-22,2024-05-22,株式会社ＳＥＣＯＮＤ　ＨＯＵＳＥ,,株式会社,埼玉県,深谷市,国済寺町２０－５,,11,218,3660031,,,,,,,2024-05-22,1,,,,,セカンドハウス,0
660,3040001133718,新規,0,2024-05-22,2024-05-22,株式会社ｍａｒｎｏ,,株式会社,千葉県,夷隅郡大多喜町,横山９９０,,12,441,2980206,,,,,,,2024-05-22,1,,,,,マルノ,0
662,3040003025038,新規,0,2024-05-22,2024-05-22,合同会社どんべぇ,,合同会社,千葉県,市川市,新田３丁目２７番１３号,,12,203,2720035,,,,,,,2024-05-22,1,,,,,ドンベェ,0
670,3060003005087,新規,0,2024-05-22,2024-05-22,ＳＵＮＳＴＡＲ合同会社,,合同会社,栃木県,小山市,大字平和４２番地３サンコーポ平和２０１号室,,09,208,3290212,,,,,,,2024-05-22,1,,,,,サンスター,0
678,3070003005425,新規,0,2024-05-22,2024-05-22,合同会社しろもふファクトリー,,合同会社,群馬県,安中市,秋間みのりが丘３番地１２２,,10,211,3790109,,,,,,,2024-05-22,1,,,,,シロモフファクトリー,0
682,3100003007566,新規,0,2024-05-22,2024-05-22,合同会社Ｗｏｈｅｔｅ,,合同会社,長野県,小諸市,大字御影新田４４９－１２,,20,208,3840808,,,,,,,2024-05-22,1,,,,,ヲヘテ,0
695,3120001265024,新規,0,2024-05-22,2024-05-22,日本好時光株式会社,,株式会社,大阪府,大阪市平野区,瓜破３丁目３番６５－２２３号,,27,126,5470024,,,,,,,2024-05-22,1,,,,,ニホンコウジコウ,0
696,3120001265131,新規,0,2024-05-22,2024-05-22,宏隆株式会社,,株式会社,大阪府,大阪市旭区,清水１丁目１２番１４－１０２号,,27,117,5350021,,,,,,,2024-05-22,1,,,,,コウリュウ,0
697,3120001265148,新規,0,2024-05-22,2024-05-22,ヤマテック株式会社,,株式会社,大阪府,大阪市西区,江之子島１丁目１番９－１００３号,,27,106,5500006,,,,,,,2024-05-22,1,,,,,ヤマテック,0
701,3120003026639,新規,0,2024-05-22,2024-05-22,ＬＯＷＥＬ合同会社,,合同会社,大阪府,大阪市北区,梅田１丁目２番２号大阪駅前第２ビル１２－１２,,27,127,5300001,,,,,,,2024-05-22,1,,,,,ロウェル,0
703,3120005024327,新規,0,2024-05-22,2024-05-22,一般社団法人谷町ソーシャルの会,,その他の設立登記法人,大阪府,大阪市中央区,谷町２丁目３－１ターネンビルＮｏ．２－４階,,27,128,5400012,,,,,,,2024-05-22,1,,,,,タニマチソーシャルノカイ,0
704,3120005024335,新規,0,2024-05-22,2024-05-22,一般社団法人ミライオ,,その他の設立登記法人,大阪府,大阪市北区,大淀南２丁目２番９－８１５号,,27,127,5310075,,,,,,,2024-05-22,1,,,,,ミライオ,0
707,3120103005856,新規,0,2024-05-22,2024-05-22,合同会社幸栄重設,,合同会社,大阪府,富田林市,大字佐備４７４－３,,27,214,5840052,,,,,,,2024-05-22,1,,,,,コウエイジュウセツ,0
708,3120901049195,新規,0,2024-05-22,2024-05-22,株式会社ＰＤ．クリエイト,,株式会社,大阪府,豊中市,新千里南町３丁目１番２３号芝ハイツ２０２号,,27,203,5600084,,,,,,,2024-05-22,1,,,,,プロデュースクリエイト,0
717,3140001134425,新規,0,2024-05-22,2024-05-22,株式会社かのこ不動産,,株式会社,兵庫県,三田市,大原７１２番地８－５階Ｇ室,,28,219,6691515,,,,,,,2024-05-22,1,,,,,カノコフドウサン,0
718,3140001134490,新規,0,2024-05-22,2024-05-22,株式会社Ｈ＆Ｅ,,株式会社,兵庫県,西宮市,神園町１１番１５号,,28,204,6620027,,,,,,,2024-05-22,1,,,,,エイチアンドイー,0
721,3140003020607,新規,0,2024-05-22,2024-05-22,合同会社神戸エデュケーション・ラボ,,合同会社,兵庫県,神戸市北区,有野中町１丁目８－６ＯＧ岡場ビル１階,,28,109,6511313,,,,,,,2024-05-22,1,,,,,コウベエデュケーションラボ,0
723,3140005027088,新規,0,2024-05-22,2024-05-22,一般財団法人イノチムスブ家,,その他の設立登記法人,兵庫県,丹波篠山市,味間新９１番地１,,28,221,6692214,,,,,,,2024-05-22,1,,,,,イノチムスブイエ,0
726,3150001027297,新規,0,2024-05-22,2024-05-22,株式会社アイル,,株式会社,奈良県,天理市,楢町１５３番地,,29,204,6320005,,,,,,,2024-05-22,1,,,,,アイル,0
727,3150003003263,新規,0,2024-05-22,2024-05-22,合同会社エースカンパニー,,合同会社,奈良県,奈良市,左京２丁目２番地の２０９,,29,201,6310801,,,,,,,2024-05-22,1,,,,,エースカンパニー,0
737,3180001161556,新規,0,2024-05-22,2024-05-22,株式会社ポテントアイ,,株式会社,愛知県,名古屋市千種区,今池５丁目２０番２０号今池グランドビル１Ｄ,,23,101,4640850,,,,,,,2024-05-22,1,,,,,ポテントアイ,0
738,3180001161572,新規,0,2024-05-22,2024-05-22,株式会社Ｈｅｒｅ＆ｎｏｗ,,株式会社,愛知県,名古屋市千種区,今池南２９番１６号川島第五ビル３Ｆ,,23,101,4640851,,,,,,,2024-05-22,1,,,,,ヒアアンドナウ,0
739,3180001161589,新規,0,2024-05-22,2024-05-22,鳳凰フェニックスグループ株式会社,,株式会社,愛知県,知多市,大興寺字里９９番地の１,,23,224,4780022,,,,,,,2024-05-22,1,,,,,ホウオウフェニックスグループ,0
740,3180001161597,新規,0,2024-05-22,2024-05-22,株式会社縁,,株式会社,愛知県,名古屋市中村区,名駅５丁目４番１４号花車ビル北館１階,,23,105,4500002,,,,,,,2024-05-22,1,,,,,エニシ,0
741,3180001161630,新規,0,2024-05-22,2024-05-22,株式会社ＯＭＩＮＡＳ,,株式会社,愛知県,清須市,阿原池之表１０１番地１,,23,233,4520901,,,,,,,2024-05-22,1,,,,,オミナス,0
742,3180001161655,新規,0,2024-05-22,2024-05-22,株式会社ＡＪホールディングス,,株式会社,愛知県,名古屋市中村区,名駅南２丁目８番１号ＡＪビル９０１,,23,105,4500003,,,,,,,2024-05-22,1,,,,,エージェイホールディングス,0
746,3180003026807,新規,0,2024-05-22,2024-05-22,合同会社ＫＩＴＡ１５,,合同会社,愛知県,知多郡美浜町,大字奥田字御茶銭１２４－３,,23,446,4703233,,,,,,,2024-05-22,1,,,,,キタイチゴ,0
747,3180301038660,新規,0,2024-05-22,2024-05-22,ＴＡＫＡＭＩＺＵＫＩ株式会社,,株式会社,愛知県,高浜市,田戸町２丁目１番地２２の５,,23,227,4441323,,,,,,,2024-05-22,1,,,,,タカミヅキ,0
752,3190005011954,新規,0,2024-05-22,2024-05-22,農事組合法人宮本産業,,その他の設立登記法人,三重県,鈴鹿市,住吉４丁目１５番３０号サンコーポ鈴鹿アパートＢ－５号室,,24,207,5130826,,,,,,,2024-05-22,1,,,,,,0
756,3200001042530,新規,0,2024-05-22,2024-05-22,日本華源株式会社,,株式会社,岐阜県,加茂郡白川町,坂ノ東８７－５,,21,506,5091106,,,,,,,2024-05-22,1,,,,,ニホンハナゲン,0
757,3200001042539,新規,0,2024-05-22,2024-05-22,株式会社ヤマヨシ製作所,,株式会社,岐阜県,岐阜市,加納安良町６７番地,,21,201,5008422,,,,,,,2024-05-22,1,,,,,ヤマヨシセイサクジョ,0
763,3240001063267,新規,0,2024-05-22,2024-05-22,株式会社ｐｒｅｓｅｎｃｅエール,,株式会社,広島県,広島市南区,段原２丁目５番１１号,,34,103,7320811,,,,,,,2024-05-22,1,,,,,プレゼンスエール,0
773,3290001105849,新規,0,2024-05-22,2024-05-22,株式会社ボルテック,,株式会社,福岡県,糟屋郡志免町,御手洗２丁目１４－６,,40,343,8112206,,,,,,,2024-05-22,1,,,,,ボルテック,0
774,3290001105881,新規,0,2024-05-22,2024-05-22,株式会社Ｍｅｄｉｔｅｌｌａｓ,,株式会社,福岡県,福岡市中央区,天神１丁目９番１７号福岡天神フコク生命ビル５階,,40,133,8100001,,,,,,,2024-05-22,1,,,,,メディテラス,0
779,3330003010381,新規,0,2024-05-22,2024-05-22,合同会社リンクス,,合同会社,熊本県,熊本市中央区,九品寺１丁目７番３０－９０６号コープ野村,,43,101,8620976,,,,,,,2024-05-22,1,,,,,リンクス,0
781,3340001026511,新規,0,2024-05-22,2024-05-22,株式会社溝上車体,,株式会社,鹿児島県,出水市,平和町２０４３番地,,46,208,8990217,,,,,,,2024-05-22,1,,,,,ミゾウエシャタイ,0
787,3360001033695,新規,0,2024-05-22,2024-05-22,三和金属ホールディングス株式会社,,株式会社,沖縄県,那覇市,上之屋１丁目１番２９－６０２号,,47,201,9000011,,,,,,,2024-05-22,1,,,,,サンワキンゾクホールディングス,0
788,3360001033704,新規,0,2024-05-22,2024-05-22,株式会社シマウマ,,株式会社,沖縄県,那覇市,長田１丁目２１番１４,,47,201,9020077,,,,,,,2024-05-22,1,,,,,シマウマ,0
790,3370001051300,新規,0,2024-05-22,2024-05-22,株式会社シュウエイワークス,,株式会社,宮城県,石巻市,蛇田字東道下１５８－２,,04,202,9860861,,,,,,,2024-05-22,1,,,,,シュウエイワークス,0
791,3370001051309,新規,0,2024-05-22,2024-05-22,株式会社友愛,,株式会社,宮城県,栗原市,栗駒八幡中新田１６番地,,04,213,9895324,,,,,,,2024-05-22,1,,,,,ユウアイ,0
792,3370003006624,新規,0,2024-05-22,2024-05-22,合同会社ｓｍａｒｔ,,合同会社,宮城県,仙台市青葉区,木町通１丁目５番２２号アニバーサリー第九木町通４１０号,,04,101,9800801,,,,,,,2024-05-22,1,,,,,スマート,0
798,3380005012834,新規,0,2024-05-22,2024-05-22,一般社団法人飯舘ケナフ事業推進機構,,その他の設立登記法人,福島県,相馬郡飯舘村,草野字宮内２番地１,,07,564,9601801,,,,,,,2024-05-22,1,,,,,イイタテケナフジギョウスイシンキコウ,0
803,3420001018731,新規,0,2024-05-22,2024-05-22,株式会社グローバル,,株式会社,青森県,青森市,大字荒川字筒井３０６番地１ビレッジハウス青森南１１号棟５０５,,02,201,0300111,,,,,,,2024-05-22,1,,,,,グローバル,0
806,3420003002923,新規,0,2024-05-22,2024-05-22,和青マネジメント合同会社,,合同会社,青森県,青森市,大字浪館字近野２６‐１０,,02,201,0380022,,,,,,,2024-05-22,1,,,,,ワアオマネジメント,0
812,3430003016352,新規,0,2024-05-22,2024-05-22,合同会社ワンコネクト,,合同会社,北海道,札幌市手稲区,星置三条１丁目１０番１８号,,01,109,0060853,,,,,,,2024-05-22,1,,,,,ワンコネクト,0
817,3700150125498,新規,0,2024-05-22,2024-05-22,ＨＯＮＧＫＯＮＧ　ＣＲＥＡＬＩＴＹ　３Ｄ　ＩＮＶＥＳＴＭＥＮＴ　ＣＯ．，ＬＩＭＩＴＥＤ,,外国会社等,,,,,,,,Ｕｎｉｔ　１３０７　ＢＥＶＥＲＬＥＹ　ＣＯＭＭ　ＣＴＲ　８７－１０５　ＣＨＡＴＨＡＭ　ＲＤ　ＳＯＵＴＨ　ＴＳＴ　ＫＬ　ＨＫ,,,,,,2024-05-22,1,,,,,ホンコンクリアリティスリーディーインベストメントカンパニーリミテッド,0
824,4010001244954,新規,0,2024-05-22,2024-05-22,オンリーテック株式会社,,株式会社,東京都,中央区,八丁堀３丁目２５番９号,,13,102,1040032,,,,,,,2024-05-22,1,,,,,オンリーテック,0
825,4010001244979,新規,0,2024-05-22,2024-05-22,ＳＤＩ先端技研株式会社,,株式会社,東京都,中央区,銀座２丁目１５－２ＫＲＧｉｎｚａ２・４Ｆ,,13,102,1040061,,,,,,,2024-05-22,1,,,,,エスディアイセンタンギケン,0
826,4010001244995,新規,0,2024-05-22,2024-05-22,サンフラワー株式会社,,株式会社,東京都,千代田区,岩本町２丁目１番８ＳＯＵＳＩＡ神田ビル６Ｇ,,13,101,1010032,,,,,,,2024-05-22,1,,,,,サンフラワー,0
827,4010001245069,新規,0,2024-05-22,2024-05-22,株式会社大手町エナジーパートナー,,株式会社,東京都,千代田区,丸の内１丁目１番２号,,13,101,1000005,,,,,,,2024-05-22,1,,,,,オオテマチエナジーパートナー,0
831,4010003043776,新規,0,2024-05-22,2024-05-22,合同会社ＯＭＯＴＥＮＡＳＨＩ,,合同会社,東京都,中央区,銀座１丁目１２－４Ｎ＆ＥＢＬＤ．７階,,13,102,1040061,,,,,,,2024-05-22,1,,,,,オモテナシ,0
842,4010401182523,新規,0,2024-05-22,2024-05-22,株式会社ＴＴ２,,株式会社,東京都,港区,西麻布４丁目１番１号,,13,103,1060031,,,,,,,2024-05-22,1,,,,,ティーティーツー,0
843,4010401182548,新規,0,2024-05-22,2024-05-22,株式会社Ｅｎａｂｌｅｒｓ,,株式会社,東京都,港区,浜松町２丁目２番１５号浜松町ダイヤビル２Ｆ,,13,103,1050013,,,,,,,2024-05-22,1,,,,,イネーブラーズ,0
844,4010401182572,新規,0,2024-05-22,2024-05-22,株式会社かなかな,,株式会社,東京都,港区,南青山３丁目５番２号,,13,103,1070062,,,,,,,2024-05-22,1,,,,,カナカナ,0
845,4010403032577,新規,0,2024-05-22,2024-05-22,ＭＩＨＡＲＵ合同会社,,合同会社,東京都,港区,白金台３丁目２番７号,,13,103,1080071,,,,,,,2024-05-22,1,,,,,ミハル,0
847,4010405023236,新規,0,2024-05-22,2024-05-22,特定目的会社ＰＲＥ１,,その他の設立登記法人,東京都,港区,虎ノ門２丁目６番１号,,13,103,1050001,,,,,,,2024-05-22,1,,,,,ピーアールイーワン,0
848,4010405023252,新規,0,2024-05-22,2024-05-22,春日部ファシリティ２一般社団法人,,その他の設立登記法人,東京都,港区,六本木１丁目６番１号泉ガーデンタワー,,13,103,1060032,,,,,,,2024-05-22,1,,,,,カスカベファシリティツー,0
849,4010501052304,新規,0,2024-05-22,2024-05-22,Ｅｒａ　Ｃｌｏｕｄ株式会社,,株式会社,東京都,台東区,鳥越２丁目８－４島崎第１０ビル１０４室,,13,106,1110054,,,,,,,2024-05-22,1,,,,,エラクラウド,0
850,4010501052312,新規,0,2024-05-22,2024-05-22,Ｓｈｉｍｍｅｒ　Ｂａｙ株式会社,,株式会社,東京都,台東区,上野３丁目１１番５号,,13,106,1100005,,,,,,,2024-05-22,1,,,,,シマーベイ,0
851,4010601065230,新規,0,2024-05-22,2024-05-22,ＴＯＫＹＯ　ＧＲＡＮＤ　ＬＩＮＥ株式会社,,株式会社,東京都,墨田区,石原４丁目２１番３号,,13,107,1300011,,,,,,,2024-05-22,1,,,,,トウキョウグランドライン,0
854,4010703007188,新規,0,2024-05-22,2024-05-22,合同会社ｐｉｎｏｔｏｎｅ,,合同会社,東京都,品川区,小山３丁目１４番２－２２０３号,,13,109,1420062,,,,,,,2024-05-22,1,,,,,ピノトーン,0
856,4010705003631,新規,0,2024-05-22,2024-05-22,一般社団法人未来政経研究所,,その他の設立登記法人,東京都,品川区,大井７丁目１７番１０号,,13,109,1400014,,,,,,,2024-05-22,1,,,,,ミライセイケイケンキュウジョ,0
857,4010801035082,新規,0,2024-05-22,2024-05-22,ＥＳＳ株式会社,,株式会社,東京都,大田区,蒲田本町２丁目１２－１０ピソプラテーロ２０１号室,,13,111,1440053,,,,,,,2024-05-22,1,,,,,イーエスエス,0
860,4010803004960,新規,0,2024-05-22,2024-05-22,合同会社妙,,合同会社,東京都,大田区,上池台１丁目１番６号,,13,111,1450064,,,,,,,2024-05-22,1,,,,,タエ,0
861,4010901055328,新規,0,2024-05-22,2024-05-22,株式会社アクト,,株式会社,東京都,世田谷区,上馬２丁目５番１３号,,13,112,1540011,,,,,,,2024-05-22,1,,,,,アクト,0
871,4011001162171,新規,0,2024-05-22,2024-05-22,Ｙ’ｓ　Ｊａｐａｎ　Ｐｒｏｐｅｒｔｉｅｓ株式会社,,株式会社,東京都,渋谷区,千駄ヶ谷３丁目５３番１２号グレンパーク原宿２０２,,13,113,1510051,,,,,,,2024-05-22,1,,,,,ワイズジャパンプロパティーズ,0
874,4011005010509,新規,0,2024-05-22,2024-05-22,一般社団法人障害者アーティスト自立支援協会,,その他の設立登記法人,東京都,渋谷区,道玄坂１丁目１０番８号,,13,113,1500043,,,,,,,2024-05-22,1,,,,,ショウガイシャアーティストジリツシエンキョウカイ,0
880,4011201025491,新規,0,2024-05-22,2024-05-22,株式会社Ｎ　ＴＲＩＢＥ,,株式会社,東京都,中野区,丸山２丁目２８－１８第２メゾン篠崎３０１,,13,114,1650021,,,,,,,2024-05-22,1,,,,,エヌトライブ,0
890,4011601027757,新規,0,2024-05-22,2024-05-22,株式会社Ｂｏｎｄｓ８０３,,株式会社,東京都,練馬区,大泉町３丁目３４番１９号,,13,120,1780062,,,,,,,2024-05-22,1,,,,,ボンズハチマルサン,0
896,4011801044263,新規,0,2024-05-22,2024-05-22,ＧＭＩ株式会社,,株式会社,東京都,足立区,栗原３丁目２６番１号２Ｆ,,13,121,1230842,,,,,,,2024-05-22,1,,,,,ジーエムアイ,0
900,4012403006544,新規,0,2024-05-22,2024-05-22,合同会社ＳＡＬＴ,,合同会社,東京都,調布市,深大寺東町７丁目１１－１５,,13,208,1820012,,,,,,,2024-05-22,1,,,,,ソルト,0
901,4012701018266,新規,0,2024-05-22,2024-05-22,株式会社ＩＺＵＭＥ,,株式会社,東京都,小平市,鈴木町２丁目１５６番地の６４,,13,211,1870011,,,,,,,2024-05-22,1,,,,,イズメ,0
906,4012801023190,新規,0,2024-05-22,2024-05-22,株式会社Ａｆ．ＬＩＦＥ,,株式会社,東京都,昭島市,美堀町１丁目１２－３,,13,207,1960001,,,,,,,2024-05-22,1,,,,,エーフライフ,0
907,4012803003406,新規,0,2024-05-22,2024-05-22,合同会社ＡＬＡＮＡ,,合同会社,東京都,昭島市,昭和町３丁目１４番１２号,,13,207,1960015,,,,,,,2024-05-22,1,,,,,アラナ,0
908,4013301052548,新規,0,2024-05-22,2024-05-22,ひらぱぁ株式会社,,株式会社,東京都,豊島区,東池袋１丁目３８番７号コンシェリア池袋マスターズヴィラ９０１号,,13,116,1700013,,,,,,,2024-05-22,1,,,,,ヒラパァ,0
909,4013301052556,新規,0,2024-05-22,2024-05-22,株式会社プリモ,,株式会社,東京都,豊島区,南池袋２丁目４７番１４号,,13,116,1710022,,,,,,,2024-05-22,1,,,,,プリモ,0
910,4013301052564,新規,0,2024-05-22,2024-05-22,株式会社ＥＤＧＥ,,株式会社,東京都,豊島区,南長崎１丁目１３番１２号,,13,116,1710052,,,,,,,2024-05-22,1,,,,,エッジ,0
915,4020001157321,新規,0,2024-05-22,2024-05-22,株式会社ウェルナ,,株式会社,神奈川県,川崎市麻生区,上麻生３丁目２２番６号,,14,137,2150021,,,,,,,2024-05-22,1,,,,,ウェルナ,0
919,4020003026169,新規,0,2024-05-22,2024-05-22,ＫＡＮＡＤＥ合同会社,,合同会社,神奈川県,川崎市多摩区,登戸２１３０番地２アトラスタワー向ヶ丘遊園２０８号室,,14,135,2140014,,,,,,,2024-05-22,1,,,,,カナデ,0
920,4020003026177,新規,0,2024-05-22,2024-05-22,合同会社ＦＬＡＴ,,合同会社,神奈川県,川崎市中原区,新丸子町７６０番地２,,14,133,2110005,,,,,,,2024-05-22,1,,,,,フラット,0
932,4030003024345,新規,0,2024-05-22,2024-05-22,Ｓｌａｃｋ合同会社,,合同会社,埼玉県,川口市,川口５丁目１０番１８号ウィローハイムＩＩ１０１号,00134863,11,203,3320015,,,,,,,2024-05-22,1,,,,,スラック,0
937,4040001133725,新規,0,2024-05-22,2024-05-22,株式会社リテリア,,株式会社,千葉県,船橋市,海神３丁目２０番１８号ブリーズ東海神Ｅ棟１０１,,12,204,2730021,,,,,,,2024-05-22,1,,,,,リテリア,0
941,4040003025037,新規,0,2024-05-22,2024-05-22,合同会社フェレット,,合同会社,千葉県,鎌ケ谷市,東中沢４丁目１－５,,12,224,2730112,,,,,,,2024-05-22,1,,,,,フェレット,0
944,4060001037131,新規,0,2024-05-22,2024-05-22,シィ・エル株式会社,,株式会社,栃木県,鹿沼市,板荷１１０番地,,09,205,3211111,,,,,,,2024-05-22,1,,,,,シィエル,0
948,4070001041719,新規,0,2024-05-22,2024-05-22,ｇｒｅｅｎ株式会社,,株式会社,群馬県,藤岡市,白石２１１３番地５,,10,209,3750055,,,,,,,2024-05-22,1,,,,,グリーン,0
949,4070003005424,新規,0,2024-05-22,2024-05-22,合同会社Ａｌａｉｓｅ,,合同会社,群馬県,館林市,西高根町５２番地の１４,,10,207,3740075,,,,,,,2024-05-22,1,,,,,アレーズ,0
951,4080401027201,新規,0,2024-05-22,2024-05-22,株式会社アンサング,,株式会社,静岡県,浜松市中央区,龍禅寺町８番地,,22,138,4300924,,,,,,,2024-05-22,1,,,,,アンサング,0
962,4110005017099,新規,0,2024-05-22,2024-05-22,信善ビル管理組合法人,,その他の設立登記法人,新潟県,南蒲原郡田上町,大字羽生田丙４１番地３,,15,361,9591512,,,,,,,2024-05-22,1,,,,,シンゼンビル,0
976,4120001265023,新規,0,2024-05-22,2024-05-22,日本羽木華株式会社,,株式会社,大阪府,大阪市平野区,瓜破３丁目３番６５－２０３号,,27,126,5470024,,,,,,,2024-05-22,1,,,,,ニホンワキカ,0
977,4120001265188,新規,0,2024-05-22,2024-05-22,ＡＮＤＵ　ＨＯＭＥ株式会社,,株式会社,大阪府,大阪市東淀川区,西淡路１丁目１３－３岸本第１ビル５０３号室,,27,114,5330031,,,,,,,2024-05-22,1,,,,,アンドユーホーム,0
979,4120003026662,新規,0,2024-05-22,2024-05-22,運祺合同会社,,合同会社,大阪府,大阪市東成区,玉津２丁目１１番７号スタートライン玉津３０３号室,,27,115,5370023,,,,,,,2024-05-22,1,,,,,ウンキ,0
984,4120005024334,新規,0,2024-05-22,2024-05-22,一般社団法人日本ドライヘッドスパ協会,,その他の設立登記法人,大阪府,大阪市浪速区,湊町２丁目２番４５号オンテックス難波ビル３Ｆ,,27,111,5560017,,,,,,,2024-05-22,1,,,,,ニホンドライヘッドスパキョウカイ,0
990,4122001038128,新規,0,2024-05-22,2024-05-22,株式会社大晃,,株式会社,大阪府,八尾市,太田新町３丁目１０９番地,,27,212,5810039,,,,,,,2024-05-22,1,,,,,ダイコウ,0
994,4130003009567,新規,0,2024-05-22,2024-05-22,合同会社ケーコーポレーション,,合同会社,京都府,京都市右京区,嵯峨天龍寺若宮町２５－１－３０８,,26,108,6168371,,,,,,,2024-05-22,1,,,,,ケーコーポレーション,0
1002,4140001134432,新規,0,2024-05-22,2024-05-22,ゴルフシーローズマネジメント株式会社,,株式会社,兵庫県,神戸市東灘区,御影３丁目２番１１号８１,,28,101,6580047,,,,,,,2024-05-22,1,,,,,ゴルフシーローズマネジメント,0
1007,4140003020589,新規,0,2024-05-22,2024-05-22,合同会社ＭＤＫ,,合同会社,兵庫県,神戸市西区,王塚台６丁目４９番地の１ファミール王塚台１０１号,00134856,28,111,6512135,,,,,,,2024-05-22,1,,,,,エムディーケー,0
1010,4170001018153,新規,0,2024-05-22,2024-05-22,株式会社正栄工業,,株式会社,和歌山県,有田市,宮崎町５８０－３,,30,204,6490316,,,,,,,2024-05-22,1,,,,,ショウエイコウギョウ,0
1011,4170003002048,新規,0,2024-05-22,2024-05-22,合同会社花,,合同会社,和歌山県,岩出市,中島８番地の９,,30,209,6496245,,,,,,,2024-05-22,1,,,,,ハナ,0
1016,4180001161563,新規,0,2024-05-22,2024-05-22,株式会社アクティボ,,株式会社,愛知県,名古屋市守山区,翠松園１丁目１０１６番地,,23,113,4630010,,,,,,,2024-05-22,1,,,,,アクティボ,0
1017,4180001161605,新規,0,2024-05-22,2024-05-22,株式会社ＬＰＨ,,株式会社,愛知県,名古屋市北区,安井１丁目８番５号,,23,103,4620023,,,,,,,2024-05-22,1,,,,,エルピーエイチ,0
1026,4190005011953,新規,0,2024-05-22,2024-05-22,農事組合法人佐々木産業,,その他の設立登記法人,三重県,鈴鹿市,平田本町２丁目１０番１０号小林ビル２０６号室,,24,207,5130848,,,,,,,2024-05-22,1,,,,,ササキサンギョウ,0
1030,4210001019766,新規,0,2024-05-22,2024-05-22,ｉｒｏｄｏｒｉ株式会社,,株式会社,福井県,坂井市,春江町中筋大手７９番地,,18,210,9190447,,,,,,,2024-05-22,1,,,,,イロドリ,0
1036,4240005015775,新規,0,2024-05-22,2024-05-22,特定非営利活動法人スカラベ,,その他の設立登記法人,広島県,三次市,畠敷町１６６９番地１５,,34,209,7280006,,,,,,,2024-05-22,1,,,,,スカラベ,0
1044,4290001105848,新規,0,2024-05-22,2024-05-22,株式会社ＣＦＬ,,株式会社,福岡県,糟屋郡粕屋町,花ヶ浦３丁目５番２２－２０２号ステラ花ヶ浦ＩＩＩ,00134860,40,349,8112310,,,,,,,2024-05-22,1,,,,,シーエフエル,0
1049,4340001026460,新規,0,2024-05-22,2024-05-22,株式会社Ｓｐｏｔ　Ｌｉｇｈｔ,,株式会社,鹿児島県,伊佐市,大口原田３３８,,46,224,8952506,,,,,,,2024-05-22,1,,,,,スポットライト,0
1051,4360005007042,新規,0,2024-05-22,2024-05-22,一般社団法人ビューティーホワイトクリニックＳｉｅｇ,,その他の設立登記法人,沖縄県,那覇市,銘苅３丁目１番１２号カーサ新都心１０１,,47,201,9000004,,,,,,,2024-05-22,1,,,,,ビューティーホワイトクリニックズィーク,0
1054,4370001051308,新規,0,2024-05-22,2024-05-22,株式会社マルニシ電工,,株式会社,宮城県,石巻市,桃生町寺崎字松木畑１８番地５,,04,202,9860314,,,,,,,2024-05-22,1,,,,,マルニシデンコウ,0
1055,4370003006623,新規,0,2024-05-22,2024-05-22,合同会社ライフパート,,合同会社,宮城県,仙台市青葉区,郷六字宮１１番地の１１,,04,101,9893121,,,,,,,2024-05-22,1,,,,,ライフパート,0
1072,4430005014989,新規,0,2024-05-22,2024-05-22,一般社団法人生活防衛会議,,その他の設立登記法人,北海道,空知郡奈井江町,字茶志内１６５０番地１２９,,01,424,0790305,,,,,,,2024-05-22,1,,,,,セイカツボウエイカイギ,0
1073,4440001009439,新規,0,2024-05-22,2024-05-22,株式会社ジェットファーム,,株式会社,北海道,檜山郡厚沢部町,館町４５８番地,,01,363,0431351,,,,,,,2024-05-22,1,,,,,ジェットファーム,0
1075,4450005004410,新規,0,2024-05-22,2024-05-22,特定非営利活動法人ｍａｍａｃｏｎｃｉｅｒｇｅ　ｗｅｄｎｅｓｄａｙ,,その他の設立登記法人,北海道,旭川市,末広六条１丁目２番１号,,01,204,0718136,,,,,,,2024-05-22,1,,,,,ママコンシェルジュウェンズディ,0
1087,4700150125489,新規,0,2024-05-22,2024-05-22,ＴａｉＹｕａｎＭｉａｏＪｕｎＭｅｉＤｉａｎＺｉＫｅＪｉＹｏｕＸｉａｎＧｏｎｇＳｉ,,外国会社等,,,,,,,,ＳｈａｎＸｉＳｈｅｎｇＴａｉＹｕａｎＳｈｉＷａｎＢａｉＬｉｎＱｕＣｈｕｎＨｅＪｉｎｇＭｉｎｇ１０－４－１６０１,,,,,,2024-05-22,1,,,,,タイユェンミャオジュンメイデンシカギユウゲンコウシ,0
1088,4700150125497,新規,0,2024-05-22,2024-05-22,Ｊｉｎｈｕａ　Ｚｉｚｈｉｌｅ　Ｔｒａｄｉｎｇ　Ｃｏ．，Ｌｔｄ．,,外国会社等,,,,,,,,Ｒｏｏｍ１６０２　Ｂｕｉｌｄｉｎｇ６　Ｎｏ．１８８　ＷａｎｇｈｕＲｏａｄ　ＰｕｙａｎｇＳｔｒｅｅｔ　ＰｕｊｉａｎｇＣｏｕｎｔｙ　ＪｉｎｈｕａＣｉｔｙ　ＺｈｅｊｉａｎｇＰｒｏｖｉｎｃｅ,,,,,,2024-05-22,1,,,,,キンカシジチラクトゥレイディングカンパニーリミテッド,0
1094,5010001245019,新規,0,2024-05-22,2024-05-22,株式会社麹町キャピタル,,株式会社,東京都,千代田区,麹町４丁目３番地４,,13,101,1020083,,,,,,,2024-05-22,1,,,,,コウジマチキャピタル,0
1095,5010001245051,新規,0,2024-05-22,2024-05-22,アザリア株式会社,,株式会社,東京都,中央区,銀座１丁目１２番４号Ｎ＆ＥＢＬＤ．６Ｆ,,13,102,1040061,,,,,,,2024-05-22,1,,,,,アザリア,0
1096,5010001245068,新規,0,2024-05-22,2024-05-22,株式会社大手町投資管理,,株式会社,東京都,千代田区,丸の内１丁目１番２号,,13,101,1000005,,,,,,,2024-05-22,1,,,,,オオテマチトウシカンリ,0
1099,5010003043759,新規,0,2024-05-22,2024-05-22,あんみつ合同会社,,合同会社,東京都,中央区,晴海２丁目３番３０－４５０３号,,13,102,1040053,,,,,,,2024-05-22,1,,,,,アンミツ,0
1100,5010003043767,新規,0,2024-05-22,2024-05-22,合同会社ＩＲＯＮ　ＨＯＲＳＥ,,合同会社,東京都,中央区,日本橋茅場町２丁目３番１０－１００５号,,13,102,1030025,,,,,,,2024-05-22,1,,,,,アイアンホース,0
1101,5010003043817,新規,0,2024-05-22,2024-05-22,メルコパワーチップマニュファクチャリング合同会社,,合同会社,東京都,千代田区,丸の内２丁目７番３号,,13,101,1000005,,,,,,,2024-05-22,1,,,,,メルコパワーチップマニュファクチャリング,0
1103,5010005038336,新規,0,2024-05-22,2024-05-22,ＯＳＪ　ＮＩＩＧＡＴＡ一般社団法人,,その他の設立登記法人,東京都,千代田区,丸の内３丁目１番１号東京共同会計事務所内,,13,101,1000005,,,,,,,2024-05-22,1,,,,,オーエスジェイニイガタ,0
1105,5010103002359,新規,0,2024-05-22,2024-05-22,ＭＡＲＫ＆ＢＵＲＮＳ　ＣＯＮＳＵＬＴＩＮＧ合同会社,,合同会社,東京都,八王子市,南町３－１６ミカドビル４階,,13,201,1920072,,,,,,,2024-05-22,1,,,,,マークアンドバーンズコンサルティング,0
1111,5010401182522,新規,0,2024-05-22,2024-05-22,株式会社ＴＴ１,,株式会社,東京都,港区,西麻布４丁目１番１号,,13,103,1060031,,,,,,,2024-05-22,1,,,,,ティーティーワン,0
1112,5010401182547,新規,0,2024-05-22,2024-05-22,株式会社Ｇ．Ｃ,,株式会社,東京都,港区,新橋２丁目５番２号,,13,103,1050004,,,,,,,2024-05-22,1,,,,,ジーシー,0
1113,5010401182571,新規,0,2024-05-22,2024-05-22,株式会社Ｆｉｃｔａ　Ｍｕｓｉｃ,,株式会社,東京都,港区,南青山６丁目１１番地３,,13,103,1070062,,,,,,,2024-05-22,1,,,,,フィクタミュージック,0
1114,5010401182588,新規,0,2024-05-22,2024-05-22,株式会社ｍＲ．,,株式会社,東京都,港区,海岸１丁目１３番１５号東京ポートシティ竹芝レジデンスタワー３０５,,13,103,1050022,,,,,,,2024-05-22,1,,,,,ミスター,0
1115,5010403032650,新規,0,2024-05-22,2024-05-22,合同会社ＦｒｅｅＨａｒｂｏｒ,,合同会社,東京都,港区,浜松町２丁目２番１５号浜松町ダイヤビル２Ｆ,,13,103,1050013,,,,,,,2024-05-22,1,,,,,フリーハーバー,0
1116,5010405023251,新規,0,2024-05-22,2024-05-22,春日部ファシリティ１一般社団法人,,その他の設立登記法人,東京都,港区,六本木１丁目６番１号泉ガーデンタワー,,13,103,1060032,,,,,,,2024-05-22,1,,,,,カスカベファシリティワン,0
1118,5010603010852,新規,0,2024-05-22,2024-05-22,合同会社ＨＫＳ,,合同会社,東京都,江東区,青海２丁目７番４号ｔｈｅｓｏｈｏ,,13,108,1350064,,,,,,,2024-05-22,1,,,,,エイチケイエス,0
1119,5010701045965,新規,0,2024-05-22,2024-05-22,株式会社ＬｉｇｈｔＡｒｍ,,株式会社,東京都,品川区,東五反田２丁目１５番６－１４０３号,,13,109,1410022,,,,,,,2024-05-22,1,,,,,ライトアーム,0
1120,5010701046014,新規,0,2024-05-22,2024-05-22,ＬＥＯＭＯ　Ｊａｐａｎ株式会社,,株式会社,東京都,品川区,東五反田３丁目１６番２５号,,13,109,1410022,,,,,,,2024-05-22,1,,,,,リオモジャパン,0
1121,5010705003630,新規,0,2024-05-22,2024-05-22,一般社団法人虐待防止機構,,その他の設立登記法人,東京都,品川区,大崎４丁目２－１３ＮＫ五反田コータース８０４,,13,109,1410032,,,,,,,2024-05-22,1,,,,,ギャクタイボウシキコウ,0
1124,5010901055310,新規,0,2024-05-22,2024-05-22,株式会社Ｃ‐Ｓｐｒｅａｄ,,株式会社,東京都,世田谷区,下馬２丁目１６番８号,,13,112,1540002,,,,,,,2024-05-22,1,,,,,シースプレッド,0
1125,5010901055319,新規,0,2024-05-22,2024-05-22,株式会社テクノ・マックス研究所,,株式会社,東京都,世田谷区,等々力５丁目２８番３号,,13,112,1580082,,,,,,,2024-05-22,1,,,,,テクノマックスケンキュウジョ,0
1131,5011005010516,新規,0,2024-05-22,2024-05-22,一般社団法人ひまわりの子,,その他の設立登記法人,東京都,目黒区,三田２丁目１０番４３号,,13,110,1530062,,,,,,,2024-05-22,1,,,,,ヒマワリノコ,0
1132,5011005010532,新規,0,2024-05-22,2024-05-22,一般社団法人日本ハッピージェロントロジー協会,,その他の設立登記法人,東京都,渋谷区,渋谷１丁目８番５号,,13,113,1500002,,,,,,,2024-05-22,1,,,,,ニホンハッピージェロントロジーキョウカイ,0
1139,5011201025490,新規,0,2024-05-22,2024-05-22,株式会社Ｇ．Ｔ．Ｌ,,株式会社,東京都,中野区,大和町１丁目２８－８ライフピア・アリエス２０１,,13,114,1650034,,,,,,,2024-05-22,1,,,,,グレータートウキョウリビング,0
1148,5011601027764,新規,0,2024-05-22,2024-05-22,株式会社エフエヌジェイ,,株式会社,東京都,練馬区,大泉学園町８丁目１６番２１号Ｄガレージ大泉学園１０２,,13,120,1780061,,,,,,,2024-05-22,1,,,,,エフエヌジェイ,0
1152,5011701027301,新規,0,2024-05-22,2024-05-22,株式会社アカハイ,,株式会社,東京都,江戸川区,中葛西５丁目４０番８号ドゥエル三橋１階,,13,123,1340083,,,,,,,2024-05-22,1,,,,,アカハイ,0
1154,5011703003829,新規,0,2024-05-22,2024-05-22,利源合同会社,,合同会社,東京都,江戸川区,平井７丁目１６－２７,,13,123,1320035,,,,,,,2024-05-22,1,,,,,リゲン,0
1157,5011801044262,新規,0,2024-05-22,2024-05-22,株式会社Ｃａｐｒｉ　Ｂｌｕ,,株式会社,東京都,葛飾区,西水元１丁目２４番９号,,13,122,1250031,,,,,,,2024-05-22,1,,,,,カプリブルー,0
1163,5012403006568,新規,0,2024-05-22,2024-05-22,合同会社バジルコーポレーション,,合同会社,東京都,三鷹市,中原１丁目１５番１１号,,13,204,1810005,,,,,,,2024-05-22,1,,,,,バジルコーポレーション,0
1164,5012403006576,新規,0,2024-05-22,2024-05-22,合同会社ＤＥＮ,,合同会社,東京都,武蔵野市,吉祥寺本町１丁目３２番３号ロイヤルプラザビル３０３,,13,203,1800004,,,,,,,2024-05-22,1,,,,,デン,0
1166,5013301052547,新規,0,2024-05-22,2024-05-22,モチ株式会社,,株式会社,東京都,豊島区,西池袋３丁目３３番２８号,,13,116,1710021,,,,,,,2024-05-22,1,,,,,モチ,0
1171,5020001157320,新規,0,2024-05-22,2024-05-22,コウテン・ジャパン株式会社,,株式会社,神奈川県,横浜市旭区,中希望が丘１７６番地１フォルスコート希望ヶ丘３０２号,,14,112,2410825,,,,,,,2024-05-22,1,,,,,コウテンジャパン,0
1172,5020001157345,新規,0,2024-05-22,2024-05-22,エム株式会社,,株式会社,神奈川県,横浜市神奈川区,栄町１番地１,,14,102,2210052,,,,,,,2024-05-22,1,,,,,エム,0
1184,5021001082260,新規,0,2024-05-22,2024-05-22,Ｒｅｗｒｉｔｅ株式会社,,株式会社,神奈川県,相模原市南区,若松４丁目１７番２号,,14,153,2520334,,,,,,,2024-05-22,1,,,,,リライト,0
1185,5021001082277,新規,0,2024-05-22,2024-05-22,株式会社匠屋,,株式会社,神奈川県,平塚市,岡崎６３６４－１,,14,203,2591212,,,,,,,2024-05-22,1,,,,,タクミヤ,0
1186,5021001082302,新規,0,2024-05-22,2024-05-22,株式会社旭成,,株式会社,神奈川県,相模原市中央区,鹿沼台１丁目６番１０号ニュー鹿沼ハイツ４０１,,14,152,2520233,,,,,,,2024-05-22,1,,,,,キョクセイ,0
1196,5030001160496,新規,0,2024-05-22,2024-05-22,株式会社スズナル,,株式会社,埼玉県,越谷市,越ヶ谷３丁目３－１６（２階）,,11,222,3430813,,,,,,,2024-05-22,1,,,,,スズナル,0
1197,5030001160505,新規,0,2024-05-22,2024-05-22,株式会社武田クリエイション,,株式会社,埼玉県,深谷市,上柴町東２丁目１番地７,,11,218,3660051,,,,,,,2024-05-22,1,,,,,タケダクリエイション,0
1204,5030003024344,新規,0,2024-05-22,2024-05-22,合同会社京平,,合同会社,埼玉県,熊谷市,久下１３５番地３レインボー行田マンション１０６号室,,11,202,3600026,,,,,,,2024-05-22,1,,,,,キョウヘイ,0
1205,5030003024352,新規,0,2024-05-22,2024-05-22,合同会社アルク,,合同会社,埼玉県,さいたま市南区,根岸３丁目７番９号,,11,108,3360024,,,,,,,2024-05-22,1,,,,,アルク,0
1209,5040001133699,新規,0,2024-05-22,2024-05-22,健康養老サービスコンサルティング株式会社,,株式会社,千葉県,千葉市中央区,椿森５丁目１１－１０ダイアパレス東千葉１０４号室,,12,101,2600042,,,,,,,2024-05-22,1,,,,,ケンコウヨウロウサービスコンサルティング,0
1211,5040003025036,新規,0,2024-05-22,2024-05-22,医心美心ＭＯＲＩＭＯ合同会社,,合同会社,千葉県,習志野市,谷津５丁目１０番３５号,,12,216,2750026,,,,,,,2024-05-22,1,,,,,イシンビシンモリモ,0
1213,5050001054795,新規,0,2024-05-22,2024-05-22,株式会社セレクト,,株式会社,茨城県,水戸市,開江町４５２－７,,08,201,3114144,,,,,,,2024-05-22,1,,,,,セレクト,0
1218,5060001037130,新規,0,2024-05-22,2024-05-22,株式会社いな穂,,株式会社,栃木県,宇都宮市,西一の沢町１３番２５号,,09,201,3200046,,,,,,,2024-05-22,1,,,,,イナホ,0
1221,5060003005085,新規,0,2024-05-22,2024-05-22,Ｔ２Ｎｅｘｔ合同会社,,合同会社,栃木県,宇都宮市,西川田町１０６９－１７,,09,201,3210151,,,,,,,2024-05-22,1,,,,,ティーツーネクスト,0
1223,5070001041775,新規,0,2024-05-22,2024-05-22,株式会社ＷｉｎＴｏｏ,,株式会社,群馬県,沼田市,鍛治町３９３６－３,,10,206,3780000,,,,,,,2024-05-22,1,,,,,ウィントゥ,0
1226,5080401027200,新規,0,2024-05-22,2024-05-22,株式会社ＲＫＳ,,株式会社,静岡県,浜松市中央区,天王町８９９番地の１グランレフィナードＢ,,22,138,4350052,,,,,,,2024-05-22,1,,,,,アールケーエス,0
1227,5090001018714,新規,0,2024-05-22,2024-05-22,株式会社左脳,,株式会社,山梨県,韮崎市,本町２丁目１０番９号,,19,207,4070024,,,,,,,2024-05-22,1,,,,,サノウ,0
1229,5100003007548,新規,0,2024-05-22,2024-05-22,合同会社東信州四季の暮らし窓口,,合同会社,長野県,佐久市,原４００－１４－２０１,,20,217,3850052,,,,,,,2024-05-22,1,,,,,ヒガシシンシュウシキノクラシマドグチ,0
1230,5110003005402,新規,0,2024-05-22,2024-05-22,合同会社Ｈｅａｌｔｈ　ｉｓ　Ｗｅａｌｔｈ,,合同会社,新潟県,新潟市中央区,女池南３丁目２番２１号,,15,103,9500948,,,,,,,2024-05-22,1,,,,,ヘルスイズウェルス,0
1239,5120001264841,新規,0,2024-05-22,2024-05-22,ＨＵＩ株式会社,,株式会社,大阪府,大阪市港区,弁天２丁目６番２０号グランドール弁天２０２号,,27,107,5520007,,,,,,,2024-05-22,1,,,,,エイチユーアイ,0
1240,5120001265022,新規,0,2024-05-22,2024-05-22,Ｍ‐ＩＮＧ株式会社,,株式会社,大阪府,大阪市中央区,島之内２丁目６番２０号ブロンズハイツ３０１,,27,128,5420082,,,,,,,2024-05-22,1,,,,,エムイング,0
1241,5120001265105,新規,0,2024-05-22,2024-05-22,株式会社ＣＳＴ,,株式会社,大阪府,枚方市,堂山２丁目８番１７号,,27,210,5730007,,,,,,,2024-05-22,1,,,,,シーエスティー,0
1242,5120001265170,新規,0,2024-05-22,2024-05-22,日日順株式会社,,株式会社,大阪府,大阪市大正区,三軒家西３丁目４番１６号中山ビル２０２Ｂ,,27,108,5510001,,,,,,,2024-05-22,1,,,,,ヒビジュン,0
1243,5120001265195,新規,0,2024-05-22,2024-05-22,株式会社エイティーンゴルフ,,株式会社,大阪府,大阪市天王寺区,寺田町２丁目５番１０号ヒルズビュー寺田町ビル７０１号室,,27,109,5430045,,,,,,,2024-05-22,1,,,,,エイティーンゴルフ,0
1246,5120003026463,新規,0,2024-05-22,2024-05-22,タレント合同会社,,合同会社,大阪府,大阪市浪速区,日本橋５丁目１２－３ＯｓａｋａＭｅｔｒо恵美須町ビルＢＩＺｃоｍｆоｒｔなんば恵美須町７Ｆ－１３号室,,27,111,5560005,,,,,,,2024-05-22,1,,,,,タレント,0
1247,5120003026604,新規,0,2024-05-22,2024-05-22,合同会社Ｓｅｃｏｎｄｓ,,合同会社,大阪府,大阪市北区,末広町２番３２－５０６号,,27,127,5300053,,,,,,,2024-05-22,1,,,,,セカンズ,0
1248,5120003026620,新規,0,2024-05-22,2024-05-22,ＭＳ　Ｔｒａｄｉｎｇ合同会社,,合同会社,大阪府,大阪市西成区,岸里東２丁目１４－２０,,27,122,5570042,,,,,,,2024-05-22,1,,,,,エムエストレーディング,0
1250,5120101069637,新規,0,2024-05-22,2024-05-22,株式会社山城急送,,株式会社,大阪府,堺市堺区,南島町１丁１５番２－３０３号,,27,141,5900904,,,,,,,2024-05-22,1,,,,,ヤマシロキュウソウ,0
1261,5130001077061,新規,0,2024-05-22,2024-05-22,株式会社端村建設工業,,株式会社,京都府,京都市山科区,大宅沢町３番地,,26,110,6078193,,,,,,,2024-05-22,1,,,,,ハタムラケンセツコウギョウ,0
1262,5130001077078,新規,0,2024-05-22,2024-05-22,株式会社ＹＵ．,,株式会社,京都府,城陽市,寺田今堀５２番地の７７,,26,207,6100121,,,,,,,2024-05-22,1,,,,,ユー,0
1263,5130001077103,新規,0,2024-05-22,2024-05-22,ＫＭ３株式会社,,株式会社,京都府,京都市南区,上鳥羽南岩ノ本町７５番地,,26,107,6018139,,,,,,,2024-05-22,1,,,,,ケーエムスリー,0
1274,5140001134489,新規,0,2024-05-22,2024-05-22,株式会社道,,株式会社,兵庫県,伊丹市,森本５丁目１３９番地３ｇａｔｈｅｒ３,,28,207,6640842,,,,,,,2024-05-22,1,,,,,ミチ,0
1275,5140001134514,新規,0,2024-05-22,2024-05-22,Ｒｉｓｅ株式会社,,株式会社,兵庫県,明石市,桜町１２－２１明石観光ビル２Ｆ,,28,203,6730885,,,,,,,2024-05-22,1,,,,,ライズ,0
1277,5160001025942,新規,0,2024-05-22,2024-05-22,株式会社ソラーレメディカル,,株式会社,滋賀県,栗東市,高野５１１番地３,,25,208,5203045,,,,,,,2024-05-22,1,,,,,ソラーレメディカル,0
1281,5180001161562,新規,0,2024-05-22,2024-05-22,株式会社イチテックホールディングス,,株式会社,愛知県,一宮市,せんい１丁目２番１９号,,23,203,4910873,,,,,,,2024-05-22,1,,,,,イチテックホールディングス,0
1282,5180001161579,新規,0,2024-05-22,2024-05-22,株式会社山建,,株式会社,愛知県,あま市,上萱津矢台５４番地３,,23,237,4901112,,,,,,,2024-05-22,1,,,,,ヤマケン,0
1283,5180001161587,新規,0,2024-05-22,2024-05-22,株式会社テンカ,,株式会社,愛知県,小牧市,大字東田中字宮浦１６９番２ウエストリバー宮浦１０１号,,23,219,4850826,,,,,,,2024-05-22,1,,,,,テンカ,0
1284,5180001161604,新規,0,2024-05-22,2024-05-22,株式会社ＲＣ,,株式会社,愛知県,瀬戸市,水南町１６０番地の３,,23,204,4890913,,,,,,,2024-05-22,1,,,,,アールシー,0
1285,5180001161620,新規,0,2024-05-22,2024-05-22,アールテック株式会社,,株式会社,愛知県,日進市,栄４丁目１６０１番地,,23,230,4700113,,,,,,,2024-05-22,1,,,,,アールテック,0
1288,5180003026805,新規,0,2024-05-22,2024-05-22,Ｇｒａｎｄｉｒ合同会社,,合同会社,愛知県,津島市,越津町字馬三味２９番地２,,23,208,4960022,,,,,,,2024-05-22,1,,,,,グランディール,0
1291,5190005011952,新規,0,2024-05-22,2024-05-22,農事組合法人政一ファーム,,その他の設立登記法人,三重県,鈴鹿市,平田本町２丁目１０番１０号小林ビル２０６号室,,24,207,5130848,,,,,,,2024-05-22,1,,,,,マサイチファーム,0
1294,5200003006333,新規,0,2024-05-22,2024-05-22,合同会社Ｊｏ８８８,,合同会社,岐阜県,大垣市,久徳町３２番地１,,21,202,5030982,,,,,,,2024-05-22,1,,,,,ジョウスリーエイト,0
1295,5210003001795,新規,0,2024-05-22,2024-05-22,福イノベーション合同会社,,合同会社,福井県,福井市,月見３丁目１４番５号,,18,201,9188011,,,,,,,2024-05-22,1,,,,,フクイノベーション,0
1298,5220005008854,新規,0,2024-05-22,2024-05-22,一般社団法人ｎｏｔｏイマジン,,その他の設立登記法人,石川県,珠洲市,三崎町森腰ラ部２８番地,,17,205,9271453,,,,,,,2024-05-22,1,,,,,ノトイマジン,0
1300,5230003002214,新規,0,2024-05-22,2024-05-22,合同会社富山コーポレーション,,合同会社,富山県,高岡市,寺町３３番地,,16,202,9330861,,,,,,,2024-05-22,1,,,,,トヤマコーポレーション,0
1307,5250001020645,新規,0,2024-05-22,2024-05-22,株式会社ミッドフォーコミュニケーションズ,,株式会社,山口県,山口市,大内長野５９３番１,,35,203,7530211,,,,,,,2024-05-22,1,,,,,ミッドフォーコミュニケーションズ,0
1310,5260001039098,新規,0,2024-05-22,2024-05-22,株式会社ＲＵＮＴＯ,,株式会社,岡山県,岡山市北区,七日市東町７番１３号,,33,101,7000852,,,,,,,2024-05-22,1,,,,,ラントゥ,0
1312,5270001008977,新規,0,2024-05-22,2024-05-22,株式会社２６２,,株式会社,鳥取県,鳥取市,南安長２丁目６９０番地１８,,31,201,6800914,,,,,,,2024-05-22,1,,,,,ニーロクニ,0
1318,5290001105731,新規,0,2024-05-22,2024-05-22,株式会社ＳＴＡＬＡＢ,,株式会社,福岡県,久留米市,荒木町藤田１０６５,,40,203,8300064,,,,,,,2024-05-22,1,,,,,スタラボ,0
1319,5290001105830,新規,0,2024-05-22,2024-05-22,株式会社いしうち造園,,株式会社,福岡県,筑紫野市,上古賀３丁目６番１号,,40,217,8180041,,,,,,,2024-05-22,1,,,,,イシウチゾウエン,0
1324,5360001033710,新規,0,2024-05-22,2024-05-22,康和株式会社,,株式会社,沖縄県,中頭郡北谷町,字桑江５０７番地１１,,47,326,9040103,,,,,,,2024-05-22,1,,,,,コウワ,0
1328,5360003013999,新規,0,2024-05-22,2024-05-22,合同会社エイト,,合同会社,沖縄県,浦添市,宮城６丁目８番６－２０３号,,47,208,9012126,,,,,,,2024-05-22,1,,,,,エイト,0
1332,5370003006622,新規,0,2024-05-22,2024-05-22,合同会社ｃｏｃｋｔａｉｌ,,合同会社,宮城県,伊具郡丸森町,大張大蔵字下柳沢２０,,04,341,9812301,,,,,,,2024-05-22,1,,,,,コックテイル,0
1337,5380001034558,新規,0,2024-05-22,2024-05-22,株式会社新妻工業,,株式会社,福島県,いわき市,洋向台２丁目９番地の３,,07,204,9700314,,,,,,,2024-05-22,1,,,,,ニイツマコウギョウ,0
1342,5420001018738,新規,0,2024-05-22,2024-05-22,株式会社ラディッシュ,,株式会社,青森県,青森市,大字新城字平岡９５９番地５,,02,201,0380042,,,,,,,2024-05-22,1,,,,,ラディッシュ,0
1344,5430001091866,新規,0,2024-05-22,2024-05-22,株式会社すいすい,,株式会社,北海道,札幌市白石区,菊水三条５丁目５番１０－１４０１号,,01,104,0030803,,,,,,,2024-05-22,1,,,,,スイスイ,0
1345,5430003016334,新規,0,2024-05-22,2024-05-22,合同会社Ｂｒｅｘ‐ｆｏｏｄ,,合同会社,北海道,江別市,文京台東町１－８,,01,217,0690834,,,,,,,2024-05-22,1,,,,,ブレックスフード,0
1346,5440005002777,新規,0,2024-05-22,2024-05-22,一般社団法人日本海洋文化総合研究所,,その他の設立登記法人,北海道,函館市,時任町１０番４号,,01,202,0400012,,,,,,,2024-05-22,1,,,,,ニホンカイヨウブンカソウゴウケンキュウジョ,0
1353,5480001012479,新規,0,2024-05-22,2024-05-22,株式会社ＤＯＬＣＥ,,株式会社,徳島県,阿波市,阿波町大道北１９０番地１,,36,206,7711703,,,,,,,2024-05-22,1,,,,,ドルチェ,0
1354,5490001010770,新規,0,2024-05-22,2024-05-22,株式会社７ｍｅ,,株式会社,高知県,幡多郡大月町,大字一切１７４番地２,,39,424,7880342,,,,,,,2024-05-22,1,,,,,ナナミ,0
1356,5500001025651,新規,0,2024-05-22,2024-05-22,株式会社Ｃａｍｉｎｏ,,株式会社,愛媛県,松山市,和泉南４丁目１番３３号,,38,201,7900941,,,,,,,2024-05-22,1,,,,,カミーノ,0
1357,5700150125488,新規,0,2024-05-22,2024-05-22,Ａｎｑｉｎｇ　Ｊｉａｘｉｎ　Ｍｅｄｉｃａｌ　Ｔｅｃｈｎｏｌｏｇｙ　Ｃｏ．，Ｌｔｄ．,,外国会社等,,,,,,,,Ｎｏ．１　Ｗｕｘｉａｎｇ　Ｒｏａｄ，Ｙｉｘｉｕ　Ｄｉｓｔｒｉｃｔ，Ａｎｑｉｎｇ　Ｃｉｔｙ,,,,,,2024-05-22,1,,,,,アンチンジャシンメディカルテクノロジーカンパニーリミテッド,0
1358,5700150125496,新規,0,2024-05-22,2024-05-22,ｓｈｅｎｚｈｅｎｓｈｉｓｈａｎｇｃｕｎｗａｎｇｌｕｏｙｏｕｘｉａｎｇｏｎｇｓｉ,,外国会社等,,,,,,,,ｇｕａｎｇｄｏｎｇｓｈｅｎｇ　ｓｈｅｎｚｈｅｎｓｈｉ　ｌｏｎｇｇａｎｇｑｕ　ｊｉｈｕａｊｉｅｄａｏ　ｇａｎｋｅｎｇｆｕｈａｏｓｈａｎｚｈｕａｎｇ　ｍｅｎｋｏｕｙｉｌｏｕ　１１　ｈａｏ,,,,,,2024-05-22,1,,,,,シンセンシシャンソンワンロウユウゲンコウシ,0
1369,6010001244894,新規,0,2024-05-22,2024-05-22,株式会社小川屋,,株式会社,東京都,千代田区,内神田３丁目４番１４号,,13,101,1010047,,,,,,,2024-05-22,1,,,,,オガワヤ,0
1370,6010001245042,新規,0,2024-05-22,2024-05-22,株式会社レクタスパートナーズ,,株式会社,東京都,中央区,日本橋室町１丁目１１番１２号日本橋水野ビル７階,,13,102,1030022,,,,,,,2024-05-22,1,,,,,レクタスパートナーズ,0
1374,6010003043766,新規,0,2024-05-22,2024-05-22,デピクターズ合同会社,,合同会社,東京都,中央区,日本橋浜町１丁目８番１１－８０１号,,13,102,1030007,,,,,,,2024-05-22,1,,,,,デピクターズ,0
1383,6010401182513,新規,0,2024-05-22,2024-05-22,テクニカルスタッフィング株式会社,,株式会社,東京都,港区,北青山１丁目３番１号アールキューブ青山３階,,13,103,1070061,,,,,,,2024-05-22,1,,,,,テクニカルスタッフィング,0
1384,6010401182554,新規,0,2024-05-22,2024-05-22,株式会社Ｇｒｏｗｔｈ＆Ｈａｒｍｏｎｙ,,株式会社,東京都,港区,南青山２丁目２番１５号,,13,103,1070062,,,,,,,2024-05-22,1,,,,,,0
1385,6010401182570,新規,0,2024-05-22,2024-05-22,株式会社ＯＳＭＧ,,株式会社,東京都,港区,東麻布１丁目２９番１５号東麻布２９６ビル２階,,13,103,1060044,,,,,,,2024-05-22,1,,,,,オーエスエムジー,0
1386,6010401182612,新規,0,2024-05-22,2024-05-22,ジャパゆこ株式会社,,株式会社,東京都,港区,三田１丁目４番１号,,13,103,1080073,,,,,,,2024-05-22,1,,,,,ジャパユコ,0
1392,6010405023234,新規,0,2024-05-22,2024-05-22,一般社団法人ユニバースプリンセス協会,,その他の設立登記法人,東京都,港区,北青山１丁目３番１号アールキューブ青山３階,,13,103,1070061,,,,,,,2024-05-22,1,,,,,ユニバースプリンセスキョウカイ,0
1396,6010803004959,新規,0,2024-05-22,2024-05-22,合同会社一力,,合同会社,東京都,大田区,上池台１丁目１番６号,,13,111,1450064,,,,,,,2024-05-22,1,,,,,イチリキ,0
1399,6010903009081,新規,0,2024-05-22,2024-05-22,合同会社ミックスアンドブレンド,,合同会社,東京都,世田谷区,下馬１丁目４０番１０－２０５号,,13,112,1540002,,,,,,,2024-05-22,1,,,,,ミックスアンドブレンド,0
1406,6011003019228,新規,0,2024-05-22,2024-05-22,湊エステート合同会社,,合同会社,東京都,目黒区,自由が丘２丁目１６番１２号ＲＪ３,,13,110,1520035,,,,,,,2024-05-22,1,,,,,ミナトエステート,0
1407,6011005010523,新規,0,2024-05-22,2024-05-22,一般社団法人ＦａｉｒＷｏｒｋｓ,,その他の設立登記法人,東京都,渋谷区,代々木１丁目３１番１５号,,13,113,1510053,,,,,,,2024-05-22,1,,,,,フェアワークス,0
1413,6011303005167,新規,0,2024-05-22,2024-05-22,合同会社ＦＬＵＲＫ,,合同会社,東京都,杉並区,高円寺南３丁目１６番５号,,13,115,1660003,,,,,,,2024-05-22,1,,,,,フラーク,0
1418,6011601027763,新規,0,2024-05-22,2024-05-22,株式会社ロータスレコーズ,,株式会社,東京都,練馬区,関町南４丁目１７番１－４１９号,,13,120,1770053,,,,,,,2024-05-22,1,,,,,ロータスレコーズ,0
1422,6011801044261,新規,0,2024-05-22,2024-05-22,深海株式会社,,株式会社,東京都,足立区,竹の塚５丁目３６番１８－２０５号,,13,121,1210813,,,,,,,2024-05-22,1,,,,,シンカイ,0
1428,6012403006575,新規,0,2024-05-22,2024-05-22,Ｗｏｏｄｌａｎｄｓ　Ｍｏｕｎｔａｉｎ　Ｇｒｏｕｐ合同会社,,合同会社,東京都,府中市,多磨町２丁目５３番地１６Ｄ,,13,206,1830002,,,,,,,2024-05-22,1,,,,,ウッドランドマウンテングループ,0
1439,6020001157311,新規,0,2024-05-22,2024-05-22,ワンオリホールディングス株式会社,,株式会社,神奈川県,横浜市鶴見区,北寺尾２丁目２番２４号,,14,101,2300074,,,,,,,2024-05-22,1,,,,,ワンオリホールディングス,0
1440,6020001157336,新規,0,2024-05-22,2024-05-22,株式会社３６９,,株式会社,神奈川県,川崎市中原区,中丸子１３番地８ロイヤルパークス武蔵小杉６０２,,14,133,2110012,,,,,,,2024-05-22,1,,,,,サンロクキュー,0
1441,6020001157360,新規,0,2024-05-22,2024-05-22,株式会社翔,,株式会社,神奈川県,川崎市宮前区,宮崎６丁目１番地４－１０２,,14,136,2160033,,,,,,,2024-05-22,1,,,,,ショウ,0
1452,6021001082284,新規,0,2024-05-22,2024-05-22,Ｔｅｃｈｎｏ　Ｓｐｒｉｎｔ株式会社,,株式会社,神奈川県,相模原市中央区,相模原５丁目６番３号セレッソ１０２,,14,152,2520231,,,,,,,2024-05-22,1,,,,,テクノスプリント,0
1453,6021003014533,新規,0,2024-05-22,2024-05-22,合同会社ウォームエステート,,合同会社,神奈川県,藤沢市,本鵠沼２丁目７番２０～４０２号,,14,205,2510028,,,,,,,2024-05-22,1,,,,,ウォームエステート,0
1454,6021003014541,新規,0,2024-05-22,2024-05-22,合同会社ローザンヌ研究所,,合同会社,神奈川県,中郡大磯町,大磯８９５－２８,,14,341,2550003,,,,,,,2024-05-22,1,,,,,ローザンヌケンキュウジョ,0
1463,6030001160504,新規,0,2024-05-22,2024-05-22,株式会社しっぽデザインスタジオ,,株式会社,埼玉県,蓮田市,上２丁目１０番１７号,,11,238,3490122,,,,,,,2024-05-22,1,,,,,シッポデザインスタジオ,0
1474,6040001133707,新規,0,2024-05-22,2024-05-22,ＫＤＴ株式会社,,株式会社,千葉県,八街市,八街は１０５－１８８,,12,230,2891107,,,,,,,2024-05-22,1,,,,,ケーディーティー,0
1475,6040001133715,新規,0,2024-05-22,2024-05-22,株式会社Ｓａａｉｃｏ,,株式会社,千葉県,八千代市,大和田新田４３３番地４７,,12,221,2760046,,,,,,,2024-05-22,1,,,,,サーイコ,0
1476,6040001133723,新規,0,2024-05-22,2024-05-22,株式会社昭陽産業,,株式会社,千葉県,千葉市中央区,都町３丁目７番１７ＳＳ＠ビル１０２号室,,12,101,2600001,,,,,,,2024-05-22,1,,,,,ショウヨウサンギョウ,0
1479,6040003025035,新規,0,2024-05-22,2024-05-22,合同会社リライズ,,合同会社,千葉県,船橋市,二和西５丁目９－２５,,12,204,2740806,,,,,,,2024-05-22,1,,,,,リライズ,0
1482,6050001054794,新規,0,2024-05-22,2024-05-22,株式会社ＣＨＲＯＮＯ,,株式会社,茨城県,守谷市,百合ケ丘３丁目２６５３番地の２,,08,224,3020110,,,,,,,2024-05-22,1,,,,,クロノ,0
1484,6050003008385,新規,0,2024-05-22,2024-05-22,合同会社ライフ,,合同会社,茨城県,小美玉市,納場３２９－１－３,,08,236,3190134,,,,,,,2024-05-22,1,,,,,ライフ,0
1490,6060003005076,新規,0,2024-05-22,2024-05-22,ＴＯＴ合同会社,,合同会社,栃木県,佐野市,朝日町８４１番地５,,09,204,3270011,,,,,,,2024-05-22,1,,,,,ティーオーティー,0
1491,6060003005084,新規,0,2024-05-22,2024-05-22,Ａｋｈｔａｒ　Ｔｒａｄｉｎｇ合同会社,,合同会社,栃木県,小山市,駅南町５丁目２番１３号,,09,208,3230822,,,,,,,2024-05-22,1,,,,,アフタルトレーディング,0
1495,6080003003210,新規,0,2024-05-22,2024-05-22,合同会社ＮＧＩ,,合同会社,静岡県,焼津市,八楠２丁目２３番地の９,,22,212,4250091,,,,,,,2024-05-22,1,,,,,エヌジーアイ,0
1496,6080101024752,新規,0,2024-05-22,2024-05-22,株式会社勇和開発,,株式会社,静岡県,富士市,柚木３８５番地の５,,22,210,4160908,,,,,,,2024-05-22,1,,,,,ユウワカイハツ,0
1497,6080103003069,新規,0,2024-05-22,2024-05-22,合同会社フランシスＧＯ,,合同会社,静岡県,富士市,富士見台３丁目３番地の１３,,22,210,4170851,,,,,,,2024-05-22,1,,,,,フランシスゴー,0
1501,6100003007563,新規,0,2024-05-22,2024-05-22,ＢＡＴＨＡＬＡ合同会社,,合同会社,長野県,松本市,出川町１６番１号,,20,202,3900826,,,,,,,2024-05-22,1,,,,,バットハーラ,0
1505,6110001038411,新規,0,2024-05-22,2024-05-22,株式会社Ｍ‐ＣＲＥＷ,,株式会社,新潟県,新潟市江南区,丸潟１丁目４番１７号,,15,104,9500146,,,,,,,2024-05-22,1,,,,,エムクルー,0
1518,6120001265137,新規,0,2024-05-22,2024-05-22,株式会社２９,,株式会社,大阪府,守口市,金田町３丁目４６番２号,,27,209,5700011,,,,,,,2024-05-22,1,,,,,フク,0
1519,6120001265194,新規,0,2024-05-22,2024-05-22,株式会社Ｒ．ＳＵＣＣＥＥＤ,,株式会社,大阪府,枚方市,招提元町２丁目２０番２号,,27,210,5731133,,,,,,,2024-05-22,1,,,,,アールサクシード,0
1520,6120001265211,新規,0,2024-05-22,2024-05-22,宝創株式会社,,株式会社,大阪府,大阪市住吉区,遠里小野３丁目３－２５ロイヤル遠里小野４０４号,,27,120,5580032,,,,,,,2024-05-22,1,,,,,ホウソウ,0
1522,6120003026644,新規,0,2024-05-22,2024-05-22,合同会社ＧＲＯＷ‐ＵＰ,,合同会社,大阪府,大阪市中央区,安土町３丁目４番５号,,27,128,5410052,,,,,,,2024-05-22,1,,,,,グロウアップ,0
1523,6120003026660,新規,0,2024-05-22,2024-05-22,ＭＡＴＥ合同会社,,合同会社,大阪府,大阪市中央区,瓦屋町１丁目１０番５－３０４号,,27,128,5420066,,,,,,,2024-05-22,1,,,,,メイト,0
1524,6120003026669,新規,0,2024-05-22,2024-05-22,合同会社Ｕｚｕ,,合同会社,大阪府,大阪市北区,梅田１丁目１－３大阪駅前第３ビル２９階１－１－１号室,,27,127,5300001,,,,,,,2024-05-22,1,,,,,ウズ,0
1529,6120005024332,新規,0,2024-05-22,2024-05-22,一般社団法人Ｓｏｕ,,その他の設立登記法人,大阪府,大阪市中央区,徳井町２丁目１番２号徳井町アリストビル２階,,27,128,5400025,,,,,,,2024-05-22,1,,,,,ソウ,0
1540,6130001077102,新規,0,2024-05-22,2024-05-22,株式会社ＵＧオートサービス,,株式会社,京都府,宇治市,小倉町堀池５１番地,,26,204,6110042,,,,,,,2024-05-22,1,,,,,ユージーオートサービス,0
1566,6180001161371,新規,0,2024-05-22,2024-05-22,株式会社一,,株式会社,愛知県,名古屋市緑区,大将ケ根２丁目７３２番地,,23,114,4580822,,,,,,,2024-05-22,1,,,,,ハジメ,0
1567,6180001161529,新規,0,2024-05-22,2024-05-22,株式会社ｓｙｎｄｒｏｍｅ,,株式会社,愛知県,名古屋市中区,栄３丁目２５番１７号ＣＨＩＰＴＯＷＥＲ７Ｆ,,23,106,4600008,,,,,,,2024-05-22,1,,,,,シンドローム,0
1568,6180001161537,新規,0,2024-05-22,2024-05-22,日本パートナー株式会社,,株式会社,愛知県,名古屋市昭和区,川原通８丁目５９－３,,23,107,4660853,,,,,,,2024-05-22,1,,,,,ニホンパートナー,0
1569,6180001161578,新規,0,2024-05-22,2024-05-22,株式会社おうちのものさし,,株式会社,愛知県,名古屋市中区,松原２丁目２２番１５号,,23,106,4600017,,,,,,,2024-05-22,1,,,,,オウチノモノサシ,0
1570,6180001161628,新規,0,2024-05-22,2024-05-22,株式会社彩雲,,株式会社,愛知県,名古屋市緑区,砂田１丁目５１８番地,,23,114,4580807,,,,,,,2024-05-22,1,,,,,サイウン,0
1574,6180301038666,新規,0,2024-05-22,2024-05-22,アター株式会社,,株式会社,愛知県,西尾市,城崎町７丁目１番地,,23,213,4450065,,,,,,,2024-05-22,1,,,,,アター,0
1576,6190005011951,新規,0,2024-05-22,2024-05-22,農事組合法人政一産業,,その他の設立登記法人,三重県,鈴鹿市,平田本町２丁目１０番１０号小林ビル２０６号室,,24,207,5130848,,,,,,,2024-05-22,1,,,,,セイイチサンギョウ,0
1577,6200003006332,新規,0,2024-05-22,2024-05-22,合同会社ＪＩ．Ｎ,,合同会社,岐阜県,岐阜市,加納上本町１丁目１０サーパス上本町１２０３号,,21,201,5008451,,,,,,,2024-05-22,1,,,,,ジェーアイドットエヌ,0
1579,6210003001794,新規,0,2024-05-22,2024-05-22,北総建材合同会社,,合同会社,福井県,福井市,三郎丸町第２１号１８番地６,,18,201,9100036,,,,,,,2024-05-22,1,,,,,ホクソウケンザイ,0
1580,6220005008853,新規,0,2024-05-22,2024-05-22,一般社団法人ソロライフパートナー,,その他の設立登記法人,石川県,金沢市,浅野本町２丁目２６番８号スイートドリーム城北３１３号,,17,201,9200841,,,,,,,2024-05-22,1,,,,,ソロライフパートナー,0
1590,6260001039089,新規,0,2024-05-22,2024-05-22,株式会社Ｒａｉｓｅ,,株式会社,岡山県,岡山市南区,福富東２丁目９番８２号,,33,104,7028033,,,,,,,2024-05-22,1,,,,,レイズ,0
1598,6290001105854,新規,0,2024-05-22,2024-05-22,株式会社せりな,,株式会社,福岡県,福岡市早良区,賀茂１丁目２１番７号,,40,137,8140164,,,,,,,2024-05-22,1,,,,,セリナ,0
1601,6290003015325,新規,0,2024-05-22,2024-05-22,Ｓｐａｒｋ合同会社,,合同会社,福岡県,福岡市博多区,博多駅前１丁目２３番地２号ＰａｒｋＦｒｏｎｔ博多駅前１丁目５Ｆ－Ｂ,,40,132,8120011,,,,,,,2024-05-22,1,,,,,スパーク,0
1612,6330003010387,新規,0,2024-05-22,2024-05-22,富士見町ゆきまる合同会社,,合同会社,熊本県,熊本市南区,田迎６丁目９―１―４１２,,43,104,8620962,,,,,,,2024-05-22,1,,,,,フジミチョウユキマル,0
1618,6360003013998,新規,0,2024-05-22,2024-05-22,合同会社Ｒｅｐｌａｃｅ,,合同会社,沖縄県,宮古島市,平良字西里２４０－２琉球銀行ビル５Ｆ,,47,214,9060012,,,,,,,2024-05-22,1,,,,,リプレイス,0
1619,6370001051322,新規,0,2024-05-22,2024-05-22,株式会社ＨＯＰＥＡＳ,,株式会社,宮城県,仙台市宮城野区,岩切字洞ノ口１７７番地の２ノーブル・シャトーＫ３０３,,04,102,9830821,,,,,,,2024-05-22,1,,,,,ホープアス,0
1629,6430001091865,新規,0,2024-05-22,2024-05-22,株式会社アイニ,,株式会社,北海道,札幌市中央区,旭ケ丘５丁目２番３号,,01,101,0640941,,,,,,,2024-05-22,1,,,,,アイニ,0
1635,6440005002776,新規,0,2024-05-22,2024-05-22,社会保険労務士法人エミナール,,その他の設立登記法人,北海道,函館市,美原３丁目２０番２０号,,01,202,0410806,,,,,,,2024-05-22,1,,,,,エミナール,0
1641,6480003002130,新規,0,2024-05-22,2024-05-22,アルファベスト合同会社,,合同会社,徳島県,徳島市,八万町橋本７８番地パルティーレ八万町１０１号室,,36,201,7708078,,,,,,,2024-05-22,1,,,,,アルファベスト,0
1644,6700150125495,新規,0,2024-05-22,2024-05-22,ＺｈａｎｇＺｈｏｕＫｕＦｅｎｇＤｉａｎＺｉＹｏｕＸｉａｎＧｏｎｇＳｉ,,外国会社等,,,,,,,,Ｒｏｏｍ１００４　Ｂｕｉｌｄｉｎｇ６　Ｙｏｎｇｘｉｎｇ　Ｃｏｍｍｕｎｉｔｙ　Ｎｏ．８　ＹｏｎｇｘｉｎｇＲｏａｄ　Ｌｏｎｇｗｅｎ　Ｄｉｓｔｒｉｃｔ　Ｚｈａｎｇｚｈｏｕ　Ｃｉｔｙ　Ｆｕｊｉａｎ　Ｐｒｏｖｉｎｃｅ　ＣＮ,,,,,,2024-05-22,1,,,,,ザンゾウクフェンデンシユウゲンコウシ,0
1647,7010001244943,新規,0,2024-05-22,2024-05-22,株式会社Ａｏｚｏｒａ,,株式会社,東京都,千代田区,神田神保町３丁目１１番１号安田神保町マンション,,13,101,1010051,,,,,,,2024-05-22,1,,,,,アオゾラ,0
1648,7010001245009,新規,0,2024-05-22,2024-05-22,株式会社ＷＥＩＳＳ．ｔ,,株式会社,東京都,中央区,銀座１丁目１２番４号Ｎ＆ＥＢＬＤ．６Ｆ,,13,102,1040061,,,,,,,2024-05-22,1,,,,,ウェイス,0
1649,7010001245058,新規,0,2024-05-22,2024-05-22,株式会社Ｏｒｇａｎｉｃ　ＡＩ,,株式会社,東京都,文京区,本郷４丁目１－３明和本郷ビル７Ｆ,,13,105,1130033,,,,,,,2024-05-22,1,,,,,オーガニックエーアイ,0
1650,7010003043781,新規,0,2024-05-22,2024-05-22,エールタップ合同会社,,合同会社,東京都,中央区,新川２丁目１０番１－２０１２号,,13,102,1040033,,,,,,,2024-05-22,1,,,,,エールタップ,0
1651,7010003043807,新規,0,2024-05-22,2024-05-22,アストロ・ナインティーン合同会社,,合同会社,東京都,中央区,銀座１丁目６番１１号土志田ビルディング３Ｆ,,13,102,1040061,,,,,,,2024-05-22,1,,,,,アストロナインティーン,0
1667,7010401182586,新規,0,2024-05-22,2024-05-22,株式会社ＮＥＯＮＥ,,株式会社,東京都,港区,南青山３丁目１番３６号青山丸竹ビル６Ｆ,,13,103,1070062,,,,,,,2024-05-22,1,,,,,ネオン,0
1668,7010401182628,新規,0,2024-05-22,2024-05-22,ＧＩＥＢ株式会社,,株式会社,東京都,港区,浜松町２丁目２番１５号浜松町ダイヤビル２Ｆ,,13,103,1050013,,,,,,,2024-05-22,1,,,,,ジーブ,0
1671,7010403032640,新規,0,2024-05-22,2024-05-22,ｗａｂｏｎ合同会社,,合同会社,東京都,港区,浜松町２丁目２番１５号浜松町ダイヤビル２階,,13,103,1050013,,,,,,,2024-05-22,1,,,,,ワボン,0
1674,7010405023241,新規,0,2024-05-22,2024-05-22,一般社団法人Ｒｅ‐Ｃｒｅａｔｉｏｎ,,その他の設立登記法人,東京都,港区,北青山２丁目５番１号伊藤忠ビル１７階,,13,103,1070061,,,,,,,2024-05-22,1,,,,,リクリエイション,0
1675,7010405023266,新規,0,2024-05-22,2024-05-22,サガミ特定目的会社,,その他の設立登記法人,東京都,港区,六本木１丁目６番１号泉ガーデンタワー,,13,103,1060032,,,,,,,2024-05-22,1,,,,,サガミ,0
1681,7010701046012,新規,0,2024-05-22,2024-05-22,株式会社ＵＮ　ＧＲＡＮＤ　ＰＡＳ,,株式会社,東京都,品川区,大井４丁目１１番３３号リライア大井町ヒルズ５０１,,13,109,1400014,,,,,,,2024-05-22,1,,,,,アングランパ,0
1682,7010701046029,新規,0,2024-05-22,2024-05-22,株式会社ＷａｋＷａｋ,,株式会社,東京都,品川区,東五反田３丁目２０番１６－１１０１号,,13,109,1410022,,,,,,,2024-05-22,1,,,,,ワクワク,0
1683,7010703007193,新規,0,2024-05-22,2024-05-22,合同会社ふくすみか,,合同会社,東京都,品川区,荏原３丁目７番２－７０２号,,13,109,1420063,,,,,,,2024-05-22,1,,,,,フクスミカ,0
1685,7010801035071,新規,0,2024-05-22,2024-05-22,ＵＬＯＧ　Ｊａｐａｎ株式会社,,株式会社,東京都,大田区,東雪谷３丁目２６番１１号プレール・ドゥーク雪が谷大塚２０２,,13,111,1450065,,,,,,,2024-05-22,1,,,,,ユーログジャパン,0
1686,7010803004958,新規,0,2024-05-22,2024-05-22,合同会社のぼる,,合同会社,東京都,大田区,上池台１丁目１番６号,,13,111,1450064,,,,,,,2024-05-22,1,,,,,ノボル,0
1689,7010901055317,新規,0,2024-05-22,2024-05-22,株式会社タケインク,,株式会社,東京都,世田谷区,池尻４丁目１３番２０号,,13,112,1540001,,,,,,,2024-05-22,1,,,,,タケインク,0
1690,7010901055325,新規,0,2024-05-22,2024-05-22,株式会社スリー,,株式会社,東京都,世田谷区,太子堂２丁目９番１５号,,13,112,1540004,,,,,,,2024-05-22,1,,,,,スリー,0
1707,7011003019227,新規,0,2024-05-22,2024-05-22,合同会社ＦｏｏｄＰｒｏｔｏｔｙｐｉｎｇＱｕｅｓｔ,,合同会社,東京都,渋谷区,神宮前６丁目２３番４号桑野ビル２階,,13,113,1500001,,,,,,,2024-05-22,1,,,,,フードプロトタイピングクエスト,0
1709,7011101107197,新規,0,2024-05-22,2024-05-22,株式会社ＥＶＯＬＵＴＩＯＮ,,株式会社,東京都,新宿区,歌舞伎町１丁目３番１１号梅村ビル６階,,13,104,1600021,,,,,,,2024-05-22,1,,,,,エボリューション,0
1710,7011103014417,新規,0,2024-05-22,2024-05-22,Ｔｉｇｒｏｕ合同会社,,合同会社,東京都,新宿区,高田馬場２丁目１９番８号ダイヤモンドビル高田馬場,,13,104,1690075,,,,,,,2024-05-22,1,,,,,ティグル,0
1714,7011401026122,新規,0,2024-05-22,2024-05-22,株式会社Ｓｉｍｐｌｉｎｅｄ　Ｔｅｃｈｎｏｌｏｇｙ,,株式会社,東京都,板橋区,大山西町３３番１０号,,13,119,1730033,,,,,,,2024-05-22,1,,,,,シンプリンテクノロジー,0
1717,7011503006071,新規,0,2024-05-22,2024-05-22,合同会社ＫＩＴＡＩＣＨＩ,,合同会社,東京都,北区,王子２丁目１０番１１号,,13,117,1140002,,,,,,,2024-05-22,1,,,,,キタイチ,0
1718,7011601027762,新規,0,2024-05-22,2024-05-22,中山解体株式会社,,株式会社,東京都,練馬区,貫井１丁目１３番２２－１０６号,,13,120,1760021,,,,,,,2024-05-22,1,,,,,ナカヤマカイタイ,0
1722,7011801044260,新規,0,2024-05-22,2024-05-22,株式会社神羅コーポレーション,,株式会社,東京都,足立区,梅田２丁目１番３号ウィルローズ梅島ＢＲＩＯ６０１号,,13,121,1230851,,,,,,,2024-05-22,1,,,,,シンラコーポレーション,0
1729,7012403006566,新規,0,2024-05-22,2024-05-22,合同会社ＨＳＰ　ＨＳＳ　ＬＡＢＯ,,合同会社,東京都,調布市,若葉町１丁目７番地４７,,13,208,1820003,,,,,,,2024-05-22,1,,,,,エッチエスピーエッチエスエスラボ,0
1735,7013301052561,新規,0,2024-05-22,2024-05-22,株式会社ｆａｉｒｌｙ,,株式会社,東京都,豊島区,南長崎３丁目１１番４号アーバン南長崎,,13,116,1710052,,,,,,,2024-05-22,1,,,,,フェアリィ,0
1760,7021003014532,新規,0,2024-05-22,2024-05-22,ＡＩＬＡ　ＴＲＡＤＩＮＧ合同会社,,合同会社,神奈川県,厚木市,小野２２７６－１－Ｃ,,14,212,2430125,,,,,,,2024-05-22,1,,,,,アイラトレーディング,0
1761,7021003014549,新規,0,2024-05-22,2024-05-22,ＭＡＮＴＲＡ合同会社,,合同会社,神奈川県,平塚市,真田４丁目２３－２８シティ６－１０３,,14,203,2591206,,,,,,,2024-05-22,1,,,,,マントラ,0
1771,7030001160437,新規,0,2024-05-22,2024-05-22,株式会社サニーサイド,,株式会社,埼玉県,春日部市,備後西１丁目４番６５号ひかり太陽ビル３Ｆ,,11,214,3440033,,,,,,,2024-05-22,1,,,,,サニーサイド,0
1778,7030003024342,新規,0,2024-05-22,2024-05-22,合同会社ＩＲ,,合同会社,埼玉県,さいたま市南区,南浦和２丁目２８番１３－４１１号,,11,108,3360017,,,,,,,2024-05-22,1,,,,,アイアール,0
1781,7040001133623,新規,0,2024-05-22,2024-05-22,ＪＷＪ株式会社,,株式会社,千葉県,松戸市,紙敷１３８７,,12,207,2702221,,,,,,,2024-05-22,1,,,,,ジェイダブリュージェイ,0
1782,7040001133714,新規,0,2024-05-22,2024-05-22,株式会社ラティー,,株式会社,千葉県,柏市,柏３丁目５番７号１階,,12,217,2770005,,,,,,,2024-05-22,1,,,,,ラティー,0
1783,7040001133739,新規,0,2024-05-22,2024-05-22,株式会社ＦＳＣ,,株式会社,千葉県,成田市,不動ケ岡２１１８番地５,,12,211,2860044,,,,,,,2024-05-22,1,,,,,エフエスシー,0
1784,7040003025034,新規,0,2024-05-22,2024-05-22,Ｙ’ｓ　Ｐｒｏｍｏｔｉｏｎ合同会社,,合同会社,千葉県,我孫子市,中峠３０６３番地の４６,,12,222,2701121,,,,,,,2024-05-22,1,,,,,ワイズプロモーション,0
1785,7050001054760,新規,0,2024-05-22,2024-05-22,株式会社ｃｏｎｎｅｃｔ,,株式会社,茨城県,古河市,磯部１４５５番地１,,08,204,3060225,,,,,,,2024-05-22,1,,,,,コネクト,0
1786,7050001054793,新規,0,2024-05-22,2024-05-22,株式会社メイキッズ,,株式会社,茨城県,稲敷郡阿見町,西郷３丁目２番地６橋本テナント１０２,,08,443,3000336,,,,,,,2024-05-22,1,,,,,メイキッズ,0
1787,7050003008376,新規,0,2024-05-22,2024-05-22,ＥＳＨＡＬ　ＴＲＡＤＩＮＧ合同会社,,合同会社,茨城県,筑西市,玉戸１３０９番５５大吉亭１０９号,,08,227,3080847,,,,,,,2024-05-22,1,,,,,エシャルトレーディング,0
1788,7050005013449,新規,0,2024-05-22,2024-05-22,ＡＳＫＡインターナショナル協同組合,,その他の設立登記法人,茨城県,筑西市,乙８６３,,08,227,3080041,,,,,,,2024-05-22,1,,,,,アスカインターナショナル,0
1793,7060001037129,新規,0,2024-05-22,2024-05-22,Ｒｉｓｅ株式会社,,株式会社,栃木県,宇都宮市,立伏町４４７番地１８,,09,201,3291116,,,,,,,2024-05-22,1,,,,,ライズ,0
1799,7060003005083,新規,0,2024-05-22,2024-05-22,ＨＩＥＵ　ＴＲＡＮ合同会社,,合同会社,栃木県,足利市,山下町１０６７番地１ホワイトハイツ鹿島台２０８,,09,202,3260846,,,,,,,2024-05-22,1,,,,,ヒエウチャン,0
1805,7070001041773,新規,0,2024-05-22,2024-05-22,ａｃｅｒｅｎｔａｌｃａｒ．ｊｐ株式会社,,株式会社,群馬県,高崎市,鶴見町６番地６内山ビル３階３号,,10,202,3700848,,,,,,,2024-05-22,1,,,,,エースレンタルカードットジェイピー,0
1809,7080403005020,新規,0,2024-05-22,2024-05-22,合同会社ＭＡＴＳＵ,,合同会社,静岡県,袋井市,上山梨６丁目２番地の１９,,22,216,4370125,,,,,,,2024-05-22,1,,,,,マツ,0
1812,7090003002573,新規,0,2024-05-22,2024-05-22,ＭＥＴＡＤ　Ｍａｒｋｅｔｉｎｇ合同会社,,合同会社,山梨県,甲府市,千塚４丁目２番１１号長田住宅０６,,19,201,4000074,,,,,,,2024-05-22,1,,,,,メタッドマーケティング,0
1817,7100001037454,新規,0,2024-05-22,2024-05-22,株式会社みどり屋,,株式会社,長野県,上田市,上丸子８８６番地４,,20,203,3860404,,,,,,,2024-05-22,1,,,,,ミドリヤ,0
1818,7100001037462,新規,0,2024-05-22,2024-05-22,玉井薬品株式会社,,株式会社,長野県,長野市,大字柳原字東囲２０８６番地の２,,20,201,3810012,,,,,,,2024-05-22,1,,,,,タマイヤクヒン,0
1820,7100003007562,新規,0,2024-05-22,2024-05-22,Ｕ＆Ｉ合同会社,,合同会社,長野県,長野市,大字南長野諏訪町４９７番地２,,20,201,3800844,,,,,,,2024-05-22,1,,,,,ユーアンドアイ,0
1836,7120001265128,新規,0,2024-05-22,2024-05-22,株式会社ユーシン,,株式会社,大阪府,大阪市平野区,瓜破東１丁目１２番１１号,,27,126,5470022,,,,,,,2024-05-22,1,,,,,ユーシン,0
1837,7120001265144,新規,0,2024-05-22,2024-05-22,久善株式会社,,株式会社,大阪府,大阪市東淀川区,東中島１丁目２０番１２－９２５号室,,27,114,5330033,,,,,,,2024-05-22,1,,,,,クゼン,0
1838,7120001265193,新規,0,2024-05-22,2024-05-22,株式会社Ｙｓコーポレーション,,株式会社,大阪府,大阪市港区,港晴３丁目９番１３号,,27,107,5520023,,,,,,,2024-05-22,1,,,,,ワイズコーポレーション,0
1839,7120001265202,新規,0,2024-05-22,2024-05-22,株式会社ベリーハッピー,,株式会社,大阪府,大阪市東住吉区,田辺６丁目７番３１号ルミエール田辺８０３号,,27,121,5460031,,,,,,,2024-05-22,1,,,,,ベリーハッピー,0
1840,7120001265210,新規,0,2024-05-22,2024-05-22,蔵月株式会社,,株式会社,大阪府,大阪市淀川区,新高４丁目３－１９小林マンション３０１号,,27,123,5320033,,,,,,,2024-05-22,1,,,,,クラツキ,0
1841,7120001265227,新規,0,2024-05-22,2024-05-22,株式会社ＮＯＢＵ,,株式会社,大阪府,大阪市此花区,西九条１丁目１番８１－５１２号,,27,104,5540012,,,,,,,2024-05-22,1,,,,,ノブ,0
1846,7120003026635,新規,0,2024-05-22,2024-05-22,合同会社ＳｔａＴｅｃｈ,,合同会社,大阪府,大阪市北区,梅田１丁目２番２号大阪駅前第２ビル１２－１２,,27,127,5300001,,,,,,,2024-05-22,1,,,,,スタテック,0
1847,7120003026643,新規,0,2024-05-22,2024-05-22,ＨＡ　ＫＥＬＬＹ　ＳＨＯＰ合同会社,,合同会社,大阪府,大阪市西淀川区,野里２丁目１５番４号,,27,113,5550024,,,,,,,2024-05-22,1,,,,,ハーケリーショップ,0
1848,7120003026651,新規,0,2024-05-22,2024-05-22,望幸合同会社,,合同会社,大阪府,大阪市生野区,田島２丁目１０－３０－１０４,,27,116,5440011,,,,,,,2024-05-22,1,,,,,モチコウ,0
1849,7120003026668,新規,0,2024-05-22,2024-05-22,合同会社Ｆｏｌｌｏｗ,,合同会社,大阪府,大阪市鶴見区,放出東３丁目３５番２６－３０８号,,27,124,5380044,,,,,,,2024-05-22,1,,,,,フォロー,0
1852,7120101069619,新規,0,2024-05-22,2024-05-22,株式会社かるま,,株式会社,大阪府,堺市堺区,北向陽町２丁３番１８－４０１号,,27,141,5900071,,,,,,,2024-05-22,1,,,,,カルマ,0
1853,7120101069635,新規,0,2024-05-22,2024-05-22,株式会社Ｂ・Ｂ　ＢＯＳＳ,,株式会社,大阪府,堺市中区,深井中町１１９７番地１８,,27,142,5998272,,,,,,,2024-05-22,1,,,,,ビービーボス,0
1854,7120103005844,新規,0,2024-05-22,2024-05-22,合同会社ＴＯ　ＢＥ,,合同会社,大阪府,堺市東区,日置荘西町６丁４１番４７－２号,,27,143,5998114,,,,,,,2024-05-22,1,,,,,トゥビィー,0
1858,7122001038125,新規,0,2024-05-22,2024-05-22,株式会社ビッグ・オン,,株式会社,大阪府,八尾市,八尾木北５丁目１１０番１号,,27,212,5810016,,,,,,,2024-05-22,1,,,,,ビッグオン,0
1863,7130003009572,新規,0,2024-05-22,2024-05-22,合同会社匠ＴＡＫＵＭＩ,,合同会社,京都府,京都市上京区,笹屋町二丁目５８３,,26,102,6020000,,,,,,,2024-05-22,1,,,,,タクミ,0
1871,7140001134405,新規,0,2024-05-22,2024-05-22,株式会社ブルーバード,,株式会社,兵庫県,神戸市兵庫区,西出町８番５号,,28,105,6520822,,,,,,,2024-05-22,1,,,,,ブルーバード,0
1872,7140001134470,新規,0,2024-05-22,2024-05-22,株式会社ｂｅ　Ａｒｔｉｓｔ,,株式会社,兵庫県,明石市,朝霧東町３丁目６番４３号,,28,203,6730860,,,,,,,2024-05-22,1,,,,,ビーアーティスト,0
1873,7140001134512,新規,0,2024-05-22,2024-05-22,株式会社ｂＬｉｎｋ　Ｔｅｃｈｎｏｌｏｇｉｅｓ,,株式会社,兵庫県,神戸市灘区,六甲台町２－１,,28,102,6570013,,,,,,,2024-05-22,1,,,,,ビーリンクテクノロジーズ,0
1884,7180001161544,新規,0,2024-05-22,2024-05-22,伊藤設備設計株式会社,,株式会社,愛知県,名古屋市港区,南十一番町１丁目１番地の４２,,23,111,4550006,,,,,,,2024-05-22,1,,,,,イトウセツビセッケイ,0
1885,7180001161585,新規,0,2024-05-22,2024-05-22,株式会社ＬＩＦＩＸ,,株式会社,愛知県,名古屋市北区,駒止町２丁目１０９番地（グランスイート黒川テラス１０６号）,,23,103,4620059,,,,,,,2024-05-22,1,,,,,リフィックス,0
1892,7180003026836,新規,0,2024-05-22,2024-05-22,合同会社Ｏｋｉｅ‐Ｄｏｋｉｅ,,合同会社,愛知県,名古屋市守山区,小幡中２丁目２２番１２号,,23,113,4630013,,,,,,,2024-05-22,1,,,,,オーキードーキー,0
1896,7200003006348,新規,0,2024-05-22,2024-05-22,ＳＡＴＯＲＵオークション合同会社,,合同会社,岐阜県,大垣市,荒尾町３９０番地８,,21,202,5030034,,,,,,,2024-05-22,1,,,,,サトルオークション,0
1899,7210003001793,新規,0,2024-05-22,2024-05-22,合同会社Ｋ．ＦＩｙｅｒｓ,,合同会社,福井県,福井市,順化１丁目１８番３号,,18,201,9100023,,,,,,,2024-05-22,1,,,,,ケーフライヤーズ,0
1908,7240001063239,新規,0,2024-05-22,2024-05-22,入江工業株式会社,,株式会社,広島県,安芸高田市,吉田町上入江１１２３番地の１,,34,214,7310532,,,,,,,2024-05-22,1,,,,,イリエコウギョウ,0
1920,7290001105804,新規,0,2024-05-22,2024-05-22,株式会社松尾企画,,株式会社,福岡県,春日市,下白水南４丁目２０番地１イルマーレ７０２号,,40,218,8160846,,,,,,,2024-05-22,1,,,,,マツオキカク,0
1921,7290003015316,新規,0,2024-05-22,2024-05-22,合同会社労務サポート福岡,,合同会社,福岡県,福岡市中央区,天神１丁目１４番４号,,40,133,8100001,,,,,,,2024-05-22,1,,,,,ロウムサポートフクオカ,0
1922,7290003015340,新規,0,2024-05-22,2024-05-22,合同会社Ｆｌｏｗｔ,,合同会社,福岡県,福岡市博多区,博多駅前１丁目２３番２号ＰａｒｋＦｒｏｎｔ博多駅前１丁目５Ｆ－Ｂ,,40,132,8120011,,,,,,,2024-05-22,1,,,,,フロート,0
1930,7310001019027,新規,0,2024-05-22,2024-05-22,キイト株式会社,,株式会社,長崎県,長崎市,滑石３丁目１７番３０号,,42,201,8528061,,,,,,,2024-05-22,1,,,,,キイト,0
1935,7340001026524,新規,0,2024-05-22,2024-05-22,株式会社さかうえ畜産,,株式会社,鹿児島県,志布志市,志布志町安楽２８７３番地４,,46,221,8997104,,,,,,,2024-05-22,1,,,,,サカウエチクサン,0
1939,7370001051305,新規,0,2024-05-22,2024-05-22,株式会社ｌｉｔｔｌｅ　ｏｒｉｇｉｎａｌ,,株式会社,宮城県,仙台市青葉区,郷六字宮１１－１５,,04,101,9893121,,,,,,,2024-05-22,1,,,,,リトルオリジナル,0
1940,7370001051321,新規,0,2024-05-22,2024-05-22,むつばトランスポート株式会社,,株式会社,宮城県,仙台市宮城野区,鶴巻１丁目２１番３８号,,04,102,9830024,,,,,,,2024-05-22,1,,,,,ムツバトランスポート,0
1941,7370005010785,新規,0,2024-05-22,2024-05-22,一般社団法人発酵を核としたローカル食品輸出拡大コンソーシアム,,その他の設立登記法人,宮城県,仙台市青葉区,上杉１丁目１６番３０号東日本ビル７階,,04,101,9800011,,,,,,,2024-05-22,1,,,,,ハッコウヲカクトシタローカルショクヒンユシュツカクダイコンソーシアム,0
1966,7700150125494,新規,0,2024-05-22,2024-05-22,ＺＨＡＮＧＺＨＯＵＬＥＴＩＮＧＤＩＡＮＺＩＹＯＵＸＩＡＮＧＯＮＧＳＩ,,外国会社等,,,,,,,,Ｆｕｊｉａｎ　Ｓｈｅｎｇ　Ｚｈａｎｇｚｈｏｕ　Ｓｈｉ　Ｌｏｎｇｗｅｎ　Ｑｕ　Ｌｏｎｇｗｅｎ　Ｂｅｉｌｕ　６　Ｈａｏ　Ｆｕｓｈｅｎｇ　ＱｉａｎＬｏｎｇ　Ｘｕｅｆｕ　Ｗｕｑｉ　１１　Ｚｈｕａｎｇ　１９０３　Ｓｈｉ,,,,,,2024-05-22,1,,,,,ザンシュレテインデンジユウゲンコウシ,0
1981,8010001244975,新規,0,2024-05-22,2024-05-22,東成商事株式会社,,株式会社,東京都,千代田区,有楽町１丁目１３－２,,13,101,1000006,,,,,,,2024-05-22,1,,,,,トウセイショウジ,0
1982,8010001245081,新規,0,2024-05-22,2024-05-22,西インドインベストメント株式会社,,株式会社,東京都,千代田区,神田神保町２丁目１番地,,13,101,1010051,,,,,,,2024-05-22,1,,,,,ニシインドインベストメント,0
1984,8010003043764,新規,0,2024-05-22,2024-05-22,合同会社オブノ１号,,合同会社,東京都,千代田区,二番町３番地１１ＶＯＲＴ二番町５階,,13,101,1020084,,,,,,,2024-05-22,1,,,,,オブノイチゴウ,0
1997,8010401182569,新規,0,2024-05-22,2024-05-22,株式会社Ｓａｌｔ＆Ｌｉｇｈｔ,,株式会社,東京都,港区,元赤坂１丁目７－１８－４Ｆ,,13,103,1070051,,,,,,,2024-05-22,1,,,,,ソルトアンドライト,0
1998,8010401182676,新規,0,2024-05-22,2024-05-22,株式会社ＫＵＭＡＫＵＲＡ,,株式会社,東京都,港区,三田３丁目２－１,,13,103,1080073,,,,,,,2024-05-22,1,,,,,クマクラ,0
2002,8010501052291,新規,0,2024-05-22,2024-05-22,株式会社星夏,,株式会社,東京都,台東区,台東３丁目５番１０号－１０２－２Ｗ,,13,106,1100016,,,,,,,2024-05-22,1,,,,,セイカ,0
2005,8010601065227,新規,0,2024-05-22,2024-05-22,株式会社マーケットダイブ,,株式会社,東京都,墨田区,八広６丁目３１番５号メゾンセピア１０１,,13,107,1310041,,,,,,,2024-05-22,1,,,,,マーケットダイブ,0
2007,8010703007184,新規,0,2024-05-22,2024-05-22,若林産業合同会社,,合同会社,東京都,品川区,東五反田３丁目６番１５－３０２号,,13,109,1410022,,,,,,,2024-05-22,1,,,,,ワカバヤシサンギョウ,0
2008,8010703007192,新規,0,2024-05-22,2024-05-22,合同会社フリーウェル,,合同会社,東京都,品川区,西五反田２丁目１９番３号五反田第一生命ビルディング５階,,13,109,1410031,,,,,,,2024-05-22,1,,,,,フリーウェル,0
2009,8010803004957,新規,0,2024-05-22,2024-05-22,ヤン・インベストメント合同会社,,合同会社,東京都,大田区,大森北２丁目１３－３１－２４３４,,13,111,1430016,,,,,,,2024-05-22,1,,,,,ヤンインベストメント,0
2013,8010901055324,新規,0,2024-05-22,2024-05-22,株式会社オニモ,,株式会社,東京都,世田谷区,中町１丁目１３番１３号,,13,112,1580091,,,,,,,2024-05-22,1,,,,,オニモ,0
2024,8011303005165,新規,0,2024-05-22,2024-05-22,Ｆ．Ｔ．Ｓ．Ｊａｐａｎ　Ｔｒａｖｅｌ合同会社,,合同会社,東京都,杉並区,天沼２丁目１番２号,,13,115,1670032,,,,,,,2024-05-22,1,,,,,エフティーエスジャパントラベル,0
2026,8011501030667,新規,0,2024-05-22,2024-05-22,株式会社ＲＡＤＳ,,株式会社,東京都,北区,志茂３丁目１４番１号カザルス・スクエア６０３号,,13,117,1150042,,,,,,,2024-05-22,1,,,,,ラッズ,0
2036,8012703002999,新規,0,2024-05-22,2024-05-22,合同会社Ｄ‐ｔｈｒｅｅ,,合同会社,東京都,東村山市,栄町１丁目１２番地１６Ｒｏｏｔ久米川３０６,,13,213,1890013,,,,,,,2024-05-22,1,,,,,ディースリー,0
2037,8013101009422,新規,0,2024-05-22,2024-05-22,株式会社未来ヌサンタラ,,株式会社,東京都,青梅市,東青梅２丁目２０番地の３７,,13,205,1980042,,,,,,,2024-05-22,1,,,,,ミライヌサンタラ,0
2043,8013301052552,新規,0,2024-05-22,2024-05-22,ＵＮＩＺ株式会社,,株式会社,東京都,豊島区,東池袋４丁目５番１号エアライズタワー２３１３号室,,13,116,1700013,,,,,,,2024-05-22,1,,,,,ユニッツ,0
2044,8013301052560,新規,0,2024-05-22,2024-05-22,株式会社黒豆,,株式会社,東京都,豊島区,高田２丁目１７番２６号,,13,116,1710033,,,,,,,2024-05-22,1,,,,,クロマメ,0
2045,8013301052569,新規,0,2024-05-22,2024-05-22,株式会社カノセ,,株式会社,東京都,豊島区,長崎６丁目２３番９プレステージ東長崎５０５号,,13,116,1710051,,,,,,,2024-05-22,1,,,,,カノセ,0
2058,8020001157334,新規,0,2024-05-22,2024-05-22,株式会社ＢＧ,,株式会社,神奈川県,横浜市中区,石川町１丁目１３－２石川町トーセイビル地下１階,,14,104,2310868,,,,,,,2024-05-22,1,,,,,ビージー,0
2059,8020003026173,新規,0,2024-05-22,2024-05-22,ｕｉｎｏ合同会社,,合同会社,神奈川県,横浜市中区,長者町９丁目１７３,,14,104,2310033,,,,,,,2024-05-22,1,,,,,ウィノ,0
2064,8021001082266,新規,0,2024-05-22,2024-05-22,三崎未来ホールディングス株式会社,,株式会社,神奈川県,相模原市中央区,南橋本４丁目３番１５号,,14,152,2520253,,,,,,,2024-05-22,1,,,,,ミサキミライホールディングス,0
2076,8030001160502,新規,0,2024-05-22,2024-05-22,株式会社アルファウィン,,株式会社,埼玉県,新座市,新堀３丁目１１番４号,,11,230,3520032,,,,,,,2024-05-22,1,,,,,アルファウィン,0
2080,8040001133705,新規,0,2024-05-22,2024-05-22,株式会社和進,,株式会社,千葉県,安房郡鋸南町,下佐久間３５５０－１,,12,463,2992115,,,,,,,2024-05-22,1,,,,,ワシン,0
2081,8040001133721,新規,0,2024-05-22,2024-05-22,美亜電気建装株式会社,,株式会社,千葉県,鎌ケ谷市,中佐津間１丁目１２番３号（１Ｆ）,,12,224,2730135,,,,,,,2024-05-22,1,,,,,ミアデンキケンソウ,0
2083,8040003025025,新規,0,2024-05-22,2024-05-22,合同会社道然,,合同会社,千葉県,白井市,南山２丁目５番７－２号,,12,232,2701423,,,,,,,2024-05-22,1,,,,,ドウネン,0
2084,8040003025033,新規,0,2024-05-22,2024-05-22,ＫＴコーチングサービス合同会社,,合同会社,千葉県,船橋市,習志野台４丁目４１番１８号,,12,204,2740063,,,,,,,2024-05-22,1,,,,,ケーティーコーチングサービス,0
2086,8050001054801,新規,0,2024-05-22,2024-05-22,株式会社ローゼン,,株式会社,茨城県,水戸市,千波町１３７６番地の１ラッフルズマンション３０３号,,08,201,3100851,,,,,,,2024-05-22,1,,,,,ローゼン,0
2087,8050003008383,新規,0,2024-05-22,2024-05-22,ＢＩＬＡＬ　ＴＲＡＤＩＮＧ合同会社,,合同会社,茨城県,結城市,大字結城１１７４５番地１８,,08,207,3070001,,,,,,,2024-05-22,1,,,,,ビラルトレーディング,0
2088,8050003008391,新規,0,2024-05-22,2024-05-22,合同会社ケーズサポート,,合同会社,茨城県,鹿嶋市,大字清水１６６９番地７,,08,222,3140001,,,,,,,2024-05-22,1,,,,,ケーズサポート,0
2090,8060001037128,新規,0,2024-05-22,2024-05-22,株式会社とちぎ花岡いちご園,,株式会社,栃木県,塩谷郡高根沢町,大字花岡２０９４番地８,,09,386,3291207,,,,,,,2024-05-22,1,,,,,トチギハナオカイチゴエン,0
2096,8060003005082,新規,0,2024-05-22,2024-05-22,イマピクト合同会社,,合同会社,栃木県,宇都宮市,戸祭２丁目１１－３５アビタ戸祭Ａ,,09,201,3200056,,,,,,,2024-05-22,1,,,,,イマピクト,0
2097,8060005010205,新規,0,2024-05-22,2024-05-22,一般社団法人那須クラシック音楽祭,,その他の設立登記法人,栃木県,那須郡那須町,大字高久丙１１４７番地１０１弦楽亭内,,09,407,3250302,,,,,,,2024-05-22,1,,,,,ナスクラシックオンガクサイ,0
2103,8080103003067,新規,0,2024-05-22,2024-05-22,合同会社エンドレスネオ,,合同会社,静岡県,沼津市,大岡２１４９番地の１,,22,203,4100022,,,,,,,2024-05-22,1,,,,,エンドレスネオ,0
2108,8090003002572,新規,0,2024-05-22,2024-05-22,合同会社なないろ,,合同会社,山梨県,甲斐市,玉川１５０６番地７,,19,210,4000116,,,,,,,2024-05-22,1,,,,,ナナイロ,0
2112,8100003007561,新規,0,2024-05-22,2024-05-22,合同会社ＢＯＣ,,合同会社,長野県,上田市,前山１８６－４,,20,203,3861436,,,,,,,2024-05-22,1,,,,,ビーオーシー,0
2124,8120001264970,新規,0,2024-05-22,2024-05-22,株式会社Ｐｏｅｍｅ　Ａｒｃ,,株式会社,大阪府,大阪市中央区,南船場３丁目２番２２号,,27,128,5420081,,,,,,,2024-05-22,1,,,,,ポエムアーク,0
2125,8120001265102,新規,0,2024-05-22,2024-05-22,株式会社ＰｉＱサポ,,株式会社,大阪府,大阪市淀川区,西宮原１丁目５－３３新大阪飯田ビル１Ｆ,,27,123,5320004,,,,,,,2024-05-22,1,,,,,ピクサポ,0
2126,8120001265127,新規,0,2024-05-22,2024-05-22,株式会社Ｏｎｅ　Ｓｏｕｒｃｅ　Ｇｌｏｂａｌ,,株式会社,大阪府,大阪市淀川区,宮原１丁目１９番２３号,,27,123,5320003,,,,,,,2024-05-22,1,,,,,ワンソースグローバル,0
2127,8120001265151,新規,0,2024-05-22,2024-05-22,ａｎｄｏｔ株式会社,,株式会社,大阪府,大阪市中央区,南船場３丁目２番２２号,,27,128,5420081,,,,,,,2024-05-22,1,,,,,アンドット,0
2128,8120001265176,新規,0,2024-05-22,2024-05-22,メイン・アンド・カンパニー株式会社,,株式会社,大阪府,大阪市中央区,本町４丁目４番１６－８０２号,,27,128,5410053,,,,,,,2024-05-22,1,,,,,メインアンドカンパニー,0
2131,8120003026650,新規,0,2024-05-22,2024-05-22,立遠合同会社,,合同会社,大阪府,大阪市生野区,田島２丁目１０－３０－１０１,,27,116,5440011,,,,,,,2024-05-22,1,,,,,リツエン,0
2132,8120003026659,新規,0,2024-05-22,2024-05-22,合同会社アンセス,,合同会社,大阪府,寝屋川市,松屋町１０番２６号,,27,215,5720086,,,,,,,2024-05-22,1,,,,,アンセス,0
2137,8120101069592,新規,0,2024-05-22,2024-05-22,株式会社キートンクラブ,,株式会社,大阪府,岸和田市,吉井町４丁目１１－９,,27,202,5960002,,,,,,,2024-05-22,1,,,,,キートンクラブ,0
2138,8120101069634,新規,0,2024-05-22,2024-05-22,株式会社ＵＪＣリベルダージ,,株式会社,大阪府,堺市北区,百舌鳥梅町３丁４－４,,27,146,5918032,,,,,,,2024-05-22,1,,,,,ユージェーシーリベルダージ,0
2144,8130001077075,新規,0,2024-05-22,2024-05-22,株式会社マチュリテ・インターナショナル,,株式会社,京都府,京都市中京区,三条通寺町西入弁慶石町５９番地１,,26,104,6048082,,,,,,,2024-05-22,1,,,,,マチュリテインターナショナル,0
2145,8130001077091,新規,0,2024-05-22,2024-05-22,三馬株式会社,,株式会社,京都府,京都市中京区,蛸薬師通烏丸東入一蓮社町３００番地パームビル３階３１１号室,,26,104,6048146,,,,,,,2024-05-22,1,,,,,サンバ,0
2146,8130003009588,新規,0,2024-05-22,2024-05-22,合同会社衣笠岡本,,合同会社,京都府,京都市北区,衣笠街道町１６番地,,26,101,6038372,,,,,,,2024-05-22,1,,,,,キヌガサオカモト,0
2152,8140001134453,新規,0,2024-05-22,2024-05-22,株式会社Ｂｅ　ＳＴＯＮＥ,,株式会社,兵庫県,神戸市西区,王塚台６丁目４９番地の１ファミール王塚台１０１号,00134855,28,111,6512135,,,,,,,2024-05-22,1,,,,,ビーストーン,0
2154,8140005027083,新規,0,2024-05-22,2024-05-22,一般社団法人たねまきＬＡＢ,,その他の設立登記法人,兵庫県,神戸市中央区,浪花町５６起業プラザひょうご内,,28,110,6500035,,,,,,,2024-05-22,1,,,,,タネマキラボ,0
2166,8180001161535,新規,0,2024-05-22,2024-05-22,株式会社ＯＵＳＨＵＫＵ,,株式会社,愛知県,名古屋市天白区,表山２丁目３３５番地,,23,116,4680069,,,,,,,2024-05-22,1,,,,,オウシュク,0
2167,8180001161543,新規,0,2024-05-22,2024-05-22,株式会社エス・スタイル,,株式会社,愛知県,名古屋市緑区,桃山４丁目３３８番地グローリアス緑区桃山１０５号,,23,114,4580002,,,,,,,2024-05-22,1,,,,,エススタイル,0
2168,8180001161584,新規,0,2024-05-22,2024-05-22,株式会社大野会計,,株式会社,愛知県,名古屋市天白区,植田山４丁目１４０３番地の２,,23,116,4680001,,,,,,,2024-05-22,1,,,,,オオノカイケイ,0
2173,8180003026819,新規,0,2024-05-22,2024-05-22,合同会社ＨＲソリューション,,合同会社,愛知県,名古屋市天白区,元八事５丁目１３７番地の４,,23,116,4680066,,,,,,,2024-05-22,1,,,,,エイチアールソリューション,0
2179,8190001031349,新規,0,2024-05-22,2024-05-22,青島総業株式会社,,株式会社,三重県,松阪市,曽原町３０３,,24,204,5152112,,,,,,,2024-05-22,1,,,,,アオシマソウギョウ,0
2184,8200001042534,新規,0,2024-05-22,2024-05-22,株式会社大朋工業,,株式会社,岐阜県,可児郡御嵩町,中１４８１番地１,,21,521,5050121,,,,,,,2024-05-22,1,,,,,オオトモコウギョウ,0
2188,8230003002211,新規,0,2024-05-22,2024-05-22,合同会社ＣＵＬＡＳＵ,,合同会社,富山県,富山市,一番町４－２一番町ビル１Ｆ,,16,201,9300061,,,,,,,2024-05-22,1,,,,,クラス,0
2190,8240001063270,新規,0,2024-05-22,2024-05-22,株式会社ＧＲＡＣＥ,,株式会社,広島県,福山市,坪生町５丁目２０番２２号,,34,207,7210903,,,,,,,2024-05-22,1,,,,,グレイス,0
2194,8250001020659,新規,0,2024-05-22,2024-05-22,株式会社ＡＱＵＡ　ＲＥＭＥＤＹ,,株式会社,山口県,光市,中島田２丁目１６－８,,35,210,7430064,,,,,,,2024-05-22,1,,,,,アクアレメディ,0
2197,8260003004691,新規,0,2024-05-22,2024-05-22,合同会社トゥルース,,合同会社,岡山県,岡山市中区,浜２丁目５番１１－１０２号,,33,102,7038256,,,,,,,2024-05-22,1,,,,,トゥルース,0
2199,8280001009187,新規,0,2024-05-22,2024-05-22,株式会社福や,,株式会社,島根県,雲南市,三刀屋町三刀屋７１番地１,,32,209,6902404,,,,,,,2024-05-22,1,,,,,フクヤ,0
2204,8290001105803,新規,0,2024-05-22,2024-05-22,株式会社住翼,,株式会社,福岡県,八女市,津江７５４番地１,,40,210,8340024,,,,,,,2024-05-22,1,,,,,ジュウヨク,0
2205,8290001105811,新規,0,2024-05-22,2024-05-22,株式会社アルセソリューション,,株式会社,福岡県,糟屋郡粕屋町,若宮１丁目１１番１７号本多ハイツ３Ｆ,,40,349,8112314,,,,,,,2024-05-22,1,,,,,アルセソリューション,0
2206,8290001105844,新規,0,2024-05-22,2024-05-22,株式会社ＡＳＷ　Ｈｏｌｄｉｎｇｓ,,株式会社,福岡県,福岡市城南区,東油山１丁目３２番１号,,40,136,8140155,,,,,,,2024-05-22,1,,,,,,0
2207,8290001105910,新規,0,2024-05-22,2024-05-22,株式会社Ｓｉｎｇｌｅ　Ｆｉｎ,,株式会社,福岡県,福岡市博多区,中洲５丁目３番８号アクア博多５Ｆ,,40,132,8100801,,,,,,,2024-05-22,1,,,,,シングルフィン,0
2217,8310001019026,新規,0,2024-05-22,2024-05-22,ＬＯＨＡＳ株式会社,,株式会社,長崎県,対馬市,美津島町竹敷２３１番地９,,42,209,8170511,,,,,,,2024-05-22,1,,,,,ロハス,0
2223,8340001026523,新規,0,2024-05-22,2024-05-22,株式会社さかうえグリーンハウス,,株式会社,鹿児島県,志布志市,志布志町安楽２８７３番地４,,46,221,8997104,,,,,,,2024-05-22,1,,,,,サカウエグリーンハウス,0
2226,8350001018973,新規,0,2024-05-22,2024-05-22,株式会社セキュリティグラッド,,株式会社,宮崎県,宮崎市,祇園３丁目１７９番地,,45,201,8800024,,,,,,,2024-05-22,1,,,,,セキュリティグラッド,0
2232,8370001051329,新規,0,2024-05-22,2024-05-22,株式会社エーアイプランニング,,株式会社,宮城県,仙台市泉区,南光台６丁目３９番５２号,,04,105,9818003,,,,,,,2024-05-22,1,,,,,エーアイプランニング,0
2238,8380003005760,新規,0,2024-05-22,2024-05-22,Ｋａｒｕｍａ　Ｊａｐａｎ合同会社,,合同会社,福島県,双葉郡富岡町,大字小浜字大膳町９２番地６,,07,543,9791111,,,,,,,2024-05-22,1,,,,,カルマジャパン,0
2255,8490001010768,新規,0,2024-05-22,2024-05-22,株式会社高新,,株式会社,高知県,高知市,神田２１２８－１ハイツＫＵＲＡ　Ｂ棟２０２,,39,201,7808040,,,,,,,2024-05-22,1,,,,,コウシン,0
2258,8700150125477,新規,0,2024-05-22,2024-05-21,しぶちー,,その他,大阪府,大阪市中央区,島之内１丁目３－１１－４０２号,,27,128,5420082,,,,,,,2024-05-21,1,,,,,シブチー,0
2259,8700150125493,新規,0,2024-05-22,2024-05-22,ｑｉｎｇｄａｏｗｅｉｍａｎｈｕｗａｉｙｏｎｇｐｉｎｙｏｕｘｉａｎｇｏｎｇｓｉ,,外国会社等,,,,,,,,Ｘｉａｃｕｎ，Ｚｈａｎｇｊｉａｌｏｕ　Ｔｏｗｎ，Ｈｕａｎｇｄａｏ　Ｄｉｓｔｒｉｃｔ，Ｑｉｎｇｄａｏ　Ｃｉｔｙ，Ｓｈａｎｄｏｎｇ　Ｐｒｏｖｉｎｃｅ，Ｃｈｉｎａ,,,,,,2024-05-22,1,,,,,チンダオウェイマンコガイヨウヒンユウゲンコウシ,0
2260,8700150125502,新規,0,2024-05-22,2024-05-22,ｃｈａｎｇｃｈｕｎｔａｉｓｉｋａｎｇｓｈｅｎｇｗｕｊｉｓｈｕｙｏｕｘｉａｎｇｏｎｇｓｉ,,外国会社等,,,,,,,,ｂｅｉｈｕｋｅｊｉｋａｉｆａｑｕ　ｓｈｅｎｇｂｅｉｄａｊｉｅ３３３３ｈａｏ　ｃｈａｎｇｃｈｕｎｂｅｉｈｕｋｅｊｉｙｕａｎｃｈａｎｙｅ　ｅｒｑｉ　Ｇ１　ｌｏｕ　７３５、７３６、７３７ｓｈｉ　Ｃｈａｎｇｃｈｕｎ　ＣＮ,,,,,,2024-05-22,1,,,,,チャンソンタイシカンセイブツギジュツユウゲンコウシ,0
2266,9010001244999,新規,0,2024-05-22,2024-05-22,株式会社フレインイノベーション,,株式会社,東京都,中央区,京橋１丁目３－２,,13,102,1040031,,,,,,,2024-05-22,1,,,,,フレインイノベーション,0
2267,9010001245056,新規,0,2024-05-22,2024-05-22,株式会社ミッドフィールド・パートナーズ,,株式会社,東京都,千代田区,九段南１丁目５番６号りそな九段ビル５Ｆ－ＫＳフロア,,13,101,1020074,,,,,,,2024-05-22,1,,,,,ミッドフィールドパートナーズ,0
2268,9010001245080,新規,0,2024-05-22,2024-05-22,ネイビー２株式会社,,株式会社,東京都,千代田区,丸の内１丁目８番３号丸の内トラストタワー本館２６階,,13,101,1000005,,,,,,,2024-05-22,1,,,,,ネイビーツー,0
2271,9010003043805,新規,0,2024-05-22,2024-05-22,合同会社ひしょ,,合同会社,東京都,中央区,銀座１丁目２２番１１号銀座大竹ビジデンス２Ｆ,,13,102,1040061,,,,,,,2024-05-22,1,,,,,ヒショ,0
2278,9010401182584,新規,0,2024-05-22,2024-05-22,株式会社インフィニティプラス,,株式会社,東京都,港区,芝３丁目４３－１６,,13,103,1050014,,,,,,,2024-05-22,1,,,,,インフィニティプラス,0
2283,9010601065226,新規,0,2024-05-22,2024-05-22,株式会社エアーコール,,株式会社,東京都,江東区,豊洲３丁目６番８号,,13,108,1350061,,,,,,,2024-05-22,1,,,,,エアーコール,0
2284,9010601065259,新規,0,2024-05-22,2024-05-22,心和薬品株式会社,,株式会社,東京都,江東区,森下５丁目８－４フタバビル２階,,13,108,1350004,,,,,,,2024-05-22,1,,,,,シンワヤクヒン,0
2286,9010603010857,新規,0,2024-05-22,2024-05-22,江遠投資合同会社,,合同会社,東京都,墨田区,横川３丁目６番７号２－Ｍ室,,13,107,1300003,,,,,,,2024-05-22,1,,,,,コウエントウシ,0
2290,9010701046002,新規,0,2024-05-22,2024-05-22,株式会社クリィグラフ,,株式会社,東京都,品川区,戸越４丁目６番３号,,13,109,1420041,,,,,,,2024-05-22,1,,,,,クリィグラフ,0
2291,9010701046027,新規,0,2024-05-22,2024-05-22,株式会社金田,,株式会社,東京都,品川区,東大井５丁目１５番１４－９０２号,,13,109,1400011,,,,,,,2024-05-22,1,,,,,カネタ,0
2296,9010901055281,新規,0,2024-05-22,2024-05-22,株式会社ダブルス,,株式会社,東京都,世田谷区,梅丘３丁目１２番１８号リズ梅ヶ丘３０１,,13,112,1540022,,,,,,,2024-05-22,1,,,,,ダブルス,0
2305,9011001162076,新規,0,2024-05-22,2024-05-22,株式会社ＪｏｙＤｏｔ,,株式会社,東京都,渋谷区,上原２丁目３２番３号Ｙ－２Ｙａｍａｇａｔａビル２０１,,13,113,1510064,,,,,,,2024-05-22,1,,,,,ジョイドット,0
2306,9011001162217,新規,0,2024-05-22,2024-05-22,株式会社Ｂｌｕｅ　Ｍａｇｉｃｉａｎｓ,,株式会社,東京都,渋谷区,道玄坂１丁目１０番８号渋谷道玄坂東急ビル２Ｆ―Ｃ,,13,113,1500043,,,,,,,2024-05-22,1,,,,,ブルーマジシャンズ,0
2319,9011601027769,新規,0,2024-05-22,2024-05-22,秋空アキソラ株式会社,,株式会社,東京都,練馬区,関町北５丁目１３－２５－Ｃ号室,,13,120,1770051,,,,,,,2024-05-22,1,,,,,アキソラアキソラ,0
2320,9011601027777,新規,0,2024-05-22,2024-05-22,株式会社Ｂｅａｒ,,株式会社,東京都,練馬区,豊玉南２丁目１１番３号,,13,120,1760014,,,,,,,2024-05-22,1,,,,,ベアー,0
2325,9011703003833,新規,0,2024-05-22,2024-05-22,合同会社ＫＭＫエージェンシー,,合同会社,東京都,江戸川区,上篠崎２丁目２６番５号,,13,123,1330054,,,,,,,2024-05-22,1,,,,,ケーエムケーエージェンシー,0
2331,9012703002998,新規,0,2024-05-22,2024-05-22,合同会社リアル,,合同会社,東京都,小平市,花小金井２丁目３番２１－５０３号,,13,211,1870002,,,,,,,2024-05-22,1,,,,,リアル,0
2333,9013303007140,新規,0,2024-05-22,2024-05-22,合同会社ＳＤ,,合同会社,東京都,豊島区,池袋本町２丁目５－４グランドガーラ池袋７０２,,13,116,1700011,,,,,,,2024-05-22,1,,,,,エスディー,0
2342,9020001157333,新規,0,2024-05-22,2024-05-22,株式会社Ａｎｉ‐ｌｉｅｎｃｅ,,株式会社,神奈川県,横浜市中区,相生町３丁目６０番地泰生ビル３１１,,14,104,2310012,,,,,,,2024-05-22,1,,,,,アニリエンス,0
2347,9021001082265,新規,0,2024-05-22,2024-05-22,三崎未来電子株式会社,,株式会社,神奈川県,相模原市中央区,南橋本４丁目３番１５号,,14,152,2520253,,,,,,,2024-05-22,1,,,,,ミサキミライデンシ,0
2348,9021003014530,新規,0,2024-05-22,2024-05-22,ＳＨ　ＴＲＡＤＩＮＧ合同会社,,合同会社,神奈川県,相模原市緑区,根小屋１３１４番地１,,14,151,2520153,,,,,,,2024-05-22,1,,,,,エスエイチトレーディング,0
2349,9021003014539,新規,0,2024-05-22,2024-05-22,ダレト合同会社,,合同会社,神奈川県,鎌倉市,長谷５丁目１３－１１,,14,204,2480016,,,,,,,2024-05-22,1,,,,,ダレト,0
2360,9030001160427,新規,0,2024-05-22,2024-05-22,株式会社ＭＭ　ＴＲＡＤＩＮＧ,,株式会社,埼玉県,久喜市,菖蒲町三箇１０１０番地１サンライフ菖蒲Ａ棟２０５号室,,11,232,3460104,,,,,,,2024-05-22,1,,,,,エムエムトレーディング,0
2368,9040001133729,新規,0,2024-05-22,2024-05-22,株式会社ＡＭＡＲＡ,,株式会社,千葉県,市川市,市川４丁目７番６－２０２号,,12,203,2720034,,,,,,,2024-05-22,1,,,,,アマラ,0
2369,9040001133737,新規,0,2024-05-22,2024-05-22,株式会社ｗａｒｍｙ　ｄａｙｓ．,,株式会社,千葉県,船橋市,習志野台８丁目２５番７号－２０１,,12,204,2740063,,,,,,,2024-05-22,1,,,,,ウォーミーデイズ,0
2370,9040001133745,新規,0,2024-05-22,2024-05-22,株式会社ＨＯＰＥ,,株式会社,千葉県,船橋市,本中山２丁目２３番６号,,12,204,2730035,,,,,,,2024-05-22,1,,,,,ホープ,0
2373,9050001054809,新規,0,2024-05-22,2024-05-22,株式会社Ｇｒｏｕｎｄ　Ｒｉｖｅｒ,,株式会社,茨城県,つくばみらい市,富士見ヶ丘１丁目２１番地１１,,08,235,3002417,,,,,,,2024-05-22,1,,,,,グラウンドリバー,0
2374,9050003008382,新規,0,2024-05-22,2024-05-22,合同会社ＭＩＲＡ　ＩＮＴＥＲＮＡＴＩＯＮＡＬ,,合同会社,茨城県,結城郡八千代町,大字新地９１５番地５,,08,521,3003541,,,,,,,2024-05-22,1,,,,,ミラインターナショナル,0
2382,9060005010204,新規,0,2024-05-22,2024-05-22,一般社団法人栃木地域薬剤師会,,その他の設立登記法人,栃木県,栃木市,本町７番６号本町コーポＡ,,09,203,3280034,,,,,,,2024-05-22,1,,,,,トチギチイキヤクザイシカイ,0
2385,9070003005428,新規,0,2024-05-22,2024-05-22,ＳＯＡＲ　ＡＵＴＯＭＡＴＩＯＮ合同会社,,合同会社,群馬県,桐生市,境野町６丁目４６８番地１,,10,203,3760002,,,,,,,2024-05-22,1,,,,,ソアラオートメーション,0
2389,9080101024766,新規,0,2024-05-22,2024-05-22,Ｆｒｏｍ　ｔｈｅ　Ｍａｔｃｈａ株式会社,,株式会社,静岡県,富士市,津田２６０番地の１０,,22,210,4170034,,,,,,,2024-05-22,1,,,,,フロムザマッチャ,0
2390,9080401027196,新規,0,2024-05-22,2024-05-22,株式会社ＫＵＮＯＤＥＮ,,株式会社,静岡県,袋井市,川井１４１７番地の１１,,22,216,4370064,,,,,,,2024-05-22,1,,,,,クノデン,0
2391,9080403005019,新規,0,2024-05-22,2024-05-22,合同会社ＣＨＩＨＩＲＯ,,合同会社,静岡県,浜松市中央区,和合北４丁目３２番６６号,,22,138,4338127,,,,,,,2024-05-22,1,,,,,チヒロ,0
2392,9090001018727,新規,0,2024-05-22,2024-05-22,株式会社ＴＭＫ,,株式会社,山梨県,甲府市,里吉１丁目１１番５号,,19,201,4000822,,,,,,,2024-05-22,1,,,,,ティーエムケイ,0
2393,9090003002571,新規,0,2024-05-22,2024-05-22,Ｄｅｌｉｇｈｔ　Ｆｏｏｄｓ合同会社,,合同会社,山梨県,南都留郡富士河口湖町,船津３２６５番２号,,19,430,4010301,,,,,,,2024-05-22,1,,,,,ディライトフーズ,0
2394,9100003007560,新規,0,2024-05-22,2024-05-22,合同会社ツリアイ,,合同会社,長野県,長野市,青木島町大塚９４０番地３Ｂ,00134858,20,201,3812205,,,,,,,2024-05-22,1,,,,,ツリアイ,0
2407,9120001265134,新規,0,2024-05-22,2024-05-22,株式会社ＳＹＳ,,株式会社,大阪府,大阪市旭区,千林２丁目１０番３号,,27,117,5350012,,,,,,,2024-05-22,1,,,,,エスワイエス,0
2408,9120001265142,新規,0,2024-05-22,2024-05-22,星計画フィルムエンターテインメントグループ日本株式会社,,株式会社,大阪府,大阪市西区,本田３丁目１番１９号,,27,106,5500022,,,,,,,2024-05-22,1,,,,,ホシケイカクフィルムエンターテインメントグループニホン,0
2409,9120001265150,新規,0,2024-05-22,2024-05-22,株式会社ＬＩＶＩＮＧ　ＣＲＥＡＴＯＲ,,株式会社,大阪府,大阪市北区,梅田１丁目１１番４号大阪駅前第４ビル９階９２３－１７０２号,,27,127,5300001,,,,,,,2024-05-22,1,,,,,リビングクリエイター,0
2410,9120001265200,新規,0,2024-05-22,2024-05-22,株式会社えい,,株式会社,大阪府,門真市,中町８－４シャーメゾングレイス１０１,,27,223,5710055,,,,,,,2024-05-22,1,,,,,エイ,0
2411,9120001265209,新規,0,2024-05-22,2024-05-22,瑞耀株式会社,,株式会社,大阪府,大阪市西成区,萩之茶屋２丁目８－３ハイツニューコンパ３０２号,,27,122,5570004,,,,,,,2024-05-22,1,,,,,スイヨウ,0
2412,9120001265217,新規,0,2024-05-22,2024-05-22,Ｒｅｓｔ　Ａｓｓｅｔ　Ｏｓａｋａ株式会社,,株式会社,大阪府,大阪市港区,港晴３丁目１番１１－５０３Ｃ,,27,107,5520023,,,,,,,2024-05-22,1,,,,,レストアセットオオサカ,0
2418,9120101069641,新規,0,2024-05-22,2024-05-22,株式会社サーベイ,,株式会社,大阪府,堺市南区,大庭寺８９３－１,,27,145,5900153,,,,,,,2024-05-22,1,,,,,サーベイ,0
2426,9130005017101,新規,0,2024-05-22,2024-05-22,一般社団法人コネクトソサエティ京都,,その他の設立登記法人,京都府,京都市上京区,油小路通一条上る元百万遍町５３６番地の４,,26,102,6020953,,,,,,,2024-05-22,1,,,,,コネクトソサエティキョウト,0
2431,9140001134428,新規,0,2024-05-22,2024-05-22,東播設計株式会社,,株式会社,兵庫県,明石市,藤江８９０－７６,,28,203,6730044,,,,,,,2024-05-22,1,,,,,トウバンセッケイ,0
2432,9140001134527,新規,0,2024-05-22,2024-05-22,ｍｙｕｄｅｕｘ株式会社,,株式会社,兵庫県,神戸市中央区,元町通２丁目９番１号元町プラザビル,,28,110,6500022,,,,,,,2024-05-22,1,,,,,マイユード,0
2436,9160001025947,新規,0,2024-05-22,2024-05-22,株式会社縁建設,,株式会社,滋賀県,近江八幡市,鷹飼町５５５番地（５０１号）,,25,204,5230891,,,,,,,2024-05-22,1,,,,,エニシケンセツ,0
2440,9180001161526,新規,0,2024-05-22,2024-05-22,株式会社ＴＲＬＤ,,株式会社,愛知県,名古屋市昭和区,安田通４丁目７番３号エミービル１０１,,23,107,4660857,,,,,,,2024-05-22,1,,,,,ティーアールエルディー,0
2441,9180001161534,新規,0,2024-05-22,2024-05-22,株式会社ユーテラス,,株式会社,愛知県,名古屋市天白区,久方１丁目１８番地プチシャンボール２０２,,23,116,4680034,,,,,,,2024-05-22,1,,,,,ユーテラス,0
2442,9180001161542,新規,0,2024-05-22,2024-05-22,岩井通信株式会社,,株式会社,愛知県,名古屋市中村区,名駅３丁目１３番２８号名駅セブンスタービル１１１１号,,23,105,4500002,,,,,,,2024-05-22,1,,,,,イワイツウシン,0
2443,9180003026818,新規,0,2024-05-22,2024-05-22,合同会社ＷｅｂＳｕｐｐｏｒｔ誉,,合同会社,愛知県,名古屋市中村区,名駅３丁目４番１０号アルティメイト名駅１ｓｔ２階,,23,105,4500002,,,,,,,2024-05-22,1,,,,,ウェブサポートホマレ,0
2450,9200001042533,新規,0,2024-05-22,2024-05-22,株式会社ランバーランド,,株式会社,岐阜県,美濃加茂市,牧野８９９番地,,21,211,5050016,,,,,,,2024-05-22,1,,,,,ランバーランド,0
2452,9200003006346,新規,0,2024-05-22,2024-05-22,合同会社まごころ,,合同会社,岐阜県,美濃市,大矢田１７２０番地５,,21,207,5013771,,,,,,,2024-05-22,1,,,,,マゴコロ,0
2453,9200003006354,新規,0,2024-05-22,2024-05-22,合同会社社会福祉士事務所郡上八幡,,合同会社,岐阜県,郡上市,八幡町中坪１丁目１０番地１５,,21,219,5014211,,,,,,,2024-05-22,1,,,,,シャカイフクシシジムショグジョウハチマン,0
2459,9240001063261,新規,0,2024-05-22,2024-05-22,ラズレイト株式会社,,株式会社,広島県,福山市,西町１丁目１－１・１Ｆ・ｉｔｉＳＥＴＯＵＣＨＩ内コワーキングスペースｔｏｖｉｏ,,34,207,7200067,,,,,,,2024-05-22,1,,,,,ラズレイト,0
2465,9250003003504,新規,0,2024-05-22,2024-05-22,合同会社圭不動産,,合同会社,山口県,山口市,阿知須３１７５番地,,35,203,7541277,,,,,,,2024-05-22,1,,,,,ケイフドウサン,0
2466,9260001039094,新規,0,2024-05-22,2024-05-22,イー・スペック株式会社,,株式会社,岡山県,岡山市北区,本町６番３６号,,33,101,7000901,,,,,,,2024-05-22,1,,,,,イースペック,0
2476,9290001105843,新規,0,2024-05-22,2024-05-22,株式会社石庭忠虎,,株式会社,福岡県,久留米市,田主丸町地徳２６８１番地１,,40,203,8391214,,,,,,,2024-05-22,1,,,,,セキテイタダトラ,0
2477,9290001105851,新規,0,2024-05-22,2024-05-22,株式会社いぬまる商会,,株式会社,福岡県,飯塚市,飯塚１３番２３号,,40,205,8200041,,,,,,,2024-05-22,1,,,,,イヌマルショウカイ,0
2481,9290005019412,新規,0,2024-05-22,2024-05-22,一般社団法人移動通信端末診断士協会,,その他の設立登記法人,福岡県,福岡市城南区,樋井川６丁目９番２０－１０２号,,40,136,8140153,,,,,,,2024-05-22,1,,,,,イドウツウシンタンマツシンダンシキョウカイ,0
2484,9310001019025,新規,0,2024-05-22,2024-05-22,株式会社かざはな,,株式会社,長崎県,佐世保市,小佐々町西川内５８６番１,,42,202,8570412,,,,,,,2024-05-22,1,,,,,カザハナ,0
2492,9340001026522,新規,0,2024-05-22,2024-05-22,株式会社さかうえフーズ,,株式会社,鹿児島県,志布志市,志布志町安楽２８７３番地１０,,46,221,8997104,,,,,,,2024-05-22,1,,,,,サカウエフーズ,0
2497,9350001018964,新規,0,2024-05-22,2024-05-22,株式会社Ｓｔｙｌｉｓｈ　ｃｒｅａｔｉｏｎ,,株式会社,宮崎県,宮崎市,大字恒久６６３３番地１フリーデンＧ棟１,,45,201,8800916,,,,,,,2024-05-22,1,,,,,スタイリッシュクリエイション,0
2498,9350001018972,新規,0,2024-05-22,2024-05-22,株式会社フローレット,,株式会社,宮崎県,宮崎市,中西町２２８番地３,,45,201,8800853,,,,,,,2024-05-22,1,,,,,フローレット,0
2500,9380001034554,新規,0,2024-05-22,2024-05-22,アルファ・オメガ株式会社,,株式会社,福島県,郡山市,香久池２丁目２１番１６号,,07,203,9638833,,,,,,,2024-05-22,1,,,,,アルファオメガ,0
2505,9400001016665,新規,0,2024-05-22,2024-05-22,芳賀工建株式会社,,株式会社,岩手県,奥州市,胆沢小山字下中沢１０６番地,,03,215,0230402,,,,,,,2024-05-22,1,,,,,ハガコウケン,0
2512,9430003016363,新規,0,2024-05-22,2024-05-22,合同会社Ｋ．Ｓ　ＷＯＲＫＳ,,合同会社,北海道,札幌市西区,西野三条２丁目１番３８－５０１号,,01,107,0630033,,,,,,,2024-05-22,1,,,,,ケイエスワークス,0
2514,9460001005902,新規,0,2024-05-22,2024-05-22,株式会社わたなべ工務店,,株式会社,北海道,川上郡標茶町,麻生９丁目２１番地,,01,664,0882305,,,,,,,2024-05-22,1,,,,,ワタナベコウムテン,0
2517,9490001010775,新規,0,2024-05-22,2024-05-22,挑建株式会社,,株式会社,高知県,安芸市,井ノ口乙２５１９番地７,,39,203,7840052,,,,,,,2024-05-22,1,,,,,チョウケン,0
2519,9700150066737,新規,0,2024-05-22,2015-10-09,谷茶区自治会,,その他,沖縄県,国頭郡恩納村,字谷茶１１４１－１,,47,311,9040412,,,,,,,2015-10-09,1,,,,,タンチヤクジチカイ,0
2520,9700150125492,新規,0,2024-05-22,2024-05-22,ｓｈｅｎｚｈｅｎｓｈｉｘｉｎｙｕａｎｄｉａｎｚｉｋｅｊｉｙｏｕｘｉａｎｇｏｎｇｓｉ,,外国会社等,,,,,,,,Ｒｏｏｍ　８０１－８０３，Ｙｏｕｓｕｏｗｅｉ　Ｂｕｉｌｄｉｎｇ，Ｎｏ．２０００　Ｊｉａｘｉａｎ　Ｒｏａｄ，Ｇａｎｇｔｏｕ　Ｃｏｍｍｕｎｉｔｙ，Ｂａｎｔｉａｎ，ｌｏｎｇｇａｎｇ，Ｓｈｅｎｚｈｅｎ,,,,,,2024-05-22,1,,,,,シンセンシシンユアンデンジカギユウゲンコウシ,0
2521,9700150125501,新規,0,2024-05-22,2024-05-22,Ｓｈｅｎｚｈｅｎ　Ｈｅｎｇｈｕａｗｅｉ　Ｅｌｅｃｔｒｏｎｉｃ　Ｔｅｃｈｎｏｌｏｇｙ　Ｃｏ．，Ｌｔｄ,,外国会社等,,,,,,,,Ｂ４　Ｆｌｏｏｒ，ｗｏｒｋｓｈｏｐ　Ｂｕｉｌｄｉｎｇ　３，Ｆｉｒｓｔ　Ｉｎｄｕｓｔｒｉａｌ　Ｚｏｎｅ，Ｌｕｏｗｕｗｅｉ，Ｄａｌａｎｇ　Ｃｏｍｍｕｎｉｔｙ，Ｄａｌａｎｇ　Ｓｔｒｅｅｔ，Ｌｏｎｇｈｕａ　Ｄｉｓｔｒｉｃｔ，Ｓｈｅｎｚｈｅｎ　Ｃｉｔｙ,,,,,,2024-05-22,1,,,,,シンセンヘンホゥアウェイイレクトゥロニックテクノロジーカンパニーリミテッド,0
