sequenceNumber,corporateNumber,process,correct,updateDate,changeDate,name,nameImageId,kind,prefectureName,cityName,streetNumber,addressImageId,prefectureCode,cityCode,postCode,addressOutside,addressOutsideImageId,closeDate,closeCause,successorCorporateNumber,changeCause,assignmentDate,latest,enName,enPrefectureName,enCityName,enAddressOutside,furigana,hihyoji
10,1010001260888,新規,0,2025-12-10,2025-12-10,エクイティリサーチジャパン株式会社,,株式会社,東京都,文京区,小石川５丁目４－４六甲小石川ビル９階,,13,105,1120002,,,,,,,2025-12-10,1,,,,,エクイティリサーチジャパン,0
11,1010001261110,新規,0,2025-12-10,2025-12-10,株式会社ヤマダソーコー,,株式会社,東京都,大島町,波浮港１７番地,,13,361,1000212,,,,,,,2025-12-10,1,,,,,ヤマダソーコー,0
13,1010003049603,新規,0,2025-12-10,2025-12-10,合同会社ＡｏＣｏｎｃｅｐｔ,,合同会社,東京都,千代田区,神田猿楽町２丁目５－８葵ビル３０２,,13,101,1010064,,,,,,,2025-12-10,1,,,,,エーオーコンセプト,0
24,1010403036754,新規,0,2025-12-10,2025-12-10,合同会社ＯＫＢ,,合同会社,東京都,港区,六本木３丁目１６番１２号六本木ＫＳビル５Ｆ,,13,103,1060032,,,,,,,2025-12-10,1,,,,,オーケービー,0
25,1010403036779,新規,0,2025-12-10,2025-12-10,ＮＳＳＫ役職員ジェンパー４合同会社,,合同会社,東京都,港区,愛宕２丁目５番１号愛宕グリーンヒルズＭＯＲＩタワー,,13,103,1050002,,,,,,,2025-12-10,1,,,,,エヌエスエスケーヤクショクインジェンパーフォー,0
29,1010405025012,新規,0,2025-12-10,2025-12-10,ＬＰＡ行政書士法人,,その他の設立登記法人,東京都,港区,赤坂６丁目３番２０号ＨＡＴビル７階,,13,103,1070052,,,,,,,2025-12-10,1,,,,,エルピーエー,0
34,1010603011961,新規,0,2025-12-10,2025-12-10,合同会社碧,,合同会社,東京都,江東区,南砂５丁目８番１３－１９１０号,,13,108,1360076,,,,,,,2025-12-10,1,,,,,ミドリ,0
42,1010801036851,新規,0,2025-12-10,2025-12-10,株式会社ｉ　ｌａｎｄ,,株式会社,東京都,大田区,大森西６丁目１４番１３号タカラコーポ２０１号室,,13,111,1430015,,,,,,,2025-12-10,1,,,,,アイランド,0
49,1011001174252,新規,0,2025-12-10,2025-12-10,株式会社スマリンク,,株式会社,東京都,渋谷区,恵比寿西２丁目８番４号ＥＸ恵比寿西ビル５階,,13,113,1500021,,,,,,,2025-12-10,1,,,,,スマリンク,0
50,1011001174293,新規,0,2025-12-10,2025-12-10,ＡＲＲＯＷ　ＬＩＮＫ株式会社,,株式会社,東京都,渋谷区,千駄ヶ谷３丁目６３番２号,,13,113,1510051,,,,,,,2025-12-10,1,,,,,アローリンク,0
51,1011003023119,新規,0,2025-12-10,2025-12-10,合同会社ｍａｎａｂｅｅ,,合同会社,東京都,渋谷区,道玄坂１丁目１０番８号渋谷道玄坂東急ビル２Ｆ－Ｃ,,13,113,1500043,,,,,,,2025-12-10,1,,,,,マナビー,0
67,1012401043906,新規,0,2025-12-10,2025-12-10,株式会社リードアソシエ,,株式会社,東京都,多摩市,鶴牧１丁目１７番地,,13,224,2060034,,,,,,,2025-12-10,1,,,,,リードアソシエ,0
75,1013301055405,新規,0,2025-12-10,2025-12-10,株式会社リーブル,,株式会社,東京都,豊島区,池袋２丁目４２番３号オスカービル６階,,13,116,1710014,,,,,,,2025-12-10,1,,,,,リーブル,0
76,1013301055413,新規,0,2025-12-10,2025-12-10,株式会社マルシェプラス,,株式会社,東京都,豊島区,高田２丁目１７番２２号,,13,116,1710033,,,,,,,2025-12-10,1,,,,,マルシェプラス,0
81,1020001166250,新規,0,2025-12-10,2025-12-10,デンラッド株式会社,,株式会社,神奈川県,横浜市金沢区,能見台３丁目２４番地の１０,,14,108,2360057,,,,,,,2025-12-10,1,,,,,デンラッド,0
87,1021001086959,新規,0,2025-12-10,2025-12-10,Ｄ’ｓ　Ｆａｍｉｌｙ株式会社,,株式会社,神奈川県,小田原市,羽根尾５８２番地の５,,14,206,2560804,,,,,,,2025-12-10,1,,,,,ディーズファミリー,0
89,1021003016889,新規,0,2025-12-10,2025-12-10,安心工房合同会社,,合同会社,神奈川県,相模原市南区,若松５丁目１３－１７－２,,14,153,2520334,,,,,,,2025-12-10,1,,,,,アンシンコウボウ,0
103,1030001169995,新規,0,2025-12-10,2025-12-10,株式会社Ｓｉｎｃｅｒｉｔｙ　Ｃｏｎｓｕｌｔｉｎｇ,,株式会社,埼玉県,さいたま市南区,白幡３丁目８番５号,,11,108,3360022,,,,,,,2025-12-10,1,,,,,シンセリティコンサルティング,0
104,1030001170029,新規,0,2025-12-10,2025-12-10,株式会社Ｔ＆Ｋコンサルティング,,株式会社,埼玉県,久喜市,久喜東１丁目１６番３３号,,11,232,3460016,,,,,,,2025-12-10,1,,,,,ティーアンドケーコンサルティング,0
105,1030001170037,新規,0,2025-12-10,2025-12-10,株式会社ソラリス,,株式会社,埼玉県,草加市,瀬崎３丁目５番２２号,,11,221,3400022,,,,,,,2025-12-10,1,,,,,ソラリス,0
116,1040001141689,新規,0,2025-12-10,2025-12-10,株式会社ＪＯＴＯ,,株式会社,千葉県,市川市,南八幡４丁目４番７－２０２号,,12,203,2720023,,,,,,,2025-12-10,1,,,,,ジョウトウ,0
117,1040001141697,新規,0,2025-12-10,2025-12-10,ＤＥＥＰＬＡＸＭＩ株式会社,,株式会社,千葉県,佐倉市,鏑木町１１３３番１,,12,212,2850025,,,,,,,2025-12-10,1,,,,,ディープラクシュミ,0
123,1050003009792,新規,0,2025-12-10,2025-12-10,合同会社しゃむろっく,,合同会社,茨城県,結城市,大字結城１１４３６番地４みずほメゾンＣ１０１,,08,207,3070001,,,,,,,2025-12-10,1,,,,,シャムロック,0
131,1070001043627,新規,0,2025-12-10,2025-12-10,株式会社心斗真築炉,,株式会社,群馬県,みどり市,大間々町大間々４７７番地２４,,10,212,3760101,,,,,,,2025-12-10,1,,,,,ミトマチクロ,0
138,1080101025937,新規,0,2025-12-10,2025-12-10,株式会社イーオフィスＴＫ,,株式会社,静岡県,富士市,水戸島３５８番地の１０,,22,210,4160921,,,,,,,2025-12-10,1,,,,,イーオフィスティーケー,0
164,1120003031376,新規,0,2025-12-10,2025-12-10,合同会社ともあるき,,合同会社,大阪府,守口市,大枝東町１０番５号ラ・ハイール守口１階事務所,,27,209,5700036,,,,,,,2025-12-10,1,,,,,トモアルキ,0
169,1120101072933,新規,0,2025-12-10,2025-12-10,株式会社ＰＯＭ,,株式会社,大阪府,泉南郡熊取町,大宮４丁目１１２９番地１,,27,361,5900450,,,,,,,2025-12-10,1,,,,,ポム,0
170,1120101072941,新規,0,2025-12-10,2025-12-10,株式会社アースク,,株式会社,大阪府,河内長野市,長野町６番１３号,,27,216,5860014,,,,,,,2025-12-10,1,,,,,アースク,0
176,1120901051946,新規,0,2025-12-10,2025-12-10,アルファ軽貨物レンタリース株式会社,,株式会社,大阪府,池田市,伏尾町７２番地の９３,,27,204,5630011,,,,,,,2025-12-10,1,,,,,アルファケイカモツレンタリース,0
177,1120903005990,新規,0,2025-12-10,2025-12-10,合同会社大颯,,合同会社,大阪府,豊中市,庄内栄町３丁目２１番６号,,27,203,5610834,,,,,,,2025-12-10,1,,,,,ダイソウ,0
179,1122001039962,新規,0,2025-12-10,2025-12-10,株式会社ポイルン,,株式会社,大阪府,東大阪市,長堂１丁目２番１６号東大阪新光ビル３０９号室,,27,227,5770056,,,,,,,2025-12-10,1,,,,,ポイルン,0
192,1140001140953,新規,0,2025-12-10,2025-12-10,株式会社ＲＥＡＬＩＳ,,株式会社,兵庫県,伊丹市,中央２丁目１番１号伊丹中央ビル２階,,28,207,6640851,,,,,,,2025-12-10,1,,,,,リアルイズ,0
193,1140005027726,新規,0,2025-12-10,2025-12-10,一般社団法人オンラインスクールトモコラボ,,その他の設立登記法人,兵庫県,神戸市西区,桜が丘中町５丁目５番地１５,,28,111,6512226,,,,,,,2025-12-10,1,,,,,オンラインスクールトモコラボ,0
198,1180001169824,新規,0,2025-12-10,2025-12-10,株式会社ライフベース,,株式会社,愛知県,名古屋市名東区,神里２丁目８５番地の３,,23,115,4650082,,,,,,,2025-12-10,1,,,,,ライフベース,0
199,1180001169857,新規,0,2025-12-10,2025-12-10,株式会社ＤＭＬ,,株式会社,愛知県,名古屋市中村区,名駅４丁目２４番５号第２森ビル４０１,,23,105,4500002,,,,,,,2025-12-10,1,,,,,ディエムエル,0
200,1180001169881,新規,0,2025-12-10,2025-12-10,株式会社グレサポ,,株式会社,愛知県,名古屋市昭和区,陶生町２丁目２２番地の５Ｃｕｒａ２０２,,23,107,4660026,,,,,,,2025-12-10,1,,,,,グレサポ,0
209,1200001044504,新規,0,2025-12-10,2025-12-10,株式会社ニューロバイオリサーチ,,株式会社,岐阜県,岐阜市,柳戸１番地１ＯＫＢ岐阜大学プラザ,,21,201,5011112,,,,,,,2025-12-10,1,,,,,ニューロバイオリサーチ,0
210,1210003001980,新規,0,2025-12-10,2025-12-10,合同会社永翔,,合同会社,福井県,鯖江市,石田上町第３号３番地２０,,18,207,9160083,,,,,,,2025-12-10,1,,,,,エイショウ,0
212,1220001027069,新規,0,2025-12-10,2025-12-10,株式会社小豆屋甚兵衛,,株式会社,石川県,白山市,鶴来本町１丁目ワ４７番地,,17,210,9202121,,,,,,,2025-12-10,1,,,,,アズキヤジンベエ,0
215,1230003002548,新規,0,2025-12-10,2025-12-10,合同会社ｈａｐｐｒｉｓｅ,,合同会社,富山県,富山市,大泉５６８番地５,,16,201,9398058,,,,,,,2025-12-10,1,,,,,ハプリス,0
222,1240001065892,新規,0,2025-12-10,2025-12-10,株式会社ＫＡＳＵＧＡ,,株式会社,広島県,尾道市,西藤町９３６番地１,,34,205,7290142,,,,,,,2025-12-10,1,,,,,カスガ,0
238,1290001112376,新規,0,2025-12-10,2025-12-10,七福商事株式会社,,株式会社,福岡県,福岡市博多区,博多駅前３丁目１０番２号３階,,40,132,8120011,,,,,,,2025-12-10,1,,,,,ナナフクショウジ,0
239,1290001112450,新規,0,2025-12-10,2025-12-10,株式会社福田エネテック,,株式会社,福岡県,飯塚市,上三緒１番地２３,,40,205,8200013,,,,,,,2025-12-10,1,,,,,フクダエネテック,0
240,1290001112491,新規,0,2025-12-10,2025-12-10,株式会社リバービレッジ,,株式会社,福岡県,福岡市東区,香椎台１丁目５番１２号,,40,131,8130014,,,,,,,2025-12-10,1,,,,,リバービレッジ,0
246,1300005007281,新規,0,2025-12-10,2025-12-10,医療法人ふじわら歯科クリニック,,その他の設立登記法人,佐賀県,佐賀市,兵庫南２丁目１５－２７,,41,201,8490918,,,,,,,2025-12-10,1,,,,,フジワラシカクリニック,0
250,1330001033816,新規,0,2025-12-10,2025-12-10,株式会社Ｕｎｉｒｅａｃｈ,,株式会社,熊本県,菊池郡菊陽町,大字原水９６４番地１０,,43,404,8691102,,,,,,,2025-12-10,1,,,,,ユニリーチ,0
252,1340003005036,新規,0,2025-12-10,2025-12-10,合同会社象畜産会,,合同会社,鹿児島県,鹿児島郡十島村,大字宝島９２０番地,,46,304,8915301,,,,,,,2025-12-10,1,,,,,ゾウチクサンカイ,0
254,1350003005092,新規,0,2025-12-10,2025-12-10,ＴＫＤ合同会社,,合同会社,宮崎県,児湯郡高鍋町,大字北高鍋２３２番地１,,45,401,8840002,,,,,,,2025-12-10,1,,,,,ティーケイディー,0
255,1360001036114,新規,0,2025-12-10,2025-12-10,株式会社パルス,,株式会社,沖縄県,沖縄市,美原２丁目６番２５号,,47,211,9042155,,,,,,,2025-12-10,1,,,,,パルス,0
263,1380001035733,新規,0,2025-12-10,2025-12-10,伊藤マネジメントパートナーズ株式会社,,株式会社,福島県,喜多方市,塩川町字東栄町一丁目６番２２,,07,208,9693512,,,,,,,2025-12-10,1,,,,,イトウマネジメントパートナーズ,0
264,1380001035741,新規,0,2025-12-10,2025-12-10,株式会社ＤＡＩ・ＳＨＩＡ,,株式会社,福島県,二本松市,向原２６６番地１０,,07,210,9640916,,,,,,,2025-12-10,1,,,,,ダイシア,0
275,1430001095838,新規,0,2025-12-10,2025-12-10,リノテック株式会社,,株式会社,北海道,札幌市西区,西野八条５丁目８番５号,,01,107,0630038,,,,,,,2025-12-10,1,,,,,,0
276,1430001095846,新規,0,2025-12-10,2025-12-10,ラバン株式会社,,株式会社,北海道,札幌市中央区,北十条西１５丁目１番地４,,01,101,0600010,,,,,,,2025-12-10,1,,,,,ラバン,0
277,1450003002749,新規,0,2025-12-10,2025-12-10,ＦＡＬＡＫ　ＡＺＡＭ貿易合同会社,,合同会社,北海道,苫前郡羽幌町,南六条４丁目５番１,,01,484,0784106,,,,,,,2025-12-10,1,,,,,ファラクアザムボウエキ,0
281,1480001013035,新規,0,2025-12-10,2025-12-10,株式会社良來,,株式会社,徳島県,徳島市,新蔵町３丁目４２,,36,201,7700855,,,,,,,2025-12-10,1,,,,,ララ,0
284,1700150133305,新規,0,2025-12-10,2025-12-10,日本新薬健康保険組合,,その他,京都府,京都市南区,吉祥院西ノ庄門口町１４番地,,26,107,6018312,,,,,,,2025-12-10,1,,,,,ニッポンシンヤクケンコウホケンクミアイ,0
285,1700150133313,新規,0,2025-12-10,2025-12-10,グーグル健康保険組合,,その他,東京都,渋谷区,渋谷３丁目２１番３号,,13,113,1500002,,,,,,,2025-12-10,1,,,,,グーグルケンコウホケンクミアイ,0
297,2010001260895,新規,0,2025-12-10,2025-12-10,ＺＥＮＣＡＲＥ株式会社,,株式会社,東京都,中央区,日本橋本町２丁目３－１１日本橋ライフサイエンスビルディング５Ｆ,,13,102,1030023,,,,,,,2025-12-10,1,,,,,ゼンケア,0
298,2010001260929,新規,0,2025-12-10,2025-12-10,合一国際株式会社,,株式会社,東京都,中央区,日本橋浜町１丁目３番９－７０１号,,13,102,1030007,,,,,,,2025-12-10,1,,,,,ゴウイツコクサイ,0
302,2010005041045,新規,0,2025-12-10,2025-12-10,Ｙｕｋａｗａ　Ｉｎｖｅｓｔｍｅｎｔｓ特定目的会社,,その他の設立登記法人,東京都,中央区,銀座１丁目６番１１号土志田ビルディング３Ｆ,,13,102,1040061,,,,,,,2025-12-10,1,,,,,ユカワインベストメンツ,0
308,2010401195048,新規,0,2025-12-10,2025-12-10,株式会社和,,株式会社,東京都,港区,西新橋３丁目１８番２号セレニティコート虎ノ門９０１,,13,103,1050003,,,,,,,2025-12-10,1,,,,,ナゴミ,0
309,2010401195097,新規,0,2025-12-10,2025-12-10,株式会社ＡＩＭＬＩＮＫ,,株式会社,東京都,港区,北青山１丁目３番１号アールキューブ青山３階,,13,103,1070061,,,,,,,2025-12-10,1,,,,,エイムリンク,0
310,2010403036670,新規,0,2025-12-10,2025-12-10,合同会社ＭｉｅＫｏ,,合同会社,東京都,港区,南麻布５丁目４番１号オパス有栖川テラス５０７,,13,103,1060047,,,,,,,2025-12-10,1,,,,,ミエコ,0
311,2010403036778,新規,0,2025-12-10,2025-12-10,Ｌｕｃｉｄ　Ｓｋｙホールディングス合同会社,,合同会社,東京都,港区,六本木７丁目２１番２４号ザモジュール六本木３０９号室,,13,103,1060032,,,,,,,2025-12-10,1,,,,,ルシッドスカイホールディングス,0
313,2010405025052,新規,0,2025-12-10,2025-12-10,一般社団法人ＴＳＭ　ＳＨＤ９,,その他の設立登記法人,東京都,港区,元赤坂１丁目１番７号,,13,103,1070051,,,,,,,2025-12-10,1,,,,,ティーエスエムエスエイチディーキュウ,0
314,2010501055143,新規,0,2025-12-10,2025-12-10,株式会社エーアイエム,,株式会社,東京都,台東区,竜泉２丁目１２番１０－１２０３号日神パレステージ三ノ輪国際通り,,13,106,1100012,,,,,,,2025-12-10,1,,,,,エーアイエム,0
315,2010501055176,新規,0,2025-12-10,2025-12-10,株式会社エイチビー,,株式会社,東京都,台東区,千束４丁目４７番９号,,13,106,1110031,,,,,,,2025-12-10,1,,,,,エイチビー,0
319,2010601068409,新規,0,2025-12-10,2025-12-10,株式会社ＡｌｃｈＴｅｃｈ,,株式会社,東京都,江東区,扇橋２丁目１４番２号,,13,108,1350011,,,,,,,2025-12-10,1,,,,,アルクテック,0
320,2010603011936,新規,0,2025-12-10,2025-12-10,合同会社柊ツーリスト,,合同会社,東京都,江東区,冬木７番７－２０７号,,13,108,1350041,,,,,,,2025-12-10,1,,,,,ヒイラギツーリスト,0
324,2010801036859,新規,0,2025-12-10,2025-12-10,デイドリームズ株式会社,,株式会社,東京都,大田区,上池台１丁目２０番８号３０２,,13,111,1450064,,,,,,,2025-12-10,1,,,,,デイドリームズ,0
328,2010905004877,新規,0,2025-12-10,2025-12-10,特定非営利活動法人幸せプロジェクト,,その他の設立登記法人,東京都,世田谷区,野沢３丁目１１番１４号,,13,112,1540003,,,,,,,2025-12-10,1,,,,,シアワセプロジェクト,0
334,2011001174078,新規,0,2025-12-10,2025-12-10,鬼将株式会社,,株式会社,東京都,渋谷区,神宮前６丁目２３番４号桑野ビル２階,,13,113,1500001,,,,,,,2025-12-10,1,,,,,オニショウ,0
357,2011303005798,新規,0,2025-12-10,2025-12-10,合同会社ＪＣＢｅｌｌＴｒｅｅ,,合同会社,東京都,杉並区,成田東１丁目１９番４号Ｓｏｌａｉｒｅｄ１０３,,13,115,1660015,,,,,,,2025-12-10,1,,,,,ジェーシーベルツリー,0
358,2011503006794,新規,0,2025-12-10,2025-12-10,合同会社ＳＥ,,合同会社,東京都,荒川区,東日暮里６丁目２３番６号２Ｆ,,13,118,1160014,,,,,,,2025-12-10,1,,,,,エスイー,0
360,2011701028995,新規,0,2025-12-10,2025-12-10,株式会社恵幸空調,,株式会社,東京都,江戸川区,北小岩８丁目１３番３号,,13,123,1330051,,,,,,,2025-12-10,1,,,,,エイコウクウチョウ,0
361,2011701029011,新規,0,2025-12-10,2025-12-10,株式会社ミライ,,株式会社,東京都,江戸川区,松江４丁目３０番１３号,,13,123,1320025,,,,,,,2025-12-10,1,,,,,ミライ,0
362,2012301014634,新規,0,2025-12-10,2025-12-10,株式会社ＬＵＮＡＫＡ　ＪＡＰＡＮ　ＷＯＲＫＳ,,株式会社,東京都,町田市,広袴３丁目３０番地１５,,13,209,1950056,,,,,,,2025-12-10,1,,,,,ルナカジャパンワークス,0
363,2012303002257,新規,0,2025-12-10,2025-12-10,合同会社Ｄｉｇｉｔａｌ　Ｌａｂ,,合同会社,東京都,町田市,相原町３１９０番地,,13,209,1940211,,,,,,,2025-12-10,1,,,,,デジタルラボ,0
365,2012401043913,新規,0,2025-12-10,2025-12-10,株式会社ワイエムトラッド,,株式会社,東京都,府中市,日新町５丁目６７番地の５６,,13,206,1830036,,,,,,,2025-12-10,1,,,,,ワイエムトラッド,0
374,2013101009881,新規,0,2025-12-10,2025-12-10,株式会社ＲＡＩＳＥ　Ｈｏｌｄｉｎｇｓ,,株式会社,東京都,青梅市,新町３丁目４１番地の７,,13,205,1980024,,,,,,,2025-12-10,1,,,,,レイズホールディングス,0
384,2020003029958,新規,0,2025-12-10,2025-12-10,ＪＡＭ‐Ｅ合同会社,,合同会社,神奈川県,横浜市港北区,仲手原２丁目３番２２－４号,,14,109,2220023,,,,,,,2025-12-10,1,,,,,,0
387,2021001086958,新規,0,2025-12-10,2025-12-10,すまる株式会社,,株式会社,神奈川県,相模原市中央区,富士見５丁目２番１９号,,14,152,2520236,,,,,,,2025-12-10,1,,,,,スマル,0
408,2030003028208,新規,0,2025-12-10,2025-12-10,ＴＯＭＯＢＡＳＥ合同会社,,合同会社,埼玉県,春日部市,新方袋１番地５３,,11,214,3440056,,,,,,,2025-12-10,1,,,,,トモベース,0
414,2040001141688,新規,0,2025-12-10,2025-12-10,株式会社アットハーモニー,,株式会社,千葉県,鎌ケ谷市,南初富５丁目９番３３号,,12,224,2730123,,,,,,,2025-12-10,1,,,,,アットハーモニー,0
415,2040001141721,新規,0,2025-12-10,2025-12-10,株式会社善商,,株式会社,千葉県,習志野市,鷺沼台３丁目１４番２８号,,12,216,2750015,,,,,,,2025-12-10,1,,,,,ゼンショウ,0
419,2040003029106,新規,0,2025-12-10,2025-12-10,叶建築合同会社,,合同会社,千葉県,成田市,玉造４丁目２９番地１３,,12,211,2860011,,,,,,,2025-12-10,1,,,,,カナエケンチク,0
422,2050001057685,新規,0,2025-12-10,2025-12-10,株式会社ＨＡＲＥＲＵＹＡ,,株式会社,茨城県,水戸市,見川３丁目９３５番地の４レオパレスエクレール１０１号,,08,201,3100912,,,,,,,2025-12-10,1,,,,,ハレルヤ,0
423,2050001057693,新規,0,2025-12-10,2025-12-10,株式会社ＴＥＫＵＴＥＫＵ,,株式会社,茨城県,土浦市,下高津１丁目１９番３４号,,08,203,3000812,,,,,,,2025-12-10,1,,,,,テクテク,0
424,2050003009775,新規,0,2025-12-10,2025-12-10,合同会社Ｄａｙｓ,,合同会社,茨城県,水戸市,城南２丁目１５－３５第一常磐ハイツ１００号,,08,201,3100803,,,,,,,2025-12-10,1,,,,,デイズ,0
428,2060001038841,新規,0,2025-12-10,2025-12-10,株式会社大喜,,株式会社,栃木県,下野市,下古山２９５８番地４８,,09,216,3290502,,,,,,,2025-12-10,1,,,,,タイキ,0
430,2060003005880,新規,0,2025-12-10,2025-12-10,ＢＡＳＨＩＲ　ＴＲＡＤＩＮＧ合同会社,,合同会社,栃木県,栃木市,城内町２丁目４０番４１号ダイヤモンドマンション３０１,,09,203,3280033,,,,,,,2025-12-10,1,,,,,バシルトレーディング,0
433,2080001027322,新規,0,2025-12-10,2025-12-10,株式会社ヴェレス商事,,株式会社,静岡県,静岡市葵区,沓谷５丁目７－２,,22,101,4200816,,,,,,,2025-12-10,1,,,,,ヴェレスショウジ,0
435,2080101025952,新規,0,2025-12-10,2025-12-10,株式会社かたづけ日和,,株式会社,静岡県,田方郡函南町,肥田２１８－２,,22,325,4190125,,,,,,,2025-12-10,1,,,,,カタヅケビヨリ,0
436,2080103003485,新規,0,2025-12-10,2025-12-10,合同会社スターフーズ,,合同会社,静岡県,駿東郡清水町,久米田５９番地の１３,,22,341,4110911,,,,,,,2025-12-10,1,,,,,スターフーズ,0
440,2090003002941,新規,0,2025-12-10,2025-12-10,かわいいカヌーカンパニー合同会社,,合同会社,山梨県,南巨摩郡富士川町,鰍沢１７９４,,19,368,4000601,,,,,,,2025-12-10,1,,,,,カワイイカヌーカンパニー,0
460,2120001282441,新規,0,2025-12-10,2025-12-10,株式会社ＹＯＬ,,株式会社,大阪府,大阪市住之江区,南加賀屋２丁目２番２９－３０７号,,27,125,5590015,,,,,,,2025-12-10,1,,,,,ヨル,0
461,2120001282549,新規,0,2025-12-10,2025-12-10,株式会社ブイスリー,,株式会社,大阪府,大阪市都島区,都島本通３丁目２５番７－１０６号,,27,102,5340021,,,,,,,2025-12-10,1,,,,,ブイスリー,0
462,2120001282557,新規,0,2025-12-10,2025-12-10,ＳＰＥＦＲホールディングス株式会社,,株式会社,大阪府,大阪市旭区,森小路１丁目６－９－３Ｆ,,27,117,5350013,,,,,,,2025-12-10,1,,,,,スペファーホールディングス,0
463,2120001282648,新規,0,2025-12-10,2025-12-10,Ｎｅｘｔ　Ｈｅｒｉｔａｇｅ株式会社,,株式会社,大阪府,大阪市阿倍野区,松崎町２丁目１０番２０号,,27,119,5450053,,,,,,,2025-12-10,1,,,,,ネクストヘリテッジ,0
464,2120001282664,新規,0,2025-12-10,2025-12-10,株式会社Ｆａｍｉｌｙ‐Ｖｅｔ,,株式会社,大阪府,大阪市中央区,農人橋２丁目３番８号,,27,128,5400011,,,,,,,2025-12-10,1,,,,,ファミリーベット,0
469,2120003031417,新規,0,2025-12-10,2025-12-10,もなラボ合同会社,,合同会社,大阪府,大阪市中央区,東心斎橋１丁目９－１９－３０７,,27,128,5420083,,,,,,,2025-12-10,1,,,,,モナラボ,0
472,2120101072940,新規,0,2025-12-10,2025-12-10,株式会社ＦＯＳＳ,,株式会社,大阪府,和泉市,国分町１６５番地,,27,219,5941114,,,,,,,2025-12-10,1,,,,,フォス,0
474,2120103006888,新規,0,2025-12-10,2025-12-10,合同会社鈴花,,合同会社,大阪府,岸和田市,藤井町２丁目８番５号,,27,202,5960046,,,,,,,2025-12-10,1,,,,,リンカ,0
480,2120905006813,新規,0,2025-12-10,2025-12-10,特定非営利活動法人吹栄会,,その他の設立登記法人,大阪府,吹田市,岸部南３丁目５番１６号,,27,205,5640011,,,,,,,2025-12-10,1,,,,,スイエイカイ,0
483,2130001081198,新規,0,2025-12-10,2025-12-10,株式会社コトノバ,,株式会社,京都府,長岡京市,東神足１丁目１０番１号,,26,209,6170832,,,,,,,2025-12-10,1,,,,,コトノバ,0
485,2130003011005,新規,0,2025-12-10,2025-12-10,サンライズアセット合同会社,,合同会社,京都府,京都市中京区,西ノ京栂尾町１０３番地,,26,104,6048415,,,,,,,2025-12-10,1,,,,,サンライズアセット,0
491,2140001141042,新規,0,2025-12-10,2025-12-10,株式会社Ｇｌｏｗ　ｕｐ,,株式会社,兵庫県,尼崎市,若王寺３丁目１４－１７旭ハイツ１０４号,,28,202,6610974,,,,,,,2025-12-10,1,,,,,グローアップ,0
493,2140005027725,新規,0,2025-12-10,2025-12-10,特定非営利活動法人在宅ワーカーキャリア共創協会,,その他の設立登記法人,兵庫県,西宮市,鳴尾町３丁目１７番１０号,,28,204,6638184,,,,,,,2025-12-10,1,,,,,ザイタクワーカーキャリアキョウソウキョウカイ,0
495,2150001028593,新規,0,2025-12-10,2025-12-10,ファンファクトリー株式会社,,株式会社,奈良県,香芝市,磯壁３丁目９７番地２,,29,210,6390236,,,,,,,2025-12-10,1,,,,,ファンファクトリー,0
496,2150003003644,新規,0,2025-12-10,2025-12-10,合同会社ハピネスボディ,,合同会社,奈良県,奈良市,西大寺芝町１丁目１０－４５シャーメゾン１０５号室,,29,201,6310825,,,,,,,2025-12-10,1,,,,,ハピネスボディ,0
503,2180001169798,新規,0,2025-12-10,2025-12-10,株式会社ＯＫＪＲ,,株式会社,愛知県,名古屋市北区,楠味鋺４丁目２２４６番地,,23,103,4620014,,,,,,,2025-12-10,1,,,,,オーケージェーアール,0
504,2180001169807,新規,0,2025-12-10,2025-12-10,株式会社グレイスターエナジー,,株式会社,愛知県,名古屋市中区,丸の内３丁目２３番２０号,,23,106,4600002,,,,,,,2025-12-10,1,,,,,グレイスターエナジー,0
505,2180001169856,新規,0,2025-12-10,2025-12-10,株式会社大ちゃん,,株式会社,愛知県,名古屋市中区,丸の内２丁目２０番２５号メットライフ名古屋丸の内ビル８階,,23,106,4600002,,,,,,,2025-12-10,1,,,,,ダイチャン,0
512,2190001032749,新規,0,2025-12-10,2025-12-10,株式会社郷里,,株式会社,三重県,津市,久居野村町３２３番地１４,,24,201,5141113,,,,,,,2025-12-10,1,,,,,ゴウリ,0
525,2220001027068,新規,0,2025-12-10,2025-12-10,加端建設工業株式会社,,株式会社,石川県,加賀市,南郷町ワ１３番地,,17,206,9220821,,,,,,,2025-12-10,1,,,,,カバタケンセツコウギョウ,0
528,2230003002547,新規,0,2025-12-10,2025-12-10,合同会社泉灯,,合同会社,富山県,富山市,東富山寿町２丁目８番２５号,,16,201,9318452,,,,,,,2025-12-10,1,,,,,セントウ,0
531,2240001065909,新規,0,2025-12-10,2025-12-10,株式会社共伸,,株式会社,広島県,広島市安佐北区,落合南４丁目５１番１１号,,34,106,7391732,,,,,,,2025-12-10,1,,,,,キョウシン,0
535,2260001040802,新規,0,2025-12-10,2025-12-10,株式会社一,,株式会社,岡山県,倉敷市,連島町西之浦５０９６番地,,33,202,7128001,,,,,,,2025-12-10,1,,,,,イチ,0
536,2260001040810,新規,0,2025-12-10,2025-12-10,株式会社ＴＳＴＣ,,株式会社,岡山県,倉敷市,玉島柏島２７６番地１,,33,202,7138123,,,,,,,2025-12-10,1,,,,,ティーエスティーシー,0
540,2290001112417,新規,0,2025-12-10,2025-12-10,株式会社楽描屋,,株式会社,福岡県,福岡市中央区,高砂２丁目１番４号,,40,133,8100011,,,,,,,2025-12-10,1,,,,,ラクガキヤ,0
541,2290001112458,新規,0,2025-12-10,2025-12-10,株式会社ＫＳスポーツカード,,株式会社,福岡県,福岡市博多区,博多駅前３丁目９番５号チサンマンション第一博多３１１号,,40,132,8120011,,,,,,,2025-12-10,1,,,,,ケーエススポーツカード,0
545,2290003017812,新規,0,2025-12-10,2025-12-10,合同会社ＫＯＲＩＮ,,合同会社,福岡県,福岡市南区,若久２丁目８番１６号,,40,134,8150042,,,,,,,2025-12-10,1,,,,,コーリン,0
546,2290801032095,新規,0,2025-12-10,2025-12-10,株式会社アセットリンク・エム,,株式会社,福岡県,北九州市小倉南区,富士見１丁目３番９号２Ｆ,,40,107,8020801,,,,,,,2025-12-10,1,,,,,アセットリンクエム,0
551,2340003005019,新規,0,2025-12-10,2025-12-10,合同会社未来計画,,合同会社,鹿児島県,日置市,東市来町長里１１０－８,,46,216,8992202,,,,,,,2025-12-10,1,,,,,ミライケイカク,0
553,2360001036113,新規,0,2025-12-10,2025-12-10,ＳＡＫＡＥハウジング株式会社,,株式会社,沖縄県,浦添市,西原２丁目２７番１号,,47,208,9012101,,,,,,,2025-12-10,1,,,,,サカエハウジング,0
554,2360003015461,新規,0,2025-12-10,2025-12-10,合同会社ゆがふファーム,,合同会社,沖縄県,島尻郡八重瀬町,字友寄９９４番地１,,47,362,9010411,,,,,,,2025-12-10,1,,,,,ユガフファーム,0
561,2430001095812,新規,0,2025-12-10,2025-12-10,スフィアリンク株式会社,,株式会社,北海道,札幌市豊平区,豊平五条３丁目２番２７号,,01,105,0620905,,,,,,,2025-12-10,1,,,,,スフィアリンク,0
562,2430001095837,新規,0,2025-12-10,2025-12-10,株式会社岩山重機工業,,株式会社,北海道,札幌市北区,屯田七条１１丁目７番８号ＩＫコート７－１０１号,,01,102,0020857,,,,,,,2025-12-10,1,,,,,イワヤマジュウキコウギョウ,0
563,2430001095861,新規,0,2025-12-10,2025-12-10,株式会社ＢＯＣ,,株式会社,北海道,小樽市,色内１丁目１３番６号,,01,203,0470031,,,,,,,2025-12-10,1,,,,,ビーオーシー,0
566,2430003018408,新規,0,2025-12-10,2025-12-10,合同会社北住健,,合同会社,北海道,札幌市豊平区,福住一条９丁目３番３号,,01,105,0620041,,,,,,,2025-12-10,1,,,,,ホクジュウケン,0
577,2700150133304,新規,0,2025-12-10,2025-12-10,広島市八幡東土地区画整理組合,,その他,広島県,広島市佐伯区,楽々園４丁目１３－２４－２０１号,,34,108,7315136,,,,,,,2025-12-10,1,,,,,ヒロシマシヤハタヒガシトチクカクセイリクミアイ,0
578,2700150133312,新規,0,2025-12-10,2025-12-10,ノダ健康保険組合,,その他,静岡県,静岡市清水区,駒越北町１３番１号,,22,103,4240906,,,,,,,2025-12-10,1,,,,,ノダケンコウホケンクミアイ,0
581,3010001260894,新規,0,2025-12-10,2025-12-10,ＮＥＸＡＳグループ株式会社,,株式会社,東京都,千代田区,飯田橋２丁目９番３号サンネット飯田橋第２ビル４階,,13,101,1020072,,,,,,,2025-12-10,1,,,,,ネクサスグループ,0
582,3010001261050,新規,0,2025-12-10,2025-12-10,株式会社ソラディア,,株式会社,東京都,千代田区,神田須田町１丁目２４－５ＴＨＥＣＲＯＳＳ神田５階,,13,101,1010041,,,,,,,2025-12-10,1,,,,,ソラディア,0
584,3010005041052,新規,0,2025-12-10,2025-12-10,一般社団法人ＮＣリトス,,その他の設立登記法人,東京都,千代田区,霞が関３丁目２番５号,,13,101,1000013,,,,,,,2025-12-10,1,,,,,エヌシーリトス,0
593,3010401195047,新規,0,2025-12-10,2025-12-10,株式会社ＮＥＸＴＵＲＥ,,株式会社,東京都,港区,浜松町２丁目２－１５浜松町ダイヤビル２Ｆ,,13,103,1050013,,,,,,,2025-12-10,1,,,,,ネクチャー,0
594,3010401195063,新規,0,2025-12-10,2025-12-10,博衆株式会社,,株式会社,東京都,港区,三田１丁目４－２８三田国際ビル２０８,,13,103,1080073,,,,,,,2025-12-10,1,,,,,,0
595,3010401195071,新規,0,2025-12-10,2025-12-10,株式会社別世界,,株式会社,東京都,港区,浜松町２丁目２番１５号浜松町ダイヤビル２Ｆ,,13,103,1050013,,,,,,,2025-12-10,1,,,,,ベッセカイ,0
596,3010401195096,新規,0,2025-12-10,2025-12-10,株式会社ＨＡＬＡＬ　ＲＡＭＥＮ　ＪＡＰＡＮ,,株式会社,東京都,港区,六本木７丁目１８番１８号住友不動産六本木通ビル２Ｆ,,13,103,1060032,,,,,,,2025-12-10,1,,,,,ハラルラーメンジャパン,0
597,3010405025051,新規,0,2025-12-10,2025-12-10,一般社団法人ＴＳＭ　ＳＨＤ８,,その他の設立登記法人,東京都,港区,元赤坂１丁目１番７号,,13,103,1070051,,,,,,,2025-12-10,1,,,,,ティーエスエムエスエイチディーハチ,0
599,3010501055159,新規,0,2025-12-10,2025-12-10,株式会社錬士,,株式会社,東京都,台東区,根岸３丁目１番１１号アルス鶯谷６０７,,13,106,1100003,,,,,,,2025-12-10,1,,,,,レンシ,0
605,3010601068416,新規,0,2025-12-10,2025-12-10,株式会社ソウハチ,,株式会社,東京都,江東区,東雲１丁目９番１７－２０１,,13,108,1350062,,,,,,,2025-12-10,1,,,,,ソウハチ,0
625,3011003023083,新規,0,2025-12-10,2025-12-10,ＷＡＤＯ　ＷＯＲＫＳ合同会社,,合同会社,東京都,渋谷区,道玄坂１丁目１０番８号渋谷道玄坂東急ビル２Ｆ－Ｃ,,13,113,1500043,,,,,,,2025-12-10,1,,,,,ワドワークス,0
626,3011003023141,新規,0,2025-12-10,2025-12-10,ＬａＢｅｅｒ合同会社,,合同会社,東京都,渋谷区,恵比寿西２丁目１９－９,,13,113,1500021,,,,,,,2025-12-10,1,,,,,ラビール,0
635,3011303005789,新規,0,2025-12-10,2025-12-10,合同会社Ｍ‐Ｓｎｏｗ,,合同会社,東京都,杉並区,下高井戸５丁目９番３２号,,13,115,1680073,,,,,,,2025-12-10,1,,,,,エムスノー,0
636,3011303005797,新規,0,2025-12-10,2025-12-10,ギャリソン合同会社,,合同会社,東京都,杉並区,高円寺北３丁目１７番２号,,13,115,1660002,,,,,,,2025-12-10,1,,,,,ギャリソン,0
637,3011401027628,新規,0,2025-12-10,2025-12-10,利研ホールディングス株式会社,,株式会社,東京都,板橋区,高島平１丁目７１番６号,,13,119,1750082,,,,,,,2025-12-10,1,,,,,リケンホールディングス,0
648,3011705001923,新規,0,2025-12-10,2025-12-10,一般社団法人日本世界平信徒福音宣教会,,その他の設立登記法人,東京都,江戸川区,北小岩７丁目２７番９号,,13,123,1330051,,,,,,,2025-12-10,1,,,,,ニホンセカイヘイシントフクインセンキョウカイ,0
649,3011803007228,新規,0,2025-12-10,2025-12-10,合同会社セブンリール,,合同会社,東京都,葛飾区,新小岩１丁目２２番１０号トーアファンシービル５０１,,13,122,1240024,,,,,,,2025-12-10,1,,,,,セブンリール,0
655,3012403007502,新規,0,2025-12-10,2025-12-10,アイフラット合同会社,,合同会社,東京都,府中市,日新町５丁目５番地の１１,,13,206,1830036,,,,,,,2025-12-10,1,,,,,アイフラット,0
660,3013301055403,新規,0,2025-12-10,2025-12-10,株式会社西岡設備,,株式会社,東京都,豊島区,東池袋２丁目２１番３号東池袋ダイヤマンション９０１号室,,13,116,1700013,,,,,,,2025-12-10,1,,,,,ニシオカセツビ,0
664,3020003029924,新規,0,2025-12-10,2025-12-10,合同会社ＩＮＦＩＮＩＴＹ,,合同会社,神奈川県,川崎市川崎区,東田町三丁目１０番地魚庄ビル２階,,14,131,2100005,,,,,,,2025-12-10,1,,,,,インフィニティ,0
665,3020003029932,新規,0,2025-12-10,2025-12-10,合同会社Ｌｙｎｘ,,合同会社,神奈川県,横浜市港北区,大豆戸町６６４番地２新横浜ハイツ４１３号,,14,109,2220032,,,,,,,2025-12-10,1,,,,,リンクス,0
666,3020003029940,新規,0,2025-12-10,2025-12-10,合同会社シミズ工業,,合同会社,神奈川県,横浜市鶴見区,鶴見中央４丁目４３番１０－９０９号,,14,101,2300051,,,,,,,2025-12-10,1,,,,,シミズコウギョウ,0
670,3021001086957,新規,0,2025-12-10,2025-12-10,株式会社ＫＩ総業,,株式会社,神奈川県,秦野市,渋沢１８８２番地スターヒルズ１０２号,,14,211,2591322,,,,,,,2025-12-10,1,,,,,ケーアイソウギョウ,0
671,3021001087006,新規,0,2025-12-10,2025-12-10,株式会社ファーストステップ,,株式会社,神奈川県,大和市,柳橋５丁目７番地２５,,14,213,2420022,,,,,,,2025-12-10,1,,,,,ファーストステップ,0
679,3030001170010,新規,0,2025-12-10,2025-12-10,株式会社來星グリーン,,株式会社,埼玉県,入間郡三芳町,大字藤久保８５５番地２２６,,11,324,3540041,,,,,,,2025-12-10,1,,,,,ライセイグリーン,0
680,3030001170035,新規,0,2025-12-10,2025-12-10,株式会社ＴＲＵＳＴＩＡ　ＨＬＤ．,,株式会社,埼玉県,春日部市,中央１丁目２番２号,,11,214,3440067,,,,,,,2025-12-10,1,,,,,トラスティアホールディングス,0
686,3030003028181,新規,0,2025-12-10,2025-12-10,合同会社イルカ,,合同会社,埼玉県,川越市,氷川町３２番地２ダイアパレス川越第２－７０５号室,,11,201,3500851,,,,,,,2025-12-10,1,,,,,イルカ,0
687,3030003028223,新規,0,2025-12-10,2025-12-10,合同会社ナカザワ,,合同会社,埼玉県,入間市,高倉３丁目６番７号,,11,225,3580021,,,,,,,2025-12-10,1,,,,,ナカザワ,0
688,3030003028256,新規,0,2025-12-10,2025-12-10,合同会社スターアナリティクス,,合同会社,埼玉県,三郷市,中央５丁目１番地４ラヴィエール３０６,,11,237,3410038,,,,,,,2025-12-10,1,,,,,スターアナリティクス,0
700,3050001057684,新規,0,2025-12-10,2025-12-10,ヤスサービス株式会社,,株式会社,茨城県,水戸市,河和田町９５番地の１５,,08,201,3114153,,,,,,,2025-12-10,1,,,,,ヤスサービス,0
701,3050005013733,新規,0,2025-12-10,2025-12-10,一般社団法人ｅｎｎｅ,,その他の設立登記法人,茨城県,石岡市,上曽９７０番地,,08,205,3150157,,,,,,,2025-12-10,1,,,,,,0
708,3070001043641,新規,0,2025-12-10,2025-12-10,株式会社えいきと,,株式会社,群馬県,高崎市,貝沢町５４番地１,,10,202,3700042,,,,,,,2025-12-10,1,,,,,,0
710,3080001027305,新規,0,2025-12-10,2025-12-10,株式会社エコテック,,株式会社,静岡県,静岡市駿河区,馬渕４丁目５番９号４０５号,,22,102,4228063,,,,,,,2025-12-10,1,,,,,エコテック,0
714,3080403005404,新規,0,2025-12-10,2025-12-10,ＭＯＷＥ合同会社,,合同会社,静岡県,浜松市天竜区,二俣町南鹿島２３番地の２,,22,140,4313312,,,,,,,2025-12-10,1,,,,,メーヴェ,0
730,3120001282622,新規,0,2025-12-10,2025-12-10,Ｍａｃａｎ株式会社,,株式会社,大阪府,大阪市北区,梅田１丁目２番２号大阪駅前第２ビル１２－１２,,27,127,5300001,,,,,,,2025-12-10,1,,,,,マカン,0
731,3120001282647,新規,0,2025-12-10,2025-12-10,株式会社ＮＥＸＴ　ＣＲＥＡＴＯＲ,,株式会社,大阪府,大阪市浪速区,難波中３丁目６番３号リアライズ難波中ビル８０２,,27,111,5560011,,,,,,,2025-12-10,1,,,,,ネクストクリエイター,0
733,3120003031416,新規,0,2025-12-10,2025-12-10,合同会社Ｐｒｅｓｅｎｃｅ,,合同会社,大阪府,大阪市住吉区,山之内２丁目８－３１エルロード３０６,,27,120,5580023,,,,,,,2025-12-10,1,,,,,プレゼンス,0
734,3120003031440,新規,0,2025-12-10,2025-12-10,大阪和味拉面工房合同会社,,合同会社,大阪府,大阪市生野区,桃谷５丁目１番１６号,,27,116,5440034,,,,,,,2025-12-10,1,,,,,オオサカワミラーメンコウボウ,0
740,3120901051944,新規,0,2025-12-10,2025-12-10,株式会社芦池,,株式会社,大阪府,吹田市,佐竹台６丁目７番１０号,,27,205,5650855,,,,,,,2025-12-10,1,,,,,アシイケ,0
750,3130001081164,新規,0,2025-12-10,2025-12-10,Ｒｅａ　Ｆｉｔ株式会社,,株式会社,京都府,京都市中京区,河原町通二条下る２丁目下丸屋町４０３番地,,26,104,6048006,,,,,,,2025-12-10,1,,,,,リアフィット,0
751,3130001081189,新規,0,2025-12-10,2025-12-10,Ｂｅｇｏｏｄ　Ｓｔｕｄｉｏｓ　Ｊａｐａｎ株式会社,,株式会社,京都府,京都市上京区,寺之内通千本西入柏清盛町９４８番地,,26,102,6028311,,,,,,,2025-12-10,1,,,,,ビーグッドステューディオズジャパン,0
757,3140001141025,新規,0,2025-12-10,2025-12-10,ＹＫ　Ｗｏｒｋｓ株式会社,,株式会社,兵庫県,尼崎市,西難波町４丁目４番２１号,,28,202,6600893,,,,,,,2025-12-10,1,,,,,ワイケーワークス,0
763,3170001018906,新規,0,2025-12-10,2025-12-10,サステナビクル株式会社,,株式会社,和歌山県,和歌山市,吐前８３５番地１,,30,201,6496275,,,,,,,2025-12-10,1,,,,,サステナビクル,0
767,3180001169756,新規,0,2025-12-10,2025-12-10,株式会社ニシオカ,,株式会社,愛知県,江南市,古知野町牧森１８７番地,,23,217,4838278,,,,,,,2025-12-10,1,,,,,ニシオカ,0
768,3180001169806,新規,0,2025-12-10,2025-12-10,株式会社阿野花き市場地権者の会,,株式会社,愛知県,豊明市,阿野町林ノ内４５番地,,23,229,4701141,,,,,,,2025-12-10,1,,,,,アノカキシジョウチケンシャノカイ,0
769,3180001169830,新規,0,2025-12-10,2025-12-10,株式会社マルエムホールディングス,,株式会社,愛知県,一宮市,栄４丁目７番１９号,,23,203,4910858,,,,,,,2025-12-10,1,,,,,マルエムホールディングス,0
773,3180005021335,新規,0,2025-12-10,2025-12-10,特定非営利活動法人ｍｏｒｉ,,その他の設立登記法人,愛知県,名古屋市名東区,亀の井１丁目２０８番地の１,,23,115,4650094,,,,,,,2025-12-10,1,,,,,モリ,0
775,3190001032748,新規,0,2025-12-10,2025-12-10,株式会社麺スタイル,,株式会社,三重県,四日市市,芝田１丁目５番８号シバタコーポラス３０６,,24,202,5100822,,,,,,,2025-12-10,1,,,,,メンスタイル,0
777,3200001044510,新規,0,2025-12-10,2025-12-10,株式会社ツバメファーマシー,,株式会社,岐阜県,大垣市,築捨町５丁目６９番地１,,21,202,5030854,,,,,,,2025-12-10,1,,,,,ツバメファーマシー,0
785,3220003004188,新規,0,2025-12-10,2025-12-10,フジエグループ合同会社,,合同会社,石川県,羽咋郡志賀町,大島イの１番地,,17,384,9250147,,,,,,,2025-12-10,1,,,,,フジエグループ,0
786,3230003002546,新規,0,2025-12-10,2025-12-10,東城ソーラーファクトリー合同会社,,合同会社,富山県,富山市,牛島町１５番１号,,16,201,9300858,,,,,,,2025-12-10,1,,,,,トウジョウソーラーファクトリー,0
794,3240001065809,新規,0,2025-12-10,2025-12-10,株式会社でじかな,,株式会社,広島県,福山市,神辺町字下御領１２８８番地,,34,207,7202117,,,,,,,2025-12-10,1,,,,,デジカナ,0
795,3240001065890,新規,0,2025-12-10,2025-12-10,ロジテックサポート株式会社,,株式会社,広島県,広島市西区,南観音３丁目９番１８号,,34,104,7330035,,,,,,,2025-12-10,1,,,,,ロジテックサポート,0
804,3260005011559,新規,0,2025-12-10,2025-12-10,弁護士法人うえにし・すが法律事務所,,その他の設立登記法人,岡山県,岡山市北区,富田町２丁目１３番１２号コートサイドビル２階,,33,101,7000816,,,,,,,2025-12-10,1,,,,,ウエニシスガホウリツジムショ,0
805,3270005005667,新規,0,2025-12-10,2025-12-10,一般社団法人日本ＳＥＬ学会,,その他の設立登記法人,鳥取県,鳥取市,湖山町南４丁目１０１鳥取大学教員養成センター石本雄真研究室,,31,201,6800945,,,,,,,2025-12-10,1,,,,,ニホンエスイーエルガッカイ,0
814,3290001112416,新規,0,2025-12-10,2025-12-10,ｓｏｌｏｓ株式会社,,株式会社,福岡県,福岡市博多区,博多駅前１丁目２３番２号ＰａｒｋＦｒｏｎｔ博多駅前１丁目５Ｆ－Ｂ,,40,132,8120011,,,,,,,2025-12-10,1,,,,,ソロス,0
815,3290001112440,新規,0,2025-12-10,2025-12-10,アンドフルーツ株式会社,,株式会社,福岡県,嘉麻市,山野２３５９番地１,,40,227,8200202,,,,,,,2025-12-10,1,,,,,アンドフルーツ,0
816,3290001112457,新規,0,2025-12-10,2025-12-10,株式会社ｔｏ　ｗｉｎｋ,,株式会社,福岡県,福岡市中央区,大名１丁目１－９アトラスビル５０８,,40,133,8100041,,,,,,,2025-12-10,1,,,,,トゥーウィンク,0
817,3290001112465,新規,0,2025-12-10,2025-12-10,株式会社ＹＡ,,株式会社,福岡県,福岡市博多区,竹下１丁目２１番１８号,,40,132,8120895,,,,,,,2025-12-10,1,,,,,ワイエー,0
823,3290003017613,新規,0,2025-12-10,2025-12-10,合同会社Ｓｈｉｎｘ,,合同会社,福岡県,久留米市,西町１３６１番地１アメックス久留米六ツ門１１０１,,40,203,8300038,,,,,,,2025-12-10,1,,,,,シン,0
826,3320003004847,新規,0,2025-12-10,2025-12-10,合同会社ｗｉｚ,,合同会社,大分県,大分市,小野鶴南２丁目６番６号,,44,201,8701150,,,,,,,2025-12-10,1,,,,,ウィズ,0
829,3330001033814,新規,0,2025-12-10,2025-12-10,ＤｅｅｐＬｏｃａｌ株式会社,,株式会社,熊本県,熊本市北区,打越町３２番１０号,,43,105,8600086,,,,,,,2025-12-10,1,,,,,ディープローカル,0
837,3360001036112,新規,0,2025-12-10,2025-12-10,株式会社ゴヤキカク,,株式会社,沖縄県,中頭郡読谷村,字伊良皆３６０番地１９名嘉真アパート２Ｆ,,47,324,9040303,,,,,,,2025-12-10,1,,,,,ゴヤキカク,0
838,3360003015460,新規,0,2025-12-10,2025-12-10,合同会社ＦＵＪＩ,,合同会社,沖縄県,宮古島市,城辺字新城７８３番地１,,47,214,9060102,,,,,,,2025-12-10,1,,,,,フジ,0
839,3370005011036,新規,0,2025-12-10,2025-12-10,一般社団法人音楽のおもちゃ箱,,その他の設立登記法人,宮城県,仙台市青葉区,貝ケ森６丁目２７番１１号,,04,101,9810942,,,,,,,2025-12-10,1,,,,,オンガクノオモチャバコ,0
847,3390005009144,新規,0,2025-12-10,2025-12-10,農事組合法人やくしの郷,,その他の設立登記法人,山形県,東置賜郡川西町,大字西大塚４０５６,,06,382,9920601,,,,,,,2025-12-10,1,,,,,ヤクシノサト,0
853,3430001095811,新規,0,2025-12-10,2025-12-10,株式会社高木組,00141819,株式会社,北海道,江別市,ゆめみ野東町１６番地の８,,01,217,0670065,,,,,,,2025-12-10,1,,,,,タカギグミ,0
854,3430001095828,新規,0,2025-12-10,2025-12-10,Ｓｔａｒ産業株式会社,,株式会社,北海道,登別市,柏木町２丁目１２番地１,,01,230,0590017,,,,,,,2025-12-10,1,,,,,スターサンギョウ,0
855,3430001095844,新規,0,2025-12-10,2025-12-10,株式会社ＳＯＨＴＥＮ,,株式会社,北海道,札幌市東区,北十九条東８丁目４番３－１０３号,,01,103,0650019,,,,,,,2025-12-10,1,,,,,ソウテン,0
865,3700150133303,新規,0,2025-12-10,2025-12-10,ＣＬＡＳＳＩＣ　ＭＯＴＯＲ　ＴＲＡＤＩＮＧ,,外国会社等,千葉県,八街市,文違３０１番地３１３５,,12,230,2891104,スリランカ民主社会主義共和国、北西州、プッタラム地区、チラウ、バザールストリート、Ｎｏ．１、プッタラムロード,,,,,,2025-12-10,1,,,,,クラシツクモータートレーデイング,0
866,3700150133311,新規,0,2025-12-10,2025-12-10,ＪＡＳＴ健康保険組合,,その他,大阪府,大阪市北区,中之島２丁目３番１８号,,27,127,5300005,,,,,,,2025-12-10,1,,,,,ジャストケンコウホケンクミアイ,0
876,4010005041051,新規,0,2025-12-10,2025-12-10,一般社団法人ペタビット,,その他の設立登記法人,東京都,中央区,京橋２丁目１２番６号ＡＯＪ税理士法人内,,13,102,1040031,,,,,,,2025-12-10,1,,,,,ペタビット,0
882,4010401195038,新規,0,2025-12-10,2025-12-10,ＧＴＳ株式会社,,株式会社,東京都,港区,虎ノ門４丁目１－１神谷町トラストタワー２３階,,13,103,1050001,,,,,,,2025-12-10,1,,,,,,0
883,4010401195046,新規,0,2025-12-10,2025-12-10,ドゥマン株式会社,,株式会社,東京都,港区,赤坂８丁目３番３－２０３号,,13,103,1070052,,,,,,,2025-12-10,1,,,,,ドゥマン,0
884,4010405025109,新規,0,2025-12-10,2025-12-10,ジー・エイ・ワン・レジデンス・サーティーン一般社団法人,,その他の設立登記法人,東京都,港区,虎ノ門５丁目１番４号,,13,103,1050001,,,,,,,2025-12-10,1,,,,,ジーエイワンレジデンスサーティーン,0
893,4010601068415,新規,0,2025-12-10,2025-12-10,株式会社ＮＥＶＥＲＬＡＮＤ,,株式会社,東京都,江東区,豊洲２丁目５番１－５０１２号,,13,108,1350061,,,,,,,2025-12-10,1,,,,,ネバーランド,0
895,4010605004531,新規,0,2025-12-10,2025-12-10,一般社団法人ノーツコンソーシアム,,その他の設立登記法人,東京都,江東区,平野１丁目６番６号,,13,108,1350023,,,,,,,2025-12-10,1,,,,,ノーツコンソーシアム,0
897,4010801036865,新規,0,2025-12-10,2025-12-10,株式会社にほ,,株式会社,東京都,大田区,南千束１丁目２番２５号ＶＡＮＳＡＮＣ３０２,,13,111,1450063,,,,,,,2025-12-10,1,,,,,ニホ,0
898,4010803005637,新規,0,2025-12-10,2025-12-10,合同会社ｍｉｚｕｈｉｋｉ　ｗｉｎｇｓ＆ｃｌｏｕｄｓ,,合同会社,東京都,大田区,大森西６丁目１７番１７号,,13,111,1430015,,,,,,,2025-12-10,1,,,,,ミズヒキウイングスクラウズ,0
913,4011203004907,新規,0,2025-12-10,2025-12-10,合同会社ＮＥＸＴ,,合同会社,東京都,中野区,上鷺宮４丁目１６番２０号,,13,114,1650031,,,,,,,2025-12-10,1,,,,,ネクスト,0
919,4011401027643,新規,0,2025-12-10,2025-12-10,株式会社清宮,,株式会社,東京都,板橋区,桜川３丁目２番１３号－３０１,,13,119,1740075,,,,,,,2025-12-10,1,,,,,キヨミヤ,0
926,4011801047159,新規,0,2025-12-10,2025-12-10,株式会社ＥＮＬＩＮＫ,,株式会社,東京都,足立区,花畑７丁目７番４号,,13,121,1210061,,,,,,,2025-12-10,1,,,,,エンリンク,0
929,4011803007227,新規,0,2025-12-10,2025-12-10,合同会社Ｂｒａｖｉ,,合同会社,東京都,足立区,小台２丁目３２番３号,,13,121,1200046,,,,,,,2025-12-10,1,,,,,ブラーヴィ,0
931,4012301014632,新規,0,2025-12-10,2025-12-10,株式会社フォーゲル,,株式会社,東京都,町田市,森野１丁目３０番８号ノアビル７階,,13,209,1940022,,,,,,,2025-12-10,1,,,,,フォーゲル,0
934,4012701019223,新規,0,2025-12-10,2025-12-10,株式会社正太郎ホールディングス,,株式会社,東京都,東村山市,多摩湖町４丁目８番地３,,13,213,1890026,,,,,,,2025-12-10,1,,,,,ショウタロウホウールディングス,0
937,4012801024412,新規,0,2025-12-10,2025-12-10,エーエスジー株式会社,,株式会社,東京都,日野市,旭が丘２丁目１９番地の１８コスモエイト,,13,212,1910065,,,,,,,2025-12-10,1,,,,,エーエスジー,0
939,4012803003942,新規,0,2025-12-10,2025-12-10,合同会社カマタ,,合同会社,東京都,立川市,西砂町５丁目４７番地の３２,,13,202,1900034,,,,,,,2025-12-10,1,,,,,カマタ,0
943,4013301055402,新規,0,2025-12-10,2025-12-10,株式会社るみなす,,株式会社,東京都,豊島区,池袋１丁目１番８号ＳＫＹビル６階,,13,116,1700014,,,,,,,2025-12-10,1,,,,,ルミナス,0
944,4013301055410,新規,0,2025-12-10,2025-12-10,株式会社Ｇｏｕｔｅ,,株式会社,東京都,豊島区,西池袋１丁目３７－８ＪＰビル６階,,13,116,1710021,,,,,,,2025-12-10,1,,,,,ゴート,0
946,4020001166215,新規,0,2025-12-10,2025-12-10,ＨＡＹＯＯＮ株式会社,,株式会社,神奈川県,横浜市西区,戸部町４丁目１５３番２号－１階,,14,103,2200042,,,,,,,2025-12-10,1,,,,,ハユン,0
948,4020003029980,新規,0,2025-12-10,2025-12-10,合同会社ＴＵＭＵＧＩＢＡ,,合同会社,神奈川県,横浜市戸塚区,矢部町１９５７－１サングレイス戸塚スカイガーデン７０２,,14,110,2440002,,,,,,,2025-12-10,1,,,,,ツムギバ,0
952,4021001086964,新規,0,2025-12-10,2025-12-10,株式会社ＨＩファーム,,株式会社,神奈川県,大和市,上和田２８５５番地１,,14,213,2420014,,,,,,,2025-12-10,1,,,,,ハイファーム,0
953,4021001087054,新規,0,2025-12-10,2025-12-10,株式会社ＧＴＲＳ,,株式会社,神奈川県,横須賀市,ハイランド２丁目８番１１号,,14,201,2390833,,,,,,,2025-12-10,1,,,,,ジーティーアールエス,0
964,4030001169877,新規,0,2025-12-10,2025-12-10,株式会社Ｂｒｉｄｇｅ,,株式会社,埼玉県,さいたま市中央区,円阿弥５丁目８番４０号ＩｍａｓＳａｉｔａｍａＣｅｎｔｒａｌ４Ｆ,,11,105,3380007,,,,,,,2025-12-10,1,,,,,ブリッジ,0
965,4030001170026,新規,0,2025-12-10,2025-12-10,株式会社匠住宅建設,,株式会社,埼玉県,川越市,大字山田９８７番地３,,11,201,3500822,,,,,,,2025-12-10,1,,,,,タクミジュウタクケンセツ,0
980,4040003029095,新規,0,2025-12-10,2025-12-10,合同会社拓ラボ,,合同会社,千葉県,柏市,松葉町７丁目３３－９,,12,217,2770827,,,,,,,2025-12-10,1,,,,,タクラボ,0
985,4080001027320,新規,0,2025-12-10,2025-12-10,ＳＴＡＧＥＡコンサルティング株式会社,,株式会社,静岡県,静岡市葵区,鷹匠２丁目８番１０号静鉄鷹二センタービル３階９号,,22,101,4200839,,,,,,,2025-12-10,1,,,,,ステージアコンサルティング,0
986,4080001027329,新規,0,2025-12-10,2025-12-10,株式会社相川コーポレーション,,株式会社,静岡県,静岡市葵区,安東３丁目１７番１７号,,22,101,4200882,,,,,,,2025-12-10,1,,,,,アイカワコーポレーション,0
991,4110001039766,新規,0,2025-12-10,2025-12-10,株式会社えちご四駆村,,株式会社,新潟県,東蒲原郡阿賀町,綱木３５０番地,,15,385,9594601,,,,,,,2025-12-10,1,,,,,エチゴヨンクムラ,0
1004,4120001282183,新規,0,2025-12-10,2025-12-10,株式会社プロテクション販売,,株式会社,大阪府,枚方市,養父元町１番３３－１０２,,27,210,5731125,,,,,,,2025-12-10,1,,,,,プロテクションハンバイ,0
1005,4120001282621,新規,0,2025-12-10,2025-12-10,株式会社Ｗｉｚ,,株式会社,大阪府,大阪市西区,九条南３丁目１７番１１号２０２,,27,106,5500025,,,,,,,2025-12-10,1,,,,,ウィズ,0
1006,4120001282679,新規,0,2025-12-10,2025-12-10,万歴株式会社,,株式会社,大阪府,大阪市浪速区,戎本町１丁目７番１１号,,27,111,5560013,,,,,,,2025-12-10,1,,,,,マンレキ,0
1017,4120101072930,新規,0,2025-12-10,2025-12-10,株式会社ＴＥＲＲＡＣＥ　ＷＯＲＫＳ,,株式会社,大阪府,大阪狭山市,茱萸木７丁目１４０５番地Ｇ号室,,27,231,5890013,,,,,,,2025-12-10,1,,,,,テラスワークス,0
1022,4120901051951,新規,0,2025-12-10,2025-12-10,フロルマインド株式会社,,株式会社,大阪府,摂津市,鶴野１丁目４番１号,,27,224,5660035,,,,,,,2025-12-10,1,,,,,フロルマインド,0
1030,4122001039984,新規,0,2025-12-10,2025-12-10,株式会社優,,株式会社,大阪府,八尾市,南本町５丁目７番２号,,27,212,5810081,,,,,,,2025-12-10,1,,,,,ユウ,0
1031,4122003003419,新規,0,2025-12-10,2025-12-10,合同会社ＬｉｖＬｉｎｋ,,合同会社,大阪府,大東市,大野１丁目３番２号ザ・レジデンス大阪住道１２０４号,,27,218,5740042,,,,,,,2025-12-10,1,,,,,リヴリンク,0
1037,4130003011003,新規,0,2025-12-10,2025-12-10,合同会社ｐｒｏｕｄ,,合同会社,京都府,京都市北区,大宮西山ノ前町１１番地コーポ華１０３,,26,101,6038471,,,,,,,2025-12-10,1,,,,,プラウド,0
1047,4140003022940,新規,0,2025-12-10,2025-12-10,リエンデ合同会社,,合同会社,兵庫県,神戸市東灘区,田中町１丁目６番１１号,,28,101,6580081,,,,,,,2025-12-10,1,,,,,リエンデ,0
1060,4180001169549,新規,0,2025-12-10,2025-12-10,株式会社チームフルサポ,,株式会社,愛知県,名古屋市中村区,椿町１３－１６,,23,105,4530015,,,,,,,2025-12-10,1,,,,,チームフルサポ,0
1061,4180001169805,新規,0,2025-12-10,2025-12-10,株式会社Ｂｒｉｇｈｔ,,株式会社,愛知県,あま市,石作北浦１７６番地１０,,23,237,4901102,,,,,,,2025-12-10,1,,,,,ブライト,0
1062,4180001169813,新規,0,2025-12-10,2025-12-10,株式会社丸依,,株式会社,愛知県,瀬戸市,北松山町１丁目１９２番地,,23,204,4890911,,,,,,,2025-12-10,1,,,,,マルイ,0
1064,4180003029494,新規,0,2025-12-10,2025-12-10,合同会社Ｄｅａｒ,,合同会社,愛知県,半田市,星崎町１丁目１０３,,23,205,4750911,,,,,,,2025-12-10,1,,,,,ディア,0
1067,4180301040491,新規,0,2025-12-10,2025-12-10,株式会社Ｎ’ｔｅｃｈ　ＡＱＵＡ　ＳＹＳＴＥＭ,,株式会社,愛知県,豊橋市,原町字峯畑１１番地の１０,,23,201,4413111,,,,,,,2025-12-10,1,,,,,エヌテクアクアシステム,0
1075,4200003007167,新規,0,2025-12-10,2025-12-10,新橋合同会社,,合同会社,岐阜県,瑞浪市,陶町大川字十三塚７７９番地１４２－Ｂ,,21,208,5096363,,,,,,,2025-12-10,1,,,,,シンバシ,0
1085,4240001065907,新規,0,2025-12-10,2025-12-10,株式会社月下,,株式会社,広島県,広島市西区,草津東２丁目６番２５－１０３号,,34,104,7330861,,,,,,,2025-12-10,1,,,,,ゲッカ,0
1092,4260001040809,新規,0,2025-12-10,2025-12-10,株式会社ＴＡＩＴＯ,,株式会社,岡山県,倉敷市,真備町箭田４０７９番地１２,00141831,33,202,7101301,,,,,,,2025-12-10,1,,,,,タイト,0
1094,4290001112299,新規,0,2025-12-10,2025-12-10,株式会社Ａｑｓｅｅｄ,,株式会社,福岡県,福岡市中央区,渡辺通５丁目１４－１２南天神ビル３Ｆ,,40,133,8100004,,,,,,,2025-12-10,1,,,,,アクシード,0
1095,4290001112415,新規,0,2025-12-10,2025-12-10,株式会社Ｘ・Ｙ・Ｚ,,株式会社,福岡県,福岡市博多区,住吉４丁目２番１号・八友ビル１階,,40,132,8120018,,,,,,,2025-12-10,1,,,,,エックスワイゼット,0
1096,4290001112464,新規,0,2025-12-10,2025-12-10,株式会社ｍｉｎａｒｉｏ,,株式会社,福岡県,福岡市中央区,天神２丁目２番１２号Ｔ＆Ｊビルディング７Ｆ,,40,133,8100001,,,,,,,2025-12-10,1,,,,,ミナリオ,0
1097,4290001112480,新規,0,2025-12-10,2025-12-10,株式会社ＲＡＮＮＥ,,株式会社,福岡県,福岡市中央区,笹丘３丁目２０番８－２０１号ロイヤルヒルズ笹丘,,40,133,8100034,,,,,,,2025-12-10,1,,,,,ランネ,0
1098,4290003017802,新規,0,2025-12-10,2025-12-10,合同会社ホープ,,合同会社,福岡県,福岡市中央区,天神４丁目５番１３号天神豊ビル５Ｆ,,40,133,8100001,,,,,,,2025-12-10,1,,,,,ホープ,0
1099,4290003017827,新規,0,2025-12-10,2025-12-10,九州エンタメラボ合同会社,,合同会社,福岡県,福岡市博多区,博多駅前１丁目２３－２－ＰａｒｋＦｒｏｎｔ５Ｆ－Ｂ,,40,132,8120011,,,,,,,2025-12-10,1,,,,,キュウシュウエンタメラボ,0
1100,4290803005221,新規,0,2025-12-10,2025-12-10,合同会社ウィズ,,合同会社,福岡県,田川市,千代町１１番２５号,,40,206,8260031,,,,,,,2025-12-10,1,,,,,ウィズ,0
1113,4360005007331,新規,0,2025-12-10,2025-12-10,一般社団法人コレスコ,,その他の設立登記法人,沖縄県,八重山郡与那国町,字与那国４８１５番地,,47,382,9071801,,,,,,,2025-12-10,1,,,,,コレスコ,0
1115,4370001053295,新規,0,2025-12-10,2025-12-10,株式会社木村ファーム,,株式会社,宮城県,遠田郡美里町,字化粧坂２番地１,,04,505,9870034,,,,,,,2025-12-10,1,,,,,キムラファーム,0
1116,4370001053304,新規,0,2025-12-10,2025-12-10,株式会社ＴＡＭＡＭＵＳＨＩ設備,,株式会社,宮城県,大崎市,古川栄町１５番３０号２階,,04,215,9896157,,,,,,,2025-12-10,1,,,,,タマムシセツビ,0
1118,4380003006201,新規,0,2025-12-10,2025-12-10,合同会社さくら電建,,合同会社,福島県,郡山市,町東２丁目８番地,,07,203,9638046,,,,,,,2025-12-10,1,,,,,サクラデンケン,0
1123,4420001019365,新規,0,2025-12-10,2025-12-10,株式会社東日本エステート,,株式会社,青森県,青森市,三好２丁目３番地１９,,02,201,0380006,,,,,,,2025-12-10,1,,,,,ヒガシニホンエステート,0
1125,4420003003210,新規,0,2025-12-10,2025-12-10,合同会社ＴＲＡＤＥ‐ＯＮ,,合同会社,青森県,弘前市,大字城東中央３丁目１番地２４,,02,202,0368093,,,,,,,2025-12-10,1,,,,,トレードオン,0
1128,4430001095810,新規,0,2025-12-10,2025-12-10,株式会社エバーホームユアーズ,,株式会社,北海道,札幌市西区,発寒四条６丁目５番２１号,,01,107,0630824,,,,,,,2025-12-10,1,,,,,エバーホームユアーズ,0
1129,4430001095827,新規,0,2025-12-10,2025-12-10,株式会社北の恵,,株式会社,北海道,勇払郡厚真町,字軽舞１２０番地の２,,01,581,0591752,,,,,,,2025-12-10,1,,,,,キタノメグミ,0
1130,4430001095835,新規,0,2025-12-10,2025-12-10,株式会社Ｆｅｎｉｘ,,株式会社,北海道,札幌市中央区,南五条西２１丁目１番２６号円山桜並木通りビル５０１号室,,01,101,0640805,,,,,,,2025-12-10,1,,,,,フェニックス,0
1133,4430003018397,新規,0,2025-12-10,2025-12-10,合同会社まっく,,合同会社,北海道,札幌市中央区,南四条西２５丁目１番６号,,01,101,0640804,,,,,,,2025-12-10,1,,,,,マック,0
1134,4430003018414,新規,0,2025-12-10,2025-12-10,ピリカロープワークス合同会社,,合同会社,北海道,岩見沢市,栗沢町茂世丑１７２１番地,,01,210,0680114,,,,,,,2025-12-10,1,,,,,ピリカロープワークス,0
1140,4700150133310,新規,0,2025-12-10,2025-12-10,サンスター健康保険組合,,その他,大阪府,高槻市,川西町１丁目３５番１０号,,27,207,5691133,,,,,,,2025-12-10,1,,,,,サンスターケンコウホケンクミアイ,0
1148,5010001260835,新規,0,2025-12-10,2025-12-10,株式会社ＷＯＲＤ　ＳＴＵＤＩＯ,,株式会社,東京都,千代田区,九段南１丁目５番６号りそな九段ビル５階ＫＳフロア,,13,101,1020074,,,,,,,2025-12-10,1,,,,,ワードスタジオ,0
1149,5010001260934,新規,0,2025-12-10,2025-12-10,株式会社ＡＳＡＵＮ,,株式会社,東京都,中央区,銀座１丁目２２番１１号銀座大竹ビジデンス２Ｆ,,13,102,1040061,,,,,,,2025-12-10,1,,,,,アサウン,0
1152,5010003049665,新規,0,2025-12-10,2025-12-10,合同会社ＫＯＭＩＹＡＭＡ,,合同会社,東京都,文京区,小石川５丁目１０番４号,,13,105,1120002,,,,,,,2025-12-10,1,,,,,コミヤマ,0
1153,5010003049698,新規,0,2025-12-10,2025-12-10,こうほく合同会社,,合同会社,東京都,千代田区,丸の内１丁目４番１号東京共同会計事務所内,,13,101,1000005,,,,,,,2025-12-10,1,,,,,コウホク,0
1155,5010005041050,新規,0,2025-12-10,2025-12-10,妙高ウェルネスリゾート特定目的会社,,その他の設立登記法人,東京都,中央区,銀座１丁目６番１１号土志田ビルディング３Ｆ,,13,102,1040061,,,,,,,2025-12-10,1,,,,,ミョウコウウェルネスリゾート,0
1168,5010401195061,新規,0,2025-12-10,2025-12-10,株式会社ＡＳＴＲＡＩＡ　ＰＡＲＴＮＥＲＳ,,株式会社,東京都,港区,北青山１丁目３－３三橋ビル３階,,13,103,1070061,,,,,,,2025-12-10,1,,,,,アストライアパートナーズ,0
1173,5010501055165,新規,0,2025-12-10,2025-12-10,株式会社ベイアライアンス,,株式会社,東京都,台東区,池之端２丁目１番３５－１１０５号,,13,106,1100008,,,,,,,2025-12-10,1,,,,,ベイアライアンス,0
1180,5010703008029,新規,0,2025-12-10,2025-12-10,エムエーグループジャパン合同会社,,合同会社,東京都,品川区,東品川２丁目２番４号天王洲ファーストタワー７階７２５号室,,13,109,1400002,,,,,,,2025-12-10,1,,,,,エムエーグループジャパン,0
1183,5010801036856,新規,0,2025-12-10,2025-12-10,株式会社スタジオ・ビッグボーイ,,株式会社,東京都,大田区,中央８丁目２９番８号ｃａｓａｅｓｔａｔｅ,,13,111,1430024,,,,,,,2025-12-10,1,,,,,スタジオビッグボーイ,0
1196,5011001174125,新規,0,2025-12-10,2025-12-10,株式会社メーケル,,株式会社,東京都,渋谷区,神南１丁目１１－４ＦＰＧリンクス神南５階,,13,113,1500041,,,,,,,2025-12-10,1,,,,,メーケル,0
1197,5011001174141,新規,0,2025-12-10,2025-12-10,株式会社Ｌｕｌｕｍｙ,,株式会社,東京都,渋谷区,桜丘町２３番１７号シティコート桜丘４０４,,13,113,1500031,,,,,,,2025-12-10,1,,,,,ルルミー,0
1198,5011001174174,新規,0,2025-12-10,2025-12-10,株式会社Ｓｔａｒｔ　Ｓｈｉｐ,,株式会社,東京都,目黒区,鷹番２丁目２０番２０号,,13,110,1520004,,,,,,,2025-12-10,1,,,,,スタートシップ,0
1199,5011001174249,新規,0,2025-12-10,2025-12-10,株式会社ＡＤＮＯＷＡ,,株式会社,東京都,渋谷区,円山町５番３号ＭＩＥＵＸ渋谷ビル８階,,13,113,1500044,,,,,,,2025-12-10,1,,,,,アドノワ,0
1200,5011001174307,新規,0,2025-12-10,2025-12-10,株式会社ＩＨＷマネジメント,,株式会社,東京都,目黒区,目黒本町２丁目５番４号ウェルスクエアプラザ目黒本町２Ｆ,,13,110,1520002,,,,,,,2025-12-10,1,,,,,アイエイチダブリューマネジメント,0
1205,5011401027634,新規,0,2025-12-10,2025-12-10,フラクタルアセットマネジメント株式会社,,株式会社,東京都,板橋区,赤塚６丁目３６番９号,,13,119,1750092,,,,,,,2025-12-10,1,,,,,フラクタルアセットマネジメント,0
1208,5011701029009,新規,0,2025-12-10,2025-12-10,株式会社北斗,,株式会社,東京都,江戸川区,一之江６丁目５番１２号,,13,123,1320024,,,,,,,2025-12-10,1,,,,,ホクト,0
1215,5012701019222,新規,0,2025-12-10,2025-12-10,ＹＧＭ株式会社,,株式会社,東京都,東久留米市,下里３丁目２番２４号,,13,222,2030043,,,,,,,2025-12-10,1,,,,,ワイジーエム,0
1217,5012703003422,新規,0,2025-12-10,2025-12-10,インテグリティア合同会社,,合同会社,東京都,西東京市,向台町３丁目５番２７号ヴィーガーデン・ザ・レジデンス西東京１２２７号室,,13,229,1880013,,,,,,,2025-12-10,1,,,,,インテグリティア,0
1218,5012801024411,新規,0,2025-12-10,2025-12-10,株式会社アステル,,株式会社,東京都,立川市,幸町３丁目３４－６ピュアコート幸町１０１,,13,202,1900002,,,,,,,2025-12-10,1,,,,,アステル,0
1219,5012803003941,新規,0,2025-12-10,2025-12-10,合同会社赤石・鎌田建築設計,,合同会社,東京都,東大和市,向原６丁目１１６４番地の３ベルメゾンヒロセ・１２－２０５号室,,13,220,2070013,,,,,,,2025-12-10,1,,,,,アカイシカマタケンチクセッケイ,0
1227,5020001166172,新規,0,2025-12-10,2025-12-10,株式会社Ａｍｏｒｉａ　ｐｒｏｄｕｃｔｉｏｎ,,株式会社,神奈川県,川崎市麻生区,万福寺４丁目２２番４号,,14,137,2150004,,,,,,,2025-12-10,1,,,,,アモリアプロダクション,0
1228,5020001166206,新規,0,2025-12-10,2025-12-10,株式会社ＫＯＺＵＣＩ,,株式会社,神奈川県,横浜市中区,住吉町１丁目５番地メイフェア横濱関内９階,,14,104,2310013,,,,,,,2025-12-10,1,,,,,コヅチ,0
1229,5020001166214,新規,0,2025-12-10,2025-12-10,同発商事株式会社,,株式会社,神奈川県,横浜市中区,山下町７５番地,,14,104,2310023,,,,,,,2025-12-10,1,,,,,ドウハツショウジ,0
1234,5020003029914,新規,0,2025-12-10,2025-12-10,合同会社サウナと建築研究所,,合同会社,神奈川県,川崎市麻生区,虹ケ丘１丁目６番１号,,14,137,2150015,,,,,,,2025-12-10,1,,,,,サウナトケンチクケンキュウジョ,0
1235,5020005017082,新規,0,2025-12-10,2025-12-10,一般社団法人風と月,,その他の設立登記法人,神奈川県,横浜市保土ケ谷区,峰岡町１丁目１８番地３,,14,106,2400064,,,,,,,2025-12-10,1,,,,,カゼトツキ,0
1240,5021001086971,新規,0,2025-12-10,2025-12-10,株式会社Ｓｅｒｅｎｏ,,株式会社,神奈川県,伊勢原市,石田３２９番地の１羽黒壱番館５０１号,,14,214,2591116,,,,,,,2025-12-10,1,,,,,セレーノ,0
1245,5021003016869,新規,0,2025-12-10,2025-12-10,合同会社ＧＯＡＴ,,合同会社,神奈川県,相模原市緑区,橋本３丁目２－４ＭＳＭ橋本ビル３Ｆ,,14,151,2520143,,,,,,,2025-12-10,1,,,,,ゴート,0
1253,5030001170000,新規,0,2025-12-10,2025-12-10,東明株式会社,,株式会社,埼玉県,蕨市,南町３丁目１１－２－２Ｆ,,11,223,3350003,,,,,,,2025-12-10,1,,,,,トウメイ,0
1254,5030001170025,新規,0,2025-12-10,2025-12-10,株式会社Ｎ．Ｇｒｅａｎ,,株式会社,埼玉県,さいたま市北区,東大成町２丁目４５３番地１,,11,102,3310814,,,,,,,2025-12-10,1,,,,,エヌグリーン,0
1256,5030003028238,新規,0,2025-12-10,2025-12-10,合同会社ＹＭＷ,,合同会社,埼玉県,戸田市,大字新曽２１６８番地ＦＯＵＮＴＡＩＮＰＡＲＫＳＩＤＥ空１１０５,,11,224,3350021,,,,,,,2025-12-10,1,,,,,ワイエムダブリュ,0
1257,5030005022362,新規,0,2025-12-10,2025-12-10,安永寺,,その他の設立登記法人,埼玉県,狭山市,大字上奥富字戸張２１３番地１,,11,215,3501333,,,,,,,2025-12-10,1,,,,,アンエイジ,0
1263,5040003029103,新規,0,2025-12-10,2025-12-10,ダイシン合同会社,,合同会社,千葉県,香取郡多古町,飯笹８０番地３,,12,347,2892231,,,,,,,2025-12-10,1,,,,,ダイシン,0
1283,5100001039188,新規,0,2025-12-10,2025-12-10,セルＥホールディングス株式会社,,株式会社,長野県,千曲市,大字若宮１０９２－２,,20,218,3890813,,,,,,,2025-12-10,1,,,,,セルイーホールディングス,0
1294,5120001282554,新規,0,2025-12-10,2025-12-10,株式会社まちの薬屋,,株式会社,大阪府,大阪市西成区,玉出西１丁目８番９－１０２号,,27,122,5570045,,,,,,,2025-12-10,1,,,,,マチノクスリヤ,0
1295,5120001282629,新規,0,2025-12-10,2025-12-10,株式会社サードクエスト,,株式会社,大阪府,大阪市北区,堂山町１５－２３－９０７,,27,127,5300027,,,,,,,2025-12-10,1,,,,,サードクエスト,0
1296,5120001282653,新規,0,2025-12-10,2025-12-10,株式会社クムズ,,株式会社,大阪府,大阪市東淀川区,下新庄６丁目９番４号,,27,114,5330021,,,,,,,2025-12-10,1,,,,,クムズ,0
1310,5120903005995,新規,0,2025-12-10,2025-12-10,合同会社リシェス,,合同会社,大阪府,三島郡島本町,江川２丁目１９‐２７,,27,301,6180013,,,,,,,2025-12-10,1,,,,,リシェス,0
1311,5122003003418,新規,0,2025-12-10,2025-12-10,合同会社ＢＰｆｅｒｄ,,合同会社,大阪府,東大阪市,長堂１丁目１５番７号コンフォート布施２０６号,,27,227,5770056,,,,,,,2025-12-10,1,,,,,ビーピーフェード,0
1315,5130001081154,新規,0,2025-12-10,2025-12-10,株式会社ＭＸ　Ｍｏｔｏｒｓｐｏｒｔｓ　Ｊａｐａｎ,,株式会社,京都府,木津川市,山城町北河原畑岡１４番地１,,26,214,6190206,,,,,,,2025-12-10,1,,,,,エムエックスモータースポーツジャパン,0
1322,5140003022948,新規,0,2025-12-10,2025-12-10,合同会社かけるゼロ,,合同会社,兵庫県,神戸市北区,藤原台北町２丁目１５－１８,,28,109,6511301,,,,,,,2025-12-10,1,,,,,カケルゼロ,0
1324,5150003003773,新規,0,2025-12-10,2025-12-10,合同会社ＲｅＮＥＸＵＳ,,合同会社,奈良県,葛城市,北道穂１５１番地１１,,29,211,6392100,,,,,,,2025-12-10,1,,,,,リネクサス,0
1340,5180301040490,新規,0,2025-12-10,2025-12-10,ＡＩＣＨＩウォーター株式会社,,株式会社,愛知県,豊橋市,岩屋町字岩屋下９６番地２,,23,201,4400842,,,,,,,2025-12-10,1,,,,,アイチウォーター,0
1349,5190003005295,新規,0,2025-12-10,2025-12-10,合同会社ぐーちょきぱー,,合同会社,三重県,熊野市,木本町７２６番地７,,24,212,5194323,,,,,,,2025-12-10,1,,,,,グーチョキパー,0
1355,5240003007518,新規,0,2025-12-10,2025-12-10,合同会社ノーキン,,合同会社,広島県,福山市,伊勢丘８丁目１１番２１号アーバンヒルトン１０３,,34,207,7210915,,,,,,,2025-12-10,1,,,,,ノーキン,0
1370,5290001112430,新規,0,2025-12-10,2025-12-10,株式会社中川工務店,,株式会社,福岡県,福岡市東区,多の津４丁目２１番８号,,40,131,8130034,,,,,,,2025-12-10,1,,,,,ナカガワコウムテン,0
1371,5290001112455,新規,0,2025-12-10,2025-12-10,株式会社ＹＫＯ建設,,株式会社,福岡県,三井郡大刀洗町,大字甲条１０３６－１,,40,503,8301212,,,,,,,2025-12-10,1,,,,,ワイケイオーケンセツ,0
1373,5290003017784,新規,0,2025-12-10,2025-12-10,スター合同会社,,合同会社,福岡県,福岡市博多区,博多駅前１丁目２３番２号ＰａｒｋＦｒｏｎｔ博多駅前１丁目５Ｆ－Ｂ,,40,132,8120011,,,,,,,2025-12-10,1,,,,,スター,0
1374,5290003017818,新規,0,2025-12-10,2025-12-10,地域支援サービスＲｅｎｃｈｏｒ合同会社,,合同会社,福岡県,福岡市博多区,東雲町３丁目３番２７号２０５号室,,40,132,8120871,,,,,,,2025-12-10,1,,,,,チイキシエンサービスリンカー,0
1380,5320001021487,新規,0,2025-12-10,2025-12-10,クスノキ不動産株式会社,,株式会社,大分県,大分市,金池町２丁目１４番３号ＴＢレジデンス大分駅前１０１号室,,44,201,8700026,,,,,,,2025-12-10,1,,,,,クスノキフドウサン,0
1383,5330003011345,新規,0,2025-12-10,2025-12-10,コーユー合同会社,,合同会社,熊本県,熊本市東区,尾ノ上１丁目１０番２４号,,43,102,8620913,,,,,,,2025-12-10,1,,,,,コーユー,0
1387,5350001019842,新規,0,2025-12-10,2025-12-10,株式会社三甲鉄工,,株式会社,宮崎県,延岡市,永池町２丁目８番地４,,45,203,8820843,,,,,,,2025-12-10,1,,,,,サンコウテッコウ,0
1388,5360001036093,新規,0,2025-12-10,2025-12-10,株式会社サンレーゆいまーるホールディングス,,株式会社,沖縄県,那覇市,壺川３丁目１番地７,,47,201,9000025,,,,,,,2025-12-10,1,,,,,サンレーユイマールホールディングス,0
1389,5360005007330,新規,0,2025-12-10,2025-12-10,一般社団法人沖縄子供たちへの夢プロジェクト,,その他の設立登記法人,沖縄県,浦添市,字経塚１９７番地,,47,208,9012111,,,,,,,2025-12-10,1,,,,,オキナワコドモタチヘノユメプロジェクト,0
1390,5370001053294,新規,0,2025-12-10,2025-12-10,株式会社ＳＥＡＬｓパートナー,,株式会社,宮城県,仙台市青葉区,国分町１丁目８番１３号仙台協立第１ビル４Ｅ,,04,101,9800803,,,,,,,2025-12-10,1,,,,,シールズパートナー,0
1397,5420001019364,新規,0,2025-12-10,2025-12-10,株式会社Ａｒｉｋａ　Ｔｅｒｒｏｉｒ,,株式会社,青森県,上北郡東北町,字往来ノ上５６番地,,02,408,0392636,,,,,,,2025-12-10,1,,,,,アリカテロワール,0
1409,5430003018413,新規,0,2025-12-10,2025-12-10,合同会社ポプラ商會,,合同会社,北海道,札幌市中央区,北一条西１９丁目１番４号,,01,101,0600001,,,,,,,2025-12-10,1,,,,,ポプラショウカイ,0
1410,5450001014800,新規,0,2025-12-10,2025-12-10,株式会社Ｔａｕｍａ,,株式会社,北海道,上川郡上川町,南町１０３３－２,,01,457,0781753,,,,,,,2025-12-10,1,,,,,タウマ,0
1411,5450003002745,新規,0,2025-12-10,2025-12-10,合同会社ｎｅｋｋｏ,,合同会社,北海道,上川郡上川町,新町２５８番地,,01,457,0781762,,,,,,,2025-12-10,1,,,,,ネッコ,0
1426,6010001260891,新規,0,2025-12-10,2025-12-10,株式会社ＢＩＬＡＬ．ＩＮＣ,,株式会社,東京都,千代田区,麹町１丁目３番地ダイアン麹町ビル５階,,13,101,1020083,,,,,,,2025-12-10,1,,,,,ビラルインク,0
1427,6010001260933,新規,0,2025-12-10,2025-12-10,株式会社ハルハナ,,株式会社,東京都,中央区,勝どき６丁目３番２－１７２７号,,13,102,1040054,,,,,,,2025-12-10,1,,,,,ハルハナ,0
1428,6010001260958,新規,0,2025-12-10,2025-12-10,株式会社エイチアンドエフシュリンプ,,株式会社,東京都,千代田区,二番町７番地８,,13,101,1020084,,,,,,,2025-12-10,1,,,,,エイチアンドエフシュリンプ,0
1429,6010001260999,新規,0,2025-12-10,2025-12-10,株式会社ＨＥＭＥＬ,,株式会社,東京都,千代田区,神田多町２丁目１番地２３神田東山ビル７Ｆ,,13,101,1010046,,,,,,,2025-12-10,1,,,,,ヘームル,0
1430,6010001261048,新規,0,2025-12-10,2025-12-10,株式会社エンマンサポート,,株式会社,東京都,千代田区,神田須田町１丁目７－８ＶＯＲＴ秋葉原ＩＶ２Ｆ,00141821,13,101,1010041,,,,,,,2025-12-10,1,,,,,エンマンサポート,0
1438,6010401194772,新規,0,2025-12-10,2025-12-10,株式会社ＭＩＮＡＴＯ　ＨＯＭＥ,,株式会社,東京都,港区,赤坂２丁目１９番５号内田ビル３階３０１号室,,13,103,1070052,,,,,,,2025-12-10,1,,,,,ミナトホーム,0
1439,6010401194863,新規,0,2025-12-10,2025-12-10,株式会社大協堂,,株式会社,東京都,港区,北青山１丁目３番１号アールキューブ青山３階,,13,103,1070061,,,,,,,2025-12-10,1,,,,,ダイキョウドウ,0
1440,6010401195127,新規,0,2025-12-10,2025-12-10,株式会社綜合企画プラス,,株式会社,東京都,港区,赤坂５丁目２番３３号,,13,103,1070052,,,,,,,2025-12-10,1,,,,,ソウゴウキカクプラス,0
1441,6010401195135,新規,0,2025-12-10,2025-12-10,株式会社Ｃｌｏｕｄ　Ｇｕｉｌｄ,,株式会社,東京都,港区,北青山１丁目３－３三橋ビル３階,,13,103,1070061,,,,,,,2025-12-10,1,,,,,クラウドギルド,0
1442,6010403036774,新規,0,2025-12-10,2025-12-10,ジー・エイ・ワン・レジデンス・サーティーン合同会社,,合同会社,東京都,港区,虎ノ門５丁目１番４号,,13,103,1050001,,,,,,,2025-12-10,1,,,,,ジーエイワンレジデンスサーティーン,0
1444,6010501055164,新規,0,2025-12-10,2025-12-10,株式会社かわにし,,株式会社,東京都,台東区,根岸４丁目４番１０号,,13,106,1100003,,,,,,,2025-12-10,1,,,,,カワニシ,0
1451,6010801036855,新規,0,2025-12-10,2025-12-10,大森ビル株式会社,,株式会社,東京都,大田区,雪谷大塚町１４番２２号,,13,111,1450067,,,,,,,2025-12-10,1,,,,,オオモリビル,0
1452,6010803005635,新規,0,2025-12-10,2025-12-10,ＭＩＯＵ合同会社,,合同会社,東京都,大田区,西蒲田４丁目３３番２号,,13,111,1440051,,,,,,,2025-12-10,1,,,,,ミオウ,0
1453,6010803005643,新規,0,2025-12-10,2025-12-10,梛Ｌａｂｏ合同会社,,合同会社,東京都,大田区,田園調布１丁目４４－６,,13,111,1450071,,,,,,,2025-12-10,1,,,,,ナギラボ,0
1465,6011105011669,新規,0,2025-12-10,2025-12-10,一般社団法人日本パーソナルブランディング戦略機構,,その他の設立登記法人,東京都,新宿区,西新宿３丁目５番１号新宿セントランドビル６階,,13,104,1600023,,,,,,,2025-12-10,1,,,,,ニホンパーソナルブランディングセンリャクキコウ,0
1467,6011301031116,新規,0,2025-12-10,2025-12-10,株式会社ＷＢＤホールディングス,,株式会社,東京都,杉並区,今川２丁目１１番２３号,,13,115,1670035,,,,,,,2025-12-10,1,,,,,ダブリュビーディーホールディングス,0
1474,6011703004479,新規,0,2025-12-10,2025-12-10,合同会社ＨＡＲＡ．ＩＮＴＥＲＮＡＴＩＯＮＡＬ,,合同会社,東京都,江戸川区,平井７丁目３番１－４１２号,,13,123,1320035,,,,,,,2025-12-10,1,,,,,ハラインターナショナル,0
1476,6011801047157,新規,0,2025-12-10,2025-12-10,柚和株式会社,,株式会社,東京都,葛飾区,東新小岩３丁目４－２１大生新小岩ハイツ５０４,,13,122,1240023,,,,,,,2025-12-10,1,,,,,ユズワ,0
1480,6012701019221,新規,0,2025-12-10,2025-12-10,株式会社ホットロードカンパニー,,株式会社,東京都,西東京市,田無町６丁目１６番１４号１０１号,,13,229,1880011,,,,,,,2025-12-10,1,,,,,ホットロードカンパニー,0
1484,6013301055409,新規,0,2025-12-10,2025-12-10,株式会社Ｆｉｒｅｗｏｒｋｓ,,株式会社,東京都,豊島区,駒込６丁目１４番３号,,13,116,1700003,,,,,,,2025-12-10,1,,,,,ファイアーワークス,0
1486,6020001166221,新規,0,2025-12-10,2025-12-10,株式会社ｍｉｓｏｎａ,,株式会社,神奈川県,川崎市宮前区,馬絹２丁目６番６号,,14,136,2160035,,,,,,,2025-12-10,1,,,,,ミソナ,0
1492,6020003029946,新規,0,2025-12-10,2025-12-10,ＮＡＹＢ合同会社,,合同会社,神奈川県,横浜市西区,北幸２丁目１０番４８号むつみビル３階,,14,103,2200004,,,,,,,2025-12-10,1,,,,,ネイブ,0
1493,6020003029954,新規,0,2025-12-10,2025-12-10,合同会社シエンス,,合同会社,神奈川県,横浜市神奈川区,栗田谷２７番１－５０１号,,14,102,2210804,,,,,,,2025-12-10,1,,,,,シエンス,0
1497,6021001086954,新規,0,2025-12-10,2025-12-10,株式会社エスケー・ツリー,,株式会社,神奈川県,相模原市南区,大野台１丁目９番６号,,14,153,2520331,,,,,,,2025-12-10,1,,,,,エスケーツリー,0
1498,6021001087011,新規,0,2025-12-10,2025-12-10,株式会社ＡＥＬＬ,,株式会社,神奈川県,茅ヶ崎市,十間坂２丁目５番２８－６０２号ベルメゾン湘南,,14,207,2530045,,,,,,,2025-12-10,1,,,,,アエル,0
1501,6021003016868,新規,0,2025-12-10,2025-12-10,合同会社オルナ,,合同会社,神奈川県,藤沢市,白旗２丁目１１番８号,,14,205,2510051,,,,,,,2025-12-10,1,,,,,オルナ,0
1502,6021003016892,新規,0,2025-12-10,2025-12-10,合同会社ＫＴ,,合同会社,神奈川県,鎌倉市,大船１丁目２５番３６号第２榎本ビル２階,,14,204,2470056,,,,,,,2025-12-10,1,,,,,ケイティ,0
1504,6030001170040,新規,0,2025-12-10,2025-12-10,株式会社ＧＬＯＢＡＬ　ＴＲＵＳＴ,,株式会社,埼玉県,狭山市,入間川１１３６番地１,,11,215,3501305,,,,,,,2025-12-10,1,,,,,グローバルトラスト,0
1505,6030001170123,新規,0,2025-12-10,2025-12-10,株式会社ＢｕｎＢｕｎ一門,,株式会社,埼玉県,志木市,柏町１丁目２０番４３号,,11,228,3530007,,,,,,,2025-12-10,1,,,,,ブンブンイチモン,0
1507,6030003028220,新規,0,2025-12-10,2025-12-10,合同会社ジーワンダー,,合同会社,埼玉県,吉川市,保１丁目１２番地１２,,11,243,3420041,,,,,,,2025-12-10,1,,,,,ジーワンダー,0
1513,6040001141692,新規,0,2025-12-10,2025-12-10,株式会社ラッツコーポレーション,,株式会社,千葉県,四街道市,大日４６０番地７,,12,228,2840001,,,,,,,2025-12-10,1,,,,,ラッツコーポレーション,0
1523,6060001038838,新規,0,2025-12-10,2025-12-10,株式会社カーサ栃木,,株式会社,栃木県,小山市,西城南７丁目１番地２０グランシャリオＴ１０２,,09,208,3230820,,,,,,,2025-12-10,1,,,,,,0
1525,6070001043639,新規,0,2025-12-10,2025-12-10,株式会社あさひ,,株式会社,群馬県,前橋市,小相木町４６―２,,10,201,3710831,,,,,,,2025-12-10,1,,,,,アサヒ,0
1536,6090001019645,新規,0,2025-12-10,2025-12-10,Ｆ＆Ｂ　ＴＲＵＳＴ株式会社,,株式会社,山梨県,甲府市,丸の内１丁目２番１２号甲府ターミナルホテル１Ｆ,,19,201,4000031,,,,,,,2025-12-10,1,,,,,エフアンドビートラスト,0
1541,6110001039780,新規,0,2025-12-10,2025-12-10,株式会社スリータップ,,株式会社,新潟県,新潟市東区,末広町３番１４号,,15,102,9500071,,,,,,,2025-12-10,1,,,,,スリータップ,0
1565,6120001282660,新規,0,2025-12-10,2025-12-10,株式会社ＤＯＲＯＰＲＯ,,株式会社,大阪府,大阪市生野区,巽中２丁目２５‐６‐０２,,27,116,5440013,,,,,,,2025-12-10,1,,,,,ドロプロ,0
1566,6120001282685,新規,0,2025-12-10,2025-12-10,株式会社ベジケアパートナーズ,,株式会社,大阪府,大阪市北区,豊崎３丁目１６番１６－３７０８号,,27,127,5310072,,,,,,,2025-12-10,1,,,,,ベジケアパートナーズ,0
1569,6120003031438,新規,0,2025-12-10,2025-12-10,合同会社輝グループ,,合同会社,大阪府,大阪市浪速区,大国３丁目６番１９号,,27,111,5560014,,,,,,,2025-12-10,1,,,,,カガヤキグループ,0
1574,6120105010091,新規,0,2025-12-10,2025-12-10,一般社団法人ＭＡＲＵＭＩ,,その他の設立登記法人,大阪府,堺市西区,宮下町１２－３９,,27,144,5938321,,,,,,,2025-12-10,1,,,,,マルミ,0
1577,6120905006818,新規,0,2025-12-10,2025-12-10,サウンド・バーサーカー,,その他の設立登記法人,大阪府,茨木市,水尾２丁目１番３５－８０１号,,27,211,5670891,,,,,,,2025-12-10,1,,,,,サウンドバーサーカー,0
1579,6122001039982,新規,0,2025-12-10,2025-12-10,株式会社ＭＯＮＯＬＩＴＨ,,株式会社,大阪府,八尾市,植松町２丁目４番１６号,,27,212,5810084,,,,,,,2025-12-10,1,,,,,モノリス,0
1586,6130001081194,新規,0,2025-12-10,2025-12-10,株式会社ＯＣＴＡ　ＨＯＬＤＩＮＧＳ,,株式会社,京都府,京都市中京区,丸木材木町６７０番地１吉岡御池ビル４階,,26,104,6048106,,,,,,,2025-12-10,1,,,,,オクタホールディングス,0
1591,6140001140998,新規,0,2025-12-10,2025-12-10,株式会社Ｒｅｌｉｖｅコンサルティング,,株式会社,兵庫県,尼崎市,塚口本町１丁目８番１１号,,28,202,6610001,,,,,,,2025-12-10,1,,,,,リライブコンサルティング,0
1596,6160001027277,新規,0,2025-12-10,2025-12-10,ＳＮＯＷＷＯＲＫＳ株式会社,,株式会社,滋賀県,米原市,甲津原５３０番地,,25,214,5210301,,,,,,,2025-12-10,1,,,,,スノーワークス,0
1597,6160003003672,新規,0,2025-12-10,2025-12-10,合同会社一途,,合同会社,滋賀県,栗東市,小柿９丁目７番３５号１０１室,,25,208,5203024,,,,,,,2025-12-10,1,,,,,イチズ,0
1598,6170001018911,新規,0,2025-12-10,2025-12-10,株式会社ＤＯＰＯＴＵＴＴＩ,,株式会社,和歌山県,紀の川市,貴志川町国主５７番地１１,,30,208,6400414,,,,,,,2025-12-10,1,,,,,ドポトゥッティ,0
1607,6180001169794,新規,0,2025-12-10,2025-12-10,株式会社キョウエイ・ネクサス・パートナーズ,,株式会社,愛知県,小牧市,大字入鹿出新田６５８番地５,,23,219,4850084,,,,,,,2025-12-10,1,,,,,キョウエイネクサスパートナーズ,0
1608,6180001169836,新規,0,2025-12-10,2025-12-10,ＩＤＣサポート株式会社,,株式会社,愛知県,半田市,浜田町３丁目３番地１,,23,205,4750805,,,,,,,2025-12-10,1,,,,,アイディーシーサポート,0
1609,6180001169860,新規,0,2025-12-10,2025-12-10,株式会社ＨＵＧＭＥ,,株式会社,愛知県,長久手市,前熊一ノ井１番地１０２５,,23,238,4801102,,,,,,,2025-12-10,1,,,,,ハグミ,0
1610,6180005021340,新規,0,2025-12-10,2025-12-10,一般社団法人輝成会,,その他の設立登記法人,愛知県,稲沢市,祖父江町本甲神明北５２番地１,,23,220,4950012,,,,,,,2025-12-10,1,,,,,キセイカイ,0
1615,6190003005294,新規,0,2025-12-10,2025-12-10,合同会社ＳＦＧ,,合同会社,三重県,四日市市,海山道町２丁目６番地,,24,202,5100845,,,,,,,2025-12-10,1,,,,,エスエフジー,0
1620,6210005010240,新規,0,2025-12-10,2025-12-10,協同組合ＵｐｐｅｒＹａｒｄ,,その他の設立登記法人,福井県,坂井市,三国町池上第１１４号２６番地,,18,210,9130001,,,,,,,2025-12-10,1,,,,,アッパーヤード,0
1624,6230005009512,新規,0,2025-12-10,2025-12-10,一般社団法人射水海洋国際協会,,その他の設立登記法人,富山県,射水市,中央町１４番４号ミライズＩＭＩＺＵ２階,,16,211,9340012,,,,,,,2025-12-10,1,,,,,イミズカイヨウコクサイキョウカイ,0
1627,6240001065905,新規,0,2025-12-10,2025-12-10,株式会社エコワン,,株式会社,広島県,広島市安佐南区,東原１丁目１６番３－５０１号,,34,105,7310112,,,,,,,2025-12-10,1,,,,,エコワン,0
1636,6270001009347,新規,0,2025-12-10,2025-12-10,Ｍｉｒａｉｔｅｃｔ株式会社,,株式会社,鳥取県,米子市,両三柳２２２７番地３,,31,202,6830853,,,,,,,2025-12-10,1,,,,,ミライテクト,0
1637,6270003001822,新規,0,2025-12-10,2025-12-10,ライフサポート合同会社,,合同会社,鳥取県,米子市,大谷町２１８番地１４,,31,202,6830045,,,,,,,2025-12-10,1,,,,,,0
1643,6290001112479,新規,0,2025-12-10,2025-12-10,株式会社Ｗｈｉｔｅ　Ｇｒａｄａｔｉｏｎ,,株式会社,福岡県,久留米市,六ツ門町２１番地４－１階,,40,203,8300031,,,,,,,2025-12-10,1,,,,,ホワイトグラデーション,0
1645,6290003017775,新規,0,2025-12-10,2025-12-10,合同会社とどろき,,合同会社,福岡県,八女郡広川町,大字藤田４６番地１,,40,544,8340123,,,,,,,2025-12-10,1,,,,,トドロキ,0
1646,6290003017809,新規,0,2025-12-10,2025-12-10,合同会社八木電工,,合同会社,福岡県,福岡市城南区,東油山２丁目１８番１６号,,40,136,8140155,,,,,,,2025-12-10,1,,,,,ヤギデンコウ,0
1652,6320003004844,新規,0,2025-12-10,2025-12-10,合同会社光,,合同会社,大分県,大分市,大字鴛野７９０番地の２,,44,201,8701121,,,,,,,2025-12-10,1,,,,,ヒカル,0
1656,6330005010996,新規,0,2025-12-10,2025-12-10,医療法人社団イエヒト,,その他の設立登記法人,熊本県,熊本市中央区,水前寺３丁目１２番１７号,,43,101,8620950,,,,,,,2025-12-10,1,,,,,イエヒト,0
1658,6350001019841,新規,0,2025-12-10,2025-12-10,株式会社大田ぶどう園,,株式会社,宮崎県,小林市,北西方２８６４番地３８,,45,205,8860006,,,,,,,2025-12-10,1,,,,,オオタブドウエン,0
1662,6360003015458,新規,0,2025-12-10,2025-12-10,合同会社Ｏｂｓｔ,,合同会社,沖縄県,那覇市,久茂地３丁目２６－３２ＹＳＣビル２０２,,47,201,9000015,,,,,,,2025-12-10,1,,,,,オプスト,0
1664,6370001053302,新規,0,2025-12-10,2025-12-10,株式会社Ｓａｎｍａ,,株式会社,宮城県,仙台市宮城野区,萩野町２丁目１７番地の１アメニティ萩野町２０１,,04,102,9830043,,,,,,,2025-12-10,1,,,,,サンマ,0
1665,6370003007413,新規,0,2025-12-10,2025-12-10,合同会社フォルナ,,合同会社,宮城県,仙台市宮城野区,銀杏町３２－２１ベルシティ銀杏町２１３,,04,102,9830047,,,,,,,2025-12-10,1,,,,,フォルナ,0
1666,6370005011041,新規,0,2025-12-10,2025-12-10,医療法人まさと歯科医院,,その他の設立登記法人,宮城県,栗原市,瀬峰下田１９８番地の１,,04,213,9894521,,,,,,,2025-12-10,1,,,,,マサトシカイイン,0
1672,6410001014340,新規,0,2025-12-10,2025-12-10,タテック株式会社,,株式会社,秋田県,秋田市,外旭川字八幡田３１４番地１５,,05,201,0100802,,,,,,,2025-12-10,1,,,,,タテック,0
1675,6420005007983,新規,0,2025-12-10,2025-12-10,税理士法人倉成会計事務所,,その他の設立登記法人,青森県,八戸市,大字本徒士町３番地２,,02,203,0310052,,,,,,,2025-12-10,1,,,,,クラナリカイケイジムショ,0
1678,6430001095809,新規,0,2025-12-10,2025-12-10,成田や莟株式会社,,株式会社,北海道,小樽市,高島１丁目７番９号,,01,203,0470048,,,,,,,2025-12-10,1,,,,,ナリタヤツボミ,0
1679,6430001095817,新規,0,2025-12-10,2025-12-10,ＦＥＣＩＡホールディングス株式会社,,株式会社,北海道,苫小牧市,一本松町２番地９,,01,213,0530001,,,,,,,2025-12-10,1,,,,,フェシアホールディングス,0
1680,6430001095825,新規,0,2025-12-10,2025-12-10,株式会社ＦＡＲＭ　ＦＯＯＤ北海道,,株式会社,北海道,千歳市,清水町２丁目２３番地の１清月ビル２階,,01,224,0660041,,,,,,,2025-12-10,1,,,,,ファームフードホッカイドウ,0
1681,6430001095841,新規,0,2025-12-10,2025-12-10,株式会社天空,,株式会社,北海道,虻田郡喜茂別町,字喜茂別２５２番地４,,01,398,0440201,,,,,,,2025-12-10,1,,,,,テンクウ,0
1685,6480005007111,新規,0,2025-12-10,2025-12-10,全国ＥＣ物販事業者協同組合,,その他の設立登記法人,徳島県,徳島市,三軒屋町東６８番地の１５,,36,201,7708025,,,,,,,2025-12-10,1,,,,,ゼンコクイーシーブッパンジギョウシャ,0
1686,6490001011231,新規,0,2025-12-10,2025-12-10,ＴｒｅａｓｕｒｅＳｈｉｐ株式会社,,株式会社,高知県,香南市,野市町西野１５３８番地９,,39,211,7815232,,,,,,,2025-12-10,1,,,,,トレジャーシップ,0
1689,6700150133309,新規,0,2025-12-10,2025-12-10,日本高周波鋼業健康保険組合,,その他,富山県,射水市,八幡町３丁目１０番１５号,,16,211,9340025,,,,,,,2025-12-10,1,,,,,ニホンコウシュウハコウギョウケンコウホケンクミアイ,0
1690,6700150133317,新規,0,2025-12-10,2025-12-10,三洋化成工業健康保険組合,,その他,京都府,京都市東山区,一橋野本町１１番地の１,,26,105,6050995,,,,,,,2025-12-10,1,,,,,サンヨウカセイコウギョウケンコウホケンクミアイ,0
1706,7010001260998,新規,0,2025-12-10,2025-12-10,株式会社ＦＵＫＵＳＥＮ,,株式会社,東京都,千代田区,神田和泉町１番地６－１６ヤマトビル４０５,,13,101,1010024,,,,,,,2025-12-10,1,,,,,フクセン,0
1707,7010005041049,新規,0,2025-12-10,2025-12-10,妙高ライフスタイルリゾート特定目的会社,,その他の設立登記法人,東京都,中央区,銀座１丁目６番１１号土志田ビルディング３Ｆ,,13,102,1040061,,,,,,,2025-12-10,1,,,,,ミョウコウライフスタイルリゾート,0
1714,7010401195027,新規,0,2025-12-10,2025-12-10,株式会社ＬＩＶＬＩＳ,,株式会社,東京都,港区,南青山３丁目１番３６号青山丸竹ビル６Ｆ,,13,103,1070062,,,,,,,2025-12-10,1,,,,,リヴリス,0
1715,7010403036435,新規,0,2025-12-10,2025-12-10,デザインパブリッシュ合同会社,,合同会社,東京都,港区,南青山２丁目２番１５号ＷＩＮ青山５３１,,13,103,1070062,,,,,,,2025-12-10,1,,,,,デザインパブリッシュ,0
1718,7010501055147,新規,0,2025-12-10,2025-12-10,融川株式会社,,株式会社,東京都,台東区,松が谷３丁目８番６－２０１号室センチュリー東上野,,13,106,1110036,,,,,,,2025-12-10,1,,,,,ユウカワ,0
1721,7010601068395,新規,0,2025-12-10,2025-12-10,図面バンク株式会社,,株式会社,東京都,江東区,豊洲６丁目４番３４号,,13,108,1350061,,,,,,,2025-12-10,1,,,,,ズメンバンク,0
1722,7010601068412,新規,0,2025-12-10,2025-12-10,株式会社ＡＵＴＯＮＥＴ,,株式会社,東京都,江東区,東雲１丁目９番２２－２０２号,,13,108,1350062,,,,,,,2025-12-10,1,,,,,オートネット,0
1728,7010903010468,新規,0,2025-12-10,2025-12-10,合同会社Ｌａｐｙａｌ,,合同会社,東京都,世田谷区,奥沢７丁目３９番８号,,13,112,1580083,,,,,,,2025-12-10,1,,,,,ラピアル,0
1729,7010903010484,新規,0,2025-12-10,2025-12-10,合同会社ファインモーションズ,,合同会社,東京都,世田谷区,経堂１丁目３６－４－１２０,,13,112,1560052,,,,,,,2025-12-10,1,,,,,ファインモーションズ,0
1735,7011001174305,新規,0,2025-12-10,2025-12-10,株式会社Ａｎｖｉａ,,株式会社,東京都,渋谷区,円山町５番５号Ｎａｖｉ渋谷Ｖ３階,,13,113,1500044,,,,,,,2025-12-10,1,,,,,アンヴィア,0
1742,7011103016850,新規,0,2025-12-10,2025-12-10,合同会社スタラボ,,合同会社,東京都,新宿区,大久保３丁目１番３－１１０５号,,13,104,1690072,,,,,,,2025-12-10,1,,,,,スタラボ,0
1747,7011401027649,新規,0,2025-12-10,2025-12-10,ＫＡＹ　ＬＥＯ　ＢＲＯＴＨＥＲＳ　ＬＩＭＩＴＥＤ　ＪＡＰＡＮ株式会社,,株式会社,東京都,板橋区,大谷口１丁目３６番２号エム・エム・ハーヤンク１０１,,13,119,1730035,,,,,,,2025-12-10,1,,,,,ケイレオブラザーズリミテッドジャパン,0
1750,7011701029007,新規,0,2025-12-10,2025-12-10,いなほアセット株式会社,,株式会社,東京都,江戸川区,東葛西６丁目１６番１－４０２号キャピタルコートＸＩＶ,00141823,13,123,1340084,,,,,,,2025-12-10,1,,,,,イナホアセット,0
1751,7012301014638,新規,0,2025-12-10,2025-12-10,Ｐｏｎｏｐｈｏｎｙ　Ｄｅｓｉｇｎ株式会社,,株式会社,東京都,町田市,金井４丁目２２－３５,,13,209,1950072,,,,,,,2025-12-10,1,,,,,ポノフォニーデザイン,0
1752,7012401043900,新規,0,2025-12-10,2025-12-10,中村アセットマネジメント株式会社,,株式会社,東京都,武蔵野市,境１丁目２０番２５号,,13,203,1800022,,,,,,,2025-12-10,1,,,,,ナカムラアセットマネジメント,0
1753,7012401043909,新規,0,2025-12-10,2025-12-10,株式会社ＳｕｐｅｒＦｌａｍ,,株式会社,東京都,武蔵野市,吉祥寺南町２丁目２０番１号オリンピックマンションＢ５,,13,203,1800003,,,,,,,2025-12-10,1,,,,,スーパーフラム,0
1755,7012403007507,新規,0,2025-12-10,2025-12-10,合同会社ＳＴＡＲＳ,,合同会社,東京都,武蔵野市,吉祥寺北町１丁目２６－１８,,13,203,1800001,,,,,,,2025-12-10,1,,,,,スターズ,0
1760,7013301055399,新規,0,2025-12-10,2025-12-10,株式会社ＩＳＴＣｏｒｅ,,株式会社,東京都,豊島区,西池袋５丁目１７番１号,,13,116,1710021,,,,,,,2025-12-10,1,,,,,イストコア,0
1761,7013303007984,新規,0,2025-12-10,2025-12-10,合同会社クラフトブリッジ,,合同会社,東京都,豊島区,東池袋２丁目６２番８号,,13,116,1700013,,,,,,,2025-12-10,1,,,,,クラフトブリッジ,0
1765,7020001166121,新規,0,2025-12-10,2025-12-10,リライブ株式会社,,株式会社,神奈川県,横浜市保土ケ谷区,権太坂２丁目５番２号,,14,106,2400026,,,,,,,2025-12-10,1,,,,,リライブ,0
1766,7020001166146,新規,0,2025-12-10,2025-12-10,株式会社ＡＩＭＥＩＯ,,株式会社,神奈川県,川崎市川崎区,駅前本町１１番地２川崎フロンティアビル４階,,14,131,2100007,,,,,,,2025-12-10,1,,,,,アイメイオ,0
1767,7020001166204,新規,0,2025-12-10,2025-12-10,アセットドア株式会社,,株式会社,神奈川県,横浜市磯子区,杉田２丁目１５番３７号リレイション杉田ＩＩ２０２,00141818,14,107,2350033,,,,,,,2025-12-10,1,,,,,アセットドア,0
1771,7020003029945,新規,0,2025-12-10,2025-12-10,合同会社ＤＳＧクリエイティブオフィス,,合同会社,神奈川県,川崎市麻生区,高石６丁目１５番３６号,,14,137,2150003,,,,,,,2025-12-10,1,,,,,ディーエスジークリエイティブオフィス,0
1780,7021003016875,新規,0,2025-12-10,2025-12-10,ＨＳＴ合同会社,,合同会社,神奈川県,高座郡寒川町,小谷１丁目８番５８号,,14,321,2530103,,,,,,,2025-12-10,1,,,,,エイチエスティ,0
1787,7030001169981,新規,0,2025-12-10,2025-12-10,株式会社ＳＨＯＥＩ,,株式会社,埼玉県,さいたま市見沼区,東大宮４丁目６１番地３５,,11,104,3370051,,,,,,,2025-12-10,1,,,,,ショウエイ,0
1788,7030001170023,新規,0,2025-12-10,2025-12-10,ＹＡＤＯＫＡＲＩ株式会社,,株式会社,埼玉県,狭山市,大字下奥富４９６番地の１６,,11,215,3501332,,,,,,,2025-12-10,1,,,,,ヤドカリ,0
1789,7030001170031,新規,0,2025-12-10,2025-12-10,漢森株式会社,,株式会社,埼玉県,所沢市,大字荒幡１４７番地２,,11,208,3591133,,,,,,,2025-12-10,1,,,,,カンモリ,0
1793,7030005022352,新規,0,2025-12-10,2025-12-10,行政書士法人オフィスクサマ,,その他の設立登記法人,埼玉県,さいたま市浦和区,東高砂町８番１９号ジェンティール浦和５０２,,11,107,3300055,,,,,,,2025-12-10,1,,,,,オフィスクサマ,0
1800,7040001141691,新規,0,2025-12-10,2025-12-10,仁平衛ライスファーム株式会社,,株式会社,千葉県,成田市,台方７３４番地,,12,211,2860003,,,,,,,2025-12-10,1,,,,,ニヘエライスファーム,0
1801,7040003029118,新規,0,2025-12-10,2025-12-10,合同会社ネクストキャリー,,合同会社,千葉県,船橋市,薬園台３－１９－３－２０３,,12,204,2730000,,,,,,,2025-12-10,1,,,,,ネクストキャリー,0
1804,7050001057697,新規,0,2025-12-10,2025-12-10,株式会社まつざき,,株式会社,茨城県,常総市,水海道本町２５７６番地１,,08,211,3030026,,,,,,,2025-12-10,1,,,,,マツザキ,0
1805,7050001057706,新規,0,2025-12-10,2025-12-10,株式会社ＳＯＲＡ,,株式会社,茨城県,行方市,芹沢１６７９番地３,,08,233,3113501,,,,,,,2025-12-10,1,,,,,ソラ,0
1808,7060003005884,新規,0,2025-12-10,2025-12-10,合同会社ＯＫＩＧＡＲＵ,,合同会社,栃木県,小山市,城山町３丁目６番２５号,,09,208,3230025,,,,,,,2025-12-10,1,,,,,オキガル,0
1811,7070001043638,新規,0,2025-12-10,2025-12-10,株式会社ＡＲＫ,,株式会社,群馬県,伊勢崎市,山王町８１２番地４,,10,204,3720831,,,,,,,2025-12-10,1,,,,,アーク,0
1819,7090001019644,新規,0,2025-12-10,2025-12-10,株式会社陽光,,株式会社,山梨県,甲斐市,下今井２３８９番地,,19,210,4000105,,,,,,,2025-12-10,1,,,,,ヨウコウ,0
1838,7120001282362,新規,0,2025-12-10,2025-12-10,株式会社スターリベルラ,,株式会社,大阪府,大阪市中央区,上本町西５丁目２番１６号,,27,128,5420062,,,,,,,2025-12-10,1,,,,,スターリベルラ,0
1839,7120001282585,新規,0,2025-12-10,2025-12-10,Ｍｉｒａｉ　Ｓｙｓｔｅｍｓ株式会社,,株式会社,大阪府,大阪市浪速区,恵美須西３丁目１５－５マンションぐっど３０３,,27,111,5560003,,,,,,,2025-12-10,1,,,,,ミライシステムズ,0
1840,7120001282593,新規,0,2025-12-10,2025-12-10,株式会社オーレリア,,株式会社,大阪府,大阪市北区,梅田１丁目２番２号大阪駅前第２ビル１２－１２,,27,127,5300001,,,,,,,2025-12-10,1,,,,,オーレリア,0
1841,7120001282610,新規,0,2025-12-10,2025-12-10,ＥｘｅＭｅ株式会社,,株式会社,大阪府,大阪市淀川区,西中島３丁目５番１２号新大阪オクノビル６０１号,,27,123,5320011,,,,,,,2025-12-10,1,,,,,エグゼミー,0
1842,7120001282676,新規,0,2025-12-10,2025-12-10,＿茲徳株式会社,00141825,株式会社,大阪府,大阪市中央区,難波１丁目４番６号１０１－１、２ミフネ難波,,27,128,5420076,,,,,,,2025-12-10,1,,,,,カクジトク,0
1850,7120003031429,新規,0,2025-12-10,2025-12-10,合同会社ラボロＬａｂｏ,,合同会社,大阪府,大阪市浪速区,大国３丁目１１番２１号,,27,111,5560014,,,,,,,2025-12-10,1,,,,,ラボロラボ,0
1852,7120101072903,新規,0,2025-12-10,2025-12-10,株式会社ｎａｅ,,株式会社,大阪府,岸和田市,池尻町７９６－２０,,27,202,5960813,,,,,,,2025-12-10,1,,,,,ナエ,0
1853,7120101072936,新規,0,2025-12-10,2025-12-10,株式会社港・ｈａｒｂｏｒ,,株式会社,大阪府,堺市堺区,砂道町１丁７番２２号,,27,141,5900002,,,,,,,2025-12-10,1,,,,,ミナトハーバー,0
1856,7120901051949,新規,0,2025-12-10,2025-12-10,八咫烏株式会社,,株式会社,大阪府,高槻市,八幡町２番２０号ハイツヨシダ１０１号室,,27,207,5690051,,,,,,,2025-12-10,1,,,,,ヤタガラス,0
1857,7122001039981,新規,0,2025-12-10,2025-12-10,アールマンション株式会社,,株式会社,大阪府,東大阪市,長堂１丁目７番１１号,,27,227,5770056,,,,,,,2025-12-10,1,,,,,アールマンション,0
1863,7130001081185,新規,0,2025-12-10,2025-12-10,株式会社カチモチ,,株式会社,京都府,京都市下京区,東塩小路町５７６番地２大橋ビル３階,,26,106,6008216,,,,,,,2025-12-10,1,,,,,カチモチ,0
1873,7160003003671,新規,0,2025-12-10,2025-12-10,英世貿易合同会社,,合同会社,滋賀県,草津市,東草津２丁目６番１－７号,,25,206,5250033,,,,,,,2025-12-10,1,,,,,エイセイボウエキ,0
1882,7180001169827,新規,0,2025-12-10,2025-12-10,株式会社Ｌｉｔｏ,,株式会社,愛知県,名古屋市東区,泉１丁目１７番３号,,23,102,4610001,,,,,,,2025-12-10,1,,,,,リト,0
1892,7180301040489,新規,0,2025-12-10,2025-12-10,株式会社Ｌａｕｇｈ　Ｔａｌｅ,,株式会社,愛知県,岡崎市,井内町字桜井２９番地１,,23,202,4440203,,,,,,,2025-12-10,1,,,,,ラフテル,0
1901,7260001040806,新規,0,2025-12-10,2025-12-10,株式会社Ｍｏｔｏｒｃｙｃｌｅ　Ｇａｒａｇｅ　ＲＳ,,株式会社,岡山県,岡山市北区,御津新庄３１７０番地１,,33,101,7092106,,,,,,,2025-12-10,1,,,,,モーターサイクルガレージアールエス,0
1903,7260005011555,新規,0,2025-12-10,2025-12-10,一般社団法人金融リテラシー推進協会,,その他の設立登記法人,岡山県,津山市,近長１３１番地１,,33,203,7081112,,,,,,,2025-12-10,1,,,,,キンユウリテラシースイシンキョウカイ,0
1904,7270003001821,新規,0,2025-12-10,2025-12-10,合同会社ａｌ　Ｃｏｖｏ,,合同会社,鳥取県,西伯郡伯耆町,金屋谷１７１４番地１１,,31,390,6894213,,,,,,,2025-12-10,1,,,,,アルコーヴォ,0
1913,7290001112478,新規,0,2025-12-10,2025-12-10,株式会社ＥＭＡ,,株式会社,福岡県,糸島市,高田１丁目３２番１２号,,40,230,8191102,,,,,,,2025-12-10,1,,,,,イーエムエー,0
1914,7290003017816,新規,0,2025-12-10,2025-12-10,合同会社ＬｉｎｋＡ,,合同会社,福岡県,小郡市,井上６８１番地１市営井上第２住宅５０１号,,40,216,8380114,,,,,,,2025-12-10,1,,,,,リンクエース,0
1917,7320001021477,新規,0,2025-12-10,2025-12-10,株式会社ワーカーズホテル,,株式会社,大分県,大分市,三佐５丁目２番３９号,,44,201,8700108,,,,,,,2025-12-10,1,,,,,ワーカーズホテル,0
1919,7320003004843,新規,0,2025-12-10,2025-12-10,合同会社しゃかりき,,合同会社,大分県,大分市,都町２丁目４－１１パリス都町ビル１Ｆ,,44,201,8700034,,,,,,,2025-12-10,1,,,,,シャカリキ,0
1920,7320003004851,新規,0,2025-12-10,2025-12-10,合同会社フィールドケイプ,,合同会社,大分県,大分市,三川下２丁目３番３１号,,44,201,8700142,,,,,,,2025-12-10,1,,,,,フィールドケイプ,0
1922,7330003011343,新規,0,2025-12-10,2025-12-10,合同会社東雲,,合同会社,熊本県,熊本市中央区,九品寺５丁目２番５０－２１１号,,43,101,8620976,,,,,,,2025-12-10,1,,,,,シノノメ,0
1925,7360003015457,新規,0,2025-12-10,2025-12-10,合同会社吉徳,,合同会社,沖縄県,那覇市,曙２丁目９－２高良ハウス医療ビル３階,,47,201,9000002,,,,,,,2025-12-10,1,,,,,ヨシノリ,0
1926,7370001053301,新規,0,2025-12-10,2025-12-10,高野株式会社,00141817,株式会社,宮城県,仙台市宮城野区,萩野町１丁目１番１０号,,04,102,9830043,,,,,,,2025-12-10,1,,,,,タカノ,0
1931,7410003004181,新規,0,2025-12-10,2025-12-10,合同会社幸歩,,合同会社,秋田県,秋田市,千秋北の丸３番４号,,05,201,0100872,,,,,,,2025-12-10,1,,,,,コウホ,0
1939,7430001095758,新規,0,2025-12-10,2025-12-10,ゼロハチ株式会社,,株式会社,北海道,札幌市厚別区,厚別南１丁目１３‐１６アルビオガーデンひばりヶ丘１０６,,01,108,0040022,,,,,,,2025-12-10,1,,,,,ゼロハチ,0
1940,7430001095799,新規,0,2025-12-10,2025-12-10,株式会社るーにゃん,,株式会社,北海道,札幌市西区,八軒一条西１丁目２番５－３３０４号,,01,107,0630841,,,,,,,2025-12-10,1,,,,,ルーニャン,0
1941,7430001095832,新規,0,2025-12-10,2025-12-10,株式会社Ｂ．Ｂ．Ｙ,,株式会社,北海道,石狩市,花川南一条１丁目３４番地,,01,235,0613201,,,,,,,2025-12-10,1,,,,,ビービーワイ,0
1949,7490001011230,新規,0,2025-12-10,2025-12-10,株式会社ＫＩＴ,,株式会社,高知県,高知市,朝倉東町４１番３号,,39,201,7808076,,,,,,,2025-12-10,1,,,,,キット,0
1951,7700150133308,新規,0,2025-12-10,2025-12-10,澁澤健康保険組合,,その他,東京都,江東区,永代２丁目３７番２８号,,13,108,1350034,,,,,,,2025-12-10,1,,,,,シブサワケンコウホケンクミアイ,0
1952,7700150133316,新規,0,2025-12-10,2025-12-10,日本電設工業健康保険組合,,その他,東京都,台東区,池之端１丁目２番２３号,,13,106,1100008,,,,,,,2025-12-10,1,,,,,ニホンデンセツコウギョウケンコウホケンクミアイ,0
1962,8010001260799,新規,0,2025-12-10,2025-12-10,エイターネットワークス株式会社,,株式会社,東京都,千代田区,丸の内２丁目５番２号,,13,101,1000005,,,,,,,2025-12-10,1,,,,,エイターネットワークス,0
1963,8010001261129,新規,0,2025-12-10,2025-12-10,株式会社Ａｉｓｏｍｅｔｒｙ,,株式会社,東京都,文京区,本郷６丁目２５番１４号,,13,105,1130033,,,,,,,2025-12-10,1,,,,,アイソメトリー,0
1965,8010003049621,新規,0,2025-12-10,2025-12-10,合同会社ＬＯＦＫ,,合同会社,東京都,千代田区,神田神保町２丁目１０－３１ＩＷビル１Ｆ,,13,101,1010051,,,,,,,2025-12-10,1,,,,,ロフ,0
1967,8010005040999,新規,0,2025-12-10,2025-12-10,一般社団法人広府人商会,,その他の設立登記法人,東京都,千代田区,神田須田町１丁目１０番４２号エスペランサ神田須田町３Ｂ,,13,101,1010041,,,,,,,2025-12-10,1,,,,,ヒロフジンショウカイ,0
1973,8010401194829,新規,0,2025-12-10,2025-12-10,ＮＩＨＡ株式会社,,株式会社,東京都,港区,北青山１丁目３番１号アールキューブ青山３階,,13,103,1070061,,,,,,,2025-12-10,1,,,,,ニーハ,0
1974,8010401194993,新規,0,2025-12-10,2025-12-10,株式会社Ｃｏｎｃｅｐｔ　Ｐｏｗｅｒ,,株式会社,東京都,港区,南青山３丁目１番３６号青山丸竹ビル６Ｆ,,13,103,1070062,,,,,,,2025-12-10,1,,,,,コンセプトパワー,0
1975,8010401195091,新規,0,2025-12-10,2025-12-10,株式会社サードパワープロモーション,,株式会社,東京都,港区,東麻布２丁目２８番６号ＴＡＣ東麻布５０１,,13,103,1060044,,,,,,,2025-12-10,1,,,,,サードパワープロモーション,0
1978,8010403036772,新規,0,2025-12-10,2025-12-10,合同会社イシハラショップス,,合同会社,東京都,港区,浜松町２丁目２番１５号浜松町ダイヤビル２Ｆ,,13,103,1050013,,,,,,,2025-12-10,1,,,,,イシハラショップス,0
1981,8010501055146,新規,0,2025-12-10,2025-12-10,株式会社浅草本家かね惣,,株式会社,東京都,台東区,浅草１丁目１７番９号,,13,106,1110032,,,,,,,2025-12-10,1,,,,,アサクサホンケカネソウ,0
1984,8010801036853,新規,0,2025-12-10,2025-12-10,株式会社ＥＫＴ,,株式会社,東京都,大田区,大森北２丁目１３番３１－１７０７号,,13,111,1430016,,,,,,,2025-12-10,1,,,,,イーケーティー,0
1985,8010803005641,新規,0,2025-12-10,2025-12-10,合同会社山武,,合同会社,東京都,大田区,下丸子４丁目１０番１４号サンハイム小西３０１,,13,111,1460092,,,,,,,2025-12-10,1,,,,,ヤマタケ,0
1992,8010901058590,新規,0,2025-12-10,2025-12-10,株式会社ＯＢＯＲＯ　ＣＯＬＬＥＣＴＩＶＥ,,株式会社,東京都,世田谷区,松原５丁目５番１８号,,13,112,1560043,,,,,,,2025-12-10,1,,,,,オボロコレクティブ,0
1995,8010903010475,新規,0,2025-12-10,2025-12-10,合同会社ｉｓｏ　ｄｅｓｉｇｎ,,合同会社,東京都,世田谷区,船橋７丁目１７番１７－３０８号,,13,112,1560055,,,,,,,2025-12-10,1,,,,,イソデザイン,0
1996,8010903010483,新規,0,2025-12-10,2025-12-10,千界合同会社,,合同会社,東京都,世田谷区,瀬田３丁目１番１３－３０７号,,13,112,1580095,,,,,,,2025-12-10,1,,,,,センカイ,0
2003,8011001173792,新規,0,2025-12-10,2025-12-10,株式会社ｓｏｃｉｏｔｔ,,株式会社,東京都,渋谷区,神泉町１０番１５号アネックス神泉３０１,,13,113,1500045,,,,,,,2025-12-10,1,,,,,ソシオット,0
2004,8011001174246,新規,0,2025-12-10,2025-12-10,株式会社ＫＩＫＵ,,株式会社,東京都,渋谷区,元代々木町３９番５号,,13,113,1510062,,,,,,,2025-12-10,1,,,,,キク,0
2005,8011001174312,新規,0,2025-12-10,2025-12-10,株式会社ＷＡＳＨ２,,株式会社,東京都,目黒区,駒場４丁目１番９号,,13,110,1530041,,,,,,,2025-12-10,1,,,,,ウォッシュツー,0
2006,8011003023087,新規,0,2025-12-10,2025-12-10,Ａｓｐｉｒａ　Ｃｒｅａｔｉｖｅ合同会社,,合同会社,東京都,渋谷区,道玄坂１丁目１０番８号渋谷道玄坂東急ビル２Ｆ－Ｃ,,13,113,1500043,,,,,,,2025-12-10,1,,,,,アスピラクリエイティブ,0
2010,8011101114102,新規,0,2025-12-10,2025-12-10,ジーエヌケー株式会社,,株式会社,東京都,新宿区,西早稲田１丁目２３番１６－２３０５号,,13,104,1690051,,,,,,,2025-12-10,1,,,,,ジーエヌケー,0
2014,8011403004967,新規,0,2025-12-10,2025-12-10,合同会社ＣＨＥＳＴ　ＳＴＵＤＩＯ,,合同会社,東京都,板橋区,高島平５丁目２８番５号,,13,119,1750082,,,,,,,2025-12-10,1,,,,,チェストスタジオ,0
2019,8011701029014,新規,0,2025-12-10,2025-12-10,株式会社イワダテリンク,,株式会社,東京都,江戸川区,船堀４丁目４番２１－８０３号,,13,123,1340091,,,,,,,2025-12-10,1,,,,,イワダテリンク,0
2023,8012401043908,新規,0,2025-12-10,2025-12-10,株式会社カミーノ・ピアジェム,,株式会社,東京都,武蔵野市,中町２丁目１３番９－１０５号ザ・パークハウス武蔵野中町,,13,203,1800006,,,,,,,2025-12-10,1,,,,,カミーノピアジェム,0
2031,8020001166203,新規,0,2025-12-10,2025-12-10,株式会社ＧＲＡＵＮ,,株式会社,神奈川県,川崎市麻生区,上麻生７丁目１３番１号,,14,137,2150021,,,,,,,2025-12-10,1,,,,,グラウン,0
2032,8020001166244,新規,0,2025-12-10,2025-12-10,菩泰来株式会社,,株式会社,神奈川県,横浜市中区,山下町１３０番地１０,,14,104,2310023,,,,,,,2025-12-10,1,,,,,フータイライ,0
2037,8021001086944,新規,0,2025-12-10,2025-12-10,イクヨオートモーティブ株式会社,,株式会社,神奈川県,厚木市,上依知３０１９番地,,14,212,2430801,,,,,,,2025-12-10,1,,,,,イクヨオートモーティブ,0
2038,8021001086969,新規,0,2025-12-10,2025-12-10,株式会社ポラリス,,株式会社,神奈川県,鎌倉市,七里ガ浜東３丁目２４番８号,,14,204,2480025,,,,,,,2025-12-10,1,,,,,ポラリス,0
2039,8021003016874,新規,0,2025-12-10,2025-12-10,合同会社みらいのために,,合同会社,神奈川県,藤沢市,湘南台４丁目１５番地の１０,,14,205,2520804,,,,,,,2025-12-10,1,,,,,ミライノタメニ,0
2051,8030001169873,新規,0,2025-12-10,2025-12-10,株式会社ＭＡＮＳＯＯＲＩ　ＴＲＡＤＩＮＧ,,株式会社,埼玉県,坂戸市,大字片柳１５９１番地８,,11,239,3500219,,,,,,,2025-12-10,1,,,,,マンソーリトレーディング,0
2062,8040001141724,新規,0,2025-12-10,2025-12-10,株式会社ＹＭＯ,,株式会社,千葉県,旭市,ロ３４７－３,,12,215,2892516,,,,,,,2025-12-10,1,,,,,ワイエムオー,0
2073,8050003009786,新規,0,2025-12-10,2025-12-10,合同会社ＳＡＭＥ,,合同会社,茨城県,那珂郡東海村,舟石川駅東３丁目１－１東海村産業・情報プラザ２階Ｄ－６,,08,341,3191118,,,,,,,2025-12-10,1,,,,,セイム,0
2077,8060003005883,新規,0,2025-12-10,2025-12-10,合同会社みやえがお,,合同会社,栃木県,宇都宮市,今泉町３０２０－１,,09,201,3210962,,,,,,,2025-12-10,1,,,,,ミヤエガオ,0
2086,8080001027317,新規,0,2025-12-10,2025-12-10,株式会社曙電気工業所,,株式会社,静岡県,島田市,向谷２丁目６番１４号,,22,209,4270039,,,,,,,2025-12-10,1,,,,,アケボノデンキコウギョウショ,0
2088,8080101025922,新規,0,2025-12-10,2025-12-10,ＳＨＩＡＷＡＳＥＭＵＲＡ株式会社,,株式会社,静岡県,熱海市,昭和町５－３３－３０２,,22,205,4130022,,,,,,,2025-12-10,1,,,,,シアワセムラ,0
2089,8080101025955,新規,0,2025-12-10,2025-12-10,スリーファイブ株式会社,,株式会社,静岡県,富士宮市,弓沢町４４５番地の２７,,22,207,4180073,,,,,,,2025-12-10,1,,,,,スリーファイブ,0
2095,8100003008510,新規,0,2025-12-10,2025-12-10,合同会社ＫＩＴＡＺＡＷＡ,,合同会社,長野県,茅野市,米沢６１０３番地渋木米沢荘,,20,214,3910216,,,,,,,2025-12-10,1,,,,,キタザワ,0
2111,8120001282576,新規,0,2025-12-10,2025-12-10,株式会社メディシーク,,株式会社,大阪府,大阪市北区,梅田１丁目１－３大阪駅前第３ビル２９階１－１－１号室,,27,127,5300001,,,,,,,2025-12-10,1,,,,,メディシーク,0
2112,8120001282584,新規,0,2025-12-10,2025-12-10,東勝株式会社,,株式会社,大阪府,大阪市平野区,平野本町４丁目５－３－４０２,,27,126,5470044,,,,,,,2025-12-10,1,,,,,トウショウ,0
2113,8120001282618,新規,0,2025-12-10,2025-12-10,台湾華語文学習センター株式会社,,株式会社,大阪府,大阪市港区,弁天３丁目１７番６号,,27,107,5520007,,,,,,,2025-12-10,1,,,,,タイワンカゴブンガクシュウセンター,0
2114,8120001282626,新規,0,2025-12-10,2025-12-10,株式会社味園不動産,,株式会社,大阪府,大阪市中央区,千日前２丁目３番９号,,27,128,5420074,,,,,,,2025-12-10,1,,,,,ミソノフドウサン,0
2115,8120001282667,新規,0,2025-12-10,2025-12-10,株式会社ｏａｋ,,株式会社,大阪府,大阪市北区,梅田１丁目２番２号大阪駅前第２ビル１２－１２,,27,127,5300001,,,,,,,2025-12-10,1,,,,,オーク,0
2119,8120003031428,新規,0,2025-12-10,2025-12-10,＿＿合同会社,00141820,合同会社,大阪府,大阪市東住吉区,矢田３丁目１３番２－２０２号,,27,121,5460023,,,,,,,2025-12-10,1,,,,,トウキ,0
2120,8120003031436,新規,0,2025-12-10,2025-12-10,Ｓｔａｒｆｉｎｃｈ合同会社,,合同会社,大阪府,大阪市北区,梅田１丁目２番２号大阪駅前第２ビル１２－１２,,27,127,5300001,,,,,,,2025-12-10,1,,,,,スターフィンチ,0
2123,8120101072910,新規,0,2025-12-10,2025-12-10,精神医療サポートセンターホールディングス株式会社,,株式会社,大阪府,泉佐野市,市場東３丁目３番８号（４階）,,27,213,5980005,,,,,,,2025-12-10,1,,,,,セイシンイリョウサポートセンターホールディングス,0
2126,8120901051948,新規,0,2025-12-10,2025-12-10,株式会社ＩＳ　Ｔｅｃｈｎｉｃａｌ,,株式会社,大阪府,茨木市,上野町１番５号の３,,27,211,5670064,,,,,,,2025-12-10,1,,,,,アイエステクニカル,0
2127,8120905006816,新規,0,2025-12-10,2025-12-10,税理士法人Ｕ,,その他の設立登記法人,大阪府,茨木市,春日２丁目２番２５号,,27,211,5670031,,,,,,,2025-12-10,1,,,,,ユー,0
2137,8130001081176,新規,0,2025-12-10,2025-12-10,Ａｍｏｒ株式会社,,株式会社,京都府,京都市下京区,七条通油小路東入大黒町２２７番地第２キョートビル４０２,,26,106,6008223,,,,,,,2025-12-10,1,,,,,アモール,0
2138,8130001081201,新規,0,2025-12-10,2025-12-10,株式会社スターエイド,,株式会社,京都府,京都市左京区,岩倉村松町８２番地１７,,26,103,6060034,,,,,,,2025-12-10,1,,,,,スターエイド,0
2144,8140001141045,新規,0,2025-12-10,2025-12-10,株式会社トラストホールディングス,,株式会社,兵庫県,赤穂市,加里屋９０番地の３,,28,212,6780239,,,,,,,2025-12-10,1,,,,,トラストホールディングス,0
2151,8160003003670,新規,0,2025-12-10,2025-12-10,アツシ・アソシエイツ合同会社,,合同会社,滋賀県,大津市,青山４丁目７番４号,,25,201,5202101,,,,,,,2025-12-10,1,,,,,アツシアソシエイツ,0
2157,8180001169818,新規,0,2025-12-10,2025-12-10,アルテミスコンサルティング株式会社,,株式会社,愛知県,名古屋市熱田区,四番２丁目１７番２８号,,23,109,4560051,,,,,,,2025-12-10,1,,,,,アルテミスコンサルティング,0
2158,8180001169834,新規,0,2025-12-10,2025-12-10,ＳＵＬＥＹＭＡＮ解体工株式会社,,株式会社,愛知県,名古屋市熱田区,八番１丁目４番１５号,,23,109,4560059,,,,,,,2025-12-10,1,,,,,スレイマンカイタイコウ,0
2159,8180003029409,新規,0,2025-12-10,2025-12-10,合同会社絆,,合同会社,愛知県,春日井市,押沢台５丁目１９番４,,23,206,4870005,,,,,,,2025-12-10,1,,,,,キズナ,0
2162,8180301040488,新規,0,2025-12-10,2025-12-10,ＣＳＡ　Ｇｒｏｕｐ株式会社,,株式会社,愛知県,岡崎市,在家町字竹戸１０番地,,23,202,4440245,,,,,,,2025-12-10,1,,,,,シーエスエーグループ,0
2181,8270001009345,新規,0,2025-12-10,2025-12-10,株式会社グロウス,,株式会社,鳥取県,鳥取市,松並町２丁目２７８番地５,,31,201,6800801,,,,,,,2025-12-10,1,,,,,グロウス,0
2187,8290001112337,新規,0,2025-12-10,2025-12-10,株式会社ＴＯＰＰＡ‐ＣＯ,,株式会社,福岡県,福岡市博多区,博多駅前２丁目１９番１７号トーカン博多第５ビル３１２号室,,40,132,8120011,,,,,,,2025-12-10,1,,,,,トッパコウ,0
2188,8290001112428,新規,0,2025-12-10,2025-12-10,株式会社グラウンドワン,,株式会社,福岡県,福岡市城南区,神松寺１丁目１９番３０号,,40,136,8140121,,,,,,,2025-12-10,1,,,,,グラウンドワン,0
2189,8290001112460,新規,0,2025-12-10,2025-12-10,株式会社森林の湯,,株式会社,福岡県,久留米市,東合川９丁目１６番５０号,,40,203,8390809,,,,,,,2025-12-10,1,,,,,シンリンノユ,0
2191,8290003017823,新規,0,2025-12-10,2025-12-10,合同会社相談支援事業所くもりのちはれ,,合同会社,福岡県,福岡市東区,名島４丁目６８－３,,40,131,8130043,,,,,,,2025-12-10,1,,,,,ソウダンシエンジギョウショクモリノチハレ,0
2192,8290003017831,新規,0,2025-12-10,2025-12-10,Ｙ’ｓ　ｇｒｏｕｐ合同会社,,合同会社,福岡県,福岡市博多区,千代６丁目６番２号１棟５号店舗,,40,132,8120044,,,,,,,2025-12-10,1,,,,,ワイズグループ,0
2202,8360001036116,新規,0,2025-12-10,2025-12-10,株式会社翔テクノロジーコンサルティング,,株式会社,沖縄県,豊見城市,字宜保７７番地２（２階）,,47,212,9010244,,,,,,,2025-12-10,1,,,,,ショウテクノロジーコンサルティング,0
2203,8370001053291,新規,0,2025-12-10,2025-12-10,株式会社ＢＥＮＮＥＴＴ,,株式会社,宮城県,柴田郡柴田町,船岡中央３丁目７番２０号,,04,323,9891601,,,,,,,2025-12-10,1,,,,,ベネット,0
2208,8390001018185,新規,0,2025-12-10,2025-12-10,虹彩珈琲株式会社,,株式会社,山形県,山形市,大字山寺４２７６－２,,06,201,9993301,,,,,,,2025-12-10,1,,,,,,0
2215,8430001095848,新規,0,2025-12-10,2025-12-10,協和ホールディングス株式会社,,株式会社,北海道,札幌市白石区,川北一条２丁目６番１６号,,01,104,0030851,,,,,,,2025-12-10,1,,,,,キョウワホールディングス,0
2216,8430003018402,新規,0,2025-12-10,2025-12-10,合同会社３０２４,,合同会社,北海道,札幌市北区,北十条西３丁目２３番地１,,01,102,0010010,,,,,,,2025-12-10,1,,,,,サンゼロニーヨン,0
2222,8470001021008,新規,0,2025-12-10,2025-12-10,株式会社五大,,株式会社,香川県,観音寺市,観音寺町甲３１６３番地２６,,37,205,7680060,,,,,,,2025-12-10,1,,,,,ゴダイ,0
2225,8500001026671,新規,0,2025-12-10,2025-12-10,ＴＳＫＳＰＣ１株式会社,,株式会社,愛媛県,西条市,大町６０４番地の７,,38,206,7930030,,,,,,,2025-12-10,1,,,,,ティーエスケーエスピーシーイチ,0
2229,8700150133307,新規,0,2025-12-10,2025-12-10,ＳＭＢＣ日興証券グループ健康保険組合,,その他,東京都,中央区,日本橋小網町９番２号,,13,102,1030016,,,,,,,2025-12-10,1,,,,,エスエムビーシーニッコウショウケングループケンコウホケンクミアイ,0
2230,8700150133315,新規,0,2025-12-10,2025-12-10,全日本空輸健康保険組合,,その他,東京都,港区,東新橋１丁目５番２号,,13,103,1050021,,,,,,,2025-12-10,1,,,,,ゼンニッポンクウユケンコウホケンクミアイ,0
2231,9010001007919,新規,0,2025-12-10,2025-12-10,弥栄興産株式会社,00141731,株式会社,東京都,文京区,湯島３丁目２３番１号,,13,105,1130034,,,,,,,2025-12-10,1,,,,,ヤエイコウサン,0
2242,9010001260897,新規,0,2025-12-10,2025-12-10,株式会社ディーキューブド,,株式会社,東京都,文京区,本駒込２丁目２３番２号,,13,105,1130021,,,,,,,2025-12-10,1,,,,,ディーキューブド,0
2260,9010401195058,新規,0,2025-12-10,2025-12-10,株式会社ＮＣＣＳ,,株式会社,東京都,港区,北青山１丁目３－３三橋ビル３階,,13,103,1070061,,,,,,,2025-12-10,1,,,,,,0
2266,9010505003661,新規,0,2025-12-10,2025-12-10,一般社団法人日本トレーディングカード協会,,その他の設立登記法人,東京都,台東区,上野１丁目３－５ピドル川田２０３,,13,106,1100005,,,,,,,2025-12-10,1,,,,,ニホントレーディングカードキョウカイ,0
2268,9010601068410,新規,0,2025-12-10,2025-12-10,Ｓｔａｙ　Ａｓａｋｕｓａ株式会社,,株式会社,東京都,墨田区,東駒形３丁目１７番３号,,13,107,1300005,,,,,,,2025-12-10,1,,,,,ステイアサクサ,0
2272,9010605004527,新規,0,2025-12-10,2025-12-10,一般社団法人砂町よっちゃん家,,その他の設立登記法人,東京都,江東区,東砂７丁目９番１３号,,13,108,1360074,,,,,,,2025-12-10,1,,,,,スナマチヨッチャンチ,0
2273,9010701048626,新規,0,2025-12-10,2025-12-10,株式会社Ｔ＆Ｙ　Ｐａｒｔｎｅｒｓ,,株式会社,東京都,品川区,西品川１丁目２番１－１０３号,,13,109,1410033,,,,,,,2025-12-10,1,,,,,ティアンドワイパートナーズ,0
2274,9010701048733,新規,0,2025-12-10,2025-12-10,株式会社プラム,,株式会社,東京都,品川区,上大崎２丁目１５番１９号,,13,109,1410021,,,,,,,2025-12-10,1,,,,,プラム,0
2275,9010801036860,新規,0,2025-12-10,2025-12-10,株式会社清田,,株式会社,東京都,大田区,西蒲田７丁目２５番２－９０１号,,13,111,1440051,,,,,,,2025-12-10,1,,,,,キヨタ,0
2279,9010903010466,新規,0,2025-12-10,2025-12-10,合同会社ミラツク,,合同会社,東京都,世田谷区,代沢３丁目２２－１６,,13,112,1550032,,,,,,,2025-12-10,1,,,,,ミラツク,0
2280,9010903010474,新規,0,2025-12-10,2025-12-10,ＮＩＰＰＯキャピタル合同会社,,合同会社,東京都,世田谷区,北烏山１丁目３０番１４号,,13,112,1570061,,,,,,,2025-12-10,1,,,,,ニッポキャピタル,0
2281,9010903010482,新規,0,2025-12-10,2025-12-10,合同会社ルカセヌ,,合同会社,東京都,世田谷区,若林１丁目３２番３号３０３号室,,13,112,1540023,,,,,,,2025-12-10,1,,,,,ルカセヌ,0
2284,9011001173635,新規,0,2025-12-10,2025-12-10,株式会社ＶＩＫＴｏｒｙ　ｒｕｓｈ,,株式会社,東京都,渋谷区,広尾１丁目２番１号ヒカリビル４階,,13,113,1500012,,,,,,,2025-12-10,1,,,,,ビクトリーラッシュ,0
2285,9011001173767,新規,0,2025-12-10,2025-12-10,株式会社ＡＭＯＶＥ,,株式会社,東京都,渋谷区,神南１丁目１１－４ＦＰＧリンクス神南５階,,13,113,1500041,,,,,,,2025-12-10,1,,,,,エイムーブ,0
2286,9011001174162,新規,0,2025-12-10,2025-12-10,株式会社ＳＤＩ,,株式会社,東京都,渋谷区,富ヶ谷１丁目４６番地２－３０２号,,13,113,1510063,,,,,,,2025-12-10,1,,,,,エスディアイ,0
2287,9011001174286,新規,0,2025-12-10,2025-12-10,ＥＢＯＳＩ株式会社,,株式会社,東京都,目黒区,駒場３丁目１１番９号フラッツ駒場２０２号室,,13,110,1530041,,,,,,,2025-12-10,1,,,,,エボシ,0
2289,9011003023144,新規,0,2025-12-10,2025-12-10,合同会社ＮｏｉｃｅＫｉｔ,,合同会社,東京都,渋谷区,渋谷２丁目１９－１５宮益坂ビルディング６０９,,13,113,1500002,,,,,,,2025-12-10,1,,,,,ノイスキット,0
2297,9011201026849,新規,0,2025-12-10,2025-12-10,ＺＩＯＮ株式会社,,株式会社,東京都,中野区,本町６丁目２７番８－３０２号,,13,114,1640012,,,,,,,2025-12-10,1,,,,,ザイオン,0
2301,9011501032877,新規,0,2025-12-10,2025-12-10,株式会社Ｇｏｉｎｇ　ｘ,,株式会社,東京都,荒川区,西日暮里２丁目２０番１－２００２号,,13,118,1160013,,,,,,,2025-12-10,1,,,,,ゴーイングエックス,0
2307,9011803007214,新規,0,2025-12-10,2025-12-10,Ｂｌｅｓｓｅｄ　Ｒｏａｄ合同会社,,合同会社,東京都,足立区,東綾瀬２丁目１１－１－８－３０３,,13,121,1200004,,,,,,,2025-12-10,1,,,,,ブレスドロード,0
2308,9012403007505,新規,0,2025-12-10,2025-12-10,ＬｕｍｅＳｔｕｄｉｏ合同会社,,合同会社,東京都,小金井市,中町２丁目８－１１,,13,210,1840012,,,,,,,2025-12-10,1,,,,,ルミスタジオ,0
2310,9012701019227,新規,0,2025-12-10,2025-12-10,株式会社プロテックス,,株式会社,東京都,東村山市,廻田町２丁目２６番地３５,,13,213,1890025,,,,,,,2025-12-10,1,,,,,プロテックス,0
2311,9012801024408,新規,0,2025-12-10,2025-12-10,株式会社ＧｏｏｄＴｈｉｃｋ,,株式会社,東京都,立川市,曙町２丁目１１番７号,,13,202,1900012,,,,,,,2025-12-10,1,,,,,グッドシック,0
2313,9013303007982,新規,0,2025-12-10,2025-12-10,合同会社ＬＩＧＡＳＩＡ,,合同会社,東京都,豊島区,池袋２丁目５１番１０号,,13,116,1710014,,,,,,,2025-12-10,1,,,,,リガーシア,0
2322,9020001166235,新規,0,2025-12-10,2025-12-10,株式会社麻田商会,,株式会社,神奈川県,横浜市旭区,さちが丘１６５－１０ＨｉｌｌＴｏｐ二俣川３０２号室,,14,112,2410822,,,,,,,2025-12-10,1,,,,,アサダショウカイ,0
2327,9021001087009,新規,0,2025-12-10,2025-12-10,キギ株式会社,,株式会社,神奈川県,鎌倉市,稲村ガ崎５丁目３９－２０,,14,204,2480024,,,,,,,2025-12-10,1,,,,,キギ,0
2333,9030001170021,新規,0,2025-12-10,2025-12-10,株式会社祝成,,株式会社,埼玉県,さいたま市岩槻区,大字黒谷１２６７－２,,11,110,3390033,,,,,,,2025-12-10,1,,,,,シュクセイ,0
2350,9050001057720,新規,0,2025-12-10,2025-12-10,池田工業株式会社,,株式会社,茨城県,神栖市,知手中央９丁目４番３１－３号,,08,232,3140112,,,,,,,2025-12-10,1,,,,,イケダコウギョウ,0
2356,9060005010393,新規,0,2025-12-10,2025-12-10,社会保険労務士法人宇都宮社労士事務所,,その他の設立登記法人,栃木県,宇都宮市,下田原町１７８０番地１４,,09,201,3291115,,,,,,,2025-12-10,1,,,,,ウツノミヤシャロウシジムショ,0
2359,9080103003487,新規,0,2025-12-10,2025-12-10,合同会社ネオリンク,,合同会社,静岡県,富士市,木島４７８番地の２,,22,210,4213304,,,,,,,2025-12-10,1,,,,,ネオリンク,0
2361,9090001019642,新規,0,2025-12-10,2025-12-10,株式会社エウレカベッツ,,株式会社,山梨県,甲府市,飯田４丁目８番２２号,,19,201,4000035,,,,,,,2025-12-10,1,,,,,エウレカベッツ,0
2382,9120001282286,新規,0,2025-12-10,2025-12-10,ＡＹＡＳＴＡＹ株式会社,,株式会社,大阪府,大阪市東成区,中道１丁目４－１３－１０４室,,27,115,5370025,,,,,,,2025-12-10,1,,,,,アヤステイ,0
2383,9120001282567,新規,0,2025-12-10,2025-12-10,株式会社ＨＣＴ,,株式会社,大阪府,大阪市西淀川区,千丹二丁目２番１３号,,27,113,5550000,,,,,,,2025-12-10,1,,,,,エイチシーティー,0
2384,9120001282625,新規,0,2025-12-10,2025-12-10,Ｓａｍ　ｓｔａｒ株式会社,,株式会社,大阪府,大阪市中央区,平野町３丁目３番１１－９０２号,,27,128,5410046,,,,,,,2025-12-10,1,,,,,サムスター,0
2385,9120001282658,新規,0,2025-12-10,2025-12-10,泉通株式会社,,株式会社,大阪府,大阪市西区,西本町２丁目４番１９－２１２号,,27,106,5500005,,,,,,,2025-12-10,1,,,,,センツウ,0
2386,9120001282666,新規,0,2025-12-10,2025-12-10,株式会社ＳｕｎＲａｙ,,株式会社,大阪府,大阪市中央区,瓦屋町１丁目１４番１８号ＣｅｎｔｕｒｙＳｕｎｓｈｉｎｅＴｏｗｅｒ７０１号室,,27,128,5420066,,,,,,,2025-12-10,1,,,,,サンレイ,0
2397,9120101072934,新規,0,2025-12-10,2025-12-10,ジャパンエステート株式会社,,株式会社,大阪府,羽曳野市,向野２丁目７０番３号,,27,222,5830883,,,,,,,2025-12-10,1,,,,,ジャパンエステート,0
2398,9120101072942,新規,0,2025-12-10,2025-12-10,株式会社アンドユー,,株式会社,大阪府,泉大津市,豊中町３丁目７番９号,,27,206,5950023,,,,,,,2025-12-10,1,,,,,アンドユー,0
2400,9120103006881,新規,0,2025-12-10,2025-12-10,合同会社ＭＵＣＫＥＮトレーディング,,合同会社,大阪府,岸和田市,下野町２丁目１１番１－２０２号柳田方,,27,202,5960041,,,,,,,2025-12-10,1,,,,,ムケントレーディング,0
2407,9120905006815,新規,0,2025-12-10,2025-12-10,一般社団法人ＳＭＩＬＩＡ,,その他の設立登記法人,大阪府,池田市,石橋２丁目１番１号,,27,204,5630032,,,,,,,2025-12-10,1,,,,,スマイリア,0
2415,9130003010990,新規,0,2025-12-10,2025-12-10,アマテラス合同会社,,合同会社,京都府,京都市下京区,大黒町２２７,,26,106,6008043,,,,,,,2025-12-10,1,,,,,アマテラス,0
2419,9140001141044,新規,0,2025-12-10,2025-12-10,株式会社ＴＳＤＣ,,株式会社,兵庫県,神戸市中央区,加納町４丁目１０番２３－１２０６号,,28,110,6500001,,,,,,,2025-12-10,1,,,,,ティーエスディーシー,0
2420,9140005027727,新規,0,2025-12-10,2025-12-10,特定非営利活動法人Ｇｒｅｅｎ　Ｄａｙｓ　Ｊａｐａｎ,,その他の設立登記法人,兵庫県,西脇市,黒田庄町岡３９７番地,,28,213,6790313,,,,,,,2025-12-10,1,,,,,グリーンデイズジャパン,0
2429,9170001018909,新規,0,2025-12-10,2025-12-10,株式会社マツムラ酒食クラブ,,株式会社,和歌山県,和歌山市,九番丁４番地１－９０１,,30,201,6408155,,,,,,,2025-12-10,1,,,,,マツムラシュショククラブ,0
2432,9180001169668,新規,0,2025-12-10,2025-12-10,株式会社アルティメットパートナー,,株式会社,愛知県,名古屋市昭和区,川名山町９３番地の２４,,23,107,4660827,,,,,,,2025-12-10,1,,,,,アルティメットパートナー,0
2433,9180001169809,新規,0,2025-12-10,2025-12-10,株式会社Ｕ‐ＥＳＴＡＴＥ　Ｃｏｍｐａｎｙ,,株式会社,愛知県,一宮市,大和町毛受字東屋敷４７番地,,23,203,4910932,,,,,,,2025-12-10,1,,,,,ユーエステイトカンパニー,0
2434,9180001169858,新規,0,2025-12-10,2025-12-10,株式会社匠組,,株式会社,愛知県,海部郡飛島村,大字梅之郷字東梅５番地１,,23,427,4901435,,,,,,,2025-12-10,1,,,,,タクミグミ,0
2439,9210001020414,新規,0,2025-12-10,2025-12-10,株式会社盛安興業,,株式会社,福井県,あわら市,花乃杜２丁目９番８号,,18,208,9190633,,,,,,,2025-12-10,1,,,,,セイアンコウギョウ,0
2442,9220005009023,新規,0,2025-12-10,2025-12-10,一般社団法人石川県ソフトボール協会,,その他の設立登記法人,石川県,金沢市,額新保１丁目３２０番地１,,17,201,9218148,,,,,,,2025-12-10,1,,,,,イシカワケンソフトボールキョウカイ,0
2446,9230003002549,新規,0,2025-12-10,2025-12-10,合同会社ＳＫＩＰ,,合同会社,富山県,富山市,東中野町３丁目８番１３号,,16,201,9398086,,,,,,,2025-12-10,1,,,,,スキップ,0
2450,9240001065910,新規,0,2025-12-10,2025-12-10,株式会社アズ福祉サービス,,株式会社,広島県,広島市中区,昭和町１０番９－１０１号,,34,101,7300046,,,,,,,2025-12-10,1,,,,,アズフクシサービス,0
2454,9250001021466,新規,0,2025-12-10,2025-12-10,株式会社壱木,,株式会社,山口県,山口市,円政寺町１番４号－１０１号,,35,203,7530036,,,,,,,2025-12-10,1,,,,,イチモク,0
2461,9290001112476,新規,0,2025-12-10,2025-12-10,株式会社ＦｏｒＮｅｘｔ,,株式会社,福岡県,福岡市中央区,天神４丁目６番２８号いちご天神ノースビル７階,,40,133,8100001,,,,,,,2025-12-10,1,,,,,フォアネクスト,0
2462,9290003017772,新規,0,2025-12-10,2025-12-10,リードリンク合同会社,,合同会社,福岡県,福岡市中央区,渡辺通１丁目８番３６－９０４号レジデンシャルヒルズデュオプレイス,,40,133,8100004,,,,,,,2025-12-10,1,,,,,リードリンク,0
2464,9300005007282,新規,0,2025-12-10,2025-12-10,一般社団法人ａｍｐｅｒｓａｎｄ,,その他の設立登記法人,佐賀県,武雄市,朝日町大字中野４７４３番地１,,41,206,8430002,,,,,,,2025-12-10,1,,,,,アンパサンド,0
2465,9310001019883,新規,0,2025-12-10,2025-12-10,イノベクタ株式会社,,株式会社,長崎県,諫早市,栗面町３０２番地２,,42,204,8540055,,,,,,,2025-12-10,1,,,,,イノベクタ,0
2466,9320001021483,新規,0,2025-12-10,2025-12-10,株式会社将成工業,,株式会社,大分県,大分市,三川下１丁目５番１２号アークス三川Ａ－４,,44,201,8700142,,,,,,,2025-12-10,1,,,,,ショウセイコウギョウ,0
2468,9320005010276,新規,0,2025-12-10,2025-12-10,医療法人凛音会,,その他の設立登記法人,大分県,大分市,大道町４丁目２番３２号,,44,201,8700822,,,,,,,2025-12-10,1,,,,,リンオンカイ,0
2470,9330001033809,新規,0,2025-12-10,2025-12-10,株式会社オドカン,,株式会社,熊本県,阿蘇郡西原村,大字小森６１８番地５８アリエスＲｉｎ　Ｂ号,,43,432,8612402,,,,,,,2025-12-10,1,,,,,オドカン,0
2472,9330003011341,新規,0,2025-12-10,2025-12-10,合同会社ＣＬＯＳＥＴＲＡ,,合同会社,熊本県,熊本市中央区,本荘５丁目３番３７号エステート本荘２Ｆ,,43,101,8600811,,,,,,,2025-12-10,1,,,,,クロストリア,0
2474,9350003005085,新規,0,2025-12-10,2025-12-10,合同会社ファイン,,合同会社,宮崎県,日南市,南郷町中村乙５５１３‐７５,,45,204,8893204,,,,,,,2025-12-10,1,,,,,ファイン,0
2475,9350003005093,新規,0,2025-12-10,2025-12-10,合同会社ヒロ,,合同会社,宮崎県,宮崎市,田野町南原２丁目２１番地１１,,45,201,8891704,,,,,,,2025-12-10,1,,,,,ヒロ,0
2477,9360003015455,新規,0,2025-12-10,2025-12-10,合同会社ワンウィズキーマン,,合同会社,沖縄県,宜野湾市,字佐真下９３番地３,,47,205,9012216,,,,,,,2025-12-10,1,,,,,ワンウィズキーマン,0
2479,9370003007402,新規,0,2025-12-10,2025-12-10,合同会社ライフテラス,,合同会社,宮城県,大崎市,古川福沼２丁目８番１７号,,04,215,9896105,,,,,,,2025-12-10,1,,,,,ライフテラス,0
2488,9410001014338,新規,0,2025-12-10,2025-12-10,株式会社ＳＯＬＴＩＣＡ,,株式会社,秋田県,秋田市,河辺戸島字稗田４,,05,201,0192611,,,,,,,2025-12-10,1,,,,,ソルティカ,0
2494,9430001095830,新規,0,2025-12-10,2025-12-10,Ｍｓ’Ｃｏｍｐａｎｙ株式会社,,株式会社,北海道,札幌市西区,宮の沢三条３丁目６－８,,01,107,0630053,,,,,,,2025-12-10,1,,,,,エムズカンパニー,0
2495,9430001095847,新規,0,2025-12-10,2025-12-10,キタヤホールディングス株式会社,,株式会社,北海道,砂川市,東四条南３丁目２番１号,,01,226,0730134,,,,,,,2025-12-10,1,,,,,キタヤホールディングス,0
2501,9480001013036,新規,0,2025-12-10,2025-12-10,株式会社ａｍａｂｉｅ,,株式会社,徳島県,板野郡上板町,七條字古町６４番地１,,36,405,7711302,,,,,,,2025-12-10,1,,,,,アマビエ,0
2502,9500001026670,新規,0,2025-12-10,2025-12-10,株式会社ＫＬＹＭ,,株式会社,愛媛県,松山市,勝岡町１６７番地３,,38,201,7992661,,,,,,,2025-12-10,1,,,,,クリム,0
2507,9700150133306,新規,0,2025-12-10,2025-12-10,レオン自動機健康保険組合,,その他,栃木県,宇都宮市,野沢町２番地３,,09,201,3200071,,,,,,,2025-12-10,1,,,,,レオンジドウキケンコウホケンクミアイ,0
2508,9700150133314,新規,0,2025-12-10,2025-12-10,国際興業健康保険組合,,その他,東京都,中央区,八重洲２丁目１０番３号,,13,102,1040028,,,,,,,2025-12-10,1,,,,,コクサイコウギョウケンコウホケンクミアイ,0
