sequenceNumber,corporateNumber,process,correct,updateDate,changeDate,name,nameImageId,kind,prefectureName,cityName,streetNumber,addressImageId,prefectureCode,cityCode,postCode,addressOutside,addressOutsideImageId,closeDate,closeCause,successorCorporateNumber,changeCause,assignmentDate,latest,enName,enPrefectureName,enCityName,enAddressOutside,furigana,hihyoji
9,1010001236368,新規,0,2023-06-26,2023-06-26,株式会社Ｏｎｅ　ｔｏ　Ｏｎｅ　ＧＯＬＦ,,株式会社,東京都,中央区,築地２丁目１５番１５号セントラル東銀座８０１,,13,102,1040045,,,,,,,2023-06-26,1,,,,,ワントゥーワンゴルフ,0
10,1010001236392,新規,0,2023-06-26,2023-06-26,ＦＵＪＩ株式会社,,株式会社,東京都,中央区,銀座１丁目２２番１１号銀座大竹ビジデンス２階,,13,102,1040061,,,,,,,2023-06-26,1,,,,,フジ,0
11,1010001236401,新規,0,2023-06-26,2023-06-26,威林株式会社,,株式会社,東京都,中央区,佃３丁目２番１２－２０６号,,13,102,1040051,,,,,,,2023-06-26,1,,,,,イリン,0
12,1010001236442,新規,0,2023-06-26,2023-06-26,ＡＬＦＡ株式会社,,株式会社,東京都,千代田区,神田佐久間町１丁目１６番大橋ビル５０３,,13,101,1010025,,,,,,,2023-06-26,1,,,,,アルファ,0
15,1010003040909,新規,0,2023-06-26,2023-06-26,Ｉ．Ｓ．Ｊ．Ｐ　Ｖｅｎｔｕｒｅ合同会社,,合同会社,東京都,中央区,日本橋茅場町２丁目７番６号晴花ビル７階,,13,102,1030025,,,,,,,2023-06-26,1,,,,,アイエスジェイピーベンチャー,0
16,1010003040917,新規,0,2023-06-26,2023-06-26,合同会社ＮＥＴ　ＺＥＲＯ　ＩＮＶＥＳＴＭＥＮＴ５号,,合同会社,東京都,中央区,築地３丁目１１番６号築地スクエアビル９階,,13,102,1040045,,,,,,,2023-06-26,1,,,,,ネットゼロインベストメントゴゴウ,0
17,1010003040974,新規,0,2023-06-26,2023-06-26,ｉＨｅｒｂ　ＪＡＰＡＮ合同会社,,合同会社,東京都,中央区,銀座６丁目１０－１ＧＩＮＺＡＳＩＸ１３階,,13,102,1040061,,,,,,,2023-06-26,1,,,,,アイハーブジャパン,0
18,1010003040982,新規,0,2023-06-26,2023-06-26,アイロン・マウンテン・ジャパン・データセンター合同会社,,合同会社,東京都,千代田区,霞が関３丁目２番６号東京倶楽部ビルディング１１階,,13,101,1000013,,,,,,,2023-06-26,1,,,,,アイロンマウンテンジャパンデータセンター,0
21,1010005036863,新規,0,2023-06-26,2023-06-26,社会保険労務士法人ワタナベ,,その他の設立登記法人,東京都,千代田区,紀尾井町１番３号東京ガーデンテラス紀尾井町紀尾井タワー１３Ｆ,,13,101,1020094,,,,,,,2023-06-26,1,,,,,ワタナベ,0
22,1010005036871,新規,0,2023-06-26,2023-06-26,一般社団法人ＤｅＳｃｉ　Ｊａｐａｎ,,その他の設立登記法人,東京都,千代田区,神田神保町３丁目２１－７英弘ビル３Ｆ,,13,101,1010051,,,,,,,2023-06-26,1,,,,,ディサイジャパン,0
29,1010401175240,新規,0,2023-06-26,2023-06-26,ＣＲＦＴＺ株式会社,,株式会社,東京都,港区,南青山３丁目３番３号,,13,103,1070062,,,,,,,2023-06-26,1,,,,,クラフターズ,0
31,1010501050624,新規,0,2023-06-26,2023-06-26,ｉｄｅａＰｉ株式会社,,株式会社,東京都,台東区,上野６丁目７番１６川久保ビル８１６号,,13,106,1100005,,,,,,,2023-06-26,1,,,,,アイディアピーアイ,0
35,1010601063328,新規,0,2023-06-26,2023-06-26,株式会社ミツワ,,株式会社,東京都,江東区,扇橋２丁目１２番２号岡野ビル４０１,,13,108,1350011,,,,,,,2023-06-26,1,,,,,ミツワ,0
36,1010603010212,新規,0,2023-06-26,2023-06-26,三永合同会社,,合同会社,東京都,江東区,大島４丁目１番１－８３０号,,13,108,1360072,,,,,,,2023-06-26,1,,,,,サンエイ,0
53,1011001155252,新規,0,2023-06-26,2023-06-26,株式会社Ｆａｍｉｌｉｏ,,株式会社,東京都,渋谷区,神宮前６丁目２３番４号桑野ビル２階,,13,113,1500001,,,,,,,2023-06-26,1,,,,,ファミリオ,0
59,1011101103391,新規,0,2023-06-26,2023-06-26,株式会社ｔｕ・ｍｏｎａｎｇｅ,,株式会社,東京都,新宿区,新宿１丁目３６番２号新宿第七葉山ビル３階,,13,104,1600022,,,,,,,2023-06-26,1,,,,,チュモナンジュ,0
67,1011703003510,新規,0,2023-06-26,2023-06-26,ＳＵＳＨＭＡ合同会社,,合同会社,東京都,江戸川区,西葛西６丁目８番５アロー西葛西駅前ビル３Ｆ，３０１,,13,123,1340088,,,,,,,2023-06-26,1,,,,,ススマ,0
72,1012301013496,新規,0,2023-06-26,2023-06-26,株式会社グローリアス西湘,,株式会社,東京都,町田市,小野路町２８５３番地の１,,13,209,1950064,,,,,,,2023-06-26,1,,,,,グローリアスセイショウ,0
78,1013301050967,新規,0,2023-06-26,2023-06-26,株式会社ＱｕＡＲＴｓ,,株式会社,東京都,豊島区,巣鴨３丁目１４番２９号,,13,116,1700002,,,,,,,2023-06-26,1,,,,,クォーアーツ,0
84,1020001152226,新規,0,2023-06-26,2023-06-26,ブルーグリーンサービス株式会社,,株式会社,神奈川県,川崎市多摩区,菅仙谷３丁目１番１９－１０５号,,14,135,2140006,,,,,,,2023-06-26,1,,,,,ブルーグリーンサービス,0
99,1030001154477,新規,0,2023-06-26,2023-06-26,三合株式会社,,株式会社,埼玉県,さいたま市中央区,大戸４丁目２０－１４,,11,105,3380012,,,,,,,2023-06-26,1,,,,,ミアイ,0
102,1030003021997,新規,0,2023-06-26,2023-06-26,合同会社ｖｉｓｉｔｏｒ,,合同会社,埼玉県,入間郡三芳町,大字藤久保３４９番地７５,,11,324,3540041,,,,,,,2023-06-26,1,,,,,ビジター,0
109,1040003022846,新規,0,2023-06-26,2023-06-26,渡辺浄化槽管理合同会社,,合同会社,千葉県,旭市,ニ６１６８－８,,12,215,2892504,,,,,,,2023-06-26,1,,,,,ワタナベジョウカソウカンリ,0
132,1120001255919,新規,0,2023-06-26,2023-06-26,株式会社帝王,,株式会社,大阪府,大阪市北区,芝田１丁目１０番１０号,,27,127,5300012,,,,,,,2023-06-26,1,,,,,テイオウ,0
133,1120001255976,新規,0,2023-06-26,2023-06-26,株式会社ＨＥＲＢＡＮＩＣ,,株式会社,大阪府,大阪市西区,江戸堀２丁目１番１号江戸堀センタービル,,27,106,5500002,,,,,,,2023-06-26,1,,,,,ハーバニック,0
134,1120001256009,新規,0,2023-06-26,2023-06-26,株式会社スモールステップ,,株式会社,大阪府,大阪市東淀川区,東淡路５丁目９番２号,,27,114,5330023,,,,,,,2023-06-26,1,,,,,スモールステップ,0
138,1120003024363,新規,0,2023-06-26,2023-06-26,合同会社一,,合同会社,大阪府,大阪市福島区,福島２丁目１０番２２号,,27,103,5530003,,,,,,,2023-06-26,1,,,,,イチ,0
148,1120901047705,新規,0,2023-06-26,2023-06-26,株式会社セントラルジャパン１,,株式会社,大阪府,高槻市,京口町１１番１５号,,27,207,5690072,,,,,,,2023-06-26,1,,,,,セントラルジャパンワン,0
149,1120903004704,新規,0,2023-06-26,2023-06-26,合同会社めぐみ,,合同会社,大阪府,高槻市,緑町３番２９－１０１号,,27,207,5690094,,,,,,,2023-06-26,1,,,,,メグミ,0
155,1140001130657,新規,0,2023-06-26,2023-06-26,株式会社グラム,,株式会社,兵庫県,神戸市東灘区,深江北町４丁目１１番２４号,,28,101,6580013,,,,,,,2023-06-26,1,,,,,グラム,0
161,1150005009491,新規,0,2023-06-26,2023-06-26,一般社団法人ｏｈａｎａ,,その他の設立登記法人,奈良県,葛城市,八川１３５番地７,,29,211,6392163,,,,,,,2023-06-26,1,,,,,オハナ,0
163,1170003001886,新規,0,2023-06-26,2023-06-26,Ｂｌｕｅｍｏｔｉｏｎ合同会社,,合同会社,和歌山県,田辺市,芳養松原１丁目３番１６号,,30,206,6460063,,,,,,,2023-06-26,1,,,,,ブルーモーション,0
170,1180001156847,新規,0,2023-06-26,2023-06-26,株式会社ＴＡＰＥＴＵＭ,,株式会社,愛知県,名古屋市中区,栄３丁目１１番１５号,,23,106,4600008,,,,,,,2023-06-26,1,,,,,タペータム,0
171,1180001156863,新規,0,2023-06-26,2023-06-26,むろデン株式会社,,株式会社,愛知県,日進市,岩崎台２丁目１４２２番地,,23,230,4700135,,,,,,,2023-06-26,1,,,,,ムロデン,0
175,1180303005751,新規,0,2023-06-26,2023-06-26,ＢＬＡＣＫ　ＳＴＯＮＥ合同会社,,合同会社,愛知県,安城市,今本町７丁目５番地１アルカディアＡ－１０５,,23,212,4460008,,,,,,,2023-06-26,1,,,,,ブラックストーン,0
188,1240005015605,新規,0,2023-06-26,2023-06-26,一般社団法人日本バフ研磨協会,,その他の設立登記法人,広島県,広島市南区,出汐１丁目６－１出汐レスト１階１０２号室,,34,103,7340001,,,,,,,2023-06-26,1,,,,,ニホンバフケンマキョウカイ,0
197,1290003014067,新規,0,2023-06-26,2023-06-26,合同会社愛京訪問看護ステーション謝恩,,合同会社,福岡県,久留米市,北野町十郎丸１８７６番７号,,40,203,8301121,,,,,,,2023-06-26,1,,,,,アイキョウホウモンカンゴステーションシャオン,0
203,1320001019849,新規,0,2023-06-26,2023-06-26,株式会社尺間嶽麦酒,,株式会社,大分県,佐伯市,大手町３丁目５番７号,,44,205,8760831,,,,,,,2023-06-26,1,,,,,シャクマダケバクシュ,0
207,1330001030986,新規,0,2023-06-26,2023-06-26,株式会社ＬＯＨＡＳ,,株式会社,熊本県,山鹿市,鹿本町来民１０７３－９,,43,208,8610331,,,,,,,2023-06-26,1,,,,,ロハス,0
208,1330001030994,新規,0,2023-06-26,2023-06-26,株式会社創夢,,株式会社,熊本県,熊本市北区,高平１丁目３７番２２号,,43,105,8600085,,,,,,,2023-06-26,1,,,,,ソウム,0
216,1380001033803,新規,0,2023-06-26,2023-06-26,株式会社ベースボールアカデミー福島,,株式会社,福島県,郡山市,堤下町１３番８号,,07,203,9638878,,,,,,,2023-06-26,1,,,,,ベースボールアカデミーフクシマ,0
229,1430001089393,新規,0,2023-06-26,2023-06-26,ＡＫコーポレーション株式会社,,株式会社,北海道,札幌市中央区,南八条西４丁目４２２番,,01,101,0640808,,,,,,,2023-06-26,1,,,,,エーケーコーポレーション,0
238,1470001019677,新規,0,2023-06-26,2023-06-26,株式会社ＡＭＬＯＴ,,株式会社,香川県,高松市,出作町４９７番地１１,,37,201,7618077,,,,,,,2023-06-26,1,,,,,アムロット,0
250,1700150117745,新規,0,2023-06-26,2023-06-26,Ｓｈｅｎｚｈｅｎ　ＦｅｉＴｉａｎＸｉａ　Ｔｅｃｈｎｏｌｏｇｙ　Ｌｔｄ,,外国会社等,,,,,,,,４ｔｈ　Ｂｕｉｌｄｉｎｇ　Ｂ，５ｔｈ　ＨｕａＴｉｎｇ　ｒｏａｄ，ＤａＬａｎｇ，ＬｏｎｇＨｕａ　Ｄｉｓｔｒｉｃｔ，Ｓｈｅｎｚｈｅｎ，Ｓｈｅｎｚｈｅｎ，Ｇｕａｎｇｄｏｎｇ，５１８１０９，ＣＮ,,,,,,2023-06-26,1,,,,,シエンジエンシーフエイテイエンシヤーコージーヨウシエンゴンスー,0
255,2010001236350,新規,0,2023-06-26,2023-06-26,ＳＵＭＭＥＲ娯樂株式会社,,株式会社,東京都,中央区,築地３丁目１－４築地武蔵野マンション１１０３号,,13,102,1040045,,,,,,,2023-06-26,1,,,,,サマーゴラク,0
256,2010001236367,新規,0,2023-06-26,2023-06-26,株式会社ＮＯＢＬＥ,,株式会社,東京都,中央区,晴海２丁目３番２‐４６０３号,,13,102,1040053,,,,,,,2023-06-26,1,,,,,ノーブル,0
257,2010001236391,新規,0,2023-06-26,2023-06-26,株式会社Ｃ‐Ａｂｉｒｉｔｉ,,株式会社,東京都,千代田区,神田須田町１丁目７番地ＫＤＸレジデンス秋葉原ＩＩ１００４号,00130970,13,101,1010041,,,,,,,2023-06-26,1,,,,,シーアビリティ,0
258,2010001236400,新規,0,2023-06-26,2023-06-26,松＿株式会社,00130969,株式会社,東京都,中央区,勝どき５丁目３番１－３８１８号,,13,102,1040054,,,,,,,2023-06-26,1,,,,,ショウレイ,0
261,2010003040916,新規,0,2023-06-26,2023-06-26,合同会社ＮＥＴ　ＺＥＲＯ　ＩＮＶＥＳＴＭＥＮＴ４号,,合同会社,東京都,中央区,築地３丁目１１番６号築地スクエアビル９階,,13,102,1040045,,,,,,,2023-06-26,1,,,,,ネットゼロインベストメントヨンゴウ,0
262,2010003040973,新規,0,2023-06-26,2023-06-26,合同会社Ｓｔａｒｔ　Ｌｉｎｅ,,合同会社,東京都,文京区,本郷５丁目３２番２１－２０１号,,13,105,1130033,,,,,,,2023-06-26,1,,,,,スタートライン,0
270,2010403030376,新規,0,2023-06-26,2023-06-26,Ｓｅｎｎａ　ＶＩ合同会社,,合同会社,東京都,港区,元麻布３丁目１番６号,,13,103,1060046,,,,,,,2023-06-26,1,,,,,セナシックス,0
274,2010601063327,新規,0,2023-06-26,2023-06-26,株式会社有明,,株式会社,東京都,江東区,北砂４丁目７番９号陽光ハイム北砂１０１,,13,108,1360073,,,,,,,2023-06-26,1,,,,,アリアケ,0
277,2010801034086,新規,0,2023-06-26,2023-06-26,株式会社ラディショナル,,株式会社,東京都,大田区,大森北５丁目９番１１号濱崎屋ビル２Ｆ,,13,111,1430016,,,,,,,2023-06-26,1,,,,,ラディショナル,0
281,2011001000465,新規,0,2023-06-26,2023-06-26,株式会社アーバンインターナショナル,,株式会社,東京都,渋谷区,代々木２丁目２３番１号,,13,113,1510053,,,,,,,2023-06-26,1,,,,,,0
287,2011001155193,新規,0,2023-06-26,2023-06-26,株式会社Ｃｏｎｔｅ　Ｂｌｅｕ,,株式会社,東京都,目黒区,上目黒２丁目１９番２５号ケイトガーデン１０３号室,,13,110,1530051,,,,,,,2023-06-26,1,,,,,コンテブル,0
288,2011005010122,新規,0,2023-06-26,2023-06-26,一般社団法人日本エアブラシ協会,,その他の設立登記法人,東京都,渋谷区,富ヶ谷２丁目１６番１１－６０３号プラウドフラット代々木八幡,,13,113,1510063,,,,,,,2023-06-26,1,,,,,ニホンエアブラシキョウカイ,0
290,2011101103390,新規,0,2023-06-26,2023-06-26,株式会社みずいろでいず,,株式会社,東京都,新宿区,新宿７丁目２６番６１号カーサＫＨ１０１,,13,104,1600022,,,,,,,2023-06-26,1,,,,,ミズイロデイズ,0
291,2011101103399,新規,0,2023-06-26,2023-06-26,株式会社タイムトゥーイート,,株式会社,東京都,新宿区,西新宿３丁目３番１３号西新宿水間ビル６階,,13,104,1600023,,,,,,,2023-06-26,1,,,,,タイムトゥーイート,0
299,2011803005711,新規,0,2023-06-26,2023-06-26,Ｗｉｌｌｉａｍ合同会社,,合同会社,東京都,葛飾区,奥戸８丁目１６番１４号,,13,122,1240022,,,,,,,2023-06-26,1,,,,,ウィリアム,0
300,2012301013495,新規,0,2023-06-26,2023-06-26,株式会社フューチャーワーク,,株式会社,東京都,町田市,小野路町２８５３番地の１,,13,209,1950064,,,,,,,2023-06-26,1,,,,,フューチャーワーク,0
304,2012401040670,新規,0,2023-06-26,2023-06-26,株式会社ＡＬＴＥＲＮＡＴＩＶＥ　ＡＲＴ,,株式会社,東京都,三鷹市,下連雀３丁目３４番１５号アトラス三鷹レジデンス３０４,,13,204,1810013,,,,,,,2023-06-26,1,,,,,オルタナティブアート,0
311,2013303006685,新規,0,2023-06-26,2023-06-26,Ａｎｇｅ合同会社,,合同会社,東京都,豊島区,東池袋４丁目２１番１－３１１３号,,13,116,1700013,,,,,,,2023-06-26,1,,,,,アンジュ,0
332,2030001154567,新規,0,2023-06-26,2023-06-26,ココリアン株式会社,,株式会社,埼玉県,川口市,中青木２丁目２１番地１番,,11,203,3320032,,,,,,,2023-06-26,1,,,,,ココリアン,0
333,2030001154617,新規,0,2023-06-26,2023-06-26,株式会社オオホリ,,株式会社,埼玉県,さいたま市桜区,道場２丁目１１番２９号ヴィラＳａｋｕｒａＡ１０３,,11,106,3380835,,,,,,,2023-06-26,1,,,,,オオホリ,0
335,2030003021971,新規,0,2023-06-26,2023-06-26,合同会社ＩＭＣ,,合同会社,埼玉県,さいたま市西区,大字西遊馬２７０－１,,11,101,3310061,,,,,,,2023-06-26,1,,,,,アイエムシー,0
336,2030003022045,新規,0,2023-06-26,2023-06-26,合同会社パロサント,,合同会社,埼玉県,さいたま市南区,文蔵１丁目１２－１２ローレルコート南浦和４０９,,11,108,3360025,,,,,,,2023-06-26,1,,,,,パロサント,0
340,2040001128974,新規,0,2023-06-26,2023-06-26,ＫＨＡＮ　ＷＡＬＩ　ＴＲＡＤＩＮＧ株式会社,,株式会社,千葉県,野田市,次木１５９番地リバーサイドコーポ相澤Ａ２０５,,12,208,2700228,,,,,,,2023-06-26,1,,,,,カーンワリトレーディング,0
346,2040003022845,新規,0,2023-06-26,2023-06-26,合同会社サイネットワークス,,合同会社,千葉県,松戸市,西馬橋幸町４１番地第２グリーンハイツ５０６号,,12,207,2710047,,,,,,,2023-06-26,1,,,,,サイネットワークス,0
352,2060001036110,新規,0,2023-06-26,2023-06-26,ａｓｏｂｕｙ株式会社,,株式会社,栃木県,那須塩原市,二区町４０６番地８９,,09,213,3292733,,,,,,,2023-06-26,1,,,,,アソバイ,0
370,2120001255967,新規,0,2023-06-26,2023-06-26,株式会社ラビリス,,株式会社,大阪府,大阪市淀川区,西中島３丁目１１番２４号新大阪第１１山よしビル８階,,27,123,5320011,,,,,,,2023-06-26,1,,,,,ラビリス,0
371,2120001255975,新規,0,2023-06-26,2023-06-26,株式会社フォーネクスト,,株式会社,大阪府,大阪市港区,弁天１丁目２－１大阪ベイタワー１４階,,27,107,5520007,,,,,,,2023-06-26,1,,,,,フォーネクスト,0
372,2120001255983,新規,0,2023-06-26,2023-06-26,株式会社ＮＥＸＴＷＡＶＥ,,株式会社,大阪府,大阪市北区,中津４丁目６－５キャッスル中津４Ａ,,27,127,5310071,,,,,,,2023-06-26,1,,,,,ネクストウェイブ,0
373,2120001255991,新規,0,2023-06-26,2023-06-26,ＤＲＣホールディングス株式会社,,株式会社,大阪府,大阪市北区,紅梅町２番６号,,27,127,5300038,,,,,,,2023-06-26,1,,,,,ディーアールシーホールディングス,0
376,2120003024362,新規,0,2023-06-26,2023-06-26,ＴＡ　Ｂｅｎｅｆｉｔ合同会社,,合同会社,大阪府,大阪市淀川区,塚本６丁目１番３号,,27,123,5320026,,,,,,,2023-06-26,1,,,,,ティーエーベネフィット,0
377,2120003024370,新規,0,2023-06-26,2023-06-26,合同会社光州,,合同会社,大阪府,大阪市中央区,高津２丁目３番２０号１階,,27,128,5420072,,,,,,,2023-06-26,1,,,,,クァンジュ,0
381,2120901047704,新規,0,2023-06-26,2023-06-26,株式会社ＫＯＫＯＲＯ,,株式会社,大阪府,豊中市,曽根東町３丁目５番３号コマウイング５０３号,,27,203,5610802,,,,,,,2023-06-26,1,,,,,ココロ,0
382,2120901047712,新規,0,2023-06-26,2023-06-26,株式会社ＨＥＳＴＩＡＴＨ,,株式会社,大阪府,箕面市,新稲７丁目７番１３号,,27,220,5620005,,,,,,,2023-06-26,1,,,,,ヘスティアス,0
384,2122001037107,新規,0,2023-06-26,2023-06-26,南大阪中央ファーム株式会社,,株式会社,大阪府,四條畷市,楠公２丁目５番２６号２Ｆ,,27,229,5750023,,,,,,,2023-06-26,1,,,,,ミナミオオサカチュウオウファーム,0
391,2130003008802,新規,0,2023-06-26,2023-06-26,合同会社Ｉｎａｄａ,,合同会社,京都府,長岡京市,神足２丁目８－１７レジデンス野上２０８,,26,209,6170833,,,,,,,2023-06-26,1,,,,,イナダ,0
396,2140005026669,新規,0,2023-06-26,2023-06-26,特定非営利活動法人りりあ子ども食堂,,その他の設立登記法人,兵庫県,神戸市兵庫区,荒田町１丁目１６番地の１３,,28,105,6520032,,,,,,,2023-06-26,1,,,,,リリアコドモショクドウ,0
405,2180001156854,新規,0,2023-06-26,2023-06-26,株式会社Ｒ,,株式会社,愛知県,名古屋市中区,錦３丁目１８番１３号アミューズ錦５Ｆ,,23,106,4600003,,,,,,,2023-06-26,1,,,,,アール,0
406,2180001156862,新規,0,2023-06-26,2023-06-26,プラスホーム株式会社,,株式会社,愛知県,名古屋市中区,金山３丁目１５番２０号佐藤マンション６０２号,,23,106,4600022,,,,,,,2023-06-26,1,,,,,プラスホーム,0
407,2180001156870,新規,0,2023-06-26,2023-06-26,株式会社やしさん,,株式会社,愛知県,名古屋市瑞穂区,浮島町１２番１００２号（瑞穂センチュリーマンション）,,23,108,4670854,,,,,,,2023-06-26,1,,,,,ヤシサン,0
412,2200001041434,新規,0,2023-06-26,2023-06-26,株式会社鐵建,,株式会社,岐阜県,羽島市,竹鼻町字下町３００６番１,,21,209,5016241,,,,,,,2023-06-26,1,,,,,テッケン,0
414,2200003005998,新規,0,2023-06-26,2023-06-26,合同会社Ｋ２,,合同会社,岐阜県,多治見市,平野町１丁目１０番地の１６,,21,204,5070823,,,,,,,2023-06-26,1,,,,,ケーツー,0
419,2250001020160,新規,0,2023-06-26,2023-06-26,株式会社ライフライン,,株式会社,山口県,光市,大字三輪９１３番地６,,35,210,7430102,,,,,,,2023-06-26,1,,,,,ライフライン,0
425,2290001102054,新規,0,2023-06-26,2023-06-26,株式会社グリーンステージ,,株式会社,福岡県,福岡市西区,姪の浜３丁目２９番８－６０２号,,40,135,8190002,,,,,,,2023-06-26,1,,,,,グリーンステージ,0
431,2290005019071,新規,0,2023-06-26,2023-06-26,一般社団法人プライベートビジネスオーナー協会,,その他の設立登記法人,福岡県,福岡市南区,井尻２丁目１８番３６－４０８号,,40,134,8111302,,,,,,,2023-06-26,1,,,,,プライベートビジネスオーナーキョウカイ,0
434,2290801029637,新規,0,2023-06-26,2023-06-26,株式会社ＳＵＮＩ,,株式会社,福岡県,北九州市若松区,塩屋４丁目１番４－２０１号,,40,103,8080131,,,,,,,2023-06-26,1,,,,,スニ,0
440,2320003004113,新規,0,2023-06-26,2023-06-26,合同会社マサツグミート,,合同会社,大分県,日田市,大字十二町４６３番地１,,44,204,8770000,,,,,,,2023-06-26,1,,,,,マサツグミート,0
443,2340001025670,新規,0,2023-06-26,2023-06-26,株式会社ＲＩＳＥ,,株式会社,鹿児島県,薩摩川内市,中郷１丁目１２番２７号オリーブハウスＡ１０２,,46,215,8950072,,,,,,,2023-06-26,1,,,,,ライズ,0
459,2380003005493,新規,0,2023-06-26,2023-06-26,合同会社Ｇｉｆｔ３６５,,合同会社,福島県,郡山市,深沢２丁目６番２４号,,07,203,9638874,,,,,,,2023-06-26,1,,,,,ギフトサンロクゴ,0
469,2430001089392,新規,0,2023-06-26,2023-06-26,株式会社ＳＡＣＵ,,株式会社,北海道,小樽市,桜３丁目２０番２号,,01,203,0470156,,,,,,,2023-06-26,1,,,,,サク,0
470,2430001089418,新規,0,2023-06-26,2023-06-26,豊和株式会社,,株式会社,北海道,札幌市中央区,南十一条西１丁目１番４９号,,01,101,0640811,,,,,,,2023-06-26,1,,,,,ホウワ,0
474,2430003015173,新規,0,2023-06-26,2023-06-26,合同会社Ｃｏｕｎｔ９,,合同会社,北海道,札幌市中央区,南十七条西１３丁目１番３６号,,01,101,0640917,,,,,,,2023-06-26,1,,,,,カウントナイン,0
476,2470001019676,新規,0,2023-06-26,2023-06-26,株式会社Ｐａｃｅ,,株式会社,香川県,高松市,多肥上町７９８番地１４,,37,201,7618076,,,,,,,2023-06-26,1,,,,,パーチェ,0
480,2700150117744,新規,0,2023-06-26,2023-06-26,Ａｎｊｉ　Ｂｕ　Ｗｕ　Ｚｈｕ　Ｊｉａ　Ｊｕ　Ｙｏｎｇ　Ｐｉｎ　Ｃｏ．，Ｌｔｄ,,外国会社等,,,,,,,,Ｒｏｏｍ　Ａ，５ｔｈ　Ｆｌｏｏｒ，Ｔｉａｎｑｉｍｉｎｇ　Ｂｕｉｌｄｉｎｇ，Ｓｈｅｎｇｌｉ　Ｅａｓｔ　Ｒｏａｄ，Ｄｉｐｕ　Ｔｏｗｎ，Ａｎｊｉ　Ｃｏｕｎｔｙ，Ｈｕｚｈｏｕ，Ｚｈｅｊｉａｎｇ,,,,,,2023-06-26,1,,,,,アンジーブーウージユージヤージーヨンピンヨウシエンゴンスー,0
481,2700150117777,新規,0,2023-06-26,2023-06-26,大連国上塑料有限公司,,外国会社等,福岡県,北九州市小倉北区,浅野３丁目８番１号ＡＩＭビル６階,,40,106,8020001,中華人民共和国遼寧省大連経済技術開発区淮河東路９－６号１－２階、－８号１－２階,,,,,,2023-06-26,1,,,,,ダイレンクガミソリヨウユウゲンコウシ,0
487,3010001236192,新規,0,2023-06-26,2023-06-26,株式会社和なは,,株式会社,東京都,中央区,銀座１丁目２２番１１号銀座大竹ビジデンス２Ｆ,,13,102,1040061,,,,,,,2023-06-26,1,,,,,ワナハ,0
488,3010001236358,新規,0,2023-06-26,2023-06-26,株式会社Ｓｎａｃｋ　Ｐａｃｋ,,株式会社,東京都,中央区,銀座１丁目１２番４号Ｎ＆ＥＢＬＤ．７階,,13,102,1040061,,,,,,,2023-06-26,1,,,,,スナックパック,0
489,3010001236390,新規,0,2023-06-26,2023-06-26,株式会社あすパブリッシング,,株式会社,東京都,千代田区,神田和泉町１番地６－１６ヤマトビル４０５,,13,101,1010024,,,,,,,2023-06-26,1,,,,,アスパブリッシング,0
490,3010001236399,新規,0,2023-06-26,2023-06-26,マイファ株式会社,,株式会社,東京都,中央区,銀座１丁目１２番４号Ｎ＆ＥＢＬＤ．７階,,13,102,1040061,,,,,,,2023-06-26,1,,,,,マイファ,0
492,3010003040915,新規,0,2023-06-26,2023-06-26,合同会社ＮＥＴ　ＺＥＲＯ　ＩＮＶＥＳＴＭＥＮＴ３号,,合同会社,東京都,中央区,築地３丁目１１番６号築地スクエアビル９階,,13,102,1040045,,,,,,,2023-06-26,1,,,,,ネットゼロインベストメントサンゴウ,0
493,3010003040980,新規,0,2023-06-26,2023-06-26,合同会社ＬＯＧＩ　ＦＬＡＧ８号,,合同会社,東京都,中央区,日本橋１丁目４番１号,,13,102,1030027,,,,,,,2023-06-26,1,,,,,ロジフラッグハチゴウ,0
502,3010401175239,新規,0,2023-06-26,2023-06-26,株式会社ＬＩＮＫ９,,株式会社,東京都,港区,麻布台３丁目１番６号３Ｆ,,13,103,1060041,,,,,,,2023-06-26,1,,,,,リンクナイン,0
506,3010501050647,新規,0,2023-06-26,2023-06-26,ＤＭ　Ｂｉｚ株式会社,,株式会社,東京都,台東区,台東３丁目１６－５ミハマビル５Ｆ,,13,106,1100016,,,,,,,2023-06-26,1,,,,,ディーエムビズ,0
515,3010701044457,新規,0,2023-06-26,2023-06-26,ＷｏｎｄｅｒＡｇｅｎｔ株式会社,,株式会社,東京都,品川区,西五反田１丁目２８番４号３Ｆ,,13,109,1410031,,,,,,,2023-06-26,1,,,,,ワンダーエージェント,0
518,3010801034093,新規,0,2023-06-26,2023-06-26,逍然株式会社,,株式会社,東京都,大田区,上池台１丁目１４－２１－２Ｆ,,13,111,1450064,,,,,,,2023-06-26,1,,,,,ショウゼン,0
522,3011001155226,新規,0,2023-06-26,2023-06-26,株式会社あんしんドットコム,,株式会社,東京都,渋谷区,渋谷２丁目１５番１号,,13,113,1500002,,,,,,,2023-06-26,1,,,,,アンシンドットコム,0
523,3011003017044,新規,0,2023-06-26,2023-06-26,合同会社ｔｏｍｏｎｉ,,合同会社,東京都,渋谷区,神泉町１０番１５号,,13,113,1500045,,,,,,,2023-06-26,1,,,,,トモニ,0
533,3011201024734,新規,0,2023-06-26,2023-06-26,株式会社Ｎ’ｓ　Ｃｏｒｐｏｒａｔｉｏｎ,,株式会社,東京都,中野区,新井５丁目１９番４号,,13,114,1650026,,,,,,,2023-06-26,1,,,,,エヌズコーポレーション,0
536,3011301028809,新規,0,2023-06-26,2023-06-26,株式会社ＥＩＷＡ　ＳＥＣＵＲＩＴＹ　ＳＥＲＶＩＣＥ,,株式会社,東京都,杉並区,堀ノ内２丁目１１番３２号栄和清運本社ビル３階,,13,115,1660013,,,,,,,2023-06-26,1,,,,,エイワセキュリティーサービス,0
541,3011503005663,新規,0,2023-06-26,2023-06-26,合同会社スピリトオゾ,,合同会社,東京都,荒川区,南千住６丁目４３番３－８０３号,,13,118,1160003,,,,,,,2023-06-26,1,,,,,スピリトオゾ,0
543,3012301013503,新規,0,2023-06-26,2023-06-26,ユーシン株式会社,,株式会社,東京都,町田市,高ヶ坂６丁目１１番１７号,,13,209,1940014,,,,,,,2023-06-26,1,,,,,ユーシン,0
545,3012403006041,新規,0,2023-06-26,2023-06-26,合同会社ガネーシャ,,合同会社,東京都,調布市,多摩川１丁目３８－１ブレスマーク調布多摩川３１８,,13,208,1820025,,,,,,,2023-06-26,1,,,,,ガネーシャ,0
556,3020001152216,新規,0,2023-06-26,2023-06-26,株式会社ウェルビーイング,,株式会社,神奈川県,横浜市金沢区,柴町３２番地１２４,,14,108,2360012,,,,,,,2023-06-26,1,,,,,ウェルビーイング,0
561,3021001079416,新規,0,2023-06-26,2023-06-26,株式会社結,,株式会社,神奈川県,相模原市中央区,氷川町４番３号,,14,152,2520215,,,,,,,2023-06-26,1,,,,,ユイ,0
570,3030001154632,新規,0,2023-06-26,2023-06-26,Ｈ＆Ａ　Ｗｅａｌｔｈ　ｍａｎａｇｅｍｅｎｔ株式会社,,株式会社,埼玉県,戸田市,笹目南町２０番９号,,11,224,3350035,,,,,,,2023-06-26,1,,,,,エイチアンドエーウェルスマネジメント,0
573,3030003021938,新規,0,2023-06-26,2023-06-26,河原聖佳合同会社,,合同会社,埼玉県,加須市,正能４９３番地２,,11,210,3470107,,,,,,,2023-06-26,1,,,,,カワハラセイカ,0
574,3030003021954,新規,0,2023-06-26,2023-06-26,合同会社ひばりコンサルタント,,合同会社,埼玉県,新座市,野火止４丁目１番１５－５１１号,,11,230,3520011,,,,,,,2023-06-26,1,,,,,ヒバリコンサルタント,0
575,3030003021970,新規,0,2023-06-26,2023-06-26,合同会社Ｍ．ＢＲＯＴＨＥＲＳ,,合同会社,埼玉県,狭山市,笹井１丁目１５－１２－１０２号室けやきマンション２,,11,215,3501327,,,,,,,2023-06-26,1,,,,,エムドットブラザーズ,0
585,3040001128973,新規,0,2023-06-26,2023-06-26,株式会社Ａｍｅｈａ,,株式会社,千葉県,柏市,戸張１３１４番地９,,12,217,2770008,,,,,,,2023-06-26,1,,,,,アメハ,0
589,3050001053031,新規,0,2023-06-26,2023-06-26,ＪＰＡＸ株式会社,,株式会社,茨城県,守谷市,本町６８６番地の２２,,08,224,3020109,,,,,,,2023-06-26,1,,,,,ジェィパックス,0
595,3070001040564,新規,0,2023-06-26,2023-06-26,株式会社ｗｉｔｈ　ｒｅｈａ,,株式会社,群馬県,前橋市,昭和町３丁目１９番９号,,10,201,3710034,,,,,,,2023-06-26,1,,,,,ウィズリハ,0
609,3120001255958,新規,0,2023-06-26,2023-06-26,株式会社アフェット,,株式会社,大阪府,大阪市住之江区,粉浜３丁目１３番９－３０９号,,27,125,5590001,,,,,,,2023-06-26,1,,,,,アフェット,0
610,3120001255966,新規,0,2023-06-26,2023-06-26,株式会社アウルコーポレーション,,株式会社,大阪府,大阪市西区,新町１丁目１４番２１－２３０５号,,27,106,5500013,,,,,,,2023-06-26,1,,,,,アウルコーポレーション,0
611,3120001255974,新規,0,2023-06-26,2023-06-26,株式会社チョイス,,株式会社,大阪府,大阪市浪速区,幸町１丁目２番９号,,27,111,5560021,,,,,,,2023-06-26,1,,,,,チョイス,0
612,3120001255999,新規,0,2023-06-26,2023-06-26,株式会社シェイプス,,株式会社,大阪府,大阪市北区,天満４丁目１６番１７号,,27,127,5300043,,,,,,,2023-06-26,1,,,,,シェイプス,0
627,3130003008784,新規,0,2023-06-26,2023-06-26,合同会社関西エナジー２,,合同会社,京都府,京都市中京区,西ノ京西中合町５９－３宏栄ビル２Ｆ,,26,104,6048441,,,,,,,2023-06-26,1,,,,,カンサイエナジーツー,0
632,3140001130647,新規,0,2023-06-26,2023-06-26,株式会社明水,,株式会社,兵庫県,尼崎市,南武庫之荘５丁目２５番１４ー２０２号,,28,202,6610033,,,,,,,2023-06-26,1,,,,,メイスイ,0
637,3140003019228,新規,0,2023-06-26,2023-06-26,合同会社せいぶつ,,合同会社,兵庫県,豊岡市,元町５－５,,28,209,6680026,,,,,,,2023-06-26,1,,,,,セイブツ,0
639,3150001026506,新規,0,2023-06-26,2023-06-26,株式会社大和まほろば産業,,株式会社,奈良県,宇陀市,榛原角柄７８番地の２,,29,212,6330255,,,,,,,2023-06-26,1,,,,,ヤマトマホロバサンギョウ,0
649,3180001156853,新規,0,2023-06-26,2023-06-26,株式会社ｕｎｉｓｏｎ　ｃｏｕｒｉｒ,,株式会社,愛知県,春日井市,中切町１丁目５－４,,23,206,4860925,,,,,,,2023-06-26,1,,,,,ユニゾンクリル,0
650,3180001156861,新規,0,2023-06-26,2023-06-26,アリージェンス株式会社,,株式会社,愛知県,名古屋市中区,金山３丁目１５番２０号佐藤マンション６０２号,,23,106,4600022,,,,,,,2023-06-26,1,,,,,アリージェンス,0
676,3290001102029,新規,0,2023-06-26,2023-06-26,株式会社ＧＲＥＥＮ‐ＣＯＮＮＥＣＴ,,株式会社,福岡県,福岡市中央区,舞鶴１丁目８－２６－１０２７号,,40,133,8100073,,,,,,,2023-06-26,1,,,,,グリーンコネクト,0
683,3290801029636,新規,0,2023-06-26,2023-06-26,株式会社母原の丘,,株式会社,福岡県,北九州市小倉南区,大字母原５６番地１４,,40,107,8030187,,,,,,,2023-06-26,1,,,,,モハラノオカ,0
691,3320001019847,新規,0,2023-06-26,2023-06-26,株式会社廣虎,00130971,株式会社,大分県,大分市,大字里２４７５番地の１２６,,44,201,8700303,,,,,,,2023-06-26,1,,,,,ヒロトラ,0
693,3320003004112,新規,0,2023-06-26,2023-06-26,合同会社ＴＵＯＮＧ　ＳＡＮ,,合同会社,大分県,国東市,国東町浜崎２５３５－３－ＩＩ２０２号,00130979,44,214,8730644,,,,,,,2023-06-26,1,,,,,トゥンサン,0
697,3330003009894,新規,0,2023-06-26,2023-06-26,合同会社ＮＯＢＬＥ,,合同会社,熊本県,熊本市中央区,下通１丁目１１番２１号ロフティ西銀座会館ビル４階ＡＢ号室,,43,101,8600807,,,,,,,2023-06-26,1,,,,,ノーブル,0
703,3360005006870,新規,0,2023-06-26,2023-06-26,日本キリスト改革派那覇教会,,その他の設立登記法人,沖縄県,豊見城市,字我那覇２８２番地の２,,47,212,9010231,,,,,,,2023-06-26,1,,,,,ニホンキリストカイカクハナハキョウカイ,0
713,3430001089375,新規,0,2023-06-26,2023-06-26,株式会社エム企画,,株式会社,北海道,岩内郡岩内町,字野束２７２番地６,,01,402,0450024,,,,,,,2023-06-26,1,,,,,エムキカク,0
723,3700150117792,新規,0,2023-06-26,2023-06-26,株式会社カカオブイエックス,,外国会社等,東京都,中央区,勝どき４丁目１１番１０号３０１号室,,13,102,1040054,大韓民国京畿道城南市盆唐区板橋駅路２３１，Ｓ棟５階（三坪洞，エイチスクエア）,,,,,,2023-06-26,1,,,,,カブシキガイシヤカカオブイエツクス,0
734,4010001236290,新規,0,2023-06-26,2023-06-26,厚沢部風力開発株式会社,,株式会社,東京都,千代田区,霞が関３丁目２番５号,,13,101,1000013,,,,,,,2023-06-26,1,,,,,アッサブフウリョクカイハツ,0
735,4010001236398,新規,0,2023-06-26,2023-06-26,株式会社ファッションファネル,,株式会社,東京都,千代田区,岩本町１丁目３番１号神田ビジネスセンターＴＨＥ・ＨＵＢ神田ＥＡＳＴ・３Ｇ,,13,101,1010032,,,,,,,2023-06-26,1,,,,,ファッションファネル,0
740,4010003040807,新規,0,2023-06-26,2023-06-26,合同会社ＧＲＡＮＳＩＴＥ,,合同会社,東京都,千代田区,内神田２丁目４番３号ＧＲＡＮＳＩＴＥＯＴＥＭＡＣＨＩ９０１号,,13,101,1010047,,,,,,,2023-06-26,1,,,,,グランジット,0
741,4010003040914,新規,0,2023-06-26,2023-06-26,合同会社ＮＥＴ　ＺＥＲＯ　ＩＮＶＥＳＴＭＥＮＴ２号,,合同会社,東京都,中央区,築地３丁目１１番６号築地スクエアビル９階,,13,102,1040045,,,,,,,2023-06-26,1,,,,,ネットゼロインベストメントニゴウ,0
746,4010401175147,新規,0,2023-06-26,2023-06-26,東葉コンサルタント株式会社,,株式会社,東京都,港区,芝２丁目２８番１１号芝ＭＫビル３階ＬｉｎｋＳｐａｃｅＡ３０３号室,,13,103,1050014,,,,,,,2023-06-26,1,,,,,トウヨウコンサルタント,0
747,4010401175163,新規,0,2023-06-26,2023-06-26,株式会社ｎ５,,株式会社,東京都,港区,北青山１丁目３番１号アールキューブ青山３階,,13,103,1070061,,,,,,,2023-06-26,1,,,,,エヌファイブ,0
748,4010401175238,新規,0,2023-06-26,2023-06-26,Ｓａｎｄ　Ｊａｐａｎ　Ｉｎｔｅｒｎａｔｉｏｎａｌ株式会社,,株式会社,東京都,港区,東新橋２丁目１番６号－４階,,13,103,1050021,,,,,,,2023-06-26,1,,,,,サンドジャパンインターナショナル,0
749,4010401175262,新規,0,2023-06-26,2023-06-26,株式会社Ｐｌａｔｆｏｒｍ　Ｓｋｙ,,株式会社,東京都,港区,南青山２丁目３番３号１２０５,,13,103,1070062,,,,,,,2023-06-26,1,,,,,プラットフォームスカイ,0
757,4010601063317,新規,0,2023-06-26,2023-06-26,株式会社Ｎｕｍｂｅｒ　Ａｒｔ,,株式会社,東京都,墨田区,太平２丁目４番８号,,13,107,1300012,,,,,,,2023-06-26,1,,,,,ナンバーアート,0
758,4010601063325,新規,0,2023-06-26,2023-06-26,Ｇｅｎｂａ‐ａｉ株式会社,,株式会社,東京都,江東区,住吉２丁目５番１０号,,13,108,1350002,,,,,,,2023-06-26,1,,,,,ゲンバアイ,0
759,4010701044456,新規,0,2023-06-26,2023-06-26,ＷｏｎｄｅｒＳｔｒａｔｅｇｉｃＥｄｕｃａｔｉｏｎ株式会社,,株式会社,東京都,品川区,東五反田５丁目２２番３３号ＴＫ池田山ビル２Ｆ,,13,109,1410022,,,,,,,2023-06-26,1,,,,,ワンダーストラテジックエデュケーション,0
761,4010805003036,新規,0,2023-06-26,2023-06-26,さくら坂税理士法人,,その他の設立登記法人,東京都,大田区,田園調布本町５６番３号,,13,111,1450072,,,,,,,2023-06-26,1,,,,,サクラザカ,0
769,4011001155241,新規,0,2023-06-26,2023-06-26,株式会社Ｆｉｎｅ　Ａｒｔ,,株式会社,東京都,目黒区,五本木３丁目２９番５号,,13,110,1530053,,,,,,,2023-06-26,1,,,,,ファインアート,0
770,4011001155266,新規,0,2023-06-26,2023-06-26,株式会社ＬＩＶＯ,,株式会社,東京都,渋谷区,渋谷２丁目２４番１３号３９階,,13,113,1500002,,,,,,,2023-06-26,1,,,,,リボ,0
781,4011505002559,新規,0,2023-06-26,2023-06-26,一般社団法人日本発達障害学会,,その他の設立登記法人,東京都,北区,中里１丁目９番１０－４０２号パレドール六義園北,,13,117,1140015,,,,,,,2023-06-26,1,,,,,ニホンハッタツショウガイガッカイ,0
784,4011601026916,新規,0,2023-06-26,2023-06-26,株式会社潤徳,,株式会社,東京都,練馬区,関町南３丁目２８番１７号ホワイト富士２階,,13,120,1770053,,,,,,,2023-06-26,1,,,,,ジュントク,0
795,4012805003206,新規,0,2023-06-26,2023-06-26,ザ・セントラル団地管理組合法人,,その他の設立登記法人,東京都,昭島市,もくせいの杜２丁目１０番２９号,,13,207,1960035,,,,,,,2023-06-26,1,,,,,ザセントラル,0
798,4013303006667,新規,0,2023-06-26,2023-06-26,ＷＡＫＡＴＩＡＩ合同会社,,合同会社,東京都,豊島区,南大塚２丁目４５－１１メゾンドールアム１０１,,13,116,1700005,,,,,,,2023-06-26,1,,,,,ワカチアイ,0
803,4020001152223,新規,0,2023-06-26,2023-06-26,ＪＧＳマネージメント株式会社,,株式会社,神奈川県,横浜市青葉区,新石川２丁目１３番１８号グレイスビーノ１１０号室,,14,117,2250003,,,,,,,2023-06-26,1,,,,,ジェイジーエスマネージメント,0
804,4020001152231,新規,0,2023-06-26,2023-06-26,千馳産業株式会社,,株式会社,神奈川県,横浜市神奈川区,橋本町２丁目５番地３コットンハーバータワーズＢＷ－３２０６,,14,102,2210053,,,,,,,2023-06-26,1,,,,,チハセサンギョウ,0
808,4021001079423,新規,0,2023-06-26,2023-06-26,株式会社ＡＱＵＡ,,株式会社,神奈川県,平塚市,紅谷町８－１６,,14,203,2540043,,,,,,,2023-06-26,1,,,,,アクア,0
816,4030001154490,新規,0,2023-06-26,2023-06-26,合勝商事株式会社,,株式会社,埼玉県,越谷市,大字平方９５０番地１,,11,222,3430002,,,,,,,2023-06-26,1,,,,,ゴウショウショウジ,0
817,4030001154615,新規,0,2023-06-26,2023-06-26,株式会社大商商事,,株式会社,埼玉県,川口市,南町２丁目６番６６号,,11,203,3320026,,,,,,,2023-06-26,1,,,,,タイショウショウジ,0
821,4040001128972,新規,0,2023-06-26,2023-06-26,株式会社プラス,,株式会社,千葉県,市原市,馬立８１８番地,,12,219,2900221,,,,,,,2023-06-26,1,,,,,プラス,0
838,4110001037638,新規,0,2023-06-26,2023-06-26,株式会社イマジン,,株式会社,新潟県,上越市,大豆１丁目４番３号メゾン四季１０２号,,15,222,9430802,,,,,,,2023-06-26,1,,,,,イマジン,0
840,4110003005097,新規,0,2023-06-26,2023-06-26,合同会社ビイビイシステム,,合同会社,新潟県,長岡市,古正寺１丁目３０７３番地－９０５サーパス古正寺９０５号室,,15,202,9402106,,,,,,,2023-06-26,1,,,,,ビイビイシステム,0
856,4120001255841,新規,0,2023-06-26,2023-06-26,ＡＰＡ株式会社,,株式会社,大阪府,大阪市中央区,南久宝寺町１丁目６番１０号９０５号室,,27,128,5410058,,,,,,,2023-06-26,1,,,,,エーピーエー,0
857,4120001255949,新規,0,2023-06-26,2023-06-26,株式会社仲設備,,株式会社,大阪府,大阪市西淀川区,竹島３丁目２－４,,27,113,5550011,,,,,,,2023-06-26,1,,,,,ナカセツビ,0
858,4120001256014,新規,0,2023-06-26,2023-06-26,株式会社ＳＫＴ　Ｃｏｒｐｏｒａｔｉｏｎ,,株式会社,大阪府,大阪市西成区,千本中１丁目１番１号エムズ岸里９０６,,27,122,5570054,,,,,,,2023-06-26,1,,,,,エスケーティーコーポレーション,0
867,4122001037105,新規,0,2023-06-26,2023-06-26,株式会社ＹＴＭ,,株式会社,大阪府,東大阪市,西石切町１丁目４番７号,,27,227,5798013,,,,,,,2023-06-26,1,,,,,ワイティエム,0
869,4130001074596,新規,0,2023-06-26,2023-06-26,味夢の畑株式会社,,株式会社,京都府,船井郡京丹波町,須知色紙田２３番地１,,26,407,6220213,,,,,,,2023-06-26,1,,,,,アジムノハタケ,0
870,4130001074605,新規,0,2023-06-26,2023-06-26,株式会社キャリアサポート,,株式会社,京都府,京都市北区,小山元町４８番地,,26,101,6038112,,,,,,,2023-06-26,1,,,,,キャリアサポート,0
871,4130003008783,新規,0,2023-06-26,2023-06-26,合同会社関西エナジー１,,合同会社,京都府,京都市中京区,西ノ京西中合町５９－３宏栄ビル２Ｆ,,26,104,6048441,,,,,,,2023-06-26,1,,,,,カンサイエナジーワン,0
872,4130003008800,新規,0,2023-06-26,2023-06-26,ｃｏｏｋｈａｃｋ合同会社,,合同会社,京都府,京都市下京区,朱雀宝蔵町４４番地協栄ビル２階京都朱雀スタジオＮ５０５,,26,106,6008846,,,,,,,2023-06-26,1,,,,,クックハック,0
878,4150001026505,新規,0,2023-06-26,2023-06-26,株式会社中総建,,株式会社,奈良県,吉野郡黒滝村,大字寺戸３０８番地,,29,444,6380251,,,,,,,2023-06-26,1,,,,,ナカソウケン,0
879,4150003002990,新規,0,2023-06-26,2023-06-26,真屋合同会社,,合同会社,奈良県,奈良市,あやめ池北３丁目１２番５号,,29,201,6310032,,,,,,,2023-06-26,1,,,,,マコトヤ,0
881,4160003002908,新規,0,2023-06-26,2023-06-26,合同会社ＭＯＯＮ,,合同会社,滋賀県,草津市,南草津５丁目６番地９,,25,206,5250050,,,,,,,2023-06-26,1,,,,,ムーン,0
882,4170001017659,新規,0,2023-06-26,2023-06-26,株式会社タイヨウ,,株式会社,和歌山県,和歌山市,西庄１０１６番地,,30,201,6400112,,,,,,,2023-06-26,1,,,,,タイヨウ,0
890,4180001156852,新規,0,2023-06-26,2023-06-26,株式会社伊藤,,株式会社,愛知県,日進市,梅森町上松３２６番地,,23,230,4700132,,,,,,,2023-06-26,1,,,,,イトウ,0
891,4180001156869,新規,0,2023-06-26,2023-06-26,株式会社ＲＡＬＯＶＥＲ,,株式会社,愛知県,あま市,七宝町鯰橋６丁目９５番地,,23,237,4970015,,,,,,,2023-06-26,1,,,,,ラロバー,0
902,4200001041432,新規,0,2023-06-26,2023-06-26,株式会社リジェネ,,株式会社,岐阜県,岐阜市,加納栄町通７丁目２４,,21,201,5008455,,,,,,,2023-06-26,1,,,,,リジェネ,0
916,4270001008805,新規,0,2023-06-26,2023-06-26,株式会社ＴｅｅＰｅｅ,,株式会社,鳥取県,米子市,福市８６０－１,,31,202,6830011,,,,,,,2023-06-26,1,,,,,ティピー,0
927,4290001101863,新規,0,2023-06-26,2023-06-26,一本株式会社,,株式会社,福岡県,太宰府市,御笠１丁目１０－１１,,40,221,8180110,,,,,,,2023-06-26,1,,,,,イッポン,0
928,4290003014064,新規,0,2023-06-26,2023-06-26,合同会社憂新住宅,,合同会社,福岡県,福岡市早良区,次郎丸６丁目１０番１１－１０３号,,40,137,8140165,,,,,,,2023-06-26,1,,,,,ユウシンジュウタク,0
931,4290801029635,新規,0,2023-06-26,2023-06-26,株式会社ＪＹＯＮＥＴＳ企画,,株式会社,福岡県,中間市,中央１丁目４－１２,,40,215,8090030,,,,,,,2023-06-26,1,,,,,ジョウネツキカク,0
934,4310005008689,新規,0,2023-06-26,2023-06-26,一般社団法人長崎県立西彼杵高等学校バレーボール部後援会,,その他の設立登記法人,長崎県,西海市,大瀬戸町瀬戸西濱郷５９４番地９４,,42,212,8572303,,,,,,,2023-06-26,1,,,,,ナガサキケンリツニシソノギコウトウガッコウバレーボールブコウエンカイ,0
937,4320003004111,新規,0,2023-06-26,2023-06-26,ＧＭＳグロースコンサルティング合同会社,,合同会社,大分県,大分市,明野高尾４丁目５番地の２,,44,201,8700162,,,,,,,2023-06-26,1,,,,,ジーエムエスグロースコンサルティング,0
940,4330003009893,新規,0,2023-06-26,2023-06-26,合同会社ＲＥ創建築,,合同会社,熊本県,菊池郡菊陽町,大字津久礼２３２８番地１コンフォート三里木Ａ棟２０５号,,43,404,8691101,,,,,,,2023-06-26,1,,,,,リソウケンチク,0
941,4340001025669,新規,0,2023-06-26,2023-06-26,株式会社Ｃｒｏｓｓ,,株式会社,鹿児島県,曽於市,大隅町中之内７０５３番地２,,46,217,8998103,,,,,,,2023-06-26,1,,,,,クロス,0
949,4360001032201,新規,0,2023-06-26,2023-06-26,株式会社ＭＩＵ,,株式会社,沖縄県,石垣市,字石垣２７０番地６,,47,207,9070023,,,,,,,2023-06-26,1,,,,,ミウ,0
952,4380001033809,新規,0,2023-06-26,2023-06-26,株式会社真海,,株式会社,福島県,郡山市,大槻町字中野３１番地の１,,07,203,9630201,,,,,,,2023-06-26,1,,,,,シンカイ,0
961,4430001089390,新規,0,2023-06-26,2023-06-26,株式会社やまと板金,,株式会社,北海道,札幌市白石区,川下四条２丁目１番６号,,01,104,0030864,,,,,,,2023-06-26,1,,,,,ヤマトバンキン,0
962,4430001089424,新規,0,2023-06-26,2023-06-26,株式会社桜美,,株式会社,北海道,札幌市東区,東苗穂十二条３丁目１９番２１号,,01,103,0070812,,,,,,,2023-06-26,1,,,,,オウビ,0
989,5010001236397,新規,0,2023-06-26,2023-06-26,株式会社ファーストクリエイト,,株式会社,東京都,千代田区,外神田６丁目５番１１号,,13,101,1010021,,,,,,,2023-06-26,1,,,,,ファーストクリエイト,0
990,5010001236422,新規,0,2023-06-26,2023-06-26,ＧＬＭ株式会社,,株式会社,東京都,千代田区,丸の内２丁目４番１号,,13,101,1000005,,,,,,,2023-06-26,1,,,,,ジーエルエム,0
991,5010003040938,新規,0,2023-06-26,2023-06-26,合同会社せんじんケアサービス,,合同会社,東京都,中央区,明石町５－１３－５０８号,,13,102,1040044,,,,,,,2023-06-26,1,,,,,センジンケアサービス,0
992,5010003040970,新規,0,2023-06-26,2023-06-26,合同会社７ａｐｐｌｅ,,合同会社,東京都,千代田区,岩本町２丁目１６番４号４０１,,13,101,1010032,,,,,,,2023-06-26,1,,,,,セブンナップル,0
993,5010003040979,新規,0,2023-06-26,2023-06-26,合同会社ＭＡＮＡＴＥＡ,,合同会社,東京都,千代田区,二番町１－２番町ハイム７１６号室,,13,101,1020084,,,,,,,2023-06-26,1,,,,,マナティー,0
994,5010005036678,新規,0,2023-06-26,2023-06-26,一般社団法人生成ＡＩ活用普及協会,,その他の設立登記法人,東京都,千代田区,神田岩本町１－５,,13,101,1010033,,,,,,,2023-06-26,1,,,,,セイセイエーアイカツヨウフキュウキョウカイ,0
1007,5010403030357,新規,0,2023-06-26,2023-06-26,タントラ・ジャパン合同会社,,合同会社,東京都,港区,港南２丁目１６番１号品川イーストワンタワー４Ｆ,,13,103,1080075,,,,,,,2023-06-26,1,,,,,タントラジャパン,0
1008,5010403030398,新規,0,2023-06-26,2023-06-26,合同会社Ｏｆｆｉｃｅ　Ｌａｎｄｉｎｇ２３,,合同会社,東京都,港区,北青山１丁目３番１号アールキューブ青山３階,,13,103,1070061,,,,,,,2023-06-26,1,,,,,オフィスランディングツースリー,0
1014,5010601063324,新規,0,2023-06-26,2023-06-26,株式会社プレミックス,,株式会社,東京都,墨田区,錦糸２丁目１３番３号内山ビル１Ｆ,,13,107,1300013,,,,,,,2023-06-26,1,,,,,プレミックス,0
1015,5010703006750,新規,0,2023-06-26,2023-06-26,合同会社ＡＢリアルエステート,,合同会社,東京都,品川区,東品川１丁目３番１５号ｔｈｅＤＯＣＫ,,13,109,1400002,,,,,,,2023-06-26,1,,,,,エービーリアルエステート,0
1018,5010801034083,新規,0,2023-06-26,2023-06-26,株式会社ＵＮＴＯＵＣＨＡＢＬＥ　ＰＲＯＭＯＴＩＯＮ,,株式会社,東京都,大田区,南馬込２丁目１１番６号,,13,111,1430025,,,,,,,2023-06-26,1,,,,,アンタッチャブルプロモーション,0
1019,5010801034091,新規,0,2023-06-26,2023-06-26,ロジオス株式会社,,株式会社,東京都,大田区,羽田５丁目３番１号スカイプラザオフィス１０階Ｂ,,13,111,1440043,,,,,,,2023-06-26,1,,,,,ロジオス,0
1029,5011001155249,新規,0,2023-06-26,2023-06-26,株式会社ＬＵＭＩＺＥ,,株式会社,東京都,目黒区,五本木２丁目１５番９号,,13,110,1530053,,,,,,,2023-06-26,1,,,,,ルミゼ,0
1030,5011001155257,新規,0,2023-06-26,2023-06-26,株式会社サウナデニホンイチ,,株式会社,東京都,渋谷区,道玄坂１丁目１０番８号渋谷道玄坂東急ビル２Ｆ－Ｃ,,13,113,1500043,,,,,,,2023-06-26,1,,,,,サウナデニホンイチ,0
1031,5011003017059,新規,0,2023-06-26,2023-06-26,Ｎａｉｎｏｈ合同会社,,合同会社,東京都,渋谷区,道玄坂１丁目１０番８号渋谷道玄坂東急ビル２Ｆ－Ｃ,,13,113,1500043,,,,,,,2023-06-26,1,,,,,ナイノー,0
1035,5011101103388,新規,0,2023-06-26,2023-06-26,株式会社ＭＲ　ＥＮＴＥＲＴＡＩＮＭＥＮＴ,,株式会社,東京都,新宿区,新宿６丁目２７番２９－２９０８号,,13,104,1600022,,,,,,,2023-06-26,1,,,,,エムアールエンターテインメント,0
1046,5011501029448,新規,0,2023-06-26,2023-06-26,啓強株式会社,,株式会社,東京都,北区,西ケ原１丁目４３番４－３０１号アイランダー駒込,,13,117,1140024,,,,,,,2023-06-26,1,,,,,,0
1048,5011703003507,新規,0,2023-06-26,2023-06-26,合同会社ＳＤテクニカルサービス,,合同会社,東京都,江戸川区,興宮町１８番１４－１０１号,,13,123,1330042,,,,,,,2023-06-26,1,,,,,エスデーテクニカルサービス,0
1049,5011801042621,新規,0,2023-06-26,2023-06-26,ＳＫＹＬＩＮＥ株式会社,,株式会社,東京都,足立区,興野１丁目１６番８号,,13,121,1230844,,,,,,,2023-06-26,1,,,,,スカイライン,0
1052,5012701017713,新規,0,2023-06-26,2023-06-26,株式会社ワイケイアシスト,,株式会社,東京都,小平市,学園西町２丁目２４－１７－１０２,,13,211,1870045,,,,,,,2023-06-26,1,,,,,ワイケイアシスト,0
1060,5013303006666,新規,0,2023-06-26,2023-06-26,蒙海合同会社,,合同会社,東京都,豊島区,西池袋４丁目２３番１２号,,13,116,1710021,,,,,,,2023-06-26,1,,,,,モウカイ,0
1066,5020001152123,新規,0,2023-06-26,2023-06-26,株式会社ＥＴＳ,,株式会社,神奈川県,横浜市中区,本牧大里町９－２３－３１２,,14,104,2310823,,,,,,,2023-06-26,1,,,,,イーティーエス,0
1067,5020001152172,新規,0,2023-06-26,2023-06-26,株式会社ＹＭＤＣ,,株式会社,神奈川県,横浜市戸塚区,柏尾町９３２－３,,14,110,2440812,,,,,,,2023-06-26,1,,,,,ワイエムディーシー,0
1068,5020001152197,新規,0,2023-06-26,2023-06-26,株式会社Ｅｄｇｅ,,株式会社,神奈川県,横浜市港南区,日野南５丁目２－１－３０９,,14,111,2340055,,,,,,,2023-06-26,1,,,,,エッジ,0
1069,5020001152214,新規,0,2023-06-26,2023-06-26,株式会社石井事務所,,株式会社,神奈川県,川崎市幸区,小倉３丁目１７番３７号,,14,132,2120054,,,,,,,2023-06-26,1,,,,,イシイジムショ,0
1070,5020001152230,新規,0,2023-06-26,2023-06-26,Ｔｗｏ　Ｂｉｒｄｓ　Ｃｏｎｓｕｌｔｉｎｇ株式会社,,株式会社,神奈川県,横浜市港北区,日吉本町５丁目１１番１４号,,14,109,2230062,,,,,,,2023-06-26,1,,,,,トゥーバーズコンサルティング,0
1071,5020001152247,新規,0,2023-06-26,2023-06-26,株式会社Ｒａｉｏｓｅ,,株式会社,神奈川県,川崎市中原区,木月３丁目２８番６－１号,,14,133,2110025,,,,,,,2023-06-26,1,,,,,レイオズ,0
1074,5020003024106,新規,0,2023-06-26,2023-06-26,Ｓａｎｌｙｎ　Ｎｉｈｏｎ　Ｉｎｔｅｒｎａｔｉｏｎａｌ合同会社,,合同会社,神奈川県,横浜市神奈川区,新子安１丁目１６番２７号ビックガーデン子安３０５号,,14,102,2210013,,,,,,,2023-06-26,1,,,,,サンリンニホンインターナショナル,0
1085,5030001154556,新規,0,2023-06-26,2023-06-26,ライトシャフト株式会社,,株式会社,埼玉県,吉川市,美南２丁目１２番地１４,,11,243,3420038,,,,,,,2023-06-26,1,,,,,ライトシャフト,0
1086,5030001154564,新規,0,2023-06-26,2023-06-26,株式会社ごこう,,株式会社,埼玉県,和光市,白子２丁目２３番４５号,,11,229,3510101,,,,,,,2023-06-26,1,,,,,ゴコウ,0
1087,5030001154572,新規,0,2023-06-26,2023-06-26,ビーエル・サービス株式会社,,株式会社,埼玉県,川口市,大字安行原２０８６番地の１－１０２号,,11,203,3340057,,,,,,,2023-06-26,1,,,,,ビーエルサービス,0
1088,5030001154630,新規,0,2023-06-26,2023-06-26,株式会社ＡＥＧＩＳ,,株式会社,埼玉県,三郷市,鷹野４丁目１０７番地１０,,11,237,3410035,,,,,,,2023-06-26,1,,,,,イージス,0
1093,5030003022018,新規,0,2023-06-26,2023-06-26,合同会社ヴレアープ,,合同会社,埼玉県,川口市,桜町３丁目３番１６号,,11,203,3340001,,,,,,,2023-06-26,1,,,,,ヴレアープ,0
1099,5040005022056,新規,0,2023-06-26,2023-06-26,京葉労働教育協同組合,,その他の設立登記法人,千葉県,船橋市,本町６丁目３－８－５０７号室,,12,204,2730005,,,,,,,2023-06-26,1,,,,,ケイヨウロウドウキョウイク,0
1101,5050003007603,新規,0,2023-06-26,2023-06-26,ＡＬ　ＧＨＡＮＩ　ＴＲＡＤＥＲＳ合同会社,,合同会社,茨城県,東茨城郡茨城町,大字小幡１１９３番地１,,08,302,3113157,,,,,,,2023-06-26,1,,,,,アルガーニトレーダーズ,0
1105,5060003004624,新規,0,2023-06-26,2023-06-26,Ｎ．Ｑ．Ｓ　ＴＲＡＤＩＮＧ合同会社,,合同会社,栃木県,栃木市,岩舟町新里１３０４番地５８号室,,09,203,3294316,,,,,,,2023-06-26,1,,,,,エンキューエストレーディング,0
1132,5120001255576,新規,0,2023-06-26,2023-06-26,栄海発展株式会社,,株式会社,大阪府,大阪市旭区,今市１丁目２－５カルム千林５０１号室,,27,117,5350011,,,,,,,2023-06-26,1,,,,,エイカイハッテン,0
1133,5120001255956,新規,0,2023-06-26,2023-06-26,フォーテック株式会社,,株式会社,大阪府,大阪市住之江区,浜口東２丁目７番２５号トクブチビル３Ｆ,,27,125,5590002,,,,,,,2023-06-26,1,,,,,フォーテック,0
1134,5120001255989,新規,0,2023-06-26,2023-06-26,株式会社オリーブコート,,株式会社,大阪府,大阪市東淀川区,下新庄４丁目２１番Ｂ－１０３号,,27,114,5330021,,,,,,,2023-06-26,1,,,,,オリーブコート,0
1136,5120003024376,新規,0,2023-06-26,2023-06-26,合同会社ＡＲＣ＆Ｃｏ．,,合同会社,大阪府,大阪市中央区,平野町３丁目１番６号ビズミックス淀屋橋１０１,,27,128,5410046,,,,,,,2023-06-26,1,,,,,アークアンドコー,0
1137,5120005023698,新規,0,2023-06-26,2023-06-26,一般社団法人大阪多民族キリスト教会,,その他の設立登記法人,大阪府,大阪市東成区,大今里１丁目２１番６号サンあいＩ号館５０３号,,27,115,5370012,,,,,,,2023-06-26,1,,,,,オオサカタミンゾクキリストキョウカイ,0
1138,5120103005292,新規,0,2023-06-26,2023-06-26,合同会社アセットＫ,,合同会社,大阪府,堺市北区,長曽根町３０８２番地５エンジェルズ・アイ２０２号,,27,146,5918025,,,,,,,2023-06-26,1,,,,,アセットケー,0
1142,5130001074570,新規,0,2023-06-26,2023-06-26,株式会社はなどう,,株式会社,京都府,宇治市,小倉町南浦１８番地の１１,,26,204,6110042,,,,,,,2023-06-26,1,,,,,ハナドウ,0
1147,5140001130629,新規,0,2023-06-26,2023-06-26,株式会社ＬＵＸＬＥ,,株式会社,兵庫県,豊岡市,城崎町湯島６７５番地の２,,28,209,6696101,,,,,,,2023-06-26,1,,,,,ラグレ,0
1150,5140003019242,新規,0,2023-06-26,2023-06-26,合同会社Ｃｈａｐｔｅｒ,,合同会社,兵庫県,神戸市中央区,山本通２丁目９番１９号,,28,110,6500003,,,,,,,2023-06-26,1,,,,,チャプター,0
1154,5150001026504,新規,0,2023-06-26,2023-06-26,セイフリィ企画株式会社,,株式会社,奈良県,香芝市,瓦口１７３番地４－２０２,,29,210,6390225,,,,,,,2023-06-26,1,,,,,セイフリィキカク,0
1166,5180001156851,新規,0,2023-06-26,2023-06-26,株式会社すずらん,,株式会社,愛知県,名古屋市中川区,中島新町２丁目１１１６番地の２,,23,110,4540932,,,,,,,2023-06-26,1,,,,,スズラン,0
1167,5180001156868,新規,0,2023-06-26,2023-06-26,株式会社ＫＡＦＵＫＵ,,株式会社,愛知県,弥富市,楠１丁目３８番地,,23,235,4980066,,,,,,,2023-06-26,1,,,,,カフク,0
1171,5180005020260,新規,0,2023-06-26,2023-06-26,一般社団法人ＢｕｄｄｈｉｓｍＡｓｈｒａｍ,,その他の設立登記法人,愛知県,江南市,木賀本郷町西１５２番地,,23,217,4838239,,,,,,,2023-06-26,1,,,,,ブッディズムアシュラム,0
1174,5190003004363,新規,0,2023-06-26,2023-06-26,合同会社シルクロイリス,,合同会社,三重県,伊勢市,上野町２０６２－６５,,24,203,5161104,,,,,,,2023-06-26,1,,,,,シルクロイリス,0
1179,5200001041423,新規,0,2023-06-26,2023-06-26,株式会社ＦＵＪＩ,,株式会社,岐阜県,揖斐郡池田町,藤代３５８番地の４７,,21,404,5032429,,,,,,,2023-06-26,1,,,,,フジ,0
1186,5240001061723,新規,0,2023-06-26,2023-06-26,株式会社しのはらんど,,株式会社,広島県,広島市西区,井口３丁目２１番１９号,,34,104,7330842,,,,,,,2023-06-26,1,,,,,シノハランド,0
1190,5260001038059,新規,0,2023-06-26,2023-06-26,株式会社ＣＯＮＮＥＣＴ,,株式会社,岡山県,岡山市南区,福田１１－１グレイスホームＡ棟１０２,,33,104,7028021,,,,,,,2023-06-26,1,,,,,コネクト,0
1194,5270001008804,新規,0,2023-06-26,2023-06-26,株式会社アゲイン,,株式会社,鳥取県,米子市,目久美町２３番地７,,31,202,6830035,,,,,,,2023-06-26,1,,,,,アゲイン,0
1207,5290803004445,新規,0,2023-06-26,2023-06-26,合同会社Ｆｏｒｔｕｎａ　ｌｅｇａｍｉ,,合同会社,福岡県,北九州市小倉南区,沼緑町３丁目１６番１２号,,40,107,8000207,,,,,,,2023-06-26,1,,,,,フォルトゥーナリガメ,0
1218,5330001030999,新規,0,2023-06-26,2023-06-26,株式会社エフ企画,,株式会社,熊本県,下益城郡美里町,永富２３５４番地,,43,348,8614722,,,,,,,2023-06-26,1,,,,,エフキカク,0
1220,5330003009892,新規,0,2023-06-26,2023-06-26,合同会社熊本サービス,,合同会社,熊本県,熊本市中央区,京町２丁目３番３４号,,43,101,8600078,,,,,,,2023-06-26,1,,,,,クマモトサービス,0
1221,5340001025668,新規,0,2023-06-26,2023-06-26,株式会社ハイジ,,株式会社,鹿児島県,曽於市,大隅町中之内７３２３番地１,,46,217,8998103,,,,,,,2023-06-26,1,,,,,ハイジ,0
1222,5340003004166,新規,0,2023-06-26,2023-06-26,ＹＡＤＩ合同会社,,合同会社,鹿児島県,鹿児島市,小松原２丁目２３番１９号サーパス小松原５０５号,,46,201,8910114,,,,,,,2023-06-26,1,,,,,ワイエイディーアイ,0
1248,6010001236413,新規,0,2023-06-26,2023-06-26,ＧＩキャピタル・マネジメント準備会社株式会社,,株式会社,東京都,千代田区,麹町１丁目７番地相互半蔵門ビルディング３階,,13,101,1020083,,,,,,,2023-06-26,1,,,,,ジーアイキャピタルマネジメントジュンビガイシャ,0
1249,6010001236438,新規,0,2023-06-26,2023-06-26,株式会社ＯＴＯＷＡ　ＬＡＢＯ,,株式会社,東京都,文京区,音羽１丁目２０番１４号,,13,105,1120013,,,,,,,2023-06-26,1,,,,,オトワラボ,0
1252,6010003040978,新規,0,2023-06-26,2023-06-26,ブリック・レーン・パートナーズ合同会社,,合同会社,東京都,千代田区,丸の内２丁目１番１号,,13,101,1000005,,,,,,,2023-06-26,1,,,,,ブリックレーンパートナーズ,0
1271,6010801034090,新規,0,2023-06-26,2023-06-26,株式会社あらた,,株式会社,東京都,大田区,池上４丁目３０番１２号第６朝日ビル１０４,,13,111,1460082,,,,,,,2023-06-26,1,,,,,アラタ,0
1275,6010903008265,新規,0,2023-06-26,2023-06-26,ミックスアップ合同会社,,合同会社,東京都,世田谷区,玉川４丁目２６番６号,,13,112,1580094,,,,,,,2023-06-26,1,,,,,ミックスアップ,0
1286,6011103013188,新規,0,2023-06-26,2023-06-26,ＳｕＳｕ合同会社,,合同会社,東京都,新宿区,百人町２丁目２０番２２号スカイコート新宿ＩＩ１０８－Ｄ,00130974,13,104,1690073,,,,,,,2023-06-26,1,,,,,スス,0
1291,6011301028806,新規,0,2023-06-26,2023-06-26,金子国際株式会社,,株式会社,東京都,杉並区,阿佐谷北２丁目９番２号,,13,115,1660001,,,,,,,2023-06-26,1,,,,,カネココクサイ,0
1292,6011403004036,新規,0,2023-06-26,2023-06-26,合同会社Ｉ‐Ｐｌａｎｎｉｎｇ,,合同会社,東京都,板橋区,宮本町１５番２－３０５号,,13,119,1740054,,,,,,,2023-06-26,1,,,,,アイプランニング,0
1294,6011501029455,新規,0,2023-06-26,2023-06-26,株式会社オルハ,,株式会社,東京都,荒川区,東日暮里４丁目２７番１１号Ｎｏ．１０１５,,13,118,1160014,,,,,,,2023-06-26,1,,,,,,0
1296,6011503005660,新規,0,2023-06-26,2023-06-26,合同会社ミレリザイア,,合同会社,東京都,北区,滝野川７丁目２６番１４号,,13,117,1140023,,,,,,,2023-06-26,1,,,,,ミレリザイア,0
1298,6011801042620,新規,0,2023-06-26,2023-06-26,株式会社マルユウ,,株式会社,東京都,足立区,小台２丁目３番２１－２１１号,,13,121,1200046,,,,,,,2023-06-26,1,,,,,マルユウ,0
1299,6011803005708,新規,0,2023-06-26,2023-06-26,合同会社ＲＳＳ,,合同会社,東京都,足立区,千住桜木１丁目３番３－３０３号,,13,121,1200045,,,,,,,2023-06-26,1,,,,,アールエスエス,0
1301,6012403006039,新規,0,2023-06-26,2023-06-26,合同会社ペーチカ,,合同会社,東京都,府中市,矢崎町４丁目１大東京綜合卸売りセンター内,,13,206,1830025,,,,,,,2023-06-26,1,,,,,ペーチカ,0
1303,6012801022455,新規,0,2023-06-26,2023-06-26,株式会社うわさ,,株式会社,東京都,立川市,羽衣町１丁目１９番２７号－２０５号,,13,202,1900021,,,,,,,2023-06-26,1,,,,,ウワサ,0
1304,6012801022463,新規,0,2023-06-26,2023-06-26,株式会社未来産業,,株式会社,東京都,立川市,一番町４丁目３５番地の１１,,13,202,1900033,,,,,,,2023-06-26,1,,,,,ミライサンギョウ,0
1319,6021001079405,新規,0,2023-06-26,2023-06-26,株式会社カート企画,,株式会社,神奈川県,相模原市中央区,緑が丘２丁目１４番６号,,14,152,2520225,,,,,,,2023-06-26,1,,,,,カートキカク,0
1320,6021001079413,新規,0,2023-06-26,2023-06-26,株式会社めしや大磯港,,株式会社,神奈川県,中郡大磯町,大磯１３９８番地１８,,14,341,2550003,,,,,,,2023-06-26,1,,,,,メシヤオオイソコウ,0
1330,6030001154497,新規,0,2023-06-26,2023-06-26,株式会社ＪＳＤ,,株式会社,埼玉県,白岡市,西１０丁目１３番２９,,11,246,3490205,,,,,,,2023-06-26,1,,,,,ジェイエスディ,0
1335,6030003021927,新規,0,2023-06-26,2023-06-26,合同会社ＮＧＵ,,合同会社,埼玉県,北葛飾郡杉戸町,大字大島５３３番地６,,11,464,3450042,,,,,,,2023-06-26,1,,,,,エヌジーユー,0
1336,6030003022041,新規,0,2023-06-26,2023-06-26,ＮＵＥＴＥＣ合同会社,,合同会社,埼玉県,熊谷市,曙町５丁目９７番地２０６号室,,11,202,3600033,,,,,,,2023-06-26,1,,,,,ニューテック,0
1337,6030005021314,新規,0,2023-06-26,2023-06-26,社会福祉法人博善会,,その他の設立登記法人,埼玉県,さいたま市浦和区,東仲町１０－２,,11,107,3300056,,,,,,,2023-06-26,1,,,,,ハクゼンカイ,0
1354,6060003004615,新規,0,2023-06-26,2023-06-26,ＮＯＯＲ　ＴＲＡＤＩＮＧ合同会社,,合同会社,栃木県,栃木市,岩舟町新里１３０４番地５４号室,,09,203,3294316,,,,,,,2023-06-26,1,,,,,ヌールトレーディング,0
1355,6060003004623,新規,0,2023-06-26,2023-06-26,ＨＫ　Ｉｎｔｅｒｎａｔｉｏｎａｌ合同会社,,合同会社,栃木県,栃木市,城内町２丁目１１番２７号ケイアイマンションＲ－１０３,,09,203,3280033,,,,,,,2023-06-26,1,,,,,エイチケーインターナショナル,0
1380,6120001255897,新規,0,2023-06-26,2023-06-26,米日中株式会社,,株式会社,大阪府,大阪市生野区,新今里５丁目１５番１７号ブランシュＩＩ４ａ,00130978,27,116,5440001,,,,,,,2023-06-26,1,,,,,ベイニチチュウ,0
1381,6120001255955,新規,0,2023-06-26,2023-06-26,株式会社ＰＧＸ　Ｈｅａｌｔｈｃａｒｅ,,株式会社,大阪府,大阪市中央区,道修町３丁目２番５号,,27,128,5410045,,,,,,,2023-06-26,1,,,,,ピージーエックスヘルスケアー,0
1382,6120001255988,新規,0,2023-06-26,2023-06-26,株式会社Ｌｉｆｅ　Ｍａｎａｇｅｍｅｎｔ,,株式会社,大阪府,大阪市中央区,瓦町４丁目３番２号本町ＵＭビル３階,,27,128,5410048,,,,,,,2023-06-26,1,,,,,ライフマネジメント,0
1383,6120001255996,新規,0,2023-06-26,2023-06-26,株式会社Ｒｉｒｅ,,株式会社,大阪府,大阪市中央区,大手通３丁目３番３号日宝東本町ビルＢＦ３号室,,27,128,5400021,,,,,,,2023-06-26,1,,,,,リール,0
1384,6120001256012,新規,0,2023-06-26,2023-06-26,株式会社Ｇｒｏｎ,,株式会社,大阪府,大阪市西区,江戸堀２丁目１－１江戸堀センタービルＢ１、２８号室,,27,106,5500002,,,,,,,2023-06-26,1,,,,,グロン,0
1386,6120003024367,新規,0,2023-06-26,2023-06-26,Ｍ＆Ｈ　ＣＡＦＥ合同会社,,合同会社,大阪府,大阪市浪速区,浪速東１丁目２番２４－１００８号,,27,111,5560025,,,,,,,2023-06-26,1,,,,,エムアンドエイチカフェ,0
1387,6120003024383,新規,0,2023-06-26,2023-06-26,合同会社Ｃ＆Ｃ,,合同会社,大阪府,大阪市浪速区,敷津西２丁目１３－２,,27,111,5560015,,,,,,,2023-06-26,1,,,,,シーアンドシー,0
1395,6120901047700,新規,0,2023-06-26,2023-06-26,株式会社キャリアデザイン,,株式会社,大阪府,吹田市,広芝町１０番８号江坂董友ビル３０６号室,,27,205,5640052,,,,,,,2023-06-26,1,,,,,キャリアデザイン,0
1399,6130001008577,新規,0,2023-06-26,2023-06-26,株式会社ハヤシ建設工業,,株式会社,京都府,京都市西京区,大原野上里南ノ町５４４番地の３,,26,111,6101123,,,,,,,2023-06-26,1,,,,,ハヤシケンセツコウギョウ,0
1407,6140001130652,新規,0,2023-06-26,2023-06-26,株式会社スカイエンジニアリング,,株式会社,兵庫県,神戸市東灘区,向洋町中１丁目１７番地アジアワンセンター,,28,101,6580032,,,,,,,2023-06-26,1,,,,,スカイエンジニアリング,0
1413,6140005026657,新規,0,2023-06-26,2023-06-26,一般社団法人ダイヤモンド,,その他の設立登記法人,兵庫県,西宮市,上甲子園２丁目４番１２号,,28,204,6638114,,,,,,,2023-06-26,1,,,,,ダイヤモンド,0
1422,6180001156826,新規,0,2023-06-26,2023-06-26,株式会社ＤＳＫ,,株式会社,愛知県,春日井市,白山町３丁目１１番地１８,,23,206,4870034,,,,,,,2023-06-26,1,,,,,ディーエスケー,0
1423,6180001156834,新規,0,2023-06-26,2023-06-26,株式会社原,,株式会社,愛知県,名古屋市守山区,小幡南２丁目１４番１７号グランコンフォール１０１号,,23,113,4630048,,,,,,,2023-06-26,1,,,,,ハラ,0
1426,6180003025401,新規,0,2023-06-26,2023-06-26,合同会社結,,合同会社,愛知県,名古屋市千種区,大島町１丁目４７番地,,23,101,4640833,,,,,,,2023-06-26,1,,,,,ユイ,0
1429,6190001030518,新規,0,2023-06-26,2023-06-26,株式会社Ａｓｓｉｓｔ　Ｃａｒ　Ｌｉｆｅ,,株式会社,三重県,亀山市,下庄町６６０番地１０,,24,210,5190133,,,,,,,2023-06-26,1,,,,,アシストカーライフ,0
1434,6240003006196,新規,0,2023-06-26,2023-06-26,合同会社といろ,,合同会社,広島県,福山市,坪生町３丁目２６番８号,,34,207,7210903,,,,,,,2023-06-26,1,,,,,トイロ,0
1438,6270005005557,新規,0,2023-06-26,2023-06-26,弁護士法人米子東町法律事務所,,その他の設立登記法人,鳥取県,米子市,東町２９６番地,,31,202,6830067,,,,,,,2023-06-26,1,,,,,ヨナゴヒガシチョウホウリツジムショ,0
1441,6290001102042,新規,0,2023-06-26,2023-06-26,株式会社ｍｔ‐ａｒｃ,,株式会社,福岡県,福岡市博多区,比恵町１番３０号サンいずみビル２Ｆ,,40,132,8120014,,,,,,,2023-06-26,1,,,,,エムティーエイアールシー,0
1445,6320001019852,新規,0,2023-06-26,2023-06-26,株式会社パワーバンクネクスト大分,,株式会社,大分県,国東市,国東町重藤２０１１番地,,44,214,8730514,,,,,,,2023-06-26,1,,,,,パワーバンクネクストオオイタ,0
1448,6330003009891,新規,0,2023-06-26,2023-06-26,ＷＳモータース合同会社,,合同会社,熊本県,熊本市南区,城南町１２３４－１,,43,104,8610000,,,,,,,2023-06-26,1,,,,,ダブリューエスモータース,0
1449,6340001025667,新規,0,2023-06-26,2023-06-26,ティエイチイー株式会社,,株式会社,鹿児島県,大島郡与論町,大字立長２５０７番地,,46,535,8919302,,,,,,,2023-06-26,1,,,,,ティエイチイー,0
1453,6350003004387,新規,0,2023-06-26,2023-06-26,合同会社Ｎｅｗｂｉｅ,,合同会社,宮崎県,宮崎市,大字浮田１００９番地５,,45,201,8802104,,,,,,,2023-06-26,1,,,,,ニュービー,0
1470,6430001089380,新規,0,2023-06-26,2023-06-26,株式会社豊平区,,株式会社,北海道,札幌市中央区,南三条西８丁目１２番１０号,,01,101,0600063,,,,,,,2023-06-26,1,,,,,トヨヒラク,0
1479,7010001236370,新規,0,2023-06-26,2023-06-26,スタンダードプラス株式会社,,株式会社,東京都,中央区,銀座１丁目１５番４号７階,,13,102,1040061,,,,,,,2023-06-26,1,,,,,スタンダードプラス,0
1480,7010001236404,新規,0,2023-06-26,2023-06-26,株式会社Ｃｏｌｏｒ,,株式会社,東京都,千代田区,二番町９番地３,,13,101,1020084,,,,,,,2023-06-26,1,,,,,カラー,0
1481,7010001236412,新規,0,2023-06-26,2023-06-26,Ｓｅｖｅｎｔｙ　Ｎｉｎｔｈ　Ｇｒｏｕｐ　Ｊａｐａｎ株式会社,,株式会社,東京都,千代田区,麹町３丁目５番２号ビュレックス麹町５０９,,13,101,1020083,,,,,,,2023-06-26,1,,,,,セブンティーナインスグループジャパン,0
1494,7010601063322,新規,0,2023-06-26,2023-06-26,ジェーシュン興業株式会社,,株式会社,東京都,江東区,新大橋２丁目１５番２号ナイツブリッヂビル３０１,,13,108,1350007,,,,,,,2023-06-26,1,,,,,ジェーシュンコウギョウ,0
1498,7010803004586,新規,0,2023-06-26,2023-06-26,誠恒商事合同会社,,合同会社,東京都,大田区,京浜島２丁目３－５,,13,111,1430003,,,,,,,2023-06-26,1,,,,,セイコウショウジ,0
1509,7011001155263,新規,0,2023-06-26,2023-06-26,株式会社ＡＳＫＫ,,株式会社,東京都,目黒区,下目黒２丁目３番７－６１０号パークナード目黒,,13,110,1530064,,,,,,,2023-06-26,1,,,,,エーエスケィケィ,0
1519,7011701026359,新規,0,2023-06-26,2023-06-26,株式会社ＴＥＲＭＩＮＵＳ,,株式会社,東京都,江戸川区,中葛西３丁目１１番８号,,13,123,1340083,,,,,,,2023-06-26,1,,,,,テルミナス,0
1520,7012301013499,新規,0,2023-06-26,2023-06-26,株式会社グローバルインテリジェンストレーディング,,株式会社,東京都,町田市,小山町５００７番地１４,,13,209,1940212,,,,,,,2023-06-26,1,,,,,グローバルインテリジェンストレーディング,0
1524,7012401040674,新規,0,2023-06-26,2023-06-26,株式会社Ｍコンストラクト,,株式会社,東京都,調布市,緑ケ丘１丁目４５番地５０,,13,208,1820001,,,,,,,2023-06-26,1,,,,,エムコンストラクト,0
1533,7020001152121,新規,0,2023-06-26,2023-06-26,株式会社ここん,,株式会社,神奈川県,横浜市都筑区,勝田南２丁目７番１４号さつきハイツ１０１号,,14,118,2240036,,,,,,,2023-06-26,1,,,,,ココン,0
1534,7020001152195,新規,0,2023-06-26,2023-06-26,株式会社ＭＹ‐Ｒ,,株式会社,神奈川県,横浜市神奈川区,神大寺２丁目１１－５－３０３グリーンハイツ神大寺ＩＩ,00130973,14,102,2210801,,,,,,,2023-06-26,1,,,,,マイアール,0
1535,7020001152212,新規,0,2023-06-26,2023-06-26,ＫＯＴＯＮＯ株式会社,,株式会社,神奈川県,横浜市西区,浅間町１丁目４番３号ウィザードビル４０２,,14,103,2200072,,,,,,,2023-06-26,1,,,,,コトノ,0
1537,7020003024095,新規,0,2023-06-26,2023-06-26,合同会社ＹＨＳＧ,,合同会社,神奈川県,川崎市麻生区,万福寺５丁目２０番２０－５０３号菱興百合ヶ丘マンション,,14,137,2150004,,,,,,,2023-06-26,1,,,,,ワイエイチエスジー,0
1538,7020003024112,新規,0,2023-06-26,2023-06-26,合同会社ラパンサービス,,合同会社,神奈川県,横浜市南区,別所中里台２１番１３号,,14,105,2320065,,,,,,,2023-06-26,1,,,,,ラパンサービス,0
1540,7021001079404,新規,0,2023-06-26,2023-06-26,株式会社ＵＮＩＱＵＥ　ＬＡＮＫＡ,,株式会社,神奈川県,綾瀬市,吉岡字山崎２５１１番１,,14,218,2521124,,,,,,,2023-06-26,1,,,,,ユニックランカ,0
1541,7021001079420,新規,0,2023-06-26,2023-06-26,アシェル鎌倉株式会社,,株式会社,神奈川県,鎌倉市,上町屋２２８番地１８,,14,204,2470065,,,,,,,2023-06-26,1,,,,,アシェルカマクラ,0
1545,7030001154538,新規,0,2023-06-26,2023-06-26,株式会社オクタコード,,株式会社,埼玉県,春日部市,南４丁目２５番１１号,,11,214,3440064,,,,,,,2023-06-26,1,,,,,オクタコード,0
1546,7030001154612,新規,0,2023-06-26,2023-06-26,株式会社Ｇｒｅｅｎ　Ａｌｉｃｅ,,株式会社,埼玉県,所沢市,東町１２番１０号,,11,208,3591116,,,,,,,2023-06-26,1,,,,,グリーンアリス,0
1547,7030001154620,新規,0,2023-06-26,2023-06-26,株式会社ＲＵＩＳＯＦＴ,,株式会社,埼玉県,蕨市,塚越１丁目６番１０号蕨第５サニーコート８０１号,,11,223,3350002,,,,,,,2023-06-26,1,,,,,ルイソフト,0
1556,7040001128961,新規,0,2023-06-26,2023-06-26,株式会社ミライノチカラ,,株式会社,千葉県,茂原市,萱場３６１１番地,,12,210,2994111,,,,,,,2023-06-26,1,,,,,ミライノチカラ,0
1563,7050001053036,新規,0,2023-06-26,2023-06-26,株式会社Ｍ’ｓ,,株式会社,茨城県,神栖市,神栖２丁目３番３２号,,08,232,3140143,,,,,,,2023-06-26,1,,,,,エムズ,0
1566,7070001040560,新規,0,2023-06-26,2023-06-26,株式会社ダイトサービス,,株式会社,群馬県,藤岡市,下大塚４７０番地,,10,209,3750052,,,,,,,2023-06-26,1,,,,,ダイトサービス,0
1588,7110001037635,新規,0,2023-06-26,2023-06-26,株式会社ＷＡＫＡＴＳＵＫＩ,,株式会社,新潟県,新潟市中央区,姥ケ山５４５番地,,15,103,9500923,,,,,,,2023-06-26,1,,,,,ワカツキ,0
1599,7120001255987,新規,0,2023-06-26,2023-06-26,株式会社ＡＢＵＮＤＡＮＣＥ,,株式会社,大阪府,大阪市北区,西天満３丁目４番５－６０１号,,27,127,5300047,,,,,,,2023-06-26,1,,,,,アバンダンス,0
1600,7120003024374,新規,0,2023-06-26,2023-06-26,合同会社ＹＡＥ,,合同会社,大阪府,大阪市北区,梅田１丁目２番２号大阪駅前第２ビル１２－１２,,27,127,5300001,,,,,,,2023-06-26,1,,,,,ヤエ,0
1606,7120103005290,新規,0,2023-06-26,2023-06-26,合同会社Ｆ・Ｌ・Ｃ,,合同会社,大阪府,河内長野市,天野町６８２番地の１,,27,216,5860086,,,,,,,2023-06-26,1,,,,,エフエルシー,0
1611,7120903004707,新規,0,2023-06-26,2023-06-26,合同会社オフィスサナエ,,合同会社,大阪府,吹田市,藤白台３丁目５番５－３０１号,,27,205,5650873,,,,,,,2023-06-26,1,,,,,オフィスサナエ,0
1612,7130003008806,新規,0,2023-06-26,2023-06-26,あがたマネジメントサービス合同会社,,合同会社,京都府,宇治市,宇治乙方４７番地,,26,204,6110021,,,,,,,2023-06-26,1,,,,,アガタマネジメントサービス,0
1617,7140001130643,新規,0,2023-06-26,2023-06-26,フジタカ工業株式会社,,株式会社,兵庫県,姫路市,夢前町古知之庄２０７番地６,,28,201,6712113,,,,,,,2023-06-26,1,,,,,フジタカコウギョウ,0
1623,7180001156858,新規,0,2023-06-26,2023-06-26,株式会社シスピタ,,株式会社,愛知県,稲沢市,高御堂４丁目１１番地１,,23,220,4928213,,,,,,,2023-06-26,1,,,,,シスピタ,0
1625,7180003025400,新規,0,2023-06-26,2023-06-26,合同会社エイチ・ツー・オー,,合同会社,愛知県,名古屋市千種区,大島町１丁目４７番地,,23,101,4640833,,,,,,,2023-06-26,1,,,,,エイチツーオー,0
1629,7180301037502,新規,0,2023-06-26,2023-06-26,株式会社さくや,,株式会社,愛知県,安城市,大東町２番１号ゼルクシティ安城ＳＡ－３０１,,23,212,4460065,,,,,,,2023-06-26,1,,,,,サクヤ,0
1635,7230001019893,新規,0,2023-06-26,2023-06-26,株式会社クリエイティクス,,株式会社,富山県,富山市,東富山寿町２丁目６番１６号,,16,201,9318452,,,,,,,2023-06-26,1,,,,,クリエイティクス,0
1637,7240001061721,新規,0,2023-06-26,2023-06-26,株式会社アン,,株式会社,広島県,広島市南区,段原日出１丁目１２番１８－３０２号,,34,103,7320818,,,,,,,2023-06-26,1,,,,,アン,0
1651,7290003014053,新規,0,2023-06-26,2023-06-26,合同会社ＪＥＡＮＮＥ,,合同会社,福岡県,福岡市博多区,博多駅東１丁目１番２５号宝ビル２階,,40,132,8120013,,,,,,,2023-06-26,1,,,,,ジャンヌ,0
1660,7330001030997,新規,0,2023-06-26,2023-06-26,株式会社ギョウフリｇｒｏｕｐ,,株式会社,熊本県,熊本市中央区,坪井４丁目８－１３,,43,101,8600863,,,,,,,2023-06-26,1,,,,,ギョウフリグループ,0
1662,7330003009890,新規,0,2023-06-26,2023-06-26,日創合同会社,,合同会社,熊本県,熊本市中央区,渡鹿６丁目１－６２ＥＥＬＩＩ２階２０２号室,00130980,43,101,8620970,,,,,,,2023-06-26,1,,,,,ニッソウ,0
1663,7340005009624,新規,0,2023-06-26,2023-06-26,一般社団法人枕ラボ,,その他の設立登記法人,鹿児島県,枕崎市,栄中町１６５番地,,46,204,8980038,,,,,,,2023-06-26,1,,,,,マクラボ,0
1669,7380001033806,新規,0,2023-06-26,2023-06-26,株式会社マトイ,,株式会社,福島県,郡山市,富久山町久保田字石鼻３９番地,,07,203,9638071,,,,,,,2023-06-26,1,,,,,マトイ,0
1674,7430003015160,新規,0,2023-06-26,2023-06-26,ＴＭＲＧ　ＪＡＰＡＮ合同会社,,合同会社,北海道,虻田郡倶知安町,ニセコひらふ一条２丁目６番９号雪ニセコＬｕｋｅ’ｓ　Ｏｙｓｔｅｒ　Ｂａｒ　ａｎｄ　Ｃｈｏｐ　Ｈｏｕｓｅ,,01,400,0440080,,,,,,,2023-06-26,1,,,,,ティーエムアールジージャパン,0
1676,7450001014022,新規,0,2023-06-26,2023-06-26,ＭＲＪ貿易株式会社,,株式会社,北海道,士別市,西士別町１８９９番地１１,,01,220,0950056,,,,,,,2023-06-26,1,,,,,エムアールジェーボウエキ,0
1694,8010001236353,新規,0,2023-06-26,2023-06-26,株式会社Ｇｉｐｔ,,株式会社,東京都,中央区,八丁堀４丁目８番７－２０２号,,13,102,1040032,,,,,,,2023-06-26,1,,,,,ジプト,0
1695,8010001236403,新規,0,2023-06-26,2023-06-26,アスプラスパートナー株式会社,,株式会社,東京都,中央区,銀座１丁目１２－４,,13,102,1040061,,,,,,,2023-06-26,1,,,,,アスプラスパートナー,0
1696,8010001236444,新規,0,2023-06-26,2023-06-26,新希望株式会社,,株式会社,東京都,中央区,東日本橋２丁目３番２－８０２号,,13,102,1030004,,,,,,,2023-06-26,1,,,,,シンキボウ,0
1717,8010501050659,新規,0,2023-06-26,2023-06-26,ＥＣＯ‐ＳＯＵＲＣＥＳ株式会社,,株式会社,東京都,台東区,上野６丁目７－１６川久保ビル８２０号,,13,106,1100005,,,,,,,2023-06-26,1,,,,,エコソース,0
1718,8010601063321,新規,0,2023-06-26,2023-06-26,株式会社ＨＡＲＸ,,株式会社,東京都,墨田区,業平１丁目１２番７－２０４号,,13,107,1300002,,,,,,,2023-06-26,1,,,,,ハークス,0
1719,8010803004585,新規,0,2023-06-26,2023-06-26,Ｐａｉｎｔ　ｉｔ合同会社,,合同会社,東京都,大田区,南六郷１丁目３４－５ユニバーサル７－３０５,,13,111,1440045,,,,,,,2023-06-26,1,,,,,ペイントイット,0
1720,8010903008263,新規,0,2023-06-26,2023-06-26,ｉＳＳＩ合同会社,,合同会社,東京都,世田谷区,奥沢３丁目３５番１３号,,13,112,1580083,,,,,,,2023-06-26,1,,,,,アイエスエスアイ,0
1721,8011101103385,新規,0,2023-06-26,2023-06-26,株式会社スムーズライフ,,株式会社,東京都,新宿区,大久保２丁目１８番１０号新宿スカイプラザ７０７号室,,13,104,1690072,,,,,,,2023-06-26,1,,,,,スムーズライフ,0
1722,8011101103393,新規,0,2023-06-26,2023-06-26,株式会社ＬＯＫＩＡＲ,,株式会社,東京都,新宿区,西新宿３丁目３番１３号西新宿水間ビル６階,,13,104,1600023,,,,,,,2023-06-26,1,,,,,ロキアー,0
1742,8013301050952,新規,0,2023-06-26,2023-06-26,株式会社地域創生事業マネジメント,,株式会社,東京都,豊島区,西池袋１丁目４番１０号,,13,116,1710021,,,,,,,2023-06-26,1,,,,,チイキソウセイジギョウマネジメント,0
1743,8013301050969,新規,0,2023-06-26,2023-06-26,ダイナソルコンサルティング株式会社,,株式会社,東京都,豊島区,南大塚１丁目６０番２０号天翔大塚駅前ビル１２Ｆ,,13,116,1700005,,,,,,,2023-06-26,1,,,,,ダイナソルコンサルティング,0
1752,8020001152228,新規,0,2023-06-26,2023-06-26,株式会社ショーアップオン,,株式会社,神奈川県,川崎市川崎区,浅田３丁目１９番５号コーポＳａ２０２,,14,131,2100847,,,,,,,2023-06-26,1,,,,,ショーアップオン,0
1766,8030001154594,新規,0,2023-06-26,2023-06-26,株式会社ＭＱＳ,,株式会社,埼玉県,白岡市,西１丁目１５番８,,11,246,3490205,,,,,,,2023-06-26,1,,,,,エムキュウエス,0
1769,8030003021958,新規,0,2023-06-26,2023-06-26,合同会社Ｒｉｐｐｌｅｓ,,合同会社,埼玉県,越谷市,レイクタウン５丁目１３番地４ソレイユ啓耀３０３,,11,222,3430828,,,,,,,2023-06-26,1,,,,,リプルス,0
1777,8040001128911,新規,0,2023-06-26,2023-06-26,ロゼットリーフ株式会社,,株式会社,千葉県,市川市,宝１丁目１３番１２号,,12,203,2720122,,,,,,,2023-06-26,1,,,,,ロゼットリーフ,0
1778,8040001128969,新規,0,2023-06-26,2023-06-26,東興業株式会社,,株式会社,千葉県,船橋市,夏見２丁目５番３－４号,,12,204,2730865,,,,,,,2023-06-26,1,,,,,アズマコウギョウ,0
1781,8040005022053,新規,0,2023-06-26,2023-06-26,一般社団法人こぐま会,,その他の設立登記法人,千葉県,千葉市中央区,村田町１１８０番地,,12,101,2600825,,,,,,,2023-06-26,1,,,,,コグマカイ,0
1788,8080003003002,新規,0,2023-06-26,2023-06-26,合同会社チコット,,合同会社,静岡県,焼津市,本町３丁目１番１号,,22,212,4250022,,,,,,,2023-06-26,1,,,,,チコット,0
1802,8120001255986,新規,0,2023-06-26,2023-06-26,万年青株式会社,,株式会社,大阪府,大阪市生野区,新今里３丁目２番８号ピンクパンサービル１階,,27,116,5440001,,,,,,,2023-06-26,1,,,,,オモト,0
1803,8120001256019,新規,0,2023-06-26,2023-06-26,株式会社ＯｎｅＡｒｃ,,株式会社,大阪府,交野市,私部６丁目２６番２号,,27,230,5760052,,,,,,,2023-06-26,1,,,,,ワンアーク,0
1805,8120003024357,新規,0,2023-06-26,2023-06-26,合同会社ＮＢ,,合同会社,大阪府,大阪市平野区,加美正覚寺２丁目１０番２６号,,27,126,5470006,,,,,,,2023-06-26,1,,,,,,0
1806,8120003024365,新規,0,2023-06-26,2023-06-26,合同会社Ｏｎｅ　Ａｄｄｉｔｉｏｎ,,合同会社,大阪府,大阪市北区,梅田１丁目２番２号大阪駅前第２ビル１２－１２,,27,127,5300001,,,,,,,2023-06-26,1,,,,,ワンアディション,0
1824,8140001130659,新規,0,2023-06-26,2023-06-26,株式会社ｇｏｇａ,,株式会社,兵庫県,神戸市中央区,海岸通４丁目１番１１号２階,,28,110,6500024,,,,,,,2023-06-26,1,,,,,ゴガ,0
1835,8180001156857,新規,0,2023-06-26,2023-06-26,オカダ設備株式会社,,株式会社,愛知県,名古屋市緑区,桶狭間西８２５番地,,23,114,4580929,,,,,,,2023-06-26,1,,,,,オカダセツビ,0
1836,8180001156865,新規,0,2023-06-26,2023-06-26,ＭＫ　ＭＡＮＡＧＥＭＥＮＴ株式会社,,株式会社,愛知県,名古屋市南区,岩戸町１９番２７号プリンセス大磯通３０３号,,23,112,4570015,,,,,,,2023-06-26,1,,,,,エムケイマネジメント,0
1841,8180003025399,新規,0,2023-06-26,2023-06-26,ＡＩｎｅｗＩＰ合同会社,,合同会社,愛知県,尾張旭市,瀬戸川町２丁目１０５番地５,,23,226,4880023,,,,,,,2023-06-26,1,,,,,アイニューアイピー,0
1842,8180301037501,新規,0,2023-06-26,2023-06-26,株式会社ソーシャルスタイル,,株式会社,愛知県,岡崎市,矢作町字市場３１番地４,,23,202,4440943,,,,,,,2023-06-26,1,,,,,ソーシャルスタイル,0
1855,8290001102016,新規,0,2023-06-26,2023-06-26,株式会社ＴＢＣ,,株式会社,福岡県,福岡市東区,奈多１丁目９番１０号,,40,131,8110204,,,,,,,2023-06-26,1,,,,,ティービーシー,0
1856,8290001102040,新規,0,2023-06-26,2023-06-26,株式会社鳳雛,,株式会社,福岡県,柳川市,大和町栄４９０番地２,,40,207,8390252,,,,,,,2023-06-26,1,,,,,ホウスウ,0
1865,8290005019074,新規,0,2023-06-26,2023-06-26,一般社団法人日本中小企業ＤＣ支援協会,,その他の設立登記法人,福岡県,筑紫野市,二日市北２丁目１８番５－９０１号,,40,217,8180056,,,,,,,2023-06-26,1,,,,,ニホンチュショウキギョウディーシーシエンキョウカイ,0
1868,8310001018481,新規,0,2023-06-26,2023-06-26,株式会社ＩＳＤ,,株式会社,長崎県,大村市,池田２丁目２６７番地３,,42,205,8560026,,,,,,,2023-06-26,1,,,,,アイエスディー,0
1870,8330001030988,新規,0,2023-06-26,2023-06-26,株式会社三成開発,,株式会社,熊本県,熊本市北区,津浦町４４－５,,43,105,8600088,,,,,,,2023-06-26,1,,,,,,0
1871,8330001030996,新規,0,2023-06-26,2023-06-26,株式会社翔聖興業,,株式会社,熊本県,熊本市北区,楠７丁目７番５号１００１号室,,43,105,8618003,,,,,,,2023-06-26,1,,,,,ショウセイコウギョウ,0
1876,8360003013039,新規,0,2023-06-26,2023-06-26,ＳＤ佐久合同会社,,合同会社,沖縄県,浦添市,字経塚８０１番地２,,47,208,9012111,,,,,,,2023-06-26,1,,,,,エスディーサク,0
1890,8430001089404,新規,0,2023-06-26,2023-06-26,株式会社Ａｒｃｔｅｃｈ,,株式会社,北海道,札幌市北区,新琴似十条９丁目５番７号,,01,102,0010910,,,,,,,2023-06-26,1,,,,,アークテック,0
1895,8430003015184,新規,0,2023-06-26,2023-06-26,合同会社モエ・アポ,,合同会社,北海道,札幌市厚別区,厚別中央五条４丁目１２番１号若草物語１０１号室,,01,108,0040055,,,,,,,2023-06-26,1,,,,,モエアポ,0
1899,8700150116591,新規,0,2023-06-26,2023-05-30,新堂みかん出荷組合,,その他,和歌山県,有田市,新堂７０９番地,,30,204,6490303,,,,,,,2023-05-30,1,,,,,シンドウミカンシユツカクミアイ,0
1900,8700150117788,新規,0,2023-06-26,2023-06-26,Ｓｈｅｎｚｈｅｎ　ＨｏｎｇＳｈｕｏ　Ｅｌｅｃｔｒｏｎｉｃｓ　Ｃｏ．，Ｌｔｄ,,外国会社等,,,,,,,,Ｔｉａｎｌｉａｏ　Ｇｅｎｙｕ　Ｒｏａｄ　ＨｕａＭｉｎｇ　Ｍｏｌｄ　Ｉｎｄｕｓｔｒｉａｌ　Ｐａｒｋ　Ｂｕｉｌｄｏｍｇ　Ａ　Ｄｉｓｔｒｉｃ　Ｃ　Ｇｕａｎｇｍｉｎｇ　Ｄｉｓｔｒｉｃｔ　Ｓｈｅｎｚｈｅｎ，Ｇｕａｎｇｄｏｎｇ　Ｐｒｏｖｉｎｃｅ　５１８１３２　ＣＮ,,,,,,2023-06-26,1,,,,,シエンジエンシーホンシユオデイエンズーヨウシエンゴンスー,0
1905,9010001236410,新規,0,2023-06-26,2023-06-26,株式会社フィラメント,,株式会社,東京都,中央区,銀座７丁目１３番２１号銀座新六洲ビル２階,,13,102,1040061,,,,,,,2023-06-26,1,,,,,フィラメント,0
1910,9010003040975,新規,0,2023-06-26,2023-06-26,合同会社ＣＵＣＵ,,合同会社,東京都,中央区,晴海３丁目１３番１－９０２号,,13,102,1040053,,,,,,,2023-06-26,1,,,,,クク,0
1922,9010401174929,新規,0,2023-06-26,2023-06-26,株式会社Ｃｉｅｌ,,株式会社,東京都,港区,北青山３丁目９－１２セイジュンビル１Ｆ,,13,103,1070061,,,,,,,2023-06-26,1,,,,,シエル,0
1924,9010405022274,新規,0,2023-06-26,2023-06-26,成田一般社団法人,,その他の設立登記法人,東京都,港区,元赤坂１丁目１番８号株式会社赤坂国際会計内,,13,103,1070051,,,,,,,2023-06-26,1,,,,,ナリタ,0
1925,9010503007053,新規,0,2023-06-26,2023-06-26,サンライズ合同会社,,合同会社,東京都,台東区,元浅草３丁目８－１,,13,106,1110041,,,,,,,2023-06-26,1,,,,,サンライズ,0
1930,9010701044443,新規,0,2023-06-26,2023-06-26,景昇国際株式会社,,株式会社,東京都,品川区,南大井３丁目３０番１－１００２号,,13,109,1400013,,,,,,,2023-06-26,1,,,,,ケイショウコクサイ,0
1931,9010703006747,新規,0,2023-06-26,2023-06-26,ビブチット合同会社,,合同会社,東京都,品川区,二葉２丁目１２番２号シティハイム西大井２０２号室,,13,109,1420043,,,,,,,2023-06-26,1,,,,,ビブチット,0
1937,9011001155261,新規,0,2023-06-26,2023-06-26,鼎力株式会社,,株式会社,東京都,目黒区,上目黒１丁目１３番１１号リバーサイド中目黒１０２,,13,110,1530051,,,,,,,2023-06-26,1,,,,,,0
1945,9011501029452,新規,0,2023-06-26,2023-06-26,株式会社ＬＧコンサルティング,,株式会社,東京都,荒川区,西日暮里２丁目２２－１－３４０１,,13,118,1160013,,,,,,,2023-06-26,1,,,,,エルジーコンサルティング,0
1948,9012301013497,新規,0,2023-06-26,2023-06-26,株式会社スマートセレクト,,株式会社,東京都,町田市,金井ヶ丘１丁目１０番１号,,13,209,1950076,,,,,,,2023-06-26,1,,,,,スマートセレクト,0
1949,9012303001839,新規,0,2023-06-26,2023-06-26,合同会社ｂａｂ,,合同会社,東京都,町田市,忠生２丁目２７番地５０,,13,209,1940035,,,,,,,2023-06-26,1,,,,,ビーエービー,0
1957,9013301050885,新規,0,2023-06-26,2023-06-26,株式会社Ｆｅｌｉｘｉａ,,株式会社,東京都,豊島区,北大塚２丁目１６番９号ライオンズマンション大塚１００２,,13,116,1700004,,,,,,,2023-06-26,1,,,,,フェリシア,0
1970,9020001152210,新規,0,2023-06-26,2023-06-26,コデザイン株式会社,,株式会社,神奈川県,横浜市神奈川区,栄町６番地１ロア参番館２０９号,,14,102,2210052,,,,,,,2023-06-26,1,,,,,コデザイン,0
1971,9020001152235,新規,0,2023-06-26,2023-06-26,株式会社Ａｒｍｏｒ　Ｔｅｃｈ　Ｌａｂ,,株式会社,神奈川県,川崎市麻生区,王禅寺西２丁目１４番１０号,,14,137,2150017,,,,,,,2023-06-26,1,,,,,アーマーテックラボ,0
1977,9021001079419,新規,0,2023-06-26,2023-06-26,株式会社バーベルラジオ,,株式会社,神奈川県,横須賀市,芦名２丁目６－１,,14,201,2400104,,,,,,,2023-06-26,1,,,,,バーベルラジオ,0
1985,9030001154619,新規,0,2023-06-26,2023-06-26,株式会社日照堂コネクト,,株式会社,埼玉県,草加市,谷塚町１１７９番地２６,,11,221,3400023,,,,,,,2023-06-26,1,,,,,ニッショウドウコネクト,0
1988,9030003021981,新規,0,2023-06-26,2023-06-26,合同会社ウルル,,合同会社,埼玉県,和光市,白子１丁目２４番３３号,,11,229,3510101,,,,,,,2023-06-26,1,,,,,ウルル,0
2010,9080001025682,新規,0,2023-06-26,2023-06-26,株式会社樹澄,,株式会社,静岡県,静岡市駿河区,向敷地５丁目１０番６７号ベルフラッツ１０１号,,22,102,4210101,,,,,,,2023-06-26,1,,,,,キスミ,0
2024,9120001255936,新規,0,2023-06-26,2023-06-26,株式会社エム,,株式会社,大阪府,寝屋川市,上神田２丁目３番２１号,,27,215,5720052,,,,,,,2023-06-26,1,,,,,エム,0
2025,9120001255952,新規,0,2023-06-26,2023-06-26,株式会社友認,,株式会社,大阪府,大阪市中央区,宗右衛門町２番３号美松ビル３階,,27,128,5420084,,,,,,,2023-06-26,1,,,,,ユウニン,0
2027,9120003024364,新規,0,2023-06-26,2023-06-26,合同会社ＲＡインベストメント,,合同会社,大阪府,大阪市中央区,北浜１丁目９番１０号北浜宗田ビル５０２,,27,128,5410041,,,,,,,2023-06-26,1,,,,,アールエーインベストメント,0
2028,9120003024372,新規,0,2023-06-26,2023-06-26,ＭＯＮＵ合同会社,,合同会社,大阪府,大阪市生野区,小路東２丁目６番１９－５０２号,,27,116,5440003,,,,,,,2023-06-26,1,,,,,モンウ,0
2031,9120101067620,新規,0,2023-06-26,2023-06-26,タウルスアセット・マネジメント株式会社,,株式会社,大阪府,堺市堺区,南島町１丁３６番地１３－１００４号,,27,141,5900904,,,,,,,2023-06-26,1,,,,,タウルスアセットマネジメント,0
2034,9120905006476,新規,0,2023-06-26,2023-06-26,一般社団法人みらいど,,その他の設立登記法人,大阪府,高槻市,大冠町３丁目２１番２号,,27,207,5690031,,,,,,,2023-06-26,1,,,,,ミライド,0
2055,9180001156848,新規,0,2023-06-26,2023-06-26,株式会社トラスト,,株式会社,愛知県,名古屋市中区,錦３丁目１９番１０号,,23,106,4600003,,,,,,,2023-06-26,1,,,,,トラスト,0
2056,9180001156856,新規,0,2023-06-26,2023-06-26,株式会社職の教科書,,株式会社,愛知県,名古屋市名東区,藤森１丁目２番地,,23,115,4650026,,,,,,,2023-06-26,1,,,,,ショクノキョウカショ,0
2057,9180001156872,新規,0,2023-06-26,2023-06-26,株式会社ＴＨＥ　ＭＯＮＤＯ,,株式会社,愛知県,名古屋市中区,錦１丁目３番２８号プラセシオン名古屋伏見９０４号,,23,106,4600003,,,,,,,2023-06-26,1,,,,,ザモンド,0
2070,9240005015606,新規,0,2023-06-26,2023-06-26,一般社団法人ＫＵＲＵ　ＫＵＲＵ,,その他の設立登記法人,広島県,安芸高田市,向原町長田２７２８－１,,34,214,7391203,,,,,,,2023-06-26,1,,,,,,0
2073,9250001020146,新規,0,2023-06-26,2023-06-26,株式会社４ピース・コミュニケーションズ,,株式会社,山口県,萩市,大字東田町１４番地１ＴＫビル１階,,35,204,7580047,,,,,,,2023-06-26,1,,,,,フォーピースコミュニケーションズ,0
2084,9290803004441,新規,0,2023-06-26,2023-06-26,合同会社エスポワール,,合同会社,福岡県,北九州市八幡西区,本城４丁目６番１７号,,40,109,8070801,,,,,,,2023-06-26,1,,,,,エスポワール,0
2086,9300001013350,新規,0,2023-06-26,2023-06-26,株式会社ＪＨＭ,,株式会社,佐賀県,武雄市,東川登町大字袴野１０８２２番地１,,41,206,8430234,,,,,,,2023-06-26,1,,,,,ジェイエイチエム,0
2089,9310003004594,新規,0,2023-06-26,2023-06-26,合同会社ｄａｇｍａ,,合同会社,長崎県,長崎市,千々町９０８番地２,,42,201,8510245,,,,,,,2023-06-26,1,,,,,ダグマ,0
2090,9320005010086,新規,0,2023-06-26,2023-06-26,一般社団法人ウェルネスビューティーライフ協会,,その他の設立登記法人,大分県,大分市,高尾台１丁目１７番１２号,,44,201,8700873,,,,,,,2023-06-26,1,,,,,ウェルネスビューティーライフキョウカイ,0
2093,9340001025664,新規,0,2023-06-26,2023-06-26,株式会社ムートン,,株式会社,鹿児島県,霧島市,霧島田口２６３８番地３２１,,46,218,8994201,,,,,,,2023-06-26,1,,,,,ムートン,0
2103,9380001033804,新規,0,2023-06-26,2023-06-26,株式会社Ａｋｉｍｏｔｏ,,株式会社,福島県,田村市,大越町下大越字町２８番地２,,07,211,9634112,,,,,,,2023-06-26,1,,,,,アキモト,0
2117,9430003015209,新規,0,2023-06-26,2023-06-26,合同会社ぜんだあず,,合同会社,北海道,北広島市,大曲緑ヶ丘５丁目１０－８,,01,234,0611276,,,,,,,2023-06-26,1,,,,,ゼンダアズ,0
