sequenceNumber,corporateNumber,process,correct,updateDate,changeDate,name,nameImageId,kind,prefectureName,cityName,streetNumber,addressImageId,prefectureCode,cityCode,postCode,addressOutside,addressOutsideImageId,closeDate,closeCause,successorCorporateNumber,changeCause,assignmentDate,latest,enName,enPrefectureName,enCityName,enAddressOutside,furigana,hihyoji
19,1010001234173,新規,0,2023-04-28,2023-04-28,株式会社ＫＹＮホールディングス,,株式会社,東京都,中央区,銀座２丁目１１番２号,,13,102,1040061,,,,,,,2023-04-28,1,,,,,ケイワイエヌホールディングス,0
20,1010001234792,新規,0,2023-04-28,2023-04-28,株式会社ＭＲＫ,,株式会社,東京都,千代田区,神田佐久間町４丁目６番１号齋田ビル３０３号室,,13,101,1010025,,,,,,,2023-04-28,1,,,,,エムアールケー,0
21,1010001234875,新規,0,2023-04-28,2023-04-28,リュニック株式会社,,株式会社,東京都,中央区,日本橋人形町３丁目１０番１号かしきち人形町ビル２Ｆ,,13,102,1030013,,,,,,,2023-04-28,1,,,,,リュニック,0
22,1010001234883,新規,0,2023-04-28,2023-04-28,エヌビービーセントーサリース株式会社,,株式会社,東京都,中央区,日本橋浜町３丁目３番２号,,13,102,1030007,,,,,,,2023-04-28,1,,,,,エヌビービーセントーサリース,0
24,1010003040438,新規,0,2023-04-28,2023-04-28,合同会社ベゴニア,,合同会社,東京都,千代田区,丸の内３丁目１番１号東京共同会計事務所内,,13,101,1000005,,,,,,,2023-04-28,1,,,,,ベゴニア,0
25,1010003040454,新規,0,2023-04-28,2023-04-28,合同会社ｅｎｉ　ｃｏｍｐａｎｙ,,合同会社,東京都,中央区,日本橋富沢町１１番１５－８０１号室,,13,102,1030006,,,,,,,2023-04-28,1,,,,,エニカンパニー,0
26,1010003040495,新規,0,2023-04-28,2023-04-28,合同会社ＳＹＪ,,合同会社,東京都,中央区,銀座１丁目１２番４号Ｎ＆ＥＢＬＤ．６Ｆ,,13,102,1040061,,,,,,,2023-04-28,1,,,,,エスワイジェイ,0
30,1010005036509,新規,0,2023-04-28,2023-04-28,弁護士法人エム・ツー・オー総合法律事務所,,その他の設立登記法人,東京都,千代田区,麹町１丁目６－９ＤＩＫ麹町ビル８０３号,,13,101,1020083,,,,,,,2023-04-28,1,,,,,エムツーオーソウゴウホウリツジムショ,0
31,1010005036525,新規,0,2023-04-28,2023-04-28,一般社団法人日中国際旅行業者連合総会,,その他の設立登記法人,東京都,中央区,日本橋浜町３丁目２３－８浜町パークハイツ２０１,,13,102,1030007,,,,,,,2023-04-28,1,,,,,ニッチュウコクサイリョコウギョウシャレンゴウソウカイ,0
32,1010005036582,新規,0,2023-04-28,2023-04-28,一般社団法人ＶＨ１,,その他の設立登記法人,東京都,千代田区,神田駿河台３丁目５番１号,,13,101,1010062,,,,,,,2023-04-28,1,,,,,ブイエイチワン,0
33,1010005036590,新規,0,2023-04-28,2023-04-28,一般社団法人首都圏レジ開発シックス,,その他の設立登記法人,東京都,千代田区,平河町１丁目６番１５号シルスフィア会計事務所内,,13,101,1020093,,,,,,,2023-04-28,1,,,,,シュトケンレジカイハツシックス,0
34,1010101015622,新規,0,2023-04-28,2023-04-28,株式会社ＭＳファシリティーズ,,株式会社,東京都,八王子市,別所１丁目３１番地１－１０４,,13,201,1920363,,,,,,,2023-04-28,1,,,,,エムエスファシリティーズ,0
42,1010401174102,新規,0,2023-04-28,2023-04-28,株式会社関谷機工,,株式会社,東京都,港区,海岸１丁目９番１号浜離宮インターシティ６階,,13,103,1050022,,,,,,,2023-04-28,1,,,,,セキヤキコウ,0
47,1010403030006,新規,0,2023-04-28,2023-04-28,合同会社ＤＲＡＣＨＭＡ,,合同会社,東京都,港区,新橋５丁目１３－１３川勝ビル２Ｆ,,13,103,1050004,,,,,,,2023-04-28,1,,,,,ドラクマ,0
48,1010501050376,新規,0,2023-04-28,2023-04-28,吉書株式会社,,株式会社,東京都,台東区,浅草橋５丁目１－３１ロッキービル３階３０２号室,,13,106,1110053,,,,,,,2023-04-28,1,,,,,キッショ,0
49,1010601063030,新規,0,2023-04-28,2023-04-28,株式会社ＳｔａｒｓｅｅｄＳｏｕｌ,,株式会社,東京都,江東区,豊洲３丁目５－３－６２５,,13,108,1350061,,,,,,,2023-04-28,1,,,,,スターシードソウル,0
51,1010801033881,新規,0,2023-04-28,2023-04-28,株式会社アドバンススポーツ,,株式会社,東京都,大田区,東糀谷４丁目９番３号,,13,111,1440033,,,,,,,2023-04-28,1,,,,,アドバンススポーツ,0
52,1010801033907,新規,0,2023-04-28,2023-04-28,株式会社セレンディピティ,,株式会社,東京都,大田区,田園調布南５番１８－１０４号,,13,111,1450076,,,,,,,2023-04-28,1,,,,,セレンディピティ,0
54,1010803004526,新規,0,2023-04-28,2023-04-28,ＪＭ合同会社,,合同会社,東京都,大田区,矢口１丁目１６－１９コスモビルＩＩ３１０,00130321,13,111,1460093,,,,,,,2023-04-28,1,,,,,ジェーエム,0
58,1010901052939,新規,0,2023-04-28,2023-04-28,株式会社ソレイユリー,,株式会社,東京都,世田谷区,用賀１丁目１１－１８－３０７,,13,112,1580097,,,,,,,2023-04-28,1,,,,,ソレイユリー,0
59,1010901052947,新規,0,2023-04-28,2023-04-28,株式会社ＫＤＳ,,株式会社,東京都,世田谷区,弦巻２丁目２９番８号,,13,112,1540016,,,,,,,2023-04-28,1,,,,,ケイディエス,0
63,1011001154089,新規,0,2023-04-28,2023-04-28,株式会社ｅｎｔａｎ,,株式会社,東京都,目黒区,上目黒１丁目１０番６号パインヴィレッジ代官山３０１号,,13,110,1530051,,,,,,,2023-04-28,1,,,,,エンタン,0
66,1011003016741,新規,0,2023-04-28,2023-04-28,合同会社ＣＮ太陽光３号,,合同会社,東京都,渋谷区,千駄ヶ谷３丁目１１番８号,,13,113,1510051,,,,,,,2023-04-28,1,,,,,シーエヌタイヨウコウサンゴウ,0
80,1011101102682,新規,0,2023-04-28,2023-04-28,株式会社Ｓｔｙｌｅ,,株式会社,東京都,新宿区,歌舞伎町２丁目４１番１２号岡埜ビル４階,,13,104,1600021,,,,,,,2023-04-28,1,,,,,スタイル,0
82,1011201024612,新規,0,2023-04-28,2023-04-28,株式会社ＰＲＩＭＡＳ,,株式会社,東京都,中野区,本町１丁目１７番７号ＢｏｒｇｏＶａｌｉｅｎｔｅ１０２,,13,114,1640012,,,,,,,2023-04-28,1,,,,,プリマス,0
92,1011801042311,新規,0,2023-04-28,2023-04-28,ネクサス株式会社,,株式会社,東京都,足立区,西新井本町４丁目２９番１１－７０７号,,13,121,1230845,,,,,,,2023-04-28,1,,,,,ネクサス,0
97,1013101009156,新規,0,2023-04-28,2023-04-28,株式会社アエル,,株式会社,東京都,西多摩郡瑞穂町,大字長岡長谷部３３６番地４,,13,303,1901231,,,,,,,2023-04-28,1,,,,,アエル,0
102,1013305003467,新規,0,2023-04-28,2023-04-28,一般社団法人咲心会,,その他の設立登記法人,東京都,豊島区,東池袋３丁目２１番２１－３００６号,,13,116,1700013,,,,,,,2023-04-28,1,,,,,サクシンカイ,0
105,1020001151327,新規,0,2023-04-28,2023-04-28,株式会社Ｒ・Ａ・Ｍ,,株式会社,神奈川県,横浜市旭区,市沢町８８５番地２３,,14,112,2410014,,,,,,,2023-04-28,1,,,,,アールエーエム,0
106,1020001151351,新規,0,2023-04-28,2023-04-28,株式会社Ｃｕｒｅ．Ｈｏｍｅ,,株式会社,神奈川県,横浜市緑区,小山町６５４番地３－２０１,,14,113,2260023,,,,,,,2023-04-28,1,,,,,キュアホーム,0
111,1021003013036,新規,0,2023-04-28,2023-04-28,あべちゃん企画合同会社,,合同会社,神奈川県,相模原市緑区,橋本２丁目１８番地１４号ＤＲＡＧＯＮ橋本六番館３０５号,,14,151,2520143,,,,,,,2023-04-28,1,,,,,アベチャンキカク,0
120,1030001153421,新規,0,2023-04-28,2023-04-28,株式会社ｓｏｒｅ,,株式会社,埼玉県,八潮市,大字伊勢野Ｆ－ＬＯＧフォレストＤ棟,,11,234,3400821,,,,,,,2023-04-28,1,,,,,ソレ,0
124,1030003021675,新規,0,2023-04-28,2023-04-28,合同会社浅川トラスト,,合同会社,埼玉県,朝霞市,溝沼２丁目５番１３号,,11,227,3510023,,,,,,,2023-04-28,1,,,,,アサカワトラスト,0
125,1030005021244,新規,0,2023-04-28,2023-04-28,一般社団法人ドリームプロジェクト,,その他の設立登記法人,埼玉県,さいたま市北区,日進町２丁目７８９番地みらい日進,,11,102,3310823,,,,,,,2023-04-28,1,,,,,ドリームプロジェクト,0
139,1040001128133,新規,0,2023-04-28,2023-04-28,株式会社ベルウッド,,株式会社,千葉県,千葉市花見川区,長作町３４５番地８,,12,102,2620044,,,,,,,2023-04-28,1,,,,,ベルウッド,0
140,1040001128141,新規,0,2023-04-28,2023-04-28,株式会社ＴＡＭＡＮ,,株式会社,千葉県,館山市,国分２０１番地８,,12,205,2940018,,,,,,,2023-04-28,1,,,,,タマン,0
141,1040001128166,新規,0,2023-04-28,2023-04-28,株式会社フカザワ,,株式会社,千葉県,流山市,大字平方９８番地の１,,12,220,2700105,,,,,,,2023-04-28,1,,,,,フカザワ,0
142,1040001128174,新規,0,2023-04-28,2023-04-28,エフプラス株式会社,,株式会社,千葉県,市川市,国府台５丁目２２－２２,,12,203,2720827,,,,,,,2023-04-28,1,,,,,エフプラス,0
143,1040001128182,新規,0,2023-04-28,2023-04-28,株式会社常世,,株式会社,千葉県,富津市,金谷２２７５番地,,12,226,2991861,,,,,,,2023-04-28,1,,,,,トコヨ,0
144,1040001128190,新規,0,2023-04-28,2023-04-28,株式会社ＸＲＯＳＳ　ＰＯＩＮＴ,,株式会社,千葉県,千葉市中央区,中央２丁目３－１６千葉センタースクエアビル５Ｆネクスタ千葉葭川公園前,,12,101,2600013,,,,,,,2023-04-28,1,,,,,クロスポイント,0
146,1040003022466,新規,0,2023-04-28,2023-04-28,Ｃｉｔｒｕｓ合同会社,,合同会社,千葉県,柏市,柏６丁目２－７コートヤードシブヤ３１４,,12,217,2770005,,,,,,,2023-04-28,1,,,,,シトラス,0
147,1040003022499,新規,0,2023-04-28,2023-04-28,Ｒａｃｃｏｌｔａ合同会社,,合同会社,千葉県,松戸市,二ツ木１６７５番地ジュネパレスコア・１０３号室,,12,207,2700027,,,,,,,2023-04-28,1,,,,,ラコルタ,0
148,1040003022508,新規,0,2023-04-28,2023-04-28,Ｍｅｏｗ　Ｄｒｅａｍ合同会社,,合同会社,千葉県,柏市,東上町３番３号川長ビル６０２Ｃ,,12,217,2770011,,,,,,,2023-04-28,1,,,,,ミャーオドリーム,0
153,1050003007458,新規,0,2023-04-28,2023-04-28,国進合同会社,,合同会社,茨城県,ひたちなか市,大字三反田３３０３―３,,08,221,3120021,,,,,,,2023-04-28,1,,,,,コクシン,0
155,1060001035947,新規,0,2023-04-28,2023-04-28,アンジール株式会社,,株式会社,栃木県,栃木市,箱森町１７番１８号,,09,203,3280075,,,,,,,2023-04-28,1,,,,,アンジール,0
173,1120001254400,新規,0,2023-04-28,2023-04-28,Ｃａｓａ　Ｍｉｌａ株式会社,,株式会社,大阪府,大阪市生野区,生野東２丁目９－１８長盛ハイツ２０６号,,27,116,5440025,,,,,,,2023-04-28,1,,,,,カサミラ,0
174,1120001254490,新規,0,2023-04-28,2023-04-28,カメリアホープ株式会社,,株式会社,大阪府,大阪市中央区,瓦町３丁目１番３号,,27,128,5410048,,,,,,,2023-04-28,1,,,,,カメリアホープ,0
175,1120001254508,新規,0,2023-04-28,2023-04-28,株式会社ＵＮＤＥＲＤＯＧ,,株式会社,大阪府,大阪市福島区,福島８丁目２０番１号,,27,103,5530003,,,,,,,2023-04-28,1,,,,,アンダードッグ,0
180,1120101067446,新規,0,2023-04-28,2023-04-28,株式会社ＫＥＮ,,株式会社,大阪府,和泉市,弥生町４丁目７番１号,,27,219,5940061,,,,,,,2023-04-28,1,,,,,ケン,0
184,1120903004613,新規,0,2023-04-28,2023-04-28,ピースサポート合同会社,,合同会社,大阪府,茨木市,西田中町８番１７号エクセルニシジマ５０３号,,27,211,5670027,,,,,,,2023-04-28,1,,,,,ピースサポート,0
188,1130003008695,新規,0,2023-04-28,2023-04-28,合同会社ｏｒｅｎｏ,,合同会社,京都府,京都市右京区,宇多野福王子町５０番地３８エムズ福王子Ｃ,,26,108,6168208,,,,,,,2023-04-28,1,,,,,オレノ,0
192,1140001129939,新規,0,2023-04-28,2023-04-28,株式会社ＴＯＨＯ　ＣＲＥＡＴＥ,,株式会社,兵庫県,芦屋市,陽光町８－２０エスリード芦屋２０６号,,28,206,6590034,,,,,,,2023-04-28,1,,,,,トーホークリエイト,0
193,1140001129963,新規,0,2023-04-28,2023-04-28,株式会社Ｐ‐Ｇａｉｎ,,株式会社,兵庫県,宝塚市,星の荘１９番４号,,28,214,6650866,,,,,,,2023-04-28,1,,,,,ピーゲイン,0
200,1150001026359,新規,0,2023-04-28,2023-04-28,株式会社かじかめ,,株式会社,奈良県,奈良市,法蓮町３３６番地の２,,29,201,6308113,,,,,,,2023-04-28,1,,,,,カジカメ,0
206,1180001156046,新規,0,2023-04-28,2023-04-28,株式会社東海建設,,株式会社,愛知県,知多郡阿久比町,大字草木字峯畑７２番地２,,23,441,4702211,,,,,,,2023-04-28,1,,,,,トウカイケンセツ,0
207,1180001156054,新規,0,2023-04-28,2023-04-28,株式会社森フードサービス,,株式会社,愛知県,名古屋市熱田区,池内町４番１号,,23,109,4560005,,,,,,,2023-04-28,1,,,,,モリフードサービス,0
208,1180001156062,新規,0,2023-04-28,2023-04-28,株式会社ウダガワ,,株式会社,愛知県,名古屋市名東区,高針原１丁目１－３２０,,23,115,4650073,,,,,,,2023-04-28,1,,,,,ウダガワ,0
214,1180003025166,新規,0,2023-04-28,2023-04-28,ＮＫ‐ＦＬＹＩＮＧ合同会社,,合同会社,愛知県,名古屋市中村区,名駅４丁目２４－５第２森ビル４０１,,23,105,4500002,,,,,,,2023-04-28,1,,,,,エヌケーフライング,0
221,1190005011816,新規,0,2023-04-28,2023-04-28,特定非営利活動法人ＫＩ音楽文化振興協会,,その他の設立登記法人,三重県,いなべ市,大安町門前１１９３番地,,24,214,5110281,,,,,,,2023-04-28,1,,,,,ケーアイオンガクブンカシンコウキョウカイ,0
230,1220001025378,新規,0,2023-04-28,2023-04-28,株式会社ＳＡＹＵＲＡ,,株式会社,石川県,野々市市,粟田６丁目２６６番地１,,17,212,9218823,,,,,,,2023-04-28,1,,,,,サユラ,0
236,1240003006119,新規,0,2023-04-28,2023-04-28,合同会社Ｓ,,合同会社,広島県,三原市,城町２丁目４番１９号,,34,204,7230014,,,,,,,2023-04-28,1,,,,,エス,0
244,1290001101354,新規,0,2023-04-28,2023-04-28,株式会社タネダネ,,株式会社,福岡県,福岡市中央区,大手門３丁目７番１１－８０１号ＯＣＴＯ大手門,,40,133,8100074,,,,,,,2023-04-28,1,,,,,タネダネ,0
245,1290001101362,新規,0,2023-04-28,2023-04-28,株式会社令和工業,,株式会社,福岡県,飯塚市,下三緒１６８番地３,,40,205,8200012,,,,,,,2023-04-28,1,,,,,レイワコウギョウ,0
247,1290003013853,新規,0,2023-04-28,2023-04-28,ナノアーキア合同会社,,合同会社,福岡県,春日市,須玖北２丁目１２８－１４,,40,218,8160864,,,,,,,2023-04-28,1,,,,,ナノアーキア,0
248,1290801029497,新規,0,2023-04-28,2023-04-28,株式会社桜ブレース,,株式会社,福岡県,北九州市八幡西区,上上津役２丁目１８‐３８,,40,109,8070072,,,,,,,2023-04-28,1,,,,,サクラブレース,0
250,1310003004560,新規,0,2023-04-28,2023-04-28,合同会社育育,,合同会社,長崎県,諫早市,高来町大戸２４７番地３,,42,204,8590101,,,,,,,2023-04-28,1,,,,,イクイク,0
252,1320001019725,新規,0,2023-04-28,2023-04-28,株式会社ＡＧＲＡＩＺ,,株式会社,大分県,宇佐市,大字下高１５６４番地,,44,211,8790317,,,,,,,2023-04-28,1,,,,,アグライズ,0
255,1340003004112,新規,0,2023-04-28,2023-04-28,地域のアトリエ合同会社,,合同会社,鹿児島県,鹿児島市,松原町１３－２７－６０４,,46,201,8920833,,,,,,,2023-04-28,1,,,,,チイキノアトリエ,0
263,1360003012922,新規,0,2023-04-28,2023-04-28,輝サポート合同会社,,合同会社,沖縄県,宜野湾市,大謝名５丁目４－１１－１０１,,47,205,9012225,,,,,,,2023-04-28,1,,,,,カガヤキサポート,0
265,1370001049890,新規,0,2023-04-28,2023-04-28,株式会社猪瀬グループ,,株式会社,宮城県,仙台市青葉区,大町２丁目９番１３－３０１号,,04,101,9800804,,,,,,,2023-04-28,1,,,,,イノセグループ,0
278,1400001016227,新規,0,2023-04-28,2023-04-28,佐川内装株式会社,,株式会社,岩手県,盛岡市,東新庄２丁目７番１７号,,03,201,0200805,,,,,,,2023-04-28,1,,,,,,0
281,1420003002710,新規,0,2023-04-28,2023-04-28,合同会社佐藤幸電気,,合同会社,青森県,弘前市,大字和田町５番地３,,02,202,0368368,,,,,,,2023-04-28,1,,,,,サトウコウデンキ,0
286,1430003014993,新規,0,2023-04-28,2023-04-28,合同会社ＮＯＵＭＡＬ,,合同会社,北海道,砂川市,焼山１８７番地,,01,226,0730115,,,,,,,2023-04-28,1,,,,,ノウマル,0
288,1450001013970,新規,0,2023-04-28,2023-04-28,緑の和株式会社,,株式会社,北海道,紋別郡滝上町,字滝ノ上市街地二条通２丁目１６番地,,01,560,0995600,,,,,,,2023-04-28,1,,,,,ミドリノワ,0
290,1460001005793,新規,0,2023-04-28,2023-04-28,株式会社アドニス,,株式会社,北海道,釧路市,西港１丁目１００番３０号,,01,206,0840914,,,,,,,2023-04-28,1,,,,,アドニス,0
297,1700150115864,新規,0,2023-04-28,2023-04-28,Ｓｈｅｎ　Ｚｈｅｎ　Ｓｈｉ　Ｓｈａｎｇ　Ｙａｎ　Ｋｅ　Ｊｉ　Ｙｏｕ　Ｘｉａｎ　Ｇｏｎｇ　Ｓｉ,,外国会社等,,,,,,,,１２Ｄ－１２Ａ３Ｄ，Ｂｕｉｌｄｉｎｇ　Ａ３，Ｚｈｕｊｉａｎｇ　Ｓｑｕａｒｅ，Ｌｏｎｇｃｈｅｎｇ　Ｓｔｒｅｅｔ，Ｌｏｎｇｇａｎｇ　Ｄｉｓｔｒｉｃｔ，Ｓｈｅｎｚｈｅｎ，Ｃｈｉｎａ,,,,,,2023-04-28,1,,,,,シンセンシシャンヤンケジユウゲンコウシ,0
298,1700150115872,新規,0,2023-04-28,2023-04-28,ＲＬＣ（Ｐｏｒｔｌａｎｄ　Ｒｅｓｉｄｅｎｔｉａｌ）Ｌｉｍｉｔｅｄ,,外国会社等,沖縄県,中頭郡北谷町,字宮城３番地２４１,,47,326,9040113,中華人民共和国香港セントラルウェリントンストリート９８ジェイドセンター１９階,,,,,,2023-04-28,1,,,,,アールエルシーポートランドレジデンシヤルリミテツド,0
319,2010001234148,新規,0,2023-04-28,2023-04-28,株式会社ファースト,,株式会社,東京都,千代田区,神田佐久間町２丁目２５番２号ＩＳＣ秋葉原６階,,13,101,1010025,,,,,,,2023-04-28,1,,,,,ファースト,0
320,2010001234800,新規,0,2023-04-28,2023-04-28,株式会社ＯＶＥＲＶＩＥＷ　ＣＯＦＦＥＥ　ＪＡＰＡＮ,,株式会社,東京都,中央区,日本橋小舟町１４－７ＳＯＩＬＮＩＨＯＮＢＡＳＨＩ４Ｆ,,13,102,1030024,,,,,,,2023-04-28,1,,,,,オーバービューコーヒージャパン,0
321,2010001234825,新規,0,2023-04-28,2023-04-28,株式会社Ｒｅｂｏｏｔ,,株式会社,東京都,千代田区,神田和泉町一番地４の１カーサ・ビアンカ２階,,13,101,1010024,,,,,,,2023-04-28,1,,,,,リブート,0
322,2010001234882,新規,0,2023-04-28,2023-04-28,エヌビービーチャンギリース株式会社,,株式会社,東京都,中央区,日本橋浜町３丁目３番２号,,13,102,1030007,,,,,,,2023-04-28,1,,,,,エヌビービーチャンギリース,0
323,2010001234899,新規,0,2023-04-28,2023-04-28,株式会社駅探Ｉ＆Ｉ,,株式会社,東京都,千代田区,麹町５丁目４番地,,13,101,1020083,,,,,,,2023-04-28,1,,,,,エキタンアイアンドアイ,0
324,2010001234916,新規,0,2023-04-28,2023-04-28,株式会社シーユーエンターテインメント,,株式会社,東京都,千代田区,神田神保町２丁目１４朝日神保町プラザ１３０２号,,13,101,1010051,,,,,,,2023-04-28,1,,,,,シーユーエンターテインメント,0
325,2010001234924,新規,0,2023-04-28,2023-04-28,株式会社Ｔａｐｏｆｆ,,株式会社,東京都,千代田区,九段南１丁目５－６りそな九段ビル５階ＫＳフロア,,13,101,1020074,,,,,,,2023-04-28,1,,,,,タップオフ,0
329,2010003040429,新規,0,2023-04-28,2023-04-28,ｂｏｄｙｋｉｔｃｈｅｎ合同会社,,合同会社,東京都,文京区,本郷１丁目２５－９斎藤ビル３階,,13,105,1130033,,,,,,,2023-04-28,1,,,,,ボディキッチン,0
330,2010003040437,新規,0,2023-04-28,2023-04-28,合同会社ポトス,,合同会社,東京都,千代田区,丸の内３丁目１番１号東京共同会計事務所内,,13,101,1000005,,,,,,,2023-04-28,1,,,,,ポトス,0
331,2010003040494,新規,0,2023-04-28,2023-04-28,合同会社Ｎ,,合同会社,東京都,千代田区,神田和泉町１番地６－１６ヤマトビル４０５,,13,101,1010024,,,,,,,2023-04-28,1,,,,,エヌ,0
332,2010005036581,新規,0,2023-04-28,2023-04-28,一般社団法人Ｐｌｕｔｏｎ,,その他の設立登記法人,東京都,中央区,東日本橋２丁目２７番６号,,13,102,1030004,,,,,,,2023-04-28,1,,,,,プルトン,0
343,2010401173994,新規,0,2023-04-28,2023-04-28,世界発展支援会株式会社,,株式会社,東京都,港区,芝２丁目３０番１５号,,13,103,1050014,,,,,,,2023-04-28,1,,,,,セカイハッテンシエンカイ,0
344,2010401174043,新規,0,2023-04-28,2023-04-28,Ｔｓ　ｔｒｕｓｔ株式会社,,株式会社,東京都,港区,南青山２丁目４番１５号,,13,103,1070062,,,,,,,2023-04-28,1,,,,,ティーエストラスト,0
345,2010401174076,新規,0,2023-04-28,2023-04-28,インサウンド株式会社,,株式会社,東京都,港区,港南２丁目１５番１号品川インターシティＡ棟２８階,,13,103,1080075,,,,,,,2023-04-28,1,,,,,インサウンド,0
355,2010801033897,新規,0,2023-04-28,2023-04-28,Ｔｗｏ　Ｓｈｅｅｐ株式会社,,株式会社,東京都,大田区,大森西５丁目２８－９エンゼルイン大森８０３,,13,111,1430015,,,,,,,2023-04-28,1,,,,,ツーシープ,0
357,2010803004525,新規,0,2023-04-28,2023-04-28,合同会社シエラ,,合同会社,東京都,大田区,蒲田１丁目９番２２号シエラポート蒲田２０１,,13,111,1440052,,,,,,,2023-04-28,1,,,,,シエラ,0
369,2011005010064,新規,0,2023-04-28,2023-04-28,一般社団法人ＣＮ太陽光２号,,その他の設立登記法人,東京都,渋谷区,千駄ヶ谷３丁目１１番８号,,13,113,1510051,,,,,,,2023-04-28,1,,,,,シーエヌタイヨウコウニゴウ,0
377,2011501029244,新規,0,2023-04-28,2023-04-28,ＳＭＥｓ　Ａｄｖｉｓｏｒｙ株式会社,,株式会社,東京都,北区,中十条３丁目２７番１２号,,13,117,1140032,,,,,,,2023-04-28,1,,,,,エスエムイーエスアドバイザリー,0
381,2011803005629,新規,0,2023-04-28,2023-04-28,大智合同会社,,合同会社,東京都,葛飾区,高砂３丁目２６番１３－１０２号,,13,122,1250054,,,,,,,2023-04-28,1,,,,,ダイチ,0
383,2013301050677,新規,0,2023-04-28,2023-04-28,ＴＵ　ＡＮＨ株式会社,,株式会社,東京都,豊島区,南大塚２丁目１６番１０号桜井マンション２０２号,,13,116,1700005,,,,,,,2023-04-28,1,,,,,トゥアン,0
384,2013303006603,新規,0,2023-04-28,2023-04-28,合同会社ＧＲＥＥＤｅｅ,,合同会社,東京都,豊島区,南長崎５丁目３３番１６号ユアコート東長崎３０４号室,,13,116,1710052,,,,,,,2023-04-28,1,,,,,グリーディー,0
391,2020001151342,新規,0,2023-04-28,2023-04-28,株式会社ｅＨｅａｒｔ．ｘ,,株式会社,神奈川県,横浜市中区,矢口台９１番地－２１１,,14,104,2310831,,,,,,,2023-04-28,1,,,,,イーハートエックス,0
392,2020001151367,新規,0,2023-04-28,2023-04-28,ＳＣＤ　Ｊａｐａｎ株式会社,,株式会社,神奈川県,横浜市西区,みなとみらい４丁目４番２号横浜ブルーアベニュー１２Ｆ,,14,103,2200012,,,,,,,2023-04-28,1,,,,,エスシーディージャパン,0
397,2020003023804,新規,0,2023-04-28,2023-04-28,合同会社Ｎｅｘｔ．ｉｎｎｏｖａｔｉｏｎ,,合同会社,神奈川県,横浜市栄区,笠間３丁目４５Ｊ－８０９,,14,115,2470006,,,,,,,2023-04-28,1,,,,,ネクストイノベーション,0
398,2020003023812,新規,0,2023-04-28,2023-04-28,合同会社サルーテ,,合同会社,神奈川県,横浜市磯子区,馬場町４番４６号,,14,107,2350002,,,,,,,2023-04-28,1,,,,,サルーテ,0
399,2020003023837,新規,0,2023-04-28,2023-04-28,小林商店合同会社,,合同会社,神奈川県,横浜市青葉区,桂台２丁目３８番地１１,,14,117,2270034,,,,,,,2023-04-28,1,,,,,コバヤシショウテン,0
401,2020005015972,新規,0,2023-04-28,2023-04-28,やよい行政書士法人,,その他の設立登記法人,神奈川県,横浜市泉区,和泉中央南４丁目１０－２０,,14,116,2450023,,,,,,,2023-04-28,1,,,,,ヤヨイ,0
407,2021001078889,新規,0,2023-04-28,2023-04-28,ＭＤプランニング株式会社,,株式会社,神奈川県,大和市,深見東２丁目３番１７号,,14,213,2420012,,,,,,,2023-04-28,1,,,,,エムディープランニング,0
411,2030001153619,新規,0,2023-04-28,2023-04-28,株式会社関東カワサキ,,株式会社,埼玉県,川越市,大字笠幡２８１１番地２,,11,201,3501175,,,,,,,2023-04-28,1,,,,,カントウカワサキ,0
412,2030001153635,新規,0,2023-04-28,2023-04-28,株式会社ハバ,,株式会社,埼玉県,さいたま市南区,辻１丁目９番１－４１２号,00130319,11,108,3360026,,,,,,,2023-04-28,1,,,,,ハバ,0
413,2030003021674,新規,0,2023-04-28,2023-04-28,合同会社浅川管理,,合同会社,埼玉県,朝霞市,溝沼２丁目５番１３号,,11,227,3510023,,,,,,,2023-04-28,1,,,,,アサカワカンリ,0
419,2040001128108,新規,0,2023-04-28,2023-04-28,ランドラボ株式会社,,株式会社,千葉県,千葉市中央区,末広１丁目１８番６号,,12,101,2600843,,,,,,,2023-04-28,1,,,,,ランドラボ,0
420,2040001128132,新規,0,2023-04-28,2023-04-28,旭コムズ株式会社,,株式会社,千葉県,船橋市,二和東６丁目３１番３号,,12,204,2740805,,,,,,,2023-04-28,1,,,,,アサヒコムズ,0
421,2040001128157,新規,0,2023-04-28,2023-04-28,株式会社タツ屋コーポレーション,,株式会社,千葉県,船橋市,西船１丁目２４番１１－７０８号,,12,204,2730031,,,,,,,2023-04-28,1,,,,,タツヤコーポレーション,0
454,2120001254481,新規,0,2023-04-28,2023-04-28,株式会社Ｆｉｒｓｔ,,株式会社,大阪府,大阪市西成区,天神ノ森１丁目１２番３号,,27,122,5570013,,,,,,,2023-04-28,1,,,,,ファースト,0
455,2120001254523,新規,0,2023-04-28,2023-04-28,ＹａａＨ株式会社,,株式会社,大阪府,大阪市東淀川区,東中島１丁目１２番３０－２１０号,,27,114,5330033,,,,,,,2023-04-28,1,,,,,ヤー,0
457,2120003023959,新規,0,2023-04-28,2023-04-28,ＦＲＨＧ合同会社,,合同会社,大阪府,大阪市東淀川区,西淡路２丁目１０－１３アルティザ新大阪ＤＣ９０６号室,,27,114,5330031,,,,,,,2023-04-28,1,,,,,エフアールエイチジー,0
464,2120903004620,新規,0,2023-04-28,2023-04-28,合同会社クリア,,合同会社,大阪府,吹田市,朝日町１９番１８号,,27,205,5640027,,,,,,,2023-04-28,1,,,,,クリア,0
470,2130003008694,新規,0,2023-04-28,2023-04-28,合同会社エー,,合同会社,京都府,京田辺市,大住責谷４８番地７０,,26,211,6100343,,,,,,,2023-04-28,1,,,,,エー,0
478,2150001026358,新規,0,2023-04-28,2023-04-28,株式会社輝星,,株式会社,奈良県,奈良市,奈良阪町１０８５緑商第一ビル２階,,29,201,6308104,,,,,,,2023-04-28,1,,,,,,0
479,2150003002951,新規,0,2023-04-28,2023-04-28,合同会社Ｌｉｆｅ　ｆｏｗａｒｄ,,合同会社,奈良県,橿原市,白橿町４丁目１７－１６,,29,205,6340051,,,,,,,2023-04-28,1,,,,,ライフフォワード,0
481,2180001156020,新規,0,2023-04-28,2023-04-28,株式会社ＺＩＯＮ,,株式会社,愛知県,名古屋市名東区,扇町３丁目２５番地の２,,23,115,4650076,,,,,,,2023-04-28,1,,,,,ザイオン,0
482,2180001156037,新規,0,2023-04-28,2023-04-28,シャチホコホールディングス株式会社,,株式会社,愛知県,名古屋市中村区,名駅４丁目２４番５号,,23,105,4500002,,,,,,,2023-04-28,1,,,,,シャチホコホールディングス,0
483,2180001156061,新規,0,2023-04-28,2023-04-28,株式会社Ｓｕｎｇｏｏｄ,,株式会社,愛知県,名古屋市港区,港栄３丁目１番９号,,23,111,4550015,,,,,,,2023-04-28,1,,,,,サングッド,0
485,2180003025165,新規,0,2023-04-28,2023-04-28,合同会社ＮＯＡＨ　ＣＯＮＮＥＣＴ,,合同会社,愛知県,名古屋市中区,栄４丁目５番５号セントラル栄ビル７階,,23,106,4600008,,,,,,,2023-04-28,1,,,,,ノアコネクト,0
486,2180003025173,新規,0,2023-04-28,2023-04-28,ＭＫＩ合同会社,,合同会社,愛知県,名古屋市千種区,新池町１丁目２３番地の１,,23,101,4640027,,,,,,,2023-04-28,1,,,,,エムケーアイ,0
492,2180303005692,新規,0,2023-04-28,2023-04-28,合同会社Ｎｅｘｔｅｒａ,,合同会社,愛知県,岡崎市,柱町三丁目６番５号ブライトＱ３Ｂ棟２０３号室,,23,202,4440834,,,,,,,2023-04-28,1,,,,,ネクストイラ,0
493,2180305009469,新規,0,2023-04-28,2023-04-28,ＮＰＯ法人優,,その他の設立登記法人,愛知県,刈谷市,泉田町城前１４３番地１,,23,210,4480004,,,,,,,2023-04-28,1,,,,,,0
494,2190001030364,新規,0,2023-04-28,2023-04-28,株式会社河村屋,,株式会社,三重県,四日市市,堀木２丁目１９番１１号,,24,202,5100076,,,,,,,2023-04-28,1,,,,,カワムラヤ,0
502,2220003003505,新規,0,2023-04-28,2023-04-28,合同会社いち,,合同会社,石川県,白山市,倉光７丁目２２番地,,17,210,9240865,,,,,,,2023-04-28,1,,,,,イチ,0
507,2260003004292,新規,0,2023-04-28,2023-04-28,合同会社Ｐｏｎｏ　Ｋｏａ,,合同会社,岡山県,岡山市中区,福泊１８９番地１６,,33,102,7038262,,,,,,,2023-04-28,1,,,,,ポノコア,0
511,2290001101353,新規,0,2023-04-28,2023-04-28,株式会社ＳＴＡＧＥ　ＬＩＣＥＮＳＥ,,株式会社,福岡県,福岡市博多区,博多駅前１丁目１５番２０号ＮＭＫ博多駅前ビル２階,,40,132,8120011,,,,,,,2023-04-28,1,,,,,ステージライセンス,0
519,2310001018388,新規,0,2023-04-28,2023-04-28,株式会社易安,,株式会社,長崎県,長崎市,岩川町２番１４号西津ビル７階,,42,201,8528106,,,,,,,2023-04-28,1,,,,,イアン,0
522,2330001030795,新規,0,2023-04-28,2023-04-28,株式会社森山商店,,株式会社,熊本県,球磨郡相良村,大字柳瀬３４５６番地,,43,510,8680095,,,,,,,2023-04-28,1,,,,,モリヤマショウテン,0
523,2330001030804,新規,0,2023-04-28,2023-04-28,株式会社マイエステート,,株式会社,熊本県,八代市,横手新町１６号２番地２,,43,202,8660875,,,,,,,2023-04-28,1,,,,,マイエステート,0
525,2340003004111,新規,0,2023-04-28,2023-04-28,合同会社大将電工,,合同会社,鹿児島県,鹿児島市,永吉２丁目３４－３プリマベーラ１０１号室,,46,201,8900023,,,,,,,2023-04-28,1,,,,,タイショウデンコウ,0
527,2360003012905,新規,0,2023-04-28,2023-04-28,合同会社４１,,合同会社,沖縄県,宜野湾市,伊佐４丁目２－３,,47,205,9012221,,,,,,,2023-04-28,1,,,,,ヨンイチ,0
528,2360003012921,新規,0,2023-04-28,2023-04-28,合同会社Ｒ．Ｂｅａｕｔｙ　Ｏｆｆｉｃｅ,,合同会社,沖縄県,那覇市,久茂地１丁目１番１号９階,,47,201,9000015,,,,,,,2023-04-28,1,,,,,アールビューティーオフィス,0
535,2380001033645,新規,0,2023-04-28,2023-04-28,ＫＣエンジニアリング株式会社,,株式会社,福島県,郡山市,富久山町久保田字南田５３番地の１ガーデンタウン南田Ａ棟１０５号,,07,203,9638071,,,,,,,2023-04-28,1,,,,,,0
555,2430001088980,新規,0,2023-04-28,2023-04-28,Ｍティス株式会社,,株式会社,北海道,江別市,大麻元町１６４番地の１１,,01,217,0690841,,,,,,,2023-04-28,1,,,,,エムティス,0
563,2470001019593,新規,0,2023-04-28,2023-04-28,株式会社ＦｏｏＢｅ．,,株式会社,香川県,高松市,小村町２３１番地５,,37,201,7610431,,,,,,,2023-04-28,1,,,,,フービー,0
567,2500005008606,新規,0,2023-04-28,2023-04-28,医療法人みかんの花,,その他の設立登記法人,愛媛県,松山市,藤原町６１７番地１３,,38,201,7900034,,,,,,,2023-04-28,1,,,,,ミカンノハナ,0
574,2700150115863,新規,0,2023-04-28,2023-04-28,ｓｈｅｎｚｈｅｎｓｈｉ　ｍｅｉｇｕａｎｇｌｏｎｇ　ｋｅｊｉｙｏｕｘｉａｎｇｏｎｇｓｉ,,外国会社等,,,,,,,,Ａ２０８，Ｓｍａｒｔ　Ｖａｌｌｅｙ　Ｉｎｎｏｖａｔｉｏｎ　Ｐｌａｚａ，５４２　Ｍｉｎｚｈｉ　Ａｖｅｎｕｅ，Ｘｉｎｎｉｕ　Ｃｏｍｍｕｎｉｔｙ，Ｍｉｎｚｈｉ　Ｓｔｒｅｅｔ，Ｌｏｎｇｈｕａ　Ｄｉｓｔｒｉｃｔ，Ｓｈｅｎｚｈｅｎ，Ｃｈｉｎａ,,,,,,2023-04-28,1,,,,,シンセンシメイガンロンケジユウゲンコウシ,0
575,2700150115871,新規,0,2023-04-28,2023-04-28,Ｓｈｅｎｚｈｅｎｓｈｉ　Ｇｕｏｙｕｎｄａ　Ｋｅｊｉ　Ｙｏｕｘｉａｎｇｏｎｇｓｉ,,外国会社等,,,,,,,,Ｂａｏａｎｑｕ，Ｆｕｙｏｎｇｊｉｅｄａｏ，Ｆｅｎｇｈｕａｎｇｄｉｓａｎｇｏｎｇｙｅｑｕ　Ｃｈｕａｎｇｙｅｓａｎｌｕ，Ｂｄｏｎｇ，，Ｅｒｌｏｕ　Ｓｈｅｎｚｈｅｎ　Ｇｕａｎｇｄｏｎｇ　５１８１０３　ＣＮ,,,,,,2023-04-28,1,,,,,シェンジェンシーグオインダーコージーヨウシエンゴンスー,0
585,3010001234865,新規,0,2023-04-28,2023-04-28,ＭＬＣベンチャーズ株式会社,,株式会社,東京都,中央区,日本橋１丁目１９番１号,,13,102,1030027,,,,,,,2023-04-28,1,,,,,エムエルシーベンチャーズ,0
586,3010001234972,新規,0,2023-04-28,2023-04-28,株式会社Ｒ２Ｏ,,株式会社,東京都,千代田区,九段北４丁目３番３１－４０２号,,13,101,1020073,,,,,,,2023-04-28,1,,,,,アールツーオー,0
590,3010003040436,新規,0,2023-04-28,2023-04-28,合同会社グロリオサ,,合同会社,東京都,千代田区,丸の内３丁目１番１号東京共同会計事務所内,,13,101,1000005,,,,,,,2023-04-28,1,,,,,グロリオサ,0
591,3010003040460,新規,0,2023-04-28,2023-04-28,合同会社伊達ソーラーファーム,,合同会社,東京都,中央区,日本橋兜町１３番１号,,13,102,1030026,,,,,,,2023-04-28,1,,,,,ダテソーラーファーム,0
592,3010003040485,新規,0,2023-04-28,2023-04-28,合同会社ＡＫコネクション,,合同会社,東京都,千代田区,神田和泉町１番地６－１６ヤマトビル４０５,,13,101,1010024,,,,,,,2023-04-28,1,,,,,エーケーコネクション,0
593,3010005036589,新規,0,2023-04-28,2023-04-28,一般社団法人首都圏レジ開発ファイブ,,その他の設立登記法人,東京都,千代田区,平河町１丁目６番１５号シルスフィア会計事務所内,,13,101,1020093,,,,,,,2023-04-28,1,,,,,シュトケンレジカイハツファイブ,0
598,3010401173977,新規,0,2023-04-28,2023-04-28,Ｆｒａｍｔｉｄ株式会社,,株式会社,東京都,港区,赤坂３丁目１０番１２,,13,103,1070052,,,,,,,2023-04-28,1,,,,,フラムティード,0
599,3010401174042,新規,0,2023-04-28,2023-04-28,株式会社Ｖｉａｊｅ　Ｐｒｏｄｕｃｔｉｏｎ,,株式会社,東京都,港区,南青山２丁目２番１５号,,13,103,1070062,,,,,,,2023-04-28,1,,,,,ビアプロダクション,0
600,3010403030004,新規,0,2023-04-28,2023-04-28,合同会社ブルーキャンディー,,合同会社,東京都,港区,東麻布１丁目１２番８－１４０６号,,13,103,1060044,,,,,,,2023-04-28,1,,,,,ブルーキャンディー,0
610,3010803004516,新規,0,2023-04-28,2023-04-28,ＩＩＤＡ合同会社,,合同会社,東京都,大田区,大森南４丁目８番１７号,,13,111,1430013,,,,,,,2023-04-28,1,,,,,イイダ,0
614,3010901052953,新規,0,2023-04-28,2023-04-28,株式会社スタジオウツハ,,株式会社,東京都,世田谷区,奥沢５丁目１番１１号メゾンドジョワ２０２,,13,112,1580083,,,,,,,2023-04-28,1,,,,,スタジオウツハ,0
621,3011005010063,新規,0,2023-04-28,2023-04-28,一般社団法人ＣＮ太陽光３号,,その他の設立登記法人,東京都,渋谷区,千駄ヶ谷３丁目１１番８号,,13,113,1510051,,,,,,,2023-04-28,1,,,,,シーエヌタイヨウコウサンゴウ,0
626,3011401025078,新規,0,2023-04-28,2023-04-28,株式会社とくろくペットクリニック,,株式会社,東京都,板橋区,徳丸６丁目１番２２号,,13,119,1750083,,,,,,,2023-04-28,1,,,,,トクロクペットクリニック,0
627,3011501029243,新規,0,2023-04-28,2023-04-28,静宜株式会社,,株式会社,東京都,荒川区,東尾久２丁目３３－１１、１０１号室,,13,118,1160012,,,,,,,2023-04-28,1,,,,,セイギ,0
628,3011503005580,新規,0,2023-04-28,2023-04-28,ＰＯＲＴＵＳ合同会社,,合同会社,東京都,北区,志茂２丁目４６－１４ハイムＮ１０２号,,13,117,1150042,,,,,,,2023-04-28,1,,,,,ポルトゥス,0
629,3011503005589,新規,0,2023-04-28,2023-04-28,合同会社奏,,合同会社,東京都,荒川区,南千住６丁目４１番１０－２２２号,,13,118,1160003,,,,,,,2023-04-28,1,,,,,ソウ,0
637,3011801042326,新規,0,2023-04-28,2023-04-28,株式会社Ｍ・Ｚ,,株式会社,東京都,足立区,綾瀬１丁目３２番５号新生ビル５０１,,13,121,1200005,,,,,,,2023-04-28,1,,,,,エムゼー,0
645,3012803003068,新規,0,2023-04-28,2023-04-28,ＣＨＡＮＤＲＡ　ＶＩＮＡＹＡＫ合同会社,,合同会社,東京都,昭島市,緑町５丁目１番９号,,13,207,1960004,,,,,,,2023-04-28,1,,,,,チャンドラビナヤク,0
650,3013301050676,新規,0,2023-04-28,2023-04-28,龍馬株式会社,,株式会社,東京都,豊島区,南池袋３丁目１３番９－２０３号,,13,116,1710022,,,,,,,2023-04-28,1,,,,,リュウマ,0
664,3020005015971,新規,0,2023-04-28,2023-04-28,ＮＰＯ法人日本‐アジア・アフリカ‐環境・エネルギー協会,,その他の設立登記法人,神奈川県,横浜市都筑区,葛が谷７番６０５号,,14,118,2240062,,,,,,,2023-04-28,1,,,,,ニホンアジアアフリカカンキョウエネルギーキョウカイ,0
666,3021001078896,新規,0,2023-04-28,2023-04-28,株式会社真カンパニー,,株式会社,神奈川県,藤沢市,辻堂東海岸２丁目５番３号,,14,205,2510045,,,,,,,2023-04-28,1,,,,,シンカンパニー,0
676,3030001153634,新規,0,2023-04-28,2023-04-28,株式会社まなびの一歩,,株式会社,埼玉県,桶川市,若宮１丁目２番１７号ＮＫサンライト３０２号,,11,231,3630022,,,,,,,2023-04-28,1,,,,,マナビノイッポ,0
677,3030001153642,新規,0,2023-04-28,2023-04-28,冠栄株式会社,,株式会社,埼玉県,越谷市,大字南荻島５５５－１,,11,222,3430804,,,,,,,2023-04-28,1,,,,,カンエイ,0
678,3030001153650,新規,0,2023-04-28,2023-04-28,株式会社ぱぷりか,,株式会社,埼玉県,入間郡越生町,大字上谷１１２番地３,,11,327,3500407,,,,,,,2023-04-28,1,,,,,パプリカ,0
680,3030003021590,新規,0,2023-04-28,2023-04-28,エフスタイル合同会社,,合同会社,埼玉県,さいたま市浦和区,北浦和１丁目８番１２号松岡ＳＴビル３０２号,,11,107,3300074,,,,,,,2023-04-28,1,,,,,エフスタイル,0
681,3030003021673,新規,0,2023-04-28,2023-04-28,ＦＵＪＩ総合サービス合同会社,,合同会社,埼玉県,川越市,神明町３４番地７（グランデール神明１０５号室）,,11,201,3500823,,,,,,,2023-04-28,1,,,,,フジソウゴウサービス,0
683,3030005021234,新規,0,2023-04-28,2023-04-28,医療法人社団献優会,,その他の設立登記法人,埼玉県,東松山市,大字高坂１０３１番地１７プリーマ・ドエル１階,,11,212,3550047,,,,,,,2023-04-28,1,,,,,ケンユウカイ,0
684,3030005021242,新規,0,2023-04-28,2023-04-28,医療法人社団惠繁会,,その他の設立登記法人,埼玉県,戸田市,大字新曽１９９１番地リノリーゾ２階２０２号室,,11,224,3350021,,,,,,,2023-04-28,1,,,,,ケイハンカイ,0
692,3040001128081,新規,0,2023-04-28,2023-04-28,エイフク重機サービス株式会社,,株式会社,千葉県,習志野市,藤崎５丁目１番３２号,,12,216,2750017,,,,,,,2023-04-28,1,,,,,エイフクジュウキサービス,0
693,3040001128148,新規,0,2023-04-28,2023-04-28,株式会社Ｖａｓａ　Ｗｏｒｋｓ,,株式会社,千葉県,印西市,中央北２丁目１番地３－４０１号,,12,231,2701350,,,,,,,2023-04-28,1,,,,,バサワークス,0
694,3040001128156,新規,0,2023-04-28,2023-04-28,ＴＪ　Ｉｎｔｅｒｎａｔｉｏｎａｌ株式会社,,株式会社,千葉県,松戸市,六高台７丁目５７番小松コーポＩ３０１号室,00130302,12,207,2702203,,,,,,,2023-04-28,1,,,,,ティージェーインターナショナル,0
695,3040001128172,新規,0,2023-04-28,2023-04-28,株式会社Ｏｖｅｒ　Ｄｏｇ,,株式会社,千葉県,君津市,台１丁目１－４,,12,225,2991153,,,,,,,2023-04-28,1,,,,,オーバードッグ,0
696,3040001128180,新規,0,2023-04-28,2023-04-28,株式会社マドプロ,,株式会社,千葉県,千葉市中央区,登戸１丁目１８番９－９０１号室,,12,101,2600032,,,,,,,2023-04-28,1,,,,,マドプロ,0
699,3040003022497,新規,0,2023-04-28,2023-04-28,ＭＹ合同会社,,合同会社,千葉県,千葉市中央区,弁天１丁目３１番１号ファミール千葉弁天町２０２号,,12,101,2600045,,,,,,,2023-04-28,1,,,,,エムワイ,0
700,3040003022506,新規,0,2023-04-28,2023-04-28,ＴＨＡＩ　ＮＡＮＡ合同会社,,合同会社,千葉県,松戸市,金ケ作４０８番地の５３５,,12,207,2702251,,,,,,,2023-04-28,1,,,,,タイナナ,0
707,3050003007456,新規,0,2023-04-28,2023-04-28,合同会社マルトミ,,合同会社,茨城県,笠間市,笠間２６９８の１６,,08,216,3091611,,,,,,,2023-04-28,1,,,,,,0
710,3060001035945,新規,0,2023-04-28,2023-04-28,株式会社和洋園,,株式会社,栃木県,矢板市,倉掛８１０番地２,,09,211,3292154,,,,,,,2023-04-28,1,,,,,ワヨウエン,0
717,3080103002791,新規,0,2023-04-28,2023-04-28,合同会社もちずき,,合同会社,静岡県,富士市,入山瀬３丁目２７７番４,,22,210,4190204,,,,,,,2023-04-28,1,,,,,モチズキ,0
720,3090001018096,新規,0,2023-04-28,2023-04-28,株式会社ＣＯＣＯ　ＤＥ　ＪＡＰＡＮ,,株式会社,山梨県,北杜市,高根町五町田３４番地３,,19,209,4080017,,,,,,,2023-04-28,1,,,,,ココデジャパン,0
728,3120001254489,新規,0,2023-04-28,2023-04-28,株式会社ＫＵＺＵＳＡＫＯ,,株式会社,大阪府,大阪市生野区,桃谷２丁目１８番２６号エニシダ桃谷５０１号室,,27,116,5440034,,,,,,,2023-04-28,1,,,,,クズサコ,0
729,3120001254497,新規,0,2023-04-28,2023-04-28,株式会社ＴＳＴ・ＪＡＰＡＮ,,株式会社,大阪府,大阪市北区,万歳町１－６ＳＴＡＲＳビル３０４,,27,127,5300028,,,,,,,2023-04-28,1,,,,,ティーエスティージャパン,0
730,3120001254506,新規,0,2023-04-28,2023-04-28,株式会社ＧＲ,,株式会社,大阪府,大阪市中央区,宗右衛門町１番２号宗右衛門町セントラルビル９階,,27,128,5420084,,,,,,,2023-04-28,1,,,,,ジーアール,0
733,3120003023958,新規,0,2023-04-28,2023-04-28,Ｑ１０合同会社,,合同会社,大阪府,大阪市淀川区,宮原１丁目１９－１５プレジオ新大阪ＲＯＵＧＥ１１０６,,27,123,5320003,,,,,,,2023-04-28,1,,,,,キューテン,0
739,3130001074192,新規,0,2023-04-28,2023-04-28,株式会社ｋｙｏｔａｎｂａ　ＡＲＶＵＭ,,株式会社,京都府,船井郡京丹波町,下粟野東タンボ１０４番地,,26,407,6291105,,,,,,,2023-04-28,1,,,,,キョウタンバアルブム,0
743,3130003008685,新規,0,2023-04-28,2023-04-28,合同会社エンジョイリズム,,合同会社,京都府,宇治市,神明石塚６６,,26,204,6110025,,,,,,,2023-04-28,1,,,,,エンジョイリズム,0
747,3140001129945,新規,0,2023-04-28,2023-04-28,株式会社ＡｎＺｏｇ,,株式会社,兵庫県,多可郡多可町,中区安坂５９番地２,,28,365,6791135,,,,,,,2023-04-28,1,,,,,アンゾ,0
749,3140003019021,新規,0,2023-04-28,2023-04-28,合同会社イブ・ロゼッタ,,合同会社,兵庫県,丹波市,柏原町母坪４８５－５,,28,223,6693311,,,,,,,2023-04-28,1,,,,,イブロゼッタ,0
752,3140005026593,新規,0,2023-04-28,2023-04-28,一般社団法人阪神北ＳＤＧｓ協会,,その他の設立登記法人,兵庫県,川西市,大和西３丁目２０番地の１１,,28,217,6660112,,,,,,,2023-04-28,1,,,,,ハンシンキタエスディジーズキョウカイ,0
754,3150001026357,新規,0,2023-04-28,2023-04-28,株式会社トーシン技建,,株式会社,奈良県,御所市,大字東辻６９番地の３,00130303,29,208,6392205,,,,,,,2023-04-28,1,,,,,トーシンギケン,0
757,3160003002859,新規,0,2023-04-28,2023-04-28,合同会社ＦＩＸ,,合同会社,滋賀県,草津市,草津３丁目１４－３６ＫＹＯＨＯＲＩＳＥ１０１,,25,206,5250034,,,,,,,2023-04-28,1,,,,,フィックス,0
764,3180001155995,新規,0,2023-04-28,2023-04-28,株式会社ＭＥｃｒｅａｔｅ,,株式会社,愛知県,名古屋市中村区,名駅４丁目２４番５号第２森ビル４０１,,23,105,4500002,,,,,,,2023-04-28,1,,,,,ミークリエイト,0
765,3180001156028,新規,0,2023-04-28,2023-04-28,株式会社ＮＩＣＥ,,株式会社,愛知県,名古屋市中区,栄３丁目３５番３４号,,23,106,4600008,,,,,,,2023-04-28,1,,,,,ニース,0
766,3180001156044,新規,0,2023-04-28,2023-04-28,株式会社ディスペル,,株式会社,愛知県,名古屋市南区,白雲町１０９番地の１,,23,112,4570025,,,,,,,2023-04-28,1,,,,,ディスペル,0
767,3180001156052,新規,0,2023-04-28,2023-04-28,株式会社ゼロワン,,株式会社,愛知県,尾張旭市,三郷町栄１レベルフォ－３階,,23,226,4880015,,,,,,,2023-04-28,1,,,,,ゼロワン,0
768,3180001156060,新規,0,2023-04-28,2023-04-28,株式会社ＯＯＰＡＲＴＳ,,株式会社,愛知県,名古屋市千種区,千種２丁目２３番６号,,23,101,4640858,,,,,,,2023-04-28,1,,,,,オーパーツ,0
786,3240001061428,新規,0,2023-04-28,2023-04-28,株式会社ＫＧ,,株式会社,広島県,広島市安佐南区,祇園６丁目１２番１９－１０３号,,34,105,7310138,,,,,,,2023-04-28,1,,,,,ケージー,0
787,3240001061436,新規,0,2023-04-28,2023-04-28,たもんず株式会社,,株式会社,広島県,広島市安佐北区,小河原町１３７７番地１０,,34,106,7391754,,,,,,,2023-04-28,1,,,,,タモンズ,0
805,3290001101352,新規,0,2023-04-28,2023-04-28,株式会社西日本資産管財,,株式会社,福岡県,福岡市中央区,天神２丁目３番１０号天神パインクレスト７１９号全日本公平財務内,,40,133,8100001,,,,,,,2023-04-28,1,,,,,ニシニホンシサンカンザイ,0
806,3290001101360,新規,0,2023-04-28,2023-04-28,株式会社ハウスパートナー,,株式会社,福岡県,福岡市博多区,諸岡１丁目１５番２５－１０２号,,40,132,8120894,,,,,,,2023-04-28,1,,,,,ハウスパートナー,0
812,3320001019731,新規,0,2023-04-28,2023-04-28,株式会社ＫＡＫＵＥＩ,,株式会社,大分県,大分市,下郡東２丁目３番３－３０１号,,44,201,8700953,,,,,,,2023-04-28,1,,,,,カクエイ,0
820,3330003009820,新規,0,2023-04-28,2023-04-28,ＪＳ　ＴＲＡＤＩＮＧ合同会社,,合同会社,熊本県,熊本市東区,三郎１丁目１０－１,,43,102,8620922,,,,,,,2023-04-28,1,,,,,ジェイエストレーディング,0
822,3360001031947,新規,0,2023-04-28,2023-04-28,株式会社國,,株式会社,沖縄県,沖縄市,泡瀬３丁目１８番６号オアシスかねしま３０１,,47,211,9042172,,,,,,,2023-04-28,1,,,,,クニ,0
825,3370003006104,新規,0,2023-04-28,2023-04-28,合同会社結企業,,合同会社,宮城県,仙台市若林区,大和町５丁目１８番１０－２０３号,,04,103,9840042,,,,,,,2023-04-28,1,,,,,ユイキギョウ,0
846,3430001088798,新規,0,2023-04-28,2023-04-28,株式会社ブラバス,,株式会社,北海道,苫小牧市,日新町６丁目９番１７号,,01,213,0530833,,,,,,,2023-04-28,1,,,,,ブラバス,0
848,3430003014991,新規,0,2023-04-28,2023-04-28,２ｉｎｃｈｅｓ合同会社,,合同会社,北海道,札幌市東区,北二十六条東７丁目３－２３丸岡ビル１階,,01,103,0650026,,,,,,,2023-04-28,1,,,,,ツーインチズ,0
851,3480001012084,新規,0,2023-04-28,2023-04-28,徳島ハウス株式会社,,株式会社,徳島県,小松島市,大林町字森ノ本３８番地の１ベレオ大林２０３号室,,36,203,7730022,,,,,,,2023-04-28,1,,,,,トクシマハウス,0
852,3490001010467,新規,0,2023-04-28,2023-04-28,株式会社光警備,,株式会社,高知県,四万十市,具同８５８８番地２１６,,39,210,7870019,,,,,,,2023-04-28,1,,,,,ヒカリケイビ,0
857,3700150115870,新規,0,2023-04-28,2023-04-28,Ｓｈｅｎｚｈｅｎｓｈｉ　Ｃｈａｎｇｚｈａｎ　Ｓｈｉｙｅ　Ｙｏｕｘｉａｎｇｏｎｇｓｉ,,外国会社等,,,,,,,,８０３，８／Ｆｌｏｏｒ，Ｚｈａｎｙｕａｎ　ｂｕｓｉｎｅｓｓ　ｂｕｉｌｄｉｎｇ，Ｍｅｉｌｏｎｇ　Ｒｄ，Ｌｏｎｇｈｕａ　Ｄｉｓｔｒｉｃｔ　Ｓｈｅｎｚｈｅｎ　Ｇｕａｎｇｄｏｎｇ　５１８０００　ＣＮ,,,,,,2023-04-28,1,,,,,シェンジェンシーチャンジャンシーイエヨウシエンゴンスー,0
858,3700150115879,新規,0,2023-04-28,2023-04-28,Ｓｈｅｎｚｈｅｎｓｈｉ　Ｘｉｎｘｉ　Ｋｅｊｉ　Ｙｏｕｘｉａｎ　Ｇｏｎｇｓｉ,,外国会社等,,,,,,,,Ｌｏｎｇｇａｎｇｑｕ　Ｂａｎｔｉａｎ　Ｊｉｅｄａｏ，Ｙａｎｇｍａ　Ｘｉａｏｑｕ　２２　Ｄｏｎｇ　Ｂ４０１，Ｓｈｅｎｚｈｅｎ，Ｇｕａｎｇｄｏｎｇ,,,,,,2023-04-28,1,,,,,シンセンシシンキカギユウゲンコウシ,0
876,4010001234856,新規,0,2023-04-28,2023-04-28,株式会社ユーラシア・バリュー・トレード・ネットワーク,,株式会社,東京都,中央区,銀座８丁目１７番５号,,13,102,1040061,,,,,,,2023-04-28,1,,,,,ユーラシアバリュートレードネットワーク,0
877,4010001234872,新規,0,2023-04-28,2023-04-28,株式会社Ｉ．Ｓ警備保障,,株式会社,東京都,中央区,日本橋堀留町１丁目３－１６ＪＳＢレジデンス＆オフィス日本橋２０３,,13,102,1030012,,,,,,,2023-04-28,1,,,,,アイエスケイビホショウ,0
878,4010001234880,新規,0,2023-04-28,2023-04-28,株式会社Ｗｉｎｅ　Ｔｕｂｅｓ,,株式会社,東京都,中央区,日本橋室町１丁目１１番１２号日本橋水野ビル７階,,13,102,1030022,,,,,,,2023-04-28,1,,,,,ワインチューブス,0
879,4010001234889,新規,0,2023-04-28,2023-04-28,ｉＳｕｐｅｒｔ株式会社,,株式会社,東京都,千代田区,鍛冶町１丁目１０番６号,,13,101,1010044,,,,,,,2023-04-28,1,,,,,アイスパート,0
880,4010001234906,新規,0,2023-04-28,2023-04-28,株式会社ｌｉｇｈｔ　ｏｎ　ｔｈｅ　ｆｕｔｕｒｅ,,株式会社,東京都,中央区,銀座７丁目１７番２号アーク銀座ビルディング６Ｆ,,13,102,1040061,,,,,,,2023-04-28,1,,,,,ライトオンザフューチャー,0
883,4010003040476,新規,0,2023-04-28,2023-04-28,合同会社ｈａｐｐｙ　ｂｌｕｅ,,合同会社,東京都,中央区,勝どき１丁目１３番６－３６０４号,,13,102,1040054,,,,,,,2023-04-28,1,,,,,ハッピーブルー,0
897,4010401174066,新規,0,2023-04-28,2023-04-28,株式会社インターシフト,,株式会社,東京都,港区,新橋４丁目２４番３－３０３号,,13,103,1050004,,,,,,,2023-04-28,1,,,,,インターシフト,0
898,4010401174074,新規,0,2023-04-28,2023-04-28,株式会社ＣＡＲＩＯ,,株式会社,東京都,港区,白金台５丁目２－２１,,13,103,1080071,,,,,,,2023-04-28,1,,,,,キャリオ,0
899,4010403030028,新規,0,2023-04-28,2023-04-28,伊賀市柏尾太陽光合同会社,,合同会社,東京都,港区,六本木１丁目９番１０号アークヒルズ仙石山森タワー４０階,,13,103,1060032,,,,,,,2023-04-28,1,,,,,イガシカシオタイヨウコウ,0
900,4010501050373,新規,0,2023-04-28,2023-04-28,株式会社ミライ・アジア,,株式会社,東京都,台東区,小島２丁目２０－１１ＬＩＧビル１階,,13,106,1110056,,,,,,,2023-04-28,1,,,,,ミライアジア,0
904,4010803004515,新規,0,2023-04-28,2023-04-28,スベリエ・コンサルティング合同会社,,合同会社,東京都,大田区,上池台２丁目４番７号,,13,111,1450064,,,,,,,2023-04-28,1,,,,,スベリエコンサルティング,0
908,4010901052944,新規,0,2023-04-28,2023-04-28,株式会社Ｄａｍｏｕｒ,,株式会社,東京都,世田谷区,桜上水１丁目４番１－１０８号,,13,112,1560045,,,,,,,2023-04-28,1,,,,,ダムール,0
911,4010903008127,新規,0,2023-04-28,2023-04-28,ＭａＮｙ合同会社,,合同会社,東京都,世田谷区,代沢２丁目３０番２２号,,13,112,1550032,,,,,,,2023-04-28,1,,,,,メニー,0
915,4011001154086,新規,0,2023-04-28,2023-04-28,株式会社メム,,株式会社,東京都,渋谷区,富ヶ谷１丁目３３番５号,,13,113,1510063,,,,,,,2023-04-28,1,,,,,メム,0
917,4011005010046,新規,0,2023-04-28,2023-04-28,一般社団法人日本プレインランゲージ協会,,その他の設立登記法人,東京都,目黒区,上目黒２丁目２３番１２号,,13,110,1530051,,,,,,,2023-04-28,1,,,,,ニホンプレインランゲージキョウカイ,0
924,4011101102671,新規,0,2023-04-28,2023-04-28,株式会社ＮＣＰエステート,,株式会社,東京都,新宿区,四谷三栄町１２番５号ライラック三栄Ｂ１階,,13,104,1600008,,,,,,,2023-04-28,1,,,,,エヌシーピーエステート,0
928,4011401025085,新規,0,2023-04-28,2023-04-28,賜骨東京株式会社,,株式会社,東京都,板橋区,中台１丁目５５－１０スターハイツ２０３号室,,13,119,1740064,,,,,,,2023-04-28,1,,,,,シコツトウキョウ,0
929,4011401025093,新規,0,2023-04-28,2023-04-28,ＣＯＣＯ　ＦＯＲＥＳＴ飲料株式会社,,株式会社,東京都,板橋区,大山金井町１４番１２－１０２号レジェンド大山,,13,119,1730024,,,,,,,2023-04-28,1,,,,,ココフォレストインリョウ,0
931,4011501029234,新規,0,2023-04-28,2023-04-28,恒豊産業株式会社,,株式会社,東京都,北区,王子本町１丁目２２番１ＫＳＧビル２０２号室,,13,117,1140022,,,,,,,2023-04-28,1,,,,,コウホウサンギョウ,0
932,4011503005588,新規,0,2023-04-28,2023-04-28,ＢＥＬＩＥＦ合同会社,,合同会社,東京都,北区,赤羽１丁目２番８号中央商事ビル４０２,,13,117,1150045,,,,,,,2023-04-28,1,,,,,ビリーフ,0
941,4011803005627,新規,0,2023-04-28,2023-04-28,小澤住設合同会社,,合同会社,東京都,葛飾区,鎌倉４丁目２５番１７号,,13,122,1250053,,,,,,,2023-04-28,1,,,,,オザワジュウセツ,0
950,4013301050675,新規,0,2023-04-28,2023-04-28,Ｋｏｒ．株式会社,,株式会社,東京都,豊島区,東池袋２丁目１２－３－２０２,,13,116,1700013,,,,,,,2023-04-28,1,,,,,ケオアル,0
959,4020003023810,新規,0,2023-04-28,2023-04-28,Ｅａｓｙ　Ｃａｒ　Ｄｅａｌｓ合同会社,,合同会社,神奈川県,横浜市西区,北幸２丁目１０番地２８むつみビル３Ｆ,,14,103,2200004,,,,,,,2023-04-28,1,,,,,イージーカーディールズ,0
960,4020003023835,新規,0,2023-04-28,2023-04-28,合同会社ＭＡＳＡＫＩ,,合同会社,神奈川県,横浜市港北区,日吉７丁目１２番２９号,,14,109,2230061,,,,,,,2023-04-28,1,,,,,マサキ,0
971,4030001153609,新規,0,2023-04-28,2023-04-28,株式会社ＮＡＩＬ　ＩＴ,,株式会社,埼玉県,川口市,大字東本郷５４６番地の１ベルプラザ壱番館３０５号,,11,203,3340063,,,,,,,2023-04-28,1,,,,,ネイルイット,0
972,4030001153625,新規,0,2023-04-28,2023-04-28,株式会社コクア,,株式会社,埼玉県,和光市,南１丁目１６番６５号,,11,229,3510104,,,,,,,2023-04-28,1,,,,,コクア,0
983,4030003021664,新規,0,2023-04-28,2023-04-28,合同会社Ｍ．,,合同会社,埼玉県,川口市,大字木曽呂９７１番地の６,,11,203,3330831,,,,,,,2023-04-28,1,,,,,エムドット,0
984,4030005021241,新規,0,2023-04-28,2023-04-28,特定非営利活動法人星を紡ぐ会,,その他の設立登記法人,埼玉県,さいたま市緑区,美園３丁目６番地２９,,11,109,3360967,,,,,,,2023-04-28,1,,,,,ホシヲツムグカイ,0
989,4040001128147,新規,0,2023-04-28,2023-04-28,株式会社デイライト,,株式会社,千葉県,八千代市,勝田台３丁目１７番１５号,,12,221,2760023,,,,,,,2023-04-28,1,,,,,デイライト,0
991,4040003022439,新規,0,2023-04-28,2023-04-28,合同会社よいなかもん,,合同会社,千葉県,白井市,根１８３０番地の２７,,12,232,2701431,,,,,,,2023-04-28,1,,,,,ヨイナカモン,0
992,4040003022488,新規,0,2023-04-28,2023-04-28,合同会社ＰＯＮＹ,,合同会社,千葉県,浦安市,高洲６丁目２番１号Ｃ１２３,,12,227,2790023,,,,,,,2023-04-28,1,,,,,ポニー,0
993,4040003022505,新規,0,2023-04-28,2023-04-28,アレクト労務コンサルティング合同会社,,合同会社,千葉県,松戸市,岩瀬６３０番地の１１,,12,207,2710076,,,,,,,2023-04-28,1,,,,,アレクトロウムコンサルティング,0
994,4040003022513,新規,0,2023-04-28,2023-04-28,合同会社ＨｉｇｈＢｒｉｄｇｅ,,合同会社,千葉県,船橋市,飯山満町３丁目１５０３番地１０,,12,204,2740822,,,,,,,2023-04-28,1,,,,,ハイブリッジ,0
995,4050001052750,新規,0,2023-04-28,2023-04-28,株式会社ＰＡＲＳ　ＲＡＪ　ＰＶＴ　ＬＴＤ,,株式会社,茨城県,桜川市,真壁町古城３２１番地２,,08,231,3004407,,,,,,,2023-04-28,1,,,,,パルズラジピーブイティーエルティーディー,0
1004,4050003007455,新規,0,2023-04-28,2023-04-28,合同会社ワールドインターン,,合同会社,茨城県,鉾田市,徳宿２４１６番地６－１０１号,,08,234,3111503,,,,,,,2023-04-28,1,,,,,ワールドインターン,0
1007,4060001035944,新規,0,2023-04-28,2023-04-28,株式会社ＭＥＲＣＩ,,株式会社,栃木県,足利市,借宿町１丁目１番地２０,,09,202,3260826,,,,,,,2023-04-28,1,,,,,メルシ,0
1033,4120001254430,新規,0,2023-04-28,2023-04-28,ＯＤ　ＳＴＵＤＩＯ株式会社,,株式会社,大阪府,大阪市此花区,四貫島２丁目３－１ニューセブンビル５０１号室,,27,104,5540014,,,,,,,2023-04-28,1,,,,,オーディースタジオ,0
1034,4120001254463,新規,0,2023-04-28,2023-04-28,株式会社廣田建設,00130308,株式会社,大阪府,大阪市城東区,新喜多東１丁目１２番１４号,,27,118,5360017,,,,,,,2023-04-28,1,,,,,ヒロタケンセツ,0
1035,4120001254471,新規,0,2023-04-28,2023-04-28,株式会社ＴＥＡＭ．Ｚ,,株式会社,大阪府,大阪市平野区,喜連５丁目５番６０号,,27,126,5470027,,,,,,,2023-04-28,1,,,,,チームゼット,0
1036,4120001254505,新規,0,2023-04-28,2023-04-28,株式会社ＲＥＦ教育,,株式会社,大阪府,大阪市平野区,平野元町９番３０－２００３号,,27,126,5470047,,,,,,,2023-04-28,1,,,,,アールイーエフキョウイク,0
1037,4120001254513,新規,0,2023-04-28,2023-04-28,ＲＩＤ株式会社,,株式会社,大阪府,大阪市阿倍野区,天王寺町南３丁目５－１４－１３０２,,27,119,5450002,,,,,,,2023-04-28,1,,,,,アールアイディー,0
1042,4120003023932,新規,0,2023-04-28,2023-04-28,合同会社双林食品,,合同会社,大阪府,大阪市中央区,瓦屋町３丁目９番７－４０３号,,27,128,5420066,,,,,,,2023-04-28,1,,,,,ソウリンショクヒン,0
1043,4120003023957,新規,0,2023-04-28,2023-04-28,ＧＰＬＤ合同会社,,合同会社,大阪府,大阪市淀川区,宮原１丁目１９－１５プレジオ新大阪ＲＯＵＧＥ１１０６,,27,123,5320003,,,,,,,2023-04-28,1,,,,,ジーピーエルディー,0
1048,4120101067451,新規,0,2023-04-28,2023-04-28,株式会社Ｍ＆Ｓ,,株式会社,大阪府,大阪狭山市,西山台１丁目１４番１４号,,27,231,5890022,,,,,,,2023-04-28,1,,,,,エムアンドエス,0
1053,4120103005203,新規,0,2023-04-28,2023-04-28,合同会社ｍａｒｋｅｒ,,合同会社,大阪府,高石市,高師浜３丁目５番２１号,,27,225,5920004,,,,,,,2023-04-28,1,,,,,マーカー,0
1057,4120901047454,新規,0,2023-04-28,2023-04-28,園田工業株式会社,,株式会社,大阪府,摂津市,鳥飼銘木町１番３３号,,27,224,5660063,,,,,,,2023-04-28,1,,,,,ソノダコウギョウ,0
1058,4120905006456,新規,0,2023-04-28,2023-04-28,一般社団法人日本音楽劇協会,,その他の設立登記法人,大阪府,吹田市,寿町２丁目２８番１６号,,27,205,5640036,,,,,,,2023-04-28,1,,,,,ニホンオンガクゲキキョウカイ,0
1074,4160001024994,新規,0,2023-04-28,2023-04-28,株式会社ＳＳ,,株式会社,滋賀県,彦根市,清崎町２３６番地２２,,25,202,5291156,,,,,,,2023-04-28,1,,,,,エスエス,0
1082,4180001155986,新規,0,2023-04-28,2023-04-28,株式会社縁和,,株式会社,愛知県,名古屋市中区,大須３丁目１番３６号,,23,106,4600011,,,,,,,2023-04-28,1,,,,,エンワ,0
1083,4180001156035,新規,0,2023-04-28,2023-04-28,ギブタンクス株式会社,,株式会社,愛知県,春日井市,上条町６丁目３７１０番地１０ロイヤルビィレッジアルプス３０１号,,23,206,4860833,,,,,,,2023-04-28,1,,,,,ギブタンクス,0
1084,4180001156051,新規,0,2023-04-28,2023-04-28,株式会社ＴＡＫＩ工務店,,株式会社,愛知県,名古屋市守山区,瀬古東１丁目２３８番地の１,,23,113,4630090,,,,,,,2023-04-28,1,,,,,タキコウムテン,0
1090,4180005020204,新規,0,2023-04-28,2023-04-28,一般社団法人全国技能教習協会,,その他の設立登記法人,愛知県,西春日井郡豊山町,大字豊場字流川２９番地,,23,342,4800202,,,,,,,2023-04-28,1,,,,,ゼンコクギノウキョウシュウキョウカイ,0
1103,4210005010093,新規,0,2023-04-28,2023-04-28,一般社団法人シマエナガ,,その他の設立登記法人,福井県,鯖江市,中戸口町第１５号３６番地,,18,207,9161112,,,,,,,2023-04-28,1,,,,,シマエナガ,0
1109,4230005009299,新規,0,2023-04-28,2023-04-28,一般社団法人とやまシニアライフサポート協会,,その他の設立登記法人,富山県,富山市,大町２３０番地１,,16,201,9398073,,,,,,,2023-04-28,1,,,,,トヤマシニアライフサポートキョウカイ,0
1123,4290001101343,新規,0,2023-04-28,2023-04-28,株式会社合屋組,,株式会社,福岡県,太宰府市,三条１丁目７番２２号,,40,221,8180111,,,,,,,2023-04-28,1,,,,,ゴウヤグミ,0
1128,4290003013850,新規,0,2023-04-28,2023-04-28,飛雪流星合同会社,,合同会社,福岡県,福岡市博多区,博多駅前１丁目２３番１号ＰａｒｋＦｒｏｎｔ博多駅前一丁目５Ｆ－Ｂ,,40,132,8120011,,,,,,,2023-04-28,1,,,,,ヒセツリュウセイ,0
1129,4290003013859,新規,0,2023-04-28,2023-04-28,合同会社ＳＫＫ,,合同会社,福岡県,那珂川市,王塚台１丁目２３番地,,40,231,8111221,,,,,,,2023-04-28,1,,,,,エスケイケイ,0
1135,4300001013280,新規,0,2023-04-28,2023-04-28,株式会社裕善,,株式会社,佐賀県,三養基郡みやき町,大字白壁字二ノ原４２１１番地３７,,41,346,8490111,,,,,,,2023-04-28,1,,,,,ユウゼン,0
1158,4370003006111,新規,0,2023-04-28,2023-04-28,合同会社Ｍ’ｓ,,合同会社,宮城県,東松島市,矢本字上河戸２９３番地２,,04,214,9810503,,,,,,,2023-04-28,1,,,,,エムズ,0
1160,4380001033643,新規,0,2023-04-28,2023-04-28,株式会社夢大地すみれ,,株式会社,福島県,二本松市,長折字抜佐田２３番地４,,07,210,9640311,,,,,,,2023-04-28,1,,,,,ユメダイチスミレ,0
1164,4410001013468,新規,0,2023-04-28,2023-04-28,一茗株式会社,,株式会社,秋田県,秋田市,御所野元町４丁目１３－１１Ｃ棟２０５号室,,05,201,0101414,,,,,,,2023-04-28,1,,,,,イチメイ,0
1169,4430001088987,新規,0,2023-04-28,2023-04-28,光英総業株式会社,,株式会社,北海道,札幌市清田区,里塚二条２丁目２番１号,,01,110,0040802,,,,,,,2023-04-28,1,,,,,コウエイソウギョウ,0
1172,4430003014990,新規,0,2023-04-28,2023-04-28,合同会社Ｓｈｕ,,合同会社,北海道,札幌市中央区,南九条西３丁目１０番地８０,,01,101,0640809,,,,,,,2023-04-28,1,,,,,シュウ,0
1177,4470001019591,新規,0,2023-04-28,2023-04-28,ワンズプランニング株式会社,,株式会社,香川県,善通寺市,原田町２６７番地９,,37,204,7650032,,,,,,,2023-04-28,1,,,,,ワンズプランニング,0
1183,4700150115878,新規,0,2023-04-28,2023-04-28,Ｓｈｅｎｚｈｅｎｓｈｉ　Ｌｕｏｓｈｅｎｇ　Ｋｅｊｉ　Ｙｏｕｘｉａｎ　Ｇｏｎｇｓｉ,,外国会社等,,,,,,,,Ｌｏｎｇｇａｎｇｑｕ　Ｐｉｎｇｈｕｊｉｅｄａｏ　Ｓｈａｎｇｍｕｇｕｓｈｅｑｕ　Ｂａｏｆｕｌｕ　２Ｈａｏ，Ｂａｏｌａｉｇｏｎｇｙｅｑｕ　ｚｏｎｇｈｅｌｏｕ　３２２，Ｓｈｅｎｚｈｅｎ，Ｇｕａｎｇｄｏｎｇ,,,,,,2023-04-28,1,,,,,シンセンシラセイカギユウゲンコウシ,0
1193,5010001234797,新規,0,2023-04-28,2023-04-28,日本ＮＣＲコマース株式会社,,株式会社,東京都,中央区,新川１丁目２１番２号,,13,102,1040033,,,,,,,2023-04-28,1,,,,,ニホンエヌシーアールコマース,0
1194,5010001234814,新規,0,2023-04-28,2023-04-28,株式会社アジア国際経済文化交流センター,,株式会社,東京都,中央区,小網町３－１８スターコート日本橋９０２号,,13,102,1030000,,,,,,,2023-04-28,1,,,,,アジアコクサイケイザイブンカコウリュウセンター,0
1195,5010001234830,新規,0,2023-04-28,2023-04-28,Ｊ＆Ａ株式会社,,株式会社,東京都,中央区,晴海３丁目１３番２－４８１５号,,13,102,1040053,,,,,,,2023-04-28,1,,,,,ジェイアンドエー,0
1196,5010001234855,新規,0,2023-04-28,2023-04-28,株式会社イッツオン,,株式会社,東京都,中央区,銀座３丁目１１番１号参番館ビル６階,,13,102,1040061,,,,,,,2023-04-28,1,,,,,イッツオン,0
1197,5010001234896,新規,0,2023-04-28,2023-04-28,ＥＰＯＣＨ　ＴＩＭＥＳ　ＪＡＰＡＮ株式会社,,株式会社,東京都,千代田区,紀尾井町３番地２９紀尾井ロイヤルハイツ３０４,,13,101,1020094,,,,,,,2023-04-28,1,,,,,エポックタイムズジャパン,0
1199,5010003040475,新規,0,2023-04-28,2023-04-28,ＨＯ合同会社,,合同会社,東京都,千代田区,麹町１丁目６番１６号半蔵門海和ビル９階（Ｃ／ＯＪｏｏ‐ｒｅａｌｅｓｔａｔｅ‐ｏｆｆｉｃｅ）,,13,101,1020083,,,,,,,2023-04-28,1,,,,,ホ,0
1204,5010401174057,新規,0,2023-04-28,2023-04-28,株式会社ビジコミ,,株式会社,東京都,港区,西新橋１丁目１７番７号,,13,103,1050003,,,,,,,2023-04-28,1,,,,,ビジコミ,0
1206,5010403030010,新規,0,2023-04-28,2023-04-28,ｍａｒｅ合同会社,,合同会社,東京都,港区,虎ノ門３丁目１８番６号朝日虎ノ門マンション６１４号室,,13,103,1050001,,,,,,,2023-04-28,1,,,,,マレ,0
1207,5010403030043,新規,0,2023-04-28,2023-04-28,合同会社Ｌａｐｄｏｇ,,合同会社,東京都,港区,南青山３丁目１番３６号青山丸竹ビル６Ｆ,,13,103,1070062,,,,,,,2023-04-28,1,,,,,ラップドッグ,0
1208,5010405022105,新規,0,2023-04-28,2023-04-28,Ｙｕｒｉ特定目的会社,,その他の設立登記法人,東京都,港区,六本木１丁目９番１０号アークヒルズ仙石山森タワー４０階,,13,103,1060032,,,,,,,2023-04-28,1,,,,,ユリ,0
1211,5010601062961,新規,0,2023-04-28,2023-04-28,ＡＲＩＯＳＥ株式会社,,株式会社,東京都,江東区,亀戸１丁目４番９－１１０３号,,13,108,1360071,,,,,,,2023-04-28,1,,,,,アリオス,0
1219,5010901052885,新規,0,2023-04-28,2023-04-28,株式会社ＳＴＡＲパートナーズ,,株式会社,東京都,世田谷区,若林３丁目２５番８号,,13,112,1540023,,,,,,,2023-04-28,1,,,,,,0
1237,5011701026195,新規,0,2023-04-28,2023-04-28,株式会社Ｄａｉｎｉ設備,,株式会社,東京都,江戸川区,平井７丁目１番３２号,,13,123,1320035,,,,,,,2023-04-28,1,,,,,ダイニセツビ,0
1243,5011801042324,新規,0,2023-04-28,2023-04-28,九山株式会社,,株式会社,東京都,足立区,新田３丁目２６番１３号メゾンアイ１０２,,13,121,1230865,,,,,,,2023-04-28,1,,,,,キュウザン,0
1245,5012301013419,新規,0,2023-04-28,2023-04-28,白輝株式会社,,株式会社,東京都,町田市,森野１丁目３７番８号今村ビル３Ｆ,,13,209,1940022,,,,,,,2023-04-28,1,,,,,シラキ,0
1249,5012403005958,新規,0,2023-04-28,2023-04-28,合同会社ＴＥＫ,,合同会社,東京都,武蔵野市,吉祥寺本町３丁目１８番４号,,13,203,1800004,,,,,,,2023-04-28,1,,,,,ティーイーケー,0
1259,5013301050682,新規,0,2023-04-28,2023-04-28,ＡＵＢＯロボティクス株式会社,,株式会社,東京都,豊島区,東池袋１丁目３４番５号,,13,116,1700013,,,,,,,2023-04-28,1,,,,,オーボーロボティクス,0
1268,5020003023826,新規,0,2023-04-28,2023-04-28,Ｒｏｏｔ　Ｏｎｅ　Ｙｏｇａ合同会社,,合同会社,神奈川県,川崎市多摩区,宿河原４丁目２５－３７ジョイウエスト西山Ｂ１号室,,14,135,2140021,,,,,,,2023-04-28,1,,,,,ルートワンヨガ,0
1278,5021003013024,新規,0,2023-04-28,2023-04-28,合同会社サガミビークルサポート,,合同会社,神奈川県,相模原市緑区,大島２７５６番地６,,14,151,2520135,,,,,,,2023-04-28,1,,,,,サガミビークルサポート,0
1285,5030001153517,新規,0,2023-04-28,2023-04-28,株式会社颯ルーフ,,株式会社,埼玉県,坂戸市,大字北峰１２３番地１１,,11,239,3500258,,,,,,,2023-04-28,1,,,,,ハヤテルーフ,0
1286,5030001153640,新規,0,2023-04-28,2023-04-28,Ｓ＆Ａ株式会社,,株式会社,埼玉県,蕨市,南町１丁目２８－７エトワール玲１０５号,,11,223,3350003,,,,,,,2023-04-28,1,,,,,エスアンドエイ,0
1287,5030001153649,新規,0,2023-04-28,2023-04-28,株式会社エスティーエー,,株式会社,埼玉県,三郷市,戸ケ崎３１２４番地５５サンハイム２０３,,11,237,3410044,,,,,,,2023-04-28,1,,,,,エスティーエー,0
1291,5030003021606,新規,0,2023-04-28,2023-04-28,ＭＡＣＴ合同会社,,合同会社,埼玉県,さいたま市北区,奈良町５３番地１－１０５号,,11,102,3310822,,,,,,,2023-04-28,1,,,,,エムエーシーティー,0
1293,5030005021240,新規,0,2023-04-28,2023-04-28,医療法人一春会,,その他の設立登記法人,埼玉県,和光市,丸山台２丁目２９番１号,,11,229,3510112,,,,,,,2023-04-28,1,,,,,イッシュンカイ,0
1294,5030005021249,新規,0,2023-04-28,2023-04-28,医療法人益岡医院,,その他の設立登記法人,埼玉県,深谷市,岡部１２４９番地１０,,11,218,3690211,,,,,,,2023-04-28,1,,,,,マスオカイイン,0
1295,5040001128138,新規,0,2023-04-28,2023-04-28,全建サービス株式会社,,株式会社,千葉県,松戸市,常盤平５丁目１１番地の２３インシュランスビル１０４号,,12,207,2702261,,,,,,,2023-04-28,1,,,,,ゼンケンサービス,0
1296,5040001128154,新規,0,2023-04-28,2023-04-28,株式会社エムリンクビジョン,,株式会社,千葉県,茂原市,茂原５９３番地５レジデンス浜町１０４,,12,210,2970026,,,,,,,2023-04-28,1,,,,,エムリンクビジョン,0
1297,5040001128162,新規,0,2023-04-28,2023-04-28,ＬＡＫＳＨＡＮ　ＭＯＴＯＲＳ株式会社,,株式会社,千葉県,白井市,折立５４８番地の１,,12,232,2701404,,,,,,,2023-04-28,1,,,,,ラクシャンモータース,0
1302,5040003022438,新規,0,2023-04-28,2023-04-28,Ａ．Ｋ　Ｉｎｔｅｒｎａｔｉｏｎａｌ合同会社,,合同会社,千葉県,野田市,吉春２６２－１,,12,208,2780042,,,,,,,2023-04-28,1,,,,,エーケーインターナショナル,0
1303,5040003022495,新規,0,2023-04-28,2023-04-28,ＮＤ設備合同会社,,合同会社,千葉県,流山市,江戸川台東３丁目６２３番地の２,,12,220,2700111,,,,,,,2023-04-28,1,,,,,エヌディーセツビ,0
1308,5050001052758,新規,0,2023-04-28,2023-04-28,株式会社ほおり,,株式会社,茨城県,鉾田市,鉾田６１７番地３７,,08,234,3111517,,,,,,,2023-04-28,1,,,,,ホオリ,0
1309,5060001035935,新規,0,2023-04-28,2023-04-28,大島林業株式会社,,株式会社,栃木県,矢板市,塩田１３２８番地７,,09,211,3292156,,,,,,,2023-04-28,1,,,,,オオシマリンギョウ,0
1310,5060005010091,新規,0,2023-04-28,2023-04-28,一般社団法人ＳａｙＳｍｉｌｅアカデミー,,その他の設立登記法人,栃木県,宇都宮市,一の沢２丁目１５番２８号－１０２号,,09,201,3200047,,,,,,,2023-04-28,1,,,,,セイスマイルアカデミー,0
1313,5070001040380,新規,0,2023-04-28,2023-04-28,株式会社フィールドジム,,株式会社,群馬県,高崎市,箕郷町矢原１４３番地４,,10,202,3703107,,,,,,,2023-04-28,1,,,,,フィールドジム,0
1314,5080001025587,新規,0,2023-04-28,2023-04-28,株式会社ＥＰＯＣＨＷＡＶＥ,,株式会社,静岡県,焼津市,上小杉５番地の１,,22,212,4210201,,,,,,,2023-04-28,1,,,,,エポックウェイヴ,0
1318,5080105006335,新規,0,2023-04-28,2023-04-28,一般社団法人国際労働者支援協会,,その他の設立登記法人,静岡県,賀茂郡東伊豆町,片瀬１１３９番地の１,,22,301,4130303,,,,,,,2023-04-28,1,,,,,コクサイロウドウシャシエンキョウカイ,0
1320,5100003006987,新規,0,2023-04-28,2023-04-28,藤森会計合同会社,,合同会社,長野県,諏訪市,小和田２３－１３,,20,206,3920024,,,,,,,2023-04-28,1,,,,,フジモリカイケイ,0
1321,5110005016942,新規,0,2023-04-28,2023-04-28,十日町市複業協同組合ＴＯＭＯＷＯＲＫ,,その他の設立登記法人,新潟県,十日町市,袋町西９１番地１,,15,210,9480066,,,,,,,2023-04-28,1,,,,,トオカマチシフクギョウトモワーク,0
1329,5120001254405,新規,0,2023-04-28,2023-04-28,株式会社ＭＩＨ,,株式会社,大阪府,大阪市淀川区,木川西３丁目５番１３－３０５号,,27,123,5320013,,,,,,,2023-04-28,1,,,,,エムアイエイチ,0
1330,5120001254487,新規,0,2023-04-28,2023-04-28,プランズ株式会社,,株式会社,大阪府,大阪市東成区,大今里西２丁目１０番４－４０５号,,27,115,5370014,,,,,,,2023-04-28,1,,,,,プランズ,0
1335,5120003023956,新規,0,2023-04-28,2023-04-28,合同会社ダイモン,,合同会社,大阪府,大阪市東淀川区,西淡路２丁目１０－１３アルティザ新大阪ＤＣ９０６号室,,27,114,5330031,,,,,,,2023-04-28,1,,,,,ダイモン,0
1338,5120101067442,新規,0,2023-04-28,2023-04-28,株式会社Ｙ’ｓ　ｃｏｍｐａｎｙ,,株式会社,大阪府,羽曳野市,向野３丁目７番１１号,,27,222,5830883,,,,,,,2023-04-28,1,,,,,ワイズカンパニー,0
1339,5120103005202,新規,0,2023-04-28,2023-04-28,合同会社ＦＯＮＴＥ,,合同会社,大阪府,和泉市,府中町５丁目２１番１－９１１号,,27,219,5940071,,,,,,,2023-04-28,1,,,,,フォンテ,0
1341,5120903004618,新規,0,2023-04-28,2023-04-28,合同会社水谷労務研究所,,合同会社,大阪府,豊中市,蛍池東町一丁目３番２号蛍池森ビル１号館２０１号室,,27,203,5600000,,,,,,,2023-04-28,1,,,,,ミズタニロウムケンキュウショ,0
1352,5140001130001,新規,0,2023-04-28,2023-04-28,株式会社ＢＣＦ,,株式会社,兵庫県,神戸市中央区,中山手通３丁目７番３０－６０１号,,28,110,6500004,,,,,,,2023-04-28,1,,,,,ビーシーエフ,0
1366,5180001156034,新規,0,2023-04-28,2023-04-28,株式会社ｃｃ,,株式会社,愛知県,名古屋市名東区,社台２丁目３１番地アドリーム社台１０８号,,23,115,4650092,,,,,,,2023-04-28,1,,,,,シーシー,0
1367,5180001156042,新規,0,2023-04-28,2023-04-28,高音大学株式会社,,株式会社,愛知県,名古屋市中村区,羽衣町１４番地（ＶａｎＣｌｅｅｆ４０１号）,,23,105,4530026,,,,,,,2023-04-28,1,,,,,コウオンダイガク,0
1368,5180001156050,新規,0,2023-04-28,2023-04-28,株式会社オー・ケー,,株式会社,愛知県,名古屋市守山区,大森八龍１丁目８０２番地,,23,113,4630028,,,,,,,2023-04-28,1,,,,,オーケー,0
1386,5240003006123,新規,0,2023-04-28,2023-04-28,合同会社セーヒョン,,合同会社,広島県,安芸郡府中町,八幡２丁目１７番１５号２０２,,34,302,7350012,,,,,,,2023-04-28,1,,,,,セーヒョン,0
1389,5250005008819,新規,0,2023-04-28,2023-04-28,特定非営利活動法人プロジェクトＦくだまつ,,その他の設立登記法人,山口県,下松市,中央町２１番３号,,35,207,7440025,,,,,,,2023-04-28,1,,,,,プロジェクトエフクダマツ,0
1390,5260001037903,新規,0,2023-04-28,2023-04-28,無花果株式会社,,株式会社,岡山県,岡山市北区,駅元町２５番１４号,,33,101,7000024,,,,,,,2023-04-28,1,,,,,イチジク,0
1398,5290001101367,新規,0,2023-04-28,2023-04-28,株式会社Ａｂｉｔ,,株式会社,福岡県,福岡市中央区,天神２丁目２番１２号,,40,133,8100001,,,,,,,2023-04-28,1,,,,,アビット,0
1403,5290005019028,新規,0,2023-04-28,2023-04-28,一般社団法人総合福祉支援春の日会,,その他の設立登記法人,福岡県,春日市,弥生４丁目１４９番地,,40,218,8160862,,,,,,,2023-04-28,1,,,,,ソウゴウフクシシエンハルノヒカイ,0
1427,5420001018242,新規,0,2023-04-28,2023-04-28,サンマックス株式会社,,株式会社,青森県,北津軽郡鶴田町,大字鶴田字沖津２３７番地３７,,02,384,0383503,,,,,,,2023-04-28,1,,,,,サンマックス,0
1432,5430005014708,新規,0,2023-04-28,2023-04-28,リーガライト行政書士法人,,その他の設立登記法人,北海道,札幌市中央区,南一条西９丁目５番地１札幌１９Ｌビル５階,,01,101,0600061,,,,,,,2023-04-28,1,,,,,リーガライト,0
1439,5700150115869,新規,0,2023-04-28,2023-04-28,ｙｉｙａｎｇｌｅｍｕｄｉａｎｚｉｓｈａｎｇｗｕｙｏｕｘｉａｎｇｏｎｇｓｉ,,外国会社等,,,,,,,,ｈｅｓｈａｎｑｕｌｏｎｇｇｕａｎｇｑｉａｏｊｉｅｄａｏａｏｄｉｌｉｃｈｕｎｔｉａｎ２＃１１２ｓｈｉ　ｙｉｙａｎｇ　ｈｕｎａｎ　４１３００２　ＣＮ,,,,,,2023-04-28,1,,,,,イーヤンラームーディエンズーシャンウーヨウシエンゴンスー,0
1440,5700150115877,新規,0,2023-04-28,2023-04-28,Ｇｕａｎｇｚｈｏｕ　Ｂｉ　Ｗｅｉ　Ｈｕ　Ｗａｉ　Ｙｏｎｇ　Ｐｉｎ　Ｃｏ．，Ｌｔｄ,,外国会社等,,,,,,,,ｈｕａｎｇｐｕ　Ｑｕ　Ｋｅ　Ｘｕｅ　Ｄａ　Ｄａｏ　２８６ｈａｏ　７０１Ｒｏｏｍ，Ｇｕａｎｇｚｈｏｕ，Ｇｕａｎｇｄｏｎｇ，５１０５３０，ＣＮ,,,,,,2023-04-28,1,,,,,コウシユウビユイコガイヨウヒンユウゲンコウシ,0
1446,6010001234813,新規,0,2023-04-28,2023-04-28,ＭＡＧホールディングス株式会社,,株式会社,東京都,文京区,水道１丁目１２番１号・２Ｆ,,13,105,1120005,,,,,,,2023-04-28,1,,,,,エムエージーホールディングス,0
1447,6010001234821,新規,0,2023-04-28,2023-04-28,ＡｌｌｅＣｉｅｌ株式会社,,株式会社,東京都,千代田区,神田岩本町１５－１,,13,101,1010033,,,,,,,2023-04-28,1,,,,,,0
1448,6010001234838,新規,0,2023-04-28,2023-04-28,Ｎｏｓｔａｌ　Ｈｏｍｅｓ株式会社,,株式会社,東京都,中央区,銀座１丁目１２番４号Ｎ＆Ｅ・ＢＬＤ７階,,13,102,1040061,,,,,,,2023-04-28,1,,,,,ノスタルホームズ,0
1449,6010001234846,新規,0,2023-04-28,2023-04-28,アンリジャックジャパン株式会社,,株式会社,東京都,千代田区,霞が関３丁目２番１号,,13,101,1000013,,,,,,,2023-04-28,1,,,,,アンリジャックジャパン,0
1450,6010001234870,新規,0,2023-04-28,2023-04-28,ダイアモンドクレスト株式会社,,株式会社,東京都,千代田区,内神田１丁目４番２号,,13,101,1010047,,,,,,,2023-04-28,1,,,,,ダイアモンドクレスト,0
1451,6010001234879,新規,0,2023-04-28,2023-04-28,株式会社ＫＳＴ５,,株式会社,東京都,千代田区,内幸町２丁目１番６号,,13,101,1000011,,,,,,,2023-04-28,1,,,,,ケイエスティファイブ,0
1452,6010001234895,新規,0,2023-04-28,2023-04-28,株式会社ｍｉｎｄｗｅｂｗｏｒｋｓ,,株式会社,東京都,中央区,銀座１丁目１２番４号Ｎ＆ＥＢＬＤ．６Ｆ,,13,102,1040061,,,,,,,2023-04-28,1,,,,,マインドウェブワークス,0
1453,6010001234912,新規,0,2023-04-28,2023-04-28,株式会社ＫＨＡＫＩ,,株式会社,東京都,千代田区,内神田１丁目８番９号福田ビル２階,,13,101,1010047,,,,,,,2023-04-28,1,,,,,カーキ,0
1454,6010001234953,新規,0,2023-04-28,2023-04-28,ジャパンスペシャリティアパレル株式会社,,株式会社,東京都,中央区,銀座１丁目１２－４Ｎ＆ＥＢＬＤ．７階,,13,102,1040061,,,,,,,2023-04-28,1,,,,,ジャパンスペシャリティアパレル,0
1456,6010003040391,新規,0,2023-04-28,2023-04-28,合同会社ＴｕｎａｇａｒＵ,,合同会社,東京都,中央区,銀座１丁目１２番４号,,13,102,1040061,,,,,,,2023-04-28,1,,,,,ツナガル,0
1457,6010003040458,新規,0,2023-04-28,2023-04-28,合同会社ＫＲＦ,,合同会社,東京都,中央区,日本橋１丁目４番１号日本橋一丁目ビルディング,,13,102,1030027,,,,,,,2023-04-28,1,,,,,ケイアールエフ,0
1458,6010003040466,新規,0,2023-04-28,2023-04-28,合同会社アザレア,,合同会社,東京都,千代田区,岩本町２丁目５番８号パステルコート神田岩本町６０２号,,13,101,1010032,,,,,,,2023-04-28,1,,,,,アザレア,0
1459,6010003040490,新規,0,2023-04-28,2023-04-28,ＨＡホールディングス合同会社,,合同会社,東京都,文京区,湯島１丁目８番２号ＭＫ御茶ノ水ビル２階,,13,105,1130034,,,,,,,2023-04-28,1,,,,,エイチエーホールディングス,0
1467,6010401173933,新規,0,2023-04-28,2023-04-28,株式会社ピーブイナビゲート,,株式会社,東京都,港区,海岸２丁目１番１６号,,13,103,1050022,,,,,,,2023-04-28,1,,,,,ピーブイナビゲート,0
1468,6010401174023,新規,0,2023-04-28,2023-04-28,株式会社ＥｔｅＬＵＮＥ,,株式会社,東京都,港区,赤坂９丁目６番３９－１５０１号,,13,103,1070052,,,,,,,2023-04-28,1,,,,,エテルネ,0
1469,6010401174056,新規,0,2023-04-28,2023-04-28,Ｍｉｌｋｙ　Ｗａｙ株式会社,,株式会社,東京都,港区,高輪１丁目１９番１１号,,13,103,1080074,,,,,,,2023-04-28,1,,,,,ミルキーウェイ,0
1471,6010403029984,新規,0,2023-04-28,2023-04-28,富正嘉納合同会社,,合同会社,東京都,港区,六本木７丁目１番１４号,,13,103,1060032,,,,,,,2023-04-28,1,,,,,トミショウカノウ,0
1472,6010403030026,新規,0,2023-04-28,2023-04-28,ＴＲＡＣ　ＯＮＥ　ＬＬＣ合同会社,,合同会社,東京都,港区,赤坂８丁目１２番３０－４１１号,,13,103,1070052,,,,,,,2023-04-28,1,,,,,トラックワンエルエルシー,0
1473,6010405022095,新規,0,2023-04-28,2023-04-28,アラン特定目的会社,,その他の設立登記法人,東京都,港区,浜松町１丁目２０番１０号ライオネス浜松町５０６号室,,13,103,1050013,,,,,,,2023-04-28,1,,,,,アラン,0
1475,6010503006974,新規,0,2023-04-28,2023-04-28,一合同会社,,合同会社,東京都,台東区,北上野２丁目１０番８号,,13,106,1100014,,,,,,,2023-04-28,1,,,,,イチ,0
1483,6010801033877,新規,0,2023-04-28,2023-04-28,サステナウォーター株式会社,,株式会社,東京都,大田区,西馬込２丁目１－５,,13,111,1430026,,,,,,,2023-04-28,1,,,,,サステナウォーター,0
1499,6011101102686,新規,0,2023-04-28,2023-04-28,株式会社ｍｅｒｒｙ．,,株式会社,東京都,新宿区,新宿１丁目３６番１号東京１３６ビル２階,,13,104,1600022,,,,,,,2023-04-28,1,,,,,メリー,0
1500,6011101102694,新規,0,2023-04-28,2023-04-28,株式会社Ｐｒｏｍｐｔｉｍａ,,株式会社,東京都,新宿区,新宿１丁目３６番２号新宿第七葉山ビル３Ｆ,,13,104,1600022,,,,,,,2023-04-28,1,,,,,プロンプティマ,0
1501,6011101102711,新規,0,2023-04-28,2023-04-28,株式会社ＦＵＮＮＹ　ＬＯＣＯ,,株式会社,東京都,新宿区,市谷田町１丁目１ＡＴビル９階,,13,104,1620843,,,,,,,2023-04-28,1,,,,,ファニーロコ,0
1503,6011203004070,新規,0,2023-04-28,2023-04-28,ＧＯＡＴ合同会社,,合同会社,東京都,中野区,江原町２丁目２４－１７第三喜光マンション１０５,,13,114,1650023,,,,,,,2023-04-28,1,,,,,ゴート,0
1512,6011501029232,新規,0,2023-04-28,2023-04-28,株式会社リアン,,株式会社,東京都,荒川区,西日暮里６丁目１４－１３－５０３,,13,118,1160013,,,,,,,2023-04-28,1,,,,,リアン,0
1521,6011801042323,新規,0,2023-04-28,2023-04-28,小朶株式会社,,株式会社,東京都,足立区,栗原３丁目２６番１号２Ｆ,,13,121,1230842,,,,,,,2023-04-28,1,,,,,コダ,0
1522,6012301013418,新規,0,2023-04-28,2023-04-28,株式会社Ｆｕｎｂｅｓｔ,,株式会社,東京都,町田市,中町１丁目４番２号,,13,209,1940021,,,,,,,2023-04-28,1,,,,,ファンベスト,0
1524,6012401040477,新規,0,2023-04-28,2023-04-28,株式会社ヘリオステック,,株式会社,東京都,多摩市,豊ヶ丘６丁目２番地３,,13,224,2060031,,,,,,,2023-04-28,1,,,,,ヘリオステック,0
1526,6012801022315,新規,0,2023-04-28,2023-04-28,株式会社貴美重建,,株式会社,東京都,日野市,富士町１番地３１ビバヒルズ９２０,,13,212,1910064,,,,,,,2023-04-28,1,,,,,タカミジュウケン,0
1537,6020001151322,新規,0,2023-04-28,2023-04-28,株式会社Ｊ‐ＳＴＯＫＥ,,株式会社,神奈川県,川崎市麻生区,王禅寺１２５４番地６７,,14,137,2150013,,,,,,,2023-04-28,1,,,,,ジェイストーク,0
1538,6020001151355,新規,0,2023-04-28,2023-04-28,株式会社モリ・エンタープライズ,,株式会社,神奈川県,川崎市高津区,久末２９５番地,,14,134,2130026,,,,,,,2023-04-28,1,,,,,モリエンタープライズ,0
1543,6020003023809,新規,0,2023-04-28,2023-04-28,合同会社ひだまり,,合同会社,神奈川県,横浜市都筑区,すみれが丘２４番地１８,,14,118,2240013,,,,,,,2023-04-28,1,,,,,ヒダマリ,0
1544,6020003023825,新規,0,2023-04-28,2023-04-28,ＭＪハピネス合同会社,,合同会社,神奈川県,横浜市西区,北幸２丁目１０番２８号むつみビル３Ｆ,,14,103,2200004,,,,,,,2023-04-28,1,,,,,エムジェーハピネス,0
1546,6021001078844,新規,0,2023-04-28,2023-04-28,ｐａｋｕｐａｋｕ株式会社,,株式会社,神奈川県,逗子市,桜山８丁目６番４号,,14,208,2490005,,,,,,,2023-04-28,1,,,,,パクパク,0
1547,6021001078902,新規,0,2023-04-28,2023-04-28,天野コンバイン株式会社,,株式会社,神奈川県,平塚市,高浜台１番１－４０２号高浜台ハイツ,,14,203,2540805,,,,,,,2023-04-28,1,,,,,アマノコンバイン,0
1550,6030001153598,新規,0,2023-04-28,2023-04-28,株式会社西川口,,株式会社,埼玉県,川口市,西川口１丁目６番２号,,11,203,3320021,,,,,,,2023-04-28,1,,,,,ニシカワグチ,0
1551,6030001153623,新規,0,2023-04-28,2023-04-28,株式会社バンブーフォレスト,,株式会社,埼玉県,和光市,下新倉３丁目８番７５号,,11,229,3510111,,,,,,,2023-04-28,1,,,,,バンブーフォレスト,0
1552,6030001153631,新規,0,2023-04-28,2023-04-28,株式会社ＺＥＮ,,株式会社,埼玉県,川口市,大字安行吉蔵４４番地の４,,11,203,3340053,,,,,,,2023-04-28,1,,,,,ゼン,0
1553,6030001153648,新規,0,2023-04-28,2023-04-28,ケーオーサービス株式会社,,株式会社,埼玉県,八潮市,大字南川崎３４番地７,,11,234,3400814,,,,,,,2023-04-28,1,,,,,ケーオーサービス,0
1554,6030001153656,新規,0,2023-04-28,2023-04-28,日新国際株式会社,,株式会社,埼玉県,戸田市,上戸田４丁目２番２７－４０４号,,11,224,3350022,,,,,,,2023-04-28,1,,,,,ニッシンコクサイ,0
1564,6040001128194,新規,0,2023-04-28,2023-04-28,株式会社Ｏｃｅａｎｅｘ,,株式会社,千葉県,千葉市中央区,千葉寺町１１９６－１,,12,101,2600844,,,,,,,2023-04-28,1,,,,,オーシャネックス,0
1567,6040003022486,新規,0,2023-04-28,2023-04-28,合同会社Ｆ．Ｔ．Ｓ　ＧＲＯＵＰ,,合同会社,千葉県,木更津市,金田東４丁目３番地１マーレ金田１０２,,12,206,2920009,,,,,,,2023-04-28,1,,,,,エフティーエスグループ,0
1568,6040003022503,新規,0,2023-04-28,2023-04-28,ＬＰライフ合同会社,,合同会社,千葉県,柏市,北柏４丁目５番地１１,,12,217,2770832,,,,,,,2023-04-28,1,,,,,エルピーライフ,0
1569,6040003022511,新規,0,2023-04-28,2023-04-28,Ｕｎｉｔｅｄ　ｈｏｐｅｓ合同会社,,合同会社,千葉県,松戸市,幸谷９６１番地の１,,12,207,2700017,,,,,,,2023-04-28,1,,,,,ユナイテッドホープス,0
1576,6060003004532,新規,0,2023-04-28,2023-04-28,合同会社あんず,,合同会社,栃木県,宇都宮市,戸祭元町１２番１号,,09,201,3200031,,,,,,,2023-04-28,1,,,,,アンズ,0
1580,6060005010090,新規,0,2023-04-28,2023-04-28,一般社団法人栃木スターズベースボール,,その他の設立登記法人,栃木県,栃木市,新井町２３２番地,,09,203,3280061,,,,,,,2023-04-28,1,,,,,トチギスターズベースボール,0
1588,6080105006334,新規,0,2023-04-28,2023-04-28,千華会,,その他の設立登記法人,静岡県,富士市,伝法２４９９番地２,,22,210,4170061,,,,,,,2023-04-28,1,,,,,センノハナノカイ,0
1591,6100001036358,新規,0,2023-04-28,2023-04-28,株式会社ハナオカ,,株式会社,長野県,上伊那郡南箕輪村,田畑６２５番地１コーポハラ２０３号,,20,385,3994511,,,,,,,2023-04-28,1,,,,,ハナオカ,0
1593,6110005016941,新規,0,2023-04-28,2023-04-28,特定非営利活動法人全国自然栽培実行委員会,,その他の設立登記法人,新潟県,長岡市,四郎丸３丁目５番３７号,,15,202,9400046,,,,,,,2023-04-28,1,,,,,ゼンコクシゼンサイバイジッコウイインカイ,0
1601,6120001254445,新規,0,2023-04-28,2023-04-28,シメハン株式会社,,株式会社,大阪府,大阪市北区,梅田１丁目２番２号大阪駅前第２ビル１２－１２,,27,127,5300001,,,,,,,2023-04-28,1,,,,,シメハン,0
1602,6120001254461,新規,0,2023-04-28,2023-04-28,株式会社ｋｉｎｄ　ｈｅａｒｔ,,株式会社,大阪府,大阪市東淀川区,菅原２丁目６番５号,,27,114,5330022,,,,,,,2023-04-28,1,,,,,カインドハート,0
1603,6120001254478,新規,0,2023-04-28,2023-04-28,株式会社＿煌馨,00130310,株式会社,大阪府,大阪市港区,市岡元町２丁目１４番１８号,,27,107,5520002,,,,,,,2023-04-28,1,,,,,キンオウキョウ,0
1604,6120001254503,新規,0,2023-04-28,2023-04-28,ＨＭ　Ｇｒｏｕｐ株式会社,,株式会社,大阪府,大阪市西成区,花園北１丁目５番４号ペントハウス花園１Ｆ,,27,122,5570016,,,,,,,2023-04-28,1,,,,,エイチエムグループ,0
1607,6120003023947,新規,0,2023-04-28,2023-04-28,合同会社Ｎｉｋａ,,合同会社,大阪府,大阪市北区,中崎西３丁目２－１７－２１６,,27,127,5300015,,,,,,,2023-04-28,1,,,,,ニカ,0
1608,6120003023963,新規,0,2023-04-28,2023-04-28,合同会社セレネ,,合同会社,大阪府,大阪市東淀川区,西淡路２丁目１０－１３アルティザ新大阪ＤＣ９０６号室,,27,114,5330031,,,,,,,2023-04-28,1,,,,,セレネ,0
1619,6120103005201,新規,0,2023-04-28,2023-04-28,合同会社聖,,合同会社,大阪府,堺市堺区,翁橋町１丁９番４号,,27,141,5900061,,,,,,,2023-04-28,1,,,,,ヒジリ,0
1620,6120105009720,新規,0,2023-04-28,2023-04-28,一般社団法人ドローンパイロット育成協会,,その他の設立登記法人,大阪府,岸和田市,南町９番１７－１１１７号,,27,202,5960067,,,,,,,2023-04-28,1,,,,,ドローンパイロットイクセイキョウカイ,0
1621,6120903004591,新規,0,2023-04-28,2023-04-28,合同会社ＹＭ,,合同会社,大阪府,豊中市,柴原町１丁目５番３３号,,27,203,5600055,,,,,,,2023-04-28,1,,,,,ワイエム,0
1622,6120905006454,新規,0,2023-04-28,2023-04-28,土地家屋調査士法人ＬｅｇａｌＨｏｍｅ,,その他の設立登記法人,大阪府,池田市,城南１丁目１番２９号サンライズ池田ビル４Ｆ,,27,204,5630025,,,,,,,2023-04-28,1,,,,,リーガルホーム,0
1626,6130003008690,新規,0,2023-04-28,2023-04-28,合同会社ｃｈｅｅｒｆｕｌ,,合同会社,京都府,京都市東山区,八坂鳥居前南入清井町４９２－４,,26,105,6050000,,,,,,,2023-04-28,1,,,,,チアフル,0
1631,6140001129934,新規,0,2023-04-28,2023-04-28,ＡＮ　ＴＲＡＤＩＮＧ株式会社,,株式会社,兵庫県,神戸市長田区,雲雀ケ丘３丁目６－３ヴィラナリー雲雀ヶ丘３号棟３０２号,,28,106,6530879,,,,,,,2023-04-28,1,,,,,エーエヌトレーディング,0
1632,6140001129950,新規,0,2023-04-28,2023-04-28,株式会社森井,,株式会社,兵庫県,神戸市西区,玉津町田中６１４番地,,28,111,6512147,,,,,,,2023-04-28,1,,,,,モリイ,0
1634,6140005026599,新規,0,2023-04-28,2023-04-28,特定非営利活動法人学習支援ネットワーク寺子屋,,その他の設立登記法人,兵庫県,明石市,大明石町２丁目２番１２号リバブル金陵５０２号,,28,203,6730891,,,,,,,2023-04-28,1,,,,,ガクシュウシエンネットワークテラコヤ,0
1636,6150001026362,新規,0,2023-04-28,2023-04-28,株式会社宝夢あすか,,株式会社,奈良県,高市郡明日香村,大字岡１００番地の２,,29,402,6340111,,,,,,,2023-04-28,1,,,,,ホームアスカ,0
1638,6160003002864,新規,0,2023-04-28,2023-04-28,ＷｅｓｔＮｏｒｔｈ合同会社,,合同会社,滋賀県,栗東市,綣１０丁目１６番３号,,25,208,5203031,,,,,,,2023-04-28,1,,,,,ウエストノース,0
1643,6180001156041,新規,0,2023-04-28,2023-04-28,名高電工株式会社,00130306,株式会社,愛知県,名古屋市天白区,鴻の巣１丁目２１６番地（鴻ノ巣ヒルズ１Ｄ号）,,23,116,4680003,,,,,,,2023-04-28,1,,,,,メイコウデンコウ,0
1644,6180001156066,新規,0,2023-04-28,2023-04-28,株式会社クリエイト,,株式会社,愛知県,名古屋市西区,枇杷島２丁目１６番２２号,,23,104,4510053,,,,,,,2023-04-28,1,,,,,クリエイト,0
1646,6180003025161,新規,0,2023-04-28,2023-04-28,＿寧合同会社,00130301,合同会社,愛知県,名古屋市中区,栄４丁目２１番５号北岡ビル２階２０１号,,23,106,4600008,,,,,,,2023-04-28,1,,,,,シンネイ,0
1650,6180005020202,新規,0,2023-04-28,2023-04-28,協同組合Ｏｎｅ　Ｂｌｕｅ,,その他の設立登記法人,愛知県,名古屋市中区,錦３丁目２３番１８号ニューサカエビル９Ｆ,,23,106,4600003,,,,,,,2023-04-28,1,,,,,ワンブルー,0
1654,6190001030360,新規,0,2023-04-28,2023-04-28,株式会社ＭＡＫＯＴＯ,,株式会社,三重県,津市,長岡町８００番地５９９,,24,201,5140064,,,,,,,2023-04-28,1,,,,,マコト,0
1663,6240001061425,新規,0,2023-04-28,2023-04-28,株式会社ＭＭＣ,,株式会社,広島県,福山市,南蔵王町３丁目５番１２号,,34,207,7210973,,,,,,,2023-04-28,1,,,,,エムエムシー,0
1668,6260001037902,新規,0,2023-04-28,2023-04-28,株式会社神商岡山,,株式会社,岡山県,瀬戸内市,邑久町豆田１０１５番地１,,33,212,7014254,,,,,,,2023-04-28,1,,,,,カミショウオカヤマ,0
1670,6280001008926,新規,0,2023-04-28,2023-04-28,安藤建築設計室株式会社,,株式会社,島根県,安来市,島田町１２０３－１,,32,206,6920024,,,,,,,2023-04-28,1,,,,,アンドウケンチクセッケイシツ,0
1676,6290003013840,新規,0,2023-04-28,2023-04-28,合同会社ルーデンズ,,合同会社,福岡県,福岡市中央区,荒戸１丁目４番４－５０２号ガレット大濠公園ステーション,,40,133,8100062,,,,,,,2023-04-28,1,,,,,,0
1677,6290005019027,新規,0,2023-04-28,2023-04-28,一般社団法人ＳＯＹ,,その他の設立登記法人,福岡県,福岡市早良区,有田３丁目７－７大森店舗２階,,40,137,8140033,,,,,,,2023-04-28,1,,,,,ソイ,0
1685,6330001030750,新規,0,2023-04-28,2023-04-28,株式会社Ｌｉｂｅｒｔａ,,株式会社,熊本県,上益城郡益城町,大字古閑５１番６５号,,43,443,8612234,,,,,,,2023-04-28,1,,,,,リベルタ,0
1710,6420001018233,新規,0,2023-04-28,2023-04-28,株式会社リフォーム専門建築士蝦名です,,株式会社,青森県,青森市,筒井４丁目９番２号,,02,201,0300944,,,,,,,2023-04-28,1,,,,,,0
1713,6430001088936,新規,0,2023-04-28,2023-04-28,株式会社Ｆｕｊｉ　Ｐｌａｎｎｉｎｇ,,株式会社,北海道,札幌市東区,北十九条東２丁目１－２メゾンドリラ１０２,,01,103,0650019,,,,,,,2023-04-28,1,,,,,フジプランニング,0
1714,6430001088952,新規,0,2023-04-28,2023-04-28,株式会社ファーストサーベイ,,株式会社,北海道,札幌市東区,北十一条東１７丁目２番９号,,01,103,0650011,,,,,,,2023-04-28,1,,,,,ファーストサーベイ,0
1715,6430001088969,新規,0,2023-04-28,2023-04-28,株式会社ティーズエステート,,株式会社,北海道,札幌市東区,東苗穂二条３丁目５番４６号,,01,103,0070802,,,,,,,2023-04-28,1,,,,,ティーズエステート,0
1716,6430001089001,新規,0,2023-04-28,2023-04-28,株式会社堀野設備,,株式会社,北海道,札幌市中央区,南一条西１６丁目１番地３２３春野ビル３階,,01,101,0600061,,,,,,,2023-04-28,1,,,,,ホリノセツビ,0
1725,6500003003027,新規,0,2023-04-28,2023-04-28,Ｄ‐Ｆｉｒｓｔ合同会社,,合同会社,愛媛県,松山市,余戸中４丁目３番４０－１号,,38,201,7900045,,,,,,,2023-04-28,1,,,,,ディーファースト,0
1727,6700150115868,新規,0,2023-04-28,2023-04-28,Ｓｈｅｎｚｈｅｎｓｈｉｊｉｎｒｕｉｙｕａｎｍａｏｙｉｙｏｕｘｉａｎｇｏｎｇｓｉ,,外国会社等,,,,,,,,ｓｈｅｎｚｈｅｎｓｈｉｌｏｎｇｇａｎｇｑｕｂａｎｔｉａｎｊｉｅｄａｏｗｕｈｅｓｈｅｑｕ　ｈｅｋａｎｃｕｎ６３３Ｃｈｅｓｈｅｎｇｄａｓｈａ２０７　ｓｈｅｎｚｈｅｎｓｈｉ　ｇｕａｎｇｄｏｎｇｓｈｅｎｇ　５１８１２９　ＣＮ,,,,,,2023-04-28,1,,,,,シェンジェンシージンルイユエンマオイーヨウシエンゴンスー,0
1728,6700150115876,新規,0,2023-04-28,2023-04-28,Ｈｕｎａｎ　Ｘｉ　Ｂｅｉ　ｈｏｍｅ　Ｔｒａｄｉｎｇ　Ｃｏ．Ｌｔｄ,,外国会社等,,,,,,,,１２１０，Ｂｕｉｌｄｉｎｇ　Ｅ０３，Ｗｅｓｔ　Ｓｈｅｎｙｅ　Ｒｕｉｃｈｅｎｇ　Ｅ０２，Ｓｏｕｔｈ　Ｅａｓｔ　７ｔｈ　Ｌｉｎｅ，Ｋａｉｙｕａｎ　Ｒｏａｄ，Ｘｉｎｇｓｈａ　Ｓｔｒｅｅｔ，Ｃｈａｎｇｓｈａ　Ｃｏｕｎｔｙ，Ｈｕｎａｎ　Ｐｒｏｖｉｎｃｅ,,,,,,2023-04-28,1,,,,,コナンキバイノイエボウエキユウゲンコウシ,0
1736,7010001234837,新規,0,2023-04-28,2023-04-28,東京海神タンクコンテナ株式会社,,株式会社,東京都,千代田区,神田須田町１丁目７番地１,,13,101,1010041,,,,,,,2023-04-28,1,,,,,トウキョウカイジンタンクコンテナ,0
1737,7010001234845,新規,0,2023-04-28,2023-04-28,株式会社マチナカ開発,,株式会社,東京都,千代田区,神田佐久間町２丁目１８番５号アークビル２階,,13,101,1010025,,,,,,,2023-04-28,1,,,,,マチナカカイハツ,0
1738,7010001234861,新規,0,2023-04-28,2023-04-28,株式会社アクセスブライト・エンターテインメント,,株式会社,東京都,中央区,銀座１丁目２７番８号セントラルビル７０３号,,13,102,1040061,,,,,,,2023-04-28,1,,,,,アクセスブライトエンターテインメント,0
1739,7010001234878,新規,0,2023-04-28,2023-04-28,株式会社ＷＯＮＤＥＲ　ＧＡＴＥ,,株式会社,東京都,中央区,銀座１丁目２２番１１号銀座大竹ビジデンス２階,,13,102,1040061,,,,,,,2023-04-28,1,,,,,ワンダーゲート,0
1743,7010003040465,新規,0,2023-04-28,2023-04-28,エバーグレイステクノロジーズ合同会社,,合同会社,東京都,千代田区,神田和泉町１番地６－１６ヤマトビル４０５,,13,101,1010024,,,,,,,2023-04-28,1,,,,,エバーグレイステクノロジーズ,0
1745,7010005036585,新規,0,2023-04-28,2023-04-28,Ａｍｕｎ一般社団法人,,その他の設立登記法人,東京都,千代田区,内神田２丁目２番６号５階あすな会計事務所内,,13,101,1010047,,,,,,,2023-04-28,1,,,,,アムン,0
1746,7010101015625,新規,0,2023-04-28,2023-04-28,株式会社丸市荷役,,株式会社,東京都,八王子市,寺田町１４１２番地グランシャリオトキワ１０１,,13,201,1930943,,,,,,,2023-04-28,1,,,,,マルイチニヤク,0
1749,7010105002215,新規,0,2023-04-28,2023-04-28,一般社団法人八王子Ｕ１６デジタル教育支援協議会,,その他の設立登記法人,東京都,八王子市,東町１－１０グランデハイツ八王子３階,,13,201,1920082,,,,,,,2023-04-28,1,,,,,ハチオウジユージュウロクデジタルキョウイクシエンキョウギカイ,0
1763,7010403030017,新規,0,2023-04-28,2023-04-28,合同会社ＡＲＣＨ,,合同会社,東京都,港区,三田５丁目２番１８－２３２号,,13,103,1080073,,,,,,,2023-04-28,1,,,,,アーチ,0
1772,7010903008132,新規,0,2023-04-28,2023-04-28,Ｃｈｅｍｉｎ合同会社,,合同会社,東京都,世田谷区,五丁目９番２―４０１号,,13,112,1540000,,,,,,,2023-04-28,1,,,,,シュマン,0
1782,7011001154083,新規,0,2023-04-28,2023-04-28,株式会社Ｓｔａｙ　Ｇｏｌｄ,,株式会社,東京都,渋谷区,恵比寿南３丁目７番７号アピス代官山６０３,,13,113,1500022,,,,,,,2023-04-28,1,,,,,ステイゴールド,0
1787,7011101102677,新規,0,2023-04-28,2023-04-28,株式会社エイチリンクシステムズ,,株式会社,東京都,新宿区,水道町３番地１４神楽坂Ｎビル２Ｋ,,13,104,1620811,,,,,,,2023-04-28,1,,,,,エイチリンクシステムズ,0
1793,7011401025082,新規,0,2023-04-28,2023-04-28,葦針川株式会社,,株式会社,東京都,板橋区,成増３丁目４７番７号,,13,119,1750094,,,,,,,2023-04-28,1,,,,,ヨシハリセン,0
1802,7012401040476,新規,0,2023-04-28,2023-04-28,株式会社さくら商事,,株式会社,東京都,調布市,富士見町１丁目２５番地２１,,13,208,1820033,,,,,,,2023-04-28,1,,,,,サクラショウジ,0
1803,7012401040484,新規,0,2023-04-28,2023-04-28,株式会社ＧＮＡＶＩロジスティクス,,株式会社,東京都,武蔵野市,境１丁目２５番２２号,,13,203,1800022,,,,,,,2023-04-28,1,,,,,ジーナビロジスティクス,0
1806,7012801022306,新規,0,2023-04-28,2023-04-28,ｎｏｉ’ｓコーポレーション株式会社,,株式会社,東京都,日野市,東豊田４丁目２２番地の２６,,13,212,1910052,,,,,,,2023-04-28,1,,,,,ノイズコーポレーション,0
1814,7020001151230,新規,0,2023-04-28,2023-04-28,三浦株式会社,,株式会社,神奈川県,川崎市宮前区,鷺沼２丁目１９番地１０セントパレス鷺沼１０３,,14,136,2160004,,,,,,,2023-04-28,1,,,,,ミウラ,0
1815,7020001151370,新規,0,2023-04-28,2023-04-28,ＳＫＹ　Ｒｅ‐ｃｏｌｌｅｃｔｉｏｎ株式会社,,株式会社,神奈川県,横浜市青葉区,たちばな台２丁目１９番１０号,,14,117,2270046,,,,,,,2023-04-28,1,,,,,スカイリコレクション,0
1821,7021001078884,新規,0,2023-04-28,2023-04-28,株式会社ＡＬＬＥＧＲＡ,,株式会社,神奈川県,茅ヶ崎市,東海岸南５丁目３番６２－１号,,14,207,2530054,,,,,,,2023-04-28,1,,,,,アレグラ,0
1822,7021001078892,新規,0,2023-04-28,2023-04-28,株式会社龍圭麺,,株式会社,神奈川県,三浦郡葉山町,上山口２２５１番地の４,,14,301,2400115,,,,,,,2023-04-28,1,,,,,リュウケイメン,0
1827,7030001153630,新規,0,2023-04-28,2023-04-28,株式会社ＬＦＬＯＷ,,株式会社,埼玉県,新座市,栗原３丁目９－１３,,11,230,3520035,,,,,,,2023-04-28,1,,,,,エルフロウ,0
1831,7030003021678,新規,0,2023-04-28,2023-04-28,農ＢＡＳＥ合同会社,,合同会社,埼玉県,さいたま市岩槻区,大字飯塚８１２,,11,110,3390031,,,,,,,2023-04-28,1,,,,,ノウベース,0
1832,7040001128160,新規,0,2023-04-28,2023-04-28,株式会社ウッドワークス,,株式会社,千葉県,野田市,木間ケ瀬５９９９番地２,,12,208,2700222,,,,,,,2023-04-28,1,,,,,ウッドワークス,0
1833,7040001128169,新規,0,2023-04-28,2023-04-28,株式会社アシスト,,株式会社,千葉県,千葉市中央区,浜野町６４４番地２シャンティ浜野Ｂ棟１０１号,,12,101,2600824,,,,,,,2023-04-28,1,,,,,アシスト,0
1834,7040001128193,新規,0,2023-04-28,2023-04-28,国際養老事業株式会社,,株式会社,千葉県,千葉市花見川区,花見川６番１６棟１０３号,,12,102,2620046,,,,,,,2023-04-28,1,,,,,コクサイヨウロウジギョウ,0
1835,7040003022436,新規,0,2023-04-28,2023-04-28,ＭＩＲＡＪ　ＢＲＯＴＨＥＲＳ合同会社,,合同会社,千葉県,野田市,吉春２６２－１,,12,208,2780042,,,,,,,2023-04-28,1,,,,,ミラージュブラザーズ,0
1836,7040003022493,新規,0,2023-04-28,2023-04-28,合同会社ｆａｍｅｎｄｓＴｒｅｅ,,合同会社,千葉県,千葉市美浜区,真砂３丁目１８番１棟１０１４号,,12,106,2610011,,,,,,,2023-04-28,1,,,,,ファメンズツリー,0
1837,7040003022510,新規,0,2023-04-28,2023-04-28,ＨＯＡＮＧ　ＫＩＭ　ＨＯＬＤＩＮＧＳ合同会社,,合同会社,千葉県,柏市,中央１丁目６番３号,,12,217,2770023,,,,,,,2023-04-28,1,,,,,ホアンキムホールディングス,0
1839,7040005021980,新規,0,2023-04-28,2023-04-28,一般社団法人百色,,その他の設立登記法人,千葉県,流山市,大字東深井４９３－２２１,,12,220,2700101,,,,,,,2023-04-28,1,,,,,モモイロ,0
1848,7050003007460,新規,0,2023-04-28,2023-04-28,Ｎ．Ｄ．Ｕ．Ａｕｔｏ　Ｐａｒｔｓ合同会社,,合同会社,茨城県,稲敷郡美浦村,大字受領１８８番地,,08,442,3000424,,,,,,,2023-04-28,1,,,,,エヌディーユーオートパーツ,0
1857,7080003002970,新規,0,2023-04-28,2023-04-28,合同会社ＨＯＰＥ,,合同会社,静岡県,島田市,横井３丁目１０番２１号,,22,209,4270024,,,,,,,2023-04-28,1,,,,,ホープ,0
1860,7080403004781,新規,0,2023-04-28,2023-04-28,合同会社Ａｘｉｓ　Ａｇｅｎｃｙ,,合同会社,静岡県,浜松市中区,寺島町１７番地フレクション浜松１－１０４,,22,131,4300925,,,,,,,2023-04-28,1,,,,,アクシスエージェンシー,0
1862,7080405007543,新規,0,2023-04-28,2023-04-28,特定非営利活動法人つつみて,,その他の設立登記法人,静岡県,浜松市西区,舞阪町弁天島３２２１番地１０,,22,133,4310214,,,,,,,2023-04-28,1,,,,,ツツミテ,0
1866,7100005013006,新規,0,2023-04-28,2023-04-28,一般財団法人里山フロンティア財団,,その他の設立登記法人,長野県,長野市,篠ノ井小松原１３９番地,,20,201,3812235,,,,,,,2023-04-28,1,,,,,サトヤマフロンティアザイダン,0
1870,7110005016940,新規,0,2023-04-28,2023-04-28,一般社団法人新潟市南商工振興会,,その他の設立登記法人,新潟県,新潟市中央区,女池南２丁目２番１０号エクセル鳥屋野１－Ｃ,,15,103,9500948,,,,,,,2023-04-28,1,,,,,ニイガタシミナミショウコウシンコウカイ,0
1880,7120001254436,新規,0,2023-04-28,2023-04-28,株式会社ＳＰＩＮＧＡＲＤＥＮ,,株式会社,大阪府,大阪市阿倍野区,阿倍野元町１４番１号,,27,119,5450034,,,,,,,2023-04-28,1,,,,,スピンガーデン,0
1881,7120001254493,新規,0,2023-04-28,2023-04-28,株式会社スリーサーティ,,株式会社,大阪府,大阪市阿倍野区,長池町１２番２号,,27,119,5450013,,,,,,,2023-04-28,1,,,,,スリーサーティ,0
1882,7120001254502,新規,0,2023-04-28,2023-04-28,株式会社ＰｒｅｖＭｅｄ,,株式会社,大阪府,大阪市阿倍野区,三明町１丁目１１番１４号,,27,119,5450005,,,,,,,2023-04-28,1,,,,,プレブメッド,0
1884,7120003023954,新規,0,2023-04-28,2023-04-28,合同会社すまいる,,合同会社,大阪府,大阪市北区,中津３丁目３番１９－７０１号,,27,127,5310071,,,,,,,2023-04-28,1,,,,,スマイル,0
1885,7120003023962,新規,0,2023-04-28,2023-04-28,合同会社ＡｇＡｇ,,合同会社,大阪府,大阪市東淀川区,西淡路２丁目１０－１３アルティザ新大阪ＤＣ９０６号室,,27,114,5330031,,,,,,,2023-04-28,1,,,,,エージーエージー,0
1886,7120101067449,新規,0,2023-04-28,2023-04-28,株式会社華,,株式会社,大阪府,岸和田市,箕土路町１丁目７－１９－１０１,,27,202,5960801,,,,,,,2023-04-28,1,,,,,ハナ,0
1889,7120103005200,新規,0,2023-04-28,2023-04-28,ＳＨＩＵＮＡ　Ｊａｐａｎ合同会社,,合同会社,大阪府,高石市,取石４丁目１－２８,,27,225,5920013,,,,,,,2023-04-28,1,,,,,シウナジャパン,0
1890,7120901047468,新規,0,2023-04-28,2023-04-28,株式会社ＢＡＢＹ　ＳＴＥＰＳ,,株式会社,大阪府,豊中市,上野坂２丁目２０番２号,,27,203,5600012,,,,,,,2023-04-28,1,,,,,ベイビーステップス,0
1893,7122003002574,新規,0,2023-04-28,2023-04-28,合同会社フォルトゥナ,,合同会社,大阪府,東大阪市,足代南１丁目１５番１０－６０６号,,27,227,5770842,,,,,,,2023-04-28,1,,,,,フォルトゥナ,0
1899,7140001129925,新規,0,2023-04-28,2023-04-28,株式会社ＹＫＲ,,株式会社,兵庫県,神戸市垂水区,舞子台３丁目４番２１号,,28,108,6550046,,,,,,,2023-04-28,1,,,,,ワイケイアール,0
1900,7140005026598,新規,0,2023-04-28,2023-04-28,特定非営利活動法人スポーツ教育支援優志クラブ,,その他の設立登記法人,兵庫県,神戸市須磨区,前池町２丁目８番１５－８０２号,,28,107,6540011,,,,,,,2023-04-28,1,,,,,スポーツキョウイクシエンユウシクラブ,0
1913,7180001156040,新規,0,2023-04-28,2023-04-28,株式会社Ｔｉ　ａｍｏ,,株式会社,愛知県,名古屋市東区,大幸４丁目２１番１５号（リバーコート砂田橋ＩＩ１００２号）,00130300,23,102,4610043,,,,,,,2023-04-28,1,,,,,ティアモ,0
1914,7180001156057,新規,0,2023-04-28,2023-04-28,株式会社サムライフーズ,,株式会社,愛知県,大府市,横根町古井戸２番地の２９ファミールシャトーＢ２０２号,,23,223,4740011,,,,,,,2023-04-28,1,,,,,サムライフーズ,0
1918,7180003025169,新規,0,2023-04-28,2023-04-28,合同会社Ｉｎｆｉｎｉ,,合同会社,愛知県,愛知郡東郷町,春木台３丁目５番地１３,,23,302,4700161,,,,,,,2023-04-28,1,,,,,アンフィニ,0
1932,7220001025380,新規,0,2023-04-28,2023-04-28,Ｙｈｕｉｔ　Ｌｅａｆｒｉｃｈ株式会社,,株式会社,石川県,能美市,辰口町６７６番地１,,17,211,9231245,,,,,,,2023-04-28,1,,,,,ユイットリーフリッチ,0
1936,7240001061424,新規,0,2023-04-28,2023-04-28,株式会社アルテ,,株式会社,広島県,広島市安佐北区,口田１丁目１３番２３号,,34,106,7391734,,,,,,,2023-04-28,1,,,,,アルテ,0
1937,7250001020073,新規,0,2023-04-28,2023-04-28,株式会社エンプシィ,,株式会社,山口県,下関市,清末千房２丁目４番２６号,,35,201,7501163,,,,,,,2023-04-28,1,,,,,エンプシィ,0
1944,7260001037901,新規,0,2023-04-28,2023-04-28,株式会社ロック・ワン,,株式会社,岡山県,岡山市北区,内山下１丁目３番９号,,33,101,7000824,,,,,,,2023-04-28,1,,,,,ロックワン,0
1949,7290001101324,新規,0,2023-04-28,2023-04-28,株式会社鉄華,,株式会社,福岡県,福岡市東区,原田２丁目１７－３８シャトレ２１箱崎６０６,,40,131,8120063,,,,,,,2023-04-28,1,,,,,,0
1973,7360003012917,新規,0,2023-04-28,2023-04-28,合同会社ＫＪＰ,,合同会社,沖縄県,那覇市,泊２丁目１６番地６マンション泊３０１,,47,201,9000012,,,,,,,2023-04-28,1,,,,,ケージェーピー,0
1982,7390001017238,新規,0,2023-04-28,2023-04-28,荘内南洲会株式会社,,株式会社,山形県,酒田市,飯森山２丁目３０４番地の１０,,06,204,9980055,,,,,,,2023-04-28,1,,,,,ショウナイナンシュウカイ,0
1987,7430001088976,新規,0,2023-04-28,2023-04-28,株式会社メタグラップ,,株式会社,北海道,札幌市中央区,大通西２４丁目１番５－６０１号,,01,101,0640820,,,,,,,2023-04-28,1,,,,,メタグラップ,0
1988,7430001088992,新規,0,2023-04-28,2023-04-28,株式会社ＫＡＭＡ,,株式会社,北海道,札幌市豊平区,平岸一条２丁目５番１０号,,01,105,0620931,,,,,,,2023-04-28,1,,,,,カマ,0
2005,7700150115000,新規,0,2023-04-28,2023-03-28,つのだ一後援会,,その他,北海道,江別市,錦町１４番地の１６,,01,217,0690811,,,,,,,2023-03-28,1,,,,,ツノダハジメコウエンカイ,0
2006,7700150115173,新規,0,2023-04-28,2023-04-06,あーすフェスタかながわ実行委員会,,その他,神奈川県,横浜市中区,日本大通１,,14,104,2310021,,,,,,,2023-04-06,1,,,,,アースフエスタカナガワジツコウイインカイ,0
2007,7700150115487,新規,0,2023-04-28,2023-04-17,せたがやふるさと区民まつり実行委員会,,その他,東京都,世田谷区,世田谷４丁目２１－２７世田谷区役所内,,13,112,1540017,,,,,,,2023-04-17,1,,,,,セタガヤフルサトクミンマツリジツコウイインカイ,0
2008,7700150115867,新規,0,2023-04-28,2023-04-28,ｓｈｅｎ　ｚｈｅｎ　ｓｈｉ　ｈｕｉ　ｌｉ　ｄａ　ｍａｏ　ｙｉ　ｙｏｕ　ｘｉａｎ　ｇｏｎｇ　ｓｉ,,外国会社等,,,,,,,,ｓｈｅｎ　ｚｈｅｎ　ｓｈｉ　ｆｕ　ｔｉａｎ　ｑｕ　ｆｕ　ｔｉａｎ　ｊｉｅ　ｄａｏ　ｇａｎｇ　ｓｈａ　ｓｈｅ　ｑｕ　ｇａｎｇ　ｓｈａ　ｃｕｎ　ｄｏｎｇ　ｙｉ　ｆａｎｇ　６２ｈａｏ　１０６,,,,,,2023-04-28,1,,,,,シェンジェンシーフイリーダーマオイーヨウシエンゴンスー,0
2009,7700150115875,新規,0,2023-04-28,2023-04-28,Ｇｕａｎｇ　Ｚｈｏｕ　Ｂａ　Ｊｉａｏ　Ｔｉｎｇ　Ｌｖ　Ｙｏｕ　Ｙｏｎｇ　Ｐｉｎ　Ｃｏ．，Ｌｔｄ,,外国会社等,,,,,,,,Ｎａｎ　Ｓｈａ　Ｑｕ　Ｆｅｎｇ　Ｚｅ　Ｄｏｎｇ　Ｌｕ　１０６　Ｈａｏ，（Ｚｉ　Ｂｉａｎ　１ｈａｏ　Ｌｕｏ）Ｘ１３０１－Ｇ４２４１（Ｊｉｎ　Ｘｉａｎ　Ｂａｎ　Ｇｏｎｇ），Ｇｕａｎｇｚｈｏｕ，Ｇｕａｎｇｄｏｎｇ，５１００００，ＣＮ,,,,,,2023-04-28,1,,,,,コウシユウバジヨテイリヨユウヨウヒンユウゲンコウシ,0
2021,8010001234844,新規,0,2023-04-28,2023-04-28,株式会社ＡＩｄｅａｔｉｏｎ　Ｑｕｅｓｔ,,株式会社,東京都,中央区,銀座１丁目１２－４Ｎ＆ＥＢＬＤ．７階,,13,102,1040061,,,,,,,2023-04-28,1,,,,,アイデションクエスト,0
2022,8010001234852,新規,0,2023-04-28,2023-04-28,株式会社フューチャーメイキング,,株式会社,東京都,千代田区,飯田橋３丁目１１番２２号ヤマギビル５０１,,13,101,1020072,,,,,,,2023-04-28,1,,,,,フューチャーメイキング,0
2023,8010001234869,新規,0,2023-04-28,2023-04-28,株式会社ベルエ,,株式会社,東京都,中央区,銀座１丁目２２番１１号,,13,102,1040061,,,,,,,2023-04-28,1,,,,,ベルエ,0
2024,8010001234877,新規,0,2023-04-28,2023-04-28,株式会社ＫＳＴ４,,株式会社,東京都,千代田区,内幸町２丁目１番６号,,13,101,1000011,,,,,,,2023-04-28,1,,,,,ケイエスティフォー,0
2025,8010001234885,新規,0,2023-04-28,2023-04-28,清澄株式会社,,株式会社,東京都,千代田区,神田三崎町２丁目１０番１１号５Ｂ－２,,13,101,1010061,,,,,,,2023-04-28,1,,,,,キヨスミ,0
2026,8010001234910,新規,0,2023-04-28,2023-04-28,株式会社セータ,,株式会社,東京都,文京区,根津２丁目６番１２号,,13,105,1130031,,,,,,,2023-04-28,1,,,,,セータ,0
2030,8010003040464,新規,0,2023-04-28,2023-04-28,合同会社ＥＦコミュニケーションズ,,合同会社,東京都,中央区,勝どき２丁目１８番１－１１３５号,,13,102,1040054,,,,,,,2023-04-28,1,,,,,イーエフコミュニケーションズ,0
2031,8010003040472,新規,0,2023-04-28,2023-04-28,日本セントラル投資事業１号合同会社,,合同会社,東京都,中央区,日本橋１丁目４番１号,,13,102,1030027,,,,,,,2023-04-28,1,,,,,ニッポンセントラルトウシジギョウイチゴウ,0
2032,8010003040480,新規,0,2023-04-28,2023-04-28,ｍａｃａｒｏｎｗｏｒｋ合同会社,,合同会社,東京都,中央区,日本橋室町１丁目１１番１２号日本橋水野ビル７階,,13,102,1030022,,,,,,,2023-04-28,1,,,,,マカロンワーク,0
2035,8010005036592,新規,0,2023-04-28,2023-04-28,一般社団法人ＡＴＪ６,,その他の設立登記法人,東京都,千代田区,丸の内３丁目１番１号東京共同会計事務所内,,13,101,1000005,,,,,,,2023-04-28,1,,,,,エーティージェイシックス,0
2039,8010401174005,新規,0,2023-04-28,2023-04-28,株式会社ＤＥＥＤＳ,,株式会社,東京都,港区,南麻布２丁目５番２１号丸善ビル３０３号室,,13,103,1060047,,,,,,,2023-04-28,1,,,,,ディーズ,0
2040,8010401174054,新規,0,2023-04-28,2023-04-28,東洋ビジネスグループ株式会社,,株式会社,東京都,港区,三田４丁目８番４１号,,13,103,1080073,,,,,,,2023-04-28,1,,,,,トウヨウビジネスグループ,0
2041,8010403029974,新規,0,2023-04-28,2023-04-28,ＦＡＲＬＩＧＨＴ合同会社,,合同会社,東京都,港区,虎ノ門４丁目３番２０号神谷町ＭＴビル１４階,,13,103,1050001,,,,,,,2023-04-28,1,,,,,ファーライト,0
2044,8010405022093,新規,0,2023-04-28,2023-04-28,一般社団法人安全保障技術評価センター,,その他の設立登記法人,東京都,港区,東麻布２丁目３５番１号ＫＣビル６階,,13,103,1060044,,,,,,,2023-04-28,1,,,,,,0
2048,8010603010123,新規,0,2023-04-28,2023-04-28,合同会社Ｍｉｌｌ,,合同会社,東京都,墨田区,文花１丁目１８番１３号,,13,107,1310044,,,,,,,2023-04-28,1,,,,,ミル,0
2050,8010703006681,新規,0,2023-04-28,2023-04-28,Ｐｒｅｍｉｕｍ‐Ｔｅｑｕｉｌａ合同会社,,合同会社,東京都,品川区,大井１丁目２８－１大井町ハイツ９０６,,13,109,1400014,,,,,,,2023-04-28,1,,,,,プレミアムテキーラ,0
2058,8010901052949,新規,0,2023-04-28,2023-04-28,株式会社ｄｏｔｔｅｄｌｉｎｅ,,株式会社,東京都,世田谷区,粕谷１丁目６番２０号,,13,112,1570063,,,,,,,2023-04-28,1,,,,,ドットライン,0
2060,8010903008123,新規,0,2023-04-28,2023-04-28,ＳＨＭ合同会社,,合同会社,東京都,世田谷区,瀬田５丁目１－２０,,13,112,1580095,,,,,,,2023-04-28,1,,,,,,0
2065,8011001153745,新規,0,2023-04-28,2023-04-28,株式会社デジタルモーティブ,,株式会社,東京都,渋谷区,富ヶ谷１丁目４６番７号プレミアブラン代々木公園７０２,,13,113,1510063,,,,,,,2023-04-28,1,,,,,デジタルモーティブ,0
2066,8011001154090,新規,0,2023-04-28,2023-04-28,株式会社Ｓｔｏｖａ,,株式会社,東京都,渋谷区,神宮前６丁目２３番４号桑野ビル２階,,13,113,1500001,,,,,,,2023-04-28,1,,,,,ストーヴァ,0
2067,8011003016743,新規,0,2023-04-28,2023-04-28,合同会社ＴＨＥ　ＨＹＰＥ,,合同会社,東京都,渋谷区,神泉町１０番１５号,,13,113,1500045,,,,,,,2023-04-28,1,,,,,ザハイプ,0
2072,8011101102692,新規,0,2023-04-28,2023-04-28,株式会社ＫＯＫＯＮＩＧＯ,,株式会社,東京都,新宿区,西新宿１丁目２６－２新宿野村ビル３２階,,13,104,1600023,,,,,,,2023-04-28,1,,,,,ココニゴ,0
2074,8011103012997,新規,0,2023-04-28,2023-04-28,合同会社ｐｅｎｔａｓ,,合同会社,東京都,新宿区,西新宿３丁目３番１３号西新宿水間ビル６階,,13,104,1600023,,,,,,,2023-04-28,1,,,,,ペンタス,0
2075,8011105010644,新規,0,2023-04-28,2023-04-28,表参道ブリッジ一般社団法人,,その他の設立登記法人,東京都,新宿区,四谷２丁目９番地１５東京ユナイテッド綜合事務所内,,13,104,1600004,,,,,,,2023-04-28,1,,,,,オモテサンドウブリッジ,0
2100,8020001151345,新規,0,2023-04-28,2023-04-28,翔海工業株式会社,,株式会社,神奈川県,川崎市多摩区,南生田２丁目２７番１４号,,14,135,2140036,,,,,,,2023-04-28,1,,,,,ショウカイコウギョウ,0
2101,8020001151353,新規,0,2023-04-28,2023-04-28,又成ジャパン株式会社,,株式会社,神奈川県,横浜市中区,若葉町２丁目１８ＹＳビル５０２,,14,104,2310056,,,,,,,2023-04-28,1,,,,,マタナリジャパン,0
2107,8020003023749,新規,0,2023-04-28,2023-04-28,合同会社Ａｎｄ　Ｒｉｎｋ,,合同会社,神奈川県,川崎市麻生区,片平１丁目１６－２０,,14,137,2150023,,,,,,,2023-04-28,1,,,,,アンドリンク,0
2108,8020003023831,新規,0,2023-04-28,2023-04-28,オーバーレージコンサルティング合同会社,,合同会社,神奈川県,横浜市中区,尾上町４丁目５７横浜市尾上町ビルディング８１９号室,,14,104,2310015,,,,,,,2023-04-28,1,,,,,オーバーレージコンサルティング,0
2113,8021003013038,新規,0,2023-04-28,2023-04-28,ＴＨＡＮＨ　ＢＩＮＨ合同会社,,合同会社,神奈川県,大和市,福田３３８３－６３,,14,213,2420024,,,,,,,2023-04-28,1,,,,,タンビン,0
2114,8021003013046,新規,0,2023-04-28,2023-04-28,ＬＡＮＭＥＹ　ＪＡＰＡＮ合同会社,,合同会社,神奈川県,厚木市,中町３丁目９－１５厚木ＪＣビル６０２,,14,212,2430018,,,,,,,2023-04-28,1,,,,,ランメイジャパン,0
2120,8030001153638,新規,0,2023-04-28,2023-04-28,株式会社ＩＤＳ商会,,株式会社,埼玉県,草加市,八幡町６９８番地２八幡ハイム１０１号,,11,221,3400006,,,,,,,2023-04-28,1,,,,,アイディーエスショカイ,0
2121,8030001153662,新規,0,2023-04-28,2023-04-28,データイズライフ株式会社,,株式会社,埼玉県,さいたま市大宮区,桜木町１丁目３７８番地,,11,103,3300854,,,,,,,2023-04-28,1,,,,,データイズライフ,0
2122,8030001153670,新規,0,2023-04-28,2023-04-28,株式会社アリミドリモータース・ＪＡＰＡＮ,,株式会社,埼玉県,さいたま市南区,根岸４丁目１７番１６号コーポさわむら２０２,,11,108,3360024,,,,,,,2023-04-28,1,,,,,アリミドリモータースジャパン,0
2131,8030003021636,新規,0,2023-04-28,2023-04-28,合同会社トゥモロープロパティーズ,,合同会社,埼玉県,熊谷市,久下２丁目９番地２０８号,,11,202,3600026,,,,,,,2023-04-28,1,,,,,トゥモロープロパティーズ,0
2135,8040001128060,新規,0,2023-04-28,2023-04-28,株式会社拓建,,株式会社,千葉県,市原市,姉崎１９４１番地１,,12,219,2990111,,,,,,,2023-04-28,1,,,,,タッケン,0
2136,8040001128168,新規,0,2023-04-28,2023-04-28,執慧株式会社,,株式会社,千葉県,船橋市,印内２丁目３番１５号ＴＯＰ西船橋第一２０５,,12,204,2730039,,,,,,,2023-04-28,1,,,,,ジンフイ,0
2137,8040001128176,新規,0,2023-04-28,2023-04-28,株式会社イーグル・トラスト,,株式会社,千葉県,柏市,北柏１丁目１番地１５,,12,217,2770832,,,,,,,2023-04-28,1,,,,,イーグルトラスト,0
2140,8040003022476,新規,0,2023-04-28,2023-04-28,ＭＡＳＡＫＩ　ＳＴＯＲＥ合同会社,,合同会社,千葉県,市川市,曽谷７丁目３２番１０号レオパレスグローバル市川１０２号,,12,203,2720832,,,,,,,2023-04-28,1,,,,,マサキストア,0
2141,8040003022492,新規,0,2023-04-28,2023-04-28,合同会社セカンドゲート,,合同会社,千葉県,八千代市,緑が丘西４丁目９番地１４エピナ―ルＩ１０１,00130305,12,221,2760040,,,,,,,2023-04-28,1,,,,,セカンドゲート,0
2143,8050001052747,新規,0,2023-04-28,2023-04-28,ＩＺＵＭＩ　ＴＲＡＤＩＮＧ株式会社,,株式会社,茨城県,結城郡八千代町,大字菅谷８８５番地２６,,08,521,3003572,,,,,,,2023-04-28,1,,,,,イズミトレーディング,0
2144,8050001052763,新規,0,2023-04-28,2023-04-28,株式会社信成工業,,株式会社,茨城県,水戸市,平須町１８２０番地の３８５,,08,201,3100853,,,,,,,2023-04-28,1,,,,,シンセイコウギョウ,0
2150,8060005010089,新規,0,2023-04-28,2023-04-28,一般社団法人いのちの木陰会,,その他の設立登記法人,栃木県,那須塩原市,寺子１９６９番地３,,09,213,3250011,,,,,,,2023-04-28,1,,,,,イノチノコカゲカイ,0
2159,8100001036356,新規,0,2023-04-28,2023-04-28,株式会社三画堂,00130307,株式会社,長野県,松本市,沢村３丁目１番６号小林ビル１階１号室,,20,202,3900877,,,,,,,2023-04-28,1,,,,,サンカクドウ,0
2161,8100005013005,新規,0,2023-04-28,2023-04-28,一般社団法人Ｍ．Ｄ．Ｉ．,,その他の設立登記法人,長野県,安曇野市,穂高有明８７７番地４８,,20,220,3998301,,,,,,,2023-04-28,1,,,,,エムディーアイ,0
2174,8120001254468,新規,0,2023-04-28,2023-04-28,株式会社Ｋ＆Ｊ,,株式会社,大阪府,大阪市淀川区,西中島７丁目２－１３－８０３号室,,27,123,5320011,,,,,,,2023-04-28,1,,,,,ケイアンドジェイ,0
2175,8120001254492,新規,0,2023-04-28,2023-04-28,株式会社リバーム,,株式会社,大阪府,大阪市都島区,友渕町１丁目５番１１号ベルパークシティＭ棟６１５号室,,27,102,5340016,,,,,,,2023-04-28,1,,,,,リバーム,0
2176,8120001254501,新規,0,2023-04-28,2023-04-28,株式会社田邊建設,,株式会社,大阪府,門真市,垣内町１４番８－１号,,27,223,5710065,,,,,,,2023-04-28,1,,,,,タナベケンセツ,0
2177,8120001254526,新規,0,2023-04-28,2023-04-28,株式会社Ｂｒｕｄｅｒ,,株式会社,大阪府,寝屋川市,打上中町５番１６号,,27,215,5720857,,,,,,,2023-04-28,1,,,,,ブルーダー,0
2180,8120003023961,新規,0,2023-04-28,2023-04-28,メラキ合同会社,,合同会社,大阪府,大阪市淀川区,宮原１丁目１９－１５プレジオ新大阪ＲＯＵＧＥ１１０６,,27,123,5320003,,,,,,,2023-04-28,1,,,,,メラキ,0
2186,8120103005199,新規,0,2023-04-28,2023-04-28,東亞マテリアル合同会社,,合同会社,大阪府,羽曳野市,はびきの４丁目７－７,,27,222,5830872,,,,,,,2023-04-28,1,,,,,トウアマテリアル,0
2195,8130001074196,新規,0,2023-04-28,2023-04-28,株式会社クリアライト,,株式会社,京都府,乙訓郡大山崎町,字大山崎小字竜光３４番地１,,26,303,6180071,,,,,,,2023-04-28,1,,,,,クリアライト,0
2200,8140005026597,新規,0,2023-04-28,2023-04-28,特定非営利活動法人日本シニアデジタルサポート協会,,その他の設立登記法人,兵庫県,神戸市東灘区,北青木３丁目１３番７号ルミエール青木１０５,,28,101,6580014,,,,,,,2023-04-28,1,,,,,ニホンシニアデジタルサポートキョウカイ,0
2201,8150001026360,新規,0,2023-04-28,2023-04-28,株式会社ならや,,株式会社,奈良県,大和郡山市,豊浦町９６番地１１,,29,203,6391022,,,,,,,2023-04-28,1,,,,,ナラヤ,0
2209,8180001156023,新規,0,2023-04-28,2023-04-28,株式会社トラベクター,,株式会社,愛知県,名古屋市熱田区,三本松町１２番２３号,,23,109,4560032,,,,,,,2023-04-28,1,,,,,トラベクター,0
2210,8180001156048,新規,0,2023-04-28,2023-04-28,株式会社榎本建設,,株式会社,愛知県,名古屋市中村区,靖国町３丁目９０番地,,23,105,4530065,,,,,,,2023-04-28,1,,,,,エノモトケンセツ,0
2211,8180001156056,新規,0,2023-04-28,2023-04-28,株式会社アルファオート,,株式会社,愛知県,半田市,兀山町９６番地の１,,23,205,4750077,,,,,,,2023-04-28,1,,,,,アルファオート,0
2212,8180001156072,新規,0,2023-04-28,2023-04-28,株式会社３ｗ,,株式会社,愛知県,一宮市,九品町２８－２,,23,203,4910000,,,,,,,2023-04-28,1,,,,,スリーウェイ,0
2220,8180305009471,新規,0,2023-04-28,2023-04-28,一般社団法人ドゥーラステーションめぐる,,その他の設立登記法人,愛知県,岡崎市,六名本町２０番地１５,,23,202,4440854,,,,,,,2023-04-28,1,,,,,ドゥーラステーションメグル,0
2231,8220005008752,新規,0,2023-04-28,2023-04-28,一般社団法人私の書道学校,,その他の設立登記法人,石川県,小松市,若杉町ヌ乙２１３番地１３,,17,203,9230832,,,,,,,2023-04-28,1,,,,,ワタシノショドウガッコウ,0
2234,8240001061415,新規,0,2023-04-28,2023-04-28,株式会社Ｔｗｏ　Ｆｉｖｅ　Ｕｎｉｑｕｅｌｙ,,株式会社,広島県,福山市,西深津町６丁目６番４１号,,34,207,7210975,,,,,,,2023-04-28,1,,,,,トゥーファイブユニークリー,0
2236,8250001020072,新規,0,2023-04-28,2023-04-28,株式会社ＨＩＤＡＫＡ,,株式会社,山口県,山陽小野田市,大字西高泊２３７７番地２,,35,216,7560057,,,,,,,2023-04-28,1,,,,,ヒダカ,0
2240,8260001037900,新規,0,2023-04-28,2023-04-28,株式会社コウシン,,株式会社,岡山県,岡山市北区,平和町１番１号ルミノ平和町１７０５号,,33,101,7000827,,,,,,,2023-04-28,1,,,,,コウシン,0
2251,8290003013863,新規,0,2023-04-28,2023-04-28,合同会社クリーン・ファシリティ,,合同会社,福岡県,福岡市南区,大楠２丁目２番２－１１０６号クリエート日赤通り,,40,134,8150082,,,,,,,2023-04-28,1,,,,,クリーンファシリティ,0
2260,8330003009824,新規,0,2023-04-28,2023-04-28,合同会社ＧＲＡＮＤ　ＥＳＴＡＴＥ,,合同会社,熊本県,菊池市,隈府９０３番地４－１０３号,,43,210,8611331,,,,,,,2023-04-28,1,,,,,グランドエステート,0
2262,8340001025533,新規,0,2023-04-28,2023-04-28,株式会社不動産買取ＤＸ,,株式会社,鹿児島県,鹿児島市,山下町１２番１号－２０５,,46,201,8920816,,,,,,,2023-04-28,1,,,,,フドウサンカイトリディーエックス,0
2268,8360001031835,新規,0,2023-04-28,2023-04-28,宮古島リアライズ株式会社,,株式会社,沖縄県,宮古島市,上野字宮国１７７番地２,,47,214,9060203,,,,,,,2023-04-28,1,,,,,ミヤコジマリアライズ,0
2284,8430001088967,新規,0,2023-04-28,2023-04-28,株式会社ＩＺ,,株式会社,北海道,札幌市中央区,南十一条西１２丁目２番２８－１００１号,,01,101,0640811,,,,,,,2023-04-28,1,,,,,アイズ,0
2285,8430001088975,新規,0,2023-04-28,2023-04-28,株式会社Ａ　ｐｌｕｓ　ＨＯＭＥ,,株式会社,北海道,江別市,ゆめみ野東町４２番地の６,,01,217,0670065,,,,,,,2023-04-28,1,,,,,エープラスホーム,0
2291,8460103001528,新規,0,2023-04-28,2023-04-28,合同会社ふらっとらいふ,,合同会社,北海道,帯広市,西十二条北５丁目２番地３２,,01,207,0800042,,,,,,,2023-04-28,1,,,,,フラットライフ,0
2305,8700150008475,新規,0,2023-04-28,2015-10-09,東税協共栄会,,その他,東京都,渋谷区,千駄ヶ谷５丁目１１－１,,13,113,1510051,,,,,,,2015-10-09,1,,,,,トウゼイキヨウキヨウエイカイ,0
2307,8700150115866,新規,0,2023-04-28,2023-04-28,ｓｈｅｎｚｈｅｎｓｈｉ　ｃｈｅｎｇｘｕｎｄａ　ｓｈａｎｇｍａｏ　ｙｏｕｘｉａｎｇｏｎｇｓｉ,,外国会社等,,,,,,,,８０３，Ｂｕｉｌｄｉｎｇ　６，Ｎｏ．２　Ｓｈｕｉｋｕ　Ｒｏａｄ，Ｎａｎｋｅｎｇ　Ｃｏｍｍｕｎｉｔｙ，Ｂａｎｔｉａｎ　Ｓｔｒｅｅｔ，Ｌｏｎｇｇａｎｇ　Ｄｉｓｔｒｉｃｔ，Ｓｈｅｎｚｈｅｎ，Ｃｈｉｎａ,,,,,,2023-04-28,1,,,,,シンセンシチェンシュンダシャンマオユウゲンコウシ,0
2308,8700150115874,新規,0,2023-04-28,2023-04-28,ＪｉｅＷｅｉＴｉａｎＣｈｅｎｇ（Ｂｅｉ　Ｊｉｎｇ）ＫｅＪｉＦａＺｈａｎＹｏｕＸｉａｎＧｏｎｇＳｉ,,外国会社等,,,,,,,,ＣｈａｏＹａｎｇＱｕＳａｎＪｉａｎＦａｎｇＸｉａｎｇＸｉＬｉｕＣｕｎＺｈｏｎｇ，Ｊｉｅ（ＳａｎＪｉａｎＦａｎｇＤｏｎｇＭａｎＪｉＺｈｏｎｇＢａｎＧｏｎｇＱｕ５６８１Ｈａｏ），Ｂｅｉ　Ｊｉｎｇ，Ｂｅｉ　Ｊｉｎｇ，１０００００，ＣＮ,,,,,,2023-04-28,1,,,,,シヨウイテンセイペキンカギハツテンユウゲンコウシ,0
2318,9010001234827,新規,0,2023-04-28,2023-04-28,滬日商社株式会社,,株式会社,東京都,千代田区,内神田２丁目１１番６号喜助内神田ビル５階,,13,101,1010047,,,,,,,2023-04-28,1,,,,,コウニチショウシャ,0
2319,9010001234851,新規,0,2023-04-28,2023-04-28,ＧｒａｃｅＬｉｌｙ株式会社,,株式会社,東京都,千代田区,丸の内２丁目３番２号郵船ビルディング１階,,13,101,1000005,,,,,,,2023-04-28,1,,,,,グレースリリー,0
2320,9010001234884,新規,0,2023-04-28,2023-04-28,株式会社ウイズスター,,株式会社,東京都,中央区,銀座１丁目２２番１１号,,13,102,1040061,,,,,,,2023-04-28,1,,,,,ウイズスター,0
2322,9010003040447,新規,0,2023-04-28,2023-04-28,合同会社ＴＨＲＥＡＤ,,合同会社,東京都,文京区,大塚１丁目１０－１４－４０４,,13,105,1120012,,,,,,,2023-04-28,1,,,,,スレッド,0
2324,9010005036583,新規,0,2023-04-28,2023-04-28,一般社団法人アスベスト湿式工法協議会,,その他の設立登記法人,東京都,千代田区,東神田１丁目１７－９,,13,101,1010031,,,,,,,2023-04-28,1,,,,,アスベストシッシキコウホウキョウギカイ,0
2325,9010005036591,新規,0,2023-04-28,2023-04-28,一般社団法人ＡＴＪ５,,その他の設立登記法人,東京都,千代田区,丸の内３丁目１番１号東京共同会計事務所内,,13,101,1000005,,,,,,,2023-04-28,1,,,,,エーティージェイファイブ,0
2327,9010101015623,新規,0,2023-04-28,2023-04-28,株式会社リアスタイル,,株式会社,東京都,八王子市,大谷町４０番地６－２Ｆ,,13,201,1920034,,,,,,,2023-04-28,1,,,,,リアスタイル,0
2330,9010401174004,新規,0,2023-04-28,2023-04-28,株式会社ＯＯＡＩ,,株式会社,東京都,港区,六本木３丁目８－５オーキッドレジデンス六本木１０５,,13,103,1060032,,,,,,,2023-04-28,1,,,,,ダブルオーエーアイ,0
2331,9010401174012,新規,0,2023-04-28,2023-04-28,株式会社スマイルアクト,,株式会社,東京都,港区,南麻布１丁目４番５－６０７号,,13,103,1060047,,,,,,,2023-04-28,1,,,,,スマイルアクト,0
2332,9010401174053,新規,0,2023-04-28,2023-04-28,エー・シー・ティー日本株式会社,,株式会社,東京都,港区,元麻布３丁目１番６号,,13,103,1060046,,,,,,,2023-04-28,1,,,,,エーシーティーニッポン,0
2333,9010401174061,新規,0,2023-04-28,2023-04-28,株式会社ＰｒｏＰｌａｃｅ,,株式会社,東京都,港区,浜松町２丁目２番１５号浜松町ダイヤビル２Ｆ,,13,103,1050013,,,,,,,2023-04-28,1,,,,,プロプレイス,0
2334,9010403030015,新規,0,2023-04-28,2023-04-28,Ｔｅｃｈｎｏ　Ｂｒａｉｎ合同会社,,合同会社,東京都,港区,芝５丁目２９－２０クロスオフィス三田５１０,,13,103,1080014,,,,,,,2023-04-28,1,,,,,テクノブレイン,0
2335,9010405022101,新規,0,2023-04-28,2023-04-28,一般社団法人伊賀市柏尾太陽光,,その他の設立登記法人,東京都,港区,六本木１丁目９番１０号アークヒルズ仙石山森タワー４０階,,13,103,1060032,,,,,,,2023-04-28,1,,,,,イガシカシオタイヨウコウ,0
2346,9010903008130,新規,0,2023-04-28,2023-04-28,Ｆｉｖｅ　Ｓｔａｒ　Ｆｏｕｎｄａｔｉｏｎ合同会社,,合同会社,東京都,世田谷区,桜上水１丁目２２番１１号,,13,112,1560045,,,,,,,2023-04-28,1,,,,,ファイブスターファウンデーション,0
2349,9011001153513,新規,0,2023-04-28,2023-04-28,株式会社Ｕｎｌｉｍｉｔｅｄ　Ｗｏｒｋ　Ｐｌａｃｅ,,株式会社,東京都,渋谷区,桜丘町２６番１号セルリアンタワー１５階,,13,113,1500031,,,,,,,2023-04-28,1,,,,,アンリミテッドワークプレイス,0
2352,9011003016742,新規,0,2023-04-28,2023-04-28,合同会社ＣＮ太陽光２号,,合同会社,東京都,渋谷区,千駄ヶ谷３丁目１１番８号,,13,113,1510051,,,,,,,2023-04-28,1,,,,,シーエヌタイヨウコウニゴウ,0
2358,9011101102683,新規,0,2023-04-28,2023-04-28,株式会社Ｔｏｔａｌ　Ａｔｈｌｅｔｅ　Ｐａｒｔｎｅｒｓ,,株式会社,東京都,新宿区,高田馬場３丁目１番５号サンパティオ高田馬場２０９号,,13,104,1690075,,,,,,,2023-04-28,1,,,,,トータルアスリートパートナーズ,0
2359,9011101102691,新規,0,2023-04-28,2023-04-28,株式会社ｋａｍｉｂｉｔｏ,,株式会社,東京都,新宿区,新宿３丁目１３－５－９Ｆ,,13,104,1600022,,,,,,,2023-04-28,1,,,,,カミビト,0
2365,9011103012996,新規,0,2023-04-28,2023-04-28,表参道ブリッジ合同会社,,合同会社,東京都,新宿区,四谷２丁目９番地１５東京ユナイテッド綜合事務所内,,13,104,1600004,,,,,,,2023-04-28,1,,,,,オモテサンドウブリッジ,0
2367,9011201024613,新規,0,2023-04-28,2023-04-28,株式会社シャイロ,,株式会社,東京都,中野区,東中野５丁目２３番１２号レジデンス東中野３０３号室,,13,114,1640003,,,,,,,2023-04-28,1,,,,,シャイロ,0
2373,9011401025089,新規,0,2023-04-28,2023-04-28,ＯＮ‐Ｃａｒｅ株式会社,,株式会社,東京都,板橋区,常盤台１丁目１１番６号レフア南常盤台１０１号室,,13,119,1740071,,,,,,,2023-04-28,1,,,,,オンケアー,0
2376,9011701026200,新規,0,2023-04-28,2023-04-28,株式会社ｆａｔｕｍ,,株式会社,東京都,江戸川区,中央２丁目４番１０号,,13,123,1320021,,,,,,,2023-04-28,1,,,,,ファートゥム,0
2393,9020001151336,新規,0,2023-04-28,2023-04-28,株式会社ホサカ防水,,株式会社,神奈川県,横浜市戸塚区,戸塚町４２０８－１０－１０４,,14,110,2440003,,,,,,,2023-04-28,1,,,,,,0
2394,9020001151344,新規,0,2023-04-28,2023-04-28,株式会社ネクスフィット,,株式会社,神奈川県,横浜市都筑区,荏田東４丁目８番地３,,14,118,2240006,,,,,,,2023-04-28,1,,,,,ネクスフィット,0
2395,9020001151352,新規,0,2023-04-28,2023-04-28,株式会社市川社中,,株式会社,神奈川県,川崎市中原区,小杉町２丁目２０９番地４０,,14,133,2110063,,,,,,,2023-04-28,1,,,,,イチカワシャチュウ,0
2396,9020001151360,新規,0,2023-04-28,2023-04-28,株式会社フィーロ,,株式会社,神奈川県,川崎市中原区,小杉御殿町２丁目９９－１－２０６,,14,133,2110068,,,,,,,2023-04-28,1,,,,,フィーロ,0
2397,9020001151369,新規,0,2023-04-28,2023-04-28,ＫＫプロジェクト株式会社,,株式会社,神奈川県,横浜市保土ケ谷区,天王町２丁目５０－１天王町スカイハイツ５－２１１,,14,106,2400003,,,,,,,2023-04-28,1,,,,,ケーケープロジェクト,0
2404,9021001078890,新規,0,2023-04-28,2023-04-28,ＳＨＡＦＴ株式会社,,株式会社,神奈川県,鎌倉市,西御門２丁目１３番１８号,,14,204,2480004,,,,,,,2023-04-28,1,,,,,シャフト,0
2405,9021001078899,新規,0,2023-04-28,2023-04-28,株式会社Ｓｔ．ｌｉｅｎ,,株式会社,神奈川県,厚木市,上荻野１３２１番地１,,14,212,2430201,,,,,,,2023-04-28,1,,,,,セントリアン,0
2407,9030001153637,新規,0,2023-04-28,2023-04-28,株式会社ＣＡＷＡｉ,,株式会社,埼玉県,新座市,大和田３丁目１１番２５号（株）小泉内２Ｆ,,11,230,3520004,,,,,,,2023-04-28,1,,,,,カワイ,0
2408,9030001153653,新規,0,2023-04-28,2023-04-28,株式会社こはく,,株式会社,埼玉県,八潮市,大字大曽根２００番地３,,11,234,3400834,,,,,,,2023-04-28,1,,,,,コハク,0
2413,9030003021569,新規,0,2023-04-28,2023-04-28,合同会社ＢＵＲＨＡＮ　ＳＨＯＫＡＩ,,合同会社,埼玉県,久喜市,本町４丁目３番１１号グランハイム駒２０２,,11,232,3460005,,,,,,,2023-04-28,1,,,,,ブルハンショーカイ,0
2414,9030003021643,新規,0,2023-04-28,2023-04-28,ＳＲＩ　ＡＫＳＨＡＲＡ合同会社,,合同会社,埼玉県,児玉郡神川町,大字元原１６１番地３メゾンジュリアス２０１号室,,11,383,3670241,,,,,,,2023-04-28,1,,,,,スリアクシャラ,0
2415,9030003021668,新規,0,2023-04-28,2023-04-28,合同会社ＣＮＯ,,合同会社,埼玉県,戸田市,下戸田２丁目１２番１３－４０５号,,11,224,3350011,,,,,,,2023-04-28,1,,,,,シーエヌオー,0
2416,9030003021676,新規,0,2023-04-28,2023-04-28,合同会社浅川ホールディングス,,合同会社,埼玉県,朝霞市,溝沼２丁目５番１３号,,11,227,3510023,,,,,,,2023-04-28,1,,,,,アサカワホールディングス,0
2417,9030005021245,新規,0,2023-04-28,2023-04-28,一般社団法人ＪＩＮ’ｓ　ｃｏ　Ｌａｂ,,その他の設立登記法人,埼玉県,草加市,氷川町２１３４番１号アコール千曲１階,,11,221,3400034,,,,,,,2023-04-28,1,,,,,ジンズコラボ,0
2420,9040001128134,新規,0,2023-04-28,2023-04-28,株式会社ＷＥＳＴＯＮＥ,,株式会社,千葉県,我孫子市,新木３０５５番地の１,,12,222,2701112,,,,,,,2023-04-28,1,,,,,ウェストーン,0
2421,9040001128191,新規,0,2023-04-28,2023-04-28,株式会社Ｂｕｌｌ　ｕｐ,,株式会社,千葉県,浦安市,堀江２丁目３０－７－１０５,,12,227,2790041,,,,,,,2023-04-28,1,,,,,ブルアップ,0
2426,9040003022351,新規,0,2023-04-28,2023-04-28,合同会社ＲＯＳＴＥＲ,,合同会社,千葉県,袖ケ浦市,下泉１６２,,12,229,2990231,,,,,,,2023-04-28,1,,,,,ロースター,0
2427,9040003022500,新規,0,2023-04-28,2023-04-28,合同会社かえでの木,,合同会社,千葉県,船橋市,二宮１丁目２４番２号,,12,204,2740823,,,,,,,2023-04-28,1,,,,,カエデノキ,0
2430,9050001052754,新規,0,2023-04-28,2023-04-28,株式会社ＤＳＫ,,株式会社,茨城県,下妻市,小野子町２丁目６１番地２,,08,210,3040063,,,,,,,2023-04-28,1,,,,,ディーエスケー,0
2431,9050001052762,新規,0,2023-04-28,2023-04-28,株式会社縁２４,,株式会社,茨城県,古河市,中田１２９５番地２３,,08,204,3060053,,,,,,,2023-04-28,1,,,,,エンニジュウヨン,0
2435,9060001035948,新規,0,2023-04-28,2023-04-28,株式会社ＴＩＲＯ,,株式会社,栃木県,鹿沼市,栄町１丁目４番地６,,09,205,3220028,,,,,,,2023-04-28,1,,,,,ティーロ,0
2441,9080101023958,新規,0,2023-04-28,2023-04-28,ヴァイタル株式会社,,株式会社,静岡県,熱海市,海光町７の１７サニーハイツ１棟４２３,,22,205,4130003,,,,,,,2023-04-28,1,,,,,ヴァイタル,0
2444,9080401026438,新規,0,2023-04-28,2023-04-28,一色不動産株式会社,,株式会社,静岡県,浜松市中区,北田町１３９番地の２５,,22,131,4300943,,,,,,,2023-04-28,1,,,,,イッシキフドウサン,0
2446,9090002015772,新規,0,2023-04-28,2023-04-28,有限会社秋山木材工業所,,有限会社,山梨県,南巨摩郡富士川町,最勝寺２５番地,,19,368,4000502,,,,,,,2023-04-28,1,,,,,アキヤマモクザイコウギョウショ,0
2458,9120001254418,新規,0,2023-04-28,2023-04-28,ＪＨｍａｒｔ株式会社,,株式会社,大阪府,大阪市浪速区,日本橋４丁目１３番５号ＲＵＮＵＰＳＱＵＡＲＥ難波南６０４,,27,111,5560005,,,,,,,2023-04-28,1,,,,,ジェイエイチマート,0
2459,9120001254450,新規,0,2023-04-28,2023-04-28,株式会社ＳＯＬＥ,,株式会社,大阪府,大阪市中央区,農人橋２丁目１－３１第６松屋ビル,,27,128,5400011,,,,,,,2023-04-28,1,,,,,ソラ,0
2460,9120001254459,新規,0,2023-04-28,2023-04-28,株式会社ビジョンシカ,,株式会社,大阪府,大阪市中央区,南船場１丁目３番３１号サンライズ南船場２０４号室,,27,128,5420081,,,,,,,2023-04-28,1,,,,,ビジョンシカ,0
2461,9120001254467,新規,0,2023-04-28,2023-04-28,大麦株式会社,,株式会社,大阪府,大阪市天王寺区,東高津町３－３１タケオレジデンス２階Ａ号室,,27,109,5430021,,,,,,,2023-04-28,1,,,,,オオムギ,0
2462,9120001254500,新規,0,2023-04-28,2023-04-28,株式会社ＳＫＩＬＬ　ＳＰＡＲＫ,,株式会社,大阪府,大阪市中央区,安堂寺町２丁目６番１１－１５０３号,,27,128,5420061,,,,,,,2023-04-28,1,,,,,スキルスパーク,0
2465,9120003023960,新規,0,2023-04-28,2023-04-28,合同会社アテナ,,合同会社,大阪府,大阪市淀川区,宮原１丁目１９－１５プレジオ新大阪ＲＯＵＧＥ１１０６,,27,123,5320003,,,,,,,2023-04-28,1,,,,,アテナ,0
2471,9122001036928,新規,0,2023-04-28,2023-04-28,株式会社Ｍ＆Ｋ,,株式会社,大阪府,東大阪市,中小阪５丁目４番２７号幸レジデンス１０４号,,27,227,5770804,,,,,,,2023-04-28,1,,,,,エムアンドケー,0
2473,9130001074195,新規,0,2023-04-28,2023-04-28,株式会社快匠,,株式会社,京都府,京都市伏見区,中島樋ノ上町８３番地キャッスルアイオー２０５号,00130320,26,109,6128465,,,,,,,2023-04-28,1,,,,,カイショウ,0
2476,9130005016763,新規,0,2023-04-28,2023-04-28,一般社団法人四季会,,その他の設立登記法人,京都府,城陽市,久世里ノ西１７０番地の６５,,26,207,6100102,,,,,,,2023-04-28,1,,,,,シキカイ,0
2484,9170001017571,新規,0,2023-04-28,2023-04-28,株式会社ＫＥＲＮＥＬ　ＳＰＡＣＥ,,株式会社,和歌山県,西牟婁郡すさみ町,江住４４８番地２,,30,406,6493142,,,,,,,2023-04-28,1,,,,,カーネルスペース,0
2491,9180001156022,新規,0,2023-04-28,2023-04-28,株式会社ＫＵＮＯ　ＤＥＳＩＧＮ　ＧＡＲＤＥＮ,,株式会社,愛知県,一宮市,文京１丁目２番２３－３０２号,,23,203,4910041,,,,,,,2023-04-28,1,,,,,クノデザインガーデン,0
2492,9180001156030,新規,0,2023-04-28,2023-04-28,株式会社Ｎｅｘｓｕｍ,,株式会社,愛知県,名古屋市東区,東桜１丁目１－１アバンネット名古屋ネクスタビルＬＩＦＯＲＫＲ１６,,23,102,4610005,,,,,,,2023-04-28,1,,,,,ネクサム,0
2493,9180001156039,新規,0,2023-04-28,2023-04-28,株式会社Ｏｐｅｎ　Ｆｒｕｉｔｉｏｎ,,株式会社,愛知県,名古屋市中区,錦２丁目２０番１５号広小路クロスタワー２１Ｆ,,23,106,4600003,,,,,,,2023-04-28,1,,,,,オープンフリーション,0
2494,9180001156047,新規,0,2023-04-28,2023-04-28,株式会社つむぐ,,株式会社,愛知県,北名古屋市,熊之庄小烏４５番地９,,23,234,4810006,,,,,,,2023-04-28,1,,,,,ツムグ,0
2498,9180003025167,新規,0,2023-04-28,2023-04-28,Ｍａｔｓｕｍｏｔｏ倉庫合同会社,,合同会社,愛知県,稲沢市,平和町城西３４０ソシア宮町２－１０８,,23,220,4901323,,,,,,,2023-04-28,1,,,,,マツモトソウコ,0
2501,9180305009470,新規,0,2023-04-28,2023-04-28,あいち障害者雇用促進協同組合,,その他の設立登記法人,愛知県,知立市,西中町中長５０番地１,,23,225,4720016,,,,,,,2023-04-28,1,,,,,アイチショウガイシャコヨウソクシン,0
2504,9190005011817,新規,0,2023-04-28,2023-04-28,日本労働者安全衛生推進教育会一般財団法人,,その他の設立登記法人,三重県,津市,栗真町屋町１２２０－２,,24,201,5140102,,,,,,,2023-04-28,1,,,,,ニホンロウドウシャアンゼンエイセイスイシンキョウイクカイ,0
2506,9220001025379,新規,0,2023-04-28,2023-04-28,株式会社Ｏｋａｙｕｋｉ,,株式会社,石川県,金沢市,片町２丁目２４‐１１,,17,201,9200981,,,,,,,2023-04-28,1,,,,,オカユキ,0
2511,9240001061422,新規,0,2023-04-28,2023-04-28,株式会社Ｋ’ＢＲＡＮＤＩＮＧ,,株式会社,広島県,広島市東区,牛田新町１丁目３番２６号,,34,102,7320068,,,,,,,2023-04-28,1,,,,,ケイブランディング,0
2512,9240001061430,新規,0,2023-04-28,2023-04-28,株式会社Ｋ‐ｗｅｌｄ,,株式会社,広島県,呉市,川尻町西５丁目１１番２３号,,34,202,7372603,,,,,,,2023-04-28,1,,,,,ケイウェルド,0
2518,9260001037899,新規,0,2023-04-28,2023-04-28,株式会社オリーブ,,株式会社,岡山県,岡山市北区,内山下１丁目３番９号,,33,101,7000824,,,,,,,2023-04-28,1,,,,,オリーブ,0
2523,9290001101355,新規,0,2023-04-28,2023-04-28,株式会社久原コンサルタント,,株式会社,福岡県,糟屋郡久山町,大字久原３５０１番地３,,40,348,8112501,,,,,,,2023-04-28,1,,,,,クバラコンサルタント,0
2524,9290001101363,新規,0,2023-04-28,2023-04-28,Ｙｕｕ８カンパニー株式会社,,株式会社,福岡県,福岡市博多区,博多駅南４丁目２０－１５,,40,132,8120016,,,,,,,2023-04-28,1,,,,,ユーエイトカンパニー,0
2526,9290801029498,新規,0,2023-04-28,2023-04-28,株式会社Ｏｎ＆Ｏｎ,,株式会社,福岡県,北九州市若松区,ひびきの１‐８,,40,103,8080135,,,,,,,2023-04-28,1,,,,,オンアンドオン,0
2543,9380005012705,新規,0,2023-04-28,2023-04-28,農事組合法人向井グリーンサービス,,その他の設立登記法人,福島県,西白河郡中島村,大字滑津字岡ノ内５１番地２,,07,465,9610102,,,,,,,2023-04-28,1,,,,,ムカイグリーンサービス,0
2553,9430001088966,新規,0,2023-04-28,2023-04-28,株式会社ＧＵＩＬＤ　ｌｉｅｎ,,株式会社,北海道,札幌市白石区,本通３丁目南２－２５,,01,104,0030026,,,,,,,2023-04-28,1,,,,,ギルドリアン,0
2554,9430001088974,新規,0,2023-04-28,2023-04-28,株式会社ＢＬＡＳＴ,,株式会社,北海道,札幌市中央区,南十五条西１０丁目４番３号,,01,101,0640915,,,,,,,2023-04-28,1,,,,,ブラスト,0
2555,9430003014986,新規,0,2023-04-28,2023-04-28,合同会社北野谷商会,,合同会社,北海道,札幌市中央区,南五条西４丁目９番地１バッカスビル６Ｆ,,01,101,0640805,,,,,,,2023-04-28,1,,,,,キタノヤショウカイ,0
2556,9430003014994,新規,0,2023-04-28,2023-04-28,合同会社Ｃａｌｉｃｏ,,合同会社,北海道,札幌市東区,北九条東１１丁目１番３４号,,01,103,0650009,,,,,,,2023-04-28,1,,,,,キャリコ,0
2572,9700150115865,新規,0,2023-04-28,2023-04-28,Ｂｅｉｊｉｎｇ　ｘｉａｎｚｈｅｎ　ｓｈａｎｇｍａｏ　ｙｏｕｘｉａｎｇｏｎｇｓｉ,,外国会社等,,,,,,,,ｓｕｎｈｅｘｉａｎｇ　ｋａｎｇｙｉｎｇｊｉａｙｕａｎｌｉｕｑｕ　ｕｂｅｉｃｅｓｈｉｔｏｎｇ　ｊｉａｘｉｎｓｈａｎｇｍａｏｚｈｏｎｇｘｉｎ　１ｃｅｎｇ　Ａ３５ｈａｏ　ｃｈａｏｙａｎｇｑｕ，ｂｅｉｊｉｎｇｓｈｉ，Ｃｈｉｎａ,,,,,,2023-04-28,1,,,,,ベイジンシャンツエンシャンマオユウゲンコウシ,0
2573,9700150115873,新規,0,2023-04-28,2023-04-28,Ｓｈｅｎｚｈｅｎ　Ｈａｉｌｕ　Ｔｅｃｈｎｏｌｏｇｙ　Ｃｏ．，Ｌｔｄ,,外国会社等,,,,,,,,Ｎｏ．２７，Ｄａｆａ　Ｒｏａｄ，Ｄａｆａｐｕ　Ｃｏｍｍｕｎｉｔｙ，Ｂａｎｔｉａｎ　Ｓｔｒｅｅｔ，Ｌｏｎｇｇａｎ，Ｒｏｏｍ　５０４，５ｔｈ　Ｆｌｏｏｒ，Ｂｕｉｌｄｉｎｇ　１５，Ｌｏｎｇｂｉ　Ｉｎｄｕｓｔｒｉａｌ　Ｚｏｎｅ，Ｓｈｅｎｚｈｅｎ，Ｇｕａｎｇｄｏｎｇ，５１８０００，ＣＮ,,,,,,2023-04-28,1,,,,,シンセンシカイロクカギユウゲンコウシ,0
2574,9700150115881,新規,0,2023-04-28,2023-04-28,相続財産法人故石村良治,,その他,青森県,青森市,緑３丁目８番地１,,02,201,0300845,,,,,,,2023-04-28,1,,,,,ソウゾクザイサンホウジンコイシムラリョウジ,0
