sequenceNumber,corporateNumber,process,correct,updateDate,changeDate,name,nameImageId,kind,prefectureName,cityName,streetNumber,addressImageId,prefectureCode,cityCode,postCode,addressOutside,addressOutsideImageId,closeDate,closeCause,successorCorporateNumber,changeCause,assignmentDate,latest,enName,enPrefectureName,enCityName,enAddressOutside,furigana,hihyoji
6,1010001185929,登記記録の閉鎖等,0,2024-03-07,2024-03-01,サンアグスティンリーシング株式会社,,株式会社,東京都,千代田区,丸の内１丁目３番２号,,13,101,1000005,,,2024-03-01,清算の結了等,,,2017-08-29,1,,,,,サンアグスティンリーシング,0
14,1010401024678,登記記録の閉鎖等,0,2024-03-07,2024-03-01,株式会社ビー・アイ・ディー,,株式会社,東京都,大田区,昭和島１丁目６番３１号,,13,111,1430004,,,2024-03-01,合併による解散等,7010401017511,令和６年３月１日東京都大田区昭和島一丁目６番３１号大洋印刷株式会社（7010401017511）に合併し解散,2015-10-05,1,,,,,ビーアイディー,0
16,1010401139088,登記記録の閉鎖等,0,2024-03-07,2024-03-04,株式会社福祉住環境整備センター,,株式会社,東京都,港区,浜松町２丁目２番１５号浜松町ダイヤビル２Ｆ,,13,103,1050013,,,2024-03-04,清算の結了等,,,2018-06-22,1,,,,,フクシジュウカンキョウセイビセンター,0
17,1010401158567,登記記録の閉鎖等,0,2024-03-07,2024-03-04,株式会社ＣｉＲＣｕＳ,,株式会社,東京都,港区,北青山２丁目５番１号,,13,103,1070061,,,2024-03-04,清算の結了等,,,2021-03-04,1,,,,,サーカス,0
23,1010403021525,登記記録の閉鎖等,0,2024-03-07,2024-03-01,合同会社ｅｎｊｏｙ,,合同会社,東京都,港区,六本木３丁目３番２８－３０２号,,13,103,1060032,,,2024-03-01,清算の結了等,,,2019-09-30,1,,,,,エンジョイ,0
24,1010403027712,登記記録の閉鎖等,0,2024-03-07,2024-03-04,柏合同会社,,合同会社,東京都,港区,西新橋１丁目１番１号ＥＰコンサルティングサービス内,,13,103,1050003,,,2024-03-04,清算の結了等,,,2022-05-24,1,,,,,カシワ,0
53,1011002028507,登記記録の閉鎖等,0,2024-03-07,2024-03-04,有限会社コム・プライド,,有限会社,埼玉県,さいたま市南区,鹿手袋２丁目１６番１号,,11,108,3360031,,,2024-03-04,清算の結了等,,,2015-10-05,1,,,,,コムプライド,0
54,1011101087651,登記記録の閉鎖等,0,2024-03-07,2024-03-04,株式会社アイパー・ジャパン,,株式会社,東京都,港区,南青山２丁目２番１５号ウィン青山９４２,,13,103,1070062,,,2024-03-04,清算の結了等,,,2019-05-21,1,,,,,アイパージャパン,0
77,1012403001416,登記記録の閉鎖等,0,2024-03-07,2024-03-01,合同会社てまり,,合同会社,東京都,武蔵野市,吉祥寺南町２丁目１２－１０小沢ビル３０２,,13,203,1800003,,,2024-03-01,清算の結了等,,,2015-10-05,1,,,,,テマリ,0
92,1020003016833,登記記録の閉鎖等,0,2024-03-07,2024-02-27,Ｔｏｍｏｋｏ　Ｋｕｒｏｓｅ　Ｉｎｔｅｒｎａｔｉｏｎａｌ　Ａｄｖｉｓｏｒｙ合同会社,,合同会社,神奈川県,横浜市中区,花咲町１丁目４８番３号ロゼ桜木町４０６,,14,104,2310063,,,2024-02-27,清算の結了等,,,2019-10-30,1,,,,,トモコクロセインターナショナルアドバイザリー,0
93,1020003023986,登記記録の閉鎖等,0,2024-03-07,2024-03-04,合同会社ｄｉｔ,,合同会社,神奈川県,横浜市港北区,日吉５丁目６番２４号クレール日吉３０２,,14,109,2230061,,,2024-03-04,清算の結了等,,,2023-06-02,1,,,,,ディット,0
95,1020005001445,登記記録の閉鎖等,0,2024-03-07,2024-03-04,医療法人社団川瀬医院,,その他の設立登記法人,神奈川県,横浜市青葉区,田奈町４５番地６,,14,117,2270064,,,2024-03-04,清算の結了等,,,2015-10-05,1,,,,,カワセイイン,0
112,1030002019902,登記記録の閉鎖等,0,2024-03-07,2024-03-04,有限会社海清,,有限会社,埼玉県,さいたま市見沼区,島町１１８３番地,,11,104,3370006,,,2024-03-04,清算の結了等,,,2015-10-05,1,,,,,カイセイ,0
120,1040001013054,登記記録の閉鎖等,0,2024-03-07,2024-03-04,株式会社関東興機,,株式会社,千葉県,千葉市若葉区,若松町５３１番地９７,,12,104,2640021,,,2024-03-04,清算の結了等,,,2015-10-05,1,,,,,カントウコウキ,0
127,1040003009422,登記記録の閉鎖等,0,2024-03-07,2024-03-01,合同会社ｋｅｉ　ｉｎｔｅｒｎａｔｉｏｎａｌ,,合同会社,千葉県,松戸市,八ケ崎７丁目２２番地の７,,12,207,2700023,,,2024-03-01,清算の結了等,,,2016-12-13,1,,,,,ケイインターナショナル,0
166,1120001125709,登記記録の閉鎖等,0,2024-03-07,2024-02-29,ジャパンマーキング株式会社,,株式会社,大阪府,大阪市西区,立売堀１丁目３番１３号,,27,106,5500012,,,2024-02-29,合併による解散等,8120001125710,令和６年２月２９日大阪市西区立売堀一丁目３番１３号株式会社ジャパンフットボールマーチャンダイズ（8120001125710）に合併し解散,2015-10-05,1,,,,,ジャパンマーキング,0
199,1140001051853,登記記録の閉鎖等,0,2024-03-07,2024-03-01,株式会社吉田商店,00039702,株式会社,兵庫県,尼崎市,北初島町１６番地の１２,,28,202,6600834,,,2024-03-01,清算の結了等,,,2015-10-05,1,,,,,ヨシダショウテン,0
221,1180001141667,登記記録の閉鎖等,0,2024-03-07,2024-03-01,株式会社ＮＳＡＫ,,株式会社,愛知県,春日井市,大留町４丁目６番地の３,,23,206,4870024,,,2024-03-01,合併による解散等,2180001074916,令和６年３月１日愛知県春日井市大留町四丁目６番地の３株式会社ホームセンター・アント（2180001074916）に合併し解散,2020-06-24,1,,,,,エヌエスエイケイ,0
223,1180001150321,登記記録の閉鎖等,0,2024-03-07,2024-03-01,株式会社レイズ,,株式会社,愛知県,名古屋市昭和区,隼人町８番地１８,,23,107,4660833,,,2024-03-01,合併による解散等,9180001133153,令和６年３月１日名古屋市天白区植田二丁目９０１番地株式会社スタックス（9180001133153）に合併し解散,2022-03-03,1,,,,,レイズ,0
228,1180002003131,登記記録の閉鎖等,0,2024-03-07,2024-03-01,有限会社マックス,,有限会社,愛知県,名古屋市名東区,香坂１７０２番地,,23,115,4650007,,,2024-03-01,清算の結了等,,,2015-10-05,1,,,,,マックス,0
234,1180305002136,登記記録の閉鎖等,0,2024-03-07,2024-03-01,特定非営利活動法人愛知カウンセリング協会,,その他の設立登記法人,愛知県,名古屋市北区,志賀町１丁目１３番地の１,,23,103,4620037,,,2024-03-01,清算の結了等,,,2015-10-05,1,,,,,アイチカウンセリングキョウカイ,0
236,1200001030116,登記記録の閉鎖等,0,2024-03-07,2024-03-06,スタジオアリオン株式会社,,株式会社,岐阜県,大垣市,大井２丁目４２番地３コンフォーム大井Ｃ棟１０１,,21,202,5030836,,,2024-03-06,清算の結了等,,,2015-10-05,1,,,,,スタジオアリオン,0
246,1240003003784,登記記録の閉鎖等,0,2024-03-07,2024-03-05,ＳＵＮ合同会社,,合同会社,広島県,安芸郡府中町,茂陰２丁目２番１４号,,34,302,7350029,,,2024-03-05,清算の結了等,,,2018-01-23,1,,,,,サン,0
258,1290001083097,登記記録の閉鎖等,0,2024-03-07,2024-02-29,株式会社パイルアップ,,株式会社,福岡県,福岡市東区,香椎照葉３丁目１番１号,,40,131,8130017,,,2024-02-29,清算の結了等,,,2018-10-18,1,,,,,パイルアップ,0
269,1290801018830,登記記録の閉鎖等,0,2024-03-07,2024-03-04,株式会社ＮＯＲＴＨＥＲＮ－ＮＩＮＥ,,株式会社,福岡県,北九州市小倉北区,清水５丁目１番３－４０１号,,40,106,8030841,,,2024-03-04,清算の結了等,,,2015-10-05,1,,,,,,0
278,1350001014384,登記記録の閉鎖等,0,2024-03-07,2024-02-29,ＫＩＲＩＳＨＩＭＡ　ＲＡＮＣＨ株式会社,,株式会社,宮崎県,都城市,高崎町前田４２６１番地１,,45,202,8894506,,,2024-02-29,合併による解散等,7122001033497,令和６年２月２９日宮崎県都城市高崎町前田４２６１番地１ＫＩＲＩＳＨＩＭＡ　ＲＡＮＣＨ株式会社（7122001033497）に合併し解散,2016-12-05,1,,,,,キリシマランチ,0
281,1370602001886,登記記録の閉鎖等,0,2024-03-07,2024-03-04,有限会社むつみ商事,,有限会社,宮城県,塩竈市,字庚塚８５番地,,04,203,9850085,,,2024-03-04,清算の結了等,,,2015-10-05,1,,,,,ムツミショウジ,0
288,1380002034115,登記記録の閉鎖等,0,2024-03-07,2024-03-04,有限会社小林燃料,,有限会社,福島県,河沼郡会津坂下町,字沢ノ目１６８４番地１,,07,421,9696555,,,2024-03-04,清算の結了等,,,2015-10-05,1,,,,,コバヤシネンリョウ,0
315,2010001024409,登記記録の閉鎖等,0,2024-03-07,2024-02-29,東西実業株式会社,,株式会社,東京都,千代田区,丸の内３丁目３番１号,,13,101,1000005,,,2024-02-29,清算の結了等,,,2015-10-05,1,,,,,トウザイジツギョウ,0
321,2010001185928,登記記録の閉鎖等,0,2024-03-07,2024-03-01,ロスカティオスリーシング株式会社,,株式会社,東京都,千代田区,丸の内１丁目３番２号,,13,101,1000005,,,2024-03-01,清算の結了等,,,2017-08-29,1,,,,,ロスカティオスリーシング,0
326,2010001232688,登記記録の閉鎖等,0,2024-03-07,2024-02-29,株式会社ビルサポ,,株式会社,東京都,千代田区,丸の内２丁目７番３号,,13,101,1000005,,,2024-02-29,清算の結了等,,,2023-02-06,1,,,,,ビルサポ,0
330,2010002050528,登記記録の閉鎖等,0,2024-03-07,2024-03-01,株式会社虎杖東京,,株式会社,東京都,中央区,築地４丁目１４番１８号妙泉寺ビル２階,,13,102,1040045,,,2024-03-01,清算の結了等,,,2015-10-05,1,,,,,イタドリトウキョウ,0
346,2010403018198,登記記録の閉鎖等,0,2024-03-07,2024-03-01,六本木シックス・リアルエステート合同会社,,合同会社,東京都,千代田区,霞が関３丁目２番５号,,13,101,1000013,,,2024-03-01,合併による解散等,3010503006085,令和６年３月１日東京都千代田区霞が関三丁目２番５号ＴＫＳ合同会社（3010503006085）に合併し解散,2018-03-05,1,,,,,ロッポンギシックスリアルエステート,0
349,2010405013635,登記記録の閉鎖等,0,2024-03-07,2024-03-01,一般社団法人クリエイトアバンダンス東京センター,,その他の設立登記法人,東京都,港区,赤坂６丁目１２番１１号赤坂甲陽ビル７Ｆ,,13,103,1070052,,,2024-03-01,清算の結了等,,,2015-10-05,1,,,,,クリエイトアバンダンストウキョウセンター,0
359,2010802000855,登記記録の閉鎖等,0,2024-03-07,2024-03-04,有限会社アルゴ・エンジニアリング,,有限会社,東京都,大田区,大森北５丁目７番１２号,,13,111,1430016,,,2024-03-04,清算の結了等,,,2015-10-05,1,,,,,アルゴエンジニアリング,0
376,2011101085514,登記記録の閉鎖等,0,2024-03-07,2024-03-01,株式会社ハピテップ,,株式会社,東京都,新宿区,新宿１丁目３６番２号新宿第七葉山ビル３Ｆ,,13,104,1600022,,,2024-03-01,合併による解散等,8011101089526,令和６年３月１日東京都新宿区西新宿七丁目２２番３１－３０５号株式会社ＯＮＥ＆ＳＴＯＲＹ（8011101089526）に合併し解散,2018-09-28,1,,,,,ハピテップ,0
381,2011301016698,登記記録の閉鎖等,0,2024-03-07,2024-02-28,株式会社不二創造研究所,,株式会社,東京都,杉並区,成田東５丁目３番１０号,,13,115,1660015,,,2024-02-28,清算の結了等,,,2015-10-05,1,,,,,フジソウゾウケンキュウジョ,0
392,2012301011813,登記記録の閉鎖等,0,2024-03-07,2024-03-01,株式会社ＹＥＧ,,株式会社,東京都,町田市,常盤町３１０９番地３８,,13,209,1940213,,,2024-03-01,清算の結了等,,,2019-07-22,1,,,,,ワイイージー,0
394,2013302017626,登記記録の閉鎖等,0,2024-03-07,2024-03-05,有限会社紫苑,,有限会社,東京都,杉並区,高井戸東１丁目１番２６号ロイヤルコーポ高井戸３０６号,,13,115,1680072,,,2024-03-05,合併による解散等,8011102029200,令和６年３月１日東京都新宿区西新宿三丁目１番５号株式会社オルテ（8011102029200）に合併し解散,2015-10-05,1,,,,,シオン,0
408,2021001029702,登記記録の閉鎖等,0,2024-03-07,2024-03-01,株式会社エーライト,,株式会社,神奈川県,綾瀬市,落合南２丁目１８番７０号,,14,218,2521115,,,2024-03-01,清算の結了等,,,2015-10-05,1,,,,,エーライト,0
412,2021002018241,登記記録の閉鎖等,0,2024-03-07,2024-03-05,有限会社栄光屋,,有限会社,神奈川県,相模原市南区,相模大野５丁目４番９号,,14,153,2520303,,,2024-03-05,清算の結了等,,,2015-10-05,1,,,,,エイコウヤ,0
430,2040003023521,登記記録の閉鎖等,0,2024-03-07,2024-03-04,合同会社凱,,合同会社,千葉県,船橋市,八木が谷１丁目６番７号,,12,204,2740802,,,2024-03-04,清算の結了等,,,2023-10-12,1,,,,,カチドキ,0
455,2110002003129,登記記録の閉鎖等,0,2024-03-07,2024-03-04,有限会社新都興産,,有限会社,新潟県,新潟市東区,物見山４丁目５番２５号,,15,102,9500021,,,2024-03-04,清算の結了等,,,2015-10-05,1,,,,,シントコウサン,0
456,2110002016411,登記記録の閉鎖等,0,2024-03-07,2024-02-29,有限会社ティ・ワイ・プランニング,,有限会社,新潟県,新発田市,小舟町３丁目１番３２号,,15,206,9570007,,,2024-02-29,清算の結了等,,,2015-10-05,1,,,,,ティワイプランニング,0
460,2110005015658,登記記録の閉鎖等,0,2024-03-07,2024-02-21,特定非営利活動法人貯筋運動研究会,,その他の設立登記法人,新潟県,新潟市江南区,亀田向陽２丁目５番７号,,15,104,9500121,,,2024-02-21,清算の結了等,,,2015-10-05,1,,,,,チョキンウンドウケンキュウカイ,0
464,2120001044148,登記記録の閉鎖等,0,2024-03-07,2024-03-01,アルバライズ株式会社,,株式会社,大阪府,大阪市西区,靱本町１丁目１２番４号,,27,106,5500004,,,2024-03-01,合併による解散等,2120001047919,令和６年３月１日大阪市中央区瓦町三丁目２番７号アルバライズ株式会社（2120001047919）に合併し解散,2015-10-05,1,,,,,アルバライズ,0
491,2130001045442,登記記録の閉鎖等,0,2024-03-07,2024-02-29,トレンドリーダー株式会社,,株式会社,東京都,千代田区,六番町１３番地７,,13,101,1020085,,,2024-02-29,清算の結了等,,,2015-10-05,1,,,,,トレンドリーダー,0
520,2180001045925,登記記録の閉鎖等,0,2024-03-07,2024-03-01,株式会社中央建具製作所,,株式会社,愛知県,北名古屋市,弥勒寺東３丁目１８３番地,,23,234,4810031,,,2024-03-01,清算の結了等,,,2015-10-05,1,,,,,チュウオウタテグセイサクショ,0
525,2180003004722,登記記録の閉鎖等,0,2024-03-07,2024-03-01,株式会社荒川産業,,株式会社,愛知県,名古屋市中区,千代田２丁目１６番３８号,,23,106,4600012,,,2024-03-01,合併による解散等,7180001033990,令和６年３月１日名古屋市中区千代田二丁目１６番３８号株式会社荒川印刷（7180001033990）に合併し解散,2015-10-05,1,,,,,アラカワサンギョウ,0
539,2240001046801,登記記録の閉鎖等,0,2024-03-07,2024-03-01,株式会社ブルーワン,,株式会社,広島県,福山市,新市町大字戸手５３８番地１,,34,207,7293101,,,2024-03-01,合併による解散等,3240001046800,令和６年３月１日広島県福山市新市町大字戸手６８番地株式会社信岡ホールディングス（3240001046800）に合併し解散,2015-10-05,1,,,,,ブルーワン,0
558,2260002025380,登記記録の閉鎖等,0,2024-03-07,2024-03-05,平成建設有限会社,,有限会社,岡山県,浅口市,鴨方町深田４５９番地の１,,33,216,7190244,,,2024-03-05,清算の結了等,,,2015-10-05,1,,,,,ヘイセイケンセツ,0
560,2280001003154,登記記録の閉鎖等,0,2024-03-07,2024-03-06,株式会社さかや,,株式会社,島根県,出雲市,今市町北本町１丁目２番地サカヤビル,,32,203,6930002,,,2024-03-06,清算の結了等,,,2015-10-05,1,,,,,サカヤ,0
585,2370201002616,登記記録の閉鎖等,0,2024-03-07,2024-02-29,株式会社スズヨシ,,株式会社,宮城県,大崎市,古川上中目字西８４番地１,,04,215,9896202,,,2024-02-29,合併による解散等,8370201002536,令和６年２月２９日宮城県大崎市古川上中目字西８４番地１株式会社鈴吉運輸（8370201002536）に合併し解散,2015-10-05,1,,,,,スズヨシ,0
587,2380001032366,登記記録の閉鎖等,0,2024-03-07,2024-03-04,株式会社ナノクラフト,,株式会社,福島県,郡山市,並木３丁目６番地の１１,,07,203,9638026,,,2024-03-04,合併による解散等,1380001025668,令和６年３月１日福島県郡山市久留米六丁目４５番地の７株式会社ＩＦＰ（1380001025668）に合併し解散,2021-11-26,1,,,,,ナノクラフト,0
589,2380002004570,登記記録の閉鎖等,0,2024-03-07,2024-03-05,有限会社エーアンドワイ,,有限会社,福島県,福島市,仲間町９番２４号,,07,201,9608105,,,2024-03-05,清算の結了等,,,2015-10-05,1,,,,,エーアンドワイ,0
616,3010001194374,登記記録の閉鎖等,0,2024-03-07,2024-03-01,株式会社ジョイラボ,,株式会社,東京都,中央区,銀座６丁目６番１号,,13,102,1040061,,,2024-03-01,清算の結了等,,,2018-08-24,1,,,,,ジョイラボ,0
641,3010401085925,登記記録の閉鎖等,0,2024-03-07,2024-03-04,株式会社ケィ・サイド,,株式会社,東京都,港区,赤坂９丁目１番７号,,13,103,1070052,,,2024-03-04,清算の結了等,,,2015-10-05,1,,,,,ケイサイド,0
644,3010401153632,登記記録の閉鎖等,0,2024-03-07,2024-03-01,株式会社スパックホールディングス,,株式会社,東京都,港区,新橋５丁目７番１号,,13,103,1050004,,,2024-03-01,合併による解散等,9010401043027,令和６年３月１日東京都港区新橋五丁目７番１号株式会社スパックエキスプレス（9010401043027）に合併し解散,2020-07-20,1,,,,,スパックホールディングス,0
654,3010501025871,登記記録の閉鎖等,0,2024-03-07,2024-03-04,株式会社スーパーメイド,,株式会社,東京都,新宿区,新宿１丁目３６番５号新宿ホテルパークイン１００１号室,,13,104,1600022,,,2024-03-04,清算の結了等,,,2015-10-05,1,,,,,スーパーメイド,0
655,3010501030062,登記記録の閉鎖等,0,2024-03-07,2024-03-04,株式会社東翔ダンボ,,株式会社,埼玉県,八潮市,大瀬１丁目１０番地２,,11,234,3400822,,,2024-03-04,清算の結了等,,,2015-10-05,1,,,,,トウショウダンボ,0
657,3010501041167,登記記録の閉鎖等,0,2024-03-07,2024-03-01,第一不動産株式会社,,株式会社,東京都,台東区,上野３丁目１０番１号,,13,106,1100005,,,2024-03-01,清算の結了等,,,2017-06-06,1,,,,,ダイイチフドウサン,0
659,3010601053186,登記記録の閉鎖等,0,2024-03-07,2024-03-04,株式会社日本笑顔推進協会,,株式会社,東京都,江東区,富岡２丁目９番１１号,,13,108,1350047,,,2024-03-04,清算の結了等,,,2018-04-18,1,,,,,ニホンエガオスイシンキョウカイ,0
679,3012301010830,登記記録の閉鎖等,0,2024-03-07,2024-02-29,株式会社ヨーク,,株式会社,東京都,町田市,大蔵町２９８６番地２,,13,209,1950062,,,2024-02-29,清算の結了等,,,2017-01-12,1,,,,,ヨーク,0
694,3020001139576,登記記録の閉鎖等,0,2024-03-07,2024-03-01,株式会社ｒｏｆｉ,,株式会社,神奈川県,川崎市中原区,新丸子東２丁目９２４番地４７シャンティ加藤３Ｆ,,14,133,2110004,,,2024-03-01,清算の結了等,,,2021-01-21,1,,,,,ローファイ,0
709,3021002003630,登記記録の閉鎖等,0,2024-03-07,2024-03-05,有限会社トライゲン,,有限会社,神奈川県,藤沢市,藤沢９１６番地の２藤沢キャッスル１０３号,,14,205,2510052,,,2024-03-05,清算の結了等,,,2015-10-05,1,,,,,トライゲン,0
711,3021002030732,登記記録の閉鎖等,0,2024-03-07,2024-03-05,有限会社池本総合事務所,,有限会社,神奈川県,厚木市,鳶尾５丁目２６番４号,,14,212,2430204,,,2024-03-05,清算の結了等,,,2015-10-05,1,,,,,イケモトソウゴウジムショ,0
714,3021003008257,登記記録の閉鎖等,0,2024-03-07,2024-03-06,合同会社ピコスキー,,合同会社,神奈川県,相模原市中央区,田名４４９８番地８,,14,152,2520244,,,2024-03-06,清算の結了等,,,2019-03-22,1,,,,,ピコスキー,0
732,3040005000468,登記記録の閉鎖等,0,2024-03-07,2024-03-04,千葉市平和公園石材商協同組合,,その他の設立登記法人,千葉県,千葉市若葉区,多部田町１４８５番地４０,,12,104,2650066,,,2024-03-04,清算の結了等,,,2015-10-05,1,,,,,チバシヘイワコウエンセキザイショウ,0
737,3050002002235,登記記録の閉鎖等,0,2024-03-07,2024-03-01,有限会社典和進学ゼミナール,,有限会社,茨城県,水戸市,千波町１１５６番地,,08,201,3100851,,,2024-03-01,合併による解散等,3050001012400,令和６年３月１日茨城県土浦市川口一丁目１０番５号株式会社茨進ホールディングス（3050001012400）に合併し解散,2015-10-05,1,,,,,テンワシンガクゼミナール,0
738,3050002031903,登記記録の閉鎖等,0,2024-03-07,2024-03-05,有限会社Ｉ・Ｕ保険サービス,,有限会社,茨城県,日立市,森山町１丁目２番４４号,,08,202,3160025,,,2024-03-05,清算の結了等,,,2015-10-05,1,,,,,アイユーホケンサービス,0
740,3050005005739,登記記録の閉鎖等,0,2024-03-07,2024-02-21,医療法人大垣耳鼻咽喉科,,その他の設立登記法人,茨城県,古河市,雷電町１０番２１号,,08,204,3060004,,,2024-02-21,清算の結了等,,,2015-10-05,1,,,,,オオガキジビインコウカ,0
757,3100001027946,登記記録の閉鎖等,0,2024-03-07,2024-03-01,株式会社オーエス,,株式会社,長野県,長野市,吉田１丁目８番６号,,20,201,3810043,,,2024-03-01,合併による解散等,5100001000562,令和６年３月１日長野市吉田一丁目８番６号株式会社長田鉄筋工業（5100001000562）に合併し解散,2015-10-05,1,,,,,オーエス,0
783,3130001016070,登記記録の閉鎖等,0,2024-03-07,2024-03-04,株式会社洛陽,,株式会社,京都府,京都市伏見区,深草フケノ内町３番地の２,,26,109,6120018,,,2024-03-04,清算の結了等,,,2015-10-05,1,,,,,,0
789,3140001009172,登記記録の閉鎖等,0,2024-03-07,2024-03-04,高島電子株式会社,00039098,株式会社,兵庫県,神戸市中央区,割塚通３丁目２番３号,,28,110,6510065,,,2024-03-04,清算の結了等,,,2015-10-05,1,,,,,タカシマデンシ,0
797,3140001089693,登記記録の閉鎖等,0,2024-03-07,2024-03-05,株式会社クックイノベンチャー,,株式会社,愛知県,名古屋市北区,黒川本通２丁目４６番地,,23,103,4620841,,,2024-03-05,合併による解散等,1180001045018,令和６年３月１日名古屋市北区黒川本通二丁目４６番地株式会社ジー・コミュニケーション（1180001045018）に合併し解散,2015-10-05,1,,,,,クックイノベンチャー,0
802,3140002026877,登記記録の閉鎖等,0,2024-03-07,2024-03-01,やなごデザイン有限会社,,有限会社,兵庫県,神戸市垂水区,海岸通２番２－９０２号,,28,108,6550036,,,2024-03-01,清算の結了等,,,2015-10-05,1,,,,,ヤナゴデザイン,0
810,3180001035090,登記記録の閉鎖等,0,2024-03-07,2024-03-04,株式会社加繁商店,,株式会社,愛知県,名古屋市中区,大須４丁目９番７４号,,23,106,4600011,,,2024-03-04,清算の結了等,,,2015-10-05,1,,,,,カシゲショウテン,0
823,3200002019998,登記記録の閉鎖等,0,2024-03-07,2024-03-05,有限会社エムケイ商事,,有限会社,岐阜県,多治見市,音羽町１丁目１７番地の７,,21,204,5070037,,,2024-03-05,清算の結了等,,,2015-10-05,1,,,,,エムケイショウジ,0
835,3250002006208,登記記録の閉鎖等,0,2024-03-07,2024-03-04,有限会社つねまつ菓子舗,,有限会社,山口県,山陽小野田市,大字西高泊６７６番地の３,,35,216,7560057,,,2024-03-04,清算の結了等,,,2015-10-05,1,,,,,,0
838,3270002007765,登記記録の閉鎖等,0,2024-03-07,2024-03-01,有限会社寝具の黒田,,有限会社,鳥取県,境港市,相生町４９番地,,31,204,6840011,,,2024-03-01,合併による解散等,2270001003766,令和６年３月１日鳥取県境港市相生町４９番地株式会社くろだ美装（2270001003766）に合併し解散,2015-10-05,1,,,,,シングノクロダ,0
860,3310001003868,登記記録の閉鎖等,0,2024-03-07,2024-03-01,長崎エコタウン株式会社,,株式会社,長崎県,長崎市,稲佐町２番２号,,42,201,8528011,,,2024-03-01,合併による解散等,1310001002186,令和６年３月１日長崎市稲佐町２番２号株式会社メモリード（1310001002186）に合併し解散,2015-10-05,1,,,,,,0
868,3340001021082,登記記録の閉鎖等,0,2024-03-07,2024-03-05,株式会社前迫設計,,株式会社,鹿児島県,鹿児島市,吉野町１５３７番地３,,46,201,8920871,,,2024-03-05,清算の結了等,,,2018-04-04,1,,,,,マエサコセッケイ,0
885,3410005003251,登記記録の閉鎖等,0,2024-03-07,2024-03-01,天理教阿仁落合分教会,,その他の設立登記法人,秋田県,北秋田市,李岱字李岱２３６番地の１,,05,213,0184282,,,2024-03-01,合併による解散等,3410005003945,令和６年３月１日秋田県能代市字寿域長根２６番地天理教阿仁分教会（3410005003945）に合併し解散,2015-10-05,1,,,,,,0
887,3420005006567,登記記録の閉鎖等,0,2024-03-07,2024-03-04,特定非営利活動法人ゆいっこクラブ,,その他の設立登記法人,青森県,下北郡佐井村,大字佐井字糠森１００番地３,,02,426,0394711,,,2024-03-04,清算の結了等,,,2015-10-05,1,,,,,ユイッコクラブ,0
894,4010001035734,登記記録の閉鎖等,0,2024-03-07,2024-03-01,アックスボード株式会社,,株式会社,東京都,中央区,日本橋３丁目１５番２号,,13,102,1030027,,,2024-03-01,清算の結了等,,,2015-10-05,1,,,,,アックスボード,0
916,4010401163011,登記記録の閉鎖等,0,2024-03-07,2024-03-04,株式会社ＫＢＢ,,株式会社,東京都,港区,高輪２丁目１５番２１号,,13,103,1080074,,,2024-03-04,清算の結了等,,,2021-10-06,1,,,,,ケービービー,0
936,4011001093326,登記記録の閉鎖等,0,2024-03-07,2024-03-04,株式会社ブレイブ,,株式会社,千葉県,柏市,あけぼの２丁目５－２ランドフォレスト柏１Ｆ,,12,217,2770841,,,2024-03-04,清算の結了等,,,2015-10-05,1,,,,,ブレイブ,0
969,4013302014621,登記記録の閉鎖等,0,2024-03-07,2024-02-28,有限会社ウエストポイント,,有限会社,東京都,豊島区,目白３丁目１３番５号,,13,116,1710031,,,2024-02-28,清算の結了等,,,2015-10-05,1,,,,,ウエストポイント,0
986,4020002093367,登記記録の閉鎖等,0,2024-03-07,2024-03-04,有限会社三舩ジィーエル工業,,有限会社,神奈川県,川崎市多摩区,菅仙谷３丁目１３番１９号,,14,135,2140006,,,2024-03-04,清算の結了等,,,2015-10-05,1,,,,,ミフネジィーエルコウギョウ,0
1005,4030002109015,登記記録の閉鎖等,0,2024-03-07,2024-03-04,有限会社メタルプロ,,有限会社,埼玉県,川口市,安行出羽２丁目７番２７号,,11,203,3340052,,,2024-03-04,清算の結了等,,,2015-10-05,1,,,,,メタルプロ,0
1011,4040001024577,登記記録の閉鎖等,0,2024-03-07,2024-03-01,株式会社昌立不動産,,株式会社,千葉県,船橋市,新高根６丁目２１番５号,,12,204,2740814,,,2024-03-01,清算の結了等,,,2015-10-05,1,,,,,ショウリツフドウサン,0
1012,4040001043214,登記記録の閉鎖等,0,2024-03-07,2024-03-04,株式会社ボンベルタ,,株式会社,千葉県,成田市,赤坂２丁目１番１０号,,12,211,2860017,,,2024-03-04,合併による解散等,2040001000456,令和６年３月１日千葉市美浜区中瀬一丁目５番地１イオンリテール株式会社（2040001000456）に合併し解散,2015-10-05,1,,,,,ボンベルタ,0
1013,4040001107794,登記記録の閉鎖等,0,2024-03-07,2024-03-01,株式会社マル福商事,,株式会社,千葉県,千葉市美浜区,稲毛海岸１丁目２番１６棟３０５号,,12,106,2610005,,,2024-03-01,清算の結了等,,,2019-01-25,1,,,,,マルフクショウジ,0
1016,4040003005105,登記記録の閉鎖等,0,2024-03-07,2024-03-01,合同会社稲垣商店,,合同会社,千葉県,白井市,根１０５４番地の３２,,12,232,2701431,,,2024-03-01,清算の結了等,,,2015-10-05,1,,,,,イナガキショウテン,0
1021,4070001013874,登記記録の閉鎖等,0,2024-03-07,2024-03-01,株式会社神倉硝子赤堀,,株式会社,群馬県,伊勢崎市,赤堀今井町１丁目１６７番地１,,10,204,3792215,,,2024-03-01,合併による解散等,1070001013514,令和６年３月１日群馬県伊勢崎市富塚町１１１番地１株式会社大建アルミ商工（1070001013514）に合併し解散,2015-10-05,1,,,,,カミクラガラスアカボリ,0
1027,4070005009712,登記記録の閉鎖等,0,2024-03-07,2024-02-28,一般財団法人榛名美術,,その他の設立登記法人,群馬県,高崎市,下室田町２７００番地１,,10,202,3703342,,,2024-02-28,清算の結了等,,,2020-04-08,1,,,,,ハルナビジュツ,0
1034,4100001011107,登記記録の閉鎖等,0,2024-03-07,2024-02-29,山一木材工業株式会社,,株式会社,長野県,小県郡長和町,和田５６１番地,,20,350,3860701,,,2024-02-29,清算の結了等,,,2015-10-05,1,,,,,ヤマイチモクザイコウギョウ,0
1061,4122001028327,登記記録の閉鎖等,0,2024-03-07,2024-03-01,株式会社アンディーマーブル,,株式会社,大阪府,柏原市,円明町８８８番地の１６,,27,221,5820027,,,2024-03-01,合併による解散等,5122001022717,令和６年２月２９日大阪府柏原市円明町１０００番地の２２株式会社ペッズ・イシバシ（5122001022717）に合併し解散,2015-10-05,1,,,,,アンディーマーブル,0
1080,4180001049651,登記記録の閉鎖等,0,2024-03-07,2024-03-01,日本セキュリティー機器販売株式会社,,株式会社,愛知県,名古屋市東区,大幸１丁目１０番１５号,,23,102,4610043,,,2024-03-01,合併による解散等,9180001070322,令和６年３月１日名古屋市東区大幸一丁目１０番１５号株式会社ＮＳＫ（9180001070322）に合併し解散,2015-10-05,1,,,,,ニホンセキュリティーキキハンバイ,0
1098,4200002007639,登記記録の閉鎖等,0,2024-03-07,2024-03-04,有限会社セドナ,,有限会社,岐阜県,各務原市,鵜沼川崎町２丁目９１番地,,21,213,5090147,,,2024-03-04,清算の結了等,,,2015-10-05,1,,,,,セドナ,0
1108,4260001024737,登記記録の閉鎖等,0,2024-03-07,2024-03-06,株式会社天馬製作所,,株式会社,岡山県,赤磐市,野間６３番地１,,33,213,7090735,,,2024-03-06,清算の結了等,,,2015-10-05,1,,,,,テンマセイサクショ,0
1139,4360002014363,登記記録の閉鎖等,0,2024-03-07,2024-03-01,有限会社沖縄クリーン建機,,有限会社,沖縄県,中頭郡中城村,字和宇慶４６８番地,,47,328,9012416,,,2024-03-01,清算の結了等,,,2015-10-05,1,,,,,オキナワクリーンケンキ,0
1141,4360003011211,登記記録の閉鎖等,0,2024-03-07,2024-03-04,合同会社Ｔｒｅｓｅｎｔ,,合同会社,沖縄県,那覇市,辻２丁目１２番１１号,00123363,47,201,9000037,,,2024-03-04,清算の結了等,,,2021-06-16,1,,,,,,0
1150,4430002040328,登記記録の閉鎖等,0,2024-03-07,2024-03-04,有限会社ピュアハーツ,,有限会社,北海道,札幌市中央区,円山西町３丁目３番２０号,,01,101,0640944,,,2024-03-04,清算の結了等,,,2015-10-05,1,,,,,ピュアハーツ,0
1153,4470002006977,登記記録の閉鎖等,0,2024-03-07,2024-03-04,有限会社森川設備,,有限会社,香川県,高松市,木太町２８７０番地５,,37,201,7600080,,,2024-03-04,清算の結了等,,,2015-10-05,1,,,,,モリカワセツビ,0
1161,4490002001753,登記記録の閉鎖等,0,2024-03-07,2024-03-01,有限会社小林商事,,有限会社,高知県,高知市,帯屋町１丁目２番５号,,39,201,7800841,,,2024-03-01,合併による解散等,2490001001806,令和６年３月１日高知市帯屋町一丁目２番５号株式会社はこべ（2490001001806）に合併し解散,2015-10-05,1,,,,,コバヤシショウジ,0
1184,5010401016457,登記記録の閉鎖等,0,2024-03-07,2024-03-01,大成交易株式会社,,株式会社,東京都,港区,芝浦４丁目３番４号,,13,103,1080023,,,2024-03-01,合併による解散等,6010401016522,令和６年３月１日東京都港区芝浦四丁目３番４号株式会社大成企業ビル（6010401016522）に合併し解散,2015-10-05,1,,,,,タイセイコウエキ,0
1185,5010401098446,登記記録の閉鎖等,0,2024-03-07,2024-03-04,株式会社レグシス,,株式会社,東京都,港区,虎ノ門１丁目１９番９号,,13,103,1050001,,,2024-03-04,清算の結了等,,,2015-10-05,1,,,,,レグシス,0
1205,5010801025909,登記記録の閉鎖等,0,2024-03-07,2024-03-01,犬童電気株式会社,,株式会社,熊本県,球磨郡山江村,大字山田甲１４３６番地,,43,512,8680092,,,2024-03-01,清算の結了等,,,2015-10-05,1,,,,,インドウデンキ,0
1222,5011101066412,登記記録の閉鎖等,0,2024-03-07,2024-03-04,株式会社アップドラフト,,株式会社,東京都,清瀬市,梅園３丁目１４番１－４号,,13,221,2040024,,,2024-03-04,清算の結了等,,,2015-10-05,1,,,,,,0
1240,5011701001966,登記記録の閉鎖等,0,2024-03-07,2024-03-04,オバタ商事株式会社,,株式会社,東京都,江戸川区,臨海町３丁目６番２号,,13,123,1340086,,,2024-03-04,清算の結了等,,,2015-10-05,1,,,,,オバタショウジ,0
1241,5011701009159,登記記録の閉鎖等,0,2024-03-07,2024-03-05,東日本保証サービス株式会社,,株式会社,東京都,台東区,台東４丁目２９番１２号,,13,106,1100016,,,2024-03-05,合併による解散等,6050001009071,令和６年３月１日茨城県つくば市東新井１３番地２筑波信用保証株式会社（6050001009071）に合併し解散,2015-10-05,1,,,,,ヒガシニホンホショウサービス,0
1254,5013301028340,登記記録の閉鎖等,0,2024-03-07,2024-03-01,株式会社フードナビ,,株式会社,東京都,中央区,日本橋兜町１６番５号,,13,102,1030026,,,2024-03-01,合併による解散等,9011101061021,令和６年３月１日東京都中央区日本橋兜町１６番５号株式会社ＵＳＭＯＲＥ（9011101061021）に合併し解散,2015-10-05,1,,,,,フードナビ,0
1284,5030005018410,登記記録の閉鎖等,0,2024-03-07,2024-03-04,特定非営利活動法人学童クラブプリズムの会,,その他の設立登記法人,埼玉県,深谷市,上柴町西５丁目３番地６,,11,218,3660052,,,2024-03-04,清算の結了等,,,2017-03-27,1,,,,,ガクドウクラブプリズムノカイ,0
1287,5040001084281,登記記録の閉鎖等,0,2024-03-07,2024-03-04,株式会社ネクストファーム,,株式会社,千葉県,印旛郡栄町,北５２３番地,,12,329,2701545,,,2024-03-04,清算の結了等,,,2015-10-05,1,,,,,ネクストファーム,0
1288,5040001107661,登記記録の閉鎖等,0,2024-03-07,2024-03-01,株式会社サルーテ,,株式会社,千葉県,千葉市花見川区,畑町６６２番地の２４２,,12,102,2620018,,,2024-03-01,清算の結了等,,,2019-01-16,1,,,,,サルーテ,0
1291,5040002012266,登記記録の閉鎖等,0,2024-03-07,2024-03-04,有限会社吉川工業,,有限会社,千葉県,千葉市美浜区,幸町２丁目８番３棟４０４号,,12,106,2610001,,,2024-03-04,清算の結了等,,,2015-10-05,1,,,,,ヨシカワコウギョウ,0
1292,5040002051116,登記記録の閉鎖等,0,2024-03-07,2024-03-04,有限会社運河不動産,,有限会社,千葉県,野田市,西三ケ尾１７２番地,,12,208,2780015,,,2024-03-04,清算の結了等,,,2015-10-05,1,,,,,ウンガフドウサン,0
1304,5060003002066,登記記録の閉鎖等,0,2024-03-07,2024-03-01,合同会社ｔｏｋｉコーポレーション,,合同会社,栃木県,栃木市,大平町西野田２０番地１４０,,09,203,3294421,,,2024-03-01,清算の結了等,,,2015-10-05,1,,,,,トキコーポレーション,0
1309,5080102020702,登記記録の閉鎖等,0,2024-03-07,2024-03-04,有限会社ロメオ,,有限会社,静岡県,伊東市,猪戸２丁目４番２０号,,22,208,4140004,,,2024-03-04,清算の結了等,,,2015-10-05,1,,,,,ロメオ,0
1311,5080402016359,登記記録の閉鎖等,0,2024-03-07,2024-03-05,クライムツーワン有限会社,,有限会社,静岡県,浜松市天竜区,横川２８５６番地の２,,22,140,4313301,,,2024-03-05,清算の結了等,,,2015-10-05,1,,,,,クライムツーワン,0
1318,5110005008403,登記記録の閉鎖等,0,2024-03-07,2024-03-05,極楽寺,,その他の設立登記法人,新潟県,上越市,三和区今保７６６番地,,15,222,9430313,,,2024-03-05,清算の結了等,,,2015-10-05,1,,,,,ゴクラクジ,0
1335,5120102024649,登記記録の閉鎖等,0,2024-03-07,2024-03-07,有限会社メリッサ,,有限会社,大阪府,泉南郡熊取町,自由が丘２丁目８番５号,,27,361,5900423,,,2024-03-07,清算の結了等,,,2015-10-05,1,,,,,,0
1342,5122002015281,登記記録の閉鎖等,0,2024-03-07,2024-03-05,有限会社エムティーセラミック,,有限会社,大阪府,大阪市城東区,東中浜４丁目６番２０号,,27,118,5360023,,,2024-03-05,清算の結了等,,,2015-10-05,1,,,,,エムティーセラミック,0
1363,5180002042571,登記記録の閉鎖等,0,2024-03-07,2024-02-29,有限会社ディ・エス,,有限会社,愛知県,日進市,岩崎町梅ノ木１８５番地の２１,,23,230,4700131,,,2024-02-29,清算の結了等,,,2015-10-05,1,,,,,ディエス,0
1364,5180002049220,登記記録の閉鎖等,0,2024-03-07,2024-02-27,有限会社ジェイ・アンド・エル,,有限会社,愛知県,名古屋市中区,錦３丁目１３番１５号,,23,106,4600003,,,2024-02-27,清算の結了等,,,2015-10-05,1,,,,,ジェイアンドエル,0
1375,5200001028338,登記記録の閉鎖等,0,2024-03-07,2024-03-04,ワンダージョイ株式会社,,株式会社,静岡県,伊東市,岡１３８５番地の７,,22,208,4140055,,,2024-03-04,清算の結了等,,,2015-10-05,1,,,,,ワンダージョイ,0
1378,5210002013998,登記記録の閉鎖等,0,2024-03-07,2024-02-26,有限会社ワーク,,有限会社,福井県,小浜市,上野第４３号２７番地,,18,204,9170234,,,2024-02-26,清算の結了等,,,2015-10-05,1,,,,,ワーク,0
1390,5290001016482,登記記録の閉鎖等,0,2024-03-07,2024-03-01,ブロスカンパニー株式会社,,株式会社,福岡県,福岡市博多区,中呉服町３番２５号,,40,132,8120035,,,2024-03-01,清算の結了等,,,2015-10-05,1,,,,,ブロスカンパニー,0
1429,5370202003809,登記記録の閉鎖等,0,2024-03-07,2024-03-04,有限会社プロスパー,,有限会社,宮城県,加美郡加美町,下新田字桑原２２番地１,,04,445,9814222,,,2024-03-04,清算の結了等,,,2015-10-05,1,,,,,プロスパー,0
1431,5430002063740,登記記録の閉鎖等,0,2024-03-07,2024-03-01,有限会社船着,,有限会社,北海道,虻田郡洞爺湖町,高砂町９７番地６,,01,584,0495605,,,2024-03-01,清算の結了等,,,2015-10-05,1,,,,,フナキ,0
1441,6010001147692,登記記録の閉鎖等,0,2024-03-07,2024-03-01,株式会社海遊山楽ゆう銀座,,株式会社,東京都,中央区,銀座４丁目１０番１６号,,13,102,1040061,,,2024-03-01,清算の結了等,,,2015-10-05,1,,,,,カイユウサンラクユウギンザ,0
1444,6010001199032,登記記録の閉鎖等,0,2024-03-07,2024-03-01,株式会社メディアドゥペイメント,,株式会社,東京都,千代田区,一ツ橋１丁目１番１号,,13,101,1000003,,,2024-03-01,清算の結了等,,,2019-03-08,1,,,,,メディアドゥペイメント,0
1476,6010701004961,登記記録の閉鎖等,0,2024-03-07,2024-03-04,株式会社ステイプル,,株式会社,東京都,品川区,東五反田２丁目４番５号,,13,109,1410022,,,2024-03-04,清算の結了等,,,2015-10-05,1,,,,,ステイプル,0
1506,6011601017120,登記記録の閉鎖等,0,2024-03-07,2024-03-04,株式会社東北姑娘,,株式会社,東京都,練馬区,富士見台４丁目３１番１５号,,13,120,1770034,,,2024-03-04,清算の結了等,,,2015-10-05,1,,,,,ドンベークーニャン,0
1515,6012403003242,登記記録の閉鎖等,0,2024-03-07,2024-03-01,コストダウン合同会社,,合同会社,東京都,府中市,晴見町１丁目２８番地府中グリーンハイツ７－６０３,,13,206,1830057,,,2024-03-01,清算の結了等,,,2017-10-27,1,,,,,コストダウン,0
1530,6020002037017,登記記録の閉鎖等,0,2024-03-07,2024-03-04,有限会社井田水道興業,,有限会社,神奈川県,横浜市鶴見区,獅子ケ谷１丁目２６番３０号,,14,101,2300073,,,2024-03-04,清算の結了等,,,2015-10-05,1,,,,,イダスイドウコウギョウ,0
1541,6021002020111,登記記録の閉鎖等,0,2024-03-07,2024-03-06,有限会社小高精密工業,,有限会社,神奈川県,相模原市中央区,田名２８４４番地の１２,,14,152,2520244,,,2024-03-06,清算の結了等,,,2015-10-05,1,,,,,,0
1566,6040003001696,登記記録の閉鎖等,0,2024-03-07,2024-03-04,株式会社鈴木ビルサービス,,株式会社,千葉県,市川市,下新宿１３番１２号,,12,203,2720102,,,2024-03-04,清算の結了等,,,2015-10-05,1,,,,,スズキビルサービス,0
1570,6040003019078,登記記録の閉鎖等,0,2024-03-07,2024-03-04,プレインリビング合同会社,,合同会社,千葉県,白井市,池の上３丁目１番１７号,,12,232,2701425,,,2024-03-04,清算の結了等,,,2021-12-07,1,,,,,プレインリビング,0
1579,6050002026025,登記記録の閉鎖等,0,2024-03-07,2024-03-04,有限会社タイディメイド,,有限会社,東京都,新宿区,新宿１丁目３６番５号新宿ホテルパークイン１００１号室,,13,104,1600022,,,2024-03-04,清算の結了等,,,2015-10-05,1,,,,,タイディメイド,0
1589,6080101022847,登記記録の閉鎖等,0,2024-03-07,2024-03-01,株式会社生活の杜,,株式会社,静岡県,沼津市,岡宮１０１２番地の１,,22,203,4100011,,,2024-03-01,合併による解散等,9080101017555,令和６年３月１日静岡県沼津市岡宮１０１２番地の１株式会社フレミア（9080101017555）に合併し解散,2021-10-18,1,,,,,セイカツノモリ,0
1609,6120001138284,登記記録の閉鎖等,0,2024-03-07,2024-03-01,スクデット株式会社,,株式会社,大阪府,大阪市中央区,法円坂１丁目２－７,,27,128,5400006,,,2024-03-01,合併による解散等,3120001086379,令和６年３月１日大阪市中央区法円坂一丁目２番７号ニスクジャパン株式会社（3120001086379）に合併し解散,2015-10-05,1,,,,,スクデット,0
1618,6120003025415,登記記録の閉鎖等,0,2024-03-07,2024-03-04,合同会社黒船,,合同会社,大阪府,大阪市天王寺区,空堀町１２番１２－３０６号,,27,109,5430012,,,2024-03-04,清算の結了等,,,2023-11-27,1,,,,,クロフネ,0
1629,6140001042047,登記記録の閉鎖等,0,2024-03-07,2024-03-01,株式会社オギノ商事,,株式会社,兵庫県,丹波市,市島町上牧９１５番地２,,28,223,6694317,,,2024-03-01,清算の結了等,,,2015-10-05,1,,,,,,0
1647,6180001121417,登記記録の閉鎖等,0,2024-03-07,2024-03-01,株式会社ＭＡＣ,,株式会社,愛知県,名古屋市天白区,植田３丁目１３０３番地,,23,116,4680051,,,2024-03-01,清算の結了等,,,2015-12-21,1,,,,,マック,0
1655,6180302001961,登記記録の閉鎖等,0,2024-03-07,2024-03-01,ＵｎｉｖｅｒｓａｌＷｉｌｌアセット株式会社,,株式会社,愛知県,岡崎市,若松東２丁目２番地６,,23,202,4440822,,,2024-03-01,合併による解散等,2180301003574,令和６年３月１日愛知県岡崎市若松東二丁目２番地６ＵｎｉｖｅｒｓａｌＷｉｌｌ株式会社（2180301003574）に合併し解散,2015-10-05,1,,,,,ユニバーサルウィルアセット,0
1699,6340002023901,登記記録の閉鎖等,0,2024-03-07,2024-03-04,有限会社北新工業,,有限会社,鹿児島県,枕崎市,大塚西町９１番地,,46,204,8980027,,,2024-03-04,清算の結了等,,,2015-10-05,1,,,,,ホクシンコウギョウ,0
1705,6380001024905,登記記録の閉鎖等,0,2024-03-07,2024-03-04,相双復興株式会社,,株式会社,福島県,相馬市,馬場野字山越５番地,,07,209,9760036,,,2024-03-04,清算の結了等,,,2015-10-05,1,,,,,ソウソウフッコウ,0
1711,6400002012278,登記記録の閉鎖等,0,2024-03-07,2024-03-01,有限会社コスモ創健,,有限会社,岩手県,二戸市,浄法寺町小泉８５番地１１,,03,213,0286921,,,2024-03-01,清算の結了等,,,2015-10-05,1,,,,,コスモソウケン,0
1724,6460401000324,登記記録の閉鎖等,0,2024-03-07,2024-03-04,株式会社ｉＫ,,株式会社,北海道,根室市,西浜町１０丁目１７８番地,,01,223,0870025,,,2024-03-04,清算の結了等,,,2015-10-05,1,,,,,アイケー,0
1746,7010401047822,登記記録の閉鎖等,0,2024-03-07,2024-03-04,株式会社クレタパブリッシング,,株式会社,東京都,港区,芝大門２丁目１０番１２号,,13,103,1050012,,,2024-03-04,清算の結了等,,,2015-10-05,1,,,,,クレタパブリッシング,0
1755,7010402018995,登記記録の閉鎖等,0,2024-03-07,2024-02-27,有限会社アイルコンサルタンツ,,有限会社,東京都,港区,赤坂４丁目１３番５号赤坂オフィスハイツ１４７号,,13,103,1070052,,,2024-02-27,清算の結了等,,,2015-10-05,1,,,,,アイルコンサルタンツ,0
1761,7010502015983,登記記録の閉鎖等,0,2024-03-07,2024-02-29,有限会社良染,,有限会社,東京都,台東区,浅草橋３丁目７番８号,,13,106,1110053,,,2024-02-29,清算の結了等,,,2015-10-05,1,,,,,リョウセン,0
1771,7010901038882,登記記録の閉鎖等,0,2024-03-07,2024-03-05,株式会社ＫＵＢＯＴＡ,,株式会社,東京都,世田谷区,桜新町２丁目１８番１６号アクロポリス４０５,,13,112,1540015,,,2024-03-05,清算の結了等,,,2016-10-11,1,,,,,クボタ,0
1776,7011001149678,登記記録の閉鎖等,0,2024-03-07,2024-03-05,株式会社ＴＳ,,株式会社,東京都,渋谷区,東１丁目２２番４号,,13,113,1500011,,,2024-03-05,清算の結了等,,,2022-09-08,1,,,,,ティーエス,0
1790,7011602007276,登記記録の閉鎖等,0,2024-03-07,2024-03-04,有限会社トシ空調サービス,,有限会社,東京都,練馬区,石神井台２丁目１４番１７号,,13,120,1770045,,,2024-03-04,清算の結了等,,,2015-10-05,1,,,,,トシクウチョウサービス,0
1810,7020001079389,登記記録の閉鎖等,0,2024-03-07,2024-03-01,株式会社テンライフプランニング,,株式会社,神奈川県,川崎市宮前区,けやき平９番１－４０１号,,14,136,2160023,,,2024-03-01,清算の結了等,,,2015-10-05,1,,,,,テンライフプランニング,0
1826,7030001126677,登記記録の閉鎖等,0,2024-03-07,2024-03-04,松本工業株式会社,,株式会社,埼玉県,児玉郡神川町,大字八日市９５８番地１１,,11,383,3670244,,,2024-03-04,清算の結了等,,,2018-07-20,1,,,,,マツモトコウギョウ,0
1839,7040001023270,登記記録の閉鎖等,0,2024-03-07,2024-03-04,株式会社なか工業,,株式会社,千葉県,船橋市,滝台町１０７番４８－２０５,,12,204,2740075,,,2024-03-04,清算の結了等,,,2015-10-05,1,,,,,ナカコウギョウ,0
1842,7040001088082,登記記録の閉鎖等,0,2024-03-07,2024-03-04,後藤工業株式会社,,株式会社,千葉県,流山市,大字流山９４７番地の４,,12,220,2700164,,,2024-03-04,清算の結了等,,,2015-10-05,1,,,,,,0
1858,7080101007178,登記記録の閉鎖等,0,2024-03-07,2024-03-04,株式会社ＨＥＡＲＴＳ,,株式会社,神奈川県,横浜市都筑区,中川中央１丁目２３－３,,14,118,2240003,,,2024-03-04,清算の結了等,,,2015-10-05,1,,,,,ハーツ,0
1862,7080402000154,登記記録の閉鎖等,0,2024-03-07,2024-03-05,有限会社アイティーティー,,有限会社,静岡県,浜松市中央区,湖東町６０８２番地の２,,22,138,4311103,,,2024-03-05,清算の結了等,,,2015-10-05,1,,,,,アイティーティー,0
1872,7120001113212,登記記録の閉鎖等,0,2024-03-07,2024-03-01,株式会社ＧＥマネージャーズ,,株式会社,兵庫県,宝塚市,雲雀丘１丁目７番１９号,,28,214,6650805,,,2024-03-01,合併による解散等,2140001129178,令和６年３月１日兵庫県宝塚市雲雀丘一丁目７番１９号Ｓｕｎ　Ｌａｐｉｎ’ｓ株式会社（2140001129178）に合併し解散,2015-10-05,1,,,,,ジーイーマネージャーズ,0
1896,7130001025547,登記記録の閉鎖等,0,2024-03-07,2024-03-04,株式会社ティープラン,,株式会社,京都府,京都市中京区,西ノ京星池町１７５柴田ビル１Ｆ,,26,104,6048416,,,2024-03-04,清算の結了等,,,2015-10-05,1,,,,,,0
1920,7180001018967,登記記録の閉鎖等,0,2024-03-07,2024-03-01,株式会社宇佐美製菓,,株式会社,愛知県,名古屋市中川区,外新町４丁目２３番地,,23,110,4540053,,,2024-03-01,合併による解散等,5180001030825,令和６年３月１日名古屋市中川区富田町大字千音寺字西尼ヶ塚２０２番地株式会社鈴木商会（5180001030825）に合併し解散,2015-10-05,1,,,,,ウサミセイカ,0
1922,7180001035145,登記記録の閉鎖等,0,2024-03-07,2024-03-04,株式会社カトウ,,株式会社,愛知県,名古屋市中区,大須４丁目９番７４号,,23,106,4600011,,,2024-03-04,清算の結了等,,,2015-10-05,1,,,,,カトウ,0
1925,7180001146017,登記記録の閉鎖等,0,2024-03-07,2024-03-01,ラスニア株式会社,,株式会社,愛知県,名古屋市昭和区,鶴舞４丁目１６番１１号アリビオ鶴舞６０４号,,23,107,4660064,,,2024-03-01,合併による解散等,5180001141688,令和６年３月１日名古屋市昭和区鶴舞三丁目１６番２８号朝香ツルマイビル２階Ｂ株式会社中部労働衛生コンサルタント事務所（5180001141688）に合併し解散,2021-05-11,1,,,,,ラスニア,0
1929,7180002077913,登記記録の閉鎖等,0,2024-03-07,2024-03-01,有伸電設有限会社,,有限会社,愛知県,一宮市,東両郷町３０番地の２,,23,203,4910021,,,2024-03-01,清算の結了等,,,2015-10-05,1,,,,,ユウシンデンセツ,0
1934,7180305004333,登記記録の閉鎖等,0,2024-03-07,2024-03-04,豊橋機械器具工業協同組合,,その他の設立登記法人,愛知県,豊川市,御津町佐脇浜二号地１番１９,,23,207,4410304,,,2024-03-04,清算の結了等,,,2015-10-05,1,,,,,トヨハシキカイキグコウギョウ,0
1950,7230002003946,登記記録の閉鎖等,0,2024-03-07,2024-03-05,有限会社ラフィネ総曲輪,,有限会社,富山県,富山市,越前町３番１３号,,16,201,9300067,,,2024-03-05,清算の結了等,,,2015-10-05,1,,,,,ラフィネソウガワ,0
1961,7290001057335,登記記録の閉鎖等,0,2024-03-07,2024-02-28,株式会社ＭＯＷＭＯＷ,,株式会社,福岡県,福岡市博多区,博多駅前１丁目１５－２０ＮＭＦ博多駅前ビル２階,,40,132,8120011,,,2024-02-28,合併による解散等,5290003007645,令和６年２月２７日福岡市中央区天神一丁目１番１号アクロス福岡１Ｆ福岡商事株式会社（5290003007645）に合併し解散,2015-10-05,1,,,,,モウモウ,0
1967,7290801009221,登記記録の閉鎖等,0,2024-03-07,2024-03-04,嶋本運送株式会社物流部,,株式会社,福岡県,遠賀郡遠賀町,大字尾崎１７１２番地３５,,40,384,8114342,,,2024-03-04,清算の結了等,,,2015-10-05,1,,,,,シマモトウンソウブツリュウブ,0
1969,7300002011421,登記記録の閉鎖等,0,2024-03-07,2024-03-04,有限会社小松建設,,有限会社,佐賀県,唐津市,相知町平山上乙９６７番地５,,41,202,8493203,,,2024-03-04,清算の結了等,,,2015-10-05,1,,,,,コマツケンセツ,0
1976,7330001027184,登記記録の閉鎖等,0,2024-03-07,2024-03-01,株式会社防犯防災システム,,株式会社,熊本県,熊本市中央区,帯山２丁目１３番７６号,,43,101,8620924,,,2024-03-01,清算の結了等,,,2020-02-05,1,,,,,ボウハンボウサイシステム,0
1981,7330003006137,登記記録の閉鎖等,0,2024-03-07,2024-03-01,合同会社新都不動産,,合同会社,熊本県,熊本市中央区,中央街４－２２,,43,101,8600802,,,2024-03-01,合併による解散等,5330003004720,令和６年３月１日熊本市中央区新大江三丁目２番５０号合同会社桜花不動産（5330003004720）に合併し解散,2015-10-05,1,,,,,シントフドウサン,0
1985,7350001004198,登記記録の閉鎖等,0,2024-03-07,2024-03-04,株式会社綾ストアー,,株式会社,宮崎県,東諸県郡綾町,大字南俣４８８番地１,,45,383,8801303,,,2024-03-04,清算の結了等,,,2015-10-05,1,,,,,アヤストアー,0
2005,7470003000662,登記記録の閉鎖等,0,2024-03-07,2024-03-04,合同会社讃建,,合同会社,香川県,仲多度郡まんのう町,吉野２２１４番地１,,37,406,7660023,,,2024-03-04,清算の結了等,,,2015-10-05,1,,,,,サンケン,0
2024,8010002033279,登記記録の閉鎖等,0,2024-03-07,2024-03-04,有限会社ファミリイ商会,,有限会社,東京都,江東区,有明２丁目１番２－３２１号,,13,108,1350063,,,2024-03-04,清算の結了等,,,2015-10-05,1,,,,,ファミリイショウカイ,0
2025,8010002045134,登記記録の閉鎖等,0,2024-03-07,2024-03-01,株式会社海遊山楽ゆう飯田橋,,株式会社,東京都,千代田区,富士見２丁目６番１０号,,13,101,1020071,,,2024-03-01,清算の結了等,,,2015-10-05,1,,,,,カイユウサンラクユウイイダバシ,0
2032,8010401130767,登記記録の閉鎖等,0,2024-03-07,2024-03-04,株式会社エアネスト,,株式会社,東京都,港区,六本木２丁目２番６号福吉町ビル６階,,13,103,1060032,,,2024-03-04,清算の結了等,,,2017-04-12,1,,,,,エアネスト,0
2036,8010401164922,登記記録の閉鎖等,0,2024-03-07,2024-03-01,株式会社コマーステクノロジー,,株式会社,東京都,港区,芝公園２丁目４番１号芝パークビル,,13,103,1050011,,,2024-03-01,合併による解散等,6010401091648,令和６年３月１日東京都港区芝公園二丁目４番１号芝パークビル株式会社エスキュービズム（6010401091648）に合併し解散,2022-01-14,1,,,,,コマーステクノロジー,0
2037,8010401167280,登記記録の閉鎖等,0,2024-03-07,2024-03-01,株式会社ＢｕｙＢｕｙ,,株式会社,東京都,港区,芝公園２丁目４番１号芝パークビル,,13,103,1050011,,,2024-03-01,合併による解散等,6010401091648,令和６年３月１日東京都港区芝公園二丁目４番１号芝パークビル株式会社エスキュービズム（6010401091648）に合併し解散,2022-05-12,1,,,,,バイバイ,0
2046,8010602001503,登記記録の閉鎖等,0,2024-03-07,2024-03-04,有限会社加藤商店,,有限会社,東京都,江東区,豊洲４丁目７番７号,,13,108,1350061,,,2024-03-04,清算の結了等,,,2015-10-05,1,,,,,カトウショウテン,0
2052,8010802018545,登記記録の閉鎖等,0,2024-03-07,2024-03-01,有限会社ワイ企画,,有限会社,東京都,大田区,上池台３丁目１２番８号,,13,111,1450064,,,2024-03-01,合併による解散等,6010802019850,令和６年３月１日東京都大田区上池台三丁目１２番８号株式会社ＯＦＦＩＣＥ　ＴＯＫＵＨＡＲＡ（6010802019850）に合併し解散,2015-10-05,1,,,,,ワイキカク,0
2058,8011001141056,登記記録の閉鎖等,0,2024-03-07,2024-03-05,株式会社ＸＥＸＴＥＲ,,株式会社,東京都,渋谷区,渋谷２丁目１０番６号,,13,113,1500002,,,2024-03-05,清算の結了等,,,2021-06-14,1,,,,,ゼクスター,0
2072,8011401005579,登記記録の閉鎖等,0,2024-03-07,2024-03-01,株式会社フロンティア,,株式会社,東京都,板橋区,成増２丁目１９番４号,,13,119,1750094,,,2024-03-01,合併による解散等,1011401011154,令和６年３月１日東京都板橋区成増二丁目１９番４号株式会社マルエス（1011401011154）に合併し解散,2015-10-05,1,,,,,フロンティア,0
2103,8021003011578,登記記録の閉鎖等,0,2024-03-07,2024-03-06,合同会社多摩ランドリー,,合同会社,神奈川県,相模原市緑区,東橋本２丁目２３番２号,,14,151,2520144,,,2024-03-06,清算の結了等,,,2022-04-11,1,,,,,タマランドリー,0
2138,8080002014801,登記記録の閉鎖等,0,2024-03-07,2024-03-01,有限会社朝日商事,,有限会社,静岡県,牧之原市,須々木２６３３番地の９２,,22,226,4210524,,,2024-03-01,清算の結了等,,,2015-10-05,1,,,,,アサヒショウジ,0
2147,8080402016190,登記記録の閉鎖等,0,2024-03-07,2024-03-06,有限会社サンデン,,有限会社,静岡県,浜松市浜名区,三ヶ日町三ヶ日４０１番地の１,,22,139,4311414,,,2024-03-06,清算の結了等,,,2015-10-05,1,,,,,サンデン,0
2152,8120001084147,登記記録の閉鎖等,0,2024-03-07,2024-03-01,株式会社グリーン経営コンサルタント,,株式会社,大阪府,大阪市中央区,石町２丁目１番７－７０５号,,27,128,5400033,,,2024-03-01,合併による解散等,6120001078547,令和６年３月１日大阪市中央区石町二丁目１番７－７０５号株式会社グリーンモータープール（6120001078547）に合併し解散,2015-10-05,1,,,,,グリーンケイエイコンサルタント,0
2178,8130001041345,登記記録の閉鎖等,0,2024-03-07,2024-03-04,株式会社マルヨシクリーニング,,株式会社,京都府,福知山市,昭和町９９番地の１,,26,201,6200052,,,2024-03-04,清算の結了等,,,2015-10-05,1,,,,,,0
2191,8140001084112,登記記録の閉鎖等,0,2024-03-07,2024-03-04,株式会社めんこいちゃぺ,,株式会社,兵庫県,宝塚市,花屋敷荘園４丁目７番１１号,,28,214,6650802,,,2024-03-04,清算の結了等,,,2015-10-05,1,,,,,メンコイチャペ,0
2197,8140002023713,登記記録の閉鎖等,0,2024-03-07,2024-02-28,有限会社福島流通システム,,有限会社,兵庫県,神戸市西区,前開南町１丁目７番地１２,,28,111,6512109,,,2024-02-28,清算の結了等,,,2015-10-05,1,,,,,フクシマリュウツウシステム,0
2208,8170001010098,登記記録の閉鎖等,0,2024-03-07,2024-03-01,大洋樹脂工業株式会社,,株式会社,和歌山県,御坊市,島５８４番地,,30,205,6440003,,,2024-03-01,合併による解散等,2170001010095,令和６年３月１日和歌山県御坊市島５８４番地大洋化学株式会社（2170001010095）に合併し解散,2015-10-05,1,,,,,タイヨウジュシコウギョウ,0
2212,8180001099809,登記記録の閉鎖等,0,2024-03-07,2024-03-01,株式会社ＳＫＫＺＥＲＯ,,株式会社,愛知県,津島市,杁前町４丁目１８番地１,,23,208,4960033,,,2024-03-01,清算の結了等,,,2015-10-05,1,,,,,エスケイケイゼロ,0
2232,8200001027766,登記記録の閉鎖等,0,2024-03-07,2024-03-06,株式会社Ｅ＆Ｃ　ｉｎｎｏｖａｔｉｏｎ,,株式会社,岐阜県,岐阜市,山吹町６丁目２９番地２,,21,201,5020905,,,2024-03-06,清算の結了等,,,2015-10-05,1,,,,,,0
2237,8200001032667,登記記録の閉鎖等,0,2024-03-07,2024-03-05,鷲見裁断縫製部株式会社,,株式会社,岐阜県,岐阜市,西改田上の町１１３番地３,,21,201,5011168,,,2024-03-05,清算の結了等,,,2016-03-11,1,,,,,スミサイダンホウセイブ,0
2250,8260005005135,登記記録の閉鎖等,0,2024-03-07,2024-03-06,井原機械工業協同組合,,その他の設立登記法人,岡山県,井原市,上出部町４３１番地の３,,33,207,7150021,,,2024-03-06,清算の結了等,,,2015-10-05,1,,,,,イバラキカイコウギョウ,0
2267,8290801012686,登記記録の閉鎖等,0,2024-03-07,2024-03-04,株式会社進栄検査,,株式会社,福岡県,北九州市八幡東区,荒手２丁目１３番１８号,,40,108,8050001,,,2024-03-04,清算の結了等,,,2015-10-05,1,,,,,シンエイケンサ,0
2289,8420001007457,登記記録の閉鎖等,0,2024-03-07,2024-03-01,株式会社岡沼漁業,,株式会社,青森県,八戸市,新湊３丁目９番２号,,02,203,0310811,,,2024-03-01,合併による解散等,7420002006442,令和６年３月１日青森県八戸市新湊三丁目９番２号株式会社オカヌマ（7420002006442）に合併し解散,2015-10-05,1,,,,,オカヌマギョギョウ,0
2290,8470001005340,登記記録の閉鎖等,0,2024-03-07,2024-03-05,株式会社和泉建設,,株式会社,香川県,高松市,香南町由佐３４９番地５,,37,201,7611402,,,2024-03-05,清算の結了等,,,2015-10-05,1,,,,,イズミケンセツ,0
2311,9010003038284,登記記録の閉鎖等,0,2024-03-07,2024-02-29,合同会社ＫＲＦ１００,,合同会社,東京都,千代田区,内幸町２丁目１番６号,,13,101,1000011,,,2024-02-29,清算の結了等,,,2022-07-28,1,,,,,ケイアールエフヒャク,0
2318,9010401130469,登記記録の閉鎖等,0,2024-03-07,2024-03-01,金発科技ＪＡＰＡＮ株式会社,,株式会社,東京都,港区,新橋５丁目１３番１０号ＶＯＲＴ新橋ＮＥＸ７階,,13,103,1050004,,,2024-03-01,清算の結了等,,,2017-03-28,1,,,,,キンハツカギジャパン,0
2330,9010601040690,登記記録の閉鎖等,0,2024-03-07,2024-03-01,株式会社ＬＩＸＩＬウィンドウプロダクツ,,株式会社,東京都,品川区,西品川１丁目１番１号大崎ガーデンタワー,,13,109,1410033,,,2024-03-01,合併による解散等,5010601004914,令和６年３月１日東京都品川区西品川一丁目１番１号大崎ガーデンタワー株式会社ＬＩＸＩＬ（5010601004914）に合併し解散,2015-10-05,1,,,,,リクシルウィンドウプロダクツ,0
2357,9011301013565,登記記録の閉鎖等,0,2024-03-07,2024-02-28,オラトリオ・ジャパン株式会社,,株式会社,東京都,杉並区,宮前２丁目１６番２１－３１２号,,13,115,1680081,,,2024-02-28,清算の結了等,,,2015-10-05,1,,,,,オラトリオジャパン,0
2358,9011601020435,登記記録の閉鎖等,0,2024-03-07,2024-03-05,ＣＴＥキャピタルアンドコンサルティング株式会社,,株式会社,東京都,練馬区,向山３丁目１８番２号,,13,120,1760022,,,2024-03-05,清算の結了等,,,2015-10-23,1,,,,,シーティーイーキャピタルアンドコンサルティング,0
2383,9020002065758,登記記録の閉鎖等,0,2024-03-07,2024-03-04,有限会社オフィスケーツー,,有限会社,神奈川県,横浜市港南区,大久保２丁目１８番１－３０２号,,14,111,2330007,,,2024-03-04,清算の結了等,,,2015-10-05,1,,,,,オフィスケーツー,0
2390,9021003005281,登記記録の閉鎖等,0,2024-03-07,2024-03-05,合同会社ＭＯＭＥＮＴＵＭ,,合同会社,神奈川県,茅ヶ崎市,中海岸３丁目４番１９号,,14,207,2530055,,,2024-03-05,清算の結了等,,,2015-10-05,1,,,,,モーメンタム,0
2396,9030001028715,登記記録の閉鎖等,0,2024-03-07,2024-03-04,株式会社エスアンドエスデベロップメント,,株式会社,埼玉県,入間市,大字下藤沢６１５番地,,11,225,3580011,,,2024-03-04,合併による解散等,9030001026999,令和６年３月１日埼玉県入間市大字下藤沢６１５番地株式会社霜原産業（9030001026999）に合併し解散,2015-10-05,1,,,,,エスアンドエスデベロップメント,0
2409,9040002001926,登記記録の閉鎖等,0,2024-03-07,2024-03-01,有限会社エヌ・イー・アグロジャパン,,有限会社,千葉県,千葉市若葉区,御成台２丁目２０番地の６,,12,104,2650077,,,2024-03-01,清算の結了等,,,2015-10-05,1,,,,,エヌイーアグロジャパン,0
2417,9070001014182,登記記録の閉鎖等,0,2024-03-07,2024-03-01,株式会社神倉硝子玉村,,株式会社,群馬県,佐波郡玉村町,大字樋越１４１７番地,,10,464,3701103,,,2024-03-01,合併による解散等,1070001013514,令和６年３月１日群馬県伊勢崎市富塚町１１１番地１株式会社大建アルミ商工（1070001013514）に合併し解散,2015-10-05,1,,,,,カミクラガラスタマムラ,0
2442,9120001124117,登記記録の閉鎖等,0,2024-03-07,2024-02-26,株式会社ＮＯＷ＆ＴＨＥＮ,,株式会社,大阪府,大阪市北区,西天満３丁目８番７号,,27,127,5300047,,,2024-02-26,清算の結了等,,,2015-10-05,1,,,,,ナウアンドゼン,0
2443,9120001126204,登記記録の閉鎖等,0,2024-03-07,2024-03-04,株式会社真栄,,株式会社,大阪府,守口市,南寺方北通２丁目２番１３号,,27,209,5700046,,,2024-03-04,清算の結了等,,,2015-10-05,1,,,,,シンエイ,0
2454,9120101033572,登記記録の閉鎖等,0,2024-03-07,2024-03-06,垣内熔工建鉄株式会社,,株式会社,大阪府,河内長野市,高向１６８番地の１,,27,216,5860036,,,2024-03-06,清算の結了等,,,2015-10-05,1,,,,,カキウチヨウコウケンテツ,0
2460,9120901043151,登記記録の閉鎖等,0,2024-03-07,2024-03-06,株式会社百桜,,株式会社,大阪府,箕面市,桜１丁目１１番４号,,27,220,5620041,,,2024-03-06,清算の結了等,,,2020-09-03,1,,,,,サクラ,0
2470,9140001055855,登記記録の閉鎖等,0,2024-03-07,2024-03-01,株式会社ＫＫＳシステム,,株式会社,兵庫県,豊岡市,中陰３１８番地の９,,28,209,6680013,,,2024-03-01,清算の結了等,,,2015-10-05,1,,,,,ケーケーエスシステム,0
2491,9180003018955,登記記録の閉鎖等,0,2024-03-07,2024-03-04,合同会社ファーストステップ,,合同会社,愛知県,名古屋市中村区,香取町２丁目１番地の３,,23,105,4530055,,,2024-03-04,合併による解散等,6180001073328,令和６年３月１日名古屋市東区橦木町二丁目１５番地株式会社ギークス（6180001073328）に合併し解散,2018-05-25,1,,,,,ファーストステップ,0
2494,9190001003058,登記記録の閉鎖等,0,2024-03-07,2024-03-01,株式会社ＭＥＲＩＴ,,株式会社,三重県,津市,庄田町３１１９番地５,,24,201,5141255,,,2024-03-01,清算の結了等,,,2015-10-05,1,,,,,メリット,0
2501,9200005003366,登記記録の閉鎖等,0,2024-03-07,2024-03-06,岐阜ファッションロード協同組合,,その他の設立登記法人,岐阜県,瑞穂市,美江寺５１１番地５,,21,216,5010312,,,2024-03-06,清算の結了等,,,2015-10-05,1,,,,,ギフファッションロード,0
2502,9210001017212,登記記録の閉鎖等,0,2024-03-07,2024-02-26,ＣＫライン株式会社,,株式会社,福井県,あわら市,二面１丁目４０５番地,,18,208,9104103,,,2024-02-26,清算の結了等,,,2018-07-06,1,,,,,シーケーライン,0
2518,9280001006051,登記記録の閉鎖等,0,2024-03-07,2024-03-06,株式会社ワイズ企画,,株式会社,島根県,雲南市,吉田町吉田２７１１番地１５,,32,209,6902801,,,2024-03-06,清算の結了等,,,2015-10-05,1,,,,,ワイズキカク,0
2523,9290001073900,登記記録の閉鎖等,0,2024-03-07,2024-03-01,エスディーフーズ株式会社,,株式会社,福岡県,福岡市博多区,半道橋１丁目３番４６号,,40,132,8120897,,,2024-03-01,合併による解散等,1290001023904,令和６年３月１日福岡市博多区半道橋一丁目３番４６号進電テクノロジー株式会社（1290001023904）に合併し解散,2016-05-11,1,,,,,エスディーフーズ,0
2525,9290805003458,登記記録の閉鎖等,0,2024-03-07,2024-03-01,美萩野レジデンス管理組合法人,,その他の設立登記法人,福岡県,北九州市小倉北区,片野４丁目４番１７－３０２号,,40,106,8020064,,,2024-03-01,清算の結了等,,,2015-10-05,1,,,,,ミハギノレジデンス,0
2526,9300002010586,登記記録の閉鎖等,0,2024-03-07,2024-03-04,有限会社花菱,,有限会社,佐賀県,唐津市,魚屋町２０３１番１,,41,202,8470042,,,2024-03-04,清算の結了等,,,2015-10-05,1,,,,,ハナビシ,0
2533,9320001007912,登記記録の閉鎖等,0,2024-03-07,2024-03-04,宇佐ホテル実業株式会社,,株式会社,大分県,宇佐市,大字別府字瀬社６番地,,44,211,8790462,,,2024-03-04,清算の結了等,,,2015-10-05,1,,,,,ウサホテルジツギョウ,0
2534,9330001021771,登記記録の閉鎖等,0,2024-03-07,2024-03-04,株式会社あんしん企画,,株式会社,熊本県,荒尾市,一部２０４６番地２,,43,204,8640021,,,2024-03-04,清算の結了等,,,2015-10-05,1,,,,,アンシンキカク,0
2546,9370002017971,登記記録の閉鎖等,0,2024-03-07,2024-03-04,有限会社伊達の,,有限会社,宮城県,仙台市宮城野区,扇町２丁目２番４４号,,04,102,9830034,,,2024-03-04,清算の結了等,,,2015-10-05,1,,,,,ダテノ,0
2552,9390002001156,登記記録の閉鎖等,0,2024-03-07,2024-02-29,有限会社酒井電気,,有限会社,山形県,山形市,大字上東山５３９番地,,06,201,9902241,,,2024-02-29,清算の結了等,,,2015-10-05,1,,,,,サカイデンキ,0
2558,9430001023799,登記記録の閉鎖等,0,2024-03-07,2024-02-28,丸ミ宮村商事株式会社,,株式会社,北海道,札幌市東区,北十五条東３丁目２番４５号,,01,103,0650015,,,2024-02-28,清算の結了等,,,2015-10-05,1,,,,,マルミミヤムラショウジ,0
2562,9480002006187,登記記録の閉鎖等,0,2024-03-07,2024-03-05,有限会社青葉ハウジング,,有限会社,徳島県,徳島市,中島田町３丁目３７番地７,,36,201,7700052,,,2024-03-05,清算の結了等,,,2015-10-05,1,,,,,アオバハウジング,0
