sequenceNumber,corporateNumber,process,correct,updateDate,changeDate,name,nameImageId,kind,prefectureName,cityName,streetNumber,addressImageId,prefectureCode,cityCode,postCode,addressOutside,addressOutsideImageId,closeDate,closeCause,successorCorporateNumber,changeCause,assignmentDate,latest,enName,enPrefectureName,enCityName,enAddressOutside,furigana,hihyoji
3,1010001261481,新規,0,2026-01-06,2026-01-06,株式会社ウィズココ,,株式会社,東京都,千代田区,神田神保町２丁目１０番地３１ＩＷビル１Ｆ,,13,101,1010051,,,,,,,2026-01-06,1,,,,,ウィズココ,0
4,1010001261580,新規,0,2026-01-06,2026-01-06,Ｍｉｎｋａ　Ｈｏｕｓｅ株式会社,,株式会社,東京都,中央区,銀座８丁目１８番３号銀座加藤ビル２階,,13,102,1040061,,,,,,,2026-01-06,1,,,,,ミンカハウス,0
8,1010101017032,新規,0,2026-01-06,2026-01-06,ＳＴＡＩＲＳ株式会社,,株式会社,東京都,八王子市,西寺方町１０１９番地９４,,13,201,1920153,,,,,,,2026-01-06,1,,,,,ステアーズ,0
17,1010401195123,新規,0,2026-01-06,2026-01-06,株式会社パシフィックセキュリティカウンシル,,株式会社,東京都,港区,六本木１丁目４番５号アークヒルズサウスタワー６階,,13,103,1060032,,,,,,,2026-01-06,1,,,,,パシフィックセキュリティカウンシル,0
18,1010401195437,新規,0,2026-01-06,2026-01-06,ＯＨＭ株式会社,,株式会社,東京都,港区,北青山１丁目３番１号アールキューブ青山３階,,13,103,1070061,,,,,,,2026-01-06,1,,,,,オーム,0
20,1010403036952,新規,0,2026-01-06,2026-01-06,合同会社ｅｓｐｏｉｒ,,合同会社,東京都,港区,浜松町２丁目２番１５号浜松町ダイヤビル２Ｆ,,13,103,1050013,,,,,,,2026-01-06,1,,,,,エスポワール,0
26,1010705003840,新規,0,2026-01-06,2026-01-06,一般社団法人ブンジ,,その他の設立登記法人,東京都,品川区,上大崎３丁目１番１号目黒セントラルスクエア１５階,,13,109,1410021,,,,,,,2026-01-06,1,,,,,ブンジ,0
27,1010801036918,新規,0,2026-01-06,2026-01-06,太洋塗料商事株式会社,,株式会社,東京都,大田区,東糀谷６丁目４番１８号,,13,111,1440033,,,,,,,2026-01-06,1,,,,,タイヨウトリョウショウジ,0
31,1010901058746,新規,0,2026-01-06,2026-01-06,株式会社Ｇｏｏｄ　Ｌｉｆｅ　Ｃｏｍｐａｎｙ,,株式会社,東京都,世田谷区,北沢２丁目３０番６号コーポＭＫ１０１,,13,112,1550031,,,,,,,2026-01-06,1,,,,,グッドライフカンパニー,0
40,1011001174624,新規,0,2026-01-06,2026-01-06,ＴＵＭＵＧＵ株式会社,,株式会社,東京都,渋谷区,笹塚１丁目５８－７－１３０３,,13,113,1510073,,,,,,,2026-01-06,1,,,,,ツムグ,0
41,1011001174707,新規,0,2026-01-06,2026-01-06,株式会社ＵＮＦＡＬＬＩＮＧ,,株式会社,東京都,渋谷区,道玄坂１丁目１０番８号渋谷道玄坂東急ビル２Ｆ―Ｃ,,13,113,1500043,,,,,,,2026-01-06,1,,,,,アンフォーリング,0
45,1011003023242,新規,0,2026-01-06,2026-01-06,合同会社ＲＩＣＨＡＲＤ,,合同会社,東京都,渋谷区,恵比寿１丁目３１－３,,13,113,1500013,,,,,,,2026-01-06,1,,,,,リチャード,0
46,1011005011303,新規,0,2026-01-06,2026-01-06,特定非営利活動法人Ｃｏｒａｌ　Ｆｒｉｅｎｄｓ,,その他の設立登記法人,東京都,渋谷区,神南１丁目１１－４ＦＰＧリンクス神南５階,,13,113,1500041,,,,,,,2026-01-06,1,,,,,,0
51,1011201026880,新規,0,2026-01-06,2026-01-06,Ｙｏｕｒ　Ｎｅｗ　Ｆａｖｏｒｉｔｅ株式会社,,株式会社,東京都,中野区,上鷺宮５丁目８番５号,,13,114,1650031,,,,,,,2026-01-06,1,,,,,ユアニューフェイバリット,0
57,1011701029045,新規,0,2026-01-06,2026-01-06,Ｍａｎａｓｌｕホールディングス株式会社,,株式会社,東京都,江戸川区,中央４丁目１１番８号,,13,123,1320021,,,,,,,2026-01-06,1,,,,,マナスルホールディングス,0
60,1012401043963,新規,0,2026-01-06,2026-01-06,株式会社Ｃ＆Ｊ,,株式会社,東京都,府中市,宮西町１丁目１８番地の６ライオンズステージ府中シティタワー２６０７,,13,206,1830022,,,,,,,2026-01-06,1,,,,,シーアンドジェイ,0
61,1012801024448,新規,0,2026-01-06,2026-01-06,株式会社新道,,株式会社,東京都,立川市,砂川町１丁目６４番地の１７,,13,202,1900031,,,,,,,2026-01-06,1,,,,,シンドウ,0
66,1020001166473,新規,0,2026-01-06,2026-01-06,株式会社ＲＯＫＡ　Ｅｎｔｅｒｐｒｉｓｅ,,株式会社,神奈川県,横浜市鶴見区,北寺尾３丁目１５番Ｄ－１０５号,,14,101,2300074,,,,,,,2026-01-06,1,,,,,ロカエンタープライズ,0
67,1020001166531,新規,0,2026-01-06,2026-01-06,株式会社片山こどもアカデミー,,株式会社,神奈川県,横浜市神奈川区,六角橋１丁目２番８－１０１号,,14,102,2210802,,,,,,,2026-01-06,1,,,,,カタヤマコドモアカデミー,0
72,1020003030058,新規,0,2026-01-06,2026-01-06,合同会社フォーモルフォ,,合同会社,神奈川県,横浜市鶴見区,東寺尾北台１２－４,,14,101,2300016,,,,,,,2026-01-06,1,,,,,フォーモルフォ,0
73,1020005017103,新規,0,2026-01-06,2026-01-06,一般社団法人東洋医学周産期ケア研究会,,その他の設立登記法人,神奈川県,横浜市中区,花咲町１丁目５番地第一東商ビル７０４号,,14,104,2310063,,,,,,,2026-01-06,1,,,,,トウヨウイガクシュウサンキケアケンキュウカイ,0
81,1030003028365,新規,0,2026-01-06,2026-01-06,合同会社エムケースリー,,合同会社,埼玉県,川口市,前川２丁目４４番８号,,11,203,3330842,,,,,,,2026-01-06,1,,,,,エムケースリー,0
86,1040001141986,新規,0,2026-01-06,2026-01-06,株式会社匠クリエイト,,株式会社,千葉県,千葉市若葉区,千城台北３丁目９番６号ハイムベルツリー２０２号,,12,104,2640005,,,,,,,2026-01-06,1,,,,,タクミクリエイト,0
90,1040003029180,新規,0,2026-01-06,2026-01-06,合同会社オオスガ,,合同会社,千葉県,白井市,復９６０番地,,12,232,2701422,,,,,,,2026-01-06,1,,,,,オオスガ,0
91,1040005022976,新規,0,2026-01-06,2026-01-06,特定非営利活動法人パスチェンジ,,その他の設立登記法人,千葉県,佐倉市,大蛇町５８２番地８,,12,212,2850043,,,,,,,2026-01-06,1,,,,,パスチェンジ,0
93,1060001038891,新規,0,2026-01-06,2026-01-06,株式会社マナカ,,株式会社,栃木県,宇都宮市,下河原１丁目１番３２号,,09,201,3200824,,,,,,,2026-01-06,1,,,,,マナカ,0
94,1060001038900,新規,0,2026-01-06,2026-01-06,株式会社ＡＬＰＨＡ,,株式会社,栃木県,佐野市,大橋町３２３５番地３５,,09,204,3270003,,,,,,,2026-01-06,1,,,,,アルファ,0
97,1070001043701,新規,0,2026-01-06,2026-01-06,株式会社ウッドプランナー,,株式会社,群馬県,佐波郡玉村町,大字角渕４６３２番地５,,10,464,3701124,,,,,,,2026-01-06,1,,,,,ウッドプランナー,0
98,1080001027356,新規,0,2026-01-06,2026-01-06,株式会社ＭａｏＮ,,株式会社,静岡県,静岡市葵区,緑町４番２６号,,22,101,4200844,,,,,,,2026-01-06,1,,,,,マオン,0
100,1080103003494,新規,0,2026-01-06,2026-01-06,合同会社ＳＫビジネス,,合同会社,静岡県,田方郡函南町,丹那７０４番地２,,22,325,4190105,,,,,,,2026-01-06,1,,,,,エスケービジネス,0
101,1080403005422,新規,0,2026-01-06,2026-01-06,合同会社渥美総合研究所,,合同会社,静岡県,浜松市中央区,泉３丁目４番８号,,22,138,4338124,,,,,,,2026-01-06,1,,,,,アツミソウゴウケンキュウジョ,0
102,1100001039233,新規,0,2026-01-06,2026-01-06,株式会社Ｔｒｙ　Ｉｔ,,株式会社,長野県,長野市,大字小柴見３９９番地１,,20,201,3800942,,,,,,,2026-01-06,1,,,,,トライイット,0
104,1110003006016,新規,0,2026-01-06,2026-01-06,合同会社ＰＯＷＥＲ,,合同会社,新潟県,南魚沼市,六日町１４０１番地４ＭＦビルＩＩＩ３階,00142048,15,226,9496680,,,,,,,2026-01-06,1,,,,,パワー,0
115,1120001283044,新規,0,2026-01-06,2026-01-06,株式会社Ｗｈａｔ’ｓ,,株式会社,大阪府,大阪市北区,梅田１丁目２番２号大阪駅前第２ビル１２－１２,,27,127,5300001,,,,,,,2026-01-06,1,,,,,ワッツ,0
116,1120001283143,新規,0,2026-01-06,2026-01-06,株式会社ビッグラピッツ,,株式会社,大阪府,枚方市,東香里新町４番２号,,27,210,5730077,,,,,,,2026-01-06,1,,,,,ビッグラピッツ,0
117,1120001283192,新規,0,2026-01-06,2026-01-06,雪之千株式会社,,株式会社,大阪府,大阪市城東区,東中浜６丁目１０番１６－２０１号,,27,118,5360023,,,,,,,2026-01-06,1,,,,,ユキノセン,0
118,1120001283218,新規,0,2026-01-06,2026-01-06,株式会社モルフェ,,株式会社,大阪府,大阪市中央区,南船場４丁目１０番５号,,27,128,5420081,,,,,,,2026-01-06,1,,,,,モルフェ,0
121,1120003031582,新規,0,2026-01-06,2026-01-06,合同会社ＴＡＲＰ,,合同会社,大阪府,大阪市北区,鶴野町４－１１朝日プラザ梅田４０４,,27,127,5300014,,,,,,,2026-01-06,1,,,,,タープ,0
122,1120003031590,新規,0,2026-01-06,2026-01-06,天満技術合同会社,,合同会社,大阪府,大阪市北区,本庄西２丁目８番１９－４０１号,,27,127,5310073,,,,,,,2026-01-06,1,,,,,テンマギジュツ,0
124,1120905006822,新規,0,2026-01-06,2026-01-06,一般社団法人大阪いばらきホッケークラブ,,その他の設立登記法人,大阪府,吹田市,千里丘上３６番３－６０６号,,27,205,5650811,,,,,,,2026-01-06,1,,,,,オオサカイバラキホッケークラブ,0
134,1140001141200,新規,0,2026-01-06,2026-01-06,株式会社サーマルサイエンス,,株式会社,兵庫県,神戸市東灘区,住吉本町３丁目４番４７号Ａ－１８０２号,,28,101,6580051,,,,,,,2026-01-06,1,,,,,サーマルサイエンス,0
135,1140001141258,新規,0,2026-01-06,2026-01-06,株式会社ｓｔａｎｄｏｕｔ,,株式会社,兵庫県,芦屋市,宮塚町３番４号ＡＩ宮川ビル１０２,,28,206,6590062,,,,,,,2026-01-06,1,,,,,スタンドアウト,0
136,1140001141274,新規,0,2026-01-06,2026-01-06,株式会社上枝工務店,,株式会社,兵庫県,三田市,池尻１８８番地２,,28,219,6691548,,,,,,,2026-01-06,1,,,,,ウエエダコウムテン,0
153,1160001027331,新規,0,2026-01-06,2026-01-06,株式会社Ａｕｒｅｌｉａ,,株式会社,滋賀県,大津市,南小松１０９６番地の１,,25,201,5200502,,,,,,,2026-01-06,1,,,,,アウレリア,0
159,1180001170121,新規,0,2026-01-06,2026-01-06,株式会社ＲＩＳＥ　ＷＯＲＫＳ,,株式会社,愛知県,日進市,三本木町廻間６番地,,23,230,4700101,,,,,,,2026-01-06,1,,,,,ライズワークス,0
160,1180001170138,新規,0,2026-01-06,2026-01-06,Ａ‐Ｆａｍｉｌｉａ株式会社,,株式会社,愛知県,名古屋市天白区,植田１丁目２１１６番地（８８ビルディング５０３号）,,23,116,4680051,,,,,,,2026-01-06,1,,,,,エーファミリア,0
169,1190003005316,新規,0,2026-01-06,2026-01-06,合同会社ノレンラボ,,合同会社,三重県,伊賀市,上神戸１０６１番地,,24,216,5180116,,,,,,,2026-01-06,1,,,,,ノレンラボ,0
174,1240001066008,新規,0,2026-01-06,2026-01-06,株式会社Ｍ＆Ｍ,,株式会社,広島県,広島市佐伯区,三宅１丁目３番３８－１０１号,,34,108,7315143,,,,,,,2026-01-06,1,,,,,エムアンドエム,0
175,1250003003874,新規,0,2026-01-06,2026-01-06,合同会社ＢＲＡＣＡ‐ＪＡＰＡＮ,,合同会社,山口県,宇部市,南小串２丁目２－７キャッスル小串２０５,,35,202,7550046,,,,,,,2026-01-06,1,,,,,ブレスジャパン,0
179,1260001040860,新規,0,2026-01-06,2026-01-06,株式会社ｔｈｅ　Ｎｉｔｔｙ　Ｇｒｉｔｔｙ,,株式会社,岡山県,岡山市北区,出石町２丁目１－３,,33,101,7000812,,,,,,,2026-01-06,1,,,,,ザニッティグリッティ,0
180,1260003005465,新規,0,2026-01-06,2026-01-06,真名子運送合同会社,,合同会社,岡山県,津山市,領家３８６番地,,33,203,7094611,,,,,,,2026-01-06,1,,,,,マナゴウンソウ,0
193,1290001112640,新規,0,2026-01-06,2026-01-06,Ｉｎｔｅｇｒａｔｉｏｎ　Ｐａｒｔｎｅｒｓ株式会社,,株式会社,福岡県,福岡市中央区,薬院２丁目６－２２エスペランサ薬院５０２,,40,133,8100022,,,,,,,2026-01-06,1,,,,,インテグレーションパートナーズ,0
197,1290003017887,新規,0,2026-01-06,2026-01-06,合同会社Ｉ．Ｆ,,合同会社,福岡県,福岡市南区,若久５丁目３８番１７号,,40,134,8150042,,,,,,,2026-01-06,1,,,,,アイエフ,0
208,1350001019879,新規,0,2026-01-06,2026-01-06,明大パートナーズ株式会社,,株式会社,宮崎県,宮崎市,高千穂通１丁目６番３２号ＭＤビル２０１号,,45,201,8800812,,,,,,,2026-01-06,1,,,,,メイダイパートナーズ,0
209,1350005006345,新規,0,2026-01-06,2026-01-06,医療法人社団彩り会,,その他の設立登記法人,宮崎県,都城市,郡元町２７１６番地１,,45,202,8850013,,,,,,,2026-01-06,1,,,,,イロドリカイ,0
214,1390001018200,新規,0,2026-01-06,2026-01-06,株式会社ＦＥＥＴ,,株式会社,山形県,鶴岡市,西京田６８番地３,,06,203,9970055,,,,,,,2026-01-06,1,,,,,フィート,0
216,1410001014353,新規,0,2026-01-06,2026-01-06,株式会社縁ＹＯＵ,,株式会社,秋田県,大仙市,佐野町１９番１０号レオネクストＭ５５－１０５,,05,212,0140017,,,,,,,2026-01-06,1,,,,,,0
226,1430001095945,新規,0,2026-01-06,2026-01-06,株式会社ホパリス,,株式会社,北海道,札幌市中央区,南十条西１４丁目１番２５号,,01,101,0640810,,,,,,,2026-01-06,1,,,,,ホパリス,0
227,1430001095961,新規,0,2026-01-06,2026-01-06,株式会社合掌,,株式会社,北海道,北広島市,大曲４０４番地,,01,234,0611270,,,,,,,2026-01-06,1,,,,,ガッショウ,0
230,1430003018466,新規,0,2026-01-06,2026-01-06,サンリエホーム合同会社,,合同会社,北海道,石狩市,花川北二条３丁目６３番地,,01,235,0613212,,,,,,,2026-01-06,1,,,,,サンリエホーム,0
235,1480003002366,新規,0,2026-01-06,2026-01-06,合同会社山本林業,,合同会社,徳島県,阿波市,市場町犬墓字大北２７９番地１,,36,206,7711614,,,,,,,2026-01-06,1,,,,,ヤマモトリンギョウ,0
239,1500001026703,新規,0,2026-01-06,2026-01-06,Ｐｒｉｍａ　Ｂａｌｌｅｔ株式会社,,株式会社,愛媛県,松山市,千舟町５丁目２‐１３,,38,201,7900011,,,,,,,2026-01-06,1,,,,,プリマバレエ,0
241,1500003003650,新規,0,2026-01-06,2026-01-06,合同会社Ａｘｉｏｍ,,合同会社,愛媛県,松山市,朝美２丁目６番１５号,,38,201,7918023,,,,,,,2026-01-06,1,,,,,アクシオム,0
256,2010001261547,新規,0,2026-01-06,2026-01-06,Ｎｅｘｔｍｏｖｅ　Ｊａｐａｎ株式会社,,株式会社,東京都,中央区,築地２丁目１１番１２号グリーンパーク銀座デ・プレ３０２,,13,102,1040045,,,,,,,2026-01-06,1,,,,,ネクストムーブジャパン,0
257,2010001261605,新規,0,2026-01-06,2026-01-06,株式会社ＲＳＫ,,株式会社,東京都,文京区,西片２丁目７番１３－２０２号,,13,105,1130024,,,,,,,2026-01-06,1,,,,,アールエスケー,0
259,2010101017023,新規,0,2026-01-06,2026-01-06,日本ＪＰＥ精工株式会社,,株式会社,東京都,八王子市,寺町４３－９中銀八王子マンシオン２０２号室,,13,201,1920073,,,,,,,2026-01-06,1,,,,,ニホンジェーピーイーセイコウ,0
260,2010103002717,新規,0,2026-01-06,2026-01-06,Ｉｍｐｏｒｔ　ｍａｓｔｅｒ合同会社,,合同会社,東京都,八王子市,寺町４３－９中銀八王子マンシオン２０２号室,,13,201,1920073,,,,,,,2026-01-06,1,,,,,インポートマスター,0
270,2010501055234,新規,0,2026-01-06,2026-01-06,株式会社福住,,株式会社,東京都,台東区,上野桜木２丁目１６番５号,,13,106,1100002,,,,,,,2026-01-06,1,,,,,フクズミ,0
276,2010701048839,新規,0,2026-01-06,2026-01-06,株式会社Ｆａｉｓｅ,,株式会社,東京都,品川区,大井４丁目１８番２５－１０１号,,13,109,1400014,,,,,,,2026-01-06,1,,,,,フェイズ,0
282,2011003023241,新規,0,2026-01-06,2026-01-06,合同会社ＥｐｉＬａｂ,,合同会社,東京都,渋谷区,道玄坂１丁目１０番８号渋谷道玄坂東急ビル２Ｆ－Ｃ,,13,113,1500043,,,,,,,2026-01-06,1,,,,,エピラボ,0
288,2011401027694,新規,0,2026-01-06,2026-01-06,株式会社Ａｖｅｓｔａ,,株式会社,東京都,板橋区,四葉１丁目２１番１１号,,13,119,1750084,,,,,,,2026-01-06,1,,,,,アヴェスタ,0
293,2011803007245,新規,0,2026-01-06,2026-01-06,Ｌｉｎｋａｇｅ合同会社,,合同会社,東京都,足立区,興野２丁目７番６号,,13,121,1230844,,,,,,,2026-01-06,1,,,,,リンケージ,0
294,2012401043962,新規,0,2026-01-06,2026-01-06,ｓｙｎｃｘ株式会社,,株式会社,東京都,小金井市,本町５丁目３５－２,,13,210,1840004,,,,,,,2026-01-06,1,,,,,シンクス,0
297,2012801024439,新規,0,2026-01-06,2026-01-06,株式会社ＳＵＧＡＲ,,株式会社,東京都,立川市,曙町２丁目３２番３号サンパレス立川２０１,,13,202,1900012,,,,,,,2026-01-06,1,,,,,シュガー,0
299,2013301055536,新規,0,2026-01-06,2026-01-06,株式会社Ｇｌｏｗｔａｓ,,株式会社,東京都,豊島区,東池袋２丁目６２番８号ＢＩＧオフィスプラザ池袋１２０６,,13,116,1700013,,,,,,,2026-01-06,1,,,,,グロウタス,0
300,2013303008038,新規,0,2026-01-06,2026-01-06,合同会社トレーディングワン,,合同会社,東京都,豊島区,東池袋２丁目６２番８号ＢＩＧオフィスプラザ池袋１２０６,,13,116,1700013,,,,,,,2026-01-06,1,,,,,トレーディングワン,0
301,2013303008046,新規,0,2026-01-06,2026-01-06,合同会社アサギスタジオ,,合同会社,東京都,豊島区,東池袋２丁目６２番８号ＢＩＧオフィスプラザ池袋１２０６,,13,116,1700013,,,,,,,2026-01-06,1,,,,,アサギスタジオ,0
311,2020001166472,新規,0,2026-01-06,2026-01-06,株式会社ライズプラス,,株式会社,神奈川県,横浜市港北区,篠原東２丁目１番７号,,14,109,2220022,,,,,,,2026-01-06,1,,,,,ライズプラス,0
312,2020001166489,新規,0,2026-01-06,2026-01-06,株式会社ｘＡＩ　Ｇｒｏｗｔｈ　Ｐａｒｔｎｅｒｓ,,株式会社,神奈川県,横浜市青葉区,桂台２丁目３７－５９,,14,117,2270034,,,,,,,2026-01-06,1,,,,,クロスエーアイグロースパートナーズ,0
313,2020001166497,新規,0,2026-01-06,2026-01-06,株式会社タクミ,,株式会社,神奈川県,横浜市南区,白妙町１丁目１番４８グレイス４０２号,,14,105,2320023,,,,,,,2026-01-06,1,,,,,タクミ,0
314,2020001166514,新規,0,2026-01-06,2026-01-06,上林株式会社,,株式会社,神奈川県,横浜市港北区,新横浜３丁目２４番１１号ユニオンビル,,14,109,2220033,,,,,,,2026-01-06,1,,,,,カンバヤシ,0
315,2020001166530,新規,0,2026-01-06,2026-01-06,株式会社創幹,,株式会社,神奈川県,横浜市港南区,野庭町２７番地４３,,14,111,2340056,,,,,,,2026-01-06,1,,,,,ソウカン,0
335,2030003028323,新規,0,2026-01-06,2026-01-06,合同会社梅桃,,合同会社,埼玉県,大里郡寄居町,大字桜沢４７５８,,11,408,3691202,,,,,,,2026-01-06,1,,,,,ユスラウメ,0
336,2030005022373,新規,0,2026-01-06,2026-01-06,一般財団法人メンタルヘルス臨床研究支援財団,,その他の設立登記法人,埼玉県,飯能市,大字矢颪４１５番地,,11,209,3570042,,,,,,,2026-01-06,1,,,,,メンタルヘルスリンショウケンキュウシエンザイダン,0
349,2050001057784,新規,0,2026-01-06,2026-01-06,株式会社リリー,,株式会社,茨城県,つくば市,倉掛８０５番地７,,08,220,3050024,,,,,,,2026-01-06,1,,,,,リリー,0
353,2060001038899,新規,0,2026-01-06,2026-01-06,株式会社野進建設,,株式会社,栃木県,宇都宮市,茂原１丁目１番９号和泉ハイツ１Ｆ,,09,201,3210145,,,,,,,2026-01-06,1,,,,,ヤシンケンセツ,0
357,2080101025993,新規,0,2026-01-06,2026-01-06,株式会社スタートウェイ,,株式会社,静岡県,富士宮市,富士見ケ丘１５４４番地,,22,207,4180014,,,,,,,2026-01-06,1,,,,,スタートウェイ,0
359,2100001039249,新規,0,2026-01-06,2026-01-06,株式会社トータルファサード,,株式会社,長野県,諏訪市,大字上諏訪１３３０９番地２２,,20,206,3920003,,,,,,,2026-01-06,1,,,,,トータルファサード,0
360,2100003008549,新規,0,2026-01-06,2026-01-06,合同会社ＴＡＭＡＩ　ＷＩＮＥ,,合同会社,長野県,上水内郡飯綱町,大字川上２０３１番地２,,20,590,3891226,,,,,,,2026-01-06,1,,,,,タマイワイン,0
362,2110003006023,新規,0,2026-01-06,2026-01-06,コジロウファーム合同会社,,合同会社,新潟県,上越市,板倉区稲増１５１番地１２,,15,222,9440101,,,,,,,2026-01-06,1,,,,,コジロウファーム,0
372,2120001283002,新規,0,2026-01-06,2026-01-06,株式会社智恵,,株式会社,大阪府,大阪市中央区,南船場３丁目１１番１０号ＴＨＥＨＵＢ心斎橋Ｂ１階,,27,128,5420081,,,,,,,2026-01-06,1,,,,,チエ,0
373,2120001283068,新規,0,2026-01-06,2026-01-06,株式会社ＳＮＡＣＫ　ＶＥＲＳＥ,,株式会社,大阪府,大阪市生野区,巽東４丁目１番４号,,27,116,5440014,,,,,,,2026-01-06,1,,,,,スナックバース,0
374,2120001283092,新規,0,2026-01-06,2026-01-06,株式会社サンコネクト,,株式会社,大阪府,大阪市北区,天満橋１丁目１２番２２号キャビン天神橋３０２,,27,127,5300042,,,,,,,2026-01-06,1,,,,,サンコネクト,0
375,2120001283167,新規,0,2026-01-06,2026-01-06,株式会社ＮＩＳＨＩＫＩ,,株式会社,大阪府,大阪市中央区,南船場３丁目６番５号１Ｆ,,27,128,5420081,,,,,,,2026-01-06,1,,,,,ニシキ,0
378,2120003031499,新規,0,2026-01-06,2026-01-06,唯誠合同会社,,合同会社,大阪府,大阪市旭区,大宮１丁目１５番２１号ピエ・タ・テール大宮４０１号室,,27,117,5350002,,,,,,,2026-01-06,1,,,,,ユイセイ,0
379,2120003031623,新規,0,2026-01-06,2026-01-06,合同会社ＯＴＮ,,合同会社,大阪府,大阪市住之江区,安立１丁目１３番１３号,,27,125,5590003,,,,,,,2026-01-06,1,,,,,オーティーエヌ,0
380,2120005025326,新規,0,2026-01-06,2026-01-06,一般社団法人日本シニアリビング協会,,その他の設立登記法人,大阪府,大阪市北区,梅田２丁目２番２号ヒルトンプラザウエストオフィスタワー１９階,,27,127,5300001,,,,,,,2026-01-06,1,,,,,ニホンシニアリビングキョウカイ,0
394,2130001081330,新規,0,2026-01-06,2026-01-06,株式会社宮由紀,,株式会社,京都府,京都市東山区,大和大路通四条上る二筋目東入末吉町８０番１１,,26,105,6050000,,,,,,,2026-01-06,1,,,,,ミユキ,0
440,2160001027330,新規,0,2026-01-06,2026-01-06,株式会社まるとみ,,株式会社,滋賀県,草津市,笠山６丁目６番２４号,,25,206,5250072,,,,,,,2026-01-06,1,,,,,マルトミ,0
443,2170003002363,新規,0,2026-01-06,2026-01-06,合同会社Ａ’ｓ,,合同会社,和歌山県,和歌山市,太田１丁目５番２－５０５号,,30,201,6408323,,,,,,,2026-01-06,1,,,,,エース,0
446,2180001170038,新規,0,2026-01-06,2026-01-06,株式会社Ａｌｉｇｎｍｅｎｔ　Ｄｅｓｉｇｎ,,株式会社,愛知県,名古屋市西区,平中町３３８トゥールヴァンテアン２０５,,23,104,4520843,,,,,,,2026-01-06,1,,,,,アライメントデザイン,0
447,2180001170046,新規,0,2026-01-06,2026-01-06,株式会社みーしー,,株式会社,愛知県,名古屋市中区,栄２丁目２番１号広小路伏見中駒ビル２Ｆ－９,,23,106,4600008,,,,,,,2026-01-06,1,,,,,ミーシー,0
449,2180003029579,新規,0,2026-01-06,2026-01-06,合同会社夢工房Ｈｉｒｏｋｏ,,合同会社,愛知県,長久手市,山桶８１９番地,,23,238,4801164,,,,,,,2026-01-06,1,,,,,ユメコウボウヒロコ,0
454,2190003005315,新規,0,2026-01-06,2026-01-06,合同会社Ｙ’ｓ,,合同会社,三重県,松阪市,愛宕町１丁目３２番地川岸ビル１Ａ,,24,204,5150037,,,,,,,2026-01-06,1,,,,,ワイズ,0
460,2200005013834,新規,0,2026-01-06,2026-01-06,特定非営利活動法人こどもと子育ての杜,,その他の設立登記法人,岐阜県,岐阜市,須賀３丁目２３番１５号アヴェニールエムズ１０２,,21,201,5008289,,,,,,,2026-01-06,1,,,,,コドモトコソダテノモリ,0
463,2210001020437,新規,0,2026-01-06,2026-01-06,株式会社梛,,株式会社,福井県,敦賀市,鋳物師町３番２７,,18,202,9140805,,,,,,,2026-01-06,1,,,,,ナギ,0
471,2280001009564,新規,0,2026-01-06,2026-01-06,ワイドプラス株式会社,,株式会社,島根県,大田市,大田町大田イ３０９番地２,,32,205,6940064,,,,,,,2026-01-06,1,,,,,ワイドプラス,0
477,2290001112648,新規,0,2026-01-06,2026-01-06,株式会社Ｓ‐ｓｔｙｌｅ,,株式会社,福岡県,大野城市,山田３丁目４番２号,,40,219,8160922,,,,,,,2026-01-06,1,,,,,エススタイル,0
478,2290003017894,新規,0,2026-01-06,2026-01-06,Ｌｉｆｅ　Ｓｗｉｔｃｈ合同会社,,合同会社,福岡県,宗像市,須恵４丁目１番３号,,40,220,8113405,,,,,,,2026-01-06,1,,,,,ライフスイッチ,0
479,2290005019922,新規,0,2026-01-06,2026-01-06,特定非営利活動法人ｗｉｔｈ　ａｔｈｌｅｔｅ,,その他の設立登記法人,福岡県,福岡市中央区,薬院３丁目１番２０号,,40,133,8100022,,,,,,,2026-01-06,1,,,,,ウィズアスリート,0
480,2290801032137,新規,0,2026-01-06,2026-01-06,株式会社Ｒｉｚｔｉｇｒｅ,,株式会社,福岡県,北九州市八幡東区,竹下町１２番７号,,40,108,8050022,,,,,,,2026-01-06,1,,,,,リズティグル,0
481,2290805009899,新規,0,2026-01-06,2026-01-06,行政書士法人ＫＧＪ法務事務所,,その他の設立登記法人,福岡県,北九州市八幡西区,樋口町３番６－２０２号,,40,109,8060048,,,,,,,2026-01-06,1,,,,,ケイジイジェイホウムジムショ,0
482,2300001014462,新規,0,2026-01-06,2026-01-06,株式会社鶴田土木,,株式会社,佐賀県,三養基郡上峰町,大字坊所６８５番地３,,41,345,8490123,,,,,,,2026-01-06,1,,,,,ツルダドボク,0
484,2320005010282,新規,0,2026-01-06,2026-01-06,一般社団法人喜くらげ研究所,,その他の設立登記法人,大分県,中津市,大字今津９４４番地１,,44,203,8790101,,,,,,,2026-01-06,1,,,,,キクラゲケンキュウショ,0
485,2330001033880,新規,0,2026-01-06,2026-01-06,株式会社ＹＳＫ,,株式会社,熊本県,菊池市,旭志伊坂字山ノ上５３９－３,,43,210,8691206,,,,,,,2026-01-06,1,,,,,ワイエスケイ,0
486,2330003011380,新規,0,2026-01-06,2026-01-06,合同会社ｅａｓｔ　ｐｌｕｓ,,合同会社,熊本県,山鹿市,中６７７番地２,,43,208,8610531,,,,,,,2026-01-06,1,,,,,イーストプラス,0
487,2330005011008,新規,0,2026-01-06,2026-01-06,一般社団法人心アミロイドーシスコンソーシアム,,その他の設立登記法人,熊本県,熊本市中央区,本荘１丁目１番１号,,43,101,8600811,,,,,,,2026-01-06,1,,,,,シンアミロイドーシスコンソーシアム,0
489,2340001027881,新規,0,2026-01-06,2026-01-06,株式会社中山商事,,株式会社,鹿児島県,鹿児島市,東坂元４丁目３６番１８号,,46,201,8920861,,,,,,,2026-01-06,1,,,,,ナカヤマショウジ,0
491,2350001019878,新規,0,2026-01-06,2026-01-06,株式会社ＥＬＥＭＥＮＴ,,株式会社,宮崎県,宮崎市,橘通西３丁目１０番２４号竹原第３ビル６階Ａ・Ｂ室,,45,201,8800001,,,,,,,2026-01-06,1,,,,,エレメント,0
499,2430001095960,新規,0,2026-01-06,2026-01-06,ＳＩＡ株式会社,,株式会社,北海道,札幌市中央区,南一条西５丁目１９番地１,,01,101,0600061,,,,,,,2026-01-06,1,,,,,シア,0
501,2480001013050,新規,0,2026-01-06,2026-01-06,ＮＡＣ株式会社,,株式会社,徳島県,板野郡北島町,北村字千田ノ木５４番地１,,36,402,7710201,,,,,,,2026-01-06,1,,,,,エヌエーシー,0
503,2480003002365,新規,0,2026-01-06,2026-01-06,合同会社ＮＥＸＴ　ＩＮＮＯＶＡＴＩＯＮ,,合同会社,徳島県,阿南市,上中町中原２２番地２,,36,204,7740044,,,,,,,2026-01-06,1,,,,,ネクストイノベーション,0
505,2500001026702,新規,0,2026-01-06,2026-01-06,株式会社海誠,,株式会社,愛媛県,宇和島市,丸穂町３丁目２番１９号,,38,203,7980037,,,,,,,2026-01-06,1,,,,,カイセイ,0
517,3010001261579,新規,0,2026-01-06,2026-01-06,Ｓｏｆｉａ株式会社,,株式会社,東京都,中央区,銀座１丁目２２番１１号銀座大竹ビジデンス２Ｆ,,13,102,1040061,,,,,,,2026-01-06,1,,,,,ソフィア,0
518,3010001261604,新規,0,2026-01-06,2026-01-06,ＡＩ　Ｔｅｃｈ　Ｉｓｈｉｋａｒｉ株式会社,,株式会社,東京都,千代田区,大手町１丁目５番１号大手町ファーストスクエアイーストタワー４階,,13,101,1000004,,,,,,,2026-01-06,1,,,,,エーアイテックイシカリ,0
522,3010005041151,新規,0,2026-01-06,2026-01-06,一般社団法人ＣＨＩＣＡＧＯ,,その他の設立登記法人,東京都,中央区,新川１丁目１７番１８号,,13,102,1040033,,,,,,,2026-01-06,1,,,,,シカゴ,0
523,3010101017030,新規,0,2026-01-06,2026-01-06,ＧＲＩＤ　ＥＤＧＥ株式会社,,株式会社,東京都,八王子市,散田町５丁目１９番２号,,13,201,1930832,,,,,,,2026-01-06,1,,,,,グリッドエッジ,0
531,3010403036991,新規,0,2026-01-06,2026-01-06,合同会社０１,,合同会社,東京都,港区,北青山１丁目３－３三橋ビル３階,,13,103,1070061,,,,,,,2026-01-06,1,,,,,ゼロイチ,0
537,3010703008063,新規,0,2026-01-06,2026-01-06,ブンジ合同会社,,合同会社,東京都,品川区,上大崎３丁目１番１号目黒セントラルスクエア１５階,,13,109,1410021,,,,,,,2026-01-06,1,,,,,ブンジ,0
546,3011001174606,新規,0,2026-01-06,2026-01-06,株式会社ＴＳスタイル,,株式会社,東京都,渋谷区,神宮前６丁目２９番３号,,13,113,1500001,,,,,,,2026-01-06,1,,,,,,0
547,3011001174622,新規,0,2026-01-06,2026-01-06,株式会社ト喜,,株式会社,東京都,目黒区,三田２丁目１６番３－４１０号目黒コーポビアネーズ,,13,110,1530062,,,,,,,2026-01-06,1,,,,,トキ,0
551,3011103016887,新規,0,2026-01-06,2026-01-06,合同会社Ｋｙｏｔｏ　Ｈｅｒｉｔａｇｅ　Ｐｒｏｐｅｒｔｙ　Ｈｏｌｄｉｎｇ,,合同会社,東京都,新宿区,四谷２丁目９番地１５東京ユナイテッド綜合事務所内,,13,104,1600004,,,,,,,2026-01-06,1,,,,,キョウトヘリテージプロパティホールディング,0
558,3011801047250,新規,0,2026-01-06,2026-01-06,株式会社蒼音技建,,株式会社,東京都,葛飾区,立石５丁目１１－８梅田コーポ３０２,,13,122,1240012,,,,,,,2026-01-06,1,,,,,アオトギケン,0
559,3011801047259,新規,0,2026-01-06,2026-01-06,株式会社ＡＪ,,株式会社,東京都,足立区,中川４丁目１０番３号,,13,121,1200002,,,,,,,2026-01-06,1,,,,,エージェイ,0
560,3011803007252,新規,0,2026-01-06,2026-01-06,合同会社ｆｌｏｗｅｌ,,合同会社,東京都,葛飾区,東金町６丁目２番１１－１０４号金町ガーデンハウス,,13,122,1250041,,,,,,,2026-01-06,1,,,,,フローウェル,0
561,3012403007543,新規,0,2026-01-06,2026-01-06,合同会社明月社,,合同会社,東京都,武蔵野市,吉祥寺東町３丁目２－７,,13,203,1800002,,,,,,,2026-01-06,1,,,,,メイゲツシャ,0
564,3012801024446,新規,0,2026-01-06,2026-01-06,株式会社亀石鉄鋼,,株式会社,東京都,日野市,万願寺３丁目３２番地の１６,,13,212,1910024,,,,,,,2026-01-06,1,,,,,カメイシテッコウ,0
565,3013301055535,新規,0,2026-01-06,2026-01-06,株式会社クリフジ,,株式会社,東京都,豊島区,池袋本町１丁目１７番４号,,13,116,1700011,,,,,,,2026-01-06,1,,,,,クリフジ,0
566,3013301055543,新規,0,2026-01-06,2026-01-06,株式会社Ｋ８７５,,株式会社,東京都,豊島区,西池袋１丁目４番１０号,,13,116,1710021,,,,,,,2026-01-06,1,,,,,ケーハチナナゴ,0
567,3013303008029,新規,0,2026-01-06,2026-01-06,合同会社ＣＫＦ,,合同会社,東京都,豊島区,南池袋２丁目４番３号,,13,116,1710022,,,,,,,2026-01-06,1,,,,,シーケーエフ,0
573,3020003030097,新規,0,2026-01-06,2026-01-06,ＧｒｉｔＢａｓｅ合同会社,,合同会社,神奈川県,横浜市西区,浅間町１丁目４番３号ウィザードビル４０２,,14,103,2200072,,,,,,,2026-01-06,1,,,,,グリットベース,0
574,3021003016986,新規,0,2026-01-06,2026-01-06,合同会社みる視る満たす,,合同会社,神奈川県,小田原市,荻窪７２７―２,,14,206,2500042,,,,,,,2026-01-06,1,,,,,ミルミルミタス,0
577,3030001170357,新規,0,2026-01-06,2026-01-06,ＨｕｒｕＨｕｒｕ株式会社,,株式会社,埼玉県,熊谷市,上之２００２番地６,,11,202,3600012,,,,,,,2026-01-06,1,,,,,フルフル,0
580,3030003028388,新規,0,2026-01-06,2026-01-06,合同会社Ｊｏｕｒ　ａ　Ｊｏｕｒ,,合同会社,埼玉県,日高市,大字栗坪４４６番地６,,11,242,3501245,,,,,,,2026-01-06,1,,,,,ジュールアジュール,0
584,3040001141968,新規,0,2026-01-06,2026-01-06,株式会社ｔａｓｕｔｏ　ｇａｒａｇｅ,,株式会社,千葉県,東金市,油井８０４番地２,,12,213,2830804,,,,,,,2026-01-06,1,,,,,タストガレージ,0
588,3040003029261,新規,0,2026-01-06,2026-01-06,合同会社ブレイングローアップ,,合同会社,千葉県,八千代市,緑が丘西２丁目９番１４コートグロワール２０１号室,,12,221,2760040,,,,,,,2026-01-06,1,,,,,ブレイングローアップ,0
593,3060001038898,新規,0,2026-01-06,2026-01-06,株式会社たまりん,,株式会社,栃木県,宇都宮市,針ヶ谷町１２２１番地１,,09,201,3210147,,,,,,,2026-01-06,1,,,,,タマリン,0
598,3080001027354,新規,0,2026-01-06,2026-01-06,株式会社ＷＡＶＥ,,株式会社,静岡県,牧之原市,片浜１２１６番地１,,22,226,4210511,,,,,,,2026-01-06,1,,,,,ウエーブ,0
603,3100002013796,新規,0,2026-01-06,2026-01-06,有限会社大日向工業,,有限会社,長野県,上田市,下室賀１０５７番地１,,20,203,3861542,,,,,,,2026-01-06,1,,,,,オオヒナタコウギョウ,0
604,3100003008548,新規,0,2026-01-06,2026-01-06,合同会社よきひ,,合同会社,長野県,東御市,加沢１２７１番地１,,20,219,3890514,,,,,,,2026-01-06,1,,,,,ヨキヒ,0
606,3110001039817,新規,0,2026-01-06,2026-01-06,株式会社ＹＯＫＥ,,株式会社,新潟県,新潟市東区,寺山１丁目１番４０号,,15,102,9500892,,,,,,,2026-01-06,1,,,,,ヨーク,0
615,3120001283075,新規,0,2026-01-06,2026-01-06,株式会社ＫｉｚｕＲ,,株式会社,大阪府,大阪市中央区,南久宝寺町３丁目４番１４号,,27,128,5410058,,,,,,,2026-01-06,1,,,,,キズル,0
616,3120001283109,新規,0,2026-01-06,2026-01-06,株式会社ＫＩＳココニア,,株式会社,大阪府,大阪市阿倍野区,北畠２丁目２番２３号,,27,119,5450035,,,,,,,2026-01-06,1,,,,,キスココニア,0
617,3120001283182,新規,0,2026-01-06,2026-01-06,ＡＭＥＴＳＵＣＨＩ株式会社,,株式会社,大阪府,大阪市北区,梅田１丁目１－３大阪駅前第３ビル２９階１－１－１号室,,27,127,5300001,,,,,,,2026-01-06,1,,,,,アメツチ,0
621,3120901052042,新規,0,2026-01-06,2026-01-06,株式会社美空,,株式会社,大阪府,摂津市,新在家１丁目１９番１７号,,27,224,5660055,,,,,,,2026-01-06,1,,,,,ミソラ,0
624,3122001040035,新規,0,2026-01-06,2026-01-06,株式会社華兆,,株式会社,大阪府,大東市,氷野４丁目８番７０９号,,27,218,5740062,,,,,,,2026-01-06,1,,,,,ハナチョウ,0
631,3130001081321,新規,0,2026-01-06,2026-01-06,株式会社ＢＥＮＴＯ,,株式会社,京都府,京都市山科区,川田清水焼団地町６－２－４０５,,26,110,6078322,,,,,,,2026-01-06,1,,,,,ベント,0
636,3130005017552,新規,0,2026-01-06,2026-01-06,一般財団法人惠明茶禅文化研究院,,その他の設立登記法人,京都府,宇治市,宇治妙楽１－１,,26,204,6110021,,,,,,,2026-01-06,1,,,,,ケイメイチャゼンブンカケンキュウイン,0
647,3140003023023,新規,0,2026-01-06,2026-01-06,ＯＧ　Ｉｎｔｅｒｎａｔｉｏｎａｌ合同会社,,合同会社,兵庫県,神戸市西区,伊川谷町有瀬４９１番地ハイツ神戸西３０１号室,,28,111,6512113,,,,,,,2026-01-06,1,,,,,オージーインターナショナル,0
648,3140003023031,新規,0,2026-01-06,2026-01-06,合同会社ＤＤＳ兵庫,,合同会社,兵庫県,西脇市,岡崎町２７９番地の１,,28,213,6770065,,,,,,,2026-01-06,1,,,,,ディーディーエスヒョウゴ,0
689,3170001018930,新規,0,2026-01-06,2026-01-06,株式会社ＧａｔｔｏＢｌｕ,,株式会社,和歌山県,和歌山市,雑賀崎１２９４番地,,30,201,6410062,,,,,,,2026-01-06,1,,,,,ガットブル,0
697,3180001170086,新規,0,2026-01-06,2026-01-06,株式会社ＬＲ,,株式会社,愛知県,春日井市,岩野町２丁目７番地２３,,23,206,4860805,,,,,,,2026-01-06,1,,,,,エルアール,0
698,3180001170128,新規,0,2026-01-06,2026-01-06,株式会社ネクストブリッジ,,株式会社,愛知県,春日井市,明知町８５５番地１,,23,206,4800303,,,,,,,2026-01-06,1,,,,,ネクストブリッジ,0
701,3180003029578,新規,0,2026-01-06,2026-01-06,合同会社ＦＨ　Ｓｙｓｔｅｍｓ　Ｅｍｂｅｄｄｅｄ,,合同会社,愛知県,名古屋市港区,名港１丁目１１番８－１,,23,111,4550037,,,,,,,2026-01-06,1,,,,,エフエイチシステムズエンベデッド,0
704,3200001044568,新規,0,2026-01-06,2026-01-06,株式会社中村建工,,株式会社,岐阜県,岐阜市,明神町１丁目５６番地,,21,201,5020922,,,,,,,2026-01-06,1,,,,,ナカムラケンコウ,0
705,3200001044576,新規,0,2026-01-06,2026-01-06,株式会社いろは測量設計,,株式会社,岐阜県,岐阜市,茜部新所４丁目１４１番地１,,21,201,5008263,,,,,,,2026-01-06,1,,,,,イロハソクリョウセッケイ,0
706,3200003007184,新規,0,2026-01-06,2026-01-06,合同会社創ビジネスサポート,,合同会社,岐阜県,可児市,皐ケ丘９丁目１８６番地,,21,214,5090236,,,,,,,2026-01-06,1,,,,,ソウビジネスサポート,0
710,3240001065981,新規,0,2026-01-06,2026-01-06,株式会社暮らしとファームの杜,,株式会社,広島県,神石郡神石高原町,下豊松７２４番地,,34,545,7201704,,,,,,,2026-01-06,1,,,,,クラシトファームノモリ,0
712,3240003007544,新規,0,2026-01-06,2026-01-06,ウィアー合同会社,,合同会社,広島県,広島市安佐北区,可部４丁目１４番４３号,,34,106,7310221,,,,,,,2026-01-06,1,,,,,ウィアー,0
720,3260003005471,新規,0,2026-01-06,2026-01-06,Ｅｔｅｒｎａｌ合同会社,,合同会社,岡山県,倉敷市,玉島八島２７３番地,,33,202,7138113,,,,,,,2026-01-06,1,,,,,エターナル,0
739,3290001112630,新規,0,2026-01-06,2026-01-06,株式会社ＯＢＡＮ,,株式会社,福岡県,福岡市博多区,山王１丁目１１番３５号,,40,132,8120015,,,,,,,2026-01-06,1,,,,,オーバン,0
740,3290001112647,新規,0,2026-01-06,2026-01-06,株式会社ＳＡＩＮＴ,,株式会社,福岡県,福岡市博多区,中洲１丁目８－１１ＰＡＲＡＣＩＴＹ博多ビルＥ店舗,,40,132,8100801,,,,,,,2026-01-06,1,,,,,セント,0
741,3290001112655,新規,0,2026-01-06,2026-01-06,エネルギーバンク株式会社,,株式会社,福岡県,福岡市中央区,渡辺通１丁目１―１サンセルコビル３Ｆ,,40,133,8100004,,,,,,,2026-01-06,1,,,,,エネルギーバンク,0
742,3290001112671,新規,0,2026-01-06,2026-01-06,株式会社ＦＡＭ,,株式会社,福岡県,福岡市博多区,博多駅前１丁目２３番２号ＰａｒｋＦｒｏｎｔ博多駅前１丁目５Ｆ－Ｂ,,40,132,8120011,,,,,,,2026-01-06,1,,,,,ファム,0
744,3300001014461,新規,0,2026-01-06,2026-01-06,株式会社ふじ原青果,,株式会社,佐賀県,佐賀市,兵庫南２丁目４番１７号,,41,201,8490918,,,,,,,2026-01-06,1,,,,,フジワラセイカ,0
746,3320001021506,新規,0,2026-01-06,2026-01-06,株式会社Ａｒｂｒｅ,,株式会社,大分県,大分市,大字荏隈３３０番地の１１,,44,201,8700889,,,,,,,2026-01-06,1,,,,,アルブル,0
755,3360001036203,新規,0,2026-01-06,2026-01-06,津波レンタル株式会社,,株式会社,沖縄県,那覇市,古波蔵１丁目２１番５号,,47,201,9000024,,,,,,,2026-01-06,1,,,,,ツハレンタル,0
756,3360003015527,新規,0,2026-01-06,2026-01-06,合同会社Ｓｏｕｌ,,合同会社,沖縄県,那覇市,松山１丁目１３番８号ＴＡＰＳビル３Ｆ,,47,201,9000032,,,,,,,2026-01-06,1,,,,,ソウル,0
757,3370003007440,新規,0,2026-01-06,2026-01-06,合同会社山田資産管理,,合同会社,宮城県,仙台市若林区,沖野７丁目８－２０,,04,103,9840831,,,,,,,2026-01-06,1,,,,,ヤマダシサンカンリ,0
758,3380001035772,新規,0,2026-01-06,2026-01-06,アールアイン株式会社,,株式会社,福島県,いわき市,鹿島町米田字日渡５,,07,204,9718133,,,,,,,2026-01-06,1,,,,,アールアイン,0
765,3430001095984,新規,0,2026-01-06,2026-01-06,株式会社エイトレノホーム,,株式会社,北海道,札幌市白石区,北郷三条７丁目２番３号,,01,104,0030833,,,,,,,2026-01-06,1,,,,,エイトレノホーム,0
769,3460103001771,新規,0,2026-01-06,2026-01-06,ちいふく合同会社,,合同会社,北海道,帯広市,西二十一条南３丁目３６番７号,,01,207,0802471,,,,,,,2026-01-06,1,,,,,チイフク,0
791,4010001261504,新規,0,2026-01-06,2026-01-06,レヴィタス・ストラテジーズ株式会社,,株式会社,東京都,中央区,日本橋室町１丁目１１－１２,,13,102,1030022,,,,,,,2026-01-06,1,,,,,レヴィタスストラテジーズ,0
793,4010005041118,新規,0,2026-01-06,2026-01-06,一般社団法人ＲｅＳｔｏｒｙ,,その他の設立登記法人,東京都,千代田区,神田神保町２丁目１０－３１ＩＷビル１Ｆ,,13,101,1010051,,,,,,,2026-01-06,1,,,,,,0
794,4010005041142,新規,0,2026-01-06,2026-01-06,一般社団法人ＲＡＩＯＮ　ＣＡＰＩＴＡＬ３,,その他の設立登記法人,東京都,中央区,東日本橋３丁目９番２号サンクビル８階,,13,102,1030004,,,,,,,2026-01-06,1,,,,,ライオンキャピタルスリー,0
795,4010005041159,新規,0,2026-01-06,2026-01-06,一般社団法人日本シニアフューチャーデザイン協会,,その他の設立登記法人,東京都,中央区,銀座１丁目１２番４号Ｎ＆Ｅ・ＢＬＤ．６Ｆ,,13,102,1040061,,,,,,,2026-01-06,1,,,,,ニホンシニアフューチャーデザインキョウカイ,0
801,4010403036917,新規,0,2026-01-06,2026-01-06,合同会社Ｎｕｊｏｏｍ,,合同会社,東京都,港区,芝２丁目２６番８号金子ビル１Ｆ,,13,103,1050014,,,,,,,2026-01-06,1,,,,,ナジューム,0
805,4010601068506,新規,0,2026-01-06,2026-01-06,株式会社ＣｒｅＦ,,株式会社,東京都,江東区,有明１丁目２－１１ガレリアグランデ１２１２号,,13,108,1350063,,,,,,,2026-01-06,1,,,,,クレフ,0
808,4010803005661,新規,0,2026-01-06,2026-01-06,ＫＭコーポレーション合同会社,,合同会社,東京都,大田区,山王１丁目４１番５号ワールドパレス８０５,,13,111,1430023,,,,,,,2026-01-06,1,,,,,ケイエムコーポレーション,0
815,4011001174605,新規,0,2026-01-06,2026-01-06,株式会社Ｌｕｍｉｑ,,株式会社,東京都,渋谷区,恵比寿西２丁目８番４号ＥＸ恵比寿西ビル５階,,13,113,1500021,,,,,,,2026-01-06,1,,,,,ルミック,0
816,4011001174613,新規,0,2026-01-06,2026-01-06,株式会社ＶＡＬＬＥＴ,,株式会社,東京都,渋谷区,神南１丁目１１－４ＦＰＧリンクス神南５階,,13,113,1500041,,,,,,,2026-01-06,1,,,,,バレット,0
817,4011001174654,新規,0,2026-01-06,2026-01-06,株式会社東洋財産ネットワーク,,株式会社,東京都,渋谷区,神南１丁目２３番１４号リージャス渋谷公園通りセンター４０３,,13,113,1500041,,,,,,,2026-01-06,1,,,,,トウヨウザイサンネットワーク,0
818,4011001174761,新規,0,2026-01-06,2026-01-06,株式会社Ｃｙｇａｍｅｓ　ＡＩ　Ｓｔｕｄｉｏ,,株式会社,東京都,渋谷区,南平台町１６番１７号,,13,113,1500036,,,,,,,2026-01-06,1,,,,,サイゲームスエーアイスタジオ,0
820,4011003023149,新規,0,2026-01-06,2026-01-06,Ｃｏｍｍｕｎｉｑｕｅ合同会社,,合同会社,東京都,目黒区,東が丘２丁目１３番５号東が丘テラス３０３,,13,110,1520021,,,,,,,2026-01-06,1,,,,,コミュニケ,0
824,4011101114287,新規,0,2026-01-06,2026-01-06,株式会社ＦｕｎＤｅａｌ,,株式会社,東京都,新宿区,高田馬場３丁目１番５－４０７号,,13,104,1690075,,,,,,,2026-01-06,1,,,,,ファンディール,0
825,4011101114312,新規,0,2026-01-06,2026-01-06,株式会社ＳＨＥＬＳＥＡＳ,,株式会社,東京都,新宿区,西新宿３丁目３番１３号西新宿水間ビル２Ｆ,,13,104,1600023,,,,,,,2026-01-06,1,,,,,シェルシーズ,0
826,4011101114345,新規,0,2026-01-06,2026-01-06,Ｐｈｌｏｘｙ株式会社,,株式会社,東京都,新宿区,西新宿３丁目３番１３号西新宿水間ビル２Ｆ,,13,104,1600023,,,,,,,2026-01-06,1,,,,,フロキシ,0
828,4011301031150,新規,0,2026-01-06,2026-01-06,株式会社インペリアルプランニング,,株式会社,東京都,杉並区,上高井戸１丁目１０番７号,,13,115,1680074,,,,,,,2026-01-06,1,,,,,インペリアルプランニング,0
830,4011501032980,新規,0,2026-01-06,2026-01-06,株式会社Ｋ＆Ｋ,,株式会社,東京都,北区,上十条２丁目２３－１３,,13,117,1140034,,,,,,,2026-01-06,1,,,,,ケイアンドケイ,0
837,4013301055534,新規,0,2026-01-06,2026-01-06,日本アルテミス株式会社,,株式会社,東京都,豊島区,東池袋３丁目２０番３号,,13,116,1700013,,,,,,,2026-01-06,1,,,,,ニホンアルテミス,0
838,4013301055542,新規,0,2026-01-06,2026-01-06,株式会社Ｋ８７４,,株式会社,東京都,豊島区,西池袋１丁目４番１０号,,13,116,1710021,,,,,,,2026-01-06,1,,,,,ケーハチナナヨン,0
847,4020001166603,新規,0,2026-01-06,2026-01-06,株式会社カタカ,,株式会社,神奈川県,横浜市西区,北幸１丁目１１番１号水信ビル７階,,14,103,2200004,,,,,,,2026-01-06,1,,,,,カタカ,0
850,4020003030047,新規,0,2026-01-06,2026-01-06,ａｔ　ｅａｓｅ合同会社,,合同会社,神奈川県,横浜市西区,浅間町１丁目４番３号ウィザードビル４０２,,14,103,2200072,,,,,,,2026-01-06,1,,,,,アットイーズ,0
851,4020003030096,新規,0,2026-01-06,2026-01-06,合同会社Ｎｅｘｒｅａｌ,,合同会社,神奈川県,横浜市西区,北幸２丁目１０番４８号　むつみビル３階,,14,103,2200004,,,,,,,2026-01-06,1,,,,,ネクスリアル,0
852,4021001087112,新規,0,2026-01-06,2026-01-06,株式会社ファームスイーツ鎌倉,,株式会社,神奈川県,鎌倉市,御成町１２番１１号,,14,204,2480012,,,,,,,2026-01-06,1,,,,,,0
860,4040001141819,新規,0,2026-01-06,2026-01-06,株式会社えにしｎｇ,,株式会社,千葉県,千葉市花見川区,横戸町５番地４１,,12,102,2620001,,,,,,,2026-01-06,1,,,,,エニシング,0
861,4040001141901,新規,0,2026-01-06,2026-01-06,珍獣使い株式会社,,株式会社,千葉県,長生郡一宮町,東浪見５８１０番地,,12,421,2994303,,,,,,,2026-01-06,1,,,,,チンジュウヅカイ,0
862,4040001141991,新規,0,2026-01-06,2026-01-06,株式会社Ｆｌａｐｐｉｎｇ　Ｆｒｅｅｌｙ,,株式会社,千葉県,浦安市,入船６丁目８－９０８,,12,227,2790012,,,,,,,2026-01-06,1,,,,,フラッピングフリーリー,0
867,4060001038889,新規,0,2026-01-06,2026-01-06,株式会社Ｎｅｗ　Ｃｏｕｎｔｒｙ　Ｒｏａｄ,,株式会社,栃木県,日光市,中三依１２９３番地,,09,206,3212803,,,,,,,2026-01-06,1,,,,,ニューカントリーロード,0
868,4060001038897,新規,0,2026-01-06,2026-01-06,シンブ調査サービス株式会社,,株式会社,栃木県,宇都宮市,西原町５１３番地１ファイブシティ５０１号室,,09,201,3200826,,,,,,,2026-01-06,1,,,,,シンブチョウササービス,0
869,4060002000815,新規,0,2026-01-06,2026-01-06,有限会社安生土建,,有限会社,栃木県,宇都宮市,下砥上町１５５０番地１,,09,201,3200852,,,,,,,2026-01-06,1,,,,,アンセイドケン,0
871,4060003005912,新規,0,2026-01-06,2026-01-06,５Ｂ　ＴＲＡＤＩＮＧ合同会社,,合同会社,栃木県,小山市,駅東通り１丁目４０番３号ベルディマンションＩ－２０３号,00142047,09,208,3230022,,,,,,,2026-01-06,1,,,,,ファイブビトレーディング,0
874,4080001027361,新規,0,2026-01-06,2026-01-06,株式会社ＢＬＵＥ　ＺＯＮＥ,,株式会社,静岡県,静岡市葵区,鷹匠２丁目１８番７号グランデクレシタ鷹匠２０４,,22,101,4200839,,,,,,,2026-01-06,1,,,,,ブルーゾーン,0
878,4080101025991,新規,0,2026-01-06,2026-01-06,株式会社色の樹,,株式会社,静岡県,沼津市,高沢町１３番１６号,,22,203,4100057,,,,,,,2026-01-06,1,,,,,イロノキ,0
879,4080105006559,新規,0,2026-01-06,2026-01-06,一般社団法人芽彩生会,,その他の設立登記法人,静岡県,伊東市,渚町３番２６号,,22,208,4140023,,,,,,,2026-01-06,1,,,,,メイセイカイ,0
887,4110003006021,新規,0,2026-01-06,2026-01-06,ＴＡＣＨＩＢＡＮＡ．ＲＩＣＥ合同会社,,合同会社,新潟県,佐渡市,金井新保乙１３０９番地,,15,224,9521208,,,,,,,2026-01-06,1,,,,,タチバナライス,0
892,4120001283090,新規,0,2026-01-06,2026-01-06,ＳＥＮＫＩＮ株式会社,,株式会社,大阪府,大阪市西成区,花園南２丁目７番８－５１０号,,27,122,5570015,,,,,,,2026-01-06,1,,,,,センキン,0
893,4120001283181,新規,0,2026-01-06,2026-01-06,株式会社進和,,株式会社,大阪府,大阪市中央区,上本町西５丁目１番８ファミール上町台パークサイド６０４,,27,128,5420062,,,,,,,2026-01-06,1,,,,,シンワ,0
896,4120005025324,新規,0,2026-01-06,2026-01-06,一般社団法人Ｐａｇｅ,,その他の設立登記法人,大阪府,大阪市平野区,喜連３丁目８番２２号,,27,126,5470027,,,,,,,2026-01-06,1,,,,,ページ,0
900,4120903006020,新規,0,2026-01-06,2026-01-06,合同会社武遊田,,合同会社,大阪府,豊中市,東寺内町１３－２３,,27,203,5610871,,,,,,,2026-01-06,1,,,,,ブユウデン,0
907,4130005017551,新規,0,2026-01-06,2026-01-06,一般社団法人Ｓａｎｃｔｕｓ,,その他の設立登記法人,京都府,八幡市,八幡五反田３９番地の１,,26,210,6148071,,,,,,,2026-01-06,1,,,,,サンクタス,0
911,4140001141239,新規,0,2026-01-06,2026-01-06,Ｎｏｂｅｌ　Ａｒｔ株式会社,,株式会社,兵庫県,神戸市中央区,磯上通３丁目１番１３－２９０４号,,28,110,6510086,,,,,,,2026-01-06,1,,,,,ノーベルアート,0
912,4140001141247,新規,0,2026-01-06,2026-01-06,株式会社ＨＡＫＫＳ,,株式会社,兵庫県,神戸市東灘区,御影本町４丁目１－５,,28,101,6580046,,,,,,,2026-01-06,1,,,,,ハックス,0
917,4140003022998,新規,0,2026-01-06,2026-01-06,エフオーデー合同会社,,合同会社,兵庫県,伊丹市,荒牧４丁目１－６－６０５,,28,207,6640001,,,,,,,2026-01-06,1,,,,,エフオーデー,0
918,4140003023030,新規,0,2026-01-06,2026-01-06,合同会社キオクカイロ,,合同会社,兵庫県,明石市,藤江３４６,,28,203,6730044,,,,,,,2026-01-06,1,,,,,キオクカイロ,0
946,4160001027320,新規,0,2026-01-06,2026-01-06,楽進株式会社,,株式会社,滋賀県,栗東市,小柿９丁目７番３５号１０１室,,25,208,5203024,,,,,,,2026-01-06,1,,,,,ラクシン,0
951,4180001170077,新規,0,2026-01-06,2026-01-06,株式会社ＭＡＲＵ,,株式会社,愛知県,名古屋市中区,丸の内２丁目１６番８号フレア丸の内４階,,23,106,4600002,,,,,,,2026-01-06,1,,,,,マル,0
952,4180001170127,新規,0,2026-01-06,2026-01-06,株式会社末吉電工,,株式会社,愛知県,一宮市,開明字樋西２番地２,00142045,23,203,4940001,,,,,,,2026-01-06,1,,,,,スエヨシデンコウ,0
957,4200001044567,新規,0,2026-01-06,2026-01-06,株式会社ベスク,,株式会社,岐阜県,岐阜市,薮田南３丁目１３番４号ＹＳトラストビル２Ａ,,21,201,5008384,,,,,,,2026-01-06,1,,,,,ベスク,0
961,4220001027099,新規,0,2026-01-06,2026-01-06,株式会社Ｇｒａｎｔ,,株式会社,石川県,金沢市,弥生２丁目７番１７号,,17,201,9218036,,,,,,,2026-01-06,1,,,,,グラント,0
967,4240001065989,新規,0,2026-01-06,2026-01-06,株式会社Ｔ‐ＡｉｒＣｒｅａｔｅ,,株式会社,広島県,広島市中区,江波東１丁目１２番５１号,,34,101,7300832,,,,,,,2026-01-06,1,,,,,ティーエアクリエイト,0
970,4240003007543,新規,0,2026-01-06,2026-01-06,合同会社Ｃｏ‐Ｌｅａｄ,,合同会社,広島県,広島市中区,大手町１丁目１‐２０相生橋ビル７階Ａ号室,,34,101,7300051,,,,,,,2026-01-06,1,,,,,コーリード,0
971,4250001021487,新規,0,2026-01-06,2026-01-06,株式会社Ａｌｃｅａ,,株式会社,山口県,岩国市,昭和町２丁目１７番１３号,,35,208,7400004,,,,,,,2026-01-06,1,,,,,アルセア,0
972,4250003003871,新規,0,2026-01-06,2026-01-06,合同会社グロース,,合同会社,山口県,防府市,大字伊佐江１０１７番地の２,,35,206,7470846,,,,,,,2026-01-06,1,,,,,グロース,0
988,4280003002020,新規,0,2026-01-06,2026-01-06,合同会社備前屋,,合同会社,島根県,邑智郡邑南町,矢上３４２７番地,,32,449,6960103,,,,,,,2026-01-06,1,,,,,ビゼンヤ,0
994,4290001112638,新規,0,2026-01-06,2026-01-06,株式会社ＫＩＮＤ,,株式会社,福岡県,糟屋郡新宮町,大字三代５１０,,40,345,8110111,,,,,,,2026-01-06,1,,,,,カインド,0
995,4290001112646,新規,0,2026-01-06,2026-01-06,株式会社ｈｕｍａｎ,,株式会社,福岡県,福岡市博多区,中洲１丁目８－７仲柳ビルＢ店舗,,40,132,8100801,,,,,,,2026-01-06,1,,,,,ヒューマン,0
996,4290001112654,新規,0,2026-01-06,2026-01-06,株式会社店舗サポート福岡,,株式会社,福岡県,福岡市博多区,千代１丁目２番４号,,40,132,8120044,,,,,,,2026-01-06,1,,,,,テンポサポートフクオカ,0
997,4290001112662,新規,0,2026-01-06,2026-01-06,株式会社ＳＵＢＳＴＡＮＣＥ,,株式会社,福岡県,福岡市中央区,天神２丁目２番１２号Ｔ＆Ｊビルディング７Ｆ,,40,133,8100001,,,,,,,2026-01-06,1,,,,,サブスタンス,0
1001,4290003017884,新規,0,2026-01-06,2026-01-06,合同会社Ｂｏｔａｎｉａ　Ｇａｍｅｓ,,合同会社,福岡県,大野城市,下大利１丁目９番１４－３０３号,,40,219,8160952,,,,,,,2026-01-06,1,,,,,ボタニアゲームズ,0
1002,4290003017892,新規,0,2026-01-06,2026-01-06,ＭＫ企画合同会社,,合同会社,福岡県,春日市,日の出町３丁目２番地１アーベインビオ春日２－４０６号,,40,218,8160873,,,,,,,2026-01-06,1,,,,,エムケーキカク,0
1003,4290801032127,新規,0,2026-01-06,2026-01-06,株式会社デアグレス,,株式会社,福岡県,北九州市八幡西区,萩原１丁目９番１号サンライズコーポラス青山Ａ館２０５,,40,109,8060059,,,,,,,2026-01-06,1,,,,,デアグレス,0
1010,4320001021513,新規,0,2026-01-06,2026-01-06,メイプル株式会社,,株式会社,大分県,中津市,大字蛎瀬１３０２番地４,,44,203,8710007,,,,,,,2026-01-06,1,,,,,メイプル,0
1012,4330003011370,新規,0,2026-01-06,2026-01-06,合同会社地元未来研究所,,合同会社,熊本県,八代市,海士江町２６４６番地２７,,43,202,8660893,,,,,,,2026-01-06,1,,,,,ジモトミライケンキュウジョ,0
1016,4360003015518,新規,0,2026-01-06,2026-01-06,合同会社央設備,,合同会社,沖縄県,宮古島市,平良字西仲宗根６０２－４,,47,214,9060006,,,,,,,2026-01-06,1,,,,,オウセツビ,0
1023,4390001018197,新規,0,2026-01-06,2026-01-06,株式会社輝翔,,株式会社,山形県,長井市,九野本４１９番地１、２階,,06,209,9930041,,,,,,,2026-01-06,1,,,,,キショウ,0
1025,4400001017263,新規,0,2026-01-06,2026-01-06,株式会社ＨＵＧ,,株式会社,岩手県,盛岡市,大通２丁目１番６号,,03,201,0200022,,,,,,,2026-01-06,1,,,,,エイチユージー,0
1027,4410005006674,新規,0,2026-01-06,2026-01-06,医療法人ととのふ,,その他の設立登記法人,秋田県,秋田市,土崎港中央３丁目５番１０号,,05,201,0110946,,,,,,,2026-01-06,1,,,,,トトノウ,0
1031,4430001095959,新規,0,2026-01-06,2026-01-06,株式会社Ｒｅａｍｅｒ　Ｔｅｃ,,株式会社,北海道,札幌市東区,北四十五条東１丁目１番１４‐１０２号,,01,103,0070845,,,,,,,2026-01-06,1,,,,,リーマーテック,0
1032,4430001095991,新規,0,2026-01-06,2026-01-06,株式会社ティーズワーク,,株式会社,北海道,札幌市西区,発寒六条９丁目１６番２４号,,01,107,0630826,,,,,,,2026-01-06,1,,,,,ティーズワーク,0
1054,5010001261577,新規,0,2026-01-06,2026-01-06,株式会社ＪＢＩ,,株式会社,東京都,中央区,日本橋室町１丁目１１番１２号日本橋水野ビル７階,,13,102,1030022,,,,,,,2026-01-06,1,,,,,ジエイビイアイ,0
1055,5010001261718,新規,0,2026-01-06,2026-01-06,株式会社ＱｕｉｅｔＥｄｇｅ,,株式会社,東京都,千代田区,神田神保町３丁目１１番６号神保町ビル１０階,,13,101,1010051,,,,,,,2026-01-06,1,,,,,クワイエットエッジ,0
1058,5010005041158,新規,0,2026-01-06,2026-01-06,一般社団法人彩美会,,その他の設立登記法人,東京都,中央区,銀座１丁目８番７号,,13,102,1040061,,,,,,,2026-01-06,1,,,,,サイビカイ,0
1063,5010401195482,新規,0,2026-01-06,2026-01-06,株式会社ＪＬ企画,,株式会社,東京都,港区,浜松町２丁目２番１５号浜松町ダイヤビル２Ｆ,,13,103,1050013,,,,,,,2026-01-06,1,,,,,,0
1065,5010403036924,新規,0,2026-01-06,2026-01-06,ＬＬＡＹＯＳ合同会社,,合同会社,東京都,港区,浜松町２丁目２－１５浜松町ダイヤビル２Ｆ,,13,103,1050013,,,,,,,2026-01-06,1,,,,,ライオス,0
1066,5010405025066,新規,0,2026-01-06,2026-01-06,一般財団法人日本ガリエン財団,,その他の設立登記法人,東京都,港区,赤坂３丁目５番５号ストロングビル赤坂６階,,13,103,1070052,,,,,,,2026-01-06,1,,,,,ニホンガリエンンザイダン,0
1074,5010605004539,新規,0,2026-01-06,2026-01-06,はるかぜ協同組合,,その他の設立登記法人,東京都,江東区,森下１丁目５番７号,,13,108,1350004,,,,,,,2026-01-06,1,,,,,ハルカゼ,0
1076,5010703008061,新規,0,2026-01-06,2026-01-06,ＤＴＰ　Ｅｄｕｃａｔｉｏｎ　Ｊａｐａｎ合同会社,,合同会社,東京都,品川区,西五反田２丁目１１番８号,,13,109,1410031,,,,,,,2026-01-06,1,,,,,ディーティーピーエデュケーションジャパン,0
1079,5010801036930,新規,0,2026-01-06,2026-01-06,株式会社ＯＮインテグリティ,,株式会社,東京都,大田区,西嶺町３３番３号,,13,111,1450075,,,,,,,2026-01-06,1,,,,,オンインテグリティ,0
1085,5010901058668,新規,0,2026-01-06,2026-01-06,株式会社ａｔｅｌｉｅｒ　ｄｅ　Ｋ,,株式会社,東京都,世田谷区,成城５丁目２６番１号,,13,112,1570066,,,,,,,2026-01-06,1,,,,,アトリエドゥケイ,0
1086,5010903010528,新規,0,2026-01-06,2026-01-06,合同会社ＰＧ,,合同会社,東京都,世田谷区,宮坂３丁目４７番１２号,,13,112,1560051,,,,,,,2026-01-06,1,,,,,ピージー,0
1090,5011003023239,新規,0,2026-01-06,2026-01-06,一期一会合同会社,,合同会社,東京都,目黒区,柿の木坂２丁目７番１９号,,13,110,1520022,,,,,,,2026-01-06,1,,,,,イチゴイチエ,0
1091,5011003023271,新規,0,2026-01-06,2026-01-06,ＲＯＯＴ＆Ｉ合同会社,,合同会社,東京都,目黒区,下目黒５丁目１４番５号,,13,110,1530064,,,,,,,2026-01-06,1,,,,,ルートアンドアイ,0
1097,5011103016836,新規,0,2026-01-06,2026-01-06,合同会社ほーねっこ,,合同会社,東京都,新宿区,新宿１丁目３６－２新宿第七葉山ビル３Ｆ,,13,104,1600022,,,,,,,2026-01-06,1,,,,,ホーネッコ,0
1104,5011701029058,新規,0,2026-01-06,2026-01-06,ヌカガワＨＤ株式会社,,株式会社,東京都,江戸川区,大杉４丁目５番５号グランメゾンヌカガワ２０２,,13,123,1320022,,,,,,,2026-01-06,1,,,,,ヌカガワホールディングス,0
1105,5011805003504,新規,0,2026-01-06,2026-01-06,一般社団法人Ｊａｐａｎ　Ａｓｓｏｃｉａｔｉｏｎ　ｆｏｒ　Ｃｏｍｐｅｎｓａｔｉｏｎ　ａｎｄ　Ｔｒｅａｔｍｅｎｔ,,その他の設立登記法人,東京都,足立区,西新井４丁目２０番８号１０２,,13,121,1230841,,,,,,,2026-01-06,1,,,,,ジャパンアソシエーションフォアコンペンセーションアンドトリートメント,0
1106,5012301014664,新規,0,2026-01-06,2026-01-06,株式会社Ｎ．ｏ．ａ住設,,株式会社,東京都,町田市,金森２丁目３９番３９号,,13,209,1940012,,,,,,,2026-01-06,1,,,,,ノアジュウセツ,0
1108,5012401043968,新規,0,2026-01-06,2026-01-06,株式会社Ｒｅｙ,,株式会社,東京都,多摩市,連光寺１丁目２番地の１ライオンズ聖蹟桜ヶ丘パシーナ１０１０,,13,224,2060021,,,,,,,2026-01-06,1,,,,,レイ,0
1114,5013301055533,新規,0,2026-01-06,2026-01-06,株式会社リトラ,,株式会社,東京都,豊島区,駒込１丁目１０番１３‐６１７号,,13,116,1700003,,,,,,,2026-01-06,1,,,,,リトラ,0
1117,5020001166503,新規,0,2026-01-06,2026-01-06,株式会社泓＿,00142053,株式会社,神奈川県,横浜市南区,高根町１丁目３中華街不動産ビル３０１号室,,14,105,2320022,,,,,,,2026-01-06,1,,,,,オウキン,0
1118,5020001166536,新規,0,2026-01-06,2026-01-06,株式会社エヌビング,,株式会社,神奈川県,横浜市中区,山下町４６ＢＬＯＣＫＳＹＡＭＡＳＨＩＴＡＰＡＲＫ,,14,104,2310023,,,,,,,2026-01-06,1,,,,,エヌビング,0
1119,5020001166593,新規,0,2026-01-06,2026-01-06,ミント民間救急株式会社,,株式会社,神奈川県,横浜市神奈川区,六角橋５丁目６－８白楽センチュリーフラット２０９号室,,14,102,2210802,,,,,,,2026-01-06,1,,,,,ミントミンカンキュウキュウ,0
1130,5030003028320,新規,0,2026-01-06,2026-01-06,合同会社ハーモニーテック,,合同会社,埼玉県,比企郡吉見町,大字今泉３４５番地２,,11,347,3550103,,,,,,,2026-01-06,1,,,,,ハーモニーテック,0
1131,5030003028394,新規,0,2026-01-06,2026-01-06,合同会社ＲＬＫ,,合同会社,埼玉県,朝霞市,膝折町２丁目１３番４４号新妻ハイツ１０２号室,,11,227,3510014,,,,,,,2026-01-06,1,,,,,アールエルケー,0
1132,5040001141990,新規,0,2026-01-06,2026-01-06,株式会社Ｏ・Ｎ・Ｓ,,株式会社,千葉県,千葉市緑区,誉田町１丁目１３８番地８４,,12,105,2660005,,,,,,,2026-01-06,1,,,,,オーエヌエス,0
1133,5040002007349,新規,0,2026-01-06,2026-01-06,有限会社千城加藤薬局,,有限会社,千葉県,千葉市若葉区,千城台東１丁目４番９号,,12,104,2640002,,,,,,,2026-01-06,1,,,,,チシロカトウヤッキョク,0
1135,5040005022989,新規,0,2026-01-06,2026-01-06,一般社団法人アイムハッピー,,その他の設立登記法人,千葉県,銚子市,清川町３丁目３－１,,12,202,2880817,,,,,,,2026-01-06,1,,,,,アイムハッピー,0
1139,5060001038888,新規,0,2026-01-06,2026-01-06,株式会社レグルス,,株式会社,栃木県,宇都宮市,明保野町５番１３号,,09,201,3200845,,,,,,,2026-01-06,1,,,,,レグルス,0
1140,5060001038896,新規,0,2026-01-06,2026-01-06,株式会社ゆつむぎ,,株式会社,栃木県,那須塩原市,本郷町三丁目１４番地パラダイスビル３階,,09,213,3250053,,,,,,,2026-01-06,1,,,,,ユツムギ,0
1144,5080001027352,新規,0,2026-01-06,2026-01-06,株式会社マルカワ不動産,,株式会社,静岡県,静岡市葵区,北安東１丁目３５番１号アーバングリーン１０２号室,,22,101,4200881,,,,,,,2026-01-06,1,,,,,マルカワフドウサン,0
1147,5100003008546,新規,0,2026-01-06,2026-01-06,合同会社エアリアルソリューションズ,,合同会社,長野県,飯田市,宮の前４４４９番地３,,20,205,3950082,,,,,,,2026-01-06,1,,,,,エアリアルソリューションズ,0
1148,5100003008554,新規,0,2026-01-06,2026-01-06,ＷｅｉｓｓＮｅｔ合同会社,,合同会社,長野県,長野市,大字上駒沢１２１８番地４,,20,201,3810082,,,,,,,2026-01-06,1,,,,,ヴァイスネット,0
1151,5110001039815,新規,0,2026-01-06,2026-01-06,ＬｉｖｅＣｉｔｙ株式会社,,株式会社,新潟県,新潟市中央区,美咲町１丁目９番５０号,,15,103,9500954,,,,,,,2026-01-06,1,,,,,リヴシティ,0
1154,5110003006020,新規,0,2026-01-06,2026-01-06,合同会社ナリタファーム,,合同会社,新潟県,新潟市西蒲区,横曽根１４３８番地,,15,108,9530115,,,,,,,2026-01-06,1,,,,,ナリタファーム,0
1168,5120001283107,新規,0,2026-01-06,2026-01-06,株式会社トラバース,,株式会社,大阪府,大阪市天王寺区,勝山２丁目１８番１５－３０１号,,27,109,5430043,,,,,,,2026-01-06,1,,,,,トラバース,0
1169,5120001283115,新規,0,2026-01-06,2026-01-06,株式会社フロントラインズ,,株式会社,大阪府,大阪市中央区,本町１丁目３番１５号本町ＮＸビル３Ｆ,,27,128,5410053,,,,,,,2026-01-06,1,,,,,フロントラインズ,0
1170,5120001283131,新規,0,2026-01-06,2026-01-06,シェノン株式会社,,株式会社,大阪府,大阪市福島区,吉野１丁目２０－３０－２０１,,27,103,5530006,,,,,,,2026-01-06,1,,,,,シェノン,0
1171,5120001283164,新規,0,2026-01-06,2026-01-06,株式会社ファズ,,株式会社,大阪府,大阪市住吉区,清水丘２丁目１３－１９,,27,120,5580033,,,,,,,2026-01-06,1,,,,,ファズ,0
1172,5120001283172,新規,0,2026-01-06,2026-01-06,株式会社シップリアルティ,,株式会社,大阪府,大阪市東成区,神路４丁目６番２６号,,27,115,5370003,,,,,,,2026-01-06,1,,,,,シップリアルティ,0
1175,5120003031554,新規,0,2026-01-06,2026-01-06,合同会社Ｌｕｆｔｒｙ,,合同会社,大阪府,大阪市淀川区,十三元今里１丁目４番２１号メゾンラフォレ６０１,,27,123,5320028,,,,,,,2026-01-06,1,,,,,ルフレイ,0
1182,5122001040041,新規,0,2026-01-06,2026-01-06,株式会社ｅｓｔａｂｌｅ,,株式会社,大阪府,東大阪市,小若江１丁目５番３号２Ｆ,,27,227,5770818,,,,,,,2026-01-06,1,,,,,エスタブレ,0
1186,5130001081344,新規,0,2026-01-06,2026-01-06,グリーンサイクル株式会社,,株式会社,京都府,宮津市,字宮本３９６番地,,26,205,6260023,,,,,,,2026-01-06,1,,,,,グリーンサイクル,0
1191,5140001141246,新規,0,2026-01-06,2026-01-06,株式会社Ｍｏｌｓｉａ,,株式会社,兵庫県,姫路市,飾磨区蓼野町１番地,,28,201,6728072,,,,,,,2026-01-06,1,,,,,モルジア,0
1192,5140001141254,新規,0,2026-01-06,2026-01-06,株式会社ｓｎｏｗｄｒｏｐｓ,,株式会社,兵庫県,西宮市,松山町１２番１７－６０３号,,28,204,6638101,,,,,,,2026-01-06,1,,,,,スノウドロップス,0
1193,5140001141279,新規,0,2026-01-06,2026-01-06,ライフワーク株式会社,,株式会社,兵庫県,淡路市,里６０１－１３２,,28,226,6562143,,,,,,,2026-01-06,1,,,,,ライフワーク,0
1213,5150003003798,新規,0,2026-01-06,2026-01-06,合同会社ならやま総合研究所,,合同会社,奈良県,奈良市,左京１丁目１４番地の１６,,29,201,6310801,,,,,,,2026-01-06,1,,,,,ナラヤマソウゴウケンキュウショ,0
1221,5160001027328,新規,0,2026-01-06,2026-01-06,株式会社クラリティ,,株式会社,滋賀県,彦根市,西今町４０６番地３,,25,202,5220054,,,,,,,2026-01-06,1,,,,,クラリティ,0
1225,5180003029592,新規,0,2026-01-06,2026-01-06,合同会社２０４０,,合同会社,愛知県,春日井市,十三塚町３０３０番地２４３,,23,206,4860815,,,,,,,2026-01-06,1,,,,,ニイゼロヨンゼロ,0
1227,5180301040557,新規,0,2026-01-06,2026-01-06,株式会社トライデント,,株式会社,愛知県,岡崎市,八帖北町１０番地２５,,23,202,4440924,,,,,,,2026-01-06,1,,,,,トライデント,0
1235,5220001027107,新規,0,2026-01-06,2026-01-06,株式会社エラン,,株式会社,石川県,加賀市,伊切町ヲ１８番地,,17,206,9220406,,,,,,,2026-01-06,1,,,,,エラン,0
1238,5230001021224,新規,0,2026-01-06,2026-01-06,株式会社コネクトワークス,,株式会社,富山県,富山市,太郎丸西町１丁目３－１５図南ビル３階,,16,201,9398271,,,,,,,2026-01-06,1,,,,,コネクトワークス,0
1241,5240001065996,新規,0,2026-01-06,2026-01-06,株式会社鳩十,,株式会社,広島県,安芸郡府中町,緑ケ丘１６番９－１０２号,,34,302,7350024,,,,,,,2026-01-06,1,,,,,ハトジュウ,0
1243,5260001040849,新規,0,2026-01-06,2026-01-06,株式会社医療・危機対応イノベーションセンター,,株式会社,岡山県,岡山市北区,津島西坂２丁目１０－２４,,33,101,7000086,,,,,,,2026-01-06,1,,,,,イリョウキキタイオウイノベーションセンター,0
1244,5260001040857,新規,0,2026-01-06,2026-01-06,株式会社ＺＥＲＯ　ＯＮＥ,,株式会社,岡山県,倉敷市,粒江２０番地２０（倉敷クリエイティブパーク内）,,33,202,7100034,,,,,,,2026-01-06,1,,,,,ゼロワン,0
1249,5270005005673,新規,0,2026-01-06,2026-01-06,税理士法人小谷会計,,その他の設立登記法人,鳥取県,鳥取市,富安２丁目７９番地１,,31,201,6800845,,,,,,,2026-01-06,1,,,,,コダニカイケイ,0
1274,5290001112629,新規,0,2026-01-06,2026-01-06,だい株式会社,,株式会社,福岡県,福岡市城南区,別府２丁目２０番４６－１２０１号ハイツ別府,,40,136,8140104,,,,,,,2026-01-06,1,,,,,ダイ,0
1275,5290001112661,新規,0,2026-01-06,2026-01-06,株式会社日本総合支援機構,,株式会社,福岡県,福岡市早良区,百道３丁目１０番５７号,,40,137,8140006,,,,,,,2026-01-06,1,,,,,ニホンソウゴウシエンキコウ,0
1276,5290001112711,新規,0,2026-01-06,2026-01-06,株式会社ＪＣエスクロー,,株式会社,福岡県,福岡市博多区,博多駅東２丁目５番１号アーバンネット博多ビル４階,,40,132,8120013,,,,,,,2026-01-06,1,,,,,ジェーシーエスクロー,0
1277,5290003017883,新規,0,2026-01-06,2026-01-06,合同会社Ｍｅｃｈａｎｉｃ　Ｇａｒａｇｅ　Ｋ２,,合同会社,福岡県,嘉麻市,牛隈８８３－１,,40,227,8200301,,,,,,,2026-01-06,1,,,,,メカニックガレージケーツー,0
1278,5290003017891,新規,0,2026-01-06,2026-01-06,合同会社ｓｔｅｐ‐ｕｐ,,合同会社,福岡県,福岡市中央区,港１丁目８－４ラ・メール港１０１,,40,133,8100075,,,,,,,2026-01-06,1,,,,,ステップアップ,0
1279,5290801032142,新規,0,2026-01-06,2026-01-06,株式会社ＬＯＯＰ,,株式会社,福岡県,北九州市小倉北区,魚町１丁目２番２４号Ｂ１Ｆ,,40,106,8020006,,,,,,,2026-01-06,1,,,,,ループ,0
1286,5300003002396,新規,0,2026-01-06,2026-01-06,合同会社ルルル,,合同会社,佐賀県,唐津市,町田１丁目１７番２９号,,41,202,8470821,,,,,,,2026-01-06,1,,,,,ルルル,0
1288,5330001033878,新規,0,2026-01-06,2026-01-06,株式会社ＰＲＯＵＤ,,株式会社,熊本県,熊本市中央区,水前寺公園２８番２３号,,43,101,8620956,,,,,,,2026-01-06,1,,,,,プラウド,0
1289,5330003011378,新規,0,2026-01-06,2026-01-06,合同会社ＡｑｕａＶａｌｌｅｙ,,合同会社,熊本県,熊本市西区,池田３丁目３４番５号グリーンハイツ１０３号室,,43,103,8600082,,,,,,,2026-01-06,1,,,,,アクアバレー,0
1290,5340001027870,新規,0,2026-01-06,2026-01-06,株式会社ＪａｐａｎＷＪａｐａｎ,,株式会社,鹿児島県,伊佐市,大口里２９２７番地,,46,224,8952511,,,,,,,2026-01-06,1,,,,,ジャパンダブリュージャパン,0
1292,5350001019875,新規,0,2026-01-06,2026-01-06,株式会社鈴木管理,,株式会社,宮崎県,宮崎市,青島１丁目９番１８号,,45,201,8892162,,,,,,,2026-01-06,1,,,,,スズキカンリ,0
1293,5360001036192,新規,0,2026-01-06,2026-01-06,首里建設株式会社,,株式会社,沖縄県,那覇市,首里金城町１丁目１９番４号,,47,201,9030815,,,,,,,2026-01-06,1,,,,,シュリケンセツ,0
1295,5370001053369,新規,0,2026-01-06,2026-01-06,株式会社みやぎアグリパートナー,,株式会社,宮城県,大崎市,田尻大貫字杉山２５番地,,04,215,9894302,,,,,,,2026-01-06,1,,,,,ミヤギアグリパートナー,0
1296,5370003007430,新規,0,2026-01-06,2026-01-06,合同会社Ｌｉｂｒｅ,,合同会社,宮城県,仙台市宮城野区,榴岡４丁目１番８―５００号,,04,102,9830852,,,,,,,2026-01-06,1,,,,,リブレ,0
1298,5390001018205,新規,0,2026-01-06,2026-01-06,Ｓｏｌａｒｉｓ　Ｆｉｅｌｄ株式会社,,株式会社,山形県,鶴岡市,湯野沢７０番地,,06,203,9970001,,,,,,,2026-01-06,1,,,,,ソラリスフィールド,0
1301,5410001014358,新規,0,2026-01-06,2026-01-06,株式会社ＹＵＷＡ　ＭＩＬＫ,,株式会社,秋田県,秋田市,雄和妙法字糠塚９番地,,05,201,0101223,,,,,,,2026-01-06,1,,,,,ユウワミルク,0
1306,5430001095990,新規,0,2026-01-06,2026-01-06,株式会社ＮＥＸＵＳ,,株式会社,北海道,札幌市中央区,南十一条西２０丁目３－２９日宝ノール旭ヶ丘５０１,,01,101,0640811,,,,,,,2026-01-06,1,,,,,ネクサス,0
1308,5430003018462,新規,0,2026-01-06,2026-01-06,合同会社ＫＡＺＥ　ＳＴＵＤＩＯ,,合同会社,北海道,札幌市厚別区,厚別東五条２丁目３－１６,,01,108,0040005,,,,,,,2026-01-06,1,,,,,カゼスタジオ,0
1309,5450001014817,新規,0,2026-01-06,2026-01-06,株式会社たきのうえ市場,,株式会社,北海道,紋別郡滝上町,字サクルー原野基線１０番地,,01,560,0995600,,,,,,,2026-01-06,1,,,,,タキノウエイチバ,0
1310,5460301005333,新規,0,2026-01-06,2026-01-06,株式会社勇臣,,株式会社,北海道,北見市,川東１９４番地の１,,01,208,0900807,,,,,,,2026-01-06,1,,,,,ユウシン,0
1311,5480001013048,新規,0,2026-01-06,2026-01-06,株式会社リヒト,,株式会社,徳島県,徳島市,八万町内浜１３８番地の１８,,36,201,7708076,,,,,,,2026-01-06,1,,,,,リヒト,0
1313,5500001015421,新規,0,2026-01-06,2026-01-06,住宝水産株式会社,,株式会社,愛媛県,宇和島市,本九島１３７７番地の６,,38,203,7980096,,,,,,,2026-01-06,1,,,,,スミホウスイサン,0
1319,6010001261312,新規,0,2026-01-06,2026-01-06,株式会社ＭａｋｅＡＩ,,株式会社,東京都,中央区,銀座１丁目１２－４－７階,,13,102,1040061,,,,,,,2026-01-06,1,,,,,メイクアイ,0
1320,6010001261592,新規,0,2026-01-06,2026-01-06,株式会社オフィス園田,,株式会社,東京都,中央区,日本橋小舟町１３番１－９０５号,,13,102,1030024,,,,,,,2026-01-06,1,,,,,オフィスソノダ,0
1321,6010001261601,新規,0,2026-01-06,2026-01-06,ＡＩ　Ｔｅｃｈ　Ｔｏｍａｋｏｍａｉ株式会社,,株式会社,東京都,千代田区,大手町１丁目５番１号大手町ファーストスクエアイーストタワー４階,,13,101,1000004,,,,,,,2026-01-06,1,,,,,エーアイテックトマコマイ,0
1322,6010001261691,新規,0,2026-01-06,2026-01-06,アンフレイムス株式会社,,株式会社,東京都,中央区,銀座１丁目２２番１１号銀座大竹ビジデンス２Ｆ,,13,102,1040061,,,,,,,2026-01-06,1,,,,,アンフレイムス,0
1326,6010005041157,新規,0,2026-01-06,2026-01-06,一般社団法人グラントビューティクリニック,,その他の設立登記法人,東京都,中央区,銀座２丁目３番１号ＲａｙＧｉｎｚａ５階,,13,102,1040061,,,,,,,2026-01-06,1,,,,,グラントビューティクリニック,0
1328,6010401195416,新規,0,2026-01-06,2026-01-06,アイカワフォトニクス株式会社,,株式会社,東京都,港区,海岸１丁目７番１号東京ポートシティ竹芝オフィスタワー８Ｆ,,13,103,1050022,,,,,,,2026-01-06,1,,,,,アイカワフォトニクス,0
1329,6010401195481,新規,0,2026-01-06,2026-01-06,Ｓｏｖｅｒｅｉｇｎ　Ｇａｔｅ株式会社,,株式会社,東京都,港区,南青山２丁目２番１５号ウィン青山９４２,,13,103,1070062,,,,,,,2026-01-06,1,,,,,,0
1333,6010403036980,新規,0,2026-01-06,2026-01-06,全連キャッシュレス合同会社,,合同会社,東京都,港区,北青山１丁目３－１,,13,103,1070061,,,,,,,2026-01-06,1,,,,,ゼンレンキャッシュレス,0
1335,6010503008129,新規,0,2026-01-06,2026-01-06,合同会社葛西鳶工業,,合同会社,東京都,台東区,上野桜木１丁目９番２号,,13,106,1100002,,,,,,,2026-01-06,1,,,,,カサイトビコウギョウ,0
1339,6010701048843,新規,0,2026-01-06,2026-01-06,株式会社ダイダラボッチ,,株式会社,東京都,品川区,大井１丁目４７番１号ＮＴビル１１階,,13,109,1400014,,,,,,,2026-01-06,1,,,,,ダイダラボッチ,0
1341,6010901058725,新規,0,2026-01-06,2026-01-06,株式会社ＴＡ,,株式会社,東京都,世田谷区,代田５丁目２９番１１号ハイム代田１０６,,13,112,1550033,,,,,,,2026-01-06,1,,,,,ティーエー,0
1342,6010901058733,新規,0,2026-01-06,2026-01-06,株式会社ＨＡＳＹ　ＧＬＯＷ,,株式会社,東京都,世田谷区,太子堂３丁目５番１７号,,13,112,1540004,,,,,,,2026-01-06,1,,,,,ハシーグロー,0
1344,6011001174561,新規,0,2026-01-06,2026-01-06,エス・ティー・エヌ伊豆株式会社,,株式会社,東京都,渋谷区,恵比寿４丁目４番１１号,,13,113,1500013,,,,,,,2026-01-06,1,,,,,エスティーエヌイズ,0
1345,6011001174636,新規,0,2026-01-06,2026-01-06,株式会社リフレクション,,株式会社,東京都,目黒区,鷹番３丁目１８－１１,,13,110,1520004,,,,,,,2026-01-06,1,,,,,リフレクション,0
1348,6011003023238,新規,0,2026-01-06,2026-01-06,Ｆ３合同会社,,合同会社,東京都,目黒区,目黒１丁目１２番８－２０３号,,13,110,1530063,,,,,,,2026-01-06,1,,,,,エフスリー,0
1351,6011103016843,新規,0,2026-01-06,2026-01-06,合同会社ＳＳ,,合同会社,東京都,新宿区,新宿７丁目２５番２－１４０１号,,13,104,1600022,,,,,,,2026-01-06,1,,,,,エスエス,0
1352,6011105011693,新規,0,2026-01-06,2026-01-06,一般社団法人Ｋｙｏｔｏ　Ｈｅｒｉｔａｇｅ　Ｐｒｏｐｅｒｔｙ　Ｈｏｌｄｉｎｇ,,その他の設立登記法人,東京都,新宿区,四谷２丁目９番地１５東京ユナイテッド綜合事務所内,,13,104,1600004,,,,,,,2026-01-06,1,,,,,キョウトヘリテージプロパティホールディング,0
1353,6011201026876,新規,0,2026-01-06,2026-01-06,株式会社ＮＣｐｈａｒｍａ,,株式会社,東京都,中野区,野方４丁目１３番１３号ターナーローズハウスＣ棟２,,13,114,1650027,,,,,,,2026-01-06,1,,,,,エヌシーファーマ,0
1355,6011203004921,新規,0,2026-01-06,2026-01-06,合同会社石崎架設,00142046,合同会社,東京都,中野区,中野５丁目６７番７号プラザ中野８０１,,13,114,1640001,,,,,,,2026-01-06,1,,,,,イシザキカゼツ,0
1368,6011801047248,新規,0,2026-01-06,2026-01-06,株式会社澤グロー商事,,株式会社,東京都,足立区,千住桜木２丁目１７番１－３１１号,,13,121,1200045,,,,,,,2026-01-06,1,,,,,サワグローショウジ,0
1369,6012301014663,新規,0,2026-01-06,2026-01-06,アルカディアス株式会社,,株式会社,東京都,町田市,鶴川４丁目７番地８,,13,209,1950061,,,,,,,2026-01-06,1,,,,,アルカディアス,0
1371,6012403007540,新規,0,2026-01-06,2026-01-06,合同会社ＩＳＹ,,合同会社,東京都,武蔵野市,吉祥寺南町１丁目５番１３号,,13,203,1800003,,,,,,,2026-01-06,1,,,,,アイエスワイ,0
1373,6012801024443,新規,0,2026-01-06,2026-01-06,株式会社波木井,,株式会社,東京都,日野市,豊田４丁目４２番地１２,,13,212,1910053,,,,,,,2026-01-06,1,,,,,ハキイ,0
1375,6013303008034,新規,0,2026-01-06,2026-01-06,合同会社藤鮨,,合同会社,東京都,豊島区,西巣鴨４丁目１２番２号,,13,116,1700001,,,,,,,2026-01-06,1,,,,,フジズシ,0
1386,6020001166361,新規,0,2026-01-06,2026-01-06,株式会社Ｈｉｎｅｘ,,株式会社,神奈川県,川崎市麻生区,岡上字梨の木１３２９－３,,14,137,2150027,,,,,,,2026-01-06,1,,,,,ハイネックス,0
1387,6020003030094,新規,0,2026-01-06,2026-01-06,合同会社Ｗｉｎｄ　Ｆｒｏｎｔｉｅｒ,,合同会社,神奈川県,川崎市宮前区,宮前平２丁目１０番地５プラウド宮前平５１２,,14,136,2160006,,,,,,,2026-01-06,1,,,,,ウィンドフロンティア,0
1388,6021001087143,新規,0,2026-01-06,2026-01-06,株式会社豊祥,,株式会社,神奈川県,横須賀市,武３丁目５番３７号,,14,201,2380313,,,,,,,2026-01-06,1,,,,,ホウショウ,0
1401,6030001170354,新規,0,2026-01-06,2026-01-06,株式会社ＳＵＧＡＲ＆ＳＡＬＴ,,株式会社,埼玉県,川口市,戸塚東１丁目２番１４号,,11,203,3330802,,,,,,,2026-01-06,1,,,,,シュガーアンドソルト,0
1402,6030001170362,新規,0,2026-01-06,2026-01-06,株式会社テイクオール,,株式会社,埼玉県,さいたま市緑区,馬場１丁目１２－１０,,11,109,3360912,,,,,,,2026-01-06,1,,,,,テイクオール,0
1405,6030003028360,新規,0,2026-01-06,2026-01-06,合同会社テック灯,,合同会社,埼玉県,志木市,中宗岡２丁目９番３３号リーブルファイン志木中宗岡１０４号,,11,228,3530002,,,,,,,2026-01-06,1,,,,,テックトウ,0
1406,6030003028393,新規,0,2026-01-06,2026-01-06,７３Ｒｉｓｅｕｐ　Ｗｏｒｋｓ合同会社,,合同会社,埼玉県,川越市,東田町４番地３２６,,11,201,3501114,,,,,,,2026-01-06,1,,,,,ナナサンライズアップワークス,0
1416,6040001141998,新規,0,2026-01-06,2026-01-06,株式会社コミュニティ・スクール,,株式会社,千葉県,千葉市若葉区,桜木北３丁目１４－３２－１,,12,104,2640029,,,,,,,2026-01-06,1,,,,,コミュニティスクール,0
1418,6050001057822,新規,0,2026-01-06,2026-01-06,株式会社ＫＳＴ,,株式会社,茨城県,つくば市,中根４５１番地,,08,220,3050012,,,,,,,2026-01-06,1,,,,,ケーエスティー,0
1422,6060001038887,新規,0,2026-01-06,2026-01-06,中島工業株式会社,,株式会社,栃木県,足利市,五十部町１１８２番地１１,,09,202,3260843,,,,,,,2026-01-06,1,,,,,ナカジマコウギョウ,0
1423,6060001038895,新規,0,2026-01-06,2026-01-06,間島ホールディングス株式会社,,株式会社,栃木県,宇都宮市,白沢町５７３番地２,,09,201,3291102,,,,,,,2026-01-06,1,,,,,マジマホールディングス,0
1424,6070003006247,新規,0,2026-01-06,2026-01-06,合同会社ＩＭ,,合同会社,群馬県,前橋市,六供町４丁目４番地３３,,10,201,3710804,,,,,,,2026-01-06,1,,,,,アイエム,0
1425,6080001027368,新規,0,2026-01-06,2026-01-06,株式会社ひつじコンパニェーロ,,株式会社,静岡県,静岡市駿河区,用宗３丁目１１番１０号,,22,102,4210122,,,,,,,2026-01-06,1,,,,,ヒツジコンパニェーロ,0
1427,6080103003498,新規,0,2026-01-06,2026-01-06,合同会社アヤコオリジナル,,合同会社,静岡県,御殿場市,柴怒田９７０番地の９２,,22,215,4120003,,,,,,,2026-01-06,1,,,,,アヤコオリジナル,0
1433,6110001039822,新規,0,2026-01-06,2026-01-06,株式会社なかい新聞店,,株式会社,新潟県,西蒲原郡弥彦村,美山６５２７番地１,,15,342,9590310,,,,,,,2026-01-06,1,,,,,ナカイシンブンテン,0
1445,6120001283114,新規,0,2026-01-06,2026-01-06,ＬｉｏｒａｈＬａｂｓ株式会社,,株式会社,大阪府,大阪市北区,梅田１丁目１３－１大阪梅田ツインタワーズ・サウス１５階,,27,127,5300001,,,,,,,2026-01-06,1,,,,,リオララボ,0
1446,6120001283130,新規,0,2026-01-06,2026-01-06,株式会社錦澤梧楼太丸工房,,株式会社,大阪府,大阪市中央区,南本町２丁目１番１号１階,,27,128,5410054,,,,,,,2026-01-06,1,,,,,メンザワゴロウタマルコウボウ,0
1447,6120001283163,新規,0,2026-01-06,2026-01-06,ハンガン商事株式会社,,株式会社,大阪府,大阪市此花区,伝法２丁目１番５４－４０１号,,27,104,5540002,,,,,,,2026-01-06,1,,,,,ハンガンショウジ,0
1450,6120003031495,新規,0,2026-01-06,2026-01-06,合同会社ＭＫコンサルティング,,合同会社,大阪府,大阪市中央区,農人橋１丁目１番７号,,27,128,5400011,,,,,,,2026-01-06,1,,,,,エムケイコンサルティング,0
1451,6120003031594,新規,0,2026-01-06,2026-01-06,Ｃａｆｅ　ｉ６５１合同会社,,合同会社,大阪府,大阪市西区,南堀江１丁目１番１６号３階,,27,106,5500015,,,,,,,2026-01-06,1,,,,,カフェアイロクゴイチ,0
1452,6120003031644,新規,0,2026-01-06,2026-01-06,合同会社ＮＵＴＲＡＬＹＮＫＳ,,合同会社,大阪府,大阪市阿倍野区,昭和町２丁目１０番４号,,27,119,5450011,,,,,,,2026-01-06,1,,,,,ニュートラリンクス,0
1454,6120901052031,新規,0,2026-01-06,2026-01-06,株式会社山本フロアー,,株式会社,大阪府,豊中市,春日町５丁目２－８－１,,27,203,5600052,,,,,,,2026-01-06,1,,,,,ヤマモトフロアー,0
1455,6120901052056,新規,0,2026-01-06,2026-01-06,ＤｏｇＴｅａｃｈｅｒＲＩＡＮ株式会社,,株式会社,大阪府,茨木市,美穂ケ丘３－１、２Ｆ,,27,211,5670047,,,,,,,2026-01-06,1,,,,,ドッグティーチャーリアン,0
1458,6120903006019,新規,0,2026-01-06,2026-01-06,合同会社Ｅｍｉｅｒｅ,,合同会社,大阪府,茨木市,豊川３丁目３番３１号,,27,211,5670057,,,,,,,2026-01-06,1,,,,,エミエール,0
1460,6122001040049,新規,0,2026-01-06,2026-01-06,株式会社ＳＴＡＲＣＲＥＡＴＥ,,株式会社,大阪府,東大阪市,西堤本通西１丁目８番２５号,,27,227,5770046,,,,,,,2026-01-06,1,,,,,スタークリエイト,0
1468,6130001081319,新規,0,2026-01-06,2026-01-06,Ａｋｉｚｕｋｉ．株式会社,,株式会社,京都府,京都市下京区,小稲荷町８５－２Ｇｒａｎｄ－Ｋ京都駅前ビル２０１,,26,106,6008208,,,,,,,2026-01-06,1,,,,,アキヅキドット,0
1470,6130003011042,新規,0,2026-01-06,2026-01-06,ＪＡｎｓ合同会社,,合同会社,京都府,京都市東山区,新門前通大和大路東入３丁目梅本町２５６番３,,26,105,6050064,,,,,,,2026-01-06,1,,,,,ジャンス,0
1476,6140001141253,新規,0,2026-01-06,2026-01-06,株式会社正行,,株式会社,兵庫県,神戸市長田区,片山町２丁目１２番２５号,,28,106,6530805,,,,,,,2026-01-06,1,,,,,マサユキ,0
1479,6140003023037,新規,0,2026-01-06,2026-01-06,ＭＵＳＵＢＩ　ｐｌａｎｎｉｎｇ合同会社,,合同会社,兵庫県,神戸市中央区,磯辺通１丁目１－１８カサベラ国際プラザビル７０７,,28,110,6510084,,,,,,,2026-01-06,1,,,,,ムスビプランニング,0
1504,6160001027319,新規,0,2026-01-06,2026-01-06,ＡＳＭＡＸ株式会社,,株式会社,滋賀県,草津市,東草津２丁目６番１－７号,,25,206,5250033,,,,,,,2026-01-06,1,,,,,アスマックス,0
1505,6160003003697,新規,0,2026-01-06,2026-01-06,合同会社ＳＰＬＥＮＤＯＲ,,合同会社,滋賀県,大津市,真野大野１丁目５番２５号,,25,201,5200235,,,,,,,2026-01-06,1,,,,,スプレンダー,0
1507,6180001170050,新規,0,2026-01-06,2026-01-06,株式会社ＭＥＴＡＲＥＴＯ,,株式会社,愛知県,名古屋市中村区,名駅３丁目４－１０アルティメイト名駅１ｓｔ２階,,23,105,4500002,,,,,,,2026-01-06,1,,,,,メタレト,0
1508,6180001170141,新規,0,2026-01-06,2026-01-06,株式会社ＫＯＳＵＺＵ　ＦＡＲＭ,,株式会社,愛知県,知多郡美浜町,大字野間字冨具崎２６６番地１,,23,446,4703235,,,,,,,2026-01-06,1,,,,,コスズファーム,0
1509,6180003029550,新規,0,2026-01-06,2026-01-06,合同会社ワイズオフィス名古屋丸の内,,合同会社,愛知県,名古屋市中区,栄２丁目３番１号名古屋広小路ビルヂング１７階,,23,106,4600008,,,,,,,2026-01-06,1,,,,,ワイズオフィスナゴヤマルノウチ,0
1511,6180303006860,新規,0,2026-01-06,2026-01-06,合同会社赤虎,,合同会社,愛知県,豊田市,大林町１７丁目１０番地１２,,23,211,4730902,,,,,,,2026-01-06,1,,,,,アカトラ,0
1515,6200001044581,新規,0,2026-01-06,2026-01-06,株式会社すずらん,,株式会社,岐阜県,大垣市,川口４丁目１３番地,,21,202,5030941,,,,,,,2026-01-06,1,,,,,スズラン,0
1520,6220001027097,新規,0,2026-01-06,2026-01-06,株式会社ＪＣＳ,,株式会社,石川県,金沢市,有松５丁目１０番２４号プラミスビル２０１号室,,17,201,9218161,,,,,,,2026-01-06,1,,,,,ジェイシーエス,0
1521,6220001027106,新規,0,2026-01-06,2026-01-06,株式会社エミライズ,,株式会社,石川県,金沢市,伏見台１丁目１－１北光ビル１Ｆ,,17,201,9218177,,,,,,,2026-01-06,1,,,,,エミライズ,0
1522,6230001005374,新規,0,2026-01-06,2026-01-06,まど家株式会社,,株式会社,富山県,富山市,月岡町６丁目１３２０番地１,,16,201,9398132,,,,,,,2026-01-06,1,,,,,マドヤ,0
1527,6240001065987,新規,0,2026-01-06,2026-01-06,株式会社まつい建装,,株式会社,広島県,広島市安佐北区,倉掛３丁目４７番９号,,34,106,7391743,,,,,,,2026-01-06,1,,,,,マツイケンソウ,0
1529,6240005016020,新規,0,2026-01-06,2026-01-06,税理士法人リヴァリス,,その他の設立登記法人,広島県,尾道市,平原４丁目３番２号,,34,205,7220018,,,,,,,2026-01-06,1,,,,,リヴァリス,0
1530,6250001021485,新規,0,2026-01-06,2026-01-06,株式会社侑來工業,,株式会社,山口県,周南市,大字安田７２４番地４,,35,215,7450631,,,,,,,2026-01-06,1,,,,,ユウキコウギョウ,0
1532,6270005005672,新規,0,2026-01-06,2026-01-06,税理士法人ＵＰＷＡＲＤ,,その他の設立登記法人,鳥取県,米子市,安倍９８番地６,,31,202,6830846,,,,,,,2026-01-06,1,,,,,アップワード,0
1557,6290001112644,新規,0,2026-01-06,2026-01-06,株式会社ＪＴＲＡＶＥＬ,,株式会社,福岡県,福岡市東区,香椎照葉３丁目１番１３－１１０１号,,40,131,8130017,,,,,,,2026-01-06,1,,,,,ジェイトラベル,0
1558,6290001112652,新規,0,2026-01-06,2026-01-06,株式会社Ｌｉｎｋ,,株式会社,福岡県,福岡市中央区,大名１丁目１２番２７号,,40,133,8100041,,,,,,,2026-01-06,1,,,,,リンク,0
1559,6290003017882,新規,0,2026-01-06,2026-01-06,合同会社Ｆｅｌｉｃｅ,,合同会社,福岡県,福岡市西区,姪の浜４丁目１２番２６号,,40,135,8190002,,,,,,,2026-01-06,1,,,,,フェリーチェ,0
1560,6290805009895,新規,0,2026-01-06,2026-01-06,医療法人香林会,,その他の設立登記法人,福岡県,築上郡吉富町,大字小犬丸４７８番地１,,40,642,8710802,,,,,,,2026-01-06,1,,,,,コウリンカイ,0
1561,6350001019874,新規,0,2026-01-06,2026-01-06,株式会社青島スタイル,,株式会社,宮崎県,宮崎市,大字熊野１３７４番地３７,,45,201,8892151,,,,,,,2026-01-06,1,,,,,アオシマスタイル,0
1562,6350003005105,新規,0,2026-01-06,2026-01-06,合同会社１３７１,,合同会社,宮崎県,宮崎市,江平東２丁目４番４７号,,45,201,8800816,,,,,,,2026-01-06,1,,,,,イチサンナナイチ,0
1564,6360003015524,新規,0,2026-01-06,2026-01-06,合同会社上間企画,,合同会社,沖縄県,中頭郡中城村,字南上原２１５番地２,,47,328,9012424,,,,,,,2026-01-06,1,,,,,ウエマキカク,0
1577,6430001095957,新規,0,2026-01-06,2026-01-06,Ｎｅｘｔｙｌｅ株式会社,,株式会社,北海道,苫小牧市,拓勇西町８丁目２番２１号,,01,213,0591302,,,,,,,2026-01-06,1,,,,,ネクスタイル,0
1578,6430001095973,新規,0,2026-01-06,2026-01-06,株式会社ウォール工房,,株式会社,北海道,札幌市西区,西野一条１丁目６番１４－１０６号,,01,107,0630031,,,,,,,2026-01-06,1,,,,,ウォールコウボウ,0
1587,6700150133829,新規,0,2026-01-06,2026-01-06,Ｓｈｅｎｚｈｅｎ　Ｙｉｌｉｄａ　Ｗａｒｅｈｏｕｓｉｎｇ　Ｌｏｇｉｓｔｉｃｓ　Ｔｅｃｈｎｏｌｏｇｙ　Ｃｏ．，Ｌｔｄ,,外国会社等,,,,,,,,２ｎｄ　Ｆｌｏｏｒ，Ｂｕｉｌｄｉｎｇ　５，Ｓｈｅｎ’ａｏ　Ｃｕｌｔｕｒａｌ　Ｉｎｄｕｓｔｒｙ　Ｐａｒｋ，Ｄａｆａｐｕ　Ｃｏｍｍｕｎｉｔｙ，Ｂａｎｔｉａｎ　Ｓｕｂｄｉｓｔｒｉｃｔ，Ｌｏｎｇｇａｎｇ　Ｄｉｓｔｒｉｃｔ，Ｓｈｅｎｚｈｅｎ，Ｃｈｉｎａ,,,,,,2026-01-06,1,,,,,シンセイシイーリーダソウチユウブツリユウカギユウゲンカイシヤ,0
1593,7010001261162,新規,0,2026-01-06,2026-01-06,ラブリン株式会社,,株式会社,東京都,千代田区,神田小川町２丁目１２番地,,13,101,1010052,,,,,,,2026-01-06,1,,,,,ラブリン,0
1594,7010001261237,新規,0,2026-01-06,2026-01-06,株式会社ＧＥＮＩＥ　ＰＬＵＳ,,株式会社,東京都,中央区,勝どき４丁目６番１－１９０１号,,13,102,1040054,,,,,,,2026-01-06,1,,,,,ジーニープラス,0
1595,7010001261567,新規,0,2026-01-06,2026-01-06,株式会社ミライズ,,株式会社,東京都,千代田区,丸の内１丁目８番３号丸の内トラストタワー２０階,,13,101,1000005,,,,,,,2026-01-06,1,,,,,ミライズ,0
1603,7010401195480,新規,0,2026-01-06,2026-01-06,株式会社ビジトラ,,株式会社,東京都,港区,虎ノ門２丁目２番１号住友不動産虎ノ門タワー５階ＡＮＯＢＡＳＨＯ,,13,103,1050001,,,,,,,2026-01-06,1,,,,,,0
1604,7010403036922,新規,0,2026-01-06,2026-01-06,合同会社ＮＳＮ,,合同会社,東京都,港区,芝浦３丁目６番７号板硝子会館６階,,13,103,1080023,,,,,,,2026-01-06,1,,,,,エヌエスエヌ,0
1616,7011001174651,新規,0,2026-01-06,2026-01-06,株式会社ＨＩＰ　ＨＵＢ,,株式会社,東京都,渋谷区,道玄坂１丁目１０番８号渋谷道玄坂東急ビル２Ｆ－Ｃ,,13,113,1500043,,,,,,,2026-01-06,1,,,,,ヒップハブ,0
1620,7011101114383,新規,0,2026-01-06,2026-01-06,ハレイブルズ株式会社,,株式会社,東京都,新宿区,西新宿３丁目３番１３号西新宿水間ビル２Ｆ,,13,104,1600023,,,,,,,2026-01-06,1,,,,,ハレイブルズ,0
1622,7011103016842,新規,0,2026-01-06,2026-01-06,合同会社アトラクト,,合同会社,東京都,新宿区,早稲田南町５－２０７,,13,104,1620043,,,,,,,2026-01-06,1,,,,,アトラクト,0
1624,7011205002724,新規,0,2026-01-06,2026-01-06,一般社団法人桃園川緑道ワールド,,その他の設立登記法人,東京都,中野区,中央５丁目４７番５号,,13,114,1640011,,,,,,,2026-01-06,1,,,,,モモゾノガワリョクドウワールド,0
1626,7011301031148,新規,0,2026-01-06,2026-01-06,株式会社にじゅうさん,,株式会社,東京都,杉並区,天沼３丁目４番３号吉濱ビル３Ｆ,,13,115,1670032,,,,,,,2026-01-06,1,,,,,ニジュウサン,0
1637,7013301055531,新規,0,2026-01-06,2026-01-06,株式会社エムエー,,株式会社,東京都,豊島区,池袋２丁目１７番８号,,13,116,1710014,,,,,,,2026-01-06,1,,,,,エムエー,0
1641,7020003030060,新規,0,2026-01-06,2026-01-06,ＴＨＥ　ＰＲＯ　ＡＳＩＡ合同会社,,合同会社,神奈川県,横浜市中区,山手町２７番地５ベイステージ元町１０２,,14,104,2310862,,,,,,,2026-01-06,1,,,,,ザプロアジア,0
1643,7021005013508,新規,0,2026-01-06,2026-01-06,特定非営利活動法人食べる喜びを一緒に楽しむ会,,その他の設立登記法人,神奈川県,横須賀市,平作１丁目１４番１４号,,14,201,2380032,,,,,,,2026-01-06,1,,,,,タベルヨロコビヲイッショニタノシムカイ,0
1646,7030001170287,新規,0,2026-01-06,2026-01-06,株式会社ポニー,,株式会社,埼玉県,春日部市,大場２３５番地,,11,214,3440021,,,,,,,2026-01-06,1,,,,,,0
1649,7030003028319,新規,0,2026-01-06,2026-01-06,合同会社ＳＥＥＭＲＥＳＱ,,合同会社,埼玉県,草加市,稲荷町四丁目２０番１５号浅井第七店舗１０２,,11,221,3400000,,,,,,,2026-01-06,1,,,,,シームレスキュー,0
1650,7030003028392,新規,0,2026-01-06,2026-01-06,合同会社Ｂｌｕｅｊａｍ,,合同会社,埼玉県,さいたま市中央区,鈴谷８丁目７―２６,,11,105,3380013,,,,,,,2026-01-06,1,,,,,ブルージャム,0
1656,7040001141989,新規,0,2026-01-06,2026-01-06,株式会社ＭＳ　Ｃｏｍｐａｎｙ,,株式会社,千葉県,我孫子市,天王台６丁目１２番１２号,,12,222,2701143,,,,,,,2026-01-06,1,,,,,エムエスカンパニー,0
1657,7040003029191,新規,0,2026-01-06,2026-01-06,たゆたゆ合同会社,,合同会社,千葉県,市川市,南八幡３丁目１８－１４－４０１,,12,203,2720023,,,,,,,2026-01-06,1,,,,,タユタユ,0
1658,7050001057805,新規,0,2026-01-06,2026-01-06,株式会社常陸乃国Ｌａｂ,,株式会社,茨城県,ひたちなか市,大字高場２３４３番地１,,08,221,3120062,,,,,,,2026-01-06,1,,,,,ヒタチノクニラボ,0
1659,7050001057821,新規,0,2026-01-06,2026-01-06,株式会社はちわれ,,株式会社,茨城県,つくば市,並木４丁目１０番地１１０,,08,220,3050044,,,,,,,2026-01-06,1,,,,,ハチワレ,0
1661,7060001038886,新規,0,2026-01-06,2026-01-06,株式会社ＤＡＲＵＭＡ,,株式会社,栃木県,佐野市,鐙塚町４８番地２－２階,,09,204,3270815,,,,,,,2026-01-06,1,,,,,ダルマ,0
1662,7060001038903,新規,0,2026-01-06,2026-01-06,株式会社神谷農機商事,,株式会社,栃木県,那須塩原市,鍋掛９９２番地１,,09,213,3250013,,,,,,,2026-01-06,1,,,,,カミヤノウキショウジ,0
1664,7070001043695,新規,0,2026-01-06,2026-01-06,農業法人トゥＷ．Ｍ株式会社,,株式会社,群馬県,伊勢崎市,境保泉２６５番地１,,10,204,3700128,,,,,,,2026-01-06,1,,,,,ノウギョウホウジントゥダブルエム,0
1665,7070003006246,新規,0,2026-01-06,2026-01-06,合同会社Ｅｘｔｒａ　ａｇｅ,,合同会社,群馬県,前橋市,上沖町５２９番地３アイケーハイツ２０２,,10,201,3710052,,,,,,,2026-01-06,1,,,,,エクストラエイジ,0
1668,7080101025972,新規,0,2026-01-06,2026-01-06,ライコグループ株式会社,,株式会社,静岡県,富士市,天間９２４番地の１,,22,210,4190205,,,,,,,2026-01-06,1,,,,,ライコグループ,0
1669,7080101025997,新規,0,2026-01-06,2026-01-06,株式会社ＯＴＨＥＲーＳ,,株式会社,静岡県,三島市,西若町９番２７号,,22,206,4110038,,,,,,,2026-01-06,1,,,,,アザース,0
1672,7100001039236,新規,0,2026-01-06,2026-01-06,株式会社ライジング,,株式会社,長野県,長野市,大字風間１２４８番地１ペアガーデンＡ,,20,201,3810023,,,,,,,2026-01-06,1,,,,,ライジング,0
1675,7110001039813,新規,0,2026-01-06,2026-01-06,株式会社中村興業,,株式会社,新潟県,柏崎市,大字上田尻３１５９番地５２,,15,205,9451351,,,,,,,2026-01-06,1,,,,,ナカムラコウギョウ,0
1682,7120001283105,新規,0,2026-01-06,2026-01-06,株式会社ケセラセラ,,株式会社,大阪府,大阪市阿倍野区,阿倍野元町１６－６エスコート１０６号,,27,119,5450034,,,,,,,2026-01-06,1,,,,,ケセラセラ,0
1683,7120001283138,新規,0,2026-01-06,2026-01-06,Ｅｌｕｖｅｎａ株式会社,,株式会社,大阪府,大阪市北区,梅田１丁目２番２号大阪駅前第２ビル１２‐１２,,27,127,5300001,,,,,,,2026-01-06,1,,,,,エルヴェナ,0
1684,7120001283154,新規,0,2026-01-06,2026-01-06,株式会社ｒｅｓｐａｗｎｗａｌｋ,,株式会社,大阪府,大阪市住之江区,南港北２丁目１番１０号,,27,125,5590034,,,,,,,2026-01-06,1,,,,,リスポーンウォーク,0
1685,7120001283237,新規,0,2026-01-06,2026-01-06,株式会社Ａｉｖｙ,,株式会社,大阪府,大阪市平野区,加美北６丁目１番８号巽ハイツ１Ｆ,,27,126,5470001,,,,,,,2026-01-06,1,,,,,アイヴィー,0
1694,7130001081318,新規,0,2026-01-06,2026-01-06,株式会社ａｒｔｅｆｉｃｅ,,株式会社,京都府,宇治市,小倉町東山３６番地の１８,,26,204,6110042,,,,,,,2026-01-06,1,,,,,アルテフィーチェ,0
1695,7130001081326,新規,0,2026-01-06,2026-01-06,株式会社桜花ホーム,,株式会社,京都府,京都市北区,紫竹下芝本町２３－５－４０２,,26,101,6038424,,,,,,,2026-01-06,1,,,,,オウカホーム,0
1697,7130005017549,新規,0,2026-01-06,2026-01-06,一般社団法人企業改革機構,,その他の設立登記法人,京都府,京都市下京区,中堂寺粟田町９１,,26,106,6008815,,,,,,,2026-01-06,1,,,,,キギョウカイカクキコウ,0
1703,7140001141285,新規,0,2026-01-06,2026-01-06,株式会社Ｒｅ．Ｈｏｕｓｅ　Ｐｌｕｓ,,株式会社,兵庫県,加東市,北野６５８番地４,,28,228,6790205,,,,,,,2026-01-06,1,,,,,リハウスプラス,0
1721,7150001028622,新規,0,2026-01-06,2026-01-06,ＬＩＶＩＴ．株式会社,,株式会社,奈良県,奈良市,橋本町３番地の１,,29,201,6308217,,,,,,,2026-01-06,1,,,,,リヴィット,0
1722,7150001028639,新規,0,2026-01-06,2026-01-06,株式会社ＡｐｐＲｉｓｅ,,株式会社,奈良県,奈良市,左京１丁目１７番地の２１,,29,201,6310801,,,,,,,2026-01-06,1,,,,,アプライズ,0
1737,7180003029574,新規,0,2026-01-06,2026-01-06,合同会社結まる,,合同会社,愛知県,犬山市,大字五郎丸字堤北１番地４６,,23,215,4840066,,,,,,,2026-01-06,1,,,,,ユイマル,0
1738,7180005021356,新規,0,2026-01-06,2026-01-06,アジア技術開発協同組合,,その他の設立登記法人,愛知県,東海市,名和町三番割上３１番地エコクリーンハウス名和北３０７号室,,23,222,4760002,,,,,,,2026-01-06,1,,,,,アジアギジュツカイハツ,0
1739,7180005021364,新規,0,2026-01-06,2026-01-06,一般社団法人Ｒｅ‐Ｓｅｅｄ　Ｍｙａｎｍａｒ,,その他の設立登記法人,愛知県,名古屋市千種区,池園町１丁目４２番地,,23,101,4640818,,,,,,,2026-01-06,1,,,,,リシードミャンマー,0
1740,7190001032793,新規,0,2026-01-06,2026-01-06,株式会社Ｊｕｎｔｅｃ,,株式会社,三重県,桑名市,長島町福吉４０３番,,24,205,5111137,,,,,,,2026-01-06,1,,,,,ジュンテック,0
1746,7220001027088,新規,0,2026-01-06,2026-01-06,ＩＭＩ　ｂｒｉｄｇｅ株式会社,,株式会社,石川県,金沢市,専光寺町レ３番地３０,,17,201,9200356,,,,,,,2026-01-06,1,,,,,アイエムアイブリッジ,0
1747,7220003004201,新規,0,2026-01-06,2026-01-06,ＳＯ　Ｓｔｕｄｉｏｓ合同会社,,合同会社,石川県,小松市,安宅町甲６番２３,,17,203,9230003,,,,,,,2026-01-06,1,,,,,エスオースタジオ,0
1749,7230001021230,新規,0,2026-01-06,2026-01-06,株式会社ＤＥＫＡＢＡＣＯ,,株式会社,富山県,富山市,本郷町４７番地１,,16,201,9398045,,,,,,,2026-01-06,1,,,,,デカバコ,0
1750,7240001065978,新規,0,2026-01-06,2026-01-06,株式会社ウィッシュ,,株式会社,広島県,広島市東区,牛田旭１丁目１４番１３号正朋ビル２階,,34,102,7320067,,,,,,,2026-01-06,1,,,,,ウィッシュ,0
1752,7250001021484,新規,0,2026-01-06,2026-01-06,株式会社Ｌｉｎｋ　Ｐｌｕｓ,,株式会社,山口県,周南市,代々木通１丁目１０番地代々木ビル２Ｆ,,35,215,7450073,,,,,,,2026-01-06,1,,,,,リンクプラス,0
1755,7270001009362,新規,0,2026-01-06,2026-01-06,ＭＫ防災通信株式会社,,株式会社,鳥取県,鳥取市,千代水２丁目１１１番地,,31,201,6800911,,,,,,,2026-01-06,1,,,,,エムケイボウサイツウシン,0
1776,7290001112635,新規,0,2026-01-06,2026-01-06,チアフルホールディングス株式会社,,株式会社,福岡県,飯塚市,相田１１５３番地１,,40,205,8200052,,,,,,,2026-01-06,1,,,,,チアフルホールディングス,0
1777,7290001112643,新規,0,2026-01-06,2026-01-06,株式会社いろは,,株式会社,福岡県,朝倉郡筑前町,依井１４８５番地３,,40,447,8380813,,,,,,,2026-01-06,1,,,,,イロハ,0
1795,7310003005165,新規,0,2026-01-06,2026-01-06,合同会社一会,,合同会社,長崎県,西彼杵郡時津町,浜田郷２９９番地１６,,42,308,8512102,,,,,,,2026-01-06,1,,,,,イチエ,0
1796,7320001021519,新規,0,2026-01-06,2026-01-06,メタルクラフト株式会社,,株式会社,大分県,大分市,大字森９３３番地の２３,,44,201,8700128,,,,,,,2026-01-06,1,,,,,メタルクラフト,0
1797,7330003011376,新規,0,2026-01-06,2026-01-06,椿アセットマネジメント合同会社,,合同会社,熊本県,熊本市中央区,花畑町１番１４号Ａ＆Ｍ・ＨＡＮＡＢＡＴＡ３０１号,,43,101,8600806,,,,,,,2026-01-06,1,,,,,ツバキアセットマネジメント,0
1798,7340001027869,新規,0,2026-01-06,2026-01-06,ＢＡＫＥＤ　ＢＥＡＴ株式会社,,株式会社,鹿児島県,鹿児島市,吉野町７４７番地８,,46,201,8920871,,,,,,,2026-01-06,1,,,,,ベイクドビート,0
1801,7350001019873,新規,0,2026-01-06,2026-01-06,株式会社愛コーポレーション,,株式会社,宮崎県,宮崎市,橘通西２丁目７番２７号,,45,201,8800001,,,,,,,2026-01-06,1,,,,,アイコーポレーション,0
1805,7360003015531,新規,0,2026-01-06,2026-01-06,合同会社ＢＡＳＥ　ＨＯＵＳＥ,,合同会社,沖縄県,那覇市,前島２丁目１１番８号ドラゴンビル５０１,,47,201,9000016,,,,,,,2026-01-06,1,,,,,ベースハウス,0
1808,7370001053359,新規,0,2026-01-06,2026-01-06,株式会社ワイズエレクト,,株式会社,宮城県,名取市,みどり台１丁目６番地の４,,04,207,9811247,,,,,,,2026-01-06,1,,,,,ワイズエレクト,0
1813,7440001009733,新規,0,2026-01-06,2026-01-06,矢口不動産株式会社,,株式会社,北海道,北斗市,七重浜７丁目１０番８号,,01,236,0490111,,,,,,,2026-01-06,1,,,,,ヤグチフドウサン,0
1816,7470001021041,新規,0,2026-01-06,2026-01-06,株式会社Ｃｒｅｓｃｅｎｔ,,株式会社,香川県,高松市,屋島西町２０２７番地１,,37,201,7610113,,,,,,,2026-01-06,1,,,,,クレッセント,0
1820,7700150133828,新規,0,2026-01-06,2026-01-06,ＫＥＶＩＮ　ＬＡＮＫＡ　ＥＮＴＥＲＰＲＩＳＥＳ,,外国会社等,埼玉県,本庄市,児玉町金屋５７８番地２,,11,211,3670216,Ｓａｇａｒａｓｉｒｉ，Ｓｒａｗａｓｔｈｉｐｕｒａ，Ａｎｕｒａｄｈａｐｕｒａ，Ｓｒｉ　Ｌａｎｋａ,,,,,,2026-01-06,1,,,,,キヤビンランカエンタープライズ,0
1828,8010001261500,新規,0,2026-01-06,2026-01-06,株式会社Ｋ＆Ｓ,,株式会社,東京都,中央区,銀座１丁目１２番４号,,13,102,1040061,,,,,,,2026-01-06,1,,,,,ケーアンドエス,0
1829,8010001261533,新規,0,2026-01-06,2026-01-06,株式会社ＴＲＡＮＳ‐Ｘ,,株式会社,東京都,千代田区,丸の内２丁目２番１号,,13,101,1000005,,,,,,,2026-01-06,1,,,,,トランスエックス,0
1830,8010003049357,新規,0,2026-01-06,2026-01-06,合同会社えびくりえいと,,合同会社,東京都,千代田区,神田和泉町１番地６－１６ヤマトビル４０５,,13,101,1010024,,,,,,,2026-01-06,1,,,,,エビクリエイト,0
1831,8010003049836,新規,0,2026-01-06,2026-01-06,トトノエユニバース合同会社,,合同会社,東京都,中央区,日本橋室町１丁目１１番１２号日本橋水野ビル７階,,13,102,1030022,,,,,,,2026-01-06,1,,,,,トトノエユニバース,0
1832,8010003049860,新規,0,2026-01-06,2026-01-06,ＡＳＭ６合同会社,,合同会社,東京都,中央区,日本橋１丁目４番１号日本橋一丁目ビルディング,,13,102,1030027,,,,,,,2026-01-06,1,,,,,エイエスエムシックス,0
1834,8010005041147,新規,0,2026-01-06,2026-01-06,ＤＭＢＬ２一般社団法人,,その他の設立登記法人,東京都,中央区,日本橋１丁目４番１号日本橋一丁目ビルディング,,13,102,1030027,,,,,,,2026-01-06,1,,,,,ダンベルツー,0
1840,8010403036979,新規,0,2026-01-06,2026-01-06,ひむか合同会社,,合同会社,東京都,港区,南麻布１丁目５番４－５０１号,,13,103,1060047,,,,,,,2026-01-06,1,,,,,ヒムカ,0
1842,8010405025162,新規,0,2026-01-06,2026-01-06,一般社団法人ＣｉｒｃｕＬｉｎｋ　Ｃｏｎｓｏｒｔｉｕｍ,,その他の設立登記法人,東京都,港区,六本木１丁目３番４０号,,13,103,1060032,,,,,,,2026-01-06,1,,,,,サーキュリンクコンソーシアム,0
1844,8010601068519,新規,0,2026-01-06,2026-01-06,株式会社いろは,,株式会社,東京都,江東区,東陽２丁目３－５－３０８,,13,108,1350016,,,,,,,2026-01-06,1,,,,,イロハ,0
1848,8010605004536,新規,0,2026-01-06,2026-01-06,税理士法人ＴＡＭＯＮ,,その他の設立登記法人,東京都,江東区,豊洲５丁目６番３６号豊洲プライムスクエア１０階,,13,108,1350061,,,,,,,2026-01-06,1,,,,,タモン,0
1855,8010901058723,新規,0,2026-01-06,2026-01-06,株式会社ルナ,,株式会社,東京都,世田谷区,玉川１丁目１７番１８号,,13,112,1580094,,,,,,,2026-01-06,1,,,,,ルナ,0
1861,8011001174601,新規,0,2026-01-06,2026-01-06,株式会社メリノ,,株式会社,東京都,渋谷区,初台２丁目２７番５号,,13,113,1510061,,,,,,,2026-01-06,1,,,,,メリノ,0
1862,8011003023244,新規,0,2026-01-06,2026-01-06,ＰＲＮ合同会社,,合同会社,東京都,渋谷区,神南１丁目１１－４ＦＰＧリンクス神南５階,,13,113,1500041,,,,,,,2026-01-06,1,,,,,ピーアールエヌ,0
1863,8011003023285,新規,0,2026-01-06,2026-01-06,合同会社Ａｎｔｅ,,合同会社,東京都,目黒区,原町２丁目２１番１３号,,13,110,1520011,,,,,,,2026-01-06,1,,,,,アンテ,0
1865,8011203004928,新規,0,2026-01-06,2026-01-06,合同会社ＮＳＮＩ,,合同会社,東京都,中野区,中野３丁目３２－１０アヤベビル１階,,13,114,1640001,,,,,,,2026-01-06,1,,,,,エヌエスエヌアイ,0
1867,8011401027697,新規,0,2026-01-06,2026-01-06,信実テクノロジー株式会社,,株式会社,東京都,板橋区,小茂根１丁目２５番１６号ＵＩＳビル２Ｆ,,13,119,1730037,,,,,,,2026-01-06,1,,,,,シンジツテクノロジー,0
1874,8012303002268,新規,0,2026-01-06,2026-01-06,Ｆｅａｔｈｅｒ＆Ｈｏｐ合同会社,,合同会社,東京都,町田市,小山ヶ丘３丁目２８番地アパガーデンパレス多摩境６０１,,13,209,1940215,,,,,,,2026-01-06,1,,,,,フェザーアンドホップ,0
1876,8012403007539,新規,0,2026-01-06,2026-01-06,合同会社オフィスＭｉＲｉ,,合同会社,東京都,稲城市,若葉台３丁目１番地の１若葉台ワルツの杜Ｂ棟１４１０号室,,13,225,2060824,,,,,,,2026-01-06,1,,,,,オフィスミリ,0
1879,8012803003955,新規,0,2026-01-06,2026-01-06,合同会社ｏｌｉ,,合同会社,東京都,立川市,柴崎町３丁目９番２４号,,13,202,1900023,,,,,,,2026-01-06,1,,,,,オリ,0
1880,8013301055530,新規,0,2026-01-06,2026-01-06,株式会社ＳＫＩ,,株式会社,東京都,豊島区,池袋１丁目３８番１号池袋ＹＳステージビル２Ｆ,,13,116,1700014,,,,,,,2026-01-06,1,,,,,エスケイアイ,0
1881,8013303008032,新規,0,2026-01-06,2026-01-06,合同会社関東興業,,合同会社,東京都,豊島区,千早２丁目４番１－３１１号,,13,116,1710044,,,,,,,2026-01-06,1,,,,,カントウコウギョウ,0
1887,8020001166500,新規,0,2026-01-06,2026-01-06,株式会社Ｓｏ‐Ｒｉ‐Ｍａ,,株式会社,神奈川県,川崎市川崎区,駅前本町１１番地２川崎フロンティアビル４階,,14,131,2100007,,,,,,,2026-01-06,1,,,,,ソリマ,0
1894,8020003029589,新規,0,2026-01-06,2026-01-06,Ｏｈａｎａ合同会社,,合同会社,神奈川県,横浜市港北区,高田西２丁目２２番１２号シャルマンＣ１０３,,14,109,2230066,,,,,,,2026-01-06,1,,,,,オハナ,0
1908,8040001141955,新規,0,2026-01-06,2026-01-06,株式会社笹設備,,株式会社,千葉県,市原市,犬成１１１８番地,,12,219,2900166,,,,,,,2026-01-06,1,,,,,ササセツビ,0
1909,8040001141988,新規,0,2026-01-06,2026-01-06,株式会社ａｌｂａ,,株式会社,千葉県,成田市,美郷台１丁目２１番地７,,12,211,2860013,,,,,,,2026-01-06,1,,,,,アルバ,0
1914,8040003029199,新規,0,2026-01-06,2026-01-06,合同会社清水蓄電所,,合同会社,千葉県,木更津市,かずさ鎌足１丁目８番地１,,12,206,2920818,,,,,,,2026-01-06,1,,,,,シミズチクデンショ,0
1915,8040005022986,新規,0,2026-01-06,2026-01-06,一般社団法人結彩,,その他の設立登記法人,千葉県,鎌ケ谷市,西道野辺３番１９－５０２号,,12,224,2730117,,,,,,,2026-01-06,1,,,,,ユイサイ,0
1918,8060001038893,新規,0,2026-01-06,2026-01-06,株式会社ゴトテック,,株式会社,栃木県,宇都宮市,下川俣町２０６番地２３サンポワール宇都宮３０５号室,,09,201,3210972,,,,,,,2026-01-06,1,,,,,ゴトテック,0
1919,8060001038902,新規,0,2026-01-06,2026-01-06,株式会社晴結舎,,株式会社,栃木県,足利市,堀込町２９３番地,,09,202,3260831,,,,,,,2026-01-06,1,,,,,ハルユウシャ,0
1921,8060003005909,新規,0,2026-01-06,2026-01-06,合同会社ＭＵＭＬＹＳ,,合同会社,栃木県,足利市,下渋垂町５０２番地３,,09,202,3260334,,,,,,,2026-01-06,1,,,,,マムリス,0
1926,8100003008543,新規,0,2026-01-06,2026-01-06,合同会社松本シネマライツ,,合同会社,長野県,松本市,高宮中１１６番地２,,20,202,3900834,,,,,,,2026-01-06,1,,,,,マツモトシネマライツ,0
1929,8110001039812,新規,0,2026-01-06,2026-01-06,エミタス株式会社,,株式会社,新潟県,上越市,大和５丁目１番５号,,15,222,9430861,,,,,,,2026-01-06,1,,,,,エミタス,0
1931,8110002035281,新規,0,2026-01-06,2026-01-06,有限会社クビキ鶏園,,有限会社,新潟県,上越市,頸城区上増田３５４番地子,,15,222,9420203,,,,,,,2026-01-06,1,,,,,クビキケイエン,0
1940,8120001283087,新規,0,2026-01-06,2026-01-06,株式会社フェリグラフ,,株式会社,大阪府,大阪市中央区,日本橋１丁目１７番１７号ピカソ日本一ビル６０４号室,,27,128,5420073,,,,,,,2026-01-06,1,,,,,フェリグラフ,0
1941,8120001283153,新規,0,2026-01-06,2026-01-06,株式会社ブランドパトローラー,,株式会社,大阪府,大阪市西区,靱本町２丁目４－１靱本町下村ビル７ｆ,,27,106,5500004,,,,,,,2026-01-06,1,,,,,ブランドパトローラー,0
1942,8120001283186,新規,0,2026-01-06,2026-01-06,株式会社ＴＳＵＢＯＭＩＹＡ,,株式会社,大阪府,大阪市西区,西本町１丁目２番１９号５Ｆ,,27,106,5500005,,,,,,,2026-01-06,1,,,,,ツボミヤ,0
1955,8122001040047,新規,0,2026-01-06,2026-01-06,ＤｉｌｕＮｏｖａ株式会社,,株式会社,大阪府,東大阪市,小若江３丁目６番９号近畿大学ＫＩＮＣＵＢＡＢａｓｅｃａｍｐ,,27,227,5770818,,,,,,,2026-01-06,1,,,,,ディルノヴァ,0
1958,8130005017548,新規,0,2026-01-06,2026-01-06,一般社団法人京都丹波権利擁護ネットワーク,,その他の設立登記法人,京都府,亀岡市,追分町馬場通２４番地５,,26,206,6210804,,,,,,,2026-01-06,1,,,,,キョウトタンバケンリヨウゴネットワーク,0
1963,8140001141219,新規,0,2026-01-06,2026-01-06,Ａｉ．ｍａｋｅｒ株式会社,,株式会社,兵庫県,芦屋市,西芦屋町８番１６号,00142054,28,206,6590085,,,,,,,2026-01-06,1,,,,,アイメーカー,0
1964,8140001141235,新規,0,2026-01-06,2026-01-06,株式会社ライフコンサルタント,,株式会社,兵庫県,西脇市,黒田庄町船町３７２－２,,28,213,6790304,,,,,,,2026-01-06,1,,,,,ライフコンサルタント,0
1965,8140001141276,新規,0,2026-01-06,2026-01-06,株式会社美管工業,,株式会社,兵庫県,神戸市長田区,浜添通２丁目２番２１－９号,,28,106,6530024,,,,,,,2026-01-06,1,,,,,ビカンコウギョウ,0
1966,8140001141284,新規,0,2026-01-06,2026-01-06,株式会社ＧＸ　Ｒｅｇｅｎｅｒａｔｉｖｅ,,株式会社,兵庫県,神戸市須磨区,行平町１丁目１－１７,,28,107,6540037,,,,,,,2026-01-06,1,,,,,ジーエックスリジェネラティブ,0
1995,8160001027317,新規,0,2026-01-06,2026-01-06,株式会社Ｍスポーツ＆ウェルネス,,株式会社,滋賀県,大津市,勧学１丁目１番２０号,,25,201,5200013,,,,,,,2026-01-06,1,,,,,エムスポーツアンドウェルネス,0
2001,8180001170081,新規,0,2026-01-06,2026-01-06,株式会社東宝ハウス名古屋城東,,株式会社,愛知県,名古屋市東区,矢田５丁目７番７５号,,23,102,4610040,,,,,,,2026-01-06,1,,,,,トウホウハウスナゴヤジョウトウ,0
2002,8180001170098,新規,0,2026-01-06,2026-01-06,株式会社インテリアＴＡＭＡＴＡＮＩ,,株式会社,愛知県,江南市,宮田神明町栄８６番地,,23,217,4838304,,,,,,,2026-01-06,1,,,,,インテリアタマタニ,0
2003,8180001170115,新規,0,2026-01-06,2026-01-06,株式会社ゼニスホールディングス,,株式会社,愛知県,名古屋市東区,徳川町１４０２番地ワンラブ徳川ビル,,23,102,4610023,,,,,,,2026-01-06,1,,,,,ゼニスホールディングス,0
2015,8230001021221,新規,0,2026-01-06,2026-01-06,株式会社Ｋ‐ｃｏｒｐｏｒａｔｉｏｎ富山,,株式会社,富山県,富山市,布瀬町南１丁目１８番地３サロン・ド・セジュールＤ棟１０１,,16,201,9398208,,,,,,,2026-01-06,1,,,,,ケーコーポレーショントヤマ,0
2017,8240001066001,新規,0,2026-01-06,2026-01-06,株式会社ＦＵＫＵｌａｂ,,株式会社,広島県,東広島市,八本松東２丁目８番２８－５号１Ｆ,,34,212,7390142,,,,,,,2026-01-06,1,,,,,フクラボ,0
2022,8260003005459,新規,0,2026-01-06,2026-01-06,合同会社スカイロード,,合同会社,岡山県,岡山市南区,新保４５０－４－２０９,,33,104,7000945,,,,,,,2026-01-06,1,,,,,スカイロード,0
2023,8270001009361,新規,0,2026-01-06,2026-01-06,株式会社エヌアールクラフト,,株式会社,鳥取県,米子市,淀江町佐陀７０２番地３,,31,202,6893425,,,,,,,2026-01-06,1,,,,,エヌアールクラフト,0
2037,8290001112650,新規,0,2026-01-06,2026-01-06,株式会社Ｌｕｎａ　Ｓｐａｒｋｌｅ,,株式会社,福岡県,福岡市博多区,博多駅前４丁目３６番２９号博多ＩＢセンタービル４０５号室,,40,132,8120011,,,,,,,2026-01-06,1,,,,,ルナスパークル,0
2038,8290001112667,新規,0,2026-01-06,2026-01-06,株式会社アスタリスク,,株式会社,福岡県,福岡市中央区,渡辺通５丁目２番１０－６０１号,,40,133,8100004,,,,,,,2026-01-06,1,,,,,アスタリスク,0
2040,8290801032123,新規,0,2026-01-06,2026-01-06,ＨＹＹ株式会社,,株式会社,福岡県,北九州市八幡東区,桃園１丁目１０番２２号,,40,108,8050068,,,,,,,2026-01-06,1,,,,,エイチワイワイ,0
2041,8330001033875,新規,0,2026-01-06,2026-01-06,株式会社直志総建,,株式会社,熊本県,荒尾市,四ツ山町２丁目３番２５号,,43,204,8640052,,,,,,,2026-01-06,1,,,,,タダシソウケン,0
2042,8330001033883,新規,0,2026-01-06,2026-01-06,エントレメッツ株式会社,,株式会社,熊本県,熊本市東区,東野１丁目６番６号,,43,102,8612106,,,,,,,2026-01-06,1,,,,,エントレメッツ,0
2043,8330003011375,新規,0,2026-01-06,2026-01-06,合同会社ＳＫＭ,,合同会社,熊本県,菊池郡菊陽町,杉並台２丁目６番１１－１０６号,,43,404,8691110,,,,,,,2026-01-06,1,,,,,エスケーエム,0
2045,8340001027868,新規,0,2026-01-06,2026-01-06,株式会社ＴＲＹ,,株式会社,鹿児島県,霧島市,国分府中１４５４番地テラスあもりＢ２０２,,46,218,8994345,,,,,,,2026-01-06,1,,,,,トライ,0
2046,8340001027876,新規,0,2026-01-06,2026-01-06,株式会社薗田林業,,株式会社,鹿児島県,鹿児島市,坂之上８丁目３７－６４－２０６,,46,201,8910150,,,,,,,2026-01-06,1,,,,,ソノダリンギョウ,0
2047,8340001027884,新規,0,2026-01-06,2026-01-06,株式会社あじさいＣｏｍｐａｎｙ,,株式会社,鹿児島県,鹿児島市,田上台４丁目１番２号,,46,201,8900036,,,,,,,2026-01-06,1,,,,,アジサイカンパニー,0
2048,8340005009929,新規,0,2026-01-06,2026-01-06,一般社団法人指月ハイツ温泉管理組合,,その他の設立登記法人,鹿児島県,薩摩川内市,樋脇町市比野３２００番地９０,00142055,46,215,8951203,,,,,,,2026-01-06,1,,,,,シゲツハイツオンセンカンリクミアイ,0
2050,8360003015514,新規,0,2026-01-06,2026-01-06,合同会社エムアグリ,,合同会社,沖縄県,那覇市,松島１丁目１１番１１号ＮＦレジデンス真嘉比１０１,,47,201,9020069,,,,,,,2026-01-06,1,,,,,,0
2051,8360003015530,新規,0,2026-01-06,2026-01-06,合同会社ＴＯＫＩＨＡＲＵ,,合同会社,沖縄県,豊見城市,字豊崎１番地１１７５ジ・オーシャンテラス豊崎６０３号室,,47,212,9010225,,,,,,,2026-01-06,1,,,,,トキハル,0
2052,8370001053341,新規,0,2026-01-06,2026-01-06,北タイル株式会社,,株式会社,宮城県,柴田郡川崎町,大字川内字中沢７５番地１０,,04,324,9891503,,,,,,,2026-01-06,1,,,,,キタタイル,0
2058,8380003006222,新規,0,2026-01-06,2026-01-06,合同会社ＢＯＴＡ,,合同会社,福島県,伊達市,梁川町五十沢字小坂２番地,,07,213,9600701,,,,,,,2026-01-06,1,,,,,ボタ,0
2071,8490003002078,新規,0,2026-01-06,2026-01-06,合同会社虹光,,合同会社,高知県,南国市,下島丙１３番地,,39,204,7830095,,,,,,,2026-01-06,1,,,,,コウコウ,0
2072,8500001026696,新規,0,2026-01-06,2026-01-06,株式会社お家をお片付け,,株式会社,愛媛県,松山市,平和通２丁目３番地１,,38,201,7900807,,,,,,,2026-01-06,1,,,,,オウチヲオカタヅケ,0
2075,8700150133827,新規,0,2026-01-06,2026-01-06,ＵＢ　ＥＮＴＥＲＰＲＩＳＥＳ,,外国会社等,千葉県,山武郡芝山町,新井田字屋敷下６４６番１－Ｄ１,,12,409,2891625,スリランカ民主社会主義共和国、コロンボ１１、第２クロスストリート、バステアンタワー１７５－１／７,,,,,,2026-01-06,1,,,,,ユービーエンタープライゼス,0
2080,9010001261482,新規,0,2026-01-06,2026-01-06,ＶＩＢＲＡ株式会社,,株式会社,東京都,千代田区,神田神保町２丁目１０－３１ＩＷビル１Ｆ,,13,101,1010051,,,,,,,2026-01-06,1,,,,,バイブラ,0
2081,9010001261581,新規,0,2026-01-06,2026-01-06,株式会社西浜農園,,株式会社,東京都,八丈島八丈町,大賀郷７８６０番地１,,13,401,1001401,,,,,,,2026-01-06,1,,,,,ニシハマノウエン,0
2082,9010001261631,新規,0,2026-01-06,2026-01-06,シルバースターワークス株式会社,,株式会社,東京都,中央区,銀座７丁目２番６号銀座アステルビル４階,,13,102,1040061,,,,,,,2026-01-06,1,,,,,シルバースターワークス,0
2085,9010005041170,新規,0,2026-01-06,2026-01-06,一般社団法人九電みらいソーラー,,その他の設立登記法人,東京都,千代田区,丸の内１丁目４番１号東京共同会計事務所内,,13,101,1000005,,,,,,,2026-01-06,1,,,,,キュウデンミライソーラー,0
2088,9010401195438,新規,0,2026-01-06,2026-01-06,７８ＧＯＬＤ株式会社,,株式会社,東京都,港区,港南２丁目１６－１品川イーストワンタワー４階,,13,103,1080075,,,,,,,2026-01-06,1,,,,,セブンエイトゴールド,0
2091,9010403036945,新規,0,2026-01-06,2026-01-06,セカンド合同会社,,合同会社,東京都,港区,北青山１丁目３－３三橋ビル３階,,13,103,1070061,,,,,,,2026-01-06,1,,,,,セカンド,0
2092,9010403036961,新規,0,2026-01-06,2026-01-06,合同会社ＦＹＯＰ,,合同会社,東京都,港区,浜松町２丁目２番１５号浜松町ダイヤビル２Ｆ,,13,103,1050013,,,,,,,2026-01-06,1,,,,,エフワイオーピー,0
2096,9010503008126,新規,0,2026-01-06,2026-01-06,ながいもＡＩ合同会社,,合同会社,東京都,台東区,台東１丁目１番１１号ポモドーロ清洲橋通りビル一階,,13,106,1100016,,,,,,,2026-01-06,1,,,,,ナガイモエーアイ,0
2100,9010701048840,新規,0,2026-01-06,2026-01-06,株式会社ＰＥＡＫ　ＯＮ,,株式会社,東京都,品川区,二葉２丁目１０番１１号エスポワール品川３０２,,13,109,1420043,,,,,,,2026-01-06,1,,,,,ピークオン,0
2101,9010901058722,新規,0,2026-01-06,2026-01-06,株式会社ＭＩＯＲＩ,,株式会社,東京都,世田谷区,下馬４丁目２２番２号,,13,112,1540002,,,,,,,2026-01-06,1,,,,,ミオリ,0
2102,9010901058730,新規,0,2026-01-06,2026-01-06,株式会社ｃｕｏｒｅ,,株式会社,東京都,世田谷区,北沢５丁目１０番７－４号,,13,112,1550031,,,,,,,2026-01-06,1,,,,,クオーレ,0
2108,9011001174625,新規,0,2026-01-06,2026-01-06,Ｆｏｕｒ　Ｂｒａｉｎｓ株式会社,,株式会社,東京都,渋谷区,神南１丁目２３番１４号,,13,113,1500041,,,,,,,2026-01-06,1,,,,,フォーブレインズ,0
2109,9011003023020,新規,0,2026-01-06,2026-01-06,Ｓ＆Ｉ合同会社,,合同会社,東京都,渋谷区,宇田川町３７番１３号,,13,113,1500042,,,,,,,2026-01-06,1,,,,,エスアンドアイ,0
2110,9011003023243,新規,0,2026-01-06,2026-01-06,合同会社ＡＷＡＩＫ,,合同会社,東京都,渋谷区,道玄坂１丁目１０番８号渋谷道玄坂東急ビル２Ｆ－Ｃ,,13,113,1500043,,,,,,,2026-01-06,1,,,,,アウェイク,0
2111,9011003023251,新規,0,2026-01-06,2026-01-06,合同会社ＣＯＴＯＬＸ,,合同会社,東京都,渋谷区,神南１丁目１１番４号ＦＰＧリンクス神南５階,,13,113,1500041,,,,,,,2026-01-06,1,,,,,コトリクス,0
2113,9011201026873,新規,0,2026-01-06,2026-01-06,株式会社かさしほ,,株式会社,東京都,中野区,中野５丁目６６番４号井口ビル５階,,13,114,1640001,,,,,,,2026-01-06,1,,,,,カサシホ,0
2114,9011503006821,新規,0,2026-01-06,2026-01-06,合同会社インテグラ,,合同会社,東京都,北区,西ケ原４丁目４９番３－３０１号メゾンサワダ,,13,117,1140024,,,,,,,2026-01-06,1,,,,,インテグラ,0
2115,9011601029278,新規,0,2026-01-06,2026-01-06,株式会社Ｔ＆ＴＪＡＰＡＮ,,株式会社,東京都,練馬区,豊玉中２丁目６番地６号,,13,120,1760013,,,,,,,2026-01-06,1,,,,,ティアンドティジャパン,0
2126,9020001166540,新規,0,2026-01-06,2026-01-06,株式会社アムリタ,,株式会社,神奈川県,横浜市瀬谷区,橋戸１丁目３５番地１号,,14,114,2460037,,,,,,,2026-01-06,1,,,,,アムリタ,0
2129,9020003030117,新規,0,2026-01-06,2026-01-06,ＦｕｔｕｒｅＰｌａｙｂｏｏｋｓ合同会社,,合同会社,神奈川県,横浜市西区,浅間町１丁目４番３号ウィザードビル４０２,,14,103,2200072,,,,,,,2026-01-06,1,,,,,フューチャープレイブックス,0
2130,9021001087198,新規,0,2026-01-06,2026-01-06,株式会社ネイク,,株式会社,神奈川県,三浦郡葉山町,長柄１４６１―２２８,,14,301,2400113,,,,,,,2026-01-06,1,,,,,ネイク,0
2131,9021005013514,新規,0,2026-01-06,2026-01-06,医療法人社団徳和会,,その他の設立登記法人,神奈川県,平塚市,平塚５丁目９番１８号,,14,203,2540052,,,,,,,2026-01-06,1,,,,,トクワカイ,0
2135,9030001170335,新規,0,2026-01-06,2026-01-06,株式会社ＭＲＫ,,株式会社,埼玉県,川口市,戸塚３丁目３１番２７号,,11,203,3330811,,,,,,,2026-01-06,1,,,,,エムアールケー,0
2136,9030001170368,新規,0,2026-01-06,2026-01-06,株式会社秀秀建設,,株式会社,埼玉県,志木市,幸町２丁目５番１８－４０６号,,11,228,3530005,,,,,,,2026-01-06,1,,,,,ヒデシュウケンセツ,0
2138,9030003028358,新規,0,2026-01-06,2026-01-06,合同会社上野鍼灸院,,合同会社,埼玉県,川口市,西川口１丁目１８－１８ハイム西川口５０８,,11,203,3320021,,,,,,,2026-01-06,1,,,,,ウエノシンキュウイン,0
2139,9030003028366,新規,0,2026-01-06,2026-01-06,合同会社Ｃｏｃｏｒｏ　Ｃｏｌｏｒｓ,,合同会社,埼玉県,越谷市,宮本町２丁目１５０番地１３,,11,222,3430806,,,,,,,2026-01-06,1,,,,,ココロカラーズ,0
2146,9040003029231,新規,0,2026-01-06,2026-01-06,合同会社ＯＨＡＲＡＮ,,合同会社,千葉県,市原市,八幡１１０２第一北嶋ビル２Ｆ,,12,219,2900062,,,,,,,2026-01-06,1,,,,,オハラン,0
2147,9040003029248,新規,0,2026-01-06,2026-01-06,合同会社ＰＦＰ,,合同会社,千葉県,野田市,大殿井１５０―２３,,12,208,2780017,,,,,,,2026-01-06,1,,,,,ピーエフピー,0
2148,9040005022985,新規,0,2026-01-06,2026-01-06,一般社団法人千響,,その他の設立登記法人,千葉県,茂原市,千町５６６番地９,,12,210,2970002,,,,,,,2026-01-06,1,,,,,センキョウ,0
2151,9060001038892,新規,0,2026-01-06,2026-01-06,鈴縁建機サービス株式会社,,株式会社,栃木県,河内郡上三川町,大字西汗１７０６番地１０,,09,301,3290607,,,,,,,2026-01-06,1,,,,,スズエンケンキサービス,0
2152,9060001038901,新規,0,2026-01-06,2026-01-06,藤田林業株式会社,,株式会社,栃木県,矢板市,沢７７４番地１,,09,211,3292132,,,,,,,2026-01-06,1,,,,,フジタリンギョウ,0
2161,9100003008559,新規,0,2026-01-06,2026-01-06,合同会社浅杜コーポレーション,,合同会社,長野県,北佐久郡御代田町,大字塩野３１８０番地３３４,,20,323,3890201,,,,,,,2026-01-06,1,,,,,セントコーポレーション,0
2162,9110001039811,新規,0,2026-01-06,2026-01-06,株式会社ラ・オハナ,,株式会社,新潟県,新潟市東区,逢谷内４丁目２番２号,,15,102,9500814,,,,,,,2026-01-06,1,,,,,ラオハナ,0
2166,9120001283061,新規,0,2026-01-06,2026-01-06,恋上日系株式会社,,株式会社,大阪府,大阪市中央区,船場中央２丁目１番４号船場センタービル４号館地下一階Ｂ１０８ＲＯＹＡＬＯＦＦＩＣＥ内,,27,128,5410055,,,,,,,2026-01-06,1,,,,,レンジョウニッケイ,0
2167,9120001283086,新規,0,2026-01-06,2026-01-06,株式会社ＲＩＺＡＲＤ　ＨＯＵＳＥ,,株式会社,大阪府,大阪市平野区,加美東３丁目１４番５号,,27,126,5470002,,,,,,,2026-01-06,1,,,,,リザードハウス,0
2168,9120001283103,新規,0,2026-01-06,2026-01-06,リライズエナジー株式会社,,株式会社,大阪府,大阪市西区,江之子島２丁目１番１号,,27,106,5500006,,,,,,,2026-01-06,1,,,,,リライズエナジー,0
2169,9120001283160,新規,0,2026-01-06,2026-01-06,株式会社Ｓａｎａｎｄｏ,,株式会社,大阪府,大阪市中央区,島之内２丁目１７番１１号,,27,128,5420082,,,,,,,2026-01-06,1,,,,,サナンド,0
2172,9120003031617,新規,0,2026-01-06,2026-01-06,合同会社紫月アトリエ,,合同会社,大阪府,大阪市北区,梅田１丁目１‐３大阪駅前第３ビル２９階１‐１‐１号室,,27,127,5300001,,,,,,,2026-01-06,1,,,,,シヅキアトリエ,0
2176,9120901052037,新規,0,2026-01-06,2026-01-06,株式会社ベネフィシア,,株式会社,大阪府,豊中市,岡町北１丁目１番１０号,,27,203,5610884,,,,,,,2026-01-06,1,,,,,ベネフィシア,0
2177,9120901052045,新規,0,2026-01-06,2026-01-06,株式会社しげサポ,,株式会社,大阪府,茨木市,東太田３丁目１番８－４１９号,,27,211,5670012,,,,,,,2026-01-06,1,,,,,シゲサポ,0
2231,9170005007180,新規,0,2026-01-06,2026-01-06,特定非営利活動法人暮らしの未来,,その他の設立登記法人,和歌山県,和歌山市,古屋１６番地２３,,30,201,6408435,,,,,,,2026-01-06,1,,,,,クラシノミライ,0
2234,9180001170106,新規,0,2026-01-06,2026-01-06,株式会社敬愛,,株式会社,愛知県,春日井市,熊野町３１０４番地,,23,206,4860822,,,,,,,2026-01-06,1,,,,,ケイアイ,0
2235,9180003029548,新規,0,2026-01-06,2026-01-06,グッドワイズ合同会社,,合同会社,愛知県,名古屋市中村区,名駅４丁目２４番５号第２森ビル４０１,,23,105,4500002,,,,,,,2026-01-06,1,,,,,グッドワイズ,0
2236,9180003029564,新規,0,2026-01-06,2026-01-06,ＯＨ２合同会社,,合同会社,愛知県,名古屋市天白区,平針１丁目６０１番地平針西住宅１棟５０２号,,23,116,4680011,,,,,,,2026-01-06,1,,,,,オーエイチツー,0
2238,9190001032791,新規,0,2026-01-06,2026-01-06,ＳＴＥＥＬ　ＣＲＡＦＴ株式会社,,株式会社,三重県,鈴鹿市,南玉垣町５７０７‐２,,24,207,5130816,,,,,,,2026-01-06,1,,,,,スチールクラフト,0
2239,9190003005317,新規,0,2026-01-06,2026-01-06,合同会社やよい,,合同会社,三重県,桑名市,大字額田５２５,,24,205,5110911,,,,,,,2026-01-06,1,,,,,ヤヨイ,0
2241,9200001044579,新規,0,2026-01-06,2026-01-06,株式会社ユニリンク,,株式会社,岐阜県,土岐市,泉池ノ上町１丁目３番地,,21,212,5095144,,,,,,,2026-01-06,1,,,,,ユニリンク,0
2242,9210001020439,新規,0,2026-01-06,2026-01-06,株式会社ＧＬＯＷ,,株式会社,福井県,福井市,二の宮４丁目１番１０号,,18,201,9100015,,,,,,,2026-01-06,1,,,,,グロウ,0
2243,9220001027103,新規,0,2026-01-06,2026-01-06,株式会社北川辰,,株式会社,石川県,白山市,湊町丙１１番地１５,,17,210,9290217,,,,,,,2026-01-06,1,,,,,キタガワタツ,0
2246,9220003004199,新規,0,2026-01-06,2026-01-06,ｚｅｎ　ｃｒｅａｔｉｏｎ合同会社,,合同会社,石川県,輪島市,門前町鬼屋６－１３－１,,17,204,9272147,,,,,,,2026-01-06,1,,,,,ゼンクリエーション,0
2258,9270003001828,新規,0,2026-01-06,2026-01-06,合同会社ＮＯＷゴー,,合同会社,鳥取県,米子市,東福原５丁目１２番３０号,,31,202,6830802,,,,,,,2026-01-06,1,,,,,ナウゴー,0
2281,9290001112641,新規,0,2026-01-06,2026-01-06,セルニクス株式会社,,株式会社,福岡県,福岡市博多区,博多駅前３丁目９番１４号フォロ博多ビル３Ｆ,,40,132,8120011,,,,,,,2026-01-06,1,,,,,セルニクス,0
2282,9290001112674,新規,0,2026-01-06,2026-01-06,株式会社ラシク,,株式会社,福岡県,福岡市城南区,鳥飼４丁目１７番１号,,40,136,8140103,,,,,,,2026-01-06,1,,,,,ラシク,0
2283,9300001014464,新規,0,2026-01-06,2026-01-06,株式会社つむぐメディカルサポート,,株式会社,佐賀県,佐賀市,開成２丁目２番６号,,41,201,8490934,,,,,,,2026-01-06,1,,,,,ツムグメディカルサポート,0
2284,9310001019909,新規,0,2026-01-06,2026-01-06,株式会社ＴｒｕｅＣａｍｅｒａ,,株式会社,長崎県,長崎市,大黒町１０番１０号ＫｏＫｏＲｏビル６１９０号室,,42,201,8500057,,,,,,,2026-01-06,1,,,,,トゥルーカメラ,0
2289,9330001033874,新規,0,2026-01-06,2026-01-06,ＨＡＬＣＡＤＯ株式会社,,株式会社,熊本県,熊本市中央区,水前寺公園２０－３,,43,101,8620956,,,,,,,2026-01-06,1,,,,,ハルカド,0
2290,9330001033899,新規,0,2026-01-06,2026-01-06,株式会社ＮＡＫＡＨＡＲＡ,,株式会社,熊本県,熊本市南区,南高江６丁目１３番２２号岡田ビルディング２・１０１号室,,43,104,8614106,,,,,,,2026-01-06,1,,,,,ナカハラ,0
2294,9350001019871,新規,0,2026-01-06,2026-01-06,株式会社ＦＵＮ　ＷＯＲＫＳ,,株式会社,宮崎県,宮崎市,大塚町小原田２１０８番地１,,45,201,8800951,,,,,,,2026-01-06,1,,,,,ファンワークス,0
2298,9350005006346,新規,0,2026-01-06,2026-01-06,一般社団法人宮崎県言語聴覚士会,,その他の設立登記法人,宮崎県,小林市,真方３９６番地１８,,45,205,8860007,,,,,,,2026-01-06,1,,,,,ミヤザキケンゲンゴチョウカクシカイ,0
2299,9360003015538,新規,0,2026-01-06,2026-01-06,合同会社ＡＸパートナーズ,,合同会社,沖縄県,宜野湾市,野嵩３丁目２０番３号,,47,205,9012203,,,,,,,2026-01-06,1,,,,,エーエックスパートナーズ,0
2300,9370005011055,新規,0,2026-01-06,2026-01-06,一般社団法人パシフィック,,その他の設立登記法人,宮城県,石巻市,三和町１番１４号,,04,202,9862111,,,,,,,2026-01-06,1,,,,,パシフィック,0
2303,9380003006221,新規,0,2026-01-06,2026-01-06,合同会社ＡＬＴＥＲ　ＥＧＯ,,合同会社,福島県,郡山市,田村町栃山神字荻ノ塚１０３番地,,07,203,9631245,,,,,,,2026-01-06,1,,,,,オルターエゴ,0
2310,9410001014354,新規,0,2026-01-06,2026-01-06,株式会社東海林工業,,株式会社,秋田県,由利本荘市,東梵天１５２番地８,,05,210,0150843,,,,,,,2026-01-06,1,,,,,ショウジコウギョウ,0
2323,9460001006058,新規,0,2026-01-06,2026-01-06,株式会社高瀬塗装店,,株式会社,北海道,釧路郡釧路町,東陽大通西２丁目１番地８,,01,661,0880628,,,,,,,2026-01-06,1,,,,,タカセトソウテン,0
2326,9470003003044,新規,0,2026-01-06,2026-01-06,合同会社松下製麺所,,合同会社,香川県,高松市,中野町２番２号,,37,201,7600008,,,,,,,2026-01-06,1,,,,,マツシタセイメンジョ,0
2328,9500003003651,新規,0,2026-01-06,2026-01-06,合同会社きっこう,,合同会社,愛媛県,西予市,宇和町卯之町２丁目２２９番地,,38,214,7970015,,,,,,,2026-01-06,1,,,,,キッコウ,0
