sequenceNumber,corporateNumber,process,correct,updateDate,changeDate,name,nameImageId,kind,prefectureName,cityName,streetNumber,addressImageId,prefectureCode,cityCode,postCode,addressOutside,addressOutsideImageId,closeDate,closeCause,successorCorporateNumber,changeCause,assignmentDate,latest,enName,enPrefectureName,enCityName,enAddressOutside,furigana,hihyoji
18,1010403018406,登記記録の閉鎖等,0,2021-12-20,2021-12-10,ジングボックスジャパン合同会社,,合同会社,東京都,港区,虎ノ門２丁目２－５共同通信会館４Ｆ・ＳＣＳ国際税理士法人内,,13,103,1050001,,,2021-12-10,清算の結了等,,,2018-04-05,1,,,,,ジングボックスジャパン,0
31,1010705001191,登記記録の閉鎖等,0,2021-12-20,2021-12-13,レナウン労働組合,,その他の設立登記法人,東京都,江東区,有明３丁目６番１１号ＴＦＴビル東館６階,,13,108,1350063,,,2021-12-13,清算の結了等,,,2015-10-05,1,,,,,レナウン,0
60,1011802028656,登記記録の閉鎖等,0,2021-12-20,2021-12-17,エム・プロス・ティ有限会社,,有限会社,東京都,足立区,保木間３丁目１２番５号ＴＭビル１０２,,13,121,1210064,,,2021-12-17,清算の結了等,,,2015-10-05,1,,,,,,0
84,1021003010883,登記記録の閉鎖等,0,2021-12-20,2021-12-15,合同会社ライズ,,合同会社,神奈川県,小田原市,扇町２丁目２４番１０号グリーンルーフ２－２０１,,14,206,2500001,,,2021-12-15,清算の結了等,,,2021-09-14,1,,,,,ライズ,0
90,1030001113359,登記記録の閉鎖等,0,2021-12-20,2021-12-17,株式会社エイチ・アール・プロモーション,,株式会社,埼玉県,さいたま市南区,四谷３丁目１番３号,,11,108,3360032,,,2021-12-17,清算の結了等,,,2016-03-17,1,,,,,エイチアールプロモーション,0
97,1040001072521,登記記録の閉鎖等,0,2021-12-20,2021-12-16,株式会社サンライズジャパン,,株式会社,千葉県,野田市,日の出町２番地の４,,12,208,2700234,,,2021-12-16,清算の結了等,,,2015-10-05,1,,,,,サンライズジャパン,0
101,1040002097336,登記記録の閉鎖等,0,2021-12-20,2021-12-15,有限会社トータル電設,,有限会社,千葉県,流山市,おおたかの森南１丁目９番地の９,,12,220,2700139,,,2021-12-15,清算の結了等,,,2015-10-05,1,,,,,トータルデンセツ,0
105,1050005003562,登記記録の閉鎖等,0,2021-12-20,2021-12-10,茨城製＿協同組合,00023636,その他の設立登記法人,茨城県,石岡市,石岡１４０４１番地,,08,205,3150001,,,2021-12-10,清算の結了等,,,2015-10-05,1,,,,,イバラキセイアン,0
122,1110002026130,登記記録の閉鎖等,0,2021-12-20,2021-12-15,有限会社デプラ,,有限会社,新潟県,十日町市,水野町３８１番地３,,15,210,9480026,,,2021-12-15,清算の結了等,,,2015-10-05,1,,,,,デプラ,0
126,1120001076720,登記記録の閉鎖等,0,2021-12-20,2021-12-17,オリオン帽子株式会社,,株式会社,大阪府,大阪市中央区,上汐２丁目５番１１号,,27,128,5420064,,,2021-12-17,清算の結了等,,,2015-10-05,1,,,,,オリオンボウシ,0
139,1120901011900,登記記録の閉鎖等,0,2021-12-20,2021-12-16,株式会社フェニックスインダストリーズ,,株式会社,大阪府,高槻市,塚原６丁目３１番２１号,,27,207,5691046,,,2021-12-16,清算の結了等,,,2015-10-05,1,,,,,フェニックスインダストリーズ,0
171,1180005002452,登記記録の閉鎖等,0,2021-12-20,2021-12-15,医療法人近藤皮フ科,,その他の設立登記法人,愛知県,名古屋市緑区,鳴海町字花井町４１番地の１,,23,114,4580801,,,2021-12-15,清算の結了等,,,2015-10-05,1,,,,,コンドウヒフカ,0
175,1180302005802,登記記録の閉鎖等,0,2021-12-20,2021-12-16,有限会社シートメタル,,有限会社,愛知県,額田郡幸田町,大字坂崎字上石塚４３番地３,,23,501,4440104,,,2021-12-16,清算の結了等,,,2015-10-05,1,,,,,シートメタル,0
182,1220002004059,登記記録の閉鎖等,0,2021-12-20,2021-12-16,有限会社東京コンタクト,,有限会社,石川県,金沢市,長土塀１丁目１２番１４号,,17,201,9200867,,,2021-12-16,清算の結了等,,,2015-10-05,1,,,,,トウキョウコンタクト,0
189,1260002029052,登記記録の閉鎖等,0,2021-12-20,2021-12-16,有限会社奈義ファーム,,有限会社,岡山県,津山市,茅町８５番地１２,,33,203,7080043,,,2021-12-16,清算の結了等,,,2015-10-05,1,,,,,ナギファーム,0
211,1290803002972,登記記録の閉鎖等,0,2021-12-20,2021-12-14,合同会社夢工房,,合同会社,福岡県,北九州市小倉南区,重住２丁目４番２１号,,40,107,8020811,,,2021-12-14,清算の結了等,,,2017-08-02,1,,,,,ユメコウボウ,0
231,1370002009209,登記記録の閉鎖等,0,2021-12-20,2021-12-15,有限会社東北さく泉工業所,,有限会社,宮城県,仙台市宮城野区,出花１丁目１３７番地の１,,04,102,9830012,,,2021-12-15,清算の結了等,,,2015-10-05,1,,,,,トウホクサクセンコウギョウショ,0
232,1370002010496,登記記録の閉鎖等,0,2021-12-20,2021-12-14,有限会社華連,,有限会社,宮城県,仙台市青葉区,国分町２丁目１０番２０号,,04,101,9800803,,,2021-12-14,清算の結了等,,,2015-10-05,1,,,,,カレン,0
233,1370002015487,登記記録の閉鎖等,0,2021-12-20,2021-12-15,有限会社エヌエスエヌ,,有限会社,宮城県,仙台市青葉区,立町５番１０号,,04,101,9800822,,,2021-12-15,清算の結了等,,,2015-10-05,1,,,,,エヌエスエヌ,0
262,1470002003399,登記記録の閉鎖等,0,2021-12-20,2021-12-16,有限会社四国風呂商会,,有限会社,香川県,高松市,亀岡町７番１９号,,37,201,7600006,,,2021-12-16,清算の結了等,,,2015-10-05,1,,,,,シコクフロショウカイ,0
284,2010001138043,登記記録の閉鎖等,0,2021-12-20,2021-12-15,株式会社り・ぼん,,株式会社,東京都,文京区,本郷２丁目２６番１２－１１０１号,,13,105,1130033,,,2021-12-15,清算の結了等,,,2015-10-05,1,,,,,リボン,0
302,2010402007516,登記記録の閉鎖等,0,2021-12-20,2021-12-13,有限会社善久,,有限会社,東京都,港区,港南２丁目６番７号,,13,103,1080075,,,2021-12-13,清算の結了等,,,2015-10-05,1,,,,,センキュウ,0
309,2010503006326,登記記録の閉鎖等,0,2021-12-20,2021-12-16,ＫＡＣＨＩＮ　ＲＥＪＯＩＣＩＮＧ　ＧＥＭＳ　Ｍｙａｎｍａｒ合同会社,,合同会社,東京都,台東区,上野５丁目７番１１号盛家ビル１階,,13,106,1100005,,,2021-12-16,清算の結了等,,,2021-07-13,1,,,,,カチンリジョイシングジェムスミャンマー,0
325,2011002031427,登記記録の閉鎖等,0,2021-12-20,2021-12-06,有限会社ＢＩＧＷＡＶＥ－Ｐｒｏ,,有限会社,東京都,渋谷区,代々木４丁目２６番９号－２０７号,,13,113,1510053,,,2021-12-06,清算の結了等,,,2015-10-05,1,,,,,ビッグウェーブプロ,0
326,2011101010819,登記記録の閉鎖等,0,2021-12-20,2021-12-15,株式会社セイガ,,株式会社,神奈川県,足柄上郡大井町,山田３８２番地１,,14,362,2580015,,,2021-12-15,清算の結了等,,,2015-10-05,1,,,,,セイガ,0
328,2011101086297,登記記録の閉鎖等,0,2021-12-20,2021-12-07,Ｖ３株式会社,,株式会社,東京都,新宿区,市谷台町１１番４号－３０１号,,13,104,1620066,,,2021-12-07,清算の結了等,,,2018-12-17,1,,,,,ブイスリー,0
335,2011401016350,登記記録の閉鎖等,0,2021-12-20,2021-12-15,株式会社アサイ,,株式会社,東京都,板橋区,加賀２丁目７番１－３２８号,,13,119,1730003,,,2021-12-15,清算の結了等,,,2015-10-05,1,,,,,アサイ,0
344,2011801012899,登記記録の閉鎖等,0,2021-12-20,2021-12-16,株式会社ユニコンディバイス,,株式会社,東京都,足立区,千住仲町８番９号,,13,121,1200036,,,2021-12-16,清算の結了等,,,2015-10-05,1,,,,,,0
361,2021002027738,登記記録の閉鎖等,0,2021-12-20,2021-12-15,有限会社太加久良,,有限会社,東京都,立川市,錦町３丁目５番２３号,,13,202,1900022,,,2021-12-15,清算の結了等,,,2015-10-05,1,,,,,タカクラ,0
364,2021005008272,登記記録の閉鎖等,0,2021-12-20,2021-12-15,特定非営利活動法人アセッツ＆ライフプラン相談センター,,その他の設立登記法人,神奈川県,逗子市,池子２丁目９番２４号,,14,208,2490003,,,2021-12-15,清算の結了等,,,2015-10-05,1,,,,,,0
365,2030001044388,登記記録の閉鎖等,0,2021-12-20,2021-12-17,情報防災技術株式会社,,株式会社,埼玉県,さいたま市見沼区,大字小深作５６２番地１（１１２）,,11,104,3370005,,,2021-12-17,清算の結了等,,,2015-10-05,1,,,,,ジョウホウボウサイギジュツ,0
368,2030001098839,登記記録の閉鎖等,0,2021-12-20,2021-12-17,株式会社アイ物流彩京,,株式会社,埼玉県,さいたま市南区,白幡４丁目５番１６号,,11,108,3360022,,,2021-12-17,清算の結了等,,,2015-10-05,1,,,,,アイブツリュウサイキョウ,0
371,2030002009852,登記記録の閉鎖等,0,2021-12-20,2021-12-17,有限会社ドリーム・コーポレーション,,有限会社,埼玉県,さいたま市見沼区,大字風渡野４３０番地２７,,11,104,3370017,,,2021-12-17,清算の結了等,,,2015-10-05,1,,,,,ドリームコーポレーション,0
377,2040001052704,登記記録の閉鎖等,0,2021-12-20,2021-12-15,株式会社Ｓ＆Ｋ,,株式会社,千葉県,君津市,人見４丁目９番地１,,12,225,2991147,,,2021-12-15,清算の結了等,,,2015-10-05,1,,,,,エスアンドケー,0
386,2050002015089,登記記録の閉鎖等,0,2021-12-20,2021-12-10,有限会社川正,,有限会社,茨城県,石岡市,柿岡２００５番地,,08,205,3150116,,,2021-12-10,清算の結了等,,,2015-10-05,1,,,,,カワショウ,0
396,2080401018111,登記記録の閉鎖等,0,2021-12-20,2021-12-14,アングラーズカフェ株式会社,,株式会社,静岡県,浜松市中区,板屋町６１８番地,,22,131,4300928,,,2021-12-14,清算の結了等,,,2015-10-05,1,,,,,アングラーズカフェ,0
400,2100002031469,登記記録の閉鎖等,0,2021-12-20,2021-12-15,有限会社高市薬局,,有限会社,長野県,岡谷市,川岸上３丁目２番５号,,20,204,3940048,,,2021-12-15,清算の結了等,,,2015-10-05,1,,,,,タカイチヤッキョク,0
403,2110002021279,登記記録の閉鎖等,0,2021-12-20,2021-12-16,有限会社メルクル,,有限会社,新潟県,柏崎市,西山町坂田１９６１番地,,15,205,9494135,,,2021-12-16,清算の結了等,,,2015-10-05,1,,,,,メルクル,0
461,2180003000011,登記記録の閉鎖等,0,2021-12-20,2021-12-14,合資会社泉甚商店,,合資会社,愛知県,名古屋市守山区,瀬古東１丁目１６１５番地,,23,113,4630090,,,2021-12-14,清算の結了等,,,2015-10-05,1,,,,,イズジンショウテン,0
468,2180301032615,登記記録の閉鎖等,0,2021-12-20,2021-12-16,龍城ＪＡＰＡＮ株式会社,,株式会社,愛知県,刈谷市,住吉町３丁目８番地コスモビル住吉３０２室,,23,210,4480852,,,2021-12-16,清算の結了等,,,2019-05-31,1,,,,,リュウシロジャパン,0
472,2180305002003,登記記録の閉鎖等,0,2021-12-20,2021-12-15,特定非営利活動法人杉浦記念家庭教育振興事業団,,その他の設立登記法人,愛知県,岡崎市,能見通１丁目５７番地,,23,202,4440073,,,2021-12-15,清算の結了等,,,2015-10-05,1,,,,,スギウラキネンカテイキョウイクシンコウジギョウダン,0
473,2190001006562,登記記録の閉鎖等,0,2021-12-20,2021-12-17,河合無線株式会社,,株式会社,三重県,伊勢市,一之木２丁目３番４号,,24,203,5160071,,,2021-12-17,清算の結了等,,,2015-10-05,1,,,,,カワイムセン,0
477,2190003001371,登記記録の閉鎖等,0,2021-12-20,2021-12-20,合資会社杉山商会,,合資会社,三重県,桑名市,大字桑名６４７番地５４,,24,205,5110009,,,2021-12-20,清算の結了等,,,2015-10-05,1,,,,,スギヤマショウカイ,0
520,2330005002551,登記記録の閉鎖等,0,2021-12-20,2021-12-14,医療法人社団宮原会,,その他の設立登記法人,熊本県,菊池郡菊陽町,大字津久礼２３７７番地１,,43,404,8691101,,,2021-12-14,清算の結了等,,,2015-10-05,1,,,,,ミヤハラカイ,0
522,2340001002950,登記記録の閉鎖等,0,2021-12-20,2021-12-17,株式会社藤和設計,,株式会社,鹿児島県,鹿児島市,吉野町９０７１番地３,,46,201,8920871,,,2021-12-17,清算の結了等,,,2015-10-05,1,,,,,トウワセッケイ,0
534,2380002024404,登記記録の閉鎖等,0,2021-12-20,2021-12-14,誠宏板金有限会社,,有限会社,福島県,いわき市,小名浜字山神北６９番地の４,,07,204,9718101,,,2021-12-14,清算の結了等,,,2015-10-05,1,,,,,,0
547,2450001002072,登記記録の閉鎖等,0,2021-12-20,2021-12-20,株式会社たもちやん,,株式会社,北海道,旭川市,三条通７丁目左１０号,,01,204,0700033,,,2021-12-20,清算の結了等,,,2015-10-05,1,,,,,タモチヤン,0
596,3011003005800,登記記録の閉鎖等,0,2021-12-20,2021-12-10,合同会社マンションクルー,,合同会社,東京都,立川市,富士見町２丁目２２番１４号,,13,202,1900013,,,2021-12-10,清算の結了等,,,2015-10-05,1,,,,,マンションクルー,0
616,3012301009848,登記記録の閉鎖等,0,2021-12-20,2021-12-15,株式会社Ｋコーポレーション,,株式会社,神奈川県,相模原市中央区,上溝３９７０番地１１,,14,152,2520243,,,2021-12-15,清算の結了等,,,2015-10-05,1,,,,,ケイコーポレーション,0
624,3013302002610,登記記録の閉鎖等,0,2021-12-20,2021-12-13,有限会社キクチ工業,,有限会社,東京都,豊島区,高田１丁目１５番５号,,13,116,1710033,,,2021-12-13,清算の結了等,,,2015-10-05,1,,,,,キクチコウギョウ,0
649,3030002071760,登記記録の閉鎖等,0,2021-12-20,2021-12-16,有限会社オーネスト・ブレーン,,有限会社,埼玉県,春日部市,大衾６６番地,,11,214,3440116,,,2021-12-16,清算の結了等,,,2015-10-05,1,,,,,オーネストブレーン,0
650,3030002077543,登記記録の閉鎖等,0,2021-12-20,2021-12-15,有限会社小泉自動車,,有限会社,埼玉県,比企郡川島町,大字吹塚７６１番地１,,11,346,3500164,,,2021-12-15,清算の結了等,,,2015-10-05,1,,,,,コイズミジドウシャ,0
652,3030002112234,登記記録の閉鎖等,0,2021-12-20,2021-12-17,有限会社アラショウ,,有限会社,埼玉県,川口市,朝日１丁目１－１－３２１,,11,203,3320001,,,2021-12-17,清算の結了等,,,2015-10-05,1,,,,,アラショウ,0
655,3040001056786,登記記録の閉鎖等,0,2021-12-20,2021-12-16,スマイル宅配セキ株式会社,,株式会社,千葉県,木更津市,大久保１丁目７番１号,,12,206,2920815,,,2021-12-16,清算の結了等,,,2015-10-05,1,,,,,,0
656,3040001059153,登記記録の閉鎖等,0,2021-12-20,2021-12-15,株式会社くんぷう,,株式会社,千葉県,茂原市,八千代２丁目７番地,,12,210,2970024,,,2021-12-15,清算の結了等,,,2015-10-05,1,,,,,クンプウ,0
659,3040002003135,登記記録の閉鎖等,0,2021-12-20,2021-12-16,有限会社川村電設,,有限会社,千葉県,千葉市花見川区,作新台８丁目１２番１３棟４０４号,,12,102,2620045,,,2021-12-16,清算の結了等,,,2015-10-05,1,,,,,カワムラデンセツ,0
693,3130001024214,登記記録の閉鎖等,0,2021-12-20,2021-12-14,エイテック株式会社,,株式会社,京都府,京都市左京区,静市野中町１７４番地,,26,103,6011122,,,2021-12-14,合併による解散等,1130002005297,令和３年１２月１３日京都市左京区静市野中町１７４番地株式会社高技術研究所（1130002005297）に合併し解散,2015-10-05,1,,,,,エイテック,0
739,3200002001659,登記記録の閉鎖等,0,2021-12-20,2021-12-15,源藏興産有限会社,,有限会社,岐阜県,岐阜市,柳ケ瀬通６丁目１３番地,,21,201,5008875,,,2021-12-15,清算の結了等,,,2015-10-05,1,,,,,ゲンゾウコウサン,0
773,3310005001216,登記記録の閉鎖等,0,2021-12-20,2021-12-17,医療法人社団郡家歯科医院,,その他の設立登記法人,長崎県,長崎市,樺島町１番１５号,,42,201,8500034,,,2021-12-17,清算の結了等,,,2015-10-05,1,,,,,グンケシカイイン,0
778,3330001009054,登記記録の閉鎖等,0,2021-12-20,2021-12-15,安藤商店株式会社,,株式会社,熊本県,熊本市北区,清水岩倉２丁目３番３号,,43,105,8618084,,,2021-12-15,清算の結了等,,,2015-10-05,1,,,,,,0
788,3360001000480,登記記録の閉鎖等,0,2021-12-20,2021-12-15,株式会社沖縄不動産総合鑑定所,,株式会社,沖縄県,那覇市,古波蔵４丁目７番５号（４ＦＬ）,,47,201,9000024,,,2021-12-15,清算の結了等,,,2015-10-05,1,,,,,オキナワフドウサンソウゴウカンテイショ,0
796,3400002002827,登記記録の閉鎖等,0,2021-12-20,2021-12-16,有限会社藤森産業,,有限会社,岩手県,花巻市,石鳥谷町富沢第３地割２５番地,,03,205,0283184,,,2021-12-16,清算の結了等,,,2015-10-05,1,,,,,フジモリサンギョウ,0
829,4010002016304,登記記録の閉鎖等,0,2021-12-20,2021-12-15,有限会社アキ・コーポレーション,,有限会社,東京都,中央区,日本橋人形町３丁目１３番１２号,,13,102,1030013,,,2021-12-15,清算の結了等,,,2015-10-05,1,,,,,アキコーポレーション,0
839,4010401125399,登記記録の閉鎖等,0,2021-12-20,2021-12-10,ＦｉｇｈｔＳｏｎｇ株式会社,,株式会社,東京都,港区,赤坂２丁目２１番５号ＡＢＣ,,13,103,1070052,,,2021-12-10,清算の結了等,,,2016-06-16,1,,,,,ファイトソング,0
853,4010403021266,登記記録の閉鎖等,0,2021-12-20,2021-12-10,桔梗合同会社,,合同会社,東京都,港区,西新橋１丁目２番９号ＥＰコンサルティングサービス内,,13,103,1050003,,,2021-12-10,清算の結了等,,,2019-08-09,1,,,,,キキョウ,0
886,4011502013583,登記記録の閉鎖等,0,2021-12-20,2021-12-13,有限会社ヴァンセーヌ・サーヴィス,,有限会社,東京都,荒川区,西尾久１丁目２番１０号,,13,118,1160011,,,2021-12-13,清算の結了等,,,2015-10-05,1,,,,,ヴァンセーヌサーヴィス,0
888,4011503001851,登記記録の閉鎖等,0,2021-12-20,2021-12-13,合資会社鳥海商会,,合資会社,東京都,荒川区,南千住５丁目３８番８号,,13,118,1160003,,,2021-12-13,清算の結了等,,,2015-10-05,1,,,,,トリウミショウカイ,0
889,4011601022114,登記記録の閉鎖等,0,2021-12-20,2021-12-16,ルナリス株式会社,,株式会社,東京都,練馬区,小竹町２丁目３番１号,,13,120,1760004,,,2021-12-16,清算の結了等,,,2017-10-11,1,,,,,ルナリス,0
891,4011801023960,登記記録の閉鎖等,0,2021-12-20,2021-12-16,株式会社ゼロム設計,,株式会社,東京都,練馬区,上石神井２丁目２６番６号,,13,120,1770044,,,2021-12-16,清算の結了等,,,2015-10-05,1,,,,,ゼロムセッケイ,0
902,4013205001618,登記記録の閉鎖等,0,2021-12-20,2021-12-16,税理士法人自由が丘総合会計,,その他の設立登記法人,東京都,目黒区,中根１丁目２５番２１号日商岩井第２自由が丘マンション１０２号,,13,110,1520031,,,2021-12-16,清算の結了等,,,2015-10-05,1,,,,,ジユウガオカソウゴウカイケイ,0
945,4050003004642,登記記録の閉鎖等,0,2021-12-20,2021-12-15,ベル大崎合同会社,,合同会社,茨城県,つくば市,吾妻１丁目１０番１号,,08,220,3050031,,,2021-12-15,清算の結了等,,,2019-04-26,1,,,,,ベルオオサキ,0
958,4100005005740,登記記録の閉鎖等,0,2021-12-20,2021-12-14,中信水産物商業協同組合,,その他の設立登記法人,長野県,松本市,大字笹賀７６００番地４１,,20,202,3990033,,,2021-12-14,清算の結了等,,,2015-10-05,1,,,,,チュウシンスイサンブツショウギョウ,0
985,4130001033420,登記記録の閉鎖等,0,2021-12-20,2021-12-14,三和商事株式会社,,株式会社,京都府,久世郡久御山町,下津屋北野１１番地の１,,26,322,6130035,,,2021-12-14,清算の結了等,,,2015-10-05,1,,,,,サンワショウジ,0
992,4140001029062,登記記録の閉鎖等,0,2021-12-20,2021-12-16,メディックス・インターナショナル株式会社,,株式会社,兵庫県,神戸市北区,桂木３丁目２１番地の１３,,28,109,6511223,,,2021-12-16,清算の結了等,,,2015-10-05,1,,,,,メディックスインターナショナル,0
1002,4150005009258,登記記録の閉鎖等,0,2021-12-20,2021-12-16,葛木倭文坐天羽雷命神社,,その他の設立登記法人,奈良県,葛城市,加守１０４５番地,,29,211,6390271,,,2021-12-16,清算の結了等,,,2021-02-10,1,,,,,カツラギシドリニイマスアメノハイカヅチノミコトジンジャ,0
1011,4170002005976,登記記録の閉鎖等,0,2021-12-20,2021-12-09,有限会社ケイアイディーエス,,有限会社,大阪府,阪南市,光陽台１丁目１６番１０号,,27,232,5990223,,,2021-12-09,清算の結了等,,,2015-10-05,1,,,,,ケイアイディーエス,0
1021,4180002068568,登記記録の閉鎖等,0,2021-12-20,2021-12-14,有限会社池之内自動車,,有限会社,愛知県,小牧市,大字池之内８４５番地,,23,219,4850804,,,2021-12-14,清算の結了等,,,2015-10-05,1,,,,,イケノウチジドウシャ,0
1026,4190002016311,登記記録の閉鎖等,0,2021-12-20,2021-12-17,有限会社岩田ポンプ製作所,,有限会社,三重県,桑名市,大字安永１８１３番地,,24,205,5110839,,,2021-12-17,清算の結了等,,,2015-10-05,1,,,,,イワタポンプセイサクショ,0
1044,4280002008613,登記記録の閉鎖等,0,2021-12-20,2021-12-16,有限会社福田石油,,有限会社,島根県,浜田市,国分町１８１９番地２９,,32,202,6970003,,,2021-12-16,清算の結了等,,,2015-10-05,1,,,,,フクダセキユ,0
1055,4290002008521,登記記録の閉鎖等,0,2021-12-20,2021-12-14,有限会社トップ・アシスト,,有限会社,福岡県,福岡市早良区,南庄６丁目６番３３号,,40,137,8140031,,,2021-12-14,清算の結了等,,,2015-10-05,1,,,,,トップアシスト,0
1057,4290003010121,登記記録の閉鎖等,0,2021-12-20,2021-12-09,合同会社ＮａｇａｔａＯｆｆｉｃｅ,,合同会社,福岡県,福岡市南区,大橋２丁目１５番８号,,40,134,8150033,,,2021-12-09,清算の結了等,,,2020-06-24,1,,,,,ナガタオフィス,0
1087,4400001001416,登記記録の閉鎖等,0,2021-12-20,2021-12-17,株式会社北信電業社,,株式会社,岩手県,盛岡市,黒川９地割２２番１,,03,201,0200402,,,2021-12-17,清算の結了等,,,2015-10-05,1,,,,,,0
1095,4430001072330,登記記録の閉鎖等,0,2021-12-20,2021-12-01,株式会社アカリエケアパートナーズ,,株式会社,北海道,札幌市清田区,平岡八条４丁目１１番７号,,01,110,0040878,,,2021-12-01,合併による解散等,7430001080917,令和３年１２月１日札幌市清田区平岡八条四丁目１１番７号株式会社アカリエ（7430001080917）に合併し解散,2016-09-08,1,,,,,アカリエケアパートナーズ,0
1109,4480001010418,登記記録の閉鎖等,0,2021-12-20,2021-12-16,株式会社ホームイノベーション,,株式会社,徳島県,鳴門市,撫養町大桑島字北ノ浜６７番地,,36,202,7720011,,,2021-12-16,清算の結了等,,,2018-07-26,1,,,,,ホームイノベーション,0
1153,5011101068648,登記記録の閉鎖等,0,2021-12-20,2021-12-15,株式会社モーガンファイブ,,株式会社,東京都,新宿区,西新宿２丁目６番１号,,13,104,1600023,,,2021-12-15,清算の結了等,,,2015-10-05,1,,,,,,0
1166,5011801007979,登記記録の閉鎖等,0,2021-12-20,2021-12-17,栄石油商事株式会社,,株式会社,東京都,足立区,梅田３丁目５番１４号,,13,121,1230851,,,2021-12-17,清算の結了等,,,2015-10-05,1,,,,,サカエセキユショウジ,0
1193,5021001060051,登記記録の閉鎖等,0,2021-12-20,2021-12-15,アルペジエイト株式会社,,株式会社,神奈川県,相模原市中央区,清新１丁目６番８号グレース相模原４０３,,14,152,2520216,,,2021-12-15,清算の結了等,,,2016-08-15,1,,,,,アルペジエイト,0
1206,5030002035251,登記記録の閉鎖等,0,2021-12-20,2021-12-17,有限会社さくら興業,,有限会社,埼玉県,入間市,東町１丁目１０番２７号,,11,225,3580002,,,2021-12-17,清算の結了等,,,2015-10-05,1,,,,,サクラコウギョウ,0
1212,5040001106894,登記記録の閉鎖等,0,2021-12-20,2021-12-01,株式会社菜園,,株式会社,千葉県,市川市,市川２丁目２８番１３号アイ・シービル１階,,12,203,2720034,,,2021-12-01,合併による解散等,6040001101985,令和３年１２月１日千葉県市川市市川二丁目２８番１３号アイ・シービル１階株式会社味菜（6040001101985）に合併し解散,2018-11-16,1,,,,,サイエン,0
1218,5050002037238,登記記録の閉鎖等,0,2021-12-20,2021-12-15,有限会社リフォームアンドメンテ,,有限会社,茨城県,守谷市,みずき野４丁目９番地５,,08,224,3020121,,,2021-12-15,清算の結了等,,,2015-10-05,1,,,,,,0
1226,5080402022142,登記記録の閉鎖等,0,2021-12-20,2021-12-14,有限会社西尾木材,,有限会社,静岡県,周智郡森町,三倉８３３番地,,22,461,4370208,,,2021-12-14,清算の結了等,,,2015-10-05,1,,,,,ニシオモクザイ,0
1231,5110002033602,登記記録の閉鎖等,0,2021-12-20,2021-12-15,有限会社佐藤製工,,有限会社,新潟県,南魚沼市,田崎１３８番地,,15,226,9497134,,,2021-12-15,清算の結了等,,,2015-10-05,1,,,,,サトウセイコウ,0
1232,5110002035227,登記記録の閉鎖等,0,2021-12-20,2021-12-16,有限会社カメキン,,有限会社,新潟県,燕市,大字八王寺２６番地２,,15,213,9591200,,,2021-12-16,清算の結了等,,,2021-06-23,1,,,,,カメキン,0
1236,5120001071635,登記記録の閉鎖等,0,2021-12-20,2021-12-15,ユースフルホーム株式会社,,株式会社,大阪府,大阪市中央区,平野町３丁目３番７号,,27,128,5410046,,,2021-12-15,清算の結了等,,,2015-10-05,1,,,,,ユースフルホーム,0
1261,5122002010340,登記記録の閉鎖等,0,2021-12-20,2021-12-15,有限会社ジェイエフデザイン,,有限会社,大阪府,東大阪市,新庄２丁目１６番３号,,27,227,5780963,,,2021-12-15,清算の結了等,,,2015-10-05,1,,,,,ジェイエフデザイン,0
1284,5180003017845,登記記録の閉鎖等,0,2021-12-20,2021-12-15,ワイケーシステム合同会社,,合同会社,愛知県,名古屋市港区,秋葉３丁目１５０番地の１ハレクノ南陽茶屋２０２号,,23,111,4550857,,,2021-12-15,清算の結了等,,,2017-04-11,1,,,,,ワイケーシステム,0
1289,5200001004438,登記記録の閉鎖等,0,2021-12-20,2021-12-16,株式会社フジコーポレーション,,株式会社,岐阜県,岐阜市,加納西丸町１丁目５１番地,,21,201,5008488,,,2021-12-16,清算の結了等,,,2015-10-05,1,,,,,フジコーポレーション,0
1339,5400001009474,登記記録の閉鎖等,0,2021-12-20,2021-12-17,株式会社誠和,,株式会社,岩手県,滝沢市,葉の木沢山４５４番地１２,,03,216,0200625,,,2021-12-17,清算の結了等,,,2015-10-05,1,,,,,,0
1343,5460001003868,登記記録の閉鎖等,0,2021-12-20,2021-12-15,株式会社マルミヤ,,株式会社,北海道,釧路市,興津４丁目１番１５号,,01,206,0850811,,,2021-12-15,清算の結了等,,,2015-10-05,1,,,,,マルミヤ,0
1345,5460301000920,登記記録の閉鎖等,0,2021-12-20,2021-12-16,北海道木工株式会社,,株式会社,北海道,北見市,留辺蘂町旭中央３４番地,,01,208,0910023,,,2021-12-16,清算の結了等,,,2015-10-05,1,,,,,ホッカイドウモッコウ,0
1371,6010103001244,登記記録の閉鎖等,0,2021-12-20,2021-12-16,ハヤシヤ合同会社,,合同会社,東京都,八王子市,大和田町７丁目１－５ライオンズマンション八王子第六５１６,,13,201,1920045,,,2021-12-16,清算の結了等,,,2018-04-17,1,,,,,,0
1383,6010405017946,登記記録の閉鎖等,0,2021-12-20,2021-12-10,桔梗一般社団法人,,その他の設立登記法人,東京都,港区,西新橋１丁目２番９号ＥＰコンサルティングサービス内,,13,103,1050003,,,2021-12-10,清算の結了等,,,2019-08-07,1,,,,,キキョウ,0
1409,6011102007216,登記記録の閉鎖等,0,2021-12-20,2021-12-15,有限会社関デザインオフィス,,有限会社,東京都,新宿区,新小川町４番７号,,13,104,1620814,,,2021-12-15,清算の結了等,,,2015-10-05,1,,,,,セキデザインオフィス,0
1421,6011501017336,登記記録の閉鎖等,0,2021-12-20,2021-12-14,クローバーシステムサービス株式会社,,株式会社,東京都,北区,志茂１丁目３４番１９号,,13,117,1150042,,,2021-12-14,清算の結了等,,,2015-10-05,1,,,,,,0
1427,6012401018564,登記記録の閉鎖等,0,2021-12-20,2021-12-15,株式会社ＡＰＴ　ＭＡＲＫＥＴＩＮＧ,,株式会社,東京都,三鷹市,下連雀３丁目３２番３号,,13,204,1810013,,,2021-12-15,清算の結了等,,,2015-10-05,1,,,,,アプトマーケティング,0
1430,6012403002938,登記記録の閉鎖等,0,2021-12-20,2021-12-16,合同会社リガレスパートナーズ,,合同会社,東京都,府中市,是政４丁目４番地２２－３１４号,,13,206,1830014,,,2021-12-16,清算の結了等,,,2017-01-18,1,,,,,リガレスパートナーズ,0
1470,6030005017584,登記記録の閉鎖等,0,2021-12-20,2021-12-16,ＮＰＯ法人匠工房,,その他の設立登記法人,埼玉県,所沢市,大字下富１１８９番地の３０,,11,208,3590001,,,2021-12-16,清算の結了等,,,2015-10-05,1,,,,,タクミコウボウ,0
1473,6040001054812,登記記録の閉鎖等,0,2021-12-20,2021-12-16,株式会社宮井企業,,株式会社,千葉県,市原市,能満１５６０番地,,12,219,2900011,,,2021-12-16,合併による解散等,9040001056104,令和３年１２月１６日千葉県市原市能満１５６０番地株式会社宮井企業（9040001056104）に合併し解散,2015-10-05,1,,,,,ミヤイキギョウ,0
1479,6050002042492,登記記録の閉鎖等,0,2021-12-20,2021-12-14,有限会社増田商店,,有限会社,茨城県,筑西市,女方９番地１,,08,227,3080854,,,2021-12-14,清算の結了等,,,2015-10-05,1,,,,,マスダショウテン,0
1483,6080001017880,登記記録の閉鎖等,0,2021-12-20,2021-12-16,株式会社オーケイ土地企画,,株式会社,静岡県,焼津市,三右衛門新田５６３番地の１－１０２,,22,212,4250046,,,2021-12-16,清算の結了等,,,2015-10-05,1,,,,,オーケイトチキカク,0
1487,6100002036613,登記記録の閉鎖等,0,2021-12-20,2021-12-16,正泉有限会社,,有限会社,長野県,飯田市,座光寺４０８２番地,,20,205,3950001,,,2021-12-16,清算の結了等,,,2021-12-14,1,,,,,ショウセン,0
1488,6110001002854,登記記録の閉鎖等,0,2021-12-20,2021-12-16,創栄建設株式会社,,株式会社,新潟県,燕市,大曲２７４９番地３,,15,213,9591263,,,2021-12-16,清算の結了等,,,2015-10-05,1,,,,,ソウエイケンセツ,0
1489,6110001009445,登記記録の閉鎖等,0,2021-12-20,2021-12-08,株式会社美和,,株式会社,新潟県,新潟市中央区,関屋下川原町２丁目４９番地３,,15,103,9518127,,,2021-12-08,清算の結了等,,,2015-10-05,1,,,,,ミワ,0
1492,6110002030838,登記記録の閉鎖等,0,2021-12-20,2021-12-16,有限会社アクアライフ,,有限会社,新潟県,燕市,吉田３５２５番地清水Ｆ内,,15,213,9590264,,,2021-12-16,清算の結了等,,,2015-10-05,1,,,,,アクアライフ,0
1498,6120002000311,登記記録の閉鎖等,0,2021-12-20,2021-12-14,有限会社コンドウ電化,,有限会社,大阪府,大阪市旭区,太子橋１丁目２番９号,,27,117,5350001,,,2021-12-14,清算の結了等,,,2015-10-05,1,,,,,コンドウデンカ,0
1523,6180001007153,登記記録の閉鎖等,0,2021-12-20,2021-12-16,日通名港運輸株式会社,,株式会社,愛知県,名古屋市港区,西倉町１番４９号,,23,111,4550034,,,2021-12-16,清算の結了等,,,2015-10-05,1,,,,,ニッツウメイコウウンユ,0
1524,6180001030824,登記記録の閉鎖等,0,2021-12-20,2021-12-15,株式会社鈴木商店,,株式会社,愛知県,名古屋市中村区,十王町２１番２号,,23,105,4530035,,,2021-12-15,清算の結了等,,,2015-10-05,1,,,,,スズキショウテン,0
1538,6180303001894,登記記録の閉鎖等,0,2021-12-20,2021-12-14,合同会社加久小本店,,合同会社,愛知県,蒲郡市,元町１７番４号,,23,214,4430043,,,2021-12-14,清算の結了等,,,2015-10-05,1,,,,,カクコホンテン,0
1543,6200002005590,登記記録の閉鎖等,0,2021-12-20,2021-12-16,有限会社ビー・ブー・イー,,有限会社,岐阜県,岐阜市,下鵜飼１６７１番地４７,,21,201,5011172,,,2021-12-16,清算の結了等,,,2015-10-05,1,,,,,ビーブーイー,0
1547,6210002003701,登記記録の閉鎖等,0,2021-12-20,2021-12-14,大和建設有限会社,,有限会社,福井県,福井市,江守の里１丁目９１２番地,,18,201,9188035,,,2021-12-14,清算の結了等,,,2015-10-05,1,,,,,ヤマトケンセツ,0
1554,6260001025551,登記記録の閉鎖等,0,2021-12-20,2021-12-16,株式会社Ｋ＆Ｃアートセラミックス,,株式会社,岡山県,岡山市北区,南中央町５番１８号,,33,101,7000837,,,2021-12-16,清算の結了等,,,2015-10-05,1,,,,,ケーアンドシーアートセラミックス,0
1561,6290002010987,登記記録の閉鎖等,0,2021-12-20,2021-12-15,有限会社サンフアミリー,,有限会社,福岡県,福岡市中央区,渡辺通２丁目４番１３号,,40,133,8100004,,,2021-12-15,清算の結了等,,,2015-10-05,1,,,,,サンフアミリー,0
1562,6290002055041,登記記録の閉鎖等,0,2021-12-20,2021-12-13,有限会社大牟田通信サービス,,有限会社,福岡県,大牟田市,日出町２丁目１番地２,,40,202,8360802,,,2021-12-13,清算の結了等,,,2015-10-05,1,,,,,オオムタツウシンサービス,0
1571,6320002011973,登記記録の閉鎖等,0,2021-12-20,2021-12-16,有限会社永井建材工業,,有限会社,大分県,別府市,浜町８番１３号,,44,202,8740945,,,2021-12-16,清算の結了等,,,2015-10-05,1,,,,,ナガイケンザイコウギョウ,0
1584,6370001025268,登記記録の閉鎖等,0,2021-12-20,2021-12-14,株式会社ＮＯＹ,,株式会社,宮城県,仙台市青葉区,中央２丁目２番１０号仙都会館５Ｆ,,04,101,9800021,,,2021-12-14,清算の結了等,,,2015-10-05,1,,,,,ノイ,0
1593,6402702000660,登記記録の閉鎖等,0,2021-12-20,2021-12-20,有限会社菅生保険事務所,,有限会社,岩手県,陸前高田市,矢作町字元屋敷６４番地,,03,210,0292201,,,2021-12-20,清算の結了等,,,2015-10-05,1,,,,,スゴウホケンジムショ,0
1602,6430001050012,登記記録の閉鎖等,0,2021-12-20,2021-12-16,株式会社作マ新村呉服店,,株式会社,北海道,小樽市,緑２丁目３０番４号,,01,203,0470034,,,2021-12-16,清算の結了等,,,2015-10-05,1,,,,,サクマニイムラゴフクテン,0
1621,7010002039194,登記記録の閉鎖等,0,2021-12-20,2021-12-13,有限会社エイ管理事務所,,有限会社,東京都,中央区,佃２丁目１番１－１２１５号,,13,102,1040051,,,2021-12-13,清算の結了等,,,2015-10-05,1,,,,,,0
1634,7010601015810,登記記録の閉鎖等,0,2021-12-20,2021-12-13,向島工機株式会社,,株式会社,東京都,墨田区,東向島４丁目９番６号,,13,107,1310032,,,2021-12-13,清算の結了等,,,2015-10-05,1,,,,,ムコウジマコウキ,0
1638,7010901004397,登記記録の閉鎖等,0,2021-12-20,2021-12-16,三永紙業株式会社,,株式会社,東京都,世田谷区,代沢５丁目２７番８号,,13,112,1550032,,,2021-12-16,清算の結了等,,,2015-10-05,1,,,,,サンエイシギョウ,0
1697,7030002098346,登記記録の閉鎖等,0,2021-12-20,2021-12-16,有限会社エヌケイビルサービス,,有限会社,埼玉県,東松山市,旗立台２６番地４４,,11,212,3550054,,,2021-12-16,清算の結了等,,,2015-10-05,1,,,,,,0
1713,7070002030073,登記記録の閉鎖等,0,2021-12-20,2021-12-15,有限会社ツイヒジ,,有限会社,群馬県,太田市,東矢島町１０３８番地の８,,10,205,3730816,,,2021-12-15,清算の結了等,,,2015-10-05,1,,,,,ツイヒジ,0
1723,7110001013677,登記記録の閉鎖等,0,2021-12-20,2021-12-15,株式会社ライブグリーン,,株式会社,新潟県,胎内市,西条１９６番地,,15,227,9592658,,,2021-12-15,清算の結了等,,,2015-10-05,1,,,,,ライブグリーン,0
1742,7120003017411,登記記録の閉鎖等,0,2021-12-20,2021-12-10,レインボ－コミュニティ合同会社,,合同会社,大阪府,大阪市北区,芝田２丁目８－１１共栄ビル３Ｆ,,27,127,5300012,,,2021-12-10,清算の結了等,,,2020-05-14,1,,,,,レインボーコミュニティ,0
1751,7122001015264,登記記録の閉鎖等,0,2021-12-20,2021-12-15,共延テクノ株式会社,,株式会社,大阪府,大東市,御領４丁目２３－２,,27,218,5740064,,,2021-12-15,清算の結了等,,,2015-10-05,1,,,,,キョウエンテクノ,0
1752,7130001017858,登記記録の閉鎖等,0,2021-12-20,2021-12-15,株式会社大善,,株式会社,京都府,京都市下京区,油小路通塩小路下る南不動堂町３番地,,26,106,6008234,,,2021-12-15,清算の結了等,,,2015-10-05,1,,,,,ダイゼン,0
1783,7210002012180,登記記録の閉鎖等,0,2021-12-20,2021-12-10,有限会社フィールドキーパー,,有限会社,福井県,南条郡南越前町,今庄第５９号８番地の１,,18,404,9190131,,,2021-12-10,清算の結了等,,,2015-10-05,1,,,,,フィールドキーパー,0
1785,7220003002733,登記記録の閉鎖等,0,2021-12-20,2021-12-16,合同会社ダイスノウズ,,合同会社,石川県,河北郡津幡町,字倉見ソ８９番地,,17,361,9290455,,,2021-12-16,清算の結了等,,,2020-01-28,1,,,,,ダイスノウズ,0
1786,7240001005133,登記記録の閉鎖等,0,2021-12-20,2021-12-15,株式会社酔心毘沙門店,,株式会社,広島県,広島市安佐南区,緑井３丁目２５番２１号,,34,105,7310103,,,2021-12-15,清算の結了等,,,2015-10-05,1,,,,,スイシンビシャモンテン,0
1798,7290001024087,登記記録の閉鎖等,0,2021-12-20,2021-12-15,株式会社らいふアート,,株式会社,福岡県,福岡市博多区,博多駅東２丁目２番２号,,40,132,8120013,,,2021-12-15,清算の結了等,,,2015-10-05,1,,,,,ライフアート,0
1800,7290001035885,登記記録の閉鎖等,0,2021-12-20,2021-12-13,株式会社エスオーダブリュ,,株式会社,福岡県,糸島市,二丈吉井９８８番地１,,40,230,8191641,,,2021-12-13,清算の結了等,,,2015-10-05,1,,,,,エスオーダブリュ,0
1803,7290001039333,登記記録の閉鎖等,0,2021-12-20,2021-12-13,株式会社ＵＶイメージズ,,株式会社,福岡県,糟屋郡宇美町,神武原３丁目１７番５号,,40,341,8112129,,,2021-12-13,清算の結了等,,,2015-10-05,1,,,,,ユーブイイメージズ,0
1820,7310002020149,登記記録の閉鎖等,0,2021-12-20,2021-12-16,有限会社ユタカ,,有限会社,長崎県,対馬市,厳原町国分１３０５番地,,42,209,8170022,,,2021-12-16,合併による解散等,6310001010878,令和３年１２月１日長崎県対馬市厳原町国分１３０５番地対馬醤油江口株式会社（6310001010878）に合併し解散,2015-10-05,1,,,,,ユタカ,0
1824,7330002021764,登記記録の閉鎖等,0,2021-12-20,2021-12-16,有限会社佐藤小岱園,,有限会社,熊本県,荒尾市,一部２１８２番地１９,,43,204,8640021,,,2021-12-16,清算の結了等,,,2015-10-05,1,,,,,サトウショウダイエン,0
1830,7350001007102,登記記録の閉鎖等,0,2021-12-20,2021-12-15,株式会社岩佐組,,株式会社,宮崎県,延岡市,北川町長井２２０４番地１０,,45,203,8890102,,,2021-12-15,清算の結了等,,,2015-10-05,1,,,,,イワサグミ,0
1831,7350001013744,登記記録の閉鎖等,0,2021-12-20,2021-12-15,株式会社ぷらん,,株式会社,宮崎県,宮崎市,一の宮町２４番地２,,45,201,8800854,,,2021-12-15,清算の結了等,,,2015-11-24,1,,,,,プラン,0
1838,7370001044944,登記記録の閉鎖等,0,2021-12-20,2021-12-14,株式会社未来工業,,株式会社,宮城県,仙台市青葉区,折立２丁目７番２０－５１２号,,04,101,9820261,,,2021-12-14,清算の結了等,,,2019-10-08,1,,,,,ミライコウギョウ,0
1844,7410001009587,登記記録の閉鎖等,0,2021-12-20,2021-12-14,株式会社ファーム郷,,株式会社,秋田県,大仙市,大沢郷宿字尊仏５２番地１１,,05,212,0192202,,,2021-12-14,清算の結了等,,,2015-10-05,1,,,,,ファームサト,0
1845,7410003002755,登記記録の閉鎖等,0,2021-12-20,2021-12-13,高佐合名会社,00087062,合名会社,秋田県,能代市,大手町２番３７号,,05,202,0160805,,,2021-12-13,清算の結了等,,,2015-10-05,1,,,,,タカサ,0
1865,8010002023263,登記記録の閉鎖等,0,2021-12-20,2021-12-15,有限会社長野屋,,有限会社,東京都,中央区,月島３丁目１１番１２号,,13,102,1040052,,,2021-12-15,清算の結了等,,,2015-10-05,1,,,,,ナガノヤ,0
1866,8010002052428,登記記録の閉鎖等,0,2021-12-20,2021-12-13,有限会社石井電設工業所,,有限会社,東京都,大島町,元町字地の岡６５番,,13,361,1000101,,,2021-12-13,清算の結了等,,,2015-10-05,1,,,,,,0
1901,8010603007499,登記記録の閉鎖等,0,2021-12-20,2021-12-10,合同会社ＭＩＹＵＭＡ,,合同会社,東京都,墨田区,石原３丁目６番３－３０２号,,13,107,1300011,,,2021-12-10,清算の結了等,,,2018-10-16,1,,,,,ミユマ,0
1922,8011101052285,登記記録の閉鎖等,0,2021-12-20,2021-12-15,株式会社よしもとスタッフ・マネジメント,,株式会社,東京都,新宿区,新宿５丁目１８番２１号,,13,104,1600022,,,2021-12-15,清算の結了等,,,2015-10-05,1,,,,,ヨシモトスタッフマネジメント,0
1929,8011505001012,登記記録の閉鎖等,0,2021-12-20,2021-12-13,特定非営利活動法人東京飛鳥センター東京ＡＳＵＫＡ音楽事務所,,その他の設立登記法人,東京都,北区,王子１丁目６番１５－２０２号,,13,117,1140002,,,2021-12-13,清算の結了等,,,2015-10-05,1,,,,,トウキョウアスカセンタートウキョウアスカオンガクジムショ,0
1981,8030002111289,登記記録の閉鎖等,0,2021-12-20,2021-12-17,有限会社ケイアンドエス,,有限会社,埼玉県,加須市,土手２丁目１５番７４号,,11,210,3470056,,,2021-12-17,清算の結了等,,,2015-10-05,1,,,,,ケイアンドエス,0
1983,8040001007586,登記記録の閉鎖等,0,2021-12-20,2021-12-16,株式会社山一コンサルタント,,株式会社,千葉県,千葉市花見川区,南花園２丁目２番１２号,,12,102,2620022,,,2021-12-16,清算の結了等,,,2015-10-05,1,,,,,ヤマイチコンサルタント,0
1984,8040001052657,登記記録の閉鎖等,0,2021-12-20,2021-12-16,株式会社セキコーポレーション,,株式会社,千葉県,木更津市,大久保１丁目７番１号,,12,206,2920815,,,2021-12-16,清算の結了等,,,2015-10-05,1,,,,,セキコーポレーション,0
1993,8040005002930,登記記録の閉鎖等,0,2021-12-20,2021-12-15,医療法人社団明和会,,その他の設立登記法人,千葉県,船橋市,松が丘４丁目５番１７号,,12,204,2740064,,,2021-12-15,清算の結了等,,,2015-10-05,1,,,,,メイワカイ,0
2004,8100002038236,登記記録の閉鎖等,0,2021-12-20,2021-12-15,有限会社創建,,有限会社,長野県,下伊那郡松川町,上片桐９５４番地５,,20,402,3993301,,,2021-12-15,清算の結了等,,,2015-10-05,1,,,,,ソウケン,0
2006,8110001007265,登記記録の閉鎖等,0,2021-12-20,2021-12-15,株式会社林,,株式会社,新潟県,新潟市秋葉区,小口７８４番地４,,15,105,9560834,,,2021-12-15,清算の結了等,,,2015-10-05,1,,,,,ハヤシ,0
2039,8140002003525,登記記録の閉鎖等,0,2021-12-20,2021-12-14,有限会社新村組,,有限会社,兵庫県,神戸市灘区,新在家南町４丁目１３番６号,,28,102,6570864,,,2021-12-14,清算の結了等,,,2015-10-05,1,,,,,ニイムラグミ,0
2042,8140002065210,登記記録の閉鎖等,0,2021-12-20,2021-12-14,有限会社佐藤環境企画事務所,,有限会社,兵庫県,川西市,清和台東２丁目３番地の１９,,28,217,6660142,,,2021-12-14,清算の結了等,,,2015-10-05,1,,,,,,0
2047,8180001023082,登記記録の閉鎖等,0,2021-12-20,2021-12-16,ヨシダ機販株式会社,,株式会社,愛知県,名古屋市熱田区,桜田町３番１３号,,23,109,4560004,,,2021-12-16,清算の結了等,,,2015-10-05,1,,,,,ヨシダキハン,0
2072,8230003001394,登記記録の閉鎖等,0,2021-12-20,2021-12-15,合同会社Ｒｅｆｒｅｓｈ,,合同会社,富山県,高岡市,横田本町６番８号,,16,202,9330849,,,2021-12-15,清算の結了等,,,2019-11-14,1,,,,,,0
2073,8240002024189,登記記録の閉鎖等,0,2021-12-20,2021-12-16,有限会社田口塗装,,有限会社,広島県,広島市中区,千田町１丁目５番８－６０２号（第８平勝ビル）,,34,101,7300052,,,2021-12-16,清算の結了等,,,2015-10-05,1,,,,,タグチトソウ,0
2089,8310001001578,登記記録の閉鎖等,0,2021-12-20,2021-12-17,株式会社中村冷菓,,株式会社,長崎県,長崎市,石神町３９番８８号,,42,201,8528126,,,2021-12-17,清算の結了等,,,2015-10-05,1,,,,,ナカムラレイカ,0
2095,8320002001378,登記記録の閉鎖等,0,2021-12-20,2021-12-16,えびす企画有限会社,,有限会社,大分県,大分市,大手町２丁目３番４号,,44,201,8700022,,,2021-12-16,合併による解散等,8320002008737,令和３年１２月１６日大分市新栄町１７番１１号株式会社アポロ・コーポレーション（8320002008737）に合併し解散,2015-10-05,1,,,,,エビスキカク,0
2098,8320002018042,登記記録の閉鎖等,0,2021-12-20,2021-12-17,有限会社本田電器,,有限会社,大分県,竹田市,大字会々１４６４番地４,,44,208,8780011,,,2021-12-17,清算の結了等,,,2015-10-05,1,,,,,ホンダデンキ,0
2106,8350002003792,登記記録の閉鎖等,0,2021-12-20,2021-12-15,有限会社日高水産,,有限会社,宮崎県,宮崎市,新別府町雀田１１８５番地,,45,201,8800834,,,2021-12-15,清算の結了等,,,2015-10-05,1,,,,,ヒダカスイサン,0
2110,8360001017446,登記記録の閉鎖等,0,2021-12-20,2021-12-15,株式会社沖縄石材センター,,株式会社,沖縄県,沖縄市,泡瀬２丁目４７番１１号,,47,211,9042172,,,2021-12-15,清算の結了等,,,2015-10-05,1,,,,,オキナワセキザイセンター,0
2115,8360001025176,登記記録の閉鎖等,0,2021-12-20,2021-12-13,株式会社沖縄リゾート,,株式会社,沖縄県,沖縄市,大里２丁目５番８号,,47,211,9042163,,,2021-12-13,清算の結了等,,,2019-01-30,1,,,,,オキナワリゾート,0
2143,8470002012807,登記記録の閉鎖等,0,2021-12-20,2021-12-17,有限会社大平良雄商店,,有限会社,香川県,善通寺市,与北町６９５番地,,37,204,7650040,,,2021-12-17,清算の結了等,,,2015-10-05,1,,,,,オオヒラヨシオショウテン,0
2150,9010003033062,登記記録の閉鎖等,0,2021-12-20,2021-12-13,ＪＡＮＤ　Ｅｄｕ．合同会社,,合同会社,東京都,中央区,銀座１丁目２２－１１銀座大竹ビジデンス２Ｆ,,13,102,1040061,,,2021-12-13,清算の結了等,,,2020-09-17,1,,,,,ジェイアンドエドゥ,0
2168,9010801011392,登記記録の閉鎖等,0,2021-12-20,2021-12-14,株式会社萬両園雑色センター,,株式会社,東京都,大田区,仲六郷２丁目４３番７号,,13,111,1440055,,,2021-12-14,清算の結了等,,,2015-10-05,1,,,,,マンリョウエンゾウシキセンター,0
2230,9021001005969,登記記録の閉鎖等,0,2021-12-20,2021-12-15,株式会社う・た・し,,株式会社,神奈川県,藤沢市,鵠沼石上１丁目６番１号,,14,205,2510025,,,2021-12-15,清算の結了等,,,2015-10-05,1,,,,,ウタシ,0
2253,9040002034026,登記記録の閉鎖等,0,2021-12-20,2021-12-16,有限会社コバネットワーク,,有限会社,千葉県,市川市,真間３丁目７番１号,,12,203,2720826,,,2021-12-16,清算の結了等,,,2015-10-05,1,,,,,コバネットワーク,0
2260,9050002014506,登記記録の閉鎖等,0,2021-12-20,2021-12-15,有限会社藤原,,有限会社,茨城県,土浦市,中高津１丁目１６番１８号,,08,203,3000815,,,2021-12-15,清算の結了等,,,2015-10-05,1,,,,,フジワラ,0
2268,9080001016186,登記記録の閉鎖等,0,2021-12-20,2021-12-16,株式会社ＷＡＶＥ,,株式会社,静岡県,焼津市,小土１１４２番地の６,,22,212,4250086,,,2021-12-16,清算の結了等,,,2015-10-05,1,,,,,ウェーブ,0
2271,9080402015398,登記記録の閉鎖等,0,2021-12-20,2021-12-14,浜北小型運輸有限会社,,有限会社,静岡県,浜松市浜北区,新原２８５５番地,,22,136,4340003,,,2021-12-14,清算の結了等,,,2015-10-05,1,,,,,ハマキタコガタウンユ,0
2276,9100002014483,登記記録の閉鎖等,0,2021-12-20,2021-12-15,有限会社長野プリントシステム,,有限会社,長野県,上田市,中之条１２３７番地３,,20,203,3860034,,,2021-12-15,清算の結了等,,,2015-10-05,1,,,,,ナガノプリントシステム,0
2326,9180001006813,登記記録の閉鎖等,0,2021-12-20,2021-12-15,中京高周波工業株式会社,,株式会社,愛知県,名古屋市港区,東蟹田１８２７番地,,23,111,4550886,,,2021-12-15,清算の結了等,,,2015-10-05,1,,,,,,0
2345,9210002003335,登記記録の閉鎖等,0,2021-12-20,2021-12-14,有限会社マルカ商店,,有限会社,福井県,福井市,茱崎町第１４号８番地,,18,201,9103552,,,2021-12-14,清算の結了等,,,2015-10-05,1,,,,,マルカショウテン,0
2346,9210002004630,登記記録の閉鎖等,0,2021-12-20,2021-12-14,有限会社ウメダ建装,,有限会社,福井県,福井市,新保２丁目５０６番地の２,,18,201,9100833,,,2021-12-14,清算の結了等,,,2015-10-05,1,,,,,ウメダケンソウ,0
2364,9290002002049,登記記録の閉鎖等,0,2021-12-20,2021-12-13,有限会社合商,,有限会社,福岡県,福岡市南区,高宮１丁目２番２８号,,40,134,8150083,,,2021-12-13,清算の結了等,,,2015-10-05,1,,,,,ゴウショウ,0
2393,9430001074347,登記記録の閉鎖等,0,2021-12-20,2021-12-16,株式会社ノースコミュニケーションズ,,株式会社,北海道,札幌市中央区,北四条西４丁目１番地伊藤ビル,,01,101,0600004,,,2021-12-16,清算の結了等,,,2017-06-16,1,,,,,ノースコミュニケーションズ,0
2399,9430002058506,登記記録の閉鎖等,0,2021-12-20,2021-12-15,有限会社黒田デンタル・サービス,,有限会社,北海道,苫小牧市,泉町１丁目９番１１号,,01,213,0530047,,,2021-12-15,清算の結了等,,,2015-10-05,1,,,,,クロダデンタルサービス,0
