sequenceNumber,corporateNumber,process,correct,updateDate,changeDate,name,nameImageId,kind,prefectureName,cityName,streetNumber,addressImageId,prefectureCode,cityCode,postCode,addressOutside,addressOutsideImageId,closeDate,closeCause,successorCorporateNumber,changeCause,assignmentDate,latest,enName,enPrefectureName,enCityName,enAddressOutside,furigana,hihyoji
14,1010005034099,新規,0,2021-10-19,2021-10-19,社会保険労務士法人熊代事務所,,その他の設立登記法人,東京都,千代田区,神田神保町３丁目２番地５,,13,101,1010051,,,,,,,2021-10-19,1,,,,,クマシロジムショ,0
16,1010101014913,新規,0,2021-10-19,2021-10-19,株式会社リベリアス,,株式会社,東京都,八王子市,中野上町１丁目３４番７号,,13,201,1920041,,,,,,,2021-10-19,1,,,,,リベリアス,0
23,1010401163311,新規,0,2021-10-19,2021-10-19,ジャパンビジネスストラテジー株式会社,,株式会社,東京都,港区,赤坂４丁目８番１９号赤坂フロントタウン３階,,13,103,1070052,,,,,,,2021-10-19,1,,,,,ジャパンビジネスストラテジー,0
24,1010403026350,新規,0,2021-10-19,2021-10-19,Ａｒｆｉｅｌｄ合同会社,,合同会社,東京都,港区,南青山１丁目２０番２号乃木坂ビジネスコート１Ｆ,,13,103,1070062,,,,,,,2021-10-19,1,,,,,アーフィールド,0
47,1011001143505,新規,0,2021-10-19,2021-10-19,クラウド不動産株式会社,,株式会社,東京都,目黒区,鷹番３丁目９番１３号－４０１号,,13,110,1520004,,,,,,,2021-10-19,1,,,,,クラウドフドウサン,0
64,1011401023769,新規,0,2021-10-19,2021-10-19,株式会社ＡＴ,,株式会社,東京都,板橋区,幸町１６番１４－３０５号,,13,119,1730034,,,,,,,2021-10-19,1,,,,,エーティー,0
69,1011801039852,新規,0,2021-10-19,2021-10-19,株式会社拓源,,株式会社,東京都,葛飾区,新小岩２丁目５番１１号笹本マンション４０５,,13,122,1240024,,,,,,,2021-10-19,1,,,,,,0
77,1013301048169,新規,0,2021-10-19,2021-10-19,株式会社ＡＲｉＡ,,株式会社,東京都,豊島区,池袋２丁目５４番１４号東拓ビル１Ｆ,,13,116,1710014,,,,,,,2021-10-19,1,,,,,アリア,0
85,1020001143522,新規,0,2021-10-19,2021-10-19,株式会社渡辺経理事務所,,株式会社,神奈川県,川崎市川崎区,南町２２番地６－２０１,,14,131,2100015,,,,,,,2021-10-19,1,,,,,ワタナベケイリジムショ,0
86,1020001143547,新規,0,2021-10-19,2021-10-19,株式会社ＩＭＪ,,株式会社,神奈川県,横浜市港北区,綱島東５丁目５番１－５０８号,,14,109,2230052,,,,,,,2021-10-19,1,,,,,アイエムジェイ,0
90,1020003020661,新規,0,2021-10-19,2021-10-19,合同会社初音クリエイト,,合同会社,神奈川県,横浜市中区,初音町１丁目２番地８フェニックス横濱初音町７０３号室,,14,104,2310053,,,,,,,2021-10-19,1,,,,,ハツネクリエイト,0
95,1021001074245,新規,0,2021-10-19,2021-10-19,株式会社トレドアップ,,株式会社,神奈川県,相模原市中央区,相模原３丁目７番３号,,14,152,2520231,,,,,,,2021-10-19,1,,,,,トレドアップ,0
96,1021001074253,新規,0,2021-10-19,2021-10-19,レイ株式会社,,株式会社,神奈川県,平塚市,真田２丁目１１番２３号,,14,203,2591206,,,,,,,2021-10-19,1,,,,,レイ,0
99,1021003010982,新規,0,2021-10-19,2021-10-19,ＭＧジャパン合同会社,,合同会社,神奈川県,小田原市,曽比３１７１－１０３,,14,206,2500851,,,,,,,2021-10-19,1,,,,,エムジージャパン,0
100,1021003010999,新規,0,2021-10-19,2021-10-19,合同会社Ｃ＆Ｔ,,合同会社,神奈川県,藤沢市,辻堂６丁目２０番９号,,14,205,2510047,,,,,,,2021-10-19,1,,,,,シーアンドティー,0
108,1030001144908,新規,0,2021-10-19,2021-10-19,株式会社川口不動産,,株式会社,埼玉県,川口市,川口１丁目３番１６－４０５号,,11,203,3320015,,,,,,,2021-10-19,1,,,,,カワグチフドウサン,0
116,1040001120643,新規,0,2021-10-19,2021-10-19,ムッキ株式会社,,株式会社,千葉県,八街市,文違３０１番地２９５３,,12,230,2891104,,,,,,,2021-10-19,1,,,,,ムッキ,0
117,1040001120684,新規,0,2021-10-19,2021-10-19,朝陽株式会社,,株式会社,千葉県,千葉市中央区,中央１丁目６番６－７０３号,,12,101,2600013,,,,,,,2021-10-19,1,,,,,アサヒ,0
133,1070001038552,新規,0,2021-10-19,2021-10-19,楠サポート株式会社,,株式会社,群馬県,伊勢崎市,長沼町６６０番地１１,,10,204,3720855,,,,,,,2021-10-19,1,,,,,クスサポート,0
145,1110005016723,新規,0,2021-10-19,2021-10-19,特定非営利活動法人フードバンクつばめ,,その他の設立登記法人,新潟県,燕市,小池４８５２番地５,,15,213,9591276,,,,,,,2021-10-19,1,,,,,フードバンクツバメ,0
155,1120001240994,新規,0,2021-10-19,2021-10-19,株式会社にくぷく,,株式会社,大阪府,大阪市西区,江戸堀１丁目１６番２２号,,27,106,5500002,,,,,,,2021-10-19,1,,,,,ニクプク,0
156,1120001241217,新規,0,2021-10-19,2021-10-19,株式会社フィロス,,株式会社,大阪府,大阪市中央区,東心斎橋１丁目８－１１アルグラッドタワー心斎橋,,27,128,5420083,,,,,,,2021-10-19,1,,,,,フィロス,0
157,1120001241241,新規,0,2021-10-19,2021-10-19,株式会社ＲｉｚｅＨｉｇｈ,,株式会社,大阪府,大阪市北区,梅田１丁目２番２号大阪駅前第２ビル２階５－６号室,,27,127,5300001,,,,,,,2021-10-19,1,,,,,ライズハイ,0
158,1120001241282,新規,0,2021-10-19,2021-10-19,株式会社ＡＬＩＶＥ,,株式会社,大阪府,寝屋川市,大成町３４番１号,,27,215,5720819,,,,,,,2021-10-19,1,,,,,アライブ,0
184,1140003016879,新規,0,2021-10-19,2021-10-19,ニカチイコーポレーション合同会社,,合同会社,兵庫県,神戸市長田区,長田町１丁目２番１０号ヤカタビル４０１,,28,106,6530812,,,,,,,2021-10-19,1,,,,,ニカチイコーポレーション,0
186,1140005025861,新規,0,2021-10-19,2021-10-19,特定非営利活動法人兵庫野球指導者会,,その他の設立登記法人,兵庫県,神戸市北区,中里町２丁目１番地の１Ｂ－２０１号,,28,109,6511103,,,,,,,2021-10-19,1,,,,,ヒョウゴヤキュウシドウシャカイ,0
193,1180001148357,新規,0,2021-10-19,2021-10-19,ＫＨＳ株式会社,,株式会社,愛知県,一宮市,西大海道字金底４番地１０３号室,,23,203,4910005,,,,,,,2021-10-19,1,,,,,ケーエイチエス,0
217,1240001058772,新規,0,2021-10-19,2021-10-19,株式会社Ｇｒｏｗ,,株式会社,広島県,広島市中区,東白島町１９番９３号,,34,101,7300004,,,,,,,2021-10-19,1,,,,,グロウ,0
219,1240002031010,新規,0,2021-10-19,2021-10-19,有限会社河野土木,,有限会社,広島県,安芸高田市,吉田町上入江１９２５番地の２,,34,214,7310532,,,,,,,2021-10-19,1,,,,,コウノドボク,0
229,1270001008378,新規,0,2021-10-19,2021-10-19,株式会社ピッコロ,,株式会社,鳥取県,米子市,車尾４丁目４番２８号,,31,202,6830006,,,,,,,2021-10-19,1,,,,,ピッコロ,0
237,1290001095068,新規,0,2021-10-19,2021-10-19,株式会社ヨシムラ,,株式会社,福岡県,久留米市,城島町江上１０６６番地２,,40,203,8300213,,,,,,,2021-10-19,1,,,,,ヨシムラ,0
238,1290001095076,新規,0,2021-10-19,2021-10-19,株式会社ＴＰＳ,,株式会社,福岡県,久留米市,宮ノ陣町大杜４２８番地８,,40,203,8390803,,,,,,,2021-10-19,1,,,,,ティーピーエス,0
253,1320001018677,新規,0,2021-10-19,2021-10-19,株式会社マネジメント,,株式会社,大分県,宇佐市,大字四日市１０１６番地の１,,44,211,8790471,,,,,,,2021-10-19,1,,,,,マネジメント,0
255,1330001029079,新規,0,2021-10-19,2021-10-19,株式会社フリーハンド,,株式会社,熊本県,熊本市東区,戸島西１丁目１７番４９号,,43,102,8618043,,,,,,,2021-10-19,1,,,,,フリーハンド,0
262,1360001029506,新規,0,2021-10-19,2021-10-19,株式会社エージェント沖縄,,株式会社,沖縄県,那覇市,三原３丁目５番４０号ＴＯＭＯハウス２０２,,47,201,9020063,,,,,,,2021-10-19,1,,,,,エージェントオキナワ,0
263,1360003011511,新規,0,2021-10-19,2021-10-19,合同会社玉城コンストラクション,,合同会社,沖縄県,那覇市,字真地３１７－３－２階,,47,201,9020072,,,,,,,2021-10-19,1,,,,,,0
272,1410001012992,新規,0,2021-10-19,2021-10-19,株式会社もみがらの力,,株式会社,秋田県,秋田市,南通築地１番９号グランフォート南通１－Ｃ,,05,201,0100013,,,,,,,2021-10-19,1,,,,,モミガラノチカラ,0
276,1440001008963,新規,0,2021-10-19,2021-10-19,株式会社ＨＭＫ,,株式会社,北海道,北斗市,東前４８番地の２,,01,236,0411214,,,,,,,2021-10-19,1,,,,,エイチエムケー,0
305,2010601060092,新規,0,2021-10-19,2021-10-19,株式会社ムサシイノベーション,,株式会社,東京都,墨田区,東向島６丁目４２番１０号,,13,107,1310032,,,,,,,2021-10-19,1,,,,,ムサシイノベーション,0
306,2010801013949,新規,0,2021-10-19,2021-10-19,京浜工業株式会社,,株式会社,東京都,大田区,南千束１丁目１番５号,,13,111,1450063,,,,,,,2021-10-19,1,,,,,ケイヒンコウギョウ,0
307,2010801032412,新規,0,2021-10-19,2021-10-19,株式会社ケイ・トレーディング,,株式会社,東京都,大田区,東矢口１丁目１４番２５号,,13,111,1460094,,,,,,,2021-10-19,1,,,,,ケイトレーディング,0
309,2010901049653,新規,0,2021-10-19,2021-10-19,ユナイテッドコンピューター株式会社,,株式会社,東京都,世田谷区,代沢５丁目１７番１０号ガーデンコート代沢１０３,,13,112,1550032,,,,,,,2021-10-19,1,,,,,ユナイテッドコンピューター,0
316,2011001143470,新規,0,2021-10-19,2021-10-19,株式会社あるひ,,株式会社,東京都,渋谷区,南平台町１２番９号,,13,113,1500036,,,,,,,2021-10-19,1,,,,,アルヒ,0
318,2011005009271,新規,0,2021-10-19,2021-10-19,司法書士法人ホープス,,その他の設立登記法人,東京都,渋谷区,渋谷２丁目２番４号青山アルコープ４０２号室,,13,113,1500002,,,,,,,2021-10-19,1,,,,,ホープス,0
320,2011103011096,新規,0,2021-10-19,2021-10-19,ＨＩＧＨＬＡＮＤ　ＣＩＴＹ合同会社,,合同会社,東京都,新宿区,新宿５丁目１１番１３号富士新宿ビル４階,,13,104,1600022,,,,,,,2021-10-19,1,,,,,,0
324,2011301027209,新規,0,2021-10-19,2021-10-19,ＥＦ株式会社,,株式会社,東京都,杉並区,天沼２丁目７－７マンション大竹３０１,,13,115,1670032,,,,,,,2021-10-19,1,,,,,イエフ,0
331,2011505002429,新規,0,2021-10-19,2021-10-19,一般社団法人美容健康ミエルカ,,その他の設立登記法人,東京都,荒川区,東尾久１丁目３２番６－１５０４号,,13,118,1160012,,,,,,,2021-10-19,1,,,,,ビヨウケンコウミエルカ,0
333,2011601025473,新規,0,2021-10-19,2021-10-19,株式会社ＫＳ,,株式会社,東京都,練馬区,大泉学園町８丁目７番１２号,,13,120,1780061,,,,,,,2021-10-19,1,,,,,ケーエス,0
339,2011703002973,新規,0,2021-10-19,2021-10-19,合同会社ｗｉｓｔｅｒｉａｒｔｓ,,合同会社,東京都,江戸川区,東葛西８丁目１０番２０号１０９,,13,123,1340084,,,,,,,2021-10-19,1,,,,,ウィステリアーツ,0
341,2012301012745,新規,0,2021-10-19,2021-10-19,株式会社ＥＩＧＨＴ　ＰＥＡＣＥ,,株式会社,東京都,町田市,下小山田町２７２８番地８,,13,209,1940202,,,,,,,2021-10-19,1,,,,,エイトピース,0
344,2012403005077,新規,0,2021-10-19,2021-10-19,合同会社ＳＳＳ,,合同会社,東京都,稲城市,平尾１丁目２９番地７アビニヨン１０２,,13,225,2060823,,,,,,,2021-10-19,1,,,,,エスエスエス,0
347,2012701016726,新規,0,2021-10-19,2021-10-19,株式会社蒼世,,株式会社,東京都,西東京市,新町４丁目１２番３６号,,13,229,2020023,,,,,,,2021-10-19,1,,,,,ソウセイ,0
355,2013301048127,新規,0,2021-10-19,2021-10-19,金蔵株式会社,,株式会社,東京都,豊島区,池袋１丁目１２－１ハニービーＢ室,,13,116,1700014,,,,,,,2021-10-19,1,,,,,キンゾウ,0
356,2013303005860,新規,0,2021-10-19,2021-10-19,合同会社ＹＡＳＨＩＭＡＸ,,合同会社,東京都,豊島区,駒込３丁目３番２１号エクセレンシア駒込１３０２号,,13,116,1700003,,,,,,,2021-10-19,1,,,,,ヤシマックス,0
366,2020003020636,新規,0,2021-10-19,2021-10-19,Ｈｏｖｅｒｔ合同会社,,合同会社,神奈川県,横浜市港北区,高田西４丁目４４番６,,14,109,2230066,,,,,,,2021-10-19,1,,,,,ホバート,0
367,2020003020669,新規,0,2021-10-19,2021-10-19,合同会社ティワイエフ,,合同会社,神奈川県,川崎市麻生区,上麻生１丁目３番４号,,14,137,2150021,,,,,,,2021-10-19,1,,,,,ティワイエフ,0
373,2021001074244,新規,0,2021-10-19,2021-10-19,株式会社中央コピー,,株式会社,神奈川県,相模原市中央区,中央１丁目１番１８号,,14,152,2520239,,,,,,,2021-10-19,1,,,,,チュウオウコピー,0
377,2030001144865,新規,0,2021-10-19,2021-10-19,リンク株式会社,,株式会社,埼玉県,さいたま市西区,大字中野林７９２番地４,,11,101,3310057,,,,,,,2021-10-19,1,,,,,リンク,0
378,2030001144907,新規,0,2021-10-19,2021-10-19,株式会社ブランシーエステート,,株式会社,埼玉県,さいたま市浦和区,元町３丁目１１番１５号,,11,107,3300073,,,,,,,2021-10-19,1,,,,,ブランシーエステート,0
381,2030005020583,新規,0,2021-10-19,2021-10-19,医療法人社団栄羽会,,その他の設立登記法人,埼玉県,越谷市,弥栄町１丁目１０５番地１８４,,11,222,3430046,,,,,,,2021-10-19,1,,,,,エイワカイ,0
389,2040001120634,新規,0,2021-10-19,2021-10-19,株式会社波建,,株式会社,千葉県,袖ケ浦市,上泉１２０５番地１３４,,12,229,2990205,,,,,,,2021-10-19,1,,,,,ナミケン,0
390,2040003018777,新規,0,2021-10-19,2021-10-19,合同会社ＴＡＮ　ＴＡＮ,,合同会社,千葉県,市川市,南八幡５丁目１１番１号（南八幡ハイツＡ棟２０２号）,,12,203,2720023,,,,,,,2021-10-19,1,,,,,タンタン,0
402,2070003004270,新規,0,2021-10-19,2021-10-19,ＣＲＡＹＯＮ合同会社,,合同会社,群馬県,館林市,大谷町１０５５－８,,10,207,3740054,,,,,,,2021-10-19,1,,,,,クレヨン,0
408,2090001017248,新規,0,2021-10-19,2021-10-19,株式会社渡邊企画,,株式会社,山梨県,富士吉田市,下吉田５丁目２３番１３号,,19,202,4030004,,,,,,,2021-10-19,1,,,,,ワタナベキカク,0
409,2100001034720,新規,0,2021-10-19,2021-10-19,株式会社ナチュラルハイ,,株式会社,長野県,諏訪市,城南１丁目２５６２番地１,,20,206,3920017,,,,,,,2021-10-19,1,,,,,ナチュラルハイ,0
410,2100001034729,新規,0,2021-10-19,2021-10-19,株式会社ＯＮＥ１８ＥＩＧＨＴＳ,,株式会社,長野県,長野市,北石堂町１１７５番地１２,,20,201,3810000,,,,,,,2021-10-19,1,,,,,ワンエイト,0
435,2120001241240,新規,0,2021-10-19,2021-10-19,株式会社ＷＨＩＴＥ,,株式会社,大阪府,大阪市北区,天満２丁目１２番３号ヴィレッジリバー南森町２Ｆ号室,,27,127,5300043,,,,,,,2021-10-19,1,,,,,ホワイト,0
436,2120001241273,新規,0,2021-10-19,2021-10-19,株式会社上野金属工業所,,株式会社,大阪府,寝屋川市,葛原１丁目３５番１４号,,27,215,5720075,,,,,,,2021-10-19,1,,,,,ウエノキンゾクコウギョウショ,0
441,2120101064509,新規,0,2021-10-19,2021-10-19,株式会社シンガポールコネクション,,株式会社,大阪府,岸和田市,地蔵浜町７番地の３,,27,202,5960015,,,,,,,2021-10-19,1,,,,,シンガポールコネクション,0
443,2120103004405,新規,0,2021-10-19,2021-10-19,合同会社０２１９,,合同会社,大阪府,河内長野市,美加の台１丁目３９番１－１００７号,,27,216,5860044,,,,,,,2021-10-19,1,,,,,ゼロニイチキュウ,0
444,2120901045071,新規,0,2021-10-19,2021-10-19,株式会社スペースＲ,,株式会社,大阪府,吹田市,山田南４５番Ａ－６０３号,,27,205,5650823,,,,,,,2021-10-19,1,,,,,スペースアール,0
454,2140001123536,新規,0,2021-10-19,2021-10-19,株式会社イームス,,株式会社,兵庫県,神戸市中央区,港島南町４丁目７番７号,,28,110,6500047,,,,,,,2021-10-19,1,,,,,イームス,0
455,2140001123544,新規,0,2021-10-19,2021-10-19,株式会社ＴＵ,,株式会社,兵庫県,神戸市中央区,下山手通１丁目５番４号コンベックススクエアビル６０３,,28,110,6500011,,,,,,,2021-10-19,1,,,,,ティーユー,0
466,2150003002514,新規,0,2021-10-19,2021-10-19,合同会社Ｓｈｉｎｏｓｔｙｌｅ,,合同会社,奈良県,生駒市,真弓南１丁目２番２９号,,29,209,6300123,,,,,,,2021-10-19,1,,,,,シノスタイル,0
467,2160001023734,新規,0,2021-10-19,2021-10-19,株式会社古材不動産,,株式会社,滋賀県,長浜市,大依町７４８番地,,25,203,5260251,,,,,,,2021-10-19,1,,,,,コザイフドウサン,0
470,2170003001646,新規,0,2021-10-19,2021-10-19,合同会社ユニバーサル・ライフ,,合同会社,和歌山県,海南市,小野田１５２７－１２,,30,202,6420014,,,,,,,2021-10-19,1,,,,,ユニバーサルライフ,0
478,2180001148315,新規,0,2021-10-19,2021-10-19,株式会社プランツトリップ,,株式会社,愛知県,愛西市,本部田町狭場２７番地,,23,232,4960915,,,,,,,2021-10-19,1,,,,,プランツトリップ,0
479,2180001148348,新規,0,2021-10-19,2021-10-19,株式会社ＤＡＲＫＨＡＮ　ＭＧＬ,,株式会社,愛知県,名古屋市北区,長田町１丁目１３番地の４ファースト尼ケ坂５０３号,,23,103,4620834,,,,,,,2021-10-19,1,,,,,ダルハンエムジーエル,0
480,2180001148356,新規,0,2021-10-19,2021-10-19,すまいりい株式会社,,株式会社,愛知県,名古屋市東区,泉３丁目１７番１０号泉ビル３Ｆ,,23,102,4610001,,,,,,,2021-10-19,1,,,,,スマイリイ,0
490,2180301035527,新規,0,2021-10-19,2021-10-19,株式会社Ｌｉｒｅｍ,,株式会社,愛知県,豊橋市,西幸町字浜池３３３‐９,,23,201,4418113,,,,,,,2021-10-19,1,,,,,リレム,0
500,2200001039313,新規,0,2021-10-19,2021-10-19,株式会社Ｅｄｕ．ｔｏｒ,,株式会社,岐阜県,大垣市,宮町１丁目２５番地,,21,202,5030905,,,,,,,2021-10-19,1,,,,,エデュター,0
504,2210001018654,新規,0,2021-10-19,2021-10-19,株式会社ＪＩＧＵＲＯ,,株式会社,福井県,福井市,順化２丁目２４番１０号,,18,201,9100023,,,,,,,2021-10-19,1,,,,,ジグロ,0
509,2240001058771,新規,0,2021-10-19,2021-10-19,表参道の父株式会社,,株式会社,広島県,広島市東区,牛田早稲田２丁目７－３８－１号,,34,102,7320062,,,,,,,2021-10-19,1,,,,,,0
523,2290001050303,新規,0,2021-10-19,2021-10-19,株式会社リフアインド,,株式会社,福岡県,久留米市,国分町１４６７番地,,40,203,8390863,,,,,,,2021-10-19,1,,,,,リフアインド,0
526,2290001095059,新規,0,2021-10-19,2021-10-19,株式会社上野商運,,株式会社,福岡県,春日市,下白水南３丁目６５番地プレステージ博多南５０１号,,40,218,8160846,,,,,,,2021-10-19,1,,,,,ウエノショウウン,0
527,2290001095067,新規,0,2021-10-19,2021-10-19,株式会社ユーズインテリア,,株式会社,福岡県,那珂川市,松木６丁目７番１２号,,40,231,8111251,,,,,,,2021-10-19,1,,,,,ユーズインテリア,0
528,2290001095075,新規,0,2021-10-19,2021-10-19,株式会社エフ工業,,株式会社,福岡県,福岡市東区,唐原４丁目３番３－１０２号,,40,131,8130001,,,,,,,2021-10-19,1,,,,,エフコウギョウ,0
535,2320001018676,新規,0,2021-10-19,2021-10-19,株式会社ＭＯＶＡＬＩＮ,,株式会社,大分県,別府市,京町１１番８号２階,,44,202,8740926,,,,,,,2021-10-19,1,,,,,,0
544,2370001047729,新規,0,2021-10-19,2021-10-19,株式会社なかよし,,株式会社,宮城県,仙台市青葉区,梅田町２番４５号,,04,101,9800005,,,,,,,2021-10-19,1,,,,,ナカヨシ,0
555,2400001015640,新規,0,2021-10-19,2021-10-19,株式会社Ｋａｎｅｋｏ,,株式会社,岩手県,宮古市,長町１丁目９番１０号,,03,202,0270053,,,,,,,2021-10-19,1,,,,,カネコ,0
556,2410001012991,新規,0,2021-10-19,2021-10-19,株式会社笑ｔｉｍｅ,,株式会社,秋田県,能代市,住吉町２番２１号,,05,202,0160824,,,,,,,2021-10-19,1,,,,,ショウタイム,0
574,2700150104692,新規,0,2021-10-19,2021-09-14,ｉＰＳ細胞産学合同研究会,,その他,京都府,京都市左京区,田中門前町１０３－５ルイ・パストゥール医学研究センター　株式会社ｉＰＳポータル内,,26,103,6068225,,,,,,,2021-09-14,1,,,,,アイピーエスサイボウサンガクゴウドウケンキユウカイ,0
575,2700150104809,新規,0,2021-10-19,2021-09-21,させぼ　こどもおとな　アート・プロジェクト,,その他,長崎県,佐世保市,大岳台町１５－２９,,42,202,8571163,,,,,,,2021-09-21,1,,,,,サセボコドモオトナアートプロジエクト,0
583,3010001221896,新規,0,2021-10-19,2021-10-19,株式会社ＯＨＭＵＲＡ,,株式会社,東京都,中央区,京橋１丁目１番５号セントラルビル,,13,102,1040031,,,,,,,2021-10-19,1,,,,,オオムラ,0
587,3010003036054,新規,0,2021-10-19,2021-10-19,合同会社トリニティニューメキシコ,,合同会社,東京都,中央区,日本橋１丁目４番１号,,13,102,1030027,,,,,,,2021-10-19,1,,,,,トリニティニューメキシコ,0
595,3010403026357,新規,0,2021-10-19,2021-10-19,もの書き屋・宗輔合同会社,,合同会社,東京都,港区,虎ノ門１丁目１番２１号新虎ノ門実業会館５Ｆ,,13,103,1050001,,,,,,,2021-10-19,1,,,,,モノカキヤソウスケ,0
596,3010501047998,新規,0,2021-10-19,2021-10-19,株式会社ふりすぴ,,株式会社,東京都,台東区,上野７丁目３番９号,,13,106,1100005,,,,,,,2021-10-19,1,,,,,,0
605,3010701041611,新規,0,2021-10-19,2021-10-19,株式会社オノダ貿易,,株式会社,東京都,品川区,上大崎２丁目２４番１１号目黒西口マンション２号館８０３号室,,13,109,1410021,,,,,,,2021-10-19,1,,,,,オノダボウエキ,0
608,3010901049636,新規,0,2021-10-19,2021-10-19,株式会社エフアイヅ,,株式会社,東京都,世田谷区,桜丘３丁目１０番３号,,13,112,1560054,,,,,,,2021-10-19,1,,,,,エフアイヅ,0
612,3011005009254,新規,0,2021-10-19,2021-10-19,一般社団法人Ｃｈｉｌｄｒｅｎ’ｓ　Ｒｉｇｈｔｓ　Ｗａｔｃｈ　Ｊａｐａｎ,,その他の設立登記法人,東京都,渋谷区,神宮前６丁目２９－４原宿ｋｏｍｉｙａビル６階,,13,113,1500001,,,,,,,2021-10-19,1,,,,,,0
618,3011101096642,新規,0,2021-10-19,2021-10-19,株式会社ＶＡＬＵＥ　ＣＲＥＡＴＥ,,株式会社,東京都,新宿区,河田町３番５１－７１５号,,13,104,1620054,,,,,,,2021-10-19,1,,,,,バリュークリエイト,0
628,3012701016725,新規,0,2021-10-19,2021-10-19,皆川トレーディング株式会社,,株式会社,東京都,小平市,小川東町１丁目１８番２６号アイディコート２０２,,13,211,1870031,,,,,,,2021-10-19,1,,,,,ミナガワトレーディング,0
635,3020003020668,新規,0,2021-10-19,2021-10-19,合同会社えがきや,,合同会社,神奈川県,横浜市西区,平沼１丁目４０番１号嶋森ビル８階,,14,103,2200023,,,,,,,2021-10-19,1,,,,,エガキヤ,0
642,3021001074227,新規,0,2021-10-19,2021-10-19,茜空株式会社,,株式会社,神奈川県,平塚市,平塚４丁目３２番１２号服部ビル２階,,14,203,2540052,,,,,,,2021-10-19,1,,,,,アカネソラ,0
643,3021001074243,新規,0,2021-10-19,2021-10-19,株式会社和輪舎,,株式会社,神奈川県,藤沢市,辻堂元町６丁目２３－１,,14,205,2510043,,,,,,,2021-10-19,1,,,,,ワワシャ,0
648,3021002073896,新規,0,2021-10-19,2021-10-19,有限会社藤本商事,,有限会社,神奈川県,小田原市,扇町１丁目２５番１０号,,14,206,2500001,,,,,,,2021-10-19,1,,,,,フジモトショウジ,0
649,3021005012323,新規,0,2021-10-19,2021-10-19,特定非営利活動法人タネノバ,,その他の設立登記法人,神奈川県,相模原市緑区,若柳１１７０番地,,14,151,2520175,,,,,,,2021-10-19,1,,,,,タネノバ,0
659,3030001144889,新規,0,2021-10-19,2021-10-19,株式会社イトイプラント工業,,株式会社,埼玉県,越谷市,東大沢３丁目３２番地１,,11,222,3430022,,,,,,,2021-10-19,1,,,,,イトイプラントコウギョウ,0
660,3030001144897,新規,0,2021-10-19,2021-10-19,株式会社日彰,,株式会社,埼玉県,八潮市,大字南川崎３０１番地１,,11,234,3400814,,,,,,,2021-10-19,1,,,,,ニッショウ,0
670,3030003018158,新規,0,2021-10-19,2021-10-19,合同会社Ｓｉｎ,,合同会社,埼玉県,朝霞市,本町２丁目１９番４号,,11,227,3510011,,,,,,,2021-10-19,1,,,,,シン,0
672,3030005020582,新規,0,2021-10-19,2021-10-19,社会保険労務士法人ゆりのき労務管理事務所,,その他の設立登記法人,埼玉県,春日部市,谷原３丁目１４番地４５,,11,214,3440065,,,,,,,2021-10-19,1,,,,,ユリノキロウムカンリジムショ,0
676,3040001120633,新規,0,2021-10-19,2021-10-19,株式会社ＳＢＬ,,株式会社,千葉県,松戸市,本町２０番地１新角ビルＢ１Ｆ,,12,207,2710091,,,,,,,2021-10-19,1,,,,,エスビーエル,0
677,3040001120682,新規,0,2021-10-19,2021-10-19,株式会社月と雨,,株式会社,千葉県,柏市,緑ケ丘２４－２２エム・クール１０１,,12,217,2770082,,,,,,,2021-10-19,1,,,,,ツキトアメ,0
679,3040003018776,新規,0,2021-10-19,2021-10-19,ＤＩＮＴＨＡＲＵ　ＩＮＴＥＲＮＡＴＩＯＮＡＬ合同会社,,合同会社,千葉県,白井市,河原子２２８番地１０,,12,232,2701403,,,,,,,2021-10-19,1,,,,,ディンタルインターナショナル,0
689,3080403004389,新規,0,2021-10-19,2021-10-19,一高電設合同会社,00124607,合同会社,静岡県,浜松市浜北区,内野２９４３番地,,22,136,4340044,,,,,,,2021-10-19,1,,,,,イチコウデンセツ,0
691,3100001034728,新規,0,2021-10-19,2021-10-19,株式会社Ｋ－ＣＲＡＦＴ,,株式会社,長野県,千曲市,大字稲荷山１９４番地２,,20,218,3870021,,,,,,,2021-10-19,1,,,,,ケークラフト,0
711,3120001241231,新規,0,2021-10-19,2021-10-19,Ｓｏｒａ　Ｎｅｘｔ株式会社,,株式会社,大阪府,大阪市西区,江戸堀２丁目１番１号江戸堀センタービル９階,,27,106,5500002,,,,,,,2021-10-19,1,,,,,ソラネクスト,0
712,3120001241264,新規,0,2021-10-19,2021-10-19,株式会社明輝工業,,株式会社,大阪府,大阪市此花区,酉島１丁目１５番１７号,,27,104,5540051,,,,,,,2021-10-19,1,,,,,アキコウギョウ,0
713,3120001241289,新規,0,2021-10-19,2021-10-19,株式会社ＫＯＫＵＤＯインターナショナル,,株式会社,大阪府,大阪市中央区,北浜２丁目１番２１号北浜ゲイトビル５階,,27,128,5410041,,,,,,,2021-10-19,1,,,,,コクドインターナショナル,0
717,3120003020435,新規,0,2021-10-19,2021-10-19,合同会社ＡＤＡＭＡＳ,,合同会社,大阪府,枚方市,伊加賀西町５３番３０号,,27,210,5730066,,,,,,,2021-10-19,1,,,,,アダマス,0
730,3140001123535,新規,0,2021-10-19,2021-10-19,株式会社ＲＥＳＵＳ,,株式会社,兵庫県,神戸市北区,鹿の子台北町２丁目７番１０号１階,,28,109,6511513,,,,,,,2021-10-19,1,,,,,リーサス,0
735,3140003016877,新規,0,2021-10-19,2021-10-19,合同会社ユニゾン,,合同会社,兵庫県,尼崎市,武庫川町２丁目２０番地の２,,28,202,6600084,,,,,,,2021-10-19,1,,,,,ユニゾン,0
736,3160001023733,新規,0,2021-10-19,2021-10-19,株式会社プロチョーニ,,株式会社,滋賀県,草津市,野路東１丁目１番１号立命館大学ＢＫＣインキュベータ,,25,206,5250058,,,,,,,2021-10-19,1,,,,,プロチョーニ,0
740,3180001148256,新規,0,2021-10-19,2021-10-19,株式会社Ｓ,,株式会社,愛知県,名古屋市瑞穂区,彌富町字清水ケ岡１番地の１ＦｏｒｅｓｔＯｎｅ八事清水ケ岡３０５号,,23,108,4670038,,,,,,,2021-10-19,1,,,,,エス,0
741,3180001148306,新規,0,2021-10-19,2021-10-19,株式会社Ｔ’ｓ,,株式会社,愛知県,名古屋市熱田区,伝馬１丁目５番２０号,,23,109,4560034,,,,,,,2021-10-19,1,,,,,ティーズ,0
742,3180001148330,新規,0,2021-10-19,2021-10-19,株式会社ＳＴＡＧＥ,,株式会社,愛知県,名古屋市中村区,井深町１番１号,,23,105,4530012,,,,,,,2021-10-19,1,,,,,ステージ,0
743,3180001148347,新規,0,2021-10-19,2021-10-19,株式会社Ｂｌｕｅ　Ｏｃｅａｎ,,株式会社,愛知県,海部郡蟹江町,錦２丁目１５７番地,,23,425,4970054,,,,,,,2021-10-19,1,,,,,ブルーオーシャン,0
744,3180001148371,新規,0,2021-10-19,2021-10-19,株式会社Ｓ・Ｓ・ＥＳＴＡＴＥ,,株式会社,愛知県,名古屋市千種区,今池１丁目１番４号,,23,101,4640850,,,,,,,2021-10-19,1,,,,,エスエスエステイト,0
747,3180301035526,新規,0,2021-10-19,2021-10-19,株式会社ＫＩＮＫＯ,,株式会社,愛知県,知立市,八橋町大流３４番地８,,23,225,4720001,,,,,,,2021-10-19,1,,,,,キンコ,0
759,3240001058770,新規,0,2021-10-19,2021-10-19,株式会社ＧＲＩＴ　ＬＩＮＥＲ,,株式会社,広島県,広島市安佐南区,川内３丁目１１番２３－２０２号Ｂ,,34,105,7310102,,,,,,,2021-10-19,1,,,,,グリットライナー,0
765,3250005008696,新規,0,2021-10-19,2021-10-19,農事組合法人奈美ファーム,,その他の設立登記法人,山口県,防府市,大字奈美１８１番地,,35,206,7470106,,,,,,,2021-10-19,1,,,,,ナミファーム,0
779,3290001095066,新規,0,2021-10-19,2021-10-19,株式会社那珂建設工業,,株式会社,福岡県,久留米市,螢川町７番地９ロマネスク通町１１０３号,,40,203,8300015,,,,,,,2021-10-19,1,,,,,ナカケンセツコウギョウ,0
798,3370001047728,新規,0,2021-10-19,2021-10-19,株式会社瑞穂産業,,株式会社,宮城県,仙台市太白区,茂庭台１丁目１４番２２号,,04,104,9820252,,,,,,,2021-10-19,1,,,,,ミズホサンギョウ,0
811,3420001017626,新規,0,2021-10-19,2021-10-19,株式会社Ｎ’ｓ　Ａｏｍｏｒｉ,,株式会社,青森県,弘前市,大字文京町１６－５－６,,02,202,0368224,,,,,,,2021-10-19,1,,,,,エヌズアオモリ,0
816,3450005004312,新規,0,2021-10-19,2021-10-19,特定非営利活動法人かむいクロカン情報局,,その他の設立登記法人,北海道,旭川市,旭神二条５丁目９番３号ビランドリーＡ２０２,,01,204,0788372,,,,,,,2021-10-19,1,,,,,カムイクロカンジョウホウキョク,0
836,3700150030632,新規,0,2021-10-19,2015-10-09,和歌山県町村会,,その他,和歌山県,和歌山市,茶屋ノ丁２－１和歌山県自治会館５階,,30,201,6408263,,,,,,,2015-10-09,1,,,,,ワカヤマケンチヨウソンカイ,0
837,3700150032224,新規,0,2021-10-19,2015-10-09,札幌市新発寒地区センター運営委員会,,その他,北海道,札幌市手稲区,新発寒五条４丁目２番２号,,01,109,0060805,,,,,,,2015-10-09,1,,,,,サツポロシシンハツサムチクセンターウンエイイインカイ,0
838,3700150105005,新規,0,2021-10-19,2021-10-04,ＴＡＭＡＯ,,その他,東京都,世田谷区,桜丘１丁目１８－２４,,13,112,1560054,,,,,,,2021-10-04,1,,,,,タマオー,0
846,4010001221870,新規,0,2021-10-19,2021-10-19,株式会社ＴＨＥ　ＨＯＴＥＬ　ＬＩＶＩＮＧ,,株式会社,東京都,中央区,銀座１丁目１９番１２号,,13,102,1040061,,,,,,,2021-10-19,1,,,,,ザホテルリビング,0
847,4010001221895,新規,0,2021-10-19,2021-10-19,株式会社３ＧＥＭ,,株式会社,東京都,中央区,日本橋人形町２丁目７番１４号松本ビル３階,,13,102,1030013,,,,,,,2021-10-19,1,,,,,スリージェム,0
848,4010001221904,新規,0,2021-10-19,2021-10-19,株式会社ライフリンク,,株式会社,東京都,千代田区,神田神保町２丁目１０番地ユービズ神田神保町,,13,101,1010051,,,,,,,2021-10-19,1,,,,,ライフリンク,0
853,4010005034096,新規,0,2021-10-19,2021-10-19,一般社団法人えびす,,その他の設立登記法人,東京都,千代田区,丸の内３丁目１番１号東京共同会計事務所内,,13,101,1000005,,,,,,,2021-10-19,1,,,,,エビス,0
864,4010401163317,新規,0,2021-10-19,2021-10-19,株式会社ＷＯＲＬＤ　ＩＮ,,株式会社,東京都,港区,西新橋３丁目１３番７号ＶＯＲＴ虎ノ門ｓｏｕｔｈ１階,,13,103,1050003,,,,,,,2021-10-19,1,,,,,ワールドイン,0
872,4010403026348,新規,0,2021-10-19,2021-10-19,ｓｈａｐｅｒｏｏｍハラジュク合同会社,,合同会社,東京都,港区,六本木７丁目２番２９号,,13,103,1060032,,,,,,,2021-10-19,1,,,,,シェイプルームハラジュク,0
873,4010403026356,新規,0,2021-10-19,2021-10-19,合同会社ティーアール・イレブン,,合同会社,東京都,港区,赤坂２丁目１０番５号税理士法人赤坂国際会計事務所内,,13,103,1070052,,,,,,,2021-10-19,1,,,,,ティーアールイレブン,0
877,4010501047997,新規,0,2021-10-19,2021-10-19,株式会社ＦＵＪＩＹＡＭＡ,,株式会社,東京都,台東区,浅草橋３丁目２９番２号,,13,106,1110053,,,,,,,2021-10-19,1,,,,,,0
885,4010603009210,新規,0,2021-10-19,2021-10-19,Ｔａｂｉｉ合同会社,,合同会社,東京都,江東区,豊洲３丁目４－１－３２０４,,13,108,1350061,,,,,,,2021-10-19,1,,,,,タビィ,0
888,4010701041668,新規,0,2021-10-19,2021-10-19,ｅｙｅＦｏｒｋｌｉｆｔ株式会社,,株式会社,東京都,品川区,北品川３丁目６番４３－３０５号,,13,109,1400001,,,,,,,2021-10-19,1,,,,,アイフォークリフト,0
897,4010903006873,新規,0,2021-10-19,2021-10-19,合同会社フォーフォバー,,合同会社,東京都,世田谷区,下馬５丁目２９番１４号１０５,,13,112,1540002,,,,,,,2021-10-19,1,,,,,フォーフォバー,0
900,4011001143221,新規,0,2021-10-19,2021-10-19,オモテテ株式会社,,株式会社,東京都,渋谷区,渋谷２丁目１９番１５号宮益坂ビルディング６０９,,13,113,1500002,,,,,,,2021-10-19,1,,,,,オモテテ,0
901,4011001143551,新規,0,2021-10-19,2021-10-19,株式会社ＶＩＲＥＩ　ｓｔＡｙｌｅ．,,株式会社,東京都,目黒区,下目黒３丁目１９番９号山中レジデンス２０１,,13,110,1530064,,,,,,,2021-10-19,1,,,,,ビレイスタイル,0
905,4011101096600,新規,0,2021-10-19,2021-10-19,株式会社ＭＡＹＡ　ＭＩＲＡＩ,,株式会社,東京都,新宿区,西新宿２丁目６番１号,,13,104,1600023,,,,,,,2021-10-19,1,,,,,マヤミライ,0
906,4011101096641,新規,0,2021-10-19,2021-10-19,青桐株式会社,,株式会社,東京都,新宿区,北新宿１丁目８－７,,13,104,1690074,,,,,,,2021-10-19,1,,,,,アオギリ,0
911,4011401023774,新規,0,2021-10-19,2021-10-19,株式会社スカイ,,株式会社,東京都,板橋区,小茂根２丁目３０番３号Ｖｉｔａ・Ｓｏｌｅ・Ａｎｎｏ・Ａ１２,,13,119,1730037,,,,,,,2021-10-19,1,,,,,スカイ,0
913,4011601025471,新規,0,2021-10-19,2021-10-19,タイプスリー株式会社,,株式会社,東京都,練馬区,田柄５丁目１６番１０号,,13,120,1790073,,,,,,,2021-10-19,1,,,,,タイプスリー,0
916,4011803004835,新規,0,2021-10-19,2021-10-19,ブリッツファクトリー合同会社,,合同会社,東京都,葛飾区,新宿１丁目１０－１,,13,122,1250051,,,,,,,2021-10-19,1,,,,,,0
920,4012403005067,新規,0,2021-10-19,2021-10-19,デルタプラス合同会社,,合同会社,東京都,武蔵野市,西久保２丁目１９番７－５０２号,,13,203,1800013,,,,,,,2021-10-19,1,,,,,デルタプラス,0
937,4020001143544,新規,0,2021-10-19,2021-10-19,ＡＣＴＩＶＥ　ＲＥＳＴ株式会社,,株式会社,神奈川県,横浜市金沢区,谷津町３６７番地２階Ａ号室,,14,108,2360016,,,,,,,2021-10-19,1,,,,,アクティブレスト,0
944,4020003020667,新規,0,2021-10-19,2021-10-19,パン・先端ビジネス研究所合同会社,,合同会社,神奈川県,横浜市戸塚区,品濃町５３７番地２０中央街区Ａ棟１７０７号,,14,110,2440801,,,,,,,2021-10-19,1,,,,,パンセンタンビジネスケンキュウショ,0
956,4030001144847,新規,0,2021-10-19,2021-10-19,株式会社東興商事,,株式会社,埼玉県,川口市,西川口１丁目２８番２号神流川ビル２Ｆ,,11,203,3320021,,,,,,,2021-10-19,1,,,,,トウコウショウジ,0
957,4030001144888,新規,0,2021-10-19,2021-10-19,株式会社久八,,株式会社,埼玉県,新座市,東北２丁目３０番１３号,,11,230,3520001,,,,,,,2021-10-19,1,,,,,キュウハチ,0
961,4030005020581,新規,0,2021-10-19,2021-10-19,医療法人彩の森,,その他の設立登記法人,埼玉県,草加市,瀬崎１丁目９番１－１階,,11,221,3400022,,,,,,,2021-10-19,1,,,,,サイノモリ,0
971,4040001120649,新規,0,2021-10-19,2021-10-19,株式会社ＧＬサポート,,株式会社,千葉県,市川市,八幡２丁目１４番５号,,12,203,2720021,,,,,,,2021-10-19,1,,,,,ジーエルサポート,0
975,4040003018767,新規,0,2021-10-19,2021-10-19,合同会社ＥＪ,,合同会社,千葉県,船橋市,夏見１丁目８番８－６０１号,,12,204,2730865,,,,,,,2021-10-19,1,,,,,イージェイ,0
977,4050001050003,新規,0,2021-10-19,2021-10-19,マウントリバー株式会社,,株式会社,茨城県,取手市,新取手２丁目２番１６号,,08,217,3020031,,,,,,,2021-10-19,1,,,,,マウントリバー,0
988,4080001024516,新規,0,2021-10-19,2021-10-19,ヌサンタラ株式会社,,株式会社,静岡県,藤枝市,大東町６５３番地の３,,22,214,4260044,,,,,,,2021-10-19,1,,,,,ヌサンタラ,0
993,4080401025428,新規,0,2021-10-19,2021-10-19,株式会社Ａｍａｂｌｅ,,株式会社,静岡県,浜松市東区,有玉西町２１３５番地の２７,,22,132,4313123,,,,,,,2021-10-19,1,,,,,アマブレ,0
999,4100001034727,新規,0,2021-10-19,2021-10-19,株式会社麻谷米店,,株式会社,長野県,北佐久郡軽井沢町,大字長倉１２６番地１２,,20,321,3890111,,,,,,,2021-10-19,1,,,,,アサタニコメテン,0
1002,4110001036128,新規,0,2021-10-19,2021-10-19,株式会社Ｌｅｔ’ｓ,,株式会社,新潟県,新潟市西区,青山１丁目７番８号青山パレスビル２階,,15,107,9502002,,,,,,,2021-10-19,1,,,,,レッツ,0
1014,4120001241230,新規,0,2021-10-19,2021-10-19,ＤＳ　ｓｔｙｌｅ株式会社,,株式会社,大阪府,守口市,金下町１丁目３番８号,,27,209,5700079,,,,,,,2021-10-19,1,,,,,ディーエススタイル,0
1015,4120001241263,新規,0,2021-10-19,2021-10-19,株式会社協成テック,,株式会社,大阪府,大阪市此花区,酉島６丁目６番７号,,27,104,5540051,,,,,,,2021-10-19,1,,,,,キョウセイテック,0
1016,4120001241271,新規,0,2021-10-19,2021-10-19,ミンチャリジャパン株式会社,,株式会社,大阪府,大阪市西区,北堀江１丁目１番１０号,,27,106,5500014,,,,,,,2021-10-19,1,,,,,ミンチャリジャパン,0
1017,4120001241288,新規,0,2021-10-19,2021-10-19,安旅株式会社,,株式会社,大阪府,大阪市西成区,北津守４丁目１３番４５号,,27,122,5570061,,,,,,,2021-10-19,1,,,,,アンリョ,0
1018,4120001241305,新規,0,2021-10-19,2021-10-19,株式会社ＬＡＣ　ＨＯＮＧ　ＧＲＯＵＰ,,株式会社,大阪府,大阪市中央区,宗右衛門町７番５号おぐらやビル地下１階,,27,128,5420084,,,,,,,2021-10-19,1,,,,,ラックホングループ,0
1020,4120005022560,新規,0,2021-10-19,2021-10-19,一般社団法人パナスフェイシャリスト協会,,その他の設立登記法人,大阪府,大阪市都島区,都島中通１丁目１６番１６号,,27,102,5340022,,,,,,,2021-10-19,1,,,,,パナスフェイシャリストキョウカイ,0
1021,4120101064507,新規,0,2021-10-19,2021-10-19,株式会社ＤＯＭＡＮ,,株式会社,大阪府,和泉市,府中町１丁目８番３－５０８号,,27,219,5940071,,,,,,,2021-10-19,1,,,,,ドマン,0
1031,4130005016297,新規,0,2021-10-19,2021-10-19,杠司法書士法人,,その他の設立登記法人,京都府,京都市中京区,東洞院通夷川上る三本木５丁目５０１番地２,,26,104,6040872,,,,,,,2021-10-19,1,,,,,ユズリハ,0
1040,4140001123526,新規,0,2021-10-19,2021-10-19,株式会社ＶＡＬ,,株式会社,兵庫県,西宮市,産所町１２番２６号,,28,204,6620978,,,,,,,2021-10-19,1,,,,,ヴァル,0
1041,4140001123550,新規,0,2021-10-19,2021-10-19,株式会社神戸吉兆,00124606,株式会社,兵庫県,神戸市灘区,岩屋中町４丁目２番７号ＢＢプラザ３階,,28,102,6570845,,,,,,,2021-10-19,1,,,,,コウベキッチョウ,0
1043,4140003016876,新規,0,2021-10-19,2021-10-19,合同会社伊藤,,合同会社,兵庫県,朝来市,和田山町林垣１３１５番地３,,28,225,6695231,,,,,,,2021-10-19,1,,,,,イトウ,0
1046,4150003002520,新規,0,2021-10-19,2021-10-19,合同会社こよなし,,合同会社,奈良県,生駒郡三郷町,勢野北１丁目１１番１７号,,29,343,6360815,,,,,,,2021-10-19,1,,,,,コヨナシ,0
1049,4160001023732,新規,0,2021-10-19,2021-10-19,株式会社ローズ物産,,株式会社,滋賀県,湖南市,サイドタウン４丁目１６－１０,,25,211,5203244,,,,,,,2021-10-19,1,,,,,ローズブッサン,0
1052,4170001016834,新規,0,2021-10-19,2021-10-19,株式会社Ｌｉｍｉｔ,,株式会社,和歌山県,和歌山市,九番丁１０番地,,30,201,6408155,,,,,,,2021-10-19,1,,,,,リミット,0
1056,4180001148271,新規,0,2021-10-19,2021-10-19,マッハ株式会社,,株式会社,愛知県,名古屋市東区,葵１丁目２番６号,,23,102,4610004,,,,,,,2021-10-19,1,,,,,マッハ,0
1057,4180001148338,新規,0,2021-10-19,2021-10-19,株式会社蓮光社,,株式会社,愛知県,名古屋市中村区,郷前町１丁目３１番地の１,,23,105,4530808,,,,,,,2021-10-19,1,,,,,レンコウシャ,0
1058,4180001148362,新規,0,2021-10-19,2021-10-19,ライフサービス株式会社,,株式会社,愛知県,一宮市,浅野字内浦５４番地１コーポラス浅野１－２号,,23,203,4910871,,,,,,,2021-10-19,1,,,,,ライフサービス,0
1062,4180003023101,新規,0,2021-10-19,2021-10-19,合同会社リブエッセンス,,合同会社,愛知県,名古屋市中区,金山１丁目１４－１６トキワビル５階,,23,106,4600022,,,,,,,2021-10-19,1,,,,,リブエッセンス,0
1063,4180005019485,新規,0,2021-10-19,2021-10-19,特定非営利活動法人なないろ支援,,その他の設立登記法人,愛知県,春日井市,勝川町４丁目２１５番地,,23,206,4860945,,,,,,,2021-10-19,1,,,,,ナナイロシエン,0
1080,4250002020810,新規,0,2021-10-19,2021-10-19,有限会社ブルースカイ,,有限会社,山口県,下関市,小月本町２丁目１５番２０号,,35,201,7501142,,,,,,,2021-10-19,1,,,,,ブルースカイ,0
1087,4290001095057,新規,0,2021-10-19,2021-10-19,株式会社ステップクリーン,,株式会社,福岡県,福岡市南区,井尻５丁目３番１５－Ａ１０５号,,40,134,8111302,,,,,,,2021-10-19,1,,,,,ステップクリーン,0
1088,4290001095073,新規,0,2021-10-19,2021-10-19,株式会社尚球社,,株式会社,福岡県,福岡市博多区,東比恵２丁目１９番５号,,40,132,8120007,,,,,,,2021-10-19,1,,,,,ショウキュウシャ,0
1089,4290001095081,新規,0,2021-10-19,2021-10-19,株式会社Ｓａｌｏｎ　Ｃｏｄｅ,,株式会社,福岡県,福岡市東区,若宮５丁目１－１９チナミビル２０１,,40,131,8130036,,,,,,,2021-10-19,1,,,,,サロンコード,0
1095,4290003011722,新規,0,2021-10-19,2021-10-19,合同会社春日住設,,合同会社,福岡県,春日市,大谷８丁目６６番地,,40,218,8160831,,,,,,,2021-10-19,1,,,,,カスガジュウセツ,0
1104,4310003004186,新規,0,2021-10-19,2021-10-19,合同会社凛,,合同会社,長崎県,西彼杵郡時津町,西時津郷４７１,,42,308,8512101,,,,,,,2021-10-19,1,,,,,リン,0
1107,4350003003952,新規,0,2021-10-19,2021-10-19,ｖｏｉｃｅＬａｂ合同会社,,合同会社,宮崎県,宮崎市,広島１丁目１７番３２号池田ビル１Ｆ,,45,201,8800806,,,,,,,2021-10-19,1,,,,,ヴォイスラボ,0
1111,4370001047719,新規,0,2021-10-19,2021-10-19,株式会社ＴＫ　ａｇｅｎｃｙ,,株式会社,宮城県,仙台市泉区,将監４丁目１２番１９－１号,,04,105,9813132,,,,,,,2021-10-19,1,,,,,ティーケーエージェンシー,0
1112,4370001047727,新規,0,2021-10-19,2021-10-19,株式会社じたくコンサルタント,,株式会社,宮城県,仙台市青葉区,二日町１１番１３号川原ビル１Ｆ,,04,101,9800802,,,,,,,2021-10-19,1,,,,,ジタクコンサルタント,0
1125,4430001085209,新規,0,2021-10-19,2021-10-19,株式会社ＤＩＧＩＴＡＬ　ＦＥＬＩＸ,,株式会社,北海道,札幌市北区,屯田九条４丁目１番１－２０１号,,01,102,0020859,,,,,,,2021-10-19,1,,,,,デジタルフィリックス,0
1129,4460403000241,新規,0,2021-10-19,2021-10-19,合同会社カネシン水産,,合同会社,北海道,根室市,光洋町３丁目３７番地１,,01,223,0870004,,,,,,,2021-10-19,1,,,,,カネシンスイサン,0
1141,4700150104955,新規,0,2021-10-19,2021-10-04,Ａｔｌａｓ,,その他,大阪府,大阪市東成区,玉津２丁目１７－９レモンハイム３０２号室,,27,115,5370023,,,,,,,2021-10-04,1,,,,,アトラス,0
1149,5010001221903,新規,0,2021-10-19,2021-10-19,株式会社グロースマネジメントコンサルティング,,株式会社,東京都,千代田区,東神田１丁目１１番７号,,13,101,1010031,,,,,,,2021-10-19,1,,,,,グロースマネジメントコンサルティング,0
1153,5010005034095,新規,0,2021-10-19,2021-10-19,一般社団法人ＢＩＭ教育機構,,その他の設立登記法人,東京都,中央区,日本橋蛎殻町１丁目３３－４グランディール日本橋９Ｆ,,13,102,1030014,,,,,,,2021-10-19,1,,,,,ビーアイエムキョウイクキコウ,0
1164,5010401163316,新規,0,2021-10-19,2021-10-19,株式会社ＬＭＰ　Ｉｎｆｌｕｅｎｃｅ,,株式会社,東京都,港区,南青山１丁目１５番２号,,13,103,1070062,,,,,,,2021-10-19,1,,,,,エルエムピーインフルエンス,0
1165,5010401163324,新規,0,2021-10-19,2021-10-19,株式会社ＮＩＮ,,株式会社,東京都,港区,六本木７丁目７－１３,,13,103,1060032,,,,,,,2021-10-19,1,,,,,ニン,0
1166,5010403026314,新規,0,2021-10-19,2021-10-19,合同会社久音,,合同会社,東京都,港区,赤坂３丁目１－１６ＢＩビルＴｈｅＨｕｂ赤坂見附７Ｆ,,13,103,1070052,,,,,,,2021-10-19,1,,,,,クオン,0
1169,5010501047996,新規,0,2021-10-19,2021-10-19,株式会社ＲＢ,,株式会社,東京都,台東区,池之端１丁目４－３３ＢｒｉｌｌｉａＴｏｗｅｒ上野池之端２００８,,13,106,1100008,,,,,,,2021-10-19,1,,,,,,0
1178,5010801032418,新規,0,2021-10-19,2021-10-19,株式会社ＴＲＵＥ,,株式会社,東京都,大田区,大森西４丁目６番１５号,,13,111,1430015,,,,,,,2021-10-19,1,,,,,トゥルー,0
1181,5010901049650,新規,0,2021-10-19,2021-10-19,コリーナ・デル・ソル株式会社,,株式会社,東京都,世田谷区,奥沢３丁目４３番５号,,13,112,1580083,,,,,,,2021-10-19,1,,,,,コリーナデルソル,0
1189,5011001143476,新規,0,2021-10-19,2021-10-19,株式会社ＭＳアカウンティングサービス,,株式会社,東京都,目黒区,緑が丘１丁目５番８号,,13,110,1520034,,,,,,,2021-10-19,1,,,,,エムエスアカウンティングサービス,0
1190,5011001143526,新規,0,2021-10-19,2021-10-19,株式会社Ｓｐｅｃｔｒｕｍ,,株式会社,東京都,渋谷区,神宮前６丁目２３番４号,,13,113,1500001,,,,,,,2021-10-19,1,,,,,スペクトル,0
1191,5011101096616,新規,0,2021-10-19,2021-10-19,ＨＡＹＡ株式会社,,株式会社,東京都,新宿区,高田馬場３丁目５番５号,,13,104,1690075,,,,,,,2021-10-19,1,,,,,ハヤ,0
1195,5011403003476,新規,0,2021-10-19,2021-10-19,三丸合同会社,,合同会社,東京都,板橋区,板橋４丁目４番３－５０２号白鳩マンション,,13,119,1730004,,,,,,,2021-10-19,1,,,,,サンマル,0
1197,5011501027393,新規,0,2021-10-19,2021-10-19,グローバルテック株式会社,,株式会社,東京都,荒川区,東日暮里４丁目２７－１１プラーズ東日暮里ＩＩ２０９,00124613,13,118,1160014,,,,,,,2021-10-19,1,,,,,グローバルテック,0
1201,5011701024785,新規,0,2021-10-19,2021-10-19,リッチデザインジャパン株式会社,,株式会社,東京都,江戸川区,平井４丁目８番６－６０１号ＤｕｃｏＺｉｐ,,13,123,1320035,,,,,,,2021-10-19,1,,,,,リッチデザインジャパン,0
1205,5012303001603,新規,0,2021-10-19,2021-10-19,合同会社クレスト,,合同会社,東京都,町田市,南町田３丁目３１番１８号パレドエスポワール２０１,,13,209,1940005,,,,,,,2021-10-19,1,,,,,クレスト,0
1206,5012401038423,新規,0,2021-10-19,2021-10-19,大竹興業株式会社,,株式会社,東京都,多摩市,一ノ宮１丁目１７番地の２３,,13,224,2060002,,,,,,,2021-10-19,1,,,,,オオタケコウギョウ,0
1218,5020001143452,新規,0,2021-10-19,2021-10-19,株式会社ＴＡＫＵＭＯ,,株式会社,神奈川県,川崎市高津区,坂戸３丁目２番１号,,14,134,2130012,,,,,,,2021-10-19,1,,,,,タクモ,0
1219,5020001143519,新規,0,2021-10-19,2021-10-19,江南株式会社,,株式会社,神奈川県,横浜市中区,海岸通５丁目２５番３アパホテル１Ｆ,,14,104,2310002,,,,,,,2021-10-19,1,,,,,コウナン,0
1220,5020001143543,新規,0,2021-10-19,2021-10-19,株式会社Ｓｏｕｖｅｎｉｒ　Ｃａｌｌ,,株式会社,神奈川県,横浜市西区,北幸１丁目１１番１号水信ビル７階,,14,103,2200004,,,,,,,2021-10-19,1,,,,,,0
1221,5020001143551,新規,0,2021-10-19,2021-10-19,株式会社アシストドリーム,,株式会社,神奈川県,横浜市金沢区,富岡東５丁目１８番１号,,14,108,2360051,,,,,,,2021-10-19,1,,,,,アシストドリーム,0
1223,5020002028363,新規,0,2021-10-19,2021-10-19,有限会社メイト,,有限会社,神奈川県,横浜市神奈川区,神奈川２丁目１７番地１－２０４,,14,102,2210045,,,,,,,2021-10-19,1,,,,,メイト,0
1228,5020003020402,新規,0,2021-10-19,2021-10-19,合同会社パウゼ,,合同会社,神奈川県,横浜市青葉区,あざみ野２丁目２３番地７５,,14,117,2250011,,,,,,,2021-10-19,1,,,,,パウゼ,0
1229,5020003020682,新規,0,2021-10-19,2021-10-19,ＳｇＳｔ合同会社,,合同会社,神奈川県,川崎市中原区,下沼部１７７３番地４２,,14,133,2110011,,,,,,,2021-10-19,1,,,,,エスジーエスティー,0
1232,5021001074241,新規,0,2021-10-19,2021-10-19,株式会社Ｌｏａ,,株式会社,神奈川県,相模原市南区,当麻１１０８番地３３シャーメゾンテイクＩ２０２,00124605,14,153,2520336,,,,,,,2021-10-19,1,,,,,ロア,0
1243,5030001144788,新規,0,2021-10-19,2021-10-19,株式会社Ｋｅｎ’ｓ　ｗｏｒｋｓ,,株式会社,埼玉県,上尾市,大字大谷本郷５５３番地７,,11,219,3620044,,,,,,,2021-10-19,1,,,,,ケンズワークス,0
1244,5030001144862,新規,0,2021-10-19,2021-10-19,上野産業株式会社,,株式会社,埼玉県,加須市,大室８３２番地１,,11,210,3470027,,,,,,,2021-10-19,1,,,,,,0
1245,5030001144879,新規,0,2021-10-19,2021-10-19,株式会社ＩＬＢＳ,,株式会社,埼玉県,さいたま市見沼区,大字風渡野７８番地１,,11,104,3370017,,,,,,,2021-10-19,1,,,,,イルビス,0
1246,5030001144904,新規,0,2021-10-19,2021-10-19,株式会社Ｐｉｇｅｏｎ,,株式会社,埼玉県,狭山市,入間川２丁目５－５弐番館甲田３０１,,11,215,3501305,,,,,,,2021-10-19,1,,,,,ピジョン,0
1254,5030005020597,新規,0,2021-10-19,2021-10-19,医療法人社団祐俊会,,その他の設立登記法人,埼玉県,本庄市,けや木３丁目２０番１０号,,11,211,3670042,,,,,,,2021-10-19,1,,,,,ユウシュンカイ,0
1256,5040001120648,新規,0,2021-10-19,2021-10-19,株式会社Ｌｕｍｉｅｒｅ,,株式会社,千葉県,八千代市,大和田新田４１６番地４５,,12,221,2760046,,,,,,,2021-10-19,1,,,,,リュミエール,0
1259,5040003018741,新規,0,2021-10-19,2021-10-19,アルシャ合同会社,,合同会社,千葉県,白井市,木２５３－１０,,12,232,2701437,,,,,,,2021-10-19,1,,,,,アルシャ,0
1266,5050005012956,新規,0,2021-10-19,2021-10-19,一般社団法人ＵＡＶ学術連携推進会議,,その他の設立登記法人,茨城県,取手市,新町１丁目２番３５号,,08,217,3020024,,,,,,,2021-10-19,1,,,,,,0
1268,5070003004268,新規,0,2021-10-19,2021-10-19,ＴＯ－ＬＩＮＫ合同会社,,合同会社,群馬県,高崎市,緑町２丁目８－３,,10,202,3700073,,,,,,,2021-10-19,1,,,,,ティーオーリンク,0
1272,5080105006186,新規,0,2021-10-19,2021-10-19,一般社団法人熱海日中友好協会,,その他の設立登記法人,静岡県,熱海市,緑ガ丘町１５番１号笹良ヶ台３棟１００５室,,22,205,4130035,,,,,,,2021-10-19,1,,,,,アタミニッチュウユウコウキョウカイ,0
1274,5080401025427,新規,0,2021-10-19,2021-10-19,小楠部品工業株式会社,,株式会社,静岡県,浜松市西区,馬郡町３７６２番地の３３,,22,133,4310203,,,,,,,2021-10-19,1,,,,,オグスブヒンコウギョウ,0
1278,5080405007396,新規,0,2021-10-19,2021-10-19,一般社団法人国際ファッションイメージ顧問認定協会,,その他の設立登記法人,静岡県,浜松市中区,寺島町５６８番地の３,,22,131,4300925,,,,,,,2021-10-19,1,,,,,コクサイファッションイメージコモンニンテイキョウカイ,0
1279,5090001017245,新規,0,2021-10-19,2021-10-19,大日通商株式会社,,株式会社,山梨県,甲斐市,島上条１７８６番地２,,19,210,4000123,,,,,,,2021-10-19,1,,,,,,0
1281,5100001034726,新規,0,2021-10-19,2021-10-19,株式会社サルカンプロダクション,,株式会社,長野県,上高井郡小布施町,大字小布施６６９番地１８,,20,541,3810201,,,,,,,2021-10-19,1,,,,,サルカンプロダクション,0
1299,5120001241262,新規,0,2021-10-19,2021-10-19,株式会社津村工業,,株式会社,大阪府,大阪市此花区,梅香１丁目１７番１４号,,27,104,5540013,,,,,,,2021-10-19,1,,,,,ツムラコウギョウ,0
1300,5120001241270,新規,0,2021-10-19,2021-10-19,株式会社アストラル,,株式会社,大阪府,大阪市城東区,鴫野東３丁目１８番２２号Ａ－８,,27,118,5360013,,,,,,,2021-10-19,1,,,,,アストラル,0
1301,5120001241279,新規,0,2021-10-19,2021-10-19,株式会社御恩,,株式会社,大阪府,大阪市北区,大淀南１丁目９番１９号エンパイアービル７Ｆ,,27,127,5310075,,,,,,,2021-10-19,1,,,,,ゴオン,0
1302,5120001241287,新規,0,2021-10-19,2021-10-19,広澤産業株式会社,,株式会社,大阪府,大阪市生野区,新今里７丁目７番２号,,27,116,5440001,,,,,,,2021-10-19,1,,,,,ヒロサワサンギョウ,0
1306,5120101064506,新規,0,2021-10-19,2021-10-19,株式会社優電工,,株式会社,大阪府,羽曳野市,古市２丁目１３番３６号,,27,222,5830852,,,,,,,2021-10-19,1,,,,,ユウデンコウ,0
1310,5130001070355,新規,0,2021-10-19,2021-10-19,株式会社ＫＡＲＡＰＰＯ,,株式会社,京都府,京都市南区,唐橋琵琶町５４番地８,,26,107,6018457,,,,,,,2021-10-19,1,,,,,カラッポ,0
1314,5140003016867,新規,0,2021-10-19,2021-10-19,ダストン合同会社,,合同会社,兵庫県,尼崎市,西昆陽２丁目１番３５号,,28,202,6610047,,,,,,,2021-10-19,1,,,,,ダストン,0
1315,5140003016875,新規,0,2021-10-19,2021-10-19,合同会社レッドリーフ,,合同会社,兵庫県,神戸市垂水区,塩屋台２丁目１番１７号,,28,108,6550864,,,,,,,2021-10-19,1,,,,,レッドリーフ,0
1319,5150001025035,新規,0,2021-10-19,2021-10-19,株式会社喜之助商会,,株式会社,奈良県,葛城市,疋田４７番地５,,29,211,6392101,,,,,,,2021-10-19,1,,,,,キノスケショウカイ,0
1320,5160003002411,新規,0,2021-10-19,2021-10-19,合同会社ツー・ザ・サミット,,合同会社,滋賀県,彦根市,川瀬馬場町９０８番地１（１０５号）,,25,202,5220223,,,,,,,2021-10-19,1,,,,,ツーザサミット,0
1333,5180001148345,新規,0,2021-10-19,2021-10-19,株式会社アンバー・ウェルフェア,,株式会社,愛知県,名古屋市千種区,青柳町６丁目１６番５号ＡｍｂｅｒＢｌｄｇ．２Ｆ,,23,101,4640852,,,,,,,2021-10-19,1,,,,,アンバーウェルフェア,0
1336,5180003023100,新規,0,2021-10-19,2021-10-19,合同会社縁パワー,,合同会社,愛知県,名古屋市千種区,覚王山通８丁目７０番地の１,,23,101,4640841,,,,,,,2021-10-19,1,,,,,エンパワー,0
1341,5190001028777,新規,0,2021-10-19,2021-10-19,株式会社ＭＢＴ,,株式会社,三重県,四日市市,高見台１丁目１９番地５,,24,202,5121301,,,,,,,2021-10-19,1,,,,,エムビーティー,0
1349,5230003001744,新規,0,2021-10-19,2021-10-19,合同会社アッセンブル,,合同会社,富山県,富山市,婦中町羽根新１３２－１２,,16,201,9392704,,,,,,,2021-10-19,1,,,,,アッセンブル,0
1358,5260001036095,新規,0,2021-10-19,2021-10-19,株式会社隆寿,,株式会社,岡山県,笠岡市,美の浜２５番地４８,,33,205,7140042,,,,,,,2021-10-19,1,,,,,リュウジュ,0
1365,5290001094925,新規,0,2021-10-19,2021-10-19,株式会社タムラ建材,,株式会社,福岡県,久留米市,安武町武島８１４番地２,,40,203,8300071,,,,,,,2021-10-19,1,,,,,タムラケンザイ,0
1366,5290001095048,新規,0,2021-10-19,2021-10-19,ＰＬ　Ｃａｒ株式会社,,株式会社,福岡県,飯塚市,川津２３１－１－４３号,,40,205,8200067,,,,,,,2021-10-19,1,,,,,ピーエルカー,0
1374,5320005009925,新規,0,2021-10-19,2021-10-19,一般社団法人姫島エコツーリズム,,その他の設立登記法人,大分県,東国東郡姫島村,２０６９番地,,44,322,8721501,,,,,,,2021-10-19,1,,,,,ヒメシマエコツーリズム,0
1381,5360001029510,新規,0,2021-10-19,2021-10-19,株式会社３ＲｉＳＥ,,株式会社,沖縄県,宜野湾市,字大謝名９０番地３－７０１号,,47,205,9012225,,,,,,,2021-10-19,1,,,,,サンライズ,0
1383,5370001047726,新規,0,2021-10-19,2021-10-19,株式会社コネクト,,株式会社,宮城県,塩竈市,港町２丁目２番２０号,,04,203,9850016,,,,,,,2021-10-19,1,,,,,コネクト,0
1417,5500003002707,新規,0,2021-10-19,2021-10-19,合同会社長尾,,合同会社,愛媛県,松山市,畑寺１丁目５番８号,,38,201,7900913,,,,,,,2021-10-19,1,,,,,ナガオ,0
1418,5700150105069,新規,0,2021-10-19,2021-10-05,岩手県食品衛生協会二戸支会,,その他,岩手県,二戸市,石切所字荷渡６－３二戸地区合同庁舎　岩手県二戸保健所内,,03,213,0286103,,,,,,,2021-10-05,1,,,,,イワテケンシヨクヒンエイセイキヨウカイニノヘシカイ,0
1425,6010005034103,新規,0,2021-10-19,2021-10-19,一般社団法人サンタフェ,,その他の設立登記法人,東京都,中央区,日本橋１丁目４番１号,,13,102,1030027,,,,,,,2021-10-19,1,,,,,サンタフェ,0
1427,6010101014917,新規,0,2021-10-19,2021-10-19,株式会社ＳＡＨＡＳ,,株式会社,東京都,八王子市,北野町５４６番１０,,13,201,1920906,,,,,,,2021-10-19,1,,,,,,0
1428,6010105002133,新規,0,2021-10-19,2021-10-19,特定非営利活動法人吉来,,その他の設立登記法人,東京都,八王子市,鹿島３番地２－２０１,,13,201,1920353,,,,,,,2021-10-19,1,,,,,キック,0
1438,6010401163240,新規,0,2021-10-19,2021-10-19,ＥａｔＲｙｚｅ株式会社,,株式会社,東京都,港区,芝５丁目２２番８号,,13,103,1080014,,,,,,,2021-10-19,1,,,,,イートライズ,0
1439,6010401163307,新規,0,2021-10-19,2021-10-19,株式会社ラブレター,,株式会社,東京都,港区,南青山２丁目２番１５号,,13,103,1070062,,,,,,,2021-10-19,1,,,,,ラブレター,0
1440,6010403026338,新規,0,2021-10-19,2021-10-19,合同会社ｒｏｋｕ,,合同会社,東京都,港区,浜松町２丁目２番１５号浜松町ダイヤビル２Ｆ,,13,103,1050013,,,,,,,2021-10-19,1,,,,,ロク,0
1441,6010403026354,新規,0,2021-10-19,2021-10-19,ジョハ合同会社,,合同会社,東京都,港区,六本木４丁目１番２－１０３号,,13,103,1060032,,,,,,,2021-10-19,1,,,,,ジョハ,0
1453,6010603009209,新規,0,2021-10-19,2021-10-19,合同会社ファニーファン,,合同会社,東京都,墨田区,両国４丁目３６番１号,,13,107,1300026,,,,,,,2021-10-19,1,,,,,ファニーファン,0
1460,6010901049641,新規,0,2021-10-19,2021-10-19,株式会社ピカロ,,株式会社,東京都,世田谷区,下馬３丁目３２番１２号３０１,,13,112,1540002,,,,,,,2021-10-19,1,,,,,ピカロ,0
1465,6011001143509,新規,0,2021-10-19,2021-10-19,ＧａｕＧ株式会社,,株式会社,東京都,渋谷区,渋谷２丁目１９－１５宮益坂ビルディング６０９,,13,113,1500002,,,,,,,2021-10-19,1,,,,,ゴーグ,0
1466,6011001143525,新規,0,2021-10-19,2021-10-19,株式会社ラインスタイル,,株式会社,東京都,渋谷区,道玄坂１丁目１２番１号渋谷マークシティＷ２２階,,13,113,1500043,,,,,,,2021-10-19,1,,,,,ラインスタイル,0
1471,6011101096648,新規,0,2021-10-19,2021-10-19,株式会社オフィス・カノワ,,株式会社,東京都,新宿区,新宿７丁目２７－３－９０１,,13,104,1600022,,,,,,,2021-10-19,1,,,,,オフィスカノワ,0
1472,6011401023772,新規,0,2021-10-19,2021-10-19,株式会社Ｙｉｎｇ　ａｎｄ　Ｙａｎｇ,,株式会社,東京都,板橋区,高島平７丁目４７－１４シャルム高島平２０３,,13,119,1750082,,,,,,,2021-10-19,1,,,,,インアンドヤン,0
1477,6011703002953,新規,0,2021-10-19,2021-10-19,合同会社ＢＡＲＣＯ,,合同会社,東京都,江戸川区,西小岩５丁目１２－１３ライオンズシティ６０４,,13,123,1330057,,,,,,,2021-10-19,1,,,,,バルコ,0
1479,6011801039831,新規,0,2021-10-19,2021-10-19,株式会社ジュエルコミュニケーションズ,,株式会社,東京都,葛飾区,鎌倉１丁目７－１５グランドール會田Ｄ棟１０１,00124604,13,122,1250053,,,,,,,2021-10-19,1,,,,,ジュエルコミュニケーションズ,0
1480,6012401038430,新規,0,2021-10-19,2021-10-19,株式会社エスポワール本町,,株式会社,東京都,三鷹市,下連雀３丁目２２番８－１０１号,,13,204,1810013,,,,,,,2021-10-19,1,,,,,エスポワールホンチョウ,0
1496,6013301048164,新規,0,2021-10-19,2021-10-19,株式会社エルゲート,,株式会社,東京都,豊島区,東池袋１丁目４２番１４号２８山京ビル７階１６,,13,116,1700013,,,,,,,2021-10-19,1,,,,,エルゲート,0
1497,6013303005865,新規,0,2021-10-19,2021-10-19,Ｕリゾート合同会社,,合同会社,東京都,豊島区,南池袋３丁目１３番７号,,13,116,1710022,,,,,,,2021-10-19,1,,,,,ユーリゾート,0
1498,6013305003272,新規,0,2021-10-19,2021-10-19,一般社団法人日本安全保障産業・技術イノベーション協会,,その他の設立登記法人,東京都,豊島区,西池袋５丁目１７番１１号,,13,116,1710021,,,,,,,2021-10-19,1,,,,,ニッポンアンゼンホショウサンギョウギジュツイノベーションキョウカイ,0
1506,6020001143518,新規,0,2021-10-19,2021-10-19,株式会社ｂｌｕ,,株式会社,神奈川県,横浜市港北区,大曽根１丁目９番８号,,14,109,2220003,,,,,,,2021-10-19,1,,,,,ブル,0
1507,6020001143526,新規,0,2021-10-19,2021-10-19,株式会社多世界,,株式会社,神奈川県,川崎市高津区,末長１丁目４０－１姿見台ハイツＡ４０７,,14,134,2130013,,,,,,,2021-10-19,1,,,,,タセカイ,0
1508,6020001143542,新規,0,2021-10-19,2021-10-19,ＴＹＬＥＲ　ＴＯＭＯＤＡＣＨＩ株式会社,,株式会社,神奈川県,横浜市都筑区,大棚町６５,,14,118,2240027,,,,,,,2021-10-19,1,,,,,タイラートモダチ,0
1514,6020003020681,新規,0,2021-10-19,2021-10-19,合同会社ホリコシＪＡＰＡＮ,,合同会社,神奈川県,横浜市都筑区,仲町台１丁目２３番２２号ノエル仲町台４０１,,14,118,2240041,,,,,,,2021-10-19,1,,,,,ホリコシ,0
1524,6021001074257,新規,0,2021-10-19,2021-10-19,株式会社金太郎ファーム,,株式会社,神奈川県,南足柄市,苅野６２０番地,,14,217,2500135,,,,,,,2021-10-19,1,,,,,キンタロウファーム,0
1541,6030005020588,新規,0,2021-10-19,2021-10-19,医療法人社団フェア,,その他の設立登記法人,埼玉県,川口市,栄町３丁目５番１号川口ミツワビル６階,,11,203,3320017,,,,,,,2021-10-19,1,,,,,フェア,0
1546,6040001120647,新規,0,2021-10-19,2021-10-19,株式会社Ｍｅｔｔｌｅ,,株式会社,千葉県,四街道市,鹿放ケ丘１３５番地７,,12,228,2840008,,,,,,,2021-10-19,1,,,,,メトル,0
1554,6050001050001,新規,0,2021-10-19,2021-10-19,高橋板金株式会社,,株式会社,茨城県,日立市,十王町伊師本郷３９２５番地７,,08,202,3191302,,,,,,,2021-10-19,1,,,,,タカハシバンキン,0
1559,6050005012955,新規,0,2021-10-19,2021-10-19,一般社団法人フレンズ,,その他の設立登記法人,茨城県,守谷市,百合ケ丘１丁目２３５４番地の１６５,,08,224,3020110,,,,,,,2021-10-19,1,,,,,フレンズ,0
1567,6080401025426,新規,0,2021-10-19,2021-10-19,株式会社出雲,,株式会社,静岡県,浜松市中区,向宿３丁目２番１５号,,22,131,4300851,,,,,,,2021-10-19,1,,,,,イズモ,0
1570,6100001034725,新規,0,2021-10-19,2021-10-19,株式会社住まい工房ＩＫスタイル,,株式会社,長野県,松本市,大字水汲１３５番地１,,20,202,3900311,,,,,,,2021-10-19,1,,,,,スマイコウボウアイケースタイル,0
1571,6100001034733,新規,0,2021-10-19,2021-10-19,Ｊａｐａｎ　Ｔｒｅｅｃａｒｅ　Ｓｅｒｖｉｃｅ株式会社,,株式会社,長野県,北佐久郡軽井沢町,大字長倉５８２７番地１０,,20,321,3890111,,,,,,,2021-10-19,1,,,,,ジャパンツリーケアサービス,0
1572,6100003006268,新規,0,2021-10-19,2021-10-19,Ｐｌｕｓ　ａｌｐｈａ合同会社,,合同会社,長野県,松本市,大字惣社１９２番地１５,,20,202,3900305,,,,,,,2021-10-19,1,,,,,プラスアルファ,0
1581,6120001240775,新規,0,2021-10-19,2021-10-19,晴佳株式会社,,株式会社,大阪府,大阪市西区,靭本町３－１０－２４兆豊阿波座ビル２０２号室,,27,106,5500000,,,,,,,2021-10-19,1,,,,,ハルカ,0
1582,6120001241179,新規,0,2021-10-19,2021-10-19,株式会社ＣＵＺＯＵ,,株式会社,大阪府,大阪市北区,梅田１丁目２番２号大阪駅前第２ビル２階５－６号室,,27,127,5300001,,,,,,,2021-10-19,1,,,,,キュウゾウ,0
1583,6120001241278,新規,0,2021-10-19,2021-10-19,株式会社テイクプラス,,株式会社,大阪府,枚方市,山之上５丁目４６番１６号,,27,210,5730047,,,,,,,2021-10-19,1,,,,,テイクプラス,0
1584,6120001241294,新規,0,2021-10-19,2021-10-19,株式会社エトワール,,株式会社,大阪府,大阪市淀川区,三国本町２丁目５番２４号,,27,123,5320005,,,,,,,2021-10-19,1,,,,,エトワール,0
1586,6120003020432,新規,0,2021-10-19,2021-10-19,合同会社モンテローザパートナーズ,,合同会社,大阪府,大阪市西区,靭本町一丁目４番５号,,27,106,5500000,,,,,,,2021-10-19,1,,,,,モンテローザパートナーズ,0
1593,6120901045068,新規,0,2021-10-19,2021-10-19,株式会社上,,株式会社,大阪府,吹田市,江の木町１７番１号６階３－Ｂ,,27,205,5640053,,,,,,,2021-10-19,1,,,,,カミ,0
1594,6120903003874,新規,0,2021-10-19,2021-10-19,合同会社樋口通商,,合同会社,大阪府,箕面市,稲６丁目１５－１３プレアール千里中央４０３,,27,220,5620015,,,,,,,2021-10-19,1,,,,,ヒグチツウショウ,0
1598,6122003002195,新規,0,2021-10-19,2021-10-19,合同会社ソレイユ,,合同会社,大阪府,東大阪市,新池島町３丁目５番６号,,27,227,5798065,,,,,,,2021-10-19,1,,,,,ソレイユ,0
1611,6140003016874,新規,0,2021-10-19,2021-10-19,合同会社ｇｒｏｗｔｈ,,合同会社,兵庫県,神戸市北区,南五葉１丁目１番３０－５０４号,,28,109,6511132,,,,,,,2021-10-19,1,,,,,グロウ,0
1612,6140003016882,新規,0,2021-10-19,2021-10-19,合同会社デンロク商会,,合同会社,兵庫県,尼崎市,西昆陽２丁目１４－３２,,28,202,6610047,,,,,,,2021-10-19,1,,,,,デンロクショウカイ,0
1614,6150001025034,新規,0,2021-10-19,2021-10-19,株式会社日置,,株式会社,奈良県,橿原市,中曽司町３１３－６エスポワールＩ－２０６,00124610,29,205,6340845,,,,,,,2021-10-19,1,,,,,ヒオキ,0
1618,6180001148253,新規,0,2021-10-19,2021-10-19,ＣＡ株式会社,,株式会社,愛知県,清須市,春日壱屋敷８０番地１,,23,233,4520961,,,,,,,2021-10-19,1,,,,,シーエー,0
1619,6180001148369,新規,0,2021-10-19,2021-10-19,株式会社ＧＲＡＮＤＦＡＴＨＥＲ’Ｓ　ＷＡＴＣＨ,,株式会社,愛知県,名古屋市天白区,焼山２丁目７１８番地の２,,23,116,4680002,,,,,,,2021-10-19,1,,,,,グランドファーザーズウォッチ,0
1620,6180005019483,新規,0,2021-10-19,2021-10-19,一般社団法人茶屋ヶ坂福祉会,,その他の設立登記法人,愛知県,名古屋市東区,砂田橋５丁目５番１７号,,23,102,4610045,,,,,,,2021-10-19,1,,,,,チャヤガサカフクシカイ,0
1634,6220001024482,新規,0,2021-10-19,2021-10-19,株式会社ココマ,,株式会社,石川県,金沢市,彦三町１丁目２番１号アソルティ金沢彦三１Ｆ,,17,201,9200901,,,,,,,2021-10-19,1,,,,,ココマ,0
1645,6260001036103,新規,0,2021-10-19,2021-10-19,株式会社ＤＡＡＤ,,株式会社,岡山県,倉敷市,黒崎５６６番地１,,33,202,7100014,,,,,,,2021-10-19,1,,,,,ディーエーエーディー,0
1658,6290003011720,新規,0,2021-10-19,2021-10-19,悠木舍合同会社,,合同会社,福岡県,福岡市中央区,赤坂１丁目７－５,,40,133,8100042,,,,,,,2021-10-19,1,,,,,ユウキシャ,0
1661,6320001018680,新規,0,2021-10-19,2021-10-19,株式会社Ｃｒｙｐｔｏ　Ｓｉｎｇｕｌａｒｉｔｙ,,株式会社,大分県,大分市,府内町３丁目４－２０大分恒和ビル４Ｆ,,44,201,8700021,,,,,,,2021-10-19,1,,,,,クリプトシンギュラリティ,0
1666,6360001029518,新規,0,2021-10-19,2021-10-19,株式会社ぱおん,,株式会社,沖縄県,糸満市,西崎６丁目２－１エバープラザビル２－Ｋ,,47,210,9010305,,,,,,,2021-10-19,1,,,,,パオン,0
1667,6360001029526,新規,0,2021-10-19,2021-10-19,株式会社Ａｙａｋａｒｉ,,株式会社,沖縄県,うるま市,字江洲２６２番地２ドミールＮ１０５号,,47,213,9042244,,,,,,,2021-10-19,1,,,,,アヤカリ,0
1670,6380003005036,新規,0,2021-10-19,2021-10-19,合同会社クラフト,,合同会社,福島県,本宮市,本宮字中台２８番地３８,,07,214,9691165,,,,,,,2021-10-19,1,,,,,クラフト,0
1676,6420001017623,新規,0,2021-10-19,2021-10-19,株式会社ＣａｒｄｉｏＢｅａｔ,,株式会社,青森県,青森市,青柳２丁目３番１４号,,02,201,0300811,,,,,,,2021-10-19,1,,,,,カルデイオビート,0
1680,6430003013264,新規,0,2021-10-19,2021-10-19,札幌国際通商合同会社,,合同会社,北海道,札幌市中央区,南六条西９丁目１０１９番地１２札幌第一パークハイツ８０７号,,01,101,0640806,,,,,,,2021-10-19,1,,,,,サッポロコクサイツウショウ,0
1685,6470001005499,新規,0,2021-10-19,2021-10-19,宮地建材工業株式会社,,株式会社,香川県,高松市,郷東町７９６番地６８,,37,201,7618031,,,,,,,2021-10-19,1,,,,,ミヤジケンザイコウギョウ,0
1702,7010001221835,新規,0,2021-10-19,2021-10-19,福氣面団株式会社,,株式会社,東京都,中央区,東日本橋２丁目２８番５号５０８,,13,102,1030004,,,,,,,2021-10-19,1,,,,,フクキメントン,0
1703,7010001221884,新規,0,2021-10-19,2021-10-19,株式会社みどり,,株式会社,東京都,千代田区,外神田２丁目１番７号,,13,101,1010021,,,,,,,2021-10-19,1,,,,,ミドリ,0
1708,7010101014916,新規,0,2021-10-19,2021-10-19,ｒｅａｌ株式会社,,株式会社,東京都,八王子市,元八王子町１丁目１１８番地クレール２０３号,,13,201,1930826,,,,,,,2021-10-19,1,,,,,,0
1730,7010403026353,新規,0,2021-10-19,2021-10-19,合同会社Ｗｏｎｄｅｒ　ｂｏａｔ,,合同会社,東京都,港区,白金３丁目１番１３号日恵ビル２階,,13,103,1080072,,,,,,,2021-10-19,1,,,,,ワンダーボート,0
1733,7010503006412,新規,0,2021-10-19,2021-10-19,メディカルシップ合同会社,,合同会社,東京都,台東区,松が谷４丁目８番５号三浦ビル２Ｆ,,13,106,1110036,,,,,,,2021-10-19,1,,,,,,0
1743,7010801032416,新規,0,2021-10-19,2021-10-19,株式会社ゆとりくらぶ,,株式会社,東京都,大田区,蒲田５丁目３６番２号,,13,111,1440052,,,,,,,2021-10-19,1,,,,,ユトリクラブ,0
1746,7010903006870,新規,0,2021-10-19,2021-10-19,合同会社ワイズプランニング,,合同会社,東京都,世田谷区,等々力２丁目２０番８号,,13,112,1580082,,,,,,,2021-10-19,1,,,,,ワイズプランニング,0
1749,7011001143160,新規,0,2021-10-19,2021-10-19,ＳＴＲ＆Ｃｏｍｐａｎｙ株式会社,,株式会社,東京都,渋谷区,宇田川町３－７,,13,113,1500042,,,,,,,2021-10-19,1,,,,,エスティーアールアンドカンパニー,0
1750,7011001143508,新規,0,2021-10-19,2021-10-19,株式会社ＱＲｆｏｏｄＪＡＰＡＮ,,株式会社,東京都,渋谷区,宇田川町２番１号,,13,113,1500042,,,,,,,2021-10-19,1,,,,,キューアールフードジャパン,0
1752,7011003013576,新規,0,2021-10-19,2021-10-19,合同会社ピュアトラスト,,合同会社,東京都,渋谷区,道玄坂１丁目２０番１２号ＭＴ道玄坂３０２,,13,113,1500043,,,,,,,2021-10-19,1,,,,,ピュアトラスト,0
1760,7011101096622,新規,0,2021-10-19,2021-10-19,株式会社ＤＯＵＢＬＥ,,株式会社,東京都,新宿区,西新宿７丁目７－３０－１１０９,,13,104,1600023,,,,,,,2021-10-19,1,,,,,ダブル,0
1765,7011401023771,新規,0,2021-10-19,2021-10-19,極東エンヂニアリング株式会社,,株式会社,東京都,板橋区,上板橋３丁目１４番１４号１０２,,13,119,1740076,,,,,,,2021-10-19,1,,,,,キョクトウエンヂニアリング,0
1770,7011601025477,新規,0,2021-10-19,2021-10-19,株式会社サンフィールド参,,株式会社,東京都,練馬区,田柄５丁目２０番８号,,13,120,1790073,,,,,,,2021-10-19,1,,,,,サンフィールドサン,0
1773,7012401038421,新規,0,2021-10-19,2021-10-19,株式会社ポケットプランニング,,株式会社,東京都,調布市,西つつじケ丘３丁目３６番地１－４０７,,13,208,1820006,,,,,,,2021-10-19,1,,,,,ポケットプランニング,0
1776,7013301048171,新規,0,2021-10-19,2021-10-19,株式会社Ｍ’ｓ　Ｆａｍｉｌｙ,,株式会社,東京都,豊島区,池袋１丁目１６－２２ＮＥＯＩＩＪＩＭＡＢＬＤ．５Ｆ,,13,116,1700014,,,,,,,2021-10-19,1,,,,,エムズファミリー,0
1778,7013303005864,新規,0,2021-10-19,2021-10-19,合同会社Ｃｏｎｎｅｃｔ　ｎｅｘｔ,,合同会社,東京都,豊島区,高田１丁目１５番５号ラ・ハレマリエ３０３号,,13,116,1710033,,,,,,,2021-10-19,1,,,,,コネクトネクスト,0
1781,7020001143533,新規,0,2021-10-19,2021-10-19,株式会社Ｒｏｍｏ,,株式会社,神奈川県,横浜市鶴見区,潮田町２丁目１２９－２１,,14,101,2300041,,,,,,,2021-10-19,1,,,,,ロモ,0
1786,7020003020664,新規,0,2021-10-19,2021-10-19,ｄｅ－ｗｏｒｌｄ合同会社,,合同会社,神奈川県,横浜市鶴見区,小野町１０番地カーサＥＳ１０１,,14,101,2300046,,,,,,,2021-10-19,1,,,,,ディーワールド,0
1787,7020003020680,新規,0,2021-10-19,2021-10-19,合同会社サンカメラ,,合同会社,神奈川県,横浜市戸塚区,品濃町５５７番地１第三常磐ビル２０８号,,14,110,2440801,,,,,,,2021-10-19,1,,,,,サンカメラ,0
1796,7030001144588,新規,0,2021-10-19,2021-10-19,Ｔ－ＷＯＲＫＳ株式会社,,株式会社,埼玉県,さいたま市桜区,大字神田５５１番地ユーラナス浦和Ｂ１０６,,11,106,3380812,,,,,,,2021-10-19,1,,,,,ティーワークス,0
1797,7030001144844,新規,0,2021-10-19,2021-10-19,Ｇｒａｎｄ　Ｌｏｇｉｓｔｉｃｓ株式会社,,株式会社,埼玉県,戸田市,美女木２丁目２５番地の２,,11,224,3350031,,,,,,,2021-10-19,1,,,,,グランドロジスティクス,0
1798,7030001144893,新規,0,2021-10-19,2021-10-19,リーフライフ株式会社,,株式会社,埼玉県,川口市,栄町３丁目１１番１７－６０３号,,11,203,3320017,,,,,,,2021-10-19,1,,,,,リーフライフ,0
1803,7030002125050,新規,0,2021-10-19,2021-10-19,有限会社共林建設,,有限会社,埼玉県,川越市,大字藤間１７６番地,,11,201,3501142,,,,,,,2021-10-19,1,,,,,キョウリンケンセツ,0
1806,7030003018113,新規,0,2021-10-19,2021-10-19,振興グールプ合同会社,,合同会社,埼玉県,川口市,飯塚１丁目９－３８ホッカイハイツ３０２,,11,203,3320023,,,,,,,2021-10-19,1,,,,,シンコウグールプ,0
1808,7030005020587,新規,0,2021-10-19,2021-10-19,医療法人青,,その他の設立登記法人,埼玉県,越谷市,瓦曽根２丁目９番２０号,,11,222,3430821,,,,,,,2021-10-19,1,,,,,アオ,0
1811,7040001120621,新規,0,2021-10-19,2021-10-19,ＨＥＫ株式会社,,株式会社,千葉県,印西市,牧の原４丁目１４番地６,,12,231,2701331,,,,,,,2021-10-19,1,,,,,エイチイーケー,0
1812,7040001120638,新規,0,2021-10-19,2021-10-19,ＳＩＬＵＳ株式会社,,株式会社,千葉県,柏市,大島田５４１番地１,,12,217,2770922,,,,,,,2021-10-19,1,,,,,サイラス,0
1813,7040001120646,新規,0,2021-10-19,2021-10-19,株式会社Ａｕｔｏ　Ｓｕｐｐｌｙ,,株式会社,千葉県,我孫子市,柴崎台１丁目１番地４０号ステイタスヒル天王台弐番館,,12,222,2701176,,,,,,,2021-10-19,1,,,,,オートサプライ,0
1819,7040003018772,新規,0,2021-10-19,2021-10-19,合同会社グラン,,合同会社,千葉県,市川市,南行徳３丁目１番６号,,12,203,2720138,,,,,,,2021-10-19,1,,,,,グラン,0
1823,7050001050000,新規,0,2021-10-19,2021-10-19,ユウホールディングス株式会社,,株式会社,茨城県,つくば市,梅園２丁目２８番地８－２０２号,,08,220,3050045,,,,,,,2021-10-19,1,,,,,ユウホールディングス,0
1825,7050003006140,新規,0,2021-10-19,2021-10-19,合同会社ゆずり葉,,合同会社,茨城県,結城市,大字結城７２０３番地１メゾン・デ・フルール１０１,,08,207,3070001,,,,,,,2021-10-19,1,,,,,ユズリハ,0
1835,7080005007407,新規,0,2021-10-19,2021-10-19,医療法人社団秀和会,,その他の設立登記法人,静岡県,焼津市,本町２丁目１２番８号,,22,212,4250022,,,,,,,2021-10-19,1,,,,,シュウワカイ,0
1836,7080101022838,新規,0,2021-10-19,2021-10-19,株式会社裕心工業,,株式会社,静岡県,三島市,青木１９５番地の１６,,22,206,4110811,,,,,,,2021-10-19,1,,,,,ユウシンコウギョウ,0
1839,7080401025425,新規,0,2021-10-19,2021-10-19,株式会社伊風優菜,,株式会社,静岡県,浜松市東区,積志町４３３番地,,22,132,4313114,,,,,,,2021-10-19,1,,,,,イフウユウサイ,0
1842,7090005007439,新規,0,2021-10-19,2021-10-19,特定非営利活動法人山梨地域研究所,,その他の設立登記法人,山梨県,甲府市,徳行４丁目４番２０号,,19,201,4000047,,,,,,,2021-10-19,1,,,,,ヤマナシチイキケンキュウジョ,0
1844,7100001034724,新規,0,2021-10-19,2021-10-19,株式会社ＫＷＤホールディングス,,株式会社,長野県,上伊那郡辰野町,中央５８番地,,20,382,3990427,,,,,,,2021-10-19,1,,,,,ケーダブルディーホールディングス,0
1845,7100001034732,新規,0,2021-10-19,2021-10-19,株式会社サンセットイン,,株式会社,長野県,北安曇郡白馬村,大字神城２２２２６番地３,,20,485,3999211,,,,,,,2021-10-19,1,,,,,サンセットイン,0
1847,7110001036125,新規,0,2021-10-19,2021-10-19,株式会社ティーマークコーポレーション,,株式会社,新潟県,新潟市中央区,川端町３丁目１５番地１コープ野村川端町Ａ４０６号,,15,103,9518053,,,,,,,2021-10-19,1,,,,,ティーマークコーポレーション,0
1864,7120001241244,新規,0,2021-10-19,2021-10-19,株式会社ロイクエクイティ,,株式会社,大阪府,大阪市浪速区,敷津東２丁目１番２４－３０３号,,27,111,5560012,,,,,,,2021-10-19,1,,,,,ロイクエクイティ,0
1865,7120001241260,新規,0,2021-10-19,2021-10-19,株式会社Ｒｅｍｉｃ,,株式会社,大阪府,大阪市中央区,南本町１丁目３番２３号,,27,128,5410054,,,,,,,2021-10-19,1,,,,,リミック,0
1866,7120001241277,新規,0,2021-10-19,2021-10-19,橋本ぶどう園株式会社,,株式会社,大阪府,大阪市住吉区,清水丘２丁目３番３号スミエハイツ２Ｆ,,27,120,5580033,,,,,,,2021-10-19,1,,,,,ハシモトブドウエン,0
1867,7120001241302,新規,0,2021-10-19,2021-10-19,ＥＮ　ＧＡＴＥ　ＬＡＮＫＡ株式会社,,株式会社,大阪府,枚方市,東田宮１丁目１１番３０号,,27,210,5730023,,,,,,,2021-10-19,1,,,,,エンゲートランカ,0
1873,7120003020431,新規,0,2021-10-19,2021-10-19,合同会社ケア・ファクトリー,,合同会社,大阪府,大阪市東淀川区,下新庄５丁目１６－１５,,27,114,5330021,,,,,,,2021-10-19,1,,,,,ケアファクトリー,0
1877,7120005022558,新規,0,2021-10-19,2021-10-19,一般社団法人大阪交野リトルシニア野球協会,,その他の設立登記法人,大阪府,交野市,東倉治２丁目１５０２－１番地,,27,230,5760061,,,,,,,2021-10-19,1,,,,,オオサカカタノリトルシニアヤキュウキョウカイ,0
1879,7120103004409,新規,0,2021-10-19,2021-10-19,ＮＲワークス合同会社,,合同会社,大阪府,河内長野市,清見台４丁目８番１２号,,27,216,5860043,,,,,,,2021-10-19,1,,,,,エヌアールワークス,0
1880,7120903003873,新規,0,2021-10-19,2021-10-19,合同会社太陽光発電産業,,合同会社,大阪府,豊中市,東豊中町３丁目１１１番地の７,,27,203,5600003,,,,,,,2021-10-19,1,,,,,タイヨウコウハツデンサンギョウ,0
1883,7122001035279,新規,0,2021-10-19,2021-10-19,株式会社Ｃ．ｔｗｏ,,株式会社,大阪府,東大阪市,衣摺４丁目１６番８号,,27,227,5770827,,,,,,,2021-10-19,1,,,,,シートゥー,0
1898,7140001123523,新規,0,2021-10-19,2021-10-19,株式会社トライアド,,株式会社,兵庫県,豊岡市,船町３０９番地の２,,28,209,6680805,,,,,,,2021-10-19,1,,,,,トライアド,0
1904,7150003002518,新規,0,2021-10-19,2021-10-19,合同会社あおに,,合同会社,奈良県,奈良市,学園北１丁目１６―２１―２０１,,29,201,6310036,,,,,,,2021-10-19,1,,,,,アオニ,0
1912,7180001148293,新規,0,2021-10-19,2021-10-19,株式会社ＳｉＮ,,株式会社,愛知県,尾張旭市,旭台３丁目１０番地８,,23,226,4880001,,,,,,,2021-10-19,1,,,,,シン,0
1913,7180001148319,新規,0,2021-10-19,2021-10-19,株式会社プライム伸和,,株式会社,愛知県,名古屋市名東区,陸前町３３０８－２グレイス伸和２Ｆ,,23,115,4650057,,,,,,,2021-10-19,1,,,,,プライムシンワ,0
1926,7220001024481,新規,0,2021-10-19,2021-10-19,株式会社パトモ,,株式会社,石川県,金沢市,彦三町１丁目２番１号アソルティ金沢彦三１Ｆ,,17,201,9200901,,,,,,,2021-10-19,1,,,,,パトモ,0
1964,7310001017534,新規,0,2021-10-19,2021-10-19,株式会社ＫｉｎｇＧ．ｔｅｃｈ,,株式会社,長崎県,長崎市,大黒町１０番１０号,,42,201,8500057,,,,,,,2021-10-19,1,,,,,キングジーテック,0
1969,7320003003630,新規,0,2021-10-19,2021-10-19,合同会社ＯＩＴＡｉｔ,,合同会社,大分県,宇佐市,大字荒木１５５番地,,44,211,8790312,,,,,,,2021-10-19,1,,,,,,0
1972,7330001029081,新規,0,2021-10-19,2021-10-19,株式会社篠田板金,,株式会社,熊本県,熊本市南区,浜口町７３１番地,,43,104,8615262,,,,,,,2021-10-19,1,,,,,シノダバンキン,0
1980,7360001029525,新規,0,2021-10-19,2021-10-19,株式会社琉球キャッシュレス,,株式会社,沖縄県,那覇市,字安里３８１番地１,,47,201,9020067,,,,,,,2021-10-19,1,,,,,リュウキュウキャッシュレス,0
1981,7360005006529,新規,0,2021-10-19,2021-10-19,医療法人進真会,,その他の設立登記法人,沖縄県,那覇市,首里桃原町１丁目２３番地オーシャン２１・３０２,,47,201,9030822,,,,,,,2021-10-19,1,,,,,シンシンカイ,0
1984,7370001047724,新規,0,2021-10-19,2021-10-19,株式会社エルジーク,,株式会社,宮城県,仙台市若林区,中倉２丁目１４番１９号,,04,103,9840821,,,,,,,2021-10-19,1,,,,,エルジーク,0
1990,7390001016644,新規,0,2021-10-19,2021-10-19,株式会社ネークル,,株式会社,山形県,東根市,神町東３丁目８－１０－１１１号,,06,211,9993764,,,,,,,2021-10-19,1,,,,,ネークル,0
1993,7390003001883,新規,0,2021-10-19,2021-10-19,ＳＡＢＥ合同会社,,合同会社,山形県,鶴岡市,青柳町１５番１８号オークリー鶴岡２０１,,06,203,9970832,,,,,,,2021-10-19,1,,,,,セーブ,0
2004,7430001085206,新規,0,2021-10-19,2021-10-19,株式会社美松美装,,株式会社,北海道,札幌市中央区,南三条西５丁目１５番地,,01,101,0600063,,,,,,,2021-10-19,1,,,,,ミマツビソウ,0
2006,7430003013263,新規,0,2021-10-19,2021-10-19,ＢｅｉＭ合同会社,,合同会社,北海道,札幌市豊平区,平岸三条１０丁目５－２８,,01,105,0620933,,,,,,,2021-10-19,1,,,,,ベイエム,0
2008,7470003002056,新規,0,2021-10-19,2021-10-19,和ハウジング合同会社,,合同会社,香川県,高松市,十川西町２７２番地２,,37,201,7610433,,,,,,,2021-10-19,1,,,,,ナゴミハウジング,0
2012,7500001023744,新規,0,2021-10-19,2021-10-19,あいタック株式会社,,株式会社,愛媛県,西条市,喜多台１２０番地７,,38,206,7991343,,,,,,,2021-10-19,1,,,,,アイタック,0
2041,8010401163321,新規,0,2021-10-19,2021-10-19,株式会社サンライト・ナガミ,,株式会社,東京都,港区,南青山２丁目２７番２８号,,13,103,1070062,,,,,,,2021-10-19,1,,,,,サンライトナガミ,0
2055,8010603009207,新規,0,2021-10-19,2021-10-19,合同会社とよす不動産,,合同会社,東京都,江東区,豊洲４丁目１１番２０－１１１５号,,13,108,1350061,,,,,,,2021-10-19,1,,,,,トヨスフドウサン,0
2072,8011001143234,新規,0,2021-10-19,2021-10-19,株式会社ＳＡＷＡＧＩ,,株式会社,東京都,渋谷区,恵比寿１丁目１５番９号日宝恵比寿ビル４０３,,13,113,1500013,,,,,,,2021-10-19,1,,,,,サワギ,0
2073,8011001143507,新規,0,2021-10-19,2021-10-19,株式会社寿司ウォーカー,,株式会社,東京都,渋谷区,神宮前６丁目２３番４号桑野ビル２階,,13,113,1500001,,,,,,,2021-10-19,1,,,,,スシウォーカー,0
2076,8011101096613,新規,0,2021-10-19,2021-10-19,株式会社サンランド企画,,株式会社,東京都,新宿区,荒木町５番地７ジオ四谷荒木町６０５,,13,104,1600007,,,,,,,2021-10-19,1,,,,,サンランドキカク,0
2077,8011101096646,新規,0,2021-10-19,2021-10-19,ＳｈａｒｅＬｉｆｅ株式会社,,株式会社,東京都,新宿区,新宿４丁目３番１５号レイフラット新宿Ｂ棟３Ｆ,,13,104,1600022,,,,,,,2021-10-19,1,,,,,シェアライフ,0
2080,8011403003473,新規,0,2021-10-19,2021-10-19,合同会社ＮＫ流,,合同会社,東京都,板橋区,南常盤台１丁目１１－６,,13,119,1740072,,,,,,,2021-10-19,1,,,,,エヌケイリュウ,0
2084,8011503004941,新規,0,2021-10-19,2021-10-19,合同会社ＦＬＡＭＩＮＧＯ,,合同会社,東京都,北区,赤羽西１丁目１６番１２号赤羽ＴＰビルＡ棟１０５号,,13,117,1150055,,,,,,,2021-10-19,1,,,,,フラミンゴ,0
2087,8011601025476,新規,0,2021-10-19,2021-10-19,株式会社サンフィールド弐,,株式会社,東京都,練馬区,田柄５丁目２０番８号,,13,120,1790073,,,,,,,2021-10-19,1,,,,,サンフィールドニ,0
2101,8013303005863,新規,0,2021-10-19,2021-10-19,春コン合同会社,,合同会社,東京都,豊島区,上池袋４丁目３番５号恩田ビル５０３号,,13,116,1700012,,,,,,,2021-10-19,1,,,,,シュンコン,0
2104,8020001143516,新規,0,2021-10-19,2021-10-19,株式会社鳥山とりを,,株式会社,神奈川県,横浜市西区,伊勢町２丁目８１番地３,,14,103,2200045,,,,,,,2021-10-19,1,,,,,トリヤマトリヲ,0
2105,8020001143532,新規,0,2021-10-19,2021-10-19,株式会社コトノハイチ,,株式会社,神奈川県,横浜市南区,平楽１４８番地３号横浜ダイカンプラザスポーツメント５１８号,,14,105,2320035,,,,,,,2021-10-19,1,,,,,コトノハイチ,0
2107,8020003020647,新規,0,2021-10-19,2021-10-19,ＧＬＯＢＡＸ合同会社,,合同会社,神奈川県,横浜市西区,みなとみらい４丁目４番２号,,14,103,2200012,,,,,,,2021-10-19,1,,,,,,0
2108,8020003020663,新規,0,2021-10-19,2021-10-19,ジェイスポット合同会社,,合同会社,神奈川県,横浜市南区,中村町１丁目２４番１号,,14,105,2320033,,,,,,,2021-10-19,1,,,,,ジェイスポット,0
2113,8021001074247,新規,0,2021-10-19,2021-10-19,株式会社ＲＯＢＩＮＧＯ．,,株式会社,神奈川県,相模原市中央区,共和１丁目８番２号,,14,152,2520234,,,,,,,2021-10-19,1,,,,,ロビンゴドット,0
2119,8021003011000,新規,0,2021-10-19,2021-10-19,合同会社ＴＡＫＥ‐１,,合同会社,神奈川県,逗子市,桜山４丁目１５番６号,,14,208,2490005,,,,,,,2021-10-19,1,,,,,テイクワン,0
2130,8030001144843,新規,0,2021-10-19,2021-10-19,株式会社ＹＯＲＩＳＯＩ,,株式会社,埼玉県,和光市,新倉２丁目１９番７０号,,11,229,3510115,,,,,,,2021-10-19,1,,,,,ヨリソイ,0
2137,8030005020578,新規,0,2021-10-19,2021-10-19,一般社団法人セーフティネット住宅支援相談センター,,その他の設立登記法人,埼玉県,熊谷市,鎌倉町１４９番地МＫビル,,11,202,3600046,,,,,,,2021-10-19,1,,,,,セーフティネットジュウタクシエンソウダンセンター,0
2138,8030005020586,新規,0,2021-10-19,2021-10-19,医療法人川越大東医院,,その他の設立登記法人,埼玉県,川越市,南大塚２丁目１０番地１０,,11,201,3501162,,,,,,,2021-10-19,1,,,,,カワゴエダイトウイイン,0
2144,8040001120637,新規,0,2021-10-19,2021-10-19,株式会社遠藤総業,,株式会社,千葉県,八千代市,保品１９１５番地６７,,12,221,2760013,,,,,,,2021-10-19,1,,,,,エンドウソウギョウ,0
2145,8040001120678,新規,0,2021-10-19,2021-10-19,株式会社Ｎｆｒａｃｔａｌ,,株式会社,千葉県,流山市,南流山４丁目１番地４ＫＳビル２号室,,12,220,2700163,,,,,,,2021-10-19,1,,,,,エヌフラクタル,0
2149,8040003018755,新規,0,2021-10-19,2021-10-19,合同会社インテリアＫＡＺＥ,,合同会社,千葉県,松戸市,新松戸５丁目１０５番地アムフラット新松戸２０２号,,12,207,2700034,,,,,,,2021-10-19,1,,,,,インテリアカゼ,0
2155,8050001050008,新規,0,2021-10-19,2021-10-19,株式会社秀和建商,,株式会社,茨城県,常陸太田市,松栄町１１５５番地の１,,08,212,3130133,,,,,,,2021-10-19,1,,,,,シュウワケンショウ,0
2160,8090001017250,新規,0,2021-10-19,2021-10-19,株式会社真輝工業,,株式会社,山梨県,南アルプス市,下市之瀬１１７９番地３,,19,208,4000314,,,,,,,2021-10-19,1,,,,,シンキコウギョウ,0
2163,8100001034723,新規,0,2021-10-19,2021-10-19,インテグレーション・カウンセリング・アソシエーション株式会社,,株式会社,長野県,北佐久郡軽井沢町,大字長倉５８２７番地１００,,20,321,3890111,,,,,,,2021-10-19,1,,,,,インテグレーションカウンセリングアソシエーション,0
2165,8100003006266,新規,0,2021-10-19,2021-10-19,アナザーブレイン合同会社,,合同会社,長野県,塩尻市,大字広丘吉田８８８番地１,,20,215,3990701,,,,,,,2021-10-19,1,,,,,アナザーブレイン,0
2167,8100005012782,新規,0,2021-10-19,2021-10-19,特定非営利活動法人なごみ,,その他の設立登記法人,長野県,伊那市,山寺１８６５番地２８,,20,209,3960023,,,,,,,2021-10-19,1,,,,,ナゴミ,0
2181,8120001241292,新規,0,2021-10-19,2021-10-19,株式会社Ｗｉｔｈｏｕｔ,,株式会社,大阪府,大阪市中央区,南船場１丁目１２番２６号ニュー船場ビル２０５号,,27,128,5420081,,,,,,,2021-10-19,1,,,,,ウィズアウト,0
2182,8120001241301,新規,0,2021-10-19,2021-10-19,株式会社千成,,株式会社,大阪府,大阪市浪速区,恵美須東２丁目９番８号,,27,111,5560002,,,,,,,2021-10-19,1,,,,,センナリ,0
2185,8120003020439,新規,0,2021-10-19,2021-10-19,ＳＨＡＲＥ合同会社,,合同会社,大阪府,大阪市此花区,梅香１丁目１９番１２号ボンジュール梅香３０１号室,,27,104,5540013,,,,,,,2021-10-19,1,,,,,シェアー,0
2191,8120101064503,新規,0,2021-10-19,2021-10-19,株式会社イチユウ,,株式会社,大阪府,泉佐野市,日根野４１１１番地,,27,213,5980021,,,,,,,2021-10-19,1,,,,,イチユウ,0
2192,8120103004408,新規,0,2021-10-19,2021-10-19,合同会社Ｓｅｉｋｏ　Ｅｎｔｅｒｐｒｉｓｅｓ,,合同会社,大阪府,藤井寺市,道明寺１丁目２１番２１号,,27,226,5830012,,,,,,,2021-10-19,1,,,,,セイコウエンタープライセス,0
2194,8120901045074,新規,0,2021-10-19,2021-10-19,株式会社ＢＡＮＡＮＡ,,株式会社,大阪府,茨木市,横江１丁目１７番６号,,27,211,5670865,,,,,,,2021-10-19,1,,,,,バナナ,0
2206,8140001123539,新規,0,2021-10-19,2021-10-19,ＳＰＪＡＰＡＮ株式会社,,株式会社,兵庫県,西宮市,戸崎町６番５号,,28,204,6638121,,,,,,,2021-10-19,1,,,,,エスピージャパン,0
2207,8140001123547,新規,0,2021-10-19,2021-10-19,株式会社ＭＩＲＡＩＺ,,株式会社,兵庫県,神戸市東灘区,青木５丁目１４番８号,,28,101,6580027,,,,,,,2021-10-19,1,,,,,ミライズ,0
2208,8140003016872,新規,0,2021-10-19,2021-10-19,合同会社リアン,,合同会社,兵庫県,姫路市,十二所前町６４番地ＫＳ東ビル５０１,,28,201,6700911,,,,,,,2021-10-19,1,,,,,リアン,0
2209,8150005009337,新規,0,2021-10-19,2021-10-19,特定非営利活動法人チャイルドラインなら,,その他の設立登記法人,奈良県,奈良市,西大寺本町８番２７号,,29,201,6310816,,,,,,,2021-10-19,1,,,,,チャイルドラインナラ,0
2221,8180001148367,新規,0,2021-10-19,2021-10-19,株式会社光,,株式会社,愛知県,名古屋市中村区,椿町１５番５号,,23,105,4530015,,,,,,,2021-10-19,1,,,,,ミツ,0
2244,8240001058766,新規,0,2021-10-19,2021-10-19,株式会社金城,,株式会社,広島県,福山市,東深津町５丁目２１番２７－２号,,34,207,7210974,,,,,,,2021-10-19,1,,,,,カネシロ,0
2252,8290001095078,新規,0,2021-10-19,2021-10-19,株式会社好きなことで生きていく,,株式会社,福岡県,福岡市博多区,石城町１番３－８０５号,,40,132,8120032,,,,,,,2021-10-19,1,,,,,スキナコトデイキテイク,0
2256,8290003011719,新規,0,2021-10-19,2021-10-19,合同会社ＷＲ‐Ａ,,合同会社,福岡県,福岡市中央区,笹丘３丁目１５番２４号,,40,133,8100034,,,,,,,2021-10-19,1,,,,,ダブルロイヤルアンバサダー,0
2257,8290005018398,新規,0,2021-10-19,2021-10-19,一般社団法人知行合一の輪,,その他の設立登記法人,福岡県,福岡市中央区,大手門１丁目９番２４－１００１号,,40,133,8100074,,,,,,,2021-10-19,1,,,,,チコウゴウイツノワ,0
2258,8300001012667,新規,0,2021-10-19,2021-10-19,ヒューベストホールディング株式会社,,株式会社,佐賀県,唐津市,鏡４５３１番地１,,41,202,8470022,,,,,,,2021-10-19,1,,,,,ヒューベストホールディング,0
2262,8310003004190,新規,0,2021-10-19,2021-10-19,合同会社のあじゅあけ,,合同会社,長崎県,長崎市,川原町６５０番地,,42,201,8510407,,,,,,,2021-10-19,1,,,,,ノアジュアケ,0
2269,8360001029516,新規,0,2021-10-19,2021-10-19,株式会社グランプログレス,,株式会社,沖縄県,那覇市,前島２丁目８－７－２階,,47,201,9000016,,,,,,,2021-10-19,1,,,,,グランプログレス,0
2283,8420003002398,新規,0,2021-10-19,2021-10-19,合同会社Ｍ’ｓ　ｓｔｙｌｅ,,合同会社,青森県,青森市,佃２丁目８番２７号,,02,201,0300962,,,,,,,2021-10-19,1,,,,,エムズスタイル,0
2294,8700150005729,新規,0,2021-10-19,2015-10-09,ＵＰＦ－Ｊａｐａｎ,,その他,東京都,新宿区,新宿５丁目１３－２成約ビル５Ｆ,,13,104,1600022,,,,,,,2015-10-09,1,,,,,ユーピーエフジヤパン,0
2306,9010101014914,新規,0,2021-10-19,2021-10-19,株式会社縞猫商会,,株式会社,東京都,八王子市,明神町４丁目３番９－３０３号,,13,201,1920046,,,,,,,2021-10-19,1,,,,,シマネコショウカイ,0
2308,9010103001794,新規,0,2021-10-19,2021-10-19,アイリス合同会社,,合同会社,東京都,八王子市,上壱分方町４４９０番地４,,13,201,1930811,,,,,,,2021-10-19,1,,,,,アイリス,0
2315,9010401162875,新規,0,2021-10-19,2021-10-19,ＡｔｏＺ株式会社,,株式会社,東京都,港区,浜松町２丁目２番１５号浜松町ダイヤビル２Ｆ,,13,103,1050013,,,,,,,2021-10-19,1,,,,,エートゥゼット,0
2316,9010401163329,新規,0,2021-10-19,2021-10-19,株式会社ＧＲＡＶＩＴＹ,,株式会社,東京都,港区,新橋２丁目１９番４号,,13,103,1050004,,,,,,,2021-10-19,1,,,,,グラヴィティー,0
2329,9010801032414,新規,0,2021-10-19,2021-10-19,株式会社オールペインツ,,株式会社,東京都,大田区,大森東２丁目２６番４号,,13,111,1430012,,,,,,,2021-10-19,1,,,,,オールペインツ,0
2333,9010901049639,新規,0,2021-10-19,2021-10-19,株式会社トラストリンク,,株式会社,東京都,世田谷区,上馬４丁目３１番２３号,,13,112,1540011,,,,,,,2021-10-19,1,,,,,トラストリンク,0
2340,9011001143506,新規,0,2021-10-19,2021-10-19,ワークハブ株式会社,,株式会社,東京都,目黒区,上目黒１丁目２６番１－４５０４号中目黒アトラスタワー,,13,110,1530051,,,,,,,2021-10-19,1,,,,,ワークハブ,0
2341,9011001143514,新規,0,2021-10-19,2021-10-19,株式会社ＲＥＮＴＨ,,株式会社,東京都,渋谷区,神宮前６丁目２３－４,,13,113,1500001,,,,,,,2021-10-19,1,,,,,レンス,0
2345,9011101096595,新規,0,2021-10-19,2021-10-19,富丸貿易株式会社,,株式会社,東京都,新宿区,西新宿７丁目５－９ファーストリアルタワー新宿２６０５室,,13,104,1600023,,,,,,,2021-10-19,1,,,,,トミマルボウエキ,0
2346,9011103011098,新規,0,2021-10-19,2021-10-19,アイアム合同会社,,合同会社,東京都,新宿区,歌舞伎町２丁目９番１８,,13,104,1600021,,,,,,,2021-10-19,1,,,,,アイアム,0
2347,9011105010016,新規,0,2021-10-19,2021-10-19,ＮＰＯ法人建設経営戦略研究所,,その他の設立登記法人,東京都,新宿区,西新宿１丁目２５番１号,,13,104,1600023,,,,,,,2021-10-19,1,,,,,,0
2349,9011303004199,新規,0,2021-10-19,2021-10-19,ＬＴＸ合同会社,,合同会社,東京都,杉並区,桃井３丁目６番１－２０８号サウステラス・シーズンテラス,,13,115,1670034,,,,,,,2021-10-19,1,,,,,エルティーエックス,0
2351,9011403003472,新規,0,2021-10-19,2021-10-19,スローニン合同会社,,合同会社,東京都,板橋区,南常盤台１丁目１１－６レフア南常盤台１０１号室,,13,119,1740072,,,,,,,2021-10-19,1,,,,,スローニン,0
2355,9011601025475,新規,0,2021-10-19,2021-10-19,株式会社サンフィールド壱,,株式会社,東京都,練馬区,田柄５丁目２０番８号,,13,120,1790073,,,,,,,2021-10-19,1,,,,,サンフィールドイチ,0
2357,9011701024781,新規,0,2021-10-19,2021-10-19,株式会社ＳＡＫＡＩ,,株式会社,東京都,江戸川区,北篠崎２丁目１５番１７号コーポ関口１０１,,13,123,1330053,,,,,,,2021-10-19,1,,,,,サカイ,0
2361,9012401038411,新規,0,2021-10-19,2021-10-19,株式会社テテテ,,株式会社,東京都,調布市,多摩川５丁目２３－１１カメリア調布１０３号室,,13,208,1820025,,,,,,,2021-10-19,1,,,,,テテテ,0
2362,9012401038428,新規,0,2021-10-19,2021-10-19,株式会社けやきトレーディング,,株式会社,東京都,武蔵野市,吉祥寺南町１丁目２５番１１号Ｅ１０１,,13,203,1800003,,,,,,,2021-10-19,1,,,,,ケヤキトレーディング,0
2379,9013303005862,新規,0,2021-10-19,2021-10-19,合同会社きよみず,,合同会社,東京都,豊島区,東池袋２丁目６３番１－１１１０号,,13,116,1700013,,,,,,,2021-10-19,1,,,,,キヨミズ,0
2388,9020001143523,新規,0,2021-10-19,2021-10-19,株式会社Ｂｌｕｅｐｅａｋｓ,,株式会社,神奈川県,横浜市青葉区,荏田町２３６１－３林ビル１－Ｃ号,,14,117,2250013,,,,,,,2021-10-19,1,,,,,ブルーピークス,0
2389,9020001143531,新規,0,2021-10-19,2021-10-19,株式会社ｓｔｏｃｋ,,株式会社,神奈川県,川崎市多摩区,生田２丁目１１番８号,,14,135,2140038,,,,,,,2021-10-19,1,,,,,ストック,0
2393,9020003020670,新規,0,2021-10-19,2021-10-19,曽根合同会社,,合同会社,神奈川県,横浜市青葉区,市ケ尾町１０７３番地２７,,14,117,2250024,,,,,,,2021-10-19,1,,,,,ソネ,0
2394,9021001074196,新規,0,2021-10-19,2021-10-19,株式会社Ｓｅｌｅｃｔ　Ｌｉｆｅ,,株式会社,神奈川県,相模原市中央区,陽光台３丁目３番１５号,,14,152,2520226,,,,,,,2021-10-19,1,,,,,セレクトライフ,0
2395,9021001074246,新規,0,2021-10-19,2021-10-19,株式会社リアスロー,,株式会社,神奈川県,相模原市中央区,相模原３丁目７番３号,,14,152,2520231,,,,,,,2021-10-19,1,,,,,リアスロー,0
2396,9021001074262,新規,0,2021-10-19,2021-10-19,株式会社ユアーズ,,株式会社,神奈川県,平塚市,幸町２０番１７号,,14,203,2540804,,,,,,,2021-10-19,1,,,,,ユアーズ,0
2404,9030001144660,新規,0,2021-10-19,2021-10-19,株式会社ＡＫＯ,,株式会社,埼玉県,朝霞市,岡１丁目９番９号,,11,227,3510007,,,,,,,2021-10-19,1,,,,,エーケーオー,0
2405,9030001144891,新規,0,2021-10-19,2021-10-19,ｄｓコンサルティング株式会社,,株式会社,埼玉県,さいたま市浦和区,北浦和１丁目９番１－１３０１号,,11,107,3300074,,,,,,,2021-10-19,1,,,,,ディーエスコンサルティング,0
2412,9030003018160,新規,0,2021-10-19,2021-10-19,合同会社Ａｌｌｕｒｅ,,合同会社,埼玉県,さいたま市浦和区,岸町４丁目１１番３号,,11,107,3300064,,,,,,,2021-10-19,1,,,,,アリュール,0
2413,9030005020585,新規,0,2021-10-19,2021-10-19,医療法人社団葵翔会,,その他の設立登記法人,埼玉県,富士見市,山室１丁目１３１３番地ららぽーと富士見１Ｆ１０１０－Ｂ区画,,11,235,3540022,,,,,,,2021-10-19,1,,,,,キショウカイ,0
2414,9030005020593,新規,0,2021-10-19,2021-10-19,医療法人社団たすく,,その他の設立登記法人,埼玉県,所沢市,松葉町７番２４号ハイツコルザ１Ｆ,,11,208,3590044,,,,,,,2021-10-19,1,,,,,タスク,0
2418,9040001120669,新規,0,2021-10-19,2021-10-19,モンブランコンサルティング株式会社,,株式会社,千葉県,柏市,手賀の杜１丁目８－６,,12,217,2701447,,,,,,,2021-10-19,1,,,,,モンブランコンサルティング,0
2420,9040003018779,新規,0,2021-10-19,2021-10-19,合同会社メディクレアーレ,,合同会社,千葉県,習志野市,東習志野２丁目１８番４４－１１９号,,12,216,2750001,,,,,,,2021-10-19,1,,,,,メディクレアーレ,0
2424,9050001050007,新規,0,2021-10-19,2021-10-19,株式会社ラクガイ,,株式会社,茨城県,水戸市,見和２丁目２９７番地の３,,08,201,3100911,,,,,,,2021-10-19,1,,,,,ラクガイ,0
2425,9050001050015,新規,0,2021-10-19,2021-10-19,株式会社東海テント,,株式会社,茨城県,那珂郡東海村,大字石神内宿１１７１番地６２,,08,341,3191102,,,,,,,2021-10-19,1,,,,,トウカイテント,0
2440,9100001034697,新規,0,2021-10-19,2021-10-19,株式会社ＷＩＮｚパートナー,,株式会社,長野県,長野市,大字富竹７５３番地３０,,20,201,3810006,,,,,,,2021-10-19,1,,,,,ウィンズパートナー,0
2441,9100001034730,新規,0,2021-10-19,2021-10-19,株式会社水滴,,株式会社,長野県,上水内郡信濃町,大字柏原１６０４番地２,,20,583,3891305,,,,,,,2021-10-19,1,,,,,スイテキ,0
2442,9110001036131,新規,0,2021-10-19,2021-10-19,株式会社相馬建設,,株式会社,新潟県,新潟市中央区,幸西２丁目３番７号Ｂ棟１階,,15,103,9500908,,,,,,,2021-10-19,1,,,,,ソウマケンセツ,0
2456,9120001241201,新規,0,2021-10-19,2021-10-19,株式会社ｍｏｎｍｏｎａ,,株式会社,大阪府,大阪市北区,西天満１丁目１番１０号,,27,127,5300047,,,,,,,2021-10-19,1,,,,,モンモナ,0
2457,9120001241275,新規,0,2021-10-19,2021-10-19,ＵＦ＆Ｒ株式会社,,株式会社,大阪府,大阪市北区,豊崎３丁目１７番６号,,27,127,5310072,,,,,,,2021-10-19,1,,,,,ユーエフアンドアール,0
2458,9120001241291,新規,0,2021-10-19,2021-10-19,株式会社Ｔｅｌｅ　Ｂｒｉｄｇｅ,,株式会社,大阪府,大阪市東淀川区,下新庄１丁目２番１号,,27,114,5330021,,,,,,,2021-10-19,1,,,,,テレブリッヂ,0
2469,9120101064502,新規,0,2021-10-19,2021-10-19,株式会社ハタ運送,,株式会社,大阪府,高石市,加茂４丁目４－６ソシア加茂２０１,,27,225,5920011,,,,,,,2021-10-19,1,,,,,ハタウンソウ,0
2470,9120101064510,新規,0,2021-10-19,2021-10-19,株式会社Ａｉｋａｔａ,,株式会社,大阪府,堺市西区,鳳中町７丁２５２番地１－１０３,,27,144,5938327,,,,,,,2021-10-19,1,,,,,アイカタ,0
2474,9120103004407,新規,0,2021-10-19,2021-10-19,ウィズ合同会社,,合同会社,大阪府,堺市北区,東浅香山町３丁３１番地２１棟１０９号,,27,146,5918008,,,,,,,2021-10-19,1,,,,,ウィズ,0
2481,9130001070319,新規,0,2021-10-19,2021-10-19,リリーフ物流株式会社,,株式会社,京都府,木津川市,木津南後背１番地５０,,26,214,6190214,,,,,,,2021-10-19,1,,,,,リリーフブツリュウ,0
2482,9130001070335,新規,0,2021-10-19,2021-10-19,株式会社一閃堂,,株式会社,京都府,京都市右京区,西京極浜ノ本町３５番地１階,,26,108,6150873,,,,,,,2021-10-19,1,,,,,イッセンドウ,0
2497,9140001123554,新規,0,2021-10-19,2021-10-19,株式会社ＬＩＡＩＳＯＮ,,株式会社,兵庫県,神戸市中央区,脇浜町３丁目５－１０－３０８,,28,110,6510072,,,,,,,2021-10-19,1,,,,,リエゾン,0
2499,9150003002516,新規,0,2021-10-19,2021-10-19,Ｈｉｎｏｍｅ合同会社,,合同会社,奈良県,橿原市,曲川町６丁目１０番１９－２号,,29,205,6340837,,,,,,,2021-10-19,1,,,,,ヒノメ,0
2500,9150005009336,新規,0,2021-10-19,2021-10-19,一般社団法人ぴあ,,その他の設立登記法人,奈良県,高市郡明日香村,大字真弓１４９３,,29,402,6340137,,,,,,,2021-10-19,1,,,,,ピア,0
2504,9160005011002,新規,0,2021-10-19,2021-10-19,農事組合法人香庄絆塾,,その他の設立登記法人,滋賀県,近江八幡市,安土町香庄３４０番地５,,25,204,5211346,,,,,,,2021-10-19,1,,,,,コノショウキズナジュク,0
2514,9180001148317,新規,0,2021-10-19,2021-10-19,アイデア不動産株式会社,,株式会社,愛知県,名古屋市名東区,牧の里１丁目９０５番地ハイライズ高藤１０６号,,23,115,4650068,,,,,,,2021-10-19,1,,,,,アイデアフドウサン,0
2515,9180001148358,新規,0,2021-10-19,2021-10-19,株式会社イマジナリー,,株式会社,愛知県,名古屋市中区,栄２丁目１３番１号,,23,106,4600008,,,,,,,2021-10-19,1,,,,,イマジナリー,0
2519,9180003023088,新規,0,2021-10-19,2021-10-19,合同会社かいごの窓口,,合同会社,愛知県,一宮市,南印田２丁目２番３２号,,23,203,4910881,,,,,,,2021-10-19,1,,,,,カイゴノマドグチ,0
2520,9180301035529,新規,0,2021-10-19,2021-10-19,株式会社エサカ製作所,,株式会社,愛知県,高浜市,小池町２丁目８番地５,,23,227,4441303,,,,,,,2021-10-19,1,,,,,エサカセイサクショ,0
2523,9190003003799,新規,0,2021-10-19,2021-10-19,ビーエスエス合同会社,,合同会社,三重県,鈴鹿市,磯山３丁目１５番２９号,,24,207,5100256,,,,,,,2021-10-19,1,,,,,ビーエスエス,0
2526,9200003005348,新規,0,2021-10-19,2021-10-19,合同会社中尾高原温泉,,合同会社,岐阜県,高山市,奥飛騨温泉郷中尾２１５番地１,,21,203,5061422,,,,,,,2021-10-19,1,,,,,ナカオコウゲンオンセン,0
2528,9210001018656,新規,0,2021-10-19,2021-10-19,株式会社０１,,株式会社,福井県,越前市,定友町５－１５－１,,18,209,9150231,,,,,,,2021-10-19,1,,,,,ゼロワン,0
2535,9240001058773,新規,0,2021-10-19,2021-10-19,明昇株式会社,,株式会社,広島県,広島市南区,東雲２丁目１７番２７－３０２号,,34,103,7340022,,,,,,,2021-10-19,1,,,,,メイショウ,0
2537,9240003005328,新規,0,2021-10-19,2021-10-19,合同会社ＯＰｕｓｕ,,合同会社,広島県,廿日市市,廿日市２丁目７番２０号,,34,213,7380013,,,,,,,2021-10-19,1,,,,,オプス,0
2554,9290001095077,新規,0,2021-10-19,2021-10-19,株式会社ダンシン工業,,株式会社,福岡県,糟屋郡志免町,桜丘１丁目３０番３号,,40,343,8112201,,,,,,,2021-10-19,1,,,,,ダンシンコウギョウ,0
2563,9310001017540,新規,0,2021-10-19,2021-10-19,株式会社モリケン,,株式会社,長崎県,佐世保市,小佐々町楠泊６４９番地７,,42,202,8570413,,,,,,,2021-10-19,1,,,,,モリケン,0
2568,9330001029047,新規,0,2021-10-19,2021-10-19,護開発株式会社,,株式会社,熊本県,熊本市南区,城南町今吉野５３３番地４キャロット城南１０６,,43,104,8614211,,,,,,,2021-10-19,1,,,,,マモルカイハツ,0
2572,9360003011512,新規,0,2021-10-19,2021-10-19,合同会社ＲＯＢＯＣＯＮ,,合同会社,沖縄県,中頭郡西原町,字翁長６５９番地の２,,47,329,9030117,,,,,,,2021-10-19,1,,,,,ロボコン,0
2573,9360005006535,新規,0,2021-10-19,2021-10-19,一般社団法人沖縄県美ら海教育学校,,その他の設立登記法人,沖縄県,中頭郡読谷村,字喜名１９３番地２,,47,324,9040302,,,,,,,2021-10-19,1,,,,,オキナワケンチュラウミキョウイクガッコウ,0
2578,9370001047722,新規,0,2021-10-19,2021-10-19,株式会社Ｅ．Ｍ．スカイワーク,,株式会社,宮城県,仙台市青葉区,国分町３丁目１０－３０,,04,101,9800803,,,,,,,2021-10-19,1,,,,,イーエムスカイワーク,0
2588,9430001085195,新規,0,2021-10-19,2021-10-19,株式会社聖和技建工業,,株式会社,北海道,札幌市北区,新琴似八条１２丁目５番２０－５号,,01,102,0010908,,,,,,,2021-10-19,1,,,,,セイワギケンコウギョウ,0
2592,9430005014316,新規,0,2021-10-19,2021-10-19,一般社団法人エコー,,その他の設立登記法人,北海道,札幌市中央区,南一条西１６丁目１番地３２３春野ビル３階,,01,101,0600061,,,,,,,2021-10-19,1,,,,,エコー,0
2596,9470001018779,新規,0,2021-10-19,2021-10-19,株式会社大日,,株式会社,香川県,仲多度郡多度津町,東港町９番地２,,37,404,7640018,,,,,,,2021-10-19,1,,,,,ダイニチ,0
