sequenceNumber,corporateNumber,process,correct,updateDate,changeDate,name,nameImageId,kind,prefectureName,cityName,streetNumber,addressImageId,prefectureCode,cityCode,postCode,addressOutside,addressOutsideImageId,closeDate,closeCause,successorCorporateNumber,changeCause,assignmentDate,latest,enName,enPrefectureName,enCityName,enAddressOutside,furigana,hihyoji
9,1010001228654,新規,0,2022-08-09,2022-08-09,株式会社クレッターン,,株式会社,東京都,千代田区,丸の内１丁目８番２号鉄鋼ビルディング４階,,13,101,1000005,,,,,,,2022-08-09,1,,,,,クレッターン,0
18,1010101015291,新規,0,2022-08-09,2022-08-09,株式会社ヒジカタビルリース,,株式会社,東京都,八王子市,高倉町１７番地７,,13,201,1920033,,,,,,,2022-08-09,1,,,,,ヒジカタビルリース,0
21,1010103001967,新規,0,2022-08-09,2022-08-09,合同会社高橋構造企画設計,00127472,合同会社,東京都,八王子市,八日町９番２－６０３号,,13,201,1920071,,,,,,,2022-08-09,1,,,,,タカハシコウゾウキカクセッケイ,0
33,1010401168921,新規,0,2022-08-09,2022-08-09,フリーチェック株式会社,,株式会社,東京都,港区,南青山２丁目２番１５号,,13,103,1070062,,,,,,,2022-08-09,1,,,,,フリーチェック,0
34,1010501049212,新規,0,2022-08-09,2022-08-09,株式会社ターエイ,,株式会社,東京都,台東区,上野３丁目３－１０センダビル３階,,13,106,1100005,,,,,,,2022-08-09,1,,,,,ターエイ,0
43,1011001148990,新規,0,2022-08-09,2022-08-09,株式会社Ｏｎ　ｔｈｅ　Ｐｏｎｄ,,株式会社,東京都,渋谷区,渋谷２丁目１９－１５宮益坂ビルディング６０９,,13,113,1500002,,,,,,,2022-08-09,1,,,,,オンザポンド,0
44,1011001148999,新規,0,2022-08-09,2022-08-09,株式会社Ｅｖｅｒｇｒｅｅｎ　Ｈｏｌｄｉｎｇｓ,,株式会社,東京都,渋谷区,幡ヶ谷２丁目１番３号,,13,113,1510072,,,,,,,2022-08-09,1,,,,,エヴァーグリーンホールディングス,0
45,1011001149007,新規,0,2022-08-09,2022-08-09,株式会社ＲｅＮ,,株式会社,東京都,渋谷区,宇田川町１３番８号ちとせ会館２階,,13,113,1500042,,,,,,,2022-08-09,1,,,,,レン,0
46,1011001149015,新規,0,2022-08-09,2022-08-09,株式会社Ｎｏｖ,,株式会社,東京都,渋谷区,東３丁目２５番６号楠ビル２Ｆ,,13,113,1500011,,,,,,,2022-08-09,1,,,,,ノブ,0
47,1011001149048,新規,0,2022-08-09,2022-08-09,株式会社サカノウエ．,,株式会社,東京都,目黒区,柿の木坂１丁目２番７号,,13,110,1520022,,,,,,,2022-08-09,1,,,,,サカノウエ,0
51,1011003015149,新規,0,2022-08-09,2022-08-09,合同会社Ｂ＆Ｈ　Ｐｒｏｍｏｔｅｒ’ｓ,,合同会社,東京都,渋谷区,道玄坂１丁目１０番８号渋谷道玄坂東急ビル２Ｆ－Ｃ,,13,113,1500043,,,,,,,2022-08-09,1,,,,,ビーアンドエイチプロモーターズ,0
52,1011003015181,新規,0,2022-08-09,2022-08-09,ＭｅｄｉａＰｏｃｋｅｔ合同会社,,合同会社,東京都,目黒区,自由が丘２丁目１６―１２ＲＪ３,,13,110,1520035,,,,,,,2022-08-09,1,,,,,メディアポケット,0
55,1011201024026,新規,0,2022-08-09,2022-08-09,株式会社ＧＯＭＯＯＮ　ＧＲＯＵＰ,,株式会社,東京都,中野区,上高田４丁目２２番９号,,13,114,1640002,,,,,,,2022-08-09,1,,,,,ゴームーングループ,0
61,1011403003744,新規,0,2022-08-09,2022-08-09,合同会社ｍｉｎｇｏｏ,,合同会社,東京都,板橋区,中丸町４４－７ライオンズマンション中丸町３１４号室,,13,119,1730026,,,,,,,2022-08-09,1,,,,,ミングー,0
73,1011803005217,新規,0,2022-08-09,2022-08-09,毅訊合同会社,,合同会社,東京都,葛飾区,青戸７丁目２３番１１号,,13,122,1250062,,,,,,,2022-08-09,1,,,,,イシン,0
75,1012701017196,新規,0,2022-08-09,2022-08-09,株式会社幸彩設備,,株式会社,東京都,小平市,鈴木町１丁目４２２番地６号富士見荘２０２号室,,13,211,1870011,,,,,,,2022-08-09,1,,,,,コウサイセツビ,0
81,1013303006257,新規,0,2022-08-09,2022-08-09,合同会社みつび,,合同会社,東京都,豊島区,東池袋１丁目４７番３号１７山京ビル７０４,,13,116,1700013,,,,,,,2022-08-09,1,,,,,ミツビ,0
98,1020003022187,新規,0,2022-08-09,2022-08-09,合同会社ＬｕＮａＣａｌａｎｔｏ,,合同会社,神奈川県,横浜市中区,住吉町５丁目６４番地１ＶＥＬＵＴＩＮＡ馬車道５０５号室,,14,104,2310013,,,,,,,2022-08-09,1,,,,,ルナカラント,0
121,1030001149576,新規,0,2022-08-09,2022-08-09,株式会社大洋商事,,株式会社,埼玉県,草加市,弁天２丁目２７番４５号,,11,221,3400004,,,,,,,2022-08-09,1,,,,,ダイヨウショウジ,0
132,1040001124628,新規,0,2022-08-09,2022-08-09,株式会社池田建材,,株式会社,千葉県,香取市,一ノ分目１１５８番地,,12,236,2890301,,,,,,,2022-08-09,1,,,,,イケダケンザイ,0
134,1040005021697,新規,0,2022-08-09,2022-08-09,一般社団法人ＷＡＱ,,その他の設立登記法人,千葉県,八千代市,ゆりのき台４丁目１０番地９,,12,221,2760042,,,,,,,2022-08-09,1,,,,,ワク,0
135,1060001035170,新規,0,2022-08-09,2022-08-09,株式会社整美,,株式会社,栃木県,宇都宮市,下戸祭２丁目２０番３０号,,09,201,3200055,,,,,,,2022-08-09,1,,,,,セイビ,0
143,1070003004585,新規,0,2022-08-09,2022-08-09,合同会社カノヤ,,合同会社,群馬県,前橋市,荒牧町２丁目２－２２,,10,201,3710044,,,,,,,2022-08-09,1,,,,,カノヤ,0
146,1080101023478,新規,0,2022-08-09,2022-08-09,デンネット株式会社,,株式会社,静岡県,伊豆の国市,古奈１６２番地の１朝日ビル２０２号,,22,225,4102201,,,,,,,2022-08-09,1,,,,,デンネット,0
148,1080403004597,新規,0,2022-08-09,2022-08-09,ＫＳ　ＣＡＲ’Ｓ合同会社,,合同会社,静岡県,浜松市南区,楊子町７１番地の１,,22,134,4300855,,,,,,,2022-08-09,1,,,,,ケーエスカーズ,0
158,1110005016839,新規,0,2022-08-09,2022-08-09,一般社団法人ｍｕｓｕｂｕ,,その他の設立登記法人,新潟県,新潟市中央区,万代島５番１号,,15,103,9500078,,,,,,,2022-08-09,1,,,,,ムスブ,0
162,1120001058520,新規,0,2022-08-09,2022-08-09,株式会社丸金,,株式会社,大阪府,大阪市淀川区,加島３丁目４番２２号,,27,123,5320031,,,,,,,2022-08-09,1,,,,,マルキン,0
168,1120001247981,新規,0,2022-08-09,2022-08-09,セイバーホーム株式会社,,株式会社,大阪府,大阪市北区,天神橋２丁目５番２５若杉グランドビル２０４号室,,27,127,5300041,,,,,,,2022-08-09,1,,,,,セイバーホーム,0
169,1120001247998,新規,0,2022-08-09,2022-08-09,株式会社エスワン,,株式会社,大阪府,大阪市大正区,平尾４丁目１７番３－１０３号,,27,108,5510012,,,,,,,2022-08-09,1,,,,,エスワン,0
170,1120001248022,新規,0,2022-08-09,2022-08-09,株式会社ナイスタイム,,株式会社,大阪府,門真市,新橋町８番３１号,,27,223,5710048,,,,,,,2022-08-09,1,,,,,ナイスタイム,0
174,1120003022235,新規,0,2022-08-09,2022-08-09,合同会社ｇｅｎｅｒｉｃ　ｇｒｏｕｐ,,合同会社,大阪府,大阪市北区,曾根崎新地１丁目１１－２０ＨＯＴＢＯＹビルザ・トキバックス北新地,,27,127,5300002,,,,,,,2022-08-09,1,,,,,ジェネリックグループ,0
175,1120003022243,新規,0,2022-08-09,2022-08-09,明一合同会社,,合同会社,大阪府,大阪市西淀川区,佃２丁目１番３１号２０１号室,,27,113,5550001,,,,,,,2022-08-09,1,,,,,メイイチ,0
180,1120101066068,新規,0,2022-08-09,2022-08-09,株式会社ＤＯＵＢＬＥ　Ａ,,株式会社,大阪府,堺市北区,南花田町２３３番地１さくらマンション３０３号,,27,146,5918011,,,,,,,2022-08-09,1,,,,,ダブルエー,0
189,1140001126993,新規,0,2022-08-09,2022-08-09,株式会社かもめオフィス,,株式会社,兵庫県,芦屋市,大東町１８番６－８０１号,,28,206,6590023,,,,,,,2022-08-09,1,,,,,カモメオフィス,0
190,1140001127034,新規,0,2022-08-09,2022-08-09,株式会社ＦＰコンサルティング阪神,,株式会社,兵庫県,川西市,湯山台１丁目３番地の７,,28,217,6660137,,,,,,,2022-08-09,1,,,,,エフピーコンサルティングハンシン,0
192,1140003017968,新規,0,2022-08-09,2022-08-09,合同会社Ｌｉｔｔｌｅ　Ｈａｎｏｉ,,合同会社,兵庫県,神戸市兵庫区,西出町２７柴田ビル１０２南,,28,105,6520822,,,,,,,2022-08-09,1,,,,,リトルハノイ,0
193,1140003017992,新規,0,2022-08-09,2022-08-09,合同会社ぎふとぴあ,,合同会社,兵庫県,神戸市西区,今寺６番地の４サングリーン今井３０４号,,28,111,6512114,,,,,,,2022-08-09,1,,,,,ギフトピア,0
194,1140003018000,新規,0,2022-08-09,2022-08-09,半田不動産合同会社,,合同会社,兵庫県,神戸市西区,伊川谷町前開１８３１番地の１,,28,111,6512108,,,,,,,2022-08-09,1,,,,,ハンダフドウサン,0
195,1140005026265,新規,0,2022-08-09,2022-08-09,神戸シティユニオン,,その他の設立登記法人,兵庫県,神戸市東灘区,御影３丁目２番１１号－１３５,,28,101,6580047,,,,,,,2022-08-09,1,,,,,コウベシティユニオン,0
197,1160003002646,新規,0,2022-08-09,2022-08-09,合同会社ＴＳＵＭＩＫＩ,,合同会社,滋賀県,栗東市,十里９８番地４,,25,208,5203036,,,,,,,2022-08-09,1,,,,,ツミキ,0
209,1180001152490,新規,0,2022-08-09,2022-08-09,株式会社ＬＩＦＥ　ＰＡＲＴＮＥＲ,,株式会社,愛知県,岩倉市,神野町又市２００番地２,,23,228,4820033,,,,,,,2022-08-09,1,,,,,ライフパートナー,0
210,1180001152508,新規,0,2022-08-09,2022-08-09,志村梱包倉庫株式会社,,株式会社,愛知県,小牧市,大字三ツ渕字中播州３３７番地,,23,219,4850075,,,,,,,2022-08-09,1,,,,,シムラコンポウソウコ,0
211,1180001152516,新規,0,2022-08-09,2022-08-09,株式会社オンジン,,株式会社,愛知県,一宮市,浅井町西海戸４２１番地,,23,203,4910115,,,,,,,2022-08-09,1,,,,,オンジン,0
212,1180001152532,新規,0,2022-08-09,2022-08-09,株式会社永野広告,,株式会社,愛知県,名古屋市中区,松原１丁目１２番９号,,23,106,4600017,,,,,,,2022-08-09,1,,,,,ナガノコウコク,0
213,1180003024135,新規,0,2022-08-09,2022-08-09,ＦＬＴ‐Ｊａｐａｎ合同会社,,合同会社,愛知県,一宮市,猿海道３丁目３―３,,23,203,4910838,,,,,,,2022-08-09,1,,,,,エフエルティジャパン,0
214,1180301036526,新規,0,2022-08-09,2022-08-09,エスティー電工株式会社,,株式会社,愛知県,豊橋市,有楽町１７番地,,23,201,4418035,,,,,,,2022-08-09,1,,,,,エスティーデンコウ,0
222,1200001040354,新規,0,2022-08-09,2022-08-09,Ｒｅｖｅｒｓａｌ　Ｓｐｉｒｉｔ株式会社,,株式会社,岐阜県,岐阜市,日置江３４０番地,,21,201,5016133,,,,,,,2022-08-09,1,,,,,リバーサルスピリット,0
223,1200001040362,新規,0,2022-08-09,2022-08-09,株式会社内藤ＹＡ,,株式会社,岐阜県,岐阜市,明神町２丁目９番地,,21,201,5020922,,,,,,,2022-08-09,1,,,,,ナイトウヤ,0
232,1240001060209,新規,0,2022-08-09,2022-08-09,株式会社インフィニット・イノベーション,,株式会社,広島県,広島市安佐北区,亀山１丁目１１番４号,,34,106,7310231,,,,,,,2022-08-09,1,,,,,インフィニットイノベーション,0
233,1240001060217,新規,0,2022-08-09,2022-08-09,三益商事株式会社,,株式会社,広島県,広島市安芸区,矢野南１丁目２２番２６－１０２号,,34,107,7360086,,,,,,,2022-08-09,1,,,,,ミマスショウジ,0
245,1260001037139,新規,0,2022-08-09,2022-08-09,ＧＩＭＩＸ　ＳＯＬＵＴＩＯＮ株式会社,,株式会社,岡山県,倉敷市,水江９９９番地１,,33,202,7100802,,,,,,,2022-08-09,1,,,,,ギミックスソリューション,0
255,1290005018768,新規,0,2022-08-09,2022-08-09,農事組合法人田中農産,,その他の設立登記法人,福岡県,みやま市,山川町尾野１４８６番地６,,40,229,8350102,,,,,,,2022-08-09,1,,,,,タナカノウサン,0
260,1310001017985,新規,0,2022-08-09,2022-08-09,株式会社フレア,,株式会社,長崎県,長崎市,琴海村松町７１３番地１５,,42,201,8513102,,,,,,,2022-08-09,1,,,,,フレア,0
263,1320001019262,新規,0,2022-08-09,2022-08-09,青い地球株式会社,,株式会社,大分県,宇佐市,大字上田１２２番地の５,,44,211,8790453,,,,,,,2022-08-09,1,,,,,アオイチキュウ,0
264,1320003003875,新規,0,2022-08-09,2022-08-09,合同会社おもち工房厚田ファーム,,合同会社,大分県,国東市,武蔵町成吉６１８番地,,44,214,8730404,,,,,,,2022-08-09,1,,,,,オモチコウボウアツダファーム,0
267,1360001030785,新規,0,2022-08-09,2022-08-09,１８メンテナンス株式会社,,株式会社,沖縄県,うるま市,石川白浜２丁目１２番２４号,,47,213,9041105,,,,,,,2022-08-09,1,,,,,イチハチメンテナンス,0
268,1360001030802,新規,0,2022-08-09,2022-08-09,ｓｗｅｅｔ株式会社,,株式会社,沖縄県,中頭郡読谷村,字大湾３５６番地レキオススクエア大湾Ａ棟２階,,47,324,9040313,,,,,,,2022-08-09,1,,,,,スウィート,0
269,1360001030810,新規,0,2022-08-09,2022-08-09,大一運送株式会社,,株式会社,沖縄県,那覇市,曙１丁目１４－６金太郎ヒルズ曙８０１号室,,47,201,9000002,,,,,,,2022-08-09,1,,,,,ダイイチウンソウ,0
270,1360003012220,新規,0,2022-08-09,2022-08-09,合同会社小やじ,,合同会社,沖縄県,那覇市,泉崎１丁目１５番６号,,47,201,9000021,,,,,,,2022-08-09,1,,,,,コヤジ,0
288,1410001013256,新規,0,2022-08-09,2022-08-09,株式会社コントレイル,,株式会社,秋田県,秋田市,寺内油田３丁目１４－２,,05,201,0110903,,,,,,,2022-08-09,1,,,,,コントレイル,0
289,1420001017966,新規,0,2022-08-09,2022-08-09,株式会社紘星会,,株式会社,青森県,五所川原市,大字水野尾字懸樋３０６番地,,02,205,0370012,,,,,,,2022-08-09,1,,,,,コウセイカイ,0
296,1430001087240,新規,0,2022-08-09,2022-08-09,株式会社エルダイブ,,株式会社,北海道,札幌市東区,北二十二条東９丁目２番１４号,,01,103,0650022,,,,,,,2022-08-09,1,,,,,エルダイブ,0
302,1500001024384,新規,0,2022-08-09,2022-08-09,株式会社ＨＡＳＥＮ,,株式会社,愛媛県,松山市,古川北３丁目６番８－３号,,38,201,7900942,,,,,,,2022-08-09,1,,,,,ハッセン,0
303,1500001024392,新規,0,2022-08-09,2022-08-09,株式会社笹木総業,,株式会社,愛媛県,松山市,西石井４丁目７－３６,,38,201,7900931,,,,,,,2022-08-09,1,,,,,ササキソウギョウ,0
321,2010001228612,新規,0,2022-08-09,2022-08-09,株式会社Ｌｏｎｄ　Ｈｏｌｄｉｎｇｓ,,株式会社,東京都,中央区,銀座２丁目８番１９号２Ｆ,,13,102,1040061,,,,,,,2022-08-09,1,,,,,ロンドホールディングス,0
325,2010003038266,新規,0,2022-08-09,2022-08-09,合同会社モノアラガイ,,合同会社,東京都,中央区,日本橋兜町１７番２号兜町第６葉山ビル４階,,13,102,1030026,,,,,,,2022-08-09,1,,,,,モノアラガイ,0
329,2010005035402,新規,0,2022-08-09,2022-08-09,一般社団法人住宅開口部グリーン化推進協議会,,その他の設立登記法人,東京都,中央区,日本橋小舟町８番１３号５１１号室,,13,102,1030024,,,,,,,2022-08-09,1,,,,,ジュウタクカイコウブグリーンカスイシンキョウギカイ,0
330,2010005035410,新規,0,2022-08-09,2022-08-09,一般社団法人ＤＲカイト,,その他の設立登記法人,東京都,中央区,日本橋１丁目４番１号,,13,102,1030027,,,,,,,2022-08-09,1,,,,,ディーアールカイト,0
345,2010403028230,新規,0,2022-08-09,2022-08-09,合同会社ＬＳ１,,合同会社,東京都,港区,虎ノ門５丁目１番４号,,13,103,1050001,,,,,,,2022-08-09,1,,,,,エルエスワン,0
355,2010703006349,新規,0,2022-08-09,2022-08-09,合同会社ｍｙｕｋ,,合同会社,東京都,品川区,小山台１丁目１８番１８号,,13,109,1420061,,,,,,,2022-08-09,1,,,,,ミューク,0
366,2011001149014,新規,0,2022-08-09,2022-08-09,株式会社ＲＥＧＩＳＴＡ,,株式会社,東京都,渋谷区,神宮前２丁目１１番７号,,13,113,1500001,,,,,,,2022-08-09,1,,,,,レジスタ,0
367,2011001149039,新規,0,2022-08-09,2022-08-09,株式会社ＭＪ　ｃｒｅａｔｉｖｅ,,株式会社,東京都,目黒区,青葉台１丁目９－１７,,13,110,1530042,,,,,,,2022-08-09,1,,,,,エムジェークリエイティブ,0
368,2011001149063,新規,0,2022-08-09,2022-08-09,株式会社マジカント,,株式会社,東京都,渋谷区,渋谷３丁目２７－１５坂上ビル７階,,13,113,1500002,,,,,,,2022-08-09,1,,,,,マジカント,0
371,2011103012053,新規,0,2022-08-09,2022-08-09,ＴＲＥＳＳＡ合同会社,,合同会社,東京都,新宿区,西新宿７丁目５－５プラザ西新宿３０９,,13,104,1600023,,,,,,,2022-08-09,1,,,,,トレッサ,0
373,2011203003893,新規,0,2022-08-09,2022-08-09,合同会社やまげん,,合同会社,東京都,中野区,本町５丁目３３番２－６１０号,,13,114,1640012,,,,,,,2022-08-09,1,,,,,ヤマゲン,0
374,2011303004494,新規,0,2022-08-09,2022-08-09,合同会社ナツレ,,合同会社,東京都,杉並区,高円寺北３丁目１９番６号サンライズ高円寺２０５,,13,115,1660002,,,,,,,2022-08-09,1,,,,,ナツレ,0
375,2011305002843,新規,0,2022-08-09,2022-08-09,司法書士法人赤富士事務所,,その他の設立登記法人,東京都,杉並区,今川２丁目２番１号,,13,115,1670035,,,,,,,2022-08-09,1,,,,,アカフジジムショ,0
376,2011701025514,新規,0,2022-08-09,2022-08-09,アリスジュエリー株式会社,,株式会社,東京都,江戸川区,篠崎町７丁目８番５号シティメゾン篠崎１０１,,13,123,1330061,,,,,,,2022-08-09,1,,,,,アリスジュエリー,0
378,2011703003220,新規,0,2022-08-09,2022-08-09,合同会社ＳＯＳＯＲＥＩ,,合同会社,東京都,江戸川区,臨海町３丁目６－１,,13,123,1340086,,,,,,,2022-08-09,1,,,,,ソソレイ,0
380,2012403005498,新規,0,2022-08-09,2022-08-09,合同会社リユースえにし屋,,合同会社,東京都,三鷹市,下連雀３丁目３３番１７号,,13,204,1810013,,,,,,,2022-08-09,1,,,,,リユースエニシヤ,0
381,2012701017179,新規,0,2022-08-09,2022-08-09,株式会社ＲＥＨＡＲＩ‐ＬＡＢＯ,,株式会社,東京都,東村山市,久米川町５丁目２９－５２,,13,213,1890003,,,,,,,2022-08-09,1,,,,,リハリラボ,0
386,2020001147670,新規,0,2022-08-09,2022-08-09,株式会社シークフォース,,株式会社,神奈川県,横浜市戸塚区,上倉田町３７８番地２日神パレス戸塚１０４,,14,110,2440816,,,,,,,2022-08-09,1,,,,,シークフォース,0
387,2020001147687,新規,0,2022-08-09,2022-08-09,株式会社ＴｈａｎＣａ,,株式会社,神奈川県,横浜市磯子区,原町８番３９－５０６号,,14,107,2350008,,,,,,,2022-08-09,1,,,,,ザンカ,0
394,2021003012020,新規,0,2022-08-09,2022-08-09,合同会社ＫＪＰ,,合同会社,神奈川県,足柄上郡大井町,上大井１２９番地９シャーメゾングランツＡ１０１,,14,362,2580016,,,,,,,2022-08-09,1,,,,,,0
400,2030001149526,新規,0,2022-08-09,2022-08-09,株式会社枝興業,,株式会社,埼玉県,上尾市,大字平方４３００番地２ブルーアローα２０４,,11,219,3620059,,,,,,,2022-08-09,1,,,,,エダコウギョウ,0
401,2030001149575,新規,0,2022-08-09,2022-08-09,株式会社ＬＥＸ,,株式会社,埼玉県,和光市,新倉２丁目２５番５号ジュネステージ３０５,,11,229,3510115,,,,,,,2022-08-09,1,,,,,レックス,0
402,2030001149583,新規,0,2022-08-09,2022-08-09,株式会社遠藤商事,,株式会社,埼玉県,白岡市,篠津１９３６番地１,,11,246,3490204,,,,,,,2022-08-09,1,,,,,エンドウショウジ,0
404,2030005020939,新規,0,2022-08-09,2022-08-09,一般社団法人日本スポーツコミュニティ協会,,その他の設立登記法人,埼玉県,新座市,野寺２丁目１３－８のぞみ１０２,,11,230,3520034,,,,,,,2022-08-09,1,,,,,ニホンスポーツコミュニティキョウカイ,0
405,2040003020584,新規,0,2022-08-09,2022-08-09,三友合同会社,,合同会社,千葉県,松戸市,幸田５丁目３５０番地,,12,207,2700001,,,,,,,2022-08-09,1,,,,,サンユウ,0
409,2080001025128,新規,0,2022-08-09,2022-08-09,株式会社クラフトカツヤマ,,株式会社,静岡県,静岡市駿河区,東新田２丁目１８番８号,,22,102,4210112,,,,,,,2022-08-09,1,,,,,クラフトカツヤマ,0
410,2080003002851,新規,0,2022-08-09,2022-08-09,合同会社ＣＫＵ,,合同会社,静岡県,藤枝市,高岡３丁目８番６号,,22,214,4260062,,,,,,,2022-08-09,1,,,,,シーケーユー,0
419,2110005016838,新規,0,2022-08-09,2022-08-09,一般社団法人松代ガラパゴスイノベーション,,その他の設立登記法人,新潟県,十日町市,松代字上原３８８３番地５,,15,210,9421526,,,,,,,2022-08-09,1,,,,,,0
428,2120001248046,新規,0,2022-08-09,2022-08-09,株式会社ＫＫライズ,,株式会社,大阪府,大阪市住之江区,中加賀屋２丁目２番２５号,,27,125,5590017,,,,,,,2022-08-09,1,,,,,ケーケーライズ,0
429,2120001248087,新規,0,2022-08-09,2022-08-09,株式会社小林総合設備,,株式会社,大阪府,枚方市,渚西１丁目５番５５号,,27,210,5731178,,,,,,,2022-08-09,1,,,,,コバヤシソウゴウセツビ,0
430,2120001248095,新規,0,2022-08-09,2022-08-09,建＿株式会社,00127480,株式会社,大阪府,大阪市天王寺区,生玉前町５番２８号アンビション三和３０３号,,27,109,5430072,,,,,,,2022-08-09,1,,,,,ケンキン,0
433,2120003022226,新規,0,2022-08-09,2022-08-09,ＦＩＳＥ合同会社,,合同会社,大阪府,大阪市東成区,東小橋１丁目１５番２号メゾン玉造３０１号,,27,115,5370024,,,,,,,2022-08-09,1,,,,,ファイズ,0
434,2120003022234,新規,0,2022-08-09,2022-08-09,合同会社Ｅｇｅｏ,,合同会社,大阪府,大阪市東淀川区,東中島１丁目１３－４３,,27,114,5330033,,,,,,,2022-08-09,1,,,,,エジオ,0
436,2120105009609,新規,0,2022-08-09,2022-08-09,Ｓｍｉｌｅ行政書士法人,,その他の設立登記法人,大阪府,堺市北区,長曽根町１３０番地２３堺商工会議所,,27,146,5918025,,,,,,,2022-08-09,1,,,,,スマイル,0
438,2120903004265,新規,0,2022-08-09,2022-08-09,合同会社アンナジャパン,,合同会社,大阪府,吹田市,千里山西５丁目３－８－１０１,,27,205,5650851,,,,,,,2022-08-09,1,,,,,アンナジャパン,0
447,2140001127025,新規,0,2022-08-09,2022-08-09,Ｃ‐ｎｅｔ株式会社,,株式会社,兵庫県,神戸市東灘区,御影本町８丁目１４番１７－２０４号,,28,101,6580046,,,,,,,2022-08-09,1,,,,,シィーネット,0
453,2150001025748,新規,0,2022-08-09,2022-08-09,株式会社西里辰巳家,00127468,株式会社,奈良県,生駒郡斑鳩町,法隆寺西１丁目４番９号,,29,344,6360114,,,,,,,2022-08-09,1,,,,,ニシサトタツミヤ,0
455,2160003002645,新規,0,2022-08-09,2022-08-09,ナッツワークス合同会社,,合同会社,滋賀県,長浜市,加納町６２５番地,,25,203,5260804,,,,,,,2022-08-09,1,,,,,ナッツワークス,0
456,2170001017223,新規,0,2022-08-09,2022-08-09,株式会社Ｈ．Ｍ．Ｄホールディングス,,株式会社,和歌山県,岩出市,岡田７０６番地の１,,30,209,6496222,,,,,,,2022-08-09,1,,,,,エイチエムディホールディングス,0
463,2180001152531,新規,0,2022-08-09,2022-08-09,株式会社エニシング・ソリューション,,株式会社,愛知県,名古屋市西区,児玉３丁目７番２０号Ｃａｒｌｓｓｏｎ５０６号室,,23,104,4510066,,,,,,,2022-08-09,1,,,,,エニシングソリューション,0
467,2180003024118,新規,0,2022-08-09,2022-08-09,合同会社伊藤不動産マネジメント,,合同会社,愛知県,名古屋市昭和区,松風町２丁目１９番地,,23,107,4660035,,,,,,,2022-08-09,1,,,,,イトウフドウサンマネジメント,0
468,2180003024142,新規,0,2022-08-09,2022-08-09,ジェイプラン合同会社,,合同会社,愛知県,小牧市,中央３丁目５６番地,,23,219,4850029,,,,,,,2022-08-09,1,,,,,ジェイプラン,0
470,2180301036525,新規,0,2022-08-09,2022-08-09,株式会社ａｎｙＳｅｅ,,株式会社,愛知県,額田郡幸田町,大字菱池字新田２９番地,,23,501,4440113,,,,,,,2022-08-09,1,,,,,エニーシー,0
475,2190001029670,新規,0,2022-08-09,2022-08-09,株式会社Ａｒｍｅｅ,,株式会社,三重県,松阪市,豊原町２９０番地３５,,24,204,5150205,,,,,,,2022-08-09,1,,,,,アルメー,0
476,2190001029679,新規,0,2022-08-09,2022-08-09,エネアップホールディングス株式会社,,株式会社,三重県,津市,白塚町５２３８番地１,,24,201,5140101,,,,,,,2022-08-09,1,,,,,エネアップホールディングス,0
479,2190003004052,新規,0,2022-08-09,2022-08-09,ＧＵＦＵＦＵ合同会社,,合同会社,三重県,いなべ市,員弁町御薗５５０番地１,,24,214,5110222,,,,,,,2022-08-09,1,,,,,グフフ,0
485,2200003005635,新規,0,2022-08-09,2022-08-09,Ｎ　Ｍ　ＴＲＡＤＩＮＧ合同会社,,合同会社,岐阜県,土岐市,下石町６６０番地の２９サンテラス雅Ａ－２０１号,,21,212,5095202,,,,,,,2022-08-09,1,,,,,エヌエムトレーディング,0
489,2220005008691,新規,0,2022-08-09,2022-08-09,穴水町特定地域づくり事業協同組合,,その他の設立登記法人,石川県,鳳珠郡穴水町,字志ケ浦１６の６番地１１５,,17,461,9270035,,,,,,,2022-08-09,1,,,,,アナミズマチトクテイチイキヅクリ,0
498,2240001060199,新規,0,2022-08-09,2022-08-09,株式会社エスエイト,,株式会社,広島県,広島市中区,橋本町１番１３－４０１号,,34,101,7300015,,,,,,,2022-08-09,1,,,,,エスエイト,0
506,2290001098466,新規,0,2022-08-09,2022-08-09,株式会社福岡通商,,株式会社,福岡県,糟屋郡久山町,大字久原４１８７番地１ヴァンベール弐番館１０２,,40,348,8112501,,,,,,,2022-08-09,1,,,,,フクオカツウショウ,0
507,2290001098524,新規,0,2022-08-09,2022-08-09,株式会社ギガ・システムズ,,株式会社,福岡県,春日市,惣利１丁目１１５,,40,218,8160813,,,,,,,2022-08-09,1,,,,,ギガシステムズ,0
522,2340001024953,新規,0,2022-08-09,2022-08-09,株式会社有上設備,,株式会社,鹿児島県,鹿児島市,春山町２２９番地５,,46,201,8992704,,,,,,,2022-08-09,1,,,,,アリウエセツビ,0
525,2360001030776,新規,0,2022-08-09,2022-08-09,株式会社ＹＵＭＥ‐ＢＵＫＩ,,株式会社,沖縄県,中頭郡読谷村,字座喜味５７７番地,,47,324,9040301,,,,,,,2022-08-09,1,,,,,ユメブキ,0
526,2360001030792,新規,0,2022-08-09,2022-08-09,株式会社リッキーカスタム,,株式会社,沖縄県,中頭郡中城村,字添石３８５番地,,47,328,9012404,,,,,,,2022-08-09,1,,,,,リッキーカスタム,0
527,2360001030826,新規,0,2022-08-09,2022-08-09,株式会社三徹,,株式会社,沖縄県,豊見城市,字伊良波６８２番地５ディアコート１０２号室,,47,212,9010232,,,,,,,2022-08-09,1,,,,,サンテツ,0
538,2370005010518,新規,0,2022-08-09,2022-08-09,一般社団法人ございん八木山,,その他の設立登記法人,宮城県,仙台市太白区,八木山東２丁目２４番１４号,,04,104,9820802,,,,,,,2022-08-09,1,,,,,ゴザインヤギヤマ,0
542,2380001033042,新規,0,2022-08-09,2022-08-09,株式会社ｗｉｄｅｒ,,株式会社,福島県,白河市,北堀切３６番地５ＳＫＹＣＵＢＥ新白河Ｂ４号,,07,205,9610974,,,,,,,2022-08-09,1,,,,,ウィダー,0
556,2430001087248,新規,0,2022-08-09,2022-08-09,株式会社時空観測,,株式会社,北海道,札幌市北区,新琴似八条１５丁目６番２１号,,01,102,0010908,,,,,,,2022-08-09,1,,,,,ジクウカンソク,0
558,2430003014175,新規,0,2022-08-09,2022-08-09,ＢＲＩＧＨＴＥＤ合同会社,,合同会社,北海道,札幌市中央区,北一条西２８丁目１番８号,,01,101,0640821,,,,,,,2022-08-09,1,,,,,ブライテッド,0
563,2440003001478,新規,0,2022-08-09,2022-08-09,ツクリエビューティー合同会社,,合同会社,北海道,函館市,末広町１４－１ウエストサイドテラス１Ｆ,,01,202,0400053,,,,,,,2022-08-09,1,,,,,,0
566,2470001019206,新規,0,2022-08-09,2022-08-09,株式会社三木町学校給食施設,,株式会社,香川県,木田郡三木町,大字池戸１７９０番地２,,37,341,7610701,,,,,,,2022-08-09,1,,,,,ミキチョウガッコウキュウショクシセツ,0
568,2500001024383,新規,0,2022-08-09,2022-08-09,株式会社津田建築工房,,株式会社,愛媛県,松山市,和気町２丁目８７６番地６,,38,201,7992656,,,,,,,2022-08-09,1,,,,,ツダケンチクコウボウ,0
569,2500001024391,新規,0,2022-08-09,2022-08-09,株式会社スタンダーズ,,株式会社,愛媛県,松山市,古川北３丁目１０番２５号Ａ,,38,201,7900942,,,,,,,2022-08-09,1,,,,,スタンダーズ,0
571,2700150111094,新規,0,2022-08-09,2022-08-09,アクティス・リミテッド,,外国会社等,東京都,港区,六本木７丁目１２番２号Ｒ７ビルディング六本木,,13,103,1060032,中華人民共和国香港特別行政区上環、コンノート・ロード・セントラル１１１、ウィング・オン・センター６階６０５－０７号,,,,,,2022-08-09,1,,,,,アクテイスリミテツド,0
580,3010001228636,新規,0,2022-08-09,2022-08-09,株式会社銀昌閣,,株式会社,東京都,千代田区,丸の内２丁目２－１岸本ビルヂング２階２１３区,,13,101,1000005,,,,,,,2022-08-09,1,,,,,ギンショウカク,0
581,3010001228660,新規,0,2022-08-09,2022-08-09,ＴＣ　Ｊａｐａｎ株式会社,,株式会社,東京都,千代田区,内幸町１丁目３番１号幸ビルディング９階,,13,101,1000011,,,,,,,2022-08-09,1,,,,,ティーシージャパン,0
586,3010003038348,新規,0,2022-08-09,2022-08-09,ＰＭ　Ｗｏｒｋｓ合同会社,,合同会社,東京都,千代田区,麹町５丁目５番地２６ＤＵＡＲＥＳ麹町５０２号,,13,101,1020083,,,,,,,2022-08-09,1,,,,,ピーエムワークス,0
600,3010405021265,新規,0,2022-08-09,2022-08-09,一般社団法人ＬＳ１,,その他の設立登記法人,東京都,港区,虎ノ門５丁目１番４号,,13,103,1050001,,,,,,,2022-08-09,1,,,,,エルエスワン,0
601,3010405021281,新規,0,2022-08-09,2022-08-09,一般社団法人ＭＴＲＥＳ,,その他の設立登記法人,東京都,港区,元赤坂１丁目１番７号,,13,103,1070051,,,,,,,2022-08-09,1,,,,,エムティーアールイーエス,0
606,3010603009681,新規,0,2022-08-09,2022-08-09,ＣＩＮＧ　ＩＮＴＥＲＮＡＴＩＯＮＡＬ合同会社,,合同会社,東京都,江東区,東雲１丁目９番５０号,,13,108,1350062,,,,,,,2022-08-09,1,,,,,シングインターナショナル,0
612,3010703006348,新規,0,2022-08-09,2022-08-09,リュミエール合同会社,,合同会社,東京都,品川区,上大崎２丁目１８番２５号,,13,109,1410021,,,,,,,2022-08-09,1,,,,,リュミエール,0
625,3011001149013,新規,0,2022-08-09,2022-08-09,株式会社Ａｋａｔｓｕｋｉ,,株式会社,東京都,渋谷区,上原２丁目２８－５ＴＨＥパームス代々木上原ヴェールテラス４０４,,13,113,1510064,,,,,,,2022-08-09,1,,,,,アカツキ,0
627,3011003015188,新規,0,2022-08-09,2022-08-09,コンパスビズ合同会社,,合同会社,東京都,渋谷区,幡ヶ谷１丁目１７－６－１０８パークハビオ笹塚,,13,113,1510072,,,,,,,2022-08-09,1,,,,,コンパスビズ,0
636,3011501028369,新規,0,2022-08-09,2022-08-09,株式会社バラストワン,,株式会社,東京都,北区,上十条４丁目２番１６－９０６号,,13,117,1140034,,,,,,,2022-08-09,1,,,,,バラストワン,0
652,3012705002317,新規,0,2022-08-09,2022-08-09,こまいぬ行政書士法人,,その他の設立登記法人,東京都,西東京市,富士町４丁目８番の９小菅ハイツ１０１号室,,13,229,2020014,,,,,,,2022-08-09,1,,,,,コマイヌ,0
655,3012801021781,新規,0,2022-08-09,2022-08-09,株式会社朝穂建設,,株式会社,東京都,東大和市,南街５丁目６６－９－２Ｆ,,13,220,2070014,,,,,,,2022-08-09,1,,,,,アサホケンセツ,0
659,3013301049470,新規,0,2022-08-09,2022-08-09,株式会社メディカルコーディネート,,株式会社,東京都,豊島区,池袋２丁目４３番１号,,13,116,1710014,,,,,,,2022-08-09,1,,,,,メディカルコーディネート,0
666,3020001147653,新規,0,2022-08-09,2022-08-09,カラフル・デザイン・ラボ株式会社,,株式会社,神奈川県,横浜市泉区,緑園４丁目３番地１サンステージ緑園都市東の街３番館１０２号,,14,116,2450002,,,,,,,2022-08-09,1,,,,,カラフルデザインラボ,0
691,3030001149582,新規,0,2022-08-09,2022-08-09,ジュンアイ不動産株式会社,,株式会社,埼玉県,深谷市,上柴町西５丁目１－３,,11,218,3660052,,,,,,,2022-08-09,1,,,,,ジュンアイフドウサン,0
702,3040003020600,新規,0,2022-08-09,2022-08-09,光代合同会社,,合同会社,千葉県,山武郡九十九里町,片貝２７５４番地,,12,403,2830104,,,,,,,2022-08-09,1,,,,,コウダイ,0
704,3040005021695,新規,0,2022-08-09,2022-08-09,特定非営利活動法人木更津クリケット協会,,その他の設立登記法人,千葉県,木更津市,畔戸１３５０番地２８,,12,206,2920005,,,,,,,2022-08-09,1,,,,,キサラズクリケットキョウカイ,0
705,3050003006755,新規,0,2022-08-09,2022-08-09,合同会社エヌ・プランニング,,合同会社,茨城県,水戸市,堀町１８１３番地,,08,201,3100903,,,,,,,2022-08-09,1,,,,,エヌプランニング,0
712,3070003004583,新規,0,2022-08-09,2022-08-09,合同会社ＡＫＯＳ　Ｇｒｏｕｐ　ＬＬＣ,,合同会社,群馬県,伊勢崎市,境西今井６番地１５,,10,204,3700112,,,,,,,2022-08-09,1,,,,,アコスグループエルエルシー,0
715,3080001025127,新規,0,2022-08-09,2022-08-09,株式会社ｐｏｎｏ,,株式会社,静岡県,静岡市駿河区,寺田２６３番地の４,,22,102,4210137,,,,,,,2022-08-09,1,,,,,ポノ,0
716,3080003002850,新規,0,2022-08-09,2022-08-09,合同会社はっぴー,,合同会社,静岡県,静岡市清水区,巴町２番１３号,,22,103,4240829,,,,,,,2022-08-09,1,,,,,ハッピー,0
718,3080101023476,新規,0,2022-08-09,2022-08-09,株式会社ＴＳイノベーション,,株式会社,静岡県,三島市,谷田１６８番地の１エトワールＫ－３０５,,22,206,4110801,,,,,,,2022-08-09,1,,,,,ティーエスイノベーション,0
720,3080401025998,新規,0,2022-08-09,2022-08-09,株式会社久智,,株式会社,静岡県,浜松市東区,神立町１４０番地の２,,22,132,4300801,,,,,,,2022-08-09,1,,,,,ヒサトモ,0
721,3090001017718,新規,0,2022-08-09,2022-08-09,株式会社ＯＢＪ,,株式会社,山梨県,甲斐市,竜王９７１番地６,,19,210,4000118,,,,,,,2022-08-09,1,,,,,オービージェイ,0
724,3100003006650,新規,0,2022-08-09,2022-08-09,合同会社ＫＳＫ,,合同会社,長野県,安曇野市,豊科高家３６４６番地３５,,20,220,3998204,,,,,,,2022-08-09,1,,,,,ケーエスケー,0
740,3120001247971,新規,0,2022-08-09,2022-08-09,株式会社スマートフィックス,,株式会社,大阪府,大阪市北区,梅田１丁目１番３号大阪駅前第三ビル７階,,27,127,5300001,,,,,,,2022-08-09,1,,,,,スマートフィックス,0
741,3120001248020,新規,0,2022-08-09,2022-08-09,株式会社ＹＭ　ＪＡＰＡＮ,,株式会社,大阪府,大阪市浪速区,元町１丁目９番６号丸元仲ビル７０１号室,,27,111,5560016,,,,,,,2022-08-09,1,,,,,ワイエムジャパン,0
742,3120001248061,新規,0,2022-08-09,2022-08-09,株式会社Ｙ．施工,,株式会社,大阪府,門真市,本町２９番３号Ａ－０４,,27,223,5710046,,,,,,,2022-08-09,1,,,,,ワイセコウ,0
743,3120001248103,新規,0,2022-08-09,2022-08-09,ＭＩＭＯ株式会社,,株式会社,大阪府,大阪市城東区,新喜多１丁目２番７号,,27,118,5360015,,,,,,,2022-08-09,1,,,,,ミモ,0
744,3120001248111,新規,0,2022-08-09,2022-08-09,株式会社エルズグラン,,株式会社,大阪府,大阪市北区,錦町３番８号,,27,127,5300034,,,,,,,2022-08-09,1,,,,,エルズグラン,0
747,3120003022225,新規,0,2022-08-09,2022-08-09,カネヒロ合同会社,,合同会社,大阪府,大阪市東成区,東小橋１丁目１５番２号メゾン玉造３０１号,,27,115,5370024,,,,,,,2022-08-09,1,,,,,カネヒロ,0
748,3120003022233,新規,0,2022-08-09,2022-08-09,合同会社リクリーンプラス技研,,合同会社,大阪府,大阪市淀川区,西中島４丁目７番８号－７Ｄ,,27,123,5320011,,,,,,,2022-08-09,1,,,,,リクリーンプラスギケン,0
749,3120005023130,新規,0,2022-08-09,2022-08-09,行政書士法人ＭＩＲＩＳＥ,,その他の設立登記法人,大阪府,大阪市中央区,大手通１丁目３番５号ＫＴ大手通ビル２階Ｂ号室,,27,128,5400021,,,,,,,2022-08-09,1,,,,,ミライズ,0
752,3120103004809,新規,0,2022-08-09,2022-08-09,ワクラ合同会社,,合同会社,大阪府,岸和田市,下松町１丁目１０番１５号,,27,202,5960823,,,,,,,2022-08-09,1,,,,,ワクラ,0
755,3120901046358,新規,0,2022-08-09,2022-08-09,株式会社小野商会,,株式会社,大阪府,摂津市,一津屋３丁目４番４号,,27,224,5660043,,,,,,,2022-08-09,1,,,,,オノショウカイ,0
756,3130001072378,新規,0,2022-08-09,2022-08-09,株式会社Ｓｏａｒｉｎｇ,,株式会社,京都府,京都市西京区,桂野里町５０番地７５アソシエイト和田第一ビル４Ｆ,,26,111,6158073,,,,,,,2022-08-09,1,,,,,ソアリング,0
757,3130005016538,新規,0,2022-08-09,2022-08-09,特定非営利活動法人ＤＡＮＤＥＬＩＯＮデザイン事務所,,その他の設立登記法人,京都府,京都市中京区,町頭町１１２,,26,104,6048206,,,,,,,2022-08-09,1,,,,,ダンデライオンデザインジムショ,0
761,3140001126991,新規,0,2022-08-09,2022-08-09,株式会社大久保工務店,,株式会社,兵庫県,伊丹市,野間６丁目２番１２－２０２号,,28,207,6640873,,,,,,,2022-08-09,1,,,,,オオクボコウムテン,0
764,3140003017999,新規,0,2022-08-09,2022-08-09,ベンダーリンク合同会社,,合同会社,兵庫県,姫路市,六角１０８番地１,,28,201,6712242,,,,,,,2022-08-09,1,,,,,ベンダーリンク,0
767,3160001024426,新規,0,2022-08-09,2022-08-09,株式会社ＬＩＦＩＸ,,株式会社,滋賀県,栗東市,霊仙寺６丁目７番１号,,25,208,5203035,,,,,,,2022-08-09,1,,,,,リフィックス,0
768,3160001024434,新規,0,2022-08-09,2022-08-09,株式会社ＡＩビル,,株式会社,滋賀県,大津市,鶴の里２０番５号,,25,201,5200826,,,,,,,2022-08-09,1,,,,,エイアイビル,0
769,3170001017222,新規,0,2022-08-09,2022-08-09,株式会社晃和,,株式会社,和歌山県,紀の川市,藤井８５番地,,30,208,6496514,,,,,,,2022-08-09,1,,,,,コウワ,0
770,3170003001760,新規,0,2022-08-09,2022-08-09,合同会社ｇ‐ｌａｂ,,合同会社,和歌山県,田辺市,稲成町字南江原２９８番地１,,30,206,6460051,,,,,,,2022-08-09,1,,,,,ジーラボ,0
776,3180001152514,新規,0,2022-08-09,2022-08-09,株式会社グローバルリサーチ,,株式会社,愛知県,名古屋市中区,栄５丁目１９番２４号（プレサンスＴＨＥ栄３０２号）,,23,106,4600008,,,,,,,2022-08-09,1,,,,,グローバルリサーチ,0
777,3180001152530,新規,0,2022-08-09,2022-08-09,株式会社スノーボール,,株式会社,愛知県,名古屋市名東区,猪高台１丁目４１８番地の３,,23,115,4650028,,,,,,,2022-08-09,1,,,,,スノーボール,0
779,3180003024133,新規,0,2022-08-09,2022-08-09,合同会社Ｇｏｏｄ　Ｇａｒａｇｅ,,合同会社,愛知県,名古屋市名東区,猪子石原１丁目９０６番地,,23,115,4650008,,,,,,,2022-08-09,1,,,,,グッドガレージ,0
780,3180003024141,新規,0,2022-08-09,2022-08-09,合同会社阿部不動産,,合同会社,愛知県,名古屋市東区,代官町１番１６号ヴェルビュ代官町１４０３号,,23,102,4610002,,,,,,,2022-08-09,1,,,,,アベフドウサン,0
791,3200003005642,新規,0,2022-08-09,2022-08-09,合同会社あさみ商会,,合同会社,岐阜県,多治見市,白山町１丁目５６番地の１ロフティ多治見駅前ＩＩ－７０３,00127481,21,204,5070038,,,,,,,2022-08-09,1,,,,,アサミショウカイ,0
792,3200005013379,新規,0,2022-08-09,2022-08-09,ＪＮ事業協同組合,,その他の設立登記法人,岐阜県,可児市,瀬田１０２番地２,,21,214,5090213,,,,,,,2022-08-09,1,,,,,ジェイエヌ,0
802,3240001060198,新規,0,2022-08-09,2022-08-09,株式会社ｉｍｐｅｒｆｅｃｔ,,株式会社,広島県,広島市佐伯区,五日市７丁目１３番１６号,,34,108,7315127,,,,,,,2022-08-09,1,,,,,インパーフェクト,0
803,3240001060215,新規,0,2022-08-09,2022-08-09,株式会社北條,,株式会社,広島県,広島市安佐南区,八木４丁目２９番４６号,,34,105,7310101,,,,,,,2022-08-09,1,,,,,ホウジョウ,0
808,3250001019706,新規,0,2022-08-09,2022-08-09,和のよろこび株式会社,,株式会社,山口県,岩国市,川西１丁目２１番１９号,,35,208,7410082,,,,,,,2022-08-09,1,,,,,ワノヨロコビ,0
815,3260001037129,新規,0,2022-08-09,2022-08-09,株式会社Ａｓｒｙ　Ｃｏｒｐｏｒａｔｉｏｎ,,株式会社,岡山県,岡山市南区,彦崎２８２６番地２２,,33,104,7091213,,,,,,,2022-08-09,1,,,,,アスリーコーポレーション,0
820,3280001008763,新規,0,2022-08-09,2022-08-09,ＩＭＧ株式会社,,株式会社,島根県,雲南市,加茂町東谷２６番地２,,32,209,6991113,,,,,,,2022-08-09,1,,,,,アイエムジー,0
828,3290001098440,新規,0,2022-08-09,2022-08-09,株式会社ＢＥＳＴ,,株式会社,福岡県,古賀市,天神３丁目５番５号,,40,223,8113101,,,,,,,2022-08-09,1,,,,,ベスト,0
829,3290001098515,新規,0,2022-08-09,2022-08-09,株式会社ｅｎ‐ｊｉｎ,,株式会社,福岡県,福岡市博多区,麦野４丁目９番１５号,,40,132,8120882,,,,,,,2022-08-09,1,,,,,エンジン,0
830,3290001098531,新規,0,2022-08-09,2022-08-09,株式会社グローチア,,株式会社,福岡県,福岡市中央区,天神１丁目１番１号,,40,133,8100001,,,,,,,2022-08-09,1,,,,,グローチア,0
833,3290801028803,新規,0,2022-08-09,2022-08-09,株式会社吉田,,株式会社,福岡県,北九州市戸畑区,新池２丁目１２番１９－２０１号,,40,105,8040082,,,,,,,2022-08-09,1,,,,,ヨシダ,0
840,3360001030791,新規,0,2022-08-09,2022-08-09,株式会社グッドワンホールディングス,,株式会社,沖縄県,うるま市,石川１丁目４０番１号,,47,213,9041106,,,,,,,2022-08-09,1,,,,,グッドワンホールディングス,0
841,3360001030809,新規,0,2022-08-09,2022-08-09,株式会社芭蕉,,株式会社,沖縄県,那覇市,字仲井真１３０番地２,,47,201,9020074,,,,,,,2022-08-09,1,,,,,バショウ,0
850,3400003002966,新規,0,2022-08-09,2022-08-09,アクロス合同会社,,合同会社,岩手県,滝沢市,穴口３０５番地１３,,03,216,0200633,,,,,,,2022-08-09,1,,,,,アクロス,0
851,3420001017964,新規,0,2022-08-09,2022-08-09,株式会社のどか,,株式会社,青森県,北津軽郡板柳町,大字辻字松元４１番地１,00127470,02,381,0383645,,,,,,,2022-08-09,1,,,,,ノドカ,0
854,3430001087214,新規,0,2022-08-09,2022-08-09,臣創株式会社,,株式会社,北海道,札幌市中央区,南三条西６丁目５セザール第一札幌３０２号,,01,101,0600063,,,,,,,2022-08-09,1,,,,,シンソウ,0
855,3430001087230,新規,0,2022-08-09,2022-08-09,株式会社Ｈｏｒｉｚｏｎｔａｌ　Ｌｉｎｅ,,株式会社,北海道,札幌市南区,澄川四条３丁目３番１０－６０１号,,01,106,0050004,,,,,,,2022-08-09,1,,,,,ホリゾンタルライン,0
856,3430001087239,新規,0,2022-08-09,2022-08-09,株式会社Ｔ‐Ｔｏｍｏ,,株式会社,北海道,虻田郡倶知安町,北三条西２丁目９番地５,,01,400,0440053,,,,,,,2022-08-09,1,,,,,ティートモ,0
857,3430001087247,新規,0,2022-08-09,2022-08-09,株式会社ＤｉｎｉｎｇＲ,,株式会社,北海道,札幌市中央区,南四条西８丁目６番地３,,01,101,0640804,,,,,,,2022-08-09,1,,,,,ダイニングアール,0
858,3430001087263,新規,0,2022-08-09,2022-08-09,株式会社ＳｅＶｅｎジャパン,,株式会社,北海道,江別市,萌えぎ野西２９番地１５,,01,217,0670059,,,,,,,2022-08-09,1,,,,,セブンジャパン,0
859,3430001087305,新規,0,2022-08-09,2022-08-09,ＯｎｅＴｒｅｅ株式会社,,株式会社,北海道,札幌市白石区,栄通２０丁目３番２９号,,01,104,0030021,,,,,,,2022-08-09,1,,,,,ワンツリー,0
861,3470001019205,新規,0,2022-08-09,2022-08-09,株式会社エムグリーンサポート,,株式会社,香川県,坂出市,府中町４４４２番地２,,37,203,7620024,,,,,,,2022-08-09,1,,,,,エムグリーンサポート,0
862,3470001019213,新規,0,2022-08-09,2022-08-09,株式会社Ｌｉｌｙ,,株式会社,香川県,高松市,松福町１丁目４番１２号,,37,201,7600067,,,,,,,2022-08-09,1,,,,,リリー,0
869,3500001024390,新規,0,2022-08-09,2022-08-09,株式会社ＳＴ・システム,,株式会社,愛媛県,西条市,丹原町願連寺２５４番地８７,,38,206,7910502,,,,,,,2022-08-09,1,,,,,エスティシステム,0
878,4010001228635,新規,0,2022-08-09,2022-08-09,丸の内クリーンテックパートナーズ株式会社,,株式会社,東京都,千代田区,丸の内２丁目３番１号,,13,101,1000005,,,,,,,2022-08-09,1,,,,,マルノウチクリーンテックパートナーズ,0
889,4010101015280,新規,0,2022-08-09,2022-08-09,株式会社ダブラス,,株式会社,東京都,八王子市,本町２９番１９号２Ｆ,,13,201,1920066,,,,,,,2022-08-09,1,,,,,ダブラス,0
890,4010101015289,新規,0,2022-08-09,2022-08-09,株式会社ワイエスクラフト,,株式会社,東京都,八王子市,暁町２丁目６番１５号朝日プラザ八王子１０４号,,13,201,1920043,,,,,,,2022-08-09,1,,,,,ワイエスクラフト,0
900,4010403028212,新規,0,2022-08-09,2022-08-09,Ｍ’Ｓアセットマネジメント合同会社,,合同会社,東京都,港区,浜松町２丁目２番１５号浜松町ダイヤビル２Ｆ,,13,103,1050013,,,,,,,2022-08-09,1,,,,,エムズアセットマネジメント,0
901,4010403028229,新規,0,2022-08-09,2022-08-09,合同会社Ｂｒａｎｔｏｍｅ,,合同会社,東京都,港区,虎ノ門５丁目１番４号,,13,103,1050001,,,,,,,2022-08-09,1,,,,,ブラントーム,0
902,4010405021264,新規,0,2022-08-09,2022-08-09,一般社団法人Ｂｒａｎｔｏｍｅ,,その他の設立登記法人,東京都,港区,虎ノ門５丁目１番４号,,13,103,1050001,,,,,,,2022-08-09,1,,,,,ブラントーム,0
905,4010601061576,新規,0,2022-08-09,2022-08-09,ジェーコクリエーション株式会社,,株式会社,東京都,江東区,東砂１丁目４番９号本田ビル１０１号室,,13,108,1360074,,,,,,,2022-08-09,1,,,,,ジェーコクリエーション,0
906,4010601061618,新規,0,2022-08-09,2022-08-09,株式会社ＦＯＲＭＯＳＡ,,株式会社,東京都,墨田区,緑４丁目２４番１９－５０１号,,13,107,1300021,,,,,,,2022-08-09,1,,,,,フォルモサ,0
912,4010703006347,新規,0,2022-08-09,2022-08-09,合同会社アートオブサイエンス,,合同会社,東京都,品川区,西五反田８丁目１番７号,,13,109,1410031,,,,,,,2022-08-09,1,,,,,アートオブサイエンス,0
918,4011001149061,新規,0,2022-08-09,2022-08-09,Ｎｏｃｋｅｒ株式会社,,株式会社,東京都,渋谷区,道玄坂１丁目１０番８号渋谷道玄坂東急ビル２Ｆ－Ｃ,,13,113,1500043,,,,,,,2022-08-09,1,,,,,ノッカー,0
919,4011001149128,新規,0,2022-08-09,2022-08-09,ＨＨＨ株式会社,,株式会社,東京都,渋谷区,恵比寿３丁目３番１１号パラシオン恵比寿１０２号室,,13,113,1500013,,,,,,,2022-08-09,1,,,,,トリプルエッチ,0
925,4011303004492,新規,0,2022-08-09,2022-08-09,合同会社ｔａａｔ,,合同会社,東京都,杉並区,下井草１丁目２９番１９号,,13,115,1670022,,,,,,,2022-08-09,1,,,,,ティーエイエイティー,0
929,4011601026164,新規,0,2022-08-09,2022-08-09,株式会社ＮＥＯ,,株式会社,東京都,練馬区,大泉町６丁目２８番２１号,,13,120,1780062,,,,,,,2022-08-09,1,,,,,ネオ,0
943,4012701017202,新規,0,2022-08-09,2022-08-09,株式会社オフィス武陽ＨＧ,,株式会社,東京都,清瀬市,元町１丁目２番１１号,,13,221,2040021,,,,,,,2022-08-09,1,,,,,オフィスブヨウエイチジー,0
944,4012703002508,新規,0,2022-08-09,2022-08-09,合同会社アドウインド１０１,,合同会社,東京都,西東京市,芝久保町１丁目４番１７－３０３号,,13,229,1880014,,,,,,,2022-08-09,1,,,,,アドウインドイチマルイチ,0
945,4012801021772,新規,0,2022-08-09,2022-08-09,株式会社Ｄｅｔｏｘ,,株式会社,東京都,国立市,東１丁目１５番地の１１大学通り４４８ビル地下１階,,13,215,1860002,,,,,,,2022-08-09,1,,,,,デトックス,0
953,4020003022218,新規,0,2022-08-09,2022-08-09,エイケイツー合同会社,,合同会社,神奈川県,川崎市中原区,井田中ノ町２番３－４０５号,,14,133,2110034,,,,,,,2022-08-09,1,,,,,エイケイツー,0
974,4030001149598,新規,0,2022-08-09,2022-08-09,株式会社豊和,,株式会社,埼玉県,川口市,西青木２丁目１４番１６－３０４号,,11,203,3320035,,,,,,,2022-08-09,1,,,,,ホウワ,0
979,4040001124617,新規,0,2022-08-09,2022-08-09,千川商事株式会社,,株式会社,千葉県,松戸市,西馬橋幸町１１２ロイヤルパレス３０４号室,,12,207,2710047,,,,,,,2022-08-09,1,,,,,センガワショウジ,0
982,4040003020590,新規,0,2022-08-09,2022-08-09,ＧＯＶＩＮＳＩＳ合同会社,,合同会社,千葉県,千葉市若葉区,千城台北１丁目２３番１号第１クロスビル１０１,,12,104,2640005,,,,,,,2022-08-09,1,,,,,ゴヴィンシス,0
984,4040005021694,新規,0,2022-08-09,2022-08-09,一般社団法人視覚情報サポートラジオ,,その他の設立登記法人,千葉県,千葉市中央区,新千葉２丁目１０番１０号ニューリーブス３０６号,,12,101,2600031,,,,,,,2022-08-09,1,,,,,シカクジョウホウサポートラジオ,0
994,4050003006754,新規,0,2022-08-09,2022-08-09,合同会社ぎんかく,,合同会社,茨城県,牛久市,栄町４丁目１８８番地４,,08,219,3001233,,,,,,,2022-08-09,1,,,,,ギンカク,0
995,4050005013121,新規,0,2022-08-09,2022-08-09,一般社団法人笠間スポーツコミッション,,その他の設立登記法人,茨城県,笠間市,笠間２２５５番地３,,08,216,3091611,,,,,,,2022-08-09,1,,,,,カサマスポーツコミッション,0
998,4060001035168,新規,0,2022-08-09,2022-08-09,株式会社フロンティア,,株式会社,栃木県,さくら市,上河戸８１９番地３,,09,214,3291401,,,,,,,2022-08-09,1,,,,,フロンティア,0
1008,4100005012902,新規,0,2022-08-09,2022-08-09,一般社団法人阿智村全村博物館協会,,その他の設立登記法人,長野県,下伊那郡阿智村,駒場１１５１番地,,20,407,3950303,,,,,,,2022-08-09,1,,,,,アチムラゼンソンハクブツカンキョウカイ,0
1020,4120001247806,新規,0,2022-08-09,2022-08-09,甜蜜陽光Ｓｗｅｅｔ　Ｓｕｎ株式会社,,株式会社,大阪府,大阪市天王寺区,空清町４－１１杉野ビル本館１０３号室,,27,109,5430018,,,,,,,2022-08-09,1,,,,,テンミツヨウコウスイートサン,0
1021,4120001247962,新規,0,2022-08-09,2022-08-09,株式会社オー・エム,,株式会社,大阪府,大阪市住吉区,大領２丁目８番１３号,,27,120,5580001,,,,,,,2022-08-09,1,,,,,オーエム,0
1022,4120001248044,新規,0,2022-08-09,2022-08-09,金明株式会社,,株式会社,大阪府,大阪市平野区,平野市町１丁目１－１３申野オフィス３０１号室,,27,126,5470042,,,,,,,2022-08-09,1,,,,,キンメイ,0
1023,4120001248060,新規,0,2022-08-09,2022-08-09,株式会社ＩＡＭ,,株式会社,大阪府,大阪市淀川区,宮原３丁目４番３０号,,27,123,5320003,,,,,,,2022-08-09,1,,,,,アイエイエム,0
1026,4120003022224,新規,0,2022-08-09,2022-08-09,合同会社スグレモン,,合同会社,大阪府,大阪市淀川区,田川北２丁目３番１７号,,27,123,5320021,,,,,,,2022-08-09,1,,,,,スグレモン,0
1027,4120003022249,新規,0,2022-08-09,2022-08-09,イルカ合同会社,,合同会社,大阪府,大阪市西成区,山王２丁目５番４号山王アパート２階,,27,122,5570001,,,,,,,2022-08-09,1,,,,,イルカ,0
1032,4120105009607,新規,0,2022-08-09,2022-08-09,特定非営利活動法人団地ライフラボａｔ茶山台,,その他の設立登記法人,大阪府,堺市南区,茶山台２丁２番１０棟３０５,,27,145,5900115,,,,,,,2022-08-09,1,,,,,ダンチライフラボアットチャヤマダイ,0
1034,4120901046357,新規,0,2022-08-09,2022-08-09,ＬｏＭ．株式会社,,株式会社,大阪府,池田市,旭丘１丁目２番８－２０２号,,27,204,5630022,,,,,,,2022-08-09,1,,,,,エルオーエム,0
1038,4130001072385,新規,0,2022-08-09,2022-08-09,株式会社ユモリ,,株式会社,京都府,舞鶴市,字堂奥１３５１番地,,26,202,6250044,,,,,,,2022-08-09,1,,,,,ユモリ,0
1044,4140001126990,新規,0,2022-08-09,2022-08-09,エスケーリビング株式会社,,株式会社,兵庫県,姫路市,保城２０番１８号,,28,201,6700804,,,,,,,2022-08-09,1,,,,,エスケーリビング,0
1050,4140003017998,新規,0,2022-08-09,2022-08-09,合同会社ＨＩＤＥＭＡＲＩ,,合同会社,兵庫県,神戸市中央区,北野町１丁目１番地,,28,110,6500002,,,,,,,2022-08-09,1,,,,,ヒデマリ,0
1051,4140005026270,新規,0,2022-08-09,2022-08-09,一般社団法人かえるかなえる研究所,,その他の設立登記法人,兵庫県,高砂市,高砂町鍛冶屋町１４１４ＬＩＮＣＴａｋａｓａｇｏ１Ｆ,,28,216,6760000,,,,,,,2022-08-09,1,,,,,カエルカナエルケンキュウショ,0
1053,4160001024417,新規,0,2022-08-09,2022-08-09,株式会社カーフィールドヨシオカ,,株式会社,滋賀県,愛知郡愛荘町,石橋７２６番地,,25,425,5291311,,,,,,,2022-08-09,1,,,,,カーフィールドヨシオカ,0
1054,4160001024441,新規,0,2022-08-09,2022-08-09,愛亀株式会社,,株式会社,滋賀県,大津市,大江３丁目３０番８号,,25,201,5202141,,,,,,,2022-08-09,1,,,,,アイキ,0
1056,4170001017221,新規,0,2022-08-09,2022-08-09,株式会社共建,,株式会社,和歌山県,紀の川市,貴志川町井ノ口２０２番地,,30,208,6400424,,,,,,,2022-08-09,1,,,,,キョウケン,0
1059,4180001152414,新規,0,2022-08-09,2022-08-09,株式会社ＳＯＬＡＲ,,株式会社,愛知県,一宮市,大和町毛受字八幡前２１－２,,23,203,4910932,,,,,,,2022-08-09,1,,,,,ソーラー,0
1060,4180001152496,新規,0,2022-08-09,2022-08-09,株式会社オクムラショウカイ,,株式会社,愛知県,あま市,坂牧大塚１５番地,00127473,23,237,4901115,,,,,,,2022-08-09,1,,,,,オクムラショウカイ,0
1061,4180001152505,新規,0,2022-08-09,2022-08-09,株式会社ｎｅｋｏｎｏｔｅ,,株式会社,愛知県,愛西市,日置町八百歩１６９番地１,,23,232,4960906,,,,,,,2022-08-09,1,,,,,ネコノテ,0
1062,4180001152521,新規,0,2022-08-09,2022-08-09,株式会社昌盛商事,,株式会社,愛知県,北名古屋市,高田寺東の川３９番地,,23,234,4810011,,,,,,,2022-08-09,1,,,,,ショウセイショウジ,0
1063,4180001152546,新規,0,2022-08-09,2022-08-09,長谷興産株式会社,,株式会社,愛知県,名古屋市港区,大西３丁目６４番地,,23,111,4550861,,,,,,,2022-08-09,1,,,,,ハセコウサン,0
1064,4180001152554,新規,0,2022-08-09,2022-08-09,ＡＯＴＯＭＡＴＯ株式会社,,株式会社,愛知県,名古屋市東区,泉２丁目２８番２４号東和高岳ビル６０３号,,23,102,4610001,,,,,,,2022-08-09,1,,,,,アオトマト,0
1072,4180301036515,新規,0,2022-08-09,2022-08-09,株式会社タイガーマネジメント,,株式会社,愛知県,豊田市,百々町１丁目４１番地,,23,211,4710008,,,,,,,2022-08-09,1,,,,,タイガーマネジメント,0
1079,4190003004059,新規,0,2022-08-09,2022-08-09,合同会社ＥＶＡ　ＧＮＯＳＩＳ,,合同会社,三重県,多気郡明和町,大字大淀甲１５２番地,,24,442,5150302,,,,,,,2022-08-09,1,,,,,エヴァノーシス,0
1089,4240001060197,新規,0,2022-08-09,2022-08-09,株式会社ＺｃＺｃ,,株式会社,広島県,広島市南区,翠２丁目１７番１４－２０２号,,34,103,7340005,,,,,,,2022-08-09,1,,,,,ジィジィ,0
1098,4280001008762,新規,0,2022-08-09,2022-08-09,株式会社金海商会,,株式会社,島根県,仁多郡奥出雲町,三成５９８番地１,,32,343,6991511,,,,,,,2022-08-09,1,,,,,カナウミショウカイ,0
1106,4290001098522,新規,0,2022-08-09,2022-08-09,株式会社ＲＯＬＬ,,株式会社,福岡県,福岡市博多区,比恵町４番２５号,,40,132,8120014,,,,,,,2022-08-09,1,,,,,ロール,0
1108,4290003012811,新規,0,2022-08-09,2022-08-09,テラサカ設備合同会社,,合同会社,福岡県,福岡市博多区,美野島１丁目２６番１７号,,40,132,8120017,,,,,,,2022-08-09,1,,,,,テラサカセツビ,0
1117,4340005009486,新規,0,2022-08-09,2022-08-09,ＮＰＯ法人グッジョブサポート,,その他の設立登記法人,鹿児島県,鹿児島市,泉町５番４号,,46,201,8920822,,,,,,,2022-08-09,1,,,,,グッジョブサポート,0
1125,4380001032983,新規,0,2022-08-09,2022-08-09,株式会社田中葬儀社,,株式会社,福島県,田村市,大越町上大越字湯田３２番地１,,07,211,9634111,,,,,,,2022-08-09,1,,,,,タナカソウギシャ,0
1131,4430001087246,新規,0,2022-08-09,2022-08-09,株式会社村田外装,,株式会社,北海道,札幌市手稲区,前田一条１０丁目３番３５－１０３号,,01,109,0060811,,,,,,,2022-08-09,1,,,,,ムラタガイソウ,0
1132,4430001087312,新規,0,2022-08-09,2022-08-09,株式会社ジャムステーション,,株式会社,北海道,石狩郡当別町,太美スターライト１５０９番地２２９,,01,303,0613779,,,,,,,2022-08-09,1,,,,,ジャムステーション,0
1135,4440005002729,新規,0,2022-08-09,2022-08-09,一般社団法人ことば道場,,その他の設立登記法人,北海道,茅部郡森町,字森川町２７８番地５４,,01,345,0492313,,,,,,,2022-08-09,1,,,,,コトバドウジョウ,0
1137,4460001005725,新規,0,2022-08-09,2022-08-09,株式会社Ｓｅｎｄ　ｌｕｃｋｓ,,株式会社,北海道,釧路市,新釧路町４番２１号,,01,206,0850002,,,,,,,2022-08-09,1,,,,,センドラックス,0
1145,4460301005086,新規,0,2022-08-09,2022-08-09,ｈｙｕｍｉｃ　ｏｆｆｉｃｅ株式会社,,株式会社,北海道,網走市,北三条西４丁目８番地の３,,01,211,0930073,,,,,,,2022-08-09,1,,,,,ヒューミックオフィス,0
1146,4460303000770,新規,0,2022-08-09,2022-08-09,合同会社ＭＹ２,,合同会社,北海道,網走郡美幌町,字新町２丁目５５番地１,,01,543,0920015,,,,,,,2022-08-09,1,,,,,エムワイツー,0
1148,4470001019195,新規,0,2022-08-09,2022-08-09,セトラスホールディングス株式会社,,株式会社,香川県,高松市,磨屋町８番地１,,37,201,7600026,,,,,,,2022-08-09,1,,,,,セトラスホールディングス,0
1160,5010001228576,新規,0,2022-08-09,2022-08-09,華億株式会社,,株式会社,東京都,千代田区,岩本町３丁目１０番７号,,13,101,1010032,,,,,,,2022-08-09,1,,,,,カオク,0
1161,5010001228634,新規,0,2022-08-09,2022-08-09,株式会社ＭａｎｄＩ,,株式会社,東京都,中央区,八丁堀４丁目１０番２号八丁堀ビル６０３号,,13,102,1040032,,,,,,,2022-08-09,1,,,,,エムアンドアイ,0
1162,5010003038354,新規,0,2022-08-09,2022-08-09,エレイス・インベストメント合同会社,,合同会社,東京都,中央区,新川１丁目３０番７－１１０２号,,13,102,1040033,,,,,,,2022-08-09,1,,,,,エレイスインベストメント,0
1170,5010401168711,新規,0,2022-08-09,2022-08-09,株式会社ＮＥＯＭＥ,,株式会社,東京都,港区,芝浦４丁目１２－３６－１５０６,,13,103,1080023,,,,,,,2022-08-09,1,,,,,ネオミー,0
1171,5010401168926,新規,0,2022-08-09,2022-08-09,株式会社Ｅｎｐｏｓｓ,,株式会社,東京都,港区,西新橋３丁目１０番３号西新橋ＨＳビル３階,,13,103,1050003,,,,,,,2022-08-09,1,,,,,エンポス,0
1172,5010401168950,新規,0,2022-08-09,2022-08-09,Ｋｙｏｔｏ株式会社,,株式会社,東京都,港区,白金台２丁目２６番９号,,13,103,1080071,,,,,,,2022-08-09,1,,,,,キョウト,0
1173,5010403028211,新規,0,2022-08-09,2022-08-09,ＳｔｏＭ合同会社,,合同会社,東京都,港区,浜松町２丁目２番１５号浜松町ダイヤビル２Ｆ,,13,103,1050013,,,,,,,2022-08-09,1,,,,,エストゥーエム,0
1174,5010403028236,新規,0,2022-08-09,2022-08-09,合同会社ＰＴＫ,,合同会社,東京都,港区,虎ノ門５丁目３番２０号株式会社アカウンティング・マネジメント・サービス内,,13,103,1050001,,,,,,,2022-08-09,1,,,,,ピーティーケー,0
1175,5010405021263,新規,0,2022-08-09,2022-08-09,一般社団法人Ｋｏｉｎｕ,,その他の設立登記法人,東京都,港区,虎ノ門５丁目１番４号,,13,103,1050001,,,,,,,2022-08-09,1,,,,,コイヌ,0
1179,5010601061641,新規,0,2022-08-09,2022-08-09,株式会社９ｉｎｅｖｅｒｓｅ,,株式会社,東京都,墨田区,文花１丁目１８番１３号情報経営イノベーション専門職大学墨田キャンパス内,,13,107,1310044,,,,,,,2022-08-09,1,,,,,ナインバース,0
1180,5010703006346,新規,0,2022-08-09,2022-08-09,合同会社創楽堂,,合同会社,東京都,品川区,大井７丁目３番１４号,,13,109,1400014,,,,,,,2022-08-09,1,,,,,ソウガクドウ,0
1188,5011001149044,新規,0,2022-08-09,2022-08-09,Ｇｒａｐｈ株式会社,,株式会社,東京都,渋谷区,神宮前６丁目２３番４号桑野ビル２階,,13,113,1500001,,,,,,,2022-08-09,1,,,,,グラフ,0
1192,5011101099800,新規,0,2022-08-09,2022-08-09,安正投資株式会社,,株式会社,東京都,新宿区,中町２３番地１パレ神楽坂３０８,,13,104,1620835,,,,,,,2022-08-09,1,,,,,アンセイトウシ,0
1194,5011103012050,新規,0,2022-08-09,2022-08-09,合同会社桂,,合同会社,東京都,新宿区,西新宿３丁目３番１３号西新宿水間ビル６階,,13,104,1600023,,,,,,,2022-08-09,1,,,,,カツラ,0
1195,5011105010341,新規,0,2022-08-09,2022-08-09,一般社団法人Ｍ．ｅ．ｅ,,その他の設立登記法人,東京都,新宿区,新宿６丁目２７番２９－２４０９号,,13,104,1600022,,,,,,,2022-08-09,1,,,,,ミー,0
1196,5011201024022,新規,0,2022-08-09,2022-08-09,株式会社ＳＰＩＮＮＡ　ＢＡＭＢＯＯ,,株式会社,東京都,中野区,丸山２丁目１６番１号,,13,114,1650021,,,,,,,2022-08-09,1,,,,,スピナバンブー,0
1197,5011501028367,新規,0,2022-08-09,2022-08-09,株式会社一本気実業,,株式会社,東京都,北区,滝野川６丁目５５番５－２０２号室,,13,117,1140023,,,,,,,2022-08-09,1,,,,,イッポンギジツギョウ,0
1205,5011801041111,新規,0,2022-08-09,2022-08-09,株式会社ルシエラ,,株式会社,東京都,足立区,東和３丁目４番９－１０１号,,13,121,1200003,,,,,,,2022-08-09,1,,,,,ルシエラ,0
1209,5012401039512,新規,0,2022-08-09,2022-08-09,株式会社インタープログレステクノロジーズ,,株式会社,東京都,三鷹市,北野２丁目４番３２号,,13,204,1810003,,,,,,,2022-08-09,1,,,,,インタープログレステクノロジーズ,0
1211,5013101008996,新規,0,2022-08-09,2022-08-09,共石化学株式会社,,株式会社,東京都,あきる野市,原小宮３２９,,13,228,1970811,,,,,,,2022-08-09,1,,,,,,0
1216,5013305003372,新規,0,2022-08-09,2022-08-09,一般社団法人友愛千登利プランニング,,その他の設立登記法人,東京都,豊島区,西池袋１丁目３７番１５号,,13,116,1710021,,,,,,,2022-08-09,1,,,,,ユウアイチドリプランニング,0
1223,5020001147627,新規,0,2022-08-09,2022-08-09,Ｓｔｙｌｅ　Ａｒｔｓ株式会社,,株式会社,神奈川県,横浜市中区,尾上町４丁目４７番地リスト関内ビル４０３,,14,104,2310015,,,,,,,2022-08-09,1,,,,,スタイルアーツ,0
1224,5020001147668,新規,0,2022-08-09,2022-08-09,株式会社エース,,株式会社,神奈川県,横浜市緑区,長津田みなみ台４丁目１番地１プリマシティＥ－２１０号,,14,113,2260018,,,,,,,2022-08-09,1,,,,,エース,0
1225,5020001147701,新規,0,2022-08-09,2022-08-09,株式会社ｅｌ　ｓｏｌ,,株式会社,神奈川県,横浜市保土ケ谷区,瀬戸ケ谷町２９８番地１１７,,14,106,2400024,,,,,,,2022-08-09,1,,,,,エルソル,0
1235,5021005012585,新規,0,2022-08-09,2022-08-09,一般社団法人私塾まきば,,その他の設立登記法人,神奈川県,中郡大磯町,東小磯５８８,,14,341,2550004,,,,,,,2022-08-09,1,,,,,シジュクマキバ,0
1245,5030001149597,新規,0,2022-08-09,2022-08-09,株式会社ジョンソンワールド,,株式会社,埼玉県,入間市,向陽台１丁目１番地１７駅前プラザ１３－１０３,,11,225,3580001,,,,,,,2022-08-09,1,,,,,ジョンソンワールド,0
1252,5060001035159,新規,0,2022-08-09,2022-08-09,松本ホールディングス株式会社,,株式会社,栃木県,真岡市,並木町２丁目２１番地１,,09,209,3214361,,,,,,,2022-08-09,1,,,,,マツモトホールディングス,0
1261,5080001025125,新規,0,2022-08-09,2022-08-09,株式会社ｆａｃｔ　ｄｅｓｉｇｎ,,株式会社,静岡県,静岡市葵区,若松町８７番地の３ＭＪ若松町１０１,,22,101,4200006,,,,,,,2022-08-09,1,,,,,ファクトデザイン,0
1264,5090001017716,新規,0,2022-08-09,2022-08-09,興和商事株式会社,,株式会社,山梨県,富士吉田市,下吉田１０１９番地,,19,202,4030004,,,,,,,2022-08-09,1,,,,,,0
1269,5110001036878,新規,0,2022-08-09,2022-08-09,松尾不動産レジデンシャル株式会社,,株式会社,新潟県,新潟市中央区,紫竹山２丁目５番２４号,,15,103,9500914,,,,,,,2022-08-09,1,,,,,マツオフドウサンレジデンシャル,0
1275,5120001247945,新規,0,2022-08-09,2022-08-09,株式会社ＩＲＵＤＡ,,株式会社,大阪府,大阪市生野区,中川４丁目１５番３号,,27,116,5440005,,,,,,,2022-08-09,1,,,,,イルダ,0
1276,5120001248076,新規,0,2022-08-09,2022-08-09,華琳株式会社,,株式会社,大阪府,大阪市生野区,田島５丁目２２－１５－１Ｂ,,27,116,5440011,,,,,,,2022-08-09,1,,,,,カリン,0
1282,5120101066064,新規,0,2022-08-09,2022-08-09,株式会社ひはるコーポレーション,,株式会社,大阪府,堺市北区,北長尾町１丁７番１１号長谷川ビル２０３号,,27,146,5918043,,,,,,,2022-08-09,1,,,,,ヒハルコーポレーション,0
1299,5140001127006,新規,0,2022-08-09,2022-08-09,株式会社但馬商会,,株式会社,兵庫県,神戸市兵庫区,大開通３丁目１番３号,,28,105,6520803,,,,,,,2022-08-09,1,,,,,タジマショウカイ,0
1302,5140003018013,新規,0,2022-08-09,2022-08-09,サウナケーション合同会社,,合同会社,兵庫県,南あわじ市,津井２９１９番地,,28,224,6560341,,,,,,,2022-08-09,1,,,,,サウナケーション,0
1304,5150001025753,新規,0,2022-08-09,2022-08-09,株式会社ＳＮＪ,,株式会社,奈良県,天理市,武蔵町５８３番地,,29,204,6320065,,,,,,,2022-08-09,1,,,,,エスエヌジェイ,0
1305,5160001024424,新規,0,2022-08-09,2022-08-09,ＰＤＬ株式会社,,株式会社,滋賀県,大津市,本宮２丁目４３番１０号,,25,201,5200804,,,,,,,2022-08-09,1,,,,,ピーディーエル,0
1308,5160003002642,新規,0,2022-08-09,2022-08-09,合同会社Ｋ．ＡＳＳＥＴＳ,,合同会社,滋賀県,大津市,堅田１丁目１７番１号,,25,201,5200243,,,,,,,2022-08-09,1,,,,,ケイアセッツ,0
1310,5170001017220,新規,0,2022-08-09,2022-08-09,株式会社紀翔工業,,株式会社,和歌山県,紀の川市,古和田１３３番地３,,30,208,6496432,,,,,,,2022-08-09,1,,,,,キショウコウギョウ,0
1319,5180001152520,新規,0,2022-08-09,2022-08-09,株式会社皐月,,株式会社,愛知県,名古屋市名東区,高社１丁目２５８番地リエンピーレ一色７０１号,,23,115,4650095,,,,,,,2022-08-09,1,,,,,サツキ,0
1322,5180005019880,新規,0,2022-08-09,2022-08-09,社会福祉法人鎹,,その他の設立登記法人,愛知県,春日井市,美濃町３丁目２０５番地,,23,206,4860917,,,,,,,2022-08-09,1,,,,,カスガイ,0
1327,5190003004058,新規,0,2022-08-09,2022-08-09,合同会社ランシス,,合同会社,三重県,四日市市,茂福町２２番１４号,,24,202,5108012,,,,,,,2022-08-09,1,,,,,ランシス,0
1329,5200001040359,新規,0,2022-08-09,2022-08-09,株式会社ｉｋｏｉ,,株式会社,岐阜県,加茂郡八百津町,錦織８０８番地１,,21,505,5050302,,,,,,,2022-08-09,1,,,,,イコイ,0
1334,5220001024979,新規,0,2022-08-09,2022-08-09,株式会社Ｔｙｐｅｂａｓｅ,,株式会社,石川県,野々市市,粟田１丁目１５８番地,,17,212,9218823,,,,,,,2022-08-09,1,,,,,タイプベース,0
1341,5240001060205,新規,0,2022-08-09,2022-08-09,株式会社ハウスアシスト,,株式会社,広島県,広島市安佐北区,可部南３丁目６番１９号,,34,106,7310223,,,,,,,2022-08-09,1,,,,,ハウスアシスト,0
1350,5260001037143,新規,0,2022-08-09,2022-08-09,株式会社Ｈａｊｉｍａｒｉ,,株式会社,岡山県,岡山市北区,津島西坂２丁目５番１５号リビンコートプライム津島２０６号,,33,101,7000086,,,,,,,2022-08-09,1,,,,,ハジマリ,0
1361,5290801028792,新規,0,2022-08-09,2022-08-09,株式会社コーエイ機材,,株式会社,福岡県,田川市,大字伊田４９２９番地２,,40,206,8250002,,,,,,,2022-08-09,1,,,,,コーエイキザイ,0
1363,5310003004425,新規,0,2022-08-09,2022-08-09,合同会社Ｒｅｇａｌｏ,,合同会社,長崎県,佐世保市,白岳町１４９９－６－１日宇ヶ丘タウンＩＩ５９,00127471,42,202,8571164,,,,,,,2022-08-09,1,,,,,レガーロ,0
1367,5340003003878,新規,0,2022-08-09,2022-08-09,合同会社あゆむ,,合同会社,鹿児島県,日置市,吹上町与倉１３３２番地,,46,216,8993309,,,,,,,2022-08-09,1,,,,,アユム,0
1369,5360001030807,新規,0,2022-08-09,2022-08-09,原設備工業株式会社,,株式会社,沖縄県,豊見城市,字与根３８２番地,,47,212,9010224,,,,,,,2022-08-09,1,,,,,ハラセツビコウギョウ,0
1370,5360003012217,新規,0,2022-08-09,2022-08-09,合同会社パレットリンク沖縄,,合同会社,沖縄県,中頭郡北谷町,字桑江４５３番地１０,,47,326,9040103,,,,,,,2022-08-09,1,,,,,パレットリンクオキナワ,0
1375,5370003005797,新規,0,2022-08-09,2022-08-09,合同会社Ｍｅｉ,,合同会社,宮城県,仙台市若林区,志波町１５番１８号,,04,103,9840041,,,,,,,2022-08-09,1,,,,,メイ,0
1376,5370005010515,新規,0,2022-08-09,2022-08-09,一般社団法人リアルスマイル,,その他の設立登記法人,宮城県,仙台市青葉区,国分町３丁目１０番１５－３０１号,,04,101,9800803,,,,,,,2022-08-09,1,,,,,リアルスマイル,0
1384,5390001016992,新規,0,2022-08-09,2022-08-09,株式会社ＡｉＬ,,株式会社,山形県,東根市,大字野川１５４０番地,,06,211,9993727,,,,,,,2022-08-09,1,,,,,エーアイエル,0
1390,5400001015976,新規,0,2022-08-09,2022-08-09,株式会社傑内装,,株式会社,岩手県,盛岡市,東黒石野３丁目４番２７号,,03,201,0200108,,,,,,,2022-08-09,1,,,,,スグルナイソウ,0
1391,5410001013252,新規,0,2022-08-09,2022-08-09,株式会社ランドマーク,,株式会社,秋田県,秋田市,大住３丁目１５番２６号,,05,201,0101436,,,,,,,2022-08-09,1,,,,,ランドマーク,0
1396,5430001087286,新規,0,2022-08-09,2022-08-09,株式会社白狼冷菓,,株式会社,北海道,札幌市南区,簾舞一条５丁目１０－８,,01,106,0612261,,,,,,,2022-08-09,1,,,,,ハクロウレイカ,0
1400,5470001019211,新規,0,2022-08-09,2022-08-09,株式会社グラスファン,,株式会社,香川県,高松市,林町１２６５番地１,,37,201,7610301,,,,,,,2022-08-09,1,,,,,グラスファン,0
1403,5490001010250,新規,0,2022-08-09,2022-08-09,ヤマトサービス工業株式会社,,株式会社,高知県,宿毛市,山奈町山田５９８番地１,,39,208,7880784,,,,,,,2022-08-09,1,,,,,ヤマトサービスコウギョウ,0
1405,5500001024389,新規,0,2022-08-09,2022-08-09,株式会社Ｈａｌｅ,,株式会社,愛媛県,松山市,南梅本町甲３９２番地５,,38,201,7910245,,,,,,,2022-08-09,1,,,,,ハレ,0
1415,6010001228658,新規,0,2022-08-09,2022-08-09,銀正株式会社,,株式会社,東京都,中央区,日本橋横山町６－１７杉本ビル１Ｆ,,13,102,1030003,,,,,,,2022-08-09,1,,,,,ギンショウ,0
1416,6010001228682,新規,0,2022-08-09,2022-08-09,ｗｉｔｈｉｎｇ株式会社,,株式会社,東京都,中央区,八丁堀４丁目１－４,,13,102,1040032,,,,,,,2022-08-09,1,,,,,ウィズイング,0
1417,6010003038353,新規,0,2022-08-09,2022-08-09,ＡＹＲ３合同会社,,合同会社,東京都,中央区,日本橋１丁目４番１号,,13,102,1030027,,,,,,,2022-08-09,1,,,,,エーワイアールスリー,0
1426,6010401168958,新規,0,2022-08-09,2022-08-09,コウケンキャピタル株式会社,,株式会社,東京都,港区,浜松町２丁目２－１５浜松町ダイヤビル２Ｆ,,13,103,1050013,,,,,,,2022-08-09,1,,,,,コウケンキャピタル,0
1428,6010403028210,新規,0,2022-08-09,2022-08-09,ＳＵＮＲＩＳＥ　ＨＡＲＢＯＵＲ合同会社,,合同会社,東京都,港区,高輪４丁目１４－１高輪ペアシティ５０８,,13,103,1080074,,,,,,,2022-08-09,1,,,,,サンライズハーバー,0
1429,6010403028219,新規,0,2022-08-09,2022-08-09,合同会社アネモネ,,合同会社,東京都,港区,高輪３丁目１９番２２号,,13,103,1080074,,,,,,,2022-08-09,1,,,,,アネモネ,0
1430,6010403028235,新規,0,2022-08-09,2022-08-09,合同会社ＴＢＡ,,合同会社,東京都,港区,虎ノ門５丁目３番２０号株式会社アカウンティング・マネジメント・サービス内,,13,103,1050001,,,,,,,2022-08-09,1,,,,,ティービーエー,0
1431,6010403028268,新規,0,2022-08-09,2022-08-09,ＭＴ　Ｓｏｌａｒｅ合同会社,,合同会社,東京都,港区,元赤坂１丁目１番７号,,13,103,1070051,,,,,,,2022-08-09,1,,,,,エムティーソラーレ,0
1433,6010405021262,新規,0,2022-08-09,2022-08-09,一般社団法人Ｙｕｎ‐ｙｅｕｎｇ,,その他の設立登記法人,東京都,港区,虎ノ門５丁目１番４号,,13,103,1050001,,,,,,,2022-08-09,1,,,,,インニョン,0
1434,6010405021270,新規,0,2022-08-09,2022-08-09,一般社団法人ＰＴＫ,,その他の設立登記法人,東京都,港区,虎ノ門５丁目３番２０号株式会社アカウンティング・マネジメント・サービス内,,13,103,1050001,,,,,,,2022-08-09,1,,,,,ピーティーケー,0
1439,6010503006677,新規,0,2022-08-09,2022-08-09,合同会社Ｐｅｔａｐａ,,合同会社,東京都,台東区,小島２丁目２０番１１号ＬＩＧビル,,13,106,1110056,,,,,,,2022-08-09,1,,,,,ペタパ,0
1441,6010601061616,新規,0,2022-08-09,2022-08-09,株式会社ＴＲＡＮＳＡＣＴＩＯＮ．ＴＨＲＥＥＥ,,株式会社,東京都,江東区,亀戸６丁目３１番２－１４１４号,,13,108,1360071,,,,,,,2022-08-09,1,,,,,トランザクションスリー,0
1444,6010703006345,新規,0,2022-08-09,2022-08-09,樹合同会社,,合同会社,東京都,品川区,南品川３丁目６－２５－３１１,,13,109,1400004,,,,,,,2022-08-09,1,,,,,キ,0
1456,6011001149035,新規,0,2022-08-09,2022-08-09,バーチュー・クリエイティング株式会社,,株式会社,東京都,渋谷区,恵比寿１丁目１９番１９号恵比寿ビジネスタワー１０Ｆ,,13,113,1500013,,,,,,,2022-08-09,1,,,,,バーチュークリエイティング,0
1457,6011001149076,新規,0,2022-08-09,2022-08-09,株式会社サイケア,,株式会社,東京都,渋谷区,宇田川町２番１号渋谷ホームズ９２１,,13,113,1500042,,,,,,,2022-08-09,1,,,,,サイケア,0
1460,6011003015152,新規,0,2022-08-09,2022-08-09,ＭＯＯＭＳ合同会社,,合同会社,東京都,渋谷区,神宮前６丁目２３番４号桑野ビル２階,,13,113,1500001,,,,,,,2022-08-09,1,,,,,ムームス,0
1465,6011101099832,新規,0,2022-08-09,2022-08-09,株式会社オーラ,,株式会社,東京都,新宿区,新宿４丁目３番１７号,,13,104,1600022,,,,,,,2022-08-09,1,,,,,オーラ,0
1474,6011801041102,新規,0,2022-08-09,2022-08-09,株式会社盛山設備,,株式会社,東京都,足立区,千住柳町２７番８号,,13,121,1200032,,,,,,,2022-08-09,1,,,,,モリヤマセツビ,0
1483,6012801021779,新規,0,2022-08-09,2022-08-09,株式会社ティーダ,,株式会社,東京都,立川市,柏町４丁目５６番地の１グローバルビル５０１号,,13,202,1900004,,,,,,,2022-08-09,1,,,,,,0
1487,6013305003371,新規,0,2022-08-09,2022-08-09,特定非営利活動法人Ｈａｌｏ　ＡＲＴ,,その他の設立登記法人,東京都,豊島区,南池袋２丁目２０番４号,,13,116,1710022,,,,,,,2022-08-09,1,,,,,ハロアート,0
1494,6020001147650,新規,0,2022-08-09,2022-08-09,株式会社真莉,,株式会社,神奈川県,横浜市旭区,南希望が丘１１６番地パレーシャル山王２０１,,14,112,2410824,,,,,,,2022-08-09,1,,,,,シンリ,0
1504,6021001076690,新規,0,2022-08-09,2022-08-09,株式会社ビーエムシーファーム,,株式会社,神奈川県,高座郡寒川町,宮山２３２７番１,,14,321,2530106,,,,,,,2022-08-09,1,,,,,ビーエムシーファーム,0
1512,6021003012017,新規,0,2022-08-09,2022-08-09,ＮＯＲＡ合同会社,,合同会社,神奈川県,相模原市中央区,相模原６丁目３－３－３０５,,14,152,2520231,,,,,,,2022-08-09,1,,,,,ノラ,0
1513,6021003012025,新規,0,2022-08-09,2022-08-09,合同会社川合学設計事務所,,合同会社,神奈川県,茅ヶ崎市,旭が丘８番１５号,,14,207,2530026,,,,,,,2022-08-09,1,,,,,カワイマナブセッケイジムショ,0
1518,6030001149563,新規,0,2022-08-09,2022-08-09,株式会社Ｗｉｓｔｙ,,株式会社,埼玉県,志木市,中宗岡２丁目９番３５号壱番館１０２,,11,228,3530002,,,,,,,2022-08-09,1,,,,,ウィスティー,0
1519,6030001149596,新規,0,2022-08-09,2022-08-09,株式会社ワシントントレーディングジャパン,,株式会社,埼玉県,入間市,向陽台１丁目１番地１７駅前プラザ１３－１０３,,11,225,3580001,,,,,,,2022-08-09,1,,,,,ワシントントレーディングジャパン,0
1526,6040001124549,新規,0,2022-08-09,2022-08-09,株式会社ＬＯＯＰ,,株式会社,千葉県,船橋市,前原西４丁目３３番１０－２０３号,,12,204,2740825,,,,,,,2022-08-09,1,,,,,ループ,0
1527,6040001124557,新規,0,2022-08-09,2022-08-09,株式会社わだち,,株式会社,千葉県,松戸市,常盤平西窪町５－２４,,12,207,2702266,,,,,,,2022-08-09,1,,,,,ワダチ,0
1530,6050003006752,新規,0,2022-08-09,2022-08-09,ＮＳ合同会社,,合同会社,茨城県,水戸市,千波町２４８０－１ニューマリッチ栗原１０３,,08,201,3100851,,,,,,,2022-08-09,1,,,,,エヌエス,0
1534,6060001035166,新規,0,2022-08-09,2022-08-09,ＫＩＮＧ株式会社,,株式会社,栃木県,栃木市,片柳町４丁目５番２－８号,,09,203,3280053,,,,,,,2022-08-09,1,,,,,キング,0
1535,6060003004177,新規,0,2022-08-09,2022-08-09,Ｉ　ａｍ合同会社,,合同会社,栃木県,足利市,里矢場町１００５－４,,09,202,3260835,,,,,,,2022-08-09,1,,,,,アイアム,0
1537,6070005010024,新規,0,2022-08-09,2022-08-09,医療法人永徳会,,その他の設立登記法人,群馬県,前橋市,上泉町２８７２番地１９,,10,201,3710007,,,,,,,2022-08-09,1,,,,,エイトクカイ,0
1545,6080103002632,新規,0,2022-08-09,2022-08-09,スタックプラス合同会社,,合同会社,静岡県,富士宮市,大岩４５１番地の２７,,22,207,4180013,,,,,,,2022-08-09,1,,,,,スタックプラス,0
1546,6080401025995,新規,0,2022-08-09,2022-08-09,株式会社えんしゅう相続,,株式会社,静岡県,浜松市中区,田町２２３番地の２１ビオラ田町３階,,22,131,4300944,,,,,,,2022-08-09,1,,,,,エンシュウソウゾク,0
1564,6120001247853,新規,0,2022-08-09,2022-08-09,ＭＴＲ株式会社,,株式会社,大阪府,大阪市西区,新町２丁目１８－２０清水ビル２０１,,27,106,5500013,,,,,,,2022-08-09,1,,,,,エムティアール,0
1565,6120001248026,新規,0,2022-08-09,2022-08-09,株式会社ＧＢＣツールズ,,株式会社,大阪府,大阪市中央区,本町橋６－１９－３０１号,,27,128,5400029,,,,,,,2022-08-09,1,,,,,ジービーシーツールズ,0
1566,6120001248042,新規,0,2022-08-09,2022-08-09,株式会社キャストウェル,,株式会社,大阪府,大阪市西区,靱本町１丁目５番１８号ＮＡＮＥＩ本町ビル４Ｆ,,27,106,5500004,,,,,,,2022-08-09,1,,,,,キャストウェル,0
1567,6120001248059,新規,0,2022-08-09,2022-08-09,株式会社サンエー不動産,,株式会社,大阪府,大阪市生野区,巽東２丁目３番２４号,00127479,27,116,5440014,,,,,,,2022-08-09,1,,,,,サンエーフドウサン,0
1570,6120003022263,新規,0,2022-08-09,2022-08-09,合同会社ＢＬＡＣＫｅｙｅ,,合同会社,大阪府,大阪市鶴見区,緑１丁目１２番１４号,,27,124,5380054,,,,,,,2022-08-09,1,,,,,ブラックアイ,0
1574,6120101066063,新規,0,2022-08-09,2022-08-09,株式会社大清,,株式会社,大阪府,堺市北区,金岡町２７８６－１－Ｆ号,,27,146,5918022,,,,,,,2022-08-09,1,,,,,タイセイ,0
1575,6120901046355,新規,0,2022-08-09,2022-08-09,株式会社マエダ製作所,,株式会社,大阪府,吹田市,南金田１丁目６番１号,,27,205,5640044,,,,,,,2022-08-09,1,,,,,マエダセイサクショ,0
1578,6122001036154,新規,0,2022-08-09,2022-08-09,八幸住宅株式会社,,株式会社,大阪府,柏原市,大県３丁目４番２２号,,27,221,5820018,,,,,,,2022-08-09,1,,,,,ハッコウジュウタク,0
1581,6130001072391,新規,0,2022-08-09,2022-08-09,ＦＡＴＲＩ　ＪＡＰＡＮ株式会社,,株式会社,京都府,京都市下京区,中堂寺粟田町９１番地ＫＲＰ９号館,,26,106,6008815,,,,,,,2022-08-09,1,,,,,ファトリジャパン,0
1588,6140001126989,新規,0,2022-08-09,2022-08-09,株式会社Ｂｌａｃｋ　Ｐａｎｔｈｅｒ,,株式会社,兵庫県,神戸市須磨区,稲葉町５丁目２番１４－２号,,28,107,6540044,,,,,,,2022-08-09,1,,,,,ブラックパンサー,0
1590,6140003018012,新規,0,2022-08-09,2022-08-09,ＭＡＮＡ‐ｂ合同会社,,合同会社,兵庫県,伊丹市,安堂寺町５丁目２２番地の１０,,28,207,6640864,,,,,,,2022-08-09,1,,,,,マナビィー,0
1591,6150001025752,新規,0,2022-08-09,2022-08-09,株式会社ＲＴＭｏｄａ　Ｔｒａｄｉｎｇ,,株式会社,奈良県,橿原市,新賀町５２６番地グランヴェルビュ大和八木,,29,205,6340006,,,,,,,2022-08-09,1,,,,,リトモーダトレーディング,0
1595,6160001024415,新規,0,2022-08-09,2022-08-09,株式会社Ｉ・Ｄ・Ｓ,,株式会社,滋賀県,甲賀市,水口町山７１０番地１６０,,25,209,5280067,,,,,,,2022-08-09,1,,,,,アイディーエス,0
1596,6160001024431,新規,0,2022-08-09,2022-08-09,株式会社デュオ・リンク,,株式会社,滋賀県,大津市,茶が崎６番１－１２１３号,,25,201,5200023,,,,,,,2022-08-09,1,,,,,デュオリンク,0
1597,6180001029172,新規,0,2022-08-09,2022-08-09,株式会社アイティーオー,,株式会社,愛知県,名古屋市中村区,名駅４丁目５番２７号,,23,105,4500002,,,,,,,2022-08-09,1,,,,,アイティーオー,0
1602,6180001152552,新規,0,2022-08-09,2022-08-09,ミズキン株式会社,,株式会社,愛知県,名古屋市昭和区,隼人町２番地の１０,,23,107,4660833,,,,,,,2022-08-09,1,,,,,ミズキン,0
1607,6180003024114,新規,0,2022-08-09,2022-08-09,合同会社ＬｄｅＯ,,合同会社,愛知県,一宮市,下沼町２丁目１１番地４,,23,203,4910032,,,,,,,2022-08-09,1,,,,,エルディオー,0
1611,6180303005417,新規,0,2022-08-09,2022-08-09,整林テクノ合同会社,,合同会社,愛知県,岡崎市,才栗町字下屋敷１２番地,,23,202,4443342,,,,,,,2022-08-09,1,,,,,セイリンテクノ,0
1628,6240001060204,新規,0,2022-08-09,2022-08-09,株式会社Ｐａｓｔｅｌ,,株式会社,広島県,広島市中区,広瀬町７番１０－３０４号,,34,101,7300804,,,,,,,2022-08-09,1,,,,,パステル,0
1629,6240001060212,新規,0,2022-08-09,2022-08-09,株式会社岡井鮮魚店,,株式会社,広島県,広島市中区,江波南２丁目５番１号,,34,101,7300835,,,,,,,2022-08-09,1,,,,,オカイセンギョテン,0
1636,6260001037134,新規,0,2022-08-09,2022-08-09,株式会社６ＤＩＲＥＣＴＩＯＮＳ,,株式会社,岡山県,岡山市北区,表町３丁目１８番６３号,,33,101,7000822,,,,,,,2022-08-09,1,,,,,シックスディレクションズ,0
1643,6290001098512,新規,0,2022-08-09,2022-08-09,ワム株式会社,,株式会社,福岡県,福岡市中央区,桜坂３丁目５番５４－２２０１号,,40,133,8100024,,,,,,,2022-08-09,1,,,,,ワム,0
1644,6290001098520,新規,0,2022-08-09,2022-08-09,株式会社エムスリー,,株式会社,福岡県,福岡市博多区,中呉服町２番９号秋吉ビル４０１,,40,132,8120035,,,,,,,2022-08-09,1,,,,,エムスリー,0
1649,6290003012826,新規,0,2022-08-09,2022-08-09,ＢＯＯＭ合同会社,,合同会社,福岡県,福岡市南区,大楠１丁目１０－１１－２０３号室,,40,134,8150082,,,,,,,2022-08-09,1,,,,,ボム,0
1653,6290801028809,新規,0,2022-08-09,2022-08-09,ｏｍｅｇａ　ｃｒｅａｔｅ株式会社,,株式会社,福岡県,北九州市小倉北区,香春口２丁目２番１６－７０１号,,40,106,8020084,,,,,,,2022-08-09,1,,,,,オメガクリエイト,0
1656,6310001017989,新規,0,2022-08-09,2022-08-09,株式会社Ｂｌｏｃｋｓ,,株式会社,長崎県,長崎市,新戸町３丁目１６番１１号ハイツ的石２０３,,42,201,8500954,,,,,,,2022-08-09,1,,,,,ブロックス,0
1662,6360001030797,新規,0,2022-08-09,2022-08-09,株式会社リーペック,,株式会社,沖縄県,沖縄市,高原３丁目５番２号,,47,211,9042171,,,,,,,2022-08-09,1,,,,,リーペック,0
1663,6360001030806,新規,0,2022-08-09,2022-08-09,株式会社ＥＥＺＥＯＩ,,株式会社,沖縄県,那覇市,山下町２９番１号,,47,201,9000027,,,,,,,2022-08-09,1,,,,,イイゼオイ,0
1665,6360003012216,新規,0,2022-08-09,2022-08-09,宮古テイケイハウス合同会社,,合同会社,沖縄県,宮古島市,平良字西里２７番地,,47,214,9060012,,,,,,,2022-08-09,1,,,,,ミヤコテイケイハウス,0
1666,6360003012224,新規,0,2022-08-09,2022-08-09,ＣＨＩＫＩＩＮＡ合同会社,,合同会社,沖縄県,島尻郡南風原町,字本部４６１番地６,,47,350,9011112,,,,,,,2022-08-09,1,,,,,チキーナ,0
1673,6430003014171,新規,0,2022-08-09,2022-08-09,フォルトシュリット合同会社,,合同会社,北海道,札幌市東区,伏古八条２丁目９番２４号,,01,103,0070868,,,,,,,2022-08-09,1,,,,,フォルトシュリット,0
1683,6500001024388,新規,0,2022-08-09,2022-08-09,Ｚｏｎ８ｅｎｅｒｇｉＥ株式会社,,株式会社,愛媛県,松山市,和気町１丁目２番地１,,38,201,7992656,,,,,,,2022-08-09,1,,,,,ゾンエイトエナジー,0
1697,7010003038328,新規,0,2022-08-09,2022-08-09,印西ファイブ運営合同会社,,合同会社,東京都,千代田区,神田神保町１丁目１１番地さくら綜合事務所内,,13,101,1010051,,,,,,,2022-08-09,1,,,,,インザイファイブウンエイ,0
1698,7010003038344,新規,0,2022-08-09,2022-08-09,合同会社フロンティア,,合同会社,東京都,中央区,日本橋浜町３丁目２５番８－２０１号,,13,102,1030007,,,,,,,2022-08-09,1,,,,,フロンティア,0
1700,7010101015286,新規,0,2022-08-09,2022-08-09,株式会社フォレスト,,株式会社,東京都,八王子市,高尾町１５９５番地３共立リライアンス高尾駅前３０８号,,13,201,1930844,,,,,,,2022-08-09,1,,,,,フォレスト,0
1712,7010403028226,新規,0,2022-08-09,2022-08-09,合同会社Ａｐｏｌｌｏ,,合同会社,東京都,港区,虎ノ門５丁目１番４号,,13,103,1050001,,,,,,,2022-08-09,1,,,,,アポロ,0
1717,7010603009678,新規,0,2022-08-09,2022-08-09,合同会社屋形船高本,00127467,合同会社,東京都,墨田区,本所１丁目６番９号,,13,107,1300004,,,,,,,2022-08-09,1,,,,,ヤカタブネタカモト,0
1724,7011001148861,新規,0,2022-08-09,2022-08-09,株式会社ＡＳＮ,,株式会社,東京都,渋谷区,道玄坂１丁目１０番８号渋谷道玄坂東急ビル２Ｆ－Ｃ,,13,113,1500043,,,,,,,2022-08-09,1,,,,,エーエスエヌ,0
1725,7011001149001,新規,0,2022-08-09,2022-08-09,Ｎｉｈｏｎｌｕｘ株式会社,,株式会社,東京都,渋谷区,神宮前６丁目２３番４号桑野ビル２階,,13,113,1500001,,,,,,,2022-08-09,1,,,,,ニホンラックス,0
1726,7011001149018,新規,0,2022-08-09,2022-08-09,株式会社ツボログ,,株式会社,東京都,渋谷区,東１丁目３番２号渋谷常磐松ハウス１０１,,13,113,1500011,,,,,,,2022-08-09,1,,,,,ツボログ,0
1727,7011001149091,新規,0,2022-08-09,2022-08-09,株式会社ＲＥＶＥＬＹＡ,,株式会社,東京都,渋谷区,渋谷１丁目３番９号ヒューリック渋谷一丁目ビル７階,,13,113,1500002,,,,,,,2022-08-09,1,,,,,レベリア,0
1728,7011003015110,新規,0,2022-08-09,2022-08-09,合同会社ＫＮプロダクション,,合同会社,東京都,渋谷区,神宮前６丁目２３－４桑野ビル２階,,13,113,1500001,,,,,,,2022-08-09,1,,,,,ケーエヌプロダクション,0
1729,7011003015184,新規,0,2022-08-09,2022-08-09,日本人財コンサルティング合同会社,,合同会社,東京都,渋谷区,神宮前６丁目２３番４号桑野ビル２階,,13,113,1500001,,,,,,,2022-08-09,1,,,,,ニホンジンザイコンサルティング,0
1741,7011703003216,新規,0,2022-08-09,2022-08-09,合同会社ＯｆｆＤｅｌｔａ,,合同会社,東京都,江戸川区,清新町１丁目４番１２－５０１号,,13,123,1340087,,,,,,,2022-08-09,1,,,,,オフデルタ,0
1745,7011801041101,新規,0,2022-08-09,2022-08-09,株式会社ｒａｍｓ　ｈｅａｄ,,株式会社,東京都,足立区,東和３丁目６－１５,,13,121,1200003,,,,,,,2022-08-09,1,,,,,ラムズヘッド,0
1752,7012703002513,新規,0,2022-08-09,2022-08-09,合同会社Ｔｕｎｉｐｉ,,合同会社,東京都,清瀬市,中里１丁目７１３－１１,,13,221,2040003,,,,,,,2022-08-09,1,,,,,チュニピ,0
1760,7020001147633,新規,0,2022-08-09,2022-08-09,Ｔｈｅ　Ｒｏｙａｌ　Ｃｒｅｗ株式会社,,株式会社,神奈川県,横浜市西区,みなとみらい３丁目６番１号,,14,103,2200012,,,,,,,2022-08-09,1,,,,,ザロイヤルクルー,0
1761,7020001147658,新規,0,2022-08-09,2022-08-09,株式会社Ｘ　ＧＲＯＵＰ,,株式会社,神奈川県,横浜市神奈川区,台町９－１３－４０５,,14,102,2210834,,,,,,,2022-08-09,1,,,,,エックスグループ,0
1762,7020001147724,新規,0,2022-08-09,2022-08-09,ＳｉＦｉｖｅ　Ｊａｐａｎ　Ｃｏｒｐｏｒａｔｉｏｎ株式会社,,株式会社,神奈川県,横浜市中区,住吉町２丁目２２番地松栄関内ビル株式会社アキア・タックス・コンサルタンツ内,,14,104,2310013,,,,,,,2022-08-09,1,,,,,サイファイブジャパンコーポレーション,0
1765,7020003022198,新規,0,2022-08-09,2022-08-09,合同会社ＮＫケアサービス,,合同会社,神奈川県,横浜市旭区,鶴ケ峰１丁目４６番地３ベルハイツ１０３号,,14,112,2410022,,,,,,,2022-08-09,1,,,,,エヌケーケアサービス,0
1772,7021003012024,新規,0,2022-08-09,2022-08-09,ＪＵＴＴ　ＭＯＴＯＲＳ合同会社,,合同会社,神奈川県,座間市,相武台３丁目４０番２１－１０３号ホーユウコンフォルト相武台前,,14,216,2520011,,,,,,,2022-08-09,1,,,,,ジャットモータース,0
1779,7030003019945,新規,0,2022-08-09,2022-08-09,合同会社Ｈｉｌｌ　Ｓｗｏｒｄ,,合同会社,埼玉県,朝霞市,栄町２丁目７番２６号,,11,227,3510012,,,,,,,2022-08-09,1,,,,,ヒルソード,0
1784,7040001124523,新規,0,2022-08-09,2022-08-09,株式会社とこすけ,,株式会社,千葉県,千葉市美浜区,幕張西６丁目６番地５,,12,106,2610026,,,,,,,2022-08-09,1,,,,,トコスケ,0
1785,7040001124589,新規,0,2022-08-09,2022-08-09,芳源ホールディングス株式会社,,株式会社,千葉県,香取市,米野井９３８番地１,,12,236,2890401,,,,,,,2022-08-09,1,,,,,ヨシモトホールディングス,0
1786,7040001124622,新規,0,2022-08-09,2022-08-09,ティーアイ・カンパニー株式会社,,株式会社,千葉県,千葉市稲毛区,稲毛東６丁目１８番４号,,12,103,2630031,,,,,,,2022-08-09,1,,,,,ティーアイカンパニー,0
1790,7050001051510,新規,0,2022-08-09,2022-08-09,わくわくアイスプラウツ株式会社,,株式会社,茨城県,守谷市,松前台１丁目２番地１,,08,224,3020102,,,,,,,2022-08-09,1,,,,,ワクワクアイスプラウツ,0
1791,7050003006751,新規,0,2022-08-09,2022-08-09,合同会社ＥＭＧ　Ｇｒｏｕｐ,,合同会社,茨城県,下妻市,大串７９０番地１,,08,210,3040023,,,,,,,2022-08-09,1,,,,,イーエムジーグループ,0
1795,7060003004184,新規,0,2022-08-09,2022-08-09,合同会社オリジナルヴォイズ,,合同会社,栃木県,宇都宮市,下川俣町２０８番地４６ディアコート４号館,,09,201,3210972,,,,,,,2022-08-09,1,,,,,オリジナルヴォイス,0
1806,7080001025123,新規,0,2022-08-09,2022-08-09,株式会社しずおか経営会計,,株式会社,静岡県,藤枝市,前島２丁目８番１号,,22,214,4260067,,,,,,,2022-08-09,1,,,,,シズオカケイエイカイケイ,0
1809,7080401025994,新規,0,2022-08-09,2022-08-09,株式会社ティータイム,,株式会社,静岡県,浜松市浜北区,染地台３丁目３３番１１号,,22,136,4340046,,,,,,,2022-08-09,1,,,,,ティータイム,0
1816,7100003006647,新規,0,2022-08-09,2022-08-09,ＥＮ．ＷＯＲＫＳ合同会社,,合同会社,長野県,松本市,本庄１丁目４番１５号,,20,202,3900814,,,,,,,2022-08-09,1,,,,,エンワークス,0
1817,7110001036884,新規,0,2022-08-09,2022-08-09,ＷＡＢＩＴＯＷｏｒｋｓ株式会社,,株式会社,新潟県,五泉市,吉沢１丁目２番５号,,15,218,9591824,,,,,,,2022-08-09,1,,,,,ワビトワークス,0
1825,7120001247984,新規,0,2022-08-09,2022-08-09,株式会社Ｄ．Ｂ　Ｗｏｒｋｓ,,株式会社,大阪府,大阪市淀川区,新北野３丁目１１－１９－Ａ棟２０１,,27,123,5320025,,,,,,,2022-08-09,1,,,,,ディービーワークス,0
1826,7120001248009,新規,0,2022-08-09,2022-08-09,株式会社ｌｅｂｅｎ　Ａｐｕ,,株式会社,大阪府,大阪市東成区,中道１丁目１２番８号,,27,115,5370025,,,,,,,2022-08-09,1,,,,,レーベンアプ,0
1827,7120001248058,新規,0,2022-08-09,2022-08-09,興生株式会社,,株式会社,大阪府,大阪市淀川区,西宮原２丁目６番１６号新大阪コーポビアネーズ８４１号,,27,123,5320004,,,,,,,2022-08-09,1,,,,,コウセイ,0
1828,7120001248066,新規,0,2022-08-09,2022-08-09,淀川コンサルティング株式会社,,株式会社,大阪府,大阪市淀川区,西中島７丁目１－２９新大阪ＳＯＮＥビル５階,,27,123,5320011,,,,,,,2022-08-09,1,,,,,ヨドガワコンサルティング,0
1829,7120001248074,新規,0,2022-08-09,2022-08-09,株式会社億達,,株式会社,大阪府,大阪市西区,本田４丁目９番２３号,,27,106,5500022,,,,,,,2022-08-09,1,,,,,オクタツ,0
1830,7120001248099,新規,0,2022-08-09,2022-08-09,ノヴァレックス株式会社,,株式会社,大阪府,守口市,大日町３丁目２番１６号,,27,209,5700003,,,,,,,2022-08-09,1,,,,,ノヴァレックス,0
1841,7130001072374,新規,0,2022-08-09,2022-08-09,株式会社谷建設,,株式会社,京都府,船井郡京丹波町,坂原中川原１５番地４,,26,407,6291131,,,,,,,2022-08-09,1,,,,,タニケンセツ,0
1847,7130003008112,新規,0,2022-08-09,2022-08-09,プルート合同会社,,合同会社,京都府,京都市西京区,桂坤町１７番地１８,,26,111,6158084,,,,,,,2022-08-09,1,,,,,プルート,0
1848,7130003008120,新規,0,2022-08-09,2022-08-09,合同会社杖谷商店,,合同会社,京都府,京都市南区,久世東土川町２７２番地１,,26,107,6018204,,,,,,,2022-08-09,1,,,,,ツエタニショウテン,0
1855,7150003002749,新規,0,2022-08-09,2022-08-09,真秀コンサルタント事務所合同会社,,合同会社,奈良県,奈良市,四条大路１丁目３番５３－５２１号,,29,201,6308014,,,,,,,2022-08-09,1,,,,,マホコンサルタントジムショ,0
1858,7160001024414,新規,0,2022-08-09,2022-08-09,株式会社ランクアップ,,株式会社,滋賀県,甲賀市,水口町本綾野１番１５号ファイン和,,25,209,5280037,,,,,,,2022-08-09,1,,,,,ランクアップ,0
1868,7180001152510,新規,0,2022-08-09,2022-08-09,株式会社Ｄｅｎｚｅｌ＆Ｔｅｒｚｉ,,株式会社,愛知県,名古屋市熱田区,波寄町２３番１１号金山ＫＴビル２Ｆ,,23,109,4560003,,,,,,,2022-08-09,1,,,,,デンツェルアンドテルツィ,0
1869,7180001152519,新規,0,2022-08-09,2022-08-09,株式会社Ｔ＆Ｈ,,株式会社,愛知県,名古屋市東区,泉２丁目９番１３号,,23,102,4610001,,,,,,,2022-08-09,1,,,,,ティアンドエイチ,0
1870,7180001152568,新規,0,2022-08-09,2022-08-09,株式会社Ｌｉｚｋｉｔｃｈｅｎ,,株式会社,愛知県,名古屋市中区,丸の内１丁目２番３１号景雲橋ハイツ１Ｆ,,23,106,4600002,,,,,,,2022-08-09,1,,,,,リズキッチン,0
1872,7180003024138,新規,0,2022-08-09,2022-08-09,Ｈ＆Ｔ合同会社,,合同会社,愛知県,名古屋市中区,大須３丁目３６番２０号スクエア・アパートメント２０１号室,,23,106,4600011,,,,,,,2022-08-09,1,,,,,エイチアンドティー,0
1883,7200001040365,新規,0,2022-08-09,2022-08-09,株式会社Ｇｒａｔｉ・Ｓ,,株式会社,岐阜県,瑞穂市,稲里４６７番地１,,21,216,5010224,,,,,,,2022-08-09,1,,,,,グラティエス,0
1895,7240001060203,新規,0,2022-08-09,2022-08-09,株式会社Ｒｅ．ＨＯＭＥ,,株式会社,広島県,広島市安佐南区,高取北４丁目１１番１０号,,34,105,7310144,,,,,,,2022-08-09,1,,,,,リホーム,0
1898,7250003003126,新規,0,2022-08-09,2022-08-09,合同会社ほたる,,合同会社,山口県,下関市,大字綾羅木３４３－３番地,,35,201,7510866,,,,,,,2022-08-09,1,,,,,ホタル,0
1904,7260001037133,新規,0,2022-08-09,2022-08-09,Ｂｅａｕｔｙ　Ｓａｌｏｎ　Ｃ＆Ｊ株式会社,,株式会社,岡山県,岡山市北区,柳町２丁目２番２０号,,33,101,7000904,,,,,,,2022-08-09,1,,,,,ビューティーサロンシーアンドジェイ,0
1905,7260001037141,新規,0,2022-08-09,2022-08-09,株式会社ＡＫ,,株式会社,岡山県,岡山市南区,福成１丁目１７７番地３４おひさまハイツＩ２０１号,00127477,33,104,7028022,,,,,,,2022-08-09,1,,,,,エーケー,0
1907,7260003004008,新規,0,2022-08-09,2022-08-09,合同会社セリフ,,合同会社,岡山県,英田郡西粟倉村,大字知社２５８－１,,33,643,7070506,,,,,,,2022-08-09,1,,,,,セリフ,0
1911,7290001098494,新規,0,2022-08-09,2022-08-09,イーマインド株式会社,,株式会社,福岡県,飯塚市,川津９５番９５号,,40,205,8200067,,,,,,,2022-08-09,1,,,,,イーマインド,0
1919,7310001017988,新規,0,2022-08-09,2022-08-09,マルエイ不動産株式会社,,株式会社,長崎県,諫早市,小船越町１０７６番地２,,42,204,8540062,,,,,,,2022-08-09,1,,,,,マルエイフドウサン,0
1921,7320003003878,新規,0,2022-08-09,2022-08-09,合同会社ＷＯＲＬＤ　ＳＴＡＧＥ,,合同会社,大分県,大分市,須賀１丁目３番２２号,,44,201,8700244,,,,,,,2022-08-09,1,,,,,ワールドステージ,0
1924,7330001029981,新規,0,2022-08-09,2022-08-09,株式会社３１０４,,株式会社,熊本県,人吉市,東間上町３６６０番地１６,,43,203,8680043,,,,,,,2022-08-09,1,,,,,サトシ,0
1931,7340001024965,新規,0,2022-08-09,2022-08-09,株式会社福部電設工業,,株式会社,鹿児島県,鹿児島市,上荒田町１６番２７号上荒田福永ビル１０３号,,46,201,8900055,,,,,,,2022-08-09,1,,,,,フクベデンセツコウギョウ,0
1933,7360001030788,新規,0,2022-08-09,2022-08-09,株式会社ＫＡＦＬＩＸ　ＣＬＯＵＤ,,株式会社,沖縄県,那覇市,具志３丁目２３番１３号,,47,201,9010146,,,,,,,2022-08-09,1,,,,,キャフリックスクラウド,0
1934,7360003012223,新規,0,2022-08-09,2022-08-09,合同会社エース,,合同会社,沖縄県,宮古島市,平良字西仲宗根９０番地,,47,214,9060006,,,,,,,2022-08-09,1,,,,,エース,0
1947,7380005012608,新規,0,2022-08-09,2022-08-09,一般社団法人里山創生やぶき,,その他の設立登記法人,福島県,西白河郡矢吹町,滝八幡２番地,,07,466,9690284,,,,,,,2022-08-09,1,,,,,サトヤマソウセイヤブキ,0
1953,7430003014170,新規,0,2022-08-09,2022-08-09,合同会社ＳＹカンパニー,,合同会社,北海道,札幌市白石区,本通４丁目北２番１－１００３号,,01,104,0030027,,,,,,,2022-08-09,1,,,,,エスワイカンパニー,0
1977,8010103001969,新規,0,2022-08-09,2022-08-09,ｆｉｋａ合同会社,,合同会社,東京都,八王子市,鑓水２丁目８５番地８８,,13,201,1920375,,,,,,,2022-08-09,1,,,,,フィーカ,0
1986,8010403028225,新規,0,2022-08-09,2022-08-09,合同会社Ｈｉｎｄｏｏ,,合同会社,東京都,港区,虎ノ門５丁目１番４号,,13,103,1050001,,,,,,,2022-08-09,1,,,,,ヒンドゥー,0
1987,8010405021211,新規,0,2022-08-09,2022-08-09,一般社団法人泉鳳,,その他の設立登記法人,東京都,港区,南青山４丁目２６番１０号Ｂｉｊａ南青山Ａ－１,,13,103,1070062,,,,,,,2022-08-09,1,,,,,センホウ,0
1988,8010405021269,新規,0,2022-08-09,2022-08-09,一般社団法人ＴＢＡ,,その他の設立登記法人,東京都,港区,虎ノ門５丁目３番２０号株式会社アカウンティング・マネジメント・サービス内,,13,103,1050001,,,,,,,2022-08-09,1,,,,,ティービーエー,0
1992,8010501049214,新規,0,2022-08-09,2022-08-09,株式会社ＯＲＩＮＡＳ,,株式会社,東京都,台東区,蔵前４丁目２３番７,,13,106,1110051,,,,,,,2022-08-09,1,,,,,オリナス,0
1999,8010701043041,新規,0,2022-08-09,2022-08-09,株式会社ＫＥＮＳＨＩＮ　ＩＮＦＩＮＩＴＹ,,株式会社,東京都,品川区,上大崎３丁目１番２号目黒第一マンションズ１００５,,13,109,1410021,,,,,,,2022-08-09,1,,,,,ケンシンインフィニティ,0
2000,8010701043058,新規,0,2022-08-09,2022-08-09,ラニカイサービス株式会社,,株式会社,東京都,品川区,戸越１丁目１５－１５百番ビル３Ｆ３０１,,13,109,1420041,,,,,,,2022-08-09,1,,,,,ラニカイサービス,0
2006,8010805002959,新規,0,2022-08-09,2022-08-09,一般社団法人デザインプラム設計企画,,その他の設立登記法人,東京都,大田区,東雪谷２丁目１９番１１－Ａ号,,13,111,1450065,,,,,,,2022-08-09,1,,,,,デザインプラムセッケイキカク,0
2008,8010903007570,新規,0,2022-08-09,2022-08-09,合同会社Ｓｅｌｆ‐ａｆｆｉｒｍａｔｉｏｎ．ｐｒｏｊｅｃｔ,,合同会社,東京都,世田谷区,中町５丁目３１番地１２白井ビル３Ｆ,,13,112,1580091,,,,,,,2022-08-09,1,,,,,セルフアフィアメイションプロジェクト,0
2015,8011003015150,新規,0,2022-08-09,2022-08-09,合同会社ベビーロータス,,合同会社,東京都,渋谷区,神宮前６丁目２９－４,,13,113,1500001,,,,,,,2022-08-09,1,,,,,ベビーロータス,0
2019,8011301028011,新規,0,2022-08-09,2022-08-09,株式会社ＴＲＵＥ　ＮＯＲＴＨ,,株式会社,東京都,杉並区,久我山２丁目５番１０号,,13,115,1680082,,,,,,,2022-08-09,1,,,,,トゥルーノース,0
2028,8011703003215,新規,0,2022-08-09,2022-08-09,ダイハツ合同会社,,合同会社,東京都,江戸川区,南小岩８丁目２２番２１－２０３号室,,13,123,1330056,,,,,,,2022-08-09,1,,,,,ダイハツ,0
2048,8020001147657,新規,0,2022-08-09,2022-08-09,株式会社ＰｅｎｇｕｉｎＯｐｓ,,株式会社,神奈川県,横浜市青葉区,荏田町２４６番地１－Ｂ８０１,,14,117,2250013,,,,,,,2022-08-09,1,,,,,ペンギンオプス,0
2052,8020003022214,新規,0,2022-08-09,2022-08-09,合同会社サイトー,,合同会社,神奈川県,横浜市青葉区,みたけ台３１番地２２,,14,117,2270047,,,,,,,2022-08-09,1,,,,,サイトー,0
2059,8021001076722,新規,0,2022-08-09,2022-08-09,株式会社梟邸,,株式会社,神奈川県,横須賀市,長井５丁目１７番地３３－Ａ,,14,201,2380316,,,,,,,2022-08-09,1,,,,,フクロウテイ,0
2065,8030001149520,新規,0,2022-08-09,2022-08-09,株式会社アスプランナー,,株式会社,埼玉県,さいたま市大宮区,桜木町２丁目３番地大宮マルイ７階,,11,103,3300854,,,,,,,2022-08-09,1,,,,,アスプランナー,0
2071,8030003019960,新規,0,2022-08-09,2022-08-09,エムズマネジメント合同会社,,合同会社,埼玉県,北本市,緑１丁目１２,,11,233,3640032,,,,,,,2022-08-09,1,,,,,エムズマネジメント,0
2079,8040001124596,新規,0,2022-08-09,2022-08-09,株式会社ＭＡＵＭＵ,,株式会社,千葉県,松戸市,日暮６丁目６０番地２Ｆ,,12,207,2702253,,,,,,,2022-08-09,1,,,,,マウム,0
2098,8080401025993,新規,0,2022-08-09,2022-08-09,Ｈ・Ｓ　Ｃｏｍｐａｎｙ株式会社,,株式会社,静岡県,袋井市,梅山２３５９番地の１３,,22,216,4371105,,,,,,,2022-08-09,1,,,,,エイチエスカンパニー,0
2101,8080403004599,新規,0,2022-08-09,2022-08-09,合同会社ロビンソン,,合同会社,静岡県,浜松市東区,上西町９番地の１５,,22,132,4350048,,,,,,,2022-08-09,1,,,,,ロビンソン,0
2119,8120001247983,新規,0,2022-08-09,2022-08-09,株式会社ディライト,,株式会社,大阪府,大阪市住之江区,平林南２丁目６番１０号－３Ｆ,,27,125,5590025,,,,,,,2022-08-09,1,,,,,ディライト,0
2120,8120001248024,新規,0,2022-08-09,2022-08-09,株式会社トランキロ,,株式会社,大阪府,枚方市,出口１丁目２番９１号,,27,210,5730065,,,,,,,2022-08-09,1,,,,,トランキロ,0
2121,8120001248057,新規,0,2022-08-09,2022-08-09,ＣＡＴメディカル株式会社,,株式会社,大阪府,大阪市天王寺区,上之宮町１番１５－８０５号,,27,109,5430037,,,,,,,2022-08-09,1,,,,,キャットメディカル,0
2122,8120001248073,新規,0,2022-08-09,2022-08-09,株式会社万達,,株式会社,大阪府,大阪市浪速区,戎本町２丁目４番３号,,27,111,5560013,,,,,,,2022-08-09,1,,,,,マンタツ,0
2123,8120001248081,新規,0,2022-08-09,2022-08-09,株式会社タクスル,,株式会社,大阪府,大阪市中央区,大手前１丁目６番４号,,27,128,5400008,,,,,,,2022-08-09,1,,,,,タクスル,0
2124,8120001248098,新規,0,2022-08-09,2022-08-09,株式会社ランド・キャピタル,,株式会社,大阪府,大阪市住之江区,粉浜３丁目１番７号,,27,125,5590001,,,,,,,2022-08-09,1,,,,,ランドキャピタル,0
2132,8120901046353,新規,0,2022-08-09,2022-08-09,石友軒株式会社,,株式会社,大阪府,茨木市,並木町１２番５号,,27,211,5670892,,,,,,,2022-08-09,1,,,,,セキユウケン,0
2134,8130001072365,新規,0,2022-08-09,2022-08-09,遠拓商事株式会社,,株式会社,京都府,綴喜郡宇治田原町,大字岩山小字後庵４９番地の２,,26,344,6100261,,,,,,,2022-08-09,1,,,,,エンタショウジ,0
2139,8140001127028,新規,0,2022-08-09,2022-08-09,株式会社エスエステート,,株式会社,兵庫県,西宮市,東町２丁目１－３６,,28,204,6620922,,,,,,,2022-08-09,1,,,,,エスエステート,0
2145,8170001017218,新規,0,2022-08-09,2022-08-09,ハウスリペア株式会社,,株式会社,和歌山県,和歌山市,布施屋１０１６番地,,30,201,6496321,,,,,,,2022-08-09,1,,,,,ハウスリペア,0
2150,8180001152518,新規,0,2022-08-09,2022-08-09,株式会社ＩＩＫＡ,,株式会社,愛知県,名古屋市瑞穂区,中根町４丁目４７番地の２,,23,108,4670055,,,,,,,2022-08-09,1,,,,,アイアイケイエイ,0
2151,8180001152526,新規,0,2022-08-09,2022-08-09,Ｌａｖｉｅ株式会社,,株式会社,愛知県,一宮市,千秋町芝原字古井戸１５番地,,23,203,4910812,,,,,,,2022-08-09,1,,,,,ラヴィ,0
2152,8180001152550,新規,0,2022-08-09,2022-08-09,株式会社日比建,,株式会社,愛知県,瀬戸市,北脇町２２６番地の１５,,23,204,4890918,,,,,,,2022-08-09,1,,,,,ヒビケン,0
2154,8180003024129,新規,0,2022-08-09,2022-08-09,ＤａＣａＣＫ合同会社,,合同会社,愛知県,名古屋市西区,比良４丁目２３９番地の４,,23,104,4520802,,,,,,,2022-08-09,1,,,,,ダカック,0
2155,8180003024145,新規,0,2022-08-09,2022-08-09,ａｎｄ　ｃｒｏｓｓｉｎｇ合同会社,,合同会社,愛知県,名古屋市緑区,曽根３丁目７０９番地,,23,114,4580035,,,,,,,2022-08-09,1,,,,,アンドクロッシング,0
2164,8190001029681,新規,0,2022-08-09,2022-08-09,株式会社Ｒｅｎｔ＆Ｍａｎａｇｅｍｅｎｔ,,株式会社,三重県,四日市市,十志町１６３番地２,,24,202,5108026,,,,,,,2022-08-09,1,,,,,レントアンドマネジメント,0
2170,8200005013374,新規,0,2022-08-09,2022-08-09,医療法人みなこデンタルクリニック,,その他の設立登記法人,岐阜県,高山市,岡本町２丁目１０４番地７,,21,203,5060054,,,,,,,2022-08-09,1,,,,,ミナコデンタルクリニック,0
2176,8240001060193,新規,0,2022-08-09,2022-08-09,おりづる電力株式会社,,株式会社,広島県,広島市中区,中町７－３５和光中町ビル６階,,34,101,7300037,,,,,,,2022-08-09,1,,,,,オリヅルデンリョク,0
2182,8260001037132,新規,0,2022-08-09,2022-08-09,株式会社キビの家,,株式会社,岡山県,加賀郡吉備中央町,上竹２０８３番地３,,33,681,7161131,,,,,,,2022-08-09,1,,,,,キビノイエ,0
2193,8290803004178,新規,0,2022-08-09,2022-08-09,ＳＡＫＵＲＡ合同会社,,合同会社,福岡県,北九州市小倉北区,木町３丁目１１番１号,,40,106,8030851,,,,,,,2022-08-09,1,,,,,サクラ,0
2213,8400001015973,新規,0,2022-08-09,2022-08-09,株式会社プエデュ,,株式会社,岩手県,盛岡市,清水町８番８号トーカングランドマンション１０８号,,03,201,0200875,,,,,,,2022-08-09,1,,,,,プエデュ,0
2215,8430001087250,新規,0,2022-08-09,2022-08-09,株式会社プレジール,,株式会社,北海道,札幌市中央区,南十一条西８丁目２番４３号２０１,,01,101,0640811,,,,,,,2022-08-09,1,,,,,プレジール,0
2220,8470001019209,新規,0,2022-08-09,2022-08-09,株式会社ありあけ,,株式会社,香川県,高松市,太田上町９０８番地１サーパス太田駅前５０１,,37,201,7618074,,,,,,,2022-08-09,1,,,,,アリアケ,0
2243,9010005035321,新規,0,2022-08-09,2022-08-09,一般社団法人カーボンニュートラル技術促進会,,その他の設立登記法人,東京都,中央区,日本橋室町１丁目２－６日本橋大栄ビル７階,,13,102,1030022,,,,,,,2022-08-09,1,,,,,カーボンニュートラルギジュツソクシンカイ,0
2246,9010103001968,新規,0,2022-08-09,2022-08-09,合同会社ＶＩＴＳ,,合同会社,東京都,八王子市,明神町３丁目８番１３号レトワル明神町２０３号,,13,201,1920046,,,,,,,2022-08-09,1,,,,,ヴィッツ,0
2260,9010405021210,新規,0,2022-08-09,2022-08-09,一般社団法人ＢＥＡＵＤＯＵＢＬＥ,,その他の設立登記法人,東京都,港区,南青山４丁目２６番１０号Ｂｉｊａ南青山Ａ－１,,13,103,1070062,,,,,,,2022-08-09,1,,,,,ビューダブル,0
2265,9010601061605,新規,0,2022-08-09,2022-08-09,株式会社アドバルーン,,株式会社,東京都,墨田区,墨田４丁目２９番１６－４０３号,,13,107,1310031,,,,,,,2022-08-09,1,,,,,アドバルーン,0
2267,9010701043057,新規,0,2022-08-09,2022-08-09,アクアテックシステム株式会社,,株式会社,東京都,品川区,東五反田１丁目１１番８号大阪屋ビル５Ｆ,,13,109,1410022,,,,,,,2022-08-09,1,,,,,アクアテックシステム,0
2282,9011001149016,新規,0,2022-08-09,2022-08-09,株式会社ＲａｙＳＴＡ,,株式会社,東京都,渋谷区,宇田川町４番１０号宇田川町ビル,,13,113,1500042,,,,,,,2022-08-09,1,,,,,レイスタ,0
2283,9011001149040,新規,0,2022-08-09,2022-08-09,株式会社Ｓｅｅｄｗｏｒｋｓ,,株式会社,東京都,渋谷区,神宮前６丁目２３番４号桑野ビル２階,,13,113,1500001,,,,,,,2022-08-09,1,,,,,シードワークス,0
2290,9011201024019,新規,0,2022-08-09,2022-08-09,ＬＹ‐ジャパン株式会社,,株式会社,東京都,中野区,弥生町３丁目５－１０,,13,114,1640013,,,,,,,2022-08-09,1,,,,,エルワイジャパン,0
2294,9011501028363,新規,0,2022-08-09,2022-08-09,株式会社加瀬店舗開発,,株式会社,東京都,荒川区,東日暮里４丁目２７番１１号,,13,118,1160014,,,,,,,2022-08-09,1,,,,,カセテンポカイハツ,0
2300,9011701025524,新規,0,2022-08-09,2022-08-09,アキラデータ株式会社,,株式会社,東京都,江戸川区,北小岩６丁目３番９－２０６号,,13,123,1330051,,,,,,,2022-08-09,1,,,,,アキラデータ,0
2301,9011703003214,新規,0,2022-08-09,2022-08-09,合同会社アロハサービス,,合同会社,東京都,江戸川区,東小岩５丁目１９－１３,,13,123,1330052,,,,,,,2022-08-09,1,,,,,アロハサービス,0
2305,9012703002511,新規,0,2022-08-09,2022-08-09,合同会社クリエイティヴワークパインヒルズ,,合同会社,東京都,西東京市,南町３丁目１４番１５号,,13,229,1880012,,,,,,,2022-08-09,1,,,,,クリエイティヴワークパインヒルズ,0
2309,9012801021776,新規,0,2022-08-09,2022-08-09,株式会社ＳＴ,,株式会社,東京都,立川市,曙町１丁目１２番２０号ＣＯＱＵＩＡビル７Ｆ,,13,202,1900012,,,,,,,2022-08-09,1,,,,,エスティー,0
2316,9020001147672,新規,0,2022-08-09,2022-08-09,株式会社元設工業,,株式会社,神奈川県,川崎市川崎区,殿町３丁目２１番１－２０３号,,14,131,2100821,,,,,,,2022-08-09,1,,,,,モトセツコウギョウ,0
2317,9020001147689,新規,0,2022-08-09,2022-08-09,株式会社ＩＥＭＯＮ,,株式会社,神奈川県,川崎市高津区,久地２丁目１６番３号,,14,134,2130032,,,,,,,2022-08-09,1,,,,,イエモン,0
2334,9040003020586,新規,0,2022-08-09,2022-08-09,合同会社コドソシ,,合同会社,千葉県,船橋市,田喜野井４丁目７番２号,,12,204,2740073,,,,,,,2022-08-09,1,,,,,コドソシ,0
2337,9050001051517,新規,0,2022-08-09,2022-08-09,みらい株式会社,,株式会社,茨城県,つくばみらい市,東栗山２４番地,,08,235,3002313,,,,,,,2022-08-09,1,,,,,ミライ,0
2340,9060001035171,新規,0,2022-08-09,2022-08-09,株式会社ＫＭＣ,,株式会社,栃木県,鹿沼市,上石川１３７７番地３,,09,205,3220015,,,,,,,2022-08-09,1,,,,,ケイエムシー,0
2344,9070001039469,新規,0,2022-08-09,2022-08-09,株式会社美輝,,株式会社,群馬県,太田市,新田村田町７４６－２,,10,205,3700312,,,,,,,2022-08-09,1,,,,,ミキ,0
2345,9070001039527,新規,0,2022-08-09,2022-08-09,株式会社ＨＡＹＡＲＩ　ＪＡＰＡＮ,,株式会社,群馬県,伊勢崎市,長沼町６６０番地１１,,10,204,3720855,,,,,,,2022-08-09,1,,,,,ハヤリジャパン,0
2348,9070003004586,新規,0,2022-08-09,2022-08-09,合同会社しら川,,合同会社,群馬県,高崎市,箕郷町白川１５６６番地１２,,10,202,3703117,,,,,,,2022-08-09,1,,,,,シラカワ,0
2367,9120001247859,新規,0,2022-08-09,2022-08-09,傑領株式会社,,株式会社,大阪府,大阪市天王寺区,空清町４－１１杉野ビル本館２０４号室,,27,109,5430018,,,,,,,2022-08-09,1,,,,,ケツリョウ,0
2368,9120001247999,新規,0,2022-08-09,2022-08-09,株式会社イケタカ,,株式会社,大阪府,大阪市北区,梅田２丁目２番２号ヒルトンプラザウエストオフィスタワー１９階,,27,127,5300001,,,,,,,2022-08-09,1,,,,,イケタカ,0
2369,9120001248048,新規,0,2022-08-09,2022-08-09,株式会社ＲＡＫＵＲＡＫＵ車,,株式会社,大阪府,大阪市浪速区,日本橋西２丁目５番１１号つたやビル４０２,,27,111,5560004,,,,,,,2022-08-09,1,,,,,ラクラクシャ,0
2370,9120001248064,新規,0,2022-08-09,2022-08-09,株式会社スターヴィア,,株式会社,大阪府,大阪市北区,茶屋町２－３０・４Ｆ,,27,127,5300013,,,,,,,2022-08-09,1,,,,,スターヴィア,0
2371,9120001248072,新規,0,2022-08-09,2022-08-09,株式会社Ｓｅｐｔ　Ｅｔｏｉｌｅ,,株式会社,大阪府,大阪市西区,新町２丁目１４－１６－９０３,,27,106,5500013,,,,,,,2022-08-09,1,,,,,セットエトワール,0
2372,9120001248089,新規,0,2022-08-09,2022-08-09,株式会社Ｃ‐Ｒｏｗｎ,,株式会社,大阪府,大阪市中央区,谷町６丁目３番１９号２Ｆ,,27,128,5420012,,,,,,,2022-08-09,1,,,,,クラウン,0
2373,9120001248130,新規,0,2022-08-09,2022-08-09,株式会社ＭＩＲＡＩ　ＭＥＤＩＣＡＬ,,株式会社,大阪府,大阪市東住吉区,田辺４丁目１２－９,,27,121,5460031,,,,,,,2022-08-09,1,,,,,ミライメディカル,0
2379,9120103004811,新規,0,2022-08-09,2022-08-09,ＩｒｏＨａ合同会社,,合同会社,大阪府,泉大津市,東港町８番１７号,,27,206,5950051,,,,,,,2022-08-09,1,,,,,イロハ,0
2384,9120903004267,新規,0,2022-08-09,2022-08-09,合同会社Ｈ２Ｏｆｆｉｃｅ,,合同会社,大阪府,豊中市,浜２丁目１番１５号,,27,203,5610817,,,,,,,2022-08-09,1,,,,,エイチツーオフィス,0
2393,9140001127019,新規,0,2022-08-09,2022-08-09,株式会社ロジれぼ,,株式会社,兵庫県,高砂市,荒井町御旅２丁目１番１７号,,28,216,6760005,,,,,,,2022-08-09,1,,,,,ロジレボ,0
2394,9140001127035,新規,0,2022-08-09,2022-08-09,グリーンパーク宝塚株式会社,00127469,株式会社,兵庫県,宝塚市,新明和町１番１号,,28,214,6650052,,,,,,,2022-08-09,1,,,,,グリーンパークタカラヅカ,0
2395,9140001127084,新規,0,2022-08-09,2022-08-09,株式会社よりそる,,株式会社,兵庫県,神戸市中央区,浪花町５６起業プラザＫｉＰ内,,28,110,6500035,,,,,,,2022-08-09,1,,,,,ヨリソル,0
2402,9160001024437,新規,0,2022-08-09,2022-08-09,株式会社Ｏｎｅ　ｆｏｒ　Ａｌｌ,,株式会社,滋賀県,長浜市,大路町８７４番地２８,,25,203,5260243,,,,,,,2022-08-09,1,,,,,ワンフォオール,0
2412,9180001152541,新規,0,2022-08-09,2022-08-09,株式会社ペニーライフ,,株式会社,愛知県,名古屋市名東区,猪高台２丁目８０１番地の２３,,23,115,4650028,,,,,,,2022-08-09,1,,,,,ペニーライフ,0
2417,9180003024136,新規,0,2022-08-09,2022-08-09,合同会社高橋笑店,,合同会社,愛知県,小牧市,大字二重堀５９番地１６,,23,219,4850021,,,,,,,2022-08-09,1,,,,,タカハシショウテン,0
2418,9180003024144,新規,0,2022-08-09,2022-08-09,合同会社ＣｙｂｅｒＬｉｎｋ,,合同会社,愛知県,小牧市,藤島２丁目３０番地,,23,219,4850068,,,,,,,2022-08-09,1,,,,,サイバーリンク,0
2422,9190001029680,新規,0,2022-08-09,2022-08-09,株式会社よろこばファーム,,株式会社,三重県,津市,大里川北町８８番地,,24,201,5140124,,,,,,,2022-08-09,1,,,,,ヨロコバファーム,0
2425,9200001040355,新規,0,2022-08-09,2022-08-09,株式会社Ｚｅｂｒａｆｉｓｈ,,株式会社,岐阜県,各務原市,鵜沼山崎町７丁目２５番地,,21,213,5090124,,,,,,,2022-08-09,1,,,,,ゼブラフィッシュ,0
2426,9210001019035,新規,0,2022-08-09,2022-08-09,株式会社井上鉄工所,,株式会社,福井県,三方郡美浜町,日向第４７号３番地,,18,442,9191126,,,,,,,2022-08-09,1,,,,,イノウエテッコウショ,0
2431,9240001060151,新規,0,2022-08-09,2022-08-09,坂本染工株式会社,,株式会社,広島県,福山市,神辺町大字川南２３１番地,,34,207,7202124,,,,,,,2022-08-09,1,,,,,サカモトセンコウ,0
2432,9240001060201,新規,0,2022-08-09,2022-08-09,株式会社ｎｙｃ,,株式会社,広島県,廿日市市,阿品台北７番６号,,34,213,7380051,,,,,,,2022-08-09,1,,,,,エヌワイシー,0
2439,9260003004006,新規,0,2022-08-09,2022-08-09,合同会社Ｓｍａｒｔ　Ｉｎｖｅｓｔｍｅｎｔ,,合同会社,岡山県,岡山市北区,今８丁目２番２５号,,33,101,7000975,,,,,,,2022-08-09,1,,,,,スマートインベストメント,0
2449,9310001017986,新規,0,2022-08-09,2022-08-09,株式会社カリオモンズ,,株式会社,長崎県,西彼杵郡時津町,左底郷２９７番地３,,42,308,8512106,,,,,,,2022-08-09,1,,,,,カリオモンズ,0
2450,9320001019263,新規,0,2022-08-09,2022-08-09,株式会社日本アグロエコロジー,,株式会社,大分県,大分市,大手町２丁目１番１０号大手町コーポ１０１号,,44,201,8700022,,,,,,,2022-08-09,1,,,,,ニホンアグロエコロジー,0
2452,9330001030013,新規,0,2022-08-09,2022-08-09,株式会社Ｈｉｇｈ　Ｗａｌｌ,,株式会社,熊本県,熊本市西区,上熊本２丁目８番２２号ホワイトステージ上熊本５０２号室,,43,103,8600079,,,,,,,2022-08-09,1,,,,,ハイウォール,0
2455,9360001030803,新規,0,2022-08-09,2022-08-09,株式会社ａｃｔｒｉｚｚ,,株式会社,沖縄県,浦添市,屋富祖２丁目４番１６－８０５号ラフィーネヌーベル屋富祖,,47,208,9012127,,,,,,,2022-08-09,1,,,,,アクトライズ,0
2460,9370001048919,新規,0,2022-08-09,2022-08-09,株式会社ＵＮＩＶＥＲＳＥ,,株式会社,宮城県,仙台市若林区,沖野２丁目１４番２２号シェ・ブランシュ３０６,,04,103,9840831,,,,,,,2022-08-09,1,,,,,,0
2476,9430001087241,新規,0,2022-08-09,2022-08-09,株式会社大澤設備,,株式会社,北海道,札幌市北区,新琴似十条１４丁目２番１号,,01,102,0010910,,,,,,,2022-08-09,1,,,,,オオサワセツビ,0
2477,9430001087290,新規,0,2022-08-09,2022-08-09,株式会社北海道サッポロライオン,,株式会社,北海道,札幌市中央区,南二条西２丁目７番地１,,01,101,0600062,,,,,,,2022-08-09,1,,,,,ホッカイドウサッポロライオン,0
2478,9430003014185,新規,0,2022-08-09,2022-08-09,ＥＬＩＴＥ　ＳＮＯＷＳＰＯＲＴＳ合同会社,,合同会社,北海道,磯谷郡蘭越町,字湯里１７番地５８,,01,394,0481321,,,,,,,2022-08-09,1,,,,,エリートスノースポーツ,0
2486,9480003001864,新規,0,2022-08-09,2022-08-09,合同会社凛,,合同会社,徳島県,徳島市,南沖洲５丁目４番２７－２０３号フランメゾン南沖洲Ａ,,36,201,7700874,,,,,,,2022-08-09,1,,,,,リン,0
2489,9500001024385,新規,0,2022-08-09,2022-08-09,株式会社Ｎａｎａｓｅ,,株式会社,愛媛県,松山市,柳井町１丁目１１番地１ステクルビル２－Ａ,,38,201,7900014,,,,,,,2022-08-09,1,,,,,ナナセ,0
2490,9500001024393,新規,0,2022-08-09,2022-08-09,シン・テクニカ株式会社,,株式会社,愛媛県,松山市,美沢２丁目７－１５,,38,201,7918022,,,,,,,2022-08-09,1,,,,,シンテクニカ,0
2491,9500003002876,新規,0,2022-08-09,2022-08-09,合同会社ココデアンド,,合同会社,愛媛県,西条市,玉津６４８番地１,,38,206,7930001,,,,,,,2022-08-09,1,,,,,ココデアンド,0
