sequenceNumber,corporateNumber,process,correct,updateDate,changeDate,name,nameImageId,kind,prefectureName,cityName,streetNumber,addressImageId,prefectureCode,cityCode,postCode,addressOutside,addressOutsideImageId,closeDate,closeCause,successorCorporateNumber,changeCause,assignmentDate,latest,enName,enPrefectureName,enCityName,enAddressOutside,furigana,hihyoji
8,1010003016859,登記記録の閉鎖等,0,2022-11-09,2022-11-02,ドラグーンスナイパーズ合同会社,,合同会社,東京都,千代田区,麹町２丁目２番３０号,,13,101,1020083,,,2022-11-02,清算の結了等,,,2015-10-05,1,,,,,ドラグーンスナイパーズ,0
23,1010405011862,登記記録の閉鎖等,0,2022-11-09,2022-10-21,一般社団法人国力倍増塾,,その他の設立登記法人,東京都,港区,芝大門２丁目１２番３号,,13,103,1050012,,,2022-10-21,清算の結了等,,,2015-10-05,1,,,,,コクリョクバイゾウジュク,0
32,1010803000384,登記記録の閉鎖等,0,2022-11-09,2022-10-26,七辻薬局合資会社,00052552,合資会社,東京都,大田区,東六郷１丁目１６番１２号,,13,111,1440046,,,2022-10-26,清算の結了等,,,2015-10-05,1,,,,,ナナツジヤッキョク,0
41,1011001136070,登記記録の閉鎖等,0,2022-11-09,2022-11-01,株式会社福,,株式会社,東京都,渋谷区,広尾４丁目１番２６号,,13,113,1500012,,,2022-11-01,清算の結了等,,,2020-09-28,1,,,,,フク,0
76,1011601025193,登記記録の閉鎖等,0,2022-11-09,2022-11-04,ＲＥ－Ｃｒｅａｔｅ株式会社,,株式会社,東京都,練馬区,大泉学園町２丁目８番３号パークサイド・パート２・１０５号室,,13,120,1780061,,,2022-11-04,清算の結了等,,,2021-06-18,1,,,,,リクリエイト,0
125,1030005012433,登記記録の閉鎖等,0,2022-11-09,2022-10-31,埼玉県金融業協同組合,,その他の設立登記法人,埼玉県,川口市,飯塚３丁目１０番１５号,,11,203,3320023,,,2022-10-31,清算の結了等,,,2015-10-05,1,,,,,サイタマケンキンユウギョウ,0
127,1040001028052,登記記録の閉鎖等,0,2022-11-09,2022-10-31,株式会社片桐工務店,,株式会社,千葉県,鎌ケ谷市,南初富６丁目３番２５号,,12,224,2730123,,,2022-10-31,清算の結了等,,,2015-10-05,1,,,,,カタギリコウムテン,0
158,1080402003179,登記記録の閉鎖等,0,2022-11-09,2022-11-08,株式会社ＮＢＣ,,株式会社,静岡県,浜松市東区,小池町５８８番地,,22,132,4350056,,,2022-11-08,清算の結了等,,,2015-10-05,1,,,,,エヌビーシー,0
219,1140001098622,登記記録の閉鎖等,0,2022-11-09,2022-11-08,株式会社リアン,,株式会社,兵庫県,神戸市西区,井吹台東町１丁目２番地の１、８－２０３号,,28,111,6512242,,,2022-11-08,清算の結了等,,,2015-10-05,1,,,,,リアン,0
220,1140001121350,登記記録の閉鎖等,0,2022-11-09,2022-11-01,あずき株式会社,,株式会社,兵庫県,芦屋市,三条町２５番３号,,28,206,6590087,,,2022-11-01,合併による解散等,7010901036457,令和４年１１月１日兵庫県芦屋市三条町２５番３号ｅｍｉｇｒａｔｉｏｎ株式会社（7010901036457）に合併し解散,2021-04-23,1,,,,,アズキ,0
241,1180002006332,登記記録の閉鎖等,0,2022-11-09,2022-11-04,三協鉄骨工業有限会社,,有限会社,愛知県,名古屋市港区,当知１丁目１５１３番地,,23,111,4550804,,,2022-11-04,清算の結了等,,,2015-10-05,1,,,,,サンキョウテッコツコウギョウ,0
260,1240002015260,登記記録の閉鎖等,0,2022-11-09,2022-11-04,有限会社堀尾商会,,有限会社,広島県,広島市南区,出汐４丁目１番１８－２０１号,,34,103,7340001,,,2022-11-04,清算の結了等,,,2015-10-05,1,,,,,ホリオショウカイ,0
261,1240002035952,登記記録の閉鎖等,0,2022-11-09,2022-11-04,有限会社藤井組,,有限会社,広島県,江田島市,大柿町深江１１１９番地の２,,34,215,7372214,,,2022-11-04,清算の結了等,,,2015-10-05,1,,,,,フジイグミ,0
264,1240002046850,登記記録の閉鎖等,0,2022-11-09,2022-11-02,有限会社ヤマモップメインテナンス,,有限会社,広島県,府中市,出口町４８４番地の６,,34,208,7260032,,,2022-11-02,清算の結了等,,,2015-10-05,1,,,,,ヤマモップメインテナンス,0
292,1330001021382,登記記録の閉鎖等,0,2022-11-09,2022-11-04,株式会社カミチクファーム九州,,株式会社,宮崎県,児湯郡高鍋町,大字上江７０３６番地３６,,45,401,8840006,,,2022-11-04,合併による解散等,9340002003074,令和４年１１月１日鹿児島市上福元町６９２１番地１株式会社カミチクファーム（9340002003074）に合併し解散,2015-10-05,1,,,,,カミチクファームキュウシュウ,0
315,1390002015452,登記記録の閉鎖等,0,2022-11-09,2022-11-04,有限会社草岡製作所,,有限会社,山形県,長井市,草岡１９７９番地,,06,209,9930063,,,2022-11-04,清算の結了等,,,2015-10-05,1,,,,,クサオカセイサクショ,0
318,1400002000816,登記記録の閉鎖等,0,2022-11-09,2022-11-07,有限会社河南印刷,,有限会社,岩手県,盛岡市,清水町１番２２号,,03,201,0200875,,,2022-11-07,清算の結了等,,,2015-10-05,1,,,,,カナンインサツ,0
344,1470001002963,登記記録の閉鎖等,0,2022-11-09,2022-11-07,東洋冷熱工業株式会社,,株式会社,香川県,高松市,林町２０２８番地の３,,37,201,7610301,,,2022-11-07,清算の結了等,,,2015-10-05,1,,,,,トウヨウレイネツコウギョウ,0
375,2010401064310,登記記録の閉鎖等,0,2022-11-09,2022-11-02,株式会社エデュアス,,株式会社,東京都,中央区,京橋２丁目２番１号,,13,102,1040031,,,2022-11-02,清算の結了等,,,2015-10-05,1,,,,,エデュアス,0
389,2010403018719,登記記録の閉鎖等,0,2022-11-09,2022-10-26,合同会社石垣島リゾートホテル・マネジメント,,合同会社,東京都,港区,西新橋１丁目２番９号メンターキャピタル税理士法人内,,13,103,1050003,,,2022-10-26,清算の結了等,,,2018-06-07,1,,,,,イシガキジマリゾートホテルマネジメント,0
392,2010502017002,登記記録の閉鎖等,0,2022-11-09,2022-11-08,有限会社ミヤマ,,有限会社,東京都,台東区,三筋１丁目１１番４号,,13,106,1110055,,,2022-11-08,清算の結了等,,,2015-10-05,1,,,,,ミヤマ,0
419,2011001035098,登記記録の閉鎖等,0,2022-11-09,2022-10-24,株式会社イメージソース,,株式会社,東京都,渋谷区,神泉町５番２号,,13,113,1500045,,,2022-10-24,合併による解散等,8010401096174,令和４年１０月１日東京都港区東新橋一丁目９番１号株式会社Ｄ２Ｃ　ｄｏｔ（8010401096174）に合併し解散,2015-10-05,1,,,,,,0
420,2011001044520,登記記録の閉鎖等,0,2022-11-09,2022-11-01,株式会社シーラボ・カスタマー・マーケティング,,株式会社,東京都,渋谷区,広尾１丁目１番３９号,,13,113,1500012,,,2022-11-01,合併による解散等,9011001031850,令和４年１１月１日東京都渋谷区広尾一丁目１番３９号ＪＮＴＬコンシューマーヘルス株式会社（9011001031850）に合併し解散,2015-10-05,1,,,,,シーラボカスタマーマーケティング,0
431,2011005006418,登記記録の閉鎖等,0,2022-11-09,2022-10-28,一般社団法人リップスアカデミー,,その他の設立登記法人,東京都,渋谷区,神宮前５丁目９番２号,,13,113,1500001,,,2022-10-28,清算の結了等,,,2015-10-05,1,,,,,リップスアカデミー,0
441,2011701008139,登記記録の閉鎖等,0,2022-11-09,2022-11-07,株式会社湯澤工業,,株式会社,東京都,江戸川区,篠崎町４丁目２番８号,,13,123,1330061,,,2022-11-07,清算の結了等,,,2015-10-05,1,,,,,ユザワコウギョウ,0
457,2020001002025,登記記録の閉鎖等,0,2022-11-09,2022-11-01,株式会社高成工業,,株式会社,神奈川県,横浜市緑区,北八朔町６０番地３４,,14,113,2260021,,,2022-11-01,清算の結了等,,,2015-10-05,1,,,,,タカナリコウギョウ,0
474,2021002048619,登記記録の閉鎖等,0,2022-11-09,2022-11-02,有限会社リョーナン設備,,有限会社,神奈川県,綾瀬市,上土棚南２丁目５番５７号,,14,218,2521114,,,2022-11-02,清算の結了等,,,2015-10-05,1,,,,,リョーナンセツビ,0
478,2021005010724,登記記録の閉鎖等,0,2022-11-09,2022-11-02,特定非営利活動法人アーバンデザインセンター・茅ヶ崎,,その他の設立登記法人,神奈川県,茅ヶ崎市,出口町６番４９号,,14,207,2530028,,,2022-11-02,清算の結了等,,,2016-08-16,1,,,,,,0
488,2030001131590,登記記録の閉鎖等,0,2022-11-09,2022-11-01,株式会社リオエンジニア,,株式会社,埼玉県,草加市,清門１丁目２４８番地３,,11,221,3400055,,,2022-11-01,合併による解散等,8030001112684,令和４年１１月１日埼玉県草加市清門一丁目２４８番地３株式会社グランデリオ（8030001112684）に合併し解散,2019-06-25,1,,,,,リオエンジニア,0
489,2030001143685,登記記録の閉鎖等,0,2022-11-09,2022-10-27,株式会社ライフベース,,株式会社,埼玉県,川口市,朝日４丁目１番２５号,,11,203,3320001,,,2022-10-27,清算の結了等,,,2021-08-10,1,,,,,ライフベース,0
504,2040001094721,登記記録の閉鎖等,0,2022-11-09,2022-10-31,株式会社ＩＴＯＵ,,株式会社,千葉県,千葉市美浜区,真砂２丁目２２番１－１００３号,,12,106,2610011,,,2022-10-31,清算の結了等,,,2016-04-12,1,,,,,,0
515,2040002031913,登記記録の閉鎖等,0,2022-11-09,2022-11-01,有限会社知野電気,,有限会社,千葉県,船橋市,咲が丘２丁目２６番２号,,12,204,2740807,,,2022-11-01,清算の結了等,,,2015-10-05,1,,,,,チノデンキ,0
524,2070001010881,登記記録の閉鎖等,0,2022-11-09,2022-10-28,株式会社三新金属,,株式会社,群馬県,高崎市,吉井町多胡５７番地,,10,202,3702116,,,2022-10-28,清算の結了等,,,2017-02-17,1,,,,,,0
528,2080001004560,登記記録の閉鎖等,0,2022-11-09,2022-11-07,藤田木工株式会社,,株式会社,静岡県,静岡市駿河区,用宗小石町５番２０号,,22,102,4210125,,,2022-11-07,清算の結了等,,,2015-10-05,1,,,,,フジタモッコウ,0
532,2090001000237,登記記録の閉鎖等,0,2022-11-09,2022-11-01,株式会社ウッディー,,株式会社,山梨県,甲府市,西高橋町１２８番地の５,,19,201,4000826,,,2022-11-01,合併による解散等,5090001010225,令和４年１１月１日山梨県富士吉田市上吉田東五丁目１２番４１号山梨木材市場株式会社（5090001010225）に合併し解散,2015-10-05,1,,,,,ウッディー,0
538,2100002002032,登記記録の閉鎖等,0,2022-11-09,2022-11-04,有限会社サン・ツール,,有限会社,長野県,長野市,箱清水３丁目１７番４号,,20,201,3800801,,,2022-11-04,清算の結了等,,,2015-10-05,1,,,,,サンツール,0
540,2100002017617,登記記録の閉鎖等,0,2022-11-09,2022-11-07,有限会社渡邉きのこ園,,有限会社,長野県,下高井郡木島平村,大字上木島１４１５番地,,20,562,3892303,,,2022-11-07,清算の結了等,,,2015-10-05,1,,,,,ワタナベキノコエン,0
563,2120002070366,登記記録の閉鎖等,0,2022-11-09,2022-11-04,有限会社スクーデリア,,有限会社,大阪府,大阪市西淀川区,千舟２丁目４番１１号２０１,,27,113,5550013,,,2022-11-04,清算の結了等,,,2015-10-05,1,,,,,スクーデリア,0
572,2120901031360,登記記録の閉鎖等,0,2022-11-09,2022-11-01,株式会社ハイハイ英語,,株式会社,大阪府,吹田市,垂水町３丁目２番１号２０１号－Ｂ,,27,205,5640062,,,2022-11-01,合併による解散等,7120901014237,令和４年１１月１日大阪府吹田市垂水町三丁目２番１号２０１号－Ａ株式会社ネクスト（7120901014237）に合併し解散,2015-10-05,1,,,,,ハイハイエイゴ,0
584,2130002006765,登記記録の閉鎖等,0,2022-11-09,2022-10-31,有限会社海老京,,有限会社,京都府,京都市下京区,綾小路通新町西入矢田町１１５番地の１,,26,106,6008442,,,2022-10-31,清算の結了等,,,2015-10-05,1,,,,,エビキョウ,0
613,2180002002512,登記記録の閉鎖等,0,2022-11-09,2022-11-04,有限会社高針不動産,,有限会社,愛知県,名古屋市名東区,名東本通４丁目２０番地,,23,115,4650087,,,2022-11-04,清算の結了等,,,2015-10-05,1,,,,,タカバリフドウサン,0
614,2180002060147,登記記録の閉鎖等,0,2022-11-09,2022-11-04,有限会社寺西商会,,有限会社,愛知県,名古屋市千種区,若水３丁目３番１号,,23,101,4640071,,,2022-11-04,清算の結了等,,,2015-10-05,1,,,,,テラニシショウカイ,0
654,2290005015574,登記記録の閉鎖等,0,2022-11-09,2022-11-08,一般社団法人よりよい終末を考える会,,その他の設立登記法人,福岡県,福岡市中央区,荒戸１丁目２番２－７０２号,,40,133,8100062,,,2022-11-08,清算の結了等,,,2015-10-05,1,,,,,ヨリヨイシュウマツヲカンガエルカイ,0
669,2360001027442,登記記録の閉鎖等,0,2022-11-09,2022-10-14,株式会社ａｔａｒｉ,,株式会社,沖縄県,那覇市,壺屋１丁目１８番１１号,,47,201,9020065,,,2022-10-14,合併による解散等,3430001058537,令和４年１０月１日沖縄県那覇市泉崎一丁目１６番１号株式会社田中商店（3430001058537）に合併し解散,2020-07-10,1,,,,,アタリ,0
695,2420001013709,登記記録の閉鎖等,0,2022-11-09,2022-11-01,株式会社チャペル,,株式会社,青森県,青森市,西大野３丁目２番地２,,02,201,0300856,,,2022-11-01,清算の結了等,,,2015-10-05,1,,,,,チャペル,0
707,2450001009654,登記記録の閉鎖等,0,2022-11-09,2022-11-01,株式会社石橋水産,,株式会社,北海道,紋別郡興部町,字興部２１９番地の２５,,01,561,0981600,,,2022-11-01,清算の結了等,,,2015-10-05,1,,,,,イシバシスイサン,0
717,2490001005006,登記記録の閉鎖等,0,2022-11-09,2022-11-07,土佐観光株式会社,,株式会社,高知県,土佐清水市,足摺岬７８３番地,00006411,39,209,7870315,,,2022-11-07,清算の結了等,,,2015-10-05,1,,,,,トサカンコウ,0
722,2500001022701,登記記録の閉鎖等,0,2022-11-09,2022-11-07,株式会社さんよう,,株式会社,愛媛県,松山市,高山町２番１８号,,38,201,7918079,,,2022-11-07,清算の結了等,,,2020-05-26,1,,,,,サンヨウ,0
735,3010002025677,登記記録の閉鎖等,0,2022-11-09,2022-11-01,有限会社村松テープ,,有限会社,東京都,中央区,日本橋馬喰町１丁目１１番１０号,,13,102,1030002,,,2022-11-01,清算の結了等,,,2015-10-05,1,,,,,ムラマツテープ,0
736,3010002052127,登記記録の閉鎖等,0,2022-11-09,2022-11-02,有限会社アウェイクリアルサポート,,有限会社,東京都,中央区,勝どき６丁目３番２－４７１５号,,13,102,1040054,,,2022-11-02,清算の結了等,,,2015-10-05,1,,,,,アウェイクリアルサポート,0
750,3010501029724,登記記録の閉鎖等,0,2022-11-09,2022-11-07,株式会社なかや商店,,株式会社,東京都,台東区,台東４丁目２２番１０号,,13,106,1100016,,,2022-11-07,清算の結了等,,,2015-10-05,1,,,,,ナカヤショウテン,0
757,3010601044078,登記記録の閉鎖等,0,2022-11-09,2022-11-04,株式会社ファーストスター,,株式会社,東京都,江東区,毛利１丁目３番５号,,13,108,1350001,,,2022-11-04,合併による解散等,9010001113089,令和４年１１月１日東京都中央区銀座三丁目１１番１号株式会社ベストサポートマネジメント（9010001113089）に合併し解散,2015-10-05,1,,,,,,0
761,3010603009517,登記記録の閉鎖等,0,2022-11-09,2022-11-02,ＷＣＣ合同会社,,合同会社,東京都,江東区,有明２丁目１－２－１９０１,,13,108,1350063,,,2022-11-02,清算の結了等,,,2022-05-10,1,,,,,ダブリューシーシー,0
775,3011001140707,登記記録の閉鎖等,0,2022-11-09,2022-11-07,株式会社クラシス,,株式会社,東京都,品川区,西五反田３丁目６番２０号,,13,109,1410031,,,2022-11-07,合併による解散等,4010001191230,令和４年１１月１日東京都千代田区麹町六丁目２番地６株式会社ＢｌｕＡｇｅ（4010001191230）に合併し解散,2021-05-25,1,,,,,,0
835,3030001126012,登記記録の閉鎖等,0,2022-11-09,2022-10-31,株式会社ネクサスプロキュアメント,,株式会社,埼玉県,さいたま市大宮区,吉敷町１丁目１０９番地６,,11,103,3300843,,,2022-10-31,清算の結了等,,,2018-06-06,1,,,,,ネクサスプロキュアメント,0
849,3040001019446,登記記録の閉鎖等,0,2022-11-09,2022-11-01,株式会社コンバーティングテクノロジィーズ,,株式会社,千葉県,船橋市,習志野４丁目１２番１号,,12,204,2740071,,,2022-11-01,合併による解散等,3040001019636,令和４年１０月１日千葉県船橋市習志野四丁目１２番１号株式会社タキガワ・コーポレーション・ジャパン（3040001019636）に合併し解散,2015-10-05,1,,,,,コンバーティングテクノロジィーズ,0
859,3040002045243,登記記録の閉鎖等,0,2022-11-09,2022-10-31,有限会社菊瑞工業,,有限会社,千葉県,松戸市,栄町西１丁目８２２番地,,12,207,2710061,,,2022-10-31,清算の結了等,,,2015-10-05,1,,,,,キクミズコウギョウ,0
874,3060002034566,登記記録の閉鎖等,0,2022-11-09,2022-11-01,有限会社フォンテーヌブロー,,有限会社,栃木県,下都賀郡壬生町,大字壬生丁２０５番地２,,09,361,3210216,,,2022-11-01,清算の結了等,,,2015-10-05,1,,,,,フォンテーヌブロー,0
878,3080101005937,登記記録の閉鎖等,0,2022-11-09,2022-11-07,株式会社東京鋲兼三島製作所,,株式会社,静岡県,駿東郡清水町,伏見１１番地,,22,341,4110907,,,2022-11-07,清算の結了等,,,2015-10-05,1,,,,,トウキョウビョウカネミシマセイサクショ,0
882,3080401000662,登記記録の閉鎖等,0,2022-11-09,2022-11-09,内山被服株式会社,,株式会社,静岡県,浜松市中区,城北２丁目２１番２３号,,22,131,4328011,,,2022-11-09,清算の結了等,,,2015-10-05,1,,,,,ウチヤマヒフク,0
918,3120101025872,登記記録の閉鎖等,0,2022-11-09,2022-11-04,湯川建設株式会社,,株式会社,大阪府,松原市,岡１丁目１２５番地の１,,27,217,5800014,,,2022-11-04,清算の結了等,,,2015-10-05,1,,,,,ユカワケンセツ,0
919,3120101037760,登記記録の閉鎖等,0,2022-11-09,2022-11-02,溝端組工業株式会社,00032428,株式会社,大阪府,岸和田市,神於町１０３番地,,27,202,5960112,,,2022-11-02,清算の結了等,,,2015-10-05,1,,,,,ミゾバタグミコウギョウ,0
920,3120101042744,登記記録の閉鎖等,0,2022-11-09,2022-11-01,臨海倉運株式会社,,株式会社,大阪府,泉大津市,臨海町１丁目２３番地,,27,206,5950075,,,2022-11-01,合併による解散等,7120101042518,令和４年１１月１日大阪府泉大津市臨海町一丁目２３番地南海通運株式会社（7120101042518）に合併し解散,2015-10-05,1,,,,,リンカイソウウン,0
929,3120901015346,登記記録の閉鎖等,0,2022-11-09,2022-11-01,株式会社スターパラダイス,,株式会社,大阪府,吹田市,垂水町３丁目２番１号２０１号－Ａ,,27,205,5640062,,,2022-11-01,合併による解散等,7120901014237,令和４年１１月１日大阪府吹田市垂水町三丁目２番１号２０１号－Ａ株式会社ネクスト（7120901014237）に合併し解散,2015-10-05,1,,,,,スターパラダイス,0
949,3140001119913,登記記録の閉鎖等,0,2022-11-09,2022-11-04,株式会社ＮＳＧ,,株式会社,兵庫県,伊丹市,緑ケ丘１丁目３２４番地,,28,207,6640012,,,2022-11-04,清算の結了等,,,2020-12-28,1,,,,,エヌエスジー,0
982,3180302015634,登記記録の閉鎖等,0,2022-11-09,2022-10-31,有限会社辻工業,00075048,有限会社,愛知県,蒲郡市,三谷北通２丁目１０４番地,,23,214,4430022,,,2022-10-31,清算の結了等,,,2015-10-05,1,,,,,ツジコウギョウ,0
987,3190002017517,登記記録の閉鎖等,0,2022-11-09,2022-11-02,有限会社境建装,,有限会社,三重県,桑名市,長島町出口２９７番地の２,,24,205,5111142,,,2022-11-02,清算の結了等,,,2015-10-05,1,,,,,サカイケンソウ,0
989,3200001000018,登記記録の閉鎖等,0,2022-11-09,2022-11-07,株式会社青木,,株式会社,岐阜県,岐阜市,梅林南町１１番地,,21,201,5008112,,,2022-11-07,清算の結了等,,,2015-10-05,1,,,,,アオキ,0
990,3200001015445,登記記録の閉鎖等,0,2022-11-09,2022-11-07,株式会社アビーロード,,株式会社,岐阜県,海津市,南濃町上野河戸６３８番地の７,,21,221,5030414,,,2022-11-07,清算の結了等,,,2015-10-05,1,,,,,アビーロード,0
991,3200001021245,登記記録の閉鎖等,0,2022-11-09,2022-11-08,株式会社一晴商店,,株式会社,岐阜県,土岐市,土岐津町土岐口７６番地の２,,21,212,5095122,,,2022-11-08,清算の結了等,,,2015-10-05,1,,,,,,0
997,3240002048226,登記記録の閉鎖等,0,2022-11-09,2022-11-04,有限会社シゲマツ,,有限会社,広島県,安芸郡熊野町,川角５丁目４番１７号,,34,307,7314223,,,2022-11-04,清算の結了等,,,2015-10-05,1,,,,,シゲマツ,0
1017,3330002025091,登記記録の閉鎖等,0,2022-11-09,2022-11-02,有限会社オートグラスサービス熊本,,有限会社,熊本県,宇城市,松橋町曲野４２番地７,,43,213,8690511,,,2022-11-02,清算の結了等,,,2015-10-05,1,,,,,オートグラスサービスクマモト,0
1034,3370301002424,登記記録の閉鎖等,0,2022-11-09,2022-10-31,株式会社日総,,株式会社,宮城県,石巻市,三輪田字谷津１５５番地の１,,04,202,9860124,,,2022-10-31,清算の結了等,,,2015-10-05,1,,,,,ニッソウ,0
1063,4010001041352,登記記録の閉鎖等,0,2022-11-09,2022-11-02,協和メディカルプロモーション株式会社,,株式会社,東京都,中央区,日本橋箱崎町３６番２号,,13,102,1030015,,,2022-11-02,清算の結了等,,,2015-10-05,1,,,,,キョウワメディカルプロモーション,0
1064,4010001139543,登記記録の閉鎖等,0,2022-11-09,2022-11-01,ストレージクラフトテクノロジー合同会社,,合同会社,東京都,渋谷区,千駄ヶ谷５丁目２７番３号やまとビル８階,,13,113,1510051,,,2022-11-01,清算の結了等,,,2015-10-05,1,,,,,ストレージクラフトテクノロジー,0
1069,4010001171975,登記記録の閉鎖等,0,2022-11-09,2022-11-01,デルタスリー株式会社,,株式会社,東京都,千代田区,一番町６番地,,13,101,1020082,,,2022-11-01,合併による解散等,5010001027887,令和４年１１月１日東京都千代田区一番町６一番町スクエア５階株式会社福祉開発研究所（5010001027887）に合併し解散,2015-11-27,1,,,,,デルタスリー,0
1076,4010001206450,登記記録の閉鎖等,0,2022-11-09,2022-11-07,Ａｌｏｎｇ　ｗｉｔｈ株式会社,,株式会社,東京都,新宿区,西新宿２丁目６番１号,,13,104,1600023,,,2022-11-07,合併による解散等,4010001155540,令和４年１０月３１日東京都新宿区西新宿二丁目６番１号株式会社Ｃａｓａ（4010001155540）に合併し解散,2020-01-08,1,,,,,アロンウィズ,0
1083,4010005030426,登記記録の閉鎖等,0,2022-11-09,2022-11-07,東京品川ロジ一般社団法人,,その他の設立登記法人,東京都,千代田区,内神田２丁目２番６号５階あすな会計事務所内,,13,101,1010047,,,2022-11-07,清算の結了等,,,2019-07-05,1,,,,,トウキョウシナガワロジ,0
1095,4010402025895,登記記録の閉鎖等,0,2022-11-09,2022-10-25,有限会社エムツー・コンベンション,,有限会社,東京都,港区,赤坂８丁目９番１４号,,13,103,1070052,,,2022-10-25,清算の結了等,,,2015-10-05,1,,,,,エムツーコンベンション,0
1097,4010501026984,登記記録の閉鎖等,0,2022-11-09,2022-11-01,株式会社ＬＡＢＣＯ,,株式会社,東京都,中央区,日本橋浜町２丁目３１番１号,,13,102,1030007,,,2022-11-01,合併による解散等,9010001086426,令和４年１１月１日東京都中央区日本橋浜町二丁目３１番１号ＡＢＣシステム株式会社（9010001086426）に合併し解散,2015-10-05,1,,,,,ラブコ,0
1107,4010702003790,登記記録の閉鎖等,0,2022-11-09,2022-11-02,有限会社ヘアーメイクエムワイケイ,,有限会社,東京都,品川区,上大崎２丁目２４番１３－９０６号,,13,109,1410021,,,2022-11-02,清算の結了等,,,2015-10-05,1,,,,,ヘアーメイクエムワイケイ,0
1117,4011001146703,登記記録の閉鎖等,0,2022-11-09,2022-11-01,Ｄｉａｍｏｎｄ　Ｊａｐａｎ株式会社,,株式会社,東京都,渋谷区,広尾１丁目１番３９号,,13,113,1500012,,,2022-11-01,合併による解散等,9011001031850,令和４年１１月１日東京都渋谷区広尾一丁目１番３９号株式会社ドクターシーラボ（9011001031850）に合併し解散,2022-04-08,1,,,,,ダイヤモンドジャパン,0
1126,4011101039443,登記記録の閉鎖等,0,2022-11-09,2022-11-01,株式会社ホロス人材開発研究所,,株式会社,埼玉県,狭山市,沢３番１１号,,11,215,3501303,,,2022-11-01,清算の結了等,,,2015-10-05,1,,,,,ホロスジンザイカイハツケンキュウジョ,0
1134,4011201003316,登記記録の閉鎖等,0,2022-11-09,2022-11-07,株式会社地球堂,,株式会社,東京都,中野区,弥生町５丁目１３番５号,,13,114,1640013,,,2022-11-07,清算の結了等,,,2015-10-05,1,,,,,チキュウドウ,0
1135,4011203003561,登記記録の閉鎖等,0,2022-11-09,2022-11-08,合同会社第一サービス,,合同会社,東京都,中野区,鷺宮３丁目２８番８号シティハイム中山２０５,,13,114,1650032,,,2022-11-08,清算の結了等,,,2021-06-09,1,,,,,ダイイチサービス,0
1138,4011501006002,登記記録の閉鎖等,0,2022-11-09,2022-11-01,誠香インフィニティ株式会社,,株式会社,東京都,荒川区,東日暮里６丁目２２番１５号,,13,118,1160014,,,2022-11-01,清算の結了等,,,2015-10-05,1,,,,,セイコウインフィニティ,0
1209,4040001082303,登記記録の閉鎖等,0,2022-11-09,2022-11-01,株式会社栗田,,株式会社,千葉県,富里市,七栄１３２番地２ヴィレッヂ七栄２０１号,,12,233,2860221,,,2022-11-01,清算の結了等,,,2015-10-05,1,,,,,クリタ,0
1218,4040003008735,登記記録の閉鎖等,0,2022-11-09,2022-10-31,合同会社ケアプランあびこ,,合同会社,千葉県,我孫子市,南新木１丁目２９番地の１,,12,222,2701119,,,2022-10-31,清算の結了等,,,2016-06-24,1,,,,,ケアプランアビコ,0
1230,4060001020814,登記記録の閉鎖等,0,2022-11-09,2022-11-01,株式会社楡工芸,,株式会社,栃木県,佐野市,閑馬町７８０番地,,09,204,3270321,,,2022-11-01,清算の結了等,,,2015-10-05,1,,,,,ニレコウゲイ,0
1243,4090001001745,登記記録の閉鎖等,0,2022-11-09,2022-11-02,株式会社白金工房,,株式会社,山梨県,甲府市,川田町アリア２０２,,19,201,4000811,,,2022-11-02,清算の結了等,,,2015-10-05,1,,,,,シロガネコウボウ,0
1244,4100001000126,登記記録の閉鎖等,0,2022-11-09,2022-11-07,株式会社アズマ電子,,株式会社,長野県,長野市,大字風間下河原２０３４番１２,,20,201,3810023,,,2022-11-07,清算の結了等,,,2015-10-05,1,,,,,アズマデンシ,0
1246,4100002035071,登記記録の閉鎖等,0,2022-11-09,2022-11-07,有限会社愛生館藥局,,有限会社,長野県,上伊那郡辰野町,大字平出１５２７番地,,20,382,3990422,,,2022-11-07,清算の結了等,,,2015-10-05,1,,,,,アイセイカンヤッキョク,0
1257,4120001099561,登記記録の閉鎖等,0,2022-11-09,2022-11-08,株式会社エコ技研,,株式会社,大阪府,大阪市西区,立売堀４丁目７番１５号,,27,106,5500012,,,2022-11-08,清算の結了等,,,2015-10-05,1,,,,,エコギケン,0
1276,4120101033197,登記記録の閉鎖等,0,2022-11-09,2022-11-07,株式会社菅原機械工業所,,株式会社,大阪府,藤井寺市,惣社２丁目２番４０号,,27,226,5830005,,,2022-11-07,清算の結了等,,,2015-10-05,1,,,,,スガハラキカイコウギョウショ,0
1286,4120901010932,登記記録の閉鎖等,0,2022-11-09,2022-11-04,株式会社佐藤鉄工所,,株式会社,大阪府,高槻市,大字唐崎１１９２番地３,,27,207,5690834,,,2022-11-04,清算の結了等,,,2015-10-05,1,,,,,,0
1290,4120901019172,登記記録の閉鎖等,0,2022-11-09,2022-11-01,株式会社ジーエスオー,,株式会社,大阪府,吹田市,垂水町３丁目２番１号２０１号－Ａ,,27,205,5640062,,,2022-11-01,合併による解散等,7120901014237,令和４年１１月１日大阪府吹田市垂水町三丁目２番１号２０１号－Ａ株式会社ネクスト（7120901014237）に合併し解散,2015-10-05,1,,,,,ジーエスオー,0
1295,4130001048609,登記記録の閉鎖等,0,2022-11-09,2022-10-31,株式会社オカデン,,株式会社,京都府,京都市左京区,一乗寺馬場町１６番地,,26,103,6068132,,,2022-10-31,清算の結了等,,,2015-10-05,1,,,,,オカデン,0
1316,4140003009260,登記記録の閉鎖等,0,2022-11-09,2022-11-07,合同会社余市,,合同会社,兵庫県,西脇市,小坂町１１１番地１０１号,,28,213,6770017,,,2022-11-07,清算の結了等,,,2015-10-05,1,,,,,ヨイチ,0
1336,4180001137712,登記記録の閉鎖等,0,2022-11-09,2022-11-07,株式会社ネクストゲイト,,株式会社,愛知県,名古屋市昭和区,山脇町４丁目２５番地の５,,23,107,4660063,,,2022-11-07,清算の結了等,,,2019-08-08,1,,,,,ネクストゲイト,0
1341,4180003012921,登記記録の閉鎖等,0,2022-11-09,2022-11-07,合資会社加古電機鉄工所,,合資会社,愛知県,大府市,長草町田面８番地,,23,223,4740052,,,2022-11-07,清算の結了等,,,2015-10-05,1,,,,,カコデンキテッコウショ,0
1342,4180003021047,登記記録の閉鎖等,0,2022-11-09,2022-11-04,合同会社プラトー設計,,合同会社,愛知県,名古屋市昭和区,駒方町２丁目７６番地,,23,107,4660832,,,2022-11-04,清算の結了等,,,2020-04-06,1,,,,,プラトーセッケイ,0
1360,4220001020475,登記記録の閉鎖等,0,2022-11-09,2022-11-07,株式会社アヴァンティオ,,株式会社,石川県,金沢市,笠市町４番１０号スコーレハイツロイヤル笠市３０５号,,17,201,9200851,,,2022-11-07,清算の結了等,,,2015-10-05,1,,,,,アヴァンティオ,0
1377,4290001091147,登記記録の閉鎖等,0,2022-11-09,2022-11-04,株式会社ＭＦ　ＭＳ　Ｚ,,株式会社,福岡県,福岡市中央区,薬院４丁目１３番６２号,,40,133,8100022,,,2022-11-04,合併による解散等,6320001011157,令和４年１１月１日大分県中津市大字是則１１３６番地株式会社ＧＬ　ＨＡＫＫＯ（6320001011157）に合併し解散,2020-12-09,1,,,,,エムエフエムエスジー,0
1388,4300001012200,登記記録の閉鎖等,0,2022-11-09,2022-11-01,バリューエステート株式会社,,株式会社,佐賀県,佐賀市,兵庫北７丁目１８番地２,,41,201,8490919,,,2022-11-01,合併による解散等,9300001007154,令和４年１０月１日佐賀県唐津市原１３６０番地１株式会社栗原木材店（9300001007154）に合併し解散,2020-09-08,1,,,,,バリューエステート,0
1397,4330003003938,登記記録の閉鎖等,0,2022-11-09,2022-11-02,合資会社立川商店,,合資会社,熊本県,天草市,東浜町１９番１４号,,43,215,8630014,,,2022-11-02,清算の結了等,,,2015-10-05,1,,,,,タチカワショウテン,0
1404,4360001021971,登記記録の閉鎖等,0,2022-11-09,2022-11-01,株式会社アップルパーク沖縄,,株式会社,沖縄県,那覇市,銘苅３丁目１番３８号,,47,201,9000004,,,2022-11-01,清算の結了等,,,2017-03-01,1,,,,,,0
1423,4402705000362,登記記録の閉鎖等,0,2022-11-09,2022-11-02,一般社団法人大船渡市母子寡婦福祉協会,,その他の設立登記法人,岩手県,大船渡市,大船渡町字新田４３番地１０,,03,203,0220002,,,2022-11-02,清算の結了等,,,2015-10-05,1,,,,,オオフナトシボシカフフクシキョウカイ,0
1424,4430001042622,登記記録の閉鎖等,0,2022-11-09,2022-10-28,北海三栄株式会社,,株式会社,北海道,江別市,工栄町２０番地１４,,01,217,0670051,,,2022-10-28,清算の結了等,,,2015-10-05,1,,,,,ホッカイサンエイ,0
1427,4430001077619,登記記録の閉鎖等,0,2022-11-09,2022-11-01,三友建鐵株式会社,,株式会社,北海道,札幌市手稲区,前田十二条１０丁目９番１－１０１号,,01,109,0060822,,,2022-11-01,清算の結了等,,,2018-10-26,1,,,,,サンユウケンテツ,0
1438,4500001022906,登記記録の閉鎖等,0,2022-11-09,2022-11-07,株式会社ｅｖｏｌｕｔｉｏｎ,,株式会社,愛媛県,新居浜市,西の土居町２丁目１０番８号,,38,205,7920035,,,2022-11-07,清算の結了等,,,2020-09-11,1,,,,,エヴォリューション,0
1447,5010001128512,登記記録の閉鎖等,0,2022-11-09,2022-11-01,株式会社エネルダイン,,株式会社,東京都,千代田区,鍛冶町２丁目４番５号,,13,101,1010044,,,2022-11-01,合併による解散等,5010001127217,令和４年１１月１日東京都千代田区鍛冶町二丁目４番５号株式会社パル・コーポレーション（5010001127217）に合併し解散,2015-10-05,1,,,,,エネルダイン,0
1451,5010001191576,登記記録の閉鎖等,0,2022-11-09,2022-11-02,株式会社リミートミー,,株式会社,東京都,中央区,日本橋蛎殻町１丁目１８番１号,,13,102,1030014,,,2022-11-02,清算の結了等,,,2018-05-09,1,,,,,リミートミー,0
1460,5010003018645,登記記録の閉鎖等,0,2022-11-09,2022-11-02,株式会社ＢＬＡＣＫ　ＳＴＡＲ＆ＣＯ．,,株式会社,東京都,千代田区,麹町２丁目２番３０号,,13,101,1020083,,,2022-11-02,清算の結了等,,,2015-10-05,1,,,,,ブラックスターアンドシーオードット,0
1474,5010401151428,登記記録の閉鎖等,0,2022-11-09,2022-10-25,スエズウォーターサービス株式会社,,株式会社,東京都,港区,港南２丁目１６番４号品川グランドセントラルタワー８階,,13,103,1080075,,,2022-10-25,清算の結了等,,,2020-03-04,1,,,,,スエズウォーターサービス,0
1502,5011001117141,登記記録の閉鎖等,0,2022-11-09,2022-11-04,株式会社アルカグラム,,株式会社,東京都,八王子市,三崎町２番７号ヨーロービル１階,,13,201,1920084,,,2022-11-04,清算の結了等,,,2017-07-06,1,,,,,,0
1537,5011801028463,登記記録の閉鎖等,0,2022-11-09,2022-11-07,株式会社Ｖｉｖａｎｔ,,株式会社,東京都,足立区,千住龍田町３番１０号,,13,121,1200042,,,2022-11-07,合併による解散等,8011802029284,令和４年１０月３１日東京都中央区銀座一丁目２７番７号株式会社リヨンブルーアンテルナショナル（8011802029284）に合併し解散,2015-10-05,1,,,,,,0
1545,5012801017778,登記記録の閉鎖等,0,2022-11-09,2022-10-31,株式会社ＳＯＯＮＲＹＥ,,株式会社,東京都,昭島市,朝日町１丁目４－１,,13,207,1960025,,,2022-10-31,清算の結了等,,,2017-02-10,1,,,,,スンレ,0
1573,5030001056835,登記記録の閉鎖等,0,2022-11-09,2022-11-04,株式会社彩コーポレーション,,株式会社,東京都,あきる野市,山田８０８番地３,,13,228,1900144,,,2022-11-04,清算の結了等,,,2015-10-05,1,,,,,サイコーポレーション,0
1611,5080001002586,登記記録の閉鎖等,0,2022-11-09,2022-11-02,株式会社Ａｐｏｌｌｏｎ,,株式会社,東京都,文京区,白山４丁目２３番３号,,13,105,1120001,,,2022-11-02,清算の結了等,,,2015-10-05,1,,,,,アポロン,0
1652,5120901031498,登記記録の閉鎖等,0,2022-11-09,2022-11-04,株式会社アクセル,,株式会社,大阪府,箕面市,桜４丁目１１番１０号,,27,220,5620041,,,2022-11-04,清算の結了等,,,2015-10-05,1,,,,,アクセル,0
1656,5122001016842,登記記録の閉鎖等,0,2022-11-09,2022-10-31,株式会社エースサプライ,,株式会社,大阪府,大東市,明美の里町１１番１号２０２号,,27,218,5740003,,,2022-10-31,清算の結了等,,,2015-10-05,1,,,,,エースサプライ,0
1662,5130001072194,登記記録の閉鎖等,0,2022-11-09,2022-11-02,株式会社親館,,株式会社,京都府,京都市北区,西賀茂北川上町５８番地２,,26,101,6038816,,,2022-11-02,清算の結了等,,,2022-07-13,1,,,,,オヤカン,0
1704,5180002035807,登記記録の閉鎖等,0,2022-11-09,2022-11-04,有限会社ミサト電工,,有限会社,愛知県,名古屋市中川区,万場５丁目４３８番地,,23,110,4540997,,,2022-11-04,清算の結了等,,,2015-10-05,1,,,,,ミサトデンコウ,0
1717,5200002016564,登記記録の閉鎖等,0,2022-11-09,2022-11-07,和知産業有限会社,,有限会社,岐阜県,加茂郡八百津町,和知２０１８番地,,21,505,5050305,,,2022-11-07,清算の結了等,,,2015-10-05,1,,,,,ワチサンギョウ,0
1731,5240002050048,登記記録の閉鎖等,0,2022-11-09,2022-11-02,因島ハーネス有限会社,,有限会社,広島県,尾道市,因島外浦町９８７番地の５,,34,205,7222213,,,2022-11-02,清算の結了等,,,2015-10-05,1,,,,,インノシマハーネス,0
1741,5290001010023,登記記録の閉鎖等,0,2022-11-09,2022-11-07,株式会社福岡牧場,,株式会社,東京都,品川区,上大崎３丁目１番１号目黒セントラルスクエア１５階,,13,109,1410021,,,2022-11-07,合併による解散等,2010703006332,令和４年１１月７日東京都品川区上大崎三丁目１番１号目黒セントラルスクエア１５階福岡牧場ホールディングス合同会社（2010703006332）に合併し解散,2015-10-05,1,,,,,フクオカボクジョウ,0
1754,5290005015159,登記記録の閉鎖等,0,2022-11-09,2022-11-07,一般社団法人おひさまクラブ,,その他の設立登記法人,福岡県,春日市,下白水南２丁目６０番,,40,218,8160846,,,2022-11-07,清算の結了等,,,2015-10-05,1,,,,,オヒサマクラブ,0
1771,5360001018406,登記記録の閉鎖等,0,2022-11-09,2022-11-01,株式会社黒潮,,株式会社,沖縄県,八重山郡与那国町,字与那国２６５５番地１,,47,382,9071801,,,2022-11-01,清算の結了等,,,2015-10-05,1,,,,,,0
1777,5370002019286,登記記録の閉鎖等,0,2022-11-09,2022-10-31,有限会社東日本パントリーサービス,,有限会社,宮城県,仙台市青葉区,国分町３丁目９番７－１２０２号,,04,101,9800803,,,2022-10-31,清算の結了等,,,2015-10-05,1,,,,,,0
1800,5430005008206,登記記録の閉鎖等,0,2022-11-09,2022-10-12,明治神社,,その他の設立登記法人,北海道,余市郡余市町,入舟町４２番地,,01,408,0460011,,,2022-10-12,合併による解散等,9430005007914,令和４年１０月１２日北海道小樽市塩谷二丁目２０番２０号塩谷神社（9430005007914）と合併し解散,2015-10-05,1,,,,,メイジジンジャ,0
1814,6010001203272,登記記録の閉鎖等,0,2022-11-09,2022-11-02,オーディオバースト株式会社,,株式会社,東京都,千代田区,麹町２丁目１４番６号麹町パレス２０３,,13,101,1020083,,,2022-11-02,清算の結了等,,,2019-08-15,1,,,,,オーディオバースト,0
1848,6010701038885,登記記録の閉鎖等,0,2022-11-09,2022-10-28,株式会社湘南新聞社,,株式会社,東京都,大田区,蒲田５丁目３３番６号７Ｆ,,13,111,1440052,,,2022-10-28,清算の結了等,,,2020-02-13,1,,,,,ショウナンシンブンシャ,0
1866,6011001128658,登記記録の閉鎖等,0,2022-11-09,2022-10-31,株式会社ＧＡＴＨＥＲ,,株式会社,東京都,千代田区,神田須田町２丁目１５－９加藤ビル４階,,13,101,1010041,,,2022-10-31,清算の結了等,,,2019-06-28,1,,,,,ギャザー,0
1884,6011301017742,登記記録の閉鎖等,0,2022-11-09,2022-10-31,株式会社シルビアホールディングス,,株式会社,東京都,杉並区,高円寺南２丁目２３番１０号,,13,115,1660003,,,2022-10-31,清算の結了等,,,2015-10-05,1,,,,,,0
1916,6021001028931,登記記録の閉鎖等,0,2022-11-09,2022-11-01,ファスナー工業株式会社,,株式会社,神奈川県,海老名市,東柏ケ谷５丁目２番３７号,,14,215,2430401,,,2022-11-01,合併による解散等,3021001026863,令和４年１１月１日神奈川県海老名市東柏ケ谷五丁目２番３７号株式会社サガミパーツ（3021001026863）に合併し解散,2015-10-05,1,,,,,ファスナーコウギョウ,0
1970,6110001014701,登記記録の閉鎖等,0,2022-11-09,2022-11-04,丸栄商事株式会社,,株式会社,新潟県,三条市,本町１丁目２番１９号,,15,204,9550071,,,2022-11-04,清算の結了等,,,2015-10-05,1,,,,,マルエイショウジ,0
1979,6120001219299,登記記録の閉鎖等,0,2022-11-09,2022-11-07,株式会社リュウシン,,株式会社,大阪府,大阪市東住吉区,住道矢田６丁目１３－１０,,27,121,5460022,,,2022-11-07,清算の結了等,,,2019-03-07,1,,,,,リュウシン,0
2006,6130001061072,登記記録の閉鎖等,0,2022-11-09,2022-11-01,株式会社伏見建物,,株式会社,京都府,京都市伏見区,久我森の宮町１１番地７３,,26,109,6128495,,,2022-11-01,清算の結了等,,,2017-12-07,1,,,,,フシミタテモノ,0
2014,6140002015712,登記記録の閉鎖等,0,2022-11-09,2022-11-04,有限会社フジコウ測量事務所,,有限会社,兵庫県,神戸市中央区,海岸通２丁目２番３号,,28,110,6500024,,,2022-11-04,清算の結了等,,,2015-10-05,1,,,,,フジコウソクリョウジムショ,0
2016,6140003009259,登記記録の閉鎖等,0,2022-11-09,2022-11-07,合同会社Ｇ－Ｌｉｖｅｔ,,合同会社,兵庫県,多可郡多可町,八千代区下三原１５２番地,,28,365,6770131,,,2022-11-07,清算の結了等,,,2015-10-05,1,,,,,ジーリベット,0
2026,6180001009447,登記記録の閉鎖等,0,2022-11-09,2022-11-07,株式会社水益商店,,株式会社,愛知県,名古屋市昭和区,広見町１丁目６番地,,23,107,4660046,,,2022-11-07,清算の結了等,,,2015-10-05,1,,,,,ミズマスショウテン,0
2028,6180001091767,登記記録の閉鎖等,0,2022-11-09,2022-11-01,株式会社スミアツ配送,,株式会社,愛知県,半田市,日東町１番地の４８,,23,205,4750033,,,2022-11-01,合併による解散等,6180001091775,令和４年１１月１日愛知県半田市日東町１番地の４セイアツ興運株式会社（6180001091775）に合併し解散,2015-10-05,1,,,,,スミアツハイソウ,0
2034,6180002019494,登記記録の閉鎖等,0,2022-11-09,2022-11-07,有限会社ミタカ製作所,,有限会社,愛知県,名古屋市中川区,松ノ木町１丁目１３番地,,23,110,4540848,,,2022-11-07,清算の結了等,,,2015-10-05,1,,,,,ミタカセイサクショ,0
2046,6190001010296,登記記録の閉鎖等,0,2022-11-09,2022-11-02,西部土木設計株式会社,,株式会社,三重県,松阪市,高町４６５番地の５,,24,204,5150011,,,2022-11-02,清算の結了等,,,2015-10-05,1,,,,,セイブドボクセッケイ,0
2057,6230002009184,登記記録の閉鎖等,0,2022-11-09,2022-11-08,有限会社テック・ワン,,有限会社,富山県,砺波市,表町７番５号,,16,208,9391366,,,2022-11-08,清算の結了等,,,2015-10-05,1,,,,,テックワン,0
2069,6280002000444,登記記録の閉鎖等,0,2022-11-09,2022-11-07,有限会社大西自動車,,有限会社,島根県,松江市,学園２丁目２７番１３号,,32,201,6900825,,,2022-11-07,清算の結了等,,,2015-10-05,1,,,,,オオニシジドウシャ,0
2071,6290001008974,登記記録の閉鎖等,0,2022-11-09,2022-11-07,東邦工業株式会社,,株式会社,東京都,品川区,上大崎３丁目１番１号目黒セントラルスクエア１５階,,13,109,1410021,,,2022-11-07,合併による解散等,2010703006332,令和４年１１月７日東京都品川区上大崎三丁目１番１号目黒セントラルスクエア１５階福岡牧場ホールディングス合同会社（2010703006332）に合併し解散,2015-10-05,1,,,,,トウホウコウギョウ,0
2092,6310003003707,登記記録の閉鎖等,0,2022-11-09,2022-11-08,山本建設合同会社,,合同会社,長崎県,雲仙市,国見町多比良丁２２３７番地,,42,213,8591324,,,2022-11-08,清算の結了等,,,2019-07-26,1,,,,,ヤマモトケンセツ,0
2107,6340005004337,登記記録の閉鎖等,0,2022-11-09,2022-11-07,特定非営利活動法人ＮＰＯふりいじあ,,その他の設立登記法人,鹿児島県,熊毛郡南種子町,平山１４９番地,,46,502,8913702,,,2022-11-07,清算の結了等,,,2015-10-05,1,,,,,エヌピーオーフリイジア,0
2130,6400002009613,登記記録の閉鎖等,0,2022-11-09,2022-11-07,有限会社花北建機リース,,有限会社,岩手県,北上市,村崎野２３地割３０番地１０,,03,206,0240004,,,2022-11-07,清算の結了等,,,2015-10-05,1,,,,,ハナキタケンキリース,0
2136,6430001040938,登記記録の閉鎖等,0,2022-11-09,2022-11-01,株式会社山裕,,株式会社,北海道,札幌市豊平区,西岡四条１４丁目１３番１７号,,01,105,0620034,,,2022-11-01,清算の結了等,,,2015-10-05,1,,,,,サンユウ,0
2176,7010101003670,登記記録の閉鎖等,0,2022-11-09,2022-11-07,牧野建設株式会社,,株式会社,東京都,八王子市,散田町３丁目１３番５号,,13,201,1930832,,,2022-11-07,清算の結了等,,,2015-10-05,1,,,,,マキノケンセツ,0
2184,7010401094567,登記記録の閉鎖等,0,2022-11-09,2022-11-07,エイブリィ・デニソン・ジャパン・マテリアルズ株式会社,,株式会社,東京都,港区,海岸１丁目２番２０号汐留ビルディング１３Ｆ,,13,103,1050022,,,2022-11-07,合併による解散等,1010401078914,令和４年１１月１日東京都港区海岸一丁目２番２０号汐留ビルディング１３Ｆエイブリィ・デニソン・ジャパン株式会社（1010401078914）に合併し解散,2015-10-05,1,,,,,エイブリィデニソンジャパンマテリアルズ,0
2197,7010405017160,登記記録の閉鎖等,0,2022-11-09,2022-10-26,一般社団法人Ａ．Ｐ．南青山,,その他の設立登記法人,東京都,港区,元赤坂１丁目１番７号,,13,103,1070051,,,2022-10-26,清算の結了等,,,2018-10-24,1,,,,,エーピーミナミアオヤマ,0
2207,7010702012483,登記記録の閉鎖等,0,2022-11-09,2022-11-04,有限会社ＲＳデータ・アナリシス,,有限会社,東京都,品川区,東中延１丁目４番７号,,13,109,1420052,,,2022-11-04,清算の結了等,,,2015-10-05,1,,,,,アールエスデータアナリシス,0
2250,7011402009506,登記記録の閉鎖等,0,2022-11-09,2022-11-07,有限会社ワイアンドエヌビューティプロジェクト,,有限会社,東京都,板橋区,成増２丁目２７番８－２０３号,,13,119,1750094,,,2022-11-07,清算の結了等,,,2015-10-05,1,,,,,ワイアンドエヌビューティプロジェクト,0
2260,7012402021269,登記記録の閉鎖等,0,2022-11-09,2022-11-04,有限会社テンホーぐみ,,有限会社,東京都,武蔵野市,吉祥寺東町１丁目４番１４号アーク吉祥寺東町２０１号,,13,203,1800002,,,2022-11-04,清算の結了等,,,2015-10-05,1,,,,,テンホーグミ,0
2273,7020001057972,登記記録の閉鎖等,0,2022-11-09,2022-11-02,株式会社デジタルフロー,,株式会社,神奈川県,茅ヶ崎市,浜竹４丁目１番３０号,,14,207,2530021,,,2022-11-02,清算の結了等,,,2015-10-05,1,,,,,デジタルフロー,0
2278,7021001001177,登記記録の閉鎖等,0,2022-11-09,2022-11-02,株式会社スバル,,株式会社,神奈川県,藤沢市,辻堂太平台２丁目３番１号,,14,205,2510044,,,2022-11-02,清算の結了等,,,2015-10-05,1,,,,,スバル,0
2284,7021001063481,登記記録の閉鎖等,0,2022-11-09,2022-10-07,ＹＭリアルエステート株式会社,,株式会社,神奈川県,鎌倉市,長谷２丁目１番７号,,14,204,2480016,,,2022-10-07,合併による解散等,,令和４年５月２７日東京地方裁判所の分割無効の判決確定により解散（東京都品川区北品川五丁目５番２５号株式会社宮創（2010701009535）から分割により設立）,2017-11-15,1,,,,,,0
2299,7030002012728,登記記録の閉鎖等,0,2022-11-09,2022-10-31,有限会社マルワたぬきや,00016169,有限会社,埼玉県,さいたま市中央区,上落合２丁目１０番６号,,11,105,3380001,,,2022-10-31,清算の結了等,,,2015-10-05,1,,,,,マルワタヌキヤ,0
2303,7030002120786,登記記録の閉鎖等,0,2022-11-09,2022-10-31,有限会社ＫＤＣ,,有限会社,埼玉県,飯能市,美杉台４丁目１４番地１６,,11,209,3570041,,,2022-10-31,清算の結了等,,,2015-10-05,1,,,,,ケイディシー,0
2326,7080402005863,登記記録の閉鎖等,0,2022-11-09,2022-11-04,有限会社日本情報科学研究所,,有限会社,静岡県,掛川市,南１丁目１５番３号,,22,213,4360029,,,2022-11-04,清算の結了等,,,2015-10-05,1,,,,,ニホンジョウホウカガクケンキュウジョ,0
2335,7120001004972,登記記録の閉鎖等,0,2022-11-09,2022-11-07,株式会社大型空調,,株式会社,大阪府,大阪市阿倍野区,丸山通２丁目３番２０号,,27,119,5450042,,,2022-11-07,清算の結了等,,,2015-10-05,1,,,,,オオガタクウチョウ,0
2336,7120001025374,登記記録の閉鎖等,0,2022-11-09,2022-11-07,株式会社松田カバン,,株式会社,大阪府,大阪市天王寺区,堂ケ芝２丁目１４番７号,,27,109,5430033,,,2022-11-07,清算の結了等,,,2015-10-05,1,,,,,マツダカバン,0
2401,7180001002649,登記記録の閉鎖等,0,2022-11-09,2022-11-04,株式会社ナスタ,,株式会社,愛知県,名古屋市瑞穂区,亀城町６丁目１１番地,,23,108,4670876,,,2022-11-04,清算の結了等,,,2015-10-05,1,,,,,ナスタ,0
2403,7180001032704,登記記録の閉鎖等,0,2022-11-09,2022-11-02,株式会社丸文商店,,株式会社,愛知県,名古屋市中村区,中島町１丁目６２番地,,23,105,4530022,,,2022-11-02,清算の結了等,,,2015-10-05,1,,,,,マルブンショウテン,0
2414,7180002086014,登記記録の閉鎖等,0,2022-11-09,2022-11-02,有限会社柿田工業,,有限会社,愛知県,常滑市,奥条１丁目９６番地,,23,216,4790822,,,2022-11-02,清算の結了等,,,2015-10-05,1,,,,,カキタコウギョウ,0
2419,7180005006290,登記記録の閉鎖等,0,2022-11-09,2022-11-02,特定非営利活動法人華調舞月,,その他の設立登記法人,愛知県,名古屋市緑区,大高町字砂畑２３番地の３,,23,114,4598001,,,2022-11-02,清算の結了等,,,2015-10-05,1,,,,,カチョウフウゲツ,0
2426,7190002015095,登記記録の閉鎖等,0,2022-11-09,2022-11-04,有限会社伊勢久,,有限会社,三重県,多気郡多気町,平谷３９番地３,,24,441,5192178,,,2022-11-04,清算の結了等,,,2015-10-05,1,,,,,イセキュウ,0
2438,7240002021022,登記記録の閉鎖等,0,2022-11-09,2022-11-04,有限会社スリーエス,,有限会社,広島県,広島市西区,南観音町２４番１９－３０２号,,34,104,7330034,,,2022-11-04,清算の結了等,,,2015-10-05,1,,,,,,0
2446,7290001038351,登記記録の閉鎖等,0,2022-11-09,2022-11-02,株式会社西友商会,,株式会社,福岡県,糟屋郡粕屋町,原町４丁目３番４０号,,40,349,8112307,,,2022-11-02,清算の結了等,,,2015-10-05,1,,,,,,0
2456,7290005006692,登記記録の閉鎖等,0,2022-11-09,2022-11-08,医療法人松風会,,その他の設立登記法人,福岡県,筑紫野市,二日市中央２丁目１０番１号,,40,217,8180072,,,2022-11-08,清算の結了等,,,2015-10-05,1,,,,,ショウフウカイ,0
2461,7310001011644,登記記録の閉鎖等,0,2022-11-09,2022-11-08,株式会社はたちょく九州,,株式会社,長崎県,諫早市,川床町２６０番地１,,42,204,8540052,,,2022-11-08,清算の結了等,,,2015-10-05,1,,,,,ハタチョクキュウシュウ,0
2463,7310002004283,登記記録の閉鎖等,0,2022-11-09,2022-11-04,有限会社のむら,,有限会社,長崎県,長崎市,新大工町６番２２号,,42,201,8500017,,,2022-11-04,清算の結了等,,,2015-10-05,1,,,,,ノムラ,0
2465,7320001010810,登記記録の閉鎖等,0,2022-11-09,2022-11-02,株式会社積善社,,株式会社,大分県,中津市,大字相原３３８１番地,,44,203,8710022,,,2022-11-02,清算の結了等,,,2022-10-06,1,,,,,,0
2504,7430005014342,登記記録の閉鎖等,0,2022-11-09,2022-11-01,一般財団法人さくら会,,その他の設立登記法人,北海道,札幌市白石区,中央一条３丁目１番１－５０２号,,01,104,0030011,,,2022-11-01,合併による解散等,7430005012651,令和４年１１月１日札幌市白石区中央一条三丁目１番１－５０２号一般社団法人さくら会（7430005012651）に合併し解散,2021-12-23,1,,,,,サクラカイ,0
2530,8010401127598,登記記録の閉鎖等,0,2022-11-09,2022-10-25,Ｉｔａｃｈｉ株式会社,,株式会社,東京都,港区,六本木５丁目１６－５インペリアル六本木１号館２０９号室,,13,103,1060032,,,2022-10-25,清算の結了等,,,2016-10-13,1,,,,,イタチ,0
2540,8010703004958,登記記録の閉鎖等,0,2022-11-09,2022-11-07,合同会社ＴＥＣ・小玉,,合同会社,兵庫県,神戸市灘区,六甲町５丁目５番２号,,28,102,6570053,,,2022-11-07,清算の結了等,,,2019-09-17,1,,,,,テックコダマ,0
2570,8011103006561,登記記録の閉鎖等,0,2022-11-09,2022-11-04,ＯＭＥＧＡ　ＴＨＥＡＴＥＲ合同会社,,合同会社,東京都,新宿区,西新宿６丁目１０－１新宿オークシティ日土地西新宿ビル８階,,13,104,1600023,,,2022-11-04,清算の結了等,,,2016-10-11,1,,,,,オメガシアター,0
2592,8013301035301,登記記録の閉鎖等,0,2022-11-09,2022-11-08,株式会社ＧＧ,,株式会社,東京都,台東区,台東１丁目９番６号,,13,106,1100016,,,2022-11-08,清算の結了等,,,2015-10-05,1,,,,,ジージー,0
2608,8021001071640,登記記録の閉鎖等,0,2022-11-09,2022-11-02,株式会社８８,,株式会社,神奈川県,相模原市緑区,町屋４丁目３番３号,,14,151,2520101,,,2022-11-02,清算の結了等,,,2020-12-18,1,,,,,エイティエイト,0
2625,8030001104946,登記記録の閉鎖等,0,2022-11-09,2022-11-02,株式会社エムズトランスポート,,株式会社,埼玉県,上尾市,大字上尾下７４６番地９,,11,219,3620025,,,2022-11-02,清算の結了等,,,2015-10-05,1,,,,,エムズトランスポート,0
2631,8030002036040,登記記録の閉鎖等,0,2022-11-09,2022-11-01,有限会社モリワ工業,,有限会社,埼玉県,入間市,大字仏子６番地,,11,225,3580053,,,2022-11-01,清算の結了等,,,2015-10-05,1,,,,,モリワコウギョウ,0
2635,8030005012204,登記記録の閉鎖等,0,2022-11-09,2022-11-02,済生会通り百店会商店街振興組合,,その他の設立登記法人,埼玉県,川口市,西川口３丁目３１番１１号,,11,203,3320021,,,2022-11-02,清算の結了等,,,2015-10-05,1,,,,,サイセイカイトオリヒャクテンカイ,0
2646,8060001014416,登記記録の閉鎖等,0,2022-11-09,2022-11-01,株式会社中央計装,,株式会社,栃木県,小山市,大字粟宮１４５３番地７,,09,208,3290201,,,2022-11-01,清算の結了等,,,2015-10-05,1,,,,,チュウオウケイソウ,0
2655,8070002034346,登記記録の閉鎖等,0,2022-11-09,2022-11-01,有限会社４ゲージ,,有限会社,群馬県,館林市,坂下町３１１８番地,,10,207,3740069,,,2022-11-01,清算の結了等,,,2015-10-05,1,,,,,,0
2660,8080103001681,登記記録の閉鎖等,0,2022-11-09,2022-11-07,合同会社グッドラポート,,合同会社,静岡県,富士市,元町１５番１７号,,22,210,4160917,,,2022-11-07,清算の結了等,,,2017-05-19,1,,,,,グッドラポート,0
2662,8080402013568,登記記録の閉鎖等,0,2022-11-09,2022-10-31,有限会社テクノクラート,,有限会社,愛知県,岡崎市,大樹寺３丁目２０番地１７,,23,202,4442134,,,2022-10-31,清算の結了等,,,2015-10-05,1,,,,,テクノクラート,0
2683,8120001144545,登記記録の閉鎖等,0,2022-11-09,2022-11-01,株式会社佐久リゾートゴルフ倶楽部,,株式会社,大阪府,大阪市住吉区,苅田５丁目１８番１２号,,27,120,5580011,,,2022-11-01,合併による解散等,7120001162795,令和４年１１月１日大阪市住吉区苅田五丁目１８番１２号富士エンジニアリング株式会社（7120001162795）に合併し解散,2015-10-05,1,,,,,サクリゾートゴルフクラブ,0
2684,8120001195927,登記記録の閉鎖等,0,2022-11-09,2022-11-01,株式会社Ｗｉｌｌ,,株式会社,大阪府,枚方市,中宮北町１番３７－４０１号,,27,210,5731194,,,2022-11-01,清算の結了等,,,2016-01-26,1,,,,,ウイル,0
2727,8130002024638,登記記録の閉鎖等,0,2022-11-09,2022-11-01,有限会社アシスト,,有限会社,京都府,長岡京市,うぐいす台２２番地,,26,209,6170815,,,2022-11-01,清算の結了等,,,2015-10-05,1,,,,,アシスト,0
2733,8140001058173,登記記録の閉鎖等,0,2022-11-09,2022-11-01,岡村英才学園株式会社,,株式会社,兵庫県,姫路市,増位新町２丁目４７番地,,28,201,6700806,,,2022-11-01,合併による解散等,6140001058175,令和４年１１月１日兵庫県姫路市北八代一丁目７番２号岡村ゼミナール株式会社（6140001058175）に合併し解散,2015-10-05,1,,,,,オカムラエイサイガクエン,0
2763,8180002042404,登記記録の閉鎖等,0,2022-11-09,2022-11-04,有限会社松下薬局,,有限会社,愛知県,名古屋市中川区,吉津３丁目１４０３番地,,23,110,4540981,,,2022-11-04,清算の結了等,,,2015-10-05,1,,,,,マツシタヤッキョク,0
2765,8180301013171,登記記録の閉鎖等,0,2022-11-09,2022-11-01,株式会社永井善之助商店,,株式会社,愛知県,安城市,錦町１３番９号,,23,212,4460035,,,2022-11-01,清算の結了等,,,2015-10-05,1,,,,,ナガイゼンノスケショウテン,0
2782,8240001008267,登記記録の閉鎖等,0,2022-11-09,2022-11-02,西日本文化事業株式会社,,株式会社,広島県,広島市安佐南区,安東４丁目４２番１０号,,34,105,7310153,,,2022-11-02,清算の結了等,,,2015-10-05,1,,,,,ニシニホンブンカジギョウ,0
2802,8310001013276,登記記録の閉鎖等,0,2022-11-09,2022-11-08,株式会社マルナンファーム,,株式会社,長崎県,雲仙市,国見町神代戊２１６４番地２,,42,213,8591305,,,2022-11-08,清算の結了等,,,2015-10-05,1,,,,,マルナンファーム,0
2811,8330003004825,登記記録の閉鎖等,0,2022-11-09,2022-11-02,合同会社ウエダ,,合同会社,熊本県,下益城郡美里町,馬場７８２番地１,,43,348,8614406,,,2022-11-02,清算の結了等,,,2015-10-05,1,,,,,ウエダ,0
2813,8330003005996,登記記録の閉鎖等,0,2022-11-09,2022-11-01,ＳＷキャピタルホールディングス合同会社,,合同会社,熊本県,八代市,奈良木町２４３６番地１０,,43,202,8660064,,,2022-11-01,合併による解散等,8330001013605,令和４年１１月１日熊本県八代市奈良木町２４３６番地１０シントワールド株式会社（8330001013605）に合併し解散,2015-10-05,1,,,,,エスダブリューキャピタルホールディングス,0
2853,8480005004180,登記記録の閉鎖等,0,2022-11-09,2022-11-04,富岡船舶海運協同組合,,その他の設立登記法人,徳島県,阿南市,畭町新はり１８３番地の２,,36,204,7740003,,,2022-11-04,清算の結了等,,,2015-10-05,1,,,,,トミオカセンパクカイウン,0
2859,9010001034252,登記記録の閉鎖等,0,2022-11-09,2022-11-04,東京セールス・プロデュース株式会社,,株式会社,東京都,千代田区,神田小川町１丁目１１番地,,13,101,1010052,,,2022-11-04,清算の結了等,,,2015-10-05,1,,,,,トウキョウセールスプロデュース,0
2860,9010001056148,登記記録の閉鎖等,0,2022-11-09,2022-10-28,プラトウ株式会社,,株式会社,千葉県,市川市,末広１丁目９番２号,,12,203,2720121,,,2022-10-28,清算の結了等,,,2015-10-05,1,,,,,プラトウ,0
2879,9010005011867,登記記録の閉鎖等,0,2022-11-09,2022-11-08,山佐ＴＨＹ一般社団法人,,その他の設立登記法人,東京都,千代田区,丸の内３丁目１番１号東京共同会計事務所内,,13,101,1000005,,,2022-11-08,清算の結了等,,,2015-10-05,1,,,,,ヤマサティーエイチワイ,0
2880,9010005016065,登記記録の閉鎖等,0,2022-11-09,2022-11-08,山佐ＢＡＷ５一般社団法人,,その他の設立登記法人,東京都,千代田区,丸の内３丁目１番１号東京共同会計事務所内,,13,101,1000005,,,2022-11-08,清算の結了等,,,2015-10-05,1,,,,,ヤマサビーエーダブリューゴ,0
2882,9010005035115,登記記録の閉鎖等,0,2022-11-09,2022-11-07,財務省職員組合,,その他の設立登記法人,東京都,千代田区,霞が関３丁目１番１号財務省内,,13,101,1000013,,,2022-11-07,清算の結了等,,,2022-06-09,1,,,,,ザイムショウショクインクミアイ,0
2911,9010902007521,登記記録の閉鎖等,0,2022-11-09,2022-11-07,有限会社清水商店,,有限会社,東京都,世田谷区,若林４丁目２７番１４号,,13,112,1540023,,,2022-11-07,清算の結了等,,,2015-10-05,1,,,,,シミズショウテン,0
2934,9011101098617,登記記録の閉鎖等,0,2022-11-09,2022-11-07,テクノロジー株式会社,,株式会社,東京都,新宿区,百人町２丁目２６番５号マイルドビル４階,,13,104,1690073,,,2022-11-07,清算の結了等,,,2022-04-20,1,,,,,テクノロジー,0
2938,9011202007567,登記記録の閉鎖等,0,2022-11-09,2022-11-07,株式会社インター・ビジネス,,株式会社,東京都,中野区,上高田１丁目４０番１号,,13,114,1640002,,,2022-11-07,清算の結了等,,,2015-10-05,1,,,,,インタービジネス,0
2962,9013401007141,登記記録の閉鎖等,0,2022-11-09,2022-11-04,株式会社ジョイフル,,株式会社,東京都,多摩市,連光寺１丁目２９番地の１４,,13,224,2060021,,,2022-11-04,清算の結了等,,,2015-10-05,1,,,,,ジョイフル,0
2979,9020003018748,登記記録の閉鎖等,0,2022-11-09,2022-11-01,株式会社ＨＡＦ,,株式会社,愛知県,蒲郡市,栄町７番１０号,,23,214,4430035,,,2022-11-01,合併による解散等,9180301010969,令和４年１１月１日愛知県蒲郡市栄町７番１０号光和株式会社（9180301010969）に合併し解散,2020-11-04,1,,,,,エイチエイエフ,0
2997,9030001061617,登記記録の閉鎖等,0,2022-11-09,2022-11-01,株式会社シブサワ,,株式会社,埼玉県,児玉郡上里町,大字七本木５７４８番地,,11,385,3690306,,,2022-11-01,清算の結了等,,,2015-10-05,1,,,,,シブサワ,0
3016,9030002112617,登記記録の閉鎖等,0,2022-11-09,2022-11-01,有限会社アイックス,,有限会社,埼玉県,熊谷市,中西２丁目６番１１号,,11,202,3600013,,,2022-11-01,清算の結了等,,,2015-10-05,1,,,,,アイックス,0
3034,9060001023242,登記記録の閉鎖等,0,2022-11-09,2022-11-01,株式会社エルセレノ,,株式会社,栃木県,下都賀郡壬生町,駅東町７番３号,,09,361,3210222,,,2022-11-01,清算の結了等,,,2015-10-05,1,,,,,エルセレノ,0
3036,9060001025230,登記記録の閉鎖等,0,2022-11-09,2022-11-02,株式会社サオリプロパティ,,株式会社,栃木県,栃木市,大平町横堀２５６番地,,09,203,3294411,,,2022-11-02,合併による解散等,4060001025631,令和４年１１月１日栃木県栃木市大平町横堀２５６番地株式会社サオリエクスポート（4060001025631）に合併し解散,2015-10-05,1,,,,,サオリプロパティ,0
3038,9060002028513,登記記録の閉鎖等,0,2022-11-09,2022-11-01,有限会社新和自動車,,有限会社,栃木県,小山市,大字萩島１９１番地３,,09,208,3230046,,,2022-11-01,清算の結了等,,,2015-10-05,1,,,,,シンワジドウシャ,0
3049,9100002010565,登記記録の閉鎖等,0,2022-11-09,2022-11-04,有限会社ギコー製作所,,有限会社,長野県,佐久市,塩名田１０６０番地１,,20,217,3842102,,,2022-11-04,清算の結了等,,,2015-10-05,1,,,,,ギコーセイサクジョ,0
3069,9120001243593,登記記録の閉鎖等,0,2022-11-09,2022-11-07,久松株式会社,,株式会社,大阪府,大阪市北区,西天満５丁目１５番９号アバンセ西天満ビル３Ｆ,,27,127,5300047,,,2022-11-07,清算の結了等,,,2022-02-04,1,,,,,ヒサマツ,0
3077,9120101065236,登記記録の閉鎖等,0,2022-11-09,2022-11-04,株式会社ＢＪ　ＪＡＰＡＮ,,株式会社,大阪府,松原市,岡１丁目１２５番地の１,,27,217,5800014,,,2022-11-04,清算の結了等,,,2022-03-17,1,,,,,ビージェイジャパン,0
3098,9140001049535,登記記録の閉鎖等,0,2022-11-09,2022-11-04,株式会社曽我,,株式会社,兵庫県,尼崎市,南塚口町７丁目２７番１号,,28,202,6610012,,,2022-11-04,清算の結了等,,,2015-10-05,1,,,,,ソガ,0
3100,9140001081439,登記記録の閉鎖等,0,2022-11-09,2022-11-02,株式会社久保田総合鑑定,,株式会社,兵庫県,宝塚市,仁川台６５２番地の５,,28,214,6650074,,,2022-11-02,清算の結了等,,,2015-10-05,1,,,,,クボタソウゴウカンテイ,0
3103,9140001125690,登記記録の閉鎖等,0,2022-11-09,2022-11-04,ＯＳ開発株式会社,,株式会社,兵庫県,加古郡稲美町,中村１３９９番地２,,28,381,6751122,,,2022-11-04,清算の結了等,,,2022-04-20,1,,,,,オーエスカイハツ,0
3106,9140005011978,登記記録の閉鎖等,0,2022-11-09,2022-11-02,二連原生産森林組合,,その他の設立登記法人,兵庫県,豊岡市,竹野町二連原１９８番地の１,,28,209,6696342,,,2022-11-02,清算の結了等,,,2015-10-05,1,,,,,ニレンバラ,0
3123,9180301001126,登記記録の閉鎖等,0,2022-11-09,2022-11-01,株式会社スギケン,,株式会社,愛知県,岡崎市,東牧内町字向野４９番地,,23,202,4440934,,,2022-11-01,清算の結了等,,,2015-10-05,1,,,,,スギケン,0
3127,9180301028086,登記記録の閉鎖等,0,2022-11-09,2022-10-25,株式会社ワンズクリエイション,,株式会社,愛知県,豊橋市,牟呂町字中西１７番地１５,,23,201,4418087,,,2022-10-25,清算の結了等,,,2015-10-05,1,,,,,ワンズクリエイション,0
3133,9200001021611,登記記録の閉鎖等,0,2022-11-09,2022-11-08,明星炉材株式会社,,株式会社,岐阜県,土岐市,土岐津町土岐口中山１３７２番地の２,,21,212,5095122,,,2022-11-08,清算の結了等,,,2015-10-05,1,,,,,,0
3162,9310001011799,登記記録の閉鎖等,0,2022-11-09,2022-11-08,株式会社マルナン,,株式会社,長崎県,雲仙市,国見町神代戊２１６４番地１,,42,213,8591305,,,2022-11-08,清算の結了等,,,2015-10-05,1,,,,,マルナン,0
3165,9310002015840,登記記録の閉鎖等,0,2022-11-09,2022-11-04,有限会社赤司建設,,有限会社,長崎県,諫早市,高来町東平原３１番地２,,42,204,8590133,,,2022-11-04,清算の結了等,,,2015-10-05,1,,,,,アカシケンセツ,0
3167,9320001009900,登記記録の閉鎖等,0,2022-11-09,2022-11-07,株式会社マリン・コンサルタント・カワカミ,,株式会社,大分県,大分市,大字駄原２５８７番地の１,,44,201,8700100,,,2022-11-07,清算の結了等,,,2015-10-05,1,,,,,マリンコンサルタントカワカミ,0
3186,9370003004787,登記記録の閉鎖等,0,2022-11-09,2022-11-01,合同会社ＴＥＱＥＤ,,合同会社,宮城県,仙台市青葉区,中央２丁目２番１０号仙都会館ビル,,04,101,9800021,,,2022-11-01,清算の結了等,,,2020-04-09,1,,,,,テックエド,0
3188,9370202001338,登記記録の閉鎖等,0,2022-11-09,2022-10-31,有限会社かぶくり運送,,有限会社,宮城県,大崎市,田尻蕪栗字小沢田５２番地６,,04,215,9894301,,,2022-10-31,清算の結了等,,,2015-10-05,1,,,,,カブクリウンソウ,0
3204,9500005007816,登記記録の閉鎖等,0,2022-11-09,2022-11-07,一般社団法人仁良会,,その他の設立登記法人,愛媛県,今治市,宮下町１丁目１番２１号,,38,202,7940052,,,2022-11-07,清算の結了等,,,2016-12-07,1,,,,,ジンリョウカイ,0
