sequenceNumber,corporateNumber,process,correct,updateDate,changeDate,name,nameImageId,kind,prefectureName,cityName,streetNumber,addressImageId,prefectureCode,cityCode,postCode,addressOutside,addressOutsideImageId,closeDate,closeCause,successorCorporateNumber,changeCause,assignmentDate,latest,enName,enPrefectureName,enCityName,enAddressOutside,furigana,hihyoji
10,1010003042244,新規,0,2023-11-20,2023-11-20,合同会社Ｇｒｏｗｔｈ　ｐｌｕｓ,,合同会社,東京都,中央区,日本橋３丁目２番１４号新槇町ビル別館第一１階,,13,102,1030027,,,,,,,2023-11-20,1,,,,,グロウスプラス,0
15,1010401178598,新規,0,2023-11-20,2023-11-20,株式会社アイコン,,株式会社,東京都,港区,麻布十番１丁目５番２４号第三長門ビル４０１号,,13,103,1060045,,,,,,,2023-11-20,1,,,,,アイコン,0
16,1010401178623,新規,0,2023-11-20,2023-11-20,兄弟フード株式会社,,株式会社,東京都,港区,赤坂４丁目１番１号,,13,103,1070052,,,,,,,2023-11-20,1,,,,,,0
19,1010403031400,新規,0,2023-11-20,2023-11-20,Ｄ・Ｙ合同会社,,合同会社,東京都,港区,芝４丁目５－９三田ハイデンス９０１,,13,103,1080014,,,,,,,2023-11-20,1,,,,,ディーワイ,0
24,1010601064169,新規,0,2023-11-20,2023-11-20,株式会社オリビア,,株式会社,東京都,江東区,北砂３丁目２番７－２０１号,,13,108,1360073,,,,,,,2023-11-20,1,,,,,オリビア,0
29,1011001158305,新規,0,2023-11-20,2023-11-20,株式会社Ｓｒｅａｄ,,株式会社,東京都,渋谷区,恵比寿西２丁目４番８号ウィンド恵比寿ビル８Ｆ,,13,113,1500021,,,,,,,2023-11-20,1,,,,,スレッド,0
31,1011005010271,新規,0,2023-11-20,2023-11-20,一般社団法人光量子エネルギー研究会,,その他の設立登記法人,東京都,渋谷区,神宮前６丁目１０番９号,,13,113,1500001,,,,,,,2023-11-20,1,,,,,コウリョウシエネルギーケンキュウカイ,0
39,1011103013770,新規,0,2023-11-20,2023-11-20,合同会社ｋｅｅｐ　ｍｉｎｔ,,合同会社,東京都,新宿区,西新宿３丁目３番１３号西新宿水間ビル６階,,13,104,1600023,,,,,,,2023-11-20,1,,,,,キープミント,0
44,1011203004232,新規,0,2023-11-20,2023-11-20,合同会社オレンジアイランド,,合同会社,東京都,中野区,中野２丁目２６番１コーシャハイム中野フロント６１７号,,13,114,1640001,,,,,,,2023-11-20,1,,,,,オレンジアイランド,0
45,1011301029189,新規,0,2023-11-20,2023-11-20,株式会社メディア,,株式会社,東京都,杉並区,高円寺南５丁目４番１号,,13,115,1660003,,,,,,,2023-11-20,1,,,,,メディア,0
47,1011501030013,新規,0,2023-11-20,2023-11-20,恒力商事株式会社,,株式会社,東京都,北区,浮間１丁目１番１４号リムジンビル１２１,,13,117,1150051,,,,,,,2023-11-20,1,,,,,コウリョクショウジ,0
55,1011803005951,新規,0,2023-11-20,2023-11-20,オネストデント合同会社,,合同会社,東京都,足立区,関原１丁目４番２０号,,13,121,1230852,,,,,,,2023-11-20,1,,,,,オネストデント,0
59,1012401041216,新規,0,2023-11-20,2023-11-20,株式会社マワリテメグル,,株式会社,東京都,武蔵野市,中町２丁目３－６ゾンネ武蔵野１階,,13,203,1800006,,,,,,,2023-11-20,1,,,,,マワリテメグル,0
64,1013301051643,新規,0,2023-11-20,2023-11-20,株式会社ＪＭＣ,,株式会社,東京都,豊島区,西巣鴨１丁目３２－３アカギビル１階,,13,116,1700001,,,,,,,2023-11-20,1,,,,,ジェイエムシー,0
68,1020001154429,新規,0,2023-11-20,2023-11-20,株式会社東八,,株式会社,神奈川県,横浜市都筑区,茅ケ崎東４丁目７番１０号,,14,118,2240033,,,,,,,2023-11-20,1,,,,,トウハチ,0
69,1020001154528,新規,0,2023-11-20,2023-11-20,株式会社ＰＥＮ　Ｃｏｎｓｕｌｔｉｎｇ,,株式会社,神奈川県,横浜市鶴見区,鶴見中央１丁目１３番１２－２０２号,,14,101,2300051,,,,,,,2023-11-20,1,,,,,ペンコンサルティング,0
70,1020001154536,新規,0,2023-11-20,2023-11-20,ＭＲＭオフィス株式会社,,株式会社,神奈川県,横浜市青葉区,あざみ野１丁目４－１０,,14,117,2250011,,,,,,,2023-11-20,1,,,,,エムアールエムオフィス,0
86,1030001157199,新規,0,2023-11-20,2023-11-20,株式会社ホンダグローバルマネジメント,,株式会社,埼玉県,加須市,上樋遣川４８８２番地１,00132715,11,210,3470003,,,,,,,2023-11-20,1,,,,,ホンダグローバルマネジメント,0
87,1030001157216,新規,0,2023-11-20,2023-11-20,株式会社東江,,株式会社,埼玉県,川口市,西川口１丁目１７番１６号グレイス西川口３０３号室,,11,203,3320021,,,,,,,2023-11-20,1,,,,,トウエ,0
89,1030003023028,新規,0,2023-11-20,2023-11-20,偉信合同会社,,合同会社,埼玉県,蕨市,中央４丁目１３番３号ピアロードマンション３０３号室,,11,223,3350004,,,,,,,2023-11-20,1,,,,,イシン,0
94,1030005021475,新規,0,2023-11-20,2023-11-20,一般社団法人志巴,,その他の設立登記法人,埼玉県,比企郡小川町,大字大塚１１７６番地１,,11,343,3550328,,,,,,,2023-11-20,1,,,,,シハ,0
102,1040001130964,新規,0,2023-11-20,2023-11-20,Ｌｅｎａｌｏｈａ株式会社,,株式会社,千葉県,千葉市緑区,おゆみ野中央４丁目２３番１号,,12,105,2660032,,,,,,,2023-11-20,1,,,,,レナロハ,0
103,1040001130989,新規,0,2023-11-20,2023-11-20,株式会社ＨＩＴＯＷＡ,,株式会社,千葉県,船橋市,西船４丁目１７番１号中央ビル西船１Ｆ,,12,204,2730031,,,,,,,2023-11-20,1,,,,,ヒトワ,0
105,1040003023761,新規,0,2023-11-20,2023-11-20,合同会社Ｌネクスト,,合同会社,千葉県,市原市,五井４７３４－１,,12,219,2900056,,,,,,,2023-11-20,1,,,,,エルネクスト,0
110,1050001053842,新規,0,2023-11-20,2023-11-20,株式会社Ｎｉｈｏｎ　Ｂａｚａａｒ,,株式会社,茨城県,神栖市,平泉東３丁目９－８ラフォンテ１０２,,08,232,3140145,,,,,,,2023-11-20,1,,,,,ニホンバザール,0
111,1050001053859,新規,0,2023-11-20,2023-11-20,株式会社三方善,,株式会社,茨城県,つくば市,真瀬２５２２番地１１,,08,220,3002656,,,,,,,2023-11-20,1,,,,,サンポウヨシ,0
113,1050003007937,新規,0,2023-11-20,2023-11-20,イサ商会合同会社,,合同会社,茨城県,坂東市,庄右衛門新田６０８番地３,,08,228,3060614,,,,,,,2023-11-20,1,,,,,イサショウカイ,0
114,1050003007953,新規,0,2023-11-20,2023-11-20,ＢＬＵＥＰＯＩＮＴ合同会社,,合同会社,茨城県,ひたちなか市,釈迦町４－８,,08,221,3111225,,,,,,,2023-11-20,1,,,,,ブルーポイント,0
116,1070001041093,新規,0,2023-11-20,2023-11-20,株式会社らくたいむ,,株式会社,群馬県,前橋市,新前橋町１４番地３５,,10,201,3710843,,,,,,,2023-11-20,1,,,,,ラクタイム,0
124,1080403004911,新規,0,2023-11-20,2023-11-20,合同会社キッコリーマン,,合同会社,静岡県,浜松市浜北区,小松２１８５,,22,136,4340042,,,,,,,2023-11-20,1,,,,,キッコリーマン,0
136,1120001259853,新規,0,2023-11-20,2023-11-20,株式会社Ｌａｂｅｌ,,株式会社,大阪府,大阪市旭区,高殿５丁目１３番１０号,,27,117,5350031,,,,,,,2023-11-20,1,,,,,レーベル,0
137,1120001259878,新規,0,2023-11-20,2023-11-20,科揚商事株式会社,,株式会社,大阪府,大阪市住吉区,長居２丁目１０番３－１０３号,,27,120,5580003,,,,,,,2023-11-20,1,,,,,カヨウショウジ,0
138,1120001259886,新規,0,2023-11-20,2023-11-20,株式会社Ｆｒｅｅ　ｋｎｏｔ,,株式会社,大阪府,大阪市淀川区,宮原４丁目５番３６号ＯＮＥＳＴ新大阪スクエア１１Ｆ,,27,123,5320003,,,,,,,2023-11-20,1,,,,,フリーノット,0
139,1120001259936,新規,0,2023-11-20,2023-11-20,株式会社シーダイラボ,,株式会社,大阪府,大阪市西区,北堀江１丁目３番１７号,,27,106,5500014,,,,,,,2023-11-20,1,,,,,シーダイラボ,0
140,1120001259952,新規,0,2023-11-20,2023-11-20,株式会社Ｌ．Ｅグロワール,,株式会社,大阪府,大阪市中央区,平野町４丁目６－９レイビビル５０１号,,27,128,5410046,,,,,,,2023-11-20,1,,,,,エルイーグロワール,0
141,1120001259985,新規,0,2023-11-20,2023-11-20,東＿産業株式会社,00132719,株式会社,大阪府,大阪市淀川区,三津屋南２丁目５番１５号,,27,123,5320035,,,,,,,2023-11-20,1,,,,,トウキンサンギョウ,0
142,1120001259993,新規,0,2023-11-20,2023-11-20,万徳福株式会社,,株式会社,大阪府,大阪市天王寺区,上汐４丁目４番２５－１００６号,,27,109,5430002,,,,,,,2023-11-20,1,,,,,マントクフク,0
143,1120001260010,新規,0,2023-11-20,2023-11-20,佛音達株式会社,,株式会社,大阪府,大阪市中央区,内本町２丁目２－１４ＧＳハイム内本町１１０２号室,,27,128,5400026,,,,,,,2023-11-20,1,,,,,ブツオンタツ,0
151,1130001075754,新規,0,2023-11-20,2023-11-20,株式会社横恋慕,,株式会社,京都府,京都市中京区,高倉通夷川上る福屋町７１８番地,,26,104,6040882,,,,,,,2023-11-20,1,,,,,ヨコレンボ,0
153,1130003009149,新規,0,2023-11-20,2023-11-20,合同会社ＢｅｉｎｇＰｅａｃｅ,,合同会社,京都府,京都市左京区,山端川端町３２番地ウェリス京都修学院３１０号,,26,103,6068004,,,,,,,2023-11-20,1,,,,,ビーイングピース,0
157,1140003019816,新規,0,2023-11-20,2023-11-20,金時合同会社,,合同会社,兵庫県,芦屋市,岩園町５０番８号,,28,206,6590013,,,,,,,2023-11-20,1,,,,,キントキ,0
158,1140003019832,新規,0,2023-11-20,2023-11-20,合同会社Ｋ,,合同会社,兵庫県,伊丹市,中野東１丁目３６３－３０７,,28,207,6640022,,,,,,,2023-11-20,1,,,,,ケー,0
170,1180001158991,新規,0,2023-11-20,2023-11-20,ＴＯＫＡＩ株式会社,,株式会社,愛知県,名古屋市西区,山木２丁目１２番地,,23,104,4520833,,,,,,,2023-11-20,1,,,,,トーカイ,0
190,1240001062428,新規,0,2023-11-20,2023-11-20,株式会社ＭＯＣＡ・ＳＴＯＶＥ,,株式会社,広島県,広島市南区,翠４丁目１１番７号,,34,103,7340005,,,,,,,2023-11-20,1,,,,,モカストーブ,0
191,1250001020401,新規,0,2023-11-20,2023-11-20,株式会社ＵＫアドバコネクション,,株式会社,山口県,下関市,富任町５丁目１４－２１,,35,201,7596613,,,,,,,2023-11-20,1,,,,,ユーケーアドバコネクション,0
193,1260001038500,新規,0,2023-11-20,2023-11-20,株式会社ＧＥＭＳＴＡＲ,,株式会社,岡山県,倉敷市,東粒浦７番７号,,33,202,7100032,,,,,,,2023-11-20,1,,,,,ジェムスター,0
203,1290003014629,新規,0,2023-11-20,2023-11-20,Ｕｎｄｅｒ　ｆｏｒｅｓｔ合同会社,,合同会社,福岡県,福岡市中央区,笹丘１丁目６番２号クロスステージ笹丘３０１,,40,133,8100034,,,,,,,2023-11-20,1,,,,,アンダーフォレスト,0
216,1370001050642,新規,0,2023-11-20,2023-11-20,ワイズモビリティ株式会社,,株式会社,宮城県,仙台市宮城野区,新田３丁目２７－２,,04,102,9830038,,,,,,,2023-11-20,1,,,,,ワイズモビリティ,0
225,1430001090459,新規,0,2023-11-20,2023-11-20,株式会社三光重設,,株式会社,北海道,札幌市北区,新琴似四条１７丁目２番３号,,01,102,0010904,,,,,,,2023-11-20,1,,,,,サンコウジュウセツ,0
228,1440001009350,新規,0,2023-11-20,2023-11-20,株式会社マリンワークス,,株式会社,北海道,二海郡八雲町,出雲町３８番地１６,,01,346,0493115,,,,,,,2023-11-20,1,,,,,マリンワークス,0
232,1700150112457,新規,0,2023-11-20,2022-11-01,ＥＭＩＴ　ＣＲＯＷＤ,,その他,東京都,世田谷区,松原３丁目１－１１サンジュエル松原１０３,,13,112,1560043,,,,,,,2022-11-01,1,,,,,エミツトクラウド,0
254,2010001240113,新規,0,2023-11-20,2023-11-20,申耀株式会社,,株式会社,東京都,中央区,入船１丁目９番８号ピエノアーク入船３０５室,,13,102,1040042,,,,,,,2023-11-20,1,,,,,シンヨウ,0
255,2010001240212,新規,0,2023-11-20,2023-11-20,ＫＤ　Ｍｅｄｉｔａｌ株式会社,,株式会社,東京都,千代田区,大手町１丁目６番１号,,13,101,1000004,,,,,,,2023-11-20,1,,,,,ケーディメディタル,0
258,2010003042235,新規,0,2023-11-20,2023-11-20,ソーラーリスト合同会社,,合同会社,東京都,中央区,八丁堀４丁目２番１０号ＡＯＪ税理士法人内,,13,102,1040032,,,,,,,2023-11-20,1,,,,,ソーラーリスト,0
268,2010401178580,新規,0,2023-11-20,2023-11-20,株式会社鷲見建築オフィス,,株式会社,東京都,港区,新橋２丁目１６番１号６２７号室,,13,103,1050004,,,,,,,2023-11-20,1,,,,,スミケンチクオフィス,0
269,2010401178630,新規,0,2023-11-20,2023-11-20,株式会社ｎｏｄｏｋａ,,株式会社,東京都,港区,六本木７丁目６番１９号ＲＥＶＥＲＩＥＲＯＰＰＯＮＧＩ５階,,13,103,1060032,,,,,,,2023-11-20,1,,,,,ノドカ,0
284,2010701045150,新規,0,2023-11-20,2023-11-20,電子タバコネット株式会社,,株式会社,東京都,品川区,西品川１丁目１番１号住友不動産大崎ガーデンタワー９階ＴＵＮＮＥＬＴＯＫＹＯ,,13,109,1410033,,,,,,,2023-11-20,1,,,,,デンシタバコネット,0
297,2011003017846,新規,0,2023-11-20,2023-11-20,合同会社Ｊａｐａｎｅｓｅ　Ｉｍｐｒｅｓｓｉｏｎｓ,,合同会社,東京都,渋谷区,道玄坂１丁目１０番８号渋谷道玄坂東急ビル２Ｆ－Ｃ,,13,113,1500043,,,,,,,2023-11-20,1,,,,,ジャパニーズインプレッションズ,0
298,2011003017887,新規,0,2023-11-20,2023-11-20,合同会社アレックス,,合同会社,東京都,渋谷区,神泉町１１番５号メゾン・ド・ヴィレ渋谷２０４,,13,113,1500045,,,,,,,2023-11-20,1,,,,,アレックス,0
299,2011003017904,新規,0,2023-11-20,2023-11-20,ＥＮ‐ＶＯＸ合同会社,,合同会社,東京都,渋谷区,神宮前６丁目２３番４号桑野ビル２階,,13,113,1500001,,,,,,,2023-11-20,1,,,,,エンボックス,0
300,2011003017953,新規,0,2023-11-20,2023-11-20,クウカンラボ合同会社,,合同会社,東京都,渋谷区,神宮前６丁目２３番４号,,13,113,1500001,,,,,,,2023-11-20,1,,,,,クウカンラボ,0
301,2011005010270,新規,0,2023-11-20,2023-11-20,一般社団法人目黒医療照誓会,,その他の設立登記法人,東京都,目黒区,祐天寺１丁目２３番２０号祐天寺駅前メディカルセンター４階,,13,110,1530052,,,,,,,2023-11-20,1,,,,,メグロイリョウショウセイカイ,0
305,2011203004231,新規,0,2023-11-20,2023-11-20,合同会社ＭｅＤ,,合同会社,東京都,中野区,白鷺２丁目４８番４号,,13,114,1650035,,,,,,,2023-11-20,1,,,,,メド,0
307,2011301029196,新規,0,2023-11-20,2023-11-20,株式会社ＹＳＤ,,株式会社,東京都,杉並区,上井草１丁目１４番１８号,,13,115,1670023,,,,,,,2023-11-20,1,,,,,ワイエスディー,0
315,2011501029987,新規,0,2023-11-20,2023-11-20,株式会社鴻業,,株式会社,東京都,北区,赤羽１丁目５２－４グリーンマンション４０２号室,,13,117,1150045,,,,,,,2023-11-20,1,,,,,コウギョウ,0
316,2011501029995,新規,0,2023-11-20,2023-11-20,倍高株式会社,,株式会社,東京都,北区,浮間１丁目７－２３兆豊浮間ビル４０３号室,,13,117,1150051,,,,,,,2023-11-20,1,,,,,バイコウ,0
317,2011501030004,新規,0,2023-11-20,2023-11-20,株式会社ハル,,株式会社,東京都,北区,上十条５丁目７番１３号,,13,117,1140034,,,,,,,2023-11-20,1,,,,,ハル,0
318,2011501030012,新規,0,2023-11-20,2023-11-20,スモール商会株式会社,,株式会社,東京都,荒川区,町屋５丁目１６－６プルメリア町屋２０１,,13,118,1160001,,,,,,,2023-11-20,1,,,,,スモールショウカイ,0
319,2011501030020,新規,0,2023-11-20,2023-11-20,株式会社天陽,,株式会社,東京都,荒川区,東尾久２丁目２番９号三祥ビル２２６,,13,118,1160012,,,,,,,2023-11-20,1,,,,,テンヨウ,0
320,2011601027263,新規,0,2023-11-20,2023-11-20,日本理茂国際株式会社,,株式会社,東京都,練馬区,貫井３丁目１０番５号ヴィラ・モンタジオ４０１,,13,120,1760021,,,,,,,2023-11-20,1,,,,,ニホンリモコクサイ,0
321,2011601027288,新規,0,2023-11-20,2023-11-20,株式会社ＡＲＨＭ,,株式会社,東京都,練馬区,中村南２丁目１３番６号,,13,120,1760025,,,,,,,2023-11-20,1,,,,,アーム,0
322,2011601027296,新規,0,2023-11-20,2023-11-20,株式会社エクステリア,,株式会社,東京都,練馬区,関町北４丁目２９－２０,,13,120,1770051,,,,,,,2023-11-20,1,,,,,エクステリア,0
324,2011701026768,新規,0,2023-11-20,2023-11-20,株式会社五示眼,,株式会社,東京都,江戸川区,中葛西７丁目１７番１９号リラポルト４０１,,13,123,1340083,,,,,,,2023-11-20,1,,,,,ゴジゲン,0
325,2011701026784,新規,0,2023-11-20,2023-11-20,株式会社Ａ＆Ｎ,,株式会社,東京都,江戸川区,篠崎町３丁目２７番１８号,,13,123,1330061,,,,,,,2023-11-20,1,,,,,エーアンドエヌ,0
326,2011703003658,新規,0,2023-11-20,2023-11-20,ＯＹＡＭＡ　ＩＮＴＥＲＮＡＴＩＯＮＡＬ合同会社,,合同会社,東京都,江戸川区,北小岩６丁目１２番１０号根本ビル２Ｆ,,13,123,1330051,,,,,,,2023-11-20,1,,,,,オヤマインターナショナル,0
333,2012303001903,新規,0,2023-11-20,2023-11-20,合同会社みんみん,,合同会社,東京都,町田市,小野路町４４０３番地１,,13,209,1950064,,,,,,,2023-11-20,1,,,,,ミンミン,0
343,2020001154493,新規,0,2023-11-20,2023-11-20,株式会社ｒｏｏｆ,,株式会社,神奈川県,川崎市高津区,溝口２丁目１８番３３－１０４号,,14,134,2130001,,,,,,,2023-11-20,1,,,,,ルーフ,0
344,2020001154519,新規,0,2023-11-20,2023-11-20,株式会社菊吉鉄筋,,株式会社,神奈川県,横浜市瀬谷区,上瀬谷町３６番地３９,,14,114,2460006,,,,,,,2023-11-20,1,,,,,キクヨシテッキン,0
345,2020001154527,新規,0,2023-11-20,2023-11-20,株式会社エムテック,,株式会社,神奈川県,横浜市金沢区,六浦東２丁目３番３号,,14,108,2360037,,,,,,,2023-11-20,1,,,,,エムテック,0
347,2020003025024,新規,0,2023-11-20,2023-11-20,合同会社ｕｔｏｐｉａｄｒｅａｍ,,合同会社,神奈川県,横浜市西区,浅間町１丁目４番３号ウィザードビル４０２,,14,103,2200072,,,,,,,2023-11-20,1,,,,,ユートピアドリーム,0
358,2021001080787,新規,0,2023-11-20,2023-11-20,株式会社ＳＴＡＢＬＥ　ＰＬＵＳ,,株式会社,神奈川県,相模原市中央区,田名塩田２丁目１６番２４号,,14,152,2520245,,,,,,,2023-11-20,1,,,,,ステイブルプラス,0
364,2030001157124,新規,0,2023-11-20,2023-11-20,株式会社ＴＳソリューションズ,,株式会社,埼玉県,春日部市,中央１丁目１４番２１食道園ビル３階,,11,214,3440067,,,,,,,2023-11-20,1,,,,,ティーエスソリューションズ,0
365,2030001157207,新規,0,2023-11-20,2023-11-20,株式会社Ｄｉｇｉｔａｌ　Ｕｒｅｓｋａ,,株式会社,埼玉県,上尾市,二ツ宮１００３番地４１ライム・ライト・アゲオ弐番館２０５,,11,219,3620017,,,,,,,2023-11-20,1,,,,,デジタルウレシカ,0
368,2030003023002,新規,0,2023-11-20,2023-11-20,合同会社エスアンドビィートータルサービス,,合同会社,埼玉県,川越市,大字小ケ谷１２２番地１,,11,201,3501104,,,,,,,2023-11-20,1,,,,,エスアンドビィートータルサービス,0
369,2030003023010,新規,0,2023-11-20,2023-11-20,合同会社Ｂｕｉｌｄｅｒ,,合同会社,埼玉県,草加市,瀬崎６丁目９－３５,,11,221,3400022,,,,,,,2023-11-20,1,,,,,ビルダー,0
374,2040001130988,新規,0,2023-11-20,2023-11-20,リヴェルテ株式会社,,株式会社,千葉県,鎌ケ谷市,富岡２丁目１番７号１号室,,12,224,2730101,,,,,,,2023-11-20,1,,,,,リヴェルテ,0
375,2040001130996,新規,0,2023-11-20,2023-11-20,株式会社ひまわり,,株式会社,千葉県,船橋市,駿河台２丁目１３番３７号,,12,204,2730862,,,,,,,2023-11-20,1,,,,,ヒマワリ,0
384,2050001053841,新規,0,2023-11-20,2023-11-20,株式会社Ｇｌｏｂａｌｉｚｅ,,株式会社,茨城県,つくば市,吾妻２丁目５－１つくば市産業振興センター,,08,220,3050031,,,,,,,2023-11-20,1,,,,,グローバライズ,0
385,2050001053858,新規,0,2023-11-20,2023-11-20,株式会社ＦＬＥ,,株式会社,茨城県,土浦市,神立町６４３番地２６,,08,203,3000013,,,,,,,2023-11-20,1,,,,,エフエルイー,0
390,2060001036556,新規,0,2023-11-20,2023-11-20,株式会社ベジタン,,株式会社,栃木県,足利市,堀込町２６５６番地７ＡＳＫビル１‐２,,09,202,3260831,,,,,,,2023-11-20,1,,,,,ベジタン,0
393,2070001041092,新規,0,2023-11-20,2023-11-20,株式会社高建,,株式会社,群馬県,前橋市,上細井町８７１番地ホクレアの丘Ｇ－１０２号,,10,201,3710051,,,,,,,2023-11-20,1,,,,,タカケン,0
399,2090003002421,新規,0,2023-11-20,2023-11-20,合同会社ベリノハラＢＯＸ,,合同会社,山梨県,上野原市,上野原２３６－１,,19,212,4090112,,,,,,,2023-11-20,1,,,,,ベリノハラボックス,0
416,2120001259860,新規,0,2023-11-20,2023-11-20,株式会社Ｋ３,,株式会社,大阪府,大阪市中央区,東心斎橋１丁目１２番１９号エイトビルチング１階,,27,128,5420083,,,,,,,2023-11-20,1,,,,,ケースリー,0
417,2120001259869,新規,0,2023-11-20,2023-11-20,ＹＡＳＡＩ株式会社,,株式会社,大阪府,大阪市西区,北堀江１丁目１９番１号７Ｆ,,27,106,5500014,,,,,,,2023-11-20,1,,,,,ヤサイ,0
418,2120001259927,新規,0,2023-11-20,2023-11-20,株式会社Ｒｅｈｏｍｅ,,株式会社,大阪府,枚方市,堂山３丁目２０番２１号,,27,210,5730007,,,,,,,2023-11-20,1,,,,,リホーム,0
419,2120001259976,新規,0,2023-11-20,2023-11-20,株式会社ＭＡＲ　ＤＥＳＩＧＮ,,株式会社,大阪府,枚方市,中宮本町９番２６号,,27,210,5731196,,,,,,,2023-11-20,1,,,,,マーデザイン,0
420,2120001259984,新規,0,2023-11-20,2023-11-20,株式会社ｆｕｎ,,株式会社,大阪府,大阪市東住吉区,湯里５丁目１６番２４号,,27,121,5460013,,,,,,,2023-11-20,1,,,,,ファン,0
421,2120001260001,新規,0,2023-11-20,2023-11-20,株式会社シフトジェン,,株式会社,大阪府,大阪市西区,南堀江１丁目１６－２３,,27,106,5500015,,,,,,,2023-11-20,1,,,,,シフトジェン,0
422,2120001260026,新規,0,2023-11-20,2023-11-20,ライフリング株式会社,,株式会社,大阪府,守口市,大日町３丁目２４番１号,,27,209,5700003,,,,,,,2023-11-20,1,,,,,ライフリング,0
425,2120101068542,新規,0,2023-11-20,2023-11-20,株式会社堺工務店Ｐｌｕｓ,,株式会社,大阪府,堺市南区,三原台４丁７番１４号,,27,145,5900111,,,,,,,2023-11-20,1,,,,,サカイコウムテンプラス,0
426,2120101068559,新規,0,2023-11-20,2023-11-20,株式会社ＫＡＫＥＺＡＮ,,株式会社,大阪府,堺市堺区,三国ヶ丘御幸通１０番地１三幸ビル,,27,141,5900028,,,,,,,2023-11-20,1,,,,,カケザン,0
430,2130003009156,新規,0,2023-11-20,2023-11-20,合同会社吟遊詩人舎,,合同会社,京都府,京都市下京区,烏丸通四条下る水銀屋町６２０番地,,26,106,6008411,,,,,,,2023-11-20,1,,,,,ギンユウシジンシャ,0
431,2130005016935,新規,0,2023-11-20,2023-11-20,協同組合ネクストジャパン,,その他の設立登記法人,京都府,京都市伏見区,桃山町大島１２８番地１６,,26,109,6128006,,,,,,,2023-11-20,1,,,,,ネクストジャパン,0
436,2140001132339,新規,0,2023-11-20,2023-11-20,株式会社ＰＲＥＳＥＮＴ,,株式会社,兵庫県,神戸市中央区,山本通４丁目２０番１９号,,28,110,6500003,,,,,,,2023-11-20,1,,,,,プレゼント,0
439,2150001026894,新規,0,2023-11-20,2023-11-20,株式会社ｉｉｔｆ,,株式会社,奈良県,奈良市,古市町２１５６－４,,29,201,6308424,,,,,,,2023-11-20,1,,,,,アイツーティーエフ,0
440,2160001025516,新規,0,2023-11-20,2023-11-20,株式会社輝星,,株式会社,滋賀県,守山市,今浜町２６２０－１０２－３０７,,25,207,5240101,,,,,,,2023-11-20,1,,,,,コウセイ,0
448,2180001158900,新規,0,2023-11-20,2023-11-20,株式会社国富開発,,株式会社,愛知県,名古屋市西区,名駅１丁目１－１７名駅ダイヤメイテツビル１１階,,23,104,4510045,,,,,,,2023-11-20,1,,,,,コクフカイハツ,0
449,2180001158966,新規,0,2023-11-20,2023-11-20,株式会社ＫＵＢＯＫＯコンサルタント,,株式会社,愛知県,名古屋市中区,富士見町１３番２２号ファミール富士見４１１号,,23,106,4600014,,,,,,,2023-11-20,1,,,,,クボコウコンサルタント,0
450,2180001158982,新規,0,2023-11-20,2023-11-20,株式会社イーワン,,株式会社,愛知県,名古屋市天白区,向が丘２丁目９１２番地,,23,116,4680012,,,,,,,2023-11-20,1,,,,,イーワン,0
452,2180003025917,新規,0,2023-11-20,2023-11-20,ＡＭ　ＣＡＲ合同会社,,合同会社,愛知県,春日井市,西本町３丁目２０４,,23,206,4860958,,,,,,,2023-11-20,1,,,,,,0
461,2200001041905,新規,0,2023-11-20,2023-11-20,株式会社ＫＷＳ,,株式会社,岐阜県,大垣市,綾野１丁目２６６番地４,,21,202,5030984,,,,,,,2023-11-20,1,,,,,ケーダブルエス,0
466,2240001062427,新規,0,2023-11-20,2023-11-20,株式会社Ｍ＆Ａファーストコンサルタント,,株式会社,広島県,福山市,新涯町５丁目９番１１号,,34,207,7210955,,,,,,,2023-11-20,1,,,,,エムアンドエーファーストコンサルタント,0
467,2240001062435,新規,0,2023-11-20,2023-11-20,株式会社ｅ’ｎ,,株式会社,広島県,広島市佐伯区,五日市中央２丁目３番５７号ロイヤルＭＳ１０１,,34,108,7315128,,,,,,,2023-11-20,1,,,,,エン,0
469,2260001038499,新規,0,2023-11-20,2023-11-20,株式会社カヌレ本舗,,株式会社,岡山県,岡山市北区,神田町１丁目９－１２リトルハイム神田１０３,,33,101,7000935,,,,,,,2023-11-20,1,,,,,カヌレホンポ,0
478,2290001103787,新規,0,2023-11-20,2023-11-20,辰＿株式会社,00132714,株式会社,福岡県,福岡市西区,愛宕浜４丁目２８番１０号,,40,135,8190013,,,,,,,2023-11-20,1,,,,,タツイク,0
494,2360001032822,新規,0,2023-11-20,2023-11-20,株式会社太郎,,株式会社,沖縄県,国頭郡本部町,字山川４６３番地１Ｆ,,47,308,9050205,,,,,,,2023-11-20,1,,,,,タロウ,0
495,2360001032830,新規,0,2023-11-20,2023-11-20,ＫＩＮＧ　ＣＡＲ沖縄株式会社,,株式会社,沖縄県,中頭郡北谷町,字吉原９５４番地,,47,326,9040105,,,,,,,2023-11-20,1,,,,,キングカーオキナワ,0
496,2360001032839,新規,0,2023-11-20,2023-11-20,ＭＥＩＭＵ株式会社,,株式会社,沖縄県,那覇市,寄宮１丁目２０番１５号,,47,201,9020064,,,,,,,2023-11-20,1,,,,,メイム,0
510,2420005007871,新規,0,2023-11-20,2023-11-20,特定非営利活動法人檜,,その他の設立登記法人,青森県,青森市,松森１丁目１３番３号,,02,201,0300965,,,,,,,2023-11-20,1,,,,,ヒノキ,0
512,2430001090482,新規,0,2023-11-20,2023-11-20,株式会社サーリアル,,株式会社,北海道,札幌市豊平区,平岸四条１２丁目１２番１４号,,01,105,0620934,,,,,,,2023-11-20,1,,,,,サーリアル,0
534,3010001240104,新規,0,2023-11-20,2023-11-20,株式会社トップループジャパン,,株式会社,東京都,中央区,銀座１丁目２２－１１銀座大竹ビジデンス２階,,13,102,1040061,,,,,,,2023-11-20,1,,,,,トップループジャパン,0
538,3010003042234,新規,0,2023-11-20,2023-11-20,ソーラーショパン合同会社,,合同会社,東京都,中央区,八丁堀４丁目２番１０号ＡＯＪ税理士法人内,,13,102,1040032,,,,,,,2023-11-20,1,,,,,ソーラーショパン,0
539,3010003042250,新規,0,2023-11-20,2023-11-20,シータ合同会社,,合同会社,東京都,中央区,日本橋１丁目４番１号,,13,102,1030027,,,,,,,2023-11-20,1,,,,,シータ,0
546,3010401178605,新規,0,2023-11-20,2023-11-20,Ｏｉｓｈｉｉ　Ｆａｒｍ株式会社,,株式会社,東京都,港区,六本木４丁目２番４５号高會堂ビル２Ｆ,,13,103,1060032,,,,,,,2023-11-20,1,,,,,オイシイファーム,0
547,3010401178638,新規,0,2023-11-20,2023-11-20,株式会社ｅｓｐｅｒａｎｔｏ,,株式会社,東京都,港区,赤坂５丁目５番９号赤坂スバルビル４０１号室,,13,103,1070052,,,,,,,2023-11-20,1,,,,,エスペラント,0
550,3010403031407,新規,0,2023-11-20,2023-11-20,ＧＳＳＧ　Ｓｏｌａｒ　Ｊａｐａｎ　Ｈｏｌｄｉｎｇｓ１３合同会社,,合同会社,東京都,港区,高輪１丁目３番１３号ＮＢＦ高輪ビル７階,,13,103,1080074,,,,,,,2023-11-20,1,,,,,ジーエスエスジーソーラージャパンホールディングスサーティーン,0
553,3010601064167,新規,0,2023-11-20,2023-11-20,シャンキャン株式会社,,株式会社,東京都,江東区,佐賀１丁目１６番３号２ＦＣ号室,,13,108,1350031,,,,,,,2023-11-20,1,,,,,シャンキャン,0
557,3010701045141,新規,0,2023-11-20,2023-11-20,新輝株式会社,,株式会社,東京都,品川区,上大崎２丁目１０番３４号,,13,109,1410021,,,,,,,2023-11-20,1,,,,,シンキ,0
574,3011003017944,新規,0,2023-11-20,2023-11-20,三共合同会社,,合同会社,東京都,渋谷区,道玄坂１丁目１０番８号渋谷道玄坂東急ビル２Ｆ－Ｃ,,13,113,1500043,,,,,,,2023-11-20,1,,,,,サンキョウ,0
579,3011203004230,新規,0,2023-11-20,2023-11-20,合同会社Ｓｔｕｄｉｏ　Ｃｈｌｏｅ,,合同会社,東京都,中野区,本町３丁目２１番７号,,13,114,1640012,,,,,,,2023-11-20,1,,,,,スタジオクロエ,0
582,3011501030003,新規,0,2023-11-20,2023-11-20,株式会社ＳＥＣＴＩＯＮ,,株式会社,東京都,北区,神谷２丁目１３番７号,,13,117,1150043,,,,,,,2023-11-20,1,,,,,セクション,0
584,3011603004136,新規,0,2023-11-20,2023-11-20,合同会社ＹＣＡＴ,,合同会社,東京都,練馬区,石神井台７丁目１１番１７号,,13,120,1770045,,,,,,,2023-11-20,1,,,,,ワイキャット,0
585,3011701026783,新規,0,2023-11-20,2023-11-20,和庫株式会社,,株式会社,東京都,江戸川区,松江３丁目９番１９号,,13,123,1320025,,,,,,,2023-11-20,1,,,,,ワクラ,0
586,3011701026791,新規,0,2023-11-20,2023-11-20,ビーオーティー株式会社,,株式会社,東京都,江戸川区,松江２丁目１－１３－１０４号室,,13,123,1320025,,,,,,,2023-11-20,1,,,,,ビーオーティー,0
587,3011703003657,新規,0,2023-11-20,2023-11-20,合同会社Ａｓｃｅｎｓｉｏｎグループ,,合同会社,東京都,江戸川区,平井５丁目１４番２－４０３号大島園マンション,,13,123,1320035,,,,,,,2023-11-20,1,,,,,アセンショングループ,0
599,3013103001282,新規,0,2023-11-20,2023-11-20,クトクス合同会社,,合同会社,東京都,あきる野市,小川５９番地１２,,13,228,1970821,,,,,,,2023-11-20,1,,,,,クトクス,0
611,3020001154534,新規,0,2023-11-20,2023-11-20,株式会社まほろば,,株式会社,神奈川県,横浜市神奈川区,金港町５－１４クアドリフォリオ８階,,14,102,2210056,,,,,,,2023-11-20,1,,,,,マホロバ,0
612,3020001154542,新規,0,2023-11-20,2023-11-20,株式会社建真,,株式会社,神奈川県,横浜市泉区,和泉が丘２丁目２番３８号,,14,116,2450022,,,,,,,2023-11-20,1,,,,,ケンシン,0
624,3021001080778,新規,0,2023-11-20,2023-11-20,株式会社天照,,株式会社,神奈川県,相模原市南区,相模大野３丁目１９番１１号５０１,,14,153,2520303,,,,,,,2023-11-20,1,,,,,アマテラス,0
625,3021003013802,新規,0,2023-11-20,2023-11-20,合同会社アドバイザリーオフィスＺｅｒｏＦｉｖｅ,,合同会社,神奈川県,秦野市,ひばりケ丘４－１６,,14,211,2570046,,,,,,,2023-11-20,1,,,,,アドバイザリーオフィスゼロファイブ,0
633,3030001157156,新規,0,2023-11-20,2023-11-20,ｊｃ株式会社,,株式会社,埼玉県,川口市,芝３丁目１番２４号,,11,203,3330866,,,,,,,2023-11-20,1,,,,,ジェイシー,0
634,3030001157180,新規,0,2023-11-20,2023-11-20,株式会社ジョイハピ,,株式会社,埼玉県,さいたま市緑区,大字中尾２２００番地２,,11,109,3360932,,,,,,,2023-11-20,1,,,,,ジョイハピ,0
635,3030001157222,新規,0,2023-11-20,2023-11-20,株式会社稔‐ｇｕｍｉ,,株式会社,埼玉県,川越市,大字笠幡７６２番地８,,11,201,3501175,,,,,,,2023-11-20,1,,,,,ミノルグミ,0
636,3030001157230,新規,0,2023-11-20,2023-11-20,株式会社匠永,,株式会社,埼玉県,さいたま市緑区,大字南部領辻１０番地,00132718,11,109,3360973,,,,,,,2023-11-20,1,,,,,ショウエイ,0
637,3030001157239,新規,0,2023-11-20,2023-11-20,株式会社Ｏｒｃａ　Ａｓｓｅｔ　Ｌａｂ,,株式会社,埼玉県,川越市,神明町２４番４６号,,11,201,3500823,,,,,,,2023-11-20,1,,,,,オルカアセットラボ,0
644,3030003023001,新規,0,2023-11-20,2023-11-20,博宇合同会社,,合同会社,埼玉県,入間郡三芳町,大字竹間沢４５０－１７メゾンシティ藤Ｃ館１０３号,,11,324,3540043,,,,,,,2023-11-20,1,,,,,ハクウ,0
645,3030003023026,新規,0,2023-11-20,2023-11-20,ＴｉｎｙＷｉｌｌ＆Ｃｒｅａｔｉｏｎ合同会社,,合同会社,埼玉県,行田市,桜町１丁目２０番４号,,11,206,3610022,,,,,,,2023-11-20,1,,,,,タイニーウィルアンドクリエイション,0
651,3040001131003,新規,0,2023-11-20,2023-11-20,株式会社ワークアンドライフ,,株式会社,千葉県,習志野市,袖ケ浦５丁目３番１８号,,12,216,2750021,,,,,,,2023-11-20,1,,,,,ワークアンドライフ,0
655,3040005022198,新規,0,2023-11-20,2023-11-20,一般社団法人ペラタテラ,,その他の設立登記法人,千葉県,印西市,滝字庚申塚５４６番５,00132726,12,231,2702328,,,,,,,2023-11-20,1,,,,,ペラタテラ,0
656,3050001053849,新規,0,2023-11-20,2023-11-20,テトラトリ株式会社,,株式会社,茨城県,つくば市,沼崎１８４０番地５,,08,220,3002631,,,,,,,2023-11-20,1,,,,,テトラトリ,0
657,3050003007951,新規,0,2023-11-20,2023-11-20,いろはＭＳＫＡＺＵ合同会社,,合同会社,茨城県,水戸市,渡里町３２４３番地,,08,201,3100902,,,,,,,2023-11-20,1,,,,,イロハエムエスカズ,0
660,3060001036563,新規,0,2023-11-20,2023-11-20,株式会社しんわ,,株式会社,栃木県,真岡市,飯貝１３６番地,,09,209,3214405,,,,,,,2023-11-20,1,,,,,シンワ,0
665,3070001041083,新規,0,2023-11-20,2023-11-20,株式会社Ｍ’Ｓ　ＧＡＲＤＥＮ,,株式会社,群馬県,高崎市,福島町７０８番地１１,,10,202,3703523,,,,,,,2023-11-20,1,,,,,エムズガーデン,0
667,3080001025985,新規,0,2023-11-20,2023-11-20,ＦＵＳＥ’Ｓ株式会社,,株式会社,静岡県,静岡市葵区,東鷹匠町３番４３号メゾン・ヴァンベール１０１,,22,101,4200833,,,,,,,2023-11-20,1,,,,,フューズ,0
675,3110005017026,新規,0,2023-11-20,2023-11-20,ＢＢＰ協同組合,,その他の設立登記法人,新潟県,燕市,新堀２２９４番地３,,15,213,9590133,,,,,,,2023-11-20,1,,,,,ビービーピー,0
682,3120001259851,新規,0,2023-11-20,2023-11-20,株式会社Ｓｕｋｉｓｓｃｏ,,株式会社,大阪府,大阪市北区,梅田１丁目２番２号,,27,127,5300001,,,,,,,2023-11-20,1,,,,,スキスコ,0
683,3120001259967,新規,0,2023-11-20,2023-11-20,株式会社ＪＩＮｓｔｕｄｉｏ,,株式会社,大阪府,大阪市浪速区,日本橋西１丁目４番１９－４０３号,,27,111,5560004,,,,,,,2023-11-20,1,,,,,ジンスタジオ,0
684,3120001259975,新規,0,2023-11-20,2023-11-20,株式会社Ｈ,,株式会社,大阪府,大阪市北区,梅田２丁目５番１３号,,27,127,5300001,,,,,,,2023-11-20,1,,,,,エイチ,0
685,3120001259983,新規,0,2023-11-20,2023-11-20,株式会社ＫＹＭ,,株式会社,大阪府,大阪市中央区,森ノ宮中央２丁目１３番３５－１１１４号,,27,128,5400003,,,,,,,2023-11-20,1,,,,,ケーワイエム,0
686,3120001259991,新規,0,2023-11-20,2023-11-20,株式会社北野田不動産,,株式会社,大阪府,大阪市東淀川区,大桐２丁目７番３５号,,27,114,5330011,,,,,,,2023-11-20,1,,,,,キタノダフドウサン,0
687,3120001260000,新規,0,2023-11-20,2023-11-20,守拙株式会社,,株式会社,大阪府,大阪市東住吉区,杭全１丁目１７－１７Ｔｉｎａ天王寺東ビル４２０室,,27,121,5460002,,,,,,,2023-11-20,1,,,,,シュセツ,0
688,3120001260009,新規,0,2023-11-20,2023-11-20,株式会社ＫｉｎａＣｈｉｉ,,株式会社,大阪府,大阪市西成区,天下茶屋１丁目６番２１号,,27,122,5570014,,,,,,,2023-11-20,1,,,,,キナチー,0
689,3120001260017,新規,0,2023-11-20,2023-11-20,株式会社ライオンコンサルティング,,株式会社,大阪府,大阪市生野区,中川１丁目５番６号,,27,116,5440005,,,,,,,2023-11-20,1,,,,,ライオンコンサルティング,0
693,3120003025368,新規,0,2023-11-20,2023-11-20,合同会社Ｓａｙｅｌｌｓ,,合同会社,大阪府,大阪市北区,中崎西３丁目１番１２－１２０７号,,27,127,5300015,,,,,,,2023-11-20,1,,,,,セイエールス,0
696,3120101068541,新規,0,2023-11-20,2023-11-20,株式会社ｋｌａｒｍ,,株式会社,大阪府,大阪狭山市,狭山５丁目２２５２番地の３、１Ｆ,,27,231,5890005,,,,,,,2023-11-20,1,,,,,クラーム,0
704,3130001075736,新規,0,2023-11-20,2023-11-20,株式会社ＣＡＳ,,株式会社,京都府,京都市下京区,西七条東石ケ坪町５０番地２,,26,106,6008895,,,,,,,2023-11-20,1,,,,,シーエイエス,0
705,3130001075744,新規,0,2023-11-20,2023-11-20,吉茂株式会社,,株式会社,京都府,京都市北区,出雲路松ノ下町７－１,,26,101,6038133,,,,,,,2023-11-20,1,,,,,ヨシミ,0
706,3130001075760,新規,0,2023-11-20,2023-11-20,株式会社ＣＳＣ,,株式会社,京都府,八幡市,欽明台東５番地１ファインガーデンスクエアＥ－９０７,,26,210,6148296,,,,,,,2023-11-20,1,,,,,シーエスシー,0
709,3130003009155,新規,0,2023-11-20,2023-11-20,合同会社ＳＨＩＮＲＯＮ,,合同会社,京都府,京都市中京区,壬生相合町３０－８－５０５,,26,104,6048812,,,,,,,2023-11-20,1,,,,,シンロン,0
713,3130005016934,新規,0,2023-11-20,2023-11-20,一般社団法人広域観光文化財活用推進協議会,,その他の設立登記法人,京都府,京都市伏見区,羽束師鴨川町１８９番地８,,26,109,6128484,,,,,,,2023-11-20,1,,,,,コウイキカンコウブンカザイカツヨウスイシンキョウギカイ,0
716,3140001132387,新規,0,2023-11-20,2023-11-20,ＩＬ　ＳＯＬＥ株式会社,,株式会社,兵庫県,神戸市西区,南別府１丁目２１番１号,,28,111,6512116,,,,,,,2023-11-20,1,,,,,イルソーレ,0
717,3140001132420,新規,0,2023-11-20,2023-11-20,株式会社ＭＯＹ,,株式会社,兵庫県,姫路市,飾磨区高町１丁目２９５番地１,,28,201,6728081,,,,,,,2023-11-20,1,,,,,エムオーワイ,0
718,3140001132429,新規,0,2023-11-20,2023-11-20,株式会社ｃｏｍｅ　ｃｏｍｅ,,株式会社,兵庫県,伊丹市,伊丹３丁目１０番６－１１０２号,,28,207,6640846,,,,,,,2023-11-20,1,,,,,カムカム,0
719,3160001025515,新規,0,2023-11-20,2023-11-20,株式会社Ｎｔｈライフ,,株式会社,滋賀県,彦根市,河原２丁目１番１６号,,25,202,5220083,,,,,,,2023-11-20,1,,,,,エヌスライフ,0
725,3180001159006,新規,0,2023-11-20,2023-11-20,株式会社ＯＰＴＩＣＯ,,株式会社,愛知県,長久手市,塚田１０９番地,,23,238,4801154,,,,,,,2023-11-20,1,,,,,オプティコ,0
726,3180001159014,新規,0,2023-11-20,2023-11-20,株式会社エバースプリング,,株式会社,愛知県,名古屋市港区,春田野１丁目２３１０番地,,23,111,4550873,,,,,,,2023-11-20,1,,,,,エバースプリング,0
728,3180003026006,新規,0,2023-11-20,2023-11-20,合同会社ＥＵＲＥＴＡ,,合同会社,愛知県,名古屋市中村区,名駅４丁目２４番５号第２森ビル４０１,,23,105,4500002,,,,,,,2023-11-20,1,,,,,エウレタ,0
736,3260001038498,新規,0,2023-11-20,2023-11-20,株式会社マッスル,,株式会社,岡山県,総社市,清音上中島１６３番地３０,,33,208,7191175,,,,,,,2023-11-20,1,,,,,マッスル,0
748,3290003014494,新規,0,2023-11-20,2023-11-20,リユニオン合同会社,,合同会社,福岡県,福岡市博多区,住吉３丁目３－９－２０１,,40,132,8120018,,,,,,,2023-11-20,1,,,,,リユニオン,0
749,3290003014610,新規,0,2023-11-20,2023-11-20,合同会社エンブリオサポートＷＡ,,合同会社,福岡県,福岡市西区,太郎丸１丁目９番地５,,40,135,8190384,,,,,,,2023-11-20,1,,,,,エンブリオサポートワ,0
753,3290005019203,新規,0,2023-11-20,2023-11-20,一般財団法人エフコープ社会活動財団,,その他の設立登記法人,福岡県,糟屋郡篠栗町,中央１丁目８番３号,,40,342,8112417,,,,,,,2023-11-20,1,,,,,エフコープシャカイカツドウザイダン,0
754,3290801030057,新規,0,2023-11-20,2023-11-20,株式会社ＹＧ,,株式会社,福岡県,田川市,大字夏吉１２５８番地２３３Ｃ棟２０３号,,40,206,8250004,,,,,,,2023-11-20,1,,,,,ヨシダグループ,0
763,3370001050640,新規,0,2023-11-20,2023-11-20,株式会社トリガーコンサルティング,,株式会社,宮城県,仙台市青葉区,花京院１丁目２－１５ｓｏｌａｌａ　ｐｌａｚａ３Ｆ,,04,101,9800013,,,,,,,2023-11-20,1,,,,,トリガーコンサルティング,0
764,3370003006384,新規,0,2023-11-20,2023-11-20,合同会社スマイルサポート,,合同会社,宮城県,栗原市,若柳字川南上堤２３０番地,,04,213,9895502,,,,,,,2023-11-20,1,,,,,スマイルサポート,0
785,3430001090473,新規,0,2023-11-20,2023-11-20,株式会社ｍｉｎｅ,,株式会社,北海道,札幌市豊平区,西岡二条１４丁目８番２号,,01,105,0620032,,,,,,,2023-11-20,1,,,,,マイン,0
786,3430001090481,新規,0,2023-11-20,2023-11-20,Ｅ介護サービス株式会社,,株式会社,北海道,札幌市南区,藤野一条６丁目３番１２号,,01,106,0612281,,,,,,,2023-11-20,1,,,,,イーカイゴザービス,0
788,3430003015676,新規,0,2023-11-20,2023-11-20,合同会社Ｐｌａｙ　Ｐｏｉｎｔｓ,,合同会社,北海道,札幌市清田区,平岡十条１丁目２７番６号,,01,110,0040880,,,,,,,2023-11-20,1,,,,,プレイポインツ,0
789,3450005004386,新規,0,2023-11-20,2023-11-20,一般社団法人ふらのメディカルアライアンス,,その他の設立登記法人,北海道,富良野市,住吉町１番３０号社会福祉法人北海道社会事業協会富良野病院内,,01,229,0760057,,,,,,,2023-11-20,1,,,,,,0
803,4010001240061,新規,0,2023-11-20,2023-11-20,ロングバケーション株式会社,,株式会社,東京都,中央区,日本橋室町１丁目１１番１２号日本橋水野ビル７階,,13,102,1030022,,,,,,,2023-11-20,1,,,,,ロングバケーション,0
804,4010001240169,新規,0,2023-11-20,2023-11-20,株式会社ＰＯＮＴＥ,,株式会社,東京都,中央区,銀座１丁目１２番４号Ｎ＆ＥＢＬＤ．６Ｆ,,13,102,1040061,,,,,,,2023-11-20,1,,,,,ポンテ,0
805,4010001240185,新規,0,2023-11-20,2023-11-20,株式会社Ｄａｔａｂｒｅｗ,,株式会社,東京都,文京区,本郷４丁目１７番２号,,13,105,1130033,,,,,,,2023-11-20,1,,,,,データブリュー,0
810,4010003042233,新規,0,2023-11-20,2023-11-20,ソーラーシューマン合同会社,,合同会社,東京都,中央区,八丁堀４丁目２番１０号ＡＯＪ税理士法人内,,13,102,1040032,,,,,,,2023-11-20,1,,,,,ソーラーシューマン,0
811,4010003042266,新規,0,2023-11-20,2023-11-20,サンライズ合同会社,,合同会社,東京都,中央区,八重洲２丁目２番１号,,13,102,1040028,,,,,,,2023-11-20,1,,,,,サンライズ,0
813,4010005037537,新規,0,2023-11-20,2023-11-20,一般社団法人シータ,,その他の設立登記法人,東京都,中央区,日本橋１丁目４番１号,,13,102,1030027,,,,,,,2023-11-20,1,,,,,シータ,0
815,4010103002260,新規,0,2023-11-20,2023-11-20,合同会社Ａ＆Ｔ企画,,合同会社,東京都,八王子市,寺町２０－１,,13,201,1920073,,,,,,,2023-11-20,1,,,,,エーアンドーティーキカク,0
824,4010501051396,新規,0,2023-11-20,2023-11-20,株式会社ＭＴインスペクション,,株式会社,東京都,台東区,上野７丁目１３－１０－１００５,,13,106,1100005,,,,,,,2023-11-20,1,,,,,,0
828,4010601064166,新規,0,2023-11-20,2023-11-20,株式会社３Ｔ　Ｇｌｏｂａｌ　Ｓｏｌｕｔｉｏｎｓ,,株式会社,東京都,江東区,古石場２丁目１５番１４号,,13,108,1350045,,,,,,,2023-11-20,1,,,,,スリーティーグローバルソリューションズ,0
829,4010601064182,新規,0,2023-11-20,2023-11-20,株式会社ｓｐｈｅｒｅ,,株式会社,東京都,墨田区,向島２丁目６－９ＲｕｙｇｏＯｓｈｉａｇｅＢ１Ａ,,13,107,1310033,,,,,,,2023-11-20,1,,,,,スフィア,0
841,4011001158252,新規,0,2023-11-20,2023-11-20,株式会社藤井体育学園,,株式会社,東京都,渋谷区,円山町５番５号Ｎａｖｉ渋谷Ｖ３階,,13,113,1500044,,,,,,,2023-11-20,1,,,,,フジイタイイクガクエン,0
842,4011001158368,新規,0,2023-11-20,2023-11-20,野郎ラーメン株式会社,,株式会社,東京都,渋谷区,広尾１丁目３番１８号広尾オフィスビル,,13,113,1500012,,,,,,,2023-11-20,1,,,,,ヤロウラーメン,0
847,4011101105187,新規,0,2023-11-20,2023-11-20,ＥＢＴエアサービス株式会社,,株式会社,東京都,新宿区,新宿５丁目８番地２号ニューライフ新宿４０３号室,,13,104,1600022,,,,,,,2023-11-20,1,,,,,イービーティーエアサービス,0
865,4011603004143,新規,0,2023-11-20,2023-11-20,ニコハウス合同会社,,合同会社,東京都,練馬区,貫井２丁目２７－２１－１０２,,13,120,1760021,,,,,,,2023-11-20,1,,,,,ニコハウス,0
883,4020001154491,新規,0,2023-11-20,2023-11-20,株式会社Ｆｕｌｌ　Ｊａｐａｎ,,株式会社,神奈川県,横浜市鶴見区,鶴見中央１丁目２番４－２０７号ＧＳプラザ鶴見駅前,,14,101,2300051,,,,,,,2023-11-20,1,,,,,,0
884,4020001154525,新規,0,2023-11-20,2023-11-20,株式会社Ｇｒｅｅｎｓ,,株式会社,神奈川県,横浜市戸塚区,吉田町１６２３番地１５２－６１１号,,14,110,2440817,,,,,,,2023-11-20,1,,,,,グリーンズ,0
888,4020003025014,新規,0,2023-11-20,2023-11-20,Ｐｒｏｍｅｔｅｏ合同会社,,合同会社,神奈川県,横浜市神奈川区,金港町５－１４クアドリフォリオ８階,,14,102,2210056,,,,,,,2023-11-20,1,,,,,プロメテオ,0
899,4030001157139,新規,0,2023-11-20,2023-11-20,俊企画株式会社,,株式会社,埼玉県,さいたま市大宮区,上小町１６番地,,11,103,3300855,,,,,,,2023-11-20,1,,,,,トシキカク,0
900,4030001157221,新規,0,2023-11-20,2023-11-20,株式会社和心,,株式会社,埼玉県,所沢市,金山町２番２号,,11,208,3591128,,,,,,,2023-11-20,1,,,,,ワゴコロ,0
905,4030003023025,新規,0,2023-11-20,2023-11-20,合同会社ｋａｎｕｎｕ,,合同会社,埼玉県,三郷市,戸ケ崎３丁目２０５番地１０,,11,237,3410044,,,,,,,2023-11-20,1,,,,,カヌヌ,0
906,4030003023033,新規,0,2023-11-20,2023-11-20,シュタイン合同会社,,合同会社,埼玉県,越谷市,千間台東２丁目１５番地１０メゾンノーブリィ２０１,,11,222,3430042,,,,,,,2023-11-20,1,,,,,シュタイン,0
907,4030003023041,新規,0,2023-11-20,2023-11-20,合同会社ヨシダコーポレーション,,合同会社,埼玉県,鶴ヶ島市,新町２丁目２０－２０,,11,241,3502227,,,,,,,2023-11-20,1,,,,,ヨシダコーポレーション,0
911,4040001130978,新規,0,2023-11-20,2023-11-20,ＦｕｔｕｒｅＣｒｅａｔｉｏｎ株式会社,,株式会社,千葉県,長生郡長柄町,六地蔵２０９番地１,,12,426,2970233,,,,,,,2023-11-20,1,,,,,フューチャークリエイション,0
912,4040001131002,新規,0,2023-11-20,2023-11-20,株式会社秋元電気工業,,株式会社,千葉県,千葉市若葉区,千城台西３丁目７番４号コーポピューカ１０１号,,12,104,2640004,,,,,,,2023-11-20,1,,,,,アキモトデンキコウギョウ,0
915,4040003023759,新規,0,2023-11-20,2023-11-20,合同会社真栄管理,,合同会社,千葉県,いすみ市,高谷８２１,,12,238,2980021,,,,,,,2023-11-20,1,,,,,シンエイカンリ,0
918,4050001053848,新規,0,2023-11-20,2023-11-20,株式会社ココエール,,株式会社,茨城県,古河市,中田新田１２番地２７,,08,204,3060054,,,,,,,2023-11-20,1,,,,,ココエール,0
930,4090001018426,新規,0,2023-11-20,2023-11-20,Ｃｏｒ　Ｌｅｏｎｉｓ株式会社,,株式会社,山梨県,甲府市,湯村３丁目９番８号,,19,201,4000073,,,,,,,2023-11-20,1,,,,,コルレオニス,0
933,4090003002428,新規,0,2023-11-20,2023-11-20,合同会社アプリノ,,合同会社,山梨県,北杜市,大泉町西井出８２４０番地１２５１,,19,209,4091501,,,,,,,2023-11-20,1,,,,,アプリノ,0
941,4110003005205,新規,0,2023-11-20,2023-11-20,合同会社ｋｕｒａｆａｒｍ１８０４,,合同会社,新潟県,柏崎市,大字安田３４７５－１,,15,205,9451352,,,,,,,2023-11-20,1,,,,,クラファームイチハチゼロヨン,0
942,4110005017025,新規,0,2023-11-20,2023-11-20,新潟ドローン協同組合,,その他の設立登記法人,新潟県,三条市,桜木町１２番３８号,,15,204,9550844,,,,,,,2023-11-20,1,,,,,ニイガタドローン,0
946,4120001259850,新規,0,2023-11-20,2023-11-20,株式会社Ｂｒｉｇｈｔ,,株式会社,大阪府,大阪市北区,天満２丁目１２番３号,,27,127,5300043,,,,,,,2023-11-20,1,,,,,ブライト,0
947,4120001259859,新規,0,2023-11-20,2023-11-20,株式会社ミエ,,株式会社,大阪府,大阪市天王寺区,堀越町９番２０－１２０７号,,27,109,5430056,,,,,,,2023-11-20,1,,,,,ミエ,0
948,4120001259875,新規,0,2023-11-20,2023-11-20,株式会社タノシム,,株式会社,大阪府,大阪市中央区,西心斎橋２丁目１２番１４号オーシャンドライブ３１４,,27,128,5420086,,,,,,,2023-11-20,1,,,,,タノシム,0
949,4120001259909,新規,0,2023-11-20,2023-11-20,元一文化メディア株式会社,,株式会社,大阪府,大阪市中央区,船越町１丁目５－８－４１０,,27,128,5400036,,,,,,,2023-11-20,1,,,,,ゲンイチブンカメディア,0
950,4120001259982,新規,0,2023-11-20,2023-11-20,株式会社大海,,株式会社,大阪府,大阪市港区,夕凪１丁目１０番１１号,,27,107,5520004,,,,,,,2023-11-20,1,,,,,ダイナ,0
957,4120103005541,新規,0,2023-11-20,2023-11-20,合同会社アイズコーポレーション,,合同会社,大阪府,和泉市,黒石町５３０番３,,27,219,5941113,,,,,,,2023-11-20,1,,,,,アイズコーポレーション,0
966,4130001075735,新規,0,2023-11-20,2023-11-20,株式会社一,,株式会社,京都府,京都市上京区,相国寺門前町６４３－６風良都館３Ｆ,,26,102,6020898,,,,,,,2023-11-20,1,,,,,イチ,0
972,4130003009146,新規,0,2023-11-20,2023-11-20,合同会社Ｈｉｌｌ　Ｖｉｌｌａｇｅ,,合同会社,京都府,宇治市,大久保町旦椋１３番地８さつきマンション３号室,,26,204,6110033,,,,,,,2023-11-20,1,,,,,ヒルヴィレッジ,0
973,4130003009154,新規,0,2023-11-20,2023-11-20,合同会社ＣＯＮＦＩＤＯ,,合同会社,京都府,木津川市,相楽姫子４６番地１エミエール山田川４０２号,,26,214,6190222,,,,,,,2023-11-20,1,,,,,コンフィード,0
991,4180001158997,新規,0,2023-11-20,2023-11-20,株式会社Ｈ＆Ｓ,,株式会社,愛知県,名古屋市緑区,池上台２丁目１０番地の１,,23,114,4580044,,,,,,,2023-11-20,1,,,,,エイチアンドエス,0
992,4180001159013,新規,0,2023-11-20,2023-11-20,株式会社Ｏｒｉｏｎ,,株式会社,愛知県,犬山市,桃山台１丁目８５番地,,23,215,4840839,,,,,,,2023-11-20,1,,,,,オリオン,0
998,4180003026005,新規,0,2023-11-20,2023-11-20,合同会社ＲＨＩＮＯ,,合同会社,愛知県,名古屋市北区,山田４丁目１０番８１号市営新山田北荘９１２号,,23,103,4620810,,,,,,,2023-11-20,1,,,,,ライノ,0
999,4180003026013,新規,0,2023-11-20,2023-11-20,合同会社ＴＲＩＢＥ,,合同会社,愛知県,名古屋市名東区,明が丘１２４番地１ａｍｉａｍｉ１０５,,23,115,4650033,,,,,,,2023-11-20,1,,,,,トライブ,0
1006,4220001025697,新規,0,2023-11-20,2023-11-20,株式会社若本庄太郎商店,,株式会社,石川県,小松市,滝ケ原町チ１６１‐１,,17,203,9230335,,,,,,,2023-11-20,1,,,,,ワカモトショウタロウショウテン,0
1009,4250005008877,新規,0,2023-11-20,2023-11-20,医療法人さくらだ会,,その他の設立登記法人,山口県,周南市,毛利町３丁目３２番地,,35,215,7450004,,,,,,,2023-11-20,1,,,,,サクラダカイ,0
1017,4290001103777,新規,0,2023-11-20,2023-11-20,株式会社五代ホールディングス,,株式会社,福岡県,福岡市西区,福重２丁目１３番６号,,40,135,8190022,,,,,,,2023-11-20,1,,,,,ゴダイホールディングス,0
1032,4310003004665,新規,0,2023-11-20,2023-11-20,合同会社井村解体,,合同会社,長崎県,南島原市,北有馬町丁２２９４,,42,214,8592304,,,,,,,2023-11-20,1,,,,,イムラカイタイ,0
1033,4330001031478,新規,0,2023-11-20,2023-11-20,株式会社ＳＥＩＪＯ,,株式会社,熊本県,熊本市西区,上高橋１丁目６番５号,,43,103,8600061,,,,,,,2023-11-20,1,,,,,セイジョウ,0
1038,4360001032829,新規,0,2023-11-20,2023-11-20,株式会社アステール,,株式会社,沖縄県,宮古島市,平良字荷川取６９０番地７,,47,214,9060008,,,,,,,2023-11-20,1,,,,,アステール,0
1039,4360001032837,新規,0,2023-11-20,2023-11-20,株式会社ＣＳ　ＯＫＩＮＡＷＡ,,株式会社,沖縄県,那覇市,松尾２丁目１９－３５フェリーチェ２０２,,47,201,9000014,,,,,,,2023-11-20,1,,,,,シーエスオキナワ,0
1040,4360001032845,新規,0,2023-11-20,2023-11-20,株式会社創志会,,株式会社,沖縄県,那覇市,繁多川１丁目１５－２４リバーハイツ１０２号,,47,201,9020071,,,,,,,2023-11-20,1,,,,,ソウシカイ,0
1041,4360003013496,新規,0,2023-11-20,2023-11-20,合同会社稻嶺興業,,合同会社,沖縄県,名護市,字田井等７８９番地１、２階,,47,209,9051147,,,,,,,2023-11-20,1,,,,,イナミネコウギョウ,0
1054,4400003003179,新規,0,2023-11-20,2023-11-20,合同会社Ｓ．Ｓ．Ｋ,,合同会社,岩手県,北上市,有田町４―１２,,03,206,0240081,,,,,,,2023-11-20,1,,,,,エスエスケー,0
1056,4400005008366,新規,0,2023-11-20,2023-11-20,農事組合法人福田ファーム,,その他の設立登記法人,岩手県,二戸市,福田字稲荷前２９番地１,,03,213,0286722,,,,,,,2023-11-20,1,,,,,フクダファーム,0
1057,4430001090472,新規,0,2023-11-20,2023-11-20,株式会社メディカルコネクト,,株式会社,北海道,札幌市北区,屯田六条６丁目２番２５号,,01,102,0020856,,,,,,,2023-11-20,1,,,,,メディカルコネクト,0
1059,4430003015650,新規,0,2023-11-20,2023-11-20,Ｒｅｊｕ‐Ｃｏ　Ｉｎｔｅｒｎａｔｉｏｎａｌ合同会社,,合同会社,北海道,虻田郡倶知安町,ニセコひらふ一条４丁目３番１７号,,01,400,0440080,,,,,,,2023-11-20,1,,,,,リジュコインターナショナル,0
1060,4430003015659,新規,0,2023-11-20,2023-11-20,合同会社アルファ,,合同会社,北海道,札幌市豊平区,水車町２丁目１番１号水車町マンション７０２号,,01,105,0620912,,,,,,,2023-11-20,1,,,,,アルファ,0
1076,5010005037528,新規,0,2023-11-20,2023-11-20,一般社団法人日亜文化交流協会,,その他の設立登記法人,東京都,中央区,日本橋堀留町１丁目１１番５号,,13,102,1030012,,,,,,,2023-11-20,1,,,,,ニチアブンカコウリュウキョウカイ,0
1077,5010005037536,新規,0,2023-11-20,2023-11-20,一般社団法人Ｇａｒｄｅｎ,,その他の設立登記法人,東京都,中央区,銀座１丁目１２－４Ｎ＆ＥＢＬＤ．７階,,13,102,1040061,,,,,,,2023-11-20,1,,,,,ガーデン,0
1088,5010403031396,新規,0,2023-11-20,2023-11-20,つくば谷田部ロジスティクス合同会社,,合同会社,東京都,港区,六本木１丁目６番１号泉ガーデンタワー,,13,103,1060032,,,,,,,2023-11-20,1,,,,,ツクバヤタベロジスティクス,0
1090,5010501051370,新規,0,2023-11-20,2023-11-20,株式会社Ｐ．Ｇ,,株式会社,東京都,台東区,花川戸１丁目１３番６－９０４号グランベルセントローレンスタワー,,13,106,1110033,,,,,,,2023-11-20,1,,,,,ピージー,0
1092,5010601064165,新規,0,2023-11-20,2023-11-20,ドローンスクールラボ株式会社,,株式会社,東京都,江東区,越中島３丁目６番１－６０５号,,13,108,1350044,,,,,,,2023-11-20,1,,,,,ドローンスクールラボ,0
1093,5010601064181,新規,0,2023-11-20,2023-11-20,シーレインボーセレモニー株式会社,,株式会社,東京都,墨田区,両国３丁目２４－７ヴィラロイヤル両国６０３,,13,107,1300026,,,,,,,2023-11-20,1,,,,,シーレインボーセレモニー,0
1105,5011001158342,新規,0,2023-11-20,2023-11-20,株式会社ｔｅｎｄｅｒ,,株式会社,東京都,渋谷区,神宮前４丁目２４番１０号広瀬ビル１階,,13,113,1500001,,,,,,,2023-11-20,1,,,,,テンダー,0
1110,5011101105186,新規,0,2023-11-20,2023-11-20,溪洲株式会社,,株式会社,東京都,新宿区,早稲田鶴巻町５３８番地１９リンクス早稲田ビル５０３,,13,104,1620041,,,,,,,2023-11-20,1,,,,,ケイシュウ,0
1119,5011505002590,新規,0,2023-11-20,2023-11-20,一般社団法人日本伝統音楽協会,,その他の設立登記法人,東京都,荒川区,荒川８丁目１８番３号,,13,118,1160002,,,,,,,2023-11-20,1,,,,,ニホンデントウオンガクキョウカイ,0
1120,5011601027302,新規,0,2023-11-20,2023-11-20,株式会社ＡＲＢ,,株式会社,東京都,練馬区,下石神井３丁目１番１４号,,13,120,1770042,,,,,,,2023-11-20,1,,,,,エーアールビー,0
1122,5011801043371,新規,0,2023-11-20,2023-11-20,立新株式会社,,株式会社,東京都,足立区,西新井栄町１丁目１４－３,,13,121,1230843,,,,,,,2023-11-20,1,,,,,リッシン,0
1127,5013301051656,新規,0,2023-11-20,2023-11-20,株式会社アルトゥーラ,,株式会社,東京都,豊島区,雑司が谷１丁目４７番７号,,13,116,1710032,,,,,,,2023-11-20,1,,,,,アルトゥーラ,0
1131,5020001154516,新規,0,2023-11-20,2023-11-20,株式会社琉心建設,,株式会社,神奈川県,横浜市鶴見区,朝日町２丁目８０番地７,,14,101,2300033,,,,,,,2023-11-20,1,,,,,リュウシンケンセツ,0
1145,5030001157220,新規,0,2023-11-20,2023-11-20,株式会社ＢＲＩペット企画,,株式会社,埼玉県,本庄市,早稲田の杜１丁目２番１号,,11,211,3670030,,,,,,,2023-11-20,1,,,,,ビーアールアイペットキカク,0
1152,5030003023024,新規,0,2023-11-20,2023-11-20,合同会社ＳＵＮ,,合同会社,埼玉県,熊谷市,石原２丁目２３番地,,11,202,3600816,,,,,,,2023-11-20,1,,,,,サン,0
1159,5040001130985,新規,0,2023-11-20,2023-11-20,株式会社ＭＮＫ,,株式会社,千葉県,野田市,西三ケ尾４８４番地４,,12,208,2780015,,,,,,,2023-11-20,1,,,,,エムエヌケー,0
1160,5040001131001,新規,0,2023-11-20,2023-11-20,株式会社ベジタ,,株式会社,千葉県,山武郡横芝光町,篠本１７２０番地,,12,410,2891701,,,,,,,2023-11-20,1,,,,,ベジタ,0
1164,5040003023758,新規,0,2023-11-20,2023-11-20,合同会社古河ソーラーファーム,,合同会社,千葉県,木更津市,かずさ鎌足３丁目９番地１,,12,206,2920818,,,,,,,2023-11-20,1,,,,,コガソーラーファーム,0
1166,5050001053847,新規,0,2023-11-20,2023-11-20,株式会社Ｎ　Ｌｉｂｒｅ電工,,株式会社,茨城県,北相馬郡利根町,もえぎ野台１丁目１番地３,,08,564,3001606,,,,,,,2023-11-20,1,,,,,エヌリブレデンコウ,0
1171,5070001041081,新規,0,2023-11-20,2023-11-20,株式会社Ｊ‐ＫＬＡＸＯＮ,,株式会社,群馬県,太田市,龍舞町３９６０番地５,,10,205,3730806,,,,,,,2023-11-20,1,,,,,ジェイクラクソン,0
1172,5070003005167,新規,0,2023-11-20,2023-11-20,合同会社彩テック,,合同会社,群馬県,太田市,東新町５４５番地１１,,10,205,3730015,,,,,,,2023-11-20,1,,,,,アヤテック,0
1173,5080001025975,新規,0,2023-11-20,2023-11-20,ＧＯＯＤ　ＥＲＲＯＲ株式会社,,株式会社,静岡県,静岡市葵区,伝馬町１０番地の９松本ビル２階Ｂ室,,22,101,4200858,,,,,,,2023-11-20,1,,,,,グッドエラー,0
1174,5080003003095,新規,0,2023-11-20,2023-11-20,合同会社サンクス,,合同会社,静岡県,静岡市葵区,鷹匠３丁目１９番地３,,22,101,4200839,,,,,,,2023-11-20,1,,,,,サンクス,0
1176,5090001018425,新規,0,2023-11-20,2023-11-20,ライフリズム株式会社,,株式会社,山梨県,北杜市,長坂町小荒間１１番地４,,19,209,4080031,,,,,,,2023-11-20,1,,,,,ライフリズム,0
1182,5110005017024,新規,0,2023-11-20,2023-11-20,エステート福寿管理組合法人,,その他の設立登記法人,新潟県,長岡市,長町１丁目２番地６,,15,202,9400053,,,,,,,2023-11-20,1,,,,,エステートフクジュ,0
1194,5120001259841,新規,0,2023-11-20,2023-11-20,株式会社くらわん花,,株式会社,大阪府,枚方市,藤阪東町３丁目２番２－１０２号,,27,210,5730153,,,,,,,2023-11-20,1,,,,,クラワンカ,0
1195,5120001259899,新規,0,2023-11-20,2023-11-20,アカラ薬業株式会社,,株式会社,大阪府,大阪市天王寺区,玉造元町１４番１２号,,27,109,5430014,,,,,,,2023-11-20,1,,,,,アカラヤクギョウ,0
1196,5120001259908,新規,0,2023-11-20,2023-11-20,中鼎昊達株式会社,,株式会社,大阪府,大阪市淀川区,西中島５丁目１番６の７０５,,27,123,5320011,,,,,,,2023-11-20,1,,,,,チュウテイコウタツ,0
1197,5120001259957,新規,0,2023-11-20,2023-11-20,本築株式会社,,株式会社,大阪府,大阪市北区,堂山町１番５号三共梅田ビル６階センターオフィス,,27,127,5300027,,,,,,,2023-11-20,1,,,,,ホンチク,0
1198,5120001259965,新規,0,2023-11-20,2023-11-20,株式会社ＫＩＵ,,株式会社,大阪府,大阪市中央区,上汐２丁目３番１２－８０２号,,27,128,5420064,,,,,,,2023-11-20,1,,,,,キウ,0
1202,5120003025333,新規,0,2023-11-20,2023-11-20,合同会社もず先端システム,,合同会社,大阪府,大阪市北区,天神橋２丁目２－１７Ｌｕｘｅ天神橋１００２,,27,127,5300041,,,,,,,2023-11-20,1,,,,,モズセンタンシステム,0
1207,5120101068556,新規,0,2023-11-20,2023-11-20,カインド建装株式会社,,株式会社,大阪府,堺市堺区,北庄町１丁６番２７号,,27,141,5900007,,,,,,,2023-11-20,1,,,,,カインドケンソウ,0
1210,5120103005540,新規,0,2023-11-20,2023-11-20,合同会社ＬＩＴＴＬＥ　ＷＩＮＧ,,合同会社,大阪府,堺市東区,菩提町４丁３８－４,,27,143,5998103,,,,,,,2023-11-20,1,,,,,リトルウイング,0
1212,5120901048385,新規,0,2023-11-20,2023-11-20,ヒロテクノ株式会社,,株式会社,大阪府,高槻市,登美の里町６番６号,,27,207,5690812,,,,,,,2023-11-20,1,,,,,ヒロテクノ,0
1213,5120903004923,新規,0,2023-11-20,2023-11-20,合同会社エモーショナルツアーコンサルティング,,合同会社,大阪府,吹田市,春日４丁目１１－１－５０３,,27,205,5650853,,,,,,,2023-11-20,1,,,,,エモーショナルツアーコンサルティング,0
1215,5122003002733,新規,0,2023-11-20,2023-11-20,ＵＮＧ　Ｙ合同会社,,合同会社,大阪府,八尾市,高美町７丁目３番５０号,,27,212,5810017,,,,,,,2023-11-20,1,,,,,ウンワイ,0
1217,5130001075734,新規,0,2023-11-20,2023-11-20,ＯｎｅＤｅｇｒｅｅ株式会社,,株式会社,京都府,宇治市,宇治半白６５－６,,26,204,6110021,,,,,,,2023-11-20,1,,,,,ワンディグリー,0
1218,5130003009153,新規,0,2023-11-20,2023-11-20,プリズムセンス合同会社,,合同会社,京都府,京都市西京区,松室吾田神町１３１番地ケイシティ桂川１番館５０６,,26,111,6158202,,,,,,,2023-11-20,1,,,,,プリズムセンス,0
1223,5140001132336,新規,0,2023-11-20,2023-11-20,真栄フォークリフト工業株式会社,,株式会社,兵庫県,神戸市中央区,海岸通３丁目１番１号ＫＣＣビル４Ｆ,,28,110,6500024,,,,,,,2023-11-20,1,,,,,シンエイフォークリフトコウギョウ,0
1224,5140001132385,新規,0,2023-11-20,2023-11-20,あだちまさとき医療サービス株式会社,,株式会社,兵庫県,神戸市灘区,篠原北町３丁目１４番１２－１１０３号,,28,102,6570068,,,,,,,2023-11-20,1,,,,,アダチマサトキイリョウサービス,0
1229,5140003019820,新規,0,2023-11-20,2023-11-20,合同会社Ｗ　Ｒａｉｓｅ,,合同会社,兵庫県,神戸市中央区,下山手通２丁目４番１０号（５階）,,28,110,6500011,,,,,,,2023-11-20,1,,,,,ダブルレイズ,0
1230,5140003019837,新規,0,2023-11-20,2023-11-20,合同会社あにまるず,,合同会社,兵庫県,西宮市,神園町２番２－５０１号,,28,204,6620027,,,,,,,2023-11-20,1,,,,,アニマルズ,0
1233,5170001017880,新規,0,2023-11-20,2023-11-20,株式会社ＶｉＬｉｚｅ,,株式会社,和歌山県,和歌山市,弘西４３５番地６,,30,201,6496339,,,,,,,2023-11-20,1,,,,,ヴィライズ,0
1236,5180001158971,新規,0,2023-11-20,2023-11-20,楽多多全球株式会社,,株式会社,愛知県,東海市,荒尾町寺下２９番地１,,23,222,4760003,,,,,,,2023-11-20,1,,,,,ラクタタゼンキュウ,0
1237,5180001158988,新規,0,2023-11-20,2023-11-20,株式会社ＳＨＩＮＥ,,株式会社,愛知県,海部郡大治町,大字北間島字柿木１３番地の５Ｏ．Ｓ．ＺＥＡＬ、Ｎ棟３０１,,23,424,4901132,,,,,,,2023-11-20,1,,,,,シャイン,0
1238,5180001158996,新規,0,2023-11-20,2023-11-20,株式会社リベルタ,,株式会社,愛知県,名古屋市昭和区,川名町４丁目７５番地,,23,107,4660856,,,,,,,2023-11-20,1,,,,,リベルタ,0
1249,5180303005913,新規,0,2023-11-20,2023-11-20,合同会社満翔,,合同会社,愛知県,安城市,住吉町２丁目１番地２８第３新安城ビル２Ｂ,,23,212,4460072,,,,,,,2023-11-20,1,,,,,マンショウ,0
1250,5190001030898,新規,0,2023-11-20,2023-11-20,株式会社３２６,,株式会社,三重県,四日市市,泊山崎町１番１２号,,24,202,5100892,,,,,,,2023-11-20,1,,,,,ミツル,0
1251,5190003004487,新規,0,2023-11-20,2023-11-20,Ｖｅｒｉｔｅ合同会社,,合同会社,三重県,松阪市,久保町１８８１番地７２,,24,204,5150044,,,,,,,2023-11-20,1,,,,,ヴェリーテ,0
1253,5200001041910,新規,0,2023-11-20,2023-11-20,ＧＬＯＶＩＡ　ＬＯＧＩＳＴＩＣＳ株式会社,,株式会社,岐阜県,美濃市,もみじが丘１丁目９０番地,,21,207,5013773,,,,,,,2023-11-20,1,,,,,グロービアロジスティクス,0
1259,5210001019550,新規,0,2023-11-20,2023-11-20,ＫＭＩプロジェクト株式会社,,株式会社,福井県,坂井市,三国町加戸第９７号７５番地,,18,210,9130002,,,,,,,2023-11-20,1,,,,,ケーエムアイプロジェクト,0
1260,5220003003626,新規,0,2023-11-20,2023-11-20,合同会社ＲＭ’Ｓ,,合同会社,石川県,金沢市,畝田中４丁目８２番地,,17,201,9200343,,,,,,,2023-11-20,1,,,,,アールエムズ,0
1265,5240001062432,新規,0,2023-11-20,2023-11-20,株式会社ウィズハピネス,,株式会社,広島県,東広島市,西条中央８丁目１１番８号,,34,212,7390025,,,,,,,2023-11-20,1,,,,,ウィズハピネス,0
1266,5240001062440,新規,0,2023-11-20,2023-11-20,株式会社ＥｎＳｏｕ,,株式会社,広島県,広島市安佐南区,西原５丁目７番８－１０１号,,34,105,7310113,,,,,,,2023-11-20,1,,,,,エンソウ,0
1282,5290003014617,新規,0,2023-11-20,2023-11-20,合同会社にこやか,,合同会社,福岡県,福岡市南区,向新町２丁目６－３,,40,134,8111345,,,,,,,2023-11-20,1,,,,,ニコヤカ,0
1287,5330001031469,新規,0,2023-11-20,2023-11-20,株式会社Ｆｅｌｉｍ,,株式会社,熊本県,熊本市中央区,大江３丁目１番７２－１００４号,,43,101,8620971,,,,,,,2023-11-20,1,,,,,フィリム,0
1302,5370003006382,新規,0,2023-11-20,2023-11-20,ツートップエージェント合同会社,,合同会社,宮城県,仙台市青葉区,中央１丁目２番３号仙台マークワン１９階,,04,101,9800021,,,,,,,2023-11-20,1,,,,,ツートップエージェント,0
1314,5430001090471,新規,0,2023-11-20,2023-11-20,株式会社ふうど,,株式会社,北海道,札幌市中央区,南九条西１７丁目１番１‐６０２号,,01,101,0640809,,,,,,,2023-11-20,1,,,,,フウド,0
1315,5430003015658,新規,0,2023-11-20,2023-11-20,合同会社ＲＥＶＥＬＡＴＩＯＮ,,合同会社,北海道,石狩市,厚田区虹が原１６５－２６１,,01,235,0613332,,,,,,,2023-11-20,1,,,,,リベレーション,0
1327,6010001240209,新規,0,2023-11-20,2023-11-20,株式会社ＴＨＥ組,,株式会社,東京都,中央区,新川２丁目６番２号石橋ビル３０３,,13,102,1040033,,,,,,,2023-11-20,1,,,,,ザグミ,0
1332,6010401178610,新規,0,2023-11-20,2023-11-20,株式会社Ｔｈｅ　Ｖｉｓｉｏｎ,,株式会社,東京都,港区,南青山３丁目１番３６号青山丸竹ビル６Ｆ,,13,103,1070062,,,,,,,2023-11-20,1,,,,,ザビジョン,0
1338,6010601064180,新規,0,2023-11-20,2023-11-20,イニシャルハート株式会社,,株式会社,東京都,江東区,千田２３番１５号小林ビル４０１号室,,13,108,1350013,,,,,,,2023-11-20,1,,,,,イニシャルハート,0
1341,6010701045147,新規,0,2023-11-20,2023-11-20,アージルジャパン株式会社,,株式会社,東京都,品川区,西五反田３丁目８－３,,13,109,1410031,,,,,,,2023-11-20,1,,,,,アージルジャパン,0
1345,6011001158267,新規,0,2023-11-20,2023-11-20,株式会社クリエイティブ・ネットワーク・システム,,株式会社,東京都,目黒区,上目黒２丁目９番３５号中目黒ＧＳ第２ビル２階,,13,110,1530051,,,,,,,2023-11-20,1,,,,,クリエイティブネットワークシステム,0
1346,6011003017958,新規,0,2023-11-20,2023-11-20,エンジョイント合同会社,,合同会社,東京都,渋谷区,恵比寿１丁目８番１８号Ｋ－１ビル３Ｆ,,13,113,1500013,,,,,,,2023-11-20,1,,,,,エンジョイント,0
1347,6011005010267,新規,0,2023-11-20,2023-11-20,一般社団法人個人事業支援協会,,その他の設立登記法人,東京都,目黒区,下目黒２丁目１８－１３目黒第一花谷ビル５階,,13,110,1530064,,,,,,,2023-11-20,1,,,,,コジンジギョウシエンキョウカイ,0
1352,6011101105185,新規,0,2023-11-20,2023-11-20,株式会社Ｅａｇｌｅ,,株式会社,東京都,新宿区,余丁町１２番３３号日信ビル１階,,13,104,1620055,,,,,,,2023-11-20,1,,,,,イーグル,0
1355,6011301029192,新規,0,2023-11-20,2023-11-20,７０１株式会社,,株式会社,東京都,杉並区,永福４丁目６－１３アメニティーコート４７０Ａ室,,13,115,1680064,,,,,,,2023-11-20,1,,,,,セブンゼロワン,0
1360,6011603004133,新規,0,2023-11-20,2023-11-20,合同会社Ｍ２‐ＮＥＸＴ,,合同会社,東京都,練馬区,中村３丁目２１番１０号,,13,120,1760024,,,,,,,2023-11-20,1,,,,,エムツーネクスト,0
1365,6012701017951,新規,0,2023-11-20,2023-11-20,株式会社ヴェルテックスプラン,,株式会社,東京都,小平市,学園東町１丁目７番１４号,,13,211,1870043,,,,,,,2023-11-20,1,,,,,ヴェルテックスプラン,0
1370,6013301051647,新規,0,2023-11-20,2023-11-20,株式会社山梨県民球団準備会社,,株式会社,東京都,豊島区,池袋２丁目４０番１３号,,13,116,1710014,,,,,,,2023-11-20,1,,,,,ヤマナシケンミンキュウダンジュンビガイシャ,0
1379,6020001154523,新規,0,2023-11-20,2023-11-20,ウィングリペア株式会社,,株式会社,神奈川県,川崎市川崎区,観音２丁目６－１６,,14,131,2100831,,,,,,,2023-11-20,1,,,,,ウィングリペア,0
1380,6020001154531,新規,0,2023-11-20,2023-11-20,株式会社ジーラ,,株式会社,神奈川県,川崎市高津区,二子１丁目１４番２２号篝り舎２０７,,14,134,2130002,,,,,,,2023-11-20,1,,,,,ジーラ,0
1389,6020003025029,新規,0,2023-11-20,2023-11-20,合同会社ワクワク,,合同会社,神奈川県,横浜市青葉区,美しが丘１丁目１８番地,,14,117,2250002,,,,,,,2023-11-20,1,,,,,ワクワク,0
1391,6021001080783,新規,0,2023-11-20,2023-11-20,株式会社湘南Ｒｅｆｉｎｅ,,株式会社,神奈川県,藤沢市,辻堂６丁目２７番２３号,,14,205,2510047,,,,,,,2023-11-20,1,,,,,ショウナンリファイン,0
1399,6030001157129,新規,0,2023-11-20,2023-11-20,株式会社ＯＮ　ＢＵＩＬＤ,,株式会社,埼玉県,さいたま市大宮区,桜木町１丁目１９５番地１大宮ソラミチＫＯＺ４階,,11,103,3300854,,,,,,,2023-11-20,1,,,,,オンビルド,0
1400,6030001157178,新規,0,2023-11-20,2023-11-20,株式会社ＨＡＲＡＤＡ,,株式会社,埼玉県,さいたま市北区,今羽町１１４番地１,,11,102,3310801,,,,,,,2023-11-20,1,,,,,ハラダ,0
1402,6030003023015,新規,0,2023-11-20,2023-11-20,合同会社ＨＫ,,合同会社,埼玉県,川口市,並木１丁目６－２５ＺＣＯ並木ビル５０３,,11,203,3320034,,,,,,,2023-11-20,1,,,,,エイチケイ,0
1403,6030003023023,新規,0,2023-11-20,2023-11-20,合同会社ＲＩＳＥ,,合同会社,埼玉県,熊谷市,柿沼８２番地６メゾンシエル１０３,,11,202,3600803,,,,,,,2023-11-20,1,,,,,ライズ,0
1406,6040001130992,新規,0,2023-11-20,2023-11-20,株式会社アクティブ,,株式会社,千葉県,富里市,七栄６５１番地８７６,,12,233,2860221,,,,,,,2023-11-20,1,,,,,アクティブ,0
1407,6040001131017,新規,0,2023-11-20,2023-11-20,Ａｎｉｍａｌ　Ｂｅｉｎｇｓ株式会社,,株式会社,千葉県,松戸市,三矢小台２丁目６番地の２,,12,207,2710087,,,,,,,2023-11-20,1,,,,,アニマルビーイングス,0
1409,6040003023757,新規,0,2023-11-20,2023-11-20,合同会社吉田塾,,合同会社,千葉県,船橋市,丸山５丁目３２番地,,12,204,2730048,,,,,,,2023-11-20,1,,,,,ヨシダジュク,0
1410,6040003023765,新規,0,2023-11-20,2023-11-20,合同会社Ｒａｖｅｔｅｒｎ,,合同会社,千葉県,千葉市緑区,おゆみ野南５丁目１０番地１６,,12,105,2660033,,,,,,,2023-11-20,1,,,,,レイブターン,0
1414,6050001053846,新規,0,2023-11-20,2023-11-20,株式会社旭日産業,,株式会社,茨城県,桜川市,真壁町東矢貝２０８番地２６,,08,231,3004429,,,,,,,2023-11-20,1,,,,,アサヒサンギョウ,0
1415,6050001053854,新規,0,2023-11-20,2023-11-20,株式会社青空建築,,株式会社,茨城県,水戸市,笠原町１５８９番地の４,,08,201,3100852,,,,,,,2023-11-20,1,,,,,アオゾラケンチク,0
1422,6070001041089,新規,0,2023-11-20,2023-11-20,ＭＳ　ＪＡＰＡＮ貿易株式会社,,株式会社,群馬県,高崎市,飯塚町１５３０番地１金井住宅（Ａ）,,10,202,3700069,,,,,,,2023-11-20,1,,,,,エムエスジャパンボウエキ,0
1426,6080401026853,新規,0,2023-11-20,2023-11-20,株式会社ハカマダ,,株式会社,静岡県,菊川市,赤土６１１番地,,22,224,4371507,,,,,,,2023-11-20,1,,,,,ハカマダ,0
1440,6120001259849,新規,0,2023-11-20,2023-11-20,株式会社ファミリア,,株式会社,大阪府,枚方市,朝日丘町１１番５号,,27,210,5730026,,,,,,,2023-11-20,1,,,,,ファミリア,0
1441,6120001259857,新規,0,2023-11-20,2023-11-20,株式会社大東ライフ,,株式会社,大阪府,大阪市淀川区,新高６丁目１０番１２号,,27,123,5320033,,,,,,,2023-11-20,1,,,,,ダイトウライフ,0
1442,6120001259907,新規,0,2023-11-20,2023-11-20,澤福株式会社,,株式会社,大阪府,枚方市,伊加賀西町６７番２－３０２号,,27,210,5730066,,,,,,,2023-11-20,1,,,,,サワフク,0
1443,6120001259915,新規,0,2023-11-20,2023-11-20,株式会社ラビットシックス,,株式会社,大阪府,大阪市淀川区,西中島４丁目５－２２レクシア西中島ＩＩＩ３０２号室,00132713,27,123,5320011,,,,,,,2023-11-20,1,,,,,ラビットシックス,0
1444,6120001260006,新規,0,2023-11-20,2023-11-20,株式会社ＭＩＲＡＩ,,株式会社,大阪府,大阪市中央区,南久宝寺町３丁目３番３号三都ビル３０６号,,27,128,5410058,,,,,,,2023-11-20,1,,,,,ミライ,0
1447,6120003025332,新規,0,2023-11-20,2023-11-20,合同会社ラフテル,,合同会社,大阪府,大阪市住之江区,南港北２丁目１番１０号ＡＴＣビルＩＴＭ棟５階Ｈ－１０－２,,27,125,5590034,,,,,,,2023-11-20,1,,,,,ラフテル,0
1448,6120003025357,新規,0,2023-11-20,2023-11-20,合同会社ミンメイ,,合同会社,大阪府,大阪市北区,天満２丁目１４番１１号,,27,127,5300043,,,,,,,2023-11-20,1,,,,,ミンメイ,0
1449,6120005024002,新規,0,2023-11-20,2023-11-20,一般社団法人絆コーポレーション,,その他の設立登記法人,大阪府,大阪市中央区,平野町２丁目１番２号沢の鶴ビル６Ｆ,,27,128,5410046,,,,,,,2023-11-20,1,,,,,キズナコーポレーション,0
1450,6120101068555,新規,0,2023-11-20,2023-11-20,株式会社かわうち商会,,株式会社,大阪府,南河内郡千早赤阪村,大字水分１２２７番地１,,27,383,5850041,,,,,,,2023-11-20,1,,,,,カワウチショウカイ,0
1453,6122001037524,新規,0,2023-11-20,2023-11-20,フジ矢ユナイテッド株式会社,,株式会社,大阪府,東大阪市,松原２丁目６番３２号,,27,227,5780922,,,,,,,2023-11-20,1,,,,,フジヤユナイテッド,0
1454,6122003002732,新規,0,2023-11-20,2023-11-20,ゴールドスター合同会社,,合同会社,大阪府,東大阪市,若江本町１丁目３－１３,,27,227,5780942,,,,,,,2023-11-20,1,,,,,ゴールドスター,0
1457,6130003009144,新規,0,2023-11-20,2023-11-20,ココロ合同会社,,合同会社,京都府,京都市北区,大北山原谷乾町３２番地１６メゾン二葉４０６号室,,26,101,6038487,,,,,,,2023-11-20,1,,,,,ココロ,0
1464,6150001026890,新規,0,2023-11-20,2023-11-20,株式会社なないろ薬局,,株式会社,奈良県,桜井市,大字黒崎６４７番地,,29,206,6330011,,,,,,,2023-11-20,1,,,,,ナナイロヤッキョク,0
1467,6160001025512,新規,0,2023-11-20,2023-11-20,株式会社Ｌ,,株式会社,滋賀県,彦根市,沼波町４５番地,,25,202,5220036,,,,,,,2023-11-20,1,,,,,エル,0
1475,6180001158954,新規,0,2023-11-20,2023-11-20,株式会社間瀬商店,,株式会社,愛知県,半田市,十一号地１８番地１０,,23,205,4750831,,,,,,,2023-11-20,1,,,,,マセショウテン,0
1476,6180001159011,新規,0,2023-11-20,2023-11-20,株式会社東和,,株式会社,愛知県,名古屋市千種区,今池３丁目２３番２０号,,23,101,4640850,,,,,,,2023-11-20,1,,,,,トウワ,0
1480,6180003025905,新規,0,2023-11-20,2023-11-20,ちひろ企画合同会社,,合同会社,愛知県,名古屋市千種区,光が丘２丁目５番６４号,,23,101,4640006,,,,,,,2023-11-20,1,,,,,チヒロキカク,0
1481,6180003026011,新規,0,2023-11-20,2023-11-20,合同会社オオハラ,,合同会社,愛知県,名古屋市東区,泉１丁目１７番１０号,,23,102,4610001,,,,,,,2023-11-20,1,,,,,オオハラ,0
1513,6290001103775,新規,0,2023-11-20,2023-11-20,株式会社あさひ管理,,株式会社,福岡県,福岡市西区,大字周船寺３６番地１,,40,135,8190373,,,,,,,2023-11-20,1,,,,,アサヒカンリ,0
1514,6290001103791,新規,0,2023-11-20,2023-11-20,株式会社ＳＨＩＮＥ,,株式会社,福岡県,那珂川市,大字不入道５５４,,40,231,8111231,,,,,,,2023-11-20,1,,,,,シャイン,0
1520,6290005019200,新規,0,2023-11-20,2023-11-20,一般社団法人安心サポート振興会,,その他の設立登記法人,福岡県,福岡市博多区,寿町２丁目３－４,,40,132,8120884,,,,,,,2023-11-20,1,,,,,アンシンサポートシンコウカイ,0
1523,6310001018715,新規,0,2023-11-20,2023-11-20,株式会社ＴＳＵＳＨＩＭＡ　Ｆｉｓｈｉｎｇ,,株式会社,長崎県,対馬市,美津島町竹敷４番地１５５,,42,209,8170511,,,,,,,2023-11-20,1,,,,,ツシマフィッシング,0
1525,6330001031492,新規,0,2023-11-20,2023-11-20,株式会社ＫＯＳＥＮ,,株式会社,熊本県,熊本市中央区,新町３丁目２番３４－６０１号,,43,101,8600004,,,,,,,2023-11-20,1,,,,,コウセン,0
1526,6330003010081,新規,0,2023-11-20,2023-11-20,合同会社平川美容室きらら,,合同会社,熊本県,熊本市北区,改寄町２３６４番地６,,43,105,8615501,,,,,,,2023-11-20,1,,,,,ヒラカワビヨウシツキララ,0
1532,6360003013486,新規,0,2023-11-20,2023-11-20,合同会社Ｋａｔｓｕ工業,,合同会社,沖縄県,名護市,字親川４３９番地１,,47,209,9051146,,,,,,,2023-11-20,1,,,,,カツコウギョウ,0
1533,6360005006942,新規,0,2023-11-20,2023-11-20,特定非営利活動法人にじ子屋,,その他の設立登記法人,沖縄県,うるま市,石川嘉手苅１０６番,,47,213,9041114,,,,,,,2023-11-20,1,,,,,ニジコヤ,0
1535,6370001050638,新規,0,2023-11-20,2023-11-20,ＮＳホールディングス株式会社,,株式会社,宮城県,仙台市宮城野区,岩切２丁目３番３６号,,04,102,9830821,,,,,,,2023-11-20,1,,,,,エヌエスホールディングス,0
1548,6430001090462,新規,0,2023-11-20,2023-11-20,株式会社ハナカワ,,株式会社,北海道,札幌市豊平区,美園六条５丁目３番１－５０１号,,01,105,0620006,,,,,,,2023-11-20,1,,,,,ハナカワ,0
1554,6430003015657,新規,0,2023-11-20,2023-11-20,Ａｄｉｅｕ合同会社,,合同会社,北海道,札幌市北区,新川四条４丁目１番１号,,01,102,0010924,,,,,,,2023-11-20,1,,,,,アデュー,0
1555,6430003015665,新規,0,2023-11-20,2023-11-20,合同会社ハピエストナーシング,,合同会社,北海道,札幌市手稲区,新発寒五条２丁目１番２６号,,01,109,0060805,,,,,,,2023-11-20,1,,,,,ハピエストナーシング,0
1556,6450003002406,新規,0,2023-11-20,2023-11-20,いただき繕合同会社,,合同会社,北海道,中川郡美深町,字六郷１１６番地７,,01,469,0982203,,,,,,,2023-11-20,1,,,,,,0
1558,6470001019904,新規,0,2023-11-20,2023-11-20,株式会社たいよぅ,,株式会社,香川県,高松市,前田東町５３８番地２,,37,201,7610322,,,,,,,2023-11-20,1,,,,,タイヨゥ,0
1563,6700150018641,新規,0,2023-11-20,2015-10-09,牛久市土地改良区事務運営協議会,,その他,茨城県,牛久市,中央３丁目１５－１,,08,219,3001234,,,,,,,2015-10-09,1,,,,,ウシクシトチカイリヨウクジムウンエイキヨウギカイ,0
1570,7010001240174,新規,0,2023-11-20,2023-11-20,株式会社Ｍａｒｖｅｌ　Ｍａｎａｇｅｍｅｎｔ,,株式会社,東京都,中央区,京橋３丁目６番１８号,,13,102,1040031,,,,,,,2023-11-20,1,,,,,マーベルマネージメント,0
1573,7010003042255,新規,0,2023-11-20,2023-11-20,合同会社Ｗｅｌｌ　Ｌａｂ,,合同会社,東京都,千代田区,飯田橋１丁目１２番９号１階,,13,101,1020072,,,,,,,2023-11-20,1,,,,,ウェルラボ,0
1578,7010005037542,新規,0,2023-11-20,2023-11-20,一般社団法人ＧＥアセットマネジメント３号,,その他の設立登記法人,東京都,千代田区,一ツ橋２丁目６番３号アクシスインベストメントアドバイザーズ株式会社内,,13,101,1010003,,,,,,,2023-11-20,1,,,,,ジーイーアセットマネジメントサンゴウ,0
1588,7010403031403,新規,0,2023-11-20,2023-11-20,合同会社アァーチャンギャルド,,合同会社,東京都,港区,南青山２丁目２番１５号,,13,103,1070062,,,,,,,2023-11-20,1,,,,,アァーチャンギャルド,0
1592,7010601064171,新規,0,2023-11-20,2023-11-20,セイシン株式会社,,株式会社,東京都,江東区,有明３丁目７－１１,,13,108,1350063,,,,,,,2023-11-20,1,,,,,,0
1599,7011001158340,新規,0,2023-11-20,2023-11-20,株式会社ｗｉｓｔｅｌｌ,,株式会社,東京都,渋谷区,宇田川町３１番９号近藤ビル２階,,13,113,1500042,,,,,,,2023-11-20,1,,,,,ウィステル,0
1600,7011001158349,新規,0,2023-11-20,2023-11-20,株式会社ＩＯＢ,,株式会社,東京都,渋谷区,恵比寿西２丁目８番５号－４階,,13,113,1500021,,,,,,,2023-11-20,1,,,,,アイオービー,0
1601,7011001158357,新規,0,2023-11-20,2023-11-20,株式会社ＯＤＪ,,株式会社,東京都,目黒区,下目黒３丁目１０番３４－１１５号,,13,110,1530064,,,,,,,2023-11-20,1,,,,,オーディージェー,0
1607,7011101105192,新規,0,2023-11-20,2023-11-20,株式会社Ｇｌｉａｔｅ,,株式会社,東京都,新宿区,北新宿１丁目１６番２７号,,13,104,1690074,,,,,,,2023-11-20,1,,,,,グリエイト,0
1611,7011301029191,新規,0,2023-11-20,2023-11-20,株式会社あさか住宅,,株式会社,東京都,杉並区,本天沼３丁目１１番３号,,13,115,1670031,,,,,,,2023-11-20,1,,,,,アサカジュウタク,0
1615,7011501030008,新規,0,2023-11-20,2023-11-20,株式会社サトウ,,株式会社,東京都,荒川区,東尾久３丁目６－８,,13,118,1160012,,,,,,,2023-11-20,1,,,,,サトウ,0
1616,7011503005833,新規,0,2023-11-20,2023-11-20,合同会社Ｒａｐｔ,,合同会社,東京都,荒川区,東尾久３丁目４－５,,13,118,1160012,,,,,,,2023-11-20,1,,,,,ラプト,0
1617,7011601027291,新規,0,2023-11-20,2023-11-20,株式会社マル本エステート,,株式会社,東京都,練馬区,貫井４丁目１４番１８号,,13,120,1760021,,,,,,,2023-11-20,1,,,,,マルホンエステート,0
1621,7011801043378,新規,0,2023-11-20,2023-11-20,三矢テック株式会社,,株式会社,東京都,葛飾区,鎌倉２丁目１４番９号,,13,122,1250053,,,,,,,2023-11-20,1,,,,,ミツヤテック,0
1622,7012301013672,新規,0,2023-11-20,2023-11-20,株式会社ＡＬＩＦＥ,,株式会社,東京都,町田市,南大谷９０７番地４,,13,209,1940031,,,,,,,2023-11-20,1,,,,,,0
1625,7012401041243,新規,0,2023-11-20,2023-11-20,株式会社トゥルーノース・パートナーズ,,株式会社,東京都,小金井市,東町４丁目３７番２４号,,13,210,1840011,,,,,,,2023-11-20,1,,,,,トゥルーノースパートナーズ,0
1626,7012403006285,新規,0,2023-11-20,2023-11-20,合同会社ヒラタスタイル,,合同会社,東京都,武蔵野市,吉祥寺東町１丁目８－８－１,,13,203,1800002,,,,,,,2023-11-20,1,,,,,ヒラタスタイル,0
1630,7013301051646,新規,0,2023-11-20,2023-11-20,株式会社Ｔ．Ｈ　ｎｅｘｔ,,株式会社,東京都,豊島区,北大塚１丁目１９番１２号,,13,116,1700004,,,,,,,2023-11-20,1,,,,,ティードットエイチネクスト,0
1640,7020001154381,新規,0,2023-11-20,2023-11-20,Ｐｒｉｍｅ　Ｍａｎａｇｅｍｅｎｔ株式会社,,株式会社,神奈川県,横浜市磯子区,東町６番１３－７０８号,,14,107,2350005,,,,,,,2023-11-20,1,,,,,プライムマネジメント,0
1641,7020001154514,新規,0,2023-11-20,2023-11-20,あおぞらペット霊園株式会社,,株式会社,神奈川県,横浜市旭区,四季美台２３番地２,,14,112,2410025,,,,,,,2023-11-20,1,,,,,アオゾラペットレイエン,0
1648,7021003013815,新規,0,2023-11-20,2023-11-20,エールクリエイション合同会社,,合同会社,神奈川県,茅ヶ崎市,幸町９番２２号ＢＲＵＴＵＳ－Ａ,,14,207,2530052,,,,,,,2023-11-20,1,,,,,エールクリエイション,0
1657,7030001157144,新規,0,2023-11-20,2023-11-20,株式会社ＮＤＯ,,株式会社,埼玉県,川越市,大字南田島５７０番地１,,11,201,3500027,,,,,,,2023-11-20,1,,,,,エヌディーオー,0
1658,7030001157193,新規,0,2023-11-20,2023-11-20,株式会社スマートエクステリア,,株式会社,埼玉県,上尾市,大字上１６２４番地３,,11,219,3620001,,,,,,,2023-11-20,1,,,,,スマートエクステリア,0
1659,7030001157202,新規,0,2023-11-20,2023-11-20,株式会社ＤＮＷ,,株式会社,埼玉県,和光市,新倉１丁目２３番４９号,,11,229,3510115,,,,,,,2023-11-20,1,,,,,ディーエヌダブリュー,0
1660,7030001157227,新規,0,2023-11-20,2023-11-20,Ｊ．Ｃ　ＧＬＯＢＡＬ　ＴＲＡＤＩＮＧ株式会社,,株式会社,埼玉県,吉川市,保１丁目２４番地６,,11,243,3420041,,,,,,,2023-11-20,1,,,,,ジェイシーグローバルトレーディング,0
1661,7030001157251,新規,0,2023-11-20,2023-11-20,株式会社海邦,,株式会社,埼玉県,川越市,大字中福５９５番地７,,11,201,3501156,,,,,,,2023-11-20,1,,,,,カイホウ,0
1662,7030003023022,新規,0,2023-11-20,2023-11-20,合同会社Ｍ,,合同会社,埼玉県,草加市,手代３丁目５０番１６号リバーハイツＡ－１０１号,,11,221,3400021,,,,,,,2023-11-20,1,,,,,エム,0
1663,7030003023039,新規,0,2023-11-20,2023-11-20,Ｅｖｅｒｙｏｎｅ’ｓ合同会社,,合同会社,埼玉県,飯能市,大字中藤下郷２３番地２１,,11,209,3570123,,,,,,,2023-11-20,1,,,,,エブリワンズ,0
1664,7030003023055,新規,0,2023-11-20,2023-11-20,ＣｔｏＳ合同会社,,合同会社,埼玉県,川口市,大字西新井宿４４０番１－２階,,11,203,3330833,,,,,,,2023-11-20,1,,,,,シートゥエス,0
1665,7030005021478,新規,0,2023-11-20,2023-11-20,ＨＡＣ国際協同組合,,その他の設立登記法人,埼玉県,草加市,柿木町２１９１番地,,11,221,3400001,,,,,,,2023-11-20,1,,,,,エイチエイシーコクサイ,0
1672,7040001130983,新規,0,2023-11-20,2023-11-20,株式会社ＺＯＰ,,株式会社,千葉県,船橋市,田喜野井５丁目１４－６,,12,204,2740073,,,,,,,2023-11-20,1,,,,,ズィーオーピー,0
1673,7040001130991,新規,0,2023-11-20,2023-11-20,ＧＯリラポンプ株式会社,,株式会社,千葉県,柏市,南増尾７丁目３番７号,,12,217,2770054,,,,,,,2023-11-20,1,,,,,ゴリラポンプ,0
1675,7040003023764,新規,0,2023-11-20,2023-11-20,合同会社Ｉｎｆｉｎｉｔｙ,,合同会社,千葉県,千葉市稲毛区,萩台町６８９番地フォルトゥーナＢ２０３号,,12,103,2630012,,,,,,,2023-11-20,1,,,,,インフィニティ,0
1678,7050001053845,新規,0,2023-11-20,2023-11-20,株式会社ＬｅａｄＳＴＡＲ,,株式会社,茨城県,つくば市,中根２２３番地,,08,220,3050012,,,,,,,2023-11-20,1,,,,,リードスター,0
1679,7050001053853,新規,0,2023-11-20,2023-11-20,株式会社ＫＥＮハウス,,株式会社,茨城県,水戸市,赤塚１丁目２０５８－１フォーライフ赤塚３０１,,08,201,3114141,,,,,,,2023-11-20,1,,,,,ケンハウス,0
1692,7080401026852,新規,0,2023-11-20,2023-11-20,株式会社ａｎｄ　ｔｉｇｈｔｅｎ,,株式会社,静岡県,浜松市東区,下石田町３０６番地,,22,132,4350006,,,,,,,2023-11-20,1,,,,,アンドタイトゥン,0
1694,7090001018423,新規,0,2023-11-20,2023-11-20,株式会社ｍｉｉｉｍｉ,,株式会社,山梨県,甲府市,徳行３丁目７番２２号山田物産ビル３Ｆ,,19,201,4000047,,,,,,,2023-11-20,1,,,,,ミーミ,0
1701,7120001259781,新規,0,2023-11-20,2023-11-20,ＩＶＧ株式会社,,株式会社,大阪府,大阪市中央区,北久宝寺町３丁目６番１号本町南ガーデンシティ７階,,27,128,5410057,,,,,,,2023-11-20,1,,,,,アイヴィージー,0
1702,7120001259831,新規,0,2023-11-20,2023-11-20,株式会社華洋商事,,株式会社,大阪府,大阪市東住吉区,西今川４丁目１６番１０号セランハイツ２０３号,,27,121,5460042,,,,,,,2023-11-20,1,,,,,カヨウショウジ,0
1703,7120001259880,新規,0,2023-11-20,2023-11-20,大和マーケティング株式会社,,株式会社,大阪府,大阪市港区,市岡１丁目１３番４号４階,,27,107,5520012,,,,,,,2023-11-20,1,,,,,ダイワマーケティング,0
1704,7120001259930,新規,0,2023-11-20,2023-11-20,株式会社フォトン,,株式会社,大阪府,大阪市北区,鶴野町４番Ａ－３２１,,27,127,5300014,,,,,,,2023-11-20,1,,,,,フォトン,0
1705,7120001259947,新規,0,2023-11-20,2023-11-20,株式会社ｓｏｕｒｉｒｅ,,株式会社,大阪府,大阪市阿倍野区,阿倍野元町１４番３－１４０１号,,27,119,5450034,,,,,,,2023-11-20,1,,,,,スリール,0
1706,7120001259963,新規,0,2023-11-20,2023-11-20,株式会社亀ハウス,,株式会社,大阪府,大阪市鶴見区,横堤４丁目２６番３１号１Ｆ,,27,124,5380052,,,,,,,2023-11-20,1,,,,,カメハウス,0
1707,7120001260046,新規,0,2023-11-20,2023-11-20,株式会社ｗａｖｉｎｇ,,株式会社,大阪府,大阪市中央区,玉造２丁目１５番１３号２Ｆ,,27,128,5400004,,,,,,,2023-11-20,1,,,,,ウェーヴィング,0
1710,7120003025356,新規,0,2023-11-20,2023-11-20,合同会社Ｎ’ｓ,,合同会社,大阪府,大阪市中央区,宗右衛門町５－２ＴＭ３３ビル１００１,,27,128,5420084,,,,,,,2023-11-20,1,,,,,エヌズ,0
1711,7120003025364,新規,0,2023-11-20,2023-11-20,合同会社Ｔ＆Ｉ,,合同会社,大阪府,大阪市西区,新町１丁目１７番１７号,,27,106,5500013,,,,,,,2023-11-20,1,,,,,ティーアンドアイ,0
1735,7140001132367,新規,0,2023-11-20,2023-11-20,大運国際株式会社,,株式会社,兵庫県,神戸市兵庫区,駅南通５丁目４番５号ＪＲ高架下倉庫１４号,,28,105,6520897,,,,,,,2023-11-20,1,,,,,ダイウンコクサイ,0
1736,7140001132400,新規,0,2023-11-20,2023-11-20,株式会社ネイサ・イングリッシュ,,株式会社,兵庫県,宝塚市,社町７番８号,,28,214,6650071,,,,,,,2023-11-20,1,,,,,ネイサイングリッシュ,0
1742,7180001158986,新規,0,2023-11-20,2023-11-20,株式会社ｂｅｌｌｅｚｅ　ｕｐ,,株式会社,愛知県,名古屋市瑞穂区,田辺通１丁目７番地メゾン石川橋Ａ棟Ａ１５,,23,108,4670027,,,,,,,2023-11-20,1,,,,,ベルゼアップ,0
1743,7180001158994,新規,0,2023-11-20,2023-11-20,株式会社健康のミカタ,,株式会社,愛知県,知多郡武豊町,字平井１丁目５０番地１,,23,447,4702380,,,,,,,2023-11-20,1,,,,,ケンコウノミカタ,0
1744,7180001159002,新規,0,2023-11-20,2023-11-20,株式会社ＳＡＲＡＤＡＣＯ,,株式会社,愛知県,名古屋市中村区,名駅４丁目２４番５号第２森ビル４０１,,23,105,4500002,,,,,,,2023-11-20,1,,,,,サラダコ,0
1745,7180001159010,新規,0,2023-11-20,2023-11-20,株式会社ＲｅＳｉｇｈｔ,,株式会社,愛知県,一宮市,起字西生出７０番地１,,23,203,4940006,,,,,,,2023-11-20,1,,,,,リサイト,0
1759,7240001062439,新規,0,2023-11-20,2023-11-20,株式会社ｍｏｕｇ,,株式会社,広島県,広島市中区,三川町６番１３号遠藤ビル２０１,,34,101,7300029,,,,,,,2023-11-20,1,,,,,ムージー,0
1768,7290001103774,新規,0,2023-11-20,2023-11-20,株式会社あけぼの不動産,,株式会社,福岡県,福岡市西区,大字周船寺３６番地１,,40,135,8190373,,,,,,,2023-11-20,1,,,,,,0
1778,7290801030053,新規,0,2023-11-20,2023-11-20,株式会社汐,,株式会社,福岡県,田川市,大字伊加利３１７番地１,,40,206,8250001,,,,,,,2023-11-20,1,,,,,ウシオ,0
1780,7330003010080,新規,0,2023-11-20,2023-11-20,合同会社串部硝子店,,合同会社,熊本県,熊本市東区,新外１丁目２番２２号,,43,102,8620921,,,,,,,2023-11-20,1,,,,,クシベガラステン,0
1782,7360001032834,新規,0,2023-11-20,2023-11-20,スターフィールド企画株式会社,,株式会社,沖縄県,中頭郡北谷町,字吉原７５７番地３８コーポ．Ｓ２０３,,47,326,9040105,,,,,,,2023-11-20,1,,,,,スターフィールドキカク,0
1786,7360005006941,新規,0,2023-11-20,2023-11-20,一般社団法人渡嘉敷村ホエールウォッチング協会,,その他の設立登記法人,沖縄県,島尻郡渡嘉敷村,字渡嘉敷２０１番地,,47,353,9013501,,,,,,,2023-11-20,1,,,,,トカシキソンホエールウォッチングキョウカイ,0
1802,7470001019903,新規,0,2023-11-20,2023-11-20,株式会社ｃｒｅｅｔｅ,,株式会社,香川県,高松市,中野町３１番２２号,,37,201,7600008,,,,,,,2023-11-20,1,,,,,クリート,0
1804,7480003002047,新規,0,2023-11-20,2023-11-20,合同会社モンテ,,合同会社,徳島県,板野郡上板町,七條字古町２１番地２,,36,405,7711302,,,,,,,2023-11-20,1,,,,,モンテ,0
1813,8010001240132,新規,0,2023-11-20,2023-11-20,株式会社ニューロアクシス,,株式会社,東京都,中央区,東日本橋１丁目１番３－３０２号,,13,102,1030004,,,,,,,2023-11-20,1,,,,,ニューロアクシス,0
1814,8010001240207,新規,0,2023-11-20,2023-11-20,ケアプライド株式会社,,株式会社,東京都,中央区,勝どき１丁目８－１－４２０５,,13,102,1040054,,,,,,,2023-11-20,1,,,,,ケアプライド,0
1816,8010003042238,新規,0,2023-11-20,2023-11-20,合同会社サターン,,合同会社,東京都,千代田区,霞が関３丁目２番５号,,13,101,1000013,,,,,,,2023-11-20,1,,,,,サターン,0
1830,8010401178633,新規,0,2023-11-20,2023-11-20,株式会社ＴＡＭＡＫＩ,,株式会社,東京都,港区,三田１丁目７番１―２８０７号,,13,103,1080073,,,,,,,2023-11-20,1,,,,,タマキ,0
1833,8010403031385,新規,0,2023-11-20,2023-11-20,合同会社クリームヒルトコンサルティング,,合同会社,東京都,港区,麻布十番１丁目１１－１－１２０２,,13,103,1060045,,,,,,,2023-11-20,1,,,,,クリームヒルトコンサルティング,0
1834,8010403031419,新規,0,2023-11-20,2023-11-20,ＡＶＩ‐ＳＰＬ　Ｊａｐａｎ合同会社,,合同会社,東京都,港区,赤坂１丁目１１番４４号赤坂インターシティ５階ＭａｚａｒｓＪａｐａｎ株式会社内,,13,103,1070052,,,,,,,2023-11-20,1,,,,,エーヴイアイエスピーエルジャパン,0
1835,8010501051392,新規,0,2023-11-20,2023-11-20,Ｍ’ｓコーポレーション株式会社,,株式会社,東京都,台東区,東上野２丁目２－８－４Ｆ,,13,106,1100015,,,,,,,2023-11-20,1,,,,,エムズコーポレーション,0
1848,8011001158323,新規,0,2023-11-20,2023-11-20,株式会社ドラシェア,,株式会社,東京都,渋谷区,千駄ヶ谷５丁目１５番５号,,13,113,1510051,,,,,,,2023-11-20,1,,,,,ドラシェア,0
1849,8011003017948,新規,0,2023-11-20,2023-11-20,Ｔ‐ａｒｒｏｗ合同会社,,合同会社,東京都,渋谷区,円山町２４番地５,,13,113,1500044,,,,,,,2023-11-20,1,,,,,ティーアロー,0
1857,8011301029166,新規,0,2023-11-20,2023-11-20,晨煕株式会社,,株式会社,東京都,杉並区,方南１丁目５２番６ホワイトメゾン杉並１０６,,13,115,1680062,,,,,,,2023-11-20,1,,,,,シンキ,0
1858,8011301029190,新規,0,2023-11-20,2023-11-20,株式会社ＰＬＡＴＩＮＵＭ　ＩＮＴＥＲＡＣＴＩＯＮ,,株式会社,東京都,杉並区,上高井戸１丁目２８番７号ｒｏｃａｓｏ１ａ号,,13,115,1680074,,,,,,,2023-11-20,1,,,,,プラチナインターラクション,0
1859,8011303004968,新規,0,2023-11-20,2023-11-20,合同会社エパノル,,合同会社,東京都,杉並区,荻窪３丁目６番２８号ブルーチャット２０１,,13,115,1670051,,,,,,,2023-11-20,1,,,,,エパノル,0
1865,8011503005849,新規,0,2023-11-20,2023-11-20,ＫＰ合同会社,,合同会社,東京都,北区,中里２丁目６－９地ビル１０２号,,13,117,1140015,,,,,,,2023-11-20,1,,,,,ケーピー,0
1868,8011603004131,新規,0,2023-11-20,2023-11-20,合同会社スマート,,合同会社,東京都,練馬区,立野町１０番１号早川ビル１階,,13,120,1770054,,,,,,,2023-11-20,1,,,,,スマート,0
1870,8011701026787,新規,0,2023-11-20,2023-11-20,株式会社ＭＵＳＩＣ　ＦＵＮＤ,,株式会社,東京都,江戸川区,北小岩２丁目４番３－４０８号,,13,123,1330051,,,,,,,2023-11-20,1,,,,,ミュージックファンド,0
1872,8011801043377,新規,0,2023-11-20,2023-11-20,株式会社ＭＩＲＡＩＥ,,株式会社,東京都,足立区,西新井栄町１丁目４－１１サヤカコーポ１Ｆ,,13,121,1230843,,,,,,,2023-11-20,1,,,,,ミライエ,0
1874,8012301013671,新規,0,2023-11-20,2023-11-20,株式会社アチェロＡＳＫ,,株式会社,東京都,町田市,小山ヶ丘５丁目１８番地８,,13,209,1940215,,,,,,,2023-11-20,1,,,,,アチェロエイエスケイ,0
1878,8013301051645,新規,0,2023-11-20,2023-11-20,株式会社ＳＵＮＮＹ,,株式会社,東京都,豊島区,西池袋５丁目２７番１３号信用マンション１階１０２号室,,13,116,1710021,,,,,,,2023-11-20,1,,,,,サニー,0
1889,8020003025027,新規,0,2023-11-20,2023-11-20,合同会社Ｏｎｅ　Ｓｉｒｉｕｓ,,合同会社,神奈川県,横浜市都筑区,北山田７丁目２番４４－３０９号,,14,118,2240021,,,,,,,2023-11-20,1,,,,,ワンシリウス,0
1890,8020003025035,新規,0,2023-11-20,2023-11-20,Ｅｎｄｌｅｓｓ　Ｖｅｎｔｕｒｅｓ合同会社,,合同会社,神奈川県,横浜市西区,みなとみらい５丁目３番３－１９０８号,,14,103,2200012,,,,,,,2023-11-20,1,,,,,エンドレスベンチャー,0
1911,8030001157192,新規,0,2023-11-20,2023-11-20,株式会社禹誠,,株式会社,埼玉県,鶴ヶ島市,大字鶴ヶ丘３４番地２－１０１号,,11,241,3502204,,,,,,,2023-11-20,1,,,,,ウセイ,0
1912,8030001157218,新規,0,2023-11-20,2023-11-20,株式会社エヌエイランバー,,株式会社,埼玉県,東松山市,若松町１丁目２０６３番４,,11,212,3550037,,,,,,,2023-11-20,1,,,,,エヌエイランバー,0
1913,8030001157234,新規,0,2023-11-20,2023-11-20,株式会社ＭＥＲ,,株式会社,埼玉県,川口市,朝日５丁目３番２３号,,11,203,3320001,,,,,,,2023-11-20,1,,,,,エムイーアール,0
1929,8040003023755,新規,0,2023-11-20,2023-11-20,合同会社アイ・テック,,合同会社,千葉県,木更津市,上望陀５６０番地,,12,206,2920022,,,,,,,2023-11-20,1,,,,,アイテック,0
1930,8040003023763,新規,0,2023-11-20,2023-11-20,合同会社げんちゃんのいちご園,,合同会社,千葉県,八千代市,吉橋１７８４番地,,12,221,2760047,,,,,,,2023-11-20,1,,,,,ゲンチャンノイチゴエン,0
1938,8080401026851,新規,0,2023-11-20,2023-11-20,株式会社ピション,,株式会社,静岡県,浜松市中区,南浅田１丁目２４番２６号,,22,131,4328044,,,,,,,2023-11-20,1,,,,,ピション,0
1941,8090001018406,新規,0,2023-11-20,2023-11-20,株式会社ＣｈｕＰａ,,株式会社,山梨県,甲府市,中央５丁目１－３３,,19,201,4000032,,,,,,,2023-11-20,1,,,,,チュパ,0
1958,8120001259772,新規,0,2023-11-20,2023-11-20,ＨＵＡＬＥ株式会社,,株式会社,大阪府,大阪市阿倍野区,昭和町５丁目１０番２４－２０１号,,27,119,5450011,,,,,,,2023-11-20,1,,,,,ホアルゥ,0
1959,8120001259855,新規,0,2023-11-20,2023-11-20,株式会社エフエムホールディングス,,株式会社,大阪府,守口市,西郷通２丁目１０番９号,,27,209,5700034,,,,,,,2023-11-20,1,,,,,エフエムホールディングス,0
1960,8120001259871,新規,0,2023-11-20,2023-11-20,ＰＲ商事株式会社,,株式会社,大阪府,大阪市中央区,淡路町３丁目６番１２号ローズプラザ４０３号室,,27,128,5410047,,,,,,,2023-11-20,1,,,,,ピーアールショウジ,0
1961,8120001259946,新規,0,2023-11-20,2023-11-20,株式会社おもしろきこともなき世をおもしろく,,株式会社,大阪府,大阪市東住吉区,山坂５丁目２番２２号,,27,121,5460035,,,,,,,2023-11-20,1,,,,,オモシロキコトモナキヨヲオモシロク,0
1962,8120001259970,新規,0,2023-11-20,2023-11-20,ＡＮＸ株式会社,,株式会社,大阪府,大阪市城東区,野江４丁目４番９－７０５号,,27,118,5360006,,,,,,,2023-11-20,1,,,,,エーエヌエックス,0
1963,8120001259987,新規,0,2023-11-20,2023-11-20,佰諾株式会社,,株式会社,大阪府,大阪市平野区,加美正覚寺１丁目５－３ショウエイハウス２Ｂ,,27,126,5470006,,,,,,,2023-11-20,1,,,,,ハクダク,0
1964,8120001259995,新規,0,2023-11-20,2023-11-20,中康株式会社,,株式会社,大阪府,大阪市中央区,谷町７丁目１番３９－３０１Ｅ,,27,128,5420012,,,,,,,2023-11-20,1,,,,,チュウコウ,0
1965,8120001260012,新規,0,2023-11-20,2023-11-20,ＯＫＡＤＡ＆ＳＯＮＳ株式会社,,株式会社,大阪府,大阪市阿倍野区,阪南町１丁目２７番１７号,,27,119,5450021,,,,,,,2023-11-20,1,,,,,オカダアンドサンズ,0
1966,8120001260045,新規,0,2023-11-20,2023-11-20,株式会社ＨＯＫＵＥＩ不動産,,株式会社,大阪府,大阪市東住吉区,針中野３丁目１番３０号２階,,27,121,5460011,,,,,,,2023-11-20,1,,,,,ホクエイフドウサン,0
1968,8120003025355,新規,0,2023-11-20,2023-11-20,合同会社森,,合同会社,大阪府,大阪市生野区,鶴橋２丁目１５番３７号,,27,116,5440031,,,,,,,2023-11-20,1,,,,,モリ,0
1969,8120003025371,新規,0,2023-11-20,2023-11-20,ＢＥ　ＳＴＲＯＮＧ合同会社,,合同会社,大阪府,大阪市西淀川区,姫島２丁目１４番１１号サニーグローブ２０２号室,,27,113,5550033,,,,,,,2023-11-20,1,,,,,ビーストロング,0
1970,8120101068545,新規,0,2023-11-20,2023-11-20,内畑ビルマネジメント株式会社,,株式会社,大阪府,岸和田市,内畑町１０９６番地,,27,202,5960105,,,,,,,2023-11-20,1,,,,,ウチハタビルマネジメント,0
1973,8120901048382,新規,0,2023-11-20,2023-11-20,株式会社ＲＯＣＣＡ,,株式会社,大阪府,高槻市,芥川町１丁目１５番１５号,,27,207,5691123,,,,,,,2023-11-20,1,,,,,ロッカ,0
1974,8120903004904,新規,0,2023-11-20,2023-11-20,銀河合同会社,,合同会社,大阪府,茨木市,南春日丘１丁目２０番Ｊ－１０５号,,27,211,5670046,,,,,,,2023-11-20,1,,,,,ギンガ,0
1975,8122001037588,新規,0,2023-11-20,2023-11-20,株式会社ピースフル,,株式会社,大阪府,東大阪市,若江東町２丁目７番３－１５０７号,,27,227,5780935,,,,,,,2023-11-20,1,,,,,ピースフル,0
1977,8130003009142,新規,0,2023-11-20,2023-11-20,Ｈ＆Ｓ合同会社,,合同会社,京都府,京都市伏見区,久米町６４３－５,,26,109,6128342,,,,,,,2023-11-20,1,,,,,エイチアンドエス,0
1978,8130003009150,新規,0,2023-11-20,2023-11-20,合同会社Ｌａｕｇｈｎｅｃｔ,,合同会社,京都府,城陽市,中中ノ郷８－１,,26,207,6100113,,,,,,,2023-11-20,1,,,,,ラフネクト,0
1986,8140001132432,新規,0,2023-11-20,2023-11-20,株式会社ティナ,,株式会社,兵庫県,姫路市,飾磨区三宅２丁目５４番地ハイツマエダＩＩ４０１,00132727,28,201,6728048,,,,,,,2023-11-20,1,,,,,ティナ,0
1999,8180001158894,新規,0,2023-11-20,2023-11-20,株式会社夜桜,,株式会社,愛知県,日進市,藤塚６丁目２３４番地,,23,230,4700117,,,,,,,2023-11-20,1,,,,,ヨザクラ,0
2000,8180001159001,新規,0,2023-11-20,2023-11-20,株式会社ｔｏ　ｆａｍｉｌｙ,,株式会社,愛知県,名古屋市中区,丸の内２丁目６番２１号アクセス丸の内９階,,23,106,4600002,,,,,,,2023-11-20,1,,,,,トゥファミリー,0
2001,8180001159026,新規,0,2023-11-20,2023-11-20,株式会社ＦＩ　ＲＥＡＬ　ＥＳＴＡＴＥ,,株式会社,愛知県,名古屋市中区,栄４丁目８番３３号セレクトビル４Ｄ,,23,106,4600008,,,,,,,2023-11-20,1,,,,,エフアイリアルエステート,0
2009,8180303005910,新規,0,2023-11-20,2023-11-20,Ａ＆Ｋプランニング合同会社,,合同会社,愛知県,岡崎市,明大寺町字河原３１番地,,23,202,4440864,,,,,,,2023-11-20,1,,,,,エーアンドケープランニング,0
2011,8200001041908,新規,0,2023-11-20,2023-11-20,株式会社ＶＩＳＩＯＮ’Ｓ,,株式会社,岐阜県,岐阜市,若宮町５丁目２３番地３,,21,201,5008828,,,,,,,2023-11-20,1,,,,,ヴィジョンズ,0
2018,8250001020403,新規,0,2023-11-20,2023-11-20,株式会社Ｇｒｅｅｎ　Ｃｏｒｐｏｒａｔｅ,,株式会社,山口県,山口市,嘉川１９０３番地１,,35,203,7540897,,,,,,,2023-11-20,1,,,,,グリーンコーポレート,0
2022,8260003004502,新規,0,2023-11-20,2023-11-20,アプリシエイト合同会社,,合同会社,岡山県,岡山市中区,東川原１６１番地１,,33,102,7038255,,,,,,,2023-11-20,1,,,,,アプリシエイト,0
2031,8290001103600,新規,0,2023-11-20,2023-11-20,株式会社Ｓｈｉｒｏｆｕｎｅ　Ｐｌｕｓ,,株式会社,福岡県,福岡市中央区,天神２丁目３番１０号天神パインクレスト７１９号,,40,133,8100001,,,,,,,2023-11-20,1,,,,,シロフネプラス,0
2035,8290003014622,新規,0,2023-11-20,2023-11-20,合同会社ＣＯＣＯＩＲＯ,,合同会社,福岡県,大野城市,中３丁目１番４０号,,40,219,8160906,,,,,,,2023-11-20,1,,,,,ココイロ,0
2036,8290801030052,新規,0,2023-11-20,2023-11-20,株式会社ちたる産業,,株式会社,福岡県,遠賀郡岡垣町,大字高倉９８７番地６,,40,383,8114234,,,,,,,2023-11-20,1,,,,,チタルサンギョウ,0
2038,8300003002047,新規,0,2023-11-20,2023-11-20,合同会社フロンティエル,,合同会社,佐賀県,佐賀市,兵庫南２丁目３番２７号,,41,201,8490918,,,,,,,2023-11-20,1,,,,,フロンティエル,0
2042,8320003004231,新規,0,2023-11-20,2023-11-20,兎山観光合同会社,,合同会社,大分県,玖珠郡玖珠町,大字森１０５９番地,,44,462,8794404,,,,,,,2023-11-20,1,,,,,ウサギヤマカンコウ,0
2043,8330001031474,新規,0,2023-11-20,2023-11-20,ワイズクリエイト株式会社,,株式会社,熊本県,上益城郡益城町,大字島田１２４０番地２,,43,443,8612224,,,,,,,2023-11-20,1,,,,,ワイズクリエイト,0
2048,8350001018668,新規,0,2023-11-20,2023-11-20,株式会社ＰＡ　ＹＡＳＵＮＡＫＡ,,株式会社,宮崎県,児湯郡新富町,大字新田３６９３番地１,,45,402,8891406,,,,,,,2023-11-20,1,,,,,ピーエイヤスナカ,0
2058,8380001034142,新規,0,2023-11-20,2023-11-20,株式会社Ｂｉｇ　Ｔｒｅｅ　Ｅｎｅｒｇｙ　Ｂａｎｋ,,株式会社,福島県,岩瀬郡天栄村,大字大里字西小屋５１番地,,07,344,9620504,,,,,,,2023-11-20,1,,,,,ビッグツリーエネジーバンク,0
2062,8400003003175,新規,0,2023-11-20,2023-11-20,合同会社ハーモニー,,合同会社,岩手県,一関市,滝沢字草刈場３８番地５６,,03,209,0290132,,,,,,,2023-11-20,1,,,,,ハーモニー,0
2067,8430001090469,新規,0,2023-11-20,2023-11-20,株式会社Ｖａｌｅ,,株式会社,北海道,札幌市北区,新琴似七条１丁目１番１７号,,01,102,0010907,,,,,,,2023-11-20,1,,,,,ベイル,0
2071,8450001014145,新規,0,2023-11-20,2023-11-20,株式会社ＰＥＡＫ　ＴＡＫＥ,,株式会社,北海道,旭川市,四条通８丁目１７０３－９,,01,204,0700034,,,,,,,2023-11-20,1,,,,,,0
2073,8460301005181,新規,0,2023-11-20,2023-11-20,株式会社永田水産ＷＳ,,株式会社,北海道,北見市,常呂町字栄浦２３３番地３,,01,208,0930216,,,,,,,2023-11-20,1,,,,,ナガタスイサンダブリューエス,0
2080,8700150121591,新規,0,2023-11-20,2023-10-31,るべしべ白花豆くらぶ,,その他,北海道,北見市,留辺蘂町昭栄２０６－２,,01,208,0910151,,,,,,,2023-10-31,1,,,,,ルベシベシロハナマメクラブ,0
2096,9010003042245,新規,0,2023-11-20,2023-11-20,ＰＯＷＥＲＳ合同会社,,合同会社,東京都,中央区,銀座１丁目１２番４号Ｎ＆ＥＢＬＤ．７階,,13,102,1040061,,,,,,,2023-11-20,1,,,,,パワーズ,0
2101,9010103002256,新規,0,2023-11-20,2023-11-20,円心合同会社,,合同会社,東京都,八王子市,石川町１７１６－５,,13,201,1920032,,,,,,,2023-11-20,1,,,,,エンシン,0
2110,9010401178624,新規,0,2023-11-20,2023-11-20,株式会社Ｅｔｏｉｌｅ,,株式会社,東京都,港区,六本木３丁目２番２号,,13,103,1060032,,,,,,,2023-11-20,1,,,,,,0
2114,9010405022720,新規,0,2023-11-20,2023-11-20,ＧＳＳＧ　Ｓｏｌａｒ　Ｊａｐａｎ　Ｈｏｌｄｉｎｇｓ１３一般社団法人,,その他の設立登記法人,東京都,港区,赤坂１丁目１１番４４号赤坂インターシティ５階Ｍａｚａｒｓ・Ｊａｐａｎ株式会社内,,13,103,1070052,,,,,,,2023-11-20,1,,,,,ジーエスエスジーソーラージャパンホールディングスサーティーン,0
2120,9010903008601,新規,0,2023-11-20,2023-11-20,合同会社ＮＡＭＩＨＥＩ,,合同会社,東京都,世田谷区,太子堂３丁目１４－３,,13,112,1540004,,,,,,,2023-11-20,1,,,,,ナミヘイ,0
2122,9011001158306,新規,0,2023-11-20,2023-11-20,株式会社ＡＮＮＡ　ＭＡＲＩＡ,,株式会社,東京都,渋谷区,上原３丁目２８番１号Ｂ２０２,,13,113,1510064,,,,,,,2023-11-20,1,,,,,アンナマリア,0
2124,9011101105166,新規,0,2023-11-20,2023-11-20,ゴールデンファウンダーズ株式会社,,株式会社,東京都,新宿区,歌舞伎町１丁目５番９号新宿ＮＯＡビル,,13,104,1600021,,,,,,,2023-11-20,1,,,,,ゴールデンファウンダーズ,0
2126,9011103013755,新規,0,2023-11-20,2023-11-20,合同会社結美,,合同会社,東京都,新宿区,四谷２丁目８番,,13,104,1600004,,,,,,,2023-11-20,1,,,,,ユウミ,0
2130,9011301029198,新規,0,2023-11-20,2023-11-20,武蔵野パートナーズ株式会社,,株式会社,東京都,杉並区,荻窪４丁目１６番１４号,,13,115,1670051,,,,,,,2023-11-20,1,,,,,ムサシノパートナーズ,0
2134,9011501030014,新規,0,2023-11-20,2023-11-20,安浦商事株式会社,,株式会社,東京都,荒川区,東尾久２丁目２番９号三祥ビル２４７,,13,118,1160012,,,,,,,2023-11-20,1,,,,,ヤスウラショウジ,0
2135,9011501030022,新規,0,2023-11-20,2023-11-20,ワイジーコンピュータシステム株式会社,,株式会社,東京都,北区,中里２丁目２８番４号,,13,117,1140015,,,,,,,2023-11-20,1,,,,,ワイジーコンピュータシステム,0
2142,9011701026786,新規,0,2023-11-20,2023-11-20,株式会社Ｂｒｉｌｌｅｒ　ｄｅ　ｒｅｖｅ,,株式会社,東京都,江戸川区,篠崎町７丁目２３番１５－１２０２号,,13,123,1330061,,,,,,,2023-11-20,1,,,,,ブリエドレーヴ,0
2144,9011801043368,新規,0,2023-11-20,2023-11-20,与佳在株式会社,,株式会社,東京都,葛飾区,堀切３丁目９番１４号,,13,122,1240006,,,,,,,2023-11-20,1,,,,,,0
2146,9011803005928,新規,0,2023-11-20,2023-11-20,合同会社ＣｏｎｎｅｃＴｒｉ,,合同会社,東京都,足立区,舎人１丁目２５番１４号,,13,121,1210831,,,,,,,2023-11-20,1,,,,,コネクトリ,0
2150,9012701017957,新規,0,2023-11-20,2023-11-20,株式会社ＲＥＶＩＶＡＬ,,株式会社,東京都,西東京市,北原町２丁目６番地２号小谷戸フラワーハイムＩＩ１０２,00132716,13,229,1880003,,,,,,,2023-11-20,1,,,,,リヴァイバル,0
2152,9012703002858,新規,0,2023-11-20,2023-11-20,合同会社ＥＳＧアカデミア,,合同会社,東京都,東村山市,萩山町３丁目３１番地５６－１１４号,,13,213,1890012,,,,,,,2023-11-20,1,,,,,イーエスジーアカデミア,0
2157,9013301051644,新規,0,2023-11-20,2023-11-20,Ｚｕグローバル株式会社,,株式会社,東京都,豊島区,東池袋３丁目２１番２１－１６１１号,,13,116,1700013,,,,,,,2023-11-20,1,,,,,ズーグローバル,0
2158,9013301051652,新規,0,2023-11-20,2023-11-20,株式会社薬草の泉,,株式会社,東京都,豊島区,南池袋３丁目８番３－６０１号,,13,116,1710022,,,,,,,2023-11-20,1,,,,,ヤクソウノイズミ,0
2162,9020001154520,新規,0,2023-11-20,2023-11-20,Ｓ２株式会社,,株式会社,神奈川県,横浜市港北区,綱島東３丁目１０番１２－６号,,14,109,2230052,,,,,,,2023-11-20,1,,,,,エスツー,0
2163,9020001154529,新規,0,2023-11-20,2023-11-20,株式会社ＦＭ大師,,株式会社,神奈川県,川崎市川崎区,大師町１６番１８号,,14,131,2100816,,,,,,,2023-11-20,1,,,,,エフエムダイシ,0
2164,9020001154553,新規,0,2023-11-20,2023-11-20,株式会社ネクストホーム,,株式会社,神奈川県,川崎市川崎区,境町１１番２０号シャトー小林２０２号室,,14,131,2100838,,,,,,,2023-11-20,1,,,,,ネクストホーム,0
2169,9020003025018,新規,0,2023-11-20,2023-11-20,ＹＡＳ合同会社,,合同会社,神奈川県,横浜市港北区,新吉田東５丁目３０番８号,,14,109,2230058,,,,,,,2023-11-20,1,,,,,ワイエーエス,0
2170,9020003025026,新規,0,2023-11-20,2023-11-20,合同会社ロロネ,,合同会社,神奈川県,川崎市中原区,上平間２０８６番地１クリオヒラマファースト４０４,,14,133,2110013,,,,,,,2023-11-20,1,,,,,ロロネ,0
2171,9020005016188,新規,0,2023-11-20,2023-11-20,一般社団法人横浜国際文教学苑,,その他の設立登記法人,神奈川県,横浜市中区,石川町１丁目２９,,14,104,2310868,,,,,,,2023-11-20,1,,,,,ヨコハマコクサイブンキョウガクエン,0
2173,9021001080780,新規,0,2023-11-20,2023-11-20,株式会社ｆｉｎｅ,,株式会社,神奈川県,大和市,上草柳８丁目９番６号,,14,213,2420029,,,,,,,2023-11-20,1,,,,,ファイン,0
2183,9030001157183,新規,0,2023-11-20,2023-11-20,埼玉準備株式会社,,株式会社,埼玉県,さいたま市中央区,円阿弥３丁目３番２０号,,11,105,3380007,,,,,,,2023-11-20,1,,,,,サイタマジュンビ,0
2184,9030001157200,新規,0,2023-11-20,2023-11-20,株式会社Ｋ・Ｋ　ＣＡＲ　ＰＯＩＮＴ,,株式会社,埼玉県,さいたま市岩槻区,大字大谷７００番地１,,11,110,3390015,,,,,,,2023-11-20,1,,,,,ケイケイカーポイント,0
2185,9030001157217,新規,0,2023-11-20,2023-11-20,ＫＦ　ＴＲＡＤＩＮＧ株式会社,,株式会社,埼玉県,羽生市,東７丁目１０番地１コーポ千尋１０２号室,,11,216,3480052,,,,,,,2023-11-20,1,,,,,ケーエフトレーディング,0
2186,9030001157225,新規,0,2023-11-20,2023-11-20,トーラス株式会社,,株式会社,埼玉県,川口市,大字東本郷１７９４番地の８,,11,203,3340063,,,,,,,2023-11-20,1,,,,,トーラス,0
2187,9030001157233,新規,0,2023-11-20,2023-11-20,株式会社アンドエー,,株式会社,埼玉県,鴻巣市,宮前４５５番地,,11,217,3650051,,,,,,,2023-11-20,1,,,,,アンドエー,0
2192,9040001130998,新規,0,2023-11-20,2023-11-20,株式会社明実,,株式会社,千葉県,君津市,坂田２６０番地１レイクヒルズ３７３Ｂ－２,,12,225,2991142,,,,,,,2023-11-20,1,,,,,メイジツ,0
2198,9050001053843,新規,0,2023-11-20,2023-11-20,株式会社境関養豚,,株式会社,茨城県,猿島郡境町,大字猿山２１番地,,08,546,3060402,,,,,,,2023-11-20,1,,,,,サカイセキヨウトン,0
2199,9050001053851,新規,0,2023-11-20,2023-11-20,株式会社坂東商事,,株式会社,茨城県,坂東市,みむら５８８番地１,,08,228,3060655,,,,,,,2023-11-20,1,,,,,バンドウショウジ,0
2200,9050003007954,新規,0,2023-11-20,2023-11-20,ホワイトクローバー合同会社,,合同会社,茨城県,古河市,下片田８４０番地１０,,08,204,3060127,,,,,,,2023-11-20,1,,,,,ホワイトクローバー,0
2206,9080403004912,新規,0,2023-11-20,2023-11-20,合同会社ｎｄｓ,,合同会社,静岡県,浜松市南区,若林町２２５０番地の１ロン・モンターニュ２－１０５号室,,22,134,4328051,,,,,,,2023-11-20,1,,,,,エヌディーエス,0
2208,9090003002431,新規,0,2023-11-20,2023-11-20,合同会社和,,合同会社,山梨県,甲斐市,西八幡１１９６番地,,19,210,4000117,,,,,,,2023-11-20,1,,,,,ナゴミ,0
2212,9100001036982,新規,0,2023-11-20,2023-11-20,株式会社琉心,,株式会社,長野県,上伊那郡辰野町,中央２０１－１－２０２,,20,382,3990427,,,,,,,2023-11-20,1,,,,,リュウシン,0
2230,9120001259862,新規,0,2023-11-20,2023-11-20,株式会社ノーレム,,株式会社,大阪府,大阪市平野区,長吉出戸３丁目２番２号,,27,126,5470011,,,,,,,2023-11-20,1,,,,,ノーレム,0
2231,9120001259879,新規,0,2023-11-20,2023-11-20,信濃川株式会社,,株式会社,大阪府,大阪市北区,梅田１丁目１２番１２号東京建物梅田ビル１２階,,27,127,5300001,,,,,,,2023-11-20,1,,,,,シナノガワ,0
2232,9120001259904,新規,0,2023-11-20,2023-11-20,異次元株式会社,,株式会社,大阪府,大阪市中央区,船越町１丁目５－８－４１６号,,27,128,5400036,,,,,,,2023-11-20,1,,,,,イジゲン,0
2233,9120001259929,新規,0,2023-11-20,2023-11-20,株式会社インサイトコンサルティング,,株式会社,大阪府,寝屋川市,田井町２４番２７号,,27,215,5720021,,,,,,,2023-11-20,1,,,,,インサイトコンサルティング,0
2234,9120001259945,新規,0,2023-11-20,2023-11-20,株式会社徳田重量,,株式会社,大阪府,寝屋川市,小路北町１３番１１号,,27,215,5720865,,,,,,,2023-11-20,1,,,,,トクダジュウリョウ,0
2235,9120001259994,新規,0,2023-11-20,2023-11-20,日田潤禾株式会社,,株式会社,大阪府,大阪市住吉区,長居２丁目１０番３－１０２号,,27,120,5580003,,,,,,,2023-11-20,1,,,,,ヒタジュンノギ,0
2236,9120001260011,新規,0,2023-11-20,2023-11-20,Ｉｎｎｏｖａｔｉｏｎ株式会社,,株式会社,大阪府,大阪市東成区,神路４丁目３－１０スター・レジデンス新深江５０１号室,,27,115,5370003,,,,,,,2023-11-20,1,,,,,イノベーション,0
2239,9120003025370,新規,0,2023-11-20,2023-11-20,合同会社イフワ,,合同会社,大阪府,大阪市大正区,三軒家西２丁目２０番６号ＡＺハイツ,,27,108,5510001,,,,,,,2023-11-20,1,,,,,イフワ,0
2244,9120101068544,新規,0,2023-11-20,2023-11-20,株式会社ＫＮＳＲ,,株式会社,大阪府,和泉市,のぞみ野３丁目１－３２,,27,219,5941105,,,,,,,2023-11-20,1,,,,,ケーエヌエスアール,0
2245,9120101068560,新規,0,2023-11-20,2023-11-20,株式会社ＴＤ,,株式会社,大阪府,南河内郡太子町,大字太子２１７０－９９,,27,381,5830995,,,,,,,2023-11-20,1,,,,,ティーディー,0
2250,9120901048381,新規,0,2023-11-20,2023-11-20,株式会社インジェクターイー,,株式会社,大阪府,高槻市,芥川町１丁目１５番１５号,,27,207,5691123,,,,,,,2023-11-20,1,,,,,インジェクターイー,0
2254,9120905006534,新規,0,2023-11-20,2023-11-20,一般社団法人ＴＡＦピュシス,,その他の設立登記法人,大阪府,豊能郡豊能町,東ときわ台２丁目２０番地の６,,27,321,5630103,,,,,,,2023-11-20,1,,,,,ティーエーエフピュシス,0
2256,9122001037587,新規,0,2023-11-20,2023-11-20,タイホウ建設株式会社,,株式会社,大阪府,大東市,緑が丘１丁目１３番３－１０１号,,27,218,5740073,,,,,,,2023-11-20,1,,,,,タイホウケンセツ,0
2263,9130003009141,新規,0,2023-11-20,2023-11-20,合同会社りりべる,,合同会社,京都府,京都市下京区,中堂寺粟田町９３,,26,106,6008815,,,,,,,2023-11-20,1,,,,,リリベル,0
2291,9180001158992,新規,0,2023-11-20,2023-11-20,株式会社リカフル,,株式会社,愛知県,名古屋市守山区,大谷町１番４９号,,23,113,4630041,,,,,,,2023-11-20,1,,,,,リカフル,0
2292,9180001159009,新規,0,2023-11-20,2023-11-20,株式会社ＨＥＬＬＯ　ＷＡＴＥＲ,,株式会社,愛知県,名古屋市中川区,吉津２丁目６１３番地の４,,23,110,4540981,,,,,,,2023-11-20,1,,,,,ハローウォーター,0
2298,9180003026017,新規,0,2023-11-20,2023-11-20,合同会社丸岩天祥,00132712,合同会社,愛知県,稲沢市,駅前２丁目９番７－１０３号,,23,220,4928143,,,,,,,2023-11-20,1,,,,,テンショウ,0
2303,9180301038044,新規,0,2023-11-20,2023-11-20,株式会社ＫＴメディカルサポート,,株式会社,愛知県,みよし市,西一色町東２５番地,,23,236,4700226,,,,,,,2023-11-20,1,,,,,ケーティーメディカルサポート,0
2307,9190003004509,新規,0,2023-11-20,2023-11-20,Ｂｒａｎｄ　Ｎｅｗ　Ｐｉｘｉｅ合同会社,,合同会社,三重県,桑名市,常盤町２１番地,,24,205,5110062,,,,,,,2023-11-20,1,,,,,ブランニューピクシー,0
2309,9210005010122,新規,0,2023-11-20,2023-11-20,一般社団法人ＦＯＯＤ　ＣＯＭＭＯＮＳ,,その他の設立登記法人,福井県,福井市,西開発４丁目５０１番地,,18,201,9100843,,,,,,,2023-11-20,1,,,,,フードコモンズ,0
2314,9230001020115,新規,0,2023-11-20,2023-11-20,株式会社ＲＷＪＡＰＡＮ,,株式会社,富山県,高岡市,本丸町１３番１９号東洋ビル３０１号,,16,202,9330045,,,,,,,2023-11-20,1,,,,,アールダブリュウジャパン,0
2326,9290001103780,新規,0,2023-11-20,2023-11-20,ＮＥＵＥ　ＨＵＴＴＥ株式会社,,株式会社,福岡県,福岡市中央区,六本松３丁目１６番４１号,,40,133,8100044,,,,,,,2023-11-20,1,,,,,ノイエヒュッテ,0
2336,9290003014621,新規,0,2023-11-20,2023-11-20,合同会社ＨＳＴ,,合同会社,福岡県,福津市,福間南１丁目２７番１７号,,40,224,8113212,,,,,,,2023-11-20,1,,,,,エイチエスティー,0
2341,9340001026084,新規,0,2023-11-20,2023-11-20,ブレイブ株式会社,,株式会社,鹿児島県,薩摩川内市,鳥追町１番１０－１号,,46,215,8950024,,,,,,,2023-11-20,1,,,,,ブレイブ,0
2344,9360001032840,新規,0,2023-11-20,2023-11-20,株式会社ＮＥＯ　ＪＡＰＡＮ,,株式会社,沖縄県,那覇市,若狭２丁目１１番２１号－１Ｆ,,47,201,9000031,,,,,,,2023-11-20,1,,,,,ネオジャパン,0
2345,9360003013500,新規,0,2023-11-20,2023-11-20,ラピ・プロダクツ合同会社,,合同会社,沖縄県,那覇市,樋川１丁目１番５４号,,47,201,9000022,,,,,,,2023-11-20,1,,,,,ラピプロダクツ,0
2346,9370001050643,新規,0,2023-11-20,2023-11-20,株式会社クラサポート,,株式会社,宮城県,仙台市青葉区,一番町１丁目４番３０号さのやビルディング７Ｆ,,04,101,9800811,,,,,,,2023-11-20,1,,,,,クラサポート,0
2349,9370003006387,新規,0,2023-11-20,2023-11-20,合同会社ｔｋ　ｖｉｆ,,合同会社,宮城県,仙台市若林区,霞目２丁目１７番１０号,,04,103,9840035,,,,,,,2023-11-20,1,,,,,ティーケーヴィフ,0
2363,9480001012293,新規,0,2023-11-20,2023-11-20,株式会社ＬＩＭＩＴＬＥＳＳ,,株式会社,徳島県,徳島市,助任本町４丁目３２番地６－１Ｆ,,36,201,7700816,,,,,,,2023-11-20,1,,,,,リミットレス,0
2365,9700150121533,新規,0,2023-11-20,2023-10-30,伊万里ハーフマラソン実行委員会,,その他,佐賀県,伊万里市,立花町１３５５－１伊万里市役所　教育委員会　スポーツ課内,,41,205,8480027,,,,,,,2023-10-30,1,,,,,イマリハーフマラソンジツコウイインカイ,0
