sequenceNumber,corporateNumber,process,correct,updateDate,changeDate,name,nameImageId,kind,prefectureName,cityName,streetNumber,addressImageId,prefectureCode,cityCode,postCode,addressOutside,addressOutsideImageId,closeDate,closeCause,successorCorporateNumber,changeCause,assignmentDate,latest,enName,enPrefectureName,enCityName,enAddressOutside,furigana,hihyoji
20,1010403021392,登記記録の閉鎖等,0,2024-01-29,2024-01-12,合同会社Ｇｏｌｄｅｎ,,合同会社,東京都,港区,虎ノ門５丁目１番４号,,13,103,1050001,,,2024-01-12,清算の結了等,,,2019-09-05,1,,,,,ゴールデン,0
23,1010403029122,登記記録の閉鎖等,0,2024-01-29,2024-01-18,ＳＡＫＩＹＡ合同会社,,合同会社,東京都,港区,南青山２丁目２番１５号,,13,103,1070062,,,2024-01-18,清算の結了等,,,2022-12-09,1,,,,,サキヤ,0
36,1010702008512,登記記録の閉鎖等,0,2024-01-29,2024-01-23,有限会社山神電子,,有限会社,東京都,品川区,豊町２丁目１８番４号,,13,109,1420042,,,2024-01-23,清算の結了等,,,2015-10-05,1,,,,,ヤマガミデンシ,0
37,1010901006333,登記記録の閉鎖等,0,2024-01-29,2024-01-24,清正堂加藤株式会社,,株式会社,東京都,世田谷区,大原１丁目５９番２１号,,13,112,1560041,,,2024-01-24,清算の結了等,,,2015-10-05,1,,,,,セイショウドウカトウ,0
43,1011001024176,登記記録の閉鎖等,0,2024-01-29,2024-01-22,米沢電機株式会社,,株式会社,東京都,渋谷区,富ヶ谷２丁目１５番８号,,13,113,1510063,,,2024-01-22,清算の結了等,,,2015-10-05,1,,,,,ヨネサワデンキ,0
91,1021002014126,登記記録の閉鎖等,0,2024-01-29,2024-01-24,有限会社エフエムシー,,有限会社,神奈川県,鎌倉市,佐助２丁目１６番１１号,,14,204,2480017,,,2024-01-24,清算の結了等,,,2015-10-05,1,,,,,エフエムシー,0
93,1030001008625,登記記録の閉鎖等,0,2024-01-29,2024-01-29,株式会社優貴,,株式会社,埼玉県,さいたま市浦和区,皇山町２７番１７号,,11,107,3300045,,,2024-01-29,登記官による閉鎖,,,2015-10-05,1,,,,,,0
94,1030001016982,登記記録の閉鎖等,0,2024-01-29,2024-01-29,株式会社シーアールイーコンサルティング,,株式会社,埼玉県,さいたま市浦和区,東仲町３－１４－１０４号,,11,107,3300056,,,2024-01-29,登記官による閉鎖,,,2015-10-05,1,,,,,,0
95,1030001026767,登記記録の閉鎖等,0,2024-01-29,2024-01-29,株式会社イースト光学,,株式会社,埼玉県,入間市,大字新久６１６番地１３,,11,225,3580031,,,2024-01-29,登記官による閉鎖,,,2015-10-05,1,,,,,,0
96,1030001027476,登記記録の閉鎖等,0,2024-01-29,2024-01-29,株式会社桃伸,,株式会社,埼玉県,狭山市,大字水野１０９１番地３１,,11,215,3501317,,,2024-01-29,登記官による閉鎖,,,2015-10-05,1,,,,,,0
97,1030001034373,登記記録の閉鎖等,0,2024-01-29,2024-01-29,トライネット株式会社,,株式会社,埼玉県,さいたま市北区,本郷町４４８番地１０５,,11,102,3310802,,,2024-01-29,登記官による閉鎖,,,2015-10-05,1,,,,,,0
98,1030001052482,登記記録の閉鎖等,0,2024-01-29,2024-01-29,株式会社ライフ２１,,株式会社,埼玉県,春日部市,中央１丁目４６番地１１,,11,214,3440067,,,2024-01-29,登記官による閉鎖,,,2015-10-05,1,,,,,,0
99,1030001055502,登記記録の閉鎖等,0,2024-01-29,2024-01-29,富士ユニホーム株式会社,,株式会社,埼玉県,川越市,南台２丁目１番地４１,,11,201,3501165,,,2024-01-29,登記官による閉鎖,,,2015-10-05,1,,,,,,0
100,1030001055683,登記記録の閉鎖等,0,2024-01-29,2024-01-29,武蔵野光学工業株式会社,,株式会社,埼玉県,川越市,中台１丁目２番地２,,11,201,3501159,,,2024-01-29,登記官による閉鎖,,,2015-10-05,1,,,,,,0
101,1030001060007,登記記録の閉鎖等,0,2024-01-29,2024-01-29,株式会社アイ・プラス,,株式会社,埼玉県,坂戸市,東坂戸１丁目６番８０４号,,11,239,3500205,,,2024-01-29,登記官による閉鎖,,,2015-10-05,1,,,,,,0
102,1030001063505,登記記録の閉鎖等,0,2024-01-29,2024-01-29,株式会社芦田屋商店,00015095,株式会社,埼玉県,越谷市,越ヶ谷２丁目５番４号,,11,222,3430813,,,2024-01-29,登記官による閉鎖,,,2015-10-05,1,,,,,,0
103,1030001067101,登記記録の閉鎖等,0,2024-01-29,2024-01-29,株式会社アクセス,,株式会社,埼玉県,越谷市,大字袋山１５１３番地１サミーコート越谷５０７,,11,222,3430032,,,2024-01-29,登記官による閉鎖,,,2015-10-05,1,,,,,,0
104,1030001072118,登記記録の閉鎖等,0,2024-01-29,2024-01-29,株式会社フーズリンク,,株式会社,埼玉県,東松山市,大字新郷２８３番地５,,11,212,3550071,,,2024-01-29,登記官による閉鎖,,,2015-10-05,1,,,,,,0
106,1030001074989,登記記録の閉鎖等,0,2024-01-29,2024-01-29,埼京菱光コンクリート工業株式会社,,株式会社,埼玉県,川口市,本蓮４丁目５番３号,00015300,11,203,3340076,,,2024-01-29,登記官による閉鎖,,,2015-10-05,1,,,,,,0
107,1030001083528,登記記録の閉鎖等,0,2024-01-29,2024-01-29,株式会社グリーンドア,,株式会社,埼玉県,川口市,本町３丁目６番１３号,,11,203,3320012,,,2024-01-29,登記官による閉鎖,,,2015-10-05,1,,,,,,0
108,1030001085318,登記記録の閉鎖等,0,2024-01-29,2024-01-29,株式会社友和,,株式会社,埼玉県,熊谷市,弥生２丁目４番地２,,11,202,3600044,,,2024-01-29,登記官による閉鎖,,,2015-10-05,1,,,,,,0
109,1030001086687,登記記録の閉鎖等,0,2024-01-29,2024-01-29,株式会社ウィンズ,,株式会社,埼玉県,行田市,向町２９番３０号,,11,206,3610075,,,2024-01-29,登記官による閉鎖,,,2015-10-05,1,,,,,,0
110,1030001088139,登記記録の閉鎖等,0,2024-01-29,2024-01-29,株式会社スペース・コンポーザ・コバヤシ,,株式会社,埼玉県,熊谷市,籠原南３丁目２１３番地,,11,202,3600847,,,2024-01-29,登記官による閉鎖,,,2015-10-05,1,,,,,,0
111,1030001096686,登記記録の閉鎖等,0,2024-01-29,2024-01-29,浜口真銀株式会社,,株式会社,埼玉県,入間市,東藤沢１丁目６番２５号,,11,225,3580012,,,2024-01-29,登記官による閉鎖,,,2015-10-05,1,,,,,,0
119,1030002001546,登記記録の閉鎖等,0,2024-01-29,2024-01-29,有限会社井原商店,,有限会社,埼玉県,さいたま市北区,日進町１丁目１９７番地,,11,102,3310823,,,2024-01-29,登記官による閉鎖,,,2015-10-05,1,,,,,,0
120,1030002006826,登記記録の閉鎖等,0,2024-01-29,2024-01-29,有限会社ジェイプランニング,,有限会社,埼玉県,さいたま市見沼区,春野１丁目６番４－１０３号,,11,104,3370002,,,2024-01-29,登記官による閉鎖,,,2015-10-05,1,,,,,,0
121,1030002007378,登記記録の閉鎖等,0,2024-01-29,2024-01-29,有限会社住司,,有限会社,埼玉県,さいたま市浦和区,元町２丁目２番８号,,11,107,3300073,,,2024-01-29,登記官による閉鎖,,,2015-10-05,1,,,,,,0
122,1030002009028,登記記録の閉鎖等,0,2024-01-29,2024-01-29,有限会社辻村商事,00016082,有限会社,埼玉県,さいたま市中央区,下落合５丁目１５番９号,,11,105,3380002,,,2024-01-29,登記官による閉鎖,,,2015-10-05,1,,,,,,0
123,1030002010357,登記記録の閉鎖等,0,2024-01-29,2024-01-29,有限会社日伯毎日新聞社,,有限会社,埼玉県,さいたま市南区,大字太田窪２０２６番地８,,11,108,3360015,,,2024-01-29,登記官による閉鎖,,,2015-10-05,1,,,,,,0
124,1030002012279,登記記録の閉鎖等,0,2024-01-29,2024-01-29,有限会社豊興建設,,有限会社,埼玉県,さいたま市中央区,新中里１丁目１番６号,,11,105,3380011,,,2024-01-29,登記官による閉鎖,,,2015-10-05,1,,,,,,0
125,1030002022154,登記記録の閉鎖等,0,2024-01-29,2024-01-29,有限会社オートサービス,,有限会社,埼玉県,蓮田市,関山２丁目９番１号,,11,238,3490121,,,2024-01-29,登記官による閉鎖,,,2015-10-05,1,,,,,,0
126,1030002028481,登記記録の閉鎖等,0,2024-01-29,2024-01-29,有限会社エンゼルミキ,,有限会社,埼玉県,所沢市,西所沢１丁目１４番３号,,11,208,3591144,,,2024-01-29,登記官による閉鎖,,,2015-10-05,1,,,,,,0
128,1030002034488,登記記録の閉鎖等,0,2024-01-29,2024-01-29,有限会社美希,,有限会社,埼玉県,狭山市,中央２丁目４７番７号,,11,215,3501308,,,2024-01-29,登記官による閉鎖,,,2015-10-05,1,,,,,,0
129,1030002038332,登記記録の閉鎖等,0,2024-01-29,2024-01-29,有限会社藤寿司,,有限会社,埼玉県,久喜市,久喜東１丁目５番１号,,11,232,3460016,,,2024-01-29,登記官による閉鎖,,,2015-10-05,1,,,,,,0
130,1030002039537,登記記録の閉鎖等,0,2024-01-29,2024-01-29,有限会社入山製作所,,有限会社,埼玉県,幸手市,東５丁目１４番５号,,11,240,3400114,,,2024-01-29,登記官による閉鎖,,,2015-10-05,1,,,,,,0
131,1030002041567,登記記録の閉鎖等,0,2024-01-29,2024-01-29,いしずえ縫製有限会社,,有限会社,埼玉県,羽生市,大字弥勒２２７５番地,,11,216,3480004,,,2024-01-29,登記官による閉鎖,,,2015-10-05,1,,,,,,0
132,1030002048075,登記記録の閉鎖等,0,2024-01-29,2024-01-29,有限会社横山ゴム工業,,有限会社,埼玉県,八潮市,大字木曽根１２３５番地８,,11,234,3400813,,,2024-01-29,登記官による閉鎖,,,2015-10-05,1,,,,,,0
133,1030002052936,登記記録の閉鎖等,0,2024-01-29,2024-01-29,有限会社上尾機工,,有限会社,埼玉県,上尾市,大字原市９７１番地３,,11,219,3620021,,,2024-01-29,登記官による閉鎖,,,2015-10-05,1,,,,,,0
134,1030002053109,登記記録の閉鎖等,0,2024-01-29,2024-01-29,有限会社池田工務店,,有限会社,埼玉県,上尾市,柏座１丁目８番１３号,,11,219,3620075,,,2024-01-29,登記官による閉鎖,,,2015-10-05,1,,,,,,0
135,1030002056045,登記記録の閉鎖等,0,2024-01-29,2024-01-29,有限会社フレンドオートサービス,,有限会社,埼玉県,桶川市,泉２丁目１番１４号,,11,231,3630021,,,2024-01-29,登記官による閉鎖,,,2015-10-05,1,,,,,,0
136,1030002061053,登記記録の閉鎖等,0,2024-01-29,2024-01-22,有限会社金澤電気,,有限会社,埼玉県,新座市,片山３丁目１５番２０号,,11,230,3520025,,,2024-01-22,清算の結了等,,,2015-10-05,1,,,,,カナザワデンキ,0
137,1030002061276,登記記録の閉鎖等,0,2024-01-29,2024-01-29,有限会社サンエー,,有限会社,埼玉県,新座市,新座３丁目３番２－１０６号,,11,230,3520006,,,2024-01-29,登記官による閉鎖,,,2015-10-05,1,,,,,,0
138,1030002068619,登記記録の閉鎖等,0,2024-01-29,2024-01-29,有限会社杉崎空調,,有限会社,埼玉県,春日部市,新方袋９７番地５,,11,214,3440056,,,2024-01-29,登記官による閉鎖,,,2015-10-05,1,,,,,,0
139,1030002069336,登記記録の閉鎖等,0,2024-01-29,2024-01-29,有限会社松村タイル工業,,有限会社,埼玉県,春日部市,薄谷３１０番地１８,,11,214,3440034,,,2024-01-29,登記官による閉鎖,,,2015-10-05,1,,,,,,0
140,1030002069930,登記記録の閉鎖等,0,2024-01-29,2024-01-29,有限会社栄光商会,,有限会社,埼玉県,春日部市,上柳６３６番地,,11,214,3440121,,,2024-01-29,登記官による閉鎖,,,2015-10-05,1,,,,,,0
141,1030002072190,登記記録の閉鎖等,0,2024-01-29,2024-01-29,有限会社加山アクティブ企画,,有限会社,埼玉県,川越市,大字南大塚２９８０番地６,,11,201,3501162,,,2024-01-29,登記官による閉鎖,,,2015-10-05,1,,,,,,0
142,1030002074815,登記記録の閉鎖等,0,2024-01-29,2024-01-29,有限会社フジキ建設,,有限会社,埼玉県,川越市,大字砂４６１番地７,,11,201,3501133,,,2024-01-29,登記官による閉鎖,,,2015-10-05,1,,,,,,0
143,1030002080128,登記記録の閉鎖等,0,2024-01-29,2024-01-29,有限会社安心堂スナハラ,,有限会社,埼玉県,川越市,大字天沼新田３４５番地５１,,11,201,3500806,,,2024-01-29,登記官による閉鎖,,,2015-10-05,1,,,,,,0
144,1030002082636,登記記録の閉鎖等,0,2024-01-29,2024-01-29,有限会社さどやインテリア部,,有限会社,埼玉県,鴻巣市,本町１丁目５番２０号,,11,217,3650038,,,2024-01-29,登記官による閉鎖,,,2015-10-05,1,,,,,,0
145,1030002083188,登記記録の閉鎖等,0,2024-01-29,2024-01-29,有限会社加藤新聞店,,有限会社,埼玉県,北本市,本町４丁目４７番地５,,11,233,3640033,,,2024-01-29,登記官による閉鎖,,,2015-10-05,1,,,,,,0
146,1030002087057,登記記録の閉鎖等,0,2024-01-29,2024-01-29,有限会社ティー・エス・エー,,有限会社,埼玉県,越谷市,花田４丁目２０番地１１,,11,222,3430015,,,2024-01-29,登記官による閉鎖,,,2015-10-05,1,,,,,,0
147,1030002094326,登記記録の閉鎖等,0,2024-01-29,2024-01-29,有限会社ウインズ,,有限会社,埼玉県,比企郡鳩山町,松ヶ丘３丁目２番１号,,11,348,3500313,,,2024-01-29,登記官による閉鎖,,,2015-10-05,1,,,,,,0
148,1030002097898,登記記録の閉鎖等,0,2024-01-29,2024-01-29,有限会社徳寿司,,有限会社,埼玉県,比企郡ときがわ町,大字玉川１１４６番地,,11,349,3550342,,,2024-01-29,登記官による閉鎖,,,2015-10-05,1,,,,,,0
149,1030002098095,登記記録の閉鎖等,0,2024-01-29,2024-01-29,有限会社根岸精機,,有限会社,埼玉県,比企郡小川町,大字木部３１２番地,,11,343,3550335,,,2024-01-29,登記官による閉鎖,,,2015-10-05,1,,,,,,0
150,1030002098764,登記記録の閉鎖等,0,2024-01-29,2024-01-29,有限会社カオスシーエイアイ,,有限会社,埼玉県,川口市,南鳩ヶ谷７丁目１０番４号,,11,203,3340013,,,2024-01-29,登記官による閉鎖,,,2015-10-05,1,,,,,,0
151,1030002101239,登記記録の閉鎖等,0,2024-01-29,2024-01-29,有限会社大森商工,,有限会社,埼玉県,川口市,芝富士２丁目１５番７号,,11,203,3330854,,,2024-01-29,登記官による閉鎖,,,2015-10-05,1,,,,,,0
152,1030002101247,登記記録の閉鎖等,0,2024-01-29,2024-01-29,有限会社オオワダ工業所,,有限会社,埼玉県,川口市,上青木１丁目６番２９号,,11,203,3330844,,,2024-01-29,登記官による閉鎖,,,2015-10-05,1,,,,,,0
153,1030002110355,登記記録の閉鎖等,0,2024-01-29,2024-01-29,康莉有限会社,,有限会社,埼玉県,川口市,本町３丁目６番２３号,,11,203,3320012,,,2024-01-29,登記官による閉鎖,,,2015-10-05,1,,,,,,0
154,1030002114298,登記記録の閉鎖等,0,2024-01-29,2024-01-29,有限会社宮前商事,,有限会社,埼玉県,熊谷市,宮前町１丁目７０番地,,11,202,3600045,,,2024-01-29,登記官による閉鎖,,,2015-10-05,1,,,,,,0
155,1030002114967,登記記録の閉鎖等,0,2024-01-29,2024-01-29,有限会社高砂工業,,有限会社,埼玉県,熊谷市,上之１４１４番地,,11,202,3600012,,,2024-01-29,登記官による閉鎖,,,2015-10-05,1,,,,,,0
156,1030002116674,登記記録の閉鎖等,0,2024-01-29,2024-01-29,有限会社寿商事運輸,,有限会社,埼玉県,深谷市,原郷１１３４番地５,,11,218,3660035,,,2024-01-29,登記官による閉鎖,,,2015-10-05,1,,,,,,0
157,1030002122813,登記記録の閉鎖等,0,2024-01-29,2024-01-29,有限会社川田商店,,有限会社,埼玉県,秩父市,上野町１２番２号,,11,207,3680031,,,2024-01-29,登記官による閉鎖,,,2015-10-05,1,,,,,,0
158,1030002123076,登記記録の閉鎖等,0,2024-01-29,2024-01-29,有限会社多田製作所,,有限会社,埼玉県,入間郡毛呂山町,大字川角１２９０番地５０,,11,326,3500436,,,2024-01-29,登記官による閉鎖,,,2015-10-05,1,,,,,,0
159,1030002123126,登記記録の閉鎖等,0,2024-01-29,2024-01-29,有限会社小倉商会,,有限会社,埼玉県,上尾市,大字上６８６番地の２１,,11,219,3620001,,,2024-01-29,登記官による閉鎖,,,2015-10-05,1,,,,,,0
160,1030002123142,登記記録の閉鎖等,0,2024-01-29,2024-01-29,有限会社内田新聞店,,有限会社,埼玉県,比企郡小川町,大字大塚２９３番地６,,11,343,3550328,,,2024-01-29,登記官による閉鎖,,,2015-10-05,1,,,,,,0
161,1030003000919,登記記録の閉鎖等,0,2024-01-29,2024-01-29,合同会社ＲＯＭＡＮ構造１級建築士事務所,,合同会社,埼玉県,さいたま市大宮区,天沼町２丁目１００７番地１,,11,103,3300834,,,2024-01-29,登記官による閉鎖,,,2015-10-05,1,,,,,,0
164,1030005001774,登記記録の閉鎖等,0,2024-01-29,2024-01-29,協同組合電材アドバンス,,その他の設立登記法人,埼玉県,さいたま市北区,東大成町２丁目８１番１号,,11,102,3310814,,,2024-01-29,登記官による閉鎖,,,2015-10-05,1,,,,,,0
165,1030005002888,登記記録の閉鎖等,0,2024-01-29,2024-01-29,特定非営利活動法人埼玉芸能協会,,その他の設立登記法人,埼玉県,蓮田市,緑町２丁目２５番８号,,11,238,3490104,,,2024-01-29,登記官による閉鎖,,,2015-10-05,1,,,,,,0
166,1030005004158,登記記録の閉鎖等,0,2024-01-29,2024-01-29,エルエース協同組合,,その他の設立登記法人,埼玉県,所沢市,小手指町１丁目１番地の３,,11,208,3591141,,,2024-01-29,登記官による閉鎖,,,2015-10-05,1,,,,,,0
167,1030005005940,登記記録の閉鎖等,0,2024-01-29,2024-01-29,特定非営利活動法人障害者若草クラブ,,その他の設立登記法人,埼玉県,八潮市,八潮６丁目６－１田村ハイツ２０５,,11,234,3400815,,,2024-01-29,登記官による閉鎖,,,2015-10-05,1,,,,,,0
168,1030005011831,登記記録の閉鎖等,0,2024-01-29,2024-01-29,特定非営利活動法人障害者レクリエーション支援センターもーぷ,,その他の設立登記法人,埼玉県,東松山市,大字東平１３８０番地６９,,11,212,3550002,,,2024-01-29,登記官による閉鎖,,,2015-10-05,1,,,,,,0
169,1030005012417,登記記録の閉鎖等,0,2024-01-29,2024-01-29,川口繊維衣料商協同組合,,その他の設立登記法人,埼玉県,川口市,赤井４丁目３３番１９号,,11,203,3340073,,,2024-01-29,登記官による閉鎖,,,2015-10-05,1,,,,,,0
170,1030005012508,登記記録の閉鎖等,0,2024-01-29,2024-01-29,企業組合鉱生物応用科学研究開発,,その他の設立登記法人,埼玉県,川口市,大字東内野２２６番地サンライフ東川口８０５号,,11,203,3330821,,,2024-01-29,登記官による閉鎖,,,2015-10-05,1,,,,,,0
171,1030005012607,登記記録の閉鎖等,0,2024-01-29,2024-01-29,医療法人宗和会,,その他の設立登記法人,埼玉県,川口市,朝日２丁目２５番地２０－６０５号室,,11,203,3320001,,,2024-01-29,登記官による閉鎖,,,2015-10-05,1,,,,,,0
172,1030005013290,登記記録の閉鎖等,0,2024-01-29,2024-01-29,埼玉県北自動車販売協同組合,,その他の設立登記法人,埼玉県,熊谷市,弥藤吾１２２番地１,,11,202,3600203,,,2024-01-29,登記官による閉鎖,,,2015-10-05,1,,,,,,0
183,1050001009233,登記記録の閉鎖等,0,2024-01-29,2024-01-26,株式会社関口和裁センター,,株式会社,茨城県,土浦市,荒川沖東３丁目１３番５号,,08,203,3000871,,,2024-01-26,登記官による閉鎖,,,2015-10-05,1,,,,,,0
185,1050001015999,登記記録の閉鎖等,0,2024-01-29,2024-01-26,中島鑿泉工業株式会社,,株式会社,茨城県,つくば市,上横場１９０５番地の７,,08,220,3050854,,,2024-01-26,登記官による閉鎖,,,2015-10-05,1,,,,,,0
187,1050001025494,登記記録の閉鎖等,0,2024-01-29,2024-01-26,株式会社篠田工務店,,株式会社,茨城県,稲敷郡河内町,平川６８１番地の内,,08,447,3001402,,,2024-01-26,登記官による閉鎖,,,2015-10-05,1,,,,,,0
188,1050001026971,登記記録の閉鎖等,0,2024-01-29,2024-01-26,株式会社猿田公益銀行,,株式会社,茨城県,常陸太田市,内堀町２３５４番地,,08,212,3130063,,,2024-01-26,登記官による閉鎖,,,2015-10-05,1,,,,,サルタコウエキギンコウ,0
189,1050001031633,登記記録の閉鎖等,0,2024-01-29,2024-01-26,北斗開発株式会社,,株式会社,茨城県,筑西市,甲８７２番地の２,,08,227,3080021,,,2024-01-26,登記官による閉鎖,,,2015-10-05,1,,,,,ホクトカイハツ,0
190,1050001044692,登記記録の閉鎖等,0,2024-01-29,2024-01-26,新建興業株式会社,,株式会社,茨城県,古河市,長谷町２７番１２号,,08,204,3060034,,,2024-01-26,登記官による閉鎖,,,2018-07-19,1,,,,,シンケンコウギョウ,0
193,1050002004200,登記記録の閉鎖等,0,2024-01-29,2024-01-26,有限会社ふなやま,,有限会社,茨城県,東茨城郡城里町,大字阿波山８６０番地,,08,310,3114344,,,2024-01-26,登記官による閉鎖,,,2015-10-05,1,,,,,,0
195,1050002011618,登記記録の閉鎖等,0,2024-01-29,2024-01-26,有限会社新陽塾,,有限会社,茨城県,土浦市,中央２丁目１５番５号,,08,203,3000043,,,2024-01-26,登記官による閉鎖,,,2015-10-05,1,,,,,,0
196,1050002020247,登記記録の閉鎖等,0,2024-01-29,2024-01-26,有限会社渡邊建築業,,有限会社,茨城県,坂東市,岩井５０９１番地,,08,228,3060631,,,2024-01-26,登記官による閉鎖,,,2015-10-05,1,,,,,,0
197,1050002026293,登記記録の閉鎖等,0,2024-01-29,2024-01-26,有限会社オーエスケー,,有限会社,茨城県,鹿嶋市,大字宮中２３３３番地６６,,08,222,3140031,,,2024-01-26,登記官による閉鎖,,,2015-10-05,1,,,,,,0
198,1050002026780,登記記録の閉鎖等,0,2024-01-29,2024-01-26,有限会社光総業,,有限会社,茨城県,鹿嶋市,大字下津２７３番地５７,,08,222,3140004,,,2024-01-26,登記官による閉鎖,,,2015-10-05,1,,,,,,0
199,1050002027465,登記記録の閉鎖等,0,2024-01-29,2024-01-26,有限会社北神,,有限会社,茨城県,神栖市,神栖３丁目１５番２５号,,08,232,3140143,,,2024-01-26,登記官による閉鎖,,,2015-10-05,1,,,,,,0
200,1050002036433,登記記録の閉鎖等,0,2024-01-29,2024-01-26,有限会社関根建設,,有限会社,茨城県,取手市,戸頭２３１番地,,08,217,3020034,,,2024-01-26,登記官による閉鎖,,,2015-10-05,1,,,,,,0
201,1050002037712,登記記録の閉鎖等,0,2024-01-29,2024-01-26,有限会社椎名商事,,有限会社,茨城県,牛久市,久野町２３１５番地,,08,219,3001288,,,2024-01-26,登記官による閉鎖,,,2015-10-05,1,,,,,シイナショウジ,0
202,1050002039601,登記記録の閉鎖等,0,2024-01-29,2024-01-26,有限会社上野ダクト,,有限会社,茨城県,常総市,豊岡町丙４６２番地の１,,08,211,3030041,,,2024-01-26,登記官による閉鎖,,,2015-10-05,1,,,,,,0
203,1050002045285,登記記録の閉鎖等,0,2024-01-29,2024-01-26,有限会社オガワ,,有限会社,茨城県,日立市,久慈町３丁目１８番１１号,,08,202,3191222,,,2024-01-26,登記官による閉鎖,,,2015-10-05,1,,,,,,0
204,1050005007233,登記記録の閉鎖等,0,2024-01-29,2024-01-26,日立化成工材労働組合,,その他の設立登記法人,茨城県,日立市,滑川本町５丁目１２番１５号,,08,202,3170051,,,2024-01-26,登記官による閉鎖,,,2015-10-05,1,,,,,,0
205,1050005010550,登記記録の閉鎖等,0,2024-01-29,2024-01-26,農事組合法人きらくやまダチョウ牧場,,その他の設立登記法人,茨城県,つくばみらい市,台７０６番地,,08,235,3002401,,,2024-01-26,登記官による閉鎖,,,2015-10-05,1,,,,,,0
212,1080001021177,登記記録の閉鎖等,0,2024-01-29,2024-01-24,フォーカス・エンジニア株式会社,,株式会社,静岡県,静岡市清水区,松原町５番１７号,,22,103,4240825,,,2024-01-24,清算の結了等,,,2016-10-05,1,,,,,フォーカスエンジニア,0
218,1100001015770,登記記録の閉鎖等,0,2024-01-29,2024-01-23,株式会社ふれあいの森,,株式会社,長野県,塩尻市,大門六番町３番１５号,,20,215,3990731,,,2024-01-23,清算の結了等,,,2015-10-05,1,,,,,フレアイノモリ,0
219,1100001016785,登記記録の閉鎖等,0,2024-01-29,2024-01-24,エーファクトリー株式会社,,株式会社,長野県,松本市,大字笹賀４１１９番地３,,20,202,3990033,,,2024-01-24,清算の結了等,,,2015-10-05,1,,,,,エーファクトリー,0
223,1120001028473,登記記録の閉鎖等,0,2024-01-29,2024-01-26,株式会社淡路商会,,株式会社,兵庫県,南あわじ市,榎列上幡多７３２番地１,,28,224,6560422,,,2024-01-26,登記官による閉鎖,,,2015-10-05,1,,,,,アワジショウカイ,0
246,1140001014728,登記記録の閉鎖等,0,2024-01-29,2024-01-26,株式会社兵庫ブラシ製作所,,株式会社,兵庫県,神戸市兵庫区,御崎本町１丁目１番５０号,,28,105,6520852,,,2024-01-26,登記官による閉鎖,,,2015-10-05,1,,,,,,0
247,1140001018927,登記記録の閉鎖等,0,2024-01-29,2024-01-26,ワイズ工業株式会社,,株式会社,兵庫県,神戸市垂水区,城が山５丁目６番５号,,28,108,6550884,,,2024-01-26,登記官による閉鎖,,,2015-10-05,1,,,,,,0
254,1140001039130,登記記録の閉鎖等,0,2024-01-29,2024-01-26,ハリマ日高株式会社,,株式会社,兵庫県,宍粟市,山崎町岸田１０番地２,,28,227,6712527,,,2024-01-26,登記官による閉鎖,,,2015-10-05,1,,,,,,0
255,1140001040848,登記記録の閉鎖等,0,2024-01-29,2024-01-26,ＳＫＭ貿易株式会社,,株式会社,兵庫県,揖保郡太子町,東保４４８番地１９,,28,464,6711524,,,2024-01-26,登記官による閉鎖,,,2015-10-05,1,,,,,,0
256,1140001041235,登記記録の閉鎖等,0,2024-01-29,2024-01-26,株式会社西昭,,株式会社,兵庫県,丹波市,柏原町上小倉２２０番地の２,,28,223,6693304,,,2024-01-26,登記官による閉鎖,,,2015-10-05,1,,,,,,0
257,1140001042175,登記記録の閉鎖等,0,2024-01-29,2024-01-26,ＪＳｏｃｃｅｒ　Ｐ＆Ａ株式会社,,株式会社,兵庫県,神戸市中央区,浜辺通４丁目１番２３号,,28,110,6510083,,,2024-01-26,登記官による閉鎖,,,2015-10-05,1,,,,,,0
258,1140001048916,登記記録の閉鎖等,0,2024-01-29,2024-01-26,株式会社三共住宅,,株式会社,兵庫県,尼崎市,南武庫之荘２丁目１０番３３号,,28,202,6610033,,,2024-01-26,登記官による閉鎖,,,2015-10-05,1,,,,,,0
259,1140001049550,登記記録の閉鎖等,0,2024-01-29,2024-01-26,株式会社園和建設,,株式会社,兵庫県,尼崎市,東園田町９丁目８番地の４,,28,202,6610953,,,2024-01-26,登記官による閉鎖,,,2015-10-05,1,,,,,,0
260,1140001050574,登記記録の閉鎖等,0,2024-01-29,2024-01-26,日進工業株式会社,,株式会社,兵庫県,尼崎市,若王寺３丁目２０番２５号,,28,202,6610974,,,2024-01-26,登記官による閉鎖,,,2015-10-05,1,,,,,,0
261,1140001081223,登記記録の閉鎖等,0,2024-01-29,2024-01-26,株式会社ウィンズ,,株式会社,兵庫県,宝塚市,谷口町２番１６号,,28,214,6650076,,,2024-01-26,登記官による閉鎖,,,2015-10-05,1,,,,,ウィンズ,0
262,1140001086239,登記記録の閉鎖等,0,2024-01-29,2024-01-26,株式会社セガール,,株式会社,兵庫県,淡路市,志筑１１８４－１,,28,226,6562131,,,2024-01-26,登記官による閉鎖,,,2015-10-05,1,,,,,,0
263,1140001089266,登記記録の閉鎖等,0,2024-01-29,2024-01-26,株式会社トレイス,,株式会社,兵庫県,神戸市中央区,御幸通３丁目２番４号,,28,110,6510087,,,2024-01-26,登記官による閉鎖,,,2015-10-05,1,,,,,,0
264,1140001089885,登記記録の閉鎖等,0,2024-01-29,2024-01-26,株式会社穂志乃,,株式会社,兵庫県,神戸市中央区,北長狭通２丁目６番２号,,28,110,6500012,,,2024-01-26,登記官による閉鎖,,,2015-10-05,1,,,,,,0
267,1140001109206,登記記録の閉鎖等,0,2024-01-29,2024-01-26,円和産業株式会社,,株式会社,兵庫県,西宮市,六軒町９番１１号,,28,204,6620874,,,2024-01-26,登記官による閉鎖,,,2018-02-23,1,,,,,,0
272,1140002004315,登記記録の閉鎖等,0,2024-01-29,2024-01-26,有限会社佳扇,,有限会社,兵庫県,明石市,朝霧南町２丁目１－１７,,28,203,6730870,,,2024-01-26,登記官による閉鎖,,,2015-10-05,1,,,,,,0
273,1140002011492,登記記録の閉鎖等,0,2024-01-29,2024-01-26,有限会社ジャスティック,,有限会社,兵庫県,神戸市兵庫区,中道通７丁目３番７号中川ビル３階,,28,105,6520801,,,2024-01-26,登記官による閉鎖,,,2015-10-05,1,,,,,,0
274,1140002011765,登記記録の閉鎖等,0,2024-01-29,2024-01-26,ティケイ財務サービス有限会社,,有限会社,兵庫県,神戸市兵庫区,東山町３丁目７番４号,,28,105,6520042,,,2024-01-26,登記官による閉鎖,,,2015-10-05,1,,,,,,0
275,1140002011831,登記記録の閉鎖等,0,2024-01-29,2024-01-26,有限会社とみや,,有限会社,兵庫県,神戸市兵庫区,東山町１丁目１－５,,28,105,6520042,,,2024-01-26,登記官による閉鎖,,,2015-10-05,1,,,,,,0
276,1140002016186,登記記録の閉鎖等,0,2024-01-29,2024-01-26,有限会社メイキ,,有限会社,兵庫県,神戸市中央区,生田町１丁目２－１８－３０４,,28,110,6510092,,,2024-01-26,登記官による閉鎖,,,2015-10-05,1,,,,,,0
277,1140002032142,登記記録の閉鎖等,0,2024-01-29,2024-01-26,有限会社イノウエ商事,,有限会社,兵庫県,揖保郡太子町,鵤１２７６番地の５,,28,464,6711561,,,2024-01-26,登記官による閉鎖,,,2015-10-05,1,,,,,,0
278,1140002034031,登記記録の閉鎖等,0,2024-01-29,2024-01-23,有限会社ナカモト設計事務所,,有限会社,兵庫県,赤穂郡上郡町,上郡８９５番地の１,,28,481,6781231,,,2024-01-23,清算の結了等,,,2015-10-05,1,,,,,ナカモトセッケイジムショ,0
279,1140002036779,登記記録の閉鎖等,0,2024-01-29,2024-01-26,有限会社ワンモアレースホース,,有限会社,兵庫県,加古川市,平岡町新在家２６３番地の１０,,28,210,6750101,,,2024-01-26,登記官による閉鎖,,,2015-10-05,1,,,,,,0
282,1140002041465,登記記録の閉鎖等,0,2024-01-29,2024-01-26,有限会社ダイシンクレジツト,,有限会社,兵庫県,尼崎市,昭和南通７丁目１７７番地の９,,28,202,6600882,,,2024-01-26,登記官による閉鎖,,,2015-10-05,1,,,,,,0
283,1140002043890,登記記録の閉鎖等,0,2024-01-29,2024-01-26,有限会社あさひ園田,,有限会社,兵庫県,尼崎市,東園田町４丁目１１２番地の３,,28,202,6610953,,,2024-01-26,登記官による閉鎖,,,2015-10-05,1,,,,,,0
284,1140002050945,登記記録の閉鎖等,0,2024-01-29,2024-01-26,有限会社松政,,有限会社,兵庫県,姫路市,飾磨区三宅２丁目７８番地,,28,201,6728048,,,2024-01-26,登記官による閉鎖,,,2018-06-13,1,,,,,,0
285,1140002053139,登記記録の閉鎖等,0,2024-01-29,2024-01-26,鶴居タクシー有限会社,,有限会社,兵庫県,神崎郡市川町,屋形５４８番地,,28,442,6792337,,,2024-01-26,登記官による閉鎖,,,2015-10-05,1,,,,,,0
286,1140002056091,登記記録の閉鎖等,0,2024-01-29,2024-01-26,有限会社勝田設備,,有限会社,兵庫県,西宮市,獅子ケ口町９番１号,,28,204,6620026,,,2024-01-26,登記官による閉鎖,,,2015-10-05,1,,,,,,0
287,1140002062206,登記記録の閉鎖等,0,2024-01-29,2024-01-26,有限会社石橋農場,,有限会社,兵庫県,加西市,三口町２１８番地の５６,,28,220,6752223,,,2024-01-26,登記官による閉鎖,,,2015-10-05,1,,,,,,0
288,1140002062288,登記記録の閉鎖等,0,2024-01-29,2024-01-26,有限会社金澤亭,,有限会社,兵庫県,加西市,下道山町４１１番地の３,,28,220,6752454,,,2024-01-26,登記官による閉鎖,,,2015-10-05,1,,,,,,0
290,1140002066743,登記記録の閉鎖等,0,2024-01-29,2024-01-26,有限会社ケイ・エム・エス,,有限会社,兵庫県,宝塚市,中州１丁目１１番２４号,,28,214,6650021,,,2024-01-26,登記官による閉鎖,,,2015-10-05,1,,,,,,0
292,1140005001656,登記記録の閉鎖等,0,2024-01-29,2024-01-26,財団法人広岡コレクション記念財団,,その他の設立登記法人,兵庫県,神戸市中央区,布引町２丁目４－１０,,28,110,6510097,,,2024-01-26,登記官による閉鎖,,,2015-10-05,1,,,,,,0
293,1140005010863,登記記録の閉鎖等,0,2024-01-29,2024-01-26,財団法人近松記念館,,その他の設立登記法人,兵庫県,尼崎市,久々知１丁目４番３８号,,28,202,6610977,,,2024-01-26,登記官による閉鎖,,,2015-10-05,1,,,,,,0
294,1140005013164,登記記録の閉鎖等,0,2024-01-29,2024-01-26,財団法人平井育英会,,その他の設立登記法人,兵庫県,姫路市,書写１７７２番地の１,,28,201,6712201,,,2024-01-26,登記官による閉鎖,,,2015-10-05,1,,,,,,0
300,1180301004532,登記記録の閉鎖等,0,2024-01-29,2024-01-17,株式会社Ｊ・Ｍ・Ｔ,,株式会社,愛知県,岡崎市,康生通南１丁目２１番地,,23,202,4440044,,,2024-01-17,清算の結了等,,,2015-10-05,1,,,,,ジェイエムティー,0
346,1360001015596,登記記録の閉鎖等,0,2024-01-29,2024-01-10,株式会社青空設計,,株式会社,沖縄県,宜野湾市,真栄原３丁目１９番３号,,47,205,9012215,,,2024-01-10,清算の結了等,,,2015-10-05,1,,,,,アオゾラセッケイ,0
350,1360005001824,登記記録の閉鎖等,0,2024-01-29,2024-01-26,医療法人尚歯会,,その他の設立登記法人,沖縄県,島尻郡南風原町,字兼城５１６番地１,,47,350,9011111,,,2024-01-26,清算の結了等,,,2015-10-05,1,,,,,ショウシカイ,0
360,1470002000181,登記記録の閉鎖等,0,2024-01-29,2024-01-26,有限会社星屋クリーニング店,,有限会社,香川県,高松市,庵治町１７９２番地,,37,201,7610130,,,2024-01-26,清算の結了等,,,2015-10-05,1,,,,,,0
372,2010002018244,登記記録の閉鎖等,0,2024-01-29,2024-01-24,有限会社太田屋総本店,,有限会社,東京都,中央区,日本橋浜町２丁目５０番４－１０２号,,13,102,1030007,,,2024-01-24,清算の結了等,,,2015-10-05,1,,,,,オオタヤソウホンテン,0
383,2010402016905,登記記録の閉鎖等,0,2024-01-29,2024-01-24,有限会社二条厚田,,有限会社,東京都,港区,赤坂２丁目１７番６５号,,13,103,1070052,,,2024-01-24,合併による解散等,5010401138094,令和６年１月１日東京都渋谷区神宮前一丁目９番１１号株式会社ＥＸＩＡ（5010401138094）に合併し解散,2015-10-05,1,,,,,ニジョウアツタ,0
384,2010403009437,登記記録の閉鎖等,0,2024-01-29,2024-01-23,シルクロードプランニング合同会社,,合同会社,東京都,中央区,日本橋横山町３－１３－５０１,,13,102,1030003,,,2024-01-23,清算の結了等,,,2015-10-05,1,,,,,シルクロードプランニング,0
385,2010403015303,登記記録の閉鎖等,0,2024-01-29,2024-01-15,合同会社ＮＳＳＫーＢＢ,,合同会社,東京都,港区,愛宕２丁目５番１号愛宕グリーンヒルズＭＯＲＩタワー,,13,103,1050002,,,2024-01-15,清算の結了等,,,2016-09-05,1,,,,,エヌエスエスケービービー,0
389,2010501027274,登記記録の閉鎖等,0,2024-01-29,2024-01-22,株式会社カナタ,,株式会社,東京都,台東区,蔵前３丁目１８番７号,,13,106,1110051,,,2024-01-22,清算の結了等,,,2015-10-05,1,,,,,カナタ,0
396,2010802011687,登記記録の閉鎖等,0,2024-01-29,2024-01-24,有限会社浜工業所,,有限会社,東京都,大田区,中馬込２丁目２１番７号,,13,111,1430027,,,2024-01-24,清算の結了等,,,2015-10-05,1,,,,,ハマコウギョウショ,0
431,2020002026782,登記記録の閉鎖等,0,2024-01-29,2024-01-24,有限会社重森商店,,有限会社,神奈川県,横浜市神奈川区,羽沢町１６９５番地,,14,102,2210863,,,2024-01-24,清算の結了等,,,2015-10-05,1,,,,,シゲモリショウテン,0
432,2020002077818,登記記録の閉鎖等,0,2024-01-29,2024-01-25,有限会社湘南通商,,有限会社,神奈川県,横浜市中区,相生町６丁目１０９番地,,14,104,2310012,,,2024-01-25,清算の結了等,,,2015-10-05,1,,,,,ショウナンツウショウ,0
434,2021001009365,登記記録の閉鎖等,0,2024-01-29,2024-01-25,長井興業株式会社,,株式会社,神奈川県,鎌倉市,常盤９３７番地１６号,,14,204,2480022,,,2024-01-25,清算の結了等,,,2015-10-05,1,,,,,ナガイコウギョウ,0
439,2021002003879,登記記録の閉鎖等,0,2024-01-29,2024-01-26,有限会社ハウジングメイト,,有限会社,神奈川県,藤沢市,湘南台４丁目５番地の１０大嶋ビル３０１,,14,205,2520804,,,2024-01-26,清算の結了等,,,2015-10-05,1,,,,,ハウジングメイト,0
442,2030001005357,登記記録の閉鎖等,0,2024-01-29,2024-01-29,株式会社たなかや,,株式会社,埼玉県,さいたま市大宮区,桜木町１丁目１１番地１５－２００４号,,11,103,3300854,,,2024-01-29,登記官による閉鎖,,,2015-10-05,1,,,,,,0
443,2030001025017,登記記録の閉鎖等,0,2024-01-29,2024-01-29,株式会社本宿屋,,株式会社,埼玉県,所沢市,寿町６番１２号,,11,208,3591122,,,2024-01-29,登記官による閉鎖,,,2015-10-05,1,,,,,,0
444,2030001026080,登記記録の閉鎖等,0,2024-01-29,2024-01-29,株式会社荒井商事,,株式会社,埼玉県,狭山市,大字北入曽１６２番地の４７,,11,215,3501315,,,2024-01-29,登記官による閉鎖,,,2015-10-05,1,,,,,,0
445,2030001026650,登記記録の閉鎖等,0,2024-01-29,2024-01-29,株式会社ミヤモトインシュアランスプランナー,,株式会社,埼玉県,狭山市,柏原１５０１番地の８,,11,215,3501335,,,2024-01-29,登記官による閉鎖,,,2015-10-05,1,,,,,,0
446,2030001027310,登記記録の閉鎖等,0,2024-01-29,2024-01-29,株式会社水村,,株式会社,埼玉県,入間市,鍵山１丁目１１番５号,,11,225,3580004,,,2024-01-29,登記官による閉鎖,,,2015-10-05,1,,,,,,0
447,2030001027434,登記記録の閉鎖等,0,2024-01-29,2024-01-29,株式会社エルウイング,,株式会社,埼玉県,入間市,大字野田１１２９番地１９,,11,225,3580054,,,2024-01-29,登記官による閉鎖,,,2015-10-05,1,,,,,,0
448,2030001029562,登記記録の閉鎖等,0,2024-01-29,2024-01-29,株式会社ジーライフ,,株式会社,埼玉県,所沢市,大字下安松７５６番地の１,,11,208,3590024,,,2024-01-29,登記官による閉鎖,,,2015-10-05,1,,,,,,0
449,2030001037904,登記記録の閉鎖等,0,2024-01-29,2024-01-29,新星商事株式会社,,株式会社,埼玉県,三郷市,番匠免２丁目３６番地１,,11,237,3410056,,,2024-01-29,登記官による閉鎖,,,2015-10-05,1,,,,,,0
450,2030001041666,登記記録の閉鎖等,0,2024-01-29,2024-01-29,本田石油株式会社,,株式会社,埼玉県,上尾市,原市中３丁目１番地１０,,11,219,3620023,,,2024-01-29,登記官による閉鎖,,,2015-10-05,1,,,,,,0
451,2030001055170,登記記録の閉鎖等,0,2024-01-29,2024-01-29,テイユウケイ株式会社,,株式会社,埼玉県,川越市,大字的場２１７３番地７０,,11,201,3501101,,,2024-01-29,登記官による閉鎖,,,2015-10-05,1,,,,,,0
452,2030001056111,登記記録の閉鎖等,0,2024-01-29,2024-01-29,株式会社加藤電設,,株式会社,埼玉県,ふじみ野市,桜ケ丘１丁目１０番７２号,,11,245,3560059,,,2024-01-29,登記官による閉鎖,,,2015-10-05,1,,,,,,0
454,2030001066812,登記記録の閉鎖等,0,2024-01-29,2024-01-29,株式会社金山設計,,株式会社,埼玉県,吉川市,新栄２丁目１１番地３,,11,243,3420059,,,2024-01-29,登記官による閉鎖,,,2015-10-05,1,,,,,,0
455,2030001067835,登記記録の閉鎖等,0,2024-01-29,2024-01-29,株式会社ＮＹルイ,,株式会社,埼玉県,吉川市,吉屋１丁目１２９番地１,,11,243,3420013,,,2024-01-29,登記官による閉鎖,,,2015-10-05,1,,,,,,0
456,2030001068296,登記記録の閉鎖等,0,2024-01-29,2024-01-29,株式会社ハートフル薬局,,株式会社,埼玉県,越谷市,大沢３１９０番地２,,11,222,3430025,,,2024-01-29,登記官による閉鎖,,,2015-10-05,1,,,,,,0
457,2030001069286,登記記録の閉鎖等,0,2024-01-29,2024-01-29,株式会社ますや木材建設,,株式会社,埼玉県,入間郡越生町,大字如意７２５番地１,,11,327,3500413,,,2024-01-29,登記官による閉鎖,,,2015-10-05,1,,,,,,0
458,2030001070987,登記記録の閉鎖等,0,2024-01-29,2024-01-29,株式会社バーチャル・コーポレーション,,株式会社,埼玉県,東松山市,箭弓町２丁目８番３４号,00015195,11,212,3550028,,,2024-01-29,登記官による閉鎖,,,2015-10-05,1,,,,,,0
459,2030001079467,登記記録の閉鎖等,0,2024-01-29,2024-01-29,株式会社大川産業,,株式会社,埼玉県,川口市,西川口５丁目７番６号,,11,203,3320021,,,2024-01-29,登記官による閉鎖,,,2015-10-05,1,,,,,,0
460,2030001082719,登記記録の閉鎖等,0,2024-01-29,2024-01-29,株式会社ＩＴＣエンタープライズ,,株式会社,埼玉県,川口市,幸町３丁目１０番２号東商ビル５－３Ｂ,,11,203,3320016,,,2024-01-29,登記官による閉鎖,,,2015-10-05,1,,,,,,0
463,2030001099382,登記記録の閉鎖等,0,2024-01-29,2024-01-29,ひかり企画株式会社,,株式会社,埼玉県,越谷市,七左町６丁目２８番地８,,11,222,3430851,,,2024-01-29,登記官による閉鎖,,,2015-10-05,1,,,,,,0
466,2030002010083,登記記録の閉鎖等,0,2024-01-29,2024-01-29,有限会社内藤工業,,有限会社,埼玉県,さいたま市見沼区,東大宮１丁目７１番地の２９,,11,104,3370051,,,2024-01-29,登記官による閉鎖,,,2015-10-05,1,,,,,,0
467,2030002022137,登記記録の閉鎖等,0,2024-01-29,2024-01-29,有限会社大鷲飯店,,有限会社,埼玉県,蓮田市,大字黒浜１８５３番地,,11,238,3490101,,,2024-01-29,登記官による閉鎖,,,2015-10-05,1,,,,,,0
468,2030002024315,登記記録の閉鎖等,0,2024-01-29,2024-01-29,有限会社佐野自動車工業,,有限会社,埼玉県,戸田市,本町３丁目７番１１号,,11,224,3350023,,,2024-01-29,登記官による閉鎖,,,2015-10-05,1,,,,,,0
469,2030002032210,登記記録の閉鎖等,0,2024-01-29,2024-01-29,有限会社多摩ファイナンス,,有限会社,埼玉県,所沢市,小手指町２丁目７番地の７,,11,208,3591141,,,2024-01-29,登記官による閉鎖,,,2015-10-05,1,,,,,,0
470,2030002033035,登記記録の閉鎖等,0,2024-01-29,2024-01-29,有限会社エムテイ企画,,有限会社,埼玉県,所沢市,小手指町２丁目７番地の７,,11,208,3591141,,,2024-01-29,登記官による閉鎖,,,2015-10-05,1,,,,,,0
471,2030002033844,登記記録の閉鎖等,0,2024-01-29,2024-01-29,有限会社柴田光学設計事務所,,有限会社,埼玉県,狭山市,広瀬東２丁目４７番１号,,11,215,3501320,,,2024-01-29,登記官による閉鎖,,,2015-10-05,1,,,,,,0
472,2030002041995,登記記録の閉鎖等,0,2024-01-29,2024-01-29,有限会社丸安商店,,有限会社,埼玉県,羽生市,大字上岩瀬５番地２,,11,216,3480044,,,2024-01-29,登記官による閉鎖,,,2015-10-05,1,,,,,,0
473,2030002046499,登記記録の閉鎖等,0,2024-01-29,2024-01-29,有限会社伊藤,,有限会社,埼玉県,八潮市,大字木曽根１１５１番地３,,11,234,3400813,,,2024-01-29,登記官による閉鎖,,,2015-10-05,1,,,,,,0
474,2030002046953,登記記録の閉鎖等,0,2024-01-29,2024-01-29,有限会社コンパス・ケイアイ,,有限会社,埼玉県,八潮市,緑町４丁目２３番地５,,11,234,3400808,,,2024-01-29,登記官による閉鎖,,,2015-10-05,1,,,,,,0
475,2030002047786,登記記録の閉鎖等,0,2024-01-29,2024-01-29,有限会社平安,,有限会社,埼玉県,八潮市,中央１丁目５番地１２,,11,234,3400816,,,2024-01-29,登記官による閉鎖,,,2015-10-05,1,,,,,,0
476,2030002048173,登記記録の閉鎖等,0,2024-01-29,2024-01-29,有限会社阿久津塗装店,,有限会社,埼玉県,三郷市,戸ケ崎２丁目１９３番地,,11,237,3410044,,,2024-01-29,登記官による閉鎖,,,2015-10-05,1,,,,,,0
478,2030002056754,登記記録の閉鎖等,0,2024-01-29,2024-01-29,有限会社アイクリエイション,,有限会社,埼玉県,桶川市,大字坂田１７５４番地の７,,11,231,3630008,,,2024-01-29,登記官による閉鎖,,,2015-10-05,1,,,,,,0
479,2030002059138,登記記録の閉鎖等,0,2024-01-29,2024-01-29,有限会社野島建材,,有限会社,埼玉県,朝霞市,大字上内間木６８番地,,11,227,3510001,,,2024-01-29,登記官による閉鎖,,,2015-10-05,1,,,,,,0
480,2030002059410,登記記録の閉鎖等,0,2024-01-29,2024-01-29,有限会社プレミール,,有限会社,埼玉県,朝霞市,溝沼５丁目８番６号,,11,227,3510023,,,2024-01-29,登記官による閉鎖,,,2015-10-05,1,,,,,,0
481,2030002061003,登記記録の閉鎖等,0,2024-01-29,2024-01-29,有限会社草間製作所,,有限会社,埼玉県,新座市,畑中２丁目１６番６７号,,11,230,3520012,,,2024-01-29,登記官による閉鎖,,,2015-10-05,1,,,,,,0
482,2030002062249,登記記録の閉鎖等,0,2024-01-29,2024-01-29,有限会社細田商店,,有限会社,埼玉県,新座市,大和田１丁目２番１号,,11,230,3520004,,,2024-01-29,登記官による閉鎖,,,2015-10-05,1,,,,,,0
483,2030002068584,登記記録の閉鎖等,0,2024-01-29,2024-01-29,有限会社信成機械工業,,有限会社,埼玉県,春日部市,大枝８９番地武里団地３街区２３棟３０７号,,11,214,3440023,,,2024-01-29,登記官による閉鎖,,,2015-10-05,1,,,,,,0
484,2030002072000,登記記録の閉鎖等,0,2024-01-29,2024-01-29,有限会社コミカド,,有限会社,埼玉県,上尾市,愛宕１丁目５番６号,,11,219,3620034,,,2024-01-29,登記官による閉鎖,,,2015-10-05,1,,,,,,0
485,2030002072041,登記記録の閉鎖等,0,2024-01-29,2024-01-29,有限会社アイ・ビー・シー,,有限会社,埼玉県,川越市,新宿町６丁目４番地３８,,11,201,3501124,,,2024-01-29,登記官による閉鎖,,,2015-10-05,1,,,,,,0
486,2030002075077,登記記録の閉鎖等,0,2024-01-29,2024-01-29,有限会社松井鉄工所,,有限会社,埼玉県,川越市,大字天沼新田３４５番地７,,11,201,3500806,,,2024-01-29,登記官による閉鎖,,,2015-10-05,1,,,,,,0
487,2030002077874,登記記録の閉鎖等,0,2024-01-29,2024-01-29,有限会社武蔵ソフトウェアハウス,,有限会社,埼玉県,川越市,新宿町６丁目４番地３８,,11,201,3501124,,,2024-01-29,登記官による閉鎖,,,2015-10-05,1,,,,,,0
488,2030002079615,登記記録の閉鎖等,0,2024-01-29,2024-01-29,有限会社内田制御,,有限会社,埼玉県,ふじみ野市,松山２丁目６番地２,,11,245,3560027,,,2024-01-29,登記官による閉鎖,,,2015-10-05,1,,,,,,0
489,2030002083947,登記記録の閉鎖等,0,2024-01-29,2024-01-29,有限会社ラテール吉田,,有限会社,埼玉県,鴻巣市,筑波２丁目２番１１号,,11,217,3690114,,,2024-01-29,登記官による閉鎖,,,2015-10-05,1,,,,,,0
490,2030002089267,登記記録の閉鎖等,0,2024-01-29,2024-01-29,有限会社八尾村電気,,有限会社,埼玉県,越谷市,南越谷１丁目３番３８－１０４号,,11,222,3430845,,,2024-01-29,登記官による閉鎖,,,2015-10-05,1,,,,,,0
491,2030002097716,登記記録の閉鎖等,0,2024-01-29,2024-01-29,新栄工業有限会社,,有限会社,埼玉県,比企郡嵐山町,大字平澤３１０番地の１,,11,342,3550215,,,2024-01-29,登記官による閉鎖,,,2015-10-05,1,,,,,,0
492,2030002103754,登記記録の閉鎖等,0,2024-01-29,2024-01-29,有限会社ジュン・アドバンス,,有限会社,埼玉県,川口市,西川口４丁目１９番１２号,,11,203,3320021,,,2024-01-29,登記官による閉鎖,,,2015-10-05,1,,,,,,0
493,2030002104983,登記記録の閉鎖等,0,2024-01-29,2024-01-29,有限会社辻水道工業所,00017752,有限会社,埼玉県,川口市,青木３丁目８番３０号,,11,203,3320031,,,2024-01-29,登記官による閉鎖,,,2015-10-05,1,,,,,,0
494,2030002105569,登記記録の閉鎖等,0,2024-01-29,2024-01-22,有限会社中沢彫刻,,有限会社,埼玉県,川口市,大字西立野７２２番地の３,,11,203,3330813,,,2024-01-22,清算の結了等,,,2015-10-05,1,,,,,,0
495,2030002107994,登記記録の閉鎖等,0,2024-01-29,2024-01-29,有限会社山田精工,,有限会社,埼玉県,川口市,弥平２丁目６番１９号,,11,203,3320002,,,2024-01-29,登記官による閉鎖,,,2015-10-05,1,,,,,,0
497,2030002114297,登記記録の閉鎖等,0,2024-01-29,2024-01-29,有限会社宮沢モーター,,有限会社,埼玉県,熊谷市,上之１３９３番地,,11,202,3600012,,,2024-01-29,登記官による閉鎖,,,2015-10-05,1,,,,,,0
498,2030002115345,登記記録の閉鎖等,0,2024-01-29,2024-01-29,有限会社アルファスタッフ,,有限会社,埼玉県,深谷市,本住町９番地８７,,11,218,3660823,,,2024-01-29,登記官による閉鎖,,,2015-10-05,1,,,,,,0
499,2030002117688,登記記録の閉鎖等,0,2024-01-29,2024-01-29,有限会社久栄産業,,有限会社,埼玉県,行田市,城西２丁目３番８号,,11,206,3610057,,,2024-01-29,登記官による閉鎖,,,2015-10-05,1,,,,,,0
500,2030002119065,登記記録の閉鎖等,0,2024-01-29,2024-01-29,有限会社北新設計,,有限会社,埼玉県,行田市,大字堤根１０２０番地１,,11,206,3610035,,,2024-01-29,登記官による閉鎖,,,2015-10-05,1,,,,,,0
501,2030002123125,登記記録の閉鎖等,0,2024-01-29,2024-01-29,有限会社砂場,,有限会社,埼玉県,加須市,騎西５０番地１,,11,210,3470105,,,2024-01-29,登記官による閉鎖,,,2015-10-05,1,,,,,,0
502,2030003001759,登記記録の閉鎖等,0,2024-01-29,2024-01-29,合同会社埼京古物,,合同会社,埼玉県,蕨市,南町１丁目２１番１号,,11,223,3350003,,,2024-01-29,登記官による閉鎖,,,2015-10-05,1,,,,,,0
503,2030003004613,登記記録の閉鎖等,0,2024-01-29,2024-01-29,合名会社笠原商店,,合名会社,埼玉県,大里郡寄居町,大字桜沢５５８番地,,11,408,3691202,,,2024-01-29,登記官による閉鎖,,,2015-10-05,1,,,,,,0
509,2030005006657,登記記録の閉鎖等,0,2024-01-29,2024-01-29,特定非営利活動法人リフォーム経営サポートセンター,,その他の設立登記法人,埼玉県,上尾市,柏座１丁目１２番４号,,11,219,3620075,,,2024-01-29,登記官による閉鎖,,,2015-10-05,1,,,,,,0
510,2030005009453,登記記録の閉鎖等,0,2024-01-29,2024-01-29,特定非営利活動法人ココウス情報通信教育センター,,その他の設立登記法人,埼玉県,本庄市,駅南２丁目３番７号中井ビル１階,,11,211,3670041,,,2024-01-29,登記官による閉鎖,,,2015-10-05,1,,,,,,0
511,2030005012449,登記記録の閉鎖等,0,2024-01-29,2024-01-29,広重機械グループ協同組合,,その他の設立登記法人,埼玉県,川口市,大字辻６３１番地,00018636,11,203,3340004,,,2024-01-29,登記官による閉鎖,,,2015-10-05,1,,,,,,0
512,2030005012820,登記記録の閉鎖等,0,2024-01-29,2024-01-29,特定非営利活動法人子どもの笑顔,,その他の設立登記法人,埼玉県,川口市,上青木西１丁目２０番－３４－６０６号コープ野村青木町公園ＩＩ,00018642,11,203,3330845,,,2024-01-29,登記官による閉鎖,,,2015-10-05,1,,,,,,0
513,2030005014924,登記記録の閉鎖等,0,2024-01-29,2024-01-29,財団法人長瀞綜合博物館,,その他の設立登記法人,埼玉県,秩父郡長瀞町,大字本野上４２４番地,,11,363,3691304,,,2024-01-29,登記官による閉鎖,,,2015-10-05,1,,,,,,0
522,2050001001429,登記記録の閉鎖等,0,2024-01-29,2024-01-24,スリーボンドアーベル北関東株式会社,,株式会社,栃木県,宇都宮市,平松本町１２２２番地１６,,09,201,3210932,,,2024-01-24,合併による解散等,1050001015355,令和６年１月１日茨城県つくば市学園南一丁目１１番地３茨城スリーボンド株式会社（1050001015355）に合併し解散,2015-10-05,1,,,,,スリーボンドアーベルキタカントウ,0
523,2050001006139,登記記録の閉鎖等,0,2024-01-29,2024-01-26,株式会社城山商社,,株式会社,茨城県,水戸市,千波町３８２番地１９,,08,201,3100851,,,2024-01-26,登記官による閉鎖,,,2015-10-05,1,,,,,シロヤマショウシャ,0
524,2050001016534,登記記録の閉鎖等,0,2024-01-29,2024-01-26,株式会社ナノビーム,,株式会社,茨城県,つくば市,榎戸６８１番地６,,08,220,3050853,,,2024-01-26,登記官による閉鎖,,,2015-10-05,1,,,,,,0
525,2050001022185,登記記録の閉鎖等,0,2024-01-29,2024-01-26,アリア株式会社,,株式会社,茨城県,行方市,小貫４４１番地１,,08,233,3111724,,,2024-01-26,登記官による閉鎖,,,2015-10-05,1,,,,,,0
526,2050001031186,登記記録の閉鎖等,0,2024-01-29,2024-01-26,株式会社グローアース,,株式会社,茨城県,常総市,水海道宝町１５６１番地１,,08,211,3030023,,,2024-01-26,登記官による閉鎖,,,2015-10-05,1,,,,,,0
527,2050001031483,登記記録の閉鎖等,0,2024-01-29,2024-01-26,下館ガス株式会社,,株式会社,茨城県,筑西市,菅谷１７０９番地,,08,227,3080052,,,2024-01-26,登記官による閉鎖,,,2015-10-05,1,,,,,,0
530,2050001044155,登記記録の閉鎖等,0,2024-01-29,2024-01-26,株式会社石塚商事,,株式会社,茨城県,つくば市,高見原１丁目４番地１８,,08,220,3001252,,,2024-01-26,登記官による閉鎖,,,2018-03-22,1,,,,,イシツカショウジ,0
532,2050002011484,登記記録の閉鎖等,0,2024-01-29,2024-01-26,有限会社坂寄啓藏商店,,有限会社,茨城県,土浦市,中央２丁目４番３号,,08,203,3000043,,,2024-01-26,登記官による閉鎖,,,2018-04-20,1,,,,,サカヨリケイゾウショウテン,0
533,2050002022993,登記記録の閉鎖等,0,2024-01-29,2024-01-26,入江設備興業有限会社,,有限会社,茨城県,つくば市,房内３０８番地,,08,220,3001278,,,2024-01-26,登記官による閉鎖,,,2015-10-05,1,,,,,,0
534,2050002028355,登記記録の閉鎖等,0,2024-01-29,2024-01-26,潮来環境衛生有限会社,,有限会社,茨城県,潮来市,潮来２５２２番地,,08,223,3112424,,,2024-01-26,登記官による閉鎖,,,2015-10-05,1,,,,,,0
535,2050002028561,登記記録の閉鎖等,0,2024-01-29,2024-01-26,有限会社ミヤウチ建設,,有限会社,茨城県,潮来市,水原２２０１番地２,,08,223,3112404,,,2024-01-26,登記官による閉鎖,,,2015-10-05,1,,,,,,0
536,2050002035632,登記記録の閉鎖等,0,2024-01-29,2024-01-26,有限会社小林建設工業,,有限会社,茨城県,常陸大宮市,辰ノ口１２５６番地の２,,08,225,3192201,,,2024-01-26,登記官による閉鎖,,,2017-01-04,1,,,,,,0
537,2050002037100,登記記録の閉鎖等,0,2024-01-29,2024-01-26,有限会社ナルシマ,,有限会社,茨城県,守谷市,松ケ丘５丁目５番９号,,08,224,3020127,,,2024-01-26,登記官による閉鎖,,,2015-10-05,1,,,,,,0
538,2050002039427,登記記録の閉鎖等,0,2024-01-29,2024-01-26,有限会社小菅工務店,,有限会社,茨城県,つくばみらい市,細代２番地の５,,08,235,3002446,,,2024-01-26,登記官による閉鎖,,,2015-10-05,1,,,,,,0
542,2050005010095,登記記録の閉鎖等,0,2024-01-29,2024-01-26,財団法人鬼怒墓園,,その他の設立登記法人,茨城県,筑西市,中舘２０３番地,,08,227,3080005,,,2024-01-26,登記官による閉鎖,,,2015-10-05,1,,,,,,0
544,2060002012713,登記記録の閉鎖等,0,2024-01-29,2024-01-25,有限会社田代敷物店,,有限会社,栃木県,さくら市,氏家２７０９番地,,09,214,3291311,,,2024-01-25,清算の結了等,,,2015-10-05,1,,,,,タシロシキモノテン,0
547,2070001020336,登記記録の閉鎖等,0,2024-01-29,2024-01-22,株式会社ワールドケミカル,,株式会社,群馬県,太田市,新田市野井町２０４４番地４,,10,205,3700314,,,2024-01-22,清算の結了等,,,2015-10-05,1,,,,,ワールドケミカル,0
554,2080101001045,登記記録の閉鎖等,0,2024-01-29,2024-01-26,株式会社武井主税商店,,株式会社,静岡県,沼津市,吉田町１１番２２号,,22,203,4100836,,,2024-01-26,清算の結了等,,,2015-10-05,1,,,,,タケイチカラショウテン,0
564,2110002005604,登記記録の閉鎖等,0,2024-01-29,2024-01-23,有限会社フジタサービス,,有限会社,新潟県,新潟市中央区,白山浦２丁目６４５番地１,,15,103,9518131,,,2024-01-23,清算の結了等,,,2015-10-05,1,,,,,フジタサービス,0
595,2140001001717,登記記録の閉鎖等,0,2024-01-29,2024-01-26,新保工業株式会社,,株式会社,兵庫県,神戸市東灘区,森南町３丁目１番２８－１０１号,,28,101,6580011,,,2024-01-26,登記官による閉鎖,,,2015-10-05,1,,,,,,0
597,2140001032646,登記記録の閉鎖等,0,2024-01-29,2024-01-26,株式会社アーバニー,,株式会社,兵庫県,神戸市兵庫区,三川口町１丁目２番１２号,,28,105,6520815,,,2024-01-26,登記官による閉鎖,,,2015-10-05,1,,,,,,0
602,2140001063699,登記記録の閉鎖等,0,2024-01-29,2024-01-26,株式会社大崎不動産,,株式会社,兵庫県,神崎郡福崎町,福田２０１番地の１７,,28,443,6792212,,,2024-01-26,登記官による閉鎖,,,2018-03-16,1,,,,,,0
604,2140001074473,登記記録の閉鎖等,0,2024-01-29,2024-01-26,株式会社ＮＡｎａ,,株式会社,兵庫県,西宮市,甲子園口２丁目３番３２号,,28,204,6638113,,,2024-01-26,登記官による閉鎖,,,2015-10-05,1,,,,,,0
605,2140001076098,登記記録の閉鎖等,0,2024-01-29,2024-01-26,株式会社大西商店,,株式会社,兵庫県,加西市,北条町栗田２２０番地の７,,28,220,6752302,,,2024-01-26,登記官による閉鎖,,,2015-10-05,1,,,,,,0
614,2140002002581,登記記録の閉鎖等,0,2024-01-29,2024-01-26,有限会社ユニオン,,有限会社,兵庫県,神戸市東灘区,甲南町１丁目４番２８－１０５号,,28,101,6580084,,,2024-01-26,登記官による閉鎖,,,2015-10-05,1,,,,,,0
615,2140002006558,登記記録の閉鎖等,0,2024-01-29,2024-01-26,有限会社古田積算,,有限会社,兵庫県,神戸市垂水区,舞子坂４丁目１１番２１号,,28,108,6550044,,,2024-01-26,登記官による閉鎖,,,2015-10-05,1,,,,,,0
617,2140002018603,登記記録の閉鎖等,0,2024-01-29,2024-01-26,有限会社トラスト,,有限会社,兵庫県,神戸市中央区,元町通５丁目２－３－１０６,,28,110,6500022,,,2024-01-26,登記官による閉鎖,,,2015-10-05,1,,,,,,0
618,2140002025038,登記記録の閉鎖等,0,2024-01-29,2024-01-26,有限会社チア・コーポレーション,,有限会社,兵庫県,神戸市北区,南五葉１丁目１番地,,28,109,6511132,,,2024-01-26,登記官による閉鎖,,,2015-10-05,1,,,,,,0
619,2140002025343,登記記録の閉鎖等,0,2024-01-29,2024-01-26,有限会社太田電気,,有限会社,兵庫県,神戸市東灘区,深江浜町１２４番地ユニハイム東灘８０７号,,28,101,6580023,,,2024-01-26,登記官による閉鎖,,,2015-10-05,1,,,,,,0
620,2140002030005,登記記録の閉鎖等,0,2024-01-29,2024-01-26,有限会社米田ストアー,,有限会社,兵庫県,明石市,本町１丁目２番１９号,,28,203,6730892,,,2024-01-26,登記官による閉鎖,,,2015-10-05,1,,,,,,0
622,2140002041365,登記記録の閉鎖等,0,2024-01-29,2024-01-26,有限会社仙水工務店,,有限会社,兵庫県,尼崎市,七松町２丁目１４番１９号,,28,202,6600052,,,2024-01-26,登記官による閉鎖,,,2015-10-05,1,,,,,,0
623,2140002045465,登記記録の閉鎖等,0,2024-01-29,2024-01-26,有限会社あとりえじゅん,,有限会社,兵庫県,尼崎市,塚口町４丁目２７番地の２,,28,202,6610002,,,2024-01-26,登記官による閉鎖,,,2015-10-05,1,,,,,,0
624,2140002052189,登記記録の閉鎖等,0,2024-01-29,2024-01-26,有限会社スプーンクリエイト,,有限会社,兵庫県,姫路市,鍛冶町４５番地,,28,201,6700002,,,2024-01-26,登記官による閉鎖,,,2015-10-05,1,,,,,,0
625,2140002057171,登記記録の閉鎖等,0,2024-01-29,2024-01-26,有限会社デザイン開発研究所,,有限会社,兵庫県,西宮市,津門仁辺町４番２３号,,28,204,6638246,,,2024-01-26,登記官による閉鎖,,,2015-10-05,1,,,,,,0
626,2140002058260,登記記録の閉鎖等,0,2024-01-29,2024-01-26,有限会社若松印房,,有限会社,兵庫県,西宮市,馬場町３番２７号,,28,204,6620915,,,2024-01-26,登記官による閉鎖,,,2015-10-05,1,,,,,,0
627,2140003005294,登記記録の閉鎖等,0,2024-01-29,2024-01-26,Ｂｅ　ｆｅｅｌ合同会社,,合同会社,兵庫県,神戸市垂水区,塩屋町１丁目９９４－６,,28,108,6550872,,,2024-01-26,登記官による閉鎖,,,2015-10-05,1,,,,,,0
630,2140005004410,登記記録の閉鎖等,0,2024-01-29,2024-01-26,特定非営利活動法人兵庫ユニバーサル社会推進会,,その他の設立登記法人,兵庫県,神戸市兵庫区,羽坂通３丁目３番２号,,28,105,6520805,,,2024-01-26,登記官による閉鎖,,,2015-10-05,1,,,,,,0
631,2140005004848,登記記録の閉鎖等,0,2024-01-29,2024-01-26,特定非営利活動法人アジアＩＴ人材育成機構,,その他の設立登記法人,兵庫県,神戸市中央区,栄町通４丁目１－１２日新ビル４０１,,28,110,6500023,,,2024-01-26,登記官による閉鎖,,,2015-10-05,1,,,,,,0
632,2140005009946,登記記録の閉鎖等,0,2024-01-29,2024-01-26,特定非営利活動法人休所,,その他の設立登記法人,兵庫県,加古川市,尾上町口里１８６番地,,28,210,6750022,,,2024-01-26,登記官による閉鎖,,,2015-10-05,1,,,,,,0
633,2140005015168,登記記録の閉鎖等,0,2024-01-29,2024-01-26,特定非営利活動法人ＬＨネット,,その他の設立登記法人,兵庫県,姫路市,伊伝居１１９番１１号,,28,201,6700871,,,2024-01-26,登記官による閉鎖,,,2015-10-05,1,,,,,,0
634,2140005016447,登記記録の閉鎖等,0,2024-01-29,2024-01-26,特定非営利活動法人西宮えびす長寿会,,その他の設立登記法人,兵庫県,西宮市,江上町３番４３号セイワビル２階,,28,204,6620855,,,2024-01-26,登記官による閉鎖,,,2015-10-05,1,,,,,,0
635,2140005016554,登記記録の閉鎖等,0,2024-01-29,2024-01-26,特定非営利活動法人新エネルギー研究,,その他の設立登記法人,兵庫県,西宮市,鳴尾町５丁目７番２１号,,28,204,6638184,,,2024-01-26,登記官による閉鎖,,,2015-10-05,1,,,,,,0
636,2140005017858,登記記録の閉鎖等,0,2024-01-29,2024-01-26,特定非営利活動法人光のゆずり葉,,その他の設立登記法人,兵庫県,加西市,北条町北条２８－１アスティア加西３Ｆ,,28,220,6752312,,,2024-01-26,登記官による閉鎖,,,2015-10-05,1,,,,,,0
643,2180001033186,登記記録の閉鎖等,0,2024-01-29,2024-01-23,株式会社矢澤業務店,,株式会社,愛知県,名古屋市中村区,太閤通７丁目１番地,,23,105,4530811,,,2024-01-23,清算の結了等,,,2023-11-13,1,,,,,ヤザワギョウムテン,0
651,2180303004249,登記記録の閉鎖等,0,2024-01-29,2024-01-09,合同会社梅愛,,合同会社,愛知県,豊橋市,梅薮町字上屋敷３１番地,,23,201,4410155,,,2024-01-09,合併による解散等,8180301031157,令和５年１２月３１日愛知県豊橋市梅薮町字上屋敷３１番地株式会社梅園（8180301031157）に合併し解散,2019-01-23,1,,,,,ウメアイ,0
659,2240001017356,登記記録の閉鎖等,0,2024-01-29,2024-01-22,株式会社Ｔｈｒｅｅ　Ｆｉｅｌｄ,,株式会社,広島県,広島市中区,堀川町３番１３号,,34,101,7300033,,,2024-01-22,清算の結了等,,,2015-10-05,1,,,,,スリーフィールド,0
687,2320002005723,登記記録の閉鎖等,0,2024-01-29,2024-01-22,有限会社平田電気計装,,有限会社,大分県,大分市,大字小池原１７４０番地の３０,,44,201,8700147,,,2024-01-22,清算の結了等,,,2015-10-05,1,,,,,ヒラタデンキケイソウ,0
689,2340002012932,登記記録の閉鎖等,0,2024-01-29,2024-01-16,有限会社大樹,,有限会社,鹿児島県,日置市,吹上町中原１４４７番地,,46,216,8993301,,,2024-01-16,清算の結了等,,,2015-10-05,1,,,,,ダイジュ,0
691,2350005002830,登記記録の閉鎖等,0,2024-01-29,2024-01-19,医療法人社団均和会,,その他の設立登記法人,宮崎県,延岡市,旭ケ丘６丁目８番地１８,,45,203,8890507,,,2024-01-19,清算の結了等,,,2015-10-05,1,,,,,キンワカイ,0
702,2430001039488,登記記録の閉鎖等,0,2024-01-29,2024-01-26,株式会社隆建設,,株式会社,北海道,石狩市,花川南九条２丁目２３２番地,,01,235,0613209,,,2024-01-26,清算の結了等,,,2015-10-05,1,,,,,,0
718,3010003035213,登記記録の閉鎖等,0,2024-01-29,2024-01-24,合同会社ＤＳＢ－７,,合同会社,東京都,千代田区,丸の内３丁目１番１号東京共同会計事務所内,,13,101,1000005,,,2024-01-24,清算の結了等,,,2021-07-06,1,,,,,ディーエスビーセブン,0
729,3010402008406,登記記録の閉鎖等,0,2024-01-29,2024-01-17,有限会社中央機工商会,,有限会社,東京都,港区,浜松町１丁目１６番１２号,,13,103,1050013,,,2024-01-17,清算の結了等,,,2015-10-05,1,,,,,チュウオウキコウショウカイ,0
741,3010802005036,登記記録の閉鎖等,0,2024-01-29,2024-01-25,有限会社広栄システム,,有限会社,東京都,大田区,東雪谷２丁目３番１５号－２０１,,13,111,1450065,,,2024-01-25,清算の結了等,,,2015-10-05,1,,,,,コウエイシステム,0
774,3012402012404,登記記録の閉鎖等,0,2024-01-29,2024-01-24,有限会社ベアーズ,,有限会社,東京都,調布市,下石原１丁目２８番地３,,13,208,1820034,,,2024-01-24,清算の結了等,,,2015-10-05,1,,,,,ベアーズ,0
784,3020001000341,登記記録の閉鎖等,0,2024-01-29,2024-01-24,野村ハイメディア株式会社,,株式会社,神奈川県,横浜市栄区,飯島町７１番地,,14,115,2440842,,,2024-01-24,清算の結了等,,,2015-10-05,1,,,,,ノムラハイメディア,0
796,3030001001792,登記記録の閉鎖等,0,2024-01-29,2024-01-29,株式会社カサイ,,株式会社,埼玉県,さいたま市浦和区,本太３丁目２１番２０号,,11,107,3300052,,,2024-01-29,登記官による閉鎖,,,2015-10-05,1,,,,,,0
797,3030001008243,登記記録の閉鎖等,0,2024-01-29,2024-01-29,ムサシ電機工業株式会社,,株式会社,埼玉県,さいたま市桜区,大字神田４６０番地２,,11,106,3380812,,,2024-01-29,登記官による閉鎖,,,2015-10-05,1,,,,,,0
798,3030001010406,登記記録の閉鎖等,0,2024-01-29,2024-01-29,セオサイクル新埼玉株式会社,,株式会社,埼玉県,さいたま市北区,宮原町１丁目８５４番地１,,11,102,3310812,,,2024-01-29,登記官による閉鎖,,,2015-10-05,1,,,,,,0
799,3030001013730,登記記録の閉鎖等,0,2024-01-29,2024-01-29,株式会社サンマーレ,,株式会社,埼玉県,さいたま市見沼区,堀崎町５９５番地２,,11,104,3370052,,,2024-01-29,登記官による閉鎖,,,2015-10-05,1,,,,,,0
802,3030001022772,登記記録の閉鎖等,0,2024-01-29,2024-01-29,株式会社海華,,株式会社,埼玉県,戸田市,喜沢２丁目２１番地の１－５０１,,11,224,3350013,,,2024-01-29,登記官による閉鎖,,,2015-10-05,1,,,,,,0
803,3030001024439,登記記録の閉鎖等,0,2024-01-29,2024-01-29,株式会社タムラ,,株式会社,埼玉県,所沢市,東新井町３００番地の２,,11,208,3590034,,,2024-01-29,登記官による閉鎖,,,2015-10-05,1,,,,,,0
804,3030001025453,登記記録の閉鎖等,0,2024-01-29,2024-01-29,株式会社多摩総合研究所,,株式会社,埼玉県,所沢市,小手指町２丁目７番地の７,,11,208,3591141,,,2024-01-29,登記官による閉鎖,,,2015-10-05,1,,,,,,0
805,3030001040064,登記記録の閉鎖等,0,2024-01-29,2024-01-29,株式会社東洋アイデック,,株式会社,埼玉県,八潮市,大字大瀬８９６番地１,,11,234,3400822,,,2024-01-29,登記官による閉鎖,,,2015-10-05,1,,,,,,0
806,3030001040205,登記記録の閉鎖等,0,2024-01-29,2024-01-29,株式会社Ｈｅａｒｔ　ｔｏ　Ｈｅａｒｔ,,株式会社,埼玉県,八潮市,大字南川崎１６１番地８,,11,234,3400814,,,2024-01-29,登記官による閉鎖,,,2015-10-05,1,,,,,,0
807,3030001040989,登記記録の閉鎖等,0,2024-01-29,2024-01-29,株式会社ユービー,,株式会社,埼玉県,八潮市,大字大曽根１２８６番地１,,11,234,3400834,,,2024-01-29,登記官による閉鎖,,,2015-10-05,1,,,,,,0
808,3030001041285,登記記録の閉鎖等,0,2024-01-29,2024-01-29,株式会社賀集自動車,,株式会社,埼玉県,上尾市,大字上７６番地の６,,11,219,3620001,,,2024-01-29,登記官による閉鎖,,,2015-10-05,1,,,,,,0
809,3030001049568,登記記録の閉鎖等,0,2024-01-29,2024-01-22,株式会社ＶＩＳＩＯＮ,,株式会社,埼玉県,志木市,柏町４丁目４番１３号,,11,228,3530007,,,2024-01-22,清算の結了等,,,2015-10-05,1,,,,,ビジョン,0
810,3030001051887,登記記録の閉鎖等,0,2024-01-29,2024-01-29,株式会社スガワラ工業,,株式会社,埼玉県,北葛飾郡杉戸町,大字下高野５４６番地,,11,464,3450043,,,2024-01-29,登記官による閉鎖,,,2015-10-05,1,,,,,,0
811,3030001052687,登記記録の閉鎖等,0,2024-01-29,2024-01-29,株式会社青柳建装,,株式会社,埼玉県,春日部市,栄町１丁目１６５番地２,,11,214,3440058,,,2024-01-29,登記官による閉鎖,,,2015-10-05,1,,,,,,0
812,3030001053396,登記記録の閉鎖等,0,2024-01-29,2024-01-29,株式会社グローリー,,株式会社,埼玉県,春日部市,中央１丁目４３番地１８,,11,214,3440067,,,2024-01-29,登記官による閉鎖,,,2015-10-05,1,,,,,,0
813,3030001059410,登記記録の閉鎖等,0,2024-01-29,2024-01-29,株式会社たきむら建設,,株式会社,埼玉県,川越市,砂新田２丁目９番地１５,,11,201,3501137,,,2024-01-29,登記官による閉鎖,,,2015-10-05,1,,,,,,0
814,3030001063131,登記記録の閉鎖等,0,2024-01-29,2024-01-29,株式会社アウリー,,株式会社,埼玉県,白岡市,新白岡３丁目２７番地５,,11,246,3490212,,,2024-01-29,登記官による閉鎖,,,2015-10-05,1,,,,,,0
815,3030001073898,登記記録の閉鎖等,0,2024-01-29,2024-01-29,株式会社エイコー,,株式会社,埼玉県,川口市,大字神戸５６０番地,,11,203,3330832,,,2024-01-29,登記官による閉鎖,,,2015-10-05,1,,,,,,0
816,3030001084417,登記記録の閉鎖等,0,2024-01-29,2024-01-29,株式会社アミノ,,株式会社,埼玉県,熊谷市,原島１２３５番地１,,11,202,3600811,,,2024-01-29,登記官による閉鎖,,,2015-10-05,1,,,,,,0
817,3030001087972,登記記録の閉鎖等,0,2024-01-29,2024-01-29,須藤工業株式会社,,株式会社,埼玉県,深谷市,榛沢２５９番地１,,11,218,3690223,,,2024-01-29,登記官による閉鎖,,,2015-10-05,1,,,,,,0
818,3030001090836,登記記録の閉鎖等,0,2024-01-29,2024-01-29,秩父エンジニアリング株式会社,,株式会社,埼玉県,秩父市,太田９５０番地２,,11,207,3680065,,,2024-01-29,登記官による閉鎖,,,2015-10-05,1,,,,,,0
819,3030001091248,登記記録の閉鎖等,0,2024-01-29,2024-01-29,布里山開発株式会社,,株式会社,埼玉県,秩父市,下吉田６９７２番地,,11,207,3691503,,,2024-01-29,登記官による閉鎖,,,2015-10-05,1,,,,,,0
820,3030001095257,登記記録の閉鎖等,0,2024-01-29,2024-01-29,株式会社太陽,,株式会社,埼玉県,さいたま市大宮区,桜木町４丁目２４４－２桜木プラザビル４Ｆ,,11,103,3300854,,,2024-01-29,登記官による閉鎖,,,2015-10-05,1,,,,,,0
827,3030002000348,登記記録の閉鎖等,0,2024-01-29,2024-01-29,有限会社アトリエ・レスポアル,,有限会社,埼玉県,さいたま市浦和区,高砂１丁目２番１号エイペックスタワー浦和１１４号,,11,107,3300063,,,2024-01-29,登記官による閉鎖,,,2015-10-05,1,,,,,,0
828,3030002003466,登記記録の閉鎖等,0,2024-01-29,2024-01-29,有限会社川口システム開発,,有限会社,埼玉県,さいたま市南区,大字大谷口５１１７番地,,11,108,3360042,,,2024-01-29,登記官による閉鎖,,,2015-10-05,1,,,,,,0
829,3030002012070,登記記録の閉鎖等,0,2024-01-29,2024-01-29,ベルネットワーク有限会社,,有限会社,埼玉県,さいたま市浦和区,針ヶ谷３丁目１７番４号,,11,107,3300075,,,2024-01-29,登記官による閉鎖,,,2015-10-05,1,,,,,,0
830,3030002013317,登記記録の閉鎖等,0,2024-01-29,2024-01-29,有限会社宮城電機,,有限会社,埼玉県,さいたま市西区,大字植田谷本６０７番地の１,,11,101,3310053,,,2024-01-29,登記官による閉鎖,,,2015-10-05,1,,,,,,0
831,3030002013507,登記記録の閉鎖等,0,2024-01-29,2024-01-29,有限会社宗像自動車整備工場,,有限会社,埼玉県,さいたま市西区,大字中野林６５９番地,,11,101,3310057,,,2024-01-29,登記官による閉鎖,,,2015-10-05,1,,,,,,0
832,3030002022920,登記記録の閉鎖等,0,2024-01-29,2024-01-29,全国教育研究舎有限会社,,有限会社,埼玉県,さいたま市岩槻区,大字南下新井１１８８番地の５,,11,110,3390032,,,2024-01-29,登記官による閉鎖,,,2015-10-05,1,,,,,,0
833,3030002024628,登記記録の閉鎖等,0,2024-01-29,2024-01-29,有限会社太宝堂,,有限会社,埼玉県,戸田市,本町１丁目１０番１号,,11,224,3350023,,,2024-01-29,登記官による閉鎖,,,2015-10-05,1,,,,,,0
834,3030002031558,登記記録の閉鎖等,0,2024-01-29,2024-01-29,有限会社山崎材木店,,有限会社,埼玉県,所沢市,上新井５丁目６０番地の４,,11,208,3591142,,,2024-01-29,登記官による閉鎖,,,2015-10-05,1,,,,,,0
835,3030002035600,登記記録の閉鎖等,0,2024-01-29,2024-01-29,有限会社東武ユニフォーム,,有限会社,埼玉県,入間市,宮寺４１０２番地２６２,,11,225,3580014,,,2024-01-29,登記官による閉鎖,,,2015-10-05,1,,,,,,0
836,3030002042084,登記記録の閉鎖等,0,2024-01-29,2024-01-29,有限会社江原塗装工業,,有限会社,埼玉県,加須市,上高柳８５０番地の２,,11,210,3470101,,,2024-01-29,登記官による閉鎖,,,2015-10-05,1,,,,,,0
838,3030002043248,登記記録の閉鎖等,0,2024-01-29,2024-01-29,有限会社イシゼキ,,有限会社,埼玉県,草加市,吉町３丁目２番５２号,,11,221,3400017,,,2024-01-29,登記官による閉鎖,,,2015-10-05,1,,,,,,0
839,3030002046201,登記記録の閉鎖等,0,2024-01-29,2024-01-29,有限会社吉岡電気工事,,有限会社,埼玉県,草加市,青柳７丁目５０番１６号,,11,221,3400002,,,2024-01-29,登記官による閉鎖,,,2015-10-05,1,,,,,,0
840,3030002050137,登記記録の閉鎖等,0,2024-01-29,2024-01-29,有限会社吉田医科器械,,有限会社,埼玉県,三郷市,戸ケ崎５丁目１４８番地５,,11,237,3410044,,,2024-01-29,登記官による閉鎖,,,2015-10-05,1,,,,,,0
841,3030002053164,登記記録の閉鎖等,0,2024-01-29,2024-01-29,有限会社伊藤商店,,有限会社,埼玉県,上尾市,大字平方４６３１番地の１,,11,219,3620059,,,2024-01-29,登記官による閉鎖,,,2015-10-05,1,,,,,,0
842,3030002057875,登記記録の閉鎖等,0,2024-01-29,2024-01-29,山口運輸有限会社,,有限会社,埼玉県,上尾市,大字平塚１０６１番地１,,11,219,3620011,,,2024-01-29,登記官による閉鎖,,,2015-10-05,1,,,,,,0
843,3030002061423,登記記録の閉鎖等,0,2024-01-29,2024-01-29,島原建設工業有限会社,,有限会社,埼玉県,新座市,栄５丁目４番４号,,11,230,3520014,,,2024-01-29,登記官による閉鎖,,,2015-10-05,1,,,,,,0
844,3030002069482,登記記録の閉鎖等,0,2024-01-29,2024-01-29,有限会社山八クリーンサービス,,有限会社,埼玉県,春日部市,牛島１０１７番地,,11,214,3440004,,,2024-01-29,登記官による閉鎖,,,2015-10-05,1,,,,,,0
845,3030002073914,登記記録の閉鎖等,0,2024-01-29,2024-01-29,有限会社西武企画,,有限会社,埼玉県,川越市,新宿町１丁目１２番地２０タクシード２０２,,11,201,3501124,,,2024-01-29,登記官による閉鎖,,,2015-10-05,1,,,,,,0
846,3030002080621,登記記録の閉鎖等,0,2024-01-29,2024-01-29,有限会社コーヨー技術研究所,,有限会社,埼玉県,本庄市,小島１丁目８番２７号,,11,211,3670061,,,2024-01-29,登記官による閉鎖,,,2015-10-05,1,,,,,,0
847,3030002080687,登記記録の閉鎖等,0,2024-01-29,2024-01-29,有限会社信濃路,,有限会社,埼玉県,本庄市,１２８３番地６,,11,211,3670000,,,2024-01-29,登記官による閉鎖,,,2015-10-05,1,,,,,,0
848,3030002081561,登記記録の閉鎖等,0,2024-01-29,2024-01-29,有限会社ミホエンタープライズ,,有限会社,埼玉県,児玉郡神川町,大字植竹６９５番地２,,11,383,3670245,,,2024-01-29,登記官による閉鎖,,,2015-10-05,1,,,,,,0
849,3030002087245,登記記録の閉鎖等,0,2024-01-29,2024-01-29,有限会社豊田,,有限会社,埼玉県,越谷市,蒲生寿町５番１８号,,11,222,3430836,,,2024-01-29,登記官による閉鎖,,,2015-10-05,1,,,,,,0
850,3030002093648,登記記録の閉鎖等,0,2024-01-29,2024-01-29,有限会社望月精密,,有限会社,埼玉県,鶴ヶ島市,大字下新田５７４番地２８,,11,241,3502222,,,2024-01-29,登記官による閉鎖,,,2015-10-05,1,,,,,,0
851,3030002100932,登記記録の閉鎖等,0,2024-01-29,2024-01-29,有限会社遠藤紙工所,,有限会社,埼玉県,川口市,大字神戸５８８番地の１９,,11,203,3330832,,,2024-01-29,登記官による閉鎖,,,2015-10-05,1,,,,,,0
852,3030002102821,登記記録の閉鎖等,0,2024-01-29,2024-01-29,有限会社埼栄ビニール,,有限会社,埼玉県,川口市,前川４丁目４１番５号,,11,203,3330842,,,2024-01-29,登記官による閉鎖,,,2015-10-05,1,,,,,,0
853,3030002103332,登記記録の閉鎖等,0,2024-01-29,2024-01-29,有限会社山和製作所,,有限会社,埼玉県,川口市,朝日５丁目６番８号,,11,203,3320001,,,2024-01-29,登記官による閉鎖,,,2015-10-05,1,,,,,,0
854,3030002103539,登記記録の閉鎖等,0,2024-01-29,2024-01-29,有限会社新たに,,有限会社,埼玉県,川口市,芝５丁目９番７号,,11,203,3330866,,,2024-01-29,登記官による閉鎖,,,2015-10-05,1,,,,,,0
855,3030002107218,登記記録の閉鎖等,0,2024-01-29,2024-01-29,有限会社まるしん,,有限会社,埼玉県,川口市,芝富士１丁目１３番２号,,11,203,3330854,,,2024-01-29,登記官による閉鎖,,,2015-10-05,1,,,,,,0
856,3030002110147,登記記録の閉鎖等,0,2024-01-29,2024-01-29,有限会社はとがやペイント,,有限会社,埼玉県,川口市,大字芝４４７９番地１,,11,203,3330866,,,2024-01-29,登記官による閉鎖,,,2015-10-05,1,,,,,,0
857,3030002116375,登記記録の閉鎖等,0,2024-01-29,2024-01-29,アクティブケア有限会社,,有限会社,埼玉県,深谷市,起会１４１番地１,,11,218,3660837,,,2024-01-29,登記官による閉鎖,,,2015-10-05,1,,,,,,0
858,3030002117704,登記記録の閉鎖等,0,2024-01-29,2024-01-29,有限会社クリーン・ヤマサ,,有限会社,埼玉県,行田市,大字北河原１１７８番地,,11,206,3610001,,,2024-01-29,登記官による閉鎖,,,2015-10-05,1,,,,,,0
859,3030002119527,登記記録の閉鎖等,0,2024-01-29,2024-01-29,有限会社島崎石材店,,有限会社,埼玉県,飯能市,仲町２４番４号,,11,209,3570038,,,2024-01-29,登記官による閉鎖,,,2015-10-05,1,,,,,,0
860,3030005000618,登記記録の閉鎖等,0,2024-01-29,2024-01-29,社団法人埼玉県経営共生協会,,その他の設立登記法人,埼玉県,さいたま市大宮区,吉敷町１丁目８１番地１ＨＩビル５Ｆ,,11,103,3300843,,,2024-01-29,登記官による閉鎖,,,2015-10-05,1,,,,,,0
861,3030005006053,登記記録の閉鎖等,0,2024-01-29,2024-01-29,特定非営利活動法人フィールドジャパン,,その他の設立登記法人,埼玉県,八潮市,大字八條１５６７番地八潮団地３０号棟２０６号室,,11,234,3400801,,,2024-01-29,登記官による閉鎖,,,2015-10-05,1,,,,,,0
862,3030005007266,登記記録の閉鎖等,0,2024-01-29,2024-01-29,特定非営利活動法人彩愛会,,その他の設立登記法人,埼玉県,新座市,栄１丁目８番３２号,,11,230,3520014,,,2024-01-29,登記官による閉鎖,,,2015-10-05,1,,,,,,0
863,3030005008371,登記記録の閉鎖等,0,2024-01-29,2024-01-29,武州総合建設協同組合,,その他の設立登記法人,埼玉県,川越市,大字下広谷９７４番地７,,11,201,3500804,,,2024-01-29,登記官による閉鎖,,,2015-10-05,1,,,,,,0
864,3030005009576,登記記録の閉鎖等,0,2024-01-29,2024-01-29,特定非営利活動法人八重椿,,その他の設立登記法人,埼玉県,児玉郡上里町,大字神保原町５４０番地２,,11,385,3690305,,,2024-01-29,登記官による閉鎖,,,2015-10-05,1,,,,,,0
865,3030005015401,登記記録の閉鎖等,0,2024-01-29,2024-01-29,特定非営利活動法人エテルノ,,その他の設立登記法人,埼玉県,秩父市,大野原２７８８番地２,,11,207,3680005,,,2024-01-29,登記官による閉鎖,,,2015-10-05,1,,,,,,0
868,3040001025196,登記記録の閉鎖等,0,2024-01-29,2024-01-19,株式会社シーマン,,株式会社,千葉県,船橋市,中野木１丁目２２番１６号,,12,204,2740826,,,2024-01-19,清算の結了等,,,2015-10-05,1,,,,,シーマン,0
876,3050001008737,登記記録の閉鎖等,0,2024-01-29,2024-01-26,株式会社Ｍ＆Ｔ,,株式会社,茨城県,水戸市,西大野２３８番地１,,08,201,3100824,,,2024-01-26,登記官による閉鎖,,,2015-10-05,1,,,,,,0
877,3050001011831,登記記録の閉鎖等,0,2024-01-29,2024-01-26,株式会社ヒロハラ,,株式会社,茨城県,小美玉市,小曽納４４２番地,,08,236,3190125,,,2024-01-26,登記官による閉鎖,,,2015-10-05,1,,,,,,0
878,3050001017151,登記記録の閉鎖等,0,2024-01-29,2024-01-26,ＣＴＣ株式会社,,株式会社,茨城県,つくば市,長高野１０８０番地６,,08,220,3003265,,,2024-01-26,登記官による閉鎖,,,2015-10-05,1,,,,,,0
879,3050001017283,登記記録の閉鎖等,0,2024-01-29,2024-01-26,株式会社ニッポンの野菜,,株式会社,茨城県,つくば市,千現２丁目１番６,,08,220,3050047,,,2024-01-26,登記官による閉鎖,,,2015-10-05,1,,,,,,0
880,3050001020907,登記記録の閉鎖等,0,2024-01-29,2024-01-26,株式会社片岡水産,,株式会社,茨城県,神栖市,波崎５９４９番地の１,,08,232,3140408,,,2024-01-26,登記官による閉鎖,,,2015-10-05,1,,,,,,0
881,3050001027720,登記記録の閉鎖等,0,2024-01-29,2024-01-26,株式会社ケン・コーポレーション,,株式会社,茨城県,守谷市,松前台５丁目１１番地２,,08,224,3020102,,,2024-01-26,登記官による閉鎖,,,2015-10-05,1,,,,,,0
882,3050001031458,登記記録の閉鎖等,0,2024-01-29,2024-01-26,株式会社坂入商工,,株式会社,茨城県,筑西市,下江連３７４番地の２,,08,227,3080851,,,2024-01-26,登記官による閉鎖,,,2015-10-05,1,,,,,,0
883,3050002002326,登記記録の閉鎖等,0,2024-01-29,2024-01-26,有限会社トップエリア,,有限会社,茨城県,水戸市,渋井町６２２番地の８,,08,201,3100826,,,2024-01-26,登記官による閉鎖,,,2015-10-05,1,,,,,,0
884,3050002007151,登記記録の閉鎖等,0,2024-01-29,2024-01-26,有限会社ディーエスインターナショナル,,有限会社,茨城県,那珂郡東海村,村松北２丁目７番３３号,,08,341,3191108,,,2024-01-26,登記官による閉鎖,,,2015-10-05,1,,,,,,0
885,3050002009115,登記記録の閉鎖等,0,2024-01-29,2024-01-26,有限会社渡辺製作所,,有限会社,茨城県,ひたちなか市,大字田彦１１１６番地の５８,,08,221,3120063,,,2024-01-26,登記官による閉鎖,,,2015-10-05,1,,,,,,0
886,3050002018891,登記記録の閉鎖等,0,2024-01-29,2024-01-26,有限会社野仲建材,,有限会社,茨城県,坂東市,逆井１２８１番地,,08,228,3060501,,,2024-01-26,登記官による閉鎖,,,2015-10-05,1,,,,,,0
887,3050002020229,登記記録の閉鎖等,0,2024-01-29,2024-01-26,有限会社吉為商店,,有限会社,茨城県,坂東市,岩井３２９９番地,,08,228,3060631,,,2024-01-26,登記官による閉鎖,,,2015-10-05,1,,,,,,0
888,3050002025954,登記記録の閉鎖等,0,2024-01-29,2024-01-26,有限会社もり家,,有限会社,茨城県,古河市,東諸川９１１番地,,08,204,3060124,,,2024-01-26,登記官による閉鎖,,,2015-10-05,1,,,,,,0
889,3050002028387,登記記録の閉鎖等,0,2024-01-29,2024-01-26,有限会社植田屋住設,,有限会社,茨城県,潮来市,潮来７８６番地,,08,223,3112424,,,2024-01-26,登記官による閉鎖,,,2015-10-05,1,,,,,,0
890,3050002034014,登記記録の閉鎖等,0,2024-01-29,2024-01-26,有限会社ハナコウ,,有限会社,茨城県,稲敷市,江戸崎甲２７１５番地,,08,229,3000504,,,2024-01-26,登記官による閉鎖,,,2015-10-05,1,,,,,,0
891,3050002038254,登記記録の閉鎖等,0,2024-01-29,2024-01-26,有限会社兵頭商会,,有限会社,茨城県,取手市,椚木８７３番地の５,,08,217,3001511,,,2024-01-26,登記官による閉鎖,,,2015-10-05,1,,,,,,0
892,3050002042207,登記記録の閉鎖等,0,2024-01-29,2024-01-26,有限会社節恵,,有限会社,茨城県,筑西市,下岡崎１丁目２番地４,,08,227,3080826,,,2024-01-26,登記官による閉鎖,,,2015-10-05,1,,,,,,0
893,3050002044434,登記記録の閉鎖等,0,2024-01-29,2024-01-26,有限会社エフシー・コミュニケーションズ,,有限会社,茨城県,結城市,大字結城５５０番地,,08,207,3070001,,,2024-01-26,登記官による閉鎖,,,2015-10-05,1,,,,,,0
894,3050002045127,登記記録の閉鎖等,0,2024-01-29,2024-01-26,有限会社麗都エステート,,有限会社,茨城県,結城市,大字結城９７７９番地６,,08,207,3070001,,,2024-01-26,登記官による閉鎖,,,2015-10-05,1,,,,,,0
895,3050003002127,登記記録の閉鎖等,0,2024-01-29,2024-01-22,合同会社ロータスワールドワイドジャパン,,合同会社,茨城県,つくば市,並木３丁目１１番１２号,,08,220,3050044,,,2024-01-22,清算の結了等,,,2015-10-05,1,,,,,ロータスワールドワイドジャパン,0
896,3050005006654,登記記録の閉鎖等,0,2024-01-29,2024-01-26,鉾田建設協同組合,,その他の設立登記法人,茨城県,鉾田市,当間２３７１番地の９,,08,234,3111528,,,2024-01-26,登記官による閉鎖,,,2015-10-05,1,,,,,,0
897,3050005008659,登記記録の閉鎖等,0,2024-01-29,2024-01-26,特定非営利活動法人醍醐高齢福祉基金,,その他の設立登記法人,茨城県,久慈郡大子町,大字北田気４０７番地の２,,08,364,3193521,,,2024-01-26,登記官による閉鎖,,,2015-10-05,1,,,,,,0
900,3060002027322,登記記録の閉鎖等,0,2024-01-29,2024-01-25,有限会社渡辺建材,,有限会社,栃木県,矢板市,中１５０番地１９７,,09,211,3292135,,,2024-01-25,清算の結了等,,,2015-10-05,1,,,,,ワタナベケンザイ,0
907,3080101000434,登記記録の閉鎖等,0,2024-01-29,2024-01-26,カネマツ食品工業株式会社,,株式会社,静岡県,沼津市,上香貫槙島町１３５４番地の１,,22,203,4100813,,,2024-01-26,清算の結了等,,,2015-10-05,1,,,,,カネマツショクヒンコウギョウ,0
912,3100002026187,登記記録の閉鎖等,0,2024-01-29,2024-01-19,株式会社エム・ビー開発,,株式会社,長野県,北安曇郡白馬村,大字北城３０２０番地,,20,485,3999301,,,2024-01-19,清算の結了等,,,2015-10-05,1,,,,,エムビーカイハツ,0
945,3140001001071,登記記録の閉鎖等,0,2024-01-29,2024-01-26,株式会社岩崎工務店,,株式会社,兵庫県,神戸市東灘区,御影本町４丁目１番２１号,,28,101,6580046,,,2024-01-26,登記官による閉鎖,,,2015-10-05,1,,,,,,0
946,3140001003357,登記記録の閉鎖等,0,2024-01-29,2024-01-26,向洋水産株式会社,,株式会社,兵庫県,神戸市灘区,長峰台２丁目４番２０号,,28,102,6570811,,,2024-01-26,登記官による閉鎖,,,2015-10-05,1,,,,,,0
949,3140001026936,登記記録の閉鎖等,0,2024-01-29,2024-01-26,株式会社オープンスカイ,,株式会社,兵庫県,神戸市長田区,久保町６丁目１番６－７０３号,,28,106,6530041,,,2024-01-26,登記官による閉鎖,,,2015-10-05,1,,,,,,0
950,3140001028965,登記記録の閉鎖等,0,2024-01-29,2024-01-26,株式会社ジョインフォース,,株式会社,兵庫県,神戸市垂水区,仲田１丁目１番３号,,28,108,6550034,,,2024-01-26,登記官による閉鎖,,,2015-10-05,1,,,,,,0
951,3140001034303,登記記録の閉鎖等,0,2024-01-29,2024-01-26,日本ＥＶ販売株式会社,,株式会社,兵庫県,神戸市中央区,脇浜町３丁目２番３６号,,28,110,6510072,,,2024-01-26,登記官による閉鎖,,,2015-10-05,1,,,,,,0
952,3140001040887,登記記録の閉鎖等,0,2024-01-29,2024-01-26,株式会社アーバンオート,,株式会社,兵庫県,丹波市,青垣町栗住野１９７番地の１,,28,223,6693802,,,2024-01-26,登記官による閉鎖,,,2015-10-05,1,,,,,,0
953,3140001054573,登記記録の閉鎖等,0,2024-01-29,2024-01-26,ＳＡＴＯ株式会社,,株式会社,兵庫県,尼崎市,大庄西町１丁目３８番２号,,28,202,6600077,,,2024-01-26,登記官による閉鎖,,,2015-10-05,1,,,,,,0
955,3140001069027,登記記録の閉鎖等,0,2024-01-29,2024-01-26,株式会社シン・ニシ,,株式会社,兵庫県,西宮市,津門大箇町４番３１号,,28,204,6638243,,,2024-01-26,登記官による閉鎖,,,2015-10-05,1,,,,,,0
956,3140001073400,登記記録の閉鎖等,0,2024-01-29,2024-01-26,ｅ・コミュニケーション株式会社,,株式会社,兵庫県,西宮市,田中町４番１０号,,28,204,6620973,,,2024-01-26,登記官による閉鎖,,,2015-10-05,1,,,,,,0
957,3140001077450,登記記録の閉鎖等,0,2024-01-29,2024-01-26,株式会社平藤,,株式会社,兵庫県,西脇市,西田町２１７番地,,28,213,6770003,,,2024-01-26,登記官による閉鎖,,,2015-10-05,1,,,,,,0
958,3140001079950,登記記録の閉鎖等,0,2024-01-29,2024-01-24,株式会社果楽土,,株式会社,兵庫県,川西市,東多田１丁目２５番１６号,,28,217,6660122,,,2024-01-24,清算の結了等,,,2015-10-05,1,,,,,カラット,0
970,3140002006243,登記記録の閉鎖等,0,2024-01-29,2024-01-26,有限会社辰巳,,有限会社,兵庫県,神戸市垂水区,桃山台１丁目１４番地の１６,,28,108,6550854,,,2024-01-26,登記官による閉鎖,,,2015-10-05,1,,,,,,0
971,3140002028832,登記記録の閉鎖等,0,2024-01-29,2024-01-26,有限会社後藤工業,,有限会社,兵庫県,明石市,魚住町清水９７１番地の３,,28,203,6740074,,,2024-01-26,登記官による閉鎖,,,2015-10-05,1,,,,,,0
972,3140002036736,登記記録の閉鎖等,0,2024-01-29,2024-01-26,有限会社メイコー技研,,有限会社,兵庫県,加古川市,平岡町新在家１５２３番地,,28,210,6750101,,,2024-01-26,登記官による閉鎖,,,2015-10-05,1,,,,,,0
975,3140002040283,登記記録の閉鎖等,0,2024-01-29,2024-01-26,有限会社オカショー,,有限会社,兵庫県,尼崎市,武庫之荘２丁目５番１７号,,28,202,6610035,,,2024-01-26,登記官による閉鎖,,,2015-10-05,1,,,,,,0
976,3140002049366,登記記録の閉鎖等,0,2024-01-29,2024-01-26,有限会社大道興産,,有限会社,兵庫県,姫路市,大塩町７８６番地,,28,201,6710101,,,2024-01-26,登記官による閉鎖,,,2015-10-05,1,,,,,,0
977,3140002056024,登記記録の閉鎖等,0,2024-01-29,2024-01-26,有限会社オフィス宥,,有限会社,兵庫県,西宮市,樋之池町１２番１５号,,28,204,6620084,,,2024-01-26,登記官による閉鎖,,,2015-10-05,1,,,,,,0
978,3140002066205,登記記録の閉鎖等,0,2024-01-29,2024-01-26,有限会社インフレックス,,有限会社,兵庫県,川西市,南野坂２丁目３１番地の３,,28,217,6660136,,,2024-01-26,登記官による閉鎖,,,2015-10-05,1,,,,,,0
979,3140002070867,登記記録の閉鎖等,0,2024-01-29,2024-01-26,三信建設有限会社,,有限会社,兵庫県,加古川市,別府町別府６９９番地の７,,28,210,6750122,,,2024-01-26,登記官による閉鎖,,,2018-12-20,1,,,,,サンシンケンセツ,0
984,3140005004806,登記記録の閉鎖等,0,2024-01-29,2024-01-26,特定非営利活動法人アジア交流支援ネットワーク,,その他の設立登記法人,兵庫県,神戸市中央区,中町通３丁目１番２４－１４０５号,,28,110,6500027,,,2024-01-26,登記官による閉鎖,,,2015-10-05,1,,,,,,0
985,3140005004847,登記記録の閉鎖等,0,2024-01-29,2024-01-26,特定非営利活動法人舞台芸術教育協会,,その他の設立登記法人,兵庫県,神戸市灘区,高徳町３丁目２番１１号,,28,102,6570025,,,2024-01-26,登記官による閉鎖,,,2015-10-05,1,,,,,,0
988,3140005018533,登記記録の閉鎖等,0,2024-01-29,2024-01-26,特定非営利活動法人ＡＬＩＶＥ,,その他の設立登記法人,兵庫県,川西市,美園町９番２１号,,28,217,6660013,,,2024-01-26,登記官による閉鎖,,,2015-10-05,1,,,,,,0
989,3140005024267,登記記録の閉鎖等,0,2024-01-29,2024-01-26,協同組合ロータリースーパーマーケツトチエーン,,その他の設立登記法人,兵庫県,豊岡市,中央町９番４１号,,28,209,6680033,,,2024-01-26,登記官による閉鎖,,,2018-09-19,1,,,,,ロータリースーパーマーケツトチエーン,0
993,3170001010516,登記記録の閉鎖等,0,2024-01-29,2024-01-26,株式会社Ａｄｖａｎｃｅ　Ｌｉｆｅ,,株式会社,和歌山県,日高郡由良町,大字里３２９番地の２,,30,383,6491111,,,2024-01-26,清算の結了等,,,2015-10-05,1,,,,,,0
1003,3200001017706,登記記録の閉鎖等,0,2024-01-29,2024-01-25,株式会社ピットサービス,,株式会社,岐阜県,可児市,下恵土６１４６番地,,21,214,5090203,,,2024-01-25,清算の結了等,,,2015-10-05,1,,,,,ピットサービス,0
1013,3230005009028,登記記録の閉鎖等,0,2024-01-29,2024-01-25,一般社団法人フードエキスポＨＯＫＵＲＩＫＵ協力会,,その他の設立登記法人,富山県,高岡市,二塚１９９番地１８,,16,202,9330816,,,2024-01-25,清算の結了等,,,2019-10-29,1,,,,,フードエキスポホクリクキョウリョクカイ,0
1016,3240001051486,登記記録の閉鎖等,0,2024-01-29,2024-01-22,株式会社藤榊電業,00110974,株式会社,広島県,広島市西区,中広町２丁目１７番２６号,,34,104,7330012,,,2024-01-22,清算の結了等,,,2017-08-02,1,,,,,フジサカデンギョウ,0
1028,3290001062248,登記記録の閉鎖等,0,2024-01-29,2024-01-24,株式会社ハンズ・オン,,株式会社,福岡県,福岡市早良区,賀茂２丁目２４番１７－１０６号,,40,137,8140164,,,2024-01-24,清算の結了等,,,2015-10-05,1,,,,,ハンズオン,0
1034,3290801018655,登記記録の閉鎖等,0,2024-01-29,2024-01-25,株式会社丸玉,,株式会社,福岡県,福岡市博多区,綱場町５番１９号テイクビル１Ｆ,,40,132,8120024,,,2024-01-25,清算の結了等,,,2015-10-05,1,,,,,マルタマ,0
1051,3370002000586,登記記録の閉鎖等,0,2024-01-29,2024-01-26,有限会社共和パーツ,,有限会社,宮城県,仙台市泉区,根白石字姥懐前下１番地の２,,04,105,9813221,,,2024-01-26,清算の結了等,,,2015-10-05,1,,,,,キョウワパーツ,0
1055,3380001019981,登記記録の閉鎖等,0,2024-01-29,2024-01-26,株式会社ＳＲＫ,,株式会社,福島県,いわき市,小名浜字芳浜１－２９,,07,204,9718101,,,2024-01-26,清算の結了等,,,2015-10-05,1,,,,,エスアールケイ,0
1057,3390002010864,登記記録の閉鎖等,0,2024-01-29,2024-01-25,有限会社白岩建築設計事務所,,有限会社,山形県,新庄市,下田町７番６号,,06,205,9960034,,,2024-01-25,清算の結了等,,,2015-10-05,1,,,,,シライワケンチクセッケイジムショ,0
1059,3420002003716,登記記録の閉鎖等,0,2024-01-29,2024-01-24,有限会社北田新聞店,,有限会社,青森県,東津軽郡外ヶ浜町,字平舘後田４１番地,,02,307,0301402,,,2024-01-24,清算の結了等,,,2015-10-05,1,,,,,キタダシンブンテン,0
1061,3430001051665,登記記録の閉鎖等,0,2024-01-29,2024-01-23,株式会社みなと総合保険,,株式会社,北海道,小樽市,豊川町３番２号,,01,203,0470043,,,2024-01-23,清算の結了等,,,2015-10-05,1,,,,,ミナトソウゴウホケン,0
1086,4010401116324,登記記録の閉鎖等,0,2024-01-29,2024-01-18,株式会社Ｆ２Ｆ,,株式会社,東京都,港区,高輪４丁目１９－１１,,13,103,1080074,,,2024-01-18,清算の結了等,,,2015-10-05,1,,,,,エフツーエフ,0
1089,4010402007316,登記記録の閉鎖等,0,2024-01-29,2024-01-17,有限会社アークビルド,,有限会社,東京都,港区,赤坂２丁目１０番１６号,,13,103,1070052,,,2024-01-17,清算の結了等,,,2015-10-05,1,,,,,アークビルド,0
1103,4010901029397,登記記録の閉鎖等,0,2024-01-29,2024-01-23,Ｋｅｎｓｗｏｒｔｈ株式会社,,株式会社,東京都,世田谷区,粕谷４丁目１５番２号,,13,112,1570063,,,2024-01-23,清算の結了等,,,2015-10-05,1,,,,,,0
1129,4011101080785,登記記録の閉鎖等,0,2024-01-29,2024-01-25,株式会社マリヤ,,株式会社,東京都,新宿区,新宿２丁目１４番１０号,,13,104,1600022,,,2024-01-25,清算の結了等,,,2017-06-14,1,,,,,マリヤ,0
1131,4011201012283,登記記録の閉鎖等,0,2024-01-29,2024-01-26,株式会社アット・ゼロフォー,,株式会社,東京都,中野区,東中野４丁目４番１号,,13,114,1640003,,,2024-01-26,清算の結了等,,,2015-10-05,1,,,,,アットゼロフォー,0
1137,4011503004598,登記記録の閉鎖等,0,2024-01-29,2024-01-22,合同会社きずな,,合同会社,埼玉県,川口市,並木１丁目１１－３矢口ビル２０１,,11,203,3320034,,,2024-01-22,清算の結了等,,,2020-12-08,1,,,,,キズナ,0
1140,4011602007452,登記記録の閉鎖等,0,2024-01-29,2024-01-25,有限会社長岡商店,,有限会社,東京都,練馬区,錦２丁目７番１１号,,13,120,1790082,,,2024-01-25,清算の結了等,,,2015-10-05,1,,,,,ナガオカショウテン,0
1160,4020002088573,登記記録の閉鎖等,0,2024-01-29,2024-01-24,有限会社喜久屋商店,,有限会社,神奈川県,川崎市高津区,久末３５番地,,14,134,2130026,,,2024-01-24,清算の結了等,,,2015-10-05,1,,,,,キクヤショウテン,0
1166,4021001036143,登記記録の閉鎖等,0,2024-01-29,2024-01-26,株式会社和泉屋,,株式会社,神奈川県,平塚市,袖ケ浜１６番６２－１０４号第３ヤマイチビル,,14,203,2540813,,,2024-01-26,清算の結了等,,,2015-10-05,1,,,,,イズミヤ,0
1172,4030001004786,登記記録の閉鎖等,0,2024-01-29,2024-01-29,株式会社創建,,株式会社,埼玉県,さいたま市大宮区,土手町１丁目２２８番地１,,11,103,3300801,,,2024-01-29,登記官による閉鎖,,,2015-10-05,1,,,,,,0
1173,4030001013457,登記記録の閉鎖等,0,2024-01-29,2024-01-29,株式会社アスメック,,株式会社,埼玉県,さいたま市南区,沼影１丁目１０番１号１９１０,,11,108,3360027,,,2024-01-29,登記官による閉鎖,,,2015-10-05,1,,,,,,0
1174,4030001014331,登記記録の閉鎖等,0,2024-01-29,2024-01-29,エムズデザイン株式会社,,株式会社,埼玉県,さいたま市浦和区,常盤３丁目８番１９号新田第１０ビル３０２号室,,11,107,3300061,,,2024-01-29,登記官による閉鎖,,,2015-10-05,1,,,,,,0
1175,4030001015635,登記記録の閉鎖等,0,2024-01-29,2024-01-29,日本印刷株式会社,,株式会社,埼玉県,さいたま市北区,櫛引町２丁目２３０番地２,,11,102,3310825,,,2024-01-29,登記官による閉鎖,,,2015-10-05,1,,,,,,0
1176,4030001016121,登記記録の閉鎖等,0,2024-01-29,2024-01-29,株式会社ＳｙｎｃｈｒｏＮｉｓｔｙ,,株式会社,埼玉県,さいたま市大宮区,桜木町４丁目２４４番地２,,11,103,3300854,,,2024-01-29,登記官による閉鎖,,,2015-10-05,1,,,,,,0
1177,4030001019272,登記記録の閉鎖等,0,2024-01-29,2024-01-29,株式会社冷凍エンジニアリング,,株式会社,埼玉県,蓮田市,西新宿３丁目９１番地２,,11,238,3490141,,,2024-01-29,登記官による閉鎖,,,2015-10-05,1,,,,,,0
1178,4030001039031,登記記録の閉鎖等,0,2024-01-29,2024-01-29,株式会社イエスコーポレーション,,株式会社,埼玉県,草加市,草加４丁目３番２３号,,11,221,3400043,,,2024-01-29,登記官による閉鎖,,,2015-10-05,1,,,,,,0
1180,4030001047876,登記記録の閉鎖等,0,2024-01-29,2024-01-29,株式会社豊栄運輸,,株式会社,埼玉県,和光市,中央２丁目５番２９号,,11,229,3510113,,,2024-01-29,登記官による閉鎖,,,2015-10-05,1,,,,,,0
1182,4030001059954,登記記録の閉鎖等,0,2024-01-29,2024-01-29,川高商亊株式会社,00015056,株式会社,埼玉県,川越市,大字下広谷５１９番地８,,11,201,3500804,,,2024-01-29,登記官による閉鎖,,,2015-10-05,1,,,,,,0
1183,4030001060367,登記記録の閉鎖等,0,2024-01-29,2024-01-22,株式会社ビジネスサポート,,株式会社,埼玉県,本庄市,五十子３丁目６番１７号,,11,211,3670027,,,2024-01-22,清算の結了等,,,2015-10-05,1,,,,,ビジネスサポート,0
1184,4030001070498,登記記録の閉鎖等,0,2024-01-29,2024-01-29,株式会社健康館,,株式会社,埼玉県,鶴ヶ島市,大字鶴ヶ丘８５９番地,,11,241,3502204,,,2024-01-29,登記官による閉鎖,,,2015-10-05,1,,,,,,0
1185,4030001070663,登記記録の閉鎖等,0,2024-01-29,2024-01-29,株式会社クラウンネット,,株式会社,埼玉県,坂戸市,千代田１丁目６番２号,,11,239,3500214,,,2024-01-29,登記官による閉鎖,,,2015-10-05,1,,,,,,0
1186,4030001072148,登記記録の閉鎖等,0,2024-01-29,2024-01-29,株式会社比企コーポレーション,,株式会社,埼玉県,比企郡ときがわ町,大字玉川１６９２番地３,,11,349,3550342,,,2024-01-29,登記官による閉鎖,,,2015-10-05,1,,,,,,0
1187,4030001075646,登記記録の閉鎖等,0,2024-01-29,2024-01-29,株式会社セカンド・ベーシック,,株式会社,埼玉県,川口市,東領家３丁目１６番６号,,11,203,3320003,,,2024-01-29,登記官による閉鎖,,,2015-10-05,1,,,,,,0
1188,4030001076157,登記記録の閉鎖等,0,2024-01-29,2024-01-29,株式会社テレフォンサービス,,株式会社,埼玉県,川口市,芝新町１５番２４号,,11,203,3330851,,,2024-01-29,登記官による閉鎖,,,2015-10-05,1,,,,,,0
1189,4030001076347,登記記録の閉鎖等,0,2024-01-29,2024-01-29,特殊金属株式会社,,株式会社,埼玉県,川口市,赤井２丁目１４番２１号,,11,203,3340073,,,2024-01-29,登記官による閉鎖,,,2015-10-05,1,,,,,,0
1190,4030001081396,登記記録の閉鎖等,0,2024-01-29,2024-01-29,株式会社ラマンドシャ,,株式会社,埼玉県,川口市,芝新町１２番２７－７０２号サンハイツ平成,,11,203,3330851,,,2024-01-29,登記官による閉鎖,,,2015-10-05,1,,,,,,0
1191,4030001086668,登記記録の閉鎖等,0,2024-01-29,2024-01-29,株式会社イノデン,,株式会社,埼玉県,行田市,大字野１４１番地,,11,206,3610026,,,2024-01-29,登記官による閉鎖,,,2015-10-05,1,,,,,,0
1192,4030001090125,登記記録の閉鎖等,0,2024-01-29,2024-01-29,株式会社祐,,株式会社,埼玉県,飯能市,柳町６番１１号松田ビル１Ｆ,,11,209,3570035,,,2024-01-29,登記官による閉鎖,,,2015-10-05,1,,,,,,0
1193,4030001091783,登記記録の閉鎖等,0,2024-01-29,2024-01-29,株式会社Ｇーｓｐａｃｅ,,株式会社,埼玉県,さいたま市南区,別所５丁目１５番２号,,11,108,3360021,,,2024-01-29,登記官による閉鎖,,,2015-10-05,1,,,,,,0
1194,4030001096147,登記記録の閉鎖等,0,2024-01-29,2024-01-29,荒井造園土木株式会社,,株式会社,埼玉県,ふじみ野市,鶴ケ舞１丁目１５番１８号,,11,245,3560041,,,2024-01-29,登記官による閉鎖,,,2015-10-05,1,,,,,,0
1195,4030001098168,登記記録の閉鎖等,0,2024-01-29,2024-01-29,株式会社ファミリーハウス,,株式会社,埼玉県,川口市,大字榛松４３３番地の５６,,11,203,3340062,,,2024-01-29,登記官による閉鎖,,,2015-10-05,1,,,,,,0
1196,4030001098622,登記記録の閉鎖等,0,2024-01-29,2024-01-29,株式会社三立工業,,株式会社,埼玉県,ふじみ野市,南台２丁目１２番１号,,11,245,3560036,,,2024-01-29,登記官による閉鎖,,,2015-10-05,1,,,,,,0
1199,4030002002467,登記記録の閉鎖等,0,2024-01-29,2024-01-29,有限会社エムアンドイープランニング,,有限会社,埼玉県,さいたま市大宮区,北袋町２丁目２３番地,,11,103,3300835,,,2024-01-29,登記官による閉鎖,,,2015-10-05,1,,,,,,0
1200,4030002007648,登記記録の閉鎖等,0,2024-01-29,2024-01-29,セイリョウ産業有限会社,00016020,有限会社,埼玉県,さいたま市南区,沼影１丁目３６番９号,,11,108,3360027,,,2024-01-29,登記官による閉鎖,,,2015-10-05,1,,,,,,0
1201,4030002007813,登記記録の閉鎖等,0,2024-01-29,2024-01-29,有限会社セキグチ,,有限会社,埼玉県,さいたま市北区,東大成町１丁目５５９番地,,11,102,3310814,,,2024-01-29,登記官による閉鎖,,,2015-10-05,1,,,,,,0
1202,4030002013431,登記記録の閉鎖等,0,2024-01-29,2024-01-29,有限会社室井建築,,有限会社,埼玉県,さいたま市浦和区,駒場１丁目１０番４号,,11,107,3300051,,,2024-01-29,登記官による閉鎖,,,2015-10-05,1,,,,,,0
1204,4030002030229,登記記録の閉鎖等,0,2024-01-29,2024-01-29,有限会社蔦八,,有限会社,埼玉県,所沢市,大字久米１９１０番地,,11,208,3591131,,,2024-01-29,登記官による閉鎖,,,2015-10-05,1,,,,,,0
1205,4030002032209,登記記録の閉鎖等,0,2024-01-29,2024-01-29,有限会社今村,,有限会社,埼玉県,所沢市,小手指町２丁目７番地の７,,11,208,3591141,,,2024-01-29,登記官による閉鎖,,,2015-10-05,1,,,,,,0
1206,4030002036481,登記記録の閉鎖等,0,2024-01-29,2024-01-29,有限会社設備企画設計,,有限会社,埼玉県,入間市,春日町２丁目１４番１１－５０６号,,11,225,3580006,,,2024-01-29,登記官による閉鎖,,,2015-10-05,1,,,,,,0
1207,4030002037315,登記記録の閉鎖等,0,2024-01-29,2024-01-29,有限会社クローバー,,有限会社,埼玉県,狭山市,中央４丁目２９番６号,,11,215,3501308,,,2024-01-29,登記官による閉鎖,,,2015-10-05,1,,,,,,0
1208,4030002037653,登記記録の閉鎖等,0,2024-01-29,2024-01-29,有限会社ヘパケア,,有限会社,埼玉県,所沢市,大字山口５０１９番地の１（３２－２－４０１）,,11,208,3591145,,,2024-01-29,登記官による閉鎖,,,2015-10-05,1,,,,,,0
1209,4030002039204,登記記録の閉鎖等,0,2024-01-29,2024-01-29,有限会社鶴峯,,有限会社,埼玉県,久喜市,八甫１５０３番地,,11,232,3400201,,,2024-01-29,登記官による閉鎖,,,2015-10-05,1,,,,,,0
1210,4030002041250,登記記録の閉鎖等,0,2024-01-29,2024-01-29,有限会社武井組,,有限会社,埼玉県,加須市,上樋遣川５０２０番地,00016560,11,210,3470003,,,2024-01-29,登記官による閉鎖,,,2015-10-05,1,,,,,,0
1211,4030002056488,登記記録の閉鎖等,0,2024-01-29,2024-01-29,有限会社ワイ・エス・シー伊奈北部,,有限会社,埼玉県,北足立郡伊奈町,大字小針新宿３４３番地,,11,301,3620808,,,2024-01-29,登記官による閉鎖,,,2015-10-05,1,,,,,,0
1212,4030002057577,登記記録の閉鎖等,0,2024-01-29,2024-01-29,第一運輸有限会社,,有限会社,埼玉県,上尾市,大字地頭方４６３番地７,,11,219,3620051,,,2024-01-29,登記官による閉鎖,,,2015-10-05,1,,,,,,0
1213,4030002073145,登記記録の閉鎖等,0,2024-01-29,2024-01-29,有限会社ケイ・エス・テイー,,有限会社,埼玉県,川越市,的場１丁目２０番地１５,,11,201,3501101,,,2024-01-29,登記官による閉鎖,,,2015-10-05,1,,,,,,0
1214,4030002090149,登記記録の閉鎖等,0,2024-01-29,2024-01-29,有限会社さいのきや,,有限会社,埼玉県,吉川市,大字保４９１番地５,,11,243,3420041,,,2024-01-29,登記官による閉鎖,,,2015-10-05,1,,,,,,0
1215,4030002098811,登記記録の閉鎖等,0,2024-01-29,2024-01-29,有限会社協和電設工業,,有限会社,埼玉県,川口市,南鳩ヶ谷５丁目２３番１号,,11,203,3340013,,,2024-01-29,登記官による閉鎖,,,2015-10-05,1,,,,,,0
1216,4030002098877,登記記録の閉鎖等,0,2024-01-29,2024-01-29,有限会社向陽工建,,有限会社,埼玉県,川口市,大字辻８９４番地の９,00017536,11,203,3340004,,,2024-01-29,登記官による閉鎖,,,2015-10-05,1,,,,,,0
1217,4030002098893,登記記録の閉鎖等,0,2024-01-29,2024-01-29,有限会社児玉精機,,有限会社,埼玉県,川口市,八幡木３丁目２番地の９,,11,203,3340012,,,2024-01-29,登記官による閉鎖,,,2015-10-05,1,,,,,,0
1218,4030002101665,登記記録の閉鎖等,0,2024-01-29,2024-01-29,有限会社加藤特殊鋼,,有限会社,埼玉県,川口市,本町２丁目８番１４号,,11,203,3320012,,,2024-01-29,登記官による閉鎖,,,2015-10-05,1,,,,,,0
1219,4030002115005,登記記録の閉鎖等,0,2024-01-29,2024-01-29,有限会社かすみ,,有限会社,埼玉県,熊谷市,銀座１丁目１９番地,,11,202,3600032,,,2024-01-29,登記官による閉鎖,,,2015-10-05,1,,,,,,0
1220,4030002121688,登記記録の閉鎖等,0,2024-01-29,2024-01-29,有限会社福増商店,,有限会社,埼玉県,秩父市,熊木町２０番１５号,,11,207,3680032,,,2024-01-29,登記官による閉鎖,,,2015-10-05,1,,,,,,0
1221,4030002123354,登記記録の閉鎖等,0,2024-01-29,2024-01-29,有限会社高橋商店,,有限会社,埼玉県,行田市,佐間３丁目１２番３７号,,11,206,3610032,,,2024-01-29,登記官による閉鎖,,,2015-10-05,1,,,,,,0
1222,4030003004009,登記記録の閉鎖等,0,2024-01-29,2024-01-29,合名会社第一鋳造所,,合名会社,埼玉県,川口市,本町４丁目１番６号,,11,203,3320012,,,2024-01-29,登記官による閉鎖,,,2015-10-05,1,,,,,,0
1223,4030003004173,登記記録の閉鎖等,0,2024-01-29,2024-01-29,合同会社アイリ,,合同会社,埼玉県,川口市,芝５丁目３番１８号,,11,203,3330866,,,2024-01-29,登記官による閉鎖,,,2015-10-05,1,,,,,,0
1226,4030005003058,登記記録の閉鎖等,0,2024-01-29,2024-01-29,協同組合バリアエリヤホーム,,その他の設立登記法人,埼玉県,戸田市,上戸田５丁目１９番４号,,11,224,3350022,,,2024-01-29,登記官による閉鎖,,,2015-10-05,1,,,,,,0
1227,4030005007307,登記記録の閉鎖等,0,2024-01-29,2024-01-29,特定非営利活動法人ハーモニー,,その他の設立登記法人,埼玉県,朝霞市,西弁財１丁目１番６号,,11,227,3510021,,,2024-01-29,登記官による閉鎖,,,2015-10-05,1,,,,,,0
1231,4040001107935,登記記録の閉鎖等,0,2024-01-29,2024-01-19,株式会社ＨＪＫ,,株式会社,千葉県,長生郡一宮町,新地３２番地１０,,12,421,2994314,,,2024-01-19,清算の結了等,,,2019-02-07,1,,,,,エイチジェイケイ,0
1238,4050001012564,登記記録の閉鎖等,0,2024-01-29,2024-01-26,茨城米穀株式会社,,株式会社,茨城県,土浦市,宍塚３３０番地８,,08,203,3000805,,,2024-01-26,登記官による閉鎖,,,2015-10-05,1,,,,,イバラキベイコク,0
1239,4050001015204,登記記録の閉鎖等,0,2024-01-29,2024-01-26,株式会社高津,,株式会社,茨城県,土浦市,天川１丁目２番１４号,,08,203,3000818,,,2024-01-26,登記官による閉鎖,,,2015-10-05,1,,,,,,0
1240,4050001017142,登記記録の閉鎖等,0,2024-01-29,2024-01-26,株式会社ちゃんてぃっく,,株式会社,茨城県,つくば市,松代４丁目９番地３３,,08,220,3050035,,,2024-01-26,登記官による閉鎖,,,2015-10-05,1,,,,,,0
1241,4050001020988,登記記録の閉鎖等,0,2024-01-29,2024-01-26,株式会社高木物産,,株式会社,茨城県,神栖市,波崎５２７９番地,,08,232,3140408,,,2024-01-26,登記官による閉鎖,,,2018-10-31,1,,,,,タカギブッサン,0
1242,4050001044483,登記記録の閉鎖等,0,2024-01-29,2024-01-26,株式会社大栄商事,,株式会社,茨城県,土浦市,中央２丁目９番１９号,,08,203,3000043,,,2024-01-26,登記官による閉鎖,,,2018-06-05,1,,,,,ダイエイショウジ,0
1243,4050002007019,登記記録の閉鎖等,0,2024-01-29,2024-01-26,有限会社反町組,,有限会社,茨城県,那珂郡東海村,白方中央１丁目１０番２１号,,08,341,3191109,,,2024-01-26,登記官による閉鎖,,,2015-10-05,1,,,,,,0
1244,4050002008314,登記記録の閉鎖等,0,2024-01-29,2024-01-26,有限会社共和建材,,有限会社,茨城県,ひたちなか市,笹野町１丁目１６番５号,,08,221,3120018,,,2024-01-26,登記官による閉鎖,,,2015-10-05,1,,,,,,0
1245,4050002010559,登記記録の閉鎖等,0,2024-01-29,2024-01-26,有限会社小磯工務店,,有限会社,茨城県,笠間市,安居３１４４番地の１９５,,08,216,3190206,,,2024-01-26,登記官による閉鎖,,,2015-10-05,1,,,,,,0
1246,4050002013917,登記記録の閉鎖等,0,2024-01-29,2024-01-26,有限会社山口美装,,有限会社,茨城県,土浦市,沖宿町１４９０番地,,08,203,3000023,,,2024-01-26,登記官による閉鎖,,,2018-03-12,1,,,,,,0
1247,4050002014642,登記記録の閉鎖等,0,2024-01-29,2024-01-26,有限会社デジコム,,有限会社,茨城県,笠間市,大橋１７１６番地１,,08,216,3091601,,,2024-01-26,登記官による閉鎖,,,2015-10-05,1,,,,,,0
1248,4050002018874,登記記録の閉鎖等,0,2024-01-29,2024-01-26,有限会社中屋住建,,有限会社,茨城県,坂東市,沓掛１５２２番地の１,,08,228,3060515,,,2024-01-26,登記官による閉鎖,,,2015-10-05,1,,,,,,0
1249,4050002020962,登記記録の閉鎖等,0,2024-01-29,2024-01-26,有限会社大山商事,,有限会社,茨城県,つくば市,上横場２０００番地の１０,,08,220,3050854,,,2024-01-26,登記官による閉鎖,,,2015-10-05,1,,,,,,0
1250,4050002021738,登記記録の閉鎖等,0,2024-01-29,2024-01-26,メロスジャパン有限会社,,有限会社,茨城県,つくば市,栗原３３４１番地６,,08,220,3050001,,,2024-01-26,登記官による閉鎖,,,2015-10-05,1,,,,,,0
1252,4050002025342,登記記録の閉鎖等,0,2024-01-29,2024-01-26,アーネストテクノサービス有限会社,,有限会社,茨城県,古河市,関戸１８５１番１,,08,204,3060205,,,2024-01-26,登記官による閉鎖,,,2015-10-05,1,,,,,,0
1253,4050002026241,登記記録の閉鎖等,0,2024-01-29,2024-01-26,有限会社石井組,,有限会社,茨城県,鹿嶋市,大字下塙１１１８番地１,,08,222,3140025,,,2024-01-26,登記官による閉鎖,,,2015-10-05,1,,,,,,0
1254,4050002028700,登記記録の閉鎖等,0,2024-01-29,2024-01-26,有限会社アートインテリアサカキ,,有限会社,茨城県,行方市,麻生３３９４番地２４,,08,233,3113832,,,2024-01-26,登記官による閉鎖,,,2015-10-05,1,,,,,,0
1255,4050002035580,登記記録の閉鎖等,0,2024-01-29,2024-01-26,有限会社カネシチ,,有限会社,茨城県,常陸大宮市,家和楽２９７番地,,08,225,3193103,,,2024-01-26,登記官による閉鎖,,,2015-10-05,1,,,,,,0
1256,4050002043641,登記記録の閉鎖等,0,2024-01-29,2024-01-26,有限会社いわつき装飾,,有限会社,茨城県,筑西市,関本下１７７７番地の６,,08,227,3080127,,,2024-01-26,登記官による閉鎖,,,2015-10-05,1,,,,,,0
1258,4050005004046,登記記録の閉鎖等,0,2024-01-29,2024-01-26,特定非営利活動法人心歩きの杜,,その他の設立登記法人,茨城県,土浦市,富士崎１丁目４番２６号鈴木第２ビル３０１号室,,08,203,3000813,,,2024-01-26,登記官による閉鎖,,,2015-10-05,1,,,,,,0
1259,4050005005507,登記記録の閉鎖等,0,2024-01-29,2024-01-26,特定非営利活動法人一杖,,その他の設立登記法人,茨城県,つくば市,天久保４丁目７－２プルミエ・ロジュマン１０６号室,,08,220,3050005,,,2024-01-26,登記官による閉鎖,,,2015-10-05,1,,,,,,0
1260,4050005008105,登記記録の閉鎖等,0,2024-01-29,2024-01-26,特定非営利活動法人稲敷ＩＴ推進会,,その他の設立登記法人,茨城県,稲敷市,柴崎５０９番地３,,08,229,3001412,,,2024-01-26,登記官による閉鎖,,,2015-10-05,1,,,,,,0
1266,4070002001481,登記記録の閉鎖等,0,2024-01-29,2024-01-24,樺沢設備有限会社,,有限会社,群馬県,前橋市,富士見町石井１４４番地,,10,201,3710105,,,2024-01-24,清算の結了等,,,2015-10-05,1,,,,,カバサワセツビ,0
1273,4100002018480,登記記録の閉鎖等,0,2024-01-29,2024-01-23,有限会社北志賀ライムライト,,有限会社,長野県,下高井郡山ノ内町,大字夜間瀬７１０２番地１,,20,561,3810405,,,2024-01-23,清算の結了等,,,2015-10-05,1,,,,,キタシガライムライト,0
1274,4110002020221,登記記録の閉鎖等,0,2024-01-29,2024-01-25,有限会社石口工業,,有限会社,新潟県,柏崎市,大字畔屋２４２番地１,,15,205,9450112,,,2024-01-25,清算の結了等,,,2015-10-05,1,,,,,イシグチコウギョウ,0
1295,4130001042025,登記記録の閉鎖等,0,2024-01-29,2024-01-24,株式会社生技研,,株式会社,京都府,綾部市,上延町前田３番地の１１,,26,203,6230043,,,2024-01-24,清算の結了等,,,2015-10-05,1,,,,,セイギケン,0
1301,4140001016003,登記記録の閉鎖等,0,2024-01-29,2024-01-26,株式会社くわの洋品店,,株式会社,兵庫県,神戸市長田区,日吉町６丁目１番１号,,28,106,6530039,,,2024-01-26,登記官による閉鎖,,,2015-10-05,1,,,,,,0
1302,4140001032173,登記記録の閉鎖等,0,2024-01-29,2024-01-26,株式会社Ｅｃｏ　Ｒｉｎｇ．ｉｚｅ,,株式会社,兵庫県,神戸市灘区,深田町３丁目１番１５号ライオンズマンション六甲道第三１階,,28,102,6570038,,,2024-01-26,登記官による閉鎖,,,2015-10-05,1,,,,,,0
1303,4140001032396,登記記録の閉鎖等,0,2024-01-29,2024-01-26,株式会社伍光苑,,株式会社,兵庫県,神戸市中央区,磯辺通１丁目１番１８,,28,110,6510084,,,2024-01-26,登記官による閉鎖,,,2015-10-05,1,,,,,,0
1305,4140001037453,登記記録の閉鎖等,0,2024-01-29,2024-01-26,株式会社モバテックサービス,,株式会社,兵庫県,明石市,大久保町大窪９０７－２,,28,203,6740051,,,2024-01-26,登記官による閉鎖,,,2015-10-05,1,,,,,,0
1306,4140001038253,登記記録の閉鎖等,0,2024-01-29,2024-01-26,株式会社有元呉服店,,株式会社,兵庫県,たつの市,龍野町川原町１６５番地,,28,229,6794166,,,2024-01-26,登記官による閉鎖,,,2015-10-05,1,,,,,,0
1308,4140001048954,登記記録の閉鎖等,0,2024-01-29,2024-01-26,株式会社ケイテック,,株式会社,兵庫県,尼崎市,東園田町３丁目２２番地の５３,,28,202,6610953,,,2024-01-26,登記官による閉鎖,,,2015-10-05,1,,,,,,0
1309,4140001052064,登記記録の閉鎖等,0,2024-01-29,2024-01-26,日東ポリマー工業株式会社,,株式会社,兵庫県,尼崎市,潮江１丁目２０番１号,,28,202,6610976,,,2024-01-26,登記官による閉鎖,,,2015-10-05,1,,,,,,0
1310,4140001057914,登記記録の閉鎖等,0,2024-01-29,2024-01-26,株式会社ウッドジャパン,,株式会社,兵庫県,姫路市,西庄甲３５０番地,,28,201,6700981,,,2024-01-26,登記官による閉鎖,,,2015-10-05,1,,,,,,0
1311,4140001068408,登記記録の閉鎖等,0,2024-01-29,2024-01-26,株式会社河村工務店,,株式会社,兵庫県,西宮市,上ケ原六番町１番１５号,,28,204,6620896,,,2024-01-26,登記官による閉鎖,,,2015-10-05,1,,,,,,0
1312,4140001073333,登記記録の閉鎖等,0,2024-01-29,2024-01-26,平成リネンサプライ株式会社,,株式会社,兵庫県,西宮市,笠屋町９番２３号,,28,204,6638136,,,2024-01-26,登記官による閉鎖,,,2015-10-05,1,,,,,,0
1314,4140001081468,登記記録の閉鎖等,0,2024-01-29,2024-01-26,株式会社厚生会,,株式会社,兵庫県,宝塚市,伊孑志３丁目１４番４８号,,28,214,6650033,,,2024-01-26,登記官による閉鎖,,,2015-10-05,1,,,,,,0
1315,4140001086483,登記記録の閉鎖等,0,2024-01-29,2024-01-26,株式会社ディープラス,,株式会社,兵庫県,西宮市,甲陽園若江町７番９号,,28,204,6620016,,,2024-01-26,登記官による閉鎖,,,2015-10-05,1,,,,,,0
1316,4140001086921,登記記録の閉鎖等,0,2024-01-29,2024-01-26,株式会社グリーンラベル,,株式会社,兵庫県,姫路市,車崎１丁目１７３６番地３,,28,201,6700058,,,2024-01-26,登記官による閉鎖,,,2015-10-05,1,,,,,,0
1317,4140001088298,登記記録の閉鎖等,0,2024-01-29,2024-01-26,株式会社福田,,株式会社,兵庫県,神戸市中央区,琴ノ緒町２丁目３番５,,28,110,6510094,,,2024-01-26,登記官による閉鎖,,,2015-10-05,1,,,,,,0
1318,4140001089156,登記記録の閉鎖等,0,2024-01-29,2024-01-26,関西菓子協同配送株式会社,,株式会社,兵庫県,西宮市,西平町１４番２２号,,28,204,6620093,,,2024-01-26,登記官による閉鎖,,,2015-10-05,1,,,,,,0
1326,4140002004106,登記記録の閉鎖等,0,2024-01-29,2024-01-26,有限会社アンペックス,,有限会社,兵庫県,神戸市西区,北山台３丁目１５番２２号,,28,111,6512215,,,2024-01-26,登記官による閉鎖,,,2015-10-05,1,,,,,,0
1327,4140002016472,登記記録の閉鎖等,0,2024-01-29,2024-01-26,有限会社ラカーズメイツ,,有限会社,兵庫県,神戸市中央区,熊内橋通１丁目５番３号,,28,110,6510055,,,2024-01-26,登記官による閉鎖,,,2015-10-05,1,,,,,,0
1329,4140002027602,登記記録の閉鎖等,0,2024-01-29,2024-01-26,有限会社優翔建設,,有限会社,兵庫県,神戸市垂水区,舞子坂４丁目１０番１９号,,28,108,6550044,,,2024-01-26,登記官による閉鎖,,,2015-10-05,1,,,,,,0
1331,4140002040530,登記記録の閉鎖等,0,2024-01-29,2024-01-26,有限会社近畿企画,,有限会社,兵庫県,尼崎市,東園田町９丁目１８番地の５,,28,202,6610953,,,2024-01-26,登記官による閉鎖,,,2015-10-05,1,,,,,,0
1332,4140002046825,登記記録の閉鎖等,0,2024-01-29,2024-01-26,有限会社ヌマタ,,有限会社,兵庫県,美方郡新温泉町,七釜６８８番地,,28,586,6696741,,,2024-01-26,登記官による閉鎖,,,2015-10-05,1,,,,,,0
1333,4140002047030,登記記録の閉鎖等,0,2024-01-29,2024-01-26,有限会社奥田鉄筋工作所,,有限会社,兵庫県,美方郡新温泉町,福富３７８番地の１,,28,586,6696732,,,2024-01-26,登記官による閉鎖,,,2015-10-05,1,,,,,,0
1335,4140002063845,登記記録の閉鎖等,0,2024-01-29,2024-01-26,有限会社仁宮通信設備,,有限会社,兵庫県,伊丹市,寺本３丁目１９４番地スワンハイム昆陽４１８号,,28,207,6640026,,,2024-01-26,登記官による閉鎖,,,2015-10-05,1,,,,,,0
1336,4140002064661,登記記録の閉鎖等,0,2024-01-29,2024-01-26,有限会社トーエイアド,,有限会社,兵庫県,川西市,南花屋敷１丁目９番１４号,,28,217,6660026,,,2024-01-26,登記官による閉鎖,,,2015-10-05,1,,,,,,0
1337,4140005004458,登記記録の閉鎖等,0,2024-01-29,2024-01-26,特定非営利活動法人エメファミーユＫＯＢＥ,,その他の設立登記法人,兵庫県,神戸市中央区,下山手通２丁目５番１３号斉藤ビル１Ｆ,,28,110,6500011,,,2024-01-26,登記官による閉鎖,,,2015-10-05,1,,,,,,0
1338,4140005005794,登記記録の閉鎖等,0,2024-01-29,2024-01-26,財団法人浄行寺愛児園,,その他の設立登記法人,兵庫県,明石市,材木町９番１９号,,28,203,6730893,,,2024-01-26,登記官による閉鎖,,,2015-10-05,1,,,,,,0
1356,4190001024653,登記記録の閉鎖等,0,2024-01-29,2024-01-25,株式会社林建築,,株式会社,三重県,志摩市,阿児町甲賀１８０３番地,,24,215,5170505,,,2024-01-25,清算の結了等,,,2017-05-16,1,,,,,ハヤシケンチク,0
1360,4230002009871,登記記録の閉鎖等,0,2024-01-29,2024-01-24,有限会社スカイ,,有限会社,富山県,南砺市,野田５１番地の１,,16,210,9391842,,,2024-01-24,清算の結了等,,,2015-10-05,1,,,,,スカイ,0
1401,4470001006219,登記記録の閉鎖等,0,2024-01-29,2024-01-25,株式会社ＡＢＬＥ,,株式会社,香川県,高松市,松縄町１０２２－４,,37,201,7600079,,,2024-01-25,清算の結了等,,,2015-10-05,1,,,,,エイブル,0
1427,5010005028163,登記記録の閉鎖等,0,2024-01-29,2024-01-24,一般社団法人ハローストレージファンド,,その他の設立登記法人,東京都,千代田区,平河町１丁目６番１５号シルスフィア会計事務所内,,13,101,1020093,,,2024-01-24,清算の結了等,,,2018-02-23,1,,,,,ハローストレージファンド,0
1429,5010401086649,登記記録の閉鎖等,0,2024-01-29,2024-01-29,株式会社ＫＩパートナーズ,,株式会社,埼玉県,川越市,脇田本町１０番地１７伊勢原７番館２０２,,11,201,3501123,,,2024-01-29,登記官による閉鎖,,,2015-10-05,1,,,,,,0
1433,5010403020531,登記記録の閉鎖等,0,2024-01-29,2024-01-17,ＨＥＬＰＩＯ合同会社,,合同会社,東京都,港区,浜松町２丁目２番１５号,,13,103,1050013,,,2024-01-17,清算の結了等,,,2019-04-11,1,,,,,ヘルピオ,0
1441,5010902009133,登記記録の閉鎖等,0,2024-01-29,2024-01-23,有限会社大東電設,,有限会社,東京都,世田谷区,経堂１丁目１０番１号,,13,112,1560052,,,2024-01-23,清算の結了等,,,2015-10-05,1,,,,,ダイトウデンセツ,0
1449,5011101097358,登記記録の閉鎖等,0,2024-01-29,2024-01-17,株式会社Ｇｅｎｅｒａｌｉｓｔ,,株式会社,東京都,新宿区,西新宿３丁目３番１３号西新宿水間ビル６階,,13,104,1600023,,,2024-01-17,清算の結了等,,,2022-01-04,1,,,,,ジェネラリスト,0
1456,5011103005574,登記記録の閉鎖等,0,2024-01-29,2024-01-26,オートコールリサーチ合同会社,,合同会社,東京都,新宿区,新宿２丁目１２番１３号,,13,104,1600022,,,2024-01-26,清算の結了等,,,2015-10-05,1,,,,,オートコールリサーチ,0
1474,5020001065135,登記記録の閉鎖等,0,2024-01-29,2024-01-25,北関東工業株式会社,,株式会社,神奈川県,川崎市麻生区,細山８丁目１番１８号,,14,137,2150001,,,2024-01-25,清算の結了等,,,2015-10-05,1,,,,,キタカントウコウギョウ,0
1485,5030001017969,登記記録の閉鎖等,0,2024-01-29,2024-01-29,株式会社鈴木土木工業,,株式会社,埼玉県,さいたま市岩槻区,大字表慈恩寺１２９２番地２,,11,110,3390008,,,2024-01-29,登記官による閉鎖,,,2015-10-05,1,,,,,,0
1486,5030001019115,登記記録の閉鎖等,0,2024-01-29,2024-01-29,和コーポレーション株式会社,,株式会社,埼玉県,さいたま市岩槻区,諏訪４丁目１番地の４,,11,110,3390007,,,2024-01-29,登記官による閉鎖,,,2015-10-05,1,,,,,,0
1487,5030001025352,登記記録の閉鎖等,0,2024-01-29,2024-01-29,渡辺工業株式会社,,株式会社,埼玉県,所沢市,大字久米３８２番地,,11,208,3591131,,,2024-01-29,登記官による閉鎖,,,2015-10-05,1,,,,,,0
1488,5030001029436,登記記録の閉鎖等,0,2024-01-29,2024-01-29,株式会社スタジオレイ,,株式会社,埼玉県,所沢市,大字上安松１７７番地の１,,11,208,3590025,,,2024-01-29,登記官による閉鎖,,,2015-10-05,1,,,,,,0
1489,5030001031540,登記記録の閉鎖等,0,2024-01-29,2024-01-29,松吉急送株式会社,,株式会社,埼玉県,幸手市,香日向２丁目２１番１１号,,11,240,3400164,,,2024-01-29,登記官による閉鎖,,,2015-10-05,1,,,,,,0
1490,5030001037983,登記記録の閉鎖等,0,2024-01-29,2024-01-29,日栄紙器工業株式会社,,株式会社,埼玉県,八潮市,中央４丁目９番地１６,,11,234,3400816,,,2024-01-29,登記官による閉鎖,,,2015-10-05,1,,,,,,0
1491,5030001043346,登記記録の閉鎖等,0,2024-01-29,2024-01-29,株式会社ジャイロピープル,,株式会社,埼玉県,上尾市,緑丘２丁目１２番２７号,,11,219,3620015,,,2024-01-29,登記官による閉鎖,,,2015-10-05,1,,,,,,0
1492,5030001046464,登記記録の閉鎖等,0,2024-01-29,2024-01-29,株式会社澤田設備,,株式会社,埼玉県,富士見市,大字鶴馬１１１５番地１４,,11,235,3540021,,,2024-01-29,登記官による閉鎖,,,2015-10-05,1,,,,,,0
1493,5030001050334,登記記録の閉鎖等,0,2024-01-29,2024-01-29,株式会社かすや石産,,株式会社,埼玉県,富士見市,大字水子４７０４番地１０,,11,235,3540011,,,2024-01-29,登記官による閉鎖,,,2015-10-05,1,,,,,,0
1494,5030001052438,登記記録の閉鎖等,0,2024-01-29,2024-01-29,株式会社見‐ＲＡＫＵる,,株式会社,埼玉県,春日部市,上柳６３６番地,,11,214,3440121,,,2024-01-29,登記官による閉鎖,,,2015-10-05,1,,,,,,0
1495,5030001053683,登記記録の閉鎖等,0,2024-01-29,2024-01-29,株式会社ＢＨＡＲＩ　ＩＮＴＥＲＮＡＴＩＯＮＡＬ,,株式会社,埼玉県,春日部市,栄町１丁目２１５番地,,11,214,3440058,,,2024-01-29,登記官による閉鎖,,,2015-10-05,1,,,,,,0
1497,5030001062528,登記記録の閉鎖等,0,2024-01-29,2024-01-29,株式会社伸和,,株式会社,埼玉県,鴻巣市,吹上本町２丁目１０番１９号,,11,217,3690115,,,2024-01-29,登記官による閉鎖,,,2015-10-05,1,,,,,,0
1498,5030001065142,登記記録の閉鎖等,0,2024-01-29,2024-01-29,東京ラッセル株式会社,,株式会社,埼玉県,越谷市,瓦曽根２丁目６番１２号,,11,222,3430821,,,2024-01-29,登記官による閉鎖,,,2015-10-05,1,,,,,,0
1499,5030001077360,登記記録の閉鎖等,0,2024-01-29,2024-01-29,三鈴精工株式会社,,株式会社,埼玉県,川口市,原町３番２号,,11,203,3320025,,,2024-01-29,登記官による閉鎖,,,2015-10-05,1,,,,,,0
1500,5030001082229,登記記録の閉鎖等,0,2024-01-29,2024-01-29,ＳＣレヂデンス株式会社,,株式会社,埼玉県,川口市,並木２丁目１３番１号,,11,203,3320034,,,2024-01-29,登記官による閉鎖,,,2015-10-05,1,,,,,,0
1501,5030001083474,登記記録の閉鎖等,0,2024-01-29,2024-01-29,株式会社マークスイン西川口,,株式会社,埼玉県,川口市,並木３丁目１８番５号,,11,203,3320034,,,2024-01-29,登記官による閉鎖,,,2015-10-05,1,,,,,,0
1502,5030001092343,登記記録の閉鎖等,0,2024-01-29,2024-01-29,株式会社ＫＥＮ,,株式会社,埼玉県,新座市,栗原５丁目４番２－３０４号,,11,230,3520035,,,2024-01-29,登記官による閉鎖,,,2015-10-05,1,,,,,,0
1503,5030001092723,登記記録の閉鎖等,0,2024-01-29,2024-01-29,株式会社神奈川食品デリバリーサービス,,株式会社,埼玉県,さいたま市北区,宮原町１丁目１４４番地グランディール大宮８０７号,,11,102,3310812,,,2024-01-29,登記官による閉鎖,,,2015-10-05,1,,,,,,0
1510,5030002007275,登記記録の閉鎖等,0,2024-01-29,2024-01-29,有限会社鈴恵測量設計,,有限会社,埼玉県,さいたま市緑区,馬場１丁目３９番地１,,11,109,3360912,,,2024-01-29,登記官による閉鎖,,,2015-10-05,1,,,,,,0
1511,5030002020410,登記記録の閉鎖等,0,2024-01-29,2024-01-29,有限会社アイティーオー企画,,有限会社,埼玉県,さいたま市南区,南浦和２丁目４０番１号第２愛興ビル２Ｆ,,11,108,3360017,,,2024-01-29,登記官による閉鎖,,,2015-10-05,1,,,,,,0
1512,5030002020633,登記記録の閉鎖等,0,2024-01-29,2024-01-29,有限会社岩槻乳販,,有限会社,埼玉県,さいたま市岩槻区,日の出町１番４９号,,11,110,3390064,,,2024-01-29,登記官による閉鎖,,,2015-10-05,1,,,,,,0
1513,5030002024808,登記記録の閉鎖等,0,2024-01-29,2024-01-29,有限会社東陽自動車工業,,有限会社,埼玉県,戸田市,美女木４丁目７番地の３,,11,224,3350031,,,2024-01-29,登記官による閉鎖,,,2015-10-05,1,,,,,,0
1514,5030002025764,登記記録の閉鎖等,0,2024-01-29,2024-01-29,有限会社岡安商店,,有限会社,埼玉県,蕨市,中央７丁目４番１８号,,11,223,3350004,,,2024-01-29,登記官による閉鎖,,,2015-10-05,1,,,,,,0
1515,5030002025772,登記記録の閉鎖等,0,2024-01-29,2024-01-29,有限会社奥田製作所,,有限会社,埼玉県,蕨市,錦町６丁目９番５号,,11,223,3350005,,,2024-01-29,登記官による閉鎖,,,2015-10-05,1,,,,,,0
1516,5030002030681,登記記録の閉鎖等,0,2024-01-29,2024-01-29,有限会社万代観光,,有限会社,埼玉県,所沢市,松葉町１６番４号,,11,208,3590044,,,2024-01-29,登記官による閉鎖,,,2015-10-05,1,,,,,,0
1517,5030002033635,登記記録の閉鎖等,0,2024-01-29,2024-01-29,有限会社こまつ企画,,有限会社,埼玉県,狭山市,大字水野９４６番地,,11,215,3501317,,,2024-01-29,登記官による閉鎖,,,2015-10-05,1,,,,,,0
1518,5030002038411,登記記録の閉鎖等,0,2024-01-29,2024-01-29,有限会社ムラカミ設計,,有限会社,埼玉県,久喜市,栗原２丁目５番地１３,,11,232,3460012,,,2024-01-29,登記官による閉鎖,,,2015-10-05,1,,,,,,0
1519,5030002040136,登記記録の閉鎖等,0,2024-01-29,2024-01-29,有限会社タニウチ,,有限会社,埼玉県,幸手市,北１丁目１４番２７号ニューエルディム前田１０１,,11,240,3400111,,,2024-01-29,登記官による閉鎖,,,2015-10-05,1,,,,,,0
1520,5030002044070,登記記録の閉鎖等,0,2024-01-29,2024-01-29,有限会社興洋社,,有限会社,埼玉県,草加市,高砂１丁目１１番２４号,,11,221,3400015,,,2024-01-29,登記官による閉鎖,,,2015-10-05,1,,,,,,0
1521,5030002047461,登記記録の閉鎖等,0,2024-01-29,2024-01-29,有限会社つるや,,有限会社,埼玉県,八潮市,大字鶴ケ曽根１９０２番地,,11,234,3400802,,,2024-01-29,登記官による閉鎖,,,2015-10-05,1,,,,,,0
1522,5030002056025,登記記録の閉鎖等,0,2024-01-29,2024-01-29,有限会社平井商店,,有限会社,埼玉県,桶川市,大字小針領家２９５番地１,,11,231,3630007,,,2024-01-29,登記官による閉鎖,,,2015-10-05,1,,,,,,0
1523,5030002062948,登記記録の閉鎖等,0,2024-01-29,2024-01-29,有限会社割烹はなぶさ,,有限会社,埼玉県,富士見市,西みずほ台３丁目３番地１５,,11,235,3540018,,,2024-01-29,登記官による閉鎖,,,2015-10-05,1,,,,,,0
1524,5030002080693,登記記録の閉鎖等,0,2024-01-29,2024-01-29,有限会社須賀製作所,,有限会社,埼玉県,本庄市,都島５７０番地４５,,11,211,3670073,,,2024-01-29,登記官による閉鎖,,,2015-10-05,1,,,,,,0
1525,5030002086229,登記記録の閉鎖等,0,2024-01-29,2024-01-29,有限会社三通,,有限会社,埼玉県,越谷市,南越谷５丁目３番地１４,,11,222,3430845,,,2024-01-29,登記官による閉鎖,,,2015-10-05,1,,,,,,0
1526,5030002090370,登記記録の閉鎖等,0,2024-01-29,2024-01-29,有限会社津南塗装工業所,,有限会社,埼玉県,吉川市,大字小松川６７０番地５,,11,243,3420043,,,2024-01-29,登記官による閉鎖,,,2015-10-05,1,,,,,,0
1527,5030002095700,登記記録の閉鎖等,0,2024-01-29,2024-01-29,有限会社金子酸素,,有限会社,埼玉県,東松山市,松葉町３丁目１２番５０号,,11,212,3550017,,,2024-01-29,登記官による閉鎖,,,2015-10-05,1,,,,,,0
1528,5030002097738,登記記録の閉鎖等,0,2024-01-29,2024-01-29,有限会社武井左官,,有限会社,埼玉県,比企郡嵐山町,大字志賀２０８番地２,,11,342,3550214,,,2024-01-29,登記官による閉鎖,,,2015-10-05,1,,,,,,0
1529,5030002099949,登記記録の閉鎖等,0,2024-01-29,2024-01-29,有限会社足利鉄工所,,有限会社,埼玉県,川口市,東領家４丁目１８番１号,,11,203,3320003,,,2024-01-29,登記官による閉鎖,,,2015-10-05,1,,,,,,0
1530,5030002110459,登記記録の閉鎖等,0,2024-01-29,2024-01-29,有限会社ワコークリエイト,,有限会社,埼玉県,川口市,上青木５丁目４番２７号,,11,203,3330844,,,2024-01-29,登記官による閉鎖,,,2015-10-05,1,,,,,,0
1531,5030002111044,登記記録の閉鎖等,0,2024-01-29,2024-01-29,有限会社ハッスル,,有限会社,埼玉県,川口市,元郷２丁目１番１－８１０号,,11,203,3320011,,,2024-01-29,登記官による閉鎖,,,2015-10-05,1,,,,,,0
1532,5030002113544,登記記録の閉鎖等,0,2024-01-29,2024-01-29,有限会社菅原工業,,有限会社,埼玉県,熊谷市,新堀新田４６４番地２,,11,202,3600842,,,2024-01-29,登記官による閉鎖,,,2015-10-05,1,,,,,,0
1533,5030002114633,登記記録の閉鎖等,0,2024-01-29,2024-01-29,有限会社ダイヤパッケージ,,有限会社,埼玉県,熊谷市,妻沼１６３９番地２,,11,202,3600201,,,2024-01-29,登記官による閉鎖,,,2015-10-05,1,,,,,,0
1535,5030002122223,登記記録の閉鎖等,0,2024-01-29,2024-01-29,有限会社煙草商事,,有限会社,埼玉県,秩父郡皆野町,大字皆野９５２番地３,,11,362,3691412,,,2024-01-29,登記官による閉鎖,,,2015-10-05,1,,,,,,0
1536,5030002122512,登記記録の閉鎖等,0,2024-01-29,2024-01-29,有限会社山中建築,,有限会社,埼玉県,秩父市,大滝１５０４番地,,11,207,3691901,,,2024-01-29,登記官による閉鎖,,,2015-10-05,1,,,,,,0
1537,5030003004420,登記記録の閉鎖等,0,2024-01-29,2024-01-29,合同会社アシスト,,合同会社,埼玉県,和光市,白子２丁目２５番１－１３０４号,,11,229,3510101,,,2024-01-29,登記官による閉鎖,,,2015-10-05,1,,,,,,0
1540,5030005002091,登記記録の閉鎖等,0,2024-01-29,2024-01-29,特定非営利活動法人幸興友会,,その他の設立登記法人,埼玉県,さいたま市見沼区,大字南中野６８１番地７下家ビル２階,,11,104,3370042,,,2024-01-29,登記官による閉鎖,,,2015-10-05,1,,,,,,0
1541,5030005006027,登記記録の閉鎖等,0,2024-01-29,2024-01-29,医療法人慈愛会,,その他の設立登記法人,埼玉県,三郷市,早稲田２丁目１８番地６森ビル３０２号,,11,237,3410018,,,2024-01-29,登記官による閉鎖,,,2015-10-05,1,,,,,,0
1542,5030005009558,登記記録の閉鎖等,0,2024-01-29,2024-01-29,特定非営利活動法人彩の国エコロジーセンター,,その他の設立登記法人,埼玉県,児玉郡上里町,大字神保原町５２２番地４,,11,385,3690305,,,2024-01-29,登記官による閉鎖,,,2015-10-05,1,,,,,,0
1543,5030005012594,登記記録の閉鎖等,0,2024-01-29,2024-01-29,特定非営利活動法人　介護サークルほのぼの,,その他の設立登記法人,埼玉県,川口市,北原台１丁目２６番２２－３０２号　むさし野第１１ダイヤモンドマンション,,11,203,3330815,,,2024-01-29,登記官による閉鎖,,,2015-10-05,1,,,,,,0
1544,5030005013485,登記記録の閉鎖等,0,2024-01-29,2024-01-29,企業組合ビル＆ホーム・サービス,,その他の設立登記法人,埼玉県,行田市,富士見町１丁目１番地３,,11,206,3610021,,,2024-01-29,登記官による閉鎖,,,2015-10-05,1,,,,,,0
1554,5040002033064,登記記録の閉鎖等,0,2024-01-29,2024-01-18,有限会社小倉工業,,有限会社,千葉県,鎌ケ谷市,佐津間１０４７番地６,,12,224,2730136,,,2024-01-18,清算の結了等,,,2015-10-05,1,,,,,オグラコウギョウ,0
1556,5050001001921,登記記録の閉鎖等,0,2024-01-29,2024-01-26,日進建設株式会社,,株式会社,茨城県,水戸市,赤塚２丁目２０１９番地の３０,,08,201,3114141,,,2024-01-26,登記官による閉鎖,,,2015-10-05,1,,,,,,0
1557,5050001008768,登記記録の閉鎖等,0,2024-01-29,2024-01-26,山口コーポレーション株式会社,,株式会社,茨城県,水戸市,双葉台４丁目５９８番地１,,08,201,3114145,,,2024-01-26,登記官による閉鎖,,,2015-10-05,1,,,,,,0
1558,5050001011689,登記記録の閉鎖等,0,2024-01-29,2024-01-26,株式会社司高喜,00022061,株式会社,茨城県,石岡市,東光台２丁目８番２号,,08,205,3150033,,,2024-01-26,登記官による閉鎖,,,2015-10-05,1,,,,,,0
1559,5050001022802,登記記録の閉鎖等,0,2024-01-29,2024-01-26,株式会社Ｎ・Ｈコーポレーション,,株式会社,茨城県,鉾田市,鉾田１２３３番地６,,08,234,3111517,,,2024-01-26,登記官による閉鎖,,,2015-10-05,1,,,,,,0
1560,5050001024559,登記記録の閉鎖等,0,2024-01-29,2024-01-26,株式会社北見総合コンサルタント,,株式会社,茨城県,日立市,東多賀町４丁目１０番２８号,,08,202,3160004,,,2024-01-26,登記官による閉鎖,,,2015-10-05,1,,,,,,0
1562,5050001041653,登記記録の閉鎖等,0,2024-01-29,2024-01-26,日本建機株式会社,,株式会社,茨城県,笠間市,笠間４８９番地４,,08,216,3091611,,,2024-01-26,登記官による閉鎖,,,2016-09-30,1,,,,,ニホンケンキ,0
1568,5050002000261,登記記録の閉鎖等,0,2024-01-29,2024-01-26,有限会社茨城ビルケア,00022530,有限会社,茨城県,水戸市,住吉町１９３番地の３１,,08,201,3100844,,,2024-01-26,登記官による閉鎖,,,2015-10-05,1,,,,,,0
1569,5050002000716,登記記録の閉鎖等,0,2024-01-29,2024-01-26,有限会社オヌキ,,有限会社,茨城県,水戸市,大塚町１８５７番地の３,,08,201,3114143,,,2024-01-26,登記官による閉鎖,,,2015-10-05,1,,,,,,0
1570,5050002002836,登記記録の閉鎖等,0,2024-01-29,2024-01-26,有限会社船藤,,有限会社,茨城県,水戸市,白梅１丁目３番１６号,,08,201,3100804,,,2024-01-26,登記官による閉鎖,,,2015-10-05,1,,,,,,0
1571,5050002003165,登記記録の閉鎖等,0,2024-01-29,2024-01-26,有限会社メルヘンロード,,有限会社,茨城県,水戸市,堀町１１３３番地の３５,,08,201,3100903,,,2024-01-26,登記官による閉鎖,,,2015-10-05,1,,,,,,0
1572,5050002003999,登記記録の閉鎖等,0,2024-01-29,2024-01-25,有限会社光和電設,,有限会社,茨城県,水戸市,田島町４１１番地,,08,201,3190301,,,2024-01-25,清算の結了等,,,2015-10-05,1,,,,,コウワデンセツ,0
1575,5050002006837,登記記録の閉鎖等,0,2024-01-29,2024-01-26,和田設備工業有限会社,,有限会社,茨城県,那珂市,瓜連１３５１番地,,08,226,3192102,,,2024-01-26,登記官による閉鎖,,,2015-10-05,1,,,,,,0
1576,5050002021464,登記記録の閉鎖等,0,2024-01-29,2024-01-26,有限会社修文,,有限会社,茨城県,つくば市,花畑３丁目２１番地１４,,08,220,3003261,,,2024-01-26,登記官による閉鎖,,,2015-10-05,1,,,,,,0
1577,5050002023196,登記記録の閉鎖等,0,2024-01-29,2024-01-26,有限会社洋光,,有限会社,茨城県,つくば市,高見原５丁目４番地１２,,08,220,3001252,,,2024-01-26,登記官による閉鎖,,,2015-10-05,1,,,,,,0
1578,5050002023543,登記記録の閉鎖等,0,2024-01-29,2024-01-26,有限会社南小池,,有限会社,茨城県,つくば市,小野崎１３６番地,,08,220,3050034,,,2024-01-26,登記官による閉鎖,,,2015-10-05,1,,,,,,0
1579,5050002026331,登記記録の閉鎖等,0,2024-01-29,2024-01-26,有限会社河原商事,,有限会社,茨城県,鹿嶋市,大字平井１１２８番地の２０,,08,222,3140012,,,2024-01-26,登記官による閉鎖,,,2015-10-05,1,,,,,,0
1580,5050002027511,登記記録の閉鎖等,0,2024-01-29,2024-01-26,みどりリース有限会社,,有限会社,茨城県,神栖市,日川３５０８番地１,,08,232,3140114,,,2024-01-26,登記官による閉鎖,,,2015-10-05,1,,,,,,0
1581,5050002035803,登記記録の閉鎖等,0,2024-01-29,2024-01-26,有限会社湊屋,,有限会社,茨城県,常陸大宮市,田子内町３１９９番地９,,08,225,3192256,,,2024-01-26,登記官による閉鎖,,,2015-10-05,1,,,,,,0
1582,5050002036801,登記記録の閉鎖等,0,2024-01-29,2024-01-26,有限会社天城建設,,有限会社,茨城県,守谷市,野木崎１３１６番地,,08,224,3020117,,,2024-01-26,登記官による閉鎖,,,2015-10-05,1,,,,,,0
1583,5050002036875,登記記録の閉鎖等,0,2024-01-29,2024-01-26,有限会社大木建設,,有限会社,茨城県,守谷市,高野１６６９番地,,08,224,3020125,,,2024-01-26,登記官による閉鎖,,,2015-10-05,1,,,,,,0
1584,5050002041743,登記記録の閉鎖等,0,2024-01-29,2024-01-26,有限会社浅岡運輸,,有限会社,茨城県,筑西市,小川２６２番地の２,,08,227,3080857,,,2024-01-26,登記官による閉鎖,,,2015-10-05,1,,,,,アサオカウンユ,0
1585,5050002043987,登記記録の閉鎖等,0,2024-01-29,2024-01-26,有限会社オサカタモータース,,有限会社,茨城県,桜川市,長方１００６番地の１,,08,231,3091222,,,2024-01-26,登記官による閉鎖,,,2015-10-05,1,,,,,,0
1586,5050002045661,登記記録の閉鎖等,0,2024-01-29,2024-01-26,有限会社鈴木マーブル工業,,有限会社,茨城県,常陸太田市,藤田町１０９１番地,,08,212,3130048,,,2024-01-26,登記官による閉鎖,,,2018-09-05,1,,,,,スズキマーブルコウギョウ,0
1587,5050003002570,登記記録の閉鎖等,0,2024-01-29,2024-01-26,佐川合名会社,,合名会社,茨城県,常陸太田市,大中町１５７２番地,,08,212,3110505,,,2024-01-26,登記官による閉鎖,,,2015-10-05,1,,,,,,0
1589,5050005002908,登記記録の閉鎖等,0,2024-01-29,2024-01-26,財団法人手野大正共励社,,その他の設立登記法人,茨城県,土浦市,手野町２０５８番地,,08,203,3000025,,,2024-01-26,登記官による閉鎖,,,2015-10-05,1,,,,,,0
1590,5050005003591,登記記録の閉鎖等,0,2024-01-29,2024-01-26,医療法人社団千寿会,,その他の設立登記法人,茨城県,石岡市,石岡１３４４６番地６,,08,205,3150001,,,2024-01-26,登記官による閉鎖,,,2015-10-05,1,,,,,,0
1591,5050005007510,登記記録の閉鎖等,0,2024-01-29,2024-01-26,特定非営利活動法人助六会,,その他の設立登記法人,茨城県,日立市,鹿島町１丁目１１番１４号２階２０２号室,,08,202,3170071,,,2024-01-26,登記官による閉鎖,,,2015-10-05,1,,,,,,0
1624,5120901002763,登記記録の閉鎖等,0,2024-01-29,2024-01-25,株式会社ＣＯＲＴＥＸ－Ｍ,,株式会社,大阪府,吹田市,千里丘下１１番１６号,,27,205,5650813,,,2024-01-25,清算の結了等,,,2015-10-05,1,,,,,コーテックスエム,0
1631,5140001008511,登記記録の閉鎖等,0,2024-01-29,2024-01-26,株式会社秀和住研,,株式会社,兵庫県,神戸市中央区,布引町４丁目３番１３号,,28,110,6510097,,,2024-01-26,登記官による閉鎖,,,2018-03-15,1,,,,,,0
1632,5140001024715,登記記録の閉鎖等,0,2024-01-29,2024-01-26,共同企画株式会社,,株式会社,兵庫県,神戸市北区,菖蒲が丘２丁目８番地の２,,28,109,6511306,,,2024-01-26,登記官による閉鎖,,,2015-10-05,1,,,,,,0
1635,5140001033633,登記記録の閉鎖等,0,2024-01-29,2024-01-26,農業法人淡河の里株式会社,,株式会社,兵庫県,神戸市北区,淡河町神影９４１番地の２０,,28,109,6511621,,,2024-01-26,登記官による閉鎖,,,2015-10-05,1,,,,,,0
1640,5140001045067,登記記録の閉鎖等,0,2024-01-29,2024-01-26,鴻池建設株式会社,,株式会社,兵庫県,加古川市,東神吉町神吉８２１番地,,28,210,6750057,,,2024-01-26,登記官による閉鎖,,,2015-10-05,1,,,,,コウノイケケンセツ,0
1642,5140001058333,登記記録の閉鎖等,0,2024-01-29,2024-01-26,株式会社カツラ自動車販売,,株式会社,兵庫県,姫路市,保城４５６番地の６,,28,201,6700804,,,2024-01-26,登記官による閉鎖,,,2015-10-05,1,,,,,,0
1643,5140001058597,登記記録の閉鎖等,0,2024-01-29,2024-01-26,株式会社クリエート開発,,株式会社,兵庫県,姫路市,御立西２丁目６番１９号,,28,201,6700074,,,2024-01-26,登記官による閉鎖,,,2015-10-05,1,,,,,,0
1644,5140001070379,登記記録の閉鎖等,0,2024-01-29,2024-01-26,株式会社増村,,株式会社,兵庫県,西宮市,屋敷町１５番１号,,28,204,6620963,,,2024-01-26,登記官による閉鎖,,,2015-10-05,1,,,,,,0
1645,5140001072268,登記記録の閉鎖等,0,2024-01-29,2024-01-26,株式会社ホームヘルパーステーション西宮,,株式会社,兵庫県,西宮市,和上町５番２９－３０２号,,28,204,6620971,,,2024-01-26,登記官による閉鎖,,,2015-10-05,1,,,,,,0
1646,5140001081327,登記記録の閉鎖等,0,2024-01-29,2024-01-26,関西興産株式会社,,株式会社,兵庫県,宝塚市,中野町６番６号,,28,214,6650056,,,2024-01-26,登記官による閉鎖,,,2015-10-05,1,,,,,,0
1647,5140001088900,登記記録の閉鎖等,0,2024-01-29,2024-01-26,株式会社ｅｂａｉｎ　ｊａｐａｎ,,株式会社,兵庫県,姫路市,東延末１丁目３８番地,,28,201,6700965,,,2024-01-26,登記官による閉鎖,,,2015-10-05,1,,,,,,0
1648,5140001089592,登記記録の閉鎖等,0,2024-01-29,2024-01-26,株式会社理ズム,,株式会社,兵庫県,明石市,太寺４丁目７番２８号,,28,203,6730845,,,2024-01-26,登記官による閉鎖,,,2015-10-05,1,,,,,,0
1652,5140002000062,登記記録の閉鎖等,0,2024-01-29,2024-01-26,有限会社アンシャンテ,,有限会社,兵庫県,芦屋市,大原町１２番１６号サンライズ芦屋２０２号,00040360,28,206,6590092,,,2024-01-26,登記官による閉鎖,,,2015-10-05,1,,,,,,0
1653,5140002010185,登記記録の閉鎖等,0,2024-01-29,2024-01-26,チャイ・コーポレーション有限会社,,有限会社,兵庫県,神戸市北区,日の峰１丁目１３番地の１３,,28,109,6511233,,,2024-01-26,登記官による閉鎖,,,2015-10-05,1,,,,,,0
1654,5140002022585,登記記録の閉鎖等,0,2024-01-29,2024-01-26,有限会社アキックス,,有限会社,兵庫県,神戸市垂水区,塩屋町６丁目３４番５－５０７号,,28,108,6550872,,,2024-01-26,登記官による閉鎖,,,2015-10-05,1,,,,,,0
1656,5140002033566,登記記録の閉鎖等,0,2024-01-29,2024-01-26,有限会社尼子工業,,有限会社,兵庫県,赤穂市,高雄１７４８番地,,28,212,6780163,,,2024-01-26,登記官による閉鎖,,,2015-10-05,1,,,,,,0
1657,5140002047145,登記記録の閉鎖等,0,2024-01-29,2024-01-26,有限会社アオキ綜合企画,,有限会社,兵庫県,姫路市,田寺山手町６番７号,,28,201,6700082,,,2024-01-26,登記官による閉鎖,,,2015-10-05,1,,,,,,0
1658,5140002053473,登記記録の閉鎖等,0,2024-01-29,2024-01-26,有限会社ＴＯＵＣＨ,,有限会社,兵庫県,姫路市,南町５５,,28,201,6700912,,,2024-01-26,登記官による閉鎖,,,2015-10-05,1,,,,,,0
1659,5140002054579,登記記録の閉鎖等,0,2024-01-29,2024-01-26,有限会社岸本金物店,,有限会社,兵庫県,三田市,南が丘１丁目１番１９号,,28,219,6691535,,,2024-01-26,登記官による閉鎖,,,2015-10-05,1,,,,,,0
1661,5140002062235,登記記録の閉鎖等,0,2024-01-29,2024-01-23,有限会社エム・ツーワン設計事務所,,有限会社,兵庫県,加西市,北条町古坂２丁目１２４番地,,28,220,6752303,,,2024-01-23,清算の結了等,,,2015-10-05,1,,,,,エムツーワンセッケイジムショ,0
1662,5140003006141,登記記録の閉鎖等,0,2024-01-29,2024-01-26,合資会社古谷豆腐店,,合資会社,兵庫県,丹波市,氷上町成松４４０番地の２,,28,223,6693601,,,2024-01-26,登記官による閉鎖,,,2015-10-05,1,,,,,,0
1663,5140005004655,登記記録の閉鎖等,0,2024-01-29,2024-01-26,特定非営利活動法人みなと神戸・ミューズの丘,,その他の設立登記法人,兵庫県,神戸市中央区,山本通２丁目２－２レジデンス明信５０１,,28,110,6500003,,,2024-01-26,登記官による閉鎖,,,2015-10-05,1,,,,,,0
1664,5140005011676,登記記録の閉鎖等,0,2024-01-29,2024-01-26,特定非営利活動法人あまっ子みらいっ子,,その他の設立登記法人,兵庫県,尼崎市,東大物町２丁目３番１０号,,28,202,6600828,,,2024-01-26,登記官による閉鎖,,,2015-10-05,1,,,,,,0
1665,5140005018465,登記記録の閉鎖等,0,2024-01-29,2024-01-26,特定非営利活動法人虹,,その他の設立登記法人,兵庫県,川西市,大和西１丁目５番３号,,28,217,6660112,,,2024-01-26,登記官による閉鎖,,,2015-10-05,1,,,,,,0
1666,5140005019422,登記記録の閉鎖等,0,2024-01-29,2024-01-26,特定非営利活動法人観光立島淡路島,,その他の設立登記法人,兵庫県,洲本市,小路谷１０５３番地の１６,,28,205,6560023,,,2024-01-26,登記官による閉鎖,,,2015-10-05,1,,,,,,0
1667,5140005020553,登記記録の閉鎖等,0,2024-01-29,2024-01-26,特定非営利活動法人葬儀費用を見直そう会,,その他の設立登記法人,兵庫県,神戸市垂水区,下畑町字内入田７７９番地の１ドミール・シモハタ３０１号,,28,108,6550861,,,2024-01-26,登記官による閉鎖,,,2015-10-05,1,,,,,,0
1684,5180002067866,登記記録の閉鎖等,0,2024-01-29,2024-01-22,有限会社愛電設備設計室,,有限会社,愛知県,春日井市,出川町１８４９番地の２１,,23,206,4870025,,,2024-01-22,清算の結了等,,,2015-10-05,1,,,,,アイデンセツビセッケイ,0
1685,5180303004444,登記記録の閉鎖等,0,2024-01-29,2024-01-09,合同会社アプリコット,,合同会社,愛知県,豊橋市,梅薮町字上屋敷３１番地,,23,201,4410155,,,2024-01-09,合併による解散等,8180301031157,令和５年１２月３１日愛知県豊橋市梅薮町字上屋敷３１番地株式会社梅園（8180301031157）に合併し解散,2019-10-09,1,,,,,アプリコット,0
1719,5320005003507,登記記録の閉鎖等,0,2024-01-29,2024-01-23,大徳寺,00097152,その他の設立登記法人,大分県,宇佐市,大字金丸１３２４番地,,44,211,8791128,,,2024-01-23,清算の結了等,,,2015-10-05,1,,,,,,0
1738,5370002002382,登記記録の閉鎖等,0,2024-01-29,2024-01-26,有限会社イトウ印刷,,有限会社,宮城県,仙台市太白区,長町２丁目１１番４号,,04,104,9820011,,,2024-01-26,清算の結了等,,,2015-10-05,1,,,,,イトウインサツ,0
1758,6010001065795,登記記録の閉鎖等,0,2024-01-29,2024-01-23,株式会社青山ガーデン,,株式会社,東京都,港区,西麻布４丁目２２番８号麻布ポイント３０２号室,,13,103,1060031,,,2024-01-23,合併による解散等,2170001005748,令和６年１月１２日和歌山県海南市阪井４８９番地株式会社タカショー（2170001005748）に合併し解散,2015-10-05,1,,,,,アオヤマガーデン,0
1780,6010401160592,登記記録の閉鎖等,0,2024-01-29,2024-01-18,四季ドクターラボ株式会社,,株式会社,東京都,港区,六本木５丁目１４番１９号,,13,103,1060032,,,2024-01-18,清算の結了等,,,2021-06-07,1,,,,,シキドクターラボ,0
1786,6010701024638,登記記録の閉鎖等,0,2024-01-29,2024-01-23,株式会社ドライクローネ,,株式会社,東京都,品川区,大井６丁目１７番４号,,13,109,1400014,,,2024-01-23,清算の結了等,,,2015-10-05,1,,,,,,0
1789,6010901025221,登記記録の閉鎖等,0,2024-01-29,2024-01-29,株式会社デイリーサポート,,株式会社,埼玉県,越谷市,越ヶ谷５丁目４番５６－４０７号,,11,222,3430813,,,2024-01-29,登記官による閉鎖,,,2015-10-05,1,,,,,,0
1793,6011001126752,登記記録の閉鎖等,0,2024-01-29,2024-01-26,株式会社ＦＡＭＩＬＩＡ,,株式会社,東京都,新宿区,四谷三栄町１５番６号オグラビル３０１号,,13,104,1600008,,,2024-01-26,清算の結了等,,,2019-02-27,1,,,,,ファミリア,0
1809,6011302009243,登記記録の閉鎖等,0,2024-01-29,2024-01-19,有限会社恵企画,,有限会社,東京都,杉並区,阿佐谷北２丁目１３番１６号小林ビル１階,,13,115,1660001,,,2024-01-19,清算の結了等,,,2015-10-05,1,,,,,,0
1824,6020001042505,登記記録の閉鎖等,0,2024-01-29,2024-01-23,株式会社ワイ・シー・エス,,株式会社,東京都,大田区,平和島５丁目２番２８号,,13,111,1430006,,,2024-01-23,清算の結了等,,,2015-10-05,1,,,,,ワイシーエス,0
1830,6021002004205,登記記録の閉鎖等,0,2024-01-29,2024-01-26,有限会社福井塗料,,有限会社,神奈川県,藤沢市,柄沢１丁目３１番地の３０,,14,205,2510003,,,2024-01-26,清算の結了等,,,2015-10-05,1,,,,,フクイトリョウ,0
1833,6030001010114,登記記録の閉鎖等,0,2024-01-29,2024-01-29,株式会社イーテック,,株式会社,埼玉県,さいたま市大宮区,吉敷町１丁目１０８番地９ー４０３,,11,103,3300843,,,2024-01-29,登記官による閉鎖,,,2015-10-05,1,,,,,,0
1834,6030001015063,登記記録の閉鎖等,0,2024-01-29,2024-01-29,アジリンク・インターナショナル株式会社,,株式会社,埼玉県,さいたま市大宮区,桜木町２丁目３８９番地,,11,103,3300854,,,2024-01-29,登記官による閉鎖,,,2015-10-05,1,,,,,,0
1835,6030001023248,登記記録の閉鎖等,0,2024-01-29,2024-01-29,株式会社アクティブ,,株式会社,埼玉県,さいたま市南区,別所５丁目１５番２号,,11,108,3360021,,,2024-01-29,登記官による閉鎖,,,2015-10-05,1,,,,,,0
1836,6030001023330,登記記録の閉鎖等,0,2024-01-29,2024-01-29,株式会社ジェイロード,,株式会社,埼玉県,蓮田市,関山２丁目９番１号,,11,238,3490121,,,2024-01-29,登記官による閉鎖,,,2015-10-05,1,,,,,,0
1837,6030001028511,登記記録の閉鎖等,0,2024-01-29,2024-01-29,株式会社トータルサービス,,株式会社,埼玉県,所沢市,金山町８番９－１５０５号リーデンススクエア所沢,,11,208,3591128,,,2024-01-29,登記官による閉鎖,,,2015-10-05,1,,,,,,0
1838,6030001035284,登記記録の閉鎖等,0,2024-01-29,2024-01-29,株式会社ティディワイケイ,,株式会社,埼玉県,草加市,谷塚町１５１８番地,,11,221,3400023,,,2024-01-29,登記官による閉鎖,,,2015-10-05,1,,,,,,0
1839,6030001045473,登記記録の閉鎖等,0,2024-01-29,2024-01-29,株式会社北東電工,,株式会社,埼玉県,志木市,中宗岡２丁目１４番２４号,,11,228,3530002,,,2024-01-29,登記官による閉鎖,,,2015-10-05,1,,,,,,0
1841,6030001074621,登記記録の閉鎖等,0,2024-01-29,2024-01-29,株式会社グループ,,株式会社,埼玉県,川口市,領家２丁目１２番１１号,,11,203,3320004,,,2024-01-29,登記官による閉鎖,,,2015-10-05,1,,,,,,0
1842,6030001079513,登記記録の閉鎖等,0,2024-01-29,2024-01-29,聖玄会株式会社,,株式会社,埼玉県,川口市,芝新町１２－３０－５,,11,203,3330851,,,2024-01-29,登記官による閉鎖,,,2015-10-05,1,,,,,,0
1843,6030001096343,登記記録の閉鎖等,0,2024-01-29,2024-01-29,株式会社ふくや,,株式会社,埼玉県,川口市,幸町２丁目１５番１１－２０１号,,11,203,3320016,,,2024-01-29,登記官による閉鎖,,,2015-10-05,1,,,,,,0
1845,6030001152682,登記記録の閉鎖等,0,2024-01-29,2024-01-23,新和通信株式会社,,株式会社,埼玉県,行田市,西新町１００番地２７,,11,206,3610042,,,2024-01-23,清算の結了等,,,2023-03-03,1,,,,,シンワツウシン,0
1849,6030002007340,登記記録の閉鎖等,0,2024-01-29,2024-01-29,有限会社須田産業,,有限会社,埼玉県,さいたま市緑区,大字大間木１５４５番地１（８棟４０５号）,,11,109,3360923,,,2024-01-29,登記官による閉鎖,,,2015-10-05,1,,,,,,0
1850,6030002020145,登記記録の閉鎖等,0,2024-01-29,2024-01-29,学進ＬＡＢＯ有限会社,,有限会社,埼玉県,さいたま市大宮区,下町１丁目４２番地２,,11,103,3300844,,,2024-01-29,登記官による閉鎖,,,2015-10-05,1,,,,,,0
1851,6030002022959,登記記録の閉鎖等,0,2024-01-29,2024-01-29,有限会社彩建,,有限会社,埼玉県,さいたま市岩槻区,本町５丁目４番７号,,11,110,3390057,,,2024-01-29,登記官による閉鎖,,,2015-10-05,1,,,,,,0
1852,6030002024906,登記記録の閉鎖等,0,2024-01-29,2024-01-29,有限会社中村設計,,有限会社,埼玉県,戸田市,喜沢１丁目１３番地の１６,,11,224,3350013,,,2024-01-29,登記官による閉鎖,,,2015-10-05,1,,,,,,0
1853,6030002034005,登記記録の閉鎖等,0,2024-01-29,2024-01-29,有限会社タカラ堂建装,,有限会社,埼玉県,狭山市,入間川３丁目２０番８号,,11,215,3501305,,,2024-01-29,登記官による閉鎖,,,2015-10-05,1,,,,,,0
1854,6030002036001,登記記録の閉鎖等,0,2024-01-29,2024-01-29,有限会社ミズムラ産業,,有限会社,埼玉県,入間市,宮前町７番１号,,11,225,3580005,,,2024-01-29,登記官による閉鎖,,,2015-10-05,1,,,,,,0
1855,6030002041554,登記記録の閉鎖等,0,2024-01-29,2024-01-29,有限会社浅見水産,,有限会社,埼玉県,羽生市,西４丁目２６番地６,,11,216,3480054,,,2024-01-29,登記官による閉鎖,,,2015-10-05,1,,,,,,0
1857,6030002046396,登記記録の閉鎖等,0,2024-01-29,2024-01-29,有限会社あさかわ,,有限会社,埼玉県,八潮市,大字伊勢野１１８番地,,11,234,3400821,,,2024-01-29,登記官による閉鎖,,,2015-10-05,1,,,,,,0
1858,6030002052535,登記記録の閉鎖等,0,2024-01-29,2024-01-29,八洸鉄器工業有限会社,,有限会社,埼玉県,八潮市,大字木曽根７２４番地５,,11,234,3400813,,,2024-01-29,登記官による閉鎖,,,2015-10-05,1,,,,,,0
1859,6030002052989,登記記録の閉鎖等,0,2024-01-29,2024-01-29,有限会社青山鉄工所,,有限会社,埼玉県,上尾市,大字上尾村５３９番地の５,,11,219,3620013,,,2024-01-29,登記官による閉鎖,,,2015-10-05,1,,,,,,0
1860,6030002055595,登記記録の閉鎖等,0,2024-01-29,2024-01-29,有限会社オフィス住研,,有限会社,埼玉県,桶川市,泉２丁目１９番５０号３－１１８,,11,231,3630021,,,2024-01-29,登記官による閉鎖,,,2015-10-05,1,,,,,,0
1861,6030002066485,登記記録の閉鎖等,0,2024-01-29,2024-01-22,有限会社所保険事務所,,有限会社,埼玉県,朝霞市,本町２丁目２１番１２号,,11,227,3510011,,,2024-01-22,清算の結了等,,,2015-10-05,1,,,,,トコロホケンジムショ,0
1862,6030002076815,登記記録の閉鎖等,0,2024-01-29,2024-01-29,有限会社吉田重機,00017142,有限会社,埼玉県,ふじみ野市,桜ケ丘２丁目１番２１号,,11,245,3560059,,,2024-01-29,登記官による閉鎖,,,2015-10-05,1,,,,,,0
1863,6030002076897,登記記録の閉鎖等,0,2024-01-29,2024-01-29,有限会社イワイ設備,,有限会社,埼玉県,入間郡三芳町,大字藤久保３７３番地,,11,324,3540041,,,2024-01-29,登記官による閉鎖,,,2015-10-05,1,,,,,,0
1864,6030002081014,登記記録の閉鎖等,0,2024-01-29,2024-01-29,有限会社ラチーナ,,有限会社,埼玉県,本庄市,東台３丁目５番１２号,,11,211,3670021,,,2024-01-29,登記官による閉鎖,,,2015-10-05,1,,,,,,0
1865,6030002081063,登記記録の閉鎖等,0,2024-01-29,2024-01-29,有限会社エースアメニティ,,有限会社,埼玉県,児玉郡上里町,大字勅使河原１３０８番地,,11,385,3690311,,,2024-01-29,登記官による閉鎖,,,2015-10-05,1,,,,,,0
1866,6030002081451,登記記録の閉鎖等,0,2024-01-29,2024-01-29,有限会社吉川薬局,,有限会社,埼玉県,本庄市,児玉町児玉８１番地,,11,211,3670212,,,2024-01-29,登記官による閉鎖,,,2015-10-05,1,,,,,,0
1867,6030002083786,登記記録の閉鎖等,0,2024-01-29,2024-01-29,有限会社コスモス警備保障,,有限会社,埼玉県,鴻巣市,吹上本町４丁目８番１１号,,11,217,3690115,,,2024-01-29,登記官による閉鎖,,,2015-10-05,1,,,,,,0
1868,6030002093075,登記記録の閉鎖等,0,2024-01-29,2024-01-29,有限会社ロージェ,,有限会社,埼玉県,坂戸市,南町７番７号,,11,239,3500233,,,2024-01-29,登記官による閉鎖,,,2015-10-05,1,,,,,,0
1869,6030002098685,登記記録の閉鎖等,0,2024-01-29,2024-01-29,有限会社瓜生商会,,有限会社,埼玉県,川口市,大字里１１７６番地,,11,203,3340005,,,2024-01-29,登記官による閉鎖,,,2015-10-05,1,,,,,,0
1870,6030002101812,登記記録の閉鎖等,0,2024-01-29,2024-01-29,有限会社兜森タイル工業,,有限会社,埼玉県,川口市,大字神戸７８９番地の７,,11,203,3330832,,,2024-01-29,登記官による閉鎖,,,2015-10-05,1,,,,,,0
1871,6030002104311,登記記録の閉鎖等,0,2024-01-29,2024-01-29,有限会社蓮,00017714,有限会社,埼玉県,川口市,戸塚東３丁目６番８号,,11,203,3330802,,,2024-01-29,登記官による閉鎖,,,2015-10-05,1,,,,,,0
1872,6030002111761,登記記録の閉鎖等,0,2024-01-29,2024-01-29,有限会社アドック,,有限会社,埼玉県,川口市,大字芝３８７４番地８,,11,203,3330866,,,2024-01-29,登記官による閉鎖,,,2015-10-05,1,,,,,,0
1873,6030002113543,登記記録の閉鎖等,0,2024-01-29,2024-01-29,有限会社スクローコンノ,,有限会社,埼玉県,熊谷市,久保島字東八幡７８８番地６,,11,202,3600831,,,2024-01-29,登記官による閉鎖,,,2015-10-05,1,,,,,,0
1874,6030002116372,登記記録の閉鎖等,0,2024-01-29,2024-01-29,有限会社アメニティグループ,,有限会社,埼玉県,深谷市,田所町５番５号,,11,218,3660826,,,2024-01-29,登記官による閉鎖,,,2015-10-05,1,,,,,,0
1875,6030002118170,登記記録の閉鎖等,0,2024-01-29,2024-01-29,有限会社ホリグチ,,有限会社,埼玉県,行田市,大字持田９７８番地,,11,206,3610056,,,2024-01-29,登記官による閉鎖,,,2015-10-05,1,,,,,,0
1876,6030002123352,登記記録の閉鎖等,0,2024-01-29,2024-01-29,有限会社辻屋商店,00026547,有限会社,埼玉県,深谷市,大字武蔵野１７５４番地,,11,218,3660000,,,2024-01-29,登記官による閉鎖,,,2015-10-05,1,,,,,,0
1877,6030002123369,登記記録の閉鎖等,0,2024-01-29,2024-01-29,有限会社ムラヤマ,,有限会社,埼玉県,朝霞市,膝折町２丁目３番５６号,,11,227,3510014,,,2024-01-29,登記官による閉鎖,,,2015-10-05,1,,,,,,0
1878,6030003002019,登記記録の閉鎖等,0,2024-01-29,2024-01-29,合同会社ビーエムエス,,合同会社,埼玉県,草加市,草加２丁目５番１０号,,11,221,3400043,,,2024-01-29,登記官による閉鎖,,,2015-10-05,1,,,,,,0
1879,6030003004997,登記記録の閉鎖等,0,2024-01-29,2024-01-29,合同会社ワールド,,合同会社,埼玉県,和光市,丸山台２丁目９番５号－４０２号室,,11,229,3510112,,,2024-01-29,登記官による閉鎖,,,2015-10-05,1,,,,,,0
1880,6030003005616,登記記録の閉鎖等,0,2024-01-29,2024-01-29,合同会社シェネルデンキ,,合同会社,埼玉県,川口市,金山町７番３－８０５号,,11,203,3320014,,,2024-01-29,登記官による閉鎖,,,2015-10-05,1,,,,,,0
1885,6030005005399,登記記録の閉鎖等,0,2024-01-29,2024-01-29,キンカ堂通り商店会協同組合,,その他の設立登記法人,埼玉県,羽生市,中央１丁目９番９号,,11,216,3480058,,,2024-01-29,登記官による閉鎖,,,2015-10-05,1,,,,,,0
1886,6030005008674,登記記録の閉鎖等,0,2024-01-29,2024-01-29,特定非営利活動法人若草会とるとりの家,,その他の設立登記法人,埼玉県,川越市,稲荷町二番地２７川上ハイツ１Ｆ１０１号,,11,201,3501144,,,2024-01-29,登記官による閉鎖,,,2015-10-05,1,,,,,,0
1887,6030005010317,登記記録の閉鎖等,0,2024-01-29,2024-01-29,蒲生ショッピングモール協同組合,,その他の設立登記法人,埼玉県,越谷市,蒲生旭町９番１１号,,11,222,3430842,,,2024-01-29,登記官による閉鎖,,,2015-10-05,1,,,,,,0
1888,6030005012107,登記記録の閉鎖等,0,2024-01-29,2024-01-29,社団法人埼玉県川口中小企業技術者研修センター,,その他の設立登記法人,埼玉県,川口市,元郷２丁目１番３号,,11,203,3320011,,,2024-01-29,登記官による閉鎖,,,2015-10-05,1,,,,,,0
1889,6030005014136,登記記録の閉鎖等,0,2024-01-29,2024-01-29,サンリッチチェーン事業協同組合,,その他の設立登記法人,埼玉県,行田市,門井町１丁目７番１３号,,11,206,3610044,,,2024-01-29,登記官による閉鎖,,,2015-10-05,1,,,,,,0
1890,6030005015340,登記記録の閉鎖等,0,2024-01-29,2024-01-29,特定非営利活動法人荒川学舎秩父,,その他の設立登記法人,埼玉県,秩父市,大野原７４３番地,,11,207,3680005,,,2024-01-29,登記官による閉鎖,,,2015-10-05,1,,,,,,0
1892,6040001018775,登記記録の閉鎖等,0,2024-01-29,2024-01-19,丸大工業株式会社,,株式会社,千葉県,船橋市,大穴南５丁目２５番３８号,,12,204,2740067,,,2024-01-19,清算の結了等,,,2015-10-05,1,,,,,,0
1895,6040002048202,登記記録の閉鎖等,0,2024-01-29,2024-01-18,有限会社ヒロ屋,,有限会社,千葉県,松戸市,古ケ崎８２７番地の７,,12,207,2710068,,,2024-01-18,清算の結了等,,,2015-10-05,1,,,,,ヒロヤ,0
1896,6050001008453,登記記録の閉鎖等,0,2024-01-29,2024-01-26,株式会社スタープランニング,,株式会社,茨城県,笠間市,旭町１９６－１６,,08,216,3091717,,,2024-01-26,登記官による閉鎖,,,2015-10-05,1,,,,,,0
1897,6050001009419,登記記録の閉鎖等,0,2024-01-29,2024-01-26,株式会社田村時計店,,株式会社,茨城県,土浦市,中央１丁目１２番２号,,08,203,3000043,,,2024-01-26,登記官による閉鎖,,,2015-10-05,1,,,,,,0
1899,6050001018238,登記記録の閉鎖等,0,2024-01-29,2024-01-26,株式会社グラスロード,,株式会社,茨城県,つくば市,上郷８１０４番地１３１,,08,220,3002645,,,2024-01-26,登記官による閉鎖,,,2015-10-05,1,,,,,,0
1900,6050001022181,登記記録の閉鎖等,0,2024-01-29,2024-01-26,株式会社ＦｒｅｅＳｉｚｅ,,株式会社,茨城県,神栖市,神栖４丁目６番２４号エコカーサＥ棟,,08,232,3140143,,,2024-01-26,登記官による閉鎖,,,2015-10-05,1,,,,,,0
1901,6050001024582,登記記録の閉鎖等,0,2024-01-29,2024-01-26,株式会社トイダ,,株式会社,茨城県,日立市,日高町４丁目１２番１４号トイダビル２Ｆ,,08,202,3191414,,,2024-01-26,登記官による閉鎖,,,2015-10-05,1,,,,,,0
1902,6050001024797,登記記録の閉鎖等,0,2024-01-29,2024-01-26,株式会社ハトリコーポレーション,,株式会社,茨城県,日立市,大沼町２丁目１０番１号,,08,202,3160022,,,2024-01-26,登記官による閉鎖,,,2015-10-05,1,,,,,,0
1903,6050001026686,登記記録の閉鎖等,0,2024-01-29,2024-01-26,アロー機器サービス株式会社,,株式会社,茨城県,常陸大宮市,鷲子３１４９番地,,08,225,3192603,,,2024-01-26,登記官による閉鎖,,,2015-10-05,1,,,,,,0
1904,6050001028212,登記記録の閉鎖等,0,2024-01-29,2024-01-26,大城商事株式会社,,株式会社,茨城県,つくばみらい市,板橋２５２４番地,,08,235,3002307,,,2024-01-26,登記官による閉鎖,,,2015-10-05,1,,,,,,0
1905,6050001030416,登記記録の閉鎖等,0,2024-01-29,2024-01-26,株式会社Ｐ・Ｇ・Ｏ,,株式会社,茨城県,つくばみらい市,高岡８３８番地４０,,08,235,3002301,,,2024-01-26,登記官による閉鎖,,,2015-10-05,1,,,,,,0
1906,6050001032899,登記記録の閉鎖等,0,2024-01-29,2024-01-26,株式会社廣瀬鉄筋,,株式会社,茨城県,筑西市,中上野１８２１番地,,08,227,3004524,,,2024-01-26,登記官による閉鎖,,,2015-10-05,1,,,,,,0
1907,6050001033988,登記記録の閉鎖等,0,2024-01-29,2024-01-26,株式会社ピース運転代行,,株式会社,茨城県,土浦市,桜町１丁目５番４号来田ビル３階,,08,203,3000037,,,2024-01-26,登記官による閉鎖,,,2015-10-05,1,,,,,,0
1908,6050001035992,登記記録の閉鎖等,0,2024-01-29,2024-01-26,株式会社健康塾,,株式会社,茨城県,つくばみらい市,小島新田１５８番地８－１０１号,,08,235,3002352,,,2024-01-26,登記官による閉鎖,,,2015-10-05,1,,,,,,0
1911,6050002013551,登記記録の閉鎖等,0,2024-01-29,2024-01-26,有限会社ありがとう,,有限会社,茨城県,土浦市,小岩田東１丁目４番１８号,,08,203,3000834,,,2024-01-26,登記官による閉鎖,,,2015-10-05,1,,,,,,0
1912,6050002018872,登記記録の閉鎖等,0,2024-01-29,2024-01-26,有限会社成島建設,,有限会社,茨城県,坂東市,逆井２２０３番地７,,08,228,3060501,,,2024-01-26,登記官による閉鎖,,,2015-10-05,1,,,,,,0
1913,6050002020366,登記記録の閉鎖等,0,2024-01-29,2024-01-26,有限会社岩井コンタクト研究所,,有限会社,茨城県,坂東市,岩井４９４２番地の２,,08,228,3060631,,,2024-01-26,登記官による閉鎖,,,2015-10-05,1,,,,,,0
1914,6050002021587,登記記録の閉鎖等,0,2024-01-29,2024-01-26,有限会社高宮ゴム,00022910,有限会社,茨城県,つくば市,大角豆２０１２番地の４７７,,08,220,3050043,,,2024-01-26,登記官による閉鎖,,,2015-10-05,1,,,,,,0
1915,6050002022016,登記記録の閉鎖等,0,2024-01-29,2024-01-26,有限会社フクダ技研,,有限会社,茨城県,つくば市,小野川１０番地５,,08,220,3050053,,,2024-01-26,登記官による閉鎖,,,2015-10-05,1,,,,,,0
1916,6050002029779,登記記録の閉鎖等,0,2024-01-29,2024-01-26,有限会社鉾田自然薯研究会,00023065,有限会社,茨城県,鉾田市,徳宿２８４１番地１,,08,234,3111503,,,2024-01-26,登記官による閉鎖,,,2015-10-05,1,,,,,,0
1917,6050002030167,登記記録の閉鎖等,0,2024-01-29,2024-01-26,有限会社井上電機,,有限会社,茨城県,日立市,久慈町３丁目１２番２８号,,08,202,3191222,,,2024-01-26,登記官による閉鎖,,,2015-10-05,1,,,,,,0
1918,6050002041230,登記記録の閉鎖等,0,2024-01-29,2024-01-26,有限会社大砂建材,,有限会社,茨城県,常総市,向石下１０５８番地の２,,08,211,3002742,,,2024-01-26,登記官による閉鎖,,,2015-10-05,1,,,,,,0
1920,6050005012096,登記記録の閉鎖等,0,2024-01-29,2024-01-26,弁護士法人こむろ法律事務所,,その他の設立登記法人,東京都,青梅市,仲町３１９番地ＭＡＣ青梅コートＩＩ２０１,00114717,13,205,1980082,,,2024-01-26,清算の結了等,,,2017-05-31,1,,,,,コムロホウリツジムショ,0
1929,6110001007523,登記記録の閉鎖等,0,2024-01-29,2024-01-26,大洋薬品株式会社,,株式会社,新潟県,新潟市南区,戸頭８７２番地５,,15,106,9501475,,,2024-01-26,清算の結了等,,,2015-10-05,1,,,,,タイヨウヤクヒン,0
1930,6120001069728,登記記録の閉鎖等,0,2024-01-29,2024-01-22,株式会社ＦＫＹ,,株式会社,大阪府,大阪市北区,東天満２丁目９番４号,,27,127,5300044,,,2024-01-22,清算の結了等,,,2015-10-05,1,,,,,エフケーワイ,0
1966,6140001002752,登記記録の閉鎖等,0,2024-01-29,2024-01-26,株式会社寄谷建設,,株式会社,兵庫県,神戸市東灘区,西岡本３丁目１０番１号,,28,101,6580073,,,2024-01-26,登記官による閉鎖,,,2015-10-05,1,,,,,,0
1967,6140001007842,登記記録の閉鎖等,0,2024-01-29,2024-01-26,株式会社サンコーフェニックス,,株式会社,兵庫県,神戸市西区,樫野台５丁目３番地７－１１０２号,,28,111,6512275,,,2024-01-26,登記官による閉鎖,,,2015-10-05,1,,,,,,0
1968,6140001015044,登記記録の閉鎖等,0,2024-01-29,2024-01-26,株式会社山陽石油サービス,,株式会社,兵庫県,神戸市北区,鈴蘭台南町６丁目１４番７号,,28,109,6511113,,,2024-01-26,登記官による閉鎖,,,2015-10-05,1,,,,,,0
1971,6140001041016,登記記録の閉鎖等,0,2024-01-29,2024-01-26,関西ジャパン株式会社,,株式会社,兵庫県,丹波市,市島町下竹田字金津２１９番地,,28,223,6694301,,,2024-01-26,登記官による閉鎖,,,2015-10-05,1,,,,,,0
1972,6140001051312,登記記録の閉鎖等,0,2024-01-29,2024-01-26,株式会社松田楽器,,株式会社,兵庫県,尼崎市,潮江３丁目１９番５号,,28,202,6610976,,,2024-01-26,登記官による閉鎖,,,2015-10-05,1,,,,,,0
1973,6140001058497,登記記録の閉鎖等,0,2024-01-29,2024-01-26,絹川建工株式会社,,株式会社,兵庫県,姫路市,飾磨区中島２８７番地,,28,201,6728035,,,2024-01-26,登記官による閉鎖,,,2015-10-05,1,,,,,,0
1974,6140001060619,登記記録の閉鎖等,0,2024-01-29,2024-01-26,株式会社のしや,,株式会社,兵庫県,姫路市,古二階町１１５番地,,28,201,6700936,,,2024-01-26,登記官による閉鎖,,,2015-10-05,1,,,,,,0
1975,6140001079535,登記記録の閉鎖等,0,2024-01-29,2024-01-26,株式会社二井商店,,株式会社,兵庫県,川西市,萩原台西１丁目２２４番地,,28,217,6660006,,,2024-01-26,登記官による閉鎖,,,2015-10-05,1,,,,,,0
1984,6140002008278,登記記録の閉鎖等,0,2024-01-29,2024-01-26,有限会社オーナメント・ウエダ,,有限会社,兵庫県,神戸市灘区,畑原通３丁目５番１９号,,28,102,6570822,,,2024-01-26,登記官による閉鎖,,,2015-10-05,1,,,,,,0
1985,6140002008410,登記記録の閉鎖等,0,2024-01-29,2024-01-26,有限会社吉相商店,,有限会社,兵庫県,神戸市長田区,六番町８丁目番外長田中央市場内,,28,106,6530002,,,2024-01-26,登記官による閉鎖,,,2015-10-05,1,,,,,,0
1986,6140002009648,登記記録の閉鎖等,0,2024-01-29,2024-01-26,有限会社イトウ,,有限会社,兵庫県,神戸市北区,君影町４丁目１０番１７号,,28,109,6511122,,,2024-01-26,登記官による閉鎖,,,2015-10-05,1,,,,,,0
1987,6140002009656,登記記録の閉鎖等,0,2024-01-29,2024-01-26,有限会社イノウエオフィス,,有限会社,兵庫県,神戸市北区,藤原台中町７丁目８番１２号,,28,109,6511302,,,2024-01-26,登記官による閉鎖,,,2015-10-05,1,,,,,,0
1988,6140002024218,登記記録の閉鎖等,0,2024-01-29,2024-01-26,有限会社ぴあフレンド,,有限会社,兵庫県,神戸市西区,桜が丘東町１丁目６番地の６,,28,111,6512225,,,2024-01-26,登記官による閉鎖,,,2015-10-05,1,,,,,,0
1989,6140002037814,登記記録の閉鎖等,0,2024-01-29,2024-01-26,有限会社藤田組,,有限会社,兵庫県,加古郡稲美町,国安１１０－３,,28,381,6751114,,,2024-01-26,登記官による閉鎖,,,2015-10-05,1,,,,,,0
1990,6140002038853,登記記録の閉鎖等,0,2024-01-29,2024-01-26,有限会社ＵＥＳＵＧＩ,,有限会社,兵庫県,高砂市,米田町米田９８９番地の１,,28,216,6760805,,,2024-01-26,登記官による閉鎖,,,2015-10-05,1,,,,,,0
1991,6140002041551,登記記録の閉鎖等,0,2024-01-29,2024-01-26,有限会社高砂湯,,有限会社,兵庫県,尼崎市,東難波町３丁目１１番１４号,,28,202,6600892,,,2024-01-26,登記官による閉鎖,,,2015-10-05,1,,,,,,0
1992,6140002058067,登記記録の閉鎖等,0,2024-01-29,2024-01-26,有限会社門戸コンタクトレンズ,,有限会社,兵庫県,西宮市,門戸荘１７番５０号,,28,204,6620825,,,2024-01-26,登記官による閉鎖,,,2015-10-05,1,,,,,,0
1993,6140002065253,登記記録の閉鎖等,0,2024-01-29,2024-01-26,有限会社力湯,,有限会社,兵庫県,伊丹市,伊丹３丁目２番２号,,28,207,6640846,,,2024-01-26,登記官による閉鎖,,,2015-10-05,1,,,,,,0
1994,6140002066961,登記記録の閉鎖等,0,2024-01-29,2024-01-26,有限会社シンホニー,,有限会社,兵庫県,宝塚市,野上１丁目５番１２８号,,28,214,6650022,,,2024-01-26,登記官による閉鎖,,,2015-10-05,1,,,,,,0
1995,6140002070856,登記記録の閉鎖等,0,2024-01-29,2024-01-26,有限会社伊藤洋裁所,,有限会社,兵庫県,神戸市中央区,生田町４丁目５番４号,,28,110,6510092,,,2024-01-26,登記官による閉鎖,,,2018-11-12,1,,,,,イトウヨウサイショ,0
1996,6140003005919,登記記録の閉鎖等,0,2024-01-29,2024-01-26,港島国際エンジニアリング合同会社,,合同会社,兵庫県,神戸市中央区,港島中町３丁目２番地の１ポートアイランド団地６１棟１１１号,,28,110,6500046,,,2024-01-26,登記官による閉鎖,,,2015-10-05,1,,,,,,0
1997,6140003008772,登記記録の閉鎖等,0,2024-01-29,2024-01-26,ＡＰＰＬＥ合同会社,,合同会社,兵庫県,丹波市,氷上町成松６８１番地８,,28,223,6693601,,,2024-01-26,登記官による閉鎖,,,2015-10-05,1,,,,,,0
2000,6140005002939,登記記録の閉鎖等,0,2024-01-29,2024-01-26,東灘不動産事業協同組合,,その他の設立登記法人,兵庫県,神戸市東灘区,御影３丁目１番６－１０１号有限会社川北不動産内,,28,101,6580047,,,2024-01-26,登記官による閉鎖,,,2015-10-05,1,,,,,,0
2001,6140005003978,登記記録の閉鎖等,0,2024-01-29,2024-01-26,特定非営利活動法人環境福祉協議会,,その他の設立登記法人,兵庫県,神戸市兵庫区,駅前通４丁目２番１３号,,28,105,6520898,,,2024-01-26,登記官による閉鎖,,,2015-10-05,1,,,,,,0
2002,6140005004786,登記記録の閉鎖等,0,2024-01-29,2024-01-26,特定非営利活動法人兵庫まちづくりふれあい実行委員会,,その他の設立登記法人,兵庫県,神戸市中央区,港島９丁目１番地ＫＩＯ－３０８号,,28,110,6500045,,,2024-01-26,登記官による閉鎖,,,2015-10-05,1,,,,,,0
2003,6140005004828,登記記録の閉鎖等,0,2024-01-29,2024-01-26,特定非営利活動法人ＡＳＩＭセラピストＡＳＳＯＣＩＡＴＩＯＮ,,その他の設立登記法人,兵庫県,芦屋市,平田町３番２１号,,28,206,6590074,,,2024-01-26,登記官による閉鎖,,,2015-10-05,1,,,,,,0
2004,6140005004893,登記記録の閉鎖等,0,2024-01-29,2024-01-26,特定非営利活動法人キッズ子ミュニケーション,,その他の設立登記法人,兵庫県,神戸市中央区,北長狭通７丁目２番４号３０３号室,,28,110,6500012,,,2024-01-26,登記官による閉鎖,,,2015-10-05,1,,,,,,0
2005,6140005014950,登記記録の閉鎖等,0,2024-01-29,2024-01-26,特定非営利活動法人ビリケンのいえ,,その他の設立登記法人,兵庫県,姫路市,手柄１丁目２２番地１,,28,201,6700972,,,2024-01-26,登記官による閉鎖,,,2015-10-05,1,,,,,,0
2006,6140005016518,登記記録の閉鎖等,0,2024-01-29,2024-01-26,特定非営利活動法人食の安全推進協議会,,その他の設立登記法人,兵庫県,西宮市,六湛寺町９番３３号明水ビル４Ｆ,,28,204,6620918,,,2024-01-26,登記官による閉鎖,,,2015-10-05,1,,,,,,0
2007,6140005017895,登記記録の閉鎖等,0,2024-01-29,2024-01-26,一般社団法人のじぎく安心会,,その他の設立登記法人,兵庫県,神戸市兵庫区,荒田町３丁目２２番１１号,,28,105,6520032,,,2024-01-26,登記官による閉鎖,,,2015-10-05,1,,,,,,0
2016,6180002046241,登記記録の閉鎖等,0,2024-01-29,2024-01-24,有限会社アクティヴ,,有限会社,愛知県,名古屋市昭和区,塩付通７丁目１２番地,,23,107,4660022,,,2024-01-24,清算の結了等,,,2015-10-05,1,,,,,アクティヴ,0
2027,6240001010472,登記記録の閉鎖等,0,2024-01-29,2024-01-19,株式会社船越,,株式会社,広島県,広島市佐伯区,五日市中央３丁目１６番５号,,34,108,7315128,,,2024-01-19,清算の結了等,,,2015-10-05,1,,,,,フナコシ,0
2028,6240001023953,登記記録の閉鎖等,0,2024-01-29,2024-01-22,帝旺グラビア印刷株式会社,,株式会社,広島県,山県郡北広島町,新氏神１０１番地,,34,369,7311514,,,2024-01-22,清算の結了等,,,2015-10-05,1,,,,,テイオウグラビアインサツ,0
2038,6290001022109,登記記録の閉鎖等,0,2024-01-29,2024-01-25,キャピタルアプリエヌディエス株式会社,,株式会社,福岡県,福岡市城南区,樋井川２丁目１番６２号,,40,136,8140153,,,2024-01-25,合併による解散等,9310001003508,令和６年１月１日長崎県西彼杵郡時津町日並郷３４５０番地１１株式会社ビーアイシーアジア（9310001003508）に合併し解散,2015-10-05,1,,,,,キャピタルアプリエヌディエス,0
2042,6290003001804,登記記録の閉鎖等,0,2024-01-29,2024-01-18,合同会社フル・トレランス,,合同会社,福岡県,福岡市東区,松崎４丁目１番１５号,,40,131,8130035,,,2024-01-18,清算の結了等,,,2015-10-05,1,,,,,,0
2074,6420001013630,登記記録の閉鎖等,0,2024-01-29,2024-01-25,株式会社マーレック,,株式会社,青森県,青森市,岡造道２丁目１２番２０号,,02,201,0300914,,,2024-01-25,清算の結了等,,,2015-10-05,1,,,,,マーレック,0
2085,6500001001387,登記記録の閉鎖等,0,2024-01-29,2024-01-26,教育開発出版株式会社,,株式会社,愛媛県,松山市,余戸東５丁目１１番２５号,,38,201,7900044,,,2024-01-26,清算の結了等,,,2015-10-05,1,,,,,キョウイクカイハツシュッパン,0
2101,7010003027066,登記記録の閉鎖等,0,2024-01-29,2024-01-24,合同会社ハローストレージファンド１号,,合同会社,東京都,千代田区,平河町１丁目６番１５号シルスフィア会計事務所内,,13,101,1020093,,,2024-01-24,清算の結了等,,,2018-03-02,1,,,,,ハローストレージファンドイチゴウ,0
2102,7010003029541,登記記録の閉鎖等,0,2024-01-29,2024-01-24,Ｌｏｙｌｏｇｉｃ　Ｊａｐａｎ合同会社,,合同会社,東京都,千代田区,平河町２丁目６番１号平河町ビル７階,,13,101,1020093,,,2024-01-24,清算の結了等,,,2019-03-27,1,,,,,ロイロジックジャパン,0
2105,7010005024276,登記記録の閉鎖等,0,2024-01-29,2024-01-25,一般社団法人みんくるプロデュース,,その他の設立登記法人,東京都,文京区,本郷７丁目３－１,,13,105,1130033,,,2024-01-25,清算の結了等,,,2015-10-05,1,,,,,ミンクルプロデュース,0
2112,7010401170186,登記記録の閉鎖等,0,2024-01-29,2024-01-18,株式会社Ａｒｉｎａｒｅｓｏｒｔ,,株式会社,東京都,港区,海岸１丁目２番３号汐留芝離宮２１階,,13,103,1050022,,,2024-01-18,清算の結了等,,,2022-10-11,1,,,,,アリナリゾート,0
2123,7010801009546,登記記録の閉鎖等,0,2024-01-29,2024-01-24,株式会社野口ビル,,株式会社,東京都,大田区,山王２丁目３番３－４０１号,,13,111,1430023,,,2024-01-24,清算の結了等,,,2015-10-05,1,,,,,ノグチビル,0
2150,7011702006558,登記記録の閉鎖等,0,2024-01-29,2024-01-24,有限会社芹川鍍金工業所,,有限会社,東京都,江戸川区,北小岩６丁目３４番１８号,,13,123,1330051,,,2024-01-24,清算の結了等,,,2015-10-05,1,,,,,セリカワメッキコウギョウショ,0
2151,7011801033602,登記記録の閉鎖等,0,2024-01-29,2024-01-26,株式会社ｇｏｏｄｎｉｃｅ,,株式会社,東京都,足立区,千住東２丁目６番８号１Ｆ,,13,121,1200025,,,2024-01-26,清算の結了等,,,2017-07-14,1,,,,,グッドナイス,0
2170,7030001016085,登記記録の閉鎖等,0,2024-01-29,2024-01-29,株式会社ＯＦＦＩＣＥ　ＳＵＥ,,株式会社,埼玉県,さいたま市浦和区,元町１丁目６番地１２号,,11,107,3300073,,,2024-01-29,登記官による閉鎖,,,2015-10-05,1,,,,,,0
2171,7030001022793,登記記録の閉鎖等,0,2024-01-29,2024-01-29,株式会社ライノスパテント,,株式会社,埼玉県,戸田市,川岸２丁目１番１５－３０６号,,11,224,3350015,,,2024-01-29,登記官による閉鎖,,,2015-10-05,1,,,,,,0
2172,7030001023016,登記記録の閉鎖等,0,2024-01-29,2024-01-29,株式会社豊田商事,,株式会社,埼玉県,蕨市,塚越２丁目７番１０号シャトルブランカ３０４号室,,11,223,3350002,,,2024-01-29,登記官による閉鎖,,,2015-10-05,1,,,,,,0
2173,7030001024311,登記記録の閉鎖等,0,2024-01-29,2024-01-29,株式会社松月堂,,株式会社,埼玉県,所沢市,東新井町７１番地６,,11,208,3590034,,,2024-01-29,登記官による閉鎖,,,2015-10-05,1,,,,,,0
2174,7030001024996,登記記録の閉鎖等,0,2024-01-29,2024-01-29,株式会社放技研,,株式会社,埼玉県,所沢市,北所沢町２０６６番地の１４,,11,208,3590046,,,2024-01-29,登記官による閉鎖,,,2015-10-05,1,,,,,,0
2175,7030001036785,登記記録の閉鎖等,0,2024-01-29,2024-01-29,株式会社セブンランド,,株式会社,埼玉県,三郷市,彦成３丁目７番１１－１号,,11,237,3410003,,,2024-01-29,登記官による閉鎖,,,2015-10-05,1,,,,,,0
2176,7030001047650,登記記録の閉鎖等,0,2024-01-29,2024-01-29,アルゴシステム株式会社,,株式会社,埼玉県,新座市,馬場１丁目１番４６号,,11,230,3520016,,,2024-01-29,登記官による閉鎖,,,2015-10-05,1,,,,,,0
2179,7030001058375,登記記録の閉鎖等,0,2024-01-29,2024-01-29,株式会社香林企画,,株式会社,埼玉県,川越市,脇田本町１４番地３６,,11,201,3501123,,,2024-01-29,登記官による閉鎖,,,2015-10-05,1,,,,,,0
2180,7030001063920,登記記録の閉鎖等,0,2024-01-29,2024-01-29,コーシン機器株式会社,,株式会社,埼玉県,越谷市,東越谷２丁目４番地３,,11,222,3430023,,,2024-01-29,登記官による閉鎖,,,2015-10-05,1,,,,,,0
2181,7030001064101,登記記録の閉鎖等,0,2024-01-29,2024-01-29,株式会社シグナル・コミユニケーシヨン,,株式会社,埼玉県,越谷市,北越谷４丁目２４番８号,,11,222,3430026,,,2024-01-29,登記官による閉鎖,,,2015-10-05,1,,,,,,0
2182,7030001072335,登記記録の閉鎖等,0,2024-01-29,2024-01-29,株式会社ＧＩＦＴ,,株式会社,埼玉県,東松山市,松山町３丁目５番１３号サンクワイエット松山１０１,,11,212,3550018,,,2024-01-29,登記官による閉鎖,,,2015-10-05,1,,,,,,0
2183,7030001096094,登記記録の閉鎖等,0,2024-01-29,2024-01-29,あで姿株式会社,,株式会社,埼玉県,行田市,桜町２丁目３番２６号,,11,206,3610022,,,2024-01-29,登記官による閉鎖,,,2015-10-05,1,,,,,,0
2184,7030001097828,登記記録の閉鎖等,0,2024-01-29,2024-01-29,株式会社タップマチック・ジャパン,,株式会社,埼玉県,さいたま市南区,南浦和３丁目１４番１３号,,11,108,3360017,,,2024-01-29,登記官による閉鎖,,,2015-10-05,1,,,,,,0
2190,7030002000006,登記記録の閉鎖等,0,2024-01-29,2024-01-29,有限会社朝日造花,,有限会社,埼玉県,さいたま市緑区,大字大間木字内谷７１６番地,,11,109,3360923,,,2024-01-29,登記官による閉鎖,,,2015-10-05,1,,,,,,0
2191,7030002003215,登記記録の閉鎖等,0,2024-01-29,2024-01-29,有限会社小野寺運輸,,有限会社,埼玉県,さいたま市見沼区,大字蓮沼１７９５番地の９,,11,104,3370015,,,2024-01-29,登記官による閉鎖,,,2015-10-05,1,,,,,,0
2192,7030002012026,登記記録の閉鎖等,0,2024-01-29,2024-01-29,有限会社ヘアーサロンエース,,有限会社,埼玉県,さいたま市南区,別所２丁目３９番２０号,,11,108,3360021,,,2024-01-29,登記官による閉鎖,,,2015-10-05,1,,,,,,0
2193,7030002014047,登記記録の閉鎖等,0,2024-01-29,2024-01-29,有限会社山崎ガス,,有限会社,埼玉県,さいたま市見沼区,大字風渡野２９２番地の５,,11,104,3370017,,,2024-01-29,登記官による閉鎖,,,2015-10-05,1,,,,,,0
2194,7030002029367,登記記録の閉鎖等,0,2024-01-29,2024-01-29,有限会社サンケー,,有限会社,埼玉県,所沢市,青葉台１２６５番地の６,,11,208,3591105,,,2024-01-29,登記官による閉鎖,,,2015-10-05,1,,,,,,0
2195,7030002031728,登記記録の閉鎖等,0,2024-01-29,2024-01-29,有限会社流星堂書店,,有限会社,埼玉県,所沢市,狭山ケ丘１丁目３００３番地１３８,,11,208,3591161,,,2024-01-29,登記官による閉鎖,,,2015-10-05,1,,,,,,0
2196,7030002038021,登記記録の閉鎖等,0,2024-01-29,2024-01-29,国際通信久喜工業有限会社,,有限会社,埼玉県,久喜市,吉羽１２０４番地,,11,232,3460014,,,2024-01-29,登記官による閉鎖,,,2015-10-05,1,,,,,,0
2197,7030002038723,登記記録の閉鎖等,0,2024-01-29,2024-01-29,有限会社トリスタン,,有限会社,埼玉県,白岡市,西１丁目１４番６,,11,246,3490205,,,2024-01-29,登記官による閉鎖,,,2015-10-05,1,,,,,,0
2198,7030002041966,登記記録の閉鎖等,0,2024-01-29,2024-01-29,有限会社丸善商店,,有限会社,埼玉県,羽生市,中央１丁目４番２８号,,11,216,3480058,,,2024-01-29,登記官による閉鎖,,,2015-10-05,1,,,,,,0
2199,7030002048524,登記記録の閉鎖等,0,2024-01-29,2024-01-29,有限会社小國興業,,有限会社,埼玉県,三郷市,戸ケ崎２丁目４９番地９,,11,237,3410044,,,2024-01-29,登記官による閉鎖,,,2015-10-05,1,,,,,,0
2200,7030002060231,登記記録の閉鎖等,0,2024-01-29,2024-01-29,有限会社蓮見商会,00016876,有限会社,埼玉県,志木市,下宗岡３丁目１５番３４号,,11,228,3530003,,,2024-01-29,登記官による閉鎖,,,2015-10-05,1,,,,,,0
2201,7030002063812,登記記録の閉鎖等,0,2024-01-29,2024-01-29,有限会社森田金型,,有限会社,埼玉県,富士見市,鶴瀬東１丁目１番４１号,,11,235,3540024,,,2024-01-29,登記官による閉鎖,,,2015-10-05,1,,,,,,0
2202,7030002075980,登記記録の閉鎖等,0,2024-01-29,2024-01-29,有限会社少年倶楽部,,有限会社,埼玉県,ふじみ野市,大原１丁目５番１９号,,11,245,3560003,,,2024-01-29,登記官による閉鎖,,,2015-10-05,1,,,,,,0
2203,7030002088000,登記記録の閉鎖等,0,2024-01-29,2024-01-29,有限会社マツキ,,有限会社,埼玉県,越谷市,大字下間久里１２８番地２,,11,222,3430045,,,2024-01-29,登記官による閉鎖,,,2015-10-05,1,,,,,,0
2204,7030002090492,登記記録の閉鎖等,0,2024-01-29,2024-01-29,有限会社長谷川製作所,,有限会社,埼玉県,吉川市,中野１３５番地１,,11,243,3420042,,,2024-01-29,登記官による閉鎖,,,2015-10-05,1,,,,,,0
2205,7030002093033,登記記録の閉鎖等,0,2024-01-29,2024-01-29,有限会社ヤマシタ企画,,有限会社,埼玉県,坂戸市,泉町１９番地４,,11,239,3500231,,,2024-01-29,登記官による閉鎖,,,2015-10-05,1,,,,,,0
2206,7030002096762,登記記録の閉鎖等,0,2024-01-29,2024-01-29,有限会社斉藤螺子製作所,,有限会社,埼玉県,比企郡滑川町,大字伊古７５０番地２,,11,341,3550806,,,2024-01-29,登記官による閉鎖,,,2015-10-05,1,,,,,,0
2207,7030002104203,登記記録の閉鎖等,0,2024-01-29,2024-01-29,有限会社関根精機,,有限会社,埼玉県,川口市,東領家５丁目１９番２号,,11,203,3320003,,,2024-01-29,登記官による閉鎖,,,2015-10-05,1,,,,,,0
2208,7030002119317,登記記録の閉鎖等,0,2024-01-29,2024-01-29,有限会社大野写真事務所,,有限会社,埼玉県,飯能市,永田台１丁目１０番地５,,11,209,3570061,,,2024-01-29,登記官による閉鎖,,,2015-10-05,1,,,,,,0
2209,7030002121181,登記記録の閉鎖等,0,2024-01-29,2024-01-29,有限会社飯野工業,,有限会社,埼玉県,秩父市,大野原５７８番地の４,,11,207,3680005,,,2024-01-29,登記官による閉鎖,,,2015-10-05,1,,,,,,0
2210,7030002123112,登記記録の閉鎖等,0,2024-01-29,2024-01-29,有限会社いずみ,,有限会社,埼玉県,所沢市,大字下富１１５９番地の２４,,11,208,3590001,,,2024-01-29,登記官による閉鎖,,,2015-10-05,1,,,,,,0
2211,7030003000987,登記記録の閉鎖等,0,2024-01-29,2024-01-29,合資会社小林金物店,,合資会社,埼玉県,蓮田市,東５丁目２番１号,,11,238,3490111,,,2024-01-29,登記官による閉鎖,,,2015-10-05,1,,,,,,0
2212,7030003005111,登記記録の閉鎖等,0,2024-01-29,2024-01-29,合同会社カフス,,合同会社,埼玉県,川越市,新富町２丁目１９番地４平和ビル２階,,11,201,3500043,,,2024-01-29,登記官による閉鎖,,,2015-10-05,1,,,,,,0
2214,7030003017107,登記記録の閉鎖等,0,2024-01-29,2024-01-23,アールケ合同会社,,合同会社,埼玉県,坂戸市,薬師町５番地１６,,11,239,3500229,,,2024-01-23,清算の結了等,,,2021-04-14,1,,,,,アールケ,0
2218,7030005002040,登記記録の閉鎖等,0,2024-01-29,2024-01-29,メディックワークス企業組合,,その他の設立登記法人,埼玉県,さいたま市北区,日進町３丁目８１８番地２号,,11,102,3310823,,,2024-01-29,登記官による閉鎖,,,2015-10-05,1,,,,,,0
2219,7030005003641,登記記録の閉鎖等,0,2024-01-29,2024-01-29,特定非営利活動法人環境共生支援センター,,その他の設立登記法人,埼玉県,所沢市,北所沢町１９９２番地の１６アメニティハイツ１０１,,11,208,3590046,,,2024-01-29,登記官による閉鎖,,,2015-10-05,1,,,,,,0
2226,7050001002397,登記記録の閉鎖等,0,2024-01-29,2024-01-26,ワイ・オーコネクティブカンパニー株式会社,,株式会社,茨城県,水戸市,見川５丁目１５８番地の１８,,08,201,3100912,,,2024-01-26,登記官による閉鎖,,,2015-10-05,1,,,,,,0
2227,7050001005103,登記記録の閉鎖等,0,2024-01-29,2024-01-26,株式会社ＴＡＭ,,株式会社,茨城県,水戸市,桜川１丁目４番１６号,,08,201,3100801,,,2024-01-26,登記官による閉鎖,,,2015-10-05,1,,,,,,0
2228,7050001009855,登記記録の閉鎖等,0,2024-01-29,2024-01-26,株式会社湯原商店,,株式会社,茨城県,土浦市,中荒川沖町５番６号,,08,203,3000875,,,2024-01-26,登記官による閉鎖,,,2015-10-05,1,,,,,,0
2229,7050001021257,登記記録の閉鎖等,0,2024-01-29,2024-01-26,土合商事株式会社,,株式会社,茨城県,神栖市,土合中央１丁目１番１７号,,08,232,3140347,,,2024-01-26,登記官による閉鎖,,,2018-03-05,1,,,,,,0
2230,7050001022486,登記記録の閉鎖等,0,2024-01-29,2024-01-26,海咲コーポレーション株式会社,,株式会社,茨城県,神栖市,大野原１丁目６番１２号第１６平成コーポＡ－１０１,,08,232,3140144,,,2024-01-26,登記官による閉鎖,,,2015-10-05,1,,,,,,0
2231,7050001023518,登記記録の閉鎖等,0,2024-01-29,2024-01-26,株式会社日立フードサービス,,株式会社,茨城県,日立市,川尻町４丁目１１番２０号,,08,202,3191411,,,2024-01-26,登記官による閉鎖,,,2015-10-05,1,,,,,,0
2232,7050001028013,登記記録の閉鎖等,0,2024-01-29,2024-01-26,大芝建設株式会社,,株式会社,茨城県,牛久市,小坂町２２２３番地,,08,219,3001286,,,2024-01-26,登記官による閉鎖,,,2015-10-05,1,,,,,,0
2233,7050001028129,登記記録の閉鎖等,0,2024-01-29,2024-01-26,中島ホンダ株式会社,,株式会社,茨城県,牛久市,新地町２６６番地,,08,219,3001225,,,2024-01-26,登記官による閉鎖,,,2015-10-05,1,,,,,ナカジマホンダ,0
2234,7050002000961,登記記録の閉鎖等,0,2024-01-29,2024-01-26,有限会社キング運転代行,,有限会社,茨城県,水戸市,見川２丁目２００番１号,,08,201,3100912,,,2024-01-26,登記官による閉鎖,,,2015-10-05,1,,,,,,0
2235,7050002003576,登記記録の閉鎖等,0,2024-01-29,2024-01-26,有限会社リミット,,有限会社,茨城県,水戸市,千波町１７９４番地の４,,08,201,3100851,,,2024-01-26,登記官による閉鎖,,,2015-10-05,1,,,,,,0
2236,7050002009425,登記記録の閉鎖等,0,2024-01-29,2024-01-26,有限会社トモヤ,,有限会社,茨城県,ひたちなか市,田中後４街区２０,,08,221,3111235,,,2024-01-26,登記官による閉鎖,,,2015-10-05,1,,,,,,0
2237,7050002020258,登記記録の閉鎖等,0,2024-01-29,2024-01-26,有限会社稔,,有限会社,茨城県,坂東市,辺田１２１４番地８５,,08,228,3060632,,,2024-01-26,登記官による閉鎖,,,2015-10-05,1,,,,,,0
2238,7050002021644,登記記録の閉鎖等,0,2024-01-29,2024-01-26,有限会社筑波学園レンタカー,,有限会社,茨城県,つくば市,若森１６６番地,,08,220,3003252,,,2024-01-26,登記官による閉鎖,,,2015-10-05,1,,,,,,0
2239,7050002022394,登記記録の閉鎖等,0,2024-01-29,2024-01-26,有限会社ウィアクリエイティブ,,有限会社,茨城県,つくば市,二の宮３丁目２番地の７,,08,220,3050051,,,2024-01-26,登記官による閉鎖,,,2015-10-05,1,,,,,,0
2240,7050002024465,登記記録の閉鎖等,0,2024-01-29,2024-01-26,有限会社大塚設備工業所,,有限会社,茨城県,古河市,西牛谷９００番地４４,,08,204,3060233,,,2024-01-26,登記官による閉鎖,,,2015-10-05,1,,,,,,0
2242,7050002028978,登記記録の閉鎖等,0,2024-01-29,2024-01-26,有限会社水と土と人のための研究所,,有限会社,茨城県,行方市,次木７７１番地２,,08,233,3111722,,,2024-01-26,登記官による閉鎖,,,2015-10-05,1,,,,,,0
2243,7050002041816,登記記録の閉鎖等,0,2024-01-29,2024-01-26,有限会社石島住設工業,,有限会社,茨城県,筑西市,玉戸１３２２番地の３３,,08,227,3080847,,,2024-01-26,登記官による閉鎖,,,2015-10-05,1,,,,,,0
2244,7050003001612,登記記録の閉鎖等,0,2024-01-29,2024-01-26,合資会社カナン,,合資会社,茨城県,龍ケ崎市,板橋町１４７番地４,,08,208,3010801,,,2024-01-26,登記官による閉鎖,,,2015-10-05,1,,,,,,0
2245,7050005006337,登記記録の閉鎖等,0,2024-01-29,2024-01-26,特定非営利活動法人家庭と暮らしの悩みを解決していく会パステル,,その他の設立登記法人,茨城県,神栖市,奥野谷８１６８、西浦ビル４Ｆ,,08,232,3140116,,,2024-01-26,登記官による閉鎖,,,2015-10-05,1,,,,,,0
2246,7050005008738,登記記録の閉鎖等,0,2024-01-29,2024-01-26,財団法人つくば職業訓練教育財団,,その他の設立登記法人,茨城県,取手市,本郷１丁目６番６号,,08,217,3020022,,,2024-01-26,登記官による閉鎖,,,2015-10-05,1,,,,,,0
2247,7060001016834,登記記録の閉鎖等,0,2024-01-29,2024-01-25,サンチャイルド株式会社,,株式会社,栃木県,栃木市,都賀町家中６０１４番地１,,09,203,3280111,,,2024-01-25,清算の結了等,,,2015-10-05,1,,,,,サンチャイルド,0
2251,7070001021734,登記記録の閉鎖等,0,2024-01-29,2024-01-25,株式会社佐藤自動車商会,,株式会社,群馬県,館林市,赤土町７９６番地の１,,10,207,3740053,,,2024-01-25,清算の結了等,,,2015-10-05,1,,,,,サトウジドウシャショウカイ,0
2258,7100001017357,登記記録の閉鎖等,0,2024-01-29,2024-01-19,株式会社白馬リゾートシステム,,株式会社,長野県,北安曇郡白馬村,大字北城３０２０番地６１４,,20,485,3999301,,,2024-01-19,清算の結了等,,,2015-10-05,1,,,,,ハクバリゾートシステム,0
2260,7110001009213,登記記録の閉鎖等,0,2024-01-29,2024-01-25,株式会社アシスト,,株式会社,新潟県,新潟市西蒲区,曽根５５７番地,,15,108,9590422,,,2024-01-25,清算の結了等,,,2015-10-05,1,,,,,アシスト,0
2264,7120002065394,登記記録の閉鎖等,0,2024-01-29,2024-01-26,有限会社スパッツィオ,,有限会社,兵庫県,宝塚市,平井３丁目１０番９号,,28,214,6650816,,,2024-01-26,登記官による閉鎖,,,2015-10-05,1,,,,,,0
2275,7122002016575,登記記録の閉鎖等,0,2024-01-29,2024-01-25,有限会社オーエス産業,,有限会社,大阪府,八尾市,新家町１丁目５８番地の３,,27,212,5810811,,,2024-01-25,清算の結了等,,,2015-10-05,1,,,,,オーエスサンギョウ,0
2279,7130001046246,登記記録の閉鎖等,0,2024-01-29,2024-01-25,株式会社イプシロン,,株式会社,京都府,京都市西京区,大枝南福西町２丁目７番地の９,,26,111,6101113,,,2024-01-25,清算の結了等,,,2015-10-05,1,,,,,イプシロン,0
2282,7130003005885,登記記録の閉鎖等,0,2024-01-29,2024-01-23,Ａｎｎａｄｖｅｎｔｕｒｅ合同会社,,合同会社,京都府,京都市東山区,鞘町通五条下る２丁目大阪町３５８番地３,,26,105,6050904,,,2024-01-23,清算の結了等,,,2019-02-25,1,,,,,アンアドベンチャー,0
2285,7140001002693,登記記録の閉鎖等,0,2024-01-29,2024-01-26,株式会社山治岸本商店,,株式会社,兵庫県,神戸市東灘区,深江浜町１番１神戸市中央卸売市場東部市場内,,28,101,6580023,,,2024-01-26,登記官による閉鎖,,,2015-10-05,1,,,,,,0
2286,7140001022163,登記記録の閉鎖等,0,2024-01-29,2024-01-26,株式会社ケイ・キッド,,株式会社,兵庫県,神戸市中央区,八幡通４丁目１番２７－１７０１号,,28,110,6510085,,,2024-01-26,登記官による閉鎖,,,2015-10-05,1,,,,,,0
2287,7140001023616,登記記録の閉鎖等,0,2024-01-29,2024-01-26,クラウンラインズ株式会社,,株式会社,兵庫県,神戸市灘区,摩耶埠頭２番１,,28,102,6570854,,,2024-01-26,登記官による閉鎖,,,2015-10-05,1,,,,,,0
2288,7140001033037,登記記録の閉鎖等,0,2024-01-29,2024-01-26,株式会社関西ＴＣ,,株式会社,兵庫県,神戸市西区,池上５丁目１番地の９,,28,111,6512111,,,2024-01-26,登記官による閉鎖,,,2015-10-05,1,,,,,,0
2289,7140001033152,登記記録の閉鎖等,0,2024-01-29,2024-01-26,株式会社コウエイ,,株式会社,兵庫県,神戸市長田区,苅藻通５丁目５番７号,,28,106,6530032,,,2024-01-26,登記官による閉鎖,,,2015-10-05,1,,,,,,0
2290,7140001036519,登記記録の閉鎖等,0,2024-01-29,2024-01-26,株式会社バンテック,,株式会社,兵庫県,三木市,大塚１丁目３番５９号,,28,215,6730413,,,2024-01-26,登記官による閉鎖,,,2015-10-05,1,,,,,,0
2294,7140001080748,登記記録の閉鎖等,0,2024-01-29,2024-01-26,株式会社Ａｒｓ,,株式会社,兵庫県,伊丹市,安堂寺町７丁目２番地２,,28,207,6640864,,,2024-01-26,登記官による閉鎖,,,2015-10-05,1,,,,,,0
2297,7140001081787,登記記録の閉鎖等,0,2024-01-29,2024-01-26,株式会社ティ・エム・ジィ,,株式会社,兵庫県,宝塚市,ゆずり葉台２丁目３番１２号,,28,214,6650025,,,2024-01-26,登記官による閉鎖,,,2015-10-05,1,,,,,,0
2303,7140002004755,登記記録の閉鎖等,0,2024-01-29,2024-01-26,有限会社エムズ,,有限会社,兵庫県,神戸市兵庫区,湊町４丁目２番１２号２０８号室,,28,105,6520812,,,2024-01-26,登記官による閉鎖,,,2015-10-05,1,,,,,,0
2304,7140002005200,登記記録の閉鎖等,0,2024-01-29,2024-01-26,有限会社細川機械,,有限会社,兵庫県,神戸市西区,井吹台東町１丁目２番地１（１－５０６）,,28,111,6512242,,,2024-01-26,登記官による閉鎖,,,2015-10-05,1,,,,,,0
2307,7140002013046,登記記録の閉鎖等,0,2024-01-29,2024-01-26,有限会社エイ・エム・ユウ・エンタープライズ,,有限会社,兵庫県,神戸市中央区,加納町４丁目８番１５号,,28,110,6500001,,,2024-01-26,登記官による閉鎖,,,2015-10-05,1,,,,,,0
2308,7140002016742,登記記録の閉鎖等,0,2024-01-29,2024-01-26,有限会社神戸連合,,有限会社,兵庫県,神戸市兵庫区,石井町８丁目３番１号,,28,105,6520061,,,2024-01-26,登記官による閉鎖,,,2015-10-05,1,,,,,,0
2311,7140002042986,登記記録の閉鎖等,0,2024-01-29,2024-01-26,有限会社山下商会,,有限会社,兵庫県,尼崎市,武庫町１丁目２８番１２号ラフィネ武庫之荘７０１,,28,202,6610044,,,2024-01-26,登記官による閉鎖,,,2015-10-05,1,,,,,,0
2312,7140002046896,登記記録の閉鎖等,0,2024-01-29,2024-01-26,有限会社ファーラル,,有限会社,兵庫県,豊岡市,戸牧３７番地の２,,28,209,6680065,,,2024-01-26,登記官による閉鎖,,,2015-10-05,1,,,,,,0
2318,7140005003663,登記記録の閉鎖等,0,2024-01-29,2024-01-26,特定非営利活動法人高齢者支援訪問美容専門サービス,,その他の設立登記法人,兵庫県,神戸市中央区,明石町４７番地ニッケビル２Ｆ,,28,110,6500037,,,2024-01-26,登記官による閉鎖,,,2015-10-05,1,,,,,,0
2319,7140005017861,登記記録の閉鎖等,0,2024-01-29,2024-01-26,特定非営利活動法人加西ニューピープル,,その他の設立登記法人,兵庫県,加西市,大村町１７４番地の２,,28,220,6752234,,,2024-01-26,登記官による閉鎖,,,2015-10-05,1,,,,,,0
2335,7240001051879,登記記録の閉鎖等,0,2024-01-29,2024-01-22,株式会社コネクト,,株式会社,広島県,安芸郡海田町,中店１３番１４号,,34,304,7360066,,,2024-01-22,清算の結了等,,,2017-10-26,1,,,,,コネクト,0
2343,7270002004619,登記記録の閉鎖等,0,2024-01-29,2024-01-29,有限会社アート電機,,有限会社,鳥取県,八頭郡智頭町,大字三吉６２６番地１０,,31,328,6891434,,,2024-01-29,清算の結了等,,,2015-10-05,1,,,,,アートデンキ,0
2346,7290002004402,登記記録の閉鎖等,0,2024-01-29,2024-01-26,有限会社エム・エス,,有限会社,福岡県,福岡市東区,唐原１丁目９番３１号,,40,131,8130001,,,2024-01-26,清算の結了等,,,2015-10-05,1,,,,,エムエス,0
2350,7290801006466,登記記録の閉鎖等,0,2024-01-29,2024-01-26,株式会社ワイ・エヌ・ケイ,,株式会社,福岡県,北九州市小倉南区,横代東町１丁目１番３５号,,40,107,8020822,,,2024-01-26,清算の結了等,,,2015-10-05,1,,,,,ワイエヌケイ,0
2360,7350001004826,登記記録の閉鎖等,0,2024-01-29,2024-01-22,株式会社ＥＮＣＨＡＮＴＥ,,株式会社,広島県,広島市中区,流川町８番２０号,,34,101,7300028,,,2024-01-22,清算の結了等,,,2015-10-05,1,,,,,アンシャンテ,0
2407,8010401151689,登記記録の閉鎖等,0,2024-01-29,2024-01-17,フェニックスジャパン株式会社,,株式会社,東京都,港区,赤坂５丁目３番１号赤坂Ｂｉｚタワー３８階,,13,103,1070052,,,2024-01-17,清算の結了等,,,2020-03-16,1,,,,,フェニックスジャパン,0
2413,8010502005975,登記記録の閉鎖等,0,2024-01-29,2024-01-24,有限会社関口金物店,,有限会社,東京都,台東区,浅草６丁目２１番１４号,,13,106,1110032,,,2024-01-24,清算の結了等,,,2015-10-05,1,,,,,セキグチカナモノテン,0
2428,8010902009948,登記記録の閉鎖等,0,2024-01-29,2024-01-24,有限会社ティー,,有限会社,東京都,世田谷区,北沢２丁目３４番３号,,13,112,1550031,,,2024-01-24,清算の結了等,,,2015-10-05,1,,,,,ティー,0
2469,8020001016622,登記記録の閉鎖等,0,2024-01-29,2024-01-25,飯田電器株式会社,,株式会社,神奈川県,横浜市鶴見区,市場上町２番１５号,,14,101,2300021,,,2024-01-25,清算の結了等,,,2015-10-05,1,,,,,イイダデンキ,0
2472,8020001090188,登記記録の閉鎖等,0,2024-01-29,2024-01-24,株式会社クリーンライフサービス,,株式会社,神奈川県,横浜市旭区,白根３丁目３０番１－４号,,14,112,2410005,,,2024-01-24,清算の結了等,,,2015-10-05,1,,,,,クリーンライフサービス,0
2481,8020002103683,登記記録の閉鎖等,0,2024-01-29,2024-01-16,有限会社アシストビソウサービス,,有限会社,神奈川県,川崎市川崎区,四谷上町２２番１９号,,14,131,2100828,,,2024-01-16,清算の結了等,,,2015-10-05,1,,,,,アシストビソウサービス,0
2490,8030001013395,登記記録の閉鎖等,0,2024-01-29,2024-01-29,株式会社八洲工産,,株式会社,埼玉県,さいたま市北区,宮原町２丁目１４番地１５,,11,102,3310812,,,2024-01-29,登記官による閉鎖,,,2015-10-05,1,,,,,,0
2491,8030001023262,登記記録の閉鎖等,0,2024-01-29,2024-01-29,株式会社大成,,株式会社,埼玉県,戸田市,笹目３丁目３番地の２０,,11,224,3350034,,,2024-01-29,登記官による閉鎖,,,2015-10-05,1,,,,,,0
2492,8030001034846,登記記録の閉鎖等,0,2024-01-29,2024-01-29,株式会社木村,,株式会社,埼玉県,草加市,住吉１丁目８番１５号,,11,221,3400014,,,2024-01-29,登記官による閉鎖,,,2015-10-05,1,,,,,,0
2493,8030001035514,登記記録の閉鎖等,0,2024-01-29,2024-01-29,富士あられ販売株式会社,,株式会社,埼玉県,草加市,弁天４丁目２４番２２号,,11,221,3400004,,,2024-01-29,登記官による閉鎖,,,2015-10-05,1,,,,,,0
2494,8030001040068,登記記録の閉鎖等,0,2024-01-29,2024-01-29,山下電算株式会社,,株式会社,埼玉県,三郷市,戸ケ崎１丁目４２６番地,,11,237,3410044,,,2024-01-29,登記官による閉鎖,,,2015-10-05,1,,,,,,0
2495,8030001042056,登記記録の閉鎖等,0,2024-01-29,2024-01-29,株式会社泉ホールセール,,株式会社,埼玉県,桶川市,大字下日出谷４番地の９,,11,231,3630025,,,2024-01-29,登記官による閉鎖,,,2015-10-05,1,,,,,,0
2496,8030001046767,登記記録の閉鎖等,0,2024-01-29,2024-01-29,大和菱光コンクリート株式会社,,株式会社,埼玉県,和光市,中央２丁目５番２９号,,11,229,3510113,,,2024-01-29,登記官による閉鎖,,,2015-10-05,1,,,,,,0
2497,8030001051619,登記記録の閉鎖等,0,2024-01-29,2024-01-29,株式会社アイランド・システム,,株式会社,埼玉県,南埼玉郡宮代町,和戸１丁目５番９号,,11,442,3450836,,,2024-01-29,登記官による閉鎖,,,2015-10-05,1,,,,,,0
2498,8030001060702,登記記録の閉鎖等,0,2024-01-29,2024-01-29,株式会社ワールドエンタープライズ,,株式会社,埼玉県,本庄市,児玉町児玉１１７０番地１,,11,211,3670212,,,2024-01-29,登記官による閉鎖,,,2015-10-05,1,,,,,,0
2499,8030001062046,登記記録の閉鎖等,0,2024-01-29,2024-01-29,ソフィルテック株式会社,,株式会社,埼玉県,北本市,山中１丁目１４３番地の２,,11,233,3640004,,,2024-01-29,登記官による閉鎖,,,2015-10-05,1,,,,,,0
2500,8030001063127,登記記録の閉鎖等,0,2024-01-29,2024-01-29,株式会社フランスヤ東京,,株式会社,埼玉県,戸田市,早瀬２丁目２０番１０号,,11,224,3350036,,,2024-01-29,登記官による閉鎖,,,2015-10-05,1,,,,,,0
2501,8030001068101,登記記録の閉鎖等,0,2024-01-29,2024-01-29,リファインウェーブサービス販売株式会社,,株式会社,埼玉県,越谷市,越ヶ谷２７２２番地１７,,11,222,3430024,,,2024-01-29,登記官による閉鎖,,,2015-10-05,1,,,,,,0
2502,8030001097182,登記記録の閉鎖等,0,2024-01-29,2024-01-29,株式会社ジュテル・レザー,,株式会社,埼玉県,草加市,青柳２丁目３番１３号,,11,221,3400002,,,2024-01-29,登記官による閉鎖,,,2015-10-05,1,,,,,,0
2503,8030001098536,登記記録の閉鎖等,0,2024-01-29,2024-01-29,エンジョイワーカー株式会社,,株式会社,埼玉県,志木市,館２丁目５番２号,,11,228,3530006,,,2024-01-29,登記官による閉鎖,,,2015-10-05,1,,,,,,0
2504,8030001098899,登記記録の閉鎖等,0,2024-01-29,2024-01-29,株式会社博光,,株式会社,埼玉県,熊谷市,大字上中条９２０番地３,,11,202,3600000,,,2024-01-29,登記官による閉鎖,,,2015-10-05,1,,,,,,0
2508,8030002003239,登記記録の閉鎖等,0,2024-01-29,2024-01-29,有限会社オフィスミズノ,,有限会社,埼玉県,さいたま市大宮区,仲町１丁目５６番地,,11,103,3300845,,,2024-01-29,登記官による閉鎖,,,2015-10-05,1,,,,,,0
2509,8030002009681,登記記録の閉鎖等,0,2024-01-29,2024-01-29,有限会社トーア環境技研,,有限会社,埼玉県,さいたま市見沼区,大字蓮沼９７９番地の２,,11,104,3370015,,,2024-01-29,登記官による閉鎖,,,2015-10-05,1,,,,,,0
2510,8030002026347,登記記録の閉鎖等,0,2024-01-29,2024-01-29,有限会社丸山水産,,有限会社,埼玉県,蕨市,中央３丁目２０番２０号,,11,223,3350004,,,2024-01-29,登記官による閉鎖,,,2015-10-05,1,,,,,,0
2511,8030002035315,登記記録の閉鎖等,0,2024-01-29,2024-01-29,有限会社清水屋米穀店,,有限会社,埼玉県,入間市,鍵山１丁目６番２号,,11,225,3580004,,,2024-01-29,登記官による閉鎖,,,2015-10-05,1,,,,,,0
2512,8030002039101,登記記録の閉鎖等,0,2024-01-29,2024-01-29,有限会社インテリアフジ,,有限会社,埼玉県,久喜市,鷲宮２丁目３番２３号,,11,232,3400217,,,2024-01-29,登記官による閉鎖,,,2015-10-05,1,,,,,,0
2513,8030002040323,登記記録の閉鎖等,0,2024-01-29,2024-01-29,有限会社アイティービースズキ,,有限会社,埼玉県,白岡市,高岩４９７番地ヴァンベール新白岡２０４,,11,246,3490213,,,2024-01-29,登記官による閉鎖,,,2015-10-05,1,,,,,,0
2514,8030002045264,登記記録の閉鎖等,0,2024-01-29,2024-01-29,有限会社新里薬品,,有限会社,埼玉県,草加市,新里町２１２番地の６,,11,221,3400031,,,2024-01-29,登記官による閉鎖,,,2015-10-05,1,,,,,,0
2515,8030002046295,登記記録の閉鎖等,0,2024-01-29,2024-01-29,有限会社ワンニーズ,,有限会社,埼玉県,草加市,西町１３８番地２,,11,221,3400035,,,2024-01-29,登記官による閉鎖,,,2015-10-05,1,,,,,,0
2516,8030002054265,登記記録の閉鎖等,0,2024-01-29,2024-01-29,有限会社大和ストーン貿易,,有限会社,埼玉県,上尾市,本町３丁目２番６号第一アゼリアビル２０６,,11,219,3620014,,,2024-01-29,登記官による閉鎖,,,2015-10-05,1,,,,,,0
2517,8030002064438,登記記録の閉鎖等,0,2024-01-29,2024-01-29,光紙業有限会社,,有限会社,埼玉県,和光市,白子１丁目１３番３５号,,11,229,3510101,,,2024-01-29,登記官による閉鎖,,,2015-10-05,1,,,,,,0
2518,8030002073100,登記記録の閉鎖等,0,2024-01-29,2024-01-29,有限会社グラスオーヴァ,,有限会社,埼玉県,川越市,芳野台１丁目１０３番３６号,,11,201,3500833,,,2024-01-29,登記官による閉鎖,,,2015-10-05,1,,,,,,0
2519,8030002073117,登記記録の閉鎖等,0,2024-01-29,2024-01-29,有限会社栗原家具,,有限会社,埼玉県,川越市,かし野台２丁目２１番地１５,,11,201,3501179,,,2024-01-29,登記官による閉鎖,,,2015-10-05,1,,,,,,0
2520,8030002080674,登記記録の閉鎖等,0,2024-01-29,2024-01-29,有限会社住宅販売,,有限会社,埼玉県,本庄市,本庄３丁目７番２５号,,11,211,3670051,,,2024-01-29,登記官による閉鎖,,,2015-10-05,1,,,,,,0
2521,8030002081755,登記記録の閉鎖等,0,2024-01-29,2024-01-29,有限会社鈴木塗装,,有限会社,埼玉県,本庄市,児玉町上真下３２４番地７,,11,211,3670205,,,2024-01-29,登記官による閉鎖,,,2015-10-05,1,,,,,,0
2522,8030002087579,登記記録の閉鎖等,0,2024-01-29,2024-01-29,有限会社林商店,,有限会社,埼玉県,越谷市,東越谷７丁目３０３０番地１,,11,222,3430023,,,2024-01-29,登記官による閉鎖,,,2015-10-05,1,,,,,,0
2523,8030002095680,登記記録の閉鎖等,0,2024-01-29,2024-01-29,有限会社岡部デンタルアート,,有限会社,埼玉県,東松山市,大字石橋１７９７番地１１０,,11,212,3550072,,,2024-01-29,登記官による閉鎖,,,2015-10-05,1,,,,,,0
2524,8030002096241,登記記録の閉鎖等,0,2024-01-29,2024-01-29,有限会社フタバ,,有限会社,埼玉県,東松山市,松葉町１丁目４番２号,,11,212,3550017,,,2024-01-29,登記官による閉鎖,,,2015-10-05,1,,,,,,0
2525,8030002099797,登記記録の閉鎖等,0,2024-01-29,2024-01-29,有限会社ありがとうございます,,有限会社,埼玉県,川口市,柳崎５丁目１５番９号,,11,203,3330861,,,2024-01-29,登記官による閉鎖,,,2015-10-05,1,,,,,,0
2527,8030002104210,登記記録の閉鎖等,0,2024-01-29,2024-01-29,有限会社石和,,有限会社,埼玉県,川口市,並木２丁目４０番６号,,11,203,3320034,,,2024-01-29,登記官による閉鎖,,,2015-10-05,1,,,,,,0
2528,8030002107857,登記記録の閉鎖等,0,2024-01-29,2024-01-29,梁島ステンレス工業有限会社,,有限会社,埼玉県,川口市,前川２丁目３８番２０号,,11,203,3330842,,,2024-01-29,登記官による閉鎖,,,2015-10-05,1,,,,,,0
2530,8030002113938,登記記録の閉鎖等,0,2024-01-29,2024-01-29,有限会社沼尻商店,,有限会社,埼玉県,熊谷市,柿沼６０２番地２,,11,202,3600803,,,2024-01-29,登記官による閉鎖,,,2015-10-05,1,,,,,,0
2531,8030002117971,登記記録の閉鎖等,0,2024-01-29,2024-01-29,有限会社千代田産業,,有限会社,埼玉県,行田市,旭町１０番３４号,,11,206,3610074,,,2024-01-29,登記官による閉鎖,,,2015-10-05,1,,,,,,0
2532,8030002118887,登記記録の閉鎖等,0,2024-01-29,2024-01-29,有限会社関東総合システム,,有限会社,埼玉県,熊谷市,新堀新田５７４番地１,,11,202,3600842,,,2024-01-29,登記官による閉鎖,,,2015-10-05,1,,,,,,0
2533,8030002120471,登記記録の閉鎖等,0,2024-01-29,2024-01-29,有限会社マルト商事,,有限会社,埼玉県,日高市,大字原宿３８７番地１１,,11,242,3501205,,,2024-01-29,登記官による閉鎖,,,2015-10-05,1,,,,,,0
2534,8030002123227,登記記録の閉鎖等,0,2024-01-29,2024-01-29,有限会社植竹木藝,,有限会社,埼玉県,越谷市,大成町７丁目３９番地,,11,222,3430825,,,2024-01-29,登記官による閉鎖,,,2015-10-05,1,,,,,,0
2535,8030003005853,登記記録の閉鎖等,0,2024-01-29,2024-01-29,合同会社ＬＤＦ－ＲｅＢＯＲＮ,,合同会社,埼玉県,所沢市,大字北秋津４１５番地の７,,11,208,3590038,,,2024-01-29,登記官による閉鎖,,,2015-10-05,1,,,,,,0
2537,8030005003905,登記記録の閉鎖等,0,2024-01-29,2024-01-29,埼玉中央リサイクル事業協同組合,,その他の設立登記法人,埼玉県,狭山市,大字中新田５２６番地１,,11,215,3501311,,,2024-01-29,登記官による閉鎖,,,2015-10-05,1,,,,,,0
2538,8030005008350,登記記録の閉鎖等,0,2024-01-29,2024-01-29,川越綿スフ織物工業組合,,その他の設立登記法人,埼玉県,川越市,大字砂新田４３１番地,,11,201,3501137,,,2024-01-29,登記官による閉鎖,,,2015-10-05,1,,,,,,0
2539,8030005014712,登記記録の閉鎖等,0,2024-01-29,2024-01-29,西埼玉建設事業協同組合,,その他の設立登記法人,埼玉県,日高市,大字高萩２０９４番地,,11,242,3501213,,,2024-01-29,登記官による閉鎖,,,2015-10-05,1,,,,,,0
2540,8030005016709,登記記録の閉鎖等,0,2024-01-29,2024-01-29,秩父物産協同組合,,その他の設立登記法人,埼玉県,秩父市,本町３番６号,,11,207,3680044,,,2024-01-29,登記官による閉鎖,,,2015-10-05,1,,,,,,0
2545,8040001035892,登記記録の閉鎖等,0,2024-01-29,2024-01-26,株式会社セブンプロ,,株式会社,茨城県,取手市,井野台１丁目２６番２０号,,08,217,3020015,,,2024-01-26,登記官による閉鎖,,,2015-10-05,1,,,,,,0
2550,8040003008599,登記記録の閉鎖等,0,2024-01-29,2024-01-19,合同会社カンボトレーディング,,合同会社,千葉県,我孫子市,湖北台１丁目１３番２２号,,12,222,2701132,,,2024-01-19,清算の結了等,,,2016-05-17,1,,,,,カンボトレーディング,0
2551,8050001009136,登記記録の閉鎖等,0,2024-01-29,2024-01-26,酒寄電設株式会社,,株式会社,茨城県,土浦市,天川２丁目１３番２号,,08,203,3000818,,,2024-01-26,登記官による閉鎖,,,2015-10-05,1,,,,,,0
2552,8050001011422,登記記録の閉鎖等,0,2024-01-29,2024-01-26,株式会社亀下薬局,,株式会社,茨城県,石岡市,府中１丁目４番８号,,08,205,3150013,,,2024-01-26,登記官による閉鎖,,,2015-10-05,1,,,,,,0
2553,8050001020043,登記記録の閉鎖等,0,2024-01-29,2024-01-26,株式会社ＴｏｙＢｏｘ,,株式会社,茨城県,つくば市,二の宮３丁目８番地２号雅ビル４０３号,,08,220,3050051,,,2024-01-26,登記官による閉鎖,,,2015-10-05,1,,,,,,0
2554,8050001023244,登記記録の閉鎖等,0,2024-01-29,2024-01-26,清水屋建設株式会社,,株式会社,茨城県,日立市,日高町３丁目２６番１０号,,08,202,3191414,,,2024-01-26,登記官による閉鎖,,,2015-10-05,1,,,,,,0
2555,8050001026973,登記記録の閉鎖等,0,2024-01-29,2024-01-26,株式会社醍醐,,株式会社,茨城県,久慈郡大子町,大字北田気４０７番地の２,,08,364,3193521,,,2024-01-26,登記官による閉鎖,,,2015-10-05,1,,,,,,0
2556,8050001027575,登記記録の閉鎖等,0,2024-01-29,2024-01-26,株式会社取手土地,,株式会社,茨城県,取手市,新町６丁目２番２号,,08,217,3020024,,,2024-01-26,登記官による閉鎖,,,2015-10-05,1,,,,,,0
2557,8050001033937,登記記録の閉鎖等,0,2024-01-29,2024-01-26,株式会社侍ＪＡＰＡＮ関東,,株式会社,茨城県,水戸市,宮町１丁目７番４４号,,08,201,3100015,,,2024-01-26,登記官による閉鎖,,,2015-10-05,1,,,,,,0
2558,8050001035421,登記記録の閉鎖等,0,2024-01-29,2024-01-26,フロンティア株式会社,,株式会社,茨城県,土浦市,中高津３丁目８番１６号,,08,203,3000815,,,2024-01-26,登記官による閉鎖,,,2015-10-05,1,,,,,,0
2559,8050001038432,登記記録の閉鎖等,0,2024-01-29,2024-01-26,株式会社オートラマライフ北関東,,株式会社,茨城県,水戸市,泉町１丁目６番２２号,,08,201,3100026,,,2024-01-26,登記官による閉鎖,,,2015-10-05,1,,,,,オートラマライフキタカントウ,0
2560,8050002001645,登記記録の閉鎖等,0,2024-01-29,2024-01-26,有限会社信明商事,,有限会社,茨城県,水戸市,文京１丁目１０番１１号,,08,201,3100056,,,2024-01-26,登記官による閉鎖,,,2015-10-05,1,,,,,,0
2561,8050002003336,登記記録の閉鎖等,0,2024-01-29,2024-01-26,有限会社谷津建築設計事務所,,有限会社,茨城県,水戸市,大塚町１５０３番地の３オフィス８２・２Ｆ－１,,08,201,3114143,,,2024-01-26,登記官による閉鎖,,,2015-10-05,1,,,,,,0
2562,8050002009853,登記記録の閉鎖等,0,2024-01-29,2024-01-26,有限会社ファーストサービス,,有限会社,茨城県,ひたちなか市,大平１丁目６番２号,,08,221,3120023,,,2024-01-26,登記官による閉鎖,,,2015-10-05,1,,,,,,0
2563,8050002013707,登記記録の閉鎖等,0,2024-01-29,2024-01-26,有限会社海鮮すし小松,,有限会社,茨城県,土浦市,神立中央５丁目７番１１号,,08,203,3000011,,,2024-01-26,登記官による閉鎖,,,2015-10-05,1,,,,,,0
2564,8050002027319,登記記録の閉鎖等,0,2024-01-29,2024-01-26,有限会社東北工業,,有限会社,茨城県,神栖市,息栖藤株２７６５番地,,08,232,3140133,,,2024-01-26,登記官による閉鎖,,,2015-10-05,1,,,,,,0
2565,8050002027335,登記記録の閉鎖等,0,2024-01-29,2024-01-26,有限会社ドゥーケイン,,有限会社,茨城県,神栖市,神栖２丁目１１番２９号,,08,232,3140143,,,2024-01-26,登記官による閉鎖,,,2015-10-05,1,,,,,,0
2566,8050002033465,登記記録の閉鎖等,0,2024-01-29,2024-01-26,有限会社堀田工芸,,有限会社,茨城県,龍ケ崎市,高須町３９９９番地,,08,208,3010026,,,2024-01-26,登記官による閉鎖,,,2015-10-05,1,,,,,,0
2567,8050002036030,登記記録の閉鎖等,0,2024-01-29,2024-01-26,有限会社袋田企画,,有限会社,茨城県,久慈郡大子町,大字袋田２８６番地の４,,08,364,3193523,,,2024-01-26,登記官による閉鎖,,,2015-10-05,1,,,,,,0
2568,8050002038159,登記記録の閉鎖等,0,2024-01-29,2024-01-26,有限会社長渡呂渡邊商店,00023197,有限会社,茨城県,つくばみらい市,長渡呂８９番地の３,,08,235,3002345,,,2024-01-26,登記官による閉鎖,,,2015-10-05,1,,,,,,0
2569,8050002038489,登記記録の閉鎖等,0,2024-01-29,2024-01-26,モリヤ・プレシジョン有限会社,,有限会社,茨城県,守谷市,松並１７９１番地の２,,08,224,3020108,,,2024-01-26,登記官による閉鎖,,,2015-10-05,1,,,,,,0
2570,8050002038778,登記記録の閉鎖等,0,2024-01-29,2024-01-26,有限会社サンセリテ,,有限会社,茨城県,守谷市,百合ケ丘３丁目２６６１番地の４５,,08,224,3020110,,,2024-01-26,登記官による閉鎖,,,2015-10-05,1,,,,,,0
2571,8050005000322,登記記録の閉鎖等,0,2024-01-29,2024-01-26,財団法人茨城県身障者自動車練習所,00023469,その他の設立登記法人,茨城県,水戸市,姫子１丁目８４６番地の２株式会社水戸第一自動車学校内,,08,201,3114151,,,2024-01-26,登記官による閉鎖,,,2015-10-05,1,,,,,,0
2572,8050005001948,登記記録の閉鎖等,0,2024-01-29,2024-01-26,特定非営利活動法人ＮＰＯ一期一会,,その他の設立登記法人,茨城県,水戸市,平須町１８２２番地の２８２,,08,201,3100853,,,2024-01-26,登記官による閉鎖,,,2015-10-05,1,,,,,,0
2577,8080001012896,登記記録の閉鎖等,0,2024-01-29,2024-01-25,株式会社天野屋呉服店,,株式会社,静岡県,島田市,本通３丁目５番の１１,,22,209,4270022,,,2024-01-25,清算の結了等,,,2015-10-05,1,,,,,アマノヤゴフクテン,0
2585,8120001155914,登記記録の閉鎖等,0,2024-01-29,2024-01-25,株式会社ＪＰ電子,,株式会社,大阪府,守口市,南寺方東通５丁目１９番１号,,27,209,5700043,,,2024-01-25,清算の結了等,,,2015-10-05,1,,,,,ジェーピーデンシ,0
2601,8140001001950,登記記録の閉鎖等,0,2024-01-29,2024-01-26,高見産業株式会社,,株式会社,兵庫県,神戸市東灘区,住吉台２番１号,,28,101,6580062,,,2024-01-26,登記官による閉鎖,,,2015-10-05,1,,,,,,0
2602,8140001018086,登記記録の閉鎖等,0,2024-01-29,2024-01-26,株式会社神戸環境エンジニアリング,,株式会社,兵庫県,神戸市兵庫区,湊町１丁目７番２４号,,28,105,6520812,,,2024-01-26,登記官による閉鎖,,,2015-10-05,1,,,,,,0
2603,8140001029793,登記記録の閉鎖等,0,2024-01-29,2024-01-26,灘商事株式会社,,株式会社,兵庫県,神戸市灘区,烏帽子町３丁目３番１１号,,28,102,6570042,,,2024-01-26,登記官による閉鎖,,,2015-10-05,1,,,,,,0
2604,8140001033151,登記記録の閉鎖等,0,2024-01-29,2024-01-26,アイシェード株式会社,,株式会社,兵庫県,神戸市中央区,下山手通１丁目５番４号,,28,110,6500011,,,2024-01-26,登記官による閉鎖,,,2015-10-05,1,,,,,,0
2606,8140001036947,登記記録の閉鎖等,0,2024-01-29,2024-01-23,株式会社リノベイト,,株式会社,兵庫県,三木市,緑が丘町中２丁目２番地の２０,,28,215,6730532,,,2024-01-23,清算の結了等,,,2015-10-05,1,,,,,リノベイト,0
2607,8140001037318,登記記録の閉鎖等,0,2024-01-29,2024-01-26,Ｐｏｅ　Ｐｏｅ株式会社,,株式会社,兵庫県,明石市,野々上３丁目１６番１１号ウエストクイーンズ２Ｆ,,28,203,6730017,,,2024-01-26,登記官による閉鎖,,,2015-10-05,1,,,,,,0
2610,8140001040602,登記記録の閉鎖等,0,2024-01-29,2024-01-26,株式会社龍野住建,,株式会社,兵庫県,たつの市,龍野町日山１０７番地７,,28,229,6794161,,,2024-01-26,登記官による閉鎖,,,2015-10-05,1,,,,,,0
2611,8140001042598,登記記録の閉鎖等,0,2024-01-29,2024-01-26,株式会社ＭＡＲＵＥＩ,,株式会社,兵庫県,加古川市,野口町長砂字大塚８１３番地の１,,28,210,6750016,,,2024-01-26,登記官による閉鎖,,,2015-10-05,1,,,,,,0
2612,8140001044339,登記記録の閉鎖等,0,2024-01-29,2024-01-26,株式会社かとう住研,,株式会社,兵庫県,加古川市,平岡町新在家１３７２番地の２１,,28,210,6750101,,,2024-01-26,登記官による閉鎖,,,2015-10-05,1,,,,,,0
2614,8140001044652,登記記録の閉鎖等,0,2024-01-29,2024-01-26,株式会社山口材木店,,株式会社,兵庫県,加古郡稲美町,蛸草１１０番地の１,00039601,28,381,6751116,,,2024-01-26,登記官による閉鎖,,,2015-10-05,1,,,,,,0
2615,8140001044702,登記記録の閉鎖等,0,2024-01-29,2024-01-26,株式会社イナミトレーディング,,株式会社,兵庫県,加古郡稲美町,加古３０７２番地,,28,381,6751105,,,2024-01-26,登記官による閉鎖,,,2015-10-05,1,,,,,,0
2617,8140001055699,登記記録の閉鎖等,0,2024-01-29,2024-01-26,あさひ貿易株式会社,,株式会社,兵庫県,尼崎市,水堂町１丁目４番３号,,28,202,6610026,,,2024-01-26,登記官による閉鎖,,,2015-10-05,1,,,,,,0
2619,8140001063859,登記記録の閉鎖等,0,2024-01-29,2024-01-26,須鎗株式会社,,株式会社,兵庫県,姫路市,西夢前台２丁目１２３番地,,28,201,6712214,,,2024-01-26,登記官による閉鎖,,,2018-12-21,1,,,,,,0
2620,8140001066060,登記記録の閉鎖等,0,2024-01-29,2024-01-26,株式会社アイビーエス,,株式会社,兵庫県,姫路市,飾磨区妻鹿１６１０番地９,,28,201,6728031,,,2024-01-26,登記官による閉鎖,,,2015-10-05,1,,,,,,0
2621,8140001070491,登記記録の閉鎖等,0,2024-01-29,2024-01-26,三高工業株式会社,,株式会社,兵庫県,西宮市,戸田町４番２１号,,28,204,6620916,,,2024-01-26,登記官による閉鎖,,,2015-10-05,1,,,,,,0
2622,8140001071787,登記記録の閉鎖等,0,2024-01-29,2024-01-26,あまの葉株式会社,,株式会社,兵庫県,西宮市,弓場町９番１６－６０５号,,28,204,6620964,,,2024-01-26,登記官による閉鎖,,,2015-10-05,1,,,,,,0
2623,8140001079302,登記記録の閉鎖等,0,2024-01-29,2024-01-26,株式会社倉田建材,,株式会社,兵庫県,川西市,加茂５丁目３番９号,,28,217,6660025,,,2024-01-26,登記官による閉鎖,,,2015-10-05,1,,,,,,0
2626,8140001109125,登記記録の閉鎖等,0,2024-01-29,2024-01-26,藤井縫製株式会社,,株式会社,兵庫県,西脇市,黒田庄町黒田１４８８番地の２,,28,213,6790302,,,2024-01-26,登記官による閉鎖,,,2018-02-16,1,,,,,,0
2629,8140002014530,登記記録の閉鎖等,0,2024-01-29,2024-01-26,有限会社スズラン印刷,,有限会社,兵庫県,神戸市北区,鈴蘭台北町７丁目２１番８号,,28,109,6511111,,,2024-01-26,登記官による閉鎖,,,2015-10-05,1,,,,,,0
2630,8140002024950,登記記録の閉鎖等,0,2024-01-29,2024-01-26,有限会社あさか父母の家,,有限会社,兵庫県,神戸市兵庫区,夢野町２丁目４番地の１シャトー第９神戸１０４,,28,105,6520063,,,2024-01-26,登記官による閉鎖,,,2015-10-05,1,,,,,,0
2631,8140002026352,登記記録の閉鎖等,0,2024-01-29,2024-01-26,有限会社北舞子販売,,有限会社,兵庫県,神戸市垂水区,舞子台３丁目１１番１８号,,28,108,6550046,,,2024-01-26,登記官による閉鎖,,,2015-10-05,1,,,,,,0
2632,8140002029140,登記記録の閉鎖等,0,2024-01-29,2024-01-26,有限会社大漁,,有限会社,兵庫県,明石市,鍛治屋町５番２６号,,28,203,6730884,,,2024-01-26,登記官による閉鎖,,,2015-10-05,1,,,,,,0
2633,8140002032747,登記記録の閉鎖等,0,2024-01-29,2024-01-26,有限会社中尾板金工作所,,有限会社,兵庫県,宍粟市,山崎町矢原１２番地の８,,28,227,6712526,,,2024-01-26,登記官による閉鎖,,,2015-10-05,1,,,,,,0
2636,8140002056820,登記記録の閉鎖等,0,2024-01-29,2024-01-26,有限会社夙川ラケット倶楽部,,有限会社,兵庫県,西宮市,建石町２番１０号,,28,204,6620943,,,2024-01-26,登記官による閉鎖,,,2015-10-05,1,,,,,,0
2637,8140002059781,登記記録の閉鎖等,0,2024-01-29,2024-01-26,有限会社メディカルオフィス・ジェイ,,有限会社,兵庫県,西宮市,仁川町２丁目８番１８号,,28,204,6620811,,,2024-01-26,登記官による閉鎖,,,2015-10-05,1,,,,,,0
2638,8140002068056,登記記録の閉鎖等,0,2024-01-29,2024-01-26,有限会社フロムサーティ,,有限会社,兵庫県,宝塚市,すみれガ丘２丁目１番１－１１０号,,28,214,6650847,,,2024-01-26,登記官による閉鎖,,,2015-10-05,1,,,,,,0
2639,8140003001057,登記記録の閉鎖等,0,2024-01-29,2024-01-26,合資会社エヌ・エス,,合資会社,兵庫県,神戸市中央区,北長狭通７丁目３番３号,,28,110,6500012,,,2024-01-26,登記官による閉鎖,,,2015-10-05,1,,,,,,0
2640,8140003005025,登記記録の閉鎖等,0,2024-01-29,2024-01-26,合同会社さくらんぼ,,合同会社,兵庫県,神戸市中央区,港島中町３丁目１番地５９棟３０３号,,28,110,6500046,,,2024-01-26,登記官による閉鎖,,,2015-10-05,1,,,,,,0
2641,8140003006931,登記記録の閉鎖等,0,2024-01-29,2024-01-26,アクティブジャパン合同会社,,合同会社,兵庫県,丹波市,柏原町南多田字東藪２２５番地１,,28,223,6693301,,,2024-01-26,登記官による閉鎖,,,2015-10-05,1,,,,,,0
2642,8140005004545,登記記録の閉鎖等,0,2024-01-29,2024-01-26,特定非営利活動法人まちプロデューサーズＡＭＯＲＥ,,その他の設立登記法人,兵庫県,神戸市中央区,下山手通３丁目６番５号,,28,110,6500011,,,2024-01-26,登記官による閉鎖,,,2015-10-05,1,,,,,,0
2643,8140005005304,登記記録の閉鎖等,0,2024-01-29,2024-01-26,一般社団法人障害者小規模作業所あすか,,その他の設立登記法人,兵庫県,神戸市東灘区,深江南町３丁目２番７号,,28,101,6580022,,,2024-01-26,登記官による閉鎖,,,2015-10-05,1,,,,,,0
2644,8140005010147,登記記録の閉鎖等,0,2024-01-29,2024-01-26,特定非営利活動法人ＨＩＵ,,その他の設立登記法人,兵庫県,加古川市,加古川町本町４２２番地,,28,210,6750037,,,2024-01-26,登記官による閉鎖,,,2015-10-05,1,,,,,,0
2645,8140005018446,登記記録の閉鎖等,0,2024-01-29,2024-01-26,特定非営利活動法人伊丹エコ労働福祉センター,,その他の設立登記法人,兵庫県,姫路市,的形町的形１７７８－１－８０１,,28,201,6710111,,,2024-01-26,登記官による閉鎖,,,2015-10-05,1,,,,,,0
2646,8140005018520,登記記録の閉鎖等,0,2024-01-29,2024-01-26,特定非営利活動法人青い地球兵庫,,その他の設立登記法人,兵庫県,伊丹市,中央５丁目４番２６号,,28,207,6640851,,,2024-01-26,登記官による閉鎖,,,2015-10-05,1,,,,,,0
2661,8240001018340,登記記録の閉鎖等,0,2024-01-29,2024-01-22,株式会社丸福,,株式会社,広島県,廿日市市,阿品台５丁目７番１５号,,34,213,7380053,,,2024-01-22,清算の結了等,,,2015-10-05,1,,,,,マルフク,0
2663,8240001050913,登記記録の閉鎖等,0,2024-01-29,2024-01-22,株式会社健成モールド,,株式会社,広島県,広島市安佐北区,安佐町大字久地２６８３番地２２,,34,106,7313362,,,2024-01-22,清算の結了等,,,2017-04-13,1,,,,,ケンセイモールド,0
2664,8240002000834,登記記録の閉鎖等,0,2024-01-29,2024-01-22,有限会社天井組,,有限会社,広島県,広島市西区,南観音４丁目３番１２号,,34,104,7330035,,,2024-01-22,清算の結了等,,,2015-10-05,1,,,,,アマイグミ,0
2682,8300002010884,登記記録の閉鎖等,0,2024-01-29,2024-01-25,有限会社阿部商事,,有限会社,佐賀県,唐津市,七山滝川１０９５番地１,,41,202,8471106,,,2024-01-25,清算の結了等,,,2015-10-05,1,,,,,アベショウジ,0
2690,8350001004544,登記記録の閉鎖等,0,2024-01-29,2024-01-19,株式会社杏園,,株式会社,宮崎県,宮崎市,高岡町内山３６２１番地,,45,201,8802321,,,2024-01-19,清算の結了等,,,2015-10-05,1,,,,,アンズエン,0
2706,8430003006976,登記記録の閉鎖等,0,2024-01-29,2024-01-23,ＫＳプラネッツ合同会社,,合同会社,北海道,札幌市厚別区,上野幌三条５丁目５番３号,,01,108,0040033,,,2024-01-23,清算の結了等,,,2015-10-05,1,,,,,ケーエスプラネッツ,0
2729,9010005030801,登記記録の閉鎖等,0,2024-01-29,2024-01-25,一般社団法人日中民間文化交流センター,,その他の設立登記法人,東京都,文京区,千駄木２丁目２番１１－１０２号,,13,105,1130022,,,2024-01-25,清算の結了等,,,2019-09-26,1,,,,,ニッチュウミンカンブンカコウリュウ,0
2754,9010902023923,登記記録の閉鎖等,0,2024-01-29,2024-01-23,有限会社アップデート,,有限会社,東京都,世田谷区,船橋７丁目８番２号１４３０,,13,112,1560055,,,2024-01-23,清算の結了等,,,2015-10-05,1,,,,,アップデート,0
2771,9011301022681,登記記録の閉鎖等,0,2024-01-29,2024-01-19,株式会社グルト,,株式会社,東京都,渋谷区,恵比寿４丁目２０番３号,,13,113,1500013,,,2024-01-19,合併による解散等,6010401098453,令和６年１月１日東京都渋谷区恵比寿四丁目２０番３号株式会社クラウドワークス（6010401098453）に合併し解散,2016-11-11,1,,,,,グルト,0
2802,9030001011893,登記記録の閉鎖等,0,2024-01-29,2024-01-29,株式会社ロイヤル企画,,株式会社,埼玉県,さいたま市北区,別所町５８番地８,,11,102,3310821,,,2024-01-29,登記官による閉鎖,,,2015-10-05,1,,,,,,0
2803,9030001014384,登記記録の閉鎖等,0,2024-01-29,2024-01-29,ひのき物流株式会社,,株式会社,埼玉県,さいたま市見沼区,大字西山村新田１８７番地２－１０１号,,11,104,3370034,,,2024-01-29,登記官による閉鎖,,,2015-10-05,1,,,,,,0
2805,9030001019359,登記記録の閉鎖等,0,2024-01-29,2024-01-29,東北ロジスティック株式会社,,株式会社,埼玉県,さいたま市岩槻区,大字大野島２３３番地２,,11,110,3390018,,,2024-01-29,登記官による閉鎖,,,2015-10-05,1,,,,,,0
2806,9030001023047,登記記録の閉鎖等,0,2024-01-29,2024-01-29,株式会社アヴァン・リール,,株式会社,埼玉県,戸田市,本町５丁目２番２０号アルシオン戸田公園２０４号,,11,224,3350023,,,2024-01-29,登記官による閉鎖,,,2015-10-05,1,,,,,,0
2807,9030001026090,登記記録の閉鎖等,0,2024-01-29,2024-01-29,アビタインターナショナル株式会社,,株式会社,埼玉県,狭山市,大字水野７９１番地の６６,,11,215,3501317,,,2024-01-29,登記官による閉鎖,,,2015-10-05,1,,,,,,0
2808,9030001026173,登記記録の閉鎖等,0,2024-01-29,2024-01-22,株式会社大橋工業,,株式会社,埼玉県,狭山市,富士見２丁目３番８号,,11,215,3501306,,,2024-01-22,清算の結了等,,,2015-10-05,1,,,,,オオハシコウギョウ,0
2809,9030001027790,登記記録の閉鎖等,0,2024-01-29,2024-01-29,株式会社入間弁当,,株式会社,埼玉県,入間市,大字狭山台字武蔵野２０９,,11,225,3580033,,,2024-01-29,登記官による閉鎖,,,2015-10-05,1,,,,,,0
2810,9030001031396,登記記録の閉鎖等,0,2024-01-29,2024-01-29,株式会社春日塗装工業,,株式会社,埼玉県,幸手市,西１丁目７番１４号,,11,240,3400116,,,2024-01-29,登記官による閉鎖,,,2015-10-05,1,,,,,,0
2811,9030001037402,登記記録の閉鎖等,0,2024-01-29,2024-01-29,株式会社エンドレス,,株式会社,埼玉県,八潮市,八潮７丁目３５番地１９,,11,234,3400815,,,2024-01-29,登記官による閉鎖,,,2015-10-05,1,,,,,,0
2812,9030001039398,登記記録の閉鎖等,0,2024-01-29,2024-01-29,株式会社共栄印刷,,株式会社,埼玉県,三郷市,戸ケ崎３丁目４８９番地１,,11,237,3410044,,,2024-01-29,登記官による閉鎖,,,2015-10-05,1,,,,,,0
2813,9030001056030,登記記録の閉鎖等,0,2024-01-29,2024-01-29,株式会社マロニエ,,株式会社,埼玉県,ふじみ野市,上福岡２丁目９番５号,,11,245,3560004,,,2024-01-29,登記官による閉鎖,,,2015-10-05,1,,,,,,0
2814,9030001060197,登記記録の閉鎖等,0,2024-01-29,2024-01-29,株式会社クロサワ住宅,,株式会社,埼玉県,本庄市,小島３丁目４番１９号,,11,211,3670061,,,2024-01-29,登記官による閉鎖,,,2015-10-05,1,,,,,,0
2815,9030001064768,登記記録の閉鎖等,0,2024-01-29,2024-01-29,北斗建設株式会社,,株式会社,埼玉県,越谷市,大字袋山８７８番地１,,11,222,3430032,,,2024-01-29,登記官による閉鎖,,,2015-10-05,1,,,,,,0
2819,9030001083933,登記記録の閉鎖等,0,2024-01-29,2024-01-29,株式会社Ｈａｐｐｉｎｅｓｓ,,株式会社,埼玉県,入間市,豊岡１丁目１番１号,,11,225,3580003,,,2024-01-29,登記官による閉鎖,,,2015-10-05,1,,,,,,0
2820,9030001084948,登記記録の閉鎖等,0,2024-01-29,2024-01-29,大東建設株式会社,,株式会社,埼玉県,熊谷市,石原４５９番地４,,11,202,3600816,,,2024-01-29,登記官による閉鎖,,,2015-10-05,1,,,,,,0
2821,9030001088998,登記記録の閉鎖等,0,2024-01-29,2024-01-29,株式会社サンフラワー,,株式会社,埼玉県,熊谷市,新堀５９２番地７,,11,202,3600841,,,2024-01-29,登記官による閉鎖,,,2015-10-05,1,,,,,,0
2822,9030001091762,登記記録の閉鎖等,0,2024-01-29,2024-01-29,株式会社プリンシプル,,株式会社,埼玉県,比企郡滑川町,大字羽尾３９４０番地２ドリームハイツＩ－１０２号室,00015596,11,341,3550811,,,2024-01-29,登記官による閉鎖,,,2015-10-05,1,,,,,,0
2823,9030001093148,登記記録の閉鎖等,0,2024-01-29,2024-01-29,株式会社ＭＩＫＡ,,株式会社,埼玉県,川口市,上青木４丁目３番３号,,11,203,3330844,,,2024-01-29,登記官による閉鎖,,,2015-10-05,1,,,,,,0
2824,9030001098485,登記記録の閉鎖等,0,2024-01-29,2024-01-29,井上工業株式会社,,株式会社,埼玉県,朝霞市,三原４丁目１３番８３号,,11,227,3510025,,,2024-01-29,登記官による閉鎖,,,2015-10-05,1,,,,,,0
2830,9030002006471,登記記録の閉鎖等,0,2024-01-29,2024-01-29,有限会社新日本協同企画,,有限会社,埼玉県,さいたま市南区,曲本５丁目１番７号,,11,108,3360033,,,2024-01-29,登記官による閉鎖,,,2015-10-05,1,,,,,,0
2831,9030002007271,登記記録の閉鎖等,0,2024-01-29,2024-01-29,有限会社スクラム,,有限会社,埼玉県,さいたま市南区,曲本３丁目１番１号,,11,108,3360033,,,2024-01-29,登記官による閉鎖,,,2015-10-05,1,,,,,,0
2832,9030002010663,登記記録の閉鎖等,0,2024-01-29,2024-01-29,有限会社野原商店,,有限会社,埼玉県,さいたま市北区,宮原町２丁目１番地７,,11,102,3310812,,,2024-01-29,登記官による閉鎖,,,2015-10-05,1,,,,,,0
2833,9030002011026,登記記録の閉鎖等,0,2024-01-29,2024-01-29,有限会社花ものがたり,,有限会社,埼玉県,さいたま市大宮区,三橋２丁目５３９番地の５,,11,103,3300856,,,2024-01-29,登記官による閉鎖,,,2015-10-05,1,,,,,,0
2834,9030002015183,登記記録の閉鎖等,0,2024-01-29,2024-01-29,有限会社光彩,,有限会社,埼玉県,さいたま市大宮区,三橋１丁目４３１番地１,,11,103,3300856,,,2024-01-29,登記官による閉鎖,,,2015-10-05,1,,,,,,0
2835,9030002022436,登記記録の閉鎖等,0,2024-01-29,2024-01-29,有限会社ハセ・デンタル・ラボラトリー,,有限会社,埼玉県,蓮田市,末広１丁目１番１６号,,11,238,3490124,,,2024-01-29,登記官による閉鎖,,,2015-10-05,1,,,,,,0
2836,9030002025001,登記記録の閉鎖等,0,2024-01-29,2024-01-29,有限会社林モータース,,有限会社,埼玉県,戸田市,下戸田２丁目１３番１８号,,11,224,3350011,,,2024-01-29,登記官による閉鎖,,,2015-10-05,1,,,,,,0
2837,9030002028474,登記記録の閉鎖等,0,2024-01-29,2024-01-29,有限会社エスピージー,,有限会社,埼玉県,所沢市,大字中富７５１番地,,11,208,3590002,,,2024-01-29,登記官による閉鎖,,,2015-10-05,1,,,,,,0
2839,9030002034167,登記記録の閉鎖等,0,2024-01-29,2024-01-29,有限会社長野工業,,有限会社,埼玉県,狭山市,大字水野８７９番地の１８,,11,215,3501317,,,2024-01-29,登記官による閉鎖,,,2015-10-05,1,,,,,,0
2841,9030002037715,登記記録の閉鎖等,0,2024-01-29,2024-01-29,有限会社ブラボー,,有限会社,埼玉県,狭山市,新狭山２丁目３番１２号,,11,215,3501331,,,2024-01-29,登記官による閉鎖,,,2015-10-05,1,,,,,,0
2842,9030002038903,登記記録の閉鎖等,0,2024-01-29,2024-01-29,有限会社小川電子工業,,有限会社,埼玉県,久喜市,菖蒲町三箇１２４４番地２,,11,232,3460104,,,2024-01-29,登記官による閉鎖,,,2015-10-05,1,,,,,,0
2843,9030002047532,登記記録の閉鎖等,0,2024-01-29,2024-01-29,有限会社鳥羽紙工,,有限会社,埼玉県,八潮市,大字大曽根１４８０番地５,,11,234,3400834,,,2024-01-29,登記官による閉鎖,,,2015-10-05,1,,,,,,0
2844,9030002053687,登記記録の閉鎖等,0,2024-01-29,2024-01-29,有限会社広文社,,有限会社,埼玉県,上尾市,大字上１１２３番地の７,,11,219,3620001,,,2024-01-29,登記官による閉鎖,,,2015-10-05,1,,,,,,0
2845,9030002065253,登記記録の閉鎖等,0,2024-01-29,2024-01-29,有限会社八宏社印刷所,,有限会社,埼玉県,朝霞市,膝折町１丁目１２番２号,,11,227,3510014,,,2024-01-29,登記官による閉鎖,,,2015-10-05,1,,,,,,0
2846,9030002073900,登記記録の閉鎖等,0,2024-01-29,2024-01-29,有限会社芳栄,,有限会社,埼玉県,川越市,大字砂新田３１番地,,11,201,3501137,,,2024-01-29,登記官による閉鎖,,,2015-10-05,1,,,,,,0
2847,9030002076218,登記記録の閉鎖等,0,2024-01-29,2024-01-29,有限会社堀井製作所,,有限会社,埼玉県,ふじみ野市,仲３丁目１番地１６,,11,245,3560025,,,2024-01-29,登記官による閉鎖,,,2015-10-05,1,,,,,,0
2848,9030002079807,登記記録の閉鎖等,0,2024-01-29,2024-01-29,有限会社エスエルシージャパン,,有限会社,埼玉県,入間郡三芳町,大字北永井６８１番地６６,,11,324,3540044,,,2024-01-29,登記官による閉鎖,,,2015-10-05,1,,,,,,0
2849,9030002094517,登記記録の閉鎖等,0,2024-01-29,2024-01-29,有限会社丸中商事,,有限会社,埼玉県,坂戸市,花影町１番１４号,,11,239,3500236,,,2024-01-29,登記官による閉鎖,,,2015-10-05,1,,,,,,0
2850,9030002094905,登記記録の閉鎖等,0,2024-01-29,2024-01-29,有限会社アドバンス,,有限会社,埼玉県,鶴ヶ島市,大字藤金８１９番地７９,,11,241,3502206,,,2024-01-29,登記官による閉鎖,,,2015-10-05,1,,,,,,0
2851,9030002097866,登記記録の閉鎖等,0,2024-01-29,2024-01-29,有限会社佐々木印刷,,有限会社,埼玉県,比企郡ときがわ町,大字玉川１４８４番地６,,11,349,3550342,,,2024-01-29,登記官による閉鎖,,,2015-10-05,1,,,,,,0
2852,9030002099202,登記記録の閉鎖等,0,2024-01-29,2024-01-29,有限会社トミー電気工事,,有限会社,埼玉県,川口市,鳩ヶ谷本町４丁目１５番１１号,,11,203,3340002,,,2024-01-29,登記官による閉鎖,,,2015-10-05,1,,,,,,0
2853,9030002099383,登記記録の閉鎖等,0,2024-01-29,2024-01-29,有限会社平田織物工場,,有限会社,埼玉県,川口市,大字里９２２番地,,11,203,3340005,,,2024-01-29,登記官による閉鎖,,,2015-10-05,1,,,,,,0
2854,9030002102931,登記記録の閉鎖等,0,2024-01-29,2024-01-29,有限会社西美プラニング,,有限会社,埼玉県,川口市,大字道合４９３番地,,11,203,3330835,,,2024-01-29,登記官による閉鎖,,,2015-10-05,1,,,,,,0
2855,9030002104110,登記記録の閉鎖等,0,2024-01-29,2024-01-29,有限会社星交商会,,有限会社,埼玉県,川口市,江戸１丁目１７番２５号,,11,203,3340074,,,2024-01-29,登記官による閉鎖,,,2015-10-05,1,,,,,,0
2856,9030002104820,登記記録の閉鎖等,0,2024-01-29,2024-01-29,有限会社たなか商店,,有限会社,埼玉県,川口市,仲町１６番５号,,11,203,3320022,,,2024-01-29,登記官による閉鎖,,,2015-10-05,1,,,,,,0
2857,9030002107856,登記記録の閉鎖等,0,2024-01-29,2024-01-29,有限会社梁瀬建設,00017826,有限会社,埼玉県,川口市,中青木５丁目１０番８号,,11,203,3320032,,,2024-01-29,登記官による閉鎖,,,2015-10-05,1,,,,,,0
2858,9030002111189,登記記録の閉鎖等,0,2024-01-29,2024-01-29,有限会社宝石,,有限会社,埼玉県,川口市,並木３丁目２７番２１号Ｈ＆Ｋビル１階,,11,203,3320034,,,2024-01-29,登記官による閉鎖,,,2015-10-05,1,,,,,,0
2859,9030002113227,登記記録の閉鎖等,0,2024-01-29,2024-01-29,有限会社ケイユウ設計,,有限会社,埼玉県,熊谷市,新堀新田３８番地,,11,202,3600842,,,2024-01-29,登記官による閉鎖,,,2015-10-05,1,,,,,,0
2860,9030002116543,登記記録の閉鎖等,0,2024-01-29,2024-01-29,有限会社金井加工所,,有限会社,埼玉県,深谷市,上柴町西５丁目６番地１０,,11,218,3660052,,,2024-01-29,登記官による閉鎖,,,2015-10-05,1,,,,,,0
2861,9030002120859,登記記録の閉鎖等,0,2024-01-29,2024-01-29,有限会社幸立加工,,有限会社,埼玉県,日高市,大字高富５６番地２６,,11,242,3501223,,,2024-01-29,登記官による閉鎖,,,2015-10-05,1,,,,,,0
2862,9030002123267,登記記録の閉鎖等,0,2024-01-29,2024-01-29,有限会社浅間工務店,,有限会社,埼玉県,三郷市,上彦名１５７番地,,11,237,3410004,,,2024-01-29,登記官による閉鎖,,,2015-10-05,1,,,,,,0
2863,9030003002065,登記記録の閉鎖等,0,2024-01-29,2024-01-29,Ｔｒａｎｓｐｏｒｔ　Ｖｅｈｉｃｌｅ　Ｖｉｅｗ合同会社,,合同会社,埼玉県,三郷市,彦成１丁目２８番地ファミリータウン彦成Ｂ１０３,,11,237,3410003,,,2024-01-29,登記官による閉鎖,,,2015-10-05,1,,,,,,0
2864,9030005005776,登記記録の閉鎖等,0,2024-01-29,2024-01-29,東埼玉住宅建設業協同組合,,その他の設立登記法人,埼玉県,草加市,吉町５丁目４番１号,,11,221,3400017,,,2024-01-29,登記官による閉鎖,,,2015-10-05,1,,,,,,0
2865,9030005006601,登記記録の閉鎖等,0,2024-01-29,2024-01-29,特定非営利活動法人日本スポーツ振興会,,その他の設立登記法人,埼玉県,上尾市,向山２丁目３７番１号,,11,219,3620045,,,2024-01-29,登記官による閉鎖,,,2015-10-05,1,,,,,,0
2866,9030005010883,登記記録の閉鎖等,0,2024-01-29,2024-01-29,坂戸建設事業協同組合,,その他の設立登記法人,埼玉県,坂戸市,大字浅羽９７８番地２,,11,239,3500238,,,2024-01-29,登記官による閉鎖,,,2015-10-05,1,,,,,,0
2868,9030005014050,登記記録の閉鎖等,0,2024-01-29,2024-01-29,埼玉生花協同組合,,その他の設立登記法人,埼玉県,大里郡寄居町,大字寄居１２２４番地の３,,11,408,3691203,,,2024-01-29,登記官による閉鎖,,,2015-10-05,1,,,,,,0
2876,9040002038761,登記記録の閉鎖等,0,2024-01-29,2024-01-29,有限会社及川商事,,有限会社,埼玉県,さいたま市南区,四谷３丁目１４番７号,,11,108,3360032,,,2024-01-29,登記官による閉鎖,,,2015-10-05,1,,,,,,0
2881,9040003003558,登記記録の閉鎖等,0,2024-01-29,2024-01-17,合資会社山本コンクリート工業,,合資会社,千葉県,銚子市,愛宕町３５２０番地の３,,12,202,2880007,,,2024-01-17,清算の結了等,,,2015-10-05,1,,,,,ヤマモトコンクリートコウギョウ,0
2885,9050001001026,登記記録の閉鎖等,0,2024-01-29,2024-01-26,株式会社産栄,,株式会社,茨城県,水戸市,宮町２丁目４番３３号,,08,201,3100015,,,2024-01-26,登記官による閉鎖,,,2015-10-05,1,,,,,,0
2886,9050001005530,登記記録の閉鎖等,0,2024-01-29,2024-01-26,株式会社大東化工製作所,,株式会社,茨城県,那珂郡東海村,大字村松３１２９番地４８,,08,341,3191112,,,2024-01-26,登記官による閉鎖,,,2015-10-05,1,,,,,,0
2887,9050001005778,登記記録の閉鎖等,0,2024-01-29,2024-01-26,ロンメル企画株式会社,,株式会社,茨城県,水戸市,千波町２５４０番地２,,08,201,3100851,,,2024-01-26,登記官による閉鎖,,,2015-10-05,1,,,,,,0
2888,9050001009457,登記記録の閉鎖等,0,2024-01-29,2024-01-26,土浦火工株式会社,,株式会社,茨城県,土浦市,宍塚８８２番地,,08,203,3000805,,,2024-01-26,登記官による閉鎖,,,2015-10-05,1,,,,,,0
2889,9050001011660,登記記録の閉鎖等,0,2024-01-29,2024-01-26,株式会社大健,,株式会社,茨城県,小美玉市,中野谷４８４番地の４,,08,236,3190111,,,2024-01-26,登記官による閉鎖,,,2015-10-05,1,,,,,,0
2890,9050001013310,登記記録の閉鎖等,0,2024-01-29,2024-01-26,株式会社恵子,,株式会社,茨城県,下妻市,下妻丁２４７番地の９,,08,210,3040068,,,2024-01-26,登記官による閉鎖,,,2015-10-05,1,,,,,,0
2891,9050001014622,登記記録の閉鎖等,0,2024-01-29,2024-01-26,株式会社コスモ興産,,株式会社,茨城県,猿島郡境町,大字上小橋４５５番地,,08,546,3060434,,,2024-01-26,登記官による閉鎖,,,2015-10-05,1,,,,,コスモコウサン,0
2892,9050001022096,登記記録の閉鎖等,0,2024-01-29,2024-01-26,株式会社ＴＥＣ,,株式会社,茨城県,鉾田市,鉾田２２７１番地７,,08,234,3111517,,,2024-01-26,登記官による閉鎖,,,2015-10-05,1,,,,,,0
2893,9050001025743,登記記録の閉鎖等,0,2024-01-29,2024-01-26,株式会社タベイ,,株式会社,茨城県,北相馬郡利根町,大字布川２９０１番地３,,08,564,3001622,,,2024-01-26,登記官による閉鎖,,,2015-10-05,1,,,,,,0
2894,9050001031832,登記記録の閉鎖等,0,2024-01-29,2024-01-26,司実業株式会社,,株式会社,茨城県,筑西市,向川澄５７番地１８,,08,227,3091117,,,2024-01-26,登記官による閉鎖,,,2015-10-05,1,,,,,,0
2897,9050002001685,登記記録の閉鎖等,0,2024-01-29,2024-01-26,有限会社城進ゼミナール,,有限会社,茨城県,水戸市,城南１丁目２番４３号,,08,201,3100803,,,2024-01-26,登記官による閉鎖,,,2015-10-05,1,,,,,,0
2898,9050002012229,登記記録の閉鎖等,0,2024-01-29,2024-01-26,有限会社平成健康センター,,有限会社,茨城県,土浦市,城北町１３番２１号,,08,203,3000042,,,2024-01-26,登記官による閉鎖,,,2015-10-05,1,,,,,,0
2899,9050002013235,登記記録の閉鎖等,0,2024-01-29,2024-01-26,有限会社葉梨建材,,有限会社,茨城県,稲敷郡美浦村,大字舟子２８４８番地の２,,08,442,3000428,,,2024-01-26,登記官による閉鎖,,,2015-10-05,1,,,,,,0
2900,9050002015586,登記記録の閉鎖等,0,2024-01-29,2024-01-26,有限会社塚原石油,,有限会社,茨城県,石岡市,東石岡３丁目１４番５号,,08,205,3150037,,,2024-01-26,登記官による閉鎖,,,2015-10-05,1,,,,,,0
2901,9050002017351,登記記録の閉鎖等,0,2024-01-29,2024-01-26,有限会社坂本石油店,,有限会社,茨城県,結城郡八千代町,大字菅谷５９３番地,,08,521,3003572,,,2024-01-26,登記官による閉鎖,,,2015-10-05,1,,,,,,0
2902,9050002019711,登記記録の閉鎖等,0,2024-01-29,2024-01-26,有限会社磯部産業,,有限会社,茨城県,坂東市,小山４３番地の２,,08,228,3060626,,,2024-01-26,登記官による閉鎖,,,2015-10-05,1,,,,,,0
2903,9050002021618,登記記録の閉鎖等,0,2024-01-29,2024-01-26,有限会社鷹巣縫製,,有限会社,茨城県,つくば市,蓮沼７番地,,08,220,3003262,,,2024-01-26,登記官による閉鎖,,,2015-10-05,1,,,,,,0
2904,9050002026096,登記記録の閉鎖等,0,2024-01-29,2024-01-26,有限会社山志多,,有限会社,茨城県,古河市,久能１１９０番地１,,08,204,3060212,,,2024-01-26,登記官による閉鎖,,,2015-10-05,1,,,,,,0
2905,9050002032557,登記記録の閉鎖等,0,2024-01-29,2024-01-26,有限会社永崎スタンド,00023105,有限会社,茨城県,北茨城市,大津町水汲戸２５２１番地,00023106,08,215,3191702,,,2024-01-26,登記官による閉鎖,,,2015-10-05,1,,,,,,0
2906,9050002032961,登記記録の閉鎖等,0,2024-01-29,2024-01-26,有限会社伊勢屋,,有限会社,茨城県,龍ケ崎市,稗柄町１２５番地,00023112,08,208,3010035,,,2024-01-26,登記官による閉鎖,,,2015-10-05,1,,,,,,0
2907,9050002034636,登記記録の閉鎖等,0,2024-01-29,2024-01-26,有限会社広誠建設,,有限会社,茨城県,龍ケ崎市,柏ケ作７５５番地,,08,208,3010000,,,2024-01-26,登記官による閉鎖,,,2015-10-05,1,,,,,,0
2908,9050002036236,登記記録の閉鎖等,0,2024-01-29,2024-01-26,有限会社岡部商店,,有限会社,茨城県,取手市,白山２丁目１６番１７号,,08,217,3020023,,,2024-01-26,登記官による閉鎖,,,2015-10-05,1,,,,,,0
2909,9050003001503,登記記録の閉鎖等,0,2024-01-29,2024-01-26,ウィングハート合同会社,,合同会社,茨城県,日立市,千石町２丁目１７番１０号,,08,202,3160013,,,2024-01-26,登記官による閉鎖,,,2015-10-05,1,,,,,,0
2911,9050005000321,登記記録の閉鎖等,0,2024-01-29,2024-01-26,財団法人茨城県傷痍軍人会,00023468,その他の設立登記法人,茨城県,水戸市,宮町２丁目１１番３４号,,08,201,3100015,,,2024-01-26,登記官による閉鎖,,,2015-10-05,1,,,,,,0
2912,9050005009577,登記記録の閉鎖等,0,2024-01-29,2024-01-26,水海道青果商業協同組合,,その他の設立登記法人,茨城県,常総市,大輪町９０３番地の６,,08,211,3002512,,,2024-01-26,登記官による閉鎖,,,2015-10-05,1,,,,,,0
2913,9050005010460,登記記録の閉鎖等,0,2024-01-29,2024-01-26,結城桑苗協同組合,,その他の設立登記法人,茨城県,結城市,大字上山川５６０４番地の５,,08,207,3070021,,,2024-01-26,登記官による閉鎖,,,2015-10-05,1,,,,,,0
2916,9070002025897,登記記録の閉鎖等,0,2024-01-29,2024-01-24,有限会社今泉瓦店,,有限会社,群馬県,渋川市,中村２０９番地の７,,10,208,3770002,,,2024-01-24,清算の結了等,,,2015-10-05,1,,,,,イマイズミカワラテン,0
2929,9120001010432,登記記録の閉鎖等,0,2024-01-29,2024-01-23,長寿物産株式会社,,株式会社,大阪府,大阪市東住吉区,今林４丁目１５番１９号,,27,121,5460001,,,2024-01-23,清算の結了等,,,2015-10-05,1,,,,,チョウジュブッサン,0
2942,9120902010794,登記記録の閉鎖等,0,2024-01-29,2024-01-26,有限会社テクノアイ電子技研,,有限会社,大阪府,高槻市,真上町６丁目３番８号,,27,207,5691121,,,2024-01-26,清算の結了等,,,2015-10-05,1,,,,,テクノアイデンシギケン,0
2953,9140001003153,登記記録の閉鎖等,0,2024-01-29,2024-01-26,オナーロイ販売株式会社,,株式会社,兵庫県,神戸市灘区,国玉通２丁目８番５号,,28,102,6570816,,,2024-01-26,登記官による閉鎖,,,2015-10-05,1,,,,,,0
2954,9140001015974,登記記録の閉鎖等,0,2024-01-29,2024-01-26,株式会社共栄寝具,,株式会社,兵庫県,神戸市長田区,長尾町２丁目１８番２３号,,28,106,6530855,,,2024-01-26,登記官による閉鎖,,,2015-10-05,1,,,,,,0
2955,9140001026096,登記記録の閉鎖等,0,2024-01-29,2024-01-26,株式会社ジェット・セット,,株式会社,兵庫県,芦屋市,東山町９番１７号,,28,206,6590091,,,2024-01-26,登記官による閉鎖,,,2015-10-05,1,,,,,,0
2956,9140001033464,登記記録の閉鎖等,0,2024-01-29,2024-01-26,大運貿易株式会社,,株式会社,兵庫県,神戸市北区,山田町下谷上字中一里山８番地の１３,,28,109,6511102,,,2024-01-26,登記官による閉鎖,,,2015-10-05,1,,,,,ダイウンボウエキ,0
2957,9140001040576,登記記録の閉鎖等,0,2024-01-29,2024-01-26,株式会社佐用建築,,株式会社,兵庫県,相生市,旭６丁目２５番地,,28,208,6780031,,,2024-01-26,登記官による閉鎖,,,2015-10-05,1,,,,,,0
2959,9140001050162,登記記録の閉鎖等,0,2024-01-29,2024-01-26,藤堂工業株式会社,,株式会社,兵庫県,尼崎市,三反田町３丁目３番１１号,,28,202,6610024,,,2024-01-26,登記官による閉鎖,,,2015-10-05,1,,,,,,0
2960,9140001054849,登記記録の閉鎖等,0,2024-01-29,2024-01-26,株式会社Ｍ＆Ｇ住建,,株式会社,兵庫県,尼崎市,東園田町２丁目１１６番地,,28,202,6610953,,,2024-01-26,登記官による閉鎖,,,2015-10-05,1,,,,,,0
2961,9140001055459,登記記録の閉鎖等,0,2024-01-29,2024-01-26,ディーヴァコーポレーション株式会社,,株式会社,兵庫県,尼崎市,上ノ島町１丁目２２番５号－１０２号,,28,202,6610014,,,2024-01-26,登記官による閉鎖,,,2015-10-05,1,,,,,,0
2962,9140001055616,登記記録の閉鎖等,0,2024-01-29,2024-01-26,関西コトブキ販売株式会社,,株式会社,兵庫県,尼崎市,水堂町４丁目２－３,,28,202,6610026,,,2024-01-26,登記官による閉鎖,,,2015-10-05,1,,,,,,0
2963,9140001057117,登記記録の閉鎖等,0,2024-01-29,2024-01-26,株式会社日本メディア,,株式会社,兵庫県,芦屋市,船戸町３番６－４０１号,,28,206,6590093,,,2024-01-26,登記官による閉鎖,,,2015-10-05,1,,,,,,0
2964,9140001057835,登記記録の閉鎖等,0,2024-01-29,2024-01-26,株式会社稲葉ビル,,株式会社,兵庫県,姫路市,土山２丁目１３番４０号,,28,201,6700996,,,2024-01-26,登記官による閉鎖,,,2018-11-20,1,,,,,イナバビル,0
2965,9140001057892,登記記録の閉鎖等,0,2024-01-29,2024-01-26,株式会社植野建築,,株式会社,兵庫県,姫路市,山田町南山田１１８７番地,,28,201,6792113,,,2024-01-26,登記官による閉鎖,,,2015-10-05,1,,,,,,0
2966,9140001061060,登記記録の閉鎖等,0,2024-01-29,2024-01-26,株式会社美緒嶺,,株式会社,兵庫県,姫路市,嵐山町２２番地３メゾン嵐山Ｎ１０１,,28,201,6700029,,,2024-01-26,登記官による閉鎖,,,2015-10-05,1,,,,,,0
2967,9140001064518,登記記録の閉鎖等,0,2024-01-29,2024-01-26,株式会社ヱリショウ,,株式会社,兵庫県,姫路市,二階町１８番地,,28,201,6700922,,,2024-01-26,登記官による閉鎖,,,2015-10-05,1,,,,,,0
2969,9140001074590,登記記録の閉鎖等,0,2024-01-29,2024-01-26,株式会社井上商会,,株式会社,兵庫県,西宮市,松並町１２番１９－２０６号,,28,204,6638102,,,2024-01-26,登記官による閉鎖,,,2015-10-05,1,,,,,,0
2970,9140001075754,登記記録の閉鎖等,0,2024-01-29,2024-01-26,株式会社東はりま興産,,株式会社,兵庫県,多可郡多可町,中区牧野８０９番地の１,,28,365,6791103,,,2024-01-26,登記官による閉鎖,,,2015-10-05,1,,,,,,0
2971,9140001081736,登記記録の閉鎖等,0,2024-01-29,2024-01-26,株式会社タカ・コーポレーション,,株式会社,兵庫県,宝塚市,高司１丁目４番３５号,,28,214,6650051,,,2024-01-26,登記官による閉鎖,,,2015-10-05,1,,,,,タカコーポレーション,0
2972,9140001087270,登記記録の閉鎖等,0,2024-01-29,2024-01-26,株式会社ナイサル,,株式会社,兵庫県,神戸市中央区,海岸通３丁目１番１号,,28,110,6500024,,,2024-01-26,登記官による閉鎖,,,2015-10-05,1,,,,,,0
2973,9140001090142,登記記録の閉鎖等,0,2024-01-29,2024-01-26,香住食研・伊丹産業太陽光発電株式会社,,株式会社,兵庫県,美方郡香美町,香住区下岡４７６番地の３,,28,585,6696413,,,2024-01-26,登記官による閉鎖,,,2015-10-05,1,,,,,,0
2974,9140001091198,登記記録の閉鎖等,0,2024-01-29,2024-01-26,エヌ・ブレイブ株式会社,,株式会社,兵庫県,姫路市,相野２０１番地,,28,201,6712232,,,2024-01-26,登記官による閉鎖,,,2015-10-05,1,,,,,,0
2977,9140001109891,登記記録の閉鎖等,0,2024-01-29,2024-01-26,立誠貿易株式会社,,株式会社,兵庫県,西宮市,甲子園六石町３番９号,,28,204,6638164,,,2024-01-26,登記官による閉鎖,,,2018-05-08,1,,,,,,0
2978,9140001110833,登記記録の閉鎖等,0,2024-01-29,2024-01-26,株式会社神戸サンヨーモータース,,株式会社,兵庫県,神戸市中央区,下山手通６丁目３１番地,,28,110,6500011,,,2024-01-26,登記官による閉鎖,,,2018-08-01,1,,,,,コウベサンヨーモータース,0
2984,9140002000067,登記記録の閉鎖等,0,2024-01-29,2024-01-26,有限会社芦屋ドライブショップ,,有限会社,兵庫県,芦屋市,楠町７番２３号,,28,206,6590015,,,2024-01-26,登記官による閉鎖,,,2018-05-15,1,,,,,アシヤドライブショップ,0
2985,9140002001759,登記記録の閉鎖等,0,2024-01-29,2024-01-26,有限会社鈴木新聞舗,,有限会社,兵庫県,神戸市東灘区,本山南町４丁目１番７号,,28,101,6580015,,,2024-01-26,登記官による閉鎖,,,2015-10-05,1,,,,,,0
2986,9140002004423,登記記録の閉鎖等,0,2024-01-29,2024-01-26,有限会社グループ優,,有限会社,兵庫県,神戸市西区,大津和２丁目４番地の３３,,28,111,6512112,,,2024-01-26,登記官による閉鎖,,,2015-10-05,1,,,,,,0
2989,9140002017730,登記記録の閉鎖等,0,2024-01-29,2024-01-26,有限会社北神サービス,,有限会社,兵庫県,神戸市北区,鹿の子台北町４丁目３番３号,,28,109,6511513,,,2024-01-26,登記官による閉鎖,,,2015-10-05,1,,,,,,0
2990,9140002019132,登記記録の閉鎖等,0,2024-01-29,2024-01-26,有限会社アートデブリーズ,,有限会社,兵庫県,神戸市須磨区,高倉台５丁目１４番２８号,,28,107,6540081,,,2024-01-26,登記官による閉鎖,,,2015-10-05,1,,,,,,0
2993,9140002034767,登記記録の閉鎖等,0,2024-01-29,2024-01-26,有限会社ロイヤルタウン,,有限会社,兵庫県,丹波市,氷上町上成松５番地,,28,223,6693606,,,2024-01-26,登記官による閉鎖,,,2015-10-05,1,,,,,,0
2994,9140002035542,登記記録の閉鎖等,0,2024-01-29,2024-01-26,有限会社加古川チルドサービス,,有限会社,兵庫県,加古川市,西神吉町大国５７番地,,28,210,6750044,,,2024-01-26,登記官による閉鎖,,,2015-10-05,1,,,,,,0
2995,9140002069375,登記記録の閉鎖等,0,2024-01-29,2024-01-26,有限会社クリーン一宮,,有限会社,兵庫県,淡路市,江井１９０２番地１９,,28,226,6561531,,,2024-01-26,登記官による閉鎖,,,2015-10-05,1,,,,,,0
2998,9140005002622,登記記録の閉鎖等,0,2024-01-29,2024-01-26,兵庫県牛乳商業組合,,その他の設立登記法人,兵庫県,神戸市中央区,栄町通４丁目１番１６号松原ビル,,28,110,6500023,,,2024-01-26,登記官による閉鎖,,,2015-10-05,1,,,,,,0
2999,9140005003042,登記記録の閉鎖等,0,2024-01-29,2024-01-26,元六高架通協同組合,,その他の設立登記法人,兵庫県,神戸市中央区,元町高架通３番２６０号,,28,110,6500014,,,2024-01-26,登記官による閉鎖,,,2017-07-27,1,,,,,,0
3000,9140005004098,登記記録の閉鎖等,0,2024-01-29,2024-01-26,特定非営利活動法人Ｓｔｕｄｉｏ－０,,その他の設立登記法人,兵庫県,芦屋市,奥池南町６４番１４号,,28,206,6590004,,,2024-01-26,登記官による閉鎖,,,2015-10-05,1,,,,,,0
3001,9140005004841,登記記録の閉鎖等,0,2024-01-29,2024-01-26,特定非営利活動法人操体道普及協会,,その他の設立登記法人,兵庫県,神戸市長田区,五番町６丁目７番１号,,28,106,6530003,,,2024-01-26,登記官による閉鎖,,,2015-10-05,1,,,,,,0
3002,9140005005427,登記記録の閉鎖等,0,2024-01-29,2024-01-26,社団法人兵庫県高等学校教育振興会,,その他の設立登記法人,兵庫県,明石市,明石公園１番２７号兵庫県高等学校野外活動センターあさぎり寮,,28,203,6730847,,,2024-01-26,登記官による閉鎖,,,2015-10-05,1,,,,,,0
3003,9140005016457,登記記録の閉鎖等,0,2024-01-29,2024-01-26,特定非営利活動法人チャボティア,,その他の設立登記法人,兵庫県,西宮市,高松町１６番９号神田ビル２階,,28,204,6638204,,,2024-01-26,登記官による閉鎖,,,2015-10-05,1,,,,,,0
3004,9140005018833,登記記録の閉鎖等,0,2024-01-29,2024-01-26,特定非営利活動法人市民環境支援団体,,その他の設立登記法人,兵庫県,宝塚市,南口２丁目１４番３号,,28,214,6650011,,,2024-01-26,登記官による閉鎖,,,2015-10-05,1,,,,,,0
3009,9180002085880,登記記録の閉鎖等,0,2024-01-29,2024-01-22,有限会社ヒロサワ工業,,有限会社,愛知県,知多郡美浜町,大字上野間字里屋敷８９番地,,23,446,4703231,,,2024-01-22,清算の結了等,,,2015-10-05,1,,,,,ヒロサワコウギョウ,0
3016,9180303003112,登記記録の閉鎖等,0,2024-01-29,2024-01-17,合同会社昌和,,合同会社,愛知県,岡崎市,竜美旭町１２番地２,,23,202,4440877,,,2024-01-17,合併による解散等,3180303003456,令和６年１月１日愛知県岡崎市竜美旭町１２番地２合同会社昌栄（3180303003456）に合併し解散,2015-10-05,1,,,,,ショウワ,0
3023,9240001053650,登記記録の閉鎖等,0,2024-01-29,2024-01-22,株式会社ＫＲｃｏｍｐａｎｙ,,株式会社,広島県,広島市中区,立町５番２号キャッスル立町３０１,,34,101,7300032,,,2024-01-22,清算の結了等,,,2018-12-06,1,,,,,ケーアールカンパニー,0
3025,9240002003778,登記記録の閉鎖等,0,2024-01-29,2024-01-22,有限会社眼精疲労コンサルタント,,有限会社,広島県,広島市中区,中町７番１６－７１０号,,34,101,7300037,,,2024-01-22,清算の結了等,,,2015-10-05,1,,,,,ガンセイヒロウコンサルタント,0
3030,9260005001744,登記記録の閉鎖等,0,2024-01-29,2024-01-25,医療法人早瀬歯科医院,,その他の設立登記法人,岡山県,岡山市東区,瀬戸町万富３４５番地の３,,33,103,7090841,,,2024-01-25,清算の結了等,,,2015-10-05,1,,,,,ハヤセシカイイン,0
3066,9380001012221,登記記録の閉鎖等,0,2024-01-29,2024-01-26,株式会社東工機,,株式会社,福島県,いわき市,東田町塩田５番地の１,,07,204,9748212,,,2024-01-26,清算の結了等,,,2015-10-05,1,,,,,アズマコウキ,0
