sequenceNumber,corporateNumber,process,correct,updateDate,changeDate,name,nameImageId,kind,prefectureName,cityName,streetNumber,addressImageId,prefectureCode,cityCode,postCode,addressOutside,addressOutsideImageId,closeDate,closeCause,successorCorporateNumber,changeCause,assignmentDate,latest,enName,enPrefectureName,enCityName,enAddressOutside,furigana,hihyoji
8,1010001224281,新規,0,2022-02-03,2022-02-03,株式会社福永,,株式会社,東京都,千代田区,大手町２丁目２番１号,,13,101,1000004,,,,,,,2022-02-03,1,,,,,フクナガ,0
10,1010005034529,新規,0,2022-02-03,2022-02-03,一般社団法人日本膵・膵島移植学会,,その他の設立登記法人,東京都,千代田区,一ツ橋１丁目１番１号パレスサイドビル株式会社毎日学術フォーラム内,,13,101,1000003,,,,,,,2022-02-03,1,,,,,ニホンスイスイトウイショクガッカイ,0
11,1010005034553,新規,0,2022-02-03,2022-02-03,一般社団法人南牧村長寿計画協会,,その他の設立登記法人,東京都,千代田区,永田町２丁目１７番５号,,13,101,1000014,,,,,,,2022-02-03,1,,,,,ナンモクムラチョウジュケイカクキョウカイ,0
23,1010401165381,新規,0,2022-02-03,2022-02-03,ＧＣＪＩ６株式会社,,株式会社,東京都,港区,元赤坂１丁目１番８号株式会社赤坂国際会計内,,13,103,1070051,,,,,,,2022-02-03,1,,,,,ジーシージェイアイシックス,0
24,1010401165407,新規,0,2022-02-03,2022-02-03,株式会社ＤＸ　ＢＡＮＫ,,株式会社,東京都,港区,南青山２丁目２番３号,,13,103,1070062,,,,,,,2022-02-03,1,,,,,ディーエックスバンク,0
27,1010405020640,新規,0,2022-02-03,2022-02-03,ジラフインベストメント特定目的会社,,その他の設立登記法人,東京都,港区,赤坂２丁目１０番５号税理士法人赤坂国際会計事務所内,,13,103,1070052,,,,,,,2022-02-03,1,,,,,ジラフインベストメント,0
32,1010703006093,新規,0,2022-02-03,2022-02-03,合同会社スタジオエトノス,,合同会社,東京都,品川区,大井２丁目８番１５号,,13,109,1400014,,,,,,,2022-02-03,1,,,,,スタジオエトノス,0
36,1010801032702,新規,0,2022-02-03,2022-02-03,株式会社Ｃｏｚｙｃｏｚｙ,,株式会社,東京都,大田区,久が原３丁目３１番１５号アカイシビル２０１,,13,111,1460085,,,,,,,2022-02-03,1,,,,,コジーコジー,0
38,1010901050232,新規,0,2022-02-03,2022-02-03,株式会社Ｅｎｇｏｒｇｉｏ　Ｂｕｉｌｄ,,株式会社,東京都,世田谷区,瀬田１丁目２番地１７号,,13,112,1580095,,,,,,,2022-02-03,1,,,,,エンゴージオビルド,0
39,1010901050307,新規,0,2022-02-03,2022-02-03,株式会社アースダム,,株式会社,東京都,世田谷区,松原１丁目５６番１９号,,13,112,1560043,,,,,,,2022-02-03,1,,,,,アースダム,0
40,1010903007123,新規,0,2022-02-03,2022-02-03,合同会社ポステコ,,合同会社,東京都,世田谷区,等々力８丁目２６番２３号リストレジデンス等々力３０８,,13,112,1580082,,,,,,,2022-02-03,1,,,,,ポステコ,0
45,1011001145410,新規,0,2022-02-03,2022-02-03,Ｎｕ　Ｒｅａｌｉｚｅ株式会社,,株式会社,東京都,渋谷区,渋谷２丁目１９－１５宮益坂ビルディング６０９,,13,113,1500002,,,,,,,2022-02-03,1,,,,,ニューリアライズ,0
46,1011001145419,新規,0,2022-02-03,2022-02-03,Ｊ・Ｂバイオテック株式会社,,株式会社,東京都,渋谷区,渋谷１丁目１５番１５－１０１０号,,13,113,1500002,,,,,,,2022-02-03,1,,,,,ジェイビーバイオテック,0
51,1011103011436,新規,0,2022-02-03,2022-02-03,合同会社ビズトラスト,,合同会社,東京都,新宿区,西新宿３丁目３番１３号西新宿水間ビル６階,,13,104,1600023,,,,,,,2022-02-03,1,,,,,ビズトラスト,0
53,1011501027728,新規,0,2022-02-03,2022-02-03,株式会社ジンカケ,,株式会社,東京都,荒川区,荒川５丁目３５番２号アヴァンセクール町屋４０１,,13,118,1160002,,,,,,,2022-02-03,1,,,,,ジンカケ,0
67,1012405004697,新規,0,2022-02-03,2022-02-03,医療法人社団健楓会,,その他の設立登記法人,東京都,調布市,仙川町２丁目２１番地１３仙川駅前ビルＢ館３階,,13,208,1820002,,,,,,,2022-02-03,1,,,,,ケンフウカイ,0
69,1013101008843,新規,0,2022-02-03,2022-02-03,株式会社神田電気,,株式会社,東京都,西多摩郡瑞穂町,大字二本木５０９番地３６,,13,303,1901201,,,,,,,2022-02-03,1,,,,,カンダデンキ,0
74,1013301048631,新規,0,2022-02-03,2022-02-03,株式会社ＫＵＲＵＭＩ,,株式会社,東京都,豊島区,池袋２丁目３６番１号,,13,116,1710014,,,,,,,2022-02-03,1,,,,,クルミ,0
83,1020001145080,新規,0,2022-02-03,2022-02-03,５Ｄマトリックス株式会社,,株式会社,神奈川県,横浜市鶴見区,北寺尾５丁目８番１５－６号,,14,101,2300074,,,,,,,2022-02-03,1,,,,,ファイブディーマトリックス,0
87,1021001075111,新規,0,2022-02-03,2022-02-03,Ｎリンク株式会社,,株式会社,神奈川県,相模原市中央区,中央２丁目１２番１５号,,14,152,2520239,,,,,,,2022-02-03,1,,,,,エヌリンク,0
92,1021003011337,新規,0,2022-02-03,2022-02-03,合同会社Ｋ・Ｋ,,合同会社,神奈川県,大和市,大和東３丁目３－１８－２０４,,14,213,2420017,,,,,,,2022-02-03,1,,,,,ケーケー,0
96,1030001146623,新規,0,2022-02-03,2022-02-03,株式会社吉田土建,,株式会社,埼玉県,狭山市,大字堀兼１９４０番地の１０,,11,215,3501312,,,,,,,2022-02-03,1,,,,,ヨシダドケン,0
98,1030003018787,新規,0,2022-02-03,2022-02-03,合同会社Ｍｏｇｕｒａ,,合同会社,埼玉県,さいたま市中央区,上落合８丁目８番１５号アーバンフラッツ２０１,,11,105,3380001,,,,,,,2022-02-03,1,,,,,モグラ,0
105,1040001122037,新規,0,2022-02-03,2022-02-03,ソウキ技建株式会社,,株式会社,千葉県,松戸市,中金杉１丁目２５０番地,,12,207,2700007,,,,,,,2022-02-03,1,,,,,ソウキギケン,0
106,1040001122053,新規,0,2022-02-03,2022-02-03,株式会社ＢｕｎｃｈＴｅｃｔ,,株式会社,千葉県,船橋市,坪井町１５９番地１０,,12,204,2740062,,,,,,,2022-02-03,1,,,,,バンチテクト,0
107,1040001122086,新規,0,2022-02-03,2022-02-03,株式会社Ｍａｎｙ,,株式会社,千葉県,四街道市,もねの里５丁目９番４号,,12,228,2840016,,,,,,,2022-02-03,1,,,,,メニー,0
108,1040001122094,新規,0,2022-02-03,2022-02-03,株式会社ケイ・クルー・ライン,,株式会社,千葉県,千葉市中央区,春日２丁目１９番１号,,12,101,2600033,,,,,,,2022-02-03,1,,,,,ケイクルーライン,0
109,1040001122111,新規,0,2022-02-03,2022-02-03,株式会社ｆｕｔｕｒｅ,,株式会社,千葉県,富津市,二間塚１６４３－２１,,12,226,2930002,,,,,,,2022-02-03,1,,,,,フューチャー,0
115,1050001050567,新規,0,2022-02-03,2022-02-03,株式会社栄心,,株式会社,茨城県,つくば市,安食２５１６番地５７,,08,220,3004205,,,,,,,2022-02-03,1,,,,,エイシン,0
119,1070001038908,新規,0,2022-02-03,2022-02-03,株式会社ヤマタケプラン,,株式会社,群馬県,渋川市,赤城町津久田２０３４番地,,10,208,3791103,,,,,,,2022-02-03,1,,,,,ヤマタケプラン,0
120,1070003004379,新規,0,2022-02-03,2022-02-03,合同会社みどりエステート,,合同会社,群馬県,みどり市,大間々町塩原８９６番地５,,10,212,3760115,,,,,,,2022-02-03,1,,,,,ミドリエステート,0
121,1080001024733,新規,0,2022-02-03,2022-02-03,株式会社Ｔｏｒａｎｏｓｕｍｉｋａ,,株式会社,静岡県,静岡市駿河区,用宗４丁目１７番１０号１階,,22,102,4210122,,,,,,,2022-02-03,1,,,,,トラノスミカ,0
122,1080101023081,新規,0,2022-02-03,2022-02-03,星野新聞堂沼津株式会社,,株式会社,静岡県,富士市,緑町１番２８号,,22,210,4170049,,,,,,,2022-02-03,1,,,,,ホシノシンブンドウヌマヅ,0
123,1080401025612,新規,0,2022-02-03,2022-02-03,色色ペイント株式会社,,株式会社,静岡県,浜松市中区,高丘北４丁目６番１６号ホワイトハウス１Ｆ,,22,131,4338119,,,,,,,2022-02-03,1,,,,,イロイロペイント,0
125,1100001035026,新規,0,2022-02-03,2022-02-03,株式会社ＺＥＲＯ　ＰＬＵＳ,,株式会社,長野県,長野市,大字鶴賀緑町１０９５番地８、４０３,,20,201,3800813,,,,,,,2022-02-03,1,,,,,ゼロプラス,0
139,1120001243394,新規,0,2022-02-03,2022-02-03,株式会社天神,,株式会社,大阪府,大阪市北区,堂山町３番１４号末広ビル３Ｆ,,27,127,5300027,,,,,,,2022-02-03,1,,,,,テンジン,0
140,1120001243592,新規,0,2022-02-03,2022-02-03,株式会社だるまや,,株式会社,大阪府,寝屋川市,田井西町２４番１６号,,27,215,5720020,,,,,,,2022-02-03,1,,,,,ダルマヤ,0
141,1120001243659,新規,0,2022-02-03,2022-02-03,株式会社カルラフードサービス,,株式会社,大阪府,大阪市都島区,中野町４丁目８番１５号フォレスト桜ノ宮６０３号,,27,102,5340027,,,,,,,2022-02-03,1,,,,,カルラフードサービス,0
146,1120901045535,新規,0,2022-02-03,2022-02-03,株式会社Ｓｔａｂｌｅ　ＧＱ,,株式会社,大阪府,摂津市,新在家１丁目６番２号,,27,224,5660055,,,,,,,2022-02-03,1,,,,,ステイブルジーキュー,0
148,1122001035549,新規,0,2022-02-03,2022-02-03,株式会社阿部製作所,,株式会社,大阪府,東大阪市,玉串町東３丁目６番２７号,,27,227,5780932,,,,,,,2022-02-03,1,,,,,アベセイサクショ,0
149,1122001035557,新規,0,2022-02-03,2022-02-03,サヨ株式会社,,株式会社,大阪府,八尾市,曙川東３丁目２番地,00125617,27,212,5810020,,,,,,,2022-02-03,1,,,,,サヨ,0
150,1122003002266,新規,0,2022-02-03,2022-02-03,合同会社寺井,,合同会社,大阪府,東大阪市,吉田本町３丁目５番１２－７０１号,,27,227,5780982,,,,,,,2022-02-03,1,,,,,テライ,0
153,1130001071051,新規,0,2022-02-03,2022-02-03,株式会社Ｃｒｅａｒｅ,,株式会社,京都府,京都市北区,紫竹大門町４７番地,,26,101,6038414,,,,,,,2022-02-03,1,,,,,クリアーレ,0
156,1140001124741,新規,0,2022-02-03,2022-02-03,アワーフード株式会社,,株式会社,兵庫県,神戸市中央区,磯上通８丁目１番２９号,,28,110,6510086,,,,,,,2022-02-03,1,,,,,アワーフード,0
157,1140001124766,新規,0,2022-02-03,2022-02-03,株式会社広畑不動産,,株式会社,兵庫県,姫路市,広畑区西夢前台６丁目２２番地,,28,201,6711103,,,,,,,2022-02-03,1,,,,,ヒロハタフドウサン,0
158,1140001124790,新規,0,2022-02-03,2022-02-03,株式会社ＭＹＯＪＯ,,株式会社,兵庫県,明石市,藤江１３８０番地の１９,,28,203,6730044,,,,,,,2022-02-03,1,,,,,ミョウジョウ,0
159,1140001124816,新規,0,2022-02-03,2022-02-03,株式会社ＭＯＶＥＤＯＯＲ,,株式会社,兵庫県,三田市,中町７－３９,,28,219,6691527,,,,,,,2022-02-03,1,,,,,ムーブドア,0
163,1140005026026,新規,0,2022-02-03,2022-02-03,ジャスト税理士法人,,その他の設立登記法人,兵庫県,神戸市中央区,京町６７番地ＫＡＮＪＵビル６階,,28,110,6500034,,,,,,,2022-02-03,1,,,,,ジャスト,0
167,1150001025303,新規,0,2022-02-03,2022-02-03,株式会社ネクスト,,株式会社,奈良県,生駒郡斑鳩町,龍田北１丁目９番１９号,00125612,29,344,6360151,,,,,,,2022-02-03,1,,,,,ネクスト,0
168,1150001025311,新規,0,2022-02-03,2022-02-03,株式会社ぐれーぷアシスト,,株式会社,奈良県,天理市,川原城町３６６－２,,29,204,6320016,,,,,,,2022-02-03,1,,,,,グレープアシスト,0
169,1150003002614,新規,0,2022-02-03,2022-02-03,大和合同会社,,合同会社,奈良県,香芝市,瓦口５３２番地４６,,29,210,6390225,,,,,,,2022-02-03,1,,,,,ヤマト,0
170,1160003002489,新規,0,2022-02-03,2022-02-03,合同会社ケイワールド,,合同会社,滋賀県,彦根市,大藪町１５８４番地,,25,202,5220053,,,,,,,2022-02-03,1,,,,,,0
174,1180001149719,新規,0,2022-02-03,2022-02-03,株式会社メイビット,,株式会社,愛知県,名古屋市東区,葵２丁目３番１５号,,23,102,4610004,,,,,,,2022-02-03,1,,,,,メイビット,0
175,1180001149826,新規,0,2022-02-03,2022-02-03,ＢＯＩＳ創建株式会社,,株式会社,愛知県,一宮市,三条字大平５４番地８,,23,203,4940003,,,,,,,2022-02-03,1,,,,,ボワソウケン,0
176,1180001149834,新規,0,2022-02-03,2022-02-03,株式会社スリーベース,,株式会社,愛知県,名古屋市中村区,松原町４丁目３２番地の１,,23,105,4530021,,,,,,,2022-02-03,1,,,,,スリーベース,0
177,1180001149842,新規,0,2022-02-03,2022-02-03,株式会社新川プライム,,株式会社,愛知県,半田市,北末広町１０番地,,23,205,4750852,,,,,,,2022-02-03,1,,,,,シンカワプライム,0
179,1180003023459,新規,0,2022-02-03,2022-02-03,合同会社ＸＥＮＣＥ,,合同会社,愛知県,名古屋市中区,栄１丁目２０番１０号グランアベニュー栄６１７,,23,106,4600008,,,,,,,2022-02-03,1,,,,,センス,0
180,1180301035890,新規,0,2022-02-03,2022-02-03,豊北不動産株式会社,,株式会社,愛知県,豊田市,四郷町山畑１２５番地５,,23,211,4700373,,,,,,,2022-02-03,1,,,,,トヨキタフドウサン,0
181,1180301035899,新規,0,2022-02-03,2022-02-03,株式会社ＰＬＧ企画,,株式会社,愛知県,豊川市,新宿町１丁目８３番地,,23,207,4420043,,,,,,,2022-02-03,1,,,,,ピーエルジーキカク,0
185,1190001029085,新規,0,2022-02-03,2022-02-03,株式会社プレステージホールディングス,,株式会社,三重県,鳥羽市,堅神町８５５番地１,,24,211,5170014,,,,,,,2022-02-03,1,,,,,プレステージホールディングス,0
186,1190001029093,新規,0,2022-02-03,2022-02-03,株式会社ＲＥＤＳ’ＢＵＲＧＥＲ　ＳＴＯＲＥＳ,,株式会社,三重県,四日市市,鵜の森１丁目４番５号泗水ビル２Ｆ,,24,202,5100074,,,,,,,2022-02-03,1,,,,,レッズバーガーストアーズ,0
188,1200001039719,新規,0,2022-02-03,2022-02-03,エムシーアイ株式会社,,株式会社,岐阜県,多治見市,笠原町４０３０番地の５,,21,204,5070901,,,,,,,2022-02-03,1,,,,,エムシーアイ,0
190,1200003005446,新規,0,2022-02-03,2022-02-03,合同会社エリア・レイズ,,合同会社,岐阜県,可児市,広見２丁目７番地,,21,214,5090214,,,,,,,2022-02-03,1,,,,,エリアレイズ,0
197,1230001019222,新規,0,2022-02-03,2022-02-03,木工屋建繁株式会社,,株式会社,富山県,富山市,八尾町杉田８１７番地,,16,201,9392302,,,,,,,2022-02-03,1,,,,,モッコウヤタテシゲ,0
198,1250001010427,新規,0,2022-02-03,2022-02-03,株式会社山県土地,,株式会社,山口県,周南市,大字久米３１９７番地の３,,35,215,7450801,,,,,,,2022-02-03,1,,,,,ヤマガタトチ,0
200,1260001036487,新規,0,2022-02-03,2022-02-03,株式会社ＳＨＥＮＯＮ,,株式会社,岡山県,岡山市北区,幸町２番１５号,,33,101,7000903,,,,,,,2022-02-03,1,,,,,シェノン,0
202,1260003003790,新規,0,2022-02-03,2022-02-03,合同会社ＧＲＯＷＵＰｃｏｒｐｏｒａｔｉｏｎ,,合同会社,岡山県,津山市,南方中１６８６番地,,33,203,7094616,,,,,,,2022-02-03,1,,,,,グローアップコーポレーション,0
210,1290001096314,新規,0,2022-02-03,2022-02-03,株式会社Ｓｙｎａｐｓｅ　Ｆｕｋｕｏｋａ,,株式会社,福岡県,福岡市南区,若久２丁目２２番１５号,,40,134,8150042,,,,,,,2022-02-03,1,,,,,シナプスフクオカ,0
211,1290001096355,新規,0,2022-02-03,2022-02-03,株式会社福岡Ｋ企画,,株式会社,福岡県,福岡市城南区,梅林４丁目１０番３－７号,,40,136,8140144,,,,,,,2022-02-03,1,,,,,フクオカケイキカク,0
218,1330001029418,新規,0,2022-02-03,2022-02-03,株式会社平屋工房,,株式会社,熊本県,上益城郡益城町,大字福富６９１番地１,,43,443,8612235,,,,,,,2022-02-03,1,,,,,ヒラヤコウボウ,0
219,1330001029426,新規,0,2022-02-03,2022-02-03,株式会社ＨＤＫ,,株式会社,熊本県,熊本市南区,御幸笛田１丁目１８番３６号,,43,104,8614172,,,,,,,2022-02-03,1,,,,,エイチディーケー,0
220,1330003009228,新規,0,2022-02-03,2022-02-03,合同会社なかむら,,合同会社,熊本県,熊本市北区,徳王１丁目１５番１－２０６号,,43,105,8615525,,,,,,,2022-02-03,1,,,,,ナカムラ,0
221,1340001024475,新規,0,2022-02-03,2022-02-03,蓬野整備工場株式会社,,株式会社,鹿児島県,曽於郡大崎町,神領２３７０－１３,,46,468,8997302,,,,,,,2022-02-03,1,,,,,フツノセイビコウジョウ,0
222,1340003003700,新規,0,2022-02-03,2022-02-03,合同会社ｍマネジメント,,合同会社,鹿児島県,姶良市,松原町１丁目９番地３８,,46,225,8995422,,,,,,,2022-02-03,1,,,,,エムマネジメント,0
223,1350001017569,新規,0,2022-02-03,2022-02-03,株式会社ＫＯＵＪＩ,,株式会社,宮崎県,宮崎市,堀川町１９５番地,,45,201,8800873,,,,,,,2022-02-03,1,,,,,コウジ,0
224,1360003011783,新規,0,2022-02-03,2022-02-03,合同会社ゴールドクリエイト,,合同会社,沖縄県,うるま市,字赤道１７６番地４,,47,213,9042245,,,,,,,2022-02-03,1,,,,,ゴールドクリエイト,0
225,1370001048158,新規,0,2022-02-03,2022-02-03,株式会社ＮＡＴＯＲＩ,,株式会社,宮城県,仙台市若林区,大和町５丁目８番２０－１３０４号,,04,103,9840042,,,,,,,2022-02-03,1,,,,,ナトリ,0
226,1370001048166,新規,0,2022-02-03,2022-02-03,株式会社ＬＴＢ,,株式会社,宮城県,仙台市青葉区,宮町２丁目２番６－６０６号,,04,101,9800004,,,,,,,2022-02-03,1,,,,,エルティービー,0
231,1390001016773,新規,0,2022-02-03,2022-02-03,Ｒｅ・Ｓｗａｔ株式会社,,株式会社,山形県,天童市,乱川２丁目１番７－２号,,06,210,9940002,,,,,,,2022-02-03,1,,,,,リスワット,0
242,1430001085896,新規,0,2022-02-03,2022-02-03,株式会社ライクスペース,,株式会社,北海道,札幌市中央区,南四条西５丁目８番地Ｆ４５ビル１１階１１１１号室,,01,101,0640804,,,,,,,2022-02-03,1,,,,,ライクスペース,0
243,1430001085913,新規,0,2022-02-03,2022-02-03,株式会社あずまし家,,株式会社,北海道,札幌市豊平区,平岸三条１７丁目１番１７号,,01,105,0620933,,,,,,,2022-02-03,1,,,,,アズマシヤ,0
244,1430001085938,新規,0,2022-02-03,2022-02-03,株式会社ＬＩＧＡＲＥ,,株式会社,北海道,札幌市中央区,南十三条西１１丁目１番５－１０１号,,01,101,0640913,,,,,,,2022-02-03,1,,,,,リガーレ,0
246,1462503000198,新規,0,2022-02-03,2022-02-03,合同会社Ｒａｋｕ　ｅｐｉ,,合同会社,北海道,野付郡別海町,中春別東町３９番地１,,01,691,0860651,,,,,,,2022-02-03,1,,,,,ラクエピ,0
250,1480001011641,新規,0,2022-02-03,2022-02-03,講演講師アットマーク株式会社,,株式会社,徳島県,徳島市,八万町川南６７番地の１４,,36,201,7708082,,,,,,,2022-02-03,1,,,,,コウエンコウシアットマーク,0
251,1500005008458,新規,0,2022-02-03,2022-02-03,一般社団法人ワンリトルステップ,,その他の設立登記法人,愛媛県,東温市,北方３０５１番地２,,38,215,7910303,,,,,,,2022-02-03,1,,,,,ワンリトルステップ,0
262,2010001224280,新規,0,2022-02-03,2022-02-03,株式会社Ｄｏｎライフプロジェクト,,株式会社,東京都,中央区,銀座７丁目１３番６号サガミビル２階,,13,102,1040061,,,,,,,2022-02-03,1,,,,,ドンライフプロジェクト,0
263,2010001224289,新規,0,2022-02-03,2022-02-03,株式会社ＩＢＳ,,株式会社,東京都,中央区,銀座１丁目１６番７号銀座大栄ビル５階,,13,102,1040061,,,,,,,2022-02-03,1,,,,,アイビーエス,0
266,2010003036889,新規,0,2022-02-03,2022-02-03,ジェイコアレジ５合同会社４,,合同会社,東京都,千代田区,丸の内３丁目１番１号東京共同会計事務所内,,13,101,1000005,,,,,,,2022-02-03,1,,,,,ジェイコアレジファイブヨン,0
267,2010005034552,新規,0,2022-02-03,2022-02-03,一般社団法人丸の内ホールディングス,,その他の設立登記法人,東京都,千代田区,丸の内１丁目６番５号,,13,101,1000005,,,,,,,2022-02-03,1,,,,,マルノウチホールディングス,0
278,2010401165364,新規,0,2022-02-03,2022-02-03,株式会社ＮＳＪコーポレーション,,株式会社,東京都,港区,赤坂２丁目１６番６号,,13,103,1070052,,,,,,,2022-02-03,1,,,,,エヌエスジェイコーポレーション,0
279,2010403027026,新規,0,2022-02-03,2022-02-03,ＰＩＥＣＥ　ＹＯＵＭＯＲＥ合同会社,,合同会社,東京都,港区,麻布十番２丁目１２番５号コンフォート麻布７０３,,13,103,1060045,,,,,,,2022-02-03,1,,,,,ピースユーモア,0
280,2010403027034,新規,0,2022-02-03,2022-02-03,合同会社エーシーズ,,合同会社,東京都,港区,南麻布２丁目１番８－６０２号,,13,103,1060047,,,,,,,2022-02-03,1,,,,,エーシーズ,0
287,2010605004038,新規,0,2022-02-03,2022-02-03,一般社団法人日本ミニチュア陶芸協会,,その他の設立登記法人,東京都,墨田区,石原２丁目１７番１２－２０１号,,13,107,1300011,,,,,,,2022-02-03,1,,,,,ニホンミニチュアトウゲイキョウカイ,0
294,2010903007122,新規,0,2022-02-03,2022-02-03,オタカラ合同会社,,合同会社,東京都,世田谷区,松原４丁目１２番１０号グランエッグス松原０２,,13,112,1560043,,,,,,,2022-02-03,1,,,,,オタカラ,0
295,2010903007130,新規,0,2022-02-03,2022-02-03,合同会社ライトウェイ,,合同会社,東京都,世田谷区,鎌田３丁目１７番３号,,13,112,1570077,,,,,,,2022-02-03,1,,,,,ライトウェイ,0
303,2011001145392,新規,0,2022-02-03,2022-02-03,株式会社アネックス,,株式会社,東京都,目黒区,下目黒１丁目２番２２号,,13,110,1530064,,,,,,,2022-02-03,1,,,,,アネックス,0
304,2011001145434,新規,0,2022-02-03,2022-02-03,株式会社４０２Ｌａｎｃｅｒｓ,,株式会社,東京都,渋谷区,道玄坂１丁目１０番８号渋谷道玄坂東急ビル,,13,113,1500043,,,,,,,2022-02-03,1,,,,,ヨンマルニランサーズ,0
314,2011101097699,新規,0,2022-02-03,2022-02-03,株式会社ＭＯＫＯＳ,,株式会社,東京都,新宿区,西新宿３丁目３番１３号西新宿水間ビル６階,,13,104,1600023,,,,,,,2022-02-03,1,,,,,モコズ,0
315,2011201023605,新規,0,2022-02-03,2022-02-03,株式会社エイトドアーズ,,株式会社,東京都,中野区,本町３丁目３０番１４号２Ｆ,,13,114,1640012,,,,,,,2022-02-03,1,,,,,エイトドアーズ,0
317,2011401023999,新規,0,2022-02-03,2022-02-03,株式会社Ｌｉｆｅ　Ｎｅｘｔ,,株式会社,東京都,板橋区,大谷口上町二丁目５番北村第一ビル３Ｆ,,13,119,1730032,,,,,,,2022-02-03,1,,,,,ライフネクスト,0
318,2011501027719,新規,0,2022-02-03,2022-02-03,株式会社ＭＲＧ,,株式会社,東京都,北区,西ケ原３丁目２番１号,,13,117,1140024,,,,,,,2022-02-03,1,,,,,エムアールジー,0
319,2011501027727,新規,0,2022-02-03,2022-02-03,ＨＵＭＡＬＩＮＫＳ株式会社,,株式会社,東京都,北区,十条仲原１丁目４－１２十条フジビル４０１,,13,117,1140031,,,,,,,2022-02-03,1,,,,,ヒューマリンクス,0
323,2011603003519,新規,0,2022-02-03,2022-02-03,合同会社イーグルコンサルティング,,合同会社,東京都,練馬区,平和台１丁目３８番１２－４０７号,,13,120,1790083,,,,,,,2022-02-03,1,,,,,イーグルコンサルティング,0
325,2011801040289,新規,0,2022-02-03,2022-02-03,株式会社ＤＡＹ　Ｅｎｔｅｒｔａｉｎｍｅｎｔ,,株式会社,東京都,葛飾区,鎌倉４丁目２９－１３鎌倉ハイツＡ１０２号室,,13,122,1250053,,,,,,,2022-02-03,1,,,,,デイエンターテインメント,0
329,2011803004960,新規,0,2022-02-03,2022-02-03,合同会社ＴＫＡＮＡＫＯ,,合同会社,東京都,葛飾区,柴又３丁目１９番７号,,13,122,1250052,,,,,,,2022-02-03,1,,,,,ティカナコ,0
337,2012801021378,新規,0,2022-02-03,2022-02-03,株式会社あいんす,,株式会社,東京都,立川市,富士見町７丁目３０番５号,,13,202,1900013,,,,,,,2022-02-03,1,,,,,アインス,0
341,2013303006025,新規,0,2022-02-03,2022-02-03,合同会社ＫＲＥＳＴ５５,,合同会社,東京都,豊島区,北大塚１丁目１９番１２号コルティス大塚６Ｆ－２２,,13,116,1700004,,,,,,,2022-02-03,1,,,,,クレストゴーゴー,0
347,2020001145022,新規,0,2022-02-03,2022-02-03,株式会社ＣＡＰＴＡＩＮ　ＯＮＥ,,株式会社,神奈川県,川崎市中原区,上新城１丁目４－２フォンテーヌイノウエ１０１,,14,133,2110045,,,,,,,2022-02-03,1,,,,,キャプテンワン,0
348,2020001145088,新規,0,2022-02-03,2022-02-03,株式会社ＴＭＳ,,株式会社,神奈川県,横浜市旭区,川島町１８７７－６１,,14,112,2410011,,,,,,,2022-02-03,1,,,,,ティーエムエス,0
354,2021001075119,新規,0,2022-02-03,2022-02-03,株式会社ブリーザ,,株式会社,神奈川県,藤沢市,片瀬５丁目５番７号,,14,205,2510032,,,,,,,2022-02-03,1,,,,,ブリーザ,0
368,2030001146614,新規,0,2022-02-03,2022-02-03,株式会社栄雄建設,,株式会社,埼玉県,八潮市,大字大曽根９２５番地１ツインハイツＢ１０３,,11,234,3400834,,,,,,,2022-02-03,1,,,,,エイユウケンセツ,0
369,2030001146622,新規,0,2022-02-03,2022-02-03,Ｄｅｔｈｉｎｋ株式会社,,株式会社,埼玉県,入間市,大字野田４９１番地６,,11,225,3580054,,,,,,,2022-02-03,1,,,,,デシンク,0
371,2030003018794,新規,0,2022-02-03,2022-02-03,合同会社ｇｏａ　ｈｅａｄ,,合同会社,埼玉県,川口市,並木３丁目３０番１７号,,11,203,3320034,,,,,,,2022-02-03,1,,,,,ゴアヘッド,0
373,2040001122052,新規,0,2022-02-03,2022-02-03,株式会社ＡＦＦＥＣＴ,,株式会社,千葉県,印西市,船尾１２５番地,,12,231,2701345,,,,,,,2022-02-03,1,,,,,アフェクト,0
374,2040001122085,新規,0,2022-02-03,2022-02-03,ミキテラス株式会社,,株式会社,千葉県,市川市,妙典６丁目３番２１－１３１４号,,12,203,2720111,,,,,,,2022-02-03,1,,,,,ミキテラス,0
375,2040001122110,新規,0,2022-02-03,2022-02-03,株式会社ＷＩＬＬＳＢＥＥ,,株式会社,千葉県,柏市,豊四季３３９番地２６,,12,217,2770863,,,,,,,2022-02-03,1,,,,,ウイルスビー,0
376,2040003019429,新規,0,2022-02-03,2022-02-03,合同会社イッツサニー,,合同会社,千葉県,船橋市,浜町１丁目５番３号ファミリータウン３号棟１２０,,12,204,2730012,,,,,,,2022-02-03,1,,,,,イッツサニー,0
382,2050001050566,新規,0,2022-02-03,2022-02-03,株式会社ＢＴＦ　ＷＯＲＫＳ,,株式会社,茨城県,常陸大宮市,東野３１６６番地の１,,08,225,3192224,,,,,,,2022-02-03,1,,,,,ビーティーエフワークス,0
384,2050003006351,新規,0,2022-02-03,2022-02-03,合同会社ＮＷ函館,,合同会社,茨城県,ひたちなか市,大字馬渡西谷津３８４６番地,,08,221,3120012,,,,,,,2022-02-03,1,,,,,エヌダブリューハコダテ,0
390,2070001038907,新規,0,2022-02-03,2022-02-03,株式会社山伸,,株式会社,群馬県,高崎市,阿久津町１１８６番地１０,,10,202,3701211,,,,,,,2022-02-03,1,,,,,ヤマシン,0
391,2070003004378,新規,0,2022-02-03,2022-02-03,合同会社ムービングホームサービス,,合同会社,群馬県,前橋市,鳥取町８８番地２,,10,201,3710131,,,,,,,2022-02-03,1,,,,,ムービングホームサービス,0
393,2080001024732,新規,0,2022-02-03,2022-02-03,８ＬＩＮＫ株式会社,,株式会社,静岡県,焼津市,五ケ堀之内９０６－１ベルアルモニーＶ１０３,,22,212,4250077,,,,,,,2022-02-03,1,,,,,エイトリンク,0
396,2080101023080,新規,0,2022-02-03,2022-02-03,ＦＯＯＤ　ＳＴＡＮＤＡＲＤ　Ｃｅｎｔｒａｌ　Ｊａｐａｎ株式会社,,株式会社,静岡県,裾野市,茶畑２２４番地の９,,22,220,4101121,,,,,,,2022-02-03,1,,,,,フードスタンダードセントラルジャパン,0
400,2080401025611,新規,0,2022-02-03,2022-02-03,株式会社出雲殿,,株式会社,静岡県,浜松市中区,三組町１８５番地の１,,22,131,4328017,,,,,,,2022-02-03,1,,,,,イズモデン,0
402,2100001035025,新規,0,2022-02-03,2022-02-03,株式会社ｆｏｏｄ　ｃｏｏｐｅｒａｔｉｏｎ,,株式会社,長野県,長野市,広田１４１番地,,20,201,3812213,,,,,,,2022-02-03,1,,,,,フードコーオペレーション,0
403,2100001035033,新規,0,2022-02-03,2022-02-03,株式会社ｋｉｋｉ,,株式会社,長野県,駒ヶ根市,下市場２７番２０号,,20,210,3994108,,,,,,,2022-02-03,1,,,,,キキ,0
406,2110001036410,新規,0,2022-02-03,2022-02-03,株式会社地産地消,,株式会社,新潟県,新潟市中央区,鐙西２丁目２８番２２号パープル・マウンテン２０９,,15,103,9500915,,,,,,,2022-02-03,1,,,,,チサンチショウ,0
413,2120001243600,新規,0,2022-02-03,2022-02-03,株式会社托口出版,,株式会社,大阪府,大阪市福島区,吉野１丁目１５－２金丸ビル２０１号,,27,103,5530006,,,,,,,2022-02-03,1,,,,,タッコウシュッパン,0
414,2120005022777,新規,0,2022-02-03,2022-02-03,一般社団法人ＢＣＹ　Ｉｎｓｔｉｔｕｔｅ　Ｊａｐａｎ,,その他の設立登記法人,大阪府,大阪市中央区,森ノ宮中央１丁目１８番１５号,,27,128,5400003,,,,,,,2022-02-03,1,,,,,ビーシーワイインスティテュートジャパン,0
423,2122001035556,新規,0,2022-02-03,2022-02-03,株式会社辰己屋エステート,,株式会社,大阪府,東大阪市,西堤本通西１丁目８番２０号,,27,227,5770046,,,,,,,2022-02-03,1,,,,,タツミヤエステート,0
425,2122003002265,新規,0,2022-02-03,2022-02-03,合同会社フジ商マシナリー,,合同会社,大阪府,東大阪市,森河内東１丁目２１番２３－２０４号,,27,227,5770062,,,,,,,2022-02-03,1,,,,,フジショウマシナリー,0
430,2130001071059,新規,0,2022-02-03,2022-02-03,株式会社ＦＩＮＤ　ＭＥ　ＦＩＮＤ　ＹＯＵ,,株式会社,京都府,京都市下京区,仏光寺通柳馬場西入東前町４０３番地,,26,106,6008074,,,,,,,2022-02-03,1,,,,,ファインドミーファインドユー,0
431,2130001071075,新規,0,2022-02-03,2022-02-03,株式会社ＯＬＭ,,株式会社,京都府,京都市右京区,宇多野法安寺町２０,,26,108,6168206,,,,,,,2022-02-03,1,,,,,オーエルエム,0
435,2140001124807,新規,0,2022-02-03,2022-02-03,カノアインターナショナル株式会社,,株式会社,兵庫県,神戸市西区,学園東町４丁目３５番地の１５,,28,111,6512102,,,,,,,2022-02-03,1,,,,,カノアインターナショナル,0
436,2140001124831,新規,0,2022-02-03,2022-02-03,株式会社Ｌａ　ｃａｓａ　ｄｅ　ｍａｍｉ,,株式会社,兵庫県,神戸市西区,北別府３丁目２２－６,,28,111,6512117,,,,,,,2022-02-03,1,,,,,ラカサデマミ,0
439,2140005026025,新規,0,2022-02-03,2022-02-03,一般社団法人ｆｕｔｕｒｅ　ｂｅａｕｔｙ協会,,その他の設立登記法人,兵庫県,加古川市,加古川町北在家２４６０番地,,28,210,6750031,,,,,,,2022-02-03,1,,,,,フューチャービューティーキョウカイ,0
446,2180001149800,新規,0,2022-02-03,2022-02-03,株式会社Ａ－Ｌｉｆｅ,,株式会社,愛知県,名古屋市中村区,名駅５丁目４番１４号花車ビル北館１階－２階,,23,105,4500002,,,,,,,2022-02-03,1,,,,,エーライフ,0
447,2180001149817,新規,0,2022-02-03,2022-02-03,株式会社ＨＡＫＡＮ　ＣＯＭＰＡＮＹ,,株式会社,愛知県,小牧市,城山１丁目６番地３,,23,219,4850812,,,,,,,2022-02-03,1,,,,,ハカンカンパニー,0
448,2180001149825,新規,0,2022-02-03,2022-02-03,大空株式会社,,株式会社,愛知県,名古屋市北区,安井３丁目７番４６号,,23,103,4620023,,,,,,,2022-02-03,1,,,,,オオゾラ,0
449,2180001149841,新規,0,2022-02-03,2022-02-03,株式会社キャナルプレイス,,株式会社,愛知県,半田市,北末広町１０番地,,23,205,4750852,,,,,,,2022-02-03,1,,,,,キャナルプレイス,0
450,2180001149866,新規,0,2022-02-03,2022-02-03,株式会社ＲＹＳ,,株式会社,愛知県,名古屋市中川区,露橋町２６番地,,23,110,4540028,,,,,,,2022-02-03,1,,,,,アールワイエス,0
452,2180003023466,新規,0,2022-02-03,2022-02-03,合同会社ＲＩＳＳ,,合同会社,愛知県,名古屋市熱田区,波寄町２３番１８号金山ソシアルビル５Ｆ,,23,109,4560003,,,,,,,2022-02-03,1,,,,,リズ,0
453,2180003023474,新規,0,2022-02-03,2022-02-03,合同会社エヌケー,,合同会社,愛知県,名古屋市東区,東桜２丁目９番３３号,,23,102,4610005,,,,,,,2022-02-03,1,,,,,エヌケー,0
458,2180303005247,新規,0,2022-02-03,2022-02-03,マスマスグループ合同会社,,合同会社,愛知県,岡崎市,羽根西新町６番地２エルハイム岡崎２０５,,23,202,4440839,,,,,,,2022-02-03,1,,,,,マスマスグループ,0
464,2190001029084,新規,0,2022-02-03,2022-02-03,株式会社ブライティア,,株式会社,三重県,伊勢市,藤里町６７１番地７,,24,203,5160043,,,,,,,2022-02-03,1,,,,,ブライティア,0
465,2190001029092,新規,0,2022-02-03,2022-02-03,株式会社ＨＹＲ企画,,株式会社,三重県,鈴鹿市,住吉町８３０６番地,,24,207,5130825,,,,,,,2022-02-03,1,,,,,エイチワイアールキカク,0
473,2240001059266,新規,0,2022-02-03,2022-02-03,株式会社プロフィット,,株式会社,広島県,広島市安佐北区,口田南４丁目３７番１０号,,34,106,7391733,,,,,,,2022-02-03,1,,,,,プロフィット,0
474,2240001059274,新規,0,2022-02-03,2022-02-03,株式会社Ｔ．Ｊ．Ｍ,,株式会社,広島県,広島市安佐南区,西原８丁目２１番６号,,34,105,7310113,,,,,,,2022-02-03,1,,,,,ティジェイエム,0
476,2240005015315,新規,0,2022-02-03,2022-02-03,医療法人Ｓａｒａｓｗａｔｉ,,その他の設立登記法人,広島県,広島市中区,江波二本松２丁目７番３０号,,34,101,7300834,,,,,,,2022-02-03,1,,,,,サラスワティ,0
480,2260001036486,新規,0,2022-02-03,2022-02-03,株式会社Ｉ・Ｄ・Ｏ,,株式会社,岡山県,岡山市南区,藤田６６８番地１７５,,33,104,7010221,,,,,,,2022-02-03,1,,,,,アイディーオー,0
483,2280001008624,新規,0,2022-02-03,2022-02-03,五葉土建株式会社,,株式会社,島根県,益田市,久城町４７４番地１１,,32,204,6980001,,,,,,,2022-02-03,1,,,,,ゴヨウドケン,0
486,2290001096313,新規,0,2022-02-03,2022-02-03,株式会社Ｍ２,,株式会社,福岡県,福岡市中央区,伊崎３番１２号,,40,133,8100067,,,,,,,2022-02-03,1,,,,,エムツー,0
487,2290001096354,新規,0,2022-02-03,2022-02-03,ＮＳＫ株式会社,,株式会社,福岡県,糸島市,瀬戸２５７番地１,,40,230,8191156,,,,,,,2022-02-03,1,,,,,エヌエスケイ,0
492,2290801028234,新規,0,2022-02-03,2022-02-03,株式会社一縁,,株式会社,福岡県,北九州市八幡西区,大字楠橋４８６２番地１,,40,109,8071151,,,,,,,2022-02-03,1,,,,,イチエン,0
496,2320001018874,新規,0,2022-02-03,2022-02-03,ＫＩＲＡスタイル株式会社,,株式会社,大分県,別府市,大字鶴見１８番地の４,,44,202,8740840,,,,,,,2022-02-03,1,,,,,キラスタイル,0
497,2320001018882,新規,0,2022-02-03,2022-02-03,アセッツ牧株式会社,,株式会社,大分県,大分市,牧１丁目１８番１９号,,44,201,8700924,,,,,,,2022-02-03,1,,,,,アセッツマキ,0
498,2330001029417,新規,0,2022-02-03,2022-02-03,株式会社伸有福祉会,,株式会社,熊本県,熊本市中央区,水前寺３丁目１番１号,,43,101,8620950,,,,,,,2022-02-03,1,,,,,シンユウフクシカイ,0
500,2330003009227,新規,0,2022-02-03,2022-02-03,合同会社ＭＳＫ,,合同会社,熊本県,山鹿市,平山字大門４７２６－５,,43,208,8610556,,,,,,,2022-02-03,1,,,,,エムエスケイ,0
501,2340001024482,新規,0,2022-02-03,2022-02-03,株式会社ＭＩＳ,,株式会社,鹿児島県,鹿児島市,千日町９－２５パークサイド天文館２階,,46,201,8920843,,,,,,,2022-02-03,1,,,,,エムアイエス,0
502,2350001017568,新規,0,2022-02-03,2022-02-03,株式会社ＫＯＵＴＡ,,株式会社,宮崎県,宮崎市,堀川町１９５番地,,45,201,8800873,,,,,,,2022-02-03,1,,,,,コウタ,0
510,2370001048149,新規,0,2022-02-03,2022-02-03,株式会社建誠塗装,,株式会社,宮城県,白石市,沢端町８番１７号,,04,206,9890277,,,,,,,2022-02-03,1,,,,,ケンセイトソウ,0
511,2370001048165,新規,0,2022-02-03,2022-02-03,芯尽電気株式会社,,株式会社,宮城県,柴田郡柴田町,大字中名生字佐野１９４番地３,,04,323,9891612,,,,,,,2022-02-03,1,,,,,シンジンデンキ,0
512,2370001048173,新規,0,2022-02-03,2022-02-03,株式会社ＴＥＡＭ－ＩＮ,,株式会社,宮城県,名取市,ゆりが丘１丁目１４－１,,04,207,9811245,,,,,,,2022-02-03,1,,,,,チームイン,0
527,2390003001921,新規,0,2022-02-03,2022-02-03,合同会社ゆい,,合同会社,山形県,南陽市,島貫１０７番地の１０,,06,213,9992244,,,,,,,2022-02-03,1,,,,,ユイ,0
530,2410001013098,新規,0,2022-02-03,2022-02-03,株式会社エムケイファーマシー,,株式会社,秋田県,秋田市,横森３丁目１１番６０号,,05,201,0100044,,,,,,,2022-02-03,1,,,,,エムケイファーマシー,0
535,2430005014388,新規,0,2022-02-03,2022-02-03,特定非営利活動法人北海道災害救助犬,,その他の設立登記法人,北海道,登別市,札内町２０１番地,,01,230,0590461,,,,,,,2022-02-03,1,,,,,ホッカイドウサイガイキュウジョケン,0
542,2460101007136,新規,0,2022-02-03,2022-02-03,塚田産業株式会社,,株式会社,北海道,足寄郡足寄町,栄町１丁目１１番地,,01,647,0893718,,,,,,,2022-02-03,1,,,,,ツカダサンギョウ,0
543,2480001011640,新規,0,2022-02-03,2022-02-03,株式会社Ｎサポート・システム,,株式会社,徳島県,徳島市,川内町富久３０３番地８,,36,201,7710111,,,,,,,2022-02-03,1,,,,,エヌサポートシステム,0
546,2500003002767,新規,0,2022-02-03,2022-02-03,ｉＳＴＡＲＳ合同会社,,合同会社,愛媛県,伊予市,下三谷１１７９番地３,,38,210,7993105,,,,,,,2022-02-03,1,,,,,アイスターズ,0
558,3010003036888,新規,0,2022-02-03,2022-02-03,ジェイコアレジ５合同会社５,,合同会社,東京都,千代田区,丸の内３丁目１番１号東京共同会計事務所内,,13,101,1000005,,,,,,,2022-02-03,1,,,,,ジェイコアレジファイブゴ,0
577,3010401165339,新規,0,2022-02-03,2022-02-03,株式会社ガーデンホームズ,,株式会社,東京都,港区,東麻布１丁目７番７号,,13,103,1060044,,,,,,,2022-02-03,1,,,,,ガーデンホームズ,0
578,3010401165355,新規,0,2022-02-03,2022-02-03,ライトハウスマネジメント株式会社,,株式会社,東京都,港区,六本木３丁目６番９号Ｋ２ビル,,13,103,1060032,,,,,,,2022-02-03,1,,,,,ライトハウスマネジメント,0
579,3010401165363,新規,0,2022-02-03,2022-02-03,株式会社ＳＥＶＥＮＴＨ,,株式会社,東京都,港区,西麻布３丁目１９－２１－２０４,,13,103,1060031,,,,,,,2022-02-03,1,,,,,セブンス,0
581,3010403027025,新規,0,2022-02-03,2022-02-03,ＭＥｓ合同会社,,合同会社,東京都,港区,浜松町２丁目２番１５号浜松町ダイヤビル２Ｆ,,13,103,1050013,,,,,,,2022-02-03,1,,,,,ミーズ,0
582,3010403027033,新規,0,2022-02-03,2022-02-03,合同会社ＫＯＨ,,合同会社,東京都,港区,南青山２丁目２番地１５号,,13,103,1070062,,,,,,,2022-02-03,1,,,,,ケーオーエイチ,0
583,3010405020639,新規,0,2022-02-03,2022-02-03,グッドビレッジ特定目的会社,,その他の設立登記法人,東京都,港区,元赤坂１丁目１番７号,,13,103,1070051,,,,,,,2022-02-03,1,,,,,グッドビレッジ,0
592,3010901050288,新規,0,2022-02-03,2022-02-03,ファイブス株式会社,,株式会社,東京都,世田谷区,若林３丁目１１番３号,,13,112,1540023,,,,,,,2022-02-03,1,,,,,ファイブス,0
593,3010903007121,新規,0,2022-02-03,2022-02-03,合同会社ＥＰＳ,,合同会社,東京都,世田谷区,北沢１丁目６番６号,,13,112,1550031,,,,,,,2022-02-03,1,,,,,イーピーエス,0
599,3011001145409,新規,0,2022-02-03,2022-02-03,株式会社ユメヨミ,,株式会社,東京都,渋谷区,恵比寿３丁目５番６号,,13,113,1500013,,,,,,,2022-02-03,1,,,,,ユメヨミ,0
600,3011001145417,新規,0,2022-02-03,2022-02-03,株式会社ダンチェ,,株式会社,東京都,渋谷区,猿楽町１２番３６号ＪＡビル２Ｆ,,13,113,1500033,,,,,,,2022-02-03,1,,,,,ダンチェ,0
601,3011001145441,新規,0,2022-02-03,2022-02-03,株式会社トライアンフ,,株式会社,東京都,渋谷区,神宮前１丁目４－２０,,13,113,1500001,,,,,,,2022-02-03,1,,,,,トライアンフ,0
602,3011001145565,新規,0,2022-02-03,2022-02-03,ＭｅｔａＴｏｋｙｏ株式会社,,株式会社,東京都,渋谷区,神宮前３丁目２１番８号,,13,113,1500001,,,,,,,2022-02-03,1,,,,,メタトーキョー,0
603,3011003014116,新規,0,2022-02-03,2022-02-03,合同会社ヘドゥリオ,,合同会社,東京都,渋谷区,宇田川町１６－８渋谷センタービル３Ｆ,,13,113,1500042,,,,,,,2022-02-03,1,,,,,ヘドゥリオ,0
608,3011101097681,新規,0,2022-02-03,2022-02-03,エイケイキャピタル株式会社,,株式会社,東京都,新宿区,西新宿３丁目３番１３号,,13,104,1600023,,,,,,,2022-02-03,1,,,,,エイケイキャピタル,0
612,3011501027726,新規,0,2022-02-03,2022-02-03,ウルテニック株式会社,,株式会社,東京都,荒川区,東尾久１丁目２５番１２号,,13,118,1160012,,,,,,,2022-02-03,1,,,,,ウルテニック,0
616,3011601025720,新規,0,2022-02-03,2022-02-03,オレンジサイト株式会社,,株式会社,東京都,練馬区,中村南３丁目６番８号,,13,120,1760025,,,,,,,2022-02-03,1,,,,,オレンジサイト,0
618,3011603003518,新規,0,2022-02-03,2022-02-03,合同会社メゾンジェルメ,,合同会社,東京都,練馬区,中村北４丁目９番１０号メゾンジェルメ７０１号,,13,120,1760023,,,,,,,2022-02-03,1,,,,,メゾンジェルメ,0
623,3013303006024,新規,0,2022-02-03,2022-02-03,合同会社ＨＰＭ,,合同会社,東京都,豊島区,東池袋５丁目１９番１号プラウドタワー東池袋１９０３号,,13,116,1700013,,,,,,,2022-02-03,1,,,,,エイチピーエム,0
632,3020001145095,新規,0,2022-02-03,2022-02-03,株式会社アルバトロス,,株式会社,神奈川県,川崎市川崎区,日進町６番地８ＣＯＭＯＤＯ川崎２０１,,14,131,2100024,,,,,,,2022-02-03,1,,,,,アルバトロス,0
653,3030001146621,新規,0,2022-02-03,2022-02-03,株式会社Ｋｙオーガニゼーション,,株式会社,埼玉県,桶川市,坂田東３丁目１３番地の１２,,11,231,3630009,,,,,,,2022-02-03,1,,,,,ケイワイオーガニゼーション,0
654,3030003018777,新規,0,2022-02-03,2022-02-03,合同会社一徳,,合同会社,埼玉県,吉川市,中央２丁目７番地７,,11,243,3420061,,,,,,,2022-02-03,1,,,,,イットク,0
655,3030003018785,新規,0,2022-02-03,2022-02-03,合同会社ミシサガ,,合同会社,埼玉県,戸田市,喜沢２丁目３２番地の２０,,11,224,3350013,,,,,,,2022-02-03,1,,,,,ミシサガ,0
661,3040001122035,新規,0,2022-02-03,2022-02-03,株式会社マジダ,,株式会社,千葉県,長生郡一宮町,一宮１００７２番地２、２階,,12,421,2994301,,,,,,,2022-02-03,1,,,,,マジダ,0
662,3040001122051,新規,0,2022-02-03,2022-02-03,優侑テラス株式会社,,株式会社,千葉県,茂原市,東郷１５５４番地１,,12,210,2970017,,,,,,,2022-02-03,1,,,,,ユウユウテラス,0
663,3040001122084,新規,0,2022-02-03,2022-02-03,株式会社ＴａＰ－Ｉｎ,,株式会社,千葉県,市川市,南八幡４丁目１番１３号ＤＡＩＫＩＣＨＩビル３階,,12,203,2720023,,,,,,,2022-02-03,1,,,,,タップイン,0
667,3040003019411,新規,0,2022-02-03,2022-02-03,日明合同会社,,合同会社,千葉県,千葉市中央区,院内１丁目５番９号ＹＫ１１ビル１階１Ｆ号室,,12,101,2600018,,,,,,,2022-02-03,1,,,,,ヒメイ,0
668,3040003019436,新規,0,2022-02-03,2022-02-03,合同会社アルファオフィス,,合同会社,千葉県,船橋市,習志野台６丁目３番１－４０３号,,12,204,2740063,,,,,,,2022-02-03,1,,,,,アルファオフィス,0
671,3050003006350,新規,0,2022-02-03,2022-02-03,ラージブロード合同会社,,合同会社,茨城県,水戸市,西原１丁目１番８９－１０３号ヴァレンティーナＥ棟,,08,201,3100044,,,,,,,2022-02-03,1,,,,,ラージブロード,0
674,3070001038914,新規,0,2022-02-03,2022-02-03,株式会社雅,,株式会社,群馬県,邑楽郡邑楽町,大字明野９番地２,,10,525,3700602,,,,,,,2022-02-03,1,,,,,ミヤビ,0
675,3070003004377,新規,0,2022-02-03,2022-02-03,合同会社Ｒｓ,,合同会社,群馬県,太田市,小舞木町２５９番地ヴエルテツクス小舞木５０７号,,10,205,3730818,,,,,,,2022-02-03,1,,,,,アールエス,0
683,3100001035024,新規,0,2022-02-03,2022-02-03,株式会社燕,,株式会社,長野県,長野市,大字穂保２８８番地１,,20,201,3810003,,,,,,,2022-02-03,1,,,,,エン,0
684,3100001035032,新規,0,2022-02-03,2022-02-03,株式会社ＲＹＯＳＥＩ,,株式会社,長野県,長野市,三輪２丁目４番３２号北沢ビル１Ｆ東,,20,201,3800803,,,,,,,2022-02-03,1,,,,,リョウセイ,0
698,3120001243442,新規,0,2022-02-03,2022-02-03,株式会社ナントフーズ,,株式会社,大阪府,大阪市住吉区,長居西２丁目１２番４号,,27,120,5580002,,,,,,,2022-02-03,1,,,,,ナントフーズ,0
699,3120001243599,新規,0,2022-02-03,2022-02-03,株式会社ＣａｌｕａＥｄｇｅ,,株式会社,大阪府,大阪市城東区,今福西５丁目７番８号,,27,118,5360004,,,,,,,2022-02-03,1,,,,,カルアエッジ,0
700,3120001243608,新規,0,2022-02-03,2022-02-03,株式会社クレア,,株式会社,大阪府,大阪市住吉区,我孫子２丁目５番２４号,,27,120,5580014,,,,,,,2022-02-03,1,,,,,クレア,0
701,3120001243616,新規,0,2022-02-03,2022-02-03,株式会社輝颯,,株式会社,大阪府,枚方市,長尾東町２丁目３５番３４号,,27,210,5730105,,,,,,,2022-02-03,1,,,,,アキヒロ,0
702,3120003021020,新規,0,2022-02-03,2022-02-03,合同会社一禾,,合同会社,大阪府,大阪市北区,長柄西１丁目３番５４－３１９号,,27,127,5310061,,,,,,,2022-02-03,1,,,,,イチカ,0
703,3120003021078,新規,0,2022-02-03,2022-02-03,合同会社ＡＲＭＳ,,合同会社,大阪府,大阪市西成区,聖天下２丁目２番２２号,,27,122,5570012,,,,,,,2022-02-03,1,,,,,アームズ,0
705,3120005022768,新規,0,2022-02-03,2022-02-03,一般社団法人ＥＥＣプロモーション,,その他の設立登記法人,大阪府,大阪市北区,梅田１丁目１－３大阪駅前第３ビル２９階１－１－１号室,,27,127,5300001,,,,,,,2022-02-03,1,,,,,イーイーシープロモーション,0
706,3120005022776,新規,0,2022-02-03,2022-02-03,一般社団法人淳心会,,その他の設立登記法人,大阪府,大阪市旭区,千林２丁目１６番１５号,,27,117,5350012,,,,,,,2022-02-03,1,,,,,ジュンシンカイ,0
711,3122001035555,新規,0,2022-02-03,2022-02-03,榛木株式会社,,株式会社,大阪府,東大阪市,稲田新町３丁目１０番５号,,27,227,5770004,,,,,,,2022-02-03,1,,,,,ハリキ,0
713,3122003002264,新規,0,2022-02-03,2022-02-03,合同会社Ｍ’ｓコーポレーション,,合同会社,大阪府,東大阪市,荒本新町８番３０－９０５号,,27,227,5770022,,,,,,,2022-02-03,1,,,,,エムズコーポレーション,0
715,3130001071058,新規,0,2022-02-03,2022-02-03,株式会社菖蒲,,株式会社,京都府,京都市伏見区,川東町３番地９,,26,109,6128375,,,,,,,2022-02-03,1,,,,,ショウブ,0
718,3140001124731,新規,0,2022-02-03,2022-02-03,株式会社Ｅｂｉｓｕ,,株式会社,兵庫県,神戸市東灘区,深江北町４丁目４番８号,,28,101,6580013,,,,,,,2022-02-03,1,,,,,エビス,0
719,3140001124764,新規,0,2022-02-03,2022-02-03,株式会社ピースコレクト,,株式会社,兵庫県,神戸市中央区,山本通５丁目１０番２８号ダイナスティ品川２０３号室,,28,110,6500003,,,,,,,2022-02-03,1,,,,,ピースコレクト,0
720,3140001124797,新規,0,2022-02-03,2022-02-03,ＡＬＢＡ　Ｉｎｎｏｖａｔｉｏｎ株式会社,,株式会社,兵庫県,加古川市,加古川町美乃利１３－１７,,28,210,6750062,,,,,,,2022-02-03,1,,,,,アルバイノベーション,0
721,3140001124822,新規,0,2022-02-03,2022-02-03,株式会社ＡＮＧＷＡＹ　ＡＲＴＳ,,株式会社,兵庫県,西宮市,上甲東園２丁目５番３８号,,28,204,6620813,,,,,,,2022-02-03,1,,,,,アングウェイアーツ,0
723,3140003017306,新規,0,2022-02-03,2022-02-03,合同会社ＡＭＤＪ,,合同会社,兵庫県,西宮市,浜松原町２番１７号,,28,204,6620923,,,,,,,2022-02-03,1,,,,,エイエムディジェイ,0
724,3140003017314,新規,0,2022-02-03,2022-02-03,合同会社ネスト,,合同会社,兵庫県,宝塚市,雲雀丘１丁目９番４０－３号,,28,214,6650805,,,,,,,2022-02-03,1,,,,,ネスト,0
725,3160001023980,新規,0,2022-02-03,2022-02-03,莱＿爾産業株式会社,00125619,株式会社,滋賀県,守山市,播磨田町１２４４番地２９,,25,207,5240012,,,,,,,2022-02-03,1,,,,,ライカルサンギョウ,0
737,3180001149849,新規,0,2022-02-03,2022-02-03,三矢商事株式会社,,株式会社,愛知県,小牧市,大字久保一色２１６番地１９３,,23,219,4850003,,,,,,,2022-02-03,1,,,,,ミツヤショウジ,0
738,3180001149857,新規,0,2022-02-03,2022-02-03,株式会社サムソリューション,,株式会社,愛知県,名古屋市東区,東桜２丁目６番４３号,,23,102,4610005,,,,,,,2022-02-03,1,,,,,サムソリューション,0
739,3180001149865,新規,0,2022-02-03,2022-02-03,株式会社Ｓｅｐｉｕ,,株式会社,愛知県,春日井市,篠木町１丁目６１番地ＨＯＵＳＥ　ＳＨ１０１,,23,206,4860851,,,,,,,2022-02-03,1,,,,,セピウ,0
744,3180301035889,新規,0,2022-02-03,2022-02-03,タナカボディー株式会社,,株式会社,愛知県,豊川市,千両町真川１０番地,,23,207,4420001,,,,,,,2022-02-03,1,,,,,タナカボディー,0
745,3180301035897,新規,0,2022-02-03,2022-02-03,ＭＩＫＡＷＡ農園株式会社,,株式会社,愛知県,豊田市,元城町２丁目６６番地,,23,211,4710024,,,,,,,2022-02-03,1,,,,,ミカワノウエン,0
746,3180301035906,新規,0,2022-02-03,2022-02-03,次世代パートナーズ株式会社,,株式会社,愛知県,碧南市,源氏町４丁目４５番地１,,23,209,4470886,,,,,,,2022-02-03,1,,,,,ジセダイパートナーズ,0
747,3190001029083,新規,0,2022-02-03,2022-02-03,株式会社ＡＨＩＲＯ,,株式会社,三重県,四日市市,八田２丁目１１番１８号,,24,202,5100001,,,,,,,2022-02-03,1,,,,,アヒロ,0
748,3190001029091,新規,0,2022-02-03,2022-02-03,株式会社ＲＣＸＩＡ,,株式会社,三重県,伊勢市,吹上１丁目７番３号,,24,203,5160073,,,,,,,2022-02-03,1,,,,,レクシア,0
749,3190003003895,新規,0,2022-02-03,2022-02-03,双吉合同会社,,合同会社,三重県,亀山市,みどり町２２番地７,,24,210,5190106,,,,,,,2022-02-03,1,,,,,フタヨシ,0
764,3280001008623,新規,0,2022-02-03,2022-02-03,ｋｎ株式会社,,株式会社,島根県,浜田市,熱田町１５２４番地１０,,32,202,6970062,,,,,,,2022-02-03,1,,,,,ケイエヌ,0
766,3280003001576,新規,0,2022-02-03,2022-02-03,合同会社ミライエイド,,合同会社,島根県,松江市,上本庄町３８７番地６,,32,201,6901102,,,,,,,2022-02-03,1,,,,,ミライエイド,0
770,3290001096171,新規,0,2022-02-03,2022-02-03,株式会社Ｈｅａｌｉｎｇ　Ｓｐａｃｅ,,株式会社,福岡県,八女市,本２０５０番地１,,40,210,8340015,,,,,,,2022-02-03,1,,,,,ヒーリングスペース,0
771,3290001096304,新規,0,2022-02-03,2022-02-03,株式会社プリンティング大同,,株式会社,福岡県,福岡市博多区,博多駅南６丁目１７番１２号,,40,132,8120016,,,,,,,2022-02-03,1,,,,,プリンティングダイドウ,0
772,3290001096337,新規,0,2022-02-03,2022-02-03,株式会社ＬｉａＮ,,株式会社,福岡県,福岡市博多区,博多駅前２丁目１９番１７号トーカン博多第５ビル３１２号室,,40,132,8120011,,,,,,,2022-02-03,1,,,,,リアン,0
773,3290005018543,新規,0,2022-02-03,2022-02-03,医療法人ＤＩＧ,,その他の設立登記法人,福岡県,福岡市南区,長丘３丁目１０番４,,40,134,8150075,,,,,,,2022-02-03,1,,,,,ディーアイジー,0
774,3290801028225,新規,0,2022-02-03,2022-02-03,株式会社こうてつ,,株式会社,福岡県,京都郡苅田町,港町１１番地３,,40,621,8000315,,,,,,,2022-02-03,1,,,,,コウテツ,0
775,3290801028233,新規,0,2022-02-03,2022-02-03,宮園総信株式会社,,株式会社,福岡県,北九州市八幡西区,上の原４丁目２５番５号,,40,109,8070071,,,,,,,2022-02-03,1,,,,,ミヤゾノソウシン,0
778,3310001017694,新規,0,2022-02-03,2022-02-03,ＮＣ　Ｆｉｅｌｄ株式会社,,株式会社,長崎県,佐世保市,天神２丁目１９番４５号天神２丁目ビル２－２,,42,202,8571174,,,,,,,2022-02-03,1,,,,,エヌシーフィールド,0
779,3330001029408,新規,0,2022-02-03,2022-02-03,株式会社ｍａｐ,,株式会社,熊本県,熊本市東区,桜木４丁目１６番１２号,,43,102,8612101,,,,,,,2022-02-03,1,,,,,マップ,0
780,3330001029432,新規,0,2022-02-03,2022-02-03,株式会社浜ん小浦,,株式会社,熊本県,上益城郡嘉島町,大字鯰２７９６番地１,,43,442,8613101,,,,,,,2022-02-03,1,,,,,ハマンコラ,0
781,3330003009234,新規,0,2022-02-03,2022-02-03,アスリートワーク合同会社,,合同会社,熊本県,熊本市東区,長嶺東７丁目６番２号,,43,102,8618038,,,,,,,2022-02-03,1,,,,,アスリートワーク,0
783,3340003003698,新規,0,2022-02-03,2022-02-03,鹿児島サカキ合同会社,,合同会社,鹿児島県,鹿児島市,新屋敷町１６番４０５号,,46,201,8920838,,,,,,,2022-02-03,1,,,,,カゴシマサカキ,0
784,3350003004019,新規,0,2022-02-03,2022-02-03,合同会社野崎畜産,00125608,合同会社,宮崎県,宮崎市,田野町甲１３１４６番地１２,,45,201,8891701,,,,,,,2022-02-03,1,,,,,ノザキチクサン,0
786,3360001029974,新規,0,2022-02-03,2022-02-03,株式会社選家,,株式会社,沖縄県,那覇市,鏡原町６番５号,,47,201,9010151,,,,,,,2022-02-03,1,,,,,センカ,0
788,3360003011781,新規,0,2022-02-03,2022-02-03,合同会社唸れ堅実,,合同会社,沖縄県,島尻郡南風原町,字大名２９０番地９,,47,350,9011101,,,,,,,2022-02-03,1,,,,,ウナレケンジツ,0
790,3370001048172,新規,0,2022-02-03,2022-02-03,株式会社ＴＥＮ・ＳＨＯ,,株式会社,宮城県,仙台市若林区,二軒茶屋８番４０号メゾンベルエポック二軒茶屋１０１,,04,103,9840046,,,,,,,2022-02-03,1,,,,,テンショウ,0
791,3370003005576,新規,0,2022-02-03,2022-02-03,合同会社Ｇｏｏｄｍｅａｔ,,合同会社,宮城県,仙台市青葉区,栗生１丁目２０番地３,,04,101,9893122,,,,,,,2022-02-03,1,,,,,グッドミート,0
793,3380001032555,新規,0,2022-02-03,2022-02-03,株式会社ショルダーマシーン,,株式会社,福島県,福島市,北矢野目字渋田３１－１－４,,07,201,9600113,,,,,,,2022-02-03,1,,,,,ショルダーマシーン,0
797,3400003002891,新規,0,2022-02-03,2022-02-03,合同会社フィル・プランナー,,合同会社,岩手県,盛岡市,川目町４番６－１０１号,,03,201,0200811,,,,,,,2022-02-03,1,,,,,フィルプランナー,0
798,3410001013097,新規,0,2022-02-03,2022-02-03,株式会社エムズプランニング,,株式会社,秋田県,能代市,字臥竜山３９番地１１,,05,202,0160878,,,,,,,2022-02-03,1,,,,,エムズプランニング,0
799,3410005006452,新規,0,2022-02-03,2022-02-03,特定非営利活動法人チャレンジドスポーツあきた,,その他の設立登記法人,秋田県,秋田市,新屋大川町１８番３３号,,05,201,0101632,,,,,,,2022-02-03,1,,,,,チャレンジドスポーツアキタ,0
803,3430001085936,新規,0,2022-02-03,2022-02-03,株式会社Ｔｒｕｅ　Ｆｉｅｌｄ,,株式会社,北海道,札幌市豊平区,平岸六条１２丁目５番１０号,,01,105,0620936,,,,,,,2022-02-03,1,,,,,トゥルーフィールド,0
804,3430001085944,新規,0,2022-02-03,2022-02-03,株式会社ＭａｒｉｎｅＳＬ,,株式会社,北海道,札幌市中央区,南一条西１６丁目１番３２３号春野ビル３Ｆ,,01,101,0600061,,,,,,,2022-02-03,1,,,,,マリンエスエル,0
807,3430005014387,新規,0,2022-02-03,2022-02-03,月寒中央グランドハイツ管理組合法人,,その他の設立登記法人,北海道,札幌市豊平区,月寒中央通１１丁目１番３号,,01,105,0620020,,,,,,,2022-02-03,1,,,,,ツキサムチュウオウグランドハイツ,0
808,3450003002177,新規,0,2022-02-03,2022-02-03,合同会社相澤農園,,合同会社,北海道,上川郡鷹栖町,１３線十一号１番地,,01,452,0711253,,,,,,,2022-02-03,1,,,,,アイザワノウエン,0
809,3460301005038,新規,0,2022-02-03,2022-02-03,株式会社田宮農場,,株式会社,北海道,常呂郡佐呂間町,字共立３１番地の１,,01,552,0910473,,,,,,,2022-02-03,1,,,,,タミヤノウジョウ,0
810,3460303000747,新規,0,2022-02-03,2022-02-03,合同会社ハネトレ,,合同会社,北海道,北見市,北央町１２０－３,,01,208,0900822,,,,,,,2022-02-03,1,,,,,ハネトレ,0
819,3500001023979,新規,0,2022-02-03,2022-02-03,株式会社Ｋホープライジング,,株式会社,愛媛県,松山市,三町３丁目１２番１４号,,38,201,7900914,,,,,,,2022-02-03,1,,,,,ケーホープライジング,0
820,3700150097226,新規,0,2022-02-03,2019-12-24,アジア臨床工学フォーラム,,その他,大阪府,大阪市淀川区,宮原１丁目２－８,,27,123,5320003,,,,,,,2019-12-24,1,,,,,アジアリンシヨウコウガクフオーラム,0
821,3700150106903,新規,0,2022-02-03,2022-02-03,ＷｉｔｈＫＯＳＥＮ　ＧＲＯＵＰ,,その他,兵庫県,明石市,魚住町西岡６７９－３明石高専学生寮,,28,203,6740084,,,,,,,2022-02-03,1,,,,,ウィズコウセングループ,0
835,4010001224295,新規,0,2022-02-03,2022-02-03,株式会社スペースシンク,,株式会社,東京都,千代田区,丸の内３丁目２番２号,,13,101,1000005,,,,,,,2022-02-03,1,,,,,スペースシンク,0
836,4010003036887,新規,0,2022-02-03,2022-02-03,ジェイコアレジ５合同会社３,,合同会社,東京都,千代田区,丸の内３丁目１番１号東京共同会計事務所内,,13,101,1000005,,,,,,,2022-02-03,1,,,,,ジェイコアレジファイブサン,0
840,4010101015058,新規,0,2022-02-03,2022-02-03,株式会社シェイカーズ,,株式会社,東京都,八王子市,横山町７番５号スペースワンビル６階,,13,201,1920081,,,,,,,2022-02-03,1,,,,,シェイカーズ,0
850,4010401165346,新規,0,2022-02-03,2022-02-03,株式会社Ｓ－Ｒｏａｄ,,株式会社,東京都,港区,芝浦２丁目８番１６－９０４号,,13,103,1080023,,,,,,,2022-02-03,1,,,,,エスロード,0
851,4010401165362,新規,0,2022-02-03,2022-02-03,株式会社ＲＯＫＡＥ精機,,株式会社,東京都,港区,芝大門２丁目４番５号芝ダイヤハイツ９０８,,13,103,1050012,,,,,,,2022-02-03,1,,,,,ロッケーセイキ,0
852,4010401165370,新規,0,2022-02-03,2022-02-03,株式会社ＭＺ,,株式会社,東京都,港区,麻布十番４丁目１番８－１００３号,,13,103,1060045,,,,,,,2022-02-03,1,,,,,エムゼット,0
853,4010401165379,新規,0,2022-02-03,2022-02-03,株式会社ＧＥＮＬＯＣＫ,,株式会社,東京都,港区,海岸３丁目２８番１号芝浦内貿１号上屋南Ａ－３階,,13,103,1080022,,,,,,,2022-02-03,1,,,,,ゲンロック,0
854,4010401165387,新規,0,2022-02-03,2022-02-03,株式会社まゆ,,株式会社,東京都,港区,港南２丁目１５－１品川インターシティＡ棟２８階,,13,103,1080075,,,,,,,2022-02-03,1,,,,,マユ,0
861,4010801032699,新規,0,2022-02-03,2022-02-03,株式会社ＡＮベアーズ,,株式会社,東京都,大田区,南蒲田１丁目２２－１７,,13,111,1440035,,,,,,,2022-02-03,1,,,,,,0
863,4010901050279,新規,0,2022-02-03,2022-02-03,株式会社マイコンサルティング,,株式会社,東京都,世田谷区,千歳台５丁目１４番９号,,13,112,1570071,,,,,,,2022-02-03,1,,,,,マイコンサルティング,0
873,4011001145465,新規,0,2022-02-03,2022-02-03,Ｆｏｃｕｓ株式会社,,株式会社,東京都,渋谷区,上原２丁目３１番５号コンフォリア代々木上原５０３,,13,113,1510064,,,,,,,2022-02-03,1,,,,,フォーカス,0
880,4011003014107,新規,0,2022-02-03,2022-02-03,ｎｏｔｒａｃｋ合同会社,,合同会社,東京都,渋谷区,神宮前６丁目２３番４号,,13,113,1500001,,,,,,,2022-02-03,1,,,,,ノートラック,0
887,4011101097706,新規,0,2022-02-03,2022-02-03,ユジカ株式会社,,株式会社,東京都,新宿区,榎町３４－３榎町ビル５階,,13,104,1620806,,,,,,,2022-02-03,1,,,,,,0
888,4011101097722,新規,0,2022-02-03,2022-02-03,株式会社エージェントキャリア,,株式会社,東京都,新宿区,天神町７７－３都住創ラスティック７Ｆ,,13,104,1620808,,,,,,,2022-02-03,1,,,,,,0
889,4011301027537,新規,0,2022-02-03,2022-02-03,斎藤建物株式会社,,株式会社,東京都,杉並区,阿佐谷南１丁目６番３３号,,13,115,1660004,,,,,,,2022-02-03,1,,,,,サイトウタテモノ,0
893,4011603003517,新規,0,2022-02-03,2022-02-03,合同会社小松装飾,,合同会社,東京都,練馬区,中村南１丁目２６番６号,,13,120,1760025,,,,,,,2022-02-03,1,,,,,コマツソウショク,0
896,4011803004959,新規,0,2022-02-03,2022-02-03,レインボー合同会社,,合同会社,東京都,葛飾区,東四つ木２丁目８番１２－４０２号,,13,122,1240014,,,,,,,2022-02-03,1,,,,,レインボー,0
900,4012401038829,新規,0,2022-02-03,2022-02-03,タレントマネジメント株式会社,,株式会社,東京都,小金井市,桜町１丁目４番２号,,13,210,1840005,,,,,,,2022-02-03,1,,,,,タレントマネジメント,0
904,4013101008840,新規,0,2022-02-03,2022-02-03,株式会社師岡興業,,株式会社,東京都,西多摩郡奥多摩町,川井４２３番地,,13,308,1980102,,,,,,,2022-02-03,1,,,,,モロオカコウギョウ,0
907,4013301048579,新規,0,2022-02-03,2022-02-03,株式会社ｓｔｕｄｉｏ　ＹＯＣＨＩ,,株式会社,東京都,豊島区,要町１丁目２５番１３－１０４号,,13,116,1710043,,,,,,,2022-02-03,1,,,,,スタジオヨチ,0
920,4020001145103,新規,0,2022-02-03,2022-02-03,株式会社ＥＣＬ,,株式会社,神奈川県,横浜市金沢区,六浦南４丁目２０番２－１１０号,,14,108,2360038,,,,,,,2022-02-03,1,,,,,イーシーエル,0
932,4030001146604,新規,0,2022-02-03,2022-02-03,株式会社アップライフプラス,,株式会社,埼玉県,さいたま市岩槻区,本丸３丁目２４番３７号１Ｆ,,11,110,3390058,,,,,,,2022-02-03,1,,,,,アップライフプラス,0
933,4030001146629,新規,0,2022-02-03,2022-02-03,株式会社ハーヴィーズ,,株式会社,埼玉県,所沢市,御幸町７番６号,,11,208,3591115,,,,,,,2022-02-03,1,,,,,ハーヴィーズ,0
934,4030001146645,新規,0,2022-02-03,2022-02-03,株式会社ｃｏｒｅｂｏｘｘ,,株式会社,埼玉県,川越市,仙波町３丁目７番地２１,,11,201,3500034,,,,,,,2022-02-03,1,,,,,コアボックス,0
940,4040001122059,新規,0,2022-02-03,2022-02-03,株式会社ホームサービス君津,,株式会社,千葉県,君津市,君津台２丁目２２番２１号,,12,225,2991143,,,,,,,2022-02-03,1,,,,,ホームサービスキミツ,0
941,4040003019393,新規,0,2022-02-03,2022-02-03,合同会社ロッキーズ,,合同会社,千葉県,東金市,薄島９０８番地２,,12,213,2830031,,,,,,,2022-02-03,1,,,,,ロッキーズ,0
946,4050001050580,新規,0,2022-02-03,2022-02-03,株式会社ＴＮＴ,,株式会社,茨城県,水戸市,河和田１丁目１６９５番地の１,,08,201,3114152,,,,,,,2022-02-03,1,,,,,ティーエヌティー,0
948,4060001034533,新規,0,2022-02-03,2022-02-03,株式会社ティーエム企画,,株式会社,栃木県,足利市,福富町１２９６番地６,,09,202,3260331,,,,,,,2022-02-03,1,,,,,ティーエムキカク,0
949,4060001034541,新規,0,2022-02-03,2022-02-03,株式会社東工業,,株式会社,栃木県,小山市,東城南２丁目３６番地１１メビュースタウンＩＩＡ棟１０１号,00125607,09,208,3230829,,,,,,,2022-02-03,1,,,,,アズマコウギョウ,0
950,4070001038905,新規,0,2022-02-03,2022-02-03,株式会社徳積,,株式会社,群馬県,高崎市,貝沢町７０１番地１サンクレイドル高崎問屋町弐番館１２０２号,,10,202,3700042,,,,,,,2022-02-03,1,,,,,トクヅミ,0
954,4080003002726,新規,0,2022-02-03,2022-02-03,合同会社ＬＩＦＩＸ,,合同会社,静岡県,静岡市駿河区,用宗１丁目２１番２号,,22,102,4210122,,,,,,,2022-02-03,1,,,,,リフィックス,0
956,4080101023079,新規,0,2022-02-03,2022-02-03,株式会社本多醸造所,,株式会社,静岡県,富士市,富士岡１４５０番地,,22,210,4170841,,,,,,,2022-02-03,1,,,,,ホンダジョウゾウショ,0
961,4080403004462,新規,0,2022-02-03,2022-02-03,ＲＥＬＡＴＥ合同会社,,合同会社,静岡県,磐田市,小立野２５６番地,,22,211,4380838,,,,,,,2022-02-03,1,,,,,リレート,0
962,4100001035031,新規,0,2022-02-03,2022-02-03,株式会社ＥＣＬＡＩＲ,,株式会社,長野県,長野市,松代町西条４２６９番地,,20,201,3811232,,,,,,,2022-02-03,1,,,,,エクレール,0
966,4120001243573,新規,0,2022-02-03,2022-02-03,花山手開発株式会社,,株式会社,大阪府,大阪市都島区,東野田町１丁目１７番１３号,,27,102,5340024,,,,,,,2022-02-03,1,,,,,ハナヤマテカイハツ,0
967,4120001243631,新規,0,2022-02-03,2022-02-03,株式会社Ｄａｇｎｙ,,株式会社,大阪府,大阪市北区,梅田１丁目２番２号大阪駅前第２ビル地下１階５８－２,,27,127,5300001,,,,,,,2022-02-03,1,,,,,ダグニー,0
979,4120101065034,新規,0,2022-02-03,2022-02-03,株式会社ツイストワン,,株式会社,大阪府,松原市,天美我堂１丁目７番地（Ｅ棟８０２号）,,27,217,5800026,,,,,,,2022-02-03,1,,,,,ツイストワン,0
982,4122001035554,新規,0,2022-02-03,2022-02-03,株式会社コウエイテック,,株式会社,大阪府,八尾市,跡部南の町１丁目２番１０号,,27,212,5810055,,,,,,,2022-02-03,1,,,,,コウエイテック,0
987,4130001071057,新規,0,2022-02-03,2022-02-03,ライズコーポレーション株式会社,,株式会社,京都府,宇治市,槇島町月夜６番地１朝日プラザ宇治６１８号,,26,204,6110041,,,,,,,2022-02-03,1,,,,,ライズコーポレーション,0
988,4130001071065,新規,0,2022-02-03,2022-02-03,株式会社Ｌａ　Ｖｅｒｉｔｅ,,株式会社,京都府,京都市中京区,大阪材木町６９５番地花梨館１Ｆ,,26,104,6048182,,,,,,,2022-02-03,1,,,,,ラヴェリテ,0
992,4130003007728,新規,0,2022-02-03,2022-02-03,合同会社赤い鳥,,合同会社,京都府,京都市伏見区,風呂屋町２７５,,26,109,6128058,,,,,,,2022-02-03,1,,,,,アカイトリ,0
998,4140003017313,新規,0,2022-02-03,2022-02-03,合同会社星,,合同会社,兵庫県,神戸市中央区,雲井通３丁目５－１２呉ビル,,28,110,6510096,,,,,,,2022-02-03,1,,,,,ホシ,0
999,4140005026023,新規,0,2022-02-03,2022-02-03,農事組合法人真盛,,その他の設立登記法人,兵庫県,佐用郡佐用町,真盛３０４番地２,,28,501,6795303,,,,,,,2022-02-03,1,,,,,サネモリ,0
1004,4180001149666,新規,0,2022-02-03,2022-02-03,株式会社ＲＤトラスト,,株式会社,愛知県,名古屋市中区,栄１丁目６－１５グランドメゾン御園座タワー２８０３号,,23,106,4600008,,,,,,,2022-02-03,1,,,,,アールディートラスト,0
1005,4180001149856,新規,0,2022-02-03,2022-02-03,株式会社ＴＷＳ,,株式会社,愛知県,津島市,江西町４丁目１２０番地,,23,208,4960874,,,,,,,2022-02-03,1,,,,,ティーダブルエス,0
1007,4180003023431,新規,0,2022-02-03,2022-02-03,合同会社Ｆａｃｅ,,合同会社,愛知県,知多郡武豊町,字鹿ノ子田１丁目１番地,,23,447,4702302,,,,,,,2022-02-03,1,,,,,フェイス,0
1008,4180003023472,新規,0,2022-02-03,2022-02-03,合同会社ＴＫＦ,,合同会社,愛知県,名古屋市中村区,則武１丁目２６－２２,,23,105,4530014,,,,,,,2022-02-03,1,,,,,ティーケーエフ,0
1009,4180301035888,新規,0,2022-02-03,2022-02-03,株式会社ＤＲＯＮＥ　Ｆａｎｔａｓｙ,,株式会社,愛知県,刈谷市,高津波町５丁目６５番地,,23,210,4480047,,,,,,,2022-02-03,1,,,,,ドローンファンタジー,0
1013,4190001029082,新規,0,2022-02-03,2022-02-03,ヘンプイノベーション株式会社,,株式会社,三重県,伊勢市,小俣町明野５７６番地１６,,24,203,5190501,,,,,,,2022-02-03,1,,,,,ヘンプイノベーション,0
1014,4190001029090,新規,0,2022-02-03,2022-02-03,株式会社中西左官,,株式会社,三重県,伊勢市,西豊浜町１３７４番地１,,24,203,5150505,,,,,,,2022-02-03,1,,,,,ナカニシサカン,0
1016,4190003003894,新規,0,2022-02-03,2022-02-03,合同会社シャイニングルビー,,合同会社,三重県,いなべ市,北勢町阿下喜１４９６番地１,,24,214,5110428,,,,,,,2022-02-03,1,,,,,シャイニングルビー,0
1017,4200001039716,新規,0,2022-02-03,2022-02-03,ｂｏｎｉｔａ　ｄｅｓｉｇｎ株式会社,,株式会社,岐阜県,瑞穂市,馬場春雨町１丁目２４番地,,21,216,5010204,,,,,,,2022-02-03,1,,,,,ボニタデザイン,0
1026,4240001059272,新規,0,2022-02-03,2022-02-03,ＭＯＲＩＫＥＮ株式会社,,株式会社,広島県,東広島市,八本松町原１１１３４番地５３,,34,212,7390151,,,,,,,2022-02-03,1,,,,,モリケン,0
1027,4240001059280,新規,0,2022-02-03,2022-02-03,株式会社ルリアン,,株式会社,広島県,広島市中区,舟入中町９－２２,,34,101,7300842,,,,,,,2022-02-03,1,,,,,ルリアン,0
1034,4270003001386,新規,0,2022-02-03,2022-02-03,合同会社焼肉いこい,,合同会社,鳥取県,米子市,明治町２６４番地,,31,202,6830053,,,,,,,2022-02-03,1,,,,,ヤキニクイコイ,0
1042,4290001096303,新規,0,2022-02-03,2022-02-03,株式会社利管工設備,,株式会社,福岡県,糟屋郡須惠町,大字植木８４８－３,,40,344,8112112,,,,,,,2022-02-03,1,,,,,トシカンコウセツビ,0
1043,4290001096344,新規,0,2022-02-03,2022-02-03,株式会社どん蔵こまつ,,株式会社,福岡県,福岡市中央区,薬院３丁目７番２７号,,40,133,8100022,,,,,,,2022-02-03,1,,,,,ドングラコマツ,0
1045,4290003012092,新規,0,2022-02-03,2022-02-03,ＹＴ＆Ｓ　Ｃｏｍｐａｎｙ合同会社,,合同会社,福岡県,うきは市,浮羽町朝田４８２‐１,,40,225,8391401,,,,,,,2022-02-03,1,,,,,ワイティーアンドエスカンパニー,0
1046,4290003012118,新規,0,2022-02-03,2022-02-03,合同会社三姫,,合同会社,福岡県,宗像市,葉山２丁目２０番地３,,40,220,8114171,,,,,,,2022-02-03,1,,,,,サンヒメ,0
1047,4290005018550,新規,0,2022-02-03,2022-02-03,一般社団法人ＭＡＭＣ,,その他の設立登記法人,福岡県,飯塚市,花瀬１０２番地１４７,,40,205,8200045,,,,,,,2022-02-03,1,,,,,エムエーエムシー,0
1048,4290801028224,新規,0,2022-02-03,2022-02-03,株式会社未来,,株式会社,福岡県,北九州市戸畑区,東大谷１丁目６番３号,,40,105,8040031,,,,,,,2022-02-03,1,,,,,ミライ,0
1049,4310001017702,新規,0,2022-02-03,2022-02-03,株式会社サンフラワー,,株式会社,長崎県,長崎市,魚の町２－１６華成ビル６階,,42,201,8500874,,,,,,,2022-02-03,1,,,,,サンフラワー,0
1061,4340001024480,新規,0,2022-02-03,2022-02-03,株式会社マスダ窓建,,株式会社,鹿児島県,鹿児島市,紫原５丁目１７番１５号,,46,201,8900082,,,,,,,2022-02-03,1,,,,,マスダソウケン,0
1064,4370001048171,新規,0,2022-02-03,2022-02-03,株式会社ＳＴＯＲＹ,,株式会社,宮城県,仙台市青葉区,国見６丁目７番１９号,,04,101,9810943,,,,,,,2022-02-03,1,,,,,ストーリー,0
1071,4390001016779,新規,0,2022-02-03,2022-02-03,株式会社のりか園芸,,株式会社,山形県,山形市,大字渋江１７３番地,,06,201,9902173,,,,,,,2022-02-03,1,,,,,ノリカエンゲイ,0
1080,4420005007787,新規,0,2022-02-03,2022-02-03,特定非営利活動法人くろいし,,その他の設立登記法人,青森県,黒石市,追子野木３丁目１９３番地１,,02,204,0360357,,,,,,,2022-02-03,1,,,,,クロイシ,0
1086,4430001085927,新規,0,2022-02-03,2022-02-03,株式会社ｅ－ＭＥＮＴ,,株式会社,北海道,札幌市北区,南あいの里４丁目３番５号,,01,102,0028091,,,,,,,2022-02-03,1,,,,,イーメント,0
1087,4430001085943,新規,0,2022-02-03,2022-02-03,株式会社三将,,株式会社,北海道,苫小牧市,末広町１丁目５番１２号鎌田ビル１Ｆ,,01,213,0530011,,,,,,,2022-02-03,1,,,,,サンショウ,0
1090,4460301005037,新規,0,2022-02-03,2022-02-03,北海道捕鯨株式会社,,株式会社,北海道,網走市,北十条東１丁目１５番地の９,,01,211,0930060,,,,,,,2022-02-03,1,,,,,ホッカイドウホゲイ,0
1094,4480003001786,新規,0,2022-02-03,2022-02-03,合同会社サンシャイン,,合同会社,徳島県,徳島市,新浜町３丁目１番１２号,,36,201,7708006,,,,,,,2022-02-03,1,,,,,サンシャイン,0
1097,4500001023986,新規,0,2022-02-03,2022-02-03,四国奥道後交通株式会社,,株式会社,愛媛県,松山市,東野６丁目５番５号,,38,201,7900903,,,,,,,2022-02-03,1,,,,,シコクオクドウゴコウツウ,0
1098,4700150106902,新規,0,2022-02-03,2022-02-03,ＣＰ　Ｌａｎｄ　ＬＬＣ,,外国会社等,東京都,渋谷区,恵比寿２丁目２８－１１－１００２,,13,113,1500013,９９０　Ｓ．Ｒｏｃｋ　Ｂｌｖｄ．，Ｓｕｉｔｅ　Ｆ，Ｒｅｎｏ，Ｎｅｖａｄａ　８９５０２,,,,,,2022-02-03,1,,,,,シーピーランドエルエルシー,0
1113,5010001224385,新規,0,2022-02-03,2022-02-03,株式会社ＴＢＫグループ,,株式会社,東京都,千代田区,二番町８－７二番町パークフォレスト１１階,,13,101,1020084,,,,,,,2022-02-03,1,,,,,ティービーケーグループ,0
1117,5010003036886,新規,0,2022-02-03,2022-02-03,ジェイコアレジ５合同会社２,,合同会社,東京都,千代田区,丸の内３丁目１番１号東京共同会計事務所内,,13,101,1000005,,,,,,,2022-02-03,1,,,,,ジェイコアレジファイブニ,0
1118,5010003036952,新規,0,2022-02-03,2022-02-03,合同会社Ｇｅｎｅｒａｔｉｖｅ　Ａｒｔ,,合同会社,東京都,中央区,銀座１丁目２２番１１号銀座大竹ビジデンス２階,,13,102,1040061,,,,,,,2022-02-03,1,,,,,ジェネレーティブアート,0
1120,5010005034525,新規,0,2022-02-03,2022-02-03,弁護士法人霞ヶ関総合法律事務所,,その他の設立登記法人,東京都,千代田区,霞が関３丁目３番１号,,13,101,1000013,,,,,,,2022-02-03,1,,,,,カスミガセキソウゴウホウリツジムショ,0
1127,5010401165378,新規,0,2022-02-03,2022-02-03,エムスリーＡＩ株式会社,,株式会社,東京都,港区,赤坂１丁目１１番４４号,,13,103,1070052,,,,,,,2022-02-03,1,,,,,エムスリーエーアイ,0
1130,5010403027031,新規,0,2022-02-03,2022-02-03,合同会社角田,,合同会社,東京都,港区,赤坂６丁目５番３６号センチュリー赤坂７０２,,13,103,1070052,,,,,,,2022-02-03,1,,,,,ツノダ,0
1132,5010501048400,新規,0,2022-02-03,2022-02-03,西方株式会社,,株式会社,東京都,台東区,北上野２丁目２５番９号－４０６号室,,13,106,1100014,,,,,,,2022-02-03,1,,,,,サイホウ,0
1133,5010501048409,新規,0,2022-02-03,2022-02-03,株式会社グレース,,株式会社,東京都,台東区,浅草橋１丁目１８番９号,,13,106,1110053,,,,,,,2022-02-03,1,,,,,グレース,0
1135,5010601060627,新規,0,2022-02-03,2022-02-03,株式会社サトラス,,株式会社,東京都,江東区,佐賀２丁目１０番２１－１００３号,,13,108,1350031,,,,,,,2022-02-03,1,,,,,サトラス,0
1137,5010703006098,新規,0,2022-02-03,2022-02-03,合同会社Ｋ’Ｓエンタテインメント,,合同会社,東京都,品川区,東大井１丁目１９番３号扇田荘,,13,109,1400011,,,,,,,2022-02-03,1,,,,,ケイズエンタテインメント,0
1148,5010901050294,新規,0,2022-02-03,2022-02-03,株式会社フラットベース,,株式会社,東京都,世田谷区,弦巻３丁目９番２号１０２号室,,13,112,1540016,,,,,,,2022-02-03,1,,,,,フラットベース,0
1149,5010901050303,新規,0,2022-02-03,2022-02-03,日本のせんたく立案支援工房株式会社,,株式会社,東京都,世田谷区,赤堤４丁目２３番５－５０２,,13,112,1560044,,,,,,,2022-02-03,1,,,,,ニッポンノセンタクリツアンシエンコウボウ,0
1158,5011001145407,新規,0,2022-02-03,2022-02-03,株式会社Ｖｉｒｔｕａｌ　Ｓｏｌｕｔｉｏｎｓ,,株式会社,東京都,渋谷区,神宮前６丁目２３番４号桑野ビル２階,,13,113,1500001,,,,,,,2022-02-03,1,,,,,バーチャルソリューションズ,0
1159,5011003014089,新規,0,2022-02-03,2022-02-03,合同会社ｉｎｄｅｐ,,合同会社,東京都,渋谷区,渋谷２丁目１９―１５宮益坂ビルディング６０９,,13,113,1500002,,,,,,,2022-02-03,1,,,,,インデップ,0
1165,5011101097688,新規,0,2022-02-03,2022-02-03,株式会社ＬＩＦＥ,,株式会社,東京都,新宿区,榎町３５番地三四郎ビル５Ｆ,,13,104,1620806,,,,,,,2022-02-03,1,,,,,ライフ,0
1166,5011101097696,新規,0,2022-02-03,2022-02-03,株式会社マックス,,株式会社,東京都,新宿区,西新宿３丁目９番２５号ハーモニー西新宿ビル２Ｆ,,13,104,1600023,,,,,,,2022-02-03,1,,,,,,0
1167,5011103011432,新規,0,2022-02-03,2022-02-03,合同会社ＦｒｅｅＬＹ,,合同会社,東京都,新宿区,歌舞伎町１丁目２番１３号,,13,104,1600021,,,,,,,2022-02-03,1,,,,,フリーリー,0
1176,5011501027724,新規,0,2022-02-03,2022-02-03,株式会社ホワイトハウジング,,株式会社,東京都,北区,十条仲原２丁目３番４－２０１号,,13,117,1140031,,,,,,,2022-02-03,1,,,,,ホワイトハウジング,0
1181,5011801040294,新規,0,2022-02-03,2022-02-03,株式会社Ａｎｉｍａ　Ｒｏｓｓａ,,株式会社,東京都,足立区,大谷田１丁目４０番３号,,13,121,1200001,,,,,,,2022-02-03,1,,,,,アニマロッサ,0
1193,5020001145060,新規,0,2022-02-03,2022-02-03,株式会社喜の実,00125606,株式会社,神奈川県,川崎市多摩区,中野島１６３７番地９,,14,135,2140012,,,,,,,2022-02-03,1,,,,,キノミ,0
1198,5020003021243,新規,0,2022-02-03,2022-02-03,合同会社５２ミライエ,,合同会社,神奈川県,横浜市西区,浜松町１１番２１－２０２号,,14,103,2200055,,,,,,,2022-02-03,1,,,,,ゴーツーミライエ,0
1204,5021001075099,新規,0,2022-02-03,2022-02-03,株式会社ＡＮＧＵＬＡＲ,,株式会社,神奈川県,横須賀市,池上５丁目５番２１号,,14,201,2380035,,,,,,,2022-02-03,1,,,,,アングラー,0
1205,5021001075116,新規,0,2022-02-03,2022-02-03,株式会社オフィス湘南９３,,株式会社,神奈川県,藤沢市,南藤沢４番３号日本生命南藤沢ビル３階,,14,205,2510055,,,,,,,2022-02-03,1,,,,,オフィスショウナンキュウサン,0
1206,5021003011366,新規,0,2022-02-03,2022-02-03,合同会社ふじつぼん,,合同会社,神奈川県,横須賀市,公郷町３丁目１０８番地３,,14,201,2380022,,,,,,,2022-02-03,1,,,,,フジツボン,0
1211,5030001146594,新規,0,2022-02-03,2022-02-03,豪運株式会社,,株式会社,埼玉県,川口市,西川口１丁目３０番２０－２０５号,,11,203,3320021,,,,,,,2022-02-03,1,,,,,ゴウウン,0
1212,5030001146603,新規,0,2022-02-03,2022-02-03,株式会社アクアリノベート,,株式会社,埼玉県,川越市,大字石田２１２番地１６,,11,201,3500837,,,,,,,2022-02-03,1,,,,,アクアリノベート,0
1213,5030001146636,新規,0,2022-02-03,2022-02-03,株式会社Ｗ．Ａ．Ｐ,,株式会社,埼玉県,所沢市,東所沢和田１丁目３３番地の３９,,11,208,3590023,,,,,,,2022-02-03,1,,,,,ダブルエーピー,0
1215,5030003018750,新規,0,2022-02-03,2022-02-03,合同会社Ｒ．,,合同会社,埼玉県,さいたま市見沼区,東宮下２丁目２９番地１０,,11,104,3370012,,,,,,,2022-02-03,1,,,,,アール,0
1216,5030003018783,新規,0,2022-02-03,2022-02-03,合同会社ＴＡＫＥＤＡ,,合同会社,埼玉県,比企郡小川町,大字青山１４８２―１,,11,343,3550324,,,,,,,2022-02-03,1,,,,,タケダ,0
1225,5040001121555,新規,0,2022-02-03,2022-02-03,レオトニーズ株式会社,,株式会社,千葉県,千葉市稲毛区,あやめ台３番４棟２０４号,,12,103,2630052,,,,,,,2022-02-03,1,,,,,レオトニーズ,0
1226,5040001122090,新規,0,2022-02-03,2022-02-03,株式会社ＦＥＥＬ,,株式会社,千葉県,習志野市,津田沼４丁目１１番８号ｂ．ｂ．ｍａｉｓｏｎ１０２,,12,216,2750016,,,,,,,2022-02-03,1,,,,,フィール,0
1227,5040001122099,新規,0,2022-02-03,2022-02-03,株式会社Ａ　ＬＩＦＥ企画,,株式会社,千葉県,山武郡九十九里町,小関２２８８－８９,,12,403,2830102,,,,,,,2022-02-03,1,,,,,エーライフキカク,0
1232,5050001050571,新規,0,2022-02-03,2022-02-03,株式会社ＭＭＹ,,株式会社,茨城県,小美玉市,栗又四ケ字中山２４６３番地１６,,08,236,3113434,,,,,,,2022-02-03,1,,,,,エムエムワイ,0
1235,5050003006349,新規,0,2022-02-03,2022-02-03,Ｃａｐｒｉｃｅ合同会社,,合同会社,茨城県,神栖市,知手１３６－１１,,08,232,3140115,,,,,,,2022-02-03,1,,,,,カプリス,0
1245,5070002024688,新規,0,2022-02-03,2022-02-03,有限会社細野製作所,,有限会社,群馬県,桐生市,境野町６丁目４４１番地の２,,10,203,3760002,,,,,,,2022-02-03,1,,,,,ホソノセイサクジョ,0
1248,5080101023078,新規,0,2022-02-03,2022-02-03,株式会社美凰,,株式会社,静岡県,富士市,富士町２番１５‐１２０３号,,22,210,4160915,,,,,,,2022-02-03,1,,,,,ミオウ,0
1251,5100001035030,新規,0,2022-02-03,2022-02-03,株式会社てまりツアー,,株式会社,長野県,松本市,大字今井６９３１番地２６,,20,202,3901131,,,,,,,2022-02-03,1,,,,,テマリツアー,0
1258,5120001243597,新規,0,2022-02-03,2022-02-03,マルサンテック株式会社,,株式会社,大阪府,大阪市平野区,長吉長原東２丁目８番３６－１０３号,,27,126,5470013,,,,,,,2022-02-03,1,,,,,マルサンテック,0
1261,5120003020961,新規,0,2022-02-03,2022-02-03,デイトレーディングジャパン合同会社,,合同会社,大阪府,大阪市中央区,南船場１丁目７番１２号５階,,27,128,5420081,,,,,,,2022-02-03,1,,,,,,0
1264,5120101065033,新規,0,2022-02-03,2022-02-03,株式会社ＶｉＶｉＤ,,株式会社,大阪府,羽曳野市,誉田３丁目１４番２０号メゾン白鳥２０１号,,27,222,5830857,,,,,,,2022-02-03,1,,,,,ビビッド,0
1267,5120905006281,新規,0,2022-02-03,2022-02-03,一般社団法人さくら労務実務研究所,,その他の設立登記法人,大阪府,吹田市,広芝町１０番２８号,,27,205,5640052,,,,,,,2022-02-03,1,,,,,サクラロウムジツムケンキュウショ,0
1269,5122001035553,新規,0,2022-02-03,2022-02-03,株式会社ＱＯＯ,,株式会社,大阪府,柏原市,田辺２丁目１１番９号,,27,221,5820024,,,,,,,2022-02-03,1,,,,,クウ,0
1276,5130001071064,新規,0,2022-02-03,2022-02-03,株式会社ＭＨＣソリューションズ,,株式会社,京都府,京都市中京区,西洞院通三条下る柳水町７１番地１菅原ビル３０３号,,26,104,6048242,,,,,,,2022-02-03,1,,,,,エムエイチシーソリューションズ,0
1283,5140001124754,新規,0,2022-02-03,2022-02-03,株式会社ニシウマ,,株式会社,兵庫県,神戸市東灘区,御影２丁目１２番３３号,,28,101,6580047,,,,,,,2022-02-03,1,,,,,ニシウマ,0
1293,5180001149839,新規,0,2022-02-03,2022-02-03,株式会社ＩＴＳ,,株式会社,愛知県,春日井市,出川町６丁目５番地８,,23,206,4870025,,,,,,,2022-02-03,1,,,,,アイティエス,0
1294,5180001149847,新規,0,2022-02-03,2022-02-03,株式会社グレイスキャリア,,株式会社,愛知県,名古屋市千種区,穂波町３丁目６５番２号,,23,101,4640822,,,,,,,2022-02-03,1,,,,,グレイスキャリア,0
1296,5180301035887,新規,0,2022-02-03,2022-02-03,株式会社いとう園芸,,株式会社,愛知県,豊橋市,東七根町字松端１７８番地３,,23,201,4413201,,,,,,,2022-02-03,1,,,,,イトウエンゲイ,0
1302,5180305009292,新規,0,2022-02-03,2022-02-03,ＧＴ協同組合,,その他の設立登記法人,愛知県,豊川市,中央通５丁目７番地,,23,207,4420051,,,,,,,2022-02-03,1,,,,,ジーティー,0
1307,5200001039715,新規,0,2022-02-03,2022-02-03,株式会社ＯＣ,,株式会社,岐阜県,多治見市,太平町２丁目８番地グリーンハイツ多治見６０３号室,,21,204,5070041,,,,,,,2022-02-03,1,,,,,オーシー,0
1316,5230001019219,新規,0,2022-02-03,2022-02-03,株式会社Ｆｏｒｗａｒｄ,,株式会社,富山県,富山市,安養寺５６９,,16,201,9398177,,,,,,,2022-02-03,1,,,,,フォワード,0
1318,5240001059271,新規,0,2022-02-03,2022-02-03,株式会社松井工業,,株式会社,広島県,安芸郡府中町,桃山２丁目９番８号,,34,302,7350026,,,,,,,2022-02-03,1,,,,,マツイコウギョウ,0
1320,5250003002996,新規,0,2022-02-03,2022-02-03,合同会社ＰｅＡＡＡｃｅ,,合同会社,山口県,宇部市,大字上宇部２４９４－１２,,35,202,7550091,,,,,,,2022-02-03,1,,,,,ピース,0
1324,5260005011029,新規,0,2022-02-03,2022-02-03,一般社団法人ＡＮＧＯ,,その他の設立登記法人,岡山県,岡山市北区,広瀬町２番１１号,,33,101,7000806,,,,,,,2022-02-03,1,,,,,アンゴ,0
1325,5270001008449,新規,0,2022-02-03,2022-02-03,株式会社植原農園,,株式会社,鳥取県,東伯郡湯梨浜町,はわい長瀬１１６５番地,,31,370,6820722,,,,,,,2022-02-03,1,,,,,ウエハラノウエン,0
1326,5270003001385,新規,0,2022-02-03,2022-02-03,合同会社福祉タクシーおくりむかえ,,合同会社,鳥取県,鳥取市,卯垣４丁目１０８番地,,31,201,6800074,,,,,,,2022-02-03,1,,,,,フクシタクシーオクリムカエ,0
1330,5290001096327,新規,0,2022-02-03,2022-02-03,株式会社グローバルジャパンエイト,,株式会社,福岡県,福岡市博多区,博多駅南５丁目２０番１０－５号,,40,132,8120016,,,,,,,2022-02-03,1,,,,,グローバルジャパンエイト,0
1331,5290001096335,新規,0,2022-02-03,2022-02-03,株式会社仲西防水,,株式会社,福岡県,糸島市,志摩船越９９番地,,40,230,8191332,,,,,,,2022-02-03,1,,,,,ナカニシボウスイ,0
1332,5290001096351,新規,0,2022-02-03,2022-02-03,株式会社カームウェーブ,,株式会社,福岡県,福岡市中央区,舞鶴１丁目６番１２号秀和舞鶴レジデンス７０１号,,40,133,8100073,,,,,,,2022-02-03,1,,,,,カームウェーブ,0
1335,5290003012117,新規,0,2022-02-03,2022-02-03,住まいの相談室合同会社,,合同会社,福岡県,宗像市,田久３丁目１０番２３号,,40,220,8114175,,,,,,,2022-02-03,1,,,,,スマイノソウダンシツ,0
1338,5290801028207,新規,0,2022-02-03,2022-02-03,株式会社ミリー,,株式会社,福岡県,北九州市若松区,青葉台南２丁目４番１２号,,40,103,8080142,,,,,,,2022-02-03,1,,,,,ミリー,0
1339,5290801028231,新規,0,2022-02-03,2022-02-03,株式会社山輝,,株式会社,福岡県,宮若市,福丸２３７番地２ボヌールコートＡ２０３号,,40,226,8220101,,,,,,,2022-02-03,1,,,,,サンキ,0
1342,5310003004268,新規,0,2022-02-03,2022-02-03,合同会社矢野住設,,合同会社,長崎県,佐世保市,皆瀬町４７番地２,,42,202,8570144,,,,,,,2022-02-03,1,,,,,ヤノジュウセツ,0
1344,5330003009232,新規,0,2022-02-03,2022-02-03,合同会社ＤＥＮＯ,,合同会社,熊本県,八代市,鏡町内田４３２番地１,,43,202,8694202,,,,,,,2022-02-03,1,,,,,デノ,0
1346,5350001017565,新規,0,2022-02-03,2022-02-03,株式会社南国アソシエイツ,,株式会社,宮崎県,宮崎市,大字赤江１１０８番地１,,45,201,8800912,,,,,,,2022-02-03,1,,,,,ナンゴクアソシエイツ,0
1355,5370001048162,新規,0,2022-02-03,2022-02-03,株式会社ＢＬＵＥ　ＰＯＩＮＴ,,株式会社,宮城県,仙台市泉区,泉ケ丘２丁目１６番１０号,,04,105,9813201,,,,,,,2022-02-03,1,,,,,ブルーポイント,0
1364,5390001016778,新規,0,2022-02-03,2022-02-03,株式会社斎藤園芸,,株式会社,山形県,尾花沢市,大字名木沢１７８５番地８９,,06,212,9994556,,,,,,,2022-02-03,1,,,,,サイトウエンゲイ,0
1382,5430001085926,新規,0,2022-02-03,2022-02-03,株式会社Ｓ．Ｔトランスポート,,株式会社,北海道,室蘭市,八丁平１丁目４９番３０号,,01,205,0500061,,,,,,,2022-02-03,1,,,,,エスティートランスポート,0
1383,5430001085942,新規,0,2022-02-03,2022-02-03,株式会社ウィーリングジャパン,,株式会社,北海道,札幌市清田区,里塚三条３丁目２２番３号,,01,110,0040803,,,,,,,2022-02-03,1,,,,,ウィーリングジャパン,0
1384,5440003001442,新規,0,2022-02-03,2022-02-03,合同会社豊恵,,合同会社,北海道,亀田郡七飯町,字大川３８６番地２１,,01,337,0411122,,,,,,,2022-02-03,1,,,,,ホウエ,0
1386,5450001013612,新規,0,2022-02-03,2022-02-03,株式会社アース・アクティブ,,株式会社,北海道,旭川市,北門町１８丁目２１５４番地の７５,,01,204,0700825,,,,,,,2022-02-03,1,,,,,アースアクティブ,0
1388,5470001018956,新規,0,2022-02-03,2022-02-03,豊システム株式会社,,株式会社,香川県,さぬき市,志度６１６番地,,37,206,7692101,,,,,,,2022-02-03,1,,,,,ユタカシステム,0
1389,5470003002124,新規,0,2022-02-03,2022-02-03,合同会社カンボジアマーケット,,合同会社,香川県,坂出市,林田町３５１４番地３９,,37,203,7620012,,,,,,,2022-02-03,1,,,,,カンボジアマーケット,0
1390,5480001011638,新規,0,2022-02-03,2022-02-03,株式会社張本商事,,株式会社,徳島県,名西郡石井町,石井字石井６２７番地１２,,36,341,7793233,,,,,,,2022-02-03,1,,,,,ハリモトショウジ,0
1394,5500001023985,新規,0,2022-02-03,2022-02-03,株式会社洸,,株式会社,愛媛県,新居浜市,本郷１丁目１１番２３号,,38,205,7920042,,,,,,,2022-02-03,1,,,,,コウ,0
1397,5700150106694,新規,0,2022-02-03,2022-01-18,寒玉逕翠会,,その他,東京都,東村山市,美住町１丁目２３－７,,13,213,1890023,,,,,,,2022-01-18,1,,,,,カンギヨクケイスイカイ,0
1398,5700150106901,新規,0,2022-02-03,2022-02-03,Ｍｉｔｓｕｂｉｓｈｉ　Ｅｌｅｖａｔｏｒ　Ｉｎｄｉａ,,外国会社等,,,,,,,,Ｐｌｏｔ　Ｎｏ．５９－６３＆６５－７１，ＫＩＡＤＢ　Ｖｅｍａｇａｌ　Ｉｎｄｕｓｔｒｉａｌ　Ａｒｅａ，Ｖｅｍａｇａｌ，Ｋｏｌａｒ　Ｔａｌｕｋ,,,,,,2022-02-03,1,,,,,ミツビシエレベーターインデイア,0
1405,6010001224285,新規,0,2022-02-03,2022-02-03,株式会社レイコム,,株式会社,東京都,中央区,佃２丁目１番２号,,13,102,1040051,,,,,,,2022-02-03,1,,,,,レイコム,0
1407,6010005034549,新規,0,2022-02-03,2022-02-03,一般社団法人メイシス地域創生研究会,,その他の設立登記法人,東京都,中央区,銀座６丁目４番８号曽根ビル,,13,102,1040061,,,,,,,2022-02-03,1,,,,,メイシスチイキソウセイケンキュウカイ,0
1408,6010005034565,新規,0,2022-02-03,2022-02-03,司法書士法人誠事務所,,その他の設立登記法人,東京都,千代田区,神田淡路町２丁目１０５番地ワテラスアネックス１３１２,,13,101,1010063,,,,,,,2022-02-03,1,,,,,マコトジムショ,0
1409,6010101015056,新規,0,2022-02-03,2022-02-03,株式会社ＶＪＧＲＯＵＰ,,株式会社,東京都,八王子市,散田町３丁目１６番２２号サンルミエール２０１号室,,13,201,1930832,,,,,,,2022-02-03,1,,,,,ヴイジェイグループ,0
1417,6010401165360,新規,0,2022-02-03,2022-02-03,株式会社ＳＤソリューション,,株式会社,東京都,港区,虎ノ門３丁目８番２１号,,13,103,1050001,,,,,,,2022-02-03,1,,,,,エスディーソリューション,0
1418,6010401165369,新規,0,2022-02-03,2022-02-03,株式会社Ｅ－ｌｉｆｅ,,株式会社,東京都,港区,西新橋１丁目１８番１１号ル・グラシエルＢＬＤＧ１６－９Ｆ,,13,103,1050003,,,,,,,2022-02-03,1,,,,,イーライフ,0
1420,6010501048399,新規,0,2022-02-03,2022-02-03,新南方株式会社,,株式会社,東京都,台東区,松が谷２丁目１５番８号５Ｆ,,13,106,1110036,,,,,,,2022-02-03,1,,,,,シンナンポウ,0
1427,6010901050302,新規,0,2022-02-03,2022-02-03,ＮＹアカウンティングサービス株式会社,,株式会社,東京都,世田谷区,三宿１丁目１４－８三宿バドスクエア,,13,112,1540005,,,,,,,2022-02-03,1,,,,,エヌワイアカウンティングサービス,0
1428,6010903007119,新規,0,2022-02-03,2022-02-03,ＤＯＮ　ＨＥＡＲＴＳ合同会社,,合同会社,東京都,世田谷区,下馬２丁目２１－２７－１１５,,13,112,1540002,,,,,,,2022-02-03,1,,,,,ドーンハーツ,0
1429,6010903007127,新規,0,2022-02-03,2022-02-03,ＢＢＡ合同会社,,合同会社,東京都,世田谷区,赤堤２丁目３４番１２号メゾンミーノ１０３,,13,112,1560044,,,,,,,2022-02-03,1,,,,,ビビエ,0
1434,6011001145422,新規,0,2022-02-03,2022-02-03,株式会社ＮＥＷ　ＦＡＣＴＯＲＹ　ＴＯＫＹＯ,,株式会社,東京都,渋谷区,恵比寿４丁目２０番４号,,13,113,1500013,,,,,,,2022-02-03,1,,,,,ニューファクトリートウキョウ,0
1435,6011001145463,新規,0,2022-02-03,2022-02-03,株式会社ゼロワン,,株式会社,東京都,目黒区,自由が丘１丁目２４番７号,,13,110,1520035,,,,,,,2022-02-03,1,,,,,ゼロワン,0
1436,6011003014047,新規,0,2022-02-03,2022-02-03,合同会社いちいちまる,,合同会社,東京都,渋谷区,猿楽町７－１－１１０,,13,113,1500033,,,,,,,2022-02-03,1,,,,,イチイチマル,0
1437,6011003014055,新規,0,2022-02-03,2022-02-03,ＭＡテクノロジー合同会社,,合同会社,東京都,渋谷区,道玄坂２丁目１５－１－２０６,,13,113,1500043,,,,,,,2022-02-03,1,,,,,エムエーテクノロジー,0
1451,6011501027715,新規,0,2022-02-03,2022-02-03,ＮＢＧ株式会社,,株式会社,東京都,荒川区,西日暮里５丁目１０－１２コンフォートＩＩＩ事務所側５階,00125611,13,118,1160013,,,,,,,2022-02-03,1,,,,,エヌビージー,0
1452,6011501027723,新規,0,2022-02-03,2022-02-03,株式会社Ｂｕｄｄｙ　Ｅｓ,,株式会社,東京都,北区,王子６丁目２番３３－３０３号,,13,117,1140002,,,,,,,2022-02-03,1,,,,,バディーエス,0
1456,6011601025718,新規,0,2022-02-03,2022-02-03,株式会社ＵＩＲ,,株式会社,東京都,練馬区,北町７丁目１２番４号,,13,120,1790081,,,,,,,2022-02-03,1,,,,,ユーアイアール,0
1461,6011803004957,新規,0,2022-02-03,2022-02-03,ＥＳＮ合同会社,,合同会社,東京都,足立区,佐野２丁目６番１７－１０１号,,13,121,1210053,,,,,,,2022-02-03,1,,,,,イーエスエヌ,0
1464,6012401038810,新規,0,2022-02-03,2022-02-03,株式会社ｅｓｔｏｍａ,,株式会社,東京都,府中市,多磨町１丁目２９番地の５５,,13,206,1830002,,,,,,,2022-02-03,1,,,,,エストマ,0
1473,6013301048643,新規,0,2022-02-03,2022-02-03,株式会社小象商事,,株式会社,東京都,豊島区,東池袋２丁目６２番８号,,13,116,1700013,,,,,,,2022-02-03,1,,,,,コゾウショウジ,0
1488,6020003021242,新規,0,2022-02-03,2022-02-03,ｆｌｕｆｆ合同会社,,合同会社,神奈川県,川崎市中原区,新丸子町９１５番地石川ビル２０１,,14,133,2110005,,,,,,,2022-02-03,1,,,,,フラフ,0
1492,6021001075115,新規,0,2022-02-03,2022-02-03,株式会社ｍｉｍｏｓａ,,株式会社,神奈川県,藤沢市,花の木３番１２－３１３号,,14,205,2510874,,,,,,,2022-02-03,1,,,,,ミモザ,0
1496,6030001146619,新規,0,2022-02-03,2022-02-03,ワイザー株式会社,,株式会社,埼玉県,草加市,神明１丁目１２番３号２階,,11,221,3400012,,,,,,,2022-02-03,1,,,,,ワイザー,0
1497,6030001146635,新規,0,2022-02-03,2022-02-03,株式会社ＭＵＫ,,株式会社,埼玉県,川口市,大字東本郷１５１４－１,,11,203,3340063,,,,,,,2022-02-03,1,,,,,エムユウケイ,0
1499,6030003018790,新規,0,2022-02-03,2022-02-03,ＨＴコンサルティング合同会社,,合同会社,埼玉県,川口市,鳩ヶ谷本町３丁目２―１６,,11,203,3340002,,,,,,,2022-02-03,1,,,,,エイチティーコンサルティング,0
1507,6040003019383,新規,0,2022-02-03,2022-02-03,合同会社フォーティワン,,合同会社,千葉県,流山市,大字西平井５４１番地の１ブルーミングレジデンス南流山１０２,,12,220,2700156,,,,,,,2022-02-03,1,,,,,フォーティワン,0
1508,6040003019409,新規,0,2022-02-03,2022-02-03,合同会社ライトハウス,,合同会社,千葉県,千葉市美浜区,浜田１丁目３番地コロンブスシティ１２５０号,,12,106,2610025,,,,,,,2022-02-03,1,,,,,ライトハウス,0
1510,6050001050546,新規,0,2022-02-03,2022-02-03,株式会社ケアライズ,,株式会社,茨城県,取手市,上高井３５２－９,,08,217,3020035,,,,,,,2022-02-03,1,,,,,ケアライズ,0
1517,6060003003939,新規,0,2022-02-03,2022-02-03,合同会社Ｒｅ・くらす,,合同会社,栃木県,宇都宮市,下小倉町１２４４番地８,,09,201,3210403,,,,,,,2022-02-03,1,,,,,リクラス,0
1535,6120001243456,新規,0,2022-02-03,2022-02-03,東成株式会社,,株式会社,大阪府,大阪市東成区,東小橋１丁目１７－３１グランドハイツ東小橋７１０号室,,27,115,5370024,,,,,,,2022-02-03,1,,,,,トウセイ,0
1536,6120001243555,新規,0,2022-02-03,2022-02-03,株式会社Ｓｕｓｔａｉｎａｂｉｌｉｔｙ,,株式会社,大阪府,守口市,大久保町５丁目７１番４－２０１号,,27,209,5700012,,,,,,,2022-02-03,1,,,,,サステナビリティ,0
1537,6120001243563,新規,0,2022-02-03,2022-02-03,ミヤ総合住宅株式会社,,株式会社,大阪府,大阪市東住吉区,湯里２丁目１４番３号,,27,121,5460013,,,,,,,2022-02-03,1,,,,,ミヤソウゴウジュウタク,0
1538,6120001243596,新規,0,2022-02-03,2022-02-03,株式会社インピネス,,株式会社,大阪府,大阪市中央区,瓦町１丁目５番１１号ループビル８０２号,,27,128,5410048,,,,,,,2022-02-03,1,,,,,インピネス,0
1539,6120001243605,新規,0,2022-02-03,2022-02-03,株式会社フレクセプト,,株式会社,大阪府,大阪市生野区,巽北２丁目１７番１９号山本ビル３階,00125609,27,116,5440004,,,,,,,2022-02-03,1,,,,,フレクセプト,0
1542,6120005022765,新規,0,2022-02-03,2022-02-03,医療法人きらり,,その他の設立登記法人,大阪府,門真市,向島町３番３５号ベアーズ２階,,27,223,5710051,,,,,,,2022-02-03,1,,,,,キラリ,0
1543,6120005022773,新規,0,2022-02-03,2022-02-03,弁護士法人フロントロー法律事務所,,その他の設立登記法人,大阪府,大阪市中央区,道修町１丁目６番７号,,27,128,5410045,,,,,,,2022-02-03,1,,,,,フロントローホウリツジムショ,0
1547,6120901045555,新規,0,2022-02-03,2022-02-03,株式会社南吹田動物病院,,株式会社,大阪府,吹田市,金田町２８－１５,,27,205,5640045,,,,,,,2022-02-03,1,,,,,ミナミスイタドウブツビョウイン,0
1554,6130001071055,新規,0,2022-02-03,2022-02-03,エスコート株式会社,,株式会社,京都府,京都市北区,紫竹下緑町４０番地の１,,26,101,6038425,,,,,,,2022-02-03,1,,,,,エスコート,0
1563,6140001124753,新規,0,2022-02-03,2022-02-03,株式会社ｇｅｎｅｒａｌ　ｍｅｒｃｈａｎｔ,,株式会社,兵庫県,姫路市,苫編６２８番地１,,28,201,6700986,,,,,,,2022-02-03,1,,,,,ジェネラルマーチャント,0
1564,6140001124761,新規,0,2022-02-03,2022-02-03,株式会社ＬａＬｕｎｅ,,株式会社,兵庫県,芦屋市,奥池南町４５番９号,,28,206,6590004,,,,,,,2022-02-03,1,,,,,ラリュンヌ,0
1565,6140001124778,新規,0,2022-02-03,2022-02-03,株式会社ＭＴＵ,,株式会社,兵庫県,川西市,矢問１丁目１７番９号,,28,217,6660131,,,,,,,2022-02-03,1,,,,,エムティーユー,0
1566,6140005026021,新規,0,2022-02-03,2022-02-03,医療法人社団ＰＲＯＧＲＥＳＳ,,その他の設立登記法人,兵庫県,西宮市,薬師町１番７２号ロイヤルコートヤード西宮１階,,28,204,6638024,,,,,,,2022-02-03,1,,,,,プログレス,0
1567,6150001025307,新規,0,2022-02-03,2022-02-03,株式会社ＴＡＫＡＧＩ,,株式会社,奈良県,奈良市,横井１丁目７０９番地の２、１５５号,,29,201,6308422,,,,,,,2022-02-03,1,,,,,タカギ,0
1574,6180001149870,新規,0,2022-02-03,2022-02-03,株式会社ＣＯＲＭＯＲＡＮＴ　ｆ,,株式会社,愛知県,一宮市,浅野字内浦５９番地６,,23,203,4910871,,,,,,,2022-02-03,1,,,,,コーモラントエフ,0
1577,6180003023454,新規,0,2022-02-03,2022-02-03,合同会社心愛,,合同会社,愛知県,名古屋市西区,天塚町２丁目１１オーベスト２Ａ,,23,104,4510021,,,,,,,2022-02-03,1,,,,,ココア,0
1580,6180301035894,新規,0,2022-02-03,2022-02-03,株式会社ヒロ建築設計室,,株式会社,愛知県,豊川市,小坂井町大塚２７番地１,,23,207,4410103,,,,,,,2022-02-03,1,,,,,ヒロケンチクセッケイシツ,0
1583,6180305009291,新規,0,2022-02-03,2022-02-03,税理士法人鈴木・住田総合会計事務所,,その他の設立登記法人,愛知県,豊橋市,西小鷹野４丁目１４番地の８,,23,201,4400013,,,,,,,2022-02-03,1,,,,,スズキスミタソウゴウカイケイジムショ,0
1588,6210001018808,新規,0,2022-02-03,2022-02-03,かえる計測株式会社,,株式会社,福井県,福井市,新田塚２丁目９番７号,,18,201,9100067,,,,,,,2022-02-03,1,,,,,カエルケイソク,0
1592,6230001019218,新規,0,2022-02-03,2022-02-03,株式会社ＴＳ　ＴＲＡＤＩＮＧ,,株式会社,富山県,射水市,作道２１４０番地１グローバル２０５,,16,211,9340042,,,,,,,2022-02-03,1,,,,,ティーエストレーディング,0
1593,6230005009198,新規,0,2022-02-03,2022-02-03,司法書士法人すずかぜ,,その他の設立登記法人,富山県,魚津市,本新町２７番１７号,,16,204,9370068,,,,,,,2022-02-03,1,,,,,スズカゼ,0
1595,6240002008342,新規,0,2022-02-03,2022-02-03,スカイ観光農園有限会社,,有限会社,広島県,三原市,大和町篠２５３２番地,,34,204,7291402,,,,,,,2022-02-03,1,,,,,スカイカンコウノウエン,0
1601,6260001036482,新規,0,2022-02-03,2022-02-03,株式会社スマイルデザイン,,株式会社,岡山県,倉敷市,真備町有井３７５番地１,,33,202,7101306,,,,,,,2022-02-03,1,,,,,スマイルデザイン,0
1602,6260001036490,新規,0,2022-02-03,2022-02-03,株式会社リアン,,株式会社,岡山県,笠岡市,三番町４番地５,,33,205,7140084,,,,,,,2022-02-03,1,,,,,リアン,0
1604,6270001008448,新規,0,2022-02-03,2022-02-03,株式会社藤原電工,,株式会社,鳥取県,鳥取市,杉崎５５５番地１６,,31,201,6891101,,,,,,,2022-02-03,1,,,,,フジワラデンコウ,0
1605,6280001008629,新規,0,2022-02-03,2022-02-03,トラスト株式会社,,株式会社,島根県,出雲市,園町１３３１番地,,32,203,6910076,,,,,,,2022-02-03,1,,,,,トラスト,0
1610,6290001096318,新規,0,2022-02-03,2022-02-03,株式会社福竜建設,,株式会社,福岡県,福岡市南区,寺塚２丁目２０番２０号,,40,134,8150074,,,,,,,2022-02-03,1,,,,,フクリュウケンセツ,0
1611,6290001096326,新規,0,2022-02-03,2022-02-03,株式会社セプテット,,株式会社,福岡県,福岡市城南区,茶山１丁目４番４５号,,40,136,8140111,,,,,,,2022-02-03,1,,,,,セプテット,0
1612,6290001096342,新規,0,2022-02-03,2022-02-03,株式会社未来ファイナンス,,株式会社,福岡県,福岡市中央区,大名２丁目１０番２号シャンボール大名Ｂ棟１２０２号,,40,133,8100041,,,,,,,2022-02-03,1,,,,,ミライファイナンス,0
1615,6290801028222,新規,0,2022-02-03,2022-02-03,株式会社さくら,,株式会社,福岡県,北九州市八幡東区,祇園２丁目２番２号１階,00125618,40,108,8050067,,,,,,,2022-02-03,1,,,,,サクラ,0
1622,6320001018879,新規,0,2022-02-03,2022-02-03,株式会社ソーリン不動産,,株式会社,大分県,大分市,大字下郡３０７６番地の３,,44,201,8700951,,,,,,,2022-02-03,1,,,,,ソーリンフドウサン,0
1623,6320003003722,新規,0,2022-02-03,2022-02-03,合同会社えーでん,,合同会社,大分県,由布市,湯布院町川北９１８－３２,,44,213,8795114,,,,,,,2022-02-03,1,,,,,エーデン,0
1624,6320005009965,新規,0,2022-02-03,2022-02-03,一般社団法人別府奇跡の道しるべ,,その他の設立登記法人,大分県,別府市,大字亀川１７５３番地３,,44,202,8740000,,,,,,,2022-02-03,1,,,,,ベップキセキノミチシルベ,0
1625,6330001029405,新規,0,2022-02-03,2022-02-03,タブチ技研株式会社,,株式会社,熊本県,玉名郡長洲町,大字清源寺３１９８番地１,,43,368,8690105,,,,,,,2022-02-03,1,,,,,タブチギケン,0
1633,6370001048161,新規,0,2022-02-03,2022-02-03,デルタエックス株式会社,,株式会社,宮城県,仙台市青葉区,中央４丁目８番１７号,,04,101,9800021,,,,,,,2022-02-03,1,,,,,デルタエックス,0
1643,6390001016777,新規,0,2022-02-03,2022-02-03,株式会社オーブガーデンファーム,,株式会社,山形県,東置賜郡川西町,大字玉庭４６３０－１,,06,382,9990361,,,,,,,2022-02-03,1,,,,,オーブガーデンファーム,0
1651,6430001085909,新規,0,2022-02-03,2022-02-03,株式会社ＳＣ,,株式会社,北海道,札幌市中央区,南四条西４丁目４番地ＬＣ拾五番館,,01,101,0640804,,,,,,,2022-02-03,1,,,,,エスシー,0
1653,6430003013603,新規,0,2022-02-03,2022-02-03,ＭＩ‐ＲＡＩ合同会社,,合同会社,北海道,札幌市豊平区,平岸一条８丁目４番８号,,01,105,0620931,,,,,,,2022-02-03,1,,,,,ミライ,0
1655,6440001009024,新規,0,2022-02-03,2022-02-03,株式会社かなりあ,,株式会社,北海道,北斗市,七重浜８丁目１１番３４号,,01,236,0490111,,,,,,,2022-02-03,1,,,,,カナリア,0
1657,6450001013611,新規,0,2022-02-03,2022-02-03,株式会社Ｆｒｏｎｔｌｉｎｅ,,株式会社,北海道,旭川市,東鷹栖二線十五号６７１番地の７６,,01,204,0718152,,,,,,,2022-02-03,1,,,,,フロントライン,0
1658,6460103001422,新規,0,2022-02-03,2022-02-03,合同会社デナリ,,合同会社,北海道,帯広市,西八条南３２丁目１番地２５,,01,207,0800018,,,,,,,2022-02-03,1,,,,,デナリ,0
1660,6470003002123,新規,0,2022-02-03,2022-02-03,合同会社スモールフィールド,,合同会社,香川県,高松市,塩屋町１１番地５,,37,201,7600047,,,,,,,2022-02-03,1,,,,,スモールフィールド,0
1661,6480001011637,新規,0,2022-02-03,2022-02-03,株式会社考哉,,株式会社,徳島県,徳島市,渋野町岩鼻８２番地５９,,36,201,7714267,,,,,,,2022-02-03,1,,,,,タカヤ,0
1664,6700150106900,新規,0,2022-02-03,2022-02-03,ＯＣＥＡＮ　ＳＥＲＥＮＩＴＹ　ＬＴＤ,,外国会社等,,,,,,,,Ｓｏｋｒａｔｏｕｓ，２，Ｍｅｓａ　Ｇｅｉｔｏ１１ｉａ，４００６，Ｌｉｍａｓｓｏｌ，ｃｙｐｒｕｓ,,,,,,2022-02-03,1,,,,,オーシヤンセレニテイ,0
1672,7010001224136,新規,0,2022-02-03,2022-02-03,株式会社メタバース,,株式会社,東京都,千代田区,西神田２丁目３番２号牧ビル４０３,,13,101,1010065,,,,,,,2022-02-03,1,,,,,メタバース,0
1673,7010001224326,新規,0,2022-02-03,2022-02-03,株式会社インクラウド,,株式会社,東京都,千代田区,神田佐久間河岸５５朝風染常ビル２階,,13,101,1010026,,,,,,,2022-02-03,1,,,,,インクラウド,0
1683,7010401165351,新規,0,2022-02-03,2022-02-03,ｆｏｒ　ｔｏ　ｃ　Ｐａｒｔｎｅｒ株式会社,,株式会社,東京都,港区,北青山２丁目７番１３号プラセオ青山ビル３階,,13,103,1070061,,,,,,,2022-02-03,1,,,,,フォートゥーシー,0
1684,7010401165392,新規,0,2022-02-03,2022-02-03,株式会社ＹＳ２１,,株式会社,東京都,港区,赤坂６丁目１９番５４－７０１号,,13,103,1070052,,,,,,,2022-02-03,1,,,,,ワイエスニイチ,0
1687,7010403026923,新規,0,2022-02-03,2022-02-03,合同会社ＲｅＢｕｉｌｄ,,合同会社,東京都,港区,南青山２丁目２番１５号,,13,103,1070062,,,,,,,2022-02-03,1,,,,,リビルド,0
1690,7010405020643,新規,0,2022-02-03,2022-02-03,司法書士法人徳原事務所,,その他の設立登記法人,東京都,港区,北青山１丁目４番６号２４６青山ビル３階,,13,103,1070061,,,,,,,2022-02-03,1,,,,,トクハラジムショ,0
1691,7010501048407,新規,0,2022-02-03,2022-02-03,株式会社ソースオブライフ,,株式会社,東京都,台東区,駒形１丁目７番１１号,,13,106,1110043,,,,,,,2022-02-03,1,,,,,ソースオブライフ,0
1692,7010501048415,新規,0,2022-02-03,2022-02-03,株式会社さすらひ,,株式会社,東京都,台東区,池之端２丁目４番１６－４０５号池之端マンション,,13,106,1100008,,,,,,,2022-02-03,1,,,,,サスライ,0
1693,7010503006494,新規,0,2022-02-03,2022-02-03,合同会社Ｆｉｒｓｔ　Ｃｈｏｉｃｅ,,合同会社,東京都,台東区,東上野４丁目６番７号,,13,106,1100015,,,,,,,2022-02-03,1,,,,,ファーストチョイス,0
1700,7010903007118,新規,0,2022-02-03,2022-02-03,合同会社ＡｎｙＳｐｏｔ,,合同会社,東京都,世田谷区,上野毛４丁目１８－６,,13,112,1580093,,,,,,,2022-02-03,1,,,,,エニースポット,0
1701,7010903007126,新規,0,2022-02-03,2022-02-03,合同会社ネクストサポーターズ,,合同会社,東京都,世田谷区,豪徳寺１丁目３３番３０号フェリアル豪徳寺３０１,,13,112,1540021,,,,,,,2022-02-03,1,,,,,ネクストサポーターズ,0
1710,7011001145462,新規,0,2022-02-03,2022-02-03,ＣＯＭＣＯＭ株式会社,,株式会社,東京都,渋谷区,神宮前６丁目２３番４号,,13,113,1500001,,,,,,,2022-02-03,1,,,,,コムコム,0
1711,7011001145504,新規,0,2022-02-03,2022-02-03,株式会社マンガのカタチ,,株式会社,東京都,渋谷区,道玄坂１丁目１８番４－９０１号,,13,113,1500043,,,,,,,2022-02-03,1,,,,,マンガノカタチ,0
1717,7011101097637,新規,0,2022-02-03,2022-02-03,株式会社あけぼのサポート,,株式会社,東京都,新宿区,百人町２丁目９番６号竹内ビル４階Ａ号室,,13,104,1690073,,,,,,,2022-02-03,1,,,,,,0
1718,7011101097678,新規,0,2022-02-03,2022-02-03,日本維新保証株式会社,,株式会社,東京都,新宿区,中井１丁目５番１０号,,13,104,1610035,,,,,,,2022-02-03,1,,,,,ニホンイシンホショウ,0
1719,7011101097711,新規,0,2022-02-03,2022-02-03,株式会社ニーダリング,,株式会社,東京都,新宿区,西新宿７丁目１５番５号,,13,104,1600023,,,,,,,2022-02-03,1,,,,,ニーダリング,0
1722,7011301027534,新規,0,2022-02-03,2022-02-03,株式会社ＦＵＪＩＭＩ,,株式会社,東京都,杉並区,堀ノ内１丁目６番２－３３０号レジディア杉並方南町,,13,115,1660013,,,,,,,2022-02-03,1,,,,,フジミ,0
1723,7011501027722,新規,0,2022-02-03,2022-02-03,株式会社ｒｉｓｅ,,株式会社,東京都,北区,滝野川５丁目３８番１－３０１号メディカルパレス,,13,117,1140023,,,,,,,2022-02-03,1,,,,,ライズ,0
1726,7011601025717,新規,0,2022-02-03,2022-02-03,株式会社ＡＫＹＵＤＯ,,株式会社,東京都,練馬区,貫井２丁目１６番３３号,,13,120,1760021,,,,,,,2022-02-03,1,,,,,アキュード,0
1727,7011703003059,新規,0,2022-02-03,2022-02-03,合同会社Ａｎｅｌａ,,合同会社,東京都,江戸川区,鹿骨４丁目３１番８号,,13,123,1330073,,,,,,,2022-02-03,1,,,,,アネラ,0
1730,7011801040268,新規,0,2022-02-03,2022-02-03,信達株式会社,,株式会社,東京都,足立区,竹の塚１丁目１３－１３－３０２号室,,13,121,1210813,,,,,,,2022-02-03,1,,,,,トラスト,0
1731,7011801040284,新規,0,2022-02-03,2022-02-03,株式会社ダイヤ不動産コンサルティング,,株式会社,東京都,足立区,綾瀬３丁目２６番２－３０３号,,13,121,1200005,,,,,,,2022-02-03,1,,,,,ダイヤフドウサンコンサルティング,0
1732,7011801040301,新規,0,2022-02-03,2022-02-03,株式会社ＳＴＥＰ,,株式会社,東京都,葛飾区,新小岩１丁目５６番１４－７０２号,,13,122,1240024,,,,,,,2022-02-03,1,,,,,ステップ,0
1734,7012801021373,新規,0,2022-02-03,2022-02-03,株式会社ＡＫ,,株式会社,東京都,昭島市,朝日町５丁目４番１５号,,13,207,1960025,,,,,,,2022-02-03,1,,,,,エーケー,0
1735,7012803002685,新規,0,2022-02-03,2022-02-03,Ｒｉｙｏｓａ合同会社,,合同会社,東京都,立川市,柴崎町１丁目１０番２４号スゴンコルネイエ１０２,,13,202,1900023,,,,,,,2022-02-03,1,,,,,リヨサ,0
1736,7012803002693,新規,0,2022-02-03,2022-02-03,ＫＣＴ合同会社,,合同会社,東京都,東大和市,仲原３丁目１８番地の７,,13,220,2070016,,,,,,,2022-02-03,1,,,,,ケーシーティー,0
1747,7020003021241,新規,0,2022-02-03,2022-02-03,合同会社グリーンハピネス,,合同会社,神奈川県,横浜市港南区,日野南４丁目２９番３－７号,,14,111,2340055,,,,,,,2022-02-03,1,,,,,グリーンハピネス,0
1748,7020005015373,新規,0,2022-02-03,2022-02-03,特定非営利活動法人都筑文化芸術協会,,その他の設立登記法人,神奈川県,横浜市都筑区,茅ケ崎中央２６番１号エクレール横浜２Ｆ,,14,118,2240032,,,,,,,2022-02-03,1,,,,,ツズキブンカゲイジュツキョウカイ,0
1750,7021001075064,新規,0,2022-02-03,2022-02-03,株式会社２ＷＤ　ｐｒｏ,,株式会社,神奈川県,藤沢市,長後６２４番地ＮＫＨＩＬＬ’ＳＩＩＤ棟,00125610,14,205,2520801,,,,,,,2022-02-03,1,,,,,ツーダブリュウディプロ,0
1755,7030003018781,新規,0,2022-02-03,2022-02-03,Ｍｙｕｃｙ合同会社,,合同会社,埼玉県,上尾市,谷津２丁目１番５０－２９号３階,,11,219,3620042,,,,,,,2022-02-03,1,,,,,ミュウシー,0
1762,7040001122031,新規,0,2022-02-03,2022-02-03,ＢＩＧＭＯＵＮＴＡＩＮ株式会社,,株式会社,千葉県,松戸市,常盤平１丁目２８－７サンモール常盤平１０２,,12,207,2702261,,,,,,,2022-02-03,1,,,,,ビッグマウンテン,0
1763,7040001122048,新規,0,2022-02-03,2022-02-03,株式会社Ｏｎｅ　ｓｃｅｎｅ,,株式会社,千葉県,習志野市,大久保１丁目２３番１５号,,12,216,2750011,,,,,,,2022-02-03,1,,,,,ワンシーン,0
1764,7040001122072,新規,0,2022-02-03,2022-02-03,株式会社オリト,,株式会社,千葉県,四街道市,下志津新田２５２６番地５０,,12,228,2840006,,,,,,,2022-02-03,1,,,,,オリト,0
1771,7070001038893,新規,0,2022-02-03,2022-02-03,株式会社寿,,株式会社,群馬県,太田市,石原町４４６番地３,,10,205,3730808,,,,,,,2022-02-03,1,,,,,コトブキ,0
1772,7070001038902,新規,0,2022-02-03,2022-02-03,ＡＫＯＧＡＲＥ株式会社,,株式会社,群馬県,高崎市,中豊岡町５００番地５ユニヴェールＡ１０３号,,10,202,3700874,,,,,,,2022-02-03,1,,,,,アコガレ,0
1773,7070001038910,新規,0,2022-02-03,2022-02-03,株式会社小豆の歩み,,株式会社,群馬県,桐生市,菱町１丁目４９１番地の１,,10,203,3760001,,,,,,,2022-02-03,1,,,,,アズキノアユミ,0
1776,7080001024736,新規,0,2022-02-03,2022-02-03,株式会社Ｔ－ＯＮＥ,,株式会社,静岡県,牧之原市,片浜３０２２番地５,,22,226,4210511,,,,,,,2022-02-03,1,,,,,ティーワン,0
1779,7080101023076,新規,0,2022-02-03,2022-02-03,株式会社ＫＯＮ－ＴＡ,,株式会社,静岡県,熱海市,清水町２４番６号,,22,205,4130021,,,,,,,2022-02-03,1,,,,,コンタ,0
1783,7100001035029,新規,0,2022-02-03,2022-02-03,株式会社のきち,,株式会社,長野県,北佐久郡御代田町,大字塩野３２３５番地３,,20,323,3890201,,,,,,,2022-02-03,1,,,,,ノキチ,0
1792,7120001243587,新規,0,2022-02-03,2022-02-03,株式会社ＵＮＣＨＡＩＮ,,株式会社,大阪府,大阪市城東区,中央２丁目９番１９－４０２号,,27,118,5360005,,,,,,,2022-02-03,1,,,,,アンチェイン,0
1794,7120005022772,新規,0,2022-02-03,2022-02-03,行政書士法人杉山事務所,,その他の設立登記法人,大阪府,大阪市中央区,難波２丁目３番７号,,27,128,5420076,,,,,,,2022-02-03,1,,,,,スギヤマジムショ,0
1796,7120101065031,新規,0,2022-02-03,2022-02-03,ひとみ興産株式会社,,株式会社,大阪府,松原市,小川４丁目１６番１５号,,27,217,5800002,,,,,,,2022-02-03,1,,,,,ヒトミコウサン,0
1798,7120103004557,新規,0,2022-02-03,2022-02-03,合同会社ＡＭＩＣＡＬ,,合同会社,大阪府,羽曳野市,はびきの４丁目１９番１８号,,27,222,5830872,,,,,,,2022-02-03,1,,,,,アミカル,0
1801,7120901045538,新規,0,2022-02-03,2022-02-03,株式会社ＴＩＦＦＡ,,株式会社,大阪府,吹田市,江の木町２番３２号フレアコート江坂５０１号室,,27,205,5640053,,,,,,,2022-02-03,1,,,,,ティファ,0
1803,7122001035551,新規,0,2022-02-03,2022-02-03,株式会社Ｆａｍｉｌｙ　Ａｃｅ,,株式会社,大阪府,東大阪市,南上小阪１０番１６号,,27,227,5770814,,,,,,,2022-02-03,1,,,,,ファミリーエース,0
1804,7122003002269,新規,0,2022-02-03,2022-02-03,アライアンスインシュアランス合同会社,,合同会社,大阪府,東大阪市,西堤本通西１丁目８番１６号,,27,227,5770046,,,,,,,2022-02-03,1,,,,,アライアンスインシュアランス,0
1810,7140001124752,新規,0,2022-02-03,2022-02-03,株式会社ＫＲＭアドバイザリー,,株式会社,兵庫県,尼崎市,南塚口町２丁目２９番１１－１号,,28,202,6610012,,,,,,,2022-02-03,1,,,,,ケーアールエムアドバイザリー,0
1811,7140001124785,新規,0,2022-02-03,2022-02-03,株式会社ＳＩＮ，ｒｉｆｏｒｍａ,,株式会社,兵庫県,神戸市兵庫区,本町１丁目３番１７－６０３号,,28,105,6520834,,,,,,,2022-02-03,1,,,,,シンリフォルマ,0
1812,7140001124793,新規,0,2022-02-03,2022-02-03,株式会社Ｙｓ,,株式会社,兵庫県,神戸市中央区,中山手通１丁目１７番６号４Ｆ,,28,110,6500004,,,,,,,2022-02-03,1,,,,,ワイズ,0
1813,7140001124802,新規,0,2022-02-03,2022-02-03,株式会社ＲＥ,,株式会社,兵庫県,尼崎市,水堂町１丁目４－３,,28,202,6610026,,,,,,,2022-02-03,1,,,,,アールイー,0
1815,7140003017293,新規,0,2022-02-03,2022-02-03,合同会社オーゴ,,合同会社,兵庫県,神戸市須磨区,車字口中ノ尾７１７－２,,28,107,6540111,,,,,,,2022-02-03,1,,,,,オーゴ,0
1816,7140003017327,新規,0,2022-02-03,2022-02-03,合同会社ミスターライフインシュアランス,,合同会社,兵庫県,神戸市東灘区,本山南町５丁目３－１－２２６,,28,101,6580015,,,,,,,2022-02-03,1,,,,,ミスターライフインシュアランス,0
1820,7170003001682,新規,0,2022-02-03,2022-02-03,合同会社ハッピーデイズ,,合同会社,和歌山県,有田郡有田川町,大字土生４４番地１,,30,366,6430025,,,,,,,2022-02-03,1,,,,,ハッピーデイズ,0
1823,7180001149779,新規,0,2022-02-03,2022-02-03,株式会社Ｉ－ｐｌｕｓ,,株式会社,愛知県,犬山市,大字橋爪字国正５２番地４ルミナス２０５,,23,215,4840076,,,,,,,2022-02-03,1,,,,,アイプラス,0
1824,7180001149820,新規,0,2022-02-03,2022-02-03,株式会社谷工業,,株式会社,愛知県,知多郡南知多町,大字大井字西園１２６番地,,23,445,4703501,,,,,,,2022-02-03,1,,,,,タニコウギョウ,0
1825,7180001149829,新規,0,2022-02-03,2022-02-03,株式会社ガレージＭ＆Ｎ,,株式会社,愛知県,小牧市,大字三ツ渕３９９番地,,23,219,4850075,,,,,,,2022-02-03,1,,,,,ガレージエムアンドエヌ,0
1829,7180301035893,新規,0,2022-02-03,2022-02-03,ＦＩＶＥ　ＶＩＳＩＯＮ　ＢＲＥＷＥＲＹ株式会社,,株式会社,愛知県,豊橋市,堂坂町４７番地１,,23,201,4418038,,,,,,,2022-02-03,1,,,,,ファイブビジョンブリュワリー,0
1844,7230005009197,新規,0,2022-02-03,2022-02-03,一般社団法人アテナ,,その他の設立登記法人,富山県,高岡市,本町３番４号,,16,202,9330913,,,,,,,2022-02-03,1,,,,,アテナ,0
1847,7240001059261,新規,0,2022-02-03,2022-02-03,ベル・スタッフィング株式会社,,株式会社,広島県,広島市中区,八丁堀６番１１－６０２号,,34,101,7300013,,,,,,,2022-02-03,1,,,,,ベルスタッフィング,0
1849,7240005015327,新規,0,2022-02-03,2022-02-03,ＮＰＯ法人アイフィットグループゆりかご,,その他の設立登記法人,広島県,東広島市,西条本町１７番９号,,34,212,7390011,,,,,,,2022-02-03,1,,,,,アイフィットグループユリカゴ,0
1857,7250001019396,新規,0,2022-02-03,2022-02-03,吉村工業株式会社,00125620,株式会社,山口県,岩国市,玖珂町３１９番地２,,35,208,7420344,,,,,,,2022-02-03,1,,,,,ヨシムラコウギョウ,0
1858,7250003003002,新規,0,2022-02-03,2022-02-03,合同会社まだ,,合同会社,山口県,山口市,小郡新町１丁目１７番１２号,,35,203,7540031,,,,,,,2022-02-03,1,,,,,マダ,0
1870,7290001096333,新規,0,2022-02-03,2022-02-03,株式会社Ｂｅａｔｒｉｚ,,株式会社,福岡県,福岡市中央区,大手門１丁目８番５号,,40,133,8100074,,,,,,,2022-02-03,1,,,,,ベアトリス,0
1879,7320003003721,新規,0,2022-02-03,2022-02-03,合同会社くくり罠専門店Ｙワールド,,合同会社,大分県,大分市,永興１丁目１４番２１号,,44,201,8700883,,,,,,,2022-02-03,1,,,,,ククリワナセンモンテンワイワールド,0
1880,7330001029412,新規,0,2022-02-03,2022-02-03,株式会社熊本企画,,株式会社,熊本県,上益城郡益城町,大字福富１１１５番地７,,43,443,8612235,,,,,,,2022-02-03,1,,,,,クマモトキカク,0
1885,7370001048169,新規,0,2022-02-03,2022-02-03,株式会社ライフアラウンド,,株式会社,宮城県,仙台市宮城野区,二の森１１番８号,,04,102,9830838,,,,,,,2022-02-03,1,,,,,ライフアラウンド,0
1886,7370001048177,新規,0,2022-02-03,2022-02-03,株式会社Ｍ’ｓ　ｇｒｏｗｉｎｇ,,株式会社,宮城県,仙台市青葉区,本町２丁目１９番１８号,,04,101,9800014,,,,,,,2022-02-03,1,,,,,エムズグローイング,0
1895,7390001016776,新規,0,2022-02-03,2022-02-03,金子仮設株式会社,,株式会社,山形県,東置賜郡高畠町,大字糠野目１４４２番地,,06,381,9992176,,,,,,,2022-02-03,1,,,,,カネコカセツ,0
1900,7400001015768,新規,0,2022-02-03,2022-02-03,株式会社ゴールデン・紅,,株式会社,岩手県,奥州市,水沢中町１番２４号２階,,03,215,0230813,,,,,,,2022-02-03,1,,,,,ゴールデンベニ,0
1903,7410003003613,新規,0,2022-02-03,2022-02-03,合同会社サイトウ経営労務,,合同会社,秋田県,湯沢市,駒形町字三又明戸８９番地,,05,207,0120104,,,,,,,2022-02-03,1,,,,,サイトウケイエイロウム,0
1908,7430001085932,新規,0,2022-02-03,2022-02-03,株式会社プラネット,,株式会社,北海道,札幌市東区,東苗穂十三条２丁目１３番１号,,01,103,0070813,,,,,,,2022-02-03,1,,,,,プラネット,0
1911,7440001009023,新規,0,2022-02-03,2022-02-03,ＭＹＧ株式会社,,株式会社,北海道,函館市,亀田町２０番１８号,,01,202,0400072,,,,,,,2022-02-03,1,,,,,エムワイジー,0
1913,7450005004325,新規,0,2022-02-03,2022-02-03,一般社団法人いろたまセラピー協会,,その他の設立登記法人,北海道,空知郡中富良野町,西町６番２５号,,01,461,0710761,,,,,,,2022-02-03,1,,,,,イロタマセラピーキョウカイ,0
1914,7460103001421,新規,0,2022-02-03,2022-02-03,合同会社ＣＡＴＡＤＯＯＲ,,合同会社,北海道,広尾郡大樹町,幸町１０番地１０５,,01,641,0892154,,,,,,,2022-02-03,1,,,,,カタドル,0
1936,8010001224283,新規,0,2022-02-03,2022-02-03,株式会社ＫＭＣ,,株式会社,東京都,中央区,日本橋蛎殻町２丁目１１番２号オートエックス工藤ビル４Ｆ,,13,102,1030014,,,,,,,2022-02-03,1,,,,,ケーエムシー,0
1937,8010001224300,新規,0,2022-02-03,2022-02-03,一明治一健康株式会社,,株式会社,東京都,中央区,東日本橋２丁目２８番５号５０９,,13,102,1030004,,,,,,,2022-02-03,1,,,,,イチメイジイチケンコウ,0
1938,8010001224325,新規,0,2022-02-03,2022-02-03,株式会社ＹＯＬＯ,,株式会社,東京都,千代田区,神田佐久間町１丁目１４第２東ビル３０３,,13,101,1010025,,,,,,,2022-02-03,1,,,,,ワイオーエルオー,0
1943,8010003036891,新規,0,2022-02-03,2022-02-03,ジェイコアレジ５合同会社６,,合同会社,東京都,千代田区,丸の内３丁目１番１号東京共同会計事務所内,,13,101,1000005,,,,,,,2022-02-03,1,,,,,ジェイコアレジファイブロク,0
1952,8010401165367,新規,0,2022-02-03,2022-02-03,株式会社梅木商店,,株式会社,東京都,港区,北青山２丁目１２番１２号,,13,103,1070061,,,,,,,2022-02-03,1,,,,,ウメキショウテン,0
1953,8010401165375,新規,0,2022-02-03,2022-02-03,オーガニックプレス株式会社,,株式会社,東京都,港区,麻布十番１丁目２番７号ラフィネ麻布十番７０１号室,,13,103,1060045,,,,,,,2022-02-03,1,,,,,オーガニックプレス,0
1956,8010403027037,新規,0,2022-02-03,2022-02-03,合同会社保育園みらいファンド３,,合同会社,東京都,港区,元赤坂１丁目１番８号赤坂コミュニティビル４階,,13,103,1070051,,,,,,,2022-02-03,1,,,,,ホイクエンミライファンドスリー,0
1957,8010501048414,新規,0,2022-02-03,2022-02-03,株式会社Ｆｅｌｉｃｅ,,株式会社,東京都,台東区,松が谷４丁目２０番地８号アイコート松が谷１００１号室,,13,106,1110036,,,,,,,2022-02-03,1,,,,,フェリーチェ,0
1959,8010503006493,新規,0,2022-02-03,2022-02-03,Ｂｅｙｏｎｄ８合同会社,,合同会社,東京都,台東区,東上野５丁目６番１－１７０１号Ｂｒｉｌｌｉａ上野Ｇａｒｄｅｎ,,13,106,1100015,,,,,,,2022-02-03,1,,,,,ビヨンドエイト,0
1967,8010903007125,新規,0,2022-02-03,2022-02-03,合同会社キーウエスト,,合同会社,東京都,世田谷区,給田２丁目１５番２２号,,13,112,1570064,,,,,,,2022-02-03,1,,,,,キーウエスト,0
1974,8011001145370,新規,0,2022-02-03,2022-02-03,株式会社ＦＫ,,株式会社,東京都,渋谷区,上原１丁目３６番１０号,,13,113,1510064,,,,,,,2022-02-03,1,,,,,エフケイ,0
1975,8011001145412,新規,0,2022-02-03,2022-02-03,株式会社ｃａｕｓｅ　ａｇｅｎｔ,,株式会社,東京都,渋谷区,渋谷３丁目６番２号エクラート渋谷５Ｆ,,13,113,1500002,,,,,,,2022-02-03,1,,,,,コーズエージェント,0
1976,8011001145429,新規,0,2022-02-03,2022-02-03,神楽坂パートナーズ株式会社,,株式会社,東京都,渋谷区,神宮前６丁目２３番４号桑野ビル２階,,13,113,1500001,,,,,,,2022-02-03,1,,,,,カグラザカパートナーズ,0
1977,8011001145437,新規,0,2022-02-03,2022-02-03,株式会社Ｂａｌｌｅｒ,,株式会社,東京都,渋谷区,円山町１５番４号近藤ビル６Ｆ,,13,113,1500044,,,,,,,2022-02-03,1,,,,,ボウラー,0
1980,8011003014020,新規,0,2022-02-03,2022-02-03,ドラネコキャピタル合同会社,,合同会社,東京都,目黒区,目黒本町６丁目１９番１４－１０４号インペリアルコート目黒,,13,110,1520002,,,,,,,2022-02-03,1,,,,,ドラネコキャピタル,0
1981,8011003014094,新規,0,2022-02-03,2022-02-03,ＡｉｒＴｒｕｎｋ　Ｊａｐａｎ　Ｈｏｌｄｉｎｇ４合同会社,,合同会社,東京都,渋谷区,円山町３番６号Ｅ・スペースタワー,,13,113,1500044,,,,,,,2022-02-03,1,,,,,エアートランクジャパンホールディングフォー,0
1982,8011003014103,新規,0,2022-02-03,2022-02-03,合同会社８ｍｏｍｅｎｔｓ,,合同会社,東京都,渋谷区,神宮前２丁目２０番１２号,,13,113,1500001,,,,,,,2022-02-03,1,,,,,エイトモーメンツ,0
1987,8011201023608,新規,0,2022-02-03,2022-02-03,株式会社クルック,,株式会社,東京都,中野区,本町５丁目４５番３号フォーチュン中野本町１階,,13,114,1640012,,,,,,,2022-02-03,1,,,,,クルック,0
1991,8011501027721,新規,0,2022-02-03,2022-02-03,株式会社あまみつつき,,株式会社,東京都,荒川区,東尾久６丁目３６番９－２０１号,,13,118,1160012,,,,,,,2022-02-03,1,,,,,アマミツツキ,0
1997,8011801040291,新規,0,2022-02-03,2022-02-03,株式会社ＹＡＭＡＧＩＳＨＩ,,株式会社,東京都,足立区,西新井７丁目４番９－５０２号,,13,121,1230841,,,,,,,2022-02-03,1,,,,,ヤマギシ,0
1999,8012401038825,新規,0,2022-02-03,2022-02-03,宇恵野工業株式会社,,株式会社,東京都,三鷹市,上連雀６丁目９番１２号,,13,204,1810012,,,,,,,2022-02-03,1,,,,,ウエノコウギョウ,0
2000,8012701016919,新規,0,2022-02-03,2022-02-03,ＢｅｅＬｉｎｅ株式会社,,株式会社,東京都,東久留米市,南沢２丁目２０番１３号,,13,222,2030023,,,,,,,2022-02-03,1,,,,,ビーライン,0
2001,8013301048633,新規,0,2022-02-03,2022-02-03,株式会社Ｌａｐｉｓｔａｒ,,株式会社,東京都,豊島区,東池袋１丁目３５番１１号,,13,116,1700013,,,,,,,2022-02-03,1,,,,,ラピスター,0
2005,8020001145090,新規,0,2022-02-03,2022-02-03,株式会社ＭＡＸ,,株式会社,神奈川県,横浜市都筑区,南山田２丁目１２番１６号,,14,118,2240029,,,,,,,2022-02-03,1,,,,,マックス,0
2006,8020001145099,新規,0,2022-02-03,2022-02-03,株式会社Ｌｉｇｈｔｈｏｕｓｅ,,株式会社,神奈川県,横浜市南区,庚台２２番地１２,,14,105,2320008,,,,,,,2022-02-03,1,,,,,ライトハウス,0
2015,8021005012434,新規,0,2022-02-03,2022-02-03,一般社団法人ライフコーチング協会,,その他の設立登記法人,神奈川県,鎌倉市,大町１丁目１番１４号ＨＡＴＳＵ鎌倉３Ｆ,,14,204,2480007,,,,,,,2022-02-03,1,,,,,ライフコーチングキョウカイ,0
2021,8030003018756,新規,0,2022-02-03,2022-02-03,合同会社ＦｉｓＯ,,合同会社,埼玉県,新座市,栗原４丁目３番３５号,,11,230,3520035,,,,,,,2022-02-03,1,,,,,フィスオ,0
2022,8030003018789,新規,0,2022-02-03,2022-02-03,響合同会社,,合同会社,埼玉県,上尾市,大字菅谷２３番地３,,11,219,3620003,,,,,,,2022-02-03,1,,,,,ヒビキ,0
2036,8040003019381,新規,0,2022-02-03,2022-02-03,合同会社ＣＩＰＨＥＲ,,合同会社,千葉県,浦安市,富士見２丁目９番７号エスポワール（１０２）,,12,227,2790043,,,,,,,2022-02-03,1,,,,,サイファー,0
2037,8040003019407,新規,0,2022-02-03,2022-02-03,合同会社ラピード,,合同会社,千葉県,松戸市,常盤平４丁目６－３番地,,12,207,2702261,,,,,,,2022-02-03,1,,,,,ラピード,0
2038,8040003019423,新規,0,2022-02-03,2022-02-03,合同会社グランデ,,合同会社,千葉県,松戸市,根本４６１番地,,12,207,2710077,,,,,,,2022-02-03,1,,,,,グランデ,0
2039,8040003019431,新規,0,2022-02-03,2022-02-03,ダイナミクス合同会社,,合同会社,千葉県,市川市,関ケ島９番４号,,12,203,2720105,,,,,,,2022-02-03,1,,,,,ダイナミクス,0
2044,8050001050569,新規,0,2022-02-03,2022-02-03,株式会社ＵＤワーク,,株式会社,茨城県,つくば市,竹園２丁目２０番地５,,08,220,3050032,,,,,,,2022-02-03,1,,,,,ユーディーワーク,0
2045,8060001034546,新規,0,2022-02-03,2022-02-03,株式会社コバヤシ,,株式会社,栃木県,宇都宮市,宝木町２丁目８１０番地,,09,201,3200061,,,,,,,2022-02-03,1,,,,,コバヤシ,0
2047,8070001038901,新規,0,2022-02-03,2022-02-03,株式会社協正ホールディングス,,株式会社,群馬県,藤岡市,東平井１４１０番地３,,10,209,3750043,,,,,,,2022-02-03,1,,,,,キョウセイホールディングス,0
2048,8070001038918,新規,0,2022-02-03,2022-02-03,株式会社Ｃｏｎｇｏｏｄ,,株式会社,群馬県,高崎市,本郷町１９１６番地１,,10,202,3703334,,,,,,,2022-02-03,1,,,,,コングッド,0
2051,8080101023075,新規,0,2022-02-03,2022-02-03,株式会社スリーエフ,,株式会社,静岡県,富士宮市,山本３７７番地の１,,22,207,4180023,,,,,,,2022-02-03,1,,,,,スリーエフ,0
2052,8080101023083,新規,0,2022-02-03,2022-02-03,アクア工業株式会社,,株式会社,静岡県,沼津市,大岡２９６０番地の１１,,22,203,4100022,,,,,,,2022-02-03,1,,,,,アクアコウギョウ,0
2072,8120001243578,新規,0,2022-02-03,2022-02-03,スカイ不動産株式会社,,株式会社,大阪府,大阪市中央区,東高麗橋４番３号ＴＫＧ．ＢＬＤ３０４号室,,27,128,5400039,,,,,,,2022-02-03,1,,,,,スカイフドウサン,0
2073,8120001243586,新規,0,2022-02-03,2022-02-03,株式会社カーボンニュートラル,,株式会社,大阪府,大阪市北区,梅田１丁目２番２号大阪駅前第２ビル２階５－６号室,,27,127,5300001,,,,,,,2022-02-03,1,,,,,カーボンニュートラル,0
2074,8120001243594,新規,0,2022-02-03,2022-02-03,株式会社ＵＡＣ－ＳＥＲＶＩＣＥ,,株式会社,大阪府,大阪市西区,千代崎１丁目５番１１－５０２号,,27,106,5500023,,,,,,,2022-02-03,1,,,,,ユーエーシーサービス,0
2075,8120001243628,新規,0,2022-02-03,2022-02-03,ＭＢデザイン株式会社,,株式会社,大阪府,大阪市北区,梅田１丁目１番３号大阪駅前第３ビル２９階１－１－１号室,,27,127,5300001,,,,,,,2022-02-03,1,,,,,エムビーデザイン,0
2079,8120005022747,新規,0,2022-02-03,2022-02-03,特定非営利活動法人ＣＬＩＬ教員研修研究所,,その他の設立登記法人,大阪府,大阪市港区,田中１丁目１３番５号,,27,107,5520005,,,,,,,2022-02-03,1,,,,,クリルキョウインケンシュウケンキュウジョ,0
2094,8130001071045,新規,0,2022-02-03,2022-02-03,株式会社京都丹波カントリー,,株式会社,京都府,南丹市,八木町北屋賀焼石３０番地,,26,213,6290131,,,,,,,2022-02-03,1,,,,,キョウトタンバカントリー,0
2095,8130001071061,新規,0,2022-02-03,2022-02-03,ロイヤル・ワン不動産株式会社,,株式会社,京都府,京都市左京区,北白川上終町１１番地２,,26,103,6068252,,,,,,,2022-02-03,1,,,,,ロイヤルワンフドウサン,0
2096,8130001071078,新規,0,2022-02-03,2022-02-03,株式会社三都建築工房,,株式会社,京都府,京都市左京区,松ケ崎小脇町１番地５,,26,103,6060957,,,,,,,2022-02-03,1,,,,,サントケンチクコウボウ,0
2108,8140001124768,新規,0,2022-02-03,2022-02-03,中広工業株式会社,,株式会社,兵庫県,三木市,別所町下石野１１０８番地の４６,,28,215,6730453,,,,,,,2022-02-03,1,,,,,ナカヒロコウギョウ,0
2109,8140001124792,新規,0,2022-02-03,2022-02-03,ＩＭＵ設備株式会社,,株式会社,兵庫県,尼崎市,食満７丁目２９番１号,,28,202,6610982,,,,,,,2022-02-03,1,,,,,アイエムユーセツビ,0
2110,8140001124801,新規,0,2022-02-03,2022-02-03,株式会社田尻農園,,株式会社,兵庫県,加東市,長貞７１８,,28,228,6731304,,,,,,,2022-02-03,1,,,,,,0
2111,8140001124826,新規,0,2022-02-03,2022-02-03,株式会社リターン,,株式会社,兵庫県,神戸市西区,北山台３丁目１６番７号,,28,111,6512215,,,,,,,2022-02-03,1,,,,,リターン,0
2113,8140003017318,新規,0,2022-02-03,2022-02-03,合同会社颯,,合同会社,兵庫県,神戸市垂水区,桃山台２丁目１２番地の１９,,28,108,6550854,,,,,,,2022-02-03,1,,,,,ハヤテ,0
2116,8150001025305,新規,0,2022-02-03,2022-02-03,あすかファーム株式会社,,株式会社,奈良県,高市郡明日香村,大字真弓１６０４番地の２,,29,402,6340137,,,,,,,2022-02-03,1,,,,,アスカファーム,0
2119,8160001023976,新規,0,2022-02-03,2022-02-03,株式会社ＦＬＯＷＥＲ,,株式会社,滋賀県,野洲市,冨波乙７９８番地５,,25,210,5202352,,,,,,,2022-02-03,1,,,,,フラワー,0
2121,8160005011036,新規,0,2022-02-03,2022-02-03,一般社団法人リタワークス,,その他の設立登記法人,滋賀県,彦根市,西今町３０２番地４,,25,202,5220054,,,,,,,2022-02-03,1,,,,,リタワークス,0
2122,8170005006943,新規,0,2022-02-03,2022-02-03,フレックス協同組合,,その他の設立登記法人,和歌山県,新宮市,佐野２丁目２番３２号,,30,207,6470071,,,,,,,2022-02-03,1,,,,,フレックス,0
2128,8180001149794,新規,0,2022-02-03,2022-02-03,株式会社スタンドホールディングス,,株式会社,愛知県,名古屋市中区,新栄２丁目１４番１６号ＣＯＵＬＥＵＲＳ　ＲＥＳＯＲＴ１階Ｄ号室,,23,106,4600007,,,,,,,2022-02-03,1,,,,,スタンドホールディングス,0
2129,8180001149836,新規,0,2022-02-03,2022-02-03,株式会社ｉｄｅｉｎ,,株式会社,愛知県,名古屋市熱田区,白鳥２丁目７番１２号,,23,109,4560035,,,,,,,2022-02-03,1,,,,,イデイン,0
2137,8180301035892,新規,0,2022-02-03,2022-02-03,株式会社ＹＲメディカルサービス,,株式会社,愛知県,岡崎市,竜美南４丁目７番地７,,23,202,4440874,,,,,,,2022-02-03,1,,,,,ワイアールメディカルサービス,0
2138,8180301035901,新規,0,2022-02-03,2022-02-03,司工房株式会社,,株式会社,愛知県,碧南市,宮町１丁目２０番地,,23,209,4470835,,,,,,,2022-02-03,1,,,,,ツカサコウボウ,0
2143,8190001029087,新規,0,2022-02-03,2022-02-03,株式会社ＣＬＡＹ　Ｌａｂ,,株式会社,三重県,伊賀市,ゆめが丘１丁目３番地３,,24,216,5180131,,,,,,,2022-02-03,1,,,,,クレイラボ,0
2146,8190003003890,新規,0,2022-02-03,2022-02-03,オフィスＭ合同会社,,合同会社,三重県,桑名市,多度町柚井１６４８番地１,,24,205,5110101,,,,,,,2022-02-03,1,,,,,オフィスエム,0
2151,8200001039720,新規,0,2022-02-03,2022-02-03,株式会社エスエスシー,,株式会社,岐阜県,美濃加茂市,下米田町信友３７７番地の１,,21,211,5050013,,,,,,,2022-02-03,1,,,,,エスエスシー,0
2152,8200003005448,新規,0,2022-02-03,2022-02-03,合同会社ソーリスエテラ,,合同会社,岐阜県,岐阜市,玉姓町１丁目２２－５足立ビル４Ｆ,,21,201,5008846,,,,,,,2022-02-03,1,,,,,ソーリスエテラ,0
2160,8230003001799,新規,0,2022-02-03,2022-02-03,合同会社井川クリニックサテライト,,合同会社,富山県,高岡市,大坪町１丁目２番３号,,16,202,9330918,,,,,,,2022-02-03,1,,,,,イガワクリニックサテライト,0
2164,8240001059285,新規,0,2022-02-03,2022-02-03,株式会社克己復礼,,株式会社,広島県,福山市,神辺町字平野４１番地１,,34,207,7202116,,,,,,,2022-02-03,1,,,,,コッキフクレイ,0
2165,8240003005485,新規,0,2022-02-03,2022-02-03,合同会社法務経営研究所,,合同会社,広島県,広島市南区,東雲２丁目１８番１３号,,34,103,7340022,,,,,,,2022-02-03,1,,,,,ホウムケイエイケンキュウショ,0
2166,8240005015326,新規,0,2022-02-03,2022-02-03,一般社団法人地域スポーツコミュニティネット,,その他の設立登記法人,広島県,広島市中区,南千田東町１番２５－１０３号,,34,101,7300054,,,,,,,2022-02-03,1,,,,,チイキスポーツコミュニティネット,0
2168,8260001036480,新規,0,2022-02-03,2022-02-03,株式会社ｈａｌｍ,,株式会社,岡山県,岡山市北区,田中６０５番地２,,33,101,7000951,,,,,,,2022-02-03,1,,,,,ハルム,0
2169,8260001036489,新規,0,2022-02-03,2022-02-03,株式会社ＴＣカンパニー,,株式会社,岡山県,笠岡市,三番町４番地５,,33,205,7140084,,,,,,,2022-02-03,1,,,,,ティーシーカンパニー,0
2172,8290001096324,新規,0,2022-02-03,2022-02-03,株式会社ＯｔｔＯ響育社,,株式会社,福岡県,春日市,上白水７丁目２２番地３,,40,218,8160844,,,,,,,2022-02-03,1,,,,,オットーキョウイクシャ,0
2173,8290001096340,新規,0,2022-02-03,2022-02-03,株式会社Ｃｉｒｃｌｅ　ａｉｄ,,株式会社,福岡県,糸島市,富７０２番地１５,,40,230,8191133,,,,,,,2022-02-03,1,,,,,サークルエイド,0
2174,8290001096349,新規,0,2022-02-03,2022-02-03,おうえん株式会社,,株式会社,福岡県,福岡市博多区,金の隈２丁目１１番１３号,,40,132,8120863,,,,,,,2022-02-03,1,,,,,オウエン,0
2175,8290005018555,新規,0,2022-02-03,2022-02-03,一般財団法人みらいの医療,,その他の設立登記法人,福岡県,福岡市中央区,天神１丁目９番１７号,,40,133,8100001,,,,,,,2022-02-03,1,,,,,ミライノイリョウ,0
2176,8290801028229,新規,0,2022-02-03,2022-02-03,株式会社ノマズ,,株式会社,福岡県,北九州市小倉南区,葛原本町３丁目１１番１０－１号,,40,107,8000253,,,,,,,2022-02-03,1,,,,,ノマズ,0
2179,8310001017698,新規,0,2022-02-03,2022-02-03,株式会社タカマサファーム,,株式会社,長崎県,雲仙市,国見町神代甲１１０８番地,,42,213,8591301,,,,,,,2022-02-03,1,,,,,タカマサファーム,0
2185,8320001018877,新規,0,2022-02-03,2022-02-03,ミネルバ株式会社,,株式会社,大分県,別府市,大字南立石１１６９番地の１,,44,202,8740000,,,,,,,2022-02-03,1,,,,,ミネルバ,0
2186,8320003003720,新規,0,2022-02-03,2022-02-03,合同会社ＧＯＮＳ,,合同会社,大分県,大分市,中央町３丁目６番３４号植木ビル１Ｆあかね家,,44,201,8700035,,,,,,,2022-02-03,1,,,,,ゴンズ,0
2187,8330001029411,新規,0,2022-02-03,2022-02-03,株式会社ＶＩＲＡＬ,,株式会社,熊本県,合志市,幾久富１７５８番地７６,,43,216,8611112,,,,,,,2022-02-03,1,,,,,ヴァイラル,0
2190,8340001024469,新規,0,2022-02-03,2022-02-03,大広電機株式会社,,株式会社,鹿児島県,鹿児島市,清水町１２番２７号,,46,201,8920802,,,,,,,2022-02-03,1,,,,,ダイコウデンキ,0
2193,8370001048168,新規,0,2022-02-03,2022-02-03,株式会社仙台ＦＰ不動産,,株式会社,宮城県,仙台市若林区,新寺１丁目６番８－３０８号,,04,103,9840051,,,,,,,2022-02-03,1,,,,,センダイエフピーフドウサン,0
2194,8370001048176,新規,0,2022-02-03,2022-02-03,株式会社ＷＭ,,株式会社,宮城県,仙台市青葉区,一番町４丁目１番７号,,04,101,9800811,,,,,,,2022-02-03,1,,,,,ダブリューエム,0
2197,8390001016775,新規,0,2022-02-03,2022-02-03,株式会社ＥＳＣＡＲＧＯＴ,,株式会社,山形県,山形市,みはらしの丘１丁目３番地１,,06,201,9902317,,,,,,,2022-02-03,1,,,,,エスカルゴ,0
2210,8430001085923,新規,0,2022-02-03,2022-02-03,株式会社フリーハウス,,株式会社,北海道,札幌市中央区,南九条西４丁目１番１０号,,01,101,0640809,,,,,,,2022-02-03,1,,,,,フリーハウス,0
2213,8430003013601,新規,0,2022-02-03,2022-02-03,合同会社Ｄ‐ｍｅｔａ,,合同会社,北海道,札幌市北区,新川二条２丁目９－２２,,01,102,0010922,,,,,,,2022-02-03,1,,,,,ディーメタ,0
2220,8450005004324,新規,0,2022-02-03,2022-02-03,特定非営利活動法人雄武町パークゴルフ協会,,その他の設立登記法人,北海道,紋別郡雄武町,字雄武３２８番地の２,,01,563,0981702,,,,,,,2022-02-03,1,,,,,オウムチョウパークゴルフキョウカイ,0
2224,8480001011643,新規,0,2022-02-03,2022-02-03,株式会社鳴門屋,,株式会社,徳島県,鳴門市,撫養町斎田字東発１６番地６,,36,202,7720002,,,,,,,2022-02-03,1,,,,,ナルトヤ,0
2225,8490003001625,新規,0,2022-02-03,2022-02-03,ＬＩＶＥ＆ＬＥＡＲＮ合同会社,,合同会社,高知県,高知市,横浜新町４丁目２１０３番地,,39,201,7810241,,,,,,,2022-02-03,1,,,,,リヴアンドラーン,0
2226,8500001023982,新規,0,2022-02-03,2022-02-03,東温音響株式会社,,株式会社,愛媛県,東温市,横河原３５５番地１０３,,38,215,7910203,,,,,,,2022-02-03,1,,,,,トウオンオンキョウ,0
2248,9010001224340,新規,0,2022-02-03,2022-02-03,株式会社ファーストベース,,株式会社,東京都,中央区,八丁堀２丁目２１番５号,,13,102,1040032,,,,,,,2022-02-03,1,,,,,ファーストベース,0
2252,9010003036890,新規,0,2022-02-03,2022-02-03,ジェイコアレジ５合同会社９,,合同会社,東京都,千代田区,丸の内３丁目１番１号東京共同会計事務所内,,13,101,1000005,,,,,,,2022-02-03,1,,,,,ジェイコアレジファイブキュー,0
2260,9010401165366,新規,0,2022-02-03,2022-02-03,株式会社インターライド,,株式会社,東京都,港区,虎ノ門５丁目１１番１５号,,13,103,1050001,,,,,,,2022-02-03,1,,,,,インターライド,0
2261,9010401165374,新規,0,2022-02-03,2022-02-03,ｄｉｖｉ株式会社,,株式会社,東京都,港区,北青山３丁目１－６,,13,103,1070061,,,,,,,2022-02-03,1,,,,,ディビ,0
2265,9010403027003,新規,0,2022-02-03,2022-02-03,合同会社ＤＤ,,合同会社,東京都,港区,六本木２丁目２番１１－４０３号,,13,103,1060032,,,,,,,2022-02-03,1,,,,,ディーディー,0
2267,9010701042174,新規,0,2022-02-03,2022-02-03,ＶＯＧＵＥ株式会社,,株式会社,東京都,品川区,大崎２丁目９番２－２８１４号,,13,109,1410032,,,,,,,2022-02-03,1,,,,,ヴォーグ,0
2272,9010901050290,新規,0,2022-02-03,2022-02-03,株式会社観照舎,,株式会社,東京都,世田谷区,下馬５丁目３４番３－３０４号,,13,112,1540002,,,,,,,2022-02-03,1,,,,,カンショウシャ,0
2279,9011001145394,新規,0,2022-02-03,2022-02-03,フィッシュ・アンド・プラネット株式会社,,株式会社,東京都,渋谷区,広尾５丁目９番２０号,,13,113,1500012,,,,,,,2022-02-03,1,,,,,フィッシュアンドプラネット,0
2280,9011001145460,新規,0,2022-02-03,2022-02-03,らっこ株式会社,,株式会社,東京都,渋谷区,宇田川町１番１２－２３０２号,,13,113,1500042,,,,,,,2022-02-03,1,,,,,ラッコ,0
2281,9011003014102,新規,0,2022-02-03,2022-02-03,合同会社ｏｎｅ　ｆｌｏｗ,,合同会社,東京都,目黒区,碑文谷６丁目１番２５号渡辺ビル２０１,,13,110,1520003,,,,,,,2022-02-03,1,,,,,ワンフロー,0
2283,9011101097643,新規,0,2022-02-03,2022-02-03,株式会社いろどり,,株式会社,東京都,新宿区,西新宿３丁目３番１３号西新宿水間ビル６階,,13,104,1600023,,,,,,,2022-02-03,1,,,,,イロドリ,0
2284,9011101097692,新規,0,2022-02-03,2022-02-03,ブルートラック株式会社,,株式会社,東京都,新宿区,西新宿１丁目２５番１号,,13,104,1600023,,,,,,,2022-02-03,1,,,,,ブルートラック,0
2294,9011403003555,新規,0,2022-02-03,2022-02-03,マイアクシス合同会社,,合同会社,東京都,板橋区,舟渡１丁目１番２２－５０２号,,13,119,1740041,,,,,,,2022-02-03,1,,,,,マイアクシス,0
2295,9011501027729,新規,0,2022-02-03,2022-02-03,ＶＩＯＮ株式会社,,株式会社,東京都,荒川区,南千住５丁目３－１４－Ａ,,13,118,1160003,,,,,,,2022-02-03,1,,,,,ヴィオン,0
2298,9011701025020,新規,0,2022-02-03,2022-02-03,太子一家株式会社,,株式会社,東京都,江戸川区,上一色３丁目８－５レンタルオフィス百合１０３室,,13,123,1330041,,,,,,,2022-02-03,1,,,,,タイシイッカ,0
2299,9011703003057,新規,0,2022-02-03,2022-02-03,グローブ合同会社,,合同会社,東京都,江戸川区,東葛西５丁目１番１４号２０２号室,,13,123,1340084,,,,,,,2022-02-03,1,,,,,グローブ,0
2301,9011801040299,新規,0,2022-02-03,2022-02-03,株式会社ＡＲＫ　ＧＡＲＡＧＥ,,株式会社,東京都,足立区,花畑４丁目９番８号,,13,121,1210061,,,,,,,2022-02-03,1,,,,,アークガレージ,0
2304,9012401038824,新規,0,2022-02-03,2022-02-03,株式会社ｋｏｎｎ,,株式会社,東京都,武蔵野市,御殿山１丁目４番１８－１４０２号,,13,203,1800005,,,,,,,2022-02-03,1,,,,,コン,0
2316,9013305003303,新規,0,2022-02-03,2022-02-03,ＮＰＯ法人シーウィズ,,その他の設立登記法人,東京都,豊島区,東池袋４丁目５番１号エアライズタワー３２０９号,,13,116,1700013,,,,,,,2022-02-03,1,,,,,シーウィズ,0
2320,9020001145098,新規,0,2022-02-03,2022-02-03,株式会社武石架設,,株式会社,神奈川県,川崎市幸区,南加瀬４丁目５番１０－３０３号,,14,132,2120055,,,,,,,2022-02-03,1,,,,,タケイシカセツ,0
2327,9021001075079,新規,0,2022-02-03,2022-02-03,株式会社ＤａｎＧ,,株式会社,神奈川県,大和市,下鶴間１８０４番地７,,14,213,2420001,,,,,,,2022-02-03,1,,,,,ダン,0
2328,9021001075095,新規,0,2022-02-03,2022-02-03,株式会社健商,,株式会社,神奈川県,横須賀市,吉井２丁目６番２－２０３号,,14,201,2390804,,,,,,,2022-02-03,1,,,,,ケンショウ,0
2329,9021001075112,新規,0,2022-02-03,2022-02-03,ｉｄｅｍｉｃ株式会社,,株式会社,神奈川県,茅ヶ崎市,菱沼１丁目６番１５号,,14,207,2530011,,,,,,,2022-02-03,1,,,,,アイデミック,0
2336,9021003011370,新規,0,2022-02-03,2022-02-03,合同会社ハクチン,,合同会社,神奈川県,横須賀市,野比３丁目２１番１７－３０９,,14,201,2390841,,,,,,,2022-02-03,1,,,,,ハクチン,0
2337,9021005012433,新規,0,2022-02-03,2022-02-03,弁護士法人ＳＪ,,その他の設立登記法人,神奈川県,相模原市中央区,相模原２丁目１－５サトウビル５階,,14,152,2520231,,,,,,,2022-02-03,1,,,,,エスジェイ,0
2341,9030001146616,新規,0,2022-02-03,2022-02-03,株式会社アクア,,株式会社,埼玉県,東松山市,松葉町３丁目１０番１９号,,11,212,3550017,,,,,,,2022-02-03,1,,,,,アクア,0
2342,9030001146624,新規,0,2022-02-03,2022-02-03,株式会社千虎興業,,株式会社,埼玉県,川口市,坂下町２丁目１番１６号,,11,203,3340003,,,,,,,2022-02-03,1,,,,,セントラコウギョウ,0
2343,9030001146681,新規,0,2022-02-03,2022-02-03,株式会社ｌｉｂｒｅ,,株式会社,埼玉県,熊谷市,新堀３１６番地１,,11,202,3600841,,,,,,,2022-02-03,1,,,,,リーブル,0
2344,9030003018796,新規,0,2022-02-03,2022-02-03,合同会社アイディールケア,,合同会社,埼玉県,比企郡川島町,大字上大屋敷２７８番地１,,11,346,3500142,,,,,,,2022-02-03,1,,,,,アイディールケア,0
2351,9040001122038,新規,0,2022-02-03,2022-02-03,株式会社ＲＩＳＥ,,株式会社,千葉県,千葉市花見川区,長作町５９番地７０,,12,102,2620044,,,,,,,2022-02-03,1,,,,,ライズ,0
2352,9040001122095,新規,0,2022-02-03,2022-02-03,株式会社東旺ホールディングス,,株式会社,千葉県,千葉市中央区,末広３丁目２４番１０号,,12,101,2600843,,,,,,,2022-02-03,1,,,,,トウオウホールディングス,0
2353,9040003019406,新規,0,2022-02-03,2022-02-03,合同会社リブルーホーム,,合同会社,千葉県,習志野市,谷津５丁目５－１０－２Ｆ,,12,216,2750026,,,,,,,2022-02-03,1,,,,,リブルーホーム,0
2358,9050003006345,新規,0,2022-02-03,2022-02-03,合同会社Ｌａｆｕｌｌｉｅｎ,,合同会社,茨城県,つくばみらい市,絹の台５丁目３－５,,08,235,3002436,,,,,,,2022-02-03,1,,,,,ラフリアン,0
2366,9070001038900,新規,0,2022-02-03,2022-02-03,株式会社ＮＩＣＯ,,株式会社,群馬県,桐生市,新里町武井３９４番地３,,10,203,3760123,,,,,,,2022-02-03,1,,,,,ニコ,0
2367,9070001038909,新規,0,2022-02-03,2022-02-03,株式会社Ｌａｕｌｅ’ａ,,株式会社,群馬県,甘楽郡甘楽町,大字白倉８６６番地２,,10,384,3702213,,,,,,,2022-02-03,1,,,,,ラウレア,0
2368,9080001024734,新規,0,2022-02-03,2022-02-03,株式会社Ｍ．Ｆ．Ｔ,,株式会社,静岡県,静岡市駿河区,用宗４丁目１７番１０号３階,,22,102,4210122,,,,,,,2022-02-03,1,,,,,エムエフティー,0
2370,9080101023082,新規,0,2022-02-03,2022-02-03,株式会社岩間工業,,株式会社,静岡県,富士市,大淵８２３３番地,,22,210,4170801,,,,,,,2022-02-03,1,,,,,イワマコウギョウ,0
2373,9080401025605,新規,0,2022-02-03,2022-02-03,株式会社リバスタ,,株式会社,静岡県,浜松市浜北区,根堅５４番地の７,,22,136,4340016,,,,,,,2022-02-03,1,,,,,リバスタ,0
2374,9080401025613,新規,0,2022-02-03,2022-02-03,アオイ技研株式会社,,株式会社,静岡県,湖西市,新居町浜名４１８９番地の９,,22,221,4310303,,,,,,,2022-02-03,1,,,,,アオイギケン,0
2375,9100001035035,新規,0,2022-02-03,2022-02-03,株式会社ＣｏＴｏＹａ,,株式会社,長野県,長野市,吉田１丁目３番１６号２０１,,20,201,3810043,,,,,,,2022-02-03,1,,,,,コトヤ,0
2376,9100003006397,新規,0,2022-02-03,2022-02-03,宮坂ソーラー合同会社,,合同会社,長野県,茅野市,宮川７９３３番地１,,20,214,3910013,,,,,,,2022-02-03,1,,,,,ミヤサカソーラー,0
2377,9110001036420,新規,0,2022-02-03,2022-02-03,株式会社ＴＡＣ,,株式会社,新潟県,上越市,大字島田下新田８０番地の１,,15,222,9430852,,,,,,,2022-02-03,1,,,,,ティーエーシー,0
2384,9120001243602,新規,0,2022-02-03,2022-02-03,株式会社ラズアンドシー,,株式会社,大阪府,大阪市中央区,博労町２丁目４番７号タイケンビル１Ｆ－１１２号,,27,128,5410059,,,,,,,2022-02-03,1,,,,,ラズアンドシー,0
2385,9120001243610,新規,0,2022-02-03,2022-02-03,フルハウス株式会社,,株式会社,大阪府,大阪市北区,天神橋１丁目１８番１１－２０２号,,27,127,5300041,,,,,,,2022-02-03,1,,,,,フルハウス,0
2386,9120001243643,新規,0,2022-02-03,2022-02-03,株式会社Ａ＆Ａ,,株式会社,大阪府,大阪市北区,中津５丁目５番１１号,,27,127,5310071,,,,,,,2022-02-03,1,,,,,エーアンドエー,0
2405,9122003002267,新規,0,2022-02-03,2022-02-03,合同会社ひより,,合同会社,大阪府,柏原市,安堂町７６－１０,,27,221,5820016,,,,,,,2022-02-03,1,,,,,ヒヨリ,0
2416,9130003007731,新規,0,2022-02-03,2022-02-03,合同会社ＭＲ,,合同会社,京都府,京都市伏見区,深草大亀谷大山町２０番地３グランドハイツ石井２０４,,26,109,6120847,,,,,,,2022-02-03,1,,,,,エムアール,0
2423,9140001124775,新規,0,2022-02-03,2022-02-03,株式会社ｎａｌｕ,,株式会社,兵庫県,西宮市,田代町１０番６－１０４号,,28,204,6638201,,,,,,,2022-02-03,1,,,,,ナル,0
2424,9140001124791,新規,0,2022-02-03,2022-02-03,フルーツ株式会社,,株式会社,兵庫県,神戸市中央区,磯辺通４丁目１番２３号三宮ベンチャービル１０５,,28,110,6510084,,,,,,,2022-02-03,1,,,,,フルーツ,0
2425,9140001124817,新規,0,2022-02-03,2022-02-03,株式会社新栄設備,,株式会社,兵庫県,神戸市須磨区,妙法寺字堂ケ谷９０８番地の２－Ａ,,28,107,6540121,,,,,,,2022-02-03,1,,,,,シンエイセツビ,0
2426,9140003017309,新規,0,2022-02-03,2022-02-03,合同会社Ｇ‐ｓｔｏｒｅ,,合同会社,兵庫県,尼崎市,武庫之荘東２丁目３番２０号,,28,202,6610032,,,,,,,2022-02-03,1,,,,,ジーストア,0
2429,9150001025304,新規,0,2022-02-03,2022-02-03,株式会社イノシア,,株式会社,奈良県,奈良市,恋の窪３丁目８番３－２号,,29,201,6308136,,,,,,,2022-02-03,1,,,,,イノシア,0
2432,9160001023975,新規,0,2022-02-03,2022-02-03,株式会社Ｏｒａｎｇｅ　ｐｌｕｓ３４４,,株式会社,滋賀県,彦根市,長曽根町５番２６－２９号,,25,202,5220067,,,,,,,2022-02-03,1,,,,,オランジュプリュスミヨシ,0
2441,9180001149793,新規,0,2022-02-03,2022-02-03,株式会社ＲＡＮＳＳコンサルティング,,株式会社,愛知県,名古屋市東区,泉１丁目１８番３０号プラウドタワー名古屋久屋大通公園９０６号,,23,102,4610001,,,,,,,2022-02-03,1,,,,,ランスコンサルティング,0
2442,9180001149810,新規,0,2022-02-03,2022-02-03,Ｅｎｋｉ株式会社,,株式会社,愛知県,瀬戸市,八王子町７２番地の４,,23,204,4890024,,,,,,,2022-02-03,1,,,,,エンキ,0
2443,9180001149843,新規,0,2022-02-03,2022-02-03,株式会社永代アドバンス,,株式会社,愛知県,半田市,北末広町１０番地,,23,205,4750852,,,,,,,2022-02-03,1,,,,,エイタイアドバンス,0
2446,9180003023443,新規,0,2022-02-03,2022-02-03,合同会社サンタクローン,,合同会社,愛知県,長久手市,菖蒲池１００１番地４,,23,238,4801115,,,,,,,2022-02-03,1,,,,,サンタクローン,0
2451,9180301035900,新規,0,2022-02-03,2022-02-03,０９エンジニアオフィス株式会社,,株式会社,愛知県,刈谷市,小垣江町御茶屋下６３番地２７,,23,210,4480813,,,,,,,2022-02-03,1,,,,,ゼロキュウエンジニアオフィス,0
2457,9190001029086,新規,0,2022-02-03,2022-02-03,株式会社シンル,,株式会社,三重県,桑名市,大字西別所４９３番地,,24,205,5110851,,,,,,,2022-02-03,1,,,,,シンル,0
2458,9190001029094,新規,0,2022-02-03,2022-02-03,株式会社庭壱,,株式会社,三重県,名張市,桔梗が丘西４番町一街区１３番地,,24,208,5180644,,,,,,,2022-02-03,1,,,,,ニワイチ,0
2465,9230001019223,新規,0,2022-02-03,2022-02-03,株式会社ＨＬＴ,,株式会社,富山県,高岡市,荻布５３１番地２,,16,202,9330073,,,,,,,2022-02-03,1,,,,,ヒルト,0
2467,9240001059276,新規,0,2022-02-03,2022-02-03,株式会社ＩＯＩ保険企画,,株式会社,広島県,広島市安佐南区,大町東２丁目１４番３７－１号,,34,105,7310124,,,,,,,2022-02-03,1,,,,,アイオイホケンキカク,0
2469,9250001019386,新規,0,2022-02-03,2022-02-03,株式会社ＳＯＲＡ,,株式会社,山口県,岩国市,元町１丁目１番１７号ＤＥＭＩＯ元町１Ｆ，２Ｆ,,35,208,7400012,,,,,,,2022-02-03,1,,,,,ソラ,0
2471,9250003003000,新規,0,2022-02-03,2022-02-03,合同会社山本システム,,合同会社,山口県,山口市,秋穂東１１４５番地の１,,35,203,7541101,,,,,,,2022-02-03,1,,,,,ヤマモトシステム,0
2473,9260001036496,新規,0,2022-02-03,2022-02-03,株式会社サイドプラン,,株式会社,岡山県,岡山市南区,芳泉２丁目２番４１号,,33,104,7028027,,,,,,,2022-02-03,1,,,,,サイドプラン,0
2475,9280001008626,新規,0,2022-02-03,2022-02-03,ＷＯＲＫＥＲＳ．Ｋ株式会社,,株式会社,島根県,益田市,高津５丁目１９番１９号,,32,204,6980041,,,,,,,2022-02-03,1,,,,,ワーカーズケイ,0
2477,9290001096331,新規,0,2022-02-03,2022-02-03,ＮＳＮネクスト株式会社,,株式会社,福岡県,福岡市博多区,東光２丁目２番２２号第一ヒラノビル３階,,40,132,8120008,,,,,,,2022-02-03,1,,,,,エヌエスエヌネクスト,0
2478,9290003012121,新規,0,2022-02-03,2022-02-03,合同会社福岡県障がい者就労支援センター,,合同会社,福岡県,大野城市,白木原２丁目５番２５号,,40,219,8160943,,,,,,,2022-02-03,1,,,,,フクオカケンショウガイシャシュウロウシエンセンター,0
2485,9320001018876,新規,0,2022-02-03,2022-02-03,株式会社Ｉ’ｓ　ｃｏｎｓｕｌｔｉｎｇ,,株式会社,大分県,大分市,大字小池原１１１２番地の１ｂｅ・Ｌｉｖｅ２０３,,44,201,8700147,,,,,,,2022-02-03,1,,,,,アイズコンサルティング,0
2487,9340001024476,新規,0,2022-02-03,2022-02-03,株式会社フリーダム,,株式会社,鹿児島県,鹿児島市,上荒田町１４番３号シンフォニー上荒田１０１号,,46,201,8900055,,,,,,,2022-02-03,1,,,,,フリーダム,0
2488,9340003003701,新規,0,2022-02-03,2022-02-03,合同会社６１９,,合同会社,鹿児島県,鹿児島市,新屋敷町１６番４２５号,,46,201,8920838,,,,,,,2022-02-03,1,,,,,ロクイチキュウ,0
2493,9350003004021,新規,0,2022-02-03,2022-02-03,合同会社クロップウォッチ,,合同会社,宮崎県,西都市,大字南方８０６番地５,,45,208,8810027,,,,,,,2022-02-03,1,,,,,クロップウォッチ,0
2497,9370001048159,新規,0,2022-02-03,2022-02-03,株式会社ハーチ,,株式会社,宮城県,仙台市青葉区,八幡２丁目７番２１号,,04,101,9800871,,,,,,,2022-02-03,1,,,,,ハーチ,0
2498,9370001048167,新規,0,2022-02-03,2022-02-03,株式会社ワコー,,株式会社,宮城県,仙台市泉区,南光台７丁目２７－２０アヴァンセ南光台店舗１０２,,04,105,9818003,,,,,,,2022-02-03,1,,,,,ワコー,0
2509,9390001016774,新規,0,2022-02-03,2022-02-03,株式会社ＯＪＳ,,株式会社,山形県,山形市,千歳１丁目５番１７号,,06,201,9900812,,,,,,,2022-02-03,1,,,,,オージェーエス,0
2511,9390003001923,新規,0,2022-02-03,2022-02-03,ヒロホールディングス合同会社,,合同会社,山形県,山形市,城西町５丁目１１番５号,,06,201,9900832,,,,,,,2022-02-03,1,,,,,ヒロホールディングス,0
2519,9430003013600,新規,0,2022-02-03,2022-02-03,合同会社どりーむ,,合同会社,北海道,札幌市南区,藤野一条１０丁目５番２号,,01,106,0612281,,,,,,,2022-02-03,1,,,,,ドリーム,0
2520,9450001013609,新規,0,2022-02-03,2022-02-03,クリアキャンプ株式会社,,株式会社,北海道,旭川市,豊岡十三条５丁目７番２号,,01,204,0788243,,,,,,,2022-02-03,1,,,,,クリアキャンプ,0
2527,9480001011642,新規,0,2022-02-03,2022-02-03,株式会社出来島デジタルクラブ,,株式会社,徳島県,徳島市,出来島本町１丁目３８番地の３,,36,201,7700823,,,,,,,2022-02-03,1,,,,,デキジマデジタルクラブ,0
2528,9490001010107,新規,0,2022-02-03,2022-02-03,株式会社ＷｅｌｌＢｅｉｎｇ,,株式会社,高知県,高知市,はりまや町３丁目３番３号,,39,201,7800822,,,,,,,2022-02-03,1,,,,,ウェルビーイング,0
2532,9700150103011,新規,0,2022-02-03,2021-04-28,川目児童館運営委員会,,その他,秋田県,大仙市,大曲字諏訪田１０７番地２,,05,212,0140031,,,,,,,2021-04-28,1,,,,,カワノメジドウカンウンエイイインカイ,0
