sequenceNumber,corporateNumber,process,correct,updateDate,changeDate,name,nameImageId,kind,prefectureName,cityName,streetNumber,addressImageId,prefectureCode,cityCode,postCode,addressOutside,addressOutsideImageId,closeDate,closeCause,successorCorporateNumber,changeCause,assignmentDate,latest,enName,enPrefectureName,enCityName,enAddressOutside,furigana,hihyoji
15,1010503007374,新規,0,2024-03-15,2024-03-15,天勝合同会社,,合同会社,東京都,台東区,台東２丁目１７－５－７０２,,13,106,1100016,,,,,,,2024-03-15,1,,,,,テンカツ,0
19,1010701045705,新規,0,2024-03-15,2024-03-15,株式会社Ｄｉｖｉｓｉｏｎ　Ｇ,,株式会社,東京都,品川区,東五反田２丁目１９番１号９０２号室,,13,109,1410022,,,,,,,2024-03-15,1,,,,,ディヴィジョンジー,0
24,1010901054869,新規,0,2024-03-15,2024-03-15,株式会社Ｄ＆Ｋ,,株式会社,東京都,世田谷区,代沢５丁目３６番１５号島田ハイツ２０３,,13,112,1550032,,,,,,,2024-03-15,1,,,,,ディーアンドケー,0
26,1010903008889,新規,0,2024-03-15,2024-03-15,合同会社Ｔ＆Ｍ商事,,合同会社,東京都,世田谷区,弦巻５丁目１１番２－３０１号,,13,112,1540016,,,,,,,2024-03-15,1,,,,,ティーアンドエムショウジ,0
34,1011001160582,新規,0,2024-03-15,2024-03-15,株式会社Ｋｅｗａｉ,,株式会社,東京都,渋谷区,渋谷２丁目１９－１５宮益坂ビルディング６０９,,13,113,1500002,,,,,,,2024-03-15,1,,,,,ケワイ,0
35,1011001160640,新規,0,2024-03-15,2024-03-15,株式会社ＫＰＴＴ,,株式会社,東京都,渋谷区,渋谷２丁目１９番１５号宮益坂ビルディング６０９,,13,113,1500002,,,,,,,2024-03-15,1,,,,,ケーピーティーティー,0
41,1011101106568,新規,0,2024-03-15,2024-03-15,株式会社サードエステート,,株式会社,東京都,新宿区,高田馬場２丁目１４－１０上田ビル３階,,13,104,1690075,,,,,,,2024-03-15,1,,,,,サードエステート,0
42,1011103014208,新規,0,2024-03-15,2024-03-15,合同会社ＭＯ２,,合同会社,東京都,新宿区,新宿３丁目４番８号京王フレンテ新宿３丁目４０７,,13,104,1600022,,,,,,,2024-03-15,1,,,,,エムオーツー,0
43,1011301029494,新規,0,2024-03-15,2024-03-15,株式会社トワイム,,株式会社,東京都,杉並区,高円寺南４丁目２６番１９号高円寺ナショナルコート２０２,,13,115,1660003,,,,,,,2024-03-15,1,,,,,トワイム,0
44,1011403004305,新規,0,2024-03-15,2024-03-15,合同会社ザデイマインド,,合同会社,東京都,板橋区,徳丸３丁目１８番１７号フローラリア２０１,,13,119,1750083,,,,,,,2024-03-15,1,,,,,ザデイマインド,0
46,1011501030434,新規,0,2024-03-15,2024-03-15,株式会社Ｂａｓｅ　ｆｏｒ　Ｗｏｒｋｓ,,株式会社,東京都,荒川区,東日暮里４丁目２５番１－３０１号,,13,118,1160014,,,,,,,2024-03-15,1,,,,,ベースフォーワークス,0
53,1013301052212,新規,0,2024-03-15,2024-03-15,株式会社トレジャーループ,,株式会社,東京都,豊島区,巣鴨３丁目２２番９号カトウビル６０１,,13,116,1700002,,,,,,,2024-03-15,1,,,,,トレジャーループ,0
60,1020003025710,新規,0,2024-03-15,2024-03-15,ベリタス・ツーリズム・ジャパン合同会社,,合同会社,神奈川県,川崎市幸区,幸町３丁目５４７番地１グレイスガーデン多摩川４０４,,14,132,2120011,,,,,,,2024-03-15,1,,,,,ベリタスツーリズムジャパン,0
61,1020003025727,新規,0,2024-03-15,2024-03-15,合同会社ルミニア,,合同会社,神奈川県,横浜市西区,浅間町１丁目４番３号ウィザードビル４０２,,14,103,2200072,,,,,,,2024-03-15,1,,,,,ルミニア,0
62,1020003025735,新規,0,2024-03-15,2024-03-15,合同会社ジェリコーポレーション,,合同会社,神奈川県,横浜市泉区,緑園５丁目２１番地２６,,14,116,2450002,,,,,,,2024-03-15,1,,,,,ジェリコーポレーション,0
69,1021003014257,新規,0,2024-03-15,2024-03-15,合同会社ＮＣ,,合同会社,神奈川県,鎌倉市,十二所３０８番地７,,14,204,2480001,,,,,,,2024-03-15,1,,,,,エヌシー,0
76,1030001159154,新規,0,2024-03-15,2024-03-15,株式会社Ｂ‐ｆｏｒｔｈ,,株式会社,埼玉県,八潮市,大字大曽根４２７番地２,,11,234,3400834,,,,,,,2024-03-15,1,,,,,ビーフォース,0
77,1030001159179,新規,0,2024-03-15,2024-03-15,株式会社グラススタッフ,,株式会社,埼玉県,草加市,両新田東町８６番７－１０２号,,11,221,3400026,,,,,,,2024-03-15,1,,,,,グラススタッフ,0
78,1030001159204,新規,0,2024-03-15,2024-03-15,株式会社ＺＯＲＯ,,株式会社,埼玉県,さいたま市南区,大字円正寺２０５番地２塩原荘２０１,,11,108,3360043,,,,,,,2024-03-15,1,,,,,ゾロ,0
79,1030003023721,新規,0,2024-03-15,2024-03-15,合同会社ＬＳＰ,,合同会社,埼玉県,鴻巣市,鎌塚２丁目４－３山下邸１０１号室,,11,217,3690112,,,,,,,2024-03-15,1,,,,,エルエスピー,0
80,1030003023754,新規,0,2024-03-15,2024-03-15,合同会社ＡＬＥＳＴ,,合同会社,埼玉県,越谷市,七左町５丁目１００番地,,11,222,3430851,,,,,,,2024-03-15,1,,,,,アレスト,0
81,1030003023795,新規,0,2024-03-15,2024-03-15,合同会社ＥＳＩ　ＡＧＥＮＣＹ,,合同会社,埼玉県,秩父郡小鹿野町,両神薄２８０番地,,11,365,3680201,,,,,,,2024-03-15,1,,,,,イーエスアイエージェンシー,0
89,1040001132589,新規,0,2024-03-15,2024-03-15,株式会社Ｗ．Ａ＆Ｓ,,株式会社,千葉県,柏市,手賀７３５番地,,12,217,2701465,,,,,,,2024-03-15,1,,,,,ダブリュードットエーエス,0
90,1040001132614,新規,0,2024-03-15,2024-03-15,みらいファーム株式会社,,株式会社,千葉県,千葉市若葉区,西都賀５丁目８番２号,,12,104,2640026,,,,,,,2024-03-15,1,,,,,ミライファーム,0
92,1040003024495,新規,0,2024-03-15,2024-03-15,合同会社ＴｒａｎｓＡＩ,,合同会社,千葉県,市川市,二俣２丁目１４－１３オッツ西船橋１０５,,12,203,2720001,,,,,,,2024-03-15,1,,,,,トランスエーアイ,0
95,1050005013396,新規,0,2024-03-15,2024-03-15,一般社団法人楽招会,,その他の設立登記法人,茨城県,常陸大宮市,大岩７２番地,,08,225,3192418,,,,,,,2024-03-15,1,,,,,ラクショウカイ,0
101,1080101024583,新規,0,2024-03-15,2024-03-15,銘洋都京株式会社,,株式会社,静岡県,田方郡函南町,平井１７５３番１０４３ラッキークレスト１０３室,,22,325,4190107,,,,,,,2024-03-15,1,,,,,メイヨウトキョウ,0
102,1080101024591,新規,0,2024-03-15,2024-03-15,株式会社カワケンリゾート,,株式会社,静岡県,伊東市,宝町２番８号,,22,208,4140012,,,,,,,2024-03-15,1,,,,,カワケンリゾート,0
103,1080405007615,新規,0,2024-03-15,2024-03-15,一般社団法人Ｐｌａｔｏｏ,,その他の設立登記法人,静岡県,浜松市中央区,田町２２３番地の２１ビオラ田町３階,,22,138,4300944,,,,,,,2024-03-15,1,,,,,プラトー,0
105,1110003005323,新規,0,2024-03-15,2024-03-15,合同会社ユースフルライフ日装,,合同会社,新潟県,長岡市,十日町２０９番地,,15,202,9401131,,,,,,,2024-03-15,1,,,,,ユースフルライフニッソウ,0
116,1120001263095,新規,0,2024-03-15,2024-03-15,株式会社京佑,,株式会社,大阪府,大阪市生野区,巽北１丁目１番１号１Ｆ－Ｄ,00134073,27,116,5440004,,,,,,,2024-03-15,1,,,,,キョウユウ,0
117,1120003026145,新規,0,2024-03-15,2024-03-15,合同会社ＢＲＩＤＧＥ　ＧＲＯＷＮ,,合同会社,大阪府,大阪市平野区,加美北８丁目１３番２１号,,27,126,5470001,,,,,,,2024-03-15,1,,,,,ブリッジグロウン,0
118,1120003026161,新規,0,2024-03-15,2024-03-15,合同会社すずき,,合同会社,大阪府,枚方市,上島町７－１－３０５,,27,210,5731127,,,,,,,2024-03-15,1,,,,,スズキ,0
124,1120101069203,新規,0,2024-03-15,2024-03-15,株式会社大日ワークス,,株式会社,大阪府,堺市堺区,出島海岸通３丁６番１８号,,27,141,5900833,,,,,,,2024-03-15,1,,,,,ダイニチワークス,0
125,1120101069211,新規,0,2024-03-15,2024-03-15,株式会社Ｐｅａｃｅ,,株式会社,大阪府,羽曳野市,羽曳が丘９丁目２番２２号,,27,222,5830864,,,,,,,2024-03-15,1,,,,,ピース,0
128,1122003002828,新規,0,2024-03-15,2024-03-15,合同会社ＨＥＥＬ　ＯＶＥＲ,,合同会社,大阪府,柏原市,清州２丁目５番２１号,,27,221,5820006,,,,,,,2024-03-15,1,,,,,ヒールオーバー,0
138,1140001133668,新規,0,2024-03-15,2024-03-15,ＳＥＩＣＨＩ　ＮＥＴＷＯＲＫ株式会社,,株式会社,兵庫県,神戸市東灘区,住吉宮町６丁目１番２２号,,28,101,6580053,,,,,,,2024-03-15,1,,,,,セイチネットワーク,0
140,1150003003199,新規,0,2024-03-15,2024-03-15,ＳＨＩＮＲＡＩ合同会社,,合同会社,奈良県,御所市,柳田町３９９－３,,29,208,6392305,,,,,,,2024-03-15,1,,,,,シンライ,0
142,1150005009566,新規,0,2024-03-15,2024-03-15,ＮＰＯ法人えん,,その他の設立登記法人,奈良県,北葛城郡上牧町,大字上牧４０４４－６,,29,424,6390214,,,,,,,2024-03-15,1,,,,,エン,0
150,1180001160519,新規,0,2024-03-15,2024-03-15,株式会社Ｙ・Ｓ・Ｙ,,株式会社,愛知県,東海市,浅山３丁目１９６番地,,23,222,4760006,,,,,,,2024-03-15,1,,,,,ワイエスワイ,0
151,1180001160535,新規,0,2024-03-15,2024-03-15,加藤商事株式会社,,株式会社,愛知県,名古屋市港区,木場町６番７号ニューコーポ名南Ｂ－１１０３,,23,111,4550021,,,,,,,2024-03-15,1,,,,,カトウショウジ,0
152,1180001160543,新規,0,2024-03-15,2024-03-15,株式会社イエヤス,,株式会社,愛知県,名古屋市守山区,大字上志段味字東谷２０８６番地の９４,,23,113,4630001,,,,,,,2024-03-15,1,,,,,イエヤス,0
154,1180301038415,新規,0,2024-03-15,2024-03-15,株式会社イナ電工,,株式会社,愛知県,安城市,堀内町屋敷１５０番地１,,23,212,4441155,,,,,,,2024-03-15,1,,,,,イナデンコウ,0
158,1190005011915,新規,0,2024-03-15,2024-03-15,医療法人ＳａＫｕＲａ,,その他の設立登記法人,三重県,四日市市,智積町６７３２番地７,,24,202,5121212,,,,,,,2024-03-15,1,,,,,サクラ,0
161,1200001042251,新規,0,2024-03-15,2024-03-15,株式会社美濃龍窯,,株式会社,岐阜県,多治見市,笠原町４２９７番地の１０,,21,204,5070901,,,,,,,2024-03-15,1,,,,,ミノタツガマ,0
170,1240003006572,新規,0,2024-03-15,2024-03-15,合同会社Ｈａｎｄｌｅ,,合同会社,広島県,広島市安芸区,矢野南１丁目１３番８号,,34,107,7360086,,,,,,,2024-03-15,1,,,,,ハンドル,0
184,1290801030389,新規,0,2024-03-15,2024-03-15,株式会社ＫｅｙＷｅａｖｅ,,株式会社,福岡県,北九州市小倉北区,浅野３丁目８番１号ＡＩＭビル６階,,40,106,8020001,,,,,,,2024-03-15,1,,,,,キーウェーブ,0
185,1310001018901,新規,0,2024-03-15,2024-03-15,涼設計工房株式会社,,株式会社,長崎県,佐世保市,木場田町８－１７　１Ｆ,,42,202,8570041,,,,,,,2024-03-15,1,,,,,リョウセッケイコウボウ,0
191,1360001033334,新規,0,2024-03-15,2024-03-15,ＭＥＤメディカル株式会社,,株式会社,沖縄県,島尻郡与那原町,字東浜９４番地１,,47,348,9011304,,,,,,,2024-03-15,1,,,,,エムイーディーメディカル,0
192,1360003013771,新規,0,2024-03-15,2024-03-15,合同会社ＳＶＣ,,合同会社,沖縄県,那覇市,若狭２丁目１５－４ｆｏｒｕｍ２Ｆ,,47,201,9000031,,,,,,,2024-03-15,1,,,,,エスブイシ,0
193,1360003013796,新規,0,2024-03-15,2024-03-15,レキオデザイン合同会社,,合同会社,沖縄県,浦添市,仲間３丁目１番１３号仲間戸建２Ｆ,,47,208,9012103,,,,,,,2024-03-15,1,,,,,レキオデザイン,0
205,1430003016065,新規,0,2024-03-15,2024-03-15,合同会社昌樹商運,,合同会社,北海道,日高郡新ひだか町,静内目名１８番地１,,01,610,0560001,,,,,,,2024-03-15,1,,,,,マサキショウウン,0
206,1430005014918,新規,0,2024-03-15,2024-03-15,医療法人ユアサ矯正歯科,,その他の設立登記法人,北海道,札幌市豊平区,月寒中央通８丁目１番１０号月寒中央ビル３Ｆ,,01,105,0620020,,,,,,,2024-03-15,1,,,,,ユアサキョウセイシカ,0
216,1700150124493,新規,0,2024-03-15,2024-03-15,ｓｈｅｎｚｈｅｎｓｈｉｘｕｎｘｉｎｍｉｎｇｋｅｊｉｙｏｕｘｉａｎｇｏｎｇｓｉ,,外国会社等,,,,,,,,Ｓｈｅｎｚｈｅｎｓｈｉｌｏｎｇｇａｎｇｑｕｂａｎｔｉａｎｊｉｅｄａｏｘｉａｎｇｊｉａｏｔａｎｇｓｈｅｑｕｘｉｎｃｕｎｄａｏｂｅｉｙｉｘｉａｎｇ１９ｈａｏ１６ｄｏｎｇ８０１,,,,,,2024-03-15,1,,,,,シンセンシシュンシンミンカギユウゲンコウシ,0
217,1700150124502,新規,0,2024-03-15,2024-03-15,ｆｏｓｈａｎ　ｌｉｎｇｈｕａｉ　ｄｉａｎｚｉ　ｓｈａｎｇｗｕ　ｙｏｕｘｉａｎ　ｇｏｎｇｓｉ,,外国会社等,,,,,,,,Ｎａｎｈａｉ　Ｑｕ　Ｄａｌｉ　Ｚｈｅｎ　Ｈｕａｎｇｑｉ　Ｘｉｈｕａｎ　Ｌｕ　３　ＨａｏＨａｉｈａｏ　Ｓｈａｎｇｗｕ　Ｄａｓｈａ　Ｓｈａｎｇｗｕ　Ｌｏｕ　Ａ１６２６　Ｆａｎｇ　Ｆｏｓｈａｎ　Ｇｕａｎｇｄｏｎｇ　ＣＮ,,,,,,2024-03-15,1,,,,,フォサンリンホゥアイデンシショウムユウゲンコウシ,0
221,2010001242621,新規,0,2024-03-15,2024-03-15,株式会社ＮＫ,,株式会社,東京都,中央区,日本橋堀留町１丁目６番１５－９０３号,,13,102,1030012,,,,,,,2024-03-15,1,,,,,エヌケー,0
222,2010001242976,新規,0,2024-03-15,2024-03-15,株式会社ピーチ・スリー,,株式会社,東京都,中央区,日本橋人形町１丁目２番１２号,,13,102,1030013,,,,,,,2024-03-15,1,,,,,ピーチスリー,0
223,2010001242984,新規,0,2024-03-15,2024-03-15,ＶＡＬＴ　ＪＡＰＡＮ　ＤＩＣ株式会社,,株式会社,東京都,千代田区,霞が関３丁目２番５号,,13,101,1000013,,,,,,,2024-03-15,1,,,,,ヴァルトジャパンディーアイシー,0
224,2010001243017,新規,0,2024-03-15,2024-03-15,Ｂｌｏｏｍｉｎ国際株式会社,,株式会社,東京都,千代田区,九段南４丁目６番１九段シルバーパレス２０４ＲＯＹＡＬＯＦＦＩＣＥ内,,13,101,1020074,,,,,,,2024-03-15,1,,,,,ブローミンコクサイ,0
225,2010001243058,新規,0,2024-03-15,2024-03-15,経営革新センターファンド１号株式会社,,株式会社,東京都,千代田区,霞が関３丁目２番５号,,13,101,1000013,,,,,,,2024-03-15,1,,,,,ケイエイカクシンセンターファンドイチゴウ,0
226,2010001243074,新規,0,2024-03-15,2024-03-15,株式会社Ｈｙｃａｓｔ,,株式会社,東京都,千代田区,神田淡路町１丁目４番地３国土淡路町ビル８階,,13,101,1010063,,,,,,,2024-03-15,1,,,,,ハイキャスト,0
232,2010003043101,新規,0,2024-03-15,2024-03-15,合同会社ｌａｕｂｅ,,合同会社,東京都,中央区,湊２丁目１１番８号,,13,102,1040043,,,,,,,2024-03-15,1,,,,,ローブ,0
233,2010003043200,新規,0,2024-03-15,2024-03-15,自然エネルギーＳＩＰＰ１４合同会社,,合同会社,東京都,中央区,日本橋本町２丁目４番７号,,13,102,1030023,,,,,,,2024-03-15,1,,,,,シゼンエネルギーエスアイピーピージュウヨン,0
240,2010403032158,新規,0,2024-03-15,2024-03-15,合同会社ＩＳＨＩＧＡＫＩ　ＰＪ,,合同会社,東京都,港区,六本木４丁目６番３号ＨＯＲＩＪＵＫＵ・ＰＬＡＣＥ・ＴＨＥ・ＴＯＫＹＯ５階,,13,103,1060032,,,,,,,2024-03-15,1,,,,,イシガキプロジェクト,0
241,2010403032166,新規,0,2024-03-15,2024-03-15,本庄カンパニー合同会社,,合同会社,東京都,港区,三田１丁目６番３,,13,103,1080073,,,,,,,2024-03-15,1,,,,,ホンショウカンパニー,0
243,2010601064820,新規,0,2024-03-15,2024-03-15,株式会社君悦,,株式会社,東京都,江東区,東雲１丁目９番３２－５１０５号,,13,108,1350062,,,,,,,2024-03-15,1,,,,,キミエツ,0
244,2010601064829,新規,0,2024-03-15,2024-03-15,ＰＥＡＳＯＦＴ　ＪＡＰＡＮ株式会社,,株式会社,東京都,墨田区,向島５丁目３５番１１号,,13,107,1310033,,,,,,,2024-03-15,1,,,,,ピーソフトジャパン,0
252,2010901054876,新規,0,2024-03-15,2024-03-15,康清アセットケア株式会社,,株式会社,東京都,世田谷区,太子堂３丁目２８番１２号ベルグハイム４０２,,13,112,1540004,,,,,,,2024-03-15,1,,,,,コウセイアセットケア,0
258,2011001160598,新規,0,2024-03-15,2024-03-15,株式会社ｒｅｔｒｏｄｕｃｔｉｏｎ,,株式会社,東京都,渋谷区,千駄ヶ谷３丁目６－５司マンション３０２,,13,113,1510051,,,,,,,2024-03-15,1,,,,,リトロダクション,0
259,2011001160631,新規,0,2024-03-15,2024-03-15,株式会社ｔｈｕｍｂｒｉｎｇｓ,,株式会社,東京都,渋谷区,神宮前６丁目２番６号原宿あかねビル２階,,13,113,1500001,,,,,,,2024-03-15,1,,,,,サムリングス,0
261,2011003018662,新規,0,2024-03-15,2024-03-15,ＭＫ　ＥＦＴ　Ａｃａｄｅｍｙ　Ｊａｐａｎ合同会社,,合同会社,東京都,渋谷区,道玄坂１丁目１０番８号渋谷道玄坂東急ビル２Ｆ－Ｃ,,13,113,1500043,,,,,,,2024-03-15,1,,,,,エムケーイーエフティーアカデミージャパン,0
269,2011101106559,新規,0,2024-03-15,2024-03-15,株式会社ゴールデンポイント,,株式会社,東京都,新宿区,西新宿３丁目３番１３号西新宿水間ビル６階,,13,104,1600023,,,,,,,2024-03-15,1,,,,,ゴールデンポイント,0
270,2011101106567,新規,0,2024-03-15,2024-03-15,株式会社サードアイ,,株式会社,東京都,新宿区,高田馬場２丁目１４－１０上田ビル３階,,13,104,1690075,,,,,,,2024-03-15,1,,,,,サードアイ,0
273,2011601027610,新規,0,2024-03-15,2024-03-15,株式会社ＬｏｏｘＡＩ,,株式会社,東京都,練馬区,谷原５丁目１１番３号,,13,120,1770032,,,,,,,2024-03-15,1,,,,,ルークスエーアイ,0
277,2011803006131,新規,0,2024-03-15,2024-03-15,合同会社善,,合同会社,東京都,足立区,江北３丁目８番３－３０４号,,13,121,1230872,,,,,,,2024-03-15,1,,,,,ゼン,0
281,2012703002930,新規,0,2024-03-15,2024-03-15,合同会社エストレージャ,,合同会社,東京都,西東京市,富士町４丁目１３番２１号,,13,229,2020014,,,,,,,2024-03-15,1,,,,,エストレージャ,0
282,2012801023036,新規,0,2024-03-15,2024-03-15,株式会社ハミング,,株式会社,東京都,昭島市,松原町５丁目６－２０,,13,207,1960003,,,,,,,2024-03-15,1,,,,,ハミング,0
283,2012805003257,新規,0,2024-03-15,2024-03-15,医療法人社団伸一会,,その他の設立登記法人,東京都,日野市,多摩平１丁目１４番地８号黒部ビル１階,,13,212,1910062,,,,,,,2024-03-15,1,,,,,シンイチカイ,0
286,2013301052211,新規,0,2024-03-15,2024-03-15,ハピネスライフサービス株式会社,,株式会社,東京都,豊島区,南池袋２丁目４７番６号パレス南池袋８０５,,13,116,1710022,,,,,,,2024-03-15,1,,,,,ハピネスライフサービス,0
299,2020001156201,新規,0,2024-03-15,2024-03-15,株式会社Ｄｉｆｆｍｅｎｓｉｏｎ,,株式会社,神奈川県,川崎市多摩区,菅稲田堤３丁目１７番１４－４号,,14,135,2140003,,,,,,,2024-03-15,1,,,,,ディフメンション,0
306,2021001081703,新規,0,2024-03-15,2024-03-15,バイオ・アグリテックハーモニー株式会社,,株式会社,神奈川県,愛甲郡愛川町,半原４３５９番地７,,14,401,2430307,,,,,,,2024-03-15,1,,,,,バイオアグリテックハーモニー,0
307,2021001081711,新規,0,2024-03-15,2024-03-15,株式会社エム・プランニング,,株式会社,神奈川県,海老名市,中央３丁目３番２３－８０３号,,14,215,2430432,,,,,,,2024-03-15,1,,,,,エムプランニング,0
312,2021005013041,新規,0,2024-03-15,2024-03-15,一般社団法人遊びでまちづくりする準備室,,その他の設立登記法人,神奈川県,茅ヶ崎市,矢畑１００番地１３,,14,207,2530085,,,,,,,2024-03-15,1,,,,,アソビデマチヅクリスルジュンビシツ,0
319,2030001159137,新規,0,2024-03-15,2024-03-15,株式会社ファイバーシティ,,株式会社,埼玉県,川口市,中青木２丁目１７－１４,,11,203,3320032,,,,,,,2024-03-15,1,,,,,ファイバーシティ,0
320,2030001159203,新規,0,2024-03-15,2024-03-15,株式会社Ｐｒｉｍｅ,,株式会社,埼玉県,入間市,大字野田１９４番地７,,11,225,3580054,,,,,,,2024-03-15,1,,,,,プライム,0
321,2030001159211,新規,0,2024-03-15,2024-03-15,株式会社ＡＤＶＩＳＡ,,株式会社,埼玉県,さいたま市桜区,栄和５丁目２１番２４号,,11,106,3380823,,,,,,,2024-03-15,1,,,,,アドバイザ,0
322,2030003023803,新規,0,2024-03-15,2024-03-15,ＨＯＭＥ　ＢＵＩＬＤ合同会社,,合同会社,埼玉県,戸田市,笹目５丁目２０番地の３（カノンＴ．Ｋ１０１号室）,,11,224,3350034,,,,,,,2024-03-15,1,,,,,ホームビルド,0
330,2040001132670,新規,0,2024-03-15,2024-03-15,株式会社クローバー,,株式会社,千葉県,千葉市稲毛区,作草部２丁目１１番５号グランドハイツモトキ１０１,,12,103,2630015,,,,,,,2024-03-15,1,,,,,クローバー,0
334,2040003024552,新規,0,2024-03-15,2024-03-15,合同会社ワンダーコネクト,,合同会社,千葉県,市川市,南八幡２丁目９番１５号,,12,203,2720023,,,,,,,2024-03-15,1,,,,,ワンダーコネクト,0
335,2050001054451,新規,0,2024-03-15,2024-03-15,株式会社ゆなごホールディングス,,株式会社,茨城県,日立市,鮎川町６丁目１６番１０号,,08,202,3160036,,,,,,,2024-03-15,1,,,,,ユナゴホールディングス,0
341,2060005010177,新規,0,2024-03-15,2024-03-15,特定非営利活動法人生活福祉機構,,その他の設立登記法人,栃木県,下都賀郡野木町,大字友沼６４２７番地１５,,09,364,3290101,,,,,,,2024-03-15,1,,,,,セイカツフクシキコウ,0
345,2080101024582,新規,0,2024-03-15,2024-03-15,東静産業株式会社,,株式会社,静岡県,下田市,柿崎１５番１号,,22,219,4150013,,,,,,,2024-03-15,1,,,,,トウセイサンギョウ,0
349,2090005007617,新規,0,2024-03-15,2024-03-15,一般社団法人翼,,その他の設立登記法人,山梨県,甲府市,富士見２丁目１０番１５号ハイツボウセン１－Ａ,,19,201,4000027,,,,,,,2024-03-15,1,,,,,ツバサ,0
352,2110003005322,新規,0,2024-03-15,2024-03-15,Ｔａｇｕｃｈｉ　Ｃｈａｌｅｔ合同会社,,合同会社,新潟県,妙高市,大字田口７５６番地２,,15,217,9492106,,,,,,,2024-03-15,1,,,,,タグチシャレー,0
359,2120001263094,新規,0,2024-03-15,2024-03-15,泉幸株式会社,,株式会社,大阪府,大阪市平野区,長吉六反３丁目７番１６号１０２号室,,27,126,5470012,,,,,,,2024-03-15,1,,,,,イズミサチ,0
360,2120001263136,新規,0,2024-03-15,2024-03-15,もも株式会社,,株式会社,大阪府,大阪市浪速区,幸町２丁目３－１４Ｄａｉｔｏ２０５,,27,111,5560021,,,,,,,2024-03-15,1,,,,,モモ,0
361,2120001263160,新規,0,2024-03-15,2024-03-15,株式会社堂島みらい企画,,株式会社,大阪府,大阪市中央区,今橋１丁目７番１９号北浜ビルディング１０階,,27,128,5410042,,,,,,,2024-03-15,1,,,,,ドウジマミライキカク,0
362,2120001263177,新規,0,2024-03-15,2024-03-15,株式会社今村建設,,株式会社,大阪府,門真市,朝日町１１－１０－２０２,,27,223,5710061,,,,,,,2024-03-15,1,,,,,イマムラケンセツ,0
372,2120003026144,新規,0,2024-03-15,2024-03-15,合同会社ＡＩＲＦＬＩＰ,,合同会社,大阪府,寝屋川市,末広町１６番２２号,,27,215,5720009,,,,,,,2024-03-15,1,,,,,エアーフリップ,0
373,2120101069210,新規,0,2024-03-15,2024-03-15,株式会社アートテック,,株式会社,大阪府,泉佐野市,南泉ケ丘１丁目１番５号,,27,213,5980073,,,,,,,2024-03-15,1,,,,,アートテック,0
375,2120901048891,新規,0,2024-03-15,2024-03-15,Ｍａｕｓｕ株式会社,,株式会社,大阪府,箕面市,粟生間谷東３丁目７番１０号,,27,220,5620022,,,,,,,2024-03-15,1,,,,,マウス,0
376,2120903005081,新規,0,2024-03-15,2024-03-15,ＡＭＯＲ合同会社,,合同会社,大阪府,豊中市,庄内東町６丁目１３番８メゾンドール豊中１０３号,,27,203,5610831,,,,,,,2024-03-15,1,,,,,アモル,0
378,2122001037908,新規,0,2024-03-15,2024-03-15,株式会社ＳＫＹ,,株式会社,大阪府,東大阪市,高井田中４丁目６－８,,27,227,5770065,,,,,,,2024-03-15,1,,,,,スカイ,0
380,2130001076578,新規,0,2024-03-15,2024-03-15,弘デリカサービス株式会社,,株式会社,京都府,京都市下京区,四条大宮町２番地,,26,106,6000000,,,,,,,2024-03-15,1,,,,,ヒロデリカサービス,0
386,2140001133477,新規,0,2024-03-15,2024-03-15,株式会社森田ビジネス,,株式会社,兵庫県,川西市,一庫１丁目２番６号,,28,217,6660153,,,,,,,2024-03-15,1,,,,,モリタビジネス,0
387,2140003020269,新規,0,2024-03-15,2024-03-15,ｆｏｒ　ＧＯＯＤ合同会社,,合同会社,兵庫県,尼崎市,玄番北之町２６番地の１－２１６,,28,202,6600872,,,,,,,2024-03-15,1,,,,,フォーグッド,0
389,2160001025747,新規,0,2024-03-15,2024-03-15,Ａｄａｃｔ株式会社,,株式会社,滋賀県,大津市,水明２丁目１６番地８,,25,201,5200531,,,,,,,2024-03-15,1,,,,,アダクト,0
390,2170001018048,新規,0,2024-03-15,2024-03-15,株式会社３ｓｔｒｅａｍ,,株式会社,和歌山県,和歌山市,吉礼７４７番地１２,,30,201,6400351,,,,,,,2024-03-15,1,,,,,スリーストリーム,0
393,2180001160526,新規,0,2024-03-15,2024-03-15,株式会社スーパーキー,,株式会社,愛知県,名古屋市緑区,赤松５１０番地,,23,114,4580837,,,,,,,2024-03-15,1,,,,,スーパーキー,0
398,2200003006261,新規,0,2024-03-15,2024-03-15,合同会社ヌーク,,合同会社,岐阜県,土岐市,泉町久尻１４４４番地の３６,,21,212,5095142,,,,,,,2024-03-15,1,,,,,ヌーク,0
401,2210003001765,新規,0,2024-03-15,2024-03-15,合同会社ＨＯＪＯＣＯＮ,,合同会社,福井県,勝山市,村岡町寺尾第２７号２２番地,,18,206,9110023,,,,,,,2024-03-15,1,,,,,ホジョコン,0
402,2240001062930,新規,0,2024-03-15,2024-03-15,株式会社ＥＫＵＲＥ,,株式会社,広島県,広島市中区,三川町６－３プリシアダイコウビル４０２号室,,34,101,7300029,,,,,,,2024-03-15,1,,,,,エクレ,0
408,2250003003452,新規,0,2024-03-15,2024-03-15,ＡＫＡＳＨＩマネージメント合同会社,,合同会社,山口県,下関市,豊浦町大字川棚５８６８番地１９,,35,201,7596301,,,,,,,2024-03-15,1,,,,,アカシマネージメント,0
416,2290001105057,新規,0,2024-03-15,2024-03-15,株式会社テクノリンクス,,株式会社,福岡県,福岡市東区,香椎照葉７丁目６番５６号,,40,131,8130017,,,,,,,2024-03-15,1,,,,,テクノリンクス,0
422,2310001018900,新規,0,2024-03-15,2024-03-15,株式会社林重量,,株式会社,長崎県,長崎市,豊洋台２丁目４番１９号,,42,201,8512216,,,,,,,2024-03-15,1,,,,,ハヤシジュウリョウ,0
423,2330001031851,新規,0,2024-03-15,2024-03-15,株式会社佳志,,株式会社,熊本県,熊本市南区,白藤１丁目１番２１号,,43,104,8614112,,,,,,,2024-03-15,1,,,,,ケイイ,0
425,2340001026355,新規,0,2024-03-15,2024-03-15,株式会社ＳＲ　ＭＯＴＯＲＳ,,株式会社,鹿児島県,志布志市,松山町新橋１１４３番地２,,46,221,8997601,,,,,,,2024-03-15,1,,,,,エスアールモータース,0
430,2370001051029,新規,0,2024-03-15,2024-03-15,株式会社みやび堂,,株式会社,宮城県,仙台市宮城野区,福田町３丁目６番１８号,,04,102,9830023,,,,,,,2024-03-15,1,,,,,ミヤビドウ,0
431,2370001051037,新規,0,2024-03-15,2024-03-15,株式会社Ｈ・Ｎ,,株式会社,宮城県,仙台市宮城野区,小田原２丁目６番３３号,,04,102,9830803,,,,,,,2024-03-15,1,,,,,エイチエヌ,0
437,2400001016589,新規,0,2024-03-15,2024-03-15,株式会社ＯＮＥ,,株式会社,岩手県,花巻市,不動町２丁目６－８,,03,205,0250038,,,,,,,2024-03-15,1,,,,,ワン,0
439,2430001091282,新規,0,2024-03-15,2024-03-15,株式会社Ｋ３ＢＯＷＬ,,株式会社,北海道,札幌市西区,二十四軒四条５丁目１番８号,,01,107,0630804,,,,,,,2024-03-15,1,,,,,ケースリーボウル,0
440,2430001091290,新規,0,2024-03-15,2024-03-15,株式会社アーキテクスカッド,,株式会社,北海道,札幌市手稲区,前田八条１７丁目７番１０号,,01,109,0060818,,,,,,,2024-03-15,1,,,,,アーキテクスカッド,0
444,2430003016064,新規,0,2024-03-15,2024-03-15,ラッキージャパン合同会社,,合同会社,北海道,札幌市白石区,北郷三条５丁目８番１号コーポラスエイト１０５号,,01,104,0030833,,,,,,,2024-03-15,1,,,,,ラッキージャパン,0
448,2450003002450,新規,0,2024-03-15,2024-03-15,合同会社Ｔｒａｉｌ　Ｓｃｅｎｅ,,合同会社,北海道,旭川市,豊岡五条４丁目３番２号,,01,204,0788235,,,,,,,2024-03-15,1,,,,,,0
458,2700150124501,新規,0,2024-03-15,2024-03-15,ｃｈｅｎｇｄｕｄａｉｋｅｌｕｏｋｅｊｉｙｏｕｘｉａｎｇｏｎｇｓｉ,,外国会社等,,,,,,,,Ｎｏ．２３１２，２３ｒｄ　Ｆｌｏｏｒ，Ｕｎｉｔ　２，Ｂｕｉｌｄｉｎｇ　１，Ｎｏ．３９９　ＸｉＳｈｕｎ　Ｓｔｒｅｅｔ，Ｈｕａｚｈａｏ　Ｗａｌｌ，Ｊｉｎｎｉｕ　Ｄｉｓｔｒｉｃｔ，Ｃｈｅｎｇｄｕ　Ｃｉｔｙ，Ｓｉｃｈｕａｎ　Ｐｒｏｖｉｎｃｅ,,,,,,2024-03-15,1,,,,,チェンドウダイケロカギユウゲンコウシ,0
464,3010001242991,新規,0,2024-03-15,2024-03-15,株式会社堅続システム開発,,株式会社,東京都,中央区,銀座１丁目１２－４Ｎ＆Ｅ・ＢＬＤ．７階,,13,102,1040061,,,,,,,2024-03-15,1,,,,,ケンゾクシステムカイハツ,0
465,3010001243057,新規,0,2024-03-15,2024-03-15,株式会社ＡＫ．ＣＡＰＩＴＡＬ　ＰＡＲＴＮＥＲＳ,,株式会社,東京都,千代田区,霞が関３丁目２番５号,,13,101,1000013,,,,,,,2024-03-15,1,,,,,エーケーキャピタルパートナーズ,0
466,3010001243065,新規,0,2024-03-15,2024-03-15,株式会社ＣＯＬＯＲＳ,,株式会社,東京都,中央区,銀座７丁目１３番２０号銀座ＴＨビル９階,,13,102,1040061,,,,,,,2024-03-15,1,,,,,カラーズ,0
467,3010001243098,新規,0,2024-03-15,2024-03-15,株式会社Ｂｏｉｓ,,株式会社,東京都,千代田区,神田平河町１番地第３東ビル６ＦイーオフィスＡＫＩＢＡ３番館８号室,,13,101,1010027,,,,,,,2024-03-15,1,,,,,ボイス,0
478,3010401181022,新規,0,2024-03-15,2024-03-15,株式会社ＳＡＣＨＡＲＥ,,株式会社,東京都,港区,赤坂６丁目５番２５－２０３号,,13,103,1070052,,,,,,,2024-03-15,1,,,,,サシャレ,0
479,3010401181047,新規,0,2024-03-15,2024-03-15,株式会社ＵＮＩＶＥＲＳＩＴＹ　ＣＡＭＢＲＩＤＧＥ　ＪＡＰＡＮ　ＣＯＮＳＵＬＴＩＮＧ　ＳＵＰＥＲＶＩＳＯＲ,,株式会社,東京都,港区,赤坂３丁目５番５号ストロング赤坂ビル６階,,13,103,1070052,,,,,,,2024-03-15,1,,,,,ユニバーシティーケンブリッジジャパンコンサルティングスーパーバイザー,0
483,3010403032173,新規,0,2024-03-15,2024-03-15,ＬＩＲＡＣＯＲ合同会社,,合同会社,東京都,港区,南青山６丁目３１－２－２０８,,13,103,1070062,,,,,,,2024-03-15,1,,,,,リラコール,0
487,3010501051950,新規,0,2024-03-15,2024-03-15,株式会社ゴールドラッシュ,,株式会社,東京都,台東区,千束３丁目９番４－１００３号,,13,106,1110031,,,,,,,2024-03-15,1,,,,,ゴールドラッシュ,0
489,3010603010706,新規,0,2024-03-15,2024-03-15,合同会社チームもも,,合同会社,東京都,江東区,猿江１丁目１番７－２０３号,,13,108,1350003,,,,,,,2024-03-15,1,,,,,チームモモ,0
492,3010701045703,新規,0,2024-03-15,2024-03-15,株式会社Ｙ・Ｌ・Ｅ,,株式会社,東京都,品川区,東大井２丁目２３番１号名人亭ビル２階,,13,109,1400011,,,,,,,2024-03-15,1,,,,,ワイエルイー,0
497,3010901054875,新規,0,2024-03-15,2024-03-15,Ｗａｈｆ株式会社,,株式会社,東京都,世田谷区,深沢４丁目９番１号,,13,112,1580081,,,,,,,2024-03-15,1,,,,,ワーフ,0
500,3010905004587,新規,0,2024-03-15,2024-03-15,一般社団法人発酵調味料協会,,その他の設立登記法人,東京都,世田谷区,奥沢４丁目７番８号,,13,112,1580083,,,,,,,2024-03-15,1,,,,,ハッコウチョウミリョウキョウカイ,0
502,3011001160580,新規,0,2024-03-15,2024-03-15,株式会社アンバル,,株式会社,東京都,渋谷区,富ヶ谷２丁目２６番１６号１０１,,13,113,1510063,,,,,,,2024-03-15,1,,,,,アンバル,0
503,3011001160630,新規,0,2024-03-15,2024-03-15,株式会社猿田彦珈琲豆,,株式会社,東京都,渋谷区,恵比寿４丁目１１番９号,,13,113,1500013,,,,,,,2024-03-15,1,,,,,サルタヒココーヒーマメ,0
509,3011101106533,新規,0,2024-03-15,2024-03-15,株式会社Ｌ,,株式会社,東京都,新宿区,高田馬場１丁目３２番１０号,,13,104,1690075,,,,,,,2024-03-15,1,,,,,エル,0
510,3011101106566,新規,0,2024-03-15,2024-03-15,株式会社桐谷国際事務所,,株式会社,東京都,新宿区,百人町２丁目５番８号科研ビル１Ａ,,13,104,1690073,,,,,,,2024-03-15,1,,,,,キリタニコクサイジムショ,0
511,3011105010970,新規,0,2024-03-15,2024-03-15,一般社団法人東京オペラシンガーズ,,その他の設立登記法人,東京都,新宿区,下落合２丁目２番２－７２１号,,13,104,1610033,,,,,,,2024-03-15,1,,,,,トウキョウオペラシンガーズ,0
514,3011403004303,新規,0,2024-03-15,2024-03-15,ＤＥＵＲＡＬＩ合同会社,,合同会社,東京都,板橋区,板橋２丁目３０番２－３０３号福禄ビル,,13,119,1730004,,,,,,,2024-03-15,1,,,,,デュラリ,0
518,3011701027113,新規,0,2024-03-15,2024-03-15,株式会社ナカガワパートナーズ,,株式会社,東京都,江戸川区,北葛西２丁目２７番１－１０５号,,13,123,1340081,,,,,,,2024-03-15,1,,,,,ナカガワパートナーズ,0
520,3011803006130,新規,0,2024-03-15,2024-03-15,合同会社ＨＡＣＨＩＭＡＲＵ,,合同会社,東京都,足立区,中央本町３丁目１６－１５ライオンズヴィアーレ五反野６０１,,13,121,1210011,,,,,,,2024-03-15,1,,,,,ハチマル,0
524,3012401041627,新規,0,2024-03-15,2024-03-15,株式会社ＮＡＩＫＯＮ,,株式会社,東京都,調布市,西つつじケ丘３丁目２６番７号アーバンフラッツＭＡ２０３,,13,208,1820006,,,,,,,2024-03-15,1,,,,,ナイコン,0
532,3020001156217,新規,0,2024-03-15,2024-03-15,株式会社ＭＹＬ’Ｓ,,株式会社,神奈川県,横浜市南区,吉野町３丁目７番地２３ポートハイム第２吉野町４０２号,,14,105,2320014,,,,,,,2024-03-15,1,,,,,マイルズ,0
541,3030001159012,新規,0,2024-03-15,2024-03-15,株式会社エスリード,,株式会社,埼玉県,川口市,芝宮根町１４番３号,,11,203,3330869,,,,,,,2024-03-15,1,,,,,エスリード,0
542,3030001159160,新規,0,2024-03-15,2024-03-15,ＳＭＩＬＥ．ＰＡＲＴＳ株式会社,,株式会社,埼玉県,草加市,長栄４丁目１８番地２０,,11,221,3400051,,,,,,,2024-03-15,1,,,,,スマイルパーツ,0
543,3030001159185,新規,0,2024-03-15,2024-03-15,株式会社ＹＵ,,株式会社,埼玉県,川口市,柳根町７番９号,,11,203,3330864,,,,,,,2024-03-15,1,,,,,ユウ,0
546,3030003023793,新規,0,2024-03-15,2024-03-15,合同会社南幸寧,,合同会社,埼玉県,熊谷市,本石２丁目２１６番地１ウィンベルソロ熊谷第３－２１３,,11,202,3600815,,,,,,,2024-03-15,1,,,,,ミナミコウネイ,0
547,3030003023802,新規,0,2024-03-15,2024-03-15,ＴＡＫＯ合同会社,,合同会社,埼玉県,川口市,大字峯９８０番地,,11,203,3340056,,,,,,,2024-03-15,1,,,,,タコ,0
548,3030003023810,新規,0,2024-03-15,2024-03-15,合同会社カジケン,,合同会社,埼玉県,狭山市,大字南入曽４０２番地の１第一斉藤ビル１階,,11,215,3501316,,,,,,,2024-03-15,1,,,,,カジケン,0
551,3030005021589,新規,0,2024-03-15,2024-03-15,一般社団法人如月会,,その他の設立登記法人,埼玉県,草加市,高砂２丁目１８番２１－７０８号,,11,221,3400015,,,,,,,2024-03-15,1,,,,,キサラギカイ,0
554,3040001132637,新規,0,2024-03-15,2024-03-15,株式会社ＭＪ管理,,株式会社,千葉県,船橋市,本町４丁目５番２４号アロー船橋駅前ビル６階,,12,204,2730005,,,,,,,2024-03-15,1,,,,,エムジェイカンリ,0
559,3040003024543,新規,0,2024-03-15,2024-03-15,ＬＯＴＯＳ合同会社,,合同会社,千葉県,柏市,西原６丁目１６番１号,,12,217,2770885,,,,,,,2024-03-15,1,,,,,ロトス,0
568,3070003005318,新規,0,2024-03-15,2024-03-15,合同会社彩加,,合同会社,群馬県,藤岡市,本郷３３３番地５,,10,209,3750023,,,,,,,2024-03-15,1,,,,,サイカ,0
577,3080401027053,新規,0,2024-03-15,2024-03-15,株式会社Ｔｒａｊｏｙ,,株式会社,静岡県,菊川市,上平川４５０番地の１,,22,224,4371521,,,,,,,2024-03-15,1,,,,,トラジョイ,0
581,3100001037276,新規,0,2024-03-15,2024-03-15,株式会社タブレット,,株式会社,長野県,茅野市,宮川１２９４番地,,20,214,3910013,,,,,,,2024-03-15,1,,,,,タブレット,0
588,3120001262962,新規,0,2024-03-15,2024-03-15,株式会社ユーテック,,株式会社,大阪府,大阪市淀川区,東三国１丁目１９－９,,27,123,5320002,,,,,,,2024-03-15,1,,,,,ユーテック,0
589,3120001263135,新規,0,2024-03-15,2024-03-15,株式会社リンクエスト,,株式会社,大阪府,大阪市北区,西天満４丁目１１－８おおきに老松通りビル２０３,,27,127,5300047,,,,,,,2024-03-15,1,,,,,リンクエスト,0
590,3120001263184,新規,0,2024-03-15,2024-03-15,株式会社結,,株式会社,大阪府,大阪市中央区,心斎橋筋１丁目３番６号矢野心斎橋ビル４階,,27,128,5420085,,,,,,,2024-03-15,1,,,,,ムスビ,0
591,3120001263192,新規,0,2024-03-15,2024-03-15,株式会社Ｓｐｒｅａｄ,,株式会社,大阪府,大阪市天王寺区,南河堀町９－９是空天王寺５０２号,,27,109,5430054,,,,,,,2024-03-15,1,,,,,スプレッド,0
592,3120003026135,新規,0,2024-03-15,2024-03-15,合同会社バルー,,合同会社,大阪府,大阪市西区,南堀江１丁目１８番２１号９０３,,27,106,5500015,,,,,,,2024-03-15,1,,,,,バルー,0
593,3120003026151,新規,0,2024-03-15,2024-03-15,ＴＮＢＴ合同会社,,合同会社,大阪府,大阪市西淀川区,柏里１丁目５番８号ネスト８８、４０３号,,27,113,5550022,,,,,,,2024-03-15,1,,,,,ティーエヌビーティー,0
596,3120005024194,新規,0,2024-03-15,2024-03-15,一般財団法人アサヒペンひかり財団,,その他の設立登記法人,大阪府,大阪市鶴見区,鶴見４丁目１番１２号,,27,124,5380053,,,,,,,2024-03-15,1,,,,,アサヒペンヒカリザイダン,0
599,3120903005089,新規,0,2024-03-15,2024-03-15,Ｓ＆Ｄ合同会社,,合同会社,大阪府,吹田市,千里山西４丁目４０－２５－３０７,,27,205,5650851,,,,,,,2024-03-15,1,,,,,エスアンドディー,0
602,3130001076577,新規,0,2024-03-15,2024-03-15,株式会社京のお肉処弘,,株式会社,京都府,京都市下京区,四条大宮町２番地,,26,106,6000000,,,,,,,2024-03-15,1,,,,,キョウノオニクドコロヒロ,0
620,3180001160525,新規,0,2024-03-15,2024-03-15,聖正トレード株式会社,,株式会社,愛知県,知多郡阿久比町,大字卯坂字山伏谷６６番地１,,23,441,4702212,,,,,,,2024-03-15,1,,,,,セイショウトレード,0
622,3180003026492,新規,0,2024-03-15,2024-03-15,合同会社ＡＤｉＬ建設,,合同会社,愛知県,瀬戸市,南山口町１７７番地,,23,204,4890965,,,,,,,2024-03-15,1,,,,,アディルケンセツ,0
628,3200003006260,新規,0,2024-03-15,2024-03-15,合同会社ＯＨＮ,,合同会社,岐阜県,岐阜市,島田東町５番地４,,21,201,5008315,,,,,,,2024-03-15,1,,,,,オーエイチエヌ,0
629,3220001025863,新規,0,2024-03-15,2024-03-15,株式会社イマムラ,,株式会社,石川県,白山市,相木町６２番地,,17,210,9240022,,,,,,,2024-03-15,1,,,,,イマムラ,0
636,3250005008903,新規,0,2024-03-15,2024-03-15,一般社団法人スポーツタイムマシン,,その他の設立登記法人,山口県,山口市,大殿大路１３３番地１,,35,203,7530093,,,,,,,2024-03-15,1,,,,,スポーツタイムマシン,0
637,3280001009134,新規,0,2024-03-15,2024-03-15,株式会社ＴＥＣ,,株式会社,島根県,出雲市,斐川町神氷１９８番地１３,,32,203,6990613,,,,,,,2024-03-15,1,,,,,テック,0
642,3290001105072,新規,0,2024-03-15,2024-03-15,児玉工業株式会社,,株式会社,福岡県,大牟田市,黄金町１丁目３５９－８,,40,202,8360872,,,,,,,2024-03-15,1,,,,,コダマコウギョウ,0
647,3310003004749,新規,0,2024-03-15,2024-03-15,合同会社永,,合同会社,長崎県,壱岐市,芦辺町中野郷仲触１０２０番地,00134068,42,210,8115751,,,,,,,2024-03-15,1,,,,,トコシエ,0
648,3320001020350,新規,0,2024-03-15,2024-03-15,株式会社プロパティー三幸,,株式会社,大分県,大分市,富士見が丘東４丁目２８番１号,,44,201,8701176,,,,,,,2024-03-15,1,,,,,,0
651,3360001033324,新規,0,2024-03-15,2024-03-15,株式会社ＯｎｅＲｅｖｏ,,株式会社,沖縄県,浦添市,城間３丁目３番６号西原ビル３０３,,47,208,9012133,,,,,,,2024-03-15,1,,,,,ワンレボ,0
658,3380003005708,新規,0,2024-03-15,2024-03-15,合同会社ＥＩＳＥＩＳＹＳＴＥＭ,,合同会社,福島県,郡山市,東原２丁目１５９番地１０１,,07,203,9630552,,,,,,,2024-03-15,1,,,,,エイセイシステム,0
663,3430003016063,新規,0,2024-03-15,2024-03-15,合同会社イザベラ,,合同会社,北海道,札幌市中央区,南四条東３丁目９番地１,,01,101,0600054,,,,,,,2024-03-15,1,,,,,イザベラ,0
664,3440001009398,新規,0,2024-03-15,2024-03-15,株式会社ＭＷ　Ｆｏｏｄｓ,,株式会社,北海道,函館市,万代町２２番４０号,,01,202,0400075,,,,,,,2024-03-15,1,,,,,エムダブリューフーズ,0
671,3500001025505,新規,0,2024-03-15,2024-03-15,トータルプランニングサービス株式会社,,株式会社,愛媛県,今治市,鐘場町１丁目３番７号,,38,202,7940004,,,,,,,2024-03-15,1,,,,,トータルプランニングサービス,0
673,3700150124500,新規,0,2024-03-15,2024-03-15,ｓｈａｎｇｈａｉｃｈｕｓｈｕｏｄｉａｎｚｉｓｈａｎｇｗｕｙｏｕｘｉａｎｇｏｎｇｓｉ,,外国会社等,,,,,,,,ｆｅｎｇｘｉａｎｑｕｚｈｉｊｉａｎｇｌｕ２５８ｈａｏ１ｚｈｕａｎｇ１２０１ｓｈｉ　ｓｈａｎｇｈａｉ　ＣＮ,,,,,,2024-03-15,1,,,,,シャンハイツスオデンシショウムユウゲンコウシ,0
674,3700150124509,新規,0,2024-03-15,2024-03-15,ＷＥＥＩ　ＫＡＮＧ　ＥＮＴＥＲＰＲＩＳＥ　ＳＤＮ．ＢＨＤ．,,外国会社等,神奈川県,横浜市中区,長者町２丁目６番地７ライフレビュー横浜関内スクエア１０１０号室,,14,104,2310033,マレーシア、ジョホール・ダルル・タクジム、スナイ、スナイ・インダストリアル・パーク、イダマン通り１／１５、２９６,,,,,,2024-03-15,1,,,,,ウエイカンエンタープライスエスデイエヌビーエイチデイ,0
684,4010001242710,新規,0,2024-03-15,2024-03-15,株式会社大山,,株式会社,東京都,千代田区,神田淡路町１丁目１５塚崎ビル３階,00134072,13,101,1010063,,,,,,,2024-03-15,1,,,,,オオヤマ,0
685,4010001243056,新規,0,2024-03-15,2024-03-15,Ｌａｋｅ　Ｐｏｃｋｅｔ株式会社,,株式会社,東京都,中央区,八丁堀２丁目３０番１６号,,13,102,1040032,,,,,,,2024-03-15,1,,,,,レイクポケット,0
687,4010003043198,新規,0,2024-03-15,2024-03-15,自然エネルギーＳＩＰＰ１２合同会社,,合同会社,東京都,中央区,日本橋本町２丁目４番７号,,13,102,1030023,,,,,,,2024-03-15,1,,,,,シゼンエネルギーエスアイピーピージュウニ,0
696,4010501051941,新規,0,2024-03-15,2024-03-15,Ｌａ　Ｔｏｕｒ株式会社,,株式会社,東京都,台東区,寿３丁目１５番１０号,,13,106,1110042,,,,,,,2024-03-15,1,,,,,ラトゥール,0
700,4010601064827,新規,0,2024-03-15,2024-03-15,率源株式会社,,株式会社,東京都,墨田区,向島５丁目１２番１４－３０８号ライオンズマンション言問,,13,107,1310033,,,,,,,2024-03-15,1,,,,,リエン,0
704,4010701045702,新規,0,2024-03-15,2024-03-15,株式会社アンビテックデザイン,,株式会社,東京都,品川区,北品川１丁目１６番８号船清ビル３階,,13,109,1400001,,,,,,,2024-03-15,1,,,,,アンビテックデザイン,0
708,4010901054841,新規,0,2024-03-15,2024-03-15,ケーピーピー・ジャパン株式会社,,株式会社,東京都,世田谷区,桜上水４丁目１７番４号大洋コート３０２号,,13,112,1560045,,,,,,,2024-03-15,1,,,,,ケーピーピージャパン,0
709,4010901054874,新規,0,2024-03-15,2024-03-15,Ｗｏｒｌｄ　Ｗｉｄｅ　Ｗｉｒｅ株式会社,,株式会社,東京都,世田谷区,玉川３丁目２０番２号マノア玉川第３ビル５０１,,13,112,1580094,,,,,,,2024-03-15,1,,,,,ワールドワイドワイヤー,0
710,4010903008878,新規,0,2024-03-15,2024-03-15,セントラルビレッジ合同会社,,合同会社,東京都,世田谷区,上北沢４丁目１７－２－４０３,,13,112,1560057,,,,,,,2024-03-15,1,,,,,セントラルビレッジ,0
711,4010903008886,新規,0,2024-03-15,2024-03-15,ＣＣＣ　ＩＮＴＥＲＮＡＴＩＯＮＡＬ合同会社,,合同会社,東京都,世田谷区,等々力４丁目２４番１４号,,13,112,1580082,,,,,,,2024-03-15,1,,,,,シーシーシーインターナショナル,0
719,4011001160588,新規,0,2024-03-15,2024-03-15,株式会社ビタカフェ・マネジメント,,株式会社,東京都,渋谷区,千駄ヶ谷３丁目５３番１２号グレンパーク原宿４０２,,13,113,1510051,,,,,,,2024-03-15,1,,,,,ビタカフェマネジメント,0
721,4011003018693,新規,0,2024-03-15,2024-03-15,合同会社Ａｒｒｏｗｉｓｈ,,合同会社,東京都,渋谷区,恵比寿西２丁目８番４号,,13,113,1500021,,,,,,,2024-03-15,1,,,,,アロウィシュ,0
725,4011103014205,新規,0,2024-03-15,2024-03-15,合同会社グランサイズ,,合同会社,東京都,新宿区,西新宿５丁目１２番８号,,13,104,1600023,,,,,,,2024-03-15,1,,,,,グランサイズ,0
736,4011801043926,新規,0,2024-03-15,2024-03-15,株式会社ダイシン,,株式会社,東京都,足立区,新田２丁目９番２２－８０６号,,13,121,1230865,,,,,,,2024-03-15,1,,,,,ダイシン,0
737,4012301013824,新規,0,2024-03-15,2024-03-15,株式会社Ｆｏｒｒｅｓｔ　Ｃｏｎｓｕｌｔｉｎｇ,,株式会社,東京都,町田市,根岸２丁目１６番地１３、３階,,13,209,1940038,,,,,,,2024-03-15,1,,,,,フォーレストコンサルティング,0
742,4012405004950,新規,0,2024-03-15,2024-03-15,医療法人社団くろかわクリニック,,その他の設立登記法人,東京都,調布市,国領町５丁目７０番地２サン・ルーシー２階,,13,208,1820022,,,,,,,2024-03-15,1,,,,,クロカワクリニック,0
743,4012703002929,新規,0,2024-03-15,2024-03-15,合同会社市左ェ門,,合同会社,東京都,西東京市,富士町４丁目１３番２１号,,13,229,2020014,,,,,,,2024-03-15,1,,,,,イチザエモン,0
749,4013301052218,新規,0,2024-03-15,2024-03-15,アニマート・グループ東京株式会社,,株式会社,東京都,豊島区,東池袋３丁目１番１号サンシャイン６０、４５階,,13,116,1700013,,,,,,,2024-03-15,1,,,,,アニマートグループトウキョウ,0
758,4020001156240,新規,0,2024-03-15,2024-03-15,ブルーガレージマーケット株式会社,,株式会社,神奈川県,横浜市都筑区,勝田町１２８８番地,,14,118,2240034,,,,,,,2024-03-15,1,,,,,ブルーガレージマーケット,0
763,4021001081701,新規,0,2024-03-15,2024-03-15,株式会社ナンバ,,株式会社,神奈川県,厚木市,下荻野４０７番地,,14,212,2430203,,,,,,,2024-03-15,1,,,,,ナンバ,0
764,4021003014254,新規,0,2024-03-15,2024-03-15,リコマックス合同会社,,合同会社,神奈川県,鎌倉市,大町１丁目２－１８,,14,204,2480007,,,,,,,2024-03-15,1,,,,,リコマックス,0
770,4030001159102,新規,0,2024-03-15,2024-03-15,株式会社Ｄｒｙａｄ,,株式会社,埼玉県,三郷市,中央１丁目３１番地１１,,11,237,3410038,,,,,,,2024-03-15,1,,,,,ドライアド,0
771,4030001159151,新規,0,2024-03-15,2024-03-15,ＫＲＥＴ株式会社,,株式会社,埼玉県,さいたま市南区,大字大谷口６２５番地３,,11,108,3360042,,,,,,,2024-03-15,1,,,,,カレット,0
772,4030001159176,新規,0,2024-03-15,2024-03-15,ふじみ野電気株式会社,,株式会社,埼玉県,ふじみ野市,福岡中央２丁目７番３号,,11,245,3560031,,,,,,,2024-03-15,1,,,,,フジミノデンキ,0
773,4030001159184,新規,0,2024-03-15,2024-03-15,株式会社ＵＫフード大宮,,株式会社,埼玉県,さいたま市大宮区,仲町１丁目９７番地,,11,103,3300845,,,,,,,2024-03-15,1,,,,,ユーケーフードオオミヤ,0
774,4030001159192,新規,0,2024-03-15,2024-03-15,株式会社旭飛興業,,株式会社,埼玉県,蓮田市,椿山２丁目１番５号,,11,238,3490144,,,,,,,2024-03-15,1,,,,,アサヒコウギョウ,0
777,4030003023801,新規,0,2024-03-15,2024-03-15,合同会社ペアリンク,,合同会社,埼玉県,鶴ヶ島市,南町３丁目３番１３号,,11,241,3502215,,,,,,,2024-03-15,1,,,,,ペアリンク,0
778,4030003023818,新規,0,2024-03-15,2024-03-15,合同会社生天目建設,,合同会社,埼玉県,川越市,大字下広谷字天神前６３５番１,,11,201,3500804,,,,,,,2024-03-15,1,,,,,ナマタメケンセツ,0
779,4030003023834,新規,0,2024-03-15,2024-03-15,ベトプロ合同会社,,合同会社,埼玉県,羽生市,大字上新郷５７０１番地２２,,11,216,3480041,,,,,,,2024-03-15,1,,,,,ベトプロ,0
791,4040001132628,新規,0,2024-03-15,2024-03-15,株式会社ＡＩＲＰＯＲＴレンタカー,,株式会社,千葉県,成田市,駒井野１４０２－１,,12,211,2860121,,,,,,,2024-03-15,1,,,,,エアポートレンタカー,0
792,4040001132652,新規,0,2024-03-15,2024-03-15,株式会社西森興業,,株式会社,千葉県,千葉市花見川区,宮野木台４丁目２４番１号,,12,102,2620015,,,,,,,2024-03-15,1,,,,,ニシモリコウギョウ,0
793,4040001132660,新規,0,2024-03-15,2024-03-15,株式会社道はつづくよどこまでも,,株式会社,千葉県,千葉市中央区,弁天１丁目１番１号,,12,101,2600045,,,,,,,2024-03-15,1,,,,,ミチハツヅクヨドコマデモ,0
794,4040003024542,新規,0,2024-03-15,2024-03-15,合同会社サントラスト,,合同会社,千葉県,船橋市,三山１丁目３８番２号メゾン大久保２０２,,12,204,2740072,,,,,,,2024-03-15,1,,,,,サントラスト,0
795,4040003024550,新規,0,2024-03-15,2024-03-15,合同会社ＴＯＹＳＢＯＸ,,合同会社,千葉県,松戸市,二十世紀が丘萩町９８,,12,207,2710086,,,,,,,2024-03-15,1,,,,,トイズボックス,0
803,4050005013402,新規,0,2024-03-15,2024-03-15,特定非営利活動法人アニマルケアハウスちゃまの家,,その他の設立登記法人,茨城県,北相馬郡利根町,大字羽中６番地,,08,564,3001625,,,,,,,2024-03-15,1,,,,,アニマルケアハウスチャマノイエ,0
808,4080101024589,新規,0,2024-03-15,2024-03-15,肆玖株式会社,,株式会社,静岡県,田方郡函南町,平井１７５３番１０４３ラッキークレスト１０２室,,22,325,4190107,,,,,,,2024-03-15,1,,,,,ヨンキュウ,0
834,4120001263134,新規,0,2024-03-15,2024-03-15,英寧株式会社,,株式会社,大阪府,大阪市浪速区,敷津西１丁目９番１７－１０２号,,27,111,5560015,,,,,,,2024-03-15,1,,,,,インニン,0
835,4120003026142,新規,0,2024-03-15,2024-03-15,喜樂多合同会社,,合同会社,大阪府,大阪市中央区,南久宝寺町１丁目９－７船場ツタダビル４０１室,,27,128,5410058,,,,,,,2024-03-15,1,,,,,キラタ,0
839,4120101069209,新規,0,2024-03-15,2024-03-15,株式会社ジーエフシー,,株式会社,大阪府,泉北郡忠岡町,新浜２丁目２番２０号,,27,341,5950814,,,,,,,2024-03-15,1,,,,,ジーエフシー,0
847,4130005017031,新規,0,2024-03-15,2024-03-15,一般社団法人福祉やすらぎの杜,,その他の設立登記法人,京都府,亀岡市,曾我部町寺恋谷４６番７,,26,206,6210000,,,,,,,2024-03-15,1,,,,,フクシヤスラギノモリ,0
851,4140001133665,新規,0,2024-03-15,2024-03-15,株式会社ＰｏＴｅＴｏ,,株式会社,兵庫県,西宮市,上大市２丁目１番７号,,28,204,6638003,,,,,,,2024-03-15,1,,,,,ポテト,0
853,4140003020275,新規,0,2024-03-15,2024-03-15,ＩＭＰＩＡＮ合同会社,,合同会社,兵庫県,姫路市,大津区新町１丁目７６番地,,28,201,6711135,,,,,,,2024-03-15,1,,,,,インピアン,0
854,4150001027131,新規,0,2024-03-15,2024-03-15,株式会社ＭＫＲ,,株式会社,奈良県,桜井市,大字桜井２５４－１１ローレルコート桜井６０４,,29,206,6330091,,,,,,,2024-03-15,1,,,,,エムケーアール,0
862,4180001160524,新規,0,2024-03-15,2024-03-15,サニーサイド株式会社,,株式会社,愛知県,名古屋市東区,東桜１丁目１０番９号栄プラザビル７Ｆ,,23,102,4610005,,,,,,,2024-03-15,1,,,,,サニーサイド,0
863,4180001160540,新規,0,2024-03-15,2024-03-15,株式会社トリプルアール,,株式会社,愛知県,名古屋市天白区,原４丁目１３０５番地１０５号室,,23,116,4680015,,,,,,,2024-03-15,1,,,,,トリプルアール,0
864,4180001160549,新規,0,2024-03-15,2024-03-15,株式会社ナカムラ,,株式会社,愛知県,津島市,杁前町４丁目１０６番地１,,23,208,4960033,,,,,,,2024-03-15,1,,,,,ナカムラ,0
865,4180003026467,新規,0,2024-03-15,2024-03-15,合同会社ハピネス,,合同会社,愛知県,名古屋市名東区,社台３丁目２１６番地パールマンション社台４０６号,,23,115,4650092,,,,,,,2024-03-15,1,,,,,ハピネス,0
866,4180003026475,新規,0,2024-03-15,2024-03-15,合同会社Ｌｉｏｕｍ,,合同会社,愛知県,名古屋市東区,泉１丁目３番３０号プレサンス泉シティアーク６０５号,,23,102,4610001,,,,,,,2024-03-15,1,,,,,リオウム,0
867,4180003026491,新規,0,2024-03-15,2024-03-15,合同会社マコランド,,合同会社,愛知県,名古屋市名東区,延珠町２０７番地,,23,115,4650003,,,,,,,2024-03-15,1,,,,,マコランド,0
869,4180301038420,新規,0,2024-03-15,2024-03-15,株式会社ワイルドカードスコッパー,,株式会社,愛知県,額田郡幸田町,大字大草字北川後１番地１コーポ大豊Ｂ－３０７,,23,501,4440103,,,,,,,2024-03-15,1,,,,,ワイルドカードスコッパー,0
873,4190001031179,新規,0,2024-03-15,2024-03-15,株式会社玉城山本牧場,,株式会社,三重県,度会郡玉城町,昼田６２番地,,24,461,5190423,,,,,,,2024-03-15,1,,,,,タマキヤマモトボクジョウ,0
878,4230003002165,新規,0,2024-03-15,2024-03-15,合同会社ＳＨＥＲ　ＣＯＲＰＯＲＡＴＩＯＮ,,合同会社,富山県,富山市,大町１２９番地７,,16,201,9398073,,,,,,,2024-03-15,1,,,,,シェールコーポレーション,0
888,4250001020555,新規,0,2024-03-15,2024-03-15,株式会社牧建設サービス,,株式会社,山口県,防府市,大字田島５７０－１１,,35,206,7470834,,,,,,,2024-03-15,1,,,,,マキケンセツサービス,0
889,4260001038828,新規,0,2024-03-15,2024-03-15,株式会社Ａｏ,,株式会社,岡山県,総社市,中央４丁目１０番地１０２,,33,208,7191131,,,,,,,2024-03-15,1,,,,,アオ,0
893,4290001105055,新規,0,2024-03-15,2024-03-15,株式会社ルマリノ,,株式会社,福岡県,福岡市城南区,鳥飼６丁目１番２６－１２０１号,,40,136,8140103,,,,,,,2024-03-15,1,,,,,ルマリノ,0
906,4360001033323,新規,0,2024-03-15,2024-03-15,株式会社ＹＵ‐ＴＯ,,株式会社,沖縄県,石垣市,字川平１２１６番地２６５,,47,207,9070453,,,,,,,2024-03-15,1,,,,,ユウト,0
910,4380001034360,新規,0,2024-03-15,2024-03-15,株式会社玄場興業,,株式会社,福島県,福島市,飯坂町平野字明神脇７番地の５,,07,201,9600231,,,,,,,2024-03-15,1,,,,,ゲンバコウギョウ,0
922,4430003016062,新規,0,2024-03-15,2024-03-15,合同会社黒船,,合同会社,北海道,札幌市中央区,北二条西２７丁目１番１９－３０２号,,01,101,0640822,,,,,,,2024-03-15,1,,,,,クロフネ,0
924,4460301005202,新規,0,2024-03-15,2024-03-15,株式会社ＳＯＤＡＴＥ,,株式会社,北海道,北見市,北三条東７丁目２番地,,01,208,0900023,,,,,,,2024-03-15,1,,,,,ソダテ,0
933,4700150124499,新規,0,2024-03-15,2024-03-15,ＧｕａｎｇＺｈｏｕ　ＹｕｅＭｅｉＦｕＳｈｉ　ＹｏｕＸｉａｎＧｏｎｇＳｉ,,外国会社等,,,,,,,,ＴｉａｎＨｅＱｕ　ＨｕａｎｇＰｕＤａＤａｏＸｉ７６ｈａｏ　Ｂ１２０６ｆａｎｇ　ＧｕａｎｇＺｈｏｕ　ＧｕａｎｇＤｏｎｇ,,,,,,2024-03-15,1,,,,,コウシュウユエメイフシユウゲンコウシ,0
934,4700150124508,新規,0,2024-03-15,2024-03-15,ＬＥＦＥＥＴ　ＨＫ　ＣＯ．，ＬＩＭＩＴＥＤ,,外国会社等,,,,,,,,ＳＵＩＴＥ　６０３，６／Ｆ，ＨＡＮＧ　ＰＯＮＴ　ＣＯＭＭＥＲＣＩＡＬ　ＢＵＩＬＤＩＮＧ　３１　ＴＯＮＫＩＮＳＴＲＥＥＴ，ＣＨＥＵＮＧ　ＳＨＡ　ＷＡＮ　ＫＯＷＬＯＯＮ　９９９０７７　ＨＯＮＧ　ＫＯＮＧ,,,,,,2024-03-15,1,,,,,レフィトホンコンカンパニーリミテッド,0
941,5010001243030,新規,0,2024-03-15,2024-03-15,株式会社ＳＥＫＡＩＤＥ,,株式会社,東京都,中央区,日本橋室町１丁目２番６号日本橋大栄ビル７階,,13,102,1030022,,,,,,,2024-03-15,1,,,,,セカイデ,0
942,5010001243063,新規,0,2024-03-15,2024-03-15,トランスエヌ株式会社,,株式会社,東京都,中央区,日本橋室町１丁目１１番１２号日本橋水野ビル７階,,13,102,1030022,,,,,,,2024-03-15,1,,,,,トランスエヌ,0
944,5010003043197,新規,0,2024-03-15,2024-03-15,自然エネルギーＳＩＰＰ１１合同会社,,合同会社,東京都,中央区,日本橋本町２丁目４番７号,,13,102,1030023,,,,,,,2024-03-15,1,,,,,シゼンエネルギーエスアイピーピージュウイチ,0
945,5010003043230,新規,0,2024-03-15,2024-03-15,合同会社ＩＲＳ４,,合同会社,東京都,千代田区,丸の内３丁目１番１号東京共同会計事務所内,,13,101,1000005,,,,,,,2024-03-15,1,,,,,アイアールエスフォー,0
955,5010405023037,新規,0,2024-03-15,2024-03-15,イマジン行政書士法人,,その他の設立登記法人,東京都,港区,港南１丁目９番３６号,,13,103,1080075,,,,,,,2024-03-15,1,,,,,,0
957,5010501051949,新規,0,2024-03-15,2024-03-15,株式会社Ｚｅｔｔａ,,株式会社,東京都,台東区,寿１丁目１７番１０号４０３号,,13,106,1110042,,,,,,,2024-03-15,1,,,,,ゼタ,0
959,5010503007370,新規,0,2024-03-15,2024-03-15,合同会社ＰＪＭＯ,,合同会社,東京都,台東区,東上野１丁目１４番１３－２０３号,,13,106,1100015,,,,,,,2024-03-15,1,,,,,ピージェイエムオー,0
961,5010601064826,新規,0,2024-03-15,2024-03-15,株式会社ＨＫＴ　ＲＩＶＥＲ,,株式会社,東京都,墨田区,菊川３丁目１８番２－６０５号,,13,107,1300024,,,,,,,2024-03-15,1,,,,,エイチケーティーリバー,0
962,5010603010704,新規,0,2024-03-15,2024-03-15,合同会社エターナル・エンブレイス,,合同会社,東京都,江東区,有明２丁目１番２－３３０２号,,13,108,1350063,,,,,,,2024-03-15,1,,,,,エターナルエンブレイス,0
964,5010701045701,新規,0,2024-03-15,2024-03-15,株式会社Ｍａｔｅｒｉｇｅｎｃｅ,,株式会社,東京都,品川区,上大崎３丁目３番９号秀和目黒前レジデンス１１０３,,13,109,1410021,,,,,,,2024-03-15,1,,,,,マテリジェンス,0
965,5010703007088,新規,0,2024-03-15,2024-03-15,合同会社サンタモン,,合同会社,東京都,品川区,中延２丁目６番３号,,13,109,1420053,,,,,,,2024-03-15,1,,,,,サンタモン,0
983,5011103014204,新規,0,2024-03-15,2024-03-15,合同会社ワンビリオン,,合同会社,東京都,新宿区,高田馬場２丁目１９番７－１１０５,,13,104,1690075,,,,,,,2024-03-15,1,,,,,ワンビリオン,0
984,5011103014212,新規,0,2024-03-15,2024-03-15,合同会社ＡｚｉＡｒｔ,,合同会社,東京都,新宿区,西新宿３丁目３番１３号西新宿水間ビル２Ｆ,,13,104,1600023,,,,,,,2024-03-15,1,,,,,アジアート,0
991,5011303005077,新規,0,2024-03-15,2024-03-15,合同会社ＤＥＨＥＳＡ　ＧＲＯＵＰ,,合同会社,東京都,杉並区,荻窪５丁目２４番５号,,13,115,1670051,,,,,,,2024-03-15,1,,,,,デエサグループ,0
998,5012701018133,新規,0,2024-03-15,2024-03-15,株式会社稲福工務店,,株式会社,東京都,東久留米市,柳窪３丁目３番５－１０７号,,13,222,2030044,,,,,,,2024-03-15,1,,,,,イナフクコウムテン,0
1004,5020001156198,新規,0,2024-03-15,2024-03-15,株式会社Ｆｏｒｔｅｚｚａ　Ｈｏｌｄｉｎｇｓ,,株式会社,神奈川県,横浜市中区,本牧原１番２２－３０３号,,14,104,2310821,,,,,,,2024-03-15,1,,,,,フォルテッツァホールディングス,0
1009,5020003025731,新規,0,2024-03-15,2024-03-15,合同会社エンライト,,合同会社,神奈川県,川崎市宮前区,宮崎２丁目９－３メゾン・ド・バッハ宮崎台４－Ｄ,,14,136,2160033,,,,,,,2024-03-15,1,,,,,エンライト,0
1012,5021001081691,新規,0,2024-03-15,2024-03-15,ＡＣＥコンサルティング株式会社,,株式会社,神奈川県,藤沢市,辻堂４丁目１２番１６－１号,,14,205,2510047,,,,,,,2024-03-15,1,,,,,エーシーイーコンサルティング,0
1017,5030001159101,新規,0,2024-03-15,2024-03-15,ＭＩＸＩＡ株式会社,,株式会社,埼玉県,行田市,駒形１丁目１３番１号,,11,206,3610055,,,,,,,2024-03-15,1,,,,,ミクシア,0
1018,5030001159150,新規,0,2024-03-15,2024-03-15,株式会社Ｋｙｏｕｄａｉ　Ｌａｎｋａ　ＪＰＮ,,株式会社,埼玉県,ふじみ野市,苗間３２番地５岡田コーポ１０２,,11,245,3560052,,,,,,,2024-03-15,1,,,,,キョウダイランカジャパン,0
1019,5030001159159,新規,0,2024-03-15,2024-03-15,株式会社Ｃｒａｆｔ　Ｃｒｅａｔｏｒｓ　Ｆａｃｔｏｒｙ,,株式会社,埼玉県,三郷市,彦川戸１丁目５３番地アプリーレ２０２,,11,237,3410005,,,,,,,2024-03-15,1,,,,,クラフトクリエイターズファクトリー,0
1020,5030001159175,新規,0,2024-03-15,2024-03-15,株式会社ディーディー,,株式会社,埼玉県,草加市,柳島町５１３番地７－１０１号室,,11,221,3400033,,,,,,,2024-03-15,1,,,,,ディーディー,0
1021,5030001159191,新規,0,2024-03-15,2024-03-15,株式会社ローカルクリエイト,,株式会社,埼玉県,川口市,南鳩ヶ谷７丁目３２番１７号,,11,203,3340013,,,,,,,2024-03-15,1,,,,,ローカルクリエイト,0
1022,5030001159200,新規,0,2024-03-15,2024-03-15,株式会社ＲＩＭＥコーポレーション,,株式会社,埼玉県,所沢市,緑町２丁目２１番２－１０１号ヴィクトリー,,11,208,3591111,,,,,,,2024-03-15,1,,,,,リメコーポレーション,0
1023,5030001159209,新規,0,2024-03-15,2024-03-15,藤吉エンターティメント株式会社,,株式会社,埼玉県,坂戸市,大字塚越３７０－７,,11,239,3500209,,,,,,,2024-03-15,1,,,,,トウキチエンターティメント,0
1024,5030001159225,新規,0,2024-03-15,2024-03-15,株式会社Ｆａｒｍ　Ｐｒｉｄｅ,,株式会社,埼玉県,所沢市,大字南永井９９９,,11,208,3590011,,,,,,,2024-03-15,1,,,,,ファームプライド,0
1026,5030003023809,新規,0,2024-03-15,2024-03-15,おおさわ合同会社,,合同会社,埼玉県,所沢市,小手指町５丁目１２番地の４１,,11,208,3591141,,,,,,,2024-03-15,1,,,,,オオサワ,0
1027,5030003023817,新規,0,2024-03-15,2024-03-15,合同会社アルカナトイズ,,合同会社,埼玉県,川口市,南町２丁目９番２９号ヴィラ川口南町２０３号,,11,203,3320026,,,,,,,2024-03-15,1,,,,,アルカナトイズ,0
1032,5040001132668,新規,0,2024-03-15,2024-03-15,株式会社アカウントコンパス,,株式会社,千葉県,市川市,宮久保５丁目１番１５号,,12,203,2720822,,,,,,,2024-03-15,1,,,,,アカウントコンパス,0
1039,5040003024541,新規,0,2024-03-15,2024-03-15,合同会社ホワイトアルバム,,合同会社,千葉県,夷隅郡大多喜町,中野４７９番地５プラムハイツ２０１,,12,441,2980271,,,,,,,2024-03-15,1,,,,,ホワイトアルバム,0
1041,5050001054440,新規,0,2024-03-15,2024-03-15,株式会社リコリス,,株式会社,茨城県,筑西市,木戸１２８５番２３,,08,227,3080104,,,,,,,2024-03-15,1,,,,,リコリス,0
1042,5050001054449,新規,0,2024-03-15,2024-03-15,株式会社阿部アカウンティング,,株式会社,茨城県,笠間市,旭町２５３番地９,,08,216,3091717,,,,,,,2024-03-15,1,,,,,アベアカウンティング,0
1044,5060001036917,新規,0,2024-03-15,2024-03-15,株式会社ＮＡＴＵＬＩＳ,,株式会社,栃木県,栃木市,錦町７番４－１０号,,09,203,3280017,,,,,,,2024-03-15,1,,,,,ナチュリス,0
1046,5060003004970,新規,0,2024-03-15,2024-03-15,きぬ園芸合同会社,,合同会社,栃木県,真岡市,若旅１６１２番地,,09,209,3214352,,,,,,,2024-03-15,1,,,,,キヌエンゲイ,0
1048,5070003005316,新規,0,2024-03-15,2024-03-15,合同会社ＩＮＮＯＢＡＳＥ,,合同会社,群馬県,邑楽郡大泉町,大字吉田３２２０番地の１－ＶＩＰ相川ＩＩ－２０２号,00134067,10,524,3700523,,,,,,,2024-03-15,1,,,,,イノベース,0
1050,5080101024588,新規,0,2024-03-15,2024-03-15,株式会社三協アールイー,,株式会社,静岡県,富士市,伝法５７３番地の１３,,22,210,4170061,,,,,,,2024-03-15,1,,,,,サンキョウアールイー,0
1051,5080103003004,新規,0,2024-03-15,2024-03-15,グーニーズ合同会社,,合同会社,静岡県,沼津市,今沢５０８－２,,22,203,4100875,,,,,,,2024-03-15,1,,,,,グーニーズ,0
1052,5080401027051,新規,0,2024-03-15,2024-03-15,東紀株式会社,,株式会社,静岡県,掛川市,三俣１３５０番地の１,,22,213,4371416,,,,,,,2024-03-15,1,,,,,トウノリ,0
1055,5110001038222,新規,0,2024-03-15,2024-03-15,株式会社商和,,株式会社,新潟県,長岡市,水道町１丁目１番２８号,,15,202,9400093,,,,,,,2024-03-15,1,,,,,ショウワ,0
1059,5120001263109,新規,0,2024-03-15,2024-03-15,Ｑｏｏ株式会社,,株式会社,大阪府,大阪市東住吉区,鷹合２丁目１０番９号,,27,121,5460014,,,,,,,2024-03-15,1,,,,,クー,0
1060,5120001263174,新規,0,2024-03-15,2024-03-15,株式会社火の鳥,,株式会社,大阪府,大阪市中央区,平野町３丁目３番１０－８０２号,,27,128,5410046,,,,,,,2024-03-15,1,,,,,ヒノトリ,0
1061,5120001263190,新規,0,2024-03-15,2024-03-15,ＣｏｃｏｎｕｔＷｏｒｋｓ株式会社,,株式会社,大阪府,大阪市北区,梅田１丁目１－３大阪駅前第３ビル２９階１－１－１号室,,27,127,5300001,,,,,,,2024-03-15,1,,,,,ココナッツワークス,0
1065,5120101069208,新規,0,2024-03-15,2024-03-15,Ｅｌｉｔｅ株式会社,,株式会社,大阪府,松原市,東新町２丁目２１２番地,,27,217,5800024,,,,,,,2024-03-15,1,,,,,エリート,0
1069,5120901048889,新規,0,2024-03-15,2024-03-15,株式会社ＰＥＡＣＥ,,株式会社,大阪府,池田市,井口堂２丁目２番３号アーバンコンフォート井口堂１０５号,,27,204,5630023,,,,,,,2024-03-15,1,,,,,ピース,0
1070,5120903005087,新規,0,2024-03-15,2024-03-15,オプティ合同会社,,合同会社,大阪府,豊中市,寺内２丁目１４番７－４０５号,,27,203,5610872,,,,,,,2024-03-15,1,,,,,オプティ,0
1073,5122001037905,新規,0,2024-03-15,2024-03-15,株式会社メディコ,,株式会社,大阪府,八尾市,跡部北の町２丁目１番３４－７０２号,,27,212,5810068,,,,,,,2024-03-15,1,,,,,メディコ,0
1084,5150001027139,新規,0,2024-03-15,2024-03-15,株式会社ファーストシーズン,,株式会社,奈良県,奈良市,山陵町１０６６番地の３９,,29,201,6310803,,,,,,,2024-03-15,1,,,,,ファーストシーズン,0
1094,5180001160515,新規,0,2024-03-15,2024-03-15,ＴＫＧ株式会社,,株式会社,愛知県,瀬戸市,小空町１７番地の１,,23,204,4890842,,,,,,,2024-03-15,1,,,,,ティーケージー,0
1095,5180001160531,新規,0,2024-03-15,2024-03-15,株式会社プラスワン,,株式会社,愛知県,名古屋市中区,錦１丁目１７番１３号名興ビルディング２階,,23,106,4600003,,,,,,,2024-03-15,1,,,,,プラスワン,0
1097,5180003026482,新規,0,2024-03-15,2024-03-15,合同会社豊泰,,合同会社,愛知県,名古屋市千種区,山門町２丁目１３番地カーサタカミ覚王山４Ｄ号室,,23,101,4640064,,,,,,,2024-03-15,1,,,,,トヨヤス,0
1098,5180003026490,新規,0,2024-03-15,2024-03-15,合同会社ポイントジャパン,,合同会社,愛知県,名古屋市東区,泉１丁目１５番２３号９０３号,,23,102,4610001,,,,,,,2024-03-15,1,,,,,ポイントジャパン,0
1110,5190001031178,新規,0,2024-03-15,2024-03-15,日本ゴルフ株式会社,,株式会社,三重県,伊勢市,神田久志本町１３２１番地２,,24,203,5160016,,,,,,,2024-03-15,1,,,,,ニッポンゴルフ,0
1112,5190003004611,新規,0,2024-03-15,2024-03-15,合同会社アップ,,合同会社,三重県,尾鷲市,中村町６番５２号,,24,209,5193616,,,,,,,2024-03-15,1,,,,,アップ,0
1115,5220001025861,新規,0,2024-03-15,2024-03-15,株式会社福井商事,,株式会社,石川県,白山市,八田町４１９番地３,,17,210,9240001,,,,,,,2024-03-15,1,,,,,フクイショウジ,0
1118,5230003002164,新規,0,2024-03-15,2024-03-15,合同会社大志工業,,合同会社,富山県,富山市,横内４９７番地,,16,201,9398033,,,,,,,2024-03-15,1,,,,,タイシコウギョウ,0
1122,5250001020554,新規,0,2024-03-15,2024-03-15,株式会社いただきます,,株式会社,山口県,下関市,赤間町１番１６号,,35,201,7500007,,,,,,,2024-03-15,1,,,,,イタダキマス,0
1126,5270001008936,新規,0,2024-03-15,2024-03-15,ＥＡＳＴＥＲＮ　ＣＲＵＩＳＥ＆ＦＥＲＲＹ株式会社,,株式会社,鳥取県,境港市,竹内団地２５２番地１境夢みなとターミナル１階,,31,204,6840046,,,,,,,2024-03-15,1,,,,,イースタンクルーズアンドフェリー,0
1128,5290001105054,新規,0,2024-03-15,2024-03-15,株式会社ノリヤス,,株式会社,福岡県,大牟田市,大字久福木７７番地１,,40,202,8370915,,,,,,,2024-03-15,1,,,,,ノリヤス,0
1129,5290001105062,新規,0,2024-03-15,2024-03-15,株式会社ＡＰＳ,,株式会社,福岡県,福岡市中央区,天神４丁目６番２８号,,40,133,8100001,,,,,,,2024-03-15,1,,,,,エイピーエス,0
1130,5290003015053,新規,0,2024-03-15,2024-03-15,駒王合同会社,,合同会社,福岡県,福岡市博多区,吉塚１丁目２２番３６号－１パークサイドＹ１０１号室,,40,132,8120041,,,,,,,2024-03-15,1,,,,,クオウ,0
1138,5320001020349,新規,0,2024-03-15,2024-03-15,株式会社ＮＤテック,,株式会社,大分県,速見郡日出町,八日市２４８０番地２,,44,341,8791506,,,,,,,2024-03-15,1,,,,,エヌディーテック,0
1146,5360001033314,新規,0,2024-03-15,2024-03-15,株式会社ゆい総合サービス,,株式会社,沖縄県,中頭郡北谷町,字上勢頭８１０番地１０、３Ｆ,,47,326,9040101,,,,,,,2024-03-15,1,,,,,ユイソウゴウサービス,0
1147,5360001033322,新規,0,2024-03-15,2024-03-15,株式会社アイデリバリー,,株式会社,沖縄県,中頭郡中城村,字新垣１３４８番地１７,,47,328,9012422,,,,,,,2024-03-15,1,,,,,アイデリバリー,0
1148,5360003013792,新規,0,2024-03-15,2024-03-15,合同会社ルビー,,合同会社,沖縄県,豊見城市,字饒波１６３番地１メゾンひかり３－２０１号室,,47,212,9010211,,,,,,,2024-03-15,1,,,,,ルビー,0
1153,5390001017553,新規,0,2024-03-15,2024-03-15,株式会社ＳＤＫ,,株式会社,山形県,新庄市,大字泉田字往還東５６５番地１,,06,205,9995103,,,,,,,2024-03-15,1,,,,,エスディーケイ,0
1154,5390003002215,新規,0,2024-03-15,2024-03-15,ムツノハナ合同会社,,合同会社,山形県,鶴岡市,山王町８番１８号,,06,203,9970028,,,,,,,2024-03-15,1,,,,,ムツノハナ,0
1164,5480001012413,新規,0,2024-03-15,2024-03-15,株式会社ＴＷＯ　ＩＳＬＡＮＤ,,株式会社,徳島県,勝浦郡勝浦町,大字沼江字山路６８番地１,,36,301,7714301,,,,,,,2024-03-15,1,,,,,トゥーアイランド,0
1173,5700150124498,新規,0,2024-03-15,2024-03-15,ＹｉＷｕＸｉｎＹｉｎＤｉａｎＺｉＳｈａｎｇＷｕＹｏｕＸｉａｎＧｏｎｇＳｉ,,外国会社等,,,,,,,,ＺｈｅＪｉａｎｇＳｈｅｎｇＹｉＷｕＳｈｉＣｈｅｎｇＸｉＪｉｅＤａｏＨｅＰａｎＳｈａｎＣｕｎ　３ｃｈｕａｎｇ１ｄａｎＹｕａｎ２０１ｓｈｉ,,,,,,2024-03-15,1,,,,,ギウシンインデンシショウムユウゲンコウシ,0
1174,5700150124507,新規,0,2024-03-15,2024-03-15,ｇｕａｎｇｘｉｊｉｎｇｈｅｘｉｎｘｉｋｅｊｉｙｏｕｘｉａｎｚｅｒｅｎｇｏｎｇｓｉ,,外国会社等,,,,,,,,ｇｕａｎｇｘｉｚｈｕａｎｇｚｕｚｉｚｈｉｑｕｈｅｃｈｉｓｈｉｂａｍａｙａｏｚｕｚｉｚｈｉｘｉａｎｓｕｏｌｕｅｘｉａｎｇｌａｎｇｙｉｎｃｕｎｌａｎｇｙｉｎｔｕｎ２４ｈａｏ,,,,,,2024-03-15,1,,,,,グゥアンシジンヘシンシカギユウゲンセキニンコウシ,0
1186,6010001243013,新規,0,2024-03-15,2024-03-15,株式会社ＡＤ　ｂｒｏ,,株式会社,東京都,千代田区,丸の内２丁目５番２号,,13,101,1000005,,,,,,,2024-03-15,1,,,,,エーディーブロ,0
1187,6010001243095,新規,0,2024-03-15,2024-03-15,株式会社Ｔｏｐ　Ｔｒａｄｉｎｇ,,株式会社,東京都,中央区,日本橋中洲６番１６－３０１,,13,102,1030008,,,,,,,2024-03-15,1,,,,,トップトレーディング,0
1189,6010003043213,新規,0,2024-03-15,2024-03-15,Ｐｉｃｆｉｌ合同会社,,合同会社,東京都,中央区,日本橋３丁目２番１４号新槇町ビル別館第一１階,,13,102,1030027,,,,,,,2024-03-15,1,,,,,ピクフィル,0
1201,6010401181028,新規,0,2024-03-15,2024-03-15,株式会社ＴＥＮＰＩＮ,,株式会社,東京都,港区,西麻布１丁目７番１号,,13,103,1060031,,,,,,,2024-03-15,1,,,,,テンピン,0
1203,6010405023060,新規,0,2024-03-15,2024-03-15,一般社団法人国際生活美学協会,,その他の設立登記法人,東京都,港区,海岸３丁目１９番２－８１１号,,13,103,1080022,,,,,,,2024-03-15,1,,,,,コクサイセイカツビガクキョウカイ,0
1207,6010601064817,新規,0,2024-03-15,2024-03-15,青山株式会社,,株式会社,東京都,墨田区,押上１丁目１５番２号,,13,107,1310045,,,,,,,2024-03-15,1,,,,,アオヤマ,0
1211,6010701045700,新規,0,2024-03-15,2024-03-15,株式会社ＬＩＶＥ　ＦＡＣＴＯＲＹ,,株式会社,東京都,品川区,上大崎２丁目４番７号,,13,109,1410021,,,,,,,2024-03-15,1,,,,,ライブファクトリー,0
1217,6010901054856,新規,0,2024-03-15,2024-03-15,株式会社そのまんま,,株式会社,東京都,世田谷区,太子堂１丁目１２番２３号,,13,112,1540004,,,,,,,2024-03-15,1,,,,,ソノマンマ,0
1222,6011001160636,新規,0,2024-03-15,2024-03-15,株式会社星霊天啓,,株式会社,東京都,渋谷区,桜丘町２３番１７号シティコート桜丘４０８,,13,113,1500031,,,,,,,2024-03-15,1,,,,,セイレイテンケイ,0
1223,6011001160644,新規,0,2024-03-15,2024-03-15,株式会社ＧＲＥＥＮ　ＴＥＣＨ,,株式会社,東京都,渋谷区,渋谷２丁目１０番１５号,,13,113,1500002,,,,,,,2024-03-15,1,,,,,グリーンテック,0
1224,6011003018675,新規,0,2024-03-15,2024-03-15,合同会社ソニード,,合同会社,東京都,目黒区,八雲１丁目７番６－１０１号,,13,110,1520023,,,,,,,2024-03-15,1,,,,,ソニード,0
1226,6011101106555,新規,0,2024-03-15,2024-03-15,株式会社ＧＬＯＷ　ＲＩＢＵ,,株式会社,東京都,新宿区,戸山３丁目１０番１４号ＬｅＰｉｇｎｏｎ３０１,,13,104,1620052,,,,,,,2024-03-15,1,,,,,グローリブ,0
1230,6011701027119,新規,0,2024-03-15,2024-03-15,琴の声株式会社,,株式会社,東京都,江戸川区,西小岩５丁目１２－１６ＫＵＲＡＳＳＫＯＩＷＡ１Ｃ号室,,13,123,1330057,,,,,,,2024-03-15,1,,,,,キンノコエ,0
1235,6012703002935,新規,0,2024-03-15,2024-03-15,ペントハウス合同会社,,合同会社,東京都,東村山市,萩山町３丁目２２番地１９,,13,213,1890012,,,,,,,2024-03-15,1,,,,,ペントハウス,0
1238,6013301052216,新規,0,2024-03-15,2024-03-15,ムー株式会社,,株式会社,東京都,豊島区,長崎１丁目２１番６号,,13,116,1710051,,,,,,,2024-03-15,1,,,,,ムー,0
1244,6020001156222,新規,0,2024-03-15,2024-03-15,株式会社アペルタワークス,,株式会社,神奈川県,川崎市多摩区,長沢１丁目５番１０号第二野村ビル３０１,,14,135,2140035,,,,,,,2024-03-15,1,,,,,アペルタワークス,0
1247,6020003025722,新規,0,2024-03-15,2024-03-15,合同会社ＢＯＵＬＤＥＲ　Ｔｅｃｈｎｏｌｏｇｉｅｓ,,合同会社,神奈川県,川崎市高津区,溝口１丁目１番１５号,,14,134,2130001,,,,,,,2024-03-15,1,,,,,ボルダーテクノロジーズ,0
1248,6020003025730,新規,0,2024-03-15,2024-03-15,いのちのもりきよら合同会社,,合同会社,神奈川県,横浜市泉区,中田南３丁目１７－２３,,14,116,2450014,,,,,,,2024-03-15,1,,,,,イノチノモリキヨラ,0
1251,6021003014260,新規,0,2024-03-15,2024-03-15,合同会社ツノダアセットマネジメントシステム,,合同会社,神奈川県,厚木市,幸町８番２号,,14,212,2430012,,,,,,,2024-03-15,1,,,,,ツノダアセットマネジメントシステム,0
1261,6030001159174,新規,0,2024-03-15,2024-03-15,株式会社エスヴァレイ,,株式会社,埼玉県,さいたま市緑区,東浦和２丁目７番地３,,11,109,3360926,,,,,,,2024-03-15,1,,,,,エスヴァレイ,0
1262,6030001159182,新規,0,2024-03-15,2024-03-15,株式会社Ｍ・Ｍ,,株式会社,埼玉県,坂戸市,元町１５－５ＡＰ坂戸３０１号,,11,239,3500228,,,,,,,2024-03-15,1,,,,,エムエム,0
1263,6030001159199,新規,0,2024-03-15,2024-03-15,株式会社ＴＷＯ　ＰＩＥＣＥ,,株式会社,埼玉県,加須市,騎西６２番地９,,11,210,3470105,,,,,,,2024-03-15,1,,,,,ツーピース,0
1264,6030001159208,新規,0,2024-03-15,2024-03-15,株式会社フィレーヴ,,株式会社,埼玉県,戸田市,喜沢１丁目２６番地の１９グラッド３０２,,11,224,3350013,,,,,,,2024-03-15,1,,,,,フィレーヴ,0
1265,6030001159224,新規,0,2024-03-15,2024-03-15,株式会社純翔総業,,株式会社,埼玉県,北足立郡伊奈町,西小針６丁目１４４,,11,301,3620811,,,,,,,2024-03-15,1,,,,,アヤトソウギョウ,0
1266,6030001159232,新規,0,2024-03-15,2024-03-15,いるまｅ‐ＭＩＲＡＩ株式会社,,株式会社,埼玉県,入間市,扇台１丁目５番２５号,,11,225,3580023,,,,,,,2024-03-15,1,,,,,イルマイーミライ,0
1272,6030003023790,新規,0,2024-03-15,2024-03-15,栄昇合同会社,,合同会社,埼玉県,蕨市,南町２丁目７－１南町フラット２０１号室,,11,223,3350003,,,,,,,2024-03-15,1,,,,,エイショウ,0
1273,6030003023824,新規,0,2024-03-15,2024-03-15,セパルティ合同会社,,合同会社,埼玉県,上尾市,緑丘５丁目８番１６号,,11,219,3620015,,,,,,,2024-03-15,1,,,,,セパルティ,0
1276,6040001132626,新規,0,2024-03-15,2024-03-15,Ａｖｉｄ　Ｖｅｎｔｕｒｅｓ株式会社,,株式会社,千葉県,佐倉市,宮前３丁目２２番地４ＧＡＲＤＥＮＥＬＥＧＡＮＴ３１４号室,,12,212,2850005,,,,,,,2024-03-15,1,,,,,アビッドベンチャーズ,0
1277,6040001132642,新規,0,2024-03-15,2024-03-15,株式会社ハーバー創研,,株式会社,千葉県,習志野市,谷津６丁目２１番４号２０１号室,,12,216,2750026,,,,,,,2024-03-15,1,,,,,ハーバーソウケン,0
1278,6040001132650,新規,0,2024-03-15,2024-03-15,株式会社ＭＴＭ,,株式会社,千葉県,千葉市花見川区,花園２丁目６番２５号,,12,102,2620025,,,,,,,2024-03-15,1,,,,,エムティーエム,0
1279,6040001132667,新規,0,2024-03-15,2024-03-15,株式会社エムケイシステム,,株式会社,千葉県,東金市,大沼田６０６番地３０,,12,213,2830051,,,,,,,2024-03-15,1,,,,,エムケイシステム,0
1288,6050003008195,新規,0,2024-03-15,2024-03-15,Ａ‐ｔｔｅｎｔｉｖｅ合同会社,,合同会社,茨城県,水戸市,渡里町２９３６番地の６コーポクレール１０３号,,08,201,3100902,,,,,,,2024-03-15,1,,,,,アテンティブ,0
1289,6050005013400,新規,0,2024-03-15,2024-03-15,医療法人社団芳歯会,,その他の設立登記法人,茨城県,石岡市,若松２丁目１番地５３,,08,205,3150018,,,,,,,2024-03-15,1,,,,,ホウシカイ,0
1290,6060003004961,新規,0,2024-03-15,2024-03-15,Ｌ＆ｈｏｐｅ合同会社,,合同会社,栃木県,大田原市,若草１丁目１３８７番地３２,,09,210,3240021,,,,,,,2024-03-15,1,,,,,エルアンドホープ,0
1294,6080101024587,新規,0,2024-03-15,2024-03-15,スルガ育成就労サービス株式会社,,株式会社,静岡県,駿東郡長泉町,南一色３８２番地の５Ｍビル,,22,342,4110932,,,,,,,2024-03-15,1,,,,,スルガイクセイシュウロウサービス,0
1298,6080401027050,新規,0,2024-03-15,2024-03-15,株式会社舞阪マルスイ,,株式会社,静岡県,浜松市中央区,舞阪町舞阪５２８６番地,,22,138,4310211,,,,,,,2024-03-15,1,,,,,マイサカマルスイ,0
1301,6110001038238,新規,0,2024-03-15,2024-03-15,株式会社三星興業,,株式会社,新潟県,新潟市江南区,城所２丁目２番１９号,,15,104,9500136,,,,,,,2024-03-15,1,,,,,ミツボシコウギョウ,0
1311,6120001263082,新規,0,2024-03-15,2024-03-15,蛙蛙株式会社,,株式会社,大阪府,大阪市北区,梅田１丁目３番１号大阪駅前第一ビル５階ＲＯＹＡＬＯＦＦＩＣＥ内,,27,127,5300001,,,,,,,2024-03-15,1,,,,,カエル,0
1312,6120001263090,新規,0,2024-03-15,2024-03-15,株式会社Ｌｉｍ,,株式会社,大阪府,大阪市城東区,永田４丁目６番９号２階,,27,118,5360022,,,,,,,2024-03-15,1,,,,,リム,0
1313,6120001263108,新規,0,2024-03-15,2024-03-15,株式会社チャンピオン,,株式会社,大阪府,大阪市生野区,鶴橋５丁目２１番８号,,27,116,5440031,,,,,,,2024-03-15,1,,,,,チャンピオン,0
1314,6120001263116,新規,0,2024-03-15,2024-03-15,株式会社世桜,,株式会社,大阪府,大阪市城東区,諏訪２丁目１番１５号３階,,27,118,5360021,,,,,,,2024-03-15,1,,,,,ヨサクラ,0
1315,6120001263124,新規,0,2024-03-15,2024-03-15,ゆりよよ株式会社,,株式会社,大阪府,大阪市生野区,新今里７丁目７番２－２０４号,,27,116,5440001,,,,,,,2024-03-15,1,,,,,ユリヨヨ,0
1316,6120001263157,新規,0,2024-03-15,2024-03-15,株式会社ＢＬＥＵＮＩＲ,,株式会社,大阪府,大阪市北区,豊崎７丁目６番４－９０５号,,27,127,5310072,,,,,,,2024-03-15,1,,,,,ブルニール,0
1317,6120001263173,新規,0,2024-03-15,2024-03-15,株式会社Ｒ,,株式会社,大阪府,大阪市生野区,巽北３丁目１４番１７号,00134075,27,116,5440004,,,,,,,2024-03-15,1,,,,,アール,0
1319,6120003026132,新規,0,2024-03-15,2024-03-15,ＬＩＡＮＳ合同会社,,合同会社,大阪府,大阪市東成区,中道２丁目２４番１８号－１Ｆ,,27,115,5370025,,,,,,,2024-03-15,1,,,,,リアンズ,0
1320,6120003026140,新規,0,2024-03-15,2024-03-15,ジェネシス合同会社,,合同会社,大阪府,大阪市西区,九条南２丁目６番１０－１００１号,,27,106,5500025,,,,,,,2024-03-15,1,,,,,ジェネシス,0
1321,6120101069215,新規,0,2024-03-15,2024-03-15,株式会社ｙｍｓ,,株式会社,大阪府,岸和田市,本町３番１７号,,27,202,5960074,,,,,,,2024-03-15,1,,,,,ワイエムエス,0
1326,6120901048888,新規,0,2024-03-15,2024-03-15,株式会社琉創,,株式会社,大阪府,豊中市,永楽荘１丁目１３番３１号,,27,203,5600051,,,,,,,2024-03-15,1,,,,,ルソウ,0
1327,6120901048896,新規,0,2024-03-15,2024-03-15,株式会社新夢,,株式会社,大阪府,豊中市,東豊中町１丁目３０番１号,,27,203,5600003,,,,,,,2024-03-15,1,,,,,ニイム,0
1329,6120903005086,新規,0,2024-03-15,2024-03-15,合同会社ＲＡＭＩＮＫＩ,,合同会社,大阪府,箕面市,船場東１丁目１１－１６,,27,220,5620035,,,,,,,2024-03-15,1,,,,,ラミンキ,0
1331,6140001133457,新規,0,2024-03-15,2024-03-15,株式会社森田アセット,,株式会社,兵庫県,川西市,一庫１丁目２番６号,,28,217,6660153,,,,,,,2024-03-15,1,,,,,モリタアセット,0
1332,6140001133639,新規,0,2024-03-15,2024-03-15,株式会社神樂,,株式会社,兵庫県,伊丹市,宮ノ前１丁目３番７号,,28,207,6640895,,,,,,,2024-03-15,1,,,,,カグラ,0
1333,6150001027138,新規,0,2024-03-15,2024-03-15,株式会社ヘルプステーションＡＲＡＮ,,株式会社,奈良県,奈良市,西木辻町１３１番地１ウイング３０３,00134069,29,201,6308325,,,,,,,2024-03-15,1,,,,,ヘルプステーションアラン,0
1337,6160003003136,新規,0,2024-03-15,2024-03-15,ＴＮＡ合同会社,,合同会社,滋賀県,栗東市,小柿７丁目８番１１号小柿Ｋ佳ビル２０２号,,25,208,5203024,,,,,,,2024-03-15,1,,,,,ティーエヌエー,0
1344,6180001160539,新規,0,2024-03-15,2024-03-15,ＭＹＮ．ｃｏｒｐ株式会社,,株式会社,愛知県,海部郡蟹江町,大字今字市之坪５番地３,,23,425,4970032,,,,,,,2024-03-15,1,,,,,エムワイエヌコープ,0
1345,6180001160547,新規,0,2024-03-15,2024-03-15,株式会社アップビート,,株式会社,愛知県,名古屋市中区,栄３丁目１５番３３号栄ガスビル１３Ｆ,,23,106,4600008,,,,,,,2024-03-15,1,,,,,アップビート,0
1346,6180001160563,新規,0,2024-03-15,2024-03-15,東海電気株式会社,,株式会社,愛知県,一宮市,西大海道字本郷８７番地１,,23,203,4910005,,,,,,,2024-03-15,1,,,,,トウカイデンキ,0
1351,6190001031177,新規,0,2024-03-15,2024-03-15,悟大商事株式会社,,株式会社,三重県,四日市市,日永西４丁目４‐２０‐１,,24,202,5100891,,,,,,,2024-03-15,1,,,,,ゴダイショウジ,0
1354,6200001042247,新規,0,2024-03-15,2024-03-15,株式会社美濃神楽,,株式会社,岐阜県,岐阜市,鍵屋西町１丁目３１番地,,21,201,5008314,,,,,,,2024-03-15,1,,,,,ミノカグラ,0
1357,6220001025860,新規,0,2024-03-15,2024-03-15,株式会社サンビレッジ,,株式会社,石川県,小松市,今江町９丁目４４８番地,,17,203,9230964,,,,,,,2024-03-15,1,,,,,サンビレッジ,0
1360,6240001062927,新規,0,2024-03-15,2024-03-15,株式会社カツテル,,株式会社,広島県,広島市佐伯区,五日市２丁目７番１８－２１－２０１号,,34,108,7315127,,,,,,,2024-03-15,1,,,,,カツテル,0
1361,6240003006576,新規,0,2024-03-15,2024-03-15,合同会社山晃,,合同会社,広島県,広島市西区,東観音町２１番８－２号,,34,104,7330032,,,,,,,2024-03-15,1,,,,,サンコウ,0
1373,6290003015060,新規,0,2024-03-15,2024-03-15,合同会社恋ほおずきフィルムパートナーズ,,合同会社,福岡県,久留米市,御井旗崎５丁目４番地６,,40,203,8390841,,,,,,,2024-03-15,1,,,,,コイホオズキフィルムパートナーズ,0
1374,6290003015069,新規,0,2024-03-15,2024-03-15,メディカルリンク合同会社,,合同会社,福岡県,福岡市中央区,桜坂２丁目４番１４号,,40,133,8100024,,,,,,,2024-03-15,1,,,,,メディカルリンク,0
1379,6320001020348,新規,0,2024-03-15,2024-03-15,株式会社Ｎステップ不動産,,株式会社,大分県,大分市,西大道４丁目２番３３号三芳ビル１５,,44,201,8700820,,,,,,,2024-03-15,1,,,,,エヌステップフドウサン,0
1380,6320003004308,新規,0,2024-03-15,2024-03-15,合同会社美容室ＨＩＭＡＷＡＲＩ,,合同会社,大分県,大分市,西大道１丁目２番５２号,,44,201,8700820,,,,,,,2024-03-15,1,,,,,ビヨウシツヒマワリ,0
1388,6370001051033,新規,0,2024-03-15,2024-03-15,丸翔警備株式会社,,株式会社,宮城県,仙台市青葉区,落合４丁目１番５４号,,04,101,9893126,,,,,,,2024-03-15,1,,,,,マルショウケイビ,0
1390,6390003002214,新規,0,2024-03-15,2024-03-15,合同会社ｗｅｌｌ　ｔｒｅｅ,,合同会社,山形県,米沢市,本町２丁目２番２８号,,06,202,9920037,,,,,,,2024-03-15,1,,,,,ウェルツリー,0
1396,6430003016052,新規,0,2024-03-15,2024-03-15,合同会社リズテック,,合同会社,北海道,苫小牧市,日新町４丁目１番２－１０６号,,01,213,0530833,,,,,,,2024-03-15,1,,,,,リズテック,0
1397,6430003016060,新規,0,2024-03-15,2024-03-15,ｓｔｏｒａｇｅ　ｂａｓｅ合同会社,,合同会社,北海道,札幌市北区,拓北五条３丁目９番１５号,,01,102,0028065,,,,,,,2024-03-15,1,,,,,ストレージベース,0
1398,6430003016069,新規,0,2024-03-15,2024-03-15,合同会社花彩,,合同会社,北海道,札幌市西区,西町北２丁目１番１４－４０３号,,01,107,0630061,,,,,,,2024-03-15,1,,,,,ハナイロ,0
1401,6480001012412,新規,0,2024-03-15,2024-03-15,株式会社Ｍ＆Ｍ,,株式会社,徳島県,美馬市,脇町字井口１６５番地５,,36,207,7793633,,,,,,,2024-03-15,1,,,,,エムアンドエム,0
1409,6700150124497,新規,0,2024-03-15,2024-03-15,ＺｈｕｈａｉＪｉｎｇｔｉａｎＳｈｅｎｇｓｈｉｘｉｎｘｉｋｅｊｉ　ｙｏｕｘｉａｎｇｏｎｇｓｉ,,外国会社等,,,,,,,,４１５，４ｔｈ　Ｆｌｏｏｒ，Ｂｕｉｌｄｉｎｇ　１，Ｎｏ．３８，Ｘｉｎｘｉ　Ｓｔｒｅｅｔ，Ｓｈａｎｇｃｈｏｎｇ　Ｖｉｌｌａｇｅ　Ｚｈｕｈａｉ　Ｃｉｔｙ,,,,,,2024-03-15,1,,,,,ズハイジンテンセンシシンシカギユウゲンコウシ,0
1410,6700150124506,新規,0,2024-03-15,2024-03-15,ｓｈｅｎｚｈｅｎｓｈｉｃｈｕａｎｇｂｉｄｅｋｅｊｉｙｏｕｘｉａｎｇｏｎｇｓｉ,,外国会社等,,,,,,,,３０１，Ｂｕｉｌｄｉｎｇ　２，Ｍｉｄｔｏｗｎ　Ｆｕｔｕｒｅ　Ｉｎｄｕｓｔｒｉａｌ　Ｐａｒｋ，Ｈａｎｇｃｈｅｎｇ　Ｚｈｉｇｕ，Ｓａｎｗｅｉ　Ｃｏｍｍｕｎｉｔｙ，Ｈａｎｇｃｈｅｎｇ　Ｓｔｒｅｅｔ，Ｂａｏ’ａｎ　Ｄｉｓｔｒｉｃｔ，Ｓｈｅｎｚｈｅｎ,,,,,,2024-03-15,1,,,,,シンセンシチワンビデカギユウゲンコウシ,0
1417,7010001243012,新規,0,2024-03-15,2024-03-15,株式会社ＡＤ　ｎｉｅｃｅ,,株式会社,東京都,千代田区,丸の内２丁目５番２号,,13,101,1000005,,,,,,,2024-03-15,1,,,,,エーディーニース,0
1421,7010003042981,新規,0,2024-03-15,2024-03-15,Ｔｗｏ　ａｓ　ｏｎｅ合同会社,,合同会社,東京都,中央区,銀座１丁目１２番４号Ｎ＆ＥＢＬＤ．６階,,13,102,1040061,,,,,,,2024-03-15,1,,,,,ツーアズワン,0
1422,7010003043204,新規,0,2024-03-15,2024-03-15,合同会社Ｇａｒｂｌｉｎｇ,,合同会社,東京都,中央区,銀座７丁目１３番２１号銀座ｓｉｎｒｏｋｕｓｙｕビル２階,,13,102,1040061,,,,,,,2024-03-15,1,,,,,ガーブリング,0
1423,7010003043229,新規,0,2024-03-15,2024-03-15,合同会社ＩＳＴレジデンス４,,合同会社,東京都,千代田区,丸の内３丁目１番１号東京共同会計事務所内,,13,101,1000005,,,,,,,2024-03-15,1,,,,,アイエスティレジデンスフォー,0
1430,7010501051947,新規,0,2024-03-15,2024-03-15,株式会社ネクスプリング,,株式会社,東京都,台東区,駒形２丁目１番２７号ＲＡＩＤ浅草リバーフロント５階,,13,106,1110043,,,,,,,2024-03-15,1,,,,,ネクスプリング,0
1431,7010503007377,新規,0,2024-03-15,2024-03-15,合同会社ＲＯＩＣＡ,,合同会社,東京都,台東区,上野３丁目１６番２号,,13,106,1100005,,,,,,,2024-03-15,1,,,,,ロイカ,0
1433,7010701045699,新規,0,2024-03-15,2024-03-15,アプロステイ株式会社,,株式会社,東京都,品川区,南品川５丁目１６番１２号,,13,109,1400004,,,,,,,2024-03-15,1,,,,,アプロステイ,0
1440,7011001160643,新規,0,2024-03-15,2024-03-15,ｎｏｍｕ株式会社,,株式会社,東京都,渋谷区,神宮前６丁目２３番４号桑野ビル２階,,13,113,1500001,,,,,,,2024-03-15,1,,,,,ノム,0
1441,7011001160651,新規,0,2024-03-15,2024-03-15,株式会社増田コンサルティングオフィス,,株式会社,東京都,目黒区,目黒本町２丁目２７番１８号３０１,,13,110,1520002,,,,,,,2024-03-15,1,,,,,マスダコンサルティングオフィス,0
1446,7011101106570,新規,0,2024-03-15,2024-03-15,株式会社ＫＳＳ,,株式会社,東京都,新宿区,大久保１丁目１０番７号,,13,104,1690072,,,,,,,2024-03-15,1,,,,,ケイエスエス,0
1449,7011201025316,新規,0,2024-03-15,2024-03-15,株式会社ｍｉｎｏｒ‐ｕ,,株式会社,東京都,中野区,中野３丁目２３番４１号,,13,114,1640001,,,,,,,2024-03-15,1,,,,,マイナーユー,0
1456,7011305002970,新規,0,2024-03-15,2024-03-15,一般社団法人フードビジネスナリッジ,,その他の設立登記法人,東京都,杉並区,桃井１丁目２３－７,,13,115,1670034,,,,,,,2024-03-15,1,,,,,フードビジネスナリッジ,0
1458,7011701027118,新規,0,2024-03-15,2024-03-15,株式会社ＭＪコーポレーション,,株式会社,東京都,江戸川区,東葛西６丁目４番２号アロー葛西駅前ビル４階,,13,123,1340084,,,,,,,2024-03-15,1,,,,,エムジェイコーポレーション,0
1459,7012303001956,新規,0,2024-03-15,2024-03-15,万隆合同会社,,合同会社,東京都,町田市,金森東１丁目１１番４１号,,13,209,1940015,,,,,,,2024-03-15,1,,,,,マンリュウ,0
1465,7013301052215,新規,0,2024-03-15,2024-03-15,中信株式会社,,株式会社,東京都,豊島区,池袋本町３丁目３０番１２－５０３号,,13,116,1700011,,,,,,,2024-03-15,1,,,,,チュウシン,0
1467,7020001156213,新規,0,2024-03-15,2024-03-15,株式会社ジャパンメモリ,,株式会社,神奈川県,川崎市川崎区,砂子２丁目７－５－１０Ｆ,,14,131,2100006,,,,,,,2024-03-15,1,,,,,ジャパンメモリ,0
1476,7021003014210,新規,0,2024-03-15,2024-03-15,合同会社瑞建築,,合同会社,神奈川県,茅ヶ崎市,甘沼２００－１－１４２７グランドヒル,,14,207,2530004,,,,,,,2024-03-15,1,,,,,ズイケンチク,0
1478,7030001159157,新規,0,2024-03-15,2024-03-15,株式会社アウリー,,株式会社,埼玉県,さいたま市浦和区,前地１丁目１４番１２号グランドコート６０６,,11,107,3300053,,,,,,,2024-03-15,1,,,,,アウリー,0
1479,7030001159181,新規,0,2024-03-15,2024-03-15,Ｊ＆Ｊ株式会社,,株式会社,埼玉県,川口市,金山町４番１１－１号,,11,203,3320014,,,,,,,2024-03-15,1,,,,,ジェイアンドジェイ,0
1480,7030001159207,新規,0,2024-03-15,2024-03-15,株式会社マロンハウス,,株式会社,埼玉県,戸田市,下戸田１丁目１９番２号,,11,224,3350011,,,,,,,2024-03-15,1,,,,,マロンハウス,0
1481,7030001159215,新規,0,2024-03-15,2024-03-15,株式会社コネクションテーク,,株式会社,埼玉県,本庄市,寿３丁目２－１,,11,211,3670023,,,,,,,2024-03-15,1,,,,,コネクションテーク,0
1482,7030003023773,新規,0,2024-03-15,2024-03-15,合同会社諸見里工業,,合同会社,埼玉県,北足立郡伊奈町,本町２丁目２６７番地３,,11,301,3620804,,,,,,,2024-03-15,1,,,,,モロミサトコウギョウ,0
1483,7030003023815,新規,0,2024-03-15,2024-03-15,合同会社山崎製作所,,合同会社,埼玉県,草加市,青柳８丁目４４番８号,,11,221,3400002,,,,,,,2024-03-15,1,,,,,ヤマザキセイサクショ,0
1484,7030003023823,新規,0,2024-03-15,2024-03-15,ＫＡＲＡ　ＣＯＲＰＯＲＡＴＩＯＮ合同会社,,合同会社,埼玉県,川越市,霞ケ関北３丁目５番地１２,,11,201,3501109,,,,,,,2024-03-15,1,,,,,カラコーポレーション,0
1485,7030003023831,新規,0,2024-03-15,2024-03-15,合同会社図南山中,,合同会社,埼玉県,春日部市,粕壁東３丁目８－４６,,11,214,3440062,,,,,,,2024-03-15,1,,,,,トナンサンチュウ,0
1493,7040001132501,新規,0,2024-03-15,2024-03-15,高林空調設備株式会社,,株式会社,千葉県,市川市,大野町４丁目３０１３－４,,12,203,2720805,,,,,,,2024-03-15,1,,,,,タカバヤシクウチョウセツビ,0
1494,7040001132617,新規,0,2024-03-15,2024-03-15,クラフトコム株式会社,,株式会社,千葉県,千葉市花見川区,作新台８丁目１番地２５コーポラス花見川１０４,,12,102,2620045,,,,,,,2024-03-15,1,,,,,クラフトコム,0
1495,7040001132658,新規,0,2024-03-15,2024-03-15,株式会社ピーナッツ千葉,,株式会社,千葉県,千葉市中央区,新宿２丁目５番１６号ＬＫパークビル８階Ｂ号室,,12,101,2600021,,,,,,,2024-03-15,1,,,,,ピーナッツチバ,0
1504,7040003024548,新規,0,2024-03-15,2024-03-15,合同会社大剛,,合同会社,千葉県,市川市,原木１丁目１７番４号（第２グランドハイツ１０２号）,,12,203,2720004,,,,,,,2024-03-15,1,,,,,ダイゴウ,0
1505,7040003024556,新規,0,2024-03-15,2024-03-15,合同会社ＭＴＫ,,合同会社,千葉県,千葉市稲毛区,宮野木町１４０２番地１９,,12,103,2630054,,,,,,,2024-03-15,1,,,,,エムティーケー,0
1512,7050005013399,新規,0,2024-03-15,2024-03-15,医療法人社団結,,その他の設立登記法人,茨城県,結城市,大字結城１１７５３番地６,,08,207,3070001,,,,,,,2024-03-15,1,,,,,ムスビ,0
1513,7060001036915,新規,0,2024-03-15,2024-03-15,株式会社エスケイ,,株式会社,栃木県,真岡市,寺分３２８番地１,,09,209,3214354,,,,,,,2024-03-15,1,,,,,エスケイ,0
1520,7090003002516,新規,0,2024-03-15,2024-03-15,ＡＬＢＡ合同会社,,合同会社,山梨県,甲府市,古府中町１０５８番地２,,19,201,4000014,,,,,,,2024-03-15,1,,,,,アルバ,0
1521,7100001037272,新規,0,2024-03-15,2024-03-15,株式会社山田経営サポート,,株式会社,長野県,長野市,西後町１５９７－１長野表参道ビル４階,,20,201,3810000,,,,,,,2024-03-15,1,,,,,ヤマダケイエイサポート,0
1523,7100005013121,新規,0,2024-03-15,2024-03-15,特定非営利活動法人てまサポ,,その他の設立登記法人,長野県,上田市,長瀬２７６６番地５,,20,203,3860407,,,,,,,2024-03-15,1,,,,,テマサポ,0
1535,7120001263115,新規,0,2024-03-15,2024-03-15,三松株式会社,,株式会社,大阪府,大阪市都島区,都島中通２丁目５番１２－４０２号,,27,102,5340022,,,,,,,2024-03-15,1,,,,,ミマツ,0
1536,7120001263148,新規,0,2024-03-15,2024-03-15,贏海株式会社,00134074,株式会社,大阪府,大阪市都島区,中野町４丁目４番１０号ケンズ都島４０５号,,27,102,5340027,,,,,,,2024-03-15,1,,,,,エイカイ,0
1537,7120001263156,新規,0,2024-03-15,2024-03-15,花田株式会社,,株式会社,大阪府,大阪市中央区,平野町１丁目６－８メロディハイム平野町５０８号室,,27,128,5410046,,,,,,,2024-03-15,1,,,,,ハナダ,0
1538,7120001263180,新規,0,2024-03-15,2024-03-15,ワンダーバー株式会社,,株式会社,大阪府,大阪市西区,南堀江４丁目２５番Ｄ－６０１号,,27,106,5500015,,,,,,,2024-03-15,1,,,,,ワンダーバー,0
1541,7120003026156,新規,0,2024-03-15,2024-03-15,合同会社ＬｕＢｉ,,合同会社,大阪府,大阪市西成区,岸里２丁目９番１４－６０１号,,27,122,5570041,,,,,,,2024-03-15,1,,,,,ルビ,0
1544,7120101069206,新規,0,2024-03-15,2024-03-15,株式会社ワイズ,,株式会社,大阪府,泉南郡田尻町,嘉祥寺８７０番地７,,27,362,5980091,,,,,,,2024-03-15,1,,,,,ワイズ,0
1545,7120901048887,新規,0,2024-03-15,2024-03-15,株式会社ＫＡＮＯＮ,,株式会社,大阪府,豊中市,新千里南町２丁目６番１２号第１トーエイビル,,27,203,5600084,,,,,,,2024-03-15,1,,,,,カノン,0
1546,7120901048895,新規,0,2024-03-15,2024-03-15,株式会社ジェイズトランス,,株式会社,大阪府,茨木市,彩都もえぎ１丁目３番３号,,27,211,5670083,,,,,,,2024-03-15,1,,,,,ジェイズトランス,0
1552,7130001076581,新規,0,2024-03-15,2024-03-15,株式会社ＪＡＳ,,株式会社,京都府,京都市伏見区,深草向川原町２９番地１０,,26,109,6128404,,,,,,,2024-03-15,1,,,,,ジェーエーエス,0
1559,7140001133638,新規,0,2024-03-15,2024-03-15,株式会社ＴＡＸＩＳ,,株式会社,兵庫県,尼崎市,西本町２丁目２９番地エクセルコート西本町４０１,,28,202,6600874,,,,,,,2024-03-15,1,,,,,タクシス,0
1562,7150001027137,新規,0,2024-03-15,2024-03-15,ＪＡＭ＆Ｈａｒｕ株式会社,,株式会社,奈良県,北葛城郡上牧町,桜ケ丘３丁目１０番地１０,,29,424,6390202,,,,,,,2024-03-15,1,,,,,ジャムアンドハル,0
1563,7150003003202,新規,0,2024-03-15,2024-03-15,れんげ堂お供養サービス合同会社,,合同会社,奈良県,大和高田市,大字大中１１６番地６,,29,202,6350095,,,,,,,2024-03-15,1,,,,,レンゲドウオクヨウサービス,0
1564,7160003003135,新規,0,2024-03-15,2024-03-15,合同会社アネストホーム,,合同会社,滋賀県,大津市,松が丘５丁目１０番１号,,25,201,5202102,,,,,,,2024-03-15,1,,,,,アネストホーム,0
1568,7180001160546,新規,0,2024-03-15,2024-03-15,株式会社創建エステート,,株式会社,愛知県,名古屋市中区,栄３丁目２番３号名古屋日興證券ビル４階,,23,106,4600008,,,,,,,2024-03-15,1,,,,,ソウケンエステート,0
1571,7180003026489,新規,0,2024-03-15,2024-03-15,合同会社Ｏｐｅｎ　Ｆｉｅｌｄ,,合同会社,愛知県,名古屋市中区,新栄１丁目２７番１１号ヴェルジュコートＩ８０３号,00134076,23,106,4600007,,,,,,,2024-03-15,1,,,,,オープンフィールド,0
1573,7180301038418,新規,0,2024-03-15,2024-03-15,ブリルジャパン株式会社,,株式会社,愛知県,豊橋市,長瀬町字前畑５３番地２,,23,201,4400082,,,,,,,2024-03-15,1,,,,,ブリルジャパン,0
1576,7190001031168,新規,0,2024-03-15,2024-03-15,株式会社テンプルゲート,,株式会社,三重県,名張市,鴻之台２番町１３０番地,,24,208,5180702,,,,,,,2024-03-15,1,,,,,テンプルゲート,0
1577,7190001031176,新規,0,2024-03-15,2024-03-15,株式会社藤市商事,,株式会社,三重県,鈴鹿市,十宮１丁目１３番２１号,,24,207,5130037,,,,,,,2024-03-15,1,,,,,フジイチショウジ,0
1579,7210001019672,新規,0,2024-03-15,2024-03-15,株式会社内藤農産,,株式会社,福井県,越前市,相木町第１２号１番地,,18,209,9150202,,,,,,,2024-03-15,1,,,,,ナイトウノウサン,0
1584,7240001062926,新規,0,2024-03-15,2024-03-15,ＡＴホーム株式会社,,株式会社,広島県,広島市安佐南区,西原５丁目７番１２号,,34,105,7310113,,,,,,,2024-03-15,1,,,,,エーティーホーム,0
1590,7260001038825,新規,0,2024-03-15,2024-03-15,株式会社ｅＭ．ＷＯＲＫＳ,,株式会社,岡山県,岡山市東区,西大寺中野３９７番地１,,33,103,7048191,,,,,,,2024-03-15,1,,,,,エムワークス,0
1596,7290001105052,新規,0,2024-03-15,2024-03-15,株式会社海晶,,株式会社,福岡県,宗像市,日の里８丁目１９番地３,,40,220,8113425,,,,,,,2024-03-15,1,,,,,カイショウ,0
1599,7290003015051,新規,0,2024-03-15,2024-03-15,合同会社ｙｋｋ,,合同会社,福岡県,福岡市博多区,中洲２丁目４番２０号第２１ポールスタービル２階,,40,132,8100801,,,,,,,2024-03-15,1,,,,,ワイケイケイ,0
1600,7290003015068,新規,0,2024-03-15,2024-03-15,Ｏｍｏｖｉｓｔａ合同会社,,合同会社,福岡県,福岡市博多区,博多駅前１丁目２３番２号５階Ｂ,,40,132,8120011,,,,,,,2024-03-15,1,,,,,オモヴィスタ,0
1603,7290801030391,新規,0,2024-03-15,2024-03-15,日信商事株式会社,,株式会社,福岡県,北九州市門司区,新門司３丁目４５番４号,,40,101,8000115,,,,,,,2024-03-15,1,,,,,ニッシンショウジ,0
1608,7320001020347,新規,0,2024-03-15,2024-03-15,こどものやかた株式会社,,株式会社,大分県,速見郡日出町,３８８９番地８多賀ハイツＩＩ２０２,00134065,44,341,8791506,,,,,,,2024-03-15,1,,,,,コドモノヤカタ,0
1615,7340001026359,新規,0,2024-03-15,2024-03-15,株式会社さくらプレミアムウォーター,,株式会社,鹿児島県,垂水市,本城３７３２番地５,,46,214,8912112,,,,,,,2024-03-15,1,,,,,サクラプレミアムウォーター,0
1619,7350003004592,新規,0,2024-03-15,2024-03-15,合同会社ｗｅｓｔ　ｖｉｌｌａｇｅ,,合同会社,宮崎県,小林市,真方５８４番地６,,45,205,8860007,,,,,,,2024-03-15,1,,,,,ウエストビレッジ,0
1622,7360003013790,新規,0,2024-03-15,2024-03-15,合同会社ＭＳＤ,,合同会社,沖縄県,宮古島市,城辺字砂川１５７‐６,,47,214,9060108,,,,,,,2024-03-15,1,,,,,エムエスディ,0
1625,7370001051040,新規,0,2024-03-15,2024-03-15,株式会社ＹＪＫ不動産,,株式会社,宮城県,富谷市,明石台５丁目４１番地１２,,04,216,9813332,,,,,,,2024-03-15,1,,,,,ワイジェーケーフドウサン,0
1634,7390003002213,新規,0,2024-03-15,2024-03-15,合同会社ＢＯＮＭＡ,,合同会社,山形県,米沢市,門東町３丁目１８番１号,,06,202,9920039,,,,,,,2024-03-15,1,,,,,ボンマ,0
1635,7410003003902,新規,0,2024-03-15,2024-03-15,ＹＭＰＪａｐａｎ合同会社,,合同会社,秋田県,由利本荘市,東由利老方字畑田３８―１ギルバート,,05,210,0150211,,,,,,,2024-03-15,1,,,,,ワイエムピージャパン,0
1645,7470001020068,新規,0,2024-03-15,2024-03-15,ＦＡＩＺ　ＴＲＡＤＩＮＧ株式会社,,株式会社,香川県,三豊市,豊中町下高野２５２５下高野オフィスビルＡ－２,,37,208,7691508,,,,,,,2024-03-15,1,,,,,ファイズトレーディング,0
1654,7700150124397,新規,0,2024-03-15,2024-03-15,Ｓｈｅｎｚｈｅｎ　Ｓｈｉ　Ｊｉｎｓｅ　Ｗｕｊｉｎ　Ｄｉａｎｚｉ　Ｙｏｕｘｉａｎ　Ｇｏｎ,,外国会社等,,,,,,,,Ｂａｏａｎ　Ｑｕ　Ｓｏｎｇｇａｎｇ　Ｊｉｅｄａｏ　Ｂｉｔｏｕ　Ｓｈｅｑｕ　Ｓａｎ　Ｇｏｎｇｙｅ　Ｑｕ　Ｓａｎ　Ｌｕ　４　Ｈａｏ　Ｊｉｎｗａｎｇ　Ｃｈａｎｇ　Ｃｈａｎｇｆａｎｇ－１０１,,,,,,2024-03-15,1,,,,,シェンジェンシージンソーウージンディエンズージーピンヨウシエンゴンスー,0
1655,7700150124496,新規,0,2024-03-15,2024-03-15,ｃｈａｎｇｚｈｏｕｊｉｘｉｇｕｏｊｉｍａｏｙｉｙｏｕｘｉａｎｇｏｎｇｓｉ,,外国会社等,,,,,,,,Ｎｏ．１００２，Ｂｕｉｌｄｉｎｇ　１－２，Ｍｅｒｃｈａｎｔｓ　Ｇａｒｄｅｎ　Ｃｉｔｙ，Ｎｉｕｔａｎｇ　Ｔｏｗｎ，Ｗｕｊｉｎ　Ｄｉｓｔｒｉｃｔ，Ｃｈａｎｇｚｈｏｕｈ，Ｃｈｉｎａ,,,,,,2024-03-15,1,,,,,チャンゾウジシコクサイボウエキユウゲンコウシ,0
1656,7700150124505,新規,0,2024-03-15,2024-03-15,Ｓｈｅｎｚｈｅｎｓｈｉ　ＱｉｎｇＪｉａＹａｎｇ　ＤｉａｎＺｉＳｈａｎｇＷｕ　ＣＯ．，ＬＴＤ,,外国会社等,,,,,,,,ｓｈｅｎｚｈｅｎｓｈｉｂａｏａｎｑｕｘｉｘｉａｎｇｊｉｅｄａｏｎａｎｃｈａｎｇｓｈｅｑｕｎａｎｃｈａｎｇｌｕ６２ｈａｏ１４ｄｏｎｇ８０２,,,,,,2024-03-15,1,,,,,シンセンシチンジャヤンデンシショウムカンパニーリミテッド,0
1666,8010001243011,新規,0,2024-03-15,2024-03-15,株式会社ライジングサン,,株式会社,東京都,文京区,向丘１丁目７番１１号,,13,105,1130023,,,,,,,2024-03-15,1,,,,,ライジングサン,0
1667,8010001243077,新規,0,2024-03-15,2024-03-15,株式会社Ａｔｏｍｉｃ・Ｈｅａｒｔ,,株式会社,東京都,中央区,日本橋室町１丁目１１－１２日本橋水野ビル７Ｆ,,13,102,1030022,,,,,,,2024-03-15,1,,,,,アトミックハート,0
1670,8010003043203,新規,0,2024-03-15,2024-03-15,合同会社メニー・マーケッツ・ホールディングス,,合同会社,東京都,千代田区,霞が関３丁目２番５号,,13,101,1000013,,,,,,,2024-03-15,1,,,,,メニーマーケッツホールディングス,0
1671,8010003043211,新規,0,2024-03-15,2024-03-15,Ｃｈｕｒｃｈ＆Ｄｗｉｇｈｔ　Ｊａｐａｎ合同会社,,合同会社,東京都,千代田区,霞が関３丁目２番６号東京倶楽部ビルディング１１階,,13,101,1000013,,,,,,,2024-03-15,1,,,,,チャーチアンドドワイトジャパン,0
1677,8010401181059,新規,0,2024-03-15,2024-03-15,株式会社サウザンナッツ,,株式会社,東京都,港区,北青山１丁目３番１号アールキューブ青山３階,,13,103,1070061,,,,,,,2024-03-15,1,,,,,サウザンナッツ,0
1682,8010901054846,新規,0,2024-03-15,2024-03-15,株式会社ジョージ,,株式会社,東京都,世田谷区,祖師谷５丁目３９番９号,,13,112,1570072,,,,,,,2024-03-15,1,,,,,ジョージ,0
1688,8011003018665,新規,0,2024-03-15,2024-03-15,合同会社ｍｕｓｈｃｏ,,合同会社,東京都,渋谷区,道玄坂１丁目１０番８号渋谷道玄坂東急ビル２Ｆ－Ｃ,,13,113,1500043,,,,,,,2024-03-15,1,,,,,ムシュコ,0
1696,8011101106561,新規,0,2024-03-15,2024-03-15,株式会社Ｓ＆Ｋ　ＬＡＮＤ,,株式会社,東京都,新宿区,市谷砂土原町３丁目１７番地１ラ・トゥール市谷砂土原Ｗ１０２,,13,104,1620842,,,,,,,2024-03-15,1,,,,,エスアンドケイランド,0
1697,8011103014192,新規,0,2024-03-15,2024-03-15,合同会社ウォールナッツ,,合同会社,東京都,新宿区,大久保３丁目１４－３トーア早稲田マンション４０４,,13,104,1690072,,,,,,,2024-03-15,1,,,,,ウォールナッツ,0
1698,8011103014201,新規,0,2024-03-15,2024-03-15,占いサロン愛月合同会社,,合同会社,東京都,新宿区,高田馬場３丁目１番５号サンパティオ高田馬場３０９号室,,13,104,1690075,,,,,,,2024-03-15,1,,,,,ウラナイサロンアイヅキ,0
1699,8011203004325,新規,0,2024-03-15,2024-03-15,合同会社リイ,,合同会社,東京都,中野区,上高田３丁目１番１０号Ｂ－９０１,,13,114,1640002,,,,,,,2024-03-15,1,,,,,リイ,0
1704,8011703003776,新規,0,2024-03-15,2024-03-15,合同会社ＳＴＡＲＴ　ＹＯＵＲ　ＥＮＧＩＮＥ,,合同会社,東京都,江戸川区,臨海町２丁目２番６－６０２号,,13,123,1340086,,,,,,,2024-03-15,1,,,,,スタートユアエンジン,0
1710,8012403006458,新規,0,2024-03-15,2024-03-15,ｍｅｄｉｕｍ合同会社,,合同会社,東京都,三鷹市,上連雀１丁目１７―２４―１０３,,13,204,1810012,,,,,,,2024-03-15,1,,,,,ミディアム,0
1712,8012701018130,新規,0,2024-03-15,2024-03-15,株式会社佳瑞,,株式会社,東京都,小平市,小川町１丁目４０４―８０,,13,211,1870032,,,,,,,2024-03-15,1,,,,,カズイ,0
1713,8012703002933,新規,0,2024-03-15,2024-03-15,合同会社ひえいろく,,合同会社,東京都,西東京市,東町３丁目１０番１０－１００２号,,13,229,2020012,,,,,,,2024-03-15,1,,,,,ヒエイロク,0
1714,8013301052214,新規,0,2024-03-15,2024-03-15,株式会社カルクソリューションズ,,株式会社,東京都,豊島区,南大塚３丁目８番３号桂ビル,,13,116,1700005,,,,,,,2024-03-15,1,,,,,カルクソリューションズ,0
1720,8020001156229,新規,0,2024-03-15,2024-03-15,株式会社麹と酵母,,株式会社,神奈川県,川崎市麻生区,王禅寺東２丁目８－２０,,14,137,2150018,,,,,,,2024-03-15,1,,,,,コウジトコウボ,0
1728,8030001159057,新規,0,2024-03-15,2024-03-15,陽のあたる場所株式会社,,株式会社,埼玉県,入間市,大字仏子９５４番地１－３０１室,,11,225,3580053,,,,,,,2024-03-15,1,,,,,ヒノアタルバショ,0
1729,8030001159180,新規,0,2024-03-15,2024-03-15,株式会社Ｈａｐｐｙ　Ｓｔｅｐ,,株式会社,埼玉県,蓮田市,山ノ内５番地６０,,11,238,3490128,,,,,,,2024-03-15,1,,,,,ハッピーステップ,0
1730,8030001159189,新規,0,2024-03-15,2024-03-15,株式会社サトウ商事,,株式会社,埼玉県,さいたま市岩槻区,古ヶ場２丁目１番１４号,,11,110,3390072,,,,,,,2024-03-15,1,,,,,サトウショウジ,0
1731,8030001159197,新規,0,2024-03-15,2024-03-15,株式会社サムテク・ガード・システム,,株式会社,埼玉県,所沢市,青葉台１２６０番地の２,,11,208,3591105,,,,,,,2024-03-15,1,,,,,サムテクガードシステム,0
1732,8030001159206,新規,0,2024-03-15,2024-03-15,ＫＥＹ株式会社,,株式会社,埼玉県,坂戸市,芦山町４番地１４の５０５号室,,11,239,3500273,,,,,,,2024-03-15,1,,,,,キー,0
1735,8030003023789,新規,0,2024-03-15,2024-03-15,ＭＩ　Ｊａｐａｎ合同会社,,合同会社,埼玉県,比企郡吉見町,大字北吉見１３０７番地６,,11,347,3550155,,,,,,,2024-03-15,1,,,,,エムアイジャパン,0
1736,8030005021568,新規,0,2024-03-15,2024-03-15,一般社団法人国際スポーツキャリアセンター,,その他の設立登記法人,埼玉県,川口市,本町４丁目３番地１４小峰第一ビル４Ｆ,,11,203,3320012,,,,,,,2024-03-15,1,,,,,コクサイスポーツキャリアセンター,0
1737,8030005021576,新規,0,2024-03-15,2024-03-15,一般社団法人ＣＯ２資源化協会,,その他の設立登記法人,埼玉県,白岡市,下大崎９１２番地１,,11,246,3490203,,,,,,,2024-03-15,1,,,,,シーオーツーシゲンカキョウカイ,0
1747,8040001132632,新規,0,2024-03-15,2024-03-15,株式会社えにし,,株式会社,千葉県,市川市,大和田３丁目１番１９号,,12,203,2720025,,,,,,,2024-03-15,1,,,,,エニシ,0
1748,8040001132657,新規,0,2024-03-15,2024-03-15,株式会社明治デリカみやび,,株式会社,千葉県,千葉市花見川区,宮野木台２丁目５番１３号,,12,102,2620015,,,,,,,2024-03-15,1,,,,,メイジデリカミヤビ,0
1753,8040003024555,新規,0,2024-03-15,2024-03-15,旭合同会社,,合同会社,千葉県,市原市,姉崎１０４４番地１２,,12,219,2990111,,,,,,,2024-03-15,1,,,,,アサヒ,0
1757,8080001026178,新規,0,2024-03-15,2024-03-15,株式会社Ｒｙｕｚｚ,,株式会社,静岡県,静岡市葵区,弥勒２丁目２番１８－６号,,22,101,4200053,,,,,,,2024-03-15,1,,,,,リュウズ,0
1759,8080101024585,新規,0,2024-03-15,2024-03-15,株式会社Ｎａｓｕｃｏ,,株式会社,静岡県,沼津市,高尾台１２番地の２９,,22,203,4100017,,,,,,,2024-03-15,1,,,,,ナスコ,0
1761,8080105006407,新規,0,2024-03-15,2024-03-15,一般社団法人富士箱根伊豆トレイルサポート,,その他の設立登記法人,静岡県,伊豆市,修善寺９５５番地の１,,22,222,4102416,,,,,,,2024-03-15,1,,,,,フジハコネイズトレイルサポート,0
1764,8080401027049,新規,0,2024-03-15,2024-03-15,株式会社Ｔｒｙ’ｓ,,株式会社,静岡県,浜松市中央区,天龍川町３４１番地の１,,22,138,4350013,,,,,,,2024-03-15,1,,,,,トライス,0
1766,8080405007617,新規,0,2024-03-15,2024-03-15,一般社団法人くらしごと,,その他の設立登記法人,静岡県,浜松市中央区,田町２２３－２１ビオラ田町３階,,22,138,4300944,,,,,,,2024-03-15,1,,,,,クラシゴト,0
1771,8120001263122,新規,0,2024-03-15,2024-03-15,株式会社Ｋ‐Ｆｉｒｓｔ,,株式会社,大阪府,大阪市平野区,瓜破２丁目１番６８－８０３号阪谷門１番館,,27,126,5470024,,,,,,,2024-03-15,1,,,,,ケイファースト,0
1776,8120101069196,新規,0,2024-03-15,2024-03-15,株式会社Ａｍｂ．,,株式会社,大阪府,泉大津市,虫取町２丁目１２番１６号,,27,206,5950037,,,,,,,2024-03-15,1,,,,,アンビ,0
1777,8120101069205,新規,0,2024-03-15,2024-03-15,株式会社ＪＭＦＣコーポレーション,,株式会社,大阪府,堺市東区,大美野３９番地６,,27,143,5998126,,,,,,,2024-03-15,1,,,,,ジェイエムエフシィコーポレーション,0
1782,8120903005084,新規,0,2024-03-15,2024-03-15,合同会社ソドゥシュヴァル,,合同会社,大阪府,茨木市,彩都やまぶき４丁目１０番３号,,27,211,5670086,,,,,,,2024-03-15,1,,,,,ソドゥシュヴァル,0
1783,8122001037902,新規,0,2024-03-15,2024-03-15,タカマナ株式会社,,株式会社,大阪府,東大阪市,小阪２丁目４番１８－８０２号,,27,227,5770801,,,,,,,2024-03-15,1,,,,,タカマナ,0
1784,8130001076564,新規,0,2024-03-15,2024-03-15,千川商事株式会社,,株式会社,京都府,京都市東山区,渋谷通本町東入三丁目上新シ町３７１番地６,,26,105,6050000,,,,,,,2024-03-15,1,,,,,センカワショウジ,0
1785,8130001076580,新規,0,2024-03-15,2024-03-15,株式会社マルショウ,,株式会社,京都府,京都市山科区,大宅古海道町１２番地１８,,26,110,6078177,,,,,,,2024-03-15,1,,,,,マルショウ,0
1788,8140001133645,新規,0,2024-03-15,2024-03-15,六麓荘藝株式会社,,株式会社,兵庫県,神戸市中央区,脇浜町３丁目５－１０－３０５号,,28,110,6510072,,,,,,,2024-03-15,1,,,,,ロクロクソウゲイ,0
1789,8140001133661,新規,0,2024-03-15,2024-03-15,ＵＭＡＮＯホールディングス株式会社,,株式会社,兵庫県,明石市,西明石西町２丁目１２番１６号,,28,203,6730049,,,,,,,2024-03-15,1,,,,,ウマノホールディングス,0
1791,8150001027136,新規,0,2024-03-15,2024-03-15,株式会社ＮＥＸＴ,,株式会社,奈良県,橿原市,城殿町３９１番地の１４,,29,205,6340033,,,,,,,2024-03-15,1,,,,,ネクスト,0
1801,8180003026488,新規,0,2024-03-15,2024-03-15,新海不動産合同会社,,合同会社,愛知県,名古屋市天白区,荒池２丁目９２０番地の２,,23,116,4680013,,,,,,,2024-03-15,1,,,,,シンカイフドウサン,0
1806,8200005013580,新規,0,2024-03-15,2024-03-15,一般社団法人ミーツプロジェクト,,その他の設立登記法人,岐阜県,海津市,海津町高須５７８番地１,,21,221,5030654,,,,,,,2024-03-15,1,,,,,ミーツプロジェクト,0
1809,8220001025859,新規,0,2024-03-15,2024-03-15,株式会社ＳＵＥＮＡＧＡＫＵ,,株式会社,石川県,金沢市,神野町西２８９番地１,,17,201,9200365,,,,,,,2024-03-15,1,,,,,スエナガク,0
1810,8240001062925,新規,0,2024-03-15,2024-03-15,株式会社翔平,,株式会社,広島県,三原市,下北方１丁目７番３号,,34,204,7290414,,,,,,,2024-03-15,1,,,,,ショウヘイ,0
1825,8260005011323,新規,0,2024-03-15,2024-03-15,医療法人社団桜会,,その他の設立登記法人,岡山県,岡山市中区,中井４６２番地１,,33,102,7038205,,,,,,,2024-03-15,1,,,,,サクラカイ,0
1829,8290001105027,新規,0,2024-03-15,2024-03-15,株式会社Ｎｏｎｄａ,,株式会社,福岡県,福岡市博多区,堅粕１丁目３０‐１,,40,132,8120043,,,,,,,2024-03-15,1,,,,,ノンダ,0
1830,8290001105051,新規,0,2024-03-15,2024-03-15,株式会社建築舎番工,,株式会社,福岡県,柳川市,西蒲池１２８３番地１,,40,207,8320005,,,,,,,2024-03-15,1,,,,,ケンチクシャバンコウ,0
1837,8290801030390,新規,0,2024-03-15,2024-03-15,株式会社ＬｉＦｉｘ,,株式会社,福岡県,北九州市小倉北区,若富士町２番１－２０１号,,40,106,8020063,,,,,,,2024-03-15,1,,,,,リフィックス,0
1838,8300003002088,新規,0,2024-03-15,2024-03-15,合同会社ＭＺ,,合同会社,佐賀県,佐賀市,神野東２丁目１番２５号グレイスモナージュ佐賀駅前１０１号,,41,201,8400804,,,,,,,2024-03-15,1,,,,,エムゼット,0
1840,8310005008751,新規,0,2024-03-15,2024-03-15,医療法人幸正会,,その他の設立登記法人,長崎県,東彼杵郡川棚町,白石郷７番地１６,,42,322,8593616,,,,,,,2024-03-15,1,,,,,コウショウカイ,0
1846,8330001031854,新規,0,2024-03-15,2024-03-15,株式会社ＧｌｏｃａＲｉｓｅ,,株式会社,熊本県,熊本市中央区,九品寺２丁目３番１０号Ｓビル２Ｆ,,43,101,8620976,,,,,,,2024-03-15,1,,,,,,0
1849,8360003013798,新規,0,2024-03-15,2024-03-15,楽しくなる合同会社,,合同会社,沖縄県,宜野湾市,大謝名１丁目４－２５－２Ｆ,,47,205,9012225,,,,,,,2024-03-15,1,,,,,タノシクナル,0
1855,8380001034357,新規,0,2024-03-15,2024-03-15,ガイア・ファーム株式会社,,株式会社,福島県,郡山市,図景２丁目１２番１３号,,07,203,9638834,,,,,,,2024-03-15,1,,,,,,0
1861,8430003016018,新規,0,2024-03-15,2024-03-15,ＩＫＹＵソーシャルワーク合同会社,,合同会社,北海道,札幌市中央区,北十条西１５丁目１－５７－８０１号,,01,101,0600010,,,,,,,2024-03-15,1,,,,,イキュウソーシャルワーク,0
1863,8460001005878,新規,0,2024-03-15,2024-03-15,エアコ株式会社,,株式会社,北海道,釧路市,愛国西２丁目７番２号,,01,206,0850057,,,,,,,2024-03-15,1,,,,,エアコ,0
1871,8700150124479,新規,0,2024-03-15,2024-03-15,札幌駅南口北４西３地区市街地再開発組合,,その他,北海道,札幌市中央区,北四条西３丁目１番地,,01,101,0600004,,,,,,,2024-03-15,1,,,,,サツポロエキミナミグチキタヨンニシサンチクシガイチサイカイハツクミアイ,0
1872,8700150124495,新規,0,2024-03-15,2024-03-15,ｓｈｅｎｚｈｅｎｓｈｉｙｉｎｇｚｈｉｙｉｎｇｄｉａｎｚｉｋｅｊｉｙｏｕｘｉａｎｇｏｎｇｓｉ,,外国会社等,,,,,,,,２０２－１，２／Ｆ，Ｂｕｉｌｄｉｎｇ　７，Ｌｏｎｇｂｉ　Ｉｎｄｕｓｔｒｉａｌ　Ｚｏｎｅ，Ｎｏ．２７　Ｄａｆａ　Ｒｏａｄ，Ｄａｆａｐｕ　Ｃｏｍｍｕｎｉｔｙ，Ｂａｎｔｉａｎ　Ｓｔｒｅｅｔ，Ｌｏｎｇｇａｎｇ　Ｄｉｓｔｒｉｃｔ，Ｓｈｅｎｚｈｅｎ，Ｃｈｉｎａ,,,,,,2024-03-15,1,,,,,シンセンシインジエンデンシカギユウゲンコウシ,0
1873,8700150124504,新規,0,2024-03-15,2024-03-15,Ｓｈｅｎｚｈｅｎ　Ｒｕｎｓｈｅｎｇ　Ｃｕｌｔｕｒｅ　Ｔｅｃｈｎｏｌｏｇｙ　Ｃｏ．，Ｌｔｄ,,外国会社等,,,,,,,,２０６，２ｎｄ　Ｆｌｏｏｒ，Ｂｕｉｌｄｉｎｇ　Ｄ，Ｂａｎｔｉａｎ　Ｉｎｔｅｒｎａｔｉｏｎａｌ　Ｃｅｎｔｅｒ，Ｎｏ．５　Ｈｕａｎ　Ｃｈｅｎｇ　Ｓｏｕｔｈ　Ｒｏａｄ，ＭａａｎＴａｎｇ　Ｃｏｍｍｕｎｉｔｙ，Ｂａｎｔｉａｎ　Ｓｔｒｅｅｔ，Ｓｈｅｎｚｈｅｎ　Ｃｉｔｙ，Ｇｕａｎｇｄｏｎｇ　Ｐｒｏｖｉｎｃｅ，Ｃｈｉｎａ,,,,,,2024-03-15,1,,,,,シンセンルンセンカルチャアテクノロジーカンパニーリミテッド,0
1876,9010001242986,新規,0,2024-03-15,2024-03-15,株式会社２７８,,株式会社,東京都,中央区,日本橋室町１丁目１１番１２号日本橋水野ビル７階,,13,102,1030022,,,,,,,2024-03-15,1,,,,,ニナナハチ,0
1877,9010001243002,新規,0,2024-03-15,2024-03-15,ＷＩＮ　ＰＬＵＳ株式会社,,株式会社,東京都,中央区,日本橋蛎殻町１丁目１１番３号中銀日本橋マンシオン３０２号,,13,102,1030014,,,,,,,2024-03-15,1,,,,,ウィンプラス,0
1878,9010001243027,新規,0,2024-03-15,2024-03-15,Ｃｈｅｓｔ　Ｎｕｔ　Ｆｉｅｌｄ株式会社,,株式会社,東京都,中央区,銀座２丁目６番１５号第一吉田ビル地下１階,,13,102,1040061,,,,,,,2024-03-15,1,,,,,チェストナットフィールド,0
1879,9010001243126,新規,0,2024-03-15,2024-03-15,株式会社Ｓｕｎｎｙ　Ｓｋｙ　Ｃａｒｅｅｒ,,株式会社,東京都,千代田区,六番町１５番２号,,13,101,1020085,,,,,,,2024-03-15,1,,,,,サニースカイキャリア,0
1881,9010003043210,新規,0,2024-03-15,2024-03-15,合同会社タブラ・ラサ,,合同会社,東京都,千代田区,神田須田町２丁目２番地１パークキューブ神田７０３号室,,13,101,1010041,,,,,,,2024-03-15,1,,,,,タブララサ,0
1882,9010003043227,新規,0,2024-03-15,2024-03-15,合同会社エー事務所,,合同会社,東京都,中央区,日本橋兜町１７－１－７０７,,13,102,1030026,,,,,,,2024-03-15,1,,,,,エージムショ,0
1898,9010403032168,新規,0,2024-03-15,2024-03-15,合同会社わだち,,合同会社,東京都,港区,浜松町２丁目２番１５号浜松町ダイヤビル２Ｆ,,13,103,1050013,,,,,,,2024-03-15,1,,,,,ワダチ,0
1904,9010501051945,新規,0,2024-03-15,2024-03-15,株式会社カネライ,,株式会社,東京都,台東区,上野６丁目１番６号御徒町グリーンハイツ６０９,,13,106,1100005,,,,,,,2024-03-15,1,,,,,カネライ,0
1908,9010503007375,新規,0,2024-03-15,2024-03-15,合同会社ＥＣＯ　ＬＩＦＥ,,合同会社,東京都,台東区,千束３丁目２７番１３－５０４号ジェノヴィア浅草ＩＩＩグリーンヴェール,00134071,13,106,1110031,,,,,,,2024-03-15,1,,,,,エコライフ,0
1909,9010603010709,新規,0,2024-03-15,2024-03-15,エムジー・スマート・トレーディング合同会社,,合同会社,東京都,墨田区,東向島４丁目１０番１２－１０２号,,13,107,1310032,,,,,,,2024-03-15,1,,,,,エムジースマートトレーディング,0
1914,9010901054878,新規,0,2024-03-15,2024-03-15,株式会社コンベクション,,株式会社,東京都,世田谷区,太子堂１丁目１５番６号,,13,112,1540004,,,,,,,2024-03-15,1,,,,,コンベクション,0
1920,9011003018689,新規,0,2024-03-15,2024-03-15,合同会社Ｕサポート,,合同会社,東京都,渋谷区,本町４丁目２３番５号,,13,113,1510071,,,,,,,2024-03-15,1,,,,,ユーサポート,0
1922,9011101106544,新規,0,2024-03-15,2024-03-15,ＳＭＵトレーディング株式会社,,株式会社,東京都,新宿区,西新宿１丁目２０番３号西新宿高木ビル７階,,13,104,1600023,,,,,,,2024-03-15,1,,,,,エスエムユートレーディング,0
1923,9011103014217,新規,0,2024-03-15,2024-03-15,合同会社エース,,合同会社,東京都,新宿区,西新宿７丁目８－１５ＫＤＸ西新宿３０３号室,,13,104,1600023,,,,,,,2024-03-15,1,,,,,エース,0
1928,9011803006133,新規,0,2024-03-15,2024-03-15,合同会社Ｂ＆Ｂ,,合同会社,東京都,葛飾区,東金町３丁目３８番１８号,,13,122,1250041,,,,,,,2024-03-15,1,,,,,ビアンドビ,0
1931,9012705002393,新規,0,2024-03-15,2024-03-15,特定非営利活動法人アクトラスト,,その他の設立登記法人,東京都,清瀬市,中里５丁目５８１番地,,13,221,2040003,,,,,,,2024-03-15,1,,,,,アクトラスト,0
1939,9013301052213,新規,0,2024-03-15,2024-03-15,山中マル商店株式会社,,株式会社,東京都,豊島区,池袋３丁目３５番９号,,13,116,1710014,,,,,,,2024-03-15,1,,,,,ヤマナカマルショウテン,0
1946,9020001156203,新規,0,2024-03-15,2024-03-15,株式会社さわ,,株式会社,神奈川県,横浜市金沢区,富岡西２丁目２９番８号‐２Ｆ,,14,108,2360052,,,,,,,2024-03-15,1,,,,,サワ,0
1947,9020001156244,新規,0,2024-03-15,2024-03-15,アスロードホールディングス株式会社,,株式会社,神奈川県,横浜市鶴見区,潮田町１丁目２３番６,,14,101,2300041,,,,,,,2024-03-15,1,,,,,アスロードホールディングス,0
1948,9020001156260,新規,0,2024-03-15,2024-03-15,ｍｏｌｘ株式会社,,株式会社,神奈川県,川崎市川崎区,駅前本町１８番１号メルスサイトー７０２,,14,131,2100007,,,,,,,2024-03-15,1,,,,,モルクス,0
1961,9030001159196,新規,0,2024-03-15,2024-03-15,早川商店株式会社,,株式会社,埼玉県,蕨市,中央５丁目４－１７,,11,223,3350004,,,,,,,2024-03-15,1,,,,,ハヤカワショウテン,0
1962,9030001159205,新規,0,2024-03-15,2024-03-15,景華株式会社,,株式会社,埼玉県,川口市,柳崎２丁目３番４号,,11,203,3330861,,,,,,,2024-03-15,1,,,,,ケイカ,0
1963,9030001159246,新規,0,2024-03-15,2024-03-15,ＹＨ株式会社,,株式会社,埼玉県,さいたま市南区,沼影１丁目１１番２号Ｃ－１１０３,,11,108,3360027,,,,,,,2024-03-15,1,,,,,ワイエイチ,0
1973,9030005021583,新規,0,2024-03-15,2024-03-15,一般社団法人とみ田や,,その他の設立登記法人,埼玉県,羽生市,南３丁目８番１２号,,11,216,3480053,,,,,,,2024-03-15,1,,,,,トミタヤ,0
1982,9040003024554,新規,0,2024-03-15,2024-03-15,合同会社山裕興業,,合同会社,千葉県,君津市,北子安１丁目９－１,,12,225,2991161,,,,,,,2024-03-15,1,,,,,サンユウコウギョウ,0
1986,9050003008168,新規,0,2024-03-15,2024-03-15,Ｃｈｕｎｋ．ｓｔｏｒｅ合同会社,,合同会社,茨城県,牛久市,栄町３丁目１３５番地１,,08,219,3001233,,,,,,,2024-03-15,1,,,,,チャンクストア,0
1987,9050003008192,新規,0,2024-03-15,2024-03-15,合同会社ＮＩＮＥ,,合同会社,茨城県,つくば市,花畑３丁目２４番地１ＹＳ－Ｉ１０２号,00134066,08,220,3003261,,,,,,,2024-03-15,1,,,,,ナイン,0
1997,9080001026177,新規,0,2024-03-15,2024-03-15,Ｓｙａ‐ａｈ株式会社,,株式会社,静岡県,静岡市葵区,常磐町２丁目４番地の１－３０１号,,22,101,4200034,,,,,,,2024-03-15,1,,,,,シャアハ,0
1998,9080101024584,新規,0,2024-03-15,2024-03-15,株式会社Ｂｏｎｄｉｎｇ‐Ｈ,,株式会社,静岡県,富士市,厚原９３７番地の２１,,22,210,4190201,,,,,,,2024-03-15,1,,,,,ボンディングエイチ,0
2005,9100003007445,新規,0,2024-03-15,2024-03-15,Ｓｈｅｌｔｅｒｅｄ　Ｉｎｎ　Ｈａｋｕｂａ合同会社,,合同会社,長野県,北安曇郡白馬村,大字北城８３６番地６６,,20,485,3999301,,,,,,,2024-03-15,1,,,,,シェルタードインハクバ,0
2006,9110001038243,新規,0,2024-03-15,2024-03-15,株式会社アイアンブルワリー,,株式会社,新潟県,三条市,荒町１丁目１３番１９号,,15,204,9550083,,,,,,,2024-03-15,1,,,,,アイアンブルワリー,0
2016,9120001263088,新規,0,2024-03-15,2024-03-15,株式会社ノッコン,,株式会社,大阪府,大阪市西淀川区,大和田６丁目９番４号,,27,113,5550032,,,,,,,2024-03-15,1,,,,,ノッコン,0
2017,9120001263096,新規,0,2024-03-15,2024-03-15,山雲株式会社,,株式会社,大阪府,大阪市生野区,中川３丁目４番１７号２０６室,,27,116,5440005,,,,,,,2024-03-15,1,,,,,サンウン,0
2018,9120001263162,新規,0,2024-03-15,2024-03-15,池田泉州エリアサポート株式会社,,株式会社,大阪府,大阪市北区,茶屋町１８番１４号,,27,127,5300013,,,,,,,2024-03-15,1,,,,,イケダセンシュウエリアサポート,0
2019,9120001263195,新規,0,2024-03-15,2024-03-15,株式会社ユジャロンフードプロダクツ,,株式会社,大阪府,大阪市西区,京町堀１丁目１１番７号京旺ビル４階Ｂ号室,,27,106,5500003,,,,,,,2024-03-15,1,,,,,ユジャロンフードプロダクツ,0
2020,9120005024197,新規,0,2024-03-15,2024-03-15,一般社団法人アデレードコンサルティング,,その他の設立登記法人,大阪府,大阪市北区,東天満２丁目１番１８－９０１号,,27,127,5300044,,,,,,,2024-03-15,1,,,,,アデレードコンサルティング,0
2022,9120101069212,新規,0,2024-03-15,2024-03-15,株式会社江藤,,株式会社,大阪府,堺市北区,中百舌鳥町４丁４３４番地１８,,27,146,5918023,,,,,,,2024-03-15,1,,,,,エトウ,0
2023,9120103005719,新規,0,2024-03-15,2024-03-15,合同会社りんくうＬＩＮＥ,,合同会社,大阪府,泉南市,男里４丁目１９番４１号,,27,228,5900526,,,,,,,2024-03-15,1,,,,,リンクウライン,0
2029,9130001076563,新規,0,2024-03-15,2024-03-15,千潤商事株式会社,,株式会社,京都府,京都市南区,東九条北松ノ木町２９番地１０,,26,107,6018022,,,,,,,2024-03-15,1,,,,,センジュンショウジ,0
2037,9140001133652,新規,0,2024-03-15,2024-03-15,一凡株式会社,,株式会社,兵庫県,神戸市長田区,大塚町６丁目１番３－２号,,28,106,6530811,,,,,,,2024-03-15,1,,,,,イチハン,0
2038,9140001133669,新規,0,2024-03-15,2024-03-15,ＴＭ　Ｃｒａｆｔｗｏｒｋｓ株式会社,,株式会社,兵庫県,神戸市北区,小倉台７丁目１１―５,,28,109,6511211,,,,,,,2024-03-15,1,,,,,ティーエムクラフトワークス,0
2042,9140003020270,新規,0,2024-03-15,2024-03-15,合同会社ナイス,,合同会社,兵庫県,明石市,大久保町大窪１６１３番地の１６,,28,203,6740051,,,,,,,2024-03-15,1,,,,,ナイス,0
2043,9150003003200,新規,0,2024-03-15,2024-03-15,合同会社ｍｉｎｏｌａ,,合同会社,奈良県,奈良市,三松１丁目１２番１２－４０９号,,29,201,6310074,,,,,,,2024-03-15,1,,,,,ミノラ,0
2044,9160001025749,新規,0,2024-03-15,2024-03-15,株式会社Ｇｌｏｗ,,株式会社,滋賀県,草津市,東矢倉３丁目２８番１８号メゾン矢倉１Ｆ,,25,206,5250054,,,,,,,2024-03-15,1,,,,,グロー,0
2048,9180001160536,新規,0,2024-03-15,2024-03-15,株式会社サンダーベア,,株式会社,愛知県,名古屋市中区,栄１丁目２４番４０号サン・サカエビル８０２,,23,106,4600008,,,,,,,2024-03-15,1,,,,,サンダーベア,0
2050,9180003026479,新規,0,2024-03-15,2024-03-15,ＫＡＴＯ合同会社,,合同会社,愛知県,清須市,西市場４丁目７番地６,,23,233,4520941,,,,,,,2024-03-15,1,,,,,カトウ,0
2056,9190001031174,新規,0,2024-03-15,2024-03-15,アルデオ株式会社,,株式会社,三重県,度会郡度会町,下久具４９５番地１,,24,470,5162111,,,,,,,2024-03-15,1,,,,,アルデオ,0
2063,9220001025858,新規,0,2024-03-15,2024-03-15,株式会社中田舎,,株式会社,石川県,白山市,森島町う１４０番地１０,,17,210,9202131,,,,,,,2024-03-15,1,,,,,ナカタシャ,0
2077,9280003001819,新規,0,2024-03-15,2024-03-15,合同会社ＲＥｌｉｆｅ,,合同会社,島根県,出雲市,西園町１１１１,,32,203,6930041,,,,,,,2024-03-15,1,,,,,リライフ,0
2080,9290001105059,新規,0,2024-03-15,2024-03-15,株式会社Ｃｙｇｎｕｓ,,株式会社,福岡県,福岡市博多区,中洲２丁目６番７号,,40,132,8100801,,,,,,,2024-03-15,1,,,,,シグナス,0
2090,9320001020345,新規,0,2024-03-15,2024-03-15,株式会社園田建設,,株式会社,大分県,日田市,大字有田１３０２番地２,,44,204,8770000,,,,,,,2024-03-15,1,,,,,ソノダケンセツ,0
2096,9360001033319,新規,0,2024-03-15,2024-03-15,株式会社ＦＲＯＴＡＮ,,株式会社,沖縄県,宜野湾市,志真志２丁目２１番２－１０３号当山学生アパート,,47,205,9012213,,,,,,,2024-03-15,1,,,,,フロタン,0
2097,9360003013797,新規,0,2024-03-15,2024-03-15,合同会社スマイル創業,,合同会社,沖縄県,浦添市,字港川３１０番地２２,,47,208,9012134,,,,,,,2024-03-15,1,,,,,スマイルソウギョウ,0
2114,9450001014251,新規,0,2024-03-15,2024-03-15,株式会社公園通り動物病院,,株式会社,北海道,名寄市,大通南１０丁目１番地１,,01,221,0960010,,,,,,,2024-03-15,1,,,,,コウエンドオリドウブツビョウイン,0
2117,9470001020074,新規,0,2024-03-15,2024-03-15,株式会社シンユウ電芸,,株式会社,香川県,坂出市,西大浜南１丁目２番１号,,37,203,7620054,,,,,,,2024-03-15,1,,,,,シンユウデンゲイ,0
2119,9490001010718,新規,0,2024-03-15,2024-03-15,よさこい地所株式会社,,株式会社,高知県,高知市,役知町１３－８,,39,201,7818002,,,,,,,2024-03-15,1,,,,,ヨサコイジショ,0
2122,9700150124494,新規,0,2024-03-15,2024-03-15,ｗｅｉｈａｉｔｕｏｌｕｈｕｗａｉｙｏｎｇｐｉｎｙｏｕｘｉａｎｇｏｎｇｓｉ,,外国会社等,,,,,,,,Ｒｏｏｍ　１０１１，Ｎｏ．９，Ｈａｉｂｉｎ　Ｎｏｒｔｈ　Ｒｏａｄ，Ｈｕａｎｃｕｉ　Ｄｉｓｔｒｉｃｔ，Ｗｅｉｈａｉ　Ｃｉｔｙ，Ｓｈａｎｄｏｎｇ　Ｐｒｏｖｉｎｃｅ,,,,,,2024-03-15,1,,,,,ウェイハイトウルホウワイヨンピンユウゲンコウシ,0
2123,9700150124503,新規,0,2024-03-15,2024-03-15,ｈｕｉｚｈｏｕｓｈｉｚｈｕｏｘｉｎｈｕｉｆｕｚｈｕａｎｇｙｏｕｘｉａｎｇｏｎｇｓｉ,,外国会社等,,,,,,,,Ｎｏ．４９８，Ｌｉａｏｚｉ　Ｖｉｌｌａｇｅ，Ｙｕａｎｚｈｏｕ　Ｔｏｗｎ，Ｂｏｌｕｏ　Ｃｏｕｎｔｙ,,,,,,2024-03-15,1,,,,,ケイシュウシズオシンフイフジウアンユウゲンコウシ,0
