sequenceNumber,corporateNumber,process,correct,updateDate,changeDate,name,nameImageId,kind,prefectureName,cityName,streetNumber,addressImageId,prefectureCode,cityCode,postCode,addressOutside,addressOutsideImageId,closeDate,closeCause,successorCorporateNumber,changeCause,assignmentDate,latest,enName,enPrefectureName,enCityName,enAddressOutside,furigana,hihyoji
10,1010001246004,新規,0,2024-06-27,2024-06-27,株式会社ＢＺ,,株式会社,東京都,中央区,銀座８丁目８番４号村喜五号館ビル地下２階,,13,102,1040061,,,,,,,2024-06-27,1,,,,,ビーゼット,0
13,1010005038447,新規,0,2024-06-27,2024-06-27,一般社団法人日本センテナリアン健康協会,,その他の設立登記法人,東京都,中央区,新川２丁目１番１０号,,13,102,1040033,,,,,,,2024-06-27,1,,,,,ニホンセンテナリアンケンコウキョウカイ,0
17,1010401183409,新規,0,2024-06-27,2024-06-27,ＹＹＢホールディングス株式会社,,株式会社,東京都,港区,高輪１丁目２７番３７号,,13,103,1080074,,,,,,,2024-06-27,1,,,,,ワイワイビーホールディングス,0
20,1010403032910,新規,0,2024-06-27,2024-06-27,合同会社ＦＣＴ,,合同会社,東京都,港区,港南２丁目１６番１号品川イーストワンタワー４階,,13,103,1080075,,,,,,,2024-06-27,1,,,,,エフシーティー,0
25,1010803005004,新規,0,2024-06-27,2024-06-27,ＫＳＨＥＴＲＩ合同会社,,合同会社,東京都,大田区,東雪谷１丁目２８番１４号長岡マンション５０５,,13,111,1450065,,,,,,,2024-06-27,1,,,,,チャトリ,0
26,1010903009185,新規,0,2024-06-27,2024-06-27,Ｔｈｅ　Ｆａｋａｔａｖａ’ｓ＆Ｃｏ．合同会社,,合同会社,東京都,世田谷区,宇奈根２丁目１１－２６フェアリーガーデンたまがわＣ棟１,,13,112,1570068,,,,,,,2024-06-27,1,,,,,ザファカタヴァズアンドカンパニー,0
30,1011001162315,新規,0,2024-06-27,2024-06-27,株式会社Ｅ　ＲＥＡＬ,,株式会社,東京都,渋谷区,恵比寿西２丁目８番４号ＥＸ恵比寿西ビル５階,,13,113,1500021,,,,,,,2024-06-27,1,,,,,イーリアル,0
31,1011001162991,新規,0,2024-06-27,2024-06-27,株式会社ＢＬＡＮＣＳＰＡＣＥ,,株式会社,東京都,目黒区,駒場１丁目２８番５－４０９号ＡＣＣＵＭＮ,,13,110,1530041,,,,,,,2024-06-27,1,,,,,ブランクスペース,0
32,1011001163008,新規,0,2024-06-27,2024-06-27,ダブリューリアルティ株式会社,,株式会社,東京都,渋谷区,代々木２丁目１９番１２号唐沢第２ビル５０３号,,13,113,1510053,,,,,,,2024-06-27,1,,,,,ダブリューリアルティ,0
33,1011001163016,新規,0,2024-06-27,2024-06-27,株式会社アコリット,,株式会社,東京都,目黒区,自由が丘２丁目８番１２号ベルヴェデーレ自由が丘２０４,,13,110,1520035,,,,,,,2024-06-27,1,,,,,アコリット,0
35,1011003019471,新規,0,2024-06-27,2024-06-27,合同会社スカイピア,,合同会社,東京都,渋谷区,道玄坂１丁目６－３パールビル５Ｆ,,13,113,1500043,,,,,,,2024-06-27,1,,,,,スカイピア,0
37,1011101107830,新規,0,2024-06-27,2024-06-27,石川住興業株式会社,,株式会社,東京都,新宿区,西新宿３丁目３番１３号西新宿水間ビル２階,,13,104,1600023,,,,,,,2024-06-27,1,,,,,イシカワジュウコウギョウ,0
38,1011101107847,新規,0,2024-06-27,2024-06-27,ＬＩＮＣＯＭＥ　ＪＡＰＡＮ株式会社,,株式会社,東京都,新宿区,新宿２丁目９番２３号ＳＶＡＸ新宿Ｂ館８階,,13,104,1600022,,,,,,,2024-06-27,1,,,,,リンコムジャパン,0
39,1011101107855,新規,0,2024-06-27,2024-06-27,ＣＵＥ　ＳＴＡＴＩＯＮ株式会社,,株式会社,東京都,新宿区,新宿５丁目１８番２０号ルックハイツ新宿８０３号,,13,104,1600022,,,,,,,2024-06-27,1,,,,,キューステーション,0
42,1011401026227,新規,0,2024-06-27,2024-06-27,株式会社ＡＵＴＬＡ,,株式会社,東京都,板橋区,常盤台３丁目２２番６号澤崎ビル３０１,,13,119,1740071,,,,,,,2024-06-27,1,,,,,アウトラ,0
51,1011501030855,新規,0,2024-06-27,2024-06-27,株式会社ＳＭＩＬＥ　ＪＡＰＡＮ,,株式会社,東京都,北区,中里２丁目１１番３号ＳＫハウス１０２,,13,117,1140015,,,,,,,2024-06-27,1,,,,,スマイルジャパン,0
53,1011603004369,新規,0,2024-06-27,2024-06-27,ＫＰＩ　Ｏｃｅａｎ　Ｃｏｎｎｅｃｔ　ＪＰ合同会社,,合同会社,東京都,練馬区,関町北２丁目７番１４号,,13,120,1770051,,,,,,,2024-06-27,1,,,,,ケイピーアイオーシャンコネクトジェイピー,0
55,1011803006306,新規,0,2024-06-27,2024-06-27,関東総合市場合同会社,,合同会社,東京都,足立区,入谷６丁目２番７号,,13,121,1210836,,,,,,,2024-06-27,1,,,,,カントウソウゴウイチバ,0
63,1020001157877,新規,0,2024-06-27,2024-06-27,株式会社ＦＯＯＴＡＧＥ,,株式会社,神奈川県,川崎市中原区,上平間１４０２番地１５８,,14,133,2110013,,,,,,,2024-06-27,1,,,,,フッテージ,0
64,1020001157893,新規,0,2024-06-27,2024-06-27,株式会社オールマイティー,,株式会社,神奈川県,川崎市中原区,上平間１８０番地１アクア・イゾラ７０６,,14,133,2110013,,,,,,,2024-06-27,1,,,,,オールマイティー,0
65,1020001157902,新規,0,2024-06-27,2024-06-27,株式会社Ｌｕｎａ,,株式会社,神奈川県,横浜市都筑区,牛久保町１９２０－４,,14,118,2240011,,,,,,,2024-06-27,1,,,,,ルナ,0
67,1020003026460,新規,0,2024-06-27,2024-06-27,英コンサルティング合同会社,,合同会社,神奈川県,横浜市都筑区,茅ケ崎中央２－１オズマークスセンター南８１０,,14,118,2240032,,,,,,,2024-06-27,1,,,,,ハナブサコンサルティング,0
77,1030001161127,新規,0,2024-06-27,2024-06-27,株式会社ｐｉｅｃｅ　ｂｙ　ｐｉｅｃｅ,,株式会社,埼玉県,新座市,あたご３丁目２番２２号,,11,230,3520021,,,,,,,2024-06-27,1,,,,,ピースバイピース,0
86,1040003025279,新規,0,2024-06-27,2024-06-27,合同会社Ｍ＆Ａ,,合同会社,千葉県,松戸市,稔台１丁目２７番地の１２メゾネットカネコ１０２号,,12,207,2702231,,,,,,,2024-06-27,1,,,,,エムアンドエー,0
93,1060003005130,新規,0,2024-06-27,2024-06-27,合同会社國井,,合同会社,栃木県,下野市,薬師寺１３２０番地４,,09,216,3290431,,,,,,,2024-06-27,1,,,,,クニイ,0
105,1080405007648,新規,0,2024-06-27,2024-06-27,一般社団法人アンドアレース,,その他の設立登記法人,静岡県,浜松市中央区,中島３丁目２２番１６号ＣＵＳＴＯＭ中島１０１,,22,138,4300856,,,,,,,2024-06-27,1,,,,,アンドアレース,0
118,1110001038507,新規,0,2024-06-27,2024-06-27,株式会社Ｔｙカンパニー,,株式会社,新潟県,村上市,塩町１２番３２号,,15,212,9580876,,,,,,,2024-06-27,1,,,,,ティーワイカンパニー,0
125,1120001266197,新規,0,2024-06-27,2024-06-27,日向株式会社,,株式会社,大阪府,大阪市住吉区,我孫子西２丁目７番２４－３０１号,,27,120,5580015,,,,,,,2024-06-27,1,,,,,ヒナタ,0
126,1120001266239,新規,0,2024-06-27,2024-06-27,株式会社ＳＡＩＮＯ．ｃｏｍｐａｎｙ,,株式会社,大阪府,大阪市平野区,長吉長原２丁目４番２７号,,27,126,5470016,,,,,,,2024-06-27,1,,,,,サイノカンパニー,0
127,1120001266296,新規,0,2024-06-27,2024-06-27,株式会社ＫＳＫ,,株式会社,大阪府,大阪市西区,本田１丁目４番４６号匠空７１０,,27,106,5500022,,,,,,,2024-06-27,1,,,,,ケーエスケー,0
130,1120003026921,新規,0,2024-06-27,2024-06-27,南伽耶合同会社,,合同会社,大阪府,大阪市中央区,森ノ宮中央２丁目６番１－９０８号,,27,128,5400003,,,,,,,2024-06-27,1,,,,,ナニワ,0
133,1120901049379,新規,0,2024-06-27,2024-06-27,株式会社Ｍｅｒｅｎｄａ,,株式会社,大阪府,豊中市,新千里東町１丁目１番３号,,27,203,5600082,,,,,,,2024-06-27,1,,,,,メレンダ,0
136,1122001038221,新規,0,2024-06-27,2024-06-27,株式会社メディカルエリン,,株式会社,大阪府,四條畷市,中野本町３５－３５－１０６,,27,229,5750051,,,,,,,2024-06-27,1,,,,,メディカルエリン,0
150,1150003003298,新規,0,2024-06-27,2024-06-27,合同会社ｃａｒｒｙ　ｏｎ,,合同会社,奈良県,奈良市,宝来３丁目１３－２クレール２０３,,29,201,6310845,,,,,,,2024-06-27,1,,,,,キャリーオン,0
161,1190001031446,新規,0,2024-06-27,2024-06-27,株式会社Ｊ‐Ｒｅｖｅｓｔ,,株式会社,三重県,四日市市,諏訪栄町１番２‐１３０１号プレイズ四日市,,24,202,5100086,,,,,,,2024-06-27,1,,,,,ジェーリベスト,0
167,1210003001808,新規,0,2024-06-27,2024-06-27,合同会社フォレストワン,,合同会社,福井県,福井市,若杉３丁目２０５番地レオパレスやすらぎ２０１,,18,201,9188055,,,,,,,2024-06-27,1,,,,,フォレストワン,0
174,1240001063434,新規,0,2024-06-27,2024-06-27,ヒートブルー株式会社,,株式会社,広島県,尾道市,向東町３５８０番地の２,,34,205,7220062,,,,,,,2024-06-27,1,,,,,ヒートブルー,0
175,1240001063442,新規,0,2024-06-27,2024-06-27,株式会社ａｎｄ　ｂｅｅ,,株式会社,広島県,呉市,長ノ木町１４番１２号,,34,202,7370053,,,,,,,2024-06-27,1,,,,,アンドビー,0
176,1240003006738,新規,0,2024-06-27,2024-06-27,Ｊ．ｃｏｍ合同会社,,合同会社,広島県,広島市西区,商工センター７丁目５番４８号３Ｆ,,34,104,7330833,,,,,,,2024-06-27,1,,,,,ジェイコム,0
188,1290001106238,新規,0,2024-06-27,2024-06-27,株式会社グリーンスタイル,,株式会社,福岡県,筑紫野市,大字萩原１２２９番地１,,40,217,8180044,,,,,,,2024-06-27,1,,,,,グリーンスタイル,0
197,1330001032198,新規,0,2024-06-27,2024-06-27,株式会社ブルーガーデン,,株式会社,熊本県,天草市,久玉町１２１１番地１,,43,215,8631902,,,,,,,2024-06-27,1,,,,,ブルーガーデン,0
198,1330003010441,新規,0,2024-06-27,2024-06-27,合同会社エイトアップ,,合同会社,熊本県,熊本市東区,山ノ神１丁目４―３０,,43,102,8620915,,,,,,,2024-06-27,1,,,,,エイトアップ,0
199,1330005010803,新規,0,2024-06-27,2024-06-27,農事組合法人須恵かちゃあ,,その他の設立登記法人,熊本県,球磨郡あさぎり町,須恵１１０９番地１,,43,514,8680451,,,,,,,2024-06-27,1,,,,,スエカチャア,0
202,1360001033838,新規,0,2024-06-27,2024-06-27,株式会社タマキ工業,,株式会社,沖縄県,宜野湾市,我如古２丁目１０番５号,,47,205,9012214,,,,,,,2024-06-27,1,,,,,タマキコウギョウ,0
204,1370001051467,新規,0,2024-06-27,2024-06-27,株式会社コンパクトカーワカマツ,,株式会社,宮城県,仙台市泉区,七北田字山ノ寺１２－５,,04,105,9813131,,,,,,,2024-06-27,1,,,,,コンパクトカーワカマツ,0
206,1380001034628,新規,0,2024-06-27,2024-06-27,株式会社ＶＥＮＵＳ,,株式会社,福島県,二本松市,渋川字日向５７番地,,07,210,9691403,,,,,,,2024-06-27,1,,,,,ヴィーナス,0
210,1400001016697,新規,0,2024-06-27,2024-06-27,ルーセ株式会社,,株式会社,岩手県,北上市,鍛冶町１丁目３－３,,03,206,0240062,,,,,,,2024-06-27,1,,,,,ルーセ,0
218,1430001092109,新規,0,2024-06-27,2024-06-27,株式会社ＯＰＡＳ,,株式会社,北海道,小樽市,稲穂２丁目２２番４号,,01,203,0470032,,,,,,,2024-06-27,1,,,,,オーパス,0
219,1430001092125,新規,0,2024-06-27,2024-06-27,ＷＯＯＫ株式会社,,株式会社,北海道,石狩市,花川南一条２丁目１６４番地,,01,235,0613201,,,,,,,2024-06-27,1,,,,,ウォーク,0
224,1460101007566,新規,0,2024-06-27,2024-06-27,株式会社カスタムプラン,,株式会社,北海道,河東郡音更町,雄飛が丘仲区１番地４４,,01,631,0800332,,,,,,,2024-06-27,1,,,,,カスタムプラン,0
227,1480001012524,新規,0,2024-06-27,2024-06-27,株式会社２９ｙａｒｄ,,株式会社,徳島県,三好郡東みよし町,加茂１８３９番地４,,36,489,7794701,,,,,,,2024-06-27,1,,,,,ニクヤード,0
234,2010001246085,新規,0,2024-06-27,2024-06-27,ＬＵＷ株式会社,,株式会社,東京都,中央区,日本橋室町１丁目１１番１２号日本橋水野ビル７階,,13,102,1030022,,,,,,,2024-06-27,1,,,,,ルウ,0
241,2010005038454,新規,0,2024-06-27,2024-06-27,一般社団法人全国小規模事業者支援協会,,その他の設立登記法人,東京都,中央区,銀座８丁目１０番５号第四秀和ビル３階,,13,102,1040061,,,,,,,2024-06-27,1,,,,,ゼンコクショウキボジギョウシャシエンキョウカイ,0
242,2010101016207,新規,0,2024-06-27,2024-06-27,株式会社オンデザイン,,株式会社,東京都,八王子市,中野上町５丁目２９番地７号,,13,201,1920041,,,,,,,2024-06-27,1,,,,,オンデザイン,0
248,2010401183408,新規,0,2024-06-27,2024-06-27,株式会社ＣＡＮＯＷ,,株式会社,東京都,港区,虎ノ門１丁目１０番５号,,13,103,1050001,,,,,,,2024-06-27,1,,,,,カナウ,0
249,2010401183424,新規,0,2024-06-27,2024-06-27,株式会社ＭｅｄＰｌｕｓ,,株式会社,東京都,港区,南麻布２丁目８番５－１１０６号,,13,103,1060047,,,,,,,2024-06-27,1,,,,,メドプラス,0
252,2010503007489,新規,0,2024-06-27,2024-06-27,合同会社ハーツクリエイト,,合同会社,東京都,台東区,上野６丁目８番１９号小野田ビル３Ｆ３０１,,13,106,1100005,,,,,,,2024-06-27,1,,,,,ハーツクリエイト,0
254,2010701046181,新規,0,2024-06-27,2024-06-27,株式会社Ｎｅｗ　Ａｇｅ,,株式会社,東京都,品川区,上大崎３丁目５番２号リードシー目黒イーストビル,,13,109,1410021,,,,,,,2024-06-27,1,,,,,ニューエイジ,0
260,2010801035175,新規,0,2024-06-27,2024-06-27,ムウ株式会社,,株式会社,東京都,大田区,東嶺町２７番１３号,,13,111,1450074,,,,,,,2024-06-27,1,,,,,ムウ,0
263,2010903009151,新規,0,2024-06-27,2024-06-27,ｔＯｙｂＯｘ合同会社,,合同会社,東京都,世田谷区,奥沢５丁目２０－１１ｊｉｙｕｇａｏｋａ－ｔｓ－ｂｕｉｌｄｉｎｇ４Ｆ,,13,112,1580083,,,,,,,2024-06-27,1,,,,,トイボックス,0
264,2010903009184,新規,0,2024-06-27,2024-06-27,３３合同会社,,合同会社,東京都,世田谷区,下馬４丁目２８番１３号クレスト下馬１０３,,13,112,1540002,,,,,,,2024-06-27,1,,,,,サーティースリー,0
268,2011001162990,新規,0,2024-06-27,2024-06-27,株式会社ブラックソース,,株式会社,東京都,目黒区,碑文谷３丁目３番１９－４０４号,,13,110,1520003,,,,,,,2024-06-27,1,,,,,ブラックソース,0
269,2011001163007,新規,0,2024-06-27,2024-06-27,株式会社ＬＩＬＩＮ,,株式会社,東京都,渋谷区,渋谷２丁目１９番１５号宮益坂ビルディング６０９,,13,113,1500002,,,,,,,2024-06-27,1,,,,,リリン,0
270,2011001163015,新規,0,2024-06-27,2024-06-27,チップモンクＡＩ株式会社,,株式会社,東京都,渋谷区,本町４丁目２４番８号,,13,113,1510071,,,,,,,2024-06-27,1,,,,,チップモンクエーアイ,0
273,2011003019470,新規,0,2024-06-27,2024-06-27,合同会社ＶＡＬＯＲ,,合同会社,東京都,目黒区,三田１丁目１１番１７号ピュアグリーンハイツ２０２,,13,110,1530062,,,,,,,2024-06-27,1,,,,,バロール,0
276,2011101107846,新規,0,2024-06-27,2024-06-27,株式会社Ｐｉｅｎａ　ｅ　Ｓｔｅｌｌａ,,株式会社,東京都,新宿区,山吹町３５３－１Ｙ－１ビル４Ｆ,,13,104,1620801,,,,,,,2024-06-27,1,,,,,ピエナイステラ,0
277,2011101107854,新規,0,2024-06-27,2024-06-27,ジセイ株式会社,,株式会社,東京都,新宿区,高田馬場４丁目２３番２９号３Ｆ－Ｃ,,13,104,1690075,,,,,,,2024-06-27,1,,,,,ジセイ,0
279,2011201025568,新規,0,2024-06-27,2024-06-27,漢司日本株式会社,,株式会社,東京都,中野区,中央４丁目１番３号ボニータ新中野ビル８Ｆ,,13,114,1640011,,,,,,,2024-06-27,1,,,,,ハンシニホン,0
280,2011201025584,新規,0,2024-06-27,2024-06-27,株式会社ＴＹグループ,,株式会社,東京都,中野区,江古田１丁目２２番１８号,,13,114,1650022,,,,,,,2024-06-27,1,,,,,ティーワイグループ,0
290,2011701027411,新規,0,2024-06-27,2024-06-27,株式会社ヒロキ,,株式会社,東京都,江戸川区,大杉１丁目２３番４号,,13,123,1320022,,,,,,,2024-06-27,1,,,,,ヒロキ,0
292,2011801044430,新規,0,2024-06-27,2024-06-27,原林株式会社,,株式会社,東京都,足立区,弘道２丁目２６番５号,,13,121,1200013,,,,,,,2024-06-27,1,,,,,ゲンリン,0
295,2012401042031,新規,0,2024-06-27,2024-06-27,株式会社ＤＳ　Ｊａｐａｎ,,株式会社,東京都,三鷹市,中原４丁目３４番１７号,,13,204,1810005,,,,,,,2024-06-27,1,,,,,ディーエスジャパン,0
299,2013303007188,新規,0,2024-06-27,2024-06-27,合同会社スクサポ,,合同会社,東京都,豊島区,東池袋１丁目３４－５いちご東池袋ビル６階,,13,116,1700013,,,,,,,2024-06-27,1,,,,,スクサポ,0
307,2020001157736,新規,0,2024-06-27,2024-06-27,加藤工業株式会社,,株式会社,神奈川県,横浜市南区,六ツ川１丁目４３４番地２,,14,105,2320066,,,,,,,2024-06-27,1,,,,,,0
312,2020003026451,新規,0,2024-06-27,2024-06-27,スマートソリューションズ合同会社,,合同会社,神奈川県,横浜市西区,老松町１４‐１‐６０２,,14,103,2200032,,,,,,,2024-06-27,1,,,,,スマートソリューションズ,0
318,2021001082560,新規,0,2024-06-27,2024-06-27,株式会社竜創建,,株式会社,神奈川県,相模原市南区,麻溝台３１５３番地３,,14,153,2520328,,,,,,,2024-06-27,1,,,,,リュウソウケン,0
319,2021001082585,新規,0,2024-06-27,2024-06-27,株式会社Ｋ‐ＳＴＹＬＥ,,株式会社,神奈川県,藤沢市,白旗３丁目５番２４号,,14,205,2510051,,,,,,,2024-06-27,1,,,,,ケイスタイル,0
332,2030001161150,新規,0,2024-06-27,2024-06-27,株式会社大建装,,株式会社,埼玉県,入間市,日向陽台一丁目１番地２４,,11,225,3580000,,,,,,,2024-06-27,1,,,,,ダイケンソウ,0
333,2030001161159,新規,0,2024-06-27,2024-06-27,株式会社壱栄,,株式会社,埼玉県,川口市,大字安行吉蔵４０５番地の３,,11,203,3340053,,,,,,,2024-06-27,1,,,,,イチエイ,0
336,2040001134254,新規,0,2024-06-27,2024-06-27,グラリオ株式会社,,株式会社,千葉県,市川市,北国分４丁目８番３号,,12,203,2720836,,,,,,,2024-06-27,1,,,,,グラリオ,0
338,2040003025278,新規,0,2024-06-27,2024-06-27,合同会社イブ,,合同会社,千葉県,習志野市,谷津１丁目１５番２２ー４００４号,,12,216,2750026,,,,,,,2024-06-27,1,,,,,イブ,0
339,2050005013461,新規,0,2024-06-27,2024-06-27,特定非営利活動法人木とふれあうネットワーク,,その他の設立登記法人,茨城県,牛久市,中央１丁目６番地１８,,08,219,3001234,,,,,,,2024-06-27,1,,,,,キトフレアウネットワーク,0
341,2070001041902,新規,0,2024-06-27,2024-06-27,株式会社ＴＯＰ　ＬＵＣＥ,,株式会社,群馬県,太田市,下浜田町２２２番地９,,10,205,3730821,,,,,,,2024-06-27,1,,,,,トップルーチェ,0
347,2080101024839,新規,0,2024-06-27,2024-06-27,株式会社富士ブレイブ,,株式会社,静岡県,富士市,厚原２０９９番地の１ハイムルーエ厚原東Ａ－２０１号,,22,210,4190201,,,,,,,2024-06-27,1,,,,,フジブレイブ,0
356,2120001266196,新規,0,2024-06-27,2024-06-27,Ｓ＆Ｌ投資株式会社,,株式会社,大阪府,大阪市此花区,春日出中１丁目９番１３－２０２号,,27,104,5540022,,,,,,,2024-06-27,1,,,,,エスアンドエルトウシ,0
357,2120001266213,新規,0,2024-06-27,2024-06-27,株式会社ニユビヤ,,株式会社,大阪府,大阪市西成区,旭１丁目２番７号,,27,122,5570032,,,,,,,2024-06-27,1,,,,,ニユビヤ,0
358,2120001266238,新規,0,2024-06-27,2024-06-27,ブライトライフ株式会社,,株式会社,大阪府,大阪市東住吉区,西今川３丁目２番１４－２０２号,,27,121,5460042,,,,,,,2024-06-27,1,,,,,ブライトライフ,0
359,2120001266246,新規,0,2024-06-27,2024-06-27,株式会社ＴＲ,,株式会社,大阪府,大阪市北区,大淀南２丁目２番９－２５１８号,,27,127,5310075,,,,,,,2024-06-27,1,,,,,ティアール,0
360,2120001266262,新規,0,2024-06-27,2024-06-27,センレン商事株式会社,,株式会社,大阪府,大阪市西成区,天下茶屋１丁目２番１３－６０８号,,27,122,5570014,,,,,,,2024-06-27,1,,,,,センレンショウジ,0
361,2120001266295,新規,0,2024-06-27,2024-06-27,株式会社プランニングＫ,,株式会社,大阪府,大阪市西区,本田１丁目１０番１２－２０１号,,27,106,5500022,,,,,,,2024-06-27,1,,,,,プランニングケイ,0
363,2120003026846,新規,0,2024-06-27,2024-06-27,合同会社Ｏｎｅ’ｓ　ｍｏｒｅ,,合同会社,大阪府,大阪市東淀川区,北江口４丁目４－４３ウエストルーラル３０１,,27,114,5330002,,,,,,,2024-06-27,1,,,,,ワンズモア,0
369,2120103005907,新規,0,2024-06-27,2024-06-27,ＥＮＡ合同会社,,合同会社,大阪府,堺市堺区,大浜北町１丁３番２号,,27,141,5900974,,,,,,,2024-06-27,1,,,,,イーエヌエー,0
370,2120903005239,新規,0,2024-06-27,2024-06-27,合同会社ＫＥＮＳＥＩ,,合同会社,大阪府,豊中市,新千里南町３丁目３番３－６０４号,,27,203,5600084,,,,,,,2024-06-27,1,,,,,ケンセイ,0
374,2130001077337,新規,0,2024-06-27,2024-06-27,株式会社トキワ商事,,株式会社,京都府,京都市上京区,智恵光院通丸太町下る主税町１００３番地,,26,102,6028155,,,,,,,2024-06-27,1,,,,,トキワショウジ,0
375,2130001077353,新規,0,2024-06-27,2024-06-27,株式会社リンクウッド,,株式会社,京都府,京都市伏見区,恵美酒町９２４番地,,26,109,6128201,,,,,,,2024-06-27,1,,,,,リンクウッド,0
378,2140001134921,新規,0,2024-06-27,2024-06-27,株式会社中岡機工,,株式会社,兵庫県,たつの市,新宮町曽我井６６４番地１０,,28,229,6794314,,,,,,,2024-06-27,1,,,,,ナカオカキコウ,0
382,2170003002066,新規,0,2024-06-27,2024-06-27,合同会社アシスト,,合同会社,和歌山県,和歌山市,市小路１２３－８－１０３,,30,201,6408464,,,,,,,2024-06-27,1,,,,,アシスト,0
386,2180001162150,新規,0,2024-06-27,2024-06-27,株式会社桜色,,株式会社,愛知県,名古屋市中区,錦３丁目１５番４号ライオンビル錦館６０１,,23,106,4600003,,,,,,,2024-06-27,1,,,,,サクライロ,0
387,2180003026816,新規,0,2024-06-27,2024-06-27,合同会社Ｇａｉａ　Ｎａｔｉｏｎ,,合同会社,愛知県,名古屋市中村区,名駅４丁目２４番５号第２森ビル４０１,,23,105,4500002,,,,,,,2024-06-27,1,,,,,ガイアネーション,0
388,2180003026989,新規,0,2024-06-27,2024-06-27,合同会社ＭＩＹＡ,,合同会社,愛知県,稲沢市,稲沢町北山３８番地１,,23,220,4928211,,,,,,,2024-06-27,1,,,,,ミヤ,0
389,2180005020676,新規,0,2024-06-27,2024-06-27,医療法人ＮＩＣ,,その他の設立登記法人,愛知県,北名古屋市,西之保中社２１番地２,,23,234,4810033,,,,,,,2024-06-27,1,,,,,エヌアイシー,0
396,2190001031445,新規,0,2024-06-27,2024-06-27,株式会社三重食膳,,株式会社,三重県,四日市市,西浦１丁目５‐６向陽ビル８０１,,24,202,5100071,,,,,,,2024-06-27,1,,,,,ミエショクゼン,0
400,2200001042630,新規,0,2024-06-27,2024-06-27,シーオファー株式会社,,株式会社,岐阜県,下呂市,萩原町上呂１４８４番地,,21,220,5092518,,,,,,,2024-06-27,1,,,,,シーオファー,0
403,2210003001807,新規,0,2024-06-27,2024-06-27,合同会社プレシャスユー,,合同会社,福井県,福井市,城東３丁目２番９号２,,18,201,9100853,,,,,,,2024-06-27,1,,,,,プレシャスユー,0
405,2230003002241,新規,0,2024-06-27,2024-06-27,合同会社ＷＥＬＬＮＥＳＳ,,合同会社,富山県,富山市,花園町３丁目６番２７号オーラム花園Ｉ・１０１,00135341,16,201,9398201,,,,,,,2024-06-27,1,,,,,ウェルネス,0
406,2240001063441,新規,0,2024-06-27,2024-06-27,株式会社Ｃｏｇｒａｆ,,株式会社,広島県,広島市安佐南区,山本新町５丁目１８番２３号,,34,105,7310139,,,,,,,2024-06-27,1,,,,,コグラフ,0
411,2260003004747,新規,0,2024-06-27,2024-06-27,合同会社八十六鈴,,合同会社,岡山県,岡山市中区,下４４６－１,,33,102,7038222,,,,,,,2024-06-27,1,,,,,ハチジュウロクリン,0
414,2290001106294,新規,0,2024-06-27,2024-06-27,株式会社ＰｏｔｅｎｔＣｏｍｐａｎｙ,,株式会社,福岡県,福岡市南区,寺塚２丁目１６番１５－３０１号,,40,134,8150074,,,,,,,2024-06-27,1,,,,,ポテントカンパニー,0
415,2290003015502,新規,0,2024-06-27,2024-06-27,田原ＯＮＥ合同会社,,合同会社,福岡県,福岡市中央区,今川１丁目２６－１２－３０５,,40,133,8100054,,,,,,,2024-06-27,1,,,,,タハラワン,0
425,2320003004402,新規,0,2024-06-27,2024-06-27,合同会社香鈴フードリンク,,合同会社,大分県,速見郡日出町,大字豊岡５８０５番地４,,44,341,8791507,,,,,,,2024-06-27,1,,,,,カリンフードリンク,0
426,2330003010440,新規,0,2024-06-27,2024-06-27,合同会社インサイト,,合同会社,熊本県,熊本市中央区,渡鹿５丁目１０－３０－４０３,,43,101,8620970,,,,,,,2024-06-27,1,,,,,インサイト,0
428,2340003004524,新規,0,2024-06-27,2024-06-27,合同会社グリーン,,合同会社,鹿児島県,霧島市,隼人町神宮６丁目１７番１９号,,46,218,8995121,,,,,,,2024-06-27,1,,,,,グリーン,0
430,2340005009752,新規,0,2024-06-27,2024-06-27,一般社団法人さつま日個連個人タクシー協会,,その他の設立登記法人,鹿児島県,鹿児島市,宇宿１丁目３６番２０号,,46,201,8900073,,,,,,,2024-06-27,1,,,,,サツマニッコレンコジンタクシーキョウカイ,0
431,2360001033861,新規,0,2024-06-27,2024-06-27,Ｓｕｎｓｅｔ　Ｂｅａｃｈ　Ｒｅｓｏｒｔｓ株式会社,,株式会社,沖縄県,国頭郡恩納村,字真栄田１５７４番地１,,47,311,9040417,,,,,,,2024-06-27,1,,,,,サンセットビーチリゾーツ,0
432,2360003014100,新規,0,2024-06-27,2024-06-27,合同会社グローバルサポート,,合同会社,沖縄県,浦添市,牧港１丁目６２番２５－５０９号,,47,208,9012131,,,,,,,2024-06-27,1,,,,,グローバルサポート,0
437,2370003006658,新規,0,2024-06-27,2024-06-27,ラシック合同会社,,合同会社,宮城県,仙台市青葉区,国分町１丁目８－１３,,04,101,9800803,,,,,,,2024-06-27,1,,,,,ラシック,0
441,2380003005790,新規,0,2024-06-27,2024-06-27,合同会社福島宇宙港開発,,合同会社,福島県,須賀川市,大町１０４,,07,207,9620839,,,,,,,2024-06-27,1,,,,,フクシマウチュウコウカイハツ,0
442,2380005012843,新規,0,2024-06-27,2024-06-27,農事組合法人水門営農組合,,その他の設立登記法人,福島県,南会津郡下郷町,大字澳田字中家平２１５番地,,07,362,9695331,,,,,,,2024-06-27,1,,,,,ミズカドエイノウクミアイ,0
446,2410001013858,新規,0,2024-06-27,2024-06-27,株式会社めい,,株式会社,秋田県,秋田市,新屋松美町１８番２１号,,05,201,0101604,,,,,,,2024-06-27,1,,,,,メイ,0
452,2430001092116,新規,0,2024-06-27,2024-06-27,株式会社ｙｏｕｒ　ｂｅａｍ,,株式会社,北海道,北広島市,稲穂町西７丁目４番地２,,01,234,0611124,,,,,,,2024-06-27,1,,,,,ユアビーム,0
453,2430001092124,新規,0,2024-06-27,2024-06-27,株式会社サンエスプロパティ,,株式会社,北海道,札幌市北区,あいの里二条１丁目１１番３２号,,01,102,0028072,,,,,,,2024-06-27,1,,,,,サンエスプロパティ,0
454,2430001092132,新規,0,2024-06-27,2024-06-27,株式会社ｓｔｕｄｉｏ　ＴＯＮＡＫＡＩ,,株式会社,北海道,札幌市中央区,南五条西１５丁目２－３リズム医大前５０３号室,,01,101,0640805,,,,,,,2024-06-27,1,,,,,スタジオトナカイ,0
458,2460303000830,新規,0,2024-06-27,2024-06-27,合同会社金行遠軽,,合同会社,北海道,紋別郡遠軽町,大通北１丁目２番地７９,,01,555,0990404,,,,,,,2024-06-27,1,,,,,カネユキエンガル,0
484,3010005038445,新規,0,2024-06-27,2024-06-27,日鉄物流労働組合連合会,,その他の設立登記法人,東京都,中央区,日本橋１丁目１３番１号,,13,102,1030027,,,,,,,2024-06-27,1,,,,,ニッテツブツリュウレンゴウカイ,0
491,3010401183290,新規,0,2024-06-27,2024-06-27,株式会社ＳＩＧＮＡＬ１８１,,株式会社,東京都,港区,南青山３丁目１番３６号青山丸竹ビル６Ｆ,,13,103,1070062,,,,,,,2024-06-27,1,,,,,シグナルイチハチイチ,0
492,3010401183373,新規,0,2024-06-27,2024-06-27,允希株式会社,,株式会社,東京都,港区,白金６丁目１３番６号,,13,103,1080072,,,,,,,2024-06-27,1,,,,,ミツキ,0
493,3010401183398,新規,0,2024-06-27,2024-06-27,株式会社Ｙｅｔ　Ａｎｏｔｈｅｒ　ＡＩ,,株式会社,東京都,港区,白金６丁目１５番１５号,,13,103,1080072,,,,,,,2024-06-27,1,,,,,イェットアナザーエーアイ,0
503,3010601065446,新規,0,2024-06-27,2024-06-27,株式会社Ｍｉｒａｇｅ,,株式会社,東京都,江東区,古石場３丁目５番１０号ＣＡＳＡＰＩＡＺＺＡ門前仲町４０２号,,13,108,1350045,,,,,,,2024-06-27,1,,,,,ミラージュ,0
516,3010901055535,新規,0,2024-06-27,2024-06-27,株式会社ＥＳＴＹＰＥ,,株式会社,東京都,世田谷区,北沢２丁目１６番３号グランコート下北沢１階,,13,112,1550031,,,,,,,2024-06-27,1,,,,,エスタイプ,0
520,3011001162924,新規,0,2024-06-27,2024-06-27,国能日新株式会社,,株式会社,東京都,渋谷区,千駄ヶ谷３丁目１３番２２号,,13,113,1510051,,,,,,,2024-06-27,1,,,,,コクノウニッシン,0
521,3011001162981,新規,0,2024-06-27,2024-06-27,ユイリンク株式会社,,株式会社,東京都,目黒区,目黒３丁目１番２－１１０１号,,13,110,1530063,,,,,,,2024-06-27,1,,,,,ユイリンク,0
522,3011001163014,新規,0,2024-06-27,2024-06-27,株式会社絵伝,,株式会社,東京都,渋谷区,本町６丁目２０番６号ベルメゾン渋谷４０１号室,,13,113,1510071,,,,,,,2024-06-27,1,,,,,エデン,0
523,3011003019486,新規,0,2024-06-27,2024-06-27,ＧＯＡＴ合同会社,,合同会社,東京都,渋谷区,渋谷２丁目１９‐１５宮益坂ビルディング６０９,,13,113,1500002,,,,,,,2024-06-27,1,,,,,ゴート,0
530,3011101107845,新規,0,2024-06-27,2024-06-27,エバーラック株式会社,,株式会社,東京都,新宿区,内藤町１番地２フォルム内藤町６０３,,13,104,1600014,,,,,,,2024-06-27,1,,,,,エバーラック,0
531,3011101107853,新規,0,2024-06-27,2024-06-27,株式会社Ｍｅｒｃｕｒｉａｌ,,株式会社,東京都,新宿区,西新宿３丁目９番１２号西新宿ダイヤモンドビル,,13,104,1600023,,,,,,,2024-06-27,1,,,,,マーキュリアル,0
532,3011101107861,新規,0,2024-06-27,2024-06-27,株式会社菅原建設,,株式会社,東京都,新宿区,百人町１丁目２４番２２号宝月荘３号室,,13,104,1690073,,,,,,,2024-06-27,1,,,,,スガワラケンセツ,0
534,3011103014610,新規,0,2024-06-27,2024-06-27,ブルーインフラ５号合同会社,,合同会社,東京都,新宿区,四谷２丁目９番地１５東京ユナイテッド綜合事務所内,,13,104,1600004,,,,,,,2024-06-27,1,,,,,ブルーインフラゴゴウ,0
538,3011201025591,新規,0,2024-06-27,2024-06-27,株式会社イーケル,,株式会社,東京都,中野区,本町２丁目１３番２－３０１号,,13,114,1640012,,,,,,,2024-06-27,1,,,,,イーケル,0
543,3011601027857,新規,0,2024-06-27,2024-06-27,成鴻電工株式会社,,株式会社,東京都,練馬区,富士見台１丁目１５番２０号,,13,120,1770034,,,,,,,2024-06-27,1,,,,,セイコウデンコウ,0
545,3011701027419,新規,0,2024-06-27,2024-06-27,株式会社Ｒｅｆｕｇｅ,,株式会社,東京都,江戸川区,西葛西５丁目１番９号４階,,13,123,1340088,,,,,,,2024-06-27,1,,,,,ルフュージュ,0
549,3011801044446,新規,0,2024-06-27,2024-06-27,ＭＹパートナーズ株式会社,,株式会社,東京都,足立区,西新井栄町１丁目１９番３９－２０１２号,,13,121,1230843,,,,,,,2024-06-27,1,,,,,エムワイパートナーズ,0
550,3012301013973,新規,0,2024-06-27,2024-06-27,誠新商事株式会社,,株式会社,東京都,町田市,木曽町５１０番地７,,13,209,1940033,,,,,,,2024-06-27,1,,,,,セイシンショウジ,0
552,3012401042022,新規,0,2024-06-27,2024-06-27,株式会社ＫＹＯＥＩ・ホールディングス,,株式会社,東京都,調布市,染地３丁目５番地５４,,13,208,1820023,,,,,,,2024-06-27,1,,,,,キョウエイホールディングス,0
563,3020001157909,新規,0,2024-06-27,2024-06-27,株式会社ＤＡＷＮ,,株式会社,神奈川県,横浜市南区,庚台９８番地２５,,14,105,2320008,,,,,,,2024-06-27,1,,,,,ドーン,0
567,3020003026442,新規,0,2024-06-27,2024-06-27,夢持ち合同会社,,合同会社,神奈川県,横浜市西区,北幸２丁目１０番４８号むつみビル３階,,14,103,2200004,,,,,,,2024-06-27,1,,,,,ユメモチ,0
568,3020005016458,新規,0,2024-06-27,2024-06-27,一般社団法人動物適正飼養推進認定機構,,その他の設立登記法人,神奈川県,横浜市神奈川区,鶴屋町３丁目３２番１５号７０８,,14,102,2210835,,,,,,,2024-06-27,1,,,,,,0
577,3030001161125,新規,0,2024-06-27,2024-06-27,株式会社ｉｌ,,株式会社,埼玉県,さいたま市桜区,大字大久保領家２１番地５,,11,106,3380826,,,,,,,2024-06-27,1,,,,,イル,0
578,3030001161141,新規,0,2024-06-27,2024-06-27,株式会社新村,,株式会社,埼玉県,蕨市,塚越３丁目１０番３４号アミコートマヤ３０２号,,11,223,3350002,,,,,,,2024-06-27,1,,,,,ニイムラ,0
579,3030001161158,新規,0,2024-06-27,2024-06-27,金富士商事株式会社,,株式会社,埼玉県,川口市,並木元町１番６７－４１５号,,11,203,3320033,,,,,,,2024-06-27,1,,,,,キンフジショウジ,0
586,3040001134187,新規,0,2024-06-27,2024-06-27,紫藤株式会社,,株式会社,千葉県,船橋市,印内２丁目３番１５号ＴＯＰ西船橋第一１０６,,12,204,2730039,,,,,,,2024-06-27,1,,,,,シトウ,0
587,3040001134245,新規,0,2024-06-27,2024-06-27,ＭｏｏｔＨ株式会社,,株式会社,千葉県,松戸市,本町１番２３号Ｗ松戸７Ｆ,,12,207,2710091,,,,,,,2024-06-27,1,,,,,ムース,0
590,3050001055011,新規,0,2024-06-27,2024-06-27,株式会社ＴＡＳＫ,,株式会社,茨城県,古河市,尾崎４３５番地１４,,08,204,3060101,,,,,,,2024-06-27,1,,,,,タスク,0
598,3080101024838,新規,0,2024-06-27,2024-06-27,株式会社ブランドテディ,,株式会社,静岡県,富士市,比奈１６４３番地の１,,22,210,4170847,,,,,,,2024-06-27,1,,,,,,0
609,3120001266245,新規,0,2024-06-27,2024-06-27,株式会社ＢＥＡＵＢＥＬＬＥ,,株式会社,大阪府,大阪市中央区,南久宝寺町３丁目２番７号,,27,128,5410058,,,,,,,2024-06-27,1,,,,,ボーベル,0
617,3120105009871,新規,0,2024-06-27,2024-06-27,ボンド協同組合,,その他の設立登記法人,大阪府,富田林市,中野町２丁目５４０－１,,27,214,5840021,,,,,,,2024-06-27,1,,,,,ボンド,0
619,3122003002925,新規,0,2024-06-27,2024-06-27,合同会社アシスト,,合同会社,大阪府,東大阪市,稲葉２丁目２番５２号,,27,227,5780925,,,,,,,2024-06-27,1,,,,,アシスト,0
620,3130001077336,新規,0,2024-06-27,2024-06-27,株式会社住宅総合センター,,株式会社,京都府,京都市左京区,下鴨宮崎町１５４番地,,26,103,6060802,,,,,,,2024-06-27,1,,,,,ジュウタクソウゴウセンター,0
623,3180001162133,新規,0,2024-06-27,2024-06-27,株式会社ＱＵＯＴＡ,,株式会社,愛知県,名古屋市中区,新栄１丁目２７番１３号,,23,106,4600007,,,,,,,2024-06-27,1,,,,,クオータ,0
632,3210003001806,新規,0,2024-06-27,2024-06-27,合同会社ＦＩＳＨ,,合同会社,福井県,越前市,味真野町第９号１９番地の１３,,18,209,9150025,,,,,,,2024-06-27,1,,,,,フィッシュ,0
640,3260003004746,新規,0,2024-06-27,2024-06-27,合同会社八十五鈴,,合同会社,岡山県,岡山市中区,下４４６－１,,33,102,7038222,,,,,,,2024-06-27,1,,,,,ハチジュウゴリン,0
656,3320003004401,新規,0,2024-06-27,2024-06-27,合同会社心ビューティ,,合同会社,大分県,別府市,北浜１丁目１番１０号,,44,202,8740920,,,,,,,2024-06-27,1,,,,,シンビューティ,0
657,3340001026602,新規,0,2024-06-27,2024-06-27,株式会社Ｂｌｕ‐ｐｈｅ,,株式会社,鹿児島県,鹿児島市,星ヶ峯２丁目３２番５号,,46,201,8910102,,,,,,,2024-06-27,1,,,,,ブルフェ,0
660,3340003004523,新規,0,2024-06-27,2024-06-27,合同会社アリムラウッドワーク,,合同会社,鹿児島県,姶良市,下名９７１番地,,46,225,8995543,,,,,,,2024-06-27,1,,,,,アリムラウッドワーク,0
661,3360003014099,新規,0,2024-06-27,2024-06-27,ＬＥＭＯＮＡＤＥ　Ｅｎｔｅｒｔａｉｎｍｅｎｔ合同会社,,合同会社,沖縄県,豊見城市,字高嶺３０９番地１,,47,212,9010213,,,,,,,2024-06-27,1,,,,,レモネードエンターテイメント,0
662,3370001051457,新規,0,2024-06-27,2024-06-27,湯朝電気株式会社,,株式会社,宮城県,柴田郡大河原町,字町２１５番地,,04,321,9891241,,,,,,,2024-06-27,1,,,,,ユアサデンキ,0
663,3370003006657,新規,0,2024-06-27,2024-06-27,合同会社ＧＯＧＯ,,合同会社,宮城県,仙台市青葉区,国見１丁目１番１号,,04,101,9810943,,,,,,,2024-06-27,1,,,,,ゴーゴー,0
666,3380001034634,新規,0,2024-06-27,2024-06-27,Ｂｉｇ　Ｒｉｖｅｒ　Ｃｈｉｌｌ　Ｌａｂｓ株式会社,,株式会社,福島県,西白河郡西郷村,字屋敷裏東８番地コーポ菊地６号室,,07,461,9618046,,,,,,,2024-06-27,1,,,,,ビッグリバーチルラボズ,0
669,3400001016695,新規,0,2024-06-27,2024-06-27,クラシックファーム株式会社,,株式会社,岩手県,二戸郡一戸町,中山字上家向２５番地３,,03,524,0285133,,,,,,,2024-06-27,1,,,,,クラシックファーム,0
670,3400001016704,新規,0,2024-06-27,2024-06-27,株式会社エヌピージー,,株式会社,岩手県,盛岡市,下飯岡１５地割２３６,,03,201,0200853,,,,,,,2024-06-27,1,,,,,エヌピージー,0
674,3430001092115,新規,0,2024-06-27,2024-06-27,株式会社ｕｒｅｓｐａ,,株式会社,北海道,札幌市中央区,北三条東５丁目３５７－４０６,,01,101,0600033,,,,,,,2024-06-27,1,,,,,ウレシパ,0
675,3430001092131,新規,0,2024-06-27,2024-06-27,株式会社イデアル,,株式会社,北海道,札幌市厚別区,厚別南３丁目１０番１０号,,01,108,0040022,,,,,,,2024-06-27,1,,,,,イデアル,0
678,3450001014348,新規,0,2024-06-27,2024-06-27,株式会社Ｂｏｄｙ　Ｗｏｒｋｓ,,株式会社,北海道,旭川市,工業団地一条２丁目４番１２号,,01,204,0788271,,,,,,,2024-06-27,1,,,,,ボディワークス,0
679,3460103001631,新規,0,2024-06-27,2024-06-27,合同会社不動産の絆家,,合同会社,北海道,河西郡芽室町,東一条１丁目１１番地,,01,637,0820011,,,,,,,2024-06-27,1,,,,,フドウサンノキズナ,0
684,3470005006570,新規,0,2024-06-27,2024-06-27,一般社団法人オレンジ,,その他の設立登記法人,香川県,高松市,福岡町３丁目３番２５号つるぎマンション１Ｆ北,,37,201,7600066,,,,,,,2024-06-27,1,,,,,オレンジ,0
700,4010001245977,新規,0,2024-06-27,2024-06-27,株式会社ルナニクス,,株式会社,東京都,千代田区,麹町４丁目７―２ＢＩＺＩＡ麹町ビル７階,,13,101,1020083,,,,,,,2024-06-27,1,,,,,ルナニクス,0
701,4010001246059,新規,0,2024-06-27,2024-06-27,株式会社ミーラボ,,株式会社,東京都,中央区,銀座１丁目１２番４号Ｎ＆Ｅビル６階,,13,102,1040061,,,,,,,2024-06-27,1,,,,,ミーラボ,0
702,4010001246109,新規,0,2024-06-27,2024-06-27,龍和商事株式会社,,株式会社,東京都,中央区,日本橋箱崎町１番７号,,13,102,1030015,,,,,,,2024-06-27,1,,,,,リュウワショウジ,0
705,4010005038444,新規,0,2024-06-27,2024-06-27,税理士法人ａｄｘｉｌｉａ,,その他の設立登記法人,東京都,千代田区,麹町６丁目２番地６,,13,101,1020083,,,,,,,2024-06-27,1,,,,,アドシリア,0
706,4010005038460,新規,0,2024-06-27,2024-06-27,一般社団法人石垣宮良,,その他の設立登記法人,東京都,中央区,八丁堀４丁目２番１０号ＡＯＪ税理士法人内,,13,102,1040032,,,,,,,2024-06-27,1,,,,,イシガキミヤラ,0
708,4010105002275,新規,0,2024-06-27,2024-06-27,一般社団法人寶煌会,,その他の設立登記法人,東京都,八王子市,東浅川町５２３番地の１３,,13,201,1930834,,,,,,,2024-06-27,1,,,,,ホウコウカイ,0
710,4010401183364,新規,0,2024-06-27,2024-06-27,株式会社はせがわアセットマネジメント,,株式会社,東京都,港区,芝２丁目５番７号４階,,13,103,1050014,,,,,,,2024-06-27,1,,,,,ハセガワアセットマネジメント,0
711,4010401183422,新規,0,2024-06-27,2024-06-27,株式会社ＯＦＦＩＣＥ　ＭＡＲＵＹＡＭＡ,,株式会社,東京都,港区,赤坂２丁目２１番５号ＡＢＣ・Ｄ－７９号,,13,103,1070052,,,,,,,2024-06-27,1,,,,,オフィスマルヤマ,0
723,4010901055542,新規,0,2024-06-27,2024-06-27,株式会社ｎｏ　ａｎｓｗｅｒ,,株式会社,東京都,世田谷区,桜１丁目２７－２１,,13,112,1560053,,,,,,,2024-06-27,1,,,,,ノーアンサー,0
724,4010903009182,新規,0,2024-06-27,2024-06-27,合同会社カシス,,合同会社,東京都,世田谷区,奥沢１丁目１０番４号,,13,112,1580083,,,,,,,2024-06-27,1,,,,,カシス,0
727,4011001163005,新規,0,2024-06-27,2024-06-27,株式会社千松堂,,株式会社,東京都,渋谷区,円山町５番５号Ｎａｖｉ渋谷Ｖ３階,,13,113,1500044,,,,,,,2024-06-27,1,,,,,センショウドウ,0
728,4011101107695,新規,0,2024-06-27,2024-06-27,株式会社Ｓａｉｎｔ　Ｐｏｒｔｅｒ,,株式会社,東京都,新宿区,須賀町９－２０１,,13,104,1600018,,,,,,,2024-06-27,1,,,,,セントポーター,0
729,4011101107852,新規,0,2024-06-27,2024-06-27,株式会社ＺｅａＬｉｆｅ,,株式会社,東京都,新宿区,新宿１丁目３２番１３号グラン・ビル４階,,13,104,1600022,,,,,,,2024-06-27,1,,,,,ジーライフ,0
730,4011101107877,新規,0,2024-06-27,2024-06-27,株式会社ＩＮＳＰＩＲＥ,,株式会社,東京都,新宿区,北新宿４丁目１６－９リシェンスルミエール２０２号,,13,104,1690074,,,,,,,2024-06-27,1,,,,,インスパイア,0
734,4011401026224,新規,0,2024-06-27,2024-06-27,株式会社エムサポート,,株式会社,東京都,板橋区,舟渡１丁目１３－１０,,13,119,1740041,,,,,,,2024-06-27,1,,,,,エムサポート,0
742,4011801044429,新規,0,2024-06-27,2024-06-27,株式会社マネキ商事,,株式会社,東京都,葛飾区,柴又２丁目７番１３号,,13,122,1250052,,,,,,,2024-06-27,1,,,,,マネキショウジ,0
744,4012301013972,新規,0,2024-06-27,2024-06-27,トータルサポート株式会社,,株式会社,東京都,町田市,鶴川３丁目１５番５号,,13,209,1950061,,,,,,,2024-06-27,1,,,,,トータルサポート,0
767,4030001161157,新規,0,2024-06-27,2024-06-27,オーソクラウン株式会社,,株式会社,埼玉県,さいたま市見沼区,大和田町１丁目１３７５番地１ＡＬＢＡ大和田Ｎｏｒｔｈ１０１号,,11,104,3370053,,,,,,,2024-06-27,1,,,,,オーソクラウン,0
785,4050003008437,新規,0,2024-06-27,2024-06-27,合同会社ＢＲＩＧＨＴ,,合同会社,茨城県,ひたちなか市,大字津田２０３１番地４７０,,08,221,3120032,,,,,,,2024-06-27,1,,,,,ブライト,0
804,4100003007623,新規,0,2024-06-27,2024-06-27,合同会社瑠璃ＣＲＡＦＴ,,合同会社,長野県,長野市,若宮１丁目２－１０,,20,201,3810032,,,,,,,2024-06-27,1,,,,,ルリクラフト,0
806,4110001038512,新規,0,2024-06-27,2024-06-27,株式会社エクストーム,,株式会社,新潟県,新潟市西区,小見郷屋３５９番地３,,15,107,9502137,,,,,,,2024-06-27,1,,,,,エクストーム,0
814,4120001266236,新規,0,2024-06-27,2024-06-27,株式会社ｇ．ａ．ｍ．,,株式会社,大阪府,大阪市都島区,中野町５丁目１３番３桜宮リバーシティ・ウォータータワープラザ１２０３号室,,27,102,5340027,,,,,,,2024-06-27,1,,,,,ガム,0
817,4120005024391,新規,0,2024-06-27,2024-06-27,一般社団法人堂島グローバル,,その他の設立登記法人,大阪府,大阪市北区,堂島２丁目４番４号ブリリアタワー堂島１４０３号,,27,127,5300003,,,,,,,2024-06-27,1,,,,,ドウジマグローバル,0
824,4130003009666,新規,0,2024-06-27,2024-06-27,合同会社ＨＡＮＡ　Ｌｉｖｉｎｇ,,合同会社,京都府,京田辺市,同志社山手１丁目１４番地１７,,26,211,6100315,,,,,,,2024-06-27,1,,,,,ハナリビング,0
833,4180001162181,新規,0,2024-06-27,2024-06-27,ＫＳ　ｍｏｄｅ　ＷＯＲＫＳ株式会社,,株式会社,愛知県,名古屋市北区,五反田町１４９番地,,23,103,4620011,,,,,,,2024-06-27,1,,,,,ケーエスモードワークス,0
841,4200001042629,新規,0,2024-06-27,2024-06-27,株式会社ＢＴ３,,株式会社,岐阜県,岐阜市,住田町１丁目１４番地,,21,201,5008843,,,,,,,2024-06-27,1,,,,,ビーティースリー,0
847,4230001003264,新規,0,2024-06-27,2024-06-27,株式会社マイキヤツスル,,株式会社,富山県,富山市,新富町２丁目１番６号,,16,201,9300002,,,,,,,2024-06-27,1,,,,,マイキヤツスル,0
849,4230001020409,新規,0,2024-06-27,2024-06-27,株式会社三賀工務店,,株式会社,富山県,魚津市,経田西町１２番２８号ベガ２０３,,16,204,9370006,,,,,,,2024-06-27,1,,,,,サンガコウムテン,0
854,4260003004745,新規,0,2024-06-27,2024-06-27,合同会社八十四鈴,,合同会社,岡山県,岡山市中区,下４４６－１,,33,102,7038222,,,,,,,2024-06-27,1,,,,,ハチジュウヨンリン,0
855,4260003004803,新規,0,2024-06-27,2024-06-27,合同会社岡本運送,,合同会社,岡山県,倉敷市,玉島長尾５４番地１,,33,202,7100251,,,,,,,2024-06-27,1,,,,,オカモトウンソウ,0
868,4340003004522,新規,0,2024-06-27,2024-06-27,合同会社ＥＮＡＢＬＥ,,合同会社,鹿児島県,阿久根市,栄町７０番地１,,46,206,8991616,,,,,,,2024-06-27,1,,,,,エネイブル,0
875,4370001051456,新規,0,2024-06-27,2024-06-27,株式会社エナモ,,株式会社,宮城県,仙台市宮城野区,福室３丁目３５番１８号,,04,102,9830005,,,,,,,2024-06-27,1,,,,,エナモ,0
880,4380001034633,新規,0,2024-06-27,2024-06-27,株式会社エム・エル・ピー,,株式会社,福島県,いわき市,大久町小久字連郷５９番地の１,,07,204,9790337,,,,,,,2024-06-27,1,,,,,エムエルピー,0
887,4430001092130,新規,0,2024-06-27,2024-06-27,株式会社前田農園,,株式会社,北海道,岩見沢市,岡山町２６４番地２,,01,210,0790181,,,,,,,2024-06-27,1,,,,,マエダノウエン,0
890,4430005015013,新規,0,2024-06-27,2024-06-27,一般社団法人自然・野生動物との共存をすすめる会,,その他の設立登記法人,北海道,余市郡余市町,登町９０７番地１,,01,408,0460002,,,,,,,2024-06-27,1,,,,,シゼンヤセイドウブツトノキョウゾンヲススメルカイ,0
892,4450001014347,新規,0,2024-06-27,2024-06-27,株式会社ＳＢＧ,,株式会社,北海道,旭川市,西神楽一線二十四号４７０番地,,01,204,0788381,,,,,,,2024-06-27,1,,,,,エスビージー,0
894,4450003002507,新規,0,2024-06-27,2024-06-27,合同会社吉田,,合同会社,北海道,旭川市,五条通１４丁目１３６６番地の２,,01,204,0700035,,,,,,,2024-06-27,1,,,,,ヨシダ,0
895,4470001020269,新規,0,2024-06-27,2024-06-27,株式会社初,,株式会社,香川県,高松市,元山町１１５８番地２０,,37,201,7610311,,,,,,,2024-06-27,1,,,,,ウイ,0
896,4500001025719,新規,0,2024-06-27,2024-06-27,株式会社ｏｍｏｋｏ,,株式会社,愛媛県,松山市,湊町５丁目３番地４,,38,201,7900012,,,,,,,2024-06-27,1,,,,,オモコ,0
898,4700150126248,新規,0,2024-06-27,2024-06-27,全羅南道日本事務所,,外国会社等,大阪府,大阪市北区,中崎２丁目４番２号大阪韓国人会館１階,,27,127,5300016,全羅南道務安郡三郷邑五龍路１（５８５６４）,,,,,,2024-06-27,1,,,,,ゼンラナンドニホンジムシヨ,0
901,5010001244359,新規,0,2024-06-27,2024-06-27,株式会社バンドデシネ,,株式会社,東京都,中央区,銀座１丁目１２－４Ｎ＆ＥＢＬＤ．７階,,13,102,1040061,,,,,,,2024-06-27,1,,,,,バンドデシネ,0
902,5010001245919,新規,0,2024-06-27,2024-06-27,株式会社オリエンタルトレーディング,,株式会社,東京都,千代田区,神田神保町３丁目６番４号アーバンクリスタル九段下２０１,,13,101,1010051,,,,,,,2024-06-27,1,,,,,オリエンタルトレーディング,0
903,5010001246058,新規,0,2024-06-27,2024-06-27,株式会社Ｋｉｉ,,株式会社,東京都,中央区,晴海３丁目１３番１号ドゥトゥールイーストタワー４４０２,,13,102,1040053,,,,,,,2024-06-27,1,,,,,キイ,0
904,5010001246116,新規,0,2024-06-27,2024-06-27,インフィニティ・テクノロジー株式会社,,株式会社,東京都,千代田区,平河町２丁目５番３号,,13,101,1020093,,,,,,,2024-06-27,1,,,,,インフィニティテクノロジー,0
905,5010003044138,新規,0,2024-06-27,2024-06-27,Ｔｏｍｅｉ合同会社,,合同会社,東京都,中央区,銀座２丁目１０番８号マニエラ銀座ビル４階,,13,102,1040061,,,,,,,2024-06-27,1,,,,,トメイ,0
918,5010401183099,新規,0,2024-06-27,2024-06-27,株式会社ＲＣコンサルティング,,株式会社,東京都,港区,赤坂３丁目２番８号ＶＯＲＴ赤坂見附ＩＩ６階,00135331,13,103,1070052,,,,,,,2024-06-27,1,,,,,アールシーコンサルティング,0
919,5010401183314,新規,0,2024-06-27,2024-06-27,株式会社ユニブロ,,株式会社,東京都,港区,南青山３丁目１番３６号青山丸竹ビル６Ｆ,,13,103,1070062,,,,,,,2024-06-27,1,,,,,ユニブロ,0
920,5010401183405,新規,0,2024-06-27,2024-06-27,ガング株式会社,,株式会社,東京都,港区,南青山３丁目１番３６号青山丸竹ビル６Ｆ,,13,103,1070062,,,,,,,2024-06-27,1,,,,,ガング,0
923,5010501052518,新規,0,2024-06-27,2024-06-27,株式会社Ｋクラフト,,株式会社,東京都,台東区,上野２丁目１２番１８号,,13,106,1100005,,,,,,,2024-06-27,1,,,,,ケイクラフト,0
928,5010603010919,新規,0,2024-06-27,2024-06-27,Ｔｏｋｙｏ　Ｖａｌｌｅｙ合同会社,,合同会社,東京都,江東区,大島３丁目２７番２５号,,13,108,1360072,,,,,,,2024-06-27,1,,,,,トウキョウヴァリー,0
931,5010701046179,新規,0,2024-06-27,2024-06-27,世界創生株式会社,,株式会社,東京都,品川区,東大井３丁目１番３－４０３号,,13,109,1400011,,,,,,,2024-06-27,1,,,,,セカイソウセイ,0
932,5010801035172,新規,0,2024-06-27,2024-06-27,株式会社ＹＵＩＭＡＲＵ,,株式会社,東京都,大田区,中央３丁目８番１８号,,13,111,1430024,,,,,,,2024-06-27,1,,,,,ユイマル,0
933,5010901055533,新規,0,2024-06-27,2024-06-27,株式会社ＵＸ,,株式会社,東京都,世田谷区,松原５丁目１１番１２号,,13,112,1560043,,,,,,,2024-06-27,1,,,,,ユーエックス,0
934,5010901055541,新規,0,2024-06-27,2024-06-27,株式会社Ｙ’ＰＲＯＰＥＲＴＹ,,株式会社,東京都,世田谷区,玉川台２丁目２番１０号,,13,112,1580096,,,,,,,2024-06-27,1,,,,,ワイプロパティ,0
937,5010903009181,新規,0,2024-06-27,2024-06-27,合同会社ドライバーズシート,,合同会社,東京都,世田谷区,瀬田２丁目５番１５号,,13,112,1580095,,,,,,,2024-06-27,1,,,,,ドライバーズシート,0
942,5011001162988,新規,0,2024-06-27,2024-06-27,株式会社ＷＩＬＬ,,株式会社,東京都,渋谷区,恵比寿４丁目４番２号,,13,113,1500013,,,,,,,2024-06-27,1,,,,,ウィル,0
943,5011001162996,新規,0,2024-06-27,2024-06-27,株式会社ＰＧ　Ａｓｓｅｔ,,株式会社,東京都,渋谷区,恵比寿南１丁目１番１－７２４号,,13,113,1500022,,,,,,,2024-06-27,1,,,,,ピージーアセット,0
944,5011001163012,新規,0,2024-06-27,2024-06-27,株式会社虎虎,,株式会社,東京都,渋谷区,道玄坂１丁目１０番８号渋谷道玄坂東急ビル２Ｆ‐Ｃ,,13,113,1500043,,,,,,,2024-06-27,1,,,,,トラトラ,0
945,5011003019468,新規,0,2024-06-27,2024-06-27,合同会社Ｏｃｅａｎ　Ｅｙｅｓ,,合同会社,東京都,渋谷区,道玄坂１丁目１０番８号渋谷道玄坂東急ビル２Ｆ－Ｃ,,13,113,1500043,,,,,,,2024-06-27,1,,,,,,0
949,5011101107827,新規,0,2024-06-27,2024-06-27,株式会社ＢＹＰ１４,,株式会社,東京都,新宿区,西新宿７丁目５番５号Ｐｌａｚａ西新宿ＵＣＦ４階,,13,104,1600023,,,,,,,2024-06-27,1,,,,,ビーワイピーイチヨン,0
950,5011101107835,新規,0,2024-06-27,2024-06-27,株式会社和樂,,株式会社,東京都,新宿区,大久保１丁目２番１号天翔オフィス東新宿７０５号室,,13,104,1690072,,,,,,,2024-06-27,1,,,,,ワラク,0
951,5011101107851,新規,0,2024-06-27,2024-06-27,日本再生医学研究所株式会社,,株式会社,東京都,新宿区,新宿２丁目２－１０－６０５,,13,104,1600022,,,,,,,2024-06-27,1,,,,,ニホンサイセイイガクケンキュウショ,0
957,5011203004427,新規,0,2024-06-27,2024-06-27,合同会社ナンバーエイト,,合同会社,東京都,中野区,弥生町４丁目２５－１０,,13,114,1640013,,,,,,,2024-06-27,1,,,,,ナンバーエイト,0
959,5011401026223,新規,0,2024-06-27,2024-06-27,株式会社リフロ,,株式会社,東京都,板橋区,蓮根３丁目４番２６号第一新和ビル１Ｆ,,13,119,1740046,,,,,,,2024-06-27,1,,,,,リフロ,0
963,5011503006123,新規,0,2024-06-27,2024-06-27,合同会社ラビットマネジメント,,合同会社,東京都,北区,中十条２丁目９－２５,,13,117,1140032,,,,,,,2024-06-27,1,,,,,ラビットマネジメント,0
967,5011801044436,新規,0,2024-06-27,2024-06-27,株式会社ホンベックス,,株式会社,東京都,足立区,南花畑４丁目３番３－１０２号,,13,121,1210062,,,,,,,2024-06-27,1,,,,,ホンベックス,0
968,5012301013971,新規,0,2024-06-27,2024-06-27,株式会社Ｔａｌｅｒｉｕｍ,,株式会社,東京都,町田市,原町田４丁目１１－１３天野ビル４Ｆ,,13,209,1940013,,,,,,,2024-06-27,1,,,,,テールリウム,0
972,5012403006626,新規,0,2024-06-27,2024-06-27,ＤＩＴ合同会社,,合同会社,東京都,多摩市,貝取４丁目４番地３号４０１,,13,224,2060012,,,,,,,2024-06-27,1,,,,,ディーアイティー,0
978,5013301052720,新規,0,2024-06-27,2024-06-27,日盛株式会社,,株式会社,東京都,豊島区,池袋２丁目６１番４号エヌアイビル４階,,13,116,1710014,,,,,,,2024-06-27,1,,,,,ニッセイ,0
979,5013301052729,新規,0,2024-06-27,2024-06-27,興栄株式会社,,株式会社,東京都,豊島区,池袋２丁目５８番５－４０５号,,13,116,1710014,,,,,,,2024-06-27,1,,,,,コウエイ,0
980,5020003026408,新規,0,2024-06-27,2024-06-27,ＴｏｗｎＳｏｆｔ合同会社,,合同会社,神奈川県,川崎市幸区,小倉１番地１Ｃ－７０７,,14,132,2120054,,,,,,,2024-06-27,1,,,,,タウンソフト,0
987,5030001161065,新規,0,2024-06-27,2024-06-27,株式会社ＮｅｘｔＦａｃｔｏｒｙ,,株式会社,埼玉県,越谷市,赤山本町１７番地２９,,11,222,3430808,,,,,,,2024-06-27,1,,,,,ネクストファクトリー,0
988,5030001161131,新規,0,2024-06-27,2024-06-27,Ｍａｋｏｔｏ　Ｓｕｎｒｉｓｅ株式会社,,株式会社,埼玉県,春日部市,東中野９５５番地１１,,11,214,3440114,,,,,,,2024-06-27,1,,,,,マコトサンライズ,0
989,5030003024609,新規,0,2024-06-27,2024-06-27,合同会社ＣＯＡ,,合同会社,埼玉県,戸田市,笹目５丁目３番地の６,,11,224,3350034,,,,,,,2024-06-27,1,,,,,コア,0
996,5040001134284,新規,0,2024-06-27,2024-06-27,ＢＡＳＨＡＫＡ株式会社,,株式会社,千葉県,君津市,三直１２５８―４,,12,225,2991172,,,,,,,2024-06-27,1,,,,,バシャカ,0
1001,5050001054952,新規,0,2024-06-27,2024-06-27,株式会社エフ・ティー・エフ,,株式会社,茨城県,かすみがうら市,安食６９４番地,,08,230,3000205,,,,,,,2024-06-27,1,,,,,エフティーエフ,0
1008,5080101024844,新規,0,2024-06-27,2024-06-27,株式会社グリット,,株式会社,静岡県,富士市,八代町４番１７号,,22,210,4170024,,,,,,,2024-06-27,1,,,,,グリット,0
1011,5080401027274,新規,0,2024-06-27,2024-06-27,磐機重量株式会社,,株式会社,静岡県,磐田市,豊田３９番地２,,22,211,4380808,,,,,,,2024-06-27,1,,,,,バンキジュウリョウ,0
1038,5120001266235,新規,0,2024-06-27,2024-06-27,株式会社ＢＥＥ　ＴＨＲＥＥ,,株式会社,大阪府,大阪市中央区,大手通２丁目４番７号,,27,128,5400021,,,,,,,2024-06-27,1,,,,,ビースリー,0
1039,5120001266243,新規,0,2024-06-27,2024-06-27,株式会社ジェイ・エー,,株式会社,大阪府,大阪市西淀川区,佃３丁目１９番１０,,27,113,5550001,,,,,,,2024-06-27,1,,,,,ジェイエー,0
1040,5120001266268,新規,0,2024-06-27,2024-06-27,株式会社ＬａＬａ,,株式会社,大阪府,大阪市生野区,桃谷５丁目５番７号,,27,116,5440034,,,,,,,2024-06-27,1,,,,,ララ,0
1047,5120101069835,新規,0,2024-06-27,2024-06-27,株式会社Ｌｏａ　Ｓｕｐｐｏｒｔ,,株式会社,大阪府,堺市東区,西野２６番地１１,,27,143,5998125,,,,,,,2024-06-27,1,,,,,ロアサポート,0
1049,5120903005236,新規,0,2024-06-27,2024-06-27,合同会社Ｙ．Ｏ,,合同会社,大阪府,吹田市,桃山台１丁目１番４号４０１,,27,205,5650854,,,,,,,2024-06-27,1,,,,,ワイオー,0
1061,5150003003294,新規,0,2024-06-27,2024-06-27,合同会社ビルドコネクトサポート,,合同会社,奈良県,吉野郡大淀町,大字北野１４８－１４,,29,442,6393125,,,,,,,2024-06-27,1,,,,,ビルドコネクトサポート,0
1063,5180001162123,新規,0,2024-06-27,2024-06-27,株式会社ＡｉｒＫ,,株式会社,愛知県,長久手市,仲田１４０９番地,,23,238,4801167,,,,,,,2024-06-27,1,,,,,エアーケイ,0
1064,5180001162131,新規,0,2024-06-27,2024-06-27,株式会社センショウ,,株式会社,愛知県,一宮市,三ツ井５丁目６番２３号,,23,203,4910827,,,,,,,2024-06-27,1,,,,,センショウ,0
1065,5180001162156,新規,0,2024-06-27,2024-06-27,ビルドナイン株式会社,,株式会社,愛知県,名古屋市東区,東桜１丁目１０番９号,,23,102,4610005,,,,,,,2024-06-27,1,,,,,ビルドナイン,0
1066,5180001162180,新規,0,2024-06-27,2024-06-27,循環づくり株式会社,,株式会社,愛知県,名古屋市緑区,平子が丘４１３番地の４,,23,114,4580826,,,,,,,2024-06-27,1,,,,,ジュンカンヅクリ,0
1068,5180005020681,新規,0,2024-06-27,2024-06-27,ラポール協同組合,,その他の設立登記法人,愛知県,あま市,甚目寺郷中５４番地２,,23,237,4901111,,,,,,,2024-06-27,1,,,,,ラポール,0
1074,5190001031442,新規,0,2024-06-27,2024-06-27,株式会社ＫＳＲ,,株式会社,三重県,四日市市,中野町１７９８番地,,24,202,5121304,,,,,,,2024-06-27,1,,,,,ケイエスアール,0
1075,5190003004727,新規,0,2024-06-27,2024-06-27,ＬＡＭＡ　ＧＲＯＵＰ合同会社,,合同会社,三重県,津市,寿町７番４８‐２０６号,,24,201,5140015,,,,,,,2024-06-27,1,,,,,ラマグループ,0
1078,5200001042636,新規,0,2024-06-27,2024-06-27,マーシーズファーマー株式会社,,株式会社,岐阜県,可児市,下切２７３１番地９,,21,214,5090245,,,,,,,2024-06-27,1,,,,,マーシーズファーマー,0
1092,5240001063422,新規,0,2024-06-27,2024-06-27,株式会社ＳＫＹテクノ,,株式会社,広島県,広島市南区,西本浦町１５番１９号,,34,103,7340045,,,,,,,2024-06-27,1,,,,,スカイテクノ,0
1093,5240001063430,新規,0,2024-06-27,2024-06-27,アステル株式会社,,株式会社,広島県,府中市,高木町８９１番地３,,34,208,7260013,,,,,,,2024-06-27,1,,,,,アステル,0
1096,5260003004744,新規,0,2024-06-27,2024-06-27,合同会社八十三鈴,,合同会社,岡山県,岡山市中区,下４４６－１,,33,102,7038222,,,,,,,2024-06-27,1,,,,,ハチジュウサンリン,0
1097,5260003004802,新規,0,2024-06-27,2024-06-27,永安太楽合同会社,,合同会社,岡山県,岡山市北区,富町１丁目２０番１４号デュナミス富町２０３号,,33,101,7000031,,,,,,,2024-06-27,1,,,,,エイアンタイラク,0
1103,5290001106283,新規,0,2024-06-27,2024-06-27,興旺株式会社,,株式会社,福岡県,福岡市城南区,神松寺３丁目１３番３号２０５号室,,40,136,8140121,,,,,,,2024-06-27,1,,,,,キョウオウ,0
1104,5290001106309,新規,0,2024-06-27,2024-06-27,株式会社Ｗｉｓｄｏｍ,,株式会社,福岡県,久留米市,諏訪野町１６２３,,40,203,8300037,,,,,,,2024-06-27,1,,,,,ウィスダム,0
1107,5340001026575,新規,0,2024-06-27,2024-06-27,Ａｉｒ’Ｇホールディングス株式会社,,株式会社,鹿児島県,鹿児島市,紫原５丁目２９番２１号,,46,201,8900082,,,,,,,2024-06-27,1,,,,,エアージーホールディングス,0
1110,5360001033859,新規,0,2024-06-27,2024-06-27,株式会社空風,,株式会社,沖縄県,八重山郡竹富町,字南風見仲７番地の７０,,47,381,9071433,,,,,,,2024-06-27,1,,,,,ソラカゼ,0
1111,5370001051422,新規,0,2024-06-27,2024-06-27,株式会社達磨,,株式会社,宮城県,仙台市青葉区,広瀬町４番８号ライオンズタワー仙台広瀬２６０３,,04,101,9800873,,,,,,,2024-06-27,1,,,,,ダルマ,0
1117,5380001034624,新規,0,2024-06-27,2024-06-27,株式会社エージェント,,株式会社,福島県,須賀川市,花の里５６番地,,07,207,9620126,,,,,,,2024-06-27,1,,,,,エージェント,0
1125,5430001092096,新規,0,2024-06-27,2024-06-27,サンライズ商事株式会社,,株式会社,北海道,札幌市北区,北三十七条西６丁目１番７－メイゾン麻生１０５号,,01,102,0010037,,,,,,,2024-06-27,1,,,,,サンライズショウジ,0
1126,5430001092113,新規,0,2024-06-27,2024-06-27,株式会社ナカジマ美装,,株式会社,北海道,札幌市手稲区,富丘一条３丁目５番１６号,,01,109,0060011,,,,,,,2024-06-27,1,,,,,ナカジマビソウ,0
1127,5430001092121,新規,0,2024-06-27,2024-06-27,えみ門フーズ株式会社,,株式会社,北海道,石狩市,花川南一条４丁目２３５番地,,01,235,0613201,,,,,,,2024-06-27,1,,,,,エミモンフーズ,0
1130,5430003016499,新規,0,2024-06-27,2024-06-27,合同会社ＲＡＹＥＬ‐レーエル,,合同会社,北海道,札幌市豊平区,平岸八条１３丁目１－１３－５,,01,105,0620938,,,,,,,2024-06-27,1,,,,,レーエル,0
1131,5430005015012,新規,0,2024-06-27,2024-06-27,一般社団法人北海道相続遺言総合支援協会,,その他の設立登記法人,北海道,札幌市東区,北二十二条東３丁目１番３５号ハイテクビル・さっぽろ,,01,103,0650022,,,,,,,2024-06-27,1,,,,,ホッカイドウソウゾクイゴンソウゴウシエンキョウカイ,0
1134,5460001005914,新規,0,2024-06-27,2024-06-27,株式会社釧勝,,株式会社,北海道,釧路市,興津５丁目１番４０号,,01,206,0850811,,,,,,,2024-06-27,1,,,,,センショウ,0
1137,5470001020268,新規,0,2024-06-27,2024-06-27,株式会社Ｔｉｅ　Ｃｏｎｎｅｃｔｉｏｎ,,株式会社,香川県,高松市,太田上町６８３番地１,,37,201,7618074,,,,,,,2024-06-27,1,,,,,ティーコネクション,0
1147,6010001246057,新規,0,2024-06-27,2024-06-27,株式会社ｐｅｏｎｙ　ｖａｌｌｅｙ．,,株式会社,東京都,中央区,銀座１丁目２２番１１号銀座大竹ビジデンス２Ｆ,,13,102,1040061,,,,,,,2024-06-27,1,,,,,ピオニーバレー,0
1148,6010001246065,新規,0,2024-06-27,2024-06-27,株式会社ワンフォース,,株式会社,東京都,千代田区,神田紺屋町４６番地,,13,101,1010035,,,,,,,2024-06-27,1,,,,,ワンフォース,0
1159,6010401183296,新規,0,2024-06-27,2024-06-27,株式会社Ｒｏａｎｎｅ,,株式会社,東京都,港区,浜松町２丁目２番１５号浜松町ダイヤビル２Ｆ,,13,103,1050013,,,,,,,2024-06-27,1,,,,,ロアンヌ,0
1160,6010401183404,新規,0,2024-06-27,2024-06-27,株式会社アルクラージュ,,株式会社,東京都,港区,南青山２丁目２番１５号,,13,103,1070062,,,,,,,2024-06-27,1,,,,,アルクラージュ,0
1161,6010401183412,新規,0,2024-06-27,2024-06-27,ＭＹ　Ｐｉｌａｔｅｓ株式会社,,株式会社,東京都,港区,三田１丁目７番１号パークコート麻布十番ザ・タワー７０７号室,,13,103,1080073,,,,,,,2024-06-27,1,,,,,マイピラティス,0
1162,6010401183445,新規,0,2024-06-27,2024-06-27,ＧＡＭＩＥＳ株式会社,,株式会社,東京都,港区,虎ノ門４丁目１－６第二大石ビル５Ｆ,,13,103,1050001,,,,,,,2024-06-27,1,,,,,ゲーミーズ,0
1163,6010405023341,新規,0,2024-06-27,2024-06-27,一般社団法人国際歯科医療協会,,その他の設立登記法人,東京都,港区,北青山２丁目７番１３号プラセオ青山ビル３階,,13,103,1070061,,,,,,,2024-06-27,1,,,,,コクサイシカイリョウキョウカイ,0
1165,6010501052509,新規,0,2024-06-27,2024-06-27,株式会社ＬＫ,,株式会社,東京都,台東区,台東４丁目７番６号新星ビル１階,,13,106,1100016,,,,,,,2024-06-27,1,,,,,エルケー,0
1173,6010703007236,新規,0,2024-06-27,2024-06-27,白楽ホームホールディングス合同会社,,合同会社,東京都,品川区,上大崎３丁目１番１号目黒セントラルスクエア１５階,,13,109,1410021,,,,,,,2024-06-27,1,,,,,ハクラクホームホールディングス,0
1177,6010901055540,新規,0,2024-06-27,2024-06-27,株式会社健幸,,株式会社,東京都,世田谷区,南烏山１丁目３０番２号藤和シティコープ芦花公園１－Ｂ,,13,112,1570062,,,,,,,2024-06-27,1,,,,,ケンコウ,0
1178,6010901055549,新規,0,2024-06-27,2024-06-27,株式会社ｏｋａｐ,,株式会社,東京都,世田谷区,船橋４丁目４２番４－２０３号,,13,112,1560055,,,,,,,2024-06-27,1,,,,,オカピ,0
1180,6010903009180,新規,0,2024-06-27,2024-06-27,ＳＡＮＤＳ合同会社,,合同会社,東京都,世田谷区,深沢２丁目１番３－４０９号,,13,112,1580081,,,,,,,2024-06-27,1,,,,,サンズ,0
1183,6011001162962,新規,0,2024-06-27,2024-06-27,株式会社Ｒａｃｂａｋｉ,,株式会社,東京都,渋谷区,桜丘町１２番１０号住友不動産渋谷インフォスアネックス１階,,13,113,1500031,,,,,,,2024-06-27,1,,,,,ラクバキ,0
1184,6011001162987,新規,0,2024-06-27,2024-06-27,株式会社ＨｅａｄＬｉｎｅｒ,,株式会社,東京都,渋谷区,恵比寿西２丁目８番４号ＥＸ恵比寿西ビル５階,,13,113,1500021,,,,,,,2024-06-27,1,,,,,ヘッドライナー,0
1185,6011001162995,新規,0,2024-06-27,2024-06-27,柳田経営コンサルティング株式会社,,株式会社,東京都,目黒区,中央町２丁目２１番２２号,,13,110,1520001,,,,,,,2024-06-27,1,,,,,ヤナギダケイエイコンサルティング,0
1188,6011101107842,新規,0,2024-06-27,2024-06-27,株式会社ＧＥＴＡＢＥＣ　ＪＡＰＡＮ,,株式会社,東京都,新宿区,西新宿１丁目２５番１号新宿センタービル４９階,,13,104,1600023,,,,,,,2024-06-27,1,,,,,ジェタベックジャパン,0
1191,6011301029795,新規,0,2024-06-27,2024-06-27,株式会社マイトリー,,株式会社,東京都,杉並区,高円寺南３丁目４４番３号,,13,115,1660003,,,,,,,2024-06-27,1,,,,,マイトリー,0
1198,6011703003869,新規,0,2024-06-27,2024-06-27,合同会社春日,,合同会社,東京都,江戸川区,東小岩３丁目１７番１６号,,13,123,1330052,,,,,,,2024-06-27,1,,,,,ハルヒ,0
1204,6012301013970,新規,0,2024-06-27,2024-06-27,株式会社ＧＰ,,株式会社,東京都,町田市,旭町２丁目８番１１号２Ｂ,,13,209,1940023,,,,,,,2024-06-27,1,,,,,ジーピー,0
1211,6013101009449,新規,0,2024-06-27,2024-06-27,リコブラインドジャパン株式会社,,株式会社,東京都,福生市,加美平２丁目７番地１６パレ・ドール福生１０３号室,,13,218,1970012,,,,,,,2024-06-27,1,,,,,リコブラインドジャパン,0
1215,6013303007192,新規,0,2024-06-27,2024-06-27,海の風塩合同会社,,合同会社,東京都,豊島区,長崎２丁目２２番３号ベルウッド鈴木１０３号,,13,116,1710051,,,,,,,2024-06-27,1,,,,,ウミノカゼシオ,0
1224,6020001157880,新規,0,2024-06-27,2024-06-27,東旭商事株式会社,,株式会社,神奈川県,横浜市中区,山下町２１５番地４ライオンズマンション横濱山下公園１００４号室,,14,104,2310023,,,,,,,2024-06-27,1,,,,,トウキショウジ,0
1225,6020001157897,新規,0,2024-06-27,2024-06-27,株式会社エムスペース,,株式会社,神奈川県,横浜市鶴見区,矢向３丁目２４番２７号,,14,101,2300001,,,,,,,2024-06-27,1,,,,,エムスペース,0
1226,6020001157939,新規,0,2024-06-27,2024-06-27,株式会社マメコ商事,,株式会社,神奈川県,横浜市中区,弥生町１丁目１３番パークルームズ１階,,14,104,2310058,,,,,,,2024-06-27,1,,,,,,0
1227,6020001157988,新規,0,2024-06-27,2024-06-27,株式会社アユレ,,株式会社,神奈川県,横浜市西区,宮ケ谷２５‐２三ッ沢ハイタウン３‐６０３,,14,103,2200006,,,,,,,2024-06-27,1,,,,,アユレ,0
1231,6020003026398,新規,0,2024-06-27,2024-06-27,合同会社ＬｕｃｋｙＢｅａｎｓ白馬,,合同会社,神奈川県,横浜市金沢区,釜利谷南２丁目３番２号,,14,108,2360045,,,,,,,2024-06-27,1,,,,,ラッキービーンズハクバ,0
1236,6021003014681,新規,0,2024-06-27,2024-06-27,ＫＲＬ　ＴＲＡＤＩＮＧ合同会社,,合同会社,神奈川県,厚木市,妻田東２丁目１６番１２号,,14,212,2430813,,,,,,,2024-06-27,1,,,,,ケーアールエルトレーディング,0
1243,6030001161122,新規,0,2024-06-27,2024-06-27,株式会社Ｌｉｌｙ,,株式会社,埼玉県,上尾市,富士見２丁目５番５－２０２号,,11,219,3620041,,,,,,,2024-06-27,1,,,,,リリー,0
1244,6030001161130,新規,0,2024-06-27,2024-06-27,嘉禾国際株式会社,,株式会社,埼玉県,蕨市,中央３丁目２２番１５号金沢ビル２階,,11,223,3350004,,,,,,,2024-06-27,1,,,,,カカコクサイ,0
1245,6030001161147,新規,0,2024-06-27,2024-06-27,株式会社辰未,,株式会社,埼玉県,新座市,北野２丁目１０番１５号,,11,230,3520003,,,,,,,2024-06-27,1,,,,,タツミ,0
1246,6030005021743,新規,0,2024-06-27,2024-06-27,一般社団法人先端技術普及協会,,その他の設立登記法人,埼玉県,さいたま市桜区,西堀９丁目１４番１－６０４号,,11,106,3380832,,,,,,,2024-06-27,1,,,,,センタンギジュツフキュウキョウカイ,0
1250,6040001134234,新規,0,2024-06-27,2024-06-27,共栄設備工業株式会社,,株式会社,千葉県,館山市,西長田３６８番地,,12,205,2940027,,,,,,,2024-06-27,1,,,,,キョウエイセツビコウギョウ,0
1251,6040001134250,新規,0,2024-06-27,2024-06-27,株式会社Ｃａｒｒｙ　Ｏｎ,,株式会社,千葉県,茂原市,高師８２５番地,,12,210,2970029,,,,,,,2024-06-27,1,,,,,キャリーオン,0
1252,6040001134259,新規,0,2024-06-27,2024-06-27,株式会社幕張開発,,株式会社,千葉県,千葉市美浜区,若葉３丁目１－１８幕張ベイパーククロスレジデンスＳ２－１,,12,106,2610014,,,,,,,2024-06-27,1,,,,,マクハリカイハツ,0
1254,6040003025282,新規,0,2024-06-27,2024-06-27,合同会社ＢｅｒｒｙＶｅｒｙベリーベリーカンパニー,,合同会社,千葉県,大網白里市,駒込４３８－９大あみハイツＡ１１０５,,12,239,2993235,,,,,,,2024-06-27,1,,,,,ベリーベリーベリーベリーカンパニー,0
1259,6060001037229,新規,0,2024-06-27,2024-06-27,株式会社ＫＡＫＥＨＡＳＨＩ,,株式会社,栃木県,足利市,南大町１１４４番地７,,09,202,3260836,,,,,,,2024-06-27,1,,,,,カケハシ,0
1261,6070001041907,新規,0,2024-06-27,2024-06-27,株式会社ＥＦＦＩＥ,,株式会社,群馬県,高崎市,下和田町４丁目３番３５－１号,,10,202,3700846,,,,,,,2024-06-27,1,,,,,エフィ,0
1286,6120001266300,新規,0,2024-06-27,2024-06-27,株式会社ササキデンタルラボ,,株式会社,大阪府,大阪市淀川区,十八条１丁目８番４２－１１号,,27,123,5320001,,,,,,,2024-06-27,1,,,,,ササキデンタルラボ,0
1290,6120101069859,新規,0,2024-06-27,2024-06-27,株式会社ＭＳＫ,,株式会社,大阪府,堺市北区,新金岡町３丁３番５－３０７号,,27,146,5918021,,,,,,,2024-06-27,1,,,,,エムエスケー,0
1291,6120103005911,新規,0,2024-06-27,2024-06-27,合同会社こもれび,,合同会社,大阪府,堺市北区,百舌鳥赤畑町２丁４６番地２,,27,146,5918037,,,,,,,2024-06-27,1,,,,,コモレビ,0
1294,6122001038217,新規,0,2024-06-27,2024-06-27,株式会社ＨＩＳＡＮＯＢＵ,,株式会社,大阪府,八尾市,西山本町４丁目５番４号,,27,212,5810868,,,,,,,2024-06-27,1,,,,,ヒサノブ,0
1306,6140001134901,新規,0,2024-06-27,2024-06-27,オレンジボックス株式会社,,株式会社,兵庫県,西宮市,丸橋町４番１７－３１８号,,28,204,6620831,,,,,,,2024-06-27,1,,,,,オレンジボックス,0
1309,6160001026031,新規,0,2024-06-27,2024-06-27,株式会社Ｋプランニング,,株式会社,滋賀県,彦根市,高宮町１２３８番地２（２０１号）,,25,202,5220201,,,,,,,2024-06-27,1,,,,,ケープランニング,0
1311,6180001162139,新規,0,2024-06-27,2024-06-27,株式会社ＳＰ,,株式会社,愛知県,名古屋市中区,新栄１丁目２番２９号ウエストビルＢ１階,,23,106,4600007,,,,,,,2024-06-27,1,,,,,エスピー,0
1312,6180001162147,新規,0,2024-06-27,2024-06-27,ＡＤＤ株式会社,,株式会社,愛知県,名古屋市中村区,岩塚町字郷中１０８番地の３ＥＳＰＲＥＳＳＯ岩塚１Ｅ,,23,105,4530862,,,,,,,2024-06-27,1,,,,,アッド,0
1315,6180003026993,新規,0,2024-06-27,2024-06-27,合同会社マネジメントディブ,,合同会社,愛知県,名古屋市北区,城東町１丁目８番地の５,,23,103,4620831,,,,,,,2024-06-27,1,,,,,マネジメントディブ,0
1319,6200001042635,新規,0,2024-06-27,2024-06-27,ＡＩスマートトイレ株式会社,,株式会社,岐阜県,可児市,下切２７３１番地９,,21,214,5090245,,,,,,,2024-06-27,1,,,,,エーアイスマートトイレ,0
1326,6260003004743,新規,0,2024-06-27,2024-06-27,合同会社八十二鈴,,合同会社,岡山県,岡山市中区,下４４６－１,,33,102,7038222,,,,,,,2024-06-27,1,,,,,ハチジュウニリン,0
1332,6290001106274,新規,0,2024-06-27,2024-06-27,株式会社Ｖｅｒｙｄａ,,株式会社,福岡県,福岡市中央区,天神４丁目６－２８天神ファーストビル７階,,40,133,8100001,,,,,,,2024-06-27,1,,,,,ベリーダ,0
1333,6290001106282,新規,0,2024-06-27,2024-06-27,株式会社ｎｉｃｏｎｉｃｏ島,,株式会社,福岡県,大野城市,月の浦２丁目４番１６号,,40,219,8160983,,,,,,,2024-06-27,1,,,,,ニコニコジマ,0
1335,6290003015498,新規,0,2024-06-27,2024-06-27,Ｐｉｌｌａｒｓ合同会社,,合同会社,福岡県,福岡市中央区,桜坂１丁目１１－５－３,,40,133,8100024,,,,,,,2024-06-27,1,,,,,ピラーズ,0
1336,6290003015507,新規,0,2024-06-27,2024-06-27,Ｒｙｏ合同会社,,合同会社,福岡県,福岡市南区,三宅２丁目７番２６号松本ハイツ２－２０１号,,40,134,8111344,,,,,,,2024-06-27,1,,,,,リョ,0
1341,6310001019085,新規,0,2024-06-27,2024-06-27,株式会社ＭＤＦ,,株式会社,長崎県,長崎市,愛宕４丁目２７番１７号,,42,201,8500822,,,,,,,2024-06-27,1,,,,,エムディエフ,0
1347,6350003004684,新規,0,2024-06-27,2024-06-27,合同会社ピュアサーマル,,合同会社,宮崎県,宮崎市,吉村町平塚甲１９１３番地４,00135334,45,201,8800841,,,,,,,2024-06-27,1,,,,,ピュアサーマル,0
1348,6360001033858,新規,0,2024-06-27,2024-06-27,株式会社ＲＵＮ‐ＯＫＩ,,株式会社,沖縄県,沖縄市,上地４丁目１番２号,,47,211,9040031,,,,,,,2024-06-27,1,,,,,ランオキ,0
1349,6360001033866,新規,0,2024-06-27,2024-06-27,Ｋｗａｈｕｕ　Ｏｃｅａｎ株式会社,,株式会社,沖縄県,国頭郡恩納村,字谷茶１９１９番地１ＯＩＳＴイノベーションスクエア・インキュベータ,,47,311,9040412,,,,,,,2024-06-27,1,,,,,カフーオーシャン,0
1350,6360005007057,新規,0,2024-06-27,2024-06-27,一般社団法人日本動物病院人事協会,,その他の設立登記法人,沖縄県,うるま市,みどり町５丁目１４番９号アレイールみどり町ファミーユ３０２,,47,213,9042215,,,,,,,2024-06-27,1,,,,,ニホンドウブツビョウインジンジキョウカイ,0
1357,6380001034623,新規,0,2024-06-27,2024-06-27,株式会社クマダデンキ,,株式会社,福島県,郡山市,富田町字上西田３２番地の１４,,07,203,9638041,,,,,,,2024-06-27,1,,,,,クマダデンキ,0
1372,6430001092112,新規,0,2024-06-27,2024-06-27,株式会社円山ビルヂング,,株式会社,北海道,札幌市中央区,双子山２丁目６番２７号,,01,101,0640946,,,,,,,2024-06-27,1,,,,,マルヤマビルヂング,0
1373,6430001092129,新規,0,2024-06-27,2024-06-27,株式会社ＫＥＮＰＲＯＰ,,株式会社,北海道,札幌市白石区,平和通４丁目北５番５－３０７号,,01,104,0030029,,,,,,,2024-06-27,1,,,,,ケンプロップ,0
1379,6430003016498,新規,0,2024-06-27,2024-06-27,合同会社壱建,,合同会社,北海道,札幌市西区,発寒八条１０丁目２番１９－１０５号,,01,107,0630828,,,,,,,2024-06-27,1,,,,,イチケン,0
1380,6440001009461,新規,0,2024-06-27,2024-06-27,株式会社ＴＭコーポレーション,,株式会社,北海道,函館市,本町１０番１３号,,01,202,0400011,,,,,,,2024-06-27,1,,,,,ティーエムコーポレーション,0
1384,6470001020267,新規,0,2024-06-27,2024-06-27,株式会社シーウェイ,,株式会社,香川県,丸亀市,川西町北６５５番地８,,37,202,7630091,,,,,,,2024-06-27,1,,,,,シーウェイ,0
1388,6500001025725,新規,0,2024-06-27,2024-06-27,株式会社スマイウェーブ,,株式会社,愛媛県,松山市,西長戸町２１８番地４,,38,201,7918017,,,,,,,2024-06-27,1,,,,,スマイウェーブ,0
1389,6700150097504,新規,0,2024-06-27,2020-01-21,常磐西学童保育所,,その他,三重県,四日市市,西日野町字２４２１番地,,24,202,5100943,,,,,,,2020-01-21,1,,,,,トキワニシガクドウホイクシヨ,0
1392,6700150125925,新規,0,2024-06-27,2024-06-12,国際芸術祭「あいち」地域展開事業実行委員会,,その他,愛知県,名古屋市東区,東桜１丁目１３－２愛知芸術文化センター国際芸術祭推進室内,,23,102,4610005,,,,,,,2024-06-12,1,,,,,コクサイゲイジユツサイアイチチイキテンカイジギヨウジツコウイインカイ,0
1393,6700150126246,新規,0,2024-06-27,2024-06-27,ｓｈｉｓｈｉｓｈｉｘｉｎｒｕｉｚｈｉｓｈｅｎｇｋｅｊｉｙｏｕｘｉａｎｇｏｎｇｓｉ,,外国会社等,,,,,,,,ｆｕｊｉａｎｓｈｅｎｇ　ｑｕａｎｚｈｏｕｓｈｉ　ｓｈｉｓｈｉｓｈｉｆｅｎｇｌｉｊｉｅｄａｏｘｉｎｈｕａｌｕ２９８ｈａｏｆｅｎｇｈｕａｎｇｃｈｅｎｇ１０ｚｈｕａｎｇ　Ａｔｉ３１０１ｓｈｉ,,,,,,2024-06-27,1,,,,,シーシーシーシンルイジーションコージーヨウシエンゴンスー,0
1408,7010001246031,新規,0,2024-06-27,2024-06-27,株式会社ＭＡＭＡ　ＭＥＤＩＡ,,株式会社,東京都,中央区,銀座６丁目６番１号銀座風月堂ビル５階,,13,102,1040061,,,,,,,2024-06-27,1,,,,,ママメディア,0
1409,7010001246048,新規,0,2024-06-27,2024-06-27,言成株式会社,,株式会社,東京都,千代田区,神田岩本町４番地７,,13,101,1010033,,,,,,,2024-06-27,1,,,,,ゴンセイ,0
1410,7010001246064,新規,0,2024-06-27,2024-06-27,株式会社Ｂ３,,株式会社,東京都,千代田区,神田和泉町１番地６の１６ヤマトビル４０５,,13,101,1010024,,,,,,,2024-06-27,1,,,,,ビーサン,0
1411,7010001246114,新規,0,2024-06-27,2024-06-27,株式会社ハーティフル,,株式会社,東京都,中央区,日本橋室町１丁目１１番１２号日本橋水野ビル７階,,13,102,1030022,,,,,,,2024-06-27,1,,,,,ハーティフル,0
1412,7010003044136,新規,0,2024-06-27,2024-06-27,Ｓａｋｕｒａ　Ｗｏｒｌｄ　Ｔｒａｄｅ合同会社,,合同会社,東京都,中央区,銀座１丁目２２番１１号銀座大竹ビジデンス２Ｆ,,13,102,1040061,,,,,,,2024-06-27,1,,,,,サクラワールドトレード,0
1413,7010003044169,新規,0,2024-06-27,2024-06-27,合同会社ＫＲＦ１１０,,合同会社,東京都,千代田区,内幸町２丁目１番６号,,13,101,1000011,,,,,,,2024-06-27,1,,,,,ケイアールエフヒャクジュウ,0
1419,7010403032905,新規,0,2024-06-27,2024-06-27,Ｗｉｓｈ合同会社,,合同会社,東京都,港区,新橋１丁目１８番２１号第一日比谷ビル７階,,13,103,1050004,,,,,,,2024-06-27,1,,,,,ウィッシュ,0
1423,7010503007501,新規,0,2024-06-27,2024-06-27,合同会社ＷＯＲＫＳ,,合同会社,東京都,台東区,東上野３丁目１８番１号ＴｈｅＢｌｏｏｍＵｅｎｏ３０３号室,,13,106,1100015,,,,,,,2024-06-27,1,,,,,ワークス,0
1425,7010701046177,新規,0,2024-06-27,2024-06-27,株式会社ラクナル,,株式会社,東京都,品川区,小山２丁目１１番１１号ハイツ小山３０３,,13,109,1420062,,,,,,,2024-06-27,1,,,,,ラクナル,0
1430,7010901055548,新規,0,2024-06-27,2024-06-27,株式会社ｈコーポレーション,,株式会社,東京都,世田谷区,東玉川２丁目２８番１３号,,13,112,1580084,,,,,,,2024-06-27,1,,,,,エイチコーポレーション,0
1435,7011001162986,新規,0,2024-06-27,2024-06-27,株式会社Ｂａｃｃｈｕｓ　Ｇａｍｅ　Ｓｔｕｄｉｏ,,株式会社,東京都,渋谷区,道玄坂１丁目１０番８号渋谷道玄坂東急ビル２Ｆ－Ｃ,,13,113,1500043,,,,,,,2024-06-27,1,,,,,バッカスゲームスタジオ,0
1436,7011001163010,新規,0,2024-06-27,2024-06-27,株式会社Ｈ,,株式会社,東京都,渋谷区,千駄ヶ谷１丁目２４番１号セントラルレジデンス神宮外苑シティハウス１０１,,13,113,1510051,,,,,,,2024-06-27,1,,,,,エイチ,0
1439,7011101107866,新規,0,2024-06-27,2024-06-27,株式会社Ｈｏｔｅｌｓ　Ａｓｉａ,,株式会社,東京都,新宿区,西新宿１丁目８番１号新宿ビルディング５階,,13,104,1600023,,,,,,,2024-06-27,1,,,,,ホテルズアジア,0
1440,7011103014607,新規,0,2024-06-27,2024-06-27,合同会社ハイビーオフィス,,合同会社,東京都,新宿区,西新宿３丁目３－１３西新宿水間ビル２Ｆ,,13,104,1600023,,,,,,,2024-06-27,1,,,,,ハイビーオフィス,0
1441,7011203004425,新規,0,2024-06-27,2024-06-27,エヌビーティー合同会社,,合同会社,東京都,中野区,東中野１丁目３２番２－４１３号,,13,114,1640003,,,,,,,2024-06-27,1,,,,,エヌビーティー,0
1442,7011401026221,新規,0,2024-06-27,2024-06-27,株式会社ケイワーク,,株式会社,東京都,板橋区,赤塚３丁目１５番１４号エスポアール森田１０１号室,,13,119,1750092,,,,,,,2024-06-27,1,,,,,ケイワーク,0
1445,7011603004371,新規,0,2024-06-27,2024-06-27,ｒａｄｉａｎｔ合同会社,,合同会社,東京都,練馬区,中村南３丁目５番１１－１０１号,,13,120,1760025,,,,,,,2024-06-27,1,,,,,レディアント,0
1448,7011801044418,新規,0,2024-06-27,2024-06-27,株式会社おまり,,株式会社,東京都,足立区,青井５丁目１０番２１号,,13,121,1210012,,,,,,,2024-06-27,1,,,,,オマリ,0
1449,7011801044434,新規,0,2024-06-27,2024-06-27,石崎興業株式会社,00135333,株式会社,東京都,足立区,伊興２丁目１番１３号,,13,121,1210823,,,,,,,2024-06-27,1,,,,,イシザキコウギョウ,0
1453,7013303007191,新規,0,2024-06-27,2024-06-27,頂尚合同会社,,合同会社,東京都,豊島区,上池袋３丁目４７番９号４Ｆ－２号室,,13,116,1700012,,,,,,,2024-06-27,1,,,,,チョウショウ,0
1467,7020003026348,新規,0,2024-06-27,2024-06-27,合同会社ｚｅｒｏ　ｆｅｅｔ,,合同会社,神奈川県,横浜市戸塚区,上品濃１６－１－１０２１,,14,110,2440806,,,,,,,2024-06-27,1,,,,,ゼロフィート,0
1469,7021001082580,新規,0,2024-06-27,2024-06-27,株式会社マクス,,株式会社,神奈川県,横須賀市,上町４丁目６番地３,,14,201,2380017,,,,,,,2024-06-27,1,,,,,マクス,0
1472,7021005013136,新規,0,2024-06-27,2024-06-27,一般社団法人トータルリスタートサービス協会,,その他の設立登記法人,神奈川県,藤沢市,本鵠沼５丁目５番１５号,,14,205,2510028,,,,,,,2024-06-27,1,,,,,トータルリスタートサービスキョウカイ,0
1475,7030001161121,新規,0,2024-06-27,2024-06-27,株式会社ＩＧＳ,,株式会社,埼玉県,ふじみ野市,霞ケ丘２丁目５番１－１０１０号,,11,245,3560006,,,,,,,2024-06-27,1,,,,,アイジーエス,0
1476,7030001161154,新規,0,2024-06-27,2024-06-27,株式会社ＧＳ不動産,,株式会社,埼玉県,川口市,西川口１丁目２４－１０トミビル３－２０１号,,11,203,3320021,,,,,,,2024-06-27,1,,,,,ジーエスフドウサン,0
1477,7030001161162,新規,0,2024-06-27,2024-06-27,株式会社ＭＯＴＯ産業,,株式会社,埼玉県,さいたま市北区,今羽町１５２番地１,,11,102,3310801,,,,,,,2024-06-27,1,,,,,モトサンギョウ,0
1481,7030003024598,新規,0,2024-06-27,2024-06-27,合同会社エイチケーワン,,合同会社,埼玉県,さいたま市大宮区,桜木町２丁目３番地大宮マルイ７階,,11,103,3300854,,,,,,,2024-06-27,1,,,,,エイチケーワン,0
1484,7040001134233,新規,0,2024-06-27,2024-06-27,星株式会社,,株式会社,千葉県,佐倉市,畔田８９８番地３８,,12,212,2850835,,,,,,,2024-06-27,1,,,,,ホシ,0
1490,7060001037228,新規,0,2024-06-27,2024-06-27,株式会社ＭＭＩホールディングス,,株式会社,栃木県,宇都宮市,不動前２丁目６番７号１０２,,09,201,3200833,,,,,,,2024-06-27,1,,,,,エムエムアイホールディングス,0
1491,7060003005133,新規,0,2024-06-27,2024-06-27,合同会社Ｈｉｔ,,合同会社,栃木県,那須烏山市,下境１５８１番地２,,09,215,3210616,,,,,,,2024-06-27,1,,,,,ヒット,0
1497,7080101024842,新規,0,2024-06-27,2024-06-27,日東ホールディングス株式会社,,株式会社,静岡県,富士宮市,万野原新田３３４６番地の６,,22,207,4180001,,,,,,,2024-06-27,1,,,,,ニットウホールディングス,0
1500,7080401027280,新規,0,2024-06-27,2024-06-27,株式会社フラット,,株式会社,静岡県,掛川市,塩町８番地の１０アンソレイユ塩町１Ｆ,,22,213,4360076,,,,,,,2024-06-27,1,,,,,フラット,0
1503,7100001037586,新規,0,2024-06-27,2024-06-27,株式会社Ｕ‐ＭＩＲＯＫＵ,,株式会社,長野県,大町市,常盤３８７番地２,,20,212,3980004,,,,,,,2024-06-27,1,,,,,ウミロク,0
1522,7120901049381,新規,0,2024-06-27,2024-06-27,株式会社ＳＹＯＦＵＫＵ,,株式会社,大阪府,吹田市,山田東４丁目４１番ローレルハイツ千里６号棟Ａ－１０３,,27,205,5650821,,,,,,,2024-06-27,1,,,,,ショウフク,0
1536,7140001134875,新規,0,2024-06-27,2024-06-27,株式会社昇輝,,株式会社,兵庫県,西宮市,高塚町７番８７号,,28,204,6620066,,,,,,,2024-06-27,1,,,,,ショウキ,0
1541,7180003027000,新規,0,2024-06-27,2024-06-27,合同会社Ａ．ｎｏ,,合同会社,愛知県,名古屋市守山区,大永寺町７４番地,,23,113,4630087,,,,,,,2024-06-27,1,,,,,アノ,0
1548,7200001042634,新規,0,2024-06-27,2024-06-27,ＡＩＧＲＯＷ株式会社,,株式会社,岐阜県,可児市,下切２７３１番地９,,21,214,5090245,,,,,,,2024-06-27,1,,,,,エーアイグロウ,0
1551,7220001026065,新規,0,2024-06-27,2024-06-27,Ｌａｙ　Ｌｉｎｅ　Ｗｏｒｋｓ株式会社,,株式会社,石川県,金沢市,御影町９番１３号,,17,201,9218021,,,,,,,2024-06-27,1,,,,,レイラインワークス,0
1560,7260003004726,新規,0,2024-06-27,2024-06-27,合同会社七十三鈴,,合同会社,岡山県,岡山市東区,益野町２２５番地３エンドレスＶＩＩ棟１０１号室,00135339,33,103,7048175,,,,,,,2024-06-27,1,,,,,ナナジュウサンリン,0
1569,7320001020561,新規,0,2024-06-27,2024-06-27,不二水道ホールディングス株式会社,,株式会社,大分県,日田市,城町１丁目８番４６号,,44,204,8770004,,,,,,,2024-06-27,1,,,,,フジスイドウホールディングス,0
1570,7330003010436,新規,0,2024-06-27,2024-06-27,合同会社ｒｕｐａ,,合同会社,熊本県,熊本市中央区,小沢町１９番地３クラシックガーデン３０１,,43,101,8600042,,,,,,,2024-06-27,1,,,,,ルーパ,0
1575,7360001033808,新規,0,2024-06-27,2024-06-27,株式会社仁愛総研,,株式会社,沖縄県,那覇市,宇栄原２丁目２－１新垣三郎店舗１階１０１号室,,47,201,9010153,,,,,,,2024-06-27,1,,,,,ジンアイソウケン,0
1576,7360001033857,新規,0,2024-06-27,2024-06-27,株式会社ＳＥＰ,,株式会社,沖縄県,国頭郡恩納村,字真栄田１４２９番地,,47,311,9040417,,,,,,,2024-06-27,1,,,,,エスイーピー,0
1599,7440001009460,新規,0,2024-06-27,2024-06-27,株式会社リープクリエイト,,株式会社,北海道,函館市,日吉町２丁目３３－１６,,01,202,0410841,,,,,,,2024-06-27,1,,,,,リープクリエイト,0
1605,7500001025724,新規,0,2024-06-27,2024-06-27,株式会社Ｍｏｄｅｒｎ　Ｆｌｏｗｅｒ,,株式会社,愛媛県,今治市,上徳甲４２６番地２,,38,202,7991511,,,,,,,2024-06-27,1,,,,,モダンフラワー,0
1608,7700150126245,新規,0,2024-06-27,2024-06-27,Ｈｏｎｇ　Ｋｏｎｇ　Ｃｏｍｆｏｒｔａｂｌｅ　Ｈｏｍｅ　Ｔｅｃｈｎｏｌｏｇｙ　Ｌｉｍｉｔｅｄ,,外国会社等,,,,,,,,Ｕｎｉｔ　１００２，１０／Ｆ．，Ｐｅｒｆｅｃｔ　Ｃｏｍｍｅｒｃｉａｌ　Ｂｕｉｌｄｉｎｇ，２０　Ａｕｓｔｉｎ　Ａｖｅｎｕｅ，Ｔｓｉｍ　Ｓｈａ　Ｔｓｕｉ，Ｋｏｗｌｏｏｎ，Ｈｏｎｇ　Ｋｏｎｇ,,,,,,2024-06-27,1,,,,,シャンガンシューシージャージーコージーヨウシエンゴンスー,0
1611,8010001245908,新規,0,2024-06-27,2024-06-27,株式会社Ｍ＆Ｍ,,株式会社,東京都,中央区,銀座１丁目１２番４号Ｎ＆ＥＢＬＤ．６Ｆ,,13,102,1040061,,,,,,,2024-06-27,1,,,,,エムアンドエム,0
1612,8010001245924,新規,0,2024-06-27,2024-06-27,株式会社タイガメッドジャパン,,株式会社,東京都,千代田区,神田小川町１丁目１１番地,,13,101,1010052,,,,,,,2024-06-27,1,,,,,タイガメッドジャパン,0
1613,8010001246071,新規,0,2024-06-27,2024-06-27,株式会社Ｘｔｒａ　Ｌｉｆｅ,,株式会社,東京都,千代田区,外神田５丁目６番２－１２０２号,,13,101,1010021,,,,,,,2024-06-27,1,,,,,エクストラライフ,0
1616,8010005038465,新規,0,2024-06-27,2024-06-27,一般社団法人ボンドブリッジ３,,その他の設立登記法人,東京都,千代田区,内神田１丁目３番７号４０１あすな会計事務所内,,13,101,1010047,,,,,,,2024-06-27,1,,,,,ボンドブリッジスリー,0
1621,8010401183385,新規,0,2024-06-27,2024-06-27,ＤＯＧ　ＷＯＯＤ株式会社,,株式会社,東京都,港区,南青山５丁目４番１１号,,13,103,1070062,,,,,,,2024-06-27,1,,,,,ドッグウッド,0
1622,8010401183427,新規,0,2024-06-27,2024-06-27,株式会社ＳＭＦ,,株式会社,東京都,港区,芝浦３丁目１番２１号,,13,103,1080023,,,,,,,2024-06-27,1,,,,,エスエムエフ,0
1623,8010403032904,新規,0,2024-06-27,2024-06-27,Ｒｉｋａ　Ｃｏｒｐｏｒａｔｉｏｎ合同会社,,合同会社,東京都,港区,三田２丁目３番３４－１６０４号,,13,103,1080073,,,,,,,2024-06-27,1,,,,,リカコーポレーション,0
1624,8010501052515,新規,0,2024-06-27,2024-06-27,Ｔｈｒｅｅ　Ｅｌｅｐｈａｎｔｓ株式会社,,株式会社,東京都,台東区,東上野１丁目１０番８号旭光ビル５階Ｎｏ．７,,13,106,1100015,,,,,,,2024-06-27,1,,,,,スリーエレファンツ,0
1625,8010503007500,新規,0,2024-06-27,2024-06-27,合同会社ＡＵ商事,,合同会社,東京都,台東区,根岸４丁目２番１号－４０３,,13,106,1100003,,,,,,,2024-06-27,1,,,,,エーユーショウジ,0
1638,8011001162977,新規,0,2024-06-27,2024-06-27,イントゥインベストメントジャパン株式会社,,株式会社,東京都,渋谷区,桜丘町２６番１号セルリアンタワー１５階,,13,113,1500031,,,,,,,2024-06-27,1,,,,,イントゥインベストメントジャパン,0
1639,8011001162985,新規,0,2024-06-27,2024-06-27,株式会社Ｂｌｕｅｂｅｒｒｙ,,株式会社,東京都,渋谷区,神山町４２番２号,,13,113,1500047,,,,,,,2024-06-27,1,,,,,ブルーベリー,0
1640,8011001162993,新規,0,2024-06-27,2024-06-27,サムライスタイル株式会社,,株式会社,東京都,渋谷区,道玄坂１丁目１０－８渋谷道玄坂東急ビル２Ｆ－Ｃ,,13,113,1500043,,,,,,,2024-06-27,1,,,,,サムライスタイル,0
1641,8011101107840,新規,0,2024-06-27,2024-06-27,株式会社ノウィングス,,株式会社,東京都,新宿区,西新宿３丁目３番１３号西新宿水間ビル６階,,13,104,1600023,,,,,,,2024-06-27,1,,,,,ノウィングス,0
1642,8011103014606,新規,0,2024-06-27,2024-06-27,フィールドヒルズ合同会社,,合同会社,東京都,新宿区,西早稲田３丁目３１番６－２０４号,,13,104,1690051,,,,,,,2024-06-27,1,,,,,フィールドヒルズ,0
1643,8011103014614,新規,0,2024-06-27,2024-06-27,合同会社ＯＮＥ　ＭＩＸ．,,合同会社,東京都,新宿区,北新宿１丁目１－１６ＪＳビル４０１,,13,104,1690074,,,,,,,2024-06-27,1,,,,,ワンミクス,0
1644,8011105011080,新規,0,2024-06-27,2024-06-27,ブルーインフラホールディングス５号一般社団法人,,その他の設立登記法人,東京都,新宿区,四谷２丁目９番地１５東京ユナイテッド綜合事務所内,,13,104,1600004,,,,,,,2024-06-27,1,,,,,ブルーインフラホールディングスゴゴウ,0
1653,8011203004424,新規,0,2024-06-27,2024-06-27,合同会社ネクサス,,合同会社,東京都,中野区,大和町１丁目６２番７号高円寺ヴィレッジ２０３,,13,114,1650034,,,,,,,2024-06-27,1,,,,,ネクサス,0
1661,8011701027422,新規,0,2024-06-27,2024-06-27,新田ホーム株式会社,,株式会社,東京都,江戸川区,瑞江２丁目８番１０号,,13,123,1320011,,,,,,,2024-06-27,1,,,,,ニッタホーム,0
1664,8011801044441,新規,0,2024-06-27,2024-06-27,Ａｌｌ　ｉｎ株式会社,,株式会社,東京都,足立区,大谷田１丁目９番１－１０２号,,13,121,1200001,,,,,,,2024-06-27,1,,,,,オールイン,0
1665,8011803006308,新規,0,2024-06-27,2024-06-27,合同会社ナック,,合同会社,東京都,葛飾区,鎌倉３丁目５５番１３号,,13,122,1250053,,,,,,,2024-06-27,1,,,,,ナック,0
1666,8012301013969,新規,0,2024-06-27,2024-06-27,株式会社リバーシティ,,株式会社,東京都,町田市,西成瀬２丁目３番２７号,,13,209,1940046,,,,,,,2024-06-27,1,,,,,リバーシティ,0
1672,8013303007190,新規,0,2024-06-27,2024-06-27,合同会社いばしょ,,合同会社,東京都,豊島区,東池袋５丁目７－３五丁目ビル２Ｆ,,13,116,1700013,,,,,,,2024-06-27,1,,,,,イバショ,0
1676,8020001157879,新規,0,2024-06-27,2024-06-27,三水株式会社,,株式会社,神奈川県,横浜市港南区,下永谷３丁目４１番Ｇ－２０２号,,14,111,2330016,,,,,,,2024-06-27,1,,,,,サンスイ,0
1677,8020001157904,新規,0,2024-06-27,2024-06-27,株式会社佑成,,株式会社,神奈川県,横浜市南区,別所１丁目１０番１０－５０６号,,14,105,2320064,,,,,,,2024-06-27,1,,,,,ユウセイ,0
1678,8020003026405,新規,0,2024-06-27,2024-06-27,アルティスター合同会社,,合同会社,神奈川県,横浜市中区,山元町５丁目２２４－２－５０２,,14,104,2310851,,,,,,,2024-06-27,1,,,,,アルティスター,0
1690,8030001161129,新規,0,2024-06-27,2024-06-27,ビーエスエス株式会社,,株式会社,埼玉県,さいたま市緑区,大字中尾１５６２番地５,,11,109,3360932,,,,,,,2024-06-27,1,,,,,ビーエスエス,0
1694,8040001134232,新規,0,2024-06-27,2024-06-27,株式会社ｅプランツ,,株式会社,千葉県,千葉市美浜区,若葉３丁目１番１１号１８０７室,,12,106,2610014,,,,,,,2024-06-27,1,,,,,イープランツ,0
1695,8040001134257,新規,0,2024-06-27,2024-06-27,株式会社ＳＫ　Ｏｐｔｉｍｉｓｔ,,株式会社,千葉県,流山市,おおたかの森北１丁目４番地の１ソライエグラン流山おおたかの森６０１,,12,220,2700119,,,,,,,2024-06-27,1,,,,,エスケーオプティミスト,0
1701,8060003005132,新規,0,2024-06-27,2024-06-27,Ｗｏｒｋｓ合同会社,,合同会社,栃木県,宇都宮市,城東２丁目４番３０号ポレスターブロードシティ城東１５０３,,09,201,3210935,,,,,,,2024-06-27,1,,,,,ワークス,0
1702,8070001041905,新規,0,2024-06-27,2024-06-27,アールグリーン株式会社,,株式会社,群馬県,吾妻郡嬬恋村,大字田代４２６番地２,,10,425,3771614,,,,,,,2024-06-27,1,,,,,アールグリーン,0
1715,8110003005432,新規,0,2024-06-27,2024-06-27,合同会社ＭｂＸコンサルティング,,合同会社,新潟県,長岡市,川崎２丁目２５３６－１０,,15,202,9400864,,,,,,,2024-06-27,1,,,,,エムビーエックスコンサルティング,0
1722,8120001266190,新規,0,2024-06-27,2024-06-27,Ｇｏｌｄｅｎ　ｔｈｒｅｅ株式会社,,株式会社,大阪府,門真市,千石東町９番１６号,,27,223,5710013,,,,,,,2024-06-27,1,,,,,ゴールデンスリー,0
1723,8120001266240,新規,0,2024-06-27,2024-06-27,株式会社Ａｄｖｉｃｅ,,株式会社,大阪府,大阪市福島区,福島６丁目１１－１３シャトー西梅田１００３,,27,103,5530003,,,,,,,2024-06-27,1,,,,,アドバイス,0
1724,8120001266249,新規,0,2024-06-27,2024-06-27,株式会社トータルハウス,,株式会社,大阪府,大阪市北区,大淀南２丁目１番１－５０８号,,27,127,5310075,,,,,,,2024-06-27,1,,,,,トータルハウス,0
1725,8120001266273,新規,0,2024-06-27,2024-06-27,株式会社キャンコネクト,,株式会社,大阪府,寝屋川市,高柳３丁目２０番８号,,27,215,5720051,,,,,,,2024-06-27,1,,,,,キャンコネクト,0
1726,8120001266315,新規,0,2024-06-27,2024-06-27,株式会社アムール,,株式会社,大阪府,大阪市中央区,東心斎橋１丁目２番１－４０４号,,27,128,5420083,,,,,,,2024-06-27,1,,,,,アムール,0
1728,8120005024396,新規,0,2024-06-27,2024-06-27,一般社団法人能楽奉賛会,,その他の設立登記法人,大阪府,大阪市中央区,南船場１丁目９番２８号,,27,128,5420081,,,,,,,2024-06-27,1,,,,,ノウガクホウサンカイ,0
1732,8120901049364,新規,0,2024-06-27,2024-06-27,株式会社ＴＥＭＩＬ,,株式会社,大阪府,茨木市,畑田町３－３９,,27,211,5670028,,,,,,,2024-06-27,1,,,,,テミル,0
1733,8120901049372,新規,0,2024-06-27,2024-06-27,シオズトータルサポート株式会社,,株式会社,大阪府,茨木市,駅前２丁目１番２５号７０１号,,27,211,5670888,,,,,,,2024-06-27,1,,,,,シオズトータルサポート,0
1739,8122001038223,新規,0,2024-06-27,2024-06-27,株式会社エスペランザ,,株式会社,大阪府,東大阪市,小阪本町１丁目２番１５－９０５号,,27,227,5770802,,,,,,,2024-06-27,1,,,,,エスペランザ,0
1745,8130001077364,新規,0,2024-06-27,2024-06-27,株式会社船出,,株式会社,京都府,福知山市,駅前町３４７,,26,201,6200045,,,,,,,2024-06-27,1,,,,,フナデ,0
1754,8140003020742,新規,0,2024-06-27,2024-06-27,合同会社エンジョイント,,合同会社,兵庫県,神戸市長田区,源平町１－１１－５０５,,28,106,6530888,,,,,,,2024-06-27,1,,,,,エンジョイント,0
1756,8150001027383,新規,0,2024-06-27,2024-06-27,株式会社Ｗｈｏｏｐｓ,,株式会社,奈良県,奈良市,橋本町３－１,,29,201,6308217,,,,,,,2024-06-27,1,,,,,ウープス,0
1757,8160003003217,新規,0,2024-06-27,2024-06-27,合同会社ＤＲＫ,,合同会社,滋賀県,栗東市,荒張９９６番地１７５,,25,208,5203003,,,,,,,2024-06-27,1,,,,,ディーアールケイ,0
1759,8180001162137,新規,0,2024-06-27,2024-06-27,株式会社ＡｓｐａｒｔＡ,,株式会社,愛知県,名古屋市中区,上前津２丁目９－１６ビラ三秀６０１,,23,106,4600013,,,,,,,2024-06-27,1,,,,,アスパータ,0
1765,8180005020679,新規,0,2024-06-27,2024-06-27,医療法人ごんだ歯科医院,,その他の設立登記法人,愛知県,知多市,巽が丘２丁目４３番地,00135335,23,224,4780012,,,,,,,2024-06-27,1,,,,,ゴンダシカイイン,0
1773,8190003004708,新規,0,2024-06-27,2024-06-27,合同会社エストレヤ,,合同会社,三重県,四日市市,高見台１丁目１番地７,,24,202,5121301,,,,,,,2024-06-27,1,,,,,エストレヤ,0
1780,8260003004741,新規,0,2024-06-27,2024-06-27,合同会社八十鈴,,合同会社,岡山県,岡山市中区,福泊７８－８,,33,102,7038262,,,,,,,2024-06-27,1,,,,,ハチジュウリン,0
1781,8260003004799,新規,0,2024-06-27,2024-06-27,合同会社ＭＳＩコンサル,,合同会社,岡山県,倉敷市,連島町鶴新田４２２番地３,,33,202,7128006,,,,,,,2024-06-27,1,,,,,エムエスアイコンサル,0
1784,8270005005596,新規,0,2024-06-27,2024-06-27,一般社団法人鳥取県地域活動支援協会,,その他の設立登記法人,鳥取県,鳥取市,湖山町北４丁目２３４番地,,31,201,6800941,,,,,,,2024-06-27,1,,,,,,0
1794,8300001013797,新規,0,2024-06-27,2024-06-27,渥美商会株式会社,,株式会社,佐賀県,唐津市,唐房３丁目４７９９番地１,,41,202,8470122,,,,,,,2024-06-27,1,,,,,アツミショウカイ,0
1810,8370001051460,新規,0,2024-06-27,2024-06-27,株式会社Ｍ＆Ｒ,,株式会社,宮城県,仙台市宮城野区,扇町２丁目２番２７号,,04,102,9830034,,,,,,,2024-06-27,1,,,,,エムアンドアール,0
1811,8370001051469,新規,0,2024-06-27,2024-06-27,株式会社アスタリード,,株式会社,宮城県,仙台市宮城野区,榴岡２丁目５番１９号,,04,102,9830852,,,,,,,2024-06-27,1,,,,,アスタリード,0
1817,8400001016699,新規,0,2024-06-27,2024-06-27,株式会社Ｎ．ＷＯＲＫＳ,,株式会社,岩手県,滝沢市,牧野林８５９番地１９,,03,216,0200632,,,,,,,2024-06-27,1,,,,,エヌワークス,0
1825,8430001092093,新規,0,2024-06-27,2024-06-27,株式会社スターゲイザー,,株式会社,北海道,札幌市南区,真駒内緑町３丁目２番５－２０４号,,01,106,0050013,,,,,,,2024-06-27,1,,,,,スターゲイザー,0
1826,8430001092110,新規,0,2024-06-27,2024-06-27,株式会社ＡＣＰＯマーケット,,株式会社,北海道,札幌市中央区,南九条西４丁目３－１,,01,101,0640809,,,,,,,2024-06-27,1,,,,,アクポマーケット,0
1827,8430001092119,新規,0,2024-06-27,2024-06-27,株式会社リテールプロパートナーズ,,株式会社,北海道,札幌市豊平区,平岸一条１５丁目５番１４号,,01,105,0620931,,,,,,,2024-06-27,1,,,,,リテールプロパートナーズ,0
1828,8430001092127,新規,0,2024-06-27,2024-06-27,株式会社ＴＯＹＲＵ,,株式会社,北海道,虻田郡倶知安町,ニセコひらふ一条３丁目１－８,,01,400,0440080,,,,,,,2024-06-27,1,,,,,トイル,0
1830,8430003016496,新規,0,2024-06-27,2024-06-27,合同会社高木商事,00135332,合同会社,北海道,札幌市中央区,宮の森二条２丁目４番１１－５０６号,,01,101,0640952,,,,,,,2024-06-27,1,,,,,タカギショウジ,0
1833,8500001025723,新規,0,2024-06-27,2024-06-27,Ｙ’ｓ　Ｃｒｅａｔｉｏｎ株式会社,,株式会社,愛媛県,今治市,上徳甲４２６番地２,,38,202,7991511,,,,,,,2024-06-27,1,,,,,ワイズクリエーション,0
1838,8700150126244,新規,0,2024-06-27,2024-06-27,ＤｏｎｇＧｕａｎＳｈｉＦｅｎＲｕｉＪｉｅＳｈａｎｇＭａｏＹｏｕＸｉａｎＧｏｎｇＳｉ,,外国会社等,,,,,,,,ｇｕａｎｇ　ｄｏｎｇ　ｓｈｅｎｇ　ｄｏｎｇ　ｇｕａｎ　ｓｈｉ　ｈｕ　ｍｅｎ　ｚｈｅｎ　ｄｏｎｇ　ｆａｎｇ　ｘｉ　ｓｈａｎｇ　ｌｉｕ　ｘｉａｎｇ　３ｈａｏ　３０２ｆａｎｇ,,,,,,2024-06-27,1,,,,,ドングワンシーフェンルイジエシャンマオヨウシエンゴンスー,0
1850,9010003044134,新規,0,2024-06-27,2024-06-27,合同会社石垣宮良ホテルマネジメント,,合同会社,東京都,中央区,八丁堀４丁目２番１０号ＡＯＪ税理士法人内,,13,102,1040032,,,,,,,2024-06-27,1,,,,,イシガキミヤラホテルマネジメント,0
1856,9010405023322,新規,0,2024-06-27,2024-06-27,一般社団法人ＮＡＮＩＭＯＮ,,その他の設立登記法人,東京都,港区,南青山１丁目１５番８－３０４,,13,103,1070062,,,,,,,2024-06-27,1,,,,,ナニモン,0
1859,9010601065440,新規,0,2024-06-27,2024-06-27,株式会社ＨＡＫＯ,,株式会社,東京都,墨田区,石原２丁目２８番８－５０５号,,13,107,1300011,,,,,,,2024-06-27,1,,,,,ハコ,0
1871,9010803005005,新規,0,2024-06-27,2024-06-27,合同会社うけざら,,合同会社,東京都,大田区,田園調布１丁目２７番３号,,13,111,1450071,,,,,,,2024-06-27,1,,,,,ウケザラ,0
1879,9011001162968,新規,0,2024-06-27,2024-06-27,株式会社日本ＡＩ開発センター,,株式会社,東京都,渋谷区,渋谷２丁目１９‐１５宮益坂ビルディング６０９,,13,113,1500002,,,,,,,2024-06-27,1,,,,,ニホンエーアイカイハツセンター,0
1880,9011001162984,新規,0,2024-06-27,2024-06-27,株式会社ＳＴＲＯＮＧ’Ｓ,,株式会社,東京都,渋谷区,恵比寿４丁目２０番３号恵比寿ガーデンプレイスタワー１９階,,13,113,1500013,,,,,,,2024-06-27,1,,,,,ストロングエス,0
1881,9011001162992,新規,0,2024-06-27,2024-06-27,株式会社スタジオダイゼン,,株式会社,東京都,渋谷区,恵比寿４丁目２０番３号恵比寿ガーデンプレイスタワー１８階,,13,113,1500013,,,,,,,2024-06-27,1,,,,,スタジオダイゼン,0
1882,9011001163009,新規,0,2024-06-27,2024-06-27,オザキ株式会社,,株式会社,東京都,渋谷区,恵比寿２丁目１７番５号,,13,113,1500013,,,,,,,2024-06-27,1,,,,,オザキ,0
1883,9011001163025,新規,0,2024-06-27,2024-06-27,ＤａｔａＰｒｉｓｍＴｅｃｈｎｏｌｏｇｉｅｓ株式会社,,株式会社,東京都,渋谷区,渋谷２丁目１９―１５―６０９,,13,113,1500002,,,,,,,2024-06-27,1,,,,,データプリズムテクノロジーズ,0
1885,9011101107856,新規,0,2024-06-27,2024-06-27,株式会社湘南スターツ,,株式会社,東京都,新宿区,西新宿３丁目３番１３号西新宿水間ビル２Ｆ,,13,104,1600023,,,,,,,2024-06-27,1,,,,,ショウナンスターツ,0
1886,9011103014571,新規,0,2024-06-27,2024-06-27,合同会社マルセイ工業,,合同会社,東京都,新宿区,下落合４丁目９－１２ルミークオトメヤマ３０２,,13,104,1610033,,,,,,,2024-06-27,1,,,,,マルセイコウギョウ,0
1888,9011201025594,新規,0,2024-06-27,2024-06-27,株式会社Ｌｅｍｏｎｅｄ,,株式会社,東京都,中野区,中央２丁目５９番１６号,,13,114,1640011,,,,,,,2024-06-27,1,,,,,レモネード,0
1894,9011501030856,新規,0,2024-06-27,2024-06-27,株式会社ＴＩＭ,,株式会社,東京都,荒川区,西日暮里６丁目２３番６号穂坂ビル１Ｆ,,13,118,1160013,,,,,,,2024-06-27,1,,,,,ティーアイエム,0
1914,9021001082579,新規,0,2024-06-27,2024-06-27,株式会社仲型枠,,株式会社,神奈川県,大和市,下和田２３番地１５,,14,213,2420015,,,,,,,2024-06-27,1,,,,,ナカカタワク,0
1915,9021001082587,新規,0,2024-06-27,2024-06-27,株式会社テラ,,株式会社,神奈川県,鎌倉市,山崎８６４番地,,14,204,2470066,,,,,,,2024-06-27,1,,,,,テラ,0
1916,9021001082595,新規,0,2024-06-27,2024-06-27,株式会社貴翔,,株式会社,神奈川県,相模原市南区,磯部１１７５番地３,,14,153,2520327,,,,,,,2024-06-27,1,,,,,タカショウ,0
1925,9030001161144,新規,0,2024-06-27,2024-06-27,ＧＯＫＵテクノロジーズＴＯＫＹＯ株式会社,,株式会社,埼玉県,川口市,上青木西１丁目１番２８－４０５号,,11,203,3330845,,,,,,,2024-06-27,1,,,,,ゴクウテクノロジーズトウキョウ,0
1927,9030003024613,新規,0,2024-06-27,2024-06-27,合同会社クラフトテック,,合同会社,埼玉県,川口市,前上町２３番１号,,11,203,3330843,,,,,,,2024-06-27,1,,,,,クラフトテック,0
1931,9040001134231,新規,0,2024-06-27,2024-06-27,株式会社ＭＡＡＲＩＯＮＳ,,株式会社,千葉県,柏市,花野井５８３番地１２,,12,217,2770812,,,,,,,2024-06-27,1,,,,,マリオンズ,0
1932,9040001134256,新規,0,2024-06-27,2024-06-27,株式会社愛勝氣,,株式会社,千葉県,野田市,柳沢２８９番地の３２,,12,208,2780006,,,,,,,2024-06-27,1,,,,,アカギ,0
1933,9040001134264,新規,0,2024-06-27,2024-06-27,ロクテック株式会社,,株式会社,千葉県,松戸市,樋野口７２２番地の１,,12,207,2710067,,,,,,,2024-06-27,1,,,,,ロクテック,0
1941,9050001054998,新規,0,2024-06-27,2024-06-27,株式会社フューチャーフォカス,,株式会社,茨城県,つくば市,千現２丁目１番地６号つくば創業プラザ２１０,,08,220,3050047,,,,,,,2024-06-27,1,,,,,フューチャーフォカス,0
1943,9060003005131,新規,0,2024-06-27,2024-06-27,協栄ホールディングス合同会社,,合同会社,栃木県,小山市,花垣町１丁目１４番２１号,,09,208,3230027,,,,,,,2024-06-27,1,,,,,キョウエイホールディングス,0
1947,9080101008901,新規,0,2024-06-27,2024-06-27,株式会社ダイケイ,,株式会社,静岡県,富士市,厚原９１番地,,22,210,4190201,,,,,,,2024-06-27,1,,,,,ダイケイ,0
1950,9080401027279,新規,0,2024-06-27,2024-06-27,株式会社賢沢,,株式会社,静岡県,浜松市中央区,肴町３１７番地２３,,22,138,4300932,,,,,,,2024-06-27,1,,,,,ケンタク,0
1951,9090001018792,新規,0,2024-06-27,2024-06-27,株式会社ＺＯＥＮ,,株式会社,山梨県,北杜市,白州町横手１９３６番地,,19,209,4080313,,,,,,,2024-06-27,1,,,,,ゾエン,0
1973,9120001266231,新規,0,2024-06-27,2024-06-27,勇瑞株式会社,,株式会社,大阪府,大阪市西成区,天下茶屋東２丁目１３番１２－１０２号,,27,122,5570011,,,,,,,2024-06-27,1,,,,,ユウズイ,0
1974,9120001266256,新規,0,2024-06-27,2024-06-27,株式会社アーツマネジメント,,株式会社,大阪府,大阪市中央区,内淡路町２丁目３番１号ＥＨＨ大手前,,27,128,5400038,,,,,,,2024-06-27,1,,,,,アーツマネジメント,0
1975,9120001266297,新規,0,2024-06-27,2024-06-27,佐岳株式会社,,株式会社,大阪府,大阪市西区,江戸堀１丁目２３－１３肥後橋ビル３号館１２０１－Ｃ,,27,106,5500002,,,,,,,2024-06-27,1,,,,,サガク,0
1976,9120001266306,新規,0,2024-06-27,2024-06-27,株式会社ＳＵＰＥＲＴＥＣＨ,,株式会社,大阪府,大阪市阿倍野区,西田辺町２丁目１番４号,,27,119,5450014,,,,,,,2024-06-27,1,,,,,スーパーテック,0
1978,9120003026939,新規,0,2024-06-27,2024-06-27,合同会社ＮＥＸＵＳ,,合同会社,大阪府,大阪市中央区,南船場３丁目２番２２号おおきに南船場ビル２０５,,27,128,5420081,,,,,,,2024-06-27,1,,,,,ネクサス,0
1981,9120101069815,新規,0,2024-06-27,2024-06-27,永隆貿易株式会社,,株式会社,大阪府,堺市堺区,宿院町西３丁２番１４－７０１号,,27,141,5900958,,,,,,,2024-06-27,1,,,,,エイリュウボウエキ,0
1996,9160001026029,新規,0,2024-06-27,2024-06-27,株式会社白井建設,,株式会社,滋賀県,野洲市,上屋８６８番地,,25,210,5202316,,,,,,,2024-06-27,1,,,,,シライケンセツ,0
1998,9180001162136,新規,0,2024-06-27,2024-06-27,株式会社ＤＥＭＥＴＥＲ　Ｌａｂ．,,株式会社,愛知県,犬山市,大字犬山字上り屋１６－４,,23,215,4840081,,,,,,,2024-06-27,1,,,,,デメテルラボ,0
1999,9180001162144,新規,0,2024-06-27,2024-06-27,株式会社大元不動産,,株式会社,愛知県,名古屋市中区,栄４丁目７番１０号栄第８ロイヤルビル７階,,23,106,4600008,,,,,,,2024-06-27,1,,,,,オオモトフドウサン,0
2012,9200005013638,新規,0,2024-06-27,2024-06-27,農事組合法人海松新田営農,,その他の設立登記法人,岐阜県,安八郡輪之内町,海松新田２２６番地,,21,382,5030214,,,,,,,2024-06-27,1,,,,,ミルシンデンエイノウ,0
2018,9240001063443,新規,0,2024-06-27,2024-06-27,株式会社アースビルド,,株式会社,広島県,福山市,川口町２丁目２１番６－５号,,34,207,7200822,,,,,,,2024-06-27,1,,,,,アースビルド,0
2019,9240003006739,新規,0,2024-06-27,2024-06-27,合同会社グリーンモンスター,,合同会社,広島県,広島市中区,袋町１番１１号１階,,34,101,7300036,,,,,,,2024-06-27,1,,,,,グリーンモンスター,0
2022,9270001009006,新規,0,2024-06-27,2024-06-27,株式会社ＢＬＵＥＪＡＹ,,株式会社,鳥取県,米子市,両三柳５８番地３,,31,202,6830853,,,,,,,2024-06-27,1,,,,,ブルージェイ,0
2032,9290001105810,新規,0,2024-06-27,2024-06-27,株式会社ＰＵＲＥ　ＨＯＲＳＥ　ＯＮＥ,,株式会社,福岡県,福岡市中央区,港２丁目７－１６,,40,133,8100075,,,,,,,2024-06-27,1,,,,,ピュアホースワン,0
2033,9290001106313,新規,0,2024-06-27,2024-06-27,株式会社建Ｔｒｕｓｔ,,株式会社,福岡県,福岡市博多区,冷泉町２番８－５０２号,,40,132,8120039,,,,,,,2024-06-27,1,,,,,ケントラスト,0
2036,9290003015504,新規,0,2024-06-27,2024-06-27,合同会社田尻コーポレーション,,合同会社,福岡県,福岡市西区,田尻東３丁目２５５２番地オレンジハイツ田尻Ａ棟２０２号,,40,135,8190380,,,,,,,2024-06-27,1,,,,,タジリコーポレーション,0
2038,9290801030662,新規,0,2024-06-27,2024-06-27,株式会社ナカセラミック,,株式会社,福岡県,北九州市八幡西区,星ケ丘１丁目８番８号,,40,109,8071264,,,,,,,2024-06-27,1,,,,,ナカセラミック,0
2049,9360001033863,新規,0,2024-06-27,2024-06-27,株式会社沖エネ,,株式会社,沖縄県,那覇市,上間１丁目１１番５０号,,47,201,9020073,,,,,,,2024-06-27,1,,,,,オキエネ,0
2054,9380003005792,新規,0,2024-06-27,2024-06-27,合同会社佐,,合同会社,福島県,伊達市,田町４１番地１,,07,213,9600463,,,,,,,2024-06-27,1,,,,,タスク,0
2064,9430001092051,新規,0,2024-06-27,2024-06-27,株式会社ＳＳ　ｃｏｍｐａｎｙ,,株式会社,北海道,札幌市西区,発寒九条１４丁目５１６番地１１９,,01,107,0630829,,,,,,,2024-06-27,1,,,,,エスエスカンパニー,0
2065,9430001092092,新規,0,2024-06-27,2024-06-27,株式会社ゼノラボ,,株式会社,北海道,札幌市中央区,北四条西４丁目１番７号札幌駅前ビル２１７号,,01,101,0600004,,,,,,,2024-06-27,1,,,,,ゼノラボ,0
2066,9430001092126,新規,0,2024-06-27,2024-06-27,株式会社Ｑｕａｅｓｉｔｏｒ,,株式会社,北海道,札幌市豊平区,月寒西三条７丁目１番２４号,,01,105,0620023,,,,,,,2024-06-27,1,,,,,クアエシトール,0
2068,9430005015009,新規,0,2024-06-27,2024-06-27,一般社団法人日本総合マーケティング協会,,その他の設立登記法人,北海道,札幌市東区,北二十一条東２０丁目４番１０‐４０５号,,01,103,0650021,,,,,,,2024-06-27,1,,,,,ニホンソウゴウマーケティングキョウカイ,0
2072,9500003003271,新規,0,2024-06-27,2024-06-27,ａｔｅｌｉｅｒ　ｈａｉｒ　ｍａｋｅ　ｃｏｒｔｉｌｅ合同会社,,合同会社,愛媛県,東温市,牛渕１９５８番地６,,38,215,7910213,,,,,,,2024-06-27,1,,,,,アトリエヘアメイクコルティーレ,0
