sequenceNumber,corporateNumber,process,correct,updateDate,changeDate,name,nameImageId,kind,prefectureName,cityName,streetNumber,addressImageId,prefectureCode,cityCode,postCode,addressOutside,addressOutsideImageId,closeDate,closeCause,successorCorporateNumber,changeCause,assignmentDate,latest,enName,enPrefectureName,enCityName,enAddressOutside,furigana,hihyoji
4,1010001229108,新規,0,2022-09-05,2022-09-05,株式会社パワーゲイザー,,株式会社,東京都,千代田区,神田神保町２丁目２０番地第二冨士ビル,,13,101,1010051,,,,,,,2022-09-05,1,,,,,パワーゲイザー,0
5,1010001229198,新規,0,2022-09-05,2022-09-05,ＡＳＦアセットマネジメント株式会社,,株式会社,東京都,中央区,銀座８丁目１３番１号,,13,102,1040061,,,,,,,2022-09-05,1,,,,,エーエスエフアセットマネジメント,0
6,1010001229231,新規,0,2022-09-05,2022-09-05,株式会社ＫＡＮＡＤＥＬ,,株式会社,東京都,千代田区,九段南２丁目３番２５号,,13,101,1020074,,,,,,,2022-09-05,1,,,,,カナデル,0
11,1010101015317,新規,0,2022-09-05,2022-09-05,株式会社エヌティー,,株式会社,東京都,八王子市,八日町３番１号,,13,201,1920071,,,,,,,2022-09-05,1,,,,,エヌティー,0
15,1010401169399,新規,0,2022-09-05,2022-09-05,株式会社ＴＯＺ　ＣＯＭＰＡＮＹ,,株式会社,東京都,港区,浜松町２丁目２番１５号浜松町ダイヤビル２Ｆ,,13,103,1050013,,,,,,,2022-09-05,1,,,,,トズカンパニー,0
16,1010401169457,新規,0,2022-09-05,2022-09-05,株式会社ＬＵＰＩＳ,,株式会社,東京都,港区,浜松町２丁目２番１５号浜松町ダイヤビル２Ｆ,,13,103,1050013,,,,,,,2022-09-05,1,,,,,ルピス,0
17,1010401169465,新規,0,2022-09-05,2022-09-05,ＡＸＳホールディングス株式会社,,株式会社,東京都,港区,港南２丁目１５番３号,,13,103,1080075,,,,,,,2022-09-05,1,,,,,アクシスホールディングス,0
22,1010403028405,新規,0,2022-09-05,2022-09-05,合同会社ゴールドＫ０,,合同会社,東京都,港区,虎ノ門３丁目２２番１０－２０１号,,13,103,1050001,,,,,,,2022-09-05,1,,,,,ゴールドケーゼロ,0
23,1010405021358,新規,0,2022-09-05,2022-09-05,一般社団法人ゴールドＫ,,その他の設立登記法人,東京都,港区,虎ノ門３丁目２２番１０－２０１号,,13,103,1050001,,,,,,,2022-09-05,1,,,,,ゴールドケー,0
33,1010701043155,新規,0,2022-09-05,2022-09-05,株式会社Ｓｕｒｆａｃｅ　ｋｎｏｗｌｅｄｇｅ,,株式会社,東京都,品川区,南品川６丁目２－８コパーズアプト大井１０１号,,13,109,1400004,,,,,,,2022-09-05,1,,,,,サーフェスノリッジ,0
36,1010901051552,新規,0,2022-09-05,2022-09-05,株式会社フォーマルハウト,,株式会社,東京都,世田谷区,新町１丁目２番８号,,13,112,1540014,,,,,,,2022-09-05,1,,,,,フォーマルハウト,0
40,1011001149568,新規,0,2022-09-05,2022-09-05,株式会社ＹＯＡＫＥ,,株式会社,東京都,渋谷区,円山町５番５号Ｎａｖｉ渋谷Ｖ３階,,13,113,1500044,,,,,,,2022-09-05,1,,,,,ヨアケ,0
41,1011001149618,新規,0,2022-09-05,2022-09-05,株式会社山崎工務店,00127723,株式会社,東京都,渋谷区,神宮前３丁目６番２３号カーム神宮前１０７,,13,113,1500001,,,,,,,2022-09-05,1,,,,,ヤマザキコウムテン,0
42,1011003015314,新規,0,2022-09-05,2022-09-05,合同会社ライズ,,合同会社,東京都,渋谷区,神宮前６丁目２９－４原宿ｋｏｍｉｙａビル,,13,113,1500001,,,,,,,2022-09-05,1,,,,,ライズ,0
43,1011003015330,新規,0,2022-09-05,2022-09-05,合同会社ＴＳエンジニアリング,,合同会社,東京都,渋谷区,神宮前６丁目２３番４号桑野ビル２階,,13,113,1500001,,,,,,,2022-09-05,1,,,,,ティーエスエンジニアリング,0
44,1011005009710,新規,0,2022-09-05,2022-09-05,一般財団法人ピースコミュニケーション財団,,その他の設立登記法人,東京都,渋谷区,渋谷３丁目３番５号,,13,113,1500002,,,,,,,2022-09-05,1,,,,,ピースコミュニケーションザイダン,0
48,1011101100042,新規,0,2022-09-05,2022-09-05,ＴＡＩ株式会社,,株式会社,東京都,新宿区,岩戸町１０番松本ビル５０２,,13,104,1620832,,,,,,,2022-09-05,1,,,,,タイ,0
49,1011101100050,新規,0,2022-09-05,2022-09-05,高度水処理株式会社,,株式会社,東京都,新宿区,若宮町１７番地,,13,104,1620827,,,,,,,2022-09-05,1,,,,,コウドミズショリ,0
50,1011101100075,新規,0,2022-09-05,2022-09-05,Ｍ・Ｌ株式会社,,株式会社,東京都,新宿区,歌舞伎町１丁目１８番３号１階,,13,104,1600021,,,,,,,2022-09-05,1,,,,,エムエル,0
51,1011105010386,新規,0,2022-09-05,2022-09-05,一般社団法人ＴＵ０５,,その他の設立登記法人,東京都,新宿区,四谷２丁目９番地１５東京ユナイテッド綜合事務所内,,13,104,1600004,,,,,,,2022-09-05,1,,,,,ティーユーゼロファイブ,0
52,1011201024059,新規,0,2022-09-05,2022-09-05,株式会社ビップインコーポレイテッド,,株式会社,東京都,中野区,上鷺宮４丁目７番２０号,,13,114,1650031,,,,,,,2022-09-05,1,,,,,ビップインコーポレイテッド,0
53,1011401024511,新規,0,2022-09-05,2022-09-05,株式会社クラセルエステート,,株式会社,東京都,板橋区,常盤台１丁目１番１－３０１号,,13,119,1740071,,,,,,,2022-09-05,1,,,,,クラセルエステート,0
57,1011703003246,新規,0,2022-09-05,2022-09-05,合同会社カオランド,,合同会社,東京都,江戸川区,平井５丁目５６番７号,,13,123,1320035,,,,,,,2022-09-05,1,,,,,カオランド,0
60,1011801041247,新規,0,2022-09-05,2022-09-05,株式会社ＣｌｏｕｄＮｉｎｅ,,株式会社,東京都,葛飾区,亀有５丁目４４番２号，－６０９号,,13,122,1250061,,,,,,,2022-09-05,1,,,,,クラウドナイン,0
61,1012301013117,新規,0,2022-09-05,2022-09-05,株式会社ＣＹＰＨＥＲ　ＧＬＯＢＡＬ,,株式会社,東京都,町田市,木曽西５丁目１番２７号,,13,209,1940037,,,,,,,2022-09-05,1,,,,,サイファーグローバル,0
63,1012703002527,新規,0,2022-09-05,2022-09-05,合同会社縁和,00127728,合同会社,東京都,東久留米市,滝山１丁目１２番９号,,13,222,2030033,,,,,,,2022-09-05,1,,,,,エンワ,0
94,1030001149980,新規,0,2022-09-05,2022-09-05,株式会社トリガー,,株式会社,埼玉県,所沢市,青葉台１３４１番地の６,,11,208,3591105,,,,,,,2022-09-05,1,,,,,トリガー,0
97,1030003020116,新規,0,2022-09-05,2022-09-05,トリプルエス合同会社,,合同会社,埼玉県,新座市,馬場２丁目２番１５号,,11,230,3520016,,,,,,,2022-09-05,1,,,,,トリプルエス,0
98,1030003020124,新規,0,2022-09-05,2022-09-05,合同会社ＡＯ,,合同会社,埼玉県,所沢市,松葉町１－５新所沢エーシービル２０１号室,,11,208,3590044,,,,,,,2022-09-05,1,,,,,エーオー,0
100,1040001124900,新規,0,2022-09-05,2022-09-05,株式会社五常グループ,,株式会社,千葉県,千葉市若葉区,高根町１１２８番地４,,12,104,2650061,,,,,,,2022-09-05,1,,,,,ゴジョウグループ,0
102,1040003020701,新規,0,2022-09-05,2022-09-05,合同会社ヴィクトリエンタプライス,,合同会社,千葉県,柏市,増尾台３丁目８－６６－１,,12,217,2770052,,,,,,,2022-09-05,1,,,,,ヴィクトリエンタプライス,0
105,1050003006815,新規,0,2022-09-05,2022-09-05,ツクバアニマルヘルスケア合同会社,,合同会社,茨城県,石岡市,南台４丁目８番８号,,08,205,3150035,,,,,,,2022-09-05,1,,,,,ツクバアニマルヘルスケア,0
111,1060001035229,新規,0,2022-09-05,2022-09-05,藤野住工業株式会社,,株式会社,栃木県,宇都宮市,宝木本町２０８１番地７,,09,201,3200075,,,,,,,2022-09-05,1,,,,,フジノジュウコウギョウ,0
112,1060003004207,新規,0,2022-09-05,2022-09-05,ネパール＆ジャパン合同会社,,合同会社,栃木県,宇都宮市,菊水町１１番１９号２Ｆ,,09,201,3200844,,,,,,,2022-09-05,1,,,,,ネパールアンドジャパン,0
113,1070001039591,新規,0,2022-09-05,2022-09-05,株式会社デュアルテック,,株式会社,群馬県,前橋市,大友町３丁目２４番地１ホテル１－２－３前橋マーキュリーＥＡＳＴ７階,,10,201,3710847,,,,,,,2022-09-05,1,,,,,デュアルテック,0
119,1070003004610,新規,0,2022-09-05,2022-09-05,合同会社グエンズン,,合同会社,群馬県,前橋市,南町４丁目２０番地５パークサイドワン３０５号,,10,201,3710805,,,,,,,2022-09-05,1,,,,,グエンズン,0
124,1080101023511,新規,0,2022-09-05,2022-09-05,株式会社ツネオ,,株式会社,静岡県,富士宮市,淀師１７３０番地の１,,22,207,4180051,,,,,,,2022-09-05,1,,,,,ツネオ,0
125,1080401026032,新規,0,2022-09-05,2022-09-05,イズモディストリビューションコントロール株式会社,,株式会社,静岡県,浜松市中区,三組町１８５番地の１,,22,131,4328017,,,,,,,2022-09-05,1,,,,,イズモディストリビューションコントロール,0
126,1080403004606,新規,0,2022-09-05,2022-09-05,ジャンティーシャトー合同会社,,合同会社,静岡県,浜松市中区,助信町４３番２５号英和マンション１階西側,,22,131,4300903,,,,,,,2022-09-05,1,,,,,ジャンティーシャトー,0
140,1120001248542,新規,0,2022-09-05,2022-09-05,ＹｕＬｉ株式会社,,株式会社,大阪府,大阪市天王寺区,空清町４－１１杉野ビル本館１１１号室,,27,109,5430018,,,,,,,2022-09-05,1,,,,,ユーリ,0
141,1120001248609,新規,0,2022-09-05,2022-09-05,株式会社信鶴堂,,株式会社,大阪府,大阪市北区,曾根崎新地１丁目６番２７号ジェイプライド北新地３ｒｄビル２Ｆ,,27,127,5300002,,,,,,,2022-09-05,1,,,,,シンカクドウ,0
142,1120001248625,新規,0,2022-09-05,2022-09-05,株式会社Ｇｉａｎｔ　Ｔｒｅｅ,,株式会社,大阪府,大阪市西区,京町堀１丁目６番９号サンシステム肥後橋ビル２Ｆ,,27,106,5500003,,,,,,,2022-09-05,1,,,,,ジャイアントツリー,0
143,1120001248641,新規,0,2022-09-05,2022-09-05,株式会社企画家,,株式会社,大阪府,大阪市北区,東天満２丁目１０番４１号,,27,127,5300044,,,,,,,2022-09-05,1,,,,,キカクヤ,0
144,1120001248658,新規,0,2022-09-05,2022-09-05,株式会社恒大,,株式会社,大阪府,大阪市住之江区,粉浜１丁目２７番２２号,,27,125,5590001,,,,,,,2022-09-05,1,,,,,コウダイ,0
145,1120001248674,新規,0,2022-09-05,2022-09-05,株式会社みやび防災設備,,株式会社,大阪府,門真市,桑才町１番２７－１０２号,,27,223,5710035,,,,,,,2022-09-05,1,,,,,ミヤビボウサイセツビ,0
148,1120003022383,新規,0,2022-09-05,2022-09-05,合同会社フレンドシップ,,合同会社,大阪府,大阪市北区,国分寺２丁目３番４１号リーベンハイム淀５０１,,27,127,5310064,,,,,,,2022-09-05,1,,,,,フレンドシップ,0
149,1120003022391,新規,0,2022-09-05,2022-09-05,合同会社アバオアクー,,合同会社,大阪府,大阪市東成区,東小橋１丁目２番１号,,27,115,5370024,,,,,,,2022-09-05,1,,,,,アバオアクー,0
156,1120101066175,新規,0,2022-09-05,2022-09-05,株式会社スマートテック,,株式会社,大阪府,泉大津市,板原町２丁目４番９号Ｄ,,27,206,5950033,,,,,,,2022-09-05,1,,,,,スマートテック,0
158,1120103004835,新規,0,2022-09-05,2022-09-05,ＳＳＫ合同会社,,合同会社,大阪府,堺市西区,津久野町２丁１番２－２号,,27,144,5938322,,,,,,,2022-09-05,1,,,,,エスエスケー,0
159,1120905006368,新規,0,2022-09-05,2022-09-05,一般社団法人日本美容医療研究機構,,その他の設立登記法人,大阪府,豊中市,上新田１丁目２番５号,,27,203,5600085,,,,,,,2022-09-05,1,,,,,ニホンビヨウイリョウケンキュウキコウ,0
165,1130001072545,新規,0,2022-09-05,2022-09-05,株式会社ＮｅｘｔＶａｌｕｅ,,株式会社,京都府,京都市中京区,壬生相合町２５番地４－３２１号,,26,104,6048812,,,,,,,2022-09-05,1,,,,,ネクストバリュー,0
173,1140001127240,新規,0,2022-09-05,2022-09-05,株式会社ＲＩＮＮ,,株式会社,兵庫県,芦屋市,涼風町１４番１３号,,28,206,6590036,,,,,,,2022-09-05,1,,,,,リン,0
174,1140001127249,新規,0,2022-09-05,2022-09-05,株式会社Ａｐｒｉｃｕｓ,,株式会社,兵庫県,尼崎市,東園田町５丁目５９番地の１,,28,202,6610953,,,,,,,2022-09-05,1,,,,,アプリクス,0
175,1140001127257,新規,0,2022-09-05,2022-09-05,株式会社ギャルソン,,株式会社,兵庫県,芦屋市,茶屋之町１０－５,,28,206,6590067,,,,,,,2022-09-05,1,,,,,ギャルソン,0
179,1140003018090,新規,0,2022-09-05,2022-09-05,合同会社ＬＨ,,合同会社,兵庫県,神戸市北区,鹿の子台北町８丁目７番１７号,,28,109,6511513,,,,,,,2022-09-05,1,,,,,エルエイチ,0
183,1160001024485,新規,0,2022-09-05,2022-09-05,株式会社辻工務店,00127717,株式会社,滋賀県,米原市,顔戸１４１１番地４０,,25,214,5210072,,,,,,,2022-09-05,1,,,,,ツジコウムテン,0
193,1180001152854,新規,0,2022-09-05,2022-09-05,株式会社２ｔｅａｍ,,株式会社,愛知県,名古屋市中区,新栄３丁目３番８号,,23,106,4600007,,,,,,,2022-09-05,1,,,,,ツーチーム,0
202,1190001029746,新規,0,2022-09-05,2022-09-05,株式会社Ｔｅｍｐｅｈ　Ｑｕｅｅｎ,,株式会社,三重県,いなべ市,北勢町阿下喜２０２７番地,,24,214,5110428,,,,,,,2022-09-05,1,,,,,テンペクイーン,0
203,1200001040412,新規,0,2022-09-05,2022-09-05,株式会社太陽花,,株式会社,岐阜県,高山市,国府町広瀬町８１２番地１,,21,203,5094119,,,,,,,2022-09-05,1,,,,,ヒマワリ,0
204,1200001040420,新規,0,2022-09-05,2022-09-05,フラワーショップあや株式会社,,株式会社,岐阜県,大垣市,加賀野３丁目５５番地３,,21,202,5030006,,,,,,,2022-09-05,1,,,,,フラワーショップアヤ,0
210,1230001019511,新規,0,2022-09-05,2022-09-05,小西不動産株式会社,,株式会社,富山県,南砺市,井波３０９４番地,,16,210,9320211,,,,,,,2022-09-05,1,,,,,コニシフドウサン,0
212,1240001060332,新規,0,2022-09-05,2022-09-05,株式会社保田工業,,株式会社,広島県,呉市,押込５丁目１１番３号ペアセロベＣ２０１,,34,202,7370915,,,,,,,2022-09-05,1,,,,,ボウダコウギョウ,0
213,1240001060340,新規,0,2022-09-05,2022-09-05,株式会社浅井不動産企画,,株式会社,広島県,広島市中区,江波南３丁目８番１０号,,34,101,7300835,,,,,,,2022-09-05,1,,,,,アサイフドウサンキカク,0
224,1260001037205,新規,0,2022-09-05,2022-09-05,株式会社ＨＩＲＯＫＩ　ＡＳＡＧＯＥ　ＤＥＳＩＧＮ,,株式会社,岡山県,岡山市北区,今村６５１番地１０６,,33,101,7000974,,,,,,,2022-09-05,1,,,,,ヒロキアサゴエデザイン,0
225,1260001037213,新規,0,2022-09-05,2022-09-05,株式会社ＴＡＮＲＥＮ．ｃｏｒｐｏｒａｔｉｏｎ,,株式会社,岡山県,岡山市北区,新屋敷町２丁目１０番１０号サーパス新屋敷町９０３号,,33,101,7000986,,,,,,,2022-09-05,1,,,,,タンレンコーポレーション,0
226,1260003004021,新規,0,2022-09-05,2022-09-05,合同会社Ｋｉａｏｒａ,,合同会社,岡山県,岡山市北区,岡町１７番２２－８０２号,,33,101,7000867,,,,,,,2022-09-05,1,,,,,キアオラ,0
228,1260005011131,新規,0,2022-09-05,2022-09-05,一般社団法人英匠会,,その他の設立登記法人,岡山県,岡山市南区,新保１６１５番地７,,33,104,7000945,,,,,,,2022-09-05,1,,,,,エイショウカイ,0
230,1270003001439,新規,0,2022-09-05,2022-09-05,合同会社ひまわり,,合同会社,鳥取県,日野郡日野町,黒坂１５６６番地１,,31,402,6895131,,,,,,,2022-09-05,1,,,,,ヒマワリ,0
238,1290001098780,新規,0,2022-09-05,2022-09-05,株式会社大手門館,,株式会社,福岡県,福岡市南区,大池１丁目２番４７号,,40,134,8150073,,,,,,,2022-09-05,1,,,,,オオテモンカン,0
239,1290001098806,新規,0,2022-09-05,2022-09-05,株式会社ヒロ建設,,株式会社,福岡県,久留米市,安武町住吉８９０－７,,40,203,8300078,,,,,,,2022-09-05,1,,,,,ヒロケンセツ,0
240,1290001098839,新規,0,2022-09-05,2022-09-05,株式会社塗装屋とまり,,株式会社,福岡県,宗像市,江口５８９番地６,,40,220,8113502,,,,,,,2022-09-05,1,,,,,トソウヤトマリ,0
244,1290801028854,新規,0,2022-09-05,2022-09-05,メタルサイン株式会社,,株式会社,福岡県,北九州市八幡西区,大字野面１９３６番地,,40,109,8071262,,,,,,,2022-09-05,1,,,,,メタルサイン,0
248,1310003004437,新規,0,2022-09-05,2022-09-05,合同会社中尾塾植松校,,合同会社,長崎県,大村市,玖島３丁目７０３番地７,,42,205,8560834,,,,,,,2022-09-05,1,,,,,ナカオジュクウエマツコウ,0
249,1320001019312,新規,0,2022-09-05,2022-09-05,株式会社ＯＨＡＮＡ,,株式会社,大分県,大分市,ふじが丘東２丁目７番１１号,,44,201,8701182,,,,,,,2022-09-05,1,,,,,オハナ,0
255,1340003003898,新規,0,2022-09-05,2022-09-05,合同会社フラワー,,合同会社,鹿児島県,鹿児島市,谷山中央２丁目４１３４番－２０２号,,46,201,8910141,,,,,,,2022-09-05,1,,,,,フラワー,0
256,1350001017932,新規,0,2022-09-05,2022-09-05,株式会社ダイナセイコウ,,株式会社,宮崎県,都城市,高崎町縄瀬３５５２番地８,,45,202,8894503,,,,,,,2022-09-05,1,,,,,ダイナセイコウ,0
260,1360003012278,新規,0,2022-09-05,2022-09-05,合同会社ＯｋｉＦｒｅｓｈ青果,,合同会社,沖縄県,那覇市,宇栄原３丁目３２－１４－３０５,,47,201,9010153,,,,,,,2022-09-05,1,,,,,オキフレッシュセイカ,0
264,1380001033092,新規,0,2022-09-05,2022-09-05,藤建工業株式会社,,株式会社,福島県,伊達郡川俣町,字大内７番地,,07,308,9601443,,,,,,,2022-09-05,1,,,,,フジケンコウギョウ,0
270,1400001015988,新規,0,2022-09-05,2022-09-05,株式会社レゾナンスハート,,株式会社,岩手県,盛岡市,津志田中央２丁目１１番２２号セトルズＤ２０３号,,03,201,0200838,,,,,,,2022-09-05,1,,,,,レゾナンスハート,0
272,1410001013272,新規,0,2022-09-05,2022-09-05,株式会社佐々鋼建,,株式会社,秋田県,山本郡三種町,鵜川字西本田２５７番地,,05,348,0182401,,,,,,,2022-09-05,1,,,,,,0
273,1410003003701,新規,0,2022-09-05,2022-09-05,合同会社令和,,合同会社,秋田県,能代市,扇田字白金３５,,05,202,0160122,,,,,,,2022-09-05,1,,,,,レイワ,0
275,1430001087422,新規,0,2022-09-05,2022-09-05,株式会社Ｆａｌｃｏｎ,,株式会社,北海道,札幌市中央区,北二条西２丁目３２番地第３７桂和ビル５Ｆ,,01,101,0600002,,,,,,,2022-09-05,1,,,,,ファルコン,0
276,1430001087430,新規,0,2022-09-05,2022-09-05,株式会社ＮＡＲＩＴＡＹＡ,,株式会社,北海道,札幌市中央区,大通西１丁目１４番地２桂和大通ビル５０－９Ｆ,,01,101,0600042,,,,,,,2022-09-05,1,,,,,ナリタヤ,0
277,1430003014242,新規,0,2022-09-05,2022-09-05,合同会社ダイス,,合同会社,北海道,札幌市清田区,清田一条１丁目６番１８号,,01,110,0040841,,,,,,,2022-09-05,1,,,,,ダイス,0
278,1440003001479,新規,0,2022-09-05,2022-09-05,合同会社ＳＯＲＡ,,合同会社,北海道,亀田郡七飯町,緑町２丁目９番２９号,,01,337,0411135,,,,,,,2022-09-05,1,,,,,ソラ,0
283,1470003002243,新規,0,2022-09-05,2022-09-05,ｈＴＤＥＳＩＧＮ合同会社,,合同会社,香川県,高松市,天神前１０番５号高松セントラルスカイビルディング３Ｆｓｏｕｔｈ,,37,201,7600018,,,,,,,2022-09-05,1,,,,,エイチティーデザイン,0
285,1480001011848,新規,0,2022-09-05,2022-09-05,株式会社Ｈ＆Ｓ,,株式会社,徳島県,徳島市,川内町平石若松１４９番地２,,36,201,7710135,,,,,,,2022-09-05,1,,,,,エイチアンドエス,0
294,2010001229206,新規,0,2022-09-05,2022-09-05,株式会社Ｖｉｌｌｏｂａ,,株式会社,東京都,中央区,日本橋１丁目１３番１号日鉄日本橋ビル３階,,13,102,1030027,,,,,,,2022-09-05,1,,,,,ヴィロバ,0
295,2010001229247,新規,0,2022-09-05,2022-09-05,株式会社橋本牧場,,株式会社,東京都,中央区,勝どき６丁目３番２号,,13,102,1040054,,,,,,,2022-09-05,1,,,,,ハシモトボクジョウ,0
297,2010101015316,新規,0,2022-09-05,2022-09-05,株式会社ミヤコ,,株式会社,東京都,八王子市,泉町１２７２番地２,,13,201,1930814,,,,,,,2022-09-05,1,,,,,ミヤコ,0
299,2010103001982,新規,0,2022-09-05,2022-09-05,マネジメント・クライメイト・ラボ合同会社,,合同会社,東京都,八王子市,大塚３５０番地２０,,13,201,1920352,,,,,,,2022-09-05,1,,,,,マネジメントクライメイトラボ,0
306,2010401169464,新規,0,2022-09-05,2022-09-05,株式会社ｙｕｒｉｈｉｎａ,,株式会社,東京都,港区,南青山７丁目４番１４号,,13,103,1070062,,,,,,,2022-09-05,1,,,,,ユリヒナ,0
307,2010401169472,新規,0,2022-09-05,2022-09-05,ＭＴテクノロジーズ株式会社,,株式会社,東京都,港区,虎ノ門１丁目１７番１号,,13,103,1050001,,,,,,,2022-09-05,1,,,,,エムティテクノロジーズ,0
308,2010401169514,新規,0,2022-09-05,2022-09-05,株式会社ＩＰ　Ｓｔｒｅａｍ,,株式会社,東京都,港区,元赤坂１丁目２番７号赤坂Ｋタワー４Ｆ,,13,103,1070051,,,,,,,2022-09-05,1,,,,,アイピーストリーム,0
309,2010401169530,新規,0,2022-09-05,2022-09-05,株式会社クアトロテクノロジーズ,,株式会社,東京都,港区,芝２丁目２９番１１号,,13,103,1050014,,,,,,,2022-09-05,1,,,,,クアトロテクノロジーズ,0
310,2010403028379,新規,0,2022-09-05,2022-09-05,合同会社Ｗａｋｉｅ,,合同会社,東京都,港区,元麻布３丁目１２番７－１０６号,,13,103,1060046,,,,,,,2022-09-05,1,,,,,ワキエ,0
311,2010405021324,新規,0,2022-09-05,2022-09-05,一般財団法人上條育英財団,,その他の設立登記法人,東京都,港区,芝５丁目２９番２０号,,13,103,1080014,,,,,,,2022-09-05,1,,,,,カミジョウイクエイザイダン,0
312,2010405021357,新規,0,2022-09-05,2022-09-05,一般社団法人ゴールドＫ０,,その他の設立登記法人,東京都,港区,虎ノ門３丁目２２番１０－２０１号,,13,103,1050001,,,,,,,2022-09-05,1,,,,,ゴールドケーゼロ,0
316,2010601061792,新規,0,2022-09-05,2022-09-05,株式会社０５０１,,株式会社,東京都,墨田区,江東橋４丁目１８番７号興亜ビル地下１階,,13,107,1300022,,,,,,,2022-09-05,1,,,,,ゴーマル,0
320,2010801033204,新規,0,2022-09-05,2022-09-05,株式会社ダブルバイセップス,,株式会社,東京都,大田区,羽田５丁目１６－１７,,13,111,1440043,,,,,,,2022-09-05,1,,,,,ダブルバイセップス,0
327,2010901051551,新規,0,2022-09-05,2022-09-05,株式会社イノベーションコネクト,,株式会社,東京都,世田谷区,経堂５丁目３８－２９－１０９,,13,112,1560052,,,,,,,2022-09-05,1,,,,,イノベーションコネクト,0
328,2010903007626,新規,0,2022-09-05,2022-09-05,合同会社エスケーワイ,,合同会社,東京都,世田谷区,代田４丁目７－１４,,13,112,1550033,,,,,,,2022-09-05,1,,,,,エスケーワイ,0
332,2011001149567,新規,0,2022-09-05,2022-09-05,株式会社マルヤマ製作所,,株式会社,東京都,渋谷区,千駄ヶ谷４丁目５番１５－４０７号,,13,113,1510051,,,,,,,2022-09-05,1,,,,,マルヤマセイサクジョ,0
333,2011003015305,新規,0,2022-09-05,2022-09-05,松濤ｂｉｚパートナーズ合同会社,,合同会社,東京都,渋谷区,松濤１丁目２８－２,,13,113,1500046,,,,,,,2022-09-05,1,,,,,ショウトウビズパートーズ,0
334,2011003015313,新規,0,2022-09-05,2022-09-05,合同会社トラスト,,合同会社,東京都,渋谷区,神宮前６丁目２９－４原宿ｋｏｍｉｙａビル,,13,113,1500001,,,,,,,2022-09-05,1,,,,,トラスト,0
335,2011101100074,新規,0,2022-09-05,2022-09-05,株式会社ＴＥＫＢＡＹ,,株式会社,東京都,新宿区,西新宿７丁目４番７号イマス浜田ビル３Ｆ－Ｂ,,13,104,1600023,,,,,,,2022-09-05,1,,,,,テックベイ,0
338,2011105010385,新規,0,2022-09-05,2022-09-05,一般社団法人ＴＵ０６,,その他の設立登記法人,東京都,新宿区,四谷２丁目９番地１５東京ユナイテッド綜合事務所内,,13,104,1600004,,,,,,,2022-09-05,1,,,,,ティーユーゼロシックス,0
342,2011305002851,新規,0,2022-09-05,2022-09-05,医療法人社団碧華会,,その他の設立登記法人,東京都,杉並区,成田東５丁目４０番１０号ソレイユビル５階,,13,115,1660015,,,,,,,2022-09-05,1,,,,,ヘキカカイ,0
344,2011401024510,新規,0,2022-09-05,2022-09-05,ＲＵＳＩＯ株式会社,,株式会社,東京都,板橋区,大山西町３７番６号,,13,119,1730033,,,,,,,2022-09-05,1,,,,,ルシオ,0
345,2011401024519,新規,0,2022-09-05,2022-09-05,株式会社ＫＳコーポレーション,,株式会社,東京都,板橋区,前野町４丁目４０番２１号ホワイトヒルズ２０２,,13,119,1740063,,,,,,,2022-09-05,1,,,,,ケーエスコーポレーション,0
347,2011601026224,新規,0,2022-09-05,2022-09-05,株式会社ｒＩｄｅ,,株式会社,東京都,練馬区,中村南１丁目１０－１３,,13,120,1760025,,,,,,,2022-09-05,1,,,,,ライド,0
354,2012401039597,新規,0,2022-09-05,2022-09-05,株式会社タケイチ,,株式会社,東京都,府中市,新町３丁目３番地の１０,,13,206,1830052,,,,,,,2022-09-05,1,,,,,タケイチ,0
360,2012801021824,新規,0,2022-09-05,2022-09-05,株式会社大車輪,,株式会社,東京都,武蔵村山市,三ツ藤３丁目１６番地の１３,,13,223,2080021,,,,,,,2022-09-05,1,,,,,ダイシャリン,0
371,2020001148041,新規,0,2022-09-05,2022-09-05,株式会社Ｍｏｎｏ　Ｔｒａｃｅｒ,,株式会社,神奈川県,横浜市戸塚区,上倉田町８８４番地１－７２２号室,,14,110,2440816,,,,,,,2022-09-05,1,,,,,モノトレーサー,0
378,2020005015650,新規,0,2022-09-05,2022-09-05,一般社団法人厩戸ノ華頂,,その他の設立登記法人,神奈川県,横浜市西区,平沼１丁目４番２６号,,14,103,2200023,,,,,,,2022-09-05,1,,,,,ウマヤドノカチョウ,0
393,2030001149906,新規,0,2022-09-05,2022-09-05,弘益商事株式会社,,株式会社,埼玉県,戸田市,新曽南３丁目６番１－９１０号,,11,224,3350026,,,,,,,2022-09-05,1,,,,,コウエキショウジ,0
394,2030001149922,新規,0,2022-09-05,2022-09-05,株式会社ハウスコーデ,,株式会社,埼玉県,鴻巣市,滝馬室９３２番地パレットガーデンＢ棟２０１号室,,11,217,3650044,,,,,,,2022-09-05,1,,,,,ハウスコーデ,0
397,2030003020156,新規,0,2022-09-05,2022-09-05,合同会社Ｓｏｒｅｌｌａ　Ｃｏｄａ,,合同会社,埼玉県,さいたま市西区,大字佐知川１５２５－１２,,11,101,3310064,,,,,,,2022-09-05,1,,,,,ソレッラコーダ,0
409,2050001051614,新規,0,2022-09-05,2022-09-05,ビーフォレスト株式会社,,株式会社,茨城県,水戸市,東前３丁目２３４番地,,08,201,3111136,,,,,,,2022-09-05,1,,,,,ビーフォレスト,0
411,2060001035236,新規,0,2022-09-05,2022-09-05,株式会社Ａ・Ｓ・Ｃｏｎｔｉｎｕｅ,,株式会社,栃木県,宇都宮市,大通り１丁目２番５号,,09,201,3200811,,,,,,,2022-09-05,1,,,,,エイエスコンティニュー,0
414,2080001025177,新規,0,2022-09-05,2022-09-05,日昇商行株式会社,,株式会社,静岡県,静岡市清水区,大内４１７番地の１,,22,103,4240061,,,,,,,2022-09-05,1,,,,,ニッショウショウコウ,0
417,2080101023510,新規,0,2022-09-05,2022-09-05,ＺＯＯＬＯＧＩＣＡＬ　ＰＡＲＫ＆ＳＵＰＰＬＹ株式会社,,株式会社,静岡県,富士宮市,粟倉９１７番地の１,,22,207,4180011,,,,,,,2022-09-05,1,,,,,ズーロジカルパークアンドサプライ,0
421,2080401026023,新規,0,2022-09-05,2022-09-05,株式会社カービューティープロ長谷川,,株式会社,静岡県,浜松市北区,三幸町８０番地,,22,135,4338101,,,,,,,2022-09-05,1,,,,,カービューティープロハセガワ,0
422,2080401026031,新規,0,2022-09-05,2022-09-05,株式会社ｉｎｄｉｇｏｈｅａｒｔｓ,,株式会社,静岡県,浜松市西区,協和町６７２番地の４,,22,133,4311205,,,,,,,2022-09-05,1,,,,,インディゴハーツ,0
424,2080403004605,新規,0,2022-09-05,2022-09-05,Ｓｈｉｚｕｏｋａ　Ｃｅｙｌｏｎ合同会社,,合同会社,静岡県,御前崎市,塩原新田８３５番地の１サンビレッジ１０６号,,22,223,4371614,,,,,,,2022-09-05,1,,,,,シズオカセイロン,0
425,2090001017768,新規,0,2022-09-05,2022-09-05,株式会社西村製作所,,株式会社,山梨県,都留市,大幡１７９０番地１,,19,204,4020045,,,,,,,2022-09-05,1,,,,,ニシムラセイサクジョ,0
444,2120001248649,新規,0,2022-09-05,2022-09-05,株式会社ＴＡＩＧＡ,,株式会社,大阪府,大阪市港区,弁天２丁目１５番１２号,,27,107,5520007,,,,,,,2022-09-05,1,,,,,タイガ,0
445,2120003022390,新規,0,2022-09-05,2022-09-05,タント合同会社,,合同会社,大阪府,大阪市西区,江戸堀２丁目７番１９号,,27,106,5500002,,,,,,,2022-09-05,1,,,,,タント,0
449,2120005023172,新規,0,2022-09-05,2022-09-05,飛鳥ＪＡＰＡＮ協同組合,,その他の設立登記法人,大阪府,大阪市阿倍野区,松崎町４丁目１０番３号メゾンドール川上２０１号,,27,119,5450053,,,,,,,2022-09-05,1,,,,,アスカジャパン,0
455,2120901046425,新規,0,2022-09-05,2022-09-05,株式会社トーキン産業,,株式会社,大阪府,池田市,天神１丁目８番１８号,,27,204,5630031,,,,,,,2022-09-05,1,,,,,トーキンサンギョウ,0
456,2120901046433,新規,0,2022-09-05,2022-09-05,ｉｎｏｃｏＨＯＬＤＩＮＧＳ株式会社,,株式会社,大阪府,高槻市,大塚町５丁目５番１号,,27,207,5690034,,,,,,,2022-09-05,1,,,,,イノコホールディングス,0
457,2122001036216,新規,0,2022-09-05,2022-09-05,株式会社高岡工房,,株式会社,大阪府,東大阪市,加納４丁目１番９号,,27,227,5780901,,,,,,,2022-09-05,1,,,,,タカオカコウボウ,0
462,2130001072528,新規,0,2022-09-05,2022-09-05,株式会社＿和金属,00127722,株式会社,京都府,京都市西京区,大枝東長町３番地４４９,,26,111,6101111,,,,,,,2022-09-05,1,,,,,シンワキンゾク,0
463,2130001072552,新規,0,2022-09-05,2022-09-05,株式会社ＴＦＲ,,株式会社,京都府,京都市西京区,松室吾田神町１３１－２１８,,26,111,6158202,,,,,,,2022-09-05,1,,,,,ティーエフアール,0
467,2140001127256,新規,0,2022-09-05,2022-09-05,株式会社アスク関西,,株式会社,兵庫県,神戸市中央区,下山手通２丁目１３番３号,,28,110,6500011,,,,,,,2022-09-05,1,,,,,アスクカンサイ,0
468,2140001127306,新規,0,2022-09-05,2022-09-05,株式会社オーテック,,株式会社,兵庫県,明石市,朝霧東町１丁目９－２５－１０１,,28,203,6730860,,,,,,,2022-09-05,1,,,,,オーテック,0
470,2140005026306,新規,0,2022-09-05,2022-09-05,特定非営利活動法人兵庫書写・書道教育協会,,その他の設立登記法人,兵庫県,神戸市西区,美賀多台４丁目７番地の２０,,28,111,6512277,,,,,,,2022-09-05,1,,,,,ヒョウゴショシャショドウキョウイクキョウカイ,0
471,2160001024492,新規,0,2022-09-05,2022-09-05,株式会社シェアードナレッジ,,株式会社,滋賀県,草津市,南草津２丁目４－５－１３０９,,25,206,5250050,,,,,,,2022-09-05,1,,,,,シェアードナレッジ,0
472,2170001017264,新規,0,2022-09-05,2022-09-05,株式会社ふぁーむ傳,,株式会社,和歌山県,有田郡湯浅町,大字田９５０番地１,,30,361,6430006,,,,,,,2022-09-05,1,,,,,ファームデン,0
473,2170001017272,新規,0,2022-09-05,2022-09-05,株式会社Ｓ‐ＴＥＣＨ,,株式会社,和歌山県,橋本市,神野々５１７番地の４,,30,203,6480086,,,,,,,2022-09-05,1,,,,,エステック,0
486,2180001152928,新規,0,2022-09-05,2022-09-05,株式会社Ａｕｒｏｒａ,,株式会社,愛知県,名古屋市南区,星宮町１４２番地の４,,23,112,4570055,,,,,,,2022-09-05,1,,,,,オーロラ,0
491,2180301036582,新規,0,2022-09-05,2022-09-05,株式会社協友ホールディングス,,株式会社,愛知県,豊田市,御幸町６丁目６番地,,23,211,4710852,,,,,,,2022-09-05,1,,,,,キョウユウホールディングス,0
495,2190001029745,新規,0,2022-09-05,2022-09-05,株式会社フォワードフレイム,,株式会社,三重県,四日市市,大字東阿倉川３６０番地,,24,202,5100805,,,,,,,2022-09-05,1,,,,,フォワードフレイム,0
500,2200001040411,新規,0,2022-09-05,2022-09-05,株式会社マイスターヒラタ,,株式会社,岐阜県,関市,東本郷通５丁目３番３３号,,21,205,5013811,,,,,,,2022-09-05,1,,,,,マイスターヒラタ,0
503,2210001019066,新規,0,2022-09-05,2022-09-05,株式会社ＳＹＵＪＹＯ‐ＳＩＤＥ,,株式会社,福井県,鯖江市,小黒町３丁目８番９号,,18,207,9160028,,,,,,,2022-09-05,1,,,,,シュジョウサイド,0
504,2210001019074,新規,0,2022-09-05,2022-09-05,株式会社村井鈑金塗装,,株式会社,福井県,福井市,羽水１丁目６２１番地,,18,201,9188114,,,,,,,2022-09-05,1,,,,,ムライバンキントソウ,0
505,2220001025014,新規,0,2022-09-05,2022-09-05,株式会社ＡＤＵＴＥ,,株式会社,石川県,金沢市,駅西本町３丁目１４番２４号オネストビル２０１号室,,17,201,9200025,,,,,,,2022-09-05,1,,,,,アデュート,0
509,2230001019510,新規,0,2022-09-05,2022-09-05,株式会社ＬＩＭ　ＤＥＳＩＧＮ,,株式会社,富山県,富山市,新庄本町２丁目１番７７号,,16,201,9300996,,,,,,,2022-09-05,1,,,,,リムデザイン,0
513,2240001060331,新規,0,2022-09-05,2022-09-05,株式会社ＨＩＦ‐Ｆ,,株式会社,広島県,広島市中区,中町７番１６号ポレスター広島２階,,34,101,7300037,,,,,,,2022-09-05,1,,,,,エイチアイエフエフ,0
515,2250003003139,新規,0,2022-09-05,2022-09-05,合同会社ＨＩＮＡ　ＡＳＵ,,合同会社,山口県,下関市,彦島西山町４丁目５番１２号,,35,201,7500093,,,,,,,2022-09-05,1,,,,,ヒナアス,0
517,2260001037212,新規,0,2022-09-05,2022-09-05,株式会社Ｈｙｃ,,株式会社,岡山県,総社市,井尻野９０７番地２,,33,208,7191154,,,,,,,2022-09-05,1,,,,,エイチワイシー,0
518,2260001037220,新規,0,2022-09-05,2022-09-05,青空まにわ株式会社,,株式会社,岡山県,真庭市,中島２８６番地,,33,214,7193202,,,,,,,2022-09-05,1,,,,,アオゾラマニワ,0
523,2290001098788,新規,0,2022-09-05,2022-09-05,なつあき株式会社,,株式会社,福岡県,宗像市,三郎丸５丁目７番１５号,,40,220,8114143,,,,,,,2022-09-05,1,,,,,ナツアキ,0
524,2290001098821,新規,0,2022-09-05,2022-09-05,株式会社ジェットメンテナンス,,株式会社,福岡県,太宰府市,吉松１丁目１８番４５号,,40,221,8180138,,,,,,,2022-09-05,1,,,,,ジェットメンテナンス,0
526,2290801028861,新規,0,2022-09-05,2022-09-05,株式会社ハートアイプランニング,,株式会社,福岡県,田川市,桜町２番地１９,,40,206,8260021,,,,,,,2022-09-05,1,,,,,ハートアイプランニング,0
528,2320001019303,新規,0,2022-09-05,2022-09-05,株式会社響和テック,,株式会社,大分県,大分市,三佐４丁目１３番１２－１号,,44,201,8700108,,,,,,,2022-09-05,1,,,,,キョウワテック,0
531,2340001025002,新規,0,2022-09-05,2022-09-05,株式会社ＡＬＬＢｅ,,株式会社,鹿児島県,姶良市,宮島町１６番地１５,,46,225,8995432,,,,,,,2022-09-05,1,,,,,オールビー,0
534,2340003003897,新規,0,2022-09-05,2022-09-05,Ｖｉｔａ　Ｖｅｇｅｔａｂｌｅ合同会社,,合同会社,鹿児島県,鹿屋市,串良町細山田６０３０番地３,,46,203,8931601,,,,,,,2022-09-05,1,,,,,ビタベジタブル,0
538,2370001049023,新規,0,2022-09-05,2022-09-05,株式会社ＩＧＫ,,株式会社,宮城県,塩竈市,新浜町２丁目１５番１２号,,04,203,9850001,,,,,,,2022-09-05,1,,,,,アイジーケー,0
544,2390001017011,新規,0,2022-09-05,2022-09-05,株式会社ＫＳＫ,,株式会社,山形県,山形市,東原町１丁目９番１０号,,06,201,9900034,,,,,,,2022-09-05,1,,,,,ケーエスケー,0
548,2400001015987,新規,0,2022-09-05,2022-09-05,株式会社すむべ,,株式会社,岩手県,北上市,新穀町２丁目４番８号,,03,206,0240092,,,,,,,2022-09-05,1,,,,,スムベ,0
552,2410001013271,新規,0,2022-09-05,2022-09-05,株式会社川建,,株式会社,秋田県,大館市,比内町独鈷字沢村１２８番地１,,05,204,0185721,,,,,,,2022-09-05,1,,,,,カワケン,0
553,2410003003700,新規,0,2022-09-05,2022-09-05,合同会社グラーティア,,合同会社,秋田県,秋田市,御所野地蔵田５丁目２１番４号,,05,201,0101413,,,,,,,2022-09-05,1,,,,,グラーティア,0
555,2420005007822,新規,0,2022-09-05,2022-09-05,一般社団法人しえん,,その他の設立登記法人,青森県,八戸市,石堂２丁目６番２５号,,02,203,0391165,,,,,,,2022-09-05,1,,,,,シエン,0
558,2430001087421,新規,0,2022-09-05,2022-09-05,株式会社ハルカトラスト,,株式会社,北海道,札幌市中央区,南二条西１０丁目１番４号第２サントービル８階,,01,101,0600062,,,,,,,2022-09-05,1,,,,,ハルカトラスト,0
560,2430003014241,新規,0,2022-09-05,2022-09-05,合同会社ＪＫＣｒｅａｔｉｏｎ,,合同会社,北海道,札幌市中央区,北三条西１２丁目２番７メディオフラム札幌５０３号,,01,101,0600003,,,,,,,2022-09-05,1,,,,,ジェイケイクリエーション,0
564,2460301005096,新規,0,2022-09-05,2022-09-05,株式会社友志,,株式会社,北海道,斜里郡清里町,字上斜里５８４番地,,01,546,0994401,,,,,,,2022-09-05,1,,,,,ユウシ,0
565,2470003002242,新規,0,2022-09-05,2022-09-05,合同会社藤本,,合同会社,香川県,高松市,林町４０４番地１,,37,201,7610301,,,,,,,2022-09-05,1,,,,,,0
573,3010001229147,新規,0,2022-09-05,2022-09-05,株式会社きたかた,,株式会社,東京都,千代田区,神田神保町１丁目６番地,,13,101,1010051,,,,,,,2022-09-05,1,,,,,キタカタ,0
574,3010001229205,新規,0,2022-09-05,2022-09-05,株式会社Ｂｅｎｅｙ,,株式会社,東京都,中央区,銀座８丁目１５番２号,,13,102,1040061,,,,,,,2022-09-05,1,,,,,ベニー,0
575,3010001229246,新規,0,2022-09-05,2022-09-05,株式会社ＩＡＳＣ,,株式会社,東京都,千代田区,九段南４丁目６番１３－４０２号,,13,101,1020074,,,,,,,2022-09-05,1,,,,,アイエーエスシー,0
583,3010005035509,新規,0,2022-09-05,2022-09-05,一般社団法人ｉｍａｃｏｃｏ,,その他の設立登記法人,東京都,中央区,銀座４丁目１０番１４号,,13,102,1040061,,,,,,,2022-09-05,1,,,,,イマココ,0
584,3010101015315,新規,0,2022-09-05,2022-09-05,株式会社ＴＥＮＴＥＮ,,株式会社,東京都,八王子市,大和田町４丁目５番４号,,13,201,1920045,,,,,,,2022-09-05,1,,,,,テンテン,0
592,3010401169406,新規,0,2022-09-05,2022-09-05,株式会社ＤＪＤ,,株式会社,東京都,港区,新橋３丁目１９番３号ル・グラシエルビル４階,,13,103,1050004,,,,,,,2022-09-05,1,,,,,ディージェイディー,0
593,3010401169439,新規,0,2022-09-05,2022-09-05,ＰＤＣＭアセットマネジメント株式会社,,株式会社,東京都,港区,新橋６丁目５番４号,,13,103,1050004,,,,,,,2022-09-05,1,,,,,ピーディーシーエムアセットマネジメント,0
599,3010501049326,新規,0,2022-09-05,2022-09-05,東洋商事株式会社,,株式会社,東京都,台東区,上野５丁目２１番３号,,13,106,1100005,,,,,,,2022-09-05,1,,,,,トウヨウショウジ,0
603,3010603009715,新規,0,2022-09-05,2022-09-05,合同会社ＪＵＮ,,合同会社,東京都,江東区,北砂５丁目１４番１５号,,13,108,1360073,,,,,,,2022-09-05,1,,,,,ジェイユーエヌ,0
604,3010701043145,新規,0,2022-09-05,2022-09-05,株式会社ｎａｕｔ,,株式会社,東京都,品川区,東五反田２丁目８番５号ＫＮビル５階,,13,109,1410022,,,,,,,2022-09-05,1,,,,,ノート,0
606,3010705003418,新規,0,2022-09-05,2022-09-05,一般社団法人保護犬猫の家ななちゃんのおうち,,その他の設立登記法人,東京都,品川区,豊町５丁目８番５号,,13,109,1420042,,,,,,,2022-09-05,1,,,,,ホゴイヌネコノイエナナチャンノオウチ,0
608,3010901051550,新規,0,2022-09-05,2022-09-05,株式会社ＩＳＡＩＤ,,株式会社,東京都,世田谷区,桜丘５丁目２８番６－３０３号,,13,112,1560054,,,,,,,2022-09-05,1,,,,,アイセッド,0
609,3010901051559,新規,0,2022-09-05,2022-09-05,株式会社ＮＡＶＹ．ＢＬＵＥ,,株式会社,東京都,世田谷区,代沢２丁目１６番６号,,13,112,1550032,,,,,,,2022-09-05,1,,,,,ネイビーブルー,0
610,3010901051567,新規,0,2022-09-05,2022-09-05,ミリオンリーフ株式会社,,株式会社,東京都,世田谷区,東玉川２丁目４０－８,,13,112,1580084,,,,,,,2022-09-05,1,,,,,ミリオンリーフ,0
612,3010903007625,新規,0,2022-09-05,2022-09-05,ＹＯＩＭＩＹＡ合同会社,,合同会社,東京都,世田谷区,太子堂３丁目７－４,,13,112,1540004,,,,,,,2022-09-05,1,,,,,ヨイミヤ,0
621,3011001149574,新規,0,2022-09-05,2022-09-05,ＬｏｇｉｃＣｒｅａｔｏｒ株式会社,,株式会社,東京都,渋谷区,神宮前６丁目２９番４号原宿ｋｏｍｉｙａビル,,13,113,1500001,,,,,,,2022-09-05,1,,,,,ロジッククリエーター,0
622,3011001149608,新規,0,2022-09-05,2022-09-05,株式会社ＣＡＲＴＡ　ＫＮＯＴ,,株式会社,東京都,渋谷区,道玄坂１丁目２１番１号渋谷ソラスタ１５階,,13,113,1500043,,,,,,,2022-09-05,1,,,,,カルタノット,0
624,3011003015312,新規,0,2022-09-05,2022-09-05,合同会社アドバンス,,合同会社,東京都,渋谷区,神宮前６丁目２９－４原宿ｋｏｍｉｙａビル,,13,113,1500001,,,,,,,2022-09-05,1,,,,,アドバンス,0
626,3011301028081,新規,0,2022-09-05,2022-09-05,Ｔ‐Ｓｕｐｐｏｒｔ株式会社,,株式会社,東京都,杉並区,成田西２丁目１０番３０号,,13,115,1660016,,,,,,,2022-09-05,1,,,,,ティーサポート,0
627,3011303004502,新規,0,2022-09-05,2022-09-05,Ｕｎｃｏｍｍｏｎ合同会社,,合同会社,東京都,杉並区,永福１丁目３６－１４,,13,115,1680064,,,,,,,2022-09-05,1,,,,,アンカマン,0
628,3011401024518,新規,0,2022-09-05,2022-09-05,株式会社リフワン,,株式会社,東京都,板橋区,舟渡２丁目８－１０－９０２,,13,119,1740041,,,,,,,2022-09-05,1,,,,,リフワン,0
635,3011801041237,新規,0,2022-09-05,2022-09-05,株式会社ＩＫＩＺＡＭＡ,,株式会社,東京都,足立区,江北１丁目２３番１８－１０１号,,13,121,1230872,,,,,,,2022-09-05,1,,,,,イキザマ,0
638,3012703002533,新規,0,2022-09-05,2022-09-05,合同会社ベアーズ,,合同会社,東京都,東村山市,本町２丁目１２－１サンライトビル３Ｆ,,13,213,1890014,,,,,,,2022-09-05,1,,,,,ベアーズ,0
645,3020001148032,新規,0,2022-09-05,2022-09-05,株式会社Ｊｏｅ‐Ｌｕｃｋ,,株式会社,神奈川県,横浜市都筑区,南山田２丁目２４番７－３０７号,,14,118,2240029,,,,,,,2022-09-05,1,,,,,ジョウラク,0
649,3020003022301,新規,0,2022-09-05,2022-09-05,合同会社ＯＮＥ　ＰＥＡＣＥ,,合同会社,神奈川県,川崎市宮前区,野川本町３丁目２７－３２,,14,136,2160041,,,,,,,2022-09-05,1,,,,,,0
650,3020003022334,新規,0,2022-09-05,2022-09-05,ｕｍｉｔｏｐｉａ合同会社,,合同会社,神奈川県,川崎市川崎区,日進町１５番地１０－２０３,,14,131,2100024,,,,,,,2022-09-05,1,,,,,ウミトピア,0
658,3030001149913,新規,0,2022-09-05,2022-09-05,株式会社風音,,株式会社,埼玉県,狭山市,狭山台２丁目１６番地の１９,,11,215,3501304,,,,,,,2022-09-05,1,,,,,カザネ,0
659,3030001149921,新規,0,2022-09-05,2022-09-05,ＡＬＡＭ　ＴＲＡＤＩＮＧ株式会社,,株式会社,埼玉県,羽生市,大字弥勒９９６番地２,,11,216,3480004,,,,,,,2022-09-05,1,,,,,アラムトレーディング,0
661,3030003020155,新規,0,2022-09-05,2022-09-05,合同会社アセットエース,,合同会社,埼玉県,さいたま市見沼区,大字南中丸７４３－２１,,11,104,3370041,,,,,,,2022-09-05,1,,,,,アセットエース,0
669,3040002105055,新規,0,2022-09-05,2022-09-05,有限会社出水薬局,,有限会社,千葉県,習志野市,本大久保３丁目２番１９号,,12,216,2750012,,,,,,,2022-09-05,1,,,,,デミズヤッキョク,0
671,3050001051621,新規,0,2022-09-05,2022-09-05,株式会社ジラソーレ,,株式会社,茨城県,小美玉市,小川１０２番地１,,08,236,3113423,,,,,,,2022-09-05,1,,,,,ジラソーレ,0
672,3050003006697,新規,0,2022-09-05,2022-09-05,合同会社Ｌｅｔｔｙ,,合同会社,茨城県,水戸市,桜川２丁目２－２９ＩＲマンション桜川９０１,,08,201,3100801,,,,,,,2022-09-05,1,,,,,レティー,0
675,3060001035227,新規,0,2022-09-05,2022-09-05,株式会社ＨＡＹＡＴＯ,,株式会社,栃木県,宇都宮市,江曽島町１０４２－１１フールリアン１０５号室,,09,201,3210102,,,,,,,2022-09-05,1,,,,,ハヤト,0
685,3080401026030,新規,0,2022-09-05,2022-09-05,サイマルタス株式会社,,株式会社,静岡県,浜松市中区,利町３０５番３号３０２,,22,131,4300937,,,,,,,2022-09-05,1,,,,,サイマルタス,0
687,3090001017759,新規,0,2022-09-05,2022-09-05,株式会社Ｖａｌｏ　Ｄｒｅａｍ,,株式会社,山梨県,南都留郡富士河口湖町,勝山４５１５番地１－Ａ３,,19,430,4010310,,,,,,,2022-09-05,1,,,,,バロドリーム,0
688,3090001017767,新規,0,2022-09-05,2022-09-05,株式会社ＯｇｉＬａｂｏ,,株式会社,山梨県,甲州市,塩山西広門田５４９番地,,19,213,4040037,,,,,,,2022-09-05,1,,,,,,0
697,3110001036938,新規,0,2022-09-05,2022-09-05,株式会社ＪＯＹＮ　ＣＲＡＦＴＳ,,株式会社,新潟県,新潟市秋葉区,柄目木３１６番地１３,,15,105,9560852,,,,,,,2022-09-05,1,,,,,ジョインクラフト,0
705,3120001248607,新規,0,2022-09-05,2022-09-05,株式会社池原,,株式会社,大阪府,大阪市大正区,泉尾１丁目１４番１０号,,27,108,5510031,,,,,,,2022-09-05,1,,,,,イケハラ,0
706,3120001248648,新規,0,2022-09-05,2022-09-05,株式会社モノノベカンパニー,,株式会社,大阪府,大阪市阿倍野区,昭和町２丁目１２番１０号,,27,119,5450011,,,,,,,2022-09-05,1,,,,,モノノベカンパニー,0
715,3120101066173,新規,0,2022-09-05,2022-09-05,光成電機株式会社,,株式会社,大阪府,阪南市,和泉鳥取１０４３番地の２,,27,232,5990213,,,,,,,2022-09-05,1,,,,,コウセイデンキ,0
716,3120101066181,新規,0,2022-09-05,2022-09-05,株式会社Ｙ．Ｇｒｏｕｐ,,株式会社,大阪府,堺市堺区,緑町２丁１０８番地,,27,141,5900907,,,,,,,2022-09-05,1,,,,,ワイグループ,0
718,3120901046449,新規,0,2022-09-05,2022-09-05,株式会社ｉｃｃｈｏ,,株式会社,大阪府,高槻市,川西町１丁目８番３３号,,27,207,5691133,,,,,,,2022-09-05,1,,,,,イッチョ,0
730,3130001072535,新規,0,2022-09-05,2022-09-05,株式会社ＭＩコンサルティング,,株式会社,京都府,京都市下京区,五条通室町東入醍醐町２６８番地リーガル京都烏丸五条通り５０２,,26,106,6008106,,,,,,,2022-09-05,1,,,,,エムアイコンサルティング,0
731,3130001072576,新規,0,2022-09-05,2022-09-05,株式会社きんりゅうコーポレーション,,株式会社,京都府,京都市北区,紫野北舟岡町９番地,,26,101,6038227,,,,,,,2022-09-05,1,,,,,キンリュウコーポレーション,0
735,3130005016562,新規,0,2022-09-05,2022-09-05,一般社団法人京都１００年企業悠凛饗実の会,,その他の設立登記法人,京都府,京都市中京区,河原町通二条下る二丁目下丸屋町４０３ＦＩＳビル２Ｆ,,26,104,6040000,,,,,,,2022-09-05,1,,,,,キョウトヒャクネンキギョウユウリンキョウジツノカイ,0
741,3140001127255,新規,0,2022-09-05,2022-09-05,ミッキイ商事株式会社,,株式会社,兵庫県,尼崎市,常吉１丁目８番１号,,28,202,6610042,,,,,,,2022-09-05,1,,,,,ミッキイショウジ,0
742,3140001127296,新規,0,2022-09-05,2022-09-05,平川工業株式会社,,株式会社,兵庫県,尼崎市,東園田町３丁目８８番地の１４,,28,202,6610953,,,,,,,2022-09-05,1,,,,,ヒラカワコウギョウ,0
746,3160001024491,新規,0,2022-09-05,2022-09-05,ＨＡＧＯＯＧＩ株式会社,,株式会社,滋賀県,大津市,馬場２丁目７－２２西柳川ビル３０２,,25,201,5200802,,,,,,,2022-09-05,1,,,,,ハゴオギ,0
748,3170001017255,新規,0,2022-09-05,2022-09-05,橋本第一交通株式会社,,株式会社,和歌山県,橋本市,神野々９８４番地の１,,30,203,6480086,,,,,,,2022-09-05,1,,,,,ハシモトダイイチコウツウ,0
749,3170001017263,新規,0,2022-09-05,2022-09-05,ＨＩサポート株式会社,,株式会社,和歌山県,田辺市,たきない町１３番４号,,30,206,6460015,,,,,,,2022-09-05,1,,,,,エイチアイサポート,0
750,3170001017271,新規,0,2022-09-05,2022-09-05,株式会社ジョウ犬舎,,株式会社,和歌山県,紀の川市,東山田１０３番地１,,30,208,6496441,,,,,,,2022-09-05,1,,,,,ジョウケンシャ,0
758,3180001152877,新規,0,2022-09-05,2022-09-05,ＲＩＳＥ　ｗｏｒｋｓ株式会社,,株式会社,愛知県,名古屋市中区,大須４丁目２番２１号グリーンハイツ南久屋１１０１号室,,23,106,4600011,,,,,,,2022-09-05,1,,,,,ライズワークス,0
763,3180005019924,新規,0,2022-09-05,2022-09-05,一般社団法人空き家ｉｎｎｏｖａｔｉｏｎ,,その他の設立登記法人,愛知県,春日井市,上条町４丁目１７２番地２パルティルＪ２Ｄ号,,23,206,4860833,,,,,,,2022-09-05,1,,,,,アキヤイノベーション,0
771,3200001040419,新規,0,2022-09-05,2022-09-05,土方住建株式会社,00127715,株式会社,岐阜県,海津市,海津町札野２４３番地,,21,221,5030643,,,,,,,2022-09-05,1,,,,,ヒジカタジュウケン,0
772,3210001019065,新規,0,2022-09-05,2022-09-05,株式会社Ｋ＆Ｓ,,株式会社,福井県,福井市,浅水町第１号５２番地,,18,201,9188181,,,,,,,2022-09-05,1,,,,,ケイアンドエス,0
773,3210001019073,新規,0,2022-09-05,2022-09-05,株式会社ケアプラン,,株式会社,福井県,あわら市,大溝２丁目６番１５号２階Ｂ,,18,208,9190628,,,,,,,2022-09-05,1,,,,,ケアプラン,0
775,3220001025013,新規,0,2022-09-05,2022-09-05,株式会社買取王エイト,,株式会社,石川県,金沢市,桂町イ７３番地１,,17,201,9200334,,,,,,,2022-09-05,1,,,,,カイトリオウエイト,0
790,3290001098787,新規,0,2022-09-05,2022-09-05,Ｆｅｅｌ　ｉｔ株式会社,,株式会社,福岡県,福岡市早良区,百道浜２丁目９０２番地１先・２階１号室,,40,137,8140001,,,,,,,2022-09-05,1,,,,,フィールイット,0
791,3290001098804,新規,0,2022-09-05,2022-09-05,株式会社アールエム・プラン,,株式会社,福岡県,福津市,津屋崎１丁目２０番１号,,40,224,8113304,,,,,,,2022-09-05,1,,,,,アールエムプラン,0
792,3290001098820,新規,0,2022-09-05,2022-09-05,株式会社ＹＯＬＯ,,株式会社,福岡県,福岡市南区,高木２丁目１４番１１－１０５号,,40,134,8150004,,,,,,,2022-09-05,1,,,,,ヨロ,0
794,3290003012911,新規,0,2022-09-05,2022-09-05,合同会社ｉｕｅ‐ｍｏｎ,,合同会社,福岡県,福岡市城南区,別府２丁目１９番１号,,40,136,8140104,,,,,,,2022-09-05,1,,,,,イエモン,0
796,3310001018016,新規,0,2022-09-05,2022-09-05,株式会社ＭＹＩＰＬＡＳ,,株式会社,長崎県,佐世保市,栄町４番１１－１２０４号,,42,202,8570054,,,,,,,2022-09-05,1,,,,,マイプラス,0
797,3320001019302,新規,0,2022-09-05,2022-09-05,モリルーフ工業株式会社,,株式会社,大分県,日田市,大字二串２９７番地,,44,204,8770000,,,,,,,2022-09-05,1,,,,,モリルーフコウギョウ,0
800,3330001030092,新規,0,2022-09-05,2022-09-05,株式会社ＧｏＨｏｍｅ,,株式会社,熊本県,山鹿市,中１３１４番地７,,43,208,8610531,,,,,,,2022-09-05,1,,,,,ゴーホーム,0
804,3350001017922,新規,0,2022-09-05,2022-09-05,株式会社八紘,,株式会社,宮崎県,宮崎市,大字広原２８０番地,,45,201,8800125,,,,,,,2022-09-05,1,,,,,ハッコウ,0
806,3350003004159,新規,0,2022-09-05,2022-09-05,合同会社ＧＵＡＲＤ,,合同会社,宮崎県,北諸県郡三股町,大字宮村２２９０番地１,,45,341,8891912,,,,,,,2022-09-05,1,,,,,ガード,0
808,3360001030916,新規,0,2022-09-05,2022-09-05,株式会社ＩＳＬＡ　ＬＩＦＥＳＴＹＬＥ　ＦＩＴＮＥＳＳ,,株式会社,沖縄県,島尻郡八重瀬町,字宜次５７８番地の１,,47,362,9010416,,,,,,,2022-09-05,1,,,,,イスラライフスタイルフィットネス,0
812,3370001049022,新規,0,2022-09-05,2022-09-05,翔光建設株式会社,,株式会社,宮城県,名取市,美田園４丁目７番地の９,,04,207,9811217,,,,,,,2022-09-05,1,,,,,ショウコウケンセツ,0
824,3430001087404,新規,0,2022-09-05,2022-09-05,株式会社宮下工業,,株式会社,北海道,千歳市,北斗４丁目９番１６号メゾンド・フランセ１０５号,,01,224,0660073,,,,,,,2022-09-05,1,,,,,ミヤシタコウギョウ,0
825,3430001087429,新規,0,2022-09-05,2022-09-05,株式会社Ｗａｌｋ,,株式会社,北海道,札幌市西区,二十四軒四条４丁目３番１０号ＡＬＬＥＸＩＩ１Ｆ,00127713,01,107,0630804,,,,,,,2022-09-05,1,,,,,ウォーク,0
828,3430003014240,新規,0,2022-09-05,2022-09-05,Ｈｏｓｐｉｔａｌｉｔｙ　Ｗｉｆｉ　Ｊａｐａｎ合同会社,,合同会社,北海道,虻田郡倶知安町,北一条西１丁目１番地１山崎ビル３階,,01,400,0440051,,,,,,,2022-09-05,1,,,,,ホスピタリティワイファイジャパン,0
829,3430003014249,新規,0,2022-09-05,2022-09-05,合同会社俊,,合同会社,北海道,札幌市中央区,北十条西１５丁目１－５７－１１０６,,01,101,0600010,,,,,,,2022-09-05,1,,,,,シュン,0
830,3450005004345,新規,0,2022-09-05,2022-09-05,一般社団法人測量機器資料館,,その他の設立登記法人,北海道,旭川市,八条通１８丁目９３番地１３,,01,204,0788218,,,,,,,2022-09-05,1,,,,,ソクリョウキキシリョウカン,0
835,3470005006463,新規,0,2022-09-05,2022-09-05,医療法人晴明会,,その他の設立登記法人,香川県,高松市,中新町１１番１２号三幸ビル２Ｆ,,37,201,7600056,,,,,,,2022-09-05,1,,,,,セイメイカイ,0
837,3480001011846,新規,0,2022-09-05,2022-09-05,株式会社ＫＩＳＨＩＤＡ,,株式会社,徳島県,美馬市,脇町大字猪尻字若宮南１７６番地８,,36,207,7793602,,,,,,,2022-09-05,1,,,,,キシダ,0
843,4010001229179,新規,0,2022-09-05,2022-09-05,シンプレクス・キャピタル・インベストメント株式会社,,株式会社,東京都,千代田区,丸の内１丁目５番１号新丸の内ビルディング２７階,,13,101,1000005,,,,,,,2022-09-05,1,,,,,シンプレクスキャピタルインベストメント,0
844,4010003038529,新規,0,2022-09-05,2022-09-05,アストローズ合同会社,,合同会社,東京都,中央区,日本橋人形町１丁目５番１６号,,13,102,1030013,,,,,,,2022-09-05,1,,,,,アストローズ,0
845,4010003038545,新規,0,2022-09-05,2022-09-05,シタデル・エンタープライズ・ジャパン合同会社,,合同会社,東京都,千代田区,丸の内３丁目２番２号丸の内二重橋ビル３階,,13,101,1000005,,,,,,,2022-09-05,1,,,,,シタデルエンタープライズジャパン,0
849,4010103001980,新規,0,2022-09-05,2022-09-05,ウィルネット合同会社,,合同会社,東京都,八王子市,大和田町６丁目４番２３号,,13,201,1920045,,,,,,,2022-09-05,1,,,,,ウィルネット,0
853,4010403028344,新規,0,2022-09-05,2022-09-05,フレックルス合同会社,,合同会社,東京都,港区,三田５丁目８番８－１０１０号,,13,103,1080073,,,,,,,2022-09-05,1,,,,,フレックルス,0
859,4010601061782,新規,0,2022-09-05,2022-09-05,Ａｕｔｏ‐Ｌｉｎｋ株式会社,,株式会社,東京都,江東区,北砂３丁目４番１５－８０７号,,13,108,1360073,,,,,,,2022-09-05,1,,,,,オートリンク,0
869,4010901051558,新規,0,2022-09-05,2022-09-05,株式会社サウナデザイン,,株式会社,東京都,世田谷区,池尻４丁目３７番８号,,13,112,1540001,,,,,,,2022-09-05,1,,,,,サウナデザイン,0
870,4010901051566,新規,0,2022-09-05,2022-09-05,株式会社ＵＮＤＲＡＷ,,株式会社,東京都,世田谷区,若林２丁目１５番６－９０４号,,13,112,1540023,,,,,,,2022-09-05,1,,,,,アンドロー,0
871,4010903007590,新規,0,2022-09-05,2022-09-05,合同会社トリニティ,,合同会社,東京都,世田谷区,桜上水３丁目１２番７号フレクション桜上水２０２,,13,112,1560045,,,,,,,2022-09-05,1,,,,,トリニティ,0
876,4011001149557,新規,0,2022-09-05,2022-09-05,Ｐｈａｎｔｏｍ株式会社,,株式会社,東京都,渋谷区,渋谷３丁目６番地２号,,13,113,1500002,,,,,,,2022-09-05,1,,,,,ファントム,0
877,4011003015294,新規,0,2022-09-05,2022-09-05,合同会社ＫＪＭ,,合同会社,東京都,目黒区,上目黒３丁目３番１２号ペニービル４Ｆ,,13,110,1530051,,,,,,,2022-09-05,1,,,,,ケージェイエム,0
878,4011101100072,新規,0,2022-09-05,2022-09-05,株式会社ＦＩＲＳＴＶＯＩＣＥ,,株式会社,東京都,新宿区,高田馬場３丁目２０番１１号,,13,104,1690075,,,,,,,2022-09-05,1,,,,,ファーストヴォイス,0
879,4011103012118,新規,0,2022-09-05,2022-09-05,合同会社ＴＵ０６,,合同会社,東京都,新宿区,四谷２丁目９番地１５東京ユナイテッド綜合事務所内,,13,104,1600004,,,,,,,2022-09-05,1,,,,,ティーユーゼロシックス,0
880,4011201024080,新規,0,2022-09-05,2022-09-05,株式会社ユウヤテック,,株式会社,東京都,中野区,江古田２丁目２１番３号ハイツベルナール,,13,114,1650022,,,,,,,2022-09-05,1,,,,,ユウヤテック,0
887,4011701025586,新規,0,2022-09-05,2022-09-05,株式会社Ｇｒｏｗ　Ｎｅｘｔ,,株式会社,東京都,江戸川区,西葛西６丁目２６番６号クレスティセキグチ２０５,,13,123,1340088,,,,,,,2022-09-05,1,,,,,グローネクスト,0
894,4012703002532,新規,0,2022-09-05,2022-09-05,合同会社ＩＮ　ＡＮＤ　ＯＵＴ,,合同会社,東京都,西東京市,向台町２丁目８番１４号,,13,229,1880013,,,,,,,2022-09-05,1,,,,,インアンドアウト,0
900,4020001148007,新規,0,2022-09-05,2022-09-05,株式会社ＭａｒｅＦｏｘ,,株式会社,神奈川県,横浜市西区,みなとみらい２丁目２－１横浜ランドマークタワー２０Ｆ,,14,103,2200012,,,,,,,2022-09-05,1,,,,,マーレフォックス,0
913,4021003012101,新規,0,2022-09-05,2022-09-05,ｔｕｔｕ　ａｌｏｈａ合同会社,,合同会社,神奈川県,秦野市,鶴巻南２丁目２６－７,,14,211,2570002,,,,,,,2022-09-05,1,,,,,トゥトゥアロハ,0
919,4030001149870,新規,0,2022-09-05,2022-09-05,株式会社Ｈａｃｈｉ．８,,株式会社,埼玉県,熊谷市,須賀広６１６番地６,,11,202,3600102,,,,,,,2022-09-05,1,,,,,ハチハチ,0
920,4030001149904,新規,0,2022-09-05,2022-09-05,株式会社ホンシツシコウ,,株式会社,埼玉県,坂戸市,南町１３番１５号,,11,239,3500233,,,,,,,2022-09-05,1,,,,,ホンシツシコウ,0
921,4030001149920,新規,0,2022-09-05,2022-09-05,株式会社ＳＨｉＮＥ,,株式会社,埼玉県,川口市,大字赤芝新田１０番地１,,11,203,3330824,,,,,,,2022-09-05,1,,,,,シャイン,0
932,4040001124872,新規,0,2022-09-05,2022-09-05,佐藤電気株式会社,,株式会社,千葉県,印西市,鹿黒南５丁目３番地１,,12,231,2701369,,,,,,,2022-09-05,1,,,,,サトウデンキ,0
937,4040003020723,新規,0,2022-09-05,2022-09-05,ＮＫＴ　Ｇｅｎｊｉ合同会社,,合同会社,千葉県,習志野市,実籾６丁目２７番１－２０５,00127716,12,216,2750002,,,,,,,2022-09-05,1,,,,,エヌケイティーゲンジ,0
938,4040003020756,新規,0,2022-09-05,2022-09-05,合同会社ゴールドエクスペリエンス,,合同会社,千葉県,船橋市,中野木２丁目１２番１号サン・スティーズ１０３号,,12,204,2740826,,,,,,,2022-09-05,1,,,,,ゴールドエクスペリエンス,0
939,4050001051637,新規,0,2022-09-05,2022-09-05,株式会社水滴石穿,,株式会社,茨城県,龍ケ崎市,久保台１丁目１７番地２号,,08,208,3010001,,,,,,,2022-09-05,1,,,,,スイテキセキセン,0
941,4060001035226,新規,0,2022-09-05,2022-09-05,三好商事株式会社,,株式会社,栃木県,足利市,大前町６９６番地１富士ビル１Ｆ,,09,202,3260845,,,,,,,2022-09-05,1,,,,,サンコウショウジ,0
943,4070001039606,新規,0,2022-09-05,2022-09-05,ＣＲＥＷ株式会社,,株式会社,群馬県,太田市,大原町１２１番地４,,10,205,3792304,,,,,,,2022-09-05,1,,,,,クルー,0
944,4080001025175,新規,0,2022-09-05,2022-09-05,株式会社ＨＯＮＥ,,株式会社,静岡県,静岡市葵区,東鷹匠町３番４３－４０７号,,22,101,4200833,,,,,,,2022-09-05,1,,,,,ホーン,0
946,4080101023509,新規,0,2022-09-05,2022-09-05,株式会社ＫＳＪ,,株式会社,静岡県,熱海市,梅園町２９番２１号,,22,205,4130032,,,,,,,2022-09-05,1,,,,,ケーエスジェイ,0
948,4090001017766,新規,0,2022-09-05,2022-09-05,株式会社吉字屋履物店,,株式会社,山梨県,甲府市,丸の内２丁目２６－８,,19,201,4000031,,,,,,,2022-09-05,1,,,,,,0
949,4100001035667,新規,0,2022-09-05,2022-09-05,株式会社青永工業,,株式会社,長野県,安曇野市,堀金烏川４７４８番地１,,20,220,3998211,,,,,,,2022-09-05,1,,,,,セイエイコウギョウ,0
950,4100001035675,新規,0,2022-09-05,2022-09-05,株式会社ネックレス,,株式会社,長野県,松本市,中央２丁目１－１２－４Ｆ,,20,202,3900811,,,,,,,2022-09-05,1,,,,,ネックレス,0
955,4110001036945,新規,0,2022-09-05,2022-09-05,ｔｂ商事株式会社,,株式会社,新潟県,新潟市中央区,紫竹山７丁目１番２号,,15,103,9500914,,,,,,,2022-09-05,1,,,,,ティービーショウジ,0
969,4120005023170,新規,0,2022-09-05,2022-09-05,あかね社会保険労務士法人,,その他の設立登記法人,大阪府,大阪市北区,芝田１丁目４番１７号梅田エステートビル５階,,27,127,5300012,,,,,,,2022-09-05,1,,,,,アカネ,0
976,4120101066172,新規,0,2022-09-05,2022-09-05,株式会社クッキー,,株式会社,大阪府,堺市北区,東雲東町２丁５番２５号,,27,146,5918041,,,,,,,2022-09-05,1,,,,,クッキー,0
987,4130001072542,新規,0,2022-09-05,2022-09-05,丸美貿易株式会社,,株式会社,京都府,京都市伏見区,納所町３４－７,,26,109,6128275,,,,,,,2022-09-05,1,,,,,マルビボウエキ,0
988,4130001072559,新規,0,2022-09-05,2022-09-05,株式会社ロッソ,,株式会社,京都府,京都市北区,小山北玄以町２４番地２,,26,101,6038103,,,,,,,2022-09-05,1,,,,,ロッソ,0
989,4130003008164,新規,0,2022-09-05,2022-09-05,合同会社ＲＥＦＬＥＣＲＡＦＴ,,合同会社,京都府,京都市北区,紫野下若草町２６番地２,,26,101,6038234,,,,,,,2022-09-05,1,,,,,リフレクラフト,0
992,4140001127254,新規,0,2022-09-05,2022-09-05,株式会社一希建築,,株式会社,兵庫県,明石市,大久保町高丘５丁目１３番地の６,,28,203,6740057,,,,,,,2022-09-05,1,,,,,イッキケンチク,0
993,4140001127295,新規,0,2022-09-05,2022-09-05,株式会社ピットファクトリー,,株式会社,兵庫県,南あわじ市,榎列大榎列４９６番地２,,28,224,6560426,,,,,,,2022-09-05,1,,,,,ピットファクトリー,0
1002,4170001017262,新規,0,2022-09-05,2022-09-05,株式会社ダイチク,,株式会社,和歌山県,西牟婁郡上富田町,岩田３１０３番地の１３,,30,404,6492102,,,,,,,2022-09-05,1,,,,,ダイチク,0
1003,4170001017270,新規,0,2022-09-05,2022-09-05,株式会社Ｂｏｏｋ　ｍｏｕｎｔａｉｎ,,株式会社,和歌山県,和歌山市,湊通丁北１丁目１－８和歌山県建設会館３Ｆ,,30,201,6408262,,,,,,,2022-09-05,1,,,,,ブックマウンテン,0
1013,4180001152884,新規,0,2022-09-05,2022-09-05,イトウ株式会社,,株式会社,愛知県,名古屋市中川区,小城町２丁目１１番地の１,,23,110,4540875,,,,,,,2022-09-05,1,,,,,イトウ,0
1023,4190001029743,新規,0,2022-09-05,2022-09-05,株式会社ハッチ,,株式会社,三重県,津市,あのつ台５丁目７８０番地１０,,24,201,5140131,,,,,,,2022-09-05,1,,,,,ハッチ,0
1028,4210001019072,新規,0,2022-09-05,2022-09-05,株式会社ループ,,株式会社,福井県,あわら市,大溝２丁目６番１５号２階Ｃ,,18,208,9190628,,,,,,,2022-09-05,1,,,,,ループ,0
1033,4240001060296,新規,0,2022-09-05,2022-09-05,株式会社ａｔ　ｍａｒｋ２４６,,株式会社,広島県,三原市,皆実６丁目１０番１０号,,34,204,7230052,,,,,,,2022-09-05,1,,,,,アットマークニイヨンロク,0
1034,4240001060305,新規,0,2022-09-05,2022-09-05,株式会社新聞販売西部大竹,,株式会社,広島県,大竹市,西栄１丁目４番７号,,34,211,7390603,,,,,,,2022-09-05,1,,,,,シンブンハンバイセイブオオタケ,0
1035,4240001060313,新規,0,2022-09-05,2022-09-05,高田電設株式会社,,株式会社,広島県,福山市,東深津町５丁目１４番２２号,,34,207,7210974,,,,,,,2022-09-05,1,,,,,タカタデンセツ,0
1036,4240003005778,新規,0,2022-09-05,2022-09-05,合同会社盤常屋,,合同会社,広島県,尾道市,因島外浦町甲７７３番地乙７７３番地合併,,34,205,7222213,,,,,,,2022-09-05,1,,,,,バンジョウヤ,0
1043,4260003004019,新規,0,2022-09-05,2022-09-05,合同会社水玉設備,,合同会社,岡山県,倉敷市,玉島柏島４２０３番地２,,33,202,7138123,,,,,,,2022-09-05,1,,,,,ミズタマセツビ,0
1046,4270001008623,新規,0,2022-09-05,2022-09-05,株式会社ＡＣＥＯＮ,,株式会社,鳥取県,米子市,葭津１５０８番地７,,31,202,6830105,,,,,,,2022-09-05,1,,,,,エースオン,0
1048,4290001098786,新規,0,2022-09-05,2022-09-05,株式会社オズフォード,,株式会社,福岡県,福岡市南区,寺塚１丁目１９番８号,,40,134,8150074,,,,,,,2022-09-05,1,,,,,オズフォード,0
1049,4290001098811,新規,0,2022-09-05,2022-09-05,株式会社ｅｎ　ｖｏｌａｎｔ,,株式会社,福岡県,福岡市南区,塩原３丁目２６番１８－１０３号,,40,134,8150032,,,,,,,2022-09-05,1,,,,,エンボラント,0
1054,4290005018798,新規,0,2022-09-05,2022-09-05,一般社団法人千客来結,,その他の設立登記法人,福岡県,福岡市博多区,中洲５丁目１－２２松月堂ビル４階ＺＥＲＯＩＣＨＩ,,40,132,8100801,,,,,,,2022-09-05,1,,,,,センカクライユウ,0
1055,4290801028868,新規,0,2022-09-05,2022-09-05,竹野不動産株式会社,,株式会社,福岡県,北九州市小倉北区,都１丁目１５番１４号,,40,106,8030834,,,,,,,2022-09-05,1,,,,,タケノフドウサン,0
1057,4300003001878,新規,0,2022-09-05,2022-09-05,合同会社カナマルＨＯＵＳＥ,,合同会社,佐賀県,三養基郡基山町,大字長野９９１番地２１,,41,341,8410202,,,,,,,2022-09-05,1,,,,,カナマルハウス,0
1058,4310001018015,新規,0,2022-09-05,2022-09-05,株式会社廣川建築設計事務所,00127729,株式会社,長崎県,佐世保市,大和町１０７７番地１,,42,202,8571165,,,,,,,2022-09-05,1,,,,,ヒロカワケンチクセッケイジムショ,0
1059,4310003004434,新規,0,2022-09-05,2022-09-05,合同会社ＨＯＰＥ,,合同会社,長崎県,松浦市,志佐町池成免１５０８番地１,,42,208,8594518,,,,,,,2022-09-05,1,,,,,ホープ,0
1060,4320001019301,新規,0,2022-09-05,2022-09-05,ＴＡＩＳＨＩＮ株式会社,,株式会社,大分県,杵築市,大字片野１１４５番地１,,44,210,8730007,,,,,,,2022-09-05,1,,,,,タイシン,0
1065,4330003009506,新規,0,2022-09-05,2022-09-05,ミヤザキ合同会社,,合同会社,熊本県,熊本市南区,御幸笛田６丁目４番１８－３号,,43,104,8614172,,,,,,,2022-09-05,1,,,,,ミヤザキ,0
1066,4340001025009,新規,0,2022-09-05,2022-09-05,株式会社ｒｏｇｕ,,株式会社,鹿児島県,日置市,伊集院町郡２丁目２０番地　１０２,,46,216,8992504,,,,,,,2022-09-05,1,,,,,ログ,0
1070,4350001017938,新規,0,2022-09-05,2022-09-05,株式会社ＯＲＡＮＧＥ,,株式会社,宮崎県,宮崎市,清水町三丁目３番３１号セイザンハイツ清水１０３,,45,201,8800000,,,,,,,2022-09-05,1,,,,,オレンジ,0
1076,4370001049005,新規,0,2022-09-05,2022-09-05,株式会社エスアンドイー,,株式会社,宮城県,仙台市泉区,将監２丁目３番１－２号,,04,105,9813132,,,,,,,2022-09-05,1,,,,,エスアンドイー,0
1077,4370003005815,新規,0,2022-09-05,2022-09-05,吉岡ナーサリー合同会社,,合同会社,宮城県,黒川郡大和町,吉岡字古館６７番地,,04,421,9813621,,,,,,,2022-09-05,1,,,,,ヨシオカナーサリー,0
1105,5010001229112,新規,0,2022-09-05,2022-09-05,株式会社ＩＧＳＡ,,株式会社,東京都,文京区,本郷６丁目２５番１４号,,13,105,1130033,,,,,,,2022-09-05,1,,,,,イグサ,0
1106,5010001229260,新規,0,2022-09-05,2022-09-05,Ｈｏｕｓｔｏｎ株式会社,,株式会社,東京都,千代田区,九段北１丁目９番１４－８０５号,,13,101,1020073,,,,,,,2022-09-05,1,,,,,ヒューストン,0
1110,5010003038552,新規,0,2022-09-05,2022-09-05,合同会社ＮＥＸＴ　ＯＮＥ　ｐｌｕｓ,,合同会社,東京都,中央区,銀座１丁目１２番４号Ｎ＆Ｅ・ＢＬＤ．６Ｆ,,13,102,1040061,,,,,,,2022-09-05,1,,,,,ネクストワンプラス,0
1111,5010003038577,新規,0,2022-09-05,2022-09-05,合同会社ＡＸ,,合同会社,東京都,千代田区,外神田３丁目１５番４号ル・プラトー協和４０４号,,13,101,1010021,,,,,,,2022-09-05,1,,,,,アックス,0
1125,5010401169180,新規,0,2022-09-05,2022-09-05,株式会社プロフィットファーム,,株式会社,東京都,港区,南青山３丁目１５－９ＭＩＮＯＷＡ表参道３Ｆ,,13,103,1070062,,,,,,,2022-09-05,1,,,,,プロフィットファーム,0
1126,5010401169453,新規,0,2022-09-05,2022-09-05,株式会社イルミナード,,株式会社,東京都,港区,赤坂２丁目１６番６号ＢＩＺＭＡＲＫＳ赤坂１Ｆ,,13,103,1070052,,,,,,,2022-09-05,1,,,,,イルミナード,0
1127,5010401169478,新規,0,2022-09-05,2022-09-05,株式会社東京高輪不動産,,株式会社,東京都,港区,高輪３丁目１９番４６号,,13,103,1080074,,,,,,,2022-09-05,1,,,,,トウキョウタカナワフドウサン,0
1128,5010403028319,新規,0,2022-09-05,2022-09-05,ＳＣＧ７５合同会社,,合同会社,東京都,港区,虎ノ門４丁目１番２８号,,13,103,1050001,,,,,,,2022-09-05,1,,,,,エスシージーセブンティファイブ,0
1129,5010403028392,新規,0,2022-09-05,2022-09-05,合同会社Ｃａｌｏｒ,,合同会社,東京都,港区,南青山２丁目１８番１１号アルマカン１０２,,13,103,1070062,,,,,,,2022-09-05,1,,,,,カラー,0
1139,5010601061798,新規,0,2022-09-05,2022-09-05,株式会社Ｏｎｅ’ｓ　Ｐｏｃｋｅｔ,,株式会社,東京都,江東区,有明１丁目４番２０－１２０６号,,13,108,1350063,,,,,,,2022-09-05,1,,,,,ワンズポケット,0
1144,5010901051557,新規,0,2022-09-05,2022-09-05,株式会社ｃｏｍｅｍａｒｕ,,株式会社,東京都,世田谷区,池尻４丁目３７番８号,,13,112,1540001,,,,,,,2022-09-05,1,,,,,コメマル,0
1145,5010901051573,新規,0,2022-09-05,2022-09-05,株式会社事業共創投資,,株式会社,東京都,世田谷区,桜上水４丁目１番Ｃ－３０２号,,13,112,1560045,,,,,,,2022-09-05,1,,,,,ジギョウキョウソウトウシ,0
1154,5011001149523,新規,0,2022-09-05,2022-09-05,株式会社ＬＩＤＥ,,株式会社,東京都,渋谷区,恵比寿西１丁目２０－５恵比寿ＳＡビル８階,,13,113,1500021,,,,,,,2022-09-05,1,,,,,ライド,0
1155,5011001149556,新規,0,2022-09-05,2022-09-05,株式会社ティアラ,,株式会社,東京都,渋谷区,桜丘町七丁目１２番野村ビル１Ｆ,,13,113,1500031,,,,,,,2022-09-05,1,,,,,ティアラ,0
1158,5011003015319,新規,0,2022-09-05,2022-09-05,合同会社タタタ,,合同会社,東京都,渋谷区,神宮前６丁目２３番４号２階,,13,113,1500001,,,,,,,2022-09-05,1,,,,,タタタ,0
1164,5011101100047,新規,0,2022-09-05,2022-09-05,株式会社クニコーポレーション,,株式会社,東京都,新宿区,西落合４丁目１１番２号,,13,104,1610031,,,,,,,2022-09-05,1,,,,,クニコーポレーション,0
1170,5011103012117,新規,0,2022-09-05,2022-09-05,合同会社ＴＵ０５,,合同会社,東京都,新宿区,四谷２丁目９番地１５東京ユナイテッド綜合事務所内,,13,104,1600004,,,,,,,2022-09-05,1,,,,,ティーユーゼロファイブ,0
1171,5011103012133,新規,0,2022-09-05,2022-09-05,合同会社ＫＥＮＺＯＯ,,合同会社,東京都,新宿区,北新宿１丁目１－１シンフォニー北新宿の杜６０５,,13,104,1690074,,,,,,,2022-09-05,1,,,,,ケンズー,0
1178,5011801041235,新規,0,2022-09-05,2022-09-05,極美株式会社,,株式会社,東京都,足立区,鹿浜３丁目１番１５号,,13,121,1230864,,,,,,,2022-09-05,1,,,,,キワミ,0
1181,5011802020956,新規,0,2022-09-05,2022-09-05,有限会社トーカン建設工業,,有限会社,東京都,足立区,千住東２丁目５番５号,,13,121,1200025,,,,,,,2022-09-05,1,,,,,,0
1182,5012801021821,新規,0,2022-09-05,2022-09-05,株式会社ブリッジム,,株式会社,東京都,立川市,錦町４丁目９－４ＳＡハイツ１Ｆ,,13,202,1900022,,,,,,,2022-09-05,1,,,,,ブリッジム,0
1183,5012803002860,新規,0,2022-09-05,2022-09-05,合同会社ＹＳＣ,,合同会社,東京都,国立市,中１丁目１４番地の５４,,13,215,1860004,,,,,,,2022-09-05,1,,,,,ワイエスシー,0
1184,5013301049601,新規,0,2022-09-05,2022-09-05,ｃａｓｃａｒａ株式会社,,株式会社,東京都,豊島区,北大塚３丁目１８番１３号パルコートクレタケ１０２号,,13,116,1700004,,,,,,,2022-09-05,1,,,,,カスカラ,0
1189,5020001147981,新規,0,2022-09-05,2022-09-05,ＡＭＴ株式会社,,株式会社,神奈川県,横浜市青葉区,あざみ野２丁目３１－３－１０２号,,14,117,2250011,,,,,,,2022-09-05,1,,,,,エイエムティ,0
1190,5020001148039,新規,0,2022-09-05,2022-09-05,日本光陽電力株式会社,,株式会社,神奈川県,横浜市神奈川区,鶴屋町２丁目９番地２２,,14,102,2210835,,,,,,,2022-09-05,1,,,,,ニホンコウヨウデンリョク,0
1192,5020003022349,新規,0,2022-09-05,2022-09-05,合同会社小さな住まい研究所,,合同会社,神奈川県,川崎市幸区,新川崎６番１－５２５号,,14,132,2120032,,,,,,,2022-09-05,1,,,,,チイサナスマイケンキュウジョ,0
1201,5030001149911,新規,0,2022-09-05,2022-09-05,アール・シーサービスホールディング株式会社,,株式会社,埼玉県,新座市,大和田３丁目４番１２号,,11,230,3520004,,,,,,,2022-09-05,1,,,,,アールシーサービスホールディング,0
1202,5030001149952,新規,0,2022-09-05,2022-09-05,株式会社てるみん,,株式会社,埼玉県,上尾市,浅間台４丁目５番地２５,,11,219,3620073,,,,,,,2022-09-05,1,,,,,テルミン,0
1205,5030003020120,新規,0,2022-09-05,2022-09-05,合同会社ＢＡＣ　ＬＯＮＧ　ＧＲＯＵＰ,,合同会社,埼玉県,川口市,西川口１丁目２０番２０号コーポ若喜１０１号室,,11,203,3320021,,,,,,,2022-09-05,1,,,,,バックロングループ,0
1213,5040003020771,新規,0,2022-09-05,2022-09-05,Ｓ．ＷＯＲＫＳ合同会社,,合同会社,千葉県,流山市,おおたかの森東１丁目７番地の２プランドールおおたかの森６０２,,12,220,2700138,,,,,,,2022-09-05,1,,,,,エスワークス,0
1215,5050001051628,新規,0,2022-09-05,2022-09-05,株式会社大竹獣医科医院,,株式会社,茨城県,北茨城市,磯原町豊田１０７６番地１,,08,215,3191543,,,,,,,2022-09-05,1,,,,,オオタケジュウイカイイン,0
1216,5050001051644,新規,0,2022-09-05,2022-09-05,株式会社ＧＩＶＥＲ,,株式会社,茨城県,小美玉市,三箇１２００番地１,,08,236,3190104,,,,,,,2022-09-05,1,,,,,ギヴァー,0
1220,5060001035241,新規,0,2022-09-05,2022-09-05,株式会社Ａｌｏｕｅｔｔｅ,,株式会社,栃木県,芳賀郡芳賀町,大字八ツ木８２番地４６,,09,345,3213306,,,,,,,2022-09-05,1,,,,,アルエット,0
1223,5080003002865,新規,0,2022-09-05,2022-09-05,酵素ハウス合同会社,,合同会社,静岡県,静岡市清水区,蒲原小金４６０番地の８,,22,103,4213212,,,,,,,2022-09-05,1,,,,,コウソハウス,0
1225,5080401009660,新規,0,2022-09-05,2022-09-05,東洋グリーン開発株式会社,,株式会社,静岡県,浜松市東区,小池町３２番地の１,,22,132,4350056,,,,,,,2022-09-05,1,,,,,,0
1228,5100001035674,新規,0,2022-09-05,2022-09-05,株式会社石屋さん,,株式会社,長野県,安曇野市,穂高５５２０番地１８,,20,220,3998303,,,,,,,2022-09-05,1,,,,,イシヤサン,0
1229,5110001036944,新規,0,2022-09-05,2022-09-05,株式会社ＳＫ　ｗｏｏｄ　ｗｏｒｋｓ,,株式会社,新潟県,新潟市東区,本所１丁目６番９号,,15,102,9500804,,,,,,,2022-09-05,1,,,,,エスケイウッドワークス,0
1239,5120001248613,新規,0,2022-09-05,2022-09-05,山栄企画株式会社,,株式会社,大阪府,寝屋川市,末広町７番２０号,,27,215,5720009,,,,,,,2022-09-05,1,,,,,サンエイキカク,0
1240,5120001248621,新規,0,2022-09-05,2022-09-05,株式会社Ｄｒｉｔｔｏ,,株式会社,大阪府,大阪市都島区,都島本通４丁目１番２４号,,27,102,5340021,,,,,,,2022-09-05,1,,,,,ドリット,0
1241,5120001248654,新規,0,2022-09-05,2022-09-05,株式会社ルミエＣＳソリューション,,株式会社,大阪府,大阪市北区,梅田１丁目２番２－２００号大阪駅前第２ビル２階３－１－２,,27,127,5300001,,,,,,,2022-09-05,1,,,,,ルミエシーエスソリューション,0
1245,5120003022396,新規,0,2022-09-05,2022-09-05,アサヒパック合同会社,,合同会社,大阪府,大阪市生野区,巽南５丁目７番３８号,00127712,27,116,5440015,,,,,,,2022-09-05,1,,,,,アサヒパック,0
1246,5120003022405,新規,0,2022-09-05,2022-09-05,合同会社美貫,,合同会社,大阪府,大阪市西区,新町３丁目９－９日東ビル２階,,27,106,5500013,,,,,,,2022-09-05,1,,,,,ミカン,0
1249,5120101066171,新規,0,2022-09-05,2022-09-05,株式会社エムケイ興産,,株式会社,大阪府,阪南市,尾崎町１丁目１３番８号,,27,232,5990201,,,,,,,2022-09-05,1,,,,,エムケイコウサン,0
1255,5120901046430,新規,0,2022-09-05,2022-09-05,株式会社オンステージ,,株式会社,大阪府,吹田市,江坂町２丁目１４番１３－１０２号,,27,205,5640063,,,,,,,2022-09-05,1,,,,,オンステージ,0
1256,5120901046439,新規,0,2022-09-05,2022-09-05,株式会社Ｌｉｎｋ　Ｃｏｒｅ,,株式会社,大阪府,高槻市,竹の内町３５番１９－２０１号,,27,207,5690043,,,,,,,2022-09-05,1,,,,,リンクコア,0
1257,5120901046447,新規,0,2022-09-05,2022-09-05,ココ商行株式会社,,株式会社,大阪府,吹田市,五月が丘東８番Ｃ－１０９号,,27,205,5650831,,,,,,,2022-09-05,1,,,,,ココショウコウ,0
1258,5120901046455,新規,0,2022-09-05,2022-09-05,株式会社Ｋ＆Ｋ,,株式会社,大阪府,茨木市,春日１丁目１６番７－４０５号,,27,211,5670031,,,,,,,2022-09-05,1,,,,,ケイアンドケイ,0
1259,5122001036213,新規,0,2022-09-05,2022-09-05,株式会社皇華,,株式会社,大阪府,八尾市,堤町２丁目３０番地の１００,,27,212,5810832,,,,,,,2022-09-05,1,,,,,オウカ,0
1263,5130001072582,新規,0,2022-09-05,2022-09-05,株式会社くろちくマネジメント,,株式会社,京都府,京都市中京区,新町通錦小路上る百足屋町３８０番地,,26,104,6048214,,,,,,,2022-09-05,1,,,,,クロチクマネジメント,0
1269,5140003018095,新規,0,2022-09-05,2022-09-05,ＩＭＮ合同会社,,合同会社,兵庫県,姫路市,広畑区本町６丁目７１５番地２,,28,201,6711114,,,,,,,2022-09-05,1,,,,,アイエムエヌ,0
1270,5140005026303,新規,0,2022-09-05,2022-09-05,ＮＰＯ法人ＡＶＡ健康Ｌａｂｏ,,その他の設立登記法人,兵庫県,神戸市西区,井吹台東町１丁目２番地の１－１０－１３０４号,,28,111,6512242,,,,,,,2022-09-05,1,,,,,エーブイエーケンコウラボ,0
1272,5160003002659,新規,0,2022-09-05,2022-09-05,マイクラフト合同会社,,合同会社,滋賀県,彦根市,八坂町３１３９番地,,25,202,5220057,,,,,,,2022-09-05,1,,,,,マイクラフト,0
1276,5170001017261,新規,0,2022-09-05,2022-09-05,株式会社未来ポンプクリート,,株式会社,和歌山県,田辺市,芳養町３０８３番地の５３,,30,206,6460056,,,,,,,2022-09-05,1,,,,,ミライポンプクリート,0
1277,5170003001767,新規,0,2022-09-05,2022-09-05,インプランテクノ合同会社,,合同会社,和歌山県,西牟婁郡白浜町,１４３０番地の１５,,30,401,6492211,,,,,,,2022-09-05,1,,,,,インプランテクノ,0
1285,5180001152875,新規,0,2022-09-05,2022-09-05,株式会社ｓａｋｕｒａ・ｍｅｌｉａ,,株式会社,愛知県,名古屋市天白区,表台１７番地の１,,23,116,4680068,,,,,,,2022-09-05,1,,,,,サクラメリア,0
1287,5180005019914,新規,0,2022-09-05,2022-09-05,一般社団法人キッカケキカク,,その他の設立登記法人,愛知県,稲沢市,奥田大門町１４４番地,,23,220,4928226,,,,,,,2022-09-05,1,,,,,キッカケキカク,0
1296,5200001040409,新規,0,2022-09-05,2022-09-05,株式会社ＡＱＵＡＬＩＥ,,株式会社,岐阜県,高山市,神田町２丁目７４番地,,21,203,5060006,,,,,,,2022-09-05,1,,,,,アクアリー,0
1297,5200001040425,新規,0,2022-09-05,2022-09-05,株式会社アイ・クリエイト,,株式会社,岐阜県,土岐市,泉町大富２０１４番地の１,,21,212,5095132,,,,,,,2022-09-05,1,,,,,アイクリエイト,0
1300,5200005013385,新規,0,2022-09-05,2022-09-05,一般社団法人日本ベトナム経済文化交流協会,,その他の設立登記法人,岐阜県,大垣市,今宿６丁目５２－１６ドリーム・コア４２０,,21,202,5030807,,,,,,,2022-09-05,1,,,,,ニホンベトナムケイザイブンカコウリュウキョウカイ,0
1302,5210001019071,新規,0,2022-09-05,2022-09-05,株式会社ルネッタバダジャパン,,株式会社,福井県,福井市,門前２丁目１１１３番地,,18,201,9188021,,,,,,,2022-09-05,1,,,,,ルネッタバダジャパン,0
1307,5240001060304,新規,0,2022-09-05,2022-09-05,株式会社ＬＩＮＫＥＲ,,株式会社,広島県,広島市西区,井口１丁目６番５号,,34,104,7330842,,,,,,,2022-09-05,1,,,,,リンカー,0
1317,5260001037192,新規,0,2022-09-05,2022-09-05,株式会社Ｔｉｔａｎ　Ｍｉｎｄｓ,,株式会社,岡山県,岡山市北区,表町１丁目１番８号ライオンズタワー岡山表町１４０１号,,33,101,7000822,,,,,,,2022-09-05,1,,,,,タイタンマインズ,0
1318,5260001037218,新規,0,2022-09-05,2022-09-05,株式会社和瓦楽,,株式会社,岡山県,倉敷市,新倉敷駅前３丁目１１１番地１,,33,202,7100253,,,,,,,2022-09-05,1,,,,,ワガラク,0
1319,5260001037226,新規,0,2022-09-05,2022-09-05,株式会社Ｉ＆Ｋ,,株式会社,岡山県,岡山市北区,大供２丁目１０－８,,33,101,7000913,,,,,,,2022-09-05,1,,,,,アイアンドケイ,0
1325,5290001098785,新規,0,2022-09-05,2022-09-05,株式会社シーン,,株式会社,福岡県,福岡市中央区,大濠公園３番３２－５０２号,,40,133,8100051,,,,,,,2022-09-05,1,,,,,シーン,0
1326,5290001098819,新規,0,2022-09-05,2022-09-05,Ｖｅｒｔｅｘ株式会社,,株式会社,福岡県,福岡市東区,名子１丁目７番２４号,,40,131,8130024,,,,,,,2022-09-05,1,,,,,ヴェルテックス,0
1327,5290001098835,新規,0,2022-09-05,2022-09-05,株式会社Ｔ‐ＰＬＡＳＴ,,株式会社,福岡県,那珂川市,今光５丁目３３番地２０１,,40,231,8111211,,,,,,,2022-09-05,1,,,,,ティープラスト,0
1329,5300003001877,新規,0,2022-09-05,2022-09-05,合同会社ソクラテス文庫,,合同会社,佐賀県,唐津市,和多田海士町５番１６号,,41,202,8470071,,,,,,,2022-09-05,1,,,,,ソクラテスブンコ,0
1331,5310003004433,新規,0,2022-09-05,2022-09-05,合同会社蓮三,,合同会社,長崎県,諫早市,川床町２５８番地１,,42,204,8540052,,,,,,,2022-09-05,1,,,,,レンゾウ,0
1332,5310005008630,新規,0,2022-09-05,2022-09-05,社会保険労務士法人遠藤事務所,,その他の設立登記法人,長崎県,平戸市,岩の上町２００番２０,,42,207,8595121,,,,,,,2022-09-05,1,,,,,エンドウジムショ,0
1333,5320001019300,新規,0,2022-09-05,2022-09-05,株式会社ＩＷＡＴＡ,,株式会社,大分県,宇佐市,大字四日市１７５２番地１,,44,211,8790471,,,,,,,2022-09-05,1,,,,,イワタ,0
1334,5320005010016,新規,0,2022-09-05,2022-09-05,一般社団法人亜博思創薬研究振興会,,その他の設立登記法人,大分県,大分市,東春日町１７番２０号,,44,201,8700037,,,,,,,2022-09-05,1,,,,,アルビウスソウヤクケンキュウシンコウカイ,0
1336,5330003009505,新規,0,2022-09-05,2022-09-05,合同会社姫井工業,,合同会社,熊本県,熊本市東区,上南部３丁目７番１７号,,43,102,8618010,,,,,,,2022-09-05,1,,,,,ヒメイコウギョウ,0
1339,5350001017937,新規,0,2022-09-05,2022-09-05,株式会社田中,,株式会社,宮崎県,宮崎市,清武町今泉甲３６０９番地１,,45,201,8891602,,,,,,,2022-09-05,1,,,,,タナカ,0
1345,5380001033089,新規,0,2022-09-05,2022-09-05,株式会社栗田,,株式会社,福島県,郡山市,久留米１丁目１０番地の２,,07,203,9638846,,,,,,,2022-09-05,1,,,,,クリタ,0
1347,5400001015992,新規,0,2022-09-05,2022-09-05,株式会社地盤調査設計,,株式会社,岩手県,奥州市,水沢佐倉河字北幅１１２番地１,,03,215,0230003,,,,,,,2022-09-05,1,,,,,,0
1353,5400003002972,新規,0,2022-09-05,2022-09-05,合同会社エール,,合同会社,岩手県,宮古市,上鼻２丁目６番２６号,,03,202,0270044,,,,,,,2022-09-05,1,,,,,エール,0
1354,5410001013269,新規,0,2022-09-05,2022-09-05,株式会社ＫＡＭＵＲＯ,,株式会社,秋田県,湯沢市,秋ノ宮字新屋敷１６９番,,05,207,0190321,,,,,,,2022-09-05,1,,,,,カムロ,0
1360,5430001087419,新規,0,2022-09-05,2022-09-05,株式会社ｂａｓｅｓ,,株式会社,北海道,札幌市豊平区,美園五条１丁目１番１９号,,01,105,0620005,,,,,,,2022-09-05,1,,,,,ベイシス,0
1361,5430001087427,新規,0,2022-09-05,2022-09-05,Ｇａｔｅｓ　Ｊａｐａｎ株式会社,,株式会社,北海道,札幌市北区,北七条西２丁目６番地　３７山京ビル６１６号,,01,102,0600807,,,,,,,2022-09-05,1,,,,,ゲイツジャパン,0
1362,5430001087435,新規,0,2022-09-05,2022-09-05,株式会社ＴＳＲ　ＡＵＤＩＯ,,株式会社,北海道,札幌市東区,東雁来十二条２丁目２４番１２号,,01,103,0070032,,,,,,,2022-09-05,1,,,,,ティーエスアールオーディオ,0
1363,5430003014247,新規,0,2022-09-05,2022-09-05,合同会社ノボリコタン,,合同会社,北海道,札幌市中央区,南四条西４丁目１６番地恵愛ビル８階,,01,101,0640804,,,,,,,2022-09-05,1,,,,,ノボリコタン,0
1366,5490001010275,新規,0,2022-09-05,2022-09-05,株式会社岸本商事,,株式会社,高知県,高知市,大津乙１２０２番地１,,39,201,7815103,,,,,,,2022-09-05,1,,,,,キシモトショウジ,0
1367,5500001024439,新規,0,2022-09-05,2022-09-05,株式会社結,,株式会社,愛媛県,新居浜市,庄内町３丁目５番１８号,,38,205,7920811,,,,,,,2022-09-05,1,,,,,ユイ,0
1370,5700150111620,新規,0,2022-09-05,2022-09-05,虎ノ門一丁目東地区市街地再開発組合,,その他,東京都,港区,西新橋１丁目８番４号,,13,103,1050003,,,,,,,2022-09-05,1,,,,,トラノモンイツチヨウメヒガシチクシガイチサイカイハツクミアイ,0
1385,6010005035506,新規,0,2022-09-05,2022-09-05,一般社団法人ジャパン・プライベート・ソーラー,,その他の設立登記法人,東京都,千代田区,丸の内３丁目１番１号東京共同会計事務所内,,13,101,1000005,,,,,,,2022-09-05,1,,,,,ジャパンプライベートソーラー,0
1391,6010401169345,新規,0,2022-09-05,2022-09-05,株式会社ルミランド,,株式会社,東京都,港区,三田１丁目２番１８号ＴＴＤビル,,13,103,1080073,,,,,,,2022-09-05,1,,,,,ルミランド,0
1392,6010401169411,新規,0,2022-09-05,2022-09-05,株式会社ｎｕｉ　ｄｅｓｉｇｎ,,株式会社,東京都,港区,南青山２丁目２番８号ＤＦビル５階,,13,103,1070062,,,,,,,2022-09-05,1,,,,,ヌイデザイン,0
1393,6010401169444,新規,0,2022-09-05,2022-09-05,Ｂ１Ｇ１Ｊａｐａｎ株式会社,,株式会社,東京都,港区,南青山２丁目２番１５号ＷｉｎＡｏｙａｍａビルＵＣＦ６階,,13,103,1070062,,,,,,,2022-09-05,1,,,,,ビーワンジーワンジャパン,0
1394,6010401169452,新規,0,2022-09-05,2022-09-05,株式会社福盛,,株式会社,東京都,港区,高輪２丁目２番１９号ヴィンテージファースト白金高輪４０１,,13,103,1080074,,,,,,,2022-09-05,1,,,,,フクモリ,0
1395,6010401169477,新規,0,2022-09-05,2022-09-05,株式会社ｆａｍｉａｍ,,株式会社,東京都,港区,麻布十番３丁目５番１３－７０１号,,13,103,1060045,,,,,,,2022-09-05,1,,,,,ファミアム,0
1397,6010403028417,新規,0,2022-09-05,2022-09-05,パーク・ストリート合同会社,,合同会社,東京都,港区,愛宕２丁目５番１号,,13,103,1050002,,,,,,,2022-09-05,1,,,,,パークストリート,0
1399,6010501049315,新規,0,2022-09-05,2022-09-05,サンセットラック株式会社,,株式会社,東京都,台東区,今戸２丁目１６－１１ＮＩＳＩＢＩビル３Ｆ,,13,106,1110024,,,,,,,2022-09-05,1,,,,,サンセットラック,0
1402,6010601061789,新規,0,2022-09-05,2022-09-05,株式会社木村商会,,株式会社,東京都,江東区,永代２丁目１７番８号第二小崎ビル２０３,,13,108,1350034,,,,,,,2022-09-05,1,,,,,キムラショウカイ,0
1403,6010601061797,新規,0,2022-09-05,2022-09-05,コスモサービス株式会社,,株式会社,東京都,墨田区,吾妻橋１丁目１番４号リバーサイドオオハシ２０２,,13,107,1300001,,,,,,,2022-09-05,1,,,,,コスモサービス,0
1410,6010901051523,新規,0,2022-09-05,2022-09-05,欽向株式会社,,株式会社,東京都,世田谷区,世田谷１丁目４１番２号,,13,112,1540017,,,,,,,2022-09-05,1,,,,,キンコウ,0
1411,6010901051564,新規,0,2022-09-05,2022-09-05,株式会社五十嵐電設,,株式会社,東京都,世田谷区,八幡山２丁目４番５号,,13,112,1560056,,,,,,,2022-09-05,1,,,,,イガラシデンセツ,0
1418,6011001149547,新規,0,2022-09-05,2022-09-05,ＷＩＬＬＥＲ　ＡＣＲＯＳＳ株式会社,,株式会社,東京都,目黒区,下目黒１丁目８番１号,,13,110,1530064,,,,,,,2022-09-05,1,,,,,ウイラーアクロス,0
1419,6011001149555,新規,0,2022-09-05,2022-09-05,株式会社トリトト,,株式会社,東京都,渋谷区,道玄坂１丁目１０番８号渋谷道玄坂東急ビル２Ｆ－Ｃ,,13,113,1500043,,,,,,,2022-09-05,1,,,,,トリトト,0
1420,6011001149563,新規,0,2022-09-05,2022-09-05,株式会社ＯｎｅＶｅｒｓｅ,,株式会社,東京都,渋谷区,円山町２３番９－１１０６号,,13,113,1500044,,,,,,,2022-09-05,1,,,,,ワンバース,0
1421,6011003015318,新規,0,2022-09-05,2022-09-05,ＰｅｒｆｅｃｔＶｉｓｉｏｎ合同会社,,合同会社,東京都,渋谷区,西原３丁目３６番１５号,,13,113,1510066,,,,,,,2022-09-05,1,,,,,パーフェクトヴィジョン,0
1430,6011101100046,新規,0,2022-09-05,2022-09-05,株式会社エスクラス,,株式会社,東京都,新宿区,若宮町５番地ガーデン鷹乃羽３０７,,13,104,1620827,,,,,,,2022-09-05,1,,,,,,0
1431,6011101100070,新規,0,2022-09-05,2022-09-05,Ｄｉｇｖｅｒｓｅ株式会社,,株式会社,東京都,新宿区,西新宿３丁目３番１３号西新宿水間ビル６階,,13,104,1600023,,,,,,,2022-09-05,1,,,,,ディグヴァース,0
1435,6011103012099,新規,0,2022-09-05,2022-09-05,ＢＯＯＮＰＬＵＳ合同会社,,合同会社,東京都,新宿区,高田馬場３丁目２７番１３号第５丸上ビル１０１,,13,104,1690075,,,,,,,2022-09-05,1,,,,,ブーンプラス,0
1436,6011103012124,新規,0,2022-09-05,2022-09-05,ＦＴＥ合同会社,,合同会社,東京都,新宿区,西新宿３丁目３番１３号西新宿水間ビル２階,,13,104,1600023,,,,,,,2022-09-05,1,,,,,エフティイー,0
1438,6011301028079,新規,0,2022-09-05,2022-09-05,株式会社井上堂,,株式会社,東京都,杉並区,天沼１丁目４番４号,,13,115,1670032,,,,,,,2022-09-05,1,,,,,イノウエドウ,0
1441,6011401024515,新規,0,2022-09-05,2022-09-05,株式会社リムーバル＆クリーン,,株式会社,東京都,板橋区,中丸町６番９号ａｒｔｅ池袋３０１,,13,119,1730026,,,,,,,2022-09-05,1,,,,,リムーバルアンドクリーン,0
1451,6011801041234,新規,0,2022-09-05,2022-09-05,目黒自動車交通葛飾株式会社,,株式会社,東京都,葛飾区,青戸８丁目４番１３号,,13,122,1250062,,,,,,,2022-09-05,1,,,,,メグロジドウシャコウツウカツシカ,0
1457,6012405004775,新規,0,2022-09-05,2022-09-05,医療法人社団仙川おりはら眼科,,その他の設立登記法人,東京都,調布市,仙川町２丁目１２番地６アヴェニール仙川１階Ｂ,,13,208,1820002,,,,,,,2022-09-05,1,,,,,センガワオリハラガンカ,0
1461,6013301049518,新規,0,2022-09-05,2022-09-05,キューブ株式会社,,株式会社,東京都,豊島区,高田３丁目３番２２－１０２号,,13,116,1710033,,,,,,,2022-09-05,1,,,,,キューブ,0
1468,6020001147989,新規,0,2022-09-05,2022-09-05,株式会社あーなんだ,,株式会社,神奈川県,横浜市中区,住吉町６丁目７７,,14,104,2310013,,,,,,,2022-09-05,1,,,,,アーナンダ,0
1470,6020005015655,新規,0,2022-09-05,2022-09-05,土地家屋調査士法人徳ケ崎事務所,,その他の設立登記法人,神奈川県,横浜市西区,花咲町４丁目１１０番地２,,14,103,2200022,,,,,,,2022-09-05,1,,,,,トクガサキジムショ,0
1488,6040003020762,新規,0,2022-09-05,2022-09-05,ニュートラル・ランド合同会社,,合同会社,千葉県,浦安市,東野１丁目３番１２－４０１号ナツミ・ガーデン,,12,227,2790042,,,,,,,2022-09-05,1,,,,,ニュートラルランド,0
1489,6050003006793,新規,0,2022-09-05,2022-09-05,合同会社ＬＡＫＳＨＩＴＨＡ　ＥＮＴＥＲＰＲＩＳＥＳ,,合同会社,茨城県,稲敷郡美浦村,郷中２６３２番地,,08,442,3000420,,,,,,,2022-09-05,1,,,,,ラクシタエンタープライゼズ,0
1490,6050003006819,新規,0,2022-09-05,2022-09-05,合同会社ＴＫ,,合同会社,茨城県,龍ケ崎市,貝原塚町３６２５,,08,208,3010856,,,,,,,2022-09-05,1,,,,,ティーケー,0
1492,6060001035232,新規,0,2022-09-05,2022-09-05,ますます増田株式会社,,株式会社,栃木県,日光市,萩垣面２４００番地１,,09,206,3211414,,,,,,,2022-09-05,1,,,,,マスマスマスダ,0
1493,6060001035240,新規,0,2022-09-05,2022-09-05,株式会社ネクストワン,,株式会社,栃木県,日光市,所野１５４１－１８９,,09,206,3211421,,,,,,,2022-09-05,1,,,,,ネクストワン,0
1498,6080001025165,新規,0,2022-09-05,2022-09-05,株式会社信和,,株式会社,静岡県,静岡市葵区,人宿町２丁目５番地の５,,22,101,4200037,,,,,,,2022-09-05,1,,,,,シンワ,0
1499,6080005007481,新規,0,2022-09-05,2022-09-05,司法書士法人よつば,,その他の設立登記法人,静岡県,藤枝市,田沼３丁目２６番１号,,22,214,4260061,,,,,,,2022-09-05,1,,,,,ヨツバ,0
1500,6080101023515,新規,0,2022-09-05,2022-09-05,株式会社Ｒキャピタル,,株式会社,静岡県,沼津市,岡宮１０１２番地の１,,22,203,4100011,,,,,,,2022-09-05,1,,,,,アールキャピタル,0
1504,6080401026028,新規,0,2022-09-05,2022-09-05,株式会社ひにち,,株式会社,静岡県,浜松市浜北区,染地台１丁目４１番２３号,,22,136,4340046,,,,,,,2022-09-05,1,,,,,ヒニチ,0
1506,6090001017764,新規,0,2022-09-05,2022-09-05,Ｐｎｅｕｍａ株式会社,,株式会社,山梨県,富士吉田市,新倉２６８０番地１６プロティオン河口湖３１６号,,19,202,4030011,,,,,,,2022-09-05,1,,,,,プネウマ,0
1509,6100003006680,新規,0,2022-09-05,2022-09-05,合同会社ｆｌｏｗ,,合同会社,長野県,松本市,大字島立３０５１－２,,20,202,3900852,,,,,,,2022-09-05,1,,,,,フロー,0
1510,6110001036943,新規,0,2022-09-05,2022-09-05,株式会社ＭＧ,,株式会社,新潟県,新潟市中央区,出来島２丁目１４番１６号アルゴ天神山マンション１Ｆ,,15,103,9500962,,,,,,,2022-09-05,1,,,,,エムジー,0
1515,6120001248612,新規,0,2022-09-05,2022-09-05,株式会社アントム工業,,株式会社,大阪府,大阪市淀川区,塚本６丁目１番１２号,,27,123,5320026,,,,,,,2022-09-05,1,,,,,アントムコウギョウ,0
1516,6120001248637,新規,0,2022-09-05,2022-09-05,株式会社京都エンジニア,,株式会社,大阪府,大阪市旭区,中宮２丁目９番４号,,27,117,5350003,,,,,,,2022-09-05,1,,,,,キョウトエンジニア,0
1517,6120001248661,新規,0,2022-09-05,2022-09-05,株式会社一粒野,,株式会社,大阪府,大阪市中央区,南久宝寺町３丁目４番１４号三興ビル４０４号,,27,128,5410058,,,,,,,2022-09-05,1,,,,,ヒトツブヤ,0
1521,6120005023169,新規,0,2022-09-05,2022-09-05,一般社団法人日本統合健康協会,,その他の設立登記法人,大阪府,大阪市阿倍野区,阪南町２丁目１４番１号,,27,119,5450021,,,,,,,2022-09-05,1,,,,,ニホントウゴウケンコウキョウカイ,0
1530,6120103004839,新規,0,2022-09-05,2022-09-05,合同会社Ｈｏｒｎｅｔ,,合同会社,大阪府,河内長野市,千代田台町９－９,,27,216,5860027,,,,,,,2022-09-05,1,,,,,ホーネット,0
1532,6120901046438,新規,0,2022-09-05,2022-09-05,株式会社矢野興産,,株式会社,大阪府,豊中市,新千里北町１丁目１３番５号,,27,203,5600081,,,,,,,2022-09-05,1,,,,,ヤノコウサン,0
1534,6120903004294,新規,0,2022-09-05,2022-09-05,合同会社ヒーズジャパン,,合同会社,大阪府,豊中市,服部本町５丁目２番２－８０３,,27,203,5610852,,,,,,,2022-09-05,1,,,,,ヒーズジャパン,0
1542,6130001072557,新規,0,2022-09-05,2022-09-05,株式会社アトリエ・ブリコラージュ一級建築士事務所,,株式会社,京都府,京都市北区,紫野西御所田町１６－２風良都ＩＩ番館４０３号,00127730,26,101,6038165,,,,,,,2022-09-05,1,,,,,アトリエブリコラージュイッキュウケンチクシジムショ,0
1554,6140001127302,新規,0,2022-09-05,2022-09-05,株式会社Ｗｏｎｄｅｒ　Ｗａｌｌ,,株式会社,兵庫県,神戸市北区,鈴蘭台南町７丁目１２番３０号,,28,109,6511113,,,,,,,2022-09-05,1,,,,,ワンダーウォール,0
1556,6140003018094,新規,0,2022-09-05,2022-09-05,ＳＷＹＧ合同会社,,合同会社,兵庫県,たつの市,龍野町島田２５１番地,,28,229,6794121,,,,,,,2022-09-05,1,,,,,エスダブリュワイジー,0
1561,6170001017269,新規,0,2022-09-05,2022-09-05,株式会社ｔｏｉｌｏ,,株式会社,和歌山県,紀の川市,貴志川町北山５２０番地１,,30,208,6400402,,,,,,,2022-09-05,1,,,,,トイロ,0
1562,6170003001766,新規,0,2022-09-05,2022-09-05,合同会社リブ,,合同会社,和歌山県,海南市,船尾２４７コーポ吉田１Ｆ２号,,30,202,6420001,,,,,,,2022-09-05,1,,,,,リブ,0
1574,6180001152908,新規,0,2022-09-05,2022-09-05,株式会社オーシャンルーム,,株式会社,愛知県,春日井市,小野町２丁目１９３番地,,23,206,4860926,,,,,,,2022-09-05,1,,,,,オーシャンルーム,0
1589,6190005011737,新規,0,2022-09-05,2022-09-05,特定非営利活動法人四日市Ｄサポート,,その他の設立登記法人,三重県,四日市市,日永西３丁目１番２１号,,24,202,5100891,,,,,,,2022-09-05,1,,,,,ヨッカイチディーサポート,0
1601,6240001060311,新規,0,2022-09-05,2022-09-05,株式会社みずおか,,株式会社,広島県,広島市安佐南区,中須２丁目８番１号,,34,105,7310121,,,,,,,2022-09-05,1,,,,,ミズオカ,0
1602,6240001060328,新規,0,2022-09-05,2022-09-05,ｓｉｇｎ株式会社,,株式会社,広島県,広島市西区,田方３丁目９０９番地１－１４０５号,,34,104,7330851,,,,,,,2022-09-05,1,,,,,サイン,0
1603,6240001060336,新規,0,2022-09-05,2022-09-05,株式会社東洋商事,,株式会社,広島県,広島市東区,戸坂数甲１丁目１－４５－１０２,,34,102,7320017,,,,,,,2022-09-05,1,,,,,トウヨウショウジ,0
1608,6260001037217,新規,0,2022-09-05,2022-09-05,プラスマウンテン株式会社,,株式会社,岡山県,岡山市東区,瀬戸町鍛冶屋１７０７番１号,,33,103,7090845,,,,,,,2022-09-05,1,,,,,プラスマウンテン,0
1609,6260001037225,新規,0,2022-09-05,2022-09-05,株式会社Ｒｅ’Ｍ,,株式会社,岡山県,岡山市北区,東花尻１０３番地７陵南パークハウス７号,,33,101,7010135,,,,,,,2022-09-05,1,,,,,リム,0
1614,6290001098826,新規,0,2022-09-05,2022-09-05,株式会社パルテ,,株式会社,福岡県,福岡市城南区,七隈３丁目１０番２５号,,40,136,8140133,,,,,,,2022-09-05,1,,,,,パルテ,0
1615,6290003012909,新規,0,2022-09-05,2022-09-05,合同会社ＫＯＨＲ,,合同会社,福岡県,福岡市西区,富士見３丁目１８番６号,,40,135,8190387,,,,,,,2022-09-05,1,,,,,コール,0
1616,6290003012917,新規,0,2022-09-05,2022-09-05,Ｑｕａｎｔｉｆｙ合同会社,,合同会社,福岡県,福岡市南区,野多目５丁目２１番３４号,,40,134,8111347,,,,,,,2022-09-05,1,,,,,クォンティファイ,0
1622,6310001018013,新規,0,2022-09-05,2022-09-05,株式会社プライマリーデザイン,,株式会社,長崎県,長崎市,戸石町２８１６番地５９,,42,201,8510113,,,,,,,2022-09-05,1,,,,,,0
1623,6320001019308,新規,0,2022-09-05,2022-09-05,株式会社Ｏｉｔａｎ　Ａｃｃｅｎｔ,,株式会社,大分県,大分市,中春日町１１番１０号,,44,201,8700039,,,,,,,2022-09-05,1,,,,,オーイタンアクセント,0
1625,6330001030073,新規,0,2022-09-05,2022-09-05,株式会社ＳＵＰＥＲ　ＨＥＲＯ’Ｓ,,株式会社,熊本県,熊本市西区,春日４丁目７番１６号,,43,103,8600047,,,,,,,2022-09-05,1,,,,,スーパーヒーローズ,0
1626,6330001030081,新規,0,2022-09-05,2022-09-05,株式会社Ｅａｒｔｈ　Ｎｅｘｔ　Ｆａｒｍ,,株式会社,熊本県,八代市,横手町１１８９番地２８,,43,202,8660873,,,,,,,2022-09-05,1,,,,,アースネクストファーム,0
1630,6360001030888,新規,0,2022-09-05,2022-09-05,株式会社日本ヤギ,,株式会社,沖縄県,名護市,字呉我６２１番地１マンション２１ＵＳＡ１０３号,,47,209,9051154,,,,,,,2022-09-05,1,,,,,ニッポンヤギ,0
1631,6360003012273,新規,0,2022-09-05,2022-09-05,合同会社ＬＯＣＯＳ　ＴＲＡＤＩＮＧ,,合同会社,沖縄県,浦添市,安波茶１丁目６番６号,,47,208,9012114,,,,,,,2022-09-05,1,,,,,ロコストレーディング,0
1632,6370003005821,新規,0,2022-09-05,2022-09-05,合同会社０３９,,合同会社,宮城県,仙台市宮城野区,福田町１丁目６番３－３０２号,,04,102,9830023,,,,,,,2022-09-05,1,,,,,ゼロサンキュウ,0
1633,6380001033071,新規,0,2022-09-05,2022-09-05,株式会社アメイン,,株式会社,福島県,福島市,御山字三本松１９－１信夫プラザ２Ｆ－１１,,07,201,9608252,,,,,,,2022-09-05,1,,,,,アメイン,0
1635,6380003005267,新規,0,2022-09-05,2022-09-05,合同会社スマイル,,合同会社,福島県,福島市,笹谷字中田２番地の１,,07,201,9600241,,,,,,,2022-09-05,1,,,,,スマイル,0
1637,6390003001991,新規,0,2022-09-05,2022-09-05,合同会社しゅり,,合同会社,山形県,山形市,東原町１丁目１１番２６号,,06,201,9900034,,,,,,,2022-09-05,1,,,,,シュリ,0
1640,6400005008265,新規,0,2022-09-05,2022-09-05,一般社団法人圧力調整注入技術研究会,,その他の設立登記法人,岩手県,遠野市,上郷町板沢９地割１９番地１,,03,208,0280776,,,,,,,2022-09-05,1,,,,,アツリョクチョウセイチュウニュウギジュツケンキュウカイ,0
1647,6430001087450,新規,0,2022-09-05,2022-09-05,株式会社スタジオワンダー,,株式会社,北海道,札幌市中央区,北三条東５丁目５番地岩佐ビル１階,,01,101,0600033,,,,,,,2022-09-05,1,,,,,スタジオワンダー,0
1650,6430003014246,新規,0,2022-09-05,2022-09-05,合同会社ｋａｍｕ,,合同会社,北海道,札幌市中央区,南十一条西１２丁目２番２５－１１０１号,,01,101,0640811,,,,,,,2022-09-05,1,,,,,カム,0
1651,6430005014541,新規,0,2022-09-05,2022-09-05,ＹＭＯサポート事業協同組合,,その他の設立登記法人,北海道,札幌市中央区,北一条西９丁目３－１９,,01,101,0600001,,,,,,,2022-09-05,1,,,,,ワイエムオーサポート,0
1656,6470001019243,新規,0,2022-09-05,2022-09-05,ティーソフトウェア株式会社,,株式会社,香川県,高松市,鍛冶屋町６番地１１,,37,201,7600028,,,,,,,2022-09-05,1,,,,,ティーソフトウェア,0
1659,6490001010274,新規,0,2022-09-05,2022-09-05,株式会社寺田,,株式会社,高知県,高知市,小津町４番３０－１１０２号,,39,201,7800915,,,,,,,2022-09-05,1,,,,,テラダ,0
1664,6700150111628,新規,0,2022-09-05,2022-09-05,ＳＵＣＣＥＳＳ　ＡＵＴＯ　ＬＡＮＫＡ　ＰＲＩＶＡＴＥ　ＬＩＭＩＴＥＤ．,,外国会社等,千葉県,柏市,高柳８９１番地５号,,12,217,2770941,スリランカ民主社会主義共和国、カドゥウェラ、コタラワラ、ニューキャンディロードＮＯ．６３／１,,,,,,2022-09-05,1,,,,,サクセスオートランカプライベートリミテツド,0
1676,7010001229176,新規,0,2022-09-05,2022-09-05,チョコレートデザインホールディングス株式会社,,株式会社,東京都,中央区,京橋２丁目２番１号,,13,102,1040031,,,,,,,2022-09-05,1,,,,,チョコレートデザインホールディングス,0
1677,7010001229192,新規,0,2022-09-05,2022-09-05,フィナンシャルフィールパートナーズ株式会社,,株式会社,東京都,中央区,晴海２丁目３番３０－３８０７号,,13,102,1040053,,,,,,,2022-09-05,1,,,,,フィナンシャルフィールパートナーズ,0
1678,7010001229201,新規,0,2022-09-05,2022-09-05,株式会社やさい,,株式会社,東京都,中央区,晴海３丁目１３番１号ＥＡＳＴ４５１９,,13,102,1040053,,,,,,,2022-09-05,1,,,,,ヤサイ,0
1679,7010001229226,新規,0,2022-09-05,2022-09-05,セントラルオフィス株式会社,,株式会社,東京都,千代田区,神田三崎町２丁目１７－８ドメス水道橋２Ｆ,,13,101,1010061,,,,,,,2022-09-05,1,,,,,セントラルオフィス,0
1680,7010001229275,新規,0,2022-09-05,2022-09-05,株式会社パリグス,,株式会社,東京都,中央区,日本橋３丁目１番４号日本橋さくらビル６階,,13,102,1030027,,,,,,,2022-09-05,1,,,,,パリグス,0
1681,7010001229283,新規,0,2022-09-05,2022-09-05,株式会社くるひ,,株式会社,東京都,中央区,銀座７丁目１０番５号,,13,102,1040061,,,,,,,2022-09-05,1,,,,,,0
1684,7010003038518,新規,0,2022-09-05,2022-09-05,合同会社アイランドシップ４号,,合同会社,東京都,中央区,八丁堀４丁目２番１０号ＡＯＪ税理士法人内,,13,102,1040032,,,,,,,2022-09-05,1,,,,,アイランドシップヨンゴウ,0
1685,7010003038567,新規,0,2022-09-05,2022-09-05,ＩＳＭ合同会社,,合同会社,東京都,千代田区,外神田１丁目１６番１０号,,13,101,1010021,,,,,,,2022-09-05,1,,,,,アイエスエム,0
1698,7010401169427,新規,0,2022-09-05,2022-09-05,株式会社Ｉｔｈｉｎｋ,,株式会社,東京都,港区,西麻布１丁目１４－１井門西麻布ビル５階,,13,103,1060031,,,,,,,2022-09-05,1,,,,,アイシンク,0
1699,7010401169435,新規,0,2022-09-05,2022-09-05,株式会社ａｒｃｕｓ,,株式会社,東京都,港区,六本木５丁目１６番１７号ブランズ飯倉片町２０５,,13,103,1060032,,,,,,,2022-09-05,1,,,,,アルクス,0
1700,7010401169451,新規,0,2022-09-05,2022-09-05,金発科技株式会社,,株式会社,東京都,港区,新橋５丁目１３番１０号ＶＯＲＴ新橋ＮＥＸ７階,,13,103,1050004,,,,,,,2022-09-05,1,,,,,キンハツカギ,0
1701,7010401169476,新規,0,2022-09-05,2022-09-05,株式会社ＬａＢＡＬＬ,,株式会社,東京都,港区,芝２丁目１６番１１号セレブ釉芝公園１階１０１号室,,13,103,1050014,,,,,,,2022-09-05,1,,,,,ラボール,0
1702,7010401169526,新規,0,2022-09-05,2022-09-05,株式会社ジャパンリアルティ・パートナーズ,,株式会社,東京都,港区,南青山４丁目１８番１１号フォレストヒルズイーストウィング２階,,13,103,1070062,,,,,,,2022-09-05,1,,,,,ジャパンリアルティパートナーズ,0
1703,7010403028408,新規,0,2022-09-05,2022-09-05,Ｂａｒ４２合同会社,,合同会社,東京都,港区,三田１丁目３番４０号,,13,103,1080073,,,,,,,2022-09-05,1,,,,,バーフォーティートゥー,0
1705,7010501049314,新規,0,2022-09-05,2022-09-05,株式会社ＫＯＨ,,株式会社,東京都,台東区,千束３丁目１９番９－２０５号メインステージ浅草国際通り,,13,106,1110031,,,,,,,2022-09-05,1,,,,,コウ,0
1708,7010805002968,新規,0,2022-09-05,2022-09-05,医療法人社団ＭＥＯ,,その他の設立登記法人,東京都,大田区,上池台４丁目２１－７ウエルシア薬局２階,,13,111,1450064,,,,,,,2022-09-05,1,,,,,メオ,0
1709,7010901051563,新規,0,2022-09-05,2022-09-05,株式会社ナカムラ,,株式会社,東京都,世田谷区,池尻４丁目２５番５号,,13,112,1540001,,,,,,,2022-09-05,1,,,,,ナカムラ,0
1710,7010901051571,新規,0,2022-09-05,2022-09-05,株式会社ＡＤＵＬＴＥ,,株式会社,東京都,世田谷区,三軒茶屋２丁目１３番１１号,,13,112,1540024,,,,,,,2022-09-05,1,,,,,アデュルト,0
1726,7011001149554,新規,0,2022-09-05,2022-09-05,バリューディファイン株式会社,,株式会社,東京都,渋谷区,神宮前２丁目２番３９－２００１号,,13,113,1500001,,,,,,,2022-09-05,1,,,,,バリューディファイン,0
1727,7011001149562,新規,0,2022-09-05,2022-09-05,株式会社天谷,,株式会社,東京都,渋谷区,神南１丁目９番２号,,13,113,1500041,,,,,,,2022-09-05,1,,,,,アマタニ,0
1729,7011003015317,新規,0,2022-09-05,2022-09-05,Ｌａｃｏｔｔｅ合同会社,,合同会社,東京都,渋谷区,神泉町１０番１５号,,13,113,1500045,,,,,,,2022-09-05,1,,,,,ラコット,0
1730,7011101100061,新規,0,2022-09-05,2022-09-05,株式会社タサカ企画,,株式会社,東京都,新宿区,大久保２丁目２８番１１号,,13,104,1690072,,,,,,,2022-09-05,1,,,,,タサカキカク,0
1731,7011103012131,新規,0,2022-09-05,2022-09-05,合同会社サンクラフト,,合同会社,東京都,新宿区,四谷坂町１１番１０・４０４,,13,104,1600002,,,,,,,2022-09-05,1,,,,,サンクラフト,0
1732,7011201024078,新規,0,2022-09-05,2022-09-05,＿米株式会社,00127711,株式会社,東京都,中野区,上高田１丁目３５番１号,,13,114,1640002,,,,,,,2022-09-05,1,,,,,カミ,0
1733,7011303004507,新規,0,2022-09-05,2022-09-05,合同会社ルナミーラボ,,合同会社,東京都,杉並区,井草２丁目２９番８号,,13,115,1670021,,,,,,,2022-09-05,1,,,,,ルナミーラボ,0
1734,7011401024514,新規,0,2022-09-05,2022-09-05,ＹＯＩＮＥ　ＢＲＡＮＤ　ＪＡＰＡＮ株式会社,,株式会社,東京都,板橋区,前野町１丁目２４番３号,,13,119,1740063,,,,,,,2022-09-05,1,,,,,ヨイネブランドジャパン,0
1740,7011701025575,新規,0,2022-09-05,2022-09-05,株式会社タカテル,,株式会社,東京都,江戸川区,江戸川１丁目６番１３－１０４号,,13,123,1320013,,,,,,,2022-09-05,1,,,,,タカテル,0
1742,7011801041241,新規,0,2022-09-05,2022-09-05,株式会社ＯＧＲ,,株式会社,東京都,足立区,梅島１丁目３４番３号,,13,121,1210816,,,,,,,2022-09-05,1,,,,,オージーアール,0
1746,7012405004774,新規,0,2022-09-05,2022-09-05,一般社団法人ノマワン・フレンド,,その他の設立登記法人,東京都,小金井市,前原町３丁目２２番１１号,,13,210,1840013,,,,,,,2022-09-05,1,,,,,,0
1747,7012701017232,新規,0,2022-09-05,2022-09-05,株式会社ＢＯＩＬＩＮＧ,,株式会社,東京都,東村山市,恩多町１丁目４７番地２７,,13,213,1890011,,,,,,,2022-09-05,1,,,,,ボイリング,0
1751,7020005015654,新規,0,2022-09-05,2022-09-05,一般社団法人ラ・パン,,その他の設立登記法人,神奈川県,横浜市磯子区,西町２番２１号,,14,107,2350007,,,,,,,2022-09-05,1,,,,,ラパン,0
1766,7030003020127,新規,0,2022-09-05,2022-09-05,ＮＫシステムズ合同会社,,合同会社,埼玉県,和光市,丸山台２丁目４番１８号ファミール和光ＩＩＩ２０３,00127721,11,229,3510112,,,,,,,2022-09-05,1,,,,,エヌケーシステムズ,0
1777,7040003020761,新規,0,2022-09-05,2022-09-05,ＰＡＣＩＦＩＣ　ＴＲＡＤＩＮＧ合同会社,,合同会社,千葉県,八街市,大木８１３番地２７－Ｂ,,12,230,2891111,,,,,,,2022-09-05,1,,,,,パシフィックトレーディング,0
1780,7060001035231,新規,0,2022-09-05,2022-09-05,株式会社久白建材,,株式会社,栃木県,小山市,大字羽川７７７番地３５,,09,208,3230012,,,,,,,2022-09-05,1,,,,,クジラケンザイ,0
1785,7080101023506,新規,0,2022-09-05,2022-09-05,アシスト・シン株式会社,,株式会社,静岡県,熱海市,桜木町３４番７２号,,22,205,4130025,,,,,,,2022-09-05,1,,,,,アシストシン,0
1786,7080401026027,新規,0,2022-09-05,2022-09-05,株式会社エージーティーシー,,株式会社,静岡県,浜松市中区,上島１丁目２０番１５号,,22,131,4338122,,,,,,,2022-09-05,1,,,,,エージーティーシー,0
1788,7100001035672,新規,0,2022-09-05,2022-09-05,株式会社ＭＫＭｅｄＴｅｃ,,株式会社,長野県,長野市,松代町西条４１３３番地１,,20,201,3811232,,,,,,,2022-09-05,1,,,,,エムケーメドテック,0
1793,7110001036934,新規,0,2022-09-05,2022-09-05,株式会社ＲＩＮＴＯ,,株式会社,新潟県,新潟市中央区,女池南２丁目７番１７号,,15,103,9500948,,,,,,,2022-09-05,1,,,,,リント,0
1809,7120001248594,新規,0,2022-09-05,2022-09-05,ＦＦＳ株式会社,,株式会社,大阪府,大阪市中央区,南船場２丁目５番８号,,27,128,5420081,,,,,,,2022-09-05,1,,,,,エフエフエス,0
1810,7120003022394,新規,0,2022-09-05,2022-09-05,ＣＨＥＲＲＹ　ＢＬＯＳＳＯＭパートナーズ合同会社,,合同会社,大阪府,大阪市中央区,平野町２丁目３番７号アーバンエース北浜ビル１階,,27,128,5410046,,,,,,,2022-09-05,1,,,,,チェリーブロッサムパートナーズ,0
1821,7120901046437,新規,0,2022-09-05,2022-09-05,株式会社イディット,,株式会社,大阪府,箕面市,百楽荘３丁目９番１２号,,27,220,5620042,,,,,,,2022-09-05,1,,,,,イディット,0
1822,7120903004293,新規,0,2022-09-05,2022-09-05,ジャスミンブルーシッププロパティーズ合同会社,,合同会社,大阪府,高槻市,松原町４番１７号,,27,207,5690086,,,,,,,2022-09-05,1,,,,,ジャスミンブルーシッププロパティーズ,0
1831,7130001072556,新規,0,2022-09-05,2022-09-05,株式会社杏,,株式会社,京都府,京都市伏見区,下鳥羽芹川町４４番地１,,26,109,6128391,,,,,,,2022-09-05,1,,,,,アン,0
1832,7130001072572,新規,0,2022-09-05,2022-09-05,京都和家株式会社,,株式会社,京都府,京都市南区,西九条島町５３番地５,,26,107,6018431,,,,,,,2022-09-05,1,,,,,キョウトワカ,0
1847,7140001127251,新規,0,2022-09-05,2022-09-05,株式会社ゴーフォワード,,株式会社,兵庫県,神戸市中央区,磯上通８丁目１－２９カサベラビルＣ＆Ｍ４０３号室,,28,110,6510086,,,,,,,2022-09-05,1,,,,,ゴーフォワード,0
1848,7140001127301,新規,0,2022-09-05,2022-09-05,株式会社ｔ．ｔ．ｗ,,株式会社,兵庫県,神戸市東灘区,青木２丁目１５－７エクセーブ青木２０１,,28,101,6580027,,,,,,,2022-09-05,1,,,,,ティティダブル,0
1851,7140003018085,新規,0,2022-09-05,2022-09-05,合同会社ベゴニア,,合同会社,兵庫県,尼崎市,塚口本町５丁目５番１－９０２,,28,202,6610001,,,,,,,2022-09-05,1,,,,,ベゴニア,0
1852,7140003018093,新規,0,2022-09-05,2022-09-05,合同会社ＦＲＥＤ’Ｓ　ＪＡＰＡＮ,,合同会社,兵庫県,神戸市中央区,磯辺通４丁目１番４８－１７０４号,,28,110,6510084,,,,,,,2022-09-05,1,,,,,フレッズジャパン,0
1853,7140005026301,新規,0,2022-09-05,2022-09-05,一般社団法人猫の手くらぶ,,その他の設立登記法人,兵庫県,養父市,大屋町宮垣２２４番地１２２,,28,222,6670306,,,,,,,2022-09-05,1,,,,,ネコノテクラブ,0
1860,7170001017268,新規,0,2022-09-05,2022-09-05,ドンケン・テクノロジーズ株式会社,,株式会社,和歌山県,和歌山市,吉田３８６和歌山プラザビル４０２,,30,201,6408343,,,,,,,2022-09-05,1,,,,,ドンケンテクノロジーズ,0
1874,7180001152865,新規,0,2022-09-05,2022-09-05,株式会社澤田設備設計,,株式会社,愛知県,名古屋市昭和区,白金２丁目８番１－２０６号,,23,107,4660058,,,,,,,2022-09-05,1,,,,,サワダセツビセッケイ,0
1880,7180005019920,新規,0,2022-09-05,2022-09-05,特定非営利活動法人日本藝術ラボ,,その他の設立登記法人,愛知県,海部郡蟹江町,桜２丁目５５番地パナホームガーデンＡ棟,,23,425,4970038,,,,,,,2022-09-05,1,,,,,ニホンゲイジュツラボ,0
1882,7200001040423,新規,0,2022-09-05,2022-09-05,白鳥印刷株式会社,,株式会社,岐阜県,郡上市,白鳥町白鳥２０９番地１,,21,219,5015121,,,,,,,2022-09-05,1,,,,,シロトリインサツ,0
1885,7240001060302,新規,0,2022-09-05,2022-09-05,株式会社大崎鉱商,,株式会社,広島県,豊田郡大崎上島町,木江５２１１－４,,34,431,7250401,,,,,,,2022-09-05,1,,,,,オオサキコウショウ,0
1886,7240001060310,新規,0,2022-09-05,2022-09-05,株式会社マークサービス,,株式会社,広島県,広島市南区,東雲１丁目１４番１０－３０１号,,34,103,7340022,,,,,,,2022-09-05,1,,,,,マークサービス,0
1887,7240001060335,新規,0,2022-09-05,2022-09-05,株式会社Ｐｅａｋｓ,,株式会社,広島県,世羅郡世羅町,大字東神崎３５７番地１１,,34,462,7221114,,,,,,,2022-09-05,1,,,,,ピークス,0
1892,7260001037208,新規,0,2022-09-05,2022-09-05,ＩＢＮファイナンシャル株式会社,,株式会社,岡山県,岡山市北区,七日市西町７番４８号６１３,,33,101,7000851,,,,,,,2022-09-05,1,,,,,アイビーエヌファイナンシャル,0
1893,7260001037224,新規,0,2022-09-05,2022-09-05,株式会社キュアー,,株式会社,岡山県,倉敷市,浜ノ茶屋２３６番地１浜ノ茶屋山田ビル２０２,,33,202,7100061,,,,,,,2022-09-05,1,,,,,キュアー,0
1894,7260003004024,新規,0,2022-09-05,2022-09-05,明和不動産コンサル合同会社,,合同会社,岡山県,岡山市北区,大元１丁目８番２０号,,33,101,7000924,,,,,,,2022-09-05,1,,,,,メイワフドウサンコンサル,0
1902,7290001098759,新規,0,2022-09-05,2022-09-05,ＬＥＤＳ株式会社,,株式会社,福岡県,八女市,吉田１６７７番地９,,40,210,8340006,,,,,,,2022-09-05,1,,,,,レッズ,0
1903,7290001098783,新規,0,2022-09-05,2022-09-05,株式会社Ｔａｋｅ‐Ｏｎｅ,,株式会社,福岡県,福岡市南区,塩原３丁目２１番３６号１Ｆ,,40,134,8150032,,,,,,,2022-09-05,1,,,,,テイクワン,0
1904,7290001098800,新規,0,2022-09-05,2022-09-05,株式会社鶴亀,,株式会社,福岡県,福岡市博多区,御供所町１番１８号,,40,132,8120037,,,,,,,2022-09-05,1,,,,,ツルカメ,0
1905,7290001098833,新規,0,2022-09-05,2022-09-05,株式会社ＹＪイノベーション,,株式会社,福岡県,朝倉市,頓田４５３番地２,,40,228,8380064,,,,,,,2022-09-05,1,,,,,ワイジェイイノベーション,0
1906,7290003012908,新規,0,2022-09-05,2022-09-05,合同会社エヌプラス,,合同会社,福岡県,三井郡大刀洗町,大字本郷４７７番地１,,40,503,8301211,,,,,,,2022-09-05,1,,,,,エヌプラス,0
1907,7290003012916,新規,0,2022-09-05,2022-09-05,Ｕｐｓｅｔ合同会社,,合同会社,福岡県,福岡市博多区,板付５丁目７－１５,,40,132,8120888,,,,,,,2022-09-05,1,,,,,アップセット,0
1919,7330001030089,新規,0,2022-09-05,2022-09-05,株式会社寺村ファーム,,株式会社,熊本県,熊本市西区,河内町岳９００番地,,43,103,8615344,,,,,,,2022-09-05,1,,,,,テラソンファーム,0
1926,7350001017935,新規,0,2022-09-05,2022-09-05,株式会社ヒムカトラスト,,株式会社,宮崎県,延岡市,鯛名町５４４番地１,,45,203,8890516,,,,,,,2022-09-05,1,,,,,ヒムカトラスト,0
1927,7350001017943,新規,0,2022-09-05,2022-09-05,株式会社エステック,,株式会社,宮崎県,日向市,大字富高１０６番地１,,45,206,8830034,,,,,,,2022-09-05,1,,,,,エステック,0
1929,7360001030920,新規,0,2022-09-05,2022-09-05,株式会社ＨＧＤＣＴ,,株式会社,沖縄県,中頭郡読谷村,字大湾３４番地,,47,324,9040313,,,,,,,2022-09-05,1,,,,,ハグダクト,0
1932,7370003005820,新規,0,2022-09-05,2022-09-05,合同会社あつみ設計,,合同会社,宮城県,仙台市若林区,南小泉３丁目１２番８号,,04,103,9840827,,,,,,,2022-09-05,1,,,,,アツミセッケイ,0
1934,7400001015990,新規,0,2022-09-05,2022-09-05,株式会社上澤工業,,株式会社,岩手県,盛岡市,渋民字岩鼻７５番地６,,03,201,0284132,,,,,,,2022-09-05,1,,,,,カミサワコウギョウ,0
1938,7400003002970,新規,0,2022-09-05,2022-09-05,泉企画合同会社,,合同会社,岩手県,紫波郡紫波町,平沢字長尾沢８８番地３２,,03,321,0283308,,,,,,,2022-09-05,1,,,,,イズミキカク,0
1944,7430001087425,新規,0,2022-09-05,2022-09-05,株式会社北日本マテリアル,,株式会社,北海道,江別市,上江別４６４番地の１エステリオン４０２号室,,01,217,0670064,,,,,,,2022-09-05,1,,,,,キタニホンマテリアル,0
1945,7430001087433,新規,0,2022-09-05,2022-09-05,株式会社ｇｏｏｄｌｕｃｋ,,株式会社,北海道,札幌市北区,新川三条３丁目４番１８号,,01,102,0010923,,,,,,,2022-09-05,1,,,,,グットラック,0
1948,7430003014245,新規,0,2022-09-05,2022-09-05,合同会社ＬｉｖｅＮｏｗ,,合同会社,北海道,札幌市清田区,北野五条２丁目１番１号,,01,110,0040865,,,,,,,2022-09-05,1,,,,,ライブナウ,0
1949,7430005014540,新規,0,2022-09-05,2022-09-05,一般社団法人北海道探偵防犯業連合会,,その他の設立登記法人,北海道,余市郡余市町,入舟町３１０－１,,01,408,0460011,,,,,,,2022-09-05,1,,,,,ホッカイドウタンテイボウハンギョウレンゴウカイ,0
1958,7500001024445,新規,0,2022-09-05,2022-09-05,株式会社Ｆｕｔｕｒｅ　ｐｌｕｓ,,株式会社,愛媛県,松山市,愛光町１３－１４,,38,201,7900064,,,,,,,2022-09-05,1,,,,,フューチャープラス,0
1960,7500003002886,新規,0,2022-09-05,2022-09-05,合同会社翠,,合同会社,愛媛県,新居浜市,庄内町１丁目９番１６号パークマンションアイワ１３５号,,38,205,7920811,,,,,,,2022-09-05,1,,,,,スイ,0
1961,7700150111619,新規,0,2022-09-05,2022-09-05,ＬＩＫＥ．ＦＭ　ＩＮＣ日本駐在員事務所,,外国会社等,東京都,港区,赤坂２丁目２１－４天翔赤坂ＡＮＮＥＸビル４階４０３号室,,13,103,1070052,２８０１　Ｇａｒｄｅｎ　Ａｖｅ　Ｎ．Ｒｅｎｔｏｎ，ＷＡ，ＵＳＡ，９８０５６,,,,,,2022-09-05,1,,,,,ライクドツトエフエムインクニホンチユウザイインジムシヨ,0
1965,8010001229101,新規,0,2022-09-05,2022-09-05,株式会社ＬＳ　ＪＡＰＡＮ,,株式会社,東京都,千代田区,霞が関３丁目２番６号東京倶楽部ビルディング１３階,,13,101,1000013,,,,,,,2022-09-05,1,,,,,エルエスジャパン,0
1966,8010001229191,新規,0,2022-09-05,2022-09-05,黄金酒造株式会社,,株式会社,東京都,千代田区,麹町４丁目３番１号,,13,101,1020083,,,,,,,2022-09-05,1,,,,,コガネシュゾウ,0
1967,8010001229274,新規,0,2022-09-05,2022-09-05,株式会社ユニジョブ,,株式会社,東京都,千代田区,東神田２丁目４番５号,,13,101,1010031,,,,,,,2022-09-05,1,,,,,ユニジョブ,0
1968,8010001229282,新規,0,2022-09-05,2022-09-05,Ｄａｉｋｏ’ｓ株式会社,,株式会社,東京都,中央区,日本橋人形町３丁目１２番１－８０５号,,13,102,1030013,,,,,,,2022-09-05,1,,,,,,0
1973,8010005035504,新規,0,2022-09-05,2022-09-05,エイパック・ツー特定目的会社,,その他の設立登記法人,東京都,千代田区,丸の内２丁目３番２号郵船ビルアルタードムス・ジャパン株式会社内,,13,101,1000005,,,,,,,2022-09-05,1,,,,,エイパックツー,0
1976,8010401169335,新規,0,2022-09-05,2022-09-05,ムーンワルツ株式会社,,株式会社,東京都,港区,港南１丁目９番３６号,,13,103,1080075,,,,,,,2022-09-05,1,,,,,ムーンワルツ,0
1977,8010401169426,新規,0,2022-09-05,2022-09-05,株式会社ヒトコイ,,株式会社,東京都,港区,赤坂８丁目４番１４号青山タワープレイス８Ｆ,,13,103,1070052,,,,,,,2022-09-05,1,,,,,ヒトコイ,0
1978,8010401169475,新規,0,2022-09-05,2022-09-05,Ｐｏｌａｒｉｓ株式会社,,株式会社,東京都,港区,赤坂６丁目１２番１４－２０２号,,13,103,1070052,,,,,,,2022-09-05,1,,,,,ポラリス,0
1979,8010401169525,新規,0,2022-09-05,2022-09-05,株式会社ネクス・ソリューションズ,,株式会社,東京都,港区,南青山５丁目４番３０号,,13,103,1070062,,,,,,,2022-09-05,1,,,,,ネクスソリューションズ,0
1982,8010501049255,新規,0,2022-09-05,2022-09-05,ＧｌｏｂａｌＭｏｔｈｅｒＣａｒｅ株式会社,,株式会社,東京都,台東区,台東２丁目６番地６号,,13,106,1100016,,,,,,,2022-09-05,1,,,,,グローバルマーザーケア,0
1985,8010601061779,新規,0,2022-09-05,2022-09-05,ＤＥＬＵＸＥ株式会社,,株式会社,東京都,江東区,東雲１丁目９番３２－３８０８号,,13,108,1350062,,,,,,,2022-09-05,1,,,,,デラックス,0
1986,8010601061795,新規,0,2022-09-05,2022-09-05,株式会社ＥＴＡＰＥ,,株式会社,東京都,墨田区,東駒形２丁目２１番６号,,13,107,1300005,,,,,,,2022-09-05,1,,,,,エタップ,0
1989,8010701043165,新規,0,2022-09-05,2022-09-05,株式会社ゲンキラボ,,株式会社,東京都,品川区,大井１丁目６番３号アゴラ大井町３階,,13,109,1400014,,,,,,,2022-09-05,1,,,,,ゲンキラボ,0
1991,8010801033248,新規,0,2022-09-05,2022-09-05,株式会社シライ企画,,株式会社,東京都,大田区,南馬込５丁目２５番２号,,13,111,1430025,,,,,,,2022-09-05,1,,,,,シライキカク,0
1999,8011001149537,新規,0,2022-09-05,2022-09-05,株式会社ＰｕｓｈＦｏｒｗａｒｄ,,株式会社,東京都,渋谷区,桜丘町２３番１７号シティコート桜丘４０８,,13,113,1500031,,,,,,,2022-09-05,1,,,,,プッシュフォワード,0
2000,8011001149553,新規,0,2022-09-05,2022-09-05,株式会社ＮＡＴＳＵ,,株式会社,東京都,渋谷区,渋谷１丁目１７番６号,,13,113,1500002,,,,,,,2022-09-05,1,,,,,ナツ,0
2001,8011001149561,新規,0,2022-09-05,2022-09-05,株式会社シャムス,,株式会社,東京都,渋谷区,代々木５丁目２３番４号,,13,113,1510053,,,,,,,2022-09-05,1,,,,,シャムス,0
2009,8011101100077,新規,0,2022-09-05,2022-09-05,Ｍｅｄｉｖｏｋｅ株式会社,,株式会社,東京都,新宿区,西新宿３丁目３番１３号西新宿水間ビル２Ｆ,,13,104,1600023,,,,,,,2022-09-05,1,,,,,メディボーク,0
2010,8011103012130,新規,0,2022-09-05,2022-09-05,合同会社ＶＩＮＧＲＡＹ,,合同会社,東京都,新宿区,西早稲田２丁目５―１３ＨＪＰＬＡＣＥ２０３―１１号室,,13,104,1690051,,,,,,,2022-09-05,1,,,,,ヴィングレイ,0
2013,8011203003896,新規,0,2022-09-05,2022-09-05,合同会社ＫＩＺＵＮＡ,,合同会社,東京都,中野区,東中野３丁目１４－５エクセレント東中野２１１,,13,114,1640003,,,,,,,2022-09-05,1,,,,,キズナ,0
2014,8011401024513,新規,0,2022-09-05,2022-09-05,株式会社くつざわ電気,,株式会社,東京都,板橋区,南常盤台１丁目３９番１０号,,13,119,1740072,,,,,,,2022-09-05,1,,,,,クツザワデンキ,0
2019,8011701025582,新規,0,2022-09-05,2022-09-05,株式会社Ｔ　ＷＡＶＥ,,株式会社,東京都,江戸川区,二之江町１３８２番地,,13,123,1340093,,,,,,,2022-09-05,1,,,,,ティーウェーブ,0
2024,8012303001716,新規,0,2022-09-05,2022-09-05,エライザ合同会社,,合同会社,東京都,町田市,つくし野４丁目９番地５６,,13,209,1940001,,,,,,,2022-09-05,1,,,,,エライザ,0
2025,8012401039609,新規,0,2022-09-05,2022-09-05,株式会社ＲＥＩＳＥＩ,,株式会社,東京都,稲城市,坂浜１３２６番地の１レジデンス大塚１０３号室,,13,225,2060822,,,,,,,2022-09-05,1,,,,,レイセイ,0
2027,8012403005567,新規,0,2022-09-05,2022-09-05,ＲｅＳｔａｒｔ合同会社,,合同会社,東京都,府中市,若松町４丁目２４番地の１５ベルヴィラージュ２０１,,13,206,1830005,,,,,,,2022-09-05,1,,,,,リスタート,0
2028,8012701017231,新規,0,2022-09-05,2022-09-05,株式会社Ｊ＆Ｋ,,株式会社,東京都,小平市,小川西町３丁目１９番１６号,,13,211,1870035,,,,,,,2022-09-05,1,,,,,ジェイアンドケイ,0
2030,8012801021810,新規,0,2022-09-05,2022-09-05,宣之禾国際株式会社,,株式会社,東京都,立川市,曙町２丁目３２番７Ｂｉｇ武蔵野立川３０２号室,,13,202,1900012,,,,,,,2022-09-05,1,,,,,センノカコクサイ,0
2035,8020001148003,新規,0,2022-09-05,2022-09-05,さくらＷＭヘルスケア株式会社,,株式会社,神奈川県,横浜市中区,花咲町１丁目４６番地１ＧＳプラザ桜木町駅前５０８,,14,104,2310063,,,,,,,2022-09-05,1,,,,,サクラダブリューエムヘルスケア,0
2046,8030001149917,新規,0,2022-09-05,2022-09-05,ＲＥＤ株式会社,,株式会社,埼玉県,上尾市,泉台３丁目２２番地４,,11,219,3620062,,,,,,,2022-09-05,1,,,,,レッド,0
2047,8030001149982,新規,0,2022-09-05,2022-09-05,株式会社トラシック,,株式会社,埼玉県,越谷市,神明町３丁目３５４番地７,,11,222,3430805,,,,,,,2022-09-05,1,,,,,トラシック,0
2050,8040001124902,新規,0,2022-09-05,2022-09-05,株式会社トリプル,,株式会社,千葉県,千葉市中央区,院内１丁目２番２１号,,12,101,2600018,,,,,,,2022-09-05,1,,,,,トリプル,0
2051,8040001124951,新規,0,2022-09-05,2022-09-05,株式会社ＨＩＲＯ,,株式会社,千葉県,船橋市,三山２丁目４３番１６号,,12,204,2740072,,,,,,,2022-09-05,1,,,,,ヒロ,0
2055,8040003020760,新規,0,2022-09-05,2022-09-05,合同会社さにぃひるず,,合同会社,千葉県,柏市,桜台３番１１号桜台染谷ハイツ１０２,,12,217,2770012,,,,,,,2022-09-05,1,,,,,サニィヒルズ,0
2059,8050003006817,新規,0,2022-09-05,2022-09-05,合同会社輔木,,合同会社,茨城県,古河市,桜町３番２５号Ｗｏｏｄｙ桜２０１,,08,204,3060036,,,,,,,2022-09-05,1,,,,,タスキ,0
2061,8060001035230,新規,0,2022-09-05,2022-09-05,株式会社クマクラ,,株式会社,栃木県,宇都宮市,瑞穂１丁目２５番地１５,,09,201,3210921,,,,,,,2022-09-05,1,,,,,クマクラ,0
2062,8060003004209,新規,0,2022-09-05,2022-09-05,合同会社ＭｏＭｏ,,合同会社,栃木県,河内郡上三川町,大字上三川４８１３－７,,09,301,3290611,,,,,,,2022-09-05,1,,,,,モモ,0
2069,8080001025163,新規,0,2022-09-05,2022-09-05,株式会社Ｓベルト,,株式会社,静岡県,静岡市清水区,柏尾７５９番地の３,,22,103,4240009,,,,,,,2022-09-05,1,,,,,エスベルト,0
2079,8080401026026,新規,0,2022-09-05,2022-09-05,株式会社グレイス,,株式会社,静岡県,湖西市,ときわ３丁目１１番６３号,,22,221,4310428,,,,,,,2022-09-05,1,,,,,グレイス,0
2085,8100001035671,新規,0,2022-09-05,2022-09-05,株式会社ちゃいポ,,株式会社,長野県,松本市,城山７番１号、フェリオ城山１０１号室,,20,202,3900866,,,,,,,2022-09-05,1,,,,,チャイポ,0
2089,8100003006679,新規,0,2022-09-05,2022-09-05,合同会社北アルプスエネルギーパワー,,合同会社,長野県,北安曇郡白馬村,大字北城５８２３番地１太洋白馬ハイツ２２１号室,,20,485,3999301,,,,,,,2022-09-05,1,,,,,キタアルプスエネルギーパワー,0
2092,8110001036925,新規,0,2022-09-05,2022-09-05,株式会社湯本空調,,株式会社,新潟県,長岡市,小国町千谷沢１５６番地,,15,202,9495201,,,,,,,2022-09-05,1,,,,,ユモトクウチョウ,0
2093,8110001036933,新規,0,2022-09-05,2022-09-05,株式会社ＳＧ　ＲＩＳＥ,,株式会社,新潟県,新潟市中央区,米山１丁目８番地１１本成寺ビル２Ｆ,,15,103,9500916,,,,,,,2022-09-05,1,,,,,エスジーライズ,0
2110,8120001248627,新規,0,2022-09-05,2022-09-05,株式会社ＳＢＣ,,株式会社,大阪府,門真市,北巣本町２４番１０号,,27,223,5710073,,,,,,,2022-09-05,1,,,,,エスビーシー,0
2111,8120001248651,新規,0,2022-09-05,2022-09-05,アスクラピウス株式会社,,株式会社,大阪府,大阪市阿倍野区,阿倍野筋２丁目１番３７号,,27,119,5450052,,,,,,,2022-09-05,1,,,,,アスクラピウス,0
2112,8120001248684,新規,0,2022-09-05,2022-09-05,ＲＨ２株式会社,,株式会社,大阪府,大阪市福島区,鷺洲３丁目６番１０－７０３号,,27,103,5530002,,,,,,,2022-09-05,1,,,,,アールエイチツー,0
2114,8120005023167,新規,0,2022-09-05,2022-09-05,夕陽丘司法書士法人,,その他の設立登記法人,大阪府,大阪市天王寺区,上本町６丁目９番１０号青山ビル本館６Ｆ,,27,109,5430001,,,,,,,2022-09-05,1,,,,,ユウヒガオカ,0
2115,8120103004837,新規,0,2022-09-05,2022-09-05,合同会社バルバス・バウ,,合同会社,大阪府,堺市北区,北花田町１丁１６番地,,27,146,5918002,,,,,,,2022-09-05,1,,,,,バルバスバウ,0
2117,8120901046444,新規,0,2022-09-05,2022-09-05,株式会社ＶＩＹＥＵＸ,,株式会社,大阪府,高槻市,今城町１５番２６号,,27,207,5691135,,,,,,,2022-09-05,1,,,,,ヴィユー,0
2118,8120901046452,新規,0,2022-09-05,2022-09-05,ＣＯＬＯＲＳ株式会社,,株式会社,大阪府,茨木市,郡３丁目２８番４号,,27,211,5670072,,,,,,,2022-09-05,1,,,,,カラーズ,0
2119,8120903004292,新規,0,2022-09-05,2022-09-05,ＴＨコーポレーション合同会社,,合同会社,大阪府,箕面市,桜ケ丘３丁目１４番３１号,,27,220,5620046,,,,,,,2022-09-05,1,,,,,ティエイチコーポレーション,0
2127,8130001072563,新規,0,2022-09-05,2022-09-05,株式会社ＧＵＴＳ,,株式会社,京都府,京都市南区,上鳥羽中河原町６７番地,,26,107,6018142,,,,,,,2022-09-05,1,,,,,ガッツ,0
2128,8140001127259,新規,0,2022-09-05,2022-09-05,株式会社ＫＤＣ,,株式会社,兵庫県,神戸市東灘区,本山北町５丁目７番２号,,28,101,6580003,,,,,,,2022-09-05,1,,,,,ケーディーシー,0
2129,8140001127300,新規,0,2022-09-05,2022-09-05,株式会社神戸経営Ｌａｂｏ,,株式会社,兵庫県,神戸市中央区,八幡通３丁目２番５号（Ｉ・Ｎ東洋ビル６０７号）,,28,110,6510085,,,,,,,2022-09-05,1,,,,,コウベケイエイラボ,0
2141,8170001017267,新規,0,2022-09-05,2022-09-05,株式会社ＢＴパートナーズ,,株式会社,和歌山県,和歌山市,狐島５１１番地,,30,201,6408412,,,,,,,2022-09-05,1,,,,,ビーティーパートナーズ,0
2151,8180001152872,新規,0,2022-09-05,2022-09-05,株式会社ｖａｎｓｌｉｎｅｒ,,株式会社,愛知県,名古屋市中区,栄５丁目２６番３９号ＧＳ栄ビル３階,,23,106,4600008,,,,,,,2022-09-05,1,,,,,バンズライナー,0
2152,8180001152930,新規,0,2022-09-05,2022-09-05,株式会社優心,,株式会社,愛知県,名古屋市緑区,浦里２丁目１９５番地の３,,23,114,4580847,,,,,,,2022-09-05,1,,,,,ユウシン,0
2159,8180003024228,新規,0,2022-09-05,2022-09-05,合同会社ＳＳＳ,,合同会社,愛知県,名古屋市中村区,菊水町２丁目１番１２号,,23,105,4530068,,,,,,,2022-09-05,1,,,,,トリプルエス,0
2162,8200001040422,新規,0,2022-09-05,2022-09-05,株式会社Ｔ‐ｓｔｙｌｅ,,株式会社,岐阜県,土岐市,泉島田町１丁目３７番地,,21,212,5095134,,,,,,,2022-09-05,1,,,,,ティースタイル,0
2163,8220001025017,新規,0,2022-09-05,2022-09-05,株式会社オールド・ロマン,,株式会社,石川県,金沢市,窪７丁目２９９番地,,17,201,9218151,,,,,,,2022-09-05,1,,,,,オールドロマン,0
2167,8230001019513,新規,0,2022-09-05,2022-09-05,株式会社ラポーズ７,,株式会社,富山県,射水市,塚越５５９－２,,16,211,9390313,,,,,,,2022-09-05,1,,,,,ラポーズセブン,0
2168,8230003001907,新規,0,2022-09-05,2022-09-05,合同会社小路パートナーズ,,合同会社,富山県,下新川郡入善町,小摺戸１１６３番地,,16,342,9390634,,,,,,,2022-09-05,1,,,,,ショウジパートナーズ,0
2174,8260001037215,新規,0,2022-09-05,2022-09-05,株式会社Ｃキューブ・コンサルティング,,株式会社,岡山県,岡山市北区,本町２番５号ちゅうぎん駅前ビル４階,,33,101,7000901,,,,,,,2022-09-05,1,,,,,シーキューブコンサルティング,0
2175,8260001037223,新規,0,2022-09-05,2022-09-05,株式会社Ｏｎｅ　Ｌｅａｆ,,株式会社,岡山県,総社市,西坂台１０２番地,,33,208,7191165,,,,,,,2022-09-05,1,,,,,ワンリーフ,0
2180,8260003004023,新規,0,2022-09-05,2022-09-05,合同会社アドバンス,,合同会社,岡山県,岡山市中区,藤原西町２丁目６番５７号,,33,102,7038244,,,,,,,2022-09-05,1,,,,,アドバンス,0
2181,8280001008775,新規,0,2022-09-05,2022-09-05,株式会社ＨＩＣ,,株式会社,島根県,出雲市,築山新町２番地３１,,32,203,6930029,,,,,,,2022-09-05,1,,,,,エイチアイシー,0
2186,8290001098790,新規,0,2022-09-05,2022-09-05,株式会社Ｅ‐ＨＡトータルサービス,,株式会社,福岡県,福岡市東区,多の津４丁目５番１２号,,40,131,8130034,,,,,,,2022-09-05,1,,,,,イーエイチエートータルサービス,0
2187,8290001098799,新規,0,2022-09-05,2022-09-05,株式会社ナオヤ,,株式会社,福岡県,宗像市,日の里２丁目２３番地１,,40,220,8113425,,,,,,,2022-09-05,1,,,,,ナオヤ,0
2189,8290801028856,新規,0,2022-09-05,2022-09-05,ケミコ福岡株式会社,,株式会社,福岡県,鞍手郡鞍手町,大字中山４９番地４３,,40,402,8071312,,,,,,,2022-09-05,1,,,,,ケミコフクオカ,0
2192,8290803004194,新規,0,2022-09-05,2022-09-05,辰氏合同会社,,合同会社,福岡県,北九州市八幡西区,光貞台１丁目３番２号（１０６号）,,40,109,8070805,,,,,,,2022-09-05,1,,,,,タツシ,0
2194,8310003004439,新規,0,2022-09-05,2022-09-05,Ｈｅａｌｔｈｒｅｅ合同会社,,合同会社,長崎県,長崎市,大黒町１０－１０ＫｏＫｏＲｏビル６ＦＳ号室,,42,201,8500057,,,,,,,2022-09-05,1,,,,,ヘルスリー,0
2197,8320001019306,新規,0,2022-09-05,2022-09-05,株式会社ＴＲＡＤ,,株式会社,大分県,大分市,城崎町１丁目３番２１号城崎藤野ビル１Ｆ店舗２,,44,201,8700045,,,,,,,2022-09-05,1,,,,,トラッド,0
2199,8340001024997,新規,0,2022-09-05,2022-09-05,株式会社Ｄｅａｒ,,株式会社,鹿児島県,霧島市,国分府中町２２番１１号,,46,218,8994346,,,,,,,2022-09-05,1,,,,,ディアー,0
2200,8350001017934,新規,0,2022-09-05,2022-09-05,株式会社山商幸産,,株式会社,宮崎県,日向市,永江町２丁目１１２番地,,45,206,8830015,,,,,,,2022-09-05,1,,,,,ヤマショウコウサン,0
2201,8350001017942,新規,0,2022-09-05,2022-09-05,マサオ産業株式会社,,株式会社,宮崎県,日向市,上町１０番１４号,,45,206,8830044,,,,,,,2022-09-05,1,,,,,マサオサンギョウ,0
2202,8350003004154,新規,0,2022-09-05,2022-09-05,合同会社ＷＡＭ,,合同会社,宮崎県,都城市,大王町５街区１７号スカイコート大王３０３,,45,202,8850026,,,,,,,2022-09-05,1,,,,,ワム,0
2206,8370001049018,新規,0,2022-09-05,2022-09-05,株式会社ごきげんラボ,,株式会社,宮城県,仙台市青葉区,吉成１丁目９番１６号,,04,101,9893205,,,,,,,2022-09-05,1,,,,,ゴキゲンラボ,0
2216,8380003005265,新規,0,2022-09-05,2022-09-05,合同会社ＡＳＫ,,合同会社,福島県,郡山市,富久山町久保田字古町２３５番地１,,07,203,9638071,,,,,,,2022-09-05,1,,,,,アスク,0
2223,8430001087416,新規,0,2022-09-05,2022-09-05,株式会社ＭＯＫＥ,,株式会社,北海道,札幌市北区,北三十二条西３丁目２番７号ノースシティ３２－１０２号,,01,102,0010032,,,,,,,2022-09-05,1,,,,,モケ,0
2224,8460103001478,新規,0,2022-09-05,2022-09-05,合同会社Ｔｏｋｉａ,,合同会社,北海道,帯広市,緑ケ丘二条通５丁目１番地リバーサイドＪＯＹ１０３号室,,01,207,0800842,,,,,,,2022-09-05,1,,,,,トキア,0
2231,8490001010272,新規,0,2022-09-05,2022-09-05,株式会社スライムＯＮＥ,,株式会社,高知県,高知市,若松町１３番１７号,,39,201,7810812,,,,,,,2022-09-05,1,,,,,スライムワン,0
2232,8490001010280,新規,0,2022-09-05,2022-09-05,Ｇ１インターナショナル株式会社,,株式会社,高知県,香南市,香我美町山北７５７番地１０,,39,211,7815453,,,,,,,2022-09-05,1,,,,,ジーワンインターナショナル,0
2233,8500001024436,新規,0,2022-09-05,2022-09-05,株式会社Ｍａｕｌｏａ　ＨＤ,,株式会社,愛媛県,松山市,朝生田町６丁目２番５号,,38,201,7900952,,,,,,,2022-09-05,1,,,,,マウロアホールディングス,0
2249,9010001229109,新規,0,2022-09-05,2022-09-05,Ａ‐ＣＯＲＤ株式会社,,株式会社,東京都,中央区,湊２丁目１１番１－５２３号,,13,102,1040043,,,,,,,2022-09-05,1,,,,,エーコード,0
2250,9010001229190,新規,0,2022-09-05,2022-09-05,株式会社ＮＢＵ,,株式会社,東京都,中央区,日本橋蛎殻町１丁目１７－２ライオンズマンション日本橋１０７号,,13,102,1030014,,,,,,,2022-09-05,1,,,,,エヌビーユー,0
2251,9010001229208,新規,0,2022-09-05,2022-09-05,尚九国際株式会社,,株式会社,東京都,文京区,湯島３丁目３７－１３ＴＳｏｋａｃｈｉｍａｃｈｉ５０３号室,,13,105,1130034,,,,,,,2022-09-05,1,,,,,シャンジウ,0
2252,9010001229249,新規,0,2022-09-05,2022-09-05,株式会社ＫＳ　Ｃｏｍｐａｎｙ,,株式会社,東京都,中央区,入船２丁目２番１０－９０４号,,13,102,1040042,,,,,,,2022-09-05,1,,,,,ケーエスカンパニー,0
2253,9010001229273,新規,0,2022-09-05,2022-09-05,株式会社リセカ,,株式会社,東京都,中央区,勝どき５丁目３番１－２４１６号,,13,102,1040054,,,,,,,2022-09-05,1,,,,,リセカ,0
2264,9010403028406,新規,0,2022-09-05,2022-09-05,合同会社ゴールドＫ１,,合同会社,東京都,港区,虎ノ門３丁目２２番１０－２０１号,,13,103,1050001,,,,,,,2022-09-05,1,,,,,ゴールドケーワン,0
2265,9010403028439,新規,0,2022-09-05,2022-09-05,ＳＭＰ合同会社,,合同会社,東京都,港区,南青山２丁目２番１５号,,13,103,1070062,,,,,,,2022-09-05,1,,,,,エスエムピー,0
2270,9010503006708,新規,0,2022-09-05,2022-09-05,合同会社ＬＡＳＥＲ．,,合同会社,東京都,台東区,台東１丁目１９番５号シャトレ秋葉原２０２,,13,106,1100016,,,,,,,2022-09-05,1,,,,,レーザー,0
2273,9010601061794,新規,0,2022-09-05,2022-09-05,株式会社ｎｉｘｉｎｃ,,株式会社,東京都,江東区,有明１丁目１番１７号シティタワー有明１１０８,,13,108,1350063,,,,,,,2022-09-05,1,,,,,ニクスインク,0
2276,9010701043148,新規,0,2022-09-05,2022-09-05,株式会社ＣＯＮＴＥＭＰＯＲＡＲＹ　ＴＯＫＹＯ,,株式会社,東京都,品川区,東品川１丁目３２番８号,,13,109,1400002,,,,,,,2022-09-05,1,,,,,コンテンポラリートウキョウ,0
2277,9010701043164,新規,0,2022-09-05,2022-09-05,株式会社Ｇｏｏｄ　Ｓｔａｎｃｅ,,株式会社,東京都,品川区,上大崎３丁目１４－３７ＪＥＳＣＯ目黒ビル５Ｆ,,13,109,1410021,,,,,,,2022-09-05,1,,,,,グッドスタンス,0
2278,9010703006375,新規,0,2022-09-05,2022-09-05,合同会社シーラン,,合同会社,東京都,品川区,中延１丁目９番８号ベルウッド４０７,,13,109,1420053,,,,,,,2022-09-05,1,,,,,シーラン,0
2292,9011001149552,新規,0,2022-09-05,2022-09-05,株式会社Ｒｙ’ｓ,,株式会社,東京都,渋谷区,渋谷３丁目９番９号東京建物渋谷ビル８階,,13,113,1500002,,,,,,,2022-09-05,1,,,,,リズ,0
2294,9011003015331,新規,0,2022-09-05,2022-09-05,Ｂａｎａｎａ　Ｓｐｌｉｔ合同会社,,合同会社,東京都,目黒区,中目黒４丁目１２－１９,,13,110,1530061,,,,,,,2022-09-05,1,,,,,バナナスプリット,0
2298,9011101100019,新規,0,2022-09-05,2022-09-05,株式会社エフピーズ,,株式会社,東京都,新宿区,西新宿７丁目７番２６号ワコーレ新宿第一ビル２Ｆ,,13,104,1600023,,,,,,,2022-09-05,1,,,,,エフピーズ,0
2299,9011101100051,新規,0,2022-09-05,2022-09-05,ＢＬＡＣＫＰＡＮＤＡ　ＪＡＰＡＮ株式会社,,株式会社,東京都,新宿区,市谷八幡町１番地新高ビル８０４号室,,13,104,1620844,,,,,,,2022-09-05,1,,,,,ブラックパンダジャパン,0
2300,9011101100076,新規,0,2022-09-05,2022-09-05,株式会社ビーネクサス,,株式会社,東京都,新宿区,北新宿４丁目２７番９号,,13,104,1690074,,,,,,,2022-09-05,1,,,,,ビーネクサス,0
2303,9011401024512,新規,0,2022-09-05,2022-09-05,株式会社シンファーマ,,株式会社,東京都,板橋区,板橋４丁目４７番１２号,,13,119,1730004,,,,,,,2022-09-05,1,,,,,シンファーマ,0
2305,9011403003761,新規,0,2022-09-05,2022-09-05,合同会社ＴＯＫＡＩ,,合同会社,東京都,板橋区,熊野町３７－２－４０７,,13,119,1730025,,,,,,,2022-09-05,1,,,,,トウカイ,0
2306,9011501028446,新規,0,2022-09-05,2022-09-05,Ａｌｕｔｏ　Ｂｅｎｌｉ株式会社,,株式会社,東京都,荒川区,東日暮里６丁目４２番１号壮光舎日暮里ビル２階,,13,118,1160014,,,,,,,2022-09-05,1,,,,,アルトベンリ,0
2314,9011801041231,新規,0,2022-09-05,2022-09-05,株式会社ＴＢＨ,,株式会社,東京都,葛飾区,金町３丁目１０番１５号ビラカナマチ１Ｆ,,13,122,1250042,,,,,,,2022-09-05,1,,,,,ティビーエイチ,0
2316,9011803005242,新規,0,2022-09-05,2022-09-05,いい家合同会社,,合同会社,東京都,足立区,中川２丁目２番１４号,,13,121,1200002,,,,,,,2022-09-05,1,,,,,イイイエ,0
2317,9012301013118,新規,0,2022-09-05,2022-09-05,株式会社Ｃｌａｒｏ,,株式会社,東京都,町田市,玉川学園２丁目５番２２－２０１号,,13,209,1940041,,,,,,,2022-09-05,1,,,,,クラーロ,0
2324,9013301049515,新規,0,2022-09-05,2022-09-05,株式会社日兆,,株式会社,東京都,豊島区,高田３丁目３番２２－３０２号,,13,116,1710033,,,,,,,2022-09-05,1,,,,,ニッチョウ,0
2344,9030001149908,新規,0,2022-09-05,2022-09-05,株式会社ペイントファイブ,,株式会社,埼玉県,川越市,大字下広谷８５０番地７,,11,201,3500804,,,,,,,2022-09-05,1,,,,,ペイントファイブ,0
2345,9030001149916,新規,0,2022-09-05,2022-09-05,株式会社スギコーポレーション,,株式会社,埼玉県,越谷市,レイクタウン１丁目３番地２レイクピア２０３,,11,222,3430828,,,,,,,2022-09-05,1,,,,,スギコーポレーション,0
2346,9030003020117,新規,0,2022-09-05,2022-09-05,Ｌｉｆｅ　Ｃｏｎｎｅｃｔ合同会社,,合同会社,埼玉県,さいたま市大宮区,大成町１丁目１４０,,11,103,3300852,,,,,,,2022-09-05,1,,,,,ライフコネクト,0
2354,9050001051624,新規,0,2022-09-05,2022-09-05,株式会社功知興業,,株式会社,茨城県,水戸市,見川町２１３１番地の１１６０－２０２号,,08,201,3100913,,,,,,,2022-09-05,1,,,,,コウチコウギョウ,0
2369,9080101023504,新規,0,2022-09-05,2022-09-05,建設人財株式会社,,株式会社,静岡県,富士市,本市場町９１９－２Ｆ,,22,210,4160954,,,,,,,2022-09-05,1,,,,,ケンセツジンザイ,0
2370,9080101023512,新規,0,2022-09-05,2022-09-05,株式会社ＲＮＡ,,株式会社,静岡県,沼津市,岡宮１３２６番地の６,,22,203,4100011,,,,,,,2022-09-05,1,,,,,アールエヌエー,0
2372,9080401026033,新規,0,2022-09-05,2022-09-05,株式会社飯田電設,,株式会社,静岡県,浜松市東区,大瀬町２７番地の３５,,22,132,4313113,,,,,,,2022-09-05,1,,,,,イイダデンセツ,0
2374,9080403004607,新規,0,2022-09-05,2022-09-05,あい・プラス合同会社,,合同会社,静岡県,袋井市,山崎５３６９番地の２,,22,216,4371311,,,,,,,2022-09-05,1,,,,,アイプラス,0
2378,9100003006678,新規,0,2022-09-05,2022-09-05,合同会社ハルナツ,,合同会社,長野県,埴科郡坂城町,大字南条４７８２番地１３,,20,521,3890603,,,,,,,2022-09-05,1,,,,,ハルナツ,0
2380,9110001036924,新規,0,2022-09-05,2022-09-05,株式会社苗場プリンセス,,株式会社,新潟県,中魚沼郡津南町,大字上郷寺石丁３９０番地１,,15,482,9498126,,,,,,,2022-09-05,1,,,,,ナエバプリンセス,0
2381,9110001036932,新規,0,2022-09-05,2022-09-05,三容ホールディングス株式会社,,株式会社,新潟県,長岡市,宝４丁目１番地１０,,15,202,9400016,,,,,,,2022-09-05,1,,,,,サンヨウホールディングス,0
2388,9120001248592,新規,0,2022-09-05,2022-09-05,株式会社ヤマヒロ,,株式会社,大阪府,枚方市,村野南町１番４－２０６号,,27,210,5730043,,,,,,,2022-09-05,1,,,,,ヤマヒロ,0
2389,9120001248618,新規,0,2022-09-05,2022-09-05,株式会社トーア,,株式会社,大阪府,大阪市中央区,道修町２丁目１番１０号,,27,128,5410045,,,,,,,2022-09-05,1,,,,,トーア,0
2390,9120001248642,新規,0,2022-09-05,2022-09-05,株式会社ブランチョ,,株式会社,大阪府,大阪市西成区,北津守４丁目４番７５－７４号,,27,122,5570061,,,,,,,2022-09-05,1,,,,,ブランチョ,0
2391,9120001248650,新規,0,2022-09-05,2022-09-05,株式会社ゲンクリエイティブ,,株式会社,大阪府,大阪市中央区,島之内１丁目２１番２２号共通ビル８階,,27,128,5420082,,,,,,,2022-09-05,1,,,,,ゲンクリエイティブ,0
2392,9120001248659,新規,0,2022-09-05,2022-09-05,株式会社コアコミット,,株式会社,大阪府,大阪市北区,西天満３丁目６番２１号ＡＸＩＳ東梅田ビル４０１号室,,27,127,5300047,,,,,,,2022-09-05,1,,,,,コアコミット,0
2393,9120003022401,新規,0,2022-09-05,2022-09-05,ＥＣＴＣ合同会社,,合同会社,大阪府,大阪市城東区,関目６丁目１３番地１９号,,27,118,5360008,,,,,,,2022-09-05,1,,,,,イーシーティーシー,0
2396,9120005023174,新規,0,2022-09-05,2022-09-05,監査法人ユウワット会計社,,その他の設立登記法人,大阪府,大阪市中央区,谷町２丁目１番２２号,,27,128,5400012,,,,,,,2022-09-05,1,,,,,ユウワットカイケイシャ,0
2401,9120101066176,新規,0,2022-09-05,2022-09-05,Ｋａｉ＆Ｊｉｎ株式会社,,株式会社,大阪府,岸和田市,西大路町７２番地の４,,27,202,5960802,,,,,,,2022-09-05,1,,,,,カイアンドジン,0
2402,9120101066184,新規,0,2022-09-05,2022-09-05,城南ハウス工業株式会社,,株式会社,大阪府,貝塚市,半田７４３番地１５,,27,208,5970033,,,,,,,2022-09-05,1,,,,,ジョウナンハウスコウギョウ,0
2425,9130001072546,新規,0,2022-09-05,2022-09-05,株式会社辻川工業,,株式会社,京都府,宇治市,小倉町南浦２１番地の１２１,,26,204,6110042,,,,,,,2022-09-05,1,,,,,ツジカワコウギョウ,0
2426,9130001072554,新規,0,2022-09-05,2022-09-05,Ｙ＆Ｈマネジメントファクトリー株式会社,,株式会社,京都府,京都市左京区,鹿ケ谷西寺ノ前町３８,,26,103,6068425,,,,,,,2022-09-05,1,,,,,ワイアンドエイチマネジメントファクトリー,0
2427,9130001072570,新規,0,2022-09-05,2022-09-05,株式会社ＫＩＴＥ　ＬＩＮＥ,,株式会社,京都府,相楽郡精華町,大字下狛小字市場３１番地１,,26,366,6190245,,,,,,,2022-09-05,1,,,,,カイトライン,0
2435,9140001127258,新規,0,2022-09-05,2022-09-05,株式会社明輝開発,,株式会社,兵庫県,神戸市西区,玉津町新方４４９番地の５,,28,111,6512125,,,,,,,2022-09-05,1,,,,,メイキカイハツ,0
2436,9140001127266,新規,0,2022-09-05,2022-09-05,慈龍興業株式会社,,株式会社,兵庫県,川西市,石道字下ノ山９－６,,28,217,6660156,,,,,,,2022-09-05,1,,,,,ジリュウコウギョウ,0
2441,9140005026299,新規,0,2022-09-05,2022-09-05,一般社団法人ａｒｉｋａ,,その他の設立登記法人,兵庫県,伊丹市,南鈴原１丁目３番地１０３号,,28,207,6640883,,,,,,,2022-09-05,1,,,,,アリカ,0
2451,9180001152847,新規,0,2022-09-05,2022-09-05,株式会社サンキューファミリア,,株式会社,愛知県,名古屋市北区,辻本通１丁目５３番地,00127720,23,103,4620861,,,,,,,2022-09-05,1,,,,,サンキューファミリア,0
2457,9190001029747,新規,0,2022-09-05,2022-09-05,株式会社無装,,株式会社,三重県,津市,半田１２６２番地２５,,24,201,5140823,,,,,,,2022-09-05,1,,,,,ムソウ,0
2458,9190003004079,新規,0,2022-09-05,2022-09-05,Ｎ．Ｓ合同会社,,合同会社,三重県,津市,乙部２００９－２,,24,201,5140016,,,,,,,2022-09-05,1,,,,,エヌエス,0
2459,9190005011734,新規,0,2022-09-05,2022-09-05,特定非営利活動法人日中英人材育成支援ネットワーク,,その他の設立登記法人,三重県,津市,白塚町５１７０番地,00127718,24,201,5140101,,,,,,,2022-09-05,1,,,,,ニッチュウエイジンザイイクセイシエンネットワーク,0
2461,9200001040405,新規,0,2022-09-05,2022-09-05,愛華国際株式会社,,株式会社,岐阜県,岐阜市,菅生１丁目８番１２－３０１号,,21,201,5020914,,,,,,,2022-09-05,1,,,,,アイカコクサイ,0
2465,9210005010048,新規,0,2022-09-05,2022-09-05,一般社団法人坂井市まちづくりセンター,,その他の設立登記法人,福井県,坂井市,坂井町上新庄第５１号４０番地,,18,210,9190522,,,,,,,2022-09-05,1,,,,,サカイシマチヅクリセンター,0
2468,9230001019512,新規,0,2022-09-05,2022-09-05,株式会社６時のそら,,株式会社,富山県,富山市,中島１丁目４番５１号,,16,201,9300801,,,,,,,2022-09-05,1,,,,,ロクジノソラ,0
2473,9240001060309,新規,0,2022-09-05,2022-09-05,株式会社エスケイ建窓,,株式会社,広島県,広島市安佐北区,可部５丁目１０番２８号,,34,106,7310221,,,,,,,2022-09-05,1,,,,,エスケイケンソウ,0
2474,9240001060333,新規,0,2022-09-05,2022-09-05,スペースキャンプ株式会社,,株式会社,広島県,広島市安佐南区,大塚西３丁目１０－１０－１１,,34,105,7313167,,,,,,,2022-09-05,1,,,,,スペースキャンプ,0
2478,9260001037197,新規,0,2022-09-05,2022-09-05,株式会社Ｓ．Ｔ．Ｖ,,株式会社,岡山県,岡山市北区,東古松１丁目５番２０号,,33,101,7000921,,,,,,,2022-09-05,1,,,,,エスティブィ,0
2479,9260001037214,新規,0,2022-09-05,2022-09-05,株式会社Ｗｏｏｄ　Ｓｔｙｌｅみやけ,,株式会社,岡山県,倉敷市,西阿知町１４０番地１,,33,202,7100807,,,,,,,2022-09-05,1,,,,,ウッドスタイルミヤケ,0
2480,9260001037222,新規,0,2022-09-05,2022-09-05,株式会社Ｍ‐Ｌｉｎｋｓ,,株式会社,岡山県,岡山市東区,城東台西２丁目１４番１３号,,33,103,7090624,,,,,,,2022-09-05,1,,,,,エムリンクス,0
2482,9260005011132,新規,0,2022-09-05,2022-09-05,一般社団法人大久保会館,,その他の設立登記法人,岡山県,岡山市中区,平井６丁目１５番３４号,,33,102,7038282,,,,,,,2022-09-05,1,,,,,オオクボカイカン,0
2483,9280001008774,新規,0,2022-09-05,2022-09-05,永瀬設備株式会社,,株式会社,島根県,雲南市,加茂町大竹３９３番地,,32,209,6991123,,,,,,,2022-09-05,1,,,,,ナガセセツビ,0
2484,9280003001645,新規,0,2022-09-05,2022-09-05,合同会社ドリーム配送,,合同会社,島根県,松江市,上東川津町１８５６番地,,32,201,6900821,,,,,,,2022-09-05,1,,,,,ドリームハイソウ,0
2490,9300001013053,新規,0,2022-09-05,2022-09-05,株式会社クリーンフィールズ,,株式会社,佐賀県,佐賀市,鍋島１丁目８番４号,,41,201,8490937,,,,,,,2022-09-05,1,,,,,クリーンフィールズ,0
2494,9310003004438,新規,0,2022-09-05,2022-09-05,合同会社Ｒｉｇｈｔ　Ｗａｙ,,合同会社,長崎県,諫早市,幸町６０番２０号,,42,204,8540022,,,,,,,2022-09-05,1,,,,,ライトウェイ,0
2495,9320003003892,新規,0,2022-09-05,2022-09-05,合同会社ｏｎｄｏ,,合同会社,大分県,別府市,大字内竈１１４５番地の５,,44,202,8740011,,,,,,,2022-09-05,1,,,,,オンドゥー,0
2502,9340001024996,新規,0,2022-09-05,2022-09-05,株式会社ＦｏｏｄＢａｓｅ,,株式会社,鹿児島県,霧島市,隼人町東郷１丁目８,,46,218,8995115,,,,,,,2022-09-05,1,,,,,フードベース,0
2503,9340001025004,新規,0,2022-09-05,2022-09-05,元山工業株式会社,,株式会社,鹿児島県,日置市,伊集院町妙円寺３丁目５１番地７,,46,216,8992503,,,,,,,2022-09-05,1,,,,,モトヤマコウギョウ,0
2504,9340001025012,新規,0,2022-09-05,2022-09-05,株式会社Ｃｒｅｅｄ,,株式会社,鹿児島県,鹿児島市,呉服町２番２　２階,,46,201,8920826,,,,,,,2022-09-05,1,,,,,クレード,0
2508,9360001030919,新規,0,2022-09-05,2022-09-05,株式会社マリンフォード,,株式会社,沖縄県,名護市,大西３丁目１９番４８－２０３号宮城ハイツ,,47,209,9050018,,,,,,,2022-09-05,1,,,,,マリンフォード,0
2511,9390003001989,新規,0,2022-09-05,2022-09-05,Ｂｕｚｚ　Ｇｌｏｂａｌ合同会社,,合同会社,山形県,鶴岡市,松根字下松根１６３,,06,203,9970322,,,,,,,2022-09-05,1,,,,,バズグローバル,0
2513,9400001015989,新規,0,2022-09-05,2022-09-05,株式会社平質,,株式会社,岩手県,岩手郡雫石町,長山狼沢１８番地,,03,301,0200585,,,,,,,2022-09-05,1,,,,,ヘイシチ,0
2523,9430001087415,新規,0,2022-09-05,2022-09-05,株式会社健食貿易,,株式会社,北海道,札幌市中央区,南九条西１１丁目１番２３－９０３号,,01,101,0640809,,,,,,,2022-09-05,1,,,,,ケンショクボウエキ,0
2524,9430001087431,新規,0,2022-09-05,2022-09-05,ボドバーレ株式会社,,株式会社,北海道,札幌市西区,西野五条７丁目４番１７号,,01,107,0630035,,,,,,,2022-09-05,1,,,,,ボドバーレ,0
2527,9460001005729,新規,0,2022-09-05,2022-09-05,株式会社Ｓｓｕｐｐｏｒｔ,,株式会社,北海道,釧路市,南大通１丁目２番３号オフィスぬさまい,,01,206,0850841,,,,,,,2022-09-05,1,,,,,エスサポート,0
2528,9460101007245,新規,0,2022-09-05,2022-09-05,株式会社十勝ｅスポーツ教育センター,,株式会社,北海道,帯広市,西三条南６丁目２０－１,,01,207,0800013,,,,,,,2022-09-05,1,,,,,トカチイースポーツキョウイクセンター,0
2536,9500005008517,新規,0,2022-09-05,2022-09-05,一般社団法人新居浜マスジド,,その他の設立登記法人,愛媛県,新居浜市,一宮町２丁目２番４３号,,38,205,7920025,,,,,,,2022-09-05,1,,,,,ニイハママスジド,0
