sequenceNumber,corporateNumber,process,correct,updateDate,changeDate,name,nameImageId,kind,prefectureName,cityName,streetNumber,addressImageId,prefectureCode,cityCode,postCode,addressOutside,addressOutsideImageId,closeDate,closeCause,successorCorporateNumber,changeCause,assignmentDate,latest,enName,enPrefectureName,enCityName,enAddressOutside,furigana,hihyoji
12,1010001230692,新規,0,2022-11-10,2022-11-10,株式会社ＬｏｇｉＫ２,,株式会社,東京都,中央区,銀座１丁目２２番１１号,,13,102,1040061,,,,,,,2022-11-10,1,,,,,ロジックトゥー,0
13,1010001230701,新規,0,2022-11-10,2022-11-10,株式会社キリンプランニング,,株式会社,東京都,千代田区,紀尾井町３番３２号,,13,101,1020094,,,,,,,2022-11-10,1,,,,,キリンプランニング,0
17,1010003039034,新規,0,2022-11-10,2022-11-10,合同会社Ｐ‐ＦＵＬＬ,,合同会社,東京都,中央区,銀座１丁目２２番１１号銀座大竹ビジデンス２階,,13,102,1040061,,,,,,,2022-11-10,1,,,,,ピーフル,0
18,1010003039059,新規,0,2022-11-10,2022-11-10,合同会社ブライトセント,,合同会社,東京都,中央区,日本橋人形町１丁目４番６号,,13,102,1030013,,,,,,,2022-11-10,1,,,,,ブライトセント,0
19,1010003039067,新規,0,2022-11-10,2022-11-10,Ｌｅｇｅｎｄ　Ｏｎｅ合同会社,,合同会社,東京都,千代田区,丸の内２丁目２番３号丸の内仲通りビル６階,,13,101,1000005,,,,,,,2022-11-10,1,,,,,レジェンドワン,0
23,1010005035766,新規,0,2022-11-10,2022-11-10,一般社団法人銀河第４号,,その他の設立登記法人,東京都,中央区,日本橋１丁目４番１号日本橋一丁目ビルディング,,13,102,1030027,,,,,,,2022-11-10,1,,,,,ギンガダイヨンゴウ,0
25,1010103002024,新規,0,2022-11-10,2022-11-10,合同会社藤井不動産,,合同会社,東京都,八王子市,台町４丁目２９番３号,,13,201,1930931,,,,,,,2022-11-10,1,,,,,フジイフドウサン,0
31,1010401170737,新規,0,2022-11-10,2022-11-10,株式会社メディカルコネクター,,株式会社,東京都,港区,海岸１丁目１３番１５－１１０４号,,13,103,1050022,,,,,,,2022-11-10,1,,,,,メディカルコネクター,0
32,1010401170745,新規,0,2022-11-10,2022-11-10,株式会社Ａｃｅ　Ｆｉｖｅ,,株式会社,東京都,港区,六本木５丁目１６番５号インペリアル六本木１００１,,13,103,1060032,,,,,,,2022-11-10,1,,,,,エースファイブ,0
33,1010401170761,新規,0,2022-11-10,2022-11-10,株式会社六八一五,,株式会社,東京都,港区,南青山３丁目１５－９ＭＩＮＯＷＡ表参道３Ｆ－２４３,,13,103,1070062,,,,,,,2022-11-10,1,,,,,ヒトトセ,0
34,1010403028826,新規,0,2022-11-10,2022-11-10,合同会社ＢＧ,,合同会社,東京都,港区,浜松町２丁目２番１５号,,13,103,1050013,,,,,,,2022-11-10,1,,,,,ビージー,0
35,1010403028859,新規,0,2022-11-10,2022-11-10,合同会社ブーケガルニフィルム,,合同会社,東京都,港区,六本木６丁目４番１号,,13,103,1060032,,,,,,,2022-11-10,1,,,,,ブーケガルニフィルム,0
36,1010403028867,新規,0,2022-11-10,2022-11-10,合同会社ユズリハ,,合同会社,東京都,港区,芝浦４丁目２２番１号,,13,103,1080023,,,,,,,2022-11-10,1,,,,,ユズリハ,0
43,1010701043452,新規,0,2022-11-10,2022-11-10,株式会社ｅｑｕｉｌｉｂｒｅ,,株式会社,東京都,品川区,西五反田５丁目１１番１０号,,13,109,1410031,,,,,,,2022-11-10,1,,,,,エキリーブル,0
45,1010901051949,新規,0,2022-11-10,2022-11-10,株式会社Ｊｕｋｅｂｏｘ　Ｄｒｅａｍｓ,,株式会社,東京都,世田谷区,太子堂３丁目３７番１－Ｂ４０５号,,13,112,1540004,,,,,,,2022-11-10,1,,,,,ジュークボックスドリームズ,0
70,1011401024676,新規,0,2022-11-10,2022-11-10,アクティブル株式会社,,株式会社,東京都,板橋区,栄町７番２号－１０１,,13,119,1730015,,,,,,,2022-11-10,1,,,,,アクティブル,0
82,1011801041528,新規,0,2022-11-10,2022-11-10,株式会社フュージアス,,株式会社,東京都,葛飾区,亀有４丁目１７番１号,,13,122,1250061,,,,,,,2022-11-10,1,,,,,フュージアス,0
83,1011801041536,新規,0,2022-11-10,2022-11-10,ＥＬＥＧＥＮＤ株式会社,,株式会社,東京都,足立区,弘道１丁目２２番６号,,13,121,1200013,,,,,,,2022-11-10,1,,,,,エレジェンド,0
86,1012403005672,新規,0,2022-11-10,2022-11-10,合同会社フロントベアーズ,,合同会社,東京都,三鷹市,大沢１丁目１２番１０号‐４,,13,204,1810015,,,,,,,2022-11-10,1,,,,,フロントベアーズ,0
88,1012701017345,新規,0,2022-11-10,2022-11-10,エル・フィールド株式会社,,株式会社,東京都,小平市,小川東町１丁目１５番２５号,,13,211,1870031,,,,,,,2022-11-10,1,,,,,エルフィールド,0
91,1012703002568,新規,0,2022-11-10,2022-11-10,合同会社ＫｅｙＱ研究所,,合同会社,東京都,西東京市,ひばりが丘３丁目２番５１号,,13,229,2020001,,,,,,,2022-11-10,1,,,,,キーキューケンキュウジョ,0
94,1012801021932,新規,0,2022-11-10,2022-11-10,株式会社ＴＡＩ,,株式会社,東京都,立川市,柴崎町２丁目３番１５－３０１号,,13,202,1900023,,,,,,,2022-11-10,1,,,,,ティーエーアイ,0
108,1020001148950,新規,0,2022-11-10,2022-11-10,株式会社カグラネ,,株式会社,神奈川県,横浜市鶴見区,北寺尾７丁目２５番１８号,,14,101,2300074,,,,,,,2022-11-10,1,,,,,カグラネ,0
115,1020003022699,新規,0,2022-11-10,2022-11-10,ＩｎｄｕｓｔｒｉａｌＭＬ合同会社,,合同会社,神奈川県,川崎市高津区,下作延１丁目１番７号,,14,134,2130033,,,,,,,2022-11-10,1,,,,,インダストリアルエムエル,0
116,1020003022716,新規,0,2022-11-10,2022-11-10,合同会社ｂｕｄ　Ｂｒｏｔｈｅｒｓ,,合同会社,神奈川県,横浜市神奈川区,六角橋１丁目１２番２２号,,14,102,2210802,,,,,,,2022-11-10,1,,,,,バッドブラザーズ,0
117,1020003022724,新規,0,2022-11-10,2022-11-10,合同会社ＭＣ,,合同会社,神奈川県,川崎市高津区,溝口４丁目１８番３０－２０２号,,14,134,2130001,,,,,,,2022-11-10,1,,,,,エムシー,0
119,1021001077363,新規,0,2022-11-10,2022-11-10,株式会社リンクサービス,,株式会社,神奈川県,藤沢市,大庭５１３５番地の１３,,14,205,2510861,,,,,,,2022-11-10,1,,,,,リンクサービス,0
134,1030001151004,新規,0,2022-11-10,2022-11-10,保険パワーメイト株式会社,,株式会社,埼玉県,さいたま市大宮区,桜木町１丁目１０番地１６シーノ大宮ノースウイング１３Ｆ,,11,103,3300854,,,,,,,2022-11-10,1,,,,,ホケンパワーメイト,0
142,1040001125667,新規,0,2022-11-10,2022-11-10,株式会社響和建設,,株式会社,千葉県,千葉市中央区,浜野町４０９番地１４カルテット２０１号,,12,101,2600824,,,,,,,2022-11-10,1,,,,,キョウワケンセツ,0
143,1040001125782,新規,0,2022-11-10,2022-11-10,株式会社昇陽商事,,株式会社,千葉県,船橋市,夏見１丁目１３番３２号１Ａ,,12,204,2730865,,,,,,,2022-11-10,1,,,,,ショウヨウショウジ,0
144,1040001125808,新規,0,2022-11-10,2022-11-10,株式会社ＥＣＯ　ＯＮＥ,,株式会社,千葉県,船橋市,栄町１丁目１３番１７号,,12,204,2730018,,,,,,,2022-11-10,1,,,,,エコワン,0
145,1040001125824,新規,0,2022-11-10,2022-11-10,株式会社アックス,,株式会社,千葉県,船橋市,藤原８丁目３番７号,,12,204,2730047,,,,,,,2022-11-10,1,,,,,アックス,0
146,1040001125832,新規,0,2022-11-10,2022-11-10,株式会社ＳＡＮＫＩ,,株式会社,千葉県,四街道市,大日３１３番地５７,,12,228,2840001,,,,,,,2022-11-10,1,,,,,サンキ,0
152,1040003021237,新規,0,2022-11-10,2022-11-10,Ａｕｔｏ　Ａｐｅｘ合同会社,,合同会社,千葉県,成田市,奈土１２０９番地２,,12,211,2870205,,,,,,,2022-11-10,1,,,,,オートエイペックス,0
154,1040005021813,新規,0,2022-11-10,2022-11-10,医療法人社団清奨会,,その他の設立登記法人,千葉県,船橋市,薬円台５丁目６番１０号,,12,204,2740077,,,,,,,2022-11-10,1,,,,,セイショウカイ,0
155,1050001051920,新規,0,2022-11-10,2022-11-10,株式会社ａｔｏｔｏ,,株式会社,茨城県,つくば市,天久保４丁目１０番地６,,08,220,3050005,,,,,,,2022-11-10,1,,,,,アトート,0
156,1050001051929,新規,0,2022-11-10,2022-11-10,株式会社成田製作所,,株式会社,茨城県,結城市,大字小田林２１１７番地１,,08,207,3070007,,,,,,,2022-11-10,1,,,,,ナリタセイサクショ,0
157,1050001051937,新規,0,2022-11-10,2022-11-10,株式会社２ｎｄ・オーナーズ,,株式会社,茨城県,水戸市,河和田２丁目１６番地８,,08,201,3114152,,,,,,,2022-11-10,1,,,,,セカンドオーナーズ,0
162,1050003007004,新規,0,2022-11-10,2022-11-10,合同会社ＲｉｓＥ　ｔｗｅｎｔｙ‐ｆｏｕｒ,,合同会社,茨城県,猿島郡境町,大字上小橋４３１－４,,08,546,3060434,,,,,,,2022-11-10,1,,,,,ライズトゥエンティーフォー,0
167,1070001039815,新規,0,2022-11-10,2022-11-10,株式会社ベクトル,,株式会社,群馬県,前橋市,元総社町１９９９番地,,10,201,3710846,,,,,,,2022-11-10,1,,,,,ベクトル,0
175,1080103002686,新規,0,2022-11-10,2022-11-10,合同会社音,,合同会社,静岡県,沼津市,杉崎町１２番４０号シティラック沼津１０８,,22,203,4100033,,,,,,,2022-11-10,1,,,,,オト,0
178,1090001017851,新規,0,2022-11-10,2022-11-10,株式会社ＭＩＰ,,株式会社,山梨県,富士吉田市,新屋４丁目３番８号,,19,202,4030006,,,,,,,2022-11-10,1,,,,,エムアイピー,0
181,1100001035868,新規,0,2022-11-10,2022-11-10,株式会社ｔｏｎｏｐ,,株式会社,長野県,千曲市,大字戸倉１９０３番地,,20,218,3890804,,,,,,,2022-11-10,1,,,,,トノップ,0
185,1100003006768,新規,0,2022-11-10,2022-11-10,合同会社虹ＣＯ,,合同会社,長野県,長野市,桜新町７５０番地３５,,20,201,3810013,,,,,,,2022-11-10,1,,,,,ニコ,0
198,1120001250184,新規,0,2022-11-10,2022-11-10,株式会社アイ興産,,株式会社,大阪府,大阪市旭区,中宮４丁目９番７－５０２号,,27,117,5350003,,,,,,,2022-11-10,1,,,,,アイコウサン,0
199,1120001250259,新規,0,2022-11-10,2022-11-10,株式会社ＥＩＧＨＴ,,株式会社,大阪府,大阪市浪速区,敷津西１丁目８番３１号マークス難波南８０３号室,,27,111,5560015,,,,,,,2022-11-10,1,,,,,エイト,0
200,1120003022846,新規,0,2022-11-10,2022-11-10,Ｓｔｅｌｌａ　Ｔｉｐｏ合同会社,,合同会社,大阪府,大阪市平野区,加美南２丁目２番１－８２１号,,27,126,5470003,,,,,,,2022-11-10,1,,,,,ステラティーポ,0
202,1120005023289,新規,0,2022-11-10,2022-11-10,秋桜行政書士法人,,その他の設立登記法人,大阪府,大阪市北区,中崎３丁目１番２０号,,27,127,5300016,,,,,,,2022-11-10,1,,,,,アキザクラ,0
210,1120901046723,新規,0,2022-11-10,2022-11-10,株式会社ＡＺ工房,,株式会社,大阪府,豊中市,上新田１丁目１０番１０号３０１,,27,203,5600085,,,,,,,2022-11-10,1,,,,,アズコウボウ,0
211,1120901046731,新規,0,2022-11-10,2022-11-10,ＧＳＩホールディングス株式会社,,株式会社,大阪府,吹田市,春日４丁目３番３号,,27,205,5650853,,,,,,,2022-11-10,1,,,,,ジーエスアイホールディングス,0
214,1122001036373,新規,0,2022-11-10,2022-11-10,株式会社近畿総合建築,,株式会社,大阪府,東大阪市,日下町１丁目４番２号ブエナビスタＩ１Ｆ,00128430,27,227,5798003,,,,,,,2022-11-10,1,,,,,キンキソウゴウケンチク,0
220,1130001072891,新規,0,2022-11-10,2022-11-10,株式会社関西通商運輸事業,,株式会社,京都府,城陽市,長池河原２４番地,,26,207,6100112,,,,,,,2022-11-10,1,,,,,カンサイツウショウウンユジギョウ,0
221,1130001072990,新規,0,2022-11-10,2022-11-10,株式会社ウエハラホールディングス,,株式会社,京都府,綾部市,位田町岩井６３番地,,26,203,6230221,,,,,,,2022-11-10,1,,,,,ウエハラホールディングス,0
222,1130001073064,新規,0,2022-11-10,2022-11-10,株式会社ＥＳＴＡ,,株式会社,京都府,城陽市,久世芝ケ原１２０番地の３,,26,207,6100102,,,,,,,2022-11-10,1,,,,,エスタ,0
226,1130003008290,新規,0,2022-11-10,2022-11-10,源べえＧ．Ｋ．合同会社,,合同会社,京都府,京都市南区,吉祥院前河原町１番地富家ビル２Ｆ１１号,,26,107,6018304,,,,,,,2022-11-10,1,,,,,ゲンベエジーケー,0
227,1140001128016,新規,0,2022-11-10,2022-11-10,株式会社Ｈ．Ｓ,,株式会社,兵庫県,尼崎市,開明町１丁目６４番地の９,,28,202,6600862,,,,,,,2022-11-10,1,,,,,エイチエス,0
228,1140001128024,新規,0,2022-11-10,2022-11-10,株式会社デルタ・トレーディング,,株式会社,兵庫県,神戸市須磨区,北落合５丁目２３番１１－９号,,28,107,6540151,,,,,,,2022-11-10,1,,,,,デルタトレーディング,0
229,1140001128049,新規,0,2022-11-10,2022-11-10,株式会社イチオシ,,株式会社,兵庫県,尼崎市,東園田町１丁目１８３ルピナス園田４０１号,,28,202,6610953,,,,,,,2022-11-10,1,,,,,イチオシ,0
230,1140001128057,新規,0,2022-11-10,2022-11-10,播磨不動産株式会社,,株式会社,兵庫県,加古郡播磨町,東野添３丁目８番２２号,,28,382,6750159,,,,,,,2022-11-10,1,,,,,ハリマフドウサン,0
231,1140001128065,新規,0,2022-11-10,2022-11-10,株式会社サカエ,,株式会社,兵庫県,尼崎市,若王寺１丁目３番１９－２０１号,,28,202,6610974,,,,,,,2022-11-10,1,,,,,サカエ,0
242,1180301036807,新規,0,2022-11-10,2022-11-10,株式会社ｎ．ａ．ｈ,,株式会社,愛知県,岡崎市,緑丘１丁目２８番地８,,23,202,4440806,,,,,,,2022-11-10,1,,,,,エヌエーエイチ,0
243,1180301036815,新規,0,2022-11-10,2022-11-10,株式会社ＤＩＶＡＬ,,株式会社,愛知県,刈谷市,今川町山ノ端４３番地３,,23,210,4480005,,,,,,,2022-11-10,1,,,,,ディバル,0
246,1180303005504,新規,0,2022-11-10,2022-11-10,合同会社轟ジャパン,,合同会社,愛知県,豊橋市,弥生町字西豊和１０番地２,,23,201,4418106,,,,,,,2022-11-10,1,,,,,ゴウジャパン,0
249,1190005011766,新規,0,2022-11-10,2022-11-10,医療法人黒田クリニック,,その他の設立登記法人,三重県,伊賀市,桐ケ丘３丁目３２５番地,,24,216,5180225,,,,,,,2022-11-10,1,,,,,クロダクリニック,0
252,1200001040668,新規,0,2022-11-10,2022-11-10,株式会社ＧｉｆｕＴｏＳｍｉｌｅ,,株式会社,岐阜県,岐阜市,八代１丁目８番２０－５０２号（ハピネス大野）,,21,201,5020812,,,,,,,2022-11-10,1,,,,,ギフトスマイル,0
255,1200003005727,新規,0,2022-11-10,2022-11-10,フライトハイト合同会社,,合同会社,岐阜県,高山市,本町３丁目４６番地,,21,203,5060011,,,,,,,2022-11-10,1,,,,,フライトハイト,0
257,1220001025130,新規,0,2022-11-10,2022-11-10,株式会社三響,,株式会社,石川県,小松市,安宅町ト９１番地１５,,17,203,9230003,,,,,,,2022-11-10,1,,,,,サンキョウ,0
263,1240001060638,新規,0,2022-11-10,2022-11-10,株式会社ＯＮＥ,,株式会社,広島県,広島市安佐北区,落合南２丁目３番２１号,,34,106,7391732,,,,,,,2022-11-10,1,,,,,ワン,0
264,1240001060646,新規,0,2022-11-10,2022-11-10,株式会社垂井設計,,株式会社,広島県,広島市東区,山根町２８番２２－８０１号,,34,102,7320048,,,,,,,2022-11-10,1,,,,,タルイセッケイ,0
271,1250003003172,新規,0,2022-11-10,2022-11-10,合同会社キトハナ,,合同会社,山口県,下関市,安岡町６丁目３番１５号,,35,201,7596603,,,,,,,2022-11-10,1,,,,,キトハナ,0
275,1270001008659,新規,0,2022-11-10,2022-11-10,株式会社エルボスケ,,株式会社,鳥取県,八頭郡八頭町,北山６４番地３,,31,329,6800601,,,,,,,2022-11-10,1,,,,,エルボスケ,0
280,1290001099515,新規,0,2022-11-10,2022-11-10,株式会社ウェルアップ,,株式会社,福岡県,福岡市中央区,大名１丁目７－３ｍｏｄｅｒｎ　ｐａｌａｚｚｏ大名３０２,,40,133,8100041,,,,,,,2022-11-10,1,,,,,ウェルアップ,0
281,1290001099556,新規,0,2022-11-10,2022-11-10,株式会社コトブキ建装,,株式会社,福岡県,福岡市博多区,吉塚５丁目２番１０号１Ｂ,,40,132,8120041,,,,,,,2022-11-10,1,,,,,コトブキケンソウ,0
284,1290801029043,新規,0,2022-11-10,2022-11-10,株式会社ＨＲＤ,,株式会社,福岡県,田川市,大字弓削田１２６４番地１１,,40,206,8260041,,,,,,,2022-11-10,1,,,,,エイチアールディー,0
285,1290803004250,新規,0,2022-11-10,2022-11-10,合同会社ディライト,,合同会社,福岡県,北九州市門司区,上馬寄１丁目３番２８号,,40,101,8000042,,,,,,,2022-11-10,1,,,,,ディライト,0
292,1360001031172,新規,0,2022-11-10,2022-11-10,株式会社ハナオクリエイティブ,,株式会社,沖縄県,中頭郡読谷村,字座喜味２７１７番地７０,,47,324,9040301,,,,,,,2022-11-10,1,,,,,ハナオクリエイティブ,0
295,1360003012427,新規,0,2022-11-10,2022-11-10,Ｍ＆Ｈ合同会社,,合同会社,沖縄県,中頭郡北谷町,字宮城１番地１アルトゥーレ美浜１０２０,,47,326,9040113,,,,,,,2022-11-10,1,,,,,エムアンドエイチ,0
296,1360003012443,新規,0,2022-11-10,2022-11-10,合同会社ＴＩＡＲＡ＆Ｃｏ．,,合同会社,沖縄県,那覇市,寄宮１丁目９番２０号,,47,201,9020064,,,,,,,2022-11-10,1,,,,,ティアラアンドシーオードット,0
304,1380001033258,新規,0,2022-11-10,2022-11-10,株式会社Ｍｏｎｏ,,株式会社,福島県,会津若松市,町北町大字上荒久田字崖下１４番地の４,,07,202,9650053,,,,,,,2022-11-10,1,,,,,モノ,0
314,1420001018064,新規,0,2022-11-10,2022-11-10,株式会社アドバンス,,株式会社,青森県,弘前市,大字城東５丁目５番地８,,02,202,0368095,,,,,,,2022-11-10,1,,,,,アドバンス,0
328,1460101007277,新規,0,2022-11-10,2022-11-10,株式会社帯広住宅販売,,株式会社,北海道,帯広市,東四条南１４丁目６番地３,,01,207,0800804,,,,,,,2022-11-10,1,,,,,オビヒロジュウタクハンバイ,0
334,1480001011922,新規,0,2022-11-10,2022-11-10,Ｒｉｅｎ株式会社,,株式会社,徳島県,徳島市,西須賀町鶴島４９番地の２２,,36,201,7708024,,,,,,,2022-11-10,1,,,,,リヤン,0
337,1490001010329,新規,0,2022-11-10,2022-11-10,株式会社高知中央管理センター,,株式会社,高知県,高知市,本町５丁目３番３号,,39,201,7800870,,,,,,,2022-11-10,1,,,,,コウチチュウオウカンリセンター,0
339,1490005006876,新規,0,2022-11-10,2022-11-10,一般社団法人須崎しらすうなぎ採捕組合,,その他の設立登記法人,高知県,須崎市,吾井郷乙２２１１番地３,,39,206,7850044,,,,,,,2022-11-10,1,,,,,スサキシラスウナギサイホクミアイ,0
341,1700150056258,新規,0,2022-11-10,2015-10-09,香川県農業協同組合労働組合,,その他,香川県,高松市,寿町１丁目３－６,,37,201,7600023,,,,,,,2015-10-09,1,,,,,カガワケンノウギヨウキヨウドウクミアイロウドウクミアイ,0
353,2010001230725,新規,0,2022-11-10,2022-11-10,ドゥニヤドネルケバブ・ジャパン株式会社,,株式会社,東京都,千代田区,紀尾井町三丁目３２番地紀尾井町アートギャラリー２Ｆ,,13,101,1020094,,,,,,,2022-11-10,1,,,,,ドゥニヤドネルケバブジャパン,0
354,2010001230808,新規,0,2022-11-10,2022-11-10,プラントデジタルエックス株式会社,,株式会社,東京都,中央区,新川１丁目３番２１号,,13,102,1040033,,,,,,,2022-11-10,1,,,,,プラントデジタルエックス,0
356,2010003039033,新規,0,2022-11-10,2022-11-10,合同会社ナミノリプロ,,合同会社,東京都,中央区,日本橋堀留町１丁目１０－１カクタビル２Ｆ,,13,102,1030012,,,,,,,2022-11-10,1,,,,,ナミノリプロ,0
363,2010401170728,新規,0,2022-11-10,2022-11-10,ＢＵＫＵＲＯＵ株式会社,,株式会社,東京都,港区,赤坂８丁目４番１４号青山タワープレイス８階,,13,103,1070052,,,,,,,2022-11-10,1,,,,,ブクロウ,0
364,2010401170752,新規,0,2022-11-10,2022-11-10,ＦＫＤシステム株式会社,,株式会社,東京都,港区,高輪２丁目１５番３４－１００２号,,13,103,1080074,,,,,,,2022-11-10,1,,,,,エフケイディーシステム,0
365,2010401170760,新規,0,2022-11-10,2022-11-10,株式会社エムアイコスモ,,株式会社,東京都,港区,浜松町１丁目１９番５号瀧山ビル４階,,13,103,1050013,,,,,,,2022-11-10,1,,,,,エムアイコスモ,0
367,2010405021539,新規,0,2022-11-10,2022-11-10,一般社団法人Ｂｕｎｓｅｉ,,その他の設立登記法人,東京都,港区,虎ノ門５丁目１番４号,,13,103,1050001,,,,,,,2022-11-10,1,,,,,ブンセイ,0
370,2010601062122,新規,0,2022-11-10,2022-11-10,株式会社ジャパニスタ,,株式会社,東京都,江東区,東雲１丁目９番３２－３０１号,,13,108,1350062,,,,,,,2022-11-10,1,,,,,ジャパニスタ,0
371,2010601062139,新規,0,2022-11-10,2022-11-10,株式会社オリエンタル,,株式会社,東京都,江東区,深川１丁目１－２シャンボール門前仲町４０６,,13,108,1350033,,,,,,,2022-11-10,1,,,,,オリエンタル,0
377,2010901051948,新規,0,2022-11-10,2022-11-10,株式会社リュミエールドゥース,,株式会社,東京都,世田谷区,豪徳寺１丁目９番３号,,13,112,1540021,,,,,,,2022-11-10,1,,,,,リュミエールドゥース,0
378,2010901051956,新規,0,2022-11-10,2022-11-10,株式会社トーチ,,株式会社,東京都,世田谷区,北沢２丁目１０番１５号下北沢ハイタウンＡ棟４１５,,13,112,1550031,,,,,,,2022-11-10,1,,,,,トーチ,0
384,2011001150822,新規,0,2022-11-10,2022-11-10,株式会社トオデザインズ,,株式会社,東京都,渋谷区,神宮前４丁目１６番８号ドームＩ１Ｆ,00128437,13,113,1500001,,,,,,,2022-11-10,1,,,,,トオデザインズ,0
392,2011101100776,新規,0,2022-11-10,2022-11-10,株式会社ｌｅ’ｆｉｃｅｒｅ,,株式会社,東京都,新宿区,西新宿３丁目３番１３号西新宿水間ビル６階,,13,104,1600023,,,,,,,2022-11-10,1,,,,,レフィセール,0
393,2011101100801,新規,0,2022-11-10,2022-11-10,スタジオディニティコス株式会社,,株式会社,東京都,新宿区,北町２３番地ロワール神楽坂５０３,,13,104,1620834,,,,,,,2022-11-10,1,,,,,スタジオディニティコス,0
394,2011105010468,新規,0,2022-11-10,2022-11-10,一般社団法人痩美会,,その他の設立登記法人,東京都,新宿区,西新宿１丁目４番１０号フジタ新宿ウエストビル３階,,13,104,1600023,,,,,,,2022-11-10,1,,,,,ソウビカイ,0
396,2011303004569,新規,0,2022-11-10,2022-11-10,合同会社つばさ６３,,合同会社,東京都,杉並区,和泉３丁目５番２号永福町花井ビル１Ｆ,,13,115,1680063,,,,,,,2022-11-10,1,,,,,ツバサロクサン,0
398,2011601026348,新規,0,2022-11-10,2022-11-10,株式会社Ｎｅｗｐｏｒｔ,,株式会社,東京都,練馬区,石神井町３丁目６番４号プレール石神井公園４０２号室,,13,120,1770041,,,,,,,2022-11-10,1,,,,,ニューポート,0
399,2011601026364,新規,0,2022-11-10,2022-11-10,いの一設計株式会社,,株式会社,東京都,練馬区,東大泉７丁目１７番１４号,,13,120,1780063,,,,,,,2022-11-10,1,,,,,イノイチセッケイ,0
404,2011801041527,新規,0,2022-11-10,2022-11-10,株式会社ＴＡＢＥＬＵＣＫ,,株式会社,東京都,葛飾区,西新小岩１丁目１番５－１０１０号プラウド新小岩,,13,122,1240025,,,,,,,2022-11-10,1,,,,,タベラク,0
407,2012401039853,新規,0,2022-11-10,2022-11-10,株式会社ＧＬＡＤＩＡＴＯＲＳ,,株式会社,東京都,小金井市,前原町４丁目１８番２３号,,13,210,1840013,,,,,,,2022-11-10,1,,,,,グラディエーターズ,0
408,2012403005671,新規,0,2022-11-10,2022-11-10,合同会社フクノネ,,合同会社,東京都,三鷹市,井の頭４丁目５番２５号,,13,204,1810001,,,,,,,2022-11-10,1,,,,,フクノネ,0
409,2012701017352,新規,0,2022-11-10,2022-11-10,アステラ株式会社,,株式会社,東京都,西東京市,新町５丁目３番３－２号,,13,229,2020023,,,,,,,2022-11-10,1,,,,,アステラ,0
410,2012801021956,新規,0,2022-11-10,2022-11-10,株式会社ａｃｏｃｏ,,株式会社,東京都,日野市,大字日野５３６番地２ラレーブ日野５１０,,13,212,1910012,,,,,,,2022-11-10,1,,,,,アココ,0
412,2012803002921,新規,0,2022-11-10,2022-11-10,合同会社ＴＲＡＤＯＸ　ＣＲＥＡＴＥ,,合同会社,東京都,立川市,西砂町６丁目６５番地の１,,13,202,1900034,,,,,,,2022-11-10,1,,,,,トラドックスクリエイト,0
413,2013103001184,新規,0,2022-11-10,2022-11-10,合同会社ｗｏｏｄｓｆｉｅｌｄ,,合同会社,東京都,あきる野市,小川５３２番地７,,13,228,1970821,,,,,,,2022-11-10,1,,,,,ウッズフィールド,0
418,2013301049918,新規,0,2022-11-10,2022-11-10,ＡＳＫ株式会社,,株式会社,東京都,豊島区,駒込６丁目３４－１６,,13,116,1700003,,,,,,,2022-11-10,1,,,,,エーエスケー,0
427,2020001148883,新規,0,2022-11-10,2022-11-10,株式会社ｕｎｉｔｅ,,株式会社,神奈川県,横浜市戸塚区,戸塚町３３１番地１ネクサスシーズン戸塚４０７号,,14,110,2440003,,,,,,,2022-11-10,1,,,,,ユナイト,0
428,2020001148917,新規,0,2022-11-10,2022-11-10,株式会社Ｔ‐ＲＥＸ,,株式会社,神奈川県,横浜市都筑区,仲町台５丁目７番１－８０９号,,14,118,2240041,,,,,,,2022-11-10,1,,,,,ティーレックス,0
429,2020001148941,新規,0,2022-11-10,2022-11-10,Ｆ．Ｄ．コンサルタント株式会社,,株式会社,神奈川県,川崎市中原区,井田１丁目３－１２,,14,133,2110035,,,,,,,2022-11-10,1,,,,,エフディコンサルタント,0
431,2020003022715,新規,0,2022-11-10,2022-11-10,合同会社カオルコピ,,合同会社,神奈川県,横浜市栄区,笠間３丁目３７番５号,,14,115,2470006,,,,,,,2022-11-10,1,,,,,カオルコピ,0
432,2020003022723,新規,0,2022-11-10,2022-11-10,エイトノット合同会社,,合同会社,神奈川県,横浜市中区,桜木町１丁目１０１番地１クロスゲート７階,,14,104,2310062,,,,,,,2022-11-10,1,,,,,エイトノット,0
438,2021003012367,新規,0,2022-11-10,2022-11-10,合同会社駿河台アソシエイツ,,合同会社,神奈川県,鎌倉市,由比ガ浜１丁目１２番２２号,,14,204,2480014,,,,,,,2022-11-10,1,,,,,スルガダイアソシエイツ,0
443,2030003020552,新規,0,2022-11-10,2022-11-10,合同会社ＧＲＡＤＩＣＡ,,合同会社,埼玉県,鴻巣市,郷地２７０番地３,,11,217,3650022,,,,,,,2022-11-10,1,,,,,グラディカ,0
452,2040001125666,新規,0,2022-11-10,2022-11-10,ｐｌｕｓ　ｂｏｄｙ株式会社,,株式会社,千葉県,鎌ケ谷市,粟野８０６番地４３,,12,224,2730132,,,,,,,2022-11-10,1,,,,,プラスボディ,0
453,2040001125781,新規,0,2022-11-10,2022-11-10,株式会社ＡＳＨソリューションズ,,株式会社,千葉県,柏市,花野井７１５,,12,217,2770812,,,,,,,2022-11-10,1,,,,,エーエスエイチソリューションズ,0
454,2040001125831,新規,0,2022-11-10,2022-11-10,株式会社トクイ,,株式会社,千葉県,松戸市,新松戸３丁目３６３番地,,12,207,2700034,,,,,,,2022-11-10,1,,,,,トクイ,0
459,2040003021244,新規,0,2022-11-10,2022-11-10,合同会社Ｋ．Ａｒｙ,,合同会社,千葉県,浦安市,堀江４丁目８－１ライオンズマンション浦安３２１号室,,12,227,2790041,,,,,,,2022-11-10,1,,,,,ケアリー,0
460,2050001051944,新規,0,2022-11-10,2022-11-10,株式会社Ｋ．エンタープライズ,,株式会社,茨城県,日立市,本宮町１丁目９－２０吉田ビル３Ｆ,,08,202,3170054,,,,,,,2022-11-10,1,,,,,ケイエンタープライズ,0
466,2070001039814,新規,0,2022-11-10,2022-11-10,株式会社いちぜん,,株式会社,群馬県,高崎市,棟高町３２７番地１,,10,202,3703521,,,,,,,2022-11-10,1,,,,,イチゼン,0
467,2070003004700,新規,0,2022-11-10,2022-11-10,合同会社一綺,,合同会社,群馬県,利根郡川場村,大字川場湯原６５８番地,,10,444,3780102,,,,,,,2022-11-10,1,,,,,イツキ,0
472,2080401026147,新規,0,2022-11-10,2022-11-10,株式会社治具屋,,株式会社,静岡県,磐田市,松之木島４９２番地８,,22,211,4380125,,,,,,,2022-11-10,1,,,,,ジグヤ,0
476,2110001037111,新規,0,2022-11-10,2022-11-10,ファッションラボニイガタ株式会社,,株式会社,新潟県,阿賀野市,外城町１６番１５号白鳥会館３階,,15,223,9592022,,,,,,,2022-11-10,1,,,,,ファッションラボニイガタ,0
485,2120001249804,新規,0,2022-11-10,2022-11-10,樹本株式会社,,株式会社,大阪府,大阪市中央区,島之内２丁目５番５－７０３号,,27,128,5420082,,,,,,,2022-11-10,1,,,,,キモト,0
486,2120001250175,新規,0,2022-11-10,2022-11-10,株式会社ＲｏＢｏ,,株式会社,大阪府,大阪市西区,南堀江４丁目２５－Ｄ６０５号,,27,106,5500015,,,,,,,2022-11-10,1,,,,,ロボ,0
487,2120001250209,新規,0,2022-11-10,2022-11-10,ＥＬＥ株式会社,,株式会社,大阪府,大阪市東淀川区,大桐５丁目１８番－５－１０５号,,27,114,5330011,,,,,,,2022-11-10,1,,,,,エレ,0
488,2120001250241,新規,0,2022-11-10,2022-11-10,株式会社楓,,株式会社,大阪府,大阪市浪速区,難波中３丁目１８番１７－２０１号,,27,111,5560011,,,,,,,2022-11-10,1,,,,,カエデ,0
495,2120005023271,新規,0,2022-11-10,2022-11-10,一般社団法人夢現人,,その他の設立登記法人,大阪府,大阪市中央区,内久宝寺町２丁目６番１－２０２号,,27,128,5400013,,,,,,,2022-11-10,1,,,,,ムゲンジン,0
499,2120901046714,新規,0,2022-11-10,2022-11-10,住マイル住宅販売株式会社,,株式会社,大阪府,豊中市,曽根東町６丁目２番２号２階,,27,203,5610802,,,,,,,2022-11-10,1,,,,,スマイルジュウタクハンバイ,0
500,2120901046722,新規,0,2022-11-10,2022-11-10,株式会社ｙ’ｓ,,株式会社,大阪府,豊中市,新千里南町３丁目２５番１号,,27,203,5600084,,,,,,,2022-11-10,1,,,,,ワイズ,0
502,2122001036389,新規,0,2022-11-10,2022-11-10,株式会社プラス・ウルトラ,,株式会社,大阪府,八尾市,志紀町３丁目１９－１,,27,212,5810031,,,,,,,2022-11-10,1,,,,,プラスウルトラ,0
505,2130001073014,新規,0,2022-11-10,2022-11-10,株式会社大喜,,株式会社,京都府,京都市南区,久世大藪町１０５番地,,26,107,6010000,,,,,,,2022-11-10,1,,,,,ダイキ,0
516,2140001127999,新規,0,2022-11-10,2022-11-10,株式会社コサイン,,株式会社,兵庫県,西宮市,西宮浜３丁目２９番,,28,204,6620934,,,,,,,2022-11-10,1,,,,,コサイン,0
517,2140001128007,新規,0,2022-11-10,2022-11-10,ＨＡＮＡ株式会社,,株式会社,兵庫県,尼崎市,東園田町５丁目１１２番地の１６メゾンウインドロード３０１,,28,202,6610953,,,,,,,2022-11-10,1,,,,,ハナ,0
518,2140001128023,新規,0,2022-11-10,2022-11-10,株式会社クレセンド,,株式会社,兵庫県,淡路市,志筑新島１０番地４６アストラ淡路ビル２０３号,,28,226,6562132,,,,,,,2022-11-10,1,,,,,クレセンド,0
519,2140001128056,新規,0,2022-11-10,2022-11-10,株式会社日本人財サービス,,株式会社,兵庫県,尼崎市,南塚口町１丁目３０－１１－３Ｆ,,28,202,6610012,,,,,,,2022-11-10,1,,,,,ニホンジンザイサービス,0
520,2140003018313,新規,0,2022-11-10,2022-11-10,合同会社健康処サニー,,合同会社,兵庫県,西宮市,小松東町３丁目８番１１号,,28,204,6638123,,,,,,,2022-11-10,1,,,,,ケンコウドコロサニー,0
521,2140003018346,新規,0,2022-11-10,2022-11-10,ＨＡＩ　ＨＡ合同会社,,合同会社,兵庫県,神戸市兵庫区,西上橘通２丁目１番２号,,28,105,6520033,,,,,,,2022-11-10,1,,,,,ハイハ,0
529,2180001153678,新規,0,2022-11-10,2022-11-10,株式会社ＤＭＥホールディングス,,株式会社,愛知県,名古屋市中区,錦２丁目７番７号,,23,106,4600003,,,,,,,2022-11-10,1,,,,,ディーエムイーホールディングス,0
530,2180001153802,新規,0,2022-11-10,2022-11-10,Ｅ・Ｋホーム株式会社,,株式会社,愛知県,名古屋市天白区,梅が丘１丁目５１９番地の４,,23,116,4680004,,,,,,,2022-11-10,1,,,,,イーケイホーム,0
534,2180003024472,新規,0,2022-11-10,2022-11-10,スマイルチャージ合同会社,,合同会社,愛知県,稲沢市,国府宮町手枕１００番地９２,,23,220,4928138,,,,,,,2022-11-10,1,,,,,スマイルチャージ,0
536,2180301036789,新規,0,2022-11-10,2022-11-10,株式会社ＫＵＫＡＩ,,株式会社,愛知県,知立市,南陽２丁目２９番地３階Ａ号室,,23,225,4720004,,,,,,,2022-11-10,1,,,,,クウカイ,0
537,2180301036806,新規,0,2022-11-10,2022-11-10,株式会社アールイー,,株式会社,愛知県,豊田市,柿本町２丁目３７番地１５,,23,211,4710855,,,,,,,2022-11-10,1,,,,,アールイー,0
541,2180303005503,新規,0,2022-11-10,2022-11-10,合同会社Ｏｋｉ,,合同会社,愛知県,豊田市,畝部東町川田４１番地２１,,23,211,4701211,,,,,,,2022-11-10,1,,,,,オウキ,0
542,2180303005511,新規,0,2022-11-10,2022-11-10,合同会社シマハコジャパントレーディング,,合同会社,愛知県,豊川市,平尾町下藤井３４番地の４,,23,207,4420863,,,,,,,2022-11-10,1,,,,,シマハコジャパントレーディング,0
551,2190005011765,新規,0,2022-11-10,2022-11-10,一般社団法人Ｈｕｂ　ｆｕｎ,,その他の設立登記法人,三重県,桑名市,大字安永１５３１番地,,24,205,5110839,,,,,,,2022-11-10,1,,,,,ハブファン,0
559,2220003003397,新規,0,2022-11-10,2022-11-10,合同会社つなぐ,,合同会社,石川県,加賀市,松が丘３丁目１６番地１０,,17,206,9220436,,,,,,,2022-11-10,1,,,,,ツナグ,0
570,2240001060629,新規,0,2022-11-10,2022-11-10,株式会社Ｙソフト,,株式会社,広島県,広島市安佐北区,可部２丁目１１番６号,,34,106,7310221,,,,,,,2022-11-10,1,,,,,ワイソフト,0
571,2240001060645,新規,0,2022-11-10,2022-11-10,株式会社メッチャモンテ,,株式会社,広島県,広島市中区,銀山町１１番１３号,,34,101,7300022,,,,,,,2022-11-10,1,,,,,メッチャモンテ,0
574,2240003005870,新規,0,2022-11-10,2022-11-10,エスケー警備合同会社,,合同会社,広島県,安芸郡坂町,植田４丁目１３番３２号２０２,,34,309,7314321,,,,,,,2022-11-10,1,,,,,エスケーケイビ,0
578,2260001037393,新規,0,2022-11-10,2022-11-10,株式会社ＭＡＲＵＩ,,株式会社,岡山県,倉敷市,児島下の町４丁目１０番８３－５号,,33,202,7110906,,,,,,,2022-11-10,1,,,,,マルイ,0
590,2290001099522,新規,0,2022-11-10,2022-11-10,信子不動産管理株式会社,,株式会社,福岡県,糟屋郡須惠町,大字植木１６９３番地,,40,344,8112112,,,,,,,2022-11-10,1,,,,,ノブコフドウサンカンリ,0
591,2290001099530,新規,0,2022-11-10,2022-11-10,アッパーフィールド株式会社,,株式会社,福岡県,福岡市早良区,室見１丁目２７番３－１０２号グローリア室見,,40,137,8140015,,,,,,,2022-11-10,1,,,,,アッパーフィールド,0
593,2290003013167,新規,0,2022-11-10,2022-11-10,Ｗｅｅｅｅｅ合同会社,,合同会社,福岡県,糸島市,志摩師吉５６－５７,,40,230,8191314,,,,,,,2022-11-10,1,,,,,ウィー,0
594,2290003013183,新規,0,2022-11-10,2022-11-10,合同会社ユニシティ,,合同会社,福岡県,福岡市博多区,三筑２丁目１１番２５－６０３号グランテージ,,40,132,8120887,,,,,,,2022-11-10,1,,,,,ユニシティ,0
606,2330005010579,新規,0,2022-11-10,2022-11-10,一般社団法人くまもと岱園会,,その他の設立登記法人,熊本県,玉名市,岱明町野口２０７７番地２,,43,206,8690222,,,,,,,2022-11-10,1,,,,,クマモトタイエンカイ,0
607,2350001018038,新規,0,2022-11-10,2022-11-10,株式会社ｍｉｎｅｒｖａ,,株式会社,宮崎県,宮崎市,吉村町江田原甲３０２番地１ＣＯＬＬＩＮＥ３０５号,,45,201,8800841,,,,,,,2022-11-10,1,,,,,ミネルバ,0
611,2360001031188,新規,0,2022-11-10,2022-11-10,琉象美建株式会社,,株式会社,沖縄県,那覇市,泉崎１丁目１０番１６号沖縄バス本社ビル３階,,47,201,9000021,,,,,,,2022-11-10,1,,,,,リュウゾウビケン,0
617,2380003005312,新規,0,2022-11-10,2022-11-10,合同会社Ｐｒｉｍｅ　Ｎｕｍｂｅｒ,,合同会社,福島県,南相馬市,小高区本町１丁目８７小高パイオニアヴィレッジ,,07,212,9792124,,,,,,,2022-11-10,1,,,,,プライムナンバー,0
637,2490005006875,新規,0,2022-11-10,2022-11-10,一般社団法人四国遍路通信,,その他の設立登記法人,高知県,土佐市,北地５６４番地,,39,205,7811111,,,,,,,2022-11-10,1,,,,,シコクヘンロツウシン,0
639,2700150111615,新規,0,2022-11-10,2022-09-02,ヴェルト日本橋ＩＩツヴァイト管理組合,00127667,その他,東京都,中央区,日本橋久松町６番８号,,13,102,1030005,,,,,,,2022-09-02,1,,,,,ヴエルトニホンバシツーツヴアイトカンリクミアイ,0
640,2700150112175,新規,0,2022-11-10,2022-10-19,パテラ狭山管理組合,,その他,埼玉県,狭山市,入間川３丁目２－３２,,11,215,3501305,,,,,,,2022-10-19,1,,,,,パテラサヤマカンリクミアイ,0
641,2700150112357,新規,0,2022-11-10,2022-10-27,日本子ども健康科学会,,その他,東京都,世田谷区,大蔵２丁目１０－１国立成育医療研究センターコホート研究室内,,13,112,1570074,,,,,,,2022-10-27,1,,,,,ニホンコドモケンコウカガクカイ,0
652,3010001230708,新規,0,2022-11-10,2022-11-10,株式会社トクヤマアートブロックＬＡＢＯ,,株式会社,東京都,中央区,日本橋本町４丁目８番１６号,,13,102,1030023,,,,,,,2022-11-10,1,,,,,トクヤマアートブロックラボ,0
653,3010001230740,新規,0,2022-11-10,2022-11-10,株式会社Ｔａｘ　Ｓｔｒａｔｅｇｉｅｓ　Ｊａｐａｎ,,株式会社,東京都,中央区,築地６丁目２番１２－９１１号,,13,102,1040045,,,,,,,2022-11-10,1,,,,,タックスストラテジーズジャパン,0
655,3010003039024,新規,0,2022-11-10,2022-11-10,合同会社無名,,合同会社,東京都,千代田区,九段南１丁目５番６号りそな九段ビル５階,,13,101,1020074,,,,,,,2022-11-10,1,,,,,ムミョウ,0
662,3010101015406,新規,0,2022-11-10,2022-11-10,Ｂ．Ｍ　Ｍｏｔｏｒｓ株式会社,,株式会社,東京都,八王子市,長沼町７２６番地４グランビルコート１０１号室,,13,201,1920907,,,,,,,2022-11-10,1,,,,,ビーエムモーターズ,0
666,3010401170652,新規,0,2022-11-10,2022-11-10,株式会社葵,,株式会社,東京都,港区,南青山５丁目１２番２４号８０１,,13,103,1070062,,,,,,,2022-11-10,1,,,,,アオイ,0
667,3010401170751,新規,0,2022-11-10,2022-11-10,株式会社ＯＮＡ,,株式会社,東京都,港区,南青山７丁目１３番１２号南青山森ビル２階,,13,103,1070062,,,,,,,2022-11-10,1,,,,,オーエヌエー,0
670,3010405021538,新規,0,2022-11-10,2022-11-10,Ｌｅｏ特定目的会社,,その他の設立登記法人,東京都,港区,虎ノ門５丁目１番４号,,13,103,1050001,,,,,,,2022-11-10,1,,,,,レオ,0
680,3010701043442,新規,0,2022-11-10,2022-11-10,株式会社田々,,株式会社,東京都,品川区,東五反田５丁目１５番１８号,,13,109,1410022,,,,,,,2022-11-10,1,,,,,デンデン,0
681,3010703006447,新規,0,2022-11-10,2022-11-10,ＡＴＮＡ合同会社,,合同会社,東京都,品川区,旗の台６丁目３０－１１,,13,109,1420064,,,,,,,2022-11-10,1,,,,,アトナ,0
697,3011001150771,新規,0,2022-11-10,2022-11-10,株式会社天馬実業,,株式会社,東京都,渋谷区,道玄坂１丁目１０番８号渋谷道玄坂東急ビル２Ｆ－Ｃ,,13,113,1500043,,,,,,,2022-11-10,1,,,,,テンマジツギョウ,0
698,3011001150854,新規,0,2022-11-10,2022-11-10,麹町コーポレーション株式会社,,株式会社,東京都,渋谷区,道玄坂１丁目１０番８号渋谷道玄坂東急ビル２Ｆ－Ｃ,,13,113,1500043,,,,,,,2022-11-10,1,,,,,コウジマチコーポレーション,0
699,3011001150912,新規,0,2022-11-10,2022-11-10,ＨＲ　Ｔｅｃｈ　Ｍａｎａｇｅｍｅｎｔ株式会社,,株式会社,東京都,渋谷区,広尾１丁目１５番３号マスダビル６階,,13,113,1500012,,,,,,,2022-11-10,1,,,,,エイチアールテックマネジメント,0
707,3011101100817,新規,0,2022-11-10,2022-11-10,フュージョンアドバンストマテリアルズテクノロジー株式会社,,株式会社,東京都,新宿区,西新宿３丁目３番１３号西新宿水間ビル６階,,13,104,1600023,,,,,,,2022-11-10,1,,,,,フュージョンアドバンストマテリアルズテクノロジー,0
708,3011103012374,新規,0,2022-11-10,2022-11-10,ＡＳＫ合同会社,,合同会社,東京都,新宿区,富久町１５番１号,,13,104,1620067,,,,,,,2022-11-10,1,,,,,エイエスケー,0
709,3011105010467,新規,0,2022-11-10,2022-11-10,ネフトエス税理士法人,,その他の設立登記法人,東京都,新宿区,下落合３丁目２２番２２－６０１号,,13,104,1610033,,,,,,,2022-11-10,1,,,,,ネフトエス,0
710,3011201024222,新規,0,2022-11-10,2022-11-10,ＳＫＹＤｉｖｅ株式会社,,株式会社,東京都,中野区,新井１丁目１０番１２号,,13,114,1650026,,,,,,,2022-11-10,1,,,,,スカイダイブ,0
712,3011301028247,新規,0,2022-11-10,2022-11-10,株式会社ＴＡＫＥ　Ａ　ＢＡＴＨ,,株式会社,東京都,杉並区,和泉２丁目４５番１８号メゾンオーク２０２,,13,115,1680063,,,,,,,2022-11-10,1,,,,,テイクアバス,0
714,3011401024674,新規,0,2022-11-10,2022-11-10,株式会社ｔｓｕｍｕｇｉｙａ,,株式会社,東京都,板橋区,板橋１丁目３１番６号メアグランツ１階,,13,119,1730004,,,,,,,2022-11-10,1,,,,,ツムギヤ,0
715,3011401024682,新規,0,2022-11-10,2022-11-10,株式会社三洋電機製作所,,株式会社,東京都,板橋区,蓮沼町４５番４号,,13,119,1740052,,,,,,,2022-11-10,1,,,,,サンヨウデンキセイサクショ,0
718,3011501028658,新規,0,2022-11-10,2022-11-10,株式会社Ｇａｌｅｒａ,,株式会社,東京都,荒川区,西尾久３丁目１７番８－９０２号,,13,118,1160011,,,,,,,2022-11-10,1,,,,,ガレーラ,0
720,3011701025777,新規,0,2022-11-10,2022-11-10,うちみやリゾート株式会社,,株式会社,東京都,江戸川区,西瑞江５丁目８番地９,,13,123,1340015,,,,,,,2022-11-10,1,,,,,ウチミヤリゾート,0
721,3011801041542,新規,0,2022-11-10,2022-11-10,ＳＣＲＵＭＴＲＹ株式会社,,株式会社,東京都,葛飾区,西亀有３丁目２番１５－１０３号,,13,122,1250002,,,,,,,2022-11-10,1,,,,,スクラムトライ,0
726,3012401039852,新規,0,2022-11-10,2022-11-10,ＥＢＯ株式会社,,株式会社,東京都,府中市,朝日町２丁目２９－３７サンライズマツナガＢ１０１号室,,13,206,1830003,,,,,,,2022-11-10,1,,,,,イービーオー,0
727,3012401039860,新規,0,2022-11-10,2022-11-10,株式会社ＴＫＣ,,株式会社,東京都,三鷹市,大沢１丁目１２番３５号,,13,204,1810015,,,,,,,2022-11-10,1,,,,,ティーケーシー,0
728,3012705002333,新規,0,2022-11-10,2022-11-10,トレイス土地家屋調査士法人東京,,その他の設立登記法人,東京都,東村山市,廻田町１丁目１９番地２９,,13,213,1890025,,,,,,,2022-11-10,1,,,,,トレイストウキョウ,0
729,3012801021955,新規,0,2022-11-10,2022-11-10,株式会社ＭＬＩＮＥ,,株式会社,東京都,国立市,谷保６丁目２４番１８号,,13,215,1860011,,,,,,,2022-11-10,1,,,,,エムライン,0
730,3012801021963,新規,0,2022-11-10,2022-11-10,Ｖｉｖｉｄ　Ｓｔｏｎｅ株式会社,,株式会社,東京都,国立市,東１丁目１５－１１４４８ビル３Ｆ,,13,215,1860002,,,,,,,2022-11-10,1,,,,,ヴィヴィッドストーン,0
732,3013103001183,新規,0,2022-11-10,2022-11-10,ＩＦＡ合同会社,,合同会社,東京都,青梅市,根ヶ布１丁目６８５番地の４,,13,205,1980004,,,,,,,2022-11-10,1,,,,,アイエフエー,0
735,3013301049917,新規,0,2022-11-10,2022-11-10,株式会社アイランド,,株式会社,東京都,豊島区,南大塚２丁目４０－１大塚中央ビル５０１,,13,116,1700005,,,,,,,2022-11-10,1,,,,,アイランド,0
741,3020001148899,新規,0,2022-11-10,2022-11-10,ＩＴクローバー株式会社,,株式会社,神奈川県,横浜市磯子区,洋光台４丁目１６番３３－１号,,14,107,2350045,,,,,,,2022-11-10,1,,,,,アイティークローバー,0
742,3020001148940,新規,0,2022-11-10,2022-11-10,株式会社ＳＴＵＤＩＯ３,,株式会社,神奈川県,横浜市中区,尾上町５丁目８０，神奈川中小企業センタービル７Ｆ７０８,,14,104,2310015,,,,,,,2022-11-10,1,,,,,スタジオスリー,0
743,3020001148949,新規,0,2022-11-10,2022-11-10,株式会社永濱商事,,株式会社,神奈川県,横浜市港北区,大曽根１丁目２４－２０,,14,109,2220003,,,,,,,2022-11-10,1,,,,,ナガハマショウジ,0
747,3020003022714,新規,0,2022-11-10,2022-11-10,合同会社はな笑み樹,,合同会社,神奈川県,横浜市栄区,上之町４８番１号,,14,115,2470025,,,,,,,2022-11-10,1,,,,,ハナエミキ,0
748,3020003022722,新規,0,2022-11-10,2022-11-10,ＭＵＨＥＮ合同会社,,合同会社,神奈川県,横浜市青葉区,もえぎ野１８番地７ペルシュワールもえぎ野２０１,,14,117,2270044,,,,,,,2022-11-10,1,,,,,ムヘン,0
753,3021001077428,新規,0,2022-11-10,2022-11-10,アド・グロリア株式会社,,株式会社,神奈川県,藤沢市,長後１１７２番地,,14,205,2520801,,,,,,,2022-11-10,1,,,,,アドグロリア,0
754,3021001077436,新規,0,2022-11-10,2022-11-10,ヤマトロジカ株式会社,,株式会社,神奈川県,大和市,草柳２丁目１０番の３,,14,213,2420026,,,,,,,2022-11-10,1,,,,,ヤマトロジカ,0
757,3021003012341,新規,0,2022-11-10,2022-11-10,合同会社スプラウト,,合同会社,神奈川県,相模原市南区,磯部１３９０－１９,,14,153,2520327,,,,,,,2022-11-10,1,,,,,スプライト,0
766,3030001150945,新規,0,2022-11-10,2022-11-10,長江実業株式会社,,株式会社,埼玉県,入間市,下藤沢５丁目２０－１,,11,225,3580011,,,,,,,2022-11-10,1,,,,,チョウコウジツギョウ,0
767,3030001151019,新規,0,2022-11-10,2022-11-10,株式会社エヌランド,,株式会社,埼玉県,新座市,大和田１丁目１６番７号,,11,230,3520004,,,,,,,2022-11-10,1,,,,,エヌランド,0
772,3030005021060,新規,0,2022-11-10,2022-11-10,一般社団法人埼玉県自動車運転代行業連絡協議会,,その他の設立登記法人,埼玉県,さいたま市大宮区,三橋２丁目１５０番地,,11,103,3300856,,,,,,,2022-11-10,1,,,,,サイタマケンジドウシャウンテンダイコウギョウレンラクキョウギカイ,0
775,3040001125772,新規,0,2022-11-10,2022-11-10,株式会社下中運輸,,株式会社,千葉県,船橋市,本中山４丁目１３番２号ルミエールＡ－１,,12,204,2730035,,,,,,,2022-11-10,1,,,,,シモナカウンユ,0
776,3040001125789,新規,0,2022-11-10,2022-11-10,株式会社ネクストイノベーション,,株式会社,千葉県,佐倉市,江原３６番地,,12,212,2850824,,,,,,,2022-11-10,1,,,,,ネクストイノベーション,0
777,3040001125806,新規,0,2022-11-10,2022-11-10,株式会社リバティワーク,,株式会社,千葉県,松戸市,南花島３丁目３７番地の７リビングタウン南花島Ｂ棟１０２号,,12,207,2710065,,,,,,,2022-11-10,1,,,,,リバティワーク,0
778,3040001125814,新規,0,2022-11-10,2022-11-10,裕祥株式会社,,株式会社,千葉県,千葉市緑区,誉田町１丁目８４３番地１,,12,105,2660005,,,,,,,2022-11-10,1,,,,,ユウショウ,0
779,3040001125822,新規,0,2022-11-10,2022-11-10,株式会社シーブルー,,株式会社,千葉県,千葉市花見川区,幕張本郷１丁目３０番２１－４１０号,,12,102,2620033,,,,,,,2022-11-10,1,,,,,シーブルー,0
780,3040001125830,新規,0,2022-11-10,2022-11-10,株式会社ＢＴ　Ａｄｖａｎｃｅ,,株式会社,千葉県,松戸市,六高台８丁目１９１番地の１４,,12,207,2702203,,,,,,,2022-11-10,1,,,,,ビーティーアドバンス,0
782,3040003021128,新規,0,2022-11-10,2022-11-10,合同会社Ｒｅｎｏｗａｎｏ,,合同会社,千葉県,千葉市緑区,おゆみ野４丁目４６－５,,12,105,2660031,,,,,,,2022-11-10,1,,,,,リノワーノ,0
783,3040003021219,新規,0,2022-11-10,2022-11-10,合同会社大和住販,,合同会社,千葉県,市川市,北方町４丁目１６７８－８,,12,203,2720811,,,,,,,2022-11-10,1,,,,,ダイワジュウハン,0
790,3050001051943,新規,0,2022-11-10,2022-11-10,株式会社ＶＡＬＵＥ　ＳＰＲＩＮＧＳ技術士事務所,,株式会社,茨城県,那珂郡東海村,舟石川駅東３丁目１番１号東海村産業情報プラザ２階Ｄ－６,,08,341,3191118,,,,,,,2022-11-10,1,,,,,バリュースプリングスギジュツシジムショ,0
796,3070001039813,新規,0,2022-11-10,2022-11-10,株式会社フューメント,,株式会社,群馬県,利根郡みなかみ町,月夜野４１５番地４,,10,449,3791313,,,,,,,2022-11-10,1,,,,,フューメント,0
814,3120001250174,新規,0,2022-11-10,2022-11-10,株式会社ＴＥＣ‐ＡＣＴＯＲ,,株式会社,大阪府,大阪市北区,鶴野町４番１１号朝日プラザ梅田ビル２Ｆ－８,,27,127,5300014,,,,,,,2022-11-10,1,,,,,テックアクター,0
815,3120001250216,新規,0,2022-11-10,2022-11-10,リフラ株式会社,,株式会社,大阪府,大阪市生野区,新今里５丁目１５番１７号ブランシュＩＩ５Ａ号室,00128433,27,116,5440001,,,,,,,2022-11-10,1,,,,,リフラ,0
816,3120001250224,新規,0,2022-11-10,2022-11-10,株式会社田中ＪＡＰＡＮ,,株式会社,大阪府,大阪市城東区,成育３丁目１７番１１号,,27,118,5360007,,,,,,,2022-11-10,1,,,,,タナカジャパン,0
819,3120003022828,新規,0,2022-11-10,2022-11-10,合同会社Ｊａｃａｌｅｓｔ,,合同会社,大阪府,大阪市城東区,中央２丁目４番１３－３０５号,,27,118,5360005,,,,,,,2022-11-10,1,,,,,ジャカレスト,0
820,3120003022844,新規,0,2022-11-10,2022-11-10,合同会社Ｃａｍｐｈｏｒ　Ｔｒｅｅ,,合同会社,大阪府,門真市,脇田町２４番１６号,,27,223,5710011,,,,,,,2022-11-10,1,,,,,カンフルツリー,0
824,3120101066504,新規,0,2022-11-10,2022-11-10,株式会社ゴールドリザード,,株式会社,大阪府,堺市東区,日置荘田中町４６番地１クローバーハイツ初芝７０５号,,27,143,5998113,,,,,,,2022-11-10,1,,,,,ゴールドリザード,0
825,3120101066520,新規,0,2022-11-10,2022-11-10,株式会社イムザットキャピタル,,株式会社,大阪府,堺市南区,晴美台１丁２２番４号,,27,145,5900113,,,,,,,2022-11-10,1,,,,,イムザットキャピタル,0
829,3120901046721,新規,0,2022-11-10,2022-11-10,株式会社ラフカンパニー,,株式会社,大阪府,吹田市,高浜町１４番８号,,27,205,5640026,,,,,,,2022-11-10,1,,,,,ラフカンパニー,0
836,3130001073021,新規,0,2022-11-10,2022-11-10,株式会社ＩＭＥＯＮ,,株式会社,京都府,京都市中京区,式阿弥町１２２－１式阿弥町４Ｆ,,26,104,6048261,,,,,,,2022-11-10,1,,,,,イメオン,0
841,3130005016629,新規,0,2022-11-10,2022-11-10,弁護士法人蒼天,,その他の設立登記法人,京都府,京都市中京区,御池通柳馬場西入る柳八幡町６５番地京都朝日ビル９階,,26,104,6040000,,,,,,,2022-11-10,1,,,,,ソウテン,0
846,3140001128022,新規,0,2022-11-10,2022-11-10,かえで株式会社,,株式会社,兵庫県,高砂市,中島２丁目５３０番地２,,28,216,6760001,,,,,,,2022-11-10,1,,,,,カエデ,0
847,3140001128030,新規,0,2022-11-10,2022-11-10,株式会社ココレ,,株式会社,兵庫県,川西市,水明台１丁目１番地の１１０,,28,217,6660116,,,,,,,2022-11-10,1,,,,,ココレ,0
848,3140001128055,新規,0,2022-11-10,2022-11-10,株式会社藤本造園土木,,株式会社,兵庫県,丹波市,春日町野村２５５３番地５,,28,223,6694132,,,,,,,2022-11-10,1,,,,,フジモトゾウエンドボク,0
849,3140001128063,新規,0,2022-11-10,2022-11-10,株式会社榎本重機建設,,株式会社,兵庫県,尼崎市,大庄北４丁目４番１３－２号,,28,202,6600063,,,,,,,2022-11-10,1,,,,,エノモトジュウキケンセツ,0
852,3140005026370,新規,0,2022-11-10,2022-11-10,一般社団法人櫻輪塾,,その他の設立登記法人,兵庫県,西宮市,西宮浜４丁目４－３－９０９号,,28,204,6620934,,,,,,,2022-11-10,1,,,,,オウワジュク,0
863,3180001153801,新規,0,2022-11-10,2022-11-10,株式会社ＰＲＥＣＥＤＥ,,株式会社,愛知県,名古屋市中区,千代田１丁目７番１１号,,23,106,4600012,,,,,,,2022-11-10,1,,,,,プリシード,0
864,3180001153826,新規,0,2022-11-10,2022-11-10,株式会社トライアングル,,株式会社,愛知県,名古屋市西区,花の木３丁目１７番３号,,23,104,4510062,,,,,,,2022-11-10,1,,,,,トライアングル,0
867,3180003024455,新規,0,2022-11-10,2022-11-10,合同会社恩,,合同会社,愛知県,名古屋市千種区,西山元町２丁目４２番地の２,,23,101,4640063,,,,,,,2022-11-10,1,,,,,メグミ,0
870,3180005019998,新規,0,2022-11-10,2022-11-10,一般社団法人知多ライフサポート,,その他の設立登記法人,愛知県,知多郡南知多町,大字内海字新田８９番地,,23,445,4703321,,,,,,,2022-11-10,1,,,,,チタライフサポート,0
872,3180301036805,新規,0,2022-11-10,2022-11-10,株式会社Ｐｉｎ．ｔｏ．Ｖｉｓｉｏｎ,,株式会社,愛知県,豊田市,神池町２丁目１２３６番地１１０,,23,211,4710804,,,,,,,2022-11-10,1,,,,,ピントヴィジョン,0
873,3180301036813,新規,0,2022-11-10,2022-11-10,まち不動産株式会社,,株式会社,愛知県,豊橋市,豊岡町１７８番地１,,23,201,4400034,,,,,,,2022-11-10,1,,,,,マチフドウサン,0
876,3200001040658,新規,0,2022-11-10,2022-11-10,株式会社ＴＨＥ．ウーマニフティ,,株式会社,岐阜県,各務原市,那加桜町３丁目２７０番地１,,21,213,5040912,,,,,,,2022-11-10,1,,,,,テェウーマニフティ,0
877,3200003005733,新規,0,2022-11-10,2022-11-10,合同会社もすライス,,合同会社,岐阜県,郡上市,大和町大間見１０１０番地２,,21,219,5014601,,,,,,,2022-11-10,1,,,,,モスライス,0
879,3210001019156,新規,0,2022-11-10,2022-11-10,株式会社ＤＡＳＵ‐ＨＡＩ,,株式会社,福井県,福井市,高木中央１丁目３００２番地高木倉庫,,18,201,9100804,,,,,,,2022-11-10,1,,,,,ダスハイ,0
888,3240001060644,新規,0,2022-11-10,2022-11-10,株式会社ナインコーポレーション,,株式会社,広島県,東広島市,志和町別府１０８７番地１,,34,212,7390267,,,,,,,2022-11-10,1,,,,,ナインコーポレーション,0
892,3240003005894,新規,0,2022-11-10,2022-11-10,合同会社りばー,,合同会社,広島県,広島市安佐南区,西原８丁目６番１９－３－１号,,34,105,7310113,,,,,,,2022-11-10,1,,,,,リバー,0
894,3260001037384,新規,0,2022-11-10,2022-11-10,株式会社結の心,,株式会社,岡山県,津山市,東一宮６番地２１,,33,203,7080814,,,,,,,2022-11-10,1,,,,,ユイノココロ,0
895,3260001037401,新規,0,2022-11-10,2022-11-10,Ｙ‐ｇｒｏｕｐ株式会社,,株式会社,岡山県,岡山市南区,妹尾２７７番地６,,33,104,7010205,,,,,,,2022-11-10,1,,,,,ワイグループ,0
897,3280003001667,新規,0,2022-11-10,2022-11-10,合同会社Ｄ‐カンパニー,,合同会社,島根県,松江市,黒田町４４２番地１サーパス城山西通り９０８号,,32,201,6900876,,,,,,,2022-11-10,1,,,,,ディーカンパニー,0
901,3290001099538,新規,0,2022-11-10,2022-11-10,ＣＬＯＵＤ９株式会社,,株式会社,福岡県,飯塚市,枝国４０６番地３７,,40,205,8200081,,,,,,,2022-11-10,1,,,,,クラウドナイン,0
902,3290001099562,新規,0,2022-11-10,2022-11-10,株式会社ＳＫＹテクノ,,株式会社,福岡県,三井郡大刀洗町,大字高樋１２１２番地１０,00128436,40,503,8301221,,,,,,,2022-11-10,1,,,,,スカイテクノ,0
904,3290803004249,新規,0,2022-11-10,2022-11-10,合同会社高池工房,,合同会社,福岡県,北九州市小倉南区,八重洲町１０番１－２０２号,,40,107,8020831,,,,,,,2022-11-10,1,,,,,タカイケコウボウ,0
909,3320003003948,新規,0,2022-11-10,2022-11-10,合同会社ＳｕｎＳｅｔ,,合同会社,大分県,大分市,都町２丁目２番３０号ビッグパレス６階,,44,201,8700034,,,,,,,2022-11-10,1,,,,,サンセット,0
911,3330001030282,新規,0,2022-11-10,2022-11-10,株式会社ベアトップ,,株式会社,熊本県,熊本市中央区,神水２丁目１０番１号宏和ビル４０４,,43,101,8620954,,,,,,,2022-11-10,1,,,,,ベアトップ,0
913,3340001025133,新規,0,2022-11-10,2022-11-10,株式会社シークレットベース,,株式会社,鹿児島県,曽於市,末吉町深川１２５９番地,,46,217,8998606,,,,,,,2022-11-10,1,,,,,シークレットベース,0
921,3360001031179,新規,0,2022-11-10,2022-11-10,ワイズトレーディング沖縄株式会社,,株式会社,沖縄県,糸満市,字糸満２２１０番地,,47,210,9010361,,,,,,,2022-11-10,1,,,,,ワイズトレーディングオキナワ,0
927,3370001049237,新規,0,2022-11-10,2022-11-10,株式会社ＵＲＰｌａｎ,,株式会社,宮城県,岩沼市,栄町１丁目１番１－５１７号,,04,211,9892473,,,,,,,2022-11-10,1,,,,,ユーアールプラン,0
953,3470003002282,新規,0,2022-11-10,2022-11-10,合同会社Ｎｅｗ　Ｏｃｅａｎ　ＪＰ,,合同会社,香川県,高松市,郷東町１６番地１労住協第１５ビル５０４号,,37,201,7618031,,,,,,,2022-11-10,1,,,,,ニューオーシャンジェーピー,0
954,3490001010335,新規,0,2022-11-10,2022-11-10,株式会社Ｌｉｏｎ　Ｋｉｎｇ,,株式会社,高知県,高知市,土佐山高川３３４番地３,,39,201,7813211,,,,,,,2022-11-10,1,,,,,ライオンキング,0
962,4010001230566,新規,0,2022-11-10,2022-11-10,株式会社テリロジーホールディングス,,株式会社,東京都,千代田区,九段北１丁目１３番５号,,13,101,1020073,,,,,,,2022-11-10,1,,,,,テリロジーホールディングス,0
963,4010001230632,新規,0,2022-11-10,2022-11-10,株式会社マーブルホールディングス,,株式会社,東京都,中央区,銀座３丁目１１番１１号,,13,102,1040061,,,,,,,2022-11-10,1,,,,,マーブルホールディングス,0
964,4010001230657,新規,0,2022-11-10,2022-11-10,ほっとパワー株式会社,,株式会社,東京都,中央区,勝どき５丁目３番１号勝どきザ・タワー１０１６,,13,102,1040054,,,,,,,2022-11-10,1,,,,,ホットパワー,0
965,4010001230715,新規,0,2022-11-10,2022-11-10,ＺＡＫＵ・Ｃｏｒｐｏｒａｔｉｏｎ株式会社,,株式会社,東京都,千代田区,九段南４丁目８番３５号,,13,101,1020074,,,,,,,2022-11-10,1,,,,,ザクコーポレーション,0
966,4010001230731,新規,0,2022-11-10,2022-11-10,株式会社ＰＢ,,株式会社,東京都,中央区,湊１丁目１番１５号プライマル八丁堀４０１号,,13,102,1040043,,,,,,,2022-11-10,1,,,,,ピービー,0
967,4010001230772,新規,0,2022-11-10,2022-11-10,株式会社パーム,,株式会社,東京都,千代田区,麹町４丁目４－７,,13,101,1020083,,,,,,,2022-11-10,1,,,,,パーム,0
983,4010401170651,新規,0,2022-11-10,2022-11-10,株式会社ハイライト,,株式会社,東京都,港区,南青山２丁目２－１５ＷｉｎＡｏｙａｍａＵＣＦ６Ｆ,,13,103,1070062,,,,,,,2022-11-10,1,,,,,ハイライト,0
984,4010401170726,新規,0,2022-11-10,2022-11-10,株式会社５４,,株式会社,東京都,港区,虎ノ門１丁目１４番１号郵政福祉琴平ビル１階,,13,103,1050001,,,,,,,2022-11-10,1,,,,,ゴーヨン,0
985,4010401170734,新規,0,2022-11-10,2022-11-10,株式会社みらいスコア,,株式会社,東京都,港区,芝浦４丁目１２番３８号,,13,103,1080023,,,,,,,2022-11-10,1,,,,,ミライスコア,0
986,4010401170775,新規,0,2022-11-10,2022-11-10,ＤＣ　Ｊｏｅｓ２株式会社,,株式会社,東京都,港区,南青山３丁目１番３号スプライン青山東急ビル３階,,13,103,1070062,,,,,,,2022-11-10,1,,,,,ディーシージョーズツー,0
988,4010403028807,新規,0,2022-11-10,2022-11-10,Ｌｅｍｏｎａｄｅ　Ｍｏｏｎ合同会社,,合同会社,東京都,港区,台場１丁目３－２－１３０９,,13,103,1350091,,,,,,,2022-11-10,1,,,,,レモネードムーン,0
991,4010405021537,新規,0,2022-11-10,2022-11-10,Ｇｅｍｉｎｉ特定目的会社,,その他の設立登記法人,東京都,港区,虎ノ門５丁目１番４号,,13,103,1050001,,,,,,,2022-11-10,1,,,,,ジェミニ,0
994,4010503006778,新規,0,2022-11-10,2022-11-10,合同会社ＡＲＥ,,合同会社,東京都,台東区,橋場１丁目１８－２－３０２,,13,106,1110023,,,,,,,2022-11-10,1,,,,,アー,0
998,4010601062137,新規,0,2022-11-10,2022-11-10,恵有利株式会社,,株式会社,東京都,墨田区,墨田５丁目５－２Ｒビル墨田０８号室,,13,107,1310031,,,,,,,2022-11-10,1,,,,,メグミアリ,0
1001,4010701043433,新規,0,2022-11-10,2022-11-10,ＬＶラグジェ株式会社,,株式会社,東京都,品川区,東大井４丁目１３番１１－３０７号,,13,109,1400011,,,,,,,2022-11-10,1,,,,,エルヴィーラグジェ,0
1002,4010801033417,新規,0,2022-11-10,2022-11-10,株式会社ＹＮ企画,,株式会社,東京都,大田区,西糀谷３丁目３番５－４０３号,,13,111,1440034,,,,,,,2022-11-10,1,,,,,ワイエヌキカク,0
1004,4010901051938,新規,0,2022-11-10,2022-11-10,株式会社ｔｏｙａ,,株式会社,東京都,世田谷区,下馬４丁目２９番１１号祐天寺フラワーマンション８０３,,13,112,1540002,,,,,,,2022-11-10,1,,,,,トヤ,0
1005,4010901051954,新規,0,2022-11-10,2022-11-10,株式会社ＣＥＣＩＬ,,株式会社,東京都,世田谷区,北沢２丁目１２番１０－３０１号,,13,112,1550031,,,,,,,2022-11-10,1,,,,,セシル,0
1011,4011001150829,新規,0,2022-11-10,2022-11-10,ネイビーパートナーズ株式会社,,株式会社,東京都,渋谷区,東２丁目１７番１５号アイビル２階,,13,113,1500011,,,,,,,2022-11-10,1,,,,,ネイビーパートナーズ,0
1024,4011401024673,新規,0,2022-11-10,2022-11-10,株式会社碧,,株式会社,東京都,板橋区,南町５８番９号,,13,119,1730027,,,,,,,2022-11-10,1,,,,,アオイ,0
1025,4011401024681,新規,0,2022-11-10,2022-11-10,株式会社Ｄｅｓｉｇｎ　Ａｔｌａｓ,,株式会社,東京都,板橋区,上板橋１丁目１９番１６－５０２号アソルティ上板橋,,13,119,1740076,,,,,,,2022-11-10,1,,,,,デザインアトラス,0
1033,4011801041525,新規,0,2022-11-10,2022-11-10,株式会社三縁想,,株式会社,東京都,葛飾区,東新小岩４丁目１７番６号プレミール２０１,,13,122,1240023,,,,,,,2022-11-10,1,,,,,サンエンソウ,0
1034,4011801041533,新規,0,2022-11-10,2022-11-10,ウェステック株式会社,,株式会社,東京都,足立区,鹿浜２丁目４番１９号,,13,121,1230864,,,,,,,2022-11-10,1,,,,,ウェステック,0
1035,4011801041541,新規,0,2022-11-10,2022-11-10,イーハウスコンサル株式会社,,株式会社,東京都,葛飾区,東金町２丁目３２番１３号・１Ｆ,,13,122,1250041,,,,,,,2022-11-10,1,,,,,イーハウスコンサル,0
1037,4012301013205,新規,0,2022-11-10,2022-11-10,株式会社ｓｕｒ　ｆｕｌｌ,,株式会社,東京都,町田市,本町田２０６番地６２,,13,209,1940032,,,,,,,2022-11-10,1,,,,,サーフル,0
1040,4012401039843,新規,0,2022-11-10,2022-11-10,Ｂｌｕｅ　Ｓｋｙ　Ｃａｍｐｅｒ　Ｐｒｏｊｅｃｔ株式会社,,株式会社,東京都,武蔵野市,八幡町４丁目１４－４メゾンドミリューＢ,,13,203,1800011,,,,,,,2022-11-10,1,,,,,ブルースカイキャンパープロジェクト,0
1041,4012401039851,新規,0,2022-11-10,2022-11-10,株式会社Ｒ＆Ｍ,,株式会社,東京都,調布市,仙川町１丁目７番地１ライブスクエア１階,,13,208,1820002,,,,,,,2022-11-10,1,,,,,アールアンドエム,0
1043,4012405004802,新規,0,2022-11-10,2022-11-10,一般社団法人多摩フィルハルモニア協会,,その他の設立登記法人,東京都,狛江市,猪方２丁目２０番１８号,,13,219,2010015,,,,,,,2022-11-10,1,,,,,タマフィルハルモニアキョウカイ,0
1045,4013101009054,新規,0,2022-11-10,2022-11-10,株式会社中野ダイナマイト,,株式会社,東京都,西多摩郡檜原村,８２９番地５号,,13,307,1900200,,,,,,,2022-11-10,1,,,,,ナカノダイナマイト,0
1060,4020001148915,新規,0,2022-11-10,2022-11-10,株式会社大喜電工,,株式会社,神奈川県,横浜市鶴見区,向井町４丁目８９番地３９,,14,101,2300037,,,,,,,2022-11-10,1,,,,,オオキデンコウ,0
1061,4020001148948,新規,0,2022-11-10,2022-11-10,株式会社Ｆｏｒｔｕｎｅ．,,株式会社,神奈川県,横浜市西区,西平沼町４番１－Ｗ１９２１号,,14,103,2200024,,,,,,,2022-11-10,1,,,,,フォーチュン,0
1065,4020003022705,新規,0,2022-11-10,2022-11-10,合同会社ジャンプ,,合同会社,神奈川県,横浜市都筑区,池辺町３５７３番地２－３０１号,,14,118,2240053,,,,,,,2022-11-10,1,,,,,ジャンプ,0
1078,4030003020550,新規,0,2022-11-10,2022-11-10,アレクス電気合同会社,,合同会社,埼玉県,上尾市,大字瓦葺１９６４番地１５,,11,219,3620022,,,,,,,2022-11-10,1,,,,,アレクスデンキ,0
1087,4040001125739,新規,0,2022-11-10,2022-11-10,株式会社ｔｏｂｉｒａ,,株式会社,千葉県,柏市,末広町１１番１－１０１号,,12,217,2770842,,,,,,,2022-11-10,1,,,,,トビラ,0
1088,4040001125747,新規,0,2022-11-10,2022-11-10,ＭＩＮＥ株式会社,,株式会社,千葉県,船橋市,海神町２丁目１番地１パークサイド船橋４０４号,,12,204,2730022,,,,,,,2022-11-10,1,,,,,ミネ,0
1089,4040001125796,新規,0,2022-11-10,2022-11-10,ＣＣＥＳ株式会社,,株式会社,千葉県,野田市,三ツ堀９６９番地の３６７,,12,208,2780011,,,,,,,2022-11-10,1,,,,,シーシーイーエス,0
1090,4040001125805,新規,0,2022-11-10,2022-11-10,株式会社結建設,,株式会社,千葉県,東金市,極楽寺６１７－３９,,12,213,2830835,,,,,,,2022-11-10,1,,,,,ムスビケンセツ,0
1091,4040003021242,新規,0,2022-11-10,2022-11-10,合同会社ＢＩＺＥＸ,,合同会社,千葉県,千葉市中央区,中央１丁目８番２号ＳＥＰＴ千葉ビル６Ａ,,12,101,2600013,,,,,,,2022-11-10,1,,,,,ビゼックス,0
1092,4040003021250,新規,0,2022-11-10,2022-11-10,合同会社ＴＯＲＡ,,合同会社,千葉県,勝浦市,植野１０９８番地２,,12,218,2995265,,,,,,,2022-11-10,1,,,,,トラ,0
1101,4070001039812,新規,0,2022-11-10,2022-11-10,ＪＡＰＡＮ・Ｊ・ＡＵＴＯ株式会社,,株式会社,群馬県,伊勢崎市,除ケ町１３６番地,,10,204,3720832,,,,,,,2022-11-10,1,,,,,ジャパンジェイオート,0
1104,4080103002683,新規,0,2022-11-10,2022-11-10,合同会社たんちょう,,合同会社,静岡県,富士市,青島町１９０－１－１５０２,,22,210,4170047,,,,,,,2022-11-10,1,,,,,タンチョウ,0
1107,4090001017849,新規,0,2022-11-10,2022-11-10,株式会社亜功利ファーム,,株式会社,山梨県,甲府市,塩部３丁目１３番３号,,19,201,4000026,,,,,,,2022-11-10,1,,,,,アグリファーム,0
1111,4100003006765,新規,0,2022-11-10,2022-11-10,ＧＡＲＤＥＮ合同会社,,合同会社,長野県,諏訪郡下諏訪町,西鷹野町４９６３番地１４,,20,361,3930087,,,,,,,2022-11-10,1,,,,,ガーデン,0
1112,4110001037076,新規,0,2022-11-10,2022-11-10,ＭＺ　Ｔｒｕｓｔ株式会社,,株式会社,新潟県,長岡市,希望が丘南５丁目１１番地２１,,15,202,9402125,,,,,,,2022-11-10,1,,,,,エムゼットトラスト,0
1113,4110001037101,新規,0,2022-11-10,2022-11-10,株式会社トレッド,,株式会社,新潟県,燕市,新生町１丁目９番２号,,15,213,9591214,,,,,,,2022-11-10,1,,,,,トレッド,0
1121,4120001249983,新規,0,2022-11-10,2022-11-10,株式会社清宝貿易,,株式会社,大阪府,大阪市浪速区,大国３丁目１番１３号,,27,111,5560014,,,,,,,2022-11-10,1,,,,,セイホウボウエキ,0
1122,4120001250173,新規,0,2022-11-10,2022-11-10,株式会社ＮＥＲＯ,,株式会社,大阪府,大阪市中央区,宗右衛門町３番１１号マーキュリーアリマ３階,,27,128,5420084,,,,,,,2022-11-10,1,,,,,ネロ,0
1123,4120001250207,新規,0,2022-11-10,2022-11-10,株式会社ＨＲＫ,,株式会社,大阪府,大阪市城東区,中央１丁目７番８号リアン中央１Ｆ,,27,118,5360005,,,,,,,2022-11-10,1,,,,,エイチアールケイ,0
1124,4120001250215,新規,0,2022-11-10,2022-11-10,株式会社ＯＮＥ　ＳＴＡＲ’Ｓ,,株式会社,大阪府,大阪市天王寺区,伶人町２番１２－３０３号,,27,109,5430061,,,,,,,2022-11-10,1,,,,,ワンスターズ,0
1128,4120005023294,新規,0,2022-11-10,2022-11-10,弁護士法人梅田東法律事務所,,その他の設立登記法人,大阪府,大阪市北区,南扇町７番１７号ＭＦ梅田ビル５階,,27,127,5300052,,,,,,,2022-11-10,1,,,,,ウメダヒガシホウリツジムショ,0
1131,4120101066511,新規,0,2022-11-10,2022-11-10,株式会社キーテクノロジーズグループ,,株式会社,大阪府,堺市堺区,山本町１丁２０番地１（３２３号）,,27,141,5900983,,,,,,,2022-11-10,1,,,,,キーテクノロジーズグループ,0
1133,4120901046720,新規,0,2022-11-10,2022-11-10,株式会社Ｂｒｏａｄ　Ｒａｎｇｅ,,株式会社,大阪府,茨木市,南春日丘３丁目７番２５号,,27,211,5670046,,,,,,,2022-11-10,1,,,,,ブロードレンジ,0
1134,4120901046729,新規,0,2022-11-10,2022-11-10,株式会社ＫＯＵＨＡＫＵ,,株式会社,大阪府,吹田市,江坂町４丁目１３番１０１号,,27,205,5640063,,,,,,,2022-11-10,1,,,,,コウハク,0
1135,4120901046737,新規,0,2022-11-10,2022-11-10,株式会社リバーインハウス,,株式会社,大阪府,豊中市,立花町１丁目１２－５,,27,203,5600025,,,,,,,2022-11-10,1,,,,,リバーインハウス,0
1138,4122001036395,新規,0,2022-11-10,2022-11-10,株式会社ＭＳ,,株式会社,大阪府,八尾市,太田新町４丁目６２番地,,27,212,5810039,,,,,,,2022-11-10,1,,,,,エムエス,0
1139,4122001036404,新規,0,2022-11-10,2022-11-10,株式会社エープラス,,株式会社,大阪府,東大阪市,高井田西６丁目３番２２－１１１号,,27,227,5770067,,,,,,,2022-11-10,1,,,,,エープラス,0
1143,4140001128013,新規,0,2022-11-10,2022-11-10,株式会社フジ・プランニング,,株式会社,兵庫県,神崎郡市川町,奥１５６番地の２,,28,442,6792325,,,,,,,2022-11-10,1,,,,,フジプランニング,0
1144,4140001128021,新規,0,2022-11-10,2022-11-10,株式会社ｈｅｌｉｏｓ,,株式会社,兵庫県,神戸市中央区,北長狭通１丁目１０番９号生田新道ビルＢ１Ｆ－６号,,28,110,6500012,,,,,,,2022-11-10,1,,,,,ヘリオス,0
1145,4140001128038,新規,0,2022-11-10,2022-11-10,皓株式会社,,株式会社,兵庫県,明石市,和坂１１番地の１９,,28,203,6730012,,,,,,,2022-11-10,1,,,,,コウ,0
1146,4140001128046,新規,0,2022-11-10,2022-11-10,株式会社なおちゃん,,株式会社,兵庫県,豊岡市,出石町町分２５番地の４,,28,209,6680221,,,,,,,2022-11-10,1,,,,,ナオチャン,0
1147,4140001128054,新規,0,2022-11-10,2022-11-10,株式会社エッジプロダクション,,株式会社,兵庫県,川西市,清和台西２丁目３番地の５６,,28,217,6660143,,,,,,,2022-11-10,1,,,,,エッジプロダクション,0
1148,4140001128062,新規,0,2022-11-10,2022-11-10,株式会社神戸グランツ不動産,,株式会社,兵庫県,神戸市垂水区,陸ノ町１０番１２－１０１号,,28,108,6550026,,,,,,,2022-11-10,1,,,,,コウベグランツフドウサン,0
1151,4140003018344,新規,0,2022-11-10,2022-11-10,西宮サニースポット合同会社,,合同会社,兵庫県,西宮市,二見町４番２１号,,28,204,6638111,,,,,,,2022-11-10,1,,,,,ニシノミヤサニースポット,0
1161,4180001153775,新規,0,2022-11-10,2022-11-10,株式会社明元,,株式会社,愛知県,春日井市,中新町２丁目１４番地６ラビデンス味美４０６号,,23,206,4860956,,,,,,,2022-11-10,1,,,,,メイゲン,0
1162,4180001153800,新規,0,2022-11-10,2022-11-10,株式会社ＥＣＯ瀬戸,,株式会社,愛知県,瀬戸市,西本地町２丁目２７６番地,,23,204,4890971,,,,,,,2022-11-10,1,,,,,エコセト,0
1167,4180301036795,新規,0,2022-11-10,2022-11-10,株式会社Ｏｎｅ　Ｓｔｙｌｅ,,株式会社,愛知県,豊橋市,中浜町２１９番地の２９,,23,201,4418065,,,,,,,2022-11-10,1,,,,,ワンスタイル,0
1168,4180301036804,新規,0,2022-11-10,2022-11-10,竹内運送株式会社,,株式会社,愛知県,蒲郡市,三谷町東１丁目４番地,,23,214,4430021,,,,,,,2022-11-10,1,,,,,タケウチウンソウ,0
1178,4210001019155,新規,0,2022-11-10,2022-11-10,株式会社ｂｏｘ,,株式会社,福井県,福井市,問屋町１丁目３４番地,,18,201,9188231,,,,,,,2022-11-10,1,,,,,ボックス,0
1183,4240001060627,新規,0,2022-11-10,2022-11-10,株式会社ロボハレテ,,株式会社,広島県,東広島市,西条町寺家５６０番地３４,,34,212,7390041,,,,,,,2022-11-10,1,,,,,ロボハレテ,0
1185,4240003005893,新規,0,2022-11-10,2022-11-10,合同会社まるや,,合同会社,広島県,福山市,草戸町２丁目１１番１３号,,34,207,7200831,,,,,,,2022-11-10,1,,,,,マルヤ,0
1193,4260001037400,新規,0,2022-11-10,2022-11-10,あば株式会社,,株式会社,岡山県,津山市,阿波３０８９番地２,,33,203,7093951,,,,,,,2022-11-10,1,,,,,アバ,0
1195,4260005011153,新規,0,2022-11-10,2022-11-10,ＮＰＯ法人無花果,,その他の設立登記法人,岡山県,岡山市北区,駅元町２５番１４号,,33,101,7000024,,,,,,,2022-11-10,1,,,,,イチジク,0
1197,4280001008820,新規,0,2022-11-10,2022-11-10,Ｐｒｏ　ｓｐｅｃ株式会社,,株式会社,島根県,松江市,玉湯町大谷９７６番地,,32,201,6990205,,,,,,,2022-11-10,1,,,,,プロスペック,0
1198,4280003001666,新規,0,2022-11-10,2022-11-10,合同会社若槻,,合同会社,島根県,鹿足郡津和野町,後田ロ２２０番地,,32,501,6995605,,,,,,,2022-11-10,1,,,,,ワカツキ,0
1202,4290001099495,新規,0,2022-11-10,2022-11-10,株式会社闘球マーケティング,,株式会社,福岡県,福岡市博多区,千代１丁目１３番９号五十川ビル２０２,,40,132,8120044,,,,,,,2022-11-10,1,,,,,トウキュウマーケティング,0
1203,4290001099529,新規,0,2022-11-10,2022-11-10,Ｄ・ＰＬＡＮＴ株式会社,,株式会社,福岡県,糟屋郡新宮町,三代西１丁目３－１２ハイカムール三代２０５,,40,345,8110125,,,,,,,2022-11-10,1,,,,,ディープラント,0
1204,4290001099537,新規,0,2022-11-10,2022-11-10,春日住宅株式会社,,株式会社,福岡県,春日市,若葉台西４丁目９番地,,40,218,8160823,,,,,,,2022-11-10,1,,,,,カスガジュウタク,0
1205,4290001099553,新規,0,2022-11-10,2022-11-10,株式会社あいホールディングス,,株式会社,福岡県,福津市,花見が丘２丁目１５番１０号,,40,224,8113214,,,,,,,2022-11-10,1,,,,,アイホールディングス,0
1206,4290003013165,新規,0,2022-11-10,2022-11-10,オーセンティックセルフ合同会社,,合同会社,福岡県,福岡市南区,三宅１丁目１５－１－３,,40,134,8111344,,,,,,,2022-11-10,1,,,,,オーセンティックセルフ,0
1212,4320003003947,新規,0,2022-11-10,2022-11-10,合同会社Ａ＆Ｉ,,合同会社,大分県,別府市,元町１７番４号,,44,202,8740944,,,,,,,2022-11-10,1,,,,,エーアンドアイ,0
1215,4340001025165,新規,0,2022-11-10,2022-11-10,株式会社パキラ,,株式会社,鹿児島県,鹿児島市,下荒田３丁目５番１９号,,46,201,8900056,,,,,,,2022-11-10,1,,,,,パキラ,0
1218,4360001031178,新規,0,2022-11-10,2022-11-10,株式会社琉球エコライン,,株式会社,沖縄県,那覇市,久茂地１丁目１－１パレットくもじ９階,,47,201,9000015,,,,,,,2022-11-10,1,,,,,リュウキュウエコライン,0
1219,4360001031194,新規,0,2022-11-10,2022-11-10,明和金属工業株式会社,,株式会社,沖縄県,中頭郡西原町,字翁長２０５番地,,47,329,9030117,,,,,,,2022-11-10,1,,,,,メイワキンゾクコウギョウ,0
1221,4360003012440,新規,0,2022-11-10,2022-11-10,合同会社Ｃｏｎｃｉｅｌ,,合同会社,沖縄県,名護市,字仲尾次２６７－２,,47,209,9051144,,,,,,,2022-11-10,1,,,,,コンシエル,0
1228,4420001018061,新規,0,2022-11-10,2022-11-10,株式会社Ａｍｅｒｉｅ,,株式会社,青森県,青森市,古川１丁目８番２号倉内ビル１階,,02,201,0300862,,,,,,,2022-11-10,1,,,,,アメリ,0
1236,4460101007274,新規,0,2022-11-10,2022-11-10,株式会社カラダノ,,株式会社,北海道,河東郡上士幌町,字上士幌東２線２３４番地,,01,633,0801408,,,,,,,2022-11-10,1,,,,,カラダノ,0
1241,4700150111423,新規,0,2022-11-10,2022-08-22,鳴子温泉花火実行委員会,,その他,宮城県,大崎市,鳴子温泉字湯元４１番地鳴子観光ホテル内,,04,215,9896823,,,,,,,2022-08-22,1,,,,,ナルコオンセンハナビジツコウイインカイ,0
1251,5010001230573,新規,0,2022-11-10,2022-11-10,株式会社たんぽぽ,,株式会社,東京都,千代田区,一番町３番地１０号アピス一番町７０１,,13,101,1020082,,,,,,,2022-11-10,1,,,,,タンポポ,0
1252,5010001230656,新規,0,2022-11-10,2022-11-10,株式会社ＷＧマネジメント,,株式会社,東京都,千代田区,九段北１丁目１３番５号,,13,101,1020073,,,,,,,2022-11-10,1,,,,,ダブリュージーマネジメント,0
1260,5010005035762,新規,0,2022-11-10,2022-11-10,社会保険労務士法人ゆずりは,,その他の設立登記法人,東京都,中央区,日本橋人形町１丁目１番１０号,,13,102,1030013,,,,,,,2022-11-10,1,,,,,ユズリハ,0
1267,5010401170592,新規,0,2022-11-10,2022-11-10,株式会社そらはな,,株式会社,東京都,港区,芝１丁目１３番１６号,,13,103,1050014,,,,,,,2022-11-10,1,,,,,ソラハナ,0
1268,5010401170709,新規,0,2022-11-10,2022-11-10,ＭＣＰ１０株式会社,,株式会社,東京都,港区,元赤坂１丁目１番８号株式会社赤坂国際会計内,,13,103,1070051,,,,,,,2022-11-10,1,,,,,エムシーピーテン,0
1269,5010401170725,新規,0,2022-11-10,2022-11-10,ふじ商事株式会社,,株式会社,東京都,港区,芝２丁目１７番１１－４０４号,,13,103,1050014,,,,,,,2022-11-10,1,,,,,フジショウジ,0
1270,5010401170774,新規,0,2022-11-10,2022-11-10,ＤＣ　Ｊｏｅｓ１株式会社,,株式会社,東京都,港区,南青山３丁目１番３号スプライン青山東急ビル３階,,13,103,1070062,,,,,,,2022-11-10,1,,,,,ディーシージョーズワン,0
1273,5010403028806,新規,0,2022-11-10,2022-11-10,Ｔｏｋｙｏ　ｄｅｓｉｇｎ　ａｎｄ　ｃｏｄｅ合同会社,,合同会社,東京都,港区,台場１丁目３－２－１３０９,,13,103,1350091,,,,,,,2022-11-10,1,,,,,トーキョーデザインアンドコード,0
1275,5010405021536,新規,0,2022-11-10,2022-11-10,Ｔａｕｒｕｓ特定目的会社,,その他の設立登記法人,東京都,港区,虎ノ門５丁目１番４号,,13,103,1050001,,,,,,,2022-11-10,1,,,,,トーラス,0
1277,5010603009837,新規,0,2022-11-10,2022-11-10,日本オーピーエス合同会社,,合同会社,東京都,墨田区,錦糸１丁目２番１号アルカセントラル１４階,,13,107,1300013,,,,,,,2022-11-10,1,,,,,ニホンオーピーエス,0
1281,5010701043449,新規,0,2022-11-10,2022-11-10,株式会社キャリアエクステンション,,株式会社,東京都,品川区,上大崎１丁目１５番２５－２０２号,,13,109,1410021,,,,,,,2022-11-10,1,,,,,キャリアエクステンション,0
1282,5010701043457,新規,0,2022-11-10,2022-11-10,株式会社ダージリン,,株式会社,東京都,品川区,東五反田２丁目１０番１－１９０１号,,13,109,1410022,,,,,,,2022-11-10,1,,,,,ダージリン,0
1286,5010901051945,新規,0,2022-11-10,2022-11-10,株式会社ｓｅｐｔ,,株式会社,東京都,世田谷区,太子堂１丁目１２－２７コンフォートテラス１００５号,,13,112,1540004,,,,,,,2022-11-10,1,,,,,,0
1294,5011001150828,新規,0,2022-11-10,2022-11-10,株式会社Ｐｉｃｋ６,,株式会社,東京都,渋谷区,道玄坂１丁目１０番８号渋谷道玄坂東急ビル２Ｆ－Ｃ,,13,113,1500043,,,,,,,2022-11-10,1,,,,,ピックシックス,0
1298,5011103012372,新規,0,2022-11-10,2022-11-10,合同会社シー,,合同会社,東京都,新宿区,百人町１丁目１４番９号２０２,,13,104,1690073,,,,,,,2022-11-10,1,,,,,シー,0
1305,5011401024672,新規,0,2022-11-10,2022-11-10,株式会社ｃｉｅｌｂｌｅｕ,,株式会社,東京都,板橋区,成増１丁目１４番１６号村上ビル２Ｆ,,13,119,1750094,,,,,,,2022-11-10,1,,,,,シエルブルー,0
1306,5011401024680,新規,0,2022-11-10,2022-11-10,株式会社ＳＥＡＳＯＮＺ,,株式会社,東京都,板橋区,徳丸１丁目１７－２,,13,119,1750083,,,,,,,2022-11-10,1,,,,,シーズン,0
1313,5011801041532,新規,0,2022-11-10,2022-11-10,株式会社ＦＩＲＥ　ＧＯＬＥＭ,,株式会社,東京都,葛飾区,東新小岩３丁目８番４－６０３号,,13,122,1240023,,,,,,,2022-11-10,1,,,,,ファイアゴーレム,0
1315,5011803005353,新規,0,2022-11-10,2022-11-10,合同会社ＩＣＥ,,合同会社,東京都,足立区,西竹の塚１丁目１２番６号,,13,121,1210822,,,,,,,2022-11-10,1,,,,,アイス,0
1318,5012301013204,新規,0,2022-11-10,2022-11-10,株式会社Ｈａｐｐｙｒｏａｄ,,株式会社,東京都,町田市,本町田１４３３番地１,,13,209,1940032,,,,,,,2022-11-10,1,,,,,ハッピーロード,0
1319,5012303001743,新規,0,2022-11-10,2022-11-10,ＳＡＮＧＯ　Ｔｒａｄｉｎｇ合同会社,,合同会社,東京都,町田市,小山町５００４番地１４,,13,209,1940212,,,,,,,2022-11-10,1,,,,,サンゴトレーディング,0
1324,5012401039850,新規,0,2022-11-10,2022-11-10,株式会社ＰＬＡＭＯＶ,,株式会社,東京都,武蔵野市,吉祥寺本町１丁目２５番１０号ＫＳ－２ビル,,13,203,1800004,,,,,,,2022-11-10,1,,,,,プラモブ,0
1326,5012801021961,新規,0,2022-11-10,2022-11-10,株式会社ＥＶＯＬＵ,,株式会社,東京都,立川市,柴崎町２丁目３－７,,13,202,1900023,,,,,,,2022-11-10,1,,,,,エボール,0
1329,5013101009053,新規,0,2022-11-10,2022-11-10,株式会社Ａ＆Ｍ,,株式会社,東京都,あきる野市,牛沼１１２番地,,13,228,1970826,,,,,,,2022-11-10,1,,,,,エーアンドエム,0
1347,5020001148922,新規,0,2022-11-10,2022-11-10,株式会社ととと,,株式会社,神奈川県,横浜市青葉区,たちばな台１丁目１１番地９－３２４号,,14,117,2270046,,,,,,,2022-11-10,1,,,,,トトト,0
1348,5020001148930,新規,0,2022-11-10,2022-11-10,株式会社いと,,株式会社,神奈川県,横浜市泉区,和泉中央南１丁目３９－４０,,14,116,2450023,,,,,,,2022-11-10,1,,,,,イト,0
1349,5020001148955,新規,0,2022-11-10,2022-11-10,株式会社Ａｒｒｏｗｓ,,株式会社,神奈川県,横浜市磯子区,広地町７番１９号,,14,107,2350013,,,,,,,2022-11-10,1,,,,,アロウズ,0
1357,5021001077434,新規,0,2022-11-10,2022-11-10,株式会社匠,,株式会社,神奈川県,小田原市,久野６６６番地の１,,14,206,2500055,,,,,,,2022-11-10,1,,,,,,0
1364,5030001150877,新規,0,2022-11-10,2022-11-10,株式会社ドクターハウス,,株式会社,埼玉県,さいたま市大宮区,上小町３０８番地３,,11,103,3300855,,,,,,,2022-11-10,1,,,,,ドクターハウス,0
1367,5030003020533,新規,0,2022-11-10,2022-11-10,合同会社メディアトップ,,合同会社,埼玉県,鶴ヶ島市,大字五味ヶ谷１１１番地２９,,11,241,3502202,,,,,,,2022-11-10,1,,,,,メディアトップ,0
1368,5030005021059,新規,0,2022-11-10,2022-11-10,医療法人快成会,,その他の設立登記法人,埼玉県,春日部市,谷原新田２１７７番地１,,11,214,3440035,,,,,,,2022-11-10,1,,,,,カイセイカイ,0
1377,5040001125820,新規,0,2022-11-10,2022-11-10,株式会社リバーラック,,株式会社,千葉県,習志野市,東習志野１丁目８－１,,12,216,2750001,,,,,,,2022-11-10,1,,,,,リバーラック,0
1396,5070001039828,新規,0,2022-11-10,2022-11-10,株式会社こもれびフルーツの森,,株式会社,群馬県,前橋市,富田町１４０２番地１,,10,201,3792161,,,,,,,2022-11-10,1,,,,,コモレビフルーツノモリ,0
1398,5070003004689,新規,0,2022-11-10,2022-11-10,合同会社ＳＡＮ　ＳＡＮ　ＳＴＯＲＥ,,合同会社,群馬県,前橋市,大手町３丁目１９番３－１００号石鍋殖産ビル,,10,201,3710026,,,,,,,2022-11-10,1,,,,,サンサンストア,0
1399,5070003004697,新規,0,2022-11-10,2022-11-10,Ａａｒｏｎ　Ｇａｒａｇｅ合同会社,,合同会社,群馬県,伊勢崎市,八寸町４８８６番地の１５,,10,204,3792236,,,,,,,2022-11-10,1,,,,,アーロンガレージ,0
1402,5090001017848,新規,0,2022-11-10,2022-11-10,ネクスト株式会社,,株式会社,山梨県,富士吉田市,富士見７丁目５９８０番４,,19,202,4030009,,,,,,,2022-11-10,1,,,,,ネクスト,0
1416,5120001250206,新規,0,2022-11-10,2022-11-10,株式会社Ｗｅｌｖｙ,,株式会社,大阪府,大阪市北区,西天満６丁目４番８号ル・グランデ東梅田８０２号室,,27,127,5300047,,,,,,,2022-11-10,1,,,,,ウェルヴィー,0
1417,5120001250222,新規,0,2022-11-10,2022-11-10,株式会社ＣＲＥＷ,,株式会社,大阪府,枚方市,大峰元町１丁目７番１０－２５号,,27,210,5730146,,,,,,,2022-11-10,1,,,,,クルー,0
1418,5120001250255,新規,0,2022-11-10,2022-11-10,偉杭株式会社,,株式会社,大阪府,大阪市中央区,東平２丁目２番１０号,,27,128,5420063,,,,,,,2022-11-10,1,,,,,エラクイ,0
1421,5120003022792,新規,0,2022-11-10,2022-11-10,合同会社ＮＯＴ　ＦＯＵＮＤ,,合同会社,大阪府,大阪市西区,九条南２丁目４－２０一階レートオフ内,,27,106,5500025,,,,,,,2022-11-10,1,,,,,ノットファウンド,0
1422,5120003022826,新規,0,2022-11-10,2022-11-10,えりも風力発電合同会社,,合同会社,大阪府,大阪市住之江区,南港北２丁目１番１０号,,27,125,5590034,,,,,,,2022-11-10,1,,,,,エリモフウリョクハツデン,0
1423,5120003022842,新規,0,2022-11-10,2022-11-10,ＤｅａｌｓＷｅｓｔ＆Ｃｏｍｐａｎｙ合同会社,,合同会社,大阪府,大阪市北区,梅田２丁目２－２ヒルトンプラザウエスト１８階,,27,127,5300001,,,,,,,2022-11-10,1,,,,,ディールズウエストアンドカンパニー,0
1425,5120005023277,新規,0,2022-11-10,2022-11-10,司法書士法人朝陽法務,,その他の設立登記法人,大阪府,大阪市淀川区,西中島３丁目８番１５－６０１号,,27,123,5320011,,,,,,,2022-11-10,1,,,,,アサヒホウム,0
1429,5120101066510,新規,0,2022-11-10,2022-11-10,株式会社ＦＲＥＥＳ,,株式会社,大阪府,堺市堺区,新町３番１６－５０５号,,27,141,5900079,,,,,,,2022-11-10,1,,,,,フリーズ,0
1436,5120901046728,新規,0,2022-11-10,2022-11-10,株式会社ＫＩＨＡＣＨＩ,,株式会社,大阪府,吹田市,江坂町４丁目１３番１０１号,,27,205,5640063,,,,,,,2022-11-10,1,,,,,キハチ,0
1437,5120901046736,新規,0,2022-11-10,2022-11-10,株式会社茨木給食サービス,,株式会社,大阪府,茨木市,上中条１丁目１１番２３号,,27,211,5670881,,,,,,,2022-11-10,1,,,,,イバラキキュウショクサービス,0
1439,5120903004353,新規,0,2022-11-10,2022-11-10,ＲＳコンサルタント合同会社,,合同会社,大阪府,豊中市,庄内幸町３丁目１４番５号５号,,27,203,5610833,,,,,,,2022-11-10,1,,,,,アールエスコンサルタント,0
1440,5120903004361,新規,0,2022-11-10,2022-11-10,ミータイム合同会社,,合同会社,大阪府,摂津市,一津屋３丁目４番４号,,27,224,5660043,,,,,,,2022-11-10,1,,,,,ミータイム,0
1443,5122001036386,新規,0,2022-11-10,2022-11-10,株式会社ＡＣＥ,,株式会社,大阪府,八尾市,宮町４丁目４番２２－７０３号,,27,212,5810815,,,,,,,2022-11-10,1,,,,,エース,0
1444,5122003002452,新規,0,2022-11-10,2022-11-10,合同会社ＮＥＶＥＲ,,合同会社,大阪府,東大阪市,三ノ瀬１丁目３－７,,27,227,5770849,,,,,,,2022-11-10,1,,,,,ネバー,0
1453,5140001128012,新規,0,2022-11-10,2022-11-10,株式会社ＫＨハイム,,株式会社,兵庫県,三木市,緑が丘町中２丁目１番地の１６,,28,215,6730532,,,,,,,2022-11-10,1,,,,,ケイエイチハイム,0
1454,5140001128020,新規,0,2022-11-10,2022-11-10,株式会社ルビア,,株式会社,兵庫県,伊丹市,清水２丁目４番１２号ガーデンハイツ伊丹１０５号,,28,207,6640894,,,,,,,2022-11-10,1,,,,,ルビア,0
1455,5140001128037,新規,0,2022-11-10,2022-11-10,株式会社エムオーテクノ,,株式会社,兵庫県,神戸市北区,鈴蘭台北町９丁目２２番４号,,28,109,6511111,,,,,,,2022-11-10,1,,,,,エムオーテクノ,0
1456,5140001128053,新規,0,2022-11-10,2022-11-10,株式会社リンリン,,株式会社,兵庫県,神戸市灘区,篠原南町３丁目４番１１号,,28,102,6570059,,,,,,,2022-11-10,1,,,,,リンリン,0
1458,5140003018351,新規,0,2022-11-10,2022-11-10,フォースパワー合同会社,,合同会社,兵庫県,神戸市須磨区,若木町２丁目１１番１１号,,28,107,6540014,,,,,,,2022-11-10,1,,,,,フォースパワー,0
1461,5140005026360,新規,0,2022-11-10,2022-11-10,一般社団法人コロコロおむすび,,その他の設立登記法人,兵庫県,神戸市兵庫区,水木通８丁目１－９開福ビル２階,,28,105,6520802,,,,,,,2022-11-10,1,,,,,コロコロオムスビ,0
1462,5140005026369,新規,0,2022-11-10,2022-11-10,弁護士法人新神戸法律事務所,,その他の設立登記法人,兵庫県,神戸市中央区,西町３５番地三井神戸ビル２階,,28,110,6500038,,,,,,,2022-11-10,1,,,,,シンコウベホウリツジムショ,0
1463,5150003002809,新規,0,2022-11-10,2022-11-10,合同会社神楽み,,合同会社,奈良県,北葛城郡上牧町,服部台１丁目６－１８,,29,424,6390212,,,,,,,2022-11-10,1,,,,,カミダノミ,0
1475,5180003024478,新規,0,2022-11-10,2022-11-10,合同会社Ｄｒｅａｍ　Ｍａｋｅｒ,,合同会社,愛知県,名古屋市中区,丸の内３丁目１６番３１号フォーティーンヒルズ丸の内４０１号,,23,106,4600002,,,,,,,2022-11-10,1,,,,,ドリームメーカー,0
1476,5180301036778,新規,0,2022-11-10,2022-11-10,株式会社バルバル,,株式会社,愛知県,豊橋市,大脇町字大脇７５番地４,,23,201,4413101,,,,,,,2022-11-10,1,,,,,バルバル,0
1477,5180301036803,新規,0,2022-11-10,2022-11-10,株式会社ＰＯＯＬ,,株式会社,愛知県,岡崎市,明大寺町字天白前３７番地８,,23,202,4440864,,,,,,,2022-11-10,1,,,,,プール,0
1478,5180301036811,新規,0,2022-11-10,2022-11-10,株式会社アール・エス・シー,,株式会社,愛知県,蒲郡市,竹島町６番６号,,23,214,4430031,,,,,,,2022-11-10,1,,,,,アールエスシー,0
1480,5180303005509,新規,0,2022-11-10,2022-11-10,合同会社フェリチェート,,合同会社,愛知県,岡崎市,石原町字石原１０３番地２,,23,202,4443601,,,,,,,2022-11-10,1,,,,,フェリチェート,0
1481,5190001029924,新規,0,2022-11-10,2022-11-10,株式会社ＣＲＳ,,株式会社,三重県,四日市市,別名６丁目４番地１３,,24,202,5100007,,,,,,,2022-11-10,1,,,,,シーアールエス,0
1482,5190005011762,新規,0,2022-11-10,2022-11-10,一般社団法人Ｏｌｕ．Ｏｌｕ松阪,,その他の設立登記法人,三重県,松阪市,稲木町５２２番地３,,24,204,5150212,,,,,,,2022-11-10,1,,,,,オルオルマツサカ,0
1484,5200005013410,新規,0,2022-11-10,2022-11-10,特定非営利活動法人トマトなんでも相談室,,その他の設立登記法人,岐阜県,羽島市,江吉良町江中３丁目１０番地,,21,209,5016238,,,,,,,2022-11-10,1,,,,,トマトナンデモソウダンシツ,0
1485,5210003001580,新規,0,2022-11-10,2022-11-10,メタキャスト合同会社,,合同会社,福井県,吉田郡永平寺町,松岡葵１丁目７９番地,,18,322,9101132,,,,,,,2022-11-10,1,,,,,メタキャスト,0
1487,5220001025127,新規,0,2022-11-10,2022-11-10,株式会社Ａｎｄ　Ｍａｒｋｅｔｉｎｇ,,株式会社,石川県,野々市市,藤平田１丁目３１９番地,,17,212,9218832,,,,,,,2022-11-10,1,,,,,アンドマーケティング,0
1489,5230003001926,新規,0,2022-11-10,2022-11-10,合同会社ＲＡＫＵＲＡ,,合同会社,富山県,砺波市,千代７９９番地６７,,16,208,9391351,,,,,,,2022-11-10,1,,,,,ラクラ,0
1496,5240001060626,新規,0,2022-11-10,2022-11-10,株式会社グレイス・ケア,,株式会社,広島県,福山市,引野町３丁目７番２０号,,34,207,7210942,,,,,,,2022-11-10,1,,,,,グレイスケア,0
1500,5240003005892,新規,0,2022-11-10,2022-11-10,合同会社藪田,,合同会社,広島県,広島市佐伯区,旭園５番１１号,,34,108,7315133,,,,,,,2022-11-10,1,,,,,ヤブタ,0
1501,5250003003177,新規,0,2022-11-10,2022-11-10,合同会社ＩｎｆｉｎｉｔｙＤｅｓｉｇｎ,,合同会社,山口県,周南市,秋月４丁目７番３－３０５号,,35,215,7450825,,,,,,,2022-11-10,1,,,,,インフィニティーデザイン,0
1506,5270001008663,新規,0,2022-11-10,2022-11-10,株式会社ｙＣｅｎｄｒｉｌｌｏｎ,,株式会社,鳥取県,米子市,皆生新田３丁目５番３０号ブリスガーデンＶ,00128432,31,202,6830002,,,,,,,2022-11-10,1,,,,,ワイセンドリヨン,0
1516,5290001099536,新規,0,2022-11-10,2022-11-10,株式会社ＲＩＴＡ,,株式会社,福岡県,朝倉市,堤１７３６番地１２３理心ビル２０２号,,40,228,8380062,,,,,,,2022-11-10,1,,,,,リタ,0
1517,5290001099569,新規,0,2022-11-10,2022-11-10,万和株式会社,,株式会社,福岡県,福岡市博多区,吉塚１丁目８番２７－４０６号市営吉塚西住宅,,40,132,8120041,,,,,,,2022-11-10,1,,,,,マンワ,0
1518,5290003013172,新規,0,2022-11-10,2022-11-10,合同会社ＭＩＲＡＩＮＯＣ,,合同会社,福岡県,久留米市,百年公園１番１号久留米リサーチセンタービル福岡バイオインキュベーションセンター棟３階３０４号室,,40,203,8390864,,,,,,,2022-11-10,1,,,,,ミライノック,0
1520,5290803004247,新規,0,2022-11-10,2022-11-10,合同会社りあな,,合同会社,福岡県,築上郡築上町,大字広末２９９番地２,,40,647,8290103,,,,,,,2022-11-10,1,,,,,リアナ,0
1522,5310001018113,新規,0,2022-11-10,2022-11-10,株式会社貴工業,,株式会社,長崎県,佐世保市,母ケ浦町１７９０番地１カントリーライフ１０７号,,42,202,8580912,,,,,,,2022-11-10,1,,,,,タカコウギョウ,0
1524,5320005010032,新規,0,2022-11-10,2022-11-10,一般社団法人沙羅の木,,その他の設立登記法人,大分県,大分市,松が丘３丁目１１番５号,,44,201,8701168,,,,,,,2022-11-10,1,,,,,シャラノキ,0
1530,5340003003960,新規,0,2022-11-10,2022-11-10,合同会社東,,合同会社,鹿児島県,大島郡徳之島町,井之川８８８番地２,,46,530,8917114,,,,,,,2022-11-10,1,,,,,アズマ,0
1534,5360001031177,新規,0,2022-11-10,2022-11-10,株式会社須藤,,株式会社,沖縄県,宮古島市,平良字西里５６５番地２,,47,214,9060012,,,,,,,2022-11-10,1,,,,,スドウ,0
1537,5370001049243,新規,0,2022-11-10,2022-11-10,株式会社リプラス,,株式会社,宮城県,石巻市,大街道北１丁目５番１８号,,04,202,9860854,,,,,,,2022-11-10,1,,,,,リプラス,0
1544,5420003002599,新規,0,2022-11-10,2022-11-10,合同会社観音丸,,合同会社,青森県,青森市,合浦２丁目１６番３号,,02,201,0300902,,,,,,,2022-11-10,1,,,,,カンノンマル,0
1556,5450003002266,新規,0,2022-11-10,2022-11-10,セラヴィ合同会社,,合同会社,北海道,士別市,東八条１５丁目３１２９番地５８,,01,220,0950018,,,,,,,2022-11-10,1,,,,,セラヴィ,0
1563,5470005006478,新規,0,2022-11-10,2022-11-10,せとうち税理士法人,,その他の設立登記法人,香川県,高松市,中野町２９番５,,37,201,7600008,,,,,,,2022-11-10,1,,,,,セトウチ,0
1568,5500003002921,新規,0,2022-11-10,2022-11-10,合同会社Ｔｒｉ　Ｌｕｘ,,合同会社,愛媛県,今治市,伯方町木浦甲１２９３番地７,,38,202,7942305,,,,,,,2022-11-10,1,,,,,トゥリルクス,0
1572,5700150112404,新規,0,2022-11-10,2022-10-31,アメリカハワイアンフェスティバル実行委員会,,その他,東京都,練馬区,大泉学園町８丁目２８－１　４０５,,13,120,1780061,,,,,,,2022-10-31,1,,,,,アメリカハワイアンフエステイバルジツコウイインカイ,0
1586,6010001230738,新規,0,2022-11-10,2022-11-10,ｓｈａｖａｔ株式会社,,株式会社,東京都,中央区,銀座１丁目１２番４号Ｎ＆ＥＢＬＤ．６Ｆ,,13,102,1040061,,,,,,,2022-11-10,1,,,,,シャバット,0
1587,6010001230779,新規,0,2022-11-10,2022-11-10,株式会社ナノシステムズＪＰ,,株式会社,東京都,千代田区,丸の内１丁目８－３丸の内トラストタワー本館２０階,,13,101,1000005,,,,,,,2022-11-10,1,,,,,ナノシステムズジェーピー,0
1589,6010003039021,新規,0,2022-11-10,2022-11-10,合同会社モノエス,,合同会社,東京都,中央区,銀座８丁目１８番３号銀座加藤ビル２階,,13,102,1040061,,,,,,,2022-11-10,1,,,,,モノエス,0
1590,6010003039070,新規,0,2022-11-10,2022-11-10,Ｒｅｖｉｓｏｎ‐Ｂ合同会社,,合同会社,東京都,中央区,銀座１丁目１２番４号Ｎ＆ＥＢＬＤ．６Ｆ,,13,102,1040061,,,,,,,2022-11-10,1,,,,,レビジョンビー,0
1600,6010401170708,新規,0,2022-11-10,2022-11-10,ＭＣＰ１１株式会社,,株式会社,東京都,港区,元赤坂１丁目１番８号株式会社赤坂国際会計内,,13,103,1070051,,,,,,,2022-11-10,1,,,,,エムシーピーイレブン,0
1601,6010401170732,新規,0,2022-11-10,2022-11-10,株式会社ＮＥＯＢＡＮＫサービシーズ,,株式会社,東京都,港区,六本木１丁目６番１号,,13,103,1060032,,,,,,,2022-11-10,1,,,,,ネオバンクサービシーズ,0
1602,6010401170749,新規,0,2022-11-10,2022-11-10,株式会社貞治郎屋,,株式会社,東京都,港区,南青山２丁目２番１５号,,13,103,1070062,,,,,,,2022-11-10,1,,,,,サダジロウヤ,0
1603,6010401170757,新規,0,2022-11-10,2022-11-10,株式会社ｄｅｋｉｒ,,株式会社,東京都,港区,南青山２丁目２番１５号,,13,103,1070062,,,,,,,2022-11-10,1,,,,,デキル,0
1610,6010403028870,新規,0,2022-11-10,2022-11-10,合同会社エムアイギャップ,,合同会社,東京都,港区,浜松町１丁目１８番１３号,,13,103,1050013,,,,,,,2022-11-10,1,,,,,エムアイギャップ,0
1611,6010405021535,新規,0,2022-11-10,2022-11-10,Ａｒｉｅｓ特定目的会社,,その他の設立登記法人,東京都,港区,虎ノ門５丁目１番４号,,13,103,1050001,,,,,,,2022-11-10,1,,,,,エリーズ,0
1626,6010901051952,新規,0,2022-11-10,2022-11-10,ＳＰＡＡＫ株式会社,,株式会社,東京都,世田谷区,祖師谷３丁目２６番２６－１０１号,,13,112,1570072,,,,,,,2022-11-10,1,,,,,スパーク,0
1633,6011001150686,新規,0,2022-11-10,2022-11-10,株式会社９‐ｉｎｄ,,株式会社,東京都,渋谷区,神宮前６丁目２３番４号,,13,113,1500001,,,,,,,2022-11-10,1,,,,,ナインド,0
1634,6011001150827,新規,0,2022-11-10,2022-11-10,ｕｎｄｅｒｇｒａｆｆｉｔｉ．株式会社,,株式会社,東京都,渋谷区,渋谷２丁目１９－１５宮益坂ビルディング６０９,,13,113,1500002,,,,,,,2022-11-10,1,,,,,アンダーグラフィティ,0
1640,6011101100772,新規,0,2022-11-10,2022-11-10,シグナス都市開発株式会社,,株式会社,東京都,新宿区,西新宿４丁目５番４号６０４,,13,104,1600023,,,,,,,2022-11-10,1,,,,,シグナストシカイハツ,0
1641,6011101100780,新規,0,2022-11-10,2022-11-10,株式会社ＣＲＯＳＳ　ＴＯＫＹＯ,,株式会社,東京都,新宿区,西新宿６丁目１１番３号Ｄタワー西新宿１６階,,13,104,1600023,,,,,,,2022-11-10,1,,,,,クロストウキョウ,0
1644,6011301028252,新規,0,2022-11-10,2022-11-10,株式会社ファータイル,,株式会社,東京都,杉並区,和田１丁目３３番５号,,13,115,1660012,,,,,,,2022-11-10,1,,,,,,0
1650,6011503005355,新規,0,2022-11-10,2022-11-10,合同会社サクセス,,合同会社,東京都,北区,田端新町３丁目１３番１１号,,13,117,1140012,,,,,,,2022-11-10,1,,,,,サクセス,0
1658,6011801041531,新規,0,2022-11-10,2022-11-10,諾澤株式会社,,株式会社,東京都,足立区,栗原３丁目２６番１号２Ｆ,,13,121,1230842,,,,,,,2022-11-10,1,,,,,ダクザワ,0
1659,6011803005369,新規,0,2022-11-10,2022-11-10,合同会社ＫＯＫＯ　ＭＡＩＳＯＮ,,合同会社,東京都,足立区,谷中１丁目２３番２号,,13,121,1200006,,,,,,,2022-11-10,1,,,,,ココメイゾン,0
1661,6012403005676,新規,0,2022-11-10,2022-11-10,Ｂｌａｃｋ　Ｄｏｇ　Ｌｏｇｉｃ合同会社,,合同会社,東京都,調布市,東つつじケ丘３丁目１５番地２５,,13,208,1820005,,,,,,,2022-11-10,1,,,,,ブラックドッグロジック,0
1664,6012801021952,新規,0,2022-11-10,2022-11-10,株式会社清水基創,,株式会社,東京都,立川市,砂川町５丁目５番地の２４,,13,202,1900031,,,,,,,2022-11-10,1,,,,,シミズキソ,0
1678,6020001148913,新規,0,2022-11-10,2022-11-10,ｍｉ‐ｔａ株式会社,,株式会社,神奈川県,川崎市宮前区,土橋３丁目８番地１２ガーデンハウス鷺沼２０３,,14,136,2160005,,,,,,,2022-11-10,1,,,,,ミータ,0
1679,6020001148921,新規,0,2022-11-10,2022-11-10,株式会社原福,,株式会社,神奈川県,川崎市宮前区,南野川３丁目３５番１３号,,14,136,2160042,,,,,,,2022-11-10,1,,,,,ゲンプク,0
1680,6020003022711,新規,0,2022-11-10,2022-11-10,ＭＣ合同会社,,合同会社,神奈川県,横浜市中区,北仲通５丁目５７番地２号,,14,104,2310003,,,,,,,2022-11-10,1,,,,,,0
1681,6020003022728,新規,0,2022-11-10,2022-11-10,ＮｏｎＴｕｒｎ合同会社,,合同会社,神奈川県,横浜市西区,みなとみらい３丁目７－１オーシャンゲートみなとみらい８Ｆ－ＷｅＷｏｒｋ内,,14,103,2200012,,,,,,,2022-11-10,1,,,,,ノンターン,0
1685,6021001077367,新規,0,2022-11-10,2022-11-10,サンソニックテクノス株式会社,,株式会社,神奈川県,藤沢市,鵠沼橘１丁目３番８号グレイシャスＫ３０８,,14,205,2510024,,,,,,,2022-11-10,1,,,,,サンソニックテクノス,0
1686,6021001077433,新規,0,2022-11-10,2022-11-10,株式会社真輝,,株式会社,神奈川県,横須賀市,汐入町３丁目１２番地ヒノキビル３５号室,,14,201,2380042,,,,,,,2022-11-10,1,,,,,シンキ,0
1702,6030003020549,新規,0,2022-11-10,2022-11-10,Ｓｕｒｐａｓｓ合同会社,,合同会社,埼玉県,さいたま市見沼区,東大宮６丁目４５番地１３ＳＡＩＮＴ－１９東大宮ＩＩＢ２０３,00128431,11,104,3370051,,,,,,,2022-11-10,1,,,,,サーパス,0
1703,6030003020565,新規,0,2022-11-10,2022-11-10,合同会社ＢＥＳＴ　ＩＮＶＥＳＴＭＥＮＴ,,合同会社,埼玉県,熊谷市,上之３２３２番地,,11,202,3600012,,,,,,,2022-11-10,1,,,,,ベストインベストメント,0
1704,6030005021058,新規,0,2022-11-10,2022-11-10,一般社団法人キャッシュフロー経営導入支援協議会,,その他の設立登記法人,埼玉県,越谷市,レイクタウン２丁目１０番地２ブリッサ２０８,,11,222,3430828,,,,,,,2022-11-10,1,,,,,キャッシュフローケイエイドウニュウシエンキョウギカイ,0
1708,6040001125662,新規,0,2022-11-10,2022-11-10,株式会社ｃｈｅｒｒｙ　ｔｒｅｅｓ,,株式会社,千葉県,千葉市若葉区,桜木１丁目２４番７号,,12,104,2640028,,,,,,,2022-11-10,1,,,,,チェリーツリーズ,0
1709,6040001125729,新規,0,2022-11-10,2022-11-10,株式会社友和,,株式会社,千葉県,千葉市若葉区,太田町８１番地,,12,104,2640013,,,,,,,2022-11-10,1,,,,,ユウワ,0
1710,6040001125786,新規,0,2022-11-10,2022-11-10,株式会社ＴＲＵＳＴ,,株式会社,千葉県,印西市,西の原３丁目２７番地５,,12,231,2701334,,,,,,,2022-11-10,1,,,,,トラスト,0
1711,6040001125828,新規,0,2022-11-10,2022-11-10,株式会社ジェイピーファクトリー,,株式会社,千葉県,柏市,十余二２９７番地,,12,217,2770872,,,,,,,2022-11-10,1,,,,,ジェイピーファクトリー,0
1714,6050001051932,新規,0,2022-11-10,2022-11-10,株式会社ＡＣＭ　ＴＲＡＤＩＮＧ,,株式会社,茨城県,結城市,大字上山川６０１８番地,,08,207,3070021,,,,,,,2022-11-10,1,,,,,エーシーエムトレーディング,0
1719,6060001035439,新規,0,2022-11-10,2022-11-10,株式会社ドドシティ,,株式会社,栃木県,宇都宮市,東簗瀬１丁目１３番１号－２０１,,09,201,3210925,,,,,,,2022-11-10,1,,,,,ドドシティ,0
1722,6070001039827,新規,0,2022-11-10,2022-11-10,株式会社ステア,,株式会社,群馬県,沼田市,利根町日影南郷１１６番地１,,10,206,3780313,,,,,,,2022-11-10,1,,,,,ステア,0
1723,6070003004696,新規,0,2022-11-10,2022-11-10,プラスワーク合同会社,,合同会社,群馬県,吾妻郡高山村,大字中山２１１１番地,,10,428,3770702,,,,,,,2022-11-10,1,,,,,プラスワーク,0
1724,6070003004705,新規,0,2022-11-10,2022-11-10,ｕｐ・ｄｏｗｎ合同会社,,合同会社,群馬県,高崎市,小八木町３１２－１５ビジネスパーク小八木２Ｆ,,10,202,3700071,,,,,,,2022-11-10,1,,,,,,0
1749,6120001250139,新規,0,2022-11-10,2022-11-10,株式会社クオーレテック,,株式会社,大阪府,大阪市中央区,淡路町１丁目４番９号,,27,128,5410047,,,,,,,2022-11-10,1,,,,,クオーレテック,0
1750,6120001250171,新規,0,2022-11-10,2022-11-10,Ａｗｅｓｏｍｅ　Ｃｈｏｉｃｅ株式会社,,株式会社,大阪府,大阪市北区,梅田１丁目１－３大阪駅前第３ビル２９階１－１－１号室,,27,127,5300001,,,,,,,2022-11-10,1,,,,,オーサムチョイス,0
1751,6120001250188,新規,0,2022-11-10,2022-11-10,株式会社ＴＡＧＡＴＡＭＥ,,株式会社,大阪府,大阪市浪速区,難波中１丁目１２番５号,,27,111,5560011,,,,,,,2022-11-10,1,,,,,タガタメ,0
1753,6120003022800,新規,0,2022-11-10,2022-11-10,合同会社ＳＨＥＬＰ,,合同会社,大阪府,大阪市西区,千代崎１丁目２７番１０号サングラン千代崎９０２号,,27,106,5500023,,,,,,,2022-11-10,1,,,,,シェルプ,0
1754,6120003022825,新規,0,2022-11-10,2022-11-10,合同会社ソフィス,,合同会社,大阪府,大阪市北区,神山町９－２４－４０７,,27,127,5300026,,,,,,,2022-11-10,1,,,,,ソフィス,0
1759,6120101066501,新規,0,2022-11-10,2022-11-10,株式会社ＳＯＵＳＩＮ,,株式会社,大阪府,堺市北区,黒土町２３６１番１,,27,146,5918024,,,,,,,2022-11-10,1,,,,,ソウシン,0
1764,6120901046719,新規,0,2022-11-10,2022-11-10,株式会社モリタカ,,株式会社,大阪府,吹田市,千里山東１丁目１８番４号,,27,205,5650842,,,,,,,2022-11-10,1,,,,,モリタカ,0
1766,6122001036393,新規,0,2022-11-10,2022-11-10,株式会社仁徳会,,株式会社,大阪府,柏原市,今町１丁目４番１７号,,27,221,5820002,,,,,,,2022-11-10,1,,,,,ジントクカイ,0
1773,6140001128011,新規,0,2022-11-10,2022-11-10,株式会社ＡｎＺ建設,,株式会社,兵庫県,尼崎市,西昆陽２丁目３２番４－２－１０２号,,28,202,6610047,,,,,,,2022-11-10,1,,,,,アンズケンセツ,0
1774,6140001128044,新規,0,2022-11-10,2022-11-10,株式会社わたなべＨＯＭＥ,,株式会社,兵庫県,神戸市北区,桂木３丁目３２番地の１コスモコート神戸北町１３０３号,,28,109,6511223,,,,,,,2022-11-10,1,,,,,ワタナベホーム,0
1775,6140001128052,新規,0,2022-11-10,2022-11-10,株式会社Ｋｅｙ　Ｓｐａｃｅ,,株式会社,兵庫県,加古川市,加古川町溝之口７４９番地,,28,210,6750064,,,,,,,2022-11-10,1,,,,,キースペース,0
1776,6140001128060,新規,0,2022-11-10,2022-11-10,ＰＭＢ株式会社,,株式会社,兵庫県,神戸市兵庫区,高松町１２番１４号,,28,105,6520874,,,,,,,2022-11-10,1,,,,,ピーエムビー,0
1778,6170003001790,新規,0,2022-11-10,2022-11-10,合同会社ＬＵＮＥＤＩ,,合同会社,和歌山県,和歌山市,田尻１２９－９,,30,201,6410005,,,,,,,2022-11-10,1,,,,,ルネディ,0
1782,6180001153831,新規,0,2022-11-10,2022-11-10,株式会社にじファーム,,株式会社,愛知県,愛西市,立石町川並２７番,,23,232,4968047,,,,,,,2022-11-10,1,,,,,ニジファーム,0
1784,6180003024477,新規,0,2022-11-10,2022-11-10,線と線合同会社,,合同会社,愛知県,名古屋市中村区,名駅３丁目４番１０号アルティメイト名駅１ｓｔ２階,,23,105,4500002,,,,,,,2022-11-10,1,,,,,セントセン,0
1788,6180301036802,新規,0,2022-11-10,2022-11-10,株式会社ＭＴ,,株式会社,愛知県,豊橋市,牟呂町字内田７０番地,,23,201,4418087,,,,,,,2022-11-10,1,,,,,エムティー,0
1789,6180301036810,新規,0,2022-11-10,2022-11-10,株式会社Ｋｏａ,,株式会社,愛知県,刈谷市,高津波町４丁目６１１番地,,23,210,4480047,,,,,,,2022-11-10,1,,,,,コア,0
1790,6180301036819,新規,0,2022-11-10,2022-11-10,株式会社エンリル,,株式会社,愛知県,刈谷市,野田新町１丁目２０２番地ファインＥ号,,23,210,4480862,,,,,,,2022-11-10,1,,,,,エンリル,0
1796,6200001040647,新規,0,2022-11-10,2022-11-10,株式会社ウィービー,,株式会社,岐阜県,羽島市,福寿町間島６丁目３７番地１,,21,209,5016251,,,,,,,2022-11-10,1,,,,,ウィービー,0
1801,6220005008713,新規,0,2022-11-10,2022-11-10,一般社団法人ｓｐｉｐ,,その他の設立登記法人,石川県,金沢市,西金沢２丁目８２番地,,17,201,9218054,,,,,,,2022-11-10,1,,,,,スピップ,0
1811,6280001008819,新規,0,2022-11-10,2022-11-10,株式会社ぶなの里,,株式会社,島根県,飯石郡飯南町,花栗４７番地１,,32,386,6903206,,,,,,,2022-11-10,1,,,,,ブナノサト,0
1815,6290001099403,新規,0,2022-11-10,2022-11-10,株式会社ふりがな,,株式会社,福岡県,福岡市南区,大楠３丁目１１番３９－１１２号,,40,134,8150082,,,,,,,2022-11-10,1,,,,,フリガナ,0
1820,6290801029055,新規,0,2022-11-10,2022-11-10,株式会社ＤＬＰ８,,株式会社,福岡県,北九州市小倉北区,井堀３丁目１６番３号,,40,106,8030835,,,,,,,2022-11-10,1,,,,,ディーエルピーエイト,0
1825,6340001025155,新規,0,2022-11-10,2022-11-10,株式会社黒ネコ・アーキテクツ,,株式会社,鹿児島県,鹿児島市,中央町５番１５号メゾン・ドゥ片平１２０２,,46,201,8900053,,,,,,,2022-11-10,1,,,,,クロネコアーキテクツ,0
1832,6360001031184,新規,0,2022-11-10,2022-11-10,株式会社イースタンプライム,,株式会社,沖縄県,沖縄市,久保田１丁目９番３７号２Ｆ,,47,211,9040023,,,,,,,2022-11-10,1,,,,,イースタンプライム,0
1834,6370001049242,新規,0,2022-11-10,2022-11-10,株式会社Ｆｉｘ,,株式会社,宮城県,仙台市宮城野区,岡田字岡田前２７番地の６,,04,102,9830003,,,,,,,2022-11-10,1,,,,,フィックス,0
1835,6370001049250,新規,0,2022-11-10,2022-11-10,株式会社Ｓｋｙｗｉｔｈ,,株式会社,宮城県,黒川郡大郷町,鶉崎字原４５番地の１１,,04,422,9813524,,,,,,,2022-11-10,1,,,,,スカイウィズ,0
1847,6420003002598,新規,0,2022-11-10,2022-11-10,合同会社オークン,,合同会社,青森県,青森市,桂木３丁目２２番地２１,,02,201,0300844,,,,,,,2022-11-10,1,,,,,オークン,0
1850,6430001087822,新規,0,2022-11-10,2022-11-10,株式会社ａｉｌｅ,,株式会社,北海道,札幌市中央区,北二条東３丁目２番６号,,01,101,0600032,,,,,,,2022-11-10,1,,,,,エール,0
1851,6430001087847,新規,0,2022-11-10,2022-11-10,株式会社リザルト,,株式会社,北海道,札幌市中央区,宮の森四条１２丁目６番１号,,01,101,0640954,,,,,,,2022-11-10,1,,,,,リザルト,0
1852,6430003014403,新規,0,2022-11-10,2022-11-10,合同会社Ｃａｓｐｉｔａ,,合同会社,北海道,札幌市西区,発寒三条５丁目６番１号,,01,107,0630823,,,,,,,2022-11-10,1,,,,,カスピタ,0
1870,7010001230695,新規,0,2022-11-10,2022-11-10,株式会社アンクル・シナモン,,株式会社,東京都,千代田区,平河町２丁目８番１０号,,13,101,1020093,,,,,,,2022-11-10,1,,,,,アンクルシナモン,0
1871,7010001230712,新規,0,2022-11-10,2022-11-10,株式会社Ａｌａｆｏｒｔｅ,,株式会社,東京都,千代田区,神田錦町３丁目１２番１０号,,13,101,1010054,,,,,,,2022-11-10,1,,,,,アラフォルテ,0
1872,7010001230745,新規,0,2022-11-10,2022-11-10,株式会社ＡＷＥＳＯＭＥ　ＴＩＭＥ,,株式会社,東京都,千代田区,神田司町２丁目９番地１第一高田ビル１階,,13,101,1010048,,,,,,,2022-11-10,1,,,,,オーサムタイム,0
1874,7010005035769,新規,0,2022-11-10,2022-11-10,一般社団法人内幸町キャピタル・ワンＢ,,その他の設立登記法人,東京都,千代田区,内幸町２丁目１番６号,,13,101,1000011,,,,,,,2022-11-10,1,,,,,ウチサイワイチョウキャピタルワンビー,0
1880,7010401170731,新規,0,2022-11-10,2022-11-10,株式会社Ｆｕｓｉｏｎ　ＳＰＯＴ,,株式会社,東京都,港区,西麻布４丁目１１番２８号エンパイアマンション６０８,,13,103,1060031,,,,,,,2022-11-10,1,,,,,フュージョンスポット,0
1881,7010401170748,新規,0,2022-11-10,2022-11-10,株式会社ＬＡＨＵ,,株式会社,東京都,港区,南青山３丁目５－２南青山第一韮沢ビル３Ｆ,,13,103,1070062,,,,,,,2022-11-10,1,,,,,ラフ,0
1882,7010401170756,新規,0,2022-11-10,2022-11-10,Ｍａｋｅ　Ｕ株式会社,,株式会社,東京都,港区,六本木６丁目１０番１号六本木ヒルズ森タワー１６階,,13,103,1060032,,,,,,,2022-11-10,1,,,,,メイクユー,0
1890,7010601062134,新規,0,2022-11-10,2022-11-10,株式会社オハラ,,株式会社,東京都,江東区,三好３丁目１番３号,,13,108,1350022,,,,,,,2022-11-10,1,,,,,オハラ,0
1894,7010701043439,新規,0,2022-11-10,2022-11-10,株式会社ＣＮＲ,,株式会社,東京都,品川区,東品川２丁目２番２５－１８０６号,,13,109,1400002,,,,,,,2022-11-10,1,,,,,シーネヌアール,0
1895,7010701043463,新規,0,2022-11-10,2022-11-10,康久株式会社,,株式会社,東京都,品川区,北品川５丁目９番３１－１２０６号,,13,109,1410001,,,,,,,2022-11-10,1,,,,,カンキュウ,0
1903,7010901051927,新規,0,2022-11-10,2022-11-10,株式会社ノーズウッド,,株式会社,東京都,世田谷区,羽根木２丁目４－１３小松方１０１,,13,112,1560042,,,,,,,2022-11-10,1,,,,,ノーズウッド,0
1909,7011001150586,新規,0,2022-11-10,2022-11-10,株式会社明豊エンジニアリング,,株式会社,東京都,目黒区,目黒２丁目１０番１１号,,13,110,1530063,,,,,,,2022-11-10,1,,,,,メイホウエンジニアリング,0
1910,7011001150669,新規,0,2022-11-10,2022-11-10,ＣＨＥＶＡＬ株式会社,,株式会社,東京都,渋谷区,代々木５丁目３１番５－３１３号,,13,113,1510053,,,,,,,2022-11-10,1,,,,,,0
1911,7011003015671,新規,0,2022-11-10,2022-11-10,ＣＩＪ１号合同会社,,合同会社,東京都,渋谷区,代々木１丁目４７番９号,,13,113,1510053,,,,,,,2022-11-10,1,,,,,シーアイジェイイチゴウ,0
1912,7011003015688,新規,0,2022-11-10,2022-11-10,合同会社ＨＡＳＨＩＢＡＭＩ,,合同会社,東京都,渋谷区,神宮前４丁目２６番２８号２階,,13,113,1500001,,,,,,,2022-11-10,1,,,,,ハシバミ,0
1915,7011101100796,新規,0,2022-11-10,2022-11-10,株式会社Ｍｏｎｃｈｅｒｉ　Ｇｒｏｕｐ,,株式会社,東京都,新宿区,歌舞伎町２丁目３７番２号鈴木ビルＢ１,,13,104,1600021,,,,,,,2022-11-10,1,,,,,モンシェリーグループ,0
1917,7011103012362,新規,0,2022-11-10,2022-11-10,合同会社ＣＲＥＡＴＨ,,合同会社,東京都,新宿区,西新宿３丁目３番１３号西新宿水間ビル６階,,13,104,1600023,,,,,,,2022-11-10,1,,,,,クレアス,0
1918,7011103012370,新規,0,2022-11-10,2022-11-10,合同会社ショコラビット,,合同会社,東京都,新宿区,弁天町９８－３グランツ神楽坂１階,,13,104,1620851,,,,,,,2022-11-10,1,,,,,ショコラビット,0
1920,7011303004572,新規,0,2022-11-10,2022-11-10,ジーエムエンタテインメント合同会社,,合同会社,東京都,杉並区,西荻南１丁目１５番６号,,13,115,1670053,,,,,,,2022-11-10,1,,,,,ジーエムエンタテインメント,0
1923,7011403003821,新規,0,2022-11-10,2022-11-10,青葉合同会社,,合同会社,東京都,板橋区,大谷口上町３６－２ジョイビル１０３Ｂ,,13,119,1730032,,,,,,,2022-11-10,1,,,,,アオバ,0
1927,7011801041530,新規,0,2022-11-10,2022-11-10,株式会社ＲＩＣＨ,,株式会社,東京都,足立区,千住龍田町１０番２号メゾンソルト３０６号室,,13,121,1200042,,,,,,,2022-11-10,1,,,,,リッチ,0
1928,7011803005368,新規,0,2022-11-10,2022-11-10,合同会社アライ,,合同会社,東京都,足立区,千住１丁目３９－９相川ビル１０１千住理容室内,,13,121,1200034,,,,,,,2022-11-10,1,,,,,アライ,0
1933,7012303001741,新規,0,2022-11-10,2022-11-10,合同会社ＩＳ,,合同会社,東京都,町田市,中町３丁目２１番４号,,13,209,1940021,,,,,,,2022-11-10,1,,,,,アイエス,0
1937,7012401039808,新規,0,2022-11-10,2022-11-10,株式会社Ｒｅｃｌｉｆｉｎｇ,,株式会社,東京都,多摩市,関戸１丁目１１番地３桜が丘プラザビル５Ｆ,,13,224,2060011,,,,,,,2022-11-10,1,,,,,リクライフィング,0
1938,7012401039849,新規,0,2022-11-10,2022-11-10,株式会社ＭＶＰ,,株式会社,東京都,三鷹市,上連雀１丁目１２番１７号三鷹ビジネスパーク,,13,204,1810012,,,,,,,2022-11-10,1,,,,,エムブイピー,0
1939,7012403005675,新規,0,2022-11-10,2022-11-10,エアトン合同会社,,合同会社,東京都,調布市,調布ケ丘２丁目２９番地１８,,13,208,1820021,,,,,,,2022-11-10,1,,,,,エアトン,0
1940,7012701017348,新規,0,2022-11-10,2022-11-10,株式会社そらふねラボ,,株式会社,東京都,西東京市,富士町３丁目９番４号,,13,229,2020014,,,,,,,2022-11-10,1,,,,,ソラフネラボ,0
1941,7012703002570,新規,0,2022-11-10,2022-11-10,ＡＤ・ＦＩＲＭ合同会社,,合同会社,東京都,小平市,花小金井３丁目１３番１３－１３号,,13,211,1870002,,,,,,,2022-11-10,1,,,,,アドファーム,0
1942,7012801021951,新規,0,2022-11-10,2022-11-10,ボニーデコスイーツ株式会社,,株式会社,東京都,立川市,錦町２丁目１１番２号アイディスクエア立川３０２,,13,202,1900022,,,,,,,2022-11-10,1,,,,,ボニーデコスイーツ,0
1946,7013301049905,新規,0,2022-11-10,2022-11-10,株式会社リバレンス,,株式会社,東京都,豊島区,池袋２丁目３６－１ＩＮＦＩＮＩＴＹＩＫＥＢＵＫＵＲＯ６ＦＢＩＺｃｏｍｆｏｒｔ池袋西口内,,13,116,1710014,,,,,,,2022-11-10,1,,,,,リバレンス,0
1955,7020001148945,新規,0,2022-11-10,2022-11-10,ｓｏｃｉａｌ　ｉｍｐａｃｔ　ＰＲ株式会社,,株式会社,神奈川県,横浜市中区,北仲通３丁目３３,,14,104,2310003,,,,,,,2022-11-10,1,,,,,ソーシャルインパクトピーアール,0
1956,7020001148953,新規,0,2022-11-10,2022-11-10,株式会社あさのやカンパニー,,株式会社,神奈川県,川崎市宮前区,神木本町１丁目２１番３２号,,14,136,2160031,,,,,,,2022-11-10,1,,,,,アサノヤカンパニー,0
1957,7020001148961,新規,0,2022-11-10,2022-11-10,株式会社一日月,,株式会社,神奈川県,横浜市港北区,富士塚２丁目５番２２号エステートピアモリ１０２号,,14,109,2220012,,,,,,,2022-11-10,1,,,,,ヒトカズキ,0
1964,7020003022710,新規,0,2022-11-10,2022-11-10,リアン合同会社,,合同会社,神奈川県,横浜市中区,山手町３９番地１クラッシィハウス山手町１０６号室,,14,104,2310862,,,,,,,2022-11-10,1,,,,,リアン,0
1965,7020003022719,新規,0,2022-11-10,2022-11-10,合同会社フラワームーン,,合同会社,神奈川県,川崎市中原区,市ノ坪２１９番地,,14,133,2110016,,,,,,,2022-11-10,1,,,,,フラワームーン,0
1973,7021001077424,新規,0,2022-11-10,2022-11-10,株式会社Ｕｎｋｎｏｗｎｋｎｏｗｎｓ,,株式会社,神奈川県,相模原市緑区,長竹１５５３番地７,,14,151,2520154,,,,,,,2022-11-10,1,,,,,アウノウンノウンズ,0
1975,7021003012362,新規,0,2022-11-10,2022-11-10,合同会社ＳＡＯ　ＭＡＩ,,合同会社,神奈川県,平塚市,南金目２３３８番地,,14,203,2591201,,,,,,,2022-11-10,1,,,,,サオマイ,0
1979,7030001150982,新規,0,2022-11-10,2022-11-10,ライズ株式会社,,株式会社,埼玉県,坂戸市,大字石井２７０５番地３,,11,239,3500212,,,,,,,2022-11-10,1,,,,,ライズ,0
1980,7030001151023,新規,0,2022-11-10,2022-11-10,株式会社道下土地建物,,株式会社,埼玉県,所沢市,大字上安松２４７番地の１,,11,208,3590025,,,,,,,2022-11-10,1,,,,,ミチシタトチタテモノ,0
1989,7040001125777,新規,0,2022-11-10,2022-11-10,株式会社ＨＡＲＥＳＮＯＶ,,株式会社,千葉県,流山市,富士見台１丁目３番地の５,,12,220,2700127,,,,,,,2022-11-10,1,,,,,ハリスノフ,0
1990,7040001125802,新規,0,2022-11-10,2022-11-10,Ｅｓｔａｔｅ　Ｌａｂｏ株式会社,,株式会社,千葉県,木更津市,畑沢南１丁目６番１２号,,12,206,2920826,,,,,,,2022-11-10,1,,,,,エステートラボ,0
1994,7040003021248,新規,0,2022-11-10,2022-11-10,Ｍｉｎｏ’ａｋａ合同会社,,合同会社,千葉県,大網白里市,みどりが丘２丁目５－５,,12,239,2993255,,,,,,,2022-11-10,1,,,,,ミノアカ,0
1995,7040005021808,新規,0,2022-11-10,2022-11-10,南鴨川シーハイツ管理組合法人,,その他の設立登記法人,千葉県,鴨川市,江見青木１０２番地,,12,223,2992842,,,,,,,2022-11-10,1,,,,,ミナミカモガワシーハイツ,0
2001,7050003006999,新規,0,2022-11-10,2022-11-10,合同会社Ｄ＆Ｓ,,合同会社,茨城県,龍ケ崎市,久保台４丁目１番地５南３番館６０７号室,,08,208,3010001,,,,,,,2022-11-10,1,,,,,ディーアンドエス,0
2002,7050005013168,新規,0,2022-11-10,2022-11-10,行政書士法人公文社,,その他の設立登記法人,茨城県,水戸市,吉沢町７１５番地の１,,08,201,3100845,,,,,,,2022-11-10,1,,,,,コウブンシャ,0
2004,7060001035446,新規,0,2022-11-10,2022-11-10,株式会社宇都宮さくら補聴器,,株式会社,栃木県,宇都宮市,鶴田町３２９６番地２,,09,201,3200851,,,,,,,2022-11-10,1,,,,,ウツノミヤサクラホチョウキ,0
2012,7070003004704,新規,0,2022-11-10,2022-11-10,合同会社Ｌ．Ｉ．Ｓ,,合同会社,群馬県,高崎市,北原町８４１－５プランドールトロワＢ２０４,,10,202,3703513,,,,,,,2022-11-10,1,,,,,リズ,0
2025,7110003004914,新規,0,2022-11-10,2022-11-10,胎内ウインドファーム合同会社,,合同会社,新潟県,胎内市,松波１０１３番地４０,,15,227,9592600,,,,,,,2022-11-10,1,,,,,タイナイウインドファーム,0
2040,7120001249741,新規,0,2022-11-10,2022-11-10,承勝株式会社,,株式会社,大阪府,大阪市旭区,中宮２丁目１９番５号３０３号室,,27,117,5350003,,,,,,,2022-11-10,1,,,,,ショウショウ,0
2041,7120001250170,新規,0,2022-11-10,2022-11-10,ＴＡＫＥＳＨＩ株式会社,,株式会社,大阪府,大阪市生野区,巽北１丁目１番１号１Ｆ－Ｅ,,27,116,5440004,,,,,,,2022-11-10,1,,,,,タケシ,0
2042,7120001250195,新規,0,2022-11-10,2022-11-10,株式会社Ｅｆｆｉｃｉｅｎｃｙ　Ｍ,,株式会社,大阪府,大阪市北区,梅田１丁目２番２号大阪駅前第２ビル１２－１２,,27,127,5300001,,,,,,,2022-11-10,1,,,,,エフィシェンシーエム,0
2043,7120001250229,新規,0,2022-11-10,2022-11-10,株式会社キラナ,,株式会社,大阪府,大阪市西成区,鶴見橋１丁目１４番３７号１階,,27,122,5570031,,,,,,,2022-11-10,1,,,,,キラナ,0
2044,7120001250237,新規,0,2022-11-10,2022-11-10,ＴＫ株式会社,,株式会社,大阪府,大阪市中央区,東高麗橋１番１２号,,27,128,5400039,,,,,,,2022-11-10,1,,,,,ティーケー,0
2049,7120003022840,新規,0,2022-11-10,2022-11-10,合同会社ｚｅｎｚｅｎ,,合同会社,大阪府,大阪市中央区,淡路町３丁目４番８－２１０３号,,27,128,5410047,,,,,,,2022-11-10,1,,,,,ゼンゼン,0
2050,7120003022849,新規,0,2022-11-10,2022-11-10,合同会社ＭＹｈａｎｄｓ,,合同会社,大阪府,大阪市都島区,中野町５丁目１４番３－１２０号,,27,102,5340027,,,,,,,2022-11-10,1,,,,,マイハンズ,0
2057,7120901046726,新規,0,2022-11-10,2022-11-10,株式会社ＢＡＳＥ　ＭＢ,,株式会社,大阪府,吹田市,岸部中５丁目３番７号,,27,205,5640002,,,,,,,2022-11-10,1,,,,,ベースエムビィ,0
2058,7122001036376,新規,0,2022-11-10,2022-11-10,株式会社紬,,株式会社,大阪府,東大阪市,足代２丁目４番１４号,,27,227,5770841,,,,,,,2022-11-10,1,,,,,ツムギ,0
2059,7122001036401,新規,0,2022-11-10,2022-11-10,株式会社剣,,株式会社,大阪府,東大阪市,小若江２丁目３番２０号,,27,227,5770818,,,,,,,2022-11-10,1,,,,,ツルギ,0
2063,7130001073034,新規,0,2022-11-10,2022-11-10,瑩古株式会社,,株式会社,京都府,京都市右京区,鳴滝泉谷町６－６,,26,108,6168253,,,,,,,2022-11-10,1,,,,,エイコ,0
2064,7130001073042,新規,0,2022-11-10,2022-11-10,リスレイン株式会社,,株式会社,京都府,京都市上京区,室町通寺之内上る三丁目上柳原町１０３番地１６,,26,102,6020000,,,,,,,2022-11-10,1,,,,,リスレイン,0
2067,7140001128010,新規,0,2022-11-10,2022-11-10,株式会社Ａｎｄ　Ｈｏｍｅ,,株式会社,兵庫県,神戸市中央区,海岸通１丁目１番２－１４０６号,,28,110,6500024,,,,,,,2022-11-10,1,,,,,アンドホーム,0
2068,7140001128027,新規,0,2022-11-10,2022-11-10,燦ＦＯＲＥＳＴ株式会社,,株式会社,兵庫県,神戸市中央区,北長狭通５丁目２番１９号,,28,110,6500012,,,,,,,2022-11-10,1,,,,,サンフォレスト,0
2069,7140001128051,新規,0,2022-11-10,2022-11-10,株式会社ＬＩＢＲＡ　ＧＲＯＵＰ,,株式会社,兵庫県,神戸市北区,緑町７丁目１番２７－６１３号,,28,109,6511221,,,,,,,2022-11-10,1,,,,,リブラグループ,0
2071,7140003018309,新規,0,2022-11-10,2022-11-10,合同会社ＮＡＳＨ,,合同会社,兵庫県,西宮市,大浜町１番６０－７０９号,,28,204,6620957,,,,,,,2022-11-10,1,,,,,ナッシュ,0
2072,7140003018341,新規,0,2022-11-10,2022-11-10,Ｏｎｅ　Ａｎｄ　Ｏｎｌｙ　ＫＯＢＥ合同会社,,合同会社,兵庫県,神戸市垂水区,小束山手１丁目８番１７号,,28,108,6550009,,,,,,,2022-11-10,1,,,,,ワンアンドオンリーコウベ,0
2073,7150001025941,新規,0,2022-11-10,2022-11-10,株式会社ＢＯＮＤ　Ｌｉｎｅ,,株式会社,奈良県,奈良市,大安寺３丁目１１番１７－１０２号,,29,201,6308133,,,,,,,2022-11-10,1,,,,,ボンドライン,0
2078,7180001153797,新規,0,2022-11-10,2022-11-10,株式会社ケイケアステーション,,株式会社,愛知県,名古屋市中川区,富田町大字千音寺字仏供田２９８７番地の２,,23,110,4540971,,,,,,,2022-11-10,1,,,,,ケイケアステーション,0
2083,7180003024484,新規,0,2022-11-10,2022-11-10,合同会社ＳＷＯＲＤＡＲＴ,,合同会社,愛知県,名古屋市名東区,よもぎ台２丁目６３２番地ＮＯＤＡ・ＧＵＬＡＮＤＥ１階１０３号,,23,115,4650091,,,,,,,2022-11-10,1,,,,,ソードアート,0
2086,7180301036818,新規,0,2022-11-10,2022-11-10,株式会社富士子ちゃん家,,株式会社,愛知県,岡崎市,伝馬通５丁目６６番地,,23,202,4440038,,,,,,,2022-11-10,1,,,,,フジコチャンチ,0
2088,7190001029889,新規,0,2022-11-10,2022-11-10,トンソウ不動産管理株式会社,,株式会社,三重県,多気郡明和町,大字斎宮８３５番地,,24,442,5150321,,,,,,,2022-11-10,1,,,,,トンソウフドウサンカンリ,0
2089,7190001029914,新規,0,2022-11-10,2022-11-10,株式会社富永米穀店,,株式会社,三重県,名張市,桔梗が丘５番町二街区８１番地,,24,208,5180625,,,,,,,2022-11-10,1,,,,,トミナガベイコクテン,0
2090,7190005011760,新規,0,2022-11-10,2022-11-10,医療法人相生,,その他の設立登記法人,三重県,桑名市,星見ヶ丘７丁目３０５番地,,24,205,5110912,,,,,,,2022-11-10,1,,,,,アイオイ,0
2095,7220005008712,新規,0,2022-11-10,2022-11-10,一般社団法人ｆ‐ｃｌｉｎｉｃ,,その他の設立登記法人,石川県,金沢市,長田町３番１号ファースト・レーベン長田１Ｆ,,17,201,9200042,,,,,,,2022-11-10,1,,,,,エフクリニック,0
2102,7240003005890,新規,0,2022-11-10,2022-11-10,ｃＲｍＤＣコンサルティング合同会社,,合同会社,広島県,福山市,駅家町万能倉５９８番地８,,34,207,7210000,,,,,,,2022-11-10,1,,,,,シーアールエムディーシーコンサルティング,0
2104,7240005015483,新規,0,2022-11-10,2022-11-10,一般社団法人ＥＢＤＭ　Ｃｏｎｓｕｌｔｉｎｇ,,その他の設立登記法人,広島県,東広島市,鏡山２丁目３１３,,34,212,7390046,,,,,,,2022-11-10,1,,,,,イービーディーエムコンサルティング,0
2108,7270001008661,新規,0,2022-11-10,2022-11-10,株式会社美奏工業,,株式会社,鳥取県,鳥取市,河原町谷一木１０３９番地１,,31,201,6801242,,,,,,,2022-11-10,1,,,,,ビソウコウギョウ,0
2114,7290001099518,新規,0,2022-11-10,2022-11-10,株式会社アイネッド,,株式会社,福岡県,朝倉市,堤６５８－１番１０３号,,40,228,8380062,,,,,,,2022-11-10,1,,,,,アイネッド,0
2115,7290001099567,新規,0,2022-11-10,2022-11-10,株式会社ファインリアルエステート,,株式会社,福岡県,福岡市中央区,渡辺通５丁目３番１５号モダンパラッツォ天神プレシャス１０３号,,40,133,8100004,,,,,,,2022-11-10,1,,,,,ファインリアルエステート,0
2121,7290003013170,新規,0,2022-11-10,2022-11-10,合同会社アセントラボ,,合同会社,福岡県,福岡市南区,井尻２丁目３６－２３－２１２号,,40,134,8111302,,,,,,,2022-11-10,1,,,,,アセントラボ,0
2122,7290003013179,新規,0,2022-11-10,2022-11-10,合同会社グッジョブドットコム,,合同会社,福岡県,久留米市,野中町２６７番地８,,40,203,8390862,,,,,,,2022-11-10,1,,,,,グッジョブドットコム,0
2123,7290003013187,新規,0,2022-11-10,2022-11-10,合同会社ＭＡＲＫ　ＯＮＥ,,合同会社,福岡県,福岡市早良区,四箇６丁目３番２２号,,40,137,8111103,,,,,,,2022-11-10,1,,,,,マークワン,0
2127,7320001019414,新規,0,2022-11-10,2022-11-10,株式会社ｓｅｅｄｒｅｄ,,株式会社,大分県,大分市,大字上宗方８０２番地の２５,,44,201,8701152,,,,,,,2022-11-10,1,,,,,シードレッド,0
2133,7340001025154,新規,0,2022-11-10,2022-11-10,株式会社Ｋ＆Ｋパートナーズ,,株式会社,鹿児島県,奄美市,名瀬幸町２１番９号,,46,222,8940025,,,,,,,2022-11-10,1,,,,,ケイアンドケイパートナーズ,0
2135,7360001031191,新規,0,2022-11-10,2022-11-10,株式会社ティディエル,,株式会社,沖縄県,那覇市,字寄宮１４２番地の１,,47,201,9020064,,,,,,,2022-11-10,1,,,,,ティディエル,0
2136,7360005006743,新規,0,2022-11-10,2022-11-10,一般社団法人ビューローダンケ,,その他の設立登記法人,沖縄県,那覇市,首里当蔵町１丁目１１番地２０新垣ビル２０１,,47,201,9030812,,,,,,,2022-11-10,1,,,,,ビューローダンケ,0
2141,7380001033252,新規,0,2022-11-10,2022-11-10,株式会社アースコネクト,,株式会社,福島県,郡山市,開成４丁目２８－８,,07,203,9638851,,,,,,,2022-11-10,1,,,,,,0
2142,7380001033260,新規,0,2022-11-10,2022-11-10,株式会社Ａ＆Ａ,,株式会社,福島県,福島市,南沢又字松北町３丁目８番地の３,,07,201,9608254,,,,,,,2022-11-10,1,,,,,エーアンドエー,0
2146,7400005008280,新規,0,2022-11-10,2022-11-10,一般社団法人結の会,,その他の設立登記法人,岩手県,花巻市,中笹間１６地割１１４番地,,03,205,0250133,,,,,,,2022-11-10,1,,,,,ユイノカイ,0
2148,7420001018059,新規,0,2022-11-10,2022-11-10,株式会社鳥越整備工場,,株式会社,青森県,上北郡六戸町,大字折茂字下田表２番地７,,02,405,0392372,,,,,,,2022-11-10,1,,,,,トリコシセイビコウジョウ,0
2155,7430001087788,新規,0,2022-11-10,2022-11-10,株式会社ブライト,,株式会社,北海道,札幌市中央区,北二条西１丁目１０－６０４,,01,101,0600002,,,,,,,2022-11-10,1,,,,,ブライト,0
2164,7500001024585,新規,0,2022-11-10,2022-11-10,株式会社翔建設,,株式会社,愛媛県,西条市,神拝甲３８３番地１０,,38,206,7930041,,,,,,,2022-11-10,1,,,,,カケルケンセツ,0
2165,7700150036320,新規,0,2022-11-10,2015-10-09,岩手県青色申告会連合会,,その他,岩手県,盛岡市,大通３丁目２－８岩手県金属工業会館４Ｆ,,03,201,0200022,,,,,,,2015-10-09,1,,,,,イワテケンアオイロシンコクカイレンゴウカイ,0
2167,7700150111924,新規,0,2022-11-10,2022-09-28,ロハスバンド,,その他,東京都,練馬区,大泉学園町８丁目２８－１－４０５,,13,120,1780061,,,,,,,2022-09-28,1,,,,,ロハスバンド,0
2177,8010001230694,新規,0,2022-11-10,2022-11-10,株式会社ポジテ,,株式会社,東京都,中央区,銀座１丁目２２番１１号銀座大竹ビジデンス２階,,13,102,1040061,,,,,,,2022-11-10,1,,,,,ポジテ,0
2178,8010001230769,新規,0,2022-11-10,2022-11-10,ＩＭＬ株式会社,,株式会社,東京都,中央区,日本橋人形町３丁目７番１０号,,13,102,1030013,,,,,,,2022-11-10,1,,,,,アイエムエル,0
2183,8010005035768,新規,0,2022-11-10,2022-11-10,一般社団法人ＲＦ６,,その他の設立登記法人,東京都,千代田区,内幸町２丁目１番６号,,13,101,1000011,,,,,,,2022-11-10,1,,,,,アールエフシックス,0
2187,8010401170524,新規,0,2022-11-10,2022-11-10,株式会社アン・エンタープライズ,,株式会社,東京都,港区,港南２丁目１６番４号,,13,103,1080075,,,,,,,2022-11-10,1,,,,,アンエンタープライズ,0
2188,8010401170755,新規,0,2022-11-10,2022-11-10,ＲＳ株式会社,,株式会社,東京都,港区,六本木３丁目７番１－１９１６号,,13,103,1060032,,,,,,,2022-11-10,1,,,,,アールエス,0
2189,8010401170763,新規,0,2022-11-10,2022-11-10,株式会社ＡＤＥＬＥＳ,,株式会社,東京都,港区,北青山３丁目５番９号桂北青山ビル,,13,103,1070061,,,,,,,2022-11-10,1,,,,,アデリス,0
2192,8010501049602,新規,0,2022-11-10,2022-11-10,大瞬科技日本株式会社,,株式会社,東京都,台東区,千束２丁目３０番７号マンションＫ２,,13,106,1110031,,,,,,,2022-11-10,1,,,,,ダイシュンカギニホン,0
2194,8010601062125,新規,0,2022-11-10,2022-11-10,株式会社陣栄,,株式会社,東京都,江東区,猿江２丁目１２－４－１０１,,13,108,1350003,,,,,,,2022-11-10,1,,,,,ジンエイ,0
2195,8010601062133,新規,0,2022-11-10,2022-11-10,株式会社ＴＳテック,,株式会社,東京都,墨田区,東向島４丁目２４番４－１０２号,,13,107,1310032,,,,,,,2022-11-10,1,,,,,ティーエステック,0
2204,8010901051950,新規,0,2022-11-10,2022-11-10,株式会社Ａバリュー,,株式会社,東京都,世田谷区,代田３丁目５番５号,,13,112,1550033,,,,,,,2022-11-10,1,,,,,エーバリュー,0
2206,8010903007769,新規,0,2022-11-10,2022-11-10,合同会社Ｎｏｒｒｙｓ＆パートナーズ,,合同会社,東京都,世田谷区,等々力５丁目２１番１２号,,13,112,1580082,,,,,,,2022-11-10,1,,,,,,0
2219,8011001150783,新規,0,2022-11-10,2022-11-10,株式会社ＣＩＶＩＬＩＡＮ,,株式会社,東京都,渋谷区,道玄坂１丁目１０番８号渋谷道玄坂東急ビル２Ｆ－Ｃ,,13,113,1500043,,,,,,,2022-11-10,1,,,,,シビリアン,0
2220,8011001150833,新規,0,2022-11-10,2022-11-10,株式会社ＫｏｍＡｄＥ,,株式会社,東京都,渋谷区,神宮前１丁目１番１－２０７号,,13,113,1500001,,,,,,,2022-11-10,1,,,,,コマデ,0
2221,8011001150858,新規,0,2022-11-10,2022-11-10,株式会社ＯＴＴＡ,,株式会社,東京都,渋谷区,神宮前２丁目２番３９号,,13,113,1500001,,,,,,,2022-11-10,1,,,,,オタ,0
2224,8011003015638,新規,0,2022-11-10,2022-11-10,合同会社ＢＡＣＫＮＩＮＥ,,合同会社,東京都,渋谷区,道玄坂１丁目１０－８道玄坂東急ビル２Ｆ－Ｃ,,13,113,1500043,,,,,,,2022-11-10,1,,,,,バックナイン,0
2225,8011003015687,新規,0,2022-11-10,2022-11-10,ｍａｎｓｉｏｎ合同会社,,合同会社,東京都,渋谷区,神宮前４丁目５番１３号アピス表参道スクエア２階,,13,113,1500001,,,,,,,2022-11-10,1,,,,,マンション,0
2226,8011003015712,新規,0,2022-11-10,2022-11-10,合同会社ＮＥＸＴ,,合同会社,東京都,渋谷区,恵比寿西２丁目２０番１,,13,113,1500021,,,,,,,2022-11-10,1,,,,,ネクスト,0
2231,8011101100779,新規,0,2022-11-10,2022-11-10,株式会社ｃｒａｃｏ,,株式会社,東京都,新宿区,大久保３丁目１４番３－２０８号,,13,104,1690072,,,,,,,2022-11-10,1,,,,,クラコ,0
2235,8011501028645,新規,0,2022-11-10,2022-11-10,万事屋株式会社,,株式会社,東京都,北区,滝野川３丁目９番２号西巣鴨ＫＴＢビル２０６号室,,13,117,1140023,,,,,,,2022-11-10,1,,,,,バンジヤ,0
2236,8011601026367,新規,0,2022-11-10,2022-11-10,株式会社ｏｎｅ　ｓｔａｔｅ,,株式会社,東京都,練馬区,石神井台４丁目９番４０号トップ上石神井２０７,,13,120,1770045,,,,,,,2022-11-10,1,,,,,ワンステート,0
2238,8011803005367,新規,0,2022-11-10,2022-11-10,合同会社林檎堂,,合同会社,東京都,足立区,江北１丁目１６番７号,,13,121,1230872,,,,,,,2022-11-10,1,,,,,リンゴドウ,0
2239,8011805003220,新規,0,2022-11-10,2022-11-10,日立建機グループ労働組合連合会,,その他の設立登記法人,東京都,足立区,東和３丁目１０番１８号,,13,121,1200003,,,,,,,2022-11-10,1,,,,,ヒタチケンキグループ,0
2240,8012401039856,新規,0,2022-11-10,2022-11-10,株式会社テクニカ設計事務所,,株式会社,東京都,多摩市,関戸２丁目３２－１プリメーラ多摩８Ｆ,,13,224,2060011,,,,,,,2022-11-10,1,,,,,テクニカセッケイジムショ,0
2241,8012403005674,新規,0,2022-11-10,2022-11-10,Ａｄａｐｔ合同会社,,合同会社,東京都,武蔵野市,吉祥寺本町１丁目３４番１５号コーポ雄貴３０５,,13,203,1800004,,,,,,,2022-11-10,1,,,,,アダプト,0
2242,8012403005682,新規,0,2022-11-10,2022-11-10,フクリー合同会社,,合同会社,東京都,武蔵野市,吉祥寺南町３丁目１‐４‐３０２,,13,203,1800003,,,,,,,2022-11-10,1,,,,,フクリー,0
2245,8012701017347,新規,0,2022-11-10,2022-11-10,株式会社エスケーアセンション,,株式会社,東京都,清瀬市,梅園３丁目２２番３号,,13,221,2040024,,,,,,,2022-11-10,1,,,,,エスケーアセンション,0
2247,8012801021959,新規,0,2022-11-10,2022-11-10,株式会社栄橋,,株式会社,東京都,国分寺市,南町３丁目１８番５号第７サイトウビル４０２号室,,13,214,1850021,,,,,,,2022-11-10,1,,,,,エイキョウ,0
2248,8012803002924,新規,0,2022-11-10,2022-11-10,合同会社ＭＡＫＯＴＯ,,合同会社,東京都,立川市,一番町４丁目１３番地の１ラ・ルミナール３１０号,,13,202,1900033,,,,,,,2022-11-10,1,,,,,マコト,0
2257,8020001148903,新規,0,2022-11-10,2022-11-10,株式会社レボ,,株式会社,神奈川県,横浜市栄区,笠間３丁目４５ガーデンアソシエＦ－１０２,,14,115,2470006,,,,,,,2022-11-10,1,,,,,レボ,0
2258,8020001148952,新規,0,2022-11-10,2022-11-10,株式会社伊勢田設備,,株式会社,神奈川県,川崎市川崎区,大島５丁目５番６－２号,,14,131,2100834,,,,,,,2022-11-10,1,,,,,イセダセツビ,0
2262,8020003022718,新規,0,2022-11-10,2022-11-10,合同会社Ｂｏｄｙ　Ｄｅｓｉｇｎ　Ｐｒｏ,,合同会社,神奈川県,川崎市川崎区,駅前本町１１番地２川崎フロンティアビル４階,,14,131,2100007,,,,,,,2022-11-10,1,,,,,ボディーデザインプロ,0
2269,8021001077423,新規,0,2022-11-10,2022-11-10,株式会社サンマル,,株式会社,神奈川県,茅ヶ崎市,幸町３－２０－３０３,,14,207,2530052,,,,,,,2022-11-10,1,,,,,サンマル,0
2272,8021003012353,新規,0,2022-11-10,2022-11-10,合同会社功栄建設,,合同会社,神奈川県,鎌倉市,笛田４丁目１５番２号,,14,204,2480027,,,,,,,2022-11-10,1,,,,,コウエイケンセツ,0
2273,8021003012361,新規,0,2022-11-10,2022-11-10,合同会社なでしこ,,合同会社,神奈川県,相模原市緑区,原宿南２丁目４４番地６,,14,151,2520103,,,,,,,2022-11-10,1,,,,,ナデシコ,0
2275,8030001150981,新規,0,2022-11-10,2022-11-10,株式会社金子,,株式会社,埼玉県,戸田市,笹目７丁目９番地の２４,,11,224,3350034,,,,,,,2022-11-10,1,,,,,カネコ,0
2276,8030001151014,新規,0,2022-11-10,2022-11-10,さんきゅー株式会社,,株式会社,埼玉県,鶴ヶ島市,大字下新田４４９番地２,,11,241,3502222,,,,,,,2022-11-10,1,,,,,サンキュー,0
2277,8030001151022,新規,0,2022-11-10,2022-11-10,株式会社ＨＥＲＡ,,株式会社,埼玉県,児玉郡上里町,大字神保原町７５８番地１,,11,385,3690305,,,,,,,2022-11-10,1,,,,,ヘラ,0
2283,8030003020547,新規,0,2022-11-10,2022-11-10,イシナリ工務店合同会社,,合同会社,埼玉県,草加市,青柳７丁目１８番６号,,11,221,3400002,,,,,,,2022-11-10,1,,,,,イシナリコウムテン,0
2284,8030003020555,新規,0,2022-11-10,2022-11-10,合同会社池田商店,,合同会社,埼玉県,さいたま市緑区,大字中尾１４２４番地,,11,109,3360932,,,,,,,2022-11-10,1,,,,,イケダショウテン,0
2291,8040001125669,新規,0,2022-11-10,2022-11-10,株式会社Ｈａｉｒ　ｃｏｍｐａｎｙ　ＣＨＩＹＯ＆ＴＯＷＡ,,株式会社,千葉県,千葉市中央区,新町１５番地２大友ビル６階,,12,101,2600028,,,,,,,2022-11-10,1,,,,,ヘアカンパニーチヨアンドトワ,0
2292,8040001125768,新規,0,2022-11-10,2022-11-10,株式会社アシストライフ,,株式会社,千葉県,千葉市稲毛区,宮野木町１０９２－２,,12,103,2630054,,,,,,,2022-11-10,1,,,,,アシストライフ,0
2293,8040001125776,新規,0,2022-11-10,2022-11-10,株式会社ブレイタ,,株式会社,千葉県,船橋市,芝山６丁目６０番１４号,,12,204,2740816,,,,,,,2022-11-10,1,,,,,ブレイタ,0
2294,8040001125784,新規,0,2022-11-10,2022-11-10,株式会社拓優,,株式会社,千葉県,市川市,福栄２丁目８番４－２０１号,,12,203,2720137,,,,,,,2022-11-10,1,,,,,タクユウ,0
2295,8040001125826,新規,0,2022-11-10,2022-11-10,海達株式会社,,株式会社,千葉県,香取市,牧野２１２５－７ＭＵＬＥ住宅,,12,236,2870033,,,,,,,2022-11-10,1,,,,,カイタツ,0
2297,8040003021255,新規,0,2022-11-10,2022-11-10,合同会社Ｂｅ　ｅｎｒｉｃｈ,,合同会社,千葉県,東金市,日吉台２丁目１９番地１１,,12,213,2830803,,,,,,,2022-11-10,1,,,,,ビーエンリッチ,0
2298,8050001051947,新規,0,2022-11-10,2022-11-10,株式会社ＭＩＴＯＫＹＯ,,株式会社,茨城県,水戸市,白梅１丁目７番２１号,,08,201,3100804,,,,,,,2022-11-10,1,,,,,ミトーキョー,0
2300,8050003007006,新規,0,2022-11-10,2022-11-10,ＮＩＨＯＮ　ＷＨＥＥＬＳ合同会社,,合同会社,茨城県,水戸市,青柳町９００－１青柳ハイツ２－２０５,,08,201,3100004,,,,,,,2022-11-10,1,,,,,ニホンホイールズ,0
2304,8070001039817,新規,0,2022-11-10,2022-11-10,遠藤創建株式会社,,株式会社,群馬県,太田市,台之郷町１０４９番地２,,10,205,3730801,,,,,,,2022-11-10,1,,,,,エンドウソウケン,0
2306,8070003004694,新規,0,2022-11-10,2022-11-10,合同会社ＬｅＶＯ,,合同会社,群馬県,伊勢崎市,連取町２３５５番地８,,10,204,3720812,,,,,,,2022-11-10,1,,,,,レボ,0
2321,8100001035845,新規,0,2022-11-10,2022-11-10,株式会社ＴＯＫ,,株式会社,長野県,飯田市,中央通り３丁目４番地木下ビル１Ｆ,,20,205,3950041,,,,,,,2022-11-10,1,,,,,トック,0
2332,8120001250062,新規,0,2022-11-10,2022-11-10,株式会社あゆむ,,株式会社,大阪府,大阪市平野区,加美北８丁目２１番３号,,27,126,5470001,,,,,,,2022-11-10,1,,,,,アユム,0
2333,8120001250186,新規,0,2022-11-10,2022-11-10,株式会社Ｊ・Ｍ・Ｍ,,株式会社,大阪府,門真市,幸福町２０番６号,,27,223,5710066,,,,,,,2022-11-10,1,,,,,ジェイエムエム,0
2334,8120001250203,新規,0,2022-11-10,2022-11-10,株式会社アイココ,,株式会社,大阪府,大阪市北区,豊崎２丁目８－１１コープジャペン８０６,,27,127,5310072,,,,,,,2022-11-10,1,,,,,アイココ,0
2335,8120001250252,新規,0,2022-11-10,2022-11-10,株式会社三玄,,株式会社,大阪府,大阪市中央区,日本橋１丁目７番１０号,,27,128,5420073,,,,,,,2022-11-10,1,,,,,サンゲン,0
2350,8120901046683,新規,0,2022-11-10,2022-11-10,株式会社リード・ラボ,,株式会社,大阪府,豊中市,熊野町４丁目２０番３１号,,27,203,5600014,,,,,,,2022-11-10,1,,,,,リードラボ,0
2351,8120901046717,新規,0,2022-11-10,2022-11-10,株式会社紀州ケンジョウ,,株式会社,大阪府,吹田市,山田西１丁目７番Ａ－２０４号,,27,205,5650824,,,,,,,2022-11-10,1,,,,,キシュウケンジョウ,0
2352,8120901046725,新規,0,2022-11-10,2022-11-10,株式会社ＲＡＭ,,株式会社,大阪府,吹田市,津雲台３丁目２番１－４０４号,,27,205,5650862,,,,,,,2022-11-10,1,,,,,ラム,0
2353,8120901046733,新規,0,2022-11-10,2022-11-10,株式会社ＪＳＫ,,株式会社,大阪府,箕面市,小野原東６丁目２８番８－３０５号,,27,220,5620031,,,,,,,2022-11-10,1,,,,,ジェーエスケー,0
2355,8122001036359,新規,0,2022-11-10,2022-11-10,株式会社グランホールディングス,,株式会社,大阪府,東大阪市,足代新町１６番１８号,,27,227,5770057,,,,,,,2022-11-10,1,,,,,グランホールディングス,0
2356,8122001036375,新規,0,2022-11-10,2022-11-10,株式会社Ｋａｆｕｕ,,株式会社,大阪府,東大阪市,宝町１７番１３号,,27,227,5798025,,,,,,,2022-11-10,1,,,,,カフー,0
2357,8122001036400,新規,0,2022-11-10,2022-11-10,株式会社ＬＣ,,株式会社,大阪府,東大阪市,長堂１丁目５番６号,,27,227,5770056,,,,,,,2022-11-10,1,,,,,エルシー,0
2367,8140001128026,新規,0,2022-11-10,2022-11-10,ドクターコープ株式会社,,株式会社,兵庫県,神戸市兵庫区,吉田町１丁目１４番８－８０２号,,28,105,6520872,,,,,,,2022-11-10,1,,,,,ドクターコープ,0
2368,8140001128042,新規,0,2022-11-10,2022-11-10,株式会社キャビン,,株式会社,兵庫県,神戸市兵庫区,東山町４丁目１６番地の１アーバニス神戸東山６０２号,,28,105,6520042,,,,,,,2022-11-10,1,,,,,キャビン,0
2369,8140001128050,新規,0,2022-11-10,2022-11-10,株式会社ブルーハウス,,株式会社,兵庫県,芦屋市,奥池１番２０号,,28,206,6590000,,,,,,,2022-11-10,1,,,,,ブルーハウス,0
2370,8140001128067,新規,0,2022-11-10,2022-11-10,株式会社サラブワーク,,株式会社,兵庫県,西宮市,甲風園１丁目７番９号,,28,204,6620832,,,,,,,2022-11-10,1,,,,,サラブワーク,0
2375,8150001025940,新規,0,2022-11-10,2022-11-10,株式会社ハッピーサポート,,株式会社,奈良県,香芝市,今泉７９２番地２６,,29,210,6390264,,,,,,,2022-11-10,1,,,,,ハッピーサポート,0
2386,8180001153747,新規,0,2022-11-10,2022-11-10,株式会社ＡＯＢＡ,,株式会社,愛知県,名古屋市中区,丸の内３丁目１６番１１号丸の内パークマンション２０６号,,23,106,4600002,,,,,,,2022-11-10,1,,,,,アオバ,0
2387,8180001153796,新規,0,2022-11-10,2022-11-10,株式会社柊,,株式会社,愛知県,小牧市,東４丁目２１９番地‐１０５,,23,219,4850831,,,,,,,2022-11-10,1,,,,,ヒイラギ,0
2390,8180003024467,新規,0,2022-11-10,2022-11-10,合同会社ＡｉｓａｉＦａｒｍ,,合同会社,愛知県,愛西市,二子町小判山２４９番地,,23,232,4968034,,,,,,,2022-11-10,1,,,,,アイサイファーム,0
2393,8180005019993,新規,0,2022-11-10,2022-11-10,一般財団法人地域の縁側ひなたぼっこ,,その他の設立登記法人,愛知県,名古屋市千種区,清明山１丁目３番１０号,,23,101,4640087,,,,,,,2022-11-10,1,,,,,チイキノエンガワヒナタボッコ,0
2394,8180301036800,新規,0,2022-11-10,2022-11-10,株式会社ＫＡＺ,,株式会社,愛知県,刈谷市,小垣江町上沢渡７０番地６,,23,210,4480813,,,,,,,2022-11-10,1,,,,,カズ,0
2395,8180301036817,新規,0,2022-11-10,2022-11-10,株式会社グローアシストホールディングス,,株式会社,愛知県,豊田市,田代町３丁目１９番地１６,,23,211,4710846,,,,,,,2022-11-10,1,,,,,グローアシストホールディングス,0
2402,8200001040637,新規,0,2022-11-10,2022-11-10,パンテラ・ティグリス株式会社,,株式会社,岐阜県,岐阜市,木ノ下町３丁目１４番地,,21,201,5008154,,,,,,,2022-11-10,1,,,,,パンテラティグリス,0
2408,8240001060631,新規,0,2022-11-10,2022-11-10,株式会社ＳＰＣホールディングス,,株式会社,広島県,福山市,熊野町丙１４１４番地の１,,34,207,7200411,,,,,,,2022-11-10,1,,,,,エスピーシーホールディングス,0
2415,8260003004097,新規,0,2022-11-10,2022-11-10,山本電建合同会社,,合同会社,岡山県,岡山市中区,関３９０番地１０アーバン関２０２号,,33,102,7038232,,,,,,,2022-11-10,1,,,,,ヤマモトデンケン,0
2422,8290003013178,新規,0,2022-11-10,2022-11-10,合同会社ななから,,合同会社,福岡県,古賀市,今の庄１丁目５番１９号,,40,223,8113117,,,,,,,2022-11-10,1,,,,,ナナカラ,0
2424,8290005018852,新規,0,2022-11-10,2022-11-10,司法書士法人橋本事務所,,その他の設立登記法人,福岡県,福岡市博多区,中呉服町５番２２号２階,,40,132,8120035,,,,,,,2022-11-10,1,,,,,ハシモトジムショ,0
2432,8320001019413,新規,0,2022-11-10,2022-11-10,株式会社くまテック,,株式会社,大分県,玖珠郡玖珠町,大字小田２０２５番地,,44,462,8794411,,,,,,,2022-11-10,1,,,,,クマテック,0
2433,8330001030286,新規,0,2022-11-10,2022-11-10,株式会社ｔｅｓｏｒｏ,,株式会社,熊本県,阿蘇郡西原村,大字小森３１８０番地１,,43,432,8612402,,,,,,,2022-11-10,1,,,,,テソロ,0
2440,8360001031166,新規,0,2022-11-10,2022-11-10,ちゅくいん開発株式会社,,株式会社,沖縄県,南城市,玉城字玉城４２番地１,,47,215,9010604,,,,,,,2022-11-10,1,,,,,チュクインカイハツ,0
2441,8360001031174,新規,0,2022-11-10,2022-11-10,Ｓｅｋａｉｓｃａｐｅ株式会社,,株式会社,沖縄県,石垣市,字登野城５１０番地１階,,47,207,9070004,,,,,,,2022-11-10,1,,,,,セカイスケープ,0
2442,8360001031182,新規,0,2022-11-10,2022-11-10,株式会社ＭＯＦＵ,,株式会社,沖縄県,豊見城市,字豊崎１番地１１７８Ｆステージ豊崎パークフロント３０３号室,,47,212,9010225,,,,,,,2022-11-10,1,,,,,モフ,0
2443,8360005006742,新規,0,2022-11-10,2022-11-10,税理士法人タスク,,その他の設立登記法人,沖縄県,那覇市,安謝２丁目１８番２１号,,47,201,9000003,,,,,,,2022-11-10,1,,,,,タスク,0
2446,8370001049232,新規,0,2022-11-10,2022-11-10,株式会社ＳＥＮＧＯＫＵ,,株式会社,宮城県,仙台市青葉区,国分町２丁目１０番１７号花久ビル６階,,04,101,9800803,,,,,,,2022-11-10,1,,,,,センゴク,0
2450,8380001033251,新規,0,2022-11-10,2022-11-10,スクーデリア株式会社,,株式会社,福島県,郡山市,駅前１丁目１４－２１,,07,203,9638002,,,,,,,2022-11-10,1,,,,,,0
2451,8380003005315,新規,0,2022-11-10,2022-11-10,合同会社Ｕｍａ,,合同会社,福島県,いわき市,内郷高坂町１丁目８番地の１,,07,204,9738408,,,,,,,2022-11-10,1,,,,,ウーマ,0
2460,8430003014450,新規,0,2022-11-10,2022-11-10,合同会社Ｍｙサポート,,合同会社,北海道,札幌市東区,北四十二条東１丁目１番３号,,01,103,0070842,,,,,,,2022-11-10,1,,,,,マイサポート,0
2462,8440001009187,新規,0,2022-11-10,2022-11-10,株式会社志光,,株式会社,北海道,函館市,富岡町１丁目４２番５号サカキビル３Ｆ,,01,202,0410811,,,,,,,2022-11-10,1,,,,,シコウ,0
2467,8470003002278,新規,0,2022-11-10,2022-11-10,合同会社Ｓｔｅｉｇｅｎ,,合同会社,香川県,三豊市,詫間町詫間２１０２番地１１ＡＢＣアパート７号,,37,208,7691101,,,,,,,2022-11-10,1,,,,,シュタイゲン,0
2470,8480005006929,新規,0,2022-11-10,2022-11-10,一般社団法人Ｒｈｉｚｏｍｅ,,その他の設立登記法人,徳島県,徳島市,沖浜３丁目６３番地の１第３みずほビル１００２号室,,36,201,7708052,,,,,,,2022-11-10,1,,,,,リゾーム,0
2472,8490005006878,新規,0,2022-11-10,2022-11-10,特定非営利活動法人ひとしゅが,,その他の設立登記法人,高知県,高知市,瀬戸西町１丁目１２７番地二神啓通方,,39,201,7810251,,,,,,,2022-11-10,1,,,,,ヒトシュガ,0
2473,8700150106568,新規,0,2022-11-10,2022-01-11,要約筆記いわくに,,その他,山口県,岩国市,南岩国町２丁目５６番７号,,35,208,7400034,,,,,,,2022-01-11,1,,,,,ヨウヤクヒツキイワクニ,0
2474,8700150112277,新規,0,2022-11-10,2022-10-26,日本正統派ジャズ協会,,その他,埼玉県,春日部市,備後東１丁目１３－３,,11,214,3440032,,,,,,,2022-10-26,1,,,,,ニホンセイトウハジヤズキヨウカイ,0
2483,9010001230693,新規,0,2022-11-10,2022-11-10,株式会社Ｌｉｎｏ　Ｌｉｎｏ,,株式会社,東京都,中央区,銀座１丁目２２－１１－２Ｆ,,13,102,1040061,,,,,,,2022-11-10,1,,,,,,0
2484,9010001230719,新規,0,2022-11-10,2022-11-10,株式会社Ｒｉａｔｉｓ,,株式会社,東京都,千代田区,西神田２丁目２番２－４０１号,,13,101,1010065,,,,,,,2022-11-10,1,,,,,リアティス,0
2485,9010001230735,新規,0,2022-11-10,2022-11-10,株式会社ＳＰＧＬ,,株式会社,東京都,千代田区,神田神保町１丁目６２番地２－１１０７号,,13,101,1010051,,,,,,,2022-11-10,1,,,,,エスピージーエル,0
2488,9010003039027,新規,0,2022-11-10,2022-11-10,合同会社ものほん,,合同会社,東京都,中央区,日本橋中洲１２番１０－５０３号,,13,102,1030008,,,,,,,2022-11-10,1,,,,,モノホン,0
2489,9010003039035,新規,0,2022-11-10,2022-11-10,合同会社ハニカムサロン,,合同会社,東京都,中央区,銀座１丁目５番１５号銀座都ビル,,13,102,1040061,,,,,,,2022-11-10,1,,,,,ハニカムサロン,0
2490,9010003039068,新規,0,2022-11-10,2022-11-10,合同会社ファインラボ,,合同会社,東京都,文京区,向丘１丁目１４－２プレミアガーデン本郷Ｓ７,,13,105,1130023,,,,,,,2022-11-10,1,,,,,ファインラボ,0
2494,9010401170754,新規,0,2022-11-10,2022-11-10,株式会社アンドカーサ,,株式会社,東京都,港区,赤坂４丁目８番１９号赤坂フロントタウン３階,,13,103,1070052,,,,,,,2022-11-10,1,,,,,アンドカーサ,0
2495,9010401170762,新規,0,2022-11-10,2022-11-10,株式会社Ｂｅ,,株式会社,東京都,港区,南青山３丁目１番３６号青山丸竹ビル６Ｆ,,13,103,1070062,,,,,,,2022-11-10,1,,,,,ビー,0
2497,9010403028868,新規,0,2022-11-10,2022-11-10,合同会社ＳｏｒａｎｏｕｅＣｒｅａｔｉｖｅＷｏｒｋｓ,,合同会社,東京都,港区,南青山２丁目２番１５号,,13,103,1070062,,,,,,,2022-11-10,1,,,,,ソラノウエクリエイティブワークス,0
2498,9010405021532,新規,0,2022-11-10,2022-11-10,一般社団法人令和記念事業団,,その他の設立登記法人,東京都,港区,高輪１丁目１番１２号カペラビル５０１,,13,103,1080074,,,,,,,2022-11-10,1,,,,,レイワキネンジギョウダン,0
2499,9010501049601,新規,0,2022-11-10,2022-11-10,株式会社アトリエ,,株式会社,東京都,台東区,小島２丁目２０番１１号ＬＩＧビル,,13,106,1110056,,,,,,,2022-11-10,1,,,,,アトリエ,0
2500,9010603009841,新規,0,2022-11-10,2022-11-10,椿原興産合同会社,,合同会社,東京都,江東区,白河４丁目９番２５－１１０６号,,13,108,1350021,,,,,,,2022-11-10,1,,,,,ツバキハラコウサン,0
2503,9010701043445,新規,0,2022-11-10,2022-11-10,株式会社チームソリューション,,株式会社,東京都,品川区,南大井６丁目１７番１４号,,13,109,1400013,,,,,,,2022-11-10,1,,,,,チームソリューション,0
2505,9010901051958,新規,0,2022-11-10,2022-11-10,株式会社ＲａｆＳｏｕｎｄ,,株式会社,東京都,世田谷区,喜多見８丁目１番６号,,13,112,1570067,,,,,,,2022-11-10,1,,,,,ラフサウンド,0
2506,9010903007768,新規,0,2022-11-10,2022-11-10,合同会社Ａｍａｒｙｌｌｉｓ,,合同会社,東京都,世田谷区,深沢８丁目１１－１１、３０４,,13,112,1580081,,,,,,,2022-11-10,1,,,,,アマリリス,0
2509,9011001150717,新規,0,2022-11-10,2022-11-10,株式会社酒井企画,,株式会社,東京都,渋谷区,円山町１０番１８号マイキャッスル渋谷ＪＰ１０２,,13,113,1500044,,,,,,,2022-11-10,1,,,,,サカイキカク,0
2521,9011101100778,新規,0,2022-11-10,2022-11-10,株式会社Ｒｅｌｉｅｒ,,株式会社,東京都,新宿区,高田馬場４丁目９番１８号畔上セブンビル２０２号室,,13,104,1690075,,,,,,,2022-11-10,1,,,,,ルリエ,0
2522,9011101100803,新規,0,2022-11-10,2022-11-10,株式会社ＡＲＣＡＴＨ,,株式会社,東京都,新宿区,西新宿７丁目７番地３３号新銘ビル５階,,13,104,1600023,,,,,,,2022-11-10,1,,,,,アルカス,0
2523,9011101100811,新規,0,2022-11-10,2022-11-10,株式会社ＮＱ,,株式会社,東京都,新宿区,百人町１丁目２５－１４石田マンション２０１,,13,104,1690073,,,,,,,2022-11-10,1,,,,,エヌキュー,0
2533,9011801041537,新規,0,2022-11-10,2022-11-10,株式会社ＰＤＳ,,株式会社,東京都,足立区,大谷田３丁目１番１５号,,13,121,1200001,,,,,,,2022-11-10,1,,,,,ピーディーエス,0
2534,9011801041545,新規,0,2022-11-10,2022-11-10,株式会社ＬＯＧＥＸ,,株式会社,東京都,足立区,西保木間２丁目４－１３,,13,121,1210812,,,,,,,2022-11-10,1,,,,,ロジックス,0
2537,9012403005665,新規,0,2022-11-10,2022-11-10,合同会社ａｚｍｙ,,合同会社,東京都,武蔵野市,境１丁目１９番９号,,13,203,1800022,,,,,,,2022-11-10,1,,,,,アズミー,0
2538,9012403005673,新規,0,2022-11-10,2022-11-10,合同会社ＳＨＩＩＰ,,合同会社,東京都,武蔵野市,西久保２丁目３番１２号榎本第一ビル１０１,,13,203,1800013,,,,,,,2022-11-10,1,,,,,シップ,0
2539,9012701017346,新規,0,2022-11-10,2022-11-10,株式会社ソリシア,,株式会社,東京都,小平市,天神町２丁目７番１０号カーサパセオＢ２０８号,,13,211,1870004,,,,,,,2022-11-10,1,,,,,ソリシア,0
2540,9013301049903,新規,0,2022-11-10,2022-11-10,株式会社ワークリックル,,株式会社,東京都,豊島区,北大塚１丁目１９－１２コルティス大塚６階－２３,,13,116,1700004,,,,,,,2022-11-10,1,,,,,ワークリックル,0
2547,9020001148877,新規,0,2022-11-10,2022-11-10,株式会社Ｌｉｎｋｓ,,株式会社,神奈川県,川崎市幸区,堀川町７２－２１ラゾーナ川崎レジデンスセントラルタワーＴ３４１０,,14,132,2120013,,,,,,,2022-11-10,1,,,,,リンクス,0
2548,9020001148935,新規,0,2022-11-10,2022-11-10,ブルーオーシャン横浜株式会社,,株式会社,神奈川県,横浜市金沢区,幸浦２丁目１番地１２,,14,108,2360003,,,,,,,2022-11-10,1,,,,,ブルーオーシャンヨコハマ,0
2555,9020003022700,新規,0,2022-11-10,2022-11-10,合同会社源八商店,,合同会社,神奈川県,横浜市中区,宮川町２丁目５６番地,,14,104,2310065,,,,,,,2022-11-10,1,,,,,ゲンパチショウテン,0
2556,9020003022709,新規,0,2022-11-10,2022-11-10,合同会社Ｎ　Ａｖｅｎｕｅ,,合同会社,神奈川県,横浜市神奈川区,栄町５番地１横浜クリエーションスクエア１４階,,14,102,2210052,,,,,,,2022-11-10,1,,,,,エヌアベニュー,0
2561,9021001077380,新規,0,2022-11-10,2022-11-10,カイマナ株式会社,,株式会社,神奈川県,横須賀市,上町２丁目４６,,14,201,2380017,,,,,,,2022-11-10,1,,,,,カイマナ,0
2562,9021001077414,新規,0,2022-11-10,2022-11-10,ゴージャス株式会社,,株式会社,神奈川県,横須賀市,坂本町６丁目４０,,14,201,2380043,,,,,,,2022-11-10,1,,,,,ゴージャス,0
2563,9021001077422,新規,0,2022-11-10,2022-11-10,プラスオクト株式会社,,株式会社,神奈川県,藤沢市,辻堂東海岸２丁目３－４Ａ,,14,205,2510045,,,,,,,2022-11-10,1,,,,,プラスオクト,0
2564,9021001077439,新規,0,2022-11-10,2022-11-10,株式会社Ｌｉｖｅ　ｗｉｔｈ　Ｃｏｄｅ,,株式会社,神奈川県,平塚市,夕陽ケ丘６－１７ピア湘南夕陽ケ丘３０３,,14,203,2540806,,,,,,,2022-11-10,1,,,,,リブウィズコード,0
2567,9021003012352,新規,0,2022-11-10,2022-11-10,合同会社梵,,合同会社,神奈川県,茅ヶ崎市,出口町１２番１８号,,14,207,2530028,,,,,,,2022-11-10,1,,,,,ボン,0
2568,9021005012656,新規,0,2022-11-10,2022-11-10,特定非営利活動法人よこすかなかながや,,その他の設立登記法人,神奈川県,横須賀市,池上４丁目５番１１号,,14,201,2380035,,,,,,,2022-11-10,1,,,,,ヨコスカナカナガヤ,0
2576,9030001150989,新規,0,2022-11-10,2022-11-10,株式会社フロッシュメタル,,株式会社,埼玉県,熊谷市,銀座１丁目２９番地１,,11,202,3600032,,,,,,,2022-11-10,1,,,,,フロッシュメタル,0
2577,9030001150997,新規,0,2022-11-10,2022-11-10,株式会社むさし野住設,,株式会社,埼玉県,川越市,むさし野南３１番地１１,,11,201,3501158,,,,,,,2022-11-10,1,,,,,ムサシノジュウセツ,0
2578,9030001151013,新規,0,2022-11-10,2022-11-10,株式会社大町商事,,株式会社,埼玉県,三郷市,新和４丁目３１４番地,,11,237,3410034,,,,,,,2022-11-10,1,,,,,オオマチショウジ,0
2579,9030001151021,新規,0,2022-11-10,2022-11-10,株式会社グランテラス,,株式会社,埼玉県,川越市,大字安比奈新田１３０－１,,11,201,3501173,,,,,,,2022-11-10,1,,,,,グランテラス,0
2582,9030003020554,新規,0,2022-11-10,2022-11-10,翔美合同会社,,合同会社,埼玉県,加須市,北下新井８６番地１０,,11,210,3491134,,,,,,,2022-11-10,1,,,,,トミ,0
2583,9030005021063,新規,0,2022-11-10,2022-11-10,社会保険労務士法人サルベージ,,その他の設立登記法人,埼玉県,新座市,新堀３丁目６番１８号グランドクレスト清瀬５０３号室,,11,230,3520032,,,,,,,2022-11-10,1,,,,,サルベージ,0
2589,9040001125692,新規,0,2022-11-10,2022-11-10,株式会社秋山工作所,,株式会社,千葉県,山武郡横芝光町,芝崎１８１７番地１,,12,410,2891715,,,,,,,2022-11-10,1,,,,,アキヤマコウサクショ,0
2590,9040001125775,新規,0,2022-11-10,2022-11-10,株式会社ネオプラス,,株式会社,千葉県,八千代市,島田台７７３番地１,,12,221,2760004,,,,,,,2022-11-10,1,,,,,ネオプラス,0
2591,9040001125800,新規,0,2022-11-10,2022-11-10,株式会社ＧＳＪ,,株式会社,千葉県,市原市,八幡浦１丁目１２番地，２階,,12,219,2900068,,,,,,,2022-11-10,1,,,,,ジーエスジェー,0
2592,9040001125817,新規,0,2022-11-10,2022-11-10,嘉康商事株式会社,,株式会社,千葉県,鎌ケ谷市,東道野辺７丁目１２番６９－５号,,12,224,2730115,,,,,,,2022-11-10,1,,,,,ヨシヤスショウジ,0
2594,9040003021221,新規,0,2022-11-10,2022-11-10,地涌企画合同会社,,合同会社,千葉県,船橋市,本町６丁目１７－３,,12,204,2730005,,,,,,,2022-11-10,1,,,,,ジユキカク,0
2595,9040003021254,新規,0,2022-11-10,2022-11-10,合同会社キャンドル新館,,合同会社,千葉県,松戸市,常盤平５丁目１１番９号今井ビル５０１号室,,12,207,2702261,,,,,,,2022-11-10,1,,,,,キャンドルシンカン,0
2600,9050001051946,新規,0,2022-11-10,2022-11-10,株式会社ユニハン,,株式会社,茨城県,守谷市,松並青葉２丁目２２番地９,,08,224,3020132,,,,,,,2022-11-10,1,,,,,ユニハン,0
2601,9050001051954,新規,0,2022-11-10,2022-11-10,株式会社タイドワークス,,株式会社,茨城県,龍ケ崎市,佐貫４丁目１１番１０号,,08,208,3010032,,,,,,,2022-11-10,1,,,,,タイドワークス,0
2603,9050003007005,新規,0,2022-11-10,2022-11-10,ＩＳＨＡＲＡ　ＩＮＴＥＲＮＡＴＩＯＮＡＬ合同会社,,合同会社,茨城県,下妻市,五箇２２０－９１,,08,210,3040823,,,,,,,2022-11-10,1,,,,,イシャラインターナショナル,0
2604,9060001035444,新規,0,2022-11-10,2022-11-10,株式会社まつ坂,,株式会社,栃木県,大田原市,美原１丁目６番６号,,09,210,3240047,,,,,,,2022-11-10,1,,,,,マツザカ,0
2607,9070001039816,新規,0,2022-11-10,2022-11-10,株式会社ｅフレーム,,株式会社,群馬県,太田市,細谷町１８１４番地２,,10,205,3730842,,,,,,,2022-11-10,1,,,,,イーフレーム,0
2608,9070003004702,新規,0,2022-11-10,2022-11-10,ａｎｔｅｌｉａｓ合同会社,,合同会社,群馬県,高崎市,貝沢町２１２９,,10,202,3700042,,,,,,,2022-11-10,1,,,,,アンテリアス,0
2616,9100001035869,新規,0,2022-11-10,2022-11-10,らく農株式会社,,株式会社,長野県,長野市,大字北長池１９６２番地３３,,20,201,3810025,,,,,,,2022-11-10,1,,,,,ラクノウ,0
2619,9110001037105,新規,0,2022-11-10,2022-11-10,株式会社木禄,,株式会社,新潟県,長岡市,東保内２０１６番地３,,15,202,9494521,,,,,,,2022-11-10,1,,,,,キロク,0
2629,9120001250045,新規,0,2022-11-10,2022-11-10,株式会社ＳＰＡＲＸフーズカンパニー,,株式会社,大阪府,大阪市西区,江戸堀２丁目３番５－１２０７号,,27,106,5500002,,,,,,,2022-11-10,1,,,,,スパークスフーズカンパニー,0
2630,9120001250152,新規,0,2022-11-10,2022-11-10,圖夏株式会社,,株式会社,大阪府,大阪市天王寺区,空清町４番１１号杉野ビル本館４０３号,,27,109,5430018,,,,,,,2022-11-10,1,,,,,トカ,0
2631,9120001250160,新規,0,2022-11-10,2022-11-10,光域株式会社,,株式会社,大阪府,大阪市淀川区,西宮原２丁目５番４６－７１３号,,27,123,5320004,,,,,,,2022-11-10,1,,,,,コウイキ,0
2632,9120001250177,新規,0,2022-11-10,2022-11-10,ナリタツ株式会社,,株式会社,大阪府,大阪市淀川区,西中島４丁目６－２９－５０３,,27,123,5320011,,,,,,,2022-11-10,1,,,,,ナリタツ,0
2633,9120001250185,新規,0,2022-11-10,2022-11-10,株式会社雨,,株式会社,大阪府,大阪市此花区,西九条１丁目１０－１０－１０２,,27,104,5540012,,,,,,,2022-11-10,1,,,,,アメ,0
2634,9120001250219,新規,0,2022-11-10,2022-11-10,ＰＶケーブル株式会社,,株式会社,大阪府,大阪市西区,南堀江４丁目７番１号１２０６,,27,106,5500015,,,,,,,2022-11-10,1,,,,,ピーブイケーブル,0
2638,9120003022822,新規,0,2022-11-10,2022-11-10,合同会社ティーオープランニング,,合同会社,大阪府,寝屋川市,大利元町２１番４号,,27,215,5720047,,,,,,,2022-11-10,1,,,,,ティーオープランニング,0
2639,9120003022839,新規,0,2022-11-10,2022-11-10,Ｍａｇｎｕｍ合同会社,,合同会社,大阪府,大阪市旭区,大宮２丁目８番２８号,,27,117,5350002,,,,,,,2022-11-10,1,,,,,マグナム,0
2643,9120901046716,新規,0,2022-11-10,2022-11-10,ＣＳ不動産販売株式会社,,株式会社,大阪府,豊中市,野田町６番３号,,27,203,5610855,,,,,,,2022-11-10,1,,,,,シーエスフドウサンハンバイ,0
2645,9120903004366,新規,0,2022-11-10,2022-11-10,合同会社Ａｃｅ,,合同会社,大阪府,茨木市,橋の内２丁目７番５５号,,27,211,5670805,,,,,,,2022-11-10,1,,,,,エース,0
2647,9122001036366,新規,0,2022-11-10,2022-11-10,株式会社Ｍｒ．カワサキ,,株式会社,大阪府,東大阪市,中鴻池町２丁目１番２８号,,27,227,5780975,,,,,,,2022-11-10,1,,,,,ミスターカワサキ,0
2648,9122001036374,新規,0,2022-11-10,2022-11-10,サンドール株式会社,,株式会社,大阪府,八尾市,本町７丁目４番１２号,,27,212,5810003,,,,,,,2022-11-10,1,,,,,サンドール,0
2649,9122001036382,新規,0,2022-11-10,2022-11-10,乾ファーム株式会社,,株式会社,大阪府,柏原市,旭ケ丘３丁目５番１８号,,27,221,5820026,,,,,,,2022-11-10,1,,,,,イヌイファーム,0
2650,9122001036399,新規,0,2022-11-10,2022-11-10,株式会社Ｒｉｍｉｎａ,,株式会社,大阪府,東大阪市,永和１丁目７番１５号,,27,227,5770809,,,,,,,2022-11-10,1,,,,,リミナ,0
2653,9130001073040,新規,0,2022-11-10,2022-11-10,株式会社Ａｇｌａｉａ,,株式会社,京都府,京都市下京区,七条御所ノ内北町７６番地８,,26,106,6008861,,,,,,,2022-11-10,1,,,,,アグライア,0
2656,9140001128017,新規,0,2022-11-10,2022-11-10,株式会社ＳＷ,,株式会社,兵庫県,西宮市,甲子園五番町１０番２２－１０４号,,28,204,6638175,,,,,,,2022-11-10,1,,,,,エスダヴリュー,0
2657,9140001128033,新規,0,2022-11-10,2022-11-10,株式会社ＡＬＩＶＥ,,株式会社,兵庫県,明石市,本町１丁目６番１４号,,28,203,6730892,,,,,,,2022-11-10,1,,,,,アライブ,0
2658,9140001128041,新規,0,2022-11-10,2022-11-10,株式会社そうしんアグリ,,株式会社,兵庫県,神戸市西区,玉津町田中字田井３３４番地１,,28,111,6512147,,,,,,,2022-11-10,1,,,,,ソウシンアグリ,0
2660,9170001017349,新規,0,2022-11-10,2022-11-10,株式会社ＳＯＲＡ製作所,,株式会社,和歌山県,橋本市,須河２２８番地,,30,203,6480038,,,,,,,2022-11-10,1,,,,,ソラセイサクショ,0
2675,9180003024474,新規,0,2022-11-10,2022-11-10,合同会社オブジェクトフロー,,合同会社,愛知県,日進市,香久山３丁目８１１番地,,23,230,4700134,,,,,,,2022-11-10,1,,,,,オブジェクトフロー,0
2680,9180301036808,新規,0,2022-11-10,2022-11-10,株式会社シャイニースター,,株式会社,愛知県,豊橋市,駅前大通３丁目１１８番地先村上ビル２階,,23,201,4400888,,,,,,,2022-11-10,1,,,,,シャイニースター,0
2681,9180301036816,新規,0,2022-11-10,2022-11-10,株式会社ＳＭＩＬＥ不動産,,株式会社,愛知県,豊田市,衣ケ原３丁目１２番地,,23,211,4710856,,,,,,,2022-11-10,1,,,,,スマイルフドウサン,0
2683,9180303005505,新規,0,2022-11-10,2022-11-10,ｔｅｃｏｏｎ合同会社,,合同会社,愛知県,刈谷市,銀座４丁目４０総合学習塾Ｐ２Ｐ,,23,210,4480845,,,,,,,2022-11-10,1,,,,,テコオン,0
2687,9190001029920,新規,0,2022-11-10,2022-11-10,株式会社バイタルスペース,,株式会社,三重県,鈴鹿市,中江島町３－３ＣＯＮＴＥＮＴＯＧＡＲＡＧＥＣ,,24,207,5100236,,,,,,,2022-11-10,1,,,,,バイタルスペース,0
2688,9190005011759,新規,0,2022-11-10,2022-11-10,特定非営利活動法人終活サポート,,その他の設立登記法人,三重県,伊勢市,小俣町元町５０４番地,,24,203,5190503,,,,,,,2022-11-10,1,,,,,シュウカツサポート,0
2700,9240001060630,新規,0,2022-11-10,2022-11-10,株式会社うえだ工務店,,株式会社,広島県,福山市,本郷町２０６７番地３４,,34,207,7290252,,,,,,,2022-11-10,1,,,,,ウエダコウムテン,0
2701,9240001060647,新規,0,2022-11-10,2022-11-10,株式会社リンクアップシステム,,株式会社,広島県,広島市安佐南区,古市１丁目９番１－２０２号,,34,105,7310123,,,,,,,2022-11-10,1,,,,,リンクアップシステム,0
2704,9240003005889,新規,0,2022-11-10,2022-11-10,Ｒｉｖｅｒ　Ｍａｒｋ合同会社,,合同会社,広島県,東広島市,八本松東４丁目８番３９－１０号,,34,212,7390142,,,,,,,2022-11-10,1,,,,,リバーマーク,0
2713,9260005011157,新規,0,2022-11-10,2022-11-10,ベアマーブル協同組合,,その他の設立登記法人,岡山県,岡山市北区,今６丁目９番２５号,,33,101,7000975,,,,,,,2022-11-10,1,,,,,ベアマーブル,0
2720,9290001099540,新規,0,2022-11-10,2022-11-10,株式会社ディーバ,,株式会社,福岡県,福岡市博多区,博多駅南３丁目１５番３０号ローズマンション第２博多１０１,,40,132,8120016,,,,,,,2022-11-10,1,,,,,ディーバ,0
2721,9290001099549,新規,0,2022-11-10,2022-11-10,株式会社ウルクス,,株式会社,福岡県,福岡市中央区,薬院１丁目５番１１号７階,,40,133,8100022,,,,,,,2022-11-10,1,,,,,ウルクス,0
2722,9290001099557,新規,0,2022-11-10,2022-11-10,株式会社Ｋ‐ＳＹＳＴＥＭ,,株式会社,福岡県,福岡市早良区,四箇１丁目４番２５－６号,,40,137,8111103,,,,,,,2022-11-10,1,,,,,ケイシステム,0
2723,9290001099573,新規,0,2022-11-10,2022-11-10,株式会社よし健,,株式会社,福岡県,春日市,下白水南６丁目１１８番地,,40,218,8160846,,,,,,,2022-11-10,1,,,,,ヨシケン,0
2727,9290003013160,新規,0,2022-11-10,2022-11-10,九東商会合同会社,,合同会社,福岡県,福岡市博多区,博多駅南３丁目１７－１９ベーシックビル博多１００５,,40,132,8120016,,,,,,,2022-11-10,1,,,,,キュウトウショウカイ,0
2729,9290803004251,新規,0,2022-11-10,2022-11-10,Ｍｓｔｙｌｅ合同会社,,合同会社,福岡県,北九州市小倉北区,今町２丁目２－５,,40,106,8030862,,,,,,,2022-11-10,1,,,,,エムスタイル,0
2737,9340001025160,新規,0,2022-11-10,2022-11-10,株式会社昭和不動産,,株式会社,鹿児島県,霧島市,隼人町見次８８７番地,,46,218,8995117,,,,,,,2022-11-10,1,,,,,ショウワフドウサン,0
2743,9360001031149,新規,0,2022-11-10,2022-11-10,望夢工房株式会社,,株式会社,沖縄県,島尻郡八重瀬町,字富盛６０９番地,,47,362,9010402,,,,,,,2022-11-10,1,,,,,ノゾミコウボウ,0
2744,9360001031181,新規,0,2022-11-10,2022-11-10,株式会社幸,,株式会社,沖縄県,浦添市,伊祖３丁目３６番１号ＴＫＳマンション２Ｆ,,47,208,9012132,,,,,,,2022-11-10,1,,,,,サチ,0
2749,9360003012444,新規,0,2022-11-10,2022-11-10,合同会社ＭｏｇＢｅｅ,,合同会社,沖縄県,那覇市,上間１丁目３１番１２号,,47,201,9020073,,,,,,,2022-11-10,1,,,,,モグビー,0
2751,9370003005892,新規,0,2022-11-10,2022-11-10,合同会社ＥＮＺＯ,,合同会社,宮城県,仙台市太白区,長町５丁目３番１－２３０６号,,04,104,9820011,,,,,,,2022-11-10,1,,,,,エンゾ,0
2757,9380001033259,新規,0,2022-11-10,2022-11-10,鈴木功業株式会社,,株式会社,福島県,西白河郡西郷村,大字米字中山前６５番地１,,07,461,9618031,,,,,,,2022-11-10,1,,,,,スズキコウギョウ,0
2766,9430001087828,新規,0,2022-11-10,2022-11-10,株式会社ブリエ,,株式会社,北海道,札幌市中央区,南十一条西７丁目２－２１,,01,101,0640811,,,,,,,2022-11-10,1,,,,,ブリエ,0
2770,9470001019323,新規,0,2022-11-10,2022-11-10,田中鉄工株式会社,,株式会社,香川県,木田郡三木町,大字平木１００６番地１,,37,341,7610702,,,,,,,2022-11-10,1,,,,,タナカテッコウ,0
2771,9470001019331,新規,0,2022-11-10,2022-11-10,株式会社ＴＳＵＮＡＧＵ‐ＬＡＢ．,,株式会社,香川県,観音寺市,柞田町甲５番地,,37,205,7680040,,,,,,,2022-11-10,1,,,,,ツナグラボ,0
2773,9470003002277,新規,0,2022-11-10,2022-11-10,Ｇｒｏｗ合同会社,,合同会社,香川県,観音寺市,柞田町甲９１番地,,37,205,7680040,,,,,,,2022-11-10,1,,,,,グロー,0
2775,9480005006928,新規,0,2022-11-10,2022-11-10,ジョブスタッフ協同組合,,その他の設立登記法人,徳島県,徳島市,住吉６丁目４番８号,,36,201,7700861,,,,,,,2022-11-10,1,,,,,ジョブスタッフ,0
2776,9490003001715,新規,0,2022-11-10,2022-11-10,合同会社ＰＬＵＳ　ＯＮＥ,,合同会社,高知県,高知市,升形９番４８号Ｎａｎｉ．Ｋａｈｕａ．ｂｌｄ．２階,,39,201,7800861,,,,,,,2022-11-10,1,,,,,プラスワン,0
