sequenceNumber,corporateNumber,process,correct,updateDate,changeDate,name,nameImageId,kind,prefectureName,cityName,streetNumber,addressImageId,prefectureCode,cityCode,postCode,addressOutside,addressOutsideImageId,closeDate,closeCause,successorCorporateNumber,changeCause,assignmentDate,latest,enName,enPrefectureName,enCityName,enAddressOutside,furigana,hihyoji
16,1010001260310,新規,0,2025-11-21,2025-11-21,株式会社ちゃんのれん組合Ｚ,,株式会社,東京都,中央区,銀座３丁目１３－１１銀座芦澤ビル３階,,13,102,1040061,,,,,,,2025-11-21,1,,,,,チャンノレンクミアイゼット,0
17,1010001260459,新規,0,2025-11-21,2025-11-21,株式会社ＴＥＤ,,株式会社,東京都,中央区,銀座１丁目１２番４号Ｎ＆ＥＢＬＤ．６Ｆ,,13,102,1040061,,,,,,,2025-11-21,1,,,,,ティーイーディー,0
18,1010001260500,新規,0,2025-11-21,2025-11-21,株式会社エンダーライン,,株式会社,東京都,中央区,銀座７丁目１３番２０号銀座ＴＨビル９階,,13,102,1040061,,,,,,,2025-11-21,1,,,,,エンダーライン,0
19,1010001260566,新規,0,2025-11-21,2025-11-21,株式会社ＷＡＳＡＢＩ　ＥＦＦＥＣＴ　ＤＥＳＩＧＮ,,株式会社,東京都,千代田区,神田和泉町１番地６ー１６ヤマトビル４０５,,13,101,1010024,,,,,,,2025-11-21,1,,,,,ワサビエフェクトデザイン,0
20,1010003049479,新規,0,2025-11-21,2025-11-21,品川プロパティー合同会社,,合同会社,東京都,千代田区,丸の内１丁目１１番１号,,13,101,1000005,,,,,,,2025-11-21,1,,,,,シナガワプロパティー,0
21,1010003049487,新規,0,2025-11-21,2025-11-21,合同会社ＣＨ不動産２,,合同会社,東京都,中央区,新川１丁目１７番１８号,,13,102,1040033,,,,,,,2025-11-21,1,,,,,シーエイチフドウサンツー,0
22,1010003049512,新規,0,2025-11-21,2025-11-21,合同会社ＥｇｇｅｒＬａｂ,,合同会社,東京都,中央区,日本橋室町１丁目１１番１２号日本橋水野ビル７階,,13,102,1030022,,,,,,,2025-11-21,1,,,,,エッガーラボ,0
23,1010101016975,新規,0,2025-11-21,2025-11-21,ｎＧＰＮ株式会社,,株式会社,東京都,八王子市,叶谷町１５０５番地１ハレアカラ３０５号,,13,201,1930815,,,,,,,2025-11-21,1,,,,,エヌジーピーエヌ,0
27,1010401194562,新規,0,2025-11-21,2025-11-21,ＲｅＴＡＮＡ株式会社,,株式会社,東京都,港区,南青山３丁目１番３６号青山丸竹ビル６Ｆ,,13,103,1070062,,,,,,,2025-11-21,1,,,,,リタナ,0
28,1010401194678,新規,0,2025-11-21,2025-11-21,ＬＳ‐Ａｖｉａｔｉｏｎ第８６号株式会社,,株式会社,東京都,港区,六本木１丁目６番１号,,13,103,1060032,,,,,,,2025-11-21,1,,,,,エルエスアビエーションダイハチジュウロクゴウ,0
42,1011003022962,新規,0,2025-11-21,2025-11-21,Ｚｅｎｓｈｉｎ合同会社,,合同会社,東京都,渋谷区,恵比寿西２丁目８番４号ＥＸ恵比寿西ビル５階,,13,113,1500021,,,,,,,2025-11-21,1,,,,,ゼンシン,0
45,1011101113960,新規,0,2025-11-21,2025-11-21,株式会社Ｔｉｐ,,株式会社,東京都,新宿区,西新宿３丁目３番１３号西新宿水間ビル６階,,13,104,1600023,,,,,,,2025-11-21,1,,,,,ティップ,0
51,1011301030997,新規,0,2025-11-21,2025-11-21,株式会社ディスカバリーシーン,,株式会社,東京都,杉並区,高井戸西２丁目１８番２９号,,13,115,1680071,,,,,,,2025-11-21,1,,,,,ディスカバリーシーン,0
52,1011301031062,新規,0,2025-11-21,2025-11-21,株式会社富商ＪＰ,,株式会社,東京都,杉並区,梅里１丁目２１番２４号アルバ梅里１０２,,13,115,1660011,,,,,,,2025-11-21,1,,,,,トミショウジェイピー,0
54,1011601029178,新規,0,2025-11-21,2025-11-21,幸祐建設株式会社,,株式会社,東京都,練馬区,大泉学園町７丁目１９番５－１０１号,,13,120,1780061,,,,,,,2025-11-21,1,,,,,コウユウケンセツ,0
60,1011801047070,新規,0,2025-11-21,2025-11-21,菊池興業株式会社,,株式会社,東京都,足立区,六町３丁目６番２８号,,13,121,1210073,,,,,,,2025-11-21,1,,,,,キクチコウギョウ,0
61,1011801047095,新規,0,2025-11-21,2025-11-21,株式会社近藤紙業,,株式会社,東京都,足立区,青井１丁目１６番６号,,13,121,1200012,,,,,,,2025-11-21,1,,,,,コンドウシギョウ,0
63,1012403007470,新規,0,2025-11-21,2025-11-21,合同会社やすらぎ,,合同会社,東京都,三鷹市,北野１丁目２番３０号,,13,204,1810003,,,,,,,2025-11-21,1,,,,,ヤスラギ,0
65,1012701019201,新規,0,2025-11-21,2025-11-21,株式会社ＡＲＣＨ,,株式会社,東京都,東村山市,久米川町１丁目１４番地３９,,13,213,1890003,,,,,,,2025-11-21,1,,,,,アーチ,0
66,1012801024373,新規,0,2025-11-21,2025-11-21,株式会社ＣＲＹスマイル,,株式会社,東京都,昭島市,緑町４丁目１１番２６号,,13,207,1960004,,,,,,,2025-11-21,1,,,,,シーアールワイスマイル,0
70,1020001165888,新規,0,2025-11-21,2025-11-21,株式会社ＫＡＴＳＵＴＯＲＡ,,株式会社,神奈川県,横浜市港北区,樽町１丁目３番１９号,,14,109,2220001,,,,,,,2025-11-21,1,,,,,カツトラ,0
74,1021001086802,新規,0,2025-11-21,2025-11-21,株式会社Ｒｅ　ｎｅｗ　Ｍｅ,,株式会社,神奈川県,茅ヶ崎市,共恵１丁目２番５号グランテージＩ４０２号室,00141615,14,207,2530056,,,,,,,2025-11-21,1,,,,,リニューミー,0
78,1030001169632,新規,0,2025-11-21,2025-11-21,株式会社カノークス鋼管関東,,株式会社,埼玉県,鴻巣市,上会下字白幡６１２番地１３,,11,217,3650012,,,,,,,2025-11-21,1,,,,,カノークスコウカンカントウ,0
83,1030003028084,新規,0,2025-11-21,2025-11-21,合同会社ＮＯＭＡＤ　ＮＥＸＵＳ,,合同会社,埼玉県,さいたま市西区,大字指扇４２８１番地１,,11,101,3310047,,,,,,,2025-11-21,1,,,,,ノマドネクサス,0
89,1040003029016,新規,0,2025-11-21,2025-11-21,合同会社Ｍ．Ｋホーム,,合同会社,千葉県,柏市,中央２丁目５－１４中央ハイネス１０１,,12,217,2770023,,,,,,,2025-11-21,1,,,,,エムケイホーム,0
102,1080401028276,新規,0,2025-11-21,2025-11-21,株式会社ＨＩＲＡＹＡ　ＭＡＮＡＷＡＲＩ,,株式会社,静岡県,浜松市中央区,中田町１４３番地の１,,22,138,4350057,,,,,,,2025-11-21,1,,,,,ヒラヤマナワリ,0
117,1120001282054,新規,0,2025-11-21,2025-11-21,株式会社ＯｓａｋａＹｅｏｎＨｏｕｓｅ,,株式会社,大阪府,大阪市浪速区,敷津西２丁目１０－２０,,27,111,5560015,,,,,,,2025-11-21,1,,,,,オオサカヨンハウス,0
124,1120003031285,新規,0,2025-11-21,2025-11-21,合同会社ＡＶＡＬＯＮ,,合同会社,大阪府,大阪市西淀川区,姫里２丁目１３番１４号,,27,113,5550025,,,,,,,2025-11-21,1,,,,,アバロン,0
133,1122001039888,新規,0,2025-11-21,2025-11-21,株式会社レイライズ,,株式会社,大阪府,八尾市,山本町５丁目６番１１号,,27,212,5810867,,,,,,,2025-11-21,1,,,,,レイライズ,0
134,1122003003405,新規,0,2025-11-21,2025-11-21,フロムコンサルティング合同会社,,合同会社,大阪府,東大阪市,足代１丁目２１番４号,,27,227,5770841,,,,,,,2025-11-21,1,,,,,フロムコンサルティング,0
143,1130003010924,新規,0,2025-11-21,2025-11-21,合同会社ぜろいち,,合同会社,京都府,京田辺市,三山木八反坪５１番地,,26,211,6100313,,,,,,,2025-11-21,1,,,,,ゼロイチ,0
149,1140001140862,新規,0,2025-11-21,2025-11-21,株式会社ＥＳコンサルティング,,株式会社,兵庫県,西宮市,櫨塚町２－２０西宮商工会館３Ｆにしのみや起業家支援センター内,,28,204,6620854,,,,,,,2025-11-21,1,,,,,イーエスコンサルティング,0
150,1150001028561,新規,0,2025-11-21,2025-11-21,株式会社近藤衛生,,株式会社,奈良県,北葛城郡河合町,大字西穴闇３８番地,,29,427,6360055,,,,,,,2025-11-21,1,,,,,コンドウエイセイ,0
175,1180303006816,新規,0,2025-11-21,2025-11-21,北信バディ合同会社,,合同会社,愛知県,豊川市,末広通２丁目１６番地の２,,23,207,4420029,,,,,,,2025-11-21,1,,,,,ホクシンバディ,0
188,1260003005424,新規,0,2025-11-21,2025-11-21,合同会社大樹,,合同会社,岡山県,笠岡市,山口２９３５－６,,33,205,7140007,,,,,,,2025-11-21,1,,,,,タイジュ,0
192,1290001112145,新規,0,2025-11-21,2025-11-21,株式会社ＳＨＩＮＥＥＬＯ,,株式会社,福岡県,福岡市博多区,博多駅南２丁目３番３２－９０５号ボヌール博多,,40,132,8120016,,,,,,,2025-11-21,1,,,,,シャイニーロ,0
195,1290003017739,新規,0,2025-11-21,2025-11-21,合同会社ひより,,合同会社,福岡県,福岡市中央区,平尾２丁目１５番２６号ベルコモンズ平尾Ｉ－９階,00141613,40,133,8100014,,,,,,,2025-11-21,1,,,,,ヒヨリ,0
197,1290005019881,新規,0,2025-11-21,2025-11-21,特定非営利活動法人福岡災害レジリエンス研究所,,その他の設立登記法人,福岡県,福岡市中央区,天神２丁目１４－２福岡証券ビル８階（三好不動産内）,,40,133,8100001,,,,,,,2025-11-21,1,,,,,フクオカサイガイレジリエンスケンキュウシツ,0
211,1360003015413,新規,0,2025-11-21,2025-11-21,合同会社よへなハウジング,,合同会社,沖縄県,那覇市,若狭２丁目１０番５号３０２号室,,47,201,9000031,,,,,,,2025-11-21,1,,,,,ヨヘナハウジング,0
214,1380001035709,新規,0,2025-11-21,2025-11-21,穗富山株式会社,,株式会社,福島県,郡山市,駅前１丁目３番１０号陣屋味の会ビル１Ｆ,,07,203,9638002,,,,,,,2025-11-21,1,,,,,ホトミヤマ,0
215,1380003006187,新規,0,2025-11-21,2025-11-21,合同会社ＦＳ９,,合同会社,福島県,須賀川市,和田字柏崎９番地４３ルネス須賀川２０２号,,07,207,9620813,,,,,,,2025-11-21,1,,,,,エフエスナイン,0
218,1380005013033,新規,0,2025-11-21,2025-11-21,一般社団法人みんなのいっぽ,,その他の設立登記法人,福島県,福島市,万世町２番１３号,,07,201,9608033,,,,,,,2025-11-21,1,,,,,ミンナノイッポ,0
240,1500003003634,新規,0,2025-11-21,2025-11-21,ミライム合同会社,,合同会社,愛媛県,大洲市,市木９０２番地１,,38,207,7950062,,,,,,,2025-11-21,1,,,,,ミライム,0
250,2010001260499,新規,0,2025-11-21,2025-11-21,ＪＳＦＰ　Ｇｒｅｅｎ株式会社,,株式会社,東京都,千代田区,大手町２丁目２番２号,,13,101,1000004,,,,,,,2025-11-21,1,,,,,ジェイエスエフピーグリーン,0
251,2010003049478,新規,0,2025-11-21,2025-11-21,合同会社ＪＲＷＤファンド第１２号,,合同会社,東京都,中央区,日本橋１丁目４番１号日本橋一丁目ビルディング,,13,102,1030027,,,,,,,2025-11-21,1,,,,,ジェイアールダブリューディーファンドダイジュウニゴウ,0
252,2010003049486,新規,0,2025-11-21,2025-11-21,ＴＳＲ１合同会社,,合同会社,東京都,千代田区,飯田橋４丁目７番１号結和税理士法人内,,13,101,1020072,,,,,,,2025-11-21,1,,,,,ティーエスアールワン,0
260,2010401194421,新規,0,2025-11-21,2025-11-21,株式会社ＲｅＭａｋｅ,,株式会社,東京都,港区,六本木４丁目３－１１号ユニハウス２２３,,13,103,1060032,,,,,,,2025-11-21,1,,,,,リメイク,0
261,2010401194520,新規,0,2025-11-21,2025-11-21,株式会社ＲＩＲＩＡ,,株式会社,東京都,港区,愛宕１丁目１番１－２８０１号,,13,103,1050002,,,,,,,2025-11-21,1,,,,,リリア,0
262,2010401194677,新規,0,2025-11-21,2025-11-21,ＬＳ‐Ａｖｉａｔｉｏｎ第８５号株式会社,,株式会社,東京都,港区,六本木１丁目６番１号,,13,103,1060032,,,,,,,2025-11-21,1,,,,,エルエスアビエーションダイハチジュウゴゴウ,0
266,2010403036596,新規,0,2025-11-21,2025-11-21,合同会社むちばなｐｒｏｄｕｃｔｉｏｎ,,合同会社,東京都,港区,東麻布１丁目２９番１３－２０１号,,13,103,1060044,,,,,,,2025-11-21,1,,,,,ムチバナプロダクション,0
267,2010403036613,新規,0,2025-11-21,2025-11-21,シルキーダイヤ合同会社,,合同会社,東京都,港区,北青山２丁目７番１３号プラセオ青山ビル３階,,13,103,1070061,,,,,,,2025-11-21,1,,,,,シルキーダイヤ,0
270,2010501055060,新規,0,2025-11-21,2025-11-21,株式会社千尋,,株式会社,東京都,台東区,根岸３丁目１２番２８号,,13,106,1100003,,,,,,,2025-11-21,1,,,,,チヒロ,0
272,2010601068301,新規,0,2025-11-21,2025-11-21,コウキョウ物流システム株式会社,,株式会社,東京都,江東区,平野２丁目１１番５号,,13,108,1350023,,,,,,,2025-11-21,1,,,,,コウキョウブツリュウシステム,0
281,2010901058472,新規,0,2025-11-21,2025-11-21,株式会社Ｔｅｔｒａｆｉｄｅｓ,,株式会社,東京都,世田谷区,梅丘２丁目２１－２９ユーロコート梅ヶ丘１０５,,13,112,1540022,,,,,,,2025-11-21,1,,,,,テトラフィデス,0
282,2010901058489,新規,0,2025-11-21,2025-11-21,株式会社１８４,,株式会社,東京都,世田谷区,尾山台３丁目９番１号,,13,112,1580086,,,,,,,2025-11-21,1,,,,,イヤシ,0
288,2011001173939,新規,0,2025-11-21,2025-11-21,Ｔｕｍｍｙ　Ｍｏｔｉｏｎ株式会社,,株式会社,東京都,渋谷区,道玄坂１丁目１０番８号渋谷道玄坂東急ビル２Ｆ－Ｃ,,13,113,1500043,,,,,,,2025-11-21,1,,,,,タミーモーション,0
294,2011101114025,新規,0,2025-11-21,2025-11-21,株式会社ＴＣＥ,,株式会社,東京都,新宿区,西新宿３丁目３番１３号西新宿水間ビル６階,,13,104,1600023,,,,,,,2025-11-21,1,,,,,ティーシーイー,0
296,2011301031061,新規,0,2025-11-21,2025-11-21,株式会社Ｐｕｍｉｌｉｏ,,株式会社,東京都,杉並区,上高井戸２丁目２番１４号,,13,115,1680074,,,,,,,2025-11-21,1,,,,,プミリオ,0
299,2011601029169,新規,0,2025-11-21,2025-11-21,望不動産株式会社,,株式会社,東京都,練馬区,東大泉４丁目１６番４号,,13,120,1780063,,,,,,,2025-11-21,1,,,,,ノゾミフドウサン,0
309,2012701019200,新規,0,2025-11-21,2025-11-21,株式会社Ｃｏｍｍｕｎｉｔｙ　Ｌｉｎｋ,,株式会社,東京都,東村山市,富士見町３丁目８－８０,,13,213,1890024,,,,,,,2025-11-21,1,,,,,コミュニティリンク,0
311,2012801024372,新規,0,2025-11-21,2025-11-21,Ｇ．ｋｒａｎｓ株式会社,,株式会社,東京都,東大和市,向原４丁目２０番地の７,,13,220,2070013,,,,,,,2025-11-21,1,,,,,ジークランズ,0
312,2013101009857,新規,0,2025-11-21,2025-11-21,株式会社ｍｋガレージ,,株式会社,東京都,羽村市,神明台２丁目２番地１９レクセル羽村マークレジデンス７０４,,13,227,2050023,,,,,,,2025-11-21,1,,,,,エムケーガレージ,0
324,2020001165862,新規,0,2025-11-21,2025-11-21,株式会社ガジェットモ,,株式会社,神奈川県,横浜市西区,浅間町１丁目４番３号ウィザードビル４０２,,14,103,2200072,,,,,,,2025-11-21,1,,,,,ガジェットモ,0
330,2021001086537,新規,0,2025-11-21,2025-11-21,株式会社相模管財,,株式会社,神奈川県,相模原市中央区,淵野辺２丁目４番１０号,,14,152,2520206,,,,,,,2025-11-21,1,,,,,,0
331,2021001086842,新規,0,2025-11-21,2025-11-21,株式会社兼子技術サービス,,株式会社,神奈川県,茅ヶ崎市,矢畑７８２―３―１―１２０５,,14,207,2530085,,,,,,,2025-11-21,1,,,,,カネコギジュツサービス,0
333,2021003016797,新規,0,2025-11-21,2025-11-21,合同会社Ｃｈｅｅｒ,,合同会社,神奈川県,座間市,広野台１丁目２１番１０号,,14,216,2520012,,,,,,,2025-11-21,1,,,,,チェアー,0
334,2021003016814,新規,0,2025-11-21,2025-11-21,合同会社ＲＯＯＴＳ,,合同会社,神奈川県,小田原市,成田３５－１－１０５,,14,206,2500862,,,,,,,2025-11-21,1,,,,,ルーツ,0
351,2040001141465,新規,0,2025-11-21,2025-11-21,ＳＡＴＴ‐ＮＵＲ　ＳＯＦＩＡ　ＥＮＴＥＲＰＲＩＳＥＳ株式会社,,株式会社,千葉県,成田市,北羽鳥２１３３番地２,,12,211,2860807,,,,,,,2025-11-21,1,,,,,サタヌールソフィアエンタープライズ,0
354,2040003028925,新規,0,2025-11-21,2025-11-21,合同会社ＹＭＴ,,合同会社,千葉県,柏市,緑ケ丘２３－１１,,12,217,2770082,,,,,,,2025-11-21,1,,,,,ワイエムティー,0
355,2040003028941,新規,0,2025-11-21,2025-11-21,Ｌｕｍ　Ｐｌａｎｎｉｎｇ合同会社,,合同会社,千葉県,市川市,島尻２番３０－７０１号,,12,203,2720145,,,,,,,2025-11-21,1,,,,,ラムプランニング,0
361,2080001027289,新規,0,2025-11-21,2025-11-21,株式会社ＲＩＫＡ,,株式会社,静岡県,静岡市駿河区,下川原２丁目３３番１５号,,22,102,4210113,,,,,,,2025-11-21,1,,,,,リカ,0
362,2080005007741,新規,0,2025-11-21,2025-11-21,東海ビバレッジサービス労働組合,,その他の設立登記法人,静岡県,静岡市清水区,下野緑町４－２４,,22,103,4240013,,,,,,,2025-11-21,1,,,,,トウカイビバレッジサービス,0
367,2090001019616,新規,0,2025-11-21,2025-11-21,まるサテ株式会社,,株式会社,山梨県,富士吉田市,上吉田２丁目５－１Ｑ－ＳＴＡ２階,,19,202,4030005,,,,,,,2025-11-21,1,,,,,マルサテ,0
379,2120001282136,新規,0,2025-11-21,2025-11-21,株式会社Ｔａｉｌ　Ｕｐ,,株式会社,大阪府,大阪市中央区,南本町１丁目６番７－３７０３号,,27,128,5410054,,,,,,,2025-11-21,1,,,,,テイルアップ,0
380,2120001282152,新規,0,2025-11-21,2025-11-21,株式会社ＡｌｇｏＭｏｒｉ,,株式会社,大阪府,大阪市北区,梅田１丁目２番２号大阪駅前第２ビル１２－１２,,27,127,5300001,,,,,,,2025-11-21,1,,,,,アルゴモリ,0
387,2120003031202,新規,0,2025-11-21,2025-11-21,合同会社Ｆ‐ＯＮＥ,,合同会社,大阪府,大阪市城東区,東中浜９丁目３番９－２０３号,,27,118,5360023,,,,,,,2025-11-21,1,,,,,エフワン,0
388,2120003031276,新規,0,2025-11-21,2025-11-21,合同会社えん,,合同会社,大阪府,大阪市城東区,関目１丁目１８番８号,,27,118,5360008,,,,,,,2025-11-21,1,,,,,エン,0
397,2122001039929,新規,0,2025-11-21,2025-11-21,株式会社プランニング阪口,,株式会社,大阪府,東大阪市,吉田３丁目９番２１号,,27,227,5780924,,,,,,,2025-11-21,1,,,,,プランニングサカグチ,0
398,2122003003379,新規,0,2025-11-21,2025-11-21,合同会社ｃ．ｐクリエーション,,合同会社,大阪府,東大阪市,岩田町５丁目１７－５ピアチェーレＣ棟３０３号,,27,227,5780941,,,,,,,2025-11-21,1,,,,,シーピークリエーション,0
401,2130001081074,新規,0,2025-11-21,2025-11-21,株式会社きらりネクスト,,株式会社,京都府,宇治市,南陵町４丁目１番地の３５,,26,204,6110028,,,,,,,2025-11-21,1,,,,,キラリネクスト,0
406,2150001028560,新規,0,2025-11-21,2025-11-21,力楠株式会社,,株式会社,奈良県,吉野郡大淀町,大字桧垣本８９６－５,,29,442,6380812,,,,,,,2025-11-21,1,,,,,リナン,0
425,2180003029397,新規,0,2025-11-21,2025-11-21,合同会社ミツバチ,,合同会社,愛知県,名古屋市緑区,鳴海町字米塚２１番地の９,,23,114,4580801,,,,,,,2025-11-21,1,,,,,ミツバチ,0
427,2180301040436,新規,0,2025-11-21,2025-11-21,株式会社エスケーアソシエーション,,株式会社,愛知県,豊川市,谷川町洞１３４番地,,23,207,4420807,,,,,,,2025-11-21,1,,,,,エスケーアソシエーション,0
470,2290001112193,新規,0,2025-11-21,2025-11-21,株式会社楠田工業,,株式会社,福岡県,糟屋郡宇美町,障子岳南５丁目５番２２号,,40,341,8112126,,,,,,,2025-11-21,1,,,,,クスダコウギョウ,0
471,2290001112235,新規,0,2025-11-21,2025-11-21,株式会社ＴＲＩＮＩＴＹ　ＷＯＲＸ,,株式会社,福岡県,久留米市,山川野口町１６番４３号,,40,203,8390816,,,,,,,2025-11-21,1,,,,,トリニティワークス,0
472,2290005019880,新規,0,2025-11-21,2025-11-21,一般社団法人アカモク普及推進協議会,,その他の設立登記法人,福岡県,福岡市博多区,綱場町９番２０号,,40,132,8120024,,,,,,,2025-11-21,1,,,,,アカモクフキュウスイシンキョウギカイ,0
476,2320003004831,新規,0,2025-11-21,2025-11-21,合同会社Ｄｏｐｅ,,合同会社,大分県,大分市,向原西１丁目３番３９号,,44,201,8700905,,,,,,,2025-11-21,1,,,,,ドープ,0
483,2350001019812,新規,0,2025-11-21,2025-11-21,株式会社Ｖｉｎｃｒｅｓｔ,,株式会社,宮崎県,都城市,早水町３８５６－５,,45,202,8850016,,,,,,,2025-11-21,1,,,,,ヴィンクレスト,0
485,2360001036055,新規,0,2025-11-21,2025-11-21,ＳＴＥＰ株式会社,,株式会社,沖縄県,沖縄市,比屋根４丁目３１番４５号,,47,211,9042173,,,,,,,2025-11-21,1,,,,,ステップ,0
510,2430001095705,新規,0,2025-11-21,2025-11-21,株式会社つながりの家,,株式会社,北海道,北広島市,大曲緑ヶ丘４丁目１２番地１７,,01,234,0611276,,,,,,,2025-11-21,1,,,,,ツナガリノイエ,0
515,2460001006048,新規,0,2025-11-21,2025-11-21,株式会社ｔａｌｅｓ,,株式会社,北海道,釧路市,柳町７番２１号,,01,206,0850037,,,,,,,2025-11-21,1,,,,,テイルズ,0
518,2500003003633,新規,0,2025-11-21,2025-11-21,合同会社トラストゲート,,合同会社,愛媛県,宇和島市,三間町宮野下７２８,,38,203,7981112,,,,,,,2025-11-21,1,,,,,トラストゲート,0
526,3010001260168,新規,0,2025-11-21,2025-11-21,Ｋａｒａｋｕ　Ｕｎｉｏｎ株式会社,,株式会社,東京都,文京区,白山１丁目１９番６号シンク白山ビル１Ｆ,,13,105,1130001,,,,,,,2025-11-21,1,,,,,カラクユニオン,0
529,3010101016973,新規,0,2025-11-21,2025-11-21,日本江崎ホールディングス株式会社,,株式会社,東京都,八王子市,寺町４３－９中銀八王子マンシオン２０２号室,,13,201,1920073,,,,,,,2025-11-21,1,,,,,ニホンエザキホールディングス,0
536,3010401194552,新規,0,2025-11-21,2025-11-21,株式会社ブロックチェーン総合研究所,,株式会社,東京都,港区,北青山１丁目３番１号アールキューブ青山３階,,13,103,1070061,,,,,,,2025-11-21,1,,,,,ブロックチェーンソウゴウケンキュウジョ,0
537,3010401194676,新規,0,2025-11-21,2025-11-21,ＬＳ‐Ａｖｉａｔｉｏｎ第８４号株式会社,,株式会社,東京都,港区,六本木１丁目６番１号,,13,103,1060032,,,,,,,2025-11-21,1,,,,,エルエスアビエーションダイハチジュウヨンゴウ,0
539,3010403036538,新規,0,2025-11-21,2025-11-21,合同会社Ｏｎｅ‐ｓｔｙｌｅ,,合同会社,東京都,港区,新橋２丁目１６－１ニュー新橋ビル９Ｆ,,13,103,1050004,,,,,,,2025-11-21,1,,,,,ワンスタイル,0
540,3010403036653,新規,0,2025-11-21,2025-11-21,合同会社Ｓｉｌｖｅｒ　Ｍｉｎｔ,,合同会社,東京都,港区,六本木１丁目９番１０号アークヒルズ仙石山森タワー４０階,,13,103,1060032,,,,,,,2025-11-21,1,,,,,シルバーミント,0
545,3010501055051,新規,0,2025-11-21,2025-11-21,株式会社ワンタクト,,株式会社,東京都,台東区,上野１丁目１７番６号広小路ビル８Ｆ－Ｂ,,13,106,1100005,,,,,,,2025-11-21,1,,,,,ワンタクト,0
561,3011001173599,新規,0,2025-11-21,2025-11-21,グリーンサウナ株式会社,,株式会社,東京都,渋谷区,恵比寿西２丁目１番８号,,13,113,1500021,,,,,,,2025-11-21,1,,,,,グリーンサウナ,0
562,3011001173863,新規,0,2025-11-21,2025-11-21,ａｎｓｎ株式会社,,株式会社,東京都,目黒区,上目黒１丁目１３番１１号リバーサイド中目黒１０２,,13,110,1530051,,,,,,,2025-11-21,1,,,,,アンスン,0
569,3011101113959,新規,0,2025-11-21,2025-11-21,株式会社Ｇｏｄｓ　ｏｈ　ｓｕｎ,,株式会社,東京都,新宿区,歌舞伎町２丁目２３番１２号４階Ｂ室,,13,104,1600021,,,,,,,2025-11-21,1,,,,,,0
571,3011201026788,新規,0,2025-11-21,2025-11-21,株式会社ＭＩＮＦＥＲ　ＪＡＰＡＮ,,株式会社,東京都,中野区,新井１丁目３７番１１号,,13,114,1650026,,,,,,,2025-11-21,1,,,,,ミンフェルジャパン,0
574,3011303005772,新規,0,2025-11-21,2025-11-21,Ｌｉｖｅｎｔｏ合同会社,,合同会社,東京都,杉並区,高円寺北２丁目２６番５号ハイムリバティ２０１,,13,115,1660002,,,,,,,2025-11-21,1,,,,,リベント,0
576,3011501032817,新規,0,2025-11-21,2025-11-21,Ｓｅｉｋｏ　Ｉｎｔｅｒｎａｔｉｏｎａｌ株式会社,,株式会社,東京都,北区,浮間１丁目１－１４リムジンビル３１６,,13,117,1150051,,,,,,,2025-11-21,1,,,,,セイコインターナショナル,0
578,3011603004929,新規,0,2025-11-21,2025-11-21,合同会社Ｎｅｂｉｏｎ,,合同会社,東京都,練馬区,石神井町１丁目１５番１６－３０６号,,13,120,1770041,,,,,,,2025-11-21,1,,,,,ネビオン,0
580,3011701028937,新規,0,2025-11-21,2025-11-21,株式会社三藤工芸,,株式会社,東京都,江戸川区,大杉３丁目５番１４号,,13,123,1320022,,,,,,,2025-11-21,1,,,,,サトウコウゲイ,0
583,3011803007203,新規,0,2025-11-21,2025-11-21,合同会社トライティ,,合同会社,東京都,足立区,中央本町２丁目２０番１－２０５,,13,121,1200011,,,,,,,2025-11-21,1,,,,,トライティ,0
586,3012401043805,新規,0,2025-11-21,2025-11-21,ジェイティーエス株式会社,,株式会社,東京都,小金井市,本町６丁目１３番１７号,,13,210,1840004,,,,,,,2025-11-21,1,,,,,ジェイティーエス,0
587,3012701019199,新規,0,2025-11-21,2025-11-21,株式会社共成,,株式会社,東京都,小平市,鈴木町１丁目３７４番地の１２,,13,211,1870011,,,,,,,2025-11-21,1,,,,,トモナリ,0
589,3013101009864,新規,0,2025-11-21,2025-11-21,株式会社プラスアイ,,株式会社,東京都,西多摩郡瑞穂町,大字箱根ケ崎５０２番地トーマス壱番館２０２号,,13,303,1901221,,,,,,,2025-11-21,1,,,,,プラスアイ,0
590,3013103001506,新規,0,2025-11-21,2025-11-21,合同会社アナコムスタジオパーク,,合同会社,東京都,青梅市,千ヶ瀬町３丁目３９７番地の２,,13,205,1980043,,,,,,,2025-11-21,1,,,,,アナコムスタジオパーク,0
605,3021001086800,新規,0,2025-11-21,2025-11-21,石黒建材株式会社,,株式会社,神奈川県,小田原市,千代１０６４番地１,,14,206,2500215,,,,,,,2025-11-21,1,,,,,イシグロケンザイ,0
613,3030001169795,新規,0,2025-11-21,2025-11-21,唯派国際物流株式会社,,株式会社,埼玉県,川口市,金山町１２番１号Ｍｉｏ川口,,11,203,3320014,,,,,,,2025-11-21,1,,,,,ユイハコクサイブツリュウ,0
619,3040001141423,新規,0,2025-11-21,2025-11-21,株式会社善進,,株式会社,千葉県,松戸市,小根本８７－４クレールコートＩＩ３０１,00141619,12,207,2710073,,,,,,,2025-11-21,1,,,,,ゼンシン,0
620,3040001141464,新規,0,2025-11-21,2025-11-21,ＴＯＫＹＯ　ＭＩＲＡＩ　ＩＮＴＥＲＮＡＴＩＯＮＡＬ株式会社,,株式会社,千葉県,成田市,北羽鳥２１３５番地,,12,211,2860807,,,,,,,2025-11-21,1,,,,,トウキョウミライインターナショナル,0
621,3040001141480,新規,0,2025-11-21,2025-11-21,株式会社マックチュ,,株式会社,千葉県,浦安市,高洲６丁目２番１－１２１号,,12,227,2790023,,,,,,,2025-11-21,1,,,,,マックチュ,0
622,3040001141489,新規,0,2025-11-21,2025-11-21,株式会社ＩＲＯＤＯＲＩ,,株式会社,千葉県,松戸市,稔台７丁目２番地の２２山口ビル３０５号,,12,207,2702231,,,,,,,2025-11-21,1,,,,,イロドリ,0
629,3040003028957,新規,0,2025-11-21,2025-11-21,合同会社ながれ星,,合同会社,千葉県,印西市,牧の原６丁目７番地２９,,12,231,2701331,,,,,,,2025-11-21,1,,,,,ナガレボシ,0
639,3080001027288,新規,0,2025-11-21,2025-11-21,Ｈｏｌｌｙ　ａｎｄ　Ｌｏｔｕｓ株式会社,,株式会社,静岡県,静岡市駿河区,稲川１丁目１－１０ＣｏｍｏｄｏＶｅｒｄｅ７０５号,,22,102,4228062,,,,,,,2025-11-21,1,,,,,ホリーアンドロータス,0
640,3080005007740,新規,0,2025-11-21,2025-11-21,一般社団法人テックブリッジ,,その他の設立登記法人,静岡県,静岡市葵区,山崎２丁目２１番７号,,22,101,4211213,,,,,,,2025-11-21,1,,,,,テックブリッジ,0
643,3080101025910,新規,0,2025-11-21,2025-11-21,株式会社ＨＡＲＥＴＡＲＡＳＯＴＯ,,株式会社,静岡県,熱海市,咲見町４番２１号アデニウム熱海翠光園１００３,,22,205,4130019,,,,,,,2025-11-21,1,,,,,ハレタラソト,0
645,3100005013422,新規,0,2025-11-21,2025-11-21,アネット事業協同組合,,その他の設立登記法人,長野県,駒ヶ根市,飯坂１丁目６番２２号,,20,210,3994102,,,,,,,2025-11-21,1,,,,,アネット,0
658,3120001281995,新規,0,2025-11-21,2025-11-21,銘誠株式会社,,株式会社,大阪府,大阪市住吉区,苅田２丁目７番１３－１０１号,,27,120,5580011,,,,,,,2025-11-21,1,,,,,メイセイ,0
659,3120001282151,新規,0,2025-11-21,2025-11-21,株式会社ＡＯＮＯＶＡ,,株式会社,大阪府,大阪市西区,北堀江２丁目２番２４号ＰａｒｋＬａｎｅＨｏｒｉｅＢｌｄ８２２号,,27,106,5500014,,,,,,,2025-11-21,1,,,,,アオノバ,0
660,3120001282168,新規,0,2025-11-21,2025-11-21,株式会社Ｔａｋｅ　Ｏｆｆ,,株式会社,大阪府,寝屋川市,石津南町１３番１４号,,27,215,5720024,,,,,,,2025-11-21,1,,,,,テイクオフ,0
667,3120103006846,新規,0,2025-11-21,2025-11-21,ＳＰＡＣＥ　ＭＯＤＥ合同会社,,合同会社,大阪府,堺市北区,金岡町２３３４－１,,27,146,5918022,,,,,,,2025-11-21,1,,,,,スペースモード,0
677,3122001039903,新規,0,2025-11-21,2025-11-21,東瀛画廊日本株式会社,,株式会社,大阪府,東大阪市,大蓮北２丁目６番１３号,00141616,27,227,5770826,,,,,,,2025-11-21,1,,,,,トウエイガロウニホン,0
678,3122003003386,新規,0,2025-11-21,2025-11-21,合同会社Ｄｏｍｉｎｕｓ,,合同会社,大阪府,東大阪市,西堤１丁目１２番３０号,,27,227,5770042,,,,,,,2025-11-21,1,,,,,ドミナス,0
683,3130001081073,新規,0,2025-11-21,2025-11-21,株式会社ＴＪ‐１,,株式会社,京都府,京都市下京区,西七条南衣田町３０番地,,26,106,6008884,,,,,,,2025-11-21,1,,,,,ティージェーワン,0
684,3130003010947,新規,0,2025-11-21,2025-11-21,Ｓｔｏｒｙ　ｏｆ　Ｄｅｗ合同会社,,合同会社,京都府,京都市下京区,仏光寺通烏丸東入上柳町３３１タカノハスクエア４Ｆ,,26,106,6008099,,,,,,,2025-11-21,1,,,,,ストーリーオブデュー,0
699,3140003022875,新規,0,2025-11-21,2025-11-21,ＬＯＮＧ　ＴＨＡＮＧ合同会社,,合同会社,兵庫県,神戸市中央区,日暮通３丁目１－１１日暮３文化１Ｆ,,28,110,6510077,,,,,,,2025-11-21,1,,,,,ロンタン,0
711,3180001169541,新規,0,2025-11-21,2025-11-21,トリプレット株式会社,,株式会社,愛知県,名古屋市中区,錦３丁目６番１５号先名古屋テレビ塔３階０３区画,,23,106,4600003,,,,,,,2025-11-21,1,,,,,トリプレット,0
713,3180003029405,新規,0,2025-11-21,2025-11-21,Ｍｓ．Ｌｅｉ’ｓ合同会社,,合同会社,愛知県,名古屋市北区,上飯田南町５丁目１１１サンプラスワン１１３号,,23,103,4620804,,,,,,,2025-11-21,1,,,,,ミスレイズ,0
714,3180301040443,新規,0,2025-11-21,2025-11-21,株式会社幸進,,株式会社,愛知県,安城市,河野町藤野郷２５番地１,,23,212,4460024,,,,,,,2025-11-21,1,,,,,,0
752,3360001036046,新規,0,2025-11-21,2025-11-21,モリ建機ホールディングス株式会社,,株式会社,沖縄県,うるま市,字栄野比７７６番地,,47,213,9042205,,,,,,,2025-11-21,1,,,,,モリケンキホールディングス,0
753,3360001036062,新規,0,2025-11-21,2025-11-21,Ｂａｙｌｉｆｅ株式会社,,株式会社,沖縄県,那覇市,久茂地３丁目２６－３２ＹＳＣビル２０２,,47,201,9000015,,,,,,,2025-11-21,1,,,,,ベイライフ,0
754,3360003015411,新規,0,2025-11-21,2025-11-21,合同会社ＭＩ　ｏｋｉｎａｗａ,,合同会社,沖縄県,中頭郡中城村,字津覇８１２番地２,,47,328,9012413,,,,,,,2025-11-21,1,,,,,エムアイオキナワ,0
755,3370005011028,新規,0,2025-11-21,2025-11-21,一般社団法人とんペディア,,その他の設立登記法人,宮城県,仙台市青葉区,荒巻字青葉４６８－１東北大学マテリアル・イノベーション・センター青葉山ガレージ,,04,101,9800845,,,,,,,2025-11-21,1,,,,,トンペディア,0
761,3380001035698,新規,0,2025-11-21,2025-11-21,株式会社Ｔｒｉｕｍｐｈ　Ｂｉｚｈｕｂ,,株式会社,福島県,いわき市,平南白土２丁目１５番地の１０プラザ南白土２－Ｂ,,07,204,9708025,,,,,,,2025-11-21,1,,,,,トライアンフビズハブ,0
773,3430001095687,新規,0,2025-11-21,2025-11-21,株式会社小樽テイスト,,株式会社,北海道,小樽市,花園３丁目１０‐１３　２Ｆ,,01,203,0470024,,,,,,,2025-11-21,1,,,,,オタルテイスト,0
775,3430003018340,新規,0,2025-11-21,2025-11-21,合同会社Ｙ．Ｋ．Ｙ,,合同会社,北海道,札幌市清田区,清田３３３番地４３,,01,110,0040859,,,,,,,2025-11-21,1,,,,,ワイケーワイ,0
778,3460103001763,新規,0,2025-11-21,2025-11-21,合同会社ＦＯＲＭＡＲＥ,,合同会社,北海道,河西郡中札内村,東三条北３丁目３２番地,,01,638,0891323,,,,,,,2025-11-21,1,,,,,フォルマーレ,0
779,3462501001048,新規,0,2025-11-21,2025-11-21,株式会社ＥＡＲＴＨ,,株式会社,北海道,目梨郡羅臼町,共栄町７番地６,,01,694,0861816,,,,,,,2025-11-21,1,,,,,アース,0
785,3500003003624,新規,0,2025-11-21,2025-11-21,飾り屋合同会社,,合同会社,愛媛県,四国中央市,三島金子２丁目１番２５号コーポ金子１０７号,,38,213,7990421,,,,,,,2025-11-21,1,,,,,ツリヤ,0
786,3500003003632,新規,0,2025-11-21,2025-11-21,ｇｏｆｉｎｅ合同会社,,合同会社,愛媛県,新居浜市,中村松木２丁目２番地４２号,,38,205,7920041,,,,,,,2025-11-21,1,,,,,ゴーファイン,0
799,4010001260407,新規,0,2025-11-21,2025-11-21,悟隠智慧株式会社,,株式会社,東京都,文京区,本郷４丁目１６－６－１００６Ｈ,,13,105,1130033,,,,,,,2025-11-21,1,,,,,ゴインチエ,0
800,4010001260431,新規,0,2025-11-21,2025-11-21,株式会社丸幸,,株式会社,東京都,中央区,日本橋兜町９－５兜町平和ダイヤビル１００６号室,,13,102,1030026,,,,,,,2025-11-21,1,,,,,マルコウ,0
802,4010003049476,新規,0,2025-11-21,2025-11-21,ＩＮＦ蓄電所５号合同会社,,合同会社,東京都,千代田区,富士見２丁目１０番２号,,13,101,1020071,,,,,,,2025-11-21,1,,,,,アイエヌエフチクデンショゴゴウ,0
803,4010003049484,新規,0,2025-11-21,2025-11-21,Ｅａｓｔ　Ａｓｉａ　Ｐｒｏｐｅｒｔｙ合同会社,,合同会社,東京都,千代田区,霞が関３丁目２－５霞が関ビルディング３１階ＯｎｅＡｓｉａ法律事務所内,,13,101,1000013,,,,,,,2025-11-21,1,,,,,イーストアジアプロパティ,0
804,4010003049501,新規,0,2025-11-21,2025-11-21,新市街プロパティー合同会社,,合同会社,東京都,千代田区,丸の内１丁目１１番１号,,13,101,1000005,,,,,,,2025-11-21,1,,,,,シンシガイプロパティー,0
812,4010501055067,新規,0,2025-11-21,2025-11-21,株式会社ＬＭＣ,,株式会社,東京都,台東区,東上野２丁目１３番２号上野スカイビルＡ１０１０,,13,106,1100015,,,,,,,2025-11-21,1,,,,,エルエムシー,0
816,4010901058462,新規,0,2025-11-21,2025-11-21,株式会社Ｕ＆Ｉ,,株式会社,東京都,世田谷区,弦巻４丁目１２－７－１０４,,13,112,1540016,,,,,,,2025-11-21,1,,,,,ユーアンドアイ,0
827,4011003023041,新規,0,2025-11-21,2025-11-21,ＲＯＣＫＳ合同会社,,合同会社,東京都,渋谷区,道玄坂１丁目１０番８号渋谷道玄坂東急ビル２Ｆ―Ｃ,,13,113,1500043,,,,,,,2025-11-21,1,,,,,ロックス,0
835,4011501032816,新規,0,2025-11-21,2025-11-21,Ｗ　ｃｒｅａｔｅ株式会社,,株式会社,東京都,北区,浮間４丁目１９番２７－１０９号メイツ浮間舟渡,,13,117,1150051,,,,,,,2025-11-21,1,,,,,ダブルクリエイト,0
837,4011603004928,新規,0,2025-11-21,2025-11-21,合同会社ＣＡＴ’Ｓ　ＥＹＥ,,合同会社,東京都,練馬区,東大泉６丁目３６番１－２０４号,,13,120,1780063,,,,,,,2025-11-21,1,,,,,キャッツアイ,0
842,4011803007202,新規,0,2025-11-21,2025-11-21,合同会社ｋａｒｅｌａ,,合同会社,東京都,足立区,古千谷本町１丁目７番２０号,,13,121,1210832,,,,,,,2025-11-21,1,,,,,カレラ,0
844,4012401043845,新規,0,2025-11-21,2025-11-21,株式会社ＢＵＳＯウェルスマネジメント,,株式会社,東京都,稲城市,矢野口３１３８番地,,13,225,2060812,,,,,,,2025-11-21,1,,,,,ブソーウェルスマネジメント,0
845,4012403007468,新規,0,2025-11-21,2025-11-21,合同会社ＦＨＩ,,合同会社,東京都,調布市,深大寺南町１丁目２０番地７パインハウス深大寺１０９,,13,208,1820013,,,,,,,2025-11-21,1,,,,,エフエイチアイ,0
855,4020001165704,新規,0,2025-11-21,2025-11-21,株式会社Ｊ＆Ｈサービス,,株式会社,神奈川県,横浜市南区,永田東２丁目１８番１６号,,14,105,2320072,,,,,,,2025-11-21,1,,,,,ジェーアンドエイチサービス,0
865,4030001169687,新規,0,2025-11-21,2025-11-21,株式会社アルフス,,株式会社,埼玉県,さいたま市北区,本郷町１０８８番地,,11,102,3310802,,,,,,,2025-11-21,1,,,,,アルフス,0
869,4030003028123,新規,0,2025-11-21,2025-11-21,アイ合同会社,,合同会社,埼玉県,さいたま市見沼区,深作１丁目２７番地９,,11,104,3370003,,,,,,,2025-11-21,1,,,,,アイ,0
873,4040001141380,新規,0,2025-11-21,2025-11-21,株式会社ＤｒｅａｍＧｉｆｔ,,株式会社,千葉県,木更津市,港南台１丁目３－６,,12,206,2920827,,,,,,,2025-11-21,1,,,,,ドリームギフト,0
878,4040003028964,新規,0,2025-11-21,2025-11-21,合同会社ＶＩＶＩＤＩＡ,,合同会社,千葉県,千葉市美浜区,若葉３丁目１番地１１幕張ベイパークミッドスクエアタワー１３０７号,,12,106,2610014,,,,,,,2025-11-21,1,,,,,ヴィヴィディア,0
879,4040003029005,新規,0,2025-11-21,2025-11-21,熊谷設備合同会社,,合同会社,千葉県,白井市,根１９２０番地の３０,,12,232,2701431,,,,,,,2025-11-21,1,,,,,クマガヤセツビ,0
889,4080001027287,新規,0,2025-11-21,2025-11-21,株式会社Ｄｅｓｉｇｎ　Ｙｅｉｌｄ,,株式会社,静岡県,静岡市葵区,沓谷１丁目２８番２０号,,22,101,4200816,,,,,,,2025-11-21,1,,,,,デザインイールド,0
905,4120001282159,新規,0,2025-11-21,2025-11-21,株式会社万和マネージメント,,株式会社,大阪府,大阪市中央区,久太郎町１丁目４番８号,,27,128,5410056,,,,,,,2025-11-21,1,,,,,マンワマネージメント,0
912,4120003031209,新規,0,2025-11-21,2025-11-21,合同会社ナカヤマ,,合同会社,大阪府,大阪市住吉区,長居２丁目９番９号鳴尾マンション２０２号,,27,120,5580003,,,,,,,2025-11-21,1,,,,,ナカヤマ,0
922,4120901051860,新規,0,2025-11-21,2025-11-21,ＧＯＬＤＶＩＳＩＯＮ株式会社,,株式会社,大阪府,高槻市,寿町２丁目２１番２５号バッハレジデンスＩ１０２号室,00141614,27,207,5690826,,,,,,,2025-11-21,1,,,,,ゴールドヴィジョン,0
926,4130001080933,新規,0,2025-11-21,2025-11-21,株式会社ＡＫ,,株式会社,京都府,京都市中京区,堺町通蛸薬師上る甲屋町３９４－３０１,,26,104,6048114,,,,,,,2025-11-21,1,,,,,エーケー,0
945,4160003003658,新規,0,2025-11-21,2025-11-21,合同会社Ｔ‐ＣＬＡＮ,,合同会社,滋賀県,湖南市,石部中央４丁目８番４１－１０１号,,25,211,5203106,,,,,,,2025-11-21,1,,,,,ティークラン,0
957,4180003029412,新規,0,2025-11-21,2025-11-21,合同会社ＨａｐｐｙＣａｒｔ,,合同会社,愛知県,名古屋市昭和区,元宮町４丁目６４－３,,23,107,4660851,,,,,,,2025-11-21,1,,,,,ハッピーカート,0
961,4180301040442,新規,0,2025-11-21,2025-11-21,株式会社ｔｈｒｅｅ‐ｐｉｅｃｅ,,株式会社,愛知県,西尾市,本町２７番地７,,23,213,4450865,,,,,,,2025-11-21,1,,,,,,0
967,4210001020393,新規,0,2025-11-21,2025-11-21,株式会社ユー企画,,株式会社,福井県,福井市,開発５丁目１２０７番地,,18,201,9100842,,,,,,,2025-11-21,1,,,,,ユーキカク,0
971,4220001027017,新規,0,2025-11-21,2025-11-21,株式会社Ｓｕｃｃｅｅｄ,,株式会社,石川県,小松市,日の出町３丁目１１０番地,,17,203,9230868,,,,,,,2025-11-21,1,,,,,サクシード,0
984,4290001112209,新規,0,2025-11-21,2025-11-21,株式会社ベストアサイン,,株式会社,福岡県,福岡市東区,香椎１丁目１番１号ニシコーリビング香椎２Ｆ－１,,40,131,8130011,,,,,,,2025-11-21,1,,,,,ベストアサイン,0
986,4290005019879,新規,0,2025-11-21,2025-11-21,一般社団法人日本ＪＢＡ,,その他の設立登記法人,福岡県,福岡市博多区,博多駅前３丁目９番５号,,40,132,8120011,,,,,,,2025-11-21,1,,,,,ニホンジェイビーエー,0
989,4320001021430,新規,0,2025-11-21,2025-11-21,ＩＭＩＲＵ株式会社,,株式会社,大分県,大分市,中島中央１丁目３番３２号筒井ビル１Ｆ,,44,201,8700049,,,,,,,2025-11-21,1,,,,,イミル,0
993,4330001033771,新規,0,2025-11-21,2025-11-21,株式会社ＧＬＯＢＡＬ　ＭＩＣＨＩ　ＣＯＲＰＯＲＡＴＩＯＮ,,株式会社,熊本県,熊本市東区,上南部４丁目８番２６号,,43,102,8618010,,,,,,,2025-11-21,1,,,,,グローバルミチコーポレーション,0
996,4340001027797,新規,0,2025-11-21,2025-11-21,株式会社ＰＲＩＭＥ,,株式会社,鹿児島県,鹿児島市,星ヶ峯３丁目３７番１９号,,46,201,8910102,,,,,,,2025-11-21,1,,,,,プライム,0
997,4350001019810,新規,0,2025-11-21,2025-11-21,Ａｅｒｏｓｉｐ株式会社,,株式会社,宮崎県,宮崎市,希望ケ丘２丁目２２番１０号,,45,201,8800923,,,,,,,2025-11-21,1,,,,,エアロシップ,0
1005,4380003006184,新規,0,2025-11-21,2025-11-21,土地と建物合同会社,,合同会社,福島県,郡山市,富久山町八山田字室ノ前１２番４２,,07,203,9638051,,,,,,,2025-11-21,1,,,,,,0
1009,4430001044024,新規,0,2025-11-21,2025-11-21,株式会社マルキヨウ,,株式会社,北海道,千歳市,幸町３丁目１１番地,,01,224,0660063,,,,,,,2025-11-21,1,,,,,マルキヨウ,0
1019,4500005008835,新規,0,2025-11-21,2025-11-21,特定非営利活動法人結乃,,その他の設立登記法人,愛媛県,松山市,正円寺３丁目２番２５号,,38,201,7900904,,,,,,,2025-11-21,1,,,,,ユノ,0
1022,4700150130621,新規,0,2025-11-21,2025-11-21,ＥＯＳ　ＧｍｂＨ　Ｅｌｅｃｔｒｏ　Ｏｐｔｉｃａｌ　Ｓｙｓｔｅｍｓ,,外国会社等,,,,,,,,Ｒｏｂｅｒｔ－Ｓｔｒｉｌｉｎｇ－Ｒｉｎｇ　１，８２１５２　Ｋｒａｉｌｌｉｎｇ，Ｇｅｒｍａｎｙ,,,,,,2025-11-21,1,,,,,イーオーエスゲーエムベーハーエレクトロオプテイカルシステムズ,0
1034,5010001260570,新規,0,2025-11-21,2025-11-21,東京立派株式会社,,株式会社,東京都,中央区,日本橋浜町２丁目６０番３－２０４号,,13,102,1030007,,,,,,,2025-11-21,1,,,,,トウキョウリッパ,0
1050,5010501055041,新規,0,2025-11-21,2025-11-21,農建ホールディングス株式会社,,株式会社,東京都,台東区,台東２丁目６番３号,,13,106,1100016,,,,,,,2025-11-21,1,,,,,ノウケンホールディングス,0
1060,5010901058445,新規,0,2025-11-21,2025-11-21,ＡＮＯＭＡＬＹ株式会社,,株式会社,東京都,世田谷区,池尻２丁目３７番１２号,,13,112,1540001,,,,,,,2025-11-21,1,,,,,アノマリー,0
1061,5010901058511,新規,0,2025-11-21,2025-11-21,株式会社甲州屋,,株式会社,東京都,世田谷区,桜上水１丁目１４番２号,,13,112,1560045,,,,,,,2025-11-21,1,,,,,コウシュウヤ,0
1074,5011003023040,新規,0,2025-11-21,2025-11-21,合同会社永原恵太,,合同会社,東京都,渋谷区,初台２丁目９番１０ー４０１号アスプライム初台,,13,113,1510061,,,,,,,2025-11-21,1,,,,,ナガハラケイタ,0
1080,5011501002586,新規,0,2025-11-21,2025-11-21,大興建設株式会社,,株式会社,東京都,北区,田端新町１丁目２７番１２号,,13,117,1140012,,,,,,,2025-11-21,1,,,,,,0
1084,5011603004927,新規,0,2025-11-21,2025-11-21,合同会社ＡＫ,,合同会社,東京都,練馬区,豊玉北３丁目２７－２,,13,120,1760012,,,,,,,2025-11-21,1,,,,,エーケー,0
1090,5011801047091,新規,0,2025-11-21,2025-11-21,株式会社サファイアエンジニアリング,,株式会社,東京都,葛飾区,東金町１丁目４５番１２号ＢＩＺｃｏｍｆｏｒｔ金町２３,,13,122,1250041,,,,,,,2025-11-21,1,,,,,サファイアエンジニアリング,0
1096,5012401043836,新規,0,2025-11-21,2025-11-21,リエン株式会社,,株式会社,東京都,府中市,四谷１丁目８番地の２５,,13,206,1830035,,,,,,,2025-11-21,1,,,,,リエン,0
1103,5013301055351,新規,0,2025-11-21,2025-11-21,ＮＥＯｆ株式会社,,株式会社,東京都,豊島区,南池袋１丁目１６－１５ダイヤゲート池袋５Ｆ,,13,116,1710022,,,,,,,2025-11-21,1,,,,,ニオブ,0
1107,5020001165678,新規,0,2025-11-21,2025-11-21,株式会社バリスタＢＡＹセブン,,株式会社,神奈川県,横浜市西区,浅間町１丁目４番３号ウィザードビル４０２,,14,103,2200072,,,,,,,2025-11-21,1,,,,,バリスタベイセブン,0
1116,5021001086815,新規,0,2025-11-21,2025-11-21,株式会社ＶＭモーター,,株式会社,神奈川県,厚木市,林５丁目２０１３－４,,14,212,2430816,,,,,,,2025-11-21,1,,,,,ブイエムモーター,0
1117,5021001086848,新規,0,2025-11-21,2025-11-21,Ｙトラスト株式会社,,株式会社,神奈川県,横須賀市,荻野１９番１４号,,14,201,2400102,,,,,,,2025-11-21,1,,,,,ワイトラスト,0
1119,5021003016803,新規,0,2025-11-21,2025-11-21,合同会社Ｂｅｙｏｎｄ,,合同会社,神奈川県,茅ヶ崎市,旭が丘１３－４８カトルセＡ１０１,,14,207,2530026,,,,,,,2025-11-21,1,,,,,ビヨンド,0
1120,5021003016811,新規,0,2025-11-21,2025-11-21,合同会社ｏｈａｎａｎｄｏ,,合同会社,神奈川県,逗子市,桜山８丁目５番７号,,14,208,2490005,,,,,,,2025-11-21,1,,,,,オハナンド,0
1130,5030001169785,新規,0,2025-11-21,2025-11-21,Ｇｒａｎｄｅ　Ｐｌａｃｅ株式会社,,株式会社,埼玉県,川口市,西青木５丁目２番５１号,,11,203,3320035,,,,,,,2025-11-21,1,,,,,グランドプレース,0
1131,5030001169793,新規,0,2025-11-21,2025-11-21,漢儲エネルギー開発株式会社,,株式会社,埼玉県,川口市,金山町１２番１号Ｍｉｏ川口,,11,203,3320014,,,,,,,2025-11-21,1,,,,,ハンチョエネルギーカイハツ,0
1136,5030005022346,新規,0,2025-11-21,2025-11-21,特定非営利活動法人青の時間,,その他の設立登記法人,埼玉県,行田市,桜町２丁目２０番６５号,,11,206,3610022,,,,,,,2025-11-21,1,,,,,アオノジカン,0
1141,5040001141413,新規,0,2025-11-21,2025-11-21,株式会社むすび,,株式会社,千葉県,流山市,美田６９－４８９,,12,220,2700131,,,,,,,2025-11-21,1,,,,,ムスビ,0
1142,5040001141479,新規,0,2025-11-21,2025-11-21,株式会社たまき,,株式会社,千葉県,柏市,東上町一丁目１２番２号,,12,217,2770011,,,,,,,2025-11-21,1,,,,,タマキ,0
1143,5040001141487,新規,0,2025-11-21,2025-11-21,株式会社Ｇｌｏｂａｌ　Ｌｉｆｔ,,株式会社,千葉県,柏市,高柳４７９番地４,,12,217,2770941,,,,,,,2025-11-21,1,,,,,グローバルリフト,0
1144,5040001141504,新規,0,2025-11-21,2025-11-21,株式会社カーサ,,株式会社,千葉県,鴨川市,天津３１２４－１,,12,223,2995503,,,,,,,2025-11-21,1,,,,,カーサ,0
1147,5040003028955,新規,0,2025-11-21,2025-11-21,フェロウシャイン合同会社,,合同会社,千葉県,我孫子市,白山２丁目１９番２－３０１号レイクヒルズ白山,,12,222,2701154,,,,,,,2025-11-21,1,,,,,フェロウシャイン,0
1148,5040003028988,新規,0,2025-11-21,2025-11-21,ＳＨＩＢＬＩ　ＴＲＡＤＩＮＧ合同会社,,合同会社,千葉県,野田市,柏寺５４番地６,,12,208,2700214,,,,,,,2025-11-21,1,,,,,シブリトレーディング,0
1149,5040003029012,新規,0,2025-11-21,2025-11-21,安道アセットマネジメント合同会社,,合同会社,千葉県,習志野市,実籾４丁目３０－１０,,12,216,2750002,,,,,,,2025-11-21,1,,,,,アンドウアセットマネジメント,0
1157,5080401028272,新規,0,2025-11-21,2025-11-21,株式会社結不動産,,株式会社,静岡県,掛川市,上西郷２３７番地の１,,22,213,4360342,,,,,,,2025-11-21,1,,,,,ユイフドウサン,0
1180,5120001281993,新規,0,2025-11-21,2025-11-21,株式会社Ｙ’ｓ,,株式会社,大阪府,大阪市中央区,内久宝寺町２丁目２番２２－３０１号,,27,128,5400013,,,,,,,2025-11-21,1,,,,,ワイズ,0
1181,5120001282091,新規,0,2025-11-21,2025-11-21,株式会社ｆｕ,,株式会社,大阪府,大阪市大正区,泉尾４丁目３－２３－１０４号,,27,108,5510031,,,,,,,2025-11-21,1,,,,,エフ,0
1182,5120001282133,新規,0,2025-11-21,2025-11-21,Ｊ‐ＦＯＯＤ　ＨＵＢ株式会社,,株式会社,大阪府,大阪市西区,江戸堀２丁目１－１江戸堀センタービル９Ｆ,,27,106,5500002,,,,,,,2025-11-21,1,,,,,ジェイフードハブ,0
1183,5120001282166,新規,0,2025-11-21,2025-11-21,セファロンＡＩ医療株式会社,,株式会社,大阪府,大阪市北区,梅田２丁目２－２ヒルトンプラザウエストタワー１８階,,27,127,5300001,,,,,,,2025-11-21,1,,,,,セファロンエイアイイリョウ,0
1199,5130001081071,新規,0,2025-11-21,2025-11-21,ＧＬＣＣ株式会社,,株式会社,京都府,京都市南区,東九条南山王町２６番地１,,26,107,6018011,,,,,,,2025-11-21,1,,,,,ジーエルシーシー,0
1209,5160003003657,新規,0,2025-11-21,2025-11-21,合同会社アスティア,,合同会社,滋賀県,長浜市,新旭町１５３番地,,25,203,5290133,,,,,,,2025-11-21,1,,,,,アスティア,0
1225,5180003029403,新規,0,2025-11-21,2025-11-21,合同会社ＮｅｘＲｉｓｅ,,合同会社,愛知県,名古屋市西区,市場木町２０８番地庄内パークハイツ２０６号,,23,104,4520805,,,,,,,2025-11-21,1,,,,,ネクスライズ,0
1226,5180003029411,新規,0,2025-11-21,2025-11-21,合同会社加藤商店,,合同会社,愛知県,名古屋市中村区,則武２丁目１４－１１,,23,105,4530014,,,,,,,2025-11-21,1,,,,,カトウショウテン,0
1229,5190001032705,新規,0,2025-11-21,2025-11-21,株式会社Ｃｏｒｅｖａｎｃｅ,,株式会社,三重県,多気郡大台町,上三瀬６８８番地６,,24,443,5192403,,,,,,,2025-11-21,1,,,,,コアヴァンス,0
1235,5220005009019,新規,0,2025-11-21,2025-11-21,一般社団法人石川ものづくり共同配送協議会,,その他の設立登記法人,石川県,白山市,旭丘４丁目１１番地,,17,210,9240004,,,,,,,2025-11-21,1,,,,,イシカワモノヅクリキョウドウハイソウキョウギカイ,0
1236,5230003002536,新規,0,2025-11-21,2025-11-21,合同会社リバイブステイ,,合同会社,富山県,南砺市,利賀村阿別当４７６－１,,16,210,9392517,,,,,,,2025-11-21,1,,,,,リバイブステイ,0
1247,5250005009040,新規,0,2025-11-21,2025-11-21,医療法人朋誠会,,その他の設立登記法人,山口県,下関市,大字石原１２７,,35,201,7510886,,,,,,,2025-11-21,1,,,,,ホウセイカイ,0
1249,5260005011549,新規,0,2025-11-21,2025-11-21,特定非営利活動法人日本パラクレー射撃連盟,,その他の設立登記法人,岡山県,倉敷市,安江２１４番地３,,33,202,7100825,,,,,,,2025-11-21,1,,,,,ニホンパラクレーシャゲキレンメイ,0
1254,5290001112083,新規,0,2025-11-21,2025-11-21,株式会社ＵｎｉｖａＬｉｎｋ,,株式会社,福岡県,福岡市博多区,東雲町３丁目４番２６－６０１号,,40,132,8120871,,,,,,,2025-11-21,1,,,,,ユニバリンク,0
1255,5290001112265,新規,0,2025-11-21,2025-11-21,株式会社新日本エステート,,株式会社,福岡県,福岡市中央区,天神２丁目２番１２号Ｔ＆Ｊビルディング７Ｆ,,40,133,8100001,,,,,,,2025-11-21,1,,,,,シンニホンエステート,0
1258,5290801032043,新規,0,2025-11-21,2025-11-21,帝天株式会社,,株式会社,福岡県,豊前市,大字八屋２０２５番地２,,40,214,8280021,,,,,,,2025-11-21,1,,,,,ディーテン,0
1282,5380001035713,新規,0,2025-11-21,2025-11-21,株式会社ＲＢ,,株式会社,福島県,福島市,置賜町６－１７ＫＥＩＭＡＲＵビル３階,,07,201,9608034,,,,,,,2025-11-21,1,,,,,アールビー,0
1283,5380003006183,新規,0,2025-11-21,2025-11-21,ＨＡＵＳ．クリエイト合同会社,,合同会社,福島県,郡山市,富久山町八山田字東平作１０番地の５イーストハイツ１,,07,203,9638051,,,,,,,2025-11-21,1,,,,,ハウスクリエイト,0
1292,5430001095702,新規,0,2025-11-21,2025-11-21,株式会社Ｔ’ｓ　ＢＡＳＥ,,株式会社,北海道,札幌市中央区,北一条西２３丁目１番４０号,,01,101,0640821,,,,,,,2025-11-21,1,,,,,ティーズベース,0
1295,5440003001731,新規,0,2025-11-21,2025-11-21,合同会社ウレシパ,,合同会社,北海道,函館市,中島町２６番１６号,,01,202,0400014,,,,,,,2025-11-21,1,,,,,ウレシパ,0
1297,5470001020978,新規,0,2025-11-21,2025-11-21,株式会社アールワークス,,株式会社,香川県,高松市,松福町２丁目１１番２号,,37,201,7600067,,,,,,,2025-11-21,1,,,,,アールワークス,0
1299,5700150133012,新規,0,2025-11-21,2025-11-21,ＯＫＡＺＡＷＡ　ＭＯＴＯＲＳ,,外国会社等,千葉県,佐倉市,大篠塚９３７番地２オフィスＡ号,,12,212,2850806,スリランカ民主社会主義共和国、アンバテンナ、カハワッタ、Ｎｏ．３１／Ｂ,,,,,,2025-11-21,1,,,,,オカザワモータース,0
1315,6010003049482,新規,0,2025-11-21,2025-11-21,表参道プロパティー合同会社,,合同会社,東京都,千代田区,丸の内１丁目１１番１号,,13,101,1000005,,,,,,,2025-11-21,1,,,,,オモテサンドウプロパティー,0
1318,6010101016979,新規,0,2025-11-21,2025-11-21,ＬＩＮＫＡＧＥ　ＪＡＰＡＮ株式会社,,株式会社,東京都,八王子市,子安町１丁目４８番９号２０２号室,,13,201,1920904,,,,,,,2025-11-21,1,,,,,リンケージジャパン,0
1326,6010401194541,新規,0,2025-11-21,2025-11-21,株式会社ＰＬＯマネジメント,,株式会社,東京都,港区,虎ノ門５丁目１２－１３ザイマックス神谷町ビル７階,,13,103,1050001,,,,,,,2025-11-21,1,,,,,ピーエルオーマネジメント,0
1327,6010403036510,新規,0,2025-11-21,2025-11-21,合同会社咲月,,合同会社,東京都,港区,南青山３丁目１番３６号青山丸竹ビル６階,,13,103,1070062,,,,,,,2025-11-21,1,,,,,サツキ,0
1328,6010405024926,新規,0,2025-11-21,2025-11-21,一般社団法人行政書士学会,,その他の設立登記法人,東京都,港区,虎ノ門４丁目１番２８号虎ノ門タワーズオフィス１０階,,13,103,1050001,,,,,,,2025-11-21,1,,,,,ギョウセイショシガッカイ,0
1329,6010405025049,新規,0,2025-11-21,2025-11-21,一般社団法人Ｓｉｌｖｅｒ　Ｍｉｎｔ,,その他の設立登記法人,東京都,港区,六本木１丁目９番１０号アークヒルズ仙石山森タワー４０階,,13,103,1060032,,,,,,,2025-11-21,1,,,,,シルバーミント,0
1337,6010801036731,新規,0,2025-11-21,2025-11-21,Ｓｕｚｕｒｉ株式会社,,株式会社,東京都,大田区,西馬込２丁目１４－２１パルコ西馬込３０２号,,13,111,1430026,,,,,,,2025-11-21,1,,,,,ツヅリ,0
1338,6010803005619,新規,0,2025-11-21,2025-11-21,合同会社リッツ,,合同会社,東京都,大田区,山王３丁目３４番３号,,13,111,1430023,,,,,,,2025-11-21,1,,,,,リッツ,0
1342,6011001173860,新規,0,2025-11-21,2025-11-21,Ｇｒａｖｉｔｙ　Ｔｅａｍ　Ｊａｐａｎ株式会社,,株式会社,東京都,渋谷区,恵比寿４丁目３番５号７０４号室アークアウトソーシング株式会社内,,13,113,1500013,,,,,,,2025-11-21,1,,,,,グラヴィティチームジャパン,0
1343,6011001173919,新規,0,2025-11-21,2025-11-21,株式会社Ｎｏｒａｂａｓｅ,,株式会社,東京都,渋谷区,恵比寿西２丁目４―８ウィンド恵比寿ビル８Ｆ,,13,113,1500021,,,,,,,2025-11-21,1,,,,,ノラベース,0
1347,6011003022801,新規,0,2025-11-21,2025-11-21,合同会社ｋｅｎｔａｕｒｏｓ,,合同会社,東京都,渋谷区,道玄坂１丁目１０番８号渋谷道玄坂東急ビル２Ｆ－Ｃ,,13,113,1500043,,,,,,,2025-11-21,1,,,,,ケンタウロス,0
1348,6011003023015,新規,0,2025-11-21,2025-11-21,ＹＫＴＭＯ合同会社,,合同会社,東京都,目黒区,東が丘２丁目１１番１３号,,13,110,1520021,,,,,,,2025-11-21,1,,,,,ワイケーティーエムオー,0
1350,6011101114013,新規,0,2025-11-21,2025-11-21,株式会社ＬａｂＬｉＮＫｘ,,株式会社,東京都,新宿区,西新宿３丁目３番１３号西新宿水間ビル６階,,13,104,1600023,,,,,,,2025-11-21,1,,,,,ラボリンクス,0
1352,6011301031033,新規,0,2025-11-21,2025-11-21,株式会社ＴＨＯＲＮＹ　ＧＡＲＡＧＥ,,株式会社,東京都,杉並区,成田東４丁目３４－１１,,13,115,1660015,,,,,,,2025-11-21,1,,,,,ソーニーガレージ,0
1369,6012301014614,新規,0,2025-11-21,2025-11-21,湘南貸別荘民泊運営代行株式会社,,株式会社,東京都,町田市,相原町２８３０番地９コーラル・ライフ２０２,,13,209,1940211,,,,,,,2025-11-21,1,,,,,ショウナンカシベッソウミンパクウンエイダイコウ,0
1371,6012401043851,新規,0,2025-11-21,2025-11-21,株式会社エルデザイン,,株式会社,東京都,調布市,飛田給１丁目４９番地１１,,13,208,1820036,,,,,,,2025-11-21,1,,,,,エルデザイン,0
1393,6021001086814,新規,0,2025-11-21,2025-11-21,株式会社ＪＳＡ,,株式会社,神奈川県,大和市,中央５丁目２番２９号ライオンズマンション大和第３－５０１号,,14,213,2420021,,,,,,,2025-11-21,1,,,,,ジェイエスエー,0
1395,6021003016810,新規,0,2025-11-21,2025-11-21,Ｄｏｎ　ｃｏｒｐｏｒａｔｉｏｎ合同会社,,合同会社,神奈川県,相模原市南区,御園２丁目４－１１－１０１,,14,153,2520317,,,,,,,2025-11-21,1,,,,,ドンコーポレーション,0
1399,6030001169768,新規,0,2025-11-21,2025-11-21,株式会社シード,,株式会社,埼玉県,川口市,鳩ヶ谷本町３丁目６番２号,,11,203,3340002,,,,,,,2025-11-21,1,,,,,シード,0
1409,6040001141445,新規,0,2025-11-21,2025-11-21,ＳＨＩＲＡＹＵＫＩ　ＧＲＯＵＰ株式会社,,株式会社,千葉県,松戸市,二十世紀が丘萩町２７４番地の３東宏ビル３Ｆ,,12,207,2710086,,,,,,,2025-11-21,1,,,,,シラユキグループ,0
1410,6040001141478,新規,0,2025-11-21,2025-11-21,セルフォン・テクノロジーズ・インターナショナル株式会社,,株式会社,千葉県,浦安市,日の出３丁目３番Ｃ－１１０４号,,12,227,2790013,,,,,,,2025-11-21,1,,,,,セルフォンテクノロジーズインターナショナル,0
1411,6040001141494,新規,0,2025-11-21,2025-11-21,株式会社野田ほたるローズガーデン,,株式会社,千葉県,野田市,船形６２０番地,,12,208,2700233,,,,,,,2025-11-21,1,,,,,ノダホタルローズガーデン,0
1412,6040001141503,新規,0,2025-11-21,2025-11-21,ポラリス株式会社,,株式会社,千葉県,松戸市,金ケ作２９８番地の１３５,,12,207,2702251,,,,,,,2025-11-21,1,,,,,ポラリス,0
1416,6040003028987,新規,0,2025-11-21,2025-11-21,エール合同会社,,合同会社,千葉県,八街市,八街ほ２０８番地７３８,,12,230,2891115,,,,,,,2025-11-21,1,,,,,エール,0
1430,6080103003457,新規,0,2025-11-21,2025-11-21,テイストコンサル合同会社,,合同会社,静岡県,沼津市,高沢町４－２４Ｋ＆Ｋビル,,22,203,4100057,,,,,,,2025-11-21,1,,,,,テイストコンサル,0
1439,6110005017287,新規,0,2025-11-21,2025-11-21,一般社団法人みつばちキッズ,,その他の設立登記法人,新潟県,小千谷市,平沢２丁目２５番地１２号,,15,208,9470042,,,,,,,2025-11-21,1,,,,,ミツバチキッズ,0
1462,6120001281984,新規,0,2025-11-21,2025-11-21,株式会社ＯｎｅＦｏｒｃｅ,,株式会社,大阪府,大阪市北区,梅田１丁目２番２号大阪駅前第２ビル１２－１２,,27,127,5300001,,,,,,,2025-11-21,1,,,,,ワンフォース,0
1463,6120001282108,新規,0,2025-11-21,2025-11-21,株式会社玉出フードセンター,,株式会社,大阪府,大阪市中央区,北浜１丁目３番１４号,,27,128,5410041,,,,,,,2025-11-21,1,,,,,タマデフードセンター,0
1464,6120001282149,新規,0,2025-11-21,2025-11-21,株式会社オーロラ国際,,株式会社,大阪府,大阪市阿倍野区,播磨町１丁目２３番２２号１０４室,,27,119,5450022,,,,,,,2025-11-21,1,,,,,オーロラコクサイ,0
1465,6120001282157,新規,0,2025-11-21,2025-11-21,株式会社Ｇｒｉｍ,,株式会社,大阪府,大阪市西区,土佐堀１丁目１番３２号日宝リバービル３０６号,,27,106,5500001,,,,,,,2025-11-21,1,,,,,グリム,0
1469,6120101072838,新規,0,2025-11-21,2025-11-21,株式会社Ｐｌａｙｆｕｌ,,株式会社,大阪府,大阪狭山市,茱萸木６丁目１０１６番１５号,,27,231,5890013,,,,,,,2025-11-21,1,,,,,プレイフル,0
1470,6120101072846,新規,0,2025-11-21,2025-11-21,株式会社林商店,,株式会社,大阪府,富田林市,北大伴町１丁目１０番３号,,27,214,5840042,,,,,,,2025-11-21,1,,,,,ハヤシショウテン,0
1482,6122001039883,新規,0,2025-11-21,2025-11-21,株式会社福だるまＬＡＢＯ,,株式会社,大阪府,四條畷市,岡山東１丁目６番２号ＬｉｅｕｖｅｎｉｒＩＩＩ１０３,00141612,27,229,5750003,,,,,,,2025-11-21,1,,,,,フクダルマラボ,0
1504,6150001028565,新規,0,2025-11-21,2025-11-21,ＦＡキャリア株式会社,,株式会社,奈良県,奈良市,法蓮町７０８番地の２２,,29,201,6308113,,,,,,,2025-11-21,1,,,,,エフエーキャリア,0
1508,6160001027236,新規,0,2025-11-21,2025-11-21,株式会社ＡＭＤ,,株式会社,滋賀県,大津市,大萱１丁目１５番６号,,25,201,5202144,,,,,,,2025-11-21,1,,,,,エーエムディー,0
1515,6180001169563,新規,0,2025-11-21,2025-11-21,株式会社ｉｔｔｙ,,株式会社,愛知県,津島市,百町字みどり台８３,,23,208,4960017,,,,,,,2025-11-21,1,,,,,イッティー,0
1521,6180003029402,新規,0,2025-11-21,2025-11-21,合同会社Ｈｉｒｅｘ,,合同会社,愛知県,名古屋市北区,大曽根２丁目８－１ＴＹＫビル８階,,23,103,4620825,,,,,,,2025-11-21,1,,,,,ハイレックス,0
1522,6180005021316,新規,0,2025-11-21,2025-11-21,一般社団法人ＥａｇｌＥ,,その他の設立登記法人,愛知県,名古屋市名東区,亀の井３丁目１７４番地の３,,23,115,4650094,,,,,,,2025-11-21,1,,,,,イーグル,0
1537,6240003007491,新規,0,2025-11-21,2025-11-21,ファーストメディカルサポート合同会社,,合同会社,広島県,福山市,伏見町４－３０,,34,207,7200062,,,,,,,2025-11-21,1,,,,,ファーストメディカルサポート,0
1546,6290001112272,新規,0,2025-11-21,2025-11-21,ＴＫＢメディカル株式会社,,株式会社,福岡県,久留米市,御井町２１４４番地２４ＥＬＧＲＡＮＤ上津１０５号,,40,203,8390851,,,,,,,2025-11-21,1,,,,,ティーケービーメディカル,0
1548,6290003017734,新規,0,2025-11-21,2025-11-21,Ｓｔａｎｄａｒｔ　Ｊａｐａｎ合同会社,,合同会社,福岡県,春日市,春日原南町３丁目５番地,,40,218,8160803,,,,,,,2025-11-21,1,,,,,スタンダートジャパン,0
1550,6290801032042,新規,0,2025-11-21,2025-11-21,株式会社イシコロジー２１,,株式会社,福岡県,北九州市門司区,大字白野江５２０番地,,40,101,8010802,,,,,,,2025-11-21,1,,,,,イシコロジーニジュウイチ,0
1552,6300003002379,新規,0,2025-11-21,2025-11-21,合同会社ＳＴＲ,,合同会社,佐賀県,三養基郡みやき町,大字東尾１９２３－１,,41,346,8490113,,,,,,,2025-11-21,1,,,,,エスティーアール,0
1558,6320005010270,新規,0,2025-11-21,2025-11-21,大分やまなみ事業協同組合,,その他の設立登記法人,大分県,玖珠郡九重町,大字田野１６６６番地１３５,,44,461,8794911,,,,,,,2025-11-21,1,,,,,オオイタヤマナミジギョウ,0
1561,6330003011294,新規,0,2025-11-21,2025-11-21,合同会社グリーンフィールド,,合同会社,熊本県,人吉市,下青井町４６番地１,,43,203,8680007,,,,,,,2025-11-21,1,,,,,グリーンフィールド,0
1568,6380001035704,新規,0,2025-11-21,2025-11-21,株式会社ＫＶＣ,,株式会社,福島県,郡山市,安積町荒井字北大部５番地の１３,,07,203,9630111,,,,,,,2025-11-21,1,,,,,ケーブイシー,0
1582,6480003002353,新規,0,2025-11-21,2025-11-21,轟工業合同会社,,合同会社,徳島県,阿南市,那賀川町赤池１０４－７,,36,204,7791242,,,,,,,2025-11-21,1,,,,,トドロキコウギョウ,0
1586,6700150133011,新規,0,2025-11-21,2025-11-21,ＫＡＲＩＹＡ　ＴＲＡＤＩＮＧ　ＣＯ．ＰＶＴ　ＬＴＤ,,外国会社等,千葉県,富里市,十倉５１８番地３,,12,233,2860212,スリランカ民主社会主義共和国、キャンディ、アクラナ、マタレロード、Ｎｏ．２３８／４,,,,,,2025-11-21,1,,,,,カリヤトレーデイングカンパニープライベートリミテツド,0
1597,7010001260569,新規,0,2025-11-21,2025-11-21,ジェイ・インベストメント・アドバイザーズ株式会社,,株式会社,東京都,千代田区,丸の内２丁目１番１号明治安田生命ビル,,13,101,1000005,,,,,,,2025-11-21,1,,,,,ジェイインベストメントアドバイザーズ,0
1598,7010001260585,新規,0,2025-11-21,2025-11-21,株式会社ｇｅｍｓ,,株式会社,東京都,千代田区,丸の内２丁目４番１号,,13,101,1000005,,,,,,,2025-11-21,1,,,,,ジェムズ,0
1599,7010001260593,新規,0,2025-11-21,2025-11-21,株式会社スリーテイルズ,,株式会社,東京都,中央区,日本橋兜町１７－２兜町第６葉山ビル４Ｆ,,13,102,1030026,,,,,,,2025-11-21,1,,,,,スリーテイルズ,0
1600,7010003049481,新規,0,2025-11-21,2025-11-21,住吉西プロパティー合同会社,,合同会社,東京都,千代田区,丸の内１丁目１１番１号,,13,101,1000005,,,,,,,2025-11-21,1,,,,,スミヨシニシプロパティー,0
1601,7010005040926,新規,0,2025-11-21,2025-11-21,一般社団法人プライムエッジ,,その他の設立登記法人,東京都,千代田区,神田三崎町２丁目１１－１１,,13,101,1010061,,,,,,,2025-11-21,1,,,,,プライムエッジ,0
1602,7010005040959,新規,0,2025-11-21,2025-11-21,一般社団法人神の手チャレンジ実行委員会,,その他の設立登記法人,東京都,文京区,本駒込５丁目３１番３号,,13,105,1130021,,,,,,,2025-11-21,1,,,,,カミノテチャレンジジッコウイインカイ,0
1603,7010101016978,新規,0,2025-11-21,2025-11-21,聖泰株式会社,,株式会社,東京都,八王子市,子安町１丁目４８番９号２０２号室,,13,201,1920904,,,,,,,2025-11-21,1,,,,,セイタイ,0
1610,7010401194549,新規,0,2025-11-21,2025-11-21,株式会社福壽公認会計士事務所,,株式会社,東京都,港区,浜松町２丁目３番９－３１０５号,,13,103,1050013,,,,,,,2025-11-21,1,,,,,フクジュコウニンカイケイシジムショ,0
1611,7010401194680,新規,0,2025-11-21,2025-11-21,ＬＳ‐Ａｖｉａｔｉｏｎ第８８号株式会社,,株式会社,東京都,港区,六本木１丁目６番１号,,13,103,1060032,,,,,,,2025-11-21,1,,,,,エルエスアビエーションダイハチジュウハチゴウ,0
1612,7010403036625,新規,0,2025-11-21,2025-11-21,Ｍａａｎａ　Ｍｙｏｈｏｉｎ合同会社,,合同会社,東京都,港区,虎ノ門５丁目１番５号,,13,103,1050001,,,,,,,2025-11-21,1,,,,,マーナミョウホウイン,0
1614,7010501055064,新規,0,2025-11-21,2025-11-21,トラアート株式会社,,株式会社,東京都,台東区,元浅草３丁目１７番１２－２０４号プライムブリス上野元浅草,,13,106,1110041,,,,,,,2025-11-21,1,,,,,トラアート,0
1622,7010801036796,新規,0,2025-11-21,2025-11-21,株式会社社会共鳴デザインラボ,,株式会社,東京都,大田区,田園調布２丁目１８番９号,,13,111,1450071,,,,,,,2025-11-21,1,,,,,シャカイキョウメイデザインラボ,0
1634,7011003022940,新規,0,2025-11-21,2025-11-21,合同会社アクト,,合同会社,東京都,渋谷区,円山町５番３号ＭＩＥＵＸ渋谷ビル８階,,13,113,1500044,,,,,,,2025-11-21,1,,,,,アクト,0
1638,7011101113906,新規,0,2025-11-21,2025-11-21,Ａｌｌ　Ｂｌｏｏｍ株式会社,,株式会社,東京都,新宿区,新宿２丁目１５番２２号,,13,104,1600022,,,,,,,2025-11-21,1,,,,,オールブルーム,0
1639,7011101114020,新規,0,2025-11-21,2025-11-21,徳村株式会社,,株式会社,東京都,新宿区,天神町３５番地３・１０１号室,,13,104,1620808,,,,,,,2025-11-21,1,,,,,トクムラ,0
1640,7011301031073,新規,0,2025-11-21,2025-11-21,ＯｒｉｏｎＸ株式会社,,株式会社,東京都,杉並区,西荻南４丁目２２番７号,,13,115,1670053,,,,,,,2025-11-21,1,,,,,オリオンエックス,0
1651,7011703004461,新規,0,2025-11-21,2025-11-21,町田商事合同会社,,合同会社,東京都,江戸川区,南葛西７丁目４番４号パークサイド南葛西３０１,,13,123,1340085,,,,,,,2025-11-21,1,,,,,マチダショウジ,0
1655,7011803007182,新規,0,2025-11-21,2025-11-21,かなえるＨＯＷＡ合同会社,,合同会社,東京都,葛飾区,東四つ木１丁目２５－１１,,13,122,1240014,,,,,,,2025-11-21,1,,,,,カナエルホワ,0
1656,7012301014613,新規,0,2025-11-21,2025-11-21,かんのクリーンサービス株式会社,,株式会社,東京都,町田市,大蔵町１８７６番地３,,13,209,1950062,,,,,,,2025-11-21,1,,,,,カンノクリーンサービス,0
1667,7020001165908,新規,0,2025-11-21,2025-11-21,株式会社うらみん,,株式会社,神奈川県,横浜市鶴見区,向井町３丁目７９番地７ナイスアーバンスクエア横濱鶴見３０９号,,14,101,2300037,,,,,,,2025-11-21,1,,,,,ウラミン,0
1668,7020001165949,新規,0,2025-11-21,2025-11-21,株式会社Ｒ＆Ｋ,,株式会社,神奈川県,横浜市港北区,大豆戸町３１６番地６菊名ハイツ３－３１３,,14,109,2220032,,,,,,,2025-11-21,1,,,,,アールアンドケイ,0
1672,7020003029821,新規,0,2025-11-21,2025-11-21,合同会社イノベーション,,合同会社,神奈川県,横浜市港北区,綱島東１丁目１番６号ＪＣ古市ビル４Ｆ,,14,109,2230052,,,,,,,2025-11-21,1,,,,,イノベーション,0
1676,7021003016818,新規,0,2025-11-21,2025-11-21,合同会社ホースライフ,,合同会社,神奈川県,海老名市,上郷３丁目１０番１９号,,14,215,2430434,,,,,,,2025-11-21,1,,,,,ホースライフ,0
1681,7030001169783,新規,0,2025-11-21,2025-11-21,センセーエンジニアリング株式会社,,株式会社,埼玉県,鶴ヶ島市,脚折町３丁目１１番１６号,,11,241,3502211,,,,,,,2025-11-21,1,,,,,センセーエンジニアリング,0
1682,7030001169800,新規,0,2025-11-21,2025-11-21,サクマ巧旋株式会社,,株式会社,埼玉県,上尾市,大字小敷谷１０７１番地１６,,11,219,3620064,,,,,,,2025-11-21,1,,,,,サクマコウセン,0
1697,7040001141485,新規,0,2025-11-21,2025-11-21,株式会社恵佑,,株式会社,千葉県,浦安市,美浜３丁目２６番８号,,12,227,2790011,,,,,,,2025-11-21,1,,,,,メグスケ,0
1701,7040003028895,新規,0,2025-11-21,2025-11-21,Ｊ＆Ｔソーラーシェアリングカンパニー合同会社,,合同会社,千葉県,匝瑳市,飯塚１０６２番地,,12,235,2892106,,,,,,,2025-11-21,1,,,,,ジェーアンドティーソーラーシェアリングカンパニー,0
1702,7040003028978,新規,0,2025-11-21,2025-11-21,ＳＵＰＥＲ　ＮＯＶＡ合同会社,,合同会社,千葉県,我孫子市,中里１６７番地の１０,,12,222,2701122,,,,,,,2025-11-21,1,,,,,スーパーノヴァ,0
1703,7040003029002,新規,0,2025-11-21,2025-11-21,合同会社Ｆｌｏｓ,,合同会社,千葉県,柏市,宿連寺５２－１３,,12,217,2770826,,,,,,,2025-11-21,1,,,,,フロズ,0
1704,7040003029010,新規,0,2025-11-21,2025-11-21,ＣＭ　ＳＡＫＵＲＡ　ＩＮＴＥＲＮＡＴＩＯＮＡＬ合同会社,,合同会社,千葉県,白井市,神々廻２８５番地の１－１０１,,12,232,2701416,,,,,,,2025-11-21,1,,,,,シーエムサクラインターナショナル,0
1710,7080003003597,新規,0,2025-11-21,2025-11-21,合同会社Ｒｕｉｔ,,合同会社,静岡県,静岡市駿河区,大谷８３６,,22,102,4228017,,,,,,,2025-11-21,1,,,,,ルイト,0
1713,7080405007782,新規,0,2025-11-21,2025-11-21,一般社団法人北遠終活支援会こころ,,その他の設立登記法人,静岡県,浜松市天竜区,山東４５５７番地,,22,140,4313303,,,,,,,2025-11-21,1,,,,,ホクエンシュウカツシエンカイココロ,0
1728,7120001282148,新規,0,2025-11-21,2025-11-21,株式会社ＫＯＭ,,株式会社,大阪府,大阪市東成区,神路１丁目１３番８号リアライズ神路２０２号,,27,115,5370003,,,,,,,2025-11-21,1,,,,,コム,0
1733,7120003031098,新規,0,2025-11-21,2025-11-21,合同会社ＹＡＭＡＳＡＫＩ　ＦＯＯＤＳ,,合同会社,大阪府,大阪市此花区,西九条１丁目１－８１－５０１,,27,104,5540012,,,,,,,2025-11-21,1,,,,,ヤマサキフーズ,0
1736,7120101072845,新規,0,2025-11-21,2025-11-21,株式会社ツキテラス,,株式会社,大阪府,松原市,別所３丁目２０番２２号,,27,217,5800005,,,,,,,2025-11-21,1,,,,,ツキテラス,0
1747,7122001039932,新規,0,2025-11-21,2025-11-21,株式会社エコアス,,株式会社,大阪府,東大阪市,吉松１丁目８番１１号－２０２号,,27,227,5770821,,,,,,,2025-11-21,1,,,,,エコアス,0
1759,7140001140774,新規,0,2025-11-21,2025-11-21,株式会社ＪＰＲ,,株式会社,兵庫県,尼崎市,崇徳院３丁目５２－２,,28,202,6600071,,,,,,,2025-11-21,1,,,,,ジェイピーアール,0
1764,7140003022863,新規,0,2025-11-21,2025-11-21,合同会社Ｓｏｒａｕｍｉ,,合同会社,兵庫県,たつの市,龍野町片山１１６番地１７,,28,229,6794123,,,,,,,2025-11-21,1,,,,,ソラウミ,0
1765,7140005027704,新規,0,2025-11-21,2025-11-21,一般社団法人淡路伝統文化振興協会,,その他の設立登記法人,兵庫県,淡路市,大町下５４番地２,,28,226,6562156,,,,,,,2025-11-21,1,,,,,アワジデントウブンカシンコウキョウカイ,0
1767,7150003003755,新規,0,2025-11-21,2025-11-21,合同会社Ｍｍａｒ,,合同会社,奈良県,奈良市,登美ヶ丘２丁目１番３５号,,29,201,6310004,,,,,,,2025-11-21,1,,,,,メール,0
1799,7290001112255,新規,0,2025-11-21,2025-11-21,ＷＡＫＵＬ株式会社,,株式会社,福岡県,福岡市中央区,長浜２丁目１番３０－１３０２号,,40,133,8100072,,,,,,,2025-11-21,1,,,,,ワクル,0
1800,7290001112288,新規,0,2025-11-21,2025-11-21,株式会社マルサン,,株式会社,福岡県,福岡市中央区,天神２丁目２番１２号Ｔ＆Ｊビルディング７Ｆ,,40,133,8100001,,,,,,,2025-11-21,1,,,,,マルサン,0
1803,7290005019876,新規,0,2025-11-21,2025-11-21,一般社団法人ＬＩＮＫＦＯＲＣＥ福岡,,その他の設立登記法人,福岡県,福岡市博多区,大井２丁目９番１８－２０５号,,40,132,8120001,,,,,,,2025-11-21,1,,,,,リンクフォースフクオカ,0
1805,7300001014417,新規,0,2025-11-21,2025-11-21,株式会社やまのて,,株式会社,佐賀県,神埼市,脊振町広滝９６７番地３,,41,210,8420201,,,,,,,2025-11-21,1,,,,,ヤマノテ,0
1812,7350001019808,新規,0,2025-11-21,2025-11-21,山忠カンパニー株式会社,,株式会社,宮崎県,都城市,志比田町５８３５番地６,,45,202,8850093,,,,,,,2025-11-21,1,,,,,ヤマチュウカンパニー,0
1813,7350003005079,新規,0,2025-11-21,2025-11-21,合同会社Ａｃｔｉｖｅ,,合同会社,宮崎県,北諸県郡三股町,大字蓼池４１７６,,45,341,8891914,,,,,,,2025-11-21,1,,,,,アクティブ,0
1815,7360003015416,新規,0,2025-11-21,2025-11-21,合同会社みらい結び,,合同会社,沖縄県,中頭郡中城村,字南上原５４４－２－２Ｆ,,47,328,9012424,,,,,,,2025-11-21,1,,,,,ミライムスビ,0
1820,7390005009140,新規,0,2025-11-21,2025-11-21,医療法人政郁会,,その他の設立登記法人,山形県,東置賜郡高畠町,大字高畠１１３５番地の２,,06,381,9920351,,,,,,,2025-11-21,1,,,,,セイイクカイ,0
1823,7400003003564,新規,0,2025-11-21,2025-11-21,合同会社ヒラノファーム,,合同会社,岩手県,滝沢市,鵜飼狐洞１０番地９,,03,216,0200668,,,,,,,2025-11-21,1,,,,,ヒラノファーム,0
1831,7440001009717,新規,0,2025-11-21,2025-11-21,株式会社道南ＩＭＰＡＣＴ,,株式会社,北海道,亀田郡七飯町,字峠下３１２番地１,,01,337,0411102,,,,,,,2025-11-21,1,,,,,ドウナンインパクト,0
1833,7450003002743,新規,0,2025-11-21,2025-11-21,合同会社ルミナス,,合同会社,北海道,深川市,八条５番４１号,,01,228,0740008,,,,,,,2025-11-21,1,,,,,,0
1837,7700150133010,新規,0,2025-11-21,2025-11-21,ＴＯＴＡＬ　ＳＵＭＭＩＴ　ＬＩＭＩＴＥＤ,,外国会社等,,,,,,,,中華人民共和国、香港特別行政区、クイーンズロードイースト　４３－５９、ドミニオンセンター、ルームズ６０４－７,,,,,,2025-11-21,1,,,,,トータルサミツトリミテツド,0
1847,8010001260568,新規,0,2025-11-21,2025-11-21,ヒューマメディックウェルネス株式会社,,株式会社,東京都,中央区,日本橋浜町３丁目３番１－１３１４号,,13,102,1030007,,,,,,,2025-11-21,1,,,,,ヒューマメディックウェルネス,0
1848,8010001260592,新規,0,2025-11-21,2025-11-21,ピスタチオ・アンド・カンパニー株式会社,,株式会社,東京都,中央区,銀座１丁目２２番１１号銀座大竹ビジデンス２Ｆ,,13,102,1040061,,,,,,,2025-11-21,1,,,,,ピスタチオアンドカンパニー,0
1849,8010003049480,新規,0,2025-11-21,2025-11-21,住吉東プロパティー合同会社,,合同会社,東京都,千代田区,丸の内１丁目１１番１号,,13,101,1000005,,,,,,,2025-11-21,1,,,,,スミヨシヒガシプロパティー,0
1851,8010005040974,新規,0,2025-11-21,2025-11-21,一般社団法人ふたわ２,,その他の設立登記法人,東京都,千代田区,飯田橋４丁目７番１号結和税理士法人内,,13,101,1020072,,,,,,,2025-11-21,1,,,,,フタワツー,0
1860,8010401194531,新規,0,2025-11-21,2025-11-21,株式会社ＮＥＸＳＴＥＰ,,株式会社,東京都,港区,白金３丁目１０番１９号ラピス白金２０１,,13,103,1080072,,,,,,,2025-11-21,1,,,,,ネクステップ,0
1861,8010401194589,新規,0,2025-11-21,2025-11-21,創生ホールディングス株式会社,,株式会社,東京都,港区,浜松町２丁目２番１５号浜松町ダイヤビル２Ｆ,,13,103,1050013,,,,,,,2025-11-21,1,,,,,ソウセイホールディングス,0
1864,8010501055047,新規,0,2025-11-21,2025-11-21,興業株式会社,,株式会社,東京都,台東区,千束３丁目２０番１８号,,13,106,1110031,,,,,,,2025-11-21,1,,,,,コウギョウ,0
1878,8011001173586,新規,0,2025-11-21,2025-11-21,シマダトラベルパートナーズ株式会社,,株式会社,東京都,渋谷区,代々木３丁目２２番７号,,13,113,1510053,,,,,,,2025-11-21,1,,,,,シマダトラベルパートナーズ,0
1881,8011003023005,新規,0,2025-11-21,2025-11-21,ソーシャルデコード合同会社,,合同会社,東京都,渋谷区,道玄坂１丁目１０番８号渋谷道玄坂東急ビル２Ｆ―Ｃ,,13,113,1500043,,,,,,,2025-11-21,1,,,,,ソーシャルデコード,0
1882,8011003023021,新規,0,2025-11-21,2025-11-21,鹿児島水力発電合同会社,,合同会社,東京都,渋谷区,神南１丁目５番１９号,,13,113,1500041,,,,,,,2025-11-21,1,,,,,カゴシマスイリョクハツデン,0
1885,8011101113905,新規,0,2025-11-21,2025-11-21,株式会社島スタイル,,株式会社,東京都,新宿区,神楽坂３丁目６番１９青柳ＬＫビル１Ｆ,,13,104,1620825,,,,,,,2025-11-21,1,,,,,シマスタイル,0
1888,8011203004894,新規,0,2025-11-21,2025-11-21,合同会社はぐれ,,合同会社,東京都,中野区,弥生町２丁目４９－５－６０９,,13,114,1640013,,,,,,,2025-11-21,1,,,,,ハグレ,0
1893,8011301031072,新規,0,2025-11-21,2025-11-21,株式会社とのや,,株式会社,東京都,杉並区,松庵３丁目２６番３５－１０３号,,13,115,1670054,,,,,,,2025-11-21,1,,,,,トノヤ,0
1902,8012303002243,新規,0,2025-11-21,2025-11-21,合同会社ムラコゼ,,合同会社,東京都,町田市,原町田１丁目１０番１７号メゾンドＡ２－１０１,,13,209,1940013,,,,,,,2025-11-21,1,,,,,ムラコゼ,0
1921,8020001165898,新規,0,2025-11-21,2025-11-21,株式会社Ｔｅｎ,,株式会社,神奈川県,横浜市港北区,箕輪町２丁目７番３６号,,14,109,2230051,,,,,,,2025-11-21,1,,,,,テン,0
1923,8020003029820,新規,0,2025-11-21,2025-11-21,合同会社ロングラン,,合同会社,神奈川県,川崎市川崎区,砂子２丁目５番地２４日活プラザビル２Ｆ,,14,131,2100006,,,,,,,2025-11-21,1,,,,,ロングラン,0
1938,8030003028111,新規,0,2025-11-21,2025-11-21,Ｍｉｓｓｉｏｎ　Ｂｒｉｄｇｅ合同会社,,合同会社,埼玉県,さいたま市大宮区,宮町２丁目９３番地２,,11,103,3300802,,,,,,,2025-11-21,1,,,,,ミッションブリッジ,0
1947,8040003028952,新規,0,2025-11-21,2025-11-21,合同会社七五三,,合同会社,千葉県,印西市,原４丁目５番地１,,12,231,2701335,,,,,,,2025-11-21,1,,,,,ナゴミ,0
1948,8040003028969,新規,0,2025-11-21,2025-11-21,合同会社ピコポン,,合同会社,千葉県,船橋市,前原西２丁目１４番６号速水ビル４階,,12,204,2740825,,,,,,,2025-11-21,1,,,,,ピコポン,0
1949,8040003029018,新規,0,2025-11-21,2025-11-21,海発商貿合同会社,,合同会社,千葉県,八千代市,萱田町字萱田道７９７番１０－Ｍ－２０３,,12,221,2760044,,,,,,,2025-11-21,1,,,,,カイハツショウボウ,0
1979,8120001281875,新規,0,2025-11-21,2025-11-21,オルビスリンク株式会社,,株式会社,大阪府,大阪市淀川区,十三本町１丁目１８－７クリオプラザ十三パートＩＩ５０１号室,00141620,27,123,5320024,,,,,,,2025-11-21,1,,,,,オルビスリンク,0
1980,8120001282072,新規,0,2025-11-21,2025-11-21,五常株式会社,,株式会社,大阪府,大阪市中央区,南船場１丁目１０番８－１４０１号,,27,128,5420081,,,,,,,2025-11-21,1,,,,,ゴジョウ,0
1981,8120001282139,新規,0,2025-11-21,2025-11-21,株式会社金澤,,株式会社,大阪府,大阪市中央区,島之内２丁目９番３３号ホースタイ南３１８,,27,128,5420082,,,,,,,2025-11-21,1,,,,,キンザワ,0
1982,8120001282163,新規,0,2025-11-21,2025-11-21,浩瑞国際株式会社,,株式会社,大阪府,大阪市中央区,和泉町１丁目１－１４シイナＨＤビル谷町５Ｆ－８,,27,128,5400019,,,,,,,2025-11-21,1,,,,,コウズイコクサイ,0
1985,8120003031295,新規,0,2025-11-21,2025-11-21,近配便合同会社,,合同会社,大阪府,大阪市西区,南堀江４丁目２４番４－１１０２号,,27,106,5500015,,,,,,,2025-11-21,1,,,,,キンハイビン,0
1997,8130001081036,新規,0,2025-11-21,2025-11-21,株式会社キャメリア,,株式会社,京都府,京都市東山区,清本町３５９－２－２Ｆ,,26,105,6050084,,,,,,,2025-11-21,1,,,,,キャメリア,0
1998,8130001081044,新規,0,2025-11-21,2025-11-21,株式会社ナガサン,,株式会社,京都府,長岡京市,東和苑１番地５,,26,209,6170834,,,,,,,2025-11-21,1,,,,,ナガサン,0
2000,8130003010950,新規,0,2025-11-21,2025-11-21,合同会社京都統合医療研究所,,合同会社,京都府,京都市南区,東九条西山町２２番地８,,26,107,6018046,,,,,,,2025-11-21,1,,,,,キョウトトウゴウイリョウケンキュウショ,0
2016,8180001169603,新規,0,2025-11-21,2025-11-21,株式会社アルトルテック,,株式会社,愛知県,一宮市,奥町字七丁４６番地８,,23,203,4910201,,,,,,,2025-11-21,1,,,,,アルトルテック,0
2023,8220003004167,新規,0,2025-11-21,2025-11-21,合同会社江崎産業,,合同会社,石川県,野々市市,菅原町１１番１５号クレステート菅原３０５号,,17,212,9218814,,,,,,,2025-11-21,1,,,,,エザキサンギョウ,0
2027,8240001065812,新規,0,2025-11-21,2025-11-21,株式会社ＲＵＶＯ,,株式会社,広島県,広島市中区,舟入本町１２番９－９０３号,,34,101,7300843,,,,,,,2025-11-21,1,,,,,ルーヴォ,0
2029,8260001040755,新規,0,2025-11-21,2025-11-21,株式会社まにわ居宅介護支援事業所,,株式会社,岡山県,真庭市,台金屋３９５番地４１,,33,214,7193227,,,,,,,2025-11-21,1,,,,,マニワキョタクカイゴシエンジギョウショ,0
2030,8260003005426,新規,0,2025-11-21,2025-11-21,合同会社ＫＩｃｏｍｐａｎｙ,,合同会社,岡山県,岡山市南区,新保１１２８番地３,,33,104,7000945,,,,,,,2025-11-21,1,,,,,ケイアイカンパニー,0
2031,8270003001804,新規,0,2025-11-21,2025-11-21,合同会社Ｈｉ‐Ｓｏ,,合同会社,鳥取県,米子市,上後藤８丁目１－７,,31,202,6830841,,,,,,,2025-11-21,1,,,,,ハイソー,0
2035,8290001112262,新規,0,2025-11-21,2025-11-21,株式会社七福神,,株式会社,福岡県,福岡市中央区,長浜３丁目１１番３号市場会館７１６号,,40,133,8100072,,,,,,,2025-11-21,1,,,,,シチフクジン,0
2039,8290003017716,新規,0,2025-11-21,2025-11-21,合同会社ＦＵＫＬａｂ,,合同会社,福岡県,福岡市東区,香椎照葉５丁目１－１２センターマークスタワー２１０３,,40,131,8130017,,,,,,,2025-11-21,1,,,,,フクラボ,0
2040,8290003017740,新規,0,2025-11-21,2025-11-21,時光奕奕合同会社,,合同会社,福岡県,福岡市東区,香椎駅東２丁目２１番７－２０６号,,40,131,8130012,,,,,,,2025-11-21,1,,,,,ジコウエキエキ,0
2041,8290005019875,新規,0,2025-11-21,2025-11-21,一般社団法人ブランディングコーチ認定協会,,その他の設立登記法人,福岡県,福岡市博多区,博多駅前１丁目２３番２号ＰａｒｋＦｒｏｎｔ博多駅前一丁目５Ｆ－Ｂ,,40,132,8120011,,,,,,,2025-11-21,1,,,,,,0
2048,8310003005107,新規,0,2025-11-21,2025-11-21,合同会社ｔｒｉ‐Ｂｅ,,合同会社,長崎県,長崎市,柳田町２０５番１号,,42,201,8500982,,,,,,,2025-11-21,1,,,,,トライビー,0
2049,8320005010269,新規,0,2025-11-21,2025-11-21,司法書士法人Ａｎｇｅ‐リーガルサポート,,その他の設立登記法人,大分県,別府市,大字北石垣７２０番地の８,,44,202,8740000,,,,,,,2025-11-21,1,,,,,アンジェリーガルサポート,0
2050,8330001033743,新規,0,2025-11-21,2025-11-21,コンストラストキャピタル株式会社,,株式会社,熊本県,宇城市,豊野町上郷１８０８番地の１,,43,213,8614303,,,,,,,2025-11-21,1,,,,,コンストラストキャピタル,0
2054,8350003005078,新規,0,2025-11-21,2025-11-21,合同会社コア,,合同会社,宮崎県,東臼杵郡門川町,須賀崎３丁目３９番地,,45,421,8890601,,,,,,,2025-11-21,1,,,,,コア,0
2067,8430001095708,新規,0,2025-11-21,2025-11-21,株式会社ＯＫＡＷＡホールディングス,,株式会社,北海道,札幌市北区,北十条西３丁目２３番１号ＴＨＥ　ＰＥＡＫ　ＳＡＰＰＯＲＯ１Ｆ,,01,102,0010010,,,,,,,2025-11-21,1,,,,,オオカワホールディングス,0
2068,8430001095716,新規,0,2025-11-21,2025-11-21,株式会社みらいサポート,,株式会社,北海道,札幌市豊平区,平岸三条７丁目６番１号,,01,105,0620933,,,,,,,2025-11-21,1,,,,,ミライサポート,0
2086,9010001260567,新規,0,2025-11-21,2025-11-21,Ｇｏｋｒａ　Ｒｅｓｏｒｔｓ株式会社,,株式会社,東京都,中央区,銀座７丁目５番４号,,13,102,1040061,,,,,,,2025-11-21,1,,,,,ゴクラリゾート,0
2089,9010401194588,新規,0,2025-11-21,2025-11-21,株式会社Ｄ５,,株式会社,東京都,港区,南青山３丁目１番３６号青山丸竹ビル６Ｆ,,13,103,1070062,,,,,,,2025-11-21,1,,,,,ディーファイブ,0
2090,9010401194596,新規,0,2025-11-21,2025-11-21,株式会社ｅｖｅｒ　ｂｌｏｏｍ,,株式会社,東京都,港区,北青山１丁目３番１号アールキューブ青山３階,,13,103,1070061,,,,,,,2025-11-21,1,,,,,エバーブルーム,0
2091,9010401194638,新規,0,2025-11-21,2025-11-21,Ｈ．Ｊ．Ｚ株式会社,,株式会社,東京都,港区,赤坂３丁目１１－１４赤坂ベルゴ１００７号,,13,103,1070052,,,,,,,2025-11-21,1,,,,,エイチジェーゼット,0
2092,9010401194679,新規,0,2025-11-21,2025-11-21,ＬＳ‐Ａｖｉａｔｉｏｎ第８７号株式会社,,株式会社,東京都,港区,六本木１丁目６番１号,,13,103,1060032,,,,,,,2025-11-21,1,,,,,エルエスアビエーションダイハチジュウナナゴウ,0
2108,9010903010417,新規,0,2025-11-21,2025-11-21,合同会社ｊｕｎ　ｓｔｙｌｅ,,合同会社,東京都,世田谷区,千歳台５丁目１７番１号杉崎マンション２０３,,13,112,1570071,,,,,,,2025-11-21,1,,,,,ジュンスタイル,0
2114,9011001173610,新規,0,2025-11-21,2025-11-21,株式会社セイレー,,株式会社,東京都,渋谷区,恵比寿西２丁目８番４号ＥＸ恵比寿西ビル５階,,13,113,1500021,,,,,,,2025-11-21,1,,,,,セイレー,0
2118,9011301031063,新規,0,2025-11-21,2025-11-21,株式会社ＭＩＬＩＳＥ,,株式会社,東京都,杉並区,阿佐谷南１丁目１９－２０,,13,115,1660004,,,,,,,2025-11-21,1,,,,,ミライズ,0
2121,9011303005775,新規,0,2025-11-21,2025-11-21,ティー・スマイル合同会社,,合同会社,東京都,杉並区,成田東３丁目１２番１６号,,13,115,1660015,,,,,,,2025-11-21,1,,,,,ティースマイル,0
2129,9012301014611,新規,0,2025-11-21,2025-11-21,株式会社Ｃｈｅｅｒ　Ｒｉｄｇｅ,,株式会社,東京都,町田市,森野２丁目１１－１７－２０１,,13,209,1940022,,,,,,,2025-11-21,1,,,,,チアリッジ,0
2130,9012401043840,新規,0,2025-11-21,2025-11-21,株式会社ＭＪホーム,,株式会社,東京都,小金井市,本町４丁目１３番２号,,13,210,1840004,,,,,,,2025-11-21,1,,,,,エムジェイホーム,0
2131,9012403007471,新規,0,2025-11-21,2025-11-21,コンパスデザイン合同会社,,合同会社,東京都,武蔵野市,吉祥寺北町２丁目３番８号パークハウス吉祥寺北町グローヴＩＩＩ００３,00141621,13,203,1800001,,,,,,,2025-11-21,1,,,,,コンパスデザイン,0
2133,9012801024374,新規,0,2025-11-21,2025-11-21,株式会社ラジスト,,株式会社,東京都,日野市,神明２丁目７番地の３０,,13,212,1910016,,,,,,,2025-11-21,1,,,,,ラジスト,0
2144,9020001165848,新規,0,2025-11-21,2025-11-21,株式会社ＮＴワークス,,株式会社,神奈川県,横浜市旭区,本宿町１０６番地ミノリハイライズＢ棟１０１号室,,14,112,2410023,,,,,,,2025-11-21,1,,,,,,0
2145,9020001165889,新規,0,2025-11-21,2025-11-21,株式会社ｋｏｔｏｔｏ,,株式会社,神奈川県,横浜市西区,北幸２丁目１０番４８号むつみビル３階,,14,103,2200004,,,,,,,2025-11-21,1,,,,,コトト,0
2150,9021003016808,新規,0,2025-11-21,2025-11-21,合同会社Ｏｎｅ　Ｆｕｔｕｒｅ,,合同会社,神奈川県,相模原市中央区,相模原４丁目４－１８－１２０２号室,,14,152,2520231,,,,,,,2025-11-21,1,,,,,ワンフューチャー,0
2153,9030001169591,新規,0,2025-11-21,2025-11-21,株式会社エルサービス,,株式会社,埼玉県,志木市,中宗岡５丁目１４番１８号,,11,228,3530002,,,,,,,2025-11-21,1,,,,,エルサービス,0
2156,9040001141491,新規,0,2025-11-21,2025-11-21,株式会社ＭＨＫ,,株式会社,千葉県,松戸市,小根本１７７番地の２,,12,207,2710073,,,,,,,2025-11-21,1,,,,,エムエイチケイ,0
2158,9040003029017,新規,0,2025-11-21,2025-11-21,合同会社フルパートナーズ,,合同会社,千葉県,袖ケ浦市,蔵波２３０－６,,12,229,2990243,,,,,,,2025-11-21,1,,,,,フルパートナーズ,0
2168,9070001043537,新規,0,2025-11-21,2025-11-21,ＡＳＧ　Ｍｅｄｉａ株式会社,,株式会社,群馬県,吾妻郡嬬恋村,大字鎌原１７８８番地４６,,10,425,3771524,,,,,,,2025-11-21,1,,,,,エーエスジーメディア,0
2177,9110001039737,新規,0,2025-11-21,2025-11-21,株式会社長谷川商店,,株式会社,新潟県,三条市,田島２丁目６番１１号,,15,204,9550044,,,,,,,2025-11-21,1,,,,,ハセガワショウテン,0
2178,9110003005951,新規,0,2025-11-21,2025-11-21,国際セイロン合同会社,,合同会社,新潟県,南魚沼市,石打８３４‐２５‐２０５号,,15,226,9496372,,,,,,,2025-11-21,1,,,,,コクサイセイロン,0
2193,9120001282154,新規,0,2025-11-21,2025-11-21,佳盈株式会社,,株式会社,大阪府,大阪市西成区,南津守７丁目１番１６号１０２号室,,27,122,5570063,,,,,,,2025-11-21,1,,,,,カエイ,0
2194,9120001282187,新規,0,2025-11-21,2025-11-21,株式会社優枠,,株式会社,大阪府,大阪市北区,鶴野町４番１１号,,27,127,5300014,,,,,,,2025-11-21,1,,,,,ユウワク,0
2200,9120003031253,新規,0,2025-11-21,2025-11-21,合同会社ＭｅＲＲＹ,,合同会社,大阪府,大阪市阿倍野区,昭和町２丁目１７番２７号,,27,119,5450011,,,,,,,2025-11-21,1,,,,,メリー,0
2201,9120003031294,新規,0,2025-11-21,2025-11-21,ロジピット合同会社,,合同会社,大阪府,大阪市東住吉区,中野４丁目１２番１６号アマナ４０５号,,27,121,5460012,,,,,,,2025-11-21,1,,,,,ロジピット,0
2207,9120101072835,新規,0,2025-11-21,2025-11-21,株式会社ｃｃｈ‐ｌａｂ,,株式会社,大阪府,堺市北区,新金岡町３丁１番１６－３０７号,,27,146,5918021,,,,,,,2025-11-21,1,,,,,シーシーエイチラボ,0
2214,9122001039914,新規,0,2025-11-21,2025-11-21,ファスニング・ラボ株式会社,,株式会社,大阪府,東大阪市,荒本北１丁目４－１クリエイション・コア東大阪内,,27,227,5770011,,,,,,,2025-11-21,1,,,,,ファスニングラボ,0
2221,9140003022861,新規,0,2025-11-21,2025-11-21,そのクリエイト合同会社,,合同会社,兵庫県,尼崎市,神田南通１丁目６－８ハイツアルペン４０５,,28,202,6600885,,,,,,,2025-11-21,1,,,,,ソノクリエイト,0
2222,9150001028562,新規,0,2025-11-21,2025-11-21,株式会社Ｔｈｅｒａｐｙｎｉａ　Ｃｒａｆｔ,,株式会社,奈良県,宇陀市,大宇陀拾生１８７４－１,,29,212,6332164,,,,,,,2025-11-21,1,,,,,セラピニアクラフト,0
2225,9180001169610,新規,0,2025-11-21,2025-11-21,株式会社ＩＮＡＩ,,株式会社,愛知県,名古屋市守山区,小幡４丁目９番３１－２０２号,,23,113,4630011,,,,,,,2025-11-21,1,,,,,アイエヌエーアイ,0
2235,9180303006817,新規,0,2025-11-21,2025-11-21,合同会社悠育,,合同会社,愛知県,豊橋市,三ノ輪町字本興寺２番地２６１,,23,201,4400837,,,,,,,2025-11-21,1,,,,,,0
2240,9220003004166,新規,0,2025-11-21,2025-11-21,合同会社谷口工業,,合同会社,石川県,金沢市,額新保２丁目１０３番地２,,17,201,9218148,,,,,,,2025-11-21,1,,,,,タニグチコウギョウ,0
2243,9240001065803,新規,0,2025-11-21,2025-11-21,株式会社日中福祉研究所,,株式会社,広島県,広島市南区,出島２丁目１４番５６号,,34,103,7340013,,,,,,,2025-11-21,1,,,,,ニッチュウフクシケンキュウジョ,0
2253,9290001112212,新規,0,2025-11-21,2025-11-21,興隆株式会社,,株式会社,福岡県,飯塚市,鯰田２２７８番地１ブルーマリヌＡ棟１０２号室,,40,205,8200001,,,,,,,2025-11-21,1,,,,,コウリュウ,0
2254,9290001112253,新規,0,2025-11-21,2025-11-21,クローバーアース株式会社,,株式会社,福岡県,福岡市中央区,警固２丁目１３番３号,,40,133,8100023,,,,,,,2025-11-21,1,,,,,クローバーアース,0
2257,9290003017657,新規,0,2025-11-21,2025-11-21,ライフプロシューマー合同会社,,合同会社,福岡県,福岡市博多区,博多駅東１丁目１－３３はかた近代ビル,,40,132,8120013,,,,,,,2025-11-21,1,,,,,ライフプロシューマー,0
2263,9290005019882,新規,0,2025-11-21,2025-11-21,ＮＰＯ法人福岡地域音楽振興会,,その他の設立登記法人,福岡県,福岡市西区,野方２丁目２４番１６号,,40,135,8190043,,,,,,,2025-11-21,1,,,,,エヌピオホウジンフクオカチイキオンガクシンコウカイ,0
2265,9290803005209,新規,0,2025-11-21,2025-11-21,合同会社ワンダーリンケージ,,合同会社,福岡県,北九州市八幡西区,本城学研台２丁目１０番７号,,40,109,8070807,,,,,,,2025-11-21,1,,,,,ワンダーリンケージ,0
2266,9330001033775,新規,0,2025-11-21,2025-11-21,株式会社優栄建設,,株式会社,熊本県,熊本市中央区,黒髪７丁目５６９番地黒髪ハイツ２（２０１号）,,43,101,8600862,,,,,,,2025-11-21,1,,,,,ユウエイケンセツ,0
2269,9340001027801,新規,0,2025-11-21,2025-11-21,株式会社豆だらけ,,株式会社,鹿児島県,鹿児島市,西千石町１１－２１－５Ｆ,,46,201,8920847,,,,,,,2025-11-21,1,,,,,マメダラケ,0
2273,9350001019814,新規,0,2025-11-21,2025-11-21,株式会社Ｋ＆Ｓアセットマネジメント,,株式会社,宮崎県,宮崎市,昭和町１９７番地,,45,201,8800874,,,,,,,2025-11-21,1,,,,,ケイアンドエスアセットマネジメント,0
2277,9360003015414,新規,0,2025-11-21,2025-11-21,合同会社樹ホーム,,合同会社,沖縄県,那覇市,壺川１丁目７－４,,47,201,9000025,,,,,,,2025-11-21,1,,,,,イツキホーム,0
2291,9430001095715,新規,0,2025-11-21,2025-11-21,株式会社みらいアシスト,,株式会社,北海道,札幌市豊平区,平岸三条７丁目６番１号,,01,105,0620933,,,,,,,2025-11-21,1,,,,,,0
2299,9700150133009,新規,0,2025-11-21,2025-11-21,ｇｕａｎｇｚｈｏｕ　ｎａｉｓｈｉ　ｄｉａｎｃｈｉｋｅｊｉｙｏｕｘｉａｎｇｏｎｇｓｉ,,外国会社等,,,,,,,,ｇｕａｎｇｚｈｏｕｓｈｉ，ｐａｎｙｕｑｕｓｈａｗａｎｊｉｅｇａｎｇｘｉｎｌｕ３３ｈａｏ,,,,,,2025-11-21,1,,,,,コウシュウナイシデンチカギユウゲンコウシ,0
