sequenceNumber,corporateNumber,process,correct,updateDate,changeDate,name,nameImageId,kind,prefectureName,cityName,streetNumber,addressImageId,prefectureCode,cityCode,postCode,addressOutside,addressOutsideImageId,closeDate,closeCause,successorCorporateNumber,changeCause,assignmentDate,latest,enName,enPrefectureName,enCityName,enAddressOutside,furigana,hihyoji
24,1010901043525,登記記録の閉鎖等,0,2023-12-08,2023-12-01,株式会社トライストーン・ピクチャーズ,,株式会社,東京都,世田谷区,三軒茶屋２丁目１１番２３号,,13,112,1540024,,,2023-12-01,合併による解散等,9010901008611,令和５年１２月１日東京都世田谷区三軒茶屋二丁目１１番２２号株式会社トライストーン・エンタテイメント（9010901008611）に合併し解散,2019-01-22,1,,,,,トライストーンピクチャーズ,0
28,1011001072811,登記記録の閉鎖等,0,2023-12-08,2023-12-06,株式会社ロコロニー,,株式会社,東京都,渋谷区,富ヶ谷２丁目３０番９号,,13,113,1510063,,,2023-12-06,清算の結了等,,,2015-10-05,1,,,,,,0
31,1011001150170,登記記録の閉鎖等,0,2023-12-08,2023-12-01,サンドーホールディングス株式会社,,株式会社,東京都,渋谷区,神宮前６丁目１６番１９号,,13,113,1500001,,,2023-12-01,合併による解散等,3011001009183,令和５年１２月１日東京都渋谷区神宮前六丁目１６番１９号サンドー株式会社（3011001009183）に合併し解散,2022-10-18,1,,,,,サンドーホールディングス,0
55,1011302012037,登記記録の閉鎖等,0,2023-12-08,2023-11-30,有限会社小林設計室,,有限会社,東京都,杉並区,西荻北３丁目１５番３号,,13,115,1670042,,,2023-11-30,清算の結了等,,,2015-10-05,1,,,,,コバヤシセッケイシツ,0
61,1011503005748,登記記録の閉鎖等,0,2023-12-08,2023-12-04,アリガトール合同会社,,合同会社,東京都,北区,上中里１丁目９番６号,,13,117,1140016,,,2023-12-04,清算の結了等,,,2023-09-05,1,,,,,アリガトール,0
63,1011602003116,登記記録の閉鎖等,0,2023-12-08,2023-12-04,有限会社清野工業所,,有限会社,東京都,練馬区,平和台２丁目２８番５号,,13,120,1790083,,,2023-12-04,清算の結了等,,,2015-10-05,1,,,,,キヨノコウギョウショ,0
100,1021001051863,登記記録の閉鎖等,0,2023-12-08,2023-12-05,株式会社ミカワ,,株式会社,神奈川県,愛甲郡愛川町,三増５０８番地,,14,401,2430308,,,2023-12-05,清算の結了等,,,2015-10-05,1,,,,,ミカワ,0
102,1021001069055,登記記録の閉鎖等,0,2023-12-08,2023-12-05,株式会社アマダＡＩイノベーション研究所,,株式会社,神奈川県,伊勢原市,石田２００番地,,14,214,2591116,,,2023-12-05,清算の結了等,,,2020-01-21,1,,,,,アマダエイアイイノベーションケンキュウショ,0
117,1030002000829,登記記録の閉鎖等,0,2023-12-08,2023-12-05,有限会社あづま路,,有限会社,埼玉県,さいたま市大宮区,北袋町２丁目２４１番地３,,11,103,3300835,,,2023-12-05,清算の結了等,,,2015-10-05,1,,,,,アヅマジ,0
119,1030002039784,登記記録の閉鎖等,0,2023-12-08,2023-11-30,有限会社プリンテツク,,有限会社,埼玉県,幸手市,緑台１丁目３９番１１号,,11,240,3400151,,,2023-11-30,清算の結了等,,,2015-10-05,1,,,,,プリンテツク,0
125,1040001125915,登記記録の閉鎖等,0,2023-12-08,2023-12-04,株式会社ＮＩＫＵＭＩ,,株式会社,千葉県,柏市,中央１丁目４－１７小宮第三ビル２０１号,,12,217,2770023,,,2023-12-04,清算の結了等,,,2022-11-21,1,,,,,ニクミ,0
140,1080102017099,登記記録の閉鎖等,0,2023-12-08,2023-12-06,有限会社ノザワ,,有限会社,静岡県,富士宮市,中原町１０１番地,,22,207,4180002,,,2023-12-06,清算の結了等,,,2015-10-05,1,,,,,ノザワ,0
141,1080401003543,登記記録の閉鎖等,0,2023-12-08,2023-12-05,東和機工株式会社,,株式会社,静岡県,浜松市中区,葵西３丁目１６番１７号,,22,131,4338111,,,2023-12-05,清算の結了等,,,2015-10-05,1,,,,,トウワキコウ,0
142,1080402004227,登記記録の閉鎖等,0,2023-12-08,2023-12-06,有限会社鈴木ガラス店,,有限会社,静岡県,浜松市中区,三組町２８番地の７３,,22,131,4328017,,,2023-12-06,清算の結了等,,,2015-10-05,1,,,,,スズキガラステン,0
145,1090002014344,登記記録の閉鎖等,0,2023-12-08,2023-12-07,有限会社八ヶ岳新聞センター,,有限会社,山梨県,北杜市,小淵沢町１９９７番地の１,,19,209,4080044,,,2023-12-07,清算の結了等,,,2015-10-05,1,,,,,ヤツガタケシンブンセンター,0
153,1110001010812,登記記録の閉鎖等,0,2023-12-08,2023-12-05,株式会社バード・アイズ,,株式会社,新潟県,新潟市西区,東青山１丁目６番３号,,15,107,9502003,,,2023-12-05,清算の結了等,,,2015-10-05,1,,,,,バードアイズ,0
160,1120001185967,登記記録の閉鎖等,0,2023-12-08,2023-12-07,株式会社ビーワールド,,株式会社,大阪府,大阪市港区,波除３丁目９番８号,,27,107,5520001,,,2023-12-07,清算の結了等,,,2015-10-05,1,,,,,ビーワールド,0
170,1120002015082,登記記録の閉鎖等,0,2023-12-08,2023-12-04,有限会社丸徳商事,,有限会社,大阪府,大阪市大正区,北恩加島１丁目１２番６号,,27,108,5510033,,,2023-12-04,清算の結了等,,,2015-10-05,1,,,,,マルトクショウジ,0
177,1120902017161,登記記録の閉鎖等,0,2023-12-08,2023-12-04,マーズインターナショナル有限会社,,有限会社,大阪府,箕面市,船場西１丁目７番１８号ルネ桜楓館千里中央１５１１号,,27,220,5620036,,,2023-12-04,清算の結了等,,,2015-10-05,1,,,,,マーズインターナショナル,0
181,1130001017987,登記記録の閉鎖等,0,2023-12-08,2023-12-04,田中株式会社,,株式会社,京都府,京都市北区,西賀茂北川上町６７番地,,26,101,6038816,,,2023-12-04,清算の結了等,,,2015-10-05,1,,,,,タナカ,0
196,1180002067449,登記記録の閉鎖等,0,2023-12-08,2023-12-04,有限会社みのり,,有限会社,愛知県,春日井市,松本町２丁目８番地の１０,,23,206,4870027,,,2023-12-04,清算の結了等,,,2015-10-05,1,,,,,ミノリ,0
197,1180301034406,登記記録の閉鎖等,0,2023-12-08,2023-12-05,株式会社フラット,,株式会社,愛知県,岡崎市,福岡町字下西野１１４番地１,,23,202,4440825,,,2023-12-05,清算の結了等,,,2020-12-11,1,,,,,フラット,0
202,1230002004280,登記記録の閉鎖等,0,2023-12-08,2023-12-07,有限会社オシダエクスワーク,,有限会社,富山県,富山市,水橋辻ヶ堂１３８３番地,00079050,16,201,9393515,,,2023-12-07,清算の結了等,,,2015-10-05,1,,,,,オシダエクスワーク,0
220,1300001004720,登記記録の閉鎖等,0,2023-12-08,2023-12-05,株式会社第一設計建築事務所,,株式会社,佐賀県,嬉野市,嬉野町大字下宿乙４９６番地,,41,209,8430301,,,2023-12-05,清算の結了等,,,2015-10-05,1,,,,,ダイイチセッケイケンチクジムショ,0
231,1370002012138,登記記録の閉鎖等,0,2023-12-08,2023-12-05,有限会社タイエー興産,,有限会社,宮城県,仙台市青葉区,二日町１１番１１号,,04,101,9800802,,,2023-12-05,清算の結了等,,,2015-10-05,1,,,,,タイエーコウサン,0
238,1420001009328,登記記録の閉鎖等,0,2023-12-08,2023-12-04,日本フード産業株式会社,,株式会社,青森県,弘前市,大字中野２丁目３番地１,,02,202,0368155,,,2023-12-04,清算の結了等,,,2015-10-05,1,,,,,ニホンフードサンギョウ,0
267,2010002000276,登記記録の閉鎖等,0,2023-12-08,2023-12-04,シナリーラリカ有限会社,,有限会社,東京都,文京区,千駄木３丁目４８番２号,,13,105,1130022,,,2023-12-04,清算の結了等,,,2015-10-05,1,,,,,シナリーラリカ,0
268,2010002003064,登記記録の閉鎖等,0,2023-12-08,2023-12-05,有限会社秋耕社,,有限会社,東京都,文京区,本郷２丁目２２番２号,,13,105,1130033,,,2023-12-05,清算の結了等,,,2015-10-05,1,,,,,シュウコウシャ,0
272,2010005013449,登記記録の閉鎖等,0,2023-12-08,2023-12-05,Ｓｔ．Ｍａｒｔｉｎｓ　Ａｒｘ　Ｔｏｗｅｒ特定目的会社,,その他の設立登記法人,東京都,千代田区,丸の内３丁目１番１号東京共同会計事務所内,,13,101,1000005,,,2023-12-05,清算の結了等,,,2015-10-05,1,,,,,セントマーティンズアルクスタワー,0
278,2010401126102,登記記録の閉鎖等,0,2023-12-08,2023-12-04,アサノ・アンド・カンパニー株式会社,,株式会社,東京都,港区,元赤坂１丁目７番２２号元赤坂タワーズ８０２,,13,103,1070051,,,2023-12-04,清算の結了等,,,2016-07-27,1,,,,,アサノアンドカンパニー,0
294,2010901025209,登記記録の閉鎖等,0,2023-12-08,2023-12-05,株式会社ケイファクトリー,,株式会社,東京都,世田谷区,北烏山３丁目１３番２３号,,13,112,1570061,,,2023-12-05,清算の結了等,,,2015-10-05,1,,,,,ケイファクトリー,0
320,2011301025451,登記記録の閉鎖等,0,2023-12-08,2023-12-07,株式会社ＫＴＯ,,株式会社,岐阜県,中津川市,手賀野１５９番地の１２,,21,206,5080015,,,2023-12-07,清算の結了等,,,2019-10-23,1,,,,,ケイティオー,0
321,2011302005114,登記記録の閉鎖等,0,2023-12-08,2023-11-30,有限会社スペース・ティ,,有限会社,東京都,杉並区,成田西２丁目５番１９号,,13,115,1660016,,,2023-11-30,清算の結了等,,,2015-10-05,1,,,,,スペースティ,0
328,2011701012611,登記記録の閉鎖等,0,2023-12-08,2023-12-04,株式会社アイ・フロッグ,,株式会社,千葉県,松戸市,高塚新田６１８番地の７０,,12,207,2702222,,,2023-12-04,清算の結了等,,,2015-10-05,1,,,,,アイフロッグ,0
340,2012401022272,登記記録の閉鎖等,0,2023-12-08,2023-12-04,株式会社プロ・ブレーン,,株式会社,東京都,小金井市,前原町２丁目１２番１３号,,13,210,1840013,,,2023-12-04,清算の結了等,,,2015-10-05,1,,,,,,0
345,2012802001338,登記記録の閉鎖等,0,2023-12-08,2023-12-05,有限会社多摩機工,,有限会社,東京都,立川市,羽衣町３丁目１９番３号,,13,202,1900021,,,2023-12-05,清算の結了等,,,2015-10-05,1,,,,,タマキコウ,0
350,2013301034969,登記記録の閉鎖等,0,2023-12-08,2023-12-01,株式会社赤羽観光,,株式会社,東京都,北区,赤羽南１丁目８番１号,,13,117,1150044,,,2023-12-01,清算の結了等,,,2015-10-05,1,,,,,アカバネカンコウ,0
367,2020002010704,登記記録の閉鎖等,0,2023-12-08,2023-12-04,有限会社マルキュウ,,有限会社,神奈川県,横浜市磯子区,原町１２番４号,,14,107,2350008,,,2023-12-04,清算の結了等,,,2015-10-05,1,,,,,マルキュウ,0
380,2021002010396,登記記録の閉鎖等,0,2023-12-08,2023-12-06,有限会社大阪屋,,有限会社,神奈川県,茅ヶ崎市,東海岸南１丁目９番１号,,14,207,2530054,,,2023-12-06,清算の結了等,,,2015-10-05,1,,,,,オオサカヤ,0
402,2040002057669,登記記録の閉鎖等,0,2023-12-08,2023-12-04,有限会社東葉商事,,有限会社,千葉県,印西市,滝３５２番地,,12,231,2702328,,,2023-12-04,清算の結了等,,,2015-10-05,1,,,,,トウヨウショウジ,0
409,2060002039260,登記記録の閉鎖等,0,2023-12-08,2023-12-01,有限会社寺内食料品店,,有限会社,栃木県,佐野市,若松町８３番地,,09,204,3270846,,,2023-12-01,清算の結了等,,,2015-10-05,1,,,,,テラウチショクリョウヒンテン,0
411,2080102003206,登記記録の閉鎖等,0,2023-12-08,2023-12-06,有限会社ベル環境サービス,,有限会社,静岡県,沼津市,下香貫牛臥３０３３番地の６,,22,203,4100822,,,2023-12-06,清算の結了等,,,2015-10-05,1,,,,,ベルカンキョウサービス,0
412,2080405000412,登記記録の閉鎖等,0,2023-12-08,2023-12-04,協同組合アクアテクロップ,,その他の設立登記法人,静岡県,浜松市中区,中沢町７１番２３号,,22,131,4300904,,,2023-12-04,清算の結了等,,,2015-10-05,1,,,,,アクアテクロップ,0
419,2110001030504,登記記録の閉鎖等,0,2023-12-08,2023-12-01,株式会社エストマゴ,,株式会社,新潟県,長岡市,亀貝町４６８番地,,15,202,9400884,,,2023-12-01,合併による解散等,3110001025759,令和５年１２月１日新潟県長岡市亀貝町４６８番地株式会社ＢＥＬＬＳＯＦＴ（3110001025759）に合併し解散,2015-10-05,1,,,,,エストマゴ,0
443,2120005014072,登記記録の閉鎖等,0,2023-12-08,2023-12-06,医療法人愛香会,,その他の設立登記法人,大阪府,大阪市城東区,鴫野東２丁目６番７号,,27,118,5360013,,,2023-12-06,清算の結了等,,,2015-10-05,1,,,,,アイコウカイ,0
467,2140001062338,登記記録の閉鎖等,0,2023-12-08,2023-12-01,株式会社ルブラン,,株式会社,兵庫県,姫路市,伊伝居４２番地の１,,28,201,6700871,,,2023-12-01,合併による解散等,4140001059910,令和５年１２月１日兵庫県姫路市伊伝居３７番地の４株式会社高倉商店（4140001059910）に合併し解散,2015-10-05,1,,,,,ルブラン,0
477,2160005005695,登記記録の閉鎖等,0,2023-12-08,2023-12-04,ＮＰＯ法人憩いの里,,その他の設立登記法人,滋賀県,愛知郡愛荘町,蚊野１６９７番地１,,25,425,5291206,,,2023-12-04,清算の結了等,,,2015-10-05,1,,,,,イコイノサト,0
478,2180001079287,登記記録の閉鎖等,0,2023-12-08,2023-12-04,株式会社丸邦酒井製陶所,,株式会社,愛知県,瀬戸市,上陣屋町１２番地,,23,204,4890063,,,2023-12-04,清算の結了等,,,2015-10-05,1,,,,,マルホウサカイセイトウジョ,0
497,2220002011070,登記記録の閉鎖等,0,2023-12-08,2023-12-05,有限会社ビジネスホテル大地,,有限会社,石川県,小松市,白江町ホ２３番地１,,17,203,9230811,,,2023-12-05,清算の結了等,,,2015-10-05,1,,,,,ビジネスホテルダイチ,0
502,2240001055455,登記記録の閉鎖等,0,2023-12-08,2023-12-01,株式会社ふじとう,,株式会社,広島県,東広島市,西条町御薗宇６４７１番地,,34,212,7390024,,,2023-12-01,合併による解散等,1240001047825,令和５年１２月１日広島市西区中広町二丁目２０番１０号株式会社Ｔｈｅｒａｐｉｓｔ　ｐｌａｎｅｔ（1240001047825）に合併し解散,2020-01-06,1,,,,,フジトウ,0
503,2250001004840,登記記録の閉鎖等,0,2023-12-08,2023-12-04,株式会社エコハウス,,株式会社,山口県,宇部市,恩田町３丁目３番４０号,,35,202,7550023,,,2023-12-04,合併による解散等,8250001008200,令和５年１２月１日山口県山口市黒川字矢口４００番地１株式会社田村ビルズ（8250001008200）に合併し解散,2015-10-05,1,,,,,エコハウス,0
511,2290001079334,登記記録の閉鎖等,0,2023-12-08,2023-12-01,株式会社イノセント,,株式会社,福岡県,福岡市中央区,春吉３丁目２１番１８－１００４号,,40,133,8100003,,,2023-12-01,清算の結了等,,,2017-10-13,1,,,,,イノセント,0
518,2290801009218,登記記録の閉鎖等,0,2023-12-08,2023-12-05,昭南木材産業株式会社,,株式会社,福岡県,北九州市八幡東区,西本町１丁目１２番１３号,,40,108,8050061,,,2023-12-05,清算の結了等,,,2015-10-05,1,,,,,ショウナンモクザイサンギョウ,0
519,2290801012493,登記記録の閉鎖等,0,2023-12-08,2023-12-06,株式会社タチバナ,,株式会社,福岡県,北九州市八幡西区,洞北町３番１５号,,40,109,8070811,,,2023-12-06,清算の結了等,,,2015-10-05,1,,,,,タチバナ,0
531,2360003011378,登記記録の閉鎖等,0,2023-12-08,2023-12-06,合同会社３９清掃,,合同会社,沖縄県,沖縄市,室川２丁目３３番７４号メゾン室川３０３号室,,47,211,9040013,,,2023-12-06,清算の結了等,,,2021-08-18,1,,,,,サンキュウセイソウ,0
536,2370002005553,登記記録の閉鎖等,0,2023-12-08,2023-12-01,有限会社千葉印行社,,有限会社,宮城県,仙台市若林区,弓ノ町２６番地,,04,103,9840062,,,2023-12-01,合併による解散等,3370001000463,令和５年１２月１日仙台市宮城野区松岡町８１番地３いづみぷらん株式会社（3370001000463）に合併し解散,2015-10-05,1,,,,,チバインコウシャ,0
545,2400005002998,登記記録の閉鎖等,0,2023-12-08,2023-12-01,花巻機械金属工業団地協同組合,,その他の設立登記法人,岩手県,花巻市,東十二丁目第１９地割１０番地８,,03,205,0250015,,,2023-12-01,清算の結了等,,,2015-10-05,1,,,,,ハナマキキカイキンゾクコウギョウダンチ,0
546,2430001069188,登記記録の閉鎖等,0,2023-12-08,2023-12-04,株式会社バンドワゴン,,株式会社,北海道,札幌市中央区,南二条西９丁目１番地１－２０４,,01,101,0600062,,,2023-12-04,清算の結了等,,,2015-10-05,1,,,,,バンドワゴン,0
549,2430003000745,登記記録の閉鎖等,0,2023-12-08,2023-12-04,合資会社パララックス,,合資会社,北海道,札幌市白石区,菊水三条１丁目８番２２号,,01,104,0030803,,,2023-12-04,清算の結了等,,,2015-10-05,1,,,,,パララックス,0
553,2430003007492,登記記録の閉鎖等,0,2023-12-08,2023-12-04,合同会社ＴＫプロジェクト,,合同会社,北海道,石狩市,花川南二条３丁目１８５,,01,235,0613202,,,2023-12-04,清算の結了等,,,2016-04-07,1,,,,,ティケィプロジェクト,0
621,3011103005667,登記記録の閉鎖等,0,2023-12-08,2023-12-05,合同会社日比谷,,合同会社,東京都,新宿区,新宿１丁目３番８号ＹＫＢ新宿御苑ビル４Ｆ,,13,104,1600022,,,2023-12-05,清算の結了等,,,2015-10-05,1,,,,,ヒビヤ,0
623,3011103012399,登記記録の閉鎖等,0,2023-12-08,2023-12-01,合同会社Ｓｕｔｅｒａ　Ｇｒｏｕｐ,,合同会社,東京都,新宿区,西新宿３丁目３番－１３号西新宿水間ビル６階,,13,104,1600023,,,2023-12-01,清算の結了等,,,2022-11-18,1,,,,,ステラグループ,0
632,3011303004428,登記記録の閉鎖等,0,2023-12-08,2023-12-01,ＪＵＮＥ合同会社,,合同会社,東京都,杉並区,和泉２丁目２４番３号,,13,115,1680063,,,2023-12-01,清算の結了等,,,2022-06-06,1,,,,,ジューン,0
633,3011402010665,登記記録の閉鎖等,0,2023-12-08,2023-12-06,有限会社ケーアンドビーエス,,有限会社,東京都,板橋区,南常盤台１丁目３１番１６号,,13,119,1740072,,,2023-12-06,清算の結了等,,,2015-10-05,1,,,,,,0
634,3011501005500,登記記録の閉鎖等,0,2023-12-08,2023-11-30,板垣プレス工業株式会社,,株式会社,東京都,荒川区,荒川５丁目４０番１１号,,13,118,1160002,,,2023-11-30,清算の結了等,,,2015-10-05,1,,,,,イタガキプレスコウギョウ,0
668,3021002043338,登記記録の閉鎖等,0,2023-12-08,2023-12-06,有限会社一美製作所,,有限会社,神奈川県,座間市,小松原２丁目４７番３６号,,14,216,2520002,,,2023-12-06,清算の結了等,,,2015-10-05,1,,,,,カズミセイサクジョ,0
681,3030001146043,登記記録の閉鎖等,0,2023-12-08,2023-12-04,株式会社ＣＡＭＥＬ,,株式会社,埼玉県,川越市,稲荷町１７番地４エマーユ稲荷町３０７号室,,11,201,3501144,,,2023-12-04,清算の結了等,,,2021-12-27,1,,,,,キャメル,0
684,3030002041350,登記記録の閉鎖等,0,2023-12-08,2023-12-04,有限会社野村瓦工事,,有限会社,埼玉県,加須市,北篠崎１７８２番地,,11,210,3470013,,,2023-12-04,清算の結了等,,,2015-10-05,1,,,,,,0
692,3030003011996,登記記録の閉鎖等,0,2023-12-08,2023-11-30,合同会社Ｇｒａｎｔ　Ｇｅｒｍｅｒ,,合同会社,埼玉県,久喜市,東大輪３２７番地８,,11,232,3400202,,,2023-11-30,清算の結了等,,,2018-06-06,1,,,,,グラントジェルメ,0
694,3040002060102,登記記録の閉鎖等,0,2023-12-08,2023-12-01,有限会社ムクティ,,有限会社,静岡県,静岡市葵区,田町２丁目８０番地２,,22,101,4200068,,,2023-12-01,清算の結了等,,,2015-10-05,1,,,,,ムクティ,0
696,3040002100519,登記記録の閉鎖等,0,2023-12-08,2023-12-01,有限会社山口工業,,有限会社,千葉県,南房総市,千倉町北朝夷１３７５番地,,12,234,2950011,,,2023-12-01,清算の結了等,,,2015-10-05,1,,,,,ヤマグチコウギョウ,0
713,3110001032846,登記記録の閉鎖等,0,2023-12-08,2023-12-06,株式会社杏,,株式会社,新潟県,新潟市中央区,堀之内南１丁目１６番５２号,,15,103,9500982,,,2023-12-06,清算の結了等,,,2017-12-01,1,,,,,アンズ,0
723,3120002006187,登記記録の閉鎖等,0,2023-12-08,2023-12-05,有限会社マスダ,,有限会社,大阪府,大阪市東住吉区,今川２丁目１番３号,,27,121,5460003,,,2023-12-05,清算の結了等,,,2015-10-05,1,,,,,マスダ,0
759,3150005009226,登記記録の閉鎖等,0,2023-12-08,2023-12-07,一般社団法人ＣＨＩＳＯＵ,,その他の設立登記法人,奈良県,奈良市,三条町５６１番地の８,,29,201,6308244,,,2023-12-07,清算の結了等,,,2020-10-23,1,,,,,チソウ,0
766,3180001090648,登記記録の閉鎖等,0,2023-12-08,2023-12-06,カチ不動産株式会社,,株式会社,愛知県,名古屋市中区,千代田３丁目４番６号,,23,106,4600012,,,2023-12-06,清算の結了等,,,2015-10-05,1,,,,,カチフドウサン,0
788,3240002037096,登記記録の閉鎖等,0,2023-12-08,2023-12-04,有限会社ケーエム木工,,有限会社,広島県,廿日市市,友田２８４番地の４,,34,213,7380203,,,2023-12-04,清算の結了等,,,2015-10-05,1,,,,,ケーエムモッコウ,0
789,3240005005224,登記記録の閉鎖等,0,2023-12-08,2023-12-04,医療法人社団こぶし会田中診療所,,その他の設立登記法人,広島県,庄原市,比和町比和７８８番地,,34,210,7270301,,,2023-12-04,清算の結了等,,,2015-10-05,1,,,,,コブシカイタナカシンリョウショ,0
810,3330001000442,登記記録の閉鎖等,0,2023-12-08,2023-12-01,株式会社ユーアイ,,株式会社,熊本県,熊本市中央区,九品寺２丁目３番７号,,43,101,8620976,,,2023-12-01,合併による解散等,2330002001143,令和５年１２月１日熊本市中央区九品寺二丁目３番７号株式会社牛島商事（2330002001143）に合併し解散,2015-10-05,1,,,,,ユーアイ,0
812,3330002005424,登記記録の閉鎖等,0,2023-12-08,2023-12-06,有限会社弘毅産業,,有限会社,熊本県,熊本市中央区,南熊本４丁目５番１５号,,43,101,8600812,,,2023-12-06,清算の結了等,,,2015-10-05,1,,,,,コウキサンギョウ,0
816,3340002020042,登記記録の閉鎖等,0,2023-12-08,2023-12-01,有限会社武芳商事,,有限会社,鹿児島県,大島郡徳之島町,亀津字大船町７６５８番地,,46,530,8917101,,,2023-12-01,合併による解散等,8340002020087,令和５年１２月１日鹿児島県大島郡天城町天城２６５０番地の１５株式会社トクダ（8340002020087）に合併し解散,2015-10-05,1,,,,,タケヨシショウジ,0
818,3360001015371,登記記録の閉鎖等,0,2023-12-08,2023-12-05,株式会社善,,株式会社,沖縄県,豊見城市,宜保４丁目７番地１３,,47,212,9010244,,,2023-12-05,清算の結了等,,,2015-10-05,1,,,,,ゼン,0
838,3480005006520,登記記録の閉鎖等,0,2023-12-08,2023-12-05,ＮＰＯ法人ＡＷＡ　ＰＲＯＪＥＣＴ,,その他の設立登記法人,徳島県,徳島市,西新町４丁目２１番地,,36,201,7700902,,,2023-12-05,清算の結了等,,,2016-10-27,1,,,,,アワプロジェクト,0
871,4010701004063,登記記録の閉鎖等,0,2023-12-08,2023-12-06,株式会社品川タイヤ商会,,株式会社,東京都,品川区,豊町６丁目２５番１６号,,13,109,1420042,,,2023-12-06,清算の結了等,,,2015-10-05,1,,,,,シナガワタイヤショウカイ,0
880,4010802011330,登記記録の閉鎖等,0,2023-12-08,2023-12-05,バイコープジャパン有限会社,,有限会社,東京都,大田区,南馬込２丁目２４番１２号,,13,111,1430025,,,2023-12-05,清算の結了等,,,2015-10-05,1,,,,,バイコープジャパン,0
881,4010901049016,登記記録の閉鎖等,0,2023-12-08,2023-12-01,株式会社ＡＰＯＬＬＯ,,株式会社,東京都,世田谷区,桜丘５丁目４７番２０号桜丘リーダースマンション５０１号,,13,112,1560054,,,2023-12-01,清算の結了等,,,2021-07-06,1,,,,,アポロ,0
905,4012401004863,登記記録の閉鎖等,0,2023-12-08,2023-12-04,株式会社明工社,,株式会社,東京都,府中市,朝日町２丁目２７番地の１５,,13,206,1830003,,,2023-12-04,清算の結了等,,,2015-10-05,1,,,,,メイコウシャ,0
908,4012402000052,登記記録の閉鎖等,0,2023-12-08,2023-12-04,有限会社アーク,,有限会社,東京都,調布市,西つつじケ丘１丁目２番地２,,13,208,1820006,,,2023-12-04,清算の結了等,,,2015-10-05,1,,,,,アーク,0
922,4020002052298,登記記録の閉鎖等,0,2023-12-08,2023-12-04,有限会社セイコー,,有限会社,神奈川県,横浜市瀬谷区,阿久和西４丁目２番地２４,,14,114,2460025,,,2023-12-04,清算の結了等,,,2015-10-05,1,,,,,セイコー,0
940,4030002034238,登記記録の閉鎖等,0,2023-12-08,2023-12-01,有限会社畠山住宅,,有限会社,埼玉県,狭山市,大字青柳１６７３番地の１６,,11,215,3501301,,,2023-12-01,清算の結了等,,,2015-10-05,1,,,,,ハタケヤマジュウタク,0
944,4030002041424,登記記録の閉鎖等,0,2023-12-08,2023-12-04,有限会社保健衛生研究所,,有限会社,埼玉県,加須市,岡古井１８６番地の１,,11,210,3470058,,,2023-12-04,清算の結了等,,,2015-10-05,1,,,,,ホケンエイセイケンキュウジョ,0
945,4030002072493,登記記録の閉鎖等,0,2023-12-08,2023-12-01,有限会社エヌアンドシーインコーポレーション,,有限会社,埼玉県,川越市,南台３丁目７番地１９,,11,201,3501165,,,2023-12-01,清算の結了等,,,2015-10-05,1,,,,,エヌアンドシーインコーポレーション,0
951,4040001075463,登記記録の閉鎖等,0,2023-12-08,2023-12-04,株式会社Ｋｅｅｎ’ｓ,,株式会社,千葉県,いすみ市,岬町中原３８４５番地１,,12,238,2994502,,,2023-12-04,清算の結了等,,,2015-10-05,1,,,,,キーンズ,0
956,4040002041027,登記記録の閉鎖等,0,2023-12-08,2023-12-04,有限会社首都圏メンテナンスサービスマルタマ,,有限会社,千葉県,浦安市,海楽１丁目９番９号,,12,227,2790003,,,2023-12-04,清算の結了等,,,2015-10-05,1,,,,,シュトケンメンテナンスサービスマルタマ,0
962,4050001043898,登記記録の閉鎖等,0,2023-12-08,2023-12-05,株式会社ＡＫ　Ｂｒｏｔｈｅｒｓ福祉センター,,株式会社,茨城県,高萩市,春日町２丁目３５番地,,08,214,3180031,,,2023-12-05,清算の結了等,,,2018-01-17,1,,,,,エーケーブラザーズフクシセンター,0
970,4080102011710,登記記録の閉鎖等,0,2023-12-08,2023-12-07,有限会社御園商事,,有限会社,静岡県,三島市,御園５０１番地,,22,206,4110823,,,2023-12-07,清算の結了等,,,2015-10-05,1,,,,,ミソノショウジ,0
998,4120002057700,登記記録の閉鎖等,0,2023-12-08,2023-12-05,有限会社パノラマ,,有限会社,大阪府,大阪市北区,天満２丁目１２番１７号イタニティ東天満９０２号,,27,127,5300043,,,2023-12-05,清算の結了等,,,2015-10-05,1,,,,,パノラマ,0
1001,4120005010400,登記記録の閉鎖等,0,2023-12-08,2023-12-07,税理士法人ＭＧアカウンティング,,その他の設立登記法人,大阪府,大阪市中央区,本町２丁目３番４－１０Ａ号,,27,128,5410053,,,2023-12-07,清算の結了等,,,2015-10-05,1,,,,,エムジーアカウンティング,0
1004,4120103001929,登記記録の閉鎖等,0,2023-12-08,2023-12-07,合同会社和心,,合同会社,大阪府,堺市中区,上之６６９番地１,,27,142,5998244,,,2023-12-07,清算の結了等,,,2015-10-05,1,,,,,,0
1015,4122001005879,登記記録の閉鎖等,0,2023-12-08,2023-12-05,株式会社ハイテックカワタ,,株式会社,大阪府,東大阪市,高井田西２丁目６番３号,,27,227,5770067,,,2023-12-05,清算の結了等,,,2015-10-05,1,,,,,ハイテックカワタ,0
1028,4140001059852,登記記録の閉鎖等,0,2023-12-08,2023-12-01,大裕商事株式会社,,株式会社,兵庫県,姫路市,伊伝居４２番地の１,,28,201,6700871,,,2023-12-01,合併による解散等,4140001059910,令和５年１２月１日兵庫県姫路市伊伝居３７番地の４株式会社高倉商店（4140001059910）に合併し解散,2015-10-05,1,,,,,ダイユウショウジ,0
1067,4260002014258,登記記録の閉鎖等,0,2023-12-08,2023-12-05,有限会社産経岡山販売,,有限会社,岡山県,岡山市北区,富田町２丁目５番１１号,,33,101,7000816,,,2023-12-05,清算の結了等,,,2015-10-05,1,,,,,サンケイオカヤマハンバイ,0
1072,4290001098729,登記記録の閉鎖等,0,2023-12-08,2023-11-30,株式会社スパイス＆ＳＰＩＣＥ,,株式会社,福岡県,春日市,春日原東町３丁目１４番地３０１号,,40,218,8160801,,,2023-11-30,清算の結了等,,,2022-08-30,1,,,,,スパイスアンドスパイス,0
1078,4290802005602,登記記録の閉鎖等,0,2023-12-08,2023-12-05,有限会社プランニングアイ,,有限会社,福岡県,北九州市小倉南区,徳力団地４５番３０８号,,40,107,8020975,,,2023-12-05,清算の結了等,,,2015-10-05,1,,,,,,0
1079,4290802021979,登記記録の閉鎖等,0,2023-12-08,2023-12-06,有限会社西日本工建,,有限会社,福岡県,築上郡上毛町,大字下唐原２１４８番地の１２３,,40,646,8710923,,,2023-12-06,清算の結了等,,,2015-10-05,1,,,,,ニシニホンコウケン,0
1081,4320002008724,登記記録の閉鎖等,0,2023-12-08,2023-12-07,有限会社サーフィン,,有限会社,大分県,大分市,大字羽田１０３３番地の３,,44,201,8700942,,,2023-12-07,清算の結了等,,,2015-10-05,1,,,,,サーフィン,0
1098,4420002001173,登記記録の閉鎖等,0,2023-12-08,2023-12-04,有限会社今田,,有限会社,青森県,青森市,新町１丁目３番２号ＡＭＣケアレジデンス,,02,201,0300801,,,2023-12-04,清算の結了等,,,2015-10-05,1,,,,,コンダ,0
1114,5010001019042,登記記録の閉鎖等,0,2023-12-08,2023-12-04,宍倉企業株式会社,,株式会社,東京都,千代田区,神田駿河台４丁目４番地ヘンミビル６階,,13,101,1010062,,,2023-12-04,清算の結了等,,,2015-10-05,1,,,,,シシクラキギョウ,0
1118,5010001047712,登記記録の閉鎖等,0,2023-12-08,2023-11-30,株式会社ストラップ,,株式会社,東京都,杉並区,善福寺３丁目２５番１号,,13,115,1670041,,,2023-11-30,清算の結了等,,,2015-10-05,1,,,,,,0
1127,5010003028322,登記記録の閉鎖等,0,2023-12-08,2023-12-04,ヒトラボ合同会社,,合同会社,東京都,中央区,銀座７丁目１３番６号サガミビル２階,,13,102,1040061,,,2023-12-04,清算の結了等,,,2018-09-20,1,,,,,ヒトラボ,0
1154,5010701027063,登記記録の閉鎖等,0,2023-12-08,2023-12-04,株式会社コンセプトゲート,,株式会社,東京都,港区,浜松町２丁目２番１５号浜松町ダイヤビル２Ｆ,,13,103,1050013,,,2023-12-04,清算の結了等,,,2015-10-05,1,,,,,コンセプトゲート,0
1156,5010801021750,登記記録の閉鎖等,0,2023-12-08,2023-12-06,株式会社クラスジャパン学園,,株式会社,東京都,渋谷区,渋谷２丁目１４番１３号,,13,113,1500002,,,2023-12-06,清算の結了等,,,2015-10-05,1,,,,,,0
1161,5010901043307,登記記録の閉鎖等,0,2023-12-08,2023-12-01,株式会社トライストーン・ミュージック,,株式会社,東京都,世田谷区,三軒茶屋２丁目１１番２３号,,13,112,1540024,,,2023-12-01,合併による解散等,9010901008611,令和５年１２月１日東京都世田谷区三軒茶屋二丁目１１番２２号株式会社トライストーン・エンタテイメント（9010901008611）に合併し解散,2018-12-13,1,,,,,トライストーンミュージック,0
1162,5010902021666,登記記録の閉鎖等,0,2023-12-08,2023-12-06,有限会社石井,,有限会社,東京都,世田谷区,成城１丁目５番１６号,,13,112,1570066,,,2023-12-06,清算の結了等,,,2015-10-05,1,,,,,イシイ,0
1182,5011201010749,登記記録の閉鎖等,0,2023-12-08,2023-12-07,株式会社未来エステート,,株式会社,東京都,中野区,新井２丁目７番１０号,,13,114,1650026,,,2023-12-07,清算の結了等,,,2015-10-05,1,,,,,ミライエステート,0
1186,5011303003816,登記記録の閉鎖等,0,2023-12-08,2023-11-30,アイアール企画合同会社,,合同会社,東京都,杉並区,高円寺北２丁目１１番１３号,,13,115,1660002,,,2023-11-30,清算の結了等,,,2020-11-13,1,,,,,,0
1189,5011501000516,登記記録の閉鎖等,0,2023-12-08,2023-11-30,株式会社上野屋,,株式会社,東京都,北区,滝野川１丁目６１番１２号,,13,117,1140023,,,2023-11-30,清算の結了等,,,2015-10-05,1,,,,,,0
1190,5011501017064,登記記録の閉鎖等,0,2023-12-08,2023-11-30,株式会社ＳＴ　ＷＡＬＫＥＲ,,株式会社,東京都,荒川区,町屋３丁目２番１号ライオンズプラザ町屋１１９,,13,118,1160001,,,2023-11-30,清算の結了等,,,2015-10-05,1,,,,,エスティーウォーカー,0
1193,5011601003674,登記記録の閉鎖等,0,2023-12-08,2023-12-04,株式会社セリエ,,株式会社,東京都,練馬区,豊玉上２丁目２１番１５－３０１号,,13,120,1760011,,,2023-12-04,清算の結了等,,,2015-10-05,1,,,,,,0
1195,5011602020355,登記記録の閉鎖等,0,2023-12-08,2023-12-06,有限会社黒澤工業,,有限会社,東京都,練馬区,中村３丁目３９番１３号シェルロイヤルマンションＢ－１０７,,13,120,1760024,,,2023-12-06,清算の結了等,,,2015-10-05,1,,,,,,0
1196,5011603003482,登記記録の閉鎖等,0,2023-12-08,2023-12-04,合同会社ＬＵＰＵＳ,,合同会社,東京都,練馬区,豊玉北６丁目５番３号ジョイフル練馬４０３号,,13,120,1760012,,,2023-12-04,清算の結了等,,,2021-12-24,1,,,,,ルプス,0
1208,5013201014473,登記記録の閉鎖等,0,2023-12-08,2023-12-01,サカモト・ダイテム精機株式会社,,株式会社,東京都,目黒区,目黒本町４丁目２０番６号,,13,110,1520002,,,2023-12-01,合併による解散等,4013201002280,令和５年１２月１日東京都目黒区目黒本町四丁目２０番６号サカモト・ダイテム株式会社（4013201002280）に合併し解散,2015-10-05,1,,,,,サカモトダイテムセイキ,0
1213,5020001027762,登記記録の閉鎖等,0,2023-12-08,2023-12-04,株式会社都市・地盤研究所,,株式会社,神奈川県,横浜市中区,豆口台１７４番地の２,,14,104,2310838,,,2023-12-04,清算の結了等,,,2015-10-05,1,,,,,トシジバンケンキュウジョ,0
1226,5021002054779,登記記録の閉鎖等,0,2023-12-08,2023-12-06,有限会社樹樹,,有限会社,神奈川県,南足柄市,塚原２６４７番地,,14,217,2500117,,,2023-12-06,清算の結了等,,,2015-10-05,1,,,,,ジュジュ,0
1238,5030002006789,登記記録の閉鎖等,0,2023-12-08,2023-12-05,有限会社ジン,,有限会社,埼玉県,さいたま市北区,吉野町２丁目２０５番地２７,,11,102,3310811,,,2023-12-05,清算の結了等,,,2015-10-05,1,,,,,ジン,0
1260,5050002032882,登記記録の閉鎖等,0,2023-12-08,2023-12-04,有限会社岡北茨城工場,,有限会社,茨城県,北茨城市,関南町神岡上字西側８３３番地,,08,215,3191714,,,2023-12-04,合併による解散等,9180302000647,令和５年１２月１日愛知県岡崎市東阿知和町字屋下８４番地株式会社岡北加工（9180302000647）に合併し解散,2015-10-05,1,,,,,,0
1266,5080102001504,登記記録の閉鎖等,0,2023-12-08,2023-12-07,有限会社サンドリヨン,,有限会社,静岡県,沼津市,沼北町１丁目４番１３号,,22,203,4100058,,,2023-12-07,清算の結了等,,,2015-10-05,1,,,,,サンドリヨン,0
1267,5080102021691,登記記録の閉鎖等,0,2023-12-08,2023-12-07,有限会社山光荘,,有限会社,静岡県,賀茂郡松崎町,松崎２８０番地,,22,305,4103611,,,2023-12-07,清算の結了等,,,2015-10-05,1,,,,,サンコウソウ,0
1273,5110001026020,登記記録の閉鎖等,0,2023-12-08,2023-12-04,フルフィール株式会社,,株式会社,東京都,豊島区,池袋２丁目４５番１号５Ｆ,,13,116,1710014,,,2023-12-04,清算の結了等,,,2015-10-05,1,,,,,フルフィール,0
1277,5120001019048,登記記録の閉鎖等,0,2023-12-08,2023-12-06,タイコー貿易株式会社,,株式会社,大阪府,大阪市生野区,桃谷１丁目１３番１７号,,27,116,5440034,,,2023-12-06,清算の結了等,,,2015-10-05,1,,,,,タイコーボウエキ,0
1290,5120005007263,登記記録の閉鎖等,0,2023-12-08,2023-12-06,日本釦服飾手芸卸協同組合連合会,,その他の設立登記法人,大阪府,大阪市中央区,南久宝寺町２丁目１番２号竹田ビル５階,,27,128,5410058,,,2023-12-06,清算の結了等,,,2015-10-05,1,,,,,ニホンボタンフクショクシュゲイオロシ,0
1307,5130001072995,登記記録の閉鎖等,0,2023-12-08,2023-12-05,Ｈｖａｌａ株式会社,,株式会社,京都府,相楽郡和束町,大字門前小字稲川６５ー１,,26,365,6191204,,,2023-12-05,清算の結了等,,,2022-11-07,1,,,,,ファラー,0
1310,5140001007439,登記記録の閉鎖等,0,2023-12-08,2023-12-06,株式会社クリップ,,株式会社,兵庫県,神戸市中央区,北長狭通７丁目１番２１号,,28,110,6500012,,,2023-12-06,合併による解散等,2120001070466,令和５年１２月１日大阪市中央区南船場二丁目１０番３０号株式会社毎日広告社（2120001070466）に合併し解散,2015-10-05,1,,,,,クリップ,0
1334,5230002013063,登記記録の閉鎖等,0,2023-12-08,2023-12-06,有限会社ひらい,,有限会社,富山県,氷見市,園９５２番地２,,16,205,9350041,,,2023-12-06,清算の結了等,,,2015-10-05,1,,,,,ヒライ,0
1345,5280002007226,登記記録の閉鎖等,0,2023-12-08,2023-12-06,有限会社原料理店,,有限会社,島根県,出雲市,平田町８９２番地８,,32,203,6910001,,,2023-12-06,清算の結了等,,,2015-10-05,1,,,,,ハラリョウリテン,0
1354,5290802007861,登記記録の閉鎖等,0,2023-12-08,2023-12-06,有限会社ナワチ,,有限会社,福岡県,北九州市小倉北区,泉台４丁目４番７号,,40,106,8030842,,,2023-12-06,清算の結了等,,,2015-10-05,1,,,,,ナワチ,0
1359,5340002016195,登記記録の閉鎖等,0,2023-12-08,2023-12-07,有限会社前田建設,,有限会社,鹿児島県,姶良市,西餅田３１８０番地２,00099418,46,225,8995431,,,2023-12-07,清算の結了等,,,2015-10-05,1,,,,,マエダケンセツ,0
1387,6010001004258,登記記録の閉鎖等,0,2023-12-08,2023-12-04,株式会社ゼロ,,株式会社,東京都,文京区,春日１丁目２－７－１０６,,13,105,1120003,,,2023-12-04,清算の結了等,,,2015-10-05,1,,,,,ゼロ,0
1392,6010001238905,登記記録の閉鎖等,0,2023-12-08,2023-12-01,Ｘｅｎａホールディングス株式会社,,株式会社,東京都,中央区,八丁堀４丁目１２番２０号,,13,102,1040032,,,2023-12-01,合併による解散等,2010001199820,令和５年１２月１日東京都中央区八丁堀四丁目１２番２０号株式会社Ｘｅｎａ（2010001199820）に合併し解散,2023-10-13,1,,,,,ジーナホールディングス,0
1397,6010005032486,登記記録の閉鎖等,0,2023-12-08,2023-12-04,一般社団法人新都心ホールディングス,,その他の設立登記法人,東京都,中央区,日本橋１丁目４番１号,,13,102,1030027,,,2023-12-04,清算の結了等,,,2020-11-04,1,,,,,シントシンホールディングス,0
1411,6010401172745,登記記録の閉鎖等,0,2023-12-08,2023-12-05,Ｍｉｎｉ　Ｂｉｌｌ株式会社,,株式会社,東京都,港区,三田１丁目２番１８号ＴＴＤビル,,13,103,1080073,,,2023-12-05,清算の結了等,,,2023-03-02,1,,,,,,0
1420,6010901008390,登記記録の閉鎖等,0,2023-12-08,2023-12-01,東波建設株式会社,,株式会社,東京都,世田谷区,池尻４丁目３４番２１号,,13,112,1540001,,,2023-12-01,清算の結了等,,,2015-10-05,1,,,,,トウハケンセツ,0
1434,6011101098941,登記記録の閉鎖等,0,2023-12-08,2023-12-01,智匯千路道橋株式会社,,株式会社,東京都,新宿区,新宿３丁目１２番４号新宿Ｎタウンプラザ３０９号,,13,104,1600022,,,2023-12-01,清算の結了等,,,2022-05-25,1,,,,,チカイセンロドウバシ,0
1440,6011301002686,登記記録の閉鎖等,0,2023-12-08,2023-11-30,株式会社サザンコーポレーション,,株式会社,東京都,杉並区,浜田山３丁目２５番２号,,13,115,1680065,,,2023-11-30,清算の結了等,,,2015-10-05,1,,,,,サザンコーポレーション,0
1442,6011301021463,登記記録の閉鎖等,0,2023-12-08,2023-11-30,グローバル・ビジネスソリューションズ株式会社,,株式会社,東京都,杉並区,松庵３丁目１６番９号,,13,115,1670054,,,2023-11-30,清算の結了等,,,2015-10-05,1,,,,,,0
1449,6011703002268,登記記録の閉鎖等,0,2023-12-08,2023-12-06,ワイズウッズ１４合同会社,,合同会社,東京都,江戸川区,東小岩３丁目７番１８号,,13,123,1330052,,,2023-12-06,清算の結了等,,,2019-05-23,1,,,,,ワイズウッズイチヨン,0
1470,6020002097606,登記記録の閉鎖等,0,2023-12-08,2023-12-04,有限会社末廣亭,00011644,有限会社,神奈川県,川崎市川崎区,浅田４丁目１０番１号,,14,131,2100847,,,2023-12-04,清算の結了等,,,2015-10-05,1,,,,,スエヒロテイ,0
1481,6030001109617,登記記録の閉鎖等,0,2023-12-08,2023-12-04,浦和倶楽部株式会社,,株式会社,埼玉県,さいたま市浦和区,高砂１丁目５番６号,,11,107,3300063,,,2023-12-04,清算の結了等,,,2015-10-05,1,,,,,ウラワクラブ,0
1483,6030001130457,登記記録の閉鎖等,0,2023-12-08,2023-12-01,岩槻建設株式会社,,株式会社,埼玉県,さいたま市岩槻区,大字長宮３２５番地,,11,110,3390011,,,2023-12-01,合併による解散等,5030001018216,令和５年１２月１日埼玉県さいたま市岩槻区大字飯塚１０００番地株式会社丸忠産業（5030001018216）に合併し解散,2019-04-18,1,,,,,イワツキケンセツ,0
1495,6040001069298,登記記録の閉鎖等,0,2023-12-08,2023-12-04,株式会社二組建設,,株式会社,千葉県,柏市,中央２丁目１５番８号,,12,217,2770023,,,2023-12-04,清算の結了等,,,2015-10-05,1,,,,,ニクミケンセツ,0
1496,6040001079867,登記記録の閉鎖等,0,2023-12-08,2023-12-01,株式会社おく,,株式会社,千葉県,柏市,戸張１５７０番地１０,,12,217,2770008,,,2023-12-01,清算の結了等,,,2015-10-05,1,,,,,オク,0
1504,6040002025127,登記記録の閉鎖等,0,2023-12-08,2023-12-04,有限会社平楽会館,,有限会社,千葉県,船橋市,習志野台２丁目６番３号,,12,204,2740063,,,2023-12-04,清算の結了等,,,2015-10-05,1,,,,,ヘイラクカイカン,0
1518,6060002030414,登記記録の閉鎖等,0,2023-12-08,2023-12-06,有限会社ＧＲＡＮＤ　Ｗｉｔｈ,,有限会社,栃木県,下野市,祇園１丁目２３番１,00024688,09,216,3290434,,,2023-12-06,清算の結了等,,,2015-10-05,1,,,,,グランドウィズ,0
1520,6070002011347,登記記録の閉鎖等,0,2023-12-08,2023-12-05,有限会社七二八精機,,有限会社,群馬県,高崎市,吉井町多比良４８１番地２,,10,202,3702115,,,2023-12-05,清算の結了等,,,2015-10-05,1,,,,,ナニワセイキ,0
1525,6090002013572,登記記録の閉鎖等,0,2023-12-08,2023-12-06,有限会社技研工業,,有限会社,山梨県,北杜市,白州町上教来石２０３番地,,19,209,4080318,,,2023-12-06,清算の結了等,,,2015-10-05,1,,,,,,0
1529,6100002019535,登記記録の閉鎖等,0,2023-12-08,2023-12-01,有限会社岡村,,有限会社,長野県,松本市,南松本１丁目２番２５号,,20,202,3900832,,,2023-12-01,清算の結了等,,,2015-10-05,1,,,,,オカムラ,0
1570,6180001025691,登記記録の閉鎖等,0,2023-12-08,2023-12-05,新生堂薬品株式会社,,株式会社,愛知県,名古屋市西区,又穂町４丁目５０番地,,23,104,4510014,,,2023-12-05,清算の結了等,,,2015-10-05,1,,,,,シンセイドウヤクヒン,0
1574,6180001112201,登記記録の閉鎖等,0,2023-12-08,2023-12-05,株式会社坂東マネージメント,,株式会社,愛知県,名古屋市緑区,大高町字己新田１５６番地２,,23,114,4598001,,,2023-12-05,清算の結了等,,,2015-10-05,1,,,,,バンドウマネジメント,0
1589,6180301017711,登記記録の閉鎖等,0,2023-12-08,2023-12-07,株式会社ＴＳサービス,,株式会社,愛知県,刈谷市,野田町北屋敷１５７番地２,,23,210,4480803,,,2023-12-07,清算の結了等,,,2015-10-05,1,,,,,ティーエスサービス,0
1590,6180302012216,登記記録の閉鎖等,0,2023-12-08,2023-12-01,有限会社コスバル,,有限会社,愛知県,豊橋市,大岩町字北山６番地の１２８１,,23,201,4413141,,,2023-12-01,清算の結了等,,,2015-10-05,1,,,,,コスバル,0
1591,6180302017347,登記記録の閉鎖等,0,2023-12-08,2023-12-04,モス有限会社,,有限会社,愛知県,安城市,百石町２丁目６番３,,23,212,4460044,,,2023-12-04,合併による解散等,8010001191524,令和５年１２月１日東京都千代田区丸の内一丁目８番１号株式会社フィールドファーマシー（8010001191524）に合併し解散,2015-10-05,1,,,,,モス,0
1598,6220001012347,登記記録の閉鎖等,0,2023-12-08,2023-12-06,株式会社ブティックシック,,株式会社,石川県,小松市,三日市町４８番地,,17,203,9230924,,,2023-12-06,清算の結了等,,,2015-10-05,1,,,,,ブティックシック,0
1601,6220002010795,登記記録の閉鎖等,0,2023-12-08,2023-12-05,有限会社第一電化サービス,,有限会社,石川県,小松市,若杉町ヤ５９番地,,17,203,9230832,,,2023-12-05,清算の結了等,,,2015-10-05,1,,,,,ダイイチデンカサービス,0
1602,6230001009846,登記記録の閉鎖等,0,2023-12-08,2023-12-04,株式会社笠原昇雲堂,,株式会社,富山県,高岡市,問屋町１５１番地,,16,202,9330804,,,2023-12-04,清算の結了等,,,2015-10-05,1,,,,,,0
1605,6230002005852,登記記録の閉鎖等,0,2023-12-08,2023-12-04,有限会社鮮魚くろさわ,,有限会社,富山県,中新川郡上市町,西中町１１番地,,16,322,9300334,,,2023-12-04,清算の結了等,,,2015-10-05,1,,,,,センギョクロサワ,0
1610,6240002047869,登記記録の閉鎖等,0,2023-12-08,2023-12-04,有限会社小沢商店,,有限会社,広島県,安芸郡熊野町,中溝２丁目１５番３号,,34,307,7314214,,,2023-12-04,清算の結了等,,,2015-10-05,1,,,,,オザワショウテン,0
1612,6250001013284,登記記録の閉鎖等,0,2023-12-08,2023-12-06,株式会社岡幸,,株式会社,山口県,美祢市,美東町大田６０３８番地,,35,213,7540211,,,2023-12-06,清算の結了等,,,2015-10-05,1,,,,,オカコウ,0
1625,6290001006045,登記記録の閉鎖等,0,2023-12-08,2023-12-01,株式会社アンクル,,株式会社,大阪府,大阪市中央区,平野町３丁目１番８号,,27,128,5410046,,,2023-12-01,合併による解散等,6120001077111,令和５年１２月１日大阪市北区天神橋三丁目３番１７号株式会社ガルデニア（6120001077111）に合併し解散,2015-10-05,1,,,,,アンクル,0
1635,6290802012506,登記記録の閉鎖等,0,2023-12-08,2023-12-06,有限会社岸本薬局,,有限会社,福岡県,北九州市八幡東区,荒生田２丁目２番１０号,,40,108,8050015,,,2023-12-06,清算の結了等,,,2015-10-05,1,,,,,キシモトヤッキョク,0
1648,6350003002102,登記記録の閉鎖等,0,2023-12-08,2023-12-04,合同会社デッセマニー,,合同会社,宮崎県,西都市,桜川町１丁目１９番地,,45,208,8810022,,,2023-12-04,清算の結了等,,,2015-10-05,1,,,,,デッセマニー,0
1661,6390002010077,登記記録の閉鎖等,0,2023-12-08,2023-12-05,有限会社ショウナン,,有限会社,山形県,鶴岡市,黒川字小在家８５の１,,06,203,9970311,,,2023-12-05,清算の結了等,,,2015-10-05,1,,,,,ショウナン,0
1666,6430001037554,登記記録の閉鎖等,0,2023-12-08,2023-12-01,株式会社トラスト技建,,株式会社,北海道,札幌市豊平区,西岡三条６丁目１番１号,,01,105,0620033,,,2023-12-01,清算の結了等,,,2015-10-05,1,,,,,トラストギケン,0
1669,6440001004909,登記記録の閉鎖等,0,2023-12-08,2023-12-07,株式会社サツキエデュケーション,,株式会社,北海道,函館市,富岡町３丁目４番１１号,,01,202,0410811,,,2023-12-07,清算の結了等,,,2015-10-05,1,,,,,サツキエデュケーション,0
1673,6440002009634,登記記録の閉鎖等,0,2023-12-08,2023-12-06,有限会社幸和産業,,有限会社,北海道,檜山郡上ノ国町,字大留１３１番地の２,,01,362,0490611,,,2023-12-06,清算の結了等,,,2015-10-05,1,,,,,コウワサンギョウ,0
1689,7010003035507,登記記録の閉鎖等,0,2023-12-08,2023-12-04,合同会社テンシックス,,合同会社,東京都,千代田区,九段南１丁目５番６号りそな九段ビル５階ＫＳフロア,,13,101,1020074,,,2023-12-04,清算の結了等,,,2021-08-10,1,,,,,テンシックス,0
1691,7010005034762,登記記録の閉鎖等,0,2023-12-08,2023-12-06,ＲＢソーラースカイホールディングス一般社団法人,,その他の設立登記法人,東京都,千代田区,麹町２丁目８番地ＭＬＣ麹町ビル４階フィンポート税理士法人内,,13,101,1020083,,,2023-12-06,清算の結了等,,,2022-03-18,1,,,,,アールビーソーラースカイホールディングス,0
1703,7010402003097,登記記録の閉鎖等,0,2023-12-08,2023-12-04,有限会社オフィス・メイ,,有限会社,東京都,港区,虎ノ門３丁目１８番１２－７０７号,,13,103,1050001,,,2023-12-04,清算の結了等,,,2015-10-05,1,,,,,オフィスメイ,0
1707,7010502009325,登記記録の閉鎖等,0,2023-12-08,2023-12-04,有限会社平松ビル,,有限会社,東京都,台東区,柳橋２丁目２０番７号,,13,106,1110052,,,2023-12-04,清算の結了等,,,2015-10-05,1,,,,,ヒラマツビル,0
1714,7010702008143,登記記録の閉鎖等,0,2023-12-08,2023-12-05,有限会社宮野商行,,有限会社,東京都,品川区,西五反田３丁目８番１７号,,13,109,1410031,,,2023-12-05,清算の結了等,,,2015-10-05,1,,,,,ミヤノショウコウ,0
1735,7011005007873,登記記録の閉鎖等,0,2023-12-08,2023-12-04,一般社団法人日中健康医療交流協会,,その他の設立登記法人,埼玉県,さいたま市岩槻区,大字徳力５８３番地４,,11,110,3390004,,,2023-12-04,清算の結了等,,,2018-10-19,1,,,,,ニッチュウケンコウイリョウコウリュウキョウカイ,0
1752,7011401023425,登記記録の閉鎖等,0,2023-12-08,2023-12-06,株式会社オアシス・ネクスト,,株式会社,東京都,板橋区,志村２丁目１０番１－２０７号,,13,119,1740056,,,2023-12-06,清算の結了等,,,2021-06-02,1,,,,,,0
1755,7011602010503,登記記録の閉鎖等,0,2023-12-08,2023-12-06,有限会社雄建設,,有限会社,東京都,練馬区,高松１丁目８番９号,,13,120,1790075,,,2023-12-06,清算の結了等,,,2015-10-05,1,,,,,ユウケンセツ,0
1768,7013301047339,登記記録の閉鎖等,0,2023-12-08,2023-12-04,株式会社ヤスケン,,株式会社,東京都,豊島区,南大塚１丁目３６番７－３０１号,,13,116,1700005,,,2023-12-04,清算の結了等,,,2021-04-21,1,,,,,ヤスケン,0
1771,7020001033899,登記記録の閉鎖等,0,2023-12-08,2023-12-01,株式会社キーサイド,,株式会社,神奈川県,横浜市金沢区,白帆４番３,,14,108,2360007,,,2023-12-01,合併による解散等,2020001149072,令和５年１２月１日横浜市金沢区白帆４番３株式会社キーサイド（2020001149072）に合併し解散,2015-10-05,1,,,,,キーサイド,0
1775,7020002054317,登記記録の閉鎖等,0,2023-12-08,2023-12-04,有限会社ビーハンズ,,有限会社,神奈川県,横浜市港北区,菊名４丁目２－３菊繁ビル２階,,14,109,2220011,,,2023-12-04,清算の結了等,,,2015-10-05,1,,,,,ビーハンズ,0
1784,7030001025094,登記記録の閉鎖等,0,2023-12-08,2023-12-01,三隈工業株式会社,,株式会社,埼玉県,所沢市,大字北秋津４５１番地の６,,11,208,3590038,,,2023-12-01,清算の結了等,,,2015-10-05,1,,,,,ミクマコウギョウ,0
1796,7040001113880,登記記録の閉鎖等,0,2023-12-08,2023-12-04,株式会社慶康暉,,株式会社,千葉県,柏市,松葉町６丁目４０番地１９,,12,217,2770827,,,2023-12-04,清算の結了等,,,2020-06-12,1,,,,,ケイコウキ,0
1809,7060001017015,登記記録の閉鎖等,0,2023-12-08,2023-12-05,松竹産業株式会社,,株式会社,栃木県,栃木市,岩舟町和泉字北原６７８番地２,,09,203,3294303,,,2023-12-05,清算の結了等,,,2015-10-05,1,,,,,ショウチクサンギョウ,0
1817,7080101011725,登記記録の閉鎖等,0,2023-12-08,2023-12-06,株式会社フォレスト・ヒルズ,,株式会社,静岡県,富士宮市,黒田２０５番地の１,,22,207,4180034,,,2023-12-06,清算の結了等,,,2015-10-05,1,,,,,フォレストヒルズ,0
1820,7080102010924,登記記録の閉鎖等,0,2023-12-08,2023-12-06,有限会社田村造園,,有限会社,静岡県,三島市,富士ビレッジ２６番２８号,,22,206,4110028,,,2023-12-06,清算の結了等,,,2015-10-05,1,,,,,タムラゾウエン,0
1829,7100003003578,登記記録の閉鎖等,0,2023-12-08,2023-12-01,Ｋコマース合同会社,,合同会社,長野県,長野市,吉田２丁目１７番２６号,,20,201,3810043,,,2023-12-01,清算の結了等,,,2015-10-05,1,,,,,ケイコマース,0
1832,7120001033204,登記記録の閉鎖等,0,2023-12-08,2023-12-07,株式会社伝習社水谷塾,,株式会社,大阪府,大阪市住吉区,長居東３丁目１２番６号,,27,120,5580004,,,2023-12-07,清算の結了等,,,2015-10-05,1,,,,,デンシュウシャミズタニジュク,0
1841,7120002037583,登記記録の閉鎖等,0,2023-12-08,2023-12-04,有限会社ナミタ不動産,,有限会社,大阪府,大阪市中央区,（大阪市南区高津一丁目４番６号）,,27,128,5390000,,,2023-12-04,合併による解散等,5120001086229,令和５年１２月１日大阪市中央区高津一丁目４番６－１０１号浪花商事株式会社（5120001086229）に合併し解散,2015-10-05,1,,,,,ナミタフドウサン,1
1844,7120003022089,登記記録の閉鎖等,0,2023-12-08,2023-12-01,ひゅっと合同会社,,合同会社,大阪府,大阪市北区,梅田２丁目５番１３号桜橋第一ビル３０４号,,27,127,5300001,,,2023-12-01,清算の結了等,,,2022-07-27,1,,,,,ヒュット,0
1846,7120101025381,登記記録の閉鎖等,0,2023-12-08,2023-12-05,大丸興産株式会社,,株式会社,大阪府,松原市,丹南４丁目１８２番地,,27,217,5800013,,,2023-12-05,清算の結了等,,,2015-10-05,1,,,,,ダイマルコウサン,0
1852,7120102006125,登記記録の閉鎖等,0,2023-12-08,2023-12-06,有限会社エイチアールシー赤坂,,有限会社,大阪府,堺市南区,三原台３丁３５番２号,,27,145,5900111,,,2023-12-06,清算の結了等,,,2015-10-05,1,,,,,エイチアールシーアカサカ,0
1865,7130001063778,登記記録の閉鎖等,0,2023-12-08,2023-12-05,シン・コーポレーション株式会社,,株式会社,京都府,京都市右京区,西院安塚町４番地の２,00115542,26,108,6150051,,,2023-12-05,清算の結了等,,,2019-01-22,1,,,,,シンコーポレーション,0
1872,7140001058595,登記記録の閉鎖等,0,2023-12-08,2023-12-01,株式会社クリエイト,,株式会社,兵庫県,姫路市,苫編２２４番地,,28,201,6700986,,,2023-12-01,清算の結了等,,,2015-10-05,1,,,,,クリエイト,0
1885,7180001135630,登記記録の閉鎖等,0,2023-12-08,2023-12-04,株式会社ＥＭＳ　ＣＯＭＰＡＮＹ,,株式会社,愛知県,長久手市,仲田４１３番地,,23,238,4801167,,,2023-12-04,清算の結了等,,,2019-03-07,1,,,,,エムズカンパニー,0
1893,7180301028377,登記記録の閉鎖等,0,2023-12-08,2023-11-30,株式会社ＲＡＹＴＯＮ,,株式会社,愛知県,みよし市,三好町新屋２９番地２,,23,236,4700224,,,2023-11-30,清算の結了等,,,2015-10-05,1,,,,,レイトン,0
1899,7240002030072,登記記録の閉鎖等,0,2023-12-08,2023-12-01,有限会社サン・アート,,有限会社,広島県,三次市,十日市南１丁目５番２９号,,34,209,7280014,,,2023-12-01,合併による解散等,3240001024500,令和５年１１月３０日広島県三次市十日市南一丁目５番２９号株式会社フルフル（3240001024500）に合併し解散,2015-10-05,1,,,,,サンアート,0
1900,7240002039592,登記記録の閉鎖等,0,2023-12-08,2023-12-04,駅家レンタカー有限会社,,有限会社,広島県,福山市,駅家町大字倉光３０８番地の１,,34,207,7201132,,,2023-12-04,清算の結了等,,,2015-10-05,1,,,,,エキヤレンタカー,0
1904,7250001017103,登記記録の閉鎖等,0,2023-12-08,2023-12-04,株式会社ＴＢデジタル,,株式会社,山口県,山口市,黒川字矢口４００番地１,,35,203,7530851,,,2023-12-04,合併による解散等,8250001008200,令和５年１２月１日山口県山口市黒川字矢口４００番地１株式会社田村ビルズ（8250001008200）に合併し解散,2018-04-24,1,,,,,ティービーデジタル,0
1905,7250002002715,登記記録の閉鎖等,0,2023-12-08,2023-12-07,有限会社おかむら企画,,有限会社,山口県,山口市,小郡上郷２１３４番地,,35,203,7540001,,,2023-12-07,清算の結了等,,,2015-10-05,1,,,,,オカムラキカク,0
1910,7290001090724,登記記録の閉鎖等,0,2023-12-08,2023-11-30,株式会社ホープエナジー,,株式会社,福岡県,福岡市中央区,薬院１丁目１４番５号ＭＧ薬院ビル,,40,133,8100022,,,2023-11-30,清算の結了等,,,2020-10-27,1,,,,,ホープエナジー,0
1911,7290003011876,登記記録の閉鎖等,0,2023-12-08,2023-10-24,Ｇａｒｄｅｎ　Ｌｉｐｓ合同会社,,合同会社,福岡県,福岡市博多区,祇園町２－２２ヤグラモンビル３０６号室,,40,132,8120038,,,2023-10-24,清算の結了等,,,2021-12-07,1,,,,,ガーデンリップス,0
1918,7290802019442,登記記録の閉鎖等,0,2023-12-08,2023-12-05,有限会社フラクタルコーポレーション,,有限会社,福岡県,北九州市八幡東区,枝光本町７番１８－２０５号,,40,108,8050008,,,2023-12-05,清算の結了等,,,2015-10-05,1,,,,,フラクタルコーポレーション,0
1919,7290802022974,登記記録の閉鎖等,0,2023-12-08,2023-12-06,有限会社平野石材店,,有限会社,福岡県,京都郡苅田町,大字与原１３１番地の２,,40,621,8000323,,,2023-12-06,清算の結了等,,,2015-10-05,1,,,,,ヒラノセキザイテン,0
1922,7300002008310,登記記録の閉鎖等,0,2023-12-08,2023-12-04,有限会社大樽陶山堂,00095364,有限会社,佐賀県,西松浦郡有田町,大樽２丁目２番１３号,00095365,41,401,8440004,,,2023-12-04,清算の結了等,,,2015-10-05,1,,,,,オオダルトウザンドウ,0
1924,7320001008796,登記記録の閉鎖等,0,2023-12-08,2023-12-06,株式会社大分ペイントスタジオ,,株式会社,大分県,大分市,大字羽田１０７６番地の１,,44,201,8700942,,,2023-12-06,清算の結了等,,,2015-10-05,1,,,,,オオイタペイントスタジオ,0
1945,7430002049993,登記記録の閉鎖等,0,2023-12-08,2023-11-29,有限会社沖中食品工業,,有限会社,北海道,美唄市,大通東一条北２丁目１番１４号,,01,215,0720001,,,2023-11-29,清算の結了等,,,2015-10-05,1,,,,,オキナカショクヒンコウギョウ,0
1953,7500001017548,登記記録の閉鎖等,0,2023-12-08,2023-12-06,株式会社サンライズ石川,,株式会社,愛媛県,四国中央市,中曽根町１１４２番地１３,,38,213,7990413,,,2023-12-06,清算の結了等,,,2015-10-05,1,,,,,サンライズイシカワ,0
1967,8010002041926,登記記録の閉鎖等,0,2023-12-08,2023-12-04,株式会社リバストーン,,株式会社,東京都,千代田区,内神田１丁目１５番６号,,13,101,1010047,,,2023-12-04,清算の結了等,,,2015-10-05,1,,,,,リバストーン,0
1991,8010901026408,登記記録の閉鎖等,0,2023-12-08,2023-12-05,株式会社西京メンテナンス,,株式会社,東京都,世田谷区,野沢４丁目２３番１４号,,13,112,1540003,,,2023-12-05,清算の結了等,,,2015-10-05,1,,,,,サイキョウメンテナンス,0
1994,8011001111827,登記記録の閉鎖等,0,2023-12-08,2023-12-06,株式会社Ｔ＆Ｔ企画,,株式会社,東京都,渋谷区,渋谷３丁目２６番１７号ＶＯＲＴ渋谷５階,,13,113,1500002,,,2023-12-06,清算の結了等,,,2016-07-20,1,,,,,,0
1997,8011001152391,登記記録の閉鎖等,0,2023-12-08,2023-12-07,株式会社Ｓｕｃｃｅｓｓｉｏｎ,,株式会社,大阪府,豊中市,刀根山１丁目８番２２号,,27,203,5600045,,,2023-12-07,清算の結了等,,,2023-02-10,1,,,,,サクセッション,0
2026,8012802000615,登記記録の閉鎖等,0,2023-12-08,2023-12-04,有限会社金子組,,有限会社,東京都,立川市,栄町４丁目２番３８号,,13,202,1900003,,,2023-12-04,清算の結了等,,,2015-10-05,1,,,,,カネコグミ,0
2039,8020002003792,登記記録の閉鎖等,0,2023-12-08,2023-12-04,有限会社伊東運送,,有限会社,神奈川県,横浜市緑区,鴨居４丁目７１番６号,,14,113,2260003,,,2023-12-04,清算の結了等,,,2015-10-05,1,,,,,イトウウンソウ,0
2066,8040001045090,登記記録の閉鎖等,0,2023-12-08,2023-12-01,株式会社エコテック・エム,,株式会社,千葉県,富里市,日吉台４丁目１７番地の１,,12,233,2860201,,,2023-12-01,清算の結了等,,,2015-10-05,1,,,,,エコテックエム,0
2097,8120001055222,登記記録の閉鎖等,0,2023-12-08,2023-12-06,國際交易株式会社,,株式会社,大阪府,大阪市淀川区,西中島１丁目１０番１０－５０１号,,27,123,5320011,,,2023-12-06,清算の結了等,,,2015-10-05,1,,,,,コクサイコウエキ,0
2098,8120001084551,登記記録の閉鎖等,0,2023-12-08,2023-12-06,筒井商事株式会社,,株式会社,大阪府,大阪市中央区,南久宝寺町２丁目６番１５号中川ビル５階,,27,128,5410058,,,2023-12-06,清算の結了等,,,2015-10-05,1,,,,,ツツイショウジ,0
2099,8120001115819,登記記録の閉鎖等,0,2023-12-08,2023-12-05,株式会社Ｓ．Ｋ．カンパニー,,株式会社,大阪府,大阪市淀川区,宮原４丁目４番６４号,,27,123,5320003,,,2023-12-05,清算の結了等,,,2015-10-05,1,,,,,エスケーカンパニー,0
2101,8120001158041,登記記録の閉鎖等,0,2023-12-08,2023-12-05,株式会社光縫製工業,,株式会社,大阪府,門真市,上野口町５２番３４号,,27,223,5710070,,,2023-12-05,清算の結了等,,,2015-10-05,1,,,,,ヒカリホウセイコウギョウ,0
2111,8120101036923,登記記録の閉鎖等,0,2023-12-08,2023-12-06,セイコー津田株式会社,,株式会社,大阪府,貝塚市,津田南町２２番２２号,,27,208,5970014,,,2023-12-06,清算の結了等,,,2015-10-05,1,,,,,セイコーツダ,0
2119,8130002005935,登記記録の閉鎖等,0,2023-12-08,2023-12-05,有限会社パッケージハラマキ,,有限会社,京都府,京都市左京区,二条通川端東入大菊町９８番地,,26,103,6068376,,,2023-12-05,清算の結了等,,,2015-10-05,1,,,,,パッケージハラマキ,0
2120,8130002011603,登記記録の閉鎖等,0,2023-12-08,2023-12-05,株式会社モリコーポレーション,,株式会社,京都府,京都市南区,西九条開ケ町３８番地の６,,26,107,6018439,,,2023-12-05,清算の結了等,,,2015-10-05,1,,,,,モリコーポレーション,0
2124,8140001077990,登記記録の閉鎖等,0,2023-12-08,2023-12-04,伊丹精圧株式会社,,株式会社,兵庫県,伊丹市,北河原５丁目２番３４号,,28,207,6640837,,,2023-12-04,清算の結了等,,,2015-10-05,1,,,,,イタミセイアツ,0
2135,8160001013234,登記記録の閉鎖等,0,2023-12-08,2023-12-04,株式会社リブラ,,株式会社,滋賀県,草津市,大路１丁目６番１６号,,25,206,5250032,,,2023-12-04,合併による解散等,8010001191524,令和５年１２月１日東京都千代田区丸の内一丁目８番１号株式会社フィールドファーマシー（8010001191524）に合併し解散,2015-10-05,1,,,,,リブラ,0
2142,8180002014691,登記記録の閉鎖等,0,2023-12-08,2023-12-04,有限会社ブレス,,有限会社,愛知県,名古屋市昭和区,北山町３丁目３５番地の１,,23,107,4660006,,,2023-12-04,清算の結了等,,,2015-10-05,1,,,,,ブレス,0
2144,8180002090510,登記記録の閉鎖等,0,2023-12-08,2023-12-05,有限会社犬飼商事,,有限会社,愛知県,海部郡飛島村,大字渚５丁目２６番地,00080646,23,427,4901433,,,2023-12-05,清算の結了等,,,2015-10-05,1,,,,,イヌカイショウジ,0
2160,8240005009740,登記記録の閉鎖等,0,2023-12-08,2023-12-04,医療法人社団高田耳鼻咽喉科医院,00002248,その他の設立登記法人,広島県,府中市,元町４４６番地の８,,34,208,7260003,,,2023-12-04,清算の結了等,,,2015-10-05,1,,,,,タカタジビインコウカイイン,0
2163,8260001034204,登記記録の閉鎖等,0,2023-12-08,2023-12-06,株式会社ＱＵＥＥＮ　ＬＡＢＯ,,株式会社,岡山県,真庭市,多田４７番地１,,33,214,7193213,,,2023-12-06,清算の結了等,,,2020-04-03,1,,,,,クイーンラボ,0
2200,8410002005840,登記記録の閉鎖等,0,2023-12-08,2023-12-04,有限会社ファミリーホーム,,有限会社,秋田県,潟上市,天王字上北野１２１番地２５,,05,211,0100101,,,2023-12-04,清算の結了等,,,2015-10-05,1,,,,,ファミリーホーム,0
2219,9010001182968,登記記録の閉鎖等,0,2023-12-08,2023-12-04,株式会社ＧＣＣ,,株式会社,東京都,中央区,銀座７丁目１３番２０号銀座ＴＨビル９階,,13,102,1040061,,,2023-12-04,清算の結了等,,,2017-04-24,1,,,,,ジーシーシー,0
2237,9010401146168,登記記録の閉鎖等,0,2023-12-08,2023-12-05,Ｏｗｌ　ｆｏｒ　ｏｎｅ株式会社,,株式会社,神奈川県,横浜市中区,住吉町２丁目２４－２住吉２４ビル３階,,14,104,2310013,,,2023-12-05,清算の結了等,,,2019-06-14,1,,,,,オウルフォーワン,0
2263,9011101010226,登記記録の閉鎖等,0,2023-12-08,2023-12-05,株式会社三幸シルバー,,株式会社,東京都,新宿区,下落合３丁目２番１８－８０３号,,13,104,1610033,,,2023-12-05,清算の結了等,,,2015-10-05,1,,,,,サンコウシルバー,0
2297,9013302021654,登記記録の閉鎖等,0,2023-12-08,2023-12-05,有限会社グルーヴ・タイム,,有限会社,東京都,豊島区,千早３丁目１３番１３号,,13,116,1710044,,,2023-12-05,清算の結了等,,,2015-10-05,1,,,,,グルーヴタイム,0
2298,9020001127617,登記記録の閉鎖等,0,2023-12-08,2023-12-01,ウィルシー株式会社,,株式会社,神奈川県,横浜市港北区,新横浜３丁目７番１８エキスパートオフィス新横浜,,14,109,2220033,,,2023-12-01,合併による解散等,1020001127616,令和５年１２月１日横浜市港北区新横浜三丁目１９番地１住まいるサポート株式会社（1020001127616）に合併し解散,2018-08-17,1,,,,,ウィルシー,0
2300,9020002021265,登記記録の閉鎖等,0,2023-12-08,2023-11-30,有限会社近藤配管工事,,有限会社,神奈川県,横浜市旭区,東希望が丘６９番地の１３,,14,112,2410826,,,2023-11-30,清算の結了等,,,2015-10-05,1,,,,,コンドウハイカンコウジ,0
2302,9020003021033,登記記録の閉鎖等,0,2023-12-08,2023-12-04,合同会社ダイアウルフ,,合同会社,神奈川県,横浜市港北区,新横浜２丁目１４番８号オフィス新横浜６０９号,,14,109,2220033,,,2023-12-04,清算の結了等,,,2021-12-27,1,,,,,ダイアウルフ,0
2305,9021001037888,登記記録の閉鎖等,0,2023-12-08,2023-12-06,株式会社野田工業,,株式会社,神奈川県,平塚市,小鍋島５５５番地の１,,14,203,2540004,,,2023-12-06,清算の結了等,,,2015-10-05,1,,,,,ノダコウギョウ,0
2310,9030001056518,登記記録の閉鎖等,0,2023-12-08,2023-12-04,川島産業株式会社,,株式会社,埼玉県,比企郡川島町,大字正直５９５番地,,11,346,3500162,,,2023-12-04,清算の結了等,,,2015-10-05,1,,,,,カワジマサンギョウ,0
2311,9030001065717,登記記録の閉鎖等,0,2023-12-08,2023-12-01,フタバスペースアップ株式会社,,株式会社,埼玉県,吉川市,大字川藤７８５番地,,11,243,3420005,,,2023-12-01,清算の結了等,,,2015-10-05,1,,,,,フタバスペースアップ,0
2314,9030001105357,登記記録の閉鎖等,0,2023-12-08,2023-12-04,株式会社ＰＧＬＫ,,株式会社,埼玉県,蕨市,北町１丁目２６番４号ルネ蕨ガーデンシティ６１４号,,11,223,3350001,,,2023-12-04,清算の結了等,,,2015-10-05,1,,,,,ピージーエルケイ,0
2317,9030002004946,登記記録の閉鎖等,0,2023-12-08,2023-12-06,小牧青果有限会社,,有限会社,埼玉県,さいたま市緑区,宮本２丁目２８番地５,,11,109,3360916,,,2023-12-06,清算の結了等,,,2015-10-05,1,,,,,コマキセイカ,0
2319,9030002023698,登記記録の閉鎖等,0,2023-12-08,2023-12-04,有限会社伊藤ブロック,,有限会社,埼玉県,戸田市,美女木１丁目１６番地の２６,,11,224,3350031,,,2023-12-04,清算の結了等,,,2015-10-05,1,,,,,イトウブロック,0
2326,9040001014689,登記記録の閉鎖等,0,2023-12-08,2023-12-01,株式会社西企画,,株式会社,千葉県,習志野市,津田沼２丁目６番２号,,12,216,2750016,,,2023-12-01,清算の結了等,,,2015-10-05,1,,,,,ニシキカク,0
2329,9040001092586,登記記録の閉鎖等,0,2023-12-08,2023-12-01,株式会社Ｂｕｌｌ,,株式会社,千葉県,習志野市,谷津１丁目１７番８号ＳＡＫビルＡ２０１,,12,216,2750026,,,2023-12-01,清算の結了等,,,2015-11-04,1,,,,,ブル,0
2337,9040002087032,登記記録の閉鎖等,0,2023-12-08,2023-12-04,有限会社徳栄自動車販売,,有限会社,千葉県,香取市,岩ケ崎台２２番地２２,,12,236,2870004,,,2023-12-04,清算の結了等,,,2015-10-05,1,,,,,トクエイジドウシャハンバイ,0
2347,9080001014685,登記記録の閉鎖等,0,2023-12-08,2023-12-05,株式会社魚公,,株式会社,静岡県,焼津市,焼津１丁目１６番５号,,22,212,4250026,,,2023-12-05,清算の結了等,,,2015-10-05,1,,,,,ウオコウ,0
2356,9110002025406,登記記録の閉鎖等,0,2023-12-08,2023-12-05,エルスプラス一有限会社,,有限会社,新潟県,十日町市,南新田町１丁目７番地１０,,15,210,9480005,,,2023-12-05,清算の結了等,,,2015-10-05,1,,,,,エルスプラスワン,0
2365,9120001185968,登記記録の閉鎖等,0,2023-12-08,2023-12-07,ビーマーケティング株式会社,,株式会社,大阪府,大阪市港区,波除３丁目９番８号,,27,107,5520001,,,2023-12-07,清算の結了等,,,2015-10-05,1,,,,,ビーマーケティング,0
2389,9140002010792,登記記録の閉鎖等,0,2023-12-08,2023-12-05,有限会社一休,,有限会社,兵庫県,神戸市兵庫区,新開地２丁目６番６号,,28,105,6520811,,,2023-12-05,清算の結了等,,,2015-10-05,1,,,,,イッキュウ,0
2415,9200003001743,登記記録の閉鎖等,0,2023-12-08,2023-12-06,合資会社渡邊靴店,,合資会社,岐阜県,大垣市,郭町１丁目１２番地,,21,202,5030887,,,2023-12-06,清算の結了等,,,2015-10-05,1,,,,,ワタナベクツテン,0
2417,9200005002343,登記記録の閉鎖等,0,2023-12-08,2023-12-06,特定非営利活動法人福祉理美容協会,,その他の設立登記法人,岐阜県,各務原市,蘇原東栄町２丁目４３番地,,21,213,5040815,,,2023-12-06,清算の結了等,,,2015-10-05,1,,,,,,0
2425,9250001002243,登記記録の閉鎖等,0,2023-12-08,2023-11-27,毎日印刷株式会社,,株式会社,山口県,防府市,沖今宿２丁目１番２５号,,35,206,7470013,,,2023-11-27,清算の結了等,,,2015-10-05,1,,,,,マイニチインサツ,0
2426,9250002009799,登記記録の閉鎖等,0,2023-12-08,2023-12-06,有限会社竹部建工,,有限会社,山口県,下関市,上田中町２丁目２番４号,,35,201,7500009,,,2023-12-06,清算の結了等,,,2015-10-05,1,,,,,タケベケンコウ,0
2428,9260002009708,登記記録の閉鎖等,0,2023-12-08,2023-12-06,有限会社みちのくセンター,,有限会社,岡山県,岡山市東区,城東台東１丁目９－２１,,33,103,7090622,,,2023-12-06,清算の結了等,,,2015-10-05,1,,,,,ミチノクセンター,0
2429,9260002015730,登記記録の閉鎖等,0,2023-12-08,2023-12-07,有限会社ティーエス,,有限会社,岡山県,岡山市中区,赤田１６番地１,,33,102,7038231,,,2023-12-07,清算の結了等,,,2015-10-05,1,,,,,ティーエス,0
2445,9310002002368,登記記録の閉鎖等,0,2023-12-08,2023-12-06,株式会社エーエス保険事務所,,株式会社,長崎県,長崎市,上戸町２丁目１２番９号,,42,201,8500953,,,2023-12-06,清算の結了等,,,2015-10-05,1,,,,,エーエスホケンジムショ,0
2446,9330001028164,登記記録の閉鎖等,0,2023-12-08,2023-12-05,株式会社ｅｎｊｏｙ　ｔｏｄａｙ,,株式会社,熊本県,荒尾市,荒尾４１８６番地１,,43,204,8640041,,,2023-12-05,合併による解散等,2290001100280,令和５年１２月１日福岡県大野城市大城二丁目２３番３０号株式会社シアーズホームバース（2290001100280）に合併し解散,2021-01-04,1,,,,,エンジョイトゥデイ,0
2447,9330002006549,登記記録の閉鎖等,0,2023-12-08,2023-12-01,宝屋食品有限会社,,有限会社,熊本県,熊本市中央区,九品寺３丁目１５番１０号,,43,101,8620976,,,2023-12-01,清算の結了等,,,2015-10-05,1,,,,,タカラヤショクヒン,0
2459,9370002006454,登記記録の閉鎖等,0,2023-12-08,2023-12-04,有限会社仙台瀬戸商会,,有限会社,宮城県,仙台市若林区,霞目２丁目３４番１５号,,04,103,9840035,,,2023-12-04,清算の結了等,,,2015-10-05,1,,,,,センダイセトショウカイ,0
2460,9380003005165,登記記録の閉鎖等,0,2023-12-08,2023-12-05,合同会社ＯＵｔ‐Ｔ,,合同会社,福島県,白河市,白坂鶴子山１１１－１,,07,205,9610835,,,2023-12-05,清算の結了等,,,2022-04-26,1,,,,,アウトティー,0
2462,9400002003332,登記記録の閉鎖等,0,2023-12-08,2023-12-04,有限会社盛岡アクティヴ,,有限会社,岩手県,盛岡市,松園３丁目２番２１号,,03,201,0200107,,,2023-12-04,清算の結了等,,,2015-10-05,1,,,,,モリオカアクティブ,0
2466,9430001062079,登記記録の閉鎖等,0,2023-12-08,2023-12-06,株式会社藤樹,,株式会社,北海道,千歳市,幸町１丁目１６番地の１,,01,224,0660063,,,2023-12-06,清算の結了等,,,2015-10-05,1,,,,,,0
2469,9430002000640,登記記録の閉鎖等,0,2023-12-08,2023-12-04,有限会社浅石歯科技工所,,有限会社,北海道,札幌市西区,宮の沢四条５丁目２番１６号,,01,107,0630054,,,2023-12-04,清算の結了等,,,2015-10-05,1,,,,,アサイシシカギコウショ,0
2474,9470003001493,登記記録の閉鎖等,0,2023-12-08,2023-12-07,日本急掃合同会社,,合同会社,香川県,善通寺市,文京町２丁目８－１２,,37,204,7650013,,,2023-12-07,清算の結了等,,,2018-10-25,1,,,,,ニホンキュウソウ,0
2475,9490002009263,登記記録の閉鎖等,0,2023-12-08,2023-12-06,有限会社山崎屋,00006670,有限会社,高知県,宿毛市,小筑紫町湊２０８番地１１,,39,208,7880265,,,2023-12-06,清算の結了等,,,2015-10-05,1,,,,,ヤマサキヤ,0
