sequenceNumber,corporateNumber,process,correct,updateDate,changeDate,name,nameImageId,kind,prefectureName,cityName,streetNumber,addressImageId,prefectureCode,cityCode,postCode,addressOutside,addressOutsideImageId,closeDate,closeCause,successorCorporateNumber,changeCause,assignmentDate,latest,enName,enPrefectureName,enCityName,enAddressOutside,furigana,hihyoji
41,1010802015862,登記記録の閉鎖等,0,2021-12-09,2021-12-06,和広工業有限会社,,有限会社,神奈川県,横浜市港北区,新横浜２丁目１４番８号オフィス新横浜４０７号,,14,109,2220033,,,2021-12-06,清算の結了等,,,2015-10-05,1,,,,,ワコウコウギョウ,0
47,1011001069188,登記記録の閉鎖等,0,2021-12-09,2021-11-26,株式会社ミラキュルーズ,,株式会社,東京都,渋谷区,神宮前６丁目２５番１４号,,13,113,1500001,,,2021-11-26,清算の結了等,,,2015-10-05,1,,,,,ミラキュルーズ,0
56,1011102000588,登記記録の閉鎖等,0,2021-12-09,2021-12-06,有限会社東商事,,有限会社,東京都,新宿区,揚場町２番２１号,,13,104,1620824,,,2021-12-06,清算の結了等,,,2015-10-05,1,,,,,アズマショウジ,0
66,1011703001778,登記記録の閉鎖等,0,2021-12-09,2021-12-07,コンフォート合同会社,,合同会社,東京都,江戸川区,東小岩３丁目７番１８号,,13,123,1330052,,,2021-12-07,清算の結了等,,,2017-06-08,1,,,,,コンフォート,0
76,1012801008236,登記記録の閉鎖等,0,2021-12-09,2021-12-08,株式会社オーケー,,株式会社,東京都,立川市,栄町４丁目１８番地の１,,13,202,1900003,,,2021-12-08,清算の結了等,,,2015-10-05,1,,,,,,0
78,1013101001716,登記記録の閉鎖等,0,2021-12-09,2021-12-06,株式会社クリエイティング・ザ・ドリーム,,株式会社,東京都,あきる野市,小中野１６０番地,,13,228,1900165,,,2021-12-06,清算の結了等,,,2015-10-05,1,,,,,クリエイティングザドリーム,0
84,1020001135478,登記記録の閉鎖等,0,2021-12-09,2021-12-06,株式会社セブンセンシズ,,株式会社,神奈川県,横浜市神奈川区,三枚町１３５番グレース新横浜南２０１号室,,14,102,2210862,,,2021-12-06,清算の結了等,,,2020-03-26,1,,,,,セブンセンシズ,0
85,1020001136468,登記記録の閉鎖等,0,2021-12-09,2021-12-06,株式会社マルス,,株式会社,神奈川県,横浜市神奈川区,鶴屋町２丁目９番２２号日興パレス横浜７１１号室,,14,102,2210835,,,2021-12-06,清算の結了等,,,2020-06-12,1,,,,,マルス,0
132,1040003015065,登記記録の閉鎖等,0,2021-12-09,2021-12-03,はつらつ筋トレ教材合同会社,,合同会社,千葉県,市原市,瀬又６１１番地１５９,,12,219,2900151,,,2021-12-03,清算の結了等,,,2020-03-24,1,,,,,ハツラツキントレキョウザイ,0
138,1070002020393,登記記録の閉鎖等,0,2021-12-09,2021-12-07,有限会社小竹商店,,有限会社,群馬県,伊勢崎市,境２９０番地,,10,204,3700124,,,2021-12-07,清算の結了等,,,2015-10-05,1,,,,,オタケショウテン,0
149,1120001156183,登記記録の閉鎖等,0,2021-12-09,2021-12-07,株式会社大洋製作所,,株式会社,大阪府,守口市,菊水通４丁目２番２号,,27,209,5700032,,,2021-12-07,清算の結了等,,,2015-10-05,1,,,,,タイヨウセイサクショ,0
164,1120101010042,登記記録の閉鎖等,0,2021-12-09,2021-11-22,株式会社祭興産,,株式会社,大阪府,堺市西区,浜寺石津町中１丁２番２６号,,27,144,5928334,,,2021-11-22,合併による解散等,6120101002563,令和３年１１月２１日大阪府堺市西区浜寺石津町中一丁２番２６号サイモト自転車株式会社（6120101002563）に合併し解散,2015-10-05,1,,,,,マツリコウサン,0
174,1130001003153,登記記録の閉鎖等,0,2021-12-09,2021-12-06,株式会社視力瞳メガネ店,,株式会社,京都府,京都市上京区,河原町通広小路下る東桜町２１番地,,26,102,6020858,,,2021-12-06,清算の結了等,,,2015-10-05,1,,,,,シリョクドウメガネテン,0
185,1140003009908,登記記録の閉鎖等,0,2021-12-09,2021-12-06,合同会社ＴＲＣＳ,,合同会社,兵庫県,神戸市須磨区,大田町７丁目２番３号,,28,107,6540024,,,2021-12-06,清算の結了等,,,2015-10-05,1,,,,,テイアールシーエス,0
201,1180001112528,登記記録の閉鎖等,0,2021-12-09,2021-12-06,株式会社ｙｂｎ商会,,株式会社,愛知県,名古屋市昭和区,御器所２丁目９番２７号御器所スカイマンション２０２,,23,107,4660051,,,2021-12-06,清算の結了等,,,2015-10-05,1,,,,,ワイビーエヌショウカイ,0
214,1180302009027,登記記録の閉鎖等,0,2021-12-09,2021-11-30,有限会社ニーマルセンター,,有限会社,愛知県,豊橋市,大村町字橋元６４番地の１,,23,201,4400081,,,2021-11-30,清算の結了等,,,2015-10-05,1,,,,,ニーマルセンター,0
215,1190001019730,登記記録の閉鎖等,0,2021-12-09,2021-12-07,株式会社リポト,,株式会社,三重県,伊賀市,北山１６８０番地の１２３１,,24,216,5180204,,,2021-12-07,清算の結了等,,,2015-10-05,1,,,,,リポト,0
223,1230001012318,登記記録の閉鎖等,0,2021-12-09,2021-11-22,株式会社ウェブスター,,株式会社,富山県,高岡市,出来田７１番３,,16,202,9330803,,,2021-11-22,合併による解散等,1230002013257,令和３年１１月２１日富山県高岡市出来田７１番３高志ハイアンビション株式会社（1230002013257）に合併し解散,2015-10-05,1,,,,,ウェブスター,0
230,1250002011944,登記記録の閉鎖等,0,2021-12-09,2021-12-07,有限会社ケイ・アンド・ケイ,,有限会社,山口県,下関市,三河町１番４号,,35,201,7510821,,,2021-12-07,清算の結了等,,,2015-10-05,1,,,,,ケイアンドケイ,0
232,1260002011489,登記記録の閉鎖等,0,2021-12-09,2021-12-08,有限会社古市鑑定事務所,,有限会社,岡山県,岡山市北区,弓之町２番５号７０１,,33,101,7000817,,,2021-12-08,清算の結了等,,,2015-10-05,1,,,,,フルイチカンテイジムショ,0
245,1300002004884,登記記録の閉鎖等,0,2021-12-09,2021-12-06,有限会社ライフ・クリエイト,,有限会社,佐賀県,佐賀市,兵庫南３丁目１６番３８号,,41,201,8490918,,,2021-12-06,清算の結了等,,,2015-10-05,1,,,,,ライフクリエイト,0
246,1300003001047,登記記録の閉鎖等,0,2021-12-09,2021-12-06,合同会社ユウテック,,合同会社,佐賀県,嬉野市,嬉野町大字下宿乙２３７０番地７,,41,209,8430301,,,2021-12-06,清算の結了等,,,2015-10-05,1,,,,,ユウテック,0
248,1310002004413,登記記録の閉鎖等,0,2021-12-09,2021-12-08,有限会社濱口機工,00095921,有限会社,長崎県,長崎市,末石町３７０番地２４,,42,201,8500991,,,2021-12-08,清算の結了等,,,2015-10-05,1,,,,,ハマグチキコウ,0
259,1340002016661,登記記録の閉鎖等,0,2021-12-09,2021-12-06,有限会社ファーム・ラボ,,有限会社,鹿児島県,薩摩川内市,高江町４７７１番地,,46,215,8950131,,,2021-12-06,合併による解散等,9120001157091,令和３年１１月２２日大阪府門真市島頭一丁目６番２６号Ｈ＆Ｉビル下島頭２－Ｂ株式会社いまむら工務店（9120001157091）に合併し解散,2015-10-05,1,,,,,ファームラボ,0
264,1370001013120,登記記録の閉鎖等,0,2021-12-09,2021-12-03,株式会社誠和東北,,株式会社,宮城県,仙台市宮城野区,岩切分台１丁目６番地の３,,04,102,9830828,,,2021-12-03,清算の結了等,,,2015-10-05,1,,,,,セイワトウホク,0
267,1370301002723,登記記録の閉鎖等,0,2021-12-09,2021-12-01,株式会社和楽,,株式会社,宮城県,石巻市,貞山３丁目３番６号,,04,202,9860851,,,2021-12-01,清算の結了等,,,2015-10-05,1,,,,,ワラク,0
276,1420001012182,登記記録の閉鎖等,0,2021-12-09,2021-12-02,株式会社千葉,,株式会社,青森県,上北郡東北町,大字大浦字井尻７５番地５９,,02,408,0392402,,,2021-12-02,清算の結了等,,,2015-10-05,1,,,,,チバ,0
338,2011001104373,登記記録の閉鎖等,0,2021-12-09,2021-12-08,株式会社ＣＯＮＦＥＣＴＥＲ,,株式会社,東京都,渋谷区,恵比寿２丁目３２番１０号,,13,113,1500013,,,2021-12-08,清算の結了等,,,2015-10-05,1,,,,,コンフェクター,0
361,2012301007464,登記記録の閉鎖等,0,2021-12-09,2021-11-30,株式会社Ｍｙｓｔｉｑｕｅ,,株式会社,東京都,町田市,成瀬が丘２丁目２３番地１０,,13,209,1940011,,,2021-11-30,清算の結了等,,,2015-10-05,1,,,,,ミスティーク,0
373,2020001073256,登記記録の閉鎖等,0,2021-12-09,2021-12-06,新宿エンタープライズ株式会社,,株式会社,神奈川県,川崎市川崎区,小田１丁目１９番２０号,,14,131,2100846,,,2021-12-06,清算の結了等,,,2015-10-05,1,,,,,シンジュクエンタープライズ,0
383,2020002090861,登記記録の閉鎖等,0,2021-12-09,2021-12-06,有限会社森山酒店,,有限会社,神奈川県,川崎市高津区,新作６丁目８番２１号,,14,134,2130014,,,2021-12-06,清算の結了等,,,2015-10-05,1,,,,,モリヤマサケテン,0
386,2020002103193,登記記録の閉鎖等,0,2021-12-09,2021-12-06,有限会社サハンジ,,有限会社,神奈川県,川崎市多摩区,長沢３丁目１５番１号,,14,135,2140035,,,2021-12-06,清算の結了等,,,2015-10-05,1,,,,,サハンジ,0
387,2020003006775,登記記録の閉鎖等,0,2021-12-09,2021-12-06,インディーズ合同会社,,合同会社,神奈川県,川崎市高津区,久末４７４番地１,,14,134,2130026,,,2021-12-06,清算の結了等,,,2015-10-05,1,,,,,インディーズ,0
411,2030005018842,登記記録の閉鎖等,0,2021-12-09,2021-12-03,社会保険労務士法人オフィスムラタ,,その他の設立登記法人,埼玉県,飯能市,大字双柳３５３番地５２,,11,209,3570021,,,2021-12-03,清算の結了等,,,2018-01-29,1,,,,,オフィスムラタ,0
417,2040001113753,登記記録の閉鎖等,0,2021-12-09,2021-12-06,株式会社アペリア,,株式会社,千葉県,千葉市中央区,市場町６番地８クリスタルスクエア１１３号室,,12,101,2600855,,,2021-12-06,清算の結了等,,,2020-05-26,1,,,,,アペリア,0
421,2040002101947,登記記録の閉鎖等,0,2021-12-09,2021-12-02,有限会社山五製作所,,有限会社,千葉県,いすみ市,大原９６７４番地,,12,238,2980004,,,2021-12-02,清算の結了等,,,2015-10-05,1,,,,,ヤマゴセイサクショ,0
422,2040003017416,登記記録の閉鎖等,0,2021-12-09,2021-12-01,合同会社フォーポインツホワイトウッド,,合同会社,千葉県,いすみ市,小池２８１,,12,238,2980013,,,2021-12-01,清算の結了等,,,2021-04-05,1,,,,,フォーポインツホワイトウッド,0
424,2050001011725,登記記録の閉鎖等,0,2021-12-09,2021-12-03,株式会社トシコ・コーポレーション,,株式会社,茨城県,石岡市,国府４丁目３番２４号,,08,205,3150014,,,2021-12-03,清算の結了等,,,2015-10-05,1,,,,,トシココーポレーション,0
428,2070001015567,登記記録の閉鎖等,0,2021-12-09,2021-12-06,株式会社新井製作所,,株式会社,群馬県,桐生市,相生町２丁目６９４番地の９,,10,203,3760011,,,2021-12-06,清算の結了等,,,2015-10-05,1,,,,,アライセイサクショ,0
437,2080102015416,登記記録の閉鎖等,0,2021-12-09,2021-12-06,有限会社渡辺興業,,有限会社,静岡県,富士市,久沢５４１番地,,22,210,4190202,,,2021-12-06,清算の結了等,,,2015-10-05,1,,,,,ワタナベコウギョウ,0
441,2100002026270,登記記録の閉鎖等,0,2021-12-09,2021-12-06,有限会社こまくさ,,有限会社,長野県,大町市,大町３５９０番地６,,20,212,3980002,,,2021-12-06,清算の結了等,,,2015-10-05,1,,,,,コマクサ,0
446,2110003001321,登記記録の閉鎖等,0,2021-12-09,2021-12-03,合資会社市川酒造店,,合資会社,新潟県,上越市,頸城区千原２番地２,,15,222,9420131,,,2021-12-03,清算の結了等,,,2015-10-05,1,,,,,イチカワシュゾウテン,0
455,2120001216481,登記記録の閉鎖等,0,2021-12-09,2021-12-08,株式会社フミウェル,,株式会社,奈良県,大和高田市,大字池田５５８番地１５,,29,202,6350077,,,2021-12-08,清算の結了等,,,2018-10-12,1,,,,,フミウェル,0
467,2120101007038,登記記録の閉鎖等,0,2021-12-09,2021-12-06,株式会社峰松,,株式会社,大阪府,堺市北区,百舌鳥西之町３丁６６８番地,,27,146,5918033,,,2021-12-06,合併による解散等,2120001016980,令和３年１２月１日大阪市生野区巽南二丁目１番６号エンド商事株式会社（2120001016980）に合併し解散,2015-10-05,1,,,,,ミネマツ,0
472,2120102000685,登記記録の閉鎖等,0,2021-12-09,2021-11-22,有限会社エス・エム・ティ,,有限会社,大阪府,堺市西区,浜寺石津町中１丁２番２６号,,27,144,5928334,,,2021-11-22,合併による解散等,6120101002563,令和３年１１月２１日大阪府堺市西区浜寺石津町中一丁２番２６号サイモト自転車株式会社（6120101002563）に合併し解散,2015-10-05,1,,,,,エスエムティ,0
477,2122001027025,登記記録の閉鎖等,0,2021-12-09,2021-12-06,株式会社ルーター,,株式会社,大阪府,東大阪市,立花町１１番９号,,27,227,5798023,,,2021-12-06,清算の結了等,,,2015-10-05,1,,,,,,0
481,2140001033909,登記記録の閉鎖等,0,2021-12-09,2021-12-06,株式会社ａｔｅｌｉｅｒカボダロカ,,株式会社,兵庫県,神戸市中央区,海岸通３丁目１－１,,28,110,6500024,,,2021-12-06,清算の結了等,,,2015-10-05,1,,,,,アトリエカボダロカ,0
486,2140005015291,登記記録の閉鎖等,0,2021-12-09,2021-12-07,特定非営利活動法人兵庫チャレンジドつどいクラブ,,その他の設立登記法人,兵庫県,姫路市,西大寿台５番１６号,,28,201,6700897,,,2021-12-07,清算の結了等,,,2015-10-05,1,,,,,ヒョウゴチャレンジドツドイクラブ,0
488,2160001020104,登記記録の閉鎖等,0,2021-12-09,2021-12-03,株式会社ＰＬＩＦＥ,,株式会社,東京都,中央区,日本橋３丁目２番１４号新槇町ビル別館第一,,13,102,1030027,,,2021-12-03,清算の結了等,,,2017-04-05,1,,,,,プライフ,0
496,2180002009367,登記記録の閉鎖等,0,2021-12-09,2021-12-03,有限会社梶田重機,,有限会社,愛知県,名古屋市瑞穂区,白砂町３丁目４７番地の４,,23,108,4670056,,,2021-12-03,清算の結了等,,,2015-10-05,1,,,,,カジタジュウキ,0
502,2190002008137,登記記録の閉鎖等,0,2021-12-09,2021-11-30,有限会社浅野堂時計店,,有限会社,三重県,伊勢市,一之木２丁目３番１３号,,24,203,5160071,,,2021-11-30,清算の結了等,,,2015-10-05,1,,,,,アサノドウトケイテン,0
524,2290001013292,登記記録の閉鎖等,0,2021-12-09,2021-12-03,株式会社さかい,,株式会社,福岡県,糸島市,高田１丁目６番３０号,,40,230,8191102,,,2021-12-03,清算の結了等,,,2015-10-05,1,,,,,サカイ,0
536,2330001018122,登記記録の閉鎖等,0,2021-12-09,2021-12-07,テクノワン株式会社,,株式会社,熊本県,玉名市,滑石８１４番地,,43,206,8650056,,,2021-12-07,清算の結了等,,,2015-10-05,1,,,,,テクノワン,0
559,2410001002456,登記記録の閉鎖等,0,2021-12-09,2021-12-03,株式会社まるやま東北,,株式会社,秋田県,秋田市,南通亀の町３番１３号,,05,201,0100011,,,2021-12-03,合併による解散等,3011701007544,令和３年１２月１日東京都江戸川区南小岩七丁目３８番３号株式会社まるやま（3011701007544）に合併し解散,2015-10-05,1,,,,,マルヤマトウホク,0
562,2430001003139,登記記録の閉鎖等,0,2021-12-09,2021-12-07,株式会社北欧マテリアル,,株式会社,北海道,夕張郡由仁町,熊本９２９番地,,01,427,0691136,,,2021-12-07,清算の結了等,,,2015-10-05,1,,,,,ホクオウマテリアル,0
572,2460305000300,登記記録の閉鎖等,0,2021-12-09,2021-11-25,天理教北頭分教会,,その他の設立登記法人,北海道,北見市,留辺蘂町温根湯温泉３０９番地,,01,208,0910170,,,2021-11-25,合併による解散等,6430005008469,令和３年１１月２２日北海道虻田郡倶知安町北六条東九丁目１番地１３天理教北冨士分教会（6430005008469）に合併し解散,2015-10-05,1,,,,,テンリキョウキタトウブンキョウカイ,0
588,3010001199679,登記記録の閉鎖等,0,2021-12-09,2021-12-06,エプレディア・ジャパン株式会社,,株式会社,神奈川県,横浜市神奈川区,守屋町３丁目９－１３ＴＶＰビル３０２,,14,102,2210022,,,2021-12-06,清算の結了等,,,2019-04-03,1,,,,,エプレディアジャパン,0
596,3010002035593,登記記録の閉鎖等,0,2021-12-09,2021-12-06,有限会社竹山康彦事務所,,有限会社,千葉県,千葉市美浜区,打瀬１丁目１１番地１,,12,106,2610013,,,2021-12-06,清算の結了等,,,2015-10-05,1,,,,,タケヤマヤスヒコジムショ,0
602,3010401156981,登記記録の閉鎖等,0,2021-12-09,2021-12-02,株式会社エリクトニオ,,株式会社,東京都,港区,海岸２丁目２番９号カナルフロント芝浦５０７,,13,103,1050022,,,2021-12-02,清算の結了等,,,2020-12-11,1,,,,,エリクトニオ,0
616,3010601040093,登記記録の閉鎖等,0,2021-12-09,2021-12-02,ＡＧＣ－ＬＩＸＩＬウィンドウテクノロジー株式会社,,株式会社,東京都,江東区,大島２丁目１番１号,,13,108,1360072,,,2021-12-02,清算の結了等,,,2015-10-05,1,,,,,エージーシーリクシルウィンドウテクノロジー,0
618,3010701020887,登記記録の閉鎖等,0,2021-12-09,2021-12-03,株式会社Ｙ・Ｈ・Ｋ,,株式会社,東京都,品川区,平塚１丁目３番１５号,,13,109,1420051,,,2021-12-03,清算の結了等,,,2015-10-05,1,,,,,ワイエイチケー,0
651,3011401021110,登記記録の閉鎖等,0,2021-12-09,2021-12-06,澤遠株式会社,,株式会社,埼玉県,川口市,宮町１０－６パレス宮町３０７号,,11,203,3320028,,,2021-12-06,清算の結了等,,,2018-06-15,1,,,,,サワエン,0
653,3011601014450,登記記録の閉鎖等,0,2021-12-09,2021-12-07,東光産業株式会社,,株式会社,東京都,練馬区,貫井１丁目４２番２号,,13,120,1760021,,,2021-12-07,清算の結了等,,,2015-10-05,1,,,,,トウコウサンギョウ,0
661,3011805003019,登記記録の閉鎖等,0,2021-12-09,2021-12-02,一般社団法人幸せの翼,,その他の設立登記法人,東京都,荒川区,荒川７丁目４６番１－５０４号,,13,118,1160002,,,2021-12-02,清算の結了等,,,2020-11-06,1,,,,,シアワセノツバサ,0
675,3012802011245,登記記録の閉鎖等,0,2021-12-09,2021-12-01,有限会社藤開発,,有限会社,東京都,立川市,西砂町１丁目４３番地の７,,13,202,1900034,,,2021-12-01,合併による解散等,8013401006490,令和３年１２月１日東京都日野市程久保八丁目１８番地の２４株式会社タマホーム（8013401006490）に合併し解散,2015-10-05,1,,,,,フジカイハツ,0
718,3030002035773,登記記録の閉鎖等,0,2021-12-09,2021-12-08,有限会社芳賀電機工事,,有限会社,埼玉県,入間市,大字小谷田９６番地,,11,225,3580026,,,2021-12-08,清算の結了等,,,2015-10-05,1,,,,,ハガデンキコウジ,0
723,3040001076272,登記記録の閉鎖等,0,2021-12-09,2021-12-07,株式会社ウィーズピュア,,株式会社,埼玉県,北葛飾郡松伏町,大字築比地７９５番地１,,11,465,3430102,,,2021-12-07,合併による解散等,7040002076607,令和３年１２月１日千葉県市原市姉崎１９９６番地１株式会社ウィーズ千葉（7040002076607）に合併し解散,2015-10-05,1,,,,,ウィーズピュア,0
726,3040001107060,登記記録の閉鎖等,0,2021-12-09,2021-12-06,株式会社ｍｉｎｏｒｉ,,株式会社,千葉県,船橋市,前原西２丁目３２番９号山崎ビル３０２号,,12,204,2740825,,,2021-12-06,清算の結了等,,,2018-11-28,1,,,,,ミノリ,0
730,3040005018774,登記記録の閉鎖等,0,2021-12-09,2021-12-02,一般社団法人ＣＯＮＣＩＥＲＧＥ成田,,その他の設立登記法人,千葉県,印旛郡栄町,安食２３８０番地の９０,,12,329,2701516,,,2021-12-02,清算の結了等,,,2015-10-13,1,,,,,コンシェルジュナリタ,0
733,3050001024940,登記記録の閉鎖等,0,2021-12-09,2021-12-02,株式会社Ｖｉｔａ・葵民急,,株式会社,茨城県,水戸市,千波町１６６１番４クレールメゾン桜１１２号室,,08,201,3100851,,,2021-12-02,清算の結了等,,,2015-10-05,1,,,,,ヴィータアオイミンキュウ,0
737,3070001026514,登記記録の閉鎖等,0,2021-12-09,2021-12-07,アカギシステムズ株式会社,,株式会社,群馬県,邑楽郡大泉町,大字吉田３４１５番地,,10,524,3700523,,,2021-12-07,清算の結了等,,,2015-10-05,1,,,,,アカギシステムズ,0
746,3080102011050,登記記録の閉鎖等,0,2021-12-09,2021-12-03,有限会社東部開発,,有限会社,静岡県,田方郡函南町,平井１３７１番地の３４,,22,325,4190107,,,2021-12-03,清算の結了等,,,2015-10-05,1,,,,,トウブカイハツ,0
748,3100002035270,登記記録の閉鎖等,0,2021-12-09,2021-12-06,有限会社テクノサービス社,,有限会社,長野県,上伊那郡辰野町,大字伊那富２６８６番地１,,20,382,3990428,,,2021-12-06,清算の結了等,,,2015-10-05,1,,,,,テクノサービスシャ,0
753,3110002030898,登記記録の閉鎖等,0,2021-12-09,2021-12-02,有限会社魚三,,有限会社,新潟県,長岡市,滝の下町４番４６号,,15,202,9400226,,,2021-12-02,清算の結了等,,,2015-10-05,1,,,,,ウオサン,0
758,3120001066232,登記記録の閉鎖等,0,2021-12-09,2021-12-06,株式会社ソフトアップ,,株式会社,大阪府,大阪市北区,西天満４丁目１５番１８号,,27,127,5300047,,,2021-12-06,清算の結了等,,,2015-10-05,1,,,,,ソフトアップ,0
763,3120001179067,登記記録の閉鎖等,0,2021-12-09,2021-12-06,株式会社ＲＢＮＥＴ,,株式会社,大阪府,大阪市中央区,南船場１丁目３－９プレミアム長堀ビル８Ｆ,,27,128,5420081,,,2021-12-06,清算の結了等,,,2015-10-05,1,,,,,アールビーネット,0
778,3140001111762,登記記録の閉鎖等,0,2021-12-09,2021-12-06,Ｗｏｒｌｄ　Ｉｍｐｏｒｔ株式会社,,株式会社,兵庫県,神戸市長田区,四番町３丁目４番地の３２,,28,106,6530004,,,2021-12-06,清算の結了等,,,2018-11-02,1,,,,,ワールドインポート,0
812,3240001028699,登記記録の閉鎖等,0,2021-12-09,2021-11-30,株式会社川口製作所,,株式会社,広島県,広島市佐伯区,五日市駅前３丁目５番１２号小山ビル２０１,,34,108,7315125,,,2021-11-30,合併による解散等,4240002025554,令和３年１１月３０日広島市西区井口台一丁目１９番９号株式会社Ｔ．Ｓ．Ｋ（4240002025554）に合併し解散,2015-10-05,1,,,,,カワグチセイサクショ,0
816,3250002007981,登記記録の閉鎖等,0,2021-12-09,2021-12-07,有限会社有佐薬局,,有限会社,山口県,下関市,小月駅前１丁目６番２７号,,35,201,7501143,,,2021-12-07,清算の結了等,,,2015-10-05,1,,,,,アリサヤッキョク,0
820,3270002010001,登記記録の閉鎖等,0,2021-12-09,2021-12-08,倉吉車輌サービス有限会社,,有限会社,鳥取県,倉吉市,伊木２１９番地,,31,203,6820024,,,2021-12-08,清算の結了等,,,2015-10-05,1,,,,,クラヨシシャリョウサービス,0
841,3340001020547,登記記録の閉鎖等,0,2021-12-09,2021-12-02,株式会社ＷＷ,,株式会社,福岡県,福岡市中央区,春吉３丁目２２番２５号,,40,133,8100003,,,2021-12-02,清算の結了等,,,2017-08-14,1,,,,,ダブリュダブリュ,0
847,3370801001248,登記記録の閉鎖等,0,2021-12-09,2021-12-02,株式会社松村工業所,,株式会社,宮城県,亘理郡山元町,坂元字道合３７番地,,04,362,9892111,,,2021-12-02,清算の結了等,,,2015-10-05,1,,,,,マツムラコウギョウショ,0
851,3400002001408,登記記録の閉鎖等,0,2021-12-09,2021-12-08,有限会社佐々木ビル,,有限会社,岩手県,盛岡市,箱清水１丁目１３番５号,,03,201,0200116,,,2021-12-08,清算の結了等,,,2015-10-05,1,,,,,ササキビル,0
858,3430002056936,登記記録の閉鎖等,0,2021-12-09,2021-12-06,有限会社菊池石材店,,有限会社,北海道,虻田郡倶知安町,字琴平１７４番地１０,,01,400,0440066,,,2021-12-06,清算の結了等,,,2015-10-05,1,,,,,キクチセキザイテン,0
860,3430003006304,登記記録の閉鎖等,0,2021-12-09,2021-12-03,合同会社エクエス月寒,,合同会社,北海道,札幌市中央区,南五条西１１丁目１２８８番地１３,,01,101,0640805,,,2021-12-03,合併による解散等,4430003004967,令和３年１２月１日札幌市中央区南五条西十一丁目１２８８番地１３合同会社マリナーズコート（4430003004967）に合併し解散,2015-10-05,1,,,,,エクエスツキサム,0
871,4010001033011,登記記録の閉鎖等,0,2021-12-09,2021-12-02,日本企画宣伝株式会社,,株式会社,東京都,千代田区,二番町１１番地９,,13,101,1020084,,,2021-12-02,清算の結了等,,,2015-10-05,1,,,,,ニホンキカクセンデン,0
876,4010001116063,登記記録の閉鎖等,0,2021-12-09,2021-12-03,株式会社ＢＴＣ,,株式会社,東京都,千代田区,神田錦町１丁目１６番地,,13,101,1010054,,,2021-12-03,清算の結了等,,,2015-10-05,1,,,,,ビーティーシー,0
879,4010001160656,登記記録の閉鎖等,0,2021-12-09,2021-12-03,株式会社レイディアント,,株式会社,東京都,文京区,白山２丁目３０番５号,,13,105,1120001,,,2021-12-03,清算の結了等,,,2015-10-05,1,,,,,,0
895,4010005032439,登記記録の閉鎖等,0,2021-12-09,2021-12-07,一般社団法人Ｍｅｄｉｃａｌ　Ａｘｉｓ　Ｔｏｋｙｏ,,その他の設立登記法人,東京都,千代田区,内神田２丁目５番３号,,13,101,1010047,,,2021-12-07,清算の結了等,,,2020-10-21,1,,,,,メディカルアクシストウキョウ,0
898,4010103001469,登記記録の閉鎖等,0,2021-12-09,2021-12-07,合同会社トーサイ工装,,合同会社,東京都,八王子市,八幡町１４－１２シティパレス８０１,,13,201,1920053,,,2021-12-07,清算の結了等,,,2019-11-07,1,,,,,トーサイコウソウ,0
914,4010501024121,登記記録の閉鎖等,0,2021-12-09,2021-12-06,ＳＨＩＮＷＡ　ＴＲＡＤＩＮＧ株式会社,,株式会社,東京都,台東区,今戸２丁目１７番１０号,,13,106,1110024,,,2021-12-06,清算の結了等,,,2015-10-05,1,,,,,シンワトレーディング,0
943,4011802023299,登記記録の閉鎖等,0,2021-12-09,2021-12-08,有限会社永井彫金工房,,有限会社,東京都,足立区,中川３丁目２０番６号,,13,121,1200002,,,2021-12-08,清算の結了等,,,2015-10-05,1,,,,,,0
946,4011805001970,登記記録の閉鎖等,0,2021-12-09,2021-12-08,特定非営利活動法人高齢者のペット飼育支援獣医師ネットワーク,,その他の設立登記法人,東京都,足立区,東和４丁目１２番１７号ラ・ポエＹＳＡ１０２,,13,121,1200003,,,2021-12-08,清算の結了等,,,2015-10-05,1,,,,,コウレイシャノペットシイクシエンジュウイシネットワーク,0
954,4013205001667,登記記録の閉鎖等,0,2021-12-09,2021-11-29,特定非営利活動法人世界菩提達摩協会,,その他の設立登記法人,東京都,目黒区,東山２丁目１１－３,,13,110,1530043,,,2021-11-29,清算の結了等,,,2015-10-05,1,,,,,セカイボダイダルマキョウカイ,0
956,4013401006362,登記記録の閉鎖等,0,2021-12-09,2021-12-01,株式会社アダプトワン,,株式会社,東京都,稲城市,東長沼３１１５番地の３,,13,225,2060802,,,2021-12-01,清算の結了等,,,2015-10-05,1,,,,,アダプトワン,0
963,4020002075836,登記記録の閉鎖等,0,2021-12-09,2021-12-06,合同会社Ｂ．Ｃ．Ｃ．Ｅ．,,合同会社,神奈川県,横浜市保土ケ谷区,桜ケ丘１丁目２１－４,,14,106,2400011,,,2021-12-06,清算の結了等,,,2015-10-05,1,,,,,ビーシーシーイー,0
969,4030001008548,登記記録の閉鎖等,0,2021-12-09,2021-12-07,株式会社やの美装,,株式会社,埼玉県,さいたま市見沼区,大字大谷３２番地の８,,11,104,3370014,,,2021-12-07,清算の結了等,,,2015-10-05,1,,,,,ヤノビソウ,0
976,4030001104603,登記記録の閉鎖等,0,2021-12-09,2021-12-07,株式会社磐双サービス,,株式会社,埼玉県,飯能市,大字下川崎３２４－３,,11,209,3570012,,,2021-12-07,清算の結了等,,,2015-10-05,1,,,,,バンソウサービス,0
978,4030001136596,登記記録の閉鎖等,0,2021-12-09,2021-12-06,株式会社ジュピター,,株式会社,埼玉県,さいたま市浦和区,常盤１丁目３番９号ロイヤルプラザ常盤３１５号,,11,107,3300061,,,2021-12-06,清算の結了等,,,2020-05-25,1,,,,,ジュピター,0
982,4030002107547,登記記録の閉鎖等,0,2021-12-09,2021-12-01,有限会社宮島金属精密,,有限会社,埼玉県,川口市,弥平２丁目２番２１号,,11,203,3320002,,,2021-12-01,清算の結了等,,,2015-10-05,1,,,,,ミヤジマキンゾクセイミツ,0
983,4030003011822,登記記録の閉鎖等,0,2021-12-09,2021-12-08,合同会社山田建設,,合同会社,埼玉県,蓮田市,大字川島３１０番地１ブレッザ２０４号,,11,238,3490112,,,2021-12-08,清算の結了等,,,2018-04-26,1,,,,,ヤマダケンセツ,0
986,4040001023190,登記記録の閉鎖等,0,2021-12-09,2021-12-03,株式会社あんしんステーション,,株式会社,千葉県,船橋市,海神２丁目１７番４５－３１０号,,12,204,2730021,,,2021-12-03,清算の結了等,,,2015-10-05,1,,,,,アンシンステーション,0
997,4040002034848,登記記録の閉鎖等,0,2021-12-09,2021-12-03,有限会社設計工房大竹建築事務所,,有限会社,千葉県,市川市,真間５丁目１４番１３号,,12,203,2720826,,,2021-12-03,清算の結了等,,,2015-10-05,1,,,,,セッケイコウボウオオタケケンチクジムショ,0
999,4040003008628,登記記録の閉鎖等,0,2021-12-09,2021-12-06,合同会社太陽・水・いのち,,合同会社,千葉県,柏市,豊四季６７８番地３６２,,12,217,2770863,,,2021-12-06,清算の結了等,,,2016-05-24,1,,,,,タイヨウミズイノチ,0
1009,4070001032016,登記記録の閉鎖等,0,2021-12-09,2021-12-07,株式会社ロビン,,株式会社,群馬県,藤岡市,中大塚３２４番地１,,10,209,3750053,,,2021-12-07,清算の結了等,,,2016-04-05,1,,,,,ロビン,0
1020,4100001005463,登記記録の閉鎖等,0,2021-12-09,2021-12-06,株式会社石合美彩,,株式会社,長野県,須坂市,大字須坂１０６６番地,,20,207,3820000,,,2021-12-06,清算の結了等,,,2015-10-05,1,,,,,イシアイビサイ,0
1022,4100002024933,登記記録の閉鎖等,0,2021-12-09,2021-12-06,有限会社シンエイ物流,,有限会社,長野県,塩尻市,大字塩尻町１４３番地６,,20,215,3990712,,,2021-12-06,清算の結了等,,,2015-10-05,1,,,,,シンエイブツリュウ,0
1028,4120001135110,登記記録の閉鎖等,0,2021-12-09,2021-12-07,オービー・アークスカンパニー株式会社,,株式会社,大阪府,大阪市阿倍野区,阿倍野筋１丁目７番２０－４００２号,,27,119,5450052,,,2021-12-07,清算の結了等,,,2015-10-05,1,,,,,オービーアークスカンパニー,0
1057,4140001048533,登記記録の閉鎖等,0,2021-12-09,2021-12-02,株式会社ホワイト,,株式会社,兵庫県,尼崎市,西立花町１丁目１番３号,,28,202,6600054,,,2021-12-02,清算の結了等,,,2015-10-05,1,,,,,ホワイト,0
1061,4140002006449,登記記録の閉鎖等,0,2021-12-09,2021-12-07,有限会社浜田商店,,有限会社,兵庫県,神戸市垂水区,神陵台３丁目２番１号,,28,108,6550041,,,2021-12-07,清算の結了等,,,2015-10-05,1,,,,,ハマダショウテン,0
1064,4160001010607,登記記録の閉鎖等,0,2021-12-09,2021-12-08,株式会社一才屋,,株式会社,滋賀県,近江八幡市,多賀町３５番地の４,,25,204,5230821,,,2021-12-08,清算の結了等,,,2015-10-05,1,,,,,イッサイヤ,0
1065,4160001013477,登記記録の閉鎖等,0,2021-12-09,2021-12-07,株式会社田中芳治商店,,株式会社,滋賀県,栗東市,坊袋２１２番地４,,25,208,5203023,,,2021-12-07,清算の結了等,,,2015-10-05,1,,,,,タナカヨシハルショウテン,0
1077,4180002017905,登記記録の閉鎖等,0,2021-12-09,2021-12-06,桐山有限会社,,有限会社,愛知県,名古屋市瑞穂区,彌富町字月見ケ岡５７番地の１,,23,108,4670035,,,2021-12-06,清算の結了等,,,2015-10-05,1,,,,,キリヤマ,0
1083,4190001020371,登記記録の閉鎖等,0,2021-12-09,2021-12-07,株式会社ワココロ,,株式会社,三重県,伊賀市,北山１６８０番地の１２３１,,24,216,5180204,,,2021-12-07,清算の結了等,,,2015-10-05,1,,,,,ワココロ,0
1086,4200002018710,登記記録の閉鎖等,0,2021-12-09,2021-12-09,有限会社佐太郎商店,,有限会社,岐阜県,関市,大門町２丁目２５番地,,21,205,5013834,,,2021-12-09,清算の結了等,,,2015-10-05,1,,,,,サタロウショウテン,0
1095,4230002008221,登記記録の閉鎖等,0,2021-12-09,2021-12-03,有限会社山崎工務店,00079115,有限会社,富山県,黒部市,田家新８７７番地,,16,207,9380045,,,2021-12-03,清算の結了等,,,2015-10-05,1,,,,,ヤマザキコウムテン,0
1100,4260002017582,登記記録の閉鎖等,0,2021-12-09,2021-12-03,有限会社木村商店,,有限会社,岡山県,倉敷市,老松町１丁目７番２３号,,33,202,7100826,,,2021-12-03,清算の結了等,,,2015-10-05,1,,,,,キムラショウテン,0
1103,4270005000097,登記記録の閉鎖等,0,2021-12-09,2021-12-02,医療法人大谷整形外科医院,,その他の設立登記法人,鳥取県,鳥取市,正蓮寺４２番地の１,,31,201,6800854,,,2021-12-02,清算の結了等,,,2015-10-05,1,,,,,オオタニセイケイゲカイイン,0
1115,4290802014479,登記記録の閉鎖等,0,2021-12-09,2021-12-03,誠和薬局有限会社,,有限会社,福岡県,北九州市八幡西区,相生町３番地１４,,40,109,8060044,,,2021-12-03,清算の結了等,,,2015-10-05,1,,,,,セイワヤッキョク,0
1116,4290805008809,登記記録の閉鎖等,0,2021-12-09,2021-12-01,社会福祉法人緑悠会,,その他の設立登記法人,福岡県,北九州市小倉南区,長行東３丁目１４番３号,,40,107,8030273,,,2021-12-01,清算の結了等,,,2016-01-19,1,,,,,リョクユウカイ,0
1122,4340002016329,登記記録の閉鎖等,0,2021-12-09,2021-12-07,有限会社鹿児島農園,,有限会社,鹿児島県,霧島市,隼人町松永５２３５番地１,,46,218,8995112,,,2021-12-07,清算の結了等,,,2015-10-05,1,,,,,カゴシマノウエン,0
1140,4400505000509,登記記録の閉鎖等,0,2021-12-09,2021-11-25,天理教東陸分教会,,その他の設立登記法人,岩手県,一関市,藤沢町砂子田字八森沢１２７番地,,03,209,0293403,,,2021-11-25,合併による解散等,2400505000188,令和３年１１月２５日岩手県一関市字桜街１４番地天理教磐井分教会（2400505000188）に合併し解散,2015-10-05,1,,,,,テンリキョウトウリクブンキョウカイ,0
1147,4430002002699,登記記録の閉鎖等,0,2021-12-09,2021-12-07,有限会社永伸稲見商事,,有限会社,北海道,札幌市白石区,平和通１１丁目南３番１号,,01,104,0030028,,,2021-12-07,清算の結了等,,,2015-10-05,1,,,,,エイシンイナミショウジ,0
1175,5010003019081,登記記録の閉鎖等,0,2021-12-09,2021-12-06,合同会社Ｎｒｅｎ－２,,合同会社,東京都,千代田区,麹町１丁目３ダイアン麹町ビル４０４,,13,101,1020083,,,2021-12-06,清算の結了等,,,2015-10-05,1,,,,,エヌレンツー,0
1178,5010401140637,登記記録の閉鎖等,0,2021-12-09,2021-12-01,株式会社プラスジョブ,,株式会社,東京都,港区,赤坂２丁目２１番５号ＡＢＣ,,13,103,1070052,,,2021-12-01,清算の結了等,,,2018-09-06,1,,,,,プラスジョブ,0
1180,5010402000823,登記記録の閉鎖等,0,2021-12-09,2021-12-02,有限会社赤坂石,,有限会社,東京都,港区,赤坂３丁目９番１５号,,13,103,1070052,,,2021-12-02,清算の結了等,,,2015-10-05,1,,,,,アカサカセキ,0
1183,5010501002332,登記記録の閉鎖等,0,2021-12-09,2021-12-07,株式会社上手製作所,,株式会社,東京都,台東区,日本堤２丁目８番１号,,13,106,1110021,,,2021-12-07,清算の結了等,,,2015-10-05,1,,,,,カミテセイサクショ,0
1209,5011101007630,登記記録の閉鎖等,0,2021-12-09,2021-12-06,株式会社坂本測量設計,,株式会社,東京都,東久留米市,野火止３丁目９番４号,,13,222,2030041,,,2021-12-06,清算の結了等,,,2015-10-05,1,,,,,サカモトソクリョウセッケイ,0
1234,5012802001104,登記記録の閉鎖等,0,2021-12-09,2021-12-08,有限会社翔英工業,00059175,有限会社,東京都,立川市,幸町２丁目６番地１５,,13,202,1900002,,,2021-12-08,清算の結了等,,,2015-10-05,1,,,,,,0
1248,5020002011427,登記記録の閉鎖等,0,2021-12-09,2021-12-06,有限会社オダ商会,,有限会社,神奈川県,横浜市戸塚区,平戸２丁目１５番４４号,,14,110,2440802,,,2021-12-06,清算の結了等,,,2015-10-05,1,,,,,オダショウカイ,0
1252,5020005014294,登記記録の閉鎖等,0,2021-12-09,2021-12-07,一般社団法人タヒチアンダンス協会Ｏｒｉ　Ｊａｐａｎ,,その他の設立登記法人,神奈川県,横浜市緑区,白山１丁目８番１－６２３号,,14,113,2260006,,,2021-12-07,清算の結了等,,,2019-09-04,1,,,,,タヒチアンダンスキョウカイオリジャパン,0
1254,5021001020311,登記記録の閉鎖等,0,2021-12-09,2021-12-06,ニューコロナ株式会社,,株式会社,神奈川県,厚木市,上依知字堂坂上１４１９番地２,,14,212,2430801,,,2021-12-06,清算の結了等,,,2015-10-05,1,,,,,ニューコロナ,0
1260,5030001022878,登記記録の閉鎖等,0,2021-12-09,2021-12-07,株式会社アイユーパートナーズ,,株式会社,埼玉県,蕨市,塚越３丁目２１番９号,,11,223,3350002,,,2021-12-07,清算の結了等,,,2015-10-05,1,,,,,アイユーパートナーズ,0
1261,5030001101500,登記記録の閉鎖等,0,2021-12-09,2021-12-06,株式会社幸華,,株式会社,埼玉県,川越市,大字寺尾２９８番地１２,,11,201,3501141,,,2021-12-06,清算の結了等,,,2015-10-05,1,,,,,サイカ,0
1268,5030002011764,登記記録の閉鎖等,0,2021-12-09,2021-12-06,有限会社ファディッシュ,,有限会社,埼玉県,さいたま市大宮区,浅間町２丁目１６３番地の２,,11,103,3300842,,,2021-12-06,清算の結了等,,,2015-10-05,1,,,,,ファディッシュ,0
1280,5050001018940,登記記録の閉鎖等,0,2021-12-09,2021-11-30,株式会社オザワ,,株式会社,茨城県,猿島郡五霞町,大字幸主１０２０番地,,08,542,3060304,,,2021-11-30,清算の結了等,,,2015-10-05,1,,,,,オザワ,0
1294,5070002018343,登記記録の閉鎖等,0,2021-12-09,2021-12-07,有限会社新井電機製作所,,有限会社,群馬県,伊勢崎市,柳原町５３番地,,10,204,3720054,,,2021-12-07,清算の結了等,,,2015-10-05,1,,,,,,0
1295,5070002022171,登記記録の閉鎖等,0,2021-12-09,2021-12-03,有限会社アタックス,,有限会社,群馬県,伊勢崎市,曲輪町１番３号,,10,204,3720055,,,2021-12-03,清算の結了等,,,2015-10-05,1,,,,,アタックス,0
1314,5120001146024,登記記録の閉鎖等,0,2021-12-09,2021-12-03,三好貿易株式会社,,株式会社,大阪府,大阪市西成区,長橋１丁目５番４号,,27,122,5570025,,,2021-12-03,清算の結了等,,,2015-10-05,1,,,,,ミヨシボウエキ,0
1332,5140003005036,登記記録の閉鎖等,0,2021-12-09,2021-12-06,とらねこ教育合同会社,,合同会社,兵庫県,神戸市須磨区,大田町７丁目２番３号,,28,107,6540024,,,2021-12-06,清算の結了等,,,2015-10-05,1,,,,,トラネコキョウイク,0
1339,5180001108670,登記記録の閉鎖等,0,2021-12-09,2021-12-06,株式会社トゥーシン,,株式会社,愛知県,名古屋市昭和区,阿由知通４丁目１８番地の１トーカンマンション御器所１０５号,,23,107,4660027,,,2021-12-06,清算の結了等,,,2015-10-05,1,,,,,トゥーシン,0
1342,5180002023695,登記記録の閉鎖等,0,2021-12-09,2021-12-06,有限会社関工務店,,有限会社,愛知県,名古屋市西区,栄生３丁目２番８号,,23,104,4510052,,,2021-12-06,清算の結了等,,,2015-10-05,1,,,,,セキコウムテン,0
1357,5230002010523,登記記録の閉鎖等,0,2021-12-09,2021-12-06,有限会社ふきやま美容室,,有限会社,富山県,高岡市,伏木中央町２番２１号,,16,202,9330103,,,2021-12-06,清算の結了等,,,2015-10-05,1,,,,,フキヤマビヨウシツ,0
1362,5240002029034,登記記録の閉鎖等,0,2021-12-09,2021-12-01,有限会社計測サポート,,有限会社,広島県,東広島市,西条町下三永３５４番地の５７,,34,212,7390023,,,2021-12-01,清算の結了等,,,2015-10-05,1,,,,,ケイソクサポート,0
1363,5240003004498,登記記録の閉鎖等,0,2021-12-09,2021-12-02,ライフスタイルデザイン合同会社,,合同会社,広島県,広島市中区,三川町２－２０,,34,101,7300029,,,2021-12-02,清算の結了等,,,2019-12-16,1,,,,,ライフスタイルデザイン,0
1367,5290001034212,登記記録の閉鎖等,0,2021-12-09,2021-11-30,株式会社ブリィリィアー,,株式会社,福岡県,福岡市中央区,薬院４丁目１番７号,,40,133,8100022,,,2021-11-30,清算の結了等,,,2015-10-05,1,,,,,ブリィリィアー,0
1379,5290803001797,登記記録の閉鎖等,0,2021-12-09,2021-12-06,合同会社喜働,,合同会社,福岡県,行橋市,大橋１丁目１５番３７号,,40,213,8240003,,,2021-12-06,清算の結了等,,,2015-10-05,1,,,,,キドウ,0
1382,5310005001453,登記記録の閉鎖等,0,2021-12-09,2021-12-07,長崎板金工業協同組合,,その他の設立登記法人,長崎県,長崎市,城栄町４番１６号,,42,201,8528034,,,2021-12-07,清算の結了等,,,2015-10-05,1,,,,,ナガサキバンキンコウギョウ,0
1387,5340005006937,登記記録の閉鎖等,0,2021-12-09,2021-11-24,天理教鹿屋町分教会,,その他の設立登記法人,鹿児島県,鹿屋市,川西町４２７３番地の３,,46,203,8930032,,,2021-11-24,合併による解散等,6290005005547,令和３年１１月１８日福岡県古賀市千鳥二丁目２３番１号天理教西海大教会（6290005005547）に合併し解散,2015-10-05,1,,,,,テンリキョウカノヤマチブンキョウカイ,0
1390,5360001012549,登記記録の閉鎖等,0,2021-12-09,2021-12-02,株式会社わんたび,,株式会社,沖縄県,名護市,字宇茂佐３３３番１,,47,209,9050006,,,2021-12-02,清算の結了等,,,2015-10-05,1,,,,,ワンタビ,0
1398,5380001001104,登記記録の閉鎖等,0,2021-12-09,2021-12-06,株式会社日本ブライト,,株式会社,福島県,福島市,森合町２番２６号,,07,201,9608002,,,2021-12-06,清算の結了等,,,2015-10-05,1,,,,,,0
1409,5400003002452,登記記録の閉鎖等,0,2021-12-09,2021-12-06,合同会社ミキヒロ,,合同会社,岩手県,奥州市,江刺梁川字舘下１１０番地,,03,215,0231341,,,2021-12-06,清算の結了等,,,2019-04-03,1,,,,,ミキヒロ,0
1416,5430001059640,登記記録の閉鎖等,0,2021-12-09,2021-12-07,株式会社メイワ,,株式会社,北海道,札幌市手稲区,新発寒七条４丁目９番７号,,01,109,0060807,,,2021-12-07,清算の結了等,,,2015-10-05,1,,,,,メイワ,0
1420,5430005000526,登記記録の閉鎖等,0,2021-12-09,2021-11-02,天理教様幌分教会,,その他の設立登記法人,北海道,札幌市白石区,北郷四条１１丁目２０番３７号,,01,104,0030834,,,2021-11-02,合併による解散等,4430005009436,令和３年１１月２日北海道様似郡様似町栄町１１４番地１天理教静様分教会（4430005009436）に合併し解散,2015-10-05,1,,,,,テンリキョウサマホロブンキョウカイ,0
1431,5500001012575,登記記録の閉鎖等,0,2021-12-09,2021-12-07,渡邊商事株式会社,00007510,株式会社,愛媛県,今治市,延喜甲２４３番地,,38,202,7940084,,,2021-12-07,清算の結了等,,,2015-10-05,1,,,,,ワタナベショウジ,0
1445,6010001181915,登記記録の閉鎖等,0,2021-12-09,2021-12-03,株式会社エフディーアール,,株式会社,東京都,中央区,京橋１丁目４番１０号,,13,102,1040031,,,2021-12-03,合併による解散等,5030001119030,令和３年１２月１日埼玉県熊谷市石原二丁目１番地株式会社ケイディーアール（5030001119030）に合併し解散,2017-03-10,1,,,,,エフディーアール,0
1455,6010003032570,登記記録の閉鎖等,0,2021-12-09,2021-12-03,リニューアブルインフラ１号合同会社,,合同会社,東京都,千代田区,九段南３丁目７番７号成和綜合会計事務所内,,13,101,1020074,,,2021-12-03,清算の結了等,,,2020-07-16,1,,,,,リニューアブルインフライチゴウ,0
1495,6011101015426,登記記録の閉鎖等,0,2021-12-09,2021-12-03,名古美術印刷株式会社,,株式会社,東京都,新宿区,早稲田鶴巻町５４３番地,,13,104,1620041,,,2021-12-03,清算の結了等,,,2015-10-05,1,,,,,ナコビジュツインサツ,0
1496,6011101025870,登記記録の閉鎖等,0,2021-12-09,2021-12-03,株式会社シーコミュニケーションズ,,株式会社,東京都,新宿区,馬場下町６０番地,,13,104,1620045,,,2021-12-03,清算の結了等,,,2015-10-05,1,,,,,シーコミュニケーションズ,0
1499,6011101057550,登記記録の閉鎖等,0,2021-12-09,2021-12-03,株式会社スマイルラボラトリー,,株式会社,東京都,新宿区,西新宿１丁目２５番１号,,13,104,1600023,,,2021-12-03,清算の結了等,,,2015-10-05,1,,,,,スマイルラボラトリー,0
1545,6021001039053,登記記録の閉鎖等,0,2021-12-09,2021-12-02,株式会社京栄,,株式会社,神奈川県,中郡大磯町,国府本郷２８２番地の１,,14,341,2590111,,,2021-12-02,清算の結了等,,,2015-10-05,1,,,,,キョウエイ,0
1547,6021002038789,登記記録の閉鎖等,0,2021-12-09,2021-12-06,有限会社盛技研工業,,有限会社,神奈川県,秦野市,鶴巻南１丁目２１番２号,,14,211,2570002,,,2021-12-06,清算の結了等,,,2015-10-05,1,,,,,モリギケンコウギョウ,0
1549,6030001006401,登記記録の閉鎖等,0,2021-12-09,2021-12-08,日新ビルサービス株式会社,,株式会社,埼玉県,さいたま市浦和区,駒場１丁目２７番１０号,,11,107,3300051,,,2021-12-08,清算の結了等,,,2015-10-05,1,,,,,ニッシンビルサービス,0
1553,6030001051950,登記記録の閉鎖等,0,2021-12-09,2021-12-08,ブラザー精鋼株式会社,,株式会社,埼玉県,北葛飾郡杉戸町,大字本郷字東中６４５番１,,11,464,3450023,,,2021-12-08,清算の結了等,,,2015-10-05,1,,,,,,0
1557,6030001134004,登記記録の閉鎖等,0,2021-12-09,2021-12-06,株式会社ＳＭＴ,,株式会社,埼玉県,桶川市,泉２丁目３番２５号田中ビル３０１,,11,231,3630021,,,2021-12-06,清算の結了等,,,2019-11-27,1,,,,,エスエムティー,0
1573,6040002068175,登記記録の閉鎖等,0,2021-12-09,2021-12-06,有限会社伊藤良一商店,,有限会社,千葉県,袖ケ浦市,野里１７７８番地,,12,229,2990211,,,2021-12-06,清算の結了等,,,2015-10-05,1,,,,,イトウリョウイチショウテン,0
1574,6040003009806,登記記録の閉鎖等,0,2021-12-09,2021-12-07,合同会社山口興業,,合同会社,千葉県,鎌ケ谷市,鎌ケ谷７丁目１５番５４号（グロワール２０２）,,12,224,2730105,,,2021-12-07,清算の結了等,,,2017-03-13,1,,,,,ヤマグチコウギョウ,0
1577,6050001045141,登記記録の閉鎖等,0,2021-12-09,2021-11-29,株式会社テイク,,株式会社,茨城県,潮来市,水原６８６番地３,,08,223,3112404,,,2021-11-29,清算の結了等,,,2018-11-01,1,,,,,テイク,0
1590,6080003002328,登記記録の閉鎖等,0,2021-12-09,2021-12-08,プラミ合同会社,,合同会社,静岡県,静岡市葵区,駒形通６丁目１０番１２号,,22,101,4200042,,,2021-12-08,清算の結了等,,,2019-10-18,1,,,,,プラミ,0
1596,6100001006179,登記記録の閉鎖等,0,2021-12-09,2021-12-06,株式会社武田塗装工業,,株式会社,長野県,千曲市,大字八幡３７７０番地,,20,218,3870023,,,2021-12-06,清算の結了等,,,2015-10-05,1,,,,,タケダトソウコウギョウ,0
1615,6120102004501,登記記録の閉鎖等,0,2021-12-09,2021-12-01,丸高不動産有限会社,,有限会社,大阪府,堺市中区,深井沢町２６８８番地の１,,27,142,5998236,,,2021-12-01,清算の結了等,,,2015-10-05,1,,,,,マルタカフドウサン,0
1617,6122001015760,登記記録の閉鎖等,0,2021-12-09,2021-12-01,日当商事株式会社,,株式会社,大阪府,大東市,新田境町３番４６号,,27,218,5740051,,,2021-12-01,合併による解散等,2122001023825,令和３年１２月１日大阪府大東市諸福五丁目１３番１２号株式会社インフォプロセス（2122001023825）に合併し解散,2015-10-05,1,,,,,ニットウショウジ,0
1619,6130001033815,登記記録の閉鎖等,0,2021-12-09,2021-12-06,西日本通商株式会社,,株式会社,京都府,宇治市,広野町尖山２番地の１８,,26,204,6110031,,,2021-12-06,清算の結了等,,,2015-10-05,1,,,,,ニシニホンツウショウ,0
1627,6140003001190,登記記録の閉鎖等,0,2021-12-09,2021-12-06,合資会社加納商会,,合資会社,兵庫県,神戸市中央区,加納町２丁目４番１０号,,28,110,6500001,,,2021-12-06,清算の結了等,,,2015-10-05,1,,,,,カノウショウカイ,0
1631,6170001003285,登記記録の閉鎖等,0,2021-12-09,2021-12-08,株式会社明星,,株式会社,和歌山県,和歌山市,秋月８５番地の１３,,30,201,6408322,,,2021-12-08,清算の結了等,,,2015-10-05,1,,,,,メイセイ,0
1641,6180002046679,登記記録の閉鎖等,0,2021-12-09,2021-12-07,有限会社山藤,,有限会社,愛知県,名古屋市中区,錦３丁目１２番２２号,,23,106,4600003,,,2021-12-07,清算の結了等,,,2015-10-05,1,,,,,ヤマフジ,0
1643,6180002083846,登記記録の閉鎖等,0,2021-12-09,2021-12-03,有限会社日の出屋,,有限会社,愛知県,半田市,乙川西ノ宮町１丁目１番地,,23,205,4750068,,,2021-12-03,清算の結了等,,,2015-10-05,1,,,,,ヒノデヤ,0
1644,6180002085149,登記記録の閉鎖等,0,2021-12-09,2021-12-06,有限会社マコト工業,,有限会社,愛知県,大府市,森岡町５丁目１２６番地,,23,223,4740038,,,2021-12-06,清算の結了等,,,2015-10-05,1,,,,,マコトコウギョウ,0
1648,6180301011128,登記記録の閉鎖等,0,2021-12-09,2021-12-06,株式会社竹島ショッピングセンター,,株式会社,愛知県,蒲郡市,松原町４番３号,,23,214,4430033,,,2021-12-06,清算の結了等,,,2015-10-05,1,,,,,タケシマショッピングセンター,0
1649,6180301015830,登記記録の閉鎖等,0,2021-12-09,2021-12-07,高浜化成株式会社,,株式会社,愛知県,安城市,今池町３丁目１番３６号,,23,212,4460071,,,2021-12-07,合併による解散等,9180001029475,令和３年１２月１日名古屋市中村区名駅南二丁目１３番４号株式会社イノアックコーポレーション（9180001029475）に合併し解散,2015-10-05,1,,,,,タカハマカセイ,0
1656,6200001000766,登記記録の閉鎖等,0,2021-12-09,2021-12-03,株式会社おおの,,株式会社,岐阜県,岐阜市,寺町１０番地,,21,201,5008118,,,2021-12-03,清算の結了等,,,2015-10-05,1,,,,,オオノ,0
1719,6430002063277,登記記録の閉鎖等,0,2021-12-09,2021-12-07,有限会社佐藤土建,,有限会社,北海道,伊達市,山下町１４７番地,,01,233,0520032,,,2021-12-07,清算の結了等,,,2015-10-05,1,,,,,サトウドケン,0
1729,6480001004013,登記記録の閉鎖等,0,2021-12-09,2021-12-07,株式会社小鳥の巣出版,,株式会社,徳島県,小松島市,日開野町字北開３番地１１,,36,203,7730010,,,2021-12-07,清算の結了等,,,2015-10-05,1,,,,,コトリノスシュッパン,0
1797,7011201007082,登記記録の閉鎖等,0,2021-12-09,2021-12-02,ベルボン株式会社,,株式会社,東京都,中野区,野方６丁目１番５号,,13,114,1650027,,,2021-12-02,合併による解散等,6010001026384,令和３年１２月１日東京都千代田区九段北一丁目１２番１３号ハクバ写真産業株式会社（6010001026384）に合併し解散,2015-10-05,1,,,,,ベルボン,0
1799,7011202006901,登記記録の閉鎖等,0,2021-12-09,2021-12-03,有限会社東京セキュア会計社,,有限会社,東京都,中野区,南台３丁目６番１９号,,13,114,1640014,,,2021-12-03,清算の結了等,,,2015-10-05,1,,,,,トウキョウセキュアカイケイシャ,0
1804,7011302002750,登記記録の閉鎖等,0,2021-12-09,2021-12-07,有限会社菊屋,,有限会社,東京都,杉並区,浜田山４丁目１０番１０号,,13,115,1680065,,,2021-12-07,清算の結了等,,,2015-10-05,1,,,,,キクヤ,0
1829,7020005001142,登記記録の閉鎖等,0,2021-12-09,2021-12-06,ケベック・カリタス修道女会,,その他の設立登記法人,神奈川県,横浜市青葉区,あざみ野１丁目１６番地１５,,14,117,2250011,,,2021-12-06,清算の結了等,,,2015-10-05,1,,,,,ケベックカリタスシュウドウジョカイ,0
1843,7030002029623,登記記録の閉鎖等,0,2021-12-09,2021-12-06,株式会社ゆめりあ,,株式会社,東京都,豊島区,池袋２丁目５０番１号,,13,116,1710014,,,2021-12-06,合併による解散等,5180001038067,令和３年１２月１日名古屋市中村区名駅二丁目４５番１９号株式会社中部建築資料研究社（5180001038067）に合併し解散,2015-10-05,1,,,,,ユメリア,0
1845,7030002092737,登記記録の閉鎖等,0,2021-12-09,2021-12-03,有限会社ニューハッピー,,有限会社,埼玉県,鶴ヶ島市,脚折町１丁目１５番１号,,11,241,3502211,,,2021-12-03,清算の結了等,,,2015-10-05,1,,,,,ニューハッピー,0
1846,7040001045538,登記記録の閉鎖等,0,2021-12-09,2021-12-02,ＡＴＳ株式会社,,株式会社,千葉県,成田市,下金山７４４番地,,12,211,2860836,,,2021-12-02,清算の結了等,,,2015-10-05,1,,,,,エーティーエス,0
1847,7040001075997,登記記録の閉鎖等,0,2021-12-09,2021-12-03,株式会社ＥＳＣ,,株式会社,千葉県,柏市,柏７丁目１０番１７号第３マツダビル４Ｂ,,12,217,2770005,,,2021-12-03,清算の結了等,,,2015-10-05,1,,,,,イーエスシー,0
1854,7040001113352,登記記録の閉鎖等,0,2021-12-09,2021-12-06,株式会社エリシオン,,株式会社,千葉県,千葉市中央区,院内１丁目２番６号野村ビルディング院内２０２号,,12,101,2600018,,,2021-12-06,清算の結了等,,,2020-04-13,1,,,,,エリシオン,0
1856,7040002053382,登記記録の閉鎖等,0,2021-12-09,2021-12-02,有限会社ＣＢ．ｃｏｍ,,有限会社,千葉県,松戸市,松戸新田５００番地の８松戸グリーンハイツ４０１号,,12,207,2702241,,,2021-12-02,清算の結了等,,,2015-10-05,1,,,,,シービードットコム,0
1865,7080403002348,登記記録の閉鎖等,0,2021-12-09,2021-12-06,鑑建築設計合同会社,,合同会社,静岡県,浜松市南区,安松町６４番地の９,,22,134,4350034,,,2021-12-06,清算の結了等,,,2015-10-05,1,,,,,アキラケンチクセッケイ,0
1882,7120001231773,登記記録の閉鎖等,0,2021-12-09,2021-12-06,株式会社ＳＯＲＡ,,株式会社,大阪府,寝屋川市,黒原城内町２３番１１号（２０１号）,,27,215,5720050,,,2021-12-06,清算の結了等,,,2020-09-14,1,,,,,ソラ,0
1890,7120901033311,登記記録の閉鎖等,0,2021-12-09,2021-12-06,株式会社西岡,,株式会社,大阪府,豊中市,本町６丁目２番６号,,27,203,5600021,,,2021-12-06,清算の結了等,,,2015-10-05,1,,,,,ニシオカ,0
1898,7130001010598,登記記録の閉鎖等,0,2021-12-09,2021-12-07,株式会社小坂鉄工所,,株式会社,京都府,京都市南区,吉祥院這登中町４８番地の１,,26,107,6018353,,,2021-12-07,清算の結了等,,,2015-10-05,1,,,,,コサカテッコウショ,0
1902,7130002025199,登記記録の閉鎖等,0,2021-12-09,2021-12-07,竹原配管有限会社,,有限会社,京都府,向日市,森本町下森本４０番地の２９,,26,208,6170003,,,2021-12-07,清算の結了等,,,2015-10-05,1,,,,,タケハラハイカン,0
1906,7140001047086,登記記録の閉鎖等,0,2021-12-09,2021-12-08,株式会社Ｇｏｏコンサルティング,,株式会社,兵庫県,神戸市灘区,備後町４丁目１番１号,,28,102,6570037,,,2021-12-08,清算の結了等,,,2015-10-05,1,,,,,グーコンサルティング,0
1929,7180001125284,登記記録の閉鎖等,0,2021-12-09,2021-12-07,株式会社ライズカンパニー,,株式会社,愛知県,半田市,清城町１丁目５番地の１７サニーコート清城１０３号,,23,205,4750917,,,2021-12-07,清算の結了等,,,2016-10-27,1,,,,,ライズカンパニー,0
1941,7180305008441,登記記録の閉鎖等,0,2021-12-09,2021-12-06,特定非営利活動法人アルファサポート,,その他の設立登記法人,愛知県,岡崎市,明大寺町字東長峰４９番地２号,,23,202,4440864,,,2021-12-06,清算の結了等,,,2015-10-05,1,,,,,アルファサポート,0
1955,7250001011741,登記記録の閉鎖等,0,2021-12-09,2021-12-08,株式会社吉田藤,00002486,株式会社,山口県,岩国市,岩国１丁目１５番４号,,35,208,7410062,,,2021-12-08,清算の結了等,,,2015-10-05,1,,,,,ヨシダトウ,0
1966,7290002032915,登記記録の閉鎖等,0,2021-12-09,2021-12-02,有限会社ファミリーミシン販売,,有限会社,福岡県,糸島市,前原中央１丁目１番２６号,,40,230,8191116,,,2021-12-02,清算の結了等,,,2015-10-05,1,,,,,ファミリーミシンハンバイ,0
1969,7300001010647,登記記録の閉鎖等,0,2021-12-09,2021-11-24,株式会社住まい工房,,株式会社,佐賀県,唐津市,浜玉町谷口２１９番地２,,41,202,8495105,,,2021-11-24,清算の結了等,,,2017-01-25,1,,,,,スマイコウボウ,0
1973,7310001004499,登記記録の閉鎖等,0,2021-12-09,2021-12-08,ジェイ・スタイル株式会社,,株式会社,長崎県,長崎市,かき道３丁目２２番８号,,42,201,8510115,,,2021-12-08,清算の結了等,,,2015-10-05,1,,,,,ジェイスタイル,0
1991,7380002032377,登記記録の閉鎖等,0,2021-12-09,2021-12-03,有限会社滝防水,,有限会社,福島県,会津若松市,飯寺北１丁目９番２２号,,07,202,9650848,,,2021-12-03,清算の結了等,,,2015-10-05,1,,,,,,0
1995,7420001000487,登記記録の閉鎖等,0,2021-12-09,2021-12-03,池田建材株式会社,,株式会社,青森県,青森市,大字浜田字玉川１４３番地２２,,02,201,0300843,,,2021-12-03,合併による解散等,5420001000241,令和３年１２月１日青森市大字浜田字玉川１４３番地２２青森ハウジング株式会社（5420001000241）に合併し解散,2015-10-05,1,,,,,イケダケンザイ,0
1999,7420002005535,登記記録の閉鎖等,0,2021-12-09,2021-12-06,有限会社鎌田技建,,有限会社,青森県,青森市,浪岡大字本郷字柳田７９番地１,,02,201,0381323,,,2021-12-06,清算の結了等,,,2015-10-05,1,,,,,カマタギケン,0
2004,7430003005269,登記記録の閉鎖等,0,2021-12-09,2021-12-03,合同会社サウスポルト澄川,,合同会社,北海道,札幌市中央区,南五条西１１丁目１２８８番地１３,,01,101,0640805,,,2021-12-03,合併による解散等,4430003004967,令和３年１２月１日札幌市中央区南五条西十一丁目１２８８番地１３合同会社マリナーズコート（4430003004967）に合併し解散,2015-10-05,1,,,,,サウスポルトスミカワ,0
2006,7450001012273,登記記録の閉鎖等,0,2021-12-09,2021-12-07,株式会社ホームズ,,株式会社,北海道,旭川市,一条通１６丁目２１０３番地１,,01,204,0700031,,,2021-12-07,清算の結了等,,,2017-12-26,1,,,,,ホームズ,0
2008,7450005001702,登記記録の閉鎖等,0,2021-12-09,2021-11-25,天理教北石狩分教会,,その他の設立登記法人,北海道,雨竜郡幌加内町,字幌加内５１２４番地,,01,472,0740411,,,2021-11-25,合併による解散等,1430005007285,令和３年１１月２２日北海道芦別市新城町１８６番地１７天理教上石狩分教会（1430005007285）に合併し解散,2015-10-05,1,,,,,,0
2021,8010001111110,登記記録の閉鎖等,0,2021-12-09,2021-12-03,株式会社日本橋経営研究所,,株式会社,東京都,中央区,日本橋３丁目６番７号,,13,102,1030027,,,2021-12-03,清算の結了等,,,2015-10-05,1,,,,,ニホンバシケイエイケンキュウショ,0
2033,8010001219820,登記記録の閉鎖等,0,2021-12-09,2021-12-06,ＴＥＪホールディングス２株式会社,,株式会社,東京都,千代田区,丸の内２丁目１番１号,,13,101,1000005,,,2021-12-06,合併による解散等,8012301001445,令和３年１１月３０日川崎市麻生区栗木二丁目６番１８多摩電子工業株式会社（8012301001445）に合併し解散,2021-07-19,1,,,,,ティーイージェイホールディングスツー,0
2045,8010401128349,登記記録の閉鎖等,0,2021-12-09,2021-12-03,株式会社セブン,,株式会社,東京都,港区,南青山２丁目２番１５号ＷｉｎＡｏｙａｍａビル－ＵＣＦ９１７,,13,103,1070062,,,2021-12-03,合併による解散等,6010901040831,令和３年１１月３０日東京都世田谷区北沢五丁目１０番７－２号株式会社マロン（6010901040831）に合併し解散,2016-11-29,1,,,,,,0
2062,8010601042077,登記記録の閉鎖等,0,2021-12-09,2021-12-01,チヨダリノベート株式会社,,株式会社,東京都,江東区,深川１丁目８番１０号吉川ビル４Ｆ,,13,108,1350033,,,2021-12-01,清算の結了等,,,2015-10-05,1,,,,,チヨダリノベート,0
2092,8012401010412,登記記録の閉鎖等,0,2021-12-09,2021-12-01,アークカーボントレーディング株式会社,,株式会社,東京都,調布市,東つつじケ丘３丁目２番地１４,,13,208,1820005,,,2021-12-01,清算の結了等,,,2015-10-05,1,,,,,アークカーボントレーディング,0
2104,8013301047180,登記記録の閉鎖等,0,2021-12-09,2021-12-06,株式会社Ｐｅｒｓｉｍｍｏｎ　Ｐａｒｔｎｅｒｓ,,株式会社,東京都,港区,海岸１丁目２番３号汐留芝離宮ビルディング２１階,,13,103,1050022,,,2021-12-06,合併による解散等,3011101052216,令和３年１２月１日東京都新宿区新宿六丁目７番１号アイリンク株式会社（3011101052216）に合併し解散,2021-03-25,1,,,,,パーシモンパートナーズ,0
2116,8020002031868,登記記録の閉鎖等,0,2021-12-09,2021-12-06,有限会社山田硝子建材,,有限会社,神奈川県,横浜市中区,若葉町３丁目４２番地,,14,104,2310056,,,2021-12-06,清算の結了等,,,2015-10-05,1,,,,,ヤマダガラスケンザイ,0
2118,8020003014228,登記記録の閉鎖等,0,2021-12-09,2021-12-06,ＭＫＬａｖｏｒｏ合同会社,,合同会社,神奈川県,川崎市麻生区,細山８丁目１４番４号,,14,137,2150001,,,2021-12-06,清算の結了等,,,2018-04-20,1,,,,,エムケーラボーロ,0
2140,8030002012966,登記記録の閉鎖等,0,2021-12-09,2021-12-07,有限会社マルフク,,有限会社,埼玉県,さいたま市大宮区,天沼町１丁目３２７番地６,,11,103,3300834,,,2021-12-07,清算の結了等,,,2015-10-05,1,,,,,マルフク,0
2141,8030002015102,登記記録の閉鎖等,0,2021-12-09,2021-12-06,有限会社ロココ,,有限会社,埼玉県,さいたま市大宮区,桜木町４丁目７７８番地の２,,11,103,3300854,,,2021-12-06,清算の結了等,,,2015-10-05,1,,,,,ロココ,0
2150,8040001103328,登記記録の閉鎖等,0,2021-12-09,2021-12-06,株式会社弘仁水産,,株式会社,千葉県,松戸市,中和倉１７９番地の１,,12,207,2700025,,,2021-12-06,清算の結了等,,,2018-01-31,1,,,,,コウジンスイサン,0
2157,8040005019181,登記記録の閉鎖等,0,2021-12-09,2021-12-02,一般社団法人プリベンティブ総研,,その他の設立登記法人,千葉県,柏市,ひばりが丘１番８号,,12,217,2770088,,,2021-12-02,清算の結了等,,,2016-08-17,1,,,,,プリベンティブソウケン,0
2158,8050001045123,登記記録の閉鎖等,0,2021-12-09,2021-12-02,セントラルホーム株式会社,,株式会社,茨城県,つくばみらい市,下長沼１１８番地１,,08,235,3002454,,,2021-12-02,清算の結了等,,,2018-10-26,1,,,,,セントラルホーム,0
2167,8080102007762,登記記録の閉鎖等,0,2021-12-09,2021-12-03,有限会社イワテック,,有限会社,静岡県,御殿場市,中畑５４３番地の５,,22,215,4120006,,,2021-12-03,清算の結了等,,,2015-10-05,1,,,,,イワテック,0
2174,8100001005872,登記記録の閉鎖等,0,2021-12-09,2021-12-06,菅平峰の原グリーン開発株式会社,,株式会社,長野県,須坂市,大字仁礼字峰の原３１５３番地１２４,,20,207,3820000,,,2021-12-06,清算の結了等,,,2015-10-05,1,,,,,スガダイラミネノハラグリーンカイハツ,0
2183,8120001155996,登記記録の閉鎖等,0,2021-12-09,2021-12-03,スパルタ商事株式会社,,株式会社,大阪府,守口市,松町４番１０号,,27,209,5700085,,,2021-12-03,清算の結了等,,,2015-10-05,1,,,,,スパルタショウジ,0
2192,8120102025900,登記記録の閉鎖等,0,2021-12-09,2021-12-01,大高運輸有限会社,00033008,有限会社,大阪府,泉大津市,汐見町１０７番地,,27,206,5950054,,,2021-12-01,清算の結了等,,,2015-10-05,1,,,,,ダイコウウンユ,0
2198,8122001016617,登記記録の閉鎖等,0,2021-12-09,2021-12-01,株式会社スターベックス,,株式会社,大阪府,大東市,新田境町３番４６号,,27,218,5740051,,,2021-12-01,合併による解散等,6122001015843,令和３年１２月１日大阪府大東市諸福五丁目１３番１２号株式会社光新星（6122001015843）に合併し解散,2015-10-05,1,,,,,スターベックス,0
2215,8160002011427,登記記録の閉鎖等,0,2021-12-09,2021-12-07,有限会社ナカタ,,有限会社,滋賀県,高島市,今津町今津２１５番地,,25,212,5201621,,,2021-12-07,清算の結了等,,,2015-10-05,1,,,,,ナカタ,0
2224,8180301031553,登記記録の閉鎖等,0,2021-12-09,2021-12-07,株式会社トヨタテック,,株式会社,愛知県,豊田市,平井町５丁目１０番地７,,23,211,4710011,,,2021-12-07,清算の結了等,,,2018-06-06,1,,,,,トヨタテック,0
2228,8210005008464,登記記録の閉鎖等,0,2021-12-09,2021-12-06,太良庄生産森林組合,,その他の設立登記法人,福井県,小浜市,太良庄第３４号１３番地太良庄公会堂,,18,204,9170013,,,2021-12-06,清算の結了等,,,2015-10-05,1,,,,,タラノショウセイサン,0
2234,8240002027225,登記記録の閉鎖等,0,2021-12-09,2021-12-06,有限会社インテリアオダ,,有限会社,広島県,東広島市,西条町寺家３５１０番地,,34,212,7390041,,,2021-12-06,清算の結了等,,,2015-10-05,1,,,,,インテリアオダ,0
2238,8250005005433,登記記録の閉鎖等,0,2021-12-09,2021-11-25,天理教都矢分教会,,その他の設立登記法人,山口県,周南市,大字夜市２４１３番の２地,,35,215,7460084,,,2021-11-25,合併による解散等,8250005001688,令和３年１１月２５日山口県防府市桑山一丁目２番３１号天理教防府大教会（8250005001688）に合併し解散,2015-10-05,1,,,,,,0
2239,8260001004702,登記記録の閉鎖等,0,2021-12-09,2021-12-09,東備レクリエーション株式会社,,株式会社,岡山県,岡山市北区,奉還町３丁目１１番１号,,33,101,7000026,,,2021-12-09,清算の結了等,,,2015-10-05,1,,,,,,0
2241,8260002028659,登記記録の閉鎖等,0,2021-12-09,2021-12-08,有限会社創和,,有限会社,岡山県,津山市,下横野２２９７番地の５,,33,203,7080807,,,2021-12-08,清算の結了等,,,2015-10-05,1,,,,,ソウワ,0
2261,8340001000692,登記記録の閉鎖等,0,2021-12-09,2021-12-07,大隅石材株式会社,,株式会社,鹿児島県,鹿児島市,南栄５丁目１０番地１５,,46,201,8910122,,,2021-12-07,清算の結了等,,,2015-10-05,1,,,,,オオスミセキザイ,0
2262,8340001005337,登記記録の閉鎖等,0,2021-12-09,2021-12-07,株式会社智泉,,株式会社,鹿児島県,鹿児島市,小川町２７番２号,,46,201,8920817,,,2021-12-07,清算の結了等,,,2015-10-05,1,,,,,チセン,0
2274,8390001000168,登記記録の閉鎖等,0,2021-12-09,2021-12-06,株式会社イーパル,,株式会社,山形県,山形市,宮町３丁目８番４５号,,06,201,9900057,,,2021-12-06,清算の結了等,,,2015-10-05,1,,,,,,0
2276,8400602000192,登記記録の閉鎖等,0,2021-12-09,2021-12-06,有限会社環境造景研究所,,有限会社,岩手県,奥州市,江刺藤里字田中８８番地,,03,215,0231762,,,2021-12-06,清算の結了等,,,2015-10-05,1,,,,,カンキョウゾウケイケンキュウショ,0
2289,8430005012155,登記記録の閉鎖等,0,2021-12-09,2021-12-03,税理士法人ＮＳ会計中川・佐々木事務所,,その他の設立登記法人,北海道,札幌市北区,北六条西６丁目２番地１１第３山崎ビル４階,,01,102,0600806,,,2021-12-03,清算の結了等,,,2015-10-05,1,,,,,エヌエスカイケイナカガワササキジムショ,0
2310,9010003027642,登記記録の閉鎖等,0,2021-12-09,2021-12-07,ＴＥＯＣＯ　ＪＡＰＡＮ合同会社,,合同会社,東京都,文京区,湯島３丁目４０番１号原ビル７階株式会社ＹＭＲ内,,13,105,1130034,,,2021-12-07,清算の結了等,,,2018-05-30,1,,,,,テオコジャパン,0
2348,9011003002899,登記記録の閉鎖等,0,2021-12-09,2021-12-03,シーズ・リレーションズ合同会社,,合同会社,東京都,渋谷区,本町５丁目３１番１６号,,13,113,1510071,,,2021-12-03,清算の結了等,,,2015-10-05,1,,,,,,0
2388,9030002008385,登記記録の閉鎖等,0,2021-12-09,2021-12-06,有限会社タルヰ建機材,,有限会社,埼玉県,さいたま市桜区,山久保１丁目７番２３号,,11,106,3380821,,,2021-12-06,清算の結了等,,,2015-10-05,1,,,,,タルイケンキザイ,0
2389,9030002009053,登記記録の閉鎖等,0,2021-12-09,2021-12-06,有限会社ツカサ物産,,有限会社,埼玉県,さいたま市見沼区,大字大谷１８２２番地２（ＲＫ－３０３）,,11,104,3370014,,,2021-12-06,清算の結了等,,,2015-10-05,1,,,,,ツカサブッサン,0
2394,9040001063182,登記記録の閉鎖等,0,2021-12-09,2021-12-03,千葉ポークランド株式会社,,株式会社,千葉県,船橋市,本町２丁目１０番１４号船橋サウスビル８Ｆ,,12,204,2730005,,,2021-12-03,清算の結了等,,,2015-10-05,1,,,,,チバポークランド,0
2400,9040002038992,登記記録の閉鎖等,0,2021-12-09,2021-12-06,ベストホームクリエイト有限会社,,有限会社,千葉県,市川市,平田２丁目２０番２１号１０２,,12,203,2720031,,,2021-12-06,清算の結了等,,,2015-10-05,1,,,,,ベストホームクリエイト,0
2416,9070003003596,登記記録の閉鎖等,0,2021-12-09,2021-12-07,合同会社Ｍ＆Ｍ,,合同会社,群馬県,高崎市,上大類町１０５９番地１ロベリア２０１,,10,202,3700031,,,2021-12-07,清算の結了等,,,2019-11-11,1,,,,,エムアンドエム,0
2424,9100003004574,登記記録の閉鎖等,0,2021-12-09,2021-12-06,合同会社Ｇａｔｔｙｋｉｄｓ,,合同会社,長野県,大町市,平１０４０番地８３２,,20,212,3980001,,,2021-12-06,清算の結了等,,,2017-01-13,1,,,,,,0
2431,9110005005826,登記記録の閉鎖等,0,2021-12-09,2021-11-19,久須斯社,,その他の設立登記法人,新潟県,三条市,牛ケ首５６２番地,,15,204,9550102,,,2021-11-19,合併による解散等,6110005005829,令和３年１１月１９日新潟県三条市牛ケ首１８９番地五所社（6110005005829）に合併し解散,2015-10-05,1,,,,,クスシシャ,0
2450,9120101062670,登記記録の閉鎖等,0,2021-12-09,2021-12-03,大阪土地建物株式会社,,株式会社,大阪府,松原市,高見の里２丁目１８番地,,27,217,5800021,,,2021-12-03,清算の結了等,,,2020-11-27,1,,,,,オオサカトチタテモノ,0
2461,9130002012311,登記記録の閉鎖等,0,2021-12-09,2021-12-06,有限会社祥栄和装,,有限会社,京都府,京都市山科区,勧修寺柴山６番地の１６,,26,110,6078242,,,2021-12-06,清算の結了等,,,2015-10-05,1,,,,,ショウエイワソウ,0
2475,9180001050233,登記記録の閉鎖等,0,2021-12-09,2021-12-07,株式会社モリオカトラベル,,株式会社,愛知県,名古屋市中川区,清船町４丁目１番地,,23,110,4540832,,,2021-12-07,清算の結了等,,,2015-10-05,1,,,,,モリオカトラベル,0
2482,9180002075816,登記記録の閉鎖等,0,2021-12-09,2021-12-06,有限会社臼井電気通信,,有限会社,愛知県,一宮市,時之島字中新田４９番地,,23,203,4910002,,,2021-12-06,清算の結了等,,,2015-10-05,1,,,,,ウスイデンキツウシン,0
2483,9180003001267,登記記録の閉鎖等,0,2021-12-09,2021-12-06,合名会社都クリーニング店,,合名会社,愛知県,名古屋市瑞穂区,大喜町３丁目３０番地,,23,108,4670822,,,2021-12-06,清算の結了等,,,2015-10-05,1,,,,,ミヤコクリーニングテン,0
2498,9200005005916,登記記録の閉鎖等,0,2021-12-09,2021-12-03,特定非営利活動法人Ｗａコミュニティ,,その他の設立登記法人,岐阜県,揖斐郡池田町,池野１１番地の３,,21,404,5032424,,,2021-12-03,清算の結了等,,,2015-10-05,1,,,,,ワコミュニティ,0
2502,9230002009941,登記記録の閉鎖等,0,2021-12-09,2021-12-06,有限会社アートライフミヤタ,,有限会社,富山県,小矢部市,福上１３６番地,,16,209,9320823,,,2021-12-06,清算の結了等,,,2015-10-05,1,,,,,アートライフミヤタ,0
2505,9240002018289,登記記録の閉鎖等,0,2021-12-09,2021-12-07,鯉城農産有限会社,,有限会社,広島県,安芸郡坂町,北新地４丁目３番６３号,,34,309,7314311,,,2021-12-07,清算の結了等,,,2015-10-05,1,,,,,リジョウノウサン,0
2510,9270001000402,登記記録の閉鎖等,0,2021-12-09,2021-12-06,株式会社武田商会,,株式会社,鳥取県,鳥取市,興南町３３番地,,31,201,6800844,,,2021-12-06,清算の結了等,,,2015-10-05,1,,,,,タケタショウカイ,0
2519,9330001013819,登記記録の閉鎖等,0,2021-12-09,2021-12-03,株式会社ヨシナガ食品,,株式会社,熊本県,八代市,新浜町１番１号,,43,202,8660031,,,2021-12-03,清算の結了等,,,2015-10-05,1,,,,,ヨシナガショクヒン,0
2530,9380002034644,登記記録の閉鎖等,0,2021-12-09,2021-12-03,有限会社江戸政,,有限会社,福島県,喜多方市,字小田付道下７１３１番地の７,,07,208,9660813,,,2021-12-03,清算の結了等,,,2015-10-05,1,,,,,,0
2537,9430003002025,登記記録の閉鎖等,0,2021-12-09,2021-12-06,合同会社道の郷,,合同会社,北海道,札幌市厚別区,大谷地東６丁目２番８－２１４号,,01,108,0040041,,,2021-12-06,清算の結了等,,,2015-10-05,1,,,,,ミチノサト,0
2540,9460305001572,登記記録の閉鎖等,0,2021-12-09,2021-12-06,願入寺,,その他の設立登記法人,北海道,斜里郡清里町,札弦町１４番地の１１,,01,546,0994521,,,2021-12-06,清算の結了等,,,2015-10-05,1,,,,,ガンニュウジ,0
