sequenceNumber,corporateNumber,process,correct,updateDate,changeDate,name,nameImageId,kind,prefectureName,cityName,streetNumber,addressImageId,prefectureCode,cityCode,postCode,addressOutside,addressOutsideImageId,closeDate,closeCause,successorCorporateNumber,changeCause,assignmentDate,latest,enName,enPrefectureName,enCityName,enAddressOutside,furigana,hihyoji
6,1010001146831,登記記録の閉鎖等,0,2022-09-07,2022-08-30,株式会社京建,,株式会社,東京都,千代田区,外神田３丁目２番３号,,13,101,1010021,,,2022-08-30,清算の結了等,,,2015-10-05,1,,,,,キョウケン,0
30,1010403015675,登記記録の閉鎖等,0,2022-09-07,2022-09-01,合同会社ケー・アンド・ケー,,合同会社,千葉県,市川市,新田２丁目１番２１号,,12,203,2720035,,,2022-09-01,合併による解散等,4010403016646,令和４年９月１日千葉県市川市新田二丁目１番２１号合同会社ワイ・アンド・シービー（4010403016646）に合併し解散,2016-12-01,1,,,,,ケーアンドケー,0
37,1010405018404,登記記録の閉鎖等,0,2022-09-07,2022-08-17,ジャパンインフラホールディングス３号一般社団法人,,その他の設立登記法人,東京都,港区,元赤坂１丁目１番７号,,13,103,1070051,,,2022-08-17,清算の結了等,,,2020-01-14,1,,,,,ジャパンインフラホールディングスサンゴウ,0
38,1010505000773,登記記録の閉鎖等,0,2022-09-07,2022-09-05,広田協力会協同組合,,その他の設立登記法人,東京都,台東区,浅草橋２丁目１３番９号,,13,106,1110053,,,2022-09-05,清算の結了等,,,2015-10-05,1,,,,,ヒロタキョウリョクカイ,0
48,1010701037529,登記記録の閉鎖等,0,2022-09-07,2022-08-26,四聖コンサルティング株式会社,,株式会社,東京都,品川区,東品川２丁目２番４号天王洲ファーストタワー２３階,,13,109,1400002,,,2022-08-26,清算の結了等,,,2019-05-10,1,,,,,シセイコンサルティング,0
50,1010702013149,登記記録の閉鎖等,0,2022-09-07,2022-09-02,有限会社オールマン,,有限会社,東京都,品川区,荏原２丁目１７番１９号,,13,109,1420063,,,2022-09-02,清算の結了等,,,2015-10-05,1,,,,,オールマン,0
55,1010901048805,登記記録の閉鎖等,0,2022-09-07,2022-09-01,株式会社ＥＭＩ　ＩＮＤＡ,,株式会社,東京都,世田谷区,北烏山６丁目１１番３－２８０１号,,13,112,1570061,,,2022-09-01,清算の結了等,,,2021-06-07,1,,,,,エミインダ,0
102,1020001136716,登記記録の閉鎖等,0,2022-09-07,2022-09-01,株式会社関西ロピア,,株式会社,神奈川県,川崎市幸区,南幸町２丁目９番地,,14,132,2120016,,,2022-09-01,合併による解散等,1021001004499,令和４年９月１日川崎市幸区南幸町二丁目９番地株式会社ロピア（1021001004499）に合併し解散,2020-07-07,1,,,,,カンサイロピア,0
105,1020002049099,登記記録の閉鎖等,0,2022-09-07,2022-09-01,有限会社建栄,,有限会社,神奈川県,横浜市港北区,高田東４丁目１６番２８号,,14,109,2230065,,,2022-09-01,清算の結了等,,,2015-10-05,1,,,,,ケンエイ,0
115,1021001055856,登記記録の閉鎖等,0,2022-09-07,2022-09-01,株式会社メイプル・プラン,,株式会社,東京都,品川区,大崎４丁目２番１３号－５０３号,,13,109,1410032,,,2022-09-01,合併による解散等,3010701036677,令和４年９月１日東京都品川区大崎四丁目２番１３号株式会社Ｄ＆Ｔ（3010701036677）に合併し解散,2015-10-05,1,,,,,メイプルプラン,0
117,1021001067612,登記記録の閉鎖等,0,2022-09-07,2022-09-02,ＲＹＵ１１５株式会社,,株式会社,神奈川県,相模原市南区,上鶴間本町２丁目２０番１－３１１号,,14,153,2520318,,,2022-09-02,清算の結了等,,,2019-06-27,1,,,,,リュウイチイチゴ,0
128,1030001145716,登記記録の閉鎖等,0,2022-09-07,2022-08-25,株式会社ＴＲＵＳＴ　ＡＣＥ,,株式会社,埼玉県,坂戸市,薬師町８番地６メゾンエクセレント２０１号室,,11,239,3500229,,,2022-08-25,清算の結了等,,,2021-12-06,1,,,,,トラストエース,0
151,1050005012431,登記記録の閉鎖等,0,2022-09-07,2022-09-01,特定非営利活動法人日本皮膚がんネットワーク,,その他の設立登記法人,茨城県,つくば市,二の宮４丁目５番地７１,,08,220,3050051,,,2022-09-01,清算の結了等,,,2019-01-18,1,,,,,ニホンヒフガンネットワーク,0
165,1080402001224,登記記録の閉鎖等,0,2022-09-07,2022-09-01,有限会社永和産業,,有限会社,静岡県,浜松市中区,海老塚１丁目３番１４号,00079827,22,131,4328033,,,2022-09-01,清算の結了等,,,2015-10-05,1,,,,,エイワサンギョウ,0
167,1090001010195,登記記録の閉鎖等,0,2022-09-07,2022-09-02,株式会社宮下技研,,株式会社,山梨県,富士吉田市,上吉田東６丁目７番３２号,,19,202,4030032,,,2022-09-02,清算の結了等,,,2015-10-05,1,,,,,ミヤシタギケン,0
173,1110001022147,登記記録の閉鎖等,0,2022-09-07,2022-09-01,株式会社植田屋造園,,株式会社,新潟県,長岡市,摂田屋４丁目７番３３号,,15,202,9401105,,,2022-09-01,清算の結了等,,,2015-10-05,1,,,,,ウエダヤゾウエン,0
176,1120001051723,登記記録の閉鎖等,0,2022-09-07,2022-09-05,株式会社ＩＰＭ,,株式会社,大阪府,大阪市東淀川区,下新庄４丁目５番４１号,,27,114,5330021,,,2022-09-05,清算の結了等,,,2015-10-05,1,,,,,アイピーエム,0
177,1120001068420,登記記録の閉鎖等,0,2022-09-07,2022-09-05,株式会社西種商店,,株式会社,大阪府,大阪市北区,天満２丁目９番１３号,,27,127,5300043,,,2022-09-05,清算の結了等,,,2015-10-05,1,,,,,ニシタネショウテン,0
179,1120001105438,登記記録の閉鎖等,0,2022-09-07,2022-09-06,朝日薬業株式会社,,株式会社,大阪府,大阪市港区,市岡元町３丁目１３番５号,,27,107,5520002,,,2022-09-06,清算の結了等,,,2015-10-05,1,,,,,アサヒヤクギョウ,0
196,1120101042639,登記記録の閉鎖等,0,2022-09-07,2022-09-05,株式会社藤田商店,,株式会社,大阪府,泉大津市,下之町１番８号,,27,206,5950045,,,2022-09-05,清算の結了等,,,2015-10-05,1,,,,,フジタショウテン,0
200,1120902009729,登記記録の閉鎖等,0,2022-09-07,2022-09-05,有限会社エヌエスケアサービス,,有限会社,大阪府,高槻市,津之江町１丁目４４番３号,,27,207,5690822,,,2022-09-05,清算の結了等,,,2015-10-05,1,,,,,エヌエスケアサービス,0
219,1180001135636,登記記録の閉鎖等,0,2022-09-07,2022-09-01,ＳＹＭ商事株式会社,,株式会社,愛知県,稲沢市,松下１丁目２３番２号,,23,220,4928208,,,2022-09-01,合併による解散等,2180001121197,令和４年９月１日愛知県稲沢市松下一丁目２３番２号ＳＹＭ不動産株式会社（2180001121197）に合併し解散,2019-03-06,1,,,,,エスワイエムショウジ,0
229,1200001005506,登記記録の閉鎖等,0,2022-09-07,2022-09-06,森米穀株式会社,,株式会社,岐阜県,岐阜市,鷺山１７６９番地の２,,21,201,5020851,,,2022-09-06,清算の結了等,,,2015-10-05,1,,,,,モリベイコク,0
230,1200002009027,登記記録の閉鎖等,0,2022-09-07,2022-09-06,有限会社グリーム,,有限会社,岐阜県,各務原市,鵜沼南町４丁目２１１番地１,,21,213,5090125,,,2022-09-06,清算の結了等,,,2015-10-05,1,,,,,グリーム,0
231,1200002017161,登記記録の閉鎖等,0,2022-09-07,2022-09-05,有限会社トータル,,有限会社,岐阜県,可児市,下恵土字豊田５１３１番地,,21,214,5090203,,,2022-09-05,清算の結了等,,,2015-10-05,1,,,,,トータル,0
259,1310001009223,登記記録の閉鎖等,0,2022-09-07,2022-09-06,株式会社ドリーム,,株式会社,長崎県,諫早市,小川町７６０番地５１,,42,204,8540053,,,2022-09-06,清算の結了等,,,2015-10-05,1,,,,,ドリーム,0
274,1360005003176,登記記録の閉鎖等,0,2022-09-07,2022-08-31,特定非営利活動法人琉球セラピスト協会,,その他の設立登記法人,沖縄県,那覇市,首里末吉町４丁目２－１９コーポ２３　２０３号,,47,201,9030801,,,2022-08-31,清算の結了等,,,2015-10-05,1,,,,,リュウキュウセラピストキョウカイ,0
279,1380001014596,登記記録の閉鎖等,0,2022-09-07,2022-09-01,株式会社あぶくまポークランド,,株式会社,福島県,いわき市,久之浜町末続字涼松３１番地,,07,204,9790331,,,2022-09-01,清算の結了等,,,2015-10-05,1,,,,,アブクマポークランド,0
303,2010001202195,登記記録の閉鎖等,0,2022-09-07,2022-09-01,株式会社藤倉マテリアルズ,,株式会社,東京都,中央区,新川１丁目２８番３８号,,13,102,1040033,,,2022-09-01,清算の結了等,,,2019-07-04,1,,,,,フジクラマテリアルズ,0
309,2010401139013,登記記録の閉鎖等,0,2022-09-07,2022-08-08,Ｌｉｆｅ　ｉｎ　Ｃｏｃｏｔｔｅ株式会社,,株式会社,東京都,港区,新橋２丁目２０番１５号新橋駅前ビル１号館９Ｆ９２１号,,13,103,1050004,,,2022-08-08,清算の結了等,,,2018-06-15,1,,,,,ライフインココット,0
310,2010401151265,登記記録の閉鎖等,0,2022-09-07,2022-08-17,ＨＯＫＵＳＡＩ．２６０株式会社,,株式会社,東京都,港区,芝公園１丁目３番１０号,,13,103,1050011,,,2022-08-17,清算の結了等,,,2020-02-26,1,,,,,ホクサイドットニロクマル,0
311,2010401154210,登記記録の閉鎖等,0,2022-09-07,2022-08-17,ジアステーション株式会社,,株式会社,東京都,港区,六本木７丁目１３番５号,,13,103,1060032,,,2022-08-17,清算の結了等,,,2020-07-27,1,,,,,シアステーション,0
318,2010403022126,登記記録の閉鎖等,0,2022-09-07,2022-08-17,ジャパンインフラ３号合同会社,,合同会社,東京都,港区,元赤坂１丁目１番７号,,13,103,1070051,,,2022-08-17,清算の結了等,,,2020-01-14,1,,,,,ジャパンインフラサンゴウ,0
321,2010405018403,登記記録の閉鎖等,0,2022-09-07,2022-08-17,ジャパンインフラホールディングス２号一般社団法人,,その他の設立登記法人,東京都,港区,元赤坂１丁目１番７号,,13,103,1070051,,,2022-08-17,清算の結了等,,,2020-01-14,1,,,,,ジャパンインフラホールディングスニゴウ,0
329,2010801026273,登記記録の閉鎖等,0,2022-09-07,2022-08-17,株式会社ハッピーベル,,株式会社,東京都,港区,赤坂９丁目４番１号,,13,103,1070052,,,2022-08-17,清算の結了等,,,2015-12-22,1,,,,,ハッピーベル,0
366,2011501024344,登記記録の閉鎖等,0,2022-09-07,2022-09-01,ＣＷＧＭグローバルフューチャー株式会社,,株式会社,東京都,北区,東田端１丁目６番９号根橋ビル３０３室,,13,117,1140013,,,2022-09-01,清算の結了等,,,2018-12-20,1,,,,,シーダブルジーエムグローバルフューチャー,0
372,2012302007645,登記記録の閉鎖等,0,2022-09-07,2022-09-01,有限会社たかはし企画,,有限会社,東京都,町田市,高ケ坂２８４番地３２,,13,209,1940014,,,2022-09-01,清算の結了等,,,2015-10-05,1,,,,,タカハシキカク,0
386,2020001034266,登記記録の閉鎖等,0,2022-09-07,2022-09-01,株式会社サンミック,,株式会社,神奈川県,横浜市青葉区,鴨志田町５０９番地１２,,14,117,2270033,,,2022-09-01,合併による解散等,3020001066226,令和４年９月１日横浜市青葉区鴨志田町５０９番地１２三和機工株式会社（3020001066226）に合併し解散,2015-10-05,1,,,,,サンミック,0
393,2020001136715,登記記録の閉鎖等,0,2022-09-07,2022-09-01,株式会社埼玉ロピア,,株式会社,神奈川県,川崎市幸区,南幸町２丁目９番地,,14,132,2120016,,,2022-09-01,合併による解散等,1021001004499,令和４年９月１日川崎市幸区南幸町二丁目９番地株式会社ロピア（1021001004499）に合併し解散,2020-07-07,1,,,,,サイタマロピア,0
394,2020002012147,登記記録の閉鎖等,0,2022-09-07,2022-09-05,有限会社双栄,,有限会社,神奈川県,横浜市戸塚区,汲沢５丁目５番３７号,00010314,14,110,2450061,,,2022-09-05,清算の結了等,,,2015-10-05,1,,,,,ソウエイ,0
405,2021002009034,登記記録の閉鎖等,0,2022-09-07,2022-09-05,有限会社カウテック,,有限会社,神奈川県,平塚市,平塚３丁目１４番４号,,14,203,2540052,,,2022-09-05,清算の結了等,,,2015-10-05,1,,,,,カウテック,0
410,2030001069393,登記記録の閉鎖等,0,2022-09-07,2022-08-26,毛呂山運輸株式会社,,株式会社,埼玉県,入間郡毛呂山町,岩井東２丁目１４番地９,,11,326,3500467,,,2022-08-26,清算の結了等,,,2015-10-05,1,,,,,モロヤマウンユ,0
417,2030002031526,登記記録の閉鎖等,0,2022-09-07,2022-08-26,有限会社柳原,,有限会社,埼玉県,所沢市,星の宮１丁目３番２９号,,11,208,3591127,,,2022-08-26,清算の結了等,,,2015-10-05,1,,,,,ヤナギハラ,0
418,2030002076059,登記記録の閉鎖等,0,2022-09-07,2022-08-24,有限会社中央企画,,有限会社,埼玉県,ふじみ野市,長宮１丁目４番地７,,11,245,3560022,,,2022-08-24,清算の結了等,,,2015-10-05,1,,,,,チュウオウキカク,0
431,2050001025312,登記記録の閉鎖等,0,2022-09-07,2022-09-01,株式会社テルファクター,,株式会社,東京都,千代田区,神田三崎町２丁目６番２号,,13,101,1010061,,,2022-09-01,合併による解散等,9010001074629,令和４年９月１日東京都千代田区神田三崎町二丁目６番２号株式会社コスモ（9010001074629）に合併し解散,2015-10-05,1,,,,,テルファクター,0
432,2050001047983,登記記録の閉鎖等,0,2022-09-07,2022-09-01,株式会社俐玖,,株式会社,茨城県,土浦市,中１３２５番地,,08,203,3000841,,,2022-09-01,清算の結了等,,,2020-08-26,1,,,,,リキュウ,0
448,2080101014344,登記記録の閉鎖等,0,2022-09-07,2022-09-05,喜神商事株式会社,,株式会社,静岡県,熱海市,春日町３番３６号,,22,205,4130005,,,2022-09-05,合併による解散等,8011101062747,令和４年９月１日東京都大田区南千束二丁目１０番４号株式会社Ｒｏｏｔｓ（8011101062747）に合併し解散,2015-10-05,1,,,,,キジンショウジ,0
455,2110002031550,登記記録の閉鎖等,0,2022-09-07,2022-08-31,有限会社カフェテリア志賀,,有限会社,新潟県,見附市,今町４丁目１８番１,,15,211,9540111,,,2022-08-31,清算の結了等,,,2015-10-05,1,,,,,カフェテリアシガ,0
457,2120001051714,登記記録の閉鎖等,0,2022-09-07,2022-09-05,株式会社国際写真製版,,株式会社,大阪府,大阪市東淀川区,下新庄４丁目５番４１号,,27,114,5330021,,,2022-09-05,清算の結了等,,,2015-10-05,1,,,,,コクサイシャシンセイバン,0
468,2120002013630,登記記録の閉鎖等,0,2022-09-07,2022-09-05,有限会社プロジェ,,有限会社,大阪府,大阪市阿倍野区,阪南町１丁目４７番１号,,27,119,5450021,,,2022-09-05,合併による解散等,1140001010925,令和４年９月１日神戸市中央区元町通一丁目１０番２号マサニ電気株式会社（1140001010925）に合併し解散,2015-10-05,1,,,,,,0
485,2122002001945,登記記録の閉鎖等,0,2022-09-07,2022-09-01,有限会社吾平,,有限会社,大阪府,東大阪市,玉串元町２丁目１２番５０号,,27,227,5780933,,,2022-09-01,清算の結了等,,,2015-10-05,1,,,,,アイラ,0
494,2140002041910,登記記録の閉鎖等,0,2022-09-07,2022-09-05,有限会社中野鉄工所,,有限会社,兵庫県,尼崎市,築地２丁目１０番１３号,,28,202,6600858,,,2022-09-05,清算の結了等,,,2015-10-05,1,,,,,ナカノテッコウショ,0
544,2330002006522,登記記録の閉鎖等,0,2022-09-07,2022-09-01,有限会社たかもと米穀,,有限会社,熊本県,熊本市西区,田崎本町５番２１号,,43,103,8600052,,,2022-09-01,清算の結了等,,,2015-10-05,1,,,,,タカモトベイコク,0
549,2340002004921,登記記録の閉鎖等,0,2022-09-07,2022-09-06,有限会社昭栄工建,,有限会社,鹿児島県,鹿児島市,桜ヶ丘８丁目２９番２２号,,46,201,8900075,,,2022-09-06,清算の結了等,,,2015-10-05,1,,,,,ショウエイコウケン,0
554,2360001008624,登記記録の閉鎖等,0,2022-09-07,2022-08-31,沖縄丸大食品株式会社,,株式会社,沖縄県,宜野湾市,喜友名１丁目１１番１５号,,47,205,9012222,,,2022-08-31,清算の結了等,,,2015-10-05,1,,,,,オキナワマルダイショクヒン,0
556,2360001028721,登記記録の閉鎖等,0,2022-09-07,2022-08-31,株式会社ペンギン美ら島開発,,株式会社,沖縄県,中頭郡中城村,字南上原５９５番地桃原荘２０２号室,,47,328,9012424,,,2022-08-31,清算の結了等,,,2021-05-06,1,,,,,ペンギンチュラシマカイハツ,0
577,2470002010980,登記記録の閉鎖等,0,2022-09-07,2022-09-05,清木産業有限会社,,有限会社,香川県,綾歌郡綾川町,羽床上４７３番地,,37,387,7612207,,,2022-09-05,清算の結了等,,,2015-10-05,1,,,,,セイキサンギョウ,0
580,2480002014007,登記記録の閉鎖等,0,2022-09-07,2022-09-05,有限会社重萬建設,,有限会社,徳島県,海部郡海陽町,日比原字日比原１３２番地,,36,388,7750503,,,2022-09-05,清算の結了等,,,2015-10-05,1,,,,,シゲマンケンセツ,0
597,3010102001355,登記記録の閉鎖等,0,2022-09-07,2022-09-01,有限会社オーエム企画,,有限会社,東京都,八王子市,日吉町１９番８号,,13,201,1930836,,,2022-09-01,合併による解散等,8010101000709,令和４年９月１日東京都八王子市日吉町１９番８号株式会社大村屋商店（8010101000709）に合併し解散,2015-10-05,1,,,,,オーエムキカク,0
598,3010401088952,登記記録の閉鎖等,0,2022-09-07,2022-08-10,株式会社アート・アパートメンツ,,株式会社,東京都,港区,白金台４丁目７番４号,,13,103,1080071,,,2022-08-10,合併による解散等,4010401032216,令和４年８月１日東京都港区白金台四丁目７番４号株式会社ウェルストーン・ヴォイス（4010401032216）に合併し解散,2015-10-05,1,,,,,アートアパートメンツ,0
599,3010401096600,登記記録の閉鎖等,0,2022-09-07,2022-08-19,株式会社キタウエカンパニー,,株式会社,東京都,港区,南麻布３丁目２０番１号,,13,103,1060047,,,2022-08-19,清算の結了等,,,2015-10-05,1,,,,,キタウエカンパニー,0
605,3010403022125,登記記録の閉鎖等,0,2022-09-07,2022-08-17,ジャパンインフラ２号合同会社,,合同会社,東京都,港区,元赤坂１丁目１番７号,,13,103,1070051,,,2022-08-17,清算の結了等,,,2020-01-14,1,,,,,ジャパンインフラニゴウ,0
608,3010405018303,登記記録の閉鎖等,0,2022-09-07,2022-08-19,一般社団法人美浜ＳＣ,,その他の設立登記法人,東京都,港区,虎ノ門３丁目２２番１０－２０１号,,13,103,1050001,,,2022-08-19,清算の結了等,,,2019-12-03,1,,,,,ミハマエスシー,0
615,3010605003699,登記記録の閉鎖等,0,2022-09-07,2022-09-01,一般社団法人Ｄｏｖｅ医療・福祉支援協会,,その他の設立登記法人,東京都,江東区,大島８丁目２番１３－５０６号,,13,108,1360072,,,2022-09-01,清算の結了等,,,2019-05-22,1,,,,,ドーヴ,0
663,3020001136714,登記記録の閉鎖等,0,2022-09-07,2022-09-01,株式会社千葉ロピア,,株式会社,神奈川県,川崎市幸区,南幸町２丁目９番地,,14,132,2120016,,,2022-09-01,合併による解散等,1021001004499,令和４年９月１日川崎市幸区南幸町二丁目９番地株式会社ロピア（1021001004499）に合併し解散,2020-07-09,1,,,,,チバロピア,0
670,3020002016881,登記記録の閉鎖等,0,2022-09-07,2022-09-02,有限会社相馬商店,,有限会社,神奈川県,横浜市西区,老松町６１番地の８,,14,103,2200032,,,2022-09-02,清算の結了等,,,2015-10-05,1,,,,,ソウマショウテン,0
681,3021002013472,登記記録の閉鎖等,0,2022-09-07,2022-09-02,有限会社ケイ・エイチテクノサービス,,有限会社,神奈川県,茅ヶ崎市,赤羽根２４７３番地１１,,14,207,2530001,,,2022-09-02,清算の結了等,,,2015-10-05,1,,,,,ケイエイチテクノサービス,0
683,3021002050144,登記記録の閉鎖等,0,2022-09-07,2022-09-02,有限会社ティー・オー・ピー,,有限会社,神奈川県,足柄下郡湯河原町,鍛冶屋３１３番地の１２,,14,384,2590313,,,2022-09-02,清算の結了等,,,2015-10-05,1,,,,,ティーオーピー,0
687,3030001081884,登記記録の閉鎖等,0,2022-09-07,2022-08-26,ジーピービー株式会社,,株式会社,埼玉県,川口市,北原台３丁目１２番３５号,,11,203,3330815,,,2022-08-26,清算の結了等,,,2015-10-05,1,,,,,ジーピービー,0
699,3040002089612,登記記録の閉鎖等,0,2022-09-07,2022-09-01,有限会社グローバルエンジニアリング,,有限会社,千葉県,柏市,弥生町８番６３号,,12,217,2770015,,,2022-09-01,清算の結了等,,,2015-10-05,1,,,,,グローバルエンジニアリング,0
708,3060005009482,登記記録の閉鎖等,0,2022-09-07,2022-08-31,財団法人佐野市開発協会,,その他の設立登記法人,栃木県,佐野市,高砂町３０６１番地,,09,204,3270022,,,2022-08-31,清算の結了等,,,2018-08-10,1,,,,,サノシカイハツキョウカイ,0
723,3100002012229,登記記録の閉鎖等,0,2022-09-07,2022-09-01,有限会社浅間精機,,有限会社,長野県,小諸市,大字八満字宮浦６９０番地８,,20,208,3840051,,,2022-09-01,合併による解散等,7100001010106,令和４年９月１日長野県上田市国分一丁目３番３７号モールドバンク国分株式会社（7100001010106）に合併し解散,2015-10-05,1,,,,,アサマセイキ,0
726,3110001019117,登記記録の閉鎖等,0,2022-09-07,2022-09-01,株式会社住販,,株式会社,新潟県,上越市,北城町４丁目４番３号,,15,222,9430824,,,2022-09-01,合併による解散等,5110001019420,令和４年９月１日新潟県上越市桜町２１番地真野建材株式会社（5110001019420）に合併し解散,2015-10-05,1,,,,,ジュウハン,0
735,3120001214724,登記記録の閉鎖等,0,2022-09-07,2022-09-02,株式会社ｓｗｅｅｍｉｅ,,株式会社,大阪府,大阪市淀川区,西中島１丁目１３番６号新大阪オーパスビル８Ｆ,,27,123,5320011,,,2022-09-02,清算の結了等,,,2018-07-20,1,,,,,スイミー,0
743,3120002053733,登記記録の閉鎖等,0,2022-09-07,2022-09-02,有限会社オオモリ,,有限会社,大阪府,大阪市旭区,赤川３丁目１０番１０号,,27,117,5350005,,,2022-09-02,清算の結了等,,,2015-10-05,1,,,,,,0
747,3120101024494,登記記録の閉鎖等,0,2022-09-07,2022-09-05,株式会社スターチェーン丸進,,株式会社,大阪府,堺市西区,浜寺南町３丁３番地６,,27,144,5928344,,,2022-09-05,清算の結了等,,,2015-10-05,1,,,,,スターチェーンマルシン,0
767,3140005004252,登記記録の閉鎖等,0,2022-09-07,2022-09-06,特定非営利活動法人新世代育成サポートみつわ会,,その他の設立登記法人,兵庫県,神戸市西区,岩岡町岩岡９４７番地の４,,28,111,6512401,,,2022-09-06,清算の結了等,,,2015-10-05,1,,,,,シンセダイイクセイサポートミツワカイ,0
790,3190002008202,登記記録の閉鎖等,0,2022-09-07,2022-09-01,有限会社石周メッツ,,有限会社,三重県,伊勢市,小木町５７５番地１,,24,203,5160007,,,2022-09-01,合併による解散等,1190001006415,令和４年９月１日三重県伊勢市小木町５７番地１石川商工株式会社（1190001006415）に合併し解散,2015-10-05,1,,,,,イシシュウメッツ,0
799,3210001003548,登記記録の閉鎖等,0,2022-09-07,2022-09-02,北陸ワコール縫製株式会社,,株式会社,福井県,坂井市,坂井町下兵庫２５４字新八反田３１番１,,18,210,9190527,,,2022-09-02,清算の結了等,,,2015-10-05,1,,,,,ホクリクワコールホウセイ,0
813,3280001003896,登記記録の閉鎖等,0,2022-09-07,2022-09-05,株式会社あおき,,株式会社,島根県,大田市,大田町大田ロ９８４番地５,,32,205,6940064,,,2022-09-05,清算の結了等,,,2015-10-05,1,,,,,アオキ,0
827,3340005008984,登記記録の閉鎖等,0,2022-09-07,2022-09-05,一般財団法人九州地域振興財団,,その他の設立登記法人,鹿児島県,大島郡伊仙町,大字目手久１７４１番地３,,46,532,8918113,,,2022-09-05,清算の結了等,,,2019-03-12,1,,,,,キュウシュウチイキシンコウザイダン,0
830,3350002007468,登記記録の閉鎖等,0,2022-09-07,2022-09-06,有限会社佐土原協同ガス,,有限会社,宮崎県,宮崎市,佐土原町下田島２００１０番地,,45,201,8800211,,,2022-09-06,清算の結了等,,,2015-10-05,1,,,,,サドワラキョウドウガス,0
859,3430001024258,登記記録の閉鎖等,0,2022-09-07,2022-08-31,株式会社明翔,,株式会社,北海道,札幌市東区,北十五条東１８丁目３番１５号,,01,103,0650015,,,2022-08-31,清算の結了等,,,2015-10-05,1,,,,,メイショウ,0
870,3470005004723,登記記録の閉鎖等,0,2022-09-07,2022-09-05,農事組合法人ながお,,その他の設立登記法人,香川県,さぬき市,昭和３６１３番地３,,37,206,7692304,,,2022-09-05,清算の結了等,,,2015-10-05,1,,,,,ナガオ,0
871,3480002007570,登記記録の閉鎖等,0,2022-09-07,2022-09-05,有限会社おがわ,,有限会社,徳島県,小松島市,小松島町字外開７番地１,,36,203,7730001,,,2022-09-05,清算の結了等,,,2015-10-05,1,,,,,オガワ,0
873,3490001008940,登記記録の閉鎖等,0,2022-09-07,2022-08-31,株式会社オンユアマーク,,株式会社,高知県,高知市,薊野西町３丁目２７番３号,,39,201,7810015,,,2022-08-31,合併による解散等,3490001004122,令和４年８月３１日高知市桜井町一丁目４番５号株式会社ライフ・カラーズ（3490001004122）に合併し解散,2018-04-24,1,,,,,オンユアマーク,0
877,4010001020042,登記記録の閉鎖等,0,2022-09-07,2022-09-02,株式会社シロガネコーポレーシヨン,,株式会社,東京都,千代田区,麹町４丁目５番地４,,13,101,1020083,,,2022-09-02,清算の結了等,,,2015-10-05,1,,,,,シロガネコーポレーション,0
879,4010001068610,登記記録の閉鎖等,0,2022-09-07,2022-08-30,株式会社シーエスシー,,株式会社,東京都,文京区,後楽２丁目２２番１２号,,13,105,1120004,,,2022-08-30,清算の結了等,,,2015-10-05,1,,,,,シーエスシー,0
899,4010401128170,登記記録の閉鎖等,0,2022-09-07,2022-08-18,Ｍａｒｑｕｉｓｅ　ｄｅ　Ｆｒａｎｃｅ株式会社,,株式会社,東京都,港区,赤坂２丁目１１番７号ＡＴＴ新館１１階マザージャパン株式会社内,,13,103,1070052,,,2022-08-18,清算の結了等,,,2016-11-14,1,,,,,マルキーズドゥフランス,0
900,4010401131281,登記記録の閉鎖等,0,2022-09-07,2022-08-19,株式会社ＮＥＸＴ　ＬＥＶＥＬ　ＳＯＬＵＴＩＯＮ,,株式会社,東京都,港区,南青山２丁目２番１５号ウィン青山９４２,,13,103,1070062,,,2022-08-19,清算の結了等,,,2017-05-11,1,,,,,ネクストレベルソリューション,0
903,4010401164612,登記記録の閉鎖等,0,2022-09-07,2022-09-05,株式会社Ｎｅｘｔ　Ｗｉｌｌ　Ｍａｎａｇｅｍｅｎｔ,,株式会社,東京都,港区,浜松町２丁目２番１５号浜松町ダイヤビル２階,,13,103,1050013,,,2022-09-05,清算の結了等,,,2021-12-23,1,,,,,ネクストウィルマネジメント,0
924,4010501045398,登記記録の閉鎖等,0,2022-09-07,2022-09-02,株式会社Ｓｔａｇｅ　ｕｐ,,株式会社,東京都,台東区,東上野１丁目８番２号,,13,106,1100015,,,2022-09-02,清算の結了等,,,2020-03-05,1,,,,,ステージアップ,0
949,4011003007779,登記記録の閉鎖等,0,2022-09-07,2022-09-01,合同会社ＥＱ,,合同会社,東京都,中央区,勝どき５丁目３番１号勝どきザ・タワー５０１７,,13,102,1040054,,,2022-09-01,合併による解散等,4010001223669,令和４年９月１日東京都中央区勝どき五丁目３番１号勝どきザ・タワー５０１７株式会社ファイアーキッズ（4010001223669）に合併し解散,2017-06-16,1,,,,,イーキュー,0
958,4011105000129,登記記録の閉鎖等,0,2022-09-07,2022-09-01,公益財団法人全日本仏教尼僧法団,,その他の設立登記法人,東京都,新宿区,大京町３１番地の２６,,13,104,1600015,,,2022-09-01,合併による解散等,9011105004728,令和４年９月１日東京都新宿区大京町３１番地公益社団法人シャンティ国際ボランティア会（9011105004728）に合併し解散,2015-10-05,1,,,,,ゼンニホンブッキョウアマソウホウダン,0
964,4011402001548,登記記録の閉鎖等,0,2022-09-07,2022-09-01,有限会社エヌエスアイ,,有限会社,東京都,板橋区,大谷口北町８９番５号,,13,119,1730031,,,2022-09-01,合併による解散等,8011401001421,令和４年９月１日東京都板橋区大谷口北町８９番５号株式会社カナエ商事（8011401001421）に合併し解散,2015-10-05,1,,,,,エヌエスアイ,0
970,4011602007205,登記記録の閉鎖等,0,2022-09-07,2022-08-26,有限会社桐芳堂薬局,,有限会社,埼玉県,鶴ヶ島市,大字藤金８０３番地４５,,11,241,3502206,,,2022-08-26,清算の結了等,,,2015-10-05,1,,,,,トウホウドウヤッキョク,0
975,4011802015809,登記記録の閉鎖等,0,2022-09-07,2022-09-02,有限会社塚本商店,,有限会社,東京都,足立区,南花畑５丁目２番１８号,,13,121,1210062,,,2022-09-02,清算の結了等,,,2015-10-05,1,,,,,ツカモトショウテン,0
999,4021001009454,登記記録の閉鎖等,0,2022-09-07,2022-09-02,株式会社ハーテック,,株式会社,神奈川県,鎌倉市,大船１丁目３番１６号,,14,204,2470056,,,2022-09-02,清算の結了等,,,2015-10-05,1,,,,,ハーテック,0
1018,4030002077278,登記記録の閉鎖等,0,2022-09-07,2022-08-23,有限会社ビデオサウンド,,有限会社,埼玉県,入間郡三芳町,みよし台６番地１４,,11,324,3540042,,,2022-08-23,清算の結了等,,,2015-10-05,1,,,,,ビデオサウンド,0
1041,4070002028582,登記記録の閉鎖等,0,2022-09-07,2022-09-01,有限会社オモロ,,有限会社,群馬県,太田市,大原町１５８４番地１,,10,205,3792304,,,2022-09-01,清算の結了等,,,2015-10-05,1,,,,,オモロ,0
1074,4120901000685,登記記録の閉鎖等,0,2022-09-07,2022-08-31,株式会社共立製作所,,株式会社,大阪府,茨木市,総持寺駅前町３番９号,,27,211,5670802,,,2022-08-31,清算の結了等,,,2015-10-05,1,,,,,キョウリツセイサクショ,0
1086,4140002007595,登記記録の閉鎖等,0,2022-09-07,2022-09-01,有限会社藤和実業,,有限会社,東京都,稲城市,向陽台６丁目１２番地アルボの丘２－２０４号,,13,225,2060803,,,2022-09-01,合併による解散等,1140002007061,令和４年９月１日東京都稲城市向陽台六丁目１２番地アルボの丘２－２０４号株式会社藤和（1140002007061）に合併し解散,2015-10-05,1,,,,,トウワジツギョウ,0
1091,4170005004100,登記記録の閉鎖等,0,2022-09-07,2022-09-06,特定非営利活動法人めじろの会,,その他の設立登記法人,和歌山県,田辺市,天神崎２５番１６号,,30,206,6460050,,,2022-09-06,清算の結了等,,,2015-10-05,1,,,,,メジロノカイ,0
1097,4180003023555,登記記録の閉鎖等,0,2022-09-07,2022-09-02,日陶マネジメント合同会社,,合同会社,愛知県,名古屋市西区,那古野１丁目２番１号,00125832,23,104,4510042,,,2022-09-02,清算の結了等,,,2022-03-01,1,,,,,ニットウマネジメント,0
1110,4220002014658,登記記録の閉鎖等,0,2022-09-07,2022-08-26,有限会社ぬのや仏壇店,,有限会社,石川県,七尾市,一本杉町２４番地,,17,202,9260806,,,2022-08-26,清算の結了等,,,2015-10-05,1,,,,,ヌノヤブツダンテン,0
1111,4220002014699,登記記録の閉鎖等,0,2022-09-07,2022-09-05,寒鰤大敷網有限会社,,有限会社,石川県,七尾市,黒崎町イ部１番地１,,17,202,9260381,,,2022-09-05,合併による解散等,3230001011813,令和４年８月３１日富山県氷見市宇波４８５１番地株式会社酒井水産（3230001011813）に合併し解散,2015-10-05,1,,,,,カンブリオオシキアミ,0
1114,4230005000654,登記記録の閉鎖等,0,2022-09-07,2022-09-02,富山県再生資源事業協同組合,,その他の設立登記法人,富山県,富山市,田中町１丁目７番１４号,,16,201,9300985,,,2022-09-02,清算の結了等,,,2015-10-05,1,,,,,トヤマケンサイセイシゲン,0
1115,4240001044968,登記記録の閉鎖等,0,2022-09-07,2022-09-05,株式会社ＣＡＦＥ　ＬＡＯ　ＪＡＰＡＮ,,株式会社,広島県,福山市,港町１丁目３番２４号,,34,207,7210964,,,2022-09-05,清算の結了等,,,2015-10-05,1,,,,,カフェラオジャパン,0
1118,4240002044257,登記記録の閉鎖等,0,2022-09-07,2022-09-01,有限会社コバ,,有限会社,広島県,福山市,松永町４丁目９番２０号,,34,207,7290104,,,2022-09-01,清算の結了等,,,2015-10-05,1,,,,,コバ,0
1133,4290001081081,登記記録の閉鎖等,0,2022-09-07,2022-08-31,ＤＩＢＡ株式会社,,株式会社,福岡県,久留米市,日吉町１３番地６０第２サンビル５階,,40,203,8300017,,,2022-08-31,清算の結了等,,,2018-04-06,1,,,,,ディーバ,0
1142,4310001009022,登記記録の閉鎖等,0,2022-09-07,2022-09-05,株式会社経営育成サポート,,株式会社,長崎県,諫早市,森山町杉谷２３０番地１,,42,204,8540205,,,2022-09-05,清算の結了等,,,2015-10-05,1,,,,,ケイエイイクセイサポート,0
1153,4330003004341,登記記録の閉鎖等,0,2022-09-07,2022-09-01,合資会社多武商店,,合資会社,熊本県,球磨郡多良木町,大字多良木１４５４番地,,43,505,8680501,,,2022-09-01,合併による解散等,7330002031004,令和４年９月１日熊本県球磨郡多良木町大字多良木１４５４番地株式会社タブコーポレーション（7330002031004）に合併し解散,2015-10-05,1,,,,,タブショウテン,0
1158,4350003002764,登記記録の閉鎖等,0,2022-09-07,2022-09-05,Ｐｉｅｒｒｅｌｅｐｉｎ合同会社,,合同会社,宮崎県,宮崎市,佐土原町下田島１２０７７番地１２,,45,201,8800211,,,2022-09-05,清算の結了等,,,2016-08-19,1,,,,,ピエールルパン,0
1159,4350005005600,登記記録の閉鎖等,0,2022-09-07,2022-09-02,特定非営利活動法人高千穂アカデミー,,その他の設立登記法人,宮崎県,西臼杵郡高千穂町,大字上岩戸１３７７番地１,,45,441,8821622,,,2022-09-02,清算の結了等,,,2016-06-14,1,,,,,タカチホアカデミー,0
1165,4370105000136,登記記録の閉鎖等,0,2022-09-07,2022-09-01,学校法人宮城あけぼの学園,,その他の設立登記法人,宮城県,角田市,角田字町８４番地,,04,208,9811505,,,2022-09-01,清算の結了等,,,2015-10-05,1,,,,,,0
1173,4410003003137,登記記録の閉鎖等,0,2022-09-07,2022-09-01,合同会社クラストワン,,合同会社,秋田県,北秋田市,松葉町３番１８号,,05,213,0183321,,,2022-09-01,清算の結了等,,,2018-02-08,1,,,,,クラストワン,0
1182,4430002018308,登記記録の閉鎖等,0,2022-09-07,2022-09-01,有限会社北雄システム,,有限会社,北海道,札幌市北区,新琴似十一条９丁目９番１３号,,01,102,0010911,,,2022-09-01,清算の結了等,,,2015-10-05,1,,,,,ホクユウシステム,0
1185,4440002007672,登記記録の閉鎖等,0,2022-09-07,2022-09-01,有限会社田福建設,,有限会社,北海道,亀田郡七飯町,大中山４丁目１５５番地４,,01,337,0411121,,,2022-09-01,清算の結了等,,,2015-10-05,1,,,,,タフクケンセツ,0
1190,4470001004528,登記記録の閉鎖等,0,2022-09-07,2022-09-05,ジャパンスタッフ株式会社,,株式会社,香川県,高松市,田村町４２６番地３,,37,201,7618057,,,2022-09-05,清算の結了等,,,2015-10-05,1,,,,,ジャパンスタッフ,0
1197,4490001007066,登記記録の閉鎖等,0,2022-09-07,2022-09-01,株式会社初月溶接,,株式会社,高知県,高知市,円行寺１６７４番地３,,39,201,7800974,,,2022-09-01,清算の結了等,,,2015-10-05,1,,,,,,0
1199,4490003001315,登記記録の閉鎖等,0,2022-09-07,2022-08-31,合同会社わかつき,,合同会社,高知県,高岡郡越知町,越知甲１７２５番地１,,39,403,7811301,,,2022-08-31,清算の結了等,,,2019-03-07,1,,,,,ワカツキ,0
1210,5010001091090,登記記録の閉鎖等,0,2022-09-07,2022-09-02,サンコーパツク株式会社,,株式会社,東京都,杉並区,下高井戸４丁目５番１０号,,13,115,1680073,,,2022-09-02,清算の結了等,,,2015-10-05,1,,,,,サンコーパック,0
1218,5010002009109,登記記録の閉鎖等,0,2022-09-07,2022-09-02,有限会社協同梱包,,有限会社,東京都,新宿区,新宿１丁目２４番７号,,13,104,1600022,,,2022-09-02,清算の結了等,,,2015-10-05,1,,,,,キョウドウコンポウ,0
1228,5010401116348,登記記録の閉鎖等,0,2022-09-07,2022-08-31,株式会社花印粧業研究所,,株式会社,東京都,中央区,銀座２丁目１２番１２号,,13,102,1040061,,,2022-08-31,清算の結了等,,,2015-10-05,1,,,,,ハナジルシショウギョウケンキュウショ,0
1252,5010802008912,登記記録の閉鎖等,0,2022-09-07,2022-09-02,有限会社竹山保険事務所,,有限会社,神奈川県,横浜市港北区,箕輪町２丁目５番２８－２１８号,,14,109,2230051,,,2022-09-02,清算の結了等,,,2015-10-05,1,,,,,タケヤマホケンジムショ,0
1272,5011201016399,登記記録の閉鎖等,0,2022-09-07,2022-09-01,株式会社イエスモホールディングス,,株式会社,東京都,新宿区,西新宿６丁目１２番６号,,13,104,1600023,,,2022-09-01,合併による解散等,4011101031482,令和４年９月１日東京都新宿区西新宿六丁目１２番６号株式会社イエスモ（4011101031482）に合併し解散,2015-10-05,1,,,,,イエスモホールディングス,0
1273,5011301014906,登記記録の閉鎖等,0,2022-09-07,2022-08-31,株式会社旅のスタジオ・サンク,,株式会社,東京都,杉並区,下高井戸１丁目２８番８－８０１号ラ・グラースダイアモンドマンション桜上水,,13,115,1680073,,,2022-08-31,清算の結了等,,,2015-10-05,1,,,,,タビノスタジオサンク,0
1282,5012402017211,登記記録の閉鎖等,0,2022-09-07,2022-09-05,有限会社タッジーマッジー,,有限会社,東京都,武蔵野市,桜堤２丁目７番２３号,,13,203,1800021,,,2022-09-05,清算の結了等,,,2015-10-05,1,,,,,タッジーマッジー,0
1305,5030001083276,登記記録の閉鎖等,0,2022-09-07,2022-08-25,株式会社アスター池袋店,,株式会社,埼玉県,川口市,飯塚４丁目３番３１－３０６号,,11,203,3320023,,,2022-08-25,清算の結了等,,,2015-10-05,1,,,,,アスターイケブクロテン,0
1319,5040001003571,登記記録の閉鎖等,0,2022-09-07,2022-09-01,株式会社鈴澤,,株式会社,千葉県,千葉市中央区,中央港２丁目５番２号,,12,101,2600024,,,2022-09-01,合併による解散等,6040001004528,令和４年９月１日千葉市中央区中央港二丁目５番２号千葉塩業株式会社（6040001004528）に合併し解散,2015-10-05,1,,,,,スズサワ,0
1330,5050002008370,登記記録の閉鎖等,0,2022-09-07,2022-09-01,現大商事有限会社,,有限会社,茨城県,ひたちなか市,表町３番９号,,08,221,3120047,,,2022-09-01,清算の結了等,,,2015-10-05,1,,,,,ゲンダイショウジ,0
1334,5070001011992,登記記録の閉鎖等,0,2022-09-07,2022-09-02,株式会社ロイヤル,,株式会社,群馬県,富岡市,宇田５４番地４,,10,210,3702451,,,2022-09-02,清算の結了等,,,2015-10-05,1,,,,,ロイヤル,0
1350,5110001033693,登記記録の閉鎖等,0,2022-09-07,2022-09-02,株式会社横木商事,,株式会社,新潟県,新潟市秋葉区,朝日７１番地１,,15,105,9560835,,,2022-09-02,清算の結了等,,,2018-12-14,1,,,,,ヨコキショウジ,0
1360,5120005009342,登記記録の閉鎖等,0,2022-09-07,2022-09-06,特定非営利活動法人愛隣人材支援センター萩,,その他の設立登記法人,大阪府,大阪市浪速区,恵美須東３丁目４番５７号,,27,111,5560002,,,2022-09-06,清算の結了等,,,2015-10-05,1,,,,,アイリンジンザイシエンセンターハギ,0
1404,5180005019245,登記記録の閉鎖等,0,2022-09-07,2022-09-02,人材サポート事業協同組合,,その他の設立登記法人,愛知県,名古屋市中区,栄１丁目２９番２９号,,23,106,4600008,,,2022-09-02,清算の結了等,,,2021-04-16,1,,,,,ジンザイサポート,0
1408,5190001014579,登記記録の閉鎖等,0,2022-09-07,2022-09-02,加藤製網株式会社,,株式会社,三重県,四日市市,天カ須賀２丁目１７番１号,,24,202,5108001,,,2022-09-02,清算の結了等,,,2015-10-05,1,,,,,カトウセイモウ,0
1414,5200001024568,登記記録の閉鎖等,0,2022-09-07,2022-09-05,株式会社オーエスサポート,,株式会社,岐阜県,大垣市,三津屋町５丁目４番地２,,21,202,5030012,,,2022-09-05,清算の結了等,,,2015-10-05,1,,,,,オーエスサポート,0
1443,5330001012246,登記記録の閉鎖等,0,2022-09-07,2022-09-01,株式会社和久田,,株式会社,熊本県,玉名市,立願寺５５８番地,,43,206,8650061,,,2022-09-01,合併による解散等,1330001003389,令和４年９月１日熊本市東区小山四丁目７番１０２号株式会社ナバック（1330001003389）に合併し解散,2015-10-05,1,,,,,ワクタ,0
1466,5380001017876,登記記録の閉鎖等,0,2022-09-07,2022-09-01,株式会社マルキク,,株式会社,福島県,会津若松市,栄町１番１９号,,07,202,9650871,,,2022-09-01,清算の結了等,,,2015-10-05,1,,,,,マルキク,0
1470,5400002012493,登記記録の閉鎖等,0,2022-09-07,2022-09-02,有限会社丸政商事,,有限会社,岩手県,二戸市,石切所字合野々８番地３,,03,213,0286103,,,2022-09-02,清算の結了等,,,2015-10-05,1,,,,,マルセイショウジ,0
1471,5402702000694,登記記録の閉鎖等,0,2022-09-07,2022-09-02,有限会社いまで,,有限会社,岩手県,大船渡市,日頃市町字下鷹生１６番地３,,03,203,0220005,,,2022-09-02,清算の結了等,,,2015-10-05,1,,,,,イマデ,0
1483,5470001017693,登記記録の閉鎖等,0,2022-09-07,2022-09-01,株式会社ＰＲＥＣＩＯＵＳ,,株式会社,香川県,さぬき市,長尾東１５３７番地２,,37,206,7692301,,,2022-09-01,清算の結了等,,,2019-10-16,1,,,,,プレシャス,0
1525,6010403020159,登記記録の閉鎖等,0,2022-09-07,2022-08-25,合同会社グレイト・マーシー,,合同会社,埼玉県,草加市,谷塚町１４０８－２－１０２,,11,221,3400023,,,2022-08-25,清算の結了等,,,2019-02-12,1,,,,,グレイトマーシー,0
1565,6011302005903,登記記録の閉鎖等,0,2022-09-07,2022-09-01,太陽運輸有限会社,,有限会社,東京都,杉並区,成田西１丁目２９番７号,,13,115,1660016,,,2022-09-01,清算の結了等,,,2015-10-05,1,,,,,タイヨウウンユ,0
1577,6012401007393,登記記録の閉鎖等,0,2022-09-07,2022-09-02,株式会社エム・アンド・ケイ,,株式会社,東京都,調布市,入間町３丁目１０番３７号,,13,208,1820004,,,2022-09-02,清算の結了等,,,2015-10-05,1,,,,,エムアンドケイ,0
1595,6020001145175,登記記録の閉鎖等,0,2022-09-07,2022-09-01,株式会社中部ロピア,,株式会社,神奈川県,川崎市幸区,南幸町２丁目９番地,,14,132,2120016,,,2022-09-01,合併による解散等,1021001004499,令和４年９月１日川崎市幸区南幸町二丁目９番地株式会社ロピア（1021001004499）に合併し解散,2022-02-09,1,,,,,チュウブロピア,0
1627,6040001015533,登記記録の閉鎖等,0,2022-09-07,2022-08-31,株式会社ＨＢＭ,,株式会社,千葉県,千葉市中央区,弁天１丁目１５番３号,,12,101,2600045,,,2022-08-31,清算の結了等,,,2015-10-05,1,,,,,エイチビーエム,0
1638,6050001035646,登記記録の閉鎖等,0,2022-09-07,2022-08-30,株式会社Ｋ’ｓカンパニー,,株式会社,群馬県,伊勢崎市,連取町３００３番地５連取バザールＢ１,,10,204,3720812,,,2022-08-30,清算の結了等,,,2015-10-05,1,,,,,ケーズカンパニー,0
1655,6110001008050,登記記録の閉鎖等,0,2022-09-07,2022-09-02,新潟ワコール縫製株式会社,,株式会社,新潟県,新潟市西蒲区,旗屋字前谷内２６３番地,,15,108,9590423,,,2022-09-02,清算の結了等,,,2015-10-05,1,,,,,ニイガタワコールホウセイ,0
1658,6120001029343,登記記録の閉鎖等,0,2022-09-07,2022-09-02,田辺牛乳株式会社,,株式会社,大阪府,大阪市港区,磯路２丁目１４番５号,,27,107,5520003,,,2022-09-02,清算の結了等,,,2015-10-05,1,,,,,タナベギュウニュウ,0
1687,6122002013375,登記記録の閉鎖等,0,2022-09-07,2022-08-31,有限会社大阪久宝寺内職斡旋所,,有限会社,大阪府,八尾市,東久宝寺３丁目３番５号,,27,212,5810002,,,2022-08-31,清算の結了等,,,2015-10-05,1,,,,,オオサカキュウホウジナイショクアッセンショ,0
1693,6130005001025,登記記録の閉鎖等,0,2022-09-07,2022-08-30,徳善寺,00038395,その他の設立登記法人,京都府,京都市東山区,今熊野南日吉町７９番地,00038396,26,105,6050953,,,2022-08-30,清算の結了等,,,2015-10-05,1,,,,,トクゼンジ,0
1704,6140002013914,登記記録の閉鎖等,0,2022-09-07,2022-09-01,国際パールス有限会社,,有限会社,兵庫県,神戸市中央区,中山手通２丁目１５番１３－７０４号,,28,110,6500004,,,2022-09-01,合併による解散等,8140002014150,令和４年９月１日神戸市中央区中山手通二丁目１５番１３－７０４号国際パールス株式会社（8140002014150）に合併し解散,2015-10-05,1,,,,,コクサイパールス,0
1713,6180002093944,登記記録の閉鎖等,0,2022-09-07,2022-08-30,有限会社日吉ビル,,有限会社,愛知県,名古屋市名東区,社が丘１丁目１６０３番地,,23,115,4650051,,,2022-08-30,清算の結了等,,,2022-02-25,1,,,,,ヒヨシビル,0
1719,6200001021432,登記記録の閉鎖等,0,2022-09-07,2022-09-05,株式会社トーカイアート,,株式会社,岐阜県,土岐市,肥田町浅野１０７２番地の７,,21,212,5095114,,,2022-09-05,清算の結了等,,,2015-10-05,1,,,,,トーカイアート,0
1743,6290002005013,登記記録の閉鎖等,0,2022-09-07,2022-09-01,有限会社新東工業,,有限会社,福岡県,福岡市東区,若宮３丁目２番７－１０３号,,40,131,8130036,,,2022-09-01,清算の結了等,,,2015-10-05,1,,,,,シントウコウギョウ,0
1782,6440002005988,登記記録の閉鎖等,0,2022-09-07,2022-08-31,有限会社エム・アンド・エム,,有限会社,北海道,函館市,湯川町３丁目９番２３号,,01,202,0420932,,,2022-08-31,清算の結了等,,,2015-10-05,1,,,,,エムアンドエム,0
1788,6470002000730,登記記録の閉鎖等,0,2022-09-07,2022-09-05,有限会社アップル,,有限会社,香川県,高松市,南新町１０番地６,,37,201,7600051,,,2022-09-05,清算の結了等,,,2015-10-05,1,,,,,アップル,0
1805,7010001134789,登記記録の閉鎖等,0,2022-09-07,2022-09-01,株式会社松井,,株式会社,東京都,中央区,日本橋人形町２丁目２８番２号,,13,102,1030013,,,2022-09-01,清算の結了等,,,2015-10-05,1,,,,,マツイ,0
1812,7010001212082,登記記録の閉鎖等,0,2022-09-07,2022-09-01,株式会社エス・アイ・ピー,,株式会社,東京都,中央区,日本橋馬喰町２丁目３番３号,,13,102,1030002,,,2022-09-01,合併による解散等,9010001205167,令和４年９月１日東京都中央区日本橋馬喰町二丁目３番３号株式会社ストラテジーテック・コンサルティング（9010001205167）に合併し解散,2020-09-04,1,,,,,エスアイピー,0
1816,7010003021119,登記記録の閉鎖等,0,2022-09-07,2022-09-01,日光６３モン鶴見成和合同会社,,合同会社,東京都,千代田区,丸の内３丁目１番１号東京共同会計事務所内,,13,101,1000005,,,2022-09-01,清算の結了等,,,2015-10-05,1,,,,,ニッコウシックスティースリーモンツルミセイワ,0
1818,7010003025474,登記記録の閉鎖等,0,2022-09-07,2022-09-01,ＪＴＳ　ＨｏｌｄｉｎｇｓＩ合同会社,,合同会社,東京都,千代田区,丸の内３丁目１番１号東京共同会計事務所内,,13,101,1000005,,,2022-09-01,清算の結了等,,,2017-06-09,1,,,,,ジェーティーエスホールディングスワン,0
1819,7010003029434,登記記録の閉鎖等,0,2022-09-07,2022-09-01,合同会社グローバルアウトソーシングソリューションズ,,合同会社,東京都,千代田区,霞が関３丁目７番１号霞が関東急ビル３階,,13,101,1000013,,,2022-09-01,合併による解散等,8010401064866,令和４年９月１日東京都千代田区霞が関三丁目２番５号霞が関ビルディング５Ｆ株式会社Ｃｏｌｌｅｇｉａ　Ｉｎｔｅｒｎａｔｉｏｎａｌ（8010401064866）に合併し解散,2019-03-13,1,,,,,グローバルアウトソーシングソリューションズ,0
1833,7010405019297,登記記録の閉鎖等,0,2022-09-07,2022-08-19,ＳＮＺホールディングス一般社団法人,,その他の設立登記法人,東京都,港区,元赤坂１丁目１番７号,,13,103,1070051,,,2022-08-19,清算の結了等,,,2020-11-30,1,,,,,エスエヌゼットホールディングス,0
1842,7010705002457,登記記録の閉鎖等,0,2022-09-07,2022-08-25,一般社団法人リーフワイン協会,,その他の設立登記法人,埼玉県,鴻巣市,宮地１丁目２番８号,,11,217,3650075,,,2022-08-25,清算の結了等,,,2016-05-20,1,,,,,リーフワインキョウカイ,0
1845,7010902000585,登記記録の閉鎖等,0,2022-09-07,2022-08-25,有限会社アシスト,,有限会社,東京都,世田谷区,豪徳寺２丁目２２番２１号,,13,112,1540021,,,2022-08-25,清算の結了等,,,2015-10-05,1,,,,,アシスト,0
1869,7011802004809,登記記録の閉鎖等,0,2022-09-07,2022-09-01,有限会社高橋化学工業所,,有限会社,東京都,葛飾区,四つ木３丁目１６番５号,,13,122,1240011,,,2022-09-01,清算の結了等,,,2015-10-05,1,,,,,タカハシカガクコウギョウショ,0
1925,7060005004769,登記記録の閉鎖等,0,2022-09-07,2022-09-01,とちぎ高品質木材協同組合,,その他の設立登記法人,栃木県,矢板市,東町１１７８番地,,09,211,3292136,,,2022-09-01,清算の結了等,,,2015-10-05,1,,,,,トチギコウヒンシツモクザイ,0
1958,7120001228497,登記記録の閉鎖等,0,2022-09-07,2022-09-01,株式会社ＴＡＭＬＥＴ,,株式会社,大阪府,大阪市北区,末広町３番７号,,27,127,5300053,,,2022-09-01,合併による解散等,8120001228496,令和４年９月１日大阪市北区末広町３番７号株式会社ＴＡＭＳＡＮ（8120001228496）に合併し解散,2020-04-10,1,,,,,タムレット,0
1960,7120001242102,登記記録の閉鎖等,0,2022-09-07,2022-09-02,株式会社ケイズブレイン,,株式会社,大阪府,大阪市此花区,春日出中２丁目６番２６号,,27,104,5540022,,,2022-09-02,清算の結了等,,,2021-11-26,1,,,,,ケイズブレイン,0
1975,7120102025447,登記記録の閉鎖等,0,2022-09-07,2022-09-05,有限会社西川製作所,,有限会社,大阪府,和泉市,小野田町５５番地,,27,219,5941127,,,2022-09-05,清算の結了等,,,2015-10-05,1,,,,,ニシカワセイサクショ,0
1996,7200002022065,登記記録の閉鎖等,0,2022-09-07,2022-09-06,有限会社中央鈑金工業所,,有限会社,岐阜県,瑞浪市,西小田町１丁目１３１番地の２,,21,208,5096114,,,2022-09-06,清算の結了等,,,2015-10-05,1,,,,,,0
2004,7230005008711,登記記録の閉鎖等,0,2022-09-07,2022-09-02,協同組合富山リサイクル協会,,その他の設立登記法人,富山県,富山市,田中町１丁目７番１４号,,16,201,9300985,,,2022-09-02,清算の結了等,,,2016-07-14,1,,,,,トヤマリサイクルキョウカイ,0
2009,7240002016121,登記記録の閉鎖等,0,2022-09-07,2022-09-05,有限会社ミツイエンタープライズ,,有限会社,広島県,広島市南区,松原町３番２－４００６号,,34,103,7320822,,,2022-09-05,清算の結了等,,,2015-10-05,1,,,,,ミツイエンタープライズ,0
2021,7290001037080,登記記録の閉鎖等,0,2022-09-07,2022-08-24,株式会社ふれあい創建,,株式会社,福岡県,宗像市,石丸４丁目３番１７号,,40,220,8114147,,,2022-08-24,清算の結了等,,,2015-10-05,1,,,,,フレアイソウケン,0
2037,7310005007977,登記記録の閉鎖等,0,2022-09-07,2022-09-01,一般社団法人雲仙温泉観光協会,,その他の設立登記法人,長崎県,雲仙市,小浜町雲仙３２０番地,,42,213,8540621,,,2022-09-01,合併による解散等,9310005008585,令和４年９月１日長崎県雲仙市小浜町雲仙３２０番地一般社団法人雲仙観光局（9310005008585）に合併し解散,2016-06-30,1,,,,,ウンゼンオンセンカンコウキョウカイ,0
2050,7350001015724,登記記録の閉鎖等,0,2022-09-07,2022-09-05,株式会社勝建,,株式会社,宮崎県,東諸県郡国富町,大字本庄４３１９番地４,,45,382,8801101,,,2022-09-05,清算の結了等,,,2019-03-26,1,,,,,ショウケン,0
2096,8010003028402,登記記録の閉鎖等,0,2022-09-07,2022-08-31,Ａサプリ合同会社,,合同会社,東京都,中央区,東日本橋２丁目２８番４号日本橋ＣＥＴビル２階,,13,102,1030004,,,2022-08-31,清算の結了等,,,2018-10-03,1,,,,,エーサプリ,0
2117,8010502010785,登記記録の閉鎖等,0,2022-09-07,2022-09-05,有限会社槇島木工所,,有限会社,東京都,台東区,入谷１丁目２番８号,,13,106,1100013,,,2022-09-05,清算の結了等,,,2015-10-05,1,,,,,マキシマモッコウショ,0
2119,8010502015859,登記記録の閉鎖等,0,2022-09-07,2022-09-05,有限会社アシオ,,有限会社,東京都,台東区,千束１丁目１０番１２号,,13,106,1110031,,,2022-09-05,清算の結了等,,,2015-10-05,1,,,,,アシオ,0
2124,8010701005520,登記記録の閉鎖等,0,2022-09-07,2022-09-01,ダイワサービス株式会社,,株式会社,東京都,品川区,東品川１丁目２３番８号,,13,109,1400002,,,2022-09-01,合併による解散等,3010701011507,令和４年９月１日東京都品川区東品川一丁目２３番８号大和印刷株式会社（3010701011507）に合併し解散,2015-10-05,1,,,,,ダイワサービス,0
2134,8011001014336,登記記録の閉鎖等,0,2022-09-07,2022-08-23,株式会社鶴岡・泉・吉田建築設計室,00053084,株式会社,東京都,渋谷区,千駄ヶ谷１丁目１１番４号佐光ビル４０２,,13,113,1510051,,,2022-08-23,清算の結了等,,,2015-10-05,1,,,,,ツルオカイズミヨシダケンチクセッケイシツ,0
2159,8011501000959,登記記録の閉鎖等,0,2022-09-07,2022-09-01,株式会社鍵屋,,株式会社,東京都,北区,赤羽２丁目３番８－２０１３号,,13,117,1150045,,,2022-09-01,清算の結了等,,,2015-10-05,1,,,,,カギヤ,0
2167,8011702001228,登記記録の閉鎖等,0,2022-09-07,2022-09-05,有限会社井上寝具店,,有限会社,東京都,江戸川区,南小岩６丁目２８番１４号,,13,123,1330056,,,2022-09-05,清算の結了等,,,2015-10-05,1,,,,,イノウエシングテン,0
2182,8013301017638,登記記録の閉鎖等,0,2022-09-07,2022-09-05,株式会社二十一世紀総合研究所,,株式会社,東京都,豊島区,池袋２丁目３１番１６号,,13,116,1710014,,,2022-09-05,清算の結了等,,,2015-10-05,1,,,,,ニジュウイッセイキソウゴウケンキュウショ,0
2186,8013401006945,登記記録の閉鎖等,0,2022-09-07,2022-09-02,株式会社ニューオータマ,,株式会社,東京都,稲城市,押立１７４４番地１２０,,13,225,2060811,,,2022-09-02,合併による解散等,1013401001787,令和４年８月１９日東京都稲城市押立１７４４番地株式会社オータマ（1013401001787）に合併し解散,2015-10-05,1,,,,,ニューオータマ,0
2189,8020001062039,登記記録の閉鎖等,0,2022-09-07,2022-09-02,橘エレクトロン株式会社,,株式会社,神奈川県,横浜市鶴見区,鶴見中央２丁目１４番２８号,,14,101,2300051,,,2022-09-02,清算の結了等,,,2015-10-05,1,,,,,タチバナエレクトロン,0
2191,8020001136833,登記記録の閉鎖等,0,2022-09-07,2022-09-01,株式会社神奈川ロピア,,株式会社,神奈川県,川崎市幸区,南幸町２丁目９番地,,14,132,2120016,,,2022-09-01,合併による解散等,1021001004499,令和４年９月１日川崎市幸区南幸町二丁目９番地株式会社ロピア（1021001004499）に合併し解散,2020-07-13,1,,,,,カナガワロピア,0
2206,8021001068587,登記記録の閉鎖等,0,2022-09-07,2022-09-02,株式会社ＭＴＲストレート,,株式会社,神奈川県,藤沢市,本鵠沼２丁目１０番２３号,,14,205,2510028,,,2022-09-02,清算の結了等,,,2019-11-14,1,,,,,エムティアールストレート,0
2219,8030002003387,登記記録の閉鎖等,0,2022-09-07,2022-08-29,有限会社鼎,,有限会社,埼玉県,さいたま市南区,南本町２丁目３番７号,,11,108,3360018,,,2022-08-29,清算の結了等,,,2015-10-05,1,,,,,カナエ,0
2227,8040002085219,登記記録の閉鎖等,0,2022-09-07,2022-08-31,有限会社池永商店,,有限会社,千葉県,銚子市,新生町１丁目２番地,,12,202,2880056,,,2022-08-31,清算の結了等,,,2015-10-05,1,,,,,イケナガショウテン,0
2241,8070002018472,登記記録の閉鎖等,0,2022-09-07,2022-09-02,有限会社岩崎工業,,有限会社,群馬県,伊勢崎市,馬見塚町１０５８番地３,,10,204,3720842,,,2022-09-02,清算の結了等,,,2015-10-05,1,,,,,イワサキコウギョウ,0
2258,8110001033732,登記記録の閉鎖等,0,2022-09-07,2022-09-01,農業生産法人株式会社オザワファーム,,株式会社,新潟県,胎内市,苔実１７番地,,15,227,9592721,,,2022-09-01,清算の結了等,,,2019-01-22,1,,,,,オザワファーム,0
2264,8120001186455,登記記録の閉鎖等,0,2022-09-07,2022-09-01,株式会社ヒューマンパートナーズ,,株式会社,大阪府,大阪市中央区,常盤町１丁目１番４号,,27,128,5400028,,,2022-09-01,合併による解散等,1120001101230,令和４年９月１日大阪市中央区南船場二丁目１２番１６号株式会社クルース（1120001101230）に合併し解散,2015-10-05,1,,,,,ヒューマンパートナーズ,0
2281,8120102005183,登記記録の閉鎖等,0,2022-09-07,2022-09-05,有限会社菱友,,有限会社,大阪府,堺市西区,浜寺公園町３丁２１６番地,,27,144,5928346,,,2022-09-05,清算の結了等,,,2015-10-05,1,,,,,リョウユウ,0
2282,8120103004085,登記記録の閉鎖等,0,2022-09-07,2022-09-05,合同会社昇,,合同会社,大阪府,高石市,西取石３丁目１３番７号,,27,225,5920012,,,2022-09-05,清算の結了等,,,2021-03-10,1,,,,,ノボル,0
2283,8120901039613,登記記録の閉鎖等,0,2022-09-07,2022-09-01,株式会社ＫＲフードサービス,,株式会社,大阪府,大阪市北区,天神橋３丁目６番２６号,,27,127,5300041,,,2022-09-01,合併による解散等,3120001168846,令和４年９月１日大阪市北区天神橋三丁目６番２６号株式会社ＫＲフードサービス（3120001168846）に合併し解散,2018-02-28,1,,,,,ケーアールフードサービス,0
2306,8180001067856,登記記録の閉鎖等,0,2022-09-07,2022-09-01,株式会社スタジオセピア,,株式会社,愛知県,長久手市,井堀６０８番地,,23,238,4801143,,,2022-09-01,清算の結了等,,,2015-10-05,1,,,,,スタジオセピア,0
2309,8180001101887,登記記録の閉鎖等,0,2022-09-07,2022-08-31,株式会社ＰＩＴＴＺ,,株式会社,愛知県,春日井市,南花長町１番地１６,,23,206,4860954,,,2022-08-31,合併による解散等,8180001078507,令和４年８月３１日愛知県春日井市美濃町二丁目２１８番地株式会社ａｒｔ　ｏｆ　Ｌｉｆｅ（8180001078507）に合併し解散,2015-10-05,1,,,,,ピッツ,0
2322,8200002003196,登記記録の閉鎖等,0,2022-09-07,2022-09-06,有限会社東海冷暖,,有限会社,岐阜県,岐阜市,上川手２７２番地の７,,21,201,5008245,,,2022-09-06,清算の結了等,,,2015-10-05,1,,,,,トウカイレイダン,0
2328,8220002015603,登記記録の閉鎖等,0,2022-09-07,2022-09-02,有限会社スマイルショップ坂谷,,有限会社,石川県,輪島市,惣領町７部３８番地,,17,204,9280006,,,2022-09-02,清算の結了等,,,2015-10-05,1,,,,,スマイルショツプサカタニ,0
2351,8310003002475,登記記録の閉鎖等,0,2022-09-07,2022-09-01,株式会社零,,株式会社,長崎県,佐世保市,宇久町平６８番地１,,42,202,8574901,,,2022-09-01,合併による解散等,8310003002987,令和４年９月１日長崎県佐世保市名切町３５２番地７株式会社涼夏（8310003002987）に合併し解散,2015-10-05,1,,,,,ゼロ,0
2361,8370105000140,登記記録の閉鎖等,0,2022-09-07,2022-08-31,丸森町商業協同組合,,その他の設立登記法人,宮城県,伊具郡丸森町,字山崎前１８番地,,04,341,9812155,,,2022-08-31,清算の結了等,,,2015-10-05,1,,,,,マルモリマチ,0
2364,8380002027095,登記記録の閉鎖等,0,2022-09-07,2022-09-01,有限会社スコーピオ,,有限会社,福島県,いわき市,植田町本町２丁目６番地,,07,204,9748261,,,2022-09-01,清算の結了等,,,2015-10-05,1,,,,,スコーピオ,0
2389,8500002010765,登記記録の閉鎖等,0,2022-09-07,2022-09-05,有限会社奥野さく井工業,,有限会社,愛媛県,伊予郡砥部町,大南１４２番地２,,38,402,7912132,,,2022-09-05,清算の結了等,,,2015-10-05,1,,,,,オクノサクイコウギョウ,0
2396,9010001161105,登記記録の閉鎖等,0,2022-09-07,2022-09-01,株式会社アセットプラス,,株式会社,東京都,千代田区,神田和泉町一丁目７番５号,,13,101,1010024,,,2022-09-01,合併による解散等,5010001171660,令和４年９月１日東京都千代田区神田和泉町１－７－５株式会社セカンドトラスト（5010001171660）に合併し解散,2015-10-05,1,,,,,アセットプラス,0
2398,9010001194889,登記記録の閉鎖等,0,2022-09-07,2022-09-01,アセットビジネスカンパニー株式会社,,株式会社,東京都,千代田区,神田北乗物町１０番地２,,13,101,1010036,,,2022-09-01,清算の結了等,,,2018-09-27,1,,,,,アセットビジネスカンパニー,0
2447,9011001116387,登記記録の閉鎖等,0,2022-09-07,2022-08-24,株式会社シー,,株式会社,東京都,渋谷区,松濤１丁目２９番１５号,,13,113,1500046,,,2022-08-24,清算の結了等,,,2017-05-16,1,,,,,シー,0
2453,9011101069386,登記記録の閉鎖等,0,2022-09-07,2022-09-01,株式会社ビズム,,株式会社,東京都,新宿区,西新宿６丁目１２番６号,,13,104,1600023,,,2022-09-01,合併による解散等,4011101031482,令和４年９月１日東京都新宿区西新宿六丁目１２番６号株式会社イエスモ（4011101031482）に合併し解散,2015-10-05,1,,,,,ビズム,0
2461,9011501010593,登記記録の閉鎖等,0,2022-09-07,2022-09-05,株式会社チンギスハーン旅行,,株式会社,東京都,荒川区,西日暮里５丁目１５番７号,,13,118,1160013,,,2022-09-05,合併による解散等,2011501010575,令和４年９月１日東京都荒川区西日暮里五丁目１５番７号株式会社ダイナムビジネスサポート（2011501010575）に合併し解散,2015-10-05,1,,,,,チンギスハーンリョコウ,0
2487,9020001077754,登記記録の閉鎖等,0,2022-09-07,2022-09-02,株式会社浦部商事,,株式会社,神奈川県,川崎市高津区,千年６４６番地２５,,14,134,2130022,,,2022-09-02,清算の結了等,,,2015-10-05,1,,,,,ウラベショウジ,0
2510,9021002039108,登記記録の閉鎖等,0,2022-09-07,2022-09-01,有限会社マツザキ,,有限会社,神奈川県,秦野市,曽屋５５４０番地の３,,14,211,2570031,,,2022-09-01,清算の結了等,,,2015-10-05,1,,,,,マツザキ,0
2511,9021003005950,登記記録の閉鎖等,0,2022-09-07,2022-09-05,合同会社菊地興業,,合同会社,神奈川県,相模原市中央区,千代田３丁目１７番１８号ホワイトハウス１０３,,14,152,2520237,,,2022-09-05,清算の結了等,,,2016-04-26,1,,,,,,0
2543,9050002008813,登記記録の閉鎖等,0,2022-09-07,2022-09-01,有限会社長谷川重設機工,,有限会社,茨城県,ひたちなか市,西十三奉行１１３７１番地の３,,08,221,3111206,,,2022-09-01,清算の結了等,,,2015-10-05,1,,,,,ハセガワジュウセツキコウ,0
2550,9070001025378,登記記録の閉鎖等,0,2022-09-07,2022-09-02,株式会社総社ケアセンター,,株式会社,群馬県,前橋市,総社町総社１７２６番地３,,10,201,3710852,,,2022-09-02,清算の結了等,,,2015-10-05,1,,,,,ソウジャケアセンター,0
2555,9070005009658,登記記録の閉鎖等,0,2022-09-07,2022-09-02,ＡＧＰ協同組合,,その他の設立登記法人,群馬県,前橋市,箱田町１１５１番地４,,10,201,3710837,,,2022-09-02,清算の結了等,,,2019-10-11,1,,,,,エージーピー,0
2569,9100003004293,登記記録の閉鎖等,0,2022-09-07,2022-08-24,合同会社ＫＡＺＵＸ,,合同会社,長野県,松本市,大字岡田松岡２９６番地５サンライフ立澤１０２,,20,202,3900312,,,2022-08-24,清算の結了等,,,2015-10-05,1,,,,,カズックス,0
2570,9100003005977,登記記録の閉鎖等,0,2022-09-07,2022-09-01,合同会社Ｄ－Ａｖｉａｔｉｏｎ,,合同会社,長野県,松本市,大字中山２０２９番地３,,20,202,3900823,,,2022-09-01,清算の結了等,,,2021-02-16,1,,,,,ディーアビエーション,0
2591,9122002017084,登記記録の閉鎖等,0,2022-09-07,2022-09-02,有限会社坂口印刷,,有限会社,大阪府,八尾市,南久宝寺２丁目１番１号,,27,212,5810076,,,2022-09-02,清算の結了等,,,2015-10-05,1,,,,,サカグチインサツ,0
2602,9140002006683,登記記録の閉鎖等,0,2022-09-07,2022-09-05,有限会社名谷鉄工所,,有限会社,兵庫県,神戸市垂水区,福田４丁目４番１３号,,28,108,6550013,,,2022-09-05,清算の結了等,,,2015-10-05,1,,,,,ミョウタニテッコウショ,0
2603,9140002034734,登記記録の閉鎖等,0,2022-09-07,2022-09-02,有限会社ジービーライフ,,有限会社,兵庫県,丹波市,市島町中竹田２１３７番地,,28,223,6694302,,,2022-09-02,清算の結了等,,,2015-10-05,1,,,,,ジービーライフ,0
2624,9190002008386,登記記録の閉鎖等,0,2022-09-07,2022-09-05,有限会社エクスファーム,,有限会社,三重県,伊勢市,二俣１丁目１８番１３号,,24,203,5160064,,,2022-09-05,清算の結了等,,,2015-10-05,1,,,,,エクスファーム,0
2628,9200002007386,登記記録の閉鎖等,0,2022-09-07,2022-09-02,有限会社澤井産業,,有限会社,岐阜県,各務原市,鵜沼羽場町１丁目１５３番地,,21,213,5090135,,,2022-09-02,清算の結了等,,,2015-10-05,1,,,,,サワイサンギョウ,0
2643,9250002019360,登記記録の閉鎖等,0,2022-09-07,2022-09-01,有限会社保険サンクス,,有限会社,山口県,岩国市,錦見５丁目１６番６－２号,,35,208,7410061,,,2022-09-01,清算の結了等,,,2015-10-05,1,,,,,ホケンサンクス,0
2680,9380002026410,登記記録の閉鎖等,0,2022-09-07,2022-08-31,有限会社メディア・エス・エイ,,有限会社,福島県,いわき市,植田町根小屋７３番地,,07,204,9748261,,,2022-08-31,清算の結了等,,,2015-10-05,1,,,,,メディアエスエイ,0
2681,9390001013004,登記記録の閉鎖等,0,2022-09-07,2022-09-01,株式会社菅野園芸,,株式会社,山形県,尾花沢市,大字丹生１０２０番地,,06,212,9994213,,,2022-09-01,清算の結了等,,,2015-10-05,1,,,,,スガノエンゲイ,0
2698,9470002016922,登記記録の閉鎖等,0,2022-09-07,2022-09-02,有限会社セイサン,,有限会社,香川県,三豊市,三野町吉津甲１６６２番地,,37,208,7670033,,,2022-09-02,清算の結了等,,,2015-10-05,1,,,,,セイサン,0
