sequenceNumber,corporateNumber,process,correct,updateDate,changeDate,name,nameImageId,kind,prefectureName,cityName,streetNumber,addressImageId,prefectureCode,cityCode,postCode,addressOutside,addressOutsideImageId,closeDate,closeCause,successorCorporateNumber,changeCause,assignmentDate,latest,enName,enPrefectureName,enCityName,enAddressOutside,furigana,hihyoji
14,1010001233233,新規,0,2023-02-22,2023-02-22,株式会社ＯＮＥ　ＳＨＥＥＮ,,株式会社,東京都,千代田区,神田練塀町３富士ソフト秋葉原ビル１２Ｆ,,13,101,1010022,,,,,,,2023-02-22,1,,,,,ワンシーン,0
34,1010401172626,新規,0,2023-02-22,2023-02-22,ライブリックス株式会社,,株式会社,東京都,港区,南青山３丁目８番４０号青山センタービル２階,,13,103,1070062,,,,,,,2023-02-22,1,,,,,ライブリックス,0
35,1010401172650,新規,0,2023-02-22,2023-02-22,株式会社Ｔａｉｌｏｒ　Ｍｅａｌ,,株式会社,東京都,港区,南青山３丁目１番３６号青山丸竹ビル６Ｆ,,13,103,1070062,,,,,,,2023-02-22,1,,,,,テイラーミール,0
36,1010401172675,新規,0,2023-02-22,2023-02-22,株式会社ＳｉＸＳ,,株式会社,東京都,港区,六本木３丁目１６番１３－１１０１号,,13,103,1060032,,,,,,,2023-02-22,1,,,,,シックス,0
37,1010403028974,新規,0,2023-02-22,2023-02-22,合同会社伊藤彦七商店,,合同会社,東京都,港区,三田２丁目１４番５号１００３,,13,103,1080073,,,,,,,2023-02-22,1,,,,,イトウヒコシチショウテン,0
38,1010403029584,新規,0,2023-02-22,2023-02-22,合同会社ファイブ,,合同会社,東京都,港区,海岸３丁目２１番７－１２０１号,,13,103,1080022,,,,,,,2023-02-22,1,,,,,ファイブ,0
39,1010405021762,新規,0,2023-02-22,2023-02-22,特定非営利活動法人ＮＩＰＰＯＮ・ＳＹＭＰＨＯＮＹ,,その他の設立登記法人,東京都,港区,赤坂３丁目１５－４レアルタ赤坂ビル４Ｆ,,13,103,1070052,,,,,,,2023-02-22,1,,,,,ニッポンシンフォニー,0
40,1010405021804,新規,0,2023-02-22,2023-02-22,一般社団法人圧入締固研究機構,,その他の設立登記法人,東京都,港区,芝４丁目６番１２号,,13,103,1080014,,,,,,,2023-02-22,1,,,,,アツニュウシメカタメケンキュウキコウ,0
46,1010601062643,新規,0,2023-02-22,2023-02-22,株式会社リリリＣｒｅａｔｉｖｅＯｆｆｉｃｅ,,株式会社,東京都,墨田区,本所１丁目２８番４号ラ・カージュ本所１０２号室,,13,107,1300004,,,,,,,2023-02-22,1,,,,,リリリクリエイティブオフィス,0
47,1010601062651,新規,0,2023-02-22,2023-02-22,Ｔｏｋｙｏ　Ｏｐｅｎｓｋｙ株式会社,,株式会社,東京都,墨田区,文花１丁目３４番１１号－４１５,,13,107,1310044,,,,,,,2023-02-22,1,,,,,トウキョウオープンスカイ,0
48,1010603010022,新規,0,2023-02-22,2023-02-22,ＡＷＳＡＲＵ　ＪＡＰＡＮ合同会社,,合同会社,東京都,墨田区,立花４丁目２５番２号武田マンション１０２号,,13,107,1310043,,,,,,,2023-02-22,1,,,,,アワサルジャパン,0
60,1011001152670,新規,0,2023-02-22,2023-02-22,株式会社クロスウィンズ,,株式会社,東京都,渋谷区,道玄坂１丁目１０番８号渋谷道玄坂東急ビル２Ｆ－Ｃ,,13,113,1500043,,,,,,,2023-02-22,1,,,,,,0
61,1011001152712,新規,0,2023-02-22,2023-02-22,株式会社ヘアモデルバンク,,株式会社,東京都,渋谷区,神宮前６丁目２３番４号桑野ビル２Ｆ,,13,113,1500001,,,,,,,2023-02-22,1,,,,,ヘアモデルバンク,0
62,1011001152737,新規,0,2023-02-22,2023-02-22,株式会社ＳＥＮＴＩ,,株式会社,東京都,渋谷区,神山町１７番１０号ＣＲＯＳＳＲＯＡＤ渋谷神山町１０２,,13,113,1500047,,,,,,,2023-02-22,1,,,,,センティ,0
63,1011003016097,新規,0,2023-02-22,2023-02-22,合同会社ｎｉｃｏ,,合同会社,東京都,目黒区,中目黒３丁目２３番１３号エリタージュ中目黒２０５,,13,110,1530061,,,,,,,2023-02-22,1,,,,,ニコ,0
64,1011003016329,新規,0,2023-02-22,2023-02-22,ＤＸ　ＭＯＮＳＴＥＲ合同会社,,合同会社,東京都,渋谷区,神宮前６丁目２３番４号桑野ビル２Ｆ,,13,113,1500001,,,,,,,2023-02-22,1,,,,,,0
65,1011005009925,新規,0,2023-02-22,2023-02-22,一般社団法人デジタル・クライシス総合研究所,,その他の設立登記法人,東京都,渋谷区,神南１丁目１９番１４号,,13,113,1500041,,,,,,,2023-02-22,1,,,,,デジタルクライシスソウゴウケンキュウジョ,0
73,1011101101924,新規,0,2023-02-22,2023-02-22,株式会社ランドリーフロンティア,,株式会社,東京都,新宿区,神楽坂３丁目４番地神楽坂山本ビル６階,,13,104,1620825,,,,,,,2023-02-22,1,,,,,ランドリーフロンティア,0
75,1011103012723,新規,0,2023-02-22,2023-02-22,グローリースカイ合同会社,,合同会社,東京都,新宿区,四谷２丁目９番地１５東京ユナイテッド綜合事務所内,,13,104,1600004,,,,,,,2023-02-22,1,,,,,グローリースカイ,0
79,1011601026605,新規,0,2023-02-22,2023-02-22,株式会社ＬＩＮＫ‐ＩＮ,,株式会社,東京都,練馬区,北町７丁目１０番２１号,,13,120,1790081,,,,,,,2023-02-22,1,,,,,リンクイン,0
97,1020001150378,新規,0,2023-02-22,2023-02-22,株式会社林嵜興業,,株式会社,神奈川県,横浜市都筑区,北山田６丁目１７番６号,,14,118,2240021,,,,,,,2023-02-22,1,,,,,ハヤシザキコウギョウ,0
106,1021003012797,新規,0,2023-02-22,2023-02-22,まるふく合同会社,,合同会社,神奈川県,相模原市南区,大野台１丁目６番８－８号,,14,153,2520331,,,,,,,2023-02-22,1,,,,,マルフク,0
111,1030001152506,新規,0,2023-02-22,2023-02-22,株式会社ＴＨＲＥＥ,,株式会社,埼玉県,さいたま市南区,沼影１丁目１０番１号ラムザタワー７階,,11,108,3360027,,,,,,,2023-02-22,1,,,,,スリー,0
112,1030001152514,新規,0,2023-02-22,2023-02-22,株式会社ブリングラック,,株式会社,埼玉県,さいたま市浦和区,元町１丁目１０番１９－１０５号,,11,107,3300073,,,,,,,2023-02-22,1,,,,,ブリングラック,0
119,1030003021221,新規,0,2023-02-22,2023-02-22,合同会社ｐｒｏｇｕｒｅｓｓｏ,,合同会社,埼玉県,越谷市,大成町２丁目１８９番地２,,11,222,3430825,,,,,,,2023-02-22,1,,,,,プログレッソ,0
120,1030003021238,新規,0,2023-02-22,2023-02-22,ＶＢＫ合同会社,,合同会社,埼玉県,吉川市,美南２丁目１０番地８,,11,243,3420038,,,,,,,2023-02-22,1,,,,,ブイビーケイ,0
125,1040001127192,新規,0,2023-02-22,2023-02-22,株式会社Ｐ＆Ｄ,,株式会社,千葉県,印西市,高西新田２３７－４１,,12,231,2701365,,,,,,,2023-02-22,1,,,,,ピーアンドディー,0
133,1040003022012,新規,0,2023-02-22,2023-02-22,合同会社一成ホーム,,合同会社,千葉県,千葉市花見川区,宇那谷町６８番地,,12,102,2620003,,,,,,,2023-02-22,1,,,,,イッセイホーム,0
139,1060003004438,新規,0,2023-02-22,2023-02-22,合同会社佐平,,合同会社,栃木県,栃木市,平井町１１２,,09,203,3280054,,,,,,,2023-02-22,1,,,,,サヘイ,0
142,1070001040153,新規,0,2023-02-22,2023-02-22,株式会社宮郷不動産,,株式会社,群馬県,伊勢崎市,宮子町２９９１,,10,204,3720801,,,,,,,2023-02-22,1,,,,,ミヤゴウフドウサン,0
147,1080101023800,新規,0,2023-02-22,2023-02-22,株式会社スリーアールジャパン,,株式会社,静岡県,沼津市,東原２３６番地の１５,,22,203,4100304,,,,,,,2023-02-22,1,,,,,スリーアールジャパン,0
161,1120001252668,新規,0,2023-02-22,2023-02-22,株式会社ｂｉｚ　Ｂａｎｋｓｉ,,株式会社,大阪府,大阪市中央区,島之内１丁目２１番２３号大起興産長堀橋ビル４０２,,27,128,5420082,,,,,,,2023-02-22,1,,,,,ビズバンクシー,0
162,1120001252692,新規,0,2023-02-22,2023-02-22,株式会社Ｗａｚｍ１,,株式会社,大阪府,寝屋川市,点野３丁目２２番３号,,27,215,5720077,,,,,,,2023-02-22,1,,,,,ワズミ,0
163,1120001252718,新規,0,2023-02-22,2023-02-22,エスプラス株式会社,,株式会社,大阪府,大阪市生野区,中川４丁目４番６－２０２号室,,27,116,5440005,,,,,,,2023-02-22,1,,,,,エスプラス,0
168,1120005023487,新規,0,2023-02-22,2023-02-22,一般社団法人ＧＳ　Ｉｎｆｏｒｍａｔｉｏｎ,,その他の設立登記法人,大阪府,大阪市西区,北堀江１丁目５－２四ツ橋新興産ビル８０３,,27,106,5500014,,,,,,,2023-02-22,1,,,,,ジーエスインフォメーション,0
169,1120101067025,新規,0,2023-02-22,2023-02-22,株式会社頂和,,株式会社,大阪府,河内長野市,木戸西町３丁目１番１０号２階２－Ａ号室,,27,216,5860009,,,,,,,2023-02-22,1,,,,,チョウワ,0
171,1120901047143,新規,0,2023-02-22,2023-02-22,株式会社ワイルドオレンジ,,株式会社,大阪府,摂津市,東一津屋１４番２０－４０３号,,27,224,5660074,,,,,,,2023-02-22,1,,,,,ワイルドオレンジ,0
174,1130001073717,新規,0,2023-02-22,2023-02-22,ＥＬ　Ｆａｍｉｌｙ　Ｏｆｆｉｃｅ株式会社,,株式会社,京都府,京都市右京区,京北井戸町上台１１,,26,108,6010313,,,,,,,2023-02-22,1,,,,,エルファミリーオフィス,0
175,1130001073725,新規,0,2023-02-22,2023-02-22,株式会社ＫＯＴＯ‐ＢＵＫＩ,,株式会社,京都府,京都市山科区,椥辻中在家町１７番地１プラザ椥ノ辻２階ロ号室,,26,110,6078161,,,,,,,2023-02-22,1,,,,,コトブキ,0
176,1130001073733,新規,0,2023-02-22,2023-02-22,株式会社新建住宅,,株式会社,京都府,宇治市,宇治野神７２番地の２,,26,204,6110021,,,,,,,2023-02-22,1,,,,,シンケンジュウタク,0
180,1130005016705,新規,0,2023-02-22,2023-02-22,一般社団法人マチノミカタ,,その他の設立登記法人,京都府,京都市南区,久世中久世町２丁目１０５番地２８,,26,107,6018213,,,,,,,2023-02-22,1,,,,,マチノミカタ,0
183,1140003018735,新規,0,2023-02-22,2023-02-22,合同会社Ｖｉｋｉｎｇｓ　ｉｎ　Ｊａｐａｎ,,合同会社,兵庫県,宝塚市,栄町１丁目１番９－１０２号,,28,214,6650845,,,,,,,2023-02-22,1,,,,,バイキングスインジャパン,0
195,1180001155064,新規,0,2023-02-22,2023-02-22,株式会社片目のだるま,,株式会社,愛知県,名古屋市中区,富士見町１５番１９号ＰＲＥＣＩＯＵＳＳＩＴＥ３０３,,23,106,4600014,,,,,,,2023-02-22,1,,,,,カタメノダルマ,0
203,1200003005850,新規,0,2023-02-22,2023-02-22,合同会社ＡＰＨＲＯ,,合同会社,岐阜県,美濃加茂市,加茂川町１丁目４‐２９サンワビル３階,,21,211,5050044,,,,,,,2023-02-22,1,,,,,アプロ,0
214,1250001019971,新規,0,2023-02-22,2023-02-22,株式会社ＲＲＣ,,株式会社,山口県,山口市,吉田２８０１番地２,,35,203,7530841,,,,,,,2023-02-22,1,,,,,アールアールシー,0
215,1260001037667,新規,0,2023-02-22,2023-02-22,株式会社グロラボ,,株式会社,岡山県,岡山市南区,妹尾２３００番地２０,,33,104,7010205,,,,,,,2023-02-22,1,,,,,グロラボ,0
222,1290001100629,新規,0,2023-02-22,2023-02-22,株式会社メルテック,,株式会社,福岡県,糟屋郡粕屋町,大字江辻１００３番地３,,40,349,8112313,,,,,,,2023-02-22,1,,,,,メルテック,0
223,1290001100637,新規,0,2023-02-22,2023-02-22,ＦＵＫＵＫＵＲＵ株式会社,,株式会社,福岡県,糸島市,潤４丁目２番２号,,40,230,8191105,,,,,,,2023-02-22,1,,,,,フククル,0
224,1290005018958,新規,0,2023-02-22,2023-02-22,一般社団法人ＴＫｗｉｌｌ,,その他の設立登記法人,福岡県,福岡市早良区,南庄４丁目１３番１１－３０５号,,40,137,8140031,,,,,,,2023-02-22,1,,,,,ティーケーウィル,0
231,1320001019584,新規,0,2023-02-22,2023-02-22,株式会社ハックス,,株式会社,大分県,中津市,大字上宮永４８－６ロイヤルマンション１０６,,44,203,8710027,,,,,,,2023-02-22,1,,,,,ハックス,0
235,1330001030615,新規,0,2023-02-22,2023-02-22,ＡＩＤＥＡＭＡＮ株式会社,,株式会社,熊本県,八代市,八幡町７番１７号,,43,202,8660041,,,,,,,2023-02-22,1,,,,,アイデアマン,0
236,1340001025382,新規,0,2023-02-22,2023-02-22,シマ電気空調設備株式会社,,株式会社,鹿児島県,大島郡龍郷町,戸口６３９番地１０,,46,527,8940107,,,,,,,2023-02-22,1,,,,,シマデンキクウチョウセツビ,0
242,1380001033506,新規,0,2023-02-22,2023-02-22,株式会社ライフ・ステージ少額短期保険設立準備会社,,株式会社,福島県,福島市,大町７番２５号アクティ大町ビル６階,,07,201,9608041,,,,,,,2023-02-22,1,,,,,ライフステージショウガクタンキホケンセツリツジュンビガイシャ,0
246,1430001088461,新規,0,2023-02-22,2023-02-22,共栄産業株式会社,,株式会社,北海道,登別市,富岸町３丁目４８番地１,,01,230,0590028,,,,,,,2023-02-22,1,,,,,キョウエイサンギョウ,0
247,1430001088486,新規,0,2023-02-22,2023-02-22,株式会社プレシャス,,株式会社,北海道,札幌市中央区,南六条西３丁目１０番地４０４号室,,01,101,0640806,,,,,,,2023-02-22,1,,,,,プレシャス,0
249,1430003014754,新規,0,2023-02-22,2023-02-22,合同会社ＧＯＡＴ　ＧＯＯＤＳ,,合同会社,北海道,札幌市豊平区,美園八条８丁目１番１号美園住宅５０１－５３号,,01,105,0620008,,,,,,,2023-02-22,1,,,,,ゴートグッズ,0
253,1460003000941,新規,0,2023-02-22,2023-02-22,合同会社ＥｕＭｏ,,合同会社,北海道,釧路市,星が浦北２丁目３番４３号,,01,206,0840911,,,,,,,2023-02-22,1,,,,,ユーモ,0
254,1480005006943,新規,0,2023-02-22,2023-02-22,一般社団法人杉本塾,,その他の設立登記法人,徳島県,海部郡牟岐町,大字中村字山田２３番地１１,,36,383,7750006,,,,,,,2023-02-22,1,,,,,スギモトジュク,0
257,1700150114453,新規,0,2023-02-22,2023-02-22,ＰＬＡＩＯＮ　ＧｍｂＨ,,外国会社等,,,,,,,,Ｅｍｂｒａｃｅｒ　Ｐｌａｔｚ　１，Ａ－６６０４　Ｈｏｆｅｎ，Ａｕｓｔｒｉａ,,,,,,2023-02-22,1,,,,,プレイオンゲーエムベーハー,0
264,2010001233199,新規,0,2023-02-22,2023-02-22,株式会社ＷＡＣ,,株式会社,東京都,千代田区,内神田１丁目４番地１０号５Ｆ,,13,101,1010047,,,,,,,2023-02-22,1,,,,,ダブルエーシー,0
265,2010001233216,新規,0,2023-02-22,2023-02-22,株式会社アスリード,,株式会社,東京都,中央区,晴海３丁目１３番１－１２１６号,,13,102,1040053,,,,,,,2023-02-22,1,,,,,アスリード,0
266,2010001233224,新規,0,2023-02-22,2023-02-22,ＥＡＢ　Ｊａｐａｎ株式会社,,株式会社,東京都,中央区,銀座１丁目１２番４号Ｎ＆ＥＢＬＤ．６Ｆ,,13,102,1040061,,,,,,,2023-02-22,1,,,,,イーエービージャパン,0
267,2010001233232,新規,0,2023-02-22,2023-02-22,株式会社ＤＤツーリズム,,株式会社,東京都,千代田区,外神田３丁目５番５号,,13,101,1010021,,,,,,,2023-02-22,1,,,,,ディディツーリズム,0
282,2010601062650,新規,0,2023-02-22,2023-02-22,東京越澤広告株式会社,,株式会社,東京都,江東区,東砂５丁目５番６－４０１号,,13,108,1360074,,,,,,,2023-02-22,1,,,,,トウキョウコシザワコウコク,0
287,2010801033716,新規,0,2023-02-22,2023-02-22,株式会社翼建設,,株式会社,東京都,大田区,大森西２丁目１８番２３－Ｂ１０９号,,13,111,1430015,,,,,,,2023-02-22,1,,,,,ツバサケンセツ,0
297,2011003016328,新規,0,2023-02-22,2023-02-22,合同会社ウィズ,,合同会社,東京都,渋谷区,笹塚２丁目１４－１５－１３０４,,13,113,1510073,,,,,,,2023-02-22,1,,,,,,0
298,2011101101915,新規,0,2023-02-22,2023-02-22,株式会社ＳＥＡ　ＳＫＹ　ＴＲＡＶＥＬ,,株式会社,東京都,新宿区,北新宿１丁目１２－１２サンエスビル５階,,13,104,1690074,,,,,,,2023-02-22,1,,,,,シースカイトラベル,0
299,2011101101923,新規,0,2023-02-22,2023-02-22,株式会社ランドリーワイズ,,株式会社,東京都,新宿区,神楽坂３丁目４番地神楽坂山本ビル６階,,13,104,1620825,,,,,,,2023-02-22,1,,,,,ランドリーワイズ,0
300,2011103012730,新規,0,2023-02-22,2023-02-22,ＴｅＮ合同会社,,合同会社,東京都,新宿区,西新宿８丁目１４番２７,,13,104,1600023,,,,,,,2023-02-22,1,,,,,テン,0
323,2020001150303,新規,0,2023-02-22,2023-02-22,株式会社Ｈ．Ｓ．ｃｏａｔ,,株式会社,神奈川県,横浜市都筑区,茅ケ崎中央４１番８－４０２号,,14,118,2240032,,,,,,,2023-02-22,1,,,,,エイチドットエスコート,0
324,2020001150336,新規,0,2023-02-22,2023-02-22,アラヴィータジャパン株式会社,,株式会社,神奈川県,横浜市中区,山手町３５番地１,,14,104,2310862,,,,,,,2023-02-22,1,,,,,アラヴィータジャパン,0
325,2020003023382,新規,0,2023-02-22,2023-02-22,合同会社ＭＩＮＩＭＩＺＥ,,合同会社,神奈川県,横浜市青葉区,美しが丘２丁目１３番地３メゾン・ルミエールたまプラーザ３１１号室,,14,117,2250002,,,,,,,2023-02-22,1,,,,,ミニマイズ,0
336,2030001152505,新規,0,2023-02-22,2023-02-22,株式会社ＥＧＯ,,株式会社,埼玉県,さいたま市南区,白幡３丁目１２番１６号,,11,108,3360022,,,,,,,2023-02-22,1,,,,,エゴ,0
346,2040001127150,新規,0,2023-02-22,2023-02-22,兄弟株式会社,,株式会社,千葉県,船橋市,本町６丁目２番１０－２０５号,,12,204,2730005,,,,,,,2023-02-22,1,,,,,キョウダイ,0
347,2040001127167,新規,0,2023-02-22,2023-02-22,ＩＮＦＩＮＩＴＹ株式会社,,株式会社,千葉県,松戸市,古ケ崎１７０番地の８,,12,207,2710068,,,,,,,2023-02-22,1,,,,,インフィニティ,0
350,2040003022028,新規,0,2023-02-22,2023-02-22,合同会社ＫＡＩＳＥＩ,,合同会社,千葉県,我孫子市,青山台２丁目８番３号,,12,222,2701175,,,,,,,2023-02-22,1,,,,,カイセイ,0
358,2080001025474,新規,0,2023-02-22,2023-02-22,株式会社中部加梱,,株式会社,静岡県,焼津市,小川新町１丁目２番３７号,,22,212,4250031,,,,,,,2023-02-22,1,,,,,チュウブカコン,0
360,2090001017990,新規,0,2023-02-22,2023-02-22,株式会社ＡＵ,,株式会社,山梨県,甲府市,朝気３丁目２番２号,,19,201,4000862,,,,,,,2023-02-22,1,,,,,エーユー,0
362,2090003002256,新規,0,2023-02-22,2023-02-22,合同会社フジ・クリエイト,,合同会社,山梨県,南都留郡富士河口湖町,勝山４５８２番地,,19,430,4010310,,,,,,,2023-02-22,1,,,,,フジクリエイト,0
378,2120001252634,新規,0,2023-02-22,2023-02-22,株式会社柳不動産,,株式会社,大阪府,大阪市鶴見区,諸口３丁目１番１２号,,27,124,5380051,,,,,,,2023-02-22,1,,,,,ヤナギフドウサン,0
379,2120001252667,新規,0,2023-02-22,2023-02-22,株式会社３ｒｄｓｔａｇｅ,,株式会社,大阪府,大阪市中央区,難波４丁目１番１５号近鉄難波ビル,,27,128,5420076,,,,,,,2023-02-22,1,,,,,サードステージ,0
380,2120001252675,新規,0,2023-02-22,2023-02-22,株式会社Ａｆｉｏ,,株式会社,大阪府,守口市,大日東町２３番１号,,27,209,5700016,,,,,,,2023-02-22,1,,,,,アフィオ,0
381,2120001252691,新規,0,2023-02-22,2023-02-22,株式会社Ｓｔａｒ　Ｒｏｕｔｅ,,株式会社,大阪府,大阪市浪速区,日本橋３丁目７番７号１００８号室,,27,111,5560005,,,,,,,2023-02-22,1,,,,,スタールート,0
382,2120001252700,新規,0,2023-02-22,2023-02-22,エース興業株式会社,,株式会社,大阪府,大阪市城東区,古市３丁目８番１０－１０４号,,27,118,5360001,,,,,,,2023-02-22,1,,,,,エースコウギョウ,0
383,2120001252717,新規,0,2023-02-22,2023-02-22,株式会社Ｊ＆Ｖ,,株式会社,大阪府,大阪市東成区,東小橋３丁目１５番１号,,27,115,5370024,,,,,,,2023-02-22,1,,,,,ジェイアンドブイ,0
388,2120003023471,新規,0,2023-02-22,2023-02-22,ｈｅａｒｔ　ｃｒｅａｔｅ合同会社,,合同会社,大阪府,大阪市生野区,桃谷５丁目６番９号,,27,116,5440034,,,,,,,2023-02-22,1,,,,,ハートクリエイト,0
389,2120003023496,新規,0,2023-02-22,2023-02-22,合同会社フィルミック,,合同会社,大阪府,大阪市大正区,千島１丁目３０番２５号,,27,108,5510003,,,,,,,2023-02-22,1,,,,,フィルミック,0
398,2120905006433,新規,0,2023-02-22,2023-02-22,一般社団法人Ｋｏｒｎ　ＳｃｉＴｅｃｈ,,その他の設立登記法人,大阪府,箕面市,箕面５丁目１４番２５号,,27,220,5620001,,,,,,,2023-02-22,1,,,,,コーンサイテック,0
401,2122003002521,新規,0,2023-02-22,2023-02-22,合同会社ＲＥＢＯＲＮ,,合同会社,大阪府,八尾市,青山町４丁目２－８,,27,212,5810018,,,,,,,2023-02-22,1,,,,,リボーン,0
403,2130003008546,新規,0,2023-02-22,2023-02-22,Ｏｉｓｈｉ　Ａｊｉ合同会社,,合同会社,京都府,京都市南区,唐橋堂ノ前町１番地１１,,26,107,6018452,,,,,,,2023-02-22,1,,,,,オイシイアジ,0
409,2140003018734,新規,0,2023-02-22,2023-02-22,合同会社ＤｅＰｒｏＸｊｔ,,合同会社,兵庫県,姫路市,御立東２丁目６番２－２０３号ＯＡＦＬＡＴ御立東ＩＩ,00129521,28,201,6700072,,,,,,,2023-02-22,1,,,,,デプロジ,0
410,2140005026487,新規,0,2023-02-22,2023-02-22,プライムプラネットエナジー＆ソリューションズ労働組合,,その他の設立登記法人,兵庫県,姫路市,飾磨区妻鹿日田町１番６号,,28,201,6728033,,,,,,,2023-02-22,1,,,,,,0
415,2170001017487,新規,0,2023-02-22,2023-02-22,株式会社結絆,,株式会社,和歌山県,岩出市,岡田２３４番地の７,,30,209,6496222,,,,,,,2023-02-22,1,,,,,ユウキ,0
424,2180003024869,新規,0,2023-02-22,2023-02-22,合同会社結,,合同会社,愛知県,半田市,青山５丁目３番地の１０,,23,205,4750836,,,,,,,2023-02-22,1,,,,,ユイ,0
425,2180003024877,新規,0,2023-02-22,2023-02-22,合同会社アダム,,合同会社,愛知県,名古屋市中区,栄４丁目６番１８号パールプラザビル,,23,106,4600008,,,,,,,2023-02-22,1,,,,,アダム,0
428,2180301037127,新規,0,2023-02-22,2023-02-22,国泰株式会社,,株式会社,愛知県,知立市,新富１丁目１５,,23,225,4720047,,,,,,,2023-02-22,1,,,,,コクタイ,0
432,2200001040980,新規,0,2023-02-22,2023-02-22,株式会社Ｂｅｌｌｓ,,株式会社,岐阜県,可児市,下恵土４０１０番地２,,21,214,5090203,,,,,,,2023-02-22,1,,,,,ベルズ,0
436,2230001019725,新規,0,2023-02-22,2023-02-22,株式会社ソレナリ,,株式会社,富山県,小矢部市,蓑輪４９８番地,,16,209,9320124,,,,,,,2023-02-22,1,,,,,ソレナリ,0
438,2240001061115,新規,0,2023-02-22,2023-02-22,株式会社シンキ,,株式会社,広島県,竹原市,塩町４丁目９番４１号,,34,203,7250025,,,,,,,2023-02-22,1,,,,,シンキ,0
440,2240005015521,新規,0,2023-02-22,2023-02-22,医療法人杜都会,,その他の設立登記法人,広島県,広島市安佐南区,伴南４丁目１番１号,,34,105,7313168,,,,,,,2023-02-22,1,,,,,モリトカイ,0
443,2260003004210,新規,0,2023-02-22,2023-02-22,ｉ．Ｍｏｏｎ合同会社,,合同会社,岡山県,岡山市東区,瀬戸町沖６１番地,,33,103,7090855,,,,,,,2023-02-22,1,,,,,アイムーン,0
445,2280003001701,新規,0,2023-02-22,2023-02-22,合同会社あすらく,,合同会社,島根県,安来市,伯太町安田１７２５番地９,,32,206,6920206,,,,,,,2023-02-22,1,,,,,アスラク,0
448,2290001100628,新規,0,2023-02-22,2023-02-22,株式会社ａｎｄＱ,,株式会社,福岡県,福岡市中央区,天神４丁目６番２８号天神ファーストビル７階,,40,133,8100001,,,,,,,2023-02-22,1,,,,,アンドキュー,0
449,2290001100644,新規,0,2023-02-22,2023-02-22,株式会社Ｓａｌｕｔｉ．,,株式会社,福岡県,福岡市中央区,白金２丁目１３番２８－６０３号,,40,133,8100012,,,,,,,2023-02-22,1,,,,,サルーテ,0
450,2290003013555,新規,0,2023-02-22,2023-02-22,ＫＡＧＵＹＡ合同会社,,合同会社,福岡県,八女郡広川町,大字川上２３－１オレンジタウン６号,,40,544,8340113,,,,,,,2023-02-22,1,,,,,カグヤ,0
453,2290801029298,新規,0,2023-02-22,2023-02-22,ハジメ電設株式会社,,株式会社,福岡県,北九州市小倉南区,下城野２丁目５番１１号（８）,,40,107,8020804,,,,,,,2023-02-22,1,,,,,ハジメデンセツ,0
458,2320001019583,新規,0,2023-02-22,2023-02-22,株式会社基源,,株式会社,大分県,大分市,大字福良４８３番地,,44,201,8797874,,,,,,,2023-02-22,1,,,,,キモト,0
459,2330001030614,新規,0,2023-02-22,2023-02-22,株式会社旺永,,株式会社,熊本県,上天草市,松島町合津３４０５番地７５,,43,212,8616102,,,,,,,2023-02-22,1,,,,,オウエイ,0
462,2340003004053,新規,0,2023-02-22,2023-02-22,合同会社Ｍ・Ｌ・Ｂ．Ｌａｂｏ,,合同会社,鹿児島県,霧島市,国分福島１８１９番地４,,46,218,8994322,,,,,,,2023-02-22,1,,,,,エムエルビーラボ,0
463,2350001018194,新規,0,2023-02-22,2023-02-22,株式会社Ｂｅｓｉｄｅ．Ｇｏ,,株式会社,宮崎県,都城市,都島町５０６番地,,45,202,8850083,,,,,,,2023-02-22,1,,,,,ビーサイドゴー,0
472,2380001033505,新規,0,2023-02-22,2023-02-22,株式会社ポメルス,,株式会社,福島県,郡山市,緑町９番１２号,,07,203,9638023,,,,,,,2023-02-22,1,,,,,ポメルス,0
475,2380005012678,新規,0,2023-02-22,2023-02-22,一般社団法人相馬野馬追,,その他の設立登記法人,福島県,南相馬市,原町区本町２丁目２７番地,,07,212,9750008,,,,,,,2023-02-22,1,,,,,ソウマノマオイ,0
482,2430001088477,新規,0,2023-02-22,2023-02-22,Ｉ・Ｅ・エステート株式会社,,株式会社,北海道,札幌市中央区,南十六条西１９丁目２－１－６０５,,01,101,0640916,,,,,,,2023-02-22,1,,,,,イエエステート,0
486,2430003014761,新規,0,2023-02-22,2023-02-22,合同会社光鉄,,合同会社,北海道,小樽市,銭函３丁目１８３－１５,,01,203,0470261,,,,,,,2023-02-22,1,,,,,コウテツ,0
512,3010003039890,新規,0,2023-02-22,2023-02-22,ラディーグコンサルティング合同会社,,合同会社,東京都,中央区,銀座１丁目１２－４Ｎ＆ＥＢＬＤ．７階,,13,102,1040061,,,,,,,2023-02-22,1,,,,,ラディーグコンサルティング,0
513,3010103002088,新規,0,2023-02-22,2023-02-22,Ｐｉｅｒｃｅ合同会社,,合同会社,東京都,八王子市,明神町４丁目２６―１ＭＡＸＩＶ八王子ＤＵＥ８０１号,,13,201,1920046,,,,,,,2023-02-22,1,,,,,ピアース,0
524,3010403029599,新規,0,2023-02-22,2023-02-22,合同会社Ｌｉｆｅｍａｔｅ　Ｒｅａｌ　Ｅｓｔａｔｅ２,,合同会社,東京都,港区,南青山１丁目１番１号新青山ビル東館１０階,,13,103,1070062,,,,,,,2023-02-22,1,,,,,ライフメイトリアルエステートツー,0
527,3010501050044,新規,0,2023-02-22,2023-02-22,ＣＴ株式会社,,株式会社,東京都,台東区,台東１丁目２３番４号,,13,106,1100016,,,,,,,2023-02-22,1,,,,,シーティー,0
531,3010603010029,新規,0,2023-02-22,2023-02-22,合同会社ＡＲＡＴＡ,,合同会社,東京都,墨田区,東駒形２丁目２１－６ディアウィステリア２０５,,13,107,1300005,,,,,,,2023-02-22,1,,,,,アラタ,0
537,3010801033715,新規,0,2023-02-22,2023-02-22,株式会社ＳＯＬＩＦＥ,,株式会社,東京都,大田区,蒲田５丁目３４番７号ソリッド蒲田１Ｆ,,13,111,1440052,,,,,,,2023-02-22,1,,,,,ソリフ,0
538,3010805003004,新規,0,2023-02-22,2023-02-22,一般社団法人おおた労務管理協会,,その他の設立登記法人,東京都,大田区,中馬込１丁目１番１７号１階,,13,111,1430027,,,,,,,2023-02-22,1,,,,,オオタロウムカンリキョウカイ,0
549,3011001152438,新規,0,2023-02-22,2023-02-22,株式会社ＢＴＫ,,株式会社,東京都,目黒区,大岡山１丁目３４番６－１０５号,,13,110,1520033,,,,,,,2023-02-22,1,,,,,ビーティーケー,0
550,3011001152685,新規,0,2023-02-22,2023-02-22,株式会社Ｒコンフィデンス,,株式会社,東京都,渋谷区,代官山町１７番１号,,13,113,1500034,,,,,,,2023-02-22,1,,,,,アールコンフィデンス,0
551,3011001152693,新規,0,2023-02-22,2023-02-22,株式会社ＤＡＹ５,,株式会社,東京都,渋谷区,広尾５丁目１６番２号Ｔ＆Ｋビル,,13,113,1500012,,,,,,,2023-02-22,1,,,,,デイゴ,0
560,3011101101922,新規,0,2023-02-22,2023-02-22,株式会社ランドリートラスト,,株式会社,東京都,新宿区,神楽坂３丁目４番地神楽坂山本ビル６階,,13,104,1620825,,,,,,,2023-02-22,1,,,,,ランドリートラスト,0
566,3011502016835,新規,0,2023-02-22,2023-02-22,有限会社いそべ,,有限会社,東京都,荒川区,東尾久５丁目２４番３号,,13,118,1160012,,,,,,,2023-02-22,1,,,,,イソベ,0
571,3011601026594,新規,0,2023-02-22,2023-02-22,株式会社ＡＷＥ,,株式会社,東京都,練馬区,豊玉北４丁目３１番２号,,13,120,1760012,,,,,,,2023-02-22,1,,,,,エーダブルイー,0
572,3011701026024,新規,0,2023-02-22,2023-02-22,株式会社ＫＴＭプラニングＲ,,株式会社,東京都,江戸川区,谷河内２丁目６番３－３１０号瑞江パーク・ホームズ,,13,123,1330002,,,,,,,2023-02-22,1,,,,,ケイティエムプラニングアール,0
579,3013101009121,新規,0,2023-02-22,2023-02-22,株式会社アイル,,株式会社,東京都,福生市,大字福生９７２番地１２,,13,218,1970011,,,,,,,2023-02-22,1,,,,,アイル,0
590,3020003023381,新規,0,2023-02-22,2023-02-22,ＣＯＭＯＴＩＺＥ合同会社,,合同会社,神奈川県,横浜市中区,万代町１丁目２番１２号ＶＯＲＴ横浜関内ＩＩＩ９階Ｂ号室,00129519,14,104,2310031,,,,,,,2023-02-22,1,,,,,コモタイズ,0
599,3021001078244,新規,0,2023-02-22,2023-02-22,Ｉｓｏｌａ　ｒｅｓｉｄｅｎｃｅ株式会社,,株式会社,神奈川県,海老名市,扇町１４番２－２２０７号,,14,215,2430436,,,,,,,2023-02-22,1,,,,,イゾラレジデンス,0
600,3021001078277,新規,0,2023-02-22,2023-02-22,株式会社ｂｅｒｓａ,,株式会社,神奈川県,鎌倉市,小町１丁目４－８Ａ＆Ｂビル２階,,14,204,2480006,,,,,,,2023-02-22,1,,,,,ベルサ,0
601,3021001078285,新規,0,2023-02-22,2023-02-22,株式会社Ｅｔｅｒｎａｌ,,株式会社,神奈川県,大和市,中央２丁目３番１９号ウエスト・ビルディング１階,,14,213,2420021,,,,,,,2023-02-22,1,,,,,エターナル,0
604,3021003012795,新規,0,2023-02-22,2023-02-22,合同会社ケーアイテック,,合同会社,神奈川県,平塚市,大神１９７７番地の２,,14,203,2540012,,,,,,,2023-02-22,1,,,,,ケーアイテック,0
625,3040003022002,新規,0,2023-02-22,2023-02-22,合同会社グリーンテック,,合同会社,千葉県,千葉市花見川区,花園２丁目１番１０号－２,,12,102,2620025,,,,,,,2023-02-22,1,,,,,グリーンテック,0
629,3050001052438,新規,0,2023-02-22,2023-02-22,株式会社長栄,,株式会社,茨城県,神栖市,大野原中央５丁目９番１０号,,08,232,3140128,,,,,,,2023-02-22,1,,,,,チョウエイ,0
630,3050003007258,新規,0,2023-02-22,2023-02-22,合同会社Ｅ建機サービス,,合同会社,茨城県,つくば市,古来１１６２番地１,,08,220,3050021,,,,,,,2023-02-22,1,,,,,イーケンキサービス,0
636,3080001025473,新規,0,2023-02-22,2023-02-22,株式会社Ｒ．ＩＮＤＵＳＴＲＹ,,株式会社,静岡県,藤枝市,岡出山１丁目９番１号セントポーリアＡ棟２０１号,,22,214,4260026,,,,,,,2023-02-22,1,,,,,アールインダストリー,0
637,3080101023807,新規,0,2023-02-22,2023-02-22,株式会社Ｌｅｉ,,株式会社,静岡県,沼津市,本字千本郷林１９０７番地の３,,22,203,4100849,,,,,,,2023-02-22,1,,,,,レイ,0
658,3120001252666,新規,0,2023-02-22,2023-02-22,株式会社レヴァレンス,,株式会社,大阪府,大阪市淀川区,西宮原３丁目２番１－３２５号,,27,123,5320004,,,,,,,2023-02-22,1,,,,,レヴァレンス,0
659,3120001252674,新規,0,2023-02-22,2023-02-22,株式会社コントレイル,,株式会社,大阪府,大阪市中央区,南船場４丁目１０番５号南船場ＳＯＨＯビル７０２,,27,128,5420081,,,,,,,2023-02-22,1,,,,,コントレイル,0
660,3120001252690,新規,0,2023-02-22,2023-02-22,Ｅｘｃｓｅｏｒｒａ株式会社,,株式会社,大阪府,大阪市西区,立売堀６丁目８番６－１４０８号,,27,106,5500012,,,,,,,2023-02-22,1,,,,,エクセオラ,0
661,3120001252699,新規,0,2023-02-22,2023-02-22,株式会社プロサポート,,株式会社,大阪府,大阪市北区,大深町３番１号グランフロント大阪タワーＢ３５Ｆ,,27,127,5300011,,,,,,,2023-02-22,1,,,,,プロサポート,0
668,3120003023479,新規,0,2023-02-22,2023-02-22,三川合同会社,,合同会社,大阪府,大阪市西成区,橘３丁目１４番１号３０３,,27,122,5570051,,,,,,,2023-02-22,1,,,,,ミカワ,0
675,3120103005088,新規,0,2023-02-22,2023-02-22,合同会社Ｃ．Ｋ　ｐｌｕｓ,,合同会社,大阪府,和泉市,箕形町３丁目７番１６号,,27,219,5940042,,,,,,,2023-02-22,1,,,,,シーケープラス,0
677,3120903004512,新規,0,2023-02-22,2023-02-22,合同会社はるのき,,合同会社,大阪府,吹田市,青葉丘北２１番１－５０６号,,27,205,5650801,,,,,,,2023-02-22,1,,,,,ハルノキ,0
684,3130001073715,新規,0,2023-02-22,2023-02-22,株式会社片山ビルディング,,株式会社,京都府,京都市南区,上鳥羽角田町７７－１－１０３,,26,107,6018104,,,,,,,2023-02-22,1,,,,,カタヤマビルディング,0
685,3130003008545,新規,0,2023-02-22,2023-02-22,Ｓ　Ｍｉｎａ　ｇｒｏｕｐ合同会社,,合同会社,京都府,京都市下京区,黒門通五条下る柿本町５９４番地キャビン杉本３０２,,26,106,6008357,,,,,,,2023-02-22,1,,,,,エスミナグループ,0
690,3140001129202,新規,0,2023-02-22,2023-02-22,太田産業株式会社,,株式会社,兵庫県,姫路市,八代７４２番地７,,28,201,6700872,,,,,,,2023-02-22,1,,,,,オオタサンギョウ,0
691,3140001129210,新規,0,2023-02-22,2023-02-22,株式会社ケイアイ技建,,株式会社,兵庫県,西宮市,松山町１６番３０－５０３号,,28,204,6638101,,,,,,,2023-02-22,1,,,,,ケイアイギケン,0
695,3160001024847,新規,0,2023-02-22,2023-02-22,株式会社ＴＤＫ,,株式会社,滋賀県,甲賀市,甲南町希望ケ丘本町１０丁目２８２０番地３２,,25,209,5203332,,,,,,,2023-02-22,1,,,,,ティーディーケー,0
700,3180001155062,新規,0,2023-02-22,2023-02-22,株式会社ＰＩＥＣＥ　ＯＮＥ,,株式会社,愛知県,東海市,名和町北三ケ月３５番地１,,23,222,4760002,,,,,,,2023-02-22,1,,,,,ピースワン,0
709,3200001040988,新規,0,2023-02-22,2023-02-22,株式会社陽だまり,,株式会社,岐阜県,岐阜市,柳津町下佐波３丁目４４番地,,21,201,5016121,,,,,,,2023-02-22,1,,,,,ヒダマリ,0
712,3220001025285,新規,0,2023-02-22,2023-02-22,株式会社ヤマケン,,株式会社,石川県,加賀市,南郷町ヌ１５番地１,,17,206,9220821,,,,,,,2023-02-22,1,,,,,ヤマケン,0
713,3220003003454,新規,0,2023-02-22,2023-02-22,合同会社Ｓｏｕｔｈ,,合同会社,石川県,金沢市,矢木３丁目２６５番地,,17,201,9218066,,,,,,,2023-02-22,1,,,,,サウス,0
715,3230001019724,新規,0,2023-02-22,2023-02-22,株式会社ＫＸＴジャパン,,株式会社,富山県,富山市,大泉３０５番地７,,16,201,9398058,,,,,,,2023-02-22,1,,,,,ケーエックスティジャパン,0
717,3240001061122,新規,0,2023-02-22,2023-02-22,Ｍ’ｓ．ＬＩＮＥ株式会社,,株式会社,広島県,広島市安佐南区,東原３丁目２５－２８－１０３,,34,105,7310112,,,,,,,2023-02-22,1,,,,,エムズライン,0
719,3260001037665,新規,0,2023-02-22,2023-02-22,ＤＣＸ株式会社,,株式会社,岡山県,岡山市北区,久米２２２－７ガウディビル３０３号室,,33,101,7010144,,,,,,,2023-02-22,1,,,,,ディーシーエックス,0
720,3270005005543,新規,0,2023-02-22,2023-02-22,一般社団法人トリビティー,,その他の設立登記法人,鳥取県,鳥取市,数津２１１番地１,,31,201,6800875,,,,,,,2023-02-22,1,,,,,トリビティー,0
724,3290001100627,新規,0,2023-02-22,2023-02-22,ＥＣＯソーラーショップ株式会社,,株式会社,福岡県,福岡市博多区,吉塚３丁目５－１８,,40,132,8120041,,,,,,,2023-02-22,1,,,,,エコソーラーショップ,0
725,3290001100643,新規,0,2023-02-22,2023-02-22,オースリー・メイト株式会社,,株式会社,福岡県,福岡市中央区,六本松４丁目９番７号,,40,133,8100044,,,,,,,2023-02-22,1,,,,,オースリーメイト,0
726,3290003013554,新規,0,2023-02-22,2023-02-22,合同会社Ｔｒｅｇａｍｅ,,合同会社,福岡県,太宰府市,青山４丁目４番１０号,,40,221,8180121,,,,,,,2023-02-22,1,,,,,トレガーメ,0
728,3300001013224,新規,0,2023-02-22,2023-02-22,Ｂｅａｕｔｙ　Ｃｌｅａｎ株式会社,,株式会社,佐賀県,唐津市,鏡２４１１番地３４－２１－２,,41,202,8470022,,,,,,,2023-02-22,1,,,,,ビューティークリーン,0
731,3330001030613,新規,0,2023-02-22,2023-02-22,ロードシップ株式会社,,株式会社,熊本県,熊本市西区,城山半田３丁目４番９－８号,,43,103,8600064,,,,,,,2023-02-22,1,,,,,ロードシップ,0
735,3350001018193,新規,0,2023-02-22,2023-02-22,株式会社ＣＹＡＮ,,株式会社,宮崎県,宮崎市,吉村町江田原甲２０９番地１シャーメゾン江田原１０２,,45,201,8800841,,,,,,,2023-02-22,1,,,,,シアン,0
736,3360003012747,新規,0,2023-02-22,2023-02-22,大久興業合同会社,,合同会社,沖縄県,国頭郡金武町,字金武１０７３８－１,,47,314,9041201,,,,,,,2023-02-22,1,,,,,,0
744,3380001033504,新規,0,2023-02-22,2023-02-22,株式会社以輪富ホールディングス,,株式会社,福島県,いわき市,平字大町７番地１平セントラルビル６Ｆ,,07,204,9708026,,,,,,,2023-02-22,1,,,,,イワトミホールディングス,0
745,3380005012677,新規,0,2023-02-22,2023-02-22,双葉地区建設業協同組合,,その他の設立登記法人,福島県,双葉郡浪江町,大字権現堂字上蔵役目１７番地１,,07,547,9791521,,,,,,,2023-02-22,1,,,,,フタバチクケンセツギョウ,0
770,4010001233065,新規,0,2023-02-22,2023-02-22,株式会社Ｆａｎｇ　Ｐｒｏｍｏｔｉｏｎ,,株式会社,東京都,千代田区,外神田４丁目１４番２号東京タイムズタワー３８０６,,13,101,1010021,,,,,,,2023-02-22,1,,,,,ファングプロモーション,0
771,4010001233189,新規,0,2023-02-22,2023-02-22,株式会社ＭＡＹＡ．Ｄｏ,,株式会社,東京都,千代田区,平河町１丁目７番５号,,13,101,1020093,,,,,,,2023-02-22,1,,,,,マヤドウ,0
772,4010001233230,新規,0,2023-02-22,2023-02-22,株式会社テーブルプラス,,株式会社,東京都,中央区,銀座１丁目１２－４Ｎ＆ＥＢＬＤ７Ｆ,,13,102,1040061,,,,,,,2023-02-22,1,,,,,テーブルプラス,0
779,4010003039881,新規,0,2023-02-22,2023-02-22,グリーンパートナー・ワン合同会社,,合同会社,東京都,千代田区,霞が関３丁目２番５号,,13,101,1000013,,,,,,,2023-02-22,1,,,,,グリーンパートナーワン,0
780,4010005036274,新規,0,2023-02-22,2023-02-22,グリーンパートナー・ワン一般社団法人,,その他の設立登記法人,東京都,千代田区,霞が関３丁目２番５号,,13,101,1000013,,,,,,,2023-02-22,1,,,,,グリーンパートナーワン,0
788,4010401172648,新規,0,2023-02-22,2023-02-22,株式会社Ｍｅｔａｍｏｒｐｈｏｓｉｓ,,株式会社,東京都,港区,芝４丁目１３番４号田町第１６藤島ビル２階,,13,103,1080014,,,,,,,2023-02-22,1,,,,,メタモルフォーシス,0
789,4010401172656,新規,0,2023-02-22,2023-02-22,モーレテクノロジーズ株式会社,,株式会社,東京都,港区,赤坂１丁目８番１号,,13,103,1070052,,,,,,,2023-02-22,1,,,,,モーレテクノロジーズ,0
790,4010403029573,新規,0,2023-02-22,2023-02-22,合同会社ｍｉｌａ,,合同会社,東京都,港区,南青山２丁目２番１５号,,13,103,1070062,,,,,,,2023-02-22,1,,,,,ミラ,0
797,4010501050043,新規,0,2023-02-22,2023-02-22,サンライフ株式会社,,株式会社,東京都,台東区,上野４丁目７－８アメ横センタービル１Ｆ４２号,,13,106,1100005,,,,,,,2023-02-22,1,,,,,サンライフ,0
801,4010603010028,新規,0,2023-02-22,2023-02-22,おもちか合同会社,,合同会社,東京都,江東区,亀戸６丁目４０番２１号ナイスシティアリーナ亀戸１０１,,13,108,1360071,,,,,,,2023-02-22,1,,,,,オモチカ,0
806,4010801033714,新規,0,2023-02-22,2023-02-22,株式会社タマプロ,,株式会社,東京都,大田区,大森東２丁目６番９号,,13,111,1430012,,,,,,,2023-02-22,1,,,,,タマプロ,0
807,4010901052564,新規,0,2023-02-22,2023-02-22,樫の木キャンプ株式会社,,株式会社,東京都,世田谷区,船橋２丁目２２番２５号,,13,112,1560055,,,,,,,2023-02-22,1,,,,,,0
812,4011003016326,新規,0,2023-02-22,2023-02-22,合同会社みらいクリエイト,,合同会社,東京都,渋谷区,道玄坂１丁目１６番６号二葉ビル８ｂ,,13,113,1500043,,,,,,,2023-02-22,1,,,,,ミライクリエイト,0
813,4011003016334,新規,0,2023-02-22,2023-02-22,合同会社石井システム,,合同会社,東京都,渋谷区,渋谷２丁目１９番１５号宮益坂ビルディング６０９,,13,113,1500002,,,,,,,2023-02-22,1,,,,,イシイシステム,0
814,4011003016342,新規,0,2023-02-22,2023-02-22,小川工藝合同会社,,合同会社,東京都,渋谷区,桜丘町１４番１０号,,13,113,1500031,,,,,,,2023-02-22,1,,,,,オガワコウゲイ,0
819,4011101101921,新規,0,2023-02-22,2023-02-22,株式会社ランドリーアクティブ,,株式会社,東京都,新宿区,神楽坂３丁目４番地神楽坂山本ビル６階,,13,104,1620825,,,,,,,2023-02-22,1,,,,,ランドリーアクティブ,0
823,4011403003915,新規,0,2023-02-22,2023-02-22,清怡合同会社,,合同会社,東京都,板橋区,南町４６番１４号ミヤビヒルズ大山２０１,,13,119,1730027,,,,,,,2023-02-22,1,,,,,セイイ,0
825,4011701026023,新規,0,2023-02-22,2023-02-22,株式会社ＪＳＲＯＷ,,株式会社,東京都,江戸川区,平井６丁目６０番１６号－３Ｆ,,13,123,1320035,,,,,,,2023-02-22,1,,,,,ジェイスロウ,0
833,4013101009120,新規,0,2023-02-22,2023-02-22,株式会社シマラブ,,株式会社,東京都,あきる野市,引田６２７番地９,,13,228,1970834,,,,,,,2023-02-22,1,,,,,シマラブ,0
840,4020001150177,新規,0,2023-02-22,2023-02-22,田中幸洋デザイン株式会社,,株式会社,神奈川県,川崎市高津区,溝口６丁目５－２８－４０２,,14,134,2130001,,,,,,,2023-02-22,1,,,,,タナカユキヒロ,0
841,4020001150367,新規,0,2023-02-22,2023-02-22,株式会社村上鉄筋,,株式会社,神奈川県,横浜市瀬谷区,橋戸３丁目２番地８オプティハイツＡ１０３,,14,114,2460037,,,,,,,2023-02-22,1,,,,,ムラカミテッキン,0
842,4020001150375,新規,0,2023-02-22,2023-02-22,アセットクリエイト株式会社,,株式会社,神奈川県,横浜市鶴見区,馬場６丁目２番７号,,14,101,2300076,,,,,,,2023-02-22,1,,,,,アセットクリエイト,0
843,4020001150383,新規,0,2023-02-22,2023-02-22,株式会社ミューズコンサルティング,,株式会社,神奈川県,横浜市泉区,中田東３丁目２２番３８－７号,,14,116,2450013,,,,,,,2023-02-22,1,,,,,ミューズコンサルティング,0
844,4020001150391,新規,0,2023-02-22,2023-02-22,総食デリバリー株式会社,,株式会社,神奈川県,横浜市神奈川区,千若町２丁目１番４８号,,14,102,2210036,,,,,,,2023-02-22,1,,,,,ソウショクデリバリー,0
865,4030003021227,新規,0,2023-02-22,2023-02-22,ゾーイ合同会社,,合同会社,埼玉県,上尾市,緑丘３丁目４－３４,,11,219,3620015,,,,,,,2023-02-22,1,,,,,ゾーイ,0
872,4040001127181,新規,0,2023-02-22,2023-02-22,株式会社若葉,,株式会社,千葉県,千葉市若葉区,加曽利町１０３２番地６,,12,104,2640017,,,,,,,2023-02-22,1,,,,,ワカバ,0
881,4050005013212,新規,0,2023-02-22,2023-02-22,一般社団法人水戸芸能士協会,,その他の設立登記法人,茨城県,水戸市,八幡町１－２,,08,201,3100065,,,,,,,2023-02-22,1,,,,,ミトゲイノウシキョウカイ,0
895,4080403004735,新規,0,2023-02-22,2023-02-22,Ｍ＆Ｔ合同会社,,合同会社,静岡県,浜松市北区,三方原町５３６－１,,22,135,4338105,,,,,,,2023-02-22,1,,,,,エムアンドティー,0
900,4110003004990,新規,0,2023-02-22,2023-02-22,合同会社ＰＭ,,合同会社,新潟県,新潟市中央区,米山４丁目１番３１号紫竹綜合ビル３１１,,15,103,9500916,,,,,,,2023-02-22,1,,,,,ピーエム,0
908,4120001252599,新規,0,2023-02-22,2023-02-22,ＧＲＡＣＥ株式会社,,株式会社,大阪府,大阪市平野区,西脇２丁目２番２４号,,27,126,5470035,,,,,,,2023-02-22,1,,,,,グレイス,0
911,4120003023486,新規,0,2023-02-22,2023-02-22,合同会社一生,,合同会社,大阪府,大阪市東住吉区,住道矢田８丁目９番９号,,27,121,5460022,,,,,,,2023-02-22,1,,,,,イッセイ,0
917,4120101067014,新規,0,2023-02-22,2023-02-22,ミカサホールディングス株式会社,,株式会社,大阪府,泉北郡忠岡町,新浜２丁目６番１１号,,27,341,5950814,,,,,,,2023-02-22,1,,,,,ミカサホールディングス,0
922,4120901047165,新規,0,2023-02-22,2023-02-22,株式会社朱陽堂,,株式会社,大阪府,吹田市,津雲台５丁目７番１４号,,27,205,5650862,,,,,,,2023-02-22,1,,,,,シュヨウドウ,0
925,4130001073648,新規,0,2023-02-22,2023-02-22,ＫＵＭＥ株式会社,,株式会社,京都府,南丹市,美山町鶴ケ岡コモウ谷１番地１,,26,213,6010762,,,,,,,2023-02-22,1,,,,,,0
927,4130003008544,新規,0,2023-02-22,2023-02-22,合同会社麓デザインスタジオ,,合同会社,京都府,京都市下京区,新町通り下ル四条町３６６,,26,106,6000000,,,,,,,2023-02-22,1,,,,,フモトデザインスタジオ,0
930,4130005016693,新規,0,2023-02-22,2023-02-22,一般社団法人ルトレッフル,,その他の設立登記法人,京都府,久世郡久御山町,佐山籾池１番地４棟４１２号,,26,322,6130034,,,,,,,2023-02-22,1,,,,,ルトレッフル,0
937,4150001026182,新規,0,2023-02-22,2023-02-22,株式会社サニー不動産,,株式会社,奈良県,御所市,大字元町３２５番地の１アサヒ開発ビル２Ｆ,,29,208,6392301,,,,,,,2023-02-22,1,,,,,サニーフドウサン,0
939,4180002022946,新規,0,2023-02-22,2023-02-22,有限会社岡本屋,,有限会社,愛知県,名古屋市北区,中味鋺３丁目９１７番地,,23,103,4620015,,,,,,,2023-02-22,1,,,,,オカモトヤ,0
955,4220005008731,新規,0,2023-02-22,2023-02-22,特定非営利活動法人アンビシオン加賀スポーツクラブ,,その他の設立登記法人,石川県,加賀市,山代温泉３９番地１１０,,17,206,9220242,,,,,,,2023-02-22,1,,,,,アンビシオンカガスポーツクラブ,0
956,4240001061096,新規,0,2023-02-22,2023-02-22,株式会社ＳＴＥＰ・ＯＮＥ,,株式会社,広島県,福山市,本庄町中１丁目２７番２１号,,34,207,7200076,,,,,,,2023-02-22,1,,,,,ステップワン,0
959,4250003003228,新規,0,2023-02-22,2023-02-22,合同会社カナカナ商店,,合同会社,山口県,下関市,一の宮学園町３－１２,,35,201,7510807,,,,,,,2023-02-22,1,,,,,カナカナショウテン,0
961,4290001100618,新規,0,2023-02-22,2023-02-22,株式会社トトハウス,,株式会社,福岡県,福岡市中央区,薬院２丁目２番地２８ニュー薬院ビル２０２,,40,133,8100022,,,,,,,2023-02-22,1,,,,,トトハウス,0
962,4290001100642,新規,0,2023-02-22,2023-02-22,ＢＡＴＯＮ株式会社,,株式会社,福岡県,福岡市博多区,博多駅南３丁目１５番５－８０３号,,40,132,8120016,,,,,,,2023-02-22,1,,,,,バトン,0
965,4290003013553,新規,0,2023-02-22,2023-02-22,シン・エブリー合同会社,,合同会社,福岡県,春日市,若葉台東１丁目２４番地,,40,218,8160821,,,,,,,2023-02-22,1,,,,,シンエブリー,0
969,4310001018279,新規,0,2023-02-22,2023-02-22,ギバット株式会社,,株式会社,長崎県,五島市,栄町４番地７,,42,211,8530001,,,,,,,2023-02-22,1,,,,,ギバット,0
971,4330001030612,新規,0,2023-02-22,2023-02-22,株式会社アレーズプラス,,株式会社,熊本県,玉名市,岱明町野口６８１番地１,,43,206,8690222,,,,,,,2023-02-22,1,,,,,アレーズプラス,0
976,4330003009729,新規,0,2023-02-22,2023-02-22,合同会社サードプレイス,,合同会社,熊本県,熊本市東区,長嶺東４丁目８番５８－１号,,43,102,8618038,,,,,,,2023-02-22,1,,,,,サードプレイス,0
979,4340003004051,新規,0,2023-02-22,2023-02-22,合同会社ＥＮＩＴＯ・Ｍ,,合同会社,鹿児島県,志布志市,志布志町志布志２丁目２４９５番地１ダイヤモンドロードビル１号室,,46,221,8997103,,,,,,,2023-02-22,1,,,,,エニットエム,0
995,4400001016158,新規,0,2023-02-22,2023-02-22,株式会社ＤｒｅａｍＢａｓｅ,,株式会社,岩手県,盛岡市,緑が丘４丁目１番５０号アスティ緑が丘３０１,,03,201,0200117,,,,,,,2023-02-22,1,,,,,ドリームベース,0
1000,4430001088483,新規,0,2023-02-22,2023-02-22,株式会社Ｎ企画,,株式会社,北海道,札幌市手稲区,西宮の沢一条２丁目３番１８号,,01,109,0060001,,,,,,,2023-02-22,1,,,,,エヌキカク,0
1001,4430003014743,新規,0,2023-02-22,2023-02-22,合同会社Ｒｅｂｏｒｎ,,合同会社,北海道,札幌市東区,東苗穂四条１丁目１２番２号,,01,103,0070804,,,,,,,2023-02-22,1,,,,,リボーン,0
1005,4440001009224,新規,0,2023-02-22,2023-02-22,株式会社ネクサム,,株式会社,北海道,函館市,中道２丁目１１番２号,,01,202,0410853,,,,,,,2023-02-22,1,,,,,ネクサム,0
1007,4450001013910,新規,0,2023-02-22,2023-02-22,株式会社ぷぷぷ,,株式会社,北海道,旭川市,豊岡二条４丁目６番１５号,,01,204,0788232,,,,,,,2023-02-22,1,,,,,プププ,0
1011,4480001012018,新規,0,2023-02-22,2023-02-22,株式会社Ｃｌｉｍｂ,,株式会社,徳島県,徳島市,北沖洲４丁目１番１５５－１号,,36,201,7700872,,,,,,,2023-02-22,1,,,,,クライム,0
1018,5010001233188,新規,0,2023-02-22,2023-02-22,ブリッジワイズ株式会社,,株式会社,東京都,千代田区,内幸町２丁目１番１号飯野ビルディング,,13,101,1000011,,,,,,,2023-02-22,1,,,,,ブリッジワイズ,0
1019,5010001233205,新規,0,2023-02-22,2023-02-22,ｅｃ　ｖｉｓｉｏｎ株式会社,,株式会社,東京都,文京区,本郷１丁目３５番２８－７０８号,,13,105,1130033,,,,,,,2023-02-22,1,,,,,イーシービジョン,0
1020,5010001233213,新規,0,2023-02-22,2023-02-22,Ｂ＆Ｂ　ｈｏｕｓｅ株式会社,,株式会社,東京都,文京区,水道２丁目１７－３,,13,105,1120005,,,,,,,2023-02-22,1,,,,,ビーアンドビーハウス,0
1029,5010005036273,新規,0,2023-02-22,2023-02-22,Ｐｌａｔｉｎｕｍ　Ｈｏｕｓｅ特定目的会社,,その他の設立登記法人,東京都,千代田区,霞が関３丁目２番５号,,13,101,1000013,,,,,,,2023-02-22,1,,,,,プラチナムハウス,0
1038,5010501050042,新規,0,2023-02-22,2023-02-22,センテ株式会社,,株式会社,東京都,台東区,根岸３丁目１番１８－３０１号鶯谷上原ハイツ,,13,106,1100003,,,,,,,2023-02-22,1,,,,,センテ,0
1054,5011001152709,新規,0,2023-02-22,2023-02-22,株式会社ディマーク・インク,,株式会社,東京都,渋谷区,代々木４丁目１０番１１号,,13,113,1510053,,,,,,,2023-02-22,1,,,,,ディマークインク,0
1055,5011001152725,新規,0,2023-02-22,2023-02-22,ＡＺＥＮＣ株式会社,,株式会社,東京都,渋谷区,神宮前３丁目２９番３号,,13,113,1500001,,,,,,,2023-02-22,1,,,,,エイゼェンシー,0
1056,5011003016341,新規,0,2023-02-22,2023-02-22,合同会社Ｓｈｏｕｔｙ,,合同会社,東京都,渋谷区,道玄坂１丁目１０番８号渋谷道玄坂東急ビル２Ｆ－Ｃ,,13,113,1500043,,,,,,,2023-02-22,1,,,,,シャウティ,0
1062,5011101101904,新規,0,2023-02-22,2023-02-22,株式会社世進コーポレーション,,株式会社,東京都,新宿区,百人町１丁目１番１７号１Ｆ,,13,104,1690073,,,,,,,2023-02-22,1,,,,,セシンコーポレーション,0
1063,5011105010564,新規,0,2023-02-22,2023-02-22,アースインフラホールディングス一般社団法人,,その他の設立登記法人,東京都,新宿区,四谷２丁目９番地１５東京ユナイテッド綜合事務所内,,13,104,1600004,,,,,,,2023-02-22,1,,,,,アースインフラホールディングス,0
1065,5011503005488,新規,0,2023-02-22,2023-02-22,合同会社リボーンズ,,合同会社,東京都,荒川区,東日暮里５丁目５４番４号ＳＣＥＮＡ日暮里３０５,,13,118,1160014,,,,,,,2023-02-22,1,,,,,リボーンズ,0
1066,5011601026601,新規,0,2023-02-22,2023-02-22,株式会社ベリーヒルズ,,株式会社,東京都,練馬区,西大泉４丁目２１番２５号,,13,120,1780065,,,,,,,2023-02-22,1,,,,,ベリーヒルズ,0
1085,5020001150374,新規,0,2023-02-22,2023-02-22,株式会社ツインパインフィルムズ,,株式会社,神奈川県,横浜市都筑区,中川１丁目２番Ｅ－１１０６号,,14,118,2240001,,,,,,,2023-02-22,1,,,,,ツインパインフィルムズ,0
1086,5020001150382,新規,0,2023-02-22,2023-02-22,株式会社ＮＡＯ,,株式会社,神奈川県,川崎市川崎区,東田町１０番地５－６０２号室,,14,131,2100005,,,,,,,2023-02-22,1,,,,,ナオ,0
1090,5020003023371,新規,0,2023-02-22,2023-02-22,合同会社バンクシア,,合同会社,神奈川県,川崎市川崎区,富士見１丁目６番１４ー１３０４号,,14,131,2100011,,,,,,,2023-02-22,1,,,,,バンクシア,0
1096,5021001078267,新規,0,2023-02-22,2023-02-22,イアシスト株式会社,,株式会社,神奈川県,藤沢市,用田６１５番地の１,,14,205,2520821,,,,,,,2023-02-22,1,,,,,イアシスト,0
1097,5021001078275,新規,0,2023-02-22,2023-02-22,株式会社Ｐｅｒｆｕｍｅ　Ｃｏｎｓｕｌｔｉｎｇ,,株式会社,神奈川県,相模原市南区,新磯野４丁目５番１－５０８号,,14,153,2520325,,,,,,,2023-02-22,1,,,,,パフュームコンサルティング,0
1104,5030001152502,新規,0,2023-02-22,2023-02-22,Ｒｅ　Ｐｒｉｍｅ株式会社,,株式会社,埼玉県,川口市,芝新町８番２２号,,11,203,3330851,,,,,,,2023-02-22,1,,,,,リプライム,0
1107,5030003021226,新規,0,2023-02-22,2023-02-22,合同会社ＳＣＥＮＥ,,合同会社,埼玉県,さいたま市北区,盆栽町５１４番地２２,,11,102,3310805,,,,,,,2023-02-22,1,,,,,シーン,0
1122,5080005007516,新規,0,2023-02-22,2023-02-22,一般社団法人Ｃ＆Ｇ,,その他の設立登記法人,静岡県,藤枝市,田沼１丁目６番１２号Ｃ－１,,22,214,4260061,,,,,,,2023-02-22,1,,,,,シーアンドジー,0
1123,5080101023805,新規,0,2023-02-22,2023-02-22,株式会社永福総業,,株式会社,静岡県,伊東市,岡１３６９番地の３８,,22,208,4140055,,,,,,,2023-02-22,1,,,,,エイフクソウギョウ,0
1136,5120001252607,新規,0,2023-02-22,2023-02-22,株式会社にじいろ,,株式会社,大阪府,大阪市平野区,平野馬場２丁目５番１３号サンウッズ４０２号,,27,126,5470048,,,,,,,2023-02-22,1,,,,,ニジイロ,0
1137,5120001252672,新規,0,2023-02-22,2023-02-22,株式会社ＳＫＤ,,株式会社,大阪府,守口市,南寺方東通５丁目１９番３０号,,27,209,5700043,,,,,,,2023-02-22,1,,,,,エスケーディー,0
1138,5120001252689,新規,0,2023-02-22,2023-02-22,株式会社Ｃ＆Ｊ,,株式会社,大阪府,大阪市中央区,松屋町住吉３番２－１００２号,,27,128,5400017,,,,,,,2023-02-22,1,,,,,シーアンドジェイ,0
1139,5120001252697,新規,0,2023-02-22,2023-02-22,株式会社森口建設,,株式会社,大阪府,枚方市,招提中町２丁目１４－１－１０２,,27,210,5731152,,,,,,,2023-02-22,1,,,,,モリグチケンセツ,0
1140,5120001252714,新規,0,2023-02-22,2023-02-22,株式会社エイテル,,株式会社,大阪府,大阪市平野区,長吉川辺３丁目６番１１号,,27,126,5470014,,,,,,,2023-02-22,1,,,,,エイテル,0
1142,5120003023493,新規,0,2023-02-22,2023-02-22,ｃｏｎｎｅｃｔ合同会社,,合同会社,大阪府,大阪市港区,三先２丁目１２番１号３Ｆ,,27,107,5520016,,,,,,,2023-02-22,1,,,,,コネクト,0
1151,5120903004510,新規,0,2023-02-22,2023-02-22,合同会社富生,,合同会社,大阪府,高槻市,富田丘町７番１５号,,27,207,5691145,,,,,,,2023-02-22,1,,,,,トミウ,0
1153,5122001036717,新規,0,2023-02-22,2023-02-22,ＳＡＫＡ　ＧＲＯＵＰ株式会社,,株式会社,大阪府,東大阪市,岸田堂南町２番２号,,27,227,5770847,,,,,,,2023-02-22,1,,,,,サカグループ,0
1157,5140001129225,新規,0,2023-02-22,2023-02-22,株式会社もんちゃん,,株式会社,兵庫県,南あわじ市,広田中筋１５５番地１,,28,224,6560131,,,,,,,2023-02-22,1,,,,,モンチャン,0
1171,5180003024882,新規,0,2023-02-22,2023-02-22,合同会社ホワイトメディカルコンサルティングＧ,,合同会社,愛知県,稲沢市,奥田堀畑町１２２番地,,23,220,4928238,,,,,,,2023-02-22,1,,,,,ホワイトメディカルコンサルティングジー,0
1176,5180303005624,新規,0,2023-02-22,2023-02-22,ｅｉｃ合同会社,,合同会社,愛知県,田原市,池尻町上り世古４３番地,,23,231,4413505,,,,,,,2023-02-22,1,,,,,イーアイシー,0
1183,5220001025283,新規,0,2023-02-22,2023-02-22,ユナイト株式会社,,株式会社,石川県,金沢市,末町１４の５番地４１,,17,201,9201302,,,,,,,2023-02-22,1,,,,,ユナイト,0
1185,5240001061112,新規,0,2023-02-22,2023-02-22,株式会社コネクト,,株式会社,広島県,広島市中区,大手町３丁目５番１２号,,34,101,7300051,,,,,,,2023-02-22,1,,,,,コネクト,0
1188,5260001037663,新規,0,2023-02-22,2023-02-22,株式会社たゆまふ,,株式会社,岡山県,岡山市北区,高松原古才２７０番地,,33,101,7011334,,,,,,,2023-02-22,1,,,,,タユマフ,0
1191,5260003004208,新規,0,2023-02-22,2023-02-22,合同会社旬感アイス,,合同会社,岡山県,倉敷市,笹沖１３６５－９,,33,202,7100834,,,,,,,2023-02-22,1,,,,,シュンカンアイス,0
1193,5280001008885,新規,0,2023-02-22,2023-02-22,ＭＡライン株式会社,,株式会社,島根県,松江市,奥谷町３２５番地２,,32,201,6900872,,,,,,,2023-02-22,1,,,,,エムエーライン,0
1198,5290001100641,新規,0,2023-02-22,2023-02-22,株式会社シモヤマトヘルスケア,,株式会社,福岡県,福岡市西区,下山門４丁目１４－３２,,40,135,8190052,,,,,,,2023-02-22,1,,,,,シモヤマトヘルスケア,0
1202,5290003013552,新規,0,2023-02-22,2023-02-22,合同会社Ｍｓプランニング,,合同会社,福岡県,福岡市中央区,天神１丁目９番１７号,,40,133,8100001,,,,,,,2023-02-22,1,,,,,エムズプランニング,0
1203,5290003013560,新規,0,2023-02-22,2023-02-22,ＤＵＣ　ＫＨＡＮＨ合同会社,,合同会社,福岡県,福岡市博多区,博多駅南５丁目２６番４１－２０５号,,40,132,8120016,,,,,,,2023-02-22,1,,,,,ドックカン,0
1208,5310003004516,新規,0,2023-02-22,2023-02-22,合同会社ライト,,合同会社,長崎県,大村市,富の原２丁目５９４番地５,,42,205,8560806,,,,,,,2023-02-22,1,,,,,ライト,0
1209,5320003004028,新規,0,2023-02-22,2023-02-22,合同会社田崎企画,,合同会社,大分県,別府市,大字鶴見３８４７番地の７,,44,202,8740840,,,,,,,2023-02-22,1,,,,,タサキキカク,0
1212,5340001025387,新規,0,2023-02-22,2023-02-22,レイル株式会社,,株式会社,鹿児島県,鹿児島市,田上台１丁目１２番１１－５号,,46,201,8900036,,,,,,,2023-02-22,1,,,,,レイル,0
1214,5360001031607,新規,0,2023-02-22,2023-02-22,株式会社チューブライディング,,株式会社,沖縄県,豊見城市,字座安２０８番地２Ｓｏｕｔｈ　ＺＡＩ５０７号,,47,212,9010221,,,,,,,2023-02-22,1,,,,,チューブライディング,0
1216,5380001033502,新規,0,2023-02-22,2023-02-22,株式会社Ａｒｋ　Ｆａｒｍ,,株式会社,福島県,福島市,飯野町字町畑２番地の１０,,07,201,9601301,,,,,,,2023-02-22,1,,,,,アークファーム,0
1217,5390005008994,新規,0,2023-02-22,2023-02-22,一般社団法人福祉事業所のぞみ,,その他の設立登記法人,山形県,新庄市,金沢２５７５番地,,06,205,9960002,,,,,,,2023-02-22,1,,,,,フクシジギョウショノゾミ,0
1221,5430001088466,新規,0,2023-02-22,2023-02-22,株式会社Ｃｏｎｐａｃｅ,,株式会社,北海道,札幌市厚別区,厚別東二条４丁目１２番５号,,01,108,0040002,,,,,,,2023-02-22,1,,,,,コンパーチェ,0
1244,6010001233237,新規,0,2023-02-22,2023-02-22,藍金株式会社,,株式会社,東京都,千代田区,神田富山町２７番地１ＳＹＦＯＲＭＥＫＡＮＤＡ４０１,,13,101,1010043,,,,,,,2023-02-22,1,,,,,ランキン,0
1252,6010005036280,新規,0,2023-02-22,2023-02-22,一般社団法人ながずみ,,その他の設立登記法人,東京都,千代田区,丸の内３丁目１番１号東京共同会計事務所内,,13,101,1000005,,,,,,,2023-02-22,1,,,,,ナガズミ,0
1253,6010101015535,新規,0,2023-02-22,2023-02-22,株式会社おもいやり供養,,株式会社,東京都,八王子市,大和田町６丁目３－２９、１０６号,,13,201,1920045,,,,,,,2023-02-22,1,,,,,,0
1262,6010401172679,新規,0,2023-02-22,2023-02-22,株式会社ＨＡＴＣＨ,,株式会社,東京都,港区,赤坂９丁目６番２６号,,13,103,1070052,,,,,,,2023-02-22,1,,,,,ハッチ,0
1263,6010403029588,新規,0,2023-02-22,2023-02-22,ヘリオス２合同会社,,合同会社,東京都,港区,元麻布３丁目１番６号,,13,103,1060046,,,,,,,2023-02-22,1,,,,,ヘリオスニ,0
1266,6010603010026,新規,0,2023-02-22,2023-02-22,合同会社ＧＲＡＣＥ,,合同会社,東京都,墨田区,江東橋３丁目２番２号大興ビルドルミ錦糸町４０１,,13,107,1300022,,,,,,,2023-02-22,1,,,,,グレイス,0
1270,6010801033712,新規,0,2023-02-22,2023-02-22,株式会社エメラルド・アイル,,株式会社,東京都,大田区,田園調布２丁目２７番７号,,13,111,1450071,,,,,,,2023-02-22,1,,,,,エメラルドアイル,0
1271,6010803004455,新規,0,2023-02-22,2023-02-22,合同会社Ｒｅ　Ｓｔａｒｔ,,合同会社,東京都,大田区,大森西３丁目３０番６－１０２号,,13,111,1430015,,,,,,,2023-02-22,1,,,,,リスタート,0
1276,6010903007993,新規,0,2023-02-22,2023-02-22,Ｒｙａｎ’ｓ合同会社,,合同会社,東京都,世田谷区,上馬４丁目３２－１４オーベル上馬Ａ棟６０１,,13,112,1540011,,,,,,,2023-02-22,1,,,,,ライアンズ,0
1283,6011001152708,新規,0,2023-02-22,2023-02-22,ＲＤＭ‐ＪＰ株式会社,,株式会社,東京都,渋谷区,円山町５番５号Ｎａｖｉ渋谷Ｖ３階,,13,113,1500044,,,,,,,2023-02-22,1,,,,,アールディーエムジェイピー,0
1285,6011005009953,新規,0,2023-02-22,2023-02-22,一般社団法人子供とみらい研究所,,その他の設立登記法人,東京都,目黒区,自由が丘１丁目１５番１０号,,13,110,1520035,,,,,,,2023-02-22,1,,,,,コドモトミライケンキュウジョ,0
1289,6011101101911,新規,0,2023-02-22,2023-02-22,株式会社ＲＩＳＡＩＡ,,株式会社,東京都,新宿区,西新宿３丁目３番１３号西新宿水間ビル２Ｆ,,13,104,1600023,,,,,,,2023-02-22,1,,,,,リサイア,0
1291,6011105010563,新規,0,2023-02-22,2023-02-22,一般社団法人ＢＬＵＥ　ＣＡＲＢＯＮ　ＳＯＵＮＤ,,その他の設立登記法人,東京都,新宿区,高田馬場３丁目２１番４号,,13,104,1690075,,,,,,,2023-02-22,1,,,,,ブルーカーボンサウンド,0
1292,6011305002889,新規,0,2023-02-22,2023-02-22,シルフ社会保険労務士法人,,その他の設立登記法人,東京都,杉並区,今川１丁目２番２０号コート荻窪２０４,,13,115,1670035,,,,,,,2023-02-22,1,,,,,,0
1297,6011601026600,新規,0,2023-02-22,2023-02-22,株式会社中山防水,,株式会社,東京都,練馬区,大泉町３丁目２８番４２号,,13,120,1780062,,,,,,,2023-02-22,1,,,,,ナカヤマボウスイ,0
1303,6012403005841,新規,0,2023-02-22,2023-02-22,合同会社Ｒａｒｅ‐ｓ,,合同会社,東京都,稲城市,大丸１６５番地の６,,13,225,2060801,,,,,,,2023-02-22,1,,,,,レアーズ,0
1312,6020003023362,新規,0,2023-02-22,2023-02-22,合同会社Ｃｈａｒｍｅ,,合同会社,神奈川県,川崎市中原区,苅宿５－１０,,14,133,2110022,,,,,,,2023-02-22,1,,,,,シャルム,0
1313,6020005015853,新規,0,2023-02-22,2023-02-22,一般社団法人歯科サポートサービスかながわ,,その他の設立登記法人,神奈川県,横浜市中区,住吉町６丁目６８番地,,14,104,2310013,,,,,,,2023-02-22,1,,,,,シカサポートサービスカナガワ,0
1318,6030001152484,新規,0,2023-02-22,2023-02-22,株式会社鳶千,,株式会社,埼玉県,比企郡嵐山町,大字志賀３１９番地１,,11,342,3550214,,,,,,,2023-02-22,1,,,,,トビセン,0
1319,6030001152518,新規,0,2023-02-22,2023-02-22,株式会社Ｈ．Ｒ．Ｅ,,株式会社,埼玉県,北足立郡伊奈町,内宿台４丁目１１３－２０３,,11,301,3620812,,,,,,,2023-02-22,1,,,,,,0
1321,6030003021233,新規,0,2023-02-22,2023-02-22,アトリエラピス合同会社,,合同会社,埼玉県,所沢市,北原町１２６０番地の１３,,11,208,3590004,,,,,,,2023-02-22,1,,,,,アトリエラピス,0
1333,6040003021959,新規,0,2023-02-22,2023-02-22,大河合同会社,,合同会社,千葉県,千葉市中央区,新宿２丁目２番２号第３プレシードビル５階Ｆ号室,,12,101,2600021,,,,,,,2023-02-22,1,,,,,タイガ,0
1337,6050003007255,新規,0,2023-02-22,2023-02-22,三笠商事合同会社,,合同会社,茨城県,北茨城市,中郷町足洗３８２番地,,08,215,3191552,,,,,,,2023-02-22,1,,,,,,0
1340,6070001040157,新規,0,2023-02-22,2023-02-22,株式会社Ｓ＆Ｔ,,株式会社,群馬県,前橋市,上長磯町１３番地１,,10,201,3792165,,,,,,,2023-02-22,1,,,,,エスアンドティー,0
1346,6080401026333,新規,0,2023-02-22,2023-02-22,株式会社ＴＨＳ,,株式会社,静岡県,袋井市,下山梨１６９０－１,,22,216,4370123,,,,,,,2023-02-22,1,,,,,ティエイチエス,0
1350,6100003006895,新規,0,2023-02-22,2023-02-22,合同会社ラビット,,合同会社,長野県,飯田市,中央通り４丁目３２番地２ＳｅｎｎｏＢｉｌｌ４階,,20,205,3950041,,,,,,,2023-02-22,1,,,,,ラビット,0
1356,6120001252671,新規,0,2023-02-22,2023-02-22,株式会社ｆｆ,,株式会社,大阪府,守口市,南寺方東通５丁目１９番３０号,,27,209,5700043,,,,,,,2023-02-22,1,,,,,フォルテッシモ,0
1357,6120001252705,新規,0,2023-02-22,2023-02-22,株式会社ＳｏＲｏ,,株式会社,大阪府,大阪市阿倍野区,松崎町２丁目９－２５あべの壱番館２０２号,,27,119,5450053,,,,,,,2023-02-22,1,,,,,ソロ,0
1358,6120001252713,新規,0,2023-02-22,2023-02-22,株式会社ＨＩＫＡＲＩ,,株式会社,大阪府,大阪市生野区,林寺２丁目８番２号Ｂ１０１,,27,116,5440023,,,,,,,2023-02-22,1,,,,,ヒカリ,0
1361,6120003023492,新規,0,2023-02-22,2023-02-22,合同会社ＩＢＥＡＵ,,合同会社,大阪府,大阪市中央区,博労町１丁目５番９－８０３号,,27,128,5410059,,,,,,,2023-02-22,1,,,,,アイビュー,0
1363,6120005023482,新規,0,2023-02-22,2023-02-22,一般社団法人日本留学推進協会,,その他の設立登記法人,大阪府,大阪市旭区,高殿６丁目１番２２号,,27,117,5350031,,,,,,,2023-02-22,1,,,,,ニホンリュウガクスイシンキョウカイ,0
1365,6120901047171,新規,0,2023-02-22,2023-02-22,株式会社エムアイエム,,株式会社,大阪府,茨木市,稲葉町１１－８ローズビルウチダ１Ｆ,,27,211,5670827,,,,,,,2023-02-22,1,,,,,エムアイエム,0
1373,6140001129199,新規,0,2023-02-22,2023-02-22,株式会社ａｍｂｅｒｊａｃｋ,,株式会社,兵庫県,西宮市,浜甲子園２丁目１７番７号,,28,204,6638154,,,,,,,2023-02-22,1,,,,,アンバージャック,0
1374,6140001129216,新規,0,2023-02-22,2023-02-22,株式会社Ｌｕｃｋｙ　Ｃａｔ,,株式会社,兵庫県,神戸市西区,玉津町高津橋３７９番地の２,,28,111,6512122,,,,,,,2023-02-22,1,,,,,ラッキーキャット,0
1375,6140001129224,新規,0,2023-02-22,2023-02-22,クエタ株式会社,,株式会社,兵庫県,神戸市西区,井吹台西町５丁目８－９,,28,111,6512243,,,,,,,2023-02-22,1,,,,,クエタ,0
1393,6200003005854,新規,0,2023-02-22,2023-02-22,合同会社雪風,,合同会社,岐阜県,美濃加茂市,蜂屋町中蜂屋２８７０番地,,21,211,5050005,,,,,,,2023-02-22,1,,,,,ユキカゼ,0
1401,6250003003226,新規,0,2023-02-22,2023-02-22,川蝉コンサルタント合同会社,,合同会社,山口県,山陽小野田市,大字山川６３１番地１プレジール山陽１０２号,,35,216,7570004,,,,,,,2023-02-22,1,,,,,カワセミコンサルタント,0
1409,6290003013519,新規,0,2023-02-22,2023-02-22,合同会社パルクンテ,,合同会社,福岡県,久留米市,大善寺町藤吉１１３番地８,,40,203,8300076,,,,,,,2023-02-22,1,,,,,パルクンテ,0
1410,6290003013551,新規,0,2023-02-22,2023-02-22,キャラウェイ合同会社,,合同会社,福岡県,福岡市中央区,笹丘１丁目１１番２２号,,40,133,8100034,,,,,,,2023-02-22,1,,,,,キャラウェイ,0
1430,6370003006002,新規,0,2023-02-22,2023-02-22,ＤＬＴ合同会社,,合同会社,宮城県,黒川郡大和町,もみじケ丘２丁目３０番地の２０,,04,421,9813622,,,,,,,2023-02-22,1,,,,,ディエルティー,0
1448,6430001088481,新規,0,2023-02-22,2023-02-22,株式会社雪界,,株式会社,北海道,札幌市南区,澄川六条９丁目４番５２号,,01,106,0050006,,,,,,,2023-02-22,1,,,,,セッカイ,0
1452,6430003014758,新規,0,2023-02-22,2023-02-22,合同会社ＢＡＬＡＮＣＥ,,合同会社,北海道,札幌市中央区,南二条東２丁目１６堀尾ビル２Ｆ,,01,101,0600052,,,,,,,2023-02-22,1,,,,,バランス,0
1467,7010001233186,新規,0,2023-02-22,2023-02-22,株式会社Ｃａｒｂｏｎ　Ｅｇｇ,,株式会社,東京都,文京区,本郷２丁目３８－４，本郷弓町ビル．３Ｆ,,13,105,1130033,,,,,,,2023-02-22,1,,,,,カーボンエッグ,0
1468,7010001233211,新規,0,2023-02-22,2023-02-22,ナイス株式会社,,株式会社,東京都,千代田区,外神田５丁目１番１０号千住ビル１階,,13,101,1010021,,,,,,,2023-02-22,1,,,,,ナイス,0
1474,7010003039846,新規,0,2023-02-22,2023-02-22,合同会社ＡＫＩＴＡ　ＸＦＦ,,合同会社,東京都,千代田区,二番町３番地１１ＶＯＲＴ二番町５階,,13,101,1020084,,,,,,,2023-02-22,1,,,,,アキタエックスエフエフ,0
1475,7010003039887,新規,0,2023-02-22,2023-02-22,ＦＩＰＰ１合同会社,,合同会社,東京都,千代田区,丸の内３丁目１番１号東京共同会計事務所内,,13,101,1000005,,,,,,,2023-02-22,1,,,,,エフアイピィピィワン,0
1484,7010401172604,新規,0,2023-02-22,2023-02-22,Ｓｏｌｖｅ　ＡＩ株式会社,,株式会社,東京都,港区,虎ノ門１丁目１７番１号虎ノ門ヒルズビジネスタワー１５階,,13,103,1050001,,,,,,,2023-02-22,1,,,,,ソルブエーアイ,0
1485,7010401172661,新規,0,2023-02-22,2023-02-22,ＤＯＢＯＴ　ＪＡＰＡＮ株式会社,,株式会社,東京都,港区,浜松町２丁目１番１２号,,13,103,1050013,,,,,,,2023-02-22,1,,,,,ドゥーボットジャパン,0
1486,7010401172678,新規,0,2023-02-22,2023-02-22,株式会社ＣｈａｉｎＣｒａｆｔ,,株式会社,東京都,港区,三田１丁目２番２０号ＢＩＲＴＨＩＮ－ＲＥＳＩＤＥＮＣＥ麻布十番２０３,,13,103,1080073,,,,,,,2023-02-22,1,,,,,チェインクラフト,0
1488,7010403029513,新規,0,2023-02-22,2023-02-22,合同会社ボードゲーマーズクラブ,,合同会社,東京都,港区,芝大門２丁目６―１１欧文ビル５Ｆ,,13,103,1050012,,,,,,,2023-02-22,1,,,,,ボードゲーマーズクラブ,0
1489,7010403029579,新規,0,2023-02-22,2023-02-22,トリメンダス・エンタテインメント・ジャパン合同会社,,合同会社,東京都,港区,新橋５丁目２３番７号三栄ビル４階エーアンドシー総合事務所内,,13,103,1050004,,,,,,,2023-02-22,1,,,,,トリメンダスエンタテインメントジャパン,0
1490,7010403029587,新規,0,2023-02-22,2023-02-22,ヘリオス１合同会社,,合同会社,東京都,港区,元麻布３丁目１番６号,,13,103,1060046,,,,,,,2023-02-22,1,,,,,ヘリオスイチ,0
1496,7010701043884,新規,0,2023-02-22,2023-02-22,高輪トラベル株式会社,,株式会社,東京都,品川区,北品川５丁目１１番１号,,13,109,1410001,,,,,,,2023-02-22,1,,,,,タカナワトラベル,0
1497,7010703006591,新規,0,2023-02-22,2023-02-22,合同会社香油香寮,,合同会社,東京都,品川区,東五反田１丁目４番１１－７０１号,,13,109,1410022,,,,,,,2023-02-22,1,,,,,コウユカリョウ,0
1499,7010803004454,新規,0,2023-02-22,2023-02-22,合同会社ＬＩＳ,,合同会社,東京都,大田区,東糀谷６丁目６番６号,,13,111,1440033,,,,,,,2023-02-22,1,,,,,リズ,0
1501,7010901052594,新規,0,2023-02-22,2023-02-22,株式会社カシミール,,株式会社,東京都,世田谷区,喜多見１丁目３０－３,,13,112,1570067,,,,,,,2023-02-22,1,,,,,カシミール,0
1510,7011003016307,新規,0,2023-02-22,2023-02-22,合同会社ＮＯＺＯＭＩ,,合同会社,東京都,目黒区,八雲３丁目１１番５ー５０１号　パークアクシス自由が丘テラス,,13,110,1520023,,,,,,,2023-02-22,1,,,,,ノゾミ,0
1520,7011101101919,新規,0,2023-02-22,2023-02-22,株式会社ＡｍｏｎｇＷｏｗ,,株式会社,東京都,新宿区,市谷八幡町１６番地８０５号,,13,104,1620844,,,,,,,2023-02-22,1,,,,,アモングワオ,0
1521,7011103012726,新規,0,2023-02-22,2023-02-22,トランスモード合同会社,,合同会社,東京都,新宿区,西新宿３丁目３番１３号西新宿水間ビル６階,,13,104,1600023,,,,,,,2023-02-22,1,,,,,トランスモード,0
1526,7011401024919,新規,0,2023-02-22,2023-02-22,株式会社ＢＩＴＵＲＢＯ,,株式会社,東京都,板橋区,泉町５番１５号,,13,119,1740055,,,,,,,2023-02-22,1,,,,,ビターボ,0
1535,7012401040212,新規,0,2023-02-22,2023-02-22,ＲＥＬＩＶＥ株式会社,,株式会社,東京都,武蔵野市,吉祥寺本町２丁目６－８第三武蔵野ビル２Ｆ,,13,203,1800004,,,,,,,2023-02-22,1,,,,,リライブ,0
1540,7013301050367,新規,0,2023-02-22,2023-02-22,株式会社共栄販売,,株式会社,東京都,豊島区,南池袋１丁目１６番１５号ダイヤゲート池袋５Ｆ,,13,116,1710022,,,,,,,2023-02-22,1,,,,,キョウエイハンバイ,0
1546,7020001150364,新規,0,2023-02-22,2023-02-22,やぶ株式会社,,株式会社,神奈川県,横浜市西区,南浅間町１５番地２２,,14,103,2200074,,,,,,,2023-02-22,1,,,,,ヤブ,0
1547,7020001150380,新規,0,2023-02-22,2023-02-22,株式会社ヒグノトラスト,,株式会社,神奈川県,横浜市港南区,芹が谷３丁目１０番１１号,,14,111,2330006,,,,,,,2023-02-22,1,,,,,ヒグノトラスト,0
1551,7020003023361,新規,0,2023-02-22,2023-02-22,合同会社２ｒｉｎｇｓ,,合同会社,神奈川県,横浜市港南区,大久保１丁目５番３号メゾンカサハラ第２－４０５,,14,111,2330007,,,,,,,2023-02-22,1,,,,,,0
1560,7030001152509,新規,0,2023-02-22,2023-02-22,株式会社ダイイチ鉄建,,株式会社,埼玉県,所沢市,東所沢３丁目３８番地の２アインス東所沢２０５,,11,208,3590021,,,,,,,2023-02-22,1,,,,,ダイイチテッケン,0
1561,7030001152517,新規,0,2023-02-22,2023-02-22,潤錦株式会社,,株式会社,埼玉県,草加市,青柳６丁目５４番６号－２０４室,,11,221,3400002,,,,,,,2023-02-22,1,,,,,ジュンキン,0
1562,7030001152533,新規,0,2023-02-22,2023-02-22,株式会社ペガサス,,株式会社,埼玉県,川口市,桜町２丁目１２－５,,11,203,3340001,,,,,,,2023-02-22,1,,,,,,0
1567,7030003021199,新規,0,2023-02-22,2023-02-22,Ｂｅｓｉｄｅ‐艶彩合同会社,,合同会社,埼玉県,さいたま市浦和区,本太５丁目１５番１９号,,11,107,3300052,,,,,,,2023-02-22,1,,,,,ビサイビサイ,0
1572,7040003021743,新規,0,2023-02-22,2023-02-22,合同会社うり坊,,合同会社,千葉県,印西市,本埜小林８０番地１号,,12,231,2702308,,,,,,,2023-02-22,1,,,,,ウリボウ,0
1573,7040003021982,新規,0,2023-02-22,2023-02-22,ｆｏｒ　ｄｏｇｓ　ｃｏｍｐａｎｙ合同会社,,合同会社,千葉県,市原市,栢橋２１５番地９６,,12,219,2900235,,,,,,,2023-02-22,1,,,,,フォードッグスカンパニー,0
1580,7070001040148,新規,0,2023-02-22,2023-02-22,ワイケイ建設株式会社,,株式会社,群馬県,渋川市,渋川２６４１番地１,,10,208,3770008,,,,,,,2023-02-22,1,,,,,ワイケイケンセツ,0
1581,7070001040156,新規,0,2023-02-22,2023-02-22,株式会社ＫＩＫＵＺＯ,,株式会社,群馬県,伊勢崎市,田部井町３丁目１８５番地１,,10,204,3792222,,,,,,,2023-02-22,1,,,,,キクゾー,0
1596,7120001252670,新規,0,2023-02-22,2023-02-22,微光技術日本株式会社,,株式会社,大阪府,大阪市中央区,安堂寺二丁目７番２ー５０５号,,27,128,5390000,,,,,,,2023-02-22,1,,,,,ビコウギジュツニホン,0
1597,7120001252704,新規,0,2023-02-22,2023-02-22,株式会社ＫＮＵＣＫＬＥ,,株式会社,大阪府,大阪市北区,西天満６丁目３番１１号,,27,127,5300047,,,,,,,2023-02-22,1,,,,,ナックル,0
1605,7120901047170,新規,0,2023-02-22,2023-02-22,株式会社杏王出版,,株式会社,大阪府,吹田市,江坂町３丁目６８,,27,205,5640063,,,,,,,2023-02-22,1,,,,,キョウオウシュッパン,0
1618,7140001129207,新規,0,2023-02-22,2023-02-22,株式会社瀬口ＦＰ事務所,00129518,株式会社,兵庫県,宝塚市,中山寺１丁目１番３－１０２号,,28,214,6650861,,,,,,,2023-02-22,1,,,,,セグチエフピージムショ,0
1620,7140003018746,新規,0,2023-02-22,2023-02-22,合同会社エージェントエール,,合同会社,兵庫県,川西市,清和台西１丁目５番地の１９,,28,217,6660143,,,,,,,2023-02-22,1,,,,,エージェントエール,0
1621,7140005026490,新規,0,2023-02-22,2023-02-22,一般社団法人レゾンジュドンソン,,その他の設立登記法人,兵庫県,宝塚市,南口２丁目９番３－５０３号,,28,214,6650011,,,,,,,2023-02-22,1,,,,,レゾンジュドンソン,0
1625,7160001024851,新規,0,2023-02-22,2023-02-22,株式会社杉本商事,,株式会社,滋賀県,大津市,松山町６番３４号－１０３号室,,25,201,5200024,,,,,,,2023-02-22,1,,,,,スギモトショウジ,0
1627,7180001155075,新規,0,2023-02-22,2023-02-22,株式会社ジョブオール,,株式会社,愛知県,名古屋市中村区,名駅５丁目３１番１０号リンクス名駅ビル５Ｆ,,23,105,4500002,,,,,,,2023-02-22,1,,,,,ジョブオール,0
1642,7200003005853,新規,0,2023-02-22,2023-02-22,合同会社まえかわ,,合同会社,岐阜県,高山市,上岡本町４丁目８０番地３,,21,203,5060055,,,,,,,2023-02-22,1,,,,,マエカワ,0
1650,7240001061110,新規,0,2023-02-22,2023-02-22,株式会社Ｕｌｔｉｍａｔｅ　Ｃｌｅａｎ,,株式会社,広島県,広島市南区,皆実町６丁目６番３２－８０３号,,34,103,7340007,,,,,,,2023-02-22,1,,,,,アルティメイトクリーン,0
1651,7240001061119,新規,0,2023-02-22,2023-02-22,株式会社ＭｉＣｈｉ,,株式会社,広島県,東広島市,八本松町飯田５３１番地,,34,212,7390141,,,,,,,2023-02-22,1,,,,,ミチ,0
1666,7290003013559,新規,0,2023-02-22,2023-02-22,ＨＩＮＯ合同会社,,合同会社,福岡県,福岡市東区,原田１丁目１４－２２カサコモド５０５号,,40,131,8120063,,,,,,,2023-02-22,1,,,,,ヒノ,0
1668,7310003004522,新規,0,2023-02-22,2023-02-22,ＥＭＢＬＥ合同会社,,合同会社,長崎県,東彼杵郡波佐見町,稗木場郷１０５１番地９,,42,323,8593726,,,,,,,2023-02-22,1,,,,,エンブル,0
1669,7340001025385,新規,0,2023-02-22,2023-02-22,株式会社田中サービスセンター,,株式会社,鹿児島県,肝属郡肝付町,富山９２０番地５,,46,492,8931204,,,,,,,2023-02-22,1,,,,,タナカサービスセンター,0
1679,7400001005265,新規,0,2023-02-22,2023-02-22,川村工業株式会社,,株式会社,岩手県,花巻市,東宮野目第１３地割１２０番地,,03,205,0250003,,,,,,,2023-02-22,1,,,,,カワムラコウギョウ,0
1682,7410003003761,新規,0,2023-02-22,2023-02-22,合同会社Ｋ・Ｓ防災,,合同会社,秋田県,能代市,景林町１番２３号,,05,202,0160892,,,,,,,2023-02-22,1,,,,,ケーエスボウサイ,0
1684,7430001088480,新規,0,2023-02-22,2023-02-22,株式会社つのまる,,株式会社,北海道,石狩市,花川東一条１丁目４番地１,,01,235,0613261,,,,,,,2023-02-22,1,,,,,ツノマル,0
1685,7430001088489,新規,0,2023-02-22,2023-02-22,株式会社１０９．ｃｏｍ,,株式会社,北海道,札幌市東区,中沼一条３丁目６番２１号,,01,103,0070001,,,,,,,2023-02-22,1,,,,,イチマルキュードットコム,0
1688,7460103001512,新規,0,2023-02-22,2023-02-22,合同会社ミライリス,,合同会社,北海道,帯広市,西十九条南５丁目７番１０号,,01,207,0802469,,,,,,,2023-02-22,1,,,,,ミライリス,0
1689,7470001019481,新規,0,2023-02-22,2023-02-22,株式会社廣本建設,00129520,株式会社,香川県,小豆郡小豆島町,安田甲８３２番地４,,37,324,7614411,,,,,,,2023-02-22,1,,,,,ヒロモトケンセツ,0
1700,8010001233210,新規,0,2023-02-22,2023-02-22,株式会社星澤商店,,株式会社,東京都,千代田区,神田多町２丁目６番地２，グランド・ガーラ神田９０５号,,13,101,1010046,,,,,,,2023-02-22,1,,,,,ホシザワショウテン,0
1701,8010001233219,新規,0,2023-02-22,2023-02-22,株式会社ＵＮＤＥＲ　ＴＨＥ　ＳＵＮ,,株式会社,東京都,中央区,日本橋横山町五丁目１３番地ＭＩＤＯＲＩ．ｓｏ２Ｆ,,13,102,1030003,,,,,,,2023-02-22,1,,,,,アンダーザサン,0
1706,8010003039894,新規,0,2023-02-22,2023-02-22,Ｆａｎケア・ワン合同会社,,合同会社,東京都,千代田区,神田錦町１丁目２１番１号,,13,101,1010054,,,,,,,2023-02-22,1,,,,,ファンケアワン,0
1708,8010005036279,新規,0,2023-02-22,2023-02-22,一般社団法人赤坂インベストメント・ツー,,その他の設立登記法人,東京都,中央区,日本橋１丁目４番１号,,13,102,1030027,,,,,,,2023-02-22,1,,,,,アカサカインベストメントツー,0
1718,8010401172495,新規,0,2023-02-22,2023-02-22,株式会社Ｍｅｍｏｌｉａｓ,,株式会社,東京都,港区,浜松町２丁目２番１５号,,13,103,1050013,,,,,,,2023-02-22,1,,,,,メモリアス,0
1719,8010401172652,新規,0,2023-02-22,2023-02-22,ＺＥＲＯスタート株式会社,,株式会社,東京都,港区,芝浦４丁目２２番１－２７１８号,,13,103,1080023,,,,,,,2023-02-22,1,,,,,ゼロスタート,0
1720,8010401172669,新規,0,2023-02-22,2023-02-22,日本福達株式会社,,株式会社,東京都,港区,赤坂４丁目１３－５－３４号室,,13,103,1070052,,,,,,,2023-02-22,1,,,,,ニホンフクタツ,0
1723,8010403029586,新規,0,2023-02-22,2023-02-22,ネオヴィスタジャパン合同会社,,合同会社,東京都,港区,南青山２丁目２番１５号ウィン青山９４２,,13,103,1070062,,,,,,,2023-02-22,1,,,,,ネオヴィスタジャパン,0
1724,8010405021814,新規,0,2023-02-22,2023-02-22,ジャパン・ツクバ特定目的会社,,その他の設立登記法人,東京都,港区,虎ノ門３丁目２２番１０－２０１号,,13,103,1050001,,,,,,,2023-02-22,1,,,,,ジャパンツクバ,0
1730,8010601062645,新規,0,2023-02-22,2023-02-22,株式会社ガーディアンパートナーズ,,株式会社,東京都,墨田区,亀沢４丁目２３－１２－８０３号,,13,107,1300014,,,,,,,2023-02-22,1,,,,,ガーディアンパートナーズ,0
1732,8010701043883,新規,0,2023-02-22,2023-02-22,ＡＳＡＭＩＮ株式会社,,株式会社,東京都,品川区,東大井５丁目２４番２４号,,13,109,1400011,,,,,,,2023-02-22,1,,,,,アサミン,0
1734,8010801033719,新規,0,2023-02-22,2023-02-22,株式会社アール,,株式会社,東京都,大田区,大森中３丁目２３番２号ジュリアス大森中２０２号室,,13,111,1430014,,,,,,,2023-02-22,1,,,,,アール,0
1737,8010901052577,新規,0,2023-02-22,2023-02-22,株式会社ｎｉｄｏ,,株式会社,東京都,世田谷区,上北沢４丁目６番１号サンサニー１０２,,13,112,1560057,,,,,,,2023-02-22,1,,,,,ニド,0
1738,8010901052593,新規,0,2023-02-22,2023-02-22,ランドコンサル株式会社,,株式会社,東京都,世田谷区,玉川３丁目２３番１号２階,,13,112,1580094,,,,,,,2023-02-22,1,,,,,ランドコンサル,0
1746,8011001152706,新規,0,2023-02-22,2023-02-22,株式会社Ｋ＆Ｎ,,株式会社,東京都,渋谷区,宇田川町４１番地２３第二大久保ビル３０２,,13,113,1500042,,,,,,,2023-02-22,1,,,,,ケイアンドエヌ,0
1748,8011003016322,新規,0,2023-02-22,2023-02-22,ＴＨコンサルティング合同会社,,合同会社,東京都,渋谷区,神宮前６丁目２３番４号桑野ビル２階,,13,113,1500001,,,,,,,2023-02-22,1,,,,,ティエイチコンサルティング,0
1749,8011003016330,新規,0,2023-02-22,2023-02-22,バリューアップパートナーズ合同会社,,合同会社,東京都,渋谷区,神宮前６丁目２３番４号桑野ビル２Ｆ,,13,113,1500001,,,,,,,2023-02-22,1,,,,,,0
1756,8011103012733,新規,0,2023-02-22,2023-02-22,サステナブルエナジー１号合同会社,,合同会社,東京都,新宿区,西新宿６丁目２０－１２,,13,104,1600023,,,,,,,2023-02-22,1,,,,,サステナブルエナジーイチゴウ,0
1757,8011105010561,新規,0,2023-02-22,2023-02-22,グローリースカイ一般社団法人,,その他の設立登記法人,東京都,新宿区,四谷２丁目９番地１５東京ユナイテッド綜合事務所内,,13,104,1600004,,,,,,,2023-02-22,1,,,,,グローリースカイ,0
1759,8011301028481,新規,0,2023-02-22,2023-02-22,株式会社刻暘,,株式会社,東京都,杉並区,高円寺北３丁目９番５号,,13,115,1660002,,,,,,,2023-02-22,1,,,,,コクヨウ,0
1760,8011401024918,新規,0,2023-02-22,2023-02-22,株式会社プロローグ,,株式会社,東京都,板橋区,舟渡２丁目５番６号,,13,119,1740041,,,,,,,2023-02-22,1,,,,,プロローグ,0
1761,8011405002234,新規,0,2023-02-22,2023-02-22,一般社団法人Ｇｉｒｌｓ　Ｕｎｌｉｍｉｔｅｄ　Ｐｒｏｇｒａｍ,,その他の設立登記法人,東京都,板橋区,加賀１丁目１８－１,,13,119,1730003,,,,,,,2023-02-22,1,,,,,ガールズアンリミテッドプログラム,0
1763,8011703003388,新規,0,2023-02-22,2023-02-22,文玉家合同会社,,合同会社,東京都,江戸川区,平井６丁目５番１５号２０２室,,13,123,1320035,,,,,,,2023-02-22,1,,,,,ブンギョクヤ,0
1789,8020003023385,新規,0,2023-02-22,2023-02-22,合同会社ＩｍａＳ　Ｌａｂｓ,,合同会社,神奈川県,川崎市多摩区,宿河原３丁目１１番１３－５０１号,,14,135,2140021,,,,,,,2023-02-22,1,,,,,,0
1800,8030001152532,新規,0,2023-02-22,2023-02-22,株式会社龍美,,株式会社,埼玉県,川口市,安行出羽２丁目１８番８号,,11,203,3340052,,,,,,,2023-02-22,1,,,,,タツミ,0
1809,8050003007261,新規,0,2023-02-22,2023-02-22,ＳＡＦＦＲＯＮ　ＦＯＯＤ　ＭＡＲＴ合同会社,,合同会社,茨城県,守谷市,市松ケ丘四丁目５番地１４－１０１,,08,224,3020100,,,,,,,2023-02-22,1,,,,,サフランフードマート,0
1817,8070001040155,新規,0,2023-02-22,2023-02-22,株式会社りんごの木,,株式会社,群馬県,伊勢崎市,赤堀今井町１丁目３０８－８,,10,204,3792215,,,,,,,2023-02-22,1,,,,,リンゴノキ,0
1822,8080401026331,新規,0,2023-02-22,2023-02-22,和興貿易株式会社,,株式会社,静岡県,浜松市中区,龍禅寺町７６８番地,,22,131,4300924,,,,,,,2023-02-22,1,,,,,ワコウボウエキ,0
1834,8120001252694,新規,0,2023-02-22,2023-02-22,株式会社Ｓｕｃｒｅ　Ｗｉｓｔｅｒｉａ,,株式会社,大阪府,大阪市生野区,桃谷２丁目１７番２２号,,27,116,5440034,,,,,,,2023-02-22,1,,,,,シュクレウィステリア,0
1835,8120001252703,新規,0,2023-02-22,2023-02-22,株式会社ＲＹＯＥＮ,,株式会社,大阪府,大阪市中央区,日本橋１丁目１７番１７号ピカソ日本一ビル６０４号室,,27,128,5420073,,,,,,,2023-02-22,1,,,,,リョウエン,0
1839,8120101067019,新規,0,2023-02-22,2023-02-22,頭師工業株式会社,,株式会社,大阪府,松原市,河合１丁目４番２０号,,27,217,5800022,,,,,,,2023-02-22,1,,,,,ズシコウギョウ,0
1840,8120103005091,新規,0,2023-02-22,2023-02-22,映像庵合同会社,,合同会社,大阪府,岸和田市,野田町３丁目６番６－６０２号,,27,202,5960076,,,,,,,2023-02-22,1,,,,,エイゾウアン,0
1842,8122001036714,新規,0,2023-02-22,2023-02-22,株式会社トーマス・ストリート,,株式会社,大阪府,東大阪市,大蓮南２丁目４番５号,,27,227,5770825,,,,,,,2023-02-22,1,,,,,トーマスストリート,0
1845,8130001073727,新規,0,2023-02-22,2023-02-22,株式会社雷霆,,株式会社,京都府,京都市下京区,西七条西八反田町８２シェアハウス梅小路１０３号室,,26,106,6008892,,,,,,,2023-02-22,1,,,,,ライテイ,0
1848,8140001129222,新規,0,2023-02-22,2023-02-22,株式会社Ｋクラフト,,株式会社,兵庫県,神戸市西区,富士見が丘４丁目２番地の９,,28,111,6512214,,,,,,,2023-02-22,1,,,,,ケイクラフト,0
1849,8140003018745,新規,0,2023-02-22,2023-02-22,合同会社ＰＯＲＴＴＥＣ,,合同会社,兵庫県,三田市,下青野８６６番地５０,,28,219,6691302,,,,,,,2023-02-22,1,,,,,ポートテック,0
1853,8160003002805,新規,0,2023-02-22,2023-02-22,Ｎ＆Ｄ合同会社,,合同会社,滋賀県,大津市,大萱１丁目１９番１９号,,25,201,5202144,,,,,,,2023-02-22,1,,,,,エヌアンドディ,0
1856,8170003001839,新規,0,2023-02-22,2023-02-22,ＡｉＭ合同会社,,合同会社,和歌山県,橋本市,高野口町伏原１０２番地の２,,30,203,6497202,,,,,,,2023-02-22,1,,,,,エイム,0
1872,8200003005852,新規,0,2023-02-22,2023-02-22,Ｍ　Ｒｉａｚ　Ｔｒａｄｉｎｇ合同会社,,合同会社,岐阜県,安八郡安八町,南篠１０７６番地の１Ｓｕｒｐｌｕｓ　Ｉ　ＢＡＮ１０１号,,21,383,5030100,,,,,,,2023-02-22,1,,,,,エムリアズトレーディング,0
1881,8250001019973,新規,0,2023-02-22,2023-02-22,株式会社ＴＳＵＪＩ商事,,株式会社,山口県,柳井市,山根１１番２５号,,35,212,7420002,,,,,,,2023-02-22,1,,,,,ツジショウジ,0
1888,8290001100630,新規,0,2023-02-22,2023-02-22,株式会社プライムイノベーション,,株式会社,福岡県,福岡市博多区,比恵町２番７号博多東エースビル５Ｆ,,40,132,8120014,,,,,,,2023-02-22,1,,,,,プライムイノベーション,0
1896,8310003004521,新規,0,2023-02-22,2023-02-22,合同会社丸中商事,,合同会社,長崎県,長崎市,鍛冶屋町６番２６号,,42,201,8500831,,,,,,,2023-02-22,1,,,,,マルナカショウジ,0
1898,8330003009733,新規,0,2023-02-22,2023-02-22,合同会社パプリカ,,合同会社,熊本県,熊本市北区,植木町岩野１６３６番地１,,43,105,8610136,,,,,,,2023-02-22,1,,,,,パプリカ,0
1899,8340001025384,新規,0,2023-02-22,2023-02-22,株式会社ミコト,,株式会社,鹿児島県,薩摩川内市,百次町１８２９番地１,,46,215,8950007,,,,,,,2023-02-22,1,,,,,ミコト,0
1908,8370003006000,新規,0,2023-02-22,2023-02-22,紅旭合同会社,,合同会社,宮城県,東松島市,矢本字鹿石前１６２番地１,,04,214,9810503,,,,,,,2023-02-22,1,,,,,コウキョク,0
1912,8380001033499,新規,0,2023-02-22,2023-02-22,ＩＣＴまなび株式会社,,株式会社,福島県,白河市,関辺字引目橋２９番１６号,,07,205,9610021,,,,,,,2023-02-22,1,,,,,アイシーティーマナビ,0
1919,8420003002670,新規,0,2023-02-22,2023-02-22,合同会社ｐｒｅｔｅｎｄｅｒ,,合同会社,青森県,平川市,新館藤山１２７の１,,02,210,0360115,,,,,,,2023-02-22,1,,,,,プリテンダー,0
1921,8440003001514,新規,0,2023-02-22,2023-02-22,合同会社ほんやのまえ,,合同会社,北海道,函館市,川原町８番６号,,01,202,0410844,,,,,,,2023-02-22,1,,,,,ホンヤノマエ,0
1931,8700150113795,新規,0,2023-02-22,2023-02-22,ＺｈｏｎｇＳｈａｎ　ＪｉｎＤｉｎｇ　Ｅｌｅｃｔｒｏｎｉｃ　Ｃｏ．，Ｌｔｄ,,外国会社等,,,,,,,,中国中山市東鳳鎮小瀝社区東海五路益隆一街二巷１１号首層之一,00129505,,,,,2023-02-22,1,,,,,チュウザンシキンテイデンシユウゲンコウシ,0
1932,8700150114455,新規,0,2023-02-22,2023-02-22,株式会社プライマックスカイマン,,外国会社等,大阪府,堺市堺区,御陵通５番１０－２号,,27,141,5900057,大韓民国京畿道龍仁市處仁区慕賢邑谷賢路３１５番道１１５－３,,,,,,2023-02-22,1,,,,,カブシキカイシャプライマックスカイマン,0
1947,9010001233192,新規,0,2023-02-22,2023-02-22,株式会社ＣＯＭＦＯＲＴ,,株式会社,東京都,千代田区,神田佐久間町１丁目１４番地,,13,101,1010025,,,,,,,2023-02-22,1,,,,,コンフォート,0
1948,9010001233226,新規,0,2023-02-22,2023-02-22,フクダエンジニアリングサービス株式会社,,株式会社,東京都,文京区,本郷２丁目３５番８号,,13,105,1130033,,,,,,,2023-02-22,1,,,,,フクダエンジニアリングサービス,0
1952,9010003039885,新規,0,2023-02-22,2023-02-22,Ｑｒｉｏｕｓ合同会社,,合同会社,東京都,中央区,勝どき５丁目３番１－２５０７号,,13,102,1040054,,,,,,,2023-02-22,1,,,,,キュリアス,0
1953,9010003039893,新規,0,2023-02-22,2023-02-22,合同会社マーブ,,合同会社,東京都,中央区,銀座１丁目１２番４号Ｎ＆ＥＢＬＤ．６Ｆ,,13,102,1040061,,,,,,,2023-02-22,1,,,,,マーブ,0
1965,9010401172651,新規,0,2023-02-22,2023-02-22,株式会社ＧＧＭ,,株式会社,東京都,港区,西新橋３丁目２５番３１号愛宕山ＰＲＥＸ３階,,13,103,1050003,,,,,,,2023-02-22,1,,,,,ジージーエム,0
1971,9010405021813,新規,0,2023-02-22,2023-02-22,ジャパン・ナエバ特定目的会社,,その他の設立登記法人,東京都,港区,虎ノ門３丁目２２番１０－２０１号,,13,103,1050001,,,,,,,2023-02-22,1,,,,,ジャパンナエバ,0
1972,9010405021838,新規,0,2023-02-22,2023-02-22,Ｌｉｆｅｓｔｙｌｅ２ｂ一般社団法人,,その他の設立登記法人,東京都,港区,六本木１丁目９番１０号アークヒルズ仙石山森タワー４０階,,13,103,1060032,,,,,,,2023-02-22,1,,,,,ライフスタイルツービー,0
1977,9010601062652,新規,0,2023-02-22,2023-02-22,株式会社ＮＥＸＴ　ＨＯＭＥ,,株式会社,東京都,江東区,有明１丁目４番１１－３０３３号,,13,108,1350063,,,,,,,2023-02-22,1,,,,,ネクストホーム,0
1982,9010701043866,新規,0,2023-02-22,2023-02-22,Ｇｒａｂｅｄｇｅ株式会社,,株式会社,東京都,品川区,大崎５丁目１番４号五反田南ハイツ７０４,,13,109,1410032,,,,,,,2023-02-22,1,,,,,グラブエッジ,0
1990,9010901052592,新規,0,2023-02-22,2023-02-22,株式会社Ａ＆Ｃｏ．,,株式会社,東京都,世田谷区,上祖師谷３丁目１３番８号,,13,112,1570065,,,,,,,2023-02-22,1,,,,,エーアンドコー,0
1993,9010903007982,新規,0,2023-02-22,2023-02-22,セレニティー合同会社,,合同会社,東京都,世田谷区,若林５丁目５－５ＬＡ若林ＣＱ２０１,,13,112,1540023,,,,,,,2023-02-22,1,,,,,セレニティー,0
1994,9010903007990,新規,0,2023-02-22,2023-02-22,ｓｐｒｏｕｎｔｂｏｘ合同会社,,合同会社,東京都,世田谷区,玉川台２丁目３２番１－４０２号,,13,112,1580096,,,,,,,2023-02-22,1,,,,,スプラウトボックス,0
2000,9011003016338,新規,0,2023-02-22,2023-02-22,合同会社ｍａｒｕ,,合同会社,東京都,渋谷区,恵比寿１丁目２３番９号,,13,113,1500013,,,,,,,2023-02-22,1,,,,,マル,0
2001,9011003016346,新規,0,2023-02-22,2023-02-22,合同会社Ｌｏａｄｉｎｇ,,合同会社,東京都,渋谷区,道玄坂１丁目１０番８号渋谷道玄坂東急ビル２Ｆ－Ｃ,,13,113,1500043,,,,,,,2023-02-22,1,,,,,ローディング,0
2005,9011101101917,新規,0,2023-02-22,2023-02-22,株式会社ｅｍｉｒａｉ　ｉｎｖｅｓｔｍｅｎｔ,,株式会社,東京都,新宿区,市谷山伏町２番５号プライムメゾン１２０４,,13,104,1620857,,,,,,,2023-02-22,1,,,,,エミライインベストメント,0
2007,9011103012732,新規,0,2023-02-22,2023-02-22,アースインフラファンド合同会社,,合同会社,東京都,新宿区,四谷２丁目９番地１５東京ユナイテッド綜合事務所内,,13,104,1600004,,,,,,,2023-02-22,1,,,,,アースインフラファンド,0
2011,9011801041974,新規,0,2023-02-22,2023-02-22,株式会社ＳＩＮＴＥＣＨ,,株式会社,東京都,足立区,千住河原町１９番９－２０１号室,,13,121,1200037,,,,,,,2023-02-22,1,,,,,シンテック,0
2023,9013303006506,新規,0,2023-02-22,2023-02-22,イノ商事合同会社,,合同会社,東京都,豊島区,南大塚１丁目４２番７号６０２室,,13,116,1700005,,,,,,,2023-02-22,1,,,,,イノショウジ,0
2030,9020003023376,新規,0,2023-02-22,2023-02-22,合同会社ＫＥＩ,,合同会社,神奈川県,横浜市磯子区,森２丁目１０番１３号ファーストクラス３０１号,,14,107,2350023,,,,,,,2023-02-22,1,,,,,ケイ,0
2032,9021001078263,新規,0,2023-02-22,2023-02-22,ゲートガレージ株式会社,,株式会社,神奈川県,海老名市,国分南１丁目１３番４８号１０１,,14,215,2430405,,,,,,,2023-02-22,1,,,,,ゲートガレージ,0
2035,9030001152498,新規,0,2023-02-22,2023-02-22,株式会社エフマネージ,,株式会社,埼玉県,川口市,大字赤井５１４番地の２,,11,203,3340073,,,,,,,2023-02-22,1,,,,,エフマネージ,0
2036,9030001152523,新規,0,2023-02-22,2023-02-22,株式会社ディーアール工房,,株式会社,埼玉県,さいたま市浦和区,仲町１丁目１３－５ｎｉｄｏｕｒａｗａ３０２,,11,107,3300062,,,,,,,2023-02-22,1,,,,,ディーアールコウボウ,0
2037,9030001152531,新規,0,2023-02-22,2023-02-22,株式会社さくらホーム,,株式会社,埼玉県,川口市,芝新町５－１ＳＫビル７階,,11,203,3330851,,,,,,,2023-02-22,1,,,,,サクラホーム,0
2043,9030003021222,新規,0,2023-02-22,2023-02-22,合同会社ＪＬマネジメント,,合同会社,埼玉県,川越市,今成２丁目１番地２３,,11,201,3501105,,,,,,,2023-02-22,1,,,,,ジェーエルマネジメント,0
2044,9030003021230,新規,0,2023-02-22,2023-02-22,唯正商事合同会社,,合同会社,埼玉県,坂戸市,千代田４丁目６番２６号,,11,239,3500214,,,,,,,2023-02-22,1,,,,,イセイショウジ,0
2045,9030003021239,新規,0,2023-02-22,2023-02-22,合同会社オーシャン,,合同会社,埼玉県,川口市,西川口５丁目１番地２８号ベアパレス１０２,,11,203,3320021,,,,,,,2023-02-22,1,,,,,オーシャン,0
2052,9040003022013,新規,0,2023-02-22,2023-02-22,合同会社ＫＺＭ,,合同会社,千葉県,八千代市,勝田台２丁目１６番５－４棟３０３号,,12,221,2760023,,,,,,,2023-02-22,1,,,,,ケーゼットエム,0
2057,9050001052432,新規,0,2023-02-22,2023-02-22,株式会社Ｈ．Ａ．Ｃ,,株式会社,茨城県,古河市,仁連２０２９－１３,,08,204,3060125,,,,,,,2023-02-22,1,,,,,エイチエーシー,0
2063,9070001040146,新規,0,2023-02-22,2023-02-22,株式会社ＧＭ　Ｗｏｒｔｈ,,株式会社,群馬県,伊勢崎市,赤堀今井町２丁目１２４１－２５メイプルウエストタウンＡ,,10,204,3792215,,,,,,,2023-02-22,1,,,,,ジーエムワース,0
2064,9070001040154,新規,0,2023-02-22,2023-02-22,Ｔ・Ｍ・Ｓ株式会社,,株式会社,群馬県,前橋市,上新田町９７７番地１,,10,201,3710821,,,,,,,2023-02-22,1,,,,,ティーエムエス,0
2066,9070003004834,新規,0,2023-02-22,2023-02-22,ＢＵＴＴ　ＢＲＯＴＨＥＲ合同会社,,合同会社,群馬県,前橋市,野中町４３６－３,,10,201,3792166,,,,,,,2023-02-22,1,,,,,バットブラザーズ,0
2070,9080103002753,新規,0,2023-02-22,2023-02-22,ＢＯＸ合同会社,,合同会社,静岡県,三島市,平田１２２番地の１,,22,206,4110821,,,,,,,2023-02-22,1,,,,,ボックス,0
2079,9120001252652,新規,0,2023-02-22,2023-02-22,株式会社エターナルライフ,,株式会社,大阪府,大阪市北区,梅田１丁目２番２－２００号大阪駅前２ビル２階３－１－２,,27,127,5300001,,,,,,,2023-02-22,1,,,,,エターナルライフ,0
2080,9120001252669,新規,0,2023-02-22,2023-02-22,知蕾株式会社,,株式会社,大阪府,大阪市浪速区,日本橋東３丁目１５番３－４０２号,,27,111,5560006,,,,,,,2023-02-22,1,,,,,チライ,0
2081,9120001252677,新規,0,2023-02-22,2023-02-22,長春藤株式会社,,株式会社,大阪府,大阪市淀川区,西中島２丁目１２番８号ライオンズマンション新大阪第３・１５１８号室,,27,123,5320011,,,,,,,2023-02-22,1,,,,,チョウシュントウ,0
2089,9120901047169,新規,0,2023-02-22,2023-02-22,株式会社三誠,,株式会社,大阪府,摂津市,鳥飼本町３丁目８番３１号,,27,224,5660052,,,,,,,2023-02-22,1,,,,,サンセイ,0
2091,9130001073354,新規,0,2023-02-22,2023-02-22,株式会社Ａｎｙ　Ｓｐａｃｅ,,株式会社,京都府,京都市下京区,朱雀宝蔵町４４番地協栄ビル２階和文化推進協会内,,26,106,6008846,,,,,,,2023-02-22,1,,,,,エニースペース,0
2095,9140001129213,新規,0,2023-02-22,2023-02-22,株式会社あんじん,,株式会社,兵庫県,西宮市,上ケ原八番町１３番３３号,,28,204,6620882,,,,,,,2023-02-22,1,,,,,アンジン,0
2099,9140003018744,新規,0,2023-02-22,2023-02-22,合同会社アーティファクト,,合同会社,兵庫県,神戸市中央区,港島中町２丁目５－１ビレッジハウス港島タワー８０９号,,28,110,6500046,,,,,,,2023-02-22,1,,,,,アーティファクト,0
2103,9160003002804,新規,0,2023-02-22,2023-02-22,合同会社ＫＯＩ,,合同会社,滋賀県,守山市,中町２２３番地８グリーンフォレスト２０３,,25,207,5240003,,,,,,,2023-02-22,1,,,,,ケーオーアイ,0
2114,9180001155073,新規,0,2023-02-22,2023-02-22,株式会社ＯｎｅｎｅｓｓＡｒｔ,,株式会社,愛知県,名古屋市中区,上前津２丁目９番１６号ビラ三秀６０１号室,,23,106,4600013,,,,,,,2023-02-22,1,,,,,ワンネスアート,0
2115,9180003024870,新規,0,2023-02-22,2023-02-22,合同会社ＦＡＮＴＨＥＭ,,合同会社,愛知県,名古屋市中村区,名駅４丁目２４番５号第２森ビル４０１,,23,105,4500002,,,,,,,2023-02-22,1,,,,,ファンセム,0
2123,9180301037120,新規,0,2023-02-22,2023-02-22,株式会社ＶＡＬＥＫ,,株式会社,愛知県,豊田市,花園町五反田２６番地３,,23,211,4730924,,,,,,,2023-02-22,1,,,,,バレック,0
2125,9180305009446,新規,0,2023-02-22,2023-02-22,社会福祉法人メンタルネット,,その他の設立登記法人,愛知県,豊川市,諏訪２丁目２４０番地,,23,207,4420068,,,,,,,2023-02-22,1,,,,,メンタルネット,0
2126,9190003004244,新規,0,2023-02-22,2023-02-22,関精密合同会社,,合同会社,三重県,鈴鹿市,三日市南１丁目５番７号,,24,207,5130804,,,,,,,2023-02-22,1,,,,,セキセイミツ,0
2137,9250001019972,新規,0,2023-02-22,2023-02-22,株式会社アシスト,,株式会社,山口県,岩国市,多田２丁目１０５番地１１,,35,208,7410092,,,,,,,2023-02-22,1,,,,,アシスト,0
2149,9290001100638,新規,0,2023-02-22,2023-02-22,吉星株式会社,,株式会社,福岡県,福岡市中央区,白金１丁目１７番１８号,,40,133,8100012,,,,,,,2023-02-22,1,,,,,ヨシボシヨシ,0
2153,9330001030608,新規,0,2023-02-22,2023-02-22,株式会社セイホーム,,株式会社,熊本県,熊本市西区,島崎７丁目２９番６号,,43,103,8600073,,,,,,,2023-02-22,1,,,,,セイホーム,0
2154,9330001030616,新規,0,2023-02-22,2023-02-22,株式会社大嶌屋システムズ,,株式会社,熊本県,宇城市,松橋町古保山２７１５番地１９,,43,213,8690512,,,,,,,2023-02-22,1,,,,,オオシマヤシステムズ,0
2163,9350001018196,新規,0,2023-02-22,2023-02-22,株式会社ｊｏｓｅｅ,,株式会社,宮崎県,宮崎市,恒久２丁目４番地３,,45,201,8800913,,,,,,,2023-02-22,1,,,,,ジョゼ,0
2164,9360003012741,新規,0,2023-02-22,2023-02-22,Ｈ・Ｍ企画合同会社,,合同会社,沖縄県,浦添市,勢理客１丁目１６番１０号,,47,208,9012122,,,,,,,2023-02-22,1,,,,,エイチエムキカク,0
2166,9370001049628,新規,0,2023-02-22,2023-02-22,株式会社シルクウォッチ,,株式会社,宮城県,岩沼市,桜５丁目９番４８号,,04,211,9892433,,,,,,,2023-02-22,1,,,,,シルクウォッチ,0
2180,9420005007840,新規,0,2023-02-22,2023-02-22,モリヤマ・ジョンダ協同組合,,その他の設立登記法人,青森県,青森市,新田３丁目１１番１号,,02,201,0380001,,,,,,,2023-02-22,1,,,,,モリヤマジョンダ,0
2182,9430001088479,新規,0,2023-02-22,2023-02-22,株式会社山崎不動産,,株式会社,北海道,札幌市西区,発寒五条５丁目１番２３号,,01,107,0630825,,,,,,,2023-02-22,1,,,,,ヤマザキフドウサン,0
2184,9430003014755,新規,0,2023-02-22,2023-02-22,合同会社ＴＴソーシャルワーク・オフィス,,合同会社,北海道,札幌市厚別区,大谷地西４丁目５番２７号,,01,108,0040042,,,,,,,2023-02-22,1,,,,,ティーティーソーシャルワークオフィス,0
2196,9700150114454,新規,0,2023-02-22,2023-02-22,ＢＹＴＥＤＡＮＣＥ　ＰＴＥ．ＬＴＤ．,,外国会社等,,,,,,,,１　ＲＡＦＦＬＥＳ　ＱＵＡＹ　＃２６－１０　ＳＩＮＧＡＰＯＲＥ（０４８５８３）,,,,,,2023-02-22,1,,,,,バイトダンスピーテイーイーエルテイーデイー,0
