sequenceNumber,corporateNumber,process,correct,updateDate,changeDate,name,nameImageId,kind,prefectureName,cityName,streetNumber,addressImageId,prefectureCode,cityCode,postCode,addressOutside,addressOutsideImageId,closeDate,closeCause,successorCorporateNumber,changeCause,assignmentDate,latest,enName,enPrefectureName,enCityName,enAddressOutside,furigana,hihyoji
14,1010001243901,新規,0,2024-04-10,2024-04-10,広尾パートナーズ株式会社,,株式会社,東京都,中央区,京橋１丁目７番１号,,13,102,1040031,,,,,,,2024-04-10,1,,,,,ヒロオパートナーズ,0
16,1010003043424,新規,0,2024-04-10,2024-04-10,大阪なんば南ホテル合同会社,,合同会社,東京都,中央区,銀座２丁目１０番８号マニエラ銀座ビル４階,,13,102,1040061,,,,,,,2024-04-10,1,,,,,オオサカナンバミナミホテル,0
19,1010105002253,新規,0,2024-04-10,2024-04-10,一般社団法人東京国際武術交流協会,,その他の設立登記法人,東京都,八王子市,鑓水２丁目１０１番地５２,,13,201,1920375,,,,,,,2024-04-10,1,,,,,トウキョウコクサイブジュツコウリュウキョウカイ,0
26,1010401181536,新規,0,2024-04-10,2024-04-10,エムスリーテクノロジーズ株式会社,,株式会社,東京都,港区,赤坂１丁目１１番４４号,,13,103,1070052,,,,,,,2024-04-10,1,,,,,エムスリーテクノロジーズ,0
27,1010401181560,新規,0,2024-04-10,2024-04-10,株式会社地球中心デザイン研究所,,株式会社,東京都,港区,芝浦１丁目１３番１０号,,13,103,1050023,,,,,,,2024-04-10,1,,,,,チキュウチュウシンデザインケンキュウジョ,0
28,1010401181775,新規,0,2024-04-10,2024-04-10,株式会社ＡＦＴＥＲ‐Ｃ,,株式会社,東京都,港区,南青山３丁目１番３６号青山丸竹ビル６Ｆ,,13,103,1070062,,,,,,,2024-04-10,1,,,,,アフターシー,0
30,1010405023123,新規,0,2024-04-10,2024-04-10,クリアワン社会保険労務士法人,,その他の設立登記法人,東京都,港区,新橋３丁目３番１４号田村町ビル９階,,13,103,1050004,,,,,,,2024-04-10,1,,,,,クリアワン,0
37,1010701045787,新規,0,2024-04-10,2024-04-10,株式会社サン・フレイルラボラトリ,,株式会社,東京都,品川区,大井１丁目４７番１号,,13,109,1400014,,,,,,,2024-04-10,1,,,,,サンフレイルラボラトリ,0
38,1010701045812,新規,0,2024-04-10,2024-04-10,アトムロック株式会社,,株式会社,東京都,品川区,大崎１丁目１４番３号ゲートシティ大崎サウスパークタワー６０１,,13,109,1410032,,,,,,,2024-04-10,1,,,,,アトムロック,0
42,1010803004906,新規,0,2024-04-10,2024-04-10,合同会社架け橋,,合同会社,東京都,大田区,南雪谷３丁目２番１５号南雪谷ハイツ３０１,,13,111,1450066,,,,,,,2024-04-10,1,,,,,カケハシ,0
49,1011001161069,新規,0,2024-04-10,2024-04-10,株式会社サイバースター,,株式会社,東京都,渋谷区,恵比寿４丁目２０番３号恵比寿ガーデンプレイスタワー,,13,113,1500013,,,,,,,2024-04-10,1,,,,,サイバースター,0
50,1011001161184,新規,0,2024-04-10,2024-04-10,Ｍ＆Ａ　Ｓｔｒａｔｅｇｙ株式会社,,株式会社,東京都,渋谷区,渋谷２丁目１９－１５宮益坂ビルディング６０９,,13,113,1500002,,,,,,,2024-04-10,1,,,,,エムアンドエーストラテジー,0
51,1011001161300,新規,0,2024-04-10,2024-04-10,株式会社Ｄｉｐｌｅｍｅｎｔ,,株式会社,東京都,渋谷区,円山町５番５号Ｎａｖｉ渋谷Ｖ３階,00134361,13,113,1500044,,,,,,,2024-04-10,1,,,,,ディプリメント,0
52,1011003018878,新規,0,2024-04-10,2024-04-10,合同会社エフ,,合同会社,東京都,渋谷区,東３丁目９番１３ー４０６号,,13,113,1500011,,,,,,,2024-04-10,1,,,,,エフ,0
54,1011005010461,新規,0,2024-04-10,2024-04-10,医療法人社団春江会,,その他の設立登記法人,東京都,渋谷区,西原３丁目３２番６号,,13,113,1510066,,,,,,,2024-04-10,1,,,,,ハルエカイ,0
59,1011105010997,新規,0,2024-04-10,2024-04-10,一般社団法人稲門アルティメット会,,その他の設立登記法人,東京都,新宿区,戸山１丁目２４－１早稲田大学学生会館Ｅ９２５号室,,13,104,1620052,,,,,,,2024-04-10,1,,,,,トウモンアルティメットカイ,0
70,1011701027172,新規,0,2024-04-10,2024-04-10,リソースプロテクション株式会社,,株式会社,東京都,江戸川区,瑞江１丁目７番８号,,13,123,1320011,,,,,,,2024-04-10,1,,,,,リソースプロテクション,0
71,1011801044019,新規,0,2024-04-10,2024-04-10,株式会社蜂盛貴,,株式会社,東京都,足立区,西新井本町２丁目１４番１３－７０３号,,13,121,1230845,,,,,,,2024-04-10,1,,,,,ホウセイキ,0
75,1012403006506,新規,0,2024-04-10,2024-04-10,Ｏｒａｃｉｏｎ合同会社,,合同会社,東京都,調布市,上石原３丁目１５番地１,,13,208,1820035,,,,,,,2024-04-10,1,,,,,オラシオン,0
79,1013301052328,新規,0,2024-04-10,2024-04-10,株式会社サブライムパートナーズ,,株式会社,東京都,豊島区,南長崎６丁目９番１１－３０１号,,13,116,1710052,,,,,,,2024-04-10,1,,,,,サブライムパートナーズ,0
86,1020001156656,新規,0,2024-04-10,2024-04-10,株式会社穂高住設,,株式会社,神奈川県,横浜市泉区,和泉中央南１丁目３０番８２,,14,116,2450023,,,,,,,2024-04-10,1,,,,,ホタカジュウセツ,0
89,1020003025834,新規,0,2024-04-10,2024-04-10,合同会社石川事務所,,合同会社,神奈川県,横浜市鶴見区,岸谷３丁目３３番１―６０７号,,14,101,2300078,,,,,,,2024-04-10,1,,,,,イシカワジムショ,0
99,1030001159708,新規,0,2024-04-10,2024-04-10,オプティカル通信株式会社,,株式会社,埼玉県,さいたま市南区,鹿手袋４丁目２６番２８－１０５号,,11,108,3360031,,,,,,,2024-04-10,1,,,,,オプティカルツウシン,0
103,1030003024042,新規,0,2024-04-10,2024-04-10,合同会社ＳＯＲＡ,,合同会社,埼玉県,さいたま市北区,宮原町１丁目１７５番地１（１４０２号）,,11,102,3310812,,,,,,,2024-04-10,1,,,,,ソラ,0
121,1060001036994,新規,0,2024-04-10,2024-04-10,ＲＯＹＡＬ　ＩＮＴＥＲＮＡＴＩＯＮＡＬ株式会社,,株式会社,栃木県,栃木市,岩舟町新里１３０３番地２－２８号室,,09,203,3294316,,,,,,,2024-04-10,1,,,,,ロイヤルインターナショナル,0
122,1060003005023,新規,0,2024-04-10,2024-04-10,Ｎａｖｅｅｄ　Ｔｒａｄｉｎｇ合同会社,,合同会社,栃木県,佐野市,栃本町２０２６番地１,,09,204,3270312,,,,,,,2024-04-10,1,,,,,ナヴィードトレーディング,0
123,1070001041614,新規,0,2024-04-10,2024-04-10,株式会社前橋塗装工業,,株式会社,群馬県,前橋市,朝倉町３５５番地２,,10,201,3710811,,,,,,,2024-04-10,1,,,,,マエバシトソウコウギョウ,0
134,1080103003032,新規,0,2024-04-10,2024-04-10,晨星合同会社,,合同会社,静岡県,御殿場市,東田中８７８－１２セフェラ御殿場Ａ１０５,,22,215,4120026,,,,,,,2024-04-10,1,,,,,シンセイ,0
136,1090005007626,新規,0,2024-04-10,2024-04-10,たばやま複業協同組合,,その他の設立登記法人,山梨県,北都留郡丹波山村,８９２番地,,19,443,4090300,,,,,,,2024-04-10,1,,,,,タバヤマフクギョウ,0
137,1100001037344,新規,0,2024-04-10,2024-04-10,株式会社和魂,,株式会社,長野県,佐久市,塩名田４９３番地４７,,20,217,3842102,,,,,,,2024-04-10,1,,,,,ニキタマ,0
144,1120001263913,新規,0,2024-04-10,2024-04-10,振陽株式会社,,株式会社,大阪府,大阪市住吉区,上住吉２丁目１５番１８－１０８号,,27,120,5580046,,,,,,,2024-04-10,1,,,,,シンヨウ,0
145,1120001263921,新規,0,2024-04-10,2024-04-10,クラフトマンシップ株式会社,,株式会社,大阪府,枚方市,東香里２丁目２１番１６号,,27,210,5730075,,,,,,,2024-04-10,1,,,,,クラフトマンシップ,0
146,1120001263954,新規,0,2024-04-10,2024-04-10,株式会社ＮＡＲＵ,,株式会社,大阪府,大阪市中央区,瓦屋町３丁目７番２０－９０３号,,27,128,5420066,,,,,,,2024-04-10,1,,,,,ナル,0
155,1120003026310,新規,0,2024-04-10,2024-04-10,合同会社ＳＫコンサル,,合同会社,大阪府,大阪市北区,野崎町６番８号トレックノース梅田ビル１２０２号室,,27,127,5300055,,,,,,,2024-04-10,1,,,,,エスケイコンサル,0
156,1120003026327,新規,0,2024-04-10,2024-04-10,合同会社Ａｎｄｌｅｓｓ,,合同会社,大阪府,枚方市,牧野阪３丁目１９番１１－２３号,,27,210,5731146,,,,,,,2024-04-10,1,,,,,アンドレス,0
157,1120003026335,新規,0,2024-04-10,2024-04-10,合同会社ｏｎ,,合同会社,大阪府,大阪市淀川区,塚本２丁目８番１４号創建塚本ビル４０１,,27,123,5320026,,,,,,,2024-04-10,1,,,,,オン,0
161,1120101069392,新規,0,2024-04-10,2024-04-10,株式会社ＧＲＥＥＮ．ＣＯＭ,,株式会社,大阪府,堺市東区,日置荘西町７丁７－１－１０２,,27,143,5998114,,,,,,,2024-04-10,1,,,,,グリーンドットコム,0
165,1120901049008,新規,0,2024-04-10,2024-04-10,株式会社ＮＵＥ,,株式会社,大阪府,高槻市,安満新町５番２号,,27,207,5691106,,,,,,,2024-04-10,1,,,,,ヌー,0
166,1120901049016,新規,0,2024-04-10,2024-04-10,株式会社リョーエン,,株式会社,大阪府,豊中市,千里園１丁目１０番１７号,,27,203,5600046,,,,,,,2024-04-10,1,,,,,リョーエン,0
170,1122005003741,新規,0,2024-04-10,2024-04-10,ＮＰＯ法人よりはうす,,その他の設立登記法人,大阪府,東大阪市,西堤本通東１丁目２番２２号,,27,227,5770045,,,,,,,2024-04-10,1,,,,,ヨリハウス,0
173,1130001076752,新規,0,2024-04-10,2024-04-10,新生興産株式会社,,株式会社,京都府,京都市下京区,北小路通油小路東入文覚町３６９番地,,26,106,6008222,,,,,,,2024-04-10,1,,,,,シンセイコウサン,0
174,1130001076785,新規,0,2024-04-10,2024-04-10,ムジークフェライン株式会社,,株式会社,京都府,京都市左京区,松ケ崎三反長町４番地の８,,26,103,6060916,,,,,,,2024-04-10,1,,,,,ムジークフェライン,0
176,1130005017067,新規,0,2024-04-10,2024-04-10,医療法人平安会,,その他の設立登記法人,京都府,京都市右京区,谷口唐田ノ内町１８番地４,,26,108,6168013,,,,,,,2024-04-10,1,,,,,ヘイアンカイ,0
178,1140001134006,新規,0,2024-04-10,2024-04-10,羽山株式会社,,株式会社,兵庫県,神戸市灘区,水道筋１丁目１９番４号,,28,102,6570831,,,,,,,2024-04-10,1,,,,,ハネヤマ,0
189,1150001027209,新規,0,2024-04-10,2024-04-10,株式会社アンカー,,株式会社,奈良県,生駒郡平群町,大字椣原５２４番地の３７,,29,342,6360901,,,,,,,2024-04-10,1,,,,,アンカー,0
192,1160005011298,新規,0,2024-04-10,2024-04-10,特定非営利活動法人まるよし,,その他の設立登記法人,滋賀県,近江八幡市,円山町７４６,,25,204,5230805,,,,,,,2024-04-10,1,,,,,マルヨシ,0
193,1170003002018,新規,0,2024-04-10,2024-04-10,山芝たけのこ合同会社,,合同会社,和歌山県,海草郡紀美野町,動木５４３番地,,30,304,6401131,,,,,,,2024-04-10,1,,,,,ヤマシバタケノコ,0
196,1180001160832,新規,0,2024-04-10,2024-04-10,株式会社Ａ．Ｃ,,株式会社,愛知県,名古屋市千種区,神田町１９番１２号,,23,101,4640077,,,,,,,2024-04-10,1,,,,,エーシー,0
197,1180001160997,新規,0,2024-04-10,2024-04-10,株式会社１００ＣＯＳＭＥ,,株式会社,愛知県,名古屋市緑区,鎌倉台２丁目１５２２,,23,114,4580829,,,,,,,2024-04-10,1,,,,,ワンハンドレッドコスメ,0
202,1180003026602,新規,0,2024-04-10,2024-04-10,合同会社ＭＵＡＮＮＯＡ,,合同会社,愛知県,名古屋市中村区,名駅４丁目２４番５号第２森ビル４００,,23,105,4500002,,,,,,,2024-04-10,1,,,,,ムアンノア,0
203,1180003026627,新規,0,2024-04-10,2024-04-10,合同会社ＹＲＺ,,合同会社,愛知県,名古屋市中川区,富田町千音寺字供木４４３２番地クレアメゾン１－２０２,,23,110,4540000,,,,,,,2024-04-10,1,,,,,ワイアールゼット,0
205,1180301038514,新規,0,2024-04-10,2024-04-10,株式会社あいダイニング,,株式会社,愛知県,豊橋市,北島町字北島２４１番地の１３（６０１）,,23,201,4400071,,,,,,,2024-04-10,1,,,,,アイダイニング,0
206,1190001031256,新規,0,2024-04-10,2024-04-10,株式会社ＳＤＦ,,株式会社,三重県,志摩市,大王町船越２６３０番地５,,24,215,5170604,,,,,,,2024-04-10,1,,,,,エスディエフ,0
208,1200001042391,新規,0,2024-04-10,2024-04-10,株式会社ＩＣＨＩＲＵホールディングス,,株式会社,岐阜県,岐阜市,東明見町１８番地,,21,201,5008436,,,,,,,2024-04-10,1,,,,,イチルホールディングス,0
217,1240001063070,新規,0,2024-04-10,2024-04-10,株式会社地頭建設,,株式会社,広島県,広島市安佐北区,可部町大字勝木１２８８番地１９７,,34,106,7310235,,,,,,,2024-04-10,1,,,,,ジトウケンセツ,0
225,1290001105297,新規,0,2024-04-10,2024-04-10,クラブタワー株式会社,,株式会社,福岡県,福岡市博多区,中洲４丁目１番３０号キャナリーワン２Ｆ,,40,132,8100801,,,,,,,2024-04-10,1,,,,,クラブタワー,0
226,1290001105339,新規,0,2024-04-10,2024-04-10,株式会社Ｑｕａｌｉｔｙ,,株式会社,福岡県,福岡市博多区,半道橋１丁目１１番１６号,,40,132,8120897,,,,,,,2024-04-10,1,,,,,クオリティ,0
227,1290001105363,新規,0,2024-04-10,2024-04-10,世海株式会社,,株式会社,福岡県,福岡市南区,野間３丁目２－１第一福徳ビル３０１号,,40,134,8150041,,,,,,,2024-04-10,1,,,,,セイカイ,0
229,1290005019361,新規,0,2024-04-10,2024-04-10,一般社団法人九大空手道部支援会,,その他の設立登記法人,福岡県,福岡市西区,西都２丁目１５－１５－５０１,,40,135,8190367,,,,,,,2024-04-10,1,,,,,,0
233,1300003002103,新規,0,2024-04-10,2024-04-10,合同会社おひさま,,合同会社,佐賀県,佐賀市,大和町大字久池井８６０－１,,41,201,8400202,,,,,,,2024-04-10,1,,,,,オヒサマ,0
240,1320001020402,新規,0,2024-04-10,2024-04-10,株式会社つむぎ,,株式会社,大分県,大分市,府内町１丁目２番６号府内壱番館ビル２階,,44,201,8700021,,,,,,,2024-04-10,1,,,,,,0
241,1320001020410,新規,0,2024-04-10,2024-04-10,株式会社２ｎｄ　Ｓｔａｇｅ,,株式会社,大分県,別府市,大字鶴見５２番地の３,,44,202,8740840,,,,,,,2024-04-10,1,,,,,セカンドステイジ,0
247,1340001026439,新規,0,2024-04-10,2024-04-10,株式会社ＵＮＩＳ,,株式会社,鹿児島県,鹿屋市,古前城町２－２０Ｂｉｏｒｌａ　Ｍ２０１,,46,203,8930001,,,,,,,2024-04-10,1,,,,,ユニズ,0
262,1380001034438,新規,0,2024-04-10,2024-04-10,優愛工業株式会社,,株式会社,福島県,大沼郡会津美里町,字油田１５７８番地１,,07,447,9696266,,,,,,,2024-04-10,1,,,,,ユウアコウギョウ,0
268,1420001018683,新規,0,2024-04-10,2024-04-10,株式会社Ｆｕｎａｇｅ,,株式会社,青森県,八戸市,大字売市字右水門下５番地５,,02,203,0310073,,,,,,,2024-04-10,1,,,,,ファナージ,0
271,1430001091564,新規,0,2024-04-10,2024-04-10,株式会社ジェイライブ,,株式会社,北海道,札幌市南区,藤野三条１１丁目１０番３２号ジェイライブビル,,01,106,0612283,,,,,,,2024-04-10,1,,,,,ジェイライブ,0
274,1450001014275,新規,0,2024-04-10,2024-04-10,株式会社ＡＰＬＳ　ＢＬＤ,,株式会社,北海道,旭川市,流通団地一条１丁目３７番地の１０,,01,204,0798441,,,,,,,2024-04-10,1,,,,,,0
284,1700150124790,新規,0,2024-04-10,2024-04-10,ｓｈｅｎｚｈｅｎｓｈｉｃｈｕｙｉｋｅｊｉｙｏｕｘｉａｎｇｏｎｇｓｉ,,外国会社等,,,,,,,,Ｒｏｏｍ　１６－３１，Ｍｉｎｌｅ　Ｉｎｄｕｓｔｒｉａｌ　Ｐａｒｋ，Ｂｕｉｌｄｉｎｇ　１６，Ｍｉｎｌｅ　Ｉｎｄｕｓｔｒｉａｌ　Ｐａｒｋ，Ｍｉｎｌｅ　Ｃｏｍｍｕｎｉｔｙ，Ｍｉｎｚｈｉ　Ｓｔｒｅｅｔ，Ｌｏｎｇｈｕａ　Ｄｉｓｔｒｉｃｔ，Ｓｈｅｎｚｈｅｎ　Ｃｉｔｙ,,,,,,2024-04-10,1,,,,,シンセンシショイチカギユウゲンコウシ,0
298,2010401181535,新規,0,2024-04-10,2024-04-10,エムスリーリアルエステート株式会社,,株式会社,東京都,港区,赤坂１丁目１１番４４号,,13,103,1070052,,,,,,,2024-04-10,1,,,,,エムスリーリアルエステート,0
299,2010401181576,新規,0,2024-04-10,2024-04-10,ＳＢＩデジタルファイナンス株式会社,,株式会社,東京都,港区,六本木１丁目６番１号,,13,103,1060032,,,,,,,2024-04-10,1,,,,,エスビーアイデジタルファイナンス,0
300,2010401181618,新規,0,2024-04-10,2024-04-10,株式会社Ｗａｔａｂｅ＆Ｍｉｚｕｎｏ．ｃｏ,,株式会社,東京都,港区,西麻布４丁目１４番１７号,,13,103,1060031,,,,,,,2024-04-10,1,,,,,ワタベアンドミズノカンパニー,0
301,2010401181634,新規,0,2024-04-10,2024-04-10,株式会社Ｎｅｘｔ　Ｋｎｏｗｌｅｄｇｅ　Ｃｏｎｓｕｌｔｉｎｇ,,株式会社,東京都,港区,北青山１丁目３番１号アールキューブ青山３階,,13,103,1070061,,,,,,,2024-04-10,1,,,,,ネクストナレッジコンサルティング,0
302,2010401181642,新規,0,2024-04-10,2024-04-10,株式会社ランドディレクション,,株式会社,東京都,港区,芝浦３丁目１２番１７号グローブビル３Ｆ,,13,103,1080023,,,,,,,2024-04-10,1,,,,,ランドディレクション,0
303,2010401181650,新規,0,2024-04-10,2024-04-10,株式会社ＣＨＴ,,株式会社,東京都,港区,浜松町２丁目２番１５号浜松町ダイヤビル２Ｆ,,13,103,1050013,,,,,,,2024-04-10,1,,,,,シーエイチティー,0
304,2010401181766,新規,0,2024-04-10,2024-04-10,株式会社ティナ,,株式会社,東京都,港区,六本木５丁目１２番７－３０２号,,13,103,1060032,,,,,,,2024-04-10,1,,,,,ティナ,0
305,2010401181774,新規,0,2024-04-10,2024-04-10,Ｎａｒｒｏ株式会社,,株式会社,東京都,港区,浜松町２丁目２番１５号浜松町ダイヤビル２Ｆ,,13,103,1050013,,,,,,,2024-04-10,1,,,,,ナロ,0
306,2010405023122,新規,0,2024-04-10,2024-04-10,一般社団法人世界連邦運動協会,,その他の設立登記法人,東京都,港区,西新橋２丁目１５番１７号リッツ虎ノ門４Ｆ－ＢＣ,,13,103,1050003,,,,,,,2024-04-10,1,,,,,セカイレンポウウンドウキョウカイ,0
307,2010501052041,新規,0,2024-04-10,2024-04-10,群青立行株式会社,,株式会社,東京都,台東区,上野１丁目２番９号４Ｆ,,13,106,1100005,,,,,,,2024-04-10,1,,,,,グンジョウリッコウ,0
309,2010601064985,新規,0,2024-04-10,2024-04-10,近江商人株式会社,,株式会社,東京都,墨田区,緑１丁目２８－４ニュー両国ハイツ３０３号室,,13,107,1300021,,,,,,,2024-04-10,1,,,,,オウミショウニン,0
312,2010703007132,新規,0,2024-04-10,2024-04-10,ＦＹＯＳ合同会社,,合同会社,東京都,品川区,東大井５丁目８番１０号パレス・ぼだい樹５０３,,13,109,1400011,,,,,,,2024-04-10,1,,,,,フィオス,0
315,2010801034945,新規,0,2024-04-10,2024-04-10,株式会社スマイルライフ,,株式会社,東京都,大田区,上池台１丁目２０番２３号第八岡崎ビル２Ｆ,,13,111,1450064,,,,,,,2024-04-10,1,,,,,スマイルライフ,0
319,2011001160986,新規,0,2024-04-10,2024-04-10,Ｃｈａｒｍａｐ株式会社,,株式会社,東京都,渋谷区,円山町５番５号Ｎａｖｉ渋谷Ｖ３階,,13,113,1500044,,,,,,,2024-04-10,1,,,,,チャマップ,0
320,2011001161159,新規,0,2024-04-10,2024-04-10,株式会社ｐｒｏｎｏｕｎ,,株式会社,東京都,渋谷区,恵比寿西２丁目４番８号ウィンド恵比寿ビル８Ｆ,,13,113,1500021,,,,,,,2024-04-10,1,,,,,プロナウン,0
321,2011001161175,新規,0,2024-04-10,2024-04-10,株式会社Ｇ‐ＺＯＵ,,株式会社,東京都,渋谷区,渋谷２丁目１９番１５号宮益坂ビルディング６０９,,13,113,1500002,,,,,,,2024-04-10,1,,,,,ジーゾウ,0
325,2011003018877,新規,0,2024-04-10,2024-04-10,ＴＯＲＡＭＩ　ＧＲＯＵＰ合同会社,,合同会社,東京都,渋谷区,富ヶ谷１丁目１８番３号サンライズ富ヶ谷２０６号室,,13,113,1510063,,,,,,,2024-04-10,1,,,,,トラミグループ,0
326,2011003018910,新規,0,2024-04-10,2024-04-10,ＲｅＬＯＡＤ合同会社,,合同会社,東京都,渋谷区,渋谷２丁目１９－１５宮益坂ビルディング６０９,,13,113,1500002,,,,,,,2024-04-10,1,,,,,リロード,0
327,2011005010469,新規,0,2024-04-10,2024-04-10,一般社団法人関東学生陸上競技連盟,,その他の設立登記法人,東京都,渋谷区,千駄ヶ谷１丁目２９番９号,,13,113,1510051,,,,,,,2024-04-10,1,,,,,カントウガクセイリクジョウキョウギレンメイ,0
328,2011101106897,新規,0,2024-04-10,2024-04-10,株式会社プロパティフォース,,株式会社,東京都,新宿区,北新宿４丁目４番２号大内ビル４０３,,13,104,1690074,,,,,,,2024-04-10,1,,,,,プロパティフォース,0
331,2011401025979,新規,0,2024-04-10,2024-04-10,株式会社アキ・トップス,,株式会社,東京都,板橋区,三園１丁目１８番２号,,13,119,1750091,,,,,,,2024-04-10,1,,,,,アキトップス,0
335,2011805003358,新規,0,2024-04-10,2024-04-10,一般社団法人Ｔｈｅａｔｒｅ　Ｏｆ　Ｓｐｏｒｔ,,その他の設立登記法人,東京都,足立区,梅島１丁目１５番１３号,,13,121,1210816,,,,,,,2024-04-10,1,,,,,シアターオブスポーツ,0
342,2013301052327,新規,0,2024-04-10,2024-04-10,ボール株式会社,,株式会社,東京都,豊島区,池袋２丁目３６番１号,,13,116,1710014,,,,,,,2024-04-10,1,,,,,ボール,0
350,2020003025908,新規,0,2024-04-10,2024-04-10,玄エステート合同会社,,合同会社,神奈川県,川崎市麻生区,千代ケ丘５丁目９番地１１新百合ヶ丘ガーデンハイツ３０３,,14,137,2150005,,,,,,,2024-04-10,1,,,,,ゲンエステート,0
360,2030003024025,新規,0,2024-04-10,2024-04-10,Ｓａｖａｎｎａｈ合同会社,,合同会社,埼玉県,草加市,中根２丁目１１－４０,,11,221,3400005,,,,,,,2024-04-10,1,,,,,サバンナ,0
361,2030003024058,新規,0,2024-04-10,2024-04-10,合同会社ＳｍａｒｔＷｏｒｋｓ,,合同会社,埼玉県,北葛飾郡松伏町,大字金杉５６３―９,,11,465,3430103,,,,,,,2024-04-10,1,,,,,スマートワークス,0
369,2040001133041,新規,0,2024-04-10,2024-04-10,株式会社エム・ケイルーフ,,株式会社,千葉県,流山市,駒木４９５番地５,,12,220,2700132,,,,,,,2024-04-10,1,,,,,エムケイルーフ,0
373,2040003024734,新規,0,2024-04-10,2024-04-10,合同会社Ｗｏｒｋｓｈｏｐ,,合同会社,千葉県,船橋市,前貝塚町５８８－１アンビシャスヒル船橋１０１,,12,204,2730042,,,,,,,2024-04-10,1,,,,,ワークショップ,0
378,2050003008273,新規,0,2024-04-10,2024-04-10,合同会社花木之城,,合同会社,茨城県,小美玉市,小岩戸９２０番地,,08,236,3190107,,,,,,,2024-04-10,1,,,,,カボクノシロ,0
380,2060001036993,新規,0,2024-04-10,2024-04-10,株式会社クリアコンサルティング,,株式会社,栃木県,那須塩原市,鍋掛８５番地,,09,213,3250013,,,,,,,2024-04-10,1,,,,,クリアコンサルティング,0
381,2060003005022,新規,0,2024-04-10,2024-04-10,合同会社ＭＴ,,合同会社,栃木県,足利市,福居町９２３番地１エミネンスＢ１０２,,09,202,3260338,,,,,,,2024-04-10,1,,,,,エムティー,0
382,2070001041613,新規,0,2024-04-10,2024-04-10,ライフイズ株式会社,,株式会社,群馬県,伊勢崎市,平和町１４－５１,,10,204,3720041,,,,,,,2024-04-10,1,,,,,ライフイズ,0
387,2090001018642,新規,0,2024-04-10,2024-04-10,株式会社Ｒｅｒｅｉｎ,,株式会社,山梨県,南アルプス市,寺部９８７番地８,,19,208,4000337,,,,,,,2024-04-10,1,,,,,リライン,0
389,2100005013159,新規,0,2024-04-10,2024-04-10,学校法人信州豊南学園,,その他の設立登記法人,長野県,上伊那郡辰野町,中山７２番地,,20,382,3990400,,,,,,,2024-04-10,1,,,,,シンシュウホウナンガクエン,0
390,2110003005363,新規,0,2024-04-10,2024-04-10,合同会社バリュー新潟,,合同会社,新潟県,柏崎市,錦町３番２４－５０６号,,15,205,9450052,,,,,,,2024-04-10,1,,,,,バリューニイガタ,0
404,2120001263714,新規,0,2024-04-10,2024-04-10,株式会社ＨＯＭＥ,,株式会社,大阪府,大阪市淀川区,西中島１丁目１３番２１号永田ビル３階,,27,123,5320011,,,,,,,2024-04-10,1,,,,,ホーム,0
405,2120001263920,新規,0,2024-04-10,2024-04-10,株式会社建設商工新聞社,,株式会社,大阪府,大阪市北区,兎我野町９番２３号,,27,127,5300056,,,,,,,2024-04-10,1,,,,,ケンセツショウコウシンブンシャ,0
406,2120001263929,新規,0,2024-04-10,2024-04-10,株式会社紫光フーズ,,株式会社,大阪府,大阪市住之江区,北加賀屋２丁目３－１５,,27,125,5590011,,,,,,,2024-04-10,1,,,,,シコウフーズ,0
407,2120001263945,新規,0,2024-04-10,2024-04-10,株式会社ドリアン,,株式会社,大阪府,大阪市中央区,東心斎橋２丁目５番２４号,,27,128,5420083,,,,,,,2024-04-10,1,,,,,ドリアン,0
418,2120101069367,新規,0,2024-04-10,2024-04-10,株式会社長田重量,,株式会社,大阪府,羽曳野市,飛鳥１１８２番地の１,,27,222,5830842,,,,,,,2024-04-10,1,,,,,ナガタジュウリョウ,0
419,2120101069391,新規,0,2024-04-10,2024-04-10,株式会社光永,,株式会社,大阪府,貝塚市,清児１２４４番６,,27,208,5970041,,,,,,,2024-04-10,1,,,,,コウエイ,0
420,2120103005774,新規,0,2024-04-10,2024-04-10,合同会社きずな,,合同会社,大阪府,富田林市,若松町１丁目１６―８―２階,,27,214,5840024,,,,,,,2024-04-10,1,,,,,キズナ,0
422,2120901049007,新規,0,2024-04-10,2024-04-10,株式会社奏恵詩,,株式会社,大阪府,箕面市,彩都粟生南４丁目１番１－６０５号,,27,220,5620028,,,,,,,2024-04-10,1,,,,,カナエウタ,0
423,2120903005115,新規,0,2024-04-10,2024-04-10,合同会社未来Ｇａゆたか,,合同会社,大阪府,摂津市,鳥飼西４丁目１７番１１号,,27,224,5660072,,,,,,,2024-04-10,1,,,,,ミライガユタカ,0
424,2130001076776,新規,0,2024-04-10,2024-04-10,京縁株式会社,,株式会社,京都府,京都市南区,東九条西明田町２３番地,,26,107,6018045,,,,,,,2024-04-10,1,,,,,キョウエン,0
432,2140003020401,新規,0,2024-04-10,2024-04-10,合同会社ＧＯＲＫＨ．ａ,,合同会社,兵庫県,淡路市,久留麻１９１１番地６,,28,226,6562311,,,,,,,2024-04-10,1,,,,,ゴルカドットエー,0
435,2140005027031,新規,0,2024-04-10,2024-04-10,特定非営利活動法人洲本域学連携研究所,,その他の設立登記法人,兵庫県,洲本市,本町７丁目３番１４号,,28,205,6560025,,,,,,,2024-04-10,1,,,,,スモトイキガクレンケイケンキュウショ,0
441,2180001160823,新規,0,2024-04-10,2024-04-10,株式会社モリイ,,株式会社,愛知県,名古屋市守山区,小幡北２３１１番地,,23,113,4630008,,,,,,,2024-04-10,1,,,,,モリイ,0
442,2180001160848,新規,0,2024-04-10,2024-04-10,株式会社スコープ,,株式会社,愛知県,名古屋市東区,筒井２丁目２番４号,,23,102,4610003,,,,,,,2024-04-10,1,,,,,スコープ,0
443,2180001160856,新規,0,2024-04-10,2024-04-10,株式会社ＡＬＬ　ＡＩ,,株式会社,愛知県,名古屋市西区,名駅２丁目３４番１７号セントラル名古屋１１０１号,,23,104,4510045,,,,,,,2024-04-10,1,,,,,オールエイアイ,0
444,2180001160897,新規,0,2024-04-10,2024-04-10,株式会社ＴＤＫ,,株式会社,愛知県,犬山市,大字羽黒字古市場４２番地２,,23,215,4840894,,,,,,,2024-04-10,1,,,,,ティーディーケイ,0
445,2180001160939,新規,0,2024-04-10,2024-04-10,株式会社ＤＥＥＭ,,株式会社,愛知県,名古屋市名東区,西山台７２６番地,,23,115,4650071,,,,,,,2024-04-10,1,,,,,ディーム,0
446,2180001161020,新規,0,2024-04-10,2024-04-10,株式会社リライトテクノロジーズ,,株式会社,愛知県,名古屋市瑞穂区,御劔町３丁目１７番地の１,,23,108,4670875,,,,,,,2024-04-10,1,,,,,リライトテクノロジーズ,0
449,2180003026584,新規,0,2024-04-10,2024-04-10,ＭＵＱＳＩＴ　ＴＲＡＤＩＮＧ合同会社,,合同会社,愛知県,名古屋市港区,小碓３丁目１４松和荘２６号,,23,111,4550801,,,,,,,2024-04-10,1,,,,,ムクシットトレーディング,0
450,2180003026601,新規,0,2024-04-10,2024-04-10,合同会社井上工業,,合同会社,愛知県,春日井市,六軒屋町字東丘１３番地１７,,23,206,4860842,,,,,,,2024-04-10,1,,,,,イノウエコウギョウ,0
454,2190001031255,新規,0,2024-04-10,2024-04-10,株式会社トワサイクル,,株式会社,三重県,名張市,平尾３０１７‐１‐２０３,,24,208,5180713,,,,,,,2024-04-10,1,,,,,トワサイクル,0
457,2190005011930,新規,0,2024-04-10,2024-04-10,特定非営利活動法人集,,その他の設立登記法人,三重県,桑名市,星見ヶ丘４丁目９１６番地,,24,205,5110912,,,,,,,2024-04-10,1,,,,,ツドイ,0
460,2220001025930,新規,0,2024-04-10,2024-04-10,株式会社ＰＴプランニング,,株式会社,石川県,白山市,馬場１丁目６５番地,,17,210,9240864,,,,,,,2024-04-10,1,,,,,ピーティープランニング,0
464,2240005015760,新規,0,2024-04-10,2024-04-10,一般社団法人ＡＲＣ,,その他の設立登記法人,広島県,広島市中区,袋町１－４、３階,,34,101,7300036,,,,,,,2024-04-10,1,,,,,エイアールシー,0
469,2290001105321,新規,0,2024-04-10,2024-04-10,エビス観光株式会社,,株式会社,福岡県,太宰府市,朱雀４丁目１３番２５号,,40,221,8180103,,,,,,,2024-04-10,1,,,,,エビスカンコウ,0
470,2290001105338,新規,0,2024-04-10,2024-04-10,株式会社小井手冷熱,,株式会社,福岡県,福岡市早良区,野芥５丁目３９番３１号,,40,137,8140171,,,,,,,2024-04-10,1,,,,,コイデレイネツ,0
471,2290001105362,新規,0,2024-04-10,2024-04-10,株式会社高次元経営実践研究所,,株式会社,福岡県,福岡市中央区,天神３丁目１番１号天神フタタビル８階,,40,133,8100001,,,,,,,2024-04-10,1,,,,,コウジゲンケイエイジッセンケンキュウショ,0
472,2290001105379,新規,0,2024-04-10,2024-04-10,ＴＷＩＮ　ＧＵＡＲＤ株式会社,,株式会社,福岡県,福岡市早良区,百道３丁目９番１６号,,40,137,8140006,,,,,,,2024-04-10,1,,,,,ツインガード,0
477,2320005010142,新規,0,2024-04-10,2024-04-10,一般社団法人大分県ｅスポーツ連合,,その他の設立登記法人,大分県,大分市,弁天２丁目４番３６号,,44,201,8700017,,,,,,,2024-04-10,1,,,,,オオイタケンイースポーツレンゴウ,0
479,2330001031892,新規,0,2024-04-10,2024-04-10,ＳＭＣキャリア株式会社,,株式会社,熊本県,熊本市中央区,上通町１－２５Ｍ’ｓ１（エムズワン）ビル３階,,43,101,8600845,,,,,,,2024-04-10,1,,,,,エスエムシーキャリア,0
480,2330001031950,新規,0,2024-04-10,2024-04-10,株式会社沖山建設,,株式会社,熊本県,合志市,幾久富１９０９番地６８７,,43,216,8611112,,,,,,,2024-04-10,1,,,,,オキヤマケンセツ,0
486,2360001033481,新規,0,2024-04-10,2024-04-10,株式会社玉建設,,株式会社,沖縄県,中頭郡読谷村,字大湾４１５番地１,,47,324,9040313,,,,,,,2024-04-10,1,,,,,タマケンセツ,0
487,2360003013886,新規,0,2024-04-10,2024-04-10,合同会社シオン,,合同会社,沖縄県,那覇市,首里汀良町１丁目９番地,,47,201,9030806,,,,,,,2024-04-10,1,,,,,シオン,0
490,2370001051136,新規,0,2024-04-10,2024-04-10,株式会社防災対策研究所,,株式会社,宮城県,仙台市太白区,長町２丁目５番１５号プレステージ・Ｓ５０２,,04,104,9820011,,,,,,,2024-04-10,1,,,,,ボウサイタイサクケンキュウジョ,0
491,2370001051160,新規,0,2024-04-10,2024-04-10,株式会社ユーシステム・細井設計,,株式会社,宮城県,名取市,増田１丁目１３番５１号,,04,207,9811224,,,,,,,2024-04-10,1,,,,,ユーシステムホソイセッケイ,0
495,2380001034404,新規,0,2024-04-10,2024-04-10,ホンダ工建株式会社,,株式会社,福島県,郡山市,田村町徳定字高畑３５番地の１,,07,203,9631165,,,,,,,2024-04-10,1,,,,,ホンダコウケン,0
496,2380001034437,新規,0,2024-04-10,2024-04-10,株式会社やまとかわ不動産,,株式会社,福島県,郡山市,桑野２丁目４番３５号,,07,203,9638025,,,,,,,2024-04-10,1,,,,,ヤマトカワフドウサン,0
497,2380005012810,新規,0,2024-04-10,2024-04-10,ＮＰＯ法人ワンリーフ,,その他の設立登記法人,福島県,郡山市,富久山町福原字宝田６３番地の４,,07,203,9638061,,,,,,,2024-04-10,1,,,,,ワンリーフ,0
509,2430001091506,新規,0,2024-04-10,2024-04-10,株式会社ネクシー,,株式会社,北海道,札幌市中央区,大通西７丁目２番地２アセットプランニング大通ビル８階,,01,101,0600042,,,,,,,2024-04-10,1,,,,,ネクシー,0
510,2430001091563,新規,0,2024-04-10,2024-04-10,株式会社ＫＭ北海道ハイヤー,,株式会社,北海道,千歳市,白樺５丁目６番地７,,01,224,0660056,,,,,,,2024-04-10,1,,,,,ケイエムホッカイドウハイヤー,0
518,2462501000991,新規,0,2024-04-10,2024-04-10,株式会社椿堂,,株式会社,北海道,標津郡中標津町,大通北１丁目５番地サンプラザビル,,01,692,0861141,,,,,,,2024-04-10,1,,,,,ツバキドウ,0
527,2500001025563,新規,0,2024-04-10,2024-04-10,株式会社ノンプライム,,株式会社,愛媛県,新居浜市,山田町１３番２０号,,38,205,7920837,,,,,,,2024-04-10,1,,,,,ノンプライム,0
530,2700150048147,新規,0,2024-04-10,2015-10-09,大垣市役所職員等共済会,,その他,岐阜県,大垣市,丸の内２丁目２９,,21,202,5030888,,,,,,,2015-10-09,1,,,,,オオガキシヤクシヨシヨクイントウキヨウサイカイ,0
541,3010001243858,新規,0,2024-04-10,2024-04-10,Ｗｅｌｌ‐Ｌｉｖｉｎｇ株式会社,,株式会社,東京都,中央区,日本橋兜町１７－２兜町第６葉山ビル４Ｆ,,13,102,1030026,,,,,,,2024-04-10,1,,,,,ウェルリービング,0
542,3010001243916,新規,0,2024-04-10,2024-04-10,株式会社トロポイント,,株式会社,東京都,千代田区,神田小川町１丁目１４番地３ＭＴ－Ｏ神保町２階,,13,101,1010052,,,,,,,2024-04-10,1,,,,,トロポイント,0
545,3010003043463,新規,0,2024-04-10,2024-04-10,合同会社ＹＴＳＫ,,合同会社,東京都,中央区,月島１丁目２２番１－１００８号,,13,102,1040052,,,,,,,2024-04-10,1,,,,,ワイティーエスケー,0
551,3010401181501,新規,0,2024-04-10,2024-04-10,株式会社スカパー・ピクチャーズ,,株式会社,東京都,港区,赤坂１丁目８番１号,,13,103,1070052,,,,,,,2024-04-10,1,,,,,スカパーピクチャーズ,0
552,3010401181526,新規,0,2024-04-10,2024-04-10,株式会社ｍｏｇａｎａ,,株式会社,東京都,港区,南青山３丁目１番３６号青山丸竹ビル６Ｆ,,13,103,1070062,,,,,,,2024-04-10,1,,,,,モガナ,0
553,3010401181740,新規,0,2024-04-10,2024-04-10,Ｎ‐ＭＳコンサルティング株式会社,,株式会社,東京都,港区,浜松町２丁目７―１７イーグル浜松町１０階１０６４号室,,13,103,1050013,,,,,,,2024-04-10,1,,,,,エヌエムエスコンサルティング,0
565,3010703007131,新規,0,2024-04-10,2024-04-10,合同会社どんぐり,,合同会社,東京都,品川区,大井４丁目２５番９号,,13,109,1400014,,,,,,,2024-04-10,1,,,,,ドングリ,0
567,3010901055048,新規,0,2024-04-10,2024-04-10,株式会社Ｍ＆Ａマインド,,株式会社,東京都,世田谷区,経堂４丁目２７番７号,,13,112,1560052,,,,,,,2024-04-10,1,,,,,エムアンドエーマインド,0
576,3011001161166,新規,0,2024-04-10,2024-04-10,株式会社Ｂｅｓｔ　Ｆｅｌｉｚ,,株式会社,東京都,渋谷区,恵比寿１丁目８番１８号Ｋ－１ビル３階,,13,113,1500013,,,,,,,2024-04-10,1,,,,,ベストフェリス,0
577,3011001161208,新規,0,2024-04-10,2024-04-10,株式会社カメラレオン,,株式会社,東京都,渋谷区,道玄坂１丁目１６－６二葉ビル８ｂ,,13,113,1500043,,,,,,,2024-04-10,1,,,,,カメラレオン,0
579,3011003018819,新規,0,2024-04-10,2024-04-10,合同会社ＩＲＩＳ,,合同会社,東京都,渋谷区,笹塚１丁目５５－６トーシンフェニックス笹塚駅前弐番館６０５号室,,13,113,1510073,,,,,,,2024-04-10,1,,,,,,0
586,3011201025393,新規,0,2024-04-10,2024-04-10,優健株式会社,,株式会社,東京都,中野区,東中野１丁目５９番９号２階,,13,114,1640003,,,,,,,2024-04-10,1,,,,,ユウケン,0
589,3011401025961,新規,0,2024-04-10,2024-04-10,株式会社ホーム・エイト本社,,株式会社,東京都,板橋区,大山東町１０番３号,,13,119,1730014,,,,,,,2024-04-10,1,,,,,ホームエイトホンシャ,0
590,3011401025978,新規,0,2024-04-10,2024-04-10,株式会社ＹＭＭ２,,株式会社,東京都,板橋区,赤塚６丁目１７番１８－２０５号,,13,119,1750092,,,,,,,2024-04-10,1,,,,,ワイエムエムツー,0
591,3011405002288,新規,0,2024-04-10,2024-04-10,一般社団法人ロカーレ,,その他の設立登記法人,東京都,板橋区,志村１丁目１０番１０号,,13,119,1740056,,,,,,,2024-04-10,1,,,,,ロカーレ,0
592,3011501030531,新規,0,2024-04-10,2024-04-10,福沢金属産業株式会社,,株式会社,東京都,北区,東十条４丁目６番５号２階,,13,117,1140001,,,,,,,2024-04-10,1,,,,,,0
595,3011801044041,新規,0,2024-04-10,2024-04-10,知道株式会社,,株式会社,東京都,葛飾区,新小岩１丁目２６番５号１０１号,,13,122,1240024,,,,,,,2024-04-10,1,,,,,チドウ,0
602,3013101009393,新規,0,2024-04-10,2024-04-10,Ｒａｎ．Ｘ株式会社,,株式会社,東京都,西多摩郡瑞穂町,箱根ケ崎西松原４４番地２７,,13,303,1901223,,,,,,,2024-04-10,1,,,,,,0
608,3013301052318,新規,0,2024-04-10,2024-04-10,アテナグループ株式会社,,株式会社,東京都,豊島区,東池袋４丁目２７番５号,,13,116,1700013,,,,,,,2024-04-10,1,,,,,アテナグループ,0
614,3020001156646,新規,0,2024-04-10,2024-04-10,株式会社アルエス商事,,株式会社,神奈川県,横浜市瀬谷区,上瀬谷町１７－３５,,14,114,2460006,,,,,,,2024-04-10,1,,,,,アルエスショウジ,0
620,3021005013065,新規,0,2024-04-10,2024-04-10,一般社団法人つるもとルームフェニックス,,その他の設立登記法人,神奈川県,横須賀市,浦賀３丁目１８番２３号,,14,201,2390822,,,,,,,2024-04-10,1,,,,,ツルモトルームフェニックス,0
624,3030001159755,新規,0,2024-04-10,2024-04-10,株式会社あやとり,,株式会社,埼玉県,志木市,本町６丁目１７番８号,,11,228,3530004,,,,,,,2024-04-10,1,,,,,,0
628,3030003024040,新規,0,2024-04-10,2024-04-10,合同会社ＡＬＡＭ　ＴＲＡＤＩＮＧ,,合同会社,埼玉県,所沢市,糀谷１５４番地の１,,11,208,3591166,,,,,,,2024-04-10,1,,,,,アラムトレーディング,0
637,3040001133049,新規,0,2024-04-10,2024-04-10,株式会社フジアセット,,株式会社,千葉県,千葉市花見川区,千種町１６１番地４８,,12,102,2620012,,,,,,,2024-04-10,1,,,,,フジアセット,0
638,3040001133073,新規,0,2024-04-10,2024-04-10,株式会社二瓶工務店,,株式会社,千葉県,松戸市,栄町８丁目６１５番地の１３,,12,207,2710062,,,,,,,2024-04-10,1,,,,,ニヘイコウムテン,0
646,3050001054582,新規,0,2024-04-10,2024-04-10,株式会社フューネラル下川,,株式会社,茨城県,神栖市,溝口１７６９番地１,,08,232,3140121,,,,,,,2024-04-10,1,,,,,フューネラルシモカワ,0
658,3070001041604,新規,0,2024-04-10,2024-04-10,株式会社Ｓｕｍｉｋａ,,株式会社,群馬県,太田市,東金井町６２４番地１,,10,205,3730022,,,,,,,2024-04-10,1,,,,,スミカ,0
660,3070003005359,新規,0,2024-04-10,2024-04-10,合同会社辻屋,,合同会社,群馬県,渋川市,赤城町長井小川田２２９１,,10,208,3791102,,,,,,,2024-04-10,1,,,,,ツジヤ,0
663,3080001026232,新規,0,2024-04-10,2024-04-10,株式会社２ＣＲＡＦＴＳ,,株式会社,静岡県,静岡市葵区,牧ケ谷２０９－１,,22,101,4211221,,,,,,,2024-04-10,1,,,,,ツークラフト,0
673,3100003007500,新規,0,2024-04-10,2024-04-10,合同会社原風景,,合同会社,長野県,木曽郡木曽町,福島５８６７番地１,,20,432,3970001,,,,,,,2024-04-10,1,,,,,ゲンフウケイ,0
675,3110001038331,新規,0,2024-04-10,2024-04-10,株式会社トークパス,,株式会社,新潟県,新潟市中央区,天神１丁目１番地プラーカ３,,15,103,9500917,,,,,,,2024-04-10,1,,,,,トークパス,0
677,3110003005362,新規,0,2024-04-10,2024-04-10,合同会社まなびらく,,合同会社,新潟県,新潟市中央区,寄居町６９７－１マンション北陸２０５,,15,103,9518113,,,,,,,2024-04-10,1,,,,,マナビラク,0
685,3120001263762,新規,0,2024-04-10,2024-04-10,株式会社浪速教育振興,,株式会社,大阪府,大阪市住吉区,遠里小野２丁目１番１号,,27,120,5580032,,,,,,,2024-04-10,1,,,,,ナニワキョウイクシンコウ,0
686,3120001263861,新規,0,2024-04-10,2024-04-10,株式会社ナインボーデン,,株式会社,大阪府,大阪市港区,築港３丁目７番１５号港振興ビル１１１号室,,27,107,5520021,,,,,,,2024-04-10,1,,,,,ナインボーデン,0
687,3120001263886,新規,0,2024-04-10,2024-04-10,株式会社ソルブエステート,,株式会社,大阪府,大阪市天王寺区,生玉前町３番２５号タマダビル４階,,27,109,5430072,,,,,,,2024-04-10,1,,,,,ソルブエステート,0
688,3120001263911,新規,0,2024-04-10,2024-04-10,株式会社ＧＢＭ,,株式会社,大阪府,大阪市天王寺区,逢阪１丁目２番７号西門マンション２０１,00134359,27,109,5430062,,,,,,,2024-04-10,1,,,,,ジービーエム,0
689,3120001263928,新規,0,2024-04-10,2024-04-10,株式会社信得マネージメント,,株式会社,大阪府,大阪市浪速区,恵美須西２丁目１４－３０－５Ｆ,,27,111,5560003,,,,,,,2024-04-10,1,,,,,シントクマネージメント,0
691,3120003026325,新規,0,2024-04-10,2024-04-10,合同会社Ｂｕｂｂｌｅｚｚ,,合同会社,大阪府,大阪市中央区,西心斎橋２丁目１６番６号ＰＲＩＮＣＥＳＨＩＮＳＡＩＢＡＳＨＩ９階,,27,128,5420086,,,,,,,2024-04-10,1,,,,,バブルズ,0
692,3120003026333,新規,0,2024-04-10,2024-04-10,合同会社インテグレイテッド・インフォ,,合同会社,大阪府,大阪市北区,芝田２丁目５番１４号,,27,127,5300012,,,,,,,2024-04-10,1,,,,,インテグレイテッドインフォ,0
693,3120101069390,新規,0,2024-04-10,2024-04-10,株式会社ＧＬＯＩＲＥ,,株式会社,大阪府,岸和田市,摩湯町６７６番地１,,27,202,5960806,,,,,,,2024-04-10,1,,,,,グロワール,0
697,3120901049022,新規,0,2024-04-10,2024-04-10,株式会社ＭＩＮＴ　ＪＡＰＡＮ,,株式会社,大阪府,高槻市,栄町１丁目３番１－５０１号,,27,207,5690825,,,,,,,2024-04-10,1,,,,,ミントジャパン,0
698,3120905006597,新規,0,2024-04-10,2024-04-10,ＮＰＯ法人ファインプレー,,その他の設立登記法人,大阪府,高槻市,城北町１丁目２番６号ＮＫ城北ビル,,27,207,5690071,,,,,,,2024-04-10,1,,,,,ファインプレー,0
704,3130001076775,新規,0,2024-04-10,2024-04-10,株式会社ライフベース,,株式会社,京都府,京都市右京区,西京極北庄境町４８番地田中ビル３０１号室,,26,108,6150802,,,,,,,2024-04-10,1,,,,,ライフベース,0
705,3130001076783,新規,0,2024-04-10,2024-04-10,株式会社Ａ．Ｒ．Ｅ,,株式会社,京都府,京都市南区,吉祥院石原堂ノ後町３２番地２,,26,107,6018355,,,,,,,2024-04-10,1,,,,,エーアールイー,0
707,3130005017057,新規,0,2024-04-10,2024-04-10,一般社団法人地球科学社会教育機構,,その他の設立登記法人,京都府,京都市中京区,御池通東洞院東入笹屋町４３６永和御池ビル６０６号,,26,104,6048187,,,,,,,2024-04-10,1,,,,,チキュウカガクシャカイキョウイクキコウ,0
710,3140001133947,新規,0,2024-04-10,2024-04-10,株式会社Ｕｎｉｔｙ,,株式会社,兵庫県,豊岡市,加広町６番３７号,,28,209,6680023,,,,,,,2024-04-10,1,,,,,ユニティー,0
711,3140001133996,新規,0,2024-04-10,2024-04-10,株式会社ＤｉＲ,,株式会社,兵庫県,淡路市,浦１７１番地７,,28,226,6562305,,,,,,,2024-04-10,1,,,,,ディル,0
712,3140001134012,新規,0,2024-04-10,2024-04-10,株式会社Ｈａｐｉｋａｔａ,,株式会社,兵庫県,明石市,朝霧町１丁目４番８号,,28,203,6730866,,,,,,,2024-04-10,1,,,,,ハピカタ,0
717,3140003020400,新規,0,2024-04-10,2024-04-10,合同会社イトウレジデンシャルズ,,合同会社,兵庫県,西宮市,仁川町３丁目３－５プラネスーペリア西宮仁川１０２,,28,204,6620811,,,,,,,2024-04-10,1,,,,,イトウレジデンシャルズ,0
718,3140005027006,新規,0,2024-04-10,2024-04-10,特定非営利活動法人こどもスポーツ研究所,,その他の設立登記法人,兵庫県,伊丹市,荻野８丁目３３－２３,,28,207,6640002,,,,,,,2024-04-10,1,,,,,コドモスポーツケンキュウジョ,0
719,3140005027014,新規,0,2024-04-10,2024-04-10,一般社団法人波賀にこにこマート,,その他の設立登記法人,兵庫県,宍粟市,波賀町上野２５７番地,,28,227,6714221,,,,,,,2024-04-10,1,,,,,ハガニコニコマート,0
721,3150001027215,新規,0,2024-04-10,2024-04-10,株式会社Ｒｅ．ｍａｋｅ,,株式会社,奈良県,大和郡山市,小泉町１９０５－２００,,29,203,6391042,,,,,,,2024-04-10,1,,,,,リメイク,0
723,3160001025820,新規,0,2024-04-10,2024-04-10,株式会社神在月,,株式会社,滋賀県,大津市,朝日が丘１丁目５番５,,25,201,5200052,,,,,,,2024-04-10,1,,,,,カミアリヅキ,0
724,3160001025829,新規,0,2024-04-10,2024-04-10,株式会社Ｌｏｃａｌ　Ｃｏｍｍｏｎｓ,,株式会社,滋賀県,守山市,吉身５丁目１１番１６号,,25,207,5240021,,,,,,,2024-04-10,1,,,,,ローカルコモンズ,0
730,3180001160855,新規,0,2024-04-10,2024-04-10,株式会社ＳＡＮＤＥＮＫＡ,,株式会社,愛知県,名古屋市北区,山田４丁目１番１８号ロフティ大曽根１４０３号,,23,103,4620810,,,,,,,2024-04-10,1,,,,,サンデンカ,0
731,3180001160871,新規,0,2024-04-10,2024-04-10,株式会社テルニ商店,,株式会社,愛知県,知多郡南知多町,大字篠島字浦磯１番地の３,,23,445,4703505,,,,,,,2024-04-10,1,,,,,テルニショウテン,0
732,3180001160962,新規,0,2024-04-10,2024-04-10,株式会社Ｏ．Ｂ．Ｓ企画,,株式会社,愛知県,名古屋市千種区,末盛通３丁目４１番地の１,,23,101,4640821,,,,,,,2024-04-10,1,,,,,オービーエスキカク,0
736,3180003026625,新規,0,2024-04-10,2024-04-10,合同会社ＩＫＩＧＡＩ　ＰＬＵＳ,,合同会社,愛知県,常滑市,飛香台４丁目１３番地の１,,23,216,4790868,,,,,,,2024-04-10,1,,,,,イキガイプラス,0
737,3180003026633,新規,0,2024-04-10,2024-04-10,合同会社和,,合同会社,愛知県,一宮市,北方町曽根字新田西２２番地,,23,203,4938002,,,,,,,2024-04-10,1,,,,,ナゴミ,0
739,3180005020576,新規,0,2024-04-10,2024-04-10,一般社団法人全国文化財壁技術保存会,,その他の設立登記法人,愛知県,江南市,力長町大当寺１２８番地,,23,217,4838104,,,,,,,2024-04-10,1,,,,,ゼンコクブンカザイカベギジュツホゾンカイ,0
741,3180301038512,新規,0,2024-04-10,2024-04-10,株式会社テンシン,,株式会社,愛知県,碧南市,田尻町２丁目１９,,23,209,4470867,,,,,,,2024-04-10,1,,,,,テンシン,0
750,3210001019718,新規,0,2024-04-10,2024-04-10,株式会社アルバ,,株式会社,福井県,福井市,経田１丁目１４１７番地,,18,201,9100011,,,,,,,2024-04-10,1,,,,,アルバ,0
754,3240001063069,新規,0,2024-04-10,2024-04-10,株式会社山岡工業,,株式会社,広島県,広島市安佐南区,山本７丁目２２番２６‐１０２号,,34,105,7310137,,,,,,,2024-04-10,1,,,,,ヤマオカコウギョウ,0
757,3240003006620,新規,0,2024-04-10,2024-04-10,Ｙ９ａ合同会社,,合同会社,広島県,広島市中区,大手町１丁目１－２０相生橋ビル７階Ａ号室,,34,101,7300051,,,,,,,2024-04-10,1,,,,,ワイキューエー,0
764,3290001105337,新規,0,2024-04-10,2024-04-10,株式会社安田商店,,株式会社,福岡県,大牟田市,本町１丁目５番地３０,,40,202,8360046,,,,,,,2024-04-10,1,,,,,ヤスダショウテン,0
765,3290001105460,新規,0,2024-04-10,2024-04-10,株式会社Ｘ　Ｓｏｌｕｔｉｏｎｓ,,株式会社,福岡県,大野城市,仲畑４丁目１１番４号,,40,219,8160921,,,,,,,2024-04-10,1,,,,,エックスソリューションズ,0
766,3290003015113,新規,0,2024-04-10,2024-04-10,合同会社Ｍｏｎ　Ａｎｇｅ,,合同会社,福岡県,福岡市中央区,天神４丁目６－２８天神ファーストビル７階,,40,133,8100001,,,,,,,2024-04-10,1,,,,,モンアンジュ,0
769,3320001020409,新規,0,2024-04-10,2024-04-10,株式会社甲斐林業,,株式会社,大分県,佐伯市,宇目大字小野市３４７７番地１,,44,205,8793301,,,,,,,2024-04-10,1,,,,,カイリンギョウ,0
770,3320003004335,新規,0,2024-04-10,2024-04-10,合同会社Ｒｅｂｉｒｔｈ,,合同会社,大分県,日田市,大字西有田２１４番地１０,,44,204,8770000,,,,,,,2024-04-10,1,,,,,リバース,0
778,3330003010308,新規,0,2024-04-10,2024-04-10,合同会社ファンロン,,合同会社,熊本県,熊本市東区,江津２丁目３２番８３－３号,,43,102,8620942,,,,,,,2024-04-10,1,,,,,ファンロン,0
781,3340001026437,新規,0,2024-04-10,2024-04-10,株式会社８・８ｉｎｎｏｖａｔｉｏｎ,,株式会社,鹿児島県,鹿児島市,樋之口町１０番４５号２階,00134360,46,201,8920845,,,,,,,2024-04-10,1,,,,,ハチハチイノベーション,0
786,3360001033489,新規,0,2024-04-10,2024-04-10,株式会社ｔｅｓｏｒｏ,,株式会社,沖縄県,名護市,大中４丁目１３番８号,,47,209,9050017,,,,,,,2024-04-10,1,,,,,テゾーロ,0
788,3370001051176,新規,0,2024-04-10,2024-04-10,株式会社ＬＯＣＯ　ＥＹＥＳ,,株式会社,宮城県,仙台市若林区,石名坂５２－１－３０２,,04,103,9840063,,,,,,,2024-04-10,1,,,,,ロコアイズ,0
791,3370005010764,新規,0,2024-04-10,2024-04-10,一般社団法人ひとのあいだ,,その他の設立登記法人,宮城県,仙台市青葉区,春日町９番１５号,,04,101,9800821,,,,,,,2024-04-10,1,,,,,ヒトノアイダ,0
794,3380003005732,新規,0,2024-04-10,2024-04-10,ブン合同会社,,合同会社,福島県,会津若松市,八日町６番４０号,,07,202,9650046,,,,,,,2024-04-10,1,,,,,ブン,0
797,3400003003246,新規,0,2024-04-10,2024-04-10,合同会社奥州美建,,合同会社,岩手県,奥州市,水沢字釜田３８番地３,,03,215,0230892,,,,,,,2024-04-10,1,,,,,オウシュウビケン,0
804,3430001091463,新規,0,2024-04-10,2024-04-10,株式会社イチカワトモヒロ農場,,株式会社,北海道,石狩郡当別町,川下２９０８番地,,01,303,0610206,,,,,,,2024-04-10,1,,,,,イチカワトモヒロノウジョウ,0
808,3450001014281,新規,0,2024-04-10,2024-04-10,株式会社アクアルビー,,株式会社,北海道,旭川市,四条通７丁目８９０番地１,,01,204,0700034,,,,,,,2024-04-10,1,,,,,アクアルビー,0
818,3700150124789,新規,0,2024-04-10,2024-04-10,Ｇｕａｎｇｚｈｏｕｓｈｉｑｉｒｕｉｍａｏｙｉｙｏｕｘｉａｎｇｏｎｇｓｉ,,外国会社等,,,,,,,,ｚｈｏｎｇｃｕｎｊｉｅ１０５ｇｕｏｄａｏｘｉｅｃｕｎｌｕｄｕａｎ２５ｈａｏＤ２０６　ｇｕａｎｇｚｈｏｕｓｈｉｇｕａｎｇｄｏｎｇｓｈｅｎｇｐａｎｙｕｑｕ　ｚｈｏｎｇｇｕｏ　５１１４９５,,,,,,2024-04-10,1,,,,,コウシュウキエイボウエキユウゲンコウシ,0
819,3700150124797,新規,0,2024-04-10,2024-04-10,白金一丁目西部中地区市街地再開発組合,,その他,東京都,港区,南麻布２丁目１４番１３号麻布山口ビル４階,,13,103,1060047,,,,,,,2024-04-10,1,,,,,シロカネイツチヨウメセイブナカチクシガイチサイカイハツクミアイ,0
840,4010001243733,新規,0,2024-04-10,2024-04-10,株式会社Ｌｉｆｅ　Ｄｅｓｉｇｎ　Ｈａｒｍｏｎｙ,,株式会社,東京都,中央区,日本橋富沢町４番１０号,,13,102,1030006,,,,,,,2024-04-10,1,,,,,ライフデザインハーモニー,0
841,4010001243790,新規,0,2024-04-10,2024-04-10,株式会社ｍｉｔａｓｅｒｕ　ＪＡＰＡＮ,,株式会社,東京都,中央区,日本橋室町３丁目２番１号,,13,102,1030022,,,,,,,2024-04-10,1,,,,,ミタセルジャパン,0
843,4010003043438,新規,0,2024-04-10,2024-04-10,合同会社ＪＲＥＡＳＴファンド第８号,,合同会社,東京都,中央区,日本橋１丁目４番１号日本橋一丁目ビルディング,,13,102,1030027,,,,,,,2024-04-10,1,,,,,ジェイアールイーストファンドダイハチゴウ,0
853,4010401181525,新規,0,2024-04-10,2024-04-10,株式会社函館アライアンス,,株式会社,東京都,港区,芝浦３丁目４番２号グランパークハイツ１８０６,,13,103,1080023,,,,,,,2024-04-10,1,,,,,ハコダテアライアンス,0
854,4010401181582,新規,0,2024-04-10,2024-04-10,株式会社ＥＮＲＩＣＨ,,株式会社,東京都,港区,南青山３丁目１番３６号青山丸竹ビル６Ｆ,,13,103,1070062,,,,,,,2024-04-10,1,,,,,エンリッチ,0
855,4010401181649,新規,0,2024-04-10,2024-04-10,株式会社Ｓｉｌｌａｇｅ,,株式会社,東京都,港区,南青山２丁目２番１５号ウィン青山９４２,,13,103,1070062,,,,,,,2024-04-10,1,,,,,シアージュ,0
856,4010403032338,新規,0,2024-04-10,2024-04-10,合同会社トリプルセブンプロデュース,,合同会社,東京都,港区,赤坂９丁目２番９号,,13,103,1070052,,,,,,,2024-04-10,1,,,,,トリプルセブンプロデュース,0
857,4010403032362,新規,0,2024-04-10,2024-04-10,合同会社ＰＡＴＣＨ,,合同会社,東京都,港区,港南２丁目１１番１７－１１１２号,,13,103,1080075,,,,,,,2024-04-10,1,,,,,パッチ,0
865,4010501052023,新規,0,2024-04-10,2024-04-10,Ａｍｏｕｒ美宝株式会社,,株式会社,東京都,台東区,東上野４丁目１４番１０号,,13,106,1100015,,,,,,,2024-04-10,1,,,,,アムールビホウ,0
872,4010803004894,新規,0,2024-04-10,2024-04-10,Ｔｏｋｏ　Ｆｏｏｄｓ合同会社,,合同会社,東京都,大田区,仲六郷４丁目３番１６－８１５号,,13,111,1440055,,,,,,,2024-04-10,1,,,,,トコフーズ,0
875,4010901055006,新規,0,2024-04-10,2024-04-10,株式会社Ｉ‐ｓｔａｇｅ,,株式会社,東京都,世田谷区,玉川４丁目１５番１号グリーンハウス１０１,,13,112,1580094,,,,,,,2024-04-10,1,,,,,アイステージ,0
880,4011001160951,新規,0,2024-04-10,2024-04-10,株式会社Ｂｒｅａｔｈｅ　Ｗｅｌｌ‐ｂｅｉｎｇ,,株式会社,東京都,渋谷区,神宮前２丁目１３番９号Ｂｉｒｔｈ神宮前３０２,,13,113,1500001,,,,,,,2024-04-10,1,,,,,ブリーズウェルビーイング,0
881,4011001161033,新規,0,2024-04-10,2024-04-10,株式会社ＡＭ　ＣＯＭＭＵＮＩＣＡＴＩＯＮＳ,,株式会社,東京都,渋谷区,円山町五丁目５番５号Ｎａｖｉ渋谷Ｖ３階,,13,113,1500044,,,,,,,2024-04-10,1,,,,,エーエムコニュニケーションズ,0
882,4011001161082,新規,0,2024-04-10,2024-04-10,株式会社Ｎｉｓｐａｔｃｈ,,株式会社,東京都,渋谷区,道玄坂１丁目１０番８号渋谷道玄坂東急ビル２Ｆ－Ｃ,,13,113,1500043,,,,,,,2024-04-10,1,,,,,ニスパッチ,0
883,4011001161140,新規,0,2024-04-10,2024-04-10,株式会社Ｋ＆Ｍ,,株式会社,東京都,渋谷区,渋谷２丁目１９－１５宮益坂ビルディング６０９,,13,113,1500002,,,,,,,2024-04-10,1,,,,,ケーアンドエム,0
887,4011003018834,新規,0,2024-04-10,2024-04-10,ｔｏｗｎ合同会社,,合同会社,東京都,目黒区,平町２丁目１８－７フレッグ目黒０２５号室,,13,110,1520032,,,,,,,2024-04-10,1,,,,,タウン,0
888,4011003018867,新規,0,2024-04-10,2024-04-10,合同会社ＤＥＲＭＡＴＲＩＭ,,合同会社,東京都,渋谷区,神宮前３丁目３１－２－２階,,13,113,1500001,,,,,,,2024-04-10,1,,,,,ダーマトリム,0
889,4011003018891,新規,0,2024-04-10,2024-04-10,合同会社ＳｔａｒＳｃｒｉｐｔ,,合同会社,東京都,渋谷区,道玄坂１丁目１０番８号渋谷道玄坂東急ビル２Ｆ―Ｃ,,13,113,1500043,,,,,,,2024-04-10,1,,,,,スタースクリプト,0
898,4011401025977,新規,0,2024-04-10,2024-04-10,雄建株式会社,,株式会社,東京都,板橋区,蓮根２丁目１８番５号,,13,119,1740046,,,,,,,2024-04-10,1,,,,,ユウケン,0
902,4012703002953,新規,0,2024-04-10,2024-04-10,ＥＭ合同会社,,合同会社,東京都,小平市,上水本町６丁目１８番３４号,,13,211,1870022,,,,,,,2024-04-10,1,,,,,イーエム,0
903,4012705002398,新規,0,2024-04-10,2024-04-10,特定非営利活動法人国分寺市スポーツ協会,,その他の設立登記法人,東京都,小平市,上水本町６丁目２２番１号国分寺市民スポーツセンター２階,,13,211,1870022,,,,,,,2024-04-10,1,,,,,コクブンジシスポーツキョウカイ,0
925,4020005016317,新規,0,2024-04-10,2024-04-10,一般社団法人日本ボイス・コミュニケーション協会,,その他の設立登記法人,神奈川県,川崎市川崎区,宮本町２－４ドルチェ宮本６０１,,14,131,2100004,,,,,,,2024-04-10,1,,,,,ニホンボイスコミュニケーションキョウカイ,0
929,4021003014345,新規,0,2024-04-10,2024-04-10,合同会社Ｙ２,,合同会社,神奈川県,鎌倉市,大町２丁目３番６号,,14,204,2480007,,,,,,,2024-04-10,1,,,,,ワイツー,0
936,4030001159721,新規,0,2024-04-10,2024-04-10,信頼株式会社,,株式会社,埼玉県,川口市,上青木２丁目８番２７号,,11,203,3330844,,,,,,,2024-04-10,1,,,,,シンライ,0
937,4030001159762,新規,0,2024-04-10,2024-04-10,株式会社ケンリパブリック,,株式会社,埼玉県,さいたま市緑区,大字高畑９４６番地１,,11,109,3360971,,,,,,,2024-04-10,1,,,,,ケンリパブリック,0
938,4030001159795,新規,0,2024-04-10,2024-04-10,株式会社フドウサン堂,,株式会社,埼玉県,新座市,大和田１丁目９番１６－１号,,11,230,3520004,,,,,,,2024-04-10,1,,,,,フドウサンドウ,0
947,4040001133072,新規,0,2024-04-10,2024-04-10,株式会社アントンネ,,株式会社,千葉県,長生郡一宮町,宮原２０８番地１,,12,421,2994312,,,,,,,2024-04-10,1,,,,,アントンネ,0
949,4040003024699,新規,0,2024-04-10,2024-04-10,合同会社タビ高等学院,,合同会社,千葉県,浦安市,明海１丁目３番９号夢海の街３０６号室,,12,227,2790014,,,,,,,2024-04-10,1,,,,,タビコウトウガクイン,0
950,4040003024724,新規,0,2024-04-10,2024-04-10,ＹＵＫＩＳＡ合同会社,,合同会社,千葉県,成田市,加良部２丁目１番地２（１４棟５０３号）,,12,211,2860036,,,,,,,2024-04-10,1,,,,,ユキサ,0
957,4070001041603,新規,0,2024-04-10,2024-04-10,株式会社サニーズ薬局,,株式会社,群馬県,桐生市,相生町１丁目１４２番地の１,,10,203,3760011,,,,,,,2024-04-10,1,,,,,サニーズヤッキョク,0
958,4070001041611,新規,0,2024-04-10,2024-04-10,株式会社サンフラワー,,株式会社,群馬県,渋川市,金井１７４番地２,,10,208,3770027,,,,,,,2024-04-10,1,,,,,サンフラワー,0
961,4070003005358,新規,0,2024-04-10,2024-04-10,合同会社北軽ユニオン,,合同会社,群馬県,吾妻郡嬬恋村,大字鎌原１４５２番地１１７,,10,425,3771524,,,,,,,2024-04-10,1,,,,,キタカルユニオン,0
969,4100001037366,新規,0,2024-04-10,2024-04-10,株式会社ＣＲＯＳＳ　ＢＩＲＤ,,株式会社,長野県,伊那市,山寺３２４０番地,,20,209,3960023,,,,,,,2024-04-10,1,,,,,クロスバード,0
970,4100003007482,新規,0,2024-04-10,2024-04-10,栄整体院合同会社,,合同会社,長野県,長野市,大字鶴賀上千歳町１３４７番地４,,20,201,3800821,,,,,,,2024-04-10,1,,,,,サカエセイタイイン,0
971,4110001038330,新規,0,2024-04-10,2024-04-10,株式会社ＮＳＢホールディングス,,株式会社,新潟県,新潟市北区,西名目所５５０７番地１０,,15,101,9503122,,,,,,,2024-04-10,1,,,,,エヌエスビーホールディングス,0
982,4120001263860,新規,0,2024-04-10,2024-04-10,株式会社ＳＴＡＴＥ,,株式会社,大阪府,大阪市北区,東天満２丁目６番１２号４Ｆ,,27,127,5300044,,,,,,,2024-04-10,1,,,,,ステート,0
983,4120001263902,新規,0,2024-04-10,2024-04-10,株式会社Ｊａｙ　ｃｏｎｓｕｌｔａｎｔ,,株式会社,大阪府,大阪市北区,梅田１丁目１３番１号大阪梅田ツインタワーズ・サウス１５階,,27,127,5300001,,,,,,,2024-04-10,1,,,,,ジェイコンサルタント,0
984,4120001263919,新規,0,2024-04-10,2024-04-10,株式会社Ａｃｔｉｏｎ　Ｓｕｒｇｅ,,株式会社,大阪府,大阪市北区,梅田１丁目２番２号大阪駅前第２ビル１２－１２,,27,127,5300001,,,,,,,2024-04-10,1,,,,,アクションサージ,0
985,4120001263927,新規,0,2024-04-10,2024-04-10,株式会社ＷＩＮテック,,株式会社,大阪府,大阪市住吉区,苅田８丁目１３番１号１階,,27,120,5580011,,,,,,,2024-04-10,1,,,,,ウィンテック,0
986,4120001263935,新規,0,2024-04-10,2024-04-10,株式会社シードエイト,,株式会社,大阪府,大阪市中央区,谷町３丁目２番２号,,27,128,5400012,,,,,,,2024-04-10,1,,,,,シードエイト,0
987,4120001263943,新規,0,2024-04-10,2024-04-10,株式会社ＥＳＴＡＣＩＯＮ,,株式会社,大阪府,大阪市北区,梅田１丁目１－３大阪駅前第３ビル２９階１－１－１号室,,27,127,5300001,,,,,,,2024-04-10,1,,,,,エスタシオン,0
988,4120001264066,新規,0,2024-04-10,2024-04-10,株式会社ＳＥＥＤＳ,,株式会社,大阪府,大阪市東住吉区,針中野４丁目４番３号,,27,121,5460011,,,,,,,2024-04-10,1,,,,,シーズ,0
991,4120003026332,新規,0,2024-04-10,2024-04-10,合同会社ＲＥＧＡＭＥ,,合同会社,大阪府,大阪市北区,梅田１丁目２番２号大阪駅前第２ビル１２－１２,,27,127,5300001,,,,,,,2024-04-10,1,,,,,レガーメ,0
994,4120903005113,新規,0,2024-04-10,2024-04-10,レイズ合同会社,,合同会社,大阪府,箕面市,桜１丁目１番１号,,27,220,5620041,,,,,,,2024-04-10,1,,,,,レイズ,0
999,4122001037988,新規,0,2024-04-10,2024-04-10,株式会社ｇｒｉｓ‐ｇｒｉｓ,,株式会社,大阪府,八尾市,弓削町１丁目９４番地の４,,27,212,5810032,,,,,,,2024-04-10,1,,,,,グリィグリィ,0
1000,4122003002858,新規,0,2024-04-10,2024-04-10,ロードスターアセット合同会社,,合同会社,大阪府,東大阪市,友井１丁目４番３４号,,27,227,5770816,,,,,,,2024-04-10,1,,,,,ロードスターアセット,0
1005,4130003009443,新規,0,2024-04-10,2024-04-10,合同会社リベルタ,,合同会社,京都府,京都市南区,上鳥羽鍋ケ淵町５８７番地,,26,107,6018172,,,,,,,2024-04-10,1,,,,,リベルタ,0
1007,4130005017056,新規,0,2024-04-10,2024-04-10,一般社団法人無線認証連携協会,,その他の設立登記法人,京都府,京都市中京区,富小路通六角下る骨屋之町５５０－２,,26,104,6048064,,,,,,,2024-04-10,1,,,,,ムセンニンショウレンケイキョウカイ,0
1009,4140001134011,新規,0,2024-04-10,2024-04-10,株式会社結絆,,株式会社,兵庫県,神戸市垂水区,名谷町１９４９番地の１リブコートオリジン１９０３号,,28,108,6550852,,,,,,,2024-04-10,1,,,,,ユウナ,0
1011,4140003020408,新規,0,2024-04-10,2024-04-10,Ｔｏｔｅｍｏ　Ｊａｐａｎ合同会社,,合同会社,兵庫県,宝塚市,仁川北１丁目１番１１号メービウス仁川２０３,,28,214,6650061,,,,,,,2024-04-10,1,,,,,トテモジャパン,0
1012,4140003020424,新規,0,2024-04-10,2024-04-10,合同会社ひとのわ,,合同会社,兵庫県,神戸市須磨区,北落合４丁目２４番１５号,,28,107,6540151,,,,,,,2024-04-10,1,,,,,ヒトノワ,0
1018,4170003002015,新規,0,2024-04-10,2024-04-10,ＩＮＨトラスト合同会社,,合同会社,和歌山県,和歌山市,里１４２番地８,,30,201,6496311,,,,,,,2024-04-10,1,,,,,アイエヌエイチトラスト,0
1035,4210001019717,新規,0,2024-04-10,2024-04-10,株式会社Ｄｉｇｉｔａｌ　ｌｉｆｅ,,株式会社,福井県,吉田郡永平寺町,松岡薬師３丁目２９番地２,,18,322,9101118,,,,,,,2024-04-10,1,,,,,デジタルライフ,0
1045,4240001063051,新規,0,2024-04-10,2024-04-10,株式会社ＧＲＡＣＥＤ,,株式会社,広島県,広島市東区,中山新町１丁目４番２５号,,34,102,7320021,,,,,,,2024-04-10,1,,,,,グレイスディー,0
1057,4260003004646,新規,0,2024-04-10,2024-04-10,合同会社ＮＳＰ,,合同会社,岡山県,岡山市北区,表町３丁目５－４３,,33,101,7000822,,,,,,,2024-04-10,1,,,,,エヌエスピー,0
1060,4280003001831,新規,0,2024-04-10,2024-04-10,合同会社Ｍａｐｌｅ　ｄａｙ,,合同会社,島根県,益田市,遠田町１９９５―１２,,32,204,6993676,,,,,,,2024-04-10,1,,,,,メープルデイ,0
1061,4290001105303,新規,0,2024-04-10,2024-04-10,ＬＥＤ　ＨＯＵＳＥ株式会社,,株式会社,福岡県,福岡市南区,和田４丁目４番３号,,40,134,8111343,,,,,,,2024-04-10,1,,,,,レッドハウス,0
1062,4290001105311,新規,0,2024-04-10,2024-04-10,株式会社みらいづくり,,株式会社,福岡県,福岡市博多区,石城町２１番２４号－５０１,,40,132,8120032,,,,,,,2024-04-10,1,,,,,,0
1063,4290001105328,新規,0,2024-04-10,2024-04-10,株式会社ｊｏｂサポート,,株式会社,福岡県,福岡市中央区,梅光園２丁目１４番３号,,40,133,8100035,,,,,,,2024-04-10,1,,,,,ジョブサポート,0
1064,4290001105336,新規,0,2024-04-10,2024-04-10,株式会社森ポンプサービス,,株式会社,福岡県,福津市,福間南２丁目３番３０号,,40,224,8113212,,,,,,,2024-04-10,1,,,,,モリポンプサービス,0
1065,4290003015137,新規,0,2024-04-10,2024-04-10,合同会社大和ビルケア,,合同会社,福岡県,福岡市博多区,比恵町１－１８トーカン福岡第２ビル６０３号,,40,132,8120014,,,,,,,2024-04-10,1,,,,,ヤマトビルケア,0
1066,4290003015153,新規,0,2024-04-10,2024-04-10,合同会社ＫＡＳＯＳＡＩＪＯ,,合同会社,福岡県,福岡市南区,那の川１丁目２２－２２,00134369,40,134,8150081,,,,,,,2024-04-10,1,,,,,カソサイジョウ,0
1069,4310003004772,新規,0,2024-04-10,2024-04-10,合同会社ジーファイブ,,合同会社,長崎県,長崎市,鍛冶屋町３番３号,,42,201,8500831,,,,,,,2024-04-10,1,,,,,ジーファイブ,0
1071,4320001020408,新規,0,2024-04-10,2024-04-10,株式会社幸建,,株式会社,大分県,大分市,城南北１丁目５番３１－２０１号マルソ城南,,44,201,8700827,,,,,,,2024-04-10,1,,,,,コウケン,0
1072,4320003004334,新規,0,2024-04-10,2024-04-10,合同会社ＳＡＶＥ,,合同会社,大分県,大分市,大字永興８７２番地の１３,,44,201,8700883,,,,,,,2024-04-10,1,,,,,セイブ,0
1073,4330001031791,新規,0,2024-04-10,2024-04-10,ＳｏｃｉａｌＳｐａｒｋ株式会社,,株式会社,熊本県,菊池郡大津町,大字引水６９４－４,,43,403,8691234,,,,,,,2024-04-10,1,,,,,ソーシャルスパーク,0
1074,4330001031940,新規,0,2024-04-10,2024-04-10,株式会社ライデン,,株式会社,熊本県,上益城郡嘉島町,大字鯰２７９８番地６,,43,442,8613101,,,,,,,2024-04-10,1,,,,,ライデン,0
1076,4360001033488,新規,0,2024-04-10,2024-04-10,株式会社８,,株式会社,沖縄県,那覇市,銘苅１丁目２番１７号,,47,201,9000004,,,,,,,2024-04-10,1,,,,,エイト,0
1077,4360001033496,新規,0,2024-04-10,2024-04-10,株式会社花月食品沖縄,,株式会社,沖縄県,中頭郡北中城村,字屋宜原７３９番地,,47,327,9012304,,,,,,,2024-04-10,1,,,,,カゲツショクヒンオキナワ,0
1086,4390001017579,新規,0,2024-04-10,2024-04-10,株式会社山正,,株式会社,山形県,天童市,大字寺津２３２番地,,06,210,9940073,,,,,,,2024-04-10,1,,,,,ヤマショウ,0
1089,4420001018672,新規,0,2024-04-10,2024-04-10,株式会社光開発,,株式会社,青森県,三沢市,東岡三沢３丁目４１番５９２テイトハウスＣ,,02,207,0330024,,,,,,,2024-04-10,1,,,,,ヒカリカイハツ,0
1093,4430001091520,新規,0,2024-04-10,2024-04-10,株式会社蓮翔建設,,株式会社,北海道,札幌市東区,北四十一条東１７丁目３番１５－１０３号,,01,103,0070841,,,,,,,2024-04-10,1,,,,,レンショウケンセツ,0
1103,4470001020129,新規,0,2024-04-10,2024-04-10,株式会社竹蔗,,株式会社,香川県,東かがわ市,引田３４６０番地,,37,207,7692901,,,,,,,2024-04-10,1,,,,,チクシャ,0
1106,4490001010747,新規,0,2024-04-10,2024-04-10,株式会社ドロニクス,,株式会社,高知県,南国市,蛍が丘１丁目１番地１南国オフィスパークセンター３０８－０６,,39,204,7830060,,,,,,,2024-04-10,1,,,,,,0
1109,4500005008694,新規,0,2024-04-10,2024-04-10,一般社団法人わ・わ・わ,,その他の設立登記法人,愛媛県,伊予郡砥部町,川井１４３３番地,,38,402,7912123,,,,,,,2024-04-10,1,,,,,ワワワ,0
1112,4700150118402,新規,0,2024-04-10,2024-04-10,コウシュウソワインターナショナルイーコマスユウゲンカイシャ,,外国会社等,,,,,,,,ｔｉａｎｈｅｑｕｊｉｎｓｕｉｌｕ１ｈａｏ１６０６ｚｈｉ３５７　ｇｕａｎｇｚｈｏｕｓｈｉ　ｇｕａｎｇｄｏｎｇｓｈｅｎｇ，Ｃｈｉｎａ,,,,,,2024-04-10,1,,,,,コウシュウソワインターナショナルイーコマスユウゲンカイシャ,0
1113,4700150124788,新規,0,2024-04-10,2024-04-10,ｙｉｎｇｋｏｕｒｕｉｃｈｅｎｍａｏｙｉｙｏｕｘｉａｎｇｏｎｇｓｉ,,外国会社等,,,,,,,,Ｒｏｏｍ　５２１－１０１，１２＃　Ｂｕｉｌｄｉｎｇ，１９－Ｈｕａｎｇｈｅ　Ｒｏａｄ，Ｍａｃｋｅｒｅｌ　Ｃｉｒｃｌｅ　Ｄｉｓｔｒｉｃｔ，Ｙｉｎｇｋｏｕ　Ｃｉｔｙ，Ｌｉａｏｎｉｎｇ　Ｐｒｏｖｉｎｃｅ,,,,,,2024-04-10,1,,,,,エイコウズイシンボウエキユウゲンコウシ,0
1114,4700150124796,新規,0,2024-04-10,2024-04-10,ＨＯＮＧ　ＫＯＮＧ　ＥＣＫＥＫ　ＴＲＡＤＩＮＧ　ＣＯ．，ＬＩＭＩＴＥＤ,,外国会社等,,,,,,,,ＲＭ４，１６／Ｆ，ＨＯ　ＫＩＮＧ　ＣＯＭＭ　ＣＴＲ，２－１６　ＦＡＹＵＥＮ　ＳＴ，ＭＯＮＧＫＯＫ　ＫＯＷＬＯＯＮ　ＨＯＮＧ　ＫＯＮＧ,,,,,,2024-04-10,1,,,,,ホンコンエッケックトレーディングコリミテツト,0
1125,5010001243831,新規,0,2024-04-10,2024-04-10,榮和国際株式会社,,株式会社,東京都,千代田区,外神田５丁目５番７号パンセ秋葉原７階,,13,101,1010021,,,,,,,2024-04-10,1,,,,,エイワコクサイ,0
1126,5010003043412,新規,0,2024-04-10,2024-04-10,Ｐｏｌａｒｉｓ合同会社,,合同会社,東京都,千代田区,一ツ橋２丁目６番３号アクシスインベストメントアドバイザーズ株式会社内,,13,101,1010003,,,,,,,2024-04-10,1,,,,,ポラリス,0
1127,5010003043420,新規,0,2024-04-10,2024-04-10,合同会社ここから,,合同会社,東京都,中央区,築地１丁目２番１－３０１号,,13,102,1040045,,,,,,,2024-04-10,1,,,,,ココカラ,0
1129,5010005038121,新規,0,2024-04-10,2024-04-10,一般社団法人プロセスメタラジー研究会,,その他の設立登記法人,東京都,文京区,弥生２丁目１１番１６号,,13,105,1130032,,,,,,,2024-04-10,1,,,,,プロセスメタラジーケンキュウカイ,0
1130,5010005038179,新規,0,2024-04-10,2024-04-10,一般社団法人スプリング３,,その他の設立登記法人,東京都,千代田区,丸の内３丁目１番１号東京共同会計事務所内,,13,101,1000005,,,,,,,2024-04-10,1,,,,,スプリングスリー,0
1133,5010401181549,新規,0,2024-04-10,2024-04-10,株式会社Ｆｉｘｓｔａｒｓ　Ｉｎｖｅｓｔｍｅｎｔ,,株式会社,東京都,港区,芝浦３丁目１番１号,,13,103,1080023,,,,,,,2024-04-10,1,,,,,フィックスターズインベストメント,0
1134,5010401181664,新規,0,2024-04-10,2024-04-10,株式会社春井,,株式会社,東京都,港区,南青山７丁目４－１,,13,103,1070062,,,,,,,2024-04-10,1,,,,,ハルイ,0
1135,5010403032270,新規,0,2024-04-10,2024-04-10,Ｊａｐａｎ　Ｋｒａｆｔ　Ｆｏｒｃｅ合同会社,,合同会社,東京都,港区,南青山２丁目２番１５号,,13,103,1070062,,,,,,,2024-04-10,1,,,,,ジャパンクラフトフォース,0
1136,5010403032337,新規,0,2024-04-10,2024-04-10,合同会社Ｉｎｆｅｒ,,合同会社,東京都,港区,西新橋２丁目３４－８－３０４,,13,103,1050003,,,,,,,2024-04-10,1,,,,,インファー,0
1137,5010501052063,新規,0,2024-04-10,2024-04-10,株式会社ＮＡＢＥＢＯＵ,,株式会社,東京都,台東区,上野６丁目１番６号御徒町グリーンハイツ１００５号,,13,106,1100005,,,,,,,2024-04-10,1,,,,,ナベボウ,0
1138,5010601064974,新規,0,2024-04-10,2024-04-10,スカイパール株式会社,,株式会社,東京都,墨田区,江東橋２丁目５番９号７Ｆ,,13,107,1300022,,,,,,,2024-04-10,1,,,,,スカイパール,0
1139,5010701045800,新規,0,2024-04-10,2024-04-10,株式会社Ｐｒｏｎｏｕｎ,,株式会社,東京都,品川区,西五反田４丁目３１－２３－３１１号,,13,109,1410031,,,,,,,2024-04-10,1,,,,,プロナウン,0
1140,5010701045809,新規,0,2024-04-10,2024-04-10,株式会社ＰＩＣ,,株式会社,東京都,品川区,中延６丁目１番２３号エクセレント・ハイツ３０５,,13,109,1420053,,,,,,,2024-04-10,1,,,,,ピーアイシー,0
1141,5010705003614,新規,0,2024-04-10,2024-04-10,一般社団法人日本訪問理美容連合会,,その他の設立登記法人,東京都,品川区,東五反田１丁目６番３号いちご東五反田ビル２Ｆ,,13,109,1410022,,,,,,,2024-04-10,1,,,,,ニホンホウモンリビヨウレンゴウカイ,0
1143,5010801034942,新規,0,2024-04-10,2024-04-10,株式会社ＹＴＭ,,株式会社,東京都,大田区,山王２丁目１番８号山王アーバンライフ７１６,,13,111,1430023,,,,,,,2024-04-10,1,,,,,ワイティーエム,0
1144,5010801034950,新規,0,2024-04-10,2024-04-10,このは株式会社,,株式会社,東京都,大田区,山王３丁目２９番１号,,13,111,1430023,,,,,,,2024-04-10,1,,,,,コノハ,0
1148,5010905004602,新規,0,2024-04-10,2024-04-10,一般社団法人世界遺産協会,,その他の設立登記法人,東京都,世田谷区,千歳台６丁目１６番３号東京テラスＧ棟４０５,,13,112,1570071,,,,,,,2024-04-10,1,,,,,セカイイサンキョウカイ,0
1152,5011001161156,新規,0,2024-04-10,2024-04-10,株式会社エンタメロード,,株式会社,東京都,渋谷区,神宮前４丁目２６番２８号２階,,13,113,1500001,,,,,,,2024-04-10,1,,,,,エンタメロード,0
1153,5011001161172,新規,0,2024-04-10,2024-04-10,株式会社Ｆｏｒｃｅ　Ｌｅｎｄｅｒ,,株式会社,東京都,渋谷区,渋谷２丁目１９－１５宮益坂ビルディング６０９,,13,113,1500002,,,,,,,2024-04-10,1,,,,,フォースレンダー,0
1154,5011001161247,新規,0,2024-04-10,2024-04-10,株式会社パスピア,,株式会社,東京都,渋谷区,神宮前６丁目２３番４号桑野ビル２階,,13,113,1500001,,,,,,,2024-04-10,1,,,,,パスピア,0
1157,5011003018874,新規,0,2024-04-10,2024-04-10,合同会社岡野工務店,,合同会社,東京都,渋谷区,神宮前６丁目２３番４号桑野ビル２階,,13,113,1500001,,,,,,,2024-04-10,1,,,,,オカノコウムテン,0
1169,5011401025984,新規,0,2024-04-10,2024-04-10,株式会社ＳＣＡＬＥ,,株式会社,東京都,板橋区,志村３丁目３１番２５号,,13,119,1740056,,,,,,,2024-04-10,1,,,,,スケール,0
1170,5011703003795,新規,0,2024-04-10,2024-04-10,ＭＲＳ合同会社,,合同会社,東京都,江戸川区,中葛西３丁目１番６－２０５号Ｒａｄｉｃｅ,,13,123,1340083,,,,,,,2024-04-10,1,,,,,エムアールエス,0
1174,5012701018182,新規,0,2024-04-10,2024-04-10,株式会社ベガ,,株式会社,東京都,東久留米市,東本町３－７－１０１,,13,222,2030014,,,,,,,2024-04-10,1,,,,,ベガ,0
1176,5013303007086,新規,0,2024-04-10,2024-04-10,ＳＵＥＲＴＥ合同会社,,合同会社,東京都,豊島区,上池袋２丁目４１番５号コーポ日新,,13,116,1700012,,,,,,,2024-04-10,1,,,,,スエルテ,0
1184,5021001081873,新規,0,2024-04-10,2024-04-10,株式会社デザインキッズ,,株式会社,神奈川県,平塚市,中原１丁目１７番１８号,,14,203,2540075,,,,,,,2024-04-10,1,,,,,デザインキッズ,0
1185,5021001081881,新規,0,2024-04-10,2024-04-10,湘南メディカル株式会社,,株式会社,神奈川県,藤沢市,本町４丁目１０番５４号,,14,205,2510053,,,,,,,2024-04-10,1,,,,,ショウナンメディカル,0
1186,5021001081915,新規,0,2024-04-10,2024-04-10,株式会社かわらいく,,株式会社,神奈川県,鎌倉市,西御門１丁目１９番,,14,204,2480004,,,,,,,2024-04-10,1,,,,,カワライク,0
1190,5021003014352,新規,0,2024-04-10,2024-04-10,ＥＤＮＡＮＩＭ　ＮＩＨＯＮ　ＳＨＯＫＡＩ合同会社,,合同会社,神奈川県,海老名市,本郷１３６８番地,,14,215,2430417,,,,,,,2024-04-10,1,,,,,エドナニムニホンショウカイ,0
1198,5030001159704,新規,0,2024-04-10,2024-04-10,ユニークプラス株式会社,,株式会社,埼玉県,蕨市,塚越５丁目３０－７,,11,223,3350002,,,,,,,2024-04-10,1,,,,,ユニークプラス,0
1201,5030005021629,新規,0,2024-04-10,2024-04-10,一般社団法人埼玉県卓球協会,,その他の設立登記法人,埼玉県,上尾市,東町３丁目１６７９番地,,11,219,3620031,,,,,,,2024-04-10,1,,,,,サイタマケンタッキュウキョウカイ,0
1206,5040001132973,新規,0,2024-04-10,2024-04-10,株式会社ＲＥＶＥＬ,,株式会社,千葉県,野田市,中野台５２０番地の５,,12,208,2780035,,,,,,,2024-04-10,1,,,,,レベル,0
1207,5040001133055,新規,0,2024-04-10,2024-04-10,株式会社ゼンホーム,,株式会社,千葉県,松戸市,松戸１２２８－１松戸ステーションビル５階,,12,207,2710092,,,,,,,2024-04-10,1,,,,,ゼンホーム,0
1211,5040003024731,新規,0,2024-04-10,2024-04-10,合同会社ＩＮＴＥＣＨ,,合同会社,千葉県,千葉市花見川区,天戸町１４１９番地１７,,12,102,2620043,,,,,,,2024-04-10,1,,,,,インテック,0
1212,5040005022353,新規,0,2024-04-10,2024-04-10,医療法人社団心栄会,,その他の設立登記法人,千葉県,浦安市,北栄１丁目２２番３３ステーションタワー浦安２階２０３号室,,12,227,2790002,,,,,,,2024-04-10,1,,,,,シンエイカイ,0
1216,5050001054606,新規,0,2024-04-10,2024-04-10,協創エンジ株式会社,,株式会社,茨城県,神栖市,奥野谷７７０４番地１,,08,232,3140116,,,,,,,2024-04-10,1,,,,,キョウソウエンジ,0
1219,5060003005028,新規,0,2024-04-10,2024-04-10,合同会社ＲＡＩＮ,,合同会社,栃木県,佐野市,越名町２０５５番地２,,09,204,3270822,,,,,,,2024-04-10,1,,,,,レイン,0
1222,5070001041619,新規,0,2024-04-10,2024-04-10,株式会社西田興業,,株式会社,群馬県,太田市,内ケ島町４０１番地２,,10,205,3730813,,,,,,,2024-04-10,1,,,,,ニシダコウギョウ,0
1223,5070003005349,新規,0,2024-04-10,2024-04-10,合同会社Ｐｒｉｍｏ　Ａｕｔｏｍｏｂｉｌｅ,,合同会社,群馬県,太田市,尾島町４７２番地２,,10,205,3700401,,,,,,,2024-04-10,1,,,,,,0
1225,5080001026239,新規,0,2024-04-10,2024-04-10,株式会社Ｌｉｂｅｒｔｅ,,株式会社,静岡県,藤枝市,志太２丁目２番２６－１号,,22,214,4260071,,,,,,,2024-04-10,1,,,,,リベルテ,0
1232,5100001037349,新規,0,2024-04-10,2024-04-10,株式会社Ｐｏｐｏｔｅｌ,,株式会社,長野県,松本市,中央１丁目２６番６号,,20,202,3900811,,,,,,,2024-04-10,1,,,,,ポポテル,0
1233,5100001037365,新規,0,2024-04-10,2024-04-10,株式会社おこめやＧＥＮ,,株式会社,長野県,上田市,野倉１３６番地１,,20,203,3861437,,,,,,,2024-04-10,1,,,,,オコメヤゲン,0
1236,5110005017081,新規,0,2024-04-10,2024-04-10,医療法人社団神田歯科医院,,その他の設立登記法人,新潟県,新潟市中央区,関屋浜松町９８番地,,15,103,9518166,,,,,,,2024-04-10,1,,,,,カンダシカイイン,0
1252,5120001263827,新規,0,2024-04-10,2024-04-10,株式会社アセットプラザ,,株式会社,大阪府,大阪市北区,豊崎３丁目１６番１６－３９１０号,,27,127,5310072,,,,,,,2024-04-10,1,,,,,アセットプラザ,0
1253,5120001263918,新規,0,2024-04-10,2024-04-10,株式会社イチネンオートス・ジャパン,,株式会社,大阪府,大阪市淀川区,西中島４丁目１０番６号,,27,123,5320011,,,,,,,2024-04-10,1,,,,,イチネンオートスジャパン,0
1254,5120001263934,新規,0,2024-04-10,2024-04-10,ＹＭＴ　ＪＡＰＡＮ株式会社,,株式会社,大阪府,大阪市中央区,船場中央３丁目２番８号,,27,128,5410055,,,,,,,2024-04-10,1,,,,,ワイエムティージャパン,0
1255,5120001263950,新規,0,2024-04-10,2024-04-10,株式会社ＴＩＭＥ　ＴＲＵＳＴ,,株式会社,大阪府,大阪市西淀川区,御幣島２丁目５番１号,,27,113,5550012,,,,,,,2024-04-10,1,,,,,タイムトラスト,0
1259,5120005024275,新規,0,2024-04-10,2024-04-10,一般社団法人御伽会,,その他の設立登記法人,大阪府,大阪市北区,西天満４丁目３番１１－９０１号,,27,127,5300047,,,,,,,2024-04-10,1,,,,,オトギカイ,0
1262,5120101069389,新規,0,2024-04-10,2024-04-10,アインスデコ株式会社,,株式会社,大阪府,阪南市,貝掛８３５番地,,27,232,5990231,,,,,,,2024-04-10,1,,,,,アインスデコ,0
1264,5120105009845,新規,0,2024-04-10,2024-04-10,一般社団法人西鳥取漁業後継者育成の会,,その他の設立登記法人,大阪府,阪南市,鳥取１１１５番地,,27,232,5990204,,,,,,,2024-04-10,1,,,,,ニシトットリギョギョウコウケイシャイクセイノカイ,0
1265,5120901049012,新規,0,2024-04-10,2024-04-10,かねこメディカルサービス株式会社,,株式会社,大阪府,箕面市,小野原東４丁目２３番３０号,,27,220,5620031,,,,,,,2024-04-10,1,,,,,カネコメディカルサービス,0
1266,5120901049020,新規,0,2024-04-10,2024-04-10,株式会社ＩＧコンサルティング,,株式会社,大阪府,高槻市,城北町１丁目５番２５号,,27,207,5690071,,,,,,,2024-04-10,1,,,,,アイジーコンサルティング,0
1270,5130001076749,新規,0,2024-04-10,2024-04-10,株式会社ＳＧホールディングス,,株式会社,京都府,京都市南区,上鳥羽馬廻町５８番地,,26,107,6018177,,,,,,,2024-04-10,1,,,,,エスジーホールディングス,0
1279,5140003020398,新規,0,2024-04-10,2024-04-10,合同会社ｂｉｓｃｕｉｔ　ｓｅｖｅｎ,,合同会社,兵庫県,川西市,満願寺町２番１８号,,28,217,6650891,,,,,,,2024-04-10,1,,,,,ビスケットセブン,0
1282,5150003003212,新規,0,2024-04-10,2024-04-10,すまいるＹＵＩ合同会社,,合同会社,奈良県,奈良市,柏木町３５５番地の４,,29,201,6308031,,,,,,,2024-04-10,1,,,,,スマイルユイ,0
1293,5180001160903,新規,0,2024-04-10,2024-04-10,株式会社マルカネエクセレンス,,株式会社,愛知県,名古屋市東区,徳川町２５０２番地,,23,102,4610023,,,,,,,2024-04-10,1,,,,,マルカネエクセレンス,0
1294,5180001160936,新規,0,2024-04-10,2024-04-10,エポックス工業株式会社,,株式会社,愛知県,名古屋市中村区,名駅４丁目２４番５号第２森ビル４０１,,23,105,4500002,,,,,,,2024-04-10,1,,,,,エポックスコウギョウ,0
1300,5180003026598,新規,0,2024-04-10,2024-04-10,藝桓合同会社,,合同会社,愛知県,北名古屋市,宇福寺長田１１１番地,,23,234,4810035,,,,,,,2024-04-10,1,,,,,ウンカン,0
1304,5210001019716,新規,0,2024-04-10,2024-04-10,株式会社ＬＶＬ,,株式会社,福井県,福井市,若杉１丁目２９２５番地,,18,201,9188055,,,,,,,2024-04-10,1,,,,,レベル,0
1308,5240001063075,新規,0,2024-04-10,2024-04-10,株式会社ウィステリア,,株式会社,広島県,福山市,瀬戸町大字地頭分３５番地７１,,34,207,7200837,,,,,,,2024-04-10,1,,,,,ウィステリア,0
1310,5240003006585,新規,0,2024-04-10,2024-04-10,合同会社ＲＩＳＥＷＯＲＫＳ,,合同会社,広島県,尾道市,因島田熊町６５４番地２,,34,205,7222324,,,,,,,2024-04-10,1,,,,,ライズワークス,0
1311,5240003006619,新規,0,2024-04-10,2024-04-10,合同会社ＭＯＮＳＨＩＮ,,合同会社,広島県,広島市南区,松原町５番２－４４１０号,,34,103,7320822,,,,,,,2024-04-10,1,,,,,モンシン,0
1316,5260001038959,新規,0,2024-04-10,2024-04-10,株式会社フルベジポ,,株式会社,岡山県,岡山市東区,瀬戸町万富２６２番地１,,33,103,7090841,,,,,,,2024-04-10,1,,,,,フルベジポ,0
1324,5290001105335,新規,0,2024-04-10,2024-04-10,株式会社ＡＵＴＯ　ＰＡＲＬＯＲ,,株式会社,福岡県,朝倉市,中原４６２番地１,,40,228,8380056,,,,,,,2024-04-10,1,,,,,オートパーラー,0
1325,5290001105392,新規,0,2024-04-10,2024-04-10,株式会社ファレノホームズ,,株式会社,福岡県,福岡市南区,老司１丁目３４番９号,,40,134,8111346,,,,,,,2024-04-10,1,,,,,ファレノホームズ,0
1326,5290801030484,新規,0,2024-04-10,2024-04-10,株式会社ＨＡＮＡＤＡ,,株式会社,福岡県,北九州市八幡西区,筒井町８番１４号,,40,109,8060032,,,,,,,2024-04-10,1,,,,,ハナダ,0
1328,5290803004684,新規,0,2024-04-10,2024-04-10,合同会社Ｋａ　Ｐｉｌｉｎａ,,合同会社,福岡県,北九州市小倉南区,守恒本町１丁目４番１２号１階,,40,107,8020971,,,,,,,2024-04-10,1,,,,,カピリナ,0
1331,5310001018955,新規,0,2024-04-10,2024-04-10,マリオと友人たち株式会社,,株式会社,長崎県,長崎市,小浦町６６番地１－４０３,,42,201,8500067,,,,,,,2024-04-10,1,,,,,マリオトユウジンタチ,0
1335,5320001020398,新規,0,2024-04-10,2024-04-10,株式会社Ｂｅａｕｔｙ　Ｄｒ．ＨＡＬ,,株式会社,大分県,速見郡日出町,２３０番地１,,44,341,8791506,,,,,,,2024-04-10,1,,,,,ビューティドクターハル,0
1336,5320001020407,新規,0,2024-04-10,2024-04-10,株式会社Ｌｉｈａａｔ　Ｆｏｏｄｓ,,株式会社,大分県,別府市,照波園町６番５１－３号,,44,202,8740031,,,,,,,2024-04-10,1,,,,,リハートフーヅ,0
1339,5320005010148,新規,0,2024-04-10,2024-04-10,一般社団法人たすき,,その他の設立登記法人,大分県,大分市,府内町２丁目２番１号名店ビル４０４号室,,44,201,8700021,,,,,,,2024-04-10,1,,,,,タスキ,0
1346,5370001051166,新規,0,2024-04-10,2024-04-10,株式会社ＢＬエアコン工事,,株式会社,宮城県,名取市,愛の杜２丁目１４番地の１１,,04,207,9811230,,,,,,,2024-04-10,1,,,,,ビーエルエアコンコウジ,0
1348,5390001017578,新規,0,2024-04-10,2024-04-10,株式会社ｉｆ,,株式会社,山形県,山形市,長町１丁目１０番１２号,,06,201,9900811,,,,,,,2024-04-10,1,,,,,イフ,0
1352,5430001091478,新規,0,2024-04-10,2024-04-10,株式会社エアサキ,,株式会社,北海道,札幌市中央区,南九条西６丁目２番１８－１０５号,,01,101,0640809,,,,,,,2024-04-10,1,,,,,エアサキ,0
1353,5430001091536,新規,0,2024-04-10,2024-04-10,株式会社ＨＯＰＥ,,株式会社,北海道,小樽市,桂岡町２４番４３号,,01,203,0470264,,,,,,,2024-04-10,1,,,,,ホープ,0
1354,5430001091560,新規,0,2024-04-10,2024-04-10,株式会社牧野造園,,株式会社,北海道,札幌市清田区,北野六条３丁目１番２５号アイリスガーデン１０３号,,01,110,0040866,,,,,,,2024-04-10,1,,,,,マキノゾウエン,0
1357,5430003016210,新規,0,2024-04-10,2024-04-10,ミヤＤＥＮ合同会社,,合同会社,北海道,札幌市東区,北四十七条東３丁目２番５号,,01,103,0070847,,,,,,,2024-04-10,1,,,,,ミヤデン,0
1361,5450003002464,新規,0,2024-04-10,2024-04-10,合同会社名和左官工務店,,合同会社,北海道,枝幸郡枝幸町,幸町８５１番地３８,,01,514,0985805,,,,,,,2024-04-10,1,,,,,ナワサカンコウムテン,0
1365,5480001012438,新規,0,2024-04-10,2024-04-10,株式会社いせや農場福祉のさと,,株式会社,徳島県,鳴門市,大麻町東馬詰字壱番越１２番地,,36,202,7790312,,,,,,,2024-04-10,1,,,,,イセヤノウジョウフクシノサト,0
1373,5700150124795,新規,0,2024-04-10,2024-04-10,ｈｅｆｅｉ　ｄａｏ　ｙｉ　ｗｅｉ　ｓｈｅｎｇ　ｙｏｎｇ　ｐｉｎ　ｙｏｕ　ｘｉａｎ　ｇｏｎｇ　ｓｉ,,外国会社等,,,,,,,,ｘｉａｏ　ｍｉａｏ　ｚｈｅｎ　ｇｏｎｇ　ｙｅ　ｊｕ　ｊｉ　ｑｕ　ｘｉａｎｇ　ｙｉ　ｌｕ　ｈｅ　ｆｅｉ　ｓｈｉ　ｓｈｕ　ｓｈａｎ　ｑｕ　ａｎ　ｈｕｉ　ｓｈｅｎｇ　２３００８１　ＣＮ,,,,,,2024-04-10,1,,,,,ホーフェイダオイーウェイションヨンピンヨウシエンゴンスー,0
1392,6010001243839,新規,0,2024-04-10,2024-04-10,株式会社カオスホールディングス,,株式会社,東京都,文京区,湯島２丁目３１番１８号,,13,105,1130034,,,,,,,2024-04-10,1,,,,,カオスホールディングス,0
1394,6010003043411,新規,0,2024-04-10,2024-04-10,梅子西合同会社,,合同会社,東京都,中央区,日本橋富沢町１６番９号名門ビル２Ｆ,,13,102,1030006,,,,,,,2024-04-10,1,,,,,ウメシコ,0
1396,6010005038120,新規,0,2024-04-10,2024-04-10,一般社団法人日本精子協会,,その他の設立登記法人,東京都,中央区,銀座１丁目１２番４号Ｎ＆Ｅ・ＢＬＤ．６Ｆ,,13,102,1040061,,,,,,,2024-04-10,1,,,,,ニホンセイシキョウカイ,0
1400,6010403032344,新規,0,2024-04-10,2024-04-10,合同会社ＨＡＨＤＲＬ,,合同会社,東京都,港区,南青山３丁目１番３６号青山丸竹ビル６Ｆ,,13,103,1070062,,,,,,,2024-04-10,1,,,,,ハードル,0
1402,6010501052038,新規,0,2024-04-10,2024-04-10,株式会社笛吹興業,,株式会社,東京都,台東区,寿４丁目１３番１１号,,13,106,1110042,,,,,,,2024-04-10,1,,,,,ウスイコウギョウ,0
1408,6010701045790,新規,0,2024-04-10,2024-04-10,株式会社グローヘッド,,株式会社,東京都,品川区,西五反田８丁目３番１３号,,13,109,1410031,,,,,,,2024-04-10,1,,,,,グローヘッド,0
1409,6010801034933,新規,0,2024-04-10,2024-04-10,シントランスポート株式会社,,株式会社,東京都,大田区,大森西１丁目１７－１８－２０６,,13,111,1430015,,,,,,,2024-04-10,1,,,,,シントランスポート,0
1418,6011001161007,新規,0,2024-04-10,2024-04-10,株式会社ｉｍａｋｏ,,株式会社,東京都,渋谷区,神泉町１０番１５号アネックス神泉３０１,,13,113,1500045,,,,,,,2024-04-10,1,,,,,イマコ,0
1419,6011001161171,新規,0,2024-04-10,2024-04-10,ＣＯＳＴＡＲ　ＤＩＧＩＴＡＬ株式会社,,株式会社,東京都,渋谷区,道玄坂１丁目１０番８号渋谷道玄坂東急ビル２Ｆ－Ｃ,,13,113,1500043,,,,,,,2024-04-10,1,,,,,コースターデジタル,0
1426,6011105011000,新規,0,2024-04-10,2024-04-10,ナイトプリンセスガーディアンＮＰＯ法人,,その他の設立登記法人,東京都,新宿区,歌舞伎町１丁目１番１５号東信同和ビル８０３,,13,104,1600021,,,,,,,2024-04-10,1,,,,,ナイトプリンセスガーディアン,0
1427,6011201025390,新規,0,2024-04-10,2024-04-10,株式会社Ｄ１Ｍ,,株式会社,東京都,中野区,大和町４丁目５０－７,,13,114,1650034,,,,,,,2024-04-10,1,,,,,ディーワンエム,0
1433,6011601027672,新規,0,2024-04-10,2024-04-10,株式会社ニタカフーズ,,株式会社,東京都,練馬区,南田中３丁目２８－１２,,13,120,1770035,,,,,,,2024-04-10,1,,,,,ニタカフーズ,0
1435,6011701027168,新規,0,2024-04-10,2024-04-10,ＳＨＯＪＩ株式会社,,株式会社,東京都,江戸川区,北葛西２丁目１１番２１号,,13,123,1340081,,,,,,,2024-04-10,1,,,,,ショウジ,0
1436,6011801044039,新規,0,2024-04-10,2024-04-10,株式会社ｅｖｅｒｙ,,株式会社,東京都,足立区,千住柳町１６番１３号,,13,121,1200032,,,,,,,2024-04-10,1,,,,,エブリイ,0
1441,6012303001973,新規,0,2024-04-10,2024-04-10,合同会社カルム,,合同会社,東京都,町田市,相原町１６８２番地１,,13,209,1940211,,,,,,,2024-04-10,1,,,,,カルム,0
1449,6012803003362,新規,0,2024-04-10,2024-04-10,合同会社ＲＩＳＥ,,合同会社,東京都,国立市,中２丁目１８番地の４３アズール大学通り１０３,,13,215,1860004,,,,,,,2024-04-10,1,,,,,ライズ,0
1455,6013301052331,新規,0,2024-04-10,2024-04-10,株式会社シーリック,,株式会社,東京都,豊島区,東池袋１丁目１７番１１号パークハイツ池袋１１０５号,,13,116,1700013,,,,,,,2024-04-10,1,,,,,シーリック,0
1456,6013303007085,新規,0,2024-04-10,2024-04-10,合同会社ＦＰ,,合同会社,東京都,豊島区,南大塚３丁目４５番７号,,13,116,1700005,,,,,,,2024-04-10,1,,,,,エフピー,0
1460,6020001155810,新規,0,2024-04-10,2024-04-10,株式会社エッタラジェンダ,,株式会社,神奈川県,横浜市西区,北幸２丁目１０番４８号むつみビル３階,,14,103,2200004,,,,,,,2024-04-10,1,,,,,エッタラジェンダ,0
1461,6020001156569,新規,0,2024-04-10,2024-04-10,株式会社ハートフルダイニング,,株式会社,神奈川県,横浜市西区,みなとみらい２丁目２番１号ランドマークタワー１２階,,14,103,2200012,,,,,,,2024-04-10,1,,,,,ハートフルダイニング,0
1462,6020001156635,新規,0,2024-04-10,2024-04-10,株式会社ＳＴＥ,,株式会社,神奈川県,横浜市保土ケ谷区,桜ケ丘１丁目１７番６号,,14,106,2400011,,,,,,,2024-04-10,1,,,,,エスティーイー,0
1466,6020003025929,新規,0,2024-04-10,2024-04-10,合同会社パドマ,,合同会社,神奈川県,横浜市港南区,笹下６丁目２２番６号,,14,111,2340052,,,,,,,2024-04-10,1,,,,,パドマ,0
1470,6021001081872,新規,0,2024-04-10,2024-04-10,株式会社Ｌｉｌｙ,,株式会社,神奈川県,伊勢原市,桜台２丁目１３番８号ルミナス・ネロ１０４,,14,214,2591132,,,,,,,2024-04-10,1,,,,,リリー,0
1471,6021005013062,新規,0,2024-04-10,2024-04-10,特定非営利活動法人さがみはら地球温暖化対策協議会,,その他の設立登記法人,神奈川県,相模原市中央区,富士見１丁目３番４１号相模原市立環境情報センター内,,14,152,2520236,,,,,,,2024-04-10,1,,,,,サガミハラチキュウオンダンカタイサクキョウギカイ,0
1474,6030001159711,新規,0,2024-04-10,2024-04-10,株式会社ウエダ,,株式会社,埼玉県,入間市,大字野田１００番地１コーポＫ＆Ｔ２０１,,11,225,3580054,,,,,,,2024-04-10,1,,,,,ウエダ,0
1475,6030001159736,新規,0,2024-04-10,2024-04-10,株式会社ＫＡＲＡＨＡＮ,,株式会社,埼玉県,川口市,大字木曽呂３６９－１サンシティＡ２０２,,11,203,3330831,,,,,,,2024-04-10,1,,,,,カラハン,0
1478,6030003023972,新規,0,2024-04-10,2024-04-10,合同会社ＭＡ　ＴＲＡＤＩＮＧ,,合同会社,埼玉県,さいたま市緑区,大字代山８７９－１０１,,11,109,3360975,,,,,,,2024-04-10,1,,,,,エムエートレーディング,0
1490,6040003024730,新規,0,2024-04-10,2024-04-10,ＦＵＪＩ‐ＯＮＥ合同会社,,合同会社,千葉県,富津市,西川６２８番地,,12,226,2930013,,,,,,,2024-04-10,1,,,,,フジワン,0
1493,6050001054588,新規,0,2024-04-10,2024-04-10,松崎建設ホールディングス株式会社,,株式会社,茨城県,潮来市,牛堀１７１番地の１,,08,223,3112436,,,,,,,2024-04-10,1,,,,,マツザキケンセツホールディングス,0
1494,6050001054605,新規,0,2024-04-10,2024-04-10,株式会社穂積,,株式会社,茨城県,結城市,大字結城６７７３番地８,,08,207,3070001,,,,,,,2024-04-10,1,,,,,ホズミ,0
1501,6070001041618,新規,0,2024-04-10,2024-04-10,株式会社ＰＡＲＡＤＩＳＥ,,株式会社,群馬県,伊勢崎市,堤下町１４番地１,,10,204,3720004,,,,,,,2024-04-10,1,,,,,パラダイス,0
1502,6070003005356,新規,0,2024-04-10,2024-04-10,ＣＯＳＭＯＳ合同会社,,合同会社,群馬県,邑楽郡大泉町,仙石１丁目３番１号,,10,524,3700533,,,,,,,2024-04-10,1,,,,,コスモス,0
1505,6080001026238,新規,0,2024-04-10,2024-04-10,株式会社結建,,株式会社,静岡県,静岡市駿河区,高松１丁目１１番１号,,22,102,4228034,,,,,,,2024-04-10,1,,,,,ユイケン,0
1512,6100003007480,新規,0,2024-04-10,2024-04-10,Ｋ‐ＦＡＣＴＯＲＹ合同会社,,合同会社,長野県,長野市,大字大豆島５８９９番地１,,20,201,3810022,,,,,,,2024-04-10,1,,,,,ケイファクトリー,0
1514,6100005013155,新規,0,2024-04-10,2024-04-10,医療法人川原医院,,その他の設立登記法人,長野県,松本市,大字寿豊丘６３６番地１,,20,202,3990021,,,,,,,2024-04-10,1,,,,,カワハライイン,0
1515,6110001038329,新規,0,2024-04-10,2024-04-10,株式会社２ＬＦ　ＢＥＥＲ,,株式会社,新潟県,新潟市南区,西白根２６９番地ＡＧＡＳＡ・ＳＥＮＮＩＣＨＩ・Ｈ号棟,,15,106,9501262,,,,,,,2024-04-10,1,,,,,ツーエルエフビア,0
1523,6120001263925,新規,0,2024-04-10,2024-04-10,こころ‐ね株式会社,,株式会社,大阪府,大阪市住之江区,御崎５丁目１８番２０号,,27,125,5590013,,,,,,,2024-04-10,1,,,,,,0
1524,6120001263933,新規,0,2024-04-10,2024-04-10,株式会社ナビジャパン,,株式会社,大阪府,大阪市中央区,瓦町４丁目４番３号Ｆ・ＭＢｕｉｌｄｉｎｇ２階,,27,128,5410048,,,,,,,2024-04-10,1,,,,,ナビジャパン,0
1526,6120003026289,新規,0,2024-04-10,2024-04-10,合同会社ｎｅｗｍｕ,,合同会社,大阪府,大阪市北区,本庄西１丁目１－７－１１１３,,27,127,5310073,,,,,,,2024-04-10,1,,,,,ニューム,0
1527,6120005024274,新規,0,2024-04-10,2024-04-10,一般社団法人春風会,,その他の設立登記法人,大阪府,大阪市淀川区,西中島４丁目１３番１１号,,27,123,5320011,,,,,,,2024-04-10,1,,,,,シュンプウカイ,0
1533,6120101069396,新規,0,2024-04-10,2024-04-10,福美株式会社,,株式会社,大阪府,泉北郡忠岡町,忠岡東２丁目２４番２７号,,27,341,5950805,,,,,,,2024-04-10,1,,,,,フクヨシ,0
1535,6120103005746,新規,0,2024-04-10,2024-04-10,日盛合同会社,,合同会社,大阪府,岸和田市,天神山町２丁目９－６－１０６室,,27,202,5960834,,,,,,,2024-04-10,1,,,,,ニッセイ,0
1537,6122001037986,新規,0,2024-04-10,2024-04-10,そら豆株式会社,,株式会社,大阪府,大東市,南津の辺町２３番３５号－１２０１,,27,218,5740016,,,,,,,2024-04-10,1,,,,,ソラマメ,0
1544,6140001134018,新規,0,2024-04-10,2024-04-10,株式会社リルム,,株式会社,兵庫県,芦屋市,船戸町５番２６号,,28,206,6590093,,,,,,,2024-04-10,1,,,,,リルム,0
1550,6160001025818,新規,0,2024-04-10,2024-04-10,株式会社エボルヴ,,株式会社,滋賀県,草津市,矢倉２丁目８番５２号,,25,206,5250053,,,,,,,2024-04-10,1,,,,,エボルヴ,0
1554,6180001160852,新規,0,2024-04-10,2024-04-10,田中建設株式会社,,株式会社,愛知県,名古屋市昭和区,川名本町４丁目３番地の１２,,23,107,4660855,,,,,,,2024-04-10,1,,,,,タナカケンセツ,0
1555,6180001160860,新規,0,2024-04-10,2024-04-10,株式会社ホリコーポレーション,,株式会社,愛知県,名古屋市東区,徳川町１２１７番地,,23,102,4610023,,,,,,,2024-04-10,1,,,,,ホリコーポレーション,0
1556,6180001161041,新規,0,2024-04-10,2024-04-10,株式会社Ｆｌｏｕｒｉｓｈ,,株式会社,愛知県,愛知郡東郷町,春木台１丁目１４番地２１,,23,302,4700161,,,,,,,2024-04-10,1,,,,,フルーリッシュ,0
1560,6180305009564,新規,0,2024-04-10,2024-04-10,一般社団法人甘豊会,,その他の設立登記法人,愛知県,豊橋市,西小池町２３番地,,23,201,4418048,,,,,,,2024-04-10,1,,,,,カンポウカイ,0
1563,6190003004643,新規,0,2024-04-10,2024-04-10,稀生糸合同会社,,合同会社,三重県,鈴鹿市,岸岡町３４６７番地,,24,207,5100226,,,,,,,2024-04-10,1,,,,,キイト,0
1564,6210001019707,新規,0,2024-04-10,2024-04-10,株式会社ＢＬＦ,,株式会社,福井県,福井市,手寄１丁目６－１７カトオテヨセビル７０３,,18,201,9100858,,,,,,,2024-04-10,1,,,,,ビーエルエフ,0
1570,6240001063074,新規,0,2024-04-10,2024-04-10,株式会社８,,株式会社,広島県,広島市中区,光南５丁目１番６１－６０５号,,34,101,7300825,,,,,,,2024-04-10,1,,,,,エイト,0
1576,6240003006618,新規,0,2024-04-10,2024-04-10,合同会社Ｈ＆Ａ‐ＪＭ,,合同会社,広島県,広島市西区,井口明神３丁目１３番１４号,,34,104,7330841,,,,,,,2024-04-10,1,,,,,エイチアンドエイハイフンジェイエム,0
1582,6260003004644,新規,0,2024-04-10,2024-04-10,合同会社ぴーす,,合同会社,岡山県,岡山市北区,岡南町２丁目１番５号３階,,33,101,7000866,,,,,,,2024-04-10,1,,,,,ピース,0
1586,6290001105334,新規,0,2024-04-10,2024-04-10,株式会社ＷＩＳＥ６,,株式会社,福岡県,福岡市南区,弥永５丁目１８番５－１０３号,,40,134,8111323,,,,,,,2024-04-10,1,,,,,ワイズシックス,0
1587,6290005019373,新規,0,2024-04-10,2024-04-10,医療法人いさよし,,その他の設立登記法人,福岡県,大野城市,東大利３丁目１１－２８,,40,219,8160941,,,,,,,2024-04-10,1,,,,,イサヨシ,0
1589,6300001013667,新規,0,2024-04-10,2024-04-10,株式会社ＲＭＫ,,株式会社,佐賀県,佐賀市,久保泉町大字下和泉２３８番地１,,41,201,8490903,,,,,,,2024-04-10,1,,,,,アールエムケー,0
1592,6310001018954,新規,0,2024-04-10,2024-04-10,茂源株式会社,,株式会社,長崎県,長崎市,小浦町６６番地１－５０３,,42,201,8500067,,,,,,,2024-04-10,1,,,,,モゲン,0
1593,6320001020406,新規,0,2024-04-10,2024-04-10,株式会社ＭＫＪ,,株式会社,大分県,別府市,大字鶴見４５４６番地の３５８,,44,202,8740840,,,,,,,2024-04-10,1,,,,,エムケイジエイ,0
1594,6320003004332,新規,0,2024-04-10,2024-04-10,スルタンバザール合同会社,,合同会社,大分県,由布市,湯布院町川上１５２４番地２,,44,213,8795102,,,,,,,2024-04-10,1,,,,,スルタンバザール,0
1595,6320005010147,新規,0,2024-04-10,2024-04-10,一般社団法人ひとまちＯｉｔａ,,その他の設立登記法人,大分県,別府市,山の手町１５番３７号グランデ山の手５０３号,,44,202,8740828,,,,,,,2024-04-10,1,,,,,ヒトマチオオイタ,0
1598,6330001031930,新規,0,2024-04-10,2024-04-10,ドボアス株式会社,,株式会社,熊本県,熊本市中央区,水前寺１丁目２９番４号,,43,101,8620950,,,,,,,2024-04-10,1,,,,,ドボアス,0
1607,6360001033494,新規,0,2024-04-10,2024-04-10,株式会社三方よし,,株式会社,沖縄県,那覇市,天久２丁目１２番１９号カリテイ天久１０２,,47,201,9000005,,,,,,,2024-04-10,1,,,,,サンポウヨシ,0
1611,6370003006563,新規,0,2024-04-10,2024-04-10,凜合同会社,,合同会社,宮城県,栗原市,志波姫刈敷蔵場８３番地２,,04,213,9895601,,,,,,,2024-04-10,1,,,,,リン,0
1613,6390003002222,新規,0,2024-04-10,2024-04-10,合同会社オフィスヒロ,,合同会社,山形県,酒田市,若竹町１丁目９番２２号,,06,204,9980834,,,,,,,2024-04-10,1,,,,,オフィスヒロ,0
1617,6410001013805,新規,0,2024-04-10,2024-04-10,株式会社ミライ医療研究所,,株式会社,秋田県,横手市,平鹿町浅舞字後野１４８番地,,05,203,0130105,,,,,,,2024-04-10,1,,,,,ミライイリョウケンキュウジョ,0
1625,6430001091519,新規,0,2024-04-10,2024-04-10,株式会社海野鋼建,,株式会社,北海道,札幌市北区,篠路一条７丁目１２番５号,,01,102,0028021,,,,,,,2024-04-10,1,,,,,ウミノコウケン,0
1629,6450001014270,新規,0,2024-04-10,2024-04-10,株式会社エスティワーク,,株式会社,北海道,旭川市,台場二条２丁目４番５号,,01,204,0708072,,,,,,,2024-04-10,1,,,,,エスティワーク,0
1637,6480001012437,新規,0,2024-04-10,2024-04-10,ＳＩＮ‐ＨＯＵＳＥ株式会社,,株式会社,徳島県,板野郡藍住町,徳命字前須東８番地１,,36,403,7711212,,,,,,,2024-04-10,1,,,,,シンハウス,0
1638,6480003002114,新規,0,2024-04-10,2024-04-10,Ｈ＆Ｍ合同会社,,合同会社,徳島県,小松島市,櫛渕町字久友２２９番地,,36,203,7730018,,,,,,,2024-04-10,1,,,,,エイチアンドエム,0
1644,6500003003217,新規,0,2024-04-10,2024-04-10,合同会社メタルキング,,合同会社,愛媛県,新居浜市,下泉町１丁目１１番３８号,,38,205,7920813,,,,,,,2024-04-10,1,,,,,メタルキング,0
1647,6700150124794,新規,0,2024-04-10,2024-04-10,Ｎｅｕｔｏｐ　Ｔｅｃｈｎｏｌｏｇｙ（Ｓｈｅｎｚｈｅｎ）Ｃｏ．，Ｌｔｄ,,外国会社等,,,,,,,,Ｒｏｏｍ　３１８，Ｂｕｉｌｄｉｎｇ　２，Ｓｈａｎｇｈｅｎｇｌａｎｇ　Ｎｅｗ　Ｉｎｄｕｓｔｒｉａｌ　Ｚｏｎｅ，Ｈｅｎｇｌａｎｇ　Ｃｏｍｍｕｎｉｔｙ，Ｄａｌａｎｇ　Ｓｔｒｅｅｔ，Ｌｏｎｇｈｕａ　Ｄｉｓｔｒｉｃｔ，Ｓｈｅｎｚｈｅｎ，Ｇｕａｎｇｄｏｎｇ，Ｃｈｉｎａ．,,,,,,2024-04-10,1,,,,,シントゥオコージーシェンジェンヨウシエンゴンスー,0
1656,7010001243607,新規,0,2024-04-10,2024-04-10,ＮＹＣ　Ｗｅａｌｔｈ　Ｍａｎａｇｅｍｅｎｔ株式会社,,株式会社,東京都,中央区,新川１丁目６番１１号,,13,102,1040033,,,,,,,2024-04-10,1,,,,,エヌワイシーウェルスマネジメント,0
1657,7010001243821,新規,0,2024-04-10,2024-04-10,株式会社金龍宝,,株式会社,東京都,文京区,本郷４丁目１６番６号天翔オフィス後楽園７０６－Ｅ,,13,105,1130033,,,,,,,2024-04-10,1,,,,,キンリュウホウ,0
1658,7010001243854,新規,0,2024-04-10,2024-04-10,ＳＡＴＮ株式会社,,株式会社,東京都,千代田区,神田司町２丁目１５－１パレヤソジマ４０３号室,,13,101,1010048,,,,,,,2024-04-10,1,,,,,サターン,0
1660,7010003043427,新規,0,2024-04-10,2024-04-10,合同会社Ｆｏｒｅｓｔ,,合同会社,東京都,千代田区,外神田４丁目９番７－６０６号,,13,101,1010021,,,,,,,2024-04-10,1,,,,,フォレスト,0
1663,7010005038144,新規,0,2024-04-10,2024-04-10,一般社団法人Ｈ２Ｏ,,その他の設立登記法人,東京都,千代田区,麹町２丁目１番地ＰＭＯ半蔵門ビル２Ｆ,,13,101,1020083,,,,,,,2024-04-10,1,,,,,エイチツーオー,0
1664,7010105002256,新規,0,2024-04-10,2024-04-10,特定非営利活動法人笹の葉,,その他の設立登記法人,東京都,八王子市,片倉町１２０番地１４リバーサイドカタクリ２０３号,,13,201,1920914,,,,,,,2024-04-10,1,,,,,ササノハ,0
1671,7010401181547,新規,0,2024-04-10,2024-04-10,清泉ホールディングス株式会社,,株式会社,東京都,港区,西新橋１丁目１２番８号,,13,103,1050003,,,,,,,2024-04-10,1,,,,,セイセンホールディングス,0
1672,7010401181588,新規,0,2024-04-10,2024-04-10,新竹物流株式会社,,株式会社,東京都,港区,赤坂２丁目８番１４－５０４号,,13,103,1070052,,,,,,,2024-04-10,1,,,,,シンチクブツリュウ,0
1673,7010401181646,新規,0,2024-04-10,2024-04-10,株式会社スターネットインサイト,,株式会社,東京都,港区,芝浦３丁目７番１３号エスパース田町アネックス８０２号,,13,103,1080023,,,,,,,2024-04-10,1,,,,,スターネットインサイト,0
1675,7010403032376,新規,0,2024-04-10,2024-04-10,ｓｏｓｅｋｉ合同会社,,合同会社,東京都,港区,北青山１丁目３番１号アールキューブ青山３階,,13,103,1070061,,,,,,,2024-04-10,1,,,,,ソセキ,0
1677,7010501052037,新規,0,2024-04-10,2024-04-10,株式会社オンダホールディングス,,株式会社,東京都,台東区,浅草橋１丁目１８番１０号,,13,106,1110053,,,,,,,2024-04-10,1,,,,,オンダホールディングス,0
1678,7010501052086,新規,0,2024-04-10,2024-04-10,株式会社シーム,,株式会社,東京都,台東区,北上野１丁目１５番５号カスタリア北上野７０６,,13,106,1100014,,,,,,,2024-04-10,1,,,,,シーム,0
1693,7010901055036,新規,0,2024-04-10,2024-04-10,株式会社ＯＮｅｓｔｙ,,株式会社,東京都,世田谷区,玉川３丁目２０番２号マノア玉川第３ビル５０１号室,,13,112,1580094,,,,,,,2024-04-10,1,,,,,オネスティー,0
1694,7010901055044,新規,0,2024-04-10,2024-04-10,株式会社ウルトラクリエイティブ,,株式会社,東京都,世田谷区,代沢２丁目２５－１３,,13,112,1550032,,,,,,,2024-04-10,1,,,,,ウルトラクリエイティブ,0
1703,7011001161170,新規,0,2024-04-10,2024-04-10,株式会社ラムコード,,株式会社,東京都,渋谷区,恵比寿西２丁目８番４号ＥＸ恵比寿西ビル５階,,13,113,1500021,,,,,,,2024-04-10,1,,,,,ラムコード,0
1710,7011401025982,新規,0,2024-04-10,2024-04-10,丸麦株式会社,,株式会社,東京都,板橋区,大谷口上町４１番２ハウス茜４０１号室,,13,119,1730032,,,,,,,2024-04-10,1,,,,,マルムギ,0
1711,7011401025990,新規,0,2024-04-10,2024-04-10,株式会社ＰｆＰ,,株式会社,東京都,板橋区,大谷口北町３２番１号コンチネンタルハイツ医学部前１０１,,13,119,1730031,,,,,,,2024-04-10,1,,,,,ピーエフピー,0
1718,7011503006014,新規,0,2024-04-10,2024-04-10,ニルマラ・インターナショナル合同会社,,合同会社,東京都,荒川区,西日暮里６丁目３０番５－２０１号コーポ栗田,,13,118,1160013,,,,,,,2024-04-10,1,,,,,,0
1720,7011603004297,新規,0,2024-04-10,2024-04-10,合同会社杉本測量,,合同会社,東京都,練馬区,錦１丁目１９番２０号,,13,120,1790082,,,,,,,2024-04-10,1,,,,,スギモトソクリョウ,0
1727,7012403006491,新規,0,2024-04-10,2024-04-10,合同会社ＭＯＲＩ,,合同会社,東京都,武蔵野市,吉祥寺南町１丁目２８番１０号,,13,203,1800003,,,,,,,2024-04-10,1,,,,,モリ,0
1735,7013301052314,新規,0,2024-04-10,2024-04-10,株式会社ＳＡＫＩ,,株式会社,東京都,豊島区,池袋２丁目３６番１号ＩｎｆｉｎｉｔｙＩｋｅｂｕｋｕｒｏ６階,,13,116,1710014,,,,,,,2024-04-10,1,,,,,サキ,0
1736,7013301052330,新規,0,2024-04-10,2024-04-10,株式会社芹澤カンパニー,,株式会社,東京都,豊島区,池袋２丁目３０番２号,,13,116,1710014,,,,,,,2024-04-10,1,,,,,セリザワカンパニー,0
1737,7013303007084,新規,0,2024-04-10,2024-04-10,ＨＯＡＮＧ　ＨＡＩ　ＭＯＢＩＬＥ合同会社,,合同会社,東京都,豊島区,北大塚２丁目２９－５大塚ダイカンプラザ２０６号,,13,116,1700004,,,,,,,2024-04-10,1,,,,,ホアンハイモバイル,0
1746,7020001156634,新規,0,2024-04-10,2024-04-10,株式会社Ｓ．,,株式会社,神奈川県,横浜市西区,北幸２丁目１０番４８号むつみビル３階,,14,103,2200004,,,,,,,2024-04-10,1,,,,,エスドット,0
1747,7020003025754,新規,0,2024-04-10,2024-04-10,合同会社Ｒａｖｅｎｓ,,合同会社,神奈川県,横浜市港北区,日吉２丁目６番地１８号,,14,109,2230061,,,,,,,2024-04-10,1,,,,,レイブンズ,0
1748,7020003025903,新規,0,2024-04-10,2024-04-10,合同会社アルテア,,合同会社,神奈川県,川崎市宮前区,宮前平１丁目２番地２４ラ・ペーシュ宮崎台２０４,,14,136,2160006,,,,,,,2024-04-10,1,,,,,アルテア,0
1766,7030001159685,新規,0,2024-04-10,2024-04-10,株式会社Ｎｅｇｉｍａｆａｒｍ,,株式会社,埼玉県,上尾市,平塚２丁目１９０番地１,,11,219,3620011,,,,,,,2024-04-10,1,,,,,ネギマファーム,0
1767,7030001159719,新規,0,2024-04-10,2024-04-10,ＭＪリンク株式会社,,株式会社,埼玉県,さいたま市南区,別所７丁目２１－１プラウドタワー武蔵浦和マークス２００１,,11,108,3360021,,,,,,,2024-04-10,1,,,,,エムジェイリンク,0
1772,7030003023988,新規,0,2024-04-10,2024-04-10,合同会社Ｅｌｅｍｅｎｔ,,合同会社,埼玉県,羽生市,大字須影１１４４番地３,,11,216,3480033,,,,,,,2024-04-10,1,,,,,エレメント,0
1773,7030003024029,新規,0,2024-04-10,2024-04-10,合同会社ＩＣ．Ｆａｃｔｏｒｙ,,合同会社,埼玉県,入間市,大字新光３０６番地８４９,,11,225,3580055,,,,,,,2024-04-10,1,,,,,アイシーファクトリー,0
1774,7030003024037,新規,0,2024-04-10,2024-04-10,合同会社Ｈｏｌｏｍｕａ,,合同会社,埼玉県,鶴ヶ島市,大字五味ヶ谷２５２番地４０,,11,241,3502202,,,,,,,2024-04-10,1,,,,,ホロムア,0
1775,7030003024061,新規,0,2024-04-10,2024-04-10,合同会社ＣＴＳ,,合同会社,埼玉県,さいたま市大宮区,桜木町２丁目３大宮マルイ７階,,11,103,3300854,,,,,,,2024-04-10,1,,,,,シーティーエス,0
1777,7030005021635,新規,0,2024-04-10,2024-04-10,行政書士法人アイレクス,,その他の設立登記法人,埼玉県,川越市,大字今福２７７６番地２,,11,201,3501151,,,,,,,2024-04-10,1,,,,,アイレクス,0
1786,7040001132930,新規,0,2024-04-10,2024-04-10,株式会社ＳＫ,,株式会社,千葉県,柏市,豊四季２６０,,12,217,2770863,,,,,,,2024-04-10,1,,,,,エスケー,0
1787,7040001133045,新規,0,2024-04-10,2024-04-10,ＱＵＥＥＮ　Ｒｏｓｅ株式会社,,株式会社,千葉県,流山市,三輪野山２丁目７－３１,,12,220,2700175,,,,,,,2024-04-10,1,,,,,クイーンローズ,0
1788,7040001133086,新規,0,2024-04-10,2024-04-10,株式会社グローバル人材情報,,株式会社,千葉県,いすみ市,日在２０４１番地８,,12,238,2980002,,,,,,,2024-04-10,1,,,,,グローバルジンザイジョウホウ,0
1794,7040003024713,新規,0,2024-04-10,2024-04-10,合同会社井上サービス,,合同会社,千葉県,船橋市,山手２丁目８－２６－２,,12,204,2730045,,,,,,,2024-04-10,1,,,,,イノウエサービス,0
1805,7050001054538,新規,0,2024-04-10,2024-04-10,株式会社ＳＥＢＡＢ・ＮＩＫＫＩ・ＣＯＭＰＡＮＹ,,株式会社,茨城県,小美玉市,堅倉１３６９番地８,,08,236,3190106,,,,,,,2024-04-10,1,,,,,セバブニッキカンパニー,0
1806,7050001054620,新規,0,2024-04-10,2024-04-10,株式会社三幸架建,,株式会社,茨城県,稲敷市,沼田２７３５番地２４,,08,229,3000506,,,,,,,2024-04-10,1,,,,,サンコウカケン,0
1808,7050005013432,新規,0,2024-04-10,2024-04-10,一般社団法人Ａｐｅｌｉｌａあぺりら,,その他の設立登記法人,茨城県,常陸太田市,天神林町８７０番地の３５５,,08,212,3130049,,,,,,,2024-04-10,1,,,,,アペリラアペリラ,0
1828,7090001018646,新規,0,2024-04-10,2024-04-10,日本雲禪水墨画株式会社,,株式会社,山梨県,笛吹市,石和町川中島１１２番地１,,19,211,4060024,,,,,,,2024-04-10,1,,,,,ニホンウンゼンスイボクガ,0
1831,7110001038328,新規,0,2024-04-10,2024-04-10,ｓｔａｐｌｅｆｏｏｄ株式会社,,株式会社,新潟県,新潟市西区,黒鳥４８７７,,15,107,9501123,,,,,,,2024-04-10,1,,,,,ステイプルフード,0
1844,7120001263874,新規,0,2024-04-10,2024-04-10,株式会社ＯＺＭＯ,,株式会社,大阪府,大阪市都島区,都島南通２丁目７番６号ソルピアーチェ京橋３０１号,,27,102,5340023,,,,,,,2024-04-10,1,,,,,オズモ,0
1845,7120001263940,新規,0,2024-04-10,2024-04-10,ＭＩＲＡＲＣＨ株式会社,,株式会社,大阪府,大阪市西区,南堀江１丁目１６番１１号ＲＥ－００８．９Ｅ,,27,106,5500015,,,,,,,2024-04-10,1,,,,,ミラーチ,0
1848,7120003026305,新規,0,2024-04-10,2024-04-10,合同会社太陽,,合同会社,大阪府,大阪市浪速区,戎本町１丁目８番１７号３０２,,27,111,5560013,,,,,,,2024-04-10,1,,,,,タイヨウ,0
1849,7120003026338,新規,0,2024-04-10,2024-04-10,合同会社ラクセント,,合同会社,大阪府,大阪市此花区,朝日２丁目１８番８号３Ｆ－６５３,,27,104,5540011,,,,,,,2024-04-10,1,,,,,ラクセント,0
1857,7120101069305,新規,0,2024-04-10,2024-04-10,貿易方舟株式会社,,株式会社,大阪府,堺市堺区,市之町東５丁１－２７－４０５,,27,141,5900952,,,,,,,2024-04-10,1,,,,,ボウエキホウショウ,0
1858,7120101069395,新規,0,2024-04-10,2024-04-10,株式会社ＣＯＭＭＡ,,株式会社,大阪府,和泉市,富秋町３丁目４番１９号,,27,219,5940082,,,,,,,2024-04-10,1,,,,,コンマ,0
1861,7120903005119,新規,0,2024-04-10,2024-04-10,合同会社ユナイト工業,,合同会社,大阪府,池田市,畑３丁目３－７－１,,27,204,5630021,,,,,,,2024-04-10,1,,,,,ユナイトコウギョウ,0
1862,7122001037993,新規,0,2024-04-10,2024-04-10,株式会社都,,株式会社,大阪府,八尾市,垣内３丁目１５８番地の５,,27,212,5810881,,,,,,,2024-04-10,1,,,,,ミヤコ,0
1865,7122003002855,新規,0,2024-04-10,2024-04-10,Ｎ＆Ｋ　Ｉｎｃ．合同会社,,合同会社,大阪府,四條畷市,岡山東５丁目５番８７号,,27,229,5750003,,,,,,,2024-04-10,1,,,,,エヌアンドケイインク,0
1868,7130001076747,新規,0,2024-04-10,2024-04-10,Ｂ．Ｄ．Ａ　ＴＲＡＤＩＮＧ株式会社,,株式会社,京都府,与謝郡与謝野町,字弓木９７３番地,,26,465,6292263,,,,,,,2024-04-10,1,,,,,ビーディーエートレーディング,0
1869,7130001076755,新規,0,2024-04-10,2024-04-10,銀燕株式会社,,株式会社,京都府,京都市左京区,浄土寺真如町１７番地リンデンバウム３０７号室,,26,103,6068414,,,,,,,2024-04-10,1,,,,,ギンエン,0
1876,7140003020413,新規,0,2024-04-10,2024-04-10,合同会社翔ける２,,合同会社,兵庫県,神戸市西区,前開南町１丁目３－４,,28,111,6512109,,,,,,,2024-04-10,1,,,,,カケルニ,0
1878,7140005027027,新規,0,2024-04-10,2024-04-10,一般社団法人ＡＣＣＯＭＰＡＮＹ,,その他の設立登記法人,兵庫県,西宮市,甲子園五番町１０番２２－２０７号,,28,204,6638175,,,,,,,2024-04-10,1,,,,,アカンパニー,0
1879,7140005027035,新規,0,2024-04-10,2024-04-10,一般社団法人ＳＳＴＩ,,その他の設立登記法人,兵庫県,神戸市灘区,六甲台町２－１神戸大学計算社会科学研究センター内,,28,102,6570013,,,,,,,2024-04-10,1,,,,,,0
1880,7150003003219,新規,0,2024-04-10,2024-04-10,ドラマ制作Ｓｏｒａ合同会社,,合同会社,奈良県,奈良市,橋本町３－１,,29,201,6308217,,,,,,,2024-04-10,1,,,,,ドラマセイサクソラ,0
1889,7180001160843,新規,0,2024-04-10,2024-04-10,株式会社テーアイ,,株式会社,愛知県,名古屋市西区,大野木３丁目７８番地,,23,104,4520803,,,,,,,2024-04-10,1,,,,,テーアイ,0
1890,7180001160901,新規,0,2024-04-10,2024-04-10,株式会社ワークオートシステムサービス,,株式会社,愛知県,名古屋市名東区,猪子石３丁目１１３番地,,23,115,4650021,,,,,,,2024-04-10,1,,,,,ワークオートシステムサービス,0
1891,7180001160918,新規,0,2024-04-10,2024-04-10,株式会社ｐｅｒｆｅｔｔｓ,,株式会社,愛知県,名古屋市中区,栄２丁目２番１号広小路伏見中駒ビル２Ｆ‐９,,23,106,4600008,,,,,,,2024-04-10,1,,,,,ペルフェッツ,0
1892,7180001160983,新規,0,2024-04-10,2024-04-10,株式会社８ＰＥＡＣＥ,,株式会社,愛知県,清須市,鍋片２丁目１７７番地２,,23,233,4520907,,,,,,,2024-04-10,1,,,,,エイトピース,0
1894,7180005020589,新規,0,2024-04-10,2024-04-10,一般社団法人中小企業ＡＩ活用協会,,その他の設立登記法人,愛知県,名古屋市昭和区,小坂町２丁目１３番地１,,23,107,4660021,,,,,,,2024-04-10,1,,,,,チュウショウキギョウエーアイカツヨウキョウカイ,0
1895,7180301038517,新規,0,2024-04-10,2024-04-10,株式会社ジェイワン,,株式会社,愛知県,知立市,鳥居１丁目１１番地３,,23,225,4720055,,,,,,,2024-04-10,1,,,,,ジェイワン,0
1898,7190003004642,新規,0,2024-04-10,2024-04-10,合同会社ＢＥＯ,,合同会社,三重県,四日市市,羽津町２２番３９号,,24,202,5100017,,,,,,,2024-04-10,1,,,,,ベオ,0
1899,7190005011926,新規,0,2024-04-10,2024-04-10,一般社団法人新道会,,その他の設立登記法人,三重県,鈴鹿市,平田２丁目２番２５号,,24,207,5130844,,,,,,,2024-04-10,1,,,,,シンドウカイ,0
1908,7240001063073,新規,0,2024-04-10,2024-04-10,株式会社山崎,00134370,株式会社,広島県,広島市西区,古江西町９番２号,,34,104,7330874,,,,,,,2024-04-10,1,,,,,ヤマサキ,0
1922,7290001105325,新規,0,2024-04-10,2024-04-10,株式会社エースセントラル,,株式会社,福岡県,福岡市中央区,今泉２丁目３番３６－８０２号,,40,133,8100021,,,,,,,2024-04-10,1,,,,,エースセントラル,0
1923,7290001105333,新規,0,2024-04-10,2024-04-10,株式会社ネクストグリーン,,株式会社,福岡県,福岡市東区,大字勝馬６３０番地,,40,131,8110325,,,,,,,2024-04-10,1,,,,,ネクストグリーン,0
1924,7290001105358,新規,0,2024-04-10,2024-04-10,ＣＴＲ株式会社,,株式会社,福岡県,福岡市博多区,竹下４丁目２番１６号４階,,40,132,8120895,,,,,,,2024-04-10,1,,,,,シーティーアール,0
1926,7290003015175,新規,0,2024-04-10,2024-04-10,合同会社ｍｅｔｏｔａｒｔｅ,,合同会社,福岡県,福岡市東区,香椎駅前東３－２４－１９－Ｂ１０１,,40,131,8130000,,,,,,,2024-04-10,1,,,,,ミートタルト,0
1927,7290005019356,新規,0,2024-04-10,2024-04-10,一般社団法人全国空き家予防推進協議会,,その他の設立登記法人,福岡県,太宰府市,通古賀４丁目４－１６,,40,221,8180104,,,,,,,2024-04-10,1,,,,,,0
1930,7290801030441,新規,0,2024-04-10,2024-04-10,株式会社ｔｕｎａｇｕ,,株式会社,福岡県,北九州市小倉南区,若園２丁目１３番２４号,,40,107,8020816,,,,,,,2024-04-10,1,,,,,ツナグ,0
1934,7310001018953,新規,0,2024-04-10,2024-04-10,株式会社Ｎｍｅｄｉａ　Ｌａｂ,,株式会社,長崎県,長崎市,家野町５番１９号,,42,201,8528136,,,,,,,2024-04-10,1,,,,,エヌメディアラボ,0
1935,7320003004331,新規,0,2024-04-10,2024-04-10,合同会社アズールトレージ,,合同会社,大分県,大分市,大字荏隈１７０７番地の１アディαＮｅｏ５０３,,44,201,8700889,,,,,,,2024-04-10,1,,,,,アズールトレージ,0
1949,7370003006562,新規,0,2024-04-10,2024-04-10,合同会社ＳＴ,,合同会社,宮城県,仙台市宮城野区,宮城野３丁目６－１５－２０６,,04,102,9830045,,,,,,,2024-04-10,1,,,,,エスティ,0
1959,7380001034449,新規,0,2024-04-10,2024-04-10,株式会社エスズ・エステート,,株式会社,福島県,伊達市,保原町上保原字万所３６番地,,07,213,9600684,,,,,,,2024-04-10,1,,,,,エスズエステート,0
1965,7410001013804,新規,0,2024-04-10,2024-04-10,株式会社メディック,,株式会社,秋田県,横手市,旭川１丁目４番１７号,,05,203,0130033,,,,,,,2024-04-10,1,,,,,メディック,0
1970,7430001091476,新規,0,2024-04-10,2024-04-10,株式会社ＴＹＴ,,株式会社,北海道,札幌市中央区,北三条東１０丁目１２１番地,,01,101,0600033,,,,,,,2024-04-10,1,,,,,ティーワイティー,0
1976,7480001012436,新規,0,2024-04-10,2024-04-10,Ｍｏｂｉｌｉｔｙ　Ｓｐａｃｅ株式会社,,株式会社,徳島県,鳴門市,大津町大代字西ノ須１３番地１,,36,202,7720041,,,,,,,2024-04-10,1,,,,,モビリティスペース,0
1981,7700150124793,新規,0,2024-04-10,2024-04-10,Ｓｈｅｎｚｈｅｎ　Ｓｋｙ　Ｄｒａｇｏｎ　Ａｕｄｉｏ－Ｖｉｄｅｏ　Ｔｅｃｈｎｏｌｏｇｙ　Ｃｏ．，Ｌｔｄ,,外国会社等,,,,,,,,Ｌｅｆｔ　ｓｉｄｅ　ｏｆ　ｔｈｅ　０３ｔｈ　ｆｌｏｏｒ　ａｎｄ　ｒｉｇｈｔ　ｓｉｄｅ　ｏｆ　ｔｈｅ　０４ｔｈ　ｆｌｏｏｒ　ｏｆ　Ｂｌｏｃｋ　１，Ｆａｃｔｏｒｙ　Ｂｕｉｌｄｉｎｇ，７１　Ｄｉｓｔｒｉｃｔ，Ｘｉｎ’ａｎ　Ｓｔｒｅｅｔ，Ｂａｏ’ａｎ　Ｄｉｓｔｒｉｃｔ，Ｓｈｅｎｚｈｅｎ,,,,,,2024-04-10,1,,,,,シンセンセイテンリュウシチョウカギユウゲンコウシ,0
1997,8010001243688,新規,0,2024-04-10,2024-04-10,リョーサン菱洋ホールディングス株式会社,,株式会社,東京都,千代田区,東神田２丁目３番５号,,13,101,1010031,,,,,,,2024-04-10,1,,,,,リョーサンリョーヨーホールディングス,0
2000,8010003043376,新規,0,2024-04-10,2024-04-10,合同会社ＵｋｉＵｋｉ製作所,,合同会社,東京都,中央区,日本橋室町１丁目１１番１２号日本橋水野ビル７階,,13,102,1030022,,,,,,,2024-04-10,1,,,,,ウキウキセイサクジョ,0
2001,8010003043426,新規,0,2024-04-10,2024-04-10,合同会社星池橋ホテルズ,,合同会社,東京都,中央区,銀座２丁目１０番８号マニエラ銀座ビル４階,,13,102,1040061,,,,,,,2024-04-10,1,,,,,ホシイケバシホテルズ,0
2008,8010401181579,新規,0,2024-04-10,2024-04-10,株式会社タスキホールディングス,,株式会社,東京都,港区,北青山２丁目７番９号,,13,103,1070061,,,,,,,2024-04-10,1,,,,,タスキホールディングス,0
2009,8010401181637,新規,0,2024-04-10,2024-04-10,株式会社東京ゲートウェイ,,株式会社,東京都,港区,赤坂４丁目８番１９号赤坂フロントタウン３階,,13,103,1070052,,,,,,,2024-04-10,1,,,,,トウキョウゲートウェイ,0
2013,8010405023133,新規,0,2024-04-10,2024-04-10,弁護士法人ＺＩＩ,,その他の設立登記法人,東京都,港区,六本木２丁目２番６号,,13,103,1060032,,,,,,,2024-04-10,1,,,,,ゼットアイアイ,0
2022,8010701045780,新規,0,2024-04-10,2024-04-10,セブンゲイトキャピタル株式会社,,株式会社,東京都,品川区,北品川１丁目８番１２号アールビル３Ｆ,,13,109,1400001,,,,,,,2024-04-10,1,,,,,セブンゲイトキャピタル,0
2023,8010701045814,新規,0,2024-04-10,2024-04-10,ＡＲ　Ｉｎｔｅｒｎａｔｉｏｎａｌ株式会社,,株式会社,東京都,品川区,大井１丁目２１番２号豊強ビル７０１Ｂ,,13,109,1400014,,,,,,,2024-04-10,1,,,,,エーアールインターナショナル,0
2031,8010801034931,新規,0,2024-04-10,2024-04-10,株式会社ＫＲＡＦＴ,,株式会社,東京都,大田区,下丸子３丁目７－１１,,13,111,1460092,,,,,,,2024-04-10,1,,,,,クラフト,0
2036,8011001161095,新規,0,2024-04-10,2024-04-10,株式会社Ｓｔｒｏｎｇｅｒ,,株式会社,東京都,目黒区,中町１丁目２８－１２,,13,110,1530065,,,,,,,2024-04-10,1,,,,,ストロンガー,0
2037,8011001161104,新規,0,2024-04-10,2024-04-10,株式会社春の花,,株式会社,東京都,渋谷区,西原３丁目４４番１２号西原パークマンション１０２,,13,113,1510066,,,,,,,2024-04-10,1,,,,,ハルノハナ,0
2038,8011001161194,新規,0,2024-04-10,2024-04-10,株式会社ＤＡＷＮＩＮＧ,,株式会社,東京都,目黒区,東山３丁目１番１１号サンサーラ東山１０５,,13,110,1530043,,,,,,,2024-04-10,1,,,,,ダニング,0
2039,8011003018913,新規,0,2024-04-10,2024-04-10,ＩＲアドバイザリー合同会社,,合同会社,東京都,目黒区,中根１丁目１８番２３号,,13,110,1520031,,,,,,,2024-04-10,1,,,,,アイアールアドバイザリー,0
2041,8011101106792,新規,0,2024-04-10,2024-04-10,エンＳＸ株式会社,,株式会社,東京都,新宿区,西新宿６丁目５番１号,,13,104,1600023,,,,,,,2024-04-10,1,,,,,エンエスエックス,0
2042,8011101106900,新規,0,2024-04-10,2024-04-10,株式会社ＲＧＨ,,株式会社,東京都,新宿区,西新宿４丁目２番１５－２９０５号,,13,104,1600023,,,,,,,2024-04-10,1,,,,,アールジーエイチ,0
2043,8011101106917,新規,0,2024-04-10,2024-04-10,Ｆｏｕｒ　Ｓｔｒｉｎｇｓ株式会社,,株式会社,東京都,新宿区,西新宿３丁目３番１３号西新宿水間ビル２Ｆ,,13,104,1600023,,,,,,,2024-04-10,1,,,,,フォーストリングス,0
2044,8011103014309,新規,0,2024-04-10,2024-04-10,Ｚブリッジ合同会社,,合同会社,東京都,新宿区,南元町２０番地３ガーデンヒルズ四ツ谷迎賓の森２０５,,13,104,1600012,,,,,,,2024-04-10,1,,,,,ゼットブリッジ,0
2047,8011401025998,新規,0,2024-04-10,2024-04-10,グローバルコネクトパートナーズ株式会社,,株式会社,東京都,板橋区,蓮根３丁目２５番１４－７０４号,,13,119,1740046,,,,,,,2024-04-10,1,,,,,グローバルコネクトパートナーズ,0
2048,8011403004323,新規,0,2024-04-10,2024-04-10,合同会社ナレッジワーク,,合同会社,東京都,板橋区,大山東町４４－１、２０１,,13,119,1730014,,,,,,,2024-04-10,1,,,,,ナレッジワーク,0
2049,8011403004331,新規,0,2024-04-10,2024-04-10,ＩＫＹＵ合同会社,,合同会社,東京都,板橋区,大和町１３番１７－８０３号,,13,119,1730012,,,,,,,2024-04-10,1,,,,,アイケイユー,0
2055,8011701027174,新規,0,2024-04-10,2024-04-10,株式会社ＡＩ　Ｄｏｇ,,株式会社,東京都,江戸川区,西葛西２丁目２２番２６号,,13,123,1340088,,,,,,,2024-04-10,1,,,,,エーアイドッグ,0
2057,8011703003792,新規,0,2024-04-10,2024-04-10,合同会社Ａ＆Ｎ,,合同会社,東京都,江戸川区,本一色３丁目１６番１９号,,13,123,1330044,,,,,,,2024-04-10,1,,,,,エイアンドエヌ,0
2058,8011803006167,新規,0,2024-04-10,2024-04-10,ＨＡビジネスコンサルティング合同会社,,合同会社,東京都,足立区,千住東２丁目９番８－６０２号,,13,121,1200025,,,,,,,2024-04-10,1,,,,,エイチエービジネスコンサルティング,0
2067,8020001156526,新規,0,2024-04-10,2024-04-10,Ｆｕｔｕｒｅｓｈｉｐ株式会社,,株式会社,神奈川県,川崎市中原区,下小田中６丁目７番１号ネイバーズ武蔵中原４３５,,14,133,2110041,,,,,,,2024-04-10,1,,,,,フューチャーシップ,0
2069,8020003025910,新規,0,2024-04-10,2024-04-10,合同会社ＭＯＭＯ,,合同会社,神奈川県,横浜市中区,山下町９９番地山下公園サンライトマンション２号棟５０８号室,,14,104,2310023,,,,,,,2024-04-10,1,,,,,モモ,0
2070,8020003025927,新規,0,2024-04-10,2024-04-10,合同会社盤木商事,,合同会社,神奈川県,横浜市保土ケ谷区,帷子町１丁目４４カサハラビル保土ヶ谷７０１,,14,106,2400013,,,,,,,2024-04-10,1,,,,,イワキショウジ,0
2074,8021001081862,新規,0,2024-04-10,2024-04-10,株式会社栄都ホーム,,株式会社,神奈川県,厚木市,金田３７２番地４,,14,212,2430807,,,,,,,2024-04-10,1,,,,,エイトホーム,0
2075,8021003014341,新規,0,2024-04-10,2024-04-10,合同会社在宅ケア原宿,,合同会社,神奈川県,相模原市緑区,原宿４丁目１２番２０号メゾン熊野ＩＩ－１０１,00134368,14,151,2520102,,,,,,,2024-04-10,1,,,,,ザイタクケアハラジュク,0
2082,8030001159734,新規,0,2024-04-10,2024-04-10,百色居心株式会社,,株式会社,埼玉県,川口市,並木３丁目８－１９－２０３ハイリーハイツ並木,,11,203,3320034,,,,,,,2024-04-10,1,,,,,ヒャクショクイココロ,0
2084,8030003024028,新規,0,2024-04-10,2024-04-10,合同会社信東,,合同会社,埼玉県,草加市,新栄４丁目１０００番地新栄町団地３－１７－５０１,,11,221,3400056,,,,,,,2024-04-10,1,,,,,シントウ,0
2087,8030005021634,新規,0,2024-04-10,2024-04-10,特定非営利活動法人在日外国人日本語支援機構,,その他の設立登記法人,埼玉県,川口市,並木１丁目１７番２０号,,11,203,3320034,,,,,,,2024-04-10,1,,,,,ザイニチガイコクジンニホンゴシエンキコウ,0
2088,8030005021650,新規,0,2024-04-10,2024-04-10,特定非営利活動法人しいの木ひろば,,その他の設立登記法人,埼玉県,比企郡吉見町,大字長谷１６７８番地６,,11,347,3550156,,,,,,,2024-04-10,1,,,,,シイノキヒロバ,0
2092,8040001133003,新規,0,2024-04-10,2024-04-10,株式会社Ｌｉｆｅ　Ｄｅｓｉｇｎ　Ｆｉｎａｎｃｉａｌ　Ａｄｖｉｓｅｒｓ,,株式会社,千葉県,浦安市,高洲７丁目１番１号,,12,227,2790023,,,,,,,2024-04-10,1,,,,,ライフデザインフィナンシャルアドバイザーズ,0
2093,8040001133052,新規,0,2024-04-10,2024-04-10,株式会社秋桜,,株式会社,千葉県,印旛郡酒々井町,墨１２３８番地,,12,322,2850913,,,,,,,2024-04-10,1,,,,,コスモス,0
2094,8040001133069,新規,0,2024-04-10,2024-04-10,株式会社ブレイス,,株式会社,千葉県,千葉市緑区,あすみが丘東１丁目１１番地１４,,12,105,2670067,,,,,,,2024-04-10,1,,,,,ブレイス,0
2097,8040003024737,新規,0,2024-04-10,2024-04-10,Ａ．Ｃ．Ｃ．合同会社,,合同会社,千葉県,市川市,大和田５丁目９番５号,,12,203,2720025,,,,,,,2024-04-10,1,,,,,エーシーシー,0
2098,8040005022350,新規,0,2024-04-10,2024-04-10,特定非営利活動法人フリースクールリフレルーム,,その他の設立登記法人,千葉県,佐倉市,南ユーカリが丘１５番地９,,12,212,2850859,,,,,,,2024-04-10,1,,,,,フリースクールリフレルーム,0
2103,8060001036988,新規,0,2024-04-10,2024-04-10,株式会社シマダ塗装工業,,株式会社,栃木県,栃木市,都賀町平川６２２番地４,,09,203,3280112,,,,,,,2024-04-10,1,,,,,シマダトソウコウギョウ,0
2104,8070001041624,新規,0,2024-04-10,2024-04-10,株式会社道上工業,,株式会社,群馬県,北群馬郡榛東村,大字長岡４０６番地,,10,344,3703501,,,,,,,2024-04-10,1,,,,,ミチガミコウギョウ,0
2105,8070003005362,新規,0,2024-04-10,2024-04-10,合同会社ｍｉｔｔ,,合同会社,群馬県,沼田市,利根町園原５１７番地,,10,206,3780324,,,,,,,2024-04-10,1,,,,,ミット,0
2106,8080001026236,新規,0,2024-04-10,2024-04-10,株式会社Ｒｏｍａｎｓ,,株式会社,静岡県,焼津市,下江留２２０４番地,,22,212,4210218,,,,,,,2024-04-10,1,,,,,ロマンズ,0
2108,8080003003175,新規,0,2024-04-10,2024-04-10,合同会社ｄｉｆｆｅｌｅ,,合同会社,静岡県,静岡市葵区,北安東２丁目２２－３－２,,22,101,4200881,,,,,,,2024-04-10,1,,,,,ディフェル,0
2118,8100001037362,新規,0,2024-04-10,2024-04-10,株式会社テックヤマト,,株式会社,長野県,松本市,梓川倭２９５６番地７,,20,202,3901701,,,,,,,2024-04-10,1,,,,,テックヤマト,0
2129,8120001263782,新規,0,2024-04-10,2024-04-10,株式会社エステートサンフレッシュ,,株式会社,大阪府,大阪市中央区,農人橋１丁目１番２９－１６０６号,,27,128,5400011,,,,,,,2024-04-10,1,,,,,エステートサンフレッシュ,0
2130,8120001263808,新規,0,2024-04-10,2024-04-10,株式会社ＢＩＧＤＯＧ,,株式会社,大阪府,寝屋川市,点野１丁目４－３,,27,215,5720077,,,,,,,2024-04-10,1,,,,,ビッグドッグ,0
2131,8120001263873,新規,0,2024-04-10,2024-04-10,株式会社ムカエカゼ,,株式会社,大阪府,大阪市西区,南堀江１丁目１４番２８号山五ビル４Ｆ中室,,27,106,5500015,,,,,,,2024-04-10,1,,,,,ムカエカゼ,0
2132,8120001263907,新規,0,2024-04-10,2024-04-10,ＳＦＦホールディングス株式会社,,株式会社,大阪府,大阪市阿倍野区,阿倍野筋１丁目１番４３号３１階,,27,119,5450052,,,,,,,2024-04-10,1,,,,,エスエフエフホールディングス,0
2133,8120001263923,新規,0,2024-04-10,2024-04-10,株式会社マックス,,株式会社,大阪府,守口市,寺方元町４丁目６番７号,,27,209,5700047,,,,,,,2024-04-10,1,,,,,マックス,0
2134,8120001263931,新規,0,2024-04-10,2024-04-10,株式会社和,,株式会社,大阪府,寝屋川市,葛原新町２番８号,,27,215,5720037,,,,,,,2024-04-10,1,,,,,ナゴミ,0
2136,8120003026337,新規,0,2024-04-10,2024-04-10,合同会社扇楽ＳＥＮＲＡＫＵ,,合同会社,大阪府,寝屋川市,池田旭町２４番３３号,,27,215,5720035,,,,,,,2024-04-10,1,,,,,センラクセンラク,0
2137,8120003026361,新規,0,2024-04-10,2024-04-10,合同会社オペラント,,合同会社,大阪府,交野市,私部３丁目３番３３－２号,,27,230,5760052,,,,,,,2024-04-10,1,,,,,オペラント,0
2138,8120005024272,新規,0,2024-04-10,2024-04-10,特定非営利活動法人おおさかこどもココロネットワーク,,その他の設立登記法人,大阪府,大阪市浪速区,元町１丁目５－７ナンバプラザビル６０２,,27,111,5560016,,,,,,,2024-04-10,1,,,,,オオサカコドモココロネットワーク,0
2141,8120101069386,新規,0,2024-04-10,2024-04-10,株式会社ｃｈａｔｏｒａ,,株式会社,大阪府,堺市堺区,翁橋町１丁２番２号４０１,,27,141,5900061,,,,,,,2024-04-10,1,,,,,チャトラ,0
2154,8130001076779,新規,0,2024-04-10,2024-04-10,株式会社Ｈｏｍｅ　Ａｎｄ　Ｂａｓｅ,,株式会社,京都府,京都市下京区,鶏鉾町４９３番地ムーンバットビル７階,,26,106,6008491,,,,,,,2024-04-10,1,,,,,ホームベース,0
2171,8180001160867,新規,0,2024-04-10,2024-04-10,株式会社Ｕｎｉ　ＬＡＢＯ,,株式会社,愛知県,名古屋市中区,栄４丁目１３番７号ピボットワシントン栄４０１,,23,106,4600008,,,,,,,2024-04-10,1,,,,,ユニラボ,0
2172,8180001160909,新規,0,2024-04-10,2024-04-10,株式会社ＭＩＬＩＺＥ　ＭＥＤＩＣＡＬ,,株式会社,愛知県,名古屋市中村区,名駅１丁目１番４号ＪＲセントラルタワーズ１９階,,23,105,4500002,,,,,,,2024-04-10,1,,,,,ミライズメディカル,0
2173,8180001160917,新規,0,2024-04-10,2024-04-10,リアンマネージメント株式会社,,株式会社,愛知県,一宮市,両郷町３丁目２番地３,,23,203,4910022,,,,,,,2024-04-10,1,,,,,リアンマネージメント,0
2174,8180001160974,新規,0,2024-04-10,2024-04-10,株式会社ＴＳサービス,,株式会社,愛知県,名古屋市西区,歌里町２番地,,23,104,4520807,,,,,,,2024-04-10,1,,,,,ティーエスサービス,0
2178,8180301038524,新規,0,2024-04-10,2024-04-10,アジア国際事業株式会社,,株式会社,愛知県,岡崎市,鴨田南町２番地６コスモビル鴨田６０１,,23,202,4442123,,,,,,,2024-04-10,1,,,,,アジアコクサイジギョウ,0
2185,8210001019688,新規,0,2024-04-10,2024-04-10,株式会社カネマル物産,,株式会社,福井県,丹生郡越前町,茂原９字上垣内５６番地,,18,423,9160423,,,,,,,2024-04-10,1,,,,,カネマルブッサン,0
2188,8220003003714,新規,0,2024-04-10,2024-04-10,Ｒｅｔｒｏ　Ｐｒｏｘｙ合同会社,,合同会社,石川県,河北郡内灘町,字千鳥台１丁目４番１号,,17,365,9200277,,,,,,,2024-04-10,1,,,,,レトロプロキシ,0
2194,8240001063064,新規,0,2024-04-10,2024-04-10,株式会社Ｔａｋｅ　ＩＴ,,株式会社,広島県,広島市安佐南区,東野２丁目８番１１－９号,,34,105,7310111,,,,,,,2024-04-10,1,,,,,テイクイット,0
2195,8240001063072,新規,0,2024-04-10,2024-04-10,株式会社Ｔａｕｐｅ,,株式会社,広島県,広島市中区,東白島町１９－０３,,34,101,7300004,,,,,,,2024-04-10,1,,,,,トープ,0
2205,8260001038931,新規,0,2024-04-10,2024-04-10,株式会社Ｎａｎｂｏ本店,,株式会社,岡山県,岡山市北区,上土田３８４番地,,33,101,7011465,,,,,,,2024-04-10,1,,,,,ナンポホンテン,0
2206,8260001038948,新規,0,2024-04-10,2024-04-10,株式会社アイシン電機,,株式会社,岡山県,岡山市東区,西祖１６４番地,,33,103,7090603,,,,,,,2024-04-10,1,,,,,アイシンデンキ,0
2210,8280001009154,新規,0,2024-04-10,2024-04-10,日向工業株式会社,,株式会社,島根県,出雲市,芦渡町５８５番地５第２トマトハウスＤ,,32,203,6930035,,,,,,,2024-04-10,1,,,,,ヒナタコウギョウ,0
2215,8290001105316,新規,0,2024-04-10,2024-04-10,共育パレット株式会社,,株式会社,福岡県,福岡市中央区,大名１丁目３－４１プリオ大名ビル２Ｆ,,40,133,8100041,,,,,,,2024-04-10,1,,,,,,0
2216,8290001105349,新規,0,2024-04-10,2024-04-10,ｋ．ｋ株式会社,,株式会社,福岡県,福岡市中央区,大名２丁目６番５３－７０２号,,40,133,8100041,,,,,,,2024-04-10,1,,,,,,0
2230,8340005009722,新規,0,2024-04-10,2024-04-10,医療法人藤宮会,,その他の設立登記法人,鹿児島県,曽於市,末吉町二之方２１２６番地,,46,217,8998605,,,,,,,2024-04-10,1,,,,,フジミヤカイ,0
2231,8360003013864,新規,0,2024-04-10,2024-04-10,合同会社５８ｓｔｙｌｅ,,合同会社,沖縄県,うるま市,字田場１６６番地５,,47,213,9042213,,,,,,,2024-04-10,1,,,,,ゴーパチスタイル,0
2233,8370001051122,新規,0,2024-04-10,2024-04-10,株式会社梅津工業,,株式会社,宮城県,多賀城市,山王字北寿福寺１４番地の２,,04,209,9850852,,,,,,,2024-04-10,1,,,,,ウメツコウギョウ,0
2234,8370001051171,新規,0,2024-04-10,2024-04-10,Ｈｏｐｅ　Ｍｅｄｉｃａｌ　Ｓｅｒｖｉｃｅ株式会社,,株式会社,宮城県,仙台市青葉区,高野原１丁目５番地の１３,,04,101,9893216,,,,,,,2024-04-10,1,,,,,ホープメディカルサービス,0
2237,8390003002229,新規,0,2024-04-10,2024-04-10,合同会社ｉｎｔｅｎｔａｒ,,合同会社,山形県,東置賜郡高畠町,大字高畠４０２番地の６,,06,381,9920351,,,,,,,2024-04-10,1,,,,,インテンター,0
2241,8410001013803,新規,0,2024-04-10,2024-04-10,株式会社はたらく,,株式会社,秋田県,秋田市,南通築地６番３４号吉ビル２０１,,05,201,0100013,,,,,,,2024-04-10,1,,,,,ハタラク,0
2249,8430001091558,新規,0,2024-04-10,2024-04-10,株式会社オネストライ,,株式会社,北海道,札幌市西区,宮の沢三条３丁目９番１３号,,01,107,0630053,,,,,,,2024-04-10,1,,,,,オネストライ,0
2253,8450001014277,新規,0,2024-04-10,2024-04-10,株式会社ファインメンテ,,株式会社,北海道,旭川市,春光台五条１丁目４番８号,,01,204,0718145,,,,,,,2024-04-10,1,,,,,ファインメンテ,0
2256,8470001020133,新規,0,2024-04-10,2024-04-10,株式会社常盤園芸,,株式会社,香川県,観音寺市,出作町９４５番地,,37,205,7680011,,,,,,,2024-04-10,1,,,,,トキワエンゲイ,0
2267,8700150115949,新規,0,2024-04-10,2023-05-09,下河内自治会,,その他,山口県,防府市,大字植松６４７－６,,35,206,7470836,,,,,,,2023-05-09,1,,,,,シモガワチジチカイ,0
2268,8700150124157,新規,0,2024-04-10,2024-02-22,労働保険事務組合　Ｋ－ＳＲ協会,,その他,福島県,いわき市,平上荒川字長尾３２－１さかとみビル１Ｆ,,07,204,9708034,,,,,,,2024-02-22,1,,,,,ロウドウホケンジムクミアイケーエスアールキヨウカイ,0
2269,8700150124792,新規,0,2024-04-10,2024-04-10,Ｈａｎｇｚｈｏｕ　Ｆａｎ　Ｈａｎ　Ｔｅｃｈｎｏｌｏｇｙ　Ｌｔｄ．，Ｃｏ．,,外国会社等,,,,,,,,Ｒｏｏｍ　１４０５－１，Ｎｏ．２５９，Ｉｎｔｅｒｎｅｔ　ｏｆ　ｔｈｉｎｇｓ　ｓｔｒｅｅｔ，　Ｘｉｘｉｎｇ　ｓｔｒｅｅｔ，Ｂｉｎｊｉａｎｇ　Ｄｉｓｔｒｉｃｔ，Ｈａｎｇｚｈｏｕ　Ｚｈｅｊｉａｎｇ,,,,,,2024-04-10,1,,,,,コウシュウハンカンカギユウゲンコウシ,0
2280,9010001243638,新規,0,2024-04-10,2024-04-10,株式会社Ｓｍａｒｔ　ＯＨＷ,,株式会社,東京都,中央区,日本橋大伝馬町９番１１－１２０４号,,13,102,1030011,,,,,,,2024-04-10,1,,,,,スマートオーエイチダブリュー,0
2281,9010001243860,新規,0,2024-04-10,2024-04-10,株式会社ＲＩＴＡ,,株式会社,東京都,中央区,銀座１丁目２２番１１号銀座大竹ビジデンス２Ｆ,,13,102,1040061,,,,,,,2024-04-10,1,,,,,リタ,0
2282,9010003043400,新規,0,2024-04-10,2024-04-10,合同会社ありがとう,,合同会社,東京都,文京区,大塚５丁目９番６号,,13,105,1120012,,,,,,,2024-04-10,1,,,,,アリガトウ,0
2287,9010005038142,新規,0,2024-04-10,2024-04-10,一般社団法人出光社員会,,その他の設立登記法人,東京都,千代田区,大手町１丁目２番１号,,13,101,1000004,,,,,,,2024-04-10,1,,,,,イデミツシャインカイ,0
2288,9010005038159,新規,0,2024-04-10,2024-04-10,一般社団法人日中一帯一路促進会,,その他の設立登記法人,東京都,文京区,向丘１丁目２番４号,,13,105,1130023,,,,,,,2024-04-10,1,,,,,ニッチュウイッタイイチロソクシンカイ,0
2290,9010105002254,新規,0,2024-04-10,2024-04-10,一般社団法人たまハチ相談室,,その他の設立登記法人,東京都,八王子市,別所１丁目１１番地１４,,13,201,1920363,,,,,,,2024-04-10,1,,,,,タマハチソウダンシツ,0
2296,9010403032259,新規,0,2024-04-10,2024-04-10,合同会社シャップルアンドカンパニー,,合同会社,東京都,港区,虎ノ門１丁目１７－１虎ノ門ヒルズビジネスタワー１５階,,13,103,1050001,,,,,,,2024-04-10,1,,,,,シャップルアンドカンパニー,0
2297,9010403032374,新規,0,2024-04-10,2024-04-10,アカンパニーパートナー合同会社,,合同会社,東京都,港区,赤坂６丁目８番２号,,13,103,1070052,,,,,,,2024-04-10,1,,,,,アカンパニーパートナー,0
2304,9010701045796,新規,0,2024-04-10,2024-04-10,ＡＩ　ｆｏｒ　Ｕ株式会社,,株式会社,東京都,品川区,上大崎２丁目１５番１９号,,13,109,1410021,,,,,,,2024-04-10,1,,,,,エーアイフォーユー,0
2320,9011001161169,新規,0,2024-04-10,2024-04-10,株式会社ＡＳＯＧＩ,,株式会社,東京都,渋谷区,千駄ヶ谷３丁目５１番１０号ＰＯＲＴＡＬＰＯＩＮＴＨＡＲＡＪＵＫＵ８階,,13,113,1510051,,,,,,,2024-04-10,1,,,,,アソギ,0
2321,9011001161177,新規,0,2024-04-10,2024-04-10,Ａｂｅｓｔｏｒテクノロジージャパン株式会社,,株式会社,東京都,渋谷区,桜丘町２３番１７号シティコート桜丘４０８,,13,113,1500031,,,,,,,2024-04-10,1,,,,,アベスターテクノロジージャパン,0
2322,9011001161193,新規,0,2024-04-10,2024-04-10,株式会社ＮＥＯ　ＢＬＯＯＭ,,株式会社,東京都,渋谷区,渋谷３丁目２６番１６号第五叶ビル７階,,13,113,1500002,,,,,,,2024-04-10,1,,,,,ネオブルーム,0
2323,9011001161301,新規,0,2024-04-10,2024-04-10,株式会社ＴＣＰＴ,,株式会社,東京都,渋谷区,初台１丁目４９－２,,13,113,1510061,,,,,,,2024-04-10,1,,,,,ティーシーピーティー,0
2326,9011003018879,新規,0,2024-04-10,2024-04-10,ＷＩＬＬ　ＥＸＰＬＯＲＥＳ合同会社,,合同会社,東京都,渋谷区,恵比寿西２丁目８番４号ＥＸ恵比寿西ビル５階,,13,113,1500021,,,,,,,2024-04-10,1,,,,,ウィルエクスプロアーズ,0
2327,9011003018887,新規,0,2024-04-10,2024-04-10,合同会社原田メディカルコンサルタントサービス,,合同会社,東京都,渋谷区,幡ヶ谷１丁目２番２号京王幡ヶ谷ビル４－３５,,13,113,1510072,,,,,,,2024-04-10,1,,,,,ハラダメディカルコンサルタントサービス,0
2328,9011003018895,新規,0,2024-04-10,2024-04-10,ｍａｍａｃｏｃｏ合同会社,,合同会社,東京都,目黒区,中目黒１丁目１０番２５－５０３号フレンドパレス,,13,110,1530061,,,,,,,2024-04-10,1,,,,,ママココ,0
2332,9011101106899,新規,0,2024-04-10,2024-04-10,株式会社ｇｒｏｏｖｙ,,株式会社,東京都,新宿区,高田馬場１丁目３番１３号第二天台ビル１０２,,13,104,1690075,,,,,,,2024-04-10,1,,,,,グルーヴィー,0
2346,9011601027653,新規,0,2024-04-10,2024-04-10,Ｍａｒｓ株式会社,,株式会社,東京都,練馬区,旭町１丁目８番１号－４０５,,13,120,1790071,,,,,,,2024-04-10,1,,,,,マース,0
2347,9011701027173,新規,0,2024-04-10,2024-04-10,株式会社ベストナイン,,株式会社,東京都,江戸川区,中央４丁目２番１３号,,13,123,1320021,,,,,,,2024-04-10,1,,,,,ベストナイン,0
2350,9011801044044,新規,0,2024-04-10,2024-04-10,株式会社Ｆｒｅｅ’ｓ　Ｏｎｅ,,株式会社,東京都,葛飾区,金町３丁目１４番７号,,13,122,1250042,,,,,,,2024-04-10,1,,,,,フリーズワン,0
2354,9012801023104,新規,0,2024-04-10,2024-04-10,株式会社キーダイレクト,,株式会社,東京都,国分寺市,東元町１丁目２８番１０号,,13,214,1850022,,,,,,,2024-04-10,1,,,,,キーダイレクト,0
2377,9030001159709,新規,0,2024-04-10,2024-04-10,ＨＧ株式会社,,株式会社,埼玉県,川口市,西川口３丁目６－１５,,11,203,3320021,,,,,,,2024-04-10,1,,,,,エイチジー,0
2381,9030003024035,新規,0,2024-04-10,2024-04-10,合同会社ｕｌｕ．,,合同会社,埼玉県,東松山市,元宿１丁目１３番地６加島ビル１０２,,11,212,3550063,,,,,,,2024-04-10,1,,,,,ウル,0
2382,9030003024051,新規,0,2024-04-10,2024-04-10,Ｍａｌｉｋａ　Ｉｎｔｅｒｎａｔｉｏｎａｌ合同会社,,合同会社,埼玉県,さいたま市岩槻区,東岩槻１丁目９－３０,,11,110,3390005,,,,,,,2024-04-10,1,,,,,マリカインターナショナル,0
2384,9040001133035,新規,0,2024-04-10,2024-04-10,株式会社キココ,,株式会社,千葉県,千葉市美浜区,稲毛海岸２丁目４番５４号,,12,106,2610005,,,,,,,2024-04-10,1,,,,,キココ,0
2388,9040003024744,新規,0,2024-04-10,2024-04-10,合同会社ＭＩＬＩＮＥＳ,,合同会社,千葉県,袖ケ浦市,三箇１２２６－１７,,12,229,2990212,,,,,,,2024-04-10,1,,,,,ミラインズ,0
2389,9040003024752,新規,0,2024-04-10,2024-04-10,合同会社ＲＮ,,合同会社,千葉県,柏市,大津ケ丘３丁目４８番地１９,,12,217,2770921,,,,,,,2024-04-10,1,,,,,アールエヌ,0
2395,9050001054577,新規,0,2024-04-10,2024-04-10,株式会社筑波コンピューティングス,,株式会社,茨城県,つくば市,桜２丁目３－５,,08,220,3050003,,,,,,,2024-04-10,1,,,,,ツクバコンピューティングス,0
2396,9050001054593,新規,0,2024-04-10,2024-04-10,株式会社ＬＡＳＴ,,株式会社,茨城県,筑西市,小川１１７２番地,,08,227,3080857,,,,,,,2024-04-10,1,,,,,ラスト,0
2397,9050001054610,新規,0,2024-04-10,2024-04-10,株式会社雅,,株式会社,茨城県,鉾田市,滝浜７２９番地３８５,,08,234,3111423,,,,,,,2024-04-10,1,,,,,ミヤビ,0
2405,9050003008259,新規,0,2024-04-10,2024-04-10,ＳＴインベストメント合同会社,,合同会社,茨城県,稲敷郡美浦村,大字花見塚２２８番地１９,,08,442,3000418,,,,,,,2024-04-10,1,,,,,エスティーインベストメント,0
2408,9050005013430,新規,0,2024-04-10,2024-04-10,特定非営利活動法人地域再生推進協議会,,その他の設立登記法人,茨城県,日立市,金沢町５丁目９番４号,,08,202,3160015,,,,,,,2024-04-10,1,,,,,チイキサイセイスイシンキョウギカイ,0
2414,9070003005361,新規,0,2024-04-10,2024-04-10,紳設計合同会社,,合同会社,群馬県,伊勢崎市,国定町２丁目１８５８番地１３,,10,204,3792221,,,,,,,2024-04-10,1,,,,,シンセッケイ,0
2416,9080103003033,新規,0,2024-04-10,2024-04-10,インヴェルノ合同会社,,合同会社,静岡県,富士市,川成島６５４－１０ＡＳＴＹ新富士１階ＷＯＲＸ新富士,,22,210,4160939,,,,,,,2024-04-10,1,,,,,インヴェルノ,0
2424,9100005013160,新規,0,2024-04-10,2024-04-10,学校法人白馬インターナショナルスクール,,その他の設立登記法人,長野県,北安曇郡白馬村,大字北城１１２９０番地－１,,20,485,3999301,,,,,,,2024-04-10,1,,,,,ハクバインターナショナルスクール,0
2425,9110001038326,新規,0,2024-04-10,2024-04-10,株式会社ＴＩＲＥ　ＢＡＮＫ,,株式会社,新潟県,長岡市,中島５丁目２番１０号,,15,202,9400094,,,,,,,2024-04-10,1,,,,,タイヤバンク,0
2426,9110003005365,新規,0,2024-04-10,2024-04-10,合同会社ＵＮＩＶＥＲＳＥ,,合同会社,新潟県,新潟市西区,坂井東３丁目１９番２１号ピアータウン２０３,,15,107,9502041,,,,,,,2024-04-10,1,,,,,ユニバース,0
2427,9110005017078,新規,0,2024-04-10,2024-04-10,一般社団法人ＬＵフープアカデミー,,その他の設立登記法人,新潟県,新潟市中央区,和合町３丁目８番９号,,15,103,9500985,,,,,,,2024-04-10,1,,,,,エルユーフープアカデミー,0
2436,9120001263872,新規,0,2024-04-10,2024-04-10,株式会社三栄テック,,株式会社,大阪府,大阪市西成区,花園北１丁目６番１９－１００１号,,27,122,5570016,,,,,,,2024-04-10,1,,,,,サンエイテック,0
2437,9120001263889,新規,0,2024-04-10,2024-04-10,光明株式会社,,株式会社,大阪府,大阪市東淀川区,西淡路１丁目１番９号,,27,114,5330031,,,,,,,2024-04-10,1,,,,,コウミョウ,0
2438,9120001263906,新規,0,2024-04-10,2024-04-10,株式会社フルフィル・ナビ,,株式会社,大阪府,大阪市西区,靱本町２丁目４番１号下村ビル４階,,27,106,5500004,,,,,,,2024-04-10,1,,,,,フルフィルナビ,0
2439,9120001263930,新規,0,2024-04-10,2024-04-10,株式会社Ｒｅｕｎｉｏｎ,,株式会社,大阪府,大阪市平野区,瓜破２丁目２番７号,,27,126,5470024,,,,,,,2024-04-10,1,,,,,リユニオン,0
2440,9120001263939,新規,0,2024-04-10,2024-04-10,株式会社ＳＣＯＵＴ．ｂｅａｕｔｙ,,株式会社,大阪府,大阪市中央区,南船場１丁目１３番１５号長堀三栄プラザ７０３,,27,128,5420081,,,,,,,2024-04-10,1,,,,,スカウトビューティー,0
2441,9120001263955,新規,0,2024-04-10,2024-04-10,株式会社ａｉｎａ,,株式会社,大阪府,大阪市西区,北堀江２丁目１番１０号,,27,106,5500014,,,,,,,2024-04-10,1,,,,,アイナ,0
2445,9120003026336,新規,0,2024-04-10,2024-04-10,ｕｎｉｍｏｎ合同会社,,合同会社,大阪府,大阪市旭区,赤川３丁目１０番１０号,,27,117,5350005,,,,,,,2024-04-10,1,,,,,ユニモン,0
2447,9120005024271,新規,0,2024-04-10,2024-04-10,一般社団法人君彩,,その他の設立登記法人,大阪府,大阪市城東区,関目５丁目１９番１１号,,27,118,5360008,,,,,,,2024-04-10,1,,,,,キミドリ,0
2453,9120901049000,新規,0,2024-04-10,2024-04-10,わくわくウエルスマネジメント株式会社,,株式会社,大阪府,摂津市,鳥飼西４丁目１５番８号,,27,224,5660072,,,,,,,2024-04-10,1,,,,,ワクワクウエルスマネジメント,0
2454,9120901049009,新規,0,2024-04-10,2024-04-10,株式会社加工マート,,株式会社,大阪府,茨木市,上郡２丁目１番３８号,,27,211,5670065,,,,,,,2024-04-10,1,,,,,カコウマート,0
2455,9120901049017,新規,0,2024-04-10,2024-04-10,ＢＲＯＳ株式会社,,株式会社,大阪府,三島郡島本町,大字東大寺１０４－１５,,27,301,6180002,,,,,,,2024-04-10,1,,,,,ブロス,0
2461,9130003009430,新規,0,2024-04-10,2024-04-10,キモノイスト合同会社,,合同会社,京都府,京都市北区,出雲路俵町４３番地の１,,26,101,6038135,,,,,,,2024-04-10,1,,,,,キモノイスト,0
2464,9140003020411,新規,0,2024-04-10,2024-04-10,合同会社ＰＬ＆Ｓ,,合同会社,兵庫県,神戸市西区,桜が丘西町５丁目１１－４,,28,111,6512227,,,,,,,2024-04-10,1,,,,,ピーエルアンドエス,0
2478,9180001160767,新規,0,2024-04-10,2024-04-10,食物語株式会社,,株式会社,愛知県,日進市,折戸町中屋敷２４番地ロワイヤル２４,,23,230,4700115,,,,,,,2024-04-10,1,,,,,ショクモノガタリ,0
2479,9180001160833,新規,0,2024-04-10,2024-04-10,株式会社リアン,,株式会社,愛知県,名古屋市東区,東桜２丁目６番４３号,,23,102,4610005,,,,,,,2024-04-10,1,,,,,リアン,0
2480,9180001160858,新規,0,2024-04-10,2024-04-10,株式会社ワイズ,,株式会社,愛知県,名古屋市西区,枇杷島５丁目３１番２２号,,23,104,4510053,,,,,,,2024-04-10,1,,,,,ワイズ,0
2486,9190001031257,新規,0,2024-04-10,2024-04-10,アールソリューションズ株式会社,,株式会社,三重県,伊勢市,二見町溝口５５８番地１６,,24,203,5190605,,,,,,,2024-04-10,1,,,,,アールソリューションズ,0
2489,9220001025908,新規,0,2024-04-10,2024-04-10,株式会社Ｎ．Ｃ＆Ｂ,,株式会社,石川県,小松市,今江町８丁目４６６番地,,17,203,9230964,,,,,,,2024-04-10,1,,,,,エヌドットシーアンドビー,0
2490,9220003003713,新規,0,2024-04-10,2024-04-10,合同会社ＲＥＡＳＯＮ,,合同会社,石川県,金沢市,此花町５番６号ライフ金沢第１ビル６０１Ａ,,17,201,9200852,,,,,,,2024-04-10,1,,,,,リーズン,0
2498,9290001105323,新規,0,2024-04-10,2024-04-10,株式会社ティープランナーズ,,株式会社,福岡県,福岡市中央区,赤坂２丁目１番２１－３０３号,,40,133,8100042,,,,,,,2024-04-10,1,,,,,ティープランナーズ,0
2507,9300001013664,新規,0,2024-04-10,2024-04-10,株式会社Ａｋａｍｉｚｕ　Ｈｏｌｄｉｎｇｓ,,株式会社,佐賀県,唐津市,浜玉町浜崎１９０１番地４５７,,41,202,8495131,,,,,,,2024-04-10,1,,,,,アカミズホールディングス,0
2508,9300001013689,新規,0,2024-04-10,2024-04-10,弱水株式会社,,株式会社,佐賀県,佐賀市,中の小路３番３号３０３,,41,201,8400833,,,,,,,2024-04-10,1,,,,,ジャクスイ,0
2513,9330003010310,新規,0,2024-04-10,2024-04-10,耐震化計画合同会社,,合同会社,熊本県,熊本市南区,並建町７８９番地２,,43,104,8615263,,,,,,,2024-04-10,1,,,,,タイシンカケイカク,0
2515,9340001026431,新規,0,2024-04-10,2024-04-10,株式会社せとうちフェリー,,株式会社,鹿児島県,大島郡瀬戸内町,大字古仁屋１１１４番地８２,,46,525,8941508,,,,,,,2024-04-10,1,,,,,セトウチフェリー,0
2518,9350003004616,新規,0,2024-04-10,2024-04-10,合同会社陽毬,,合同会社,宮崎県,宮崎市,神宮東２丁目１０－３３,,45,201,8800056,,,,,,,2024-04-10,1,,,,,ヒマリ,0
2522,9360001033491,新規,0,2024-04-10,2024-04-10,株式会社コンテンツラボ・レキオ,,株式会社,沖縄県,中頭郡西原町,字翁長５０８番地の２,,47,329,9030117,,,,,,,2024-04-10,1,,,,,コンテンツラボレキオ,0
2523,9360003013871,新規,0,2024-04-10,2024-04-10,合同会社ヨシダ企画,,合同会社,沖縄県,那覇市,牧志２丁目１７－２７－４０１,,47,201,9000013,,,,,,,2024-04-10,1,,,,,ヨシダキカク,0
2524,9370001051170,新規,0,2024-04-10,2024-04-10,株式会社ｍｕｓｕｂｉ．ｍａｔｅ,,株式会社,宮城県,仙台市宮城野区,榴岡４丁目１－８パルシティ仙台２Ｆ,,04,102,9830852,,,,,,,2024-04-10,1,,,,,ムスビメイト,0
2528,9370005010767,新規,0,2024-04-10,2024-04-10,一般社団法人宮城県中小企業家同友会,,その他の設立登記法人,宮城県,仙台市宮城野区,榴岡１丁目６番３号東口鳳月ビル４階,,04,102,9830852,,,,,,,2024-04-10,1,,,,,,0
2530,9380001034447,新規,0,2024-04-10,2024-04-10,蔵の街喜多方株式会社,,株式会社,福島県,喜多方市,字寺町４７６１番地,,07,208,9660861,,,,,,,2024-04-10,1,,,,,クラノマチキタカタ,0
2544,9430003016198,新規,0,2024-04-10,2024-04-10,ＢＢ　Ｃｏｒｐｏｒａｔｉｏｎ合同会社,,合同会社,北海道,小樽市,星野町２０番４号,,01,203,0470262,,,,,,,2024-04-10,1,,,,,ビービーコーポレーション,0
2545,9430003016215,新規,0,2024-04-10,2024-04-10,Ｎｉｓｅｋｏ　Ｆｏｏｄ＆Ｗｉｎｅ合同会社,,合同会社,北海道,虻田郡倶知安町,字比羅夫３６９番地３,,01,400,0440077,,,,,,,2024-04-10,1,,,,,ニセコフードアンドワイン,0
2549,9440001009418,新規,0,2024-04-10,2024-04-10,株式会社ｉＤｅａ,,株式会社,北海道,函館市,大手町１８－７,,01,202,0400064,,,,,,,2024-04-10,1,,,,,アイデア,0
2550,9450001014276,新規,0,2024-04-10,2024-04-10,北空知フードサービス株式会社,,株式会社,北海道,雨竜郡沼田町,本通３丁目３番３２号,,01,438,0782203,,,,,,,2024-04-10,1,,,,,キタソラチフードサービス,0
2551,9450003002460,新規,0,2024-04-10,2024-04-10,北の大地ファーム合同会社,,合同会社,北海道,上川郡鷹栖町,１２線六号４番地,,01,452,0711252,,,,,,,2024-04-10,1,,,,,キタノダイチファーム,0
2552,9460003000991,新規,0,2024-04-10,2024-04-10,合同会社ＳＬＯＷ　ＬＩＦＥ,,合同会社,北海道,釧路市,千歳町１２番１３号,,01,206,0850825,,,,,,,2024-04-10,1,,,,,スロウライフ,0
2556,9500001025557,新規,0,2024-04-10,2024-04-10,株式会社ＫＰＣ,,株式会社,愛媛県,松山市,和泉南２丁目８番４２－１号,,38,201,7900941,,,,,,,2024-04-10,1,,,,,ケーピーシー,0
2558,9700150124552,新規,0,2024-04-10,2024-03-26,兵庫県歯科医師連盟,,その他,兵庫県,神戸市中央区,山本通５丁目７番１８号,,28,110,6500003,,,,,,,2024-03-26,1,,,,,ヒヨウゴケンシカイシレンメイ,0
2559,9700150124791,新規,0,2024-04-10,2024-04-10,Ｑｕｚｈｏｕ　Ｋｅｌｕｏｓｉ　Ｔｅｃｈｎｏｌｏｇｙ　Ｃｏ．，ＬＴＤ,,外国会社等,,,,,,,,Ｒｏｏｍ　１０２，Ｎｏ．５８０，Ｐｅｎｇｃｕｎ　Ｖｉｌｌａｇｅ，Ｈａｎｇ　ｂｕ　Ｔｏｗｎ，Ｑｕｚｈｏｕ，Ｚｈｅｊｉａｎｇ,,,,,,2024-04-10,1,,,,,クシュウカラシカギユウゲンコウシ,0
