sequenceNumber,corporateNumber,process,correct,updateDate,changeDate,name,nameImageId,kind,prefectureName,cityName,streetNumber,addressImageId,prefectureCode,cityCode,postCode,addressOutside,addressOutsideImageId,closeDate,closeCause,successorCorporateNumber,changeCause,assignmentDate,latest,enName,enPrefectureName,enCityName,enAddressOutside,furigana,hihyoji
1,1010001198344,登記記録の閉鎖等,0,2024-09-06,2024-09-04,株式会社ＡｉＯ－Ｓ,,株式会社,東京都,中野区,中野２丁目１９番２号,,13,114,1640001,,,2024-09-04,清算の結了等,,,2019-02-07,1,,,,,アイオス,0
19,1010403026706,登記記録の閉鎖等,0,2024-09-06,2024-08-15,合同会社Ｏｘｆｏｒｄ,,合同会社,東京都,港区,虎ノ門５丁目１番４号,,13,103,1050001,,,2024-08-15,清算の結了等,,,2021-12-14,1,,,,,オックスフォード,0
30,1010802006787,登記記録の閉鎖等,0,2024-09-06,2024-09-02,有限会社シエ・マミ,,有限会社,東京都,大田区,田園調布本町３８番６号,,13,111,1450072,,,2024-09-02,清算の結了等,,,2015-10-05,1,,,,,,0
44,1011301022846,登記記録の閉鎖等,0,2024-09-06,2024-09-02,株式会社メルディア住宅検査サービス,,株式会社,東京都,杉並区,上荻１丁目２番１号,,13,115,1670043,,,2024-09-02,合併による解散等,4011301002770,令和６年９月１日東京都杉並区西荻北二丁目１番１１号株式会社メルディア（4011301002770）に合併し解散,2017-01-20,1,,,,,メルディアジュウタクケンササービス,0
49,1011701007249,登記記録の閉鎖等,0,2024-09-06,2024-09-05,株式会社マイテー,,株式会社,群馬県,高崎市,南町４番地４シーザーレジデンス高崎２０４号,,10,202,3700834,,,2024-09-05,清算の結了等,,,2015-10-05,1,,,,,マイテー,0
52,1011801007826,登記記録の閉鎖等,0,2024-09-06,2024-09-03,こやま建設株式会社,,株式会社,東京都,足立区,入谷３丁目２番１号,,13,121,1210836,,,2024-09-03,清算の結了等,,,2015-10-05,1,,,,,コヤマケンセツ,0
57,1012702002395,登記記録の閉鎖等,0,2024-09-06,2024-09-02,有限会社大久保自動車商会,,有限会社,東京都,東村山市,廻田町１丁目１３番地１５,,13,213,1890025,,,2024-09-02,清算の結了等,,,2015-10-05,1,,,,,オオクボジドウシャショウカイ,0
66,1013402001472,登記記録の閉鎖等,0,2024-09-06,2024-09-02,有限会社ミヨシ測量開発設計事務所,,有限会社,東京都,日野市,南平９丁目４３番地１９,,13,212,1910041,,,2024-09-02,清算の結了等,,,2015-10-05,1,,,,,ミヨシソクリョウカイハツセッケイジムショ,0
117,1080002006292,登記記録の閉鎖等,0,2024-09-06,2024-09-02,有限会社ワイエムプロジエクト,,有限会社,静岡県,静岡市葵区,東鷹匠町４番１２号,,22,101,4200833,,,2024-09-02,清算の結了等,,,2015-10-05,1,,,,,ワイエムプロジェクト,0
118,1080002016507,登記記録の閉鎖等,0,2024-09-06,2024-09-02,有限会社大井川ターミナル,,有限会社,静岡県,焼津市,西島３０８番地,,22,212,4210215,,,2024-09-02,清算の結了等,,,2015-10-05,1,,,,,オオイガワターミナル,0
136,1120001142654,登記記録の閉鎖等,0,2024-09-06,2024-09-04,株式会社関西ユナイトリトルウイング,,株式会社,大阪府,大阪市浪速区,日本橋西２丁目３番１２,,27,111,5560004,,,2024-09-04,合併による解散等,7120001037799,令和６年９月１日大阪市浪速区日本橋西二丁目３番１２号関西ユナイトプロテクション株式会社（7120001037799）に合併し解散,2015-10-05,1,,,,,カンサイユナイトリトルウイング,0
161,1130001043661,登記記録の閉鎖等,0,2024-09-06,2024-09-02,舞鶴鍍金工業株式会社,,株式会社,京都府,舞鶴市,字下福井小字新宮１１８３番地の２４,,26,202,6240946,,,2024-09-02,合併による解散等,6130001043533,令和６年９月１日京都府舞鶴市大字溝尻小字越行１０８２番地の１東園工業株式会社（6130001043533）に合併し解散,2015-10-05,1,,,,,マイヅルメッキコウギョウ,0
172,1140001115930,登記記録の閉鎖等,0,2024-09-06,2024-09-03,株式会社ＰＯＲＴＡＤＡ,,株式会社,兵庫県,西脇市,下戸田２０１番地の１２,,28,213,6770043,,,2024-09-03,清算の結了等,,,2019-12-25,1,,,,,ポルターダ,0
181,1140005003990,登記記録の閉鎖等,0,2024-09-06,2024-08-30,技術技能交流事業協同組合,,その他の設立登記法人,兵庫県,加古郡播磨町,北本荘２丁目８－３７,,28,382,6750144,,,2024-08-30,清算の結了等,,,2015-10-05,1,,,,,ギジュツギノウコウリュウ,0
189,1180001094592,登記記録の閉鎖等,0,2024-09-06,2024-08-30,ヒノトスチールワークス株式会社,,株式会社,愛知県,東海市,加木屋町愛敬６８番地の４,,23,222,4770032,,,2024-08-30,清算の結了等,,,2015-10-05,1,,,,,ヒノトスチールワークス,0
201,1180002008196,登記記録の閉鎖等,0,2024-09-06,2024-08-29,有限会社しろ石,,有限会社,愛知県,名古屋市昭和区,菊園町２丁目２２番地,,23,107,4660843,,,2024-08-29,清算の結了等,,,2015-10-05,1,,,,,シロイシ,0
205,1180301027624,登記記録の閉鎖等,0,2024-09-06,2024-09-02,一光建設株式会社,,株式会社,愛知県,豊橋市,町畑町字森田４５番地の１４,,23,201,4418108,,,2024-09-02,清算の結了等,,,2015-10-05,1,,,,,イッコウケンセツ,0
206,1180302009547,登記記録の閉鎖等,0,2024-09-06,2024-08-30,株式会社リフォームライフ,,株式会社,愛知県,豊橋市,南島一丁目６２番地,,23,201,4410000,,,2024-08-30,清算の結了等,,,2015-10-05,1,,,,,リフォームライフ,0
220,1280002007345,登記記録の閉鎖等,0,2024-09-06,2024-09-03,有限会社カワセ,,有限会社,島根県,出雲市,万田町１３３１番地,,32,203,6910033,,,2024-09-03,清算の結了等,,,2015-10-05,1,,,,,カワセ,0
234,1290802017187,登記記録の閉鎖等,0,2024-09-06,2024-09-05,有限会社丸本技建,,有限会社,福岡県,遠賀郡水巻町,古賀３丁目１２番３９号,,40,382,8070012,,,2024-09-05,清算の結了等,,,2015-10-05,1,,,,,マルモトギケン,0
248,1340002025745,登記記録の閉鎖等,0,2024-09-06,2024-09-02,有限会社妹尾商店,,有限会社,鹿児島県,肝属郡南大隅町,根占川北１９１６番地２,,46,491,8932501,,,2024-09-02,清算の結了等,,,2015-10-05,1,,,,,セオショウテン,0
250,1350001015878,登記記録の閉鎖等,0,2024-09-06,2024-09-05,株式会社ＡＹＡ,,株式会社,宮崎県,宮崎市,生目台西３丁目１１番地５,,45,201,8800943,,,2024-09-05,清算の結了等,,,2019-06-05,1,,,,,アヤ,0
261,1420003001984,登記記録の閉鎖等,0,2024-09-06,2024-09-02,合同会社桜田酒店,,合同会社,青森県,十和田市,稲生町１４番４２号,,02,206,0340011,,,2024-09-02,清算の結了等,,,2019-04-09,1,,,,,サクラダサケテン,0
263,1430001065469,登記記録の閉鎖等,0,2024-09-06,2024-09-02,ユタカアルミ工業株式会社,,株式会社,北海道,登別市,片倉町２丁目２４番地２４,,01,230,0590016,,,2024-09-02,清算の結了等,,,2015-10-05,1,,,,,ユタカアルミコウギョウ,0
268,1470001003375,登記記録の閉鎖等,0,2024-09-06,2024-09-03,株式会社パティオ,,株式会社,香川県,高松市,由良町１０７番地５,,37,201,7610441,,,2024-09-03,清算の結了等,,,2015-10-05,1,,,,,パティオ,0
274,1700150014216,登記記録の閉鎖等,0,2024-09-06,2024-03-11,伊勢原市東部第二土地区画整理組合,,その他,神奈川県,伊勢原市,高森１３３５番地３シモノハオスＩ－２０１号室,00128832,14,214,2591114,,,2024-03-11,その他の清算の結了等,,,2015-10-09,1,,,,,イセハラシトウブダイニトチクカクセイリクミアイ,0
275,1700150041664,登記記録の閉鎖等,0,2024-09-06,2024-03-31,ＳＭＢＣファイナンスサービス健康保険組合,,その他,愛知県,名古屋市中区,丸の内３丁目２３－２０,,23,106,4600002,,,2024-03-31,その他の清算の結了等,,,2015-10-09,1,,,,,エスエムビーシーフアイナンスサービスケンコウホケンクミアイ,0
276,1700150054674,登記記録の閉鎖等,0,2024-09-06,2024-03-31,うたたねの里　いっぷく亭,,その他,岡山県,苫田郡鏡野町,上齋原１８０５番地１２,,33,606,7080601,,,2024-03-31,その他の清算の結了等,,,2015-10-09,1,,,,,ウタタネノサトイツプクテイ,0
277,1700150062685,登記記録の閉鎖等,0,2024-09-06,2024-03-31,豊野ｄｅとよの,,その他,熊本県,宇城市,豊野町山崎５９９アグリパーク豊野内,,43,213,8614305,,,2024-03-31,その他の清算の結了等,,,2015-10-09,1,,,,,トヨノデトヨノ,0
279,2010001192759,登記記録の閉鎖等,0,2024-09-06,2024-08-23,株式会社丸山企画,,株式会社,千葉県,市川市,福栄２丁目２１番２１号,,12,203,2720137,,,2024-08-23,清算の結了等,,,2018-06-22,1,,,,,マルヤマキカク,0
288,2010005012161,登記記録の閉鎖等,0,2024-09-06,2024-08-30,山佐産業ＲＹＲ一般社団法人,,その他の設立登記法人,東京都,千代田区,丸の内３丁目１番１号東京共同会計事務所内,,13,101,1000005,,,2024-08-30,清算の結了等,,,2015-10-05,1,,,,,ヤマササンギョウアールワイアール,0
291,2010005033802,登記記録の閉鎖等,0,2024-09-06,2024-09-02,一般財団法人Ｔ．ＦＥＬＩＣＩＡ　ＪＡＰＡＮ,,その他の設立登記法人,東京都,中央区,銀座１丁目１３番１２号,,13,102,1040061,,,2024-09-02,清算の結了等,,,2021-08-19,1,,,,,ティーフェリシアジャパン,0
292,2010401046861,登記記録の閉鎖等,0,2024-09-06,2024-09-03,ＲＭＳ　Ｊａｐａｎ株式会社,,株式会社,東京都,千代田区,永田町２丁目１１番１号山王パークタワー４階,,13,101,1000014,,,2024-09-03,清算の結了等,,,2015-10-05,1,,,,,アールエムエスジャパン,0
305,2010803002818,登記記録の閉鎖等,0,2024-09-06,2024-09-02,合同会社サンフィールド,,合同会社,東京都,品川区,大井１丁目２１番１２号,,13,109,1400014,,,2024-09-02,合併による解散等,7010801027119,令和６年９月１日東京都品川区南品川二丁目２番７号南品川Ｊビル５階株式会社Ｙ’ｓ企画（7010801027119）に合併し解散,2018-10-09,1,,,,,サンフィールド,0
319,2011205001961,登記記録の閉鎖等,0,2024-09-06,2024-09-04,一般社団法人日本語コミュニケーション協会,,その他の設立登記法人,東京都,中野区,本町１丁目５番５－１４１４号,,13,114,1640012,,,2024-09-04,清算の結了等,,,2015-10-05,1,,,,,ニホンゴコミュニケーションキョウカイ,0
334,2012802002534,登記記録の閉鎖等,0,2024-09-06,2024-08-30,有限会社リヴァーストーン,,有限会社,東京都,立川市,羽衣町３丁目１番２０号ラポール西国立４０１号,,13,202,1900021,,,2024-08-30,清算の結了等,,,2015-10-05,1,,,,,,0
346,2020001126641,登記記録の閉鎖等,0,2024-09-06,2024-08-19,株式会社ＴＣコンサルタントオフィス,,株式会社,神奈川県,横浜市港北区,新横浜２丁目１４番８号,,14,109,2220033,,,2024-08-19,清算の結了等,,,2018-06-06,1,,,,,ティーシーコンサルタントオフィス,0
349,2020002025776,登記記録の閉鎖等,0,2024-09-06,2024-08-20,有限会社オープス,,有限会社,神奈川県,横浜市神奈川区,西寺尾１丁目２７番８号,,14,102,2210001,,,2024-08-20,清算の結了等,,,2015-10-05,1,,,,,オープス,0
350,2020002065673,登記記録の閉鎖等,0,2024-09-06,2024-08-20,有限会社おたすけ,,有限会社,神奈川県,横浜市港北区,仲手原１丁目１２番８号,,14,109,2220023,,,2024-08-20,清算の結了等,,,2015-10-05,1,,,,,オタスケ,0
360,2021001080151,登記記録の閉鎖等,0,2024-09-06,2024-09-04,株式会社ＰＲＩＭＥ　ＣＡＲ　ＴＲＡＤＥ,,株式会社,神奈川県,藤沢市,亀井野８６０番地ハイツユニバースＢ１０５号室,,14,205,2520813,,,2024-09-04,清算の結了等,,,2023-09-13,1,,,,,プライムカートレード,0
379,2040001082841,登記記録の閉鎖等,0,2024-09-06,2024-08-30,株式会社トランジット,,株式会社,千葉県,千葉市中央区,栄町３６－１０,,12,101,2600016,,,2024-08-30,清算の結了等,,,2015-10-05,1,,,,,トランジット,0
438,2140002019485,登記記録の閉鎖等,0,2024-09-06,2024-09-03,富山食品有限会社,,有限会社,兵庫県,神戸市長田区,久保町１丁目１番５号,,28,106,6530041,,,2024-09-03,清算の結了等,,,2015-10-05,1,,,,,トミヤマショクヒン,0
439,2140002024072,登記記録の閉鎖等,0,2024-09-06,2024-09-02,有限会社エクストラ,,有限会社,兵庫県,神戸市北区,小倉台１丁目１６番地の８０,,28,109,6511211,,,2024-09-02,合併による解散等,5140001027544,令和６年９月１日神戸市北区小倉台一丁目１６番１１８号株式会社シン・コーポレイション（5140001027544）に合併し解散,2015-10-05,1,,,,,エクストラ,0
459,2180001054744,登記記録の閉鎖等,0,2024-09-06,2024-09-02,株式会社オークス,,株式会社,愛知県,名古屋市港区,十一屋２丁目２３５番地,,23,111,4550831,,,2024-09-02,清算の結了等,,,2015-10-05,1,,,,,オークス,0
469,2180005012401,登記記録の閉鎖等,0,2024-09-06,2024-09-02,半田鉄工協同組合,,その他の設立登記法人,愛知県,半田市,瑞穂町４丁目７番地の２５,,23,205,4750828,,,2024-09-02,清算の結了等,,,2015-10-05,1,,,,,ハンダテッコウ,0
475,2210001001668,登記記録の閉鎖等,0,2024-09-06,2024-09-02,清水電工株式会社,,株式会社,福井県,福井市,舟橋１丁目２１２番地１,,18,201,9100808,,,2024-09-02,清算の結了等,,,2015-10-05,1,,,,,シミズデンコウ,0
483,2230002009824,登記記録の閉鎖等,0,2024-09-06,2024-09-02,有限会社福光塗装店,,有限会社,富山県,南砺市,荒木１４３８番地,,16,210,9391732,,,2024-09-02,合併による解散等,5230001008700,令和６年９月１日富山県南砺市遊部８０１番地株式会社オヤマ自動車（5230001008700）に合併し解散,2015-10-05,1,,,,,フクミツトソウテン,0
485,2230005005085,登記記録の閉鎖等,0,2024-09-06,2024-09-03,縁心寺,,その他の設立登記法人,富山県,砺波市,三合１０番地,,16,208,9391434,,,2024-09-03,清算の結了等,,,2015-10-05,1,,,,,エンシンジ,0
490,2240002042469,登記記録の閉鎖等,0,2024-09-06,2024-09-02,有限会社ビセイ清掃,,有限会社,広島県,福山市,多治米町５丁目５番６－８号,,34,207,7200824,,,2024-09-02,清算の結了等,,,2015-10-05,1,,,,,ビセイセイソウ,0
513,2340001016736,登記記録の閉鎖等,0,2024-09-06,2024-09-02,株式会社くすだ不動産,,株式会社,鹿児島県,霧島市,霧島田口字白土２７６５番地１０６,,46,218,8994201,,,2024-09-02,清算の結了等,,,2015-10-05,1,,,,,クスダフドウサン,0
521,2350002000309,登記記録の閉鎖等,0,2024-09-06,2024-09-04,有限会社有田紙店,,有限会社,宮崎県,宮崎市,恒久南２丁目８番地２０,,45,201,8800915,,,2024-09-04,清算の結了等,,,2015-10-05,1,,,,,アリタカミテン,0
533,2380001003508,登記記録の閉鎖等,0,2024-09-06,2024-08-28,株式会社ふくしま情報企画,,株式会社,福島県,福島市,北沢又字日行壇７番地の４８,,07,201,9608251,,,2024-08-28,清算の結了等,,,2015-10-05,1,,,,,フクシマジョウホウキカク,0
538,2430001036956,登記記録の閉鎖等,0,2024-09-06,2024-09-03,株式会社プリント・アイ,,株式会社,北海道,札幌市手稲区,西宮の沢二条２丁目４番４３号,,01,109,0060002,,,2024-09-03,清算の結了等,,,2015-10-05,1,,,,,プリントアイ,0
549,2700150015048,登記記録の閉鎖等,0,2024-09-06,2024-04-17,国立大学法人千葉大学学生保健互助会,,その他,千葉県,千葉市稲毛区,弥生町１―３３,,12,103,2630022,,,2024-04-17,その他の清算の結了等,,,2015-10-09,1,,,,,コクリツダイガクホウジンチバダイガクガクセイホケンゴジヨカイ,0
550,2700150042075,登記記録の閉鎖等,0,2024-09-06,2024-04-01,東海染工健康保険組合,,その他,愛知県,清須市,西枇杷島町子新田１番地２,,23,233,4520068,,,2024-04-01,その他の清算の結了等,,,2015-10-09,1,,,,,トウカイセンコウケンコウホケンクミアイ,0
551,2700150061802,登記記録の閉鎖等,0,2024-09-06,2024-01-30,小値賀土地改良区,,その他,長崎県,北松浦郡小値賀町,笛吹郷２３８５番地２,,42,383,8574701,,,2024-01-30,その他の清算の結了等,,,2015-10-09,1,,,,,オジカトチカイリヨウク,0
552,2700150108090,登記記録の閉鎖等,0,2024-09-06,2024-03-31,日本シューマン協会　札幌支部,,その他,北海道,札幌市中央区,南二十六条西８丁目３番３０号,,01,101,0640926,,,2024-03-31,その他の清算の結了等,,,2022-04-18,1,,,,,ニホンシユーマンキヨウカイサツポロシブ,0
553,2700150110286,登記記録の閉鎖等,0,2024-09-06,2024-03-31,劇団アンゲルス,,その他,石川県,金沢市,長土塀３丁目２４－２８,,17,201,9200867,,,2024-03-31,その他の清算の結了等,,,2022-06-22,1,,,,,ゲキダンアンゲルス,0
572,3010401123107,登記記録の閉鎖等,0,2024-09-06,2024-07-08,株式会社ＥＰＡＲＫからだリフレ,,株式会社,東京都,港区,芝浦４丁目１６番２５号,,13,103,1080023,,,2024-07-08,合併による解散等,5013301046862,令和６年６月３０日東京都港区芝浦四丁目１６番２５号株式会社アイフラッグ（5013301046862）に合併し解散,2016-02-16,1,,,,,,0
583,3010501022150,登記記録の閉鎖等,0,2024-09-06,2024-08-27,株式会社領民企画,,株式会社,東京都,台東区,三筋２丁目１５番１０号領民ビル,,13,106,1110055,,,2024-08-27,清算の結了等,,,2015-10-05,1,,,,,リョウミンキカク,0
584,3010501034468,登記記録の閉鎖等,0,2024-09-06,2024-09-02,株式会社小口製作室,,株式会社,東京都,台東区,竜泉２丁目２０番２－１４０５号ミサワホームズ三ノ輪,,13,106,1100012,,,2024-09-02,清算の結了等,,,2015-10-05,1,,,,,コグチセイサクショ,0
586,3010901000771,登記記録の閉鎖等,0,2024-09-06,2024-09-03,株式会社鮎川電機,,株式会社,東京都,世田谷区,船橋１丁目４７番８号,,13,112,1560055,,,2024-09-03,清算の結了等,,,2015-10-05,1,,,,,アユカワデンキ,0
597,3011101052208,登記記録の閉鎖等,0,2024-09-06,2024-08-26,株式会社ワールドシティトランスポート,,株式会社,東京都,新宿区,高田馬場３丁目１３番３号,,13,104,1690075,,,2024-08-26,清算の結了等,,,2015-10-05,1,,,,,ワールドシティトランスポート,0
607,3011403000979,登記記録の閉鎖等,0,2024-09-06,2024-09-02,合同会社弘和三興,,合同会社,東京都,板橋区,三園２丁目１７番５－４０３号,,13,119,1750091,,,2024-09-02,清算の結了等,,,2015-10-05,1,,,,,コウワサンコウ,0
612,3011802027078,登記記録の閉鎖等,0,2024-09-06,2024-09-02,株式会社小寺学園,,株式会社,東京都,足立区,千住３丁目５番地,,13,121,1200034,,,2024-09-02,合併による解散等,5011801025345,令和６年８月３０日東京都足立区千住二丁目３５番地株式会社ハーベスター・ファシリティーズ（5011801025345）に合併し解散,2015-10-05,1,,,,,コデラガクエン,0
619,3012403006149,登記記録の閉鎖等,0,2024-09-06,2024-09-05,合同会社糸くり屋,,合同会社,東京都,三鷹市,下連雀３丁目３５‐１Ｎ・Ｅ・ＯＣＩＴＹＭＩＴＡＫＡ６Ｆ,,13,204,1810013,,,2024-09-05,清算の結了等,,,2023-09-05,1,,,,,イトクリヤ,0
639,3030001152776,登記記録の閉鎖等,0,2024-09-06,2024-09-02,株式会社Ｇ＆Ｊコンサルティング,,株式会社,埼玉県,さいたま市大宮区,堀の内町３丁目２３８－９,,11,103,3300804,,,2024-09-02,清算の結了等,,,2023-03-09,1,,,,,ジーアンドジェイコンサルティング,0
654,3040003012606,登記記録の閉鎖等,0,2024-09-06,2024-08-30,合同会社ＺＥＮ,,合同会社,千葉県,千葉市中央区,富士見２丁目２３番９号千葉中央プリマビル６階,,12,101,2600015,,,2024-08-30,清算の結了等,,,2018-12-11,1,,,,,ゼン,0
700,3120101050202,登記記録の閉鎖等,0,2024-09-06,2024-09-05,株式会社熱風,,株式会社,大阪府,和泉市,伏屋町５丁目３番１－１１０４号,,27,219,5940031,,,2024-09-05,清算の結了等,,,2015-10-05,1,,,,,ネップウ,0
708,3130001041440,登記記録の閉鎖等,0,2024-09-06,2024-09-02,株式会社小西工作所,,株式会社,京都府,福知山市,夜久野町小倉１４４５番地の２,,26,201,6291314,,,2024-09-02,合併による解散等,6130001043533,令和６年９月１日京都府舞鶴市大字溝尻小字越行１０８２番地の１東園工業株式会社（6130001043533）に合併し解散,2015-10-05,1,,,,,コニシコウサクショ,0
711,3140001009692,登記記録の閉鎖等,0,2024-09-06,2024-09-02,株式会社アート相続プラン,,株式会社,兵庫県,神戸市中央区,御幸通３丁目１番８号,,28,110,6510087,,,2024-09-02,合併による解散等,3140001009585,令和６年８月３１日神戸市中央区御幸通三丁目１番８号株式会社トータル財務プラン（3140001009585）に合併し解散,2015-10-05,1,,,,,アートソウゾクプラン,0
712,3140001061108,登記記録の閉鎖等,0,2024-09-06,2024-09-02,株式会社木楽家,,株式会社,兵庫県,姫路市,飾磨区恵美酒２６０番地,,28,201,6728057,,,2024-09-02,清算の結了等,,,2015-10-05,1,,,,,キラクヤ,0
737,3180001123283,登記記録の閉鎖等,0,2024-09-06,2024-08-30,株式会社朋和テクニカル,,株式会社,愛知県,名古屋市中村区,諏訪町３丁目５番２７号,,23,105,4530062,,,2024-08-30,清算の結了等,,,2016-05-12,1,,,,,ホウワテクニカル,0
751,3190001019935,登記記録の閉鎖等,0,2024-09-06,2024-09-03,松阪フーズ株式会社,,株式会社,三重県,多気郡多気町,五佐奈６４０番地,,24,441,5192157,,,2024-09-03,清算の結了等,,,2015-10-05,1,,,,,マツザカフーズ,0
761,3220001014932,登記記録の閉鎖等,0,2024-09-06,2024-09-02,株式会社フラワーズデポ,,株式会社,石川県,金沢市,割出町１２番地１,,17,201,9200062,,,2024-09-02,合併による解散等,6220003002296,令和６年９月１日石川県金沢市割出町１２番地１ＫＭＳＪＡＰＡＮ合同会社（6220003002296）に合併し解散,2015-10-05,1,,,,,フラワーズデポ,0
769,3240002025373,登記記録の閉鎖等,0,2024-09-06,2024-09-03,有限会社松本工業,,有限会社,広島県,広島市南区,仁保新町２丁目９番３５号,,34,103,7340024,,,2024-09-03,清算の結了等,,,2015-10-05,1,,,,,マツモトコウギョウ,0
776,3280005007266,登記記録の閉鎖等,0,2024-09-06,2024-09-03,特定非営利活動法人石見銀山いくじの会,,その他の設立登記法人,島根県,大田市,大森町ニ３２番地,,32,205,6940305,,,2024-09-03,清算の結了等,,,2018-12-19,1,,,,,イワミギンザンイクジノカイ,0
788,3290002041275,登記記録の閉鎖等,0,2024-09-06,2024-07-25,有限会社山装,,有限会社,福岡県,春日市,白水池２丁目７６番地,,40,218,8160848,,,2024-07-25,清算の結了等,,,2015-10-05,1,,,,,ヤマソウ,0
792,3290802011700,登記記録の閉鎖等,0,2024-09-06,2024-08-26,有限会社山栄,,有限会社,福岡県,北九州市小倉南区,上葛原２丁目１３番１４号,,40,107,8000255,,,2024-08-26,清算の結了等,,,2015-10-05,1,,,,,,0
797,3330001016430,登記記録の閉鎖等,0,2024-09-06,2024-09-02,株式会社Ａ・Ｎ・Ｇ,,株式会社,熊本県,熊本市中央区,下通１丁目８番１３号,,43,101,8600807,,,2024-09-02,合併による解散等,6330001008846,令和６年９月１日熊本市中央区新市街１番３６号株式会社桜蔵（6330001008846）に合併し解散,2015-10-05,1,,,,,エエヌジ,0
799,3330002017519,登記記録の閉鎖等,0,2024-09-06,2024-09-02,有限会社オフィスＥ・Ｉ,,有限会社,熊本県,菊池郡菊陽町,新山１丁目１番２８号,,43,404,8691109,,,2024-09-02,合併による解散等,8330001010081,令和６年９月１日熊本県菊池郡菊陽町新山一丁目１番２８号株式会社Ｅ・Ｉカンパニー（8330001010081）に合併し解散,2015-10-05,1,,,,,オフィスイーアイ,0
804,3360001012229,登記記録の閉鎖等,0,2024-09-06,2024-09-02,株式会社前田産業,,株式会社,沖縄県,名護市,字宮里４５３番地の１,,47,209,9050011,,,2024-09-02,合併による解散等,3360001012162,令和６年９月１日沖縄県名護市港二丁目６番５号株式会社屋部土建（3360001012162）に合併し解散,2015-10-05,1,,,,,マエダサンギョウ,0
831,3700150037157,登記記録の閉鎖等,0,2024-09-06,2024-03-31,帯島地域漬物加工組合,,その他,岩手県,九戸郡洋野町,阿子木第１８地割１５－１,,03,507,0288803,,,2024-03-31,その他の清算の結了等,,,2015-10-09,1,,,,,タイシマチイキツケモノカコウクミアイ,0
832,3700150110038,登記記録の閉鎖等,0,2024-09-06,2023-04-01,Ｅｎｓｅｍｂｌｅ　Ｃｌａｓｓｉｃａ　Ｚｕｓｈｉ,,その他,神奈川県,逗子市,久木１丁目６－２７,,14,208,2490001,,,2023-04-01,その他の清算の結了等,,,2022-06-17,1,,,,,アンサンブルクラシカズシ,0
842,4010003038074,登記記録の閉鎖等,0,2024-09-06,2024-08-26,合同会社シュール,,合同会社,東京都,千代田区,内神田３丁目１２－５渡辺住研ビル３階,,13,101,1010047,,,2024-08-26,清算の結了等,,,2022-07-07,1,,,,,シュール,0
845,4010005023132,登記記録の閉鎖等,0,2024-09-06,2024-09-02,ＳＭＢＣ第２８回ＲＭＢＳ特定目的会社,,その他の設立登記法人,東京都,千代田区,丸の内３丁目１番１号東京共同会計事務所内,,13,101,1000005,,,2024-09-02,清算の結了等,,,2015-10-05,1,,,,,エスエムビーシーダイニジュウハチカイアールエムビーエス,0
865,4010801010837,登記記録の閉鎖等,0,2024-09-06,2024-09-02,株式会社ホウメイ,,株式会社,東京都,大田区,大森東２丁目２６番２５号,,13,111,1430012,,,2024-09-02,清算の結了等,,,2015-10-05,1,,,,,ホウメイ,0
892,4011401011705,登記記録の閉鎖等,0,2024-09-06,2024-09-02,美和野印刷株式会社,,株式会社,東京都,板橋区,高島平９丁目２９番１５号１０１,,13,119,1750082,,,2024-09-02,清算の結了等,,,2015-10-05,1,,,,,ミワノインサツ,0
902,4012401040883,登記記録の閉鎖等,0,2024-09-06,2024-09-03,株式会社ウルトラヘヴン,,株式会社,東京都,小金井市,桜町２丁目７番２３号,,13,210,1840005,,,2024-09-03,清算の結了等,,,2023-08-16,1,,,,,ウルトラヘヴン,0
903,4012402005811,登記記録の閉鎖等,0,2024-09-06,2024-09-02,有限会社荒金工務店,,有限会社,東京都,国立市,東４丁目６番地の１０,,13,215,1860002,,,2024-09-02,清算の結了等,,,2015-10-05,1,,,,,アラガネコウムテン,0
918,4020005008826,登記記録の閉鎖等,0,2024-09-06,2024-08-19,特定非営利活動法人小杉駅周辺エリアマネジメント,,その他の設立登記法人,神奈川県,川崎市中原区,小杉町３丁目２４５中原区役所別棟エリマネ事務所,,14,133,2110063,,,2024-08-19,清算の結了等,,,2015-10-05,1,,,,,コスギエキシュウヘンエリアマネジメント,0
938,4030002020601,登記記録の閉鎖等,0,2024-09-06,2024-09-02,有限会社いふじ人形店,,有限会社,埼玉県,さいたま市岩槻区,城町２丁目１番８９号,,11,110,3390053,,,2024-09-02,清算の結了等,,,2015-10-05,1,,,,,イフジニンギョウテン,0
943,4030002125499,登記記録の閉鎖等,0,2024-09-06,2024-09-02,有限会社林自動車工業,,有限会社,埼玉県,熊谷市,大字佐谷田１０２６番地１,,11,202,3600000,,,2024-09-02,清算の結了等,,,2024-08-19,1,,,,,ハヤシジドウシャコウギョウ,0
944,4030003020170,登記記録の閉鎖等,0,2024-09-06,2024-09-02,エルドラード合同会社,,合同会社,埼玉県,川口市,並木２丁目４１番９号九龍ビル２０１,,11,203,3320034,,,2024-09-02,清算の結了等,,,2022-09-12,1,,,,,エルドラード,0
946,4040001015304,登記記録の閉鎖等,0,2024-09-06,2024-08-29,サン・ニュートリション株式会社,,株式会社,千葉県,習志野市,津田沼２丁目１２番１０－２０４号,,12,216,2750016,,,2024-08-29,清算の結了等,,,2015-10-05,1,,,,,サンニュートリション,0
961,4070002005540,登記記録の閉鎖等,0,2024-09-06,2024-09-03,有限会社山口養豚,,有限会社,群馬県,前橋市,堀越町１６０３番地,,10,201,3710231,,,2024-09-03,清算の結了等,,,2015-10-05,1,,,,,ヤマグチヨウトン,0
962,4070002036916,登記記録の閉鎖等,0,2024-09-06,2024-09-03,有限会社ヤマ・エンタープライズ,,有限会社,群馬県,吾妻郡嬬恋村,大字袋倉４４番地の１,,10,425,3771522,,,2024-09-03,清算の結了等,,,2015-10-05,1,,,,,ヤマエンタープライズ,0
973,4080401015981,登記記録の閉鎖等,0,2024-09-06,2024-09-05,株式会社プリンス靴店,,株式会社,静岡県,磐田市,中泉５８４番地の２,,22,211,4380078,,,2024-09-05,清算の結了等,,,2015-10-05,1,,,,,プリンスクツテン,0
979,4110002022028,登記記録の閉鎖等,0,2024-09-06,2024-09-02,有限会社エッセン,,有限会社,新潟県,村上市,羽黒口７番４０号,,15,212,9580836,,,2024-09-02,清算の結了等,,,2015-10-05,1,,,,,エッセン,0
980,4120001051258,登記記録の閉鎖等,0,2024-09-06,2024-09-04,株式会社ウイル,,株式会社,大阪府,大阪市東淀川区,瑞光２丁目１３番３１号,,27,114,5330005,,,2024-09-04,清算の結了等,,,2015-10-05,1,,,,,ウイル,0
997,4120003006276,登記記録の閉鎖等,0,2024-09-06,2024-09-02,合同会社ディプラテック,,合同会社,大阪府,大阪市中央区,淡路町２丁目６番１１号淡路町パークビル三統株式会社内,,27,128,5410047,,,2024-09-02,清算の結了等,,,2015-10-05,1,,,,,ディプラテック,0
1024,4180001079384,登記記録の閉鎖等,0,2024-09-06,2024-08-30,株式会社陽山,,株式会社,愛知県,瀬戸市,共栄通２丁目２８番地,,23,204,4890809,,,2024-08-30,清算の結了等,,,2015-10-05,1,,,,,ヨウザン,0
1025,4180001126293,登記記録の閉鎖等,0,2024-09-06,2024-09-02,株式会社グラスプミライ,,株式会社,愛知県,岡崎市,中田町３番地７,,23,202,4440836,,,2024-09-02,合併による解散等,1180301027038,令和６年９月１日愛知県岡崎市中田町３番地７みえるみらい株式会社（1180301027038）に合併し解散,2017-01-20,1,,,,,グラスプミライ,0
1045,4190002010223,登記記録の閉鎖等,0,2024-09-06,2024-09-04,有限会社松葉造船,,有限会社,三重県,伊勢市,二見町今一色１２３番地,,24,203,5190608,,,2024-09-04,清算の結了等,,,2015-10-05,1,,,,,マツバゾウセン,0
1049,4200001027308,登記記録の閉鎖等,0,2024-09-06,2024-09-02,株式会社プリンシプル,,株式会社,岐阜県,岐阜市,粟野東５丁目１９７番地,,21,201,5020002,,,2024-09-02,清算の結了等,,,2015-10-05,1,,,,,プリンシプル,0
1052,4240001019144,登記記録の閉鎖等,0,2024-09-06,2024-09-02,富士プリンテック株式会社,,株式会社,広島県,廿日市市,宮園上４丁目５番地１８,,34,213,7380037,,,2024-09-02,清算の結了等,,,2015-10-05,1,,,,,フジプリンテック,0
1058,4240002034415,登記記録の閉鎖等,0,2024-09-06,2024-09-03,有限会社山一産業,,有限会社,広島県,呉市,中通３丁目３番１号,,34,202,7370046,,,2024-09-03,清算の結了等,,,2015-10-05,1,,,,,ヤマイチサンギョウ,0
1060,4240002039406,登記記録の閉鎖等,0,2024-09-06,2024-09-03,今川水道有限会社,,有限会社,広島県,福山市,南蔵王町５丁目２２番２４号,,34,207,7210973,,,2024-09-03,清算の結了等,,,2015-10-05,1,,,,,イマガワスイドウ,0
1061,4250001009020,登記記録の閉鎖等,0,2024-09-06,2024-09-03,ＢＩ－ＳＥＩ株式会社,,株式会社,山口県,周南市,大字呼坂７４７番地１,,35,215,7450612,,,2024-09-03,合併による解散等,2250001010806,令和６年９月１日山口県周南市大字呼坂７４７番地１株式会社美西（2250001010806）に合併し解散,2015-10-05,1,,,,,ビセイ,0
1085,4300002010640,登記記録の閉鎖等,0,2024-09-06,2024-08-28,福島ビル有限会社,,有限会社,佐賀県,唐津市,中町１８２９番地,,41,202,8470051,,,2024-08-28,清算の結了等,,,2015-10-05,1,,,,,フクシマビル,0
1086,4300002011044,登記記録の閉鎖等,0,2024-09-06,2024-09-02,有限会社久満雲丹本舗,,有限会社,佐賀県,唐津市,呼子町呼子３７６４番地第１６,,41,202,8470303,,,2024-09-02,清算の結了等,,,2015-10-05,1,,,,,クマウニホンポ,0
1103,4410002002643,登記記録の閉鎖等,0,2024-09-06,2024-09-03,有限会社テックサービス,,有限会社,秋田県,秋田市,柳田字佐渡端４７番地,,05,201,0100825,,,2024-09-03,清算の結了等,,,2015-10-05,1,,,,,テックサービス,0
1113,4460301000392,登記記録の閉鎖等,0,2024-09-06,2024-09-05,株式会社こにし,,株式会社,北海道,北見市,北一条西３丁目４番地の１,,01,208,0900041,,,2024-09-05,清算の結了等,,,2015-10-05,1,,,,,コニシ,0
1125,5010001220145,登記記録の閉鎖等,0,2024-09-06,2024-09-04,Ａｐｐ　Ｘ株式会社,,株式会社,東京都,品川区,西五反田８丁目９番５号,,13,109,1410031,,,2024-09-04,合併による解散等,7020003006548,令和６年９月１日東京都新宿区新宿六丁目２８番１２号株式会社インプリ（7020003006548）に合併し解散,2021-08-03,1,,,,,アップエックス,0
1131,5010005022018,登記記録の閉鎖等,0,2024-09-06,2024-08-30,一般社団法人日本ビジネス志縁協会,,その他の設立登記法人,東京都,千代田区,神田猿楽町２丁目８番５号千信ビル２Ｆ,,13,101,1010064,,,2024-08-30,清算の結了等,,,2015-10-05,1,,,,,ニホンビジネスシエンキョウカイ,0
1138,5010401148639,登記記録の閉鎖等,0,2024-09-06,2024-08-15,株式会社シルビアン,,株式会社,東京都,港区,愛宕２丁目５番１号愛宕グリーンヒルズＭＯＲＩタワー３６Ｆ,,13,103,1050002,,,2024-08-15,清算の結了等,,,2019-10-15,1,,,,,シルビアン,0
1146,5010501028360,登記記録の閉鎖等,0,2024-09-06,2024-08-30,株式会社彩インターナショナル,,株式会社,千葉県,大網白里市,四天木７２８番地１０,,12,239,2993203,,,2024-08-30,清算の結了等,,,2015-10-05,1,,,,,アヤインターナショナル,0
1189,5013302021245,登記記録の閉鎖等,0,2024-09-06,2024-08-30,有限会社フィーニス,,有限会社,東京都,豊島区,池袋本町２丁目１番１１号,,13,116,1700011,,,2024-08-30,清算の結了等,,,2015-10-05,1,,,,,フィーニス,0
1190,5013402006609,登記記録の閉鎖等,0,2024-09-06,2024-09-05,有限会社オフィス・村井,,有限会社,東京都,多摩市,一ノ宮１丁目２７番１－４０７号,,13,224,2060002,,,2024-09-05,清算の結了等,,,2015-10-05,1,,,,,オフィスムライ,0
1199,5020002020337,登記記録の閉鎖等,0,2024-09-06,2024-08-20,有限会社レッツ,,有限会社,神奈川県,横浜市港南区,日野４丁目５０番８号,,14,111,2340051,,,2024-08-20,清算の結了等,,,2015-10-05,1,,,,,レッツ,0
1200,5020002052578,登記記録の閉鎖等,0,2024-09-06,2024-08-19,有限会社小松,,有限会社,神奈川県,横浜市西区,平沼２丁目９番１３－１０６号,,14,103,2200023,,,2024-08-19,清算の結了等,,,2015-10-05,1,,,,,コマツ,0
1208,5021002018692,登記記録の閉鎖等,0,2024-09-06,2024-09-04,有限会社大田商亊,,有限会社,神奈川県,相模原市中央区,清新８丁目６番５号,,14,152,2520216,,,2024-09-04,清算の結了等,,,2015-10-05,1,,,,,オオタショウジ,0
1210,5021002049952,登記記録の閉鎖等,0,2024-09-06,2024-09-04,有限会社榎本配管,,有限会社,神奈川県,足柄下郡湯河原町,宮下５５３番地,,14,384,2590304,,,2024-09-04,清算の結了等,,,2015-10-05,1,,,,,,0
1221,5030002101103,登記記録の閉鎖等,0,2024-09-06,2024-09-02,有限会社大熊製作所,,有限会社,埼玉県,川口市,本町１丁目１１番１３号,,11,203,3320012,,,2024-09-02,清算の結了等,,,2015-10-05,1,,,,,オオクマセイサクショ,0
1224,5040001007449,登記記録の閉鎖等,0,2024-09-06,2024-09-02,明生不動産株式会社,,株式会社,千葉県,千葉市稲毛区,黒砂台３丁目７番２１号,,12,103,2630041,,,2024-09-02,清算の結了等,,,2015-10-05,1,,,,,メイセイフドウサン,0
1236,5070002001010,登記記録の閉鎖等,0,2024-09-06,2024-09-03,有限会社大崎スワインビジネス,,有限会社,群馬県,前橋市,滝窪町１１９５番地の１,,10,201,3710235,,,2024-09-03,清算の結了等,,,2015-10-05,1,,,,,オオサキスワインビジネス,0
1247,5100002035814,登記記録の閉鎖等,0,2024-09-06,2024-08-26,有限会社飯田国際ツーリスト,,有限会社,長野県,飯田市,上郷黒田２７２４番地７,,20,205,3950004,,,2024-08-26,清算の結了等,,,2015-10-05,1,,,,,イイダコクサイツーリスト,0
1258,5120001197728,登記記録の閉鎖等,0,2024-09-06,2024-09-02,株式会社メイコー,,株式会社,兵庫県,芦屋市,山手町１２番１５－８０４号,,28,206,6590096,,,2024-09-02,清算の結了等,,,2016-04-22,1,,,,,メイコー,0
1270,5120902017637,登記記録の閉鎖等,0,2024-09-06,2024-09-02,有限会社上田設備設計事務所,,有限会社,兵庫県,宝塚市,雲雀丘山手２丁目１５番２８－６０３号,,28,214,6650804,,,2024-09-02,清算の結了等,,,2015-10-05,1,,,,,ウエダセツビセッケイジムショ,0
1280,5140001041272,登記記録の閉鎖等,0,2024-09-06,2024-09-02,株式会社美友工芸,,株式会社,兵庫県,丹波市,柏原町田路４９０番地,,28,223,6693312,,,2024-09-02,清算の結了等,,,2015-10-05,1,,,,,ビユウコウゲイ,0
1288,5140003012610,登記記録の閉鎖等,0,2024-09-06,2024-09-03,合同会社花水木,,合同会社,兵庫県,神戸市垂水区,西舞子９丁目１２番５号,,28,108,6550048,,,2024-09-03,清算の結了等,,,2017-12-04,1,,,,,ハナミズキ,0
1289,5140003015992,登記記録の閉鎖等,0,2024-09-06,2024-09-02,ＯＫＡＤＡ・ＫＥＩＴＥＩ合同会社,,合同会社,兵庫県,神戸市須磨区,友が丘４丁目１番地の３０－１１２８号,,28,107,6540142,,,2024-09-02,清算の結了等,,,2021-03-03,1,,,,,オカダケイテイ,0
1291,5150001008948,登記記録の閉鎖等,0,2024-09-06,2024-09-05,株式会社ｗｉｌｌ悠,,株式会社,奈良県,奈良市,秋篠町１２０６番地３,,29,201,6310811,,,2024-09-05,清算の結了等,,,2015-10-05,1,,,,,ウイルユウ,0
1296,5170002011008,登記記録の閉鎖等,0,2024-09-06,2024-09-03,有限会社ＫｉＫｏ,,有限会社,和歌山県,紀の川市,西川原２１番地,,30,208,6496524,,,2024-09-03,清算の結了等,,,2015-10-05,1,,,,,キコ,0
1301,5180001132134,登記記録の閉鎖等,0,2024-09-06,2024-08-26,株式会社友成,,株式会社,愛知県,春日井市,石尾台１丁目２番地１,,23,206,4870006,,,2024-08-26,清算の結了等,,,2018-05-09,1,,,,,ユウセイ,0
1315,5210005009556,登記記録の閉鎖等,0,2024-09-06,2024-09-02,一般社団法人入尾・笈松活性化委員会,,その他の設立登記法人,福井県,丹生郡越前町,笈松第２８号１５番地,,18,423,9160206,,,2024-09-02,清算の結了等,,,2015-12-03,1,,,,,イリオオイマツカッセイカイインカイ,0
1332,5240005012813,登記記録の閉鎖等,0,2024-09-06,2024-09-04,安芸高田市ブランド住宅事業協同組合,,その他の設立登記法人,広島県,安芸高田市,吉田町吉田９７９番地２,,34,214,7310501,,,2024-09-04,清算の結了等,,,2015-10-05,1,,,,,アキタカタシブランドジュウタク,0
1342,5290001092854,登記記録の閉鎖等,0,2024-09-06,2024-07-31,株式会社龍生堂,,株式会社,福岡県,福岡市東区,香椎浜３丁目３番４－２０７号モントーレ香椎浜サーフタワーウエストウイング,,40,131,8130016,,,2024-07-31,清算の結了等,,,2021-04-19,1,,,,,リュウセイドウ,0
1361,5360002016887,登記記録の閉鎖等,0,2024-09-06,2024-09-03,有限会社フレスコ,,有限会社,沖縄県,宜野湾市,普天間１丁目２２番１１号,,47,205,9012202,,,2024-09-03,清算の結了等,,,2015-10-05,1,,,,,フレスコ,0
1362,5370001009692,登記記録の閉鎖等,0,2024-09-06,2024-08-29,株式会社ニュー・エンジニアリング・サービス,,株式会社,宮城県,仙台市青葉区,二日町７番３２－２１１号,,04,101,9800802,,,2024-08-29,清算の結了等,,,2015-10-05,1,,,,,ニューエンジニアリングサービス,0
1372,5380002031182,登記記録の閉鎖等,0,2024-09-06,2024-08-27,有限会社一箕販売センター,,有限会社,福島県,会津若松市,一箕町大字亀賀字郷之原３３０番地,,07,202,9650005,,,2024-08-27,清算の結了等,,,2015-10-05,1,,,,,イッキハンバイセンター,0
1383,5430001085819,登記記録の閉鎖等,0,2024-09-06,2024-08-30,株式会社アール・ダブル,,株式会社,北海道,札幌市白石区,北郷三条９丁目１番２６号,,01,104,0030833,,,2024-08-30,合併による解散等,5430001058337,令和６年８月３０日札幌市白石区北郷三条九丁目１番２６号株式会社リヨ・デ・ホーム（5430001058337）に合併し解散,2022-01-19,1,,,,,アールダブル,0
1396,5700150020053,登記記録の閉鎖等,0,2024-09-06,2024-04-01,中部酪農ヘルパー組合,,その他,群馬県,前橋市,粕川町稲里取切　２４０－２,,10,201,3710207,,,2024-04-01,その他の清算の結了等,,,2015-10-09,1,,,,,チユウブラクノウヘルパークミアイ,0
1397,5700150066542,登記記録の閉鎖等,0,2024-09-06,2023-07-29,うるま市江洲土地区画整理組合,,その他,沖縄県,うるま市,字江洲１４番地江洲自治会館内,,47,213,9042244,,,2023-07-29,その他の清算の結了等,,,2015-10-09,1,,,,,ウルマシエストチクカクセイリクミアイ,0
1414,6010002028264,登記記録の閉鎖等,0,2024-09-06,2024-09-02,有限会社デジフォース,,有限会社,東京都,町田市,能ヶ谷５丁目１５番１５号,,13,209,1950053,,,2024-09-02,清算の結了等,,,2015-10-05,1,,,,,デジフォース,0
1415,6010003018355,登記記録の閉鎖等,0,2024-09-06,2024-08-26,合同会社ＴＳＵＢＡＫＩ,,合同会社,東京都,千代田区,一番町９番地８ノザワビルディング６階税理士法人シリウス内,,13,101,1020082,,,2024-08-26,清算の結了等,,,2015-10-05,1,,,,,ツバキ,0
1429,6010405007138,登記記録の閉鎖等,0,2024-09-06,2024-09-02,特定非営利活動法人国際青少年家庭協力交流会,,その他の設立登記法人,東京都,江東区,亀戸９丁目３３－２亀戸９丁目アパート２号棟４２０号室,,13,108,1360071,,,2024-09-02,清算の結了等,,,2015-10-05,1,,,,,,0
1431,6010405020405,登記記録の閉鎖等,0,2024-09-06,2024-08-22,みなとホールディングス一般社団法人,,その他の設立登記法人,東京都,港区,元赤坂１丁目１番７号,,13,103,1070051,,,2024-08-22,清算の結了等,,,2021-11-18,1,,,,,ミナトホールディングス,0
1442,6010802011469,登記記録の閉鎖等,0,2024-09-06,2024-09-02,有限会社長谷電商会,,有限会社,東京都,大田区,大森南１丁目１２番１１号,,13,111,1430013,,,2024-09-02,清算の結了等,,,2015-10-05,1,,,,,ハセデンショウカイ,0
1465,6011103010755,登記記録の閉鎖等,0,2024-09-06,2024-08-23,合同会社ＴＵ０２,,合同会社,東京都,新宿区,四谷２丁目９番地１５東京ユナイテッド綜合事務所内,,13,104,1600004,,,2024-08-23,清算の結了等,,,2021-06-14,1,,,,,ティーユーゼロツー,0
1509,6030002105169,登記記録の閉鎖等,0,2024-09-06,2024-09-02,株式会社デンテクノサービス,,株式会社,埼玉県,川口市,東領家２丁目２９番１３号,,11,203,3320003,,,2024-09-02,清算の結了等,,,2015-10-05,1,,,,,デンテクノサービス,0
1511,6040001017802,登記記録の閉鎖等,0,2024-09-06,2024-08-30,鈴木電子株式会社,,株式会社,千葉県,船橋市,東船橋３丁目３６番１号,,12,204,2730002,,,2024-08-30,清算の結了等,,,2015-10-05,1,,,,,スズキデンシ,0
1518,6050001000014,登記記録の閉鎖等,0,2024-09-06,2024-08-08,朝日ビル株式会社,,株式会社,茨城県,水戸市,笠原町６００番地１７,,08,201,3100852,,,2024-08-08,合併による解散等,1050001000150,令和６年８月１日茨城県水戸市笠原町字中組６００番地の１７朝日商事株式会社（1050001000150）に合併し解散,2015-10-05,1,,,,,アサヒビル,0
1534,6110002015491,登記記録の閉鎖等,0,2024-09-06,2024-08-30,有限会社ほんま,,有限会社,新潟県,新発田市,豊町２丁目９番１６号,,15,206,9570016,,,2024-08-30,清算の結了等,,,2015-10-05,1,,,,,ホンマ,0
1537,6120001145223,登記記録の閉鎖等,0,2024-09-06,2024-09-04,トランスプレミア・ジャパン株式会社,,株式会社,大阪府,大阪市中央区,伏見町４丁目４番９号,,27,128,5410044,,,2024-09-04,清算の結了等,,,2015-10-05,1,,,,,トランスプレミアジャパン,0
1539,6120001192562,登記記録の閉鎖等,0,2024-09-06,2024-09-04,株式会社Ｌｉｌｉａｎ,,株式会社,大阪府,大阪市西区,南堀江１丁目１１番１号５階,,27,106,5500015,,,2024-09-04,清算の結了等,,,2015-10-05,1,,,,,リリアン,0
1556,6122001029950,登記記録の閉鎖等,0,2024-09-06,2024-09-04,株式会社おうちの応援団,,株式会社,大阪府,豊中市,庄内宝町１丁目４番１号,,27,203,5610836,,,2024-09-04,合併による解散等,6150001004995,令和６年９月１日奈良県生駒市北田原町１０４４番２株式会社大東サッシ工業所（6150001004995）に合併し解散,2016-09-20,1,,,,,オウチノオウエンダン,0
1564,6140001059611,登記記録の閉鎖等,0,2024-09-06,2024-09-04,誠和建材工業株式会社,,株式会社,兵庫県,姫路市,名古山町１２番２０号,,28,201,6700051,,,2024-09-04,清算の結了等,,,2015-10-05,1,,,,,セイワケンザイコウギョウ,0
1568,6140002067729,登記記録の閉鎖等,0,2024-09-06,2024-09-04,有限会社エヌケーブラザーズ,,有限会社,兵庫県,宝塚市,山本台１丁目７番１４号,,28,214,6650885,,,2024-09-04,清算の結了等,,,2015-10-05,1,,,,,エヌケーブラザーズ,0
1572,6170002006147,登記記録の閉鎖等,0,2024-09-06,2024-09-04,有限会社みどりや酒店,,有限会社,和歌山県,和歌山市,西庄３６３番地の３,,30,201,6400112,,,2024-09-04,清算の結了等,,,2015-10-05,1,,,,,ミドリヤサケテン,0
1575,6180001101294,登記記録の閉鎖等,0,2024-09-06,2024-09-02,カノン株式会社,,株式会社,愛知県,名古屋市港区,千鳥１丁目１３番１２号－６０１,,23,111,4550031,,,2024-09-02,清算の結了等,,,2015-10-05,1,,,,,カノン,0
1594,6190001023612,登記記録の閉鎖等,0,2024-09-06,2024-09-05,株式会社惠心,,株式会社,三重県,津市,河辺町３５６５番地１１,,24,201,5140065,,,2024-09-05,清算の結了等,,,2016-04-22,1,,,,,ケイシン,0
1596,6200001004131,登記記録の閉鎖等,0,2024-09-06,2024-08-29,株式会社野々村葬儀社,,株式会社,岐阜県,岐阜市,忠節町３丁目１２番地,,21,201,5008801,,,2024-08-29,合併による解散等,5010401129366,令和６年８月１日福岡市南区大橋一丁目２０番１９号株式会社天光社（5010401129366）に合併し解散,2015-10-05,1,,,,,ノノムラソウギシャ,0
1605,6240001018284,登記記録の閉鎖等,0,2024-09-06,2024-09-02,株式会社エーアイテックス,,株式会社,広島県,広島市西区,西観音町２番１号,,34,104,7330037,,,2024-09-02,合併による解散等,8240001009430,令和６年８月３１日広島市西区西観音町２番１号西日本高速道路エンジニアリング中国株式会社（8240001009430）に合併し解散,2015-10-05,1,,,,,エーアイテックス,0
1637,6330002006700,登記記録の閉鎖等,0,2024-09-06,2024-09-02,有限会社田中屋蒲団店,,有限会社,熊本県,熊本市西区,沖新町４８４３番地１,,43,103,8615273,,,2024-09-02,合併による解散等,9330003004717,令和６年９月１日熊本市西区沖新町４８４３番地１合同会社アツミ（9330003004717）に合併し解散,2015-10-05,1,,,,,タナカヤフトンテン,0
1651,6390005008944,登記記録の閉鎖等,0,2024-09-06,2024-08-29,一般社団法人トリップアラウンド推進協議会,,その他の設立登記法人,山形県,米沢市,門東町１丁目３番４６号,,06,202,9920039,,,2024-08-29,清算の結了等,,,2022-02-28,1,,,,,トリップアラウンドスイシンキョウギカイ,0
1652,6400002004738,登記記録の閉鎖等,0,2024-09-06,2024-08-28,有限会社システムネットサービス,,有限会社,岩手県,盛岡市,前九年１丁目１０番１３号,,03,201,0200127,,,2024-08-28,清算の結了等,,,2015-10-05,1,,,,,システムネットサービス,0
1664,6430002044104,登記記録の閉鎖等,0,2024-09-06,2024-09-02,有限会社ヤマザキ工業,,有限会社,北海道,石狩市,花畔四条１丁目１５２番地１,,01,235,0613284,,,2024-09-02,清算の結了等,,,2015-10-05,1,,,,,ヤマザキコウギョウ,0
1673,6700150019284,登記記録の閉鎖等,0,2024-09-06,2024-03-31,姿川土地改良区,,その他,栃木県,宇都宮市,上欠町７０５－３,,09,201,3200855,,,2024-03-31,その他の清算の結了等,,,2015-10-09,1,,,,,スガタガワトチカイリヨウク,0
1674,6700150107741,登記記録の閉鎖等,0,2024-09-06,2023-01-01,Ｓ’ＡＰＰＵＹＥＲ　ｅｎｔｅｒｔａｉｎｍｅｎｔ,,その他,東京都,立川市,幸町５丁目１２－１グランドコートＢ１０３,,13,202,1900002,,,2023-01-01,その他の清算の結了等,,,2022-04-08,1,,,,,サピユイエエンターテイメント,0
1675,6700150107873,登記記録の閉鎖等,0,2024-09-06,2023-04-21,室内楽の泉,,その他,山口県,宇部市,大字際波２６９５－１９,,35,202,7590207,,,2023-04-21,その他の清算の結了等,,,2022-04-12,1,,,,,シツナイガクノイズミ,0
1676,6700150109969,登記記録の閉鎖等,0,2024-09-06,2024-05-31,山の羊舎,,その他,東京都,世田谷区,太子堂１丁目１４－１４－５０９,,13,112,1540004,,,2024-05-31,その他の清算の結了等,,,2022-06-16,1,,,,,ヤマノヒツジシヤ,0
1689,7010102011045,登記記録の閉鎖等,0,2024-09-06,2024-09-05,有限会社羽鳥板金店,,有限会社,東京都,八王子市,片倉町６１１番地１１,,13,201,1920914,,,2024-09-05,清算の結了等,,,2015-10-05,1,,,,,ハトリバンキンテン,0
1750,7012403003258,登記記録の閉鎖等,0,2024-09-06,2024-09-05,合同会社Ｌａ　Ｃｏｌｌｉｎｅ,,合同会社,東京都,小金井市,東町３丁目６番１０号,,13,210,1840011,,,2024-09-05,清算の結了等,,,2017-11-17,1,,,,,ラコリンヌ,0
1751,7012403004537,登記記録の閉鎖等,0,2024-09-06,2024-09-03,合同会社エンスフィー,,合同会社,東京都,多摩市,馬引沢２丁目１５－９クリオ多摩永山弐番館４０７,,13,224,2060023,,,2024-09-03,清算の結了等,,,2020-09-24,1,,,,,エンスフィー,0
1756,7013202000322,登記記録の閉鎖等,0,2024-09-06,2024-08-21,有限会社アセンド,,有限会社,東京都,目黒区,平町１丁目２番９号,,13,110,1520032,,,2024-08-21,清算の結了等,,,2015-10-05,1,,,,,アセンド,0
1759,7013402001095,登記記録の閉鎖等,0,2024-09-06,2024-08-30,有限会社中藤商事,,有限会社,東京都,日野市,南平７丁目１７番地の５１,,13,212,1910041,,,2024-08-30,清算の結了等,,,2015-10-05,1,,,,,,0
1769,7020002023701,登記記録の閉鎖等,0,2024-09-06,2024-08-19,有限会社齊藤造園,,有限会社,神奈川県,横浜市保土ケ谷区,新井町３０８番地１９,,14,106,2400053,,,2024-08-19,清算の結了等,,,2015-10-05,1,,,,,サイトウゾウエン,0
1770,7020002029327,登記記録の閉鎖等,0,2024-09-06,2024-08-19,有限会社小川忠工務店,,有限会社,神奈川県,横浜市南区,中村町２丁目１２６番地１４,,14,105,2320033,,,2024-08-19,清算の結了等,,,2015-10-05,1,,,,,オガワチュウコウムテン,0
1779,7021002031974,登記記録の閉鎖等,0,2024-09-06,2024-09-02,有限会社新武蔵警備保障,,有限会社,神奈川県,厚木市,旭町１丁目２２番２４号,,14,212,2430014,,,2024-09-02,清算の結了等,,,2015-10-05,1,,,,,シンムサシケイビホショウ,0
1780,7021002062458,登記記録の閉鎖等,0,2024-09-06,2024-09-05,有限会社赤城商事,,有限会社,神奈川県,三浦郡葉山町,木古庭１７５０番地,,14,301,2400114,,,2024-09-05,清算の結了等,,,2015-10-05,1,,,,,,0
1781,7021002066590,登記記録の閉鎖等,0,2024-09-06,2024-09-03,有限会社藤原電設,,有限会社,神奈川県,横須賀市,根岸町４丁目２０番地２,,14,201,2390807,,,2024-09-03,清算の結了等,,,2015-10-05,1,,,,,フジワラデンセツ,0
1796,7030002108419,登記記録の閉鎖等,0,2024-09-06,2024-09-02,有限会社渡辺塗裝店,,有限会社,埼玉県,川口市,大字安行北谷６５６番地の３,,11,203,3340054,,,2024-09-02,清算の結了等,,,2015-10-05,1,,,,,ワタナベトソウテン,0
1805,7040001103320,登記記録の閉鎖等,0,2024-09-06,2024-09-02,株式会社大吉青果,,株式会社,千葉県,船橋市,本町７丁目１０番５号,,12,204,2730005,,,2024-09-02,清算の結了等,,,2018-01-29,1,,,,,ダイキチセイカ,0
1809,7040002041420,登記記録の閉鎖等,0,2024-09-06,2024-08-29,有限会社ハウスクラフト,,有限会社,千葉県,浦安市,今川２丁目１２番２７号,,12,227,2790022,,,2024-08-29,清算の結了等,,,2015-10-05,1,,,,,ハウスクラフト,0
1816,7080001017203,登記記録の閉鎖等,0,2024-09-06,2024-09-03,株式会社服部製作所,,株式会社,静岡県,藤枝市,小石川町１丁目４番１５号,,22,214,4260033,,,2024-09-03,合併による解散等,1130001034347,令和６年９月１日京都府宇治市白川宮ノ後２番地株式会社服部製作所（1130001034347）に合併し解散,2015-10-05,1,,,,,ハットリセイサクショ,0
1817,7080001020529,登記記録の閉鎖等,0,2024-09-06,2024-08-29,ＴＡＫＵ株式会社,,株式会社,静岡県,静岡市葵区,平和２丁目３番１０－２号,,22,101,4200876,,,2024-08-29,清算の結了等,,,2015-10-05,1,,,,,タク,0
1826,7100002028394,登記記録の閉鎖等,0,2024-09-06,2024-08-29,有限会社諏訪レンタル,,有限会社,長野県,諏訪郡下諏訪町,１０６番地,,20,361,3930000,,,2024-08-29,清算の結了等,,,2015-10-05,1,,,,,スワレンタル,0
1830,7110002023031,登記記録の閉鎖等,0,2024-09-06,2024-09-02,有限会社高橋青果店,,有限会社,新潟県,上越市,中央１丁目１９番２号,,15,222,9420001,,,2024-09-02,清算の結了等,,,2015-10-05,1,,,,,タカハシセイカテン,0
1867,7180001115269,登記記録の閉鎖等,0,2024-09-06,2024-08-29,イイコイイコ株式会社,,株式会社,愛知県,常滑市,字椎田口１０番８,,23,216,4790036,,,2024-08-29,清算の結了等,,,2015-10-05,1,,,,,イイコイイコ,0
1870,7180001132306,登記記録の閉鎖等,0,2024-09-06,2024-08-29,ワイズクリーンサービス株式会社,,株式会社,愛知県,名古屋市緑区,桶狭間上の山１０７番地,,23,114,4580926,,,2024-08-29,清算の結了等,,,2018-05-17,1,,,,,ワイズクリーンサービス,0
1912,7290802023873,登記記録の閉鎖等,0,2024-09-06,2024-09-04,有限会社内藤電機,,有限会社,福岡県,行橋市,西宮市５丁目２７番３９号,,40,213,8240031,,,2024-09-04,清算の結了等,,,2015-10-05,1,,,,,ナイトウデンキ,0
1916,7320001012848,登記記録の閉鎖等,0,2024-09-06,2024-09-04,株式会社シーアールコーヒー,,株式会社,大分県,大分市,大字津守２４６番地の５,,44,201,8700945,,,2024-09-04,清算の結了等,,,2015-10-05,1,,,,,シーアールコーヒー,0
1919,7330001020222,登記記録の閉鎖等,0,2024-09-06,2024-08-30,株式会社花みずき,,株式会社,熊本県,熊本市東区,戸島５丁目１９番７号,,43,102,8618041,,,2024-08-30,清算の結了等,,,2015-10-05,1,,,,,ハナミズキ,0
1933,7390002015769,登記記録の閉鎖等,0,2024-09-06,2024-08-29,有限会社フロンティア・サトー,,有限会社,山形県,寒河江市,元町１丁目１８番地の２,,06,206,9910053,,,2024-08-29,清算の結了等,,,2015-10-05,1,,,,,フロンティアサトー,0
1942,7430001044178,登記記録の閉鎖等,0,2024-09-06,2024-09-03,チザキ機工株式会社,,株式会社,北海道,千歳市,上長都１番地１５,,01,224,0660077,,,2024-09-03,清算の結了等,,,2015-10-05,1,,,,,チザキキコウ,0
1944,7430001063450,登記記録の閉鎖等,0,2024-09-06,2024-09-02,株式会社エイチアンドワイ,,株式会社,北海道,札幌市清田区,北野一条２丁目１０番５５号,,01,110,0040861,,,2024-09-02,清算の結了等,,,2015-10-05,1,,,,,エイチアンドワイ,0
1956,7700150019291,登記記録の閉鎖等,0,2024-09-06,2024-03-31,新里土地改良区,,その他,栃木県,宇都宮市,新里町４４６,,09,201,3212118,,,2024-03-31,その他の清算の結了等,,,2015-10-09,1,,,,,ニツサトトチカイリヨウク,0
1957,7700150104242,登記記録の閉鎖等,0,2024-09-06,2024-04-18,ミヒャエル・ハイドン・プロジェクト,,その他,東京都,調布市,深大寺元町１丁目２６番地９号リバーサイド元町２０１,,13,208,1820017,,,2024-04-18,その他の清算の結了等,,,2021-07-30,1,,,,,ミヒヤエルハイドンプロジエクト,0
1971,8010401175837,登記記録の閉鎖等,0,2024-09-06,2024-08-09,ＡＸＩ株式会社,,株式会社,東京都,港区,六本木７丁目１９－９ＶＯＲＴ六本木５Ｆ,,13,103,1060032,,,2024-08-09,清算の結了等,,,2023-07-24,1,,,,,エーエックスアイ,0
1980,8010403018333,登記記録の閉鎖等,0,2024-09-06,2024-08-19,モトノエステート合同会社,,合同会社,東京都,港区,赤坂４丁目５番２１号・バルミー赤坂３０５号室,,13,103,1070052,,,2024-08-19,清算の結了等,,,2018-03-23,1,,,,,モトノエステート,0
1984,8010502009266,登記記録の閉鎖等,0,2024-09-06,2024-09-02,有限会社幡野電機,,有限会社,東京都,台東区,入谷２丁目１１番８号,,13,106,1100013,,,2024-09-02,清算の結了等,,,2015-10-05,1,,,,,ハタノデンキ,0
1988,8010801018224,登記記録の閉鎖等,0,2024-09-06,2024-09-02,株式会社斎藤金属工業所,,株式会社,東京都,大田区,西六郷１丁目２５番１７号,,13,111,1440056,,,2024-09-02,清算の結了等,,,2015-10-05,1,,,,,サイトウキンゾクコウギョウショ,0
1998,8011001123979,登記記録の閉鎖等,0,2024-09-06,2024-09-02,スタートアップスクエア株式会社,,株式会社,東京都,大田区,池上４丁目２７番１４号池上四丁目ビル３０２,,13,111,1460082,,,2024-09-02,合併による解散等,8011101062763,令和６年７月３１日東京都新宿区神楽坂二丁目５番地株式会社ＢＯＤＹ　ＴＵＮＩＮＧ　ＪＡＰＡＮ（8011101062763）に合併し解散,2018-08-30,1,,,,,スタートアップスクエア,0
2026,8013105001391,登記記録の閉鎖等,0,2024-09-06,2024-09-04,特定非営利活動法人ポラン広場東京,,その他の設立登記法人,東京都,青梅市,長淵４丁目３９３番地１１,,13,205,1980052,,,2024-09-04,清算の結了等,,,2015-10-05,1,,,,,ポランヒロバトウキョウ,0
2035,8020003007677,登記記録の閉鎖等,0,2024-09-06,2024-08-20,合同会社Ｓ＆Ｉ,,合同会社,神奈川県,川崎市宮前区,土橋３丁目１３番地７,,14,136,2160005,,,2024-08-20,清算の結了等,,,2015-10-05,1,,,,,エスアンドアイ,0
2043,8021002029010,登記記録の閉鎖等,0,2024-09-06,2024-09-05,有限会社シィ・ティ・ライン,,有限会社,神奈川県,相模原市緑区,根小屋２７３９番地１５８,,14,151,2520153,,,2024-09-05,清算の結了等,,,2015-10-05,1,,,,,シィティライン,0
2068,8040002023112,登記記録の閉鎖等,0,2024-09-06,2024-08-30,有限会社誠版,,有限会社,千葉県,船橋市,松が丘２丁目４番６号,,12,204,2740064,,,2024-08-30,清算の結了等,,,2015-10-05,1,,,,,,0
2073,8070001023795,登記記録の閉鎖等,0,2024-09-06,2024-09-04,沢田ワイン株式会社,,株式会社,群馬県,吾妻郡中之条町,大字折田１９２９番地１,,10,421,3770433,,,2024-09-04,清算の結了等,,,2015-10-05,1,,,,,サワダワイン,0
2086,8120001070262,登記記録の閉鎖等,0,2024-09-06,2024-09-04,宝文館器械株式会社,,株式会社,大阪府,大阪市北区,大淀中４丁目５番３号,,27,127,5310076,,,2024-09-04,清算の結了等,,,2015-10-05,1,,,,,ホウブンカンキカイ,0
2087,8120001167513,登記記録の閉鎖等,0,2024-09-06,2024-09-04,清和佛具株式会社,,株式会社,大阪府,大阪市浪速区,敷津西１丁目９番１７号,,27,111,5560015,,,2024-09-04,清算の結了等,,,2015-10-05,1,,,,,セイワブツグ,0
2093,8120001228249,登記記録の閉鎖等,0,2024-09-06,2024-09-04,株式会社宇多宗教美術製作所,,株式会社,大阪府,大阪市浪速区,敷津西１丁目９番１７号,,27,111,5560015,,,2024-09-04,清算の結了等,,,2020-04-02,1,,,,,ウダシュウキョウビジュツセイサクショ,0
2094,8120001239980,登記記録の閉鎖等,0,2024-09-06,2024-09-04,株式会社ワイエツバンタ,,株式会社,大阪府,大阪市中央区,瓦町４丁目３番１４号,,27,128,5410048,,,2024-09-04,清算の結了等,,,2021-08-27,1,,,,,ワイエツバンタ,0
2109,8122001015585,登記記録の閉鎖等,0,2024-09-06,2024-09-02,大東電器株式会社,,株式会社,大阪府,大東市,御領３丁目１０番４号,,27,218,5740064,,,2024-09-02,清算の結了等,,,2015-10-05,1,,,,,ダイトウデンキ,0
2117,8130002005968,登記記録の閉鎖等,0,2024-09-06,2024-09-04,有限会社ビーエスマリン京都販売,,有限会社,京都府,京都市左京区,岩倉中町５８９番地,,26,103,6060025,,,2024-09-04,清算の結了等,,,2015-10-05,1,,,,,ビーエスマリンキョウトハンバイ,0
2124,8140001092866,登記記録の閉鎖等,0,2024-09-06,2024-09-02,株式会社トータル・サポート,,株式会社,兵庫県,神戸市中央区,御幸通３丁目１番８号,,28,110,6510087,,,2024-09-02,合併による解散等,3140001009585,令和６年８月３１日神戸市中央区御幸通三丁目１番８号株式会社トータル財務プラン（3140001009585）に合併し解散,2015-10-05,1,,,,,トータルサポート,0
2129,8140002028200,登記記録の閉鎖等,0,2024-09-06,2024-09-03,有限会社明石モータープール,,有限会社,兵庫県,明石市,桜町１４－１４,,28,203,6730885,,,2024-09-03,清算の結了等,,,2015-10-05,1,,,,,アカシモータープール,0
2145,8180001128625,登記記録の閉鎖等,0,2024-09-06,2024-08-29,株式会社ＡＡＡ,,株式会社,愛知県,名古屋市中区,栄３丁目２番３号名古屋日興證券ビル４階,,23,106,4600008,,,2024-08-29,清算の結了等,,,2017-07-19,1,,,,,トリプルエー,0
2160,8200001024458,登記記録の閉鎖等,0,2024-09-06,2024-09-02,株式会社アシスト,,株式会社,岐阜県,恵那市,明智町５６３番地,,21,210,5097731,,,2024-09-02,清算の結了等,,,2015-10-05,1,,,,,アシスト,0
2169,8240001024603,登記記録の閉鎖等,0,2024-09-06,2024-09-03,株式会社君田トエンティワン,,株式会社,広島県,三次市,君田町泉吉田３１１番地３,,34,209,7280405,,,2024-09-03,清算の結了等,,,2015-10-05,1,,,,,キミタトエンティワン,0
2185,8300001005019,登記記録の閉鎖等,0,2024-09-06,2024-09-02,田口運送株式会社,,株式会社,佐賀県,嬉野市,塩田町大字馬場下甲３４４８番地１,,41,209,8491411,,,2024-09-02,清算の結了等,,,2015-10-05,1,,,,,タグチウンソウ,0
2188,8340001021334,登記記録の閉鎖等,0,2024-09-06,2024-09-03,株式会社Ｋ観光農園,,株式会社,鹿児島県,南九州市,川辺町永田４０７１番地３,,46,223,8970222,,,2024-09-03,清算の結了等,,,2018-07-06,1,,,,,ケーカンコウノウエン,0
2196,8380001006133,登記記録の閉鎖等,0,2024-09-06,2024-09-03,株式会社広建,,株式会社,福島県,郡山市,田村町金屋字川久保４４番地１,,07,203,9630725,,,2024-09-03,清算の結了等,,,2015-10-05,1,,,,,コウケン,0
2203,8380002030215,登記記録の閉鎖等,0,2024-09-06,2024-08-30,有限会社千代田砂利工業,,有限会社,福島県,双葉郡浪江町,大字田尻字みどりが丘１８１番地,,07,547,9791541,,,2024-08-30,清算の結了等,,,2015-10-05,1,,,,,チヨダジャリコウギョウ,0
2217,8430002001078,登記記録の閉鎖等,0,2024-09-06,2024-09-02,有限会社阿部コーキング,,有限会社,北海道,札幌市北区,篠路七条７丁目１番３０号,,01,102,0028027,,,2024-09-02,清算の結了等,,,2015-10-05,1,,,,,アベコーキング,0
2224,8500001015088,登記記録の閉鎖等,0,2024-09-06,2024-09-04,株式会社キューブ,,株式会社,愛媛県,四国中央市,三島金子１丁目９番５号,,38,213,7990421,,,2024-09-04,清算の結了等,,,2015-10-05,1,,,,,キューブ,0
2226,8700150019290,登記記録の閉鎖等,0,2024-09-06,2024-03-31,城山土地改良区,,その他,栃木県,宇都宮市,下荒針町２２５２－１,,09,201,3210346,,,2024-03-31,その他の清算の結了等,,,2015-10-09,1,,,,,シロヤマトチカイリヨウク,0
2247,9010005028936,登記記録の閉鎖等,0,2024-09-06,2024-08-30,一般社団法人サステイナビリティ人材開発機構,,その他の設立登記法人,東京都,千代田区,麹町５丁目４番,,13,101,1020083,,,2024-08-30,清算の結了等,,,2018-08-13,1,,,,,サステイナビリティジンザイカイハツキコウ,0
2272,9010902016613,登記記録の閉鎖等,0,2024-09-06,2024-09-02,有限会社ロウチズプレイヤード,,有限会社,東京都,世田谷区,東玉川２丁目２７番１１号,,13,112,1580084,,,2024-09-02,清算の結了等,,,2015-10-05,1,,,,,ロウチズプレイヤード,0
2275,9011001052442,登記記録の閉鎖等,0,2024-09-06,2024-07-31,株式会社ＴＡＩＯ,,株式会社,東京都,渋谷区,猿楽町３番７号,,13,113,1500033,,,2024-07-31,合併による解散等,6013301018167,令和６年７月３１日東京都渋谷区猿楽町３番７号株式会社ＮＩＮＥ（6013301018167）に合併し解散,2015-10-05,1,,,,,タイオ,0
2304,9011502016136,登記記録の閉鎖等,0,2024-09-06,2024-08-16,有限会社稲葉製作所,,有限会社,東京都,新宿区,下落合３丁目６番８号,,13,104,1610033,,,2024-08-16,清算の結了等,,,2015-10-05,1,,,,,イナバセイサクジョ,0
2312,9012702005960,登記記録の閉鎖等,0,2024-09-06,2024-09-02,有限会社丸岡書店,,有限会社,東京都,西東京市,田無町４丁目２４番２０号,,13,229,1880011,,,2024-09-02,清算の結了等,,,2015-10-05,1,,,,,マルオカショテン,0
2318,9020001073423,登記記録の閉鎖等,0,2024-09-06,2024-08-16,株式会社整電社,,株式会社,神奈川県,川崎市川崎区,浅野町６番１２号,,14,131,2100854,,,2024-08-16,清算の結了等,,,2015-10-05,1,,,,,セイデンシャ,0
2326,9020002033038,登記記録の閉鎖等,0,2024-09-06,2024-08-20,有限会社くすりの貝塚,,有限会社,神奈川県,横浜市港北区,新吉田東８丁目３４番３号,,14,109,2230058,,,2024-08-20,清算の結了等,,,2015-10-05,1,,,,,クスリノカイヅカ,0
2328,9020003016405,登記記録の閉鎖等,0,2024-09-06,2024-08-20,合同会社ＮＡＮＡ,,合同会社,神奈川県,横浜市青葉区,大場町３６０番地６０,,14,117,2250023,,,2024-08-20,清算の結了等,,,2019-07-22,1,,,,,ナナ,0
2335,9021001073132,登記記録の閉鎖等,0,2024-09-06,2024-09-04,株式会社Ｃｌｅａｒ７,,株式会社,神奈川県,相模原市中央区,上溝１丁目２番９号,,14,152,2520243,,,2024-09-04,清算の結了等,,,2021-06-21,1,,,,,クリアーセブン,0
2336,9021001079971,登記記録の閉鎖等,0,2024-09-06,2024-09-05,ＷｈｉｔｅＪ株式会社,,株式会社,神奈川県,鎌倉市,浄明寺５丁目７番２３号,,14,204,2480003,,,2024-09-05,清算の結了等,,,2023-08-22,1,,,,,ホワイトジェイ,0
2337,9021001081465,登記記録の閉鎖等,0,2024-09-06,2024-09-02,株式会社エス・エイ・エス,,株式会社,神奈川県,小田原市,風祭２４５番地,,14,206,2500032,,,2024-09-02,合併による解散等,3021001033629,令和６年９月１日神奈川県小田原市風祭２４５番地鈴廣かまぼこ株式会社（3021001033629）に合併し解散,2024-02-14,1,,,,,エスエイエス,0
2351,9030002119307,登記記録の閉鎖等,0,2024-09-06,2024-09-02,有限会社おんだ,,有限会社,埼玉県,飯能市,大字川寺１８８番地,,11,209,3570044,,,2024-09-02,清算の結了等,,,2015-10-05,1,,,,,オンダ,0
2354,9040001068784,登記記録の閉鎖等,0,2024-09-06,2024-08-30,株式会社ＳＥＥＤＳ,,株式会社,千葉県,柏市,柏４丁目５番１０号,,12,217,2770005,,,2024-08-30,合併による解散等,2040001069913,令和６年８月３０日千葉県柏市柏四丁目５番１０号株式会社ＴＨＧ（2040001069913）に合併し解散,2015-10-05,1,,,,,シーズ,0
2370,9080001011328,登記記録の閉鎖等,0,2024-09-06,2024-09-02,丸桜物流株式会社,,株式会社,静岡県,静岡市清水区,桜橋町４番５号,,22,103,4240837,,,2024-09-02,清算の結了等,,,2015-10-05,1,,,,,マルオウブツリュウ,0
2385,9120001074659,登記記録の閉鎖等,0,2024-09-06,2024-09-05,井那新株式会社,00028547,株式会社,大阪府,大阪市中央区,粉川町２番７－４１０号,,27,128,5400018,,,2024-09-05,清算の結了等,,,2015-10-05,1,,,,,イナシン,0
2388,9120001180845,登記記録の閉鎖等,0,2024-09-06,2024-09-02,株式会社ヘヴンズウェイ,,株式会社,大阪府,大阪市生野区,舎利寺３丁目１３番１６号,,27,116,5440022,,,2024-09-02,合併による解散等,9120001019291,令和６年９月１日大阪市生野区舎利寺三丁目１３番１６号株式会社メモリーハウス（9120001019291）に合併し解散,2015-10-05,1,,,,,ヘヴンズウェイ,0
2397,9120101029934,登記記録の閉鎖等,0,2024-09-06,2024-09-02,株式会社たまや,,株式会社,大阪府,堺市北区,百舌鳥陵南町３丁３７５番地,,27,146,5918034,,,2024-09-02,清算の結了等,,,2015-10-05,1,,,,,タマヤ,0
2402,9122002003869,登記記録の閉鎖等,0,2024-09-06,2024-09-02,有限会社ニユー凱旋門,,有限会社,大阪府,東大阪市,布市町３丁目１番５６号,,27,227,5798004,,,2024-09-02,清算の結了等,,,2015-10-05,1,,,,,ニューガイセンモン,0
2420,9160001008753,登記記録の閉鎖等,0,2024-09-06,2024-08-21,株式会社丸善,,株式会社,滋賀県,犬上郡豊郷町,大字沢３３８番地,,25,441,5291175,,,2024-08-21,合併による解散等,3160001008726,令和６年８月２１日滋賀県彦根市西今町１番地株式会社平和堂（3160001008726）に合併し解散,2015-10-05,1,,,,,マルゼン,0
2435,9180301023368,登記記録の閉鎖等,0,2024-09-06,2024-09-02,株式会社日本エコテック,,株式会社,愛知県,西尾市,山下町東八幡山１０２番地４,,23,213,4450877,,,2024-09-02,清算の結了等,,,2015-10-05,1,,,,,ニホンエコテック,0
2436,9180301035339,登記記録の閉鎖等,0,2024-09-06,2024-09-02,株式会社ＩＴＯ,,株式会社,愛知県,豊田市,越戸町松葉９７番地４,,23,211,4700332,,,2024-09-02,清算の結了等,,,2021-09-03,1,,,,,アイティーオー,0
2448,9240002040978,登記記録の閉鎖等,0,2024-09-06,2024-09-02,有限会社サンプルーン,,有限会社,広島県,福山市,藤江町１３６６番地の５,,34,207,7200543,,,2024-09-02,清算の結了等,,,2015-10-05,1,,,,,サンプルーン,0
2450,9240002053419,登記記録の閉鎖等,0,2024-09-06,2024-09-03,有限会社堂元組,,有限会社,広島県,三原市,宗郷２丁目４番２８号,,34,204,7230044,,,2024-09-03,清算の結了等,,,2015-10-05,1,,,,,ドウモトグミ,0
2468,9290801018113,登記記録の閉鎖等,0,2024-09-06,2024-08-26,株式会社ティワイプランニング,,株式会社,福岡県,北九州市八幡東区,中央２丁目１６番１３－１２０２号,,40,108,8050019,,,2024-08-26,清算の結了等,,,2015-10-05,1,,,,,ティワイプランニング,0
2470,9300001008020,登記記録の閉鎖等,0,2024-09-06,2024-09-02,株式会社ペテル,,株式会社,佐賀県,嬉野市,嬉野町大字下宿乙２３５１番地１４,,41,209,8430301,,,2024-09-02,清算の結了等,,,2015-10-05,1,,,,,ペテル,0
2501,9430001034904,登記記録の閉鎖等,0,2024-09-06,2024-09-03,株式会社前田住設,,株式会社,北海道,北広島市,虹ヶ丘４丁目１０番地１５,,01,234,0611103,,,2024-09-03,清算の結了等,,,2015-10-05,1,,,,,マエダジュウセツ,0
2506,9430003008303,登記記録の閉鎖等,0,2024-09-06,2024-09-03,合名会社いちえ,,合名会社,北海道,札幌市西区,琴似一条３丁目１番１０－１３０２号,,01,107,0630811,,,2024-09-03,清算の結了等,,,2017-03-27,1,,,,,イチエ,0
2510,9460101002064,登記記録の閉鎖等,0,2024-09-06,2024-09-02,ミタカ産業株式会社,,株式会社,北海道,帯広市,西十九条南５丁目２６番１５号,,01,207,0802469,,,2024-09-02,清算の結了等,,,2015-10-05,1,,,,,ミタカサンギョウ,0
