sequenceNumber,corporateNumber,process,correct,updateDate,changeDate,name,nameImageId,kind,prefectureName,cityName,streetNumber,addressImageId,prefectureCode,cityCode,postCode,addressOutside,addressOutsideImageId,closeDate,closeCause,successorCorporateNumber,changeCause,assignmentDate,latest,enName,enPrefectureName,enCityName,enAddressOutside,furigana,hihyoji
10,1010001223432,新規,0,2021-12-23,2021-12-23,えん株式会社,,株式会社,東京都,中央区,銀座１丁目２２番１１号銀座大竹ビジデンス２階,,13,102,1040061,,,,,,,2021-12-23,1,,,,,エン,0
11,1010001223457,新規,0,2021-12-23,2021-12-23,株式会社グフォーロ,,株式会社,東京都,中央区,銀座１丁目１５番７号ＭＡＣ銀座ビル３階,,13,102,1040061,,,,,,,2021-12-23,1,,,,,グフォーロ,0
12,1010005034371,新規,0,2021-12-23,2021-12-23,一般社団法人Ｓｔｅｌｌａ　Ｄｅｎｔａｌ　Ｌａｂｏ,,その他の設立登記法人,東京都,中央区,銀座２丁目８番１７号ハビウル銀座ＩＩ７階,00125208,13,102,1040061,,,,,,,2021-12-23,1,,,,,ステラデンタルラボ,0
22,1010401164615,新規,0,2021-12-23,2021-12-23,ベルウェザー・コンサルティング株式会社,,株式会社,東京都,港区,浜松町２丁目２－１５浜松町ダイヤビル２Ｆ,,13,103,1050013,,,,,,,2021-12-23,1,,,,,ベルウェザーコンサルティング,0
28,1010403026771,新規,0,2021-12-23,2021-12-23,合同会社響,,合同会社,東京都,港区,南青山２丁目２番１５号ＷＩＮ青山５３１,,13,103,1070062,,,,,,,2021-12-23,1,,,,,ヒビキ,0
40,1010801032603,新規,0,2021-12-23,2021-12-23,株式会社ＲＥＶＩＶＡＬ,,株式会社,東京都,大田区,下丸子２丁目３２番８号,,13,111,1460092,,,,,,,2021-12-23,1,,,,,リバイバル,0
45,1010901050026,新規,0,2021-12-23,2021-12-23,株式会社ＳＴＨＭ,,株式会社,東京都,世田谷区,祖師谷３丁目１３番２３号ブリリアンス成城学園２０４号,,13,112,1570072,,,,,,,2021-12-23,1,,,,,エスティーエイチエム,0
53,1011103011279,新規,0,2021-12-23,2021-12-23,合同会社辻雀コーポレーション,,合同会社,東京都,新宿区,新宿５丁目３番２２－６０４号,,13,104,1600022,,,,,,,2021-12-23,1,,,,,ツジジャンコーポレーション,0
63,1011701024913,新規,0,2021-12-23,2021-12-23,株式会社モトイム,,株式会社,東京都,江戸川区,北葛西１丁目１０番１０号,,13,123,1340081,,,,,,,2021-12-23,1,,,,,モトイム,0
66,1011705001702,新規,0,2021-12-23,2021-12-23,ＮＰＯ法人新・障害者支援機構ＲａｙＶ,,その他の設立登記法人,東京都,江戸川区,中葛西８丁目２０番５号メゾンハヤシ３０３,,13,123,1340083,,,,,,,2021-12-23,1,,,,,シンショウガイシャシエンキコウライブ,0
89,1020001144446,新規,0,2021-12-23,2021-12-23,株式会社孝建,,株式会社,神奈川県,横浜市瀬谷区,本郷３丁目６６番地２,,14,114,2460015,,,,,,,2021-12-23,1,,,,,コウケン,0
90,1020001144454,新規,0,2021-12-23,2021-12-23,株式会社Ｒデライト,,株式会社,神奈川県,横浜市磯子区,洋光台１丁目２９番１８号,,14,107,2350045,,,,,,,2021-12-23,1,,,,,アールデライト,0
91,1020001144462,新規,0,2021-12-23,2021-12-23,ライジングスター株式会社,,株式会社,神奈川県,横浜市緑区,台村町１７５番地,,14,113,2260014,,,,,,,2021-12-23,1,,,,,ライジングスター,0
101,1021001074798,新規,0,2021-12-23,2021-12-23,株式会社ミヤビ,,株式会社,神奈川県,茅ヶ崎市,新栄町１番８号,,14,207,2530044,,,,,,,2021-12-23,1,,,,,ミヤビ,0
107,1021003011221,新規,0,2021-12-23,2021-12-23,アヴァンセ合同会社,,合同会社,神奈川県,大和市,下鶴間５３０１－６,,14,213,2420001,,,,,,,2021-12-23,1,,,,,アヴァンセ,0
119,1050001050352,新規,0,2021-12-23,2021-12-23,ＪＰ　Ｃｏｎｔｒｏｌ株式会社,,株式会社,茨城県,水戸市,石川１丁目３８１４番地６,,08,201,3100905,,,,,,,2021-12-23,1,,,,,,0
137,1100003006322,新規,0,2021-12-23,2021-12-23,合同会社Ｔ’ｓ　ｇａｍｅ,,合同会社,長野県,大町市,平２１１２－８２６,,20,212,3980001,,,,,,,2021-12-23,1,,,,,ティーズゲーム,0
160,1120001242693,新規,0,2021-12-23,2021-12-23,中遠株式会社,,株式会社,大阪府,大阪市中央区,南船場１丁目３番１７号永都ビル大阪長堀,,27,128,5420081,,,,,,,2021-12-23,1,,,,,チュウエン,0
161,1120001242702,新規,0,2021-12-23,2021-12-23,ＰＬＵＳ　ＦＡＣＴＯＲＹ株式会社,,株式会社,大阪府,大阪市中央区,東平１丁目３番１４号クレスト上町台２０１,,27,128,5420063,,,,,,,2021-12-23,1,,,,,プラスファクトリー,0
162,1120001242727,新規,0,2021-12-23,2021-12-23,ｉ－Ｄｅｎｔｌａｂ株式会社,,株式会社,大阪府,大阪市淀川区,東三国４丁目６番１６号,,27,123,5320002,,,,,,,2021-12-23,1,,,,,アイデントラボ,0
166,1120003020817,新規,0,2021-12-23,2021-12-23,合同会社つむぐ舎,,合同会社,大阪府,大阪市阿倍野区,丸山通１丁目５番３５－３０６号,,27,119,5450042,,,,,,,2021-12-23,1,,,,,ツムグシャ,0
167,1120003020825,新規,0,2021-12-23,2021-12-23,合同会社ユウキキングダム,,合同会社,大阪府,枚方市,中宮本町１７－１０,,27,210,5731196,,,,,,,2021-12-23,1,,,,,ユウキキングダム,0
170,1120101064831,新規,0,2021-12-23,2021-12-23,ＡＳＡ株式会社,,株式会社,大阪府,和泉市,弥生町１丁目１７番１２号,,27,219,5940061,,,,,,,2021-12-23,1,,,,,アサ,0
171,1120103004488,新規,0,2021-12-23,2021-12-23,ＩＬＳ合同会社,,合同会社,大阪府,堺市北区,中百舌鳥町２丁６９－７０１,,27,146,5918023,,,,,,,2021-12-23,1,,,,,アイエルエス,0
186,1130003007648,新規,0,2021-12-23,2021-12-23,合同会社Ｐｅａｃｅ　ｏｆ　ｍｉｎｄ,,合同会社,京都府,京都市北区,大宮薬師山東町４２番地の１０,,26,101,6038474,,,,,,,2021-12-23,1,,,,,ピースオブマインド,0
195,1140001124287,新規,0,2021-12-23,2021-12-23,株式会社ＫＭホールディングス,,株式会社,兵庫県,神戸市東灘区,本山北町３丁目５番１９号,,28,101,6580003,,,,,,,2021-12-23,1,,,,,ケーエムホールディングス,0
196,1140001124295,新規,0,2021-12-23,2021-12-23,株式会社しまだ村,,株式会社,兵庫県,加古郡播磨町,二子２６９番地の５シャトリエＩＩＩＢ号,00125216,28,382,6750162,,,,,,,2021-12-23,1,,,,,シマダムラ,0
197,1140001124304,新規,0,2021-12-23,2021-12-23,株式会社Ｌｉｂｅｒｔｙ,,株式会社,兵庫県,尼崎市,田能５丁目３番４－９号,,28,202,6610951,,,,,,,2021-12-23,1,,,,,リバティ,0
205,1140003017134,新規,0,2021-12-23,2021-12-23,Ｐａｌａｄｙｎｅ合同会社,,合同会社,兵庫県,芦屋市,朝日ケ丘町２７番１６号,,28,206,6590012,,,,,,,2021-12-23,1,,,,,パラダイン,0
209,1160001023891,新規,0,2021-12-23,2021-12-23,株式会社守山トレーダーズ＆アソシエイツ,,株式会社,滋賀県,守山市,梅田町８５－７,,25,207,5240037,,,,,,,2021-12-23,1,,,,,モリヤマトレーダーズアンドアソシエイツ,0
226,1180001149140,新規,0,2021-12-23,2021-12-23,カイトウ株式会社,,株式会社,愛知県,瀬戸市,原山台１丁目１７番地,,23,204,4890888,,,,,,,2021-12-23,1,,,,,カイトウ,0
227,1180001149198,新規,0,2021-12-23,2021-12-23,株式会社Ｋ２プロセス,,株式会社,愛知県,名古屋市北区,喜惣治１丁目４６１番地,,23,103,4620065,,,,,,,2021-12-23,1,,,,,ケーツープロセス,0
228,1180001149223,新規,0,2021-12-23,2021-12-23,株式会社サイエンス・シー・ソリューション,,株式会社,愛知県,名古屋市西区,名駅１丁目１番１７号,,23,104,4510045,,,,,,,2021-12-23,1,,,,,サイエンスシーソリューション,0
239,1180301035750,新規,0,2021-12-23,2021-12-23,株式会社ＣＬＯＶＥＲ,,株式会社,愛知県,岡崎市,日名本町５番地２２,,23,202,4440916,,,,,,,2021-12-23,1,,,,,クローバー,0
241,1190001028970,新規,0,2021-12-23,2021-12-23,株式会社Ｋ’ｓｔｅｃｈ,,株式会社,三重県,鈴鹿市,白子１丁目１６番２２号クレカＢ,,24,207,5100243,,,,,,,2021-12-23,1,,,,,ケーズテック,0
255,1250001019311,新規,0,2021-12-23,2021-12-23,三浦工業株式会社,,株式会社,山口県,山陽小野田市,大字小野田２４０番地１５,,35,216,7560817,,,,,,,2021-12-23,1,,,,,ミウラコウギョウ,0
258,1250005008715,新規,0,2021-12-23,2021-12-23,山口県立大学生活協同組合,,その他の設立登記法人,山口県,山口市,桜畠６丁目２番１号,,35,203,7530021,,,,,,,2021-12-23,1,,,,,ヤマグチケンリツダイガク,0
263,1260001036347,新規,0,2021-12-23,2021-12-23,株式会社ＧＣ・ＯＮＥ,,株式会社,岡山県,赤磐市,桜が丘西１０丁目２２番２０号,,33,213,7090802,,,,,,,2021-12-23,1,,,,,ジーシーワン,0
266,1270003001380,新規,0,2021-12-23,2021-12-23,合同会社くわがき商店,,合同会社,鳥取県,米子市,陽田町６３番３,,31,202,6830032,,,,,,,2021-12-23,1,,,,,クワガキショウテン,0
272,1290001095786,新規,0,2021-12-23,2021-12-23,株式会社ｅｇｏｂａ,,株式会社,福岡県,福岡市中央区,天神５丁目７番２号,,40,133,8100001,,,,,,,2021-12-23,1,,,,,エゴバ,0
275,1290003011956,新規,0,2021-12-23,2021-12-23,合同会社Ｄ‐コモンズ,,合同会社,福岡県,福岡市博多区,諸岡１丁目２４番１０号クイーンビラＧＯＴＯ３０１号,,40,132,8120894,,,,,,,2021-12-23,1,,,,,ディーコモンズ,0
276,1290005018487,新規,0,2021-12-23,2021-12-23,医療法人名悠会,,その他の設立登記法人,福岡県,久留米市,小森野４丁目１０番１０号,,40,203,8300001,,,,,,,2021-12-23,1,,,,,メイユウカイ,0
279,1290801028111,新規,0,2021-12-23,2021-12-23,株式会社けいおうかいらい,,株式会社,福岡県,北九州市八幡西区,永犬丸４丁目９番２１号,,40,109,8070851,,,,,,,2021-12-23,1,,,,,ケイオウカイライ,0
291,1330005010448,新規,0,2021-12-23,2021-12-23,一般社団法人ひむき会,,その他の設立登記法人,熊本県,熊本市東区,小山３丁目８番５７号,,43,102,8618045,,,,,,,2021-12-23,1,,,,,ヒムキカイ,0
297,1350001017486,新規,0,2021-12-23,2021-12-23,株式会社柳田工業,,株式会社,宮崎県,日向市,大字塩見６９７６番地１,,45,206,8830033,,,,,,,2021-12-23,1,,,,,ヤナギタコウギョウ,0
299,1360003011676,新規,0,2021-12-23,2021-12-23,合同会社ｃｏｍｕａ,,合同会社,沖縄県,糸満市,字座波１６１番地,,47,210,9010314,,,,,,,2021-12-23,1,,,,,コムア,0
300,1370001047969,新規,0,2021-12-23,2021-12-23,株式会社政謙,,株式会社,宮城県,黒川郡大郷町,大松沢字薬研沢堤下１０番地８,,04,422,9813501,,,,,,,2021-12-23,1,,,,,セイケン,0
308,1380001032417,新規,0,2021-12-23,2021-12-23,ライズペイント株式会社,,株式会社,福島県,伊達市,月舘町糠田字上ノ坊１番地２,,07,213,9600905,,,,,,,2021-12-23,1,,,,,ライズペイント,0
313,1400001015716,新規,0,2021-12-23,2021-12-23,株式会社マルミツサービス,,株式会社,岩手県,北上市,諏訪町２丁目５番１７号２Ｆ,,03,206,0240034,,,,,,,2021-12-23,1,,,,,マルミツサービス,0
318,1430001085649,新規,0,2021-12-23,2021-12-23,株式会社Ｍａｕｖｅ,,株式会社,北海道,札幌市中央区,南十二条西１丁目２番２０－２９０２号,,01,101,0640912,,,,,,,2021-12-23,1,,,,,モーヴ,0
319,1430001085665,新規,0,2021-12-23,2021-12-23,株式会社アウラケア,,株式会社,北海道,札幌市東区,北十五条東８丁目１番１号,,01,103,0650015,,,,,,,2021-12-23,1,,,,,アウラケア,0
327,1480001011591,新規,0,2021-12-23,2021-12-23,株式会社大翔苑,,株式会社,徳島県,板野郡藍住町,徳命字名田４４３番地の２,,36,403,7711210,,,,,,,2021-12-23,1,,,,,ダイショウエン,0
330,1490001010064,新規,0,2021-12-23,2021-12-23,まきの果樹園株式会社,,株式会社,高知県,吾川郡仁淀川町,森山２４１番地４,,39,387,7811755,,,,,,,2021-12-23,1,,,,,マキノカジュエン,0
333,1500001023881,新規,0,2021-12-23,2021-12-23,株式会社インフィールド,,株式会社,愛媛県,四国中央市,土居町入野１６８番地７,,38,213,7990712,,,,,,,2021-12-23,1,,,,,インフィールド,0
334,1700150041268,新規,0,2021-12-23,2015-10-09,小国町観光協会,,その他,山形県,西置賜郡小国町,大字小国小坂町２丁目７０,,06,401,9991363,,,,,,,2015-10-09,1,,,,,オグニマチカンコウキヨウカイ,0
335,1700150104207,新規,0,2021-12-23,2021-07-29,大崎駅東口第４西地区市街地再開発準備組合,,その他,東京都,品川区,大崎１丁目２０－１８,,13,109,1410032,,,,,,,2021-07-29,1,,,,,オオサキエキヒガシグチダイヨンニシチクシガイチサイカイハツジユンビクミアイ,0
344,2010001223381,新規,0,2021-12-23,2021-12-23,株式会社Ｈｉｇｈｌａｎｄ,,株式会社,東京都,中央区,日本橋富沢町９－４,,13,102,1030006,,,,,,,2021-12-23,1,,,,,ハイランド,0
345,2010001223431,新規,0,2021-12-23,2021-12-23,株式会社こまねこ,,株式会社,東京都,中央区,銀座１丁目１２－４Ｎ＆ＥＢＬＤ．７階,,13,102,1040061,,,,,,,2021-12-23,1,,,,,コマネコ,0
347,2010003036609,新規,0,2021-12-23,2021-12-23,エクイニクス・ハイパースケール１・ＯＳ２・エンタープライズ合同会社,,合同会社,東京都,中央区,日本橋２丁目７番１号,,13,102,1030027,,,,,,,2021-12-23,1,,,,,エクイニクスハイパースケールワンオーエスツーエンタープライズ,0
354,2010401164597,新規,0,2021-12-23,2021-12-23,ＡＵＲＯＲＡ　Ｒｅｓｅａｒｃｈ株式会社,,株式会社,東京都,港区,南麻布２丁目９番２０号ロビンズコート南麻布３０１,,13,103,1060047,,,,,,,2021-12-23,1,,,,,アウロラリサーチ,0
375,2011101097294,新規,0,2021-12-23,2021-12-23,株式会社ＴＯＫＹＯ　ＬＥＴＴＥＲＰＲＥＳＳ,,株式会社,東京都,新宿区,西五軒町二丁目１０番地東松陶器ビル１階,,13,104,1620812,,,,,,,2021-12-23,1,,,,,トウキョウレタープレス,0
380,2011601025622,新規,0,2021-12-23,2021-12-23,株式会社リスタラボ,,株式会社,東京都,練馬区,練馬１丁目２０番８号日建練馬ビル２Ｆ,,13,120,1760001,,,,,,,2021-12-23,1,,,,,リスタラボ,0
381,2011603003477,新規,0,2021-12-23,2021-12-23,合同会社ＤＡＩＤＯ,,合同会社,東京都,練馬区,高野台１丁目９番１０－３０１,,13,120,1770033,,,,,,,2021-12-23,1,,,,,ダイドウ,0
390,2012403005168,新規,0,2021-12-23,2021-12-23,合同会社ココステッチ,,合同会社,東京都,府中市,小柳町５丁目７番地の５１,,13,206,1830013,,,,,,,2021-12-23,1,,,,,,0
391,2012701016833,新規,0,2021-12-23,2021-12-23,株式会社結４ｕ,,株式会社,東京都,東久留米市,南沢１丁目６番１８号,,13,222,2030023,,,,,,,2021-12-23,1,,,,,ユウフォーユウ,0
397,2013301048465,新規,0,2021-12-23,2021-12-23,株式会社Ａメディア,,株式会社,東京都,豊島区,南池袋１丁目９番１８－３１２号,,13,116,1710022,,,,,,,2021-12-23,1,,,,,エーメディア,0
413,2021003011212,新規,0,2021-12-23,2021-12-23,合同会社ＯＮＢＯＡＲＤ,,合同会社,神奈川県,平塚市,代官町１３－１１,,14,203,2540807,,,,,,,2021-12-23,1,,,,,オンボード,0
416,2030003018547,新規,0,2021-12-23,2021-12-23,合同会社タスライフ,,合同会社,埼玉県,ふじみ野市,新駒林２丁目２番３３号,,11,245,3560030,,,,,,,2021-12-23,1,,,,,タスライフ,0
470,2120001242692,新規,0,2021-12-23,2021-12-23,株式会社Ｅｆｆｏｒｔ,,株式会社,大阪府,大阪市西区,新町１丁目８番１３号４０２,,27,106,5500013,,,,,,,2021-12-23,1,,,,,エフォート,0
471,2120001242701,新規,0,2021-12-23,2021-12-23,株式会社山川興業,,株式会社,大阪府,大阪市城東区,蒲生２丁目７番２６号,,27,118,5360016,,,,,,,2021-12-23,1,,,,,ヤマカワコウギョウ,0
482,2120101064839,新規,0,2021-12-23,2021-12-23,株式会社ＪＡＰＡＮ　ＨＯＮＥＳＴ,,株式会社,大阪府,堺市東区,引野町２丁１８番地４,,27,143,5998104,,,,,,,2021-12-23,1,,,,,ジャパンオネスト,0
485,2120903003960,新規,0,2021-12-23,2021-12-23,合同会社ＡＫＴ総研,,合同会社,大阪府,茨木市,園田町１４番６号,,27,211,5670825,,,,,,,2021-12-23,1,,,,,エーケイティーソウケン,0
490,2130003007647,新規,0,2021-12-23,2021-12-23,合同会社ＳＯＲＡ,,合同会社,京都府,京都市左京区,田中上大久保町１３番地２ネオコーポ洛北４０３,,26,103,6068237,,,,,,,2021-12-23,1,,,,,ソラ,0
496,2140001124278,新規,0,2021-12-23,2021-12-23,株式会社エムエフディ,,株式会社,兵庫県,尼崎市,次屋１丁目１４番１５号,,28,202,6610965,,,,,,,2021-12-23,1,,,,,エムエフディ,0
504,2160003002447,新規,0,2021-12-23,2021-12-23,合名会社つむぐ,,合名会社,滋賀県,高島市,安曇川町下小川２２３２番地７３,,25,212,5201223,,,,,,,2021-12-23,1,,,,,ツムグ,0
507,2180001149230,新規,0,2021-12-23,2021-12-23,株式会社ＢＲＩＬＬＡＲ,,株式会社,愛知県,名古屋市熱田区,木之免町３０１番地４エクセレント山房６０３,,23,109,4560046,,,,,,,2021-12-23,1,,,,,ブリジャール,0
508,2180001149239,新規,0,2021-12-23,2021-12-23,ＬＪＳ株式会社,,株式会社,愛知県,名古屋市中区,栄３丁目１５番３３号栄ガスビル１３階,,23,106,4600008,,,,,,,2021-12-23,1,,,,,エルジェイエス,0
509,2180001149247,新規,0,2021-12-23,2021-12-23,株式会社Ｌｉｊ,,株式会社,愛知県,名古屋市中区,丸の内２丁目１６番２６号ラ・シャンテ丸の内１Ｆ,,23,106,4600002,,,,,,,2021-12-23,1,,,,,エルアイジェイ,0
510,2180001149271,新規,0,2021-12-23,2021-12-23,株式会社ＳＬＣ,,株式会社,愛知県,春日井市,勝川町６丁目１５１番地ルネッサンスシティ勝川２番街１０２,,23,206,4860945,,,,,,,2021-12-23,1,,,,,エスエルシー,0
515,2180003023318,新規,0,2021-12-23,2021-12-23,合同会社チタナラ,,合同会社,愛知県,半田市,協和町２丁目９６番地,,23,205,4750854,,,,,,,2021-12-23,1,,,,,チタナラ,0
528,2240001059084,新規,0,2021-12-23,2021-12-23,株式会社ＳＵＶＩ,,株式会社,広島県,広島市中区,本通９番１２号,,34,101,7300035,,,,,,,2021-12-23,1,,,,,スヴィ,0
533,2250001019310,新規,0,2021-12-23,2021-12-23,株式会社エルリード,,株式会社,山口県,山口市,大内千坊１丁目８番８号２階,,35,203,7530251,,,,,,,2021-12-23,1,,,,,エルリード,0
535,2260001036338,新規,0,2021-12-23,2021-12-23,株式会社田尾建装,,株式会社,岡山県,倉敷市,児島小川１丁目１番８２号,,33,202,7110911,,,,,,,2021-12-23,1,,,,,タオケンソウ,0
536,2260001036346,新規,0,2021-12-23,2021-12-23,株式会社中島フード,,株式会社,岡山県,倉敷市,上東１１４５番地２１,,33,202,7010111,,,,,,,2021-12-23,1,,,,,ナカシマフード,0
556,2370005010419,新規,0,2021-12-23,2021-12-23,特定非営利活動法人時のひかり,,その他の設立登記法人,宮城県,仙台市太白区,長町５丁目９番１３号２階,,04,104,9820011,,,,,,,2021-12-23,1,,,,,トキノヒカリ,0
558,2380001032416,新規,0,2021-12-23,2021-12-23,株式会社森田美装,,株式会社,福島県,伊達市,月舘町御代田字夢見の郷６１番地,,07,213,9600906,,,,,,,2021-12-23,1,,,,,モリタビソウ,0
563,2390005008931,新規,0,2021-12-23,2021-12-23,一般社団法人長井市コミュニティ協議会,,その他の設立登記法人,山形県,長井市,栄町１番１号,,06,209,9930084,,,,,,,2021-12-23,1,,,,,ナガイシコミュニティキョウギカイ,0
567,2430001085648,新規,0,2021-12-23,2021-12-23,株式会社ＳＵＭＩＫＡ,,株式会社,北海道,札幌市中央区,南十条西１０丁目１番２０号４階,,01,101,0640810,,,,,,,2021-12-23,1,,,,,スミカ,0
570,2430003013474,新規,0,2021-12-23,2021-12-23,合同会社イールエステイト,,合同会社,北海道,札幌市手稲区,新発寒六条４丁目１番１６号,,01,109,0060806,,,,,,,2021-12-23,1,,,,,イールエステイト,0
574,2450001013565,新規,0,2021-12-23,2021-12-23,株式会社トクダオート,,株式会社,北海道,名寄市,字徳田２７０番地１,,01,221,0960071,,,,,,,2021-12-23,1,,,,,トクダオート,0
575,2460001005636,新規,0,2021-12-23,2021-12-23,株式会社ＮＥＸＴ　ＰＬＡＣＥ,,株式会社,北海道,釧路市,緑ケ岡４丁目８番１５号,,01,206,0850814,,,,,,,2021-12-23,1,,,,,ネクストプレイス,0
581,2490001010063,新規,0,2021-12-23,2021-12-23,田舎生活株式会社,,株式会社,高知県,吾川郡仁淀川町,森山５２４番地５,,39,387,7811755,,,,,,,2021-12-23,1,,,,,イナカセイカツ,0
582,2700150029808,新規,0,2021-12-23,2015-10-09,丹波篠山土地改良協議会,,その他,兵庫県,丹波篠山市,北新町４１,,28,221,6692332,,,,,,,2015-10-09,1,,,,,タンバササヤマトチカイリヨウキヨウギカイ,0
591,3010001223414,新規,0,2021-12-23,2021-12-23,株式会社大谷コンサルティング,,株式会社,東京都,千代田区,神田司町２丁目１３番地,,13,101,1010048,,,,,,,2021-12-23,1,,,,,オオタニコンサルティング,0
592,3010001223430,新規,0,2021-12-23,2021-12-23,株式会社ＰｒｅｔｔｙＷｏｍａｎ,,株式会社,東京都,中央区,築地６丁目１８番３号,,13,102,1040045,,,,,,,2021-12-23,1,,,,,プリティーウーマン,0
595,3010003036624,新規,0,2021-12-23,2021-12-23,合同会社ディアンドル,,合同会社,東京都,千代田区,九段南１丁目５番６号りそな九段ビル５階－ＫＳフロア,,13,101,1020074,,,,,,,2021-12-23,1,,,,,ディアンドル,0
600,3010005034353,新規,0,2021-12-23,2021-12-23,市ヶ谷経理税理士法人,,その他の設立登記法人,東京都,千代田区,九段北４丁目１番５号市ヶ谷法曹ビル４０７,,13,101,1020073,,,,,,,2021-12-23,1,,,,,イチガヤケイリ,0
606,3010401164522,新規,0,2021-12-23,2021-12-23,株式会社Ａｃｓｐｏｒｔ,,株式会社,東京都,港区,浜松町２丁目２－１５浜松町ダイヤビル２Ｆ,,13,103,1050013,,,,,,,2021-12-23,1,,,,,アクスポート,0
607,3010401164613,新規,0,2021-12-23,2021-12-23,株式会社ＹａｎａＳＵＮ,,株式会社,東京都,港区,海岸１丁目２－３汐留芝離宮ビルディング２１Ｆ,,13,103,1050022,,,,,,,2021-12-23,1,,,,,ヤナサン,0
619,3010403026761,新規,0,2021-12-23,2021-12-23,合同会社神谷町インベストメント１０号,,合同会社,東京都,港区,虎ノ門５丁目１番４号,,13,103,1050001,,,,,,,2021-12-23,1,,,,,カミヤチョウインベストメントジュウゴウ,0
624,3010603009319,新規,0,2021-12-23,2021-12-23,合同会社Ｕｌｔｉｍａ,,合同会社,東京都,江東区,牡丹２丁目７番２号,,13,108,1350046,,,,,,,2021-12-23,1,,,,,アルティマ,0
644,3011003013910,新規,0,2021-12-23,2021-12-23,合同会社Ｎａｌｕ,,合同会社,東京都,渋谷区,道玄坂２丁目１９番１２号道玄坂ビルＢ１Ｃ,,13,113,1500043,,,,,,,2021-12-23,1,,,,,ナルー,0
648,3011101097186,新規,0,2021-12-23,2021-12-23,スズ株式会社,,株式会社,東京都,新宿区,大久保１丁目２番１号天翔東新宿ビル２階２０５号室,,13,104,1690072,,,,,,,2021-12-23,1,,,,,スズ,0
649,3011101097293,新規,0,2021-12-23,2021-12-23,株式会社ＩＷパートナーズ,,株式会社,東京都,新宿区,西新宿８丁目１９番１３号エスコート西新宿６０７,,13,104,1600023,,,,,,,2021-12-23,1,,,,,アイダブルパートナーズ,0
668,3011801040098,新規,0,2021-12-23,2021-12-23,株式会社Ｅ．Ｈ．Ｐ,,株式会社,東京都,葛飾区,東金町３丁目２１番１０号,,13,122,1250041,,,,,,,2021-12-23,1,,,,,イーエイチピー,0
670,3011803004902,新規,0,2021-12-23,2021-12-23,合同会社ＰＲＯＣＡＲＥ,,合同会社,東京都,葛飾区,水元１丁目２５番２２号,,13,122,1250032,,,,,,,2021-12-23,1,,,,,プロケア,0
678,3012403005167,新規,0,2021-12-23,2021-12-23,ナパストリートプランニング合同会社,,合同会社,東京都,武蔵野市,吉祥寺本町１丁目２５－１０ＫＳ－２ビル３Ｆ,,13,203,1800004,,,,,,,2021-12-23,1,,,,,ナパストリートプランニング,0
679,3012701016832,新規,0,2021-12-23,2021-12-23,株式会社Ｍａｒｃ　ＣｉＥＬ,,株式会社,東京都,小平市,学園西町２丁目２２番１０号１０３,,13,211,1870045,,,,,,,2021-12-23,1,,,,,マークシエル,0
698,3020001144444,新規,0,2021-12-23,2021-12-23,株式会社前津電工,,株式会社,神奈川県,川崎市麻生区,片平３丁目６番１０号,,14,137,2150023,,,,,,,2021-12-23,1,,,,,マエツデンコウ,0
701,3020003021014,新規,0,2021-12-23,2021-12-23,合同会社鈴木,,合同会社,神奈川県,川崎市多摩区,枡形６丁目２１番３０号,,14,135,2140032,,,,,,,2021-12-23,1,,,,,スズキ,0
707,3021003011211,新規,0,2021-12-23,2021-12-23,合同会社ＳＫハウス,,合同会社,神奈川県,海老名市,東柏ケ谷２丁目２番地９号クリオさがみ野壱番館３０８号室,,14,215,2430401,,,,,,,2021-12-23,1,,,,,エスケイハウス,0
710,3030001145961,新規,0,2021-12-23,2021-12-23,株式会社ＨＹ,,株式会社,埼玉県,幸手市,中４丁目９番１６号,,11,240,3400115,,,,,,,2021-12-23,1,,,,,エイチワイ,0
711,3030001145986,新規,0,2021-12-23,2021-12-23,株式会社ノリコ・ホールディングス,,株式会社,埼玉県,さいたま市西区,大字指扇３５４１番地１２,,11,101,3310047,,,,,,,2021-12-23,1,,,,,ノリコホールディングス,0
714,3030003018546,新規,0,2021-12-23,2021-12-23,合同会社タナカ商店,,合同会社,埼玉県,熊谷市,八木田４７０番地１,,11,202,3600233,,,,,,,2021-12-23,1,,,,,,0
725,3050001050342,新規,0,2021-12-23,2021-12-23,株式会社ＷＡＫＡ,,株式会社,茨城県,水戸市,藤が原３丁目５番地の６,,08,201,3114208,,,,,,,2021-12-23,1,,,,,ワカ,0
726,3050001050350,新規,0,2021-12-23,2021-12-23,株式会社ライブ,,株式会社,茨城県,水戸市,松が丘１丁目５番２７号,,08,201,3100043,,,,,,,2021-12-23,1,,,,,ライブ,0
732,3060003003909,新規,0,2021-12-23,2021-12-23,合同会社和輪羽,,合同会社,栃木県,宇都宮市,石井町３１２９番地９９,,09,201,3210912,,,,,,,2021-12-23,1,,,,,ワワワ,0
735,3070001038765,新規,0,2021-12-23,2021-12-23,株式会社Ｍｉｏ,,株式会社,群馬県,高崎市,八千代町１丁目１２番１号エスカイヤ八千代２０５,,10,202,3700861,,,,,,,2021-12-23,1,,,,,エムアイオー,0
739,3080401025536,新規,0,2021-12-23,2021-12-23,株式会社シュペルブ,,株式会社,静岡県,浜松市中区,幸５丁目６番３２号,,22,131,4338123,,,,,,,2021-12-23,1,,,,,シュペルブ,0
740,3080401025544,新規,0,2021-12-23,2021-12-23,株式会社Ｅ－ＣＲＡＦＴ,,株式会社,静岡県,浜松市北区,細江町中川８８８番地の２３５,,22,135,4311304,,,,,,,2021-12-23,1,,,,,イークラフト,0
742,3100001034918,新規,0,2021-12-23,2021-12-23,ｉ－ｂａｃ　ｍｏｄｅ株式会社,,株式会社,長野県,諏訪市,大字中洲中金子３０１５番地１ＴＫビル２階,,20,206,3920015,,,,,,,2021-12-23,1,,,,,アイバックモード,0
760,3120001242667,新規,0,2021-12-23,2021-12-23,株式会社七田滉生,,株式会社,大阪府,枚方市,藤阪中町３４番８号,,27,210,5730152,,,,,,,2021-12-23,1,,,,,シチタコウキ,0
761,3120001242675,新規,0,2021-12-23,2021-12-23,瀚鉞国際株式会社,00125207,株式会社,大阪府,大阪市城東区,放出西２丁目６番５号,,27,118,5360011,,,,,,,2021-12-23,1,,,,,カンジョウコクサイ,0
762,3120001242691,新規,0,2021-12-23,2021-12-23,株式会社ＡｓＡｇｅｎｔ　Ｍａｎａｇｅｍｅｎｔ,,株式会社,大阪府,大阪市北区,豊崎３丁目１８番３－１４０１号,,27,127,5310072,,,,,,,2021-12-23,1,,,,,アースエージェントマネジメント,0
763,3120001242700,新規,0,2021-12-23,2021-12-23,サイコウ株式会社,,株式会社,大阪府,大阪市中央区,島之内１丁目１５－９,,27,128,5420082,,,,,,,2021-12-23,1,,,,,サイコウ,0
767,3120003020823,新規,0,2021-12-23,2021-12-23,合同会社ミライワンインベスト,,合同会社,大阪府,大阪市東住吉区,山坂３丁目５番１７号,,27,121,5460035,,,,,,,2021-12-23,1,,,,,ミライワンインベスト,0
768,3120003020831,新規,0,2021-12-23,2021-12-23,合同会社トーヨーコーポレーション,,合同会社,大阪府,大阪市東住吉区,湯里４丁目３番地２３,,27,121,5460013,,,,,,,2021-12-23,1,,,,,トーヨーコーポレーション,0
769,3120005022669,新規,0,2021-12-23,2021-12-23,一般社団法人くらしｄｒｅａｍ,,その他の設立登記法人,大阪府,枚方市,香里園山之手町１９番６号,,27,210,5730087,,,,,,,2021-12-23,1,,,,,クラシドリーム,0
771,3120101064838,新規,0,2021-12-23,2021-12-23,モリテック株式会社,,株式会社,大阪府,堺市中区,八田西町２丁６番２０号,,27,142,5998265,,,,,,,2021-12-23,1,,,,,モリテック,0
774,3120103004486,新規,0,2021-12-23,2021-12-23,マーケットプライス合同会社,,合同会社,大阪府,堺市北区,金岡町３０４６番地１・１２５号,,27,146,5918022,,,,,,,2021-12-23,1,,,,,マーケットプライス,0
777,3120901045376,新規,0,2021-12-23,2021-12-23,株式会社嘉会商事,,株式会社,大阪府,吹田市,千里山東１丁目９－１６佐藤関大前ビル１０２号室,,27,205,5650842,,,,,,,2021-12-23,1,,,,,カカイショウジ,0
778,3120901045384,新規,0,2021-12-23,2021-12-23,株式会社ＦｉｎＢｒｉｄｇｅ,,株式会社,大阪府,吹田市,朝日町２７番２０号,,27,205,5640027,,,,,,,2021-12-23,1,,,,,フィンブリッジ,0
781,3122001035448,新規,0,2021-12-23,2021-12-23,株式会社パナファミリーマスオ,,株式会社,大阪府,四條畷市,田原台４丁目９番１４号,,27,229,5750013,,,,,,,2021-12-23,1,,,,,パナファミリーマスオ,0
786,3130003007646,新規,0,2021-12-23,2021-12-23,合同会社Ｕ－ＲＵ,,合同会社,京都府,京都市上京区,宮垣町９１－１０２,,26,102,6020853,,,,,,,2021-12-23,1,,,,,ウル,0
795,3150003002570,新規,0,2021-12-23,2021-12-23,合同会社アイコニックエデュケーショナルラボ,,合同会社,奈良県,橿原市,新賀町２０１番地の２仲川ビル１Ｆ,,29,205,6340006,,,,,,,2021-12-23,1,,,,,アイコニックエデュケーショナルラボ,0
796,3160003002454,新規,0,2021-12-23,2021-12-23,合同会社Ｔ－ｌｉｎｋ,,合同会社,滋賀県,栗東市,十里４８９－１,,25,208,5203036,,,,,,,2021-12-23,1,,,,,ティリンク,0
808,3180001149221,新規,0,2021-12-23,2021-12-23,株式会社Ａｏｎｅｌａ,,株式会社,愛知県,名古屋市港区,港北町２丁目２７番地の１,,23,111,4550067,,,,,,,2021-12-23,1,,,,,アネラ,0
816,3180003023317,新規,0,2021-12-23,2021-12-23,総合創出ワーク合同会社,,合同会社,愛知県,知多市,日長字西畑８番地の２,,23,224,4780041,,,,,,,2021-12-23,1,,,,,ソウゴウソウシュツワーク,0
825,3200001039568,新規,0,2021-12-23,2021-12-23,株式会社ユキフク,,株式会社,岐阜県,多治見市,長瀬町１８番地の１３,,21,204,5070017,,,,,,,2021-12-23,1,,,,,ユキフク,0
831,3250003002965,新規,0,2021-12-23,2021-12-23,合同会社ＲＡＩ,,合同会社,山口県,下関市,豊浦町大字厚母郷３７８番地１,,35,201,7596314,,,,,,,2021-12-23,1,,,,,ライ,0
839,3260005011014,新規,0,2021-12-23,2021-12-23,医療法人社団くろせ歯科クリニック,,その他の設立登記法人,岡山県,岡山市中区,湊３８１番地４８,,33,102,7038266,,,,,,,2021-12-23,1,,,,,クロセシカクリニック,0
840,3270001008418,新規,0,2021-12-23,2021-12-23,株式会社ホームメイク,,株式会社,鳥取県,鳥取市,川端４丁目３１２番地,,31,201,6800036,,,,,,,2021-12-23,1,,,,,ホームメイク,0
844,3290001095784,新規,0,2021-12-23,2021-12-23,智融株式会社,,株式会社,福岡県,福岡市中央区,赤坂２丁目２番９号６０５室,,40,133,8100042,,,,,,,2021-12-23,1,,,,,チユウ,0
847,3310001017645,新規,0,2021-12-23,2021-12-23,株式会社グロウ警備,,株式会社,長崎県,佐世保市,吉井町直谷１１６６番地９,,42,202,8596305,,,,,,,2021-12-23,1,,,,,グロウケイビ,0
857,3360005006573,新規,0,2021-12-23,2021-12-23,沖縄県民共済生活協同組合,,その他の設立登記法人,沖縄県,那覇市,久茂地２丁目８番１号ＪＥＩ那覇ビル７階,,47,201,9000015,,,,,,,2021-12-23,1,,,,,オキナワケンミンキョウサイセイカツ,0
861,3370001047975,新規,0,2021-12-23,2021-12-23,株式会社清トレーディング,,株式会社,宮城県,栗原市,高清水大寺２４番地２,,04,213,9872126,,,,,,,2021-12-23,1,,,,,シントレーディング,0
862,3370001047983,新規,0,2021-12-23,2021-12-23,株式会社快晴,,株式会社,宮城県,岩沼市,土ケ崎１丁目５番６号,,04,211,9892451,,,,,,,2021-12-23,1,,,,,カイセイ,0
871,3400003002875,新規,0,2021-12-23,2021-12-23,合同会社レイズスリーエス,,合同会社,岩手県,北上市,大通り１丁目６－４セレーノ北上３０２,,03,206,0240061,,,,,,,2021-12-23,1,,,,,レイズスリーエス,0
885,3460001005635,新規,0,2021-12-23,2021-12-23,和工房株式会社,,株式会社,北海道,釧路市,材木町７番１０号,,01,206,0850815,,,,,,,2021-12-23,1,,,,,ナゴミコウボウ,0
888,3500001023888,新規,0,2021-12-23,2021-12-23,株式会社石鎚循環堂,,株式会社,愛媛県,西条市,中奥１号３２番地,,38,206,7930214,,,,,,,2021-12-23,1,,,,,イシヅチジュンカンドウ,0
898,4010001223446,新規,0,2021-12-23,2021-12-23,株式会社五洲,,株式会社,東京都,千代田区,神田佐久間町１丁目８番地４アルテール秋葉原９０７,,13,101,1010025,,,,,,,2021-12-23,1,,,,,ゴシュウ,0
902,4010003036623,新規,0,2021-12-23,2021-12-23,ジェイコアレジ４ホールディング合同会社,,合同会社,東京都,千代田区,丸の内３丁目１番１号東京共同会計事務所内,,13,101,1000005,,,,,,,2021-12-23,1,,,,,ジェイコアレジフォーホールディング,0
906,4010005034369,新規,0,2021-12-23,2021-12-23,一般財団法人リスモン財団,,その他の設立登記法人,東京都,中央区,日本橋２丁目１６番５号,,13,102,1030027,,,,,,,2021-12-23,1,,,,,リスモンザイダン,0
913,4010401164612,新規,0,2021-12-23,2021-12-23,株式会社Ｎｅｘｔ　Ｗｉｌｌ　Ｍａｎａｇｅｍｅｎｔ,,株式会社,東京都,港区,浜松町２丁目２番１５号浜松町ダイヤビル２階,,13,103,1050013,,,,,,,2021-12-23,1,,,,,ネクストウィルマネジメント,0
914,4010401164629,新規,0,2021-12-23,2021-12-23,ＮＶｅｎｔｕｒｅ　Ｃａｐｉｔａｌ株式会社,,株式会社,東京都,港区,港南２丁目１５番３号,,13,103,1080075,,,,,,,2021-12-23,1,,,,,エヌベンチャーキャピタル,0
929,4010403026760,新規,0,2021-12-23,2021-12-23,合同会社神谷町インベストメント９号,,合同会社,東京都,港区,虎ノ門５丁目１番４号,,13,103,1050001,,,,,,,2021-12-23,1,,,,,カミヤチョウインベストメントキュウゴウ,0
930,4010403026769,新規,0,2021-12-23,2021-12-23,合同会社ｇｏｏｄｆｅｒｒｙ,,合同会社,東京都,港区,南青山２丁目２番１５号,,13,103,1070062,,,,,,,2021-12-23,1,,,,,グッドフェリー,0
931,4010403026777,新規,0,2021-12-23,2021-12-23,ＷＴホテルマネジメント合同会社,,合同会社,東京都,港区,浜松町２丁目４番１号,,13,103,1050013,,,,,,,2021-12-23,1,,,,,ダブリューティーホテルマネジメント,0
935,4010501048244,新規,0,2021-12-23,2021-12-23,新伝媒双明株式会社,,株式会社,東京都,台東区,上野４丁目４番５号５階,,13,106,1100005,,,,,,,2021-12-23,1,,,,,シンデンバイソウメイ,0
938,4010601060421,新規,0,2021-12-23,2021-12-23,株式会社ディーワイシー,,株式会社,東京都,江東区,北砂３丁目１７番１８号,,13,108,1360073,,,,,,,2021-12-23,1,,,,,ディーワイシー,0
940,4010701041973,新規,0,2021-12-23,2021-12-23,株式会社ＰＩＮＫプリンセス,,株式会社,東京都,品川区,上大崎２丁目２３番７号ホテルプリンセスガーデン,,13,109,1410021,,,,,,,2021-12-23,1,,,,,ピンクプリンセス,0
948,4010901050031,新規,0,2021-12-23,2021-12-23,株式会社ベジファ,,株式会社,東京都,世田谷区,北沢４丁目１６番７号ベルハイム下北沢１０１,,13,112,1550031,,,,,,,2021-12-23,1,,,,,ベジファ,0
961,4011101097251,新規,0,2021-12-23,2021-12-23,株式会社オーエスピー警備,,株式会社,東京都,新宿区,大久保１丁目１３番５号大久保マンション２号館１０３,,13,104,1690072,,,,,,,2021-12-23,1,,,,,オーエスビーケイビ,0
962,4011103011318,新規,0,2021-12-23,2021-12-23,グリーン管理合同会社,,合同会社,東京都,新宿区,北新宿１丁目９番１３号,,13,104,1690074,,,,,,,2021-12-23,1,,,,,グリーンカンリ,0
963,4011403003527,新規,0,2021-12-23,2021-12-23,合同会社ＢＡＳＥ,,合同会社,東京都,板橋区,弥生町２６番８号,,13,119,1730021,,,,,,,2021-12-23,1,,,,,ベース,0
967,4011603003475,新規,0,2021-12-23,2021-12-23,合同会社おばけ,,合同会社,東京都,練馬区,氷川台４丁目４６番７号,,13,120,1790084,,,,,,,2021-12-23,1,,,,,オバケ,0
968,4011603003483,新規,0,2021-12-23,2021-12-23,合同会社レイリス,,合同会社,東京都,練馬区,南大泉５丁目２０番１７号,,13,120,1780064,,,,,,,2021-12-23,1,,,,,レイリス,0
971,4011701024919,新規,0,2021-12-23,2021-12-23,株式会社Ｆ　ｓｔｙｌｅ,,株式会社,東京都,江戸川区,西葛西６丁目１７番１－６０７号フジマンション第２,,13,123,1340088,,,,,,,2021-12-23,1,,,,,エフスタイル,0
983,4013305003290,新規,0,2021-12-23,2021-12-23,ＮＰＯ法人法教育団体ＬＥＸ,,その他の設立登記法人,東京都,豊島区,長崎５丁目２８番２号,,13,116,1710051,,,,,,,2021-12-23,1,,,,,エヌピーオーホウジンホウキョウイクダンタイレックス,0
993,4020001144443,新規,0,2021-12-23,2021-12-23,株式会社ワインサイト,,株式会社,神奈川県,横浜市栄区,桂台西１丁目４１番３０号,,14,115,2470035,,,,,,,2021-12-23,1,,,,,ワインサイト,0
994,4020005015319,新規,0,2021-12-23,2021-12-23,一般財団法人加瀬コンテナ防災財団,,その他の設立登記法人,神奈川県,横浜市港北区,新横浜３丁目１９番地１１,,14,109,2220033,,,,,,,2021-12-23,1,,,,,カセコンテナボウサイザイダン,0
1004,4030001145977,新規,0,2021-12-23,2021-12-23,株式会社段田金属,,株式会社,埼玉県,さいたま市大宮区,宮町１丁目８６番地１大宮イーストビル７２８号室,,11,103,3300802,,,,,,,2021-12-23,1,,,,,ダンダキンゾク,0
1005,4030003018553,新規,0,2021-12-23,2021-12-23,合同会社ハピエストステージ,,合同会社,埼玉県,熊谷市,小江川２１３１番地４,,11,202,3600103,,,,,,,2021-12-23,1,,,,,ハピエストステージ,0
1010,4040001121457,新規,0,2021-12-23,2021-12-23,株式会社プランテフクシ,,株式会社,千葉県,市川市,中国分５丁目２８番１７号,,12,203,2720835,,,,,,,2021-12-23,1,,,,,プランテフクシ,0
1024,4070001038764,新規,0,2021-12-23,2021-12-23,株式会社マルゲン,,株式会社,群馬県,高崎市,寺尾町６８８番地１,,10,202,3700865,,,,,,,2021-12-23,1,,,,,マルゲン,0
1028,4080001024656,新規,0,2021-12-23,2021-12-23,株式会社ルフィナプラス,,株式会社,静岡県,静岡市葵区,伝馬町９番地の１５リベルテヒラノ１－Ａ,,22,101,4200858,,,,,,,2021-12-23,1,,,,,ルフィナプラス,0
1029,4080401025543,新規,0,2021-12-23,2021-12-23,吉彰株式会社,,株式会社,静岡県,浜松市浜北区,内野台１丁目３４番８号,,22,136,4340045,,,,,,,2021-12-23,1,,,,,ヨシアキ,0
1030,4090001017337,新規,0,2021-12-23,2021-12-23,株式会社アンドシロ,,株式会社,山梨県,甲斐市,竜王１２５０番地１,,19,210,4000118,,,,,,,2021-12-23,1,,,,,アンドシロ,0
1032,4100001034917,新規,0,2021-12-23,2021-12-23,株式会社ウィズユー,,株式会社,長野県,松本市,大字惣社７８番地１０,,20,202,3900305,,,,,,,2021-12-23,1,,,,,ウィズユー,0
1033,4100001034925,新規,0,2021-12-23,2021-12-23,株式会社信越通商,,株式会社,長野県,長野市,大字南長野新田町１１３７番地５ＮＴＴ新田町ビル５階,,20,201,3800835,,,,,,,2021-12-23,1,,,,,シンエツツウショウ,0
1035,4100003006328,新規,0,2021-12-23,2021-12-23,ＲＴＨ　Ａｄｖｉｓｏｒｓ　Ｊａｐａｎ合同会社,,合同会社,長野県,下高井郡野沢温泉村,大字豊郷９４３９番地１,,20,563,3892502,,,,,,,2021-12-23,1,,,,,アールティーエイチアドバイザーズジャパン,0
1054,4120003020822,新規,0,2021-12-23,2021-12-23,合同会社ミライツーインベスト,,合同会社,大阪府,大阪市福島区,福島１丁目１番１２号リバーレジデンス堂島１３０４号室,,27,103,5530003,,,,,,,2021-12-23,1,,,,,ミライツーインベスト,0
1063,4122001035447,新規,0,2021-12-23,2021-12-23,高商株式会社,,株式会社,大阪府,東大阪市,寿町１丁目１番６号,,27,227,5770837,,,,,,,2021-12-23,1,,,,,タカショウ,0
1073,4140001124292,新規,0,2021-12-23,2021-12-23,ストリナ株式会社,,株式会社,兵庫県,西宮市,羽衣町７－３０夙川グリーンタウン３階,,28,204,6620051,,,,,,,2021-12-23,1,,,,,ストリナ,0
1075,4140005025958,新規,0,2021-12-23,2021-12-23,一般社団法人千寿,,その他の設立登記法人,兵庫県,姫路市,西延末４２番地５,,28,201,6700971,,,,,,,2021-12-23,1,,,,,センジュ,0
1088,4180001149179,新規,0,2021-12-23,2021-12-23,アーキビルド株式会社,,株式会社,愛知県,名古屋市名東区,猪子石原１丁目１３０８番地,,23,115,4650008,,,,,,,2021-12-23,1,,,,,アーキビルド,0
1089,4180001149229,新規,0,2021-12-23,2021-12-23,株式会社ＳＴＡＲ　ＦＩＥＬＤ,,株式会社,愛知県,名古屋市熱田区,木之免町３０１番地４６０３,,23,109,4560046,,,,,,,2021-12-23,1,,,,,スターフィールド,0
1096,4190001028968,新規,0,2021-12-23,2021-12-23,和田建工株式会社,,株式会社,三重県,度会郡南伊勢町,東宮８番地５,,24,472,5161309,,,,,,,2021-12-23,1,,,,,ワダケンコウ,0
1113,4240001059082,新規,0,2021-12-23,2021-12-23,株式会社ＫＥＩ設備,,株式会社,広島県,広島市西区,田方２丁目３番５号,,34,104,7330851,,,,,,,2021-12-23,1,,,,,ケイセツビ,0
1123,4290001095767,新規,0,2021-12-23,2021-12-23,株式会社幸,,株式会社,福岡県,福岡市早良区,荒江２丁目６番１－３０１号,,40,137,8140021,,,,,,,2021-12-23,1,,,,,サチ,0
1124,4290001095800,新規,0,2021-12-23,2021-12-23,株式会社ＹＯＵ’Ｓ,,株式会社,福岡県,久留米市,三潴町清松３５６番地４,,40,203,8300116,,,,,,,2021-12-23,1,,,,,ユーズ,0
1125,4290001095809,新規,0,2021-12-23,2021-12-23,株式会社ＢＥＥＳ,,株式会社,福岡県,糟屋郡宇美町,四王寺坂１丁目２３番１４号,,40,341,8112103,,,,,,,2021-12-23,1,,,,,ビーズ,0
1131,4350001017491,新規,0,2021-12-23,2021-12-23,株式会社Ｍｓｅｒｅｎｄｉｐｉｔｙ,,株式会社,宮崎県,宮崎市,江平東１丁目８－１９エレガンス江平東Ｃ,,45,201,8800816,,,,,,,2021-12-23,1,,,,,エムセレンディピティ,0
1132,4360001029800,新規,0,2021-12-23,2021-12-23,株式会社エコファーム大地おきなわ,,株式会社,沖縄県,糸満市,西崎町５丁目６－１１－２階,,47,210,9010306,,,,,,,2021-12-23,1,,,,,エコファームダイチオキナワ,0
1133,4360003011665,新規,0,2021-12-23,2021-12-23,Ｌｙｃｏｒｉｓ　Ｃｏｒｐ合同会社,,合同会社,沖縄県,沖縄市,高原７丁目１０番５号サンクレスト高原５０１,,47,211,9042171,,,,,,,2021-12-23,1,,,,,リコリスコープ,0
1140,4380001032422,新規,0,2021-12-23,2021-12-23,ｓａｉｌｉｎｇ株式会社,,株式会社,福島県,郡山市,笹川３丁目５７番４号,,07,203,9630108,,,,,,,2021-12-23,1,,,,,セイリング,0
1146,4400003002874,新規,0,2021-12-23,2021-12-23,合同会社ササキ工業,,合同会社,岩手県,滝沢市,巣子７５２番地２５,,03,216,0200611,,,,,,,2021-12-23,1,,,,,ササキコウギョウ,0
1147,4410001013047,新規,0,2021-12-23,2021-12-23,株式会社創和電工,,株式会社,秋田県,秋田市,河辺松渕字沼袋４０番地１,,05,201,0192613,,,,,,,2021-12-23,1,,,,,ソウワデンコウ,0
1150,4430001085646,新規,0,2021-12-23,2021-12-23,株式会社どうしんかまだ,,株式会社,北海道,勇払郡むかわ町,文京２丁目９番地１,,01,586,0540051,,,,,,,2021-12-23,1,,,,,ドウシンカマダ,0
1154,4460001005634,新規,0,2021-12-23,2021-12-23,株式会社丸壮,,株式会社,北海道,釧路市,文苑４丁目２番１５号,,01,206,0850063,,,,,,,2021-12-23,1,,,,,マルソウ,0
1158,4470001018882,新規,0,2021-12-23,2021-12-23,株式会社加地茂治郎商店,,株式会社,香川県,観音寺市,大野原町大野原５０１５番地２,,37,205,7691611,,,,,,,2021-12-23,1,,,,,カジモジロウショウテン,0
1160,4480001011589,新規,0,2021-12-23,2021-12-23,株式会社海風,,株式会社,徳島県,板野郡松茂町,笹木野字八上６３番地エスチュアリー６４－６０４号室,,36,401,7710219,,,,,,,2021-12-23,1,,,,,ウミカゼ,0
1166,4500001023879,新規,0,2021-12-23,2021-12-23,サガワ電工株式会社,,株式会社,愛媛県,松山市,古川西２丁目１５番８号,,38,201,7900944,,,,,,,2021-12-23,1,,,,,サガワデンコウ,0
1167,4500001023887,新規,0,2021-12-23,2021-12-23,株式会社ＯＮＥ　ＳＴＥＰ,,株式会社,愛媛県,伊予市,米湊９１９番地３,,38,210,7993113,,,,,,,2021-12-23,1,,,,,ワンステップ,0
1169,4700150106183,新規,0,2021-12-23,2021-12-10,塚田一郎後援会,,その他,新潟県,新潟市中央区,女池上山２丁目２２－７,,15,103,9500945,,,,,,,2021-12-10,1,,,,,ツカダイチロウコウエンカイ,0
1183,5010001223429,新規,0,2021-12-23,2021-12-23,ＮＴＴセキュリティホールディングス株式会社,,株式会社,東京都,千代田区,外神田４丁目１４番１号,,13,101,1010021,,,,,,,2021-12-23,1,,,,,エヌティティセキュリティホールディングス,0
1186,5010103001831,新規,0,2021-12-23,2021-12-23,合同会社ＹＯＢＯＳＨＩ,,合同会社,東京都,八王子市,狭間町１４５５番地２サイトピア３Ｆ,,13,201,1930941,,,,,,,2021-12-23,1,,,,,ヨボシ,0
1191,5010401164611,新規,0,2021-12-23,2021-12-23,Ｇｌｏｒｉａ　Ｍａｔｅｒｉａｌ　Ｔｅｃｈｎｏｌｏｇｙ　Ｊａｐａｎ株式会社,,株式会社,東京都,港区,三田１丁目２番１８号ＴＴＤビル,,13,103,1080073,,,,,,,2021-12-23,1,,,,,グロリアマテリアルテクノロジージャパン,0
1202,5010501048251,新規,0,2021-12-23,2021-12-23,株式会社Ｄｅ　Ｂａｃｋ,,株式会社,東京都,台東区,鳥越１丁目２２番３号,,13,106,1110054,,,,,,,2021-12-23,1,,,,,ディーバック,0
1207,5010601060420,新規,0,2021-12-23,2021-12-23,株式会社ＦＡＬＡＮＴＯ,,株式会社,東京都,墨田区,江東橋１丁目２番４－８０１号リヴシティ錦糸町参番館,,13,107,1300022,,,,,,,2021-12-23,1,,,,,ファラント,0
1220,5011103011325,新規,0,2021-12-23,2021-12-23,ＰＴＷ合同会社,,合同会社,東京都,新宿区,百人町１丁目２１番８－２０６号,,13,104,1690073,,,,,,,2021-12-23,1,,,,,ピーティダブリュ,0
1234,5011803004900,新規,0,2021-12-23,2021-12-23,トムズ合同会社,,合同会社,東京都,足立区,千住宮元町１－２千住宮本ビル１階,,13,121,1200043,,,,,,,2021-12-23,1,,,,,トムズ,0
1237,5012301012817,新規,0,2021-12-23,2021-12-23,株式会社保険コネクト,,株式会社,東京都,町田市,中町１丁目５番１号フレグラント４０５,,13,209,1940021,,,,,,,2021-12-23,1,,,,,ホケンコネクト,0
1238,5012401038687,新規,0,2021-12-23,2021-12-23,株式会社Ｔ－ｆｌｏｗ,,株式会社,東京都,狛江市,中和泉４丁目２番７号,,13,219,2010012,,,,,,,2021-12-23,1,,,,,ティーフロー,0
1251,5020001144442,新規,0,2021-12-23,2021-12-23,ユキ株式会社,,株式会社,神奈川県,川崎市川崎区,江川１丁目１１番２－３号,,14,131,2100823,,,,,,,2021-12-23,1,,,,,ユキ,0
1252,5020001144459,新規,0,2021-12-23,2021-12-23,株式会社ダンミカ,,株式会社,神奈川県,横浜市西区,北幸１丁目１１－１水信ビル７階,,14,103,2200004,,,,,,,2021-12-23,1,,,,,ダンミカ,0
1256,5020003021012,新規,0,2021-12-23,2021-12-23,合同会社落語オフィスひら,,合同会社,神奈川県,横浜市鶴見区,矢向５丁目１２番６号－３０２,,14,101,2300001,,,,,,,2021-12-23,1,,,,,ラクゴオフィスヒラ,0
1266,5030001146033,新規,0,2021-12-23,2021-12-23,メッツァプロパティ株式会社,,株式会社,埼玉県,所沢市,東所沢２丁目４２番地の３メゾン・ド・プリメーラ２０８,,11,208,3590021,,,,,,,2021-12-23,1,,,,,メッツァプロパティ,0
1269,5030003018511,新規,0,2021-12-23,2021-12-23,ＳＳＳ２０２２合同会社,,合同会社,埼玉県,さいたま市大宮区,三橋２丁目２９９－２,,11,103,3300856,,,,,,,2021-12-23,1,,,,,トリプルエス,0
1275,5040001121415,新規,0,2021-12-23,2021-12-23,株式会社ありがとう,,株式会社,千葉県,東金市,東岩崎二丁目２４番地１２,,12,213,2830068,,,,,,,2021-12-23,1,,,,,アリガトウ,0
1284,5050001050340,新規,0,2021-12-23,2021-12-23,株式会社井能総建,,株式会社,茨城県,行方市,小貫２８０４番地,,08,233,3111724,,,,,,,2021-12-23,1,,,,,イノウソウケン,0
1288,5050003006282,新規,0,2021-12-23,2021-12-23,合同会社一二三,,合同会社,茨城県,ひたちなか市,殿山町１丁目２番５６号,,08,221,3111212,,,,,,,2021-12-23,1,,,,,ヒフミ,0
1289,5050005012989,新規,0,2021-12-23,2021-12-23,一般社団法人いきいきライフ協会古河,,その他の設立登記法人,茨城県,古河市,駒込８９０番地,,08,204,3060121,,,,,,,2021-12-23,1,,,,,イキイキライフキョウカイコガ,0
1295,5080101022996,新規,0,2021-12-23,2021-12-23,株式会社Ｃ．Ｄ．Ｕ．,,株式会社,静岡県,富士市,国久保３丁目９‐４０,,22,210,4170071,,,,,,,2021-12-23,1,,,,,シーディーユー,0
1298,5080401025542,新規,0,2021-12-23,2021-12-23,株式会社渡瀬配管,,株式会社,静岡県,浜松市中区,名塚町２７番地の１,,22,131,4300811,,,,,,,2021-12-23,1,,,,,ワタセハイカン,0
1303,5100001034916,新規,0,2021-12-23,2021-12-23,株式会社ハケタ,,株式会社,長野県,上田市,中丸子９２７－２,,20,203,3860405,,,,,,,2021-12-23,1,,,,,ハケタ,0
1310,5120001242657,新規,0,2021-12-23,2021-12-23,株式会社Ｌｉｆｅ　Ｔｅｒｒａｃｅ,,株式会社,大阪府,大阪市北区,天神橋２丁目北１番１４号サンプラザ南森町７０２,,27,127,5300041,,,,,,,2021-12-23,1,,,,,ライフテラス,0
1311,5120001242673,新規,0,2021-12-23,2021-12-23,株式会社ｔｒｅｎｄａ,,株式会社,大阪府,大阪市東住吉区,駒川３丁目１６番７号,,27,121,5460043,,,,,,,2021-12-23,1,,,,,トレンダ,0
1315,5120003020821,新規,0,2021-12-23,2021-12-23,合同会社トラストワンエステート,,合同会社,大阪府,大阪市東住吉区,山坂３丁目５番１７号,,27,121,5460035,,,,,,,2021-12-23,1,,,,,トラストワンエステート,0
1331,5140001124259,新規,0,2021-12-23,2021-12-23,株式会社ミケージェオロアルヘンティナ,,株式会社,兵庫県,西宮市,鷲林寺南町１２番４０号,,28,204,6620002,,,,,,,2021-12-23,1,,,,,ミケージェオロアルヘンティナ,0
1332,5140001124291,新規,0,2021-12-23,2021-12-23,株式会社渡眞璃木,,株式会社,兵庫県,西宮市,神楽町１０番２２号,,28,204,6620977,,,,,,,2021-12-23,1,,,,,トマリギ,0
1335,5140005025957,新規,0,2021-12-23,2021-12-23,特定非営利活動法人ベジ,,その他の設立登記法人,兵庫県,三木市,緑が丘町西１丁目２番地１５,,28,215,6730531,,,,,,,2021-12-23,1,,,,,ベジ,0
1348,5180001149236,新規,0,2021-12-23,2021-12-23,株式会社愛三,,株式会社,愛知県,春日井市,八田町３丁目４番地５,,23,206,4860849,,,,,,,2021-12-23,1,,,,,アイサン,0
1349,5180001149244,新規,0,2021-12-23,2021-12-23,キッズ・パートナーズ株式会社,,株式会社,愛知県,名古屋市中川区,下之一色町字宮分３０番地（Ａ・Ｃｉｔｙ中川５０３号）,,23,110,4540945,,,,,,,2021-12-23,1,,,,,キッズパートナーズ,0
1357,5190003003852,新規,0,2021-12-23,2021-12-23,ナンバーナイン合同会社,,合同会社,三重県,北牟婁郡紀北町,長島１４０１,,24,543,5193205,,,,,,,2021-12-23,1,,,,,ナンバーナイン,0
1366,5220003003171,新規,0,2021-12-23,2021-12-23,合同会社アップズ,,合同会社,石川県,七尾市,田鶴浜町ぬ部１番地２号,,17,202,9292121,,,,,,,2021-12-23,1,,,,,アップズ,0
1389,5290003011960,新規,0,2021-12-23,2021-12-23,福岡経営Ｏｆｆｉｃｅ合同会社,,合同会社,福岡県,福岡市中央区,天神５丁目９番２号ファミール天神５０６号,,40,133,8100001,,,,,,,2021-12-23,1,,,,,フクオカケイエイオフィス,0
1391,5290801028116,新規,0,2021-12-23,2021-12-23,株式会社タイコー,,株式会社,福岡県,北九州市小倉北区,金田２丁目７番４－１０４号,,40,106,8030816,,,,,,,2021-12-23,1,,,,,タイコー,0
1407,5380001032413,新規,0,2021-12-23,2021-12-23,株式会社プリミティブシンク,,株式会社,福島県,田村郡三春町,桜ケ丘３丁目１番地の３,,07,521,9637711,,,,,,,2021-12-23,1,,,,,プリミティブシンク,0
1409,5390001016720,新規,0,2021-12-23,2021-12-23,株式会社丸和,,株式会社,山形県,山形市,諏訪町２丁目１番４１号,,06,201,9900033,,,,,,,2021-12-23,1,,,,,マルワ,0
1410,5390003001902,新規,0,2021-12-23,2021-12-23,合同会社Ｒａｇｒｉ,,合同会社,山形県,村山市,楯岡大沢川３６０５,,06,208,9950031,,,,,,,2021-12-23,1,,,,,ラグリ,0
1423,5460303000745,新規,0,2021-12-23,2021-12-23,合同会社ちゅうぼうや,,合同会社,北海道,北見市,公園町１７１番地９,,01,208,0900015,,,,,,,2021-12-23,1,,,,,チュウボウヤ,0
1425,5480001011588,新規,0,2021-12-23,2021-12-23,株式会社ＮＫｗｏｒｋｓ,,株式会社,徳島県,名西郡石井町,石井字石井９０９番地１ＳＴＹＬＩＳＨＣＵＢＥ・Ｅ号室,,36,341,7793233,,,,,,,2021-12-23,1,,,,,エヌケーワークス,0
1426,5500001023878,新規,0,2021-12-23,2021-12-23,Ｓｐｉｒａｌ　Ｓｔａｉｒｓ　Ｓｔｕｄｉｏ株式会社,,株式会社,愛媛県,松山市,千舟町４丁目１番地４,,38,201,7900011,,,,,,,2021-12-23,1,,,,,スパイラルステアーズスタジオ,0
1427,5500001023886,新規,0,2021-12-23,2021-12-23,株式会社マリンサービスフジオカ,,株式会社,愛媛県,松山市,山西町６８番地１８,,38,201,7918026,,,,,,,2021-12-23,1,,,,,マリンサービスフジオカ,0
1442,6010001223361,新規,0,2021-12-23,2021-12-23,株式会社ＭＯＮＭＹ,,株式会社,東京都,千代田区,神田佐久間河岸５５番地朝風染常共同ビル２階,,13,101,1010026,,,,,,,2021-12-23,1,,,,,モンミー,0
1443,6010001223460,新規,0,2021-12-23,2021-12-23,株式会社スフレ,,株式会社,東京都,千代田区,神田錦町３丁目９番地２,,13,101,1010054,,,,,,,2021-12-23,1,,,,,スフレ,0
1447,6010003036588,新規,0,2021-12-23,2021-12-23,合同会社Ｇｒｅｅｎ　Ｅａｒｔｈ,,合同会社,東京都,中央区,日本橋茅場町２丁目７－６晴花ビル６階,,13,102,1030025,,,,,,,2021-12-23,1,,,,,グリーンアース,0
1448,6010003036596,新規,0,2021-12-23,2021-12-23,Ｓｉｌｋｒｏａｄ　Ｔｒａｄｉｎｇ合同会社,,合同会社,東京都,千代田区,神田平河町１番地第３東ビル６Ｆ,,13,101,1010027,,,,,,,2021-12-23,1,,,,,シルクロードトゥレイディング,0
1452,6010101014999,新規,0,2021-12-23,2021-12-23,株式会社Ｔａａｂｉｎｅ,,株式会社,東京都,八王子市,八木町４番８号,,13,201,1920055,,,,,,,2021-12-23,1,,,,,,0
1474,6010505003284,新規,0,2021-12-23,2021-12-23,税理士法人八丈,,その他の設立登記法人,東京都,台東区,根岸２丁目２０番１０号シルバードビル３０１号,,13,106,1100003,,,,,,,2021-12-23,1,,,,,ハチジョウ,0
1478,6010701041971,新規,0,2021-12-23,2021-12-23,日本トリッジ株式会社,,株式会社,東京都,品川区,東五反田５丁目２２番３３号ＴＫ池田山ビル２Ｆ,,13,109,1410022,,,,,,,2021-12-23,1,,,,,ニホントリッジ,0
1484,6010803003993,新規,0,2021-12-23,2021-12-23,ＣＩＳ合同会社,,合同会社,東京都,大田区,西六郷１丁目１２－２２多摩川パークスクエア４１３,,13,111,1440056,,,,,,,2021-12-23,1,,,,,シス,0
1511,6012301012816,新規,0,2021-12-23,2021-12-23,株式会社ナイソー,,株式会社,東京都,町田市,本町田２９９２番地１２,,13,209,1940032,,,,,,,2021-12-23,1,,,,,ナイソー,0
1512,6012401038686,新規,0,2021-12-23,2021-12-23,株式会社ＳＫＹプラス,,株式会社,東京都,多摩市,豊ヶ丘１丁目１２番地２コーポアリセイ２０１,,13,224,2060031,,,,,,,2021-12-23,1,,,,,スカイプラス,0
1522,6020003021011,新規,0,2021-12-23,2021-12-23,合同会社Ｐｌｅａｔｕｒｅ,,合同会社,神奈川県,横浜市緑区,三保町２４６６番地４５,,14,113,2260015,,,,,,,2021-12-23,1,,,,,プリーチャー,0
1526,6021001074653,新規,0,2021-12-23,2021-12-23,株式会社バーベナ,,株式会社,神奈川県,三浦郡葉山町,堀内２１６６,,14,301,2400112,,,,,,,2021-12-23,1,,,,,バーベナ,0
1531,6030001145918,新規,0,2021-12-23,2021-12-23,株式会社カラーライフ,,株式会社,埼玉県,飯能市,栄町１番２７号,,11,209,3570025,,,,,,,2021-12-23,1,,,,,カラーライフ,0
1532,6030001145959,新規,0,2021-12-23,2021-12-23,株式会社小島工業,,株式会社,埼玉県,大里郡寄居町,大字用土３４２０番地２,,11,408,3691201,,,,,,,2021-12-23,1,,,,,コジマコウギョウ,0
1549,6050001050364,新規,0,2021-12-23,2021-12-23,ＲｅＢｉｒｔｈ株式会社,,株式会社,茨城県,牛久市,田宮町２７－１７,,08,219,3001236,,,,,,,2021-12-23,1,,,,,リバース,0
1553,6050003006281,新規,0,2021-12-23,2021-12-23,ＡＵＴＯＣＯＲＰ合同会社,,合同会社,茨城県,稲敷郡阿見町,うずら野４丁目６－１コーポ大恵１０１,,08,443,3000341,,,,,,,2021-12-23,1,,,,,オートコープ,0
1560,6080101022995,新規,0,2021-12-23,2021-12-23,ＰＬＡＮ　ＩＺ株式会社,,株式会社,静岡県,御殿場市,萩原５４４番地の７,,22,215,4120042,,,,,,,2021-12-23,1,,,,,プランイズ,0
1562,6080405007412,新規,0,2021-12-23,2021-12-23,０５３企業組合,,その他の設立登記法人,静岡県,浜松市南区,中田島町１５９５番地の４,,22,134,4300845,,,,,,,2021-12-23,1,,,,,ゼロゴサン,0
1567,6100005012801,新規,0,2021-12-23,2021-12-23,一般社団法人ｔｏｉｖｏ,,その他の設立登記法人,長野県,松本市,安曇４８５５番地１２６,,20,202,3901520,,,,,,,2021-12-23,1,,,,,トイヴォ,0
1581,6120001242664,新規,0,2021-12-23,2021-12-23,株式会社ＲＥＣＲＯＭ,,株式会社,大阪府,大阪市北区,中崎３丁目４番２２－１４０２号,,27,127,5300016,,,,,,,2021-12-23,1,,,,,レクロム,0
1582,6120001242680,新規,0,2021-12-23,2021-12-23,株式会社華,,株式会社,大阪府,大阪市住吉区,長居東３丁目１３番３１号,,27,120,5580004,,,,,,,2021-12-23,1,,,,,ハナ,0
1583,6120001242706,新規,0,2021-12-23,2021-12-23,株式会社夢咲,,株式会社,大阪府,大阪市西区,江之子島１丁目８番２０号,,27,106,5500006,,,,,,,2021-12-23,1,,,,,ユメサキ,0
1590,6120103004491,新規,0,2021-12-23,2021-12-23,合同会社ＢＩＲＣＨ　ＣＬＯＳＥ,,合同会社,大阪府,堺市北区,金岡町１１４７番地３６,,27,146,5918022,,,,,,,2021-12-23,1,,,,,バーチクロス,0
1617,6180001149243,新規,0,2021-12-23,2021-12-23,株式会社アールワークス,,株式会社,愛知県,瀬戸市,川北町２丁目４番地,,23,204,4890927,,,,,,,2021-12-23,1,,,,,アールワークス,0
1618,6180001149284,新規,0,2021-12-23,2021-12-23,名古屋ＨＫプランニング株式会社,,株式会社,愛知県,名古屋市熱田区,一番２丁目２２番５号ライオンズガーデン一番町１４０３号,,23,109,4560053,,,,,,,2021-12-23,1,,,,,ナゴヤエイチケイプランニング,0
1622,6180003023314,新規,0,2021-12-23,2021-12-23,合同会社アスタリスク,,合同会社,愛知県,春日井市,八田町６丁目２１番２９号,,23,206,4860849,,,,,,,2021-12-23,1,,,,,アスタリスク,0
1642,6260001036334,新規,0,2021-12-23,2021-12-23,株式会社ＦＩＥＬＤ,,株式会社,岡山県,岡山市南区,浦安本町８２番地７４,,33,104,7028026,,,,,,,2021-12-23,1,,,,,フィールド,0
1657,6290001095798,新規,0,2021-12-23,2021-12-23,株式会社太伸,,株式会社,福岡県,福岡市東区,三苫５丁目１番２５号,,40,131,8110201,,,,,,,2021-12-23,1,,,,,タイシン,0
1662,6290801028115,新規,0,2021-12-23,2021-12-23,株式会社ミンナデ,,株式会社,福岡県,鞍手郡鞍手町,大字小牧１３３９番地２,,40,402,8071311,,,,,,,2021-12-23,1,,,,,ミンナデ,0
1663,6300001012751,新規,0,2021-12-23,2021-12-23,株式会社ボルガ,,株式会社,佐賀県,佐賀市,木原２丁目２番１５号－１,,41,201,8400015,,,,,,,2021-12-23,1,,,,,ボルガ,0
1665,6320001018805,新規,0,2021-12-23,2021-12-23,株式会社九豊クレーン工業,,株式会社,大分県,大分市,大字横尾４２８７番地の１０,,44,201,8700126,,,,,,,2021-12-23,1,,,,,キュウホウクレーンコウギョウ,0
1683,6430001085652,新規,0,2021-12-23,2021-12-23,株式会社ｓａｋｕ．ｔｏ＆ｃｏ,,株式会社,北海道,札幌市白石区,東札幌五条１丁目２番２０号Ｂｄビル１階,,01,104,0030005,,,,,,,2021-12-23,1,,,,,サクトコ,0
1693,6500001023885,新規,0,2021-12-23,2021-12-23,株式会社ＡｖａｌｏｎＯａｔｈ,,株式会社,愛媛県,伊予郡砥部町,外山１９４番地,,38,402,7912134,,,,,,,2021-12-23,1,,,,,アヴァロンオウス,0
1694,6500003002739,新規,0,2021-12-23,2021-12-23,まごころライフケア合同会社,,合同会社,愛媛県,松山市,北条辻５５４番地２,00125215,38,201,7992430,,,,,,,2021-12-23,1,,,,,マゴコロライフケア,0
1706,7010001223385,新規,0,2021-12-23,2021-12-23,株式会社ＹＵＺＯ,,株式会社,東京都,中央区,銀座１丁目２０番１号ガーデンスクエア銀座２階,,13,102,1040061,,,,,,,2021-12-23,1,,,,,ユウゾウ,0
1707,7010001223402,新規,0,2021-12-23,2021-12-23,株式会社Ｓａｌａｎｇ,,株式会社,東京都,中央区,銀座１丁目１２－４Ｎ＆ＥＢＬＤ．７Ｆ,,13,102,1040061,,,,,,,2021-12-23,1,,,,,,0
1708,7010001223451,新規,0,2021-12-23,2021-12-23,株式会社ロックセンテンス,,株式会社,東京都,中央区,銀座１丁目２２番１１号銀座大竹ビジデンス２階,,13,102,1040061,,,,,,,2021-12-23,1,,,,,ロックセンテンス,0
1709,7010001223468,新規,0,2021-12-23,2021-12-23,晨星株式会社,,株式会社,東京都,中央区,勝どき５丁目１２番４－１２０３号,,13,102,1040054,,,,,,,2021-12-23,1,,,,,シンセイ,0
1715,7010005034366,新規,0,2021-12-23,2021-12-23,つくば阿見特定目的会社,,その他の設立登記法人,東京都,千代田区,飯田橋４丁目７番１号結和税理士法人内,,13,101,1020072,,,,,,,2021-12-23,1,,,,,ツクバアミ,0
1722,7010401164650,新規,0,2021-12-23,2021-12-23,スペースクラフトパブリッシャーズ株式会社,,株式会社,東京都,港区,南青山３丁目１番３１号,,13,103,1070062,,,,,,,2021-12-23,1,,,,,スペースクラフトパブリッシャーズ,0
1730,7010403026758,新規,0,2021-12-23,2021-12-23,合同会社ＰＴＯプリンツ,,合同会社,東京都,港区,新橋６丁目５番地４号ＤＩＫマンション新橋８１４号,,13,103,1050004,,,,,,,2021-12-23,1,,,,,ピィティーオープリンツ,0
1737,7010701041979,新規,0,2021-12-23,2021-12-23,タックシステム株式会社,,株式会社,東京都,品川区,上大崎３丁目５番１号,,13,109,1410021,,,,,,,2021-12-23,1,,,,,タックシステム,0
1743,7010901050053,新規,0,2021-12-23,2021-12-23,株式会社カルチャーデザインラボ,,株式会社,東京都,世田谷区,弦巻２丁目３３番１２号－Ａ,,13,112,1540016,,,,,,,2021-12-23,1,,,,,カルチャーデザインラボ,0
1744,7010905004237,新規,0,2021-12-23,2021-12-23,一般社団法人ＳＴＥＬＬＡＲ　ＳＣＩＥＮＣＥ　ＦＯＵＮＤＡＴＩＯＮ,,その他の設立登記法人,東京都,世田谷区,上野毛３丁目１６番３－６０１号,,13,112,1580093,,,,,,,2021-12-23,1,,,,,ステラサイエンスファウンデーション,0
1746,7011003013898,新規,0,2021-12-23,2021-12-23,ＳＭＤ合同会社,,合同会社,東京都,目黒区,駒場３丁目５番８号ＥＸＡＭ駒場東大前１０３,,13,110,1530041,,,,,,,2021-12-23,1,,,,,エスエムディー,0
1748,7011101097273,新規,0,2021-12-23,2021-12-23,株式会社Ｗｈｉｔｅ,,株式会社,東京都,新宿区,西新宿３丁目３番１３号西新宿水間ビル６Ｆ,,13,104,1600023,,,,,,,2021-12-23,1,,,,,ホワイト,0
1760,7011401023920,新規,0,2021-12-23,2021-12-23,株式会社エトワール,,株式会社,東京都,板橋区,新河岸３丁目８番８－３０６号,,13,119,1750081,,,,,,,2021-12-23,1,,,,,エトワール,0
1764,7011701024916,新規,0,2021-12-23,2021-12-23,株式会社遠山,,株式会社,東京都,江戸川区,東葛西９丁目３番１４－９３２号,,13,123,1340084,,,,,,,2021-12-23,1,,,,,トオヤマ,0
1765,7011701024924,新規,0,2021-12-23,2021-12-23,ＴＯＵＦＵ株式会社,,株式会社,東京都,江戸川区,鹿骨１丁目３９番４号,,13,123,1330073,,,,,,,2021-12-23,1,,,,,トウフ,0
1772,7012401038669,新規,0,2021-12-23,2021-12-23,株式会社ｉｄｅａ,,株式会社,東京都,狛江市,岩戸南３丁目９番１号プリマヴェーラ１０２,,13,219,2010005,,,,,,,2021-12-23,1,,,,,イデア,0
1773,7012401038685,新規,0,2021-12-23,2021-12-23,株式会社藤井組,,株式会社,東京都,多摩市,馬引沢２丁目３番地の１１グリーンボックスＶ永山３－Ｂ,,13,224,2060023,,,,,,,2021-12-23,1,,,,,フジイグミ,0
1798,7020001144449,新規,0,2021-12-23,2021-12-23,株式会社域,,株式会社,神奈川県,川崎市中原区,木月３丁目３２番１１号ホンダソーラー神奈川中ビル３０５,,14,133,2110025,,,,,,,2021-12-23,1,,,,,イキ,0
1811,7030001146015,新規,0,2021-12-23,2021-12-23,株式会社ＳＨＩＬＯ,,株式会社,埼玉県,三郷市,中央１丁目３－２三郷中央センターマークス６１７号室,,11,237,3410038,,,,,,,2021-12-23,1,,,,,シロ,0
1822,7050001050339,新規,0,2021-12-23,2021-12-23,株式会社パワーライン,,株式会社,茨城県,つくば市,高崎１１８番地１,,08,220,3001245,,,,,,,2021-12-23,1,,,,,パワーライン,0
1827,7080001024653,新規,0,2021-12-23,2021-12-23,株式会社プレジャー,,株式会社,静岡県,静岡市葵区,鷹匠１丁目１４番１号,,22,101,4200839,,,,,,,2021-12-23,1,,,,,プレジャー,0
1828,7080003002707,新規,0,2021-12-23,2021-12-23,合同会社信華,,合同会社,静岡県,静岡市駿河区,中吉田２４番９号,,22,102,4228001,,,,,,,2021-12-23,1,,,,,シンカ,0
1852,7120001242663,新規,0,2021-12-23,2021-12-23,櫻櫻株式会社,,株式会社,大阪府,大阪市中央区,和泉町１丁目１番１４号,,27,128,5400019,,,,,,,2021-12-23,1,,,,,サクラサクラ,0
1853,7120001242688,新規,0,2021-12-23,2021-12-23,株式会社ｅ－Ｘ,,株式会社,大阪府,大阪市中央区,瓦町１丁目６－１－３９０７,,27,128,5410048,,,,,,,2021-12-23,1,,,,,イーエックス,0
1859,7120003020828,新規,0,2021-12-23,2021-12-23,合同会社ＳＭＣ－Ｍａｎａｇｅｍｅｎｔ,,合同会社,大阪府,大阪市東淀川区,東中島１丁目１７番５－７３８号,,27,114,5330033,,,,,,,2021-12-23,1,,,,,エスエムシーマネージメント,0
1860,7120003020836,新規,0,2021-12-23,2021-12-23,合同会社かわらぎ,,合同会社,大阪府,大阪市北区,芝田２丁目８－１１共栄ビル３Ｆ,,27,127,5300012,,,,,,,2021-12-23,1,,,,,カワラギ,0
1865,7120101064834,新規,0,2021-12-23,2021-12-23,ライト電工株式会社,,株式会社,大阪府,岸和田市,東大路町５８番地の２５,,27,202,5960803,,,,,,,2021-12-23,1,,,,,ライトデンコウ,0
1866,7120103004490,新規,0,2021-12-23,2021-12-23,ムフロン合同会社,,合同会社,大阪府,高石市,羽衣１丁目８番２８号エフスタイル羽衣３号館１０３,,27,225,5920002,,,,,,,2021-12-23,1,,,,,ムフロン,0
1871,7120901045389,新規,0,2021-12-23,2021-12-23,ＨａｐｐｙＴｅｃｈＳｐｏｔ株式会社,,株式会社,大阪府,箕面市,箕面８丁目１９番２３号,,27,220,5620001,,,,,,,2021-12-23,1,,,,,ハッピーテックスポット,0
1879,7122001035452,新規,0,2021-12-23,2021-12-23,株式会社Ｋ・Ｔ・Ｍ,,株式会社,大阪府,東大阪市,宝町７番８号,,27,227,5798025,,,,,,,2021-12-23,1,,,,,ケーティーエム,0
1890,7140001124281,新規,0,2021-12-23,2021-12-23,ロレインクルー株式会社,,株式会社,兵庫県,宝塚市,中州２丁目１３番６号,,28,214,6650021,,,,,,,2021-12-23,1,,,,,ロレインクルー,0
1901,7180001149218,新規,0,2021-12-23,2021-12-23,ＲＥＸ株式会社,,株式会社,愛知県,東海市,荒尾町洞ケ山２３番地の２６（１棟３０６号）,,23,222,4760003,,,,,,,2021-12-23,1,,,,,レックス,0
1902,7180001149242,新規,0,2021-12-23,2021-12-23,株式会社ＴｅＦ,,株式会社,愛知県,名古屋市中区,錦３丁目６番１０号大丸ビル３階,,23,106,4600003,,,,,,,2021-12-23,1,,,,,テフ,0
1913,7200001039564,新規,0,2021-12-23,2021-12-23,株式会社ジョーセイ,,株式会社,岐阜県,高山市,国府町宇津江８０５－１．１Ｆ．Ａ,,21,203,5094121,,,,,,,2021-12-23,1,,,,,ジョーセイ,0
1915,7200003005399,新規,0,2021-12-23,2021-12-23,合同会社大陽,,合同会社,岐阜県,安八郡安八町,大森４２４番地１（２階）,,21,383,5030116,,,,,,,2021-12-23,1,,,,,タイヨウ,0
1916,7200003005408,新規,0,2021-12-23,2021-12-23,合同会社ジャック＆エース,,合同会社,岐阜県,各務原市,那加前野町１丁目１０５番地グランビューソニックＢ１０５,,21,213,5040026,,,,,,,2021-12-23,1,,,,,ジャックアンドエース,0
1933,7260001036341,新規,0,2021-12-23,2021-12-23,株式会社花田建築設計事務所,,株式会社,岡山県,和気郡和気町,衣笠１５８－４,,33,346,7090441,,,,,,,2021-12-23,1,,,,,ハナダケンチクセッケイジムショ,0
1942,7290001095797,新規,0,2021-12-23,2021-12-23,株式会社ＳＵＮ,,株式会社,福岡県,福岡市城南区,友丘５丁目１３番８号,,40,136,8140112,,,,,,,2021-12-23,1,,,,,サン,0
1950,7290801028106,新規,0,2021-12-23,2021-12-23,株式会社汐風海運,,株式会社,福岡県,北九州市八幡西区,穴生１丁目６番１８－２０３号,,40,109,8060049,,,,,,,2021-12-23,1,,,,,シオカゼカイウン,0
1954,7300003001768,新規,0,2021-12-23,2021-12-23,合同会社イロドリ,,合同会社,佐賀県,佐賀市,諸富町大字為重１０７８番地２,,41,201,8402102,,,,,,,2021-12-23,1,,,,,イロドリ,0
1958,7330001029288,新規,0,2021-12-23,2021-12-23,株式会社エムスツール,,株式会社,熊本県,熊本市東区,尾ノ上３丁目１－６,,43,102,8620913,,,,,,,2021-12-23,1,,,,,エムスツール,0
1966,7340001024321,新規,0,2021-12-23,2021-12-23,株式会社Ｔｒｕｍｐ　Ｋａｇｏｓｈｉｍａ,,株式会社,鹿児島県,南九州市,頴娃町上別府１６９９番地１,,46,223,8910705,,,,,,,2021-12-23,1,,,,,トランプカゴシマ,0
1967,7340001024346,新規,0,2021-12-23,2021-12-23,株式会社カケテック,,株式会社,鹿児島県,鹿児島市,鴨池新町３番６－３０２号,,46,201,8900064,,,,,,,2021-12-23,1,,,,,カケテック,0
1982,7370001047971,新規,0,2021-12-23,2021-12-23,株式会社ひがまつワークス,,株式会社,宮城県,東松島市,矢本字不動前７６番地１,,04,214,9810503,,,,,,,2021-12-23,1,,,,,ヒガマツワークス,0
2002,7430005014342,新規,0,2021-12-23,2021-12-23,一般財団法人さくら会,,その他の設立登記法人,北海道,札幌市中央区,北一条西３丁目３ばらと北１条ビル９Ｆ－５,,01,101,0600001,,,,,,,2021-12-23,1,,,,,サクラカイ,0
2003,7440001008999,新規,0,2021-12-23,2021-12-23,株式会社北海土木工業,,株式会社,北海道,函館市,山の手２丁目３０番１２号,,01,202,0410836,,,,,,,2021-12-23,1,,,,,ホッカイドボクコウギョウ,0
2005,7470003002097,新規,0,2021-12-23,2021-12-23,合同会社Ｓｌｅｅｅｐｅｒ,,合同会社,香川県,高松市,香川町大野３９４番地２,,37,201,7611701,,,,,,,2021-12-23,1,,,,,スリーパー,0
2007,7500003002738,新規,0,2021-12-23,2021-12-23,合同会社訪問看護ステーション晴れ色,,合同会社,愛媛県,松山市,東垣生町１７６－１１,,38,201,7918043,,,,,,,2021-12-23,1,,,,,ホウモンカンゴステーションハレイロ,0
2015,8010001223384,新規,0,2021-12-23,2021-12-23,株式会社Ｌ．ＧＩＮＺＡ,,株式会社,東京都,中央区,銀座１丁目２０番１号ガーデンスクエア銀座２階,,13,102,1040061,,,,,,,2021-12-23,1,,,,,エルギンザ,0
2016,8010001223434,新規,0,2021-12-23,2021-12-23,株式会社デジタリアル,,株式会社,東京都,中央区,銀座１丁目１２－４Ｎ＆ＥＢＬＤ．７階,,13,102,1040061,,,,,,,2021-12-23,1,,,,,デジタリアル,0
2017,8010001223442,新規,0,2021-12-23,2021-12-23,株式会社アイマリン,,株式会社,東京都,中央区,東日本橋２丁目２８番４号日本橋ＣＥＴビル２階,,13,102,1030004,,,,,,,2021-12-23,1,,,,,アイマリン,0
2018,8010001223450,新規,0,2021-12-23,2021-12-23,株式会社ＤＳ２,,株式会社,東京都,千代田区,内幸町２丁目１番６号,,13,101,1000011,,,,,,,2021-12-23,1,,,,,ディーエスツー,0
2019,8010001223467,新規,0,2021-12-23,2021-12-23,株式会社キャリアビリティ,,株式会社,東京都,中央区,日本橋横山町１番４号オフィス・ネット３０２,,13,102,1030003,,,,,,,2021-12-23,1,,,,,キャリアビリティ,0
2025,8010003036603,新規,0,2021-12-23,2021-12-23,合同会社ＣＯＳＯ,,合同会社,東京都,中央区,銀座１丁目１２番４号Ｎ＆ＥＢＬＤ．７階,,13,102,1040061,,,,,,,2021-12-23,1,,,,,コソ,0
2033,8010401164575,新規,0,2021-12-23,2021-12-23,株式会社ＳＩＧＭＡ,,株式会社,東京都,港区,六本木１丁目４番５号アークヒルズサウスタワー１６Ｆ,,13,103,1060032,,,,,,,2021-12-23,1,,,,,シグマ,0
2034,8010401164609,新規,0,2021-12-23,2021-12-23,株式会社Ｓｕｐｅｒ　Ｓｅｐｐｕｋｕ,,株式会社,東京都,港区,三田２丁目７番９号,,13,103,1080073,,,,,,,2021-12-23,1,,,,,スーパーセップク,0
2041,8010405020527,新規,0,2021-12-23,2021-12-23,一般社団法人小顔Ｃｕｏｌ協会,,その他の設立登記法人,東京都,港区,北青山３丁目１１番７号ＡＯビル,,13,103,1070061,,,,,,,2021-12-23,1,,,,,コガオキュールキョウカイ,0
2046,8010605004024,新規,0,2021-12-23,2021-12-23,一般社団法人ＡＣＴＯ亀戸,,その他の設立登記法人,東京都,江東区,亀戸６丁目２０番７号,,13,108,1360071,,,,,,,2021-12-23,1,,,,,アクトカメイド,0
2052,8010901050036,新規,0,2021-12-23,2021-12-23,株式会社Ｒｅｐｅｚｅｎ,,株式会社,東京都,世田谷区,上北沢３丁目１８番７号幸作ビルＢ１,,13,112,1560057,,,,,,,2021-12-23,1,,,,,レペゼン,0
2053,8010901050052,新規,0,2021-12-23,2021-12-23,株式会社ショコラトリーキャメル,,株式会社,東京都,世田谷区,代田２丁目３１番８号,,13,112,1550033,,,,,,,2021-12-23,1,,,,,ショコラトリーキャメル,0
2065,8011701024923,新規,0,2021-12-23,2021-12-23,株式会社とび神,,株式会社,東京都,江戸川区,南葛西４丁目１２番１７号クレール南葛西３０３,,13,123,1340085,,,,,,,2021-12-23,1,,,,,,0
2069,8011801040110,新規,0,2021-12-23,2021-12-23,株式会社暮らしとソリューション,,株式会社,東京都,葛飾区,西亀有２丁目４５番２０号ラ・グランジュール綾瀬２０３,,13,122,1240002,,,,,,,2021-12-23,1,,,,,クラシトソリューション,0
2071,8012401038684,新規,0,2021-12-23,2021-12-23,株式会社グリーン農産,,株式会社,東京都,多摩市,落合４丁目１６番地１－１０３,,13,224,2060033,,,,,,,2021-12-23,1,,,,,グリーンノウサン,0
2075,8013301048476,新規,0,2021-12-23,2021-12-23,株式会社Ｍｅｔａｖｅｒｓｅ,,株式会社,東京都,豊島区,南池袋２丁目１４－１マンション池袋５０５,,13,116,1710022,,,,,,,2021-12-23,1,,,,,メタバース,0
2080,8020001144456,新規,0,2021-12-23,2021-12-23,株式会社ハタ技研,,株式会社,神奈川県,横浜市神奈川区,金港町１番地１１－３６０４号,,14,102,2210056,,,,,,,2021-12-23,1,,,,,ハタギケン,0
2090,8021003011198,新規,0,2021-12-23,2021-12-23,合同会社碧,,合同会社,神奈川県,小田原市,穴部４０８－１２,,14,206,2500053,,,,,,,2021-12-23,1,,,,,アオイ,0
2097,8030001146014,新規,0,2021-12-23,2021-12-23,株式会社ハウスドットキーパー,,株式会社,埼玉県,新座市,新座２丁目１７－７,,11,230,3520006,,,,,,,2021-12-23,1,,,,,ハウスドットキーパー,0
2098,8030001146022,新規,0,2021-12-23,2021-12-23,株式会社Ｆｏｒｅｓｔ　Ｅｓｔａｔｅｓ,,株式会社,埼玉県,さいたま市北区,日進町２丁目１０４６番地,,11,102,3310823,,,,,,,2021-12-23,1,,,,,フォレストエステーツ,0
2108,8030003018500,新規,0,2021-12-23,2021-12-23,間建設合同会社,,合同会社,埼玉県,八潮市,大字浮塚８２０番地８,00125206,11,234,3400835,,,,,,,2021-12-23,1,,,,,ハザマケンセツ,0
2112,8040001121437,新規,0,2021-12-23,2021-12-23,株式会社メディアツカモト,,株式会社,千葉県,銚子市,新生町２丁目１４番地９,,12,202,2880056,,,,,,,2021-12-23,1,,,,,メディアツカモト,0
2118,8050001050338,新規,0,2021-12-23,2021-12-23,株式会社コンパス,,株式会社,茨城県,牛久市,岡見町２７８８番地４７,,08,219,3001204,,,,,,,2021-12-23,1,,,,,コンパス,0
2119,8050001050346,新規,0,2021-12-23,2021-12-23,ＭＩＲＩＺＥ　Ｌａｂ株式会社,,株式会社,茨城県,水戸市,平須町１３７０番地８,,08,201,3100853,,,,,,,2021-12-23,1,,,,,ミライズラボ,0
2136,8110001036289,新規,0,2021-12-23,2021-12-23,株式会社中野ブリーダー,,株式会社,新潟県,新潟市西蒲区,巻甲３７９５番地,,15,108,9530041,,,,,,,2021-12-23,1,,,,,ナカノブリーダー,0
2158,8120001242662,新規,0,2021-12-23,2021-12-23,迦南株式会社,,株式会社,大阪府,大阪市西区,江戸堀３丁目６番２５－２０４号,,27,106,5500002,,,,,,,2021-12-23,1,,,,,カナン,0
2159,8120001242670,新規,0,2021-12-23,2021-12-23,株式会社西日本Ｍ＆Ａセンター,,株式会社,大阪府,大阪市中央区,南船場２丁目４番８号,,27,128,5420081,,,,,,,2021-12-23,1,,,,,ニシニホンエムアンドエーセンター,0
2160,8120001242679,新規,0,2021-12-23,2021-12-23,株式会社Ｇエンスキー,,株式会社,大阪府,大阪市北区,天神橋７丁目１番１６－２００１号,,27,127,5310041,,,,,,,2021-12-23,1,,,,,ジーエンスキー,0
2161,8120001242704,新規,0,2021-12-23,2021-12-23,株式会社アコール,,株式会社,大阪府,大阪市北区,曾根崎新地１丁目３－８ぐらんぱれ壱番館ビル３Ｆ,,27,127,5300002,,,,,,,2021-12-23,1,,,,,アコール,0
2162,8120003020802,新規,0,2021-12-23,2021-12-23,合同会社トースケ,,合同会社,大阪府,大阪市北区,梅田２丁目５番１３号桜橋第一ビル３０４号,,27,127,5300001,,,,,,,2021-12-23,1,,,,,トースケ,0
2163,8120003020835,新規,0,2021-12-23,2021-12-23,ゼロアレンジメント合同会社,,合同会社,大阪府,大阪市中央区,日本橋１丁目１８－１４芝ビル１階,,27,128,5420073,,,,,,,2021-12-23,1,,,,,ゼロアレンジメント,0
2170,8122001035451,新規,0,2021-12-23,2021-12-23,株式会社クロスポーロ,,株式会社,大阪府,八尾市,堤町１丁目５番地の１６,,27,212,5810832,,,,,,,2021-12-23,1,,,,,クロスポーロ,0
2181,8130005016343,新規,0,2021-12-23,2021-12-23,つばめ社会保険労務士法人,,その他の設立登記法人,京都府,京都市中京区,蛸薬師通烏丸西入橋弁慶町２２４番地ＳＯＨＯ烏丸１０５号,,26,104,6048151,,,,,,,2021-12-23,1,,,,,ツバメ,0
2186,8140001124272,新規,0,2021-12-23,2021-12-23,株式会社大辻,00125209,株式会社,兵庫県,西宮市,今津真砂町１番１６－５０７号,,28,204,6638224,,,,,,,2021-12-23,1,,,,,オオツジ,0
2190,8140003017128,新規,0,2021-12-23,2021-12-23,アクシアルヘルスジャパン合同会社,,合同会社,兵庫県,神戸市中央区,北野町１丁目１番,,28,110,6500002,,,,,,,2021-12-23,1,,,,,アクシアルヘルスジャパン,0
2192,8150003002574,新規,0,2021-12-23,2021-12-23,合同会社カーサービスＬＩＮＫ,,合同会社,奈良県,奈良市,学園緑ヶ丘３丁目１４番５号,,29,201,6310026,,,,,,,2021-12-23,1,,,,,カーサービスリンク,0
2203,8180001149217,新規,0,2021-12-23,2021-12-23,株式会社ＧＮＧＮＩＲ,,株式会社,愛知県,名古屋市中区,丸の内３丁目９番６号,,23,106,4600002,,,,,,,2021-12-23,1,,,,,グングニル,0
2204,8180001149241,新規,0,2021-12-23,2021-12-23,株式会社Ｍｉｌｌｅｆｉｏｒｉｒｅ,,株式会社,愛知県,名古屋市千種区,東山元町４丁目２番地の３,,23,101,4640804,,,,,,,2021-12-23,1,,,,,ミッレフィオリーレ,0
2224,8220001024605,新規,0,2021-12-23,2021-12-23,株式会社発,,株式会社,石川県,金沢市,野町５丁目１０番１４号,,17,201,9218031,,,,,,,2021-12-23,1,,,,,ハツ,0
2228,8240001059087,新規,0,2021-12-23,2021-12-23,株式会社山都,,株式会社,広島県,広島市西区,都町２３番１１号,,34,104,7330023,,,,,,,2021-12-23,1,,,,,ヤマト,0
2238,8260003003751,新規,0,2021-12-23,2021-12-23,六華合同会社,,合同会社,岡山県,岡山市北区,表町１丁目７番８号リベール表町８０１号,,33,101,7000822,,,,,,,2021-12-23,1,,,,,ロッカ,0
2246,8290001095763,新規,0,2021-12-23,2021-12-23,株式会社ＫＡＩＴＯ,,株式会社,福岡県,福岡市西区,西の丘２丁目５番６号,,40,135,8190046,,,,,,,2021-12-23,1,,,,,カイト,0
2249,8290003011958,新規,0,2021-12-23,2021-12-23,合同会社ＡＣＵ,,合同会社,福岡県,福岡市南区,塩原２丁目１０番６－２１１号オリエントビルＮｏ．８１ＡＭＡＲＩＧＥ,,40,134,8150032,,,,,,,2021-12-23,1,,,,,アーク,0
2250,8290005018489,新規,0,2021-12-23,2021-12-23,医療法人橋川整形外科医院,,その他の設立登記法人,福岡県,飯塚市,枝国２６９番地６,,40,205,8200081,,,,,,,2021-12-23,1,,,,,ハシカワセイケイゲカイイン,0
2254,8290801028113,新規,0,2021-12-23,2021-12-23,迫山建設工業株式会社,,株式会社,福岡県,北九州市八幡西区,岸の浦２丁目４番２５号,,40,109,8060034,,,,,,,2021-12-23,1,,,,,サコヤマケンセツコウギョウ,0
2255,8300003001767,新規,0,2021-12-23,2021-12-23,合同会社クリーンファーム,,合同会社,佐賀県,嬉野市,嬉野町大字吉田丁５１９０番地１,,41,209,8430303,,,,,,,2021-12-23,1,,,,,クリーンファーム,0
2260,8320001018803,新規,0,2021-12-23,2021-12-23,株式会社Ｌｉｌｏ,,株式会社,大分県,大分市,大津町１丁目２１番２２号,,44,201,8700907,,,,,,,2021-12-23,1,,,,,リロ,0
2267,8340005009383,新規,0,2021-12-23,2021-12-23,一般社団法人ホームベース,,その他の設立登記法人,鹿児島県,鹿屋市,札元１丁目６番４４号,,46,203,8930013,,,,,,,2021-12-23,1,,,,,ホームベース,0
2269,8370001047979,新規,0,2021-12-23,2021-12-23,株式会社サプライズラボ,,株式会社,宮城県,宮城郡利府町,菅谷台１丁目２番地１,,04,406,9810135,,,,,,,2021-12-23,1,,,,,サプライズラボ,0
2273,8370003005522,新規,0,2021-12-23,2021-12-23,ビーフリー合同会社,,合同会社,宮城県,仙台市若林区,大和町４丁目２番１７－９０７号,,04,103,9840042,,,,,,,2021-12-23,1,,,,,ビーフリー,0
2280,8390001016726,新規,0,2021-12-23,2021-12-23,株式会社ＭＲＨプラン,,株式会社,山形県,山形市,桜田西１丁目１２番１号,,06,201,9902321,,,,,,,2021-12-23,1,,,,,エムアールエイチプラン,0
2284,8420003002423,新規,0,2021-12-23,2021-12-23,合同会社オノックス,,合同会社,青森県,五所川原市,大字一野坪字坪実７０,,02,205,0370093,,,,,,,2021-12-23,1,,,,,オノックス,0
2286,8430001085650,新規,0,2021-12-23,2021-12-23,株式会社カトウ,,株式会社,北海道,岩見沢市,五条西１８丁目４番地５,,01,210,0680025,,,,,,,2021-12-23,1,,,,,カトウ,0
2287,8430001085659,新規,0,2021-12-23,2021-12-23,株式会社トラストオン,,株式会社,北海道,札幌市西区,西町南１７丁目２番４０号,,01,107,0630062,,,,,,,2021-12-23,1,,,,,トラストオン,0
2289,8430003013477,新規,0,2021-12-23,2021-12-23,ハコノウエ合同会社,,合同会社,北海道,札幌市北区,北七条西４丁目１番１号トーカン札幌第一キャステール６０７,,01,102,0600807,,,,,,,2021-12-23,1,,,,,ハコノウエ,0
2291,8470001018879,新規,0,2021-12-23,2021-12-23,株式会社ＩＣＨＩＭＯＫＵ,,株式会社,香川県,高松市,由良町４８８番地４,,37,201,7610441,,,,,,,2021-12-23,1,,,,,イチモク,0
2294,8480003001774,新規,0,2021-12-23,2021-12-23,澤水産合同会社,,合同会社,徳島県,小松島市,和田島町字明神東２１番地の８,,36,203,7730025,,,,,,,2021-12-23,1,,,,,サワスイサン,0
2296,8480005006870,新規,0,2021-12-23,2021-12-23,一般社団法人徳島県軟式野球連盟,,その他の設立登記法人,徳島県,徳島市,川内町宮島本浦１９９－１,,36,201,7710114,,,,,,,2021-12-23,1,,,,,トクシマケンナンシキヤキュウレンメイ,0
2301,8700150105685,新規,0,2021-12-23,2021-11-10,ＴｕｂａｍａｎＳｈｏｗを普及させる会,,その他,愛知県,あま市,篠田居島６８－２,,23,237,4901211,,,,,,,2021-11-10,1,,,,,チユーバマンシヨーヲフキユウサセルカイ,0
2303,8700150106386,新規,0,2021-12-23,2021-12-23,ＵＤ　Ｔｒｕｃｋｓ　Ｉｎｄｉａ　Ｐｒｉｖａｔｅ　Ｌｉｍｉｔｅｄ,,外国会社等,,,,,,,,Ｙａｌａｃｈａｈａｌｌｙ，Ｔａｖｅｒｅｋｅｒｅ　Ｐｏｓｔ，Ｈｏｓｋｏｔｅ　Ｔｑ，Ｂａｎｇａｌｏｒｅ　５６２　１２２,,,,,,2021-12-23,1,,,,,ユーデイートラツクスインデイアプライベートリミツテツド,0
2314,9010001223326,新規,0,2021-12-23,2021-12-23,株式会社Ｍ＆Ｆ,,株式会社,東京都,中央区,勝どき５丁目５番１４号,,13,102,1040054,,,,,,,2021-12-23,1,,,,,エムアンドエフ,0
2315,9010001223433,新規,0,2021-12-23,2021-12-23,株式会社ＢＡＳＥＣＲＥＡＴＩＯＮ　ＪＡＰＡＮ,,株式会社,東京都,千代田区,内幸町２丁目１－１飯野ビルディング９階,,13,101,1000011,,,,,,,2021-12-23,1,,,,,ベースクリエーションジャパン,0
2316,9010001223490,新規,0,2021-12-23,2021-12-23,株式会社塗匠,,株式会社,東京都,千代田区,神田錦町３丁目１１番地,,13,101,1010054,,,,,,,2021-12-23,1,,,,,ヌリショウ,0
2320,9010003036602,新規,0,2021-12-23,2021-12-23,エマージユン合同会社,,合同会社,東京都,中央区,東日本橋２丁目２８番４号日本橋ＣＥＴビル２階,,13,102,1030004,,,,,,,2021-12-23,1,,,,,エマージユン,0
2323,9010005034364,新規,0,2021-12-23,2021-12-23,一般社団法人企業共創支援機構,,その他の設立登記法人,東京都,中央区,銀座７丁目１３番６号サガミビル２階,,13,102,1040061,,,,,,,2021-12-23,1,,,,,キギョウキョウソウシエンキコウ,0
2328,9010401164616,新規,0,2021-12-23,2021-12-23,東京Ｙ＆Ｚ法務事務所株式会社,,株式会社,東京都,港区,新橋２丁目１６番１号ニュー新橋ビル９Ｆ,,13,103,1050004,,,,,,,2021-12-23,1,,,,,トウキョウワイアンドゼットホウムジムショ,0
2329,9010401164640,新規,0,2021-12-23,2021-12-23,古宮インターナショナルマネジメント株式会社,,株式会社,東京都,港区,西麻布３丁目３番１７号,,13,103,1060031,,,,,,,2021-12-23,1,,,,,コミヤインターナショナルマネジメント,0
2340,9010703006045,新規,0,2021-12-23,2021-12-23,Ｎファーマシーホールディングス合同会社,,合同会社,東京都,品川区,上大崎３丁目１番１号目黒セントラルスクエア１５階,,13,109,1410021,,,,,,,2021-12-23,1,,,,,エヌファーマシーホールディングス,0
2342,9010901050027,新規,0,2021-12-23,2021-12-23,株式会社上田家,,株式会社,東京都,世田谷区,代沢２丁目４２番１１号高麗屋ビル３０３,,13,112,1550032,,,,,,,2021-12-23,1,,,,,ウエダケ,0
2349,9011101097255,新規,0,2021-12-23,2021-12-23,アスクソリューション株式会社,,株式会社,東京都,新宿区,西新宿３丁目２番９号新宿ワシントンホテルビル本館２Ｆ,,13,104,1600023,,,,,,,2021-12-23,1,,,,,アスクソリューション,0
2352,9011205002458,新規,0,2021-12-23,2021-12-23,コーポ中野管理組合法人,,その他の設立登記法人,東京都,中野区,中央２丁目５８番２１号,,13,114,1640011,,,,,,,2021-12-23,1,,,,,コーポナカノ,0
2356,9011401023919,新規,0,2021-12-23,2021-12-23,株式会社ＧＡＮＫＯＬ,,株式会社,東京都,板橋区,上板橋２丁目３１番１２号孝電社ビル,,13,119,1740076,,,,,,,2021-12-23,1,,,,,ガンコル,0
2363,9011703003032,新規,0,2021-12-23,2021-12-23,合同会社サクライ,,合同会社,東京都,江戸川区,西葛西５丁目１番９号,,13,123,1340088,,,,,,,2021-12-23,1,,,,,サクライ,0
2365,9011801040101,新規,0,2021-12-23,2021-12-23,株式会社幸光,,株式会社,東京都,足立区,花畑１丁目２０番９号,,13,121,1210061,,,,,,,2021-12-23,1,,,,,ユキミツ,0
2371,9012801021289,新規,0,2021-12-23,2021-12-23,ＴＯＲＵＳ株式会社,,株式会社,東京都,立川市,砂川町４丁目１４－２ヴェルドミールヤジマ１０２号室,,13,202,1900031,,,,,,,2021-12-23,1,,,,,トーラス,0
2373,9013303005961,新規,0,2021-12-23,2021-12-23,合同会社陽彩,,合同会社,東京都,豊島区,池袋本町３丁目７番２７号第２横山ビル３Ｆ,,13,116,1700011,,,,,,,2021-12-23,1,,,,,ヒイロ,0
2383,9020001144447,新規,0,2021-12-23,2021-12-23,株式会社蓬莱会計センター,00125205,株式会社,神奈川県,横浜市神奈川区,台町１１番地２０恒陽マンション７０８号,,14,102,2210834,,,,,,,2021-12-23,1,,,,,ホウライカイケイセンター,0
2393,9030001146021,新規,0,2021-12-23,2021-12-23,株式会社一昇,,株式会社,埼玉県,川口市,並木４丁目５番２１－２０４号セザール川口並木町,,11,203,3320034,,,,,,,2021-12-23,1,,,,,イッショウ,0
2403,9040005021467,新規,0,2021-12-23,2021-12-23,一般社団法人がんＣＲＣ学会,,その他の設立登記法人,千葉県,柏市,柏の葉６丁目５番地１（国立がん研究センター東病院内臨床研究コーディネーター室）,,12,217,2770882,,,,,,,2021-12-23,1,,,,,ガンシーアールシーガッカイ,0
2412,9070003004339,新規,0,2021-12-23,2021-12-23,創栄工業合同会社,,合同会社,群馬県,高崎市,南大類町１３６６番地１７,,10,202,3700036,,,,,,,2021-12-23,1,,,,,ソウエイコウギョウ,0
2415,9080101022992,新規,0,2021-12-23,2021-12-23,株式会社齋藤,,株式会社,静岡県,富士市,蓼原９２７番地の１,,22,210,4160931,,,,,,,2021-12-23,1,,,,,サイトウ,0
2425,9110001036288,新規,0,2021-12-23,2021-12-23,株式会社ワイズ,,株式会社,新潟県,十日町市,下条３丁目６６番地,,15,210,9498603,,,,,,,2021-12-23,1,,,,,ワイズ,0
2426,9110001036296,新規,0,2021-12-23,2021-12-23,アメテクト株式会社,,株式会社,新潟県,佐渡市,相川四丁目３番,,15,224,9520000,,,,,,,2021-12-23,1,,,,,アメテクト,0
2443,9120001242703,新規,0,2021-12-23,2021-12-23,株式会社Ｓｏｌ　Ｇｒｏｕｐ,,株式会社,大阪府,大阪市北区,西天満４丁目５番４号,,27,127,5300047,,,,,,,2021-12-23,1,,,,,ソルグループ,0
2451,9120901045387,新規,0,2021-12-23,2021-12-23,株式会社ＴＬＨ,,株式会社,大阪府,茨木市,田中町１７番１８号,,27,211,5670025,,,,,,,2021-12-23,1,,,,,ティーエルエイチ,0
2457,9130001070756,新規,0,2021-12-23,2021-12-23,株式会社エゲイラ,,株式会社,京都府,京都市伏見区,久我御旅町２番地７５,,26,109,6128493,,,,,,,2021-12-23,1,,,,,エゲイラ,0
2458,9130001070764,新規,0,2021-12-23,2021-12-23,株式会社はんなりと,,株式会社,京都府,京都市山科区,北花山山田町３０番地７,,26,110,6078472,,,,,,,2021-12-23,1,,,,,ハンナリト,0
2472,9140001124263,新規,0,2021-12-23,2021-12-23,株式会社７ＯＶＥＲ　ＪＡＰＡＮ,,株式会社,兵庫県,尼崎市,次屋４丁目２番２－２号,,28,202,6610965,,,,,,,2021-12-23,1,,,,,セブンオーバージャパン,0
2475,9140005025961,新規,0,2021-12-23,2021-12-23,医療法人ＫＤＥＣ,,その他の設立登記法人,兵庫県,神戸市中央区,加納町１丁目３－２コトノハコ神戸１Ｆ,,28,110,6500001,,,,,,,2021-12-23,1,,,,,ケーディーイーシー,0
2490,9190001028971,新規,0,2021-12-23,2021-12-23,株式会社セントリバー,,株式会社,三重県,鈴鹿市,岸岡町２８０４番地,,24,207,5100226,,,,,,,2021-12-23,1,,,,,,0
2495,9200001039554,新規,0,2021-12-23,2021-12-23,株式会社プーコニュ,,株式会社,岐阜県,羽島市,舟橋町２丁目１番地,,21,209,5016302,,,,,,,2021-12-23,1,,,,,プーコニュ,0
2496,9200001039570,新規,0,2021-12-23,2021-12-23,株式会社Ｋ－ｗｏｒｋｓ,,株式会社,岐阜県,関市,水ノ輪町６５番地,,21,205,5013216,,,,,,,2021-12-23,1,,,,,ケーワークス,0
2519,9290001095787,新規,0,2021-12-23,2021-12-23,株式会社トランスポーター,,株式会社,福岡県,福岡市南区,高宮５丁目９番１－５１０号,,40,134,8150083,,,,,,,2021-12-23,1,,,,,トランスポーター,0
2520,9290001095812,新規,0,2021-12-23,2021-12-23,株式会社ハサップジャパン,,株式会社,福岡県,福岡市中央区,高砂２丁目１４－１７ハマサキビル１階,,40,133,8100011,,,,,,,2021-12-23,1,,,,,ハサップジャパン,0
2523,9290003011949,新規,0,2021-12-23,2021-12-23,合同会社ＳＹＮ,,合同会社,福岡県,福岡市東区,原田４丁目３０－１２－４０１号,,40,131,8120063,,,,,,,2021-12-23,1,,,,,シン,0
2525,9300003001766,新規,0,2021-12-23,2021-12-23,合同会社カルカット開発,,合同会社,佐賀県,武雄市,橘町大字片白９９４９番地１,,41,206,8430012,,,,,,,2021-12-23,1,,,,,カルカットカイハツ,0
2535,9340001024344,新規,0,2021-12-23,2021-12-23,株式会社Ｓａｌｏｎ　ｄｅ　Ｌｉｆｅ,,株式会社,鹿児島県,姶良市,東餅田３０４番地１,,46,225,8995421,,,,,,,2021-12-23,1,,,,,サロンドライフ,0
2538,9350001017487,新規,0,2021-12-23,2021-12-23,株式会社鈴果園,,株式会社,宮崎県,日向市,大字平岩１００２０番地,,45,206,8830022,,,,,,,2021-12-23,1,,,,,リンカエン,0
2562,9430001085666,新規,0,2021-12-23,2021-12-23,株式会社Ｌ＆Ｈ,,株式会社,北海道,札幌市中央区,南十六条西１０丁目３番１７号２階,,01,101,0640916,,,,,,,2021-12-23,1,,,,,エルアンドエイチ,0
2564,9430003013476,新規,0,2021-12-23,2021-12-23,Ｅａｓｔｏｎ　Ｒｅａｌｔｙ合同会社,,合同会社,北海道,札幌市白石区,北郷九条７丁目１番２０号,,01,104,0030839,,,,,,,2021-12-23,1,,,,,イーストンリアルティ,0
2568,9470001018886,新規,0,2021-12-23,2021-12-23,株式会社兼若産業,,株式会社,香川県,仲多度郡まんのう町,川東２８７１番地,,37,406,7660203,,,,,,,2021-12-23,1,,,,,カネワカサンギョウ,0
2573,9500001023882,新規,0,2021-12-23,2021-12-23,株式会社あそぼや,,株式会社,愛媛県,伊予市,本郡４６番地９,,38,210,7993126,,,,,,,2021-12-23,1,,,,,アソボヤ,0
