sequenceNumber,corporateNumber,process,correct,updateDate,changeDate,name,nameImageId,kind,prefectureName,cityName,streetNumber,addressImageId,prefectureCode,cityCode,postCode,addressOutside,addressOutsideImageId,closeDate,closeCause,successorCorporateNumber,changeCause,assignmentDate,latest,enName,enPrefectureName,enCityName,enAddressOutside,furigana,hihyoji
8,1010001252043,新規,0,2025-02-06,2025-02-06,株式会社スマートコントラクト,,株式会社,東京都,千代田区,神田和泉町１番地６－１６ヤマトビル４Ｆ,,13,101,1010024,,,,,,,2025-02-06,1,,,,,,0
9,1010001252051,新規,0,2025-02-06,2025-02-06,宏潤泰陽株式会社,,株式会社,東京都,中央区,銀座７丁目１３番６号サガミビル２階,,13,102,1040061,,,,,,,2025-02-06,1,,,,,コウジュンタイヨウ,0
16,1010003046303,新規,0,2025-02-06,2025-02-06,合同会社ｆａｎｔａｓｉｓｔａ　Ｓａｉｔａｍａ　ＰＳＳ,,合同会社,東京都,中央区,銀座３丁目１０番６号マルイト銀座第３ビル８階,,13,102,1040061,,,,,,,2025-02-06,1,,,,,ファンタジスタサイタマピーエスエス,0
17,1010003046311,新規,0,2025-02-06,2025-02-06,ＡＩＡ上野０３合同会社,,合同会社,東京都,中央区,日本橋２丁目１番１８号,,13,102,1030027,,,,,,,2025-02-06,1,,,,,エーアイエーウエノゼロサン,0
18,1010003046336,新規,0,2025-02-06,2025-02-06,ソーラーマディラ合同会社,,合同会社,東京都,千代田区,紀尾井町４番１号ニューオータニガーデンコート１９階フィンポート税理士法人内,,13,101,1020094,,,,,,,2025-02-06,1,,,,,ソーラーマディラ,0
25,1010401188119,新規,0,2025-02-06,2025-02-06,株式会社アースＬＡＢ,,株式会社,東京都,港区,赤坂９丁目１－７赤坂レジデンシャル,,13,103,1070052,,,,,,,2025-02-06,1,,,,,アースラボ,0
32,1010501053593,新規,0,2025-02-06,2025-02-06,株式会社ゼロワン,,株式会社,東京都,台東区,上野３丁目１６－２－８１１,,13,106,1100005,,,,,,,2025-02-06,1,,,,,ゼロワン,0
37,1010601066735,新規,0,2025-02-06,2025-02-06,ＧＣホールディングス株式会社,,株式会社,東京都,江東区,木場６丁目４番２号ＫＩビル６Ｆ,,13,108,1350042,,,,,,,2025-02-06,1,,,,,ジーシーホールディングス,0
39,1010801035829,新規,0,2025-02-06,2025-02-06,株式会社ＫＳＣ,,株式会社,東京都,大田区,本羽田３丁目７番８号サンライフハイツ５０３号室,,13,111,1440044,,,,,,,2025-02-06,1,,,,,ケーエスシー,0
41,1010903009680,新規,0,2025-02-06,2025-02-06,合同会社２１２,,合同会社,東京都,世田谷区,上北沢４丁目３２番７号,,13,112,1560057,,,,,,,2025-02-06,1,,,,,ニーイチニ,0
44,1011001167652,新規,0,2025-02-06,2025-02-06,株式会社またたび,,株式会社,東京都,渋谷区,代々木１丁目２５－５,,13,113,1510053,,,,,,,2025-02-06,1,,,,,マタタビ,0
48,1011003020891,新規,0,2025-02-06,2025-02-06,花見商店合同会社,,合同会社,東京都,渋谷区,神南１丁目１１－４ＦＰＧリンクス神南５階,,13,113,1500041,,,,,,,2025-02-06,1,,,,,ハナミショウテン,0
51,1011101110529,新規,0,2025-02-06,2025-02-06,晨光株式会社,,株式会社,東京都,新宿区,西早稲田３丁目６－７トーア西早稲田マンション５０３,,13,104,1690051,,,,,,,2025-02-06,1,,,,,シンコウ,0
53,1011301030337,新規,0,2025-02-06,2025-02-06,マーモット株式会社,,株式会社,東京都,杉並区,荻窪５丁目３０番１２号,,13,115,1670051,,,,,,,2025-02-06,1,,,,,マーモット,0
54,1011403004610,新規,0,2025-02-06,2025-02-06,合同会社ＫＡＮＣＨＡＮＪＵＮＧＡ,,合同会社,東京都,板橋区,南常盤台１丁目３７番１２号,,13,119,1740072,,,,,,,2025-02-06,1,,,,,カンチェンジュンガ,0
55,1011501031663,新規,0,2025-02-06,2025-02-06,株式会社金瑞,,株式会社,東京都,北区,豊島２丁目１０番６－２０９号,,13,117,1140003,,,,,,,2025-02-06,1,,,,,キンズイ,0
60,1011603004600,新規,0,2025-02-06,2025-02-06,ＷＲ合同会社,,合同会社,東京都,練馬区,東大泉７丁目１８番８号,,13,120,1780063,,,,,,,2025-02-06,1,,,,,ダブルアール,0
61,1011703004120,新規,0,2025-02-06,2025-02-06,合同会社Ｍｅｄｉｃａｌ　ｆｏｒｅｓｔ,,合同会社,東京都,江戸川区,下篠崎町４番１４号,,13,123,1330064,,,,,,,2025-02-06,1,,,,,メディカルフォレスト,0
66,1012401042750,新規,0,2025-02-06,2025-02-06,ピースデザイン株式会社,,株式会社,東京都,調布市,仙川町１丁目１５番地４鍋屋ビル２階,,13,208,1820002,,,,,,,2025-02-06,1,,,,,ピースデザイン,0
70,1012703003194,新規,0,2025-02-06,2025-02-06,合同会社カンテ,,合同会社,東京都,東久留米市,中央町３丁目７番７号,,13,222,2030054,,,,,,,2025-02-06,1,,,,,,0
85,1030001164740,新規,0,2025-02-06,2025-02-06,株式会社一建装,,株式会社,埼玉県,八潮市,大字鶴ケ曽根１４７８番地,,11,234,3400802,,,,,,,2025-02-06,1,,,,,ハジメケンソウ,0
86,1030001164749,新規,0,2025-02-06,2025-02-06,株式会社ＭＴ　ｃｏｍｐａｎｙ,,株式会社,埼玉県,吉川市,大字川藤４６７番地５,,11,243,3420005,,,,,,,2025-02-06,1,,,,,エムティーカンパニー,0
87,1030001164773,新規,0,2025-02-06,2025-02-06,株式会社澁谷商事,,株式会社,埼玉県,川口市,大字東本郷１５０１番地の３６,,11,203,3340063,,,,,,,2025-02-06,1,,,,,シブヤショウジ,0
92,1030003025949,新規,0,2025-02-06,2025-02-06,ＥｎｒｉｃｈＦｉｔｎｅｓｓ合同会社,,合同会社,埼玉県,新座市,西堀２丁目２０番５号,,11,230,3520031,,,,,,,2025-02-06,1,,,,,エンリッチフィットネス,0
93,1030003026022,新規,0,2025-02-06,2025-02-06,合同会社ＮＳＴ,,合同会社,埼玉県,川口市,安行出羽３丁目５番２５号ラスティーコート２－１０２,,11,203,3340052,,,,,,,2025-02-06,1,,,,,エヌエスティ,0
94,1030003026047,新規,0,2025-02-06,2025-02-06,合同会社Ｊ＆Ａ,,合同会社,埼玉県,新座市,東北２丁目３０番１２号,,11,230,3520001,,,,,,,2025-02-06,1,,,,,ジェイアンドエー,0
95,1030003026055,新規,0,2025-02-06,2025-02-06,ＮａＮｏＡｎクリーニング合同会社,,合同会社,埼玉県,川口市,柳崎１丁目４番２号,,11,203,3330861,,,,,,,2025-02-06,1,,,,,ナノアンクリーニングサービス,0
109,1040003026780,新規,0,2025-02-06,2025-02-06,合同会社ＡＫＢラバー,,合同会社,千葉県,野田市,木間ケ瀬４７４５番地,,12,208,2700222,,,,,,,2025-02-06,1,,,,,エーケービーラバー,0
111,1040005022654,新規,0,2025-02-06,2025-02-06,農事組合法人仁良ＷＣＳ,,その他の設立登記法人,千葉県,香取市,仁良５００番地,,12,236,2890407,,,,,,,2025-02-06,1,,,,,ニラダブルシーエス,0
113,1050001056093,新規,0,2025-02-06,2025-02-06,株式会社Ｍａｎｏｎ,,株式会社,茨城県,つくば市,天宝喜２６６番地,,08,220,3001253,,,,,,,2025-02-06,1,,,,,マノーン,0
114,1050001056127,新規,0,2025-02-06,2025-02-06,株式会社ケーエスエフ,,株式会社,茨城県,小美玉市,上合１４５９番地の１４,,08,236,3113405,,,,,,,2025-02-06,1,,,,,ケーエスエフ,0
118,1060001037885,新規,0,2025-02-06,2025-02-06,ＳＴ　ＪＡＰＡＮ株式会社,,株式会社,栃木県,佐野市,高砂町２８６９番地９,,09,204,3270022,,,,,,,2025-02-06,1,,,,,エスティージャパン,0
120,1070001042612,新規,0,2025-02-06,2025-02-06,株式会社ビヨウケン,,株式会社,群馬県,伊勢崎市,長沼町２５６２番地１,,10,204,3720855,,,,,,,2025-02-06,1,,,,,ビヨウケン,0
122,1070003005781,新規,0,2025-02-06,2025-02-06,合同会社フレアスエステート,,合同会社,群馬県,伊勢崎市,西久保町３丁目１１１９番地４ブラッサムヒルズＡ棟,,10,204,3792204,,,,,,,2025-02-06,1,,,,,フレアスエステート,0
125,1100001038276,新規,0,2025-02-06,2025-02-06,株式会社ＫＯＺＩＡＣ,,株式会社,長野県,中野市,小舘３番４号,,20,211,3830023,,,,,,,2025-02-06,1,,,,,コジアック,0
128,1110005017184,新規,0,2025-02-06,2025-02-06,一般社団法人羽黒優婆尊,,その他の設立登記法人,新潟県,阿賀野市,羽黒２８７番地１,,15,223,9591941,,,,,,,2025-02-06,1,,,,,ハグロウバソン,0
133,1120001272633,新規,0,2025-02-06,2025-02-06,株式会社ｐａｇｅ,,株式会社,大阪府,大阪市中央区,東心斎橋１丁目１９番２号ビックワン心斎橋ビル５Ｆ,,27,128,5420083,,,,,,,2025-02-06,1,,,,,ページ,0
134,1120001272641,新規,0,2025-02-06,2025-02-06,株式会社アルファライフ,,株式会社,大阪府,大阪市生野区,巽北１丁目４番５号,00137920,27,116,5440004,,,,,,,2025-02-06,1,,,,,アルファライフ,0
135,1120001272658,新規,0,2025-02-06,2025-02-06,ジャイナルサービス株式会社,,株式会社,大阪府,大阪市北区,梅田１丁目２番２号大阪駅前第２ビル１２－１２,,27,127,5300001,,,,,,,2025-02-06,1,,,,,ジャイナルサービス,0
136,1120001272674,新規,0,2025-02-06,2025-02-06,株式会社キミノウタの看護,,株式会社,大阪府,大阪市西区,九条１丁目１９番２６号,,27,106,5500027,,,,,,,2025-02-06,1,,,,,キミノウタノカンゴ,0
138,1120003028554,新規,0,2025-02-06,2025-02-06,２１０Ｋ合同会社,,合同会社,大阪府,大阪市中央区,東高麗橋４番９号双葉シティプラザ２０２号,,27,128,5400039,,,,,,,2025-02-06,1,,,,,ニイイチゼロケイ,0
143,1130001078939,新規,0,2025-02-06,2025-02-06,株式会社リタ・コーポレーション,,株式会社,京都府,京都市中京区,堺町通御池下る丸材木町６７１番地エクレーヌ御池１００５号,,26,104,6040000,,,,,,,2025-02-06,1,,,,,リタコーポレーション,0
153,1140001137314,新規,0,2025-02-06,2025-02-06,株式会社阿部工業,,株式会社,兵庫県,姫路市,栗山町１１２番地マロンドヴィラ７０３,,28,201,6700954,,,,,,,2025-02-06,1,,,,,アベコウギョウ,0
154,1140001137363,新規,0,2025-02-06,2025-02-06,ＡｕＣ株式会社,,株式会社,兵庫県,神戸市兵庫区,浜崎通２－１８,,28,105,6520807,,,,,,,2025-02-06,1,,,,,エーユーシー,0
159,1170001018486,新規,0,2025-02-06,2025-02-06,株式会社Ｆａｒｍ　ｍｏｏｎ,,株式会社,和歌山県,紀の川市,荒見２番地,,30,208,6496561,,,,,,,2025-02-06,1,,,,,ファームムーン,0
163,1180001165311,新規,0,2025-02-06,2025-02-06,株式会社ヤマクラ,,株式会社,愛知県,稲沢市,祖父江町二俣柳原４８番地３,,23,220,4950013,,,,,,,2025-02-06,1,,,,,ヤマクラ,0
164,1180001165328,新規,0,2025-02-06,2025-02-06,株式会社明大,,株式会社,愛知県,知多市,にしの台１丁目１１１４番地ラ・シャイン１階,,23,224,4780055,,,,,,,2025-02-06,1,,,,,メイダイ,0
178,1240001064481,新規,0,2025-02-06,2025-02-06,ヘルシーホールディングス株式会社,,株式会社,広島県,広島市安佐北区,真亀１丁目５番１１号,,34,106,7391741,,,,,,,2025-02-06,1,,,,,ヘルシーホールディングス,0
182,1260001039886,新規,0,2025-02-06,2025-02-06,リテールフォース株式会社,,株式会社,岡山県,岡山市北区,下石井１丁目１番１７号アクロスキューブビル２Ｆ,,33,101,7000907,,,,,,,2025-02-06,1,,,,,リテールフォース,0
183,1280001009350,新規,0,2025-02-06,2025-02-06,株式会社石見川本ファーマシー,,株式会社,島根県,邑智郡川本町,大字川本５２５－２,,32,441,6960001,,,,,,,2025-02-06,1,,,,,イワミカワモトファーマシー,0
189,1290003016377,新規,0,2025-02-06,2025-02-06,合同会社ＴＵＴＴＩ,,合同会社,福岡県,福岡市中央区,鳥飼２丁目１番４０－１３０４号ライオンズマンション大濠パークサイド,,40,133,8100053,,,,,,,2025-02-06,1,,,,,トゥッティ,0
201,1360001034745,新規,0,2025-02-06,2025-02-06,株式会社Ｙ‐２,,株式会社,沖縄県,那覇市,牧志２丁目４番１１,,47,201,9000013,,,,,,,2025-02-06,1,,,,,ワイツー,0
211,1430001093619,新規,0,2025-02-06,2025-02-06,ＥＫＵＳＩＴＯ株式会社,,株式会社,北海道,苫小牧市,桜坂町２丁目１４番４号,,01,213,0530843,,,,,,,2025-02-06,1,,,,,エクシト,0
213,1430003017245,新規,0,2025-02-06,2025-02-06,合同会社ｓｐｙ,,合同会社,北海道,石狩市,花川南四条２丁目２０５番地,,01,235,0613204,,,,,,,2025-02-06,1,,,,,スパイ,0
214,1440003001660,新規,0,2025-02-06,2025-02-06,ＬｏｃａｌＢｕｉｌｄｅｒｓ合同会社,,合同会社,北海道,函館市,末広町１４番地４号,,01,202,0400053,,,,,,,2025-02-06,1,,,,,ローカルビルダーズ,0
219,1700150129096,新規,0,2025-02-06,2025-02-06,株式会社アナパス,,外国会社等,神奈川県,横浜市中区,山下町２番地産業貿易センタービル２階,,14,104,2310023,大韓民国ソウル特別市九老区デジタル路３１キル６１（九老洞）,,,,,,2025-02-06,1,,,,,カブシキガイシヤアナパス,0
227,2010001252100,新規,0,2025-02-06,2025-02-06,Ｎ’ｓ株式会社,,株式会社,東京都,中央区,銀座１丁目２２－１１銀座大竹ビジデンス２Ｆ,,13,102,1040061,,,,,,,2025-02-06,1,,,,,エヌズ,0
231,2010003046293,新規,0,2025-02-06,2025-02-06,合同会社クレアノート,,合同会社,東京都,千代田区,平河町１丁目６番１５号ＵＳビル８０２号室,,13,101,1020093,,,,,,,2025-02-06,1,,,,,クレアノート,0
232,2010003046302,新規,0,2025-02-06,2025-02-06,フィロック合同会社,,合同会社,東京都,中央区,銀座２丁目１０番８号マニエラ銀座ビル４階,,13,102,1040061,,,,,,,2025-02-06,1,,,,,フィロック,0
233,2010003046310,新規,0,2025-02-06,2025-02-06,ＡＩＡ上野０２合同会社,,合同会社,東京都,中央区,日本橋２丁目１番１８号,,13,102,1030027,,,,,,,2025-02-06,1,,,,,エーアイエーウエノゼロニ,0
234,2010003046319,新規,0,2025-02-06,2025-02-06,ＡＩＡ上野１０合同会社,,合同会社,東京都,中央区,日本橋２丁目１番１８号,,13,102,1030027,,,,,,,2025-02-06,1,,,,,エーアイエーウエノイチゼロ,0
235,2010003046327,新規,0,2025-02-06,2025-02-06,ＡＩＡ上野１８‐０１合同会社,,合同会社,東京都,中央区,日本橋２丁目１番１８号,,13,102,1030027,,,,,,,2025-02-06,1,,,,,エーアイエーウエノイチハチゼロイチ,0
236,2010005039527,新規,0,2025-02-06,2025-02-06,一般財団法人佐藤雅彦教育文化財団,,その他の設立登記法人,東京都,中央区,築地３丁目１２番８号,,13,102,1040045,,,,,,,2025-02-06,1,,,,,サトウマサヒコキョウイクブンカザイダン,0
243,2010405024079,新規,0,2025-02-06,2025-02-06,一般社団法人統合医療診療所,,その他の設立登記法人,東京都,港区,芝公園１丁目２番９号ＨＡＮＡＩビル,,13,103,1050011,,,,,,,2025-02-06,1,,,,,トウゴウイリョウシンリョウジョ,0
248,2010501053584,新規,0,2025-02-06,2025-02-06,株式会社共栄不動産,,株式会社,東京都,台東区,柳橋１丁目１６番３号２Ｆ,,13,106,1110052,,,,,,,2025-02-06,1,,,,,キョウエイフドウサン,0
252,2010801035828,新規,0,2025-02-06,2025-02-06,株式会社ｂｅｎｃｈ．,,株式会社,東京都,大田区,蒲田４丁目２９番５号高千穂ビル８Ｆ,,13,111,1440052,,,,,,,2025-02-06,1,,,,,ベンチ,0
254,2010903009688,新規,0,2025-02-06,2025-02-06,合同会社アセットマネジメントｙｏｔｓｕｂａ,,合同会社,東京都,世田谷区,太子堂４丁目１８番１５号マガザン三軒茶屋２・３Ｆ－３,,13,112,1540004,,,,,,,2025-02-06,1,,,,,アセットマネジメントヨツバ,0
255,2010905004729,新規,0,2025-02-06,2025-02-06,税理士法人コンダクト,,その他の設立登記法人,東京都,世田谷区,北沢２丁目５番２号下北沢ビッグベンビル５階,,13,112,1550031,,,,,,,2025-02-06,1,,,,,コンダクト,0
259,2011001167486,新規,0,2025-02-06,2025-02-06,株式会社ＦｉＮＤＥＲ,,株式会社,東京都,渋谷区,道玄坂１丁目１６－６二葉ビル８Ｂ,,13,113,1500043,,,,,,,2025-02-06,1,,,,,ファインダー,0
260,2011001167503,新規,0,2025-02-06,2025-02-06,株式会社ブリッジ,,株式会社,東京都,渋谷区,初台２丁目２１－１８,,13,113,1510061,,,,,,,2025-02-06,1,,,,,ブリッジ,0
263,2011101110445,新規,0,2025-02-06,2025-02-06,株式会社ジェイグッド,,株式会社,東京都,新宿区,西新宿３丁目３番１３号西新宿水間ビル６階,,13,104,1600023,,,,,,,2025-02-06,1,,,,,ジェイグッド,0
265,2011103015493,新規,0,2025-02-06,2025-02-06,Ｅｎｇｌｉｓｈ　Ｍｏｕｎｔａｉｎ合同会社,,合同会社,東京都,新宿区,西新宿７丁目２番６号西新宿Ｋ－１ビル３階,,13,104,1600023,,,,,,,2025-02-06,1,,,,,イングリッシュマウンテン,0
266,2011103015502,新規,0,2025-02-06,2025-02-06,Ｍｉ　ｐｌｕｓ　ｄｅｓｉｇｎ合同会社,,合同会社,東京都,新宿区,西新宿３丁目３番１３号西新宿水間ビル６階,,13,104,1600023,,,,,,,2025-02-06,1,,,,,エムアイプラスデザイン,0
270,2011301030311,新規,0,2025-02-06,2025-02-06,株式会社ＳｏＮｉＣ,,株式会社,東京都,杉並区,和泉３丁目５５番５号,,13,115,1680063,,,,,,,2025-02-06,1,,,,,ソニック,0
271,2011301030336,新規,0,2025-02-06,2025-02-06,株式会社アニドク,,株式会社,東京都,杉並区,阿佐谷北４丁目１番２号,,13,115,1660001,,,,,,,2025-02-06,1,,,,,アニドク,0
272,2011501031670,新規,0,2025-02-06,2025-02-06,元動未来株式会社,,株式会社,東京都,北区,浮間５丁目３番４３－３０２号,,13,117,1150051,,,,,,,2025-02-06,1,,,,,ゲンドウミライ,0
278,2012703003193,新規,0,2025-02-06,2025-02-06,合同会社ＹＹパートナーズ,,合同会社,東京都,清瀬市,上清戸１丁目６番３３号,,13,221,2040013,,,,,,,2025-02-06,1,,,,,ワイワイパートナーズ,0
279,2013301053754,新規,0,2025-02-06,2025-02-06,ニャリンク株式会社,,株式会社,東京都,豊島区,北大塚３丁目２１番１３号２０１,,13,116,1700004,,,,,,,2025-02-06,1,,,,,ニャリンク,0
280,2013303007535,新規,0,2025-02-06,2025-02-06,Ａ６ＰＲＯＪＥＣＴ合同会社,,合同会社,東京都,豊島区,西池袋２丁目１番１５号第２ヒカリハイツ１０１,,13,116,1710021,,,,,,,2025-02-06,1,,,,,エーシックスプロジェクト,0
282,2020001161143,新規,0,2025-02-06,2025-02-06,株式会社タカエー,,株式会社,神奈川県,横浜市磯子区,岡村１丁目１３番４－２号,,14,107,2350021,,,,,,,2025-02-06,1,,,,,タカエー,0
283,2020001161176,新規,0,2025-02-06,2025-02-06,株式会社Ｏｎｅ’ｓ　Ｏｗｎ,,株式会社,神奈川県,横浜市都筑区,中川４丁目８番６４号サンキＭ１０１,,14,118,2240001,,,,,,,2025-02-06,1,,,,,ワンズオウン,0
295,2030001164764,新規,0,2025-02-06,2025-02-06,株式会社和光ビジネスコンサルティング,,株式会社,埼玉県,羽生市,大字中岩瀬５１５番地１,,11,216,3480046,,,,,,,2025-02-06,1,,,,,ワコウビジネスコンサルティング,0
296,2030001164772,新規,0,2025-02-06,2025-02-06,株式会社ＬＴＡＣ,,株式会社,埼玉県,新座市,東北２丁目３９番１０号ドゥーセット弐番館６Ｆ,,11,230,3520001,,,,,,,2025-02-06,1,,,,,エルタック,0
298,2030003025972,新規,0,2025-02-06,2025-02-06,合同会社コブ,,合同会社,埼玉県,さいたま市大宮区,仲町１丁目１０８－１１－１０東通プラザ１階Ａ１,,11,103,3300845,,,,,,,2025-02-06,1,,,,,コブ,0
299,2030003026046,新規,0,2025-02-06,2025-02-06,合同会社アモーレ,,合同会社,埼玉県,朝霞市,浜崎１丁目３番１８号,,11,227,3510033,,,,,,,2025-02-06,1,,,,,アモーレ,0
302,2040001137281,新規,0,2025-02-06,2025-02-06,株式会社結ｎｅｃｔ,,株式会社,千葉県,柏市,塚崎１４５１番地３７,,12,217,2770923,,,,,,,2025-02-06,1,,,,,ユイネクト,0
309,2050003009008,新規,0,2025-02-06,2025-02-06,合名会社根本オート,,合名会社,茨城県,日立市,東金沢町４丁目１０番１５号,,08,202,3160014,,,,,,,2025-02-06,1,,,,,ネモトオート,0
311,2060005010301,新規,0,2025-02-06,2025-02-06,一般社団法人藤原湧水ファーム,,その他の設立登記法人,栃木県,日光市,藤原６３３番地,,09,206,3212521,,,,,,,2025-02-06,1,,,,,フジハラユウスイファーム,0
336,2120001272525,新規,0,2025-02-06,2025-02-06,プラスビー株式会社,,株式会社,大阪府,大阪市中央区,島之内１丁目２２番２２号,,27,128,5420082,,,,,,,2025-02-06,1,,,,,プラスビー,0
337,2120001272582,新規,0,2025-02-06,2025-02-06,Ｃ＆Ｃ株式会社,,株式会社,大阪府,大阪市生野区,新今里３丁目４番１７号ＯＧビル５０４Ａ,,27,116,5440001,,,,,,,2025-02-06,1,,,,,シーアンドシー,0
338,2120001272640,新規,0,2025-02-06,2025-02-06,株式会社上町ビル,,株式会社,大阪府,大阪市天王寺区,空清町１番１１号,,27,109,5430018,,,,,,,2025-02-06,1,,,,,ウエマチビル,0
339,2120001272681,新規,0,2025-02-06,2025-02-06,大成企画株式会社,,株式会社,大阪府,大阪市浪速区,敷津西２丁目１６番６号４０３室,,27,111,5560015,,,,,,,2025-02-06,1,,,,,タイセイキカク,0
340,2120001272707,新規,0,2025-02-06,2025-02-06,天野不動産株式会社,,株式会社,大阪府,大阪市天王寺区,上本町８丁目６番１－３０３号,,27,109,5430001,,,,,,,2025-02-06,1,,,,,アマノフドウサン,0
342,2120003028553,新規,0,2025-02-06,2025-02-06,合同会社東洋リネン,,合同会社,大阪府,大阪市中央区,北久宝寺町２丁目１番３号,,27,128,5410057,,,,,,,2025-02-06,1,,,,,トウヨウリネン,0
347,2120901050393,新規,0,2025-02-06,2025-02-06,ヒカリシステム株式会社,,株式会社,大阪府,高槻市,真上町５丁目３９番１号,,27,207,5691121,,,,,,,2025-02-06,1,,,,,ヒカリシステム,0
359,2130001078938,新規,0,2025-02-06,2025-02-06,ＮＯＮＫＩ自在株式会社,,株式会社,京都府,京都市下京区,三ノ宮町通正面下る上三之宮町２７３－１,,26,106,6008135,,,,,,,2025-02-06,1,,,,,ノンキジザイ,0
364,2140001137313,新規,0,2025-02-06,2025-02-06,壹運国際株式会社,,株式会社,兵庫県,神戸市兵庫区,南仲町一丁目５番南仲ＴＯビル１０１,,28,105,6520841,,,,,,,2025-02-06,1,,,,,イチウンコクサイ,0
365,2140001137338,新規,0,2025-02-06,2025-02-06,株式会社和,,株式会社,兵庫県,洲本市,上内膳３９２番地１,,28,205,6560017,,,,,,,2025-02-06,1,,,,,ナゴミ,0
366,2140001137346,新規,0,2025-02-06,2025-02-06,想像技術創造株式会社,,株式会社,兵庫県,神戸市須磨区,菅の台５丁目５番地８号棟５０４号,,28,107,6540143,,,,,,,2025-02-06,1,,,,,ソウゾウギジュツソウゾウ,0
367,2140001137362,新規,0,2025-02-06,2025-02-06,ＥＮＳＩＮ株式会社,,株式会社,兵庫県,赤穂郡上郡町,高田台３丁目４－１２,,28,481,6781226,,,,,,,2025-02-06,1,,,,,エンシン,0
372,2140003021630,新規,0,2025-02-06,2025-02-06,合同会社ＴＵ,,合同会社,兵庫県,神戸市灘区,下河原通４丁目４番３号,,28,102,6570045,,,,,,,2025-02-06,1,,,,,ツウ,0
373,2160003003395,新規,0,2025-02-06,2025-02-06,合同会社大槻,,合同会社,滋賀県,草津市,草津２丁目７－３２プラウド草津２０１号室,,25,206,5250034,,,,,,,2025-02-06,1,,,,,オオツキ,0
374,2170001018485,新規,0,2025-02-06,2025-02-06,株式会社あぐりーど,,株式会社,和歌山県,伊都郡かつらぎ町,大字笠田東５５３番地の２,,30,341,6497161,,,,,,,2025-02-06,1,,,,,アグリード,0
379,2180001165310,新規,0,2025-02-06,2025-02-06,株式会社遠田商事,,株式会社,愛知県,名古屋市中区,新栄１丁目２６番７号リアライズ栄ビルＴ１‐３,,23,106,4600007,,,,,,,2025-02-06,1,,,,,エンダショウジ,0
380,2180001165327,新規,0,2025-02-06,2025-02-06,株式会社シェアマイル,,株式会社,愛知県,名古屋市港区,八百島２丁目４０３番地,,23,111,4550885,,,,,,,2025-02-06,1,,,,,シェアマイル,0
381,2180001165335,新規,0,2025-02-06,2025-02-06,株式会社ＯＲＯ,,株式会社,愛知県,名古屋市中区,栄４丁目８番２２号第１２オーシャンビル６階６０１号,,23,106,4600008,,,,,,,2025-02-06,1,,,,,オーロ,0
386,2180301039503,新規,0,2025-02-06,2025-02-06,株式会社ツボエ,,株式会社,愛知県,豊橋市,飯村町字東川２０番地２４,,23,201,4400836,,,,,,,2025-02-06,1,,,,,ツボエ,0
387,2190001031981,新規,0,2025-02-06,2025-02-06,株式会社美緑,,株式会社,三重県,津市,河芸町高佐４６３番地,,24,201,5100315,,,,,,,2025-02-06,1,,,,,ミノリ,0
389,2200001043414,新規,0,2025-02-06,2025-02-06,株式会社ＳＨｉｒａｋａｗａ・Ｓｏｌｕｔｉｏｎ,,株式会社,岐阜県,大野郡白川村,大字鳩谷１９８番地２,,21,604,5015629,,,,,,,2025-02-06,1,,,,,シラカワソリューション,0
393,2230001020732,新規,0,2025-02-06,2025-02-06,株式会社リレーユ,,株式会社,富山県,富山市,赤田１５８番地７,,16,201,9398064,,,,,,,2025-02-06,1,,,,,リレーユ,0
397,2240001064472,新規,0,2025-02-06,2025-02-06,株式会社アットコンパス,,株式会社,広島県,東広島市,八本松南４丁目１２番１５号,,34,212,7390144,,,,,,,2025-02-06,1,,,,,アットコンパス,0
404,2270003001710,新規,0,2025-02-06,2025-02-06,合同会社ＨａｐｐｙアセットＭａｎａｇｅｍｅｎｔ,,合同会社,鳥取県,倉吉市,井手畑６９番地３,,31,203,6820006,,,,,,,2025-02-06,1,,,,,ハッピーアセットマネジメント,0
411,2290001108860,新規,0,2025-02-06,2025-02-06,Ｄａｎｇ　Ｇｉａ株式会社,,株式会社,福岡県,福岡市早良区,曙２丁目９番３号ポルトス西新３０５号,,40,137,8140004,,,,,,,2025-02-06,1,,,,,ダンジャ,0
412,2290001108910,新規,0,2025-02-06,2025-02-06,株式会社ステレオリンチ,,株式会社,福岡県,福岡市中央区,天神４丁目６―２８天神ファーストビル７階,,40,133,8100001,,,,,,,2025-02-06,1,,,,,ステレオリンチ,0
416,2290003016351,新規,0,2025-02-06,2025-02-06,合同会社ｃｏｎｎｅｃｔｉｏｎ,,合同会社,福岡県,福岡市中央区,天神１丁目１番１号アクロス福岡１Ｆ,,40,133,8100001,,,,,,,2025-02-06,1,,,,,,0
419,2300001014074,新規,0,2025-02-06,2025-02-06,株式会社ＭＩＮＡＭＩ　ＫＥＮＫＩ,,株式会社,佐賀県,伊万里市,南波多町府招３７０番地２,,41,205,8480015,,,,,,,2025-02-06,1,,,,,ミナミケンキ,0
421,2310001019436,新規,0,2025-02-06,2025-02-06,株式会社アシストクルー長崎,,株式会社,長崎県,長崎市,小江町１番地１０,,42,201,8511133,,,,,,,2025-02-06,1,,,,,アシストクルーナガサキ,0
423,2330003010787,新規,0,2025-02-06,2025-02-06,合同会社スタントン設計事務所,,合同会社,熊本県,宇城市,松橋町曲野２４８３番地８,,43,213,8690511,,,,,,,2025-02-06,1,,,,,スタントンセッケイジムショ,0
441,2430001093601,新規,0,2025-02-06,2025-02-06,株式会社Ｎｏｒｎ,,株式会社,北海道,札幌市中央区,南四条西３丁目３番地１第１Ｇビル４階,,01,101,0640804,,,,,,,2025-02-06,1,,,,,ノルン,0
447,2470003002804,新規,0,2025-02-06,2025-02-06,高松商事合同会社,,合同会社,香川県,高松市,十川西町８００－１１,,37,201,7610433,,,,,,,2025-02-06,1,,,,,タカマツショウジ,0
448,2480001012738,新規,0,2025-02-06,2025-02-06,株式会社エクシード,,株式会社,徳島県,徳島市,南末広町７番８号,,36,201,7700865,,,,,,,2025-02-06,1,,,,,エクシード,0
451,2700150129095,新規,0,2025-02-06,2025-02-06,Ｓ．Ｋ．ＬＡＮＫＡ　ＴＲＡＤＩＮＧ,,外国会社等,千葉県,山武市,木原１４００番地オフィス９,,12,237,2891212,スリランカ民主社会主義共和国、キャンディ、アクラナ、クルゴダ、Ｎｏ．５４／Ａ,,,,,,2025-02-06,1,,,,,エスケーランカトレーデイング,0
452,2700150129104,新規,0,2025-02-06,2025-02-06,佐川土地改良区,,その他,高知県,高岡郡佐川町,乙１８３９,,39,402,7891202,,,,,,,2025-02-06,1,,,,,サカワトチカイリヨウク,0
461,3010001251927,新規,0,2025-02-06,2025-02-06,株式会社睡眠歯科リサーチセンター東京,,株式会社,東京都,千代田区,富士見１丁目３番１１号富士見デュープレックスＢ′ｓ４階,,13,101,1020071,,,,,,,2025-02-06,1,,,,,スイミンシカリサーチセンタートウキョウ,0
462,3010003046301,新規,0,2025-02-06,2025-02-06,ログアス合同会社,,合同会社,東京都,中央区,銀座２丁目１０番８号マニエラ銀座ビル４階,,13,102,1040061,,,,,,,2025-02-06,1,,,,,ログアス,0
463,3010003046318,新規,0,2025-02-06,2025-02-06,ＡＩＡ上野０９合同会社,,合同会社,東京都,中央区,日本橋２丁目１番１８号,,13,102,1030027,,,,,,,2025-02-06,1,,,,,エーアイエーウエノゼロキュウ,0
464,3010003046326,新規,0,2025-02-06,2025-02-06,ＡＩＡ上野１７‐０１合同会社,,合同会社,東京都,中央区,日本橋２丁目１番１８号,,13,102,1030027,,,,,,,2025-02-06,1,,,,,エーアイエーウエノイチナナゼロイチ,0
465,3010003046383,新規,0,2025-02-06,2025-02-06,動きの学び合同会社,,合同会社,東京都,中央区,築地１丁目４―８―３０２,,13,102,1040045,,,,,,,2025-02-06,1,,,,,ウゴキノマナビ,0
466,3010005039526,新規,0,2025-02-06,2025-02-06,司法書士法人ベル総合事務所,,その他の設立登記法人,東京都,千代田区,飯田橋２丁目１４番５号ＰｕｒｅＷｏｏｄガーデン３階,,13,101,1020072,,,,,,,2025-02-06,1,,,,,ベルソウゴウジムショ,0
467,3010005039542,新規,0,2025-02-06,2025-02-06,板橋ロジスティック特定目的会社,,その他の設立登記法人,東京都,中央区,八重洲２丁目２番１号,,13,102,1040028,,,,,,,2025-02-06,1,,,,,イタバシロジスティック,0
475,3010401188109,新規,0,2025-02-06,2025-02-06,株式会社ＡＮＡＰライトニングキャピタル,,株式会社,東京都,港区,南青山４丁目２０番１９号,,13,103,1070062,,,,,,,2025-02-06,1,,,,,アナップライトニングキャピタル,0
486,3010801035827,新規,0,2025-02-06,2025-02-06,株式会社ＴＡＩＹＯ　Ｃｒｅａｔｉｖｅ　Ｗｏｒｋｓ,,株式会社,東京都,大田区,昭和島１丁目６番３１号,,13,111,1430004,,,,,,,2025-02-06,1,,,,,タイヨウクリエイティブワークス,0
488,3010901056772,新規,0,2025-02-06,2025-02-06,株式会社ＲＳコーポレーション,,株式会社,東京都,世田谷区,駒沢１丁目１７番１６－２０１号,,13,112,1540012,,,,,,,2025-02-06,1,,,,,アールエスコーポレーション,0
489,3010903009695,新規,0,2025-02-06,2025-02-06,合同会社ケアプランよし,,合同会社,東京都,世田谷区,八幡山１丁目５番１８－２０３号,,13,112,1560056,,,,,,,2025-02-06,1,,,,,ケアプランヨシ,0
490,3010905004728,新規,0,2025-02-06,2025-02-06,社会保険労務士法人コンダクト,,その他の設立登記法人,東京都,世田谷区,北沢２丁目５番地２下北沢ビッグベンビル５階,,13,112,1550031,,,,,,,2025-02-06,1,,,,,コンダクト,0
495,3011001167519,新規,0,2025-02-06,2025-02-06,株式会社Ｃｏｃｏｃｈｉｉ＆Ｃｏ．,,株式会社,東京都,渋谷区,神泉町１０番１５号アネックス神泉３０１,,13,113,1500045,,,,,,,2025-02-06,1,,,,,ココチアンドカンパニー,0
497,3011101110519,新規,0,2025-02-06,2025-02-06,株式会社イチニー,,株式会社,東京都,新宿区,西新宿３丁目３番１３号西新宿水間ビル２Ｆ,,13,104,1600023,,,,,,,2025-02-06,1,,,,,イチニー,0
499,3011203004602,新規,0,2025-02-06,2025-02-06,ＳＡＹＡＮＳ　ＥＮＴＥＲＰＲＩＳＥＳ合同会社,,合同会社,東京都,中野区,新井２丁目１６番５号グレイスハイツ２０１,,13,114,1650026,,,,,,,2025-02-06,1,,,,,サヤンスエンタープライゼズ,0
502,3011301030335,新規,0,2025-02-06,2025-02-06,株式会社ＲＥＳＩＬ,,株式会社,東京都,杉並区,荻窪３丁目１０番１６号,,13,115,1670051,,,,,,,2025-02-06,1,,,,,レジル,0
506,3011701028045,新規,0,2025-02-06,2025-02-06,Ｒ２Ｄ株式会社,,株式会社,東京都,江戸川区,篠崎町２丁目３番５－１３０１号,,13,123,1330061,,,,,,,2025-02-06,1,,,,,アールツーディー,0
507,3011703004119,新規,0,2025-02-06,2025-02-06,合同会社ユアメンテナンス,,合同会社,東京都,江戸川区,東瑞江１丁目５２番１０号セラ・アヴェニール１０３,,13,123,1320014,,,,,,,2025-02-06,1,,,,,ユアメンテナンス,0
508,3012401042749,新規,0,2025-02-06,2025-02-06,株式会社深大寺不動産,,株式会社,東京都,調布市,深大寺北町５丁目８番地３０,,13,208,1820011,,,,,,,2025-02-06,1,,,,,ジンダイジフドウサン,0
511,3012703003192,新規,0,2025-02-06,2025-02-06,合同会社ＳＳＳカンパニー,,合同会社,東京都,小平市,御幸町８１－１,,13,211,1870012,,,,,,,2025-02-06,1,,,,,エスエスエスカンパニー,0
516,3013301053753,新規,0,2025-02-06,2025-02-06,株式会社ｍｅｎｄ,,株式会社,東京都,豊島区,北大塚３丁目２８番１０－３０５号,,13,116,1700004,,,,,,,2025-02-06,1,,,,,メンド,0
518,3013303007534,新規,0,2025-02-06,2025-02-06,合同会社幸野工務店,,合同会社,東京都,豊島区,東池袋２丁目６２番８号ＢＩＧオフィスプラザ池袋１２０６,,13,116,1700013,,,,,,,2025-02-06,1,,,,,コウノコウムテン,0
525,3020001161142,新規,0,2025-02-06,2025-02-06,ボタニ家ガーデン株式会社,,株式会社,神奈川県,川崎市川崎区,渡田１丁目８－７マミー店舗１階,,14,131,2100837,,,,,,,2025-02-06,1,,,,,ボタニカガーデン,0
535,3030001164739,新規,0,2025-02-06,2025-02-06,株式会社坂工業,,株式会社,埼玉県,上尾市,大字原市１７８１番地９,,11,219,3620021,,,,,,,2025-02-06,1,,,,,サカコウギョウ,0
536,3030001164747,新規,0,2025-02-06,2025-02-06,アイエスプラス株式会社,,株式会社,埼玉県,さいたま市緑区,大字中尾３７３７番地,,11,109,3360932,,,,,,,2025-02-06,1,,,,,アイエスプラス,0
537,3030001164755,新規,0,2025-02-06,2025-02-06,株式会社Ｆｌｅｕｒ,,株式会社,埼玉県,さいたま市南区,白幡２丁目１６番１号,,11,108,3360022,,,,,,,2025-02-06,1,,,,,フルール,0
538,3030001164763,新規,0,2025-02-06,2025-02-06,株式会社ＭＵＲＡＳＡＫＩ,,株式会社,埼玉県,川口市,大字東本郷５４０番地の４１,,11,203,3340063,,,,,,,2025-02-06,1,,,,,ムラサキ,0
539,3030001164771,新規,0,2025-02-06,2025-02-06,オールアシスト株式会社,,株式会社,埼玉県,狭山市,柏原２５２０番地の１９２,,11,215,3501335,,,,,,,2025-02-06,1,,,,,オールアシスト,0
542,3030003026045,新規,0,2025-02-06,2025-02-06,合同会社８８３,,合同会社,埼玉県,越谷市,南越谷４丁目５番地１２ベアーズ新越谷１０１,,11,222,3430845,,,,,,,2025-02-06,1,,,,,ハチハチサン,0
548,3040001137289,新規,0,2025-02-06,2025-02-06,株式会社結,,株式会社,千葉県,柏市,豊四季台２丁目１番１２１－７０１号,,12,217,2770845,,,,,,,2025-02-06,1,,,,,ユイ,0
549,3040001137297,新規,0,2025-02-06,2025-02-06,株式会社Ｔｉａｒａ,,株式会社,千葉県,船橋市,浜町２丁目３番３３－１５０３号,,12,204,2730012,,,,,,,2025-02-06,1,,,,,ティアラ,0
572,3110001039032,新規,0,2025-02-06,2025-02-06,株式会社ＳＴ,,株式会社,新潟県,新潟市西区,山田７４２番地２,,15,107,9501101,,,,,,,2025-02-06,1,,,,,エスティー,0
583,3120001272664,新規,0,2025-02-06,2025-02-06,乾嵐資本株式会社,,株式会社,大阪府,大阪市浪速区,下寺３丁目１－１４エクレール夕陽ヶ丘５号２１５室,,27,111,5560001,,,,,,,2025-02-06,1,,,,,ケンランシホン,0
584,3120003028536,新規,0,2025-02-06,2025-02-06,合同会社Ｎｉｌｙ,,合同会社,大阪府,大阪市浪速区,日本橋西１丁目６番２号,,27,111,5560004,,,,,,,2025-02-06,1,,,,,ナイル,0
585,3120003028560,新規,0,2025-02-06,2025-02-06,合同会社みちあい,,合同会社,大阪府,大阪市都島区,東野田町１丁目１２番１４－７０６号,,27,102,5340024,,,,,,,2025-02-06,1,,,,,ミチアイ,0
598,3130001078937,新規,0,2025-02-06,2025-02-06,株式会社ワールドタイヤ,,株式会社,京都府,城陽市,平川浜道裏４１番地の１,,26,207,6100101,,,,,,,2025-02-06,1,,,,,ワールドタイヤ,0
599,3130001078953,新規,0,2025-02-06,2025-02-06,株式会社Ｋ・Ｄ・Ｓ,,株式会社,京都府,八幡市,岩田六ノ坪６１－３－１０４,,26,210,6148263,,,,,,,2025-02-06,1,,,,,ケーディーエス,0
600,3130001078961,新規,0,2025-02-06,2025-02-06,ルリアンコンサルティング株式会社,,株式会社,京都府,京都市右京区,太秦森ケ東町６番地７,,26,108,6168102,,,,,,,2025-02-06,1,,,,,ルリアンコンサルティング,0
606,3140001137320,新規,0,2025-02-06,2025-02-06,株式会社コミュニケーションブランチ,,株式会社,兵庫県,神戸市中央区,浜辺通６丁目１番１－４１６号,,28,110,6510083,,,,,,,2025-02-06,1,,,,,コミュニケーションブランチ,0
607,3140001137329,新規,0,2025-02-06,2025-02-06,株式会社ＮＥＸＴＬＲ,,株式会社,兵庫県,神戸市東灘区,田中町４丁目９番１４－２号,,28,101,6580081,,,,,,,2025-02-06,1,,,,,ネクストレ,0
608,3140001137337,新規,0,2025-02-06,2025-02-06,株式会社福星堂,,株式会社,兵庫県,西宮市,鳴尾町１丁目６－１,,28,204,6638184,,,,,,,2025-02-06,1,,,,,フクセイドウ,0
610,3140003021638,新規,0,2025-02-06,2025-02-06,ＳＡＭ合同会社,,合同会社,兵庫県,神戸市垂水区,海岸通９番５０－１１４号,,28,108,6550036,,,,,,,2025-02-06,1,,,,,サム,0
612,3150003003486,新規,0,2025-02-06,2025-02-06,合同会社Ｍｏｔｔｏ　Ｇｏｏｄ　Ｍｉｎｄ,,合同会社,奈良県,大和郡山市,今国府町５６番地２パストラルジュセイ壱番館１０３号,,29,203,6391031,,,,,,,2025-02-06,1,,,,,モットグッドマインド,0
618,3180001165284,新規,0,2025-02-06,2025-02-06,株式会社Ｔｅｅ’ｓ,,株式会社,愛知県,名古屋市中川区,大当郎３丁目５４０番地の１,,23,110,4540943,,,,,,,2025-02-06,1,,,,,ティーズ,0
619,3180001165292,新規,0,2025-02-06,2025-02-06,株式会社ＨＲ　Ｐｌａｔｆｏｒｍ,,株式会社,愛知県,名古屋市中村区,名駅４丁目２４番５号第２森ビル４０１,,23,105,4500002,,,,,,,2025-02-06,1,,,,,エイチアールプラットフォーム,0
620,3180001165334,新規,0,2025-02-06,2025-02-06,ＧＭ株式会社,,株式会社,愛知県,海部郡飛島村,大字服岡６丁目４５番地１,,23,427,4901431,,,,,,,2025-02-06,1,,,,,ジーエム,0
621,3180001165342,新規,0,2025-02-06,2025-02-06,株式会社Ｅｘｃｅｅｄ　Ｐｌｕｓ,,株式会社,愛知県,名古屋市中村区,名駅４丁目２４番５号第２森ビル４０１,,23,105,4500002,,,,,,,2025-02-06,1,,,,,エクシードプラス,0
623,3180003027904,新規,0,2025-02-06,2025-02-06,ＡＭＭＡＲ合同会社,,合同会社,愛知県,岩倉市,下本町燈明庵１５９－１マンション千代１０２号,,23,228,4820005,,,,,,,2025-02-06,1,,,,,アーマル,0
634,3240001064463,新規,0,2025-02-06,2025-02-06,金輪自動車株式会社,,株式会社,広島県,福山市,鞆町後地２６番地２００,,34,207,7200202,,,,,,,2025-02-06,1,,,,,カナワジドウシャ,0
635,3240001064496,新規,0,2025-02-06,2025-02-06,株式会社ＢＥＳＴＥＣ　ＰＬＡＮ,,株式会社,広島県,広島市南区,東雲本町１丁目１４番２１号,,34,103,7340023,,,,,,,2025-02-06,1,,,,,ベステックプラン,0
637,3260001039892,新規,0,2025-02-06,2025-02-06,株式会社エクラン,,株式会社,岡山県,倉敷市,連島町連島２８－７エヌ・ハートビルＡ－３,,33,202,7128011,,,,,,,2025-02-06,1,,,,,エクラン,0
644,3290001108538,新規,0,2025-02-06,2025-02-06,株式会社Ｐｅａｃｅ　Ｐｕｔ　Ｈｏｌｄｉｎｇｓ,,株式会社,福岡県,福岡市中央区,赤坂３丁目４番３１号,,40,133,8100042,,,,,,,2025-02-06,1,,,,,ピースプットホールディングス,0
647,3290003016367,新規,0,2025-02-06,2025-02-06,合同会社Ｓ＆Ａ,,合同会社,福岡県,福岡市西区,姪の浜５丁目２０番３５－３０５号ライフ姪の浜,,40,135,8190002,,,,,,,2025-02-06,1,,,,,エスアンドエー,0
654,3330001032865,新規,0,2025-02-06,2025-02-06,株式会社Ｆ　ＶＡＬＵＥＳ,,株式会社,熊本県,熊本市南区,御幸笛田１丁目２番１６号,,43,104,8614172,,,,,,,2025-02-06,1,,,,,エフバリューズ,0
655,3330001032873,新規,0,2025-02-06,2025-02-06,株式会社恵里,,株式会社,熊本県,熊本市南区,近見１丁目１７番２０－２号,,43,104,8614101,,,,,,,2025-02-06,1,,,,,アイリ,0
660,3340001027113,新規,0,2025-02-06,2025-02-06,株式会社もみじ乃,,株式会社,鹿児島県,鹿児島市,南林寺町１０番２１号,,46,201,8920834,,,,,,,2025-02-06,1,,,,,モミジノ,0
661,3340003004738,新規,0,2025-02-06,2025-02-06,合同会社ｔｏｕ,,合同会社,鹿児島県,鹿屋市,上谷町１３７２３－２,,46,203,8930061,,,,,,,2025-02-06,1,,,,,トウ,0
666,3360003014669,新規,0,2025-02-06,2025-02-06,合同会社ねったい,,合同会社,沖縄県,南城市,知念字志喜屋３１２番地,,47,215,9011516,,,,,,,2025-02-06,1,,,,,ネッタイ,0
667,3360005007167,新規,0,2025-02-06,2025-02-06,一般社団法人大きな和,,その他の設立登記法人,沖縄県,中頭郡読谷村,字高志保１７１番地,,47,324,9040323,,,,,,,2025-02-06,1,,,,,オオキナワ,0
671,3370001052208,新規,0,2025-02-06,2025-02-06,株式会社時総建,,株式会社,宮城県,気仙沼市,松崎下赤田３番地５,,04,205,9880133,,,,,,,2025-02-06,1,,,,,トキソウケン,0
679,3430001093641,新規,0,2025-02-06,2025-02-06,株式会社ＺＯＮＥ,,株式会社,北海道,札幌市厚別区,青葉町８丁目５番６号,,01,108,0040021,,,,,,,2025-02-06,1,,,,,ゾーン,0
687,3470003002803,新規,0,2025-02-06,2025-02-06,ｎｌａｒｔ合同会社,,合同会社,香川県,高松市,牟礼町原１６７２番地２,,37,201,7610123,,,,,,,2025-02-06,1,,,,,エヌエルアート,0
689,3500005008761,新規,0,2025-02-06,2025-02-06,一般財団法人川島ハロー教育地域振興財団,,その他の設立登記法人,愛媛県,北宇和郡鬼北町,大字清水１０５３番地１,,38,488,7981373,,,,,,,2025-02-06,1,,,,,カワシマハローキョウイクチイキシンコウザイダン,0
690,3700150129078,新規,0,2025-02-06,2025-02-06,鷺沼駅前地区市街地再開発組合,,その他,神奈川県,川崎市宮前区,鷺沼３丁目１番２号,,14,136,2160004,,,,,,,2025-02-06,1,,,,,サギヌマエキマエチクシガイチサイカイハツクミアイ,0
691,3700150129094,新規,0,2025-02-06,2025-02-06,ＦＩＤＡ　ＭＯＴＯＲＳ　ＰＲＩＶＡＴＥ　ＬＩＭＩＴＥＤ,,外国会社等,愛知県,豊田市,蘭町西洞９番地４－１Ｆ,,23,211,4443216,スリランカ民主社会主義共和国、キヤンディ、バトゥゴダ、カサワッタ、４２０／２番,,,,,,2025-02-06,1,,,,,フイダモータースプライベートリミテツド,0
692,3700150129103,新規,0,2025-02-06,2025-02-06,Ｃ＆Ｃ　Ｒｅｖｏｌｕｔｉｏｎ　Ｉｎｃ,,外国会社等,東京都,港区,虎ノ門２丁目４－７　Ｔ－ＬＩＴＥビル１６階,,13,103,1050001,Ｒｅｐｕｂｌｉｃ　ｏｆ　Ｋｏｒｅａ，Ｓｅｏｕｌ，Ｓｅｏｃｈｏ－ｇｕ　Ｇａｎｇｎａｍ－ｄａｅｒｏ　３３１　１６Ｆ,,,,,,2025-02-06,1,,,,,シーアンドシーレボリユシヨン,0
701,4010001252040,新規,0,2025-02-06,2025-02-06,株式会社ファーストウィスティリア,,株式会社,東京都,文京区,水道２丁目１７番１１号スカイコート文京小石川２０１,,13,105,1120005,,,,,,,2025-02-06,1,,,,,ファーストウィスティリア,0
702,4010001252057,新規,0,2025-02-06,2025-02-06,株式会社Ｍ＆Ａカンパニー,,株式会社,東京都,千代田区,丸の内１丁目１１番１号パシフィックセンチュリープレイス丸の内１３階,,13,101,1000005,,,,,,,2025-02-06,1,,,,,エムアンドエーカンパニー,0
709,4010003046291,新規,0,2025-02-06,2025-02-06,合同会社ｓｔｅａｄｙ,,合同会社,東京都,中央区,銀座１丁目１２番４号ヴァンキッシュビル４０１,,13,102,1040061,,,,,,,2025-02-06,1,,,,,ステディ,0
710,4010003046300,新規,0,2025-02-06,2025-02-06,キーオン合同会社,,合同会社,東京都,中央区,銀座２丁目１０番８号マニエラ銀座ビル４階,,13,102,1040061,,,,,,,2025-02-06,1,,,,,キーオン,0
711,4010003046309,新規,0,2025-02-06,2025-02-06,ＡＩＡ上野０１合同会社,,合同会社,東京都,中央区,日本橋２丁目１番１８号,,13,102,1030027,,,,,,,2025-02-06,1,,,,,エーアイエーウエノゼロイチ,0
712,4010003046317,新規,0,2025-02-06,2025-02-06,ＡＩＡ上野０８合同会社,,合同会社,東京都,中央区,日本橋２丁目１番１８号,,13,102,1030027,,,,,,,2025-02-06,1,,,,,エーアイエーウエノゼロハチ,0
713,4010003046325,新規,0,2025-02-06,2025-02-06,ＡＩＡ上野１６‐０１合同会社,,合同会社,東京都,中央区,日本橋２丁目１番１８号,,13,102,1030027,,,,,,,2025-02-06,1,,,,,エーアイエーウエノイチロクゼロイチ,0
716,4010005039525,新規,0,2025-02-06,2025-02-06,監査法人レキシコム,,その他の設立登記法人,東京都,千代田区,内神田１丁目１１番１１号藤井第一ビル,,13,101,1010047,,,,,,,2025-02-06,1,,,,,レキシコム,0
726,4010403034284,新規,0,2025-02-06,2025-02-06,ＧｅｒｏｎＴｅｃｈｂｉｏ合同会社,,合同会社,東京都,港区,三田５丁目９番１４－２０８号,,13,103,1080073,,,,,,,2025-02-06,1,,,,,ジェロンテックバイオ,0
727,4010501053574,新規,0,2025-02-06,2025-02-06,株式会社ＧＴ,,株式会社,東京都,台東区,上野２丁目１０番６号ウィステリアビル１階－Ａ号,,13,106,1100005,,,,,,,2025-02-06,1,,,,,ジーティー,0
728,4010501053582,新規,0,2025-02-06,2025-02-06,株式会社技巧,,株式会社,東京都,台東区,橋場１丁目２６番２号,,13,106,1110023,,,,,,,2025-02-06,1,,,,,ギコウ,0
731,4010701047186,新規,0,2025-02-06,2025-02-06,通励株式会社,,株式会社,東京都,品川区,北品川３丁目９番２５号スカイコート品川２０６室,,13,109,1400001,,,,,,,2025-02-06,1,,,,,ツウレイ,0
733,4010801035826,新規,0,2025-02-06,2025-02-06,株式会社大洋ＬＩＮＫＳ,,株式会社,東京都,大田区,昭和島１丁目６番３１号,,13,111,1430004,,,,,,,2025-02-06,1,,,,,タイヨウリンクス,0
738,4011001167179,新規,0,2025-02-06,2025-02-06,Ｏ’ｓ　Ｊａｐａｎ　Ｐｒｏｐｅｒｔｉｅｓ株式会社,,株式会社,東京都,渋谷区,恵比寿４丁目２０番３号恵比寿ガーデンプレイスタワー１８Ｆ,,13,113,1500013,,,,,,,2025-02-06,1,,,,,オーズジャパンプロパティーズ,0
740,4011003020856,新規,0,2025-02-06,2025-02-06,合同会社ＥＮｘＰＩＴＳＵ,,合同会社,東京都,目黒区,下目黒１丁目１番１４号コノトラビル７Ｆ,,13,110,1530064,,,,,,,2025-02-06,1,,,,,エンピツ,0
742,4011101110501,新規,0,2025-02-06,2025-02-06,株式会社Ｐａｔｈ　Ｆｉｔ,,株式会社,東京都,新宿区,新宿６丁目２７－１ライオンズガーデン５０８,,13,104,1600022,,,,,,,2025-02-06,1,,,,,パスフィット,0
745,4011403004608,新規,0,2025-02-06,2025-02-06,合同会社サンライズ,,合同会社,東京都,板橋区,赤塚７丁目２７－３０,,13,119,1750092,,,,,,,2025-02-06,1,,,,,サンライズ,0
749,4011701028036,新規,0,2025-02-06,2025-02-06,株式会社ｋｏｔｏｒｉ,,株式会社,東京都,江戸川区,西小岩１丁目１１番２６号,,13,123,1330057,,,,,,,2025-02-06,1,,,,,コトリ,0
753,4011801045600,新規,0,2025-02-06,2025-02-06,サイドバイサイド株式会社,,株式会社,東京都,足立区,千住寿町２０番９号２Ｆ,,13,121,1200033,,,,,,,2025-02-06,1,,,,,サイドバイサイド,0
759,4012701018695,新規,0,2025-02-06,2025-02-06,株式会社てっぺんリフォーム,,株式会社,東京都,西東京市,中町６丁目１０番１１号,,13,229,2020013,,,,,,,2025-02-06,1,,,,,テッペンリフォーム,0
763,4013303007533,新規,0,2025-02-06,2025-02-06,合同会社ＳＳＣ,,合同会社,東京都,豊島区,巣鴨２丁目１番３号地下１階,,13,116,1700002,,,,,,,2025-02-06,1,,,,,エスエスシー,0
767,4020001161158,新規,0,2025-02-06,2025-02-06,株式会社Ｑｕｅｓｔｏｒ,,株式会社,神奈川県,横浜市鶴見区,岸谷３丁目１番１５号コンドミニアム暁２０３号室,,14,101,2300078,,,,,,,2025-02-06,1,,,,,クエスター,0
772,4020003027596,新規,0,2025-02-06,2025-02-06,合同会社ＭＯＨＡジャパン,,合同会社,神奈川県,横浜市西区,みなとみらい３丁目７－１オーシャンゲートみなとみらい８Ｆ,,14,103,2200012,,,,,,,2025-02-06,1,,,,,モハジャパン,0
773,4020005016705,新規,0,2025-02-06,2025-02-06,一般社団法人ＭＡＣＯ,,その他の設立登記法人,神奈川県,横浜市西区,北幸１丁目１１番１号水信ビル７階,,14,103,2200004,,,,,,,2025-02-06,1,,,,,マコ,0
779,4030001164738,新規,0,2025-02-06,2025-02-06,株式会社ＡＲＣ,,株式会社,埼玉県,川口市,前川４丁目３５番１３号,,11,203,3330842,,,,,,,2025-02-06,1,,,,,,0
780,4030001164746,新規,0,2025-02-06,2025-02-06,株式会社エターナル,,株式会社,埼玉県,川口市,大字東本郷１６５５番地の９,,11,203,3340063,,,,,,,2025-02-06,1,,,,,エターナル,0
781,4030001164754,新規,0,2025-02-06,2025-02-06,株式会社Ｍ＆Ｙ,,株式会社,埼玉県,越谷市,南越谷４丁目５番地２１,,11,222,3430845,,,,,,,2025-02-06,1,,,,,エムアンドワイ,0
782,4030001164762,新規,0,2025-02-06,2025-02-06,株式会社ｆａｍｙ,,株式会社,埼玉県,川口市,末広１丁目１７－１６,,11,203,3320006,,,,,,,2025-02-06,1,,,,,ファミー,0
783,4030001164770,新規,0,2025-02-06,2025-02-06,株式会社エヌパートナーズ,,株式会社,埼玉県,草加市,青柳６丁目２６番１号Ｂ,,11,221,3400002,,,,,,,2025-02-06,1,,,,,エヌパートナーズ,0
788,4030003026044,新規,0,2025-02-06,2025-02-06,コネクト合同会社,,合同会社,埼玉県,鴻巣市,生出塚１丁目１３番１８号,,11,217,3650033,,,,,,,2025-02-06,1,,,,,コネクト,0
789,4030003026077,新規,0,2025-02-06,2025-02-06,合同会社ＲｅＭａｇｉｎｅ,,合同会社,埼玉県,さいたま市北区,植竹町２丁目３１番地２,,11,102,3310813,,,,,,,2025-02-06,1,,,,,リマジン,0
793,4040001137263,新規,0,2025-02-06,2025-02-06,コムオフィス株式会社,,株式会社,千葉県,船橋市,八木が谷５丁目１８番１号,,12,204,2740802,,,,,,,2025-02-06,1,,,,,コムオフィス,0
794,4040001137296,新規,0,2025-02-06,2025-02-06,株式会社ニコウィル,,株式会社,千葉県,市川市,東菅野２丁目２２番１０号,,12,203,2720823,,,,,,,2025-02-06,1,,,,,ニコウィル,0
795,4040001137305,新規,0,2025-02-06,2025-02-06,株式会社ＢＭＨ,,株式会社,千葉県,千葉市中央区,富士見１丁目１０番５号ＦＴビル４階Ｂ,,12,101,2600015,,,,,,,2025-02-06,1,,,,,ビーエムエイチ,0
800,4050003009006,新規,0,2025-02-06,2025-02-06,合同会社Ｈｅｌｉｘ,,合同会社,茨城県,水戸市,石川１丁目４０１４番地の１１,,08,201,3100905,,,,,,,2025-02-06,1,,,,,ヘリックス,0
813,4070003005770,新規,0,2025-02-06,2025-02-06,蒼星Ｃａｒｅ‐Ｌａｂ合同会社,,合同会社,群馬県,安中市,下磯部６番地５,,10,211,3790129,,,,,,,2025-02-06,1,,,,,ソウセイケアハイフンラボラトリー,0
814,4070003005779,新規,0,2025-02-06,2025-02-06,チモリ合同会社,,合同会社,群馬県,沼田市,上原町１６５０番２２一階,,10,206,3780051,,,,,,,2025-02-06,1,,,,,チモリ,0
817,4080101025298,新規,0,2025-02-06,2025-02-06,株式会社アンロックキャピタル,,株式会社,静岡県,沼津市,足高２９２番地の６９,,22,203,4100001,,,,,,,2025-02-06,1,,,,,アンロックキャピタル,0
824,4090003002741,新規,0,2025-02-06,2025-02-06,合同会社心源,,合同会社,山梨県,南都留郡西桂町,小沼２０４０番地１,,19,423,4030022,,,,,,,2025-02-06,1,,,,,シンゲン,0
831,4110001039031,新規,0,2025-02-06,2025-02-06,株式会社悠々,,株式会社,新潟県,新発田市,藤塚浜４０７３番地３,,15,206,9570231,,,,,,,2025-02-06,1,,,,,ユウユウ,0
843,4120001272597,新規,0,2025-02-06,2025-02-06,Ｅｎｔａｍａｔｅ株式会社,,株式会社,大阪府,大阪市東淀川区,東中島１丁目１９番４号,,27,114,5330033,,,,,,,2025-02-06,1,,,,,エンタメイト,0
844,4120001272622,新規,0,2025-02-06,2025-02-06,東正株式会社,,株式会社,大阪府,大阪市西成区,潮路１丁目１番１３号７０３,,27,122,5570052,,,,,,,2025-02-06,1,,,,,トウセイ,0
846,4120003028551,新規,0,2025-02-06,2025-02-06,合同会社ＲＫ,,合同会社,大阪府,門真市,四宮５丁目５番２６号,,27,223,5710017,,,,,,,2025-02-06,1,,,,,アールケー,0
850,4120101071024,新規,0,2025-02-06,2025-02-06,Ｌｏａｄ　Ｃｈａｒｔ　Ｊａｐａｎ株式会社,,株式会社,大阪府,高石市,高砂２丁目５番地,,27,225,5920001,,,,,,,2025-02-06,1,,,,,ロードチャートジャパン,0
856,4130001078952,新規,0,2025-02-06,2025-02-06,株式会社前へ前へ,,株式会社,京都府,京都市東山区,松原町２７２番地５,,26,105,6050063,,,,,,,2025-02-06,1,,,,,マエヘマエヘ,0
865,4140003021620,新規,0,2025-02-06,2025-02-06,ＡＴＣＡＲＥ神戸合同会社,,合同会社,兵庫県,神戸市兵庫区,明和通２丁目２番２－３０９号,,28,105,6520883,,,,,,,2025-02-06,1,,,,,アットケアコウベ,0
868,4160001026529,新規,0,2025-02-06,2025-02-06,株式会社高心,00137918,株式会社,滋賀県,草津市,東草津３丁目２２番２－４１０号ヴィラナリー草津ＩＩ,00137919,25,206,5250033,,,,,,,2025-02-06,1,,,,,コウシン,0
873,4180001165250,新規,0,2025-02-06,2025-02-06,株式会社加藤耐火工業,,株式会社,愛知県,名古屋市守山区,大森八龍２丁目６５１番地,,23,113,4630028,,,,,,,2025-02-06,1,,,,,カトウタイカコウギョウ,0
874,4180001165259,新規,0,2025-02-06,2025-02-06,株式会社タイガ,,株式会社,愛知県,名古屋市中村区,名駅３丁目４－１０アルティメイト名駅１ｓｔ２階,,23,105,4500002,,,,,,,2025-02-06,1,,,,,タイガ,0
875,4180001165275,新規,0,2025-02-06,2025-02-06,株式会社神谷,,株式会社,愛知県,知多郡東浦町,大字生路字狐洞１番地の１１,,23,442,4702104,,,,,,,2025-02-06,1,,,,,カミヤ,0
876,4180001165341,新規,0,2025-02-06,2025-02-06,羽株式会社,,株式会社,愛知県,瀬戸市,今林町３１４番地の３,,23,204,4890868,,,,,,,2025-02-06,1,,,,,ハネ,0
877,4180003027960,新規,0,2025-02-06,2025-02-06,合同会社おむすび,,合同会社,愛知県,知多郡美浜町,大字河和字北田面１５５番地,,23,446,4702406,,,,,,,2025-02-06,1,,,,,オムスビ,0
880,4180301039501,新規,0,2025-02-06,2025-02-06,株式会社コレクトボディ,,株式会社,愛知県,豊橋市,大岩町字北山２６１番地３ＡＢＣ店舗１Ｂ,,23,201,4413141,,,,,,,2025-02-06,1,,,,,コレクトボディ,0
885,4210001020055,新規,0,2025-02-06,2025-02-06,株式会社ＳＳＴ,,株式会社,福井県,福井市,二の宮４丁目３３番２号,,18,201,9100015,,,,,,,2025-02-06,1,,,,,エスエスティ,0
886,4230003002371,新規,0,2025-02-06,2025-02-06,ＴＭ合同会社,,合同会社,富山県,富山市,新富町１丁目３番１６‐３０１号ライフイン田中,,16,201,9300002,,,,,,,2025-02-06,1,,,,,ティーエム,0
890,4240003007056,新規,0,2025-02-06,2025-02-06,ひとちた合同会社,,合同会社,広島県,広島市東区,牛田早稲田１丁目１９－２－３０３,,34,102,7320062,,,,,,,2025-02-06,1,,,,,ヒトチタ,0
892,4250001020992,新規,0,2025-02-06,2025-02-06,サンレーション株式会社,,株式会社,山口県,周南市,大字久米１４１２番地の４６,,35,215,7450801,,,,,,,2025-02-06,1,,,,,サンレーション,0
894,4260001039891,新規,0,2025-02-06,2025-02-06,株式会社ＦＲＯＮＴＬＩＮＥ,,株式会社,岡山県,倉敷市,児島田の口７丁目７番５１－７号,,33,202,7110903,,,,,,,2025-02-06,1,,,,,フロントライン,0
908,4290801031252,新規,0,2025-02-06,2025-02-06,株式会社スリーフィールド,,株式会社,福岡県,遠賀郡遠賀町,遠賀川２丁目５番１６号,,40,384,8114307,,,,,,,2025-02-06,1,,,,,スリーフィールド,0
909,4290801031260,新規,0,2025-02-06,2025-02-06,株式会社コスメラボファクトリー,,株式会社,福岡県,北九州市八幡東区,西本町４丁目５－１９－１,,40,108,8050061,,,,,,,2025-02-06,1,,,,,コスメラボファクトリー,0
919,4330001032872,新規,0,2025-02-06,2025-02-06,ＡＤ　ＭＯＴＯＲＳＰＯＲＴＳ株式会社,,株式会社,熊本県,熊本市西区,城山半田３丁目１１番１７号,,43,103,8600064,,,,,,,2025-02-06,1,,,,,エーディーモータースポーツ,0
920,4330003010793,新規,0,2025-02-06,2025-02-06,合同会社ゆうあいファーマ,,合同会社,熊本県,熊本市中央区,国府３丁目１番１１号,,43,101,8620949,,,,,,,2025-02-06,1,,,,,ユウアイファーマ,0
922,4340003004745,新規,0,2025-02-06,2025-02-06,合同会社Ｌｃｏｍｉ,,合同会社,鹿児島県,鹿児島市,清和２丁目２２－２５,,46,201,8910109,,,,,,,2025-02-06,1,,,,,エルコミ,0
928,4370001052207,新規,0,2025-02-06,2025-02-06,株式会社大松クリーン,,株式会社,宮城県,柴田郡川崎町,大字川内字小原山１２番地９,,04,324,9891503,,,,,,,2025-02-06,1,,,,,オオマツクリーン,0
961,5010003046290,新規,0,2025-02-06,2025-02-06,ａｔｐｏｉｎｔ合同会社,,合同会社,東京都,中央区,日本橋室町１丁目１１番１２号日本橋水野ビル７階,,13,102,1030022,,,,,,,2025-02-06,1,,,,,アットポイント,0
962,5010003046299,新規,0,2025-02-06,2025-02-06,イノアス合同会社,,合同会社,東京都,中央区,銀座２丁目１０番８号マニエラ銀座ビル４階,,13,102,1040061,,,,,,,2025-02-06,1,,,,,イノアス,0
963,5010003046324,新規,0,2025-02-06,2025-02-06,ＡＩＡ上野１５合同会社,,合同会社,東京都,中央区,日本橋２丁目１番１８号,,13,102,1030027,,,,,,,2025-02-06,1,,,,,エーアイエーウエノイチゴ,0
964,5010003046332,新規,0,2025-02-06,2025-02-06,サウスリノ合同会社,,合同会社,東京都,中央区,日本橋３丁目２番１４号新槇ビル別館第一１階,,13,102,1030027,,,,,,,2025-02-06,1,,,,,サウスリノ,0
966,5010005039540,新規,0,2025-02-06,2025-02-06,未来創電加太一般社団法人,,その他の設立登記法人,東京都,千代田区,丸の内１丁目４番１号東京共同会計事務所内,,13,101,1000005,,,,,,,2025-02-06,1,,,,,ミライソウデンカダ,0
982,5010601066723,新規,0,2025-02-06,2025-02-06,株式会社ＹＫＲマネージメント,,株式会社,東京都,江東区,木場２丁目７番１０－６０６号,,13,108,1350042,,,,,,,2025-02-06,1,,,,,ワイケーアールマネージメント,0
987,5010801035800,新規,0,2025-02-06,2025-02-06,優吉製菓株式会社,,株式会社,東京都,大田区,東海３丁目７番３号東海ビル４１１室,,13,111,1430001,,,,,,,2025-02-06,1,,,,,ユウキチセイカ,0
988,5010801035825,新規,0,2025-02-06,2025-02-06,ＢＡＮＤＥ株式会社,,株式会社,東京都,大田区,昭和島１丁目６番３１号,,13,111,1430004,,,,,,,2025-02-06,1,,,,,バンデ,0
989,5010801035833,新規,0,2025-02-06,2025-02-06,Ｒｉｇｈｔｎｉｎｇ　Ｍａｎａｇｅｍｅｎｔ株式会社,,株式会社,東京都,大田区,上池台５丁目２２－１,,13,111,1450064,,,,,,,2025-02-06,1,,,,,ライトニングマネジメント,0
991,5010901056779,新規,0,2025-02-06,2025-02-06,株式会社ＭＡＲＯＮ,,株式会社,東京都,世田谷区,船橋３丁目４番７号,,13,112,1560055,,,,,,,2025-02-06,1,,,,,マロン,0
994,5011001167211,新規,0,2025-02-06,2025-02-06,株式会社カンバーズ,,株式会社,東京都,渋谷区,恵比寿４丁目４番６号ＭＡＲＩＸ恵比寿ビル６階,,13,113,1500013,,,,,,,2025-02-06,1,,,,,カンバーズ,0
995,5011001167509,新規,0,2025-02-06,2025-02-06,ｍｉｎｄ　ｐａｌａｃｅ株式会社,,株式会社,東京都,渋谷区,宇田川町３番７号ヒューリック渋谷公園通りビル５Ｆ－１１３,,13,113,1500042,,,,,,,2025-02-06,1,,,,,マインドパレス,0
996,5011001167517,新規,0,2025-02-06,2025-02-06,ＮｅｏＡｒｋ株式会社,,株式会社,東京都,渋谷区,恵比寿１丁目１５番９号日宝恵比寿ビル４０３,,13,113,1500013,,,,,,,2025-02-06,1,,,,,ネオアーク,0
997,5011001167624,新規,0,2025-02-06,2025-02-06,株式会社ＴＯＭＯＭＩ,,株式会社,東京都,渋谷区,千駄ヶ谷２丁目８番１６号ピアザＫＯＮＤＯＨ２階,,13,113,1510051,,,,,,,2025-02-06,1,,,,,トモミ,0
1000,5011101110566,新規,0,2025-02-06,2025-02-06,株式会社ＳＴＡＬＡ,,株式会社,東京都,新宿区,西新宿３丁目３番１３号西新宿水間ビル２Ｆ,,13,104,1600023,,,,,,,2025-02-06,1,,,,,スタラ,0
1003,5011103015499,新規,0,2025-02-06,2025-02-06,合同会社ｇＣ　Ｄｉｇｉｔａｌ,,合同会社,東京都,新宿区,西新宿４丁目３４番７号,,13,104,1600023,,,,,,,2025-02-06,1,,,,,ジーシーデジタル,0
1004,5011501031668,新規,0,2025-02-06,2025-02-06,株式会社Ｃｒｕｘａｌ,,株式会社,東京都,北区,滝野川７丁目２番７－２１３号藤和板橋コープ,,13,117,1140023,,,,,,,2025-02-06,1,,,,,クルーシャル,0
1005,5011503006420,新規,0,2025-02-06,2025-02-06,合同会社ＮＪｅｓｔ,,合同会社,東京都,北区,中十条１丁目２９番２号,,13,117,1140032,,,,,,,2025-02-06,1,,,,,エヌジェーエスト,0
1008,5011703004117,新規,0,2025-02-06,2025-02-06,合同会社ＡＫＡＴＳＵＫＩ,,合同会社,東京都,江戸川区,平井３丁目３０－７,,13,123,1320035,,,,,,,2025-02-06,1,,,,,アカツキ,0
1011,5011801045590,新規,0,2025-02-06,2025-02-06,株式会社Ｎｅｖｅｒ,,株式会社,東京都,足立区,綾瀬３丁目７番１１号Ｌｉｌｙ’ｓＧａｒｄｅｎ１Ｆ,,13,121,1200005,,,,,,,2025-02-06,1,,,,,ネバー,0
1013,5011803006681,新規,0,2025-02-06,2025-02-06,ＭＴ　ＮＥＸＴ合同会社,,合同会社,東京都,足立区,千住関屋町１７番４０－４１０号,,13,121,1200024,,,,,,,2025-02-06,1,,,,,エムティーネクスト,0
1014,5012403006956,新規,0,2025-02-06,2025-02-06,合同会社ｃｏｎｔｅ,,合同会社,東京都,調布市,下石原３丁目９番地９,,13,208,1820034,,,,,,,2025-02-06,1,,,,,コンテ,0
1020,5013303007532,新規,0,2025-02-06,2025-02-06,合同会社左稲右,,合同会社,東京都,豊島区,西巣鴨４丁目１３番１５号,,13,116,1700001,,,,,,,2025-02-06,1,,,,,サトウ,0
1025,5020003027645,新規,0,2025-02-06,2025-02-06,２９ｃｏｎｓｕｌｔｉｎｇ合同会社,,合同会社,神奈川県,横浜市緑区,長津田７丁目１５番３号,,14,113,2260027,,,,,,,2025-02-06,1,,,,,,0
1026,5020003027752,新規,0,2025-02-06,2025-02-06,合同会社ウィステリア,,合同会社,神奈川県,横浜市戸塚区,品濃町１７８９－１,,14,110,2440801,,,,,,,2025-02-06,1,,,,,ウィステリア,0
1028,5020005016704,新規,0,2025-02-06,2025-02-06,ＮＰＯ法人ＡＮＣＨＯＲ成年後見福祉,,その他の設立登記法人,神奈川県,川崎市麻生区,片平４丁目２２番４号,,14,137,2150023,,,,,,,2025-02-06,1,,,,,アンカーセイネンコウケンフクシ,0
1029,5021001084397,新規,0,2025-02-06,2025-02-06,株式会社ＫＫコンサルティング,,株式会社,神奈川県,藤沢市,片瀬海岸３丁目１３番５号,,14,205,2510035,,,,,,,2025-02-06,1,,,,,ケイケイコンサルティング,0
1030,5021001084422,新規,0,2025-02-06,2025-02-06,株式会社オー・エイチ・ジーコーポレーション,,株式会社,神奈川県,平塚市,西真土３丁目１３番３１―１号,,14,203,2540019,,,,,,,2025-02-06,1,,,,,オーエイチジーコーポレーション,0
1038,5030001164687,新規,0,2025-02-06,2025-02-06,株式会社ＴＡＫＥ,,株式会社,埼玉県,三郷市,谷中１４番地８２,,11,237,3410032,,,,,,,2025-02-06,1,,,,,テイク,0
1039,5030001164704,新規,0,2025-02-06,2025-02-06,株式会社アミカル,,株式会社,埼玉県,さいたま市緑区,大字大門１４６４番地８,,11,109,3360963,,,,,,,2025-02-06,1,,,,,アミカル,0
1040,5030001164729,新規,0,2025-02-06,2025-02-06,株式会社Ｍｉｌａｓｔｅａ,,株式会社,埼玉県,さいたま市桜区,田島２丁目４番２４－４０８号,,11,106,3380837,,,,,,,2025-02-06,1,,,,,ミラステア,0
1041,5030001164737,新規,0,2025-02-06,2025-02-06,株式会社ＤＳ　ｔｅｃｈ,,株式会社,埼玉県,さいたま市桜区,西堀４丁目２番１３号,,11,106,3380832,,,,,,,2025-02-06,1,,,,,ディーエステック,0
1042,5030001164745,新規,0,2025-02-06,2025-02-06,株式会社ＳＯＵＳＩＮ,,株式会社,埼玉県,川越市,仙波町３丁目２４－５,,11,201,3500034,,,,,,,2025-02-06,1,,,,,ソウシン,0
1043,5030001164753,新規,0,2025-02-06,2025-02-06,株式会社ゆうきメンテナンス,,株式会社,埼玉県,所沢市,林３丁目５５１番地の２２,,11,208,3591167,,,,,,,2025-02-06,1,,,,,ユウキメンテナンス,0
1048,5030003026027,新規,0,2025-02-06,2025-02-06,合同会社緑蝶,,合同会社,埼玉県,所沢市,緑町４丁目２０番２７号,,11,208,3591111,,,,,,,2025-02-06,1,,,,,ミドリチョウ,0
1049,5030003026043,新規,0,2025-02-06,2025-02-06,合同会社ヨコタ・サイコーポレーション,,合同会社,埼玉県,比企郡川島町,大字下大屋敷２８０番地１,,11,346,3500144,,,,,,,2025-02-06,1,,,,,ヨコタサイコーポレーション,0
1050,5030003026068,新規,0,2025-02-06,2025-02-06,合同会社Ｇｒｏｗ　ｕｐ,,合同会社,埼玉県,さいたま市岩槻区,美園東３丁目７番地９ティエラフェリス９０８,,11,110,3390028,,,,,,,2025-02-06,1,,,,,グローアップ,0
1056,5040001137279,新規,0,2025-02-06,2025-02-06,ＭＫ物流株式会社,,株式会社,千葉県,市川市,下新宿２０番１０号,,12,203,2720102,,,,,,,2025-02-06,1,,,,,エムケーブツリュウ,0
1057,5040001137287,新規,0,2025-02-06,2025-02-06,株式会社ＶＡＬＵＥ　ＰＬＵＳ,,株式会社,千葉県,柏市,東１丁目２番４５号サンライズイシド２０２,,12,217,2770014,,,,,,,2025-02-06,1,,,,,バリュープラス,0
1060,5040003026777,新規,0,2025-02-06,2025-02-06,ボタニカルアーツ合同会社,,合同会社,千葉県,長生郡長柄町,山根１４７０番地７,,12,426,2970206,,,,,,,2025-02-06,1,,,,,ボタニカルアーツ,0
1061,5040003026810,新規,0,2025-02-06,2025-02-06,合同会社グランドサクセス,,合同会社,千葉県,野田市,なみき４丁目１８番地１２,,12,208,2700229,,,,,,,2025-02-06,1,,,,,グランドサクセス,0
1063,5050001056131,新規,0,2025-02-06,2025-02-06,株式会社Ｙ’ｓ　ｆａｒｍ,,株式会社,茨城県,坂東市,生子５５３番地３,,08,228,3060504,,,,,,,2025-02-06,1,,,,,ワイエスファーム,0
1064,5050003008964,新規,0,2025-02-06,2025-02-06,合同会社大寒酒造,,合同会社,茨城県,鹿嶋市,大字平井５９５番地,,08,222,3140012,,,,,,,2025-02-06,1,,,,,オーサムブルーイング,0
1067,5060005010298,新規,0,2025-02-06,2025-02-06,一般社団法人日本ブックガイド,,その他の設立登記法人,栃木県,宇都宮市,白沢町４８７番地２,,09,201,3291102,,,,,,,2025-02-06,1,,,,,ニホンブックガイド,0
1069,5070001042609,新規,0,2025-02-06,2025-02-06,Ｍｅｒａｈ　Ｐｕｔｉｈ株式会社,,株式会社,群馬県,太田市,浜町４３番２８号,,10,205,3730853,,,,,,,2025-02-06,1,,,,,メラプティ,0
1074,5080401027729,新規,0,2025-02-06,2025-02-06,株式会社カレージプロパティーズ,,株式会社,静岡県,浜松市中央区,小池町１５６４番地の１ブライトタウン小池１４０３号室,,22,138,4350056,,,,,,,2025-02-06,1,,,,,カレージプロパティーズ,0
1079,5090001019126,新規,0,2025-02-06,2025-02-06,株式会社アーエス,,株式会社,山梨県,甲府市,上阿原町４４４－２,,19,201,4000814,,,,,,,2025-02-06,1,,,,,アーエス,0
1087,5100003007985,新規,0,2025-02-06,2025-02-06,合同会社ＡＢＢＩＯＣＣＯ,,合同会社,長野県,北佐久郡軽井沢町,大字軽井沢４８０番地,,20,321,3890102,,,,,,,2025-02-06,1,,,,,アビオッコ,0
1088,5110001039030,新規,0,2025-02-06,2025-02-06,株式会社ＣＬＡＰ,,株式会社,新潟県,村上市,松喜和１５０４番地,,15,212,9593428,,,,,,,2025-02-06,1,,,,,クラップ,0
1099,5120001272258,新規,0,2025-02-06,2025-02-06,ＰＡＲＡＧＯＮ株式会社,,株式会社,大阪府,大阪市北区,西天満４丁目１３番８号,,27,127,5300047,,,,,,,2025-02-06,1,,,,,,0
1100,5120001272480,新規,0,2025-02-06,2025-02-06,ＪＰＡＳＳ株式会社,,株式会社,大阪府,大阪市北区,中之島３丁目１－８－２Ｆ,,27,127,5300005,,,,,,,2025-02-06,1,,,,,ジェイパス,0
1101,5120001272605,新規,0,2025-02-06,2025-02-06,偉航株式会社,,株式会社,大阪府,大阪市住吉区,殿辻１丁目３番２１－４０３室,,27,120,5580042,,,,,,,2025-02-06,1,,,,,エイコウ,0
1102,5120001272654,新規,0,2025-02-06,2025-02-06,ランドマーク株式会社,,株式会社,大阪府,大阪市中央区,南船場１丁目１１番２３号長堀橋Ｚｅｎｓｈｉｎ，ＢＬＤ２０１,,27,128,5420081,,,,,,,2025-02-06,1,,,,,ランドマーク,0
1103,5120001272662,新規,0,2025-02-06,2025-02-06,株式会社採用顧問,,株式会社,大阪府,大阪市北区,梅田２丁目４－９ブリーゼタワー１階ＳＹＮＴＨ×Ｂｕｓｉｎｅｓｓ－Ａｉｒｐｏｒｔ,,27,127,5300001,,,,,,,2025-02-06,1,,,,,サイヨウコモン,0
1107,5120003028559,新規,0,2025-02-06,2025-02-06,合同会社フードビジョン,,合同会社,大阪府,大阪市淀川区,木川西３丁目１番５号プランドール新大阪サウスレジデンス４０９号,,27,123,5320013,,,,,,,2025-02-06,1,,,,,フードビジョン,0
1108,5120003028567,新規,0,2025-02-06,2025-02-06,合同会社Ｂｒｅｅ,,合同会社,大阪府,大阪市大正区,小林西２丁目５－１３,,27,108,5510013,,,,,,,2025-02-06,1,,,,,ブリー,0
1116,5120103006266,新規,0,2025-02-06,2025-02-06,合同会社Ｒｅｆｉｎｅ,,合同会社,大阪府,富田林市,大字龍泉７５６番地,,27,214,5840053,,,,,,,2025-02-06,1,,,,,リファイン,0
1130,5140001137327,新規,0,2025-02-06,2025-02-06,株式会社ｈｏｎｅｓｔ　ｗｏｒｌｄ,,株式会社,兵庫県,西宮市,南甲子園１丁目１０番２０号,,28,204,6638153,,,,,,,2025-02-06,1,,,,,オネストワールド,0
1131,5140003021628,新規,0,2025-02-06,2025-02-06,Ｎｅｘｔ　Ｄａｔａ合同会社,,合同会社,兵庫県,神戸市中央区,栄町通７丁目１－１－１３０９,,28,110,6500023,,,,,,,2025-02-06,1,,,,,ネクストデータ,0
1133,5150003003492,新規,0,2025-02-06,2025-02-06,合同会社ユニーク,,合同会社,奈良県,大和郡山市,小林町５４９番地３５,,29,203,6391026,,,,,,,2025-02-06,1,,,,,ユニーク,0
1134,5160001026536,新規,0,2025-02-06,2025-02-06,株式会社ステラ,,株式会社,滋賀県,大津市,末広町７－１大津パークビル３０１,,25,201,5200056,,,,,,,2025-02-06,1,,,,,ステラ,0
1139,5180001165167,新規,0,2025-02-06,2025-02-06,株式会社Ａｉｚａｋ,,株式会社,愛知県,名古屋市中村区,名駅３丁目４－１０アルティメイト名駅１ｓｔ２階,,23,105,4500002,,,,,,,2025-02-06,1,,,,,アイザック,0
1140,5180001165316,新規,0,2025-02-06,2025-02-06,株式会社明和管理,,株式会社,愛知県,一宮市,大和町南高井２７３０番地,,23,203,4910925,,,,,,,2025-02-06,1,,,,,メイワカンリ,0
1141,5180001165324,新規,0,2025-02-06,2025-02-06,みつばコンサルタント株式会社,,株式会社,愛知県,名古屋市中村区,則武１丁目３２番１０号,,23,105,4530014,,,,,,,2025-02-06,1,,,,,ミツバコンサルタント,0
1142,5180001165349,新規,0,2025-02-06,2025-02-06,株式会社メディコ,,株式会社,愛知県,名古屋市中川区,太平通３丁目４２番地３,,23,110,4540838,,,,,,,2025-02-06,1,,,,,メディコ,0
1146,5180005020946,新規,0,2025-02-06,2025-02-06,特定非営利活動法人スポーツ普及協会,,その他の設立登記法人,愛知県,名古屋市天白区,八幡山８３１番地,,23,116,4680074,,,,,,,2025-02-06,1,,,,,スポーツフキュウキョウカイ,0
1150,5190001031987,新規,0,2025-02-06,2025-02-06,Ａ＆Ｉ株式会社,,株式会社,三重県,鈴鹿市,稲生１丁目９番２５号,,24,207,5100205,,,,,,,2025-02-06,1,,,,,エーアンドアイ,0
1151,5190003004933,新規,0,2025-02-06,2025-02-06,合同会社Ｒｙｅ,,合同会社,三重県,伊賀市,ゆめが丘２丁目１９番地の１０,,24,216,5180131,,,,,,,2025-02-06,1,,,,,ライ,0
1152,5190005012018,新規,0,2025-02-06,2025-02-06,一般社団法人あのつ療育支援協会,,その他の設立登記法人,三重県,津市,大谷町１５６番地１ポレスター大谷町１００２,,24,201,5140007,,,,,,,2025-02-06,1,,,,,アノツリョウイクシエンキョウカイ,0
1153,5200001043411,新規,0,2025-02-06,2025-02-06,株式会社Ａｒｒｏｗｓｍｉｔｈ,,株式会社,岐阜県,岐阜市,正木中３丁目６番１－３０２号（クレール正木）,,21,201,5020882,,,,,,,2025-02-06,1,,,,,アロースミス,0
1155,5200003006688,新規,0,2025-02-06,2025-02-06,合同会社ＰＡＰＡＳ,,合同会社,岐阜県,高山市,塩屋町１５１７番地１,,21,203,5060813,,,,,,,2025-02-06,1,,,,,パパス,0
1156,5210001020054,新規,0,2025-02-06,2025-02-06,水鏡株式会社,,株式会社,福井県,福井市,宝永２丁目８番９号,,18,201,9100004,,,,,,,2025-02-06,1,,,,,スイキョウ,0
1160,5240001064494,新規,0,2025-02-06,2025-02-06,株式会社時久建装,,株式会社,広島県,安芸郡海田町,畝１丁目６番１５号,,34,304,7360005,,,,,,,2025-02-06,1,,,,,トキヒサケンソウ,0
1161,5240003007047,新規,0,2025-02-06,2025-02-06,合同会社Ｒ’ｃｏｍｐａｎｙ,,合同会社,広島県,福山市,津之郷町大字加屋１５０番地５,,34,207,7200842,,,,,,,2025-02-06,1,,,,,アールカンパニー,0
1162,5240003007055,新規,0,2025-02-06,2025-02-06,合同会社Ｒｅ．Ｍａｔｅ,,合同会社,広島県,広島市西区,三滝町１８番１０号,,34,104,7330005,,,,,,,2025-02-06,1,,,,,リメイト,0
1165,5250001020991,新規,0,2025-02-06,2025-02-06,株式会社Ｈａｎｎａ,,株式会社,山口県,宇部市,南浜町２丁目６番１２号,,35,202,7550063,,,,,,,2025-02-06,1,,,,,ハンナ,0
1168,5260001039890,新規,0,2025-02-06,2025-02-06,ＫＳＪ９株式会社,,株式会社,岡山県,岡山市北区,錦町１番１号岡山駅前ビル４階,,33,101,7000902,,,,,,,2025-02-06,1,,,,,ケイエスジェーナイン,0
1176,5290001108866,新規,0,2025-02-06,2025-02-06,株式会社Ｂｅａｒ＆Ｂｕｌｌ　Ｒｅａｌ　Ｅｓｔａｔｅ,,株式会社,福岡県,福岡市中央区,春吉２丁目８‐９‐２０９号,,40,133,8100003,,,,,,,2025-02-06,1,,,,,ベアアンドブルリアルエステート,0
1181,5290003016340,新規,0,2025-02-06,2025-02-06,合同会社ＳＡＸｉＡ,,合同会社,福岡県,福岡市博多区,堅粕４丁目１番２０号シャーメゾンエール博多２０３,,40,132,8120043,,,,,,,2025-02-06,1,,,,,サクシア,0
1182,5290003016365,新規,0,2025-02-06,2025-02-06,合同会社ヒカリ,,合同会社,福岡県,大川市,大字鬼古賀１３７番地１０,,40,212,8310024,,,,,,,2025-02-06,1,,,,,ヒカリ,0
1183,5290003016381,新規,0,2025-02-06,2025-02-06,ＵＰ　ＣＯＭＰＡＮＹ合同会社,,合同会社,福岡県,福岡市博多区,博多駅前３丁目２７番２５号第二岡部ビル９Ｆ,,40,132,8120011,,,,,,,2025-02-06,1,,,,,アップカンパニー,0
1191,5320003004572,新規,0,2025-02-06,2025-02-06,トップアルミ合同会社,,合同会社,大分県,速見郡日出町,９６５番地５,,44,341,8791506,,,,,,,2025-02-06,1,,,,,トップアルミ,0
1192,5330001032863,新規,0,2025-02-06,2025-02-06,株式会社ＰａＰａＬＡＢＯ,,株式会社,熊本県,荒尾市,大正町１丁目２番３号,,43,204,8640054,,,,,,,2025-02-06,1,,,,,パパラボ,0
1199,5360003014667,新規,0,2025-02-06,2025-02-06,合同会社豊ファーム,,合同会社,沖縄県,石垣市,字大浜１７１１番地２,,47,207,9070001,,,,,,,2025-02-06,1,,,,,ユタカファーム,0
1201,5370003006928,新規,0,2025-02-06,2025-02-06,合同会社ＰＦＦ,,合同会社,宮城県,富谷市,成田７丁目１９－７,,04,216,9813341,,,,,,,2025-02-06,1,,,,,ピーエフエフ,0
1206,5390001017875,新規,0,2025-02-06,2025-02-06,株式会社はしりやファーム,,株式会社,山形県,南陽市,椚塚１４６番地の１,,06,213,9992221,,,,,,,2025-02-06,1,,,,,ハシリヤファーム,0
1208,5420003003060,新規,0,2025-02-06,2025-02-06,Ｔｒｕｓｔ　Ａｃｃ合同会社,,合同会社,青森県,南津軽郡藤崎町,大字榊字和田２１番地１６,,02,361,0381216,,,,,,,2025-02-06,1,,,,,トラストアック,0
1209,5430001093648,新規,0,2025-02-06,2025-02-06,株式会社オフィスｋ,,株式会社,北海道,札幌市白石区,本郷通４丁目北１番１７号１０２号,,01,104,0030025,,,,,,,2025-02-06,1,,,,,オフィスケイ,0
1212,5430003017233,新規,0,2025-02-06,2025-02-06,ＡＧＲＯ　ＨＯＵＳＥ合同会社,,合同会社,北海道,日高郡新ひだか町,三石西端１６７番地の２,,01,610,0592571,,,,,,,2025-02-06,1,,,,,アグロハウス,0
1213,5440001009561,新規,0,2025-02-06,2025-02-06,ｉ‐ｔｒｙ株式会社,,株式会社,北海道,函館市,榎本町２２番１０号,,01,202,0420931,,,,,,,2025-02-06,1,,,,,アイトライ,0
1233,6010001251973,新規,0,2025-02-06,2025-02-06,株式会社ＫＩＪＵＮ,,株式会社,東京都,中央区,銀座４丁目１４－８ＶＯＲＴ銀座イーストＩＩＩ５Ｆ,00137917,13,102,1040061,,,,,,,2025-02-06,1,,,,,キジュン,0
1234,6010001252047,新規,0,2025-02-06,2025-02-06,ワールドビューティー株式会社,,株式会社,東京都,中央区,銀座２丁目１２番１１号下嶋ビル７Ｆ,,13,102,1040061,,,,,,,2025-02-06,1,,,,,ワールドビューティー,0
1235,6010001252063,新規,0,2025-02-06,2025-02-06,ＭＢＦアクセラレーション株式会社,,株式会社,東京都,千代田区,丸の内１丁目１１番１号パシフィックセンチュリープレイス丸の内,,13,101,1000005,,,,,,,2025-02-06,1,,,,,エムビーエフアクセラレーション,0
1239,6010003046315,新規,0,2025-02-06,2025-02-06,ＡＩＡ上野０７合同会社,,合同会社,東京都,中央区,日本橋２丁目１番１８号,,13,102,1030027,,,,,,,2025-02-06,1,,,,,エーアイエーウエノゼロナナ,0
1240,6010005039531,新規,0,2025-02-06,2025-02-06,クレジット・ギャランティ１１号一般社団法人,,その他の設立登記法人,東京都,千代田区,内神田１丁目３番７号４０１あすな会計事務所内,,13,101,1010047,,,,,,,2025-02-06,1,,,,,クレジットギャランティジュウイチゴウ,0
1241,6010101016509,新規,0,2025-02-06,2025-02-06,株式会社ゼンシン,,株式会社,東京都,八王子市,新町２－５コスモリード八王子１Ｆ・２Ｆ,,13,201,1920065,,,,,,,2025-02-06,1,,,,,ゼンシン,0
1242,6010105002323,新規,0,2025-02-06,2025-02-06,ＮＰＯ法人Ｂｉｇ　Ｆｏｒｅｓｔ,,その他の設立登記法人,東京都,八王子市,高尾町１５９６番地２,,13,201,1930844,,,,,,,2025-02-06,1,,,,,ビックフォレスト,0
1258,6010701047218,新規,0,2025-02-06,2025-02-06,株式会社ホロスプロフェッショナルギルド,,株式会社,東京都,品川区,東五反田１丁目２１番１０号,,13,109,1410022,,,,,,,2025-02-06,1,,,,,ホロスプロフェッショナルギルド,0
1260,6010801035790,新規,0,2025-02-06,2025-02-06,多夢株式会社,,株式会社,東京都,大田区,東海３丁目７番３号東海ビル４１２室,,13,111,1430001,,,,,,,2025-02-06,1,,,,,タム,0
1263,6010903009692,新規,0,2025-02-06,2025-02-06,合同会社Ｐａｌｍｅ,,合同会社,東京都,世田谷区,上用賀３丁目１８番１６号,,13,112,1580098,,,,,,,2025-02-06,1,,,,,パルム,0
1264,6011001167516,新規,0,2025-02-06,2025-02-06,株式会社ａｎｙ,,株式会社,東京都,渋谷区,神南１丁目１１－４ＦＰＧリンクス神南５階,,13,113,1500041,,,,,,,2025-02-06,1,,,,,エニー,0
1265,6011005010853,新規,0,2025-02-06,2025-02-06,一般社団法人日本若者キャリア支援協会,,その他の設立登記法人,東京都,渋谷区,道玄坂１丁目１０番８号渋谷道玄坂東急ビル２Ｆ－Ｃ,,13,113,1500043,,,,,,,2025-02-06,1,,,,,ニホンワカモノキャリアシエンキョウカイ,0
1268,6011101110532,新規,0,2025-02-06,2025-02-06,株式会社ビージェイワークフロー,,株式会社,東京都,新宿区,西新宿１丁目４番１１号全研プラザビル２Ｆ,,13,104,1600023,,,,,,,2025-02-06,1,,,,,ビージェイワークフロー,0
1270,6011103015498,新規,0,2025-02-06,2025-02-06,合同会社ＳＨ　ＭＵＳＩＣ,,合同会社,東京都,新宿区,西新宿３丁目３番１３号西新宿水間ビル２Ｆ,,13,104,1600023,,,,,,,2025-02-06,1,,,,,エスエイチミュージック,0
1271,6011105011330,新規,0,2025-02-06,2025-02-06,税理士法人小林Ａｃｃｏｕｎｔｉｎｇ　Ｏｆｆｉｃｅ,,その他の設立登記法人,東京都,新宿区,四谷１丁目１３番地,,13,104,1600004,,,,,,,2025-02-06,1,,,,,コバヤシアカウンティングオフィス,0
1272,6011301030324,新規,0,2025-02-06,2025-02-06,株式会社新和,,株式会社,東京都,杉並区,今川１丁目１６番１５号ＩｍａｇａｗａＭｉｄＧａｒｄｅｎＳｕｉｔｅ１１２,,13,115,1670035,,,,,,,2025-02-06,1,,,,,シンワ,0
1273,6011401026775,新規,0,2025-02-06,2025-02-06,株式会社ゆくえ,,株式会社,東京都,板橋区,成増１丁目３５番３－５０６号成増ハウス,,13,119,1750094,,,,,,,2025-02-06,1,,,,,ユクエ,0
1274,6011501031659,新規,0,2025-02-06,2025-02-06,無尽蔵株式会社,,株式会社,東京都,荒川区,南千住３丁目２７－２浅草ビル５０８,,13,118,1160003,,,,,,,2025-02-06,1,,,,,ムジンゾウ,0
1275,6011501031675,新規,0,2025-02-06,2025-02-06,株式会社神谷工業,,株式会社,東京都,北区,赤羽２丁目５４番８－１０２号室,,13,117,1150045,,,,,,,2025-02-06,1,,,,,カミヤコウギョウ,0
1278,6011801045581,新規,0,2025-02-06,2025-02-06,株式会社ルナソル,,株式会社,東京都,足立区,西新井栄町１丁目１８番１－１３１７号,,13,121,1230843,,,,,,,2025-02-06,1,,,,,ルナソル,0
1282,6012403006955,新規,0,2025-02-06,2025-02-06,ＫＯＫ合同会社,,合同会社,東京都,調布市,飛田給２丁目３３番地１朝日プラザ西調布３０８,,13,208,1820036,,,,,,,2025-02-06,1,,,,,ケイオーケイ,0
1302,6021001084396,新規,0,2025-02-06,2025-02-06,ナカムラ商會株式会社,,株式会社,神奈川県,横須賀市,秋谷４２３４番地,,14,201,2400105,,,,,,,2025-02-06,1,,,,,ナカムラショウカイ,0
1306,6030001164736,新規,0,2025-02-06,2025-02-06,株式会社マーケットマスターズ,,株式会社,埼玉県,さいたま市大宮区,北袋町２丁目７番地２２,,11,103,3300835,,,,,,,2025-02-06,1,,,,,マーケットマスターズ,0
1307,6030001164752,新規,0,2025-02-06,2025-02-06,株式会社Ｎｉｘ,,株式会社,埼玉県,さいたま市浦和区,針ヶ谷３丁目８番８号,,11,107,3300075,,,,,,,2025-02-06,1,,,,,ニックス,0
1308,6030001164769,新規,0,2025-02-06,2025-02-06,株式会社ナリッシュ,,株式会社,埼玉県,川口市,西川口１丁目５－５ＭＦハイツ３０６号,,11,203,3320021,,,,,,,2025-02-06,1,,,,,ナリッシュ,0
1310,6030003026042,新規,0,2025-02-06,2025-02-06,ＺｅｎＴｅｃｈ　Ｓｏｌｕｔｉｏｎｓ合同会社,,合同会社,埼玉県,吉川市,大字吉川１６３４番地７,,11,243,3420055,,,,,,,2025-02-06,1,,,,,ゼンテックソリューションズ,0
1311,6030003026059,新規,0,2025-02-06,2025-02-06,合同会社ＡｓｕＮａｒｏ,,合同会社,埼玉県,坂戸市,大字北峰２９４番地６,,11,239,3500258,,,,,,,2025-02-06,1,,,,,アスナロ,0
1316,6040001137146,新規,0,2025-02-06,2025-02-06,筧田商事株式会社,,株式会社,千葉県,富里市,七栄１３２番地１７８,,12,233,2860221,,,,,,,2025-02-06,1,,,,,トイダショウジ,0
1317,6040001137278,新規,0,2025-02-06,2025-02-06,株式会社Ｐｈｙｓｉｃａｌ　Ｍｅｄｉｃａｒｅ,,株式会社,千葉県,船橋市,前原西２丁目２１番５号三興ビル５階,,12,204,2740825,,,,,,,2025-02-06,1,,,,,フィジカルメディケア,0
1318,6040001137294,新規,0,2025-02-06,2025-02-06,株式会社ＣＡＬＵＷＡＨＯ　ＯＳＳＹＲＯＢＥＢＥ　ＥＮＴＥＲＴＡＩＮＭＥＮＴ,,株式会社,千葉県,香取市,八日市場９００番地４,,12,236,2890311,,,,,,,2025-02-06,1,,,,,カルワホオシロビンビエンターテイメント,0
1322,6040003026636,新規,0,2025-02-06,2025-02-06,合同会社Ｋａｉｌａｓ,,合同会社,千葉県,柏市,逆井５丁目１－１,,12,217,2770042,,,,,,,2025-02-06,1,,,,,カイラス,0
1323,6040003026784,新規,0,2025-02-06,2025-02-06,合同会社Ｒ．Ｖ．Ｓ．Ｄｏ,,合同会社,千葉県,船橋市,高根台５丁目１番２５８棟３０１号,,12,204,2740065,,,,,,,2025-02-06,1,,,,,リヴサッド,0
1324,6040003026792,新規,0,2025-02-06,2025-02-06,合同会社ハルヤ,,合同会社,千葉県,木更津市,大久保５丁目５番９号,,12,206,2920815,,,,,,,2025-02-06,1,,,,,ハルヤ,0
1327,6060003005415,新規,0,2025-02-06,2025-02-06,Ｍｒ．ＪＡＰＡＮ合同会社,,合同会社,栃木県,足利市,大前町８３７番地２泰信ビル１０３号室,,09,202,3260845,,,,,,,2025-02-06,1,,,,,ミスタージャパン,0
1333,6070003005777,新規,0,2025-02-06,2025-02-06,合同会社スズキ,,合同会社,群馬県,前橋市,堀越町１６７９番地５,,10,201,3710231,,,,,,,2025-02-06,1,,,,,スズキ,0
1335,6080103003250,新規,0,2025-02-06,2025-02-06,合同会社アウトバーン,,合同会社,静岡県,伊豆市,柏久保１２８８,,22,222,4102407,,,,,,,2025-02-06,1,,,,,,0
1337,6090001019125,新規,0,2025-02-06,2025-02-06,株式会社駅,,株式会社,山梨県,甲州市,勝沼町菱山２５６８番地,,19,213,4091302,,,,,,,2025-02-06,1,,,,,ステーション,0
1351,6120001272604,新規,0,2025-02-06,2025-02-06,連覇株式会社,,株式会社,大阪府,大阪市住之江区,御崎１丁目１１－１９－２１５,,27,125,5590013,,,,,,,2025-02-06,1,,,,,レンバー,0
1352,6120001272661,新規,0,2025-02-06,2025-02-06,株式会社創生活サポート,,株式会社,大阪府,大阪市東成区,大今里西１丁目２９番３号,,27,115,5370014,,,,,,,2025-02-06,1,,,,,ソウセイカツサポート,0
1353,6120001272711,新規,0,2025-02-06,2025-02-06,株式会社Ｂｅａｕｔｉｏｎ,,株式会社,大阪府,大阪市北区,梅田１丁目２番２号大阪駅前第２ビル１２－１２,,27,127,5300001,,,,,,,2025-02-06,1,,,,,ビューション,0
1355,6120003028558,新規,0,2025-02-06,2025-02-06,合同会社ＹＵＳ,,合同会社,大阪府,大阪市浪速区,日本橋４丁目８番１１号２Ｆ,,27,111,5560005,,,,,,,2025-02-06,1,,,,,ユース,0
1356,6120005024778,新規,0,2025-02-06,2025-02-06,一般財団法人滋慶グループ奨学財団,,その他の設立登記法人,大阪府,大阪市中央区,北浜東１番７号,,27,128,5400031,,,,,,,2025-02-06,1,,,,,ジケイグループショウガクザイダン,0
1357,6120101071006,新規,0,2025-02-06,2025-02-06,株式会社Ｌ．Ｓ,,株式会社,大阪府,河内長野市,木戸２丁目２９番５５号,,27,216,5860001,,,,,,,2025-02-06,1,,,,,エルエス,0
1360,6120901050398,新規,0,2025-02-06,2025-02-06,株式会社Ｇｏ不動産,,株式会社,大阪府,摂津市,千里丘１丁目１４番５号,,27,224,5660001,,,,,,,2025-02-06,1,,,,,ゴーフドウサン,0
1370,6130003010192,新規,0,2025-02-06,2025-02-06,合同会社Ｍａｐｌｅ,,合同会社,京都府,京田辺市,興戸北落延１番地６,,26,211,6100332,,,,,,,2025-02-06,1,,,,,メープル,0
1376,6140001137284,新規,0,2025-02-06,2025-02-06,株式会社ハローバー,,株式会社,兵庫県,たつの市,誉田町片吹２６９－３,,28,229,6794137,,,,,,,2025-02-06,1,,,,,ハローバー,0
1377,6140001137301,新規,0,2025-02-06,2025-02-06,梓析株式会社,,株式会社,兵庫県,神戸市中央区,山本通４丁目２６番２５－４号アベニューＫＯＢＥ山本通り４０４,,28,110,6500003,,,,,,,2025-02-06,1,,,,,アズササク,0
1378,6140001137318,新規,0,2025-02-06,2025-02-06,株式会社エースオート,,株式会社,兵庫県,西宮市,甲子園口３丁目２６－２２,,28,204,6638113,,,,,,,2025-02-06,1,,,,,エースオート,0
1379,6140001137326,新規,0,2025-02-06,2025-02-06,株式会社シィメスプラス,,株式会社,兵庫県,神戸市西区,森友４丁目３０,,28,111,6512132,,,,,,,2025-02-06,1,,,,,シィメスプラス,0
1380,6140001137334,新規,0,2025-02-06,2025-02-06,株式会社アイリット,,株式会社,兵庫県,伊丹市,荒牧１丁目１６番１６号,,28,207,6640001,,,,,,,2025-02-06,1,,,,,アイリット,0
1384,6140003021619,新規,0,2025-02-06,2025-02-06,合同会社それでも,,合同会社,兵庫県,伊丹市,北伊丹８丁目１０番地６アクトステージ伊丹６３７号,,28,207,6640831,,,,,,,2025-02-06,1,,,,,ソレデモ,0
1388,6150001027856,新規,0,2025-02-06,2025-02-06,株式会社Ｊ＆Ｊ,,株式会社,奈良県,橿原市,内膳町１丁目４番１１号,,29,205,6340804,,,,,,,2025-02-06,1,,,,,ジェイアンドジェイ,0
1389,6150001027864,新規,0,2025-02-06,2025-02-06,株式会社和顔施,,株式会社,奈良県,奈良市,神殿町５５６番地の４０,,29,201,6308441,,,,,,,2025-02-06,1,,,,,ワガンセ,0
1404,6180001165307,新規,0,2025-02-06,2025-02-06,株式会社ＧＥＭＢＡ,,株式会社,愛知県,名古屋市昭和区,鶴舞１丁目２番３２号,,23,107,4660064,,,,,,,2025-02-06,1,,,,,ゲンバ,0
1405,6180001165315,新規,0,2025-02-06,2025-02-06,株式会社由建,,株式会社,愛知県,名古屋市守山区,廿軒家３３番５号－２,,23,113,4630065,,,,,,,2025-02-06,1,,,,,ヨシケン,0
1411,6180003027959,新規,0,2025-02-06,2025-02-06,合同会社グッドフィールドジャパン・サポート,,合同会社,愛知県,名古屋市名東区,野間町２５番地の２,,23,115,4650056,,,,,,,2025-02-06,1,,,,,グッドフィールドジャパンサポート,0
1412,6180003027967,新規,0,2025-02-06,2025-02-06,合同会社ナゴテック,,合同会社,愛知県,名古屋市北区,下飯田町４丁目９番地,,23,103,4620865,,,,,,,2025-02-06,1,,,,,ナゴテック,0
1414,6180303006448,新規,0,2025-02-06,2025-02-06,合同会社ＫＨアセットマネジメント,,合同会社,愛知県,豊川市,八幡町下天王３０番地,,23,207,4420857,,,,,,,2025-02-06,1,,,,,ケイエイチアセットマネジメント,0
1415,6180305009655,新規,0,2025-02-06,2025-02-06,一般財団法人幸田町学校給食会,,その他の設立登記法人,愛知県,額田郡幸田町,大字菱池字桜塚１８０番地,,23,501,4440113,,,,,,,2025-02-06,1,,,,,コウタチョウガッコウキュウショクカイ,0
1417,6190005012017,新規,0,2025-02-06,2025-02-06,ＭＮＳ社会保険労務士法人,,その他の設立登記法人,三重県,津市,久居持川町２２２４番地２４,,24,201,5141104,,,,,,,2025-02-06,1,,,,,エムエヌエス,0
1419,6200001043410,新規,0,2025-02-06,2025-02-06,株式会社ハチマル,,株式会社,岐阜県,中津川市,福岡１６１８番地２,,21,206,5080203,,,,,,,2025-02-06,1,,,,,ハチマル,0
1428,6250003003647,新規,0,2025-02-06,2025-02-06,合同会社ｍｉｎｏｒｉ,,合同会社,山口県,防府市,敷山町３９―１１,,35,206,7470006,,,,,,,2025-02-06,1,,,,,ミノリ,0
1438,6290001108873,新規,0,2025-02-06,2025-02-06,ＳＴＯＫＥ株式会社,,株式会社,福岡県,福岡市中央区,西公園４番４７－６０３号,,40,133,8100061,,,,,,,2025-02-06,1,,,,,ストーク,0
1448,6330001032862,新規,0,2025-02-06,2025-02-06,株式会社ナカノエイレント,,株式会社,熊本県,荒尾市,西原町３丁目５６番地,,43,204,8640053,,,,,,,2025-02-06,1,,,,,ナカノエイレント,0
1449,6330001032870,新規,0,2025-02-06,2025-02-06,株式会社ＵＰ　ＴＯＰ,,株式会社,熊本県,熊本市東区,小峯２丁目１番９８号,,43,102,8620933,,,,,,,2025-02-06,1,,,,,アップトップ,0
1459,6360003014666,新規,0,2025-02-06,2025-02-06,森田快適工房合同会社,,合同会社,沖縄県,うるま市,字栄野比１６１番地１ハピネス３０１号室,,47,213,9042205,,,,,,,2025-02-06,1,,,,,モリタカイテキコウボウ,0
1465,6370001052213,新規,0,2025-02-06,2025-02-06,株式会社ＳＳＳ,,株式会社,宮城県,仙台市太白区,長町南２丁目５番２１号,,04,104,9820012,,,,,,,2025-02-06,1,,,,,エスエスエス,0
1470,6390001017874,新規,0,2025-02-06,2025-02-06,リアルティ株式会社,,株式会社,山形県,山形市,飯田３丁目２番４号,,06,201,9902332,,,,,,,2025-02-06,1,,,,,リアルティ,0
1480,6440001009560,新規,0,2025-02-06,2025-02-06,北海道海洋事業企画株式会社,,株式会社,北海道,函館市,末広町１８番２号,,01,202,0400053,,,,,,,2025-02-06,1,,,,,ホッカイドウカイヨウジギョウキカク,0
1484,6450001014527,新規,0,2025-02-06,2025-02-06,北界観光開発株式会社,,株式会社,北海道,旭川市,神居町富沢２３３番地の３,,01,204,0708024,,,,,,,2025-02-06,1,,,,,ホッカイカンコウカイハツ,0
1485,6450005004441,新規,0,2025-02-06,2025-02-06,一般社団法人ワオリハ,,その他の設立登記法人,北海道,旭川市,五条通１１丁目１７２６番地の１,,01,204,0700035,,,,,,,2025-02-06,1,,,,,,0
1486,6460001005970,新規,0,2025-02-06,2025-02-06,株式会社ルミナス・レイ,,株式会社,北海道,釧路市,阿寒町旭町２丁目５番１９号,,01,206,0850212,,,,,,,2025-02-06,1,,,,,ルミナスレイ,0
1488,6460301005274,新規,0,2025-02-06,2025-02-06,株式会社長尾農産,,株式会社,北海道,斜里郡斜里町,字川上８９番地,,01,545,0994143,,,,,,,2025-02-06,1,,,,,ナガオノウサン,0
1495,7010001251650,新規,0,2025-02-06,2025-02-06,株式会社プラチナム看護八丁堀,,株式会社,東京都,中央区,八丁堀３丁目２８番１４号飯田ビル２階,,13,102,1040032,,,,,,,2025-02-06,1,,,,,プラチナムカンゴハッチョウボリ,0
1496,7010001251972,新規,0,2025-02-06,2025-02-06,ＫｅａＭ株式会社,,株式会社,東京都,中央区,銀座４丁目１４－８ＶＯＲＴ銀座イーストＩＩＩ５Ｆ,00137916,13,102,1040061,,,,,,,2025-02-06,1,,,,,キーム,0
1497,7010001252062,新規,0,2025-02-06,2025-02-06,株式会社Ｗｏｒｌｄ　Ｔｒａｄｉｎｇ,,株式会社,東京都,中央区,八丁堀１丁目３番７号双鶴八重洲ビル,,13,102,1040032,,,,,,,2025-02-06,1,,,,,ワールドトレーディング,0
1500,7010003046248,新規,0,2025-02-06,2025-02-06,Ｓ＆Ｈ合同会社,,合同会社,東京都,中央区,銀座１丁目１２－４Ｎ＆ＥＢＬＤ．７階,,13,102,1040061,,,,,,,2025-02-06,1,,,,,エスアンドエイチ,0
1501,7010003046297,新規,0,2025-02-06,2025-02-06,合同会社ＮＯ　ＬＡＺＥ　ＴＥＡＭ,,合同会社,東京都,中央区,銀座１丁目１２－４Ｎ＆ＥＢＬＤ．７階,,13,102,1040061,,,,,,,2025-02-06,1,,,,,ノーレイズティーム,0
1502,7010003046314,新規,0,2025-02-06,2025-02-06,ＡＩＡ上野０６合同会社,,合同会社,東京都,中央区,日本橋２丁目１番１８号,,13,102,1030027,,,,,,,2025-02-06,1,,,,,エーアイエーウエノゼロロク,0
1503,7010003046322,新規,0,2025-02-06,2025-02-06,ＡＩＡ上野１３合同会社,,合同会社,東京都,中央区,日本橋２丁目１番１８号,,13,102,1030027,,,,,,,2025-02-06,1,,,,,エーアイエーウエノイチサン,0
1504,7010003046330,新規,0,2025-02-06,2025-02-06,ＨＣ　ＴＵＲＦ合同会社,,合同会社,東京都,千代田区,内神田１丁目３番７号４０１あすな会計事務所内,,13,101,1010047,,,,,,,2025-02-06,1,,,,,エイチシーターフ,0
1506,7010005039506,新規,0,2025-02-06,2025-02-06,社会保険労務士法人ＭＥＩＪＩ,,その他の設立登記法人,東京都,中央区,日本橋２丁目９番４号ＶＯＲＴ日本橋Ｉビル３Ｆ,00137922,13,102,1030027,,,,,,,2025-02-06,1,,,,,メイジ,0
1507,7010005039539,新規,0,2025-02-06,2025-02-06,ＤＲＦ２号一般社団法人,,その他の設立登記法人,東京都,千代田区,丸の内１丁目４番１号東京共同会計事務所内,,13,101,1000005,,,,,,,2025-02-06,1,,,,,ディーアールエフニゴウ,0
1517,7010405024041,新規,0,2025-02-06,2025-02-06,弁護士法人ＳＡＩＬ,,その他の設立登記法人,東京都,港区,赤坂５丁目２番３３号ＩｓａＩＡｋａｓａｋＡ９０９,,13,103,1070052,,,,,,,2025-02-06,1,,,,,セイル,0
1520,7010503007724,新規,0,2025-02-06,2025-02-06,ＪＵＮ　ｃｏｒｐｏｒａｔｉｏｎ合同会社,,合同会社,東京都,台東区,清川２丁目２５番１０号,,13,106,1110022,,,,,,,2025-02-06,1,,,,,ジュンコーポレーション,0
1528,7010901056777,新規,0,2025-02-06,2025-02-06,スタジオＦＩＳＨ　ＢＯＮＥ株式会社,,株式会社,東京都,世田谷区,奥沢２丁目１９番５号,,13,112,1580083,,,,,,,2025-02-06,1,,,,,スタジオフィッシュボーン,0
1533,7011001167614,新規,0,2025-02-06,2025-02-06,株式会社ＮＡＴＩＶＥ,,株式会社,東京都,渋谷区,南平台町７番１５号,,13,113,1500036,,,,,,,2025-02-06,1,,,,,ネイティブ,0
1536,7011003020894,新規,0,2025-02-06,2025-02-06,バリューアンドアドバイザリー合同会社,,合同会社,東京都,渋谷区,道玄坂１丁目１０番８号渋谷道玄坂東急ビル２Ｆ－Ｃ,,13,113,1500043,,,,,,,2025-02-06,1,,,,,バリューアンドアドバイザリー,0
1539,7011101110515,新規,0,2025-02-06,2025-02-06,株式会社ａｄｄｓｉｘ,,株式会社,東京都,新宿区,新宿１丁目３６番２号新宿第七葉山ビル３階,,13,104,1600022,,,,,,,2025-02-06,1,,,,,アドシックス,0
1540,7011101110531,新規,0,2025-02-06,2025-02-06,株式会社ＥｔｏＳ,,株式会社,東京都,新宿区,西新宿３丁目３番１３号西新宿水間ビル２Ｆ,,13,104,1600023,,,,,,,2025-02-06,1,,,,,エトス,0
1542,7011201026108,新規,0,2025-02-06,2025-02-06,株式会社あさいち商店,,株式会社,東京都,中野区,江原町３丁目２８番３号,,13,114,1650023,,,,,,,2025-02-06,1,,,,,アサイチショウテン,0
1543,7011501031658,新規,0,2025-02-06,2025-02-06,アイザワ株式会社,,株式会社,東京都,荒川区,南千住３丁目２７－２浅草ビル５０８,,13,118,1160003,,,,,,,2025-02-06,1,,,,,アイザワ,0
1546,7011701028041,新規,0,2025-02-06,2025-02-06,桂佳祺株式会社,,株式会社,東京都,江戸川区,西小岩５丁目１２－１６ＫＵＲＡＳＳＫＯＩＷＡ・１Ｂ,,13,123,1330057,,,,,,,2025-02-06,1,,,,,ケイカキ,0
1552,7012701018692,新規,0,2025-02-06,2025-02-06,イノシス株式会社,,株式会社,東京都,西東京市,東町２丁目３番１７号,,13,229,2020012,,,,,,,2025-02-06,1,,,,,イノシス,0
1560,7020001161213,新規,0,2025-02-06,2025-02-06,株式会社ヨクスル,,株式会社,神奈川県,川崎市中原区,木月１丁目５番７－３０２号ステラマリス,,14,133,2110025,,,,,,,2025-02-06,1,,,,,ヨクスル,0
1565,7021001084387,新規,0,2025-02-06,2025-02-06,サイバーガード株式会社,,株式会社,神奈川県,相模原市南区,相武台２丁目２番１３号エトワール１０１,,14,153,2520324,,,,,,,2025-02-06,1,,,,,サイバーガード,0
1566,7021001084420,新規,0,2025-02-06,2025-02-06,株式会社あずみ,,株式会社,神奈川県,大和市,中央林間３丁目３番５号,,14,213,2420007,,,,,,,2025-02-06,1,,,,,アズミ,0
1575,7030001164735,新規,0,2025-02-06,2025-02-06,株式会社エヌフォーケイ,,株式会社,埼玉県,さいたま市見沼区,大字中川３３０番地５,,11,104,3370043,,,,,,,2025-02-06,1,,,,,エヌフォーケイ,0
1576,7030001164743,新規,0,2025-02-06,2025-02-06,株式会社ＴＯＫＩＷＡ,,株式会社,埼玉県,さいたま市浦和区,高砂３丁目９番１３－７０３号,,11,107,3300063,,,,,,,2025-02-06,1,,,,,トキワ,0
1577,7030001164751,新規,0,2025-02-06,2025-02-06,株式会社宮城企画,,株式会社,埼玉県,川口市,大字東本郷１５１１番地１６,,11,203,3340063,,,,,,,2025-02-06,1,,,,,ミヤギキカク,0
1579,7030003026058,新規,0,2025-02-06,2025-02-06,ＥＲＩＫＡ合同会社,,合同会社,埼玉県,さいたま市浦和区,常盤６丁目２番１３号２階,,11,107,3300061,,,,,,,2025-02-06,1,,,,,エリカ,0
1580,7030003026066,新規,0,2025-02-06,2025-02-06,ハシモト合同会社,,合同会社,埼玉県,川口市,並木３丁目１３番４号ダイドービル２番館４０４号室,,11,203,3320034,,,,,,,2025-02-06,1,,,,,ハシモト,0
1585,7040001137285,新規,0,2025-02-06,2025-02-06,株式会社ＳＥＥＤ,,株式会社,千葉県,船橋市,藤原６丁目３３番７号,,12,204,2730047,,,,,,,2025-02-06,1,,,,,シード,0
1586,7040001137293,新規,0,2025-02-06,2025-02-06,株式会社ＨＳＲ,,株式会社,千葉県,船橋市,西習志野１丁目１２番５号,,12,204,2740815,,,,,,,2025-02-06,1,,,,,エイチエスアール,0
1587,7040001137310,新規,0,2025-02-06,2025-02-06,株式会社リラヴィ,,株式会社,千葉県,船橋市,旭町５丁目１８番８号,,12,204,2730041,,,,,,,2025-02-06,1,,,,,リラヴィ,0
1591,7040003026791,新規,0,2025-02-06,2025-02-06,ＶＮ高山合同会社,,合同会社,千葉県,松戸市,古ケ崎２丁目３０９３番地１０,,12,207,2710068,,,,,,,2025-02-06,1,,,,,ブイエヌタカヤマ,0
1592,7050001056138,新規,0,2025-02-06,2025-02-06,古河シティ株式会社,,株式会社,茨城県,古河市,西牛谷１１９４番地ビバリーハイツ２０１号室,,08,204,3060233,,,,,,,2025-02-06,1,,,,,コガシティ,0
1598,7070001042607,新規,0,2025-02-06,2025-02-06,株式会社ブレンテラス,,株式会社,群馬県,太田市,南矢島町８５０番地,,10,205,3730861,,,,,,,2025-02-06,1,,,,,ブレンテラス,0
1601,7080001026740,新規,0,2025-02-06,2025-02-06,株式会社ＬＩＦＥｗｉｔｈ＆Ｃｏ．,,株式会社,静岡県,静岡市葵区,北安東１丁目１１番２２号,,22,101,4200881,,,,,,,2025-02-06,1,,,,,ライフウィズアンドコー,0
1603,7090003002739,新規,0,2025-02-06,2025-02-06,アークフロッグ合同会社,,合同会社,山梨県,甲斐市,宇津谷４３５９番地,,19,210,4000108,,,,,,,2025-02-06,1,,,,,アークフロッグ,0
1606,7100001038279,新規,0,2025-02-06,2025-02-06,株式会社古森林業,,株式会社,長野県,東筑摩郡朝日村,大字西洗馬１２３１番地５,,20,451,3901101,,,,,,,2025-02-06,1,,,,,フルモリリンギョウ,0
1608,7100003007983,新規,0,2025-02-06,2025-02-06,春富アグリワークス合同会社,,合同会社,長野県,伊那市,東春近１７１５番地４,,20,209,3994432,,,,,,,2025-02-06,1,,,,,ハルトミアグリワークス,0
1610,7110001039037,新規,0,2025-02-06,2025-02-06,株式会社ルシエルブル,,株式会社,新潟県,新潟市北区,松浜新町２０番１９号,,15,101,9503115,,,,,,,2025-02-06,1,,,,,ルシエルブル,0
1619,7120001272644,新規,0,2025-02-06,2025-02-06,稔瑞技建株式会社,,株式会社,大阪府,大阪市生野区,小路２丁目２３番１号,,27,116,5440002,,,,,,,2025-02-06,1,,,,,トシミズギケン,0
1620,7120001272677,新規,0,2025-02-06,2025-02-06,エスリードアパートメント株式会社,,株式会社,大阪府,大阪市福島区,福島６丁目２５番１９号,,27,103,5530003,,,,,,,2025-02-06,1,,,,,エスリードアパートメント,0
1625,7120003028499,新規,0,2025-02-06,2025-02-06,合同会社Ａ．Ｃ．Ｓ,,合同会社,大阪府,大阪市中央区,東心斎橋１丁目９－１２,,27,128,5420083,,,,,,,2025-02-06,1,,,,,エーシーエス,0
1626,7120003028524,新規,0,2025-02-06,2025-02-06,ＮＨＡＴ　ＨＵＹ合同会社,,合同会社,大阪府,大阪市浪速区,敷津西１丁目５－１２中原ビル５１号,,27,111,5560015,,,,,,,2025-02-06,1,,,,,ニャットフイ,0
1627,7120005024777,新規,0,2025-02-06,2025-02-06,一般社団法人宝燈会,,その他の設立登記法人,大阪府,大阪市西区,土佐堀１丁目２番２４－１８０５号,,27,106,5500001,,,,,,,2025-02-06,1,,,,,ホウトウカイ,0
1628,7120101071005,新規,0,2025-02-06,2025-02-06,ＪＯＭ株式会社,,株式会社,大阪府,泉大津市,旭町４番１３号,,27,206,5950025,,,,,,,2025-02-06,1,,,,,ジェイオーエム,0
1632,7120901050397,新規,0,2025-02-06,2025-02-06,株式会社オフィスゼンシン,,株式会社,大阪府,高槻市,南平台３丁目２３番１号,,27,207,5691042,,,,,,,2025-02-06,1,,,,,オフィスゼンシン,0
1636,7130001078933,新規,0,2025-02-06,2025-02-06,株式会社アソビデイズ,,株式会社,京都府,京都市右京区,西院西高田町３２－５,,26,108,6150032,,,,,,,2025-02-06,1,,,,,アソビデイズ,0
1642,7140001137325,新規,0,2025-02-06,2025-02-06,株式会社ＫＩＲ,,株式会社,兵庫県,神戸市中央区,北長狭通２丁目８－５阿部ビル,,28,110,6500012,,,,,,,2025-02-06,1,,,,,キール,0
1647,7150001027855,新規,0,2025-02-06,2025-02-06,株式会社ＤＡＩＷＡ　ＣＲＡＦＴ,,株式会社,奈良県,香芝市,畑４丁目１１１番３号,,29,210,6390245,,,,,,,2025-02-06,1,,,,,ダイワクラフト,0
1656,7180001165314,新規,0,2025-02-06,2025-02-06,株式会社七電気,,株式会社,愛知県,名古屋市守山区,太田井４番６１号,,23,113,4630044,,,,,,,2025-02-06,1,,,,,ナナデンキ,0
1657,7180001165322,新規,0,2025-02-06,2025-02-06,株式会社ＬＯＫセーフティーネット,,株式会社,愛知県,名古屋市中川区,四女子町１丁目２２番地,,23,110,4540822,,,,,,,2025-02-06,1,,,,,エルオーケイセーフティーネット,0
1658,7180001165339,新規,0,2025-02-06,2025-02-06,株式会社サンクリエイブ,,株式会社,愛知県,江南市,古知野町朝日１０３番地,,23,217,4838213,,,,,,,2025-02-06,1,,,,,サンクリエイブ,0
1659,7180001165347,新規,0,2025-02-06,2025-02-06,株式会社ＰＯＮＯ,,株式会社,愛知県,名古屋市昭和区,川原通３丁目４番地の１,,23,107,4660853,,,,,,,2025-02-06,1,,,,,ポノ,0
1660,7180001165355,新規,0,2025-02-06,2025-02-06,株式会社ＳＫＫ,,株式会社,愛知県,春日井市,下市場町４丁目４－１１,,23,206,4860852,,,,,,,2025-02-06,1,,,,,エスケイケイ,0
1663,7180003027958,新規,0,2025-02-06,2025-02-06,合同会社ＦＭＬ,,合同会社,愛知県,長久手市,市が洞１丁目３１１番地,,23,238,4801147,,,,,,,2025-02-06,1,,,,,エフエムエル,0
1665,7180301039498,新規,0,2025-02-06,2025-02-06,科能株式会社,,株式会社,愛知県,碧南市,須磨町１番地３４,,23,209,4470854,,,,,,,2025-02-06,1,,,,,カノウ,0
1680,7240001064501,新規,0,2025-02-06,2025-02-06,株式会社エスポア,,株式会社,広島県,広島市南区,宇品東２丁目８番２５号,,34,103,7340003,,,,,,,2025-02-06,1,,,,,エスポア,0
1682,7240003007045,新規,0,2025-02-06,2025-02-06,合同会社アイビーモ,,合同会社,広島県,福山市,神辺町新道上１６－７－３０１,,34,207,7210000,,,,,,,2025-02-06,1,,,,,アイビーモ,0
1704,7330001032861,新規,0,2025-02-06,2025-02-06,株式会社山川工務店,,株式会社,熊本県,荒尾市,宮内出目２１０番地９,,43,204,8640003,,,,,,,2025-02-06,1,,,,,ヤマカワコウムテン,0
1709,7340003004742,新規,0,2025-02-06,2025-02-06,合同会社ＳｉｇａＳｉｇａ,,合同会社,鹿児島県,日置市,伊集院町徳重３９８－４,,46,216,8992502,,,,,,,2025-02-06,1,,,,,シガシガ,0
1713,7360003014657,新規,0,2025-02-06,2025-02-06,合同会社高良組,,合同会社,沖縄県,国頭郡本部町,字辺名地５１６番地１,,47,308,9050224,,,,,,,2025-02-06,1,,,,,タカラグミ,0
1714,7360003014665,新規,0,2025-02-06,2025-02-06,合同会社ジンベエ,,合同会社,沖縄県,沖縄市,諸見里１丁目６番２６号タケモト店舗３階,,47,211,9040032,,,,,,,2025-02-06,1,,,,,ジンベエ,0
1721,7390001017873,新規,0,2025-02-06,2025-02-06,株式会社宗邑,,株式会社,山形県,西置賜郡飯豊町,大字小白川５９番地の１,,06,403,9991113,,,,,,,2025-02-06,1,,,,,ソウユウ,0
1722,7420001019008,新規,0,2025-02-06,2025-02-06,ＩＳ総建株式会社,,株式会社,青森県,上北郡六ヶ所村,大字尾駮字二又３１番地,,02,411,0393212,,,,,,,2025-02-06,1,,,,,アイエスソウケン,0
1726,7430001093605,新規,0,2025-02-06,2025-02-06,株式会社Ｄ‐ＢＲＩＤＧＥ,,株式会社,北海道,札幌市東区,北二十八条東１８丁目２番１４号,,01,103,0650028,,,,,,,2025-02-06,1,,,,,ディーブリッジ,0
1734,7470001020563,新規,0,2025-02-06,2025-02-06,株式会社ＬＩＭ,,株式会社,香川県,仲多度郡まんのう町,四條４３２番地１,,37,406,7660021,,,,,,,2025-02-06,1,,,,,リム,0
1735,7470001020571,新規,0,2025-02-06,2025-02-06,グリーン交通株式会社,,株式会社,香川県,高松市,上福岡町７１８番地９,,37,201,7600077,,,,,,,2025-02-06,1,,,,,グリーンコウツウ,0
1736,7470005006600,新規,0,2025-02-06,2025-02-06,一般社団法人ＣＣＦ‐ＫＡＧＡＷＡ,,その他の設立登記法人,香川県,高松市,香川町川東上６３６番地７９,,37,201,7611706,,,,,,,2025-02-06,1,,,,,シーシーエフカガワ,0
1741,7500003003430,新規,0,2025-02-06,2025-02-06,Ｆｉｅｌｄ　Ｈｉｌｌ合同会社,,合同会社,愛媛県,松山市,久万ノ台１２２３番地４,,38,201,7918016,,,,,,,2025-02-06,1,,,,,フィールドヒル,0
1742,7700150129099,新規,0,2025-02-06,2025-02-06,Ａ．Ｃ．Ｌ．ＴＲＡＤＩＮＧ,,外国会社等,千葉県,山武市,木原１４００番地オフィス８,,12,237,2891212,スリランカ民主社会主義共和国、キャンディ、マハイヤワロード、Ｎｏ．９／２,,,,,,2025-02-06,1,,,,,エーシーエルトレーデイング,0
1748,8010001252045,新規,0,2025-02-06,2025-02-06,株式会社日本ＲＣＲ,,株式会社,東京都,千代田区,四番町２番地１クレール東郷坂１Ｆ,,13,101,1020081,,,,,,,2025-02-06,1,,,,,ニッポンアールシーアール,0
1749,8010001252053,新規,0,2025-02-06,2025-02-06,株式会社Ｕｚｕｍｉｂｉ,,株式会社,東京都,中央区,日本橋室町１丁目２番６号日本橋大栄ビル７階,,13,102,1030022,,,,,,,2025-02-06,1,,,,,ウズミビ,0
1750,8010001252086,新規,0,2025-02-06,2025-02-06,株式会社ｇｏａｌｌ,,株式会社,東京都,文京区,本郷１丁目２１番５号第四太平ビル６階,,13,105,1130033,,,,,,,2025-02-06,1,,,,,ゴール,0
1755,8010003046239,新規,0,2025-02-06,2025-02-06,わたたたるお合同会社,,合同会社,東京都,中央区,勝どき４丁目６－１－２５２９,,13,102,1040054,,,,,,,2025-02-06,1,,,,,ワタタタルオ,0
1756,8010003046296,新規,0,2025-02-06,2025-02-06,Ｃｈｏｏｕｅｔｔｅ合同会社,,合同会社,東京都,中央区,勝どき５丁目３番１－４１１５号,,13,102,1040054,,,,,,,2025-02-06,1,,,,,シュエット,0
1757,8010003046305,新規,0,2025-02-06,2025-02-06,合同会社ヴェルデリアルプロパティー,,合同会社,東京都,千代田区,平河町１丁目８番２号,,13,101,1020093,,,,,,,2025-02-06,1,,,,,ヴェルデリアルプロパティー,0
1758,8010003046313,新規,0,2025-02-06,2025-02-06,ＡＩＡ上野０５合同会社,,合同会社,東京都,中央区,日本橋２丁目１番１８号,,13,102,1030027,,,,,,,2025-02-06,1,,,,,エーアイエーウエノゼロゴ,0
1759,8010003046321,新規,0,2025-02-06,2025-02-06,ＡＩＡ上野１２合同会社,,合同会社,東京都,中央区,日本橋２丁目１番１８号,,13,102,1030027,,,,,,,2025-02-06,1,,,,,エーアイエーウエノイチニ,0
1760,8010005039513,新規,0,2025-02-06,2025-02-06,一般財団法人トーア・リ８５周年記念財団,,その他の設立登記法人,東京都,千代田区,神田駿河台３丁目６番地の５,,13,101,1010062,,,,,,,2025-02-06,1,,,,,トーアリハチジュウゴシュウネンキネンザイダン,0
1774,8010501053587,新規,0,2025-02-06,2025-02-06,株式会社トゥーアンドコー,,株式会社,東京都,台東区,上野６丁目１番６号御徒町グリーンハイツ１００５号,,13,106,1100005,,,,,,,2025-02-06,1,,,,,トゥーアンドコー,0
1778,8010703007556,新規,0,2025-02-06,2025-02-06,合同会社圭華,,合同会社,東京都,品川区,旗の台６丁目１７番４号,,13,109,1420064,,,,,,,2025-02-06,1,,,,,ケイカ,0
1792,8011001167489,新規,0,2025-02-06,2025-02-06,株式会社ＣａｒＯｗｎｅｒｓＣｌｕｂ,,株式会社,東京都,渋谷区,渋谷２丁目１９－１５宮益坂ビルディング６０９,,13,113,1500002,,,,,,,2025-02-06,1,,,,,カーオーナーズクラブ,0
1794,8011003020893,新規,0,2025-02-06,2025-02-06,ＹＣＰ合同会社,,合同会社,東京都,目黒区,中目黒１丁目１番６５－５０１号フラワーマンション,,13,110,1530061,,,,,,,2025-02-06,1,,,,,ワイシーピー,0
1795,8011005010851,新規,0,2025-02-06,2025-02-06,一般社団法人日本ＤＡＮＣＥ機構,,その他の設立登記法人,東京都,渋谷区,神宮前６丁目２３番４号桑野ビル２Ｆ,,13,113,1500001,,,,,,,2025-02-06,1,,,,,ニホンダンスキコウ,0
1799,8011101110555,新規,0,2025-02-06,2025-02-06,株式会社ジェイ・ケイ・ケイ,,株式会社,東京都,新宿区,下宮比町１番４号,,13,104,1620822,,,,,,,2025-02-06,1,,,,,ジェイケイケイ,0
1801,8011103015513,新規,0,2025-02-06,2025-02-06,ボイヤマ合同会社,,合同会社,東京都,新宿区,新宿１丁目３６番２号新宿第七葉山ビル３階,,13,104,1600022,,,,,,,2025-02-06,1,,,,,ボイヤマ,0
1806,8011501031657,新規,0,2025-02-06,2025-02-06,雅礼株式会社,,株式会社,東京都,荒川区,荒川２丁目３２番１１－２０３号,,13,118,1160002,,,,,,,2025-02-06,1,,,,,ゲレイ,0
1807,8011601028413,新規,0,2025-02-06,2025-02-06,株式会社Ｕ‐ＧＥＮＩＥ,,株式会社,東京都,練馬区,光が丘７丁目３番４－３０３号,,13,120,1790072,,,,,,,2025-02-06,1,,,,,ユージニ,0
1808,8011603004602,新規,0,2025-02-06,2025-02-06,合同会社神盾,,合同会社,東京都,練馬区,練馬１丁目４０番１４号,,13,120,1760001,,,,,,,2025-02-06,1,,,,,カミタテ,0
1811,8012401042744,新規,0,2025-02-06,2025-02-06,サクセサイン株式会社,,株式会社,東京都,武蔵野市,吉祥寺東町３丁目９番１１号,,13,203,1800002,,,,,,,2025-02-06,1,,,,,サクセサイン,0
1818,8020001161245,新規,0,2025-02-06,2025-02-06,株式会社Ｒａｙ,,株式会社,神奈川県,横浜市緑区,長津田５丁目２番５１号ボナヴィスタ２０３,,14,113,2260027,,,,,,,2025-02-06,1,,,,,レイ,0
1821,8020003027733,新規,0,2025-02-06,2025-02-06,合同会社ＬｉＴＫＹ,,合同会社,神奈川県,川崎市中原区,新丸子東１丁目８４３番地２グリーンヒル武蔵小杉３０２,,14,133,2110004,,,,,,,2025-02-06,1,,,,,リトキー,0
1825,8021001084386,新規,0,2025-02-06,2025-02-06,株式会社エッジワーク,,株式会社,神奈川県,相模原市中央区,中央６丁目９番３号ルオーラ相模原中央５０４,,14,152,2520239,,,,,,,2025-02-06,1,,,,,エッジワーク,0
1830,8030001164701,新規,0,2025-02-06,2025-02-06,株式会社明智国際,,株式会社,埼玉県,蕨市,中央４丁目２２番４号平田マンション１階,,11,223,3350004,,,,,,,2025-02-06,1,,,,,メイチコクサイ,0
1831,8030001164767,新規,0,2025-02-06,2025-02-06,株式会社ＰＵＤＥＬ,,株式会社,埼玉県,久喜市,菖蒲町三箇６２０４番地７,,11,232,3460104,,,,,,,2025-02-06,1,,,,,プデル,0
1842,8040001137292,新規,0,2025-02-06,2025-02-06,株式会社Ｗｅｌｌ　Ｂｅｉｎｇ,,株式会社,千葉県,四街道市,内黒田１５７番地１８,,12,228,2840013,,,,,,,2025-02-06,1,,,,,ウェルビーイング,0
1843,8040001137318,新規,0,2025-02-06,2025-02-06,株式会社令和,,株式会社,千葉県,君津市,戸崎１５９３番地６,,12,225,2920441,,,,,,,2025-02-06,1,,,,,,0
1852,8040003026709,新規,0,2025-02-06,2025-02-06,ＨＫ合同会社,,合同会社,千葉県,流山市,大字東深井２４２番地の１１アンビルマンションＢ１０６,,12,220,2700101,,,,,,,2025-02-06,1,,,,,エイチケイ,0
1853,8040003026790,新規,0,2025-02-06,2025-02-06,エンクレイヴ・コンサルティング合同会社,,合同会社,千葉県,いすみ市,岬町押日４１４７番地３,,12,238,2994622,,,,,,,2025-02-06,1,,,,,エンクレイブコンサルティング,0
1855,8050003008994,新規,0,2025-02-06,2025-02-06,Ｒ．Ｏ　ＴＲＡＤＩＮＧ合同会社,,合同会社,茨城県,筑西市,横塚９１７－２,,08,227,3091116,,,,,,,2025-02-06,1,,,,,アールオートレーディング,0
1856,8050003009010,新規,0,2025-02-06,2025-02-06,セカンドユース合同会社,,合同会社,茨城県,那珂郡東海村,大字舟石川６１０番地１,,08,341,3191111,,,,,,,2025-02-06,1,,,,,セカンドユース,0
1866,8090003002713,新規,0,2025-02-06,2025-02-06,合同会社ＣＬＶ,,合同会社,山梨県,甲府市,堀之内町８４０－１,,19,201,4000056,,,,,,,2025-02-06,1,,,,,シーエルブイ,0
1871,8110001039028,新規,0,2025-02-06,2025-02-06,株式会社ＡＫ,,株式会社,新潟県,新潟市西区,内野西が丘１丁目１番２０号,,15,107,9502157,,,,,,,2025-02-06,1,,,,,エーケー,0
1872,8110001039036,新規,0,2025-02-06,2025-02-06,ＵＮＤＥＲ　ＧＲＯＵＮＤ株式会社,,株式会社,新潟県,長岡市,中興野２７１番地１,,15,202,9540131,,,,,,,2025-02-06,1,,,,,アンダーグラウンド,0
1886,8120001272610,新規,0,2025-02-06,2025-02-06,ＬＶ＆パートナーズ株式会社,,株式会社,大阪府,大阪市福島区,吉野１丁目１６番１５号エルブ福島９０１号室,,27,103,5530006,,,,,,,2025-02-06,1,,,,,エルブイアンドパートナーズ,0
1887,8120001272676,新規,0,2025-02-06,2025-02-06,株式会社吉田工業,,株式会社,大阪府,門真市,四宮２丁目４番３号,,27,223,5710017,,,,,,,2025-02-06,1,,,,,ヨシダコウギョウ,0
1888,8120001272718,新規,0,2025-02-06,2025-02-06,西京株式会社,,株式会社,大阪府,大阪市東成区,中本３丁目８番２１号５０２号室,,27,115,5370022,,,,,,,2025-02-06,1,,,,,サイキョウ,0
1890,8120003028556,新規,0,2025-02-06,2025-02-06,合同会社スイングエクスパート,,合同会社,大阪府,交野市,郡津４丁目１番５号,,27,230,5760053,,,,,,,2025-02-06,1,,,,,スイングエクスパート,0
1893,8120101070996,新規,0,2025-02-06,2025-02-06,ちぐさ不動産株式会社,,株式会社,大阪府,堺市西区,鳳北町８丁４４５番地４,,27,144,5938328,,,,,,,2025-02-06,1,,,,,チグサフドウサン,0
1896,8122001038875,新規,0,2025-02-06,2025-02-06,株式会社ＫＥＮＳＨＩＮ,,株式会社,大阪府,東大阪市,新池島町１丁目１７番３号,,27,227,5798065,,,,,,,2025-02-06,1,,,,,ケンシン,0
1899,8130001078924,新規,0,2025-02-06,2025-02-06,株式会社エルティス,,株式会社,京都府,宇治市,大久保町田原３２番地の１パデシオン大久保１００１号,,26,204,6110033,,,,,,,2025-02-06,1,,,,,エルティス,0
1900,8130001078965,新規,0,2025-02-06,2025-02-06,オオカミファーム株式会社,,株式会社,京都府,福知山市,字市寺１２２７番地,,26,201,6200939,,,,,,,2025-02-06,1,,,,,オオカミファーム,0
1902,8130003010190,新規,0,2025-02-06,2025-02-06,合同会社総合臨床科学,,合同会社,京都府,京都市北区,上賀茂菖蒲園町６９番地５,,26,101,6038064,,,,,,,2025-02-06,1,,,,,ソウゴウリンショウカガク,0
1903,8130005017283,新規,0,2025-02-06,2025-02-06,一般社団法人ＦＵＮＡＯＫＡＹＡＭＡ　ＣＯＭＭＯＮＳＨＩＰ,,その他の設立登記法人,京都府,京都市北区,紫野南舟岡町８６番地４,,26,101,6038225,,,,,,,2025-02-06,1,,,,,フナオカヤマコモンシップ,0
1907,8140001137316,新規,0,2025-02-06,2025-02-06,株式会社真珠卸問屋,,株式会社,兵庫県,神戸市中央区,加納町２丁目８番１０－５０５号,,28,110,6500001,,,,,,,2025-02-06,1,,,,,シンジュオロシドンヤ,0
1908,8140003021625,新規,0,2025-02-06,2025-02-06,合同会社ひろとよ,,合同会社,兵庫県,神戸市垂水区,舞多聞東１丁目１番３号,,28,108,6550052,,,,,,,2025-02-06,1,,,,,ヒロトヨ,0
1914,8160001026525,新規,0,2025-02-06,2025-02-06,株式会社ファーストポート,,株式会社,滋賀県,草津市,志那町９７５番地,,25,206,5250005,,,,,,,2025-02-06,1,,,,,ファーストポート,0
1917,8180001165305,新規,0,2025-02-06,2025-02-06,株式会社フリューリンク１０,,株式会社,愛知県,名古屋市西区,稲生町７丁目１２番地,,23,104,4510012,,,,,,,2025-02-06,1,,,,,フリューリンクテン,0
1918,8180001165321,新規,0,2025-02-06,2025-02-06,株式会社ＬＡＳＴ,,株式会社,愛知県,名古屋市中村区,名駅３丁目４番１０号,,23,105,4500002,,,,,,,2025-02-06,1,,,,,ラスト,0
1920,8180005020943,新規,0,2025-02-06,2025-02-06,特定非営利活動法人セカンドオピニオン提供支援機構,,その他の設立登記法人,愛知県,名古屋市中区,丸の内３丁目１６番１１号丸の内パークマンション２０３号室,,23,106,4600002,,,,,,,2025-02-06,1,,,,,セカンドオピニオンテイキョウシエンキコウ,0
1925,8190001031976,新規,0,2025-02-06,2025-02-06,株式会社ザイオン,,株式会社,三重県,津市,大門１８番７号２Ｆ,,24,201,5140027,,,,,,,2025-02-06,1,,,,,ザイオン,0
1932,8240001064483,新規,0,2025-02-06,2025-02-06,株式会社曙殖産,,株式会社,広島県,広島市南区,猿猴橋町４番５号,,34,103,7320823,,,,,,,2025-02-06,1,,,,,アケボノショクサン,0
1933,8240001064500,新規,0,2025-02-06,2025-02-06,株式会社ツインスピリッツ,,株式会社,広島県,広島市中区,幟町１２－１,,34,101,7300016,,,,,,,2025-02-06,1,,,,,ツインスピリッツ,0
1935,8260001039888,新規,0,2025-02-06,2025-02-06,株式会社元氣村農園,,株式会社,岡山県,瀬戸内市,長船町東須恵１３７３番地５,,33,212,7014262,,,,,,,2025-02-06,1,,,,,ゲンキムラノウエン,0
1937,8290001108797,新規,0,2025-02-06,2025-02-06,株式会社Ｌｉｇａｒｅ,,株式会社,福岡県,福岡市早良区,荒江３丁目１２番３２号,,40,137,8140021,,,,,,,2025-02-06,1,,,,,リガーレ,0
1940,8290003016379,新規,0,2025-02-06,2025-02-06,合同会社Ｕｎｃｏｎｄｉｔｉｏｎａｌｌｙ,,合同会社,福岡県,福岡市早良区,祖原１番３号,,40,137,8140005,,,,,,,2025-02-06,1,,,,,アンコンディショナリー,0
1944,8310001019439,新規,0,2025-02-06,2025-02-06,デザインワーク・デジマ株式会社,,株式会社,長崎県,長崎市,出島町２番１１号出島交流会館９階,,42,201,8500862,,,,,,,2025-02-06,1,,,,,デザインワークデジマ,0
1946,8330003010773,新規,0,2025-02-06,2025-02-06,合同会社あざみ,,合同会社,熊本県,熊本市東区,錦ケ丘９番９－４０２号錦ヶ丘マンション,,43,102,8620912,,,,,,,2025-02-06,1,,,,,アザミ,0
1951,8360003014656,新規,0,2025-02-06,2025-02-06,合同会社ＳＫＹ,,合同会社,沖縄県,石垣市,字真栄里１３０番地３,,47,207,9070002,,,,,,,2025-02-06,1,,,,,スカイ,0
1957,8390001017872,新規,0,2025-02-06,2025-02-06,株式会社吉五郎ファーム,,株式会社,山形県,東田川郡庄内町,返吉字屋敷田４５番地５,,06,428,9997741,,,,,,,2025-02-06,1,,,,,キチゴロウファーム,0
1967,8430001093637,新規,0,2025-02-06,2025-02-06,株式会社セキュア札幌,,株式会社,北海道,札幌市西区,西野一条４丁目１番１号,,01,107,0630031,,,,,,,2025-02-06,1,,,,,セキュアサッポロ,0
1971,8440003001662,新規,0,2025-02-06,2025-02-06,合同会社さいしんささき家,,合同会社,北海道,函館市,富岡町１丁目５５番１号,,01,202,0410811,,,,,,,2025-02-06,1,,,,,サイシンササキヤ,0
1973,8700150129098,新規,0,2025-02-06,2025-02-06,Ｃ．Ｃ．Ｔ．ＴＲＡＤＩＮＧ,,外国会社等,千葉県,山武市,木原１４００番地オフィス２,,12,237,2891212,スリランカ民主社会主義共和国、キャンディ、アンバテンナ、ムッレガマ、Ｎｏ．１２／４,,,,,,2025-02-06,1,,,,,シーシーテイトレーデイング,0
1980,9010001252060,新規,0,2025-02-06,2025-02-06,立石商事株式会社,,株式会社,東京都,文京区,音羽１丁目２３番１２号第一晃和堂ビル４２０号室,,13,105,1120013,,,,,,,2025-02-06,1,,,,,タテイシショウジ,0
1981,9010003046304,新規,0,2025-02-06,2025-02-06,令和瑞芳合同会社,,合同会社,東京都,千代田区,神田須田町１丁目７番８号ＶＯＲＴ秋葉原ＩＶ２Ｆ,00137915,13,101,1010041,,,,,,,2025-02-06,1,,,,,レイワズイホウ,0
1982,9010003046312,新規,0,2025-02-06,2025-02-06,ＡＩＡ上野０４合同会社,,合同会社,東京都,中央区,日本橋２丁目１番１８号,,13,102,1030027,,,,,,,2025-02-06,1,,,,,エーアイエーウエノゼロヨン,0
1983,9010003046320,新規,0,2025-02-06,2025-02-06,ＡＩＡ上野１１合同会社,,合同会社,東京都,中央区,日本橋２丁目１番１８号,,13,102,1030027,,,,,,,2025-02-06,1,,,,,エーアイエーウエノイチイチ,0
1984,9010003046329,新規,0,2025-02-06,2025-02-06,合同会社ＰＪＧ１,,合同会社,東京都,千代田区,内神田１丁目３番７号４０１あすな会計事務所内,,13,101,1010047,,,,,,,2025-02-06,1,,,,,ピージェイジーワン,0
1985,9010005039529,新規,0,2025-02-06,2025-02-06,一般社団法人永楽町,,その他の設立登記法人,東京都,千代田区,丸の内１丁目４番１号東京共同会計事務所内,,13,101,1000005,,,,,,,2025-02-06,1,,,,,エイラクチョウ,0
1993,9010401188111,新規,0,2025-02-06,2025-02-06,株式会社ＡＥＬ,,株式会社,東京都,港区,南青山４丁目２０番１９号,,13,103,1070062,,,,,,,2025-02-06,1,,,,,エーイーエル,0
1999,9010405024031,新規,0,2025-02-06,2025-02-06,浮体式洋上風力建設システム技術研究組合,,その他の設立登記法人,東京都,港区,赤坂３丁目３番５号住友生命山王ビル８階,,13,103,1070052,,,,,,,2025-02-06,1,,,,,フタイシキヨウジョウフウリョクケンセツシステム,0
2016,9011001167430,新規,0,2025-02-06,2025-02-06,株式会社Ｃｏｍｒａｄｅｓ　Ｐｒｏｊｅｃｔ,,株式会社,東京都,渋谷区,千駄ヶ谷１丁目５番８号ジュニアー千駄ヶ谷ビル３Ｆ,,13,113,1510051,,,,,,,2025-02-06,1,,,,,コムリズプロジェクト,0
2017,9011001167653,新規,0,2025-02-06,2025-02-06,株式会社誠報社,,株式会社,東京都,渋谷区,渋谷２丁目１９―１５宮益坂ビルディング６０９,,13,113,1500002,,,,,,,2025-02-06,1,,,,,セイホウシャ,0
2018,9011003020892,新規,0,2025-02-06,2025-02-06,ＪＯＹＦＵＬＰＯＴＳ合同会社,,合同会社,東京都,渋谷区,神宮前６丁目２３－４桑野ビル２階,,13,113,1500001,,,,,,,2025-02-06,1,,,,,ジョイフルポッツ,0
2020,9011101110513,新規,0,2025-02-06,2025-02-06,Ｍｏｎｅｙ　Ｗｉｔｈ株式会社,,株式会社,東京都,新宿区,新宿１丁目１６番１０号,,13,104,1600022,,,,,,,2025-02-06,1,,,,,マネーウィズ,0
2024,9011401026797,新規,0,2025-02-06,2025-02-06,マツダビジネスパートナー株式会社,,株式会社,東京都,板橋区,大山西町３番１２号,,13,119,1730033,,,,,,,2025-02-06,1,,,,,マツダビジネスパートナー,0
2025,9011403004611,新規,0,2025-02-06,2025-02-06,合同会社ｓａｐｉｅｎｓ,,合同会社,東京都,板橋区,大山金井町１４－１ｔｅｒｒａｓａｏｙａｍａ２Ａ,,13,119,1730024,,,,,,,2025-02-06,1,,,,,サピエンス,0
2026,9011501031672,新規,0,2025-02-06,2025-02-06,絆洋菓子株式会社,,株式会社,東京都,荒川区,東日暮里２丁目４９－９マイキャッスル鶯谷１０６号室,,13,118,1160014,,,,,,,2025-02-06,1,,,,,キズナヨウガシ,0
2031,9011801045579,新規,0,2025-02-06,2025-02-06,ＭＥＮＯＵ株式会社,,株式会社,東京都,葛飾区,東四つ木４丁目４３－１３－３０７号ライオンズマンション葛飾渋江公園,,13,122,1240014,,,,,,,2025-02-06,1,,,,,メノウ,0
2035,9012703003195,新規,0,2025-02-06,2025-02-06,ウェブブリッジ合同会社,,合同会社,東京都,東久留米市,滝山５丁目１９番１２号,,13,222,2030033,,,,,,,2025-02-06,1,,,,,ウェブブリッジ,0
2036,9012803003624,新規,0,2025-02-06,2025-02-06,合同会社ａｌｐｈａ,,合同会社,東京都,国分寺市,本町２丁目１２番４号ユーリービル３Ｆ,,13,214,1850012,,,,,,,2025-02-06,1,,,,,アルファ,0
2039,9020001161368,新規,0,2025-02-06,2025-02-06,株式会社ハルシナリオ,,株式会社,神奈川県,横浜市港北区,日吉１丁目９－３,,14,109,2230061,,,,,,,2025-02-06,1,,,,,ハルシナリオ,0
2052,9020003027732,新規,0,2025-02-06,2025-02-06,Ｌｉｇｈｔ　ｍｅ合同会社,,合同会社,神奈川県,横浜市神奈川区,三ツ沢中町四丁目２０番ブルーアクア－２０１,,14,102,2210851,,,,,,,2025-02-06,1,,,,,ライトミー,0
2053,9021001084402,新規,0,2025-02-06,2025-02-06,株式会社優西興業,,株式会社,神奈川県,鎌倉市,常盤３４９番地１１,,14,204,2480022,,,,,,,2025-02-06,1,,,,,ユウセイコウギョウ,0
2057,9021003015553,新規,0,2025-02-06,2025-02-06,ｓｑｕａｉｒ合同会社,,合同会社,神奈川県,鎌倉市,由比ガ浜２丁目１４番２１号マリンヒルズ由比ガ浜１０２,,14,204,2480014,,,,,,,2025-02-06,1,,,,,スクエアー,0
2063,9030001164733,新規,0,2025-02-06,2025-02-06,株式会社ネクスドライブ,,株式会社,埼玉県,さいたま市大宮区,宮町２丁目９３－２,,11,103,3300802,,,,,,,2025-02-06,1,,,,,ネクスドライブ,0
2064,9030001164766,新規,0,2025-02-06,2025-02-06,株式会社３．Ｌｉｆｅ,,株式会社,埼玉県,鴻巣市,北新宿４２番地１,,11,217,3690116,,,,,,,2025-02-06,1,,,,,サンライフ,0
2065,9030003026031,新規,0,2025-02-06,2025-02-06,合同会社エレクティ,,合同会社,埼玉県,上尾市,須ケ谷１丁目１４０番地,,11,219,3620004,,,,,,,2025-02-06,1,,,,,エレクティ,0
2066,9030005022029,新規,0,2025-02-06,2025-02-06,特定非営利活動法人防災機器開発研究会,,その他の設立登記法人,埼玉県,秩父市,中村町２丁目６番地２１号,,11,207,3680051,,,,,,,2025-02-06,1,,,,,ボウサイキキカイハツケンキュウカイ,0
2069,9040001137317,新規,0,2025-02-06,2025-02-06,株式会社ＣａＣＳ,,株式会社,千葉県,市川市,新田３丁目１番１１号２０１,,12,203,2720035,,,,,,,2025-02-06,1,,,,,シーエーシーエス,0
2071,9040003026781,新規,0,2025-02-06,2025-02-06,合同会社小川,,合同会社,千葉県,船橋市,栄町１丁目２２番２６号,,12,204,2730018,,,,,,,2025-02-06,1,,,,,オガワ,0
2072,9040003026798,新規,0,2025-02-06,2025-02-06,合同会社ＲＩＳＥ,,合同会社,千葉県,富津市,下飯野２７６２番地,,12,226,2930006,,,,,,,2025-02-06,1,,,,,,0
2077,9060005010303,新規,0,2025-02-06,2025-02-06,一般社団法人Ｕｔｓｕｎｏｍｉｙａ　Ｍｕｓｌｉｍ　Ａｓｓｏｃｉａｔｉｏｎ,,その他の設立登記法人,栃木県,河内郡上三川町,大字ゆうきが丘９３番地５,,09,301,3290528,,,,,,,2025-02-06,1,,,,,ウツノミヤムスリムアソシエイション,0
2078,9070001042613,新規,0,2025-02-06,2025-02-06,ＨＲアセットマネジメント株式会社,,株式会社,群馬県,伊勢崎市,連取本町１７４番地１５,,10,204,3720817,,,,,,,2025-02-06,1,,,,,エイチアールアセットマネジメント,0
2081,9080001026747,新規,0,2025-02-06,2025-02-06,最高のＩＴキャリアエステート株式会社,,株式会社,静岡県,静岡市葵区,鷹匠２丁目１９番２号ＮＴ鷹匠ビル３Ｃ,,22,101,4200839,,,,,,,2025-02-06,1,,,,,サイコウノアイティキャリアエステート,0
2087,9080403005200,新規,0,2025-02-06,2025-02-06,和久わく森もりファーム合同会社,,合同会社,静岡県,浜松市中央区,大久保町６９３２,,22,138,4328006,,,,,,,2025-02-06,1,,,,,ワクワクモリモリファーム,0
2092,9110001039035,新規,0,2025-02-06,2025-02-06,株式会社Ｈ＆Ｏ,,株式会社,新潟県,新潟市西蒲区,下和納３５６９番地サンシャイン２８Ｂ－１０５号室,,15,108,9530065,,,,,,,2025-02-06,1,,,,,エイチアンドオー,0
2107,9120001272659,新規,0,2025-02-06,2025-02-06,日中商事株式会社,,株式会社,大阪府,大阪市東淀川区,豊新５丁目６番３－２０２号,,27,114,5330014,,,,,,,2025-02-06,1,,,,,ニッチュウショウジ,0
2108,9120001272667,新規,0,2025-02-06,2025-02-06,株式会社Ｃｒｏｗｅ,,株式会社,大阪府,守口市,南寺方中通３丁目９番２号,,27,209,5700045,,,,,,,2025-02-06,1,,,,,クロウ,0
2116,9120005024783,新規,0,2025-02-06,2025-02-06,モーションデザイン協同組合,,その他の設立登記法人,大阪府,大阪市東淀川区,西淡路４丁目２５－４,,27,114,5330031,,,,,,,2025-02-06,1,,,,,モーションデザイン,0
2122,9130001078948,新規,0,2025-02-06,2025-02-06,株式会社エスコート,,株式会社,京都府,京都市中京区,二条油小路町２７０番地１号,,26,104,6040051,,,,,,,2025-02-06,1,,,,,エスコート,0
2131,9140001137323,新規,0,2025-02-06,2025-02-06,株式会社イイダ,,株式会社,兵庫県,尼崎市,富松町３丁目１番２１号ウィズ富松２番館３０１号,,28,202,6610003,,,,,,,2025-02-06,1,,,,,イイダ,0
2132,9140001137331,新規,0,2025-02-06,2025-02-06,ＦＧ’ｓ株式会社,,株式会社,兵庫県,神戸市須磨区,常盤町１丁目１番２０号,,28,107,6540028,,,,,,,2025-02-06,1,,,,,エフジーズ,0
2134,9140003021624,新規,0,2025-02-06,2025-02-06,合同会社ＩＢＵＫＩ,,合同会社,兵庫県,神戸市兵庫区,石井町２丁目３番１０号２Ｆ,,28,105,6520061,,,,,,,2025-02-06,1,,,,,イブキ,0
2148,9180001165295,新規,0,2025-02-06,2025-02-06,株式会社ｒａｃｏｎｔｅ,,株式会社,愛知県,名古屋市東区,東桜２丁目９番３４号成田ビル１階,,23,102,4610005,,,,,,,2025-02-06,1,,,,,ラコンテ,0
2149,9180001165312,新規,0,2025-02-06,2025-02-06,株式会社ＥＳ　ＰＲＯＵＤ,,株式会社,愛知県,名古屋市中区,錦２丁目１３番２８号龍屋ビル２階,,23,106,4600003,,,,,,,2025-02-06,1,,,,,イーエスプラウド,0
2150,9180001165320,新規,0,2025-02-06,2025-02-06,株式会社空心建設,,株式会社,愛知県,愛西市,東保町東河原７０３番地,,23,232,4960912,,,,,,,2025-02-06,1,,,,,クウシンケンセツ,0
2152,9180003027956,新規,0,2025-02-06,2025-02-06,合同会社ケーティーワン,,合同会社,愛知県,名古屋市中川区,赤星３丁目４１７番地,,23,110,4540978,,,,,,,2025-02-06,1,,,,,ケーティーワン,0
2155,9180301039505,新規,0,2025-02-06,2025-02-06,テイクオン株式会社,,株式会社,愛知県,豊橋市,寺沢町字睦美５６９番地５,,23,201,4413124,,,,,,,2025-02-06,1,,,,,テイクオン,0
2162,9200001043416,新規,0,2025-02-06,2025-02-06,株式会社一電,,株式会社,岐阜県,岐阜市,西荘４丁目１番３６－３０２号,,21,201,5008362,,,,,,,2025-02-06,1,,,,,イチデン,0
2168,9230001020726,新規,0,2025-02-06,2025-02-06,株式会社ＧＯＬＤ,,株式会社,富山県,富山市,豊若町２丁目８番５３‐２０２号グランストリーツＣ棟,,16,201,9318305,,,,,,,2025-02-06,1,,,,,ゴールド,0
2169,9230001020734,新規,0,2025-02-06,2025-02-06,株式会社ＢＥＬＩ‐ＶＩＥＲＡ,,株式会社,富山県,富山市,経田１２５０番地,,16,201,9398264,,,,,,,2025-02-06,1,,,,,ベリヴィエラ,0
2184,9290001108904,新規,0,2025-02-06,2025-02-06,株式会社ＥＳ福岡,,株式会社,福岡県,福岡市東区,香椎照葉１丁目３番５号,,40,131,8130017,,,,,,,2025-02-06,1,,,,,イーエスフクオカ,0
2185,9290801031256,新規,0,2025-02-06,2025-02-06,日本洋上風力タワーソリューションズ株式会社,,株式会社,福岡県,北九州市小倉北区,米町１丁目１ー１小倉駅前ひびきビル６Ｆ,,40,106,8020003,,,,,,,2025-02-06,1,,,,,ニホンヨウジョウフウリョクタワーソリューションズ,0
2186,9290803004961,新規,0,2025-02-06,2025-02-06,合同会社Ｖｉｓｔａ,,合同会社,福岡県,行橋市,行事２丁目１番１号,,40,213,8240001,,,,,,,2025-02-06,1,,,,,ビスタ,0
2190,9310001019438,新規,0,2025-02-06,2025-02-06,株式会社ふじやまＡＴ,,株式会社,長崎県,西彼杵郡長与町,嬉里郷１０９６番地ＡＳＫビル２階店舗Ａ,,42,307,8512128,,,,,,,2025-02-06,1,,,,,フジヤマエーティー,0
2196,9330001032868,新規,0,2025-02-06,2025-02-06,株式会社ＱＯＬＵＰ,,株式会社,熊本県,熊本市中央区,九品寺６丁目２－２１ラ・レジェンダ九品寺５０３号,,43,101,8620976,,,,,,,2025-02-06,1,,,,,クロップ,0
2197,9330001032876,新規,0,2025-02-06,2025-02-06,株式会社くまのみ,,株式会社,熊本県,熊本市中央区,下通１丁目１２－２７下通ビル５Ｆ,,43,101,8600807,,,,,,,2025-02-06,1,,,,,クマノミ,0
2199,9330003010789,新規,0,2025-02-06,2025-02-06,合同会社ＬＯＣＡＬ　ＭＡＫＥＲＳ,,合同会社,熊本県,上益城郡山都町,馬見原１０１番地３,,43,447,8613901,,,,,,,2025-02-06,1,,,,,ローカルメイカーズ,0
2213,9390001017871,新規,0,2025-02-06,2025-02-06,株式会社フクモト,,株式会社,山形県,酒田市,坂野辺新田字地続山９７４番地の１,,06,204,9980101,,,,,,,2025-02-06,1,,,,,フクモト,0
2219,9420001019006,新規,0,2025-02-06,2025-02-06,株式会社エスプラン,,株式会社,青森県,十和田市,西一番町６番１０号,,02,206,0340092,,,,,,,2025-02-06,1,,,,,エスプラン,0
2226,9430003017254,新規,0,2025-02-06,2025-02-06,合同会社ｆｏｒｃｅｏｐｅｒａｔｉｏｎ,,合同会社,北海道,札幌市白石区,南郷通１丁目北９－５－３０１,,01,104,0030023,,,,,,,2025-02-06,1,,,,,フォースオペレーション,0
2230,9490001010957,新規,0,2025-02-06,2025-02-06,株式会社ＡＷＯＢＡ,,株式会社,高知県,四万十市,中村大橋通７丁目２番１７号,,39,210,7870033,,,,,,,2025-02-06,1,,,,,アヲバ,0
2231,9700150129097,新規,0,2025-02-06,2025-02-06,Ａ．Ｒ．ＭＯＴＯＲＳ,,外国会社等,千葉県,山武市,木原１４００番地オフィス１０,,12,237,2891212,スリランカ民主社会主義共和国、キャンディ、バトゥゴダ、バムヌポラ、Ｎｏ．３０／Ｈ,,,,,,2025-02-06,1,,,,,エーアールモータース,0
