sequenceNumber,corporateNumber,process,correct,updateDate,changeDate,name,nameImageId,kind,prefectureName,cityName,streetNumber,addressImageId,prefectureCode,cityCode,postCode,addressOutside,addressOutsideImageId,closeDate,closeCause,successorCorporateNumber,changeCause,assignmentDate,latest,enName,enPrefectureName,enCityName,enAddressOutside,furigana,hihyoji
14,1010401177906,新規,0,2023-10-27,2023-10-27,ＦａｎｓＭｅｔａ株式会社,,株式会社,東京都,港区,北青山１丁目３番１号アールキューブ青山３階,,13,103,1070061,,,,,,,2023-10-27,1,,,,,ファンメタ,0
15,1010401178094,新規,0,2023-10-27,2023-10-27,株式会社ａｓｐｉｒｅ,,株式会社,東京都,港区,白金１丁目２－２ザ・スカイＷ１２０８号室,,13,103,1080072,,,,,,,2023-10-27,1,,,,,アスパイヤ,0
20,1010501051267,新規,0,2023-10-27,2023-10-27,株式会社ＹＯＵ　ＳＴＡＹ,,株式会社,東京都,台東区,浅草橋４丁目１０番４－４０１号,,13,106,1110053,,,,,,,2023-10-27,1,,,,,ユーステイ,0
28,1010701045052,新規,0,2023-10-27,2023-10-27,株式会社ＳＵＭＩＫＡ,,株式会社,東京都,品川区,大井１丁目３１番１－２２０７号,,13,109,1400014,,,,,,,2023-10-27,1,,,,,スミカ,0
35,1011001157769,新規,0,2023-10-27,2023-10-27,ＣＩＣＩＢＥＬＬＡ株式会社,,株式会社,東京都,渋谷区,東２丁目２７－１０,,13,113,1500011,,,,,,,2023-10-27,1,,,,,シシベラ,0
36,1011001157868,新規,0,2023-10-27,2023-10-27,株式会社久,,株式会社,東京都,渋谷区,神宮前６丁目２３番４号桑野ビル２階,,13,113,1500001,,,,,,,2023-10-27,1,,,,,キュウ,0
37,1011001157876,新規,0,2023-10-27,2023-10-27,株式会社ＩＢＥ,,株式会社,東京都,目黒区,鷹番２丁目２０番５号晃立ビル１０２,,13,110,1520004,,,,,,,2023-10-27,1,,,,,アイビーイー,0
38,1011001157884,新規,0,2023-10-27,2023-10-27,株式会社宇佐川,,株式会社,東京都,目黒区,原町２丁目５－２グランシャリオ洗足３０３,,13,110,1520011,,,,,,,2023-10-27,1,,,,,ウサガワ,0
40,1011005010255,新規,0,2023-10-27,2023-10-27,一般社団法人蒔蜂会,,その他の設立登記法人,東京都,渋谷区,渋谷２丁目１９番１５号宮益坂ビルディング６０９,,13,113,1500002,,,,,,,2023-10-27,1,,,,,ジホウカイ,0
45,1011101104943,新規,0,2023-10-27,2023-10-27,シアーミュージックライブ株式会社,,株式会社,東京都,新宿区,北新宿１丁目７番２０号アルテビル北新宿,,13,104,1690074,,,,,,,2023-10-27,1,,,,,シアーミュージックライブ,0
46,1011103013655,新規,0,2023-10-27,2023-10-27,合同会社ＤＧヘルスケア,,合同会社,東京都,新宿区,四谷２丁目９番地１５東京ユナイテッド綜合事務所内,,13,104,1600004,,,,,,,2023-10-27,1,,,,,ディージーヘルスケア,0
51,1011601027231,新規,0,2023-10-27,2023-10-27,ＭＯＭＯＫＯ株式会社,,株式会社,東京都,練馬区,田柄１丁目１２－１２,,13,120,1790073,,,,,,,2023-10-27,1,,,,,モモコ,0
54,1011701026703,新規,0,2023-10-27,2023-10-27,建装株式会社,,株式会社,東京都,江戸川区,大杉４丁目２４番２号,,13,123,1320022,,,,,,,2023-10-27,1,,,,,ケンソウ,0
55,1011701026711,新規,0,2023-10-27,2023-10-27,株式会社Ｍ．Ｂ．ｆａｔｅ,,株式会社,東京都,江戸川区,中葛西５丁目２０番９号ＳＵＮＧＩＯＩＡ・Ｎｏｒｔｈ１０１,,13,123,1340083,,,,,,,2023-10-27,1,,,,,エムビーフェイト,0
59,1011801043251,新規,0,2023-10-27,2023-10-27,ステブルフューチャ株式会社,,株式会社,東京都,足立区,足立２丁目３１番７－３０１号,,13,121,1200015,,,,,,,2023-10-27,1,,,,,ステブルフューチャ,0
73,1013301051536,新規,0,2023-10-27,2023-10-27,株式会社サデ,,株式会社,東京都,豊島区,南大塚２丁目３８番１号,,13,116,1700005,,,,,,,2023-10-27,1,,,,,サデ,0
74,1013301051544,新規,0,2023-10-27,2023-10-27,株式会社Ｈａｗｋ　Ｐｌｕｓ,,株式会社,東京都,豊島区,南長崎１丁目２４番２－１０２号,,13,116,1710052,,,,,,,2023-10-27,1,,,,,ホークプラス,0
86,1020001154098,新規,0,2023-10-27,2023-10-27,株式会社ＪＩＢＵＮＤＥ,,株式会社,神奈川県,横浜市西区,北幸２丁目１０番地４８むつみビル３Ｆ,,14,103,2200004,,,,,,,2023-10-27,1,,,,,ジブンデ,0
87,1020001154148,新規,0,2023-10-27,2023-10-27,コーストテック株式会社,,株式会社,神奈川県,横浜市鶴見区,佃野町１３番３号,,14,101,2300061,,,,,,,2023-10-27,1,,,,,コーストテック,0
88,1020001154156,新規,0,2023-10-27,2023-10-27,株式会社サイバージョッキー,,株式会社,神奈川県,横浜市港南区,港南台４丁目２９－７,,14,111,2340054,,,,,,,2023-10-27,1,,,,,サイバージョッキー,0
89,1020001154164,新規,0,2023-10-27,2023-10-27,株式会社アース,,株式会社,神奈川県,横浜市西区,戸部本町３８番１３－５０２号,,14,103,2200041,,,,,,,2023-10-27,1,,,,,アース,0
90,1020001154172,新規,0,2023-10-27,2023-10-27,株式会社キィスペース,,株式会社,神奈川県,川崎市幸区,戸手本町１丁目５３番地,,14,132,2120023,,,,,,,2023-10-27,1,,,,,キィスペース,0
91,1020001154189,新規,0,2023-10-27,2023-10-27,株式会社Ｔ‐Ｆｏｒｅｓｔ,,株式会社,神奈川県,川崎市川崎区,江川２丁目１番１１号,,14,131,2100823,,,,,,,2023-10-27,1,,,,,ティーフォレスト,0
102,1021001080565,新規,0,2023-10-27,2023-10-27,株式会社療育ドットコム,,株式会社,神奈川県,相模原市中央区,相模原２丁目１１－２７,,14,152,2520231,,,,,,,2023-10-27,1,,,,,リョウイクドットコム,0
103,1021001080581,新規,0,2023-10-27,2023-10-27,株式会社横浜シビルエンジニアリング,,株式会社,神奈川県,大和市,上和田１６７８－４－２０１,,14,213,2420014,,,,,,,2023-10-27,1,,,,,ヨコハマシビルエンジニリング,0
105,1021003013721,新規,0,2023-10-27,2023-10-27,アイシンハウジング合同会社,,合同会社,神奈川県,愛甲郡愛川町,中津４０６１－１４－３０８,,14,401,2430303,,,,,,,2023-10-27,1,,,,,アイシンハウジング,0
110,1030001156878,新規,0,2023-10-27,2023-10-27,株式会社喜來龍,,株式会社,埼玉県,吉川市,保１丁目５番地１５,,11,243,3420041,,,,,,,2023-10-27,1,,,,,キラリ,0
125,1040001130683,新規,0,2023-10-27,2023-10-27,ＲＡＮＡ株式会社,,株式会社,千葉県,鎌ケ谷市,北中沢３丁目１０番４０号,,12,224,2730111,,,,,,,2023-10-27,1,,,,,ラナ,0
126,1040003023638,新規,0,2023-10-27,2023-10-27,合同会社ｌａ・ｂａｌａｎｃｅ,,合同会社,千葉県,成田市,並木町２１番５号１０９,,12,211,2860045,,,,,,,2023-10-27,1,,,,,ラバロンス,0
127,1040005022159,新規,0,2023-10-27,2023-10-27,一般社団法人人彩舎,,その他の設立登記法人,千葉県,成田市,橋賀台１丁目７番地２,,12,211,2860037,,,,,,,2023-10-27,1,,,,,ジンザイシャ,0
128,1050001053710,新規,0,2023-10-27,2023-10-27,株式会社天明,,株式会社,茨城県,日立市,久慈町２丁目２８－１５,,08,202,3191222,,,,,,,2023-10-27,1,,,,,テンメイ,0
129,1050001053727,新規,0,2023-10-27,2023-10-27,株式会社ＧＬｅｓｓ,,株式会社,茨城県,ひたちなか市,大字稲田３８番地４,,08,221,3120061,,,,,,,2023-10-27,1,,,,,グレス,0
130,1060001036499,新規,0,2023-10-27,2023-10-27,株式会社もとざわ有機農園,,株式会社,栃木県,足利市,県町８３０番地,,09,202,3260328,,,,,,,2023-10-27,1,,,,,モトザワユウキノウエン,0
135,1070002034022,新規,0,2023-10-27,2023-10-27,有限会社谷脇商店,,有限会社,群馬県,館林市,本町１丁目４番３０号,,10,207,3740024,,,,,,,2023-10-27,1,,,,,タニワキショウテン,0
137,1080101024294,新規,0,2023-10-27,2023-10-27,株式会社ＦＩＩＴ,,株式会社,静岡県,沼津市,沼北町１丁目１２－８プール・トゥジュール２０１,,22,203,4100058,,,,,,,2023-10-27,1,,,,,フィート,0
140,1090001018395,新規,0,2023-10-27,2023-10-27,ＢＳＫ株式会社,,株式会社,山梨県,甲府市,住吉５丁目２番４０号,,19,201,4000851,,,,,,,2023-10-27,1,,,,,ビーエスケー,0
158,1120001259085,新規,0,2023-10-27,2023-10-27,株式会社悠斗,,株式会社,大阪府,大阪市東住吉区,公園南矢田４丁目１１番２３号,,27,121,5460024,,,,,,,2023-10-27,1,,,,,ユウト,0
159,1120001259242,新規,0,2023-10-27,2023-10-27,凱聯株式会社,,株式会社,大阪府,大阪市平野区,平野北１丁目５番２１号１階,,27,126,5470041,,,,,,,2023-10-27,1,,,,,ガイレン,0
160,1120001259309,新規,0,2023-10-27,2023-10-27,株式会社明甲,,株式会社,大阪府,大阪市淀川区,加島４丁目８番１４号,,27,123,5320031,,,,,,,2023-10-27,1,,,,,メイコウ,0
161,1120001259390,新規,0,2023-10-27,2023-10-27,株式会社ネクストワン,,株式会社,大阪府,大阪市淀川区,西宮原１丁目８－３３日宝新大阪第２ビル,,27,123,5320004,,,,,,,2023-10-27,1,,,,,ネクストワン,0
163,1120003025205,新規,0,2023-10-27,2023-10-27,みずいろ合同会社,,合同会社,大阪府,大阪市淀川区,塚本６丁目４番３０－３０２号,,27,123,5320026,,,,,,,2023-10-27,1,,,,,ミズイロ,0
165,1120101068452,新規,0,2023-10-27,2023-10-27,ａｎｄ　Ｂｅｉｎｇ株式会社,,株式会社,大阪府,岸和田市,春木旭町３４番３１号,,27,202,5960005,,,,,,,2023-10-27,1,,,,,アンドビーイング,0
174,1130001075523,新規,0,2023-10-27,2023-10-27,株式会社ｔａｎｅ,,株式会社,京都府,木津川市,木津奈良道１０７番地１,,26,214,6190214,,,,,,,2023-10-27,1,,,,,タネ,0
180,1140003019741,新規,0,2023-10-27,2023-10-27,合同会社ルネサンス,,合同会社,兵庫県,神戸市兵庫区,下沢通５丁目４番３－１０２号,,28,105,6520047,,,,,,,2023-10-27,1,,,,,ルネサンス,0
181,1150001026838,新規,0,2023-10-27,2023-10-27,株式会社吉羽エステイト,,株式会社,奈良県,生駒市,東生駒２丁目２０７番地７３,,29,209,6300213,,,,,,,2023-10-27,1,,,,,ヨシバエステイト,0
182,1150003003109,新規,0,2023-10-27,2023-10-27,合同会社マクアリスタ,,合同会社,奈良県,奈良市,角振町９番１号パステルビル４階,,29,201,6308224,,,,,,,2023-10-27,1,,,,,マクアリスタ,0
183,1160005011240,新規,0,2023-10-27,2023-10-27,一般社団法人ひばり会,,その他の設立登記法人,滋賀県,草津市,駒井沢町３７５番３３,,25,206,5250014,,,,,,,2023-10-27,1,,,,,ヒバリカイ,0
194,1180001158678,新規,0,2023-10-27,2023-10-27,株式会社ルピナス,,株式会社,愛知県,江南市,赤童子町良原９９番地,,23,217,4838227,,,,,,,2023-10-27,1,,,,,ルピナス,0
195,1180001158703,新規,0,2023-10-27,2023-10-27,株式会社エスワイワイ,,株式会社,愛知県,名古屋市東区,代官町３番１２号,,23,102,4610002,,,,,,,2023-10-27,1,,,,,エスワイワイ,0
197,1180003025926,新規,0,2023-10-27,2023-10-27,合同会社福丸屋,,合同会社,愛知県,名古屋市天白区,植田南２丁目１１１,,23,116,4680053,,,,,,,2023-10-27,1,,,,,フクマルヤ,0
201,1180301037953,新規,0,2023-10-27,2023-10-27,株式会社ミヤガキリレーションサービス,,株式会社,愛知県,豊田市,吉原町鶴喰１７番地１１,,23,211,4730916,,,,,,,2023-10-27,1,,,,,ミヤガキリレーションサービス,0
202,1180301037961,新規,0,2023-10-27,2023-10-27,株式会社Ｔ‐ＷＯＲＫＳ,,株式会社,愛知県,豊川市,長沢町大覚６３２,,23,207,4410203,,,,,,,2023-10-27,1,,,,,ティーワークス,0
203,1180303005883,新規,0,2023-10-27,2023-10-27,合同会社ＴＮＣ,,合同会社,愛知県,豊川市,金屋本町４丁目２６番地の１,,23,207,4420052,,,,,,,2023-10-27,1,,,,,ティーエヌシー,0
204,1180305009528,新規,0,2023-10-27,2023-10-27,一般社団法人日本再生住宅協会,,その他の設立登記法人,愛知県,豊田市,勘八町勘八２７２番地,,23,211,4700328,,,,,,,2023-10-27,1,,,,,ニホンサイセイジュウタクキョウカイ,0
207,1190003004490,新規,0,2023-10-27,2023-10-27,合同会社ＴＫＦＬＯＷ,,合同会社,三重県,四日市市,伊倉１丁目１番８号,,24,202,5100832,,,,,,,2023-10-27,1,,,,,ティーケイフロー,0
208,1200003006130,新規,0,2023-10-27,2023-10-27,合同会社ルナクレシェンテ,,合同会社,岐阜県,岐阜市,六条北４丁目１４－１,,21,201,5008359,,,,,,,2023-10-27,1,,,,,ルナクレシェンテ,0
213,1240001062329,新規,0,2023-10-27,2023-10-27,株式会社アイ・ティ・コム,,株式会社,広島県,広島市中区,光南２丁目３番１８－１０１号,,34,101,7300825,,,,,,,2023-10-27,1,,,,,アイティコム,0
222,1260003004483,新規,0,2023-10-27,2023-10-27,多島貿易合同会社,,合同会社,岡山県,岡山市北区,島田本町２丁目２番９号Ｖｉｅｌｉｂｒｅ３０３号室,,33,101,7000033,,,,,,,2023-10-27,1,,,,,タジマボウエキ,0
225,1280005007573,新規,0,2023-10-27,2023-10-27,ＮＰＯ法人美身伝心,,その他の設立登記法人,島根県,出雲市,渡橋町３００番地１０,,32,203,6930004,,,,,,,2023-10-27,1,,,,,ビシンデンシン,0
232,1290001103532,新規,0,2023-10-27,2023-10-27,ＯＨ　ＬＡＢＯ株式会社,,株式会社,福岡県,福岡市南区,老司２丁目１９番３号ティアラ西田２０３号,,40,134,8111346,,,,,,,2023-10-27,1,,,,,オーエイチラボ,0
233,1290001103549,新規,0,2023-10-27,2023-10-27,株式会社エイチエムホールディングス,,株式会社,福岡県,福岡市中央区,舞鶴２丁目３番６号,,40,133,8100073,,,,,,,2023-10-27,1,,,,,エイチエムホールディングス,0
234,1290001103557,新規,0,2023-10-27,2023-10-27,株式会社ＫＯＫＡＧＥ,,株式会社,福岡県,福岡市南区,筑紫丘１丁目２３－９ハウスユマニテ大橋α館３０６,,40,134,8150036,,,,,,,2023-10-27,1,,,,,,0
235,1290001103565,新規,0,2023-10-27,2023-10-27,株式会社ＥＧＧ　ＢＯＯＫＳ,,株式会社,福岡県,福岡市南区,清水１丁目１５番１２号清原ハイツ４０５号,,40,134,8150031,,,,,,,2023-10-27,1,,,,,エッグブックス,0
236,1290003014546,新規,0,2023-10-27,2023-10-27,合同会社ＳＥＯＧＵＭＩ,,合同会社,福岡県,福岡市東区,名島４丁目２６－３７,,40,131,8130043,,,,,,,2023-10-27,1,,,,,セオグミ,0
239,1300001013515,新規,0,2023-10-27,2023-10-27,株式会社Ｐｒｏｌｏｇｕｅ,,株式会社,佐賀県,唐津市,久里２９７８番地１,,41,202,8470033,,,,,,,2023-10-27,1,,,,,プロローグ,0
255,1360001032740,新規,0,2023-10-27,2023-10-27,株式会社ゆいまるプロジェクト,,株式会社,沖縄県,浦添市,前田４丁目５番３号,,47,208,9012102,,,,,,,2023-10-27,1,,,,,ユイマルプロジェクト,0
256,1360003013417,新規,0,2023-10-27,2023-10-27,合同会社Ｃｈａｎｇｅ２５,,合同会社,沖縄県,糸満市,西崎１丁目９番１－２０３号ファミール花梨,,47,210,9010305,,,,,,,2023-10-27,1,,,,,チェンジトゥエンティーファイブ,0
259,1370003006337,新規,0,2023-10-27,2023-10-27,合同会社Ｎｅｒｏ,,合同会社,宮城県,仙台市青葉区,立町２番１４－３０２号,,04,101,9800822,,,,,,,2023-10-27,1,,,,,ネロ,0
268,1420003002826,新規,0,2023-10-27,2023-10-27,合同会社ＳＤＴ　ＧＲＯＵＰ,,合同会社,青森県,八戸市,大字六日町３５番地アイエスビル６階,,02,203,0310033,,,,,,,2023-10-27,1,,,,,エスディーティーグループ,0
280,1500001025267,新規,0,2023-10-27,2023-10-27,株式会社大星工業,,株式会社,愛媛県,今治市,喜田村２丁目５番９号,,38,202,7991502,,,,,,,2023-10-27,1,,,,,ダイセイコウギョウ,0
281,1500001025275,新規,0,2023-10-27,2023-10-27,株式会社ビィー,,株式会社,愛媛県,伊予郡砥部町,拾町１０５番地１－２Ｆ,,38,402,7912113,,,,,,,2023-10-27,1,,,,,ビィー,0
282,1700150121144,新規,0,2023-10-27,2023-10-10,東寺献上ごぼう復刻プロジェクト,,その他,滋賀県,湖南市,石部西１丁目１０－１４,,25,211,5203105,,,,,,,2023-10-10,1,,,,,ヒガシデラケンジヨウゴボウフツコクプロジエクト,0
283,1700150121508,新規,0,2023-10-27,2023-10-27,粕屋町大隈西土地区画整理組合,,その他,福岡県,糟屋郡粕屋町,大字大隈１２２９,,40,349,8112302,,,,,,,2023-10-27,1,,,,,カスヤマチオオクマニシトチクカクセイリクミアイ,0
290,2010001239535,新規,0,2023-10-27,2023-10-27,株式会社ＦＲＥＥ　ＢＩＲＤ　ＤＥＳＩＧＮ,,株式会社,東京都,中央区,銀座１丁目２２番１１号銀座大竹ビジデンス２Ｆ,,13,102,1040061,,,,,,,2023-10-27,1,,,,,フリーバードデザイン,0
291,2010001239584,新規,0,2023-10-27,2023-10-27,ＭＢＫＰ　Ｖｅｇａ株式会社,,株式会社,東京都,千代田区,永田町２丁目１０番３号,,13,101,1000014,,,,,,,2023-10-27,1,,,,,エムビーケーピーベガ,0
295,2010401178119,新規,0,2023-10-27,2023-10-27,株式会社ＳＹＴ,,株式会社,東京都,港区,南青山４丁目２番１２－６０３号,,13,103,1070062,,,,,,,2023-10-27,1,,,,,エスワイティー,0
298,2010501051266,新規,0,2023-10-27,2023-10-27,株式会社ジュニパーファーン,,株式会社,東京都,台東区,上野５丁目１８－２御徒町第２ビル地下１階,,13,106,1100005,,,,,,,2023-10-27,1,,,,,ジュニパーファーン,0
301,2010601064044,新規,0,2023-10-27,2023-10-27,株式会社ＫＡＮＡＥＲＵ,,株式会社,東京都,江東区,住吉２丁目２番９号,,13,108,1350002,,,,,,,2023-10-27,1,,,,,カナエル,0
303,2010603010450,新規,0,2023-10-27,2023-10-27,ＬＢＨ　Ｊａｐａｎ合同会社,,合同会社,東京都,墨田区,業平１丁目７番９号,,13,107,1300002,,,,,,,2023-10-27,1,,,,,エルビーエイチジャパン,0
317,2011001157660,新規,0,2023-10-27,2023-10-27,株式会社ＡＩ８,,株式会社,東京都,渋谷区,松濤１丁目２９番１号渋谷クロスロード６階,,13,113,1500046,,,,,,,2023-10-27,1,,,,,アイエイト,0
318,2011001157859,新規,0,2023-10-27,2023-10-27,株式会社日祥,,株式会社,東京都,目黒区,目黒本町６丁目１番７号,,13,110,1520002,,,,,,,2023-10-27,1,,,,,ニッショウ,0
319,2011001157867,新規,0,2023-10-27,2023-10-27,ＴｅｃｈＡｒｔ株式会社,,株式会社,東京都,渋谷区,円山町５番５号Ｎａｖｉ渋谷Ｖ３階,,13,113,1500044,,,,,,,2023-10-27,1,,,,,テックアート,0
320,2011003017805,新規,0,2023-10-27,2023-10-27,合同会社Ｅｎａｂｌｅ　Ｓｋｙ,,合同会社,東京都,渋谷区,神泉町８－１０メゾン神泉５０７,,13,113,1500045,,,,,,,2023-10-27,1,,,,,エナブルスカイ,0
321,2011003017813,新規,0,2023-10-27,2023-10-27,インスパイア合同会社,,合同会社,東京都,渋谷区,道玄坂１丁目１０番８号渋谷道玄坂東急ビル２Ｆ－Ｃ,,13,113,1500043,,,,,,,2023-10-27,1,,,,,インスパイア,0
322,2011005010254,新規,0,2023-10-27,2023-10-27,一般財団法人中川博之・高畠じゅん子,00132436,その他の設立登記法人,東京都,渋谷区,上原１丁目１７番１４－４０３号,,13,113,1510064,,,,,,,2023-10-27,1,,,,,ナカガワヒロユキタカバタケジュンコ,0
330,2011101104892,新規,0,2023-10-27,2023-10-27,株式会社９６,,株式会社,東京都,新宿区,新宿６丁目２３番８号ＰＡＳＥＯｓｈｉｎｊｕｋｕ３０２,,13,104,1600022,,,,,,,2023-10-27,1,,,,,クロ,0
331,2011101104942,新規,0,2023-10-27,2023-10-27,ハヤブサマネジメント株式会社,,株式会社,東京都,新宿区,西新宿３丁目３番１３号西新宿水間ビル２Ｆ,,13,104,1600023,,,,,,,2023-10-27,1,,,,,ハヤブサマネジメント,0
332,2011201025007,新規,0,2023-10-27,2023-10-27,株式会社ブリックス,,株式会社,東京都,中野区,江原町２丁目２０番１２－３０１号,,13,114,1650023,,,,,,,2023-10-27,1,,,,,ブリックス,0
335,2011303004949,新規,0,2023-10-27,2023-10-27,合同会社ＣＯＹＳ,,合同会社,東京都,杉並区,高円寺南２丁目２１番５号２Ｆ,,13,115,1660003,,,,,,,2023-10-27,1,,,,,コイズ,0
342,2011703003633,新規,0,2023-10-27,2023-10-27,合同会社ＰＲＯＳＰＥＲ,,合同会社,東京都,江戸川区,中央２丁目８番１４号ラ・プランタン１０２,,13,123,1320021,,,,,,,2023-10-27,1,,,,,プロスパー,0
343,2011801043250,新規,0,2023-10-27,2023-10-27,株式会社ＲＩＰ　ＡＣＥ,,株式会社,東京都,葛飾区,金町４丁目１８番２号,,13,122,1250042,,,,,,,2023-10-27,1,,,,,リップエース,0
345,2012403006249,新規,0,2023-10-27,2023-10-27,合同会社ＶＩ・ＶＩＲＴＵＥ,,合同会社,東京都,稲城市,大丸２１４６番地５９,,13,225,2060801,,,,,,,2023-10-27,1,,,,,ヴィバーチュ,0
346,2012701017914,新規,0,2023-10-27,2023-10-27,日本匯佳株式会社,,株式会社,東京都,小平市,仲町５６７番地の２９－２０１,,13,211,1870042,,,,,,,2023-10-27,1,,,,,ニホンカイカ,0
347,2012801022731,新規,0,2023-10-27,2023-10-27,株式会社Ｋｏｓｍｏｓ　Ｉｎｆｉｎｉｔｙ,,株式会社,東京都,立川市,錦町１丁目４－２０ＴＳＣビル５階,,13,202,1900022,,,,,,,2023-10-27,1,,,,,コスモスインフィニティ,0
351,2013301051543,新規,0,2023-10-27,2023-10-27,株式会社Ａｒｄｏｒｅ,,株式会社,東京都,豊島区,西池袋１丁目４１番２号マキビル２階,,13,116,1710021,,,,,,,2023-10-27,1,,,,,アルドーレ,0
356,2020001154171,新規,0,2023-10-27,2023-10-27,株式会社Ｆｒｅｅｄｏｍ,,株式会社,神奈川県,川崎市川崎区,本町２丁目８番地８,,14,131,2100001,,,,,,,2023-10-27,1,,,,,フリーダム,0
357,2020001154188,新規,0,2023-10-27,2023-10-27,株式会社ｉｐｔ,,株式会社,神奈川県,川崎市宮前区,野川本町２丁目５番２０号,,14,136,2160041,,,,,,,2023-10-27,1,,,,,イプト,0
358,2020001154196,新規,0,2023-10-27,2023-10-27,株式会社プロップ不動産,,株式会社,神奈川県,川崎市中原区,新丸子東２丁目８９７番地１１ラポール新丸子２０５,,14,133,2110004,,,,,,,2023-10-27,1,,,,,プロップフドウサン,0
362,2020003024851,新規,0,2023-10-27,2023-10-27,合同会社ＶａｌｌｅｙＰａｒｋ,,合同会社,神奈川県,横浜市神奈川区,子安通３丁目３４６番地３クレストフォルム横浜グランステージ７０９号,,14,102,2210021,,,,,,,2023-10-27,1,,,,,バレーパーク,0
369,2021001080589,新規,0,2023-10-27,2023-10-27,エボニボ不動産株式会社,,株式会社,神奈川県,鎌倉市,雪ノ下２丁目９番８号,,14,204,2480005,,,,,,,2023-10-27,1,,,,,エボニボフドウサン,0
377,2030001156877,新規,0,2023-10-27,2023-10-27,株式会社友迪商事,,株式会社,埼玉県,三郷市,高州１丁目３４４番地２,,11,237,3410037,,,,,,,2023-10-27,1,,,,,ユウテキショウジ,0
378,2030001156893,新規,0,2023-10-27,2023-10-27,株式会社ＹＵＭＥ　ＪＡＰＡＮ１,,株式会社,埼玉県,川口市,柳崎１丁目４番１号,,11,203,3330861,,,,,,,2023-10-27,1,,,,,ユメジャパンワン,0
382,2030003022854,新規,0,2023-10-27,2023-10-27,合同会社ＯＺＡＮ,,合同会社,埼玉県,さいたま市見沼区,大字膝子３２５,,11,104,3370021,,,,,,,2023-10-27,1,,,,,オザン,0
392,2040001130708,新規,0,2023-10-27,2023-10-27,株式会社サガンプランニング,,株式会社,千葉県,銚子市,双葉町１番地の２３東商ビル２階,,12,202,2880048,,,,,,,2023-10-27,1,,,,,サガンプランニング,0
393,2040001130716,新規,0,2023-10-27,2023-10-27,株式会社ＲＥＬＩＥＶＥＲ,,株式会社,千葉県,千葉市稲毛区,園生町４７１番地５,,12,103,2630051,,,,,,,2023-10-27,1,,,,,リリーバー,0
396,2040003023637,新規,0,2023-10-27,2023-10-27,合同会社Ｃ‐Ｅａｒｔｈ,,合同会社,千葉県,市川市,国分３丁目１９番９号,,12,203,2720834,,,,,,,2023-10-27,1,,,,,シーアース,0
399,2060001036498,新規,0,2023-10-27,2023-10-27,株式会社杉山興業,,株式会社,栃木県,宇都宮市,下平出町３４０番地３レジデンスきぬ１０１,,09,201,3210903,,,,,,,2023-10-27,1,,,,,スギヤマコウギョウ,0
404,2070001041027,新規,0,2023-10-27,2023-10-27,株式会社エース,,株式会社,群馬県,太田市,藤阿久町４９７番地２カンケン西藤マンション４０７号,,10,205,3730034,,,,,,,2023-10-27,1,,,,,エース,0
428,2120001259200,新規,0,2023-10-27,2023-10-27,Ｆｅｍｌｅａｄ株式会社,,株式会社,大阪府,大阪市北区,堂山町１番５号三共梅田ビル８Ｆ,,27,127,5300027,,,,,,,2023-10-27,1,,,,,フェムリード,0
429,2120001259217,新規,0,2023-10-27,2023-10-27,睿祥株式会社,,株式会社,大阪府,大阪市大正区,三軒家西３丁目４番１６号中山ビル１０４４,,27,108,5510001,,,,,,,2023-10-27,1,,,,,エイショウ,0
430,2120001259241,新規,0,2023-10-27,2023-10-27,株式会社ＡｇｅｎｔＲＥＣ,,株式会社,大阪府,大阪市北区,角田町８－７４阪急グランドビル２０Ｆ,,27,127,5300017,,,,,,,2023-10-27,1,,,,,エージェントレック,0
431,2120001259258,新規,0,2023-10-27,2023-10-27,ＤｒａｇｏＮｏＣｏｄｅ株式会社,,株式会社,大阪府,大阪市淀川区,十三東１丁目２０－３ザ・グランビュー大阪１３０１,,27,123,5320023,,,,,,,2023-10-27,1,,,,,ドラゴノコード,0
432,2120001259290,新規,0,2023-10-27,2023-10-27,株式会社アッシュ,,株式会社,大阪府,大阪市北区,中之島３丁目５番１１－２７０２号,,27,127,5300005,,,,,,,2023-10-27,1,,,,,アッシュ,0
433,2120003025071,新規,0,2023-10-27,2023-10-27,合同会社アプリシエ,,合同会社,大阪府,大阪市北区,大淀中２丁目２番１３号ユニハイム５Ａ号室,,27,127,5310076,,,,,,,2023-10-27,1,,,,,アプリシエ,0
449,2130001075497,新規,0,2023-10-27,2023-10-27,恒隆株式会社,,株式会社,京都府,京都市下京区,河原町通四条下る稲荷町３３４番地３ザ・京都レジデンス四条河原町１００７,,26,106,6008022,,,,,,,2023-10-27,1,,,,,コウリュウ,0
450,2130001075522,新規,0,2023-10-27,2023-10-27,金子建設株式会社,,株式会社,京都府,京都市伏見区,淀木津町２５３番地１５,,26,109,6130911,,,,,,,2023-10-27,1,,,,,カネコケンセツ,0
451,2130001075555,新規,0,2023-10-27,2023-10-27,株式会社ＧｒａｎＤｉｒ,,株式会社,京都府,京都市下京区,東洞院通七条上る飴屋町２５９番地,,26,106,6008148,,,,,,,2023-10-27,1,,,,,グランディール,0
452,2130001075613,新規,0,2023-10-27,2023-10-27,株式会社ユーアールエス,,株式会社,京都府,舞鶴市,字万願寺１２３番地,,26,202,6240814,,,,,,,2023-10-27,1,,,,,ユーアールエス,0
457,2140001132116,新規,0,2023-10-27,2023-10-27,株式会社ＣＲアドバンス,,株式会社,兵庫県,尼崎市,久々知西町２丁目７番１５号,,28,202,6610978,,,,,,,2023-10-27,1,,,,,シーアールアドバンス,0
458,2140001132149,新規,0,2023-10-27,2023-10-27,株式会社ショウイパーツ,,株式会社,兵庫県,三田市,ゆりのき台５丁目８番地７８,,28,219,6691324,,,,,,,2023-10-27,1,,,,,ショウイパーツ,0
459,2140001132157,新規,0,2023-10-27,2023-10-27,株式会社Ｒｅ　ｐｌｕｓ,,株式会社,兵庫県,尼崎市,潮江１丁目３番１２－１９０８号,,28,202,6610976,,,,,,,2023-10-27,1,,,,,リプラス,0
464,2140003019732,新規,0,2023-10-27,2023-10-27,合同会社ＧＬＥＥＰ,,合同会社,兵庫県,加古郡稲美町,蛸草１１１４番地の１,00132439,28,381,6751116,,,,,,,2023-10-27,1,,,,,グリープ,0
465,2140003019740,新規,0,2023-10-27,2023-10-27,Ｎｅｘｔ　Ｓｔｅｐ合同会社,,合同会社,兵庫県,神戸市灘区,摩耶海岸通１丁目１番２－６０５号,,28,102,6570855,,,,,,,2023-10-27,1,,,,,ネクストステップ,0
466,2150003003108,新規,0,2023-10-27,2023-10-27,合同会社はなまる,,合同会社,奈良県,香芝市,関屋２５４番地の４ベルファム関屋２０７号,,29,210,6390255,,,,,,,2023-10-27,1,,,,,ハナマル,0
470,2160003003024,新規,0,2023-10-27,2023-10-27,合同会社ＩＢｅｅ,,合同会社,滋賀県,大津市,和邇中２６７－１,,25,201,5200526,,,,,,,2023-10-27,1,,,,,アイビー,0
477,2180001158644,新規,0,2023-10-27,2023-10-27,テラグリッド株式会社,,株式会社,愛知県,名古屋市西区,名駅２丁目３４番１７号セントラル名古屋１１０１号,,23,104,4510045,,,,,,,2023-10-27,1,,,,,テラグリッド,0
478,2180001158669,新規,0,2023-10-27,2023-10-27,株式会社ディメンジョンフォー,,株式会社,愛知県,名古屋市中村区,平池町４丁目６０番地の１２ＷｅＷｏｒｋ名古屋グローバルゲート,,23,105,4530872,,,,,,,2023-10-27,1,,,,,ディメンジョンフォー,0
479,2180001158693,新規,0,2023-10-27,2023-10-27,株式会社オートマックス,,株式会社,愛知県,海部郡飛島村,大字新政成５丁目８６番地１,,23,427,4901443,,,,,,,2023-10-27,1,,,,,オートマックス,0
480,2180001158702,新規,0,2023-10-27,2023-10-27,株式会社ＤＡＩＳＨＩＮ,,株式会社,愛知県,名古屋市南区,西桜町４３番地の４,,23,112,4570039,,,,,,,2023-10-27,1,,,,,ダイシン,0
488,2180301037944,新規,0,2023-10-27,2023-10-27,株式会社ＳＨＯ,,株式会社,愛知県,新城市,長篠字施所橋１３番地,,23,221,4411634,,,,,,,2023-10-27,1,,,,,ショウ,0
489,2180301037952,新規,0,2023-10-27,2023-10-27,株式会社心幸工業,,株式会社,愛知県,安城市,里町１丁目２４番地４,,23,212,4460001,,,,,,,2023-10-27,1,,,,,シンコウコウギョウ,0
490,2180303005882,新規,0,2023-10-27,2023-10-27,合同会社ｍ＆Ｘ,,合同会社,愛知県,豊橋市,野依町字中瀬古７０番地３,,23,201,4418124,,,,,,,2023-10-27,1,,,,,エムアンド,0
503,2230003002101,新規,0,2023-10-27,2023-10-27,合同会社グレイスコネクト,,合同会社,富山県,射水市,あおば台１丁目５８番地,,16,211,9390247,,,,,,,2023-10-27,1,,,,,グレイスコネクト,0
510,2290001103548,新規,0,2023-10-27,2023-10-27,株式会社ヤチヨＰＬＵＳ,,株式会社,福岡県,福岡市早良区,曙２丁目４番１２号,00132437,40,137,8140004,,,,,,,2023-10-27,1,,,,,ヤチヨプラス,0
511,2290001103564,新規,0,2023-10-27,2023-10-27,和田貿易株式会社,,株式会社,福岡県,久留米市,御井旗崎５丁目９－１１ソラーナ４０２室,,40,203,8390841,,,,,,,2023-10-27,1,,,,,ワダボウエキ,0
512,2290003014545,新規,0,2023-10-27,2023-10-27,Ｃｒｏｓｓ‐Ｌｉｎｋ　Ｃｏｎｓｕｌｔｉｎｇ合同会社,,合同会社,福岡県,福岡市中央区,天神２丁目２番１２号Ｔ＆Ｊビルディング７Ｆ,,40,133,8100001,,,,,,,2023-10-27,1,,,,,クロスリンクコンサルティング,0
518,2300001013514,新規,0,2023-10-27,2023-10-27,株式会社北辰工業,,株式会社,佐賀県,佐賀市,北川副町大字光法１００９番地１ブーケ弐番館１０１号室,,41,201,8400012,,,,,,,2023-10-27,1,,,,,ホクシンコウギョウ,0
523,2330001031380,新規,0,2023-10-27,2023-10-27,株式会社ＫＩＮＧ　ｗｏｒｋｓ,,株式会社,熊本県,八代市,鏡町有佐７４番地２,,43,202,8694213,,,,,,,2023-10-27,1,,,,,キングワークス,0
525,2330005010711,新規,0,2023-10-27,2023-10-27,コアマンション唐人町管理組合法人,,その他の設立登記法人,熊本県,熊本市中央区,中唐人町２９番地コアマンション唐人町１０６号室,,43,101,8600028,,,,,,,2023-10-27,1,,,,,コアマンショントウジンマチ,0
529,2360003013408,新規,0,2023-10-27,2023-10-27,沖縄フリーランス合同会社,,合同会社,沖縄県,那覇市,宇栄原２丁目７－５シティテラス宇栄原４０２,,47,201,9010153,,,,,,,2023-10-27,1,,,,,オキナワフリーランス,0
532,2380001034098,新規,0,2023-10-27,2023-10-27,株式会社Ｃ＆Ｋ,,株式会社,福島県,岩瀬郡鏡石町,前山２４１番地,,07,342,9690401,,,,,,,2023-10-27,1,,,,,シーアンドケー,0
542,2450003002401,新規,0,2023-10-27,2023-10-27,合同会社ガレオン,,合同会社,北海道,名寄市,大通北３丁目６－１,,01,221,0960030,,,,,,,2023-10-27,1,,,,,,0
551,2500001025274,新規,0,2023-10-27,2023-10-27,株式会社Ａ’ｍｅｅ,,株式会社,愛媛県,松山市,二番町１丁目１０番地７すぎのビル２階２０１号,,38,201,7900002,,,,,,,2023-10-27,1,,,,,エーミー,0
552,2700150120789,新規,0,2023-10-27,2023-10-27,Ｇｕａｎｇｚｈｏｕ　ｈｅｙｉ　ｅｌｅｃｔｒｏｎｉｃ　ｔｅｃｈｎｏｌｏｇｙ　ｃｏ．，ｌｔｄ,,外国会社等,,,,,,,,Ｒｏｏｍ　７２７，Ｎｏ．５　Ｄｏｎｇｐｉｎｇ　Ｍｉｄｄｌｅ，Ｂａｉｙｕｎ　Ｄｉｓｔｒｉｃｔ　Ｇｕａｎｇｚｈｏｕ,,,,,,2023-10-27,1,,,,,コウシユウヘイイレクトウロニツクテクノロジー,0
553,2700150121507,新規,0,2023-10-27,2023-10-27,ＲＯＨＡＮＡ　ＭＯＴＯＲＳ＆ＴＲＡＤＩＮＧ,,外国会社等,千葉県,佐倉市,大篠塚２７７番地オフィス３号,,12,212,2850806,スリランカ民主社会主義共和国、マタレ、ケンダゴッラ、２４３,,,,,,2023-10-27,1,,,,,ロハナモータースアンドトレーデイング,0
562,3010001239534,新規,0,2023-10-27,2023-10-27,日本リンデプロダクツ株式会社,,株式会社,東京都,千代田区,六番町６－１－６０９,,13,101,1020085,,,,,,,2023-10-27,1,,,,,ニッポンリンデプロダクツ,0
563,3010001239583,新規,0,2023-10-27,2023-10-27,ＭＢＫＰ　Ａｌｔａｉｒ株式会社,,株式会社,東京都,千代田区,永田町２丁目１０番３号,,13,101,1000014,,,,,,,2023-10-27,1,,,,,エムビーケーピーアルタイル,0
566,3010003042036,新規,0,2023-10-27,2023-10-27,ＣｏｎｓｕｌｔｅｄＮｏｗ　Ｐａｒｔｎｅｒｓ合同会社,,合同会社,東京都,中央区,日本橋箱崎町１－２ＴＨＥ・ＳＨＯＲＥ日本橋茅場町２Ｆ,,13,102,1030015,,,,,,,2023-10-27,1,,,,,コンサルテッドナウパートナーズ,0
567,3010003042044,新規,0,2023-10-27,2023-10-27,合同会社ここまるのいとこ,,合同会社,東京都,千代田区,九段南１丁目５番６号りそな九段ビル５階ＫＳフロア,,13,101,1020074,,,,,,,2023-10-27,1,,,,,ココマルノイトコ,0
568,3010101015868,新規,0,2023-10-27,2023-10-27,株式会社セブン・スリー,,株式会社,東京都,八王子市,暁町３丁目７番１３号,,13,201,1920043,,,,,,,2023-10-27,1,,,,,セブンスリー,0
573,3010401178134,新規,0,2023-10-27,2023-10-27,株式会社Ｗｒａｐ　Ｍａｒｋｅｔｉｎｇ,,株式会社,東京都,港区,東麻布１丁目４番２号,,13,103,1060044,,,,,,,2023-10-27,1,,,,,ラップマーケティング,0
581,3010501051257,新規,0,2023-10-27,2023-10-27,正義国際株式会社,,株式会社,東京都,台東区,根岸２丁目２１番１５号間々田ビル３０７,,13,106,1100003,,,,,,,2023-10-27,1,,,,,セイギコクサイ,0
585,3010603010441,新規,0,2023-10-27,2023-10-27,佳博国際商社合同会社,,合同会社,東京都,江東区,枝川１丁目１４－６－１００５号,,13,108,1350051,,,,,,,2023-10-27,1,,,,,ヨシヒロコクサイショウシャ,0
594,3011001157841,新規,0,2023-10-27,2023-10-27,株式会社Ｌｕａｎａ,,株式会社,東京都,目黒区,上目黒２丁目１５番１号,,13,110,1530051,,,,,,,2023-10-27,1,,,,,ルアナ,0
595,3011001157866,新規,0,2023-10-27,2023-10-27,株式会社スペイサイドパートナーズ,,株式会社,東京都,渋谷区,千駄ヶ谷５丁目４－１４,,13,113,1510051,,,,,,,2023-10-27,1,,,,,スペイサイドパートナーズ,0
596,3011003017795,新規,0,2023-10-27,2023-10-27,合同会社ライフマネージメント,,合同会社,東京都,渋谷区,渋谷２丁目１９－１５宮益坂ビルディング６０９,,13,113,1500002,,,,,,,2023-10-27,1,,,,,ライフマネージメント,0
597,3011003017804,新規,0,2023-10-27,2023-10-27,合同会社ｐａｓ　ｄｅ　ｔｒｏｉｓ,,合同会社,東京都,目黒区,下目黒１丁目１番１４号コノトラビル７Ｆ,,13,110,1530064,,,,,,,2023-10-27,1,,,,,パドトロワ,0
599,3011101104925,新規,0,2023-10-27,2023-10-27,トレイスアダマス株式会社,,株式会社,東京都,新宿区,西早稲田２丁目４番４号,,13,104,1690051,,,,,,,2023-10-27,1,,,,,トレイスアダマス,0
600,3011101104933,新規,0,2023-10-27,2023-10-27,タウンエステート株式会社,,株式会社,東京都,新宿区,西新宿３丁目２０番２号東京オペラシティタワー４０階,,13,104,1600023,,,,,,,2023-10-27,1,,,,,タウンエステート,0
601,3011101104941,新規,0,2023-10-27,2023-10-27,プラチナワン株式会社,,株式会社,東京都,新宿区,西新宿４丁目３１番３号永谷リヴュール新宿２１９,,13,104,1600023,,,,,,,2023-10-27,1,,,,,プラチナワン,0
602,3011103013661,新規,0,2023-10-27,2023-10-27,ぴたどら合同会社,,合同会社,東京都,新宿区,西新宿３丁目３番１３号西新宿水間ビル２階,,13,104,1600023,,,,,,,2023-10-27,1,,,,,ピタドラ,0
605,3011401025565,新規,0,2023-10-27,2023-10-27,株式会社ｒｉｂｂｉｔ　ｒｉｂｂｉｔ,,株式会社,東京都,板橋区,大山西町１９番１号,,13,119,1730033,,,,,,,2023-10-27,1,,,,,リビリビ,0
617,3013301051542,新規,0,2023-10-27,2023-10-27,株式会社エムパワー,,株式会社,東京都,豊島区,目白２丁目１６番１９号,,13,116,1710031,,,,,,,2023-10-27,1,,,,,エムパワー,0
629,3020001154146,新規,0,2023-10-27,2023-10-27,東方ＡＴＭＴ株式会社,,株式会社,神奈川県,横浜市旭区,鶴ケ峰本町３丁目９－１８スターホームズ鶴ヶ峰本町１０４号室,,14,112,2410021,,,,,,,2023-10-27,1,,,,,トウホウエーティーエムティー,0
630,3020001154162,新規,0,2023-10-27,2023-10-27,ＬＩＬＡ株式会社,,株式会社,神奈川県,横浜市磯子区,中原３丁目８－２べルピア杉田第１－１０１号室,,14,107,2350036,,,,,,,2023-10-27,1,,,,,リラ,0
631,3020001154170,新規,0,2023-10-27,2023-10-27,株式会社ＦＡＢ　ＲＩＤＥ,,株式会社,神奈川県,横浜市都筑区,池辺町２６７９番地１Ｆ,,14,118,2240053,,,,,,,2023-10-27,1,,,,,ファブライド,0
632,3020001154179,新規,0,2023-10-27,2023-10-27,株式会社アクトン,,株式会社,神奈川県,横浜市港北区,新横浜３丁目２３番地８クリオ新横浜マスタープレイス９０３,,14,109,2220033,,,,,,,2023-10-27,1,,,,,アクトン,0
633,3020001154187,新規,0,2023-10-27,2023-10-27,株式会社三好,,株式会社,神奈川県,横浜市鶴見区,矢向１丁目７番８－２０５号,,14,101,2300001,,,,,,,2023-10-27,1,,,,,ミヨシ,0
637,3020003024859,新規,0,2023-10-27,2023-10-27,合同会社ｗｉｔｈ　ｍａｒｋｅｔｉｎｇ,,合同会社,神奈川県,横浜市磯子区,岡村４丁目５番９号,,14,107,2350021,,,,,,,2023-10-27,1,,,,,ウィズマーケティング,0
643,3021001080596,新規,0,2023-10-27,2023-10-27,株式会社アールテック,,株式会社,神奈川県,大和市,下鶴間２丁目５－３０,,14,213,2420001,,,,,,,2023-10-27,1,,,,,アールテック,0
654,3021003013711,新規,0,2023-10-27,2023-10-27,合同会社ＫＡＰＵＡＧＲＯＵＰ,,合同会社,神奈川県,藤沢市,鵠沼藤が谷１丁目１０番８号アレグリア鵠沼１０３,00132450,14,205,2510031,,,,,,,2023-10-27,1,,,,,カプアグループ,0
655,3021003013736,新規,0,2023-10-27,2023-10-27,Ｂｏｕｎｄｓ合同会社,,合同会社,神奈川県,相模原市南区,相模台６丁目１３番１号,,14,153,2520321,,,,,,,2023-10-27,1,,,,,バウンズ,0
656,3021003013744,新規,0,2023-10-27,2023-10-27,青秀企画合同会社,,合同会社,神奈川県,相模原市南区,上鶴間本町１丁目４８番５－３０９号,,14,153,2520318,,,,,,,2023-10-27,1,,,,,セイシュウキカク,0
661,3030001156876,新規,0,2023-10-27,2023-10-27,株式会社ジャスワロー,,株式会社,埼玉県,さいたま市中央区,大字下落合１７２２番地ＳＷ２０１号室,,11,105,3380002,,,,,,,2023-10-27,1,,,,,ジャスワロー,0
662,3030001156884,新規,0,2023-10-27,2023-10-27,株式会社新栄塗装工業,,株式会社,埼玉県,熊谷市,上中条２１５３番地５,,11,202,3600001,,,,,,,2023-10-27,1,,,,,シンエイトソウコウギョウ,0
667,3030003022878,新規,0,2023-10-27,2023-10-27,合同会社ひふみデザイン,,合同会社,埼玉県,川口市,元郷２丁目１５番１－１７０７号エルザタワー５５,,11,203,3320011,,,,,,,2023-10-27,1,,,,,ヒフミデザイン,0
671,3040001130707,新規,0,2023-10-27,2023-10-27,株式会社プラトウ,,株式会社,千葉県,流山市,大字鰭ケ崎１４１５番地の５,,12,220,2700161,,,,,,,2023-10-27,1,,,,,プラトウ,0
675,3040003023636,新規,0,2023-10-27,2023-10-27,合同会社Ｍ‐ＬＩＮＫ,,合同会社,千葉県,柏市,藤ケ谷１７９５森山方,,12,217,2770931,,,,,,,2023-10-27,1,,,,,エムリンク,0
679,3060003004782,新規,0,2023-10-27,2023-10-27,合同会社セラフューチャー,,合同会社,栃木県,芳賀郡益子町,大字益子３３０１番地,,09,342,3214217,,,,,,,2023-10-27,1,,,,,セラフューチャー,0
682,3070001041026,新規,0,2023-10-27,2023-10-27,株式会社Ｂｅａｕ　ｃｏｅｕｒ,,株式会社,群馬県,太田市,由良町１０２０番地３,,10,205,3730036,,,,,,,2023-10-27,1,,,,,,0
685,3080403004901,新規,0,2023-10-27,2023-10-27,合同会社ＵＰＲＩＧＨＴ,,合同会社,静岡県,浜松市中区,連尺町３１３番地の３１連尺クローバービル３０２,,22,131,4300939,,,,,,,2023-10-27,1,,,,,アップライト,0
686,3090001018393,新規,0,2023-10-27,2023-10-27,Ｏａｏａ株式会社,,株式会社,山梨県,甲府市,下飯田２丁目２番３号,,19,201,4000064,,,,,,,2023-10-27,1,,,,,オアオア,0
705,3120001259125,新規,0,2023-10-27,2023-10-27,株式会社エフジェイワイ,,株式会社,大阪府,大阪市北区,梅田１丁目２番２号大阪駅前第２ビル１２－１２,,27,127,5300001,,,,,,,2023-10-27,1,,,,,エフジェイワイ,0
706,3120001259208,新規,0,2023-10-27,2023-10-27,株式会社ヒノデ,,株式会社,大阪府,大阪市淀川区,西宮原３丁目２番１－７１３号,,27,123,5320004,,,,,,,2023-10-27,1,,,,,ヒノデ,0
707,3120001259216,新規,0,2023-10-27,2023-10-27,浩川商貿株式会社,,株式会社,大阪府,大阪市大正区,三軒家西３丁目４番１６号中山ビル１０４３,,27,108,5510001,,,,,,,2023-10-27,1,,,,,ヒロカワショウボウ,0
708,3120001259273,新規,0,2023-10-27,2023-10-27,洪福興業株式会社,,株式会社,大阪府,大阪市住之江区,北加賀屋５丁目８番６７号,,27,125,5590011,,,,,,,2023-10-27,1,,,,,コウフクコウギョウ,0
709,3120001259298,新規,0,2023-10-27,2023-10-27,縁日本株式会社,,株式会社,大阪府,大阪市北区,曾根崎２丁目１５－１６,,27,127,5300057,,,,,,,2023-10-27,1,,,,,エンニホン,0
715,3120101068343,新規,0,2023-10-27,2023-10-27,ＧＳＦｏｏｄ株式会社,,株式会社,大阪府,富田林市,錦織南１丁目４－３,,27,214,5840067,,,,,,,2023-10-27,1,,,,,ジーエスフード,0
716,3120101068450,新規,0,2023-10-27,2023-10-27,株式会社ＲＯＣＫ,,株式会社,大阪府,堺市堺区,南田出井町４丁４番６号,,27,141,5900015,,,,,,,2023-10-27,1,,,,,ロック,0
724,3130001075496,新規,0,2023-10-27,2023-10-27,豊達株式会社,,株式会社,京都府,京都市下京区,西七条西八反田町８２－１６－２０１,,26,106,6008892,,,,,,,2023-10-27,1,,,,,ホウタツ,0
725,3130001075521,新規,0,2023-10-27,2023-10-27,株式会社パラダイム,,株式会社,京都府,京都市伏見区,下鳥羽広長町１８４番地ユニハイム伏見大手筋３０２号,,26,109,6128473,,,,,,,2023-10-27,1,,,,,パラダイム,0
726,3130001075538,新規,0,2023-10-27,2023-10-27,アコンカグア株式会社,,株式会社,京都府,京都市上京区,今出川通浄福寺東入北小路中之町２１７番地,,26,102,6028461,,,,,,,2023-10-27,1,,,,,アコンカグア,0
727,3130001075554,新規,0,2023-10-27,2023-10-27,株式会社ゼノス,,株式会社,京都府,京都市西京区,大枝北沓掛町５丁目２３番地３,,26,111,6101101,,,,,,,2023-10-27,1,,,,,ゼノス,0
740,3140003019731,新規,0,2023-10-27,2023-10-27,合同会社Ｂ・Ｂ,,合同会社,兵庫県,西宮市,高座町７－３８,,28,204,6620872,,,,,,,2023-10-27,1,,,,,ビービー,0
742,3140005026783,新規,0,2023-10-27,2023-10-27,特定非営利活動法人Ｗａｒｍ　ｈｅａｒｔ　Ｉｎｔｅｒｎａｔｉｏｎａｌ　Ｔｒａｉｎｉｎｇ　Ｈｏｍｅ,,その他の設立登記法人,兵庫県,美方郡新温泉町,浜坂２３８９番地１,,28,586,6696702,,,,,,,2023-10-27,1,,,,,ウォームハートインターナショナルトレーニングホーム,0
745,3150001026844,新規,0,2023-10-27,2023-10-27,株式会社周防組,,株式会社,奈良県,大和郡山市,外川町２９２番地,,29,203,6391052,,,,,,,2023-10-27,1,,,,,スオウグミ,0
746,3150003003107,新規,0,2023-10-27,2023-10-27,合同会社アースビルド,,合同会社,奈良県,宇陀市,榛原上井足１８０１番地,,29,212,6330222,,,,,,,2023-10-27,1,,,,,アースビルド,0
749,3160003003015,新規,0,2023-10-27,2023-10-27,１０‐Ｄ合同会社,,合同会社,滋賀県,大津市,国分２丁目９２８番地の８３,,25,201,5200844,,,,,,,2023-10-27,1,,,,,テンディー,0
753,3180001158692,新規,0,2023-10-27,2023-10-27,株式会社マキシム,,株式会社,愛知県,名古屋市天白区,平針台１丁目１０２４番地,,23,116,4680030,,,,,,,2023-10-27,1,,,,,マキシム,0
754,3180001158701,新規,0,2023-10-27,2023-10-27,株式会社Ｌｅ　Ｄｉｖｉｎ,,株式会社,愛知県,名古屋市中区,丸の内３丁目６－１９ライオンズシティ久屋３０１,,23,106,4600002,,,,,,,2023-10-27,1,,,,,ルディヴァン,0
756,3180005020403,新規,0,2023-10-27,2023-10-27,一般社団法人もったいないリユース・アクション,,その他の設立登記法人,愛知県,名古屋市千種区,今池４丁目１６－１５今池ＦＧビルディング８階,,23,101,4640850,,,,,,,2023-10-27,1,,,,,モッタイナイリユースアクション,0
759,3180301037943,新規,0,2023-10-27,2023-10-27,株式会社ＮＴＡ,,株式会社,愛知県,岡崎市,広幡町３番地１７,,23,202,4440066,,,,,,,2023-10-27,1,,,,,エヌティーエー,0
762,3200001041862,新規,0,2023-10-27,2023-10-27,株式会社Ｆａｍｉｌｉａｒ,,株式会社,岐阜県,岐阜市,柳津町東塚５丁目９番地,,21,201,5016102,,,,,,,2023-10-27,1,,,,,ファミリア,0
775,3260001038449,新規,0,2023-10-27,2023-10-27,株式会社エイトホーム,,株式会社,岡山県,倉敷市,日畑４２３‐１,,33,202,7010101,,,,,,,2023-10-27,1,,,,,エイトホーム,0
776,3260003004481,新規,0,2023-10-27,2023-10-27,合同会社ＲＫ　Ｃｏ．Ｌｔｄ．,,合同会社,岡山県,備前市,日生町日生６３９番地４８,,33,211,7013204,,,,,,,2023-10-27,1,,,,,アールケーカンパニー,0
782,3290001103563,新規,0,2023-10-27,2023-10-27,株式会社飛翔,,株式会社,福岡県,福岡市中央区,大手門３丁目９－８ラポールコート大手門５０２号,,40,133,8100074,,,,,,,2023-10-27,1,,,,,ヒショウ,0
791,3320003004211,新規,0,2023-10-27,2023-10-27,合同会社ＦｏｒｅｓｔＳｅｒｖｉｃｅ,,合同会社,大分県,別府市,浜町１４番２３号,,44,202,8740945,,,,,,,2023-10-27,1,,,,,フォレストサービス,0
798,3360001032739,新規,0,2023-10-27,2023-10-27,株式会社ＩＮＳＩＧＨＴ,,株式会社,沖縄県,名護市,字為又１２１９番地１４４,,47,209,9050005,,,,,,,2023-10-27,1,,,,,インサイト,0
801,3370001050574,新規,0,2023-10-27,2023-10-27,株式会社不動産のステーション,,株式会社,宮城県,大崎市,古川穂波７丁目８番２７号ブリランテハウス１－Ｂ,,04,215,9896136,,,,,,,2023-10-27,1,,,,,フドウサンノステーション,0
802,3370003006343,新規,0,2023-10-27,2023-10-27,合同会社プラマー,,合同会社,宮城県,仙台市宮城野区,福室６丁目１番１１－２０２号,,04,102,9830005,,,,,,,2023-10-27,1,,,,,プラマー,0
808,3380003005600,新規,0,2023-10-27,2023-10-27,合同会社西尾屋,,合同会社,福島県,郡山市,富田町字塩ノ草７９番地の７,,07,203,9638041,,,,,,,2023-10-27,1,,,,,ニシオヤ,0
816,3430001090275,新規,0,2023-10-27,2023-10-27,株式会社Ａｓｉａ　Ｕｎｉｏｎ　ＴＣＳ,,株式会社,北海道,札幌市豊平区,月寒中央通７丁目６－２０ＪＡ月寒中央ビル２Ｆ,,01,105,0620020,,,,,,,2023-10-27,1,,,,,アジアユニオンティーシーエス,0
817,3430001090309,新規,0,2023-10-27,2023-10-27,株式会社ジムティ,,株式会社,北海道,札幌市中央区,北七条西１３丁目９番地１塚本ビル７号館,,01,101,0600007,,,,,,,2023-10-27,1,,,,,ジムティ,0
825,3500003003129,新規,0,2023-10-27,2023-10-27,ＷＩＮＧ合同会社,,合同会社,愛媛県,松山市,北土居１丁目１３番２２号,,38,201,7911104,,,,,,,2023-10-27,1,,,,,,0
826,3700150121506,新規,0,2023-10-27,2023-10-27,Ｈｅｍｐ　Ｈｏｕｓｅ　Ｎｅｐａｌ,,外国会社等,埼玉県,鴻巣市,大間３丁目１０番地２３ラデヴェナ鴻巣２０５,,11,217,3650054,ネパール、カトマンズ大都市、第１６区、サットグムティ,,,,,,2023-10-27,1,,,,,ヘンプハウスネパール,0
851,4010403031240,新規,0,2023-10-27,2023-10-27,合同会社ＳＨＥＬＬＣＡ,,合同会社,東京都,港区,南青山３丁目１番３６号青山丸竹ビル６Ｆ,,13,103,1070062,,,,,,,2023-10-27,1,,,,,シェルカ,0
857,4010601064042,新規,0,2023-10-27,2023-10-27,株式会社オーイダ,,株式会社,東京都,江東区,大島５丁目４４番６－２０９号ライオンズマンション大島,,13,108,1360072,,,,,,,2023-10-27,1,,,,,オーイダ,0
862,4011001157683,新規,0,2023-10-27,2023-10-27,株式会社Ｈｕｅ,,株式会社,東京都,渋谷区,恵比寿西１丁目３３番６号ＪＰｎｏｉｅ恵比寿西１階,,13,113,1500021,,,,,,,2023-10-27,1,,,,,ヒュー,0
865,4011003017794,新規,0,2023-10-27,2023-10-27,合同会社ノーウェイバック,,合同会社,東京都,渋谷区,渋谷２丁目１９－１５宮益坂ビルディング６０９,,13,113,1500002,,,,,,,2023-10-27,1,,,,,ノーウェイバック,0
869,4011101104940,新規,0,2023-10-27,2023-10-27,代々木地所株式会社,,株式会社,東京都,新宿区,西新宿４丁目３１番３号永谷リヴュール新宿２１９,,13,104,1600023,,,,,,,2023-10-27,1,,,,,ヨヨギジショ,0
879,4011501029928,新規,0,2023-10-27,2023-10-27,ＢＡＲＤＡＮ株式会社,,株式会社,東京都,北区,東十条６丁目４番１２－１０１号,,13,117,1140001,,,,,,,2023-10-27,1,,,,,バルダン,0
880,4011601027229,新規,0,2023-10-27,2023-10-27,株式会社ＭＡＳＨＢＯＸ,,株式会社,東京都,練馬区,大泉学園町５丁目１９番９号,,13,120,1780061,,,,,,,2023-10-27,1,,,,,マッシュボックス,0
882,4011701026700,新規,0,2023-10-27,2023-10-27,株式会社ＳＩＧＮＰＯＳＴ,,株式会社,東京都,江戸川区,本一色１丁目３４番１７号,,13,123,1330044,,,,,,,2023-10-27,1,,,,,サインポスト,0
883,4011701026709,新規,0,2023-10-27,2023-10-27,赤坂第六期株式会社,,株式会社,東京都,江戸川区,中葛西５丁目２０番９号ＳＵＮＧＩＯＩＡＮｏｒｔｈ１０１,,13,123,1340083,,,,,,,2023-10-27,1,,,,,アカサカダイロッキ,0
884,4011801043240,新規,0,2023-10-27,2023-10-27,ｉｎｔｅｒｉｏｒｔｅｃ．株式会社,,株式会社,東京都,足立区,東綾瀬１丁目２５番２６－９０４号,,13,121,1200004,,,,,,,2023-10-27,1,,,,,インテリアテック,0
885,4011803005899,新規,0,2023-10-27,2023-10-27,合同会社ＡＢＪ,,合同会社,東京都,足立区,平野３丁目１６番７号ミランダちどり２０２号,,13,121,1210076,,,,,,,2023-10-27,1,,,,,エービージェイ,0
886,4011803005908,新規,0,2023-10-27,2023-10-27,合同会社ヤッピーｂｒｏｓ,,合同会社,東京都,足立区,大谷田３丁目２０番５号,,13,121,1200001,,,,,,,2023-10-27,1,,,,,ヤッピブラザーズ,0
889,4012701017912,新規,0,2023-10-27,2023-10-27,株式会社あすナビ,,株式会社,東京都,東村山市,栄町２丁目４０番地２１山田ビル２階,,13,213,1890013,,,,,,,2023-10-27,1,,,,,アスナビ,0
890,4012703002846,新規,0,2023-10-27,2023-10-27,合同会社Ｇｏ‐ｅｎ,,合同会社,東京都,小平市,小川町１丁目９７０番地の２２マリンパレス鷹ノ台１１１号,,13,211,1870032,,,,,,,2023-10-27,1,,,,,ゴエン,0
892,4013303006857,新規,0,2023-10-27,2023-10-27,合同会社スマートフロー,,合同会社,東京都,豊島区,東池袋１丁目１７番１１号パークハイツ池袋１１０５号,,13,116,1700013,,,,,,,2023-10-27,1,,,,,スマートフロー,0
897,4020001154153,新規,0,2023-10-27,2023-10-27,株式会社ブルーティアラ,,株式会社,神奈川県,横浜市中区,長者町５丁目８５番地,,14,104,2310033,,,,,,,2023-10-27,1,,,,,ブルーティアラ,0
898,4020001154161,新規,0,2023-10-27,2023-10-27,株式会社Ｊａｐａｎ　Ｓｔａｒ　Ｔｒａｖｅｌ　Ａｇｅｎｃｙ,,株式会社,神奈川県,横浜市泉区,緑園４丁目３－１－４－１０２,,14,116,2450002,,,,,,,2023-10-27,1,,,,,ジャパンスタートラベルエージェンシー,0
909,4021001080587,新規,0,2023-10-27,2023-10-27,株式会社ハンマーブロス,,株式会社,神奈川県,相模原市緑区,下九沢１４４８番地６,,14,151,2520134,,,,,,,2023-10-27,1,,,,,ハンマーブロス,0
916,4021003013727,新規,0,2023-10-27,2023-10-27,ＡＮＩ合同会社,,合同会社,神奈川県,厚木市,妻田北２丁目１４番３１号グリシーヌＩ２０１,00132449,14,212,2430812,,,,,,,2023-10-27,1,,,,,アニ,0
917,4021003013743,新規,0,2023-10-27,2023-10-27,合同会社Ｂｅｓｔ　Ｐｈｙｓｉｃａｌ,,合同会社,神奈川県,横須賀市,坂本町１丁目３３,,14,201,2380043,,,,,,,2023-10-27,1,,,,,ベストフィジカル,0
928,4030001156850,新規,0,2023-10-27,2023-10-27,株式会社Ｍ‐ｔｅｃｈ　Ｃｏｒｐｏｒａｔｉｏｎ,,株式会社,埼玉県,川越市,大字砂新田１７７８番地６０,,11,201,3501137,,,,,,,2023-10-27,1,,,,,エムテックコーポレーション,0
934,4030003022885,新規,0,2023-10-27,2023-10-27,合同会社増渕電気工事,,合同会社,埼玉県,草加市,谷塚町８９８番地７,,11,221,3400023,,,,,,,2023-10-27,1,,,,,マスブチデンキコウジ,0
941,4040001130664,新規,0,2023-10-27,2023-10-27,株式会社ｙａｍａｈｅｉ,,株式会社,千葉県,千葉市中央区,富士見２丁目７番９号富士見ビル６０９号,,12,101,2600015,,,,,,,2023-10-27,1,,,,,ヤマヘイ,0
944,4040003023627,新規,0,2023-10-27,2023-10-27,合同会社ＣＨＡＭＩ　ＥＮＴＥＲＰＲＩＳＥＳ,,合同会社,千葉県,柏市,宿連寺２５９番地２メゾン柏２０５号室,,12,217,2770826,,,,,,,2023-10-27,1,,,,,チャミエンタープライズ,0
948,4060001036496,新規,0,2023-10-27,2023-10-27,インドジャパン株式会社,,株式会社,栃木県,小山市,東城南１丁目２６番地７エイジハイツ２０１号室,,09,208,3230829,,,,,,,2023-10-27,1,,,,,インドジャパン,0
952,4070001041025,新規,0,2023-10-27,2023-10-27,ｅ‐Ｇｒｉｔ株式会社,,株式会社,群馬県,伊勢崎市,豊城町２１４６番地１３,,10,204,3720012,,,,,,,2023-10-27,1,,,,,イーグリット,0
956,4070003005151,新規,0,2023-10-27,2023-10-27,合同会社海拓,,合同会社,群馬県,前橋市,富士見町時沢２５９６番地６,,10,201,3710104,,,,,,,2023-10-27,1,,,,,,0
970,4120001259140,新規,0,2023-10-27,2023-10-27,金達株式会社,,株式会社,大阪府,大阪市浪速区,桜川２丁目３番１３号プレサンス難波ＷＥＳＴ５０３号室,,27,111,5560022,,,,,,,2023-10-27,1,,,,,キンタツ,0
971,4120001259215,新規,0,2023-10-27,2023-10-27,多摩多株式会社,,株式会社,大阪府,大阪市中央区,松屋町９番２０号ローレルステート松屋町１２０８Ｂ,,27,128,5420067,,,,,,,2023-10-27,1,,,,,タマタ,0
972,4120001259248,新規,0,2023-10-27,2023-10-27,株式会社たか匠,,株式会社,大阪府,寝屋川市,池田中町２０番１４号,,27,215,5720074,,,,,,,2023-10-27,1,,,,,タカショウ,0
973,4120003025202,新規,0,2023-10-27,2023-10-27,合同会社コバミヤキンジロウ,,合同会社,大阪府,大阪市東成区,東中本１丁目２‐１０,,27,115,5370021,,,,,,,2023-10-27,1,,,,,コバミヤキンジロウ,0
980,4120901048246,新規,0,2023-10-27,2023-10-27,株式会社ＴＲＹＳＭ　ＷＯＲＫＳ,,株式会社,大阪府,池田市,畑２丁目５番２５号,,27,204,5630021,,,,,,,2023-10-27,1,,,,,トライズムワークス,0
981,4120901048279,新規,0,2023-10-27,2023-10-27,株式会社ヒカリエレクトワークス,,株式会社,大阪府,豊中市,庄内西町２丁目７番２３号,,27,203,5610832,,,,,,,2023-10-27,1,,,,,ヒカリエレクトワークス,0
986,4122001037518,新規,0,2023-10-27,2023-10-27,株式会社ナックスコーポレーション,,株式会社,大阪府,八尾市,服部川９丁目１０７番地,,27,212,5810865,,,,,,,2023-10-27,1,,,,,ナックスコーポレーション,0
988,4130001075495,新規,0,2023-10-27,2023-10-27,睿澤株式会社,,株式会社,京都府,京都市伏見区,醍醐外山街道町７番地１００－１Ｆ,,26,109,6011345,,,,,,,2023-10-27,1,,,,,アキサワ,0
989,4130001075520,新規,0,2023-10-27,2023-10-27,株式会社ＮＣＳ,,株式会社,京都府,京都市山科区,大塚中溝６２番６,,26,110,6078133,,,,,,,2023-10-27,1,,,,,エヌシーエス,0
990,4130001075553,新規,0,2023-10-27,2023-10-27,株式会社京リフォーム,,株式会社,京都府,京都市伏見区,深草大亀谷万帖敷町８９番地１６,,26,109,6120846,,,,,,,2023-10-27,1,,,,,キョウリフォーム,0
999,4140001132147,新規,0,2023-10-27,2023-10-27,株式会社リンピオ,,株式会社,兵庫県,神戸市須磨区,北落合２丁目１２－３５６－５０２,,28,107,6540151,,,,,,,2023-10-27,1,,,,,リンピオ,0
1000,4140001132163,新規,0,2023-10-27,2023-10-27,株式会社サンダヴィンチ・アート研究所,,株式会社,兵庫県,三田市,藍本３９８０番地１,,28,219,6691358,,,,,,,2023-10-27,1,,,,,サンダヴィンチアートケンキュウショ,0
1009,4160003003022,新規,0,2023-10-27,2023-10-27,ＮＩＨＯＮ　ＳＨＯＫＡＩ合同会社,,合同会社,滋賀県,大津市,小野７２１番地の１,,25,201,5200525,,,,,,,2023-10-27,1,,,,,ニホンショウカイ,0
1015,4180001158576,新規,0,2023-10-27,2023-10-27,アットオフィス株式会社,,株式会社,愛知県,常滑市,苅屋字加茂１７３番地,,23,216,4790805,,,,,,,2023-10-27,1,,,,,アットオフィス,0
1016,4180001158650,新規,0,2023-10-27,2023-10-27,オートクチュール株式会社,,株式会社,愛知県,東海市,加木屋町北鹿持１番地２７,,23,222,4770032,,,,,,,2023-10-27,1,,,,,オートクチュール,0
1017,4180001158667,新規,0,2023-10-27,2023-10-27,株式会社ハセコー,,株式会社,愛知県,名古屋市天白区,井口１丁目１５０４番地－６０３号,,23,116,4680052,,,,,,,2023-10-27,1,,,,,ハセコー,0
1018,4180001158691,新規,0,2023-10-27,2023-10-27,株式会社誠ホールディングス,,株式会社,愛知県,清須市,助七東山中３８番地,,23,233,4520902,,,,,,,2023-10-27,1,,,,,マコトホールディングス,0
1022,4180003025915,新規,0,2023-10-27,2023-10-27,合同会社ｓｔｙｌｅ　Ｈ,,合同会社,愛知県,名古屋市北区,若葉通３丁目１８番地の１第３大曽根ビル５０２号,,23,103,4620854,,,,,,,2023-10-27,1,,,,,スタイルエイチ,0
1026,4180301037942,新規,0,2023-10-27,2023-10-27,協振工業株式会社,,株式会社,愛知県,豊橋市,二川町字南裏１２９番地の３８,,23,201,4413152,,,,,,,2023-10-27,1,,,,,キョウシンコウギョウ,0
1027,4180301037959,新規,0,2023-10-27,2023-10-27,株式会社ＫＡＤＥＳＥ,,株式会社,愛知県,豊田市,聖心町２丁目３８番地４,,23,211,4710844,,,,,,,2023-10-27,1,,,,,カデセ,0
1033,4200001041861,新規,0,2023-10-27,2023-10-27,株式会社金五郎,,株式会社,岐阜県,関市,西神野１０６７－１,,21,205,5013202,,,,,,,2023-10-27,1,,,,,キンゴロウ,0
1034,4200003006128,新規,0,2023-10-27,2023-10-27,合同会社ＰＲＯＳＩＡ,,合同会社,岐阜県,各務原市,那加新加納町２２３５番地１,,21,213,5040958,,,,,,,2023-10-27,1,,,,,プロシア,0
1036,4220001025656,新規,0,2023-10-27,2023-10-27,株式会社Ｇｅｔ　ｆａｔ,,株式会社,石川県,羽咋郡志賀町,高浜町ノ７４番地,,17,384,9250141,,,,,,,2023-10-27,1,,,,,ゲットファット,0
1049,4260001038448,新規,0,2023-10-27,2023-10-27,株式会社建友地所ホールディングス,,株式会社,岡山県,岡山市北区,東古松２丁目１番５号,,33,101,7000921,,,,,,,2023-10-27,1,,,,,ケンユウチショホールディングス,0
1061,4290001103554,新規,0,2023-10-27,2023-10-27,よくする株式会社,,株式会社,福岡県,福岡市中央区,平尾１丁目８番２２－１００１号ロマネスク平尾第３,,40,133,8100014,,,,,,,2023-10-27,1,,,,,ヨクスル,0
1062,4290001103562,新規,0,2023-10-27,2023-10-27,株式会社山崎クリーンサービス,00132451,株式会社,福岡県,飯塚市,小正６４６番地１０,,40,205,8200089,,,,,,,2023-10-27,1,,,,,ヤマザキクリーンサービス,0
1069,4290801029981,新規,0,2023-10-27,2023-10-27,株式会社クルクル,,株式会社,福岡県,北九州市小倉北区,魚町１丁目４番１号ザボビル２階,,40,106,8020006,,,,,,,2023-10-27,1,,,,,クルクル,0
1070,4290801029998,新規,0,2023-10-27,2023-10-27,株式会社Ｌｉｆｉｘ,,株式会社,福岡県,鞍手郡小竹町,大字新多３２９番地１,,40,401,8201104,,,,,,,2023-10-27,1,,,,,リフィックス,0
1071,4300001013512,新規,0,2023-10-27,2023-10-27,ＰＬＡＮＥＴ　Ｅｎｔｅｒｔａｉｎｍｅｎｔ株式会社,,株式会社,佐賀県,唐津市,二タ子２丁目６番１６号,,41,202,8470861,,,,,,,2023-10-27,1,,,,,プラネットエンターテインメント,0
1072,4300005007163,新規,0,2023-10-27,2023-10-27,一般社団法人多文化人材活躍支援センター,,その他の設立登記法人,佐賀県,佐賀市,唐人２丁目５－２５,,41,201,8400813,,,,,,,2023-10-27,1,,,,,タブンカジンザイカツヤクセンター,0
1076,4310005008722,新規,0,2023-10-27,2023-10-27,一般財団法人長崎松下財団,,その他の設立登記法人,長崎県,五島市,籠淵町２０６４番地１１,,42,211,8530041,,,,,,,2023-10-27,1,,,,,ナガサキマツシタザイダン,0
1078,4350005006185,新規,0,2023-10-27,2023-10-27,一般社団法人宮崎地域スポーツマネジメント,,その他の設立登記法人,宮崎県,宮崎市,清武町今泉甲３５９３－６,,45,201,8891602,,,,,,,2023-10-27,1,,,,,ミヤザキチイキスポーツマネジメント,0
1082,4360001032738,新規,0,2023-10-27,2023-10-27,株式会社トゥモローゲート,,株式会社,沖縄県,豊見城市,字我那覇３４９番地,,47,212,9010231,,,,,,,2023-10-27,1,,,,,トゥモローゲート,0
1083,4360003013406,新規,0,2023-10-27,2023-10-27,合同会社ＣＡＲＡＦＥ,,合同会社,沖縄県,宜野湾市,宜野湾３丁目１３番３１号,,47,205,9012211,,,,,,,2023-10-27,1,,,,,カラフェ,0
1106,4430003015551,新規,0,2023-10-27,2023-10-27,合同会社太兵衛商会,,合同会社,北海道,札幌市手稲区,手稲本町一条３丁目３番１－１２０１号,,01,109,0060021,,,,,,,2023-10-27,1,,,,,タヘエショウカイ,0
1107,4460003000971,新規,0,2023-10-27,2023-10-27,合同会社兎巡,,合同会社,北海道,川上郡弟子屈町,高栄２丁目８番３号,,01,665,0883214,,,,,,,2023-10-27,1,,,,,,0
1112,4480001012273,新規,0,2023-10-27,2023-10-27,株式会社ケアクリエイト,,株式会社,徳島県,板野郡藍住町,矢上字北分８２番地１,,36,403,7711252,,,,,,,2023-10-27,1,,,,,ケアクリエイト,0
1113,4480003002041,新規,0,2023-10-27,2023-10-27,合同会社ぷれむきっず,,合同会社,徳島県,徳島市,国府町北岩延字西屋敷２５番地１,,36,201,7793119,,,,,,,2023-10-27,1,,,,,プレムキッズ,0
1114,4500001025272,新規,0,2023-10-27,2023-10-27,株式会社オオノハク,,株式会社,愛媛県,松山市,北梅本町甲１８４番地,,38,201,7910242,,,,,,,2023-10-27,1,,,,,オオノハク,0
1115,4700150116736,新規,0,2023-10-27,2023-10-27,ＷＥＮＺＨＯＵ　ＰＲＩＴＥＣＨ　ＩＮＤＵＳＴＲＩＡＬ　ＣＯ．，ＬＴＤ,,外国会社等,,,,,,,,ｈｏｎｇ　ｄｉａｎ　ｎａｎ　ｌｕ　１０３ｈａｏ，ｗｅｎｚｈｏｕ　ｚｈｅｊｉａｎｇ,,,,,,2023-10-27,1,,,,,ウエンヂヨウプライテツクインダストリアル,0
1116,4700150121505,新規,0,2023-10-27,2023-10-27,Ｇｒｅｅｎ　Ｌａｎｋａ　Ｅｎｔｅｒｐｒｉｓｅｓ,,外国会社等,神奈川県,海老名市,杉久保北３丁目１５３７番地２,,14,215,2430410,スリランカ民主社会主義共和国、キャンディ、アンバテナ、ムレガマＮｏ．４８／４,,,,,,2023-10-27,1,,,,,グリーンランカエンタープライゼス,0
1117,4700150121521,新規,0,2023-10-27,2023-10-27,Ａｎａｎｄａ　Ｍｏｔｏｒｓ,,外国会社等,埼玉県,飯能市,大字原市場１２５１－１,,11,209,3570124,スリランカ民主社会主義共和国マクルウェワ、デドゥル、オヤガマ,,,,,,2023-10-27,1,,,,,アナンダモータース,0
1125,5010001239549,新規,0,2023-10-27,2023-10-27,都商事株式会社,,株式会社,東京都,文京区,音羽１丁目２６番１３号,,13,105,1120013,,,,,,,2023-10-27,1,,,,,ミヤコショウジ,0
1126,5010003042050,新規,0,2023-10-27,2023-10-27,Ｂ３　Ｊａｐａｎ合同会社,,合同会社,東京都,中央区,銀座４丁目１４番１１号七十七銀座ビル８階,,13,102,1040061,,,,,,,2023-10-27,1,,,,,ビースリージャパン,0
1127,5010005037437,新規,0,2023-10-27,2023-10-27,三郷デベロップメント特定目的会社,,その他の設立登記法人,東京都,千代田区,丸の内３丁目１番１号東京共同会計事務所内,,13,101,1000005,,,,,,,2023-10-27,1,,,,,ミサトデベロップメント,0
1131,5010405022625,新規,0,2023-10-27,2023-10-27,ＪＭフェニックス特定目的会社,,その他の設立登記法人,東京都,港区,六本木１丁目９番１０号アークヒルズ仙石山森タワー４０階,,13,103,1060032,,,,,,,2023-10-27,1,,,,,ジェイエムフェニックス,0
1134,5010601063984,新規,0,2023-10-27,2023-10-27,品盛株式会社,,株式会社,東京都,江東区,佐賀１丁目１６番３号２０１－Ｄ,,13,108,1350031,,,,,,,2023-10-27,1,,,,,ヒンセイ,0
1142,5010801006768,新規,0,2023-10-27,2023-10-27,大豊建設株式会社,,株式会社,東京都,大田区,大森東４丁目１２番６号,,13,111,1430012,,,,,,,2023-10-27,1,,,,,タイホウケンセツ,0
1143,5010903008539,新規,0,2023-10-27,2023-10-27,合同会社ｍｉｍｉｃ,,合同会社,東京都,世田谷区,北沢３丁目２７番４号立木ビル４０２,,13,112,1550031,,,,,,,2023-10-27,1,,,,,ミミック,0
1153,5011001157872,新規,0,2023-10-27,2023-10-27,株式会社ステラミュージック,,株式会社,東京都,渋谷区,東３丁目２１番１号ＴＳＡビル,,13,113,1500011,,,,,,,2023-10-27,1,,,,,ステラミュージック,0
1154,5011003017802,新規,0,2023-10-27,2023-10-27,Ｃｒｅａｔｉｖｅ　Ｏｒｇａｎｉｚｅｄ　Ｔｅｃｈｎｏｌｏｇｙ合同会社,,合同会社,東京都,渋谷区,神宮前６丁目２３番４号桑野ビル２階,,13,113,1500001,,,,,,,2023-10-27,1,,,,,クリエイティブオーガナイズドテクノロジー,0
1170,5011701026699,新規,0,2023-10-27,2023-10-27,株式会社グランツ,,株式会社,東京都,江戸川区,篠崎町２丁目２６番１号,,13,123,1330061,,,,,,,2023-10-27,1,,,,,グランツ,0
1176,5011801043256,新規,0,2023-10-27,2023-10-27,株式会社Ｖｉｃｔｏｒｉａ,,株式会社,東京都,足立区,綾瀬１丁目３８番１４号大成ビル１Ｆ,,13,121,1200005,,,,,,,2023-10-27,1,,,,,ビクトリア,0
1179,5011803005907,新規,0,2023-10-27,2023-10-27,合同会社ＴＳＣプランニング,,合同会社,東京都,足立区,東保木間２丁目３３番６号,,13,121,1210063,,,,,,,2023-10-27,1,,,,,ティーエスシープランニング,0
1184,5013101009276,新規,0,2023-10-27,2023-10-27,株式会社Ｍ．Ｉ．Ｐ,,株式会社,東京都,福生市,大字熊川１１２８番地３,,13,218,1970003,,,,,,,2023-10-27,1,,,,,エムアイピー,0
1194,5020001154103,新規,0,2023-10-27,2023-10-27,Ｏｎｅ　Ｃｌａｓｓ　Ｊａｐａｎ株式会社,,株式会社,神奈川県,横浜市都筑区,仲町台１丁目２４番２２号,,14,118,2240041,,,,,,,2023-10-27,1,,,,,ワンクラスジャパン,0
1195,5020001154128,新規,0,2023-10-27,2023-10-27,日本華生園株式会社,,株式会社,神奈川県,横浜市中区,太田町６丁目６８オバリバジュ９０６,,14,104,2310011,,,,,,,2023-10-27,1,,,,,ニホンカセイエン,0
1196,5020001154169,新規,0,2023-10-27,2023-10-27,株式会社アットイーズ,,株式会社,神奈川県,横浜市鶴見区,佃野町１４番３－２０７号,,14,101,2300061,,,,,,,2023-10-27,1,,,,,アットイーズ,0
1197,5020001154193,新規,0,2023-10-27,2023-10-27,ライトテックス株式会社,,株式会社,神奈川県,横浜市中区,末吉町２丁目２８番地４－３０１,,14,104,2310055,,,,,,,2023-10-27,1,,,,,ライトテックス,0
1198,5020001154202,新規,0,2023-10-27,2023-10-27,株式会社ＨＥＬＩＯＳ,,株式会社,神奈川県,横浜市金沢区,柳町９番地１２,,14,108,2360026,,,,,,,2023-10-27,1,,,,,ヘリオス,0
1201,5020003024865,新規,0,2023-10-27,2023-10-27,シェアブリスグループ合同会社,,合同会社,神奈川県,横浜市青葉区,青葉台１丁目２１番地２６,,14,117,2270062,,,,,,,2023-10-27,1,,,,,シェアブリスグループ,0
1205,5021001080561,新規,0,2023-10-27,2023-10-27,株式会社Ｚ,,株式会社,神奈川県,相模原市中央区,相模原３丁目８－４ツカサビル３Ｆ,,14,152,2520231,,,,,,,2023-10-27,1,,,,,ゼット,0
1211,5030001156858,新規,0,2023-10-27,2023-10-27,トリプルエスクラウドリンク株式会社,,株式会社,埼玉県,さいたま市西区,宮前町１５５番地１５,,11,101,3310046,,,,,,,2023-10-27,1,,,,,トリプルエスクラウドリンク,0
1212,5030001156866,新規,0,2023-10-27,2023-10-27,株式会社八幸ＰＬＵＳ,,株式会社,埼玉県,坂戸市,伊豆の山町２１番地４７ＫＩＶオフィス伊豆の山１号棟Ｄ号室,,11,239,3500275,,,,,,,2023-10-27,1,,,,,ハチコウプラス,0
1213,5030001156874,新規,0,2023-10-27,2023-10-27,株式会社グレイスワン,,株式会社,埼玉県,所沢市,南住吉２１番３２号,,11,208,3591125,,,,,,,2023-10-27,1,,,,,グレイスワン,0
1220,5030003022884,新規,0,2023-10-27,2023-10-27,合同会社小林,,合同会社,埼玉県,入間市,久保稲荷１丁目１０番地１扇町屋団地１１－３０１,,11,225,3580024,,,,,,,2023-10-27,1,,,,,コバヤシ,0
1229,5040003023601,新規,0,2023-10-27,2023-10-27,合同会社ＬａｓｈｉＱ,,合同会社,千葉県,流山市,西初石４丁目１４２７番地の８,,12,220,2700121,,,,,,,2023-10-27,1,,,,,ラシク,0
1230,5040005022171,新規,0,2023-10-27,2023-10-27,一般社団法人超普通,,その他の設立登記法人,千葉県,柏市,常盤台４－１４メゾンヒガノ２０２,,12,217,2770087,,,,,,,2023-10-27,1,,,,,チョウフツウ,0
1234,5060001036487,新規,0,2023-10-27,2023-10-27,株式会社伊藤自動車整備工場,,株式会社,栃木県,鹿沼市,楡木町４０４番地１０,,09,205,3220526,,,,,,,2023-10-27,1,,,,,イトウジドウシャセイビコウジョウ,0
1237,5070001041024,新規,0,2023-10-27,2023-10-27,株式会社ｅｒｕ,,株式会社,群馬県,邑楽郡邑楽町,大字中野２７６７番地４,,10,525,3700603,,,,,,,2023-10-27,1,,,,,エル,0
1239,5070003005150,新規,0,2023-10-27,2023-10-27,合同会社Ｆｉｒｓｔ,,合同会社,群馬県,高崎市,上大類町１０４１番地１スプリングハイムＢ２０１号,,10,202,3700031,,,,,,,2023-10-27,1,,,,,ファースト,0
1265,5120001259214,新規,0,2023-10-27,2023-10-27,東沛株式会社,,株式会社,大阪府,大阪市大正区,三軒家西３丁目４番１６号中山ビル１０３５,,27,108,5510001,,,,,,,2023-10-27,1,,,,,トウハイ,0
1266,5120001259239,新規,0,2023-10-27,2023-10-27,セル・リボーン株式会社,,株式会社,大阪府,大阪市北区,堂島２丁目３番２－３０４号,,27,127,5300003,,,,,,,2023-10-27,1,,,,,セルリボーン,0
1267,5120001259247,新規,0,2023-10-27,2023-10-27,株式会社ＡＲＢ,,株式会社,大阪府,大阪市中央区,北浜２丁目３番１４号,,27,128,5410041,,,,,,,2023-10-27,1,,,,,アーブ,0
1268,5120001259263,新規,0,2023-10-27,2023-10-27,瞻略株式会社,,株式会社,大阪府,大阪市生野区,小路東６丁目８番１７号昭和エクセルビュー東大阪１０３－Ｇ２４,,27,116,5440003,,,,,,,2023-10-27,1,,,,,センリャク,0
1269,5120001259305,新規,0,2023-10-27,2023-10-27,華商株式会社,,株式会社,大阪府,大阪市西成区,太子１丁目１１番１３号,,27,122,5570002,,,,,,,2023-10-27,1,,,,,カショウ,0
1270,5120001259420,新規,0,2023-10-27,2023-10-27,株式会社トコッティスタイルテックソリューションズ,,株式会社,大阪府,枚方市,招提中町１丁目３２番２３号,,27,210,5731152,,,,,,,2023-10-27,1,,,,,トコッティスタイルテックソリューションズ,0
1279,5130001075536,新規,0,2023-10-27,2023-10-27,株式会社幸＆Ｎコーポレーション,,株式会社,京都府,京都市右京区,太秦海正寺町２８番地３０,,26,108,6168123,,,,,,,2023-10-27,1,,,,,サチアンドエヌコーポレーション,0
1280,5130001075544,新規,0,2023-10-27,2023-10-27,株式会社ＹＤＭ企画,,株式会社,京都府,京都市東山区,清本町３７５－２,,26,105,6050084,,,,,,,2023-10-27,1,,,,,ワイディーエム,0
1281,5130001075593,新規,0,2023-10-27,2023-10-27,道興＿銘株式会社,00132433,株式会社,京都府,京都市伏見区,深草西浦町６丁目７９番地５ＥＤＡアドバンスビル４０２,,26,109,6120029,,,,,,,2023-10-27,1,,,,,ドウコウエイメイ,0
1287,5150001026826,新規,0,2023-10-27,2023-10-27,株式会社ＶＥＧＡ,,株式会社,奈良県,奈良市,百楽園１丁目９番３号,,29,201,6310024,,,,,,,2023-10-27,1,,,,,ベガ,0
1288,5160001025455,新規,0,2023-10-27,2023-10-27,Ｔ‐ＷＩＮ株式会社,,株式会社,滋賀県,大津市,勧学１丁目５番１８－１０４号,,25,201,5200013,,,,,,,2023-10-27,1,,,,,ティーウィン,0
1294,5170005007052,新規,0,2023-10-27,2023-10-27,一般社団法人平成の寺子屋童夢ぽけっと,,その他の設立登記法人,和歌山県,和歌山市,田中町２丁目６４番地,,30,201,6408329,,,,,,,2023-10-27,1,,,,,ヘイセイノテラコヤドウムポケット,0
1299,5180001158641,新規,0,2023-10-27,2023-10-27,株式会社ＯＳＴＥＣＨ,,株式会社,愛知県,名古屋市中区,新栄１丁目１７番２５号,,23,106,4600007,,,,,,,2023-10-27,1,,,,,オーエステック,0
1300,5180001158674,新規,0,2023-10-27,2023-10-27,ア・ビュータレントリンク株式会社,,株式会社,愛知県,名古屋市東区,東桜１丁目１０番３５号,,23,102,4610005,,,,,,,2023-10-27,1,,,,,アビュータレントリンク,0
1301,5180001158690,新規,0,2023-10-27,2023-10-27,株式会社トトノウ,,株式会社,愛知県,名古屋市名東区,平和が丘４丁目２２番地,,23,115,4650097,,,,,,,2023-10-27,1,,,,,トトノウ,0
1310,5180301037941,新規,0,2023-10-27,2023-10-27,株式会社アセットマネジメント,,株式会社,愛知県,みよし市,三好町東山３６－４,,23,236,4700224,,,,,,,2023-10-27,1,,,,,アセットマネジメント,0
1315,5200001041860,新規,0,2023-10-27,2023-10-27,株式会社ＬＩＢ　Ｃｏｓｍｅｔｉｃｓ,,株式会社,岐阜県,岐阜市,日野南８丁目９番１号,,21,201,5008212,,,,,,,2023-10-27,1,,,,,エルアイビーコスメティクス,0
1317,5220001025655,新規,0,2023-10-27,2023-10-27,株式会社Ａｍｏ,,株式会社,石川県,金沢市,藤江北４丁目２６０,,17,201,9200345,,,,,,,2023-10-27,1,,,,,アモ,0
1334,5290001103545,新規,0,2023-10-27,2023-10-27,株式会社ＣＳ,,株式会社,福岡県,福岡市城南区,梅林２丁目２６－１５－２０３,,40,136,8140144,,,,,,,2023-10-27,1,,,,,シーエス,0
1335,5290001103553,新規,0,2023-10-27,2023-10-27,株式会社シネマトグラフ,,株式会社,福岡県,春日市,若葉台西７丁目２,,40,218,8160823,,,,,,,2023-10-27,1,,,,,シネマトグラフ,0
1348,5340001026030,新規,0,2023-10-27,2023-10-27,株式会社Ｓｅｅｄ,,株式会社,鹿児島県,鹿児島市,武１丁目２番１０号鹿児島中央ビル４階・５階,,46,201,8900045,,,,,,,2023-10-27,1,,,,,シード,0
1353,5360003013413,新規,0,2023-10-27,2023-10-27,合同会社知念重機,,合同会社,沖縄県,国頭郡本部町,字伊野波７１６番地２,,47,308,9050228,,,,,,,2023-10-27,1,,,,,チネンジュウキ,0
1354,5360005006927,新規,0,2023-10-27,2023-10-27,医療法人明優会,,その他の設立登記法人,沖縄県,南城市,知念字久原６９３エスペランサ華満進１階,,47,215,9011505,,,,,,,2023-10-27,1,,,,,メイユウカイ,0
1359,5380001034095,新規,0,2023-10-27,2023-10-27,株式会社ｒｉｔａ　ｊａｐａｎ,,株式会社,福島県,双葉郡双葉町,大字長塚字町西１番地１１双葉町駅西住宅Ｂ－１,,07,546,9791471,,,,,,,2023-10-27,1,,,,,リタジャパン,0
1370,5430001090281,新規,0,2023-10-27,2023-10-27,株式会社何千マイル,,株式会社,北海道,札幌市東区,北十五条東１６丁目１番８号,,01,103,0650015,,,,,,,2023-10-27,1,,,,,ナンゼンマイル,0
1373,5430003015550,新規,0,2023-10-27,2023-10-27,合同会社小林商会,,合同会社,北海道,札幌市手稲区,手稲本町一条３丁目３番１－１２０１号,,01,109,0060021,,,,,,,2023-10-27,1,,,,,コバヤシショウカイ,0
1377,5450005004384,新規,0,2023-10-27,2023-10-27,留萌市除排雪事業協同組合,,その他の設立登記法人,北海道,留萌市,高砂町１丁目４番１５号,,01,212,0770021,,,,,,,2023-10-27,1,,,,,,0
1378,5460301005176,新規,0,2023-10-27,2023-10-27,株式会社リムコネクト,,株式会社,北海道,北見市,山下町１丁目３番８号,,01,208,0900037,,,,,,,2023-10-27,1,,,,,リムコネクト,0
1384,5700150044011,新規,0,2023-10-27,2015-10-09,トヨタ自動車安全衛生協力会,,その他,愛知県,豊田市,トヨタ町１番地トヨタ会館Ｇ階,,23,211,4710826,,,,,,,2015-10-09,1,,,,,トヨタジドウシヤアンゼンエイセイキヨウリヨクカイ,0
1385,5700150121504,新規,0,2023-10-27,2023-10-27,ＫＨＡＩＮＧ＆ＫＹＡＷ　ＳＥＲＶＩＣＥＳ　ＣＯＭＰＡＮＹ　ＬＩＭＩＴＥＤ,,外国会社等,群馬県,前橋市,表町２丁目２３－７,,10,201,3710024,ミャンマー連邦共和国ヤンゴン市ボウタタウン区第５４通り（下街区）５番街シウェチョウチャービル６階（３１／３７番）,,,,,,2023-10-27,1,,,,,カインアンドチヨウサービスカンパニーリミテツド,0
1386,5700150121520,新規,0,2023-10-27,2023-10-27,富士駅北口第一地区市街地再開発組合,,その他,静岡県,富士市,富士町６番２号富士町久保田ビル１階,,22,210,4160915,,,,,,,2023-10-27,1,,,,,フジエキキタグチダイイチチクシガイチサイカイハツクミアイ,0
1394,6010001239366,新規,0,2023-10-27,2023-10-27,株式会社乙陽丸,,株式会社,東京都,中央区,銀座１丁目２２番１１号銀座大竹ビジデンス２Ｆ,,13,102,1040061,,,,,,,2023-10-27,1,,,,,オトヒマル,0
1395,6010001239531,新規,0,2023-10-27,2023-10-27,株式会社Ａｋｉｂａ　Ｃｏｄｅ　Ｇｒａｐｈｉｃｓ,,株式会社,東京都,千代田区,外神田３丁目１６番１２号,,13,101,1010021,,,,,,,2023-10-27,1,,,,,アキバコードグラフィックス,0
1396,6010001239548,新規,0,2023-10-27,2023-10-27,テックワンマネジメント株式会社,,株式会社,東京都,千代田区,内幸町２丁目１番１号,,13,101,1000011,,,,,,,2023-10-27,1,,,,,テックワンマネジメント,0
1397,6010001239622,新規,0,2023-10-27,2023-10-27,株式会社Ｔｗｏ　Ｆｏｒ,,株式会社,東京都,文京区,白山１丁目３３番１９号ライオンズマンション白山駅前Ｂ１Ｆ,,13,105,1130001,,,,,,,2023-10-27,1,,,,,トゥーフォー,0
1399,6010003041910,新規,0,2023-10-27,2023-10-27,合同会社ＳＥＣＯＮＤ,,合同会社,東京都,千代田区,神田和泉町１番地６－１６ヤマトビル４０５,,13,101,1010024,,,,,,,2023-10-27,1,,,,,セカンド,0
1405,6010401178164,新規,0,2023-10-27,2023-10-27,ブラケアナリーシング株式会社,,株式会社,東京都,港区,虎ノ門１丁目２番６号,,13,103,1050001,,,,,,,2023-10-27,1,,,,,ブラケアナリーシング,0
1411,6010601064032,新規,0,2023-10-27,2023-10-27,株式会社デイリープラネットジャパン,,株式会社,東京都,墨田区,文花１丁目３４番１１－３０２号室,,13,107,1310044,,,,,,,2023-10-27,1,,,,,デイリープラネットジャパン,0
1412,6010601064049,新規,0,2023-10-27,2023-10-27,株式会社カラーズ,,株式会社,東京都,墨田区,東駒形４丁目２３番１１号オルディビル３階,,13,107,1300005,,,,,,,2023-10-27,1,,,,,カラーズ,0
1415,6010703006923,新規,0,2023-10-27,2023-10-27,合同会社ｔｒｕｓｔ　Ｘ,,合同会社,東京都,品川区,南品川６丁目１７番６号ＭＡＩＳＯＮ光２０１,,13,109,1400004,,,,,,,2023-10-27,1,,,,,トラストエックス,0
1424,6011001157830,新規,0,2023-10-27,2023-10-27,Ｎｏｍａｄ　Ｔｅｃｈ　Ｊａｐａｎ株式会社,,株式会社,東京都,渋谷区,桜丘町１８－４二宮ビル１Ｆ,,13,113,1500031,,,,,,,2023-10-27,1,,,,,ノマドテックジャパン,0
1425,6011001157871,新規,0,2023-10-27,2023-10-27,株式会社バイト,,株式会社,東京都,渋谷区,桜丘町２９番３１号,,13,113,1500031,,,,,,,2023-10-27,1,,,,,バイト,0
1428,6011003017784,新規,0,2023-10-27,2023-10-27,合同会社０１０９,,合同会社,東京都,渋谷区,恵比寿南１丁目１７－６－３０４,,13,113,1500022,,,,,,,2023-10-27,1,,,,,オテンキュー,0
1430,6011101104914,新規,0,2023-10-27,2023-10-27,株式会社蒼苑舎,,株式会社,東京都,新宿区,新小川町５番４号ＮＩＣビル１階,,13,104,1620814,,,,,,,2023-10-27,1,,,,,ソウエンシャ,0
1431,6011101104939,新規,0,2023-10-27,2023-10-27,株式会社ファビュラス,,株式会社,東京都,新宿区,若葉１丁目５－３６レックス四谷マンション７０４,,13,104,1600011,,,,,,,2023-10-27,1,,,,,ファビュラス,0
1438,6011201025003,新規,0,2023-10-27,2023-10-27,株式会社Ｆ　Ｐｏｗｅｒ,,株式会社,東京都,中野区,中央２丁目４５番２号キャロルハイツ２０２,,13,114,1640011,,,,,,,2023-10-27,1,,,,,エフパワー,0
1442,6011401025562,新規,0,2023-10-27,2023-10-27,株式会社夏工業,,株式会社,東京都,板橋区,高島平７丁目２３番２１号コーポ芳乃パーク１Ｆ,,13,119,1750082,,,,,,,2023-10-27,1,,,,,ナツコウギョウ,0
1445,6011501029926,新規,0,2023-10-27,2023-10-27,株式会社アドメ,,株式会社,東京都,荒川区,西尾久２丁目１５番３号,,13,118,1160011,,,,,,,2023-10-27,1,,,,,アドメ,0
1451,6011701026707,新規,0,2023-10-27,2023-10-27,千發株式会社,,株式会社,東京都,江戸川区,東小岩３丁目２２番１８号,,13,123,1330052,,,,,,,2023-10-27,1,,,,,センハツ,0
1456,6011801043239,新規,0,2023-10-27,2023-10-27,株式会社草堂,,株式会社,東京都,足立区,西新井２丁目４番６号ＡｎｄＰｌｕｓ西新井ビル,,13,121,1230841,,,,,,,2023-10-27,1,,,,,ソウドウ,0
1477,6020001154201,新規,0,2023-10-27,2023-10-27,株式会社石山美髪店,,株式会社,神奈川県,横浜市青葉区,青葉台２丁目３４番地２Ｓ－ＦＯＲＴ横浜青葉台４２８,,14,117,2270062,,,,,,,2023-10-27,1,,,,,イシヤマビハツテン,0
1478,6020001154218,新規,0,2023-10-27,2023-10-27,Ｓａｋｕｒａｉ株式会社,,株式会社,神奈川県,横浜市都筑区,茅ケ崎南５丁目１８番１１号,,14,118,2240037,,,,,,,2023-10-27,1,,,,,サクライ,0
1489,6021001080593,新規,0,2023-10-27,2023-10-27,株式会社ＫＳ,,株式会社,神奈川県,横須賀市,太田和２丁目１２番１号,,14,201,2380311,,,,,,,2023-10-27,1,,,,,ケーエス,0
1493,6021003013733,新規,0,2023-10-27,2023-10-27,エムエムラボラトリ合同会社,,合同会社,神奈川県,横須賀市,大津町５丁目１２番１３号,,14,201,2390808,,,,,,,2023-10-27,1,,,,,エムエムラボラトリ,0
1494,6021003013741,新規,0,2023-10-27,2023-10-27,ユリイカ合同会社,,合同会社,神奈川県,相模原市中央区,上溝４５０９番地６１,,14,152,2520243,,,,,,,2023-10-27,1,,,,,ユリイカ,0
1498,6030001156865,新規,0,2023-10-27,2023-10-27,金牙猫株式会社,,株式会社,埼玉県,さいたま市緑区,東浦和７丁目４番地７－５０２号,,11,109,3360926,,,,,,,2023-10-27,1,,,,,キバネコ,0
1499,6030001156873,新規,0,2023-10-27,2023-10-27,株式会社ＨＮＴ,,株式会社,埼玉県,さいたま市大宮区,堀の内町１丁目２２２番地４ｉｌｓｏｌｅ１０２号室,,11,103,3300804,,,,,,,2023-10-27,1,,,,,エイチエヌティー,0
1505,6030003022867,新規,0,2023-10-27,2023-10-27,パートナー合同会社,,合同会社,埼玉県,さいたま市緑区,大字中尾９４５番地１５カグヤコマノ８－２０２,,11,109,3360932,,,,,,,2023-10-27,1,,,,,パートナー,0
1506,6030003022883,新規,0,2023-10-27,2023-10-27,合同会社ＧＭコーポレーション,,合同会社,埼玉県,さいたま市大宮区,仲町２丁目５０番地大鵬スクエアビル３階－Ｂ,,11,103,3300845,,,,,,,2023-10-27,1,,,,,ジーエムコーポレーション,0
1507,6030005021446,新規,0,2023-10-27,2023-10-27,ＥＮ国際法務行政書士法人,,その他の設立登記法人,埼玉県,新座市,本多１丁目１０－８－２０５号,,11,230,3520022,,,,,,,2023-10-27,1,,,,,エンコクサイホウム,0
1511,6040001130621,新規,0,2023-10-27,2023-10-27,株式会社ＹＵＮＴＡＫＵ,,株式会社,千葉県,流山市,駒木台４１０番地の１３,,12,220,2700113,,,,,,,2023-10-27,1,,,,,ユンタク,0
1513,6040003023625,新規,0,2023-10-27,2023-10-27,ＺＡＩ　ＨＯＬＤＩＮＧ合同会社,,合同会社,千葉県,山武市,松尾町借毛本郷２３００番地１サクセスランドＮｏ．７,,12,237,2891537,,,,,,,2023-10-27,1,,,,,ザイホールディング,0
1514,6040003023633,新規,0,2023-10-27,2023-10-27,合同会社ＴＭＹ,,合同会社,千葉県,市川市,東菅野３丁目２番２５号,,12,203,2720823,,,,,,,2023-10-27,1,,,,,ティーエムワイ,0
1515,6050001053722,新規,0,2023-10-27,2023-10-27,株式会社ハートフルフィールド,,株式会社,茨城県,結城市,大字江川新宿１９５９－６,,08,207,3070042,,,,,,,2023-10-27,1,,,,,ハートフルフィールド,0
1518,6060001036486,新規,0,2023-10-27,2023-10-27,ポプラコーヒークラフト株式会社,,株式会社,栃木県,佐野市,高萩町５４９番地８,,09,204,3270821,,,,,,,2023-10-27,1,,,,,ポプラコーヒークラフト,0
1522,6070001041023,新規,0,2023-10-27,2023-10-27,株式会社ｓｅｅ　ｔｈｅ　ｄａｙ,,株式会社,群馬県,伊勢崎市,稲荷町７１８番地２,,10,204,3720804,,,,,,,2023-10-27,1,,,,,シーザデイ,0
1525,6080103002913,新規,0,2023-10-27,2023-10-27,富士クリーンメンテナンス合同会社,,合同会社,静岡県,富士市,今泉６丁目９番１５号,,22,210,4170001,,,,,,,2023-10-27,1,,,,,フジクリーンメンテナンス,0
1549,6120001259246,新規,0,2023-10-27,2023-10-27,株式会社ｍｕｓｕｂｉｔｏ,,株式会社,大阪府,大阪市西区,九条２丁目１１番２９号,,27,106,5500027,,,,,,,2023-10-27,1,,,,,ムスビト,0
1550,6120001259262,新規,0,2023-10-27,2023-10-27,株式会社忍,,株式会社,大阪府,大阪市西区,南堀江２丁目９－１８－２０３号,,27,106,5500015,,,,,,,2023-10-27,1,,,,,ニン,0
1551,6120001259337,新規,0,2023-10-27,2023-10-27,株式会社ＢＯＮＤ,,株式会社,大阪府,枚方市,山之上５丁目３番２０号,,27,210,5730047,,,,,,,2023-10-27,1,,,,,ボンド,0
1552,6120001259345,新規,0,2023-10-27,2023-10-27,株式会社和空トラスト,,株式会社,大阪府,大阪市北区,東天満１丁目１１番１３号,,27,127,5300044,,,,,,,2023-10-27,1,,,,,ワクウトラスト,0
1553,6120001259403,新規,0,2023-10-27,2023-10-27,株式会社スリーエーホールディングス,,株式会社,大阪府,大阪市北区,中之島２丁目２番７号中之島セントラルタワー２１階,,27,127,5300005,,,,,,,2023-10-27,1,,,,,スリーエーホールディングス,0
1557,6120003025200,新規,0,2023-10-27,2023-10-27,蒼麦合同会社,,合同会社,大阪府,大阪市旭区,新森５丁目３番２４号ヴィラース旭４０３号室,,27,117,5350022,,,,,,,2023-10-27,1,,,,,アオムギ,0
1562,6120901048277,新規,0,2023-10-27,2023-10-27,株式会社ＮｏＬｉｍｉｔ,,株式会社,大阪府,箕面市,彩都粟生北７丁目１番１号,,27,220,5620029,,,,,,,2023-10-27,1,,,,,ノーリミット,0
1569,6130001075535,新規,0,2023-10-27,2023-10-27,ＡＤＫ株式会社,,株式会社,京都府,京都市上京区,黒門通中立売下る榎町３８７番地ＷＥＳＴＳＱＵＡＲＥ３０２号,,26,102,6028251,,,,,,,2023-10-27,1,,,,,エイディーケイ,0
1581,6140001132120,新規,0,2023-10-27,2023-10-27,株式会社樹,,株式会社,兵庫県,神戸市北区,上津台４丁目２７番２９号,,28,109,6511515,,,,,,,2023-10-27,1,,,,,イツキ,0
1582,6140001132137,新規,0,2023-10-27,2023-10-27,株式会社山口興業,,株式会社,兵庫県,たつの市,龍野町中井２５番地,,28,229,6794124,,,,,,,2023-10-27,1,,,,,ヤマグチコウギョウ,0
1583,6140001132145,新規,0,2023-10-27,2023-10-27,株式会社Ｅ．ｍｏｔｉｏｎ　ｓｔｕｄｉｏ,,株式会社,兵庫県,神戸市垂水区,五色山８丁目３番４３－３０４号,,28,108,6550035,,,,,,,2023-10-27,1,,,,,イーモーションスタジオ,0
1586,6150001026833,新規,0,2023-10-27,2023-10-27,侑新建設株式会社,,株式会社,奈良県,磯城郡田原本町,大字宮古９６－１,,29,363,6360302,,,,,,,2023-10-27,1,,,,,ユウシンケンセツ,0
1602,6180001158665,新規,0,2023-10-27,2023-10-27,株式会社Ｓ＆Ｅ,,株式会社,愛知県,名古屋市東区,泉３丁目１７番１０号,,23,102,4610001,,,,,,,2023-10-27,1,,,,,エスアンドイー,0
1603,6180001158673,新規,0,2023-10-27,2023-10-27,株式会社ＳＢＣ,,株式会社,愛知県,名古屋市中区,栄２丁目１１番７号伏見大島ビル４Ｆ,,23,106,4600008,,,,,,,2023-10-27,1,,,,,エスビーシー,0
1611,6180301037932,新規,0,2023-10-27,2023-10-27,ＣＯＲＥエンジニアリング株式会社,,株式会社,愛知県,豊川市,伊奈町佐脇原４１５番地９５,,23,207,4410105,,,,,,,2023-10-27,1,,,,,コアエンジニアリング,0
1612,6180301037940,新規,0,2023-10-27,2023-10-27,賃貸住宅研究所株式会社,,株式会社,愛知県,豊橋市,富士見台３丁目１０番地１４,,23,201,4418135,,,,,,,2023-10-27,1,,,,,チンタイジュウタクケンシュウジョ,0
1613,6180301037949,新規,0,2023-10-27,2023-10-27,株式会社Ｃ　ＣＲＥＡＴＩＯＮ　ＳＴＵＤＩＯ,,株式会社,愛知県,西尾市,熊味町珠弥堂８６番地２,,23,213,4450071,,,,,,,2023-10-27,1,,,,,シークリエーションスタジオ,0
1614,6180301037957,新規,0,2023-10-27,2023-10-27,株式会社ＲＳＩ,,株式会社,愛知県,岡崎市,上和田町字サジ３１番地,,23,202,4440201,,,,,,,2023-10-27,1,,,,,アールエスアイ,0
1616,6180303005879,新規,0,2023-10-27,2023-10-27,Ｓｅｃｏｎｄ合同会社,,合同会社,愛知県,豊橋市,北岩田２丁目４番地１５,,23,201,4400031,,,,,,,2023-10-27,1,,,,,セカンド,0
1620,6210001019525,新規,0,2023-10-27,2023-10-27,株式会社ａｍｕ,,株式会社,福井県,福井市,花月４丁目３番２４号,,18,201,9100022,,,,,,,2023-10-27,1,,,,,アミュ,0
1628,6240001062308,新規,0,2023-10-27,2023-10-27,株式会社永興商事,,株式会社,広島県,福山市,神辺町字平野９２－１,,34,207,7202116,,,,,,,2023-10-27,1,,,,,エイコウショウジ,0
1629,6240001062340,新規,0,2023-10-27,2023-10-27,株式会社ＣＡＲＡＩＥ,,株式会社,広島県,広島市安佐南区,西原４丁目２３番１５－１２－２０１号Ａ,,34,105,7310113,,,,,,,2023-10-27,1,,,,,カライエ,0
1633,6240003006394,新規,0,2023-10-27,2023-10-27,Ｙ．Ｍコート合同会社,,合同会社,広島県,広島市佐伯区,坪井２丁目１０４１番地１－３０１号,,34,108,7315142,,,,,,,2023-10-27,1,,,,,ワイエムコート,0
1634,6240005015666,新規,0,2023-10-27,2023-10-27,一般社団法人Ｐｏｌａｒｉｓ　Ｐｒｏｊｅｃｔ,,その他の設立登記法人,広島県,呉市,広駅前２丁目７－５　４０４,,34,202,7370142,,,,,,,2023-10-27,1,,,,,ポラリスプロジェクト,0
1639,6260001038446,新規,0,2023-10-27,2023-10-27,株式会社エムズホールディングス,,株式会社,岡山県,倉敷市,西阿知町８６２番地１６,,33,202,7100807,,,,,,,2023-10-27,1,,,,,エムズホールディングス,0
1643,6270001008860,新規,0,2023-10-27,2023-10-27,株式会社Ｒｅｇａｌｏ,,株式会社,鳥取県,境港市,外江町３０８０－４－２０１,,31,204,6840071,,,,,,,2023-10-27,1,,,,,レガーロ,0
1644,6280001009057,新規,0,2023-10-27,2023-10-27,株式会社はたらく,,株式会社,島根県,松江市,東出雲町意宇南１丁目５番地５,,32,201,6990111,,,,,,,2023-10-27,1,,,,,ハタラク,0
1647,6290001103494,新規,0,2023-10-27,2023-10-27,ナンセイトランスポート株式会社,,株式会社,福岡県,糟屋郡粕屋町,酒殿４丁目１３番１号,,40,349,8112303,,,,,,,2023-10-27,1,,,,,ナンセイトランスポート,0
1648,6290001103536,新規,0,2023-10-27,2023-10-27,株式会社グリモアーズ,,株式会社,福岡県,福岡市博多区,千代１丁目１５番２０－１００６号アンピール県庁駅前,,40,132,8120044,,,,,,,2023-10-27,1,,,,,グリモアーズ,0
1649,6290001103544,新規,0,2023-10-27,2023-10-27,株式会社ＲＥＶＩＥＷ,,株式会社,福岡県,宗像市,日の里８丁目２１番地５,,40,220,8113425,,,,,,,2023-10-27,1,,,,,レビュー,0
1650,6290001103552,新規,0,2023-10-27,2023-10-27,株式会社アドオンミール,,株式会社,福岡県,福岡市中央区,天神２丁目３－１０天神パインクレスト,,40,133,8100001,,,,,,,2023-10-27,1,,,,,アドオンミール,0
1651,6290001103560,新規,0,2023-10-27,2023-10-27,ＪｙＢｒａｉｎ．ｃ株式会社,,株式会社,福岡県,福岡市博多区,上呉服町１１番２６－１２０３号,,40,132,8120036,,,,,,,2023-10-27,1,,,,,ジェイワイブレインシー,0
1660,6310001018681,新規,0,2023-10-27,2023-10-27,株式会社人材環舎,,株式会社,長崎県,壱岐市,芦辺町深江鶴亀触３９９番地,00132438,42,210,8115322,,,,,,,2023-10-27,1,,,,,ジンザイカンシャ,0
1666,6330001031419,新規,0,2023-10-27,2023-10-27,承輝先進株式会社,,株式会社,熊本県,合志市,幾久富１８３３番地２４,,43,216,8611112,,,,,,,2023-10-27,1,,,,,ショウキセンシン,0
1672,6360001032736,新規,0,2023-10-27,2023-10-27,株式会社ＨＡＮＳ　ＡＤＶＥＮＴＵＲＥ,,株式会社,沖縄県,沖縄市,桃原４丁目２７番１７号セゾン空２０３号,,47,211,9042164,,,,,,,2023-10-27,1,,,,,ハンスアドベンチャー,0
1674,6360003013412,新規,0,2023-10-27,2023-10-27,ｍｏｖｅ　ｏｎ合同会社,,合同会社,沖縄県,国頭郡恩納村,字恩納６２４３番地,,47,311,9040411,,,,,,,2023-10-27,1,,,,,ムーブオン,0
1675,6360005006926,新規,0,2023-10-27,2023-10-27,医療法人ゆいの会,,その他の設立登記法人,沖縄県,うるま市,字赤道６３０番地,,47,213,9042245,,,,,,,2023-10-27,1,,,,,ユイノカイ,0
1677,6370001050571,新規,0,2023-10-27,2023-10-27,株式会社日下タイル,,株式会社,宮城県,白石市,福岡八宮字吹上下上１番地,,04,206,9890733,,,,,,,2023-10-27,1,,,,,クサカタイル,0
1696,6430001090264,新規,0,2023-10-27,2023-10-27,よねはら商事株式会社,,株式会社,北海道,札幌市中央区,南四条西２丁目２番地,,01,101,0640804,,,,,,,2023-10-27,1,,,,,ヨネハラショウジ,0
1697,6430001090272,新規,0,2023-10-27,2023-10-27,マルチワークス株式会社,,株式会社,北海道,小樽市,桜５丁目１５番２９号,,01,203,0470156,,,,,,,2023-10-27,1,,,,,マルチワークス,0
1702,6470003002511,新規,0,2023-10-27,2023-10-27,Ｆｕｎｎｙ　Ｌｉｆｅ合同会社,,合同会社,香川県,高松市,前田東町字長渕１０７０番地１,,37,201,7610322,,,,,,,2023-10-27,1,,,,,ファニーライフ,0
1705,6700150120736,新規,0,2023-10-27,2023-10-27,Ｓｈｅｎｚｈｅｎ　Ｗｏｃｉ　Ｔｒａｄｉｎｇ　Ｃｏ．，Ｌｔｄ,,外国会社等,,,,,,,,Ｎｏ．１１２，Ｘｉｎｙｉ　Ｒｏａｄ　２，Ｔａｎｇｌａｎｇ　Ｃｏｍｍｕｎｉｔｙ，２２８　Ｔａｏｙｕａｎ　Ｓｔｒｅｅｔ，Ｊｉｙｕｅ　Ｃｈｅｎｇ　２５，Ｔａｎｇｌａｎｇ　Ｉｎｄｕｓｔｒｉａｌ　ｚｏｎｅ　Ｂ　Ｎａｎｓｈａｎ　Ｄｉｓｔｒｉｃｔ，Ｓｈｅｎｚｈｅｎ，Ｇｕａｎｇｄｏｎｇ,,,,,,2023-10-27,1,,,,,シンセンウオチトウレイデイングカンパニーリミテツド,0
1706,6700150121073,新規,0,2023-10-27,2023-10-05,三津区自治会,,その他,三重県,伊勢市,二見町三津３０１,,24,203,5190603,,,,,,,2023-10-05,1,,,,,ミツクジチカイ,0
1707,6700150121503,新規,0,2023-10-27,2023-10-27,ＮＥＷ　Ｎ．Ｙ．ＴＲＡＤＩＮＧ　ＬＡＮＫＡ　ＰＲＩＶＡＴＥ　ＬＩＭＩＴＥＤ,,外国会社等,静岡県,磐田市,福田中島３７５２番地１２７,,22,211,4371204,スリランカ民主社会主義共和国カルタラエータガマゴールロードＮＯ．２７８,,,,,,2023-10-27,1,,,,,ニユーエヌワイトレイデイングランカプライベートリミテツド,0
1715,7010001239530,新規,0,2023-10-27,2023-10-27,株式会社アドミー,,株式会社,東京都,千代田区,外神田３丁目６番５号外神田永谷タウンプラザ９０６,,13,101,1010021,,,,,,,2023-10-27,1,,,,,アドミー,0
1716,7010001239563,新規,0,2023-10-27,2023-10-27,株式会社ヒイラギ,,株式会社,東京都,中央区,銀座１丁目１２番４号Ｎ＆ＥＢＬＤ．６Ｆ,,13,102,1040061,,,,,,,2023-10-27,1,,,,,ヒイラギ,0
1717,7010001239571,新規,0,2023-10-27,2023-10-27,株式会社ＳＡＫＵＲＡ,,株式会社,東京都,中央区,晴海２丁目３番２－３９０４号,,13,102,1040053,,,,,,,2023-10-27,1,,,,,サクラ,0
1718,7010001239638,新規,0,2023-10-27,2023-10-27,クオリティネットソリューションズ株式会社,,株式会社,東京都,千代田区,東神田２丁目４番６号,,13,101,1010031,,,,,,,2023-10-27,1,,,,,クオリティネットソリューションズ,0
1723,7010003042049,新規,0,2023-10-27,2023-10-27,Ｂ２　Ｊａｐａｎ合同会社,,合同会社,東京都,中央区,銀座４丁目１４番１１号七十七銀座ビル８階,,13,102,1040061,,,,,,,2023-10-27,1,,,,,ビーツージャパン,0
1724,7010003042057,新規,0,2023-10-27,2023-10-27,合同会社ＫＧＳ,,合同会社,東京都,中央区,日本橋１丁目４番１号,,13,102,1030027,,,,,,,2023-10-27,1,,,,,ケージーエス,0
1725,7010003042073,新規,0,2023-10-27,2023-10-27,Ｌｕｃｉｄ　Ｏｎｅ合同会社,,合同会社,東京都,中央区,銀座１丁目１２番４号Ｎ＆ＥＢＬＤ．６Ｆ,,13,102,1040061,,,,,,,2023-10-27,1,,,,,ルシッドワン,0
1733,7010401178089,新規,0,2023-10-27,2023-10-27,株式会社サマー,,株式会社,東京都,港区,元麻布３丁目４番２９－４０１号,,13,103,1060046,,,,,,,2023-10-27,1,,,,,サマー,0
1734,7010401178163,新規,0,2023-10-27,2023-10-27,バウヒニアリーシング株式会社,,株式会社,東京都,港区,虎ノ門１丁目２番６号,,13,103,1050001,,,,,,,2023-10-27,1,,,,,バウヒニアリーシング,0
1739,7010501051261,新規,0,2023-10-27,2023-10-27,株式会社アザッス,,株式会社,東京都,台東区,今戸１丁目３番１６－５０３号,,13,106,1110024,,,,,,,2023-10-27,1,,,,,アザッス,0
1740,7010503007204,新規,0,2023-10-27,2023-10-27,合同会社アガベコンサルティング,,合同会社,東京都,台東区,日本堤１丁目４－６楊ビル１階Ａ号室,,13,106,1110021,,,,,,,2023-10-27,1,,,,,アガベコンサルティング,0
1743,7010601064031,新規,0,2023-10-27,2023-10-27,株式会社ジェイ,,株式会社,東京都,墨田区,石原４丁目２６番１２号,,13,107,1300011,,,,,,,2023-10-27,1,,,,,ジェイ,0
1744,7010601064048,新規,0,2023-10-27,2023-10-27,株式会社豊康,,株式会社,東京都,墨田区,吾妻橋３丁目１－１１－２０３,,13,107,1300001,,,,,,,2023-10-27,1,,,,,トヨヤス,0
1753,7010901054062,新規,0,2023-10-27,2023-10-27,ちいかんホールディングス株式会社,,株式会社,東京都,世田谷区,桜新町２丁目２２番３号ＮＤＳビル,,13,112,1540015,,,,,,,2023-10-27,1,,,,,チイカンホールディングス,0
1754,7010901054079,新規,0,2023-10-27,2023-10-27,株式会社ＡＭＩＴＹ,,株式会社,東京都,世田谷区,玉川３丁目３２番１０号,,13,112,1580094,,,,,,,2023-10-27,1,,,,,アミティ,0
1758,7011001157846,新規,0,2023-10-27,2023-10-27,株式会社ボンアミージャパン,,株式会社,東京都,渋谷区,道玄坂１丁目１０番８号渋谷道玄坂東急ビル２階Ｃ２号,,13,113,1500043,,,,,,,2023-10-27,1,,,,,ボンアミージャパン,0
1759,7011001157854,新規,0,2023-10-27,2023-10-27,株式会社ボーダーズ,,株式会社,東京都,渋谷区,渋谷２丁目１９－１５宮益坂ビルディング６０９,,13,113,1500002,,,,,,,2023-10-27,1,,,,,ボーダーズ,0
1760,7011003017701,新規,0,2023-10-27,2023-10-27,ＳＡＳＩＡ　ＮＥＴ合同会社,,合同会社,東京都,渋谷区,道玄坂１丁目１０番８号渋谷道玄坂東急ビル２Ｆ－Ｃ,,13,113,1500043,,,,,,,2023-10-27,1,,,,,サジアネット,0
1776,7011201025010,新規,0,2023-10-27,2023-10-27,株式会社Ｆｒｅｕｔ　ｍｉｃｈ,,株式会社,東京都,中野区,中央５丁目８番２０号,,13,114,1640011,,,,,,,2023-10-27,1,,,,,フロイトミッヒ,0
1781,7011701026706,新規,0,2023-10-27,2023-10-27,株式会社ＣＨｉＣ　ＢＡＮＡＮＡ,,株式会社,東京都,江戸川区,中葛西５丁目３２番２－４０１号,,13,123,1340083,,,,,,,2023-10-27,1,,,,,チックバナナ,0
1785,7011801043238,新規,0,2023-10-27,2023-10-27,森迪商事株式会社,,株式会社,東京都,足立区,西新井２丁目４番６号ＡｎｄＰｌｕｓ西新井ビル,,13,121,1230841,,,,,,,2023-10-27,1,,,,,モリミチショウジ,0
1786,7011801043254,新規,0,2023-10-27,2023-10-27,株式会社エレック,,株式会社,東京都,足立区,花畑１丁目３４番４－１０１号,,13,121,1210061,,,,,,,2023-10-27,1,,,,,エレック,0
1788,7012803003221,新規,0,2023-10-27,2023-10-27,合同会社アナログバンク,,合同会社,東京都,国立市,北３丁目３５番の１・１－６１３,,13,215,1860001,,,,,,,2023-10-27,1,,,,,アナログバンク,0
1790,7013301051539,新規,0,2023-10-27,2023-10-27,株式会社ニューライン,,株式会社,東京都,豊島区,高田３丁目１０番１２号東海ビル,,13,116,1710033,,,,,,,2023-10-27,1,,,,,ニューライン,0
1799,7020001154175,新規,0,2023-10-27,2023-10-27,株式会社カインド,,株式会社,神奈川県,横浜市泉区,和泉町１３６３林ハイツ１Ｆ,,14,116,2450016,,,,,,,2023-10-27,1,,,,,カインド,0
1800,7020001154191,新規,0,2023-10-27,2023-10-27,株式会社ａｌｌｒｏｕｎｄ　ｐｒｏｆｅｓｓｉｏｎａｌ,,株式会社,神奈川県,横浜市緑区,台村町３３７番地,,14,113,2260014,,,,,,,2023-10-27,1,,,,,オールラウンドプロフェッショナル,0
1807,7020003024822,新規,0,2023-10-27,2023-10-27,合同会社Ｓａｒｙｕ,,合同会社,神奈川県,横浜市港南区,港南１丁目３番２号上大岡南パークホームズ３０４,,14,111,2330003,,,,,,,2023-10-27,1,,,,,サリュー,0
1815,7021001080584,新規,0,2023-10-27,2023-10-27,チョコレートファイナンス株式会社,,株式会社,神奈川県,逗子市,逗子７丁目２番２６号,,14,208,2490006,,,,,,,2023-10-27,1,,,,,チョコレートファイナンス,0
1816,7021001080592,新規,0,2023-10-27,2023-10-27,株式会社樹真会,,株式会社,神奈川県,大和市,つきみ野５丁目４番地１１,,14,213,2420002,,,,,,,2023-10-27,1,,,,,ジュシンカイ,0
1820,7021003013732,新規,0,2023-10-27,2023-10-27,合同会社ＲＡＩＮ,,合同会社,神奈川県,海老名市,上今泉２丁目１１番３６号,,14,215,2430431,,,,,,,2023-10-27,1,,,,,レイン,0
1828,7030001156864,新規,0,2023-10-27,2023-10-27,株式会社Ｍ＆Ｓ　ＦＵＳＩＯＮ,,株式会社,埼玉県,川口市,大字安行領家９９８番地,,11,203,3340058,,,,,,,2023-10-27,1,,,,,エムアンドエスフュージョン,0
1833,7030003022874,新規,0,2023-10-27,2023-10-27,合同会社大晟,,合同会社,埼玉県,加須市,外川４５３番地２２,,11,210,3470106,,,,,,,2023-10-27,1,,,,,タイセイ,0
1842,7040003023558,新規,0,2023-10-27,2023-10-27,合同会社竹内の森,,合同会社,千葉県,山武郡横芝光町,栗山２６８２番地３８,,12,410,2891733,,,,,,,2023-10-27,1,,,,,タケウチノモリ,0
1850,7060001036502,新規,0,2023-10-27,2023-10-27,明新物流部品株式会社,,株式会社,栃木県,鹿沼市,上日向３３３番地１,,09,205,3220076,,,,,,,2023-10-27,1,,,,,メイシンブツリュウブヒン,0
1855,7080103002912,新規,0,2023-10-27,2023-10-27,合同会社とり西,,合同会社,静岡県,伊豆の国市,南條７５０番地の１,,22,225,4102114,,,,,,,2023-10-27,1,,,,,トリニシ,0
1874,7120001259245,新規,0,2023-10-27,2023-10-27,株式会社ａｎｄｎａ,,株式会社,大阪府,枚方市,高塚町２５番１－１０１０号,,27,210,5730035,,,,,,,2023-10-27,1,,,,,アンドナ,0
1875,7120001259303,新規,0,2023-10-27,2023-10-27,株式会社Ｍ＆Ｋ,,株式会社,大阪府,守口市,豊秀町１丁目３番１１号１０１号室,,27,209,5700082,,,,,,,2023-10-27,1,,,,,エムアンドケイ,0
1876,7120001259344,新規,0,2023-10-27,2023-10-27,株式会社Ｅｔｏｉｌｅ,,株式会社,大阪府,大阪市西区,南堀江４丁目２９番２号,,27,106,5500015,,,,,,,2023-10-27,1,,,,,エトワール,0
1879,7120003025199,新規,0,2023-10-27,2023-10-27,彼方合同会社,,合同会社,大阪府,大阪市東成区,大今里南１丁目１８番７号大宝今里ロイヤルハイツ４０３号室,,27,115,5370013,,,,,,,2023-10-27,1,,,,,カナタ,0
1881,7120101068389,新規,0,2023-10-27,2023-10-27,株式会社ＴＫＲ,,株式会社,大阪府,泉南市,男里６丁目１５番１－Ｂ１００４号,,27,228,5900526,,,,,,,2023-10-27,1,,,,,ティーケーアール,0
1885,7130001075492,新規,0,2023-10-27,2023-10-27,テック・ワークホールディングス株式会社,,株式会社,京都府,長岡京市,勝竜寺八ノ坪１番地６,,26,209,6170836,,,,,,,2023-10-27,1,,,,,テックワークホールディングス,0
1886,7130001075591,新規,0,2023-10-27,2023-10-27,株式会社パビヨン,,株式会社,京都府,京都市右京区,宇多野長尾町２３番地,,26,108,6168207,,,,,,,2023-10-27,1,,,,,パビヨン,0
1895,7140001131988,新規,0,2023-10-27,2023-10-27,新星株式会社,,株式会社,兵庫県,姫路市,広畑区蒲田１０－３,,28,201,6711102,,,,,,,2023-10-27,1,,,,,シンセイ,0
1896,7140001132136,新規,0,2023-10-27,2023-10-27,株式会社蘭,,株式会社,兵庫県,宝塚市,山手台東５丁目１８番１８号,,28,214,6650887,,,,,,,2023-10-27,1,,,,,ラン,0
1897,7140003019736,新規,0,2023-10-27,2023-10-27,合同会社吉志,,合同会社,兵庫県,西宮市,羽衣町７－３０夙川グリーンタウン３階,,28,204,6620051,,,,,,,2023-10-27,1,,,,,キシ,0
1898,7150001026840,新規,0,2023-10-27,2023-10-27,株式会社ＯｃｔＳｈｅｌｌ,,株式会社,奈良県,奈良市,青山７丁目９５番地,,29,201,6308101,,,,,,,2023-10-27,1,,,,,オクトシェル,0
1899,7160001025445,新規,0,2023-10-27,2023-10-27,リクレスト株式会社,,株式会社,滋賀県,甲賀市,甲南町池田上梅田２１１８番地,,25,209,5203302,,,,,,,2023-10-27,1,,,,,リクレスト,0
1900,7160001025453,新規,0,2023-10-27,2023-10-27,株式会社ＩＷＡＩ　ＦＡＲＭ,,株式会社,滋賀県,野洲市,永原１０６０番地,,25,210,5202304,,,,,,,2023-10-27,1,,,,,イワイファーム,0
1905,7180001158680,新規,0,2023-10-27,2023-10-27,株式会社Ｋ＆Ｓ,,株式会社,愛知県,清須市,新清洲２丁目２番地７リエゾン清洲２Ｆ,,23,233,4520943,,,,,,,2023-10-27,1,,,,,ケイアンドエス,0
1909,7180003025920,新規,0,2023-10-27,2023-10-27,永＿金属合同会社,00132434,合同会社,愛知県,名古屋市港区,小賀須４丁目１１２４番地小賀須ビル２階,,23,111,4550882,,,,,,,2023-10-27,1,,,,,エイキンキンゾク,0
1912,7180301037956,新規,0,2023-10-27,2023-10-27,株式会社ＰｌｕｃＫｙ,,株式会社,愛知県,豊橋市,西高師町字沢向１８番地の３,,23,201,4418154,,,,,,,2023-10-27,1,,,,,プラッキー,0
1913,7180301037964,新規,0,2023-10-27,2023-10-27,株式会社Ｈｕｍａｎ　Ｓｏｌｕｔｉｏｎｓ,,株式会社,愛知県,西尾市,住崎町出崎２９番地１,,23,213,4450876,,,,,,,2023-10-27,1,,,,,ヒューマンソリューションズ,0
1926,7240001062331,新規,0,2023-10-27,2023-10-27,株式会社樟,,株式会社,広島県,福山市,丸之内１丁目２番７－５０４号,,34,207,7200061,,,,,,,2023-10-27,1,,,,,クスノキ,0
1931,7240003006377,新規,0,2023-10-27,2023-10-27,レガシー合同会社,,合同会社,広島県,尾道市,浦崎町３７２９－１０,,34,205,7200551,,,,,,,2023-10-27,1,,,,,レガシー,0
1946,7290001103535,新規,0,2023-10-27,2023-10-27,株式会社ＤＥＶＩＬ　ＢＥＡＵＴＹ,,株式会社,福岡県,福岡市博多区,博多駅前１丁目２３番２号ＰａｒｋＦｒｏｎｔ博多駅前１丁目５Ｆ－Ｂ,,40,132,8120011,,,,,,,2023-10-27,1,,,,,デビルビューティー,0
1949,7290003014540,新規,0,2023-10-27,2023-10-27,合同会社フォース第一蓄電ステーション,,合同会社,福岡県,久留米市,天神町１番地６,,40,203,8300033,,,,,,,2023-10-27,1,,,,,フォースダイイチチクデンステーション,0
1961,7350005006190,新規,0,2023-10-27,2023-10-27,一般社団法人もうひとつのこどもえんｙａｔｔａｒａ,,その他の設立登記法人,宮崎県,東臼杵郡美郷町,北郷入下１２６８番地１,,45,431,8890902,,,,,,,2023-10-27,1,,,,,モウヒトツノコドモエンヤッタラ,0
1963,7360003013411,新規,0,2023-10-27,2023-10-27,合同会社座覇冷設,,合同会社,沖縄県,那覇市,与儀２丁目２２番６号,,47,201,9020076,,,,,,,2023-10-27,1,,,,,ザハレイセツ,0
1967,7370001050570,新規,0,2023-10-27,2023-10-27,ＭＹＮ　Ｇｌｏｒｉｏｕｓ株式会社,,株式会社,宮城県,仙台市宮城野区,福室２丁目８番１７－３１４号福室マンション,,04,102,9830005,,,,,,,2023-10-27,1,,,,,エムワイエヌグローリアス,0
1970,7380001034093,新規,0,2023-10-27,2023-10-27,株式会社阿部商会,,株式会社,福島県,耶麻郡猪苗代町,大字千代田字トヤガ崎２１７番地４,,07,408,9693133,,,,,,,2023-10-27,1,,,,,アベショウカイ,0
1974,7390001017411,新規,0,2023-10-27,2023-10-27,大地マネージメント株式会社,,株式会社,山形県,東置賜郡高畠町,大字上平柳２００１番地の３,,06,381,9992178,,,,,,,2023-10-27,1,,,,,オオチマネージメント,0
1985,7430001090288,新規,0,2023-10-27,2023-10-27,株式会社Ａ．,,株式会社,北海道,札幌市東区,北三十四条東１４丁目３番１１号コンクエスト３４,,01,103,0070834,,,,,,,2023-10-27,1,,,,,エードット,0
1996,7700150120735,新規,0,2023-10-27,2023-10-27,ｓｈｅｎｚｈｅｎ　ｙｏｕｗｏｄｉａｎｚｉｋｅｊｉ　ｙｏｕｘｉａｎｇｏｎｇｓｉ,,外国会社等,,,,,,,,ｌｏｎｇｇａｎｇｊｉｅｄａｏ　ｌｏｎｇｄｏｎｇｓｈｅｑｕ　ｔｏｎｇｃｈａｎｇｌｕ８８ｈａｏ　ｄａｐｕｇｏｎｇｙｅｙｕａｎ　ｚｏｎｇｈｅｌｏｕｓａｎｌｏｕ　ｓｈｅｎｚｈｅｎ　ｇｕａｎｇｄｏｎｇ,,,,,,2023-10-27,1,,,,,シンセンユウウオデンジケジ,0
2009,8010003042048,新規,0,2023-10-27,2023-10-27,Ｂ１　Ｊａｐａｎ合同会社,,合同会社,東京都,中央区,銀座４丁目１４番１１号七十七銀座ビル８階,,13,102,1040061,,,,,,,2023-10-27,1,,,,,ビーワンジャパン,0
2010,8010003042064,新規,0,2023-10-27,2023-10-27,京橋２合同会社,,合同会社,東京都,中央区,京橋２丁目８番１７号,,13,102,1040031,,,,,,,2023-10-27,1,,,,,キョウバシニ,0
2018,8010401178088,新規,0,2023-10-27,2023-10-27,株式会社デネブ,,株式会社,東京都,港区,元麻布３丁目４番２９－４０１号,,13,103,1060046,,,,,,,2023-10-27,1,,,,,デネブ,0
2030,8010603010453,新規,0,2023-10-27,2023-10-27,海隣合同会社,,合同会社,東京都,墨田区,向島４丁目３－８グレイス向島２０１－Ａ,,13,107,1310033,,,,,,,2023-10-27,1,,,,,カイリン,0
2031,8010701045054,新規,0,2023-10-27,2023-10-27,株式会社たた,,株式会社,東京都,品川区,西大井２丁目５－１５,,13,109,1400015,,,,,,,2023-10-27,1,,,,,タタ,0
2034,8010801034469,新規,0,2023-10-27,2023-10-27,三好株式会社,,株式会社,東京都,大田区,西糀谷３丁目２６番７号,,13,111,1440034,,,,,,,2023-10-27,1,,,,,ミヨシ,0
2042,8010901054061,新規,0,2023-10-27,2023-10-27,株式会社ＨＯＢＯＴＯＲＥ,,株式会社,東京都,世田谷区,桜丘１丁目３番１５号,,13,112,1560054,,,,,,,2023-10-27,1,,,,,ホボトレ,0
2050,8011001157606,新規,0,2023-10-27,2023-10-27,ｃｏｎｃｏｎ株式会社,,株式会社,東京都,渋谷区,神宮前６丁目２３番４号桑野ビル２階,,13,113,1500001,,,,,,,2023-10-27,1,,,,,コンコン,0
2051,8011001157829,新規,0,2023-10-27,2023-10-27,株式会社ＥＯＮ,,株式会社,東京都,目黒区,東山１丁目８－６サンロイヤル東山２０６,,13,110,1530043,,,,,,,2023-10-27,1,,,,,エオン,0
2052,8011001157845,新規,0,2023-10-27,2023-10-27,サンクラウン株式会社,,株式会社,東京都,渋谷区,本町３丁目２０番８号,,13,113,1510071,,,,,,,2023-10-27,1,,,,,サンクラウン,0
2053,8011003017799,新規,0,2023-10-27,2023-10-27,合同会社ｏｒｃａ,,合同会社,東京都,渋谷区,広尾１丁目１６番地３号ルモン広尾３０４,,13,113,1500012,,,,,,,2023-10-27,1,,,,,オルカ,0
2054,8011005010249,新規,0,2023-10-27,2023-10-27,社会保険労務士法人オーシャン綜合コンサルティング,,その他の設立登記法人,東京都,目黒区,目黒１丁目２４番１８号福山ビル８階,,13,110,1530063,,,,,,,2023-10-27,1,,,,,オーシャンソウゴウコンサルティング,0
2058,8011101104937,新規,0,2023-10-27,2023-10-27,ペガサスブランディング株式会社,,株式会社,東京都,新宿区,北新宿１丁目２３番２２－３０６号,,13,104,1690074,,,,,,,2023-10-27,1,,,,,,0
2066,8011801043237,新規,0,2023-10-27,2023-10-27,ＹＩＴＯＮＧ株式会社,,株式会社,東京都,足立区,西新井２丁目４番６号ＡｎｄＰｌｕｓ西新井ビル,,13,121,1230841,,,,,,,2023-10-27,1,,,,,イトン,0
2067,8011801043245,新規,0,2023-10-27,2023-10-27,株式会社津田商事,,株式会社,東京都,足立区,舎人２丁目１７番１３号コーポばば１０１,,13,121,1210831,,,,,,,2023-10-27,1,,,,,ツダショウジ,0
2088,8020001154141,新規,0,2023-10-27,2023-10-27,株式会社ＨＡＮＤＹ,,株式会社,神奈川県,横浜市都筑区,茅ケ崎南２丁目２番３０－４Ｆ,,14,118,2240037,,,,,,,2023-10-27,1,,,,,ハンディ,0
2089,8020001154158,新規,0,2023-10-27,2023-10-27,リワードライズ株式会社,,株式会社,神奈川県,川崎市川崎区,藤崎３丁目１３番６号,,14,131,2100804,,,,,,,2023-10-27,1,,,,,リワードライズ,0
2090,8020001154166,新規,0,2023-10-27,2023-10-27,ａｎｄｕｓ株式会社,,株式会社,神奈川県,横浜市青葉区,美しが丘３丁目５３番地１５,,14,117,2250002,,,,,,,2023-10-27,1,,,,,アンドアス,0
2091,8020001154174,新規,0,2023-10-27,2023-10-27,ＡＩＫ２システム株式会社,,株式会社,神奈川県,横浜市港北区,新横浜３丁目９－５第三東昇ビル３階,,14,109,2220033,,,,,,,2023-10-27,1,,,,,エーアイケーツーシステム,0
2092,8020001154182,新規,0,2023-10-27,2023-10-27,グローアップ株式会社,,株式会社,神奈川県,横浜市港北区,大倉山３丁目４６番８号,,14,109,2220037,,,,,,,2023-10-27,1,,,,,グローアップ,0
2095,8020003024862,新規,0,2023-10-27,2023-10-27,合同会社誠,,合同会社,神奈川県,横浜市鶴見区,上の宮１丁目４番１４号エクセル菊名ヒルステア弐番館４０３,,14,101,2300075,,,,,,,2023-10-27,1,,,,,マコト,0
2096,8020003024870,新規,0,2023-10-27,2023-10-27,ＹＵＭＥＯＩ合同会社,,合同会社,神奈川県,横浜市青葉区,もえぎ野１４番地３４,,14,117,2270044,,,,,,,2023-10-27,1,,,,,ユメオイ,0
2107,8021001080559,新規,0,2023-10-27,2023-10-27,株式会社Ｍ．Ｒ　ＪＡＰＡＮ,,株式会社,神奈川県,相模原市南区,双葉１丁目１５番１号,,14,153,2520316,,,,,,,2023-10-27,1,,,,,エムアールジャパン,0
2108,8021001080575,新規,0,2023-10-27,2023-10-27,株式会社Ｒｉｖｅｒ,,株式会社,神奈川県,茅ヶ崎市,浜之郷２６２番地３サン・ミッシェル２０３,,14,207,2530086,,,,,,,2023-10-27,1,,,,,リバー,0
2109,8021001080583,新規,0,2023-10-27,2023-10-27,株式会社ＫＩ空調,,株式会社,神奈川県,茅ヶ崎市,堤３６６３番地１,,14,207,2530006,,,,,,,2023-10-27,1,,,,,ケーアイクウチョウ,0
2113,8021003013731,新規,0,2023-10-27,2023-10-27,合同会社ＳＡＫＵＲＡ,,合同会社,神奈川県,平塚市,四之宮６丁目２番２０号,,14,203,2540014,,,,,,,2023-10-27,1,,,,,サクラ,0
2125,8030003022873,新規,0,2023-10-27,2023-10-27,合同会社ＲＹＣ,,合同会社,埼玉県,蕨市,錦町６丁目１１番１７号,,11,223,3350005,,,,,,,2023-10-27,1,,,,,アールワイシー,0
2126,8030003022881,新規,0,2023-10-27,2023-10-27,合同会社ＩＲＨ,,合同会社,埼玉県,さいたま市南区,大字円正寺９２番地１－２０２号,,11,108,3360043,,,,,,,2023-10-27,1,,,,,イロハ,0
2133,8040001130660,新規,0,2023-10-27,2023-10-27,株式会社ｆｏｕｒ　ｆｅｌｉｚ,,株式会社,千葉県,市川市,大町２５５番地１８,,12,203,2720801,,,,,,,2023-10-27,1,,,,,フォーフェリス,0
2134,8040001130693,新規,0,2023-10-27,2023-10-27,株式会社ＴＵＢＡＳＡ,,株式会社,千葉県,千葉市花見川区,宇那谷町１９３８番地３６,,12,102,2620003,,,,,,,2023-10-27,1,,,,,ツバサ,0
2138,8040003023631,新規,0,2023-10-27,2023-10-27,合同会社月灯,,合同会社,千葉県,船橋市,行田町３４７番１号７０３号,,12,204,2730043,,,,,,,2023-10-27,1,,,,,ツキアカリ,0
2139,8050001053695,新規,0,2023-10-27,2023-10-27,株式会社Ｓ．トラスト,,株式会社,茨城県,潮来市,大塚野１丁目５番地１３,,08,223,3112426,,,,,,,2023-10-27,1,,,,,エストラスト,0
2140,8050001053729,新規,0,2023-10-27,2023-10-27,ＺＭ　ＴＲＡＤＩＮＧ株式会社,,株式会社,茨城県,筑西市,藤ケ谷２０９１番地ロマ３号,,08,227,3080112,,,,,,,2023-10-27,1,,,,,ゼットエムトレーディング,0
2150,8080103002911,新規,0,2023-10-27,2023-10-27,合同会社Ｙ＆Ｋスタンダードライフ,,合同会社,静岡県,田方郡函南町,仁田１４６－１３,,22,325,4190114,,,,,,,2023-10-27,1,,,,,ワイアンドケイスタンダードライフ,0
2157,8100005013079,新規,0,2023-10-27,2023-10-27,一般社団法人グリーンみらい・まつかわ,,その他の設立登記法人,長野県,下伊那郡松川町,大島２０６５番地１,,20,402,3993304,,,,,,,2023-10-27,1,,,,,グリーンミライマツカワ,0
2172,8120001259194,新規,0,2023-10-27,2023-10-27,ＳＢＣ株式会社,,株式会社,大阪府,大阪市北区,池田町３番２１－２７０６号,,27,127,5300033,,,,,,,2023-10-27,1,,,,,エスビーシー,0
2175,8120003025198,新規,0,2023-10-27,2023-10-27,合同会社チェイルソーレ,,合同会社,大阪府,枚方市,楠葉並木１丁目３７番２９号,,27,210,5731118,,,,,,,2023-10-27,1,,,,,チェイルソーレ,0
2179,8122003002714,新規,0,2023-10-27,2023-10-27,合同会社ａｄｄｏｎｅｍ,,合同会社,大阪府,八尾市,久宝寺１丁目２番５８号,,27,212,5810072,,,,,,,2023-10-27,1,,,,,アドネム,0
2180,8130001075533,新規,0,2023-10-27,2023-10-27,株式会社ラルフ,,株式会社,京都府,京都市伏見区,菱屋町６７８番地,,26,109,6128303,,,,,,,2023-10-27,1,,,,,ラルフ,0
2191,8140001131987,新規,0,2023-10-27,2023-10-27,恒一株式会社,,株式会社,兵庫県,姫路市,車崎２丁目１２番８号,,28,201,6700058,,,,,,,2023-10-27,1,,,,,コウイチ,0
2192,8140001132110,新規,0,2023-10-27,2023-10-27,株式会社吉祥吉ホールディングス,,株式会社,兵庫県,神戸市中央区,元町通２丁目４番１４号,,28,110,6500022,,,,,,,2023-10-27,1,,,,,キッショウキチホールディングス,0
2193,8140001132135,新規,0,2023-10-27,2023-10-27,株式会社ＰＵ‐ＥＮＤＹ,,株式会社,兵庫県,西宮市,甲陽園目神山町１１番２８号,,28,204,6620011,,,,,,,2023-10-27,1,,,,,プエンディ,0
2198,8140003019735,新規,0,2023-10-27,2023-10-27,合同会社大将娯楽,,合同会社,兵庫県,神戸市中央区,浜辺通３丁目１番５２－１０２号,,28,110,6510083,,,,,,,2023-10-27,1,,,,,タイショウゴラク,0
2199,8140003019743,新規,0,2023-10-27,2023-10-27,合同会社ＹＵＵＫＩ．ＷＯＲＫＳ,,合同会社,兵庫県,尼崎市,大庄北４丁目２１－４,,28,202,6600063,,,,,,,2023-10-27,1,,,,,ユウキワークス,0
2203,8170001017861,新規,0,2023-10-27,2023-10-27,株式会社大千レソール,,株式会社,和歌山県,和歌山市,寺内５６１番地１,,30,201,6408311,,,,,,,2023-10-27,1,,,,,ダイセンレソール,0
2211,8180001158688,新規,0,2023-10-27,2023-10-27,株式会社ＳＩＭＡ商会,,株式会社,愛知県,弥富市,三好４丁目１０番地２,,23,235,4980046,,,,,,,2023-10-27,1,,,,,シマショウカイ,0
2212,8180001158696,新規,0,2023-10-27,2023-10-27,ワイズオート株式会社,,株式会社,愛知県,名古屋市西区,あし原町２９５番地,,23,104,4520823,,,,,,,2023-10-27,1,,,,,ワイズオート,0
2216,8180005020407,新規,0,2023-10-27,2023-10-27,一般社団法人なちゅらん,,その他の設立登記法人,愛知県,名古屋市中村区,名駅南２丁目７番８号,,23,105,4500003,,,,,,,2023-10-27,1,,,,,ナチュラン,0
2218,8180301037947,新規,0,2023-10-27,2023-10-27,株式会社アイ・コスメティック,,株式会社,愛知県,豊田市,桝塚西町北小畔８３番地,,23,211,4701213,,,,,,,2023-10-27,1,,,,,アイコスメティック,0
2219,8180301037955,新規,0,2023-10-27,2023-10-27,株式会社ＯＺ,,株式会社,愛知県,豊川市,東新町５４番地メゾンヤンヤンＩＩ１０２号,00132432,23,207,4420026,,,,,,,2023-10-27,1,,,,,オズ,0
2220,8180301037963,新規,0,2023-10-27,2023-10-27,株式会社霧の里きのこ園,,株式会社,愛知県,豊田市,西細田町霧ケ窪６３６番地,,23,211,4700526,,,,,,,2023-10-27,1,,,,,キリノサトキノコエン,0
2226,8190003004492,新規,0,2023-10-27,2023-10-27,合同会社ホワイトプラン,,合同会社,三重県,津市,河芸町上野４３６－２８,,24,201,5100304,,,,,,,2023-10-27,1,,,,,ホワイトプラン,0
2233,8240001062339,新規,0,2023-10-27,2023-10-27,Ｙ’ｓ株式会社,,株式会社,広島県,広島市安佐北区,亀山５丁目３０番１３号,,34,106,7310231,,,,,,,2023-10-27,1,,,,,ワイズ,0
2238,8270003001572,新規,0,2023-10-27,2023-10-27,合同会社和の風,,合同会社,鳥取県,西伯郡南部町,道河内１６９番地,,31,389,6830355,,,,,,,2023-10-27,1,,,,,ワノカゼ,0
2242,8290001103550,新規,0,2023-10-27,2023-10-27,株式会社福住ホールディングス,,株式会社,福岡県,福岡市中央区,天神２丁目４番１５号プリオ天神ビル,,40,133,8100001,,,,,,,2023-10-27,1,,,,,フクジュウホールディングス,0
2243,8290001103559,新規,0,2023-10-27,2023-10-27,株式会社鈴忠,,株式会社,福岡県,飯塚市,飯塚１２番２５号,,40,205,8200041,,,,,,,2023-10-27,1,,,,,スズチュウ,0
2252,8300001013509,新規,0,2023-10-27,2023-10-27,株式会社ミライステーション,,株式会社,佐賀県,小城市,三日月町久米２０３３番地６,,41,208,8450022,,,,,,,2023-10-27,1,,,,,ミライステーション,0
2255,8320003004215,新規,0,2023-10-27,2023-10-27,合同会社岩久ライスセンター,,合同会社,大分県,中津市,大字湯屋２４番地６,,44,203,8710023,,,,,,,2023-10-27,1,,,,,イワヒサライスセンター,0
2258,8330003010047,新規,0,2023-10-27,2023-10-27,合同会社ＡｌＦｅ,,合同会社,熊本県,上益城郡嘉島町,大字下六嘉３６０１番地,,43,442,8613102,,,,,,,2023-10-27,1,,,,,アルフェ,0
2259,8330005010714,新規,0,2023-10-27,2023-10-27,一般社団法人まいん,,その他の設立登記法人,熊本県,熊本市東区,御領１丁目１番３６号,,43,102,8618035,,,,,,,2023-10-27,1,,,,,マイン,0
2293,8430001090304,新規,0,2023-10-27,2023-10-27,株式会社創電社,,株式会社,北海道,札幌市豊平区,水車町１丁目８番１８号,,01,105,0620912,,,,,,,2023-10-27,1,,,,,ソウデンシャ,0
2297,8430003015548,新規,0,2023-10-27,2023-10-27,海星設備合同会社,,合同会社,北海道,札幌市白石区,栄通６丁目７番２０号,,01,104,0030021,,,,,,,2023-10-27,1,,,,,カイセイセツビ,0
2301,8470001019869,新規,0,2023-10-27,2023-10-27,タカマツ建電株式会社,,株式会社,香川県,高松市,香西南町５１６番地１,,37,201,7618014,,,,,,,2023-10-27,1,,,,,タカマツケンデン,0
2312,9010001239495,新規,0,2023-10-27,2023-10-27,株式会社ハンリ,,株式会社,東京都,千代田区,神田三崎町２丁目１０番１１号Ｐｅｇビル６Ａ－６,,13,101,1010061,,,,,,,2023-10-27,1,,,,,ハンリ,0
2313,9010001239529,新規,0,2023-10-27,2023-10-27,Ｌｕｍｏ　Ｃｏｒｐｏｒａｔｉｏｎ株式会社,,株式会社,東京都,中央区,銀座１丁目１４番６号ＧＩＮＺＡＬＯＵＩＳ１０階,,13,102,1040061,,,,,,,2023-10-27,1,,,,,ルーモコーポレーション,0
2314,9010001239611,新規,0,2023-10-27,2023-10-27,ｔ２Ｔ　Ｈｅａｌｔｈｃａｒｅ株式会社,,株式会社,東京都,文京区,小石川２丁目１１番１５－１００２号,,13,105,1120002,,,,,,,2023-10-27,1,,,,,ティーツーティーヘルスケア,0
2315,9010001239644,新規,0,2023-10-27,2023-10-27,株式会社Ｊａｐｏｎｉｓｍｅ,,株式会社,東京都,中央区,勝どき２丁目９－１６勝どきハイデンス７１９７１９号室,,13,102,1040054,,,,,,,2023-10-27,1,,,,,ジャポニスム,0
2319,9010003042039,新規,0,2023-10-27,2023-10-27,合同会社Ｌｕｓｃｉｏｕｓ,,合同会社,東京都,千代田区,飯田橋１丁目４－８アイルズＢＭビル６階,,13,101,1020072,,,,,,,2023-10-27,1,,,,,ルシアス,0
2322,9010005037417,新規,0,2023-10-27,2023-10-27,特定非営利活動法人宇奈月モーツァルト東京音楽祭,,その他の設立登記法人,東京都,文京区,小日向４丁目９番２号,,13,105,1120006,,,,,,,2023-10-27,1,,,,,ウナヅキモーツァルトトウキョウオンガクサイ,0
2330,9010401178038,新規,0,2023-10-27,2023-10-27,Ｎｉｎａｐｉｔａ　Ｊａｐａｎ株式会社,,株式会社,東京都,港区,西新橋３丁目２４番８号山内ビル３階,,13,103,1050003,,,,,,,2023-10-27,1,,,,,ニナピタジャパン,0
2334,9010403031252,新規,0,2023-10-27,2023-10-27,Ｏｈ合同会社,,合同会社,東京都,港区,六本木７丁目６番２０号ヘキサート六本木３０１,,13,103,1060032,,,,,,,2023-10-27,1,,,,,オーエイチ,0
2343,9010701045037,新規,0,2023-10-27,2023-10-27,株式会社バイオキングダム,,株式会社,東京都,品川区,北品川１丁目２２番１７号ニックハイム北品川１０１,,13,109,1400001,,,,,,,2023-10-27,1,,,,,バイオキングダム,0
2346,9010901054102,新規,0,2023-10-27,2023-10-27,株式会社ＳＫ　Ａｓｓｅｔ,,株式会社,東京都,世田谷区,桜上水２丁目１９－２０－９,,13,112,1560045,,,,,,,2023-10-27,1,,,,,エスケーアセット,0
2351,9011001157860,新規,0,2023-10-27,2023-10-27,株式会社フィサリス,,株式会社,東京都,渋谷区,広尾３丁目５番２２号,,13,113,1500012,,,,,,,2023-10-27,1,,,,,フィサリス,0
2354,9011101104928,新規,0,2023-10-27,2023-10-27,フィンクリース株式会社,,株式会社,東京都,新宿区,西新宿５丁目１番１号ラ・トゥール新宿ファースト２９０２,,13,104,1600023,,,,,,,2023-10-27,1,,,,,フィンクリース,0
2355,9011101104936,新規,0,2023-10-27,2023-10-27,株式会社櫻龍,,株式会社,東京都,新宿区,百人町２丁目２５－８大久保ハウス３０６,,13,104,1690073,,,,,,,2023-10-27,1,,,,,サクラドラゴン,0
2365,9011501029923,新規,0,2023-10-27,2023-10-27,ＡＲＩＳ株式会社,,株式会社,東京都,荒川区,西日暮里２丁目２７番１０号,,13,118,1160013,,,,,,,2023-10-27,1,,,,,アリス,0
2366,9011503005823,新規,0,2023-10-27,2023-10-27,合同会社エリオット,,合同会社,東京都,北区,浮間１丁目１５番１－１９０２号,,13,117,1150051,,,,,,,2023-10-27,1,,,,,エリオット,0
2372,9011701026704,新規,0,2023-10-27,2023-10-27,信達株式会社,,株式会社,東京都,江戸川区,平井１丁目２３番１５号,,13,123,1320035,,,,,,,2023-10-27,1,,,,,シンタツ,0
2380,9012403006250,新規,0,2023-10-27,2023-10-27,合同会社Ｈａｎｎａｈ,,合同会社,東京都,調布市,調布ケ丘３丁目１０番地１７,,13,208,1820021,,,,,,,2023-10-27,1,,,,,ハナ,0
2392,9020001154149,新規,0,2023-10-27,2023-10-27,株式会社フューテック,,株式会社,神奈川県,川崎市多摩区,長沢４丁目１７番７－１号,,14,135,2140035,,,,,,,2023-10-27,1,,,,,フューテック,0
2393,9020001154157,新規,0,2023-10-27,2023-10-27,トレジャーハブ株式会社,,株式会社,神奈川県,川崎市川崎区,藤崎３丁目１３番６号,,14,131,2100804,,,,,,,2023-10-27,1,,,,,トレジャーハブ,0
2394,9020001154173,新規,0,2023-10-27,2023-10-27,ＧＬｉｎｋ国際株式会社,,株式会社,神奈川県,横浜市神奈川区,神大寺４丁目１４番２１号３ユナイト片倉アデリーナ１０５室,,14,102,2210801,,,,,,,2023-10-27,1,,,,,,0
2395,9020003024845,新規,0,2023-10-27,2023-10-27,合同会社ＤＡＷＮ　ＬＩＧＨＴ,,合同会社,神奈川県,川崎市川崎区,渡田向町１９番１３－２０５号ヌーベルアルモニー,,14,131,2100841,,,,,,,2023-10-27,1,,,,,ドーンライト,0
2396,9020003024853,新規,0,2023-10-27,2023-10-27,三谷実業合同会社,,合同会社,神奈川県,横浜市中区,初音町３丁目５９番地１フェニックスヨコハマスクエア１００９,,14,104,2310053,,,,,,,2023-10-27,1,,,,,ミタニジツギョウ,0
2397,9020003024861,新規,0,2023-10-27,2023-10-27,合同会社ｈａｒｕｃｈｉｃａ,,合同会社,神奈川県,横浜市都筑区,池辺町２７８３番地２,,14,118,2240053,,,,,,,2023-10-27,1,,,,,ハルチカ,0
2398,9020003024878,新規,0,2023-10-27,2023-10-27,ブルーペーパー合同会社,,合同会社,神奈川県,横浜市磯子区,栗木２丁目２番２４号,,14,107,2350041,,,,,,,2023-10-27,1,,,,,ブルーペーパー,0
2403,9021001080590,新規,0,2023-10-27,2023-10-27,株式会社ＮｏＥＬ,,株式会社,神奈川県,厚木市,旭町２丁目１０番２０レジデンス伊藤ＩＩ４Ｆ号,00132448,14,212,2430014,,,,,,,2023-10-27,1,,,,,ノエル,0
2407,9021003013739,新規,0,2023-10-27,2023-10-27,合同会社ヒロタ電工,,合同会社,神奈川県,茅ヶ崎市,平和町１２番７－６号,,14,207,2530024,,,,,,,2023-10-27,1,,,,,ヒロタデンコウ,0
2411,9030001156854,新規,0,2023-10-27,2023-10-27,株式会社スノーランド,,株式会社,埼玉県,川口市,川口２丁目３番１９－８０５号ネクス川口,,11,203,3320015,,,,,,,2023-10-27,1,,,,,スノーランド,0
2412,9030001156862,新規,0,2023-10-27,2023-10-27,ディライズ株式会社,,株式会社,埼玉県,越谷市,大字下間久里９６番地４松崎ビル１Ｆ,,11,222,3430045,,,,,,,2023-10-27,1,,,,,ディライズ,0
2413,9030001156879,新規,0,2023-10-27,2023-10-27,株式会社リスフィ,,株式会社,埼玉県,所沢市,寿町８番１６号,,11,208,3591122,,,,,,,2023-10-27,1,,,,,リスフィ,0
2415,9030003022906,新規,0,2023-10-27,2023-10-27,合同会社フレームアウトワークス,,合同会社,埼玉県,さいたま市南区,別所４丁目１０番６,,11,108,3360021,,,,,,,2023-10-27,1,,,,,フレームアウトワークス,0
2420,9040001130684,新規,0,2023-10-27,2023-10-27,株式会社清水会,,株式会社,千葉県,千葉市美浜区,若葉３丁目１番地１９,,12,106,2610014,,,,,,,2023-10-27,1,,,,,シミズカイ,0
2423,9040005022176,新規,0,2023-10-27,2023-10-27,一般社団法人まつおか,,その他の設立登記法人,千葉県,松戸市,紙敷１丁目１４番地の９,,12,207,2702221,,,,,,,2023-10-27,1,,,,,マツオカ,0
2450,9120001259251,新規,0,2023-10-27,2023-10-27,Ｇｏｔｒａｙｓ株式会社,,株式会社,大阪府,大阪市中央区,北久宝寺町１丁目５－６堺筋本町アーバンライフ３０４室,,27,128,5410057,,,,,,,2023-10-27,1,,,,,ゴトレイズ,0
2451,9120001259276,新規,0,2023-10-27,2023-10-27,泉弘興株式会社,,株式会社,大阪府,大阪市生野区,林寺２丁目８番２号２階Ｂ２０１号室,,27,116,5440023,,,,,,,2023-10-27,1,,,,,センコウキョウ,0
2452,9120001259284,新規,0,2023-10-27,2023-10-27,重里兄弟商店株式会社,,株式会社,大阪府,大阪市北区,曾根崎新地１丁目５番１８号,,27,127,5300002,,,,,,,2023-10-27,1,,,,,シゲサトキョウダイショウテン,0
2460,9120103005512,新規,0,2023-10-27,2023-10-27,ネクスト合同会社,,合同会社,大阪府,阪南市,箱作２８７４番地の２４９,,27,232,5990232,,,,,,,2023-10-27,1,,,,,ネクスト,0
2462,9120901048274,新規,0,2023-10-27,2023-10-27,株式会社アイディール,,株式会社,大阪府,高槻市,唐崎北１丁目２７番６号,,27,207,5690831,,,,,,,2023-10-27,1,,,,,アイディール,0
2467,9130001075508,新規,0,2023-10-27,2023-10-27,株式会社ＮｅｘｔＧｅｎｅｒａｔｉｏｎ,,株式会社,京都府,宇治市,木幡南山６８番地の８０,,26,204,6110002,,,,,,,2023-10-27,1,,,,,ネクストジェネレーション,0
2468,9130001075516,新規,0,2023-10-27,2023-10-27,株式会社ＴＡＫＥＴＯＲＩ,,株式会社,京都府,京都市西京区,大枝沓掛町２番地１８,,26,111,6101106,,,,,,,2023-10-27,1,,,,,タケトリ,0
2469,9130001075540,新規,0,2023-10-27,2023-10-27,株式会社トシオ,,株式会社,京都府,八幡市,八幡西高坊１０番地２大野マンション１０１号室,,26,210,6148007,,,,,,,2023-10-27,1,,,,,トシオ,0
2470,9130003009075,新規,0,2023-10-27,2023-10-27,ｕｎｔｉｔｌｅｄ合同会社,,合同会社,京都府,京都市左京区,下鴨貴船町４９－２貴船マンション２０３号室,,26,103,6060813,,,,,,,2023-10-27,1,,,,,アンタイトルド,0
2476,9140001132134,新規,0,2023-10-27,2023-10-27,株式会社インテリア山口,,株式会社,兵庫県,姫路市,書写４０２番地１２,,28,201,6712201,,,,,,,2023-10-27,1,,,,,インテリアヤマグチ,0
2477,9140001132142,新規,0,2023-10-27,2023-10-27,株式会社Ｋ’ｓロード,,株式会社,兵庫県,神戸市長田区,御蔵通４丁目２０４番地の１９,,28,106,6530014,,,,,,,2023-10-27,1,,,,,ケーズロード,0
2492,9180001158670,新規,0,2023-10-27,2023-10-27,株式会社ダウンタウンエージェント,,株式会社,愛知県,名古屋市熱田区,明野町１６番１３号オオタ明野ビル９０３,,23,109,4560071,,,,,,,2023-10-27,1,,,,,ダウンタウンエージェント,0
2493,9180001158679,新規,0,2023-10-27,2023-10-27,株式会社ｓｐｒｉｎｇ　ｓｕｎｓ,,株式会社,愛知県,小牧市,大字下末１２６１番地,,23,219,4850825,,,,,,,2023-10-27,1,,,,,スプリングサンズ,0
2496,9180005020406,新規,0,2023-10-27,2023-10-27,特定非営利活動法人ともの会,,その他の設立登記法人,愛知県,名古屋市中川区,広田町２丁目２１番地,,23,110,4540867,,,,,,,2023-10-27,1,,,,,トモノカイ,0
2500,9180301037954,新規,0,2023-10-27,2023-10-27,株式会社Ｋ．Ｔ,,株式会社,愛知県,豊川市,久保町日影２番地の６,,23,207,4420856,,,,,,,2023-10-27,1,,,,,ケーティー,0
2501,9180301037962,新規,0,2023-10-27,2023-10-27,株式会社Ｔａｉｌｗｉｎｄ,,株式会社,愛知県,豊川市,蔵子３丁目５番地１４サンハイツサノックスＡ－２０６,,23,207,4420842,,,,,,,2023-10-27,1,,,,,テイルウインド,0
2508,9200003006131,新規,0,2023-10-27,2023-10-27,合同会社コールソン,,合同会社,岐阜県,岐阜市,忠節町３丁目７番地３,,21,201,5008801,,,,,,,2023-10-27,1,,,,,コールソン,0
2519,9240001062338,新規,0,2023-10-27,2023-10-27,株式会社ヤスヤ,,株式会社,広島県,広島市中区,上八丁堀４－１アーバンビューグランドタワー２９０１号,,34,101,7300012,,,,,,,2023-10-27,1,,,,,ヤスヤ,0
2525,9260003004484,新規,0,2023-10-27,2023-10-27,合同会社フラット,,合同会社,岡山県,津山市,安岡町１１２番地３,,33,203,7080044,,,,,,,2023-10-27,1,,,,,フラット,0
2530,9290003014547,新規,0,2023-10-27,2023-10-27,合同会社ユキエ,,合同会社,福岡県,福岡市城南区,片江５丁目１２番２５－１０６号,,40,136,8140142,,,,,,,2023-10-27,1,,,,,,0
2535,9320001020114,新規,0,2023-10-27,2023-10-27,株式会社海生,,株式会社,大分県,佐伯市,鶴見大字沖松浦１２５３番地７,,44,205,8761203,,,,,,,2023-10-27,1,,,,,カイセイ,0
2542,9350001018634,新規,0,2023-10-27,2023-10-27,株式会社龍飛木材,,株式会社,宮崎県,都城市,高崎町縄瀬１６７７番地１,,45,202,8894503,,,,,,,2023-10-27,1,,,,,リュウヒモクザイ,0
2544,9360001032741,新規,0,2023-10-27,2023-10-27,株式会社ガレージ仲秀,,株式会社,沖縄県,那覇市,具志１丁目２３番３号,,47,201,9010146,,,,,,,2023-10-27,1,,,,,ガレージナカヒデ,0
2545,9370001050569,新規,0,2023-10-27,2023-10-27,東仙設備株式会社,,株式会社,宮城県,仙台市宮城野区,東仙台１丁目１０番１８号,,04,102,9830833,,,,,,,2023-10-27,1,,,,,トウセンセツビ,0
2559,9430001090278,新規,0,2023-10-27,2023-10-27,株式会社ＨＥＡＴＷＡＶＥ,,株式会社,北海道,札幌市東区,本町一条３丁目７番１９号,,01,103,0650041,,,,,,,2023-10-27,1,,,,,ヒートウェーブ,0
2560,9430001090286,新規,0,2023-10-27,2023-10-27,Ｙ’ｓ株式会社,,株式会社,北海道,札幌市白石区,平和通９丁目北１４番４号,,01,104,0030029,,,,,,,2023-10-27,1,,,,,ワイズ,0
2564,9450001014128,新規,0,2023-10-27,2023-10-27,株式会社ｉｎｎ,,株式会社,北海道,旭川市,北門町１４丁目２１４５番地の１７４,,01,204,0700825,,,,,,,2023-10-27,1,,,,,イン,0
2568,9490005006910,新規,0,2023-10-27,2023-10-27,一般社団法人Ｕプロデュース,,その他の設立登記法人,高知県,高知市,北川添２４番１３号,,39,201,7810081,,,,,,,2023-10-27,1,,,,,ユープロデュース,0
2571,9700150118380,新規,0,2023-10-27,2023-09-12,セノッピー共済会,,その他,東京都,港区,虎ノ門１丁目１６－１６虎ノ門一丁目ＭＧビル８Ｆ,,13,103,1050001,,,,,,,2023-09-12,1,,,,,セノツピーキヨウサイカイ,0
