sequenceNumber,corporateNumber,process,correct,updateDate,changeDate,name,nameImageId,kind,prefectureName,cityName,streetNumber,addressImageId,prefectureCode,cityCode,postCode,addressOutside,addressOutsideImageId,closeDate,closeCause,successorCorporateNumber,changeCause,assignmentDate,latest,enName,enPrefectureName,enCityName,enAddressOutside,furigana,hihyoji
10,1010001235733,新規,0,2023-06-05,2023-06-05,株式会社コンフィニットジャパン,,株式会社,東京都,中央区,銀座７丁目１３番２０号銀座ＴＨビル９階,,13,102,1040061,,,,,,,2023-06-05,1,,,,,コンフィニットジャパン,0
11,1010001235849,新規,0,2023-06-05,2023-06-05,花巻ホールディングス株式会社,,株式会社,東京都,千代田区,大手町１丁目１番１号,,13,101,1000004,,,,,,,2023-06-05,1,,,,,ハナマキホールディングス,0
15,1010005036780,新規,0,2023-06-05,2023-06-05,一般社団法人日本賃金人事評価支援機構,,その他の設立登記法人,東京都,中央区,銀座１丁目２２番１１号２Ｆ,,13,102,1040061,,,,,,,2023-06-05,1,,,,,ニホンチンギンジンジヒョウカシエンキコウ,0
26,1010401174738,新規,0,2023-06-05,2023-06-05,株式会社ＭＡＲＣ,,株式会社,東京都,港区,海岸３丁目７番１８号ＡＬＴＯＢ３０２,,13,103,1080022,,,,,,,2023-06-05,1,,,,,マーク,0
27,1010401174754,新規,0,2023-06-05,2023-06-05,ＫＭ１株式会社,,株式会社,東京都,港区,虎ノ門５丁目１１番１号オランダヒルズ森タワーＲｏＰ,,13,103,1050001,,,,,,,2023-06-05,1,,,,,ケーエムワン,0
28,1010401174779,新規,0,2023-06-05,2023-06-05,ＬＩＦＥ　ＣＲＥＡＴＥ株式会社,,株式会社,東京都,港区,元麻布３丁目１０番６号,,13,103,1060046,,,,,,,2023-06-05,1,,,,,ライフクリエイト,0
32,1010403030220,新規,0,2023-06-05,2023-06-05,合同会社ＡＩＮ,,合同会社,東京都,港区,南青山３丁目１番３６号青山丸竹ビル６Ｆ,,13,103,1070062,,,,,,,2023-06-05,1,,,,,エイン,0
33,1010403030245,新規,0,2023-06-05,2023-06-05,Ｊ２Ｓｏｕｒｃｉｎｇ合同会社,,合同会社,東京都,港区,六本木１丁目１０番３－９０１号,,13,103,1060032,,,,,,,2023-06-05,1,,,,,ジェイツーソーシング,0
34,1010403030261,新規,0,2023-06-05,2023-06-05,Ｌｉｂｅｒｔｅ　Ｍｅ合同会社,,合同会社,東京都,港区,浜松町２丁目２‐１５‐２Ｆ,,13,103,1050013,,,,,,,2023-06-05,1,,,,,リベルテミー,0
35,1010405022182,新規,0,2023-06-05,2023-06-05,特定非営利活動法人東京インドネシア協力隊,,その他の設立登記法人,東京都,港区,港南４丁目７番１－２３０１号,,13,103,1080075,,,,,,,2023-06-05,1,,,,,トウキョウインドネシアキョウリョクタイ,0
36,1010501050541,新規,0,2023-06-05,2023-06-05,株式会社ＵＬＴＶＥＲＳＥ,,株式会社,東京都,台東区,元浅草１丁目６番１２－７１１号,,13,106,1110041,,,,,,,2023-06-05,1,,,,,アルトバース,0
44,1010701044343,新規,0,2023-06-05,2023-06-05,ぬのむら再開発綜研株式会社,,株式会社,東京都,品川区,大井５丁目２７番９号,,13,109,1400014,,,,,,,2023-06-05,1,,,,,ヌノムラサイカイハツソウケン,0
46,1010703006721,新規,0,2023-06-05,2023-06-05,合同会社寺子屋プロジェクト,,合同会社,東京都,品川区,西五反田２丁目１５番１３号,,13,109,1410031,,,,,,,2023-06-05,1,,,,,テラコヤプロジェクト,0
47,1010801034013,新規,0,2023-06-05,2023-06-05,株式会社ＵＴＥＮＡ,,株式会社,東京都,大田区,蒲田１丁目７番４号,,13,111,1440052,,,,,,,2023-06-05,1,,,,,ウテナ,0
52,1011001154782,新規,0,2023-06-05,2023-06-05,日本立達株式会社,,株式会社,東京都,渋谷区,富ヶ谷１丁目１４番１４号３階,,13,113,1510063,,,,,,,2023-06-05,1,,,,,ニホンリタ,0
53,1011001154816,新規,0,2023-06-05,2023-06-05,株式会社Ａｕｄｅｌａ,,株式会社,東京都,渋谷区,渋谷２丁目１番１号,,13,113,1500002,,,,,,,2023-06-05,1,,,,,オゥドゥラ,0
54,1011005010098,新規,0,2023-06-05,2023-06-05,一般社団法人日本キッズ・アントレプレナー協会,,その他の設立登記法人,東京都,渋谷区,道玄坂１丁目１０番８号渋谷道玄坂東急ビル２Ｆ－Ｃ,,13,113,1500043,,,,,,,2023-06-05,1,,,,,ニホンキッズアントレプレナーキョウカイ,0
55,1011101103094,新規,0,2023-06-05,2023-06-05,株式会社リングベルキャスト,,株式会社,東京都,新宿区,西新宿５丁目２３番２号,,13,104,1600023,,,,,,,2023-06-05,1,,,,,リングベルキャスト,0
56,1011101103136,新規,0,2023-06-05,2023-06-05,インフィニテック・テクノロジー株式会社,,株式会社,東京都,新宿区,西新宿１丁目２５番１号,,13,104,1600023,,,,,,,2023-06-05,1,,,,,インフィニテックテクノロジー,0
57,1011101103144,新規,0,2023-06-05,2023-06-05,株式会社ＮｅＸＴ,,株式会社,東京都,新宿区,西新宿３丁目３番１３号西新宿水間ビル２Ｆ,,13,104,1600023,,,,,,,2023-06-05,1,,,,,ネクスト,0
61,1011303004784,新規,0,2023-06-05,2023-06-05,合同会社ＴＩＡ,,合同会社,東京都,杉並区,阿佐谷南２丁目１６番６号第２芝仁ビル７階,,13,115,1660004,,,,,,,2023-06-05,1,,,,,,0
64,1011501029369,新規,0,2023-06-05,2023-06-05,ＳＹＫホールディング株式会社,,株式会社,東京都,北区,王子２丁目２２番５号,,13,117,1140002,,,,,,,2023-06-05,1,,,,,エスワイケーホールディング,0
70,1012301013471,新規,0,2023-06-05,2023-06-05,フェニックス株式会社,,株式会社,東京都,町田市,南大谷１１６５番地３,,13,209,1940031,,,,,,,2023-06-05,1,,,,,フェニックス,0
79,1020001151871,新規,0,2023-06-05,2023-06-05,株式会社ＰＲＯＵＤ,,株式会社,神奈川県,横浜市瀬谷区,三ツ境１０６番地１,,14,114,2460022,,,,,,,2023-06-05,1,,,,,プラウド,0
80,1020001151888,新規,0,2023-06-05,2023-06-05,株式会社キンダーコネクト,,株式会社,神奈川県,横浜市磯子区,新杉田町３番地１ステート新杉田５０６号,,14,107,2350032,,,,,,,2023-06-05,1,,,,,キンダーコネクト,0
81,1020001151938,新規,0,2023-06-05,2023-06-05,株式会社ＧＳＴ,,株式会社,神奈川県,横浜市中区,寿町２丁目５番地１２－３０１,,14,104,2310026,,,,,,,2023-06-05,1,,,,,ジーエスティ,0
87,1030001154122,新規,0,2023-06-05,2023-06-05,株式会社悠花梨,,株式会社,埼玉県,川口市,幸町２丁目７番１８号フォレストビル２０１,,11,203,3320016,,,,,,,2023-06-05,1,,,,,ユウカリ,0
92,1040001128653,新規,0,2023-06-05,2023-06-05,株式会社グローファル,,株式会社,千葉県,野田市,瀬戸１０９２番地の３,,12,208,2780012,,,,,,,2023-06-05,1,,,,,グローファル,0
93,1040001128661,新規,0,2023-06-05,2023-06-05,株式会社八幡工業,,株式会社,千葉県,富津市,八幡１１８番地,,12,226,2930056,,,,,,,2023-06-05,1,,,,,ヤワタコウギョウ,0
94,1040001128678,新規,0,2023-06-05,2023-06-05,株式会社Ｗｏｒｋｆｏｒｃｅ　Ｒｅｄｅｓｉｇｎ,,株式会社,千葉県,旭市,鎌数９１０番地,,12,215,2892505,,,,,,,2023-06-05,1,,,,,ワークフォースリデザイン,0
96,1040003022739,新規,0,2023-06-05,2023-06-05,合同会社紅來ソフト,,合同会社,千葉県,松戸市,和名ケ谷９８５－１９,,12,207,2702232,,,,,,,2023-06-05,1,,,,,コウライソフト,0
110,1080001025640,新規,0,2023-06-05,2023-06-05,株式会社レンコーポレーション,,株式会社,静岡県,藤枝市,高柳２丁目５番２１－１号,,22,214,4260041,,,,,,,2023-06-05,1,,,,,レンコーポレーション,0
112,1080101024039,新規,0,2023-06-05,2023-06-05,サンニチ警備株式会社,,株式会社,静岡県,伊東市,荻１５９番地の１,,22,208,4140053,,,,,,,2023-06-05,1,,,,,サンニチケイビ,0
113,1080401026511,新規,0,2023-06-05,2023-06-05,株式会社みかん山柑土里ファーム,,株式会社,静岡県,浜松市北区,三ヶ日町福長４０５番地,,22,135,4311411,,,,,,,2023-06-05,1,,,,,ミカンヤマカントリーファーム,0
116,1100001036478,新規,0,2023-06-05,2023-06-05,株式会社ＡＩｎｎｏｖａｔｅ,,株式会社,長野県,長野市,大字風間２０３４－１７,,20,201,3810023,,,,,,,2023-06-05,1,,,,,アイノベイト,0
119,1100005013028,新規,0,2023-06-05,2023-06-05,一般社団法人サンエコー,,その他の設立登記法人,長野県,茅野市,ちの３０２５番地１,,20,214,3910001,,,,,,,2023-06-05,1,,,,,サンエコー,0
120,1110001037574,新規,0,2023-06-05,2023-06-05,株式会社松田左官,,株式会社,新潟県,新発田市,西園町２丁目３番１号,,15,206,9570058,,,,,,,2023-06-05,1,,,,,マツダサカン,0
121,1110001037582,新規,0,2023-06-05,2023-06-05,株式会社以獅子,,株式会社,新潟県,新潟市西蒲区,巻甲２４４３番地,,15,108,9530041,,,,,,,2023-06-05,1,,,,,イシシ,0
128,1120001255299,新規,0,2023-06-05,2023-06-05,ＴＯＰ　ＳＴＡＧＥ株式会社,,株式会社,大阪府,大阪市東淀川区,柴島２丁目１３番１５号,,27,114,5330024,,,,,,,2023-06-05,1,,,,,トップステージ,0
129,1120001255349,新規,0,2023-06-05,2023-06-05,曜田株式会社,,株式会社,大阪府,大阪市住之江区,浜口西１丁目１３－１５カトレアビル４０１号室,,27,125,5590006,,,,,,,2023-06-05,1,,,,,ヨウダ,0
130,1120001255381,新規,0,2023-06-05,2023-06-05,Ｙ‐Ｋ株式会社,,株式会社,大阪府,大阪市中央区,東心斎橋１丁目６番２７号朝日プラザ心斎橋東７階,,27,128,5420083,,,,,,,2023-06-05,1,,,,,ワイケー,0
131,1120003024215,新規,0,2023-06-05,2023-06-05,ＴＩＥＮ　ＭＡＩ合同会社,,合同会社,大阪府,大阪市西成区,北津守３丁目２番１３号,,27,122,5570061,,,,,,,2023-06-05,1,,,,,テイエンマイ,0
134,1120101067636,新規,0,2023-06-05,2023-06-05,株式会社サム・テック,,株式会社,大阪府,堺市中区,土塔町３２１３番地,,27,142,5998234,,,,,,,2023-06-05,1,,,,,サムテック,0
136,1120901047589,新規,0,2023-06-05,2023-06-05,九洲アセット・マネジメント株式会社,,株式会社,大阪府,豊中市,寺内１丁目１０－７－４０２号,,27,203,5610872,,,,,,,2023-06-05,1,,,,,キュウシュウアセットマネジメント,0
139,1130001074442,新規,0,2023-06-05,2023-06-05,株式会社弥生,,株式会社,京都府,京都市東山区,清水２丁目２４６番地,,26,105,6050862,,,,,,,2023-06-05,1,,,,,ヤヨイ,0
140,1130001074459,新規,0,2023-06-05,2023-06-05,株式会社ＭＥＥＭ,,株式会社,京都府,京都市下京区,仏光寺通烏丸東入上柳町３３１タカノハスクエア３４６,,26,106,6008099,,,,,,,2023-06-05,1,,,,,ミーム,0
147,1140001130285,新規,0,2023-06-05,2023-06-05,株式会社Ｄｅ　Ｂｕｌｌｉｏｎ,,株式会社,兵庫県,西宮市,南越木岩町８番１８－３０５号,,28,204,6620075,,,,,,,2023-06-05,1,,,,,デブリオン,0
153,1160003002893,新規,0,2023-06-05,2023-06-05,合同会社モナカストア,,合同会社,滋賀県,草津市,西渋川１丁目３－４１－１０３号,,25,206,5250025,,,,,,,2023-06-05,1,,,,,モナカストア,0
159,1180001156525,新規,0,2023-06-05,2023-06-05,株式会社ＵＮＯＭＩ,,株式会社,愛知県,名古屋市千種区,東千種台１４番９号東千種台ハイツ４－Ｄ号,,23,101,4640001,,,,,,,2023-06-05,1,,,,,ウノミ,0
160,1180001156541,新規,0,2023-06-05,2023-06-05,ロボテクノシステム株式会社,,株式会社,愛知県,大府市,桃山町４丁目１３番地の９,,23,223,4740026,,,,,,,2023-06-05,1,,,,,ロボテクノシステム,0
162,1180003025307,新規,0,2023-06-05,2023-06-05,合同会社ＵＳＡＧＩ,,合同会社,愛知県,名古屋市中区,栄２丁目２番１号広小路伏見中駒ビル２Ｆ－９,,23,106,4600008,,,,,,,2023-06-05,1,,,,,ウサギ,0
171,1220001025436,新規,0,2023-06-05,2023-06-05,株式会社Ｒａｉｓｅ,,株式会社,石川県,小松市,吉竹町２丁目５８番地２,,17,203,9230835,,,,,,,2023-06-05,1,,,,,レイズ,0
173,1220003003522,新規,0,2023-06-05,2023-06-05,合同会社煌運輸,,合同会社,石川県,輪島市,マリンタウン４番地７７,,17,204,9280008,,,,,,,2023-06-05,1,,,,,キラメキウンユ,0
175,1230001019866,新規,0,2023-06-05,2023-06-05,株式会社ＧＧＳインベストメント,,株式会社,富山県,富山市,安養坊１８２番地１１,,16,201,9300881,,,,,,,2023-06-05,1,,,,,ダブルジーエスインベストメント,0
179,1240001061603,新規,0,2023-06-05,2023-06-05,株式会社Ｃｆｉ,,株式会社,広島県,福山市,草戸町２丁目９番１８－２０４号,,34,207,7200831,,,,,,,2023-06-05,1,,,,,シーファイ,0
190,1290001101759,新規,0,2023-06-05,2023-06-05,株式会社ＳＡＩ　ＴＲＡＤＩＮＧ,,株式会社,福岡県,福岡市博多区,上川端町１４－１０グランドサヴォイ４０８,,40,132,8120026,,,,,,,2023-06-05,1,,,,,サイトレーディング,0
192,1290801029571,新規,0,2023-06-05,2023-06-05,株式会社Ｍｕｋｕｎｏエンタープライズ,,株式会社,福岡県,行橋市,南大橋４丁目８番２０号,,40,213,8240032,,,,,,,2023-06-05,1,,,,,ムクノエンタープライズ,0
195,1310001018439,新規,0,2023-06-05,2023-06-05,志方建設株式会社,,株式会社,長崎県,雲仙市,小浜町北本町５９２番地,,42,213,8540514,,,,,,,2023-06-05,1,,,,,シカタケンセツ,0
196,1310001018447,新規,0,2023-06-05,2023-06-05,株式会社長崎百景,,株式会社,長崎県,長崎市,京泊１丁目１６番２４号,,42,201,8512211,,,,,,,2023-06-05,1,,,,,ナガサキヒャッケイ,0
197,1320001019808,新規,0,2023-06-05,2023-06-05,株式会社上野建設工業,,株式会社,大分県,大分市,小佐井２丁目１番２９－１号ガーデンハウスさとＡ棟,,44,201,8700327,,,,,,,2023-06-05,1,,,,,ウエノケンセツコウギョウ,0
199,1330001030904,新規,0,2023-06-05,2023-06-05,株式会社フェニックス,,株式会社,熊本県,荒尾市,増永５３６番地１,,43,204,8640032,,,,,,,2023-06-05,1,,,,,フェニックス,0
200,1330001030929,新規,0,2023-06-05,2023-06-05,株式会社テラナカ,,株式会社,熊本県,上益城郡御船町,大字滝川６４番地,,43,441,8613205,,,,,,,2023-06-05,1,,,,,テラナカ,0
201,1340001025630,新規,0,2023-06-05,2023-06-05,株式会社オフグリッド,,株式会社,鹿児島県,奄美市,名瀬港町１２番１号,,46,222,8940026,,,,,,,2023-06-05,1,,,,,オフグリッド,0
205,1350001018385,新規,0,2023-06-05,2023-06-05,ＩＰＳ株式会社,,株式会社,宮崎県,宮崎市,別府町６番１７号ＫＩＷビル３階,,45,201,8800802,,,,,,,2023-06-05,1,,,,,アイピーエス,0
207,1360001032113,新規,0,2023-06-05,2023-06-05,株式会社Ｆ　Ｒｅｂｏｒｎ,,株式会社,沖縄県,那覇市,真嘉比１丁目１０番８号３３０ＮＩＮ３０１,,47,201,9020068,,,,,,,2023-06-05,1,,,,,エフリボーン,0
208,1360001032121,新規,0,2023-06-05,2023-06-05,株式会社Ｙ’ｓ　Ｆａｃｔｏｒｙ,,株式会社,沖縄県,豊見城市,字豊見城１００４番地１,,47,212,9010241,,,,,,,2023-06-05,1,,,,,ワイズファクトリー,0
211,1360003013020,新規,0,2023-06-05,2023-06-05,合同会社チセデザイン一級建築士事務所,,合同会社,沖縄県,中頭郡嘉手納町,字水釜３６２番地３３,,47,325,9040204,,,,,,,2023-06-05,1,,,,,チセデザインイッキュウケンチクシジムショ,0
216,1370001050031,新規,0,2023-06-05,2023-06-05,大和クリーンケミカル株式会社,,株式会社,宮城県,宮城郡利府町,花園３丁目２４番１５号,,04,406,9810132,,,,,,,2023-06-05,1,,,,,ダイワクリーンケミカル,0
223,1380003005478,新規,0,2023-06-05,2023-06-05,Ｂｏｏｓｔ東北合同会社,,合同会社,福島県,郡山市,安積町日出山２丁目１１番地１,,07,203,9630101,,,,,,,2023-06-05,1,,,,,ブーストトウホク,0
232,1430001089237,新規,0,2023-06-05,2023-06-05,ＳＦＪ株式会社,,株式会社,北海道,札幌市豊平区,美園四条４丁目１－８ピノ・ノワール３０１号室,,01,105,0620004,,,,,,,2023-06-05,1,,,,,エスエフジェー,0
233,1430001089278,新規,0,2023-06-05,2023-06-05,株式会社フェイスフルガイド,,株式会社,北海道,札幌市東区,北三十二条東１丁目４番２３号,,01,103,0650032,,,,,,,2023-06-05,1,,,,,フェイスフルガイド,0
234,1430003015091,新規,0,2023-06-05,2023-06-05,合同会社松本喜一郎商店,,合同会社,北海道,新冠郡新冠町,字西泊津１３番地の７６,,01,604,0592418,,,,,,,2023-06-05,1,,,,,マツモトキイチロウショウテン,0
235,1430003015109,新規,0,2023-06-05,2023-06-05,合同会社千と福,,合同会社,北海道,千歳市,流通３丁目４－１,,01,224,0660019,,,,,,,2023-06-05,1,,,,,セントフク,0
237,1462503000207,新規,0,2023-06-05,2023-06-05,合同会社タナカ,,合同会社,北海道,標津郡標津町,字川北１３２３番地１,,01,693,0861451,,,,,,,2023-06-05,1,,,,,タナカ,0
239,1470001019644,新規,0,2023-06-05,2023-06-05,株式会社ＵＲＩ企画,,株式会社,香川県,丸亀市,金倉町１６２６番地８,,37,202,7630053,,,,,,,2023-06-05,1,,,,,ウリキカク,0
249,1500001024954,新規,0,2023-06-05,2023-06-05,株式会社みなくち,,株式会社,愛媛県,松山市,柳井町３丁目６番１４号,,38,201,7900014,,,,,,,2023-06-05,1,,,,,ミナクチ,0
250,1500001024979,新規,0,2023-06-05,2023-06-05,株式会社ｅｎ‐ｔｈｒｅｅ,,株式会社,愛媛県,松山市,竹原４丁目３番４１号,,38,201,7900053,,,,,,,2023-06-05,1,,,,,エンスリー,0
253,1700150116870,新規,0,2023-06-05,2023-06-05,Ｓｈｉｊｉａｚｈｕａｎｇ　ｊｉａｎｈａｏ　ｍｅｄｉｃａｌ　ｅｑｕｉｐｍｅｎｔ　ｓａｌｅｓ　ｃｏ．Ｌｔｄ．,,外国会社等,,,,,,,,ｆｕｑｉａｎｄｏｎｇｌｕ２７１ｈａｏｓｈｅｎｚｅｘｉａｎ,,,,,,2023-06-05,1,,,,,シジャズゥアンジェンハオメディカルイクイップメントセイルズカンパニーリミテッド,0
254,1700150116879,新規,0,2023-06-05,2023-06-05,Ａｍｅｒｉｃａｎ　Ｅｐｓｉｌｏｎ　Ｉｎｃ．,,外国会社等,,,,,,,,６０２９　Ｐｒｉｍｒｏｓｅ　Ａｖｅ　Ａｐｔ　５　ＴＥＭＰＬＥ　ＣＩＴＹ　ＣＡ　９１７８０　ＵＳ,,,,,,2023-06-05,1,,,,,アメリカンイプシロンインク,0
255,1700150116887,新規,0,2023-06-05,2023-06-05,ｆｕｊｉａｎｓｈｅｎｇ　ｇｕａｎｂｏ　ｗａｎｇｌｕｏｋｅｊｉ　ｙｏｕｘｉａｎｇｏｎｇｓｉ,,外国会社等,,,,,,,,ｆｕｊｉａｎｓｈｅｎｇｑｕａｎｚｈｏｕｓｈｉｆｅｎｇｚｅｑｕｄｏｎｇｈａｉｊｉｅｄａｏｂｉｎｃｈｅｎｇｓｈｅｑｕｘｉａｎｇｂｉｎｊｉｅ１８ｈａｏｄｏｎｇｈａｉｋｕａｊｉｎｇｄｉａｎｓｈａｎｇｓｈｅｎｇｔａｉｑｕａｎ１０ｈａｏｌｏｕ７０７　ｆｕｚｈｏｕｓｈｉ　ｆｕｊｉａｎｓｈｅｎｇ,,,,,,2023-06-05,1,,,,,フジャンショングアンボワンルオケジユウゲンコウシ,0
256,1700150116895,新規,0,2023-06-05,2023-06-05,ｆｕｊｉａｎｓｈｅｎｇ　ｐｕｔｉａｎｓｈｉ　ｊｉａｎｊｉａｙｏｕｐｉｎｍａｏｙｉ　ｙｏｕｘｉａｎｚｅｒｅｎｇｏｎｇｓｉ,,外国会社等,,,,,,,,Ｒｏｏｍ　２０２，Ｎｏ．１，Ｘｉａ　Ｌｉｎ　Ｓｔｒｅｅｔ，Ｘｉａ　Ｈｕａｎｇ　Ｖｉｌｌａｇｅ　Ｎｅｗ　Ｄｉｓｔｒｉｃｔ　Ｐｕｔｉａｎ　Ｃｉｔｙ，Ｆｕｊｉａｎ　Ｐｒｏｖｉｎｃｅ，Ｃｈｅｎｇｘｉａｎｇ　Ｄｉｓｔｒｉｃｔ　Ｃｈｉｎａ,,,,,,2023-06-05,1,,,,,フジェンショウプテェンシジェンジャヨピンマオイユウゲンゼレンコウシ,0
257,1700150116904,新規,0,2023-06-05,2023-06-05,ＸＩＡ　ＭＥＮ　ＣＥＮＭＡＯ　ＩＭＰＯＲＴ　＆　ＥＸＰＯＲＴ　ＣＯ　ＬＴＤ,,外国会社等,,,,,,,,３０１　Ｎｏ．５９　Ｈｕｌｉ　Ａｖｅｎｕｅ　Ｈｕｌｉ　Ｄｉｓｔｒｉｃｔ　Ｘｉａｍｅｎ　Ｆｕｊｉａｎ　ＣＮ,,,,,,2023-06-05,1,,,,,シャメンツェンマオインポートアンドエクスポートカンパニーリシテッド,0
261,2010001235740,新規,0,2023-06-05,2023-06-05,株式会社雑貨社,,株式会社,東京都,千代田区,九段南３丁目７番８号九段ＭＭＩビル４階,,13,101,1020074,,,,,,,2023-06-05,1,,,,,ザッカシャ,0
262,2010001235781,新規,0,2023-06-05,2023-06-05,麻瑞株式会社,,株式会社,東京都,千代田区,九段南１丁目５番６号りそな九段ビル５階ＫＳフロア,,13,101,1020074,,,,,,,2023-06-05,1,,,,,アサミズ,0
263,2010001235848,新規,0,2023-06-05,2023-06-05,ライジーン株式会社,,株式会社,東京都,中央区,銀座１丁目１２－４Ｎ＆Ｅ・ＢＬＤ．７Ｆ,,13,102,1040061,,,,,,,2023-06-05,1,,,,,ライジーン,0
264,2010001235856,新規,0,2023-06-05,2023-06-05,永茂株式会社,,株式会社,東京都,中央区,湊３丁目５番１号ユ・エースビル２階,,13,102,1040043,,,,,,,2023-06-05,1,,,,,ナガシゲ,0
265,2010003040759,新規,0,2023-06-05,2023-06-05,ＡＩＡ東京０５合同会社,,合同会社,東京都,中央区,日本橋２丁目１番１８号,,13,102,1030027,,,,,,,2023-06-05,1,,,,,エーアイエートウキョウゼロゴ,0
282,2010501050540,新規,0,2023-06-05,2023-06-05,億城株式会社,,株式会社,東京都,台東区,今戸２丁目１５番３号,,13,106,1110024,,,,,,,2023-06-05,1,,,,,オクシロ,0
283,2010601063145,新規,0,2023-06-05,2023-06-05,ＤＩＳＯＮ株式会社,,株式会社,東京都,江東区,木場５丁目１番５号メイプルハイム木場Ｂ－１２１,,13,108,1350042,,,,,,,2023-06-05,1,,,,,ダイソン,0
286,2010701044342,新規,0,2023-06-05,2023-06-05,ＣＳファーマシー株式会社,,株式会社,東京都,品川区,南大井６丁目２５番１０号大森ハイツ１Ｆ,,13,109,1400013,,,,,,,2023-06-05,1,,,,,シーエスファーマシー,0
294,2011001154815,新規,0,2023-06-05,2023-06-05,株式会社Ｓｈｅｉｌａ,,株式会社,東京都,渋谷区,渋谷２丁目１番１号,,13,113,1500002,,,,,,,2023-06-05,1,,,,,シェイラ,0
297,2011101103077,新規,0,2023-06-05,2023-06-05,ＴＥＣＥＺＥ　Ｊａｐａｎ株式会社,,株式会社,東京都,新宿区,西新宿３丁目３番地２３号ファミール西新宿１５０７号,,13,104,1600023,,,,,,,2023-06-05,1,,,,,テクイーズジャパン,0
298,2011101103102,新規,0,2023-06-05,2023-06-05,株式会社アローンド,,株式会社,東京都,新宿区,西新宿３丁目３番１３号西新宿水間ビル６階,,13,104,1600023,,,,,,,2023-06-05,1,,,,,アローンド,0
302,2011201024685,新規,0,2023-06-05,2023-06-05,株式会社ＪＡＣＡＲＡＮＤＡ,,株式会社,東京都,中野区,野方１丁目９番６号,,13,114,1650027,,,,,,,2023-06-05,1,,,,,ジャカランダ,0
308,2011501029368,新規,0,2023-06-05,2023-06-05,ダリホ株式会社,,株式会社,東京都,荒川区,東日暮里３丁目２４番１１号,,13,118,1160014,,,,,,,2023-06-05,1,,,,,ダリホ,0
313,2012301013470,新規,0,2023-06-05,2023-06-05,株式会社ゼロワン,,株式会社,東京都,町田市,真光寺３００番地１,,13,209,1940000,,,,,,,2023-06-05,1,,,,,ゼロワン,0
316,2012701017682,新規,0,2023-06-05,2023-06-05,弭間総合デザイン株式会社,,株式会社,東京都,東久留米市,滝山２丁目５番６－３０２,,13,222,2030033,,,,,,,2023-06-05,1,,,,,ハズマソウゴンデザイン,0
317,2012801022401,新規,0,2023-06-05,2023-06-05,七瀬デザイン株式会社,,株式会社,東京都,立川市,曙町３丁目２６番９号－５０４号,,13,202,1900012,,,,,,,2023-06-05,1,,,,,ナナセデザイン,0
322,2020001151821,新規,0,2023-06-05,2023-06-05,株式会社ＪＥＰＬＡＮ　Ｈｏｌｄｉｎｇｓ,,株式会社,神奈川県,川崎市川崎区,扇町１２番２号,,14,131,2100867,,,,,,,2023-06-05,1,,,,,ジェプランホールディングス,0
323,2020001151846,新規,0,2023-06-05,2023-06-05,株式会社クリエイテスト,,株式会社,神奈川県,横浜市西区,北幸１丁目１１番１号水信ビル７階,,14,103,2200004,,,,,,,2023-06-05,1,,,,,クリエイテスト,0
324,2020001151870,新規,0,2023-06-05,2023-06-05,株式会社ＧＮ‐ＥＸＰＲＥＳＳ,,株式会社,神奈川県,横浜市泉区,上飯田町３８９１番１号,,14,116,2450018,,,,,,,2023-06-05,1,,,,,ジーエヌエクスプレス,0
325,2020001151929,新規,0,2023-06-05,2023-06-05,株式会社関内メディカルサポート,,株式会社,神奈川県,横浜市西区,みなとみらい６丁目３番４－２７０８号,,14,103,2200012,,,,,,,2023-06-05,1,,,,,カンナイメディカルサポート,0
333,2021003013159,新規,0,2023-06-05,2023-06-05,ＣＲＯＷＤＥＤＧＥ　ＥＮＴＥＲＰＲＩＳＥＳ　ＪＡＰＡＮ合同会社,,合同会社,神奈川県,相模原市南区,相模台１丁目１４番２０号オリエントファミリア４０３,,14,153,2520321,,,,,,,2023-06-05,1,,,,,クラウドエッジエンタープライゼスジャパン,0
334,2021003013167,新規,0,2023-06-05,2023-06-05,ＰＲＥＳＳ合同会社,,合同会社,神奈川県,相模原市中央区,矢部２丁目１５番１０号,,14,152,2520232,,,,,,,2023-06-05,1,,,,,プレス,0
336,2030001154212,新規,0,2023-06-05,2023-06-05,株式会社オフィスＮＯＺＡ,,株式会社,埼玉県,本庄市,今井７５１番地２,,11,211,3670036,,,,,,,2023-06-05,1,,,,,オフィスノザ,0
341,2040001128636,新規,0,2023-06-05,2023-06-05,株式会社リフィックス,,株式会社,千葉県,市原市,若宮３丁目３番地１４,,12,219,2900006,,,,,,,2023-06-05,1,,,,,リフィックス,0
342,2040003022738,新規,0,2023-06-05,2023-06-05,合同会社Ｙ２Ｃ,,合同会社,千葉県,長生郡一宮町,一宮９３８番地６,,12,421,2994301,,,,,,,2023-06-05,1,,,,,ワイツーシー,0
343,2050001052918,新規,0,2023-06-05,2023-06-05,株式会社ＴＨＥ　ＮＩＫＯＬＥ,,株式会社,茨城県,水戸市,吉沢町３５４番地３０,,08,201,3100845,,,,,,,2023-06-05,1,,,,,ザニコル,0
348,2070003004964,新規,0,2023-06-05,2023-06-05,ＴＳプラン合同会社,,合同会社,群馬県,渋川市,赤城町溝呂木７４１番地,,10,208,3791115,,,,,,,2023-06-05,1,,,,,,0
354,2080001025656,新規,0,2023-06-05,2023-06-05,株式会社丸隆コーポレーション,,株式会社,静岡県,静岡市清水区,吉原１６６２番地,,22,103,4240111,,,,,,,2023-06-05,1,,,,,マルタカコーポレーション,0
356,2080101024038,新規,0,2023-06-05,2023-06-05,株式会社やまゆり,,株式会社,静岡県,富士宮市,杉田４９４番地の２,,22,207,4180021,,,,,,,2023-06-05,1,,,,,ヤマユリ,0
357,2080103002818,新規,0,2023-06-05,2023-06-05,合同会社ＰＡＹＦＯＲＷＡＲＤ,,合同会社,静岡県,伊東市,和田１丁目５－３,,22,208,4140024,,,,,,,2023-06-05,1,,,,,ペイフォワード,0
360,2080401026519,新規,0,2023-06-05,2023-06-05,株式会社Ｃ５．ＬＡＢ,,株式会社,静岡県,湖西市,南台２丁目３番１５号,,22,221,4310429,,,,,,,2023-06-05,1,,,,,シーファイブラボ,0
363,2100001036477,新規,0,2023-06-05,2023-06-05,株式会社ＬＩＦＡＣＴ,,株式会社,長野県,千曲市,大字戸倉３２８番地３,,20,218,3890804,,,,,,,2023-06-05,1,,,,,リファクト,0
366,2110001037581,新規,0,2023-06-05,2023-06-05,株式会社Ｒｕｕ,,株式会社,新潟県,胎内市,西本町１９番３８号,,15,227,9592656,,,,,,,2023-06-05,1,,,,,ルー,0
367,2110003005074,新規,0,2023-06-05,2023-06-05,合同会社モモデザイン,,合同会社,新潟県,長岡市,寺島町３０８番地１１レーベン長岡寺島町Ｖｅｒｔａｌｉｅｒ２０５号室,,15,202,9402101,,,,,,,2023-06-05,1,,,,,モモデザイン,0
376,2120001255356,新規,0,2023-06-05,2023-06-05,株式会社ＮＫトラスト,,株式会社,大阪府,大阪市北区,天満２丁目４－７－１２０１,,27,127,5300043,,,,,,,2023-06-05,1,,,,,エヌケートラスト,0
377,2120001255372,新規,0,2023-06-05,2023-06-05,金粟株式会社,,株式会社,大阪府,大阪市福島区,福島５丁目１４番１４号２階,,27,103,5530003,,,,,,,2023-06-05,1,,,,,コンゾク,0
378,2120001255430,新規,0,2023-06-05,2023-06-05,株式会社Ｅ‐Ｓｔａｒ,,株式会社,大阪府,門真市,石原町３３番２５号,,27,223,5710067,,,,,,,2023-06-05,1,,,,,イースター,0
379,2120001255488,新規,0,2023-06-05,2023-06-05,ＣＦＢ株式会社,,株式会社,大阪府,大阪市中央区,南船場３丁目１－７,,27,128,5420081,,,,,,,2023-06-05,1,,,,,シーエフビー,0
387,2120101067651,新規,0,2023-06-05,2023-06-05,株式会社ＳＧ技建,,株式会社,大阪府,堺市堺区,大浜南町１丁４番１７号,,27,141,5900976,,,,,,,2023-06-05,1,,,,,エスジーギケン,0
398,2130001074425,新規,0,2023-06-05,2023-06-05,Ｊａｐａｎ　ＤＸ京都株式会社,,株式会社,京都府,舞鶴市,字喜多１１０５番１－５０１－Ｂ,,26,202,6240945,,,,,,,2023-06-05,1,,,,,ジャパンディーエックスキョウト,0
399,2130001074441,新規,0,2023-06-05,2023-06-05,株式会社悠愛,,株式会社,京都府,京都市山科区,川田中畑町１４番地２４,,26,110,6078336,,,,,,,2023-06-05,1,,,,,ユウアイ,0
407,2140001130334,新規,0,2023-06-05,2023-06-05,クラッシーＪａｐａｎ株式会社,,株式会社,兵庫県,神戸市中央区,北野町３丁目２－４アニルドマンション１Ｃ,,28,110,6500002,,,,,,,2023-06-05,1,,,,,クラッシージャパン,0
408,2140001130342,新規,0,2023-06-05,2023-06-05,株式会社松島塾,,株式会社,兵庫県,三田市,武庫が丘５丁目１番地Ｋ棟８０２号,,28,219,6691544,,,,,,,2023-06-05,1,,,,,マツシマジュク,0
409,2140001130359,新規,0,2023-06-05,2023-06-05,Ｋｏｂｅ　Ｃｒｅａｔｉｏｎ株式会社,,株式会社,兵庫県,神戸市中央区,花隈町９－２５,,28,110,6500013,,,,,,,2023-06-05,1,,,,,コウベクリエイション,0
413,2140003019170,新規,0,2023-06-05,2023-06-05,合同会社ＳＴＵＤＩＯ１２０,,合同会社,兵庫県,伊丹市,中央１丁目２番地５グランドハイツコーワ２－１４,,28,207,6640851,,,,,,,2023-06-05,1,,,,,スタジオヒャクニジュウ,0
419,2170001017628,新規,0,2023-06-05,2023-06-05,株式会社アシスト,,株式会社,和歌山県,和歌山市,松江北７丁目１０番１２号,,30,201,6408425,,,,,,,2023-06-05,1,,,,,アシスト,0
425,2180001156516,新規,0,2023-06-05,2023-06-05,株式会社ＭＵＳＵＢＩ,,株式会社,愛知県,犬山市,大字犬山字中道４８番地グリーンベル犬山２０１,,23,215,4840081,,,,,,,2023-06-05,1,,,,,ムスビ,0
426,2180001156524,新規,0,2023-06-05,2023-06-05,ＭＹ　ＢＵＳＩＮＥＳＳ株式会社,,株式会社,愛知県,名古屋市中区,錦２丁目１６番地４号,,23,106,4600003,,,,,,,2023-06-05,1,,,,,マイビジネス,0
427,2180001156540,新規,0,2023-06-05,2023-06-05,株式会社ＡＴＥＣ,,株式会社,愛知県,稲沢市,大矢町三條田３４番地３,,23,220,4928412,,,,,,,2023-06-05,1,,,,,エーテック,0
428,2180001156573,新規,0,2023-06-05,2023-06-05,株式会社縁一,,株式会社,愛知県,名古屋市千種区,春岡１丁目１４番２１号,,23,101,4640848,,,,,,,2023-06-05,1,,,,,ヨリイチ,0
433,2180003025289,新規,0,2023-06-05,2023-06-05,合同会社ＵＰ　Ｎｏｒｔｈ,,合同会社,愛知県,名古屋市中村区,名駅４丁目２４番５号第２森ビル４０１,,23,105,4500002,,,,,,,2023-06-05,1,,,,,アップノース,0
434,2180003025306,新規,0,2023-06-05,2023-06-05,合同会社ワイズワン名古屋東,,合同会社,愛知県,名古屋市中区,栄２丁目３番１号名古屋広小路ビルヂング１７階,,23,106,4600008,,,,,,,2023-06-05,1,,,,,ワイズワンナゴヤヒガシ,0
436,2190001030455,新規,0,2023-06-05,2023-06-05,株式会社ＡＳＥＡＮ　ＦＡＲＭ,,株式会社,三重県,度会郡南伊勢町,道方５３５番地,,24,472,5161301,,,,,,,2023-06-05,1,,,,,アセアンファーム,0
442,2230001019865,新規,0,2023-06-05,2023-06-05,株式会社エスピーアイ,,株式会社,富山県,中新川郡上市町,放士ケ瀬新７６番地２３,,16,322,9300379,,,,,,,2023-06-05,1,,,,,エスピーアイ,0
447,2240001061593,新規,0,2023-06-05,2023-06-05,Ｍｉｙａｊｉｍａ　Ｂａｔｈｉｎｇ　Ｐｏｗｄｅｒ株式会社,,株式会社,広島県,廿日市市,宮島口１丁目３番１７号,,34,213,7390411,,,,,,,2023-06-05,1,,,,,ミヤジマベイジングパウダー,0
448,2240001061627,新規,0,2023-06-05,2023-06-05,株式会社ＫＫホワイト,,株式会社,広島県,広島市中区,東白島町１８番２３号,,34,101,7300004,,,,,,,2023-06-05,1,,,,,ケーケーホワイト,0
452,2240003006167,新規,0,2023-06-05,2023-06-05,合同会社ｋａｔａｗａｒａ,,合同会社,広島県,福山市,箕島町５２６８番地２７,,34,207,7210957,,,,,,,2023-06-05,1,,,,,カタワラ,0
460,2260001038004,新規,0,2023-06-05,2023-06-05,株式会社昇源,,株式会社,岡山県,岡山市中区,湊２８８番地４,,33,102,7038266,,,,,,,2023-06-05,1,,,,,ショウゲン,0
461,2260001038012,新規,0,2023-06-05,2023-06-05,株式会社ハクショウブロック,,株式会社,岡山県,倉敷市,連島町西之浦４５６番地３,,33,202,7128001,,,,,,,2023-06-05,1,,,,,ハクショウブロック,0
466,2290001101758,新規,0,2023-06-05,2023-06-05,ＡＩＲＳＨＩＰ株式会社,,株式会社,福岡県,福岡市東区,多の津１丁目４－２－２Ｆ,,40,131,8130034,,,,,,,2023-06-05,1,,,,,エアシップ,0
467,2290001101799,新規,0,2023-06-05,2023-06-05,株式会社ＧＫＤ,,株式会社,福岡県,福岡市城南区,別府２丁目２１番２３号,,40,136,8140104,,,,,,,2023-06-05,1,,,,,ジーケーディ,0
470,2290003013992,新規,0,2023-06-05,2023-06-05,合同会社ＹＭＧ,,合同会社,福岡県,福岡市中央区,大宮１丁目５番２７－１０２号コンフォートベネフィス薬院,,40,133,8100013,,,,,,,2023-06-05,1,,,,,ワイエムジー,0
477,2290803004423,新規,0,2023-06-05,2023-06-05,合同会社ＬＵＭＢＩＮＩ,,合同会社,福岡県,北九州市小倉北区,真鶴２丁目９－６,,40,106,8030844,,,,,,,2023-06-05,1,,,,,ルンビニ,0
478,2310001018438,新規,0,2023-06-05,2023-06-05,株式会社きたじま,,株式会社,長崎県,佐世保市,春日町１７－３,,42,202,8570011,,,,,,,2023-06-05,1,,,,,キタジマ,0
479,2310001018454,新規,0,2023-06-05,2023-06-05,株式会社ＫＥＮＳ,,株式会社,長崎県,佐世保市,針尾西町２８４５番地４,,42,202,8593453,,,,,,,2023-06-05,1,,,,,ケンズ,0
480,2320001019798,新規,0,2023-06-05,2023-06-05,株式会社クローバー,,株式会社,大分県,大分市,府内町１丁目２番１号,,44,201,8700021,,,,,,,2023-06-05,1,,,,,,0
481,2330001030903,新規,0,2023-06-05,2023-06-05,株式会社ＡＫ　Ｌａｂ．,,株式会社,熊本県,熊本市西区,上代９丁目１番５２号,,43,103,8600068,,,,,,,2023-06-05,1,,,,,エーケーラボ,0
486,2340001025621,新規,0,2023-06-05,2023-06-05,株式会社志陽荷役運輸,,株式会社,鹿児島県,志布志市,志布志町帖３９４６番地１５,,46,221,8997102,,,,,,,2023-06-05,1,,,,,シヨウニヤクウンユ,0
489,2340003004144,新規,0,2023-06-05,2023-06-05,合同会社エメ,,合同会社,鹿児島県,鹿児島市,吉野町２８３２番地３,,46,201,8920871,,,,,,,2023-06-05,1,,,,,エメ,0
493,2360001032095,新規,0,2023-06-05,2023-06-05,株式会社ゆんたく,,株式会社,沖縄県,那覇市,銘苅１丁目２番１号１０１,,47,201,9000004,,,,,,,2023-06-05,1,,,,,ユンタク,0
498,2370001050022,新規,0,2023-06-05,2023-06-05,株式会社ワイジング,,株式会社,宮城県,亘理郡亘理町,逢隈十文字字大手２番地１,,04,361,9892303,,,,,,,2023-06-05,1,,,,,ワイジング,0
507,2400001016275,新規,0,2023-06-05,2023-06-05,株式会社柏設備,,株式会社,岩手県,盛岡市,津志田南２丁目４番３４号,,03,201,0200839,,,,,,,2023-06-05,1,,,,,カシワセツビ,0
514,2430001089236,新規,0,2023-06-05,2023-06-05,株式会社ＬＵＣＫ,,株式会社,北海道,札幌市北区,北十八条西４丁目２－３３,,01,102,0010018,,,,,,,2023-06-05,1,,,,,ラック,0
515,2430001089252,新規,0,2023-06-05,2023-06-05,株式会社アンビシャスコーポレーション,,株式会社,北海道,札幌市南区,藤野一条６丁目１０番１８号,,01,106,0612281,,,,,,,2023-06-05,1,,,,,アンビシャスコーポレーション,0
516,2430001089260,新規,0,2023-06-05,2023-06-05,Ｍｏｒｉ　Ｋｕｔｃｈａｎ　Ｄｅｖｅｌｏｐｍｅｎｔ株式会社,,株式会社,北海道,虻田郡倶知安町,北五条西１丁目１番地１２１,,01,400,0440055,,,,,,,2023-06-05,1,,,,,モリクッチャンディベロップメント,0
517,2430001089269,新規,0,2023-06-05,2023-06-05,北雪興業株式会社,,株式会社,北海道,札幌市清田区,北野二条３丁目３番１７号,,01,110,0040862,,,,,,,2023-06-05,1,,,,,ホクセツコウギョウ,0
524,2430003015099,新規,0,2023-06-05,2023-06-05,合同会社エゾフジエステート,,合同会社,北海道,有珠郡壮瞥町,字久保内７５番地,,01,575,0520112,,,,,,,2023-06-05,1,,,,,エゾフジエステート,0
525,2430003015108,新規,0,2023-06-05,2023-06-05,合同会社コネイ・テクニカル,,合同会社,北海道,札幌市北区,新川三条１丁目３番１号,,01,102,0010923,,,,,,,2023-06-05,1,,,,,コネイテクニカル,0
526,2430003015140,新規,0,2023-06-05,2023-06-05,合同会社小さな村づくり応援団,,合同会社,北海道,虻田郡ニセコ町,字ニセコ４８２番地１ペンション塒２０８号,,01,395,0481511,,,,,,,2023-06-05,1,,,,,チイサナムラヅクリオウエンダン,0
527,2430005014727,新規,0,2023-06-05,2023-06-05,一般社団法人ＳＡＰＰＯＲＯ　ＰＬＡＣＥＭＡＫＩＮＧ　ＬＡＢＯ,,その他の設立登記法人,北海道,札幌市中央区,南十一条西１３丁目１番８号,,01,101,0640811,,,,,,,2023-06-05,1,,,,,サッポロプレイスメイキングラボ,0
531,2450001014010,新規,0,2023-06-05,2023-06-05,株式会社ＫＥＮ‐ＴＯＵＲ,,株式会社,北海道,旭川市,一条通１０丁目２０７０番地の１,,01,204,0700031,,,,,,,2023-06-05,1,,,,,ケンツアー,0
534,2462503000206,新規,0,2023-06-05,2023-06-05,合同会社ＹＤＫ,,合同会社,北海道,標津郡中標津町,東一条北１丁目１番地４,,01,692,0861041,,,,,,,2023-06-05,1,,,,,ワイディケー,0
535,2470001019643,新規,0,2023-06-05,2023-06-05,株式会社ｒｔｎ,,株式会社,香川県,高松市,北浜町１３番２８号,,37,201,7600031,,,,,,,2023-06-05,1,,,,,アールティーエヌ,0
538,2480001012110,新規,0,2023-06-05,2023-06-05,株式会社アイグリーン,,株式会社,徳島県,徳島市,不動北町２丁目２２４３番地の３,,36,201,7700061,,,,,,,2023-06-05,1,,,,,アイグリーン,0
540,2490001010492,新規,0,2023-06-05,2023-06-05,株式会社ＭＡ,,株式会社,高知県,高知市,帯屋町１丁目３－１２ケントビル２階,,39,201,7800841,,,,,,,2023-06-05,1,,,,,エムエー,0
542,2500001024961,新規,0,2023-06-05,2023-06-05,株式会社恭栄水産,,株式会社,愛媛県,宇和島市,津島町北灘丙２８番地,,38,203,7983363,,,,,,,2023-06-05,1,,,,,キョウエイスイサン,0
543,2500001024978,新規,0,2023-06-05,2023-06-05,株式会社伴奏,,株式会社,愛媛県,松山市,和泉北１丁目１７番１３号,,38,201,7900038,,,,,,,2023-06-05,1,,,,,バンソウ,0
544,2500001024986,新規,0,2023-06-05,2023-06-05,株式会社ＮＵ,,株式会社,愛媛県,松山市,土手内１２－１ＥＫＩＮＯＮＥＫＩ,,38,201,7992432,,,,,,,2023-06-05,1,,,,,,0
548,2700150116878,新規,0,2023-06-05,2023-06-05,ｓｈｅｎｚｈｅｎｓｈｉ　ｄｕｏｌａｎｋｅｊｉ　ｙｏｕｘｉａｎｇｏｎｇｓｉ,,外国会社等,,,,,,,,Ｓｈｅｎｚｈｅｎ，Ｌｏｎｇｈｕａ　Ｄｉｓｔｒｉｃｔ，Ｌｏｎｇｈｕａ　Ｓｔｒｅｅｔ　Ｆｕｋａｎｇ　Ｃｏｍｍｕｎｉｔ　Ｆｕｋａｎｇ　Ｃｏｍｍｅｒｃｉａｌ　Ｐｌａｚａ，２／Ｆ　ｓｈｅｎｚｈｅｎ　ｇｕａｎｇｄｏｎｇ,,,,,,2023-06-05,1,,,,,シンセンシドォウランケジユウゲンコウシ,0
549,2700150116886,新規,0,2023-06-05,2023-06-05,ｄｏｎｇｇｕａｎｓｈｉ　ｈｅｎｇｎｅｎｇｄｉａｎｚｉｋｅｊｉ　ｙｏｕｘｉａｎｇｏｎｇｓｉ,,外国会社等,,,,,,,,Ｘｉｅｇａｎｇｚｈｅｎ　Ｘｉｅｇａｎｇｃｕｎ　Ｊｉｎｃｈｕａｎｇｏｎｇｙｅｑｕ　Ｊｉｎｍｉｎｇｌｕ　Ｂｅｉｄｅｙｉｃｈａｎｙｅｙｕａｎ　Ｄ　Ｄｏｎｇ　４　Ｌｏｕ　ＤＯＮＧＧＵＡＮ　ＧＵＡＮＧＤＯＮＧ,,,,,,2023-06-05,1,,,,,ドングゥアンシヘンネンデンシケジユウゲンコウシ,0
550,2700150116894,新規,0,2023-06-05,2023-06-05,Ｓｈｅｎｚｈｅｎ　Ｂａｏｌｉｃｈｕａｎｇ　Ｔｒａｄｉｎｇ　Ｃｏ．，Ｌｔｄ．,,外国会社等,,,,,,,,Ｌｏｎｇｈｕａ，Ｄａｌａｎｇ，Ｔａｏｙｕａｎ　Ｃｏｍｍｕｎｉｔｙ　Ｙｕａｎｆｅｎ　Ｉｎｄｕｓｔｒｉａｌ　Ｚｏｎｅ　Ｂｕｉｌｄｉｎｇ　Ｆ，５０１　Ｓｈｅｎｚｈｅｎ　Ｇｕａｎｇｄｏｎｇ　ＣＮ,,,,,,2023-06-05,1,,,,,シェンゼェンバオリチユアントレーディングカンパニーリシテッド,0
551,2700150116903,新規,0,2023-06-05,2023-06-05,ｄｏｎｇ　ｇｕａｎ　ｓｈｉ　ｈｅｎｇ　ｊｉａｎ　ｍａｏ　ｙｉ　ｙｏｕ　ｘｉａｎ　ｇｏｎｇ　ｓｉ,,外国会社等,,,,,,,,ｃｈａｎｇ　ｐｉｎｇ　ｚｈｅｎ　ｘｉａ　ｃｕｎ　ｚｈｅｎ　ｘｉ　ｙｉ　ｘｉａｎｇ　３　ｈａｏ，Ｄｏｎｇｇｕａｎ，Ｇｕａｎｇｄｏｎｇ，ＣＮ,,,,,,2023-06-05,1,,,,,ドングアンシヘンジャンマオイユウゲンコウシ,0
552,2700150116928,新規,0,2023-06-05,2023-06-05,中井町諏訪地区土地改良区,,その他,神奈川県,足柄上郡中井町,井ノ口２４４２番地１９,,14,361,2590151,,,,,,,2023-06-05,1,,,,,ナカイマチスワチクトチカイリョウク,0
558,3010001235905,新規,0,2023-06-05,2023-06-05,株式会社ニッテクデバイス,,株式会社,東京都,中央区,日本橋兜町１０－４,,13,102,1030026,,,,,,,2023-06-05,1,,,,,ニッテクデバイス,0
561,3010003040758,新規,0,2023-06-05,2023-06-05,ＡＩＡ東京０６合同会社,,合同会社,東京都,中央区,日本橋２丁目１番１８号,,13,102,1030027,,,,,,,2023-06-05,1,,,,,エーアイエートウキョウゼロロク,0
563,3010005036770,新規,0,2023-06-05,2023-06-05,一般社団法人ＡＬＪ　Ｈｅａｌｔｈｃａｒｅ４,,その他の設立登記法人,東京都,中央区,日本橋１丁目４番１号,,13,102,1030027,,,,,,,2023-06-05,1,,,,,エーエルジェイヘルスケアフォー,0
573,3010401174769,新規,0,2023-06-05,2023-06-05,株式会社Ｂｅａｕｔｉｌｉｔｙ,,株式会社,東京都,港区,高輪１丁目２３番２３号,,13,103,1080074,,,,,,,2023-06-05,1,,,,,ビューティリティ,0
579,3010405022164,新規,0,2023-06-05,2023-06-05,一般社団法人災害総合健康管理研究所,,その他の設立登記法人,東京都,港区,高輪２丁目１２番１３号,,13,103,1080074,,,,,,,2023-06-05,1,,,,,サイガイソウゴウケンコウカンリケンキュウショ,0
580,3010405022206,新規,0,2023-06-05,2023-06-05,ＭＭインベストメンツ２一般社団法人,,その他の設立登記法人,東京都,港区,六本木１丁目６番１号泉ガーデンタワー,,13,103,1060032,,,,,,,2023-06-05,1,,,,,エムエムインベストメンツツー,0
582,3010601063169,新規,0,2023-06-05,2023-06-05,ＤＩＧＩＴＡＬ　ＨＯＲＩＺＯＮ　ＩＮＶＥＳＴＭＥＮＴＳ　ＪＡＰＡＮ株式会社,,株式会社,東京都,江東区,有明２丁目１－２シティタワーズ東京ベイセントラルタワー２３１３号,,13,108,1350063,,,,,,,2023-06-05,1,,,,,デジタルホライゾンインベストメントジャパン,0
588,3010701044333,新規,0,2023-06-05,2023-06-05,危機管理対策推進機構株式会社,,株式会社,東京都,品川区,勝島１丁目３番３－３１０号,,13,109,1400012,,,,,,,2023-06-05,1,,,,,キキカンリタイサクスイシンキコウ,0
589,3010703006703,新規,0,2023-06-05,2023-06-05,合同会社ジャパントレードワン,,合同会社,東京都,品川区,平塚１丁目１８番１１号ニューシティアパートメンツ戸越７０３,,13,109,1420051,,,,,,,2023-06-05,1,,,,,ジャパントレードワン,0
595,3010901053159,新規,0,2023-06-05,2023-06-05,モンアペリーレ株式会社,,株式会社,東京都,世田谷区,弦巻５丁目３６番７－６０５号,,13,112,1540016,,,,,,,2023-06-05,1,,,,,モンアペリーレ,0
596,3010903008210,新規,0,2023-06-05,2023-06-05,合同会社Ｃｏｒｅ１,,合同会社,東京都,世田谷区,野沢３丁目２６－１２グレイス野沢２０２,,13,112,1540003,,,,,,,2023-06-05,1,,,,,コアワン,0
601,3011001154822,新規,0,2023-06-05,2023-06-05,ＺＥｔＯ株式会社,,株式会社,東京都,渋谷区,渋谷２丁目１番１号,,13,113,1500002,,,,,,,2023-06-05,1,,,,,ジート,0
606,3011101103118,新規,0,2023-06-05,2023-06-05,豐＿株式会社,00130706,株式会社,東京都,新宿区,榎町３４－３榎町ビル７階－２０室,,13,104,1620806,,,,,,,2023-06-05,1,,,,,トヨギョク,0
607,3011101103126,新規,0,2023-06-05,2023-06-05,株式会社ＥＲ,,株式会社,東京都,新宿区,西新宿３丁目３番１３号西新宿水間ビル６階,,13,104,1600023,,,,,,,2023-06-05,1,,,,,イーアール,0
624,3011603003939,新規,0,2023-06-05,2023-06-05,合同会社楽聖堂,,合同会社,東京都,練馬区,練馬１丁目２０番８号日建練馬ビル２Ｆ,,13,120,1760001,,,,,,,2023-06-05,1,,,,,ガクセイドウ,0
626,3012701017681,新規,0,2023-06-05,2023-06-05,株式会社ダイム,,株式会社,東京都,西東京市,田無町２丁目１３番１１－８０２号,,13,229,1880011,,,,,,,2023-06-05,1,,,,,ダイム,0
628,3012801022391,新規,0,2023-06-05,2023-06-05,株式会社和林電設,,株式会社,東京都,東大和市,新堀２丁目１４５３番地の９９,,13,220,2070012,,,,,,,2023-06-05,1,,,,,ワバヤシデンセツ,0
629,3013101009187,新規,0,2023-06-05,2023-06-05,株式会社モクス工房,,株式会社,東京都,あきる野市,小和田１５番地１０,,13,228,1900151,,,,,,,2023-06-05,1,,,,,モクスコウボウ,0
631,3020001151894,新規,0,2023-06-05,2023-06-05,株式会社キャンバス,,株式会社,神奈川県,川崎市中原区,宮内２丁目３２番１８－２号,,14,133,2110051,,,,,,,2023-06-05,1,,,,,キャンバス,0
632,3020001151903,新規,0,2023-06-05,2023-06-05,株式会社木葉,,株式会社,神奈川県,横浜市鶴見区,馬場３丁目１９番４号,,14,101,2300076,,,,,,,2023-06-05,1,,,,,コノハ,0
633,3020001151928,新規,0,2023-06-05,2023-06-05,ＴＫ車体株式会社,,株式会社,神奈川県,川崎市中原区,下小田中３丁目２３番１２号,,14,133,2110041,,,,,,,2023-06-05,1,,,,,,0
642,3030001154194,新規,0,2023-06-05,2023-06-05,株式会社光亜不動産,,株式会社,埼玉県,所沢市,北中２丁目３４６番地の１２,,11,208,3591101,,,,,,,2023-06-05,1,,,,,コウアフドウサン,0
648,3040001128643,新規,0,2023-06-05,2023-06-05,株式会社ミヤテック,,株式会社,千葉県,市原市,君塚５丁目５番地１１,,12,219,2900051,,,,,,,2023-06-05,1,,,,,ミヤテック,0
649,3040003022456,新規,0,2023-06-05,2023-06-05,合同会社リリーフクリーン,,合同会社,千葉県,茂原市,柴名２５２番地４,,12,210,2994126,,,,,,,2023-06-05,1,,,,,リリーフクリーン,0
654,3050003007547,新規,0,2023-06-05,2023-06-05,合同会社ＭＯＧＬＯ,,合同会社,茨城県,つくば市,学園南２丁目４番地３レーベン研究学園ＮＥＸＩＯ１４１４号,,08,220,3050818,,,,,,,2023-06-05,1,,,,,モグロ,0
656,3060005010102,新規,0,2023-06-05,2023-06-05,一般社団法人鬼怒川カントリークラブ,,その他の設立登記法人,栃木県,日光市,栗原字十三塚３４３番地１３,,09,206,3212421,,,,,,,2023-06-05,1,,,,,キヌガワカントリークラブ,0
662,3080003002990,新規,0,2023-06-05,2023-06-05,合同会社ＪＯＹ,,合同会社,静岡県,静岡市駿河区,丸子新田４３３－１,,22,102,4210111,,,,,,,2023-06-05,1,,,,,ジョイ,0
667,3080401026518,新規,0,2023-06-05,2023-06-05,株式会社かりん不動産サポート,,株式会社,静岡県,磐田市,三ケ野台２９番地４,,22,211,4380018,,,,,,,2023-06-05,1,,,,,カリンフドウサンサポート,0
672,3110001037580,新規,0,2023-06-05,2023-06-05,株式会社東不動産,,株式会社,新潟県,上越市,大和２丁目８番３号,,15,222,9430861,,,,,,,2023-06-05,1,,,,,アズマフドウサン,0
676,3110003005073,新規,0,2023-06-05,2023-06-05,ワークシフト合同会社,,合同会社,新潟県,長岡市,渡里町２番地７,,15,202,9400075,,,,,,,2023-06-05,1,,,,,ワークシフト,0
683,3120001255371,新規,0,2023-06-05,2023-06-05,坤道株式会社,,株式会社,大阪府,大阪市福島区,福島５丁目１４番１４号２階,,27,103,5530003,,,,,,,2023-06-05,1,,,,,コンドウ,0
684,3120001255396,新規,0,2023-06-05,2023-06-05,株式会社ナインワン,,株式会社,大阪府,大阪市淀川区,十三東３丁目１３番６号,,27,123,5320023,,,,,,,2023-06-05,1,,,,,ナインワン,0
685,3120003024213,新規,0,2023-06-05,2023-06-05,合同会社ＣＯＬＯＵＲＳ,,合同会社,大阪府,寝屋川市,美井元町１１－１８,,27,215,5720006,,,,,,,2023-06-05,1,,,,,カラーズ,0
686,3120103005253,新規,0,2023-06-05,2023-06-05,五島化成大阪合同会社,,合同会社,大阪府,泉佐野市,日根野１９０３番地の１,,27,213,5980021,,,,,,,2023-06-05,1,,,,,ゴトウカセイオオサカ,0
698,3130001074424,新規,0,2023-06-05,2023-06-05,シンシア株式会社,,株式会社,京都府,京田辺市,水取東光明谷３番地,,26,211,6100323,,,,,,,2023-06-05,1,,,,,シンシア,0
699,3130001074449,新規,0,2023-06-05,2023-06-05,株式会社翔成建設,,株式会社,京都府,京都市下京区,西七条八幡町９番地メゾン前田３０３,,26,106,6008888,,,,,,,2023-06-05,1,,,,,ショウセイケンセツ,0
705,3140001130358,新規,0,2023-06-05,2023-06-05,株式会社神和メンテ,,株式会社,兵庫県,神戸市灘区,大石東町４丁目７番６号１２,,28,102,6570043,,,,,,,2023-06-05,1,,,,,シンワメンテ,0
709,3160001025085,新規,0,2023-06-05,2023-06-05,株式会社元興業,,株式会社,滋賀県,湖南市,石部南６丁目９番１２号,,25,211,5203108,,,,,,,2023-06-05,1,,,,,ハジメコウギョウ,0
712,3170001017635,新規,0,2023-06-05,2023-06-05,株式会社アップルツリー,,株式会社,和歌山県,和歌山市,園部５９６番地１７９,,30,201,6408483,,,,,,,2023-06-05,1,,,,,アップルツリー,0
716,3180001156564,新規,0,2023-06-05,2023-06-05,株式会社ＹＳサポート,,株式会社,愛知県,尾張旭市,三郷町陶栄３０セレブビル１階,,23,226,4880016,,,,,,,2023-06-05,1,,,,,ワイエスサポート,0
717,3180001156572,新規,0,2023-06-05,2023-06-05,株式会社ｔａｎ,,株式会社,愛知県,北名古屋市,鹿田東海１５５番地３,,23,234,4810004,,,,,,,2023-06-05,1,,,,,タン,0
718,3180001156589,新規,0,2023-06-05,2023-06-05,株式会社あらや識,,株式会社,愛知県,名古屋市守山区,大森３丁目６０９番地１,,23,113,4630021,,,,,,,2023-06-05,1,,,,,アラヤシキ,0
727,3180003025296,新規,0,2023-06-05,2023-06-05,合同会社ＫＯＲＩＮ,,合同会社,愛知県,名古屋市中区,橘１丁目４番１８号７０２号,,23,106,4600016,,,,,,,2023-06-05,1,,,,,コーリン,0
735,3220003003520,新規,0,2023-06-05,2023-06-05,合同会社インフルエンサー協会ＪＡＰＡＮ,,合同会社,石川県,能美市,三道山町ニ１８番地,,17,211,9231124,,,,,,,2023-06-05,1,,,,,インフルエンサーキョウカイジャパン,0
737,3230001019864,新規,0,2023-06-05,2023-06-05,前原電機株式会社,,株式会社,富山県,高岡市,下伏間江６９番地２,,16,202,9330813,,,,,,,2023-06-05,1,,,,,マエハラデンキ,0
742,3240001061618,新規,0,2023-06-05,2023-06-05,ワイ・コネクト株式会社,,株式会社,広島県,広島市西区,南観音２丁目４番４５号Ｋ－３ビル１０５号室,,34,104,7330035,,,,,,,2023-06-05,1,,,,,ワイコネクト,0
743,3240001061626,新規,0,2023-06-05,2023-06-05,株式会社プログレス,,株式会社,広島県,広島市中区,本川町１丁目１番２１－５０１号,,34,101,7300802,,,,,,,2023-06-05,1,,,,,プログレス,0
748,3250005008829,新規,0,2023-06-05,2023-06-05,協同組合生活サポートセンター,,その他の設立登記法人,山口県,下松市,栄町２丁目２番１０号,,35,207,7440013,,,,,,,2023-06-05,1,,,,,セイカツサポートセンター,0
749,3260001037995,新規,0,2023-06-05,2023-06-05,株式会社富建興業,,株式会社,岡山県,新見市,石蟹３４番地１,,33,210,7180015,,,,,,,2023-06-05,1,,,,,トミケンコウギョウ,0
750,3260001038003,新規,0,2023-06-05,2023-06-05,株式会社Ｔｓｕｎａｇｕ,,株式会社,岡山県,岡山市南区,浦安本町６５番地,,33,104,7028026,,,,,,,2023-06-05,1,,,,,ツナグ,0
754,3280001008953,新規,0,2023-06-05,2023-06-05,株式会社未来之,,株式会社,島根県,邑智郡美郷町,粕渕４２０,,32,448,6994621,,,,,,,2023-06-05,1,,,,,ミライノ,0
755,3280005007555,新規,0,2023-06-05,2023-06-05,司法書士法人本藤・坂根事務所,,その他の設立登記法人,島根県,江津市,敬川町１７４６番地１,,32,207,6993162,,,,,,,2023-06-05,1,,,,,ホンドウサカネジムショ,0
761,3290001101781,新規,0,2023-06-05,2023-06-05,株式会社アイ・ルクール,,株式会社,福岡県,那珂川市,中原６丁目１０番８号,,40,231,8111213,,,,,,,2023-06-05,1,,,,,アイルクール,0
762,3290001101798,新規,0,2023-06-05,2023-06-05,東亜緑化株式会社,,株式会社,福岡県,福岡市早良区,重留７丁目１番２１号,,40,137,8111101,,,,,,,2023-06-05,1,,,,,トウアリョッカ,0
765,3290003013975,新規,0,2023-06-05,2023-06-05,合同会社ＫＥＧＯ４,,合同会社,福岡県,福岡市中央区,大名１丁目４番３０－１３０１号ダイアパレスグランテージ大名,,40,133,8100041,,,,,,,2023-06-05,1,,,,,ケゴフォー,0
768,3310001018445,新規,0,2023-06-05,2023-06-05,株式会社林田青果,,株式会社,長崎県,諫早市,飯盛町上原６１番地３,,42,204,8541104,,,,,,,2023-06-05,1,,,,,ハヤシダセイカ,0
769,3310001018453,新規,0,2023-06-05,2023-06-05,株式会社ヱン,,株式会社,長崎県,諫早市,松里町７３４番地,,42,204,8540126,,,,,,,2023-06-05,1,,,,,エン,0
771,3310003004583,新規,0,2023-06-05,2023-06-05,日向合同会社,,合同会社,長崎県,諫早市,多良見町中里３０２番地,,42,204,8590405,,,,,,,2023-06-05,1,,,,,ヒナタ,0
773,3320001019806,新規,0,2023-06-05,2023-06-05,株式会社ＴＴフードシステム,,株式会社,大分県,大分市,住吉町２丁目１０１２番１コールコート２・５０１,,44,201,8700032,,,,,,,2023-06-05,1,,,,,ティーティーフードシステム,0
774,3320003004095,新規,0,2023-06-05,2023-06-05,合同会社リゾート,,合同会社,大分県,大分市,明野北５丁目２番１５－２０５号ロイヤルガーデン明野Ａ,,44,201,8700165,,,,,,,2023-06-05,1,,,,,リゾート,0
776,3330001030893,新規,0,2023-06-05,2023-06-05,恩嘉系統株式会社,,株式会社,熊本県,熊本市東区,長嶺南３丁目２１５６－２５０,,43,102,8618039,,,,,,,2023-06-05,1,,,,,オンカケイトウ,0
780,3350001018383,新規,0,2023-06-05,2023-06-05,株式会社西都産業,,株式会社,宮崎県,西都市,大字右松３１７１番地１,,45,208,8810003,,,,,,,2023-06-05,1,,,,,サイトサンギョウ,0
787,3360003013019,新規,0,2023-06-05,2023-06-05,合同会社Ｃｏｍｐａｓｓ　Ｌｉｎｋ,,合同会社,沖縄県,豊見城市,字饒波１１１６番地１,,47,212,9010211,,,,,,,2023-06-05,1,,,,,コンパスリンク,0
789,3370001050038,新規,0,2023-06-05,2023-06-05,株式会社土屋建装,,株式会社,宮城県,仙台市若林区,上飯田１丁目２０番２６号,,04,103,9840838,,,,,,,2023-06-05,1,,,,,ツチヤケンソウ,0
791,3370003006161,新規,0,2023-06-05,2023-06-05,合同会社デジタルトレード,,合同会社,宮城県,仙台市青葉区,国見５丁目１１番１３号,,04,101,9810943,,,,,,,2023-06-05,1,,,,,デジタルトレード,0
799,3400001016274,新規,0,2023-06-05,2023-06-05,ホップステップ・パブリックサービス株式会社,,株式会社,岩手県,盛岡市,八幡町３番８号,,03,201,0200872,,,,,,,2023-06-05,1,,,,,ホップステップパブリックサービス,0
809,3430001089235,新規,0,2023-06-05,2023-06-05,株式会社ＡＮＣＩＥＮＴ,,株式会社,北海道,札幌市中央区,南十二条西１０丁目１－１８グッドビル１Ｆ,,01,101,0640912,,,,,,,2023-06-05,1,,,,,エンシェント,0
813,3430003015115,新規,0,2023-06-05,2023-06-05,合同会社Ｈｉ　Ｊａｐａｎ,,合同会社,北海道,札幌市中央区,南一条西８丁目１４番３号札幌第２スカイビル７階Ｃ号,,01,101,0600061,,,,,,,2023-06-05,1,,,,,ハイジャパン,0
814,3450003002342,新規,0,2023-06-05,2023-06-05,ＭＩＮＡＴＯ　ＡＬＬＩＡＮＣＥ合同会社,,合同会社,北海道,稚内市,栄１丁目２９番６号ハイツおしゃれ館２０１号,,01,214,0970017,,,,,,,2023-06-05,1,,,,,ミナトアライアンス,0
821,3500001024960,新規,0,2023-06-05,2023-06-05,株式会社村上農園,,株式会社,愛媛県,八幡浜市,向灘２６７３番地１４,,38,204,7960001,,,,,,,2023-06-05,1,,,,,ムラカミノウエン,0
822,3500001024969,新規,0,2023-06-05,2023-06-05,株式会社Ｆａｔｅ　ｋｉｔｃｈｅｎ,,株式会社,愛媛県,松山市,空港通２丁目１６番１２号,,38,201,7900054,,,,,,,2023-06-05,1,,,,,フェイトキッチン,0
823,3500001024977,新規,0,2023-06-05,2023-06-05,宮岡緑地株式会社,,株式会社,愛媛県,喜多郡内子町,城廻２８０１番地５,,38,422,7913310,,,,,,,2023-06-05,1,,,,,ミヤオカリョクチ,0
824,3500005008613,新規,0,2023-06-05,2023-06-05,一般社団法人愛媛県ラグビーフットボール協会,,その他の設立登記法人,愛媛県,松山市,姫原２丁目３番２１号,,38,201,7918012,,,,,,,2023-06-05,1,,,,,エヒメケンラグビーフットボールキョウカイ,0
826,3700150116869,新規,0,2023-06-05,2023-06-05,Ｎｉｎｇｂｏ　ｑｉｍａｏ　ｗａｎｇｌｕｏｋｅｊｉ　ｙｏｕｘｉａｎｇｏｎｇｓｉ,,外国会社等,,,,,,,,Ｚｈｅｊｉａｎｇｓｈｅｎｇ　Ｎｉｎｇｂｏｓｈｉ　Ｊｉａｎｇｂｅｉｑｕ　ｃｈａｎｇｘｉｎｇｌｕ　７１５ｈａｏ　４－１－９,,,,,,2023-06-05,1,,,,,ニンボチマオワンルオケジユウゲンコウシ,0
827,3700150116877,新規,0,2023-06-05,2023-06-05,ＳＨＥＮＺＨＥＮ　ＳＡ　ＬＵＮ　ＫＥ　ＪＩ　ＹＯＵ　ＸＩＡＮ　ＧＯＮＧ　ＳＩ,,外国会社等,,,,,,,,ＧｕａｎｇＤｏｎｇＳｈｅｎｚｈｅｎｌｏｎｇｃｈｅｎｇｊｉｅｄａｏｌｏｎｇｇａｎｇｚｈｏｎｇｘｉｎｃｈｅｎｇｚｈｉｌｉａｎｊｉａｄａｓｈａ１２０１,,,,,,2023-06-05,1,,,,,シンセンサルンケジユウゲンコウシ,0
828,3700150116885,新規,0,2023-06-05,2023-06-05,ｈｅｎａｎ　ｓｅｎｘｉｎｘｉｎｘｉｋｅｊｉ　ｙｏｕｘｉａｎｇｏｎｇｓｉ,,外国会社等,,,,,,,,ｙａｎｇｓｈａｎｘｉｎｑｕｔｉｅｄｏｎｇａｎｚｈｉｘｉａｏｑｕ２ｈａｏｌｏｕ１０２ｓｈａｎｇｐｕ　ｘｉｎｙａｎｇｓｈｉ　ｈｅｎａｎｓｈｅｎｇ　Ｃｈｉｎａ,,,,,,2023-06-05,1,,,,,ヘナンセンシンシンシケジユウゲンコウシ,0
829,3700150116893,新規,0,2023-06-05,2023-06-05,ｓｈｅｎｚｈｅｎｓｈｉ　ｈｏｎｇｋｕｎｄｉａｎｚｉｓｈａｎｇｗｕ　ｙｏｕｘｉａｎｇｏｎｇｓｉ,,外国会社等,,,,,,,,ｓｈｅｎｚｈｅｎ　ｌｏｎｇｈｕａｑｕ　ｌｏｎｇｈｕａｊｉｅｄａｏ　ｙｕｃｕｉｓｈｅｑｕ　ｊｉａｎｈｕｉｌｕ　ｂｉｎｘｉａｎｇｈｕａｇｏｎｇｙｅｙｕａｎ　２ｈａｏｌｏｕ３ｃｅｎｇ,,,,,,2023-06-05,1,,,,,シンセンシホンクンデンシシャンウユウゲンコウシ,0
830,3700150116902,新規,0,2023-06-05,2023-06-05,ｈａｎｇｚｈｏｕ　ｙｕｎｚｈｏｎｇｙｕ　ｗａｎｇｌｕｏｋｅｊｉ　ｙｏｕｘｉａｎｇｏｎｇｓｉ,,外国会社等,,,,,,,,ＺｈｅＪｉａｎｇＳｈｅｎｇ　ＨａｎｇＺｈｏｕＳｈｉ　ＢｉｎＪｉａｎｇＱｕ　ＣｈａｎｇｅＨｅＪｉｅＤａｏ　ＱｉｕＹｉＬｕ　６０１Ｈａｏ　１ＨａｏＬｏｕ　３Ｌｏｕ　３０６Ｓｈｉ－１,,,,,,2023-06-05,1,,,,,ハンヂョウユンヂョンユワンルオケジユウゲンコウシ,0
831,3700150116927,新規,0,2023-06-05,2023-06-05,秦野中井インターチェンジ南土地区画整理組合,,その他,神奈川県,足柄上郡中井町,井ノ口２４４２番地１９,,14,361,2590151,,,,,,,2023-06-05,1,,,,,ハダノナカイインターチェンジミナミトチクカクセイリクミアイ,0
835,4010001235870,新規,0,2023-06-05,2023-06-05,株式会社ｐｈａｒｍａｋｅ,,株式会社,東京都,千代田区,有楽町１丁目１－２日比谷三井タワー１２階,,13,101,1000006,,,,,,,2023-06-05,1,,,,,ファルメイク,0
841,4010003040757,新規,0,2023-06-05,2023-06-05,ＡＩＡ東京０７合同会社,,合同会社,東京都,中央区,日本橋２丁目１番１８号,,13,102,1030027,,,,,,,2023-06-05,1,,,,,エーアイエートウキョウゼロナナ,0
842,4010003040773,新規,0,2023-06-05,2023-06-05,合同会社Ｎａｒｒａｔｉｖｅ　Ｉｍｐｌ,,合同会社,東京都,中央区,銀座１丁目２２番１１号銀座大竹ビジデンス２Ｆ,,13,102,1040061,,,,,,,2023-06-05,1,,,,,ナラティラブインプリ,0
844,4010005036778,新規,0,2023-06-05,2023-06-05,一般社団法人医療・介護・福祉人材マネジメント総研,,その他の設立登記法人,東京都,中央区,日本橋室町１丁目１１番１２号日本橋水野ビル７階,,13,102,1030022,,,,,,,2023-06-05,1,,,,,イリョウカイゴフクシジンザイマネジメントソウケン,0
852,4010401174751,新規,0,2023-06-05,2023-06-05,株式会社ＨＵＧ,,株式会社,東京都,港区,赤坂５丁目３番１号,,13,103,1070052,,,,,,,2023-06-05,1,,,,,ハグ,0
853,4010401174776,新規,0,2023-06-05,2023-06-05,株式会社平野屋,,株式会社,東京都,港区,西麻布３丁目１７番９号１階,,13,103,1060031,,,,,,,2023-06-05,1,,,,,ヒラノヤ,0
855,4010403030201,新規,0,2023-06-05,2023-06-05,Ｇａｌ　Ｓｙｓｔｅｍｓ合同会社,,合同会社,東京都,港区,六本木５丁目１６－５０六本木デュープレックスエムズ３Ｆ,,13,103,1060032,,,,,,,2023-06-05,1,,,,,ガルシステムズ,0
858,4010405022163,新規,0,2023-06-05,2023-06-05,一般社団法人日本近代礼法,,その他の設立登記法人,東京都,港区,白金台１丁目１番１６号７Ｆ,,13,103,1080071,,,,,,,2023-06-05,1,,,,,ニホンキンダイレイホウ,0
859,4010405022188,新規,0,2023-06-05,2023-06-05,一般社団法人メディカ,,その他の設立登記法人,東京都,港区,北青山３丁目１１番７号ＡＯビル３階,,13,103,1070061,,,,,,,2023-06-05,1,,,,,メディカ,0
860,4010405022205,新規,0,2023-06-05,2023-06-05,ＭＭインベストメンツ１一般社団法人,,その他の設立登記法人,東京都,港区,六本木１丁目６番１号泉ガーデンタワー,,13,103,1060032,,,,,,,2023-06-05,1,,,,,エムエムインベストメンツワン,0
864,4010603010184,新規,0,2023-06-05,2023-06-05,合同会社Ａｓａｈｉ,,合同会社,東京都,墨田区,江東橋３丁目８番１０号５階,,13,107,1300022,,,,,,,2023-06-05,1,,,,,アサヒ,0
866,4010701044349,新規,0,2023-06-05,2023-06-05,Ｉｔｏ＆Ｃｏ．株式会社,,株式会社,東京都,品川区,上大崎３丁目３番４号,,13,109,1410021,,,,,,,2023-06-05,1,,,,,イトアンドカンパニー,0
867,4010701044357,新規,0,2023-06-05,2023-06-05,ＬＩＮＥ　ＮＥＸＴ　Ｈｏｌｄｉｎｇｓ株式会社,,株式会社,東京都,品川区,西品川１丁目１番１号,,13,109,1410033,,,,,,,2023-06-05,1,,,,,ラインネクストホールディングス,0
876,4010901053166,新規,0,2023-06-05,2023-06-05,ＳＨＵＮ株式会社,,株式会社,東京都,世田谷区,中町３丁目３番７－２１０号,,13,112,1580091,,,,,,,2023-06-05,1,,,,,シュン,0
877,4010901053174,新規,0,2023-06-05,2023-06-05,株式会社ｔａｓ,,株式会社,東京都,世田谷区,上馬４丁目２番９－６１３号,,13,112,1540011,,,,,,,2023-06-05,1,,,,,タス,0
881,4011001154805,新規,0,2023-06-05,2023-06-05,株式会社オルター,,株式会社,東京都,渋谷区,恵比寿１丁目２４番１５号,,13,113,1500013,,,,,,,2023-06-05,1,,,,,オルター,0
882,4011001154813,新規,0,2023-06-05,2023-06-05,株式会社Ｇｒｏｗ　ｕｐ,,株式会社,東京都,渋谷区,渋谷２丁目１番１号,,13,113,1500002,,,,,,,2023-06-05,1,,,,,グローアップ,0
884,4011003016879,新規,0,2023-06-05,2023-06-05,Ｉｎｎｏｖｉａ合同会社,,合同会社,東京都,渋谷区,富ヶ谷１丁目１０－５パークサイドコグレ４０１,,13,113,1510063,,,,,,,2023-06-05,1,,,,,イノヴィア,0
885,4011003016920,新規,0,2023-06-05,2023-06-05,ｉｂａｓｅ合同会社,,合同会社,東京都,目黒区,大橋２丁目２４－１ハイネス池尻藤山ビル４０３,,13,110,1530044,,,,,,,2023-06-05,1,,,,,,0
886,4011003016929,新規,0,2023-06-05,2023-06-05,合同会社ＫＩＣ,,合同会社,東京都,目黒区,碑文谷４丁目２０番７－６０３号,,13,110,1520003,,,,,,,2023-06-05,1,,,,,ケイアイシー,0
888,4011101103117,新規,0,2023-06-05,2023-06-05,株式会社イリゼ,,株式会社,東京都,新宿区,西新宿３丁目３番１３号西新宿水間ビル６階,,13,104,1600023,,,,,,,2023-06-05,1,,,,,イリゼ,0
889,4011101103133,新規,0,2023-06-05,2023-06-05,ａｒｋｒｉｚｅ株式会社,,株式会社,東京都,新宿区,西新宿３丁目２番９号,,13,104,1600023,,,,,,,2023-06-05,1,,,,,アークライズ,0
893,4011103013108,新規,0,2023-06-05,2023-06-05,合同会社ｂ‐ｎｅｘｔ,,合同会社,東京都,新宿区,北新宿１丁目１２番１１号エトワールビル５階,,13,104,1690074,,,,,,,2023-06-05,1,,,,,ビーネクスト,0
894,4011201024683,新規,0,2023-06-05,2023-06-05,株式会社スタジオテールエンド,,株式会社,東京都,中野区,弥生町６丁目１１番１３号,,13,114,1640013,,,,,,,2023-06-05,1,,,,,スタジオテールエンド,0
895,4011201024700,新規,0,2023-06-05,2023-06-05,株式会社ＩＮＯＵＴ,,株式会社,東京都,中野区,中央２丁目２番９号,,13,114,1640011,,,,,,,2023-06-05,1,,,,,イナウト,0
900,4011303004781,新規,0,2023-06-05,2023-06-05,合同会社ヤマギシ,,合同会社,東京都,杉並区,阿佐谷南１丁目５番１号デュフレ阿佐ヶ谷１０２,,13,115,1660004,,,,,,,2023-06-05,1,,,,,ヤマギシ,0
901,4011403004013,新規,0,2023-06-05,2023-06-05,合同会社ＴＭＡＳＳＥＴ,,合同会社,東京都,板橋区,舟渡２丁目４番３号ウインベルガーデン浮間公園９０２,,13,119,1740041,,,,,,,2023-06-05,1,,,,,ティーエムアセット,0
908,4011801042408,新規,0,2023-06-05,2023-06-05,株式会社有景,,株式会社,東京都,足立区,東和５丁目９－２１ライオンズガーデン綾瀬谷中公園３０３,,13,121,1200003,,,,,,,2023-06-05,1,,,,,ユウケイ,0
909,4012301013469,新規,0,2023-06-05,2023-06-05,株式会社川上商事,,株式会社,東京都,町田市,原町田２丁目４番７－１３０６号,,13,209,1940013,,,,,,,2023-06-05,1,,,,,カワカミショウジ,0
911,4012403006016,新規,0,2023-06-05,2023-06-05,合同会社ｔｉａｍ,,合同会社,東京都,武蔵野市,吉祥寺東町４丁目１番１６号,,13,203,1800002,,,,,,,2023-06-05,1,,,,,ティアム,0
915,4012803003091,新規,0,2023-06-05,2023-06-05,謙信インターナショナル合同会社,,合同会社,東京都,立川市,曙町１丁目２２番２５号,,13,202,1900012,,,,,,,2023-06-05,1,,,,,ケンシンインターナショナル,0
916,4013301050865,新規,0,2023-06-05,2023-06-05,株式会社サラマンダー,,株式会社,東京都,豊島区,東池袋１丁目１７番１１号パークハイツ池袋１１０５号,,13,116,1700013,,,,,,,2023-06-05,1,,,,,サラマンダー,0
920,4020003024008,新規,0,2023-06-05,2023-06-05,ピークスマネジメント合同会社,,合同会社,神奈川県,川崎市幸区,塚越１丁目６０番地１６５,,14,132,2120024,,,,,,,2023-06-05,1,,,,,ピークスマネジメント,0
926,4021003013165,新規,0,2023-06-05,2023-06-05,ＢｉＢｉ合同会社,,合同会社,神奈川県,藤沢市,鵠沼石上２丁目５番１号３Ｆ－Ｃ,00130707,14,205,2510025,,,,,,,2023-06-05,1,,,,,ビビ,0
936,4030003021821,新規,0,2023-06-05,2023-06-05,創元合同会社,,合同会社,埼玉県,川口市,飯塚３丁目１－２４－２０３,,11,203,3320023,,,,,,,2023-06-05,1,,,,,ソウゲン,0
937,4030003021862,新規,0,2023-06-05,2023-06-05,さくら創建合同会社,,合同会社,埼玉県,さいたま市桜区,大字白鍬５１番地１０,,11,106,3380811,,,,,,,2023-06-05,1,,,,,サクラソウケン,0
938,4030003021879,新規,0,2023-06-05,2023-06-05,合同会社Ｗｉｔｈ,,合同会社,埼玉県,戸田市,本町４丁目３―６,,11,224,3350023,,,,,,,2023-06-05,1,,,,,ウィズ,0
941,4040001128642,新規,0,2023-06-05,2023-06-05,株式会社スポーツスピリッツ,,株式会社,千葉県,市原市,ちはら台東１丁目６番地１２,,12,219,2900141,,,,,,,2023-06-05,1,,,,,スポーツスピリッツ,0
948,4040003022736,新規,0,2023-06-05,2023-06-05,合同会社ＲＥＬＩＥＮ,,合同会社,千葉県,千葉市中央区,仁戸名町４８３番地１３,,12,101,2600801,,,,,,,2023-06-05,1,,,,,ルリアン,0
952,4070001040506,新規,0,2023-06-05,2023-06-05,株式会社エクレ,,株式会社,群馬県,高崎市,島野町１０１２番地１,,10,202,3700015,,,,,,,2023-06-05,1,,,,,,0
959,4100001036467,新規,0,2023-06-05,2023-06-05,株式会社ＭＨ,,株式会社,長野県,大町市,大町４７１８番地２,,20,212,3980002,,,,,,,2023-06-05,1,,,,,エムエイチ,0
961,4100003007053,新規,0,2023-06-05,2023-06-05,合同会社ｌｉｆｉｔｅｃ,,合同会社,長野県,飯田市,今宮町２丁目５４番地,,20,205,3950071,,,,,,,2023-06-05,1,,,,,リフィテック,0
964,4110001037588,新規,0,2023-06-05,2023-06-05,青南商事株式会社,,株式会社,新潟県,岩船郡関川村,大字南中４７１番地,,15,581,9593203,,,,,,,2023-06-05,1,,,,,セイナンショウジ,0
971,4120001255370,新規,0,2023-06-05,2023-06-05,仁者寿株式会社,,株式会社,大阪府,大阪市福島区,福島５丁目１４番１４号２階,,27,103,5530003,,,,,,,2023-06-05,1,,,,,ジンシャジュ,0
972,4120001255387,新規,0,2023-06-05,2023-06-05,株式会社アクアＳＳＩホールディングス,,株式会社,大阪府,大阪市東淀川区,西淡路１丁目１番３２号,,27,114,5330031,,,,,,,2023-06-05,1,,,,,アクアエスエスアイホールディングス,0
974,4120003024212,新規,0,2023-06-05,2023-06-05,合同会社Ｎｅｗ　Ｃａｓｋ,,合同会社,大阪府,大阪市北区,天満橋２丁目３番１６号プレサンスロジェ天満橋リバーテラス１０３号,,27,127,5300042,,,,,,,2023-06-05,1,,,,,ニューカスク,0
975,4120003024220,新規,0,2023-06-05,2023-06-05,スカイウォータージャパン合同会社,,合同会社,大阪府,大阪市天王寺区,小橋町１３番５号小橋Ｔ．Ｓ．Ｃ．ビル,,27,109,5430028,,,,,,,2023-06-05,1,,,,,スカイウォータージャパン,0
978,4120005023658,新規,0,2023-06-05,2023-06-05,一般社団法人ＡＩＲ,,その他の設立登記法人,大阪府,大阪市浪速区,日本橋東１丁目６番７－１４０２号,,27,111,5560006,,,,,,,2023-06-05,1,,,,,エアー,0
980,4120101067633,新規,0,2023-06-05,2023-06-05,株式会社ビットスタイル,,株式会社,大阪府,松原市,天美北５丁目６番１７号,,27,217,5800031,,,,,,,2023-06-05,1,,,,,ビットスタイル,0
981,4120103005252,新規,0,2023-06-05,2023-06-05,合同会社サフィニア,,合同会社,大阪府,河内長野市,大矢船西町２番２－１００４号,,27,216,5860073,,,,,,,2023-06-05,1,,,,,サフィニア,0
983,4120901047586,新規,0,2023-06-05,2023-06-05,株式会社Ｇ　Ｐｅａｃｅ,,株式会社,大阪府,茨木市,豊川１丁目１８番２１号,,27,211,5670057,,,,,,,2023-06-05,1,,,,,ジーピース,0
984,4120903004676,新規,0,2023-06-05,2023-06-05,合同会社Ｓｏｕｎｄ＆Ｋｉｔｃｈｅｎ,,合同会社,大阪府,高槻市,上土室６丁目１２番５号,,27,207,5691044,,,,,,,2023-06-05,1,,,,,サウンドキッチン,0
993,4130001074456,新規,0,2023-06-05,2023-06-05,ＳＳＨ株式会社,,株式会社,京都府,京都市中京区,烏丸通夷川上る少将井町２４５番地１藤和シティスクエア４０１号室,,26,104,6040862,,,,,,,2023-06-05,1,,,,,エスエスエイチ,0
998,4140001130349,新規,0,2023-06-05,2023-06-05,株式会社やなさん,,株式会社,兵庫県,神戸市中央区,山本通５丁目１番１１号,,28,110,6500003,,,,,,,2023-06-05,1,,,,,ヤナサン,0
999,4140001130373,新規,0,2023-06-05,2023-06-05,株式会社エルフ,,株式会社,兵庫県,豊岡市,弥栄町１番３１号,,28,209,6680057,,,,,,,2023-06-05,1,,,,,エルフ,0
1005,4160001025076,新規,0,2023-06-05,2023-06-05,株式会社ｎｉｃｏ・ｎｉｃｏ,,株式会社,滋賀県,大津市,におの浜３丁目２番７－２００３号,,25,201,5200801,,,,,,,2023-06-05,1,,,,,ニコニコ,0
1006,4160001025084,新規,0,2023-06-05,2023-06-05,株式会社ふかお経営相談所,,株式会社,滋賀県,東近江市,佐野町４０１－１ＳＡＮＯか乃う２０２号室,,25,213,5211222,,,,,,,2023-06-05,1,,,,,フカオケイエイソウダンショ,0
1019,4180001156555,新規,0,2023-06-05,2023-06-05,株式会社シンケン,,株式会社,愛知県,日進市,岩崎町岩根２２３番地,,23,230,4700131,,,,,,,2023-06-05,1,,,,,シンケン,0
1020,4180001156563,新規,0,2023-06-05,2023-06-05,Ｗｏｏｄ　Ｃｒｅｅｋ株式会社,,株式会社,愛知県,名古屋市中区,伊勢山１丁目１番９号,,23,106,4600026,,,,,,,2023-06-05,1,,,,,ウッドクリーク,0
1028,4180305009483,新規,0,2023-06-05,2023-06-05,一般社団法人Ｐｅａｃｅさぽーと,,その他の設立登記法人,愛知県,安城市,三河安城本町２丁目１番地１０ＫＡＧＡＹＡＫＩＳＱＵＡＲＥ３Ｆ,,23,212,4460059,,,,,,,2023-06-05,1,,,,,ピースサポート,0
1034,4220001025441,新規,0,2023-06-05,2023-06-05,株式会社ＢＵＺＺ,,株式会社,石川県,小松市,長田町ロ３６番地,,17,203,9230034,,,,,,,2023-06-05,1,,,,,バズ,0
1047,4240001061633,新規,0,2023-06-05,2023-06-05,株式会社ＥＹＥ　ＣＡＰＩＴＡＬ,,株式会社,広島県,広島市中区,白島北町１０番１１号,,34,101,7300001,,,,,,,2023-06-05,1,,,,,アイキャピタル,0
1055,4260001037994,新規,0,2023-06-05,2023-06-05,株式会社学習広場笠岡,,株式会社,岡山県,笠岡市,笠岡３６４７番地４,,33,205,7140081,,,,,,,2023-06-05,1,,,,,ガクシュウヒロバカサオカ,0
1064,4290001101731,新規,0,2023-06-05,2023-06-05,株式会社ＳＨＯＪＩＮ,,株式会社,福岡県,大牟田市,大字宮崎２４５４番地１,,40,202,8370903,,,,,,,2023-06-05,1,,,,,ショウジン,0
1065,4290001101756,新規,0,2023-06-05,2023-06-05,株式会社ＦＪアーバンオペレーションズ,,株式会社,福岡県,福岡市博多区,住吉１丁目２番２５号,,40,132,8120018,,,,,,,2023-06-05,1,,,,,エフジェイアーバンオペレーションズ,0
1066,4290001101764,新規,0,2023-06-05,2023-06-05,九州ゼネラルコマース株式会社,,株式会社,福岡県,福岡市早良区,昭代２丁目１５番４－３号,,40,137,8140012,,,,,,,2023-06-05,1,,,,,キュウシュウゼネラルコマース,0
1067,4290001101806,新規,0,2023-06-05,2023-06-05,株式会社ＧＯ‐ＫＥＮ,,株式会社,福岡県,糟屋郡粕屋町,戸原東２丁目４番８号,,40,349,8112318,,,,,,,2023-06-05,1,,,,,ゴウケン,0
1071,4290801029577,新規,0,2023-06-05,2023-06-05,株式会社永昇建設,,株式会社,福岡県,田川郡添田町,大字添田２０９１番地１,,40,602,8240602,,,,,,,2023-06-05,1,,,,,エイショウケンセツ,0
1073,4310001018444,新規,0,2023-06-05,2023-06-05,株式会社紙とペン,,株式会社,長崎県,長崎市,西山１丁目５番１５号,,42,201,8500001,,,,,,,2023-06-05,1,,,,,カミトペン,0
1083,4360001032093,新規,0,2023-06-05,2023-06-05,株式会社大進,,株式会社,沖縄県,沖縄市,美里１丁目１０番２４号,,47,211,9042153,,,,,,,2023-06-05,1,,,,,ダイシン,0
1084,4360003013026,新規,0,2023-06-05,2023-06-05,トシマスター合同会社,,合同会社,沖縄県,浦添市,伊祖２丁目１４番７号,,47,208,9012132,,,,,,,2023-06-05,1,,,,,トシマスター,0
1085,4360005006861,新規,0,2023-06-05,2023-06-05,一般社団法人シニアライフサポートいなんせ,,その他の設立登記法人,沖縄県,浦添市,伊奈武瀬１丁目７番３１号,,47,208,9012128,,,,,,,2023-06-05,1,,,,,シニアライフサポートイナンセ,0
1086,4370001050029,新規,0,2023-06-05,2023-06-05,株式会社東北特殊建設,,株式会社,宮城県,仙台市青葉区,折立６丁目１９－５,,04,101,9820261,,,,,,,2023-06-05,1,,,,,トウホクトクシュケンセツ,0
1091,4370003006160,新規,0,2023-06-05,2023-06-05,合同会社ＪＩＮＲＩＫＩ,,合同会社,宮城県,仙台市宮城野区,原町２丁目４番２９号,,04,102,9830841,,,,,,,2023-06-05,1,,,,,ジンリキ,0
1097,4380003005475,新規,0,2023-06-05,2023-06-05,合同会社ｋｏｍｏｒｅｂｉ,,合同会社,福島県,いわき市,山田町西山１１番地の６９,,07,204,9748241,,,,,,,2023-06-05,1,,,,,コモレビ,0
1098,4390001017273,新規,0,2023-06-05,2023-06-05,株式会社トーキ,,株式会社,山形県,西村山郡河北町,谷地中央４丁目３番地の２,,06,321,9993512,,,,,,,2023-06-05,1,,,,,トーキ,0
1100,4400001016273,新規,0,2023-06-05,2023-06-05,株式会社Ｃｒｕｉｓｅ,,株式会社,岩手県,盛岡市,南仙北１丁目１８番２号ハウスＧ３階,,03,201,0200863,,,,,,,2023-06-05,1,,,,,クルーズ,0
1110,4430001089267,新規,0,2023-06-05,2023-06-05,株式会社ＩＦメンテナンス,,株式会社,北海道,札幌市手稲区,前田七条１８丁目３番６号,,01,109,0060817,,,,,,,2023-06-05,1,,,,,アイエフメンテナンス,0
1111,4430001089317,新規,0,2023-06-05,2023-06-05,株式会社キャッツ・アイ,,株式会社,北海道,札幌市厚別区,厚別南１丁目２番１０－８０３号,,01,108,0040022,,,,,,,2023-06-05,1,,,,,キャッツアイ,0
1113,4430003015106,新規,0,2023-06-05,2023-06-05,合同会社オーロラ,,合同会社,北海道,苫小牧市,浜町２丁目１番１３号ディアスメリメント１階,,01,213,0530014,,,,,,,2023-06-05,1,,,,,オーロラ,0
1118,4500001024984,新規,0,2023-06-05,2023-06-05,株式会社阿部興業,,株式会社,愛媛県,伊予市,上三谷１１５５番地１４,,38,210,7993104,,,,,,,2023-06-05,1,,,,,アベコウギョウ,0
1122,4700150116868,新規,0,2023-06-05,2023-06-05,Ｓｈａｎｇｈａｉ　ｇｅｎｇｙｅ　ｗａｎｇｌｕｏｋｅｊｉ　ｙｏｕｘｉａｎｚｅｒｅｎｇｏｎｇｓｉ,,外国会社等,,,,,,,,Ｔａｎｇｇｕｌｕ　３０９　ｈａｏ　１４Ｃ　ｓｈｉ　２１８３　Ｈｏｎｇｋｏｕ　Ｄｉｓｔｒｉｃｔ　Ｓｈａｎｇｈａｉ　ＣＮ,,,,,,2023-06-05,1,,,,,シャンハイゲンイェワンルオケジユウゲンゼレンコウシ,0
1123,4700150116876,新規,0,2023-06-05,2023-06-05,ｓｈｅｎｚｈｅｎｓｈｉ　ｘｉｎｇｙｕｘｉｎ　ｋｅｊｉ　ｙｏｕｘｉａｎｇｏｎｇｓｉ,,外国会社等,,,,,,,,ｓｈｅｎｚｈｅｎｓｈｉｎａｎｗａｎｊｉｅｄａｏｄａｎｚｈｕｔｏｕｓｈｅｑｕｂａｏｄａｎｌｕ１６ｈａｏｘｉｎｇｊｉｚｈｏｎｇｘｉｎ２ｈａｏｂａｎｇｏｎｇｌｏｕ２ｃｅｎｇ２０６,,,,,,2023-06-05,1,,,,,シェンゼェンシシンユシンケジユウゲンコウシ,0
1124,4700150116884,新規,0,2023-06-05,2023-06-05,ＳＨＥＮＺＨＥＮ　ＣＩＳＣＬＥ　ＥＬＥＣＴＲＯＮＩＣ　ＣＯ．，ＬＴＤ．,,外国会社等,,,,,,,,１９０３　Ｂ　Ｄｏｎｇ　Ａ　Ｑｕ　Ｄｏｎｇｇａｎｇｙｉｎｘｉａｎｇｊｉａｙｕａｎ　Ｄｏｎｇｈａｉｄａｏ　Ｙａｎｔｉａｎｊｉｅｄａｏ　Ｙａｎｔｉａｎｑｕ　ＳＨＥＮＺＨＥＮ　ＧＵＡＮＧＤＯＮＧ　Ｃｈｉｎａ,,,,,,2023-06-05,1,,,,,シンセンシスクルイレクトゥロニックカンパニーリミテッド,0
1125,4700150116892,新規,0,2023-06-05,2023-06-05,Ｓｈｅｎｚｈｅｎ　ｈｏｎｇｒｏｎｇ　ｊｉｎｇｍｉ　Ｋｅｊｉ　Ｙｏｕｘｉａｎ　Ｇｏｎｇｓｉ,,外国会社等,,,,,,,,Ｇｕａｎｇｍｉｎｇ　Ｘｉｎｑｕ，Ｇｏｎｇｍｉｎｇ　Ｊｉｅｄａｏ　ＹｕＬｖ　Ｓｈｅｑｕ，ＤｉＬｉｕ　Ｇｏｎｇｙｅｑｕ，Ｄｉｓｉｄｏｎｇ　Ｅｒｌｏｕ　Ｓｈｅｎｚｈｅｎ　Ｇｕａｎｇｄｏｎｇ　ＣＮ,,,,,,2023-06-05,1,,,,,シェンゼェンホンロンジンミケジユウゲンコウシ,0
1126,4700150116901,新規,0,2023-06-05,2023-06-05,ｗｕｘｉ　ｃｈｅｎｓｈｉ　ｓｔａｉｎｌｅｓｓ　ｓｔｅｅｌ　ｃｏ．，ｌｔｄ,,外国会社等,,,,,,,,３１７，Ｂｌｄｇ．Ｂ，Ｎｏ．７，Ｎｏｎｇｓｈｉ　Ｒｄ．，Ｄｏｎｇｂｅｉｔａｎｇ　Ｘｉｓｈａｎ　Ｄｉｓｔ　Ｗｕｘｉ　ＣＮ,,,,,,2023-06-05,1,,,,,ウシチェンシステンレススティールカンパニーリシテッド,0
1136,5010001235754,新規,0,2023-06-05,2023-06-05,イロー株式会社,,株式会社,東京都,中央区,銀座１丁目１２番４号Ｎ＆Ｅ－ＢＬＤ．６Ｆ,,13,102,1040061,,,,,,,2023-06-05,1,,,,,イロー,0
1137,5010001235787,新規,0,2023-06-05,2023-06-05,株式会社ピープルベンチャーズジャパン,,株式会社,東京都,千代田区,神田和泉町１番地６－１６ヤマトビル４０５,,13,101,1010024,,,,,,,2023-06-05,1,,,,,ピープルベンチャーズジャパン,0
1138,5010001235829,新規,0,2023-06-05,2023-06-05,ソフィアプランニング株式会社,,株式会社,東京都,千代田区,神田駿河台２丁目１番地３４,,13,101,1010062,,,,,,,2023-06-05,1,,,,,ソフィアプランニング,0
1139,5010001235837,新規,0,2023-06-05,2023-06-05,クロスワンホスピタリティキャピタル株式会社,,株式会社,東京都,中央区,日本橋堀留町１丁目８番１１号,,13,102,1030012,,,,,,,2023-06-05,1,,,,,クロスワンホスピタリティキャピタル,0
1140,5010001235853,新規,0,2023-06-05,2023-06-05,株式会社翔,,株式会社,東京都,中央区,日本橋２丁目１６番４号ＷＯＲＫ　ＢＡＳＥ　Ｎｉｈｏｍｂａｓｈｉ３Ｆ,,13,102,1030027,,,,,,,2023-06-05,1,,,,,ショウ,0
1145,5010003040723,新規,0,2023-06-05,2023-06-05,ｏｂａｑｅ合同会社,,合同会社,東京都,中央区,新川２丁目２９番８,,13,102,1040033,,,,,,,2023-06-05,1,,,,,オバケ,0
1146,5010003040756,新規,0,2023-06-05,2023-06-05,ＡＩＡ東京０８合同会社,,合同会社,東京都,中央区,日本橋２丁目１番１８号,,13,102,1030027,,,,,,,2023-06-05,1,,,,,エーアイエートウキョウゼロハチ,0
1157,5010401174742,新規,0,2023-06-05,2023-06-05,株式会社ｆｏｒｍｕｌａ,,株式会社,東京都,港区,虎ノ門３丁目１８番６号朝日虎ノ門マンション内,,13,103,1050001,,,,,,,2023-06-05,1,,,,,フォーミュラ,0
1158,5010401174767,新規,0,2023-06-05,2023-06-05,Ｌｅｇｅｒｏ　Ｉｎｔｅｒｎａｔｉｏｎａｌ　Ｊａｐａｎ株式会社,,株式会社,東京都,港区,元麻布３丁目１番６号,,13,103,1060046,,,,,,,2023-06-05,1,,,,,レジェロインターナショナルジャパン,0
1159,5010401174783,新規,0,2023-06-05,2023-06-05,株式会社もち家,,株式会社,東京都,港区,南青山２丁目２番１５号,,13,103,1070062,,,,,,,2023-06-05,1,,,,,モチヤ,0
1160,5010401174800,新規,0,2023-06-05,2023-06-05,株式会社サンマルコ,,株式会社,東京都,港区,六本木３丁目１０番１０号六本木藤井ビル１階,,13,103,1060032,,,,,,,2023-06-05,1,,,,,サンマルコ,0
1161,5010401174841,新規,0,2023-06-05,2023-06-05,株式会社Ｍａｐｌｅ　Ｌｉｎｋ,,株式会社,東京都,港区,南青山５丁目１１番１０号南青山５１１ビル,,13,103,1070062,,,,,,,2023-06-05,1,,,,,メイプルリンク,0
1164,5010403030233,新規,0,2023-06-05,2023-06-05,Ｎｏｒｔｈｅｒｎ　Ｓｔｕｄｉｏ合同会社,,合同会社,東京都,港区,白金１丁目９‐６ファミール白金２０２,,13,103,1080072,,,,,,,2023-06-05,1,,,,,ノーザンスタジオ,0
1165,5010403030258,新規,0,2023-06-05,2023-06-05,ＭＭマネジメント合同会社,,合同会社,東京都,港区,六本木１丁目６番１号泉ガーデンタワー,,13,103,1060032,,,,,,,2023-06-05,1,,,,,エムエムマネジメント,0
1167,5010405022204,新規,0,2023-06-05,2023-06-05,ＭＭインベストメンツ特定目的会社,,その他の設立登記法人,東京都,港区,六本木１丁目６番１号泉ガーデンタワー,,13,103,1060032,,,,,,,2023-06-05,1,,,,,エムエムインベストメンツ,0
1175,5010601063191,新規,0,2023-06-05,2023-06-05,一順株式会社,,株式会社,東京都,墨田区,両国２丁目１７番１７号両国ダイヤハイツ２０２－Ｒ,,13,107,1300026,,,,,,,2023-06-05,1,,,,,イチジュン,0
1176,5010601063217,新規,0,2023-06-05,2023-06-05,ＢｉＦｅＬ株式会社,,株式会社,東京都,江東区,豊洲２丁目５番１号アーバンドックパークシティ豊洲５０１３号,,13,108,1350061,,,,,,,2023-06-05,1,,,,,ビフェル,0
1182,5010901053165,新規,0,2023-06-05,2023-06-05,株式会社ＹＹ,,株式会社,東京都,世田谷区,上馬３丁目１８番１１－４０５号,,13,112,1540011,,,,,,,2023-06-05,1,,,,,ワイワイ,0
1188,5011001154795,新規,0,2023-06-05,2023-06-05,株式会社Ｎｏｉｒ,,株式会社,東京都,渋谷区,神宮前６丁目２３番４号桑野ビル２階,,13,113,1500001,,,,,,,2023-06-05,1,,,,,ノワール,0
1189,5011001154804,新規,0,2023-06-05,2023-06-05,株式会社シュレーディンガーの弦猫,,株式会社,東京都,目黒区,上目黒２丁目２４番３号,,13,110,1530051,,,,,,,2023-06-05,1,,,,,シュレーディンガーノゲンネコ,0
1190,5011001154812,新規,0,2023-06-05,2023-06-05,株式会社ｆｌｏｒｄｅｌｉｓ,,株式会社,東京都,渋谷区,渋谷２丁目１番１号,,13,113,1500002,,,,,,,2023-06-05,1,,,,,フローデリス,0
1191,5011001154853,新規,0,2023-06-05,2023-06-05,株式会社Ｔｏｍａｔｏ　Ｒｅｄ　Ｍｏｔｉｏｎ,,株式会社,東京都,渋谷区,宇田川町３－７ヒューリック渋谷公園通りビル５Ｆ－６８,,13,113,1500042,,,,,,,2023-06-05,1,,,,,トマトレッドモーション,0
1192,5011003016936,新規,0,2023-06-05,2023-06-05,ティーズ・オフィス合同会社,,合同会社,東京都,渋谷区,円山町５番５号Ｎａｖｉ渋谷Ｖ３階,,13,113,1500044,,,,,,,2023-06-05,1,,,,,ティーズオフィス,0
1193,5011005010094,新規,0,2023-06-05,2023-06-05,Ａ‐ＣＯＮＮＥＣＴ税理士法人,,その他の設立登記法人,東京都,渋谷区,本町３丁目１０－３清水橋矢部ビル４階,,13,113,1510071,,,,,,,2023-06-05,1,,,,,エーコネクト,0
1194,5011005010103,新規,0,2023-06-05,2023-06-05,一般社団法人シブヤ・スマートシティ推進機構,,その他の設立登記法人,東京都,渋谷区,宇田川町１番１号,,13,113,1500042,,,,,,,2023-06-05,1,,,,,シブヤスマートシティスイシンキコウ,0
1197,5011101103099,新規,0,2023-06-05,2023-06-05,株式会社ＫＹ,,株式会社,東京都,新宿区,大久保２丁目３番１８号三蔵住建第一ビル,,13,104,1690072,,,,,,,2023-06-05,1,,,,,ケイワイ,0
1198,5011101103116,新規,0,2023-06-05,2023-06-05,Ｌ＆Ｚジャパン株式会社,,株式会社,東京都,新宿区,大久保２丁目３－６シティハウス西大久保ビル５０３,,13,104,1690072,,,,,,,2023-06-05,1,,,,,エルアンドゼットジャパン,0
1199,5011101103124,新規,0,2023-06-05,2023-06-05,株式会社ＴＯＰ　ＴＯＫＹＯ,,株式会社,東京都,新宿区,歌舞伎町２丁目２１番４号三経２１ビル２階,,13,104,1600021,,,,,,,2023-06-05,1,,,,,トップトウキョウ,0
1200,5011101103140,新規,0,2023-06-05,2023-06-05,株式会社重装,,株式会社,東京都,新宿区,余丁町５番６号,,13,104,1620055,,,,,,,2023-06-05,1,,,,,シゲソウ,0
1201,5011103013107,新規,0,2023-06-05,2023-06-05,ウラヤマ合同会社,,合同会社,東京都,新宿区,西新宿３丁目３番１３号西新宿水間ビル２Ｆ,,13,104,1600023,,,,,,,2023-06-05,1,,,,,ウラヤマ,0
1205,5011403004012,新規,0,2023-06-05,2023-06-05,レーヴワール合同会社,,合同会社,東京都,板橋区,西台２丁目４０番４号－２０２,,13,119,1750045,,,,,,,2023-06-05,1,,,,,レーヴワール,0
1210,5012403006007,新規,0,2023-06-05,2023-06-05,合同会社ＹＯＫＯＺＵＮＡ,,合同会社,東京都,調布市,西つつじケ丘４丁目４５番地２１,,13,208,1820006,,,,,,,2023-06-05,1,,,,,ヨコヅナ,0
1212,5012803003090,新規,0,2023-06-05,2023-06-05,合同会社ＭＫＮ,,合同会社,東京都,昭島市,玉川町３丁目２８番１号,,13,207,1960034,,,,,,,2023-06-05,1,,,,,エムケーエヌ,0
1231,5021005012833,新規,0,2023-06-05,2023-06-05,司法書士法人シーガル法務事務所,,その他の設立登記法人,神奈川県,藤沢市,辻堂１丁目３番１３号江戸惣ビル５階,,14,205,2510047,,,,,,,2023-06-05,1,,,,,シーガルホウムジムショ,0
1250,5040001128682,新規,0,2023-06-05,2023-06-05,株式会社ＧＭ経営ソリューション,,株式会社,千葉県,市川市,市川南１丁目１番８号市川サンハイツ２０８号,,12,203,2720033,,,,,,,2023-06-05,1,,,,,ジーエムケイエイソリューション,0
1253,5040003022735,新規,0,2023-06-05,2023-06-05,合同会社サンエイ設備設計,,合同会社,千葉県,習志野市,屋敷４丁目２番８号,,12,216,2750004,,,,,,,2023-06-05,1,,,,,サンエイセツビセッケイ,0
1256,5050001052915,新規,0,2023-06-05,2023-06-05,株式会社利康,,株式会社,茨城県,土浦市,小高１０３－２,,08,203,3004106,,,,,,,2023-06-05,1,,,,,リコウ,0
1257,5050001052923,新規,0,2023-06-05,2023-06-05,株式会社小野瀬板金工業,,株式会社,茨城県,常陸太田市,山下町３８８０番地,,08,212,3130013,,,,,,,2023-06-05,1,,,,,オノセバンキンコウギョウ,0
1262,5060003004582,新規,0,2023-06-05,2023-06-05,合同会社特別支援教育研究所凸ＤＥＣＯ,,合同会社,栃木県,宇都宮市,中岡本町２９２０番地７５,,09,201,3291105,,,,,,,2023-06-05,1,,,,,トクベツシエンキョウイクケンキュウジョデコ,0
1265,5070001040505,新規,0,2023-06-05,2023-06-05,株式会社Ｖｅｒｔｅｘ,,株式会社,群馬県,伊勢崎市,境下渕名２０４０番地１,,10,204,3700103,,,,,,,2023-06-05,1,,,,,,0
1266,5070003004961,新規,0,2023-06-05,2023-06-05,ＰＨＬ合同会社,,合同会社,群馬県,伊勢崎市,下植木町５０７番地５,,10,204,3720024,,,,,,,2023-06-05,1,,,,,ピーエッチエル,0
1273,5080401026516,新規,0,2023-06-05,2023-06-05,株式会社円藤電気,,株式会社,静岡県,袋井市,浅羽２３０４番地の１,,22,216,4371101,,,,,,,2023-06-05,1,,,,,マルフジデンキ,0
1276,5100001036466,新規,0,2023-06-05,2023-06-05,ＭＯＲＩオプチカル株式会社,,株式会社,長野県,岡谷市,大栄町１丁目１番１１号,,20,204,3940025,,,,,,,2023-06-05,1,,,,,モリオプチカル,0
1280,5110001037579,新規,0,2023-06-05,2023-06-05,にいがた不動産サービス株式会社,,株式会社,新潟県,新潟市中央区,女池西１丁目１番３号Ａ１０３,,15,103,9500946,,,,,,,2023-06-05,1,,,,,ニイガタフドウサンサービス,0
1289,5120001255337,新規,0,2023-06-05,2023-06-05,関西電力サイラスワン株式会社,,株式会社,大阪府,大阪市北区,中之島３丁目６番１６号,,27,127,5300005,,,,,,,2023-06-05,1,,,,,カンサイデンリョクサイラスワン,0
1290,5120001255345,新規,0,2023-06-05,2023-06-05,ＧＰＭテクノロジー株式会社,,株式会社,大阪府,大阪市平野区,長吉長原東２丁目８番３６号１１１２号室,,27,126,5470013,,,,,,,2023-06-05,1,,,,,ジーピーエムテクノロジー,0
1294,5120005023665,新規,0,2023-06-05,2023-06-05,司法書士法人池本事務所,,その他の設立登記法人,大阪府,大阪市中央区,瓦町２丁目５番８号瓦町スクエアビル２０１号,,27,128,5410048,,,,,,,2023-06-05,1,,,,,イケモトジムショ,0
1295,5120101067640,新規,0,2023-06-05,2023-06-05,Ｐｌｕｓ．Ｃ株式会社,,株式会社,大阪府,堺市北区,百舌鳥梅町３丁１７番１７,,27,146,5918032,,,,,,,2023-06-05,1,,,,,プラスシー,0
1296,5120101067657,新規,0,2023-06-05,2023-06-05,株式会社Ｒｅｍａｔｃｈ,,株式会社,大阪府,堺市堺区,大浜中町３丁１－４－２,,27,141,5900975,,,,,,,2023-06-05,1,,,,,リマッチ,0
1297,5120103005251,新規,0,2023-06-05,2023-06-05,合同会社ＩＴサポート恵,,合同会社,大阪府,堺市南区,泉田中２４３７番地１２,,27,145,5900126,,,,,,,2023-06-05,1,,,,,アイティサポートメグミ,0
1299,5120901047593,新規,0,2023-06-05,2023-06-05,株式会社きっかけ,,株式会社,大阪府,箕面市,下止々呂美７２６番１０,,27,220,5630252,,,,,,,2023-06-05,1,,,,,キッカケ,0
1300,5120901047602,新規,0,2023-06-05,2023-06-05,リバーサル株式会社,,株式会社,大阪府,吹田市,元町１９番１５号駅前丸二ビル４０２号,,27,205,5640031,,,,,,,2023-06-05,1,,,,,リバーサル,0
1302,5130001074414,新規,0,2023-06-05,2023-06-05,株式会社小村工業,,株式会社,京都府,八幡市,男山弓岡２番地Ｂ２３－５０２,,26,210,6148375,,,,,,,2023-06-05,1,,,,,コムラコウギョウ,0
1303,5130001074455,新規,0,2023-06-05,2023-06-05,株式会社三陽,,株式会社,京都府,京都市東山区,清閑寺池田町７番地１０,,26,105,6050923,,,,,,,2023-06-05,1,,,,,サンヨウ,0
1311,5140001130348,新規,0,2023-06-05,2023-06-05,Ｐａｒｔｉａｓ株式会社,,株式会社,兵庫県,尼崎市,東園田町４丁目２６番地の６ロジェマンション２０７,,28,202,6610953,,,,,,,2023-06-05,1,,,,,パーティアス,0
1312,5140001130372,新規,0,2023-06-05,2023-06-05,株式会社桜美,,株式会社,兵庫県,神戸市長田区,二葉町２丁目１番１６号,,28,106,6530042,,,,,,,2023-06-05,1,,,,,オウビ,0
1313,5140001130380,新規,0,2023-06-05,2023-06-05,株式会社神風,,株式会社,兵庫県,神戸市北区,上津台５丁目６番１３号,,28,109,6511515,,,,,,,2023-06-05,1,,,,,カミカゼ,0
1321,5160001025083,新規,0,2023-06-05,2023-06-05,株式会社ビワフロント彦根,,株式会社,滋賀県,彦根市,松原町１４３５番地９１,,25,202,5220002,,,,,,,2023-06-05,1,,,,,ビワフロントヒコネ,0
1324,5170001017633,新規,0,2023-06-05,2023-06-05,株式会社三恵組,,株式会社,和歌山県,和歌山市,松江北４丁目３番１９号,,30,201,6408425,,,,,,,2023-06-05,1,,,,,ミツエグミ,0
1335,5180001156463,新規,0,2023-06-05,2023-06-05,株式会社中日地所,,株式会社,愛知県,名古屋市名東区,藤見が丘９番地,,23,115,4650048,,,,,,,2023-06-05,1,,,,,チュウニチジショ,0
1336,5180001156496,新規,0,2023-06-05,2023-06-05,株式会社ＺＲＤ,,株式会社,愛知県,名古屋市中区,錦３丁目１９番２６号,,23,106,4600003,,,,,,,2023-06-05,1,,,,,ゼットアールディー,0
1337,5180001156546,新規,0,2023-06-05,2023-06-05,株式会社Ｒａｎｄ,,株式会社,愛知県,名古屋市千種区,星ケ丘２丁目４３番地―１０１,,23,101,4640801,,,,,,,2023-06-05,1,,,,,ランド,0
1338,5180001156579,新規,0,2023-06-05,2023-06-05,株式会社廣和水道工業,,株式会社,愛知県,名古屋市昭和区,円上町６番２２号,,23,107,4660054,,,,,,,2023-06-05,1,,,,,コウワスイドウコウギョウ,0
1342,5180003025294,新規,0,2023-06-05,2023-06-05,合同会社Ｃ＆Ｂワークス,,合同会社,愛知県,名古屋市守山区,向台１丁目２０２０番地,,23,113,4630036,,,,,,,2023-06-05,1,,,,,シーアンドビーワークス,0
1351,5200003005979,新規,0,2023-06-05,2023-06-05,イントデザイン合同会社,,合同会社,岐阜県,大垣市,木戸町２００番地９６,,21,202,5030973,,,,,,,2023-06-05,1,,,,,イントデザイン,0
1352,5210003001655,新規,0,2023-06-05,2023-06-05,シンデン合同会社,,合同会社,福井県,坂井市,丸岡町霞町４丁目３２番地,,18,210,9100231,,,,,,,2023-06-05,1,,,,,シンデン,0
1353,5220001025440,新規,0,2023-06-05,2023-06-05,ヤマト株式会社,,株式会社,石川県,七尾市,石崎町乙部７７番地１,,17,202,9260171,,,,,,,2023-06-05,1,,,,,ヤマト,0
1355,5230003002024,新規,0,2023-06-05,2023-06-05,六角堂ＢＵＺＺ合同会社,,合同会社,富山県,南砺市,本町４丁目２９番地,,16,210,9320217,,,,,,,2023-06-05,1,,,,,ロッカクドウバズ,0
1356,5230005009307,新規,0,2023-06-05,2023-06-05,医療法人社団三門会,,その他の設立登記法人,富山県,富山市,牛島本町２丁目６－８,,16,201,9300859,,,,,,,2023-06-05,1,,,,,サンモンカイ,0
1360,5240001061624,新規,0,2023-06-05,2023-06-05,麗和レジデンス株式会社,,株式会社,広島県,広島市中区,白島北町１１番３号,,34,101,7300001,,,,,,,2023-06-05,1,,,,,レイワレジデンス,0
1361,5240001061632,新規,0,2023-06-05,2023-06-05,株式会社フォレストエントランス,,株式会社,広島県,広島市東区,曙５丁目５番１号,,34,102,7320045,,,,,,,2023-06-05,1,,,,,フォレストエントランス,0
1372,5290001101788,新規,0,2023-06-05,2023-06-05,株式会社リスム不動産,,株式会社,福岡県,福岡市南区,柳河内２丁目６番９６号シティベール大池１階,,40,134,8150063,,,,,,,2023-06-05,1,,,,,リスムフドウサン,0
1377,5290801029576,新規,0,2023-06-05,2023-06-05,株式会社Ｎｉｉｙａｎｓ,,株式会社,福岡県,直方市,大字感田３４７８番１,,40,204,8220001,,,,,,,2023-06-05,1,,,,,ニャンズ,0
1380,5310001018443,新規,0,2023-06-05,2023-06-05,株式会社蒼翔,,株式会社,長崎県,佐世保市,松原町７６番地２泉福寺団地Ａ－４棟１２０１号,,42,202,8570132,,,,,,,2023-06-05,1,,,,,アオト,0
1383,5310002020992,新規,0,2023-06-05,2023-06-05,有限会社木村冷凍工業所,,有限会社,長崎県,長崎市,伊勢町４５番地,,42,201,8500018,,,,,,,2023-06-05,1,,,,,,0
1384,5310003004581,新規,0,2023-06-05,2023-06-05,合同会社エイチキュービック,,合同会社,長崎県,壱岐市,郷ノ浦町東触７５８番地１,,42,210,8115132,,,,,,,2023-06-05,1,,,,,エイチキュービック,0
1386,5320001019804,新規,0,2023-06-05,2023-06-05,株式会社佐伯機工,,株式会社,大分県,佐伯市,弥生大字小田６５番地１,,44,205,8760121,,,,,,,2023-06-05,1,,,,,サイキキコウ,0
1388,5330001030900,新規,0,2023-06-05,2023-06-05,株式会社ＫＩＭＴＵＹＥＮ,,株式会社,熊本県,玉名市,中坂門田７７１番地,,43,206,8650033,,,,,,,2023-06-05,1,,,,,キムトゥエン,0
1390,5330003009868,新規,0,2023-06-05,2023-06-05,合同会社ＫＭＰ研究所,,合同会社,熊本県,上益城郡益城町,大字田原２０８１番地２８,,43,443,8612202,,,,,,,2023-06-05,1,,,,,,0
1394,5350001018381,新規,0,2023-06-05,2023-06-05,株式会社メンテナンス輝,,株式会社,宮崎県,延岡市,下三輪町１４４３番地乙,,45,203,8820883,,,,,,,2023-06-05,1,,,,,メンテナンステル,0
1401,5360005006860,新規,0,2023-06-05,2023-06-05,一般社団法人屋良腹門中会,,その他の設立登記法人,沖縄県,南城市,玉城字當山３４番地,,47,215,9010612,,,,,,,2023-06-05,1,,,,,ヤラバラモンチュウカイ,0
1407,5370001050036,新規,0,2023-06-05,2023-06-05,レイズ株式会社,,株式会社,宮城県,仙台市若林区,文化町１４番１３号,,04,103,9840815,,,,,,,2023-06-05,1,,,,,レイズ,0
1408,5370001050044,新規,0,2023-06-05,2023-06-05,株式会社優雅,,株式会社,宮城県,仙台市太白区,西多賀３丁目１５番１０－２号,,04,104,9820034,,,,,,,2023-06-05,1,,,,,ユウガ,0
1415,5390001017272,新規,0,2023-06-05,2023-06-05,株式会社オビナタ総建,,株式会社,山形県,米沢市,中央７丁目３番２１号,,06,202,9920045,,,,,,,2023-06-05,1,,,,,オビナタソウケン,0
1419,5410001013500,新規,0,2023-06-05,2023-06-05,株式会社Ｗｏｒｋｓ,,株式会社,秋田県,秋田市,新屋南浜町１番１０号,,05,201,0101607,,,,,,,2023-06-05,1,,,,,,0
1422,5430001089258,新規,0,2023-06-05,2023-06-05,Ｆｌｏａｔｍｅａｌ株式会社,,株式会社,北海道,札幌市白石区,東札幌五条１丁目１番１号札幌市産業振興センター,,01,104,0030005,,,,,,,2023-06-05,1,,,,,フロートミール,0
1423,5430003015105,新規,0,2023-06-05,2023-06-05,合同会社イノカン,,合同会社,北海道,札幌市北区,北六条西６丁目２番地１朝日プラザ偕楽園２０７号,,01,102,0600806,,,,,,,2023-06-05,1,,,,,イノカン,0
1429,5480001012116,新規,0,2023-06-05,2023-06-05,株式会社エイケン,,株式会社,徳島県,徳島市,中通町１丁目１８番地ヒューマンスペース８－６０２,,36,201,7700844,,,,,,,2023-06-05,1,,,,,エイケン,0
1430,5500001024983,新規,0,2023-06-05,2023-06-05,株式会社夢,,株式会社,愛媛県,松山市,古川南１丁目２０番１９号,,38,201,7900943,,,,,,,2023-06-05,1,,,,,ユメ,0
1432,5700150116867,新規,0,2023-06-05,2023-06-05,ＣＨＯＮＧＱＩＮＧ　ＤＩＮＫＩＮＧ　ＰＯＷＥＲ　ＭＡＣＨＩＮＥＲＹ　ＣＯ．，ＬＴＤ,,外国会社等,,,,,,,,Ｃａｏｊｉｅｊｉｅｄａｏｇｏｎｇｙｅｙｕａｎｃａｏｊｉｅｔｕｏｚｈａｎｑｕ　Ｈｅｃｈｕａｎｑｕ　Ｃｈｏｎｇｑｉｎｇ　ＣＮ,,,,,,2023-06-05,1,,,,,ツォンチンディンキングパワーマシーナリーカンパニーリミテッド,0
1433,5700150116875,新規,0,2023-06-05,2023-06-05,ｓｈｅｎｚｈｅｎｓｈｉ　ｚｉｒａｎｋｅｊｉ　ｙｏｕｘｉａｎｇｏｎｇｓｉ,,外国会社等,,,,,,,,１０Ｃ，ｂｕｉｌｄｉｎｇ　６，ｈｕａｑｉａｏ　ｘｉｎｙｕａｎ，ｎｉｕｌａｎｑｉａｎ，ｍｉｎｚｈｉ　ａｖｅｎｕｅ，ｓｈｅｎｚｈｅｎｓｈｉ　ｇｕａｎｇｄｏｎｇｓｈｅｎｇ　ＣＮ,,,,,,2023-06-05,1,,,,,シンセンシジランケジユウゲンコウシ,0
1434,5700150116883,新規,0,2023-06-05,2023-06-05,Ｓｈｅｎｚｈｅｎ　Ｔａｙｌｏｒ　Ｂｏｎｗｅ　Ｅｌｅｃｔｒｏｎｉｃ　Ｃｏｍｍｅｒｃｅ　Ｃｏ．，Ｌｔｄ,,外国会社等,,,,,,,,５２７－５２８，Ｃｈａｎｇ’ａｎ　Ｂｕｉｌｄｉｎｇ，Ｎｏ．５６，Ｓｅｃｏｎｄ　Ｉｎｄｕｓｔｒｉａｌ　Ｚｏｎｅ　Ｈｏｕｔｉｎｇ　Ｃｏｍｍｕｎｉｔｙ，Ｓｈａｊｉｎｇ　Ｓｔｒｅｅｔ，Ｂａｏ’ａｎ　Ｄｉｓｔｒｉｃｔ，Ｓｈｅｎｚｈｅｎ，Ｇｕａｎｇｄｏｎｇ，ＣＮ,,,,,,2023-06-05,1,,,,,シェンゼェンテイラーボンウェイイレクトゥロニックコマースカンパニーリミテッド,0
1435,5700150116891,新規,0,2023-06-05,2023-06-05,Ｑｉｎｇｄａｏ　Ｍａｉｊｉｎ　Ｚｈｉｎｅｎｇ　Ｋｅｊｉ　Ｇｕｆｅｎ　Ｙｏｕｘｉａｎ　Ｇｏｎｇｓｉ,,外国会社等,,,,,,,,Ｃｈｅｎｇｙａｎｇｑｕ　Ｘｉａｚｈｕａｎｇｊｉｅｄａｏ　Ｃｈｅｎｇｋａｎｇｌｕ　３２８ｈａｏｊｉａ３ｈａｏ　Ｑｉｎｇｄａｏ　Ｓｈａｎｄｏｎｇ,,,,,,2023-06-05,1,,,,,チンダォマイジンジネンケジグフェンユウゲンコウシ,0
1436,5700150116900,新規,0,2023-06-05,2023-06-05,Ｇｕａｎｇｚｈｏｕ　ｆｅｉｂｉｐｉｊｕ　ｙｏｕｘｉａｎｇｏｎｇｓｉ,,外国会社等,,,,,,,,Ｒｏｏｍ　２０１，ＮＯ．１６，Ｓｈｅｎｇｐｉｎｇ　Ｒｏａｄ，Ｄｏｎｇｐｉｎｇ　Ｖｉｌｌａｇｅ　Ｙｏｎｇｐｉｎｇ　Ｓｔｒｅｅｔ，Ｂａｉｙｕｎ　Ｄｉｓｔｒｉｃｔ　Ｇｕａｎｇｚｈｏｕ　Ｇｕａｎｇｄｏｎｇ　ＣＮ,,,,,,2023-06-05,1,,,,,グゥアンゾォウフェイビピジュユウゲンコウシ,0
1439,6010001235794,新規,0,2023-06-05,2023-06-05,ＪＳＦＰ　Ｅｌｅｖａｒ株式会社,,株式会社,東京都,千代田区,大手町２丁目２番２号,,13,101,1000004,,,,,,,2023-06-05,1,,,,,ジェイエスエフピーエレバー,0
1440,6010001235803,新規,0,2023-06-05,2023-06-05,オペレーショナルデザイン株式会社,,株式会社,東京都,千代田区,神田小川町２丁目１０番地３デュオ・スカーラ御茶ノ水８０１号,,13,101,1010052,,,,,,,2023-06-05,1,,,,,オペレーショナルデザイン,0
1441,6010001235836,新規,0,2023-06-05,2023-06-05,株式会社青島,,株式会社,東京都,中央区,勝どき５丁目３番１－５２２４号,,13,102,1040054,,,,,,,2023-06-05,1,,,,,アオシマ,0
1443,6010003040755,新規,0,2023-06-05,2023-06-05,ＡＩＡ東京０９合同会社,,合同会社,東京都,中央区,日本橋２丁目１番１８号,,13,102,1030027,,,,,,,2023-06-05,1,,,,,エーアイエートウキョウゼロキュウ,0
1444,6010003040763,新規,0,2023-06-05,2023-06-05,ＡＩＡ東京０１合同会社,,合同会社,東京都,中央区,日本橋２丁目１番１８号,,13,102,1030027,,,,,,,2023-06-05,1,,,,,エーアイエートウキョウゼロイチ,0
1449,6010005036784,新規,0,2023-06-05,2023-06-05,一般社団法人日本脊椎関連学会連携協議会,,その他の設立登記法人,東京都,文京区,本郷３丁目３８番１０号さかえビル２階ＢＩＺｃｏｍｆｏｒｔ本郷内,,13,105,1130033,,,,,,,2023-06-05,1,,,,,ニホンセキツイカンレンガッカイレンケイキョウギカイ,0
1450,6010103002151,新規,0,2023-06-05,2023-06-05,合同会社ＡＩＤ,,合同会社,東京都,八王子市,片倉町１２２１‐２０ハイツ川幡Ｂ２Ｆ,,13,201,1920914,,,,,,,2023-06-05,1,,,,,エイド,0
1455,6010401174741,新規,0,2023-06-05,2023-06-05,株式会社スーパーカンパニー,,株式会社,東京都,港区,北青山２丁目１２番２７号ハレクラニ北青山１Ｆ,,13,103,1070061,,,,,,,2023-06-05,1,,,,,スーパーカンパニー,0
1456,6010401174840,新規,0,2023-06-05,2023-06-05,株式会社オーイー・テック,,株式会社,東京都,港区,西新橋２丁目６番２号,,13,103,1050003,,,,,,,2023-06-05,1,,,,,オーイーテック,0
1463,6010403030257,新規,0,2023-06-05,2023-06-05,ＭＭインベストメンツ合同会社,,合同会社,東京都,港区,六本木１丁目６番１号泉ガーデンタワー,,13,103,1060032,,,,,,,2023-06-05,1,,,,,エムエムインベストメンツ,0
1468,6010501050545,新規,0,2023-06-05,2023-06-05,株式会社グリーンパーク,,株式会社,東京都,台東区,台東３丁目４３番１０－４０２号,,13,106,1100016,,,,,,,2023-06-05,1,,,,,グリーンパーク,0
1470,6010601063199,新規,0,2023-06-05,2023-06-05,深川工芸株式会社,,株式会社,東京都,江東区,猿江２丁目９番２号,,13,108,1350003,,,,,,,2023-06-05,1,,,,,フカガワコウゲイ,0
1474,6010703006725,新規,0,2023-06-05,2023-06-05,合同会社ＡｎｄＵｎｉｔｙ,,合同会社,東京都,品川区,平塚１丁目８番１３号,,13,109,1420051,,,,,,,2023-06-05,1,,,,,アンドユニティー,0
1478,6010903008208,新規,0,2023-06-05,2023-06-05,合同会社Ｏｒｔｈ　Ｎ,,合同会社,東京都,世田谷区,奥沢５丁目２３番１６－３０１号,,13,112,1580083,,,,,,,2023-06-05,1,,,,,オーソエヌ,0
1482,6011001154860,新規,0,2023-06-05,2023-06-05,株式会社Ｇｌｏｂｙ,,株式会社,東京都,渋谷区,神宮前６丁目２３番４号,,13,113,1500001,,,,,,,2023-06-05,1,,,,,グロービー,0
1485,6011005010110,新規,0,2023-06-05,2023-06-05,一般社団法人ライブコマース日中交流協会,,その他の設立登記法人,東京都,渋谷区,千駄ヶ谷２丁目１番８号Ｂａｒｂｉｚｏｎ８番館９階,,13,113,1510051,,,,,,,2023-06-05,1,,,,,ライブコマースニッチュウコウリュウキョウカイ,0
1492,6011103013106,新規,0,2023-06-05,2023-06-05,もも合同会社,,合同会社,東京都,新宿区,西新宿３丁目３番１３号西新宿水間ビル６階,,13,104,1600023,,,,,,,2023-06-05,1,,,,,モモ,0
1498,6011501029364,新規,0,2023-06-05,2023-06-05,ｔｒｉｃｙｃｌｅ株式会社,,株式会社,東京都,北区,王子本町２丁目１－１１,,13,117,1140022,,,,,,,2023-06-05,1,,,,,トリシクル,0
1507,6012403006014,新規,0,2023-06-05,2023-06-05,日新合同会社,,合同会社,東京都,小金井市,前原町５丁目８番１６号,,13,210,1840013,,,,,,,2023-06-05,1,,,,,ニッシン,0
1508,6012701017679,新規,0,2023-06-05,2023-06-05,株式会社グランテクト,,株式会社,東京都,清瀬市,野塩３丁目３９番地,,13,221,2040004,,,,,,,2023-06-05,1,,,,,グランテクト,0
1516,6020001151702,新規,0,2023-06-05,2023-06-05,株式会社エムシステム・６０,,株式会社,神奈川県,川崎市高津区,北見方２丁目３番７号,,14,134,2130005,,,,,,,2023-06-05,1,,,,,エムシステムロクジュウ,0
1517,6020001151842,新規,0,2023-06-05,2023-06-05,株式会社ＫＯＮサービス,,株式会社,神奈川県,横浜市緑区,中山１丁目２９番６－４１１号,,14,113,2260019,,,,,,,2023-06-05,1,,,,,コンサービス,0
1518,6020001151875,新規,0,2023-06-05,2023-06-05,株式会社ライズ,,株式会社,神奈川県,横浜市瀬谷区,南瀬谷１丁目８３番地２,,14,114,2460034,,,,,,,2023-06-05,1,,,,,ライズ,0
1519,6020001151883,新規,0,2023-06-05,2023-06-05,株式会社やすらぎ建物管理,,株式会社,神奈川県,横浜市磯子区,杉田２丁目１８番１号,,14,107,2350033,,,,,,,2023-06-05,1,,,,,ヤスラギタテモノカンリ,0
1520,6020001151891,新規,0,2023-06-05,2023-06-05,株式会社オリエンタルグレース,,株式会社,神奈川県,横浜市中区,山下町８０番地３横濱ディアタワー５０４号室,,14,104,2310023,,,,,,,2023-06-05,1,,,,,オリエンタルグレース,0
1521,6020001151966,新規,0,2023-06-05,2023-06-05,株式会社ＭＩＮＵＥＲＥ,,株式会社,神奈川県,川崎市幸区,中幸町３丁目３１番地２－９階,,14,132,2120012,,,,,,,2023-06-05,1,,,,,ミヌエール,0
1522,6020003023998,新規,0,2023-06-05,2023-06-05,合同会社Ｋ,,合同会社,神奈川県,横浜市都筑区,大棚町３００３番地６,,14,118,2240027,,,,,,,2023-06-05,1,,,,,ケイ,0
1528,6021003013163,新規,0,2023-06-05,2023-06-05,合同会社ＣＬＯＳＥＲ,,合同会社,神奈川県,相模原市中央区,南橋本２丁目４番１６－１００９号,,14,152,2520253,,,,,,,2023-06-05,1,,,,,クローザー,0
1532,6030001154225,新規,0,2023-06-05,2023-06-05,株式会社マルフク,,株式会社,埼玉県,飯能市,大字前ヶ貫２６６番地１０,,11,209,3570043,,,,,,,2023-06-05,1,,,,,マルフク,0
1539,6030003021869,新規,0,2023-06-05,2023-06-05,合同会社Ｆａｊｉｓｋ,,合同会社,埼玉県,さいたま市緑区,大間木２丁目１２番地２１,,11,109,3360923,,,,,,,2023-06-05,1,,,,,ファジスク,0
1540,6030003021885,新規,0,2023-06-05,2023-06-05,合同会社Ｌｃａｔ,,合同会社,埼玉県,川越市,大字寺尾１７４番地山茶花Ａ２０３号室,,11,201,3501141,,,,,,,2023-06-05,1,,,,,エルキャット,0
1545,6040001128590,新規,0,2023-06-05,2023-06-05,株式会社ＳｋｙＥａｒｔｈ,,株式会社,千葉県,松戸市,本町１７－１１芹澤ビル６Ｆ,,12,207,2710091,,,,,,,2023-06-05,1,,,,,スカイアース,0
1546,6040001128632,新規,0,2023-06-05,2023-06-05,株式会社山久,,株式会社,千葉県,船橋市,西船１丁目１８番２２号,,12,204,2730031,,,,,,,2023-06-05,1,,,,,サンキュウ,0
1547,6040001128640,新規,0,2023-06-05,2023-06-05,カズクリーン株式会社,,株式会社,千葉県,松戸市,小根本３９番地１－４０５号,,12,207,2710073,,,,,,,2023-06-05,1,,,,,カズクリーン,0
1548,6040001128657,新規,0,2023-06-05,2023-06-05,株式会社カイテック,,株式会社,千葉県,木更津市,ほたる野１丁目２９－７エレガンスヴィラ５０２,,12,206,2920038,,,,,,,2023-06-05,1,,,,,カイテック,0
1551,6040003022734,新規,0,2023-06-05,2023-06-05,合同会社Ｍｉｎｔｓ,,合同会社,千葉県,千葉市中央区,南町１丁目１４番２０号スイ―ティア１１４号,,12,101,2600842,,,,,,,2023-06-05,1,,,,,ミンツ,0
1552,6040005022022,新規,0,2023-06-05,2023-06-05,一般社団法人思いやり,,その他の設立登記法人,千葉県,千葉市緑区,古市場町３５３－１ソフィアクレールＢ１０５,,12,105,2660026,,,,,,,2023-06-05,1,,,,,,0
1553,6050005013276,新規,0,2023-06-05,2023-06-05,一般社団法人茨城県解体工事業協会,,その他の設立登記法人,茨城県,水戸市,吉沢町５６９番地８１,,08,201,3100845,,,,,,,2023-06-05,1,,,,,イバラキケンカイタイコウジギョウキョウカイ,0
1561,6070003004960,新規,0,2023-06-05,2023-06-05,東商合同会社,,合同会社,群馬県,前橋市,小相木町２７１クリスタルロック西棟１０４,,10,201,3710831,,,,,,,2023-06-05,1,,,,,トウショウ,0
1566,6080101024042,新規,0,2023-06-05,2023-06-05,株式会社ユーアンドアイワークス,,株式会社,静岡県,裾野市,今里５２３番地の１４,,22,220,4101104,,,,,,,2023-06-05,1,,,,,ユーアンドアイワークス,0
1571,6080401026507,新規,0,2023-06-05,2023-06-05,株式会社木ノ神,,株式会社,静岡県,浜松市東区,上西町５７番地の５,,22,132,4350048,,,,,,,2023-06-05,1,,,,,キノカミ,0
1572,6080401026515,新規,0,2023-06-05,2023-06-05,株式会社ＦＡＩ‐Ｄ,,株式会社,静岡県,浜松市南区,石原町４７７番地の２,,22,134,4350033,,,,,,,2023-06-05,1,,,,,ファイディー,0
1574,6100001036465,新規,0,2023-06-05,2023-06-05,株式会社松澤総業,,株式会社,長野県,上高井郡高山村,大字中山４３６８番地２８,,20,543,3820800,,,,,,,2023-06-05,1,,,,,マツザワソウギョウ,0
1575,6100003007043,新規,0,2023-06-05,2023-06-05,合同会社向屋,,合同会社,長野県,東筑摩郡山形村,１７２１番地１,,20,450,3901301,,,,,,,2023-06-05,1,,,,,ムカイヤ,0
1586,6120001255261,新規,0,2023-06-05,2023-06-05,Ｆｒｅｅ　Ｌｉｆｅ株式会社,,株式会社,大阪府,大阪市西成区,天下茶屋１丁目４番４号Ａ２,,27,122,5570014,,,,,,,2023-06-05,1,,,,,フリーライフ,0
1587,6120001255303,新規,0,2023-06-05,2023-06-05,孟夢株式会社,,株式会社,大阪府,大阪市生野区,巽北１丁目１番１号３Ｆ－Ｄ,,27,116,5440004,,,,,,,2023-06-05,1,,,,,モウム,0
1588,6120001255369,新規,0,2023-06-05,2023-06-05,有米株式会社,,株式会社,大阪府,大阪市福島区,福島５丁目１４番１４号２階,,27,103,5530003,,,,,,,2023-06-05,1,,,,,ユウマイ,0
1589,6120001255427,新規,0,2023-06-05,2023-06-05,梵一株式会社,,株式会社,大阪府,大阪市西区,九条３丁目１９番３０号,,27,106,5500027,,,,,,,2023-06-05,1,,,,,ボンイチ,0
1590,6120001255435,新規,0,2023-06-05,2023-06-05,株式会社エステートアセット,,株式会社,大阪府,大阪市中央区,博労町１丁目７番１５号,,27,128,5410059,,,,,,,2023-06-05,1,,,,,エステートアセット,0
1595,6120101067656,新規,0,2023-06-05,2023-06-05,オーエム技建株式会社,,株式会社,大阪府,泉大津市,曽根町１丁目３番１０号,,27,206,5950011,,,,,,,2023-06-05,1,,,,,オーエムギケン,0
1606,6122001037037,新規,0,2023-06-05,2023-06-05,株式会社クローバー,,株式会社,大阪府,東大阪市,上四条町２０番３３号,,27,227,5798052,,,,,,,2023-06-05,1,,,,,クローバー,0
1614,6130001074446,新規,0,2023-06-05,2023-06-05,Ｎ　ＴＥＡ　ＴＲＡＤＩＮＧ株式会社,,株式会社,京都府,相楽郡和束町,大字中小字平田７５番地９,,26,365,6191205,,,,,,,2023-06-05,1,,,,,エヌティートレーディング,0
1615,6130001074454,新規,0,2023-06-05,2023-06-05,株式会社大栄印刷,,株式会社,京都府,宇治市,伊勢田町中ノ田３７番地の１０８,,26,204,6110043,,,,,,,2023-06-05,1,,,,,ダイエイインサツ,0
1620,6130003008765,新規,0,2023-06-05,2023-06-05,合同会社あおいろ大作戦,,合同会社,京都府,京都市下京区,朱雀宝蔵町４４番地協栄ビル２階京都朱雀スタジオ,,26,106,6008846,,,,,,,2023-06-05,1,,,,,アオイロダイサクセン,0
1628,6140003019167,新規,0,2023-06-05,2023-06-05,合同会社ｆｉｇ,,合同会社,兵庫県,高砂市,米田町米田９２番地２エクレール１０３号,,28,216,6760805,,,,,,,2023-06-05,1,,,,,フィグ,0
1631,6150001026437,新規,0,2023-06-05,2023-06-05,株式会社ハウスラック,,株式会社,奈良県,奈良市,あやめ池北３丁目６番１号,,29,201,6310032,,,,,,,2023-06-05,1,,,,,ハウスラック,0
1633,6160001025074,新規,0,2023-06-05,2023-06-05,株式会社ＢｉＢｉ,,株式会社,滋賀県,長浜市,東上坂町６２２番地３,,25,203,5260802,,,,,,,2023-06-05,1,,,,,ビビ,0
1634,6160001025090,新規,0,2023-06-05,2023-06-05,株式会社速水林業,,株式会社,滋賀県,長浜市,小谷郡上町５０５番地,,25,203,5290312,,,,,,,2023-06-05,1,,,,,,0
1635,6170001017632,新規,0,2023-06-05,2023-06-05,株式会社ストリクス,,株式会社,和歌山県,和歌山市,湊通丁南１丁目３－１－３０２,,30,201,6408281,,,,,,,2023-06-05,1,,,,,ストリクス,0
1642,6180001156545,新規,0,2023-06-05,2023-06-05,株式会社ヨシノホールディングス,,株式会社,愛知県,春日井市,篠木町３丁目１２８２番地５,,23,206,4860851,,,,,,,2023-06-05,1,,,,,ヨシノホールディングス,0
1643,6180001156578,新規,0,2023-06-05,2023-06-05,株式会社Ｙ’ｓ　ｐａｒｔｎｅｒ,,株式会社,愛知県,名古屋市名東区,一社１丁目１２５番地浅野ビル１Ｆ,,23,115,4650093,,,,,,,2023-06-05,1,,,,,ワイズパートナー,0
1644,6180001156594,新規,0,2023-06-05,2023-06-05,ＵＵＢ株式会社,,株式会社,愛知県,名古屋市港区,知多２丁目１６０４番地,,23,111,4550883,,,,,,,2023-06-05,1,,,,,ユーユービー,0
1645,6180001156603,新規,0,2023-06-05,2023-06-05,株式会社グレース,,株式会社,愛知県,名古屋市瑞穂区,密柑山町１丁目７８番地,,23,108,4670041,,,,,,,2023-06-05,1,,,,,グレース,0
1660,6220001025448,新規,0,2023-06-05,2023-06-05,株式会社上田建材工業,,株式会社,石川県,金沢市,泉本町６丁目５８番地６,,17,201,9218042,,,,,,,2023-06-05,1,,,,,ウエダケンザイコウギョウ,0
1667,6240001061598,新規,0,2023-06-05,2023-06-05,株式会社ＦＡＲＭＥＲＳ　ＰＲＯＦＩＴ,,株式会社,広島県,広島市西区,商工センター４丁目７番１８号,,34,104,7330833,,,,,,,2023-06-05,1,,,,,ファーマーズプロフィット,0
1668,6240001061607,新規,0,2023-06-05,2023-06-05,株式会社景浦住設,,株式会社,広島県,広島市中区,江波本町６番２３号,,34,101,7300833,,,,,,,2023-06-05,1,,,,,カゲウラジュウセツ,0
1672,6240003006163,新規,0,2023-06-05,2023-06-05,合同会社ｎｉｔｏのアトリエ,,合同会社,広島県,広島市安佐南区,大塚西３丁目１３－１２－２０２,,34,105,7313167,,,,,,,2023-06-05,1,,,,,ニトノアトリエ,0
1676,6260001038000,新規,0,2023-06-05,2023-06-05,盛加商事株式会社,,株式会社,岡山県,瀬戸内市,牛窓町鹿忍８４７番地９９,,33,212,7014303,,,,,,,2023-06-05,1,,,,,セイカショウジ,0
1677,6260001038009,新規,0,2023-06-05,2023-06-05,株式会社アンドディレクション,,株式会社,岡山県,岡山市北区,撫川１３２７－４,,33,101,7010164,,,,,,,2023-06-05,1,,,,,アンドディレクション,0
1680,6280001008950,新規,0,2023-06-05,2023-06-05,株式会社ジェイシー企画,,株式会社,島根県,松江市,佐草町５８７番地３,,32,201,6900035,,,,,,,2023-06-05,1,,,,,ジェイシーキカク,0
1681,6290001101770,新規,0,2023-06-05,2023-06-05,株式会社森造園業,,株式会社,福岡県,久留米市,高良内町３１０４番地８,,40,203,8390852,,,,,,,2023-06-05,1,,,,,モリゾウエンギョウ,0
1682,6290001101779,新規,0,2023-06-05,2023-06-05,株式会社ＹＭインベストメント,,株式会社,福岡県,太宰府市,宰都１丁目１２番７号,,40,221,8180139,,,,,,,2023-06-05,1,,,,,ワイエムインベストメント,0
1686,6290801029575,新規,0,2023-06-05,2023-06-05,株式会社輝建,,株式会社,福岡県,北九州市若松区,本町３丁目１番１６号,,40,103,8080034,,,,,,,2023-06-05,1,,,,,テルケン,0
1687,6290803004428,新規,0,2023-06-05,2023-06-05,合同会社ペンギン,,合同会社,福岡県,北九州市若松区,栄盛川町５番２号,,40,103,8080014,,,,,,,2023-06-05,1,,,,,ペンギン,0
1688,6310001018442,新規,0,2023-06-05,2023-06-05,株式会社ヤマグチ,,株式会社,長崎県,佐世保市,有福町４１５０番地３,,42,202,8593241,,,,,,,2023-06-05,1,,,,,ヤマグチ,0
1689,6310001018450,新規,0,2023-06-05,2023-06-05,株式会社ストラクトエンジニアリング,,株式会社,長崎県,諫早市,多良見町木床１５９５番地,,42,204,8590406,,,,,,,2023-06-05,1,,,,,ストラクトエンジニアリング,0
1690,6320001019803,新規,0,2023-06-05,2023-06-05,日本警備株式会社,,株式会社,大分県,別府市,北浜３丁目１３番３号,,44,202,8740920,,,,,,,2023-06-05,1,,,,,ニホンケイビ,0
1692,6330001030916,新規,0,2023-06-05,2023-06-05,株式会社令和防災システム,,株式会社,熊本県,熊本市北区,清水新地２丁目６番７号,,43,105,8618075,,,,,,,2023-06-05,1,,,,,レイワボウサイシステム,0
1697,6340001025626,新規,0,2023-06-05,2023-06-05,株式会社アフェクト,,株式会社,鹿児島県,薩摩川内市,尾白江町３６９６番地６,,46,215,8950035,,,,,,,2023-06-05,1,,,,,アフェクト,0
1706,6360001032100,新規,0,2023-06-05,2023-06-05,株式会社畑人,,株式会社,沖縄県,糸満市,字座波１８１３番地１,,47,210,9010314,,,,,,,2023-06-05,1,,,,,ハルンチュ,0
1707,6360001032117,新規,0,2023-06-05,2023-06-05,ワンアップサービス株式会社,,株式会社,沖縄県,国頭郡宜野座村,字松田２４３３番地,,47,313,9041301,,,,,,,2023-06-05,1,,,,,ワンアップサービス,0
1729,6430001089257,新規,0,2023-06-05,2023-06-05,株式会社ＹＯＮＩＤＡＳＵ,,株式会社,北海道,札幌市北区,拓北五条３丁目９番１５号,,01,102,0028065,,,,,,,2023-06-05,1,,,,,ヨニダス,0
1730,6430001089265,新規,0,2023-06-05,2023-06-05,株式会社ＳＫＹＬＩＮＥ,,株式会社,北海道,札幌市白石区,南郷通５丁目北５番２５－１０２号,,01,104,0030023,,,,,,,2023-06-05,1,,,,,スカイライン,0
1734,6430003015104,新規,0,2023-06-05,2023-06-05,Ｅ．Ｋコーポレーション合同会社,,合同会社,北海道,札幌市南区,南三十六条西１０丁目２番１４号,,01,106,0050036,,,,,,,2023-06-05,1,,,,,イーケイコーポレーション,0
1735,6430003015112,新規,0,2023-06-05,2023-06-05,合同会社Ｋ,,合同会社,北海道,札幌市中央区,南六条西５丁目１０番地１アイビル６・５６階,,01,101,0640806,,,,,,,2023-06-05,1,,,,,ケー,0
1740,6460101007388,新規,0,2023-06-05,2023-06-05,株式会社ＳＴＲＩＶＥＴＳ,,株式会社,北海道,帯広市,公園東町４丁目５番地１３,,01,207,0800847,,,,,,,2023-06-05,1,,,,,ストライベッツ,0
1743,6470003002437,新規,0,2023-06-05,2023-06-05,合同会社ソルマート,,合同会社,香川県,仲多度郡琴平町,上櫛梨６１４番地２,,37,403,7660006,,,,,,,2023-06-05,1,,,,,ソルマート,0
1746,6480001012115,新規,0,2023-06-05,2023-06-05,株式会社ＢＹＣ　ＥＮＴＥＲＴＡＩＮＭＥＮＴ,,株式会社,徳島県,徳島市,川内町加賀須野３７４－４－２Ｆ,,36,201,7710130,,,,,,,2023-06-05,1,,,,,ビーワイシーエンターテイメント,0
1748,6700150116866,新規,0,2023-06-05,2023-06-05,Ｙａｎ　ＨＵ　ＱＵ　Ｆｅｉ　Ｙｕｅ　Ｇｏｕ　Ｋｅ　Ｊｉ　Ｙｏｕ　Ｘｉａｎ　Ｇｏｎｇ　Ｓｉ,,外国会社等,,,,,,,,ｙｕｎ　ｃｈｅｎｇ　ｓｈｉ　ｙａｎ　ｈｕ　ｑｕ　ｈｅ　ｄｏｎｇ　ｄｏｎｇ　ｊｉｅ　ｈｅ　ｄｏｎｇ　ｃｈｕａｎｇ　ｙｅ　ｂａｎｇ　ｃｈｕａｎｇ　ｙｅ　ｆｕ　ｈｕａ　ｊｉ　ｄｉ　１２　ｌｏｕ　１２２６　ｓｈｉ,,,,,,2023-06-05,1,,,,,イェンフクフェイユエゴォウケジユウゲンコウシ,0
1749,6700150116874,新規,0,2023-06-05,2023-06-05,Ｓｈｅｎｚｈｅｎ　Ｙｉｍｅｉ　Ｎｅｔｗｏｒｋ　Ｔｅｃｈｎｏｌｏｇｙ　Ｃｏ．，Ｌｔｄ．,,外国会社等,,,,,,,,３０６　Ｈｏｎｇｂｏ　Ｂｕｉｌｄｉｎｇ，Ｎｏ．１０　Ｈｏｎｇｈｕ　１ｓｔ　Ｓｔｒｅｅｔ，Ｈｕｊｉｎｇ　Ｃｏｍｍｕｎｉｔｙ，Ｓｕｎｇａｎｇ　Ｓｔｒｅｅｔ，Ｌｕｏｈｕ　Ｄｉｓｔｒｉｃｔ，Ｓｈｅｎｚｈｅｎ,,,,,,2023-06-05,1,,,,,シェンジェンシーイーメイワンルオコージーヨウシエンゴンスー,0
1750,6700150116882,新規,0,2023-06-05,2023-06-05,ｙｉｎｇｋｅｌｉｄａ　ｓｈｕｚｉｊｉｓｈｕ　ｓｈａｎｄｏｎｇ　ｙｏｕｘｉａｎｇｏｎｇｓｉ,,外国会社等,,,,,,,,Ｊｉｍｏｑｕｌａｎｇｕｇａｏｘｉｎｑｕｓｈａｎｙｕｎｌｕ３２７ｈａｏ　Ｊｉｍｏｚｏｎｇｈｅｂａｏｓｈｕｉｑｕｂａｎｇｏｎｇｌｏｕ４１９　ｑｉｎｇｄａｏ　ｓｈａｎｄｏｎｇ,,,,,,2023-06-05,1,,,,,インケリダシュジジシュシャンドンユウゲンコウシ,0
1751,6700150116899,新規,0,2023-06-05,2023-06-05,Ｓｈａｎｇｈａｉ　Ｂｉｆｕ　Ｅｄｕｃａｔｉｏｎ　Ｔｅｃｈｎｏｌｏｇｙ　Ｃｏ．，Ｌｔｄ,,外国会社等,,,,,,,,ＺｉＹｏｕＭａｏＹｉＳｈｉＹａｎＱｕ，ＬｉｎＧａｎｇＸｉｎＰｉａｎＱｕ　ＹｕｎＨａｎＬｕ　９７９　Ｈａｏ　２　Ｌｏｕ　Ｓｈａｎｇｈａｉ　Ｓｈａｎｇｈａｉ　ＣＮ,,,,,,2023-06-05,1,,,,,シャンハイビフエデュケイションテクナロジーカンパニーリシテッド,0
1756,7010001235785,新規,0,2023-06-05,2023-06-05,株式会社ＡＣＤＸＳＳ,,株式会社,東京都,千代田区,丸の内１丁目８番３号,,13,101,1000005,,,,,,,2023-06-05,1,,,,,エーシーディクス,0
1757,7010001235819,新規,0,2023-06-05,2023-06-05,株式会社リールピーク,,株式会社,東京都,中央区,銀座１丁目１２番４号,,13,102,1040061,,,,,,,2023-06-05,1,,,,,リールピーク,0
1758,7010001235851,新規,0,2023-06-05,2023-06-05,プレソフトジャパン株式会社,,株式会社,東京都,千代田区,九段南１丁目６番１７号千代田会館４階,,13,101,1020074,,,,,,,2023-06-05,1,,,,,プレソフトジャパン,0
1765,7010003040762,新規,0,2023-06-05,2023-06-05,ＡＩＡ東京０２合同会社,,合同会社,東京都,中央区,日本橋２丁目１番１８号,,13,102,1030027,,,,,,,2023-06-05,1,,,,,エーアイエートウキョウゼロニ,0
1766,7010003040770,新規,0,2023-06-05,2023-06-05,合同会社灯,,合同会社,東京都,中央区,銀座１丁目２２番１１号銀座大竹ビジデンス２Ｆ,,13,102,1040061,,,,,,,2023-06-05,1,,,,,アカリ,0
1780,7010401174740,新規,0,2023-06-05,2023-06-05,結婚相談所ジャパンマリッジ株式会社,,株式会社,東京都,港区,白金台３丁目１９番１号,,13,103,1080071,,,,,,,2023-06-05,1,,,,,ケッコンソウダンジョジャパンマリッジ,0
1788,7010601063215,新規,0,2023-06-05,2023-06-05,星辰テック株式会社,,株式会社,東京都,江東区,豊洲５丁目６－２９－１０１２,,13,108,1350061,,,,,,,2023-06-05,1,,,,,スターテック,0
1789,7010603010181,新規,0,2023-06-05,2023-06-05,アミリアネクスト合同会社,,合同会社,東京都,墨田区,両国３丁目６番３－２０２号,,13,107,1300026,,,,,,,2023-06-05,1,,,,,アミリアネクスト,0
1796,7010901053171,新規,0,2023-06-05,2023-06-05,株式会社カーデミー・ジャパン,,株式会社,東京都,世田谷区,下馬１丁目１９番１７号,,13,112,1540002,,,,,,,2023-06-05,1,,,,,カーデミージャパン,0
1805,7011001154810,新規,0,2023-06-05,2023-06-05,株式会社Ｔｉｐｈｅｒｅｔｈ,,株式会社,東京都,渋谷区,渋谷２丁目１番１号,,13,113,1500002,,,,,,,2023-06-05,1,,,,,ティファレト,0
1806,7011003016942,新規,0,2023-06-05,2023-06-05,合同会社アルペジオ,,合同会社,東京都,渋谷区,神宮前６丁目２３番４号桑野ビル２階,,13,113,1500001,,,,,,,2023-06-05,1,,,,,アルペジオ,0
1807,7011101103097,新規,0,2023-06-05,2023-06-05,株式会社Ｏｆｆｉｃｅ３７・シェアーズ,,株式会社,東京都,新宿区,新宿３丁目３５番６号新宿ＡＵＮビル７階,,13,104,1600022,,,,,,,2023-06-05,1,,,,,オフィスサンナナシェアーズ,0
1808,7011101103114,新規,0,2023-06-05,2023-06-05,株式会社リバースカイネットワーク,,株式会社,東京都,新宿区,西新宿３丁目３番１３号西新宿水間ビル６階,,13,104,1600023,,,,,,,2023-06-05,1,,,,,リバースカイネットワーク,0
1809,7011101103122,新規,0,2023-06-05,2023-06-05,株式会社東京会計コンサルティング,,株式会社,東京都,新宿区,新宿１丁目５番１号新宿御苑ビル３階,,13,104,1600022,,,,,,,2023-06-05,1,,,,,トウキョウカイケイコンサルティング,0
1814,7011301028755,新規,0,2023-06-05,2023-06-05,株式会社Ｎｉｊｉｙｕｉｒａ,,株式会社,東京都,杉並区,高井戸東３丁目２８番３８号,,13,115,1680072,,,,,,,2023-06-05,1,,,,,ニジユイラ,0
1817,7011501029388,新規,0,2023-06-05,2023-06-05,株式会社ＮｅｗＴｉｄｅ,,株式会社,東京都,荒川区,東日暮里４丁目２４番１５号,,13,118,1160014,,,,,,,2023-06-05,1,,,,,ニュータイド,0
1818,7011503005627,新規,0,2023-06-05,2023-06-05,合同会社エフネットサービス,,合同会社,東京都,北区,田端２丁目１番１８号,,13,117,1140014,,,,,,,2023-06-05,1,,,,,,0
1820,7011801042504,新規,0,2023-06-05,2023-06-05,株式会社ともふじ,,株式会社,東京都,葛飾区,新小岩１丁目５６番５号,,13,122,1240024,,,,,,,2023-06-05,1,,,,,トモフジ,0
1822,7012401040591,新規,0,2023-06-05,2023-06-05,テクノベース株式会社,,株式会社,東京都,稲城市,東長沼２１０６番地の５,,13,225,2060802,,,,,,,2023-06-05,1,,,,,テクノベース,0
1823,7012403006013,新規,0,2023-06-05,2023-06-05,合同会社晴凪,,合同会社,東京都,小金井市,貫井北町３丁目３３番１０－１０１号シンコーハイム小金井,,13,210,1840015,,,,,,,2023-06-05,1,,,,,ハレナギ,0
1824,7012701017678,新規,0,2023-06-05,2023-06-05,二瓶匠創株式会社,,株式会社,東京都,西東京市,中町４丁目３番２２号,,13,229,2020013,,,,,,,2023-06-05,1,,,,,ニヘイショウソウ,0
1834,7020001151858,新規,0,2023-06-05,2023-06-05,ＣｏＣｏＢｉｔ株式会社,,株式会社,神奈川県,横浜市中区,西竹之丸２６番地１,,14,104,2310852,,,,,,,2023-06-05,1,,,,,ココビット,0
1835,7020001151866,新規,0,2023-06-05,2023-06-05,株式会社ＬＩＴ,,株式会社,神奈川県,横浜市保土ケ谷区,法泉１丁目１８番６号,,14,106,2400032,,,,,,,2023-06-05,1,,,,,リット,0
1844,7021005012831,新規,0,2023-06-05,2023-06-05,一般社団法人ｍｏｔｈｅｒ　ｈａ．ｈａ,,その他の設立登記法人,神奈川県,鎌倉市,佐助１丁目８番１８号,,14,204,2480017,,,,,,,2023-06-05,1,,,,,マザーハハ,0
1846,7030001154224,新規,0,2023-06-05,2023-06-05,株式会社ＫＳファシリティ,,株式会社,埼玉県,上尾市,緑丘２丁目１０番３０－３号,,11,219,3620015,,,,,,,2023-06-05,1,,,,,ケイエスファシリティ,0
1847,7030001154232,新規,0,2023-06-05,2023-06-05,株式会社浜中電化,,株式会社,埼玉県,越谷市,千間台西２丁目１６番地１１,,11,222,3430041,,,,,,,2023-06-05,1,,,,,ハマナカデンカ,0
1848,7030003021876,新規,0,2023-06-05,2023-06-05,合同会社ＳｕｎＲｉｃｈ,,合同会社,埼玉県,上尾市,大字上１７８０―２,,11,219,3620001,,,,,,,2023-06-05,1,,,,,サンリッチ,0
1850,7040001128607,新規,0,2023-06-05,2023-06-05,株式会社ＰＲＯＧＲＥＳＳＩＶＥ,,株式会社,千葉県,我孫子市,布佐９８９番地の４,,12,222,2701101,,,,,,,2023-06-05,1,,,,,プログレッシブ,0
1851,7040001128664,新規,0,2023-06-05,2023-06-05,株式会社クリーンパートナー,,株式会社,千葉県,印西市,亀成１５７,,12,231,2701362,,,,,,,2023-06-05,1,,,,,クリーンパートナー,0
1853,7040003022733,新規,0,2023-06-05,2023-06-05,合同会社ＵＰＳ,,合同会社,千葉県,松戸市,北松戸１丁目２番地の６,,12,207,2710063,,,,,,,2023-06-05,1,,,,,ユーピーエス,0
1854,7050003007551,新規,0,2023-06-05,2023-06-05,合同会社ＷＣ,,合同会社,茨城県,石岡市,旭台３丁目２１－９石川店舗０００１号室,,08,205,3150038,,,,,,,2023-06-05,1,,,,,ダブルシー,0
1855,7050005013275,新規,0,2023-06-05,2023-06-05,一般社団法人ＢＣつくば,,その他の設立登記法人,茨城県,つくば市,高見原１丁目６番地１５８,,08,220,3001252,,,,,,,2023-06-05,1,,,,,,0
1857,7070001040503,新規,0,2023-06-05,2023-06-05,株式会社ユニオン,,株式会社,群馬県,前橋市,総社町総社１３１３番地１,,10,201,3710852,,,,,,,2023-06-05,1,,,,,ユニオン,0
1858,7070001040511,新規,0,2023-06-05,2023-06-05,株式会社ＡＸＬ,,株式会社,群馬県,前橋市,元総社町２丁目２２番地１３メゾンプルミエ１０３号,,10,201,3710846,,,,,,,2023-06-05,1,,,,,アクセル,0
1860,7070003004968,新規,0,2023-06-05,2023-06-05,リレイ合同会社,,合同会社,群馬県,前橋市,六供町６６９番地１３ビバーチェＣ号室,,10,201,3710804,,,,,,,2023-06-05,1,,,,,リレイ,0
1862,7080001025643,新規,0,2023-06-05,2023-06-05,株式会社ツギアスパートナーズ,,株式会社,静岡県,静岡市葵区,鷹匠２丁目８－１０,,22,101,4200839,,,,,,,2023-06-05,1,,,,,ツギアスパートナーズ,0
1864,7080401026514,新規,0,2023-06-05,2023-06-05,株式会社はなまる電気,,株式会社,静岡県,浜松市東区,中野町４２０５番地の１,,22,132,4350004,,,,,,,2023-06-05,1,,,,,ハナマルデンキ,0
1865,7090001018167,新規,0,2023-06-05,2023-06-05,株式会社おんみつわいんず,,株式会社,山梨県,北杜市,須玉町小倉４１４２番地,,19,209,4080104,,,,,,,2023-06-05,1,,,,,オンミツワインズ,0
1872,7110001037585,新規,0,2023-06-05,2023-06-05,株式会社ＹＯＬＯ,,株式会社,新潟県,新潟市中央区,本町通１４番町３０６３番地１ダイアパレス本町第３、８０７号,,15,103,9518067,,,,,,,2023-06-05,1,,,,,ヨロ,0
1881,7120001255302,新規,0,2023-06-05,2023-06-05,ＡＳＯＢＩ株式会社,,株式会社,大阪府,大阪市浪速区,湊町２丁目２－５なんばセントラルプラザリバーガーデン４１７号室,,27,111,5560017,,,,,,,2023-06-05,1,,,,,アソビ,0
1882,7120001255401,新規,0,2023-06-05,2023-06-05,株式会社ＩＮＳＥＮＳＥ,,株式会社,大阪府,大阪市西区,新町１丁目１２番７号１３０１,,27,106,5500013,,,,,,,2023-06-05,1,,,,,インセンス,0
1883,7120001255418,新規,0,2023-06-05,2023-06-05,株式会社ＯＮＥＮＥＳＳ,,株式会社,大阪府,大阪市阿倍野区,昭和町１丁目９番６号,,27,119,5450011,,,,,,,2023-06-05,1,,,,,ワンネス,0
1887,7120003024218,新規,0,2023-06-05,2023-06-05,合同会社ＢｅＳｉｍｐｌｅ,,合同会社,大阪府,大阪市淀川区,塚本２丁目１－２５コーポミツワ３０１,,27,123,5320026,,,,,,,2023-06-05,1,,,,,ビーシンプル,0
1890,7120105009728,新規,0,2023-06-05,2023-06-05,一般社団法人かなう,,その他の設立登記法人,大阪府,岸和田市,西之内町３１番１２号,,27,202,5960044,,,,,,,2023-06-05,1,,,,,カナウ,0
1891,7122001037036,新規,0,2023-06-05,2023-06-05,株式会社ＴＡＮＡＢＥ,,株式会社,大阪府,東大阪市,鴻池本町１番２４号,,27,227,5780971,,,,,,,2023-06-05,1,,,,,タナベ,0
1896,7130001074453,新規,0,2023-06-05,2023-06-05,株式会社ホワイトクラン,,株式会社,京都府,京都市山科区,東野中井ノ上町２番地２１マルイハイツ１階,,26,110,6078142,,,,,,,2023-06-05,1,,,,,ホワイトクラン,0
1901,7130002035801,新規,0,2023-06-05,2023-06-05,有限会社八尾鹿,,有限会社,京都府,京都市下京区,五条通寺町西入御影堂町９番地１,,26,106,6008101,,,,,,,2023-06-05,1,,,,,ヤオシカ,0
1908,7140005026648,新規,0,2023-06-05,2023-06-05,一般社団法人ＢＥＳＩＤＥ　ＹＯＵ,,その他の設立登記法人,兵庫県,神戸市垂水区,北舞子４丁目１１６１－６、７,,28,108,6550045,,,,,,,2023-06-05,1,,,,,ビサイドユー,0
1911,7160001025073,新規,0,2023-06-05,2023-06-05,株式会社Ｗｈｅｒｅ　Ｖｅｒｓｅ,,株式会社,滋賀県,大津市,大将軍１丁目８番１号ＴＳサニーコーポ１・１０１,,25,201,5202145,,,,,,,2023-06-05,1,,,,,ウェアバース,0
1912,7160001025081,新規,0,2023-06-05,2023-06-05,株式会社トーゲン,,株式会社,滋賀県,長浜市,宮司町９１２番地１,,25,203,5260831,,,,,,,2023-06-05,1,,,,,トーゲン,0
1917,7180001156552,新規,0,2023-06-05,2023-06-05,株式会社康建築,,株式会社,愛知県,名古屋市天白区,野並２丁目１７９番地の３,,23,116,4680045,,,,,,,2023-06-05,1,,,,,コウケンチク,0
1918,7180001156569,新規,0,2023-06-05,2023-06-05,株式会社ＴＡＨ,,株式会社,愛知県,西春日井郡豊山町,大字豊場字青塚屋敷２１番地,,23,342,4800202,,,,,,,2023-06-05,1,,,,,ティーエーエイチ,0
1919,7180001156593,新規,0,2023-06-05,2023-06-05,株式会社ｓｍｉｌｅｙ,,株式会社,愛知県,名古屋市西区,稲生町３丁目３４番地,,23,104,4510012,,,,,,,2023-06-05,1,,,,,スマイリー,0
1925,7190001030459,新規,0,2023-06-05,2023-06-05,株式会社ファクトエンジ,,株式会社,三重県,三重郡菰野町,大字菰野７３５番地１,,24,341,5101233,,,,,,,2023-06-05,1,,,,,ファクトエンジ,0
1926,7190003004337,新規,0,2023-06-05,2023-06-05,合同会社ＣＯＦＦＥＥ　ＦＡＭＩＬＹ,,合同会社,三重県,松阪市,嬉野中川新町４丁目３４番地,,24,204,5152325,,,,,,,2023-06-05,1,,,,,コーヒーファミリー,0
1927,7190005011827,新規,0,2023-06-05,2023-06-05,一般社団法人ＷＣＧ,,その他の設立登記法人,三重県,度会郡度会町,棚橋１２５４番地１,,24,470,5162103,,,,,,,2023-06-05,1,,,,,ダブリューシージー,0
1929,7200001041371,新規,0,2023-06-05,2023-06-05,株式会社Ｈ．Ｋ．チャイルド,,株式会社,岐阜県,岐阜市,古市場５１９番地,,21,201,5011121,,,,,,,2023-06-05,1,,,,,エイチケイチャイルド,0
1931,7210001019334,新規,0,2023-06-05,2023-06-05,株式会社ｏｋ’ｃｒａｆｔ,,株式会社,福井県,鯖江市,落井町第３７号６番地１,,18,207,9161115,,,,,,,2023-06-05,1,,,,,オーケークラフト,0
1934,7220001025439,新規,0,2023-06-05,2023-06-05,株式会社エスワイエス,,株式会社,石川県,河北郡内灘町,字大根布９丁目７３番地,,17,365,9200266,,,,,,,2023-06-05,1,,,,,エスワイエス,0
1939,7240001061606,新規,0,2023-06-05,2023-06-05,株式会社ＡＫＡＩ,,株式会社,広島県,廿日市市,宮島口４丁目３番４１号,,34,213,7390411,,,,,,,2023-06-05,1,,,,,アカイ,0
1940,7240001061614,新規,0,2023-06-05,2023-06-05,株式会社シグマ,,株式会社,広島県,広島市安佐南区,毘沙門台３丁目６番１７号,,34,105,7310152,,,,,,,2023-06-05,1,,,,,シグマ,0
1941,7240001061630,新規,0,2023-06-05,2023-06-05,トップ株式会社,,株式会社,広島県,広島市安佐南区,山本新町３丁目３８番２号,,34,105,7310139,,,,,,,2023-06-05,1,,,,,,0
1950,7290001101786,新規,0,2023-06-05,2023-06-05,株式会社ｋｅｓｈｉｋｉ,,株式会社,福岡県,福岡市中央区,大名１丁目１番３３号大名ＭＩビル２Ｆ,,40,133,8100041,,,,,,,2023-06-05,1,,,,,ケシキ,0
1951,7290001101794,新規,0,2023-06-05,2023-06-05,株式会社ＢＳＣ,,株式会社,福岡県,久留米市,上津２丁目９番３５号,,40,203,8300055,,,,,,,2023-06-05,1,,,,,ビーエスシー,0
1952,7290001101811,新規,0,2023-06-05,2023-06-05,株式会社Ｋコーポレーション,,株式会社,福岡県,福岡市博多区,祇園町８番１３－７２０号,,40,132,8120038,,,,,,,2023-06-05,1,,,,,ケイコーポレーション,0
1957,7290003013996,新規,0,2023-06-05,2023-06-05,合同会社アンドチューン,,合同会社,福岡県,福岡市中央区,六本松４丁目４番１２号,,40,133,8100044,,,,,,,2023-06-05,1,,,,,アンドチューン,0
1958,7290801029574,新規,0,2023-06-05,2023-06-05,株式会社スローライフ,,株式会社,福岡県,遠賀郡遠賀町,松の本３丁目６番１０号,,40,384,8114305,,,,,,,2023-06-05,1,,,,,スローライフ,0
1962,7310001018441,新規,0,2023-06-05,2023-06-05,株式会社中村工業,,株式会社,長崎県,佐世保市,陣の内町６７６番地２西陣ストリート１０４,,42,202,8593203,,,,,,,2023-06-05,1,,,,,ナカムラコウギョウ,0
1963,7320001019802,新規,0,2023-06-05,2023-06-05,株式会社イー・パレット,,株式会社,大分県,大分市,大字旦野原２００番地の１０,,44,201,8701124,,,,,,,2023-06-05,1,,,,,イーパレット,0
1964,7320001019810,新規,0,2023-06-05,2023-06-05,株式会社ＴＯＭＩＭＩＴＳＵ,,株式会社,大分県,大分市,三ケ田町１丁目８番２８－１０５号,,44,201,8700888,,,,,,,2023-06-05,1,,,,,トミミツ,0
1967,7340001025625,新規,0,2023-06-05,2023-06-05,株式会社ＳＯＵＴＨ,,株式会社,鹿児島県,薩摩川内市,五代町１８５７番地３,,46,215,8950066,,,,,,,2023-06-05,1,,,,,サウス,0
1969,7350001018388,新規,0,2023-06-05,2023-06-05,株式会社Ｚｅｒｏ　Ｏｎｅ　Ｓｔａｇｅ,,株式会社,宮崎県,宮崎市,柳丸町１４５番地３,,45,201,8800844,,,,,,,2023-06-05,1,,,,,ゼロワンステージ,0
1970,7350001018396,新規,0,2023-06-05,2023-06-05,株式会社Ｔ’ｓ　Ａｕｔｏ　Ｓｅｒｖｉｃｅ,,株式会社,宮崎県,宮崎市,大字塩路４００番地１,,45,201,8800122,,,,,,,2023-06-05,1,,,,,ティーズオートサービス,0
1971,7360001032099,新規,0,2023-06-05,2023-06-05,株式会社Ｒｂｏｒｎ,,株式会社,沖縄県,那覇市,牧志２丁目１６番８号ＢＩＴＰＬＡＺＡ１Ｆ,,47,201,9000013,,,,,,,2023-06-05,1,,,,,アールボーン,0
1975,7360003013023,新規,0,2023-06-05,2023-06-05,合同会社ピースオブスター,,合同会社,沖縄県,那覇市,上之屋１丁目１９番２７号ＧＲＥＥＮ　ＨＩＬＬ湧川４０５,,47,201,9000011,,,,,,,2023-06-05,1,,,,,ピースオブスター,0
1978,7370001050026,新規,0,2023-06-05,2023-06-05,株式会社畠山工業,,株式会社,宮城県,黒川郡大和町,吉岡字道下１番地の６,,04,421,9813621,,,,,,,2023-06-05,1,,,,,ハタケヤマコウギョウ,0
1979,7370001050034,新規,0,2023-06-05,2023-06-05,株式会社アスセット,,株式会社,宮城県,仙台市青葉区,木町通１丁目８番２８号,,04,101,9800801,,,,,,,2023-06-05,1,,,,,アスセット,0
1980,7370001050042,新規,0,2023-06-05,2023-06-05,株式会社８‐ｅｉｇｈｔ,,株式会社,宮城県,仙台市若林区,河原町１丁目１番５－１０３号,,04,103,9840816,,,,,,,2023-06-05,1,,,,,エイト,0
1981,7370003006158,新規,0,2023-06-05,2023-06-05,ニッコーワールド合同会社,,合同会社,宮城県,富谷市,日吉台２丁目１６番地７,,04,216,9813362,,,,,,,2023-06-05,1,,,,,ニッコーワールド,0
1990,7390001017270,新規,0,2023-06-05,2023-06-05,株式会社蔵王ホテルマネジメント,,株式会社,山形県,山形市,蔵王温泉９０３番地２,,06,201,9902301,,,,,,,2023-06-05,1,,,,,ザオウホテルマネジメント,0
2000,7430003015103,新規,0,2023-06-05,2023-06-05,合同会社ピースセレクト,,合同会社,北海道,札幌市東区,中沼一条２丁目８番４号,,01,103,0070001,,,,,,,2023-06-05,1,,,,,ピースセレクト,0
2014,7500001024981,新規,0,2023-06-05,2023-06-05,Ｍｙリビング株式会社,,株式会社,愛媛県,松山市,余戸西２丁目９番３１号,,38,201,7900046,,,,,,,2023-06-05,1,,,,,マイリビング,0
2016,7700150116865,新規,0,2023-06-05,2023-06-05,ｓｈｅｎｚｈｅｎｓｈｉ　ｇｕａｎｇｘｉ　ｃｈｕａｎｇｘｉｎｋｅｊｉ　ｙｏｕｘｉａｎｇｏｎｇｓｉ,,外国会社等,,,,,,,,ｐｉｎｇ　ｈｕ　ｊｉｅ　ｄａｏ　ｈｅ　ｈｕａ　ｓｈｅ　ｑｕ　ｆｕ　ａｎ　ｄａ　ｄａｏ　１８ｈａｏ　ｙａ　ｇａｎｇ　ｇｏｎｇ　ｍａｏ　ｄａ　ｌｏｕ　１ｄｏｎｇ　１００５　ｓｈｅｎ　ｚｈｅｎ　ｓｈｉ　ｌｏｎｇ　ｇａｎｇ　ｑｕ　ｇｕａｎｇ　ｄｏｎｇ　ｓｈｅｎｇ　ＣＮ,,,,,,2023-06-05,1,,,,,シンセンシグゥアンシツゥアンシンケジユウゲンコウシ,0
2017,7700150116881,新規,0,2023-06-05,2023-06-05,ｓｈｅｎｚｈｅｎｓｈｉ　ｃｈｅｎｇｙａｎ　ｍａｏｙｉ　ｙｏｕｘｉａｎｇｏｎｇｓｉ,,外国会社等,,,,,,,,ｓｈｅｎｚｈｅｎｓｈｉｆｕｔｉａｎｑｕｈｕａｑｉａｎｇｂｅｉｊｉｅｄａｏｈｕａｈａｎｇｓｈｅｑｕｈｕａｑｉａｎｇｂｅｉｌｕ２００９ｈａｏｄｏｎｇｆａｎｇｓｈｉｄａｉｇｕａｎｇｃｈａｎｇＢ１８１２,,,,,,2023-06-05,1,,,,,シェンゼェンシチェンヤンマオイユウゲンコウシ,0
2018,7700150116898,新規,0,2023-06-05,2023-06-05,Ｘｉａｍｅｎ　ｆｕｒｉｘｉｎｓｈｉｃａｉ　ｙｏｕｘｉａｎｇｏｎｇｓｉ,,外国会社等,,,,,,,,Ｎｏ．８　Ｚｈｏｎｇｌｉｎ　Ｒｏａｄ，Ｈａｉｃａｎｇ　Ｄｉｓｔｒｉｃｔ　Ｕｎｉｔ　１００２，１０Ｆ，Ｈａｉｔｏｕ　Ｂｕｉｌｄｉｎｇ　Ｘｉａｍｅｎ　Ｆｕｊｉａｎ,,,,,,2023-06-05,1,,,,,シャメンフルシンシチャイユウゲンコウシ,0
2025,8010001235776,新規,0,2023-06-05,2023-06-05,七星株式会社,,株式会社,東京都,中央区,銀座４丁目１３番８号岩藤ビル５Ｆ,,13,102,1040061,,,,,,,2023-06-05,1,,,,,ナナホシ,0
2026,8010001235784,新規,0,2023-06-05,2023-06-05,株式会社Ｎｅｘｔ　Ａｇｅ,,株式会社,東京都,中央区,銀座１丁目２２番１１号銀座大竹ビジデンス２階,,13,102,1040061,,,,,,,2023-06-05,1,,,,,ネクストエイジ,0
2027,8010001235826,新規,0,2023-06-05,2023-06-05,ＩＴＥＥＫ株式会社,,株式会社,東京都,中央区,銀座１丁目２２番１１号銀座大竹ビジデンス２Ｆ,,13,102,1040061,,,,,,,2023-06-05,1,,,,,アイティーク,0
2030,8010003040753,新規,0,2023-06-05,2023-06-05,ＡＩＡ東京１０合同会社,,合同会社,東京都,中央区,日本橋２丁目１番１８号,,13,102,1030027,,,,,,,2023-06-05,1,,,,,エーアイエートウキョウイチゼロ,0
2031,8010003040761,新規,0,2023-06-05,2023-06-05,ＡＩＡ東京０３合同会社,,合同会社,東京都,中央区,日本橋２丁目１番１８号,,13,102,1030027,,,,,,,2023-06-05,1,,,,,エーアイエートウキョウゼロサン,0
2046,8010401174715,新規,0,2023-06-05,2023-06-05,株式会社城旅デザインラボ,,株式会社,東京都,港区,南青山２丁目２番１５号,,13,103,1070062,,,,,,,2023-06-05,1,,,,,シロタビデザインラボ,0
2047,8010401174780,新規,0,2023-06-05,2023-06-05,株式会社ＲＥＸ,,株式会社,東京都,港区,北青山２丁目１０番２４号,,13,103,1070061,,,,,,,2023-06-05,1,,,,,レックス,0
2055,8010403030222,新規,0,2023-06-05,2023-06-05,ダブルアール合同会社,,合同会社,東京都,港区,白金３丁目１番１３号日恵ビル２階,,13,103,1080072,,,,,,,2023-06-05,1,,,,,ダブルアール,0
2058,8010501050543,新規,0,2023-06-05,2023-06-05,株式会社安徳ファイナンス,,株式会社,東京都,台東区,根岸３丁目２２番１５号,,13,106,1100003,,,,,,,2023-06-05,1,,,,,アントクファイナンス,0
2059,8010503007021,新規,0,2023-06-05,2023-06-05,アムーレ合同会社,,合同会社,東京都,台東区,北上野２丁目１番１２－７０４号ニューイーストコート上野,,13,106,1100014,,,,,,,2023-06-05,1,,,,,アムーレ,0
2060,8010601063206,新規,0,2023-06-05,2023-06-05,株式会社ＧＮＲＬ,,株式会社,東京都,江東区,亀戸７丁目３９番１１－６０９号,,13,108,1360071,,,,,,,2023-06-05,1,,,,,ジーエヌアールエル,0
2067,8011001154801,新規,0,2023-06-05,2023-06-05,株式会社ディーシーエー,,株式会社,東京都,渋谷区,恵比寿１丁目１９番１５号ウノサワ東急ビル６Ｆ,,13,113,1500013,,,,,,,2023-06-05,1,,,,,ディーシーエー,0
2070,8011101103096,新規,0,2023-06-05,2023-06-05,株式会社ＮＯＢＩＳＨＩＲＯ,,株式会社,東京都,新宿区,西新宿５丁目２３番２号,,13,104,1600023,,,,,,,2023-06-05,1,,,,,ノビシロ,0
2079,8011103013104,新規,0,2023-06-05,2023-06-05,合同会社ｖｉｔｔｏ,,合同会社,東京都,新宿区,荒木町２１番地２６,,13,104,1600007,,,,,,,2023-06-05,1,,,,,ヴィット,0
2080,8011103013112,新規,0,2023-06-05,2023-06-05,合同会社フロンティア,,合同会社,東京都,新宿区,四谷１丁目１８－５Ｂｅｌｌｅ四谷４階,,13,104,1600004,,,,,,,2023-06-05,1,,,,,フロンティア,0
2081,8011201024688,新規,0,2023-06-05,2023-06-05,株式会社てとて,,株式会社,東京都,中野区,中央３丁目１２番１７－６０１号,,13,114,1640011,,,,,,,2023-06-05,1,,,,,テトテ,0
2083,8011301028754,新規,0,2023-06-05,2023-06-05,株式会社西北企画,,株式会社,東京都,杉並区,高円寺北１丁目２６番３号,,13,115,1660002,,,,,,,2023-06-05,1,,,,,セイホクキカク,0
2087,8011401025172,新規,0,2023-06-05,2023-06-05,株式会社ＮｅｘｕｓＯｎｅ,,株式会社,東京都,板橋区,小豆沢１丁目２２番３号,,13,119,1740051,,,,,,,2023-06-05,1,,,,,ネクサスワン,0
2090,8012401040590,新規,0,2023-06-05,2023-06-05,株式会社すだち,,株式会社,東京都,武蔵野市,境南町５丁目１４番１号エステート富士見,,13,203,1800023,,,,,,,2023-06-05,1,,,,,スダチ,0
2092,8012701017677,新規,0,2023-06-05,2023-06-05,株式会社ＡＩＯ,,株式会社,東京都,東久留米市,野火止２丁目５番２号,,13,222,2030041,,,,,,,2023-06-05,1,,,,,エイアイオー,0
2098,8020003024004,新規,0,2023-06-05,2023-06-05,合同会社ＳＴＡＲ　ＤＲＥＡＭ,,合同会社,神奈川県,川崎市宮前区,有馬６丁目２３番１８－３０５号鷺沼ヴィオラ,,14,136,2160003,,,,,,,2023-06-05,1,,,,,スタードリーム,0
2099,8020003024012,新規,0,2023-06-05,2023-06-05,合同会社ｉ‐ＤＯＧプライム,,合同会社,神奈川県,横浜市旭区,二俣川１丁目６５番地１９,,14,112,2410821,,,,,,,2023-06-05,1,,,,,アイドッグプライム,0
2112,8030005021287,新規,0,2023-06-05,2023-06-05,一般社団法人アソシエーション・スポーツ・浦和,,その他の設立登記法人,埼玉県,さいたま市南区,文蔵４丁目２３番３号,,11,108,3360025,,,,,,,2023-06-05,1,,,,,アソシエーションスポーツウラワ,0
2119,8040001128639,新規,0,2023-06-05,2023-06-05,株式会社ネクストブリッジ,,株式会社,千葉県,浦安市,海楽１丁目５番１０号レクス１１０－１０８号室,,12,227,2790003,,,,,,,2023-06-05,1,,,,,ネクストブリッジ,0
2120,8040001128655,新規,0,2023-06-05,2023-06-05,株式会社スリーシーサービス,,株式会社,千葉県,柏市,末広町４番５号,,12,217,2770842,,,,,,,2023-06-05,1,,,,,スリーシーサービス,0
2122,8040003022724,新規,0,2023-06-05,2023-06-05,ＡＭＩ　ＴＲＡＤＩＮＧ合同会社,,合同会社,千葉県,山武市,松尾町借毛本郷２３００番地２,,12,237,2891537,,,,,,,2023-06-05,1,,,,,アミトレーディング,0
2141,8080001025650,新規,0,2023-06-05,2023-06-05,株式会社Ｋａｗａ,,株式会社,静岡県,静岡市葵区,羽鳥５丁目１９－３,,22,101,4211215,,,,,,,2023-06-05,1,,,,,カワ,0
2143,8080101024040,新規,0,2023-06-05,2023-06-05,株式会社おひさまデザイン,,株式会社,静岡県,伊東市,八幡野１１８３番地伊豆高原やまもプラザＢ－１,,22,208,4130232,,,,,,,2023-06-05,1,,,,,オヒサマデザイン,0
2146,8080401026505,新規,0,2023-06-05,2023-06-05,ヨシオ・ホールディングス株式会社,,株式会社,静岡県,袋井市,国本３０３４番地の１,,22,216,4370012,,,,,,,2023-06-05,1,,,,,ヨシオホールディングス,0
2147,8080401026513,新規,0,2023-06-05,2023-06-05,トラストリング株式会社,,株式会社,静岡県,湖西市,新居町新居３２８８番地の２０１,,22,221,4310302,,,,,,,2023-06-05,1,,,,,トラストリング,0
2148,8080401026521,新規,0,2023-06-05,2023-06-05,株式会社椋,,株式会社,静岡県,浜松市中区,板屋町１０２番地の１５,,22,131,4300928,,,,,,,2023-06-05,1,,,,,クラ,0
2151,8100001036463,新規,0,2023-06-05,2023-06-05,株式会社スプリングスパン,,株式会社,長野県,東御市,田中８００番地１４,,20,219,3890516,,,,,,,2023-06-05,1,,,,,スプリングスパン,0
2152,8100001036471,新規,0,2023-06-05,2023-06-05,株式会社ＡＥＲＡＳ,,株式会社,長野県,長野市,大字風間７９２番地１,,20,201,3810023,,,,,,,2023-06-05,1,,,,,アエラス,0
2153,8100001036496,新規,0,2023-06-05,2023-06-05,株式会社フーズサポート,,株式会社,長野県,佐久市,長土呂１１５６番地５,,20,217,3850021,,,,,,,2023-06-05,1,,,,,フーズサポート,0
2158,8110003005069,新規,0,2023-06-05,2023-06-05,田中合同会社,,合同会社,新潟県,新潟市西蒲区,松郷屋３６２,,15,108,9530025,,,,,,,2023-06-05,1,,,,,タナカ,0
2165,8120001255350,新規,0,2023-06-05,2023-06-05,株式会社Ｇｒｏｗ,,株式会社,大阪府,大阪市生野区,巽南５丁目９番１号,00130709,27,116,5440015,,,,,,,2023-06-05,1,,,,,グロウ,0
2166,8120001255375,新規,0,2023-06-05,2023-06-05,株式会社Ｂｅｇｉｎｎｉｎｇ,,株式会社,大阪府,守口市,京阪本通２丁目８番１１号新京阪ビル３０１－２号室,,27,209,5700083,,,,,,,2023-06-05,1,,,,,ビギニング,0
2167,8120001255441,新規,0,2023-06-05,2023-06-05,株式会社浪速水産,,株式会社,大阪府,大阪市中央区,船越町２丁目４－１０アーバス天満橋９０８,,27,128,5400036,,,,,,,2023-06-05,1,,,,,ナニワスイサン,0
2174,8120105009727,新規,0,2023-06-05,2023-06-05,一般社団法人チョイサポしのだ,,その他の設立登記法人,大阪府,和泉市,上代町７１１番地の７,,27,219,5940011,,,,,,,2023-06-05,1,,,,,チョイサポシノダ,0
2175,8120901047599,新規,0,2023-06-05,2023-06-05,リブ・パートナー株式会社,,株式会社,大阪府,茨木市,三島丘１丁目６番３１号の１,,27,211,5670021,,,,,,,2023-06-05,1,,,,,リブパートナー,0
2176,8122001037027,新規,0,2023-06-05,2023-06-05,株式会社エシカル,,株式会社,大阪府,大東市,明美の里町２番１８号,,27,218,5740003,,,,,,,2023-06-05,1,,,,,エシカル,0
2177,8122001037035,新規,0,2023-06-05,2023-06-05,株式会社ナイスツー,,株式会社,大阪府,東大阪市,高井田２４番２６号,,27,227,5770053,,,,,,,2023-06-05,1,,,,,ナイスツー,0
2183,8130003008763,新規,0,2023-06-05,2023-06-05,合同会社フロップニク,,合同会社,京都府,京都市北区,大宮中総門口町３４番地,,26,101,6038834,,,,,,,2023-06-05,1,,,,,,0
2187,8140001130361,新規,0,2023-06-05,2023-06-05,株式会社伊神,,株式会社,兵庫県,伊丹市,中野東１丁目３２１番地田中ハイツＢ棟１０２号,,28,207,6640022,,,,,,,2023-06-05,1,,,,,イシン,0
2188,8140001130386,新規,0,2023-06-05,2023-06-05,ＴＳＵＢＡＳＡ株式会社,,株式会社,兵庫県,宝塚市,山手台東５丁目２１番８号,,28,214,6650887,,,,,,,2023-06-05,1,,,,,ツバサ,0
2198,8150001026435,新規,0,2023-06-05,2023-06-05,ＳＨＩＮ株式会社,,株式会社,奈良県,香芝市,穴虫１０７－１,,29,210,6390252,,,,,,,2023-06-05,1,,,,,シン,0
2200,8160001025072,新規,0,2023-06-05,2023-06-05,株式会社幸,,株式会社,滋賀県,彦根市,河原２丁目６－４青柳３号１Ｆ,,25,202,5220083,,,,,,,2023-06-05,1,,,,,ユキ,0
2201,8160001025080,新規,0,2023-06-05,2023-06-05,株式会社アウロラパン,,株式会社,滋賀県,草津市,野村７丁目１３番２９号,,25,206,5250027,,,,,,,2023-06-05,1,,,,,アウロラパン,0
2204,8170001017630,新規,0,2023-06-05,2023-06-05,株式会社谷口屋,,株式会社,和歌山県,新宮市,磐盾３番６号,,30,207,6470051,,,,,,,2023-06-05,1,,,,,タニグチヤ,0
2210,8180001156510,新規,0,2023-06-05,2023-06-05,株式会社Ｂ・ＢＬＵＥ,,株式会社,愛知県,海部郡蟹江町,舟入１丁目４５６番地,,23,425,4970048,,,,,,,2023-06-05,1,,,,,ビーブルー,0
2211,8180001156519,新規,0,2023-06-05,2023-06-05,株式会社シオソウフードサービス,,株式会社,愛知県,岩倉市,西市町松下２５番地の４,,23,228,4820036,,,,,,,2023-06-05,1,,,,,シオソウフードサービス,0
2212,8180001156535,新規,0,2023-06-05,2023-06-05,株式会社ＴＴ,,株式会社,愛知県,名古屋市西区,名駅２丁目２９番２８号グランデール名古屋６０６号,,23,104,4510045,,,,,,,2023-06-05,1,,,,,ティーティー,0
2213,8180001156584,新規,0,2023-06-05,2023-06-05,株式会社ＩＴＰ,,株式会社,愛知県,名古屋市中村区,太閤３丁目７番７６号,,23,105,4530801,,,,,,,2023-06-05,1,,,,,アイティーピー,0
2215,8180003025300,新規,0,2023-06-05,2023-06-05,合同会社ＫＥＴＴＬＥ,,合同会社,愛知県,長久手市,喜婦嶽１７０１ラフォーレブランシュ１０６,,23,238,4801117,,,,,,,2023-06-05,1,,,,,ケトル,0
2216,8180301037443,新規,0,2023-06-05,2023-06-05,株式会社ＣＲＥＬＩＡ,,株式会社,愛知県,岡崎市,明大寺町字大圦１番地２１,,23,202,4440865,,,,,,,2023-06-05,1,,,,,クレリア,0
2226,8210001019333,新規,0,2023-06-05,2023-06-05,株式会社ＵＲＥ,,株式会社,福井県,鯖江市,東鯖江３丁目５－１２,,18,207,9160041,,,,,,,2023-06-05,1,,,,,ユーアールイー,0
2230,8240001061613,新規,0,2023-06-05,2023-06-05,株式会社ＮＥＯ,,株式会社,広島県,廿日市市,宮内４丁目１０番９号,,34,213,7380034,,,,,,,2023-06-05,1,,,,,ネオ,0
2233,8240003006161,新規,0,2023-06-05,2023-06-05,合同会社ライズ,,合同会社,広島県,広島市安佐南区,相田１丁目１６番３３号,,34,105,7310141,,,,,,,2023-06-05,1,,,,,ライズ,0
2235,8260001037990,新規,0,2023-06-05,2023-06-05,株式会社ＳＥＮＴＯ,,株式会社,岡山県,岡山市東区,西大寺中１丁目９番３０号,,33,103,7048116,,,,,,,2023-06-05,1,,,,,セント,0
2242,8290001101760,新規,0,2023-06-05,2023-06-05,株式会社くう,,株式会社,福岡県,那珂川市,五郎丸１丁目９１番地３,,40,231,8111252,,,,,,,2023-06-05,1,,,,,クウ,0
2243,8290001101769,新規,0,2023-06-05,2023-06-05,株式会社木樂屋,,株式会社,福岡県,みやま市,瀬高町長田２７２４－１,,40,229,8350007,,,,,,,2023-06-05,1,,,,,キラクヤ,0
2245,8290801029565,新規,0,2023-06-05,2023-06-05,株式会社友和建産,,株式会社,福岡県,行橋市,大字高瀬７２２番地６,,40,213,8240027,,,,,,,2023-06-05,1,,,,,ユウワケンサン,0
2246,8290801029581,新規,0,2023-06-05,2023-06-05,株式会社ヤマグチ,,株式会社,福岡県,北九州市小倉北区,弁天町７番２６－１４０２号,,40,106,8030856,,,,,,,2023-06-05,1,,,,,ヤマグチ,0
2251,8310001018440,新規,0,2023-06-05,2023-06-05,株式会社シックスホワイト,,株式会社,長崎県,諫早市,川床町３７３番地１,,42,204,8540052,,,,,,,2023-06-05,1,,,,,シックスホワイト,0
2252,8320001019818,新規,0,2023-06-05,2023-06-05,藤本建設株式会社,,株式会社,大分県,大分市,王子南町１０番１７－６０１号,,44,201,8700007,,,,,,,2023-06-05,1,,,,,フジモトケンセツ,0
2256,8330001030897,新規,0,2023-06-05,2023-06-05,株式会社ＭＡＤ,,株式会社,熊本県,熊本市東区,広木町１１番１０号,,43,102,8620906,,,,,,,2023-06-05,1,,,,,エムエーディ,0
2265,8340001025616,新規,0,2023-06-05,2023-06-05,株式会社マイまくら商事,,株式会社,鹿児島県,薩摩川内市,平佐町１９３５番地１,,46,215,8950012,,,,,,,2023-06-05,1,,,,,マイマクラショウジ,0
2270,8350003004369,新規,0,2023-06-05,2023-06-05,合同会社ＡＳＴＩＮＡ,,合同会社,宮崎県,宮崎市,清武町池田台北２９番地２００,,45,201,8891608,,,,,,,2023-06-05,1,,,,,アスティナ,0
2271,8360001032123,新規,0,2023-06-05,2023-06-05,イヴ株式会社,,株式会社,沖縄県,宜野湾市,普天間１丁目２８番２６号リル普天間,,47,205,9012202,,,,,,,2023-06-05,1,,,,,イヴ,0
2276,8370001050033,新規,0,2023-06-05,2023-06-05,株式会社アイムソリューション,,株式会社,宮城県,仙台市宮城野区,岡田西町１番４６号,,04,102,9830004,,,,,,,2023-06-05,1,,,,,アイムソリューション,0
2277,8370003006157,新規,0,2023-06-05,2023-06-05,創明企画合同会社,,合同会社,宮城県,仙台市青葉区,あけぼの町１番５号,,04,101,9810963,,,,,,,2023-06-05,1,,,,,ソウメイキカク,0
2279,8370005010636,新規,0,2023-06-05,2023-06-05,一般社団法人宮城県トライアスロン協会,,その他の設立登記法人,宮城県,仙台市泉区,北中山２丁目１２番地の１５,,04,105,9813215,,,,,,,2023-06-05,1,,,,,ミヤギケントライアスロンキョウカイ,0
2287,8430001089263,新規,0,2023-06-05,2023-06-05,株式会社三嶋サラブレッズ,,株式会社,北海道,浦河郡浦河町,字杵臼６１９番地の３,,01,607,0570172,,,,,,,2023-06-05,1,,,,,ミシマサラブレッズ,0
2290,8430003015102,新規,0,2023-06-05,2023-06-05,ＪＡＭ　Ｈｏｌｄｉｎｇｓ　Ｊａｐａｎ合同会社,,合同会社,北海道,札幌市中央区,大通西１８丁目１－１４－３階,,01,101,0600042,,,,,,,2023-06-05,1,,,,,ジェイエーエムホールディングスジャパン,0
2291,8430003015135,新規,0,2023-06-05,2023-06-05,合同会社ブロードヒル,,合同会社,北海道,札幌市中央区,北六条西１８丁目５番地７,,01,101,0600006,,,,,,,2023-06-05,1,,,,,ブロードヒル,0
2292,8450001014013,新規,0,2023-06-05,2023-06-05,株式会社プルトライズ,,株式会社,北海道,旭川市,神楽岡九条２丁目１番２０号,,01,204,0788319,,,,,,,2023-06-05,1,,,,,プルトライズ,0
2301,8500001024972,新規,0,2023-06-05,2023-06-05,株式会社エフディアーク,,株式会社,愛媛県,松山市,北吉田町１０２２番地１,,38,201,7918041,,,,,,,2023-06-05,1,,,,,エフディアーク,0
2303,8700150116864,新規,0,2023-06-05,2023-06-05,Ｓｈｅｎｚｈｅｎ　Ｅ－Ｌｏｖｅｒ　Ｔｅｃｈｎｏｌｏｇｙ　Ｃｏ．，Ｌｔｄ,,外国会社等,,,,,,,,ｂａｏ’ａｎｑｕｓｈｉｙａｎｊｉｅｄａｏｓｈｉｌｏｎｇｓｈｅｑｕｓｈｉｈｕａｎｌｕ２ｈａｏ　ｘｉｎｓｈｉｄａｉｇｏｎｇｒｏｎｇｇｏｎｇｙｅｙｕａｎｃｈａｎｇｆａｎｇＤｄｏｎｇｗｕｃｅｎｇＤ２ｄｏｎｇ５ｃｅｎｇ　ｓｈｅｎ　ｚｈｅｎ　ｓｈｉ　ｇｕａｎｇｄｏｎｇｓｈｅｎｇ　ＣＮ,,,,,,2023-06-05,1,,,,,シンセンイーラバーテクノロジーカンパニーリミテッド,0
2304,8700150116872,新規,0,2023-06-05,2023-06-05,Ｎａｎｔｏｎｇ　Ｋｕｎｔｅｎｇ　ｓｐｏｒｔｉｎｇ　ｇｏｏｄｓ　Ｃｏ．，Ｌｔｄ,,外国会社等,,,,,,,,Ｄａｄａ　ｉｎｔｅｒｎａｔｉｏｎａｌ，２１１　ｍｉｄｄｌｅ　Ｒｅｎｍｉｎ　Ｒｏａｄ　Ｎａｎｔｏｎｇ　Ｊｉａｎｇｓｕ,,,,,,2023-06-05,1,,,,,ナントンクンテェンスポーティンググッズカンパニーリミテッド,0
2305,8700150116880,新規,0,2023-06-05,2023-06-05,ｓｈｅｎｚｈｅｎｓｈｉ　ｗｅｎｌｉｄｉａｎｚｉｋｅｊｉ　ｙｏｕｘｉａｎｇｏｎｇｓｉ,,外国会社等,,,,,,,,ｙａｂｉａｎｘｕｅｚｉｗｅｉｇｏｎｇｙｅｙｕａｎＣｄｏｎｇｓｕｓｈｅ３０２　ｂａｏａｎｑｕｓｈａｊｉｎｇｊｉｅｄａｏｙａｂｉａｎｓｈｅｑｕｓｈａｓｏｎｇｌｕ　ｓｈｅｎｚｈｅｎｓｈｉ　ｇｕａｎｇｄｏｎｇｓｈｅｎｇ　ＣＮ,,,,,,2023-06-05,1,,,,,シンセンシウェンリデンシケジユウゲンコウシ,0
2306,8700150116897,新規,0,2023-06-05,2023-06-05,ｘｉａｍｅｎ　ｃｈｅｎｇｚｈｅｎｇｍａｏｙｉ　ｙｏｕｘｉａｎｇｏｎｇｓｉ,,外国会社等,,,,,,,,ｈｕｌｉｑｕｎａｎｓｈａｎｌｕ４０８ｈａｏ２Ｃ　ｘｉａｍｅｎ　ｆｕｊｉａｎ　ＣＮ,,,,,,2023-06-05,1,,,,,シャメンチェンゼンマオイユウゲンコウシ,0
2310,9010001235825,新規,0,2023-06-05,2023-06-05,株式会社ＩＹネットスーパー事業準備会社,,株式会社,東京都,千代田区,二番町８番地８,,13,101,1020084,,,,,,,2023-06-05,1,,,,,アイワイネットスーパージギョウジュンビガイシャ,0
2311,9010003040760,新規,0,2023-06-05,2023-06-05,ＡＩＡ東京０４合同会社,,合同会社,東京都,中央区,日本橋２丁目１番１８号,,13,102,1030027,,,,,,,2023-06-05,1,,,,,エーアイエートウキョウゼロヨン,0
2317,9010401174739,新規,0,2023-06-05,2023-06-05,株式会社ドルフィン・バリュー・アップ１３号,,株式会社,東京都,港区,芝公園１丁目１番１号住友不動産御成門タワー７階,,13,103,1050011,,,,,,,2023-06-05,1,,,,,ドルフィンバリューアップジュウサンゴウ,0
2318,9010401174755,新規,0,2023-06-05,2023-06-05,ＫＭ２株式会社,,株式会社,東京都,港区,虎ノ門５丁目１１番１号オランダヒルズ森タワーＲｏＰ,,13,103,1050001,,,,,,,2023-06-05,1,,,,,ケーエムツー,0
2320,9010405022183,新規,0,2023-06-05,2023-06-05,一般社団法人まかせる,,その他の設立登記法人,東京都,港区,浜松町２丁目２番１５号,,13,103,1050013,,,,,,,2023-06-05,1,,,,,マカセル,0
2326,9010601063213,新規,0,2023-06-05,2023-06-05,株式会社高野商店,00130711,株式会社,東京都,墨田区,押上１丁目２８番６号,,13,107,1310045,,,,,,,2023-06-05,1,,,,,タカノショウテン,0
2327,9010701044352,新規,0,2023-06-05,2023-06-05,株式会社ｖａｎｋａ,,株式会社,東京都,品川区,南品川４丁目４番１７号品川サウスタワー,,13,109,1400004,,,,,,,2023-06-05,1,,,,,バンカ,0
2328,9010801034014,新規,0,2023-06-05,2023-06-05,株式会社オカジマホームサービス,,株式会社,東京都,大田区,東糀谷３丁目８番１５号,,13,111,1440033,,,,,,,2023-06-05,1,,,,,オカジマホームサービス,0
2329,9010803004568,新規,0,2023-06-05,2023-06-05,合同会社Ｌｉｋｅ,,合同会社,東京都,大田区,北馬込２丁目２２番３号,,13,111,1430021,,,,,,,2023-06-05,1,,,,,ライク,0
2331,9010901053186,新規,0,2023-06-05,2023-06-05,ＴＯＹＯ建材株式会社,,株式会社,東京都,世田谷区,経堂２丁目２９番２２号,,13,112,1560052,,,,,,,2023-06-05,1,,,,,トーヨーケンザイ,0
2339,9011001154809,新規,0,2023-06-05,2023-06-05,株式会社ｓｅｒｅｎｄｉｐｉｔｙ,,株式会社,東京都,渋谷区,渋谷２丁目１番１号,,13,113,1500002,,,,,,,2023-06-05,1,,,,,セレンディピティ,0
2343,9011101103095,新規,0,2023-06-05,2023-06-05,株式会社キーナフードサービス,,株式会社,東京都,新宿区,西新宿５丁目２３番２号,,13,104,1600023,,,,,,,2023-06-05,1,,,,,キーナフードサービス,0
2344,9011101103120,新規,0,2023-06-05,2023-06-05,弘誠株式会社,,株式会社,東京都,新宿区,大久保２丁目６番１７号,,13,104,1690072,,,,,,,2023-06-05,1,,,,,コウセイ,0
2345,9011103013111,新規,0,2023-06-05,2023-06-05,合同会社ＩＶＹ,,合同会社,東京都,新宿区,西新宿３丁目３番１３号西新宿水間ビル２Ｆ,,13,104,1600023,,,,,,,2023-06-05,1,,,,,アイビー,0
2346,9011201024687,新規,0,2023-06-05,2023-06-05,婆娑羅株式会社,,株式会社,東京都,中野区,沼袋３丁目５番５号,,13,114,1650025,,,,,,,2023-06-05,1,,,,,バサラ,0
2347,9011401025171,新規,0,2023-06-05,2023-06-05,株式会社ＩＧＵＳＡ,,株式会社,東京都,板橋区,南常盤台１丁目１１番６レフア南常盤台１０１号室,,13,119,1740072,,,,,,,2023-06-05,1,,,,,,0
2349,9011501029361,新規,0,2023-06-05,2023-06-05,栄進株式会社,,株式会社,東京都,荒川区,西尾久７丁目２４番８号,,13,118,1160011,,,,,,,2023-06-05,1,,,,,エイシン,0
2367,9020001151864,新規,0,2023-06-05,2023-06-05,株式会社エステック,,株式会社,神奈川県,横浜市鶴見区,栄町通４丁目４８番地１２,,14,101,2300038,,,,,,,2023-06-05,1,,,,,エステック,0
2368,9020001151872,新規,0,2023-06-05,2023-06-05,株式会社ｅｆｕ,,株式会社,神奈川県,横浜市磯子区,杉田４丁目１番２号,,14,107,2350033,,,,,,,2023-06-05,1,,,,,エフ,0
2369,9020001151889,新規,0,2023-06-05,2023-06-05,株式会社ヴァリアスター,,株式会社,神奈川県,横浜市西区,北幸１丁目１１番１号水信ビル７階,,14,103,2200004,,,,,,,2023-06-05,1,,,,,ヴァリアスター,0
2371,9020003023987,新規,0,2023-06-05,2023-06-05,合同会社ＪＩＬＵＮＡ,,合同会社,神奈川県,川崎市多摩区,登戸７８７シュテーレ１０３,,14,135,2140014,,,,,,,2023-06-05,1,,,,,ジルナ,0
2372,9020003024003,新規,0,2023-06-05,2023-06-05,合同会社ＦＮＵ,,合同会社,神奈川県,川崎市多摩区,西生田５丁目２－１８,,14,135,2140037,,,,,,,2023-06-05,1,,,,,エフエヌユー,0
2382,9030001154164,新規,0,2023-06-05,2023-06-05,洋鳥株式会社,,株式会社,埼玉県,川口市,大字伊刈１００７－１,,11,203,3330865,,,,,,,2023-06-05,1,,,,,ヨウトリ,0
2383,9030001154247,新規,0,2023-06-05,2023-06-05,株式会社渡邉設備,,株式会社,埼玉県,川口市,芝３丁目２４番１１号サンハイム芝Ａ２０５,,11,203,3330866,,,,,,,2023-06-05,1,,,,,ワタナベセツビ,0
2385,9040001128638,新規,0,2023-06-05,2023-06-05,株式会社ドブリン,,株式会社,千葉県,松戸市,新松戸３丁目１４９番地ハイム・アステール１０５号,,12,207,2700034,,,,,,,2023-06-05,1,,,,,ドブリン,0
2386,9040001128646,新規,0,2023-06-05,2023-06-05,株式会社律匠,,株式会社,千葉県,習志野市,大久保１丁目２６番７号サイキマンション１０１号,,12,216,2750011,,,,,,,2023-06-05,1,,,,,リッショウ,0
2387,9040001128679,新規,0,2023-06-05,2023-06-05,株式会社ＡＬＥＣＴＯ,,株式会社,千葉県,野田市,山崎１０６８番地の２０,,12,208,2780022,,,,,,,2023-06-05,1,,,,,アレクト,0
2388,9040003022715,新規,0,2023-06-05,2023-06-05,合同会社糸,,合同会社,千葉県,八千代市,八千代台西５丁目８番地１３,,12,221,2760034,,,,,,,2023-06-05,1,,,,,イト,0
2393,9070001040518,新規,0,2023-06-05,2023-06-05,株式会社ＳＵＢＰＬＯＴ,,株式会社,群馬県,高崎市,下豊岡町８９５番地８,,10,202,3700873,,,,,,,2023-06-05,1,,,,,,0
2394,9070003004958,新規,0,2023-06-05,2023-06-05,合同会社Ｊｏｌｉ　Ｖｅｉｌ,,合同会社,群馬県,伊勢崎市,中町７７５番地１,,10,204,3720822,,,,,,,2023-06-05,1,,,,,ジョリヴェール,0
2396,9080003002993,新規,0,2023-06-05,2023-06-05,合同会社ラルプアソシエイツ,,合同会社,静岡県,静岡市葵区,長沼１丁目９番３０号,,22,101,4200813,,,,,,,2023-06-05,1,,,,,ラルプアソシエイツ,0
2398,9080401026512,新規,0,2023-06-05,2023-06-05,株式会社ＭＯＲＥ建設企画,,株式会社,静岡県,菊川市,西方１６２８番地の５,,22,224,4390037,,,,,,,2023-06-05,1,,,,,モアケンセツキカク,0
2403,9110001037575,新規,0,2023-06-05,2023-06-05,株式会社ｅ　ｌｉｆｅアシスト,,株式会社,新潟県,南魚沼市,北田中１０９番地１,,15,226,9497143,,,,,,,2023-06-05,1,,,,,イーライフアシスト,0
2404,9110001037583,新規,0,2023-06-05,2023-06-05,株式会社Ｔ‐Ｌａｂ,,株式会社,新潟県,新潟市東区,中野山６丁目５番１１号５,,15,102,9500841,,,,,,,2023-06-05,1,,,,,ティーラボ,0
2418,9120003024199,新規,0,2023-06-05,2023-06-05,合同会社エムズ・インターナショナル,,合同会社,大阪府,大阪市生野区,小路東２丁目３番２３号ビューパレー小路２０２号,,27,116,5440003,,,,,,,2023-06-05,1,,,,,エムズインターナショナル,0
2419,9120003024216,新規,0,2023-06-05,2023-06-05,中部ＶＮ合同会社,,合同会社,大阪府,大阪市西成区,花園北１丁目４番２２号ペントハウスＩＩＩ１階Ｂ号室,00130705,27,122,5570016,,,,,,,2023-06-05,1,,,,,チュウブブイエヌ,0
2420,9120005023661,新規,0,2023-06-05,2023-06-05,一般社団法人うめきたＭＭＯ,,その他の設立登記法人,大阪府,大阪市北区,芝田１丁目１番４号阪急ターミナルビル１２階,,27,127,5300012,,,,,,,2023-06-05,1,,,,,ウメキタエムエムオー,0
2421,9120101067653,新規,0,2023-06-05,2023-06-05,株式会社ＫＡＷＡＣＨＩ,,株式会社,大阪府,堺市北区,東三国ヶ丘町３丁２番４７号,,27,146,5918046,,,,,,,2023-06-05,1,,,,,カワチ,0
2426,9120901047598,新規,0,2023-06-05,2023-06-05,株式会社ＭＢ,,株式会社,大阪府,豊中市,大島町１丁目８番３０号,,27,203,5610824,,,,,,,2023-06-05,1,,,,,エムビー,0
2427,9120903004671,新規,0,2023-06-05,2023-06-05,多夢人プランニング合同会社,,合同会社,大阪府,吹田市,千里山月が丘３３番６号,,27,205,5650847,,,,,,,2023-06-05,1,,,,,タムトプランニング,0
2428,9122001037026,新規,0,2023-06-05,2023-06-05,コウエー株式会社,,株式会社,大阪府,大東市,灰塚６丁目５番３７号,,27,218,5740043,,,,,,,2023-06-05,1,,,,,コウエー,0
2429,9122001037042,新規,0,2023-06-05,2023-06-05,株式会社相水,,株式会社,大阪府,東大阪市,昭和町２０番２５号,,27,227,5798046,,,,,,,2023-06-05,1,,,,,アイミズ,0
2433,9130001074435,新規,0,2023-06-05,2023-06-05,株式会社河原板金,,株式会社,京都府,向日市,寺戸町寺田５０番地の１京都桂川つむぎの街ブライトスクエア２１４号,,26,208,6170002,,,,,,,2023-06-05,1,,,,,カワハラバンキン,0
2434,9130001074451,新規,0,2023-06-05,2023-06-05,株式会社京王教育,,株式会社,京都府,宇治市,広野町東裏６９－１本田ビル,,26,204,6110031,,,,,,,2023-06-05,1,,,,,ケイオウキョウイク,0
2442,9140001130328,新規,0,2023-06-05,2023-06-05,株式会社エスアンドエー,,株式会社,兵庫県,芦屋市,山芦屋町４番５号,00130708,28,206,6590082,,,,,,,2023-06-05,1,,,,,エスアンドエー,0
2443,9140001130360,新規,0,2023-06-05,2023-06-05,株式会社ＫＯＴＯＤＡＭＡコミュニケーションズ,,株式会社,兵庫県,西宮市,津門綾羽町６番３２号,,28,204,6638244,,,,,,,2023-06-05,1,,,,,コトダマコミュニケーションズ,0
2444,9140001130369,新規,0,2023-06-05,2023-06-05,株式会社ヒロキ,,株式会社,兵庫県,西宮市,西宮浜４丁目１２番５７号,,28,204,6620934,,,,,,,2023-06-05,1,,,,,ヒロキ,0
2445,9140001130385,新規,0,2023-06-05,2023-06-05,ペイントヒロカワ株式会社,,株式会社,兵庫県,明石市,魚住町錦が丘３丁目２２番地の２１,,28,203,6740081,,,,,,,2023-06-05,1,,,,,ペイントヒロカワ,0
2449,9160003002894,新規,0,2023-06-05,2023-06-05,合同会社井上商店,,合同会社,滋賀県,栗東市,荒張９９６番地１７２,,25,208,5203003,,,,,,,2023-06-05,1,,,,,イノウエショウテン,0
2453,9180001156542,新規,0,2023-06-05,2023-06-05,株式会社ＯＲｅＯ,,株式会社,愛知県,名古屋市西区,あし原町６０,,23,104,4520823,,,,,,,2023-06-05,1,,,,,オレオ,0
2454,9180001156559,新規,0,2023-06-05,2023-06-05,株式会社かわごし経営相談所,,株式会社,愛知県,名古屋市守山区,森孝１丁目１７３８番地の１,,23,113,4630035,,,,,,,2023-06-05,1,,,,,カワゴシケイエイソウダンジョ,0
2455,9180001156575,新規,0,2023-06-05,2023-06-05,Ｒｅｌａｔｉｏｎｓ株式会社,,株式会社,愛知県,名古屋市港区,明正２丁目３０５番地,,23,111,4550806,,,,,,,2023-06-05,1,,,,,リレーションズ,0
2470,9220001025437,新規,0,2023-06-05,2023-06-05,株式会社絶対そうしよ,,株式会社,石川県,金沢市,新神田２丁目７番３２‐２号,,17,201,9218013,,,,,,,2023-06-05,1,,,,,ゼッタイソウシヨ,0
2471,9220001025445,新規,0,2023-06-05,2023-06-05,株式会社ＪＤＳ,,株式会社,石川県,白山市,菜の花３丁目６１番地,,17,210,9240810,,,,,,,2023-06-05,1,,,,,ジェイディエス,0
2481,9240005015589,新規,0,2023-06-05,2023-06-05,井上税理士法人,,その他の設立登記法人,広島県,広島市中区,幟町３番５５－４０２号,,34,101,7300016,,,,,,,2023-06-05,1,,,,,イノウエ,0
2485,9260001037998,新規,0,2023-06-05,2023-06-05,ＨＳＡ株式会社,,株式会社,岡山県,倉敷市,北畝３丁目２番４１号,,33,202,7128032,,,,,,,2023-06-05,1,,,,,エイチエスエー,0
2486,9260001038006,新規,0,2023-06-05,2023-06-05,株式会社スナグ・ワークス,,株式会社,岡山県,岡山市中区,門田本町１丁目６番７号,,33,102,7038274,,,,,,,2023-06-05,1,,,,,スナグワークス,0
2497,9290001101735,新規,0,2023-06-05,2023-06-05,株式会社パワーバンクネクスト福岡,,株式会社,福岡県,久留米市,城島町大依６４番地５,,40,203,8300205,,,,,,,2023-06-05,1,,,,,パワーバンクネクストフクオカ,0
2498,9290001101751,新規,0,2023-06-05,2023-06-05,株式会社Ｊ＆アソシエイツ,,株式会社,福岡県,福岡市中央区,天神４丁目６番７号,,40,133,8100001,,,,,,,2023-06-05,1,,,,,ジェイアンドアソシエイツ,0
2506,9290803004425,新規,0,2023-06-05,2023-06-05,合同会社エフロジック,,合同会社,福岡県,北九州市小倉北区,金田１丁目１番７号棟６０８,,40,106,8030816,,,,,,,2023-06-05,1,,,,,エフロジック,0
2511,9320001019791,新規,0,2023-06-05,2023-06-05,株式会社オリオン工業,,株式会社,大分県,大分市,大字駄原２０２７番地の８,,44,201,8700100,,,,,,,2023-06-05,1,,,,,,0
2512,9320001019800,新規,0,2023-06-05,2023-06-05,Ｍ・Ｋ・Ｋ株式会社,,株式会社,大分県,大分市,大字津守２１３番地,,44,201,8700945,,,,,,,2023-06-05,1,,,,,エムケイケイ,0
2513,9320001019809,新規,0,2023-06-05,2023-06-05,株式会社マルヒラ伐工,,株式会社,大分県,玖珠郡九重町,大字引治９５６番地,,44,461,8794722,,,,,,,2023-06-05,1,,,,,マルヒラバッコウ,0
2515,9330001030921,新規,0,2023-06-05,2023-06-05,株式会社地域総研,,株式会社,熊本県,上益城郡益城町,大字田原１１５５番地１２テクノラボラトリ,,43,443,8612202,,,,,,,2023-06-05,1,,,,,チイキソウケン,0
2520,9340001025615,新規,0,2023-06-05,2023-06-05,株式会社Ｂ＆Ｍ,,株式会社,鹿児島県,日置市,日吉町日置３１０５,,46,216,8993101,,,,,,,2023-06-05,1,,,,,ビーアンドエム,0
2521,9340001025623,新規,0,2023-06-05,2023-06-05,株式会社ＹＡＲＤ　ｉｓｓｕｅ,,株式会社,鹿児島県,曽於市,財部町南俣３１４８番地,,46,217,8994101,,,,,,,2023-06-05,1,,,,,ヤードイシュー,0
2523,9350001018378,新規,0,2023-06-05,2023-06-05,株式会社ＳＫＹ,,株式会社,宮崎県,宮崎市,広島２丁目８番２６号ＡＩＮＡ５０１号,,45,201,8800806,,,,,,,2023-06-05,1,,,,,スカイ,0
2537,9370001050032,新規,0,2023-06-05,2023-06-05,リタテラス株式会社,,株式会社,宮城県,仙台市青葉区,愛子中央３丁目２４番１５号,,04,101,9893128,,,,,,,2023-06-05,1,,,,,リタテラス,0
2539,9370003006156,新規,0,2023-06-05,2023-06-05,アンブレラ合同会社,,合同会社,宮城県,塩竈市,白萩町６番１２号,,04,203,9850032,,,,,,,2023-06-05,1,,,,,アンブレラ,0
2545,9390001017277,新規,0,2023-06-05,2023-06-05,株式会社ＶＲＩＣＨｅ,,株式会社,山形県,山形市,久保田１丁目５番１号,,06,201,9902482,,,,,,,2023-06-05,1,,,,,ヴィリッシュ,0
2546,9390005009015,新規,0,2023-06-05,2023-06-05,一般社団法人山形県トライアスロン協会,,その他の設立登記法人,山形県,酒田市,浜田１丁目９番２１号,,06,204,9980031,,,,,,,2023-06-05,1,,,,,ヤマガタケントライアスロンキョウカイ,0
2547,9400001016277,新規,0,2023-06-05,2023-06-05,Ｇｏｌｄｅｎ　Ｆｉｅｌｄ株式会社,,株式会社,岩手県,八幡平市,大更第２５地割１１３番地八幡平市起業家支援センター,,03,214,0287111,,,,,,,2023-06-05,1,,,,,ゴールデンフィールド,0
2548,9400003003091,新規,0,2023-06-05,2023-06-05,かまいし土木コンサルタント合同会社,,合同会社,岩手県,釜石市,甲子町第２地割１７０番地２,,03,211,0260055,,,,,,,2023-06-05,1,,,,,カマイシドボクコンサルタント,0
2549,9410001013505,新規,0,2023-06-05,2023-06-05,株式会社かわむら,,株式会社,秋田県,仙北市,角館町裏町２番地１,,05,215,0140336,,,,,,,2023-06-05,1,,,,,カワムラ,0
2552,9420003002736,新規,0,2023-06-05,2023-06-05,合同会社ＭＡＮＡ‐ＢＯＷ,,合同会社,青森県,五所川原市,大字長橋字橋元２２番地５２,,02,205,0370068,,,,,,,2023-06-05,1,,,,,,0
2563,9440001009269,新規,0,2023-06-05,2023-06-05,株式会社澤建ホールディングス,,株式会社,北海道,函館市,昭和３丁目３６番１号,,01,202,0410812,,,,,,,2023-06-05,1,,,,,サワケンホールディングス,0
2566,9500001024971,新規,0,2023-06-05,2023-06-05,株式会社ハヤシ技研,,株式会社,愛媛県,伊予市,米湊１７３５番地１,,38,210,7993113,,,,,,,2023-06-05,1,,,,,ハヤシギケン,0
2567,9700150116863,新規,0,2023-06-05,2023-06-05,ＳＨＥＮＺＨＥＮ　ＹＩＤＡＸＩＮ　ＥＬＥＣＴＲＯＮＩＣ　ＣＯＭＭＥＲＣＥ　ＣＯ．，ＬＴＤ,,外国会社等,,,,,,,,Ｒ３３，Ｆｌｏｏｒ８，Ｂｕｉｌｄｉｎｇ　Ｃ，Ｚｈｏｎｇｔｉａｎｙｕａｎ　ＬｏｇｉｓｔｉｃｓＣｅｎｔｅｒ，Ｎｏ．８，ＴａｏｈｕａＲｏａｄ，ＦｕｂａｏＣｏｍｍｕｎｉｔｙ，ＦｕｂａｏＳｔｒｅｅｔ，ＦｕｔｉａｎＤｉｓｔｒｉｃｔ　Ｓｈｅｎｚｈｅｎ　Ｇｕａｎｇｄｏｎｇ　Ｃｈｉｎａ,,,,,,2023-06-05,1,,,,,シンセンイダシンエレクトロニックコマースカンパニーリミテッド,0
2568,9700150116871,新規,0,2023-06-05,2023-06-05,Ｓｈｅｎｚｈｅｎ　Ｌｉｕｙｅｘｉｆｅｎｇ　Ｔｅｃｈｎｏｌｏｇｙ　Ｃｏ．，Ｌｔｄ．,,外国会社等,,,,,,,,Ｓｈａｔｉａｎ　Ｓｔ．，Ｔｉａｎ’ａｎ　Ｃｏｍｍｕｎｉｔｙ，Ｓｈｅｎｎａｎ　Ｒｏａｄ　６０３３．，Ｒｍ．２０Ｄ２４，Ｊｉｎｙｕｎ　Ｃｅｎｔｕｒｙ　Ｂｌｄｇ．，Ｓｈｅｎｚｈｅｎ．,,,,,,2023-06-05,1,,,,,シンセンリュウイェシフェンテクノロジーカンパニーリミテッド,0
2569,9700150116888,新規,0,2023-06-05,2023-06-05,ＮｉＫｅＫｅＪｉ（ＳｈｅｎＺｈｅｎ）ＹｏｕＸｉａｎＧｏｎｇＳｉ,,外国会社等,,,,,,,,Ｌｏｎｇｇａｎｇｑｕｂａｎｔｉａｎｊｉｅｄａｏｂａｎｔｉａｎｓｈｅｑｕｊｉｈｕａｌｕ５３５ｈａｏｓｉｃｅｎｇ４０５　Ｓｈｅｎｚｈｅｎｓｈｉ　Ｇｕａｎｇｄｏｎｇｓｈｅｎｇ　ＣＮ,,,,,,2023-06-05,1,,,,,ニケケジシンセンユウゲンコウシ,0
2570,9700150116896,新規,0,2023-06-05,2023-06-05,ＨＡＮＧＺＨＯＵ　ＧＵＡＮＧＤＡＯＬＩＡＮＧＴＩＡＮＭＡＯＹＩ　ＹＯＵＸＩＡＮＧＯＮＧＳＩ,,外国会社等,,,,,,,,５２４＃　Ｂｕｉｌｄｉｎｇ　１０，１＃　Ｗｅｉｙｅ　Ｒｏａｄ，Ｐｕｙａｎｊｉｅｄａｏ，Ｂｉｎｊｉａｎｇｑｕ，Ｈａｎｇｚｈｏｕ，Ｚｈｅｊｉａｎｇ,,,,,,2023-06-05,1,,,,,ハンゾォウグゥアンダオリャンテェンマオイユウゲンコウシ,0
2571,9700150116905,新規,0,2023-06-05,2023-06-05,ｘｉｎｇｈｕｉ（ｎｉｎｇｂｏ）ｋｅｊｉｃｈｕａｎｇｘｉｎ　ｙｏｕｘｉａｎｇｏｎｇｓｉ,,外国会社等,,,,,,,,ｙｉｎｚｈｏｕｑｕｑｉｕａｉｚｈｅｎ　ｓｈｅｎｇｍｏｂｅｉｌｕ３４０，３４６ｈａｏ１３３０ｓｈｉ　ｎｉｎｇｂｏ　ｚｈｅｊｉａｎｇ　ＣＮ,,,,,,2023-06-05,1,,,,,シンホゥイニンボケジツゥアンシンユウゲンコウシ,0
