sequenceNumber,corporateNumber,process,correct,updateDate,changeDate,name,nameImageId,kind,prefectureName,cityName,streetNumber,addressImageId,prefectureCode,cityCode,postCode,addressOutside,addressOutsideImageId,closeDate,closeCause,successorCorporateNumber,changeCause,assignmentDate,latest,enName,enPrefectureName,enCityName,enAddressOutside,furigana,hihyoji
8,1010005036211,新規,0,2023-02-03,2023-02-03,一般社団法人ＫＳＦＲ７,,その他の設立登記法人,東京都,千代田区,内幸町２丁目１番６号,,13,101,1000011,,,,,,,2023-02-03,1,,,,,ケイエスエフアールセブン,0
10,1010105002195,新規,0,2023-02-03,2023-02-03,一般社団法人Ｔｏｋｙｏ　Ｕｎｉｔｙ,,その他の設立登記法人,東京都,八王子市,めじろ台１丁目５７－８,,13,201,1930833,,,,,,,2023-02-03,1,,,,,トウキョウユニティ,0
16,1010401172213,新規,0,2023-02-03,2023-02-03,株式会社ＥＴＥＲＮＡＬ　ＢＥＡＵＴＹ　ＪＡＰＡＮ,,株式会社,東京都,港区,白金台５丁目１８番４号,,13,103,1080071,,,,,,,2023-02-03,1,,,,,エターナルビューティージャパン,0
17,1010401172254,新規,0,2023-02-03,2023-02-03,株式会社イーエムホールディングス,,株式会社,東京都,港区,赤坂８丁目５番４０号ＰＥＧＡＳＵＳＡＯＹＡＭＡ７２０,,13,103,1070052,,,,,,,2023-02-03,1,,,,,イーエムホールディングス,0
18,1010401172295,新規,0,2023-02-03,2023-02-03,アマン株式会社,,株式会社,東京都,港区,六本木６丁目１０番１号六本木ヒルズ森タワー１７階,,13,103,1060032,,,,,,,2023-02-03,1,,,,,アマン,0
19,1010401172312,新規,0,2023-02-03,2023-02-03,ワイエスメンテナンス株式会社,,株式会社,東京都,港区,元麻布２丁目１番２１号,,13,103,1060046,,,,,,,2023-02-03,1,,,,,ワイエスメンテナンス,0
23,1010501049955,新規,0,2023-02-03,2023-02-03,リズアセットマネジメント株式会社,,株式会社,東京都,台東区,東上野１丁目７番５号,,13,106,1100015,,,,,,,2023-02-03,1,,,,,リズアセットマネジメント,0
26,1010701043816,新規,0,2023-02-03,2023-02-03,株式会社Ｄｅｓｉｇｎ　Ｓｈｉｆｔ,,株式会社,東京都,品川区,西五反田１丁目２６番２号五反田サンハイツ９１１,,13,109,1410031,,,,,,,2023-02-03,1,,,,,デザインシフト,0
28,1010703006572,新規,0,2023-02-03,2023-02-03,合同会社サウスアセット,,合同会社,東京都,品川区,勝島１丁目３番７号,,13,109,1400012,,,,,,,2023-02-03,1,,,,,サウスアセット,0
30,1010803004435,新規,0,2023-02-03,2023-02-03,合同会社Ｕｓｈｉａｍａ　Ｃｌａｓｓ,,合同会社,東京都,大田区,田園調布５丁目１３－２８,,13,111,1450071,,,,,,,2023-02-03,1,,,,,ウシアマクラス,0
31,1010901052435,新規,0,2023-02-03,2023-02-03,株式会社Ｔ‐ＷＯＲＫ,,株式会社,東京都,世田谷区,北沢３丁目５番８号,,13,112,1550031,,,,,,,2023-02-03,1,,,,,ティーワーク,0
32,1010903007949,新規,0,2023-02-03,2023-02-03,合同会社ＣＲＥＯＮＳ,,合同会社,東京都,世田谷区,松原４丁目８番１４－３０６号,,13,112,1560043,,,,,,,2023-02-03,1,,,,,クレオン,0
37,1011101101734,新規,0,2023-02-03,2023-02-03,Ｅｃｈｏ　Ｒｏｂｏｔｉｃｓ株式会社,,株式会社,東京都,新宿区,早稲田町２７番地,,13,104,1620042,,,,,,,2023-02-03,1,,,,,エコーロボティクス,0
38,1011101101742,新規,0,2023-02-03,2023-02-03,株式会社トラシェア,,株式会社,東京都,新宿区,北新宿２丁目６番２９－５０７号,,13,104,1690074,,,,,,,2023-02-03,1,,,,,トラシェア,0
39,1011103012657,新規,0,2023-02-03,2023-02-03,合同会社スープレックス,,合同会社,東京都,新宿区,西新宿３丁目３－１３西新宿水間ビル２Ｆ,,13,104,1600023,,,,,,,2023-02-03,1,,,,,スープレックス,0
40,1011201024397,新規,0,2023-02-03,2023-02-03,株式会社エクセレンス,,株式会社,東京都,中野区,中野５丁目５１番２－８０６号,,13,114,1640001,,,,,,,2023-02-03,1,,,,,エクセレンス,0
44,1011403003901,新規,0,2023-02-03,2023-02-03,合同会社エスアール,,合同会社,東京都,板橋区,西台４丁目６番１号プリマベーラ２０３,,13,119,1750045,,,,,,,2023-02-03,1,,,,,エスアール,0
46,1011703003378,新規,0,2023-02-03,2023-02-03,ビーイメージ合同会社,,合同会社,東京都,江戸川区,西葛西１丁目１２番１２号中島ビル２０１,,13,123,1340088,,,,,,,2023-02-03,1,,,,,ビーイメージ,0
53,1012401040143,新規,0,2023-02-03,2023-02-03,株式会社ＫＡＷＡＮＡ運輸,,株式会社,東京都,狛江市,駒井町２丁目１１番２０号,,13,219,2010016,,,,,,,2023-02-03,1,,,,,カワナウンユ,0
54,1012801022121,新規,0,2023-02-03,2023-02-03,株式会社加藤建工,,株式会社,東京都,国分寺市,新町３丁目２４番地１１,,13,214,1850004,,,,,,,2023-02-03,1,,,,,カトウケンコウ,0
56,1012803002996,新規,0,2023-02-03,2023-02-03,合同会社田中,,合同会社,東京都,武蔵村山市,残堀２丁目６５番地の１,,13,223,2080034,,,,,,,2023-02-03,1,,,,,タナカ,0
60,1013303006471,新規,0,2023-02-03,2023-02-03,合同会社渥美工房,,合同会社,東京都,豊島区,池袋本町１丁目２番２号,,13,116,1700011,,,,,,,2023-02-03,1,,,,,アツミコウボウ,0
68,1020001150106,新規,0,2023-02-03,2023-02-03,Ｄｏ３５株式会社,,株式会社,神奈川県,横浜市神奈川区,三枚町２３９－２サンヒルズヨコハマ２０２,,14,102,2210862,,,,,,,2023-02-03,1,,,,,ドゥーサンジュウゴ,0
69,1020001150114,新規,0,2023-02-03,2023-02-03,株式会社ミツユビ,,株式会社,神奈川県,川崎市宮前区,神木１丁目６－３７,,14,136,2160032,,,,,,,2023-02-03,1,,,,,ミツユビ,0
85,1030001152225,新規,0,2023-02-03,2023-02-03,ＳＫ　ｓｉｇｎ株式会社,,株式会社,埼玉県,桶川市,下日出谷東１丁目１６番地の１,,11,231,3630029,,,,,,,2023-02-03,1,,,,,エスケーサイン,0
86,1030001152233,新規,0,2023-02-03,2023-02-03,株式会社ふくはる,,株式会社,埼玉県,川口市,大字東本郷８３８番地の１パンサービル１階,,11,203,3340063,,,,,,,2023-02-03,1,,,,,フクハル,0
87,1030001152241,新規,0,2023-02-03,2023-02-03,株式会社ＹＫＳホールディングス,,株式会社,埼玉県,所沢市,喜多町９番５号,,11,208,3591113,,,,,,,2023-02-03,1,,,,,ワイケイエスホールディングス,0
93,1030003021097,新規,0,2023-02-03,2023-02-03,合同会社浅井興業,,合同会社,埼玉県,久喜市,菖蒲町菖蒲１０７１番地６,,11,232,3460106,,,,,,,2023-02-03,1,,,,,アサイコウギョウ,0
99,1040001126921,新規,0,2023-02-03,2023-02-03,株式会社柏南防災,,株式会社,千葉県,柏市,南増尾２丁目２－４４,,12,217,2770054,,,,,,,2023-02-03,1,,,,,ハクナンボウサイ,0
100,1040001126938,新規,0,2023-02-03,2023-02-03,株式会社ＯＡＳＩＳ,,株式会社,千葉県,市川市,東大和田１丁目２番４－３０４号,,12,203,2720026,,,,,,,2023-02-03,1,,,,,オアシス,0
101,1040001126946,新規,0,2023-02-03,2023-02-03,株式会社ＢｏｒｄｅｒＴｅｃｈ,,株式会社,千葉県,流山市,おおたかの森東４丁目３１番地の９,,12,220,2700138,,,,,,,2023-02-03,1,,,,,ボーダーテック,0
102,1040001126970,新規,0,2023-02-03,2023-02-03,株式会社ｃａｒｅｆａｒｍ,,株式会社,千葉県,千葉市花見川区,さつきが丘２丁目１番地１－１１３号,,12,102,2620014,,,,,,,2023-02-03,1,,,,,ケアファーム,0
105,1040003021848,新規,0,2023-02-03,2023-02-03,合同会社Ｉ・Ｊ・Ｆ,,合同会社,千葉県,千葉市稲毛区,園生町３９２番地３,,12,103,2630051,,,,,,,2023-02-03,1,,,,,アイジェイエフ,0
106,1040003021872,新規,0,2023-02-03,2023-02-03,合同会社ＫＵＲＵＭＩＲＡＩ,,合同会社,千葉県,四街道市,もねの里６丁目２－１５,,12,228,2840016,,,,,,,2023-02-03,1,,,,,クルミライ,0
111,1050001052324,新規,0,2023-02-03,2023-02-03,株式会社ＹＫＣつくば,,株式会社,茨城県,つくば市,島名４４３６番地（香取台Ｂ５７街区１）ガレリアヴェール６０９号,,08,220,3002655,,,,,,,2023-02-03,1,,,,,ワイケーシーツクバ,0
112,1050003007210,新規,0,2023-02-03,2023-02-03,トヒドトレーダーズインターナショナル合同会社,,合同会社,茨城県,古河市,東山田５８１番地１,,08,204,3060112,,,,,,,2023-02-03,1,,,,,トヒドトレーダーズインターナショナル,0
117,1070001040070,新規,0,2023-02-03,2023-02-03,株式会社ＯＲＩＯＮ,,株式会社,群馬県,高崎市,高関町３８５番地シャルムアゼリア１０６号,,10,202,3700043,,,,,,,2023-02-03,1,,,,,オリオン,0
118,1070001040087,新規,0,2023-02-03,2023-02-03,株式会社Ｌａｕｌｅ’ａ,,株式会社,群馬県,高崎市,棟高町７００番地１,,10,202,3703521,,,,,,,2023-02-03,1,,,,,ラウレア,0
119,1070001040095,新規,0,2023-02-03,2023-02-03,株式会社群勢,,株式会社,群馬県,前橋市,粕川町下東田面１０６番地１,,10,201,3710212,,,,,,,2023-02-03,1,,,,,グンゼイ,0
122,1080001025442,新規,0,2023-02-03,2023-02-03,株式会社プラスフォース,,株式会社,静岡県,静岡市駿河区,西中原２丁目３番６号ユーロテラス西中原Ｂ１０２号室,,22,102,4228053,,,,,,,2023-02-03,1,,,,,プラスフォース,0
123,1080001025450,新規,0,2023-02-03,2023-02-03,株式会社Ｃｏｏｌ　ｔｈｅ　Ｅａｒｔｈ,,株式会社,静岡県,静岡市葵区,南安倍１丁目１０番３号,,22,101,4200054,,,,,,,2023-02-03,1,,,,,クールジアース,0
128,1080101023775,新規,0,2023-02-03,2023-02-03,つかさ建設株式会社,,株式会社,静岡県,三島市,三恵台２９番地の６,,22,206,4110017,,,,,,,2023-02-03,1,,,,,ツカサケンセツ,0
130,1080103002736,新規,0,2023-02-03,2023-02-03,合同会社Ｋ４,,合同会社,静岡県,三島市,文教町１丁目５番１５号,,22,206,4110033,,,,,,,2023-02-03,1,,,,,ケーフォー,0
137,1080403004713,新規,0,2023-02-03,2023-02-03,シトミ合同会社,,合同会社,静岡県,掛川市,上内田２５６７番地,,22,213,4360012,,,,,,,2023-02-03,1,,,,,シトミ,0
138,1090005007543,新規,0,2023-02-03,2023-02-03,医療法人甲玄会,,その他の設立登記法人,山梨県,甲府市,上石田１丁目１２番７号,,19,201,4000041,,,,,,,2023-02-03,1,,,,,コウゲンカイ,0
139,1100001036107,新規,0,2023-02-03,2023-02-03,株式会社Ｋ,,株式会社,長野県,長野市,早苗町２９番地,,20,201,3800812,,,,,,,2023-02-03,1,,,,,ケイ,0
140,1100001036115,新規,0,2023-02-03,2023-02-03,ｅｓ流通サービス株式会社,,株式会社,長野県,長野市,大字東和田８５７番地１,,20,201,3810038,,,,,,,2023-02-03,1,,,,,イーエスリュウツウサービス,0
141,1100005012970,新規,0,2023-02-03,2023-02-03,一般財団法人ながのこども財団,,その他の設立登記法人,長野県,長野市,大字鶴賀緑町１６１３番地,,20,201,3800813,,,,,,,2023-02-03,1,,,,,ナガノコドモザイダン,0
142,1110001037277,新規,0,2023-02-03,2023-02-03,株式会社巧総業,,株式会社,新潟県,新発田市,御幸町２丁目７番４号,,15,206,9570057,,,,,,,2023-02-03,1,,,,,タクミソウギョウ,0
143,1110003004977,新規,0,2023-02-03,2023-02-03,合同会社ｎｏ　ｎａｍｅ,,合同会社,新潟県,上越市,石橋２丁目１２番７号,,15,222,9420074,,,,,,,2023-02-03,1,,,,,ノーネーム,0
149,1120001252131,新規,0,2023-02-03,2023-02-03,楽意旺株式会社,,株式会社,大阪府,大阪市東成区,東小橋１丁目１７－３１グランドハイツ東小橋２０８号室,,27,115,5370024,,,,,,,2023-02-03,1,,,,,ラクイオウ,0
150,1120001252164,新規,0,2023-02-03,2023-02-03,株式会社Ｕｐ　Ｌｉｋｙ,,株式会社,大阪府,大阪市中央区,島之内２丁目６番２９号シティイン島之内４Ｂ,,27,128,5420082,,,,,,,2023-02-03,1,,,,,アップライキィ,0
151,1120001252206,新規,0,2023-02-03,2023-02-03,Ａｙａｎ　Ｉｎｔｅｒｎａｔｉｏｎａｌ株式会社,,株式会社,大阪府,大阪市淀川区,西中島７丁目２－１３,,27,123,5320011,,,,,,,2023-02-03,1,,,,,アヤンインターナショナル,0
157,1120005023446,新規,0,2023-02-03,2023-02-03,一般社団法人地域終活支援センター,,その他の設立登記法人,大阪府,大阪市北区,梅田１丁目１１番４号大阪駅前第４ビル１階３２,,27,127,5300001,,,,,,,2023-02-03,1,,,,,チイキシュウカツシエンセンター,0
158,1120005023454,新規,0,2023-02-03,2023-02-03,医療法人甲聖会,,その他の設立登記法人,大阪府,大阪市北区,中津３丁目６番６号,,27,127,5310071,,,,,,,2023-02-03,1,,,,,コウセイカイ,0
160,1120101066910,新規,0,2023-02-03,2023-02-03,株式会社ＯＲＧＡＴＴＥ,,株式会社,大阪府,堺市東区,日置荘北町３丁９番２２,,27,143,5998111,,,,,,,2023-02-03,1,,,,,オルガット,0
161,1120101066919,新規,0,2023-02-03,2023-02-03,株式会社坂野商事,,株式会社,大阪府,堺市美原区,太井４４３番地１７,,27,147,5870062,,,,,,,2023-02-03,1,,,,,サカノショウジ,0
163,1120903004480,新規,0,2023-02-03,2023-02-03,ＫＮＭＴ合同会社,,合同会社,大阪府,吹田市,新芦屋上四丁目７番３０５号,00129316,27,205,5650804,,,,,,,2023-02-03,1,,,,,ケーエヌエムティー,0
164,1120903004489,新規,0,2023-02-03,2023-02-03,Ｙ＆Ａ合同会社,,合同会社,大阪府,高槻市,八丁畷町８番２５号,,27,207,5690096,,,,,,,2023-02-03,1,,,,,ワイアンドエー,0
167,1122001036662,新規,0,2023-02-03,2023-02-03,株式会社野村商会,,株式会社,大阪府,東大阪市,大蓮南５丁目１１番２７号,,27,227,5770825,,,,,,,2023-02-03,1,,,,,ノムラショウカイ,0
177,1140001128957,新規,0,2023-02-03,2023-02-03,ｆｒｏｍ　ｎｏｗ株式会社,,株式会社,兵庫県,明石市,二見町東二見８９７番地の２,,28,203,6740092,,,,,,,2023-02-03,1,,,,,フロムナウ,0
178,1140001128973,新規,0,2023-02-03,2023-02-03,株式会社ストリア,,株式会社,兵庫県,神戸市須磨区,須磨浦通４丁目７番８号,,28,107,6540055,,,,,,,2023-02-03,1,,,,,ストリア,0
179,1140001129039,新規,0,2023-02-03,2023-02-03,株式会社セイテック,,株式会社,兵庫県,明石市,二見町東二見７５２番地の４,,28,203,6740092,,,,,,,2023-02-03,1,,,,,セイテック,0
180,1140001129047,新規,0,2023-02-03,2023-02-03,株式会社ＳＩＮＣＡ,,株式会社,兵庫県,神戸市西区,桜が丘東町１丁目１１－１１,,28,111,6512225,,,,,,,2023-02-03,1,,,,,シンカー,0
183,1150001026160,新規,0,2023-02-03,2023-02-03,株式会社聖翔工務店,,株式会社,奈良県,香芝市,藤山１丁目１７－３下田ビル１－Ａ,,29,210,6390243,,,,,,,2023-02-03,1,,,,,セイショウコウムテン,0
186,1160003002786,新規,0,2023-02-03,2023-02-03,合同会社ホテルエスタシオン,,合同会社,滋賀県,彦根市,旭町８番３１号,,25,202,5220073,,,,,,,2023-02-03,1,,,,,ホテルエスタシオン,0
187,1170003001829,新規,0,2023-02-03,2023-02-03,祐徳興業合同会社,,合同会社,和歌山県,有田郡有田川町,大字小島３４０番地４,,30,366,6430034,,,,,,,2023-02-03,1,,,,,ユウトクコウギョウ,0
193,1180001154784,新規,0,2023-02-03,2023-02-03,株式会社Ｌｉｎｋ,,株式会社,愛知県,名古屋市中区,錦３丁目１番９号桜町ビル４階,,23,106,4600003,,,,,,,2023-02-03,1,,,,,リンク,0
198,1180003024795,新規,0,2023-02-03,2023-02-03,合同会社ベテルギウス,,合同会社,愛知県,小牧市,新町２丁目２８４,,23,219,4850013,,,,,,,2023-02-03,1,,,,,ベテルギウス,0
200,1180301037061,新規,0,2023-02-03,2023-02-03,株式会社藤田,,株式会社,愛知県,安城市,美園町２丁目１０番地１１ビレッジ美園Ｂ棟,,23,212,4460076,,,,,,,2023-02-03,1,,,,,フジタ,0
206,1200001040924,新規,0,2023-02-03,2023-02-03,株式会社グラシアス,,株式会社,岐阜県,岐阜市,東鶉５丁目１８８番地（エンポリアム．２０２号室）,,21,201,5008281,,,,,,,2023-02-03,1,,,,,グラシアス,0
209,1210001019224,新規,0,2023-02-03,2023-02-03,株式会社萩原内装,,株式会社,福井県,越前市,高木町第５２号３７番地,,18,209,9150091,,,,,,,2023-02-03,1,,,,,ハギワラナイソウ,0
210,1230001019701,新規,0,2023-02-03,2023-02-03,株式会社ＳＡテラス,,株式会社,富山県,下新川郡入善町,東狐１５３３番地７,,16,342,9390657,,,,,,,2023-02-03,1,,,,,エスエーテラス,0
212,1240001061033,新規,0,2023-02-03,2023-02-03,株式会社西川工業,,株式会社,広島県,広島市佐伯区,五日市１丁目２番１５－８０１号,,34,108,7315127,,,,,,,2023-02-03,1,,,,,ニシカワコウギョウ,0
215,1250001019947,新規,0,2023-02-03,2023-02-03,株式会社ビットリンク,,株式会社,山口県,萩市,大字椿東５６８８番地,,35,204,7580011,,,,,,,2023-02-03,1,,,,,ビットリンク,0
220,1260001037634,新規,0,2023-02-03,2023-02-03,Ｎｓ’サポート株式会社,,株式会社,岡山県,倉敷市,加須山８２９番地５４,,33,202,7100026,,,,,,,2023-02-03,1,,,,,エヌズサポート,0
236,1290001100331,新規,0,2023-02-03,2023-02-03,株式会社五縁,,株式会社,福岡県,福岡市博多区,中洲２丁目６番７号,,40,132,8100801,,,,,,,2023-02-03,1,,,,,ゴエン,0
237,1290001100430,新規,0,2023-02-03,2023-02-03,株式会社小笠原Ｎｅｏ,,株式会社,福岡県,筑紫野市,大字山家２７５１番地１,,40,217,8180003,,,,,,,2023-02-03,1,,,,,オガサワラネオ,0
238,1290005018941,新規,0,2023-02-03,2023-02-03,一般社団法人蓬莱蕉の会,,その他の設立登記法人,福岡県,福岡市西区,西の丘２丁目２番１２号,,40,135,8190046,,,,,,,2023-02-03,1,,,,,ホウライショウノカイ,0
246,1310001018249,新規,0,2023-02-03,2023-02-03,株式会社まるとも木材,,株式会社,長崎県,佐世保市,竹辺町１００番地１,,42,202,8580911,,,,,,,2023-02-03,1,,,,,マルトモモクザイ,0
247,1310001018257,新規,0,2023-02-03,2023-02-03,株式会社クリエーヴ,,株式会社,長崎県,長崎市,矢上町４０番１０号,,42,201,8510133,,,,,,,2023-02-03,1,,,,,クリエーヴ,0
248,1320001019551,新規,0,2023-02-03,2023-02-03,株式会社柴北設備,,株式会社,大分県,大分市,大字細１６１番地,,44,201,8700305,,,,,,,2023-02-03,1,,,,,シバキタセツビ,0
251,1330001030573,新規,0,2023-02-03,2023-02-03,株式会社ウルトラック,,株式会社,熊本県,熊本市北区,龍田１丁目１５番１１１号,,43,105,8618006,,,,,,,2023-02-03,1,,,,,ウルトラック,0
257,1340001025358,新規,0,2023-02-03,2023-02-03,ＡｓｅＢｉ株式会社,,株式会社,鹿児島県,鹿児島市,荒田１丁目１９番１９号２階,,46,201,8900054,,,,,,,2023-02-03,1,,,,,アセビ,0
261,1350001018162,新規,0,2023-02-03,2023-02-03,株式会社上田工業,,株式会社,宮崎県,小林市,細野３４８０番地１,,45,205,8860004,,,,,,,2023-02-03,1,,,,,ウエダコウギョウ,0
262,1360001031528,新規,0,2023-02-03,2023-02-03,株式会社カナエハウジング,,株式会社,沖縄県,中頭郡北谷町,美浜３丁目４番５号,,47,326,9040115,,,,,,,2023-02-03,1,,,,,カナエハウジング,0
263,1360003012690,新規,0,2023-02-03,2023-02-03,合同会社ＡＺコーポレーション,,合同会社,沖縄県,那覇市,字大道５７番地,,47,201,9020066,,,,,,,2023-02-03,1,,,,,アズコーポレーション,0
272,1400001016152,新規,0,2023-02-03,2023-02-03,株式会社インテリアユウケン,,株式会社,岩手県,北上市,鳩岡崎１地割１１６番地１,,03,206,0240076,,,,,,,2023-02-03,1,,,,,インテリアユウケン,0
274,1420003002660,新規,0,2023-02-03,2023-02-03,ブラストプラン合同会社,,合同会社,青森県,八戸市,大字河原木字八太郎山１０番地５３２,,02,203,0391161,,,,,,,2023-02-03,1,,,,,ブラストプラン,0
278,1430003014705,新規,0,2023-02-03,2023-02-03,合同会社西尾建設,,合同会社,北海道,石狩市,花川南五条５丁目９３番地,,01,235,0613205,,,,,,,2023-02-03,1,,,,,ニシオケンセツ,0
279,1450001013896,新規,0,2023-02-03,2023-02-03,株式会社Ｄｏｒｆ,,株式会社,北海道,雨竜郡妹背牛町,字妹背牛８２３０番地,,01,433,0790500,,,,,,,2023-02-03,1,,,,,ドルフ,0
286,1500001024748,新規,0,2023-02-03,2023-02-03,株式会社エナジーストレージＹＳＣ,,株式会社,愛媛県,松山市,湊町６丁目６番地２,,38,201,7900012,,,,,,,2023-02-03,1,,,,,エナジーストレージワイエスシー,0
287,1500003002974,新規,0,2023-02-03,2023-02-03,合同会社Ｕ,,合同会社,愛媛県,松山市,木屋町１丁目５番地６パークベルズ木屋町５０２号,,38,201,7900821,,,,,,,2023-02-03,1,,,,,ユー,0
290,1700150114189,新規,0,2023-02-03,2023-02-03,ＲｏｃｋＴｅｋ　Ｃｏ．，Ｌｔｄ．,,外国会社等,,,,,,,,１６Ｆ．－９，Ｎｏ．１８４，Ｚｈｏｎｇｙａｎｇ　Ｒｄ．，Ｃｈａｎｇｈｕａ　Ｃｉｔｙ，Ｃｈａｎｇｈｕａ　Ｃｏｕｎｔｙ　５００５６，Ｔａｉｗａｎ（Ｒ．Ｏ．Ｃ．）,,,,,,2023-02-03,1,,,,,ロックテックカンパニーリミティッド,0
291,1700150114197,新規,0,2023-02-03,2023-02-03,ｚｈｕ　ｈａｉ　ｙｕａｎ　ｒｏｎｇ　ｋｅ　ｊｉ　ｙｏｕ　ｘｉａｎ　ｇｏｎｇ　ｓｉ,,外国会社等,,,,,,,,ｚｈｕ　ａｏ　ｋｕａ　ｊｉｎｇ　ｇｏｎｇ　ｙｅ　ｑｕ　ｚｈｕ　ｈａｉ　ｙｕａｎ　ｑｕ，７－１ｈａｏ　ｄｉ　ｃｈａｎｇ　ｆａｎｇ　５Ａ００６　ｈａｏ，ｚｈｕ　ｈａｉ　ｓｈｉ　ｇｕａｎｇ　ｄｏｎｇ　ｓｈｅｎｇ，Ｃｈｉｎａ,,,,,,2023-02-03,1,,,,,シュカイエンユウカギユウゲンコウシ,0
301,2010001232556,新規,0,2023-02-03,2023-02-03,万物株式会社,,株式会社,東京都,中央区,日本橋浜町２丁目４７番１号根岸ビル２Ｆ,,13,102,1030007,,,,,,,2023-02-03,1,,,,,バンブツ,0
302,2010001232572,新規,0,2023-02-03,2023-02-03,株式会社はじまり,,株式会社,東京都,千代田区,神田多町２丁目２番地２２千代田ビル４階,,13,101,1010046,,,,,,,2023-02-03,1,,,,,ハジマリ,0
303,2010001232663,新規,0,2023-02-03,2023-02-03,株式会社モアウェルネス東京,,株式会社,東京都,千代田区,神田三崎町３丁目３番３号３０２,,13,101,1010061,,,,,,,2023-02-03,1,,,,,モアウェルネストウキョウ,0
304,2010001232754,新規,0,2023-02-03,2023-02-03,株式会社ＹＳＫ,,株式会社,東京都,千代田区,神田三崎町３丁目７番１４号たかのビル４階,,13,101,1010061,,,,,,,2023-02-03,1,,,,,ワイエスケー,0
305,2010003039751,新規,0,2023-02-03,2023-02-03,合同会社ウェルスファンドツー,,合同会社,東京都,千代田区,丸の内３丁目１番１号東京共同会計事務所内,,13,101,1000005,,,,,,,2023-02-03,1,,,,,ウェルスファンドツー,0
308,2010005036202,新規,0,2023-02-03,2023-02-03,税理士法人冨山・海老澤会計事務所,,その他の設立登記法人,東京都,千代田区,九段南２丁目２番５号,,13,101,1020074,,,,,,,2023-02-03,1,,,,,トミヤマエビサワカイケイジムショ,0
309,2010005036210,新規,0,2023-02-03,2023-02-03,一般社団法人ＫＳＦＲ６,,その他の設立登記法人,東京都,千代田区,内幸町２丁目１番６号,,13,101,1000011,,,,,,,2023-02-03,1,,,,,ケイエスエフアールシックス,0
311,2010101015514,新規,0,2023-02-03,2023-02-03,株式会社ハイライズ,,株式会社,東京都,八王子市,元横山町１丁目２６番９号,,13,201,1920063,,,,,,,2023-02-03,1,,,,,ハイライズ,0
315,2010401172253,新規,0,2023-02-03,2023-02-03,ビタミンファーム株式会社,,株式会社,東京都,港区,愛宕２丁目５番１号愛宕グリーンヒルズＭＯＲＩタワー３４Ｆ,,13,103,1050002,,,,,,,2023-02-03,1,,,,,ビタミンファーム,0
316,2010401172294,新規,0,2023-02-03,2023-02-03,株式会社ＤＮコンサルティング,,株式会社,東京都,港区,南青山２丁目２番１５号ウィン青山９４２,,13,103,1070062,,,,,,,2023-02-03,1,,,,,ディーエヌコンサルティング,0
317,2010401172303,新規,0,2023-02-03,2023-02-03,アーキタイプ株式会社,,株式会社,東京都,港区,麻布十番２丁目８番１０号,,13,103,1060045,,,,,,,2023-02-03,1,,,,,アーキタイプ,0
318,2010401172311,新規,0,2023-02-03,2023-02-03,株式会社ＮＯＡＬＩＡ,,株式会社,東京都,港区,南青山２丁目４番１１－１０２号ランド南青山,,13,103,1070062,,,,,,,2023-02-03,1,,,,,ノアリア,0
322,2010403029443,新規,0,2023-02-03,2023-02-03,スクエア合同会社,,合同会社,東京都,港区,三田１丁目３－４０,,13,103,1080073,,,,,,,2023-02-03,1,,,,,スクエア,0
330,2010701043781,新規,0,2023-02-03,2023-02-03,株式会社ラ・クラシン,,株式会社,東京都,品川区,東五反田２丁目１番１０号,,13,109,1410022,,,,,,,2023-02-03,1,,,,,ラクラシン,0
331,2010701043807,新規,0,2023-02-03,2023-02-03,アズクロノス株式会社,,株式会社,東京都,品川区,東大井４丁目１番１１－７０１号,,13,109,1400011,,,,,,,2023-02-03,1,,,,,アズクロノス,0
332,2010701043815,新規,0,2023-02-03,2023-02-03,株式会社ＴＫハウジング,,株式会社,東京都,品川区,中延６丁目１番１５号,,13,109,1420053,,,,,,,2023-02-03,1,,,,,ティーケーハウジング,0
340,2010901052418,新規,0,2023-02-03,2023-02-03,株式会社Ｑｕｔｅ,,株式会社,東京都,世田谷区,池尻２丁目９番８号,,13,112,1540001,,,,,,,2023-02-03,1,,,,,キュート,0
341,2010901052475,新規,0,2023-02-03,2023-02-03,株式会社テックディレクション,,株式会社,東京都,世田谷区,三軒茶屋１丁目１４番６－１０３号,,13,112,1540024,,,,,,,2023-02-03,1,,,,,テックディレクション,0
346,2011001152372,新規,0,2023-02-03,2023-02-03,株式会社フルグラム,,株式会社,東京都,渋谷区,元代々木町２１番１２号,,13,113,1510062,,,,,,,2023-02-03,1,,,,,フルグラム,0
347,2011001152397,新規,0,2023-02-03,2023-02-03,安平太陽光発電株式会社,,株式会社,東京都,渋谷区,広尾２丁目２２番２１号,,13,113,1500012,,,,,,,2023-02-03,1,,,,,アビラタイヨウコウハツデン,0
348,2011001152447,新規,0,2023-02-03,2023-02-03,ＭＩＴＡＭＡＭＩＮＴ株式会社,,株式会社,東京都,渋谷区,東１丁目２５番２号,,13,113,1500011,,,,,,,2023-02-03,1,,,,,ミタマミント,0
353,2011101101733,新規,0,2023-02-03,2023-02-03,栄不動産株式会社,,株式会社,東京都,新宿区,西新宿７丁目１６番１号第３歯朶ビル３階,,13,104,1600023,,,,,,,2023-02-03,1,,,,,サカエフドウサン,0
354,2011101101741,新規,0,2023-02-03,2023-02-03,株式会社Ｆｉｆｔｈ,,株式会社,東京都,新宿区,西新宿３丁目３番－１３号西新宿水間ビル６Ｆ,,13,104,1600023,,,,,,,2023-02-03,1,,,,,フィフス,0
367,2012401040142,新規,0,2023-02-03,2023-02-03,ＫＡＷＡＮＡ　ＨＧ株式会社,,株式会社,東京都,狛江市,駒井町２丁目１１番２０号,,13,219,2010016,,,,,,,2023-02-03,1,,,,,カワナエイチジー,0
370,2012801022129,新規,0,2023-02-03,2023-02-03,Ａ＆Ｋ　Ｃａｐｉｔａｌ　Ｐａｒｔｎｅｒｓ株式会社,,株式会社,東京都,東大和市,南街５丁目９３番地１,,13,220,2070014,,,,,,,2023-02-03,1,,,,,エーアンドケーキャピタルパートナーズ,0
372,2013301050272,新規,0,2023-02-03,2023-02-03,藍白株式会社,,株式会社,東京都,豊島区,東池袋２丁目１３番７号東急ドエルアルス大塚台２０５号,,13,116,1700013,,,,,,,2023-02-03,1,,,,,アイジロ,0
389,2021001078138,新規,0,2023-02-03,2023-02-03,株式会社ＳＨＵＨＡ　Ｌｉｑｕｉｄ　Ａｒｔｓ,,株式会社,神奈川県,茅ヶ崎市,平和町８番５６号,,14,207,2530024,,,,,,,2023-02-03,1,,,,,シュハリキッドアーツ,0
390,2021001078146,新規,0,2023-02-03,2023-02-03,株式会社五十嵐悠介建築事務所,,株式会社,神奈川県,鎌倉市,笛田５丁目１５番９号,,14,204,2480027,,,,,,,2023-02-03,1,,,,,イガラシユウスケケンチクジムショ,0
403,2030001152208,新規,0,2023-02-03,2023-02-03,株式会社イナバ学校リフォームさいたま,,株式会社,埼玉県,さいたま市緑区,道祖土４丁目１４－３サンビレッジさいどＣ２０２号,,11,109,3360907,,,,,,,2023-02-03,1,,,,,イナバガッコウリフォームサイタマ,0
404,2030001152216,新規,0,2023-02-03,2023-02-03,株式会社Ｚ,,株式会社,埼玉県,さいたま市浦和区,木崎２丁目１３番１９号,,11,107,3300042,,,,,,,2023-02-03,1,,,,,ゼット,0
405,2030001152232,新規,0,2023-02-03,2023-02-03,株式会社Ｓｕｎ’ｓ　Ｉｎｔｅｒｎａｔｉｏｎａｌ　Ｔｒａｄｉｎｇ,,株式会社,埼玉県,川口市,江戸２丁目１番１９号,,11,203,3340074,,,,,,,2023-02-03,1,,,,,サンズインターナショナルトレーディング,0
406,2030001152265,新規,0,2023-02-03,2023-02-03,株式会社ＪＭＮ,,株式会社,埼玉県,さいたま市桜区,中島２丁目１番１号,,11,106,3380822,,,,,,,2023-02-03,1,,,,,ジェエムエヌ,0
411,2030003021096,新規,0,2023-02-03,2023-02-03,合同会社櫻井企画,,合同会社,埼玉県,児玉郡神川町,大字元阿保５８４番地,,11,383,3670247,,,,,,,2023-02-03,1,,,,,サクライキカク,0
412,2030003021113,新規,0,2023-02-03,2023-02-03,ＧＬＯＢＡＬ　ＢＲＩＤＧＥ合同会社,,合同会社,埼玉県,川口市,東領家２丁目１７－２４,,11,203,3320003,,,,,,,2023-02-03,1,,,,,グローバルブリッジ,0
414,2030005021136,新規,0,2023-02-03,2023-02-03,一般社団法人いきいきライフ協会与野駅前,,その他の設立登記法人,埼玉県,さいたま市浦和区,上木崎１丁目１１番１号,,11,107,3300071,,,,,,,2023-02-03,1,,,,,イキイキライフキョウカイヨノエキマエ,0
420,2040001126904,新規,0,2023-02-03,2023-02-03,藤本総業株式会社,,株式会社,千葉県,船橋市,夏見台１丁目２番５棟５０３号,,12,204,2730866,,,,,,,2023-02-03,1,,,,,フジモトソウギョウ,0
421,2040001126912,新規,0,2023-02-03,2023-02-03,株式会社ケイオーガニック,,株式会社,千葉県,八千代市,大和田新田７６番地４２,,12,221,2760046,,,,,,,2023-02-03,1,,,,,ケイオーガニック,0
422,2040001126920,新規,0,2023-02-03,2023-02-03,エステル株式会社,,株式会社,千葉県,市川市,中山１丁目２２番２号,,12,203,2720813,,,,,,,2023-02-03,1,,,,,エステル,0
425,2040003021847,新規,0,2023-02-03,2023-02-03,ＫＳ　ＩＮＴＥＲＮＡＴＩＯＮＡＬ合同会社,,合同会社,千葉県,山武市,大木６８９－１,,12,237,2891211,,,,,,,2023-02-03,1,,,,,ケーエスインターナショナル,0
426,2040003021863,新規,0,2023-02-03,2023-02-03,合同会社ポテンシャル,,合同会社,千葉県,千葉市若葉区,貝塚２丁目２０番３０号ヘーベルスウィートメゾン１０６号,,12,104,2640020,,,,,,,2023-02-03,1,,,,,ポテンシャル,0
431,2060001035673,新規,0,2023-02-03,2023-02-03,株式会社イーストプラス,,株式会社,栃木県,那須塩原市,前弥六南町１５番地９,,09,213,3293136,,,,,,,2023-02-03,1,,,,,イーストプラス,0
434,2060005010045,新規,0,2023-02-03,2023-02-03,特定非営利活動法人ユニバーサル就労ネットワーク栃木,,その他の設立登記法人,栃木県,宇都宮市,塙田２丁目５番１号共生ビル３階,,09,201,3200027,,,,,,,2023-02-03,1,,,,,ユニバーサルシュウロウネットワークトチギ,0
443,2080001025441,新規,0,2023-02-03,2023-02-03,駿河機工株式会社,,株式会社,静岡県,静岡市清水区,七ツ新屋５１３番地の１,,22,103,4240066,,,,,,,2023-02-03,1,,,,,スルガキコウ,0
449,2080403004720,新規,0,2023-02-03,2023-02-03,クムルス合同会社,,合同会社,静岡県,浜松市中区,文丘町１２番１１号,,22,131,4328004,,,,,,,2023-02-03,1,,,,,クムルス,0
451,2090001017958,新規,0,2023-02-03,2023-02-03,株式会社ＹＡＫＫＥ,,株式会社,山梨県,北杜市,小淵沢町上笹尾３４８６番地２７４,,19,209,4080041,,,,,,,2023-02-03,1,,,,,ヤッケ,0
452,2090001017966,新規,0,2023-02-03,2023-02-03,株式会社小沢工業,,株式会社,山梨県,笛吹市,御坂町夏目原１３３２－２,,19,211,4060804,,,,,,,2023-02-03,1,,,,,オザワコウギョウ,0
455,2100003006866,新規,0,2023-02-03,2023-02-03,ステルヴィオ合同会社,,合同会社,長野県,上田市,常田３丁目１５－１信州大学繊維学部内ＡＲＥＣ１０号室,,20,203,3860018,,,,,,,2023-02-03,1,,,,,ステルヴィオ,0
456,2110001037276,新規,0,2023-02-03,2023-02-03,Ｇファーム株式会社,,株式会社,新潟県,加茂市,旭町１番１３号,,15,209,9591383,,,,,,,2023-02-03,1,,,,,ジーファーム,0
458,2110005016895,新規,0,2023-02-03,2023-02-03,ショウ税理士法人,,その他の設立登記法人,新潟県,新潟市中央区,東出来島１８番５号,,15,103,9500961,,,,,,,2023-02-03,1,,,,,ショウ,0
471,2120001252130,新規,0,2023-02-03,2023-02-03,株式会社ジェミニ,,株式会社,大阪府,大阪市中央区,農人橋２丁目４番１２号７Ｆ,,27,128,5400011,,,,,,,2023-02-03,1,,,,,ジェミニ,0
472,2120001252213,新規,0,2023-02-03,2023-02-03,株式会社アリストクラット,,株式会社,大阪府,大阪市淀川区,十三元今里２丁目１２番２５号２０２室,,27,123,5320028,,,,,,,2023-02-03,1,,,,,アリストクラット,0
475,2120005023453,新規,0,2023-02-03,2023-02-03,社会保険労務士法人アリーズアドバイザリー,,その他の設立登記法人,大阪府,大阪市北区,大淀中１丁目１－３０梅田スカイビルタワーウエスト,,27,127,5310076,,,,,,,2023-02-03,1,,,,,アリーズアドバイザリー,0
476,2120101066934,新規,0,2023-02-03,2023-02-03,株式会社Ｋ’ｓ　ｃｏｍｐａｎｙ,,株式会社,大阪府,堺市北区,長曽根町４７番地,,27,146,5918025,,,,,,,2023-02-03,1,,,,,ケーズカンパニー,0
477,2120101066942,新規,0,2023-02-03,2023-02-03,リッチアイランドグループ株式会社,,株式会社,大阪府,河内長野市,桐ケ丘１番３６号,,27,216,5860097,,,,,,,2023-02-03,1,,,,,リッチアイランドグループ,0
481,2120901047084,新規,0,2023-02-03,2023-02-03,アリシア株式会社,,株式会社,大阪府,吹田市,朝日町２７番－１７－４０１号,,27,205,5640027,,,,,,,2023-02-03,1,,,,,アリシア,0
482,2120903004488,新規,0,2023-02-03,2023-02-03,合同会社ユーデクス,,合同会社,大阪府,吹田市,泉町５丁目２５番４－２０３号,,27,205,5640041,,,,,,,2023-02-03,1,,,,,ユーデクス,0
492,2130001073583,新規,0,2023-02-03,2023-02-03,株式会社堀翔,,株式会社,京都府,福知山市,大江町公庄下山２５８番地４,,26,201,6200312,,,,,,,2023-02-03,1,,,,,ホリショウ,0
493,2130001073633,新規,0,2023-02-03,2023-02-03,株式会社シーム,,株式会社,京都府,宇治市,大久保町平盛２６番地の２２,,26,204,6110033,,,,,,,2023-02-03,1,,,,,シーム,0
499,2140001128956,新規,0,2023-02-03,2023-02-03,株式会社はりま営農組合,,株式会社,兵庫県,加古川市,上荘町井ノ口９２９－１０,,28,210,6751212,,,,,,,2023-02-03,1,,,,,ハリマエイノウクミアイ,0
500,2140001128980,新規,0,2023-02-03,2023-02-03,株式会社ＨＯＦＦ神戸,,株式会社,兵庫県,神戸市中央区,中山手通１丁目９番２号ＭＯＺＡＮビル２０３号,,28,110,6500004,,,,,,,2023-02-03,1,,,,,ホフコウベ,0
504,2140003018684,新規,0,2023-02-03,2023-02-03,合同会社フローラルコニシ,,合同会社,兵庫県,川西市,栄町２５－１アステ川西ＴＥＭＰＯ１７５－１２９号,,28,217,6660033,,,,,,,2023-02-03,1,,,,,フローラルコニシ,0
505,2140003018692,新規,0,2023-02-03,2023-02-03,ちはやぶる合同会社,,合同会社,兵庫県,神戸市東灘区,岡本１丁目６番１４号,,28,101,6580072,,,,,,,2023-02-03,1,,,,,チハヤブル,0
509,2150001026151,新規,0,2023-02-03,2023-02-03,株式会社アヤコーポレーション,,株式会社,奈良県,生駒市,辻町３９９番地３６ガーデンハイツ８－３０１,00129327,29,209,6300212,,,,,,,2023-02-03,1,,,,,アヤコーポレーション,0
510,2160001024807,新規,0,2023-02-03,2023-02-03,株式会社アントレッド,,株式会社,滋賀県,野洲市,北野１丁目４番１１号,,25,210,5202361,,,,,,,2023-02-03,1,,,,,アントレッド,0
518,2180001154791,新規,0,2023-02-03,2023-02-03,株式会社Ｌｉｅ　Ｐｏｎｔ,,株式会社,愛知県,名古屋市中村区,稲葉地町３丁目５３番地の１,,23,105,4530841,,,,,,,2023-02-03,1,,,,,リポン,0
519,2180001154817,新規,0,2023-02-03,2023-02-03,サンスマイル株式会社,,株式会社,愛知県,名古屋市港区,泰明町２丁目１２番地６－７０４,,23,111,4550069,,,,,,,2023-02-03,1,,,,,サンスマイル,0
520,2180001154833,新規,0,2023-02-03,2023-02-03,株式会社アールズ不動産,,株式会社,愛知県,名古屋市千種区,春岡１丁目１４番１９号,,23,101,4640848,,,,,,,2023-02-03,1,,,,,アールズフドウサン,0
525,2180301037060,新規,0,2023-02-03,2023-02-03,株式会社ＭＭＳ,,株式会社,愛知県,刈谷市,広小路７丁目８番地１ダイアパレス刈谷広小路１００４号,,23,210,4480844,,,,,,,2023-02-03,1,,,,,エムエムエス,0
526,2180301037069,新規,0,2023-02-03,2023-02-03,株式会社大英鋼業,,株式会社,愛知県,岡崎市,福岡町字西ノ切８番地５,,23,202,4440825,,,,,,,2023-02-03,1,,,,,オオエイコウギョウ,0
529,2190001030141,新規,0,2023-02-03,2023-02-03,株式会社Ｒｉｂｅｒｔａ,,株式会社,三重県,四日市市,三ツ谷町１４－２２ニューマリッチＫ２－３Ｄ,,24,202,5100802,,,,,,,2023-02-03,1,,,,,リベルタ,0
531,2200003005825,新規,0,2023-02-03,2023-02-03,合同会社サーキュラーエナジー郡上,,合同会社,岐阜県,郡上市,美並町山田１５４３番地５,,21,219,5014103,,,,,,,2023-02-03,1,,,,,サーキュラーエナジーグジョウ,0
538,2230001019700,新規,0,2023-02-03,2023-02-03,株式会社嬉浴,,株式会社,富山県,射水市,手崎１８２番地１,,16,211,9390306,,,,,,,2023-02-03,1,,,,,キヨク,0
544,2240003006002,新規,0,2023-02-03,2023-02-03,合同会社ルネッサンス高田,,合同会社,広島県,安芸高田市,美土里町本郷２９５番地,,34,214,7310612,,,,,,,2023-02-03,1,,,,,ルネッサンスタカタ,0
545,2250001019954,新規,0,2023-02-03,2023-02-03,株式会社西中国アスベストリサーチ,,株式会社,山口県,宇部市,末広町８番１０号,,35,202,7550014,,,,,,,2023-02-03,1,,,,,ニシチュウゴクアスベストリサーチ,0
552,2270003001487,新規,0,2023-02-03,2023-02-03,合同会社くるまの匠,,合同会社,鳥取県,鳥取市,古海７０４－１１,,31,201,6800921,,,,,,,2023-02-03,1,,,,,クルマノタクミ,0
553,2280003001692,新規,0,2023-02-03,2023-02-03,合同会社ＫＳコーポレーション,,合同会社,島根県,大田市,大田町大田イ７５５番地７,,32,205,6940064,,,,,,,2023-02-03,1,,,,,ケイエスコーポレーション,0
560,2290001100421,新規,0,2023-02-03,2023-02-03,株式会社もこえこ,,株式会社,福岡県,福岡市西区,福重３丁目８番８号トレンディー１０５号,,40,135,8190022,,,,,,,2023-02-03,1,,,,,モコエコ,0
561,2290001100438,新規,0,2023-02-03,2023-02-03,株式会社続米博商店,,株式会社,福岡県,柳川市,矢加部５２番地１,,40,207,8320004,,,,,,,2023-02-03,1,,,,,ゾクマイヒロシショウテン,0
562,2290001100454,新規,0,2023-02-03,2023-02-03,株式会社ウェブサポートホールディングス,,株式会社,福岡県,福岡市南区,大橋１丁目３番１８号,,40,134,8150033,,,,,,,2023-02-03,1,,,,,ウェブサポートホールディングス,0
563,2290001100470,新規,0,2023-02-03,2023-02-03,株式会社ドルジ,,株式会社,福岡県,福岡市東区,二又瀬４番１５－３０６号,,40,131,8120066,,,,,,,2023-02-03,1,,,,,ドルジ,0
569,2290801029249,新規,0,2023-02-03,2023-02-03,松福商事株式会社,,株式会社,福岡県,北九州市八幡西区,上の原２丁目１番３３号,,40,109,8070071,,,,,,,2023-02-03,1,,,,,ショウフクショウジ,0
571,2290803004332,新規,0,2023-02-03,2023-02-03,合同会社ＬＨＯＴＳＥ,,合同会社,福岡県,田川市,大字伊田４４０７番地,,40,206,8250002,,,,,,,2023-02-03,1,,,,,ローツェ,0
572,2300001013209,新規,0,2023-02-03,2023-02-03,株式会社カーレンタルうめざき,,株式会社,佐賀県,伊万里市,新天町４７２番地７,,41,205,8480041,,,,,,,2023-02-03,1,,,,,カーレンタルウメザキ,0
573,2310001018248,新規,0,2023-02-03,2023-02-03,株式会社セイカンホールディングス,,株式会社,長崎県,長崎市,矢上町４８番１号,,42,201,8510133,,,,,,,2023-02-03,1,,,,,セイカンホールディングス,0
574,2310001018256,新規,0,2023-02-03,2023-02-03,ｚｉｕ株式会社,,株式会社,長崎県,島原市,秩父が浦町丁３５０２番地１２,,42,203,8550864,,,,,,,2023-02-03,1,,,,,ジユ,0
576,2320001019550,新規,0,2023-02-03,2023-02-03,株式会社武実,,株式会社,大分県,宇佐市,大字北宇佐２０５３番地,,44,211,8720103,,,,,,,2023-02-03,1,,,,,タケミ,0
577,2320001019559,新規,0,2023-02-03,2023-02-03,株式会社ラックアローズ,,株式会社,大分県,由布市,挾間町赤野２５０番地１,,44,213,8795516,,,,,,,2023-02-03,1,,,,,ラックアローズ,0
578,2320005010051,新規,0,2023-02-03,2023-02-03,エートス税理士法人,,その他の設立登記法人,大分県,由布市,湯布院町川上３０４０番地２,,44,213,8795102,,,,,,,2023-02-03,1,,,,,エートス,0
581,2330001030556,新規,0,2023-02-03,2023-02-03,株式会社Ｋ‐ｓｍｒｔ,,株式会社,熊本県,阿蘇市,内牧１６７５番地１,,43,214,8692301,,,,,,,2023-02-03,1,,,,,ケースマート,0
587,2340001025340,新規,0,2023-02-03,2023-02-03,株式会社ＫＩＮＡＲＩ,,株式会社,鹿児島県,いちき串木野市,春日町１５９番地,,46,219,8960002,,,,,,,2023-02-03,1,,,,,キナリ,0
588,2340001025357,新規,0,2023-02-03,2023-02-03,ＣＯＮＫＡ株式会社,,株式会社,鹿児島県,鹿児島市,荒田１丁目１９番１９号２階,,46,201,8900054,,,,,,,2023-02-03,1,,,,,コンカ,0
589,2340005009554,新規,0,2023-02-03,2023-02-03,特定非営利活動法人ふぁーすと,,その他の設立登記法人,鹿児島県,志布志市,有明町野井倉１３３７番地１０,,46,221,8997402,,,,,,,2023-02-03,1,,,,,ファースト,0
592,2350001018161,新規,0,2023-02-03,2023-02-03,株式会社ＧＯ,,株式会社,宮崎県,宮崎市,中村東３丁目２番２５号,,45,201,8800904,,,,,,,2023-02-03,1,,,,,ゴー,0
593,2350003004283,新規,0,2023-02-03,2023-02-03,合同会社スタンダード,,合同会社,宮崎県,東諸県郡国富町,大字本庄５４９０番地７,,45,382,8801101,,,,,,,2023-02-03,1,,,,,スタンダード,0
594,2360001031510,新規,0,2023-02-03,2023-02-03,株式会社クレア,,株式会社,沖縄県,浦添市,牧港１丁目３１番１８号,,47,208,9012131,,,,,,,2023-02-03,1,,,,,クレア,0
597,2380001033447,新規,0,2023-02-03,2023-02-03,丸佐福祉株式会社,,株式会社,福島県,郡山市,田村町金屋字荻ノ久保３５番地４,,07,203,9630725,,,,,,,2023-02-03,1,,,,,マルサフクシ,0
598,2380001033455,新規,0,2023-02-03,2023-02-03,株式会社ショーテック,,株式会社,福島県,いわき市,金山町朝日台７２番地,,07,204,9748211,,,,,,,2023-02-03,1,,,,,ショーテック,0
600,2390003002044,新規,0,2023-02-03,2023-02-03,合同会社Ｄｒｅａｍ　ｃｏｍｅ　ｔｒｕｅ　ｌａｎｄ,,合同会社,山形県,鶴岡市,湯野浜１丁目１番１８号,,06,203,9971201,,,,,,,2023-02-03,1,,,,,ドリームカムトゥルーランド,0
605,2420001018146,新規,0,2023-02-03,2023-02-03,株式会社Ｔ’ｏｍ’ａ,,株式会社,青森県,青森市,花園２丁目７番３８号,,02,201,0300966,,,,,,,2023-02-03,1,,,,,トーマ,0
608,2430001088345,新規,0,2023-02-03,2023-02-03,株式会社タカティジャパン,,株式会社,北海道,札幌市東区,東苗穂十五条２丁目４番１７号,,01,103,0070815,,,,,,,2023-02-03,1,,,,,タカティジャパン,0
612,2480001011995,新規,0,2023-02-03,2023-02-03,株式会社保ＤＥＮ,,株式会社,徳島県,三好郡東みよし町,西庄字尻懸２８番地４,,36,489,7794702,,,,,,,2023-02-03,1,,,,,ホデン,0
614,2500001024755,新規,0,2023-02-03,2023-02-03,新産開発株式会社,,株式会社,愛媛県,松山市,下難波甲３２番地２,,38,201,7992407,,,,,,,2023-02-03,1,,,,,シンサンカイハツ,0
618,2700150114188,新規,0,2023-02-03,2023-02-03,ＳｐｉｎＦｉｔ　Ｔｒａｄｉｎｇ　Ｌｉｍｉｔｅｄ,,外国会社等,,,,,,,,ＦＬＡＴ／ＲＭ　１００４－６　１０／Ｆ，ＢＯＮＨＡＭ　ＴＲＡＤＥ　ＣＥＮＴＲＥ，５０　ＢＯＮＨＡＭ　ＳＴＲＡＮＤ　ＥＡＳＴ，ＳＨＥＵＮＧ　ＷＡＮ，ＨＫ,,,,,,2023-02-03,1,,,,,スピンフィットトレーディングリミテッド,0
619,2700150114196,新規,0,2023-02-03,2023-02-03,ｌａｎｘｉｓｈｉｂｅｉｔａｏｍａｏｙｉｙｏｕｘｉａｎｇｏｎｇｓｉ,,外国会社等,,,,,,,,ｈｕａｎｇｄｉａｎｚｈｅｎｆｅｉｚａｏｃｕｎｆｅｉｚａｏ１６５ｈａｏ，ｌａｎｘｉｓｈｉ　ｚｈｅｊｉａｎｇｓｈｅｎｇ，Ｃｈｉｎａ,,,,,,2023-02-03,1,,,,,ランシイシバイトウボウエキユウゲンコウシ,0
629,3010001232687,新規,0,2023-02-03,2023-02-03,株式会社エーアイエルグローバル,,株式会社,東京都,千代田区,神田小川町３丁目７番地１３,,13,101,1010052,,,,,,,2023-02-03,1,,,,,エーアイエルグローバル,0
630,3010001232745,新規,0,2023-02-03,2023-02-03,株式会社クレリアン,,株式会社,東京都,中央区,銀座８丁目１５番１０号銀座ダイヤハイツ３０９,,13,102,1040061,,,,,,,2023-02-03,1,,,,,クレリアン,0
633,3010003039750,新規,0,2023-02-03,2023-02-03,合同会社Ｂ　ｅｌｅｖｅｎ,,合同会社,東京都,千代田区,丸の内３丁目１番１号東京共同会計事務所内,,13,101,1000005,,,,,,,2023-02-03,1,,,,,ビーイレブン,0
634,3010101015513,新規,0,2023-02-03,2023-02-03,株式会社建寿,,株式会社,東京都,八王子市,元八王子町２丁目１１９１番地１第二山本ハイツ２０３号,,13,201,1930826,,,,,,,2023-02-03,1,,,,,ケンジュ,0
642,3010401172302,新規,0,2023-02-03,2023-02-03,株式会社ノーラン・ドレイク,,株式会社,東京都,港区,芝５丁目３６番４号札の辻スクエア９階,,13,103,1080014,,,,,,,2023-02-03,1,,,,,ノーランドレイク,0
647,3010403029450,新規,0,2023-02-03,2023-02-03,合同会社ＯＢＣ　ＡＧＥＮＴ,,合同会社,東京都,港区,愛宕２丁目３番１－２００９号,,13,103,1050002,,,,,,,2023-02-03,1,,,,,オービーシーエージェント,0
653,3010501049945,新規,0,2023-02-03,2023-02-03,青川株式会社,,株式会社,東京都,台東区,北上野２丁目２５番９号－４０５号室,,13,106,1100014,,,,,,,2023-02-03,1,,,,,アオカワ,0
655,3010701043806,新規,0,2023-02-03,2023-02-03,株式会社ｙｕ＆ｍｅ,,株式会社,東京都,品川区,平塚３丁目１３番３号,,13,109,1420051,,,,,,,2023-02-03,1,,,,,ユーアンドミー,0
656,3010701043814,新規,0,2023-02-03,2023-02-03,日本生活サポート株式会社,,株式会社,東京都,品川区,南大井２丁目１０－６シティタワー品川パークフロント２０８,,13,109,1400013,,,,,,,2023-02-03,1,,,,,ニホンセイカツサポート,0
661,3010703006570,新規,0,2023-02-03,2023-02-03,合同会社Ｄｅｌｉｇｈｔ　ｏｆ　ｌｉｆｅ,,合同会社,東京都,品川区,南品川５丁目１１番３８号,,13,109,1400004,,,,,,,2023-02-03,1,,,,,ディライトオブライフ,0
664,3010901052458,新規,0,2023-02-03,2023-02-03,株式会社ぽんず,,株式会社,東京都,世田谷区,宇奈根３丁目１３番２号奥ふたこビレッジＡ棟,,13,112,1570068,,,,,,,2023-02-03,1,,,,,ポンズ,0
665,3010903007947,新規,0,2023-02-03,2023-02-03,合同会社東條靖商店,,合同会社,東京都,世田谷区,玉川２丁目７番５号,,13,112,1580094,,,,,,,2023-02-03,1,,,,,トウジョウヤスシショウテン,0
671,3011101101690,新規,0,2023-02-03,2023-02-03,ハッピージャパン・コンサルティング株式会社,,株式会社,東京都,新宿区,高田馬場２丁目４番１１号－ＫＳＥ３Ｆ,,13,104,1690075,,,,,,,2023-02-03,1,,,,,ハッピージャパンコンサルティング,0
672,3011101101732,新規,0,2023-02-03,2023-02-03,株式会社エフソル,,株式会社,東京都,新宿区,四谷２丁目８番地,,13,104,1600004,,,,,,,2023-02-03,1,,,,,エフソル,0
673,3011101101740,新規,0,2023-02-03,2023-02-03,ＤｓＤ‐ＡＤＤＲｅＣ株式会社,,株式会社,東京都,新宿区,百人町１丁目１０－１５新大久保駅ビル４Ｆ,,13,104,1690073,,,,,,,2023-02-03,1,,,,,ディーエスディーアドレック,0
677,3011801041897,新規,0,2023-02-03,2023-02-03,株式会社フタバ不動産,,株式会社,東京都,足立区,竹の塚６丁目１２番６号ステラ光平ビル７０１号室,,13,121,1210813,,,,,,,2023-02-03,1,,,,,フタバフドウサン,0
679,3012303001778,新規,0,2023-02-03,2023-02-03,リクリエイト合同会社,,合同会社,東京都,町田市,大蔵町２９３２番地１８,,13,209,1950062,,,,,,,2023-02-03,1,,,,,リクリエイト,0
681,3012401040141,新規,0,2023-02-03,2023-02-03,株式会社奈良塗装,,株式会社,東京都,府中市,是政１丁目１０番地の６サンライズ２０２,,13,206,1830014,,,,,,,2023-02-03,1,,,,,ナラトソウ,0
682,3012403005811,新規,0,2023-02-03,2023-02-03,合同会社ＵＮＦＯＬＤ,,合同会社,東京都,調布市,西つつじケ丘３丁目２６番地７アーバンフラッツＭＡ２０３,,13,208,1820006,,,,,,,2023-02-03,1,,,,,アンフォールド,0
683,3012701017459,新規,0,2023-02-03,2023-02-03,サードポート株式会社,,株式会社,東京都,西東京市,東伏見４丁目５番１８号,,13,229,2020021,,,,,,,2023-02-03,1,,,,,サードポート,0
684,3012701017467,新規,0,2023-02-03,2023-02-03,株式会社キューブ,,株式会社,東京都,西東京市,田無町４丁目１６番７号第２西武マンション３０１号,,13,229,1880011,,,,,,,2023-02-03,1,,,,,キューブ,0
685,3012703002632,新規,0,2023-02-03,2023-02-03,合同会社チアフーズ,,合同会社,東京都,小平市,上水本町１丁目１１番２４号,,13,211,1870022,,,,,,,2023-02-03,1,,,,,チアフーズ,0
702,3020001149988,新規,0,2023-02-03,2023-02-03,株式会社ルピナス,,株式会社,神奈川県,横浜市保土ケ谷区,西久保町１－４，１－１５１１,,14,106,2400022,,,,,,,2023-02-03,1,,,,,ルピナス,0
703,3020001150070,新規,0,2023-02-03,2023-02-03,株式会社Ｏｎｅハートケアステーション,,株式会社,神奈川県,横浜市中区,根岸町１丁目２６番地,,14,104,2310836,,,,,,,2023-02-03,1,,,,,ワンハートケアステーション,0
704,3020001150095,新規,0,2023-02-03,2023-02-03,株式会社エンジェル,,株式会社,神奈川県,横浜市西区,みなとみらい４丁目９番１－Ａ２９０６号,,14,103,2200012,,,,,,,2023-02-03,1,,,,,エンジェル,0
705,3020001150120,新規,0,2023-02-03,2023-02-03,エクステンド株式会社,,株式会社,神奈川県,横浜市神奈川区,羽沢町９３７番地７,,14,102,2210863,,,,,,,2023-02-03,1,,,,,エクステンド,0
713,3020003023241,新規,0,2023-02-03,2023-02-03,ＡＲ２Ｋ合同会社,,合同会社,神奈川県,横浜市中区,本牧町１丁目１７４番地,,14,104,2310806,,,,,,,2023-02-03,1,,,,,エーアールツーケー,0
717,3021001078129,新規,0,2023-02-03,2023-02-03,株式会社鎌倉石油,,株式会社,神奈川県,鎌倉市,梶原３丁目３番１８号,,14,204,2470063,,,,,,,2023-02-03,1,,,,,カマクラセキユ,0
726,3030001152264,新規,0,2023-02-03,2023-02-03,株式会社プラウアンドライツ,,株式会社,埼玉県,久喜市,菖蒲町菖蒲６０１１番地９,,11,232,3460106,,,,,,,2023-02-03,1,,,,,プラウアンドライツ,0
730,3030003021095,新規,0,2023-02-03,2023-02-03,七洋インターナショナル合同会社,,合同会社,埼玉県,さいたま市中央区,大戸３丁目１７番４号,,11,105,3380012,,,,,,,2023-02-03,1,,,,,ナナヨウインターナショナル,0
736,3040001126903,新規,0,2023-02-03,2023-02-03,株式会社ａｇｒｉ南総,,株式会社,千葉県,市原市,馬立１５９３番地２９,,12,219,2900221,,,,,,,2023-02-03,1,,,,,アグリナンソウ,0
737,3040001126911,新規,0,2023-02-03,2023-02-03,株式会社ＭＡＲＵＴＯ　ＷＯＲＫＥＲＳ,,株式会社,千葉県,柏市,若柴１７８番地４柏の葉キャンパス１４８街区２ＫＯＩＬ６０１,,12,217,2770871,,,,,,,2023-02-03,1,,,,,マルトワーカーズ,0
738,3040001126928,新規,0,2023-02-03,2023-02-03,株式会社フロックス,,株式会社,千葉県,千葉市緑区,古市場町３５３番地１ソフィアクレールＢ１０１号,,12,105,2660026,,,,,,,2023-02-03,1,,,,,フロックス,0
739,3040001126936,新規,0,2023-02-03,2023-02-03,株式会社ＨａＭａＴｅｃ,,株式会社,千葉県,市原市,岩崎１丁目１５番地１３,,12,219,2900047,,,,,,,2023-02-03,1,,,,,ハマテック,0
740,3040001126952,新規,0,2023-02-03,2023-02-03,株式会社ＦＩＲＥ,,株式会社,千葉県,市川市,八幡３丁目７番５号,,12,203,2720021,,,,,,,2023-02-03,1,,,,,ファイア,0
742,3040003021854,新規,0,2023-02-03,2023-02-03,合同会社Ｒ＆Ｋ,,合同会社,千葉県,千葉市中央区,生実町１５４１番地,,12,101,2600813,,,,,,,2023-02-03,1,,,,,アールアンドケイ,0
743,3040003021862,新規,0,2023-02-03,2023-02-03,合同会社ＣＡＬ,,合同会社,千葉県,長生郡睦沢町,寺崎１６７０番地１,,12,422,2994401,,,,,,,2023-02-03,1,,,,,カエル,0
745,3050001052322,新規,0,2023-02-03,2023-02-03,株式会社ＫＡＲＡＣＨＩ　ＴＲＡＤＩＮＧ　ＣＯＭＰＡＮＹ,,株式会社,茨城県,坂東市,上出島２７番２２,,08,228,3060654,,,,,,,2023-02-03,1,,,,,カラチトレーディングカンパニー,0
751,3070001040069,新規,0,2023-02-03,2023-02-03,ソーシャルムーバー株式会社,,株式会社,群馬県,前橋市,大友町３丁目２４番１号,,10,201,3710847,,,,,,,2023-02-03,1,,,,,ソーシャルムーバー,0
755,3080001025449,新規,0,2023-02-03,2023-02-03,株式会社ＴＯＭＯＹＵＫＩ,,株式会社,静岡県,静岡市葵区,横田町２－１０－５０１,,22,101,4200835,,,,,,,2023-02-03,1,,,,,トモユキ,0
756,3080101023781,新規,0,2023-02-03,2023-02-03,株式会社ＧＡＬＳＯＮ,,株式会社,静岡県,三島市,本町９番１７号フェニックス河野ビル１Ｆ,,22,206,4110855,,,,,,,2023-02-03,1,,,,,ギャルソン,0
757,3080105006312,新規,0,2023-02-03,2023-02-03,一般社団法人ＮＡＣＬ,,その他の設立登記法人,静岡県,熱海市,梅花町６番５号,,22,205,4130026,,,,,,,2023-02-03,1,,,,,エヌエーシーエル,0
758,3080401026286,新規,0,2023-02-03,2023-02-03,株式会社ジマサポート,,株式会社,静岡県,浜松市東区,天龍川町３０３番地の３,,22,132,4350013,,,,,,,2023-02-03,1,,,,,ジマサポート,0
767,3110001037275,新規,0,2023-02-03,2023-02-03,株式会社ＭＩＲＡＩＷＯＴＳＵＫＵＲＵ,,株式会社,新潟県,長岡市,東坂之上町１丁目２番地５,,15,202,9400066,,,,,,,2023-02-03,1,,,,,ミライヲツクル,0
769,3110003004975,新規,0,2023-02-03,2023-02-03,フロンティア企画合同会社,,合同会社,新潟県,糸魚川市,南寺町２丁目１０番２３号,,15,216,9410057,,,,,,,2023-02-03,1,,,,,フロンティアキカク,0
776,3120001252212,新規,0,2023-02-03,2023-02-03,久翌国際株式会社,,株式会社,大阪府,大阪市西成区,長橋２丁目６番２７号４０２号室,,27,122,5570025,,,,,,,2023-02-03,1,,,,,クヨクコクサイ,0
777,3120001252229,新規,0,2023-02-03,2023-02-03,株式会社ＳＯＵ,,株式会社,大阪府,大阪市中央区,南船場３丁目２番２２号,,27,128,5420081,,,,,,,2023-02-03,1,,,,,ソウ,0
778,3120001252261,新規,0,2023-02-03,2023-02-03,株式会社ｈａｐｐｙｓ,,株式会社,大阪府,大阪市北区,東天満２丁目８番１１号和田東ビル７階２Ａ,,27,127,5300044,,,,,,,2023-02-03,1,,,,,ハッピース,0
780,3120003023371,新規,0,2023-02-03,2023-02-03,合同会社Ｅｗａｔｔｓ　Ｊａｐａｎ,,合同会社,大阪府,寝屋川市,上神田１丁目２３番１５号（１０３号）,,27,215,5720052,,,,,,,2023-02-03,1,,,,,イーワッツジャパン,0
782,3120005023452,新規,0,2023-02-03,2023-02-03,医療法人健緑会,,その他の設立登記法人,大阪府,枚方市,田口１丁目２１番１１号,,27,210,5731162,,,,,,,2023-02-03,1,,,,,ケンリョクカイ,0
784,3120101066925,新規,0,2023-02-03,2023-02-03,株式会社ホームアンドホーム,,株式会社,大阪府,泉大津市,池浦町４丁目３番６号,,27,206,5950024,,,,,,,2023-02-03,1,,,,,ホームアンドホーム,0
785,3120101066941,新規,0,2023-02-03,2023-02-03,株式会社肉のふじた,,株式会社,大阪府,羽曳野市,樫山７１－１,,27,222,5830875,,,,,,,2023-02-03,1,,,,,ニクノフジタ,0
791,3120901047075,新規,0,2023-02-03,2023-02-03,株式会社ＫＮＳ,,株式会社,大阪府,高槻市,出丸町５番２号（１０５）,,27,207,5690076,,,,,,,2023-02-03,1,,,,,ケーエヌエス,0
792,3120903004487,新規,0,2023-02-03,2023-02-03,合同会社ポラリス,,合同会社,大阪府,茨木市,紫明園１番４９号の１,,27,211,5670045,,,,,,,2023-02-03,1,,,,,ポラリス,0
793,3122001036660,新規,0,2023-02-03,2023-02-03,なにわ不動産株式会社,,株式会社,大阪府,東大阪市,永和１丁目２４番１３号５０２,,27,227,5770809,,,,,,,2023-02-03,1,,,,,ナニワフドウサン,0
794,3122001036669,新規,0,2023-02-03,2023-02-03,株式会社イワサキサービス,,株式会社,大阪府,東大阪市,新池島町２丁目１８番６号,,27,227,5798065,,,,,,,2023-02-03,1,,,,,イワサキサービス,0
795,3130001073616,新規,0,2023-02-03,2023-02-03,ＳＡＦＥＲ株式会社,,株式会社,京都府,京都市左京区,岩倉長谷町１７８１番地,,26,103,6060026,,,,,,,2023-02-03,1,,,,,セイファー,0
796,3130001073624,新規,0,2023-02-03,2023-02-03,アストンエナジー株式会社,,株式会社,京都府,京都市右京区,西院北矢掛町４６－１３,,26,108,6150026,,,,,,,2023-02-03,1,,,,,アストンエナジー,0
797,3130001073632,新規,0,2023-02-03,2023-02-03,株式会社出合,,株式会社,京都府,木津川市,相楽大里８２番地,,26,214,6190222,,,,,,,2023-02-03,1,,,,,デアイ,0
798,3130001073640,新規,0,2023-02-03,2023-02-03,株式会社Ｌ＆Ａ,,株式会社,京都府,京都市右京区,西院西寿町３２－２タザワビル３Ｆ,,26,108,6150034,,,,,,,2023-02-03,1,,,,,エルアンドエイ,0
806,3140001128971,新規,0,2023-02-03,2023-02-03,株式会社古江建設,,株式会社,兵庫県,姫路市,青山南２丁目２番３号,,28,201,6712223,,,,,,,2023-02-03,1,,,,,フルエケンセツ,0
810,3140003018683,新規,0,2023-02-03,2023-02-03,合同会社ＣＬＩＰ‐ＣＬＯＰ,,合同会社,兵庫県,明石市,大蔵町６番３－５０２号,,28,203,6730872,,,,,,,2023-02-03,1,,,,,クリップクロップ,0
812,3140005026478,新規,0,2023-02-03,2023-02-03,一般社団法人まちづくり有馬,,その他の設立登記法人,兵庫県,神戸市北区,有馬町７９０番地３,,28,109,6511401,,,,,,,2023-02-03,1,,,,,マチヅクリアリマ,0
814,3150001026142,新規,0,2023-02-03,2023-02-03,株式会社徳源,,株式会社,奈良県,香芝市,穴虫２２７９番地,,29,210,6390252,,,,,,,2023-02-03,1,,,,,トクゲン,0
815,3150001026150,新規,0,2023-02-03,2023-02-03,株式会社ほんよみ,,株式会社,奈良県,北葛城郡広陵町,大字弁財天３８７番地６,,29,426,6350811,,,,,,,2023-02-03,1,,,,,ホンヨミ,0
822,3180001154790,新規,0,2023-02-03,2023-02-03,ＳＶＡｇａｍｉｎｇ株式会社,,株式会社,愛知県,名古屋市瑞穂区,内方町２丁目１４番地の３,,23,108,4670068,,,,,,,2023-02-03,1,,,,,エスブイエーゲーミング,0
823,3180001154816,新規,0,2023-02-03,2023-02-03,株式会社たぬき,,株式会社,愛知県,名古屋市中村区,岩塚町字郷中１１４番地の２,,23,105,4530862,,,,,,,2023-02-03,1,,,,,タヌキ,0
824,3180001154832,新規,0,2023-02-03,2023-02-03,株式会社匠工芸,,株式会社,愛知県,愛西市,勝幡町竹丸２２００番地１－１０１,,23,232,4968001,,,,,,,2023-02-03,1,,,,,タクミコウゲイ,0
825,3180001154849,新規,0,2023-02-03,2023-02-03,株式会社メディケアコラボ,,株式会社,愛知県,名古屋市中村区,平池町４丁目６０番地の１２グローバルゲート１１Ｆ,,23,105,4530872,,,,,,,2023-02-03,1,,,,,メディケアコラボ,0
826,3180001154857,新規,0,2023-02-03,2023-02-03,エーアイホールディングス株式会社,,株式会社,愛知県,名古屋市中川区,荒中町１９１番地,,23,110,4540922,,,,,,,2023-02-03,1,,,,,エーアイホールディングス,0
827,3180001154873,新規,0,2023-02-03,2023-02-03,株式会社木村不動産,,株式会社,愛知県,清須市,春日天神１６１番地,,23,233,4520962,,,,,,,2023-02-03,1,,,,,キムラフドウサン,0
836,3180301037068,新規,0,2023-02-03,2023-02-03,株式会社加藤物産,,株式会社,愛知県,岡崎市,法性寺町字猿待３９番地２,,23,202,4440206,,,,,,,2023-02-03,1,,,,,カトウブッサン,0
837,3180301037076,新規,0,2023-02-03,2023-02-03,株式会社ＢｕＺＺ・ＬＵＥ,,株式会社,愛知県,豊川市,新宿町１丁目１７番地５（３Ｆ）,,23,207,4420043,,,,,,,2023-02-03,1,,,,,バズリュー,0
839,3180303005601,新規,0,2023-02-03,2023-02-03,合同会社Ｆｕｋｕｎｙｓ,,合同会社,愛知県,岡崎市,日名中町１５番地１２,,23,202,4440918,,,,,,,2023-02-03,1,,,,,フクーニーズ,0
844,3200001040922,新規,0,2023-02-03,2023-02-03,株式会社Ｇ‐ａｕｔｏ,,株式会社,岐阜県,本巣市,早野８７５番地８９,,21,218,5010419,,,,,,,2023-02-03,1,,,,,ジーオート,0
845,3200001040930,新規,0,2023-02-03,2023-02-03,株式会社ワンズ・ダイニングシステム,,株式会社,岐阜県,可児市,中恵土２３７１番地１７１ワンズスクエア２０１,,21,214,5090202,,,,,,,2023-02-03,1,,,,,ワンズダイニングシステム,0
848,3200003005824,新規,0,2023-02-03,2023-02-03,合同会社Ｍ．Ｌ．Ａ,,合同会社,岐阜県,多治見市,若松町４丁目３７番地の６,,21,204,5070053,,,,,,,2023-02-03,1,,,,,エムエルエー,0
851,3210001019222,新規,0,2023-02-03,2023-02-03,株式会社カウチ産業,,株式会社,福井県,福井市,上野本町４丁目２５１２番地,,18,201,9100134,,,,,,,2023-02-03,1,,,,,カウチサンギョウ,0
852,3210003001608,新規,0,2023-02-03,2023-02-03,合同会社エボリューション,,合同会社,福井県,福井市,つくし野１丁目６０２,,18,201,9100101,,,,,,,2023-02-03,1,,,,,エボリューション,0
854,3240001061031,新規,0,2023-02-03,2023-02-03,株式会社Ｆｇａｔｅ,,株式会社,広島県,広島市中区,白島九軒町１番５号,,34,101,7300003,,,,,,,2023-02-03,1,,,,,エフゲート,0
859,3250001019953,新規,0,2023-02-03,2023-02-03,株式会社ワイ工芸,,株式会社,山口県,下関市,川中豊町２丁目５番４号,,35,201,7510853,,,,,,,2023-02-03,1,,,,,ワイコウゲイ,0
861,3260001037632,新規,0,2023-02-03,2023-02-03,株式会社ウェルス,,株式会社,岡山県,倉敷市,玉島乙島１６７４番地２,,33,202,7138103,,,,,,,2023-02-03,1,,,,,ウェルス,0
864,3260003004192,新規,0,2023-02-03,2023-02-03,合同会社ＴＡＳ　ｃｏｍｐａｎｙ,,合同会社,岡山県,岡山市中区,土田１６６番地４,,33,102,7038217,,,,,,,2023-02-03,1,,,,,タスカンパニー,0
865,3280003001691,新規,0,2023-02-03,2023-02-03,合同会社双葉オートサービス,,合同会社,島根県,出雲市,塩冶町２１１０番地,,32,203,6930021,,,,,,,2023-02-03,1,,,,,フタバオートサービス,0
867,3290001100429,新規,0,2023-02-03,2023-02-03,株式会社ＦＯＲＭ,,株式会社,福岡県,筑紫野市,針摺中央１丁目１５番１５号,00129324,40,217,8180083,,,,,,,2023-02-03,1,,,,,フォルム,0
868,3290001100437,新規,0,2023-02-03,2023-02-03,Ｎａｔｕｒａｍ株式会社,,株式会社,福岡県,久留米市,東櫛原町１１８４番地３,00129326,40,203,8300003,,,,,,,2023-02-03,1,,,,,ナチュラム,0
869,3290001100445,新規,0,2023-02-03,2023-02-03,株式会社ＴＯＰ,,株式会社,福岡県,福岡市博多区,住吉２丁目４番７－２０２号,,40,132,8120018,,,,,,,2023-02-03,1,,,,,トップ,0
870,3290003013488,新規,0,2023-02-03,2023-02-03,合同会社Ｕ,,合同会社,福岡県,福岡市南区,高宮１丁目５番１４－９０１号,,40,134,8150083,,,,,,,2023-02-03,1,,,,,ユウ,0
877,3290801029248,新規,0,2023-02-03,2023-02-03,小倉昭和館株式会社,,株式会社,福岡県,北九州市小倉北区,魚町４丁目２番９号,,40,106,8020006,,,,,,,2023-02-03,1,,,,,コクラショウワカン,0
881,3290803004331,新規,0,2023-02-03,2023-02-03,合同会社ａｄｖａｎｃｅ,,合同会社,福岡県,北九州市小倉北区,片野３丁目１４番１１号デザイナーズざ片野１００６号室,,40,106,8020064,,,,,,,2023-02-03,1,,,,,アドバンス,0
882,3310001018247,新規,0,2023-02-03,2023-02-03,株式会社キューブデザイン,,株式会社,長崎県,大村市,水田町５４－１フォレステーラ１Ｆ１０１号,,42,205,8560824,,,,,,,2023-02-03,1,,,,,キューブデザイン,0
884,3320001019558,新規,0,2023-02-03,2023-02-03,信和株式会社,,株式会社,大分県,大分市,要町１番１４号アミュプラザおおいた３階３３０,,44,201,8700831,,,,,,,2023-02-03,1,,,,,シンワ,0
885,3320005010050,新規,0,2023-02-03,2023-02-03,農事組合法人おぎわら,,その他の設立登記法人,大分県,豊後大野市,犬飼町柚野木３５４６番地,,44,212,8797303,,,,,,,2023-02-03,1,,,,,オギワラ,0
889,3330001030555,新規,0,2023-02-03,2023-02-03,株式会社誠櫻,,株式会社,熊本県,熊本市東区,御領２丁目１０番３１号,,43,102,8618035,,,,,,,2023-02-03,1,,,,,セイオウ,0
890,3330001030571,新規,0,2023-02-03,2023-02-03,株式会社Ｔａｍｕ‐ｔｅｃ,,株式会社,熊本県,合志市,須屋２７４０－７７,,43,216,8611102,,,,,,,2023-02-03,1,,,,,タムテック,0
892,3340001025356,新規,0,2023-02-03,2023-02-03,株式会社まるわかファーム,,株式会社,鹿児島県,南九州市,知覧町塩屋１５４９４番地,,46,223,8910911,,,,,,,2023-02-03,1,,,,,マルワカファーム,0
896,3350001018169,新規,0,2023-02-03,2023-02-03,株式会社カナジム,,株式会社,宮崎県,宮崎市,清武町加納４丁目１０番地１,,45,201,8891607,,,,,,,2023-02-03,1,,,,,カナジム,0
899,3360001031518,新規,0,2023-02-03,2023-02-03,株式会社アトムワークス,,株式会社,沖縄県,那覇市,久米２丁目１１番１号,,47,201,9000033,,,,,,,2023-02-03,1,,,,,アトムワークス,0
900,3360001031526,新規,0,2023-02-03,2023-02-03,クリナーズボンド株式会社,,株式会社,沖縄県,那覇市,辻２丁目９番３号,,47,201,9000037,,,,,,,2023-02-03,1,,,,,クリナーズボンド,0
913,3430001088344,新規,0,2023-02-03,2023-02-03,株式会社ｅｃｍ,,株式会社,北海道,札幌市豊平区,豊平八条８丁目２番４５号１Ｆ,,01,105,0620908,,,,,,,2023-02-03,1,,,,,イーシーエム,0
914,3430001088360,新規,0,2023-02-03,2023-02-03,株式会社タイセイプランニング,,株式会社,北海道,札幌市西区,二十四軒四条５丁目１番８号,,01,107,0630804,,,,,,,2023-02-03,1,,,,,タイセイプランニング,0
915,3430001088369,新規,0,2023-02-03,2023-02-03,株式会社ＰＬＵＳ　ＥＡＳＴ,,株式会社,北海道,札幌市西区,西町南５丁目１番５号,,01,107,0630062,,,,,,,2023-02-03,1,,,,,プラスイースト,0
916,3430001088377,新規,0,2023-02-03,2023-02-03,株式会社ミーメイド,,株式会社,北海道,札幌市白石区,栄通１５丁目１番６５号マンション村上１０３,,01,104,0030021,,,,,,,2023-02-03,1,,,,,ミーメイド,0
918,3430003014703,新規,0,2023-02-03,2023-02-03,合同会社イデアプランニング,,合同会社,北海道,札幌市中央区,北一条東５丁目９番地,,01,101,0600031,,,,,,,2023-02-03,1,,,,,イデアプランニング,0
920,3462505000285,新規,0,2023-02-03,2023-02-03,一般社団法人かぽの,,その他の設立登記法人,北海道,標津郡中標津町,東二十一条南７丁目６番地,,01,692,0861021,,,,,,,2023-02-03,1,,,,,カポノ,0
922,3470001019444,新規,0,2023-02-03,2023-02-03,株式会社万葉,,株式会社,香川県,高松市,三条町２１９番地１サーパス三条ウエストガーデン５０３,,37,201,7618072,,,,,,,2023-02-03,1,,,,,マンヨウ,0
923,3470001019452,新規,0,2023-02-03,2023-02-03,株式会社調達専門ラボ,,株式会社,香川県,高松市,木太町３２０３番地アルファステイツ木太ＩＩＩ６０１号,00129323,37,201,7600080,,,,,,,2023-02-03,1,,,,,チョウタツセンモンラボ,0
924,3470001019460,新規,0,2023-02-03,2023-02-03,株式会社秋山興業,,株式会社,香川県,高松市,仏生山町乙１０５番地４,,37,201,7618079,,,,,,,2023-02-03,1,,,,,アキヤマコウギョウ,0
926,3470005006488,新規,0,2023-02-03,2023-02-03,一般社団法人三豊市文化・スポーツ振興事業団,,その他の設立登記法人,香川県,三豊市,豊中町本山甲２０１番地１,,37,208,7691506,,,,,,,2023-02-03,1,,,,,ミトヨシブンカスポーツシンコウジギョウダン,0
930,3480001011994,新規,0,2023-02-03,2023-02-03,株式会社賃貸Ｗｏｒｋｓ,,株式会社,徳島県,徳島市,北田宮４丁目３番７号,,36,201,7700003,,,,,,,2023-02-03,1,,,,,チンタイワークス,0
940,3700150113065,新規,0,2023-02-03,2022-11-29,広島市南区地域保健対策協議会,,その他,広島県,広島市南区,皆実町１丁目４－４６南区役所別館,,34,103,7340007,,,,,,,2022-11-29,1,,,,,ヒロシマシミナミクチイキホケンタイサクキヨウギカイ,0
941,3700150113890,新規,0,2023-02-03,2023-01-23,米沢市地域公共交通活性化協議会,,その他,山形県,米沢市,金池５丁目２－２５,,06,202,9920012,,,,,,,2023-01-23,1,,,,,ヨネザワシチイキコウキヨウコウツウカツセイカキヨウギカイ,0
942,3700150114195,新規,0,2023-02-03,2023-02-03,ＵＮＩＴＥＫ　ＩＮＴＥＲＮＡＴＩＯＮＡＬ　ＧＲＯＵＰ　ＬＩＭＩＴＥＤ,,外国会社等,,,,,,,,ＦＬＡＴ／ＲＭ０２，１６／Ｆ，ＥＮＴＥＲＰＲＩＳＥ　ＳＱＵＡＲＥ　ＩＩＩ，３９　ＷＡＮＧ　ＣＨＩＵ　ＲＯＡＤ，ＫＯＷＬＯＯＮ　ＢＡＹ，Ｃｈｉｎａ,,,,,,2023-02-03,1,,,,,ウニテックインターナショナルグループリミテッド,0
946,4010001232579,新規,0,2023-02-03,2023-02-03,ホワイトハット株式会社,,株式会社,東京都,中央区,銀座１丁目１２番４号,,13,102,1040061,,,,,,,2023-02-03,1,,,,,ホワイトハット,0
947,4010001232678,新規,0,2023-02-03,2023-02-03,株式会社コモド,,株式会社,東京都,千代田区,神田淡路町１丁目９－５,,13,101,1010063,,,,,,,2023-02-03,1,,,,,コモド,0
948,4010001232711,新規,0,2023-02-03,2023-02-03,株式会社アイプラス,,株式会社,東京都,千代田区,内神田１丁目１１番１１号,,13,101,1010047,,,,,,,2023-02-03,1,,,,,アイプラス,0
949,4010001232744,新規,0,2023-02-03,2023-02-03,三通株式会社,,株式会社,東京都,中央区,日本橋大伝馬町４番１号５Ｆ,,13,102,1030011,,,,,,,2023-02-03,1,,,,,ミツウ,0
952,4010003039741,新規,0,2023-02-03,2023-02-03,フローレスコンサルティング合同会社,,合同会社,東京都,中央区,銀座７丁目１０番８号第５太陽ビル３階,,13,102,1040061,,,,,,,2023-02-03,1,,,,,フローレスコンサルティング,0
955,4010005036209,新規,0,2023-02-03,2023-02-03,一般社団法人国際タトゥーアーティスト協会,,その他の設立登記法人,東京都,千代田区,紀尾井町３番３３号プリンス通ビル２階,,13,101,1020094,,,,,,,2023-02-03,1,,,,,コクサイタトゥーアーティストキョウカイ,0
965,4010401172276,新規,0,2023-02-03,2023-02-03,株式会社ＺＥＲＯ,,株式会社,東京都,港区,六本木４丁目３番１１号六本木ユニハウス２２３,,13,103,1060032,,,,,,,2023-02-03,1,,,,,ゼロ,0
966,4010401172284,新規,0,2023-02-03,2023-02-03,Ｇｅｎｅｔｈ株式会社,,株式会社,東京都,港区,西新橋１丁目２番９号日比谷セントラルビル１４階,,13,103,1050003,,,,,,,2023-02-03,1,,,,,ジェネス,0
967,4010401172292,新規,0,2023-02-03,2023-02-03,株式会社アトツギ,,株式会社,東京都,港区,六本木７丁目１５番７号,,13,103,1060032,,,,,,,2023-02-03,1,,,,,アトツギ,0
968,4010401172318,新規,0,2023-02-03,2023-02-03,株式会社ＴＡＩＹＯ　ＢＬＯＯＭ,,株式会社,東京都,港区,芝公園２丁目３番１号５階,,13,103,1050011,,,,,,,2023-02-03,1,,,,,タイヨウブルーム,0
975,4010403029458,新規,0,2023-02-03,2023-02-03,スタートサムシング合同会社,,合同会社,東京都,港区,東麻布２丁目４－２－２０１,,13,103,1060044,,,,,,,2023-02-03,1,,,,,スタートサムシング,0
979,4010501049944,新規,0,2023-02-03,2023-02-03,威楽株式会社,,株式会社,東京都,台東区,松が谷２丁目１５番８号浅草Ｋ２ビル４１１号室,,13,106,1110036,,,,,,,2023-02-03,1,,,,,イラク,0
980,4010501049960,新規,0,2023-02-03,2023-02-03,株式会社虎威,,株式会社,東京都,台東区,台東１丁目３２番６号小島ビル３０２,,13,106,1100016,,,,,,,2023-02-03,1,,,,,トライ,0
981,4010701043805,新規,0,2023-02-03,2023-02-03,株式会社ＫＡＫＵ,,株式会社,東京都,品川区,西品川１丁目２番１‐２３０９号大崎ガーデンレジデンス,,13,109,1410033,,,,,,,2023-02-03,1,,,,,カク,0
985,4010901052465,新規,0,2023-02-03,2023-02-03,株式会社Ｇｏｌｄ　Ｐｈｏｅｎｉｘ,,株式会社,東京都,世田谷区,池尻４丁目１３番８号,,13,112,1540001,,,,,,,2023-02-03,1,,,,,ゴールドフェニックス,0
986,4010901052481,新規,0,2023-02-03,2023-02-03,ＲＩＮＧＯ株式会社,,株式会社,東京都,世田谷区,千歳台３丁目３番１７号千歳台ビルディング１階,,13,112,1570071,,,,,,,2023-02-03,1,,,,,リンゴ,0
987,4010903007946,新規,0,2023-02-03,2023-02-03,合同会社Ｏｆｆ　Ｔｈｅ　Ｗａｌｌ,,合同会社,東京都,世田谷区,玉川４丁目１４番２号,,13,112,1580094,,,,,,,2023-02-03,1,,,,,オフザウォール,0
993,4011001152362,新規,0,2023-02-03,2023-02-03,株式会社ＭＫＳ,,株式会社,東京都,渋谷区,西原３丁目２４番１０号代々木上原ＰＤビルＢ１,,13,113,1510066,,,,,,,2023-02-03,1,,,,,エムケイエス,0
994,4011001152379,新規,0,2023-02-03,2023-02-03,株式会社リアン,,株式会社,東京都,渋谷区,渋谷２丁目１９番１５号宮益坂ビルディング,,13,113,1500002,,,,,,,2023-02-03,1,,,,,リアン,0
995,4011003016219,新規,0,2023-02-03,2023-02-03,ＨＡＲＡＤＡ合同会社,,合同会社,東京都,渋谷区,道玄坂１丁目１０番８号渋谷道玄坂東急ビル２Ｆ－Ｃ,,13,113,1500043,,,,,,,2023-02-03,1,,,,,ハラダ,0
996,4011003016227,新規,0,2023-02-03,2023-02-03,三浦商事合同会社,,合同会社,東京都,渋谷区,広尾１丁目１１番５－５１１号,,13,113,1500012,,,,,,,2023-02-03,1,,,,,ミウラショウジ,0
1000,4011101101715,新規,0,2023-02-03,2023-02-03,株式会社ＲａｉｓｅＢａｓｓ,,株式会社,東京都,新宿区,西新宿３丁目３番１３号西新宿水間ビル６階,,13,104,1600023,,,,,,,2023-02-03,1,,,,,レイズベース,0
1001,4011101101731,新規,0,2023-02-03,2023-02-03,株式会社ＫＤ　ＪＡＰＡＮ,,株式会社,東京都,新宿区,西新宿４丁目２番１５－３５０４号,,13,104,1600023,,,,,,,2023-02-03,1,,,,,ケイディージャパン,0
1003,4011203003999,新規,0,2023-02-03,2023-02-03,Ａｔｅｌｉｅｒ　Ｃ２１１Ｅ合同会社,,合同会社,東京都,中野区,南台３丁目６番１４,,13,114,1640014,,,,,,,2023-02-03,1,,,,,アトリエセードゥソンズ,0
1014,4011801041896,新規,0,2023-02-03,2023-02-03,株式会社ＡＩＬＥ,,株式会社,東京都,足立区,大谷田４丁目１８番７号ｐａｓｓｅｒｅｌｌｅ・ｄｅ・ｂｏｎｈｅｕｒ１０１,,13,121,1200001,,,,,,,2023-02-03,1,,,,,エール,0
1015,4011803005494,新規,0,2023-02-03,2023-02-03,那須プロダクション合同会社,,合同会社,東京都,足立区,梅田５丁目２８番１８号,,13,121,1230851,,,,,,,2023-02-03,1,,,,,ナスプロダクション,0
1016,4012303001777,新規,0,2023-02-03,2023-02-03,合同会社大昇造園,,合同会社,東京都,町田市,大蔵町３０１９番地,,13,209,1950062,,,,,,,2023-02-03,1,,,,,ダイショウゾウエン,0
1017,4012701017458,新規,0,2023-02-03,2023-02-03,株式会社あずさ,,株式会社,東京都,小平市,鈴木町２丁目１９５番地,,13,211,1870011,,,,,,,2023-02-03,1,,,,,アズサ,0
1018,4012801022127,新規,0,2023-02-03,2023-02-03,ＮＥＸＴＰＡＳＳ株式会社,,株式会社,東京都,東大和市,清水５丁目１０８８－１ラッフィナート２０２,,13,220,2070004,,,,,,,2023-02-03,1,,,,,ネクストパス,0
1035,4021003012712,新規,0,2023-02-03,2023-02-03,ＨｕＤＡ合同会社,,合同会社,神奈川県,横須賀市,池田町２丁目５番２号,,14,201,2390806,,,,,,,2023-02-03,1,,,,,ヒユーダ,0
1036,4021003012720,新規,0,2023-02-03,2023-02-03,Ｓｅａｓｈｏｒｅ合同会社,,合同会社,神奈川県,大和市,大和南２丁目２－１０－６０２,,14,213,2420016,,,,,,,2023-02-03,1,,,,,シーショア,0
1046,4030003021086,新規,0,2023-02-03,2023-02-03,ＡＩ’ｓ合同会社,,合同会社,埼玉県,朝霞市,栄町２丁目３番２５号,,11,227,3510012,,,,,,,2023-02-03,1,,,,,アイズ,0
1051,4040001126910,新規,0,2023-02-03,2023-02-03,株式会社エターナルエステート,,株式会社,千葉県,松戸市,西馬橋２丁目１９番地の１８,,12,207,2710044,,,,,,,2023-02-03,1,,,,,エターナルエステート,0
1052,4040001126935,新規,0,2023-02-03,2023-02-03,Ｎｅｃｏｓｔａｒ株式会社,,株式会社,千葉県,船橋市,夏見１丁目１３番３２－１Ａ,,12,204,2730865,,,,,,,2023-02-03,1,,,,,ネコスター,0
1053,4040001126976,新規,0,2023-02-03,2023-02-03,株式会社鬼族,,株式会社,千葉県,印西市,発作６８５,,12,231,2701361,,,,,,,2023-02-03,1,,,,,キゾク,0
1056,4040003021837,新規,0,2023-02-03,2023-02-03,Ｂｒａｎｄ　ｉｄｅａＬ合同会社,,合同会社,千葉県,四街道市,めいわ２丁目１９－６,,12,228,2840043,,,,,,,2023-02-03,1,,,,,ブランドアイディール,0
1057,4040003021853,新規,0,2023-02-03,2023-02-03,合同会社早川工業,,合同会社,千葉県,千葉市緑区,平山町３６９番地１,,12,105,2660002,,,,,,,2023-02-03,1,,,,,ハヤカワコウギョウ,0
1060,4050001052338,新規,0,2023-02-03,2023-02-03,株式会社Ｋ．ｂｌｏｏｍ,,株式会社,茨城県,水戸市,吉沢町３５４番地３０,,08,201,3100845,,,,,,,2023-02-03,1,,,,,ケーブルーム,0
1062,4050003007208,新規,0,2023-02-03,2023-02-03,ＤＹＯ　ＬＡＮＫＡ　ＨＯＬＤＩＮＧＳ合同会社,,合同会社,茨城県,取手市,配松４７８番地１－１０２号室,,08,217,3001541,,,,,,,2023-02-03,1,,,,,ディーワイオーランカホールディングス,0
1063,4050003007216,新規,0,2023-02-03,2023-02-03,合同会社ｉｅ‐Ｌａｂ．,,合同会社,茨城県,龍ケ崎市,大徳町６６１－７,,08,208,3010816,,,,,,,2023-02-03,1,,,,,イエラボ,0
1066,4060001035671,新規,0,2023-02-03,2023-02-03,ミライカナウ株式会社,,株式会社,栃木県,那須塩原市,西三島３丁目１８３－７４４,,09,213,3292756,,,,,,,2023-02-03,1,,,,,ミライカナウ,0
1070,4070001040092,新規,0,2023-02-03,2023-02-03,株式会社エム企画,,株式会社,群馬県,前橋市,大友町１丁目３番地１４,,10,201,3710847,,,,,,,2023-02-03,1,,,,,エムキカク,0
1071,4070001040101,新規,0,2023-02-03,2023-02-03,株式会社ＩＮＥＲＭＩＳ,,株式会社,群馬県,前橋市,下新田町８４３番地７,,10,201,3710822,,,,,,,2023-02-03,1,,,,,イネルミス,0
1077,4080005007509,新規,0,2023-02-03,2023-02-03,一般社団法人静岡県保育連合会,,その他の設立登記法人,静岡県,静岡市葵区,駿府町１番７０号,,22,101,4200856,,,,,,,2023-02-03,1,,,,,シズオカケンホイクレンゴウカイ,0
1080,4080401026285,新規,0,2023-02-03,2023-02-03,株式会社陽だまりエンタープライズ,,株式会社,静岡県,浜松市浜北区,大平９３８番地,,22,136,4340005,,,,,,,2023-02-03,1,,,,,ヒダマリエンタープライズ,0
1082,4090001017964,新規,0,2023-02-03,2023-02-03,株式会社宮下塗装,,株式会社,山梨県,富士吉田市,下吉田６丁目２４番１４号,,19,202,4030004,,,,,,,2023-02-03,1,,,,,ミヤシタトソウ,0
1090,4100003006872,新規,0,2023-02-03,2023-02-03,合同会社Ｃｌｅｒｉｃａｌ　Ｓｅｒｖｉｃｅ,,合同会社,長野県,長野市,大字鶴賀上千歳町１４１３番地１、３０２号,,20,201,3800821,,,,,,,2023-02-03,1,,,,,クレリカルサービス,0
1091,4110001037282,新規,0,2023-02-03,2023-02-03,株式会社ＨＡＰＰＹ　ＳＭＩＬＥ,,株式会社,新潟県,燕市,吉田東町１３番１７号アリス吉田第２－２号館２０５号,,15,213,9590265,,,,,,,2023-02-03,1,,,,,ハッピースマイル,0
1096,4120001252070,新規,0,2023-02-03,2023-02-03,三代目桜屋商会株式会社,,株式会社,大阪府,大阪市都島区,中野町２丁目１１番２号,,27,102,5340027,,,,,,,2023-02-03,1,,,,,サンダイメサクラヤショウカイ,0
1097,4120001252145,新規,0,2023-02-03,2023-02-03,乙村株式会社,,株式会社,大阪府,大阪市城東区,関目１丁目１３－６リエールハイム２０１,,27,118,5360008,,,,,,,2023-02-03,1,,,,,オツムラ,0
1098,4120001252285,新規,0,2023-02-03,2023-02-03,株式会社アイルガード,,株式会社,大阪府,大阪市住吉区,苅田５丁目１８番４－５１０号,,27,120,5580011,,,,,,,2023-02-03,1,,,,,アイルガード,0
1102,4120003023379,新規,0,2023-02-03,2023-02-03,Ａｔｈ　ｃｏｎｓｕｌ合同会社,,合同会社,大阪府,大阪市阿倍野区,丸山通１丁目２番４号,,27,119,5450042,,,,,,,2023-02-03,1,,,,,アースコンサル,0
1103,4120003023387,新規,0,2023-02-03,2023-02-03,合同会社リソカナ,,合同会社,大阪府,大阪市北区,梅田１丁目２番２号大阪駅前第２ビル１２‐１２,,27,127,5300001,,,,,,,2023-02-03,1,,,,,リソカナ,0
1107,4120101066932,新規,0,2023-02-03,2023-02-03,株式会社ＶＥＲＴＥＸ,,株式会社,大阪府,泉南郡田尻町,吉見３７５番地４,,27,362,5980092,,,,,,,2023-02-03,1,,,,,バーテックス,0
1109,4120901047074,新規,0,2023-02-03,2023-02-03,株式会社くるぽんメンバーズサポート,,株式会社,大阪府,豊中市,東豊中町５丁目２６番１０号,,27,203,5600003,,,,,,,2023-02-03,1,,,,,クルポンメンバーズサポート,0
1114,4122001036651,新規,0,2023-02-03,2023-02-03,株式会社ｎｏｖｉｃｅ,,株式会社,大阪府,東大阪市,出雲井町２番７号３０１,,27,227,5798033,,,,,,,2023-02-03,1,,,,,ノヴィス,0
1115,4122001036668,新規,0,2023-02-03,2023-02-03,株式会社Ｙ＆Ｓ,,株式会社,大阪府,東大阪市,新庄４丁目４－２３,,27,227,5780963,,,,,,,2023-02-03,1,,,,,ワイアンドエス,0
1128,4130001073615,新規,0,2023-02-03,2023-02-03,株式会社エポカ,,株式会社,京都府,京都市下京区,醒ケ井通高辻下る住吉町４８４番地１アンビエント高辻通５０１号,00129319,26,106,6008335,,,,,,,2023-02-03,1,,,,,エポカ,0
1129,4130001073623,新規,0,2023-02-03,2023-02-03,株式会社廣澤,00129320,株式会社,京都府,京都市中京区,蛸薬師通新町西入不動町１８３番地,,26,104,6048215,,,,,,,2023-02-03,1,,,,,ヒロサワ,0
1133,4130003008503,新規,0,2023-02-03,2023-02-03,合同会社Ｒａｉｎｂｏｗ　Ｓｋｙ,,合同会社,京都府,京都市左京区,岩倉西河原町６５０番地,,26,103,6060014,,,,,,,2023-02-03,1,,,,,レインボースカイ,0
1139,4140001128946,新規,0,2023-02-03,2023-02-03,株式会社ユウキ医療研究会,,株式会社,兵庫県,川西市,花屋敷１丁目２３番１０号３０５,,28,217,6660035,,,,,,,2023-02-03,1,,,,,ユウキイリョウケンキュウカイ,0
1140,4140001128954,新規,0,2023-02-03,2023-02-03,株式会社たねまき,,株式会社,兵庫県,神戸市北区,広陵町４丁目７４番地,,28,109,6511213,,,,,,,2023-02-03,1,,,,,タネマキ,0
1141,4140001128970,新規,0,2023-02-03,2023-02-03,株式会社Ｌｉｌｙ　Ｐｌａｚａ,,株式会社,兵庫県,神戸市中央区,三宮町１丁目１０番１号三宮地下街５番街ローザアベニュー４１１,,28,110,6500021,,,,,,,2023-02-03,1,,,,,リリープラザ,0
1142,4140001128979,新規,0,2023-02-03,2023-02-03,株式会社ＣＨＩＨＩＲＯ,,株式会社,兵庫県,神戸市中央区,三宮町３丁目５－４－８０３,,28,110,6500021,,,,,,,2023-02-03,1,,,,,チヒロ,0
1143,4140001129003,新規,0,2023-02-03,2023-02-03,株式会社リバティライフ,,株式会社,兵庫県,伊丹市,中央２丁目２番１６号,,28,207,6640851,,,,,,,2023-02-03,1,,,,,リバティライフ,0
1144,4140001129011,新規,0,2023-02-03,2023-02-03,株式会社ＰＯＰＭＡＮ,,株式会社,兵庫県,淡路市,岩屋２６１３－１３,,28,226,6562401,,,,,,,2023-02-03,1,,,,,ポップマン,0
1147,4140003018674,新規,0,2023-02-03,2023-02-03,合同会社杉本工業,,合同会社,兵庫県,明石市,魚住町住吉３丁目１２８４番地の１リベール明石魚住七番館３１０号,,28,203,6740083,,,,,,,2023-02-03,1,,,,,スギモトコウギョウ,0
1152,4150003002875,新規,0,2023-02-03,2023-02-03,合同会社Ｍ‐ＳＴＹＬＥ,,合同会社,奈良県,奈良市,古市町２９５番地１,,29,201,6308424,,,,,,,2023-02-03,1,,,,,エムスタイル,0
1159,4180001154781,新規,0,2023-02-03,2023-02-03,株式会社仲介,,株式会社,愛知県,名古屋市昭和区,隼人町６番地の１４小林ビル２階Ｂ号室,,23,107,4660833,,,,,,,2023-02-03,1,,,,,チュウカイ,0
1160,4180001154807,新規,0,2023-02-03,2023-02-03,ａｎｄ　Ｆ株式会社,,株式会社,愛知県,名古屋市中区,栄４丁目６番４２号ＤＯＭＵＳ２１　９０６号,,23,106,4600008,,,,,,,2023-02-03,1,,,,,アンドエフ,0
1161,4180001154815,新規,0,2023-02-03,2023-02-03,株式会社ＷＩＬＬ　ＬＩＦＥ,,株式会社,愛知県,名古屋市南区,平子１丁目２番５号バーデンハイム桃月４０６号,,23,112,4570001,,,,,,,2023-02-03,1,,,,,ウィルライフ,0
1162,4180001154823,新規,0,2023-02-03,2023-02-03,株式会社葵設計,,株式会社,愛知県,名古屋市東区,葵２丁目１１番２２号,,23,102,4610004,,,,,,,2023-02-03,1,,,,,アオイセッケイ,0
1163,4180001154848,新規,0,2023-02-03,2023-02-03,株式会社エスラボ,,株式会社,愛知県,小牧市,大字本庄字白池８０６番地,,23,219,4850821,,,,,,,2023-02-03,1,,,,,エスラボ,0
1164,4180001154872,新規,0,2023-02-03,2023-02-03,株式会社Ｒｉｓｅ,,株式会社,愛知県,名古屋市中区,錦３丁目８番１５号第２山清ビルＢ１,,23,106,4600003,,,,,,,2023-02-03,1,,,,,ライズ,0
1173,4190001030148,新規,0,2023-02-03,2023-02-03,株式会社ダーウィンズ,,株式会社,三重県,四日市市,北浜田町９番１６号,,24,202,5100062,,,,,,,2023-02-03,1,,,,,ダーウィンズ,0
1182,4210005010077,新規,0,2023-02-03,2023-02-03,一般社団法人ケアステーションひかり,,その他の設立登記法人,福井県,福井市,豊島２丁目１番１号エル・ブラン５０６号室,,18,201,9100857,,,,,,,2023-02-03,1,,,,,ケアステーションヒカリ,0
1183,4220001025251,新規,0,2023-02-03,2023-02-03,株式会社ＣＡＧＥＲ１,,株式会社,石川県,野々市市,御経塚１丁目１１０番地,,17,212,9218801,,,,,,,2023-02-03,1,,,,,ケイジャーワン,0
1184,4220003003445,新規,0,2023-02-03,2023-02-03,合同会社ＡＮＤデザイン,,合同会社,石川県,金沢市,西泉３丁目１番地パークサイドパレス１０２号,,17,201,9218043,,,,,,,2023-02-03,1,,,,,アンドデザイン,0
1185,4240001061039,新規,0,2023-02-03,2023-02-03,株式会社輝,,株式会社,広島県,広島市安佐南区,伴西２丁目４番１号,,34,105,7313169,,,,,,,2023-02-03,1,,,,,カガヤキ,0
1186,4240001061047,新規,0,2023-02-03,2023-02-03,株式会社ベータ,,株式会社,広島県,広島市南区,段原山崎２丁目１４番１号,,34,103,7320819,,,,,,,2023-02-03,1,,,,,ベータ,0
1188,4240003006009,新規,0,2023-02-03,2023-02-03,合同会社ホープ,,合同会社,広島県,広島市中区,鶴見町５番８号,,34,101,7300045,,,,,,,2023-02-03,1,,,,,ホープ,0
1190,4250001019952,新規,0,2023-02-03,2023-02-03,ＣＭＩ株式会社,,株式会社,山口県,下関市,前田２丁目２０番５号,,35,201,7520997,,,,,,,2023-02-03,1,,,,,シーエムアイ,0
1193,4260001037623,新規,0,2023-02-03,2023-02-03,株式会社ＲＩＴＡ,,株式会社,岡山県,井原市,高屋町５丁目６番地２５,,33,207,7150024,,,,,,,2023-02-03,1,,,,,リタ,0
1196,4270003001485,新規,0,2023-02-03,2023-02-03,合同会社ＡＴＳＵＩ,,合同会社,鳥取県,岩美郡岩美町,大字岩本１１６６番地１,,31,302,6810072,,,,,,,2023-02-03,1,,,,,アツイ,0
1203,4290001100411,新規,0,2023-02-03,2023-02-03,株式会社結凜,,株式会社,福岡県,春日市,泉４丁目３２番地１,,40,218,8160853,,,,,,,2023-02-03,1,,,,,ユリン,0
1204,4290001100436,新規,0,2023-02-03,2023-02-03,株式会社北島,,株式会社,福岡県,三潴郡大木町,大字八町牟田３７４番地１,,40,522,8300416,,,,,,,2023-02-03,1,,,,,キタジマ,0
1205,4290001100460,新規,0,2023-02-03,2023-02-03,株式会社誠縁,,株式会社,福岡県,福岡市東区,多々良２丁目３０番４－１号,,40,131,8130033,,,,,,,2023-02-03,1,,,,,セイエン,0
1206,4290001100469,新規,0,2023-02-03,2023-02-03,株式会社ｓｔａｒｉｎｋ,,株式会社,福岡県,福岡市西区,徳永北１５番２０号,,40,135,8190378,,,,,,,2023-02-03,1,,,,,スターリンク,0
1207,4290001100477,新規,0,2023-02-03,2023-02-03,株式会社ｅｍｉｐｌｕｓ,,株式会社,福岡県,福岡市南区,花畑１丁目４５番３１－４０１号,,40,134,8111356,,,,,,,2023-02-03,1,,,,,エミプラス,0
1208,4290001100485,新規,0,2023-02-03,2023-02-03,株式会社サイバーセキュリティ総研,,株式会社,福岡県,福岡市中央区,港３丁目９－８－２,,40,133,8100075,,,,,,,2023-02-03,1,,,,,サイバーセキュリティソウケン,0
1211,4290003013487,新規,0,2023-02-03,2023-02-03,合同会社山下グリーンライフ,,合同会社,福岡県,久留米市,長門石５丁目３番１４号,,40,203,8300027,,,,,,,2023-02-03,1,,,,,ヤマシタグリーンライフ,0
1217,4310001018254,新規,0,2023-02-03,2023-02-03,株式会社アイビーテクノ,,株式会社,長崎県,長崎市,梁川町２６－１１,,42,201,8528013,,,,,,,2023-02-03,1,,,,,アイビーテクノ,0
1218,4320001019549,新規,0,2023-02-03,2023-02-03,株式会社Ｔｏｏクリエイト,,株式会社,大分県,大分市,東鶴崎１丁目３番３号,,44,201,8700103,,,,,,,2023-02-03,1,,,,,トウクリエイト,0
1219,4320001019557,新規,0,2023-02-03,2023-02-03,株式会社ハラケン工業,,株式会社,大分県,大分市,上田町１丁目３番１－８０３号ロフティ羽屋,,44,201,8700886,,,,,,,2023-02-03,1,,,,,ハラケンコウギョウ,0
1221,4330001030546,新規,0,2023-02-03,2023-02-03,株式会社Ｇｒａｆｉｓ,,株式会社,熊本県,上益城郡甲佐町,大字船津２４７番地１,,43,444,8614611,,,,,,,2023-02-03,1,,,,,グラフィス,0
1225,4340001025339,新規,0,2023-02-03,2023-02-03,株式会社ｎｅｘｔｅｐ,,株式会社,鹿児島県,薩摩川内市,花木町３番１号,,46,215,8950064,,,,,,,2023-02-03,1,,,,,ネクステップ,0
1226,4340001025347,新規,0,2023-02-03,2023-02-03,株式会社３ｒｄ　Ｐａｒｋ,,株式会社,鹿児島県,日置市,伊集院町妙円寺２丁目５７番地４,,46,216,8992503,,,,,,,2023-02-03,1,,,,,サードパーク,0
1228,4340005009552,新規,0,2023-02-03,2023-02-03,特定非営利活動法人大隅推進機構,,その他の設立登記法人,鹿児島県,肝属郡錦江町,城元３２８番地１,,46,490,8932302,,,,,,,2023-02-03,1,,,,,オオスミスイシンキコウ,0
1229,4350001018168,新規,0,2023-02-03,2023-02-03,株式会社ＭＹＸｃｅｅｄ,,株式会社,宮崎県,宮崎市,出来島町３３番地１,,45,201,8800861,,,,,,,2023-02-03,1,,,,,ミクシード,0
1230,4350003004281,新規,0,2023-02-03,2023-02-03,合同会社セイワ不動産,,合同会社,宮崎県,延岡市,安賀多町２丁目４番地６,,45,203,8820845,,,,,,,2023-02-03,1,,,,,セイワフドウサン,0
1231,4360001031483,新規,0,2023-02-03,2023-02-03,元大百田株式会社,,株式会社,沖縄県,石垣市,字名蔵８３９番地１,,47,207,9070021,,,,,,,2023-02-03,1,,,,,ゲンダイモモタ,0
1235,4360003012688,新規,0,2023-02-03,2023-02-03,合同会社喜楽,,合同会社,沖縄県,那覇市,繁多川４丁目１１番５２号,,47,201,9020071,,,,,,,2023-02-03,1,,,,,キラク,0
1240,4370001049558,新規,0,2023-02-03,2023-02-03,ＷＩＳＴＥＲＩＡ株式会社,,株式会社,宮城県,仙台市青葉区,立町１７番１８号－２０８号,,04,101,9800822,,,,,,,2023-02-03,1,,,,,ウィステリア,0
1251,4430001088351,新規,0,2023-02-03,2023-02-03,株式会社Ｂｏｏｋｍａｒｋ,,株式会社,北海道,札幌市中央区,南六条西１丁目５番地,,01,101,0640806,,,,,,,2023-02-03,1,,,,,ブックマーク,0
1254,4450001013902,新規,0,2023-02-03,2023-02-03,株式会社アプルーヴ,,株式会社,北海道,旭川市,常盤通３丁目１９７１番４８,,01,204,0700043,,,,,,,2023-02-03,1,,,,,アプルーヴ,0
1259,4500001024745,新規,0,2023-02-03,2023-02-03,株式会社松本工務店,,株式会社,愛媛県,宇和島市,伊吹町甲９４８番地１１,,38,203,7980022,,,,,,,2023-02-03,1,,,,,マツモトコウムテン,0
1260,4500001024753,新規,0,2023-02-03,2023-02-03,株式会社ＬＡＬ,,株式会社,愛媛県,西条市,朔日市７７９番地８,,38,206,7930027,,,,,,,2023-02-03,1,,,,,エルエーエル,0
1263,4700150114194,新規,0,2023-02-03,2023-02-03,ｓｈｅｎｚｈｅｎｓｈｉｙａｏｚａｉｍａｏｙｉｙｏｕｘｉａｎｇｏｎｇｓｉ,,外国会社等,,,,,,,,ｇｕａｎｇ　ｄｏｎｇ　ｓｈｅｎｇ　ｓｈｅｎ　ｚｈｅｎ　ｓｈｉ　ｌｏｎｇ　ｈｕａ　ｑｕ　ｌｏｎｇ　ｈｕａ　ｊｉｅ　ｄａｏ　ｑｉｎｇ　ｈｕａ　ｓｈｅ　ｑｕ　ｑｉｎｇ　ｈｕ　ｌｕ　ｘｉａｎ　ｈｕａ　ｍｉｎｇ　ｙｕａｎ　Ｂｄｏｎｇ　１５Ｂ，Ｃｈｉｎａ,,,,,,2023-02-03,1,,,,,シンセンシヤオザイボウエキユウゲンコウシ,0
1277,5010001232628,新規,0,2023-02-03,2023-02-03,株式会社ＦＩＮＡＬ　ＣＬＵＢ,,株式会社,東京都,中央区,日本橋本町３丁目２－１４山一大野ビル３Ｆ,,13,102,1030023,,,,,,,2023-02-03,1,,,,,ファイナルクラブ,0
1279,5010003039749,新規,0,2023-02-03,2023-02-03,東京レジ３５合同会社,,合同会社,東京都,千代田区,丸の内３丁目１番１号東京共同会計事務所内,,13,101,1000005,,,,,,,2023-02-03,1,,,,,トウキョウレジサーティファイブ,0
1280,5010101015494,新規,0,2023-02-03,2023-02-03,株式会社Ｇ・Ａ・Ｏ,,株式会社,東京都,八王子市,散田町４丁目１３番１６号レジデンスウエスト八王子２０７号,,13,201,1930832,,,,,,,2023-02-03,1,,,,,ジーエーオー,0
1289,5010401172234,新規,0,2023-02-03,2023-02-03,ＪＳＥ　Ｏｃｅａｎ株式会社,,株式会社,東京都,港区,海岸１丁目１４番５号,,13,103,1050022,,,,,,,2023-02-03,1,,,,,ジェイエスイーオーシャン,0
1290,5010401172275,新規,0,2023-02-03,2023-02-03,ＪａｐａｎＰａｙ株式会社,,株式会社,東京都,港区,東麻布１丁目１２番５号ＡＣＮ東麻布ビル６階,,13,103,1060044,,,,,,,2023-02-03,1,,,,,ジャパンペイ,0
1291,5010401172283,新規,0,2023-02-03,2023-02-03,株式会社リゾルセクレアチワン,,株式会社,東京都,港区,白金１丁目２５番１１－１４１１号,,13,103,1080072,,,,,,,2023-02-03,1,,,,,リゾルセクレアチワン,0
1292,5010401172300,新規,0,2023-02-03,2023-02-03,株式会社ジーエスプロ,,株式会社,東京都,港区,芝３丁目１７番１５号,,13,103,1050014,,,,,,,2023-02-03,1,,,,,ジーエスプロ,0
1293,5010401172325,新規,0,2023-02-03,2023-02-03,株式会社Ｌｏｇｉｅｍｏ,,株式会社,東京都,港区,南青山２丁目２番１５号ＷＩＮ青山５３１,,13,103,1070062,,,,,,,2023-02-03,1,,,,,ロジエモ,0
1298,5010501049910,新規,0,2023-02-03,2023-02-03,日本維斗科技株式会社,,株式会社,東京都,台東区,台東１丁目２９－３イースタンクロスアキバ３１７,,13,106,1100016,,,,,,,2023-02-03,1,,,,,ニホンイトカギ,0
1299,5010701043812,新規,0,2023-02-03,2023-02-03,株式会社かじや,,株式会社,東京都,品川区,西品川３丁目１３番６号,,13,109,1410033,,,,,,,2023-02-03,1,,,,,カジヤ,0
1303,5010901052349,新規,0,2023-02-03,2023-02-03,株式会社ゴリラマウンテン,,株式会社,東京都,世田谷区,赤堤５丁目２６－９岡田ビル２０３号室,,13,112,1560044,,,,,,,2023-02-03,1,,,,,ゴリラマウンテン,0
1304,5011001152345,新規,0,2023-02-03,2023-02-03,久住自然エネルギー開発株式会社,,株式会社,東京都,目黒区,下目黒６丁目１１番２６号,,13,110,1530064,,,,,,,2023-02-03,1,,,,,クジュウシゼンエネルギーカイハツ,0
1305,5011001152378,新規,0,2023-02-03,2023-02-03,株式会社Ｒａｉｓｏｎ　Ｊａｐａｎ,,株式会社,東京都,渋谷区,東１丁目１４番１２号常盤松マンション２Ｃ,,13,113,1500011,,,,,,,2023-02-03,1,,,,,レイゾンジャパン,0
1306,5011001152394,新規,0,2023-02-03,2023-02-03,株式会社ＰＪＪ,,株式会社,東京都,渋谷区,千駄ヶ谷４丁目５番１０号コンフォリア北参道９０３,,13,113,1510051,,,,,,,2023-02-03,1,,,,,ピージェイジェイ,0
1311,5011101101714,新規,0,2023-02-03,2023-02-03,株式会社ＳｙｎｅｒｇｙＥｆｆｅｃｔ,,株式会社,東京都,新宿区,西新宿３丁目３番１３号西新宿水間ビル６階,,13,104,1600023,,,,,,,2023-02-03,1,,,,,シナジーエフェクト,0
1312,5011101101730,新規,0,2023-02-03,2023-02-03,株式会社Ｔｒｉｐｐｙ,,株式会社,東京都,新宿区,西落合１丁目３０番２５号クレアトール西落合２０２,,13,104,1610031,,,,,,,2023-02-03,1,,,,,トリッピー,0
1313,5011101101739,新規,0,2023-02-03,2023-02-03,ブラックシープ株式会社,,株式会社,東京都,新宿区,納戸町２０番地アビテ市ヶ谷納戸町２０６,,13,104,1620837,,,,,,,2023-02-03,1,,,,,ブラックシープ,0
1318,5011203003998,新規,0,2023-02-03,2023-02-03,Ｎｏ．７合同会社,,合同会社,東京都,中野区,東中野３丁目２３－８－３０９,,13,114,1640003,,,,,,,2023-02-03,1,,,,,ナンバーセブン,0
1319,5011301028427,新規,0,2023-02-03,2023-02-03,株式会社ＬａｐｉｓＤｏｌｌ,,株式会社,東京都,杉並区,高円寺南４丁目４５番２号ＪＲ高円寺フジグリーンビル５階,,13,115,1660003,,,,,,,2023-02-03,1,,,,,ラピドール,0
1326,5011801041895,新規,0,2023-02-03,2023-02-03,株式会社雄栄工業,,株式会社,東京都,足立区,保木間４丁目４８番４号ヴィラ・ボヌール１０２,,13,121,1210064,,,,,,,2023-02-03,1,,,,,ユウエイコウギョウ,0
1328,5011803005493,新規,0,2023-02-03,2023-02-03,合同会社ｉＣｒａｆｔ,,合同会社,東京都,足立区,皿沼１丁目５番４号,,13,121,1230862,,,,,,,2023-02-03,1,,,,,アイクラフト,0
1331,5012701017465,新規,0,2023-02-03,2023-02-03,Ｙ’ｓ　Ａｒｔ　Ｏｆｆｉｃｅ株式会社,,株式会社,東京都,西東京市,住吉町４丁目１２番９号,,13,229,2020005,,,,,,,2023-02-03,1,,,,,ワイズアートオフィス,0
1343,5020001150110,新規,0,2023-02-03,2023-02-03,株式会社グラディー,,株式会社,神奈川県,横浜市中区,相生町５丁目９６番地３加藤第２ビル１Ｆ,,14,104,2310012,,,,,,,2023-02-03,1,,,,,グラディー,0
1344,5020001150143,新規,0,2023-02-03,2023-02-03,株式会社ＬＹＦＴ,,株式会社,神奈川県,横浜市神奈川区,三ツ沢西町４番２１－１０１号,,14,102,2210855,,,,,,,2023-02-03,1,,,,,リフト,0
1349,5020003023231,新規,0,2023-02-03,2023-02-03,Ｍ７１合同会社,,合同会社,神奈川県,横浜市旭区,南本宿町１４２番地１６,,14,112,2410833,,,,,,,2023-02-03,1,,,,,エムナナイチ,0
1351,5021001078102,新規,0,2023-02-03,2023-02-03,株式会社グランディール,,株式会社,神奈川県,平塚市,城所２９５番地－２Ｆ,,14,203,2540005,,,,,,,2023-02-03,1,,,,,グランディール,0
1358,5030001152205,新規,0,2023-02-03,2023-02-03,青空株式会社,,株式会社,埼玉県,川口市,芝新町３番５－３０３号,,11,203,3330851,,,,,,,2023-02-03,1,,,,,アオゾラ,0
1359,5030001152221,新規,0,2023-02-03,2023-02-03,株式会社ＹＴメディカル,,株式会社,埼玉県,坂戸市,緑町４番１号,,11,239,3500234,,,,,,,2023-02-03,1,,,,,ワイティメディカル,0
1360,5030001152238,新規,0,2023-02-03,2023-02-03,株式会社なのに物語,,株式会社,埼玉県,川越市,石原町１丁目４７番地６,,11,201,3500824,,,,,,,2023-02-03,1,,,,,ナノニモノガタリ,0
1366,5030003021093,新規,0,2023-02-03,2023-02-03,ＲＯＢＯＴＥＸ合同会社,,合同会社,埼玉県,比企郡滑川町,月の輪７丁目２８番地１０,,11,341,3550815,,,,,,,2023-02-03,1,,,,,ロボテックス,0
1374,5040001126901,新規,0,2023-02-03,2023-02-03,株式会社チーズ,,株式会社,千葉県,船橋市,前原西２丁目１４番２号,,12,204,2740825,,,,,,,2023-02-03,1,,,,,チーズ,0
1375,5040001126934,新規,0,2023-02-03,2023-02-03,株式会社オフィスもりた,,株式会社,千葉県,木更津市,中島１４５１番地２,,12,206,2920008,,,,,,,2023-02-03,1,,,,,オフィスモリタ,0
1376,5040001126942,新規,0,2023-02-03,2023-02-03,株式会社フューチャー,,株式会社,千葉県,船橋市,海神６丁目９番２号,,12,204,2730021,,,,,,,2023-02-03,1,,,,,フューチャー,0
1382,5040003021844,新規,0,2023-02-03,2023-02-03,ナチュラルＴ合同会社,,合同会社,千葉県,八千代市,勝田台北２丁目１３番７号,,12,221,2760020,,,,,,,2023-02-03,1,,,,,ナチュラルティー,0
1383,5040005021900,新規,0,2023-02-03,2023-02-03,医療法人社団さんいく会,,その他の設立登記法人,千葉県,船橋市,松が丘１丁目５番４号,,12,204,2740064,,,,,,,2023-02-03,1,,,,,サンイクカイ,0
1384,5050001052337,新規,0,2023-02-03,2023-02-03,株式会社ＢＡＮＡＮＡ,,株式会社,茨城県,ひたちなか市,東石川２丁目６番１７号,,08,221,3120052,,,,,,,2023-02-03,1,,,,,バナナ,0
1388,5050003007198,新規,0,2023-02-03,2023-02-03,ＹＧ０３合同会社,,合同会社,茨城県,日立市,桜川町４丁目１７番１号,,08,202,3160002,,,,,,,2023-02-03,1,,,,,ワイジーゼロサン,0
1389,5060001035662,新規,0,2023-02-03,2023-02-03,Ｔａｈｉｒ　Ｔｒａｄｉｎｇ株式会社,,株式会社,栃木県,栃木市,大平町新１３８０－１,,09,203,3294425,,,,,,,2023-02-03,1,,,,,タヒルトレーディング,0
1393,5070001040083,新規,0,2023-02-03,2023-02-03,株式会社東世,,株式会社,群馬県,伊勢崎市,波志江町４６７３番地５,,10,204,3720001,,,,,,,2023-02-03,1,,,,,トウヨ,0
1394,5070001040091,新規,0,2023-02-03,2023-02-03,株式会社Ｎ‐Ｓｐｉｒｉｔｓ,,株式会社,群馬県,前橋市,文京町２丁目２８番２１号サラダ館３階,,10,201,3710801,,,,,,,2023-02-03,1,,,,,エヌスピリッツ,0
1395,5070003004813,新規,0,2023-02-03,2023-02-03,合同会社ブルースカイ,,合同会社,群馬県,太田市,東本町２１番地１９の４,,10,205,3730026,,,,,,,2023-02-03,1,,,,,ブルースカイ,0
1397,5080001025439,新規,0,2023-02-03,2023-02-03,株式会社ＰｒａＣｈｅｅｒ,,株式会社,静岡県,島田市,東町１０２１番地の２,,22,209,4270011,,,,,,,2023-02-03,1,,,,,プレチア,0
1406,5090001017963,新規,0,2023-02-03,2023-02-03,音の葉株式会社,,株式会社,山梨県,笛吹市,春日居町鎮目７８６番地１,,19,211,4060015,,,,,,,2023-02-03,1,,,,,オトノハ,0
1413,5110001037273,新規,0,2023-02-03,2023-02-03,株式会社ＮＡＮＤＥＭＯＹＡ,,株式会社,新潟県,新潟市秋葉区,草水町２丁目１２番３２号,,15,105,9560833,,,,,,,2023-02-03,1,,,,,ナンデモヤ,0
1414,5110001037281,新規,0,2023-02-03,2023-02-03,株式会社Ｗｏｗ　Ｍｙｏｋｏ,,株式会社,新潟県,妙高市,大字杉野沢２４２１番地,,15,217,9492113,,,,,,,2023-02-03,1,,,,,ワオミョウコウ,0
1422,5120001252169,新規,0,2023-02-03,2023-02-03,株式会社ｄｉｇａｌｏ,,株式会社,大阪府,枚方市,長尾元町３丁目２０番６号,,27,210,5730163,,,,,,,2023-02-03,1,,,,,ディガロ,0
1423,5120001252268,新規,0,2023-02-03,2023-02-03,株式会社加地都市管財,,株式会社,大阪府,大阪市中央区,平野町１丁目５番９号,,27,128,5410046,,,,,,,2023-02-03,1,,,,,カジトシカンザイ,0
1424,5120005023450,新規,0,2023-02-03,2023-02-03,行政書士法人友綱国際法務事務所,,その他の設立登記法人,大阪府,大阪市中央区,北浜１丁目１番１４号北浜一丁目平和ビル６階,,27,128,5410041,,,,,,,2023-02-03,1,,,,,トモツナコクサイホウムジムショ,0
1426,5120101066923,新規,0,2023-02-03,2023-02-03,株式会社ＤｏＮ　ｃｏｎｄｉｔｉｏｎｉｎｇ　Ｌａｂｏ,,株式会社,大阪府,堺市中区,土師町５丁１番５号,,27,142,5998238,,,,,,,2023-02-03,1,,,,,ドンコンディショニングラボ,0
1427,5120103005045,新規,0,2023-02-03,2023-02-03,合同会社幸新工房,,合同会社,大阪府,河内長野市,清見台４丁目１１－１８,,27,216,5860043,,,,,,,2023-02-03,1,,,,,コウシンコウボウ,0
1429,5120901047073,新規,0,2023-02-03,2023-02-03,株式会社アル・ソーレ,,株式会社,大阪府,茨木市,南春日丘２丁目２－５,,27,211,5670046,,,,,,,2023-02-03,1,,,,,アルソーレ,0
1430,5120901047098,新規,0,2023-02-03,2023-02-03,株式会社ＲＥＭ,,株式会社,大阪府,豊中市,岡町南１丁目２番２２－２０１号,,27,203,5610883,,,,,,,2023-02-03,1,,,,,レム,0
1431,5122001036650,新規,0,2023-02-03,2023-02-03,株式会社Ｋウェア,,株式会社,大阪府,東大阪市,西堤本通東２丁目３番２０号,,27,227,5770045,,,,,,,2023-02-03,1,,,,,ケーウェア,0
1432,5122001036667,新規,0,2023-02-03,2023-02-03,株式会社進英エンジニア,,株式会社,大阪府,東大阪市,横小路町５丁目５番８号,,27,227,5798063,,,,,,,2023-02-03,1,,,,,シンエイエンジニア,0
1440,5130001073614,新規,0,2023-02-03,2023-02-03,家森医学研究所株式会社,,株式会社,京都府,京都市左京区,浄土寺下馬場町８６－２,,26,103,6068413,,,,,,,2023-02-03,1,,,,,ヤモリイガクケンキュウジョ,0
1441,5130001073622,新規,0,2023-02-03,2023-02-03,株式会社師ｓ,,株式会社,京都府,京都市南区,東九条西河辺町４１番地３コープ野村京都南１０２０,,26,107,6018037,,,,,,,2023-02-03,1,,,,,モロズ,0
1442,5130001073630,新規,0,2023-02-03,2023-02-03,株式会社ＩＫＫＩ工房,,株式会社,京都府,京都市中京区,高倉通御池上る柊町５８３番地Ｋｓビル,,26,104,6040826,,,,,,,2023-02-03,1,,,,,イッキコウボウ,0
1445,5130003008502,新規,0,2023-02-03,2023-02-03,リュウジ合同会社,,合同会社,京都府,京都市右京区,西院高田町３５番地ロイヤルコーポ８１１号室,,26,108,6160000,,,,,,,2023-02-03,1,,,,,リュウジ,0
1446,5130003008510,新規,0,2023-02-03,2023-02-03,合同会社タミアキ,,合同会社,京都府,向日市,上植野町西小路２５番地３,,26,208,6170006,,,,,,,2023-02-03,1,,,,,タミアキ,0
1451,5140001129027,新規,0,2023-02-03,2023-02-03,株式会社Ｏｎｅ　Ｏｎｌｙ,,株式会社,兵庫県,神戸市中央区,江戸町１０４番地江戸町１０４ビル５Ｆ,,28,110,6500033,,,,,,,2023-02-03,1,,,,,ワンオンリー,0
1452,5140003018649,新規,0,2023-02-03,2023-02-03,合同会社ＡＢＣパートナー,,合同会社,兵庫県,西宮市,南昭和町７番２８－２１５号,,28,204,6620834,,,,,,,2023-02-03,1,,,,,エービーシーパートナー,0
1456,5150001026149,新規,0,2023-02-03,2023-02-03,株式会社奈良総合福祉会,,株式会社,奈良県,橿原市,中町２１９番地の７,,29,205,6340009,,,,,,,2023-02-03,1,,,,,ナラソウゴウフクシカイ,0
1459,5160001024804,新規,0,2023-02-03,2023-02-03,株式会社エムズ,,株式会社,滋賀県,大津市,穴太３丁目３番１１号,,25,201,5200114,,,,,,,2023-02-03,1,,,,,エムズ,0
1462,5170005006995,新規,0,2023-02-03,2023-02-03,一般社団法人道しるべ,,その他の設立登記法人,和歌山県,西牟婁郡白浜町,十九渕２２２番地,,30,401,6492324,,,,,,,2023-02-03,1,,,,,ミチシルベ,0
1470,5180001154822,新規,0,2023-02-03,2023-02-03,株式会社コッパワークアンドアート,,株式会社,愛知県,名古屋市中区,栄１丁目１８番１号,,23,106,4600008,,,,,,,2023-02-03,1,,,,,コッパワークアンドアート,0
1471,5180001154839,新規,0,2023-02-03,2023-02-03,株式会社靖和電設,,株式会社,愛知県,名古屋市西区,こも原町１４番地,,23,104,4520824,,,,,,,2023-02-03,1,,,,,セイワデンセツ,0
1484,5180303005599,新規,0,2023-02-03,2023-02-03,合同会社Ｄａｒｕｍａ　Ｄｒｅａｍ　Ｃｏｍｐａｎｙ,,合同会社,愛知県,豊田市,青木町２丁目９７番地１７,,23,211,4700335,,,,,,,2023-02-03,1,,,,,ダルマドリームカンパニー,0
1487,5200001040929,新規,0,2023-02-03,2023-02-03,株式会社Ｏｎｌｙ　Ｏｎｅ　Ｗａｎ,,株式会社,岐阜県,各務原市,蘇原柿沢町３丁目２番地１６,,21,213,5040825,,,,,,,2023-02-03,1,,,,,オンリーワンワン,0
1490,5200003005830,新規,0,2023-02-03,2023-02-03,合同会社Ｎｉｃｏｗｅｌｌ,,合同会社,岐阜県,美濃市,２６３５番地３０,,21,207,5013701,,,,,,,2023-02-03,1,,,,,ニコウェル,0
1492,5220001025250,新規,0,2023-02-03,2023-02-03,株式会社ＡＮＴＯホールディングス,,株式会社,石川県,金沢市,諸江町下丁３７２番地,,17,201,9200017,,,,,,,2023-02-03,1,,,,,アントホールディングス,0
1493,5220003003444,新規,0,2023-02-03,2023-02-03,合同会社なかよし,,合同会社,石川県,金沢市,森山２丁目６番３７‐１号,,17,201,9200843,,,,,,,2023-02-03,1,,,,,ナカヨシ,0
1495,5230001019697,新規,0,2023-02-03,2023-02-03,株式会社Ｔｈｒｅｅ　ｅｙｅｓ,,株式会社,富山県,高岡市,戸出町３丁目５番３６号,,16,202,9391104,,,,,,,2023-02-03,1,,,,,スリーアイズ,0
1500,5240001061038,新規,0,2023-02-03,2023-02-03,林重機株式会社,,株式会社,広島県,福山市,神辺町字湯野５２７番地７,,34,207,7202121,,,,,,,2023-02-03,1,,,,,ハヤシジュウキ,0
1501,5240001061062,新規,0,2023-02-03,2023-02-03,株式会社ｂｏｎｄ,,株式会社,広島県,広島市佐伯区,八幡１丁目７番６－１０６号,,34,108,7315116,,,,,,,2023-02-03,1,,,,,ボンド,0
1505,5260001037630,新規,0,2023-02-03,2023-02-03,真庭水産株式会社,,株式会社,岡山県,真庭市,湯原温泉３９９番地２,,33,214,7170402,,,,,,,2023-02-03,1,,,,,マニワスイサン,0
1508,5290001100402,新規,0,2023-02-03,2023-02-03,株式会社ＴＫ,,株式会社,福岡県,飯塚市,伊川１２５４番地１４－５０２号,,40,205,8200054,,,,,,,2023-02-03,1,,,,,ティーケイ,0
1509,5290001100427,新規,0,2023-02-03,2023-02-03,株式会社河津電工,,株式会社,福岡県,春日市,下白水南６丁目２１７番地,,40,218,8160846,,,,,,,2023-02-03,1,,,,,カワヅデンコウ,0
1510,5290001100435,新規,0,2023-02-03,2023-02-03,株式会社立花屋,,株式会社,福岡県,福岡市中央区,大宮１丁目２番９号,,40,133,8100013,,,,,,,2023-02-03,1,,,,,タチバナヤ,0
1511,5290001100476,新規,0,2023-02-03,2023-02-03,株式会社ＡＴＯＳ,,株式会社,福岡県,太宰府市,水城２丁目３０番９号,,40,221,8180131,,,,,,,2023-02-03,1,,,,,アトス,0
1512,5290003013486,新規,0,2023-02-03,2023-02-03,合同会社Ｒ．ｃｏｍｐａｎｙ,,合同会社,福岡県,大川市,大字向島１０１６番地７,,40,212,8310005,,,,,,,2023-02-03,1,,,,,アールカンパニー,0
1515,5290801029246,新規,0,2023-02-03,2023-02-03,株式会社ＧＡＨＯ,,株式会社,福岡県,北九州市八幡西区,陣原５丁目１０番３２号ＫＲビル５Ｆ,,40,109,8070821,,,,,,,2023-02-03,1,,,,,ガオ,0
1516,5300001013214,新規,0,2023-02-03,2023-02-03,株式会社薫クレーン工業,,株式会社,佐賀県,佐賀市,諸富町大字大堂２４１４番地,,41,201,8402101,,,,,,,2023-02-03,1,,,,,カオルクレーンコウギョウ,0
1517,5330001030561,新規,0,2023-02-03,2023-02-03,株式会社ハートロック,,株式会社,熊本県,菊池郡大津町,大字吹田１３０２番地５７,,43,403,8691218,,,,,,,2023-02-03,1,,,,,ハートロック,0
1518,5330001030578,新規,0,2023-02-03,2023-02-03,株式会社ｃｏｎｅｃｔａｒ,,株式会社,熊本県,玉名市,天水町小天６２１４番地,,43,206,8615401,,,,,,,2023-02-03,1,,,,,コネクター,0
1519,5340001025354,新規,0,2023-02-03,2023-02-03,ＵＡＦ株式会社,,株式会社,鹿児島県,曽於郡大崎町,假宿３３０１番地,,46,468,8997305,,,,,,,2023-02-03,1,,,,,ユーエイエフ,0
1523,5350001018159,新規,0,2023-02-03,2023-02-03,株式会社ＮＥＸＵＳ,,株式会社,宮崎県,宮崎市,阿波岐原町前浜４２７６番地７７０,,45,201,8800835,,,,,,,2023-02-03,1,,,,,ネクサス,0
1529,5370001049557,新規,0,2023-02-03,2023-02-03,株式会社ＭＤＫ,,株式会社,宮城県,仙台市泉区,旭丘堤１丁目１０番１８号,,04,105,9818004,,,,,,,2023-02-03,1,,,,,エムディーケー,0
1533,5380001033444,新規,0,2023-02-03,2023-02-03,株式会社ＳＵＮＲＩＳＥ・ＨＤ,,株式会社,福島県,会津若松市,天寧寺町３番７号,,07,202,9650805,,,,,,,2023-02-03,1,,,,,サンライズホールディングス,0
1535,5400001016149,新規,0,2023-02-03,2023-02-03,株式会社スカイアグリ湯本,,株式会社,岩手県,花巻市,小瀬川第４地割３４番地,,03,205,0250324,,,,,,,2023-02-03,1,,,,,スカイアグリユモト,0
1537,5410003003755,新規,0,2023-02-03,2023-02-03,ＰＯＬＩＴＥＷＯＲＫ合同会社,,合同会社,秋田県,秋田市,濁川字堀尾田１番地３０,,05,201,0100821,,,,,,,2023-02-03,1,,,,,ポライトワーク,0
1538,5420001018143,新規,0,2023-02-03,2023-02-03,株式会社加登工業,,株式会社,青森県,八戸市,新湊３丁目７番１３号,,02,203,0310811,,,,,,,2023-02-03,1,,,,,カトコウギョウ,0
1546,5430001088359,新規,0,2023-02-03,2023-02-03,株式会社ノンファンジブル,,株式会社,北海道,札幌市東区,北二十三条東１５丁目５番２５号,,01,103,0650023,,,,,,,2023-02-03,1,,,,,ノンファンジブル,0
1550,5450001013901,新規,0,2023-02-03,2023-02-03,株式会社ＩＮ　ＭＯＴＯＲ,,株式会社,北海道,旭川市,東七条１丁目４番６号,,01,204,0700027,,,,,,,2023-02-03,1,,,,,アイエヌモーター,0
1557,5500001024752,新規,0,2023-02-03,2023-02-03,株式会社佐田岬マネジメント,,株式会社,愛媛県,西宇和郡伊方町,湊浦１番１３,,38,442,7960301,,,,,,,2023-02-03,1,,,,,サダミサキマネジメント,0
1563,5700150114193,新規,0,2023-02-03,2023-02-03,ｚｈｕｈａｉｌｉｗｕｋｅｊｉｙｏｕｘｉａｎｇｏｎｇｓｉ,,外国会社等,,,,,,,,ｘｉａｎｇｚｈｏｕｑｕｌｉｗｅｎｊｉｅ３３３ｈａｏ１ｄｏｎｇ２Ｆ－５１，ｚｈｕｈａｉ　ｇｕａｎｇｄｏｎｇ，Ｃｈｉｎａ,,,,,,2023-02-03,1,,,,,シュカイリムカギユウゲンコウシ,0
1567,6010001232668,新規,0,2023-02-03,2023-02-03,株式会社リッチフィールド,,株式会社,東京都,千代田区,丸の内２丁目１番１号,,13,101,1000005,,,,,,,2023-02-03,1,,,,,リッチフィールド,0
1568,6010001232684,新規,0,2023-02-03,2023-02-03,株式会社資産運用コンサルティング,,株式会社,東京都,千代田区,丸の内１丁目８番１号丸の内トラストタワーＮ館１８階,,13,101,1000005,,,,,,,2023-02-03,1,,,,,シサンウンヨウコンサルティング,0
1569,6010001232692,新規,0,2023-02-03,2023-02-03,東京日比谷ホテル株式会社,,株式会社,東京都,千代田区,内幸町１丁目５番２号,,13,101,1000011,,,,,,,2023-02-03,1,,,,,トウキョウヒビヤホテル,0
1570,6010001232726,新規,0,2023-02-03,2023-02-03,株式会社Ｈｏｕｓｅ　Ｔｏｎｔｔｕ,,株式会社,東京都,中央区,新川２丁目２７番４－１３０５号,,13,102,1040033,,,,,,,2023-02-03,1,,,,,ハウストントゥ,0
1575,6010003039640,新規,0,2023-02-03,2023-02-03,アークラボ合同会社,,合同会社,東京都,中央区,日本橋小舟町１４番９－１０２号,,13,102,1030024,,,,,,,2023-02-03,1,,,,,アークラボ,0
1576,6010003039748,新規,0,2023-02-03,2023-02-03,東京レジ３４合同会社,,合同会社,東京都,千代田区,丸の内３丁目１番１号東京共同会計事務所内,,13,101,1000005,,,,,,,2023-02-03,1,,,,,トウキョウレジサーティフォー,0
1586,6010401172274,新規,0,2023-02-03,2023-02-03,ＰｒｏｐＴｅｃｈ　Ｊａｐａｎ株式会社,,株式会社,東京都,港区,東麻布１丁目１２番５号ＡＣＮ東麻布ビル６階,,13,103,1060044,,,,,,,2023-02-03,1,,,,,プロップテックジャパン,0
1590,6010403029456,新規,0,2023-02-03,2023-02-03,合同会社ｔ‐ｄｏｔｓ,,合同会社,東京都,港区,南青山２丁目２番１５号,,13,103,1070062,,,,,,,2023-02-03,1,,,,,ティードッツ,0
1592,6010501049959,新規,0,2023-02-03,2023-02-03,株式会社ＹＡＡ,,株式会社,東京都,台東区,上野２丁目１２番３号大国屋ビル４階,,13,106,1100005,,,,,,,2023-02-03,1,,,,,ワイエーエー,0
1596,6010701043811,新規,0,2023-02-03,2023-02-03,株式会社ＪＯＹ　ＦＥＶＥＲ,,株式会社,東京都,品川区,小山３丁目１５番２－５０９号,,13,109,1420062,,,,,,,2023-02-03,1,,,,,ジョイフィーバー,0
1607,6011001152385,新規,0,2023-02-03,2023-02-03,株式会社ＳＥＥＤ,,株式会社,東京都,渋谷区,円山町５番５号Ｎａｖｉ渋谷Ｖ３階,,13,113,1500044,,,,,,,2023-02-03,1,,,,,シード,0
1616,6011101101713,新規,0,2023-02-03,2023-02-03,ビズワン株式会社,,株式会社,東京都,新宿区,西新宿３丁目９番７号フロンティア新宿タワー３階,,13,104,1600023,,,,,,,2023-02-03,1,,,,,ビズワン,0
1617,6011101101721,新規,0,2023-02-03,2023-02-03,株式会社レクストラボ,,株式会社,東京都,新宿区,新宿３丁目１番２４号京王新宿三丁目ビル９Ｆ,,13,104,1600022,,,,,,,2023-02-03,1,,,,,レクストラボ,0
1618,6011101101738,新規,0,2023-02-03,2023-02-03,コートリーズ株式会社,,株式会社,東京都,新宿区,新宿３丁目５－６キュープラザ新宿三丁目４Ｆ,,13,104,1600022,,,,,,,2023-02-03,1,,,,,コートリーズ,0
1619,6011101101746,新規,0,2023-02-03,2023-02-03,株式会社ＶＲｆａｎｓ,,株式会社,東京都,新宿区,西新宿３丁目３番１３号西新宿水間ビル２Ｆ,,13,104,1600023,,,,,,,2023-02-03,1,,,,,ブイアールファンズ,0
1620,6011103012660,新規,0,2023-02-03,2023-02-03,ＫＩＹＡＴＡマネジメント合同会社,,合同会社,東京都,新宿区,西新宿３丁目３番１３号西新宿水間ビル６階,,13,104,1600023,,,,,,,2023-02-03,1,,,,,キヤタマネジメント,0
1621,6011105010522,新規,0,2023-02-03,2023-02-03,特定非営利活動法人ＢＬＯＮＡＳ,,その他の設立登記法人,東京都,新宿区,西新宿７丁目５番５号ｐｌａｚａ西新宿ＵＣＦ４階,,13,104,1600023,,,,,,,2023-02-03,1,,,,,ブルナス,0
1623,6011301028434,新規,0,2023-02-03,2023-02-03,株式会社リゼック,,株式会社,東京都,杉並区,下高井戸４丁目３番５号,,13,115,1680073,,,,,,,2023-02-03,1,,,,,リゼック,0
1626,6011601026559,新規,0,2023-02-03,2023-02-03,フクヤマコーポレーション株式会社,,株式会社,東京都,練馬区,上石神井４丁目２６番３号,,13,120,1770044,,,,,,,2023-02-03,1,,,,,フクヤマコーポレーション,0
1629,6011801041878,新規,0,2023-02-03,2023-02-03,株式会社懐刀,,株式会社,東京都,葛飾区,金町３丁目３９番１１号,,13,122,1250042,,,,,,,2023-02-03,1,,,,,フトコロガタナ,0
1630,6012301013302,新規,0,2023-02-03,2023-02-03,株式会社クラウンホームズ,,株式会社,東京都,町田市,図師町１８９３番地５,,13,209,1940203,,,,,,,2023-02-03,1,,,,,クラウンホームズ,0
1631,6012401040147,新規,0,2023-02-03,2023-02-03,株式会社バースト,,株式会社,東京都,三鷹市,中原３丁目８番３５号,,13,204,1810005,,,,,,,2023-02-03,1,,,,,バースト,0
1632,6012401040155,新規,0,2023-02-03,2023-02-03,ＰｉＶＯＴ　Ｓｔｕｄｉｏｓ株式会社,,株式会社,東京都,小金井市,緑町４丁目１４番３２号,,13,210,1840003,,,,,,,2023-02-03,1,,,,,ピボットスタジオ,0
1635,6013101009110,新規,0,2023-02-03,2023-02-03,株式会社ダイナエステート,,株式会社,東京都,あきる野市,引田５０８番地２４,,13,228,1970834,,,,,,,2023-02-03,1,,,,,ダイナエステート,0
1646,6020001150092,新規,0,2023-02-03,2023-02-03,株式会社Ｂ＆Ｐ,,株式会社,神奈川県,横浜市西区,南浅間町１９番地１７クリオ横濱天王町２０１号,,14,103,2200074,,,,,,,2023-02-03,1,,,,,ビーアンドピー,0
1647,6020001150101,新規,0,2023-02-03,2023-02-03,株式会社藤中リクルート,,株式会社,神奈川県,横浜市緑区,長津田５丁目３番２６号,,14,113,2260027,,,,,,,2023-02-03,1,,,,,フジナカリクルート,0
1648,6020001150118,新規,0,2023-02-03,2023-02-03,株式会社匠,,株式会社,神奈川県,川崎市川崎区,砂子２丁目８番地１シャンボール川崎砂子６２１,,14,131,2100006,,,,,,,2023-02-03,1,,,,,タクミ,0
1649,6020001150134,新規,0,2023-02-03,2023-02-03,株式会社ＥＭＺＥＱ,,株式会社,神奈川県,横浜市中区,本牧原１番１号,,14,104,2310821,,,,,,,2023-02-03,1,,,,,エムゼック,0
1654,6020003023247,新規,0,2023-02-03,2023-02-03,合同会社スマーティア,,合同会社,神奈川県,横浜市港北区,菊名３丁目１６番１５号,,14,109,2220011,,,,,,,2023-02-03,1,,,,,スマーティア,0
1657,6021001078101,新規,0,2023-02-03,2023-02-03,株式会社ＫＴＭ,,株式会社,神奈川県,平塚市,城所２９５番地３Ｆ,,14,203,2540005,,,,,,,2023-02-03,1,,,,,ケーティーエム,0
1658,6021001078126,新規,0,2023-02-03,2023-02-03,株式会社ＶＡＭＯＳ,,株式会社,神奈川県,鎌倉市,山崎６５６番地１７,,14,204,2470066,,,,,,,2023-02-03,1,,,,,ヴァモス,0
1659,6021001078142,新規,0,2023-02-03,2023-02-03,株式会社ＭＩＲＡＩＥ,,株式会社,神奈川県,海老名市,国分南１丁目２番１６－１０２号,,14,215,2430405,,,,,,,2023-02-03,1,,,,,ミライエ,0
1661,6021003012693,新規,0,2023-02-03,2023-02-03,Ｍａｇｏ’ｓ　Ｃｏｍｐａｎｙ合同会社,,合同会社,神奈川県,藤沢市,辻堂東海岸２丁目１２番１２号,,14,205,2510045,,,,,,,2023-02-03,1,,,,,マゴズカンパニー,0
1662,6021003012719,新規,0,2023-02-03,2023-02-03,合同会社ＫＳ１,,合同会社,神奈川県,綾瀬市,深谷中１丁目７番１１号アルエット３０３,,14,218,2521107,,,,,,,2023-02-03,1,,,,,ケーエスワン,0
1672,6030001151841,新規,0,2023-02-03,2023-02-03,株式会社エンクリエイティブ,,株式会社,埼玉県,さいたま市見沼区,大字大谷１４４７番地１１,,11,104,3370014,,,,,,,2023-02-03,1,,,,,エンクリエイティブ,0
1673,6030001152212,新規,0,2023-02-03,2023-02-03,株式会社細田,,株式会社,埼玉県,志木市,上宗岡４丁目２０番１号,,11,228,3530001,,,,,,,2023-02-03,1,,,,,ホソダ,0
1674,6030001152229,新規,0,2023-02-03,2023-02-03,株式会社ロックンローラーホールディングス,,株式会社,埼玉県,川口市,戸塚東２丁目３３番３３号,,11,203,3330802,,,,,,,2023-02-03,1,,,,,ロックンローラーホールディングス,0
1675,6030001152237,新規,0,2023-02-03,2023-02-03,ＰｏｗｅｒＸ株式会社,,株式会社,埼玉県,吉川市,美南２丁目２１番地５,,11,243,3420038,,,,,,,2023-02-03,1,,,,,パワーエックス,0
1676,6030001152253,新規,0,2023-02-03,2023-02-03,株式会社セレンディピティ,,株式会社,埼玉県,入間郡三芳町,大字藤久保８５５番地５６,,11,324,3540041,,,,,,,2023-02-03,1,,,,,セレンディピティ,0
1684,6040001126768,新規,0,2023-02-03,2023-02-03,アンドエス株式会社,,株式会社,千葉県,柏市,十余二４番地１１５,,12,217,2770872,,,,,,,2023-02-03,1,,,,,アンドエス,0
1685,6040001126900,新規,0,2023-02-03,2023-02-03,株式会社アールエステート,,株式会社,千葉県,我孫子市,根戸９９０番地７,,12,222,2701168,,,,,,,2023-02-03,1,,,,,アールエステート,0
1686,6040001126933,新規,0,2023-02-03,2023-02-03,株式会社コバヒロ,,株式会社,千葉県,船橋市,古作４丁目１１番１０号,,12,204,2730037,,,,,,,2023-02-03,1,,,,,コバヒロ,0
1687,6040001126958,新規,0,2023-02-03,2023-02-03,株式会社Ｎｅｘｔ　Ｉｎｎｏｖａｔｉｏｎ,,株式会社,千葉県,船橋市,前原西８丁目１６番３９号,,12,204,2740825,,,,,,,2023-02-03,1,,,,,ネクストイノベーション,0
1688,6040001126974,新規,0,2023-02-03,2023-02-03,株式会社ｄｅｅｐＬｅ,,株式会社,千葉県,八街市,山田台８２８,,12,230,2891124,,,,,,,2023-02-03,1,,,,,ディープル,0
1692,6040003021802,新規,0,2023-02-03,2023-02-03,合同会社ＹＣＤ,,合同会社,千葉県,市川市,田尻５丁目９－１０,,12,203,2720014,,,,,,,2023-02-03,1,,,,,ワイシーディ,0
1693,6040003021843,新規,0,2023-02-03,2023-02-03,ナカヤＩＴ合同会社,,合同会社,千葉県,市原市,平田１１８８番,,12,219,2900053,,,,,,,2023-02-03,1,,,,,ナカヤアイティー,0
1694,6040003021876,新規,0,2023-02-03,2023-02-03,Ｋａｇｏｏ合同会社,,合同会社,千葉県,印西市,鹿黒４２０,,12,231,2701363,,,,,,,2023-02-03,1,,,,,カグー,0
1695,6040005021899,新規,0,2023-02-03,2023-02-03,グローバルパートナーズ協同組合,,その他の設立登記法人,千葉県,市原市,五井東３丁目１１番６号,,12,219,2900055,,,,,,,2023-02-03,1,,,,,グローバルパートナーズ,0
1697,6050001052352,新規,0,2023-02-03,2023-02-03,Ｔ’Ｄｅｓｉｇｎ株式会社,,株式会社,茨城県,ひたちなか市,東大島２丁目２番２１号清水ビル２Ａ,,08,221,3120042,,,,,,,2023-02-03,1,,,,,ティーデザイン,0
1699,6070001040090,新規,0,2023-02-03,2023-02-03,株式会社ＫｌｅｉｎＯａｋ,,株式会社,群馬県,高崎市,中居町２丁目３番地２９,,10,202,3700852,,,,,,,2023-02-03,1,,,,,クラインオーク,0
1700,6070001040099,新規,0,2023-02-03,2023-02-03,ＦＭ　ＴＲＡＤＩＮＧ株式会社,,株式会社,群馬県,太田市,西新町７３番地１４コーポサンフラワー１０２号室,,10,205,3730847,,,,,,,2023-02-03,1,,,,,エフエムトレーディング,0
1703,6070003004812,新規,0,2023-02-03,2023-02-03,和田合同会社,,合同会社,群馬県,高崎市,石原町１４１１番地１フルール・ドゥ・フィオーレ２０１号,,10,202,3700864,,,,,,,2023-02-03,1,,,,,ワダ,0
1707,6080101023779,新規,0,2023-02-03,2023-02-03,株式会社蒼輝,,株式会社,静岡県,沼津市,大手町５丁目１０番２号,,22,203,4100801,,,,,,,2023-02-03,1,,,,,アオキ,0
1708,6080401026300,新規,0,2023-02-03,2023-02-03,株式会社ｈｉｋａｒｉ　ｋｅｎｃｈｉｋｕ,,株式会社,静岡県,浜松市東区,篠ケ瀬町８４２番地,,22,132,4350042,,,,,,,2023-02-03,1,,,,,ヒカリケンチク,0
1709,6080403004717,新規,0,2023-02-03,2023-02-03,コンサルＳＩ合同会社,,合同会社,静岡県,浜松市中区,広沢２丁目４４番１２－６０５号,,22,131,4328013,,,,,,,2023-02-03,1,,,,,コンサルエスアイ,0
1712,6100001036110,新規,0,2023-02-03,2023-02-03,ウイナル株式会社,,株式会社,長野県,長野市,大字栗田６１２番地３,,20,201,3800921,,,,,,,2023-02-03,1,,,,,ウイナル,0
1713,6100001036127,新規,0,2023-02-03,2023-02-03,株式会社イーブル,,株式会社,長野県,長野市,大字鶴賀上千歳町１１５５－２ハヤシビル２階,,20,201,3800821,,,,,,,2023-02-03,1,,,,,イーブル,0
1714,6100003006870,新規,0,2023-02-03,2023-02-03,合同会社ＡＩＭ,,合同会社,長野県,長野市,大字鶴賀４１４番地１イーストアベニュー七瀬３０２,,20,201,3800907,,,,,,,2023-02-03,1,,,,,エイム,0
1716,6110001037280,新規,0,2023-02-03,2023-02-03,株式会社ペトリスリテール,,株式会社,新潟県,新潟市北区,名目所２丁目６６２番地１,,15,101,9503114,,,,,,,2023-02-03,1,,,,,ペトリスリテール,0
1729,6120001252184,新規,0,2023-02-03,2023-02-03,漆栖谷国際株式会社,00129313,株式会社,大阪府,大阪市東成区,深江北３丁目４番２１号エクラ深江橋６１５Ｂ,,27,115,5370001,,,,,,,2023-02-03,1,,,,,シチスヤコクサイ,0
1730,6120001252218,新規,0,2023-02-03,2023-02-03,漢子株式会社,,株式会社,大阪府,大阪市西成区,千本中２丁目５番２６号Ｂ２室,,27,122,5570054,,,,,,,2023-02-03,1,,,,,カンコ,0
1731,6120001252267,新規,0,2023-02-03,2023-02-03,株式会社ラフトプロパティ,,株式会社,大阪府,大阪市西区,新町１丁目２８番１１号,,27,106,5500013,,,,,,,2023-02-03,1,,,,,ラフトプロパティ,0
1732,6120001252275,新規,0,2023-02-03,2023-02-03,ホームベース株式会社,,株式会社,大阪府,大阪市西区,江戸堀１丁目２２番４号肥後橋イシカワビル４０３,,27,106,5500002,,,,,,,2023-02-03,1,,,,,ホームベース,0
1733,6120001252283,新規,0,2023-02-03,2023-02-03,かいげつホテルマネジメント株式会社,,株式会社,大阪府,大阪市北区,東天満１丁目７番１０号,,27,127,5300044,,,,,,,2023-02-03,1,,,,,カイゲツホテルマネジメント,0
1734,6120001252300,新規,0,2023-02-03,2023-02-03,株式会社美容室中の,,株式会社,大阪府,大阪市中央区,谷町６丁目１４番１０号,,27,128,5420012,,,,,,,2023-02-03,1,,,,,ビヨウシツナカノ,0
1739,6120901047031,新規,0,2023-02-03,2023-02-03,株式会社ケーブルネットワーク,,株式会社,大阪府,高槻市,真上町６丁目１９番１０号３０１,,27,207,5691121,,,,,,,2023-02-03,1,,,,,ケーブルネットワーク,0
1740,6120901047080,新規,0,2023-02-03,2023-02-03,株式会社イサム,,株式会社,大阪府,箕面市,箕面２丁目８番１４号,,27,220,5620001,,,,,,,2023-02-03,1,,,,,イサム,0
1745,6122001036666,新規,0,2023-02-03,2023-02-03,株式会社クレセントベア,,株式会社,大阪府,東大阪市,加納７丁目２３番４号１４０９号室,,27,227,5780901,,,,,,,2023-02-03,1,,,,,クレセントベア,0
1751,6130001073613,新規,0,2023-02-03,2023-02-03,株式会社田村リース,,株式会社,京都府,八幡市,八幡式部谷７７番地,,26,210,6148061,,,,,,,2023-02-03,1,,,,,タムラリース,0
1753,6130003008501,新規,0,2023-02-03,2023-02-03,合同会社ＴＯＲＩＩ　ＩＮＤＵＳＴＲＩＥＳ,,合同会社,京都府,京都市伏見区,深草関屋敷町２８番地２ルネ墨染２番館６１０号室,,26,109,6120037,,,,,,,2023-02-03,1,,,,,トリイインダストリーズ,0
1762,6140001128969,新規,0,2023-02-03,2023-02-03,株式会社フジショウ,,株式会社,兵庫県,西宮市,角石町１番５６－１０５号,,28,204,6620096,,,,,,,2023-02-03,1,,,,,フジショウ,0
1763,6140001129001,新規,0,2023-02-03,2023-02-03,ＬａＬａ株式会社,,株式会社,兵庫県,神戸市兵庫区,湊川町５丁目８番６号,,28,105,6520041,,,,,,,2023-02-03,1,,,,,ララ,0
1765,6140003018672,新規,0,2023-02-03,2023-02-03,ウーヴルジャパン合同会社,,合同会社,兵庫県,宝塚市,南ひばりガ丘２丁目３番６号,,28,214,6650811,,,,,,,2023-02-03,1,,,,,ウーヴルジャパン,0
1766,6140003018689,新規,0,2023-02-03,2023-02-03,Ａｓｐｉｒａｔｉｏｎｓ　ｔｈｒｉｖｅ合同会社,,合同会社,兵庫県,明石市,二見町東二見８０２番地の１アルス明石東二見４１１号,,28,203,6740092,,,,,,,2023-02-03,1,,,,,アスピレイションズスライブ,0
1768,6150001026156,新規,0,2023-02-03,2023-02-03,フロンティア株式会社,,株式会社,奈良県,磯城郡田原本町,大字小阪３０８番地の１,,29,363,6360237,,,,,,,2023-02-03,1,,,,,フロンティア,0
1774,6180001154771,新規,0,2023-02-03,2023-02-03,株式会社Ｏｈ‐ｋｕｒａｙａ,,株式会社,愛知県,名古屋市緑区,鳴子町５丁目８０番地の１,,23,114,4580041,,,,,,,2023-02-03,1,,,,,オオクラヤ,0
1775,6180001154805,新規,0,2023-02-03,2023-02-03,東麒産業株式会社,,株式会社,愛知県,津島市,宇治町字茶ノ里１５４番地１,,23,208,4960008,,,,,,,2023-02-03,1,,,,,トウキサンギョウ,0
1782,6180301037057,新規,0,2023-02-03,2023-02-03,プライマルワークス株式会社,,株式会社,愛知県,豊川市,八幡町大池４３番地の８,,23,207,4420857,,,,,,,2023-02-03,1,,,,,プライマルワークス,0
1783,6180301037065,新規,0,2023-02-03,2023-02-03,株式会社２４,,株式会社,愛知県,豊橋市,東小田原町４８番地（６０５）,,23,201,4400886,,,,,,,2023-02-03,1,,,,,トゥエンティフォー,0
1793,6210001019228,新規,0,2023-02-03,2023-02-03,株式会社ヒトノクリエイト．ｊｐ,,株式会社,福井県,福井市,二の宮３丁目２１番２６号２,,18,201,9100015,,,,,,,2023-02-03,1,,,,,ヒトノクリエイトドットジェイピイ,0
1796,6240001061053,新規,0,2023-02-03,2023-02-03,株式会社エイチケイ,,株式会社,広島県,広島市安佐南区,相田１丁目１１番８号,,34,105,7310141,,,,,,,2023-02-03,1,,,,,エイチケイ,0
1797,6240003006007,新規,0,2023-02-03,2023-02-03,合同会社ＫＵＵ,,合同会社,広島県,広島市佐伯区,海老山南２丁目１番２－２５０２号,,34,108,7315138,,,,,,,2023-02-03,1,,,,,クウ,0
1799,6250001019950,新規,0,2023-02-03,2023-02-03,株式会社ＡＦＲＥＳＨ,,株式会社,山口県,宇部市,西平原２丁目１２番１２－７号,,35,202,7550808,,,,,,,2023-02-03,1,,,,,アフレッシュ,0
1808,6280001008876,新規,0,2023-02-03,2023-02-03,株式会社Ｋ’ｓプライド,,株式会社,島根県,出雲市,芦渡町５９７番地２,,32,203,6930035,,,,,,,2023-02-03,1,,,,,ケイズプライド,0
1811,6290001100434,新規,0,2023-02-03,2023-02-03,株式会社リンクアロット,,株式会社,福岡県,糸島市,神在東１丁目１０番３１号,,40,230,8191120,,,,,,,2023-02-03,1,,,,,リンクアロット,0
1812,6290001100442,新規,0,2023-02-03,2023-02-03,株式会社Ｃｏｌｏｒ　Ｌｉｆｅ,,株式会社,福岡県,太宰府市,五条２丁目６番３０号マナホームビルＩＩ１０３号,00129325,40,221,8180125,,,,,,,2023-02-03,1,,,,,カラーライフ,0
1813,6290001100475,新規,0,2023-02-03,2023-02-03,株式会社ｃｏｎｍｅ,,株式会社,福岡県,筑紫野市,美しが丘北２丁目９番地２,,40,217,8180035,,,,,,,2023-02-03,1,,,,,コンミー,0
1814,6290001100483,新規,0,2023-02-03,2023-02-03,株式会社ｉｏ,,株式会社,福岡県,福岡市東区,香住ヶ丘３丁目１９－３Ｃ号室,,40,131,8130003,,,,,,,2023-02-03,1,,,,,アイオー,0
1816,6290003013469,新規,0,2023-02-03,2023-02-03,合同会社Ｆｌｏｗ,,合同会社,福岡県,福岡市南区,大橋４丁目７－７,,40,134,8150033,,,,,,,2023-02-03,1,,,,,フロー,0
1831,6290801029253,新規,0,2023-02-03,2023-02-03,株式会社ベネフィメント,,株式会社,福岡県,北九州市八幡西区,泉ケ浦１丁目４‐６,,40,109,8070854,,,,,,,2023-02-03,1,,,,,ベネフィメント,0
1834,6300003001934,新規,0,2023-02-03,2023-02-03,星野商事合同会社,,合同会社,佐賀県,佐賀市,鍋島町大字蛎久８８番地１,,41,201,8490931,,,,,,,2023-02-03,1,,,,,ホシノショウジ,0
1835,6320001019555,新規,0,2023-02-03,2023-02-03,株式会社ＲＫＳ,,株式会社,大分県,臼杵市,大字諏訪１７４８番地,,44,206,8750011,,,,,,,2023-02-03,1,,,,,アールケイエス,0
1843,6340001025353,新規,0,2023-02-03,2023-02-03,株式会社ＫＫ開発,,株式会社,鹿児島県,鹿児島市,喜入中名町７４６番地３,,46,201,8910202,,,,,,,2023-02-03,1,,,,,ケイケイカイハツ,0
1848,6350001018166,新規,0,2023-02-03,2023-02-03,株式会社怜慎,,株式会社,宮崎県,延岡市,出北３丁目３番１３,,45,203,8820856,,,,,,,2023-02-03,1,,,,,レイシン,0
1853,6360001031515,新規,0,2023-02-03,2023-02-03,株式会社アスピレイション,,株式会社,沖縄県,中頭郡北中城村,字島袋１４１番地１３,,47,327,9012301,,,,,,,2023-02-03,1,,,,,アスピレイション,0
1854,6360001031531,新規,0,2023-02-03,2023-02-03,株式会社ヒラケミライ,,株式会社,沖縄県,島尻郡八重瀬町,字具志頭１６５６番地１,,47,362,9010512,,,,,,,2023-02-03,1,,,,,ヒラケミライ,0
1860,6390001017156,新規,0,2023-02-03,2023-02-03,米沢まちづくり株式会社,,株式会社,山形県,米沢市,東３丁目３番５０号,,06,202,9920026,,,,,,,2023-02-03,1,,,,,ヨネザワマチヅクリ,0
1866,6410003003754,新規,0,2023-02-03,2023-02-03,合同会社青柳農園,,合同会社,秋田県,仙北市,角館町下延上野坊５９番地,,05,215,0140343,,,,,,,2023-02-03,1,,,,,アオヤギノウエン,0
1867,6420001018142,新規,0,2023-02-03,2023-02-03,株式会社はちラボ,,株式会社,青森県,八戸市,吹上２丁目１番１５号,,02,203,0310003,,,,,,,2023-02-03,1,,,,,ハチラボ,0
1870,6430003014700,新規,0,2023-02-03,2023-02-03,合同会社野村塗装工業,,合同会社,北海道,札幌市白石区,北郷二条７丁目３番２２号,,01,104,0030832,,,,,,,2023-02-03,1,,,,,ノムラトソウコウギョウ,0
1872,6440005002743,新規,0,2023-02-03,2023-02-03,一般社団法人北海道まつまえ観光物産協会,,その他の設立登記法人,北海道,松前郡松前町,字西館６８番地,,01,331,0491507,,,,,,,2023-02-03,1,,,,,ホッカイドウマツマエカンコウブッサンキョウカイ,0
1873,6450001013900,新規,0,2023-02-03,2023-02-03,菊水フューチャーズ株式会社,,株式会社,北海道,上川郡上川町,字菊水５０３番地,,01,457,0781721,,,,,,,2023-02-03,1,,,,,キクスイフューチャーズ,0
1881,6700150114192,新規,0,2023-02-03,2023-02-03,ｚｈｕ　ｈａｉ　ｘｉｎ　ｙｉｎ　ｈｕｉ　ｋｅ　ｊｉ　ｙｏｕ　ｘｉａｎ　ｇｏｎｇ　ｓｉ,,外国会社等,,,,,,,,ｚｈｕ　ｈａｉ　ｓｈｉ　ｎａｎ　ｐｉｎｇ　ｐｉｎｇ　ｄｏｎｇ　ｅｒ　ｌｕ　８ｈａｏ　ｃｈｅｎｇ　ｘｉｎｇ　ｃｈｅ　ｊｉａｎ（Ａｄｏｎｇ）２ｌｏｕ　２１２ｆａｎｇ　ｊｉａｎ，Ｃｈｉｎａ,,,,,,2023-02-03,1,,,,,シュカイシンインフイカギユウゲンコウシ,0
1889,7010001232725,新規,0,2023-02-03,2023-02-03,レゾナンス株式会社,,株式会社,東京都,中央区,新川１丁目３番３号,,13,102,1040033,,,,,,,2023-02-03,1,,,,,レゾナンス,0
1890,7010001232741,新規,0,2023-02-03,2023-02-03,株式会社ルーラー,,株式会社,東京都,中央区,銀座５丁目１４番５号光澤堂ＧＩＮＺＡビル５階,,13,102,1040061,,,,,,,2023-02-03,1,,,,,ルーラー,0
1891,7010003039755,新規,0,2023-02-03,2023-02-03,ｉプロパティ１２合同会社,,合同会社,東京都,千代田区,永田町２丁目１４番２号－３階スリーアイズキャピタル株式会社内,,13,101,1000014,,,,,,,2023-02-03,1,,,,,アイプロパティトゥエルブ,0
1897,7010401172265,新規,0,2023-02-03,2023-02-03,伊藤忠サイバー＆インテリジェンス株式会社,,株式会社,東京都,港区,北青山２丁目５番１号,,13,103,1070061,,,,,,,2023-02-03,1,,,,,イトウチュウサイバーアンドインテリジェンス,0
1898,7010401172298,新規,0,2023-02-03,2023-02-03,信瑞盛株式会社,,株式会社,東京都,港区,三田１丁目３－４０－４０２号室,,13,103,1080073,,,,,,,2023-02-03,1,,,,,シンズイセイ,0
1903,7010403029447,新規,0,2023-02-03,2023-02-03,Ｔｉｇｅｒ合同会社,,合同会社,東京都,港区,南青山３丁目１番３６号青山丸竹ビル６Ｆ,,13,103,1070062,,,,,,,2023-02-03,1,,,,,タイガー,0
1912,7010701043810,新規,0,2023-02-03,2023-02-03,ヴィアゲート株式会社,,株式会社,東京都,品川区,西五反田２丁目１０番８号,,13,109,1410031,,,,,,,2023-02-03,1,,,,,ヴィアゲート,0
1916,7010901052454,新規,0,2023-02-03,2023-02-03,株式会社ＴＯＯＮ　ＷＯＲＫ,,株式会社,東京都,世田谷区,等々力２丁目８番６号,,13,112,1580082,,,,,,,2023-02-03,1,,,,,トゥーンワーク,0
1917,7010901052462,新規,0,2023-02-03,2023-02-03,株式会社ウィル,,株式会社,東京都,世田谷区,給田３丁目３３番７号ウェルスクエア千歳烏山１０２号室,,13,112,1570064,,,,,,,2023-02-03,1,,,,,ウィル,0
1918,7010901052470,新規,0,2023-02-03,2023-02-03,株式会社ＦｒｅｅＬａｂｏ,,株式会社,東京都,世田谷区,砧７丁目５番３７号,,13,112,1570073,,,,,,,2023-02-03,1,,,,,フリーラボ,0
1926,7011001152343,新規,0,2023-02-03,2023-02-03,株式会社ＴｉｃｋＴａｃｋ,,株式会社,東京都,渋谷区,渋谷２丁目１９番１５号宮益坂ビルディング６０９,,13,113,1500002,,,,,,,2023-02-03,1,,,,,チックタック,0
1927,7011001152351,新規,0,2023-02-03,2023-02-03,株式会社ＧＮＢコンストラクショングループ,,株式会社,東京都,渋谷区,宇田川町３４番５号サイトービルＩＩＩ５階,00129318,13,113,1500042,,,,,,,2023-02-03,1,,,,,ジーエヌビーコンストラクショングループ,0
1928,7011001152368,新規,0,2023-02-03,2023-02-03,株式会社ＢＹＨＯＭＥ,,株式会社,東京都,渋谷区,千駄ヶ谷３丁目３５番４号－３０２,,13,113,1510051,,,,,,,2023-02-03,1,,,,,バイオム,0
1929,7011001152376,新規,0,2023-02-03,2023-02-03,株式会社ＢＭプライム,,株式会社,東京都,渋谷区,猿楽町２９番８号ヒルサイドテラスＥ－３２,,13,113,1500033,,,,,,,2023-02-03,1,,,,,ビーエムプライム,0
1932,7011101101720,新規,0,2023-02-03,2023-02-03,株式会社インフィニリンク,,株式会社,東京都,新宿区,舟町７－３６第２清水ビル２０３,,13,104,1600006,,,,,,,2023-02-03,1,,,,,インフィニリンク,0
1941,7011703003380,新規,0,2023-02-03,2023-02-03,合同会社アリガリート,,合同会社,東京都,江戸川区,一之江３丁目４番８号,,13,123,1320024,,,,,,,2023-02-03,1,,,,,アリガリート,0
1944,7012401040138,新規,0,2023-02-03,2023-02-03,国際連盟安全環境コンサルティング・ジャパン株式会社,,株式会社,東京都,小金井市,緑町４丁目１８－８,,13,210,1840003,,,,,,,2023-02-03,1,,,,,コクサイレンメイアンゼンカンキョウコンサルティングジャパン,0
1945,7012401040146,新規,0,2023-02-03,2023-02-03,株式会社ｋａｚａｈａｎａ,,株式会社,東京都,狛江市,猪方２丁目２６番２３号,,13,219,2010015,,,,,,,2023-02-03,1,,,,,カザハナ,0
1948,7012701017463,新規,0,2023-02-03,2023-02-03,株式会社らんらん企画,,株式会社,東京都,小平市,津田町３丁目３４番１０号,,13,211,1870025,,,,,,,2023-02-03,1,,,,,ランランキカク,0
1950,7012803002999,新規,0,2023-02-03,2023-02-03,合同会社かざま建創,,合同会社,東京都,武蔵村山市,三ツ木５丁目３４番地の３８,,13,223,2080032,,,,,,,2023-02-03,1,,,,,カザマケンソウ,0
1959,7020001150100,新規,0,2023-02-03,2023-02-03,株式会社ルクプラ,,株式会社,神奈川県,川崎市高津区,久地３丁目３番２１号,,14,134,2130032,,,,,,,2023-02-03,1,,,,,ルクプラ,0
1964,7020005015844,新規,0,2023-02-03,2023-02-03,クルーズ社会保険労務士法人,,その他の設立登記法人,神奈川県,横浜市港南区,港南中央通８番４１号,,14,111,2330004,,,,,,,2023-02-03,1,,,,,クルーズ,0
1969,7021001078133,新規,0,2023-02-03,2023-02-03,株式会社Ｔｊ　Ｗｏｒｋｓ,,株式会社,神奈川県,藤沢市,辻堂３丁目４番１０号,,14,205,2510047,,,,,,,2023-02-03,1,,,,,ティージェイワークス,0
1972,7021003012718,新規,0,2023-02-03,2023-02-03,合同会社オフィスＮＯＲＩ・ＲＩ,,合同会社,神奈川県,平塚市,宮松町５－５４,,14,203,2540036,,,,,,,2023-02-03,1,,,,,オフィスノリリ,0
1978,7030001152228,新規,0,2023-02-03,2023-02-03,株式会社颯建,,株式会社,埼玉県,草加市,松江２丁目１０番７号,,11,221,3400013,,,,,,,2023-02-03,1,,,,,ソウケン,0
1979,7030001152260,新規,0,2023-02-03,2023-02-03,株式会社フビト住建,,株式会社,埼玉県,川越市,大字寺尾２１９番地３８,,11,201,3501141,,,,,,,2023-02-03,1,,,,,フビトジュウケン,0
1981,7030003021091,新規,0,2023-02-03,2023-02-03,合同会社華音,,合同会社,埼玉県,越谷市,越ヶ谷３丁目３－１６，２階,,11,222,3430813,,,,,,,2023-02-03,1,,,,,カノン,0
1985,7040001126916,新規,0,2023-02-03,2023-02-03,Ｓｅｅｄ株式会社,,株式会社,千葉県,船橋市,前原東６丁目１４番３号,,12,204,2740824,,,,,,,2023-02-03,1,,,,,シード,0
1986,7040001126924,新規,0,2023-02-03,2023-02-03,株式会社ライスフィールド,,株式会社,千葉県,南房総市,千代１４２番地１,,12,234,2940815,,,,,,,2023-02-03,1,,,,,ライスフィールド,0
1987,7040001126949,新規,0,2023-02-03,2023-02-03,株式会社Ｒ９ＡＵＴＯ,,株式会社,千葉県,柏市,藤ケ谷新田８３番地２,,12,217,2770932,,,,,,,2023-02-03,1,,,,,アールナインオート,0
1988,7040001126973,新規,0,2023-02-03,2023-02-03,ＥＲＰ技研株式会社,,株式会社,千葉県,東金市,日吉台３丁目２６番地１５,,12,213,2830803,,,,,,,2023-02-03,1,,,,,イーアールピーギケン,0
1989,7040003021850,新規,0,2023-02-03,2023-02-03,合同会社三恵,,合同会社,千葉県,袖ケ浦市,奈良輪１丁目１－１７,,12,229,2990263,,,,,,,2023-02-03,1,,,,,サンケイ,0
1990,7040003021867,新規,0,2023-02-03,2023-02-03,合同会社ＡＫＩ,,合同会社,千葉県,千葉市花見川区,犢橋町１１２２番の１,,12,102,2620013,,,,,,,2023-02-03,1,,,,,エーケーアイ,0
1991,7050001052327,新規,0,2023-02-03,2023-02-03,株式会社Ｃ’ｇｅｎｅ,,株式会社,茨城県,牛久市,ひたち野東５丁目３番地７－３０３号,,08,219,3001207,,,,,,,2023-02-03,1,,,,,シージェネ,0
1993,7050005013201,新規,0,2023-02-03,2023-02-03,一般社団法人生活情報基盤研究機構,,その他の設立登記法人,茨城県,土浦市,富士崎１丁目９番２４号,,08,203,3000813,,,,,,,2023-02-03,1,,,,,セイカツジョウホウキバンケンキュウキコウ,0
1997,7060001035660,新規,0,2023-02-03,2023-02-03,ＧＹＡ　ＢＲＡＮＤ株式会社,,株式会社,栃木県,真岡市,大谷台町３９番地１６,,09,209,3214338,,,,,,,2023-02-03,1,,,,,ジーヤブランド,0
1998,7060001035669,新規,0,2023-02-03,2023-02-03,株式会社キリン設備,,株式会社,栃木県,芳賀郡益子町,大字益子９８９－１ヴィラマシコＫ,,09,342,3214217,,,,,,,2023-02-03,1,,,,,キリンセツビ,0
2001,7060003004399,新規,0,2023-02-03,2023-02-03,合同会社ジャナン塾,,合同会社,栃木県,宇都宮市,野沢町１４２－２２,,09,201,3200071,,,,,,,2023-02-03,1,,,,,ジャナンジュク,0
2002,7060005010049,新規,0,2023-02-03,2023-02-03,一般社団法人栃木県水泳連盟,,その他の設立登記法人,栃木県,宇都宮市,西刑部町３番地,,09,201,3210917,,,,,,,2023-02-03,1,,,,,トチギケンスイエイレンメイ,0
2007,7070003004811,新規,0,2023-02-03,2023-02-03,日本リトルバード合同会社,,合同会社,群馬県,桐生市,新里町板橋３２８番地６,,10,203,3760136,,,,,,,2023-02-03,1,,,,,ニホンリトルバード,0
2013,7080101023778,新規,0,2023-02-03,2023-02-03,ｌｉｆｉｘ株式会社,,株式会社,静岡県,駿東郡清水町,長沢７９６番地の２,,22,341,4110905,,,,,,,2023-02-03,1,,,,,リフィックス,0
2015,7080401026299,新規,0,2023-02-03,2023-02-03,株式会社トゥーズカスタム,,株式会社,静岡県,浜松市西区,古人見町３０２０番地,,22,133,4311113,,,,,,,2023-02-03,1,,,,,トゥーズカスタム,0
2019,7110001037271,新規,0,2023-02-03,2023-02-03,株式会社井沢塗装,,株式会社,新潟県,十日町市,四日町１６１７番地２,,15,210,9480006,,,,,,,2023-02-03,1,,,,,イザワトソウ,0
2034,7120001252217,新規,0,2023-02-03,2023-02-03,よっしゃ株式会社,,株式会社,大阪府,大阪市西区,江戸堀３丁目６番４１－５０１号,,27,106,5500002,,,,,,,2023-02-03,1,,,,,ヨッシャ,0
2038,7120003023392,新規,0,2023-02-03,2023-02-03,合同会社ブルーパレット,,合同会社,大阪府,大阪市北区,梅田１丁目２番２号大阪駅前第２ビル１２‐１２,,27,127,5300001,,,,,,,2023-02-03,1,,,,,ブルーパレット,0
2039,7120005023449,新規,0,2023-02-03,2023-02-03,医療法人蒼優会,,その他の設立登記法人,大阪府,大阪市東淀川区,西淡路１丁目１番３５号,,27,114,5330031,,,,,,,2023-02-03,1,,,,,ソウユウカイ,0
2040,7120005023457,新規,0,2023-02-03,2023-02-03,一般社団法人サポート・シップ関西,,その他の設立登記法人,大阪府,大阪市北区,豊崎５丁目７番１５号,,27,127,5310072,,,,,,,2023-02-03,1,,,,,サポートシップカンサイ,0
2044,7120103005068,新規,0,2023-02-03,2023-02-03,合同会社ＳＳ,,合同会社,大阪府,堺市堺区,浅香山町３丁１２―１０,,27,141,5900012,,,,,,,2023-02-03,1,,,,,エスエス,0
2046,7120901047071,新規,0,2023-02-03,2023-02-03,株式会社天,,株式会社,大阪府,摂津市,鳥飼本町１丁目７番５４号前川倉庫１号,,27,224,5660052,,,,,,,2023-02-03,1,,,,,テン,0
2054,7130001073439,新規,0,2023-02-03,2023-02-03,京都経営パートナーズ株式会社,,株式会社,京都府,京都市上京区,東西俵屋町１４４番地アトリエ４号,,26,102,6028294,,,,,,,2023-02-03,1,,,,,キョウトケイエイパートナーズ,0
2055,7130001073612,新規,0,2023-02-03,2023-02-03,株式会社ラフキャリ,,株式会社,京都府,京都市北区,紫野上御輿町３９番地１,,26,101,6038236,,,,,,,2023-02-03,1,,,,,ラフキャリ,0
2056,7130001073620,新規,0,2023-02-03,2023-02-03,株式会社ＣＴＲ総研,,株式会社,京都府,京都市中京区,西ノ京星池町１７５英進ビル１Ｆ,,26,104,6048416,,,,,,,2023-02-03,1,,,,,シーティーアールソウケン,0
2057,7130001073629,新規,0,2023-02-03,2023-02-03,株式会社ｙｏｋｏｙａｍａ,,株式会社,京都府,京都市左京区,大原上野町５００－４,,26,103,6011244,,,,,,,2023-02-03,1,,,,,ヨコヤマ,0
2058,7130001073637,新規,0,2023-02-03,2023-02-03,株式会社松永,,株式会社,京都府,京都市西京区,大原野西境谷町１丁目７番地１３,,26,111,6101146,,,,,,,2023-02-03,1,,,,,マツナガ,0
2060,7130003008500,新規,0,2023-02-03,2023-02-03,合同会社ＷＡＯＭＯ,,合同会社,京都府,京都市左京区,岩倉中町３３８番地,,26,103,6060025,,,,,,,2023-02-03,1,,,,,ワオモ,0
2061,7130003008509,新規,0,2023-02-03,2023-02-03,合同会社ＳＨＵＪＵ,,合同会社,京都府,京都市左京区,吉田橘町３４,,26,103,6068303,,,,,,,2023-02-03,1,,,,,シュウジュウ,0
2069,7140001129025,新規,0,2023-02-03,2023-02-03,株式会社プレマシ,,株式会社,兵庫県,丹波市,氷上町市辺８２３番地,,28,223,6693461,,,,,,,2023-02-03,1,,,,,プレマシ,0
2073,7140003018688,新規,0,2023-02-03,2023-02-03,コンベックス・アプリケーションズ合同会社,,合同会社,兵庫県,伊丹市,中央１丁目５番５号ボントンビル４階,,28,207,6640851,,,,,,,2023-02-03,1,,,,,コンベックスアプリケーションズ,0
2074,7140005026474,新規,0,2023-02-03,2023-02-03,一般社団法人さくらひがし木もれ日のぬくもり,,その他の設立登記法人,兵庫県,姫路市,宮上町１丁目１９２番地,,28,201,6700823,,,,,,,2023-02-03,1,,,,,サクラヒガシコモレビノヌクモリ,0
2075,7160001024802,新規,0,2023-02-03,2023-02-03,株式会社敷島,,株式会社,滋賀県,東近江市,東沖野５丁目２２番３号,,25,213,5270033,,,,,,,2023-02-03,1,,,,,シキシマ,0
2081,7180001154820,新規,0,2023-02-03,2023-02-03,ＳＫ株式会社,,株式会社,愛知県,名古屋市中区,新栄３丁目５番１５号,,23,106,4600007,,,,,,,2023-02-03,1,,,,,エスケー,0
2082,7180001154829,新規,0,2023-02-03,2023-02-03,前田工芸株式会社,,株式会社,愛知県,名古屋市昭和区,村雲町１０番１０号,,23,107,4660052,,,,,,,2023-02-03,1,,,,,マエダコウゲイ,0
2088,7180003024807,新規,0,2023-02-03,2023-02-03,合同会社自己革新ドットコム,,合同会社,愛知県,瀬戸市,赤重町３８番地の１５,,23,204,4890878,,,,,,,2023-02-03,1,,,,,ジコカクシンドットコム,0
2092,7180301037056,新規,0,2023-02-03,2023-02-03,シンシンワークス株式会社,,株式会社,愛知県,豊川市,八幡町大池４３番地の８,,23,207,4420857,,,,,,,2023-02-03,1,,,,,シンシンワークス,0
2093,7180303005572,新規,0,2023-02-03,2023-02-03,ＳＥＧＯＶＡ合同会社,,合同会社,愛知県,碧南市,若宮町２丁目８１番地,,23,209,4470818,,,,,,,2023-02-03,1,,,,,セゴヴァ,0
2096,7190001030153,新規,0,2023-02-03,2023-02-03,株式会社ぶんてん,,株式会社,三重県,津市,白山町南家城５９７－３,,24,201,5153133,,,,,,,2023-02-03,1,,,,,ブンテン,0
2101,7200001040919,新規,0,2023-02-03,2023-02-03,株式会社ＨＳ,,株式会社,岐阜県,多治見市,小名田町小滝５番地の２５９,,21,204,5070001,,,,,,,2023-02-03,1,,,,,エイチエス,0
2102,7200001040927,新規,0,2023-02-03,2023-02-03,株式会社ファストライズ,,株式会社,岐阜県,岐阜市,一日市場４５４番地１,,21,201,5010103,,,,,,,2023-02-03,1,,,,,ファストライズ,0
2103,7200001040935,新規,0,2023-02-03,2023-02-03,株式会社ビエル,,株式会社,岐阜県,瑞穂市,馬場上光町１丁目９０番地,,21,216,5010203,,,,,,,2023-02-03,1,,,,,ビエル,0
2107,7210001019227,新規,0,2023-02-03,2023-02-03,株式会社松建,,株式会社,福井県,吉田郡永平寺町,轟第１８号２３番地,,18,322,9101218,,,,,,,2023-02-03,1,,,,,マツケン,0
2108,7220001025257,新規,0,2023-02-03,2023-02-03,Ｔ２ｎｄ株式会社,,株式会社,石川県,金沢市,森山１丁目２番１号２１７,,17,201,9200843,,,,,,,2023-02-03,1,,,,,ティーセカンド,0
2110,7220003003442,新規,0,2023-02-03,2023-02-03,合同会社あめや猫橋,,合同会社,石川県,小松市,飴屋町１５番地４,00129314,17,203,9230922,,,,,,,2023-02-03,1,,,,,アメヤネコバシ,0
2112,7240001061028,新規,0,2023-02-03,2023-02-03,ハイカラエフェクト株式会社,,株式会社,広島県,広島市西区,観音新町３丁目９番５１－５－６０８号,,34,104,7330036,,,,,,,2023-02-03,1,,,,,ハイカラエフェクト,0
2113,7240001061036,新規,0,2023-02-03,2023-02-03,株式会社フェーズ・ワン,,株式会社,広島県,東広島市,福富町久芳１３９３番地１,,34,212,7392303,,,,,,,2023-02-03,1,,,,,フェーズワン,0
2114,7240001061060,新規,0,2023-02-03,2023-02-03,株式会社洸装,,株式会社,広島県,広島市安佐北区,真亀５丁目１３番１９号,,34,106,7391741,,,,,,,2023-02-03,1,,,,,ヒロソウ,0
2118,7250003003217,新規,0,2023-02-03,2023-02-03,合同会社エムアンドエス,,合同会社,山口県,防府市,大字台道４２３番地の２０,,35,206,7471232,,,,,,,2023-02-03,1,,,,,エムアンドエス,0
2120,7260001037620,新規,0,2023-02-03,2023-02-03,株式会社てけてけ,,株式会社,岡山県,倉敷市,玉島柏島５４３８番地１,,33,202,7138123,,,,,,,2023-02-03,1,,,,,テケテケ,0
2121,7260001037629,新規,0,2023-02-03,2023-02-03,株式会社國定建設,,株式会社,岡山県,岡山市南区,藤田７９番地,,33,104,7010221,,,,,,,2023-02-03,1,,,,,クニサダケンセツ,0
2122,7260005011191,新規,0,2023-02-03,2023-02-03,一般社団法人笠岡諸島保存会,,その他の設立登記法人,岡山県,笠岡市,笠岡２４３５番地２,,33,205,7140081,,,,,,,2023-02-03,1,,,,,カサオカショトウホゾンカイ,0
2124,7290001100425,新規,0,2023-02-03,2023-02-03,株式会社ＣＥＲＥＺＯ,,株式会社,福岡県,福岡市南区,弥永３丁目１４番１９‐１０２号弥永第９レジデンス江崎弐番館,,40,134,8111323,,,,,,,2023-02-03,1,,,,,セレッソ,0
2125,7290001100433,新規,0,2023-02-03,2023-02-03,株式会社やかべ,,株式会社,福岡県,小郡市,大板井１３９９番地１,,40,216,8380142,,,,,,,2023-02-03,1,,,,,ヤカベ,0
2126,7290001100458,新規,0,2023-02-03,2023-02-03,株式会社ベアホーム,,株式会社,福岡県,久留米市,野中町１０５２番地１,,40,203,8390862,,,,,,,2023-02-03,1,,,,,ベアホーム,0
2127,7290001100482,新規,0,2023-02-03,2023-02-03,石川電熱工業株式会社,,株式会社,福岡県,福岡市東区,香住ヶ丘３丁目１９－３Ｃ号室,,40,131,8130003,,,,,,,2023-02-03,1,,,,,イシカワデンネツコウギョウ,0
2133,7290801029252,新規,0,2023-02-03,2023-02-03,ビルアーク株式会社,,株式会社,福岡県,北九州市小倉南区,津田新町３丁目１５番７－１０５号室,,40,107,8000227,,,,,,,2023-02-03,1,,,,,ビルアーク,0
2134,7290801029260,新規,0,2023-02-03,2023-02-03,株式会社坂本物産,,株式会社,福岡県,北九州市小倉北区,木町１丁目４番３０－７０５号,,40,106,8030851,,,,,,,2023-02-03,1,,,,,サカモトブッサン,0
2137,7310001018251,新規,0,2023-02-03,2023-02-03,株式会社梶原商店,,株式会社,長崎県,佐世保市,吉井町立石３４番地１０,,42,202,8596326,,,,,,,2023-02-03,1,,,,,カジワラショウテン,0
2140,7330003009692,新規,0,2023-02-03,2023-02-03,合同会社聖翔,,合同会社,熊本県,玉名郡和水町,瀬川３６５０,,43,369,8650135,,,,,,,2023-02-03,1,,,,,セイショウ,0
2141,7330003009701,新規,0,2023-02-03,2023-02-03,合同会社訪問介護事業所さゆり,,合同会社,熊本県,熊本市南区,幸田１丁目６番１０号,,43,104,8614108,,,,,,,2023-02-03,1,,,,,ホウモンカイゴジギョウショサユリ,0
2142,7340001025352,新規,0,2023-02-03,2023-02-03,有島工業株式会社,,株式会社,鹿児島県,薩摩川内市,隈之城町１８６４番地,,46,215,8950041,,,,,,,2023-02-03,1,,,,,アリシマコウギョウ,0
2145,7350001018165,新規,0,2023-02-03,2023-02-03,株式会社Ｌ．Ｏ．Ｙ,,株式会社,宮崎県,宮崎市,丸山２丁目６９番地ＡＫＨＭ３０１号,,45,201,8800052,,,,,,,2023-02-03,1,,,,,ロイ,0
2146,7350001018173,新規,0,2023-02-03,2023-02-03,株式会社黒木工務店,,株式会社,宮崎県,宮崎市,大字赤江１５番地７,,45,201,8800912,,,,,,,2023-02-03,1,,,,,クロキコウムテン,0
2147,7360001031514,新規,0,2023-02-03,2023-02-03,株式会社ＡＹＵＳ,,株式会社,沖縄県,那覇市,西２丁目１６番３号屋島組ビル２Ｆ,,47,201,9000036,,,,,,,2023-02-03,1,,,,,アユス,0
2150,7370003005977,新規,0,2023-02-03,2023-02-03,合同会社ココロオドル,,合同会社,宮城県,石巻市,元倉１丁目１８番２０号,,04,202,9860811,,,,,,,2023-02-03,1,,,,,ココロオドル,0
2158,7410003003753,新規,0,2023-02-03,2023-02-03,合同会社ダイマル,,合同会社,秋田県,由利本荘市,吉沢字吉沢前田１番地１,,05,210,0150324,,,,,,,2023-02-03,1,,,,,ダイマル,0
2159,7420001018141,新規,0,2023-02-03,2023-02-03,株式会社澤居総建,,株式会社,青森県,三沢市,春日台４丁目１５４番地７９９号,,02,207,0330053,,,,,,,2023-02-03,1,,,,,サワイソウケン,0
2164,7430001088290,新規,0,2023-02-03,2023-02-03,ｆａｒｍかくた村株式会社,,株式会社,北海道,夕張郡栗山町,角田１０－１,,01,429,0691524,,,,,,,2023-02-03,1,,,,,ファームカクタムラ,0
2165,7430001088357,新規,0,2023-02-03,2023-02-03,株式会社おおはた,,株式会社,北海道,札幌市中央区,南三条東２丁目１番地パシフィック南３条１３０９号,,01,101,0600053,,,,,,,2023-02-03,1,,,,,オオハタ,0
2166,7430001088373,新規,0,2023-02-03,2023-02-03,ムスビノ株式会社,,株式会社,北海道,札幌市東区,北三十七条東２２丁目８番１－８０３号,,01,103,0070837,,,,,,,2023-02-03,1,,,,,ムスビノ,0
2169,7470001019449,新規,0,2023-02-03,2023-02-03,株式会社ＪＰＤ,,株式会社,香川県,高松市,仏生山町甲１４７番地３,,37,201,7618078,,,,,,,2023-02-03,1,,,,,ジェイピーディ,0
2170,7470001019457,新規,0,2023-02-03,2023-02-03,こだまるＴＳ株式会社,,株式会社,香川県,高松市,勅使町１２１９番地２,,37,201,7618058,,,,,,,2023-02-03,1,,,,,コダマルティエス,0
2174,7500001024742,新規,0,2023-02-03,2023-02-03,株式会社アルトー映像事務所,,株式会社,愛媛県,松山市,西石井６丁目７番１５―２号,,38,201,7900931,,,,,,,2023-02-03,1,,,,,アルトーエイゾウジムショ,0
2176,7500003002969,新規,0,2023-02-03,2023-02-03,合同会社グリーンエネルギー,,合同会社,愛媛県,大洲市,八多喜町乙１１１１番地１０,,38,207,7950041,,,,,,,2023-02-03,1,,,,,グリーンエネルギー,0
2177,7700150014061,新規,0,2023-02-03,2015-10-09,江の島振興連絡協議会,,その他,神奈川県,藤沢市,江の島１丁目３－２,,14,205,2510036,,,,,,,2015-10-09,1,,,,,エノシマシンコウレンラクキヨウギカイ,0
2180,7700150113929,新規,0,2023-02-03,2023-01-24,新潟県立六日町高等学校同窓会,,その他,新潟県,南魚沼市,余川１３８０－２,,15,226,9496681,,,,,,,2023-01-24,1,,,,,ニイガタケンリツムイカマチコウトウガツコウドウソウカイ,0
2181,7700150114183,新規,0,2023-02-03,2023-02-03,Ｍｕｒａｔａ＆Ｃｏｍｐａｎｙ　ＬＬＣ,,外国会社等,千葉県,柏市,北柏３丁目１３番１８,,12,217,2770832,アメリカ合衆国ニューヨーク州ニューヨーク、イースト、６６ストリート、２６５,,,,,,2023-02-03,1,,,,,ムラタエンドカンパニーエルエルシー,0
2182,7700150114191,新規,0,2023-02-03,2023-02-03,ｓｈｅｎｚｈｅｎｓｈｉ　ｙｏｎｇａｎｃｕｎ　ｋｅｊｉ　ｙｏｕｘｉａｎｇｏｎｇｓｉ,,外国会社等,,,,,,,,ｓｈｅｎｚｈｅｎｓｈｉ　ｌｏｎｇｈｕａｑｕ　ｌｏｎｇｈｕａｊｉｅｄａｏ　ｊｉｎｇｌｏｎｇｓｈｅｑｕ，ｈｅｐｉｎｇｌｕｎａｎｃｅ　ｚｈｅｎｂａｏｇｏｎｇｙｅｑｕＦｄｏｎｇ３０２（ｓａｎｌｏｕＢｑｕ），Ｃｈｉｎａ,,,,,,2023-02-03,1,,,,,シンセンシエイアンソンカギユウゲンコウシ,0
2183,7700150114200,新規,0,2023-02-03,2023-02-03,株式会社　ＷＩＪＡＹＡ　ＢＩＮＴＡＮＧ　ＲＡＹＡ,,外国会社等,東京都,台東区,雷門１丁目９－４安田即売ビル３０２号室,,13,106,1110034,インドネシア共和国ジャカルタ首都特別州南ジャカルタ市ペルマタ・ヒジャウ通ＪＬ．レジェン・ソエポエノＳＡ－１０６ベレザＢＳＡタワー１階,,,,,,2023-02-03,1,,,,,カブシキカイシヤウイジヤヤヴインタンラヤ,0
2193,8010003039754,新規,0,2023-02-03,2023-02-03,合同会社ＪＫＳ２０２３,,合同会社,東京都,千代田区,麹町１丁目６番地９,,13,101,1020083,,,,,,,2023-02-03,1,,,,,ジェイエスケイニイゼロニイサン,0
2195,8010005036213,新規,0,2023-02-03,2023-02-03,松伏ロジ一般社団法人,,その他の設立登記法人,東京都,千代田区,丸の内３丁目１番１号東京共同会計事務所内,,13,101,1000005,,,,,,,2023-02-03,1,,,,,マツブシロジ,0
2208,8010401172231,新規,0,2023-02-03,2023-02-03,株式会社ＰＩＴＯ,,株式会社,東京都,港区,南青山３丁目１番３６号青山丸竹ビル６Ｆ,,13,103,1070062,,,,,,,2023-02-03,1,,,,,ピト,0
2209,8010401172297,新規,0,2023-02-03,2023-02-03,株式会社ａｍ,,株式会社,東京都,港区,南青山３丁目１３番９号４階,,13,103,1070062,,,,,,,2023-02-03,1,,,,,アム,0
2212,8010403029446,新規,0,2023-02-03,2023-02-03,合同会社ＭｅｄｉｃａｌＱｕａｎｔｓ,,合同会社,東京都,港区,港南２丁目１６番７－２２０５号,,13,103,1080075,,,,,,,2023-02-03,1,,,,,メディカルクオンツ,0
2213,8010403029462,新規,0,2023-02-03,2023-02-03,合同会社Ｒｅｆｌｅｔ,,合同会社,東京都,港区,南青山３丁目１番３６号,,13,103,1070062,,,,,,,2023-02-03,1,,,,,ルフレ,0
2216,8010503006873,新規,0,2023-02-03,2023-02-03,合同会社半田酒店,,合同会社,東京都,台東区,下谷２丁目１２番３号,,13,106,1100004,,,,,,,2023-02-03,1,,,,,ハンダサケテン,0
2217,8010601062554,新規,0,2023-02-03,2023-02-03,株式会社ｍｅｎｕｘ,,株式会社,東京都,江東区,白河２丁目１４番７号インゲン３０２,,13,108,1350021,,,,,,,2023-02-03,1,,,,,メニューエックス,0
2223,8010701043801,新規,0,2023-02-03,2023-02-03,株式会社ＴＳＵＢＡＭＥ,,株式会社,東京都,品川区,旗の台３丁目１４番６号スノーミヤビル１０１,,13,109,1420064,,,,,,,2023-02-03,1,,,,,ツバメ,0
2224,8010701043818,新規,0,2023-02-03,2023-02-03,株式会社プラン＆ライフ,,株式会社,東京都,品川区,中延５丁目１１番１０号,,13,109,1420053,,,,,,,2023-02-03,1,,,,,プランアンドライフ,0
2226,8010703006574,新規,0,2023-02-03,2023-02-03,合同会社ｅｓｐｏｉｒ,,合同会社,東京都,品川区,北品川５丁目３番１－１８２１号,,13,109,1410001,,,,,,,2023-02-03,1,,,,,エスポワール,0
2228,8010801033652,新規,0,2023-02-03,2023-02-03,株式会社Ｂｅｅｋｌｅ,,株式会社,東京都,大田区,池上３丁目７番９－３０４号,,13,111,1460082,,,,,,,2023-02-03,1,,,,,ビークル,0
2234,8010903007950,新規,0,2023-02-03,2023-02-03,ＮＡＫＥＤ　ＦＡＣＴ合同会社,,合同会社,東京都,世田谷区,野沢４丁目９番１７号,,13,112,1540003,,,,,,,2023-02-03,1,,,,,ネイキッドファクト,0
2236,8011001152359,新規,0,2023-02-03,2023-02-03,株式会社ｖｉｌ　ｔｏｋｙｏ,,株式会社,東京都,渋谷区,道玄坂１丁目１０番８号渋谷道玄坂東急ビル２Ｆ－Ｃ,,13,113,1500043,,,,,,,2023-02-03,1,,,,,ヴィルトウキョウ,0
2237,8011001152367,新規,0,2023-02-03,2023-02-03,株式会社ＦＤＢ,,株式会社,東京都,渋谷区,恵比寿２丁目２５番１９号,,13,113,1500013,,,,,,,2023-02-03,1,,,,,エフディービー,0
2245,8011101101711,新規,0,2023-02-03,2023-02-03,株式会社ＶＧｌａｂ,,株式会社,東京都,新宿区,西新宿４丁目４番１号メゾン前田４０１,,13,104,1600023,,,,,,,2023-02-03,1,,,,,ブイグラブ,0
2250,8011301028432,新規,0,2023-02-03,2023-02-03,Ｇｒｅｅｎｅｒｙ　Ｊａｐａｎ株式会社,,株式会社,東京都,杉並区,堀ノ内３丁目６番１３号,,13,115,1660013,,,,,,,2023-02-03,1,,,,,グリーナリィジャパン,0
2256,8011401024876,新規,0,2023-02-03,2023-02-03,株式会社ＮＥＸＵＳ,,株式会社,東京都,板橋区,常盤台４丁目２０番４号岡崎ビル１０３,,13,119,1740071,,,,,,,2023-02-03,1,,,,,ネクサス,0
2258,8011701025987,新規,0,2023-02-03,2023-02-03,株式会社アイシンク,,株式会社,東京都,江戸川区,中葛西５丁目１番２号２階,,13,123,1340083,,,,,,,2023-02-03,1,,,,,アイシンク,0
2261,8012401040137,新規,0,2023-02-03,2023-02-03,株式会社アベ・サプライ,,株式会社,東京都,稲城市,若葉台１丁目１２番地の５,,13,225,2060824,,,,,,,2023-02-03,1,,,,,アベサプライ,0
2262,8012401040145,新規,0,2023-02-03,2023-02-03,株式会社ＫＡＷＡＮＡ建工,,株式会社,東京都,狛江市,駒井町２丁目１１番２０号,,13,219,2010016,,,,,,,2023-02-03,1,,,,,カワナケンコウ,0
2267,8012801022131,新規,0,2023-02-03,2023-02-03,タチカワＫ貨物株式会社,,株式会社,東京都,東大和市,芋窪５丁目１１５８番地の２,,13,220,2070033,,,,,,,2023-02-03,1,,,,,タチカワケーカモツ,0
2270,8012803002998,新規,0,2023-02-03,2023-02-03,合同会社平野工業,,合同会社,東京都,武蔵村山市,大南２丁目７７番地の４,,13,223,2080013,,,,,,,2023-02-03,1,,,,,ヒラノコウギョウ,0
2271,8013101009109,新規,0,2023-02-03,2023-02-03,ザナドゥ株式会社,,株式会社,東京都,あきる野市,野辺５８３番地４,,13,228,1970823,,,,,,,2023-02-03,1,,,,,ザナドゥ,0
2274,8013303006465,新規,0,2023-02-03,2023-02-03,大森合同会社,,合同会社,東京都,豊島区,池袋１丁目１２番７号,,13,116,1700014,,,,,,,2023-02-03,1,,,,,オオモリ,0
2280,8020001150090,新規,0,2023-02-03,2023-02-03,モンティハブ株式会社,,株式会社,神奈川県,横浜市神奈川区,平川町２２番地５,,14,102,2210812,,,,,,,2023-02-03,1,,,,,モンティハブ,0
2281,8020001150099,新規,0,2023-02-03,2023-02-03,株式会社ＲＤＣ,,株式会社,神奈川県,横浜市港北区,日吉本町２丁目４３番１７号,,14,109,2230062,,,,,,,2023-02-03,1,,,,,アールディーシー,0
2282,8020001150124,新規,0,2023-02-03,2023-02-03,Ｂａｆｆｙ株式会社,,株式会社,神奈川県,川崎市多摩区,長尾６丁目９番３号,,14,135,2140023,,,,,,,2023-02-03,1,,,,,バフィー,0
2285,8021001078140,新規,0,2023-02-03,2023-02-03,株式会社ｆｕｊｉｋａｇｅ,,株式会社,神奈川県,藤沢市,本町４丁目６番１０～４号,,14,205,2510053,,,,,,,2023-02-03,1,,,,,フジカゲ,0
2287,8021003012717,新規,0,2023-02-03,2023-02-03,ふぁそら合同会社,,合同会社,神奈川県,茅ヶ崎市,共恵１丁目１－５－３Ｆコープレイス茅ヶ崎,,14,207,2530056,,,,,,,2023-02-03,1,,,,,ファソラ,0
2291,8030001152243,新規,0,2023-02-03,2023-02-03,ファースト・フルーツ・ファーム株式会社,,株式会社,埼玉県,所沢市,松が丘１丁目１１番地の１５,,11,208,3591132,,,,,,,2023-02-03,1,,,,,ファーストフルーツファーム,0
2297,8040001126898,新規,0,2023-02-03,2023-02-03,株式会社Ｔｒｅａｓｕｒｅ,,株式会社,千葉県,千葉市中央区,赤井町７６８番地１７４,,12,101,2600804,,,,,,,2023-02-03,1,,,,,トレジャー,0
2298,8040001126907,新規,0,2023-02-03,2023-02-03,株式会社ネクストワン,,株式会社,千葉県,茂原市,押日２９９番地１,,12,210,2970075,,,,,,,2023-02-03,1,,,,,ネクストワン,0
2299,8040001126915,新規,0,2023-02-03,2023-02-03,株式会社ＵＫＣ,,株式会社,千葉県,市原市,西五所２９番地４ドロール２０２,,12,219,2900065,,,,,,,2023-02-03,1,,,,,ユーケーシー,0
2300,8040001126948,新規,0,2023-02-03,2023-02-03,ＳｅｖｅｎＰｌａｎ株式会社,,株式会社,千葉県,船橋市,前原東６丁目６番２１号,,12,204,2740824,,,,,,,2023-02-03,1,,,,,セブンプラン,0
2301,8040001126964,新規,0,2023-02-03,2023-02-03,株式会社エイト,,株式会社,千葉県,市原市,島野２０３１番地,,12,219,2900034,,,,,,,2023-02-03,1,,,,,エイト,0
2306,8040003021841,新規,0,2023-02-03,2023-02-03,合同会社リブウェル,,合同会社,千葉県,印西市,滝野２丁目１３番８号,,12,231,2702329,,,,,,,2023-02-03,1,,,,,リブウェル,0
2308,8050001052350,新規,0,2023-02-03,2023-02-03,株式会社ＡＩＯ,,株式会社,茨城県,神栖市,堀割２丁目１番５号,,08,232,3140135,,,,,,,2023-02-03,1,,,,,アイオ,0
2311,8060003004398,新規,0,2023-02-03,2023-02-03,ＳＡＤＡ合同会社,,合同会社,栃木県,宇都宮市,五代３丁目２－６ドミールＡ棟１０２,,09,201,3210135,,,,,,,2023-02-03,1,,,,,サダ,0
2312,8060005010048,新規,0,2023-02-03,2023-02-03,ハロー行政書士法人,,その他の設立登記法人,栃木県,宇都宮市,材木町４番１号矢口ビル１Ｆ,,09,201,3200042,,,,,,,2023-02-03,1,,,,,ハロー,0
2314,8070001040089,新規,0,2023-02-03,2023-02-03,株式会社Ｆｒｅｅ‐Ｄｏｍ,,株式会社,群馬県,佐波郡玉村町,大字樋越３７６番地７,00129315,10,464,3701103,,,,,,,2023-02-03,1,,,,,フリーダム,0
2317,8080101023785,新規,0,2023-02-03,2023-02-03,株式会社マサル設備工業,,株式会社,静岡県,裾野市,石脇４０２番地,,22,220,4101117,,,,,,,2023-02-03,1,,,,,マサルセツビコウギョウ,0
2319,8090001017960,新規,0,2023-02-03,2023-02-03,株式会社ＣＶ山梨,,株式会社,山梨県,中央市,下三條６５１番地１,,19,214,4093822,,,,,,,2023-02-03,1,,,,,シーヴィヤマナシ,0
2323,8110001037270,新規,0,2023-02-03,2023-02-03,株式会社紀之介,,株式会社,新潟県,中魚沼郡津南町,大字中深見乙２１４２番地,,15,482,9498311,,,,,,,2023-02-03,1,,,,,キノスケ,0
2324,8110001037279,新規,0,2023-02-03,2023-02-03,株式会社ＲＡＪ　ＴＲＡＤＩＮＧ,,株式会社,新潟県,新潟市北区,太郎代２６３６番地２,,15,101,9503101,,,,,,,2023-02-03,1,,,,,ラジトレーディング,0
2335,8120001252232,新規,0,2023-02-03,2023-02-03,株式会社翼瓦工事,,株式会社,大阪府,大阪市東住吉区,湯里６丁目１４番２９号,,27,121,5460013,,,,,,,2023-02-03,1,,,,,ツバサカワラコウジ,0
2336,8120001252240,新規,0,2023-02-03,2023-02-03,株式会社Ｒｔコンサルタント,,株式会社,大阪府,大阪市西区,京町堀１丁目４番９号京町橋八千代ビル５階,,27,106,5500003,,,,,,,2023-02-03,1,,,,,アールティコンサルタント,0
2337,8120001252281,新規,0,2023-02-03,2023-02-03,株式会社ＬＥＸ,,株式会社,大阪府,大阪市中央区,東心斎橋２丁目３番２２号玉八ビル１階１Ａ号室,,27,128,5420083,,,,,,,2023-02-03,1,,,,,レックス,0
2343,8120005023448,新規,0,2023-02-03,2023-02-03,弁理士法人インテリクス国際特許事務所,,その他の設立登記法人,大阪府,大阪市淀川区,西中島５丁目９番８号,,27,123,5320011,,,,,,,2023-02-03,1,,,,,インテリクス,0
2350,8120101066945,新規,0,2023-02-03,2023-02-03,株式会社２Ｕコンサルティング,,株式会社,大阪府,羽曳野市,南恵我之荘１丁目３番２４号,,27,222,5830885,,,,,,,2023-02-03,1,,,,,トゥーユーコンサルティング,0
2352,8120103005067,新規,0,2023-02-03,2023-02-03,合同会社ＴＥＡＭ　Ｍ＆Ｔ,,合同会社,大阪府,富田林市,東板持町３丁目２８番６号,,27,214,5840046,,,,,,,2023-02-03,1,,,,,チームエムアンドティー,0
2353,8120105009685,新規,0,2023-02-03,2023-02-03,一般社団法人旅のさき,,その他の設立登記法人,大阪府,貝塚市,水間２５９,,27,208,5970104,,,,,,,2023-02-03,1,,,,,タビノサキ,0
2355,8120901047070,新規,0,2023-02-03,2023-02-03,和み不動産株式会社,,株式会社,大阪府,吹田市,津雲台５丁目１８番３０－２２２号,,27,205,5650862,,,,,,,2023-02-03,1,,,,,ナゴミフドウサン,0
2357,8122001036664,新規,0,2023-02-03,2023-02-03,株式会社新日本コンシェルジュ,,株式会社,大阪府,八尾市,竹渕西１丁目１１５番地の１５,,27,212,5810051,,,,,,,2023-02-03,1,,,,,シンニホンコンシェルジュ,0
2358,8122003002508,新規,0,2023-02-03,2023-02-03,合同会社常善サービス,,合同会社,大阪府,八尾市,天王寺屋３丁目８４番地の２レックスプラザ八尾志紀８０３号,,27,212,5810025,,,,,,,2023-02-03,1,,,,,ツネヨシサービス,0
2364,8130001073628,新規,0,2023-02-03,2023-02-03,ＳＹＮＤＥＦＥＮＳＥ株式会社,,株式会社,京都府,京都市右京区,嵯峨観空寺明水町５９番地,,26,108,6168443,,,,,,,2023-02-03,1,,,,,シンディフェンス,0
2365,8130001073644,新規,0,2023-02-03,2023-02-03,株式会社ＮＥＣＯ　Ｗｏｒｋｓ,,株式会社,京都府,京都市伏見区,車町２９１番地サクシード伏見車町２ｎｄ２０４号,,26,109,6128365,,,,,,,2023-02-03,1,,,,,エヌイーシーオーワークス,0
2372,8140001128942,新規,0,2023-02-03,2023-02-03,株式会社Ｍｕｃｏ,,株式会社,兵庫県,伊丹市,野間３丁目８番７号,,28,207,6640873,,,,,,,2023-02-03,1,,,,,,0
2373,8140001128959,新規,0,2023-02-03,2023-02-03,株式会社プロテクト,,株式会社,兵庫県,神戸市垂水区,塩屋台３丁目９番７号,,28,108,6550864,,,,,,,2023-02-03,1,,,,,プロテクト,0
2374,8140001129024,新規,0,2023-02-03,2023-02-03,株式会社キズナコーポレーション,,株式会社,兵庫県,川西市,多田桜木２丁目１－３２－２０２,,28,217,6660124,,,,,,,2023-02-03,1,,,,,キズナコーポレーション,0
2375,8140001129049,新規,0,2023-02-03,2023-02-03,ＣＮ　ＴＲＡＤＩＮＧ株式会社,,株式会社,兵庫県,神戸市北区,東大池１丁目１９番１８号,,28,109,6511333,,,,,,,2023-02-03,1,,,,,,0
2381,8140003018670,新規,0,2023-02-03,2023-02-03,合同会社Ｅｎｏｓｈ　ｓｕｐｐｏｒｔ,,合同会社,兵庫県,神戸市須磨区,南落合１丁目２４番２６－４０１号,,28,107,6540153,,,,,,,2023-02-03,1,,,,,エノシュサポート,0
2382,8140003018679,新規,0,2023-02-03,2023-02-03,オフィスリアン合同会社,,合同会社,兵庫県,西宮市,甲子園口２丁目５番３－４０２号,,28,204,6638113,,,,,,,2023-02-03,1,,,,,オフィスリアン,0
2384,8150001026146,新規,0,2023-02-03,2023-02-03,株式会社ＲＩＳＥ,,株式会社,奈良県,大和高田市,日之出町１０番２３－２０２号,,29,202,6350022,,,,,,,2023-02-03,1,,,,,ライズ,0
2385,8150001026154,新規,0,2023-02-03,2023-02-03,株式会社石田,,株式会社,奈良県,北葛城郡河合町,大字長楽２１１番地２,,29,427,6360052,,,,,,,2023-02-03,1,,,,,イシダ,0
2386,8150001026162,新規,0,2023-02-03,2023-02-03,小瑩醤株式会社,00129329,株式会社,奈良県,橿原市,古川町３３３番地の３,,29,205,6340828,,,,,,,2023-02-03,1,,,,,シャオインジャン,0
2389,8170001017465,新規,0,2023-02-03,2023-02-03,えり丸水産株式会社,,株式会社,和歌山県,東牟婁郡串本町,須江３０８番地,,30,428,6493632,,,,,,,2023-02-03,1,,,,,エリマルスイサン,0
2391,8180001154811,新規,0,2023-02-03,2023-02-03,株式会社ＧＣＳ,,株式会社,愛知県,名古屋市中村区,名駅南１丁目１２番１７号プレサンスロジェ名古屋駅ＳＯＵＴＨ７０２号,,23,105,4500003,,,,,,,2023-02-03,1,,,,,グラシアス,0
2394,8180003024772,新規,0,2023-02-03,2023-02-03,ＧＯＬＯ合同会社,,合同会社,愛知県,あま市,蜂須賀東道上２２２１－６６,,23,237,4901225,,,,,,,2023-02-03,1,,,,,ゴロ,0
2398,8190001030152,新規,0,2023-02-03,2023-02-03,株式会社ＭＹＵ,,株式会社,三重県,松阪市,駅部田町６３３番地１０,,24,204,5150045,,,,,,,2023-02-03,1,,,,,ミュー,0
2403,8200003005828,新規,0,2023-02-03,2023-02-03,Ａ．Ｎ　ＡＵＴＯ　ＬＩＮＫ合同会社,,合同会社,岐阜県,土岐市,泉町久尻１４７７番地の７コーポ土岐１階Ｂ号室,,21,212,5095142,,,,,,,2023-02-03,1,,,,,エーエヌオートリンク,0
2405,8210001019226,新規,0,2023-02-03,2023-02-03,まきだ建築株式会社,,株式会社,福井県,坂井市,丸岡町南横地第１７号３番地１,,18,210,9100375,,,,,,,2023-02-03,1,,,,,マキダケンチク,0
2407,8220001025248,新規,0,2023-02-03,2023-02-03,株式会社ＭＳＡ,,株式会社,石川県,小松市,高堂町ロ１７６番地,,17,203,9230031,,,,,,,2023-02-03,1,,,,,エムエスエー,0
2408,8220001025256,新規,0,2023-02-03,2023-02-03,株式会社ＯＮＥ’Ｓ,,株式会社,石川県,白山市,宮永町１９３８番地１８,,17,210,9240017,,,,,,,2023-02-03,1,,,,,ワンズ,0
2414,8240001061035,新規,0,2023-02-03,2023-02-03,岡田畳店株式会社,,株式会社,広島県,福山市,道三町１２番２３号,,34,207,7200813,,,,,,,2023-02-03,1,,,,,オカダタタミテン,0
2416,8240003006005,新規,0,2023-02-03,2023-02-03,合同会社ＦＣＣ,,合同会社,広島県,三原市,宮浦２丁目３番７号,,34,204,7230051,,,,,,,2023-02-03,1,,,,,エフシーシー,0
2423,8250001019949,新規,0,2023-02-03,2023-02-03,株式会社Ｙ’ｓ　ｐｌａｎｎｉｎｇ,,株式会社,山口県,山陽小野田市,大字郡１２０１番地１,,35,216,7570002,,,,,,,2023-02-03,1,,,,,ワイズプランニング,0
2424,8250003003216,新規,0,2023-02-03,2023-02-03,合同会社ホナミ物産,,合同会社,山口県,下関市,伊崎町１丁目３番７号,,35,201,7500065,,,,,,,2023-02-03,1,,,,,ホナミブッサン,0
2429,8280001008874,新規,0,2023-02-03,2023-02-03,田中工業株式会社,,株式会社,島根県,江津市,桜江町川戸９番地１２,,32,207,6994226,,,,,,,2023-02-03,1,,,,,タナカコウギョウ,0
2431,8290001100399,新規,0,2023-02-03,2023-02-03,株式会社アイティオー,,株式会社,福岡県,大牟田市,新勝立町１丁目４８番地１渋谷ビル,,40,202,8360895,,,,,,,2023-02-03,1,,,,,アイティオー,0
2432,8290001100408,新規,0,2023-02-03,2023-02-03,株式会社中村塗装商会,,株式会社,福岡県,大牟田市,亀谷町２８番地,,40,202,8360823,,,,,,,2023-02-03,1,,,,,ナカムラトソウショウカイ,0
2433,8290001100424,新規,0,2023-02-03,2023-02-03,株式会社ラフテル,,株式会社,福岡県,福岡市南区,塩原３丁目５－５,,40,134,8150032,,,,,,,2023-02-03,1,,,,,ラフテル,0
2434,8290001100473,新規,0,2023-02-03,2023-02-03,株式会社雅,,株式会社,福岡県,宗像市,光岡５４２番地１ｃａｓａｅｓｔｅ２０７号,,40,220,8113414,,,,,,,2023-02-03,1,,,,,ミヤビ,0
2438,8290801029251,新規,0,2023-02-03,2023-02-03,株式会社Ｃｙｔ,,株式会社,福岡県,京都郡苅田町,大字与原１８２４番地,,40,621,8000323,,,,,,,2023-02-03,1,,,,,シーワイティー,0
2440,8290803004335,新規,0,2023-02-03,2023-02-03,ヨイチ合同会社,,合同会社,福岡県,行橋市,北泉５丁目８番１号,,40,213,8240033,,,,,,,2023-02-03,1,,,,,ヨイチ,0
2442,8300003001932,新規,0,2023-02-03,2023-02-03,合同会社キレイノミカタ,,合同会社,佐賀県,伊万里市,伊万里町甲９４番地１,,41,205,8480047,,,,,,,2023-02-03,1,,,,,キレイノミカタ,0
2443,8310001018250,新規,0,2023-02-03,2023-02-03,株式会社ビルドアップ,,株式会社,長崎県,大村市,中里町１２９７番地２,,42,205,8560842,,,,,,,2023-02-03,1,,,,,ビルドアップ,0
2446,8320001019553,新規,0,2023-02-03,2023-02-03,株式会社ＴＲ商会,,株式会社,大分県,大分市,青崎２丁目１番４０号,,44,201,8700278,,,,,,,2023-02-03,1,,,,,ティーアールショウカイ,0
2449,8330001030559,新規,0,2023-02-03,2023-02-03,株式会社ヨシカワ,,株式会社,熊本県,熊本市西区,田崎３丁目１番５７号坂井アパートＡ棟１０２,,43,103,8600053,,,,,,,2023-02-03,1,,,,,ヨシカワ,0
2453,8350003004286,新規,0,2023-02-03,2023-02-03,合同会社日南代行運転,,合同会社,宮崎県,日南市,大字隈谷乙１９３５番地２５,,45,204,8870023,,,,,,,2023-02-03,1,,,,,ニチナンダイコウウンテン,0
2454,8360001031513,新規,0,2023-02-03,2023-02-03,株式会社アップキャッスル,,株式会社,沖縄県,中頭郡読谷村,字伊良皆４１６番地３,,47,324,9040303,,,,,,,2023-02-03,1,,,,,アップキャッスル,0
2462,8370001049554,新規,0,2023-02-03,2023-02-03,株式会社ＺＥＲＯＩＣＨＩ,,株式会社,宮城県,仙台市青葉区,国見１丁目３番１０号Ｇ－ｒｏｏｍ３ｒｄ１０３,,04,101,9810943,,,,,,,2023-02-03,1,,,,,ゼロイチ,0
2468,8420001018140,新規,0,2023-02-03,2023-02-03,株式会社Ｖｉｚ,,株式会社,青森県,上北郡おいらせ町,住吉３丁目５０番地３２コンフォートおいらせ１０８号,,02,412,0392180,,,,,,,2023-02-03,1,,,,,ヴィズ,0
2478,8430001088364,新規,0,2023-02-03,2023-02-03,株式会社ＭＡＦ,,株式会社,北海道,夕張郡由仁町,山形８１番地,,01,427,0691208,,,,,,,2023-02-03,1,,,,,エムエーエフ,0
2481,8430003014707,新規,0,2023-02-03,2023-02-03,合同会社柊,,合同会社,北海道,札幌市中央区,南二条西１０丁目１０００番地２４ＴＡＫＥＴＯビル２階,,01,101,0600062,,,,,,,2023-02-03,1,,,,,ヒイラギ,0
2485,8470001019448,新規,0,2023-02-03,2023-02-03,株式会社ＣＮＴ,,株式会社,香川県,さぬき市,大川町富田中２３４５番地１,,37,206,7610902,,,,,,,2023-02-03,1,,,,,シーエヌティー,0
2486,8470001019456,新規,0,2023-02-03,2023-02-03,株式会社Ａｓａｈｉ商事,,株式会社,香川県,高松市,大工町８番地１０,,37,201,7600042,,,,,,,2023-02-03,1,,,,,アサヒショウジ,0
2489,8470003002344,新規,0,2023-02-03,2023-02-03,合同会社１０ｔｅｎ,,合同会社,香川県,坂出市,常盤町１丁目７番７号,,37,203,7620058,,,,,,,2023-02-03,1,,,,,テン,0
2500,8700150114190,新規,0,2023-02-03,2023-02-03,ｚｈａｏｑｉｎｇｓｈｉ　ｊｕｎｆｅｎｇ　ｄｉａｎｚｉ　ｙｏｕｘｉａｎｇｏｎｇｓｉ,,外国会社等,,,,,,,,Ｄｕａｎｚｈｏｕ　３　Ｒｏａｄ　Ｎｏ．６　Ｆｏｒｅｉｇｎ　Ｅｃｏｎｏｍｉｃ　Ｉｎｄｕｓｔｒｙ　Ｖｉｌｌａｇｅ　Ｈｕａｘｉｎｇ　Ｂｕｉｌｄｉｎｇ　１ｓｔ　ｆｌｏｏｒ　Ｅａｓｔ　２　ｂｌｏｃｋ，Ｄｕａｎｚｈｏｕ，Ｚｈａｏｑｉｎｇ，Ｇｕａｎｇｄｏｎｇ，Ｃｈｉｎａ,,,,,,2023-02-03,1,,,,,チョウケイシシュンホウデンシユウゲンコウシ,0
2501,8700150114199,新規,0,2023-02-03,2023-02-03,ｓｈｅｎｚｈｅｎｓｈｉ　ｘｉｗｅｉａｉｄｉａｎｚｉｋｅｊｉ　ｙｏｕｘｉａｎｇｏｎｇｓｉ,,外国会社等,,,,,,,,Ｒｏｏｍ　１３０９，Ｈｕａｎａｎ　Ｃｉｔｙ　Ｇｌｏｂａｌ　Ｌｏｇｉｓｔｉｃｓ　Ｃｅｎｔｅｒ，Ｎｏ．１　Ｈｕａｎａｎ　Ａｖｅｎｕｅ，Ｈｅｈｕａ　Ｃｏｍｍｕｎｉｔｙ，Ｐｉｎｇｈｕ　Ｓｔｒｅｅｔ，Ｌｏｎｇｇａｎｇ　Ｄｉｓｔｒｉｃｔ，Ｓｈｅｎｚｈｅｎ，Ｃｈｉｎａ,,,,,,2023-02-03,1,,,,,シンセンシシウェイアイデンシケジユウゲンコウシ,0
2508,9010001232608,新規,0,2023-02-03,2023-02-03,株式会社Ｌｕｓｈｎｅｘｔ,,株式会社,東京都,千代田区,九段南１丁目５番６号りそな九段ビル５階ＫＳフロア,,13,101,1020074,,,,,,,2023-02-03,1,,,,,ラッシュネクスト,0
2509,9010001232673,新規,0,2023-02-03,2023-02-03,株式会社ヨシノパワージャパン,,株式会社,東京都,中央区,京橋３丁目３番１３号平和ビル３号館３０６,,13,102,1040031,,,,,,,2023-02-03,1,,,,,ヨシノパワージャパン,0
2512,9010003039745,新規,0,2023-02-03,2023-02-03,合同会社Ｑｕａｎｔｉｖｅｒｓｅ,,合同会社,東京都,中央区,日本橋中洲２番３－１１０５号,,13,102,1030008,,,,,,,2023-02-03,1,,,,,クオンティバース,0
2513,9010003039761,新規,0,2023-02-03,2023-02-03,合同会社ベリル,,合同会社,東京都,中央区,東日本橋２丁目２８番４号日本橋ＣＥＴビル２階,,13,102,1030004,,,,,,,2023-02-03,1,,,,,ベリル,0
2514,9010005036204,新規,0,2023-02-03,2023-02-03,しるべ税理士法人,,その他の設立登記法人,東京都,中央区,京橋１丁目１番１０号,,13,102,1040031,,,,,,,2023-02-03,1,,,,,シルベ,0
2515,9010005036212,新規,0,2023-02-03,2023-02-03,一般社団法人ＫＳＴ３,,その他の設立登記法人,東京都,千代田区,内幸町２丁目１番６号,,13,101,1000011,,,,,,,2023-02-03,1,,,,,ケイエスティースリー,0
2525,9010401172206,新規,0,2023-02-03,2023-02-03,Ｈｏｒｉｚｏｎｓ　Ｇｌｏｂａｌ　Ｔｅｃｈｎｏｌｏｇｙ　Ｊａｐａｎ株式会社,,株式会社,東京都,港区,元麻布３丁目１番６号,,13,103,1060046,,,,,,,2023-02-03,1,,,,,ホライズングローバルテクノロジージャパン,0
2526,9010401172296,新規,0,2023-02-03,2023-02-03,ビーホールディングス株式会社,,株式会社,東京都,港区,六本木６丁目１０番１号六本木ヒルズ森タワー１７階,,13,103,1060032,,,,,,,2023-02-03,1,,,,,ビーホールディングス,0
2527,9010401172305,新規,0,2023-02-03,2023-02-03,Ｔ．ｐｌａｎ株式会社,,株式会社,東京都,港区,芝浦４丁目２０番２号芝浦アイランドブルームタワー１５１１号,,13,103,1080023,,,,,,,2023-02-03,1,,,,,ティープラン,0
2533,9010403029461,新規,0,2023-02-03,2023-02-03,合同会社ルクロ,,合同会社,東京都,港区,元麻布３丁目２番１９号,,13,103,1060046,,,,,,,2023-02-03,1,,,,,ルクロ,0
2536,9010503006872,新規,0,2023-02-03,2023-02-03,合同会社ロマンスリー,,合同会社,東京都,台東区,元浅草１丁目１５番２号,,13,106,1110041,,,,,,,2023-02-03,1,,,,,ロマンスリー,0
2539,9010701043800,新規,0,2023-02-03,2023-02-03,角丸サービス株式会社,00129317,株式会社,東京都,品川区,西中延３丁目２番１７号カブラギ第７マンション７６０１号,,13,109,1420054,,,,,,,2023-02-03,1,,,,,カクマルサービス,0
2540,9010701043809,新規,0,2023-02-03,2023-02-03,株式会社ＧｅｒａＧｅｒａ,,株式会社,東京都,品川区,東五反田２丁目９番１－９０３号,,13,109,1410022,,,,,,,2023-02-03,1,,,,,ゲラゲラ,0
2545,9010901052428,新規,0,2023-02-03,2023-02-03,株式会社新事業創出基盤,,株式会社,東京都,世田谷区,船橋５丁目２－９,,13,112,1560055,,,,,,,2023-02-03,1,,,,,シンジギョウソウシュツキバン,0
2546,9010901052452,新規,0,2023-02-03,2023-02-03,株式会社Ｋｅｉｔａ　Ｉｓｈｉｇｕｒｏ,,株式会社,東京都,世田谷区,船橋１丁目３７番２号クリンゲルハイツ１Ｆ,,13,112,1560055,,,,,,,2023-02-03,1,,,,,ケイタイシグロ,0
2558,9011001152366,新規,0,2023-02-03,2023-02-03,株式会社タレントボックス,,株式会社,東京都,渋谷区,代々木２丁目２３番１号,,13,113,1510053,,,,,,,2023-02-03,1,,,,,タレントボックス,0
2559,9011001152374,新規,0,2023-02-03,2023-02-03,株式会社Ｔａｌｌ　ｔｒｅｅ,,株式会社,東京都,渋谷区,代々木４丁目３１番４－１１０８号,,13,113,1510053,,,,,,,2023-02-03,1,,,,,トールツリー,0
2562,9011003016214,新規,0,2023-02-03,2023-02-03,ｓｉｘｔｈ　ｆｌｏｏｒ合同会社,,合同会社,東京都,渋谷区,恵比寿３丁目３番９号ＳＥ３３９，６０２,,13,113,1500013,,,,,,,2023-02-03,1,,,,,シックスフロア,0
2568,9011101101735,新規,0,2023-02-03,2023-02-03,ＴＡＳＨＩＰＯ株式会社,,株式会社,東京都,新宿区,大久保３丁目８－１スカイフォレストレジデンス２２０９,,13,104,1690072,,,,,,,2023-02-03,1,,,,,タシポ,0
2570,9011201024398,新規,0,2023-02-03,2023-02-03,桐永不動産株式会社,,株式会社,東京都,中野区,江古田２丁目２４番１１号杉本ビル３Ｆ,,13,114,1650022,,,,,,,2023-02-03,1,,,,,トウエイフドウサン,0
2571,9011301028431,新規,0,2023-02-03,2023-02-03,株式会社トリコ,,株式会社,東京都,杉並区,成田西１丁目２１番３８号,,13,115,1660016,,,,,,,2023-02-03,1,,,,,トリコ,0
2577,9011601026564,新規,0,2023-02-03,2023-02-03,五栄建設株式会社,,株式会社,東京都,練馬区,平和台２丁目４８番１４号,,13,120,1790083,,,,,,,2023-02-03,1,,,,,ゴエイケンセツ,0
2580,9011703003379,新規,0,2023-02-03,2023-02-03,合同会社ＣＩ　Ｐｌａｎ,,合同会社,東京都,江戸川区,東葛西１丁目２０－３－１０１,,13,123,1340084,,,,,,,2023-02-03,1,,,,,シーアイプラン,0
2582,9012401040144,新規,0,2023-02-03,2023-02-03,ＫＡＷＡＮＡメタルベイ株式会社,,株式会社,東京都,狛江市,駒井町２丁目１１番２０号,,13,219,2010016,,,,,,,2023-02-03,1,,,,,カワナメタルベイ,0
2583,9012401040160,新規,0,2023-02-03,2023-02-03,Ａ＆Ｓシステムズ株式会社,,株式会社,東京都,武蔵野市,吉祥寺東町１丁目１９番５号,,13,203,1800002,,,,,,,2023-02-03,1,,,,,エイアンドエスシステムズ,0
2585,9012701017461,新規,0,2023-02-03,2023-02-03,株式会社ＳＡＥ　Ｅｎｔｅｒｐｒｉｓｅ,,株式会社,東京都,西東京市,北町１丁目６番１号ＬＥＴ’ＳＢＵＩＬＤＩＮＧ５Ｆ,,13,229,2020003,,,,,,,2023-02-03,1,,,,,エスエーイーエンタープライズ,0
2586,9012801022122,新規,0,2023-02-03,2023-02-03,株式会社ＰａＰ,,株式会社,東京都,東大和市,清水３丁目８００番地の６,,13,220,2070004,,,,,,,2023-02-03,1,,,,,パップ,0
2587,9012801022130,新規,0,2023-02-03,2023-02-03,株式会社Ｍｏｄｅｒｎ　ｐｅｏｐｌｅｓ,,株式会社,東京都,立川市,緑町７番地の２サンクタス立川Ｔ１－３２１号,,13,202,1900014,,,,,,,2023-02-03,1,,,,,モダンピープルズ,0
2588,9012803002997,新規,0,2023-02-03,2023-02-03,合同会社ＣＨＡＯＳ,,合同会社,東京都,立川市,錦町２丁目１番２８号１階,,13,202,1900022,,,,,,,2023-02-03,1,,,,,カオス,0
2599,9020001149999,新規,0,2023-02-03,2023-02-03,トラスト株式会社,,株式会社,神奈川県,横浜市港北区,新横浜２丁目５番１４号ＷｉｓｅＮｅｘｔ新横浜,,14,109,2220033,,,,,,,2023-02-03,1,,,,,トラスト,0
2600,9020001150081,新規,0,2023-02-03,2023-02-03,株式会社シルテック,,株式会社,神奈川県,横浜市港北区,綱島東６丁目１０－２０コーポスズキ１０２,,14,109,2230052,,,,,,,2023-02-03,1,,,,,シルテック,0
2601,9020001150098,新規,0,2023-02-03,2023-02-03,株式会社Ｏｗｌ,,株式会社,神奈川県,横浜市中区,太田町１丁目１１番地３グリーンビル３Ｆ,,14,104,2310011,,,,,,,2023-02-03,1,,,,,オウル,0
2602,9020001150115,新規,0,2023-02-03,2023-02-03,株式会社ＣＹＢＥＲ　ＬＡＢ,,株式会社,神奈川県,川崎市高津区,子母口４４番地,,14,134,2130023,,,,,,,2023-02-03,1,,,,,サイバーラボ,0
2603,9020001150131,新規,0,2023-02-03,2023-02-03,株式会社Ｔ‐Ｆａｒｍ,,株式会社,神奈川県,横浜市都筑区,北山田１丁目８番９号みつやビル,,14,118,2240021,,,,,,,2023-02-03,1,,,,,ティーファーム,0
2607,9020003023236,新規,0,2023-02-03,2023-02-03,合同会社クレセント,,合同会社,神奈川県,横浜市中区,柏葉２２番地の６,,14,104,2310866,,,,,,,2023-02-03,1,,,,,クレセント,0
2608,9020003023252,新規,0,2023-02-03,2023-02-03,ＦｒａｎＤｏ　Ｊａｐａｎ合同会社,,合同会社,神奈川県,川崎市麻生区,東百合丘４丁目４７番９－１号,,14,137,2150012,,,,,,,2023-02-03,1,,,,,フランドゥジャパン,0
2610,9021001078073,新規,0,2023-02-03,2023-02-03,株式会社さくら企画,,株式会社,神奈川県,高座郡寒川町,岡田４丁目１２番１号,,14,321,2530105,,,,,,,2023-02-03,1,,,,,サクラキカク,0
2611,9021001078123,新規,0,2023-02-03,2023-02-03,株式会社ＨＥＹＤＡＹ,,株式会社,神奈川県,藤沢市,本鵠沼１丁目７番３５号パサージュ鵠沼Ｂ,,14,205,2510028,,,,,,,2023-02-03,1,,,,,ヘイデイ,0
2612,9021003012690,新規,0,2023-02-03,2023-02-03,合同会社スッキリ運送,,合同会社,神奈川県,相模原市中央区,田名４１２８番地１,,14,152,2520244,,,,,,,2023-02-03,1,,,,,スッキリウンソウ,0
2613,9021003012708,新規,0,2023-02-03,2023-02-03,合同会社グランクレール,,合同会社,神奈川県,座間市,立野台３丁目３５－１３,,14,216,2520023,,,,,,,2023-02-03,1,,,,,グランクレール,0
2616,9030001152242,新規,0,2023-02-03,2023-02-03,株式会社ＯＭＡ,,株式会社,埼玉県,飯能市,大字笠縫４０７番地３,,11,209,3570045,,,,,,,2023-02-03,1,,,,,オーエムエー,0
2617,9030001152267,新規,0,2023-02-03,2023-02-03,株式会社ＫＯＫＯＡ,,株式会社,埼玉県,川口市,東川口３丁目５番３５号ベルグランデ３０１,,11,203,3330801,,,,,,,2023-02-03,1,,,,,ココア,0
2622,9030003021107,新規,0,2023-02-03,2023-02-03,合同会社Ｈ‐ＷＯＲＫＳ,,合同会社,埼玉県,さいたま市大宮区,浅間町１丁目２１８－１－３０３,,11,103,3300842,,,,,,,2023-02-03,1,,,,,エイチワークス,0
2630,9040001126880,新規,0,2023-02-03,2023-02-03,株式会社ｍｏｕ,,株式会社,千葉県,松戸市,西馬橋広手町１６番地の１,,12,207,2710048,,,,,,,2023-02-03,1,,,,,モウ,0
2631,9040001126897,新規,0,2023-02-03,2023-02-03,株式会社齋藤工業,,株式会社,千葉県,成田市,美郷台３丁目１番地２９,,12,211,2860013,,,,,,,2023-02-03,1,,,,,サイトウコウギョウ,0
2632,9040001126906,新規,0,2023-02-03,2023-02-03,株式会社鯛良,,株式会社,千葉県,浦安市,入船１丁目５番２号プライムタワー新浦安１９階１９０１号,,12,227,2790012,,,,,,,2023-02-03,1,,,,,タイラ,0
2633,9040001126922,新規,0,2023-02-03,2023-02-03,株式会社ティーエムズアンド,,株式会社,千葉県,千葉市中央区,本町２丁目２番１３号,,12,101,2600012,,,,,,,2023-02-03,1,,,,,ティーエムズアンド,0
2634,9040001126947,新規,0,2023-02-03,2023-02-03,富春株式会社,,株式会社,千葉県,千葉市中央区,白旗２丁目１１－５,,12,101,2600841,,,,,,,2023-02-03,1,,,,,トミハル,0
2637,9040003021840,新規,0,2023-02-03,2023-02-03,合同会社ｍａｉｋａ,,合同会社,千葉県,千葉市中央区,生実町１７４２番地９,,12,101,2600813,,,,,,,2023-02-03,1,,,,,マイカ,0
2638,9040003021849,新規,0,2023-02-03,2023-02-03,Ｗｏｒｌｄ　Ｐｒｏｍｏｔｉｏｎｓ合同会社,,合同会社,千葉県,浦安市,北栄１丁目４番１７－２０１号,,12,227,2790002,,,,,,,2023-02-03,1,,,,,ワールドプロモーションズ,0
2640,9050001052317,新規,0,2023-02-03,2023-02-03,株式会社ＦＴＲファクトリー,,株式会社,茨城県,取手市,双葉２丁目２８番１５号,,08,217,3001501,,,,,,,2023-02-03,1,,,,,エフティーアールファクトリー,0
2642,9050003007203,新規,0,2023-02-03,2023-02-03,Ｚ．Ａ　Ｍｏｔｏｒ　Ｉｎｔｅｒｎａｔｉｏｎａｌ合同会社,,合同会社,茨城県,結城郡八千代町,大字平塚１７６２番地４,,08,521,3003561,,,,,,,2023-02-03,1,,,,,ゼットエーモーターインターナショナル,0
2643,9050003007211,新規,0,2023-02-03,2023-02-03,合同会社リード,,合同会社,茨城県,小美玉市,鶴田７４９番地２,,08,236,3190105,,,,,,,2023-02-03,1,,,,,リード,0
2648,9060001035675,新規,0,2023-02-03,2023-02-03,株式会社ＨＯＰＥ,,株式会社,栃木県,小山市,大字雨ケ谷１４１番地１,,09,208,3230826,,,,,,,2023-02-03,1,,,,,ホープ,0
2649,9060005010047,新規,0,2023-02-03,2023-02-03,もてぎマルチワーク事業協同組合,,その他の設立登記法人,栃木県,芳賀郡茂木町,大字茂木１５１番地,,09,343,3213531,,,,,,,2023-02-03,1,,,,,モテギマルチワーク,0
2652,9080001025451,新規,0,2023-02-03,2023-02-03,株式会社Ｒ＆Ｍ,,株式会社,静岡県,静岡市葵区,両替町２丁目４番地の１０,,22,101,4200032,,,,,,,2023-02-03,1,,,,,アールアンドエム,0
2656,9080103002737,新規,0,2023-02-03,2023-02-03,合同会社ＪＳＢ,,合同会社,静岡県,駿東郡清水町,徳倉３３７番地,,22,341,4110917,,,,,,,2023-02-03,1,,,,,ジェイエスビー,0
2659,9080403004714,新規,0,2023-02-03,2023-02-03,合同会社あつみ,,合同会社,静岡県,磐田市,平間１２７４番地１５９,,22,211,4380203,,,,,,,2023-02-03,1,,,,,アツミ,0
2661,9090001017968,新規,0,2023-02-03,2023-02-03,株式会社アロー,,株式会社,山梨県,甲府市,湯田１丁目１１番４号,,19,201,4000864,,,,,,,2023-02-03,1,,,,,アロー,0
2663,9090003002241,新規,0,2023-02-03,2023-02-03,合同会社Ｍ・サポート,,合同会社,山梨県,中巨摩郡昭和町,押越４３８番地１,,19,384,4093864,,,,,,,2023-02-03,1,,,,,エムサポート,0
2666,9100003006868,新規,0,2023-02-03,2023-02-03,エル合同会社,,合同会社,長野県,松本市,寿北７丁目１９番１号サンライフ・ラポン１０２号,,20,202,3990011,,,,,,,2023-02-03,1,,,,,エル,0
2681,9120001252223,新規,0,2023-02-03,2023-02-03,千里中央公園パークマネジメント株式会社,,株式会社,大阪府,大阪市北区,角田町８番７号,,27,127,5300017,,,,,,,2023-02-03,1,,,,,センリチュウオウコウエンパークマネジメント,0
2682,9120001252272,新規,0,2023-02-03,2023-02-03,なつトラスト株式会社,,株式会社,大阪府,大阪市中央区,島之内１丁目２２番２０号,,27,128,5420082,,,,,,,2023-02-03,1,,,,,ナツトラスト,0
2683,9120001252280,新規,0,2023-02-03,2023-02-03,ネクスト東谷株式会社,,株式会社,大阪府,大阪市中央区,本町３丁目５番２号辰野本町ビル７階,,27,128,5410053,,,,,,,2023-02-03,1,,,,,ネクストヒガシタニ,0
2686,9120005023455,新規,0,2023-02-03,2023-02-03,税理士法人しんせい,,その他の設立登記法人,大阪府,大阪市西区,江戸堀１丁目４番２７号プレジールビル４Ｆ,,27,106,5500002,,,,,,,2023-02-03,1,,,,,シンセイ,0
2687,9120103005066,新規,0,2023-02-03,2023-02-03,合同会社ひまわり,,合同会社,大阪府,堺市東区,引野町３丁１６２番地２,,27,143,5998104,,,,,,,2023-02-03,1,,,,,ヒマワリ,0
2695,9122001036655,新規,0,2023-02-03,2023-02-03,株式会社Ｃ＆Ｙ,,株式会社,大阪府,八尾市,桂町１丁目２９番地の２,,27,212,5810823,,,,,,,2023-02-03,1,,,,,シーアンドワイ,0
2696,9122001036663,新規,0,2023-02-03,2023-02-03,株式会社ＨＡＴＴＡＮ,,株式会社,大阪府,東大阪市,源氏ケ丘８番５号,,27,227,5770822,,,,,,,2023-02-03,1,,,,,ハッタン,0
2705,9130001073610,新規,0,2023-02-03,2023-02-03,株式会社富士,,株式会社,京都府,宇治市,伊勢田町名木１丁目１番地の１３０,,26,204,6110044,,,,,,,2023-02-03,1,,,,,フジ,0
2706,9130001073635,新規,0,2023-02-03,2023-02-03,株式会社ＦＲＯＮＴＩＥＲ,,株式会社,京都府,京都市東山区,八坂新地清本町３５３－１花見小路ビル６階６０１号室,,26,105,6050084,,,,,,,2023-02-03,1,,,,,フロンティア,0
2707,9130001073643,新規,0,2023-02-03,2023-02-03,株式会社ｃｏｃｏ　ｍｏｔｉｏｎ,,株式会社,京都府,京都市上京区,笹屋町通千本西入笹屋４丁目２７９番地１グランブルー３０１,,26,102,6028453,,,,,,,2023-02-03,1,,,,,ココモーション,0
2708,9130005016689,新規,0,2023-02-03,2023-02-03,はばたき税理士法人,,その他の設立登記法人,京都府,京都市下京区,北小路通油小路東入文覚町３６９番地,,26,106,6008222,,,,,,,2023-02-03,1,,,,,ハバタキ,0
2715,9140001128974,新規,0,2023-02-03,2023-02-03,株式会社ＣＲＵＳＴ不動産,,株式会社,兵庫県,尼崎市,浜３丁目１番３６号,,28,202,6610967,,,,,,,2023-02-03,1,,,,,クラストフドウサン,0
2716,9140001128999,新規,0,2023-02-03,2023-02-03,神戸住設工業株式会社,,株式会社,兵庫県,神戸市西区,玉津町高津橋７３－１０,,28,111,6512122,,,,,,,2023-02-03,1,,,,,コウベジュウセツコウギョウ,0
2717,9140001129007,新規,0,2023-02-03,2023-02-03,株式会社アイム,,株式会社,兵庫県,姫路市,四郷町山脇６２５番地５,,28,201,6710248,,,,,,,2023-02-03,1,,,,,アイム,0
2718,9140001129015,新規,0,2023-02-03,2023-02-03,株式会社Ｂｕｄｄｉｅｓ,,株式会社,兵庫県,尼崎市,東園田町２丁目１３７番地の１－１０３号,,28,202,6610953,,,,,,,2023-02-03,1,,,,,バディーズ,0
2719,9140001129048,新規,0,2023-02-03,2023-02-03,株式会社モンガリ,,株式会社,兵庫県,神戸市長田区,菅原通１丁目５６,,28,106,6530015,,,,,,,2023-02-03,1,,,,,モンガリ,0
2725,9160001024800,新規,0,2023-02-03,2023-02-03,近江屋ユナイテッド株式会社,,株式会社,滋賀県,大津市,八屋戸４８３番地２、２階,,25,201,5200515,,,,,,,2023-02-03,1,,,,,オウミヤユナイテッド,0
2733,9180001154810,新規,0,2023-02-03,2023-02-03,株式会社ＤＣＴカンパニー,,株式会社,愛知県,名古屋市千種区,御棚町３丁目１６番地,,23,101,4640835,,,,,,,2023-02-03,1,,,,,ディーシーティーカンパニー,0
2734,9180001154835,新規,0,2023-02-03,2023-02-03,蒼藤株式会社,,株式会社,愛知県,名古屋市守山区,桔梗平３丁目３０６番地,,23,113,4630814,,,,,,,2023-02-03,1,,,,,アオフジ,0
2735,9180001154876,新規,0,2023-02-03,2023-02-03,株式会社ＲＥＸＥＲ,,株式会社,愛知県,名古屋市守山区,川北町２５５番地,,23,113,4630098,,,,,,,2023-02-03,1,,,,,リクサー,0
2747,9180301037070,新規,0,2023-02-03,2023-02-03,株式会社Ｐｏｌａｒｉｓ,,株式会社,愛知県,岡崎市,井ノ口町字楼６番地,,23,202,4442133,,,,,,,2023-02-03,1,,,,,ポラリス,0
2750,9180303005604,新規,0,2023-02-03,2023-02-03,Ｊ．Ｓ　ＡＵＴＯ　ＴＲＡＤＩＮＧ合同会社,,合同会社,愛知県,豊田市,汐見町２丁目１４番地１レクサシオミ２０８,,23,211,4710041,,,,,,,2023-02-03,1,,,,,ジェイエスオートトレーディング,0
2753,9200001040917,新規,0,2023-02-03,2023-02-03,株式会社拓実開発,,株式会社,岐阜県,中津川市,高山２２１０番地,,21,206,5080204,,,,,,,2023-02-03,1,,,,,タクミカイハツ,0
2754,9200001040925,新規,0,2023-02-03,2023-02-03,株式会社ＬＩＦＩＸ,,株式会社,岐阜県,岐阜市,岩地２丁目２１番２１号,,21,201,5008225,,,,,,,2023-02-03,1,,,,,リフィックス,0
2755,9200001040933,新規,0,2023-02-03,2023-02-03,株式会社ＮＯＲＯＳＩ,,株式会社,岐阜県,中津川市,茄子川４０３番地の３０,,21,206,5099132,,,,,,,2023-02-03,1,,,,,ノロシ,0
2757,9210003001610,新規,0,2023-02-03,2023-02-03,合同会社Ｏｖｅｒｃｌｏｃｋ,,合同会社,福井県,鯖江市,鳥羽３丁目１１番６－２号,,18,207,9160013,,,,,,,2023-02-03,1,,,,,オーバークロック,0
2759,9220001025247,新規,0,2023-02-03,2023-02-03,株式会社Ｕｎｋｎｏｗｎ,,株式会社,石川県,小松市,小寺町乙５１番地１,,17,203,9230806,,,,,,,2023-02-03,1,,,,,アンノウン,0
2760,9220003003440,新規,0,2023-02-03,2023-02-03,合同会社ＴｉＭｅ,,合同会社,石川県,野々市市,押越１丁目１３８番地リトルセレッソ２０１号,,17,212,9218803,,,,,,,2023-02-03,1,,,,,タイム,0
2765,9240001061042,新規,0,2023-02-03,2023-02-03,株式会社ＣＣＬ,,株式会社,広島県,庄原市,三日市町１３３番地,,34,210,7270021,,,,,,,2023-02-03,1,,,,,シーシーエル,0
2769,9240003006004,新規,0,2023-02-03,2023-02-03,合同会社Ｇｒｏｗ　Ｗｉｔｈ,,合同会社,広島県,広島市南区,仁保南１丁目２１番１７－３０２号,,34,103,7340027,,,,,,,2023-02-03,1,,,,,グロウウィズ,0
2770,9250001019948,新規,0,2023-02-03,2023-02-03,中村企画開発株式会社,,株式会社,山口県,防府市,大字浜方２７２番地の２１,,35,206,7470833,,,,,,,2023-02-03,1,,,,,ナカムラキカクカイハツ,0
2774,9260001037619,新規,0,2023-02-03,2023-02-03,岡田ラッキング工業株式会社,,株式会社,岡山県,倉敷市,連島町矢柄５９２１番地１２,,33,202,7128015,,,,,,,2023-02-03,1,,,,,オカダラッキングコウギョウ,0
2787,9290001100456,新規,0,2023-02-03,2023-02-03,株式会社精興園,,株式会社,福岡県,久留米市,田主丸町八幡９４１番地１２,,40,203,8391226,,,,,,,2023-02-03,1,,,,,セイコウエン,0
2788,9290001100472,新規,0,2023-02-03,2023-02-03,株式会社Ｄ‐ＵＰ,,株式会社,福岡県,久留米市,高良内町２７２３番地２プレミストＩＩ、Ａ棟２０６号,00129328,40,203,8390852,,,,,,,2023-02-03,1,,,,,ディーアップ,0
2789,9290001100480,新規,0,2023-02-03,2023-02-03,株式会社友心,,株式会社,福岡県,飯塚市,立岩９６４番地３５セントロイヤル新飯塚駅１０１号,,40,205,8200003,,,,,,,2023-02-03,1,,,,,ユウシン,0
2792,9290005018942,新規,0,2023-02-03,2023-02-03,福岡県農産物集荷協同組合,,その他の設立登記法人,福岡県,三井郡大刀洗町,大字高樋１６８２番地２,,40,503,8301221,,,,,,,2023-02-03,1,,,,,フクオカケンノウサンブツシュウカ,0
2797,9290803004326,新規,0,2023-02-03,2023-02-03,鞍手エコパーク合同会社,,合同会社,福岡県,北九州市小倉南区,長野本町４丁目８番２７号,,40,107,8000241,,,,,,,2023-02-03,1,,,,,クラテエコパーク,0
2805,9330001030566,新規,0,2023-02-03,2023-02-03,株式会社サスケ,,株式会社,熊本県,上益城郡甲佐町,大字上早川２４９番地３,,43,444,8614622,,,,,,,2023-02-03,1,,,,,サスケ,0
2807,9330003009708,新規,0,2023-02-03,2023-02-03,合同会社稲穗,,合同会社,熊本県,熊本市中央区,萩原町５番２３－４０５号,,43,101,8600832,,,,,,,2023-02-03,1,,,,,イナホ,0
2809,9350003004285,新規,0,2023-02-03,2023-02-03,合同会社Ｔｏｍｍｙ,,合同会社,宮崎県,日向市,大字財光寺３４１３番地７コーポ昴Ａ棟２０３号,,45,206,8830021,,,,,,,2023-02-03,1,,,,,トミー,0
2813,9360003012691,新規,0,2023-02-03,2023-02-03,合同会社はるひ,,合同会社,沖縄県,国頭郡今帰仁村,字湧川１８９４番地,,47,306,9050412,,,,,,,2023-02-03,1,,,,,ハルヒ,0
2816,9370001049561,新規,0,2023-02-03,2023-02-03,株式会社ｄａｙ　ｂｙ　ｄａｙ,,株式会社,宮城県,仙台市青葉区,国分町２丁目２番２８号第一藤原屋ビル３階,,04,101,9800803,,,,,,,2023-02-03,1,,,,,デイバイデイ,0
2817,9370001049578,新規,0,2023-02-03,2023-02-03,株式会社ＭＩＪウエルネス,,株式会社,宮城県,仙台市宮城野区,福田町１丁目４番２０号,,04,102,9830023,,,,,,,2023-02-03,1,,,,,エムアイジェイウエルネス,0
2822,9420001018148,新規,0,2023-02-03,2023-02-03,株式会社サポートエール,,株式会社,青森県,青森市,小柳１丁目１７番２０号,,02,201,0300915,,,,,,,2023-02-03,1,,,,,サポートエール,0
2825,9430001088355,新規,0,2023-02-03,2023-02-03,株式会社住宅相談窓口,,株式会社,北海道,千歳市,柏台南１丁目２番地の１,,01,224,0660009,,,,,,,2023-02-03,1,,,,,ジュウタクソウダンマドグチ,0
2827,9430003014697,新規,0,2023-02-03,2023-02-03,ＭＡＨＤ　ＴＲＡＤＩＮＧ合同会社,,合同会社,北海道,江別市,東光町１０２番地の１６,,01,217,0670023,,,,,,,2023-02-03,1,,,,,マハドレーディング,0
2832,9460101007328,新規,0,2023-02-03,2023-02-03,株式会社ＨＩＲＡＭＥＫＩ,,株式会社,北海道,帯広市,東二条南２０丁目４番地２,,01,207,0800802,,,,,,,2023-02-03,1,,,,,ヒラメキ,0
2841,9500001024757,新規,0,2023-02-03,2023-02-03,株式会社Ｌｉｅｎ　Ｄｅｎｔａｌ　Ｄｅｓｉｇｎ,,株式会社,愛媛県,松山市,祝谷２丁目１０番９－１号,,38,201,7900833,,,,,,,2023-02-03,1,,,,,リアンデンタルデザイン,0
2846,9700150114181,新規,0,2023-02-03,2023-02-03,ＬＯＮＩＴＥ　ＡＧ,,外国会社等,東京都,港区,虎ノ門５丁目１３番１号４０ＭＴビル７階,,13,103,1050001,スイス国ツーク州バーンホフ通り２１番地,,,,,,2023-02-03,1,,,,,ロニテエージー,0
2847,9700150114198,新規,0,2023-02-03,2023-02-03,ｓｈｅｎｚｈｅｎｂｅｓｉｔｅｒ　ｋｅｊｉｇｕｆｅｎ　ｙｏｕｘｉａｎｇｏｎｇｓｉ,,外国会社等,,,,,,,,ｆｕｙｏｎｇｊｉｅｄａｏ，ｌｏｎｇｗａｎｇｍｉａｏｇｏｎｇｙｅｑｕ６６ｄｏｎｇ，ｓｈｅｎｚｈｅｎ，Ｇｕａｎｇｄｏｎｇ，ｃｈｉｎａ,,,,,,2023-02-03,1,,,,,シンセンベシターケジグフェンユウゲンコウシ,0
