sequenceNumber,corporateNumber,process,correct,updateDate,changeDate,name,nameImageId,kind,prefectureName,cityName,streetNumber,addressImageId,prefectureCode,cityCode,postCode,addressOutside,addressOutsideImageId,closeDate,closeCause,successorCorporateNumber,changeCause,assignmentDate,latest,enName,enPrefectureName,enCityName,enAddressOutside,furigana,hihyoji
5,1010001248280,新規,0,2024-09-17,2024-09-17,株式会社パナケイア,,株式会社,東京都,中央区,日本橋小網町７番７号ぺんてるマンション４０２号,,13,102,1030016,,,,,,,2024-09-17,1,,,,,パナケイア,0
6,1010001248289,新規,0,2024-09-17,2024-09-17,阿部株式会社,,株式会社,東京都,中央区,銀座７丁目１３番２０号銀座ＴＨビル９階,,13,102,1040061,,,,,,,2024-09-17,1,,,,,アベ,0
8,1010001248371,新規,0,2024-09-17,2024-09-17,海鳴株式会社,,株式会社,東京都,文京区,白山１丁目６－４同栄マンション２階文京ＶＥＮＴＵＲＥＢＡＳＥ２２１号室,,13,105,1130001,,,,,,,2024-09-17,1,,,,,ウミナリ,0
13,1010003044901,新規,0,2024-09-17,2024-09-17,私の部屋リビング・ホールディングス合同会社,,合同会社,東京都,千代田区,大手町１丁目７番２号東京サンケイビル２７階,,13,101,1000004,,,,,,,2024-09-17,1,,,,,ワタシノヘヤリビングホールディングス,0
14,1010003044918,新規,0,2024-09-17,2024-09-17,由布院オペレーションズ合同会社,,合同会社,東京都,千代田区,霞が関３丁目２番５号,,13,101,1000013,,,,,,,2024-09-17,1,,,,,ユフインオペレーションズ,0
15,1010003044950,新規,0,2024-09-17,2024-09-17,合同会社ｌｅａｐｗｏｒｋｓ,,合同会社,東京都,中央区,勝どき４丁目６番１－３６２３号,,13,102,1040054,,,,,,,2024-09-17,1,,,,,リープワークス,0
26,1010401185082,新規,0,2024-09-17,2024-09-17,株式会社ＳＴＡＮＤＸ,,株式会社,東京都,港区,赤坂４丁目８番１９号赤坂フロントタウン３階,,13,103,1070052,,,,,,,2024-09-17,1,,,,,スタンドエックス,0
27,1010401185124,新規,0,2024-09-17,2024-09-17,株式会社即退社,,株式会社,東京都,港区,海岸１丁目１番１－１５１５号,,13,103,1050022,,,,,,,2024-09-17,1,,,,,ソクタイシャ,0
33,1010801035399,新規,0,2024-09-17,2024-09-17,バレーズリー株式会社,,株式会社,東京都,大田区,上池台２丁目２４－１７,,13,111,1450064,,,,,,,2024-09-17,1,,,,,バレーズリー,0
36,1010901055982,新規,0,2024-09-17,2024-09-17,株式会社ｎａｎｏｕ２,,株式会社,東京都,世田谷区,羽根木１丁目１９番１９号羽根木インターナショナルガーデンハウスＣ棟Ｃ０５号室,,13,112,1560042,,,,,,,2024-09-17,1,,,,,ナノウーツー,0
37,1010903009359,新規,0,2024-09-17,2024-09-17,ＴＡＴＳＵＫＩ合同会社,,合同会社,東京都,世田谷区,桜新町２丁目１２番２３,,13,112,1540015,,,,,,,2024-09-17,1,,,,,タツキ,0
40,1011001164609,新規,0,2024-09-17,2024-09-17,ＢＭＣ株式会社,,株式会社,東京都,目黒区,下目黒５丁目４番１１号,,13,110,1530064,,,,,,,2024-09-17,1,,,,,ビーエムシー,0
41,1011001164699,新規,0,2024-09-17,2024-09-17,株式会社リピートピープルジャパン,,株式会社,東京都,渋谷区,道玄坂１丁目１０番８号渋谷道玄坂東急ビル２Ｆ‐Ｃ,,13,113,1500043,,,,,,,2024-09-17,1,,,,,リピートピープルジャパン,0
42,1011003020033,新規,0,2024-09-17,2024-09-17,合同会社Ｅｒｅｎ,,合同会社,東京都,渋谷区,恵比寿西２丁目４番８号ウィンド恵比寿ビル８Ｆ,,13,113,1500021,,,,,,,2024-09-17,1,,,,,エレン,0
49,1011101108837,新規,0,2024-09-17,2024-09-17,Ｋ＆Ｔ株式会社,,株式会社,東京都,新宿区,高田馬場３丁目７番５号,,13,104,1690075,,,,,,,2024-09-17,1,,,,,ケイアンドティー,0
52,1011103014934,新規,0,2024-09-17,2024-09-17,合同会社あかぐま本舗,,合同会社,東京都,新宿区,西新宿３丁目３番地１３号西新宿水間ビル２Ｆ,,13,104,1600023,,,,,,,2024-09-17,1,,,,,アカグマホンポ,0
55,1011701027627,新規,0,2024-09-17,2024-09-17,株式会社Ｒｅｏｎ,,株式会社,東京都,江戸川区,松島１丁目２８番１６号コーポ大野２０３,,13,123,1320031,,,,,,,2024-09-17,1,,,,,レオン,0
59,1011803006454,新規,0,2024-09-17,2024-09-17,力士キャリアパートナーズ合同会社,,合同会社,東京都,葛飾区,四つ木４丁目１５－７,,13,122,1240011,,,,,,,2024-09-17,1,,,,,リキシキャリアパートナーズ,0
60,1012301014081,新規,0,2024-09-17,2024-09-17,株式会社リーブス,,株式会社,東京都,町田市,根岸２丁目１３番地１１,,13,209,1940038,,,,,,,2024-09-17,1,,,,,リーブス,0
64,1012403006745,新規,0,2024-09-17,2024-09-17,合同会社渥美ファーマーズ,,合同会社,東京都,調布市,調布ケ丘１丁目３２番地１３,,13,208,1820021,,,,,,,2024-09-17,1,,,,,アツミファーマーズ,0
65,1013101009511,新規,0,2024-09-17,2024-09-17,株式会社イクテクト,,株式会社,東京都,青梅市,新町５丁目２８番地の１３,,13,205,1980024,,,,,,,2024-09-17,1,,,,,,0
68,1013301053103,新規,0,2024-09-17,2024-09-17,暁麦日本株式会社,,株式会社,東京都,豊島区,東池袋１丁目３１番１３号,,13,116,1700013,,,,,,,2024-09-17,1,,,,,ショウマイニホン,0
76,1020001159221,新規,0,2024-09-17,2024-09-17,株式会社慶成,,株式会社,神奈川県,横浜市金沢区,柳町１５－２１,,14,108,2360026,,,,,,,2024-09-17,1,,,,,ケイセイ,0
78,1021001083221,新規,0,2024-09-17,2024-09-17,みなとコンサルタントプラス株式会社,,株式会社,神奈川県,相模原市南区,相模台７丁目１３番９号,,14,153,2520321,,,,,,,2024-09-17,1,,,,,ミナトコンサルタントプラス,0
79,1021001083270,新規,0,2024-09-17,2024-09-17,不動産ポートＡＯＫＩ株式会社,,株式会社,神奈川県,相模原市南区,下溝１３５番地１,,14,153,2520335,,,,,,,2024-09-17,1,,,,,フドウサンポートアオキ,0
83,1030001162315,新規,0,2024-09-17,2024-09-17,株式会社アスクバズ,,株式会社,埼玉県,川口市,栄町３丁目２－６グローベル川口ステーションプレミア９０２,,11,203,3320017,,,,,,,2024-09-17,1,,,,,アスクバズ,0
84,1030001162463,新規,0,2024-09-17,2024-09-17,ＭＯ　Ｈｉａｃｅ　Ｃｅｎｔｅｒ株式会社,,株式会社,埼玉県,坂戸市,花影町７番２５号ＫＩＶオフィス花影Ｄ号室,,11,239,3500236,,,,,,,2024-09-17,1,,,,,エムオーハイエースセンター,0
85,1030001162505,新規,0,2024-09-17,2024-09-17,株式会社Ａ’ｆｏｒｔｕｎａ,,株式会社,埼玉県,戸田市,上戸田３丁目１９番１２号,,11,224,3350022,,,,,,,2024-09-17,1,,,,,アフォルトゥーナ,0
86,1030003025131,新規,0,2024-09-17,2024-09-17,ＳＳＲ合同会社,,合同会社,埼玉県,上尾市,愛宕１丁目１９－６,,11,219,3620034,,,,,,,2024-09-17,1,,,,,エスエスアール,0
88,1030005021839,新規,0,2024-09-17,2024-09-17,特定非営利活動法人空き家プラザ,,その他の設立登記法人,埼玉県,川口市,西青木２丁目１番４５号レクイアーレ１０１号,,11,203,3320035,,,,,,,2024-09-17,1,,,,,アキヤプラザ,0
91,1040001135419,新規,0,2024-09-17,2024-09-17,ヴィルトゥスワークス株式会社,,株式会社,千葉県,柏市,東３丁目８番地１１号,,12,217,2770014,,,,,,,2024-09-17,1,,,,,ヴィルトゥスワークス,0
95,1040003025790,新規,0,2024-09-17,2024-09-17,合同会社ＴＢＴ,,合同会社,千葉県,千葉市花見川区,横戸町１３番地９コーポＫＯＨＡＫＵ１０１号室,,12,102,2620001,,,,,,,2024-09-17,1,,,,,ティービーティー,0
97,1060001037497,新規,0,2024-09-17,2024-09-17,株式会社ＭＵＫ,,株式会社,栃木県,佐野市,栃本町１４９８番地１,,09,204,3270312,,,,,,,2024-09-17,1,,,,,エムユーケー,0
98,1070001042182,新規,0,2024-09-17,2024-09-17,株式会社Ｖｅｌｄｅ,,株式会社,群馬県,太田市,高林東町１７８９番地２,,10,205,3730825,,,,,,,2024-09-17,1,,,,,ヴェルデ,0
105,1080405007664,新規,0,2024-09-17,2024-09-17,農事組合法人大山ファーム,,その他の設立登記法人,静岡県,浜松市中央区,高丘北３丁目１９番１号レリブ高丘２０１,,22,138,4338119,,,,,,,2024-09-17,1,,,,,オオヤマファーム,0
106,1100001037848,新規,0,2024-09-17,2024-09-17,株式会社ＮＡＫＡＭＡＴＳＵＩ　ＦＡＲＭ,,株式会社,長野県,小諸市,松井１丁目２番１０号,,20,208,3840022,,,,,,,2024-09-17,1,,,,,ナカマツイファーム,0
107,1100003007782,新規,0,2024-09-17,2024-09-17,Ｓｙｎｅｒｇｙ合同会社,,合同会社,長野県,安曇野市,穂高有明５７１８番地２９２松泉２－５,,20,220,3998301,,,,,,,2024-09-17,1,,,,,シナジー,0
110,1110001038713,新規,0,2024-09-17,2024-09-17,スノーダック株式会社,,株式会社,新潟県,南魚沼郡湯沢町,湯沢１丁目１番地４,,15,461,9496101,,,,,,,2024-09-17,1,,,,,スノーダック,0
120,1120001268607,新規,0,2024-09-17,2024-09-17,インマヌエル株式会社,,株式会社,大阪府,大阪市浪速区,恵美須東２丁目６番１５－５０３号,,27,111,5560002,,,,,,,2024-09-17,1,,,,,インマヌエル,0
122,1120003027498,新規,0,2024-09-17,2024-09-17,合同会社フラット,,合同会社,大阪府,枚方市,渚南町３９番２８－１０７号,,27,210,5731183,,,,,,,2024-09-17,1,,,,,フラット,0
123,1120005024535,新規,0,2024-09-17,2024-09-17,一般社団法人日中農業商務促進会,,その他の設立登記法人,大阪府,大阪市中央区,北久宝寺町４丁目３番８号,,27,128,5410057,,,,,,,2024-09-17,1,,,,,ニッチュウノウギョウショウムソクシンカイ,0
124,1120101070292,新規,0,2024-09-17,2024-09-17,株式会社ｈａｎａ,,株式会社,大阪府,羽曳野市,羽曳が丘９丁目２５番１１号,,27,222,5830864,,,,,,,2024-09-17,1,,,,,ハナ,0
125,1120101070301,新規,0,2024-09-17,2024-09-17,株式会社ＮＳ企画,,株式会社,大阪府,河内長野市,錦町１０番９号,,27,216,5860031,,,,,,,2024-09-17,1,,,,,エヌエスキカク,0
126,1120103006055,新規,0,2024-09-17,2024-09-17,合同会社雅,,合同会社,大阪府,堺市北区,百舌鳥赤畑町３丁２００－１メゾンサンテ２０３号,,27,146,5918037,,,,,,,2024-09-17,1,,,,,ミヤビ,0
133,1122003003000,新規,0,2024-09-17,2024-09-17,合同会社縁明,,合同会社,大阪府,東大阪市,布市町１丁目１０番２６－４０６号,,27,227,5798004,,,,,,,2024-09-17,1,,,,,エンメイ,0
140,1130001077957,新規,0,2024-09-17,2024-09-17,にゃんハンド株式会社,,株式会社,京都府,京都市山科区,西野山百々町１４２番地１,,26,110,6078301,,,,,,,2024-09-17,1,,,,,ニャンハンド,0
150,1150001027563,新規,0,2024-09-17,2024-09-17,株式会社プライムグローバル,,株式会社,奈良県,奈良市,大安寺５丁目２－６タクティ大安寺４０６号室,,29,201,6308133,,,,,,,2024-09-17,1,,,,,プライムグローバル,0
160,1180001163224,新規,0,2024-09-17,2024-09-17,株式会社ジンノ鋼業,,株式会社,愛知県,名古屋市港区,明正２丁目１７７番地,,23,111,4550806,,,,,,,2024-09-17,1,,,,,ジンノコウギョウ,0
161,1180001163240,新規,0,2024-09-17,2024-09-17,株式会社ＣＡＬ,,株式会社,愛知県,清須市,西枇杷島町地領２丁目３番地２８,,23,233,4520008,,,,,,,2024-09-17,1,,,,,キャル,0
165,1180003027344,新規,0,2024-09-17,2024-09-17,合同会社ＤＡＮＣＥ　ＦＵＳＩＯＮ,,合同会社,愛知県,名古屋市瑞穂区,彌富町字紅葉園７番地,,23,108,4670032,,,,,,,2024-09-17,1,,,,,ダンスフュージョン,0
166,1180003027352,新規,0,2024-09-17,2024-09-17,合同会社Ｒｉｎｄｏｍ,,合同会社,愛知県,名古屋市南区,豊４丁目３－１５ニュー堀田サンハイツＢ２０７,,23,112,4570863,,,,,,,2024-09-17,1,,,,,リンドム,0
167,1180005020768,新規,0,2024-09-17,2024-09-17,一般社団法人よりそうホットライン,,その他の設立登記法人,愛知県,名古屋市東区,代官町３９番１８号日本陶磁器センタービル５階,,23,102,4610002,,,,,,,2024-09-17,1,,,,,ヨリソウホットライン,0
169,1180301039058,新規,0,2024-09-17,2024-09-17,株式会社ＳＨＩＢＡＺＯ,,株式会社,愛知県,岡崎市,岡町字北石原２１番地,,23,202,4440005,,,,,,,2024-09-17,1,,,,,シバゾウ,0
171,1190001031644,新規,0,2024-09-17,2024-09-17,Ｆｏｕｒ　ｂｙ　Ｆｏｕｒ株式会社,,株式会社,三重県,志摩市,阿児町国府１１２０番地２,,24,215,5170506,,,,,,,2024-09-17,1,,,,,フォーバイフォー,0
173,1200001042937,新規,0,2024-09-17,2024-09-17,株式会社中島,,株式会社,岐阜県,加茂郡川辺町,下川辺６７３番地９,,21,503,5090306,,,,,,,2024-09-17,1,,,,,ナカシマ,0
175,1210005010162,新規,0,2024-09-17,2024-09-17,医療法人東英会,,その他の設立登記法人,福井県,福井市,二の宮５丁目５番２５号,,18,201,9100015,,,,,,,2024-09-17,1,,,,,トウエイカイ,0
189,1240001063806,新規,0,2024-09-17,2024-09-17,株式会社ビューテクノ,,株式会社,広島県,広島市中区,吉島西３丁目１０番１２号,,34,101,7300823,,,,,,,2024-09-17,1,,,,,ビューテクノ,0
190,1240001063822,新規,0,2024-09-17,2024-09-17,株式会社ａｎｄＢＲ,,株式会社,広島県,広島市中区,中町２番１２号,,34,101,7300037,,,,,,,2024-09-17,1,,,,,アンドビーアール,0
192,1240003006853,新規,0,2024-09-17,2024-09-17,合同会社ＥＳＩ,,合同会社,広島県,広島市安佐南区,川内６丁目３３番１５号,,34,105,7310102,,,,,,,2024-09-17,1,,,,,イーエスアイ,0
207,1290001107285,新規,0,2024-09-17,2024-09-17,ＤＰ　Ｃｏｍｐａｎｙ株式会社,,株式会社,福岡県,福岡市中央区,赤坂３丁目１番２３号,,40,133,8100042,,,,,,,2024-09-17,1,,,,,ディーピーカンパニー,0
210,1290003015817,新規,0,2024-09-17,2024-09-17,Ｃｏｎｖｅｒｓｉｏｎ　Ｍａｒｋｅｔｉｎｇ　Ｓｏｌｕｔｉｏｎｓ合同会社,,合同会社,福岡県,福岡市西区,生の松原２丁目１４番１８－１号,,40,135,8190055,,,,,,,2024-09-17,1,,,,,コンバージョンマーケティングソリューションズ,0
221,1320005010184,新規,0,2024-09-17,2024-09-17,Ｍ＆Ｙ事業協同組合,,その他の設立登記法人,大分県,大分市,府内町１丁目１番地の１５,,44,201,8700021,,,,,,,2024-09-17,1,,,,,エムアンドワイジギョウ,0
225,1350001019185,新規,0,2024-09-17,2024-09-17,株式会社ＳＯＵＬ　ＧＲＯＷＳ,,株式会社,宮崎県,宮崎市,橘通東２丁目５番６号,,45,201,8800805,,,,,,,2024-09-17,1,,,,,ソウルグロース,0
239,1380001034784,新規,0,2024-09-17,2024-09-17,株式会社カンナケア,,株式会社,福島県,いわき市,小名浜住吉字飯塚２番地の１,,07,204,9718124,,,,,,,2024-09-17,1,,,,,カンナケア,0
241,1400003003322,新規,0,2024-09-17,2024-09-17,合同会社あめいろ,,合同会社,岩手県,和賀郡西和賀町,沢内前郷４地割１０５番地１,,03,366,0295500,,,,,,,2024-09-17,1,,,,,,0
244,1430001092686,新規,0,2024-09-17,2024-09-17,株式会社マル,,株式会社,北海道,札幌市北区,北二十九条西１２丁目３番３号第２角栄ビル,,01,102,0010029,,,,,,,2024-09-17,1,,,,,マル,0
248,1430003016783,新規,0,2024-09-17,2024-09-17,合同会社ａｅｔｅ,,合同会社,北海道,札幌市清田区,美しが丘二条４丁目１６番２号,,01,110,0040812,,,,,,,2024-09-17,1,,,,,アエテ,0
260,1700150127166,新規,0,2024-09-17,2024-09-17,秦野市戸川土地区画整理組合,,その他,神奈川県,秦野市,戸川８００,,14,211,2591306,,,,,,,2024-09-17,1,,,,,ハダノシトカワトチクカクセイリクミアイ,0
265,2010001248016,新規,0,2024-09-17,2024-09-17,お役所クラウド株式会社,,株式会社,東京都,千代田区,神田須田町１丁目５番地,,13,101,1010041,,,,,,,2024-09-17,1,,,,,オヤクショクラウド,0
266,2010001248321,新規,0,2024-09-17,2024-09-17,ＤＸ‐ＷＩＮ株式会社,,株式会社,東京都,中央区,日本橋室町１丁目１１番１２号日本橋水野ビル７階,,13,102,1030022,,,,,,,2024-09-17,1,,,,,ディーエックスウィン,0
267,2010003044933,新規,0,2024-09-17,2024-09-17,ＭＲ　Ｃｒｅａｔｉｏｎ合同会社,,合同会社,東京都,中央区,銀座１丁目２２番１１号銀座大竹ビジデンス２Ｆ,,13,102,1040061,,,,,,,2024-09-17,1,,,,,エムアールクリエーション,0
273,2010401185098,新規,0,2024-09-17,2024-09-17,株式会社ＢｉｇＦｉｅｌｄＴｅｃｈｎｏｌｏｇｉｅｓ,,株式会社,東京都,港区,六本木７丁目１７－２０六本木明泉ビル,,13,103,1060032,,,,,,,2024-09-17,1,,,,,ビッグフィールドテクノロジーズ,0
274,2010401185164,新規,0,2024-09-17,2024-09-17,株式会社ＰＲＡＥＳＩＧＮＩＳ,,株式会社,東京都,港区,北青山１丁目３番１号アールキューブ青山３階,,13,103,1070061,,,,,,,2024-09-17,1,,,,,プライシーグニス,0
275,2010401185206,新規,0,2024-09-17,2024-09-17,株式会社エムオーイー,,株式会社,東京都,港区,浜松町２丁目２番１５号浜松町ダイヤビル２Ｆ,,13,103,1050013,,,,,,,2024-09-17,1,,,,,エムオーイー,0
278,2010601065926,新規,0,2024-09-17,2024-09-17,株式会社Ｙ’ｓ　ＢＣ,,株式会社,東京都,江東区,亀戸９丁目３４番２１号ベルレガーロ１０２,,13,108,1360071,,,,,,,2024-09-17,1,,,,,ワイズビーシー,0
280,2010603011085,新規,0,2024-09-17,2024-09-17,ＴＲＡ　Ｉｎｔｅｒｎａｔｉｏｎａｌ合同会社,,合同会社,東京都,江東区,豊洲６丁目２番３１－２１１７号,,13,108,1350061,,,,,,,2024-09-17,1,,,,,ティーアールエーインターナショナル,0
281,2010703007347,新規,0,2024-09-17,2024-09-17,羽田野商会合同会社,,合同会社,東京都,品川区,平塚１丁目６番２０号キャピタル８０８－４０１号室,,13,109,1420051,,,,,,,2024-09-17,1,,,,,ハタノショウカイ,0
285,2010903009358,新規,0,2024-09-17,2024-09-17,合同会社Ｇｒｏｏｖｅ,,合同会社,東京都,世田谷区,玉川３丁目１－１６－７０２,,13,112,1580094,,,,,,,2024-09-17,1,,,,,グルーヴ,0
290,2011001164624,新規,0,2024-09-17,2024-09-17,ＳＧＱ株式会社,,株式会社,東京都,渋谷区,富ヶ谷１丁目１４－１４スタンフォードアネックスビル３Ｆ・４Ｆ,,13,113,1510063,,,,,,,2024-09-17,1,,,,,エスジーキュー,0
293,2011003019966,新規,0,2024-09-17,2024-09-17,合同会社内藤,,合同会社,東京都,渋谷区,猿楽町１６番１１－２１１号ウェリス代官山猿楽町,,13,113,1500033,,,,,,,2024-09-17,1,,,,,ナイトウ,0
296,2011101108737,新規,0,2024-09-17,2024-09-17,株式会社ＡＲＯＮ,,株式会社,東京都,新宿区,新宿１丁目３６番２号新宿第七葉山ビル３階,,13,104,1600022,,,,,,,2024-09-17,1,,,,,アロン,0
298,2011201025782,新規,0,2024-09-17,2024-09-17,株式会社コネクト一級建築士事務所,,株式会社,東京都,中野区,新井４丁目１５－５中野薬師マンション４０３,,13,114,1650026,,,,,,,2024-09-17,1,,,,,コネクトイッキュウケンチクシジムショ,0
301,2011401026432,新規,0,2024-09-17,2024-09-17,株式会社実久,,株式会社,東京都,板橋区,小茂根１丁目１９番６－２０１号,,13,119,1730037,,,,,,,2024-09-17,1,,,,,サク,0
303,2011501031142,新規,0,2024-09-17,2024-09-17,紐芬迪株式会社,,株式会社,東京都,荒川区,町屋３丁目１８番１２号ＮＤビル２２２,,13,118,1160001,,,,,,,2024-09-17,1,,,,,チュウフンテキ,0
304,2011701027618,新規,0,2024-09-17,2024-09-17,株式会社Ｔ‐ｍａｔｅ,,株式会社,東京都,江戸川区,東葛西６丁目１８－２０－１０３,,13,123,1340084,,,,,,,2024-09-17,1,,,,,ティーメイト,0
305,2012301014080,新規,0,2024-09-17,2024-09-17,町田ダイバーシティースクール株式会社,,株式会社,東京都,町田市,成瀬が丘２丁目２３番地５,,13,209,1940011,,,,,,,2024-09-17,1,,,,,マチダダイバーシティースクール,0
308,2012401042287,新規,0,2024-09-17,2024-09-17,株式会社ＴＥＲＲＡ,,株式会社,東京都,府中市,本宿町３丁目３３番地の４,,13,206,1830032,,,,,,,2024-09-17,1,,,,,テラ,0
309,2012403006736,新規,0,2024-09-17,2024-09-17,クリエイティブ合同会社,,合同会社,東京都,府中市,天神町４丁目７－１８,,13,206,1830053,,,,,,,2024-09-17,1,,,,,クリエイティブ,0
311,2012801023465,新規,0,2024-09-17,2024-09-17,株式会社ＴＯＹ　ＶＯＸ,,株式会社,東京都,立川市,羽衣町１丁目６番１０号２Ｆ,,13,202,1900021,,,,,,,2024-09-17,1,,,,,トイヴォック,0
315,2013301053110,新規,0,2024-09-17,2024-09-17,亜欣株式会社,,株式会社,東京都,豊島区,巣鴨１丁目３番７－５０１号,,13,116,1700002,,,,,,,2024-09-17,1,,,,,アキン,0
316,2013303007304,新規,0,2024-09-17,2024-09-17,合同会社リアリティパートナーズ,,合同会社,東京都,豊島区,池袋２丁目４番３号,,13,116,1710014,,,,,,,2024-09-17,1,,,,,リアリティパートナーズ,0
320,2020001159170,新規,0,2024-09-17,2024-09-17,株式会社Ｎリフォーム,,株式会社,神奈川県,横浜市西区,久保町１９番１８－１０１号,,14,103,2200061,,,,,,,2024-09-17,1,,,,,エヌリフォーム,0
321,2020001159204,新規,0,2024-09-17,2024-09-17,株式会社アイウート,,株式会社,神奈川県,横浜市鶴見区,小野町６番地５ミラリオ鶴見小野７０９,,14,101,2300046,,,,,,,2024-09-17,1,,,,,アイウート,0
322,2020003026889,新規,0,2024-09-17,2024-09-17,合同会社ｉｃｅ,,合同会社,神奈川県,横浜市西区,平沼２丁目７番２０－１０３号,,14,103,2200023,,,,,,,2024-09-17,1,,,,,アイス,0
323,2020003026897,新規,0,2024-09-17,2024-09-17,合同会社ＳＲＳ,,合同会社,神奈川県,川崎市多摩区,長沢１丁目３３番８－１０２号,,14,135,2140035,,,,,,,2024-09-17,1,,,,,エスアールエス,0
326,2021001083229,新規,0,2024-09-17,2024-09-17,皓景株式会社,,株式会社,神奈川県,秦野市,南矢名２２２３番地の４東海ビル１０５Ａ,,14,211,2570003,,,,,,,2024-09-17,1,,,,,コウケイ,0
327,2021001083253,新規,0,2024-09-17,2024-09-17,ベジエネ株式会社,,株式会社,神奈川県,厚木市,妻田北２丁目１９番１９号,,14,212,2430812,,,,,,,2024-09-17,1,,,,,ベジエネ,0
330,2030001162520,新規,0,2024-09-17,2024-09-17,株式会社Ｇｒａｐｅｕｐ,,株式会社,埼玉県,川口市,幸町２丁目８番３３号川口パークホームズプライムコート６０１,,11,203,3320016,,,,,,,2024-09-17,1,,,,,グレープアップ,0
332,2030003025097,新規,0,2024-09-17,2024-09-17,合同会社ジブロ,,合同会社,埼玉県,さいたま市中央区,鈴谷６丁目３番１－３０１号,,11,105,3380013,,,,,,,2024-09-17,1,,,,,ジブロ,0
333,2030003025130,新規,0,2024-09-17,2024-09-17,Ｅ・Ｃ　ＯＲＣＡ合同会社,,合同会社,埼玉県,鴻巣市,本町４丁目７番１４号スマイルビルＦ２０１号室,,11,217,3650038,,,,,,,2024-09-17,1,,,,,イーシーオルカ,0
334,2040001135426,新規,0,2024-09-17,2024-09-17,アクティフス在宅ケア株式会社,,株式会社,千葉県,市原市,馬立１６１５番地１８,,12,219,2900221,,,,,,,2024-09-17,1,,,,,アクティフスザイタクケア,0
335,2040001135442,新規,0,2024-09-17,2024-09-17,株式会社Ｍｅｓｓｉａｈ,,株式会社,千葉県,木更津市,大和２丁目１４番５号,,12,206,2920805,,,,,,,2024-09-17,1,,,,,メシア,0
345,2060001037496,新規,0,2024-09-17,2024-09-17,株式会社光明,,株式会社,栃木県,栃木市,大宮町１２９６番地,,09,203,3280011,,,,,,,2024-09-17,1,,,,,コウミョウ,0
346,2070001042181,新規,0,2024-09-17,2024-09-17,株式会社モータータウン,,株式会社,群馬県,伊勢崎市,香林町１丁目２０６番地６,,10,204,3792206,,,,,,,2024-09-17,1,,,,,モータータウン,0
355,2110001038704,新規,0,2024-09-17,2024-09-17,株式会社さっぷる,,株式会社,新潟県,新潟市東区,月見町１３番１６号１,,15,102,9500061,,,,,,,2024-09-17,1,,,,,サップル,0
360,2120001268572,新規,0,2024-09-17,2024-09-17,華奥株式会社,,株式会社,大阪府,大阪市淀川区,木川西１丁目６番２７号３０２Ｂ２,,27,123,5320013,,,,,,,2024-09-17,1,,,,,カオウ,0
361,2120001268606,新規,0,2024-09-17,2024-09-17,株式会社ＫＹコーポレーション,,株式会社,大阪府,大阪市生野区,田島６丁目７－３,,27,116,5440011,,,,,,,2024-09-17,1,,,,,ケーワイコーポレーション,0
366,2120003027539,新規,0,2024-09-17,2024-09-17,ＳＵＮＮＹ合同会社,,合同会社,大阪府,大阪市東成区,大今里１丁目４番１６－１０２号,,27,115,5370012,,,,,,,2024-09-17,1,,,,,サニー,0
367,2120003027547,新規,0,2024-09-17,2024-09-17,合同会社ＡＲＴＥＭＩＳ,,合同会社,大阪府,大阪市中央区,道修町２丁目６番７号淀屋橋近藤ビル４０１,,27,128,5410045,,,,,,,2024-09-17,1,,,,,アーティミス,0
368,2120005024534,新規,0,2024-09-17,2024-09-17,一般社団法人みなみもりまち相続プラザ,,その他の設立登記法人,大阪府,大阪市北区,西天満５丁目１０番１６号,,27,127,5300047,,,,,,,2024-09-17,1,,,,,ミナミモリマチソウゾクプラザ,0
369,2120101070291,新規,0,2024-09-17,2024-09-17,株式会社ＢＬＵＥ,,株式会社,大阪府,松原市,東新町５丁目１３番３０号,,27,217,5800024,,,,,,,2024-09-17,1,,,,,ブルー,0
371,2120901049766,新規,0,2024-09-17,2024-09-17,株式会社コネクト,,株式会社,大阪府,茨木市,南耳原２丁目５番６号の１,,27,211,5670004,,,,,,,2024-09-17,1,,,,,コネクト,0
372,2120901049782,新規,0,2024-09-17,2024-09-17,くすのき株式会社,,株式会社,大阪府,吹田市,垂水町２丁目２５番１－２０９号,,27,205,5640062,,,,,,,2024-09-17,1,,,,,クスノキ,0
374,2130001077948,新規,0,2024-09-17,2024-09-17,株式会社サウスイースト２１,,株式会社,京都府,京都市東山区,本町２１丁目４８１番地１０,,26,105,6050981,,,,,,,2024-09-17,1,,,,,サウスイーストニジュウイチ,0
377,2140001135738,新規,0,2024-09-17,2024-09-17,Ｍ．Ｒ．ＳＨＩＮＪＵ株式会社,,株式会社,兵庫県,神戸市中央区,中山手通２丁目１５番１３号サンシャイン山手４０８,,28,110,6500004,,,,,,,2024-09-17,1,,,,,エムアールシンジュ,0
378,2140001135795,新規,0,2024-09-17,2024-09-17,株式会社燈,,株式会社,兵庫県,神戸市中央区,山本通２丁目９番１９号旧スタデニック邸,,28,110,6500003,,,,,,,2024-09-17,1,,,,,トモシビ,0
383,2150003003371,新規,0,2024-09-17,2024-09-17,合同会社Ｈａｒｅ　Ｂａｒｅ,,合同会社,奈良県,生駒市,東菜畑１丁目２６２番地１,,29,209,6300215,,,,,,,2024-09-17,1,,,,,ハレバレ,0
384,2160005011339,新規,0,2024-09-17,2024-09-17,一般社団法人ミカタＫＩＤＳフリースクール,,その他の設立登記法人,滋賀県,守山市,焔魔堂町４９番地１,,25,207,5240042,,,,,,,2024-09-17,1,,,,,ミカタキッズフリースクール,0
391,2180001163256,新規,0,2024-09-17,2024-09-17,株式会社ｍｏｎｔａｇｅ,,株式会社,愛知県,名古屋市千種区,清明山２丁目１番２１号,,23,101,4640087,,,,,,,2024-09-17,1,,,,,モンタージュ,0
392,2180001163264,新規,0,2024-09-17,2024-09-17,株式会社ａｕｒａ,,株式会社,愛知県,名古屋市西区,貴生町２３番地の３アートプレイスＴ２－１Ｆ,,23,104,4520816,,,,,,,2024-09-17,1,,,,,オーラ,0
393,2180001163272,新規,0,2024-09-17,2024-09-17,株式会社ＡＳＴＹ,,株式会社,愛知県,名古屋市中村区,名駅５丁目４－１４花車ビル北館１－２階,,23,105,4500002,,,,,,,2024-09-17,1,,,,,アスティ,0
395,2180003027319,新規,0,2024-09-17,2024-09-17,ＵＭＩコンサルティング合同会社,,合同会社,愛知県,名古屋市千種区,星が丘山手４０１番地グランドメゾン星が丘山手Ｄ１２１５,,23,101,4640808,,,,,,,2024-09-17,1,,,,,ウミコンサルティング,0
405,2220001026210,新規,0,2024-09-17,2024-09-17,辰口開発株式会社,,株式会社,石川県,能美市,辰口町４８５番地１,,17,211,9231245,,,,,,,2024-09-17,1,,,,,タツノクチカイハツ,0
421,2290001107276,新規,0,2024-09-17,2024-09-17,きみこ株式会社,,株式会社,福岡県,福岡市南区,大橋４丁目２１番２３号リトルガーデン２０２号室,,40,134,8150033,,,,,,,2024-09-17,1,,,,,キミコ,0
423,2290803004844,新規,0,2024-09-17,2024-09-17,合同会社ミヤエイ,,合同会社,福岡県,北九州市若松区,浜町１丁目１２番２０号,,40,103,8080024,,,,,,,2024-09-17,1,,,,,ミヤエイ,0
426,2310003004865,新規,0,2024-09-17,2024-09-17,Ｃａｐｌｉｎｅ合同会社,,合同会社,長崎県,壱岐市,郷ノ浦町片原触１１９５番地１第二ハイツヤマシタ２０１号,,42,210,8115136,,,,,,,2024-09-17,1,,,,,キャプライン,0
433,2350001019184,新規,0,2024-09-17,2024-09-17,株式会社Ｐｌａｙ　Ｖａｌｕｅ,,株式会社,宮崎県,延岡市,古城町５丁目４番地１,,45,203,8820837,,,,,,,2024-09-17,1,,,,,プレイバリュー,0
435,2360003014298,新規,0,2024-09-17,2024-09-17,合同会社カミカド沖縄,,合同会社,沖縄県,中頭郡中城村,字当間９９０番地１,,47,328,9012406,,,,,,,2024-09-17,1,,,,,カミカドオキナワ,0
442,2420001018864,新規,0,2024-09-17,2024-09-17,大間奥戸風力発電株式会社,,株式会社,青森県,下北郡大間町,大字奥戸字向町８５番地６,,02,423,0394602,,,,,,,2024-09-17,1,,,,,オオマオコッペフウリョクハツデン,0
444,2430001092669,新規,0,2024-09-17,2024-09-17,株式会社ゲット,,株式会社,北海道,札幌市北区,篠路八条１丁目２番２８号,,01,102,0028028,,,,,,,2024-09-17,1,,,,,ゲット,0
445,2430001092677,新規,0,2024-09-17,2024-09-17,ＭＴＭ　ＨＯＫＫＡＩＤＯ株式会社,,株式会社,北海道,札幌市西区,西野八条１０丁目６番５号,,01,107,0630038,,,,,,,2024-09-17,1,,,,,エムティーエムホッカイドウ,0
446,2430001092685,新規,0,2024-09-17,2024-09-17,プルーデントプランニング株式会社,,株式会社,北海道,札幌市東区,北八条東４丁目１番２０号,,01,103,0600908,,,,,,,2024-09-17,1,,,,,プルーデントプランニング,0
447,2430001092693,新規,0,2024-09-17,2024-09-17,株式会社ぼにーと,,株式会社,北海道,札幌市中央区,北六条西１８丁目１１‐１,,01,101,0600006,,,,,,,2024-09-17,1,,,,,,0
451,2430003016790,新規,0,2024-09-17,2024-09-17,合同会社ＨＸＥ,,合同会社,北海道,虻田郡洞爺湖町,洞爺町３００番地１２,,01,584,0495802,,,,,,,2024-09-17,1,,,,,エイチエックスイー,0
452,2430003016799,新規,0,2024-09-17,2024-09-17,ＤＡＬＩ合同会社,,合同会社,北海道,札幌市中央区,南六条西３丁目６番５９号,,01,101,0640806,,,,,,,2024-09-17,1,,,,,,0
453,2460101007607,新規,0,2024-09-17,2024-09-17,株式会社Ｔａｉｋｉ　Ｃｏｓｍｉｃ　Ｇｌｅｎ　Ｄｉｓｔｉｌｌｅｒｙ,,株式会社,北海道,広尾郡大樹町,三条通１８番地３,,01,641,0892143,,,,,,,2024-09-17,1,,,,,タイキコズミックグレンディスティラリー,0
465,3010001248122,新規,0,2024-09-17,2024-09-17,株式会社ＳＳＰ　ＭＯＵＬＤＩＮＧ　ＪＡＰＡＮ,,株式会社,東京都,中央区,八重洲２丁目１番１号ＹＡＮＭＡＲＴＯＫＹＯ１２階,,13,102,1040028,,,,,,,2024-09-17,1,,,,,エスエスピーモールディングジャパン,0
466,3010001248295,新規,0,2024-09-17,2024-09-17,株式会社ＭｉｒａＩｅ,,株式会社,東京都,文京区,本郷６丁目６番６－３０６号,,13,105,1130033,,,,,,,2024-09-17,1,,,,,ミライエ,0
467,3010001248320,新規,0,2024-09-17,2024-09-17,株式会社ＣＯＮＮＥＣＴ　ＡＧＥＮＣＹ,,株式会社,東京都,文京区,西片２丁目２４番５号,,13,105,1130024,,,,,,,2024-09-17,1,,,,,コネクトエージェンシー,0
468,3010001248353,新規,0,2024-09-17,2024-09-17,株式会社ＧＥＶ　Ｆａｒ　Ｅａｓｔ,,株式会社,東京都,千代田区,九段南４丁目３番４号Ｐｏｌａｒ九段,,13,101,1020074,,,,,,,2024-09-17,1,,,,,ジーイーヴィーファーイースト,0
469,3010003044874,新規,0,2024-09-17,2024-09-17,合同会社スサノオ,,合同会社,東京都,千代田区,丸の内１丁目４番１号東京共同会計事務所内,,13,101,1000005,,,,,,,2024-09-17,1,,,,,スサノオ,0
470,3010003044916,新規,0,2024-09-17,2024-09-17,武蔵小山プロパティー合同会社,,合同会社,東京都,千代田区,丸の内１丁目１１番１号,,13,101,1000005,,,,,,,2024-09-17,1,,,,,ムサシコヤマプロパティー,0
471,3010005038817,新規,0,2024-09-17,2024-09-17,一般社団法人日本脱炭素機構,,その他の設立登記法人,東京都,中央区,京橋２丁目１２番６号ＡＯＪ税理士法人内,,13,102,1040031,,,,,,,2024-09-17,1,,,,,ニホンダツタンソキコウ,0
472,3010005038825,新規,0,2024-09-17,2024-09-17,一般社団法人ＭＲＦ１,,その他の設立登記法人,東京都,千代田区,丸の内１丁目４番１号東京共同会計事務所内,,13,101,1000005,,,,,,,2024-09-17,1,,,,,エムアールエフワン,0
473,3010101016321,新規,0,2024-09-17,2024-09-17,株式会社祐進土建,,株式会社,東京都,八王子市,西寺方町２５番地５,,13,201,1920153,,,,,,,2024-09-17,1,,,,,ユウシンドケン,0
484,3010401184990,新規,0,2024-09-17,2024-09-17,ＯｒｉｇｉｎＳｃａｎＬａｂ株式会社,,株式会社,東京都,港区,六本木７丁目１９－９ＶＯＲＴ六本木５Ｆ,,13,103,1060032,,,,,,,2024-09-17,1,,,,,オリジンスキャンラボ,0
485,3010401185015,新規,0,2024-09-17,2024-09-17,株式会社ｗｏｎｄｅｒｗｏｒｌｄ　Ｊａｐａｎ,,株式会社,東京都,港区,赤坂２丁目８番１４－４０７号,,13,103,1070052,,,,,,,2024-09-17,1,,,,,ワンダーワールドジャパン,0
486,3010401185097,新規,0,2024-09-17,2024-09-17,株式会社Ｌ,,株式会社,東京都,港区,北青山１丁目３番１号アールキューブ青山３階,,13,103,1070061,,,,,,,2024-09-17,1,,,,,エル,0
493,3010603011092,新規,0,2024-09-17,2024-09-17,美最艶合同会社,,合同会社,東京都,江東区,有明３丁目７番２６号有明フロンティアビルＢ棟９階,,13,108,1350063,,,,,,,2024-09-17,1,,,,,ミモエ,0
496,3011001164615,新規,0,2024-09-17,2024-09-17,Ｎ＆Ａプロパティーズ株式会社,,株式会社,東京都,目黒区,下目黒６丁目１２番２４－４２５号シティハウス下目黒,,13,110,1530064,,,,,,,2024-09-17,1,,,,,エヌアンドエープロパティーズ,0
497,3011001164697,新規,0,2024-09-17,2024-09-17,株式会社イチマルク,,株式会社,東京都,目黒区,五本木２丁目１３番２号１Ｆ,,13,110,1530053,,,,,,,2024-09-17,1,,,,,イチマルク,0
498,3011003020007,新規,0,2024-09-17,2024-09-17,合同会社ミクジ,,合同会社,東京都,渋谷区,道玄坂１丁目１０－８渋谷道玄坂東急ビル２Ｆ－Ｃ,,13,113,1500043,,,,,,,2024-09-17,1,,,,,ミクジ,0
499,3011003020015,新規,0,2024-09-17,2024-09-17,合同会社ＧＯＲＩから,,合同会社,東京都,渋谷区,本町４丁目２２番１０－５０１号,,13,113,1510071,,,,,,,2024-09-17,1,,,,,ゴリカラ,0
500,3011003020031,新規,0,2024-09-17,2024-09-17,セラヴィ合同会社,,合同会社,東京都,目黒区,駒場１丁目４３番８－５０４号,,13,110,1530041,,,,,,,2024-09-17,1,,,,,セラヴィ,0
501,3011005010690,新規,0,2024-09-17,2024-09-17,一般社団法人髭犬祭,,その他の設立登記法人,東京都,渋谷区,渋谷２丁目２番４号３０３,,13,113,1500002,,,,,,,2024-09-17,1,,,,,ヒゲイヌマツリ,0
506,3011103014932,新規,0,2024-09-17,2024-09-17,合同会社そう,,合同会社,東京都,新宿区,西新宿７丁目１８－５ＶＯＲＴ西新宿５０２,,13,104,1600023,,,,,,,2024-09-17,1,,,,,ソウ,0
511,3011401026423,新規,0,2024-09-17,2024-09-17,株式会社ＮＯＡＨ,,株式会社,東京都,板橋区,徳丸８丁目３番１１号メゾンヒルトップ２０５,,13,119,1750083,,,,,,,2024-09-17,1,,,,,ノア,0
512,3011401026431,新規,0,2024-09-17,2024-09-17,株式会社徳徳,00136313,株式会社,東京都,板橋区,板橋１丁目２６番１号ハイツヤギシタ１０１,,13,119,1730004,,,,,,,2024-09-17,1,,,,,トクトク,0
517,3011501031141,新規,0,2024-09-17,2024-09-17,ＣＹＷ株式会社,,株式会社,東京都,荒川区,町屋３丁目１８番１２号ＮＤビル２０３,,13,118,1160001,,,,,,,2024-09-17,1,,,,,シーワイダブリュー,0
518,3011501031158,新規,0,2024-09-17,2024-09-17,ｂｕｔｔｅｒｆｌｙ　ｅｆｆｅｃｔ株式会社,,株式会社,東京都,北区,田端３丁目１４番１２号,,13,117,1140014,,,,,,,2024-09-17,1,,,,,バタフライエフェクト,0
521,3011801044842,新規,0,2024-09-17,2024-09-17,ＨＥＥＰＰＩＮＧ株式会社,,株式会社,東京都,足立区,西新井栄町２丁目３番７号２０８号室,,13,121,1230843,,,,,,,2024-09-17,1,,,,,ヒピング,0
533,3012403006743,新規,0,2024-09-17,2024-09-17,ｆａｂｏｏ合同会社,,合同会社,東京都,武蔵野市,緑町１丁目６番１号,,13,203,1800012,,,,,,,2024-09-17,1,,,,,ファブー,0
535,3012703003093,新規,0,2024-09-17,2024-09-17,合同会社丸に三つ柏,,合同会社,東京都,東村山市,栄町２丁目２７番地５５,,13,213,1890013,,,,,,,2024-09-17,1,,,,,マルニミツガシワ,0
537,3013303007311,新規,0,2024-09-17,2024-09-17,グランファシリティマネジメント合同会社,,合同会社,東京都,豊島区,西池袋１丁目９番２号,,13,116,1710021,,,,,,,2024-09-17,1,,,,,,0
541,3020001159070,新規,0,2024-09-17,2024-09-17,株式会社スターヌラ・ジャパン,,株式会社,神奈川県,横浜市中区,山手町１８６番地,,14,104,2310862,,,,,,,2024-09-17,1,,,,,スターヌラジャパン,0
542,3020001159186,新規,0,2024-09-17,2024-09-17,株式会社たぬコム,,株式会社,神奈川県,川崎市川崎区,小川町９－４ビッグガーデン小川町２０２,,14,131,2100023,,,,,,,2024-09-17,1,,,,,タヌコム,0
543,3020001159244,新規,0,2024-09-17,2024-09-17,日本京都株式会社,,株式会社,神奈川県,横浜市鶴見区,生麦１丁目５－２０フルール横浜２０６,,14,101,2300052,,,,,,,2024-09-17,1,,,,,ニホンキョウト,0
549,3020003026896,新規,0,2024-09-17,2024-09-17,合同会社けすけっと,,合同会社,神奈川県,横浜市西区,北幸２丁目１０番４８号むつみビル３階,,14,103,2200004,,,,,,,2024-09-17,1,,,,,ケスケット,0
550,3020003026913,新規,0,2024-09-17,2024-09-17,モカら合同会社,,合同会社,神奈川県,横浜市都筑区,茅ケ崎東１丁目１３番１７号,,14,118,2240033,,,,,,,2024-09-17,1,,,,,モカラ,0
551,3021001083236,新規,0,2024-09-17,2024-09-17,ＴＥＰＥコンサルティング株式会社,,株式会社,神奈川県,鎌倉市,西鎌倉４丁目８番１号,,14,204,2480035,,,,,,,2024-09-17,1,,,,,テペコンサルティング,0
552,3021001083244,新規,0,2024-09-17,2024-09-17,株式会社シー・エス・ケーガレージ,,株式会社,神奈川県,小田原市,寿町５丁目１４－４,,14,206,2500002,,,,,,,2024-09-17,1,,,,,シーエスケーガレージ,0
553,3021001083252,新規,0,2024-09-17,2024-09-17,ビルドコマース株式会社,,株式会社,神奈川県,大和市,深見西２丁目１番３７号ビズテラス大和２０３,,14,213,2420018,,,,,,,2024-09-17,1,,,,,ビルドコマース,0
565,3040001135417,新規,0,2024-09-17,2024-09-17,グループジャパン株式会社,,株式会社,千葉県,市原市,五井中央東１丁目１３－７,,12,219,2900054,,,,,,,2024-09-17,1,,,,,グループジャパン,0
566,3040001135425,新規,0,2024-09-17,2024-09-17,株式会社Ｓｉｌｖｅｒ　Ｃｈａｒｉｏｔ,,株式会社,千葉県,市川市,八幡４丁目１０番５号,,12,203,2720021,,,,,,,2024-09-17,1,,,,,シルバーチャリオッツ,0
569,3040003025797,新規,0,2024-09-17,2024-09-17,合同会社いぶき,,合同会社,千葉県,柏市,富里１丁目３番２６号,,12,217,2770081,,,,,,,2024-09-17,1,,,,,イブキ,0
570,3040003025806,新規,0,2024-09-17,2024-09-17,合同会社宝花,,合同会社,千葉県,市原市,若宮１丁目１１番地９,,12,219,2900006,,,,,,,2024-09-17,1,,,,,ホウカ,0
574,3060001037495,新規,0,2024-09-17,2024-09-17,株式会社Ｒｅ．Ｃｏｎ,,株式会社,栃木県,栃木市,大宮町１２９６番地,,09,203,3280011,,,,,,,2024-09-17,1,,,,,レコン,0
576,3070001042189,新規,0,2024-09-17,2024-09-17,トキマテック株式会社,,株式会社,群馬県,高崎市,足門町１７２９番地,,10,202,3703531,,,,,,,2024-09-17,1,,,,,トキマテック,0
577,3080001026488,新規,0,2024-09-17,2024-09-17,株式会社ＴＳ,,株式会社,静岡県,静岡市葵区,芝原１８番地の９,,22,101,4200955,,,,,,,2024-09-17,1,,,,,ティーエス,0
584,3110001038711,新規,0,2024-09-17,2024-09-17,株式会社ウラツジ建設企画,,株式会社,新潟県,柏崎市,東本町２丁目７番４２号,,15,205,9450051,,,,,,,2024-09-17,1,,,,,ウラツジケンセツキカク,0
593,3120001268522,新規,0,2024-09-17,2024-09-17,ＭＩＣＢＯＮ株式会社,,株式会社,大阪府,大阪市北区,同心２丁目１０番２３号,,27,127,5300035,,,,,,,2024-09-17,1,,,,,ミクボン,0
595,3120003027554,新規,0,2024-09-17,2024-09-17,合同会社ＬＥＯ　ＣＡＰＩＴＡＬ　ＰＡＲＴＮＥＲＳ,,合同会社,大阪府,大阪市西区,新町２丁目５－１－１９０８号,,27,106,5500013,,,,,,,2024-09-17,1,,,,,レオキャピタルパートナーズ,0
597,3120005024533,新規,0,2024-09-17,2024-09-17,特定非営利活動法人おおさか相続相談室,,その他の設立登記法人,大阪府,大阪市中央区,鎗屋町１丁目３番１３号モダナーク６０２,,27,128,5400027,,,,,,,2024-09-17,1,,,,,オオサカソウゾクソウダンシツ,0
600,3120101070290,新規,0,2024-09-17,2024-09-17,アイ株式会社,,株式会社,大阪府,堺市南区,美木多上１７４番地２,,27,145,5900136,,,,,,,2024-09-17,1,,,,,アイ,0
601,3120103006053,新規,0,2024-09-17,2024-09-17,合同会社アニー動物病院,,合同会社,大阪府,堺市堺区,錦之町西１丁１番１５号サン堺ビル１０１,,27,141,5900931,,,,,,,2024-09-17,1,,,,,アニードウブツビョウイン,0
602,3120901049781,新規,0,2024-09-17,2024-09-17,株式会社コンフィアンサ,,株式会社,大阪府,高槻市,氷室町１丁目８番９号,,27,207,5691141,,,,,,,2024-09-17,1,,,,,コンフィアンサ,0
604,3122001038450,新規,0,2024-09-17,2024-09-17,株式会社Ｃ．Ｔ．Ｆ,,株式会社,大阪府,東大阪市,加納６丁目８番１２号,,27,227,5780901,,,,,,,2024-09-17,1,,,,,シーティーエフ,0
605,3122003002999,新規,0,2024-09-17,2024-09-17,合同会社マウン,,合同会社,大阪府,八尾市,陽光園２丁目６－３２,,27,212,5810086,,,,,,,2024-09-17,1,,,,,マウン,0
611,3130003009840,新規,0,2024-09-17,2024-09-17,合同会社サンライズ,,合同会社,京都府,与謝郡与謝野町,字四辻６１,00136321,26,465,6292312,,,,,,,2024-09-17,1,,,,,サンライズ,0
614,3140001135811,新規,0,2024-09-17,2024-09-17,株式会社きょうや不動産,,株式会社,兵庫県,神戸市須磨区,緑が丘２丁目６番１５号,,28,107,6540113,,,,,,,2024-09-17,1,,,,,キョウヤフドウサン,0
615,3140003021068,新規,0,2024-09-17,2024-09-17,合同会社Ｒ　Ｃｏｍｐａｎｙ,,合同会社,兵庫県,神戸市中央区,北長狭通１丁目３－１２オレゴンビル３Ｆ,,28,110,6500012,,,,,,,2024-09-17,1,,,,,アールカンパニー,0
623,3180001163214,新規,0,2024-09-17,2024-09-17,株式会社絆,,株式会社,愛知県,豊明市,三崎町高鴨３番地１,,23,229,4701126,,,,,,,2024-09-17,1,,,,,キズナ,0
624,3180001163255,新規,0,2024-09-17,2024-09-17,株式会社明橙舎,,株式会社,愛知県,大府市,中央町１丁目１７１番地２ピースフル大府３０２,,23,223,4740025,,,,,,,2024-09-17,1,,,,,メイトウシャ,0
625,3180001163263,新規,0,2024-09-17,2024-09-17,株式会社ｍｉｙａｂｉ,,株式会社,愛知県,名古屋市天白区,島田２丁目３０１番地,,23,116,4680056,,,,,,,2024-09-17,1,,,,,ミヤビ,0
632,3190001031642,新規,0,2024-09-17,2024-09-17,株式会社Ｓ’ｓメディカル,,株式会社,三重県,伊賀市,佐那具町９６３番地４,,24,216,5180001,,,,,,,2024-09-17,1,,,,,エスズメディカル,0
634,3200001042943,新規,0,2024-09-17,2024-09-17,新穂高雪の月ホテル株式会社,,株式会社,岐阜県,高山市,奥飛騨温泉郷神坂４１８番地,,21,203,5061421,,,,,,,2024-09-17,1,,,,,シンホダカユキノツキホテル,0
639,3240001063820,新規,0,2024-09-17,2024-09-17,アールデザイン株式会社,,株式会社,広島県,福山市,港町２丁目１８番６－５０４号,,34,207,7210964,,,,,,,2024-09-17,1,,,,,アールデザイン,0
651,3260003004894,新規,0,2024-09-17,2024-09-17,Ｔ４合同会社,,合同会社,岡山県,倉敷市,児島田の口２丁目１番３１号,,33,202,7110903,,,,,,,2024-09-17,1,,,,,ティーフォー,0
663,3330001032460,新規,0,2024-09-17,2024-09-17,株式会社Ｉ・ｄｅｓｉｇｎ一級建築士事務所,,株式会社,熊本県,菊池郡大津町,大字室１１３１番地,,43,403,8691235,,,,,,,2024-09-17,1,,,,,アイデザインイッキュウケンチクシジムショ,0
668,3350001019183,新規,0,2024-09-17,2024-09-17,株式会社レガーレ,,株式会社,宮崎県,都城市,郡元町２９１４番地３,,45,202,8850013,,,,,,,2024-09-17,1,,,,,レガーレ,0
670,3370001051721,新規,0,2024-09-17,2024-09-17,株式会社ピクアス,,株式会社,宮城県,仙台市青葉区,桜ケ丘１丁目１１番５号,,04,101,9810961,,,,,,,2024-09-17,1,,,,,ピクアス,0
675,3380003005856,新規,0,2024-09-17,2024-09-17,合同会社エステート・ケイ,,合同会社,福島県,いわき市,内郷綴町柴崎５４番地ヒルサイドマンション２ー１０５,,07,204,9738403,,,,,,,2024-09-17,1,,,,,エステートケイ,0
678,3400001016786,新規,0,2024-09-17,2024-09-17,株式会社Ａｓｕｋａ,,株式会社,岩手県,一関市,宮下町１２番５－２号トゥー・ル・モンド宮下Ｂ棟,,03,209,0210013,,,,,,,2024-09-17,1,,,,,アスカ,0
684,3420003002997,新規,0,2024-09-17,2024-09-17,合同会社ケアサポートちとせ,,合同会社,青森県,青森市,浜館４丁目１２番地５,,02,201,0300947,,,,,,,2024-09-17,1,,,,,ケアサポートチトセ,0
685,3430001092668,新規,0,2024-09-17,2024-09-17,超楽株式会社,,株式会社,北海道,札幌市豊平区,中の島一条１丁目６－１６－６０８,,01,105,0620921,,,,,,,2024-09-17,1,,,,,チョウラク,0
686,3430001092676,新規,0,2024-09-17,2024-09-17,株式会社トライアローズ,,株式会社,北海道,札幌市豊平区,平岸三条１８丁目４番３２号ファミール澄川２０５,,01,105,0620933,,,,,,,2024-09-17,1,,,,,トライアローズ,0
687,3430001092684,新規,0,2024-09-17,2024-09-17,株式会社シャーリー＆ダイアナ・コーポレーション,,株式会社,北海道,札幌市北区,北二十七条西３丁目３番２２号,,01,102,0010027,,,,,,,2024-09-17,1,,,,,シャーリーアンドダイアナコーポレーション,0
688,3430003016781,新規,0,2024-09-17,2024-09-17,合同会社ミヤコグループ,,合同会社,北海道,虻田郡ニセコ町,字有島１８７番地１,,01,395,0481531,,,,,,,2024-09-17,1,,,,,ミヤコグループ,0
691,3450001014397,新規,0,2024-09-17,2024-09-17,株式会社ＯＭＥＧＡファーマーズ,,株式会社,北海道,士別市,武徳町四十四線東七号,,01,220,0950062,,,,,,,2024-09-17,1,,,,,オメガファーマーズ,0
692,3450001014406,新規,0,2024-09-17,2024-09-17,株式会社ＴｅＡｍｏ,,株式会社,北海道,旭川市,東光六条５丁目３番１４号,,01,204,0788346,,,,,,,2024-09-17,1,,,,,ティアモ,0
703,4010003044873,新規,0,2024-09-17,2024-09-17,合同会社ＳＲＥ,,合同会社,東京都,千代田区,丸の内１丁目４番１号東京共同会計事務所内,,13,101,1000005,,,,,,,2024-09-17,1,,,,,エスアールイー,0
707,4010005038824,新規,0,2024-09-17,2024-09-17,一般社団法人ＭＲＯＦ,,その他の設立登記法人,東京都,千代田区,丸の内１丁目４番１号東京共同会計事務所内,,13,101,1000005,,,,,,,2024-09-17,1,,,,,エムアールオーエフ,0
716,4010403033435,新規,0,2024-09-17,2024-09-17,合同会社ＹＭＴＴ．ｃｏ,,合同会社,東京都,港区,港南１丁目６―４１芝浦ｃｒｙｓｔａｌ品川レジデンス１８０４,,13,103,1080075,,,,,,,2024-09-17,1,,,,,ワイエムティーティー,0
717,4010403033443,新規,0,2024-09-17,2024-09-17,青山インベストメンツ１合同会社,,合同会社,東京都,港区,六本木１丁目６番１号泉ガーデンタワー,,13,103,1060032,,,,,,,2024-09-17,1,,,,,アオヤマインベストメンツワン,0
718,4010405023533,新規,0,2024-09-17,2024-09-17,医療法人社団誠央会,,その他の設立登記法人,東京都,港区,北青山３丁目１３番１号北青山関根ビル１階,,13,103,1070061,,,,,,,2024-09-17,1,,,,,セイオウカイ,0
721,4010601065940,新規,0,2024-09-17,2024-09-17,北関株式会社,,株式会社,東京都,墨田区,東向島２丁目２０番１１－８０５号向島ダイヤマンション,,13,107,1310032,,,,,,,2024-09-17,1,,,,,キタセキ,0
731,4010901055963,新規,0,2024-09-17,2024-09-17,株式会社ＡＧＧＩＵＮＴＡ　ＬＩＢＥＲＡ,,株式会社,東京都,世田谷区,北沢２丁目２７－９,,13,112,1550031,,,,,,,2024-09-17,1,,,,,アジュンタリベラ,0
735,4011001164548,新規,0,2024-09-17,2024-09-17,株式会社ＫＵＲＡＳＨＩ,,株式会社,東京都,目黒区,自由が丘２丁目１６－１２ＬＣ１Ｆ,,13,110,1520035,,,,,,,2024-09-17,1,,,,,クラシ,0
736,4011001164663,新規,0,2024-09-17,2024-09-17,株式会社ローライク,,株式会社,東京都,渋谷区,渋谷３丁目１番９号ＹＡＺＡＷＡビル３階,,13,113,1500002,,,,,,,2024-09-17,1,,,,,ローライク,0
737,4011001164705,新規,0,2024-09-17,2024-09-17,株式会社ｑｍｉｃ,,株式会社,東京都,渋谷区,道玄坂１丁目１０番８号渋谷道玄坂東急ビル２Ｆ－Ｃ,,13,113,1500043,,,,,,,2024-09-17,1,,,,,コミック,0
738,4011003019997,新規,0,2024-09-17,2024-09-17,Ｏｕｓｉａｓｓ合同会社,,合同会社,東京都,渋谷区,道玄坂１丁目１０番８号渋谷道玄坂東急ビル２Ｆ‐Ｃ,,13,113,1500043,,,,,,,2024-09-17,1,,,,,ウーシアス,0
739,4011003020006,新規,0,2024-09-17,2024-09-17,Ｆｏｌｌｏｗｉｎｇｗｉｎｄ合同会社,,合同会社,東京都,渋谷区,神宮前６丁目２３番４号桑野ビル２階,,13,113,1500001,,,,,,,2024-09-17,1,,,,,フォローウィングウィンドー,0
745,4011105011150,新規,0,2024-09-17,2024-09-17,司法書士法人トライ・相続登記センター,,その他の設立登記法人,東京都,新宿区,西新宿７丁目４番４号武蔵ビル３Ｆ,,13,104,1600023,,,,,,,2024-09-17,1,,,,,トライソウゾクトウキセンター,0
760,4012703003092,新規,0,2024-09-17,2024-09-17,ウイングエンタープライズ合同会社,,合同会社,東京都,西東京市,向台町１丁目１６番１号,,13,229,1880013,,,,,,,2024-09-17,1,,,,,ウイングエンタープライズ,0
769,4020001159128,新規,0,2024-09-17,2024-09-17,モナキナ株式会社,,株式会社,神奈川県,横浜市神奈川区,栄町１５番地２－４Ｆ,,14,102,2210052,,,,,,,2024-09-17,1,,,,,モナキナ,0
777,4020003026838,新規,0,2024-09-17,2024-09-17,合同会社エイシャ,,合同会社,神奈川県,横浜市緑区,長津田みなみ台７丁目３０番地３８（１階中央テナント）,,14,113,2260018,,,,,,,2024-09-17,1,,,,,エイシャ,0
778,4020003026895,新規,0,2024-09-17,2024-09-17,合同会社岡田勉事務所,,合同会社,神奈川県,横浜市神奈川区,金港町５－１４クアドリフォリオ８階,,14,102,2210056,,,,,,,2024-09-17,1,,,,,オカダツトムジムショ,0
779,4021001083268,新規,0,2024-09-17,2024-09-17,株式会社県央通信,,株式会社,神奈川県,高座郡寒川町,倉見２３６３番地１４,,14,321,2530101,,,,,,,2024-09-17,1,,,,,ケンオウツウシン,0
785,4030001162519,新規,0,2024-09-17,2024-09-17,長江株式会社,,株式会社,埼玉県,川口市,西川口１丁目３０番２０－５階Ｉ室,00136309,11,203,3320021,,,,,,,2024-09-17,1,,,,,ナガエ,0
788,4030003025129,新規,0,2024-09-17,2024-09-17,合同会社エイムズ,,合同会社,埼玉県,久喜市,佐間１１６３－２,,11,232,3491124,,,,,,,2024-09-17,1,,,,,エイムズ,0
790,4040001135424,新規,0,2024-09-17,2024-09-17,株式会社名千,,株式会社,千葉県,銚子市,上野町２１２番地の１,,12,202,2880805,,,,,,,2024-09-17,1,,,,,メイセン,0
807,4100001037853,新規,0,2024-09-17,2024-09-17,Ｋｅｉ‐Ｔｅｎ．株式会社,,株式会社,長野県,駒ヶ根市,下市場３６番３５号,,20,210,3994108,,,,,,,2024-09-17,1,,,,,ケイテンドット,0
810,4110001038710,新規,0,2024-09-17,2024-09-17,株式会社ジャストビー,,株式会社,新潟県,上越市,大豆１丁目６番５３号,,15,222,9430802,,,,,,,2024-09-17,1,,,,,ジャストビー,0
816,4120001268546,新規,0,2024-09-17,2024-09-17,株式会社永慶堂美術,,株式会社,大阪府,大阪市北区,堂島２丁目１番２５－４０２号,,27,127,5300003,,,,,,,2024-09-17,1,,,,,エイケイドウビジュツ,0
817,4120001268554,新規,0,2024-09-17,2024-09-17,株式会社Ｎｏｖａ,,株式会社,大阪府,大阪市中央区,東心斎橋２丁目８番２３号池田会館４０８,,27,128,5420083,,,,,,,2024-09-17,1,,,,,ノヴァ,0
818,4120001268604,新規,0,2024-09-17,2024-09-17,株式会社辻井通商,,株式会社,大阪府,大阪市中央区,島之内２丁目１０番５－６０５号,,27,128,5420082,,,,,,,2024-09-17,1,,,,,ツジイツウショウ,0
819,4120001268620,新規,0,2024-09-17,2024-09-17,株式会社ユニランド,,株式会社,大阪府,大阪市北区,南森町２丁目１番１８号ジャスティス南森町１００３,,27,127,5300054,,,,,,,2024-09-17,1,,,,,ユニランド,0
822,4120003027545,新規,0,2024-09-17,2024-09-17,合同会社ＺＥＮＥＲＩＴＡ,,合同会社,大阪府,大阪市淀川区,西中島６丁目９番２０号新大阪ＧＨビル４０５,,27,123,5320011,,,,,,,2024-09-17,1,,,,,ゼネリータ,0
824,4120103006052,新規,0,2024-09-17,2024-09-17,合同会社アルカディア,,合同会社,大阪府,大阪狭山市,東茱萸木１丁目６５９番地の３,,27,231,5890012,,,,,,,2024-09-17,1,,,,,アルカディア,0
827,4120901049772,新規,0,2024-09-17,2024-09-17,株式会社ＩＣＨＩＲＯ　ＳＵＺＵＫＩ＆ＣＯ,,株式会社,大阪府,箕面市,如意谷４丁目６番２－５０３号,,27,220,5620011,,,,,,,2024-09-17,1,,,,,イチロースズキアンドコー,0
835,4140001135810,新規,0,2024-09-17,2024-09-17,カッティングエッジ株式会社,,株式会社,兵庫県,神戸市垂水区,本多聞１丁目１－５－３０５,,28,108,6550006,,,,,,,2024-09-17,1,,,,,カッティングエッジ,0
836,4140003021091,新規,0,2024-09-17,2024-09-17,合同会社プラムビレッジ,,合同会社,兵庫県,たつの市,揖保町東用９９１番地,,28,229,6794143,,,,,,,2024-09-17,1,,,,,プラムビレッジ,0
839,4170001018310,新規,0,2024-09-17,2024-09-17,株式会社みなみ本舗,,株式会社,和歌山県,伊都郡かつらぎ町,大字東渋田１１７番地,,30,341,6497151,,,,,,,2024-09-17,1,,,,,ミナミホンポ,0
849,4180001163238,新規,0,2024-09-17,2024-09-17,株式会社ワイアンド企画,,株式会社,愛知県,海部郡大治町,大字八ツ屋字西田面６１番地の１,,23,424,4901133,,,,,,,2024-09-17,1,,,,,ワイアンドキカク,0
850,4180001163246,新規,0,2024-09-17,2024-09-17,株式会社Ｋ．Ｇ,,株式会社,愛知県,名古屋市瑞穂区,土市町１丁目２８番地,,23,108,4670843,,,,,,,2024-09-17,1,,,,,ケージー,0
851,4180001163254,新規,0,2024-09-17,2024-09-17,株式会社ＡＫ,,株式会社,愛知県,名古屋市中川区,荒子町字六田池２番地,,23,110,4540861,,,,,,,2024-09-17,1,,,,,エイケイ,0
858,4180003027333,新規,0,2024-09-17,2024-09-17,流沙合同会社,,合同会社,愛知県,一宮市,瀬部字宮西３９番地,,23,203,4910001,,,,,,,2024-09-17,1,,,,,ルサ,0
863,4200003006508,新規,0,2024-09-17,2024-09-17,香嵐渓堂合同会社,,合同会社,岐阜県,美濃加茂市,加茂野町木野１２６２番地２,,21,211,5050053,,,,,,,2024-09-17,1,,,,,コウランケイドウ,0
864,4210003001838,新規,0,2024-09-17,2024-09-17,満足サービスＹＹＴ合同会社,,合同会社,福井県,敦賀市,神楽町１丁目２番３３号,,18,202,9140063,,,,,,,2024-09-17,1,,,,,マンゾクサービスワイワイテイ,0
867,4230001020532,新規,0,2024-09-17,2024-09-17,株式会社創建,,株式会社,富山県,富山市,今泉西部町１１番地９,,16,201,9398281,,,,,,,2024-09-17,1,,,,,ソウケン,0
870,4250001020811,新規,0,2024-09-17,2024-09-17,株式会社ＣＲＣ,,株式会社,山口県,防府市,緑町１丁目７－６３丸博ビル緑町４０８,,35,206,7470026,,,,,,,2024-09-17,1,,,,,シーアールシー,0
877,4290001107258,新規,0,2024-09-17,2024-09-17,株式会社アースガーディアンズ,,株式会社,福岡県,久留米市,花畑３丁目３番地６,,40,203,8300039,,,,,,,2024-09-17,1,,,,,アースガーディアンズ,0
889,4330003010562,新規,0,2024-09-17,2024-09-17,日特合同会社,,合同会社,熊本県,菊池郡大津町,美咲野４丁目１２番２号,,43,403,8691237,,,,,,,2024-09-17,1,,,,,ニトク,0
898,4370003006747,新規,0,2024-09-17,2024-09-17,合同会社おあんつぁん,,合同会社,宮城県,牡鹿郡女川町,女川２丁目１２－３,,04,581,9862265,,,,,,,2024-09-17,1,,,,,オアンツァン,0
904,4410003003979,新規,0,2024-09-17,2024-09-17,ＳＯＺＯ合同会社,,合同会社,秋田県,秋田市,山王新町４番１０号,,05,201,0100952,,,,,,,2024-09-17,1,,,,,ソウゾウ,0
906,4430001092659,新規,0,2024-09-17,2024-09-17,株式会社スタートアップサポート総合会計事務所,,株式会社,北海道,札幌市中央区,南二条西３丁目１３－４カタオカビル３Ｆ,,01,101,0600062,,,,,,,2024-09-17,1,,,,,スタートアップサポートソウゴウカイケイジムショ,0
907,4430001092683,新規,0,2024-09-17,2024-09-17,株式会社ｆｌｕｃ,,株式会社,北海道,札幌市厚別区,厚別南１丁目６番地２０,,01,108,0040022,,,,,,,2024-09-17,1,,,,,フラック,0
908,4430001092691,新規,0,2024-09-17,2024-09-17,株式会社ＨＫＩ,,株式会社,北海道,札幌市東区,北三十二条東３丁目２番２５号,,01,103,0650032,,,,,,,2024-09-17,1,,,,,エイチケイアイ,0
910,4430003016789,新規,0,2024-09-17,2024-09-17,オモシロイカンパニー合同会社,,合同会社,北海道,札幌市中央区,南三条西１２丁目３２５番９ＳＡＫＵＲＡ－Ｗ１２Ｂ室,,01,101,0600063,,,,,,,2024-09-17,1,,,,,オモシロイカンパニー,0
911,4430003016797,新規,0,2024-09-17,2024-09-17,Ｍａｕｎａ　Ｋｅａ　Ｓｎｏｗｓｐｏｒｔｓ合同会社,,合同会社,北海道,虻田郡ニセコ町,字中央通１３７番地２８,,01,395,0481512,,,,,,,2024-09-17,1,,,,,マウナケアスノースポーツ,0
912,4430005015070,新規,0,2024-09-17,2024-09-17,医療法人社団翼有会,,その他の設立登記法人,北海道,札幌市西区,八軒五条西１丁目１－５７Ｃｏｌｌａｂ八軒２Ｆ,,01,107,0630845,,,,,,,2024-09-17,1,,,,,ヨクユウカイ,0
913,4440003001625,新規,0,2024-09-17,2024-09-17,合同会社Ｓｂｒｏ,,合同会社,北海道,函館市,美原５丁目１番１７号,,01,202,0410806,,,,,,,2024-09-17,1,,,,,エスブロ,0
917,4480001012595,新規,0,2024-09-17,2024-09-17,株式会社ジェイド,,株式会社,徳島県,徳島市,中徳島町１丁目５０番地の１アルファステイツ中徳島町５０１号室,,36,201,7700853,,,,,,,2024-09-17,1,,,,,ジェイド,0
918,4490001010870,新規,0,2024-09-17,2024-09-17,株式会社らしく,,株式会社,高知県,高知市,愛宕山１２３,,39,201,7800025,,,,,,,2024-09-17,1,,,,,ラシク,0
928,5010001248269,新規,0,2024-09-17,2024-09-17,ＺＥＲＯ　ＺＥＲＯ　ＲＯＢＯＴＩＣＳ　ＪＡＰＡＮ株式会社,,株式会社,東京都,千代田区,霞が関３丁目２番６号東京倶楽部ビルディング１１階,,13,101,1000013,,,,,,,2024-09-17,1,,,,,ゼロゼロロボティックスジャパン,0
933,5010003044922,新規,0,2024-09-17,2024-09-17,ＮｅｘＳｐｈｅｒｅ合同会社,,合同会社,東京都,千代田区,丸の内１丁目４番１号東京共同会計事務所内,,13,101,1000005,,,,,,,2024-09-17,1,,,,,ネクスフィア,0
936,5010005038823,新規,0,2024-09-17,2024-09-17,一般社団法人共有持分支援協会,,その他の設立登記法人,東京都,千代田区,丸の内１丁目４番１号丸の内永楽ビルディング１８階,,13,101,1000005,,,,,,,2024-09-17,1,,,,,キョウユウモチブンシエンキョウカイ,0
939,5010401185079,新規,0,2024-09-17,2024-09-17,Ｕ‐Ｔｉｐｈｅｒｅｔｈ株式会社,,株式会社,東京都,港区,南青山３丁目１番３６号青山丸竹ビル６Ｆ,,13,103,1070062,,,,,,,2024-09-17,1,,,,,ユーティファレト,0
940,5010401185104,新規,0,2024-09-17,2024-09-17,株式会社Ｔ‐ｃａｎｖａｓ,,株式会社,東京都,港区,浜松町２丁目２番１５号浜松町ダイヤビル２Ｆ,,13,103,1050013,,,,,,,2024-09-17,1,,,,,ティーキャンバス,0
941,5010401185145,新規,0,2024-09-17,2024-09-17,株式会社Ｋ＆Ｓ,,株式会社,東京都,港区,海岸１丁目１番１号,,13,103,1050022,,,,,,,2024-09-17,1,,,,,ケーアンドエス,0
950,5010603011090,新規,0,2024-09-17,2024-09-17,ＹＵ合同会社,,合同会社,東京都,墨田区,両国３丁目１７番１号,,13,107,1300026,,,,,,,2024-09-17,1,,,,,ユウ,0
958,5010901055995,新規,0,2024-09-17,2024-09-17,Ｈｏｔ　Ｓｐａｃｅ株式会社,,株式会社,東京都,世田谷区,太子堂４丁目１８－１５マガザン三軒茶屋２－３Ｆ－３,,13,112,1540004,,,,,,,2024-09-17,1,,,,,ホットスペース,0
966,5011001164621,新規,0,2024-09-17,2024-09-17,株式会社アイバンス,,株式会社,東京都,渋谷区,神南１丁目１１－４ＦＰＧリンクス神南５階,,13,113,1500041,,,,,,,2024-09-17,1,,,,,アイバンス,0
967,5011001164646,新規,0,2024-09-17,2024-09-17,株式会社ＳＰＥＣ,,株式会社,東京都,渋谷区,代々木４丁目２３－５代々木スカイハイツ３１０,,13,113,1510053,,,,,,,2024-09-17,1,,,,,スペック,0
968,5011003019831,新規,0,2024-09-17,2024-09-17,晃和水産合同会社,,合同会社,東京都,渋谷区,猿楽町１６－１１－２１１,,13,113,1500033,,,,,,,2024-09-17,1,,,,,コウワスイサン,0
969,5011005010689,新規,0,2024-09-17,2024-09-17,医療法人社団光葵,,その他の設立登記法人,東京都,渋谷区,宇田川町２４番４号センター２４４ビル４階,,13,113,1500042,,,,,,,2024-09-17,1,,,,,コウキ,0
978,5011203004484,新規,0,2024-09-17,2024-09-17,合同会社Ｈａｕｎｔ,,合同会社,東京都,中野区,白鷺２丁目３４番１３号サン・クレール白鷺２０５,,13,114,1650035,,,,,,,2024-09-17,1,,,,,ハウント,0
981,5011403004482,新規,0,2024-09-17,2024-09-17,合同会社ＢＭ　ＧＲＯＵＰ,,合同会社,東京都,板橋区,前野町２丁目１５－１アイエスマンション３０２,,13,119,1740063,,,,,,,2024-09-17,1,,,,,ビーエムグループ,0
989,5012303002048,新規,0,2024-09-17,2024-09-17,合同会社ＱＯＬ,,合同会社,東京都,町田市,森野２丁目２－３８,,13,209,1940022,,,,,,,2024-09-17,1,,,,,キューオーエル,0
994,5013303007301,新規,0,2024-09-17,2024-09-17,合同会社Ｓｕｃｃｅｅｄ,,合同会社,東京都,豊島区,要町１丁目２７番９号,,13,116,1710043,,,,,,,2024-09-17,1,,,,,サクシード,0
998,5020001159127,新規,0,2024-09-17,2024-09-17,株式会社大平,,株式会社,神奈川県,横浜市南区,新川町２丁目４番地１シティラックス横浜４１２号,,14,105,2320027,,,,,,,2024-09-17,1,,,,,タイヘイ,0
999,5020001159176,新規,0,2024-09-17,2024-09-17,株式会社Ｃｏｍｐａｓｓ　Ｆｏｒ　Ｌｉｆｅ,,株式会社,神奈川県,横浜市戸塚区,東俣野町１０５６番地２,,14,110,2450065,,,,,,,2024-09-17,1,,,,,コンパスフォーライフ,0
1005,5020003026894,新規,0,2024-09-17,2024-09-17,合同会社Ｋ２,,合同会社,神奈川県,横浜市中区,真砂町２丁目１２番地関内駅前第一ビル,,14,104,2310016,,,,,,,2024-09-17,1,,,,,ケーツー,0
1006,5021001083267,新規,0,2024-09-17,2024-09-17,株式会社岳斗,,株式会社,神奈川県,厚木市,まつかげ台４１番６号,,14,212,2430207,,,,,,,2024-09-17,1,,,,,ヤマト,0
1010,5021003015012,新規,0,2024-09-17,2024-09-17,合同会社ｃｏｒａｌｓ,,合同会社,神奈川県,鎌倉市,小町３丁目２－２６,,14,204,2480006,,,,,,,2024-09-17,1,,,,,コラルス,0
1013,5030001162303,新規,0,2024-09-17,2024-09-17,ＨＡＮＺＯ株式会社,,株式会社,埼玉県,草加市,氷川町２１３４番地１,,11,221,3400034,,,,,,,2024-09-17,1,,,,,ハンゾー,0
1015,5030003025128,新規,0,2024-09-17,2024-09-17,合同会社ＳＩＺＵＲＵ,,合同会社,埼玉県,さいたま市大宮区,三橋３丁目９２番地３,,11,103,3300856,,,,,,,2024-09-17,1,,,,,シズル,0
1017,5040001135415,新規,0,2024-09-17,2024-09-17,Ｂｒｉｇｈｔ　Ｔｅｃｈｎｉｃａｌ　Ｓｅｒｖｉｃｅ株式会社,,株式会社,千葉県,習志野市,奏の杜１丁目１０番１－２０１号,,12,216,2750028,,,,,,,2024-09-17,1,,,,,ブライトテクニカルサービス,0
1019,5040003025804,新規,0,2024-09-17,2024-09-17,Ｋｉｚｕｎａ　Ｇｌｏｂａｌ合同会社,,合同会社,千葉県,千葉市中央区,弁天１丁目１５番３号,,12,101,2600045,,,,,,,2024-09-17,1,,,,,キズナグローバル,0
1025,5070001042187,新規,0,2024-09-17,2024-09-17,株式会社高橋電設,,株式会社,群馬県,太田市,高林西町５１６番地１２,,10,205,3730828,,,,,,,2024-09-17,1,,,,,タカハシデンセツ,0
1028,5080101025009,新規,0,2024-09-17,2024-09-17,井上運輸株式会社,,株式会社,静岡県,富士市,森下６６番地の５,,22,210,4160949,,,,,,,2024-09-17,1,,,,,イノウエウンユ,0
1029,5100001037844,新規,0,2024-09-17,2024-09-17,株式会社盛盛亭,,株式会社,長野県,北佐久郡軽井沢町,大字追分１１５番地,,20,321,3890115,,,,,,,2024-09-17,1,,,,,モリモリテイ,0
1030,5100001037852,新規,0,2024-09-17,2024-09-17,Ｓｏｓｈｉｊｉ株式会社,,株式会社,長野県,飯田市,大瀬木１９７２番地２０,,20,205,3950157,,,,,,,2024-09-17,1,,,,,ソシジ,0
1039,5120001268388,新規,0,2024-09-17,2024-09-17,誠賢株式会社,,株式会社,大阪府,大阪市西淀川区,中島１丁目３５番７２－２３号,,27,113,5550041,,,,,,,2024-09-17,1,,,,,セイケン,0
1040,5120001268495,新規,0,2024-09-17,2024-09-17,株式会社ウェルビーケアパートナーズ,,株式会社,大阪府,大阪市北区,西天満２丁目２番５号,,27,127,5300047,,,,,,,2024-09-17,1,,,,,ウェルビーケアパートナーズ,0
1041,5120001268553,新規,0,2024-09-17,2024-09-17,自在株式会社,,株式会社,大阪府,大阪市城東区,鴫野西５丁目１５－７,,27,118,5360014,,,,,,,2024-09-17,1,,,,,ジザイ,0
1043,5120103006051,新規,0,2024-09-17,2024-09-17,合同会社Ｌｉｌｙ,,合同会社,大阪府,堺市北区,金岡町１２１０番地５,,27,146,5918022,,,,,,,2024-09-17,1,,,,,リリー,0
1045,5120901049771,新規,0,2024-09-17,2024-09-17,株式会社ＦＵ．Ｕ．ＲＯ,,株式会社,大阪府,豊能郡能勢町,山辺１２７番地,,27,322,5630372,,,,,,,2024-09-17,1,,,,,,0
1049,5122001038457,新規,0,2024-09-17,2024-09-17,株式会社ＩＳＳＨＩＮ　Ｆｏｏｄｓ,,株式会社,大阪府,柏原市,国分本町２丁目７－１２,,27,221,5820021,,,,,,,2024-09-17,1,,,,,イッシンフーズ,0
1051,5122003002997,新規,0,2024-09-17,2024-09-17,合同会社今川地所,,合同会社,大阪府,八尾市,教興寺４丁目１０３,,27,212,5810874,,,,,,,2024-09-17,1,,,,,イマガワジショ,0
1053,5130001077945,新規,0,2024-09-17,2024-09-17,株式会社継木舎,,株式会社,京都府,京都市山科区,北花山中道町１０８番地,,26,110,6078481,,,,,,,2024-09-17,1,,,,,ケイモクシャ,0
1056,5130003009839,新規,0,2024-09-17,2024-09-17,合同会社ヤマト,,合同会社,京都府,宮津市,字中津２１０－１,,26,205,6260053,,,,,,,2024-09-17,1,,,,,ヤマト,0
1061,5140001135818,新規,0,2024-09-17,2024-09-17,株式会社やなぎ荘,,株式会社,兵庫県,豊岡市,城崎町湯島７０１番地,,28,209,6696101,,,,,,,2024-09-17,1,,,,,ヤナギソウ,0
1076,5180001163245,新規,0,2024-09-17,2024-09-17,株式会社悠,,株式会社,愛知県,名古屋市中区,大須４丁目１３番２８号（プレサンスロジェ上前津駅前ＩＩ１００９号）,00136312,23,106,4600011,,,,,,,2024-09-17,1,,,,,ハルカ,0
1077,5180001163261,新規,0,2024-09-17,2024-09-17,株式会社ＭＵＧＥＮ,,株式会社,愛知県,海部郡大治町,大字西條字柳原９１番地の１,,23,424,4901144,,,,,,,2024-09-17,1,,,,,ムゲン,0
1080,5180003027349,新規,0,2024-09-17,2024-09-17,合同会社ＰＩＣ,,合同会社,愛知県,名古屋市中川区,西日置町１０丁目３０８グリーンパークハイツ西山２０３,,23,110,4540005,,,,,,,2024-09-17,1,,,,,ピック,0
1081,5180301039054,新規,0,2024-09-17,2024-09-17,株式会社ヘンスフォース,,株式会社,愛知県,刈谷市,野田町場割１０１－８,,23,210,4480803,,,,,,,2024-09-17,1,,,,,ヘンスフォース,0
1083,5180303006267,新規,0,2024-09-17,2024-09-17,合同会社かむ達の雫,,合同会社,愛知県,みよし市,東山台３６番地７,,23,236,4700212,,,,,,,2024-09-17,1,,,,,カムタチノシズク,0
1084,5190001031649,新規,0,2024-09-17,2024-09-17,株式会社３Ｒ　Ｊａｐａｎ,,株式会社,三重県,松阪市,駅部田町１６２０番地８,,24,204,5150045,,,,,,,2024-09-17,1,,,,,スリーアールジャパン,0
1085,5200001042941,新規,0,2024-09-17,2024-09-17,Ｗｉｌｌ建設株式会社,,株式会社,岐阜県,各務原市,川島渡町３２１番,,21,213,5016028,,,,,,,2024-09-17,1,,,,,ウィルケンセツ,0
1087,5200005013666,新規,0,2024-09-17,2024-09-17,一般社団法人Ｎｅｗ　Ｊａｐａｎ　Ｏｒｄｅｒ,,その他の設立登記法人,岐阜県,岐阜市,上太田町１丁目１４番地２クレール千勝６０２号室,,21,201,5008068,,,,,,,2024-09-17,1,,,,,ニュージャパンオーダー,0
1089,5210001019914,新規,0,2024-09-17,2024-09-17,株式会社タムラ,,株式会社,福井県,鯖江市,桜町３丁目１番２３号,,18,207,9160027,,,,,,,2024-09-17,1,,,,,タムラ,0
1096,5240001063819,新規,0,2024-09-17,2024-09-17,株式会社英,,株式会社,広島県,広島市西区,山田町甲２７番地,,34,104,7330854,,,,,,,2024-09-17,1,,,,,ハナブサ,0
1108,5260005011400,新規,0,2024-09-17,2024-09-17,一般社団法人猫と紡ぐ,,その他の設立登記法人,岡山県,赤磐市,桜が丘東３丁目３番地５６０,,33,213,7090721,,,,,,,2024-09-17,1,,,,,ネコトツムグ,0
1112,5290001107224,新規,0,2024-09-17,2024-09-17,三輪農産株式会社,,株式会社,福岡県,朝倉郡筑前町,山隈９５１番地,,40,447,8380823,,,,,,,2024-09-17,1,,,,,ミワノウサン,0
1113,5290001107281,新規,0,2024-09-17,2024-09-17,株式会社昂翔丸,,株式会社,福岡県,糟屋郡粕屋町,内橋西３丁目９番１０号,,40,349,8112321,,,,,,,2024-09-17,1,,,,,コウショウマル,0
1114,5290001107298,新規,0,2024-09-17,2024-09-17,株式会社ＬＡＬＡ,,株式会社,福岡県,大野城市,牛頸２丁目４番２０号,,40,219,8160971,,,,,,,2024-09-17,1,,,,,ララ,0
1116,5290003015813,新規,0,2024-09-17,2024-09-17,合同会社ＲＩＳＥ　ＣＲＥＡＴＥ,,合同会社,福岡県,福岡市東区,和白東１丁目１９番１号,,40,131,8110214,,,,,,,2024-09-17,1,,,,,ライズクリエイト,0
1117,5290801030880,新規,0,2024-09-17,2024-09-17,株式会社ラドベル,,株式会社,福岡県,北九州市小倉北区,上富野３丁目１９番４－１０４号,,40,106,8020022,,,,,,,2024-09-17,1,,,,,ラドベル,0
1123,5330001032467,新規,0,2024-09-17,2024-09-17,株式会社ＯＨＡＮＡ,,株式会社,熊本県,天草市,本渡町広瀬２４８７番,,43,215,8630001,,,,,,,2024-09-17,1,,,,,オハナ,0
1127,5330003010561,新規,0,2024-09-17,2024-09-17,合同会社セリーヌＲ,,合同会社,熊本県,八代市,上野町３５９８番地２,,43,202,8660894,,,,,,,2024-09-17,1,,,,,セリーヌリバー,0
1139,5420003002995,新規,0,2024-09-17,2024-09-17,村川電気合同会社,,合同会社,青森県,十和田市,大字米田字盲沼２４番地１,,02,206,0340212,,,,,,,2024-09-17,1,,,,,ムラカワデンキ,0
1146,5440001009495,新規,0,2024-09-17,2024-09-17,株式会社あゆーだ,,株式会社,北海道,久遠郡せたな町,北檜山区北檜山１１８－１,,01,371,0494501,,,,,,,2024-09-17,1,,,,,アユーダ,0
1150,5450003002539,新規,0,2024-09-17,2024-09-17,合同会社Ｔｒｕｔｈｖｉｅｗ,,合同会社,北海道,旭川市,神楽岡九条５丁目２番４号,,01,204,0788319,,,,,,,2024-09-17,1,,,,,トリュースビュー,0
1157,5700150126981,新規,0,2024-09-17,2024-09-03,おおいた「夢」花火実行委員会,,その他,大分県,大分市,荷揚町２番３１号,,44,201,8700046,,,,,,,2024-09-03,1,,,,,オオイタユメハナビジツコウイインカイ,0
1158,5700150127170,新規,0,2024-09-17,2024-09-17,認可地縁団体　和泉原組,,その他,長野県,伊那市,長谷黒河内１２８７－１,,20,209,3960403,,,,,,,2024-09-17,1,,,,,ニンカチエンダンタイイズミハラグミ,0
1164,6010001248251,新規,0,2024-09-17,2024-09-17,れんたるーの株式会社,,株式会社,東京都,千代田区,岩本町２丁目１９番５号,,13,101,1010032,,,,,,,2024-09-17,1,,,,,レンタルーノ,0
1165,6010001248342,新規,0,2024-09-17,2024-09-17,株式会社ＡｒｃｈＮｅｘ,,株式会社,東京都,千代田区,神田和泉町１番地６－１６ヤマトビル４０５,,13,101,1010024,,,,,,,2024-09-17,1,,,,,アーキネックス,0
1166,6010003044913,新規,0,2024-09-17,2024-09-17,合同会社火水伝ゑ社,,合同会社,東京都,千代田区,一番町９番地,,13,101,1020082,,,,,,,2024-09-17,1,,,,,ヒミツツタヱシャ,0
1168,6010005038822,新規,0,2024-09-17,2024-09-17,一般社団法人Ｚ,,その他の設立登記法人,東京都,中央区,銀座２丁目１１番１５号ＳＦ銀座ビル５階,,13,102,1040061,,,,,,,2024-09-17,1,,,,,ゼット,0
1169,6010005038830,新規,0,2024-09-17,2024-09-17,医療法人社団ＩＢＵＫＩ,,その他の設立登記法人,東京都,文京区,根津１丁目１９番１１号,,13,105,1130031,,,,,,,2024-09-17,1,,,,,イブキ,0
1175,6010403033417,新規,0,2024-09-17,2024-09-17,合同会社スカイ,,合同会社,東京都,港区,南青山２丁目２番１５号,,13,103,1070062,,,,,,,2024-09-17,1,,,,,スカイ,0
1179,6010405023572,新規,0,2024-09-17,2024-09-17,一般社団法人自由診療歯科研究所,,その他の設立登記法人,東京都,港区,麻布台２丁目１番２－１００５号,,13,103,1060041,,,,,,,2024-09-17,1,,,,,ジユウシンリョウシカケンキュウジョ,0
1191,6011001164406,新規,0,2024-09-17,2024-09-17,株式会社タギ,,株式会社,東京都,渋谷区,渋谷２丁目１９－１５宮益坂ビルディング６０９,,13,113,1500002,,,,,,,2024-09-17,1,,,,,タギ,0
1192,6011003020004,新規,0,2024-09-17,2024-09-17,合同会社リポップ,,合同会社,東京都,渋谷区,道玄坂１丁目１０番８号渋谷道玄坂東急ビル２Ｆ－Ｃ,,13,113,1500043,,,,,,,2024-09-17,1,,,,,リポップ,0
1193,6011003020045,新規,0,2024-09-17,2024-09-17,合同会社レインフォレスト,,合同会社,東京都,渋谷区,本町３丁目３１番１５号,,13,113,1510071,,,,,,,2024-09-17,1,,,,,レインフォレスト,0
1202,6011103014938,新規,0,2024-09-17,2024-09-17,Ｍ’ｓｍｉｌｅ合同会社,,合同会社,東京都,新宿区,西新宿３丁目３番１３号西新宿水間ビル６階,,13,104,1600023,,,,,,,2024-09-17,1,,,,,エムスマイル,0
1203,6011105011157,新規,0,2024-09-17,2024-09-17,医療法人社団廣知会,,その他の設立登記法人,東京都,新宿区,高田馬場２丁目１７番６号ゆう文ビル３階,,13,104,1690075,,,,,,,2024-09-17,1,,,,,コウチカイ,0
1206,6011301029928,新規,0,2024-09-17,2024-09-17,株式会社Ｇｉｌｂｅｒｔ,,株式会社,東京都,杉並区,高円寺南２丁目２３－２８マツダハウス１０１,,13,115,1660003,,,,,,,2024-09-17,1,,,,,ギルバート,0
1207,6011305003004,新規,0,2024-09-17,2024-09-17,特定非営利活動法人らふぁえる,,その他の設立登記法人,東京都,杉並区,成田西１丁目１番３２号,,13,115,1660016,,,,,,,2024-09-17,1,,,,,ラファエル,0
1208,6011401026420,新規,0,2024-09-17,2024-09-17,Ｈ不動産管理株式会社,,株式会社,東京都,板橋区,中丸町３３－１５－１０３,,13,119,1730026,,,,,,,2024-09-17,1,,,,,エイチフドウサンカンリ,0
1209,6011401026429,新規,0,2024-09-17,2024-09-17,錦和株式会社,,株式会社,東京都,板橋区,大山東町５９番８号ドルメン大山３０１号室,,13,119,1730014,,,,,,,2024-09-17,1,,,,,キンワ,0
1210,6011401026437,新規,0,2024-09-17,2024-09-17,ブルーインパクト株式会社,,株式会社,東京都,板橋区,熊野町７番２－１０１号,,13,119,1730025,,,,,,,2024-09-17,1,,,,,ブルーインパクト,0
1213,6011503006221,新規,0,2024-09-17,2024-09-17,ＳＵＮＲＩＳＥ合同会社,,合同会社,東京都,北区,中十条２丁目１３番４号,,13,117,1140032,,,,,,,2024-09-17,1,,,,,サンライズ,0
1219,6011801044831,新規,0,2024-09-17,2024-09-17,株式会社ＨＡＬ,,株式会社,東京都,足立区,大谷田５丁目２５―８ベクヴェーム北綾瀬ＩＩ１０１,00136319,13,121,1200001,,,,,,,2024-09-17,1,,,,,ハル,0
1220,6012303002047,新規,0,2024-09-17,2024-09-17,フラット合同会社,,合同会社,東京都,町田市,小川３丁目１番地６,,13,209,1940003,,,,,,,2024-09-17,1,,,,,フラット,0
1224,6012801023461,新規,0,2024-09-17,2024-09-17,株式会社祐々,,株式会社,東京都,昭島市,田中町２丁目１３番２５号ＳＵＮＳ昭島３０１,,13,207,1960014,,,,,,,2024-09-17,1,,,,,ユウユウ,0
1225,6013305003636,新規,0,2024-09-17,2024-09-17,特定非営利活動法人豊島シニアクラブ,,その他の設立登記法人,東京都,豊島区,北大塚２丁目９番１２号光ビル４０１,,13,116,1700004,,,,,,,2024-09-17,1,,,,,トシマシニアクラブ,0
1231,6020003026910,新規,0,2024-09-17,2024-09-17,合同会社下川建築,,合同会社,神奈川県,横浜市緑区,三保町２６７３番地１６４,,14,113,2260015,,,,,,,2024-09-17,1,,,,,シモカワケンチク,0
1233,6021001083191,新規,0,2024-09-17,2024-09-17,八木写真株式会社,,株式会社,神奈川県,鎌倉市,小袋谷１丁目４番２１－２０２号,,14,204,2470055,,,,,,,2024-09-17,1,,,,,ヤギシャシン,0
1238,6030001162475,新規,0,2024-09-17,2024-09-17,株式会社Ｍ’ｓホーム,,株式会社,埼玉県,さいたま市南区,大字太田窪２４１２－５,,11,108,3360015,,,,,,,2024-09-17,1,,,,,エムズホーム,0
1239,6030001162500,新規,0,2024-09-17,2024-09-17,株式会社Ｓ＆Ｋ,,株式会社,埼玉県,さいたま市南区,文蔵２丁目２１番８号,,11,108,3360025,,,,,,,2024-09-17,1,,,,,エスアンドケー,0
1240,6030001162525,新規,0,2024-09-17,2024-09-17,Ｇｅｍｉｔｅｋ　Ｊａｐａｎ株式会社,,株式会社,埼玉県,越谷市,南越谷１丁目２７番地１２－４０１号室,,11,222,3430845,,,,,,,2024-09-17,1,,,,,ジェミテックジャパン,0
1247,6040001135439,新規,0,2024-09-17,2024-09-17,深野木建設株式会社,,株式会社,千葉県,山武郡芝山町,小池３１４番地４,,12,409,2891624,,,,,,,2024-09-17,1,,,,,フカノキケンセツ,0
1250,6050001055413,新規,0,2024-09-17,2024-09-17,Ｒｉｓｉｎｇ　Ｃｏｍｐａｎｙ＆Ｃｏ．株式会社,,株式会社,茨城県,土浦市,中荒川沖町５番７号日経ビル２階,,08,203,3000875,,,,,,,2024-09-17,1,,,,,ライジングカンパニーアンドシーオー,0
1260,6080401027447,新規,0,2024-09-17,2024-09-17,さの株式会社,,株式会社,静岡県,掛川市,三俣５８４番地の２,,22,213,4371416,,,,,,,2024-09-17,1,,,,,サノ,0
1264,6100005013221,新規,0,2024-09-17,2024-09-17,特定非営利活動法人山ろくファームきそ,,その他の設立登記法人,長野県,木曽郡木曽町,開田高原西野１６４０番地１,,20,432,3970302,,,,,,,2024-09-17,1,,,,,サンロクファームキソ,0
1277,6120001268552,新規,0,2024-09-17,2024-09-17,株式会社ジプソフィル,,株式会社,大阪府,大阪市港区,市岡２丁目１３番３２号,,27,107,5520012,,,,,,,2024-09-17,1,,,,,ジプソフィル,0
1278,6120001268560,新規,0,2024-09-17,2024-09-17,株式会社ゴブリン,,株式会社,大阪府,大阪市西区,新町４丁目２１番７号３Ｆ,,27,106,5500013,,,,,,,2024-09-17,1,,,,,ゴブリン,0
1279,6120001268569,新規,0,2024-09-17,2024-09-17,楠葉実業株式会社,,株式会社,大阪府,枚方市,南楠葉２丁目３６番２号,,27,210,5731105,,,,,,,2024-09-17,1,,,,,クズハジツギョウ,0
1280,6120001268602,新規,0,2024-09-17,2024-09-17,株式会社縁尽,,株式会社,大阪府,大阪市北区,梅田１丁目２番２号大阪駅前第２ビル１２－１２,,27,127,5300001,,,,,,,2024-09-17,1,,,,,エンジン,0
1281,6120001268610,新規,0,2024-09-17,2024-09-17,株式会社多福商事,,株式会社,大阪府,大阪市天王寺区,北河堀町２－２－５０３号室,,27,109,5430053,,,,,,,2024-09-17,1,,,,,タフクショウジ,0
1287,6130001077928,新規,0,2024-09-17,2024-09-17,株式会社プラント・プラス,,株式会社,京都府,京都市中京区,西ノ京職司町６７－３８,,26,104,6048381,,,,,,,2024-09-17,1,,,,,プラントプラス,0
1293,6140001135800,新規,0,2024-09-17,2024-09-17,株式会社ＲＩＭ‐ＳＷＥＬＬ,,株式会社,兵庫県,神戸市兵庫区,水木通１０丁目１－２９－３Ｆ,,28,105,6520802,,,,,,,2024-09-17,1,,,,,リムエスウェル,0
1294,6140001135809,新規,0,2024-09-17,2024-09-17,株式会社Ｒｕｕｍ,,株式会社,兵庫県,西宮市,今津久寿川町１番１９,,28,204,6638222,,,,,,,2024-09-17,1,,,,,ルーム,0
1295,6140001135817,新規,0,2024-09-17,2024-09-17,株式会社ライズアイ,,株式会社,兵庫県,加古川市,神野町石守３丁目３８番地,,28,210,6750005,,,,,,,2024-09-17,1,,,,,ライズアイ,0
1306,6180001163260,新規,0,2024-09-17,2024-09-17,株式会社飯塚商店,,株式会社,愛知県,春日井市,宮町３丁目１６番地８,,23,206,4860904,,,,,,,2024-09-17,1,,,,,イイヅカショウテン,0
1310,6180003027348,新規,0,2024-09-17,2024-09-17,合同会社Ｆｅｓｔ　Ｂｌａｕ,,合同会社,愛知県,名古屋市東区,古出来２丁目９番１号プレティナレジデンス旭丘３０２号,,23,102,4610049,,,,,,,2024-09-17,1,,,,,フェストブラウ,0
1311,6180003027356,新規,0,2024-09-17,2024-09-17,合同会社インクライン,,合同会社,愛知県,名古屋市中川区,八幡本通２丁目２４番地エスポア中川７０１号,,23,110,4540031,,,,,,,2024-09-17,1,,,,,インクライン,0
1312,6180005020771,新規,0,2024-09-17,2024-09-17,一般社団法人屋根協会,,その他の設立登記法人,愛知県,清須市,西枇杷島町小田井２丁目１１番地７,,23,233,4520021,,,,,,,2024-09-17,1,,,,,ヤネキョウカイ,0
1314,6180301039053,新規,0,2024-09-17,2024-09-17,ノースバレイホーム株式会社,,株式会社,愛知県,豊橋市,下地町字若宮８番地,,23,201,4400083,,,,,,,2024-09-17,1,,,,,ノースバレイホーム,0
1317,6180303006266,新規,0,2024-09-17,2024-09-17,三宝ライフサービス合同会社,,合同会社,愛知県,刈谷市,原崎町３丁目２０７番地,,23,210,4480039,,,,,,,2024-09-17,1,,,,,サンポウライフサービス,0
1320,6190001031648,新規,0,2024-09-17,2024-09-17,株式会社真世工業,,株式会社,三重県,桑名市,新西方３丁目１２４番地,,24,205,5110863,,,,,,,2024-09-17,1,,,,,シンセイコウギョウ,0
1324,6200001042940,新規,0,2024-09-17,2024-09-17,株式会社ＴＡＡ,,株式会社,岐阜県,大垣市,長松町９８８番地１,,21,202,5030997,,,,,,,2024-09-17,1,,,,,ティーエーエー,0
1327,6200005013665,新規,0,2024-09-17,2024-09-17,一般社団法人日本塗り替え研究会,,その他の設立登記法人,岐阜県,羽島市,江吉良町江南１丁目３番地,,21,209,5016239,,,,,,,2024-09-17,1,,,,,ニホンヌリカエケンキュウカイ,0
1328,6210001019913,新規,0,2024-09-17,2024-09-17,株式会社ずいりゅう研究所,,株式会社,福井県,福井市,みのり３丁目１６番地２５号,,18,201,9188005,,,,,,,2024-09-17,1,,,,,ズイリュウケンキュウショ,0
1349,6290001107264,新規,0,2024-09-17,2024-09-17,ＪＣ株式会社,,株式会社,福岡県,福岡市博多区,千代５丁目２０番２１号,,40,132,8120044,,,,,,,2024-09-17,1,,,,,ジェーシー,0
1350,6290001107280,新規,0,2024-09-17,2024-09-17,谷楽株式会社,,株式会社,福岡県,福岡市南区,清水１丁目２番８号ディーヴァ清水３０２号,,40,134,8150031,,,,,,,2024-09-17,1,,,,,タニラク,0
1351,6290001107289,新規,0,2024-09-17,2024-09-17,Ｐｏｍｅ　Ｐｏｗｅｒ　Ｊａｐａｎ株式会社,,株式会社,福岡県,福岡市中央区,大名２丁目１１番１３号,,40,133,8100041,,,,,,,2024-09-17,1,,,,,ポメパワージャパン,0
1352,6290001107297,新規,0,2024-09-17,2024-09-17,ホームアセット株式会社,,株式会社,福岡県,福岡市博多区,奈良屋町１番１５号,,40,132,8120023,,,,,,,2024-09-17,1,,,,,ホームアセット,0
1357,6290003015829,新規,0,2024-09-17,2024-09-17,合同会社クレド,,合同会社,福岡県,福岡市中央区,白金１丁目２１番１６号２階ｇｏｏｄｏｆｆｉｃｅ薬院,,40,133,8100012,,,,,,,2024-09-17,1,,,,,クレド,0
1361,6320003004472,新規,0,2024-09-17,2024-09-17,合同会社Ｕｐ‐ｔｈｒｅｅ,,合同会社,大分県,中津市,大字上如水１２８４番地オアシス如水Ｈ号,,44,203,8710004,,,,,,,2024-09-17,1,,,,,アップスリー,0
1362,6330001032466,新規,0,2024-09-17,2024-09-17,株式会社ＯＭＯＩ,,株式会社,熊本県,上益城郡御船町,大字高木３０２１番地,,43,441,8613203,,,,,,,2024-09-17,1,,,,,オモイ,0
1367,6370001051727,新規,0,2024-09-17,2024-09-17,株式会社つきみち,,株式会社,宮城県,大崎市,鹿島台広長字内ノ浦３９番地１１,,04,215,9894104,,,,,,,2024-09-17,1,,,,,ツキミチ,0
1376,6380005012864,新規,0,2024-09-17,2024-09-17,一般社団法人逢瀬の風,,その他の設立登記法人,福島県,郡山市,逢瀬町多田野字上山田原１番地３１７,,07,203,9630213,,,,,,,2024-09-17,1,,,,,オウセノカゼ,0
1381,6420001018869,新規,0,2024-09-17,2024-09-17,株式会社アイスル不動産,,株式会社,青森県,青森市,中央１丁目１８番９号ハイツＴＯＭＩＢ棟１０３号室,,02,201,0300822,,,,,,,2024-09-17,1,,,,,アイスルフドウサン,0
1385,6430003016779,新規,0,2024-09-17,2024-09-17,合同会社そらまめ,,合同会社,北海道,苫小牧市,有珠の沢町６丁目１６番６号,,01,213,0530842,,,,,,,2024-09-17,1,,,,,ソラマメ,0
1389,6470001020382,新規,0,2024-09-17,2024-09-17,株式会社近藤商会,,株式会社,香川県,善通寺市,仙遊町２丁目６番４号,,37,204,7650001,,,,,,,2024-09-17,1,,,,,コンドウショウカイ,0
1393,6500003003332,新規,0,2024-09-17,2024-09-17,合同会社あしすと,,合同会社,愛媛県,今治市,蒼社町１丁目５番４２号,,38,202,7940058,,,,,,,2024-09-17,1,,,,,アシスト,0
1398,7010001248267,新規,0,2024-09-17,2024-09-17,ＫｕｒｏＧａｍｅｓ　Ｊａｐａｎ株式会社,,株式会社,東京都,千代田区,内幸町２丁目２番２号富国生命ビル１６階,,13,101,1000011,,,,,,,2024-09-17,1,,,,,クロゲームズジャパン,0
1399,7010001248283,新規,0,2024-09-17,2024-09-17,ＪｏｉｎｔＮＥＭＯ株式会社,,株式会社,東京都,千代田区,平河町１丁目３番６号ＢＩＺＭＡＲＫＳ麹町５０２号室,,13,101,1020093,,,,,,,2024-09-17,1,,,,,ジョイントネモ,0
1400,7010001248366,新規,0,2024-09-17,2024-09-17,斉心志誠株式会社,,株式会社,東京都,千代田区,神田三崎町２丁目１０番１１号（Ｐｅｇビル）３Ｂ－２号室,,13,101,1010061,,,,,,,2024-09-17,1,,,,,セイシンシセイ,0
1402,7010003044904,新規,0,2024-09-17,2024-09-17,合同会社ハニベリコ,,合同会社,東京都,千代田区,神田須田町１丁目７番８号ＶＯＲＴ秋葉原ＩＶ２Ｆ,00136307,13,101,1010041,,,,,,,2024-09-17,1,,,,,ハニベリコ,0
1403,7010003044929,新規,0,2024-09-17,2024-09-17,ＳｍａｒｔＳｔｙｌｅ合同会社,,合同会社,東京都,千代田区,神田和泉町一番地６－１６ヤマトビル４０５,,13,101,1010024,,,,,,,2024-09-17,1,,,,,スマートスタイル,0
1407,7010401185102,新規,0,2024-09-17,2024-09-17,ＯＮ　ＴＨＥ　ＢＵＺＺ株式会社,,株式会社,東京都,港区,赤坂２丁目１３番１号,,13,103,1070052,,,,,,,2024-09-17,1,,,,,オンザバズ,0
1408,7010401185168,新規,0,2024-09-17,2024-09-17,株式会社ＳＹイーグルス,,株式会社,東京都,港区,南青山２丁目２番１５号,,13,103,1070062,,,,,,,2024-09-17,1,,,,,エスワイイーグルス,0
1411,7010403033399,新規,0,2024-09-17,2024-09-17,合同会社ガーディアン,,合同会社,東京都,港区,白金台５丁目５－４－１２０２,,13,103,1080071,,,,,,,2024-09-17,1,,,,,ガーディアン,0
1412,7010405023514,新規,0,2024-09-17,2024-09-17,一般社団法人ＪＦＫインターナショナル・クラブ・オブ・東京,,その他の設立登記法人,東京都,港区,東麻布３丁目３番６号麻布イースト３０１号室,,13,103,1060044,,,,,,,2024-09-17,1,,,,,ジェイエフケーインターナショナルクラブオブトウキョウ,0
1413,7010405023596,新規,0,2024-09-17,2024-09-17,青山インベストメンツ２一般社団法人,,その他の設立登記法人,東京都,港区,六本木１丁目６番１号泉ガーデンタワー,,13,103,1060032,,,,,,,2024-09-17,1,,,,,アオヤマインベストメンツツー,0
1419,7010903009361,新規,0,2024-09-17,2024-09-17,合同会社Ｈａｃｈｉ,,合同会社,東京都,世田谷区,中町５丁目３５―９,,13,112,1580091,,,,,,,2024-09-17,1,,,,,ハチ,0
1423,7011001164611,新規,0,2024-09-17,2024-09-17,株式会社ＳＴＡＲ　Ｃｏｌｌｅｃｔｉｏｎ,,株式会社,東京都,渋谷区,道玄坂１丁目１０番８号渋谷道玄坂東急ビル２Ｆ－Ｃ,,13,113,1500043,,,,,,,2024-09-17,1,,,,,スターコレクション,0
1424,7011001164644,新規,0,2024-09-17,2024-09-17,株式会社アブレス,,株式会社,東京都,渋谷区,桜丘町２１番地４,,13,113,1500031,,,,,,,2024-09-17,1,,,,,アブレス,0
1426,7011003020003,新規,0,2024-09-17,2024-09-17,合同会社カブラボ,,合同会社,東京都,渋谷区,恵比寿西２丁目４番８号ウィンド恵比寿ビル８Ｆ,,13,113,1500021,,,,,,,2024-09-17,1,,,,,カブラボ,0
1432,7011301030001,新規,0,2024-09-17,2024-09-17,株式会社Ｈｏｍａｘ,,株式会社,東京都,杉並区,宮前４丁目２７番１４－１０１号,,13,115,1680081,,,,,,,2024-09-17,1,,,,,ホマックス,0
1433,7011401026428,新規,0,2024-09-17,2024-09-17,株式会社リンケージ・ワークス,,株式会社,東京都,板橋区,大谷口２丁目６３番８－１０２号,,13,119,1730035,,,,,,,2024-09-17,1,,,,,リンケージワークス,0
1439,7011801044814,新規,0,2024-09-17,2024-09-17,多吉堂株式会社,,株式会社,東京都,葛飾区,堀切７丁目２７－７名橋ビル３０７号室,,13,122,1240006,,,,,,,2024-09-17,1,,,,,タキチドウ,0
1440,7011801044847,新規,0,2024-09-17,2024-09-17,株式会社ＷＦＬ,,株式会社,東京都,足立区,西新井栄町１丁目１５番１４号,,13,121,1230843,,,,,,,2024-09-17,1,,,,,ダブルエフエル,0
1442,7012401042290,新規,0,2024-09-17,2024-09-17,株式会社ＡＭＩＣＯ,,株式会社,東京都,狛江市,和泉本町１丁目１４－１８ルシエール２０２号室,,13,219,2010003,,,,,,,2024-09-17,1,,,,,アミコ,0
1443,7012403006748,新規,0,2024-09-17,2024-09-17,シゴトハジメ合同会社,,合同会社,東京都,稲城市,向陽台４丁目４番地の２ビュープラザ向陽台１－８０３,,13,225,2060803,,,,,,,2024-09-17,1,,,,,シゴトハジメ,0
1444,7012805003293,新規,0,2024-09-17,2024-09-17,一般社団法人たちきたエリアマネジメント,,その他の設立登記法人,東京都,立川市,緑町３番１,,13,202,1900014,,,,,,,2024-09-17,1,,,,,タチキタエリアマネジメント,0
1447,7013303007299,新規,0,2024-09-17,2024-09-17,合同会社ＳＥＶＥＮ,,合同会社,東京都,豊島区,東池袋１丁目９番１０号ユタカビル３階,,13,116,1700013,,,,,,,2024-09-17,1,,,,,セブン,0
1448,7013305003643,新規,0,2024-09-17,2024-09-17,一般社団法人アントレプレナー・デザイン・ラボ,,その他の設立登記法人,東京都,豊島区,東池袋１丁目３０－１２城北自動車会館８階,,13,116,1700013,,,,,,,2024-09-17,1,,,,,アントレプレナーデザインラボ,0
1455,7020001159208,新規,0,2024-09-17,2024-09-17,株式会社無限大,,株式会社,神奈川県,川崎市中原区,小杉町２丁目２２８番地１Ｗ３４０５,,14,133,2110063,,,,,,,2024-09-17,1,,,,,ムゲンダイ,0
1456,7020001159224,新規,0,2024-09-17,2024-09-17,ＴＫＹ株式会社,,株式会社,神奈川県,横浜市青葉区,あざみ野３丁目２３－５あざみ野ガーデンヒルズＥ－１０２,,14,117,2250011,,,,,,,2024-09-17,1,,,,,ティーケーワイ,0
1463,7021001083249,新規,0,2024-09-17,2024-09-17,日本土地企画株式会社,,株式会社,神奈川県,相模原市中央区,小山２丁目６番３８号,,14,152,2520205,,,,,,,2024-09-17,1,,,,,ニホントチキカク,0
1474,7040001135421,新規,0,2024-09-17,2024-09-17,株式会社ＡＳＯＭＩ,,株式会社,千葉県,松戸市,松戸新田５９５番地の３８,,12,207,2702241,,,,,,,2024-09-17,1,,,,,アソミ,0
1478,7040003025802,新規,0,2024-09-17,2024-09-17,合同会社ＣＯＥＵＲ‐ａ‐ＣＯＥＵＲ．ＧＡＲＤＥＮ,,合同会社,千葉県,千葉市中央区,富士見２丁目７番９号富士見ビル６０９号,,12,101,2600015,,,,,,,2024-09-17,1,,,,,クークーガーデン,0
1479,7040005022500,新規,0,2024-09-17,2024-09-17,一般財団法人国際大実,,その他の設立登記法人,千葉県,成田市,土屋１８０１番地,,12,211,2860021,,,,,,,2024-09-17,1,,,,,コクサイオオミ,0
1482,7060001037491,新規,0,2024-09-17,2024-09-17,株式会社縁,,株式会社,栃木県,小山市,城東１丁目１８番２９号,,09,208,3230807,,,,,,,2024-09-17,1,,,,,エニシ,0
1484,7060003005249,新規,0,2024-09-17,2024-09-17,合同会社ｏｒｉｏｎ,,合同会社,栃木県,足利市,田中町９２０番地９－１０２,,09,202,3260822,,,,,,,2024-09-17,1,,,,,オリオン,0
1489,7080101025007,新規,0,2024-09-17,2024-09-17,株式会社船津モータース,,株式会社,静岡県,富士市,西船津８３番地,,22,210,4170814,,,,,,,2024-09-17,1,,,,,フナツモータース,0
1492,7080403005094,新規,0,2024-09-17,2024-09-17,合同会社８．ＡＲＣＩＺＡＮ,,合同会社,静岡県,掛川市,葛川３２５番地の１２,,22,213,4360074,,,,,,,2024-09-17,1,,,,,エイトアルチザン,0
1503,7120001268527,新規,0,2024-09-17,2024-09-17,株式会社ａｓｋ,,株式会社,大阪府,大阪市中央区,南船場３丁目２番２２号おおきに南船場ビル２０５,,27,128,5420081,,,,,,,2024-09-17,1,,,,,アスク,0
1504,7120001268601,新規,0,2024-09-17,2024-09-17,株式会社Ｓｅｅ　Ｂｒｉｇｈｔ,,株式会社,大阪府,大阪市北区,梅田１丁目２番２号大阪駅前第２ビル１２－１２,,27,127,5300001,,,,,,,2024-09-17,1,,,,,シーブライト,0
1506,7120005024538,新規,0,2024-09-17,2024-09-17,一般社団法人グリーフサポートｅｓｃｏｒｔ,,その他の設立登記法人,大阪府,大阪市福島区,海老江２丁目８番３２－９０８号,,27,103,5530001,,,,,,,2024-09-17,1,,,,,グリーフサポートエスコート,0
1507,7120101070295,新規,0,2024-09-17,2024-09-17,ネオネクスト株式会社,,株式会社,大阪府,堺市北区,東浅香山町２丁２４０番地７,,27,146,5918008,,,,,,,2024-09-17,1,,,,,ネオネクスト,0
1510,7122001038455,新規,0,2024-09-17,2024-09-17,大和ホールディングス株式会社,,株式会社,大阪府,東大阪市,高井田西３丁目６番２９号,,27,227,5770067,,,,,,,2024-09-17,1,,,,,ダイワホールディングス,0
1512,7130001077943,新規,0,2024-09-17,2024-09-17,株式会社青葉不動産管理,,株式会社,京都府,京都市北区,小山花ノ木町１６番地,,26,101,6038122,,,,,,,2024-09-17,1,,,,,アオバフドウサンカンリ,0
1515,7130005017177,新規,0,2024-09-17,2024-09-17,一般社団法人学び方のダイバーシティ研究実践協会,,その他の設立登記法人,京都府,京都市上京区,室町通丸太町上る大門町２５３番地,,26,102,6028024,,,,,,,2024-09-17,1,,,,,マナビカタノダイバーシティケンキュウジッセンキョウカイ,0
1520,7140001135824,新規,0,2024-09-17,2024-09-17,株式会社Ｆｉｎａｌ　ｓｔａｇｅ,,株式会社,兵庫県,西宮市,上鳴尾町６番８号,,28,204,6638186,,,,,,,2024-09-17,1,,,,,ファイナルステージ,0
1524,7140003021089,新規,0,2024-09-17,2024-09-17,合同会社トラクル,,合同会社,兵庫県,神戸市中央区,中町通３丁目１番１６－５０２号,,28,110,6500027,,,,,,,2024-09-17,1,,,,,トラクル,0
1529,7170001018308,新規,0,2024-09-17,2024-09-17,株式会社高見組,,株式会社,和歌山県,日高郡日高町,大字志賀５３６番地,,30,382,6491221,,,,,,,2024-09-17,1,,,,,タカミグミ,0
1538,7180001163227,新規,0,2024-09-17,2024-09-17,株式会社マツエイティブ,,株式会社,愛知県,名古屋市守山区,小幡千代田１５番５号ＬＩＢＹＡＮＧＬＡＳＳ３０１号,,23,113,4630053,,,,,,,2024-09-17,1,,,,,マツエイティブ,0
1539,7180001163243,新規,0,2024-09-17,2024-09-17,株式会社Ｗｉｎｇ,,株式会社,愛知県,名古屋市東区,泉２丁目１３番４号カスティロ泉６Ｃ,,23,102,4610001,,,,,,,2024-09-17,1,,,,,ウイング,0
1540,7180003027339,新規,0,2024-09-17,2024-09-17,合同会社徒然農園,,合同会社,愛知県,知多郡南知多町,大字山海字天神東１８番地の１,,23,445,4703322,,,,,,,2024-09-17,1,,,,,ツレヅレノウエン,0
1541,7180003027347,新規,0,2024-09-17,2024-09-17,Ｍｆａｍ合同会社,,合同会社,愛知県,名古屋市東区,泉１丁目１８番１０号,,23,102,4610001,,,,,,,2024-09-17,1,,,,,エムファム,0
1542,7180005020770,新規,0,2024-09-17,2024-09-17,特定非営利活動法人ディスレクシア協会名古屋,,その他の設立登記法人,愛知県,名古屋市昭和区,東畑町１丁目４１番地の４,,23,107,4660014,,,,,,,2024-09-17,1,,,,,ディスレクシアキョウカイナゴヤ,0
1543,7180301039060,新規,0,2024-09-17,2024-09-17,株式会社バームビューロ,,株式会社,愛知県,西尾市,住崎６丁目１５番地,,23,213,4450879,,,,,,,2024-09-17,1,,,,,バームビューロ,0
1545,7190001031647,新規,0,2024-09-17,2024-09-17,ファームよねい株式会社,,株式会社,三重県,伊賀市,川合３４１０番地,,24,216,5181315,,,,,,,2024-09-17,1,,,,,ファームヨネイ,0
1552,7200003006505,新規,0,2024-09-17,2024-09-17,ＲＩＴＯＮ合同会社,,合同会社,岐阜県,各務原市,川島松倉町２３５２番地１２,,21,213,5016022,,,,,,,2024-09-17,1,,,,,リトン,0
1553,7210001019912,新規,0,2024-09-17,2024-09-17,株式会社ＡＴＥＬＩＥＲ９０１,,株式会社,福井県,福井市,大手３丁目６番５号ルラーシェ４０１,,18,201,9100005,,,,,,,2024-09-17,1,,,,,アトリエキュウゼロイチ,0
1559,7240001063825,新規,0,2024-09-17,2024-09-17,株式会社アイ・ソーイング日本海,,株式会社,広島県,三原市,港町１丁目５番１９号,,34,204,7230017,,,,,,,2024-09-17,1,,,,,アイソーイングニホンカイ,0
1562,7240003006856,新規,0,2024-09-17,2024-09-17,合同会社ＡＯ　ＷＯＲＫＳ,,合同会社,広島県,広島市南区,東雲３丁目９番２６－８０１号,,34,103,7340022,,,,,,,2024-09-17,1,,,,,アオワークス,0
1563,7250003003563,新規,0,2024-09-17,2024-09-17,ラクナ合同会社,,合同会社,山口県,大島郡周防大島町,大字東屋代２４０１番地,,35,305,7422107,,,,,,,2024-09-17,1,,,,,ラクナ,0
1568,7290001107255,新規,0,2024-09-17,2024-09-17,依諾株式会社,,株式会社,福岡県,福岡市東区,多の津１丁目１０番１号,,40,131,8130034,,,,,,,2024-09-17,1,,,,,イダク,0
1571,7290003015811,新規,0,2024-09-17,2024-09-17,合同会社Ｇ．ｇ,,合同会社,福岡県,糟屋郡粕屋町,大字阿惠２２４番地１,,40,349,8112306,,,,,,,2024-09-17,1,,,,,ジージー,0
1578,7340003004602,新規,0,2024-09-17,2024-09-17,合同会社ｌａｕｇｈ,,合同会社,鹿児島県,鹿児島市,易居町２―１１―９０６,,46,201,8920815,,,,,,,2024-09-17,1,,,,,ラフ,0
1584,7380001034795,新規,0,2024-09-17,2024-09-17,株式会社カンガミル,,株式会社,福島県,いわき市,三和町合戸字入藪１７番地１,,07,204,9701264,,,,,,,2024-09-17,1,,,,,カンガミル,0
1589,7420001018868,新規,0,2024-09-17,2024-09-17,株式会社ＡＯ‐ＷＯＲＫＳ,,株式会社,青森県,北津軽郡中泊町,大字尾別字浅井２４２－２５,,02,387,0370304,,,,,,,2024-09-17,1,,,,,エーオーワークス,0
1590,7420003002993,新規,0,2024-09-17,2024-09-17,合同会社Ｎ・Ｒ・Ａ,,合同会社,青森県,青森市,古川１丁目２１番１２号,,02,201,0300862,,,,,,,2024-09-17,1,,,,,エヌアールエー,0
1592,7430001092672,新規,0,2024-09-17,2024-09-17,株式会社Ｍｉｏ,,株式会社,北海道,札幌市西区,西町北１９丁目２番１８号,,01,107,0630061,,,,,,,2024-09-17,1,,,,,ミオ,0
1593,7430001092680,新規,0,2024-09-17,2024-09-17,Ｗｉｎｇ株式会社,,株式会社,北海道,札幌市中央区,北二条西２０丁目１番１２号佐々木ビル１階,,01,101,0640822,,,,,,,2024-09-17,1,,,,,ウイング,0
1594,7430001092689,新規,0,2024-09-17,2024-09-17,株式会社京二輪商会,,株式会社,北海道,苫小牧市,日新町６丁目２番２６号,,01,213,0530833,,,,,,,2024-09-17,1,,,,,キョウニリンショウカイ,0
1595,7430001092697,新規,0,2024-09-17,2024-09-17,株式会社都市土木興業,,株式会社,北海道,札幌市北区,北二十八条西１５丁目１番１９号,,01,102,0010028,,,,,,,2024-09-17,1,,,,,トシドボクコウギョウ,0
1598,7430003016778,新規,0,2024-09-17,2024-09-17,合同会社匠,,合同会社,北海道,小樽市,銭函１丁目３７番１５号,,01,203,0470261,,,,,,,2024-09-17,1,,,,,タクミ,0
1603,7480001012592,新規,0,2024-09-17,2024-09-17,ＣＤＷ株式会社,,株式会社,徳島県,鳴門市,鳴門町高島字中島２０９番地,,36,202,7720051,,,,,,,2024-09-17,1,,,,,シーディーダブリュー,0
1607,7500003003331,新規,0,2024-09-17,2024-09-17,合同会社ＫＴＭ,,合同会社,愛媛県,松山市,三番町２丁目１０－１,,38,201,7900003,,,,,,,2024-09-17,1,,,,,ケーティーエム,0
1613,8010001247978,新規,0,2024-09-17,2024-09-17,株式会社Ｔｈｅ　Ｐｅａｃｅ　Ｆｒｏｎｔ,,株式会社,東京都,文京区,本郷１丁目３５番２８－１２１０号,,13,105,1130033,,,,,,,2024-09-17,1,,,,,ザピースフロント,0
1614,8010001248134,新規,0,2024-09-17,2024-09-17,株式会社ＳｔａｒｔＬｉｎｋ,,株式会社,東京都,中央区,銀座１丁目１２番４号Ｎ＆ＥＢＬＤ．６Ｆ,,13,102,1040061,,,,,,,2024-09-17,1,,,,,スタートリンク,0
1615,8010001248282,新規,0,2024-09-17,2024-09-17,ＵｎｉＣｏｎｖｏ株式会社,,株式会社,東京都,中央区,銀座１丁目１２番４号Ｎ＆Ｅ・ＢＬＤ．６Ｆ,,13,102,1040061,,,,,,,2024-09-17,1,,,,,ユニコンボ,0
1616,8010001248290,新規,0,2024-09-17,2024-09-17,ＮＹＣＩ１２株式会社,,株式会社,東京都,中央区,新川１丁目６番１１号,,13,102,1040033,,,,,,,2024-09-17,1,,,,,エヌワイシーアイトゥエルヴ,0
1617,8010001248316,新規,0,2024-09-17,2024-09-17,ＴｅｃＴｉｃ　Ｎｏｖａ　Ｊａｐａｎ株式会社,,株式会社,東京都,中央区,新川１丁目２７番８号新川大原ビル８階,,13,102,1040033,,,,,,,2024-09-17,1,,,,,チェクチクノーバジャパン,0
1618,8010001248324,新規,0,2024-09-17,2024-09-17,株式会社日信,,株式会社,東京都,文京区,水道１丁目２－１７ライオンズスクエア小石川後楽園３１５号,,13,105,1120005,,,,,,,2024-09-17,1,,,,,ニッシン,0
1619,8010001248365,新規,0,2024-09-17,2024-09-17,ＳＩＧＮＢＩＲＤ株式会社,,株式会社,東京都,中央区,日本橋本町３丁目３－６ワカ末ビル７階,,13,102,1030023,,,,,,,2024-09-17,1,,,,,サインバード,0
1620,8010003044903,新規,0,2024-09-17,2024-09-17,Ｒｉｄｇｅ　Ｒｏａｄ合同会社,,合同会社,東京都,中央区,日本橋室町４丁目３番９号,,13,102,1030022,,,,,,,2024-09-17,1,,,,,リッジロード,0
1624,8010401185035,新規,0,2024-09-17,2024-09-17,Ｓｉｌｖｅｒｌｉｎｋ　Ｔｅｃｈｎｏｌｏｇｉｅｓ　Ｊａｐａｎ株式会社,,株式会社,東京都,港区,芝大門２丁目１２番１０号Ｔ＆Ｇ浜松町ビル６Ｆ,,13,103,1050012,,,,,,,2024-09-17,1,,,,,シルバーリンクテクノロジーズジャパン,0
1625,8010401185101,新規,0,2024-09-17,2024-09-17,株式会社ＡｇａｖｅＬｉｖｅｓ,,株式会社,東京都,港区,南青山２丁目２番１５号ウィン青山９４２,,13,103,1070062,,,,,,,2024-09-17,1,,,,,アガベライブズ,0
1628,8010403033415,新規,0,2024-09-17,2024-09-17,ＡＳ　Ｇｒｏｂａｌ合同会社,,合同会社,東京都,港区,虎ノ門１丁目２３番２－４４０５号,,13,103,1050001,,,,,,,2024-09-17,1,,,,,エーエスグローバル,0
1629,8010405023595,新規,0,2024-09-17,2024-09-17,青山インベストメンツ１一般社団法人,,その他の設立登記法人,東京都,港区,六本木１丁目６番１号泉ガーデンタワー,,13,103,1060032,,,,,,,2024-09-17,1,,,,,アオヤマインベストメンツワン,0
1632,8010601065920,新規,0,2024-09-17,2024-09-17,株式会社Ｂ‐ＢＣ,,株式会社,東京都,江東区,有明３丁目５番７号ＴＯＣ有明ウエストタワー１４階,,13,108,1350063,,,,,,,2024-09-17,1,,,,,ビービーシー,0
1633,8010601065929,新規,0,2024-09-17,2024-09-17,睿嘉貿易株式会社,,株式会社,東京都,江東区,東砂３丁目２０番２４－２００３号,,13,108,1360074,,,,,,,2024-09-17,1,,,,,エイカボウエキ,0
1634,8010601065937,新規,0,2024-09-17,2024-09-17,株式会社Ｈｏｐｅ　Ｍａｋｅｒ,,株式会社,東京都,江東区,東砂５丁目１０番１５号,,13,108,1360074,,,,,,,2024-09-17,1,,,,,ホープメイカー,0
1642,8011001164478,新規,0,2024-09-17,2024-09-17,株式会社プロの副業,,株式会社,東京都,渋谷区,円山町３番６号Ｅ・スペースタワー４階,,13,113,1500044,,,,,,,2024-09-17,1,,,,,プロノフクギョウ,0
1643,8011001164577,新規,0,2024-09-17,2024-09-17,株式会社Ｙｏｕｓｅｆｕｌ,,株式会社,東京都,渋谷区,円山町５番５号Ｎａｖｉ渋谷Ｖ３階,,13,113,1500044,,,,,,,2024-09-17,1,,,,,ユースフル,0
1644,8011001164651,新規,0,2024-09-17,2024-09-17,Ａｎｙｓｔａｒ株式会社,,株式会社,東京都,渋谷区,神宮前６丁目２３番４号桑野ビル２階,,13,113,1500001,,,,,,,2024-09-17,1,,,,,エニィスター,0
1646,8011003019993,新規,0,2024-09-17,2024-09-17,合同会社Ｍ．Ｎ．Ｍ,,合同会社,東京都,渋谷区,笹塚１丁目３１番７号,,13,113,1510073,,,,,,,2024-09-17,1,,,,,,0
1647,8011003020002,新規,0,2024-09-17,2024-09-17,Ａｕｔｈｏｒｓ　Ｔｏｋｙｏ合同会社,,合同会社,東京都,渋谷区,恵比寿西２丁目１９番９号フランセスビル１Ｆ－２Ｆ,,13,113,1500021,,,,,,,2024-09-17,1,,,,,アーサーズトウキョウ,0
1648,8011003020051,新規,0,2024-09-17,2024-09-17,スウィフト・パレット合同会社,,合同会社,東京都,渋谷区,道玄坂１丁目１６‐６二葉ビル８ｂ,,13,113,1500043,,,,,,,2024-09-17,1,,,,,スウィフトパレット,0
1654,8011201025793,新規,0,2024-09-17,2024-09-17,株式会社Ｌ．Ｈｅａｄ,,株式会社,東京都,中野区,東中野１丁目２８番６－３０４号,,13,114,1640003,,,,,,,2024-09-17,1,,,,,エルヘッド,0
1659,8011501031153,新規,0,2024-09-17,2024-09-17,米毫ジャパン株式会社,,株式会社,東京都,北区,豊島４丁目１３－１１,,13,117,1140003,,,,,,,2024-09-17,1,,,,,ベイゴウジャパン,0
1660,8011503006228,新規,0,2024-09-17,2024-09-17,合同会社ライフルエンス,,合同会社,東京都,北区,赤羽南２丁目２１番１号プラウド赤羽２０２,,13,117,1150044,,,,,,,2024-09-17,1,,,,,ライフルエンス,0
1662,8011603004453,新規,0,2024-09-17,2024-09-17,ＮＩＮＥＰＬＵＳ合同会社,,合同会社,東京都,練馬区,早宮１丁目４２番１２号,,13,120,1790085,,,,,,,2024-09-17,1,,,,,ナインプラス,0
1663,8011701027620,新規,0,2024-09-17,2024-09-17,江戸川投資株式会社,,株式会社,東京都,江戸川区,中葛西１丁目４６番６号,,13,123,1340083,,,,,,,2024-09-17,1,,,,,エドガワトウシ,0
1667,8012301014083,新規,0,2024-09-17,2024-09-17,株式会社都市開発,,株式会社,東京都,町田市,小山町５６６番地,,13,209,1940212,,,,,,,2024-09-17,1,,,,,トシカイハツ,0
1676,8013301053096,新規,0,2024-09-17,2024-09-17,株式会社Ｍｏｌ．１,,株式会社,東京都,豊島区,東池袋３丁目１２番５号,,13,116,1700013,,,,,,,2024-09-17,1,,,,,モルワン,0
1677,8013301053105,新規,0,2024-09-17,2024-09-17,Ｕｎｉｃｏ株式会社,,株式会社,東京都,豊島区,東池袋４丁目２７－５ライオンズプラザ池袋１２０４,,13,116,1700013,,,,,,,2024-09-17,1,,,,,ユニコ,0
1678,8013303007298,新規,0,2024-09-17,2024-09-17,ＮＧＯＣ　ＳＯＮ合同会社,,合同会社,東京都,豊島区,南大塚１丁目６０番２０号天翔大塚駅前ビル１階・２階Ｃ号室,,13,116,1700005,,,,,,,2024-09-17,1,,,,,ゴックソン,0
1679,8013305003642,新規,0,2024-09-17,2024-09-17,医療法人社団ユウマイスター,,その他の設立登記法人,東京都,豊島区,上池袋４丁目２９番９号北池テラス４階,,13,116,1700012,,,,,,,2024-09-17,1,,,,,ユウマイスター,0
1688,8020001159108,新規,0,2024-09-17,2024-09-17,株式会社Ｆｉｓｈ　Ｌｉｎｋ,,株式会社,神奈川県,川崎市川崎区,元木１丁目１２番１３－７０１号,,14,131,2100021,,,,,,,2024-09-17,1,,,,,フィッシュリンク,0
1689,8020001159256,新規,0,2024-09-17,2024-09-17,ｃｈａｒｃｏａｌ　ｂｌｕｅ株式会社,,株式会社,神奈川県,横浜市港南区,野庭町１００番地１シャンデルブ５０１,,14,111,2340056,,,,,,,2024-09-17,1,,,,,チャコールブルー,0
1695,8020003026867,新規,0,2024-09-17,2024-09-17,合同会社プレア,,合同会社,神奈川県,横浜市神奈川区,白幡町９番４３－３０３号,,14,102,2210076,,,,,,,2024-09-17,1,,,,,プレア,0
1698,8021001083215,新規,0,2024-09-17,2024-09-17,アールアイ建機販売株式会社,,株式会社,神奈川県,相模原市南区,相南１丁目２番５２－５０４号,,14,153,2520312,,,,,,,2024-09-17,1,,,,,アールアイケンキハンバイ,0
1699,8021001083231,新規,0,2024-09-17,2024-09-17,Ｐｏｌｙｃｏｎ株式会社,,株式会社,神奈川県,秦野市,南矢名２２２３番地の４東海ビル１０４Ａ,,14,211,2570003,,,,,,,2024-09-17,1,,,,,ポリコン,0
1700,8021001083248,新規,0,2024-09-17,2024-09-17,株式会社湘南ウェルドサービス,,株式会社,神奈川県,茅ヶ崎市,松が丘２丁目６番１９－３０３号ジェームスタウン松が丘,,14,207,2530025,,,,,,,2024-09-17,1,,,,,ショウナンウェルドサービス,0
1704,8030001162465,新規,0,2024-09-17,2024-09-17,ＴＯＳ株式会社,,株式会社,埼玉県,富士見市,大字鶴馬２６１６番地３,,11,235,3540021,,,,,,,2024-09-17,1,,,,,ティーオーエス,0
1705,8030001162481,新規,0,2024-09-17,2024-09-17,ホーリースターエステート株式会社,,株式会社,埼玉県,上尾市,中妻１丁目５番地１８,,11,219,3620072,,,,,,,2024-09-17,1,,,,,ホーリースターエステート,0
1706,8030001162515,新規,0,2024-09-17,2024-09-17,株式会社アンド・ケー,,株式会社,埼玉県,草加市,八幡町７５８番地１－３０２,,11,221,3400006,,,,,,,2024-09-17,1,,,,,アンドケー,0
1717,8040001135387,新規,0,2024-09-17,2024-09-17,ナカモト．Ｃ．Ｅ株式会社,,株式会社,千葉県,印西市,船尾７９５番地,,12,231,2701345,,,,,,,2024-09-17,1,,,,,ナカモトシーイー,0
1718,8040001135420,新規,0,2024-09-17,2024-09-17,シゲテック株式会社,,株式会社,千葉県,浦安市,日の出６丁目２番Ｃ－６０４号アールフォーラム新浦安,,12,227,2790013,,,,,,,2024-09-17,1,,,,,シゲテック,0
1719,8040001135429,新規,0,2024-09-17,2024-09-17,株式会社ＭＡＥＤＡ　ＫＯＧＹＯ,,株式会社,千葉県,市原市,椎津６７番地８,,12,219,2990118,,,,,,,2024-09-17,1,,,,,マエダコウギョウ,0
1725,8050001055378,新規,0,2024-09-17,2024-09-17,晶茂株式会社,,株式会社,茨城県,守谷市,高野２０３０－５,,08,224,3020125,,,,,,,2024-09-17,1,,,,,アキゲ,0
1726,8050001055403,新規,0,2024-09-17,2024-09-17,株式会社ＲｅｄＣｈａｒｍ,,株式会社,茨城県,龍ケ崎市,貝原塚町２５４２,,08,208,3010856,,,,,,,2024-09-17,1,,,,,,0
1743,8100003007776,新規,0,2024-09-17,2024-09-17,シクミリンク合同会社,,合同会社,長野県,東御市,滋野乙４１０５,,20,219,3890512,,,,,,,2024-09-17,1,,,,,シクミリンク,0
1749,8120003027491,新規,0,2024-09-17,2024-09-17,銀都合同会社,,合同会社,大阪府,大阪市西成区,南津守６丁目７番８号津守Ｋａｎａｅ１Ｃ号室,,27,122,5570063,,,,,,,2024-09-17,1,,,,,ギント,0
1751,8120101070286,新規,0,2024-09-17,2024-09-17,株式会社吉源,,株式会社,大阪府,堺市北区,東浅香山町３丁１０４番地,,27,146,5918008,,,,,,,2024-09-17,1,,,,,ヨシゲン,0
1752,8120101070294,新規,0,2024-09-17,2024-09-17,株式会社Ｇｒａｖａｔａ,,株式会社,大阪府,堺市北区,長曽根町４７コンフォートなかもず１Ｆ,,27,146,5918025,,,,,,,2024-09-17,1,,,,,グラバータ,0
1753,8120103006057,新規,0,2024-09-17,2024-09-17,合同会社Ｖｉｖｉｄ　Ｃｏｌｏｒ,,合同会社,大阪府,羽曳野市,野々上４丁目３―１９,,27,222,5830871,,,,,,,2024-09-17,1,,,,,ビビットカラー,0
1755,8120903005332,新規,0,2024-09-17,2024-09-17,合同会社プレミアム焼肉ジャパン,,合同会社,大阪府,豊中市,向丘３丁目７－３６,,27,203,5600053,,,,,,,2024-09-17,1,,,,,プレミアムヤキニクジャパン,0
1762,8130001077934,新規,0,2024-09-17,2024-09-17,株式会社西村,00136314,株式会社,京都府,京都市北区,小山下板倉町２６番地１,,26,101,6038124,,,,,,,2024-09-17,1,,,,,ニシムラ,0
1763,8130001077942,新規,0,2024-09-17,2024-09-17,株式会社ＬｕｍｉｎａｒｙＮｅｘｕｓＡｄｖｉｓｏｒｓ,,株式会社,京都府,宇治市,天神台２丁目１－１７,,26,204,6110029,,,,,,,2024-09-17,1,,,,,ルミナリーネクサスアドバイザース,0
1771,8140003021022,新規,0,2024-09-17,2024-09-17,華合同会社,,合同会社,兵庫県,西脇市,野村町２８４番地の２,,28,213,6770054,,,,,,,2024-09-17,1,,,,,ハナ,0
1780,8180001163226,新規,0,2024-09-17,2024-09-17,株式会社ＯＧＡＷＡ,,株式会社,愛知県,弥富市,平島町五反割５３番地１２,,23,235,4980031,,,,,,,2024-09-17,1,,,,,オガワ,0
1787,8180303006272,新規,0,2024-09-17,2024-09-17,合同会社Ａｍｂｉｔｉｏｎ,,合同会社,愛知県,刈谷市,一里山町北大根６８番地１,,23,210,4480002,,,,,,,2024-09-17,1,,,,,アンビション,0
1789,8190001031646,新規,0,2024-09-17,2024-09-17,石橋株式会社,,株式会社,三重県,四日市市,久保田２丁目３番１８号プリンセスマンション１Ｄ号室,,24,202,5100821,,,,,,,2024-09-17,1,,,,,イシバシ,0
1797,8220003003838,新規,0,2024-09-17,2024-09-17,合同会社ｅｎｔｚｃｌｅ,,合同会社,石川県,金沢市,堀川新町５番１号,,17,201,9200849,,,,,,,2024-09-17,1,,,,,エンツクル,0
1805,8240001063816,新規,0,2024-09-17,2024-09-17,株式会社都市警備,,株式会社,広島県,広島市西区,都町３４番８号,,34,104,7330023,,,,,,,2024-09-17,1,,,,,トシケイビ,0
1807,8240003006855,新規,0,2024-09-17,2024-09-17,オルガイアジャパン合同会社,,合同会社,広島県,広島市西区,山田新町１丁目１２番２２号,,34,104,7330853,,,,,,,2024-09-17,1,,,,,オルガイアジャパン,0
1816,8280003001885,新規,0,2024-09-17,2024-09-17,ＭＫアセット合同会社,,合同会社,島根県,雲南市,加茂町近松８３－２,,32,209,6991103,,,,,,,2024-09-17,1,,,,,エムケーアセット,0
1820,8290001107221,新規,0,2024-09-17,2024-09-17,ＦＵＴＵＲＥＶＥＲＳＩＯＮ株式会社,,株式会社,福岡県,福岡市中央区,白金２丁目４番２８－１０７号,,40,133,8100012,,,,,,,2024-09-17,1,,,,,フューチャーバージョン,0
1821,8290001107254,新規,0,2024-09-17,2024-09-17,株式会社ユーロ,,株式会社,福岡県,福岡市早良区,昭代２丁目１０番５０号,,40,137,8140012,,,,,,,2024-09-17,1,,,,,ユーロ,0
1822,8290001107262,新規,0,2024-09-17,2024-09-17,ポルクス株式会社,,株式会社,福岡県,福岡市博多区,店屋町２番２９号ＩＧＳ博多ビル７Ｆ,,40,132,8120025,,,,,,,2024-09-17,1,,,,,ポルクス,0
1823,8290001107287,新規,0,2024-09-17,2024-09-17,ＭＧ株式会社,,株式会社,福岡県,福岡市南区,老司５丁目１番２－１号,,40,134,8111346,,,,,,,2024-09-17,1,,,,,エムジー,0
1837,8400003003324,新規,0,2024-09-17,2024-09-17,合同会社Ｌｉｆｅ　ｉｓ　Ｏ,,合同会社,岩手県,盛岡市,南仙北２丁目１９番５号,,03,201,0200863,,,,,,,2024-09-17,1,,,,,ライフイズオー,0
1843,8430001092688,新規,0,2024-09-17,2024-09-17,株式会社Ｂｕｄｄｙ　Ｎｏｒｔｈ,,株式会社,北海道,札幌市白石区,本通１丁目南１番１－１０１号,,01,104,0030026,,,,,,,2024-09-17,1,,,,,バディノース,0
1846,8430003016785,新規,0,2024-09-17,2024-09-17,合同会社ネコノテ,,合同会社,北海道,札幌市中央区,北一条西３丁目３番地ばらと北一条ビル９Ｆ－６４,,01,101,0600001,,,,,,,2024-09-17,1,,,,,ネコノテ,0
1847,8430003016793,新規,0,2024-09-17,2024-09-17,ウェラセット合同会社,,合同会社,北海道,苫小牧市,字錦岡４９５番地の１３４９,,01,213,0591275,,,,,,,2024-09-17,1,,,,,ウェラセット,0
1854,8700150127168,新規,0,2024-09-17,2024-09-17,Ｒｅａｌ　Ｂｅｓｔ　Ｐｒｏｐｅｒｔｉｅｓ　Ｌｉｍｉｔｅｄ,,外国会社等,,,,,,,,Ｈｏｕｓｅ　８　Ｓｉｌｖｅｒｓｔｒａｎｄ　Ｇａｒｄｅｎ　１１　Ｓｉｌｖｅｒｓｔｒａｎｄ　Ｂｅａｃｈ　Ｒｏａｄ　Ｃｌｅａｒｗａｔｅｒ　ＢａｙＳａｉ　Ｋｕｎｇ　ＨＫ,,,,,,2024-09-17,1,,,,,リアルベストプロパテイズリミテツド,0
1865,9010003044902,新規,0,2024-09-17,2024-09-17,合同会社ＢＥＡＴＮＥＸ,,合同会社,東京都,千代田区,神田須田町１丁目７番８号ＶＯＲＴ秋葉原ＩＶ２Ｆ,00136308,13,101,1010041,,,,,,,2024-09-17,1,,,,,ビートネックス,0
1867,9010005038828,新規,0,2024-09-17,2024-09-17,医療法人社団飛翔みらい会,,その他の設立登記法人,東京都,中央区,京橋２丁目１１番５号パインセントラルビル５階,,13,102,1040031,,,,,,,2024-09-17,1,,,,,ヒショウミライカイ,0
1871,9010401185174,新規,0,2024-09-17,2024-09-17,株式会社Ｂｕｚｚ　Ｍａｄｅ,,株式会社,東京都,港区,赤坂７丁目２番２１号草月会館９Ｆ,,13,103,1070052,,,,,,,2024-09-17,1,,,,,バズメイド,0
1874,9010405023594,新規,0,2024-09-17,2024-09-17,青山インベストメンツ特定目的会社,,その他の設立登記法人,東京都,港区,六本木１丁目６番１号泉ガーデンタワー,,13,103,1060032,,,,,,,2024-09-17,1,,,,,アオヤマインベストメンツ,0
1875,9010501052910,新規,0,2024-09-17,2024-09-17,株式会社Ｎｏ．Ｋ,,株式会社,東京都,台東区,西浅草２丁目２３番７号,,13,106,1110035,,,,,,,2024-09-17,1,,,,,ナンバーケー,0
1885,9011001164386,新規,0,2024-09-17,2024-09-17,モンレーヴ株式会社,,株式会社,東京都,渋谷区,神宮前２丁目３０番３２号パークレーンプラザ６０２,,13,113,1500001,,,,,,,2024-09-17,1,,,,,モンレーヴ,0
1886,9011001164519,新規,0,2024-09-17,2024-09-17,ｏｎｅｍｏｔｉｏｎ株式会社,,株式会社,東京都,目黒区,碑文谷５丁目２番５号Ｔ＆Ａビル５Ｆ,,13,110,1520003,,,,,,,2024-09-17,1,,,,,ワンモーション,0
1887,9011001164527,新規,0,2024-09-17,2024-09-17,ＴｏＭｅ株式会社,,株式会社,東京都,渋谷区,渋谷２丁目１９－１５宮益坂ビルディング６０９,,13,113,1500002,,,,,,,2024-09-17,1,,,,,トゥーミー,0
1888,9011001164642,新規,0,2024-09-17,2024-09-17,株式会社Ｂｌｕｅｉｓｈ,,株式会社,東京都,渋谷区,道玄坂１丁目１０番８号渋谷道玄坂東急ビル２Ｆ－Ｃ,,13,113,1500043,,,,,,,2024-09-17,1,,,,,ブルーイッシュ,0
1889,9011001164650,新規,0,2024-09-17,2024-09-17,ＯＨＡＮＡＩＮＡ株式会社,,株式会社,東京都,渋谷区,恵比寿１丁目１５番９号,,13,113,1500013,,,,,,,2024-09-17,1,,,,,オハナイナ,0
1891,9011003019992,新規,0,2024-09-17,2024-09-17,Ｃ　ｄｅｓｉｇｎ合同会社,,合同会社,東京都,渋谷区,神宮前６丁目２３番４号桑野ビル２階,,13,113,1500001,,,,,,,2024-09-17,1,,,,,シーデザイン,0
1895,9011101108680,新規,0,2024-09-17,2024-09-17,株式会社ｆｏｕｒ　Ｃ　ｐａｒｔｎｅｒｓ　ｃｏｎｓｕｌｔｉｎｇ,,株式会社,東京都,新宿区,袋町５番地１,,13,104,1620828,,,,,,,2024-09-17,1,,,,,フォーシーパートナーズコンサルティング,0
1896,9011201025792,新規,0,2024-09-17,2024-09-17,株式会社ＨＳＫ　Ｗｏｒｋｓ,,株式会社,東京都,中野区,江古田２丁目１３番１号,,13,114,1650022,,,,,,,2024-09-17,1,,,,,エイチエスケイワークス,0
1898,9011403004504,新規,0,2024-09-17,2024-09-17,ＭＴアセットマネジメント合同会社,,合同会社,東京都,板橋区,板橋１丁目３１番１４号ＫＡＩＵＬＡＮＩ２０３,,13,119,1730004,,,,,,,2024-09-17,1,,,,,エムティーアセットマネジメント,0
1903,9012401042280,新規,0,2024-09-17,2024-09-17,機能性混合セメント株式会社,,株式会社,東京都,小金井市,梶野町２丁目６番４６号,,13,210,1840002,,,,,,,2024-09-17,1,,,,,キノウセイコンゴウセメント,0
1904,9012403006688,新規,0,2024-09-17,2024-09-17,合同会社ＡＲＴＳ,,合同会社,東京都,府中市,四谷５丁目４１－２０－８０３,,13,206,1830035,,,,,,,2024-09-17,1,,,,,アーツ,0
1915,9020001159057,新規,0,2024-09-17,2024-09-17,株式会社ジェイエムステイ,,株式会社,神奈川県,横浜市西区,霞ケ丘３０番地３９,,14,103,2200035,,,,,,,2024-09-17,1,,,,,ジェイエムステイ,0
1916,9020001159131,新規,0,2024-09-17,2024-09-17,株式会社ＬＥＵＲ,,株式会社,神奈川県,横浜市保土ケ谷区,和田２丁目１２番１４号,,14,106,2400065,,,,,,,2024-09-17,1,,,,,ルー,0
1917,9020001159180,新規,0,2024-09-17,2024-09-17,株式会社いがり会計,,株式会社,神奈川県,川崎市川崎区,渡田新町３丁目１番７－４号,,14,131,2100844,,,,,,,2024-09-17,1,,,,,イガリカイケイ,0
1918,9020001159206,新規,0,2024-09-17,2024-09-17,株式会社中崎商店,00136310,株式会社,神奈川県,川崎市中原区,中丸子５５２番地３１,,14,133,2110012,,,,,,,2024-09-17,1,,,,,ナカザキショウテン,0
1921,9020003026882,新規,0,2024-09-17,2024-09-17,合同会社Ｔａｌｕｇｉ,,合同会社,神奈川県,横浜市旭区,二俣川１丁目４５－８３機構第一ビル３０３,,14,112,2410821,,,,,,,2024-09-17,1,,,,,タルギ,0
1922,9021001083230,新規,0,2024-09-17,2024-09-17,唐虞株式会社,,株式会社,神奈川県,秦野市,南矢名２２２３番地の４東海ビル１０４Ｂ,,14,211,2570003,,,,,,,2024-09-17,1,,,,,トウグ,0
1923,9021001083255,新規,0,2024-09-17,2024-09-17,株式会社ＶＥＲＴＥＫＳ,,株式会社,神奈川県,大和市,福田４０７６番地１４,,14,213,2420024,,,,,,,2024-09-17,1,,,,,ヴァーテックス,0
1924,9021003015017,新規,0,2024-09-17,2024-09-17,ヤンサース合同会社,,合同会社,神奈川県,藤沢市,鵠沼海岸２丁目１番１３号,,14,205,2510037,,,,,,,2024-09-17,1,,,,,ヤンサース,0
1927,9030001162539,新規,0,2024-09-17,2024-09-17,株式会社山源,,株式会社,埼玉県,新座市,野火止７丁目７番３号,,11,230,3520011,,,,,,,2024-09-17,1,,,,,ヤマゲン,0
1929,9030003025099,新規,0,2024-09-17,2024-09-17,開進貿易合同会社,,合同会社,埼玉県,川口市,飯塚１丁目２－１６川口ホームズ１Ｆ,,11,203,3320023,,,,,,,2024-09-17,1,,,,,カイシンボウエキ,0
1930,9030003025124,新規,0,2024-09-17,2024-09-17,Ｐｅａｃｅ合同会社,,合同会社,埼玉県,春日部市,東中野５６３－１４,,11,214,3440114,,,,,,,2024-09-17,1,,,,,ピース,0
1939,9040001135361,新規,0,2024-09-17,2024-09-17,Ｆｉｖｅ‐ｊｏｔｕｎ株式会社,,株式会社,千葉県,野田市,大殿井３７１番地の４２,,12,208,2780017,,,,,,,2024-09-17,1,,,,,ファイブヨトゥン,0
1940,9040001135394,新規,0,2024-09-17,2024-09-17,株式会社Ａｓｓｉｓｔ,,株式会社,千葉県,八街市,八街ほ３１６番地１８,,12,230,2891115,,,,,,,2024-09-17,1,,,,,アシスト,0
1941,9040001135403,新規,0,2024-09-17,2024-09-17,株式会社ＳＦ環境サービス,,株式会社,千葉県,市原市,山倉１０８７番地３,,12,219,2900201,,,,,,,2024-09-17,1,,,,,エスエフカンキョウサービス,0
1942,9040001135428,新規,0,2024-09-17,2024-09-17,株式会社フルール・ド・リス,,株式会社,千葉県,鴨川市,江見外堀８２０番地,,12,223,2992846,,,,,,,2024-09-17,1,,,,,フルールドリス,0
1945,9040003025759,新規,0,2024-09-17,2024-09-17,合同会社フォワード,,合同会社,千葉県,松戸市,五香南３丁目１９番地の２Ｃｒｅｃｉａ五香南１０２号,,12,207,2702212,,,,,,,2024-09-17,1,,,,,フォワード,0
1946,9040003025800,新規,0,2024-09-17,2024-09-17,ＡＫＥＮＯ　ＣＯＮＮＥＣＴ合同会社,,合同会社,千葉県,千葉市美浜区,打瀬２丁目１番地２,,12,106,2610013,,,,,,,2024-09-17,1,,,,,アケノコネクト,0
1953,9060001037498,新規,0,2024-09-17,2024-09-17,株式会社鹿沼フレッシュ,,株式会社,栃木県,鹿沼市,西茂呂１丁目２０番地２３,,09,205,3220029,,,,,,,2024-09-17,1,,,,,カヌマフレッシュ,0
1954,9060005010245,新規,0,2024-09-17,2024-09-17,一般社団法人キャリアトランスフォーム,,その他の設立登記法人,栃木県,宇都宮市,春日町３番３１号,,09,201,3210108,,,,,,,2024-09-17,1,,,,,キャリアトランスフォーム,0
1955,9070001042183,新規,0,2024-09-17,2024-09-17,株式会社ＩＮＦＩＮＩＴＹ,,株式会社,群馬県,高崎市,柳川町３８番地,,10,202,3700815,,,,,,,2024-09-17,1,,,,,インフィニティ,0
1966,9100003007775,新規,0,2024-09-17,2024-09-17,合同会社ＢＥＳＴ　ＬＩＦＥ　ＩＩＺＵＮＡ,,合同会社,長野県,上水内郡飯綱町,大字川上２７５５番地１９０２,,20,590,3891226,,,,,,,2024-09-17,1,,,,,ベストライフイイヅナ,0
1973,9120003027508,新規,0,2024-09-17,2024-09-17,ＴＶＶ合同会社,,合同会社,大阪府,大阪市西成区,千本北２丁目１６番３号,,27,122,5570053,,,,,,,2024-09-17,1,,,,,ティヴィヴィ,0
1974,9120103006056,新規,0,2024-09-17,2024-09-17,合同会社Ｅクリーンメンテナンス,,合同会社,大阪府,岸和田市,岡山町５６３番地の２,,27,202,5960814,,,,,,,2024-09-17,1,,,,,イークリーンメンテナンス,0
1977,9120901049776,新規,0,2024-09-17,2024-09-17,レク株式会社,,株式会社,大阪府,高槻市,安岡寺町１丁目１３番１５号,,27,207,5691029,,,,,,,2024-09-17,1,,,,,レク,0
1980,9122001038453,新規,0,2024-09-17,2024-09-17,株式会社ブレス,,株式会社,大阪府,東大阪市,小阪本町２丁目５－６－２０５号,,27,227,5770802,,,,,,,2024-09-17,1,,,,,ブレス,0
1981,9122003003001,新規,0,2024-09-17,2024-09-17,合同会社すてきなスマイル,,合同会社,大阪府,八尾市,久宝寺１丁目１番４８号横山マンション２０６号,,27,212,5810072,,,,,,,2024-09-17,1,,,,,ステキナスマイル,0
1987,9130001077941,新規,0,2024-09-17,2024-09-17,ｓｐｈｅｒｅ　ｄｅｓｉｇｎ株式会社,,株式会社,京都府,京都市中京区,御池通東洞院東入笹屋町４３６番地永和御池ビル６０６号,,26,104,6048187,,,,,,,2024-09-17,1,,,,,スフィアデザイン,0
1991,9140001135814,新規,0,2024-09-17,2024-09-17,株式会社アドコンサル,,株式会社,兵庫県,姫路市,北条宮の町１１１番地カーサイーグレット５０２,,28,201,6700948,,,,,,,2024-09-17,1,,,,,アドコンサル,0
1995,9140003021087,新規,0,2024-09-17,2024-09-17,合同会社ｌａｕｇｈｉｎ,,合同会社,兵庫県,神戸市北区,日の峰２丁目６番地の１,,28,109,6511233,,,,,,,2024-09-17,1,,,,,ラフィン,0
2010,9180003027279,新規,0,2024-09-17,2024-09-17,Ｂｒａｎｃｈ　Ｌｉｆｅ　Ｃｒｅａｔｉｏｎ合同会社,,合同会社,愛知県,名古屋市中区,錦３丁目８番地１９号ライフ錦ビル４０２号室,,23,106,4600003,,,,,,,2024-09-17,1,,,,,ブランチライフクリエイション,0
2011,9180003027337,新規,0,2024-09-17,2024-09-17,思泰博工業合同会社,,合同会社,愛知県,名古屋市西区,五才美町６番地,,23,104,4520806,,,,,,,2024-09-17,1,,,,,シタイハクコウギョウ,0
2012,9180003027353,新規,0,2024-09-17,2024-09-17,豊島興業合同会社,,合同会社,愛知県,海部郡蟹江町,富吉４丁目８８番地,,23,425,4970058,,,,,,,2024-09-17,1,,,,,トヨシマコウギョウ,0
2014,9180301039059,新規,0,2024-09-17,2024-09-17,スギウラ建設株式会社,,株式会社,愛知県,西尾市,羽塚町宮前１１番地１４,,23,213,4440316,,,,,,,2024-09-17,1,,,,,スギウラケンセツ,0
2015,9180303006271,新規,0,2024-09-17,2024-09-17,合同会社大和,,合同会社,愛知県,岡崎市,中之郷町字屋外１１番地５３,,23,202,4440242,,,,,,,2024-09-17,1,,,,,ヤマト,0
2016,9190001031612,新規,0,2024-09-17,2024-09-17,株式会社ＳＯ,,株式会社,三重県,四日市市,芝田１丁目８番１３号,,24,202,5100822,,,,,,,2024-09-17,1,,,,,ソー,0
2019,9190003004797,新規,0,2024-09-17,2024-09-17,合同会社ＳＦＲ,,合同会社,三重県,桑名市,大字能部５２５‐１５,,24,205,5110931,,,,,,,2024-09-17,1,,,,,エスエフアール,0
2025,9230003002292,新規,0,2024-09-17,2024-09-17,合同会社ラ・ルージュ,,合同会社,富山県,下新川郡入善町,小杉３２７,,16,342,9390623,,,,,,,2024-09-17,1,,,,,ラルージュ,0
2031,9240001063823,新規,0,2024-09-17,2024-09-17,株式会社ＵＮＩｉ,,株式会社,広島県,廿日市市,峠９０番地１７４,,34,213,7380202,,,,,,,2024-09-17,1,,,,,ウニイ,0
2038,9240005015829,新規,0,2024-09-17,2024-09-17,一般社団法人歯並び育児協会,,その他の設立登記法人,広島県,広島市安芸区,中野７丁目５８番３８号,,34,107,7390321,,,,,,,2024-09-17,1,,,,,ハナラビイクジキョウカイ,0
2042,9280001009260,新規,0,2024-09-17,2024-09-17,西出雲エステート株式会社,,株式会社,島根県,出雲市,西新町２丁目２４５７番地７,,32,203,6930037,,,,,,,2024-09-17,1,,,,,ニシイズモエステート,0
2054,9330001032463,新規,0,2024-09-17,2024-09-17,株式会社ｇｌｏｒｙ,,株式会社,熊本県,熊本市中央区,中央街４番７号,,43,101,8600802,,,,,,,2024-09-17,1,,,,,グローリー,0
2056,9340005009770,新規,0,2024-09-17,2024-09-17,一般社団法人縁,,その他の設立登記法人,鹿児島県,鹿児島市,小川町３番３５号,,46,201,8920817,,,,,,,2024-09-17,1,,,,,エン,0
2062,9400003003323,新規,0,2024-09-17,2024-09-17,イスジン食品合同会社,,合同会社,岩手県,盛岡市,菜園１丁目１２番６号,,03,201,0200024,,,,,,,2024-09-17,1,,,,,イスジンショクヒン,0
2066,9430001092687,新規,0,2024-09-17,2024-09-17,和通株式会社,,株式会社,北海道,札幌市豊平区,平岸四条８丁目６番１号サンセットハイツ平岸３１６室,,01,105,0620934,,,,,,,2024-09-17,1,,,,,ワツウ,0
2069,9430003016784,新規,0,2024-09-17,2024-09-17,合同会社ＫＯＴＯＺＥＮ,,合同会社,北海道,札幌市中央区,大通西１丁目１４－２桂和大通ビル５０　９Ｆ,,01,101,0600042,,,,,,,2024-09-17,1,,,,,コトゼン,0
2070,9430005015066,新規,0,2024-09-17,2024-09-17,一般社団法人エイチプラスラボ,,その他の設立登記法人,北海道,空知郡南幌町,稲穂１丁目１０番１５号,,01,423,0690239,,,,,,,2024-09-17,1,,,,,エイチプラスラボ,0
2074,9460301005247,新規,0,2024-09-17,2024-09-17,株式会社ｐａＮａｍｐｅ,,株式会社,北海道,斜里郡小清水町,南町２丁目１２番９号,,01,547,0993642,,,,,,,2024-09-17,1,,,,,パナンペ,0
