sequenceNumber,corporateNumber,process,correct,updateDate,changeDate,name,nameImageId,kind,prefectureName,cityName,streetNumber,addressImageId,prefectureCode,cityCode,postCode,addressOutside,addressOutsideImageId,closeDate,closeCause,successorCorporateNumber,changeCause,assignmentDate,latest,enName,enPrefectureName,enCityName,enAddressOutside,furigana,hihyoji
5,1010001207402,登記記録の閉鎖等,0,2024-01-22,2024-01-17,Ｓ４バングラデシュ株式会社,,株式会社,東京都,千代田区,内幸町２丁目１番１号,,13,101,1000011,,,2024-01-17,清算の結了等,,,2020-02-12,1,,,,,エスヨンバングラデシュ,0
23,1010501035765,登記記録の閉鎖等,0,2024-01-22,2024-01-17,株式会社サウンドホッパー,,株式会社,東京都,台東区,台東４丁目９番３号,,13,106,1100016,,,2024-01-17,清算の結了等,,,2015-10-05,1,,,,,サウンドホッパー,0
27,1010701006608,登記記録の閉鎖等,0,2024-01-22,2024-01-22,株式会社東京プロダクト,,株式会社,東京都,品川区,南大井３丁目２０番６－３０１号,,13,109,1400013,,,2024-01-22,登記官による閉鎖,,,2015-10-05,1,,,,,,0
28,1010701023867,登記記録の閉鎖等,0,2024-01-22,2024-01-22,リリカリ株式会社,,株式会社,東京都,品川区,東品川２丁目５番６号,,13,109,1400002,,,2024-01-22,登記官による閉鎖,,,2015-10-05,1,,,,,,0
29,1010701024048,登記記録の閉鎖等,0,2024-01-22,2024-01-22,株式会社あおい,,株式会社,東京都,品川区,西中延２丁目８番８号,,13,109,1420054,,,2024-01-22,登記官による閉鎖,,,2015-10-05,1,,,,,,0
30,1010701028404,登記記録の閉鎖等,0,2024-01-22,2024-01-22,株式会社キャリアドック,,株式会社,東京都,品川区,南大井４丁目１２番９号,,13,109,1400013,,,2024-01-22,登記官による閉鎖,,,2015-10-05,1,,,,,,0
32,1010702005682,登記記録の閉鎖等,0,2024-01-22,2024-01-22,有限会社巴工房,,有限会社,東京都,品川区,戸越４丁目３番２１号,,13,109,1420041,,,2024-01-22,登記官による閉鎖,,,2015-10-05,1,,,,,,0
33,1010702007266,登記記録の閉鎖等,0,2024-01-22,2024-01-22,有限会社フライス研究所,,有限会社,東京都,品川区,中延４丁目２１番１０号,,13,109,1420053,,,2024-01-22,登記官による閉鎖,,,2015-10-05,1,,,,,,0
34,1010705000796,登記記録の閉鎖等,0,2024-01-22,2024-01-22,特定非営利活動法人カルチャー・リンクス,,その他の設立登記法人,東京都,品川区,西五反田５丁目１１番８号,,13,109,1410031,,,2024-01-22,登記官による閉鎖,,,2015-10-05,1,,,,,,0
36,1010801020459,登記記録の閉鎖等,0,2024-01-22,2024-01-17,株式会社Ｊ－りふぉーむ,,株式会社,東京都,大田区,大森中３丁目３１番６号,,13,111,1430014,,,2024-01-17,清算の結了等,,,2015-10-05,1,,,,,ジェイリフォーム,0
37,1010801028675,登記記録の閉鎖等,0,2024-01-22,2024-01-17,株式会社ｆｒｏｍ　ｌｏｃａｌ,,株式会社,東京都,大田区,蒲田５丁目１９番１５号,,13,111,1440052,,,2024-01-17,清算の結了等,,,2018-04-05,1,,,,,フロムローカル,0
42,1010805000044,登記記録の閉鎖等,0,2024-01-22,2024-01-15,財団法人京浜勤労者福祉協会,,その他の設立登記法人,東京都,大田区,京浜島２丁目３番１７号,,13,111,1430003,,,2024-01-15,清算の結了等,,,2015-10-05,1,,,,,ケイヒンキンロウシャフクシキョウカイ,0
67,1011401017473,登記記録の閉鎖等,0,2024-01-22,2024-01-17,ＩＳＡＯ総合開発株式会社,,株式会社,東京都,板橋区,熊野町３２番１－８０１号,,13,119,1730025,,,2024-01-17,清算の結了等,,,2015-10-05,1,,,,,,0
75,1011801001614,登記記録の閉鎖等,0,2024-01-22,2024-01-22,五洋商事株式会社,,株式会社,東京都,葛飾区,東立石３丁目２２番１号,,13,122,1240013,,,2024-01-22,登記官による閉鎖,,,2015-10-05,1,,,,,,0
76,1011801002521,登記記録の閉鎖等,0,2024-01-22,2024-01-22,綜和工業株式会社,,株式会社,東京都,葛飾区,小菅４丁目１１番８号ハイコーポ綾瀬６０４号,,13,122,1240001,,,2024-01-22,登記官による閉鎖,,,2015-10-05,1,,,,,,0
77,1011801002637,登記記録の閉鎖等,0,2024-01-22,2024-01-22,大昌不動産株式会社,,株式会社,東京都,葛飾区,高砂２丁目４０番７号,,13,122,1250054,,,2024-01-22,登記官による閉鎖,,,2015-10-05,1,,,,,,0
78,1011801005953,登記記録の閉鎖等,0,2024-01-22,2024-01-22,磯部産業株式会社,,株式会社,東京都,足立区,皿沼３丁目２７番１６号,,13,121,1230862,,,2024-01-22,登記官による閉鎖,,,2015-10-05,1,,,,,,0
79,1011801022577,登記記録の閉鎖等,0,2024-01-22,2024-01-22,＿華水産貿易株式会社,00057086,株式会社,東京都,葛飾区,新小岩１丁目４２番１１号,,13,122,1240024,,,2024-01-22,登記官による閉鎖,,,2015-10-05,1,,,,,,0
80,1011801031347,登記記録の閉鎖等,0,2024-01-22,2024-01-19,エマバスト・インク株式会社,,株式会社,東京都,足立区,梅島３丁目３６番１８号,,13,121,1210816,,,2024-01-19,清算の結了等,,,2016-02-03,1,,,,,エマバストインク,0
81,1011802002207,登記記録の閉鎖等,0,2024-01-22,2024-01-22,有限会社北野浴場,,有限会社,東京都,葛飾区,柴又１丁目２６番８号,,13,122,1250052,,,2024-01-22,登記官による閉鎖,,,2015-10-05,1,,,,,,0
82,1011802009920,登記記録の閉鎖等,0,2024-01-22,2024-01-22,有限会社今野製鑵所,,有限会社,東京都,足立区,竹の塚７丁目２番１号,,13,121,1210813,,,2024-01-22,登記官による閉鎖,,,2015-10-05,1,,,,,,0
83,1011802011703,登記記録の閉鎖等,0,2024-01-22,2024-01-22,有限会社近代書店,,有限会社,東京都,足立区,綾瀬１丁目３９番１１号,,13,121,1200005,,,2024-01-22,登記官による閉鎖,,,2015-10-05,1,,,,,,0
84,1011802013765,登記記録の閉鎖等,0,2024-01-22,2024-01-22,有限会社信清商事,,有限会社,東京都,足立区,入谷９丁目７番１１号,,13,121,1210836,,,2024-01-22,登記官による閉鎖,,,2015-10-05,1,,,,,,0
85,1011802019275,登記記録の閉鎖等,0,2024-01-22,2024-01-22,宮崎ニツト有限会社,00057521,有限会社,東京都,足立区,東和１丁目１０番８号,,13,121,1200003,,,2024-01-22,登記官による閉鎖,,,2015-10-05,1,,,,,,0
86,1011802022774,登記記録の閉鎖等,0,2024-01-22,2024-01-22,有限会社安倍金属,,有限会社,東京都,足立区,加平３丁目１０番１９号,,13,121,1210055,,,2024-01-22,登記官による閉鎖,,,2015-10-05,1,,,,,,0
87,1011802024408,登記記録の閉鎖等,0,2024-01-22,2024-01-22,有限会社ベリープランニング,,有限会社,東京都,足立区,鹿浜６丁目２８番８－２０３号,,13,121,1230864,,,2024-01-22,登記官による閉鎖,,,2015-10-05,1,,,,,,0
88,1011802028367,登記記録の閉鎖等,0,2024-01-22,2024-01-22,有限会社キャリアバンク,,有限会社,東京都,足立区,島根２丁目２９番２７－４０２号,,13,121,1210815,,,2024-01-22,登記官による閉鎖,,,2015-10-05,1,,,,,,0
89,1011805001544,登記記録の閉鎖等,0,2024-01-22,2024-01-22,特定非営利活動法人日本の原風景を映像で考える会,,その他の設立登記法人,東京都,足立区,舎人１丁目１７番６号,,13,121,1210831,,,2024-01-22,登記官による閉鎖,,,2015-10-05,1,,,,,,0
95,1013301001367,登記記録の閉鎖等,0,2024-01-22,2024-01-10,株式会社栄成,,株式会社,東京都,豊島区,池袋１丁目６番１号,,13,116,1700014,,,2024-01-10,合併による解散等,8013301049615,令和６年１月１日東京都豊島区池袋一丁目６番１号株式会社栄成ホールディングス（8013301049615）に合併し解散,2015-10-05,1,,,,,エイセイ,0
107,1021002008573,登記記録の閉鎖等,0,2024-01-22,2024-01-19,有限会社ドルフィンテクノ,,有限会社,神奈川県,藤沢市,鵠沼東２番３～４１１号,,14,205,2510026,,,2024-01-19,清算の結了等,,,2015-10-05,1,,,,,ドルフィンテクノ,0
108,1021002054386,登記記録の閉鎖等,0,2024-01-22,2024-01-18,ファインド・ジャパン有限会社,,有限会社,神奈川県,足柄下郡湯河原町,吉浜１９０８番地の２６,,14,384,2590312,,,2024-01-18,清算の結了等,,,2015-10-05,1,,,,,ファインドジャパン,0
114,1030001114051,登記記録の閉鎖等,0,2024-01-22,2024-01-15,株式会社Ｓｔａｇｅ,,株式会社,埼玉県,草加市,柳島町２６３番地４,,11,221,3400033,,,2024-01-15,清算の結了等,,,2016-04-26,1,,,,,ステージ,0
115,1030001119315,登記記録の閉鎖等,0,2024-01-22,2024-01-17,株式会社Ｏｍｉ　Ｍｅｄｉｃａｌ,,株式会社,東京都,中央区,東日本橋３丁目４－１８東日本橋ＥＸビル２階,,13,102,1030004,,,2024-01-17,合併による解散等,4011101065720,令和６年１月１７日東京都中央区東日本橋３－４－１８東日本橋ＥＸビル２階Ｏｍｉ　Ｊａｐａｎ株式会社（4011101065720）に合併し解散,2017-03-30,1,,,,,オミメディカル,0
123,1030003013169,登記記録の閉鎖等,0,2024-01-22,2024-01-18,合同会社グレイス,,合同会社,東京都,渋谷区,円山町５番５号Ｎａｖｉ渋谷Ｖ３階,,13,113,1500044,,,2024-01-18,合併による解散等,6030003010715,令和６年１月１日埼玉県戸田市本町四丁目４番６号ＴＢＣ合同会社リベルテ（6030003010715）に合併し解散,2019-02-28,1,,,,,グレイス,0
132,1040001119487,登記記録の閉鎖等,0,2024-01-22,2024-01-09,メープル・キー・アンド・サン株式会社,,株式会社,千葉県,松戸市,八ケ崎１丁目１２番地の２ルチルＩ、２０１号,00123725,12,207,2700023,,,2024-01-09,清算の結了等,,,2021-07-26,1,,,,,メープルキーアンドサン,0
137,1040003017805,登記記録の閉鎖等,0,2024-01-22,2024-01-09,合同会社Ａｌｌ　Ａｎｄ　Ｎｏｔｈｉｎｇ,,合同会社,千葉県,松戸市,八ケ崎１丁目１２番２号ルチルＩ、２０１,00123114,12,207,2700023,,,2024-01-09,清算の結了等,,,2021-05-21,1,,,,,オールアンドナッスィング,0
146,1080002012654,登記記録の閉鎖等,0,2024-01-22,2024-01-18,株式会社ヒット,,株式会社,静岡県,静岡市葵区,紺屋町７番地の１３Ｂ１,,22,101,4200852,,,2024-01-18,清算の結了等,,,2015-10-05,1,,,,,ヒット,0
147,1080101013545,登記記録の閉鎖等,0,2024-01-22,2024-01-18,株式会社カナパックシーフード,,株式会社,静岡県,伊東市,東松原町７番１０号,,22,208,4140022,,,2024-01-18,清算の結了等,,,2015-10-05,1,,,,,カナパックシーフード,0
148,1080101023214,登記記録の閉鎖等,0,2024-01-22,2024-01-18,株式会社桔梗ホールディングス,,株式会社,静岡県,伊豆市,湯ケ島８９５番地の１,,22,222,4103206,,,2024-01-18,清算の結了等,,,2022-04-12,1,,,,,キキョウホールディングス,0
174,1110001026602,登記記録の閉鎖等,0,2024-01-22,2024-01-17,株式会社湯沢錦鯉ランド,,株式会社,新潟県,南魚沼郡湯沢町,大字湯沢１０２２番地の１,,15,461,9496101,,,2024-01-17,清算の結了等,,,2015-10-05,1,,,,,ユザワニシキゴイランド,0
177,1120001060781,登記記録の閉鎖等,0,2024-01-22,2024-01-15,株式会社イー・ピー・エス,,株式会社,大阪府,大阪市北区,本庄西２丁目１８番１３号,,27,127,5310073,,,2024-01-15,清算の結了等,,,2015-10-05,1,,,,,イーピーエス,0
218,1140002026276,登記記録の閉鎖等,0,2024-01-22,2024-01-18,有限会社安井工業,,有限会社,兵庫県,神戸市中央区,中島通１丁目３番７号,,28,110,6510052,,,2024-01-18,清算の結了等,,,2015-10-05,1,,,,,,0
221,1150001005676,登記記録の閉鎖等,0,2024-01-22,2024-01-19,株式会社キンキ,,株式会社,奈良県,大和郡山市,馬司町６４２番地の２,,29,203,6391124,,,2024-01-19,登記官による閉鎖,,,2015-10-05,1,,,,,,0
222,1150001006617,登記記録の閉鎖等,0,2024-01-22,2024-01-19,株式会社ティ．アンド．エー,,株式会社,奈良県,天理市,川原城町６７４番地,,29,204,6320016,,,2024-01-19,登記官による閉鎖,,,2015-10-05,1,,,,,,0
223,1150001009066,登記記録の閉鎖等,0,2024-01-22,2024-01-19,株式会社エコ・グリーンＫ２,,株式会社,奈良県,大和郡山市,南郡山町８８－３,,29,203,6391007,,,2024-01-19,登記官による閉鎖,,,2015-10-05,1,,,,,,0
224,1150002003836,登記記録の閉鎖等,0,2024-01-22,2024-01-19,有限会社京阪クリーンサービス,,有限会社,奈良県,生駒市,白庭台６丁目６番７号,,29,209,6300136,,,2024-01-19,登記官による閉鎖,,,2015-10-05,1,,,,,,0
243,1240002011292,登記記録の閉鎖等,0,2024-01-22,2024-01-16,有限会社藤和建設,,有限会社,広島県,広島市佐伯区,藤の木３丁目９番７号,,34,108,7315103,,,2024-01-16,清算の結了等,,,2015-10-05,1,,,,,トウワケンセツ,0
247,1260001012868,登記記録の閉鎖等,0,2024-01-22,2024-01-18,株式会社貝原電気工務所,,株式会社,岡山県,倉敷市,連島町連島４５０５番地の１９,,33,202,7128011,,,2024-01-18,清算の結了等,,,2015-10-05,1,,,,,カイハラデンキコウムショ,0
252,1270001004600,登記記録の閉鎖等,0,2024-01-22,2024-01-22,株式会社樹企画,,株式会社,鳥取県,米子市,皆生温泉３丁目２番１３号,,31,202,6830001,,,2024-01-22,登記官による閉鎖,,,2015-10-05,1,,,,,,0
253,1270001005573,登記記録の閉鎖等,0,2024-01-22,2024-01-22,株式会社いなば大黒,,株式会社,鳥取県,鳥取市,湖山町北６丁目４４８番地２５,,31,201,6800941,,,2024-01-22,登記官による閉鎖,,,2015-10-05,1,,,,,,0
254,1270002002636,登記記録の閉鎖等,0,2024-01-22,2024-01-22,有限会社弘新,,有限会社,鳥取県,鳥取市,国府町新通り２丁目３５４番地,,31,201,6808066,,,2024-01-22,登記官による閉鎖,,,2015-10-05,1,,,,,,0
255,1270002002850,登記記録の閉鎖等,0,2024-01-22,2024-01-22,有限会社オカモト,,有限会社,鳥取県,鳥取市,行徳２丁目１０４番地,,31,201,6800824,,,2024-01-22,登記官による閉鎖,,,2015-10-05,1,,,,,,0
256,1270002006703,登記記録の閉鎖等,0,2024-01-22,2024-01-22,有限会社ハウゼオム,,有限会社,鳥取県,米子市,彦名町４５５５番地,,31,202,6830854,,,2024-01-22,登記官による閉鎖,,,2015-10-05,1,,,,,ハウゼオム,0
257,1270002008410,登記記録の閉鎖等,0,2024-01-22,2024-01-22,有限会社うに山田屋,,有限会社,鳥取県,西伯郡大山町,富長８６７番地１,,31,386,6893221,,,2024-01-22,登記官による閉鎖,,,2015-10-05,1,,,,,,0
258,1270003000218,登記記録の閉鎖等,0,2024-01-22,2024-01-22,合資会社エス・エヌ・ケイ,,合資会社,鳥取県,米子市,皆生５丁目８番２０号,,31,202,6830003,,,2024-01-22,登記官による閉鎖,,,2015-10-05,1,,,,,,0
279,1310005005020,登記記録の閉鎖等,0,2024-01-22,2024-01-17,特定非営利活動法人ながさきやまびこセンター,,その他の設立登記法人,長崎県,大村市,池田２丁目１２９８番地１５号,,42,205,8560026,,,2024-01-17,清算の結了等,,,2015-10-05,1,,,,,ナガサキヤマビコセンター,0
284,1340001002002,登記記録の閉鎖等,0,2024-01-22,2024-01-15,株式会社石谷開発,,株式会社,鹿児島県,鹿児島市,下荒田２丁目１番１号サンプラス荒田２階,,46,201,8900056,,,2024-01-15,登記官による閉鎖,,,2015-10-05,1,,,,,,0
285,1340001005021,登記記録の閉鎖等,0,2024-01-22,2024-01-15,株式会社冨久屋製パン工場,,株式会社,鹿児島県,鹿児島市,郡元１丁目７番５号,,46,201,8900065,,,2024-01-15,登記官による閉鎖,,,2015-10-05,1,,,,,,0
286,1340001009427,登記記録の閉鎖等,0,2024-01-22,2024-01-15,株式会社山川建設,,株式会社,鹿児島県,指宿市,山川利永１８３番地１,,46,210,8910621,,,2024-01-15,登記官による閉鎖,,,2015-10-05,1,,,,,,0
287,1340001010104,登記記録の閉鎖等,0,2024-01-22,2024-01-15,株式会社協和,,株式会社,鹿児島県,大島郡天城町,大字天城喜地３８０番地,,46,531,8917611,,,2024-01-15,登記官による閉鎖,,,2015-10-05,1,,,,,,0
288,1340001015607,登記記録の閉鎖等,0,2024-01-22,2024-01-15,株式会社関忠雄石材,,株式会社,鹿児島県,鹿児島市,東谷山５丁目１番６号,,46,201,8910113,,,2024-01-15,登記官による閉鎖,,,2015-10-05,1,,,,,,0
291,1340002002637,登記記録の閉鎖等,0,2024-01-22,2024-01-15,サンキュー資材有限会社,,有限会社,鹿児島県,南さつま市,坊津町坊５７４３番地,,46,220,8980101,,,2024-01-15,登記官による閉鎖,,,2015-10-05,1,,,,,,0
292,1340002013403,登記記録の閉鎖等,0,2024-01-22,2024-01-15,有限会社アテンションヘルス,,有限会社,鹿児島県,霧島市,国分清水５丁目８番２２号,,46,218,8994304,,,2024-01-15,登記官による閉鎖,,,2015-10-05,1,,,,,,0
293,1340002015283,登記記録の閉鎖等,0,2024-01-22,2024-01-15,有限会社曽木の滝なりざわ,,有限会社,鹿児島県,伊佐市,大口宮人６３５番地,,46,224,8952526,,,2024-01-15,登記官による閉鎖,,,2015-10-05,1,,,,,,0
296,1340003000573,登記記録の閉鎖等,0,2024-01-22,2024-01-15,合資会社ふくどめ,,合資会社,鹿児島県,伊佐市,菱刈前目１９０５番地,,46,224,8952701,,,2024-01-15,登記官による閉鎖,,,2015-10-05,1,,,,,,0
297,1340005004110,登記記録の閉鎖等,0,2024-01-22,2024-01-15,指宿砂むし温泉商店街振興組合,,その他の設立登記法人,鹿児島県,指宿市,湯の浜５丁目２７番８号,,46,210,8910406,,,2024-01-15,登記官による閉鎖,,,2015-10-05,1,,,,,,0
298,1350001008989,登記記録の閉鎖等,0,2024-01-22,2024-01-15,株式会社内田会計事務所,,株式会社,宮崎県,都城市,蔵原町３街区２４号,,45,202,8850051,,,2024-01-15,清算の結了等,,,2015-10-05,1,,,,,ウチダカイケイジムショ,0
299,1350005000703,登記記録の閉鎖等,0,2024-01-22,2024-01-16,農事組合法人赤江花き温室組合,,その他の設立登記法人,宮崎県,宮崎市,大字郡司分甲２６５番地１,,45,201,8800924,,,2024-01-16,清算の結了等,,,2015-10-05,1,,,,,アカエカキオンシツクミアイ,0
300,1360001000012,登記記録の閉鎖等,0,2024-01-22,2024-01-12,株式会社アークシステム,,株式会社,沖縄県,南城市,大里字稲嶺２１０１番地３２,,47,215,9011204,,,2024-01-12,登記官による閉鎖,,,2015-10-05,1,,,,,,0
301,1360001006414,登記記録の閉鎖等,0,2024-01-22,2024-01-12,株式会社ジー・アール・アイ,,株式会社,沖縄県,那覇市,松尾１丁目１８番２６号,,47,201,9000014,,,2024-01-12,登記官による閉鎖,,,2015-10-05,1,,,,,,0
302,1360001018335,登記記録の閉鎖等,0,2024-01-22,2024-01-12,株式会社松建,,株式会社,沖縄県,那覇市,字天久１０６８番地,,47,201,9000005,,,2024-01-12,登記官による閉鎖,,,2015-10-05,1,,,,,,0
304,1360002001018,登記記録の閉鎖等,0,2024-01-22,2024-01-12,有限会社大田フラワー,,有限会社,沖縄県,那覇市,楚辺２丁目１２番２号,,47,201,9000023,,,2024-01-12,登記官による閉鎖,,,2015-10-05,1,,,,,,0
305,1360002004994,登記記録の閉鎖等,0,2024-01-22,2024-01-12,有限会社リバイバー・コーポレーション,,有限会社,沖縄県,那覇市,首里桃原町１丁目１３番地,,47,201,9030822,,,2024-01-12,登記官による閉鎖,,,2015-10-05,1,,,,,,0
306,1360003006024,登記記録の閉鎖等,0,2024-01-22,2024-01-12,合同会社Ｔｄａ　Ｍａｒｉｎａ,,合同会社,沖縄県,国頭郡今帰仁村,字諸志２０３１番地２９,,47,306,9050426,,,2024-01-12,登記官による閉鎖,,,2015-10-05,1,,,,,,0
307,1360005002269,登記記録の閉鎖等,0,2024-01-22,2024-01-12,沖縄うるま建設関連事業協同組合,,その他の設立登記法人,沖縄県,うるま市,勝連平安名１５８７番地の１,,47,213,9042312,,,2024-01-12,登記官による閉鎖,,,2015-10-05,1,,,,,,0
308,1370001021404,登記記録の閉鎖等,0,2024-01-22,2024-01-17,株式会社ＮＥＯ,,株式会社,宮城県,仙台市宮城野区,扇町３丁目１番１４号,,04,102,9830034,,,2024-01-17,清算の結了等,,,2015-10-05,1,,,,,ネオ,0
311,1400003000971,登記記録の閉鎖等,0,2024-01-22,2024-01-16,合同会社ネットワークさとう,,合同会社,岩手県,盛岡市,小鳥沢１丁目２０番１８号,,03,201,0200104,,,2024-01-16,清算の結了等,,,2015-10-05,1,,,,,ネットワークサトウ,0
319,1430002052706,登記記録の閉鎖等,0,2024-01-22,2024-01-11,有限会社道央タキカワ商会,,有限会社,北海道,滝川市,扇町２丁目１４番１０号,,01,225,0730046,,,2024-01-11,清算の結了等,,,2015-10-05,1,,,,,ドウオウタキカワショウカイ,0
320,1430003002585,登記記録の閉鎖等,0,2024-01-22,2024-01-10,合資会社桜井商店,,合資会社,北海道,空知郡上砂川町,字上砂川町２４５番地,,01,425,0730200,,,2024-01-10,清算の結了等,,,2015-10-05,1,,,,,サクライショウテン,0
321,1470001003557,登記記録の閉鎖等,0,2024-01-22,2024-01-10,株式会社福嶋硝子店,,株式会社,香川県,高松市,香西本町３６番地,,37,201,7618012,,,2024-01-10,登記官による閉鎖,,,2015-10-05,1,,,,,,0
322,1470001009109,登記記録の閉鎖等,0,2024-01-22,2024-01-10,株式会社アースコーポレーション,,株式会社,香川県,坂出市,京町２丁目１番７号,,37,203,7620001,,,2024-01-10,登記官による閉鎖,,,2015-10-05,1,,,,,,0
323,1470002000157,登記記録の閉鎖等,0,2024-01-22,2024-01-10,有限会社大協石材,,有限会社,香川県,木田郡庵治町,６３９２番地５５,,37,343,7610130,,,2024-01-10,登記官による閉鎖,,,2018-02-28,1,,,,,,0
324,1470002002566,登記記録の閉鎖等,0,2024-01-22,2024-01-10,桑原物産有限会社,,有限会社,香川県,高松市,西山崎町４１１番地の２,,37,201,7618045,,,2024-01-10,登記官による閉鎖,,,2018-03-05,1,,,,,,0
325,1470002004265,登記記録の閉鎖等,0,2024-01-22,2024-01-10,有限会社大邦,,有限会社,香川県,高松市,兵庫町７番地５,,37,201,7600024,,,2024-01-10,登記官による閉鎖,,,2015-10-05,1,,,,,,0
341,2010002009862,登記記録の閉鎖等,0,2024-01-22,2024-01-16,有限会社コーワ商会,,有限会社,東京都,千代田区,神田須田町２丁目１９番３４号,,13,101,1010041,,,2024-01-16,清算の結了等,,,2015-10-05,1,,,,,コーワショウカイ,0
344,2010003032186,登記記録の閉鎖等,0,2024-01-22,2024-01-16,ＥＰＳＩＬＯＮ　Ｐａｒｔｎｅｒｓ合同会社,,合同会社,東京都,千代田区,九段南１丁目５番６号りそな九段ビル５Ｆ、ＫＳフロア,,13,101,1020074,,,2024-01-16,清算の結了等,,,2020-05-11,1,,,,,エプシロンパートナーズ,0
351,2010401138411,登記記録の閉鎖等,0,2024-01-22,2024-01-17,株式会社ｍｉｃｏｃｏ,,株式会社,東京都,渋谷区,桜丘町２６番１号セルリアンタワー１５階,,13,113,1500031,,,2024-01-17,合併による解散等,4010401153961,令和６年１月１日東京都港区北青山二丁目１４番４号株式会社みさきホールディングス（4010401153961）に合併し解散,2018-05-15,1,,,,,ミココ,0
366,2010701009774,登記記録の閉鎖等,0,2024-01-22,2024-01-22,株式会社モーセコーポレーション,,株式会社,東京都,品川区,東大井６丁目６番７号,,13,109,1400011,,,2024-01-22,登記官による閉鎖,,,2015-10-05,1,,,,,,0
368,2010701023478,登記記録の閉鎖等,0,2024-01-22,2024-01-22,松井警備保障株式会社,,株式会社,東京都,品川区,上大崎２丁目１５番６号,,13,109,1410021,,,2024-01-22,登記官による閉鎖,,,2015-10-05,1,,,,,,0
369,2010702001144,登記記録の閉鎖等,0,2024-01-22,2024-01-22,有限会社宇田川製作所,,有限会社,東京都,品川区,荏原６丁目７番１５号,,13,109,1420063,,,2024-01-22,登記官による閉鎖,,,2015-10-05,1,,,,,,0
370,2010702005946,登記記録の閉鎖等,0,2024-01-22,2024-01-22,ナカジマ有限会社,,有限会社,東京都,品川区,小山台１丁目３２番９号,,13,109,1420061,,,2024-01-22,登記官による閉鎖,,,2015-10-05,1,,,,,,0
371,2010703002026,登記記録の閉鎖等,0,2024-01-22,2024-01-22,ネティ・アドバイザーズ合同会社,,合同会社,東京都,品川区,東五反田５丁目２２番３７号,,13,109,1410022,,,2024-01-22,登記官による閉鎖,,,2015-10-05,1,,,,,,0
372,2010705000003,登記記録の閉鎖等,0,2024-01-22,2024-01-22,社団法人城南交友會,,その他の設立登記法人,東京都,品川区,品川町大字南品川宿４０９番地城南小学校内,,13,109,1400000,,,2024-01-22,登記官による閉鎖,,,2015-10-05,1,,,,,,1
373,2010705001018,登記記録の閉鎖等,0,2024-01-22,2024-01-22,特定非営利活動法人日本防災復興支援協会,,その他の設立登記法人,東京都,品川区,北品川５丁目７番９号,,13,109,1410001,,,2024-01-22,登記官による閉鎖,,,2015-10-05,1,,,,,,0
399,2011801002306,登記記録の閉鎖等,0,2024-01-22,2024-01-22,株式会社末＿産業,00056912,株式会社,東京都,葛飾区,東四つ木１丁目２２番５号,,13,122,1240014,,,2024-01-22,登記官による閉鎖,,,2015-10-05,1,,,,,,0
400,2011801003295,登記記録の閉鎖等,0,2024-01-22,2024-01-22,株式会社東光無線,,株式会社,東京都,葛飾区,奥戸２丁目４４番１４号,,13,122,1240022,,,2024-01-22,登記官による閉鎖,,,2015-10-05,1,,,,,,0
401,2011801004483,登記記録の閉鎖等,0,2024-01-22,2024-01-22,株式会社マスコーファクトリー,,株式会社,東京都,葛飾区,立石２丁目３１番１５号,,13,122,1240012,,,2024-01-22,登記官による閉鎖,,,2015-10-05,1,,,,,,0
402,2011801008848,登記記録の閉鎖等,0,2024-01-22,2024-01-22,株式会社杉浦解体工業,,株式会社,東京都,足立区,扇１丁目３番２２号,,13,121,1230873,,,2024-01-22,登記官による閉鎖,,,2015-10-05,1,,,,,,0
403,2011801008955,登記記録の閉鎖等,0,2024-01-22,2024-01-22,株式会社須田薬局,,株式会社,東京都,足立区,西新井本町４丁目１９番１号,,13,121,1230845,,,2024-01-22,登記官による閉鎖,,,2015-10-05,1,,,,,,0
404,2011801025926,登記記録の閉鎖等,0,2024-01-22,2024-01-22,ジェイメンテ管理サービスセンター株式会社,,株式会社,東京都,足立区,千住中居町２８番５号,,13,121,1200035,,,2024-01-22,登記官による閉鎖,,,2015-10-05,1,,,,,,0
406,2011802003567,登記記録の閉鎖等,0,2024-01-22,2024-01-22,有限会社新江木写真店,,有限会社,東京都,葛飾区,亀有２丁目３４番２号,,13,122,1250061,,,2024-01-22,登記官による閉鎖,,,2015-10-05,1,,,,,,0
407,2011802011438,登記記録の閉鎖等,0,2024-01-22,2024-01-22,有限会社かんの商店,,有限会社,東京都,足立区,皿沼１丁目５番６号,,13,121,1230862,,,2024-01-22,登記官による閉鎖,,,2015-10-05,1,,,,,,0
408,2011802019118,登記記録の閉鎖等,0,2024-01-22,2024-01-22,有限会社水元屋,,有限会社,東京都,足立区,入谷６丁目３番１号,,13,121,1210836,,,2024-01-22,登記官による閉鎖,,,2015-10-05,1,,,,,,0
409,2011802019316,登記記録の閉鎖等,0,2024-01-22,2024-01-22,有限会社雅工芸,,有限会社,東京都,足立区,小台１丁目５番３－１１０号,,13,121,1200046,,,2024-01-22,登記官による閉鎖,,,2015-10-05,1,,,,,,0
410,2011802029876,登記記録の閉鎖等,0,2024-01-22,2024-01-22,有限会社クリエイトエンジニアリング,,有限会社,東京都,葛飾区,亀有１丁目１０番地８号棟６０８,,13,122,1250061,,,2024-01-22,登記官による閉鎖,,,2015-10-05,1,,,,,,0
411,2011803000084,登記記録の閉鎖等,0,2024-01-22,2024-01-22,合名会社小宮商店,,合名会社,東京都,足立区,南花畑１丁目１７番１６号,,13,121,1210062,,,2024-01-22,登記官による閉鎖,,,2015-10-05,1,,,,,,0
413,2011805001915,登記記録の閉鎖等,0,2024-01-22,2024-01-22,特定非営利活動法人日本健康環境施設・健康運動療法支援者普及協会,,その他の設立登記法人,東京都,葛飾区,東立石３丁目２４番７号２Ｆ,,13,122,1240013,,,2024-01-22,登記官による閉鎖,,,2015-10-05,1,,,,,,0
422,2020001087883,登記記録の閉鎖等,0,2024-01-22,2024-01-16,株式会社ホテルゴルフ御殿場,,株式会社,神奈川県,横浜市港北区,綱島東１丁目５番６号,,14,109,2230052,,,2024-01-16,清算の結了等,,,2015-10-05,1,,,,,ホテルゴルフゴテンバ,0
453,2040001079813,登記記録の閉鎖等,0,2024-01-22,2024-01-11,株式会社ブルーマーブル,,株式会社,千葉県,千葉市中央区,矢作町３６１－４,,12,101,2600851,,,2024-01-11,清算の結了等,,,2015-10-05,1,,,,,ブルーマーブル,0
454,2040001110874,登記記録の閉鎖等,0,2024-01-22,2024-01-09,株式会社京葉アセットマネジメント,,株式会社,千葉県,市川市,南八幡４丁目４番２４号グレイスＹＫ１０２号,,12,203,2720023,,,2024-01-09,清算の結了等,,,2019-09-26,1,,,,,ケイヨウアセットマネジメント,0
461,2050001047488,登記記録の閉鎖等,0,2024-01-22,2024-01-17,株式会社武子工業,,株式会社,茨城県,つくばみらい市,下小目３９番地,,08,235,3002433,,,2024-01-17,清算の結了等,,,2020-05-07,1,,,,,タケシコウギョウ,0
464,2060002006434,登記記録の閉鎖等,0,2024-01-22,2024-01-09,有限会社床井商事,,有限会社,栃木県,宇都宮市,陽東４丁目１２番１７号,,09,201,3210904,,,2024-01-09,清算の結了等,,,2023-01-31,1,,,,,トコイショウジ,0
468,2070001033924,登記記録の閉鎖等,0,2024-01-22,2024-01-16,株式会社ＰＥＬＵＣＡ,,株式会社,群馬県,高崎市,下中居町２１番地１０,,10,202,3700853,,,2024-01-16,清算の結了等,,,2017-09-06,1,,,,,ペルーカ,0
470,2070002011598,登記記録の閉鎖等,0,2024-01-22,2024-01-16,有限会社浜久,,有限会社,群馬県,高崎市,剣崎町１３８番地の３,,10,202,3700883,,,2024-01-16,清算の結了等,,,2015-10-05,1,,,,,,0
504,2110002026419,登記記録の閉鎖等,0,2024-01-22,2024-01-18,有限会社北陸機工,,有限会社,新潟県,糸魚川市,大字田海２６８４番地,,15,216,9490303,,,2024-01-18,清算の結了等,,,2015-10-05,1,,,,,ホクリクキコウ,0
505,2120001055351,登記記録の閉鎖等,0,2024-01-22,2024-01-19,株式会社阪本工務店,,株式会社,大阪府,大阪市淀川区,西三国１丁目９番３４号,,27,123,5320006,,,2024-01-19,清算の結了等,,,2015-10-05,1,,,,,サカモトコウムテン,0
516,2120002059203,登記記録の閉鎖等,0,2024-01-22,2024-01-16,有限会社サニー・トータル・サポート,,有限会社,大阪府,大阪市西成区,鶴見橋２丁目４番７号,,27,122,5570031,,,2024-01-16,合併による解散等,5120001193470,令和６年１月１６日大阪市浪速区大国一丁目１２番２１サンプラザ浪速１番館６０１号室株式会社ＦＡＩＴＨ（5120001193470）に合併し解散,2015-10-05,1,,,,,サニートータルサポート,0
519,2120003019981,登記記録の閉鎖等,0,2024-01-22,2024-01-18,合同会社クアドリフォリオ,,合同会社,大阪府,大阪市中央区,常盤町１丁目３番１８号,,27,128,5400028,,,2024-01-18,清算の結了等,,,2021-08-10,1,,,,,クアドリフォリオ,0
525,2120901005190,登記記録の閉鎖等,0,2024-01-22,2024-01-16,株式会社アスペック,,株式会社,大阪府,吹田市,江の木町２番３３号第３梓ビル６Ｆ,,27,205,5640053,,,2024-01-16,清算の結了等,,,2015-10-05,1,,,,,アスペック,0
528,2130001050608,登記記録の閉鎖等,0,2024-01-22,2024-01-05,サンラッキーサービス株式会社,,株式会社,京都府,京都市中京区,車屋町通二条下る仁王門突抜町３２５番地,,26,104,6040841,,,2024-01-05,合併による解散等,6360001015253,令和６年１月１日京都市中京区車屋町通二条下ル仁王門突抜町３２５番地京都紅葉株式会社（6360001015253）に合併し解散,2015-10-05,1,,,,,サンラッキーサービス,0
533,2130002032662,登記記録の閉鎖等,0,2024-01-22,2024-01-18,有限会社セーフティ,,有限会社,京都府,福知山市,字岩井８５番地の１４,,26,201,6200922,,,2024-01-18,清算の結了等,,,2015-10-05,1,,,,,セーフティ,0
534,2130005016539,登記記録の閉鎖等,0,2024-01-22,2024-01-19,一般社団法人ＣＥＮＯＴＥ,,その他の設立登記法人,京都府,京都市中京区,東洞院竹屋町下る三本木五丁目４７０番地竹屋町法曹ビル５０１号,,26,104,6040000,,,2024-01-19,清算の結了等,,,2022-07-28,1,,,,,セノーテ,0
540,2150001001922,登記記録の閉鎖等,0,2024-01-22,2024-01-19,畑瀬企画株式会社,,株式会社,奈良県,奈良市,大宮町４丁目２３８番地１号,,29,201,6308115,,,2024-01-19,登記官による閉鎖,,,2015-10-05,1,,,,,,0
541,2150001011789,登記記録の閉鎖等,0,2024-01-22,2024-01-19,株式会社徳美薬化学,,株式会社,奈良県,高市郡高取町,大字清水谷２２１番地,,29,401,6350103,,,2024-01-19,登記官による閉鎖,,,2015-10-05,1,,,,,,0
543,2150001016714,登記記録の閉鎖等,0,2024-01-22,2024-01-19,株式会社安田鉱油,,株式会社,奈良県,生駒市,新旭ケ丘５番２８号１０３,,29,209,6300253,,,2024-01-19,登記官による閉鎖,,,2015-10-05,1,,,,,,0
545,2150002009444,登記記録の閉鎖等,0,2024-01-22,2024-01-19,有限会社やまが,,有限会社,奈良県,香芝市,大字瓦口７０番地の１,,29,210,6390200,,,2024-01-19,登記官による閉鎖,,,2015-10-05,1,,,,,,0
546,2150002010996,登記記録の閉鎖等,0,2024-01-22,2024-01-19,有限会社パームドレイ,,有限会社,奈良県,五條市,今井２丁目２１２番地の１,,29,207,6370004,,,2024-01-19,登記官による閉鎖,,,2015-10-05,1,,,,,,0
547,2160001015673,登記記録の閉鎖等,0,2024-01-22,2024-01-16,パシフィック技研株式会社,,株式会社,滋賀県,野洲市,野洲１７７２番地の８,,25,210,5202342,,,2024-01-16,合併による解散等,5010001026476,令和６年１月１日東京都中央区築地五丁目６番４号バイリーンクリエイト株式会社（5010001026476）に合併し解散,2015-10-05,1,,,,,パシフィックギケン,0
552,2180001149841,登記記録の閉鎖等,0,2024-01-22,2024-01-16,株式会社キャナルプレイス,,株式会社,愛知県,半田市,北末広町１０番地,,23,205,4750852,,,2024-01-16,清算の結了等,,,2022-02-03,1,,,,,キャナルプレイス,0
556,2180003021107,登記記録の閉鎖等,0,2024-01-22,2024-01-15,Ｈ＆Ａ合同会社,,合同会社,愛知県,名古屋市千種区,星が丘山手４０１番地グランドメゾン星が丘山手Ｃ６１３,,23,101,4640808,,,2024-01-15,清算の結了等,,,2020-04-20,1,,,,,エイチアンドエー,0
558,2180301008771,登記記録の閉鎖等,0,2024-01-22,2024-01-18,株式会社アイエスエフネットアクアヴィータ,,株式会社,愛知県,豊橋市,広小路１丁目１８,,23,201,4400881,,,2024-01-18,合併による解散等,6010401052047,令和５年１２月２９日東京都港区赤坂七丁目１番１６号株式会社アイエスエフネット（6010401052047）に合併し解散,2015-10-05,1,,,,,アイエスエフネットアクアヴィータ,0
567,2210001015610,登記記録の閉鎖等,0,2024-01-22,2024-01-16,三重グラビア印刷株式会社,,株式会社,福井県,福井市,三尾野町第２９号２番地２２,,18,201,9188188,,,2024-01-16,清算の結了等,,,2015-10-05,1,,,,,ミエグラビアインサツ,0
573,2220001022812,登記記録の閉鎖等,0,2024-01-22,2024-01-17,株式会社サクラシステムズ,,株式会社,石川県,金沢市,香林坊２丁目１２番２０号,,17,201,9200961,,,2024-01-17,清算の結了等,,,2019-04-09,1,,,,,サクラシステムズ,0
581,2240002034441,登記記録の閉鎖等,0,2024-01-22,2024-01-15,有限会社豊産業,,有限会社,広島県,呉市,音戸町渡子２丁目４３番２２－２０２号,,34,202,7371217,,,2024-01-15,清算の結了等,,,2015-10-05,1,,,,,ユタカサンギョウ,0
586,2250002009129,登記記録の閉鎖等,0,2024-01-22,2024-01-18,有限会社サンキュウ商店,,有限会社,山口県,下関市,彦島江の浦町５丁目５番１５号,,35,201,7500075,,,2024-01-18,清算の結了等,,,2015-10-05,1,,,,,サンキュウショウテン,0
588,2270001000128,登記記録の閉鎖等,0,2024-01-22,2024-01-22,株式会社岡本工務店,,株式会社,鳥取県,鳥取市,行徳２丁目１０４番地,,31,201,6800824,,,2024-01-22,登記官による閉鎖,,,2015-10-05,1,,,,,,0
589,2270003000299,登記記録の閉鎖等,0,2024-01-22,2024-01-22,合同会社山陰保険コンサルタント,,合同会社,鳥取県,米子市,上後藤６丁目２番１８号,,31,202,6830841,,,2024-01-22,登記官による閉鎖,,,2015-10-05,1,,,,,,0
608,2340001000707,登記記録の閉鎖等,0,2024-01-22,2024-01-15,株式会社オートバーン,,株式会社,鹿児島県,鹿児島市,天保山町６番１号,,46,201,8900061,,,2024-01-15,登記官による閉鎖,,,2015-10-05,1,,,,,,0
609,2340001002703,登記記録の閉鎖等,0,2024-01-22,2024-01-18,株式会社立和田,,株式会社,鹿児島県,鹿児島市,田上５丁目３３番１４号,,46,201,8900034,,,2024-01-18,清算の結了等,,,2015-10-05,1,,,,,タチワダ,0
610,2340001006316,登記記録の閉鎖等,0,2024-01-22,2024-01-15,株式会社三蔵,,株式会社,鹿児島県,鹿児島市,西陵４丁目１９番２号,,46,201,8900032,,,2024-01-15,登記官による閉鎖,,,2015-10-05,1,,,,,,0
612,2340001010466,登記記録の閉鎖等,0,2024-01-22,2024-01-15,株式会社ガイド,,株式会社,鹿児島県,鹿児島市,山下町１２番１７－１０１号,,46,201,8920816,,,2024-01-15,登記官による閉鎖,,,2015-10-05,1,,,,,,0
613,2340001021356,登記記録の閉鎖等,0,2024-01-22,2024-01-18,株式会社牛草設備,,株式会社,鹿児島県,肝属郡肝付町,前田３７７７番地１,,46,492,8931206,,,2024-01-18,清算の結了等,,,2018-07-23,1,,,,,ウシグサセツビ,0
614,2340002000235,登記記録の閉鎖等,0,2024-01-22,2024-01-15,有限会社岡システム,,有限会社,鹿児島県,鹿児島市,郡山町１８６７番地１６,,46,201,8911105,,,2024-01-15,登記官による閉鎖,,,2015-10-05,1,,,,,,0
615,2340002002751,登記記録の閉鎖等,0,2024-01-22,2024-01-15,有限会社カワムラ,,有限会社,鹿児島県,鹿児島市,西千石町１６番２５号,,46,201,8920847,,,2024-01-15,登記官による閉鎖,,,2015-10-05,1,,,,,,0
616,2340002016066,登記記録の閉鎖等,0,2024-01-22,2024-01-15,有限会社原田電器商会,,有限会社,鹿児島県,姶良市,西餅田１３５５番地,00099388,46,225,8995431,,,2024-01-15,登記官による閉鎖,,,2015-10-05,1,,,,,,0
617,2340002017758,登記記録の閉鎖等,0,2024-01-22,2024-01-15,有限会社オートパーツセイユー,,有限会社,鹿児島県,いちき串木野市,照島５０９０番地,,46,219,8960055,,,2024-01-15,登記官による閉鎖,,,2015-10-05,1,,,,,,0
618,2340002021371,登記記録の閉鎖等,0,2024-01-22,2024-01-15,有限会社満永石油,,有限会社,鹿児島県,奄美市,住用町大字神屋字下神屋６３番地６,,46,222,8941203,,,2024-01-15,登記官による閉鎖,,,2015-10-05,1,,,,,,0
619,2340002024639,登記記録の閉鎖等,0,2024-01-22,2024-01-15,有限会社早右衛門,,有限会社,鹿児島県,南九州市,頴娃町上別府４６８２番地,,46,223,8910705,,,2024-01-15,登記官による閉鎖,,,2015-10-05,1,,,,,,0
620,2340003001190,登記記録の閉鎖等,0,2024-01-22,2024-01-15,ライフ・ケア合同会社,,合同会社,鹿児島県,南さつま市,金峰町宮崎５０７番地,,46,220,8993511,,,2024-01-15,登記官による閉鎖,,,2015-10-05,1,,,,,,0
624,2360001001182,登記記録の閉鎖等,0,2024-01-22,2024-01-12,砂川産業開発株式会社,,株式会社,沖縄県,那覇市,山下町８番２１号,,47,201,9000027,,,2024-01-12,登記官による閉鎖,,,2018-06-27,1,,,,,スナガワサンギョウカイハツ,0
625,2360001007980,登記記録の閉鎖等,0,2024-01-22,2024-01-12,株式会社ＰＣ－Ｄｏｃ,,株式会社,沖縄県,沖縄市,比屋根１丁目１６番１３号シティーパルＩＩ４０１号,00101257,47,211,9042173,,,2024-01-12,登記官による閉鎖,,,2015-10-05,1,,,,,,0
629,2360002010926,登記記録の閉鎖等,0,2024-01-22,2024-01-12,有限会社國鐵工,,有限会社,沖縄県,南城市,大里字大城５３８番地の１２,,47,215,9011203,,,2024-01-12,登記官による閉鎖,,,2015-10-05,1,,,,,,0
630,2360002019216,登記記録の閉鎖等,0,2024-01-22,2024-01-12,有限会社瑞慶山商事,,有限会社,沖縄県,島尻郡南風原町,字兼城４４０番地の７Ｏ．Ｋハイム１０３,,47,350,9011111,,,2024-01-12,登記官による閉鎖,,,2015-10-05,1,,,,,,0
631,2360002022822,登記記録の閉鎖等,0,2024-01-22,2024-01-12,有限会社エフワイ,,有限会社,沖縄県,宮古島市,平良字下里５２３番地まいなみアパート２０７号,,47,214,9060013,,,2024-01-12,登記官による閉鎖,,,2015-10-05,1,,,,,,0
632,2360003002609,登記記録の閉鎖等,0,2024-01-22,2024-01-12,合同会社ＲＥＩＮＡオフィス,,合同会社,沖縄県,南城市,大里字高平１３１番地２５,,47,215,9011205,,,2024-01-12,登記官による閉鎖,,,2015-10-05,1,,,,,,0
634,2360005002763,登記記録の閉鎖等,0,2024-01-22,2024-01-12,社団法人沖繩平和慰霊像建立奉賛会,00101947,その他の設立登記法人,沖縄県,宜野湾市,字普天間５８４番地,,47,205,9012202,,,2024-01-12,登記官による閉鎖,,,2015-10-05,1,,,,,,0
645,2420005004968,登記記録の閉鎖等,0,2024-01-22,2024-01-16,学校法人おやま学園,,その他の設立登記法人,青森県,平川市,荒田上駒田１５８番地２,,02,210,0360112,,,2024-01-16,清算の結了等,,,2015-10-05,1,,,,,オヤマガクエン,0
646,2430002013640,登記記録の閉鎖等,0,2024-01-22,2024-01-22,有限会社堂下建設,,有限会社,東京都,足立区,保木間５丁目３９－８ブルーメアライ１０９－１０６,,13,121,1210064,,,2024-01-22,登記官による閉鎖,,,2015-10-05,1,,,,,,0
653,2470001003093,登記記録の閉鎖等,0,2024-01-22,2024-01-10,株式会社中村機器販売,,株式会社,香川県,高松市,春日町２４７番地５,,37,201,7610101,,,2024-01-10,登記官による閉鎖,,,2015-10-05,1,,,,,,0
654,2470001010420,登記記録の閉鎖等,0,2024-01-22,2024-01-10,株式会社大浦板金工業所,,株式会社,香川県,三豊市,豊中町本山甲１８５５番地４,,37,208,7691506,,,2024-01-10,登記官による閉鎖,,,2015-10-05,1,,,,,オオウラバンキンコウギョウショ,0
655,2470001012466,登記記録の閉鎖等,0,2024-01-22,2024-01-10,クィーン・ビー株式会社,,株式会社,香川県,小豆郡土庄町,淵崎甲２０６２番地１１,,37,322,7614121,,,2024-01-10,登記官による閉鎖,,,2015-10-05,1,,,,,,0
656,2470001013290,登記記録の閉鎖等,0,2024-01-22,2024-01-10,うたづエンタープライズ株式会社,,株式会社,香川県,綾歌郡宇多津町,浜二番丁１９番地７（３５ビル）,,37,386,7690202,,,2024-01-10,登記官による閉鎖,,,2015-10-05,1,,,,,,0
657,2470001013605,登記記録の閉鎖等,0,2024-01-22,2024-01-10,株式会社成倖宅建,,株式会社,香川県,高松市,紙町１２番地８,,37,201,7618055,,,2024-01-10,登記官による閉鎖,,,2015-10-05,1,,,,,,0
658,2470002000759,登記記録の閉鎖等,0,2024-01-22,2024-01-10,安部興業有限会社,,有限会社,香川県,高松市,檀紙町２１０５番地,,37,201,7618041,,,2024-01-10,登記官による閉鎖,,,2015-10-05,1,,,,,,0
659,2470002013488,登記記録の閉鎖等,0,2024-01-22,2024-01-10,有限会社真鍋材木店,00005444,有限会社,香川県,仲多度郡まんのう町,吉野１４３２番地の１,,37,406,7660023,,,2024-01-10,登記官による閉鎖,,,2015-10-05,1,,,,,,0
660,2470002018974,登記記録の閉鎖等,0,2024-01-22,2024-01-10,砂子造船有限会社,,有限会社,香川県,小豆郡土庄町,大部甲１９２３番地,,37,322,7614145,,,2024-01-10,登記官による閉鎖,,,2015-10-05,1,,,,,,0
661,2470002019642,登記記録の閉鎖等,0,2024-01-22,2024-01-10,光元興産有限会社,,有限会社,香川県,高松市,生島町３８番地２,,37,201,7618002,,,2024-01-10,登記官による閉鎖,,,2018-11-08,1,,,,,,0
663,2470005000979,登記記録の閉鎖等,0,2024-01-22,2024-01-10,香川県物流事業協同組合連合会,,その他の設立登記法人,香川県,高松市,福岡町３丁目２番３号,,37,201,7600066,,,2024-01-10,登記官による閉鎖,,,2015-10-05,1,,,,,,0
693,3010401041102,登記記録の閉鎖等,0,2024-01-22,2024-01-11,株式会社アペイス・サイエンス,,株式会社,東京都,港区,南麻布５丁目１１番１号,,13,103,1060047,,,2024-01-11,清算の結了等,,,2015-10-05,1,,,,,アペイスサイエンス,0
696,3010401083350,登記記録の閉鎖等,0,2024-01-22,2024-01-15,エメリーオレオケミカルズジャパン株式会社,,株式会社,東京都,千代田区,内幸町２丁目２番２号富国生命ビル１５階,,13,101,1000011,,,2024-01-15,清算の結了等,,,2015-10-05,1,,,,,エメリーオレオケミカルズジャパン,0
707,3010501022480,登記記録の閉鎖等,0,2024-01-22,2024-01-18,東海高熱エンジニアリング株式会社,,株式会社,滋賀県,近江八幡市,長光寺町７０５番地,,25,204,5230013,,,2024-01-18,合併による解散等,5010501022479,令和６年１月１日東京都港区北青山一丁目２番３号東海高熱工業株式会社（5010501022479）に合併し解散,2015-10-05,1,,,,,トウカイコウネツエンジニアリング,0
715,3010701007067,登記記録の閉鎖等,0,2024-01-22,2024-01-22,株式会社土俵や,,株式会社,東京都,品川区,東大井３丁目２６番４号,,13,109,1400011,,,2024-01-22,登記官による閉鎖,,,2015-10-05,1,,,,,,0
716,3010701007422,登記記録の閉鎖等,0,2024-01-22,2024-01-22,日興開発株式会社,,株式会社,東京都,品川区,西五反田７丁目１６番１号,,13,109,1410031,,,2024-01-22,登記官による閉鎖,,,2015-10-05,1,,,,,,0
718,3010702005961,登記記録の閉鎖等,0,2024-01-22,2024-01-22,有限会社長門製作所,,有限会社,東京都,品川区,荏原１丁目４番３号,,13,109,1420063,,,2024-01-22,登記官による閉鎖,,,2015-10-05,1,,,,,,0
719,3010705001339,登記記録の閉鎖等,0,2024-01-22,2024-01-22,特定非営利活動法人ライフ,,その他の設立登記法人,東京都,品川区,西五反田５丁目２６番３号フェルトベルク３０９,,13,109,1410031,,,2024-01-22,登記官による閉鎖,,,2015-10-05,1,,,,,,0
745,3011801016288,登記記録の閉鎖等,0,2024-01-22,2024-01-22,株式会社税経中央コンサルティング,,株式会社,東京都,葛飾区,東金町４丁目１３番４号,,13,122,1250041,,,2024-01-22,登記官による閉鎖,,,2015-10-05,1,,,,,,0
746,3011801021214,登記記録の閉鎖等,0,2024-01-22,2024-01-22,アシスト・ワン工房株式会社,,株式会社,東京都,葛飾区,細田１丁目２４番９号,,13,122,1240021,,,2024-01-22,登記官による閉鎖,,,2015-10-05,1,,,,,,0
747,3011801021726,登記記録の閉鎖等,0,2024-01-22,2024-01-22,鹿田塗装株式会社,,株式会社,東京都,足立区,東和１丁目７番３号,,13,121,1200003,,,2024-01-22,登記官による閉鎖,,,2015-10-05,1,,,,,,0
748,3011801023490,登記記録の閉鎖等,0,2024-01-22,2024-01-22,株式会社テクノテック・ジャパン,,株式会社,東京都,葛飾区,西新小岩４丁目４２番１９号,,13,122,1240025,,,2024-01-22,登記官による閉鎖,,,2015-10-05,1,,,,,,0
749,3011801023499,登記記録の閉鎖等,0,2024-01-22,2024-01-22,株式会社エルード,,株式会社,東京都,葛飾区,西新小岩４丁目４２番１９号,,13,122,1240025,,,2024-01-22,登記官による閉鎖,,,2015-10-05,1,,,,,,0
750,3011801026510,登記記録の閉鎖等,0,2024-01-22,2024-01-22,株式会社ネクスト,,株式会社,東京都,足立区,西綾瀬２丁目２０番１０号,,13,121,1200014,,,2024-01-22,登記官による閉鎖,,,2015-10-05,1,,,,,,0
751,3011802013953,登記記録の閉鎖等,0,2024-01-22,2024-01-22,有限会社清水ドレス,,有限会社,東京都,足立区,辰沼２丁目２番８号,,13,121,1210054,,,2024-01-22,登記官による閉鎖,,,2015-10-05,1,,,,,,0
753,3011802028332,登記記録の閉鎖等,0,2024-01-22,2024-01-22,有限会社ふるさと介護サービス,,有限会社,東京都,足立区,六町４丁目１１番２３号,,13,121,1210073,,,2024-01-22,登記官による閉鎖,,,2015-10-05,1,,,,,,0
754,3011803001296,登記記録の閉鎖等,0,2024-01-22,2024-01-22,合同会社ハヌル,,合同会社,東京都,足立区,関原２丁目２２番２１号,,13,121,1230852,,,2024-01-22,登記官による閉鎖,,,2015-10-05,1,,,,,,0
755,3011805001906,登記記録の閉鎖等,0,2024-01-22,2024-01-22,ＮＰＯ法人ＢＡＭＢＯＯ－ＬＯＶＥ,,その他の設立登記法人,東京都,葛飾区,鎌倉１丁目２２番４号,,13,122,1250053,,,2024-01-22,登記官による閉鎖,,,2015-10-05,1,,,,,,0
760,3013201017255,登記記録の閉鎖等,0,2024-01-22,2024-01-22,ビットライン株式会社,,株式会社,東京都,品川区,西五反田５丁目１番３号,,13,109,1410031,,,2024-01-22,登記官による閉鎖,,,2015-10-05,1,,,,,,0
767,3020003020684,登記記録の閉鎖等,0,2024-01-22,2024-01-15,Ｊａｐａｎ４ｗｏｒｌｄ合同会社,,合同会社,神奈川県,川崎市幸区,戸手４丁目３番４号フロール川崎戸手４番館３０３号室,,14,132,2120005,,,2024-01-15,清算の結了等,,,2021-10-20,1,,,,,ジャパンフォーワールド,0
770,3021001064681,登記記録の閉鎖等,0,2024-01-22,2024-01-18,株式会社三善,,株式会社,神奈川県,鎌倉市,岡本１１３７番地２エスパスナチューレ４０５,,14,204,2470072,,,2024-01-18,清算の結了等,,,2018-04-25,1,,,,,ミツヨシ,0
772,3021002002995,登記記録の閉鎖等,0,2024-01-22,2024-01-17,有限会社セレモニーユニオン横田,,有限会社,神奈川県,藤沢市,城南３丁目３番１０号,,14,205,2510057,,,2024-01-17,清算の結了等,,,2015-10-05,1,,,,,セレモニーユニオンヨコタ,0
773,3021002015551,登記記録の閉鎖等,0,2024-01-22,2024-01-16,有限会社古橋酒店,,有限会社,神奈川県,鎌倉市,今泉台７丁目１９番１２号,,14,204,2470053,,,2024-01-16,清算の結了等,,,2015-10-05,1,,,,,フルハシサケテン,0
778,3030001108621,登記記録の閉鎖等,0,2024-01-22,2024-01-15,株式会社石井,,株式会社,埼玉県,越谷市,蒲生１丁目４番２２号,,11,222,3430838,,,2024-01-15,清算の結了等,,,2015-10-05,1,,,,,イシイ,0
779,3030001127316,登記記録の閉鎖等,0,2024-01-22,2024-01-12,矢作コンクリート株式会社,,株式会社,埼玉県,川口市,中青木１丁目９番２７号,,11,203,3320032,,,2024-01-12,清算の結了等,,,2018-09-06,1,,,,,ヤハギコンクリート,0
785,3030002097368,登記記録の閉鎖等,0,2024-01-22,2024-01-15,有限会社河野商会,,有限会社,埼玉県,比企郡小川町,大字高谷２５８８番地３０,,11,343,3550311,,,2024-01-15,清算の結了等,,,2015-10-05,1,,,,,コウノショウカイ,0
791,3040001078946,登記記録の閉鎖等,0,2024-01-22,2024-01-09,株式会社アルティ,,株式会社,千葉県,市川市,八幡３丁目６番１－１８０４号,,12,203,2720021,,,2024-01-09,清算の結了等,,,2015-10-05,1,,,,,アルティ,0
828,3110005003653,登記記録の閉鎖等,0,2024-01-22,2024-01-19,医療法人社団宏仁会,,その他の設立登記法人,新潟県,阿賀野市,保田３３１８番地５,,15,223,9592221,,,2024-01-19,清算の結了等,,,2015-10-05,1,,,,,コウジンカイ,0
830,3120001124130,登記記録の閉鎖等,0,2024-01-22,2024-01-11,株式会社くらしかる,,株式会社,大阪府,大阪市中央区,内淡路町２丁目１番７号,,27,128,5400038,,,2024-01-11,清算の結了等,,,2015-10-05,1,,,,,クラシカル,0
836,3120002024115,登記記録の閉鎖等,0,2024-01-22,2024-01-18,有限会社仲井工務店,,有限会社,大阪府,大阪市西淀川区,佃２丁目４番１４号,,27,113,5550001,,,2024-01-18,清算の結了等,,,2015-10-05,1,,,,,ナカイコウムテン,0
839,3120102022489,登記記録の閉鎖等,0,2024-01-22,2024-01-18,有限会社エフ・アイ・ティ,,有限会社,大阪府,岸和田市,土生町９丁目１１番９号,,27,202,5960825,,,2024-01-18,清算の結了等,,,2015-10-05,1,,,,,エフアイティ,0
843,3122001027445,登記記録の閉鎖等,0,2024-01-22,2024-01-19,ひなぎく株式会社,,株式会社,大阪府,八尾市,桜ヶ丘３丁目７４,,27,212,5810869,,,2024-01-19,清算の結了等,,,2015-10-05,1,,,,,ヒナギク,0
852,3150001001203,登記記録の閉鎖等,0,2024-01-22,2024-01-19,大三緑化株式会社,,株式会社,奈良県,奈良市,高畑町１４２９番地,,29,201,6308301,,,2024-01-19,登記官による閉鎖,,,2015-10-05,1,,,,,,0
853,3150001004643,登記記録の閉鎖等,0,2024-01-22,2024-01-19,株式会社アスカ,,株式会社,奈良県,生駒市,あすか野南３丁目４番２３号,,29,209,6300133,,,2024-01-19,登記官による閉鎖,,,2015-10-05,1,,,,,,0
854,3150001013297,登記記録の閉鎖等,0,2024-01-22,2024-01-19,林住建株式会社,,株式会社,奈良県,大和高田市,春日町１丁目２番３１－２０３号,,29,202,6350067,,,2024-01-19,登記官による閉鎖,,,2015-10-05,1,,,,,,0
855,3150001013727,登記記録の閉鎖等,0,2024-01-22,2024-01-19,株式会社ワイワイツアーズインターナショナル,,株式会社,奈良県,大和高田市,礒野南町５番４５号,,29,202,6350062,,,2024-01-19,登記官による閉鎖,,,2015-10-05,1,,,,,,0
858,3150002005871,登記記録の閉鎖等,0,2024-01-22,2024-01-19,有限会社服部商事,,有限会社,奈良県,天理市,川原城町３５５番地,,29,204,6320016,,,2024-01-19,登記官による閉鎖,,,2015-10-05,1,,,,,,0
859,3150002009897,登記記録の閉鎖等,0,2024-01-22,2024-01-19,有限会社エス・ピー紙工社,,有限会社,奈良県,北葛城郡上牧町,米山台４丁目１１番１２号,,29,424,6390213,,,2024-01-19,登記官による閉鎖,,,2015-10-05,1,,,,,,0
860,3160001007281,登記記録の閉鎖等,0,2024-01-22,2024-01-16,トップ事務機株式会社,,株式会社,滋賀県,長浜市,木之本町木之本２０８２番地,,25,203,5290425,,,2024-01-16,合併による解散等,8050001014557,令和６年１月１日茨城県坂東市馬立１２３４番地キヤノンエコロジーインダストリー株式会社（8050001014557）に合併し解散,2015-10-05,1,,,,,トップジムキ,0
870,3180002008938,登記記録の閉鎖等,0,2024-01-22,2024-01-17,有限会社モリ建築計画事務所,,有限会社,愛知県,名古屋市昭和区,鶴舞４丁目１５番２３号,,23,107,4660064,,,2024-01-17,清算の結了等,,,2015-10-05,1,,,,,モリケンチクケイカクジムショ,0
876,3210005005953,登記記録の閉鎖等,0,2024-01-22,2023-12-22,エホバの証人の大野会衆,,その他の設立登記法人,福井県,大野市,牛ケ原９５字下郷寿２５番地１,,18,205,9120091,,,2023-12-22,合併による解散等,6210005006016,令和５年１２月２２日福井県勝山市荒土町伊波第２０号２番地２宗教法人エホバの証人の福井県勝山市勝山会衆（6210005006016）に合併し解散,2015-10-05,1,,,,,エホバノショウニンノオオノカイシュウ,0
883,3240002050017,登記記録の閉鎖等,0,2024-01-22,2024-01-15,有限会社石川商店,,有限会社,広島県,尾道市,因島土生町１７５２番地の１９,,34,205,7222323,,,2024-01-15,清算の結了等,,,2015-10-05,1,,,,,,0
888,3270002011338,登記記録の閉鎖等,0,2024-01-22,2024-01-22,有限会社八幡商事,,有限会社,鳥取県,米子市,上福原１５５８番地,,31,202,6830004,,,2024-01-22,登記官による閉鎖,,,2018-07-31,1,,,,,ヤワタショウジ,0
901,3340001012973,登記記録の閉鎖等,0,2024-01-22,2024-01-15,株式会社恵,,株式会社,鹿児島県,鹿児島市,大黒町３番２６号（幸屋ビル３０１号）,,46,201,8920825,,,2024-01-15,登記官による閉鎖,,,2015-10-05,1,,,,,,0
904,3340002005217,登記記録の閉鎖等,0,2024-01-22,2024-01-15,有限会社スティング,,有限会社,鹿児島県,鹿児島市,松原町１５番４号,,46,201,8920833,,,2024-01-15,登記官による閉鎖,,,2015-10-05,1,,,,,,0
905,3340002006875,登記記録の閉鎖等,0,2024-01-22,2024-01-15,有限会社永田会計センター,,有限会社,鹿児島県,鹿児島市,下伊敷３丁目６２番１号,,46,201,8900005,,,2024-01-15,登記官による閉鎖,,,2015-10-05,1,,,,,ナガタカイケイセンター,0
906,3340002007188,登記記録の閉鎖等,0,2024-01-22,2024-01-15,有限会社南洋相互興産,,有限会社,鹿児島県,鹿児島市,易居町６番５号石崎ビル２０１号,,46,201,8920815,,,2024-01-15,登記官による閉鎖,,,2015-10-05,1,,,,,,0
907,3340002019043,登記記録の閉鎖等,0,2024-01-22,2024-01-15,ナカムラ養殖有限会社,,有限会社,鹿児島県,指宿市,山川小川３３６１番地,,46,210,8910515,,,2024-01-15,登記官による閉鎖,,,2015-10-05,1,,,,,,0
908,3340002026485,登記記録の閉鎖等,0,2024-01-22,2024-01-15,有限会社マロン電設,,有限会社,鹿児島県,肝属郡錦江町,馬場３５５番地２,,46,490,8932303,,,2024-01-15,登記官による閉鎖,,,2015-10-05,1,,,,,,0
909,3340003001116,登記記録の閉鎖等,0,2024-01-22,2024-01-15,合資会社南部材供給センター,,合資会社,鹿児島県,鹿児島市,直木町２７７７番地１,,46,201,8992705,,,2024-01-15,登記官による閉鎖,,,2015-10-05,1,,,,,,0
910,3340005000355,登記記録の閉鎖等,0,2024-01-22,2024-01-15,財団法人鹿児島県市町村職員厚生会,,その他の設立登記法人,鹿児島県,鹿児島市,与次郎２丁目８番８号,,46,201,8900062,,,2024-01-15,登記官による閉鎖,,,2015-10-05,1,,,,,,0
911,3340005006212,登記記録の閉鎖等,0,2024-01-22,2024-01-15,学校法人医翔学園,,その他の設立登記法人,鹿児島県,鹿児島市,加治屋町４番２５号,,46,201,8920846,,,2024-01-15,登記官による閉鎖,,,2015-10-05,1,,,,,,0
912,3360001014407,登記記録の閉鎖等,0,2024-01-22,2024-01-12,株式会社北城,,株式会社,沖縄県,那覇市,字真地４３８番地の３,,47,201,9020072,,,2024-01-12,登記官による閉鎖,,,2015-10-05,1,,,,,,0
914,3360002002856,登記記録の閉鎖等,0,2024-01-22,2024-01-12,有限会社チャレンジ,,有限会社,沖縄県,宮古島市,平良字西里１３３７番地,,47,214,9060012,,,2024-01-12,登記官による閉鎖,,,2015-10-05,1,,,,,,0
915,3360002014249,登記記録の閉鎖等,0,2024-01-22,2024-01-12,有限会社ビィエス,,有限会社,沖縄県,うるま市,石川１丁目４７番２３号,,47,213,9041106,,,2024-01-12,登記官による閉鎖,,,2015-10-05,1,,,,,,0
916,3360003000363,登記記録の閉鎖等,0,2024-01-22,2024-01-12,合資会社桂人形店,,合資会社,沖縄県,那覇市,字小禄１５０９番地の５,,47,201,9010152,,,2024-01-12,登記官による閉鎖,,,2015-10-05,1,,,,,,0
918,3360003004777,登記記録の閉鎖等,0,2024-01-22,2024-01-12,合名会社北進運送,,合名会社,沖縄県,国頭郡今帰仁村,字天底３９５番地,,47,306,9050411,,,2024-01-12,登記官による閉鎖,,,2015-10-05,1,,,,,,0
922,3380005005961,登記記録の閉鎖等,0,2024-01-22,2024-01-18,農事組合法人フローラルいわき,,その他の設立登記法人,福島県,いわき市,渡辺町泉田字狐塚１４番地の１４２,,07,204,9728331,,,2024-01-18,清算の結了等,,,2015-10-05,1,,,,,フローラルイワキ,0
923,3390001007696,登記記録の閉鎖等,0,2024-01-22,2024-01-17,ティービーアール株式会社,,株式会社,山形県,鶴岡市,宝田１丁目１１番１６号,,06,203,9970011,,,2024-01-17,合併による解散等,5012301001794,令和６年１月１日東京都町田市南成瀬四丁目２１番地１株式会社ＴＢＫ（5012301001794）に合併し解散,2015-10-05,1,,,,,ティービーアール,0
925,3410003003559,登記記録の閉鎖等,0,2024-01-22,2024-01-15,合同会社ＢＭワーカー,,合同会社,秋田県,秋田市,広面字樋口３４番３７号,00127803,05,201,0100041,,,2024-01-15,清算の結了等,,,2021-08-24,1,,,,,ビーエムワーカー,0
929,3470001009404,登記記録の閉鎖等,0,2024-01-22,2024-01-10,株式会社介護サロンはやぶさ,,株式会社,香川県,丸亀市,飯山町西坂元１１１０番地１,,37,202,7620087,,,2024-01-10,登記官による閉鎖,,,2015-10-05,1,,,,,,0
930,3470001013752,登記記録の閉鎖等,0,2024-01-22,2024-01-10,株式会社サンクス四国,,株式会社,香川県,高松市,花園町１丁目２番１１号,,37,201,7600072,,,2024-01-10,登記官による閉鎖,,,2015-10-05,1,,,,,,0
932,3470002011862,登記記録の閉鎖等,0,2024-01-22,2024-01-10,有限会社武田時計店,,有限会社,香川県,丸亀市,通町１５７番地,,37,202,7630043,,,2024-01-10,登記官による閉鎖,,,2015-10-05,1,,,,,,0
933,3470002012118,登記記録の閉鎖等,0,2024-01-22,2024-01-10,有限会社日の出園,,有限会社,香川県,丸亀市,葭町２７番地,,37,202,7630003,,,2024-01-10,登記官による閉鎖,,,2015-10-05,1,,,,,,0
934,3470002016779,登記記録の閉鎖等,0,2024-01-22,2024-01-10,有限会社近藤不動産,,有限会社,香川県,三豊市,山本町財田西９６８番地１,,37,208,7680103,,,2024-01-10,登記官による閉鎖,,,2015-10-05,1,,,,,,0
939,3500002013054,登記記録の閉鎖等,0,2024-01-22,2024-01-16,有限会社上村商店,,有限会社,愛媛県,八幡浜市,１５１０番地の３６,,38,204,7960088,,,2024-01-16,清算の結了等,,,2015-10-05,1,,,,,ウエムラショウテン,0
955,4010001172817,登記記録の閉鎖等,0,2024-01-22,2024-01-12,インベストメントワークス株式会社,,株式会社,東京都,千代田区,神田小川町３丁目２４番１７号,,13,101,1010052,,,2024-01-12,清算の結了等,,,2016-01-12,1,,,,,インベストメントワークス,0
975,4010501041018,登記記録の閉鎖等,0,2024-01-22,2024-01-18,株式会社Ｊ－ＣＲＡＦＴ,,株式会社,東京都,台東区,上野５丁目２２番４号リューツウ本店ビル,,13,106,1100005,,,2024-01-18,清算の結了等,,,2017-05-11,1,,,,,,0
976,4010501041273,登記記録の閉鎖等,0,2024-01-22,2024-01-17,スピオン株式会社,,株式会社,東京都,台東区,東上野２丁目１５番１２号ニッコービル,,13,106,1100015,,,2024-01-17,清算の結了等,,,2017-07-12,1,,,,,スピオン,0
981,4010701011349,登記記録の閉鎖等,0,2024-01-22,2024-01-22,株式会社優雅,,株式会社,東京都,品川区,小山台１丁目２２番１５号,,13,109,1420061,,,2024-01-22,登記官による閉鎖,,,2015-10-05,1,,,,,,0
982,4010701023831,登記記録の閉鎖等,0,2024-01-22,2024-01-22,ハマグチエステート株式会社,,株式会社,東京都,品川区,小山３丁目１９番１１号ベルスビル６階,,13,109,1420062,,,2024-01-22,登記官による閉鎖,,,2015-10-05,1,,,,,,0
983,4010701026297,登記記録の閉鎖等,0,2024-01-22,2024-01-22,株式会社ワイドワン,,株式会社,東京都,品川区,小山２丁目１３番１７号,,13,109,1420062,,,2024-01-22,登記官による閉鎖,,,2015-10-05,1,,,,,,0
984,4010701027618,登記記録の閉鎖等,0,2024-01-22,2024-01-22,株式会社１８ｎｏｉｚ,,株式会社,東京都,品川区,二葉３丁目２１番３号,,13,109,1420043,,,2024-01-22,登記官による閉鎖,,,2015-10-05,1,,,,,,0
985,4010702003519,登記記録の閉鎖等,0,2024-01-22,2024-01-22,有限会社三恵工業,,有限会社,東京都,品川区,二葉４丁目２５番９号,,13,109,1420043,,,2024-01-22,登記官による閉鎖,,,2015-10-05,1,,,,,,0
986,4010703002040,登記記録の閉鎖等,0,2024-01-22,2024-01-22,ソッコー合同会社,,合同会社,東京都,品川区,北品川５丁目９番４２－１２５号,,13,109,1410001,,,2024-01-22,登記官による閉鎖,,,2015-10-05,1,,,,,,0
987,4010703002049,登記記録の閉鎖等,0,2024-01-22,2024-01-22,クラーレあおい合同会社,,合同会社,東京都,品川区,西中延２丁目６番１５号オフィスあおい４階,,13,109,1420054,,,2024-01-22,登記官による閉鎖,,,2015-10-05,1,,,,,,0
989,4010705000901,登記記録の閉鎖等,0,2024-01-22,2024-01-22,特定非営利活動法人ＮＰＯクリーンアース,,その他の設立登記法人,東京都,品川区,西五反田８丁目２番１０－１００１号,,13,109,1410031,,,2024-01-22,登記官による閉鎖,,,2015-10-05,1,,,,,,0
990,4010705001008,登記記録の閉鎖等,0,2024-01-22,2024-01-22,特定非営利活動法人マナ・アテンド・サービス,,その他の設立登記法人,東京都,品川区,八潮５丁目６番３２－１１１０号,,13,109,1400003,,,2024-01-22,登記官による閉鎖,,,2015-10-05,1,,,,,,0
991,4010705001123,登記記録の閉鎖等,0,2024-01-22,2024-01-22,特定非営利活動法人日本シューフィッティング協会,,その他の設立登記法人,東京都,品川区,東五反田１丁目４番９号五反田スカイハイツ２０６号,,13,109,1410022,,,2024-01-22,登記官による閉鎖,,,2015-10-05,1,,,,,,0
992,4010705001255,登記記録の閉鎖等,0,2024-01-22,2024-01-22,インベストメントバンカーズ事業協同組合,,その他の設立登記法人,東京都,品川区,東五反田１丁目７番１１号アイオス五反田アネックス４０７,,13,109,1410022,,,2024-01-22,登記官による閉鎖,,,2015-10-05,1,,,,,,0
993,4010705001692,登記記録の閉鎖等,0,2024-01-22,2024-01-22,一般社団法人ガバメント・ガバナンス・イニシアティブ,,その他の設立登記法人,東京都,品川区,北品川４丁目７番３５号,,13,109,1400001,,,2024-01-22,登記官による閉鎖,,,2015-10-05,1,,,,,,0
994,4010705001701,登記記録の閉鎖等,0,2024-01-22,2024-01-22,一般社団法人心検,,その他の設立登記法人,東京都,品川区,上大崎３丁目１０－６３ビレッジ・ルルド１０３,,13,109,1410021,,,2024-01-22,登記官による閉鎖,,,2015-10-05,1,,,,,,0
998,4010901028366,登記記録の閉鎖等,0,2024-01-22,2024-01-17,株式会社フォーミュラ,,株式会社,神奈川県,大和市,福田１５８６番地２０,,14,213,2420024,,,2024-01-17,合併による解散等,3010001135989,令和６年１月１日東京都千代田区神田神保町二丁目４０番５号株式会社エージェントゲート（3010001135989）に合併し解散,2015-10-05,1,,,,,フォーミュラ,0
1025,4011103005617,登記記録の閉鎖等,0,2024-01-22,2024-01-18,スピカ・ソーラー合同会社,,合同会社,東京都,新宿区,西新宿１丁目２３番７号新宿ファーストウエスト,,13,104,1600023,,,2024-01-18,清算の結了等,,,2015-10-05,1,,,,,スピカソーラー,0
1038,4011801000480,登記記録の閉鎖等,0,2024-01-22,2024-01-22,株式会社植木印刷,,株式会社,東京都,葛飾区,東堀切２丁目６番１号,,13,122,1240004,,,2024-01-22,登記官による閉鎖,,,2015-10-05,1,,,,,,0
1039,4011801001041,登記記録の閉鎖等,0,2024-01-22,2024-01-22,紙加株式会社,,株式会社,東京都,葛飾区,細田５丁目２３番１３号,,13,122,1240021,,,2024-01-22,登記官による閉鎖,,,2015-10-05,1,,,,,,0
1040,4011801003509,登記記録の閉鎖等,0,2024-01-22,2024-01-22,株式会社富山機械金属製作所,,株式会社,東京都,葛飾区,東立石２丁目１８番２号マリンハイツ２０１号室,,13,122,1240013,,,2024-01-22,登記官による閉鎖,,,2015-10-05,1,,,,,,0
1041,4011801003632,登記記録の閉鎖等,0,2024-01-22,2024-01-22,日本オートケミカル販売株式会社,,株式会社,東京都,葛飾区,亀有３丁目１５番８号,,13,122,1250061,,,2024-01-22,登記官による閉鎖,,,2015-10-05,1,,,,,,0
1042,4011801008474,登記記録の閉鎖等,0,2024-01-22,2024-01-22,シシド精型株式会社,,株式会社,東京都,足立区,扇１丁目５５番１０号,,13,121,1230873,,,2024-01-22,登記官による閉鎖,,,2015-10-05,1,,,,,,0
1046,4011801023795,登記記録の閉鎖等,0,2024-01-22,2024-01-22,株式会社コトブキ,,株式会社,東京都,葛飾区,堀切１丁目２１番１４号,,13,122,1240006,,,2024-01-22,登記官による閉鎖,,,2015-10-05,1,,,,,,0
1047,4011801024216,登記記録の閉鎖等,0,2024-01-22,2024-01-22,株式会社広宣,,株式会社,東京都,葛飾区,細田４丁目１４番１３号,,13,122,1240021,,,2024-01-22,登記官による閉鎖,,,2015-10-05,1,,,,,,0
1048,4011801026245,登記記録の閉鎖等,0,2024-01-22,2024-01-22,株式会社ＥＣＯプライス,,株式会社,東京都,足立区,足立３丁目３３番５号ティル・ナ・ノーグ利紀和１０３号室,,13,121,1200015,,,2024-01-22,登記官による閉鎖,,,2015-10-05,1,,,,,,0
1049,4011802009422,登記記録の閉鎖等,0,2024-01-22,2024-01-22,有限会社イ・ヴ,,有限会社,東京都,足立区,梅田３丁目８番８号,,13,121,1230851,,,2024-01-22,登記官による閉鎖,,,2015-10-05,1,,,,,,0
1050,4011802029528,登記記録の閉鎖等,0,2024-01-22,2024-01-22,有限会社巌流,,有限会社,東京都,葛飾区,新小岩４丁目４１番５号,,13,122,1240024,,,2024-01-22,登記官による閉鎖,,,2015-10-05,1,,,,,,0
1051,4011805001186,登記記録の閉鎖等,0,2024-01-22,2024-01-22,デイリーフーズ協同組合,,その他の設立登記法人,東京都,葛飾区,奥戸２丁目３７番１５号,,13,122,1240022,,,2024-01-22,登記官による閉鎖,,,2015-10-05,1,,,,,,0
1055,4013101006794,登記記録の閉鎖等,0,2024-01-22,2024-01-15,株式会社ＡＲＴ　ＫＥＮＳＯ,,株式会社,東京都,武蔵村山市,三ツ藤１丁目９２番地の４,,13,223,2080021,,,2024-01-15,清算の結了等,,,2015-10-05,1,,,,,,0
1071,4020002092609,登記記録の閉鎖等,0,2024-01-22,2024-01-16,有限会社ダニエル,,有限会社,神奈川県,川崎市多摩区,宿河原６丁目４４番９号,,14,135,2140021,,,2024-01-16,清算の結了等,,,2015-10-05,1,,,,,ダニエル,0
1074,4021001002475,登記記録の閉鎖等,0,2024-01-22,2024-01-16,横浜抵抗器株式会社,,株式会社,神奈川県,藤沢市,遠藤２０２１番地１１,,14,205,2520816,,,2024-01-16,清算の結了等,,,2015-10-05,1,,,,,ヨコハマテイコウキ,0
1094,4030002122620,登記記録の閉鎖等,0,2024-01-22,2024-01-15,有限会社エム・エム・ケー,,有限会社,埼玉県,秩父市,寺尾１１５９番地１,,11,207,3680056,,,2024-01-15,清算の結了等,,,2015-10-05,1,,,,,エムエムケー,0
1139,4100001026534,登記記録の閉鎖等,0,2024-01-22,2024-01-11,信州エイエスパワー株式会社,,株式会社,長野県,長野市,真島町真島７９２番地１,,20,201,3812204,,,2024-01-11,清算の結了等,,,2015-10-05,1,,,,,シンシュウエイエスパワー,0
1147,4110005002002,登記記録の閉鎖等,0,2024-01-22,2024-01-19,医療法人社団歯科小林医院,,その他の設立登記法人,新潟県,新潟市秋葉区,新町１丁目６番３２号,,15,105,9560862,,,2024-01-19,清算の結了等,,,2015-10-05,1,,,,,シカコバヤシイイン,0
1148,4120001050706,登記記録の閉鎖等,0,2024-01-22,2024-01-19,株式会社美壽多洋行,,株式会社,大阪府,大阪市西淀川区,御幣島２丁目１３番１３号,,27,113,5550012,,,2024-01-19,清算の結了等,,,2015-10-05,1,,,,,ミスタヨウコウ,0
1149,4120001083714,登記記録の閉鎖等,0,2024-01-22,2024-01-15,株式会社太陽堂印刷所,,株式会社,大阪府,大阪市中央区,（大阪市南区瓦屋町二丁目１８番６号）,,27,128,5390000,,,2024-01-15,清算の結了等,,,2015-10-05,1,,,,,タイヨウドウインサツショ,1
1150,4120001090355,登記記録の閉鎖等,0,2024-01-22,2024-01-12,株式会社水谷,,株式会社,大阪府,大阪市中央区,上汐２丁目２番２２号,,27,128,5420064,,,2024-01-12,清算の結了等,,,2015-10-05,1,,,,,ミズタニ,0
1175,4130001029856,登記記録の閉鎖等,0,2024-01-22,2024-01-16,株式会社荒,,株式会社,京都府,長岡京市,梅が丘３丁目９９番地の２,,26,209,6170841,,,2024-01-16,合併による解散等,1010401046251,令和６年１月１日東京都港区芝大門二丁目８番１５号－８０３アラ興産株式会社（1010401046251）に合併し解散,2015-10-05,1,,,,,アラ,0
1188,4150001013057,登記記録の閉鎖等,0,2024-01-22,2024-01-19,中央建設株式会社,,株式会社,奈良県,香芝市,逢坂７丁目１４３番地の１,00042990,29,210,6390251,,,2024-01-19,登記官による閉鎖,,,2015-10-05,1,,,,,,0
1190,4150002004063,登記記録の閉鎖等,0,2024-01-22,2024-01-19,有限会社オープン医療器,,有限会社,奈良県,生駒市,光陽台１２８番地,,29,209,6300247,,,2024-01-19,登記官による閉鎖,,,2015-10-05,1,,,,,,0
1191,4150002007405,登記記録の閉鎖等,0,2024-01-22,2024-01-19,有限会社エース白蟻,,有限会社,奈良県,橿原市,北妙法寺町４０番地の５,,29,205,6340843,,,2024-01-19,登記官による閉鎖,,,2015-10-05,1,,,,,,0
1192,4150002009228,登記記録の閉鎖等,0,2024-01-22,2024-01-19,有限会社ナガムラ・ダンス・スタジオ,,有限会社,奈良県,香芝市,瓦口２０３５番地,,29,210,6390225,,,2024-01-19,登記官による閉鎖,,,2015-10-05,1,,,,,,0
1193,4150002009434,登記記録の閉鎖等,0,2024-01-22,2024-01-19,有限会社山仙商事,,有限会社,奈良県,北葛城郡王寺町,久度４丁目５番３２号,,29,425,6360003,,,2024-01-19,登記官による閉鎖,,,2015-10-05,1,,,,,,0
1194,4150005000720,登記記録の閉鎖等,0,2024-01-22,2024-01-19,社団法人奈良県新聞協会,,その他の設立登記法人,奈良県,奈良市,登大路町８番地,,29,201,6308213,,,2024-01-19,登記官による閉鎖,,,2015-10-05,1,,,,,,0
1195,4150005000794,登記記録の閉鎖等,0,2024-01-22,2024-01-19,財団法人杉山育英会,,その他の設立登記法人,奈良県,奈良市,鵲町５番地,,29,201,6308391,,,2024-01-19,登記官による閉鎖,,,2015-10-05,1,,,,,,0
1196,4160001016208,登記記録の閉鎖等,0,2024-01-22,2024-01-16,株式会社エヌエスアール,,株式会社,兵庫県,神戸市灘区,日尾町１丁目２番３号ＫＨＫ六甲ビル３０３号室,,28,102,6570029,,,2024-01-16,清算の結了等,,,2015-10-05,1,,,,,エヌエスアール,0
1199,4180001125840,登記記録の閉鎖等,0,2024-01-22,2024-01-10,株式会社ＡＩＧＯＹＡ,,株式会社,愛知県,刈谷市,井ケ谷町青木３１番地,,23,210,4480001,,,2024-01-10,清算の結了等,,,2016-12-09,1,,,,,アイゴヤ,0
1220,4260005005320,登記記録の閉鎖等,0,2024-01-22,2023-12-27,天理教中備分教会,,その他の設立登記法人,岡山県,笠岡市,北木島町１３２５０番地の１０,,33,205,7140301,,,2023-12-27,合併による解散等,5240005010932,令和５年１２月１９日広島県尾道市吉浦町１７番３６号天理教尾道分教会（5240005010932）に合併し解散,2015-10-05,1,,,,,,0
1221,4270001003863,登記記録の閉鎖等,0,2024-01-22,2024-01-22,株式会社森脇商店,,株式会社,鳥取県,境港市,竹内団地１１４番地,,31,204,6840046,,,2024-01-22,登記官による閉鎖,,,2015-10-05,1,,,,,,0
1222,4270002001932,登記記録の閉鎖等,0,2024-01-22,2024-01-22,有限会社山田石油店,,有限会社,鳥取県,鳥取市,丸山町２６９番地１,,31,201,6800006,,,2024-01-22,登記官による閉鎖,,,2015-10-05,1,,,,,,0
1223,4270005003372,登記記録の閉鎖等,0,2024-01-22,2024-01-22,社団法人米子市歯科医師会,,その他の設立登記法人,鳥取県,米子市,加茂町１丁目３６番地,,31,202,6830823,,,2024-01-22,登記官による閉鎖,,,2015-10-05,1,,,,,,0
1224,4270005003810,登記記録の閉鎖等,0,2024-01-22,2024-01-22,財団法人江府町農業公社,,その他の設立登記法人,鳥取県,日野郡江府町,大字江尾４７５番地,,31,403,6894401,,,2024-01-22,登記官による閉鎖,,,2015-10-05,1,,,,,,0
1226,4290001052850,登記記録の閉鎖等,0,2024-01-22,2024-01-18,株式会社古賀龍建設,,株式会社,福岡県,大川市,大字新田５５番地の３,,40,212,8310043,,,2024-01-18,清算の結了等,,,2015-10-05,1,,,,,コガリュウケンセツ,0
1229,4290001088481,登記記録の閉鎖等,0,2024-01-22,2024-01-18,株式会社ＧａｒＵ　ｃｏｍｐａｎｙ,,株式会社,福岡県,久留米市,西町１０５６番地１９－１Ｆ,,40,203,8300038,,,2024-01-18,清算の結了等,,,2020-03-31,1,,,,,ガルカンパニー,0
1234,4290005008106,登記記録の閉鎖等,0,2024-01-22,2024-01-15,梅次郎大神教会,,その他の設立登記法人,福岡県,飯塚市,飯塚１６番１５号,,40,205,8200041,,,2024-01-15,清算の結了等,,,2015-10-05,1,,,,,ウメジロウオオカミキョウカイ,0
1245,4330001021751,登記記録の閉鎖等,0,2024-01-22,2024-01-11,ＡＤＦコーポレイション株式会社,,株式会社,熊本県,熊本市東区,長嶺南６丁目６番１号,,43,102,8618039,,,2024-01-11,清算の結了等,,,2015-10-05,1,,,,,エーディーエフコーポレイション,0
1251,4340002014704,登記記録の閉鎖等,0,2024-01-22,2024-01-15,有限会社とくしげ,,有限会社,鹿児島県,伊佐市,大口上町５番地１４,,46,224,8952513,,,2024-01-15,登記官による閉鎖,,,2015-10-05,1,,,,,,0
1252,4340002024983,登記記録の閉鎖等,0,2024-01-22,2024-01-15,有限会社永喜会,,有限会社,鹿児島県,肝属郡錦江町,田代川原４９５７番地,,46,490,8932402,,,2024-01-15,登記官による閉鎖,,,2015-10-05,1,,,,,,0
1253,4340005005898,登記記録の閉鎖等,0,2024-01-22,2024-01-15,薩州総合物流協同組合,00100346,その他の設立登記法人,鹿児島県,枕崎市,鹿篭麓町５５０番地,,46,204,8980054,,,2024-01-15,登記官による閉鎖,,,2015-10-05,1,,,,,,0
1254,4340005005972,登記記録の閉鎖等,0,2024-01-22,2024-01-15,学校法人勝目学園,,その他の設立登記法人,鹿児島県,南九州市,川辺町上山田１９１５番地,,46,223,8970131,,,2024-01-15,登記官による閉鎖,,,2015-10-05,1,,,,,,0
1255,4360001004869,登記記録の閉鎖等,0,2024-01-22,2024-01-12,株式会社エーティーエー,,株式会社,沖縄県,那覇市,字天久８１６番地高見産業ビル１Ｆ,,47,201,9000005,,,2024-01-12,登記官による閉鎖,,,2015-10-05,1,,,,,,0
1256,4360001010066,登記記録の閉鎖等,0,2024-01-22,2024-01-12,株式会社田・ハーベスト,,株式会社,沖縄県,那覇市,松山２丁目１番１２号玉キ米屋ビル４０２,,47,201,9000032,,,2024-01-12,登記官による閉鎖,,,2015-10-05,1,,,,,,0
1257,4360001011320,登記記録の閉鎖等,0,2024-01-22,2024-01-12,株式会社神在,,株式会社,沖縄県,糸満市,西崎１丁目３７番２－３０５号,,47,210,9010305,,,2024-01-12,登記官による閉鎖,,,2015-10-05,1,,,,,,0
1259,4360001014422,登記記録の閉鎖等,0,2024-01-22,2024-01-12,楊新株式会社,,株式会社,沖縄県,那覇市,小禄１丁目２０番２３号２階,,47,201,9010152,,,2024-01-12,登記官による閉鎖,,,2015-10-05,1,,,,,,0
1260,4360002013209,登記記録の閉鎖等,0,2024-01-22,2024-01-12,有限会社大杉産業,,有限会社,沖縄県,うるま市,字江洲３５５番地,,47,213,9042244,,,2024-01-12,登記官による閉鎖,,,2015-10-05,1,,,,,,0
1261,4360002020254,登記記録の閉鎖等,0,2024-01-22,2024-01-12,有限会社饒波建設工業,00101700,有限会社,沖縄県,国頭郡本部町,字東４８６番地の２,,47,308,9050211,,,2024-01-12,登記官による閉鎖,,,2015-10-05,1,,,,,,0
1262,4360003008752,登記記録の閉鎖等,0,2024-01-22,2024-01-12,合資会社長嶺産業,,合資会社,沖縄県,豊見城市,字宜保１３９番地２,,47,212,9010244,,,2024-01-12,登記官による閉鎖,,,2018-03-29,1,,,,,ナガミネサンギョウ,0
1263,4360005001499,登記記録の閉鎖等,0,2024-01-22,2024-01-12,農事組合法人県酪哺育ユートピア牧場,,その他の設立登記法人,沖縄県,糸満市,字真壁１２１１番地の２,,47,210,9010336,,,2024-01-12,登記官による閉鎖,,,2015-10-05,1,,,,,,0
1264,4360005003256,登記記録の閉鎖等,0,2024-01-22,2024-01-12,社団法人国頭地区教職員会,,その他の設立登記法人,沖縄県,名護市,大中１丁目１番９号,,47,209,9050017,,,2024-01-12,登記官による閉鎖,,,2015-10-05,1,,,,,,0
1265,4360005003520,登記記録の閉鎖等,0,2024-01-22,2024-01-12,今帰仁ブランド協同組合,,その他の設立登記法人,沖縄県,国頭郡今帰仁村,字仲宗根９９番地の３,,47,306,9050401,,,2024-01-12,登記官による閉鎖,,,2015-10-05,1,,,,,,0
1266,4360005004519,登記記録の閉鎖等,0,2024-01-22,2024-01-12,一般社団法人沖縄童唄普及研究会,,その他の設立登記法人,沖縄県,うるま市,字田場１０９３番地,,47,213,9042213,,,2024-01-12,登記官による閉鎖,,,2015-10-05,1,,,,,,0
1276,4400001001234,登記記録の閉鎖等,0,2024-01-22,2024-01-09,日新産業株式会社,,株式会社,岩手県,盛岡市,中野２丁目１５番１号,,03,201,0200816,,,2024-01-09,清算の結了等,,,2023-04-11,1,,,,,ニッシンサンギョウ,0
1283,4462501000536,登記記録の閉鎖等,0,2024-01-22,2024-01-19,別海タイヤサービス株式会社,,株式会社,北海道,野付郡別海町,別海１１８番地２７,,01,691,0860216,,,2024-01-19,清算の結了等,,,2015-10-05,1,,,,,ベツカイタイヤサービス,0
1287,4470002003784,登記記録の閉鎖等,0,2024-01-22,2024-01-10,有限会社末広鉄工業,,有限会社,香川県,高松市,春日町６９９番地１,,37,201,7610101,,,2024-01-10,登記官による閉鎖,,,2015-10-05,1,,,,,,0
1288,4470002005426,登記記録の閉鎖等,0,2024-01-22,2024-01-10,有限会社橋本一級建築士事務所,,有限会社,香川県,高松市,松島町３丁目２４番５号,,37,201,7600068,,,2024-01-10,登記官による閉鎖,,,2015-10-05,1,,,,,,0
1289,4470002009435,登記記録の閉鎖等,0,2024-01-22,2024-01-10,有限会社斉藤牧場,,有限会社,香川県,高松市,香川町川東上７３０番地,,37,201,7611706,,,2024-01-10,登記官による閉鎖,,,2015-10-05,1,,,,,,0
1290,4470002009856,登記記録の閉鎖等,0,2024-01-22,2024-01-10,東和商事有限会社,,有限会社,香川県,高松市,池田町１５８４番地１,,37,201,7610444,,,2024-01-10,登記官による閉鎖,,,2015-10-05,1,,,,,,0
1291,4470002011507,登記記録の閉鎖等,0,2024-01-22,2024-01-10,有限会社香川メディカルサービス,,有限会社,香川県,丸亀市,西平山町１６番地,,37,202,7630041,,,2024-01-10,登記官による閉鎖,,,2015-10-05,1,,,,,カガワメディカルサービス,0
1295,4500005002219,登記記録の閉鎖等,0,2024-01-22,2024-01-19,農事組合法人中川原,,その他の設立登記法人,愛媛県,伊予郡松前町,大字中川原１１０４番地６,,38,401,7913164,,,2024-01-19,清算の結了等,,,2015-10-05,1,,,,,ナカガワラ,0
1302,5010001203876,登記記録の閉鎖等,0,2024-01-22,2024-01-16,株式会社日本ファーストメタルホールディングス,,株式会社,東京都,千代田区,丸の内１丁目８番２号,,13,101,1000005,,,2024-01-16,合併による解散等,7130001074486,令和６年１月１日京都市伏見区深草向川原町５９番地株式会社サンキープ（7130001074486）に合併し解散,2019-09-11,1,,,,,ニホンファーストメタルホールディングス,0
1313,5010701017122,登記記録の閉鎖等,0,2024-01-22,2024-01-22,株式会社エヴォルーション,,株式会社,東京都,品川区,大井４丁目２５番１０号,,13,109,1400014,,,2024-01-22,登記官による閉鎖,,,2015-10-05,1,,,,,,0
1314,5010702000440,登記記録の閉鎖等,0,2024-01-22,2024-01-22,有限会社アトラス装建,,有限会社,東京都,品川区,上大崎２丁目８番１５号,,13,109,1410021,,,2024-01-22,登記官による閉鎖,,,2015-10-05,1,,,,,,0
1315,5010705001196,登記記録の閉鎖等,0,2024-01-22,2024-01-22,特定非営利活動法人Ｎａｔｕｒａｌ　Ｅｎｅｒｇｙ　Ｄｅｓｉｇｎ,,その他の設立登記法人,東京都,品川区,西五反田３丁目１４番７号,,13,109,1410031,,,2024-01-22,登記官による閉鎖,,,2015-10-05,1,,,,,,0
1316,5010705001254,登記記録の閉鎖等,0,2024-01-22,2024-01-22,特定非営利活動法人日本健康づくり支援協会,,その他の設立登記法人,東京都,品川区,大井１丁目２４番５号,,13,109,1400014,,,2024-01-22,登記官による閉鎖,,,2015-10-05,1,,,,,,0
1317,5010705001436,登記記録の閉鎖等,0,2024-01-22,2024-01-22,社団法人耕心学堂,,その他の設立登記法人,東京都,品川区,上大崎２丁目１５番１９号,,13,109,1410021,,,2024-01-22,登記官による閉鎖,,,2015-10-05,1,,,,,,0
1325,5011001048832,登記記録の閉鎖等,0,2024-01-22,2024-01-16,ＩＶＯＲＹ株式会社,,株式会社,東京都,府中市,本宿町４丁目３番地の３４,,13,206,1830032,,,2024-01-16,清算の結了等,,,2015-10-05,1,,,,,アイボリー,0
1349,5011601015950,登記記録の閉鎖等,0,2024-01-22,2024-01-16,株式会社ハローライフ,,株式会社,東京都,練馬区,旭町３丁目３２番１９号,,13,120,1790071,,,2024-01-16,清算の結了等,,,2015-10-05,1,,,,,ハローライフ,0
1355,5011802001428,登記記録の閉鎖等,0,2024-01-22,2024-01-22,有限会社大谷,,有限会社,東京都,葛飾区,高砂２丁目４０番７号,,13,122,1250054,,,2024-01-22,登記官による閉鎖,,,2015-10-05,1,,,,,,0
1356,5011802001592,登記記録の閉鎖等,0,2024-01-22,2024-01-22,有限会社小川企画,,有限会社,東京都,葛飾区,東立石３丁目２３番６号,,13,122,1240013,,,2024-01-22,登記官による閉鎖,,,2015-10-05,1,,,,,,0
1357,5011802001997,登記記録の閉鎖等,0,2024-01-22,2024-01-22,有限会社亀有煎餅,00057192,有限会社,東京都,葛飾区,亀有３丁目３０番１５号,,13,122,1250061,,,2024-01-22,登記官による閉鎖,,,2015-10-05,1,,,,,,0
1358,5011802005214,登記記録の閉鎖等,0,2024-01-22,2024-01-22,有限会社ティアイテレコム通信,,有限会社,東京都,葛飾区,東堀切１丁目１９番６号,,13,122,1240004,,,2024-01-22,登記官による閉鎖,,,2015-10-05,1,,,,,,0
1359,5011802010767,登記記録の閉鎖等,0,2024-01-22,2024-01-22,有限会社大塚製作所,,有限会社,東京都,足立区,西新井４丁目２７番１７号,,13,121,1230841,,,2024-01-22,登記官による閉鎖,,,2015-10-05,1,,,,,,0
1360,5011802014909,登記記録の閉鎖等,0,2024-01-22,2024-01-22,有限会社大和,,有限会社,東京都,足立区,梅島１丁目１２番６号,,13,121,1210816,,,2024-01-22,登記官による閉鎖,,,2015-10-05,1,,,,,,0
1361,5011805001788,登記記録の閉鎖等,0,2024-01-22,2024-01-22,特定非営利活動法人アクション,,その他の設立登記法人,東京都,葛飾区,立石１丁目２０番７号,,13,122,1240012,,,2024-01-22,登記官による閉鎖,,,2015-10-05,1,,,,,,0
1380,5021002052989,登記記録の閉鎖等,0,2024-01-22,2024-01-17,有限会社フタバ,,有限会社,神奈川県,小田原市,本町４丁目５番４５号,,14,206,2500012,,,2024-01-17,清算の結了等,,,2015-10-05,1,,,,,フタバ,0
1383,5021002068614,登記記録の閉鎖等,0,2024-01-22,2024-01-16,有限会社やよい,,有限会社,神奈川県,逗子市,逗子１丁目６番２号,,14,208,2490006,,,2024-01-16,清算の結了等,,,2015-10-05,1,,,,,ヤヨイ,0
1410,5040001073953,登記記録の閉鎖等,0,2024-01-22,2024-01-09,株式会社吉田屋,,株式会社,千葉県,館山市,館山９９９番地,,12,205,2940036,,,2024-01-09,清算の結了等,,,2015-10-05,1,,,,,ヨシダヤ,0
1418,5070001001564,登記記録の閉鎖等,0,2024-01-22,2024-01-16,株式会社ジャパンプラザ,,株式会社,群馬県,高崎市,和田多中町２４９番地,,10,202,3700844,,,2024-01-16,清算の結了等,,,2015-10-05,1,,,,,ジャパンプラザ,0
1421,5070002031354,登記記録の閉鎖等,0,2024-01-22,2024-01-17,山口倉庫有限会社,,有限会社,群馬県,邑楽郡大泉町,大字吉田３１５３番地,,10,524,3700523,,,2024-01-17,清算の結了等,,,2015-10-05,1,,,,,ヤマグチソウコ,0
1427,5080401016269,登記記録の閉鎖等,0,2024-01-22,2024-01-18,株式会社東脇商店,,株式会社,静岡県,磐田市,福田２６７３番地,,22,211,4371203,,,2024-01-18,清算の結了等,,,2023-09-11,1,,,,,トウワキショウテン,0
1455,5120002001590,登記記録の閉鎖等,0,2024-01-22,2024-01-12,有限会社読ながしま,,有限会社,大阪府,交野市,郡津３丁目７５番１３号,,27,230,5760053,,,2024-01-12,清算の結了等,,,2015-10-05,1,,,,,ヨミナガシマ,0
1489,5150001001358,登記記録の閉鎖等,0,2024-01-22,2024-01-19,株式会社大和測器,,株式会社,奈良県,奈良市,西大寺北町３丁目５番１５号,,29,201,6310817,,,2024-01-19,登記官による閉鎖,,,2015-10-05,1,,,,,,0
1490,5150001010202,登記記録の閉鎖等,0,2024-01-22,2024-01-19,ホープテクノ株式会社,,株式会社,奈良県,桜井市,大字粟殿４６１－５,,29,206,6330062,,,2024-01-19,登記官による閉鎖,,,2015-10-05,1,,,,,,0
1491,5150001011357,登記記録の閉鎖等,0,2024-01-22,2024-01-19,株式会社ヤマト屋,,株式会社,奈良県,奈良市,左京１丁目９番地の１,,29,201,6310801,,,2024-01-19,登記官による閉鎖,,,2015-10-05,1,,,,,,0
1492,5150001013956,登記記録の閉鎖等,0,2024-01-22,2024-01-19,株式会社服部,,株式会社,奈良県,北葛城郡上牧町,大字上牧３４３９番地の１８,,29,424,6390214,,,2024-01-19,登記官による閉鎖,,,2015-10-05,1,,,,,,0
1493,5150001014962,登記記録の閉鎖等,0,2024-01-22,2024-01-19,株式会社リムズ,,株式会社,奈良県,香芝市,鎌田４５８番地の１０,,29,210,6390227,,,2024-01-19,登記官による閉鎖,,,2015-10-05,1,,,,,,0
1494,5150002000508,登記記録の閉鎖等,0,2024-01-22,2024-01-19,有限会社ギャラリー藍,,有限会社,奈良県,生駒市,真弓４丁目１２番２５号,,29,209,6300122,,,2024-01-19,登記官による閉鎖,,,2015-10-05,1,,,,,,0
1495,5150002007569,登記記録の閉鎖等,0,2024-01-22,2024-01-19,有限会社アズテック,,有限会社,奈良県,橿原市,八木町２丁目５番２１号,,29,205,6340078,,,2024-01-19,登記官による閉鎖,,,2015-10-05,1,,,,,,0
1496,5150005007293,登記記録の閉鎖等,0,2024-01-22,2024-01-19,財団法人大滝修身会,,その他の設立登記法人,奈良県,吉野郡川上村,大字大滝１５７番地,,29,452,6393543,,,2024-01-19,登記官による閉鎖,,,2015-10-05,1,,,,,,0
1497,5150005007343,登記記録の閉鎖等,0,2024-01-22,2024-01-19,財団法人天河文化財団,,その他の設立登記法人,奈良県,吉野郡天川村,大字坪内１３番地,,29,446,6380321,,,2024-01-19,登記官による閉鎖,,,2015-10-05,1,,,,,,0
1519,5200001002714,登記記録の閉鎖等,0,2024-01-22,2024-01-19,株式会社スギヤマ,,株式会社,岐阜県,岐阜市,福富天神前５３番地,,21,201,5012566,,,2024-01-19,清算の結了等,,,2015-10-05,1,,,,,スギヤマ,0
1524,5220002003263,登記記録の閉鎖等,0,2024-01-22,2024-01-17,有限会社スエナガ,,有限会社,石川県,金沢市,上荒屋４丁目１４９番地３,,17,201,9218065,,,2024-01-17,清算の結了等,,,2015-10-05,1,,,,,スエナガ,0
1534,5240002027921,登記記録の閉鎖等,0,2024-01-22,2024-01-15,竹仁運送有限会社,,有限会社,広島県,東広島市,福富町上竹仁１１９番地の１,,34,212,7392301,,,2024-01-15,清算の結了等,,,2015-10-05,1,,,,,タケニウンソウ,0
1536,5270001004373,登記記録の閉鎖等,0,2024-01-22,2024-01-22,沖美観光株式会社,,株式会社,鳥取県,米子市,新開３丁目１番２１－１０６号,,31,202,6830801,,,2024-01-22,登記官による閉鎖,,,2015-10-05,1,,,,,,0
1537,5270002000421,登記記録の閉鎖等,0,2024-01-22,2024-01-22,奥田重機工業有限会社,,有限会社,鳥取県,鳥取市,下味野９７番地,,31,201,6801165,,,2024-01-22,登記官による閉鎖,,,2015-10-05,1,,,,,,0
1538,5270002005370,登記記録の閉鎖等,0,2024-01-22,2024-01-22,有限会社石田屋呉服店,,有限会社,鳥取県,米子市,紺屋町２４番地,,31,202,6830062,,,2024-01-22,登記官による閉鎖,,,2015-10-05,1,,,,,,0
1539,5270002006113,登記記録の閉鎖等,0,2024-01-22,2024-01-22,有限会社ジャパン総合観光,,有限会社,鳥取県,米子市,東福原１丁目１番６号,,31,202,6830802,,,2024-01-22,登記官による閉鎖,,,2015-10-05,1,,,,,,0
1544,5290001029121,登記記録の閉鎖等,0,2024-01-22,2024-01-16,日本インベストメントコンサルタント株式会社,,株式会社,福岡県,福岡市西区,姪浜駅南４丁目１２番１２号,,40,135,8190006,,,2024-01-16,合併による解散等,3290001010982,令和６年１月１６日福岡市西区姪浜駅南四丁目１２番１２号株式会社ワコー（3290001010982）に合併し解散,2015-10-05,1,,,,,ニホンインベストメントコンサルタント,0
1545,5290001031696,登記記録の閉鎖等,0,2024-01-22,2024-01-18,株式会社昭和ジオテック,,株式会社,福岡県,糟屋郡宇美町,ひばりが丘１丁目７番１５号,,40,341,8112106,,,2024-01-18,清算の結了等,,,2015-10-05,1,,,,,ショウワジオテック,0
1551,5290002012002,登記記録の閉鎖等,0,2024-01-22,2024-01-17,有限会社トキエダ,,有限会社,福岡県,福岡市中央区,平尾３丁目１４番１０号,,40,133,8100014,,,2024-01-17,清算の結了等,,,2015-10-05,1,,,,,トキエダ,0
1552,5290002022570,登記記録の閉鎖等,0,2024-01-22,2024-01-18,有限会社ホワイトベース,,有限会社,福岡県,福岡市東区,二又瀬新町９番１８号,,40,131,8120065,,,2024-01-18,清算の結了等,,,2015-10-05,1,,,,,ホワイトベース,0
1554,5290002030202,登記記録の閉鎖等,0,2024-01-22,2024-01-18,ピー・エム・ラインビル有限会社,,有限会社,福岡県,福岡市博多区,中洲２丁目２番８号,,40,132,8100801,,,2024-01-18,清算の結了等,,,2015-10-05,1,,,,,ピーエムラインビル,0
1561,5310005008580,登記記録の閉鎖等,0,2024-01-22,2024-01-18,一般社団法人ソトメヤ,,その他の設立登記法人,長崎県,長崎市,神浦上大中尾町１１２９番地,,42,201,8512422,,,2024-01-18,清算の結了等,,,2022-01-26,1,,,,,ソトメヤ,0
1562,5320001014763,登記記録の閉鎖等,0,2024-01-22,2024-01-16,株式会社ブルーシー,,株式会社,大分県,大分市,坂ノ市中央５丁目１３番２７号,,44,201,8700307,,,2024-01-16,清算の結了等,,,2016-03-02,1,,,,,ブルーシー,0
1571,5340001005513,登記記録の閉鎖等,0,2024-01-22,2024-01-15,株式会社ブロスト鹿児島,,株式会社,鹿児島県,日置市,東市来町養母炭床３３４０番の１,,46,216,8992311,,,2024-01-15,登記官による閉鎖,,,2015-10-05,1,,,,,,0
1572,5340001023060,登記記録の閉鎖等,0,2024-01-22,2024-01-11,株式会社エルファーム,,株式会社,鹿児島県,奄美市,名瀬仲勝３１３番地７,,46,222,8940000,,,2024-01-11,清算の結了等,,,2020-08-13,1,,,,,エルファーム,0
1573,5340002007582,登記記録の閉鎖等,0,2024-01-22,2024-01-15,有限会社ハウザップ,,有限会社,鹿児島県,鹿児島市,谷山港１丁目３番地３６,,46,201,8910131,,,2024-01-15,登記官による閉鎖,,,2015-10-05,1,,,,,,0
1574,5340002013639,登記記録の閉鎖等,0,2024-01-22,2024-01-15,有限会社光明不動産,,有限会社,鹿児島県,霧島市,霧島田口２２８６番地の７,,46,218,8994201,,,2024-01-15,登記官による閉鎖,,,2015-10-05,1,,,,,,0
1575,5340002017747,登記記録の閉鎖等,0,2024-01-22,2024-01-15,有限会社榎元建設,,有限会社,鹿児島県,いちき串木野市,照島５９２０番地,,46,219,8960055,,,2024-01-15,登記官による閉鎖,,,2015-10-05,1,,,,,,0
1576,5340002024652,登記記録の閉鎖等,0,2024-01-22,2024-01-15,有限会社田原製茶,,有限会社,鹿児島県,南九州市,頴娃町牧之内１１９０８番地,,46,223,8910702,,,2024-01-15,登記官による閉鎖,,,2015-10-05,1,,,,,,0
1577,5360001001659,登記記録の閉鎖等,0,2024-01-22,2024-01-12,株式会社なんよう,,株式会社,沖縄県,那覇市,与儀１丁目５番２号,,47,201,9020076,,,2024-01-12,登記官による閉鎖,,,2015-10-05,1,,,,,ナンヨウ,0
1578,5360001008497,登記記録の閉鎖等,0,2024-01-22,2024-01-12,オキシン環境開発株式会社,,株式会社,沖縄県,浦添市,内間５丁目４番７号,,47,208,9012121,,,2024-01-12,登記官による閉鎖,,,2015-10-05,1,,,,,,0
1581,5360002005873,登記記録の閉鎖等,0,2024-01-22,2024-01-15,有限会社イースペース,,有限会社,沖縄県,宜野湾市,大謝名１丁目４番１号,,47,205,9012225,,,2024-01-15,合併による解散等,2030001120338,令和６年１月１日埼玉県鴻巣市栄町２番１２号株式会社ＥＳホールディングス（2030001120338）に合併し解散,2015-10-05,1,,,,,イースペース,0
1582,5360002016796,登記記録の閉鎖等,0,2024-01-22,2024-01-12,有限会社ヒサヨシ建装,,有限会社,沖縄県,宜野湾市,新城１丁目２８番１０号,,47,205,9012201,,,2024-01-12,登記官による閉鎖,,,2015-10-05,1,,,,,,0
1583,5360002018181,登記記録の閉鎖等,0,2024-01-22,2024-01-12,有限会社エヌ・エスプラン,,有限会社,沖縄県,浦添市,伊祖３丁目４２番８号丸豊マンション城３０１号室,,47,208,9012132,,,2024-01-12,登記官による閉鎖,,,2015-10-05,1,,,,,,0
1584,5360002020419,登記記録の閉鎖等,0,2024-01-22,2024-01-12,有限会社仲田建設,,有限会社,沖縄県,島尻郡伊是名村,字仲田２０番地,,47,360,9050603,,,2024-01-12,登記官による閉鎖,,,2015-10-05,1,,,,,,0
1585,5360003004759,登記記録の閉鎖等,0,2024-01-22,2024-01-12,福地運送合資会社,,合資会社,沖縄県,国頭郡伊江村,字川平４２５番地,,47,315,9050503,,,2024-01-12,登記官による閉鎖,,,2015-10-05,1,,,,,,0
1586,5360003005765,登記記録の閉鎖等,0,2024-01-22,2024-01-12,合同会社バイロン,,合同会社,沖縄県,宜野湾市,字喜友名１０３９番地Ｇタウンビル１－Ｄ,,47,205,9012222,,,2024-01-12,登記官による閉鎖,,,2015-10-05,1,,,,,,0
1588,5360005001754,登記記録の閉鎖等,0,2024-01-22,2024-01-12,沖縄音楽デジタル販売協同組合,,その他の設立登記法人,沖縄県,那覇市,寄宮１丁目１０番１５号２階,,47,201,9020064,,,2024-01-12,登記官による閉鎖,,,2015-10-05,1,,,,,,0
1589,5360005003461,登記記録の閉鎖等,0,2024-01-22,2024-01-12,農事組合法人辺野喜中晩柑橘生産組合,,その他の設立登記法人,沖縄県,国頭郡国頭村,字辺野喜１０６番地,,47,301,9051424,,,2024-01-12,登記官による閉鎖,,,2015-10-05,1,,,,,,0
1594,5380002028286,登記記録の閉鎖等,0,2024-01-22,2024-01-16,有限会社協愛技建,,有限会社,福島県,相馬市,新沼字観音前１３８番地の１,,07,209,9760011,,,2024-01-16,清算の結了等,,,2015-10-05,1,,,,,キョウアイギケン,0
1600,5410001000399,登記記録の閉鎖等,0,2024-01-22,2024-01-15,秋田逓送株式会社,,株式会社,秋田県,秋田市,茨島４丁目３番３号,00086182,05,201,0100065,,,2024-01-15,清算の結了等,,,2015-10-05,1,,,,,アキタテイソウ,0
1606,5430001073963,登記記録の閉鎖等,0,2024-01-22,2024-01-12,株式会社ひつじや,,株式会社,北海道,室蘭市,中島町１丁目１５－１５,,01,205,0500074,,,2024-01-12,清算の結了等,,,2017-05-11,1,,,,,ヒツジヤ,0
1611,5470001000971,登記記録の閉鎖等,0,2024-01-22,2024-01-19,株式会社香川テクノ,,株式会社,香川県,高松市,上林町７１６番地１,,37,201,7610302,,,2024-01-19,清算の結了等,,,2015-10-05,1,,,,,カガワテクノ,0
1612,5470001013494,登記記録の閉鎖等,0,2024-01-22,2024-01-10,株式会社サニーアークス,,株式会社,香川県,高松市,屋島西町２４８４番地１１,,37,201,7610113,,,2024-01-10,登記官による閉鎖,,,2015-10-05,1,,,,,,0
1613,5470001013560,登記記録の閉鎖等,0,2024-01-22,2024-01-10,株式会社小豆島オリーブ工房,,株式会社,香川県,小豆郡小豆島町,草壁本町６０６番地２,,37,324,7614432,,,2024-01-10,登記官による閉鎖,,,2015-10-05,1,,,,,,0
1614,5470001016720,登記記録の閉鎖等,0,2024-01-22,2024-01-10,ミリオン商事株式会社,,株式会社,香川県,高松市,牟礼町牟礼２１番地の１,,37,201,7610121,,,2024-01-10,登記官による閉鎖,,,2018-02-02,1,,,,,,0
1615,5470002004055,登記記録の閉鎖等,0,2024-01-22,2024-01-10,有限会社総務部,,有限会社,香川県,高松市,木太町３３２７番地６,,37,201,7600080,,,2024-01-10,登記官による閉鎖,,,2015-10-05,1,,,,,,0
1617,5470002017569,登記記録の閉鎖等,0,2024-01-22,2024-01-10,有限会社森美園,,有限会社,香川県,観音寺市,八幡町１丁目１０番２８号,,37,205,7680061,,,2024-01-10,登記官による閉鎖,,,2015-10-05,1,,,,,,0
1618,5470005003863,登記記録の閉鎖等,0,2024-01-22,2024-01-10,社団法人観音寺市観光協会,,その他の設立登記法人,香川県,観音寺市,坂本町１丁目１番１号,,37,205,7680067,,,2024-01-10,登記官による閉鎖,,,2015-10-05,1,,,,,,0
1621,5500001012311,登記記録の閉鎖等,0,2024-01-22,2024-01-19,松岡タオル株式会社,,株式会社,愛媛県,今治市,松木３６３番地,,38,202,7991513,,,2024-01-19,清算の結了等,,,2015-10-05,1,,,,,マツオカタオル,0
1624,6010001002575,登記記録の閉鎖等,0,2024-01-22,2024-01-15,株式会社唐源,,株式会社,埼玉県,八潮市,大字大曽根１２５５番地３,,11,234,3400834,,,2024-01-15,清算の結了等,,,2015-10-05,1,,,,,カラゲン,0
1627,6010001103464,登記記録の閉鎖等,0,2024-01-22,2024-01-09,株式会社ＥＳ,,株式会社,東京都,中央区,日本橋浜町３丁目３番１号トルナーレ日本橋浜町２１４,,13,102,1030007,,,2024-01-09,清算の結了等,,,2015-10-05,1,,,,,イーエス,0
1632,6010001169745,登記記録の閉鎖等,0,2024-01-22,2024-01-16,日立ＨＶＤＣテクノロジーズ株式会社,,株式会社,東京都,千代田区,外神田１丁目１８番１３号,,13,101,1010021,,,2024-01-16,合併による解散等,8010701037860,令和５年１２月３１日東京都品川区大崎二丁目１番１号日立エナジージャパン株式会社（8010701037860）に合併し解散,2015-10-05,1,,,,,ヒタチエイチブイディーシーテクノロジーズ,0
1637,6010102003951,登記記録の閉鎖等,0,2024-01-22,2024-01-16,有限会社多摩設備,,有限会社,東京都,八王子市,左入町９３６番地の６,,13,201,1920012,,,2024-01-16,清算の結了等,,,2015-10-05,1,,,,,タマセツビ,0
1650,6010601009053,登記記録の閉鎖等,0,2024-01-22,2024-01-17,トーコン株式会社,,株式会社,東京都,江東区,毛利１丁目２１番７号,,13,108,1350001,,,2024-01-17,清算の結了等,,,2015-10-05,1,,,,,トーコン,0
1652,6010602031733,登記記録の閉鎖等,0,2024-01-22,2024-01-22,有限会社カズサヤ,,有限会社,東京都,葛飾区,鎌倉４丁目２９番１５号,,13,122,1250053,,,2024-01-22,登記官による閉鎖,,,2015-10-05,1,,,,,,0
1653,6010701002783,登記記録の閉鎖等,0,2024-01-22,2024-01-22,株式会社グレイスマナー,,株式会社,東京都,品川区,西五反田２丁目２４番７号,,13,109,1410031,,,2024-01-22,登記官による閉鎖,,,2015-10-05,1,,,,,,0
1654,6010701008608,登記記録の閉鎖等,0,2024-01-22,2024-01-22,福田建窓株式会社,,株式会社,東京都,品川区,東大井１丁目３番２３号,,13,109,1400011,,,2024-01-22,登記官による閉鎖,,,2015-10-05,1,,,,,,0
1655,6010701019621,登記記録の閉鎖等,0,2024-01-22,2024-01-22,株式会社アライドホリ・ジャパン,,株式会社,東京都,品川区,平塚２丁目５番８号,,13,109,1420051,,,2024-01-22,登記官による閉鎖,,,2015-10-05,1,,,,,,0
1656,6010701020546,登記記録の閉鎖等,0,2024-01-22,2024-01-22,株式会社テラカロン,,株式会社,東京都,品川区,東品川３丁目１１番１７号,,13,109,1400002,,,2024-01-22,登記官による閉鎖,,,2015-10-05,1,,,,,,0
1657,6010701024919,登記記録の閉鎖等,0,2024-01-22,2024-01-22,株式会社ユーハウス,,株式会社,東京都,品川区,北品川２丁目４番２１号尾張屋ビル２階,,13,109,1400001,,,2024-01-22,登記官による閉鎖,,,2015-10-05,1,,,,,,0
1659,6010702003392,登記記録の閉鎖等,0,2024-01-22,2024-01-22,有限会社サクラ薬局,,有限会社,東京都,品川区,南大井４丁目９番２２号,,13,109,1400013,,,2024-01-22,登記官による閉鎖,,,2015-10-05,1,,,,,,0
1660,6010703001825,登記記録の閉鎖等,0,2024-01-22,2024-01-22,合同会社ＥＳＣＲＩＭＥ,,合同会社,東京都,品川区,八潮５丁目３番８－６０９号,,13,109,1400003,,,2024-01-22,登記官による閉鎖,,,2015-10-05,1,,,,,,0
1679,6011101102397,登記記録の閉鎖等,0,2024-01-22,2024-01-18,株式会社ＡＴＬＡＳ,,株式会社,東京都,新宿区,新宿５丁目１１番１３号富士新宿ビル４階,,13,104,1600022,,,2024-01-18,清算の結了等,,,2023-04-05,1,,,,,アトラス,0
1683,6011103012859,登記記録の閉鎖等,0,2024-01-22,2024-01-17,合同会社Ｈａｐｐｙ　Ｑｕｅｓｔ,,合同会社,東京都,新宿区,新宿４丁目３番１５号レイフラット新宿Ｂ棟,,13,104,1600022,,,2024-01-17,清算の結了等,,,2023-03-30,1,,,,,ハッピークエスト,0
1690,6011801027456,登記記録の閉鎖等,0,2024-01-22,2024-01-22,株式会社小川商会,,株式会社,東京都,足立区,鹿浜４丁目１３番３号,,13,121,1230864,,,2024-01-22,登記官による閉鎖,,,2015-10-05,1,,,,,,0
1694,6011802001666,登記記録の閉鎖等,0,2024-01-22,2024-01-22,有限会社オフィスイマイ,,有限会社,東京都,葛飾区,奥戸１丁目２８番７号,,13,122,1240022,,,2024-01-22,登記官による閉鎖,,,2015-10-05,1,,,,,,0
1695,6011802001947,登記記録の閉鎖等,0,2024-01-22,2024-01-22,有限会社金沢塗装工業所,,有限会社,東京都,葛飾区,西新小岩４丁目１３番６号,,13,122,1240025,,,2024-01-22,登記官による閉鎖,,,2015-10-05,1,,,,,,0
1696,6011802002276,登記記録の閉鎖等,0,2024-01-22,2024-01-22,協栄産業有限会社,,有限会社,東京都,葛飾区,高砂５丁目３２番１号,,13,122,1250054,,,2024-01-22,登記官による閉鎖,,,2015-10-05,1,,,,,,0
1699,6011805000640,登記記録の閉鎖等,0,2024-01-22,2024-01-22,医療法人社団歯研会,,その他の設立登記法人,東京都,足立区,千住１丁目３３番１１号巴ビル２階,,13,121,1200034,,,2024-01-22,登記官による閉鎖,,,2015-10-05,1,,,,,,0
1700,6011805001795,登記記録の閉鎖等,0,2024-01-22,2024-01-22,特定非営利活動法人エーウィング,,その他の設立登記法人,東京都,足立区,皿沼２丁目１番１９号小林ビル３階,,13,121,1230862,,,2024-01-22,登記官による閉鎖,,,2015-10-05,1,,,,,,0
1709,6013301035154,登記記録の閉鎖等,0,2024-01-22,2024-01-10,株式会社キャリアプランニング,,株式会社,東京都,豊島区,池袋１丁目６番１号,,13,116,1700014,,,2024-01-10,合併による解散等,8013301049615,令和６年１月１日東京都豊島区池袋一丁目６番１号株式会社栄成ホールディングス（8013301049615）に合併し解散,2015-10-05,1,,,,,キャリアプランニング,0
1715,6020001072048,登記記録の閉鎖等,0,2024-01-22,2024-01-16,池上薬局株式会社,,株式会社,神奈川県,川崎市川崎区,池上新町２丁目２１番３号,,14,131,2100832,,,2024-01-16,清算の結了等,,,2015-10-05,1,,,,,イケガミヤッキョク,0
1726,6021001014956,登記記録の閉鎖等,0,2024-01-22,2024-01-15,アムコ・テクノロジー株式会社,,株式会社,神奈川県,相模原市緑区,西橋本５丁目４番３０号さがみはら産業創造センター,,14,151,2520131,,,2024-01-15,清算の結了等,,,2015-10-05,1,,,,,アムコテクノロジー,0
1735,6030002116224,登記記録の閉鎖等,0,2024-01-22,2024-01-12,有限会社クリーン・トップ花園,,有限会社,埼玉県,深谷市,小前田１２２７番地３,,11,218,3691246,,,2024-01-12,合併による解散等,3030001002337,令和６年１月２日さいたま市大宮区大門町二丁目１８番地株式会社クリーントップ（3030001002337）に合併し解散,2015-10-05,1,,,,,クリーントップナハゾノ,0
1760,6080102000711,登記記録の閉鎖等,0,2024-01-22,2024-01-18,有限会社大嶽陶器,00067877,有限会社,静岡県,沼津市,上土町６２番地,,22,203,4100802,,,2024-01-18,清算の結了等,,,2015-10-05,1,,,,,,0
1793,6100002015237,登記記録の閉鎖等,0,2024-01-22,2024-01-16,有限会社ケーアール工業,,有限会社,長野県,上田市,十人３９番地１,,20,203,3861435,,,2024-01-16,清算の結了等,,,2015-10-05,1,,,,,ケーアールコウギョウ,0
1796,6100005004889,登記記録の閉鎖等,0,2024-01-22,2024-01-16,特定非営利活動法人ピュア,,その他の設立登記法人,長野県,上田市,大屋１７０番地５,,20,203,3860152,,,2024-01-16,清算の結了等,,,2015-10-05,1,,,,,ピュア,0
1820,6122002015322,登記記録の閉鎖等,0,2024-01-22,2024-01-18,有限会社金原,,有限会社,大阪府,柏原市,円明町６番２０号,,27,221,5820027,,,2024-01-18,清算の結了等,,,2015-10-05,1,,,,,カネハラ,0
1821,6122002017260,登記記録の閉鎖等,0,2024-01-22,2024-01-19,有限会社アイショップ横江,,有限会社,大阪府,東大阪市,神田町１番１３号瓢ビル,,27,227,5798058,,,2024-01-19,清算の結了等,,,2015-10-05,1,,,,,アイショップヨコエ,0
1822,6130001045851,登記記録の閉鎖等,0,2024-01-22,2024-01-04,スワロー株式会社,,株式会社,京都府,京都市伏見区,深草西浦町４丁目５１番地１メゾン・ヴィーナス２階,,26,109,6120029,,,2024-01-04,合併による解散等,4130001065439,令和６年１月１日京都市伏見区深草西浦町四丁目５１番地１メゾン・ヴィーナス２階株式会社タイコーストック（4130001065439）に合併し解散,2015-10-05,1,,,,,スワロー,0
1838,6150002000325,登記記録の閉鎖等,0,2024-01-22,2024-01-19,有限会社エムクリエイティブ,,有限会社,奈良県,奈良市,橋本町３６番地,,29,201,6308217,,,2024-01-19,登記官による閉鎖,,,2015-10-05,1,,,,,,0
1839,6150002000424,登記記録の閉鎖等,0,2024-01-22,2024-01-19,有限会社がんこ一徹長屋,,有限会社,奈良県,奈良市,西ノ京町２１５番地の１,,29,201,6308042,,,2024-01-19,登記官による閉鎖,,,2015-10-05,1,,,,,,0
1840,6150002009746,登記記録の閉鎖等,0,2024-01-22,2024-01-19,有限会社オアシス,,有限会社,奈良県,香芝市,鎌田６３８番地の２,,29,210,6390227,,,2024-01-19,登記官による閉鎖,,,2015-10-05,1,,,,,,0
1847,6180001059896,登記記録の閉鎖等,0,2024-01-22,2024-01-18,ＳＵＮレコード株式会社,,株式会社,愛知県,名古屋市守山区,守山２丁目８番１４号パレス守山４１３,,23,113,4630067,,,2024-01-18,清算の結了等,,,2015-10-05,1,,,,,サンレコード,0
1866,6270001003812,登記記録の閉鎖等,0,2024-01-22,2024-01-22,千鳥水産株式会社,,株式会社,鳥取県,境港市,入船町２番地６,,31,204,6840014,,,2024-01-22,登記官による閉鎖,,,2018-12-14,1,,,,,チドリスイサン,0
1867,6270002006921,登記記録の閉鎖等,0,2024-01-22,2024-01-22,有限会社不二繊商,,有限会社,鳥取県,米子市,永江７２番地,,31,202,6830014,,,2024-01-22,登記官による閉鎖,,,2015-10-05,1,,,,,,0
1868,6270002011335,登記記録の閉鎖等,0,2024-01-22,2024-01-22,有限会社永林建設,,有限会社,鳥取県,米子市,両三柳３６６番地,,31,202,6830853,,,2024-01-22,登記官による閉鎖,,,2018-02-02,1,,,,,,0
1869,6270005002190,登記記録の閉鎖等,0,2024-01-22,2024-01-22,財団法人思齊社,,その他の設立登記法人,鳥取県,八頭郡八頭町,才代４７番地,,31,329,6800531,,,2024-01-22,登記官による閉鎖,,,2015-10-05,1,,,,,,0
1877,6310001004987,登記記録の閉鎖等,0,2024-01-22,2024-01-12,株式会社セブンオクロック,,株式会社,長崎県,長崎市,樫山町１１２９番地,,42,201,8512202,,,2024-01-12,清算の結了等,,,2015-10-05,1,,,,,セブンオクロック,0
1884,6320001015364,登記記録の閉鎖等,0,2024-01-22,2024-01-16,株式会社三石,,株式会社,大分県,別府市,大字北石垣１１８７番地の４,,44,202,8740000,,,2024-01-16,清算の結了等,,,2016-12-26,1,,,,,サンセキ,0
1890,6340001009182,登記記録の閉鎖等,0,2024-01-22,2024-01-15,株式会社古川百貨店,,株式会社,鹿児島県,薩摩郡さつま町,宮之城屋地１５３６番地,,46,392,8951803,,,2024-01-15,登記官による閉鎖,,,2015-10-05,1,,,,,,0
1891,6340001010768,登記記録の閉鎖等,0,2024-01-22,2024-01-15,株式会社安松絹織物,,株式会社,鹿児島県,奄美市,名瀬柳町１１番５３号,,46,222,8940032,,,2024-01-15,登記官による閉鎖,,,2015-10-05,1,,,,,,0
1892,6340001010850,登記記録の閉鎖等,0,2024-01-22,2024-01-15,奄美ヘルシーネットワーク株式会社,,株式会社,鹿児島県,大島郡瀬戸内町,大字阿木名１４３８番地,,46,525,8941511,,,2024-01-15,登記官による閉鎖,,,2015-10-05,1,,,,,,0
1893,6340001011485,登記記録の閉鎖等,0,2024-01-22,2024-01-15,株式会社種子島ブランドショップ,,株式会社,鹿児島県,西之表市,西之表１３０６７番地１０９,,46,213,8913101,,,2024-01-15,登記官による閉鎖,,,2015-10-05,1,,,,,,0
1894,6340001013234,登記記録の閉鎖等,0,2024-01-22,2024-01-15,株式会社遊スタイル,,株式会社,鹿児島県,熊毛郡南種子町,中之上２８４７番地２,,46,502,8913701,,,2024-01-15,登記官による閉鎖,,,2015-10-05,1,,,,,,0
1895,6340002000999,登記記録の閉鎖等,0,2024-01-22,2024-01-15,有限会社アドバンシステム,,有限会社,鹿児島県,鹿児島市,小原町４１番２号,,46,201,8910111,,,2024-01-15,登記官による閉鎖,,,2015-10-05,1,,,,,,0
1896,6340002001758,登記記録の閉鎖等,0,2024-01-22,2024-01-15,有限会社エイト建販,,有限会社,鹿児島県,鹿児島市,吉野町５８８６番地１,,46,201,8920871,,,2024-01-15,登記官による閉鎖,,,2015-10-05,1,,,,,,0
1897,6340002005420,登記記録の閉鎖等,0,2024-01-22,2024-01-15,有限会社ゼノア化粧料,,有限会社,鹿児島県,鹿児島市,薬師１丁目１番２５号,,46,201,8900042,,,2024-01-15,登記官による閉鎖,,,2015-10-05,1,,,,,,0
1898,6340002006451,登記記録の閉鎖等,0,2024-01-22,2024-01-15,有限会社デジタル通信,,有限会社,鹿児島県,鹿児島市,星ヶ峯３丁目７番２０号,,46,201,8910102,,,2024-01-15,登記官による閉鎖,,,2015-10-05,1,,,,,,0
1899,6340002009124,登記記録の閉鎖等,0,2024-01-22,2024-01-15,有限会社丸野商店,,有限会社,鹿児島県,鹿児島市,伊敷台４丁目１７番１７号,,46,201,8900007,,,2024-01-15,登記官による閉鎖,,,2015-10-05,1,,,,,,0
1900,6340002009157,登記記録の閉鎖等,0,2024-01-22,2024-01-15,有限会社マルヒデ薬品,,有限会社,鹿児島県,鹿児島市,紫原５丁目２０番１８号,,46,201,8900082,,,2024-01-15,登記官による閉鎖,,,2015-10-05,1,,,,,,0
1901,6340002013407,登記記録の閉鎖等,0,2024-01-22,2024-01-15,有限会社石塚石油店,,有限会社,鹿児島県,霧島市,国分中央１丁目８番３１号,,46,218,8994332,,,2024-01-15,登記官による閉鎖,,,2015-10-05,1,,,,,,0
1902,6340002019164,登記記録の閉鎖等,0,2024-01-22,2024-01-15,有限会社スガ電気サービス,,有限会社,鹿児島県,指宿市,西方６４６７番地３,,46,210,8910311,,,2024-01-15,登記官による閉鎖,,,2015-10-05,1,,,,,,0
1903,6340002021260,登記記録の閉鎖等,0,2024-01-22,2024-01-15,有限会社福嶺建設,,有限会社,鹿児島県,奄美市,名瀬浜里町１４番地２－４０６,,46,222,8940044,,,2024-01-15,登記官による閉鎖,,,2015-10-05,1,,,,,,0
1904,6340002022548,登記記録の閉鎖等,0,2024-01-22,2024-01-15,有限会社田原造園緑地グループ,,有限会社,鹿児島県,出水市,大野原町１２５３番地,,46,208,8990216,,,2024-01-15,登記官による閉鎖,,,2015-10-05,1,,,,,,0
1907,6340002023620,登記記録の閉鎖等,0,2024-01-22,2024-01-15,有限会社肉の十文字屋,,有限会社,鹿児島県,南さつま市,加世田武田１８５０９番地,,46,220,8970002,,,2024-01-15,登記官による閉鎖,,,2015-10-05,1,,,,,,0
1908,6340002026004,登記記録の閉鎖等,0,2024-01-22,2024-01-15,有限会社鳥越水産,,有限会社,鹿児島県,肝属郡肝付町,新富２１７番地,,46,492,8931207,,,2024-01-15,登記官による閉鎖,,,2015-10-05,1,,,,,,0
1909,6340002026128,登記記録の閉鎖等,0,2024-01-22,2024-01-15,有限会社西田工務店,,有限会社,鹿児島県,鹿屋市,本町１０番１号,,46,203,8930002,,,2024-01-15,登記官による閉鎖,,,2015-10-05,1,,,,,,0
1911,6340005002217,登記記録の閉鎖等,0,2024-01-22,2024-01-15,特定非営利活動法人九州金銭教育普及協会,,その他の設立登記法人,鹿児島県,鹿児島市,真砂町３４番地１南光ビル２０２,,46,201,8900066,,,2024-01-15,登記官による閉鎖,,,2015-10-05,1,,,,,,0
1912,6340005005070,登記記録の閉鎖等,0,2024-01-22,2024-01-15,特定非営利活動法人右脳トレーニング協会,,その他の設立登記法人,鹿児島県,鹿児島市,東谷山２丁目３８番１０号,,46,201,8910113,,,2024-01-15,登記官による閉鎖,,,2015-10-05,1,,,,,,0
1913,6340005005582,登記記録の閉鎖等,0,2024-01-22,2024-01-15,徳之島農産物加工協同組合,,その他の設立登記法人,鹿児島県,大島郡徳之島町,母間３９３７番地,,46,530,8917426,,,2024-01-15,登記官による閉鎖,,,2015-10-05,1,,,,,,0
1914,6340005005938,登記記録の閉鎖等,0,2024-01-22,2024-01-15,特定非営利活動法人よかよか,,その他の設立登記法人,鹿児島県,南さつま市,加世田本町４３番６,,46,220,8970006,,,2024-01-15,登記官による閉鎖,,,2015-10-05,1,,,,,,0
1915,6360001010403,登記記録の閉鎖等,0,2024-01-22,2024-01-15,株式会社琉球海美,,株式会社,鹿児島県,鹿児島市,魚見町１４２番地４,,46,201,8910112,,,2024-01-15,登記官による閉鎖,,,2015-10-05,1,,,,,,0
1918,6360002005286,登記記録の閉鎖等,0,2024-01-22,2024-01-12,有限会社ゆがふカンパニー,,有限会社,沖縄県,那覇市,牧志１丁目４番５３－６０１号,,47,201,9000013,,,2024-01-12,登記官による閉鎖,,,2015-10-05,1,,,,,,0
1919,6360002008041,登記記録の閉鎖等,0,2024-01-22,2024-01-12,有限会社エス・クリエート,,有限会社,沖縄県,那覇市,港町４丁目３番地２７,,47,201,9000001,,,2024-01-12,登記官による閉鎖,,,2015-10-05,1,,,,,,0
1920,6360002010567,登記記録の閉鎖等,0,2024-01-22,2024-01-12,有限会社パーフエクト産業,,有限会社,沖縄県,島尻郡南風原町,字津嘉山１６６２番地１８,,47,350,9011117,,,2024-01-12,登記官による閉鎖,,,2015-10-05,1,,,,,,0
1922,6360003004493,登記記録の閉鎖等,0,2024-01-22,2024-01-12,朝日産業合資会社,,合資会社,沖縄県,名護市,字二見２４０番地,,47,209,9052269,,,2024-01-12,登記官による閉鎖,,,2015-10-05,1,,,,,,0
1923,6360005000490,登記記録の閉鎖等,0,2024-01-22,2024-01-12,農事組合法人在所農畜産組合,,その他の設立登記法人,沖縄県,島尻郡南大東村,字在所２７９番地,,47,357,9013805,,,2024-01-12,登記官による閉鎖,,,2015-10-05,1,,,,,,0
1924,6360005002297,登記記録の閉鎖等,0,2024-01-22,2024-01-12,沖縄ログハウス企業組合,,その他の設立登記法人,沖縄県,沖縄市,諸見里３丁目１番５号,,47,211,9040032,,,2024-01-12,登記官による閉鎖,,,2015-10-05,1,,,,,,0
1925,6360005003171,登記記録の閉鎖等,0,2024-01-22,2024-01-12,一般財団法人沖縄内科学学術研究振興会,,その他の設立登記法人,沖縄県,浦添市,字大平４５１番地リモトビル,,47,208,9012113,,,2024-01-12,登記官による閉鎖,,,2015-10-05,1,,,,,,0
1928,6370002009484,登記記録の閉鎖等,0,2024-01-22,2024-01-18,有限会社安部ボーリング,,有限会社,宮城県,仙台市青葉区,みやぎ台３丁目３１番１１号,,04,101,9893214,,,2024-01-18,清算の結了等,,,2015-10-05,1,,,,,アベボーリング,0
1929,6380001030564,登記記録の閉鎖等,0,2024-01-22,2024-01-18,株式会社師岡商事,,株式会社,福島県,いわき市,江名字荻ノ作１２９番地の１,,07,204,9700311,,,2024-01-18,清算の結了等,,,2019-12-26,1,,,,,モロオカショウジ,0
1932,6390003001736,登記記録の閉鎖等,0,2024-01-22,2024-01-18,合同会社ウサミ,,合同会社,山形県,南陽市,漆山１１６１番地の１０,,06,213,9920474,,,2024-01-18,清算の結了等,,,2020-07-22,1,,,,,ウサミ,0
1939,6470001003750,登記記録の閉鎖等,0,2024-01-22,2024-01-11,堀上商事株式会社,,株式会社,香川県,高松市,円座町５２０番地の１,,37,201,7618044,,,2024-01-11,清算の結了等,,,2015-10-05,1,,,,,ホリウエショウジ,0
1940,6470001011456,登記記録の閉鎖等,0,2024-01-22,2024-01-10,株式会社浜忠,,株式会社,香川県,東かがわ市,三本松１０５０番地,,37,207,7692601,,,2024-01-10,登記官による閉鎖,,,2015-10-05,1,,,,,,0
1941,6470001012173,登記記録の閉鎖等,0,2024-01-22,2024-01-10,砂子商事株式会社,,株式会社,香川県,小豆郡土庄町,大部甲１８２０番地の１,,37,322,7614145,,,2024-01-10,登記官による閉鎖,,,2015-10-05,1,,,,,,0
1942,6470001012801,登記記録の閉鎖等,0,2024-01-22,2024-01-10,株式会社ＫＳＣホールディングス,,株式会社,香川県,高松市,太田上町１３１番地７,,37,201,7618074,,,2024-01-10,登記官による閉鎖,,,2015-10-05,1,,,,,,0
1943,6470002000771,登記記録の閉鎖等,0,2024-01-22,2024-01-10,有限会社アビタシオン・エヌ・ワイ,,有限会社,香川県,高松市,城東町１丁目６番１号,,37,201,7600036,,,2024-01-10,登記官による閉鎖,,,2018-12-26,1,,,,,アビタシオンエヌワイ,0
1944,6470002002347,登記記録の閉鎖等,0,2024-01-22,2024-01-10,有限会社京阪屋楽器店,,有限会社,香川県,高松市,丸亀町１２番地の１,,37,201,7600029,,,2024-01-10,登記官による閉鎖,,,2015-10-05,1,,,,,,0
1945,6470002007172,登記記録の閉鎖等,0,2024-01-22,2024-01-10,大和塗装有限会社,,有限会社,香川県,高松市,上福岡町７０１番地１,,37,201,7600077,,,2024-01-10,登記官による閉鎖,,,2015-10-05,1,,,,,,0
1946,6470002009788,登記記録の閉鎖等,0,2024-01-22,2024-01-10,有限会社廣瀬クラフト,,有限会社,香川県,高松市,香川町川内原１６３０番地６,,37,201,7611704,,,2024-01-10,登記官による閉鎖,,,2015-10-05,1,,,,,,0
1947,6470002016413,登記記録の閉鎖等,0,2024-01-22,2024-01-10,有限会社安藤石油,,有限会社,香川県,三豊市,高瀬町下勝間１３８０番地の３,,37,208,7670011,,,2024-01-10,登記官による閉鎖,,,2015-10-05,1,,,,,,0
1948,6470002018285,登記記録の閉鎖等,0,2024-01-22,2024-01-10,有限会社イコマ,,有限会社,香川県,東かがわ市,西山５００番地１,,37,207,7692712,,,2024-01-10,登記官による閉鎖,,,2015-10-05,1,,,,,,0
1949,6470003000176,登記記録の閉鎖等,0,2024-01-22,2024-01-10,合資会社未病推進研究会,,合資会社,香川県,高松市,茜町９番２８号,,37,201,7600002,,,2024-01-10,登記官による閉鎖,,,2015-10-05,1,,,,,,0
1968,7010003026836,登記記録の閉鎖等,0,2024-01-22,2023-12-12,合同会社プロジェティスタ,,合同会社,東京都,文京区,目白台３丁目５号１７番コーポＫ２－１０２号室,,13,105,1120015,,,2023-12-12,清算の結了等,,,2018-01-24,1,,,,,プロジェティスタ,0
1974,7010401110695,登記記録の閉鎖等,0,2024-01-22,2024-01-18,カムソ・ジャパン株式会社,,株式会社,東京都,新宿区,西新宿３丁目７番１号新宿パークタワー１３階,,13,104,1600023,,,2024-01-18,合併による解散等,4010001081497,令和６年１月１日群馬県太田市植木野町８８０番地日本ミシュランタイヤ株式会社（4010001081497）に合併し解散,2015-10-05,1,,,,,カムソジャパン,0
1975,7010401140651,登記記録の閉鎖等,0,2024-01-22,2024-01-19,ＡＩロボットコミュニケーション株式会社,,株式会社,東京都,台東区,浅草橋４丁目２０番７号山畑ビル２Ｆ,,13,106,1110053,,,2024-01-19,清算の結了等,,,2018-09-06,1,,,,,エーアイロボットコミュニケーション,0
1983,7010501023970,登記記録の閉鎖等,0,2024-01-22,2024-01-16,株式会社ペニーロード,,株式会社,東京都,台東区,浅草７丁目２番３号,,13,106,1110032,,,2024-01-16,清算の結了等,,,2015-10-05,1,,,,,ペニーロード,0
1984,7010502013657,登記記録の閉鎖等,0,2024-01-22,2024-01-19,有限会社リーム井筒,,有限会社,東京都,台東区,上野６丁目１５番９号,,13,106,1100005,,,2024-01-19,清算の結了等,,,2015-10-05,1,,,,,リームイヅツ,0
1985,7010502016008,登記記録の閉鎖等,0,2024-01-22,2024-01-18,有限会社ウインダイヤモンド,,有限会社,東京都,台東区,台東３丁目１２番５号,,13,106,1100016,,,2024-01-18,清算の結了等,,,2015-10-05,1,,,,,,0
1991,7010701009183,登記記録の閉鎖等,0,2024-01-22,2024-01-22,株式会社前田事務所,,株式会社,東京都,品川区,上大崎２丁目１５番１４号,,13,109,1410021,,,2024-01-22,登記官による閉鎖,,,2015-10-05,1,,,,,,0
1992,7010701010686,登記記録の閉鎖等,0,2024-01-22,2024-01-22,株式会社コスモス,,株式会社,東京都,品川区,北品川１丁目９番７－３０１号,,13,109,1400001,,,2024-01-22,登記官による閉鎖,,,2015-10-05,1,,,,,,0
1993,7010701021980,登記記録の閉鎖等,0,2024-01-22,2024-01-22,株式会社松家,,株式会社,東京都,品川区,東五反田２丁目４番２号,,13,109,1410022,,,2024-01-22,登記官による閉鎖,,,2015-10-05,1,,,,,,0
1994,7010702010669,登記記録の閉鎖等,0,2024-01-22,2024-01-22,有限会社シュノバ,,有限会社,東京都,品川区,旗の台２丁目１３番１５号,,13,109,1420064,,,2024-01-22,登記官による閉鎖,,,2015-10-05,1,,,,,,0
1995,7010705000535,登記記録の閉鎖等,0,2024-01-22,2024-01-22,東京エス・エヌ食品流通協同組合,,その他の設立登記法人,東京都,品川区,東中延２丁目９番１６号,,13,109,1420052,,,2024-01-22,登記官による閉鎖,,,2015-10-05,1,,,,,,0
1996,7010705001905,登記記録の閉鎖等,0,2024-01-22,2024-01-22,みどりの風,,その他の設立登記法人,東京都,品川区,上大崎３丁目３－９－７１７,,13,109,1410021,,,2024-01-22,登記官による閉鎖,,,2015-10-05,1,,,,,,0
1998,7010901048444,登記記録の閉鎖等,0,2024-01-22,2024-01-11,株式会社エムエムエム,,株式会社,東京都,世田谷区,代沢２丁目３２番１７号,,13,112,1550032,,,2024-01-11,合併による解散等,5010903003003,令和６年１月１日東京都世田谷区代沢二丁目３２番１７号合同会社エムエムエム（5010903003003）に合併し解散,2021-04-09,1,,,,,エムエムエム,0
2005,7011003008147,登記記録の閉鎖等,0,2024-01-22,2024-01-18,株式会社Ａｉｃｉｅｌ,,株式会社,東京都,渋谷区,恵比寿１丁目３１番１１－５０１号,,13,113,1500013,,,2024-01-18,合併による解散等,6011001095881,令和６年１月１５日東京都港区虎ノ門一丁目２３番２号株式会社サンクピア（6011001095881）に合併し解散,2017-10-19,1,,,,,アイシエル,0
2017,7011302003690,登記記録の閉鎖等,0,2024-01-22,2024-01-11,有限会社児玉商事,,有限会社,東京都,杉並区,南荻窪４丁目３４番２号,,13,115,1670052,,,2024-01-11,清算の結了等,,,2015-10-05,1,,,,,コダマショウジ,0
2018,7011401010431,登記記録の閉鎖等,0,2024-01-22,2024-01-15,多摩印刷株式会社,,株式会社,埼玉県,和光市,白子３丁目３８番５３号,,11,229,3510101,,,2024-01-15,清算の結了等,,,2015-10-05,1,,,,,タマインサツ,0
2023,7011701016442,登記記録の閉鎖等,0,2024-01-22,2024-01-22,ＩＩＣＰ株式会社,,株式会社,東京都,品川区,南大井１丁目６番５号,,13,109,1400013,,,2024-01-22,登記官による閉鎖,,,2015-10-05,1,,,,,,0
2024,7011701017960,登記記録の閉鎖等,0,2024-01-22,2023-12-22,東都開発株式会社,,株式会社,東京都,江戸川区,平井３丁目１１８４番地,,13,123,1320035,,,2023-12-22,清算の結了等,,,2023-11-06,1,,,,,トウトカイハツ,0
2026,7011801005048,登記記録の閉鎖等,0,2024-01-22,2024-01-22,株式会社山龍,,株式会社,東京都,葛飾区,東堀切２丁目５番１４号,,13,122,1240004,,,2024-01-22,登記官による閉鎖,,,2015-10-05,1,,,,,,0
2027,7011801026234,登記記録の閉鎖等,0,2024-01-22,2024-01-22,株式会社ＰＲＯＣＥＥＤ,,株式会社,東京都,足立区,西新井２丁目１０番１８号,,13,121,1230841,,,2024-01-22,登記官による閉鎖,,,2015-10-05,1,,,,,,0
2028,7011801026390,登記記録の閉鎖等,0,2024-01-22,2024-01-22,株式会社ワイティ,,株式会社,東京都,足立区,東保木間２丁目３３番７号,,13,121,1210063,,,2024-01-22,登記官による閉鎖,,,2015-10-05,1,,,,,,0
2030,7011802000279,登記記録の閉鎖等,0,2024-01-22,2024-01-22,有限会社味里,,有限会社,東京都,葛飾区,金町３丁目４番１５号,,13,122,1250042,,,2024-01-22,登記官による閉鎖,,,2015-10-05,1,,,,,,0
2031,7011802002325,登記記録の閉鎖等,0,2024-01-22,2024-01-22,有限会社ユーシー,,有限会社,東京都,葛飾区,亀有５丁目２８番１２号,,13,122,1250061,,,2024-01-22,登記官による閉鎖,,,2015-10-05,1,,,,,,0
2032,7011802002837,登記記録の閉鎖等,0,2024-01-22,2024-01-22,有限会社湖洲,,有限会社,東京都,葛飾区,青戸３丁目３２番１８号,,13,122,1250062,,,2024-01-22,登記官による閉鎖,,,2015-10-05,1,,,,,,0
2033,7011802008974,登記記録の閉鎖等,0,2024-01-22,2024-01-22,有限会社アール・ケー・スズキ,,有限会社,東京都,足立区,六木３丁目１４番１３号,,13,121,1210052,,,2024-01-22,登記官による閉鎖,,,2015-10-05,1,,,,,,0
2034,7011802013850,登記記録の閉鎖等,0,2024-01-22,2024-01-22,有限会社信濃建設,,有限会社,東京都,足立区,辰沼２丁目４番１６号,,13,121,1210054,,,2024-01-22,登記官による閉鎖,,,2015-10-05,1,,,,,,0
2035,7011802021325,登記記録の閉鎖等,0,2024-01-22,2024-01-22,有限会社早川金型,,有限会社,東京都,葛飾区,奥戸２丁目３０番１７号,,13,122,1240022,,,2024-01-22,登記官による閉鎖,,,2015-10-05,1,,,,,,0
2036,7011802023668,登記記録の閉鎖等,0,2024-01-22,2024-01-19,有限会社あーと高野,00119854,有限会社,東京都,葛飾区,東四つ木２丁目９番１８－３０１号,,13,122,1240014,,,2024-01-19,清算の結了等,,,2015-10-05,1,,,,,アートタカノ,0
2037,7011805001679,登記記録の閉鎖等,0,2024-01-22,2024-01-22,特定非営利活動法人まちの落書き消し隊,,その他の設立登記法人,東京都,足立区,新田３丁目８番１４号,,13,121,1230865,,,2024-01-22,登記官による閉鎖,,,2015-10-05,1,,,,,,0
2038,7011805001836,登記記録の閉鎖等,0,2024-01-22,2024-01-22,特定非営利活動法人安心安全町づくり委員会,,その他の設立登記法人,東京都,葛飾区,西新小岩１丁目６番３号たつみビル４０２,,13,122,1240025,,,2024-01-22,登記官による閉鎖,,,2015-10-05,1,,,,,,0
2050,7020003016828,登記記録の閉鎖等,0,2024-01-22,2024-01-15,Ａｇｒａｔｉ　Ｊａｐａｎ合同会社,,合同会社,東京都,千代田区,紀尾井町１番３号,,13,101,1020094,,,2024-01-15,清算の結了等,,,2019-10-25,1,,,,,アグラティジャパン,0
2084,7040002054711,登記記録の閉鎖等,0,2024-01-22,2024-01-09,有限会社アバサキ工務店,,有限会社,千葉県,成田市,芝１９２１番地,,12,211,2860822,,,2024-01-09,清算の結了等,,,2015-10-05,1,,,,,アバサキコウムテン,0
2091,7070001038191,登記記録の閉鎖等,0,2024-01-22,2024-01-16,株式会社ＴＨＥ　ＨＯＭＥ,,株式会社,群馬県,高崎市,上中居町３４１番地１,,10,202,3700851,,,2024-01-16,清算の結了等,,,2021-06-25,1,,,,,ザホーム,0
2125,7120001174213,登記記録の閉鎖等,0,2024-01-22,2024-01-15,株式会社タクト,,株式会社,大阪府,大阪市東淀川区,瑞光３丁目１０番３２－７０１号,,27,114,5330005,,,2024-01-15,清算の結了等,,,2015-10-05,1,,,,,,0
2144,7130001039316,登記記録の閉鎖等,0,2024-01-22,2024-01-18,株式会社特機システム,,株式会社,京都府,京田辺市,大住ケ丘１丁目７番地６,,26,211,6100351,,,2024-01-18,清算の結了等,,,2015-10-05,1,,,,,トッキシステム,0
2145,7130001054050,登記記録の閉鎖等,0,2024-01-22,2024-01-17,株式会社游心社,,株式会社,京都府,京都市山科区,椥辻池尻町７２番地１２,00127819,26,110,6078168,,,2024-01-17,清算の結了等,,,2015-10-05,1,,,,,ユウシンシャ,0
2147,7130002033747,登記記録の閉鎖等,0,2024-01-22,2024-01-16,有限会社ちりめん工芸館,,有限会社,京都府,京丹後市,弥栄町和田野５８４番地,,26,212,6270131,,,2024-01-16,清算の結了等,,,2015-10-05,1,,,,,チリメンコウゲイカン,0
2162,7150001015190,登記記録の閉鎖等,0,2024-01-22,2024-01-19,株式会社伽陵石材舎,,株式会社,奈良県,大和高田市,大字池尻２６５番地の１,,29,202,6350021,,,2024-01-19,登記官による閉鎖,,,2015-10-05,1,,,,,,0
2163,7150002005793,登記記録の閉鎖等,0,2024-01-22,2024-01-19,有限会社辻村電気商会,00043435,有限会社,奈良県,天理市,川原城町３３４番地,,29,204,6320016,,,2024-01-19,登記官による閉鎖,,,2015-10-05,1,,,,,,0
2164,7150002010075,登記記録の閉鎖等,0,2024-01-22,2024-01-19,有限会社ユース,,有限会社,奈良県,北葛城郡王寺町,元町１丁目８番８号,,29,425,6360013,,,2024-01-19,登記官による閉鎖,,,2015-10-05,1,,,,,,0
2165,7150005002532,登記記録の閉鎖等,0,2024-01-22,2024-01-19,財団法人天理教郡山大教会維持財団,,その他の設立登記法人,奈良県,大和郡山市,天理町１番５号,,29,203,6391006,,,2024-01-19,登記官による閉鎖,,,2015-10-05,1,,,,,,0
2175,7180302015102,登記記録の閉鎖等,0,2024-01-22,2024-01-10,有限会社一成屋,,有限会社,愛知県,蒲郡市,形原町北浜２２番地の７,,23,214,4430103,,,2024-01-10,清算の結了等,,,2015-10-05,1,,,,,イッセイヤ,0
2194,7240002042448,登記記録の閉鎖等,0,2024-01-22,2024-01-15,有限会社アイテム,,有限会社,広島県,福山市,沼隈町大字草深４２９番地の８,,34,207,7200311,,,2024-01-15,清算の結了等,,,2015-10-05,1,,,,,アイテム,0
2195,7240002051886,登記記録の閉鎖等,0,2024-01-22,2024-01-15,ホップアンドステップ有限会社,,有限会社,広島県,尾道市,因島中庄町４６９９番地の３,,34,205,7222211,,,2024-01-15,清算の結了等,,,2015-10-05,1,,,,,,0
2198,7260002019865,登記記録の閉鎖等,0,2024-01-22,2024-01-18,有限会社陶楽興産,,有限会社,岡山県,倉敷市,広江２丁目６番６０号,,33,202,7128043,,,2024-01-18,清算の結了等,,,2015-10-05,1,,,,,トウラクコウサン,0
2199,7270002002705,登記記録の閉鎖等,0,2024-01-22,2024-01-22,有限会社ヌマタ,,有限会社,鳥取県,鳥取市,富安１丁目１２３番地,,31,201,6800845,,,2024-01-22,登記官による閉鎖,,,2015-10-05,1,,,,,,0
2200,7270002007233,登記記録の閉鎖等,0,2024-01-22,2024-01-22,有限会社やすだ美容室,,有限会社,鳥取県,米子市,大篠津町４６９３番地,,31,202,6830101,,,2024-01-22,登記官による閉鎖,,,2015-10-05,1,,,,,,0
2201,7270002010286,登記記録の閉鎖等,0,2024-01-22,2024-01-22,有限会社新鮮市場,,有限会社,鳥取県,東伯郡北栄町,下神３８１番地２,,31,372,6892105,,,2024-01-22,登記官による閉鎖,,,2015-10-05,1,,,,,,0
2202,7280001004858,登記記録の閉鎖等,0,2024-01-22,2024-01-19,株式会社雲海,,株式会社,島根県,邑智郡邑南町,高水２４６７番地１０,,32,449,6960131,,,2024-01-19,清算の結了等,,,2015-10-05,1,,,,,ウンカイ,0
2216,7320001015529,登記記録の閉鎖等,0,2024-01-22,2024-01-17,ＪＥＮ玖珠ウインドファーム株式会社,,株式会社,大分県,玖珠郡玖珠町,大字戸畑９２１２番の１,,44,462,8794331,,,2024-01-17,清算の結了等,,,2017-03-27,1,,,,,ジェイイーエヌクスウインドファーム,0
2224,7340001006204,登記記録の閉鎖等,0,2024-01-22,2024-01-15,株式会社ＭＢ企画,,株式会社,鹿児島県,鹿児島市,草牟田２丁目１９番５号,,46,201,8900014,,,2024-01-15,登記官による閉鎖,,,2015-10-05,1,,,,,,0
2225,7340001009594,登記記録の閉鎖等,0,2024-01-22,2024-01-15,株式会社小川製作所,,株式会社,鹿児島県,鹿児島市,明和１丁目２５番２－３０４号,,46,201,8900024,,,2024-01-15,登記官による閉鎖,,,2015-10-05,1,,,,,,0
2226,7340001021194,登記記録の閉鎖等,0,2024-01-22,2024-01-15,東建設機械販売株式会社,,株式会社,鹿児島県,日置市,伊集院町猪鹿倉９８番地,,46,216,8992505,,,2024-01-15,登記官による閉鎖,,,2018-05-23,1,,,,,ヒガシケンセツキカイハンバイ,0
2227,7340001025988,登記記録の閉鎖等,0,2024-01-22,2024-01-10,久栄建材株式会社,,株式会社,鹿児島県,日置市,東市来町長里４９２番地１,,46,216,8992202,,,2024-01-10,清算の結了等,,,2023-10-23,1,,,,,キュウエイケンザイ,0
2228,7340002018842,登記記録の閉鎖等,0,2024-01-22,2024-01-15,有限会社吉元水道,,有限会社,鹿児島県,指宿市,湯の浜６丁目１０番２１号,,46,210,8910406,,,2024-01-15,登記官による閉鎖,,,2015-10-05,1,,,,,,0
2229,7340002019147,登記記録の閉鎖等,0,2024-01-22,2024-01-15,有限会社浜上水産ストアー,,有限会社,鹿児島県,指宿市,開聞川尻５６５３番地９,,46,210,8910602,,,2024-01-15,登記官による閉鎖,,,2015-10-05,1,,,,,,0
2230,7340002021689,登記記録の閉鎖等,0,2024-01-22,2024-01-15,有限会社かけろまトラベル,,有限会社,鹿児島県,大島郡瀬戸内町,大字古仁屋字松江２３番地,,46,525,8941505,,,2024-01-15,登記官による閉鎖,,,2015-10-05,1,,,,,,0
2231,7340002021697,登記記録の閉鎖等,0,2024-01-22,2024-01-15,有限会社古仁屋リゾート,,有限会社,鹿児島県,大島郡瀬戸内町,大字古仁屋字松江１０番地２１,,46,525,8941505,,,2024-01-15,登記官による閉鎖,,,2015-10-05,1,,,,,,0
2234,7360002008008,登記記録の閉鎖等,0,2024-01-22,2024-01-12,有限会社新都心宅建,,有限会社,沖縄県,那覇市,銘苅２丁目１１番１９号,,47,201,9000004,,,2024-01-12,登記官による閉鎖,,,2015-10-05,1,,,,,,0
2235,7360002011688,登記記録の閉鎖等,0,2024-01-22,2024-01-12,有限会社コスモプランニング,,有限会社,沖縄県,沖縄市,宮里１丁目４番１号,,47,211,9042165,,,2024-01-12,登記官による閉鎖,,,2015-10-05,1,,,,,,0
2236,7360002012001,登記記録の閉鎖等,0,2024-01-22,2024-01-12,有限会社中央管理産業,,有限会社,沖縄県,沖縄市,照屋２丁目１８番３号,,47,211,9040011,,,2024-01-12,登記官による閉鎖,,,2015-10-05,1,,,,,,0
2237,7360002018238,登記記録の閉鎖等,0,2024-01-22,2024-01-12,有限会社花電設,,有限会社,沖縄県,宜野湾市,伊佐３丁目５番２号,,47,205,9012221,,,2024-01-12,登記官による閉鎖,,,2015-10-05,1,,,,,,0
2238,7360002022041,登記記録の閉鎖等,0,2024-01-22,2024-01-12,有限会社上地不動産,,有限会社,沖縄県,宮古島市,平良字下里９１５番地の１,,47,214,9060013,,,2024-01-12,登記官による閉鎖,,,2018-03-12,1,,,,,,0
2240,7360005002156,登記記録の閉鎖等,0,2024-01-22,2024-01-12,財団法人おきなわ健康長寿研究開発センター,,その他の設立登記法人,沖縄県,うるま市,字江洲５９８番地４,,47,213,9042244,,,2024-01-12,登記官による閉鎖,,,2015-10-05,1,,,,,,0
2241,7360005002453,登記記録の閉鎖等,0,2024-01-22,2024-01-12,財団法人リウエン奨学会,,その他の設立登記法人,沖縄県,浦添市,勢理客４丁目１７番１１号,,47,208,9012122,,,2024-01-12,登記官による閉鎖,,,2015-10-05,1,,,,,,0
2242,7360005003443,登記記録の閉鎖等,0,2024-01-22,2024-01-12,農事組合法人安波花卉生産組合,,その他の設立登記法人,沖縄県,国頭郡国頭村,字安波５２２番地,,47,301,9051504,,,2024-01-12,登記官による閉鎖,,,2015-10-05,1,,,,,,0
2251,7380001026264,登記記録の閉鎖等,0,2024-01-22,2024-01-18,環境テクノ株式会社,,株式会社,福島県,南相馬市,原町区深野字入龍田１１７番地の４,,07,212,9750071,,,2024-01-18,清算の結了等,,,2015-12-18,1,,,,,カンキョウテクノ,0
2255,7380002012494,登記記録の閉鎖等,0,2024-01-22,2024-01-18,有限会社丸和テクノス,,有限会社,福島県,郡山市,富久山町福原字西原９３番地,,07,203,9638061,,,2024-01-18,清算の結了等,,,2015-10-05,1,,,,,マルワテクノス,0
2264,7410001004357,登記記録の閉鎖等,0,2024-01-22,2024-01-15,敦賀興業株式会社,,株式会社,秋田県,秋田市,寺内字蛭根８５番地２３,,05,201,0110901,,,2024-01-15,清算の結了等,,,2021-09-14,1,,,,,ツルガコウギョウ,0
2269,7430001003225,登記記録の閉鎖等,0,2024-01-22,2024-01-16,岡本食品株式会社,,株式会社,北海道,札幌市中央区,北一条西２４丁目２番１１－１００４号,,01,101,0640821,,,2024-01-16,清算の結了等,,,2015-10-05,1,,,,,オカモトショクヒン,0
2274,7430002030375,登記記録の閉鎖等,0,2024-01-22,2024-01-18,株式会社スノー・ツーリスモ,,株式会社,北海道,札幌市白石区,北郷六条９丁目２番５号,,01,104,0030836,,,2024-01-18,清算の結了等,,,2015-10-05,1,,,,,スノーツーリスモ,0
2284,7470001006166,登記記録の閉鎖等,0,2024-01-22,2024-01-10,株式会社水広,,株式会社,香川県,高松市,岡本町１４４７番地１－３０１号,,37,201,7618047,,,2024-01-10,登記官による閉鎖,,,2015-10-05,1,,,,,,0
2285,7470001010283,登記記録の閉鎖等,0,2024-01-22,2024-01-10,株式会社六松フーズー,,株式会社,香川県,三豊市,高瀬町下勝間１２５１番地６,,37,208,7670011,,,2024-01-10,登記官による閉鎖,,,2015-10-05,1,,,,,,0
2286,7470002002098,登記記録の閉鎖等,0,2024-01-22,2024-01-10,河地建設工業有限会社,,有限会社,香川県,高松市,木太町３３７５番地１５,,37,201,7600080,,,2024-01-10,登記官による閉鎖,,,2015-10-05,1,,,,,,0
2287,7470002006545,登記記録の閉鎖等,0,2024-01-22,2024-01-10,有限会社マルツ工芸,,有限会社,香川県,高松市,新田町甲１０２０番地２,,37,201,7610102,,,2024-01-10,登記官による閉鎖,,,2015-10-05,1,,,,,,0
2288,7470002011041,登記記録の閉鎖等,0,2024-01-22,2024-01-10,有限会社サンベネッセ綾上,,有限会社,香川県,綾歌郡綾川町,山田下４２５番地５,,37,387,7612204,,,2024-01-10,登記官による閉鎖,,,2015-10-05,1,,,,,,0
2289,7470002014655,登記記録の閉鎖等,0,2024-01-22,2024-01-10,有限会社井上ハウス建設,,有限会社,香川県,坂出市,加茂町甲２２９番地,,37,203,7620022,,,2024-01-10,登記官による閉鎖,,,2015-10-05,1,,,,,,0
2290,7470002014779,登記記録の閉鎖等,0,2024-01-22,2024-01-10,有限会社梶川建設,,有限会社,香川県,坂出市,加茂町１２０６番地１,,37,203,7620023,,,2024-01-10,登記官による閉鎖,,,2015-10-05,1,,,,,,0
2308,8010001225364,登記記録の閉鎖等,0,2024-01-22,2024-01-12,中日トレード株式会社,,株式会社,東京都,千代田区,平河町１丁目６－１５ＵＳビル８Ｆ,,13,101,1020093,,,2024-01-12,清算の結了等,,,2022-03-18,1,,,,,チュウニチトレード,0
2319,8010401148925,登記記録の閉鎖等,0,2024-01-22,2024-01-17,株式会社インデビジョン,,株式会社,東京都,渋谷区,神山町２０番２７号,,13,113,1500047,,,2024-01-17,合併による解散等,4010401153961,令和６年１月１日東京都港区北青山二丁目１４番４号株式会社みさきホールディングス（4010401153961）に合併し解散,2019-11-05,1,,,,,インデビジョン,0
2326,8010405018703,登記記録の閉鎖等,0,2024-01-22,2024-01-11,一般社団法人日本スペルト小麦協会,,その他の設立登記法人,東京都,港区,南青山２丁目２番１５号ウィン青山９４２,,13,103,1070062,,,2024-01-11,清算の結了等,,,2020-05-21,1,,,,,ニホンスペルトコムギキョウカイ,0
2330,8010701008985,登記記録の閉鎖等,0,2024-01-22,2024-01-22,株式会社豊栄建商,,株式会社,東京都,品川区,上大崎２丁目１５番１４号,,13,109,1410021,,,2024-01-22,登記官による閉鎖,,,2015-10-05,1,,,,,,0
2331,8010701022706,登記記録の閉鎖等,0,2024-01-22,2024-01-22,集古株式会社,,株式会社,東京都,品川区,東品川４丁目１２番９‐２９１１号,,13,109,1400002,,,2024-01-22,登記官による閉鎖,,,2015-10-05,1,,,,,,0
2332,8010701023984,登記記録の閉鎖等,0,2024-01-22,2024-01-22,新日本企画株式会社,,株式会社,東京都,品川区,中延４丁目５番１１号,,13,109,1420053,,,2024-01-22,登記官による閉鎖,,,2015-10-05,1,,,,,,0
2333,8010701025444,登記記録の閉鎖等,0,2024-01-22,2024-01-22,株式会社リアルネット,,株式会社,東京都,品川区,南大井６丁目１２番１０－３０１号,,13,109,1400013,,,2024-01-22,登記官による閉鎖,,,2015-10-05,1,,,,,,0
2335,8010702007870,登記記録の閉鎖等,0,2024-01-22,2024-01-22,丸大青果有限会社,,有限会社,東京都,品川区,南品川６丁目１９番２号,,13,109,1400004,,,2024-01-22,登記官による閉鎖,,,2015-10-05,1,,,,,,0
2336,8010705001012,登記記録の閉鎖等,0,2024-01-22,2024-01-22,特定非営利活動法人ぴーぷる・あと・わーく・ジャパン,,その他の設立登記法人,東京都,品川区,二葉２丁目６番７号,,13,109,1420043,,,2024-01-22,登記官による閉鎖,,,2015-10-05,1,,,,,,0
2337,8010705001045,登記記録の閉鎖等,0,2024-01-22,2024-01-22,特定非営利活動法人日本クリーニング支援協会,,その他の設立登記法人,東京都,品川区,大崎２丁目１１番１５号美津文ビル２０１,,13,109,1410032,,,2024-01-22,登記官による閉鎖,,,2015-10-05,1,,,,,,0
2338,8010705001210,登記記録の閉鎖等,0,2024-01-22,2024-01-22,医療法人社団眞美会,,その他の設立登記法人,東京都,品川区,大崎１丁目６番４号新大崎勧業ビルディング２階,,13,109,1410032,,,2024-01-22,登記官による閉鎖,,,2015-10-05,1,,,,,,0
2339,8010705001350,登記記録の閉鎖等,0,2024-01-22,2024-01-22,特定非営利活動法人全音連指導者協会,,その他の設立登記法人,東京都,品川区,戸越４丁目３番６号,,13,109,1420041,,,2024-01-22,登記官による閉鎖,,,2015-10-05,1,,,,,,0
2342,8010802002557,登記記録の閉鎖等,0,2024-01-22,2024-01-17,有限会社エレガンスシノハラ,,有限会社,東京都,大田区,大森西２丁目２３番８号,,13,111,1430015,,,2024-01-17,清算の結了等,,,2015-10-05,1,,,,,エレガンスシノハラ,0
2376,8011801001450,登記記録の閉鎖等,0,2024-01-22,2024-01-22,株式会社江東パツケージ,,株式会社,東京都,葛飾区,新小岩１丁目３５番２号,,13,122,1240024,,,2024-01-22,登記官による閉鎖,,,2015-10-05,1,,,,,,0
2378,8011801020475,登記記録の閉鎖等,0,2024-01-22,2024-01-22,ふくねこ企画株式会社,,株式会社,東京都,足立区,入谷町八丁目１４番２７号,,13,121,1210834,,,2024-01-22,登記官による閉鎖,,,2015-10-05,1,,,,,,0
2379,8011801021052,登記記録の閉鎖等,0,2024-01-22,2024-01-22,株式会社Ｊ・Ｆ,,株式会社,東京都,足立区,大谷田３丁目１８番８－１０５号,,13,121,1200001,,,2024-01-22,登記官による閉鎖,,,2015-10-05,1,,,,,,0
2380,8011801022967,登記記録の閉鎖等,0,2024-01-22,2024-01-22,株式会社カプサ,,株式会社,東京都,足立区,西竹の塚１丁目１２番６号１０３,,13,121,1210822,,,2024-01-22,登記官による閉鎖,,,2015-10-05,1,,,,,,0
2382,8011802004709,登記記録の閉鎖等,0,2024-01-22,2024-01-22,有限会社高砂荒井屋商店,,有限会社,東京都,葛飾区,高砂４丁目２番２６－１１１号,,13,122,1250054,,,2024-01-22,登記官による閉鎖,,,2015-10-05,1,,,,,,0
2383,8011802007190,登記記録の閉鎖等,0,2024-01-22,2024-01-22,有限会社マツシン,,有限会社,東京都,葛飾区,堀切７丁目３２番５号,,13,122,1240006,,,2024-01-22,登記官による閉鎖,,,2015-10-05,1,,,,,,0
2384,8011802009328,登記記録の閉鎖等,0,2024-01-22,2024-01-22,有限会社綾瀬メンテナンス,,有限会社,東京都,足立区,綾瀬３丁目５番１７号フレンドハイツ１０１号室,,13,121,1200005,,,2024-01-22,登記官による閉鎖,,,2015-10-05,1,,,,,,0
2385,8011802018543,登記記録の閉鎖等,0,2024-01-22,2024-01-22,有限会社前田印刷社,,有限会社,東京都,足立区,舎人３丁目５番２９号,,13,121,1210831,,,2024-01-22,登記官による閉鎖,,,2015-10-05,1,,,,,,0
2386,8011802030028,登記記録の閉鎖等,0,2024-01-22,2024-01-22,有限会社山崎設備設計事務所,,有限会社,東京都,足立区,西伊興４丁目１２番２６号,,13,121,1210824,,,2024-01-22,登記官による閉鎖,,,2015-10-05,1,,,,,,0
2388,8011805000746,登記記録の閉鎖等,0,2024-01-22,2024-01-22,医療法人社団健由会,,その他の設立登記法人,東京都,葛飾区,東立石３丁目２８番１号,,13,122,1240013,,,2024-01-22,登記官による閉鎖,,,2015-10-05,1,,,,,,0
2389,8011805001174,登記記録の閉鎖等,0,2024-01-22,2024-01-22,扶蓉建設協同組合,,その他の設立登記法人,東京都,葛飾区,新宿２丁目１８番１９号,,13,122,1250051,,,2024-01-22,登記官による閉鎖,,,2015-10-05,1,,,,,,0
2390,8011805001876,登記記録の閉鎖等,0,2024-01-22,2024-01-22,税理士法人エイチアイパートナーズ,,その他の設立登記法人,東京都,足立区,青井５丁目３番１７号,,13,121,1210012,,,2024-01-22,登記官による閉鎖,,,2015-10-05,1,,,,,,0
2401,8020002028831,登記記録の閉鎖等,0,2024-01-22,2024-01-10,有限会社アルミック神奈川,,有限会社,神奈川県,横浜市西区,戸部本町３３番３号,,14,103,2200041,,,2024-01-10,清算の結了等,,,2015-10-05,1,,,,,アルミックカナガワ,0
2407,8021002052202,登記記録の閉鎖等,0,2024-01-22,2024-01-16,有限会社スタジオ八十五,,有限会社,神奈川県,小田原市,飯泉９０１番地の３４,,14,206,2500863,,,2024-01-16,清算の結了等,,,2015-10-05,1,,,,,スタジオハチジュウゴ,0
2419,8030002051741,登記記録の閉鎖等,0,2024-01-22,2024-01-12,有限会社ミクロワン,,有限会社,埼玉県,本庄市,牧西１１５０番地２,,11,211,3670015,,,2024-01-12,清算の結了等,,,2015-10-05,1,,,,,ミクロワン,0
2432,8040002060469,登記記録の閉鎖等,0,2024-01-22,2024-01-11,有限会社オーエムプランニング,,有限会社,千葉県,佐倉市,上座５５７番地１７８,,12,212,2850854,,,2024-01-11,清算の結了等,,,2015-10-05,1,,,,,オーエムプランニング,0
2467,8090001000891,登記記録の閉鎖等,0,2024-01-22,2024-01-12,株式会社三建ハウス,,株式会社,山梨県,甲府市,太田町９番２号,,19,201,4000865,,,2024-01-12,清算の結了等,,,2015-10-05,1,,,,,,0
2468,8100001005006,登記記録の閉鎖等,0,2024-01-22,2024-01-15,株式会社アイブレイン,,株式会社,長野県,長野市,大字東和田５２６番地３,,20,201,3810038,,,2024-01-15,清算の結了等,,,2015-10-05,1,,,,,アイブレイン,0
2498,8140001125691,登記記録の閉鎖等,0,2024-01-22,2024-01-18,Ｇｏｌｆ‐ｔｓｕｃｏｍ株式会社,,株式会社,兵庫県,神戸市中央区,北野町１丁目１番地,,28,110,6500002,,,2024-01-18,清算の結了等,,,2022-04-22,1,,,,,ゴルフツコム,0
2501,8140002061192,登記記録の閉鎖等,0,2024-01-22,2024-01-18,有限会社田上ウォーターサービス,,有限会社,兵庫県,加東市,沢部７９７番地の１,,28,228,6731444,,,2024-01-18,清算の結了等,,,2015-10-05,1,,,,,,0
2503,8150001018201,登記記録の閉鎖等,0,2024-01-22,2024-01-19,アナベルホーム株式会社,,株式会社,奈良県,香芝市,関屋４６３－１,,29,210,6390255,,,2024-01-19,登記官による閉鎖,,,2015-10-05,1,,,,,,0
2505,8150005003265,登記記録の閉鎖等,0,2024-01-22,2024-01-19,財団法人済世事業財団,,その他の設立登記法人,奈良県,生駒郡平群町,上庄２丁目１番１９号,,29,342,6360905,,,2024-01-19,登記官による閉鎖,,,2015-10-05,1,,,,,,0
2506,8150005007803,登記記録の閉鎖等,0,2024-01-22,2024-01-19,特定非営利活動法人ＡＳＣＡ－明日を健やかに,,その他の設立登記法人,奈良県,生駒市,西松ケ丘２５番７６号,,29,209,6300246,,,2024-01-19,登記官による閉鎖,,,2015-10-05,1,,,,,,0
2523,8210002002429,登記記録の閉鎖等,0,2024-01-22,2024-01-18,有限会社照松,,有限会社,福井県,福井市,照手２丁目１番１１号,,18,201,9100024,,,2024-01-18,清算の結了等,,,2015-10-05,1,,,,,テルマツ,0
2525,8220001018012,登記記録の閉鎖等,0,2024-01-22,2024-01-17,株式会社中田商店,,株式会社,石川県,かほく市,白尾イ２３番地１,,17,209,9291177,,,2024-01-17,合併による解散等,1130001005447,令和６年１月１日京都市中京区河原町通夷川上る指物町３２８番地増井株式会社（1130001005447）に合併し解散,2015-10-05,1,,,,,ナカタショウテン,0
2531,8240002021491,登記記録の閉鎖等,0,2024-01-22,2024-01-15,有限会社プロジェクト萌彩,,有限会社,広島県,広島市佐伯区,海老山南２丁目１番２－２７０３号,,34,108,7315138,,,2024-01-15,清算の結了等,,,2015-10-05,1,,,,,プロジェクトモア,0
2532,8240002048015,登記記録の閉鎖等,0,2024-01-22,2024-01-16,有限会社くるま,,有限会社,広島県,安芸郡坂町,坂西２丁目２番１６号,,34,309,7314314,,,2024-01-16,清算の結了等,,,2015-10-05,1,,,,,クルマ,0
2534,8240005014476,登記記録の閉鎖等,0,2024-01-22,2024-01-04,特定非営利活動法人里やま弥栄,,その他の設立登記法人,広島県,大竹市,南栄２丁目１２番１１号４１３号室,,34,211,7390602,,,2024-01-04,清算の結了等,,,2017-09-26,1,,,,,サトヤマヤサカ,0
2540,8270001003034,登記記録の閉鎖等,0,2024-01-22,2024-01-22,株式会社ＴＡＫＥＭＯＴＯ,,株式会社,鳥取県,鳥取市,永楽温泉町１６１番地,,31,201,6800834,,,2024-01-22,登記官による閉鎖,,,2015-10-05,1,,,,,,0
2541,8270001003678,登記記録の閉鎖等,0,2024-01-22,2024-01-22,山陰布帛株式会社,,株式会社,鳥取県,米子市,道笑町１丁目５番地,,31,202,6830064,,,2024-01-22,登記官による閉鎖,,,2015-10-05,1,,,,,,0
2542,8270001004511,登記記録の閉鎖等,0,2024-01-22,2024-01-22,株式会社孝友,,株式会社,鳥取県,米子市,両三柳６２５－２,,31,202,6830853,,,2024-01-22,登記官による閉鎖,,,2015-10-05,1,,,,,,0
2543,8270002008313,登記記録の閉鎖等,0,2024-01-22,2024-01-22,有限会社シンバタ無線,,有限会社,鳥取県,米子市,淀江町淀江７４６番地,,31,202,6893402,,,2024-01-22,登記官による閉鎖,,,2015-10-05,1,,,,,,0
2544,8270002009328,登記記録の閉鎖等,0,2024-01-22,2024-01-22,有限会社ティーエス企画,,有限会社,鳥取県,境港市,竹内団地８１番地３,,31,204,6840046,,,2024-01-22,登記官による閉鎖,,,2015-10-05,1,,,,,,0
2545,8270002009419,登記記録の閉鎖等,0,2024-01-22,2024-01-22,有限会社建築調査技術コンサルタンツ,,有限会社,鳥取県,米子市,錦海町３丁目１０番１６号,,31,202,6830825,,,2024-01-22,登記官による閉鎖,,,2015-10-05,1,,,,,,0
2560,8340001013208,登記記録の閉鎖等,0,2024-01-22,2024-01-15,たねがしま物産株式会社,,株式会社,鹿児島県,熊毛郡中種子町,野間２１２８番地２,,46,501,8913604,,,2024-01-15,登記官による閉鎖,,,2015-10-05,1,,,,,,0
2562,8340002012357,登記記録の閉鎖等,0,2024-01-22,2024-01-15,有限会社ワコウアンドフレンドカンパニー,,有限会社,鹿児島県,鹿児島市,西田２丁目１５番９号,,46,201,8900046,,,2024-01-15,登記官による閉鎖,,,2015-10-05,1,,,,,,0
2563,8340002022323,登記記録の閉鎖等,0,2024-01-22,2024-01-15,有限会社上脇シード産業,,有限会社,鹿児島県,阿久根市,波留１９７４番地,,46,206,8991625,,,2024-01-15,登記官による閉鎖,,,2015-10-05,1,,,,,,0
2564,8340002025598,登記記録の閉鎖等,0,2024-01-22,2024-01-15,有限会社シャトウ水口,,有限会社,鹿児島県,鹿屋市,寿４丁目１２番９号,,46,203,8930014,,,2024-01-15,登記官による閉鎖,,,2015-10-05,1,,,,,,0
2565,8340002027066,登記記録の閉鎖等,0,2024-01-22,2024-01-15,有限会社吉永黒豚農場,,有限会社,鹿児島県,鹿屋市,上祓川町７７１５番地２,,46,203,8930027,,,2024-01-15,登記官による閉鎖,,,2015-10-05,1,,,,,,0
2567,8340005004228,登記記録の閉鎖等,0,2024-01-22,2024-01-15,財団法人種子島安城奬学会,,その他の設立登記法人,鹿児島県,西之表市,安城小学校内,,46,213,8913432,,,2024-01-15,登記官による閉鎖,,,2015-10-05,1,,,,,,0
2568,8340005004946,登記記録の閉鎖等,0,2024-01-22,2024-01-15,特定非営利活動法人幸楽園,,その他の設立登記法人,鹿児島県,大島郡喜界町,大字上嘉鉄５７番地,,46,529,8916233,,,2024-01-15,登記官による閉鎖,,,2015-10-05,1,,,,,,0
2571,8360001010797,登記記録の閉鎖等,0,2024-01-22,2024-01-12,株式会社ＷＡＫＵＷＡＱ,,株式会社,沖縄県,那覇市,若狭１丁目１０番１号,,47,201,9000031,,,2024-01-12,登記官による閉鎖,,,2015-10-05,1,,,,,,0
2572,8360001011309,登記記録の閉鎖等,0,2024-01-22,2024-01-12,株式会社ＭＡＸＢＯＸ,,株式会社,沖縄県,那覇市,おもろまち４丁目３番１１号,,47,201,9000006,,,2024-01-12,登記官による閉鎖,,,2015-10-05,1,,,,,,0
2573,8360001015292,登記記録の閉鎖等,0,2024-01-22,2024-01-12,株式会社ジー・エス貿易,,株式会社,沖縄県,那覇市,牧志１丁目４番２７号（３０１）,,47,201,9000013,,,2024-01-12,登記官による閉鎖,,,2015-10-05,1,,,,,,0
2575,8360002004237,登記記録の閉鎖等,0,2024-01-22,2024-01-12,有限会社ミタカ建設工業,,有限会社,沖縄県,那覇市,首里大名町３丁目７番地,,47,201,9030802,,,2024-01-12,登記官による閉鎖,,,2015-10-05,1,,,,,,0
2576,8360002022445,登記記録の閉鎖等,0,2024-01-22,2024-01-12,有限会社　大崎産業,,有限会社,沖縄県,宮古島市,伊良部字国仲８６番地６,,47,214,9060505,,,2024-01-12,登記官による閉鎖,,,2015-10-05,1,,,,,,0
2577,8360003005481,登記記録の閉鎖等,0,2024-01-22,2024-01-12,合同会社アラジン,,合同会社,沖縄県,糸満市,西崎町５丁目１３番１号２階,,47,210,9010306,,,2024-01-12,登記官による閉鎖,,,2015-10-05,1,,,,,,0
2578,8360003005507,登記記録の閉鎖等,0,2024-01-22,2024-01-12,合同会社山八,,合同会社,沖縄県,那覇市,松尾２丁目２４番１６号,,47,201,9000014,,,2024-01-12,登記官による閉鎖,,,2015-10-05,1,,,,,,0
2579,8360005000068,登記記録の閉鎖等,0,2024-01-22,2024-01-12,社団法人沖縄県自然保護協会,,その他の設立登記法人,沖縄県,那覇市,古島１丁目２４番地の１９,,47,201,9020061,,,2024-01-12,登記官による閉鎖,,,2015-10-05,1,,,,,,0
2580,8360005000118,登記記録の閉鎖等,0,2024-01-22,2024-01-12,社団法人沖縄県療術師会,,その他の設立登記法人,沖縄県,那覇市,久米２丁目１０番地７,,47,201,9000033,,,2024-01-12,登記官による閉鎖,,,2015-10-05,1,,,,,,0
2581,8360005002295,登記記録の閉鎖等,0,2024-01-22,2024-01-12,社団法人沖縄医介輔会,,その他の設立登記法人,沖縄県,うるま市,勝連平敷屋１９９－２,,47,213,9042314,,,2024-01-12,登記官による閉鎖,,,2015-10-05,1,,,,,,0
2582,8360005003509,登記記録の閉鎖等,0,2024-01-22,2024-01-12,農事組合法人あいしん,,その他の設立登記法人,沖縄県,国頭郡本部町,字山川１４４７番地の３,,47,308,9050205,,,2024-01-12,登記官による閉鎖,,,2015-10-05,1,,,,,,0
2586,8380001015761,登記記録の閉鎖等,0,2024-01-22,2024-01-18,株式会社箱崎林業,,株式会社,福島県,南相馬市,原町区深野字入龍田１１７番地の４,,07,212,9750071,,,2024-01-18,清算の結了等,,,2015-10-05,1,,,,,ハコザキリンギョウ,0
2587,8410003003307,登記記録の閉鎖等,0,2024-01-22,2024-01-15,合同会社オフィスごとう,,合同会社,秋田県,能代市,中和１丁目８番３７号,,05,202,0160843,,,2024-01-15,清算の結了等,,,2019-11-07,1,,,,,オフィスゴトウ,0
2588,8420002005947,登記記録の閉鎖等,0,2024-01-22,2024-01-16,有限会社アイコー,,有限会社,青森県,八戸市,吹上１丁目３番５号,,02,203,0310003,,,2024-01-16,清算の結了等,,,2015-10-05,1,,,,,アイコー,0
2589,8420002017018,登記記録の閉鎖等,0,2024-01-22,2024-01-16,有限会社北斗電機,,有限会社,青森県,十和田市,東十五番町３７番２２号,,02,206,0340034,,,2024-01-16,清算の結了等,,,2015-10-05,1,,,,,ホクトデンキ,0
2592,8430001072252,登記記録の閉鎖等,0,2024-01-22,2024-01-18,株式会社Ａ’ｚｕｒａｍ,,株式会社,北海道,札幌市中央区,大通西１丁目１４番地２桂和大通ビル５０　９階,,01,101,0600042,,,2024-01-18,清算の結了等,,,2016-08-29,1,,,,,,0
2603,8440002000343,登記記録の閉鎖等,0,2024-01-22,2024-01-17,有限会社インテックス工業,,有限会社,北海道,函館市,中道２丁目３番３０号,,01,202,0410853,,,2024-01-17,清算の結了等,,,2015-10-05,1,,,,,インテックスコウギョウ,0
2607,8460302000462,登記記録の閉鎖等,0,2024-01-22,2024-01-18,協同ステイック販売有限会社,,有限会社,北海道,北見市,東相内町１５番地１３,,01,208,0990878,,,2024-01-18,清算の結了等,,,2015-10-05,1,,,,,キョウドウステイックハンバイ,0
2608,8470001003864,登記記録の閉鎖等,0,2024-01-22,2024-01-10,株式会社丸新商會,,株式会社,香川県,高松市,由良町４８１番地,,37,201,7610441,,,2024-01-10,登記官による閉鎖,,,2015-10-05,1,,,,,,0
2609,8470001011322,登記記録の閉鎖等,0,2024-01-22,2024-01-10,香川ナショナル土地住宅株式会社,,株式会社,香川県,東かがわ市,松原１３８番地,,37,207,7692702,,,2024-01-10,登記官による閉鎖,,,2015-10-05,1,,,,,,0
2610,8470001012618,登記記録の閉鎖等,0,2024-01-22,2024-01-10,ＭＳコンサルタント株式会社,,株式会社,香川県,高松市,伏石町２１４１番地１８,,37,201,7618071,,,2024-01-10,登記官による閉鎖,,,2015-10-05,1,,,,,,0
2611,8470001017039,登記記録の閉鎖等,0,2024-01-22,2024-01-10,高松昭和金融株式会社,,株式会社,香川県,高松市,二番丁２０番地,,37,201,7600000,,,2024-01-10,登記官による閉鎖,,,2018-08-28,1,,,,,タカマツショウワキンユウ,1
2612,8470002003723,登記記録の閉鎖等,0,2024-01-22,2024-01-10,有限会社ジョルジュ・オリビエ,,有限会社,香川県,高松市,古馬場町８番地１８,,37,201,7600045,,,2024-01-10,登記官による閉鎖,,,2015-10-05,1,,,,,,0
2616,8490003000759,登記記録の閉鎖等,0,2024-01-22,2024-01-15,エミナ合同会社,,合同会社,高知県,室戸市,吉良川町甲１９５２番地７,,39,202,7816832,,,2024-01-15,清算の結了等,,,2015-10-05,1,,,,,エミナ,0
2644,9010002047897,登記記録の閉鎖等,0,2024-01-22,2024-01-17,有限会社Ｗｉｎｇ,,有限会社,東京都,大田区,上池台４丁目２７番１７号,,13,111,1450064,,,2024-01-17,清算の結了等,,,2015-10-05,1,,,,,ウイング,0
2649,9010401154815,登記記録の閉鎖等,0,2024-01-22,2024-01-15,ＩＧ　Ｍａｒｋｅｔｉｎｇ株式会社,,株式会社,東京都,港区,六本木６丁目１０番１号六本木ヒルズ森タワー１７階,,13,103,1060032,,,2024-01-15,清算の結了等,,,2020-08-26,1,,,,,アイジーマーケティング,0
2665,9010701001659,登記記録の閉鎖等,0,2024-01-22,2024-01-22,株式会社エフエス企画,,株式会社,東京都,品川区,西五反田４丁目９番４号５０７,,13,109,1410031,,,2024-01-22,登記官による閉鎖,,,2015-10-05,1,,,,,,0
2666,9010701010305,登記記録の閉鎖等,0,2024-01-22,2024-01-22,株式会社ワットコーポレーション,,株式会社,東京都,品川区,西五反田１丁目４番８号,,13,109,1410031,,,2024-01-22,登記官による閉鎖,,,2015-10-05,1,,,,,,0
2667,9010701024569,登記記録の閉鎖等,0,2024-01-22,2024-01-22,株式会社トリニティ,,株式会社,東京都,品川区,上大崎４丁目１番１－２０１０号,,13,109,1410021,,,2024-01-22,登記官による閉鎖,,,2015-10-05,1,,,,,,0
2668,9010701025294,登記記録の閉鎖等,0,2024-01-22,2024-01-22,株式会社ｍａｆｒｏ,,株式会社,東京都,品川区,大井３丁目１４番３号ハイツ萩１０５,,13,109,1400014,,,2024-01-22,登記官による閉鎖,,,2015-10-05,1,,,,,,0
2669,9010701026433,登記記録の閉鎖等,0,2024-01-22,2024-01-22,株式会社クリエイション,,株式会社,東京都,品川区,北品川５丁目１８番１８号,,13,109,1410001,,,2024-01-22,登記官による閉鎖,,,2015-10-05,1,,,,,,0
2671,9010702001303,登記記録の閉鎖等,0,2024-01-22,2024-01-22,有限会社遠藤電業社,,有限会社,東京都,品川区,小山台２丁目３番２０号,,13,109,1420061,,,2024-01-22,登記官による閉鎖,,,2015-10-05,1,,,,,,0
2672,9010702010048,登記記録の閉鎖等,0,2024-01-22,2024-01-22,有限会社未来企画,,有限会社,東京都,品川区,上大崎４丁目６番１６号マンション南目黒苑１２６号室,,13,109,1410021,,,2024-01-22,登記官による閉鎖,,,2015-10-05,1,,,,,,0
2673,9010702010592,登記記録の閉鎖等,0,2024-01-22,2024-01-22,有限会社ワールドリンク,,有限会社,東京都,品川区,東五反田１丁目１７番７号,,13,109,1410022,,,2024-01-22,登記官による閉鎖,,,2015-10-05,1,,,,,,0
2674,9010702015518,登記記録の閉鎖等,0,2024-01-22,2024-01-22,有限会社エーエスエー,,有限会社,東京都,品川区,東品川３丁目２１番１８－１１０４号,,13,109,1400002,,,2024-01-22,登記官による閉鎖,,,2015-10-05,1,,,,,,0
2675,9010703001616,登記記録の閉鎖等,0,2024-01-22,2024-01-22,合資会社グローバルネットワークス,,合資会社,東京都,品川区,大崎２丁目９番２０号,,13,109,1410032,,,2024-01-22,登記官による閉鎖,,,2015-10-05,1,,,,,,0
2676,9010703001962,登記記録の閉鎖等,0,2024-01-22,2024-01-22,ペンタゴンエフ合同会社,,合同会社,東京都,品川区,上大崎２丁目１５番２号目黒ビジネスマンション３０２号,,13,109,1410021,,,2024-01-22,登記官による閉鎖,,,2015-10-05,1,,,,,,0
2684,9011101058001,登記記録の閉鎖等,0,2024-01-22,2024-01-22,都市住宅販売株式会社,,株式会社,東京都,足立区,谷中４丁目１番９号,,13,121,1200006,,,2024-01-22,登記官による閉鎖,,,2015-10-05,1,,,,,,0
2688,9011401012599,登記記録の閉鎖等,0,2024-01-22,2024-01-10,株式会社ＺＥＮ,,株式会社,東京都,板橋区,幸町１６番１３号,,13,119,1730034,,,2024-01-10,清算の結了等,,,2015-10-05,1,,,,,ゼン,0
2699,9011801003578,登記記録の閉鎖等,0,2024-01-22,2024-01-22,株式会社ナカネ,,株式会社,東京都,葛飾区,南水元２丁目２０番１０号,,13,122,1250035,,,2024-01-22,登記官による閉鎖,,,2015-10-05,1,,,,,,0
2700,9011801016720,登記記録の閉鎖等,0,2024-01-22,2024-01-22,共同都市計画株式会社,,株式会社,東京都,足立区,千住３丁目６番地ツオード千住,,13,121,1200034,,,2024-01-22,登記官による閉鎖,,,2015-10-05,1,,,,,,0
2704,9011801026876,登記記録の閉鎖等,0,2024-01-22,2024-01-22,株式会社リビデ,,株式会社,東京都,足立区,千住旭町４３番４号－１０１,,13,121,1200026,,,2024-01-22,登記官による閉鎖,,,2015-10-05,1,,,,,,0
2705,9011802007883,登記記録の閉鎖等,0,2024-01-22,2024-01-22,有限会社森田鉄工所,,有限会社,東京都,葛飾区,東四つ木４丁目４２番１１号,,13,122,1240014,,,2024-01-22,登記官による閉鎖,,,2015-10-05,1,,,,,,0
2706,9011802009789,登記記録の閉鎖等,0,2024-01-22,2024-01-22,有限会社一望工芸,,有限会社,東京都,足立区,千住宮元町１番４号,,13,121,1200043,,,2024-01-22,登記官による閉鎖,,,2015-10-05,1,,,,,,0
2707,9011802011010,登記記録の閉鎖等,0,2024-01-22,2024-01-22,有限会社オガワ,,有限会社,東京都,足立区,千住龍田町１０番８号,,13,121,1200042,,,2024-01-22,登記官による閉鎖,,,2015-10-05,1,,,,,,0
2708,9011802015837,登記記録の閉鎖等,0,2024-01-22,2024-01-22,有限会社土屋製作所,,有限会社,東京都,足立区,柳原１丁目２５番７号,,13,121,1200022,,,2024-01-22,登記官による閉鎖,,,2015-10-05,1,,,,,,0
2709,9011802021471,登記記録の閉鎖等,0,2024-01-22,2024-01-22,有限会社アスカ,,有限会社,東京都,足立区,神明２丁目９番１４号,,13,121,1210051,,,2024-01-22,登記官による閉鎖,,,2015-10-05,1,,,,,,0
2710,9011802027873,登記記録の閉鎖等,0,2024-01-22,2024-01-22,有限会社奥田興業,,有限会社,東京都,足立区,鹿浜７丁目２５番１５－６０５号,,13,121,1230864,,,2024-01-22,登記官による閉鎖,,,2015-10-05,1,,,,,,0
2712,9011805000010,登記記録の閉鎖等,0,2024-01-22,2024-01-22,社団法人心学参前舎,,その他の設立登記法人,東京都,足立区,栗原２丁目２１番１２号,,13,121,1230842,,,2024-01-22,登記官による閉鎖,,,2015-10-05,1,,,,,,0
2713,9011805000621,登記記録の閉鎖等,0,2024-01-22,2024-01-22,医療法人社団浩志会,,その他の設立登記法人,東京都,足立区,西竹の塚１丁目１３番９号市川ビル１階,,13,121,1210822,,,2024-01-22,登記官による閉鎖,,,2015-10-05,1,,,,,,0
2714,9011805001933,登記記録の閉鎖等,0,2024-01-22,2024-01-22,特定非営利活動法人避難誘導標識普及促進協議会,,その他の設立登記法人,東京都,葛飾区,西亀有４丁目１３番６号,,13,122,1250002,,,2024-01-22,登記官による閉鎖,,,2015-10-05,1,,,,,,0
2716,9012402019641,登記記録の閉鎖等,0,2024-01-22,2024-01-17,有限会社ヘアーサロンありがとう,,有限会社,東京都,三鷹市,井の頭２丁目２６番３１号,,13,204,1810001,,,2024-01-17,清算の結了等,,,2015-10-05,1,,,,,ヘアーサロンアリガトウ,0
2732,9020001043343,登記記録の閉鎖等,0,2024-01-22,2024-01-16,三洋製版印刷株式会社,,株式会社,神奈川県,横浜市神奈川区,神大寺２丁目１番３号,,14,102,2210801,,,2024-01-16,清算の結了等,,,2015-10-05,1,,,,,サンヨウセイハンインサツ,0
2738,9020002032345,登記記録の閉鎖等,0,2024-01-22,2023-12-28,シナリーボニータ有限会社,,有限会社,神奈川県,横浜市港北区,大豆戸町２２番地,,14,109,2220032,,,2023-12-28,清算の結了等,,,2015-10-05,1,,,,,シナリーボニータ,0
2739,9020002074841,登記記録の閉鎖等,0,2024-01-22,2024-01-16,有限会社下谷工務店,,有限会社,神奈川県,横浜市金沢区,寺前２丁目１６番９号,,14,108,2360014,,,2024-01-16,清算の結了等,,,2015-10-05,1,,,,,シタヤコウムテン,0
2746,9021001039265,登記記録の閉鎖等,0,2024-01-22,2024-01-17,株式会社山忠,,株式会社,神奈川県,平塚市,豊田本郷１５４２番地,,14,203,2540087,,,2024-01-17,清算の結了等,,,2015-10-05,1,,,,,ヤマチュウ,0
2767,9030002055675,登記記録の閉鎖等,0,2024-01-22,2024-01-15,有限会社ケイエステーネットワーク,,有限会社,埼玉県,桶川市,上日出谷南２丁目２番地の１６,,11,231,3630020,,,2024-01-15,清算の結了等,,,2015-10-05,1,,,,,ケイエステーネットワーク,0
2771,9040001015786,登記記録の閉鎖等,0,2024-01-22,2024-01-11,株式会社予備校ｄｏ,,株式会社,千葉県,千葉市中央区,南町２丁目１５番１９号,,12,101,2600842,,,2024-01-11,清算の結了等,,,2015-10-05,1,,,,,ヨビコウドゥ,0
2781,9040002045353,登記記録の閉鎖等,0,2024-01-22,2024-01-09,協立電業有限会社,,有限会社,千葉県,松戸市,中金杉１丁目２１８番地２,,12,207,2700007,,,2024-01-09,清算の結了等,,,2015-10-05,1,,,,,キョウリツデンギョウ,0
2799,9080401021117,登記記録の閉鎖等,0,2024-01-22,2024-01-11,株式会社ＫＹＴジャパン,,株式会社,静岡県,浜松市中央区,笠井町１５３８番地１,,22,138,4313107,,,2024-01-11,清算の結了等,,,2015-10-23,1,,,,,ケーワイティージャパン,0
2806,9090002008000,登記記録の閉鎖等,0,2024-01-22,2024-01-19,有限会社内田紙工印刷,,有限会社,山梨県,甲府市,中央２丁目７番２８号,,19,201,4000032,,,2024-01-19,清算の結了等,,,2015-10-05,1,,,,,ウチダシコウインサツ,0
2812,9110001013642,登記記録の閉鎖等,0,2024-01-22,2023-12-21,株式会社モリケン,,株式会社,新潟県,北蒲原郡聖籠町,大字網代浜２５１２番地１,,15,307,9570103,,,2023-12-21,清算の結了等,,,2023-07-31,1,,,,,モリケン,0
2817,9110005002674,登記記録の閉鎖等,0,2024-01-22,2024-01-18,医療法人社団幸人会,,その他の設立登記法人,新潟県,新潟市秋葉区,大関２４２番地１,,15,105,9560827,,,2024-01-18,清算の結了等,,,2015-10-05,1,,,,,コウジンカイ,0
2832,9120005017127,登記記録の閉鎖等,0,2024-01-22,2024-01-19,一般社団法人住まい評価推進機構,,その他の設立登記法人,大阪府,大阪市中央区,谷町１丁目７番４号,,27,128,5400012,,,2024-01-19,清算の結了等,,,2015-10-05,1,,,,,スマイヒョウカスイシンキコウ,0
2842,9130001021016,登記記録の閉鎖等,0,2024-01-22,2024-01-05,ジェイサポート株式会社,,株式会社,京都府,京都市中京区,車屋町通二条下る仁王門突抜町３２５番地,,26,104,6040841,,,2024-01-05,合併による解散等,2130001020692,令和６年１月１日京都市中京区車屋町通二条下ル仁王門突抜町３２５番地瑞元ホールディング株式会社（2130001020692）に合併し解散,2015-10-05,1,,,,,ジェイサポート,0
2858,9150001002781,登記記録の閉鎖等,0,2024-01-22,2024-01-19,株式会社ボヌールグループ,,株式会社,奈良県,奈良市,右京３丁目１９番地の２１,,29,201,6310805,,,2024-01-19,登記官による閉鎖,,,2015-10-05,1,,,,,,0
2859,9150001005272,登記記録の閉鎖等,0,2024-01-22,2024-01-19,株式会社吉川組,00042719,株式会社,奈良県,生駒市,高山町１５６８番地,,29,209,6300101,,,2024-01-19,登記官による閉鎖,,,2015-10-05,1,,,,,,0
2860,9150002006996,登記記録の閉鎖等,0,2024-01-22,2024-01-19,有限会社かねます建設,,有限会社,奈良県,桜井市,大字初瀬１５１９番地の１,,29,206,6330112,,,2024-01-19,登記官による閉鎖,,,2015-10-05,1,,,,,,0
2861,9150005005855,登記記録の閉鎖等,0,2024-01-22,2024-01-19,王寺久度商店街協同組合,,その他の設立登記法人,奈良県,北葛城郡王寺町,久度２丁目１３番３号,,29,425,6360003,,,2024-01-19,登記官による閉鎖,,,2015-10-05,1,,,,,,0
2880,9240001000470,登記記録の閉鎖等,0,2024-01-22,2024-01-15,株式会社アスパイヤー,,株式会社,広島県,広島市安佐北区,亀崎４丁目１８番１３号,,34,106,7391742,,,2024-01-15,清算の結了等,,,2015-10-05,1,,,,,アスパイヤー,0
2890,9270001004460,登記記録の閉鎖等,0,2024-01-22,2024-01-22,株式会社プリン,,株式会社,鳥取県,米子市,淀江町佐陀１３５７番地６,,31,202,6893425,,,2024-01-22,登記官による閉鎖,,,2015-10-05,1,,,,,,0
2891,9270002007719,登記記録の閉鎖等,0,2024-01-22,2024-01-22,小島屋商事有限会社,,有限会社,鳥取県,境港市,本町３１番地,,31,204,6840025,,,2024-01-22,登記官による閉鎖,,,2015-10-05,1,,,,,,0
2892,9270002007883,登記記録の閉鎖等,0,2024-01-22,2024-01-22,日本カンケル有限会社,,有限会社,鳥取県,境港市,昭和町２番地１４,,31,204,6840034,,,2024-01-22,登記官による閉鎖,,,2015-10-05,1,,,,,,0
2893,9270003000524,登記記録の閉鎖等,0,2024-01-22,2024-01-22,伊藤合資会社,,合資会社,鳥取県,米子市,上福原１１６７番地,,31,202,6830004,,,2024-01-22,登記官による閉鎖,,,2015-10-05,1,,,,,,0
2895,9290001079559,登記記録の閉鎖等,0,2024-01-22,2024-01-17,株式会社九基,,株式会社,福岡県,久留米市,津福今町２４８番地４,,40,203,8300061,,,2024-01-17,清算の結了等,,,2017-11-07,1,,,,,キュウキ,0
2908,9300001005439,登記記録の閉鎖等,0,2024-01-22,2024-01-19,株式会社ＲＯＺＡＮ,,株式会社,佐賀県,佐賀市,鍋島３丁目１番２８号,,41,201,8490937,,,2024-01-19,清算の結了等,,,2015-10-05,1,,,,,ロザン,0
2914,9340001002176,登記記録の閉鎖等,0,2024-01-22,2024-01-15,株式会社秀電社,,株式会社,鹿児島県,鹿児島市,薬師１丁目１８番５号,,46,201,8900042,,,2024-01-15,登記官による閉鎖,,,2015-10-05,1,,,,,,0
2915,9340001012373,登記記録の閉鎖等,0,2024-01-22,2024-01-15,株式会社桃郷,,株式会社,鹿児島県,鹿児島市,東開町４番９０,,46,201,8910115,,,2024-01-15,登記官による閉鎖,,,2015-10-05,1,,,,,,0
2916,9340001012729,登記記録の閉鎖等,0,2024-01-22,2024-01-15,株式会社旅荘美波,,株式会社,鹿児島県,南さつま市,笠沙町片浦９６５番地,,46,220,8971301,,,2024-01-15,登記官による閉鎖,,,2015-10-05,1,,,,,,0
2917,9340002002753,登記記録の閉鎖等,0,2024-01-22,2024-01-15,有限会社川村事務所,,有限会社,鹿児島県,鹿児島市,西千石町１６番１９号,,46,201,8920847,,,2024-01-15,登記官による閉鎖,,,2015-10-05,1,,,,,,0
2918,9340002004345,登記記録の閉鎖等,0,2024-01-22,2024-01-15,有限会社笹貫調剤薬局,,有限会社,鹿児島県,鹿児島市,星ヶ峯４丁目８番１２号,,46,201,8910102,,,2024-01-15,登記官による閉鎖,,,2015-10-05,1,,,,,,0
2919,9340002005129,登記記録の閉鎖等,0,2024-01-22,2024-01-15,有限会社白浜塗装,,有限会社,鹿児島県,鹿児島市,自由ヶ丘１丁目４番１号,,46,201,8910106,,,2024-01-15,登記官による閉鎖,,,2015-10-05,1,,,,,,0
2920,9340002005756,登記記録の閉鎖等,0,2024-01-22,2024-01-19,有限会社新生技研,,有限会社,鹿児島県,鹿児島市,清和２丁目１２－１７,,46,201,8910109,,,2024-01-19,清算の結了等,,,2015-10-05,1,,,,,シンセイギケン,0
2921,9340002006622,登記記録の閉鎖等,0,2024-01-22,2024-01-15,有限会社とくだ屋文具,,有限会社,鹿児島県,鹿児島市,上竜尾町２５番１０号,,46,201,8920851,,,2024-01-15,登記官による閉鎖,,,2015-10-05,1,,,,,,0
2922,9340002008783,登記記録の閉鎖等,0,2024-01-22,2024-01-15,有限会社前元,,有限会社,鹿児島県,鹿児島市,平之町１２番２１号,,46,201,8920848,,,2024-01-15,登記官による閉鎖,,,2015-10-05,1,,,,,,0
2923,9340002014757,登記記録の閉鎖等,0,2024-01-22,2024-01-15,有限会社北辰塾,,有限会社,鹿児島県,伊佐市,大口里１９４０番地４,,46,224,8952511,,,2024-01-15,登記官による閉鎖,,,2015-10-05,1,,,,,,0
2924,9340002016258,登記記録の閉鎖等,0,2024-01-22,2024-01-15,有限会社やぐち,,有限会社,鹿児島県,姶良市,蒲生町上久徳２４５１番地５号,00102731,46,225,8995302,,,2024-01-15,登記官による閉鎖,,,2015-10-05,1,,,,,,0
2927,9340002023725,登記記録の閉鎖等,0,2024-01-22,2024-01-15,有限会社旅館大洋館,,有限会社,鹿児島県,南さつま市,笠沙町片浦９６５番地,,46,220,8971301,,,2024-01-15,登記官による閉鎖,,,2015-10-05,1,,,,,,0
2928,9340002025432,登記記録の閉鎖等,0,2024-01-22,2024-01-15,郷原設備有限会社,,有限会社,鹿児島県,鹿屋市,大浦町１４１７７番地３,,46,203,8930067,,,2024-01-15,登記官による閉鎖,,,2015-10-05,1,,,,,,0
2929,9340002026983,登記記録の閉鎖等,0,2024-01-22,2024-01-15,有限会社山元製油,,有限会社,鹿児島県,鹿屋市,上野町４８２６番地,,46,203,8930056,,,2024-01-15,登記官による閉鎖,,,2018-05-16,1,,,,,ヤマモトセイユ,0
2930,9340003000574,登記記録の閉鎖等,0,2024-01-22,2024-01-15,合資会社福原工業,,合資会社,鹿児島県,伊佐市,菱刈前目２２４８番地,,46,224,8952701,,,2024-01-15,登記官による閉鎖,,,2015-10-05,1,,,,,,0
2931,9340003001077,登記記録の閉鎖等,0,2024-01-22,2024-01-15,合資会社ふるさと農園,,合資会社,鹿児島県,出水市,高尾野町江内７９０７番地２,,46,208,8990407,,,2024-01-15,登記官による閉鎖,,,2015-10-05,1,,,,,,0
2932,9340005002346,登記記録の閉鎖等,0,2024-01-22,2024-01-15,特定非営利活動法人総合スポーツクラブコンソルテ指宿,,その他の設立登記法人,鹿児島県,鹿児島市,中山１丁目７番６号（第２中山ハイツ２０１号）,,46,201,8910108,,,2024-01-15,登記官による閉鎖,,,2015-10-05,1,,,,,,0
2933,9340005003542,登記記録の閉鎖等,0,2024-01-22,2023-12-26,税理士法人ＨＩＴＯＴＯパートナーズ,,その他の設立登記法人,鹿児島県,薩摩川内市,平佐町１６７７番地１,,46,215,8950012,,,2023-12-26,合併による解散等,5120005020910,令和５年１２月１９日大阪市北区太融寺町３番２４号ミカタ税理士法人（5120005020910）に合併し解散,2015-10-05,1,,,,,ヒトトパートナーズ,0
2934,9350002000673,登記記録の閉鎖等,0,2024-01-22,2024-01-16,有限会社エネルギー研究所,,有限会社,宮崎県,西諸県郡高原町,大字西麓４６８４番地鹿児山団地５７棟１－１,,45,361,8894412,,,2024-01-16,清算の結了等,,,2015-10-05,1,,,,,エネルギーケンキュウジョ,0
2936,9360001015267,登記記録の閉鎖等,0,2024-01-22,2024-01-12,株式会社ワールドゲート,,株式会社,沖縄県,宜野湾市,我如古３丁目１５番２７号１Ｆ,,47,205,9012214,,,2024-01-12,登記官による閉鎖,,,2015-10-05,1,,,,,,0
2937,9360002005234,登記記録の閉鎖等,0,2024-01-22,2024-01-12,有限会社大翔建設,00101542,有限会社,沖縄県,那覇市,泊３丁目１４番１０号,,47,201,9000012,,,2024-01-12,登記官による閉鎖,,,2015-10-05,1,,,,,,0
2938,9360002009838,登記記録の閉鎖等,0,2024-01-22,2024-01-12,有限会社東邦企画,,有限会社,沖縄県,中頭郡西原町,上原１丁目７番地の９,,47,329,9030125,,,2024-01-12,登記官による閉鎖,,,2015-10-05,1,,,,,,0
2939,9360002012742,登記記録の閉鎖等,0,2024-01-22,2024-01-12,有限会社アーノエンタープライズ,,有限会社,沖縄県,うるま市,字高江洲７８６番地,,47,213,9042242,,,2024-01-12,登記官による閉鎖,,,2015-10-05,1,,,,,,0
2940,9360002014697,登記記録の閉鎖等,0,2024-01-22,2024-01-12,有限会社エヌケイソフト,,有限会社,沖縄県,浦添市,伊祖３丁目８番１号,,47,208,9012132,,,2024-01-12,登記官による閉鎖,,,2015-10-05,1,,,,,,0
2941,9360003004730,登記記録の閉鎖等,0,2024-01-22,2024-01-12,合資会社宮里観光サービス,,合資会社,沖縄県,国頭郡本部町,字山川４６３番地,,47,308,9050205,,,2024-01-12,登記官による閉鎖,,,2015-10-05,1,,,,,,0
2944,9360005000488,登記記録の閉鎖等,0,2024-01-22,2024-01-12,農事組合法人ダイエイインダストリー組合,,その他の設立登記法人,沖縄県,那覇市,松山１丁目２７番地の１,,47,201,9000032,,,2024-01-12,登記官による閉鎖,,,2015-10-05,1,,,,,,0
2945,9360005002162,登記記録の閉鎖等,0,2024-01-22,2024-01-12,社団法人平安座区共同墓地管理組合,,その他の設立登記法人,沖縄県,うるま市,与那城平安座４０９番地の２,,47,213,9042426,,,2024-01-12,登記官による閉鎖,,,2015-10-05,1,,,,,,0
2946,9360005002336,登記記録の閉鎖等,0,2024-01-22,2024-01-12,沖縄有機・特別栽培農産物出荷協同組合,,その他の設立登記法人,沖縄県,沖縄市,泡瀬１丁目３０番２９号,,47,211,9042172,,,2024-01-12,登記官による閉鎖,,,2015-10-05,1,,,,,,0
2947,9360005002427,登記記録の閉鎖等,0,2024-01-22,2024-01-12,財団法人沖縄ヘアースタイリスト学院,,その他の設立登記法人,沖縄県,中頭郡中城村,字登又１３４番地１,,47,328,9012421,,,2024-01-12,登記官による閉鎖,,,2015-10-05,1,,,,,,0
2963,9470001001553,登記記録の閉鎖等,0,2024-01-22,2024-01-10,三栄株式会社,,株式会社,香川県,高松市,藤塚町１丁目１２番３１号,,37,201,7600071,,,2024-01-10,登記官による閉鎖,,,2015-10-05,1,,,,,,0
2964,9470001002188,登記記録の閉鎖等,0,2024-01-22,2024-01-10,株式会社主婦センター,,株式会社,香川県,高松市,扇町１丁目２８番２２号,,37,201,7600013,,,2024-01-10,登記官による閉鎖,,,2015-10-05,1,,,,,,0
2965,9470002003053,登記記録の閉鎖等,0,2024-01-22,2024-01-10,有限会社三協電気工業所,,有限会社,香川県,高松市,松福町１丁目１１番１８号,,37,201,7600067,,,2024-01-10,登記官による閉鎖,,,2015-10-05,1,,,,,,0
2967,9470002009901,登記記録の閉鎖等,0,2024-01-22,2024-01-10,有限会社太田建設,,有限会社,香川県,高松市,国分寺町柏原５４番地３,,37,201,7690105,,,2024-01-10,登記官による閉鎖,,,2015-10-05,1,,,,,,0
2968,9470002012244,登記記録の閉鎖等,0,2024-01-22,2024-01-10,有限会社松繁美吉堂,,有限会社,香川県,丸亀市,通町１４１番地,,37,202,7630043,,,2024-01-10,登記官による閉鎖,,,2015-10-05,1,,,,,,0
2971,9500001007448,登記記録の閉鎖等,0,2024-01-22,2024-01-19,株式会社あらいぶねっと．,,株式会社,愛媛県,東温市,則之内乙２５７３番地３,,38,215,7910312,,,2024-01-19,清算の結了等,,,2015-10-05,1,,,,,アライブネット,0
