sequenceNumber,corporateNumber,process,correct,updateDate,changeDate,name,nameImageId,kind,prefectureName,cityName,streetNumber,addressImageId,prefectureCode,cityCode,postCode,addressOutside,addressOutsideImageId,closeDate,closeCause,successorCorporateNumber,changeCause,assignmentDate,latest,enName,enPrefectureName,enCityName,enAddressOutside,furigana,hihyoji
3,1010001240221,新規,0,2023-12-06,2023-12-06,株式会社ＴＯＫＵＭＡＳＡ,,株式会社,東京都,文京区,小石川２丁目９番４号山上国際学寮１０１,,13,105,1120002,,,,,,,2023-12-06,1,,,,,トクマサ,0
4,1010001240543,新規,0,2023-12-06,2023-12-06,富成株式会社,,株式会社,東京都,中央区,入船２丁目３番７号,,13,102,1040042,,,,,,,2023-12-06,1,,,,,トミナリ,0
5,1010001240551,新規,0,2023-12-06,2023-12-06,株式会社ＨＫ,,株式会社,東京都,千代田区,内神田２丁目１４番１３号高芳ビルＢ１Ｆ,,13,101,1010047,,,,,,,2023-12-06,1,,,,,エイチケー,0
6,1010003042376,新規,0,2023-12-06,2023-12-06,合同会社リプロ,,合同会社,東京都,千代田区,神田和泉町１－６－１６,,13,101,1010024,,,,,,,2023-12-06,1,,,,,リプロ,0
22,1010401178870,新規,0,2023-12-06,2023-12-06,ＡＣＹＧＳ　ＪＡＰＡＮ株式会社,,株式会社,東京都,港区,新橋４丁目２７番１０号酒井ビル７Ｆ,,13,103,1050004,,,,,,,2023-12-06,1,,,,,アシグスジャパン,0
23,1010401178904,新規,0,2023-12-06,2023-12-06,ＴＯＫＹＯ　ＣＯＭＰＡＮＹ株式会社,,株式会社,東京都,港区,南青山１丁目１７番１１号,,13,103,1070062,,,,,,,2023-12-06,1,,,,,トウキョウカンパニー,0
24,1010401178929,新規,0,2023-12-06,2023-12-06,株式会社リアイアム,,株式会社,東京都,港区,浜松町２丁目５番５号ＰＭＯ浜松町１１階,,13,103,1050013,,,,,,,2023-12-06,1,,,,,リアイアム,0
25,1010403031499,新規,0,2023-12-06,2023-12-06,合同会社ｕｓ,,合同会社,東京都,港区,西麻布３丁目２１番２２号イニシアイオ西麻布１２０３,,13,103,1060031,,,,,,,2023-12-06,1,,,,,アス,0
29,1010601064268,新規,0,2023-12-06,2023-12-06,株式会社玻璃匠山田硝子,,株式会社,東京都,墨田区,立花１丁目４番１４号,,13,107,1310043,,,,,,,2023-12-06,1,,,,,ハリショウヤマダガラス,0
30,1010601064284,新規,0,2023-12-06,2023-12-06,株式会社イグナイト東京,,株式会社,東京都,江東区,青海２丁目７－４ｔｈｅＳＯＨＯ１３１８,,13,108,1350064,,,,,,,2023-12-06,1,,,,,イグナイトトウキョウ,0
32,1010701045218,新規,0,2023-12-06,2023-12-06,株式会社ジェイスコープ,,株式会社,東京都,品川区,南大井６丁目２８番１号,,13,109,1400013,,,,,,,2023-12-06,1,,,,,ジェイスコープ,0
33,1010701045226,新規,0,2023-12-06,2023-12-06,株式会社Ｓａｂａｂ,,株式会社,東京都,品川区,上大崎３丁目１０－２７－１０１,,13,109,1410021,,,,,,,2023-12-06,1,,,,,サバブ,0
35,1010801034574,新規,0,2023-12-06,2023-12-06,株式会社イエローコミュニケーションズ,,株式会社,東京都,大田区,南馬込６丁目２１番１０号,,13,111,1430025,,,,,,,2023-12-06,1,,,,,イエローコミュニケーションズ,0
40,1010901054290,新規,0,2023-12-06,2023-12-06,株式会社ＴＳパートナーズ,,株式会社,東京都,世田谷区,上馬１丁目１５－１０,,13,112,1540011,,,,,,,2023-12-06,1,,,,,ティーエスパートナーズ,0
41,1010903008633,新規,0,2023-12-06,2023-12-06,合同会社ＢＥＢＯＰ,,合同会社,東京都,世田谷区,八幡山３丁目３６番７号プライム八幡山３０２,,13,112,1560056,,,,,,,2023-12-06,1,,,,,ビバップ,0
45,1011001158593,新規,0,2023-12-06,2023-12-06,株式会社ＥＮＡ演技の森,,株式会社,東京都,目黒区,八雲２丁目２１番２－２０７号,,13,110,1520023,,,,,,,2023-12-06,1,,,,,エナエンギノモリ,0
48,1011003018052,新規,0,2023-12-06,2023-12-06,ソークールジャパン合同会社,,合同会社,東京都,渋谷区,神宮前６丁目２３番４号桑野ビル２階,,13,113,1500001,,,,,,,2023-12-06,1,,,,,ソークールジャパン,0
53,1011101105330,新規,0,2023-12-06,2023-12-06,綾部商事株式会社,,株式会社,東京都,新宿区,高田馬場３丁目８番３１号,,13,104,1690075,,,,,,,2023-12-06,1,,,,,アヤベショウジ,0
54,1011101105363,新規,0,2023-12-06,2023-12-06,株式会社池真,,株式会社,東京都,新宿区,四谷３丁目３番７号,,13,104,1600004,,,,,,,2023-12-06,1,,,,,イケシン,0
60,1011501030021,新規,0,2023-12-06,2023-12-06,株式会社ＫＡＴＡＯＭＯＩ,,株式会社,東京都,荒川区,東日暮里４丁目２７－１１,,13,118,1160014,,,,,,,2023-12-06,1,,,,,,0
64,1011801043458,新規,0,2023-12-06,2023-12-06,株式会社エイセイ,,株式会社,東京都,足立区,西新井栄町１丁目１９番３１－２００２号,,13,121,1230843,,,,,,,2023-12-06,1,,,,,エイセイ,0
66,1011803005976,新規,0,2023-12-06,2023-12-06,合同会社なごみコンサルティング,,合同会社,東京都,足立区,梅島３丁目３３番６号エンブレム西新井２階７号室,,13,121,1210816,,,,,,,2023-12-06,1,,,,,ナゴミコンサルティング,0
79,1012803003243,新規,0,2023-12-06,2023-12-06,サルカ合同会社,,合同会社,東京都,立川市,錦町４丁目４番１号第２寿マンション５０２号,,13,202,1900022,,,,,,,2023-12-06,1,,,,,サルカ,0
93,1020001154734,新規,0,2023-12-06,2023-12-06,株式会社クオーレ,,株式会社,神奈川県,横浜市磯子区,田中１丁目２１番３０－４０８号,,14,107,2350035,,,,,,,2023-12-06,1,,,,,クオーレ,0
94,1020001154759,新規,0,2023-12-06,2023-12-06,株式会社Ｙ・Ｈ,,株式会社,神奈川県,横浜市磯子区,馬場町４番２５－２号,,14,107,2350002,,,,,,,2023-12-06,1,,,,,ワイエイチ,0
113,1030001157488,新規,0,2023-12-06,2023-12-06,株式会社ＡＢＺ,,株式会社,埼玉県,吉川市,中野１９番地６,,11,243,3420042,,,,,,,2023-12-06,1,,,,,エービーズィー,0
123,1040001131161,新規,0,2023-12-06,2023-12-06,株式会社相楽企画,,株式会社,千葉県,千葉市美浜区,高洲４丁目３番１棟５０４号,,12,106,2610004,,,,,,,2023-12-06,1,,,,,サガラキカク,0
124,1040001131228,新規,0,2023-12-06,2023-12-06,Ｓａｎｄｏｓａ　Ｊａｐａｎ株式会社,,株式会社,千葉県,柏市,東上町１番２－２０１号,,12,217,2770011,,,,,,,2023-12-06,1,,,,,サンドーシャジャパン,0
125,1040001131236,新規,0,2023-12-06,2023-12-06,株式会社ウェルシー,,株式会社,千葉県,香取市,佐原イ４２４番地３,,12,236,2870003,,,,,,,2023-12-06,1,,,,,ウェルシー,0
131,1040003023852,新規,0,2023-12-06,2023-12-06,ソリアード合同会社,,合同会社,千葉県,浦安市,舞浜２丁目４３番６号,,12,227,2790031,,,,,,,2023-12-06,1,,,,,ソリアード,0
132,1040003023860,新規,0,2023-12-06,2023-12-06,合同会社ナナヨン,,合同会社,千葉県,市川市,本行徳１７番２２－１０６号,,12,203,2720103,,,,,,,2023-12-06,1,,,,,ナナヨン,0
133,1040003023869,新規,0,2023-12-06,2023-12-06,合同会社オフィス近野,,合同会社,千葉県,野田市,みずき３丁目３番１６号,,12,208,2780027,,,,,,,2023-12-06,1,,,,,オフィスコンノ,0
150,1100001037022,新規,0,2023-12-06,2023-12-06,信良産業株式会社,,株式会社,長野県,長野市,篠ノ井布施高田２９２番地８,,20,201,3888007,,,,,,,2023-12-06,1,,,,,シンリョウサンギョウ,0
151,1100001037030,新規,0,2023-12-06,2023-12-06,ジェイルス株式会社,,株式会社,長野県,松本市,大手４丁目７番１３号,,20,202,3900874,,,,,,,2023-12-06,1,,,,,ジェイルス,0
162,1120001260299,新規,0,2023-12-06,2023-12-06,株式会社Ｍｉｎｅｓｈａｆｔ,,株式会社,大阪府,大阪市北区,豊崎４丁目６番２２－９０２号,,27,127,5310072,,,,,,,2023-12-06,1,,,,,マインシャフト,0
163,1120001260340,新規,0,2023-12-06,2023-12-06,飛米株式会社,,株式会社,大阪府,大阪市大正区,三軒家西３丁目４番１６号中山ビル１０５４,,27,108,5510001,,,,,,,2023-12-06,1,,,,,ヒベイ,0
164,1120001260349,新規,0,2023-12-06,2023-12-06,株式会社ＳＩＯＮ,,株式会社,大阪府,大阪市西区,立売堀４丁目６番２０号,,27,106,5500012,,,,,,,2023-12-06,1,,,,,シオン,0
165,1120001260357,新規,0,2023-12-06,2023-12-06,株式会社ＥＬＥＣＴＲＵＳＴ,,株式会社,大阪府,枚方市,長尾元町４丁目１１番１－１０１号,,27,210,5730163,,,,,,,2023-12-06,1,,,,,エレクトラスト,0
166,1120001260365,新規,0,2023-12-06,2023-12-06,アサヒトネリコ株式会社,,株式会社,大阪府,大阪市旭区,今市１丁目４番２５号,,27,117,5350011,,,,,,,2023-12-06,1,,,,,アサヒトネリコ,0
167,1120001260415,新規,0,2023-12-06,2023-12-06,株式会社ｔｎｙ,,株式会社,大阪府,大阪市東成区,大今里南２丁目５番２２号グレースコート１０２号,,27,115,5370013,,,,,,,2023-12-06,1,,,,,ティーエヌワイ,0
168,1120001260431,新規,0,2023-12-06,2023-12-06,株式会社豊クリエイト,,株式会社,大阪府,大阪市北区,西天満３丁目４番１２号,,27,127,5300047,,,,,,,2023-12-06,1,,,,,ユタカクリエイト,0
169,1120001260464,新規,0,2023-12-06,2023-12-06,孟晏株式会社,,株式会社,大阪府,大阪市中央区,内本町２丁目４番１０－１０５号,,27,128,5400026,,,,,,,2023-12-06,1,,,,,モウアン,0
170,1120001260497,新規,0,2023-12-06,2023-12-06,株式会社ｐｕｒｅｌｉｇｈｔｉｎｇ,,株式会社,大阪府,大阪市中央区,本町２丁目３番４号アソルティ本町４Ｆ,,27,128,5410053,,,,,,,2023-12-06,1,,,,,ピュアライティング,0
179,1120101068626,新規,0,2023-12-06,2023-12-06,株式会社エス・ワイ・ワークス,,株式会社,大阪府,堺市東区,高松５１９番地１,,27,143,5998121,,,,,,,2023-12-06,1,,,,,エスワイワークス,0
180,1120101068634,新規,0,2023-12-06,2023-12-06,樹航グリーン株式会社,,株式会社,大阪府,羽曳野市,桃山台２丁目２番２５号,,27,222,5830873,,,,,,,2023-12-06,1,,,,,ジュコウグリーン,0
182,1120901048439,新規,0,2023-12-06,2023-12-06,株式会社ニシテク,,株式会社,大阪府,吹田市,広芝町１０番８号,,27,205,5640052,,,,,,,2023-12-06,1,,,,,ニシテク,0
200,1140001132562,新規,0,2023-12-06,2023-12-06,株式会社Ｄｒｏｐ　ｉｎ,,株式会社,兵庫県,神戸市灘区,岩屋北町４丁目４番１２号,,28,102,6570846,,,,,,,2023-12-06,1,,,,,ドロップイン,0
201,1140001132579,新規,0,2023-12-06,2023-12-06,株式会社エルトクローバー,,株式会社,兵庫県,神戸市中央区,浜辺通６丁目１番１－１０１２号,,28,110,6510083,,,,,,,2023-12-06,1,,,,,エルトクローバー,0
202,1140001132604,新規,0,2023-12-06,2023-12-06,株式会社ＤＡＷＯＯＤ　ＴＲＡＤＩＮＧ,,株式会社,兵庫県,神戸市西区,神出町勝成１１６番地の２４,,28,111,6512301,,,,,,,2023-12-06,1,,,,,ダウードトレーディング,0
207,1170005007056,新規,0,2023-12-06,2023-12-06,特定非営利活動法人翼の学校,,その他の設立登記法人,和歌山県,和歌山市,朝日８５４番地２,,30,201,6400344,,,,,,,2023-12-06,1,,,,,ツバサノガッコウ,0
211,1180001159123,新規,0,2023-12-06,2023-12-06,株式会社リーフレクト,,株式会社,愛知県,名古屋市千種区,竹越１丁目４番９号,,23,101,4640007,,,,,,,2023-12-06,1,,,,,リーフレクト,0
212,1180001159189,新規,0,2023-12-06,2023-12-06,株式会社ａｆｆｉｎｉｔｙ,,株式会社,愛知県,東海市,高横須賀町呉天石７１番地,,23,222,4770037,,,,,,,2023-12-06,1,,,,,アフィニティ,0
214,1180003026040,新規,0,2023-12-06,2023-12-06,合同会社ＣＭＬ,,合同会社,愛知県,一宮市,今伊勢町新神戸字郷中２０番地２,,23,203,4910052,,,,,,,2023-12-06,1,,,,,シーエムエル,0
221,1200003006171,新規,0,2023-12-06,2023-12-06,合同会社Ａｒｋａｄｉａ,,合同会社,岐阜県,岐阜市,問屋町２丁目７番地４問屋町二丁目ビル,,21,201,5008845,,,,,,,2023-12-06,1,,,,,アルカディア,0
222,1240001062493,新規,0,2023-12-06,2023-12-06,株式会社橋本商事,,株式会社,広島県,福山市,蔵王町１丁目９番２６号２０２,,34,207,7210971,,,,,,,2023-12-06,1,,,,,ハシモトショウジ,0
223,1240001062502,新規,0,2023-12-06,2023-12-06,株式会社トープラ建物,,株式会社,広島県,広島市安佐南区,伴東１丁目２２番２２－４号,,34,105,7313164,,,,,,,2023-12-06,1,,,,,トープラタテモノ,0
224,1240001062510,新規,0,2023-12-06,2023-12-06,株式会社ＬＵＸＣＩＡ,,株式会社,広島県,福山市,霞町１丁目７番８号,,34,207,7200812,,,,,,,2023-12-06,1,,,,,ルクシア,0
226,1250001020418,新規,0,2023-12-06,2023-12-06,株式会社ａｍｓ,,株式会社,山口県,宇部市,東梶返４丁目７番１０号,,35,202,7550039,,,,,,,2023-12-06,1,,,,,エイエムエス,0
231,1260001038525,新規,0,2023-12-06,2023-12-06,ＢＯＮＨＥＵＲ株式会社,,株式会社,岡山県,岡山市北区,神田町１丁目９番１９号,,33,101,7000935,,,,,,,2023-12-06,1,,,,,ボヌール,0
232,1260001038533,新規,0,2023-12-06,2023-12-06,ティーエスホールディングス株式会社,,株式会社,岡山県,岡山市北区,牟佐２９１５番地の１,,33,101,7012141,,,,,,,2023-12-06,1,,,,,ティーエスホールディングス,0
237,1290001103929,新規,0,2023-12-06,2023-12-06,エコーデリカ株式会社,,株式会社,福岡県,福岡市博多区,博多駅東２丁目１３番３４号,,40,132,8120013,,,,,,,2023-12-06,1,,,,,エコーデリカ,0
238,1290001103945,新規,0,2023-12-06,2023-12-06,株式会社アステラワン,,株式会社,福岡県,那珂川市,大字山田４７８番地８,,40,231,8111244,,,,,,,2023-12-06,1,,,,,アステラワン,0
243,1290003014686,新規,0,2023-12-06,2023-12-06,合同会社Ｍｙ　Ｔｒｕｓｔ　ＲＥ,,合同会社,福岡県,福岡市城南区,茶山４丁目２２番３号,,40,136,8140111,,,,,,,2023-12-06,1,,,,,マイトラストアールイー,0
244,1290003014694,新規,0,2023-12-06,2023-12-06,合同会社ｍｔｓ,,合同会社,福岡県,筑紫野市,湯町１丁目１９－１エバーライフ武蔵野２０７,,40,217,8180058,,,,,,,2023-12-06,1,,,,,エムティーエス,0
248,1290801030100,新規,0,2023-12-06,2023-12-06,株式会社ＷＩＳＥ,,株式会社,福岡県,北九州市小倉南区,企救丘２丁目３番１－３０７号,,40,107,8020981,,,,,,,2023-12-06,1,,,,,ワイズ,0
253,1320003004246,新規,0,2023-12-06,2023-12-06,合同会社リハネス・ライフ,,合同会社,大分県,大分市,里３丁目３番４号,,44,201,8700303,,,,,,,2023-12-06,1,,,,,リハネスライフ,0
254,1330001031547,新規,0,2023-12-06,2023-12-06,株式会社エム・スペース,,株式会社,熊本県,菊池郡菊陽町,大字津久礼３７２５番地３,,43,404,8691101,,,,,,,2023-12-06,1,,,,,エムスペース,0
256,1330005010729,新規,0,2023-12-06,2023-12-06,医療法人ウェルフロウ,,その他の設立登記法人,熊本県,菊池市,隈府７７５番地,,43,210,8611331,,,,,,,2023-12-06,1,,,,,ウェルフロウ,0
261,1360001032897,新規,0,2023-12-06,2023-12-06,株式会社Ｌａｎｄ,,株式会社,沖縄県,那覇市,上之屋１丁目１８番１２号,,47,201,9000011,,,,,,,2023-12-06,1,,,,,ランド,0
268,1380001034165,新規,0,2023-12-06,2023-12-06,株式会社ボルトワークス,,株式会社,福島県,会津若松市,門田町大字徳久字竹之元１１１３番地の１９,,07,202,9650843,,,,,,,2023-12-06,1,,,,,ボルトワークス,0
269,1390003002169,新規,0,2023-12-06,2023-12-06,ジェイアイエステート合同会社,,合同会社,山形県,南陽市,三間通１３８番地の２,,06,213,9992232,,,,,,,2023-12-06,1,,,,,ジェイアイエステート,0
273,1410003003866,新規,0,2023-12-06,2023-12-06,合同会社三ツ矢工業,,合同会社,秋田県,秋田市,寺内油田２丁目１２番１０号,,05,201,0110903,,,,,,,2023-12-06,1,,,,,ミツヤコウギョウ,0
278,1430001090582,新規,0,2023-12-06,2023-12-06,ラサール＆パートナーズ株式会社,,株式会社,北海道,札幌市豊平区,平岸二条５丁目２番１９号,,01,105,0620932,,,,,,,2023-12-06,1,,,,,ラサールアンドパートナーズ,0
279,1430001090599,新規,0,2023-12-06,2023-12-06,株式会社ＨＡＲＵコーポレーション,,株式会社,北海道,札幌市西区,八軒八条東５丁目５番２１号,,01,107,0630868,,,,,,,2023-12-06,1,,,,,ハルコーポレーション,0
286,1480003002052,新規,0,2023-12-06,2023-12-06,合同会社喜田園芸温室工事,,合同会社,徳島県,徳島市,西新浜町１丁目２番５－２号,,36,201,7708008,,,,,,,2023-12-06,1,,,,,キダエンゲイオンシツコウジ,0
302,2010001240518,新規,0,2023-12-06,2023-12-06,株式会社Ｏｆｆｉｃｅ　Ｕ,,株式会社,東京都,千代田区,神田和泉町１番地６－１６ヤマトビル４０５,,13,101,1010024,,,,,,,2023-12-06,1,,,,,オフィスユー,0
303,2010001240542,新規,0,2023-12-06,2023-12-06,Ｓｕｎｂｕｒｓｔ　Ｃｒｅａｔｉｖｅ株式会社,,株式会社,東京都,千代田区,外神田５丁目１－１０,,13,101,1010021,,,,,,,2023-12-06,1,,,,,サンバーストクリエイティブ,0
304,2010001240550,新規,0,2023-12-06,2023-12-06,アックス・ジーモアコンサルティング株式会社,,株式会社,東京都,中央区,日本橋室町１丁目１１番１２号日本橋水野ビル７階,,13,102,1030022,,,,,,,2023-12-06,1,,,,,アックスジーモアコンサルティング,0
305,2010001240559,新規,0,2023-12-06,2023-12-06,株式会社三京,,株式会社,東京都,千代田区,神田佐久間町２丁目１８番地１秋葉原ＳＴＮフロント１０階,,13,101,1010025,,,,,,,2023-12-06,1,,,,,サンキョウ,0
306,2010001240575,新規,0,2023-12-06,2023-12-06,株式会社ｋ’ｈａｎコーポレーション,,株式会社,東京都,文京区,湯島３丁目３６番８号,,13,105,1130034,,,,,,,2023-12-06,1,,,,,ケイハンコーポレーション,0
307,2010001240591,新規,0,2023-12-06,2023-12-06,ＳｕｒｒｏＢｌｅｎｄ株式会社,,株式会社,東京都,千代田区,神田和泉町１番地６－１６ヤマトビル４０５,,13,101,1010024,,,,,,,2023-12-06,1,,,,,サラブレンド,0
310,2010003042359,新規,0,2023-12-06,2023-12-06,合同会社ＫＨＦ９,,合同会社,東京都,千代田区,内幸町２丁目１番６号,,13,101,1000011,,,,,,,2023-12-06,1,,,,,ケイエイチエフナイン,0
316,2010401178894,新規,0,2023-12-06,2023-12-06,株式会社ＳＯＬＥＩＬ,,株式会社,東京都,港区,六本木５丁目１６番５号インペリアル六本木１号館Ｓ１０３Ｂ号室,,13,103,1060032,,,,,,,2023-12-06,1,,,,,ソレイユ,0
317,2010401178903,新規,0,2023-12-06,2023-12-06,あじと西麻布株式会社,,株式会社,東京都,港区,西麻布３丁目１－２０Ｄｅａｒ西麻布Ｂ１階,,13,103,1060031,,,,,,,2023-12-06,1,,,,,アジトニシアザブ,0
318,2010401178911,新規,0,2023-12-06,2023-12-06,株式会社ＪＥマーケティング,,株式会社,東京都,港区,赤坂６丁目１５番１１号,,13,103,1070052,,,,,,,2023-12-06,1,,,,,ジェイイーマーケティング,0
319,2010401178928,新規,0,2023-12-06,2023-12-06,株式会社ＡＫＡＴＳＵＫＩ,,株式会社,東京都,港区,南青山３丁目１番３６号青山丸竹ビル６Ｆ,,13,103,1070062,,,,,,,2023-12-06,1,,,,,アカツキ,0
320,2010401178936,新規,0,2023-12-06,2023-12-06,株式会社ＩＲＩＳ　Ｃｒｅａｔｉｏｎ,,株式会社,東京都,港区,南青山３丁目１番３６号青山丸竹ビル６Ｆ,,13,103,1070062,,,,,,,2023-12-06,1,,,,,アイリスクリエイション,0
321,2010403031374,新規,0,2023-12-06,2023-12-06,ＥＦＢ合同会社,,合同会社,東京都,港区,北青山１丁目３番１号アールキューブ青山３階,,13,103,1070061,,,,,,,2023-12-06,1,,,,,イーエフビー,0
322,2010403031498,新規,0,2023-12-06,2023-12-06,ＮＴインベストメント合同会社,,合同会社,東京都,港区,浜松町２丁目２番１５号浜松町ダイヤビル２Ｆ,,13,103,1050013,,,,,,,2023-12-06,1,,,,,エヌティーインベストメント,0
325,2010501051472,新規,0,2023-12-06,2023-12-06,株式会社エクスト,,株式会社,東京都,台東区,台東１丁目６番４号,,13,106,1100016,,,,,,,2023-12-06,1,,,,,エクスト,0
327,2010603010500,新規,0,2023-12-06,2023-12-06,合同会社飯田,,合同会社,東京都,江東区,東雲１丁目６番１５－１１１０号,,13,108,1350062,,,,,,,2023-12-06,1,,,,,イイダ,0
331,2010801034581,新規,0,2023-12-06,2023-12-06,株式会社エルライン,,株式会社,東京都,大田区,西蒲田８丁目１６番２号クレッセント蒲田１０２,,13,111,1440051,,,,,,,2023-12-06,1,,,,,エルライン,0
332,2010803004772,新規,0,2023-12-06,2023-12-06,合同会社ａｆｒｅｓｈ,,合同会社,東京都,大田区,山王３丁目１８番２６号グリーン山王１０３,,13,111,1430023,,,,,,,2023-12-06,1,,,,,アフレッシュ,0
333,2010901054298,新規,0,2023-12-06,2023-12-06,株式会社中村友理子デザイン室,,株式会社,東京都,世田谷区,太子堂２丁目１７番５号佐藤ビル３階,,13,112,1540004,,,,,,,2023-12-06,1,,,,,ナカムラユリコデザインシツ,0
336,2010905004547,新規,0,2023-12-06,2023-12-06,一般社団法人若林ゆうクリニック,,その他の設立登記法人,東京都,世田谷区,若林５丁目１４番６号,,13,112,1540023,,,,,,,2023-12-06,1,,,,,ワカバヤシユウクリニック,0
341,2011001158551,新規,0,2023-12-06,2023-12-06,株式会社ＡＢＬＯＯＭ,,株式会社,東京都,渋谷区,桜丘町１３番９号クリエート桜丘センチュリー２１・２０４号室,,13,113,1500031,,,,,,,2023-12-06,1,,,,,アブルーム,0
342,2011001158592,新規,0,2023-12-06,2023-12-06,ＩＰＡグループ株式会社,,株式会社,東京都,渋谷区,神宮前６丁目２３番４号,,13,113,1500001,,,,,,,2023-12-06,1,,,,,アイピーエーグループ,0
343,2011001158618,新規,0,2023-12-06,2023-12-06,ＢＰＢＤ株式会社,,株式会社,東京都,目黒区,目黒３丁目２１番５号,,13,110,1530063,,,,,,,2023-12-06,1,,,,,ビーピービーディー,0
344,2011001158626,新規,0,2023-12-06,2023-12-06,ＭＹＫ株式会社,,株式会社,東京都,渋谷区,東３丁目９番１３－１００３号,,13,113,1500011,,,,,,,2023-12-06,1,,,,,エムワイケー,0
345,2011001158634,新規,0,2023-12-06,2023-12-06,Ｄｅｅｐ４ｑｕｓ株式会社,,株式会社,東京都,渋谷区,円山町５番５号Ｎａｖｉ渋谷Ｖ３階,,13,113,1500044,,,,,,,2023-12-06,1,,,,,ディープフォーカス,0
346,2011001158642,新規,0,2023-12-06,2023-12-06,株式会社ＡＧＧＲＥＡＴｉＶＥ,,株式会社,東京都,目黒区,上目黒２丁目２５番１３号ＥＭＳＳ（エムス）南,,13,110,1530051,,,,,,,2023-12-06,1,,,,,アグレイティブ,0
349,2011101105346,新規,0,2023-12-06,2023-12-06,パラレルワールド株式会社,,株式会社,東京都,新宿区,西新宿３丁目３番１３号西新宿水間ビル２Ｆ,,13,104,1600023,,,,,,,2023-12-06,1,,,,,パラレルワールド,0
350,2011101105354,新規,0,2023-12-06,2023-12-06,株式会社ＣＯＭＰＡＮＹ　Ｈ,,株式会社,東京都,新宿区,大久保１丁目１５番７号カーサ大久保３０４,,13,104,1690072,,,,,,,2023-12-06,1,,,,,カンパニーエイチ,0
354,2011201025089,新規,0,2023-12-06,2023-12-06,株式会社猿蟹,,株式会社,東京都,中野区,上鷺宮５丁目２１番８号,,13,114,1650031,,,,,,,2023-12-06,1,,,,,サルカニ,0
360,2011501030086,新規,0,2023-12-06,2023-12-06,株式会社ａｚｕｌ,,株式会社,東京都,北区,田端新町３丁目１２番９－１２０３号,,13,117,1140012,,,,,,,2023-12-06,1,,,,,アズール,0
370,2011801043399,新規,0,2023-12-06,2023-12-06,ホシ野株式会社,,株式会社,東京都,葛飾区,新小岩３丁目２８番５号,,13,122,1240024,,,,,,,2023-12-06,1,,,,,ホシノ,0
371,2011801043457,新規,0,2023-12-06,2023-12-06,株式会社ｔａｉｋａｎ,,株式会社,東京都,葛飾区,西水元５丁目１５番１８号,,13,122,1250031,,,,,,,2023-12-06,1,,,,,タイカン,0
372,2013101009304,新規,0,2023-12-06,2023-12-06,株式会社ＡＳＴ,,株式会社,東京都,福生市,大字熊川７９４番地９,,13,218,1970003,,,,,,,2023-12-06,1,,,,,エーエスティー,0
374,2013301051725,新規,0,2023-12-06,2023-12-06,智ジャパン株式会社,,株式会社,東京都,豊島区,高田２丁目１１番１１号,,13,116,1710033,,,,,,,2023-12-06,1,,,,,トモジャパン,0
377,2020001154741,新規,0,2023-12-06,2023-12-06,福田株式会社,,株式会社,神奈川県,横浜市港北区,新横浜３丁目１７番地１５リバティー新横浜ビル地下１Ｂ,,14,109,2220033,,,,,,,2023-12-06,1,,,,,フクダ,0
378,2020001154790,新規,0,2023-12-06,2023-12-06,株式会社ＦｕｌＦｉｌｌ,,株式会社,神奈川県,川崎市中原区,上小田中３丁目３番１８号,,14,133,2110053,,,,,,,2023-12-06,1,,,,,フルフィル,0
379,2020003025123,新規,0,2023-12-06,2023-12-06,合同会社ＪＵＭＰ,,合同会社,神奈川県,川崎市川崎区,東田町３番地２４コスモビル３階,,14,131,2100005,,,,,,,2023-12-06,1,,,,,ジャンプ,0
380,2020003025131,新規,0,2023-12-06,2023-12-06,合同会社シックアモー,,合同会社,神奈川県,横浜市中区,本牧宮原２番２５号,,14,104,2310804,,,,,,,2023-12-06,1,,,,,シックアモー,0
384,2021001080894,新規,0,2023-12-06,2023-12-06,株式会社レビン,,株式会社,神奈川県,座間市,栗原中央１丁目２５番５号,,14,216,2520014,,,,,,,2023-12-06,1,,,,,レビン,0
386,2021003013869,新規,0,2023-12-06,2023-12-06,Ｐｏｓｔ　ＦＩ合同会社,,合同会社,神奈川県,平塚市,松風町２５－４０,,14,203,2540812,,,,,,,2023-12-06,1,,,,,ポストエフアイ,0
396,2030003023126,新規,0,2023-12-06,2023-12-06,合同会社アジアトレーディング,,合同会社,埼玉県,入間郡三芳町,大字上富１５５１番地７７,,11,324,3540045,,,,,,,2023-12-06,1,,,,,アジアトレーディング,0
402,2040001131219,新規,0,2023-12-06,2023-12-06,エヌ・エム・シーアソシエイツ株式会社,,株式会社,千葉県,流山市,平和台１丁目８番地の５２,,12,220,2700157,,,,,,,2023-12-06,1,,,,,エヌエムシーアソシエイツ,0
403,2040001131227,新規,0,2023-12-06,2023-12-06,株式会社ＡＵＴＯ　ＺＯＮＥ　ＴＲＡＤＩＮＧ,,株式会社,千葉県,柏市,手賀１４２５番地２,,12,217,2701465,,,,,,,2023-12-06,1,,,,,オートゾーントレーディング,0
406,2040003023851,新規,0,2023-12-06,2023-12-06,ＳＡＴＯコンサルティング合同会社,,合同会社,千葉県,館山市,長須賀１５７番地,,12,205,2940037,,,,,,,2023-12-06,1,,,,,サトウコンサルティング,0
407,2040003023868,新規,0,2023-12-06,2023-12-06,アレスクラー合同会社,,合同会社,千葉県,千葉市緑区,おゆみ野１丁目４２－７,,12,105,2660031,,,,,,,2023-12-06,1,,,,,アレスクラー,0
411,2050001053882,新規,0,2023-12-06,2023-12-06,鴨屋水産株式会社,,株式会社,茨城県,神栖市,波崎９５１３番地,,08,232,3140408,,,,,,,2023-12-06,1,,,,,カモヤスイサン,0
422,2080001026010,新規,0,2023-12-06,2023-12-06,株式会社リベレーション,,株式会社,静岡県,静岡市葵区,北安東５丁目１６番１６号,,22,101,4200881,,,,,,,2023-12-06,1,,,,,リベレーション,0
423,2080005007584,新規,0,2023-12-06,2023-12-06,一般社団法人Ｂ＆Ｉ　ＪＡＰＡＮ　ＣＬＩＮＩＣ,,その他の設立登記法人,静岡県,静岡市葵区,呉服町１丁目４番５号,,22,101,4200031,,,,,,,2023-12-06,1,,,,,ビーアンドアイジャパンクリニック,0
426,2080105006379,新規,0,2023-12-06,2023-12-06,一般社団法人南伊豆創生機構,,その他の設立登記法人,静岡県,賀茂郡南伊豆町,青市１８０２－１０,,22,304,4150151,,,,,,,2023-12-06,1,,,,,ミナミイズソウセイキコウ,0
428,2080403004919,新規,0,2023-12-06,2023-12-06,合同会社黄信,,合同会社,静岡県,菊川市,堀之内１１１３番地の３,,22,224,4390006,,,,,,,2023-12-06,1,,,,,コウシン,0
432,2100003007294,新規,0,2023-12-06,2023-12-06,合同会社Ｇｒｏｗｉｎｄ,,合同会社,長野県,飯田市,元町５４５０番地６,,20,205,3950052,,,,,,,2023-12-06,1,,,,,グローウィンド,0
436,2110003005231,新規,0,2023-12-06,2023-12-06,合同会社あんだんて,,合同会社,新潟県,南蒲原郡田上町,大字原ケ崎新田１７１６番地,,15,361,9591503,,,,,,,2023-12-06,1,,,,,アンダンテ,0
437,2110005017027,新規,0,2023-12-06,2023-12-06,特定非営利活動法人Ｍｕｓｉｃ　ｌｉｆｅ　ｐａｒｔｎｅｒ,,その他の設立登記法人,新潟県,長岡市,寿１丁目４番３３号,,15,202,9400015,,,,,,,2023-12-06,1,,,,,ミュージックライフパートナー,0
445,2120001260356,新規,0,2023-12-06,2023-12-06,株式会社ワンアンドオー,,株式会社,大阪府,大阪市鶴見区,諸口４丁目１０番２１－１１５号,,27,124,5380051,,,,,,,2023-12-06,1,,,,,ワンアンドオー,0
446,2120001260364,新規,0,2023-12-06,2023-12-06,株式会社ＲＥＡＬ,,株式会社,大阪府,大阪市阿倍野区,阿倍野筋２丁目４番５６号,,27,119,5450052,,,,,,,2023-12-06,1,,,,,レアル,0
447,2120001260406,新規,0,2023-12-06,2023-12-06,株式会社Ｔｅｔｏｔｅ,,株式会社,大阪府,大阪市中央区,本町４丁目８－１ＳＤ本町ビル７０２号,,27,128,5410053,,,,,,,2023-12-06,1,,,,,テトテ,0
448,2120001260414,新規,0,2023-12-06,2023-12-06,鋒王国際貿易株式会社,,株式会社,大阪府,大阪市浪速区,戎本町２丁目５番１０号朝日プラザ新今宮１０３号室－Ａ,,27,111,5560013,,,,,,,2023-12-06,1,,,,,ホウオウコクサイ,0
449,2120001260422,新規,0,2023-12-06,2023-12-06,株式会社ＰＯＳＡ,,株式会社,大阪府,大阪市東淀川区,東中島１丁目１８番２６号,,27,114,5330033,,,,,,,2023-12-06,1,,,,,ポーサ,0
450,2120001260439,新規,0,2023-12-06,2023-12-06,合泉株式会社,,株式会社,大阪府,大阪市淀川区,新高４丁目３－１９小林マンション４０１号,,27,123,5320033,,,,,,,2023-12-06,1,,,,,ゴウセン,0
453,2120003025419,新規,0,2023-12-06,2023-12-06,家具レンタルセカンド合同会社,,合同会社,大阪府,大阪市中央区,北浜３丁目５番２２号オリックス淀屋橋ビル７階,,27,128,5410041,,,,,,,2023-12-06,1,,,,,カグレンタルセカンド,0
457,2120101068633,新規,0,2023-12-06,2023-12-06,泉北サークル株式会社,,株式会社,大阪府,堺市南区,深阪南２６８６番地,,27,145,5900103,,,,,,,2023-12-06,1,,,,,センボクサークル,0
458,2120101068641,新規,0,2023-12-06,2023-12-06,株式会社はこぶわ,,株式会社,大阪府,岸和田市,春木泉町１６番１０－４号,,27,202,5960035,,,,,,,2023-12-06,1,,,,,ハコブワ,0
462,2120901048454,新規,0,2023-12-06,2023-12-06,谷山美地株式会社,,株式会社,大阪府,吹田市,江坂町５丁目１１－１０サンシャイン緑地公園２０５室,,27,205,5640063,,,,,,,2023-12-06,1,,,,,タニヤマミチ,0
463,2120903004942,新規,0,2023-12-06,2023-12-06,合同会社ＱＵＩＮＤＹ,,合同会社,大阪府,吹田市,南吹田３丁目９番１４号Ｄ棟,,27,205,5640043,,,,,,,2023-12-06,1,,,,,クインディ,0
467,2130001075415,新規,0,2023-12-06,2023-12-06,聴松株式会社,,株式会社,京都府,京都市左京区,岩倉幡枝町３２８番地２,,26,103,6060015,,,,,,,2023-12-06,1,,,,,テンソン,0
468,2130001075860,新規,0,2023-12-06,2023-12-06,株式会社ワンテック,,株式会社,京都府,京都市伏見区,深草西伊達町８７番地６５パデシオン藤森３０５号,,26,109,6120876,,,,,,,2023-12-06,1,,,,,ワンテック,0
473,2140001132545,新規,0,2023-12-06,2023-12-06,株式会社Ｅａｇｌｅ　Ｈｅａｒｔｓ,,株式会社,兵庫県,神戸市北区,鈴蘭台南町３丁目９番３号アパルトマンサンクフォイユ１０１号室,,28,109,6511113,,,,,,,2023-12-06,1,,,,,イーグルハーツ,0
474,2140001132553,新規,0,2023-12-06,2023-12-06,東陽株式会社,,株式会社,兵庫県,神戸市中央区,加納町６丁目３番１－３１０３号,,28,110,6500001,,,,,,,2023-12-06,1,,,,,トウヨウ,0
475,2140001132561,新規,0,2023-12-06,2023-12-06,株式会社ＫＰＳ,,株式会社,兵庫県,尼崎市,神田中通２丁目２７番地１９シロハイヌ阪神尼崎３０１号室,,28,202,6600884,,,,,,,2023-12-06,1,,,,,ケイピーエス,0
476,2140001132594,新規,0,2023-12-06,2023-12-06,吉村興産株式会社,,株式会社,兵庫県,明石市,小久保２丁目８－１－９０１,,28,203,6730005,,,,,,,2023-12-06,1,,,,,,0
477,2140001132603,新規,0,2023-12-06,2023-12-06,栄馬旅行株式会社,,株式会社,兵庫県,神戸市兵庫区,新開地６丁目３番２２－２０４号,,28,105,6520811,,,,,,,2023-12-06,1,,,,,エイバリョコウ,0
480,2140003019872,新規,0,2023-12-06,2023-12-06,合同会社わんにゃんカンパニー,,合同会社,兵庫県,西宮市,深谷町二丁目５７,,28,204,6620067,,,,,,,2023-12-06,1,,,,,ワンニャンカンパニー,0
482,2160003003049,新規,0,2023-12-06,2023-12-06,合同会社Ｔｏｂｅ　Ｃａｎｂｅ,,合同会社,滋賀県,長浜市,高月町西野１７８７番地,,25,203,5290273,,,,,,,2023-12-06,1,,,,,トゥビィキャンビィ,0
484,2180001159163,新規,0,2023-12-06,2023-12-06,つしま鰻株式会社,,株式会社,愛知県,津島市,下新田町２丁目１３８番地,,23,208,4960875,,,,,,,2023-12-06,1,,,,,ツシマウナギ,0
485,2180001159171,新規,0,2023-12-06,2023-12-06,株式会社島田新聞店,,株式会社,愛知県,名古屋市天白区,大根町４５番地,,23,116,4680024,,,,,,,2023-12-06,1,,,,,シマダシンブンテン,0
486,2180001159213,新規,0,2023-12-06,2023-12-06,株式会社ヒミコ,,株式会社,愛知県,知多郡南知多町,大字内海字長城２１番地８,,23,445,4703321,,,,,,,2023-12-06,1,,,,,ヒミコ,0
490,2180003026064,新規,0,2023-12-06,2023-12-06,エピティヒア合同会社,,合同会社,愛知県,名古屋市中村区,名駅４丁目２４番５号第２森ビル４０１,,23,105,4500002,,,,,,,2023-12-06,1,,,,,エピティヒア,0
491,2180003026080,新規,0,2023-12-06,2023-12-06,合同会社ＫＤＣ,,合同会社,愛知県,名古屋市中村区,竹橋町２０番１８号グランドール名駅１０１号,,23,105,4530016,,,,,,,2023-12-06,1,,,,,ケーディーシー,0
492,2180005020445,新規,0,2023-12-06,2023-12-06,一般社団法人坂本グリーン・ファウンデイション,,その他の設立登記法人,愛知県,名古屋市千種区,霞ケ丘１丁目７番２１号,,23,101,4640041,,,,,,,2023-12-06,1,,,,,サカモトグリーンファウンデイション,0
500,2190003004523,新規,0,2023-12-06,2023-12-06,合同会社みやきリハビリテーションサポート,,合同会社,三重県,熊野市,久生屋町５４１番地,,24,212,5194326,,,,,,,2023-12-06,1,,,,,ミヤキリハビリテーションサポート,0
512,2240003006431,新規,0,2023-12-06,2023-12-06,ウルトラグローバルスポーツ合同会社,,合同会社,広島県,東広島市,西条西本町１１番１０号ｓ．ａ．ｂｏｘ西条駅前Ｂ棟０００４号,,34,212,7390043,,,,,,,2023-12-06,1,,,,,ウルトラグローバルスポーツ,0
514,2260001038524,新規,0,2023-12-06,2023-12-06,株式会社エムシーピー,,株式会社,岡山県,倉敷市,児島柳田町１８９番地の１３,,33,202,7110936,,,,,,,2023-12-06,1,,,,,エムシーピー,0
517,2290001103903,新規,0,2023-12-06,2023-12-06,株式会社Ｓｉｃｕｒｏ　ＩＴＯ,,株式会社,福岡県,大野城市,大城４丁目８番１２号グランクリュ大野城Ｂ－２０１号,,40,219,8160911,,,,,,,2023-12-06,1,,,,,シクロアイティーオー,0
518,2290001103936,新規,0,2023-12-06,2023-12-06,適欲堂株式会社,,株式会社,福岡県,福岡市城南区,樋井川５丁目２１番１３号,,40,136,8140153,,,,,,,2023-12-06,1,,,,,テキヨクドウ,0
519,2290001103944,新規,0,2023-12-06,2023-12-06,株式会社高福,00132888,株式会社,福岡県,久留米市,山川安居野３丁目７番２２号,,40,203,8390812,,,,,,,2023-12-06,1,,,,,タカフク,0
527,2330001031546,新規,0,2023-12-06,2023-12-06,ファームマネージメント九州株式会社,,株式会社,熊本県,宇城市,豊野町巣林５３８番地,,43,213,8614307,,,,,,,2023-12-06,1,,,,,ファームマネージメントキュウシュウ,0
530,2350001018698,新規,0,2023-12-06,2023-12-06,株式会社ｃｙｐｈｅｒｐａｒｔｎｅｒｓ,,株式会社,宮崎県,宮崎市,下原町３３２―２アルファスマート青葉北２―１０１,,45,201,8800843,,,,,,,2023-12-06,1,,,,,サイファーパートナーズ,0
531,2350005006195,新規,0,2023-12-06,2023-12-06,一般社団法人吉村区長会,,その他の設立登記法人,宮崎県,宮崎市,吉村町甲２１３３番地,,45,201,8800841,,,,,,,2023-12-06,1,,,,,ヨシムラクチョウカイ,0
534,2360005006954,新規,0,2023-12-06,2023-12-06,一般社団法人沖縄県ドローン普及支援協会,,その他の設立登記法人,沖縄県,那覇市,前島３丁目１３番１１号１Ｆ,,47,201,9000016,,,,,,,2023-12-06,1,,,,,オキナワケンドローンフキュウシエンキョウカイ,0
539,2370003006410,新規,0,2023-12-06,2023-12-06,Ａｉｒｓｐａｃｅ合同会社,,合同会社,宮城県,宮城郡利府町,神谷沢字化粧坂１０―２８、２階,,04,406,9810121,,,,,,,2023-12-06,1,,,,,エアスペース,0
544,2380001034164,新規,0,2023-12-06,2023-12-06,グランペール株式会社,,株式会社,福島県,本宮市,仁井田字新田２９番地２,,07,214,9691103,,,,,,,2023-12-06,1,,,,,グランペール,0
548,2420001018501,新規,0,2023-12-06,2023-12-06,株式会社メディカルデータインテリジェンス,,株式会社,青森県,弘前市,大字土手町３１番地,,02,202,0368182,,,,,,,2023-12-06,1,,,,,メディカルデータインテリジェンス,0
551,2460003000973,新規,0,2023-12-06,2023-12-06,合同会社ノーステック,,合同会社,北海道,釧路市,桜ケ岡６丁目１６番１号,,01,206,0850805,,,,,,,2023-12-06,1,,,,,ノーステック,0
557,2480001012317,新規,0,2023-12-06,2023-12-06,株式会社榮進,,株式会社,徳島県,徳島市,南島田町３丁目５８番地の９,,36,201,7700053,,,,,,,2023-12-06,1,,,,,エイシン,0
562,2500003003146,新規,0,2023-12-06,2023-12-06,合同会社瓦朋,,合同会社,愛媛県,西条市,下島山甲１４６５番地３,,38,206,7930006,,,,,,,2023-12-06,1,,,,,カワラトモ,0
564,2700150120244,新規,0,2023-12-06,2023-12-06,Ｓｈｅｎ　Ｚｈｅｎ　Ｙｉ　Ｚｈａｎ　Ｄｉａｎ　Ｚｉ　Ｓｈａｎｇ　Ｗｕ　Ｙｏｕ　Ｘｉａｎ　ＧｏｎｇＳｉ,,外国会社等,,,,,,,,ｌｏｎｇ　ｈｕａ　ｑｕ　ｄａ　ｌａｎｇ　ｊｉｅ　ｄａｏ　ｔｏｎｇ　ｓｈｅｎｇ　ｓｈｅ　ｑｕ　ｘｉａｏ　ｌｏｎｇ　ｌｕ　４　ｈａｏ　ｙｕａｎ　ｃｈｕａｎｇ　ｙｕａｎ　Ａ　ｄｏｎｇ　１０３　Ｓｈｅｎｚｈｅｎ，Ｇｕａｎｇｄｏｎｇ　ＣＮ　５１８０００,,,,,,2023-12-06,1,,,,,シエンジエンイージヤンデイエンズーシヤンウヨウシエンゴンスー,0
565,2700150120459,新規,0,2023-12-06,2023-12-06,Ｓｈｅｎｚｈｅｎ　Ｌｏｎｇｇｕｉ　Ｃｅｎｔｕｒｙ　Ｔｒａｄｅ　Ｃｏ．，Ｌｔｄ．,,外国会社等,,,,,,,,ｓｈｅｎｚｈｅｎｓｈｉｌｏｎｇｈｕａｑｕｌｏｎｇｈｕａｊｉｅｄａｏｙｏｕｓｏｎｇｓｈｅｑｕｈｅｎｇｆｅｎｇｘｉａｏｑｕ１ｈａｏｌｏｕｘｉｎｚｈｏｎｇｔａｉｇｏｎｇｙｅｙｕａｎ９ｌｏｕ１－９００６,,,,,,2023-12-06,1,,,,,シェンゼンロンギーセンチュリートレードシーオーエルティーディー,0
576,3010001240525,新規,0,2023-12-06,2023-12-06,株式会社ＭＭＩ,,株式会社,東京都,中央区,銀座１丁目１２番４号Ｎ＆ＥＢＬＤ．６Ｆ,,13,102,1040061,,,,,,,2023-12-06,1,,,,,エムエムアイ,0
585,3010401178951,新規,0,2023-12-06,2023-12-06,株式会社Ｘ‐ＨＡＳＨＩ,,株式会社,東京都,港区,南麻布２丁目３番１１号,,13,103,1060047,,,,,,,2023-12-06,1,,,,,カケハシ,0
593,3010503007240,新規,0,2023-12-06,2023-12-06,赤赤業務合同会社,,合同会社,東京都,台東区,上野３丁目１６番２号,,13,106,1100005,,,,,,,2023-12-06,1,,,,,アカセキギョウム,0
594,3010505003477,新規,0,2023-12-06,2023-12-06,一般社団法人日本黄土ハーブ蒸し協会,,その他の設立登記法人,東京都,台東区,元浅草３丁目１１番３号コットンボールビル１Ｆ,,13,106,1110041,,,,,,,2023-12-06,1,,,,,ニホンオウドハーブムシキョウカイ,0
595,3010601064266,新規,0,2023-12-06,2023-12-06,株式会社メロウ,,株式会社,東京都,江東区,豊洲４丁目９番１３号東京フロントコート１２２６号室,,13,108,1350061,,,,,,,2023-12-06,1,,,,,メロウ,0
599,3010701045216,新規,0,2023-12-06,2023-12-06,株式会社水の,,株式会社,東京都,品川区,大崎３丁目５番２－１０３号,,13,109,1410032,,,,,,,2023-12-06,1,,,,,ミズノ,0
603,3010801034572,新規,0,2023-12-06,2023-12-06,ＴｅｃｈＳｔｏｒｍ　Ｊａｐａｎ株式会社,,株式会社,東京都,大田区,鵜の木３丁目１２番１２号,,13,111,1460091,,,,,,,2023-12-06,1,,,,,テックストームジャパン,0
608,3010901054297,新規,0,2023-12-06,2023-12-06,株式会社ｈｉｔ　ｔｈｅ　ｓｐｏｔ,,株式会社,東京都,世田谷区,太子堂４丁目２３番５号１Ｆ,,13,112,1540004,,,,,,,2023-12-06,1,,,,,ヒットザスポット,0
609,3010901054306,新規,0,2023-12-06,2023-12-06,株式会社ＮＯＲＥＮ　ＡＮＧＥ,,株式会社,東京都,世田谷区,羽根木１丁目１９番１５号羽根木インターナショナルガーデンハウスＢ棟５号,,13,112,1560042,,,,,,,2023-12-06,1,,,,,ノーレンアンジュ,0
610,3010903008631,新規,0,2023-12-06,2023-12-06,ミライスタイル合同会社,,合同会社,東京都,世田谷区,砧６丁目１２番１４号,,13,112,1570073,,,,,,,2023-12-06,1,,,,,ミライスタイル,0
611,3011001158385,新規,0,2023-12-06,2023-12-06,株式会社Ｏｍｎｉｔｅｃｈ．Ｄｙｎａｍｉｃｓ,,株式会社,東京都,渋谷区,代々木３丁目５５－５,,13,113,1510053,,,,,,,2023-12-06,1,,,,,オムニテックダイナミクス,0
612,3011001158591,新規,0,2023-12-06,2023-12-06,株式会社４ＡＧＥ,,株式会社,東京都,目黒区,青葉台３丁目２番１号,,13,110,1530042,,,,,,,2023-12-06,1,,,,,フォーエイジ,0
613,3011001158609,新規,0,2023-12-06,2023-12-06,Ｄｙｕｌｏｋａ　Ｊａｐａｎ株式会社,,株式会社,東京都,渋谷区,恵比寿西２丁目４番８号,,13,113,1500021,,,,,,,2023-12-06,1,,,,,デュローカジャパン,0
614,3011003018034,新規,0,2023-12-06,2023-12-06,Ｒｐ．合同会社,,合同会社,東京都,目黒区,青葉台１丁目１７－２マンション相原２０２,,13,110,1530042,,,,,,,2023-12-06,1,,,,,アールピー,0
616,3011101105353,新規,0,2023-12-06,2023-12-06,株式会社ＴＥＮ,,株式会社,東京都,新宿区,西新宿３丁目２番７号,,13,104,1600023,,,,,,,2023-12-06,1,,,,,テン,0
618,3011103013810,新規,0,2023-12-06,2023-12-06,合同会社参喜企画,,合同会社,東京都,新宿区,西新宿３丁目３番１３号西新宿水間ビル６階,,13,104,1600023,,,,,,,2023-12-06,1,,,,,ミツキキカク,0
621,3011205002579,新規,0,2023-12-06,2023-12-06,一般社団法人看護師の特定行為に係る指定研修機関協議会,,その他の設立登記法人,東京都,中野区,中野２丁目２番３号,,13,114,1640001,,,,,,,2023-12-06,1,,,,,カンゴシノトクテイコウイニカカルシテイケンシュウキカンキョウギカイ,0
624,3011501030085,新規,0,2023-12-06,2023-12-06,Ｋｉｍａｒｕ　ＡＩ株式会社,,株式会社,東京都,北区,志茂５丁目２７番７号,,13,117,1150042,,,,,,,2023-12-06,1,,,,,,0
627,3011701026833,新規,0,2023-12-06,2023-12-06,Ａｑｕｅｌｉｄｅ株式会社,,株式会社,東京都,江戸川区,大杉４丁目１６番１１号,,13,123,1320022,,,,,,,2023-12-06,1,,,,,アクエリーデ,0
630,3011801043448,新規,0,2023-12-06,2023-12-06,ワン・ビリーフｓｔｙｌｅ株式会社,,株式会社,東京都,足立区,谷中３丁目１０番１３号第三谷中コーポ２０３,,13,121,1200006,,,,,,,2023-12-06,1,,,,,ワンビリーフスタイル,0
631,3012303001910,新規,0,2023-12-06,2023-12-06,グローバルサービス合同会社,,合同会社,東京都,町田市,金井ヶ丘４丁目３２番１９号,,13,209,1950076,,,,,,,2023-12-06,1,,,,,グローバルサービス,0
635,3012401041288,新規,0,2023-12-06,2023-12-06,株式会社ＦＬＡＧ,,株式会社,東京都,調布市,染地３丁目１番地４１５,,13,208,1820023,,,,,,,2023-12-06,1,,,,,フラッグ,0
641,3013101009303,新規,0,2023-12-06,2023-12-06,株式会社ａｔＨｅｎａ,,株式会社,東京都,あきる野市,草花１５２７番地１６,,13,228,1970802,,,,,,,2023-12-06,1,,,,,アテナ,0
644,3013301051724,新規,0,2023-12-06,2023-12-06,河村株式会社,,株式会社,東京都,豊島区,東池袋３丁目１０番１０－４０１号,,13,116,1700013,,,,,,,2023-12-06,1,,,,,カワムラ,0
654,3020001154749,新規,0,2023-12-06,2023-12-06,株式会社ＩＣＫ,,株式会社,神奈川県,川崎市川崎区,東田町４番地１６グローベル川崎ミッドスクエア６０２,,14,131,2100005,,,,,,,2023-12-06,1,,,,,アイシーケー,0
655,3020001154773,新規,0,2023-12-06,2023-12-06,株式会社Ｄｉｏ,,株式会社,神奈川県,川崎市幸区,大宮町２０番地３－１０１,,14,132,2120014,,,,,,,2023-12-06,1,,,,,ディオ,0
657,3020003025147,新規,0,2023-12-06,2023-12-06,合同会社ＭｅｄｉＱｏｏｍ,,合同会社,神奈川県,横浜市鶴見区,岸谷４丁目８番１２－２号,,14,101,2300078,,,,,,,2023-12-06,1,,,,,メディクーム,0
666,3021001080869,新規,0,2023-12-06,2023-12-06,ＩＫ株式会社,,株式会社,神奈川県,海老名市,国分南２丁目１３番１１号倉橋テラスハウスＢ号,,14,215,2430405,,,,,,,2023-12-06,1,,,,,アイケー,0
671,3030001157478,新規,0,2023-12-06,2023-12-06,株式会社ＹＮＣ,,株式会社,埼玉県,戸田市,本町２丁目１２番６－２０５号（フェルメール戸田公園）,,11,224,3350023,,,,,,,2023-12-06,1,,,,,ワイエヌシー,0
672,3030001157486,新規,0,2023-12-06,2023-12-06,誠貿易株式会社,,株式会社,埼玉県,坂戸市,大字片柳字西谷７２４番８,,11,239,3500219,,,,,,,2023-12-06,1,,,,,マコトボウエキ,0
676,3030003023117,新規,0,2023-12-06,2023-12-06,合同会社ノマドコンフォート,,合同会社,埼玉県,所沢市,大字久米１４２９番地,,11,208,3591131,,,,,,,2023-12-06,1,,,,,ノマドコンフォート,0
681,3040001131201,新規,0,2023-12-06,2023-12-06,ＡＬ　ＡＺＩＺ　ＪＡＰＡＮ株式会社,,株式会社,千葉県,柏市,みどり台１丁目１１番１２号グリーンコートＩ－２０２,00132893,12,217,2770884,,,,,,,2023-12-06,1,,,,,アルアジイズジャパン,0
682,3040001131218,新規,0,2023-12-06,2023-12-06,株式会社Ｅｖｅｒ　Ｆｏｒｔｈ,,株式会社,千葉県,野田市,柳沢２２５番地の１メゾンフクールＩ２０５,00132902,12,208,2780006,,,,,,,2023-12-06,1,,,,,エヴァーフォース,0
683,3040001131250,新規,0,2023-12-06,2023-12-06,株式会社エムズコンサルティング,,株式会社,千葉県,成田市,不動ケ岡９５番１号,,12,211,2860044,,,,,,,2023-12-06,1,,,,,エムズコンサルティング,0
684,3040003023850,新規,0,2023-12-06,2023-12-06,合同会社麦蔵,,合同会社,千葉県,船橋市,習志野台４丁目２９番１２号,,12,204,2740063,,,,,,,2023-12-06,1,,,,,ムギクラ,0
701,3080101024383,新規,0,2023-12-06,2023-12-06,ＴＳＵＹＯＳＨＩ　ＴＲＡＤＩＮＧ　ＩＮＴＥＲＮＡＴＩＯＮＡＬ株式会社,,株式会社,静岡県,御殿場市,神場４３６－３,,22,215,4120047,,,,,,,2023-12-06,1,,,,,ツヨシトレーディングインターナショナル,0
705,3090001010301,新規,0,2023-12-06,2023-12-06,ワーク興建株式会社,,株式会社,山梨県,富士吉田市,大明見５丁目１２番１４号,,19,202,4030003,,,,,,,2023-12-06,1,,,,,ワークコウケン,0
718,3120001260339,新規,0,2023-12-06,2023-12-06,欣誠株式会社,,株式会社,大阪府,大阪市中央区,松屋町９番２０号ローレルステート松屋町６０７Ａ,,27,128,5420067,,,,,,,2023-12-06,1,,,,,ヨシノブ,0
719,3120001260371,新規,0,2023-12-06,2023-12-06,株式会社ライズＦＰ技研,,株式会社,大阪府,寝屋川市,萱島南町１３番３０号３０２,,27,215,5720825,,,,,,,2023-12-06,1,,,,,ライズエフピーギケン,0
720,3120001260421,新規,0,2023-12-06,2023-12-06,日本ＪＴ芥庭コンサルティング株式会社,,株式会社,大阪府,大阪市中央区,南船場１丁目１０番１２－４０３号,,27,128,5420081,,,,,,,2023-12-06,1,,,,,ニホンジェイティーワンテイコンサルティング,0
721,3120001260438,新規,0,2023-12-06,2023-12-06,久実株式会社,,株式会社,大阪府,大阪市生野区,鶴橋５丁目１９番４号ＧＯＯＤＬＩＦＥ鶴橋２０７,,27,116,5440031,,,,,,,2023-12-06,1,,,,,キュウジツ,0
722,3120001260479,新規,0,2023-12-06,2023-12-06,Ｒｏｙ　Ｗｏｒｋｓ株式会社,,株式会社,大阪府,大阪市北区,本庄東１丁目８番１１号,,27,127,5310074,,,,,,,2023-12-06,1,,,,,ロイワークス,0
728,3120901048453,新規,0,2023-12-06,2023-12-06,株式会社ＢｒｏａｄＳｔｅｅｌ,,株式会社,大阪府,豊中市,豊南町西１丁目１５－２０,,27,203,5610816,,,,,,,2023-12-06,1,,,,,ブロードスチール,0
734,3122003002743,新規,0,2023-12-06,2023-12-06,合同会社アズクリエーション,,合同会社,大阪府,東大阪市,吉田３丁目１４番３９号,,27,227,5780924,,,,,,,2023-12-06,1,,,,,アズクリエーション,0
742,3130001075835,新規,0,2023-12-06,2023-12-06,株式会社キシモト,,株式会社,京都府,京田辺市,田辺中央５丁目１番地２サンメゾン京田辺１０３号,,26,211,6100334,,,,,,,2023-12-06,1,,,,,キシモト,0
743,3130001075851,新規,0,2023-12-06,2023-12-06,株式会社ＳＴＡＲ　ＵＰ,,株式会社,京都府,京都市左京区,田中南西浦町９１グランデ３６－１０８号室,,26,103,6068216,,,,,,,2023-12-06,1,,,,,スターアップ,0
744,3130001075868,新規,0,2023-12-06,2023-12-06,株式会社まつなが,,株式会社,京都府,京都市上京区,下立売通千本東入中務町４８６番地１５５,,26,102,6028158,,,,,,,2023-12-06,1,,,,,マツナガ,0
749,3140001132560,新規,0,2023-12-06,2023-12-06,Ｖｉｓｔａ株式会社,,株式会社,兵庫県,神戸市中央区,中山手通７丁目３６番４１号,,28,110,6500004,,,,,,,2023-12-06,1,,,,,ビスタ,0
750,3140001132585,新規,0,2023-12-06,2023-12-06,株式会社Ｕｐｒｉｇｈｔｎｅｓｓ,,株式会社,兵庫県,尼崎市,神田中通２丁目２７－１９シロハイヌ阪神尼崎５Ｆ,,28,202,6600884,,,,,,,2023-12-06,1,,,,,アップライトネス,0
752,3140002033444,新規,0,2023-12-06,2023-12-06,有限会社太子電機工業,,有限会社,兵庫県,揖保郡太子町,鵤１３０３番地の２,,28,464,6711561,,,,,,,2023-12-06,1,,,,,タイシデンキコウギョウ,0
753,3150001026919,新規,0,2023-12-06,2023-12-06,Ａｃｃｏｍｐｌｉｒ株式会社,,株式会社,奈良県,生駒市,東新町２番１７－４０２,,29,209,6300258,,,,,,,2023-12-06,1,,,,,アコンプリール,0
755,3160001025548,新規,0,2023-12-06,2023-12-06,株式会社Ｒｅ‐ｈｉｔｏ,,株式会社,滋賀県,近江八幡市,小船木町７３３番地１５２,,25,204,5230083,,,,,,,2023-12-06,1,,,,,リヒト,0
766,3180001159170,新規,0,2023-12-06,2023-12-06,株式会社ＰＥＡＫＳＥＮＳＥ,,株式会社,愛知県,犬山市,大字犬山字西古券６１番地,,23,215,4840085,,,,,,,2023-12-06,1,,,,,ピークセンス,0
767,3180001159187,新規,0,2023-12-06,2023-12-06,株式会社リバイバルホーム,,株式会社,愛知県,瀬戸市,南山口町１１５番地の１,,23,204,4890965,,,,,,,2023-12-06,1,,,,,リバイバルホーム,0
768,3180001159220,新規,0,2023-12-06,2023-12-06,株式会社ＳＮＴサテライト,,株式会社,愛知県,名古屋市中区,栄２丁目１１番３０号セントラルビル２Ｆ,,23,106,4600008,,,,,,,2023-12-06,1,,,,,エスエヌティサテライト,0
769,3180001159245,新規,0,2023-12-06,2023-12-06,株式会社ロテート,,株式会社,愛知県,稲沢市,平和町西光坊海東阿原５９番地,,23,220,4901314,,,,,,,2023-12-06,1,,,,,ロテート,0
773,3180005020444,新規,0,2023-12-06,2023-12-06,自動車用先端ＳｏＣ技術研究組合,,その他の設立登記法人,愛知県,名古屋市西区,那古野２丁目１４番１号,,23,104,4510042,,,,,,,2023-12-06,1,,,,,ジドウシャヨウセンタンエスオーシー,0
784,3240001062491,新規,0,2023-12-06,2023-12-06,株式会社ポールスター,,株式会社,広島県,広島市安佐南区,西原５丁目１５番２３－１００１号,,34,105,7310113,,,,,,,2023-12-06,1,,,,,ポールスター,0
786,3250001020416,新規,0,2023-12-06,2023-12-06,クリエイトライフ株式会社,,株式会社,山口県,山口市,亀山町７番２１号,,35,203,7530089,,,,,,,2023-12-06,1,,,,,クリエイトライフ,0
793,3290001103844,新規,0,2023-12-06,2023-12-06,株式会社Ｙｓｔｙｌｅ,,株式会社,福岡県,古賀市,花鶴丘３丁目１０番１６３,,40,223,8113104,,,,,,,2023-12-06,1,,,,,ワイスタイル,0
794,3290001103943,新規,0,2023-12-06,2023-12-06,株式会社ＫＵＳＵＭＩ,,株式会社,福岡県,久留米市,諏訪野町１８１０－６－１００２,,40,203,8300037,,,,,,,2023-12-06,1,,,,,クスミ,0
796,3290005019211,新規,0,2023-12-06,2023-12-06,一般社団法人ＦＵＫＵＯＫＡ花火振興会,,その他の設立登記法人,福岡県,福岡市城南区,長尾１丁目１５番２１号,,40,136,8140123,,,,,,,2023-12-06,1,,,,,フクオカハナビシンコウカイ,0
798,3290801030107,新規,0,2023-12-06,2023-12-06,株式会社シティパートナーズ,,株式会社,福岡県,北九州市八幡西区,折尾１丁目１３番１号,,40,109,8070825,,,,,,,2023-12-06,1,,,,,シティパートナーズ,0
801,3320001020177,新規,0,2023-12-06,2023-12-06,Ｙｕｕｅｉ株式会社,,株式会社,大分県,由布市,庄内町庄内原２７６番地２,,44,213,8795434,,,,,,,2023-12-06,1,,,,,ユウエイ,0
808,3350001018689,新規,0,2023-12-06,2023-12-06,株式会社キュプレ,,株式会社,宮崎県,宮崎市,大字郡司分甲２４３番地１,,45,201,8800924,,,,,,,2023-12-06,1,,,,,キュプレ,0
809,3370001050698,新規,0,2023-12-06,2023-12-06,藤プランニング株式会社,,株式会社,宮城県,仙台市若林区,古城１丁目５番３－１２１０号,,04,103,9840825,,,,,,,2023-12-06,1,,,,,フジプランニング,0
813,3380001034163,新規,0,2023-12-06,2023-12-06,三輝ホールディングス株式会社,,株式会社,福島県,本宮市,高木字舟場２５番地８,,07,214,9691101,,,,,,,2023-12-06,1,,,,,サンキホールディングス,0
821,3450001014166,新規,0,2023-12-06,2023-12-06,株式会社ｓｏｒａ,,株式会社,北海道,旭川市,旭町一条５丁目８４１番地２３,,01,204,0700831,,,,,,,2023-12-06,1,,,,,ソラ,0
824,3460101007473,新規,0,2023-12-06,2023-12-06,株式会社エクリプスムーブ,,株式会社,北海道,帯広市,西二十一条南３丁目２０番地１５,,01,207,0802471,,,,,,,2023-12-06,1,,,,,エクリプスムーブ,0
825,3460301005186,新規,0,2023-12-06,2023-12-06,株式会社カムイメディカルワークス,,株式会社,北海道,北見市,西三輪１丁目６５３番地１９,,01,208,0900838,,,,,,,2023-12-06,1,,,,,カムイメディカルワークス,0
833,3700150118394,新規,0,2023-12-06,2023-12-06,ＨａｎｇｚｈｏｕＭｉａｏｍａｉｍｉａｏｈａｉＩｎｔｅｌｌｉｇｅｎｔＴｅｃｈｎｏｌｏｇｙＣｏ．，Ｌｔｄ,,外国会社等,,,,,,,,Ｒｏｏｍ　８１３，Ｂｕｉｌｄｉｎｇ　１，Ｘｉａｎｇｔｅｎｇ　Ｆｏｒｔｕｎｅ　Ｃｅｎｔｅｒ　Ｎｉｎｇｗｅｉ　Ｓｔｒｅｅｔ，Ｘｉａｏｓｈａｎ　Ｄｉｓｔｒｉｃｔ　Ｈａｎｇｚｈｏｕ　Ｚｈｅｊｉａｎｇ　Ｃｈｉｎａ　３１１２１５,,,,,,2023-12-06,1,,,,,ハンジョウミァオマイミァオハイインテリジェントテクノロジーカンパニーリミテッド,0
834,3700150120458,新規,0,2023-12-06,2023-12-06,Ｊｉｕｊｉａｎｇｘｉｎｇｙｅｇａｎｂａｉｈｕｏｙｏｕｘｉａｎｚｅｒｅｎｇｏｎｇｓｉ,,外国会社等,,,,,,,,ｃｈａｎｇｈｏｎｇｌｉｊｉａｏｑｉａｏ１ｈａｏｚａｄａｏｎａｎｃｅ０２ｆａｎｇｈａｏ－４２４３　ｊｉｕｊｉａｎｇ　ｊｉａｎｇｘｉ　ｌｉａｎｘｉｑｕ　Ｃｈｉｎａ　３３２００５,,,,,,2023-12-06,1,,,,,ジアジアンクシンガイギャンバイハオイアウクシアンザーレンゴングシー,0
836,3700150122529,新規,0,2023-12-06,2023-12-06,ｙｉｗｕｓｈｉｆｅｎｇｑｉｍａｏｙｉ　ｙｏｕｘｉａｎｇｏｎｇｓｉ,,外国会社等,,,,,,,,ｃｈｏｕｊｉａｎｇｊｉｅｄａｏｌｉｕｙａｘｉａｏｑｕ４９ｚｈｕａｎｇ３ｄａｎｙｕａｎ２０１ｓｈｉｙｉｗｕｓｈｉｚｈｅｊｉａｎｇｓｈｅｎｇ３２２０９９ＣＮ,,,,,,2023-12-06,1,,,,,イーウーシーフォンチーマオイーヨウシエンゴンスー,0
844,4010001240549,新規,0,2023-12-06,2023-12-06,プライマリケアデジタル株式会社,,株式会社,東京都,中央区,日本橋兜町１７番２号兜町第６葉山ビル４Ｆ,,13,102,1030026,,,,,,,2023-12-06,1,,,,,プライマリケアデジタル,0
845,4010001240573,新規,0,2023-12-06,2023-12-06,Ｂｌｕｅｇｒｏｕｎｄ　Ｊａｐａｎ株式会社,,株式会社,東京都,千代田区,大手町１丁目１番１号,,13,101,1000004,,,,,,,2023-12-06,1,,,,,ブルーグラウンドジャパン,0
852,4010401178918,新規,0,2023-12-06,2023-12-06,株式会社ＡＩグラマラス,,株式会社,東京都,港区,元麻布３丁目１番３５号ＶＯＲＴ元麻布５階,,13,103,1060046,,,,,,,2023-12-06,1,,,,,エーアイグラマラス,0
853,4010401178934,新規,0,2023-12-06,2023-12-06,株式会社ユニコジャパン,,株式会社,東京都,港区,芝大門１丁目３番９号芝大門第一ビル７階,,13,103,1050012,,,,,,,2023-12-06,1,,,,,ユニコジャパン,0
854,4010401178967,新規,0,2023-12-06,2023-12-06,株式会社ＲＵ　Ｈｏｌｄｉｎｇｓ,,株式会社,東京都,港区,虎ノ門４丁目１－２８虎ノ門タワーズオフィス１９階,,13,103,1050001,,,,,,,2023-12-06,1,,,,,アールユーホールディングス,0
856,4010403031496,新規,0,2023-12-06,2023-12-06,ラッキー発展合同会社,,合同会社,東京都,港区,赤坂２丁目２１番４－２１３号天翔赤坂ＡＮＮＥＸビル２階,,13,103,1070052,,,,,,,2023-12-06,1,,,,,ラッキーハッテン,0
858,4010501051470,新規,0,2023-12-06,2023-12-06,ＴＫＹ阿松株式会社,,株式会社,東京都,台東区,雷門２丁目６番２号,,13,106,1110034,,,,,,,2023-12-06,1,,,,,ティケィワイアマツ,0
859,4010601064273,新規,0,2023-12-06,2023-12-06,株式会社Ｍｆｕｇａ,,株式会社,東京都,江東区,有明１丁目４番２０－２３１５号,,13,108,1350063,,,,,,,2023-12-06,1,,,,,エムフーガ,0
861,4010603010507,新規,0,2023-12-06,2023-12-06,吾妻龍合同会社,,合同会社,東京都,墨田区,吾妻橋３丁目１番７－４０４号コーポニュー吾妻,,13,107,1300001,,,,,,,2023-12-06,1,,,,,アズマリュウ,0
864,4010701045223,新規,0,2023-12-06,2023-12-06,ＭＥＲＫ株式会社,,株式会社,東京都,品川区,西品川１丁目１番１号９Ｆ住友不動産大崎ガーデンタワーＴＵＮＮＥＬＴＯＫＹＯ,,13,109,1410033,,,,,,,2023-12-06,1,,,,,メルク,0
867,4010901054296,新規,0,2023-12-06,2023-12-06,株式会社ｓａｒｋａｒａ,,株式会社,東京都,世田谷区,上用賀６丁目３３番１６－１０４号,,13,112,1580098,,,,,,,2023-12-06,1,,,,,サルカラ,0
881,4011101105336,新規,0,2023-12-06,2023-12-06,株式会社オンテロープ,,株式会社,東京都,新宿区,新宿１丁目３６番２号新宿第七葉山ビル３Ｆ,,13,104,1600022,,,,,,,2023-12-06,1,,,,,オンテロープ,0
882,4011105010879,新規,0,2023-12-06,2023-12-06,一般社団法人中国留学生史研究協会,,その他の設立登記法人,東京都,新宿区,西新宿６丁目１５番１－７０９号,,13,104,1600023,,,,,,,2023-12-06,1,,,,,チュウゴクリュウガクセイシケンキュウキョウカイ,0
884,4011201025087,新規,0,2023-12-06,2023-12-06,サンシャインテック株式会社,,株式会社,東京都,中野区,東中野１丁目５１番３‐３０５号,,13,114,1640003,,,,,,,2023-12-06,1,,,,,サンシャインテック,0
890,4011401025663,新規,0,2023-12-06,2023-12-06,株式会社Ｒ‐ｏｎｅ,,株式会社,東京都,板橋区,富士見町３９番１２号,,13,119,1740062,,,,,,,2023-12-06,1,,,,,,0
893,4011501030084,新規,0,2023-12-06,2023-12-06,株式会社ＢＡＲＢＥＲＩＳＴ,,株式会社,東京都,北区,東十条３丁目１５－２ベルメゾン１０２,,13,117,1140001,,,,,,,2023-12-06,1,,,,,バーバリスト,0
896,4011701026832,新規,0,2023-12-06,2023-12-06,株式会社ＯＮＥ,,株式会社,東京都,江戸川区,東松本２丁目１２番６号,,13,123,1330071,,,,,,,2023-12-06,1,,,,,ワン,0
899,4011801043447,新規,0,2023-12-06,2023-12-06,龍騰商事株式会社,,株式会社,東京都,葛飾区,金町５丁目２３番８,,13,122,1250042,,,,,,,2023-12-06,1,,,,,リュウトウショウジ,0
900,4011801043455,新規,0,2023-12-06,2023-12-06,株式会社ヘヤジ,,株式会社,東京都,足立区,谷在家１丁目８番１号,,13,121,1230863,,,,,,,2023-12-06,1,,,,,ヘヤジ,0
901,4012403006288,新規,0,2023-12-06,2023-12-06,合同会社琉球の女神,,合同会社,東京都,小金井市,前原町３丁目２番３１－２０５号武蔵野ベルハイツ,,13,210,1840013,,,,,,,2023-12-06,1,,,,,リュウキュウノメガミ,0
910,4020001154772,新規,0,2023-12-06,2023-12-06,株式会社Ｉ・ＭＡＣ,,株式会社,神奈川県,川崎市中原区,中丸子１３番地１０－４２０６,,14,133,2110012,,,,,,,2023-12-06,1,,,,,アイマック,0
911,4020001154780,新規,0,2023-12-06,2023-12-06,株式会社ＨＤＨ,,株式会社,神奈川県,横浜市保土ケ谷区,宮田町２丁目１５６番地３壱番館１０１号室,,14,106,2400002,,,,,,,2023-12-06,1,,,,,エイチディエイチ,0
916,4020005016201,新規,0,2023-12-06,2023-12-06,一般社団法人さくら,,その他の設立登記法人,神奈川県,横浜市中区,野毛町２丁目１０１番１号ネオキャッスル野毛５０２号室,,14,104,2310064,,,,,,,2023-12-06,1,,,,,サクラ,0
922,4021001080892,新規,0,2023-12-06,2023-12-06,こにしの株式会社,,株式会社,神奈川県,小田原市,栄町２丁目１３番１２号,,14,206,2500011,,,,,,,2023-12-06,1,,,,,コニシノ,0
927,4021003013867,新規,0,2023-12-06,2023-12-06,Ｐ‐えいと合同会社,,合同会社,神奈川県,厚木市,山際９６１番地３５,,14,212,2430803,,,,,,,2023-12-06,1,,,,,ピーエイト,0
928,4021005012958,新規,0,2023-12-06,2023-12-06,医療法人ＷＭＣ,,その他の設立登記法人,神奈川県,座間市,相模が丘１丁目２５番３号ＭＥＴＲＯＰＬＡＺＡ・７・１－Ａ,,14,216,2520001,,,,,,,2023-12-06,1,,,,,ダブリュウエムシー,0
936,4030001157403,新規,0,2023-12-06,2023-12-06,株式会社Ｇｒａｂ,,株式会社,埼玉県,吉川市,上笹塚３丁目１８７番地３,,11,243,3420017,,,,,,,2023-12-06,1,,,,,グラブ,0
937,4030001157411,新規,0,2023-12-06,2023-12-06,株式会社ＷＥＬＬ,,株式会社,埼玉県,北葛飾郡杉戸町,杉戸２丁目１１番１０号,,11,464,3450036,,,,,,,2023-12-06,1,,,,,ウェル,0
938,4030001157493,新規,0,2023-12-06,2023-12-06,松井志木株式会社,,株式会社,埼玉県,志木市,本町６丁目２９番１８号,,11,228,3530004,,,,,,,2023-12-06,1,,,,,マツイシキ,0
939,4030001157519,新規,0,2023-12-06,2023-12-06,株式会社Ｂｅｓｔ　Ｃｈｏｉｃｅ,,株式会社,埼玉県,春日部市,東中野５５７－１,,11,214,3440114,,,,,,,2023-12-06,1,,,,,ベストチョイス,0
940,4030001157535,新規,0,2023-12-06,2023-12-06,株式会社いるま美容,,株式会社,埼玉県,入間市,豊岡１丁目４番４号グレイス入間１０２,,11,225,3580003,,,,,,,2023-12-06,1,,,,,イルマビヨウ,0
953,4040001131233,新規,0,2023-12-06,2023-12-06,行之謙文化芸術株式会社,,株式会社,千葉県,市川市,原木１丁目２番２０号パークサイド西船２０１,,12,203,2720004,,,,,,,2023-12-06,1,,,,,ギョウノケンブンカゲイジュツ,0
954,4040001131241,新規,0,2023-12-06,2023-12-06,株式会社齊藤架設,,株式会社,千葉県,市原市,光風台５丁目７７番地,,12,219,2900255,,,,,,,2023-12-06,1,,,,,サイトウカセツ,0
959,4080101024382,新規,0,2023-12-06,2023-12-06,株式会社プロモーションレーシング,,株式会社,静岡県,御殿場市,東田中１３０１番地１,,22,215,4120026,,,,,,,2023-12-06,1,,,,,プロモーションレーシング,0
966,4100001037028,新規,0,2023-12-06,2023-12-06,株式会社瀧浪,,株式会社,長野県,飯田市,鼎上山３１２２番地５,,20,205,3950806,,,,,,,2023-12-06,1,,,,,タキナミ,0
980,4120001259784,新規,0,2023-12-06,2023-12-06,株式会社ＨＹＴ,,株式会社,大阪府,大阪市北区,梅田２丁目２番２号ヒルトンプラザウエストオフィスタワー１９階,,27,127,5300001,,,,,,,2023-12-06,1,,,,,エイチワイティ,0
981,4120001260271,新規,0,2023-12-06,2023-12-06,ＭＩＴＳＵＲＵリーガルユニティ株式会社,,株式会社,大阪府,大阪市北区,西天満４丁目６番２８号ニュー真砂ビル２０３号,,27,127,5300047,,,,,,,2023-12-06,1,,,,,ミツルリーガルユニティ,0
982,4120001260338,新規,0,2023-12-06,2023-12-06,東旭貿易株式会社,,株式会社,大阪府,大阪市東成区,深江北３丁目４番２１号エクラ深江橋６１０Ｃ,,27,115,5370001,,,,,,,2023-12-06,1,,,,,トウキョクボウエキ,0
983,4120001260370,新規,0,2023-12-06,2023-12-06,ＴＯＰＰＡ株式会社,,株式会社,大阪府,大阪市中央区,南本町３丁目３番２３号インペリアル船場,,27,128,5410054,,,,,,,2023-12-06,1,,,,,トッパ,0
984,4120001260429,新規,0,2023-12-06,2023-12-06,株式会社Ｊサクセス,,株式会社,大阪府,大阪市都島区,大東町１丁目７番３－２０４号,,27,102,5340002,,,,,,,2023-12-06,1,,,,,ジェイサクセス,0
985,4120001260453,新規,0,2023-12-06,2023-12-06,株式会社ＡＳＴ,,株式会社,大阪府,大阪市北区,本庄西１丁目１番７－３５０９号,,27,127,5310073,,,,,,,2023-12-06,1,,,,,エーエスティー,0
1007,4130003009187,新規,0,2023-12-06,2023-12-06,豊月ソフト合同会社,,合同会社,京都府,京都市左京区,下鴨蓼倉町７１－１０アメティスタ１０１,,26,103,6060806,,,,,,,2023-12-06,1,,,,,トヨツキソフト,0
1010,4140001132543,新規,0,2023-12-06,2023-12-06,株式会社Ｃｏｎｃｅｐｔ‐５,,株式会社,兵庫県,神戸市中央区,中山手通１丁目１番９号２０１,,28,110,6500004,,,,,,,2023-12-06,1,,,,,コンセプトファイブ,0
1011,4140001132551,新規,0,2023-12-06,2023-12-06,株式会社コレクト,,株式会社,兵庫県,神戸市長田区,腕塚町１０丁目１番１８号,,28,106,6530036,,,,,,,2023-12-06,1,,,,,コレクト,0
1012,4140001132576,新規,0,2023-12-06,2023-12-06,株式会社ペットｇｏｏｄｓ研究所,,株式会社,兵庫県,神戸市須磨区,高倉台７丁目１７番１５号,,28,107,6540081,,,,,,,2023-12-06,1,,,,,ペットグッズケンキュウショ,0
1013,4140001132584,新規,0,2023-12-06,2023-12-06,株式会社球児園,,株式会社,兵庫県,三木市,さつき台１丁目１４番地の９,,28,215,6730436,,,,,,,2023-12-06,1,,,,,キュウジエン,0
1014,4140001132601,新規,0,2023-12-06,2023-12-06,株式会社Ｃａｐｔａｉｎ　Ａｍｂｕｌａｎｃｅ,,株式会社,兵庫県,神戸市北区,鹿の子台南町６丁目２２番８号,,28,109,6511514,,,,,,,2023-12-06,1,,,,,キャプテンアンビュランス,0
1023,4180001159186,新規,0,2023-12-06,2023-12-06,森達株式会社,,株式会社,愛知県,名古屋市中区,錦２丁目１６番４号,,23,106,4600003,,,,,,,2023-12-06,1,,,,,モリタツ,0
1024,4180001159244,新規,0,2023-12-06,2023-12-06,株式会社エクレイホーム,,株式会社,愛知県,名古屋市名東区,神里１丁目３４番地,,23,115,4650082,,,,,,,2023-12-06,1,,,,,エクレイホーム,0
1025,4180003026079,新規,0,2023-12-06,2023-12-06,合同会社ＦＡＳＴ,,合同会社,愛知県,名古屋市天白区,原４丁目１７１１番地,,23,116,4680015,,,,,,,2023-12-06,1,,,,,ファスト,0
1026,4180005020443,新規,0,2023-12-06,2023-12-06,行政書士法人さくら,,その他の設立登記法人,愛知県,海部郡蟹江町,桜１丁目１０１番地,,23,425,4970038,,,,,,,2023-12-06,1,,,,,サクラ,0
1040,4230001020128,新規,0,2023-12-06,2023-12-06,株式会社輝,,株式会社,富山県,富山市,西長江２丁目１番１号,,16,201,9300975,,,,,,,2023-12-06,1,,,,,ヒカル,0
1042,4230003002116,新規,0,2023-12-06,2023-12-06,合同会社ＮＫゴールド,,合同会社,富山県,滑川市,高月町南台３番地３９,,16,206,9360078,,,,,,,2023-12-06,1,,,,,エヌケイゴールド,0
1045,4240001062499,新規,0,2023-12-06,2023-12-06,株式会社ＴＯＣＯＳＨＩＥ,,株式会社,広島県,東広島市,高屋町稲木２９１番地１８４,,34,212,7392106,,,,,,,2023-12-06,1,,,,,トコシエ,0
1046,4240001062508,新規,0,2023-12-06,2023-12-06,株式会社ｃｒｅｅｒ　ｍａｎｇｅｒ,,株式会社,広島県,広島市佐伯区,皆賀３丁目２２番２６－５号,,34,108,7315124,,,,,,,2023-12-06,1,,,,,クレエマンジェ,0
1053,4250003003392,新規,0,2023-12-06,2023-12-06,合同会社ＧＬＹ,,合同会社,山口県,下関市,山の田本町７番１２号,,35,201,7510838,,,,,,,2023-12-06,1,,,,,グライ,0
1055,4260001038522,新規,0,2023-12-06,2023-12-06,株式会社ユウキ,,株式会社,岡山県,岡山市北区,平野１５１番地１４,,33,101,7010151,,,,,,,2023-12-06,1,,,,,ユウキ,0
1056,4260001038530,新規,0,2023-12-06,2023-12-06,株式会社バクト,,株式会社,岡山県,真庭市,蒜山下和１２１６番地６,,33,214,7170513,,,,,,,2023-12-06,1,,,,,バクト,0
1060,4290001103934,新規,0,2023-12-06,2023-12-06,株式会社マグノリア,,株式会社,福岡県,福岡市中央区,平和３丁目１５番３７号,,40,133,8100016,,,,,,,2023-12-06,1,,,,,マグノリア,0
1061,4290001103942,新規,0,2023-12-06,2023-12-06,楽天地パーソナル株式会社,,株式会社,福岡県,福岡市博多区,祇園町７番２０号,,40,132,8120038,,,,,,,2023-12-06,1,,,,,ラクテンチパーソナル,0
1066,4290003014683,新規,0,2023-12-06,2023-12-06,合同会社ＦＧＳ,,合同会社,福岡県,福岡市博多区,博多駅東２丁目１０番地５号芙蓉ビル２階,,40,132,8120013,,,,,,,2023-12-06,1,,,,,エフジーエス,0
1067,4290003014691,新規,0,2023-12-06,2023-12-06,Ｇ．Ｙ合同会社,,合同会社,福岡県,福岡市南区,柏原３丁目２４番２６号,,40,134,8111353,,,,,,,2023-12-06,1,,,,,ジーワイ,0
1072,4290801030097,新規,0,2023-12-06,2023-12-06,ＲＭＫ　Ｒｅａｌ　Ｅｓｔａｔｅ株式会社,,株式会社,福岡県,北九州市小倉北区,室町２丁目４番１７号フェルト５１５ー１１０６,,40,106,8030812,,,,,,,2023-12-06,1,,,,,アールエムケーリアルエステート,0
1078,4330001031536,新規,0,2023-12-06,2023-12-06,株式会社Ｎｅｘｅｅｄ,,株式会社,熊本県,荒尾市,住吉町３番地１,,43,204,8640006,,,,,,,2023-12-06,1,,,,,ネクシード,0
1079,4330001031544,新規,0,2023-12-06,2023-12-06,株式会社ＫＬＵ,,株式会社,熊本県,熊本市中央区,花畑町１３番２６号第一銀杏ビル５階,,43,101,8600806,,,,,,,2023-12-06,1,,,,,ケイエルユー,0
1085,4340003004324,新規,0,2023-12-06,2023-12-06,合同会社リカーモ,,合同会社,鹿児島県,鹿児島市,清和３丁目６番２１号１０２,,46,201,8910109,,,,,,,2023-12-06,1,,,,,リカーモ,0
1086,4350001018688,新規,0,2023-12-06,2023-12-06,株式会社Ｇ‐ｂｏｎｄ,,株式会社,宮崎県,宮崎市,淀川１丁目３番１号コアマンション淀川ネクステージ８０２号,,45,201,8800907,,,,,,,2023-12-06,1,,,,,ジーボンド,0
1087,4350001018696,新規,0,2023-12-06,2023-12-06,株式会社井上商会,,株式会社,宮崎県,宮崎市,橘通西２丁目７番１８号,,45,201,8800001,,,,,,,2023-12-06,1,,,,,イノウエショウカイ,0
1090,4360001032894,新規,0,2023-12-06,2023-12-06,株式会社おきなわアオイファーム,,株式会社,沖縄県,那覇市,小禄１丁目２１番２２号１－Ｂ,,47,201,9010152,,,,,,,2023-12-06,1,,,,,オキナワアオイファーム,0
1092,4360005006952,新規,0,2023-12-06,2023-12-06,一般社団法人八重瀬町シルバー人材センター,,その他の設立登記法人,沖縄県,島尻郡八重瀬町,字具志頭６４５番地,,47,362,9010512,,,,,,,2023-12-06,1,,,,,ヤエセチョウシルバージンザイセンター,0
1094,4370001050680,新規,0,2023-12-06,2023-12-06,株式会社ＡＥＯＳ,,株式会社,宮城県,仙台市青葉区,荒巻字青葉４６８番地の１東北大学マテリアル・イノベーション・センター青葉山ガレージ,,04,101,9800845,,,,,,,2023-12-06,1,,,,,エイオス,0
1095,4370003006409,新規,0,2023-12-06,2023-12-06,合同会社八島新聞店,,合同会社,宮城県,塩竈市,東玉川町４番２号,,04,203,9850036,,,,,,,2023-12-06,1,,,,,ヤシマシンブンテン,0
1114,4430003015700,新規,0,2023-12-06,2023-12-06,Ｇｕｒａｍｕ　Ｓｏｆｔｗａｒｅ合同会社,,合同会社,北海道,札幌市中央区,北五条西１１丁目１５番地４,,01,101,0600005,,,,,,,2023-12-06,1,,,,,グラムソフトウェア,0
1115,4430003015717,新規,0,2023-12-06,2023-12-06,合同会社北熊モータース,,合同会社,北海道,札幌市中央区,南二条西３丁目１３－４カタオカビル３Ｆ,,01,101,0600062,,,,,,,2023-12-06,1,,,,,ホクユウモータース,0
1116,4430003015725,新規,0,2023-12-06,2023-12-06,合同会社ライフト,,合同会社,北海道,札幌市中央区,宮の森四条１０丁目５－２７,,01,101,0640954,,,,,,,2023-12-06,1,,,,,ライフト,0
1117,4430005014840,新規,0,2023-12-06,2023-12-06,日本同盟基督教団伊達福音教会,,その他の設立登記法人,北海道,伊達市,梅本町５０番地１２８,,01,233,0520022,,,,,,,2023-12-06,1,,,,,ニホンドウメイキリストキョウダンダテフクインキョウカイ,0
1121,4450001014165,新規,0,2023-12-06,2023-12-06,株式会社サン企画,,株式会社,北海道,紋別郡興部町,字興部６５０番地,,01,561,0981600,,,,,,,2023-12-06,1,,,,,サンキカク,0
1125,4470001019930,新規,0,2023-12-06,2023-12-06,株式会社向陽インターナショナル,,株式会社,香川県,高松市,三名町３８５番地,,37,201,7618083,,,,,,,2023-12-06,1,,,,,コウヨウインターナショナル,0
1126,4480001012315,新規,0,2023-12-06,2023-12-06,株式会社メディカルソルバー,,株式会社,徳島県,徳島市,中前川町４丁目２３番地２,,36,201,7700807,,,,,,,2023-12-06,1,,,,,メディカルソルバー,0
1133,4700150120250,新規,0,2023-12-06,2023-12-06,ｚｈｏｎｇｓｈａｎ　ｇｕｏｘｉａｎｇ　ｄｉａｎｚｉ　ｓｈａｎｇｗｕ　ｙｏｕｘｉａｎ　ｇｏｎｇｓｉ,,外国会社等,,,,,,,,ｚｈｏｎｇｓｈａｎｓｈｉ　ｄａｃｈｏｎｇｚｈｅｎ　ｚｈｏｎｇｘｉｎｌｕｚｈｅｎｈｕｉｋｅｊｉｙｕａｎ　ｆｕｗｕｊｉｄｉ　３ｄｏｎｇ　６ｌｏｕ　ｚｈｉ６ＺｈｏｎｇＳｈａｎ　ＧｕａｎｇｄｏｎｇＣＮ　５２８４００,,,,,,2023-12-06,1,,,,,ジヨンシヤングオシアンデイエンズーシヤンウヨウシエンゴンス,0
1134,4700150120457,新規,0,2023-12-06,2023-12-06,Ｊｉｕｊｉａｎｇｈｕａｎｇａｏｔａｉｍａｏｙｉｙｏｕｘｉａｎｇｏｎｇｓｉ,,外国会社等,,,,,,,,ｗｕｌｉｊｉｅｄａｏｈｅｔａｎｇｘｉｎｃｕｎｓｈｅｑｕｈｅｈｕａｌｏｎｇａｎｚｉｘｉａｏｑｕｙｉｑｉ８ｊｉｕｊｉａｎｇ　ｊｉａｎｇｘｉ　ｌｉａｎｘｉｑｕ　Ｃｈｉｎａ　３３２１９９,,,,,,2023-12-06,1,,,,,ジュージャンファンオータイマオイーヨウシェンゴンス,0
1135,4700150122528,新規,0,2023-12-06,2023-12-06,Ｓｈｅｎｚｈｅｎｓｈｉｃｈｕｙｕｎｊｕｎｓｈｉｙｅｙｏｕｘｉａｎｇｏｎｇｓｉ,,外国会社等,,,,,,,,ｌｏｎｇｇａｎｇｑｕｌｏｎｇｇａｎｇｊｉｅｄａｏｎａｎｌｉａｎｓｈｅｑｕ　ｍａｎｊｉｎｇｈｕａｘｉｙｕｅｌｉｈｕａｔｉｎｇｅｒｑｉ１２ｚｕｏ１８０３　Ｓｈｅｎｚｈｅｎ　Ｇｕａｎｇｄｏｎｇ　５１８１１６ＣＮ,,,,,,2023-12-06,1,,,,,シェンジェンシーチューインジンシーイエヨウシエンゴンスー,0
1143,5010001240523,新規,0,2023-12-06,2023-12-06,株式会社ｍａｈｏｌａｂ．,,株式会社,東京都,中央区,日本橋人形町１丁目１番２１号人形町ビル１階,,13,102,1030013,,,,,,,2023-12-06,1,,,,,マホラボ,0
1144,5010001240531,新規,0,2023-12-06,2023-12-06,日本リスクマネージメント株式会社,,株式会社,東京都,中央区,日本橋本町３丁目４番１８号昭和薬貿ビル５階,,13,102,1030023,,,,,,,2023-12-06,1,,,,,ニホンリスクマネージメント,0
1149,5010005037602,新規,0,2023-12-06,2023-12-06,一般社団法人ＫＨＦ９,,その他の設立登記法人,東京都,千代田区,内幸町２丁目１番６号,,13,101,1000011,,,,,,,2023-12-06,1,,,,,ケイエイチエフナイン,0
1159,5010401178900,新規,0,2023-12-06,2023-12-06,株式会社エスコンスポーツ＆エンターテイメント,,株式会社,東京都,港区,虎ノ門２丁目１０番４号,,13,103,1050001,,,,,,,2023-12-06,1,,,,,エスコンスポーツアンドエンターテイメント,0
1160,5010401178917,新規,0,2023-12-06,2023-12-06,株式会社Ｗｅａｌｓｙｎｃ,,株式会社,東京都,港区,南青山２丁目２番１５号ウィン青山９４２,,13,103,1070062,,,,,,,2023-12-06,1,,,,,ウェルシンク,0
1161,5010401178925,新規,0,2023-12-06,2023-12-06,株式会社Ｎｅｘｔ　Ｇａｍｉｎｇ　Ｔｅｃｈ,,株式会社,東京都,港区,新橋５丁目１２番１１号天翔新橋５丁目ビル９０７,,13,103,1050004,,,,,,,2023-12-06,1,,,,,ネクストゲーミングテック,0
1162,5010403031504,新規,0,2023-12-06,2023-12-06,合同会社Ｇｒｅｅｎ　Ｂｕｉｌｄｉｎｇ　Ｅｃｏｓｙｓｔｅｍ,,合同会社,東京都,港区,西新橋１丁目２番９号メンターキャピタル税理士法人内,,13,103,1050003,,,,,,,2023-12-06,1,,,,,グリーンビルディングエコシステム,0
1166,5010701045222,新規,0,2023-12-06,2023-12-06,株式会社Ｓｅａ　ｍｅｅｔｓ　Ｅａｒｔｈ,,株式会社,東京都,品川区,東五反田１丁目１０番７号ＡＩＯＳ五反田ビル１Ｆ,,13,109,1410022,,,,,,,2023-12-06,1,,,,,シーミーツアース,0
1167,5010801034579,新規,0,2023-12-06,2023-12-06,株式会社小虎,,株式会社,東京都,大田区,西蒲田６丁目２４番２号,,13,111,1440051,,,,,,,2023-12-06,1,,,,,シャウフウ,0
1178,5011001158648,新規,0,2023-12-06,2023-12-06,株式会社Ａｍｒ,,株式会社,東京都,目黒区,緑が丘２丁目１６番１９号グリーン自由が丘２Ｆ,,13,110,1520034,,,,,,,2023-12-06,1,,,,,エーエムアール,0
1181,5011003018049,新規,0,2023-12-06,2023-12-06,合同会社ｉｄｉｏｍｏｒｐｈ,,合同会社,東京都,渋谷区,富ヶ谷１丁目９番２３号服部ビル４０１,,13,113,1510063,,,,,,,2023-12-06,1,,,,,イディオモーフ,0
1187,5011101105343,新規,0,2023-12-06,2023-12-06,株式会社Ｒｅ．Ｑｕｅｓｔ,,株式会社,東京都,新宿区,西新宿３丁目９番７号フロンティア新宿タワーオフィス２階,,13,104,1600023,,,,,,,2023-12-06,1,,,,,リクエスト,0
1188,5011101105384,新規,0,2023-12-06,2023-12-06,ＬＳＹ投資株式会社,,株式会社,東京都,新宿区,四谷三栄町１２番４４号東洋四谷ビルＢ１－１,,13,104,1600008,,,,,,,2023-12-06,1,,,,,エルエスワイトウシ,0
1190,5011201025086,新規,0,2023-12-06,2023-12-06,株式会社久栄の,,株式会社,東京都,中野区,本町４丁目４４番２０－１００１号,,13,114,1640012,,,,,,,2023-12-06,1,,,,,ヒサエノ,0
1192,5011203004245,新規,0,2023-12-06,2023-12-06,祥玄合同会社,,合同会社,東京都,中野区,本町４丁目３６番３号長興新中野マンション５０３,,13,114,1640012,,,,,,,2023-12-06,1,,,,,ショウゲン,0
1193,5011401025662,新規,0,2023-12-06,2023-12-06,株式会社Ａｉｒ　Ｆｌｏｗ,,株式会社,東京都,板橋区,板橋１丁目１４番６号,,13,119,1730004,,,,,,,2023-12-06,1,,,,,エアーフロー,0
1194,5011403004193,新規,0,2023-12-06,2023-12-06,合同会社ＳＯＮＩＣ　ＬＡＢＯ,,合同会社,東京都,板橋区,成増３丁目２１－１５,,13,119,1750094,,,,,,,2023-12-06,1,,,,,ソニックラボ,0
1197,5011603004159,新規,0,2023-12-06,2023-12-06,合同会社Ｌｉ’Ａｌｉｚｅ,,合同会社,東京都,練馬区,土支田３丁目３４番３号,,13,120,1790076,,,,,,,2023-12-06,1,,,,,リアライズ,0
1200,5011801043446,新規,0,2023-12-06,2023-12-06,株式会社ＳＴＡＲＦＩＳＨ,,株式会社,東京都,足立区,綾瀬１丁目３－１２,,13,121,1200005,,,,,,,2023-12-06,1,,,,,スターフィッシュ,0
1201,5011801043454,新規,0,2023-12-06,2023-12-06,株式会社嘉川,,株式会社,東京都,足立区,竹の塚２丁目２９番１３号,,13,121,1210813,,,,,,,2023-12-06,1,,,,,カガワ,0
1206,5012403006304,新規,0,2023-12-06,2023-12-06,合同会社リルク,,合同会社,東京都,府中市,緑町３丁目１８番地の２ヴェラハイツ第１東府中２階,,13,206,1830006,,,,,,,2023-12-06,1,,,,,リルク,0
1207,5012801022803,新規,0,2023-12-06,2023-12-06,アクトローカル株式会社,,株式会社,東京都,昭島市,拝島町１丁目７番３号,,13,207,1960002,,,,,,,2023-12-06,1,,,,,アクトローカル,0
1212,5013301051722,新規,0,2023-12-06,2023-12-06,ビッグトップエージェント株式会社,,株式会社,東京都,豊島区,北大塚１丁目１４番９号,,13,116,1700004,,,,,,,2023-12-06,1,,,,,ビッグトップエージェント,0
1222,5020001154730,新規,0,2023-12-06,2023-12-06,株式会社Ｍｅｉｌｉｅ,,株式会社,神奈川県,横浜市中区,福富町西通３９番地１・３０２号,,14,104,2310042,,,,,,,2023-12-06,1,,,,,メイリー,0
1223,5020001154747,新規,0,2023-12-06,2023-12-06,株式会社地域デザイン創造社,,株式会社,神奈川県,川崎市高津区,二子１丁目８番３９号,,14,134,2130002,,,,,,,2023-12-06,1,,,,,チイキデザインソウゾウシャ,0
1224,5020001154755,新規,0,2023-12-06,2023-12-06,株式会社シーコネクト,,株式会社,神奈川県,横浜市神奈川区,栄町１０番地３５,,14,102,2210052,,,,,,,2023-12-06,1,,,,,シーコネクト,0
1225,5020001154763,新規,0,2023-12-06,2023-12-06,株式会社ＴＥＭＰＯ,,株式会社,神奈川県,横浜市港北区,新吉田町５１３６,,14,109,2230056,,,,,,,2023-12-06,1,,,,,テンポ,0
1226,5020001154771,新規,0,2023-12-06,2023-12-06,株式会社Ｓｔｒａｔｅｇｉｃ　Ｉｎｔｅｌｌｉｇｅｎｃｅ,,株式会社,神奈川県,横浜市青葉区,黒須田２８－２３,,14,117,2250022,,,,,,,2023-12-06,1,,,,,ストラテジックインテリジェンス,0
1232,5020003025112,新規,0,2023-12-06,2023-12-06,＿坊合同会社,00132889,合同会社,神奈川県,横浜市中区,山下町１５０番地７－３階,,14,104,2310023,,,,,,,2023-12-06,1,,,,,キボウ,0
1233,5020003025129,新規,0,2023-12-06,2023-12-06,合同会社ｍｕｓｉｃ　ｃｕｂｅ　ＡＰＡＣＨＥ,,合同会社,神奈川県,川崎市幸区,中幸町３丁目１８番地小竹ビル５０５,,14,132,2120012,,,,,,,2023-12-06,1,,,,,ミュージックキューブアパッチ,0
1234,5020003025137,新規,0,2023-12-06,2023-12-06,合同会社ＭＯＧＹ５,,合同会社,神奈川県,横浜市港南区,港南台９丁目１３番１－１０１号,,14,111,2340054,,,,,,,2023-12-06,1,,,,,モギーファイブ,0
1235,5020003025153,新規,0,2023-12-06,2023-12-06,小峰ホーム合同会社,,合同会社,神奈川県,横浜市旭区,東希望が丘２５－２４,,14,112,2410826,,,,,,,2023-12-06,1,,,,,コミネホーム,0
1241,5021001080891,新規,0,2023-12-06,2023-12-06,株式会社ｎｉｃｏ．,,株式会社,神奈川県,厚木市,中町２丁目１番２号厚木中央ビル２－Ａ,,14,212,2430018,,,,,,,2023-12-06,1,,,,,ニコ,0
1251,5030001157402,新規,0,2023-12-06,2023-12-06,株式会社Ｌｅｓ　ｌｉｅｎ,,株式会社,埼玉県,さいたま市西区,西大宮２丁目２５番地１１,,11,101,3310078,,,,,,,2023-12-06,1,,,,,レリアン,0
1252,5030001157492,新規,0,2023-12-06,2023-12-06,ｅＨＲ株式会社,,株式会社,埼玉県,さいたま市北区,土呂町１丁目３１番地２１,,11,102,3310804,,,,,,,2023-12-06,1,,,,,イーエイチアール,0
1253,5030001157518,新規,0,2023-12-06,2023-12-06,株式会社ＹＭトランスポート,,株式会社,埼玉県,所沢市,小手指町２丁目１４番地の２小手指シティーハイツ２０２,,11,208,3591141,,,,,,,2023-12-06,1,,,,,ワイエムトランスポート,0
1258,5030003023115,新規,0,2023-12-06,2023-12-06,合同会社Ｒ＆Ｎ　ｉｎｃ,,合同会社,埼玉県,桶川市,末広３丁目１０番４－２号,,11,231,3630012,,,,,,,2023-12-06,1,,,,,アールアンドエヌインク,0
1267,5040003023857,新規,0,2023-12-06,2023-12-06,合同会社ワイズクリーン,,合同会社,千葉県,松戸市,二ツ木１３８１番地の１４,,12,207,2700027,,,,,,,2023-12-06,1,,,,,ワイズクリーン,0
1268,5040003023865,新規,0,2023-12-06,2023-12-06,合同会社エスペランサ,,合同会社,千葉県,市川市,曽谷５丁目２２－５,,12,203,2720832,,,,,,,2023-12-06,1,,,,,エスペランサ,0
1269,5040003023881,新規,0,2023-12-06,2023-12-06,合同会社悠々ハート,,合同会社,千葉県,市川市,大和田１丁目４－１０,,12,203,2720025,,,,,,,2023-12-06,1,,,,,ユウユウハート,0
1280,5080003003104,新規,0,2023-12-06,2023-12-06,合同会社サイドスリー,,合同会社,静岡県,静岡市駿河区,敷地２丁目１３番５号和み館しきぢ２０６,,22,102,4228036,,,,,,,2023-12-06,1,,,,,サイドスリー,0
1281,5080101024381,新規,0,2023-12-06,2023-12-06,株式会社Ｂｒｉｌｌａｎｔｅ　Ｇｒｏｕｐ,,株式会社,静岡県,沼津市,新宿町１７番地の１１、２階,,22,203,4100048,,,,,,,2023-12-06,1,,,,,ブリランテグループ,0
1284,5090001018441,新規,0,2023-12-06,2023-12-06,東州株式会社,,株式会社,山梨県,南アルプス市,小笠原４３２－１３,,19,208,4000306,,,,,,,2023-12-06,1,,,,,トウシュウ,0
1286,5100001037027,新規,0,2023-12-06,2023-12-06,株式会社アイクラフト,,株式会社,長野県,飯田市,下久堅下虎岩３１３３番地３,,20,205,3992602,,,,,,,2023-12-06,1,,,,,アイクラフト,0
1289,5110003005229,新規,0,2023-12-06,2023-12-06,合同会社カックアップ,,合同会社,新潟県,上越市,下源入２６２番地１,,15,222,9420051,,,,,,,2023-12-06,1,,,,,カックアップ,0
1297,5120001260361,新規,0,2023-12-06,2023-12-06,株式会社ＮＩＮＥ,,株式会社,大阪府,大阪市阿倍野区,西田辺町１丁目１１番９号,,27,119,5450014,,,,,,,2023-12-06,1,,,,,ナイン,0
1298,5120001260428,新規,0,2023-12-06,2023-12-06,株式会社和気,,株式会社,大阪府,守口市,八雲東町２丁目６４番１３号,,27,209,5700021,,,,,,,2023-12-06,1,,,,,ワキ,0
1300,5120003025465,新規,0,2023-12-06,2023-12-06,合同会社ＴＥＴ‐ＲＡ,,合同会社,大阪府,大阪市平野区,喜連５丁目９番２９号,,27,126,5470027,,,,,,,2023-12-06,1,,,,,テトラ,0
1303,5120101068589,新規,0,2023-12-06,2023-12-06,株式会社あまのがわ,,株式会社,大阪府,泉大津市,森町１丁目１－５５,,27,206,5950005,,,,,,,2023-12-06,1,,,,,アマノガワ,0
1304,5120101068630,新規,0,2023-12-06,2023-12-06,株式会社杉の屋,,株式会社,大阪府,堺市北区,百舌鳥梅北町４丁１６１番地２,,27,146,5918031,,,,,,,2023-12-06,1,,,,,スギノヤ,0
1305,5120901048443,新規,0,2023-12-06,2023-12-06,株式会社アライズ,,株式会社,大阪府,吹田市,垂水町１丁目１４番１号,,27,205,5640062,,,,,,,2023-12-06,1,,,,,アライズ,0
1312,5130001075858,新規,0,2023-12-06,2023-12-06,土地建物総合管理株式会社,,株式会社,京都府,京都市下京区,四条通西洞院西入ル傘鉾町５４番,,26,106,6000000,,,,,,,2023-12-06,1,,,,,トチタテモノソウゴウカンリ,0
1313,5130001075866,新規,0,2023-12-06,2023-12-06,株式会社勇進舘,00132892,株式会社,京都府,京都市中京区,六角通新京極東入松ケ枝町４５２番地４スーパーグランドビルＢ１,,26,104,6048034,,,,,,,2023-12-06,1,,,,,ユウシンドウ,0
1314,5130003009178,新規,0,2023-12-06,2023-12-06,ｂｉａｎｃａ　ｌｅｇａｍｅ合同会社,,合同会社,京都府,京都市下京区,朱雀宝蔵町４４番地協栄ビル２階京都朱雀スタジオＹ－１０６,,26,106,6008846,,,,,,,2023-12-06,1,,,,,ビアンカレガーメ,0
1315,5140001132261,新規,0,2023-12-06,2023-12-06,株式会社アジアリクルート,,株式会社,兵庫県,神戸市中央区,宮本通５丁目７－１０,,28,110,6510063,,,,,,,2023-12-06,1,,,,,アジアリクルート,0
1316,5140001132550,新規,0,2023-12-06,2023-12-06,株式会社サンワーク,,株式会社,兵庫県,伊丹市,西台３丁目９番２２号,,28,207,6640858,,,,,,,2023-12-06,1,,,,,サンワーク,0
1317,5140001132575,新規,0,2023-12-06,2023-12-06,株式会社神成産業,,株式会社,兵庫県,加古郡播磨町,東野添１丁目１２番,,28,382,6750159,,,,,,,2023-12-06,1,,,,,シンセイサンギョウ,0
1325,5160003003054,新規,0,2023-12-06,2023-12-06,合同会社はせがわ,,合同会社,滋賀県,守山市,浮気町３４６番地１０,,25,207,5240033,,,,,,,2023-12-06,1,,,,,ハセガワ,0
1329,5180001159169,新規,0,2023-12-06,2023-12-06,ＫＳ商事株式会社,,株式会社,愛知県,一宮市,木曽川町里小牧字寺北４０番地１６,,23,203,4930005,,,,,,,2023-12-06,1,,,,,ケイエスショウジ,0
1330,5180001159185,新規,0,2023-12-06,2023-12-06,株式会社アップトレンド,,株式会社,愛知県,名古屋市東区,葵１丁目２６番１０号ユニーブル新栄８０８,,23,102,4610004,,,,,,,2023-12-06,1,,,,,アップトレンド,0
1331,5180001159227,新規,0,2023-12-06,2023-12-06,株式会社ＮＥＯ　ｕｎｉｔｅｄ,,株式会社,愛知県,名古屋市港区,木場町９番地の２３第三津喜地屋ビル３Ｂ,,23,111,4550021,,,,,,,2023-12-06,1,,,,,ネオユナイテッド,0
1332,5180001159243,新規,0,2023-12-06,2023-12-06,株式会社政富興運,,株式会社,愛知県,名古屋市守山区,村合町３４番地の４,,23,113,4630083,,,,,,,2023-12-06,1,,,,,マサトミコウウン,0
1336,5180003026078,新規,0,2023-12-06,2023-12-06,合同会社コモノコンサルティング,,合同会社,愛知県,名古屋市東区,泉１丁目３番３０号プレサンス泉シティアーク２０２号,,23,102,4610001,,,,,,,2023-12-06,1,,,,,コモノコンサルティング,0
1337,5180005020442,新規,0,2023-12-06,2023-12-06,一般社団法人日本甲冑制作研究会,,その他の設立登記法人,愛知県,名古屋市熱田区,一番２丁目４５番４号,,23,109,4560053,,,,,,,2023-12-06,1,,,,,ニホンカッチュウセイサクケンキュウカイ,0
1347,5210001019567,新規,0,2023-12-06,2023-12-06,株式会社ｍｏｎａ,,株式会社,福井県,敦賀市,中央町２丁目５番４５－６０５号サーパス中央町,,18,202,9140811,,,,,,,2023-12-06,1,,,,,モナ,0
1349,5230003002115,新規,0,2023-12-06,2023-12-06,合同会社サットサービス,,合同会社,富山県,射水市,庄川本町１９番７号,,16,211,9340003,,,,,,,2023-12-06,1,,,,,サットサービス,0
1357,5240003006437,新規,0,2023-12-06,2023-12-06,合同会社ペガサス,,合同会社,広島県,福山市,神辺町字東中条甲５５０番地,,34,207,7202102,,,,,,,2023-12-06,1,,,,,ペガサス,0
1361,5260001038521,新規,0,2023-12-06,2023-12-06,株式会社ＰＥＯクリエイト,,株式会社,岡山県,倉敷市,西阿知町９９９番地１０,,33,202,7100807,,,,,,,2023-12-06,1,,,,,ピーイーオークリエイト,0
1364,5290001103875,新規,0,2023-12-06,2023-12-06,株式会社勇猛庭,,株式会社,福岡県,福岡市博多区,金の隈１丁目４３番４３号,,40,132,8120863,,,,,,,2023-12-06,1,,,,,ユウモウテイ,0
1365,5290001103941,新規,0,2023-12-06,2023-12-06,株式会社フューチャークロス,,株式会社,福岡県,福岡市中央区,天神４丁目３番３０号,,40,133,8100001,,,,,,,2023-12-06,1,,,,,フューチャークロス,0
1367,5290003014674,新規,0,2023-12-06,2023-12-06,合同会社ｐｉ‐ｐｌ,,合同会社,福岡県,福岡市中央区,輝国２丁目２４番２５‐８０３号,,40,133,8100032,,,,,,,2023-12-06,1,,,,,ピープル,0
1369,5300001013544,新規,0,2023-12-06,2023-12-06,三和九州日機工業株式会社,,株式会社,佐賀県,佐賀市,高木瀬西２丁目１３番１９号,,41,201,8490921,,,,,,,2023-12-06,1,,,,,サンワキュウシュウニッキコウギョウ,0
1370,5320003004242,新規,0,2023-12-06,2023-12-06,合同会社英商工,,合同会社,大分県,速見郡日出町,大字豊岡４８７３番地１１,,44,341,8791507,,,,,,,2023-12-06,1,,,,,ハナブサショウコウ,0
1371,5320005010115,新規,0,2023-12-06,2023-12-06,一般社団法人宇佐両院管工事協会,,その他の設立登記法人,大分県,宇佐市,院内町御沓６３０番地,,44,211,8720301,,,,,,,2023-12-06,1,,,,,ウサリョウインカンコウジキョウカイ,0
1380,5340003004323,新規,0,2023-12-06,2023-12-06,海神の郷合同会社,,合同会社,鹿児島県,鹿児島市,城南町２４番２８号,,46,201,8920835,,,,,,,2023-12-06,1,,,,,ウナガミノサト,0
1381,5340005009683,新規,0,2023-12-06,2023-12-06,一般社団法人環霧島みらい研究所,,その他の設立登記法人,鹿児島県,霧島市,国分清水３丁目１４番５５号,,46,218,8994304,,,,,,,2023-12-06,1,,,,,カンキリシマミライケンキュウジョ,0
1388,5350001018687,新規,0,2023-12-06,2023-12-06,株式会社小山田石油,,株式会社,宮崎県,都城市,乙房町３８６番地４,,45,202,8850112,,,,,,,2023-12-06,1,,,,,オヤマダセキユ,0
1394,5360005006951,新規,0,2023-12-06,2023-12-06,税理士法人はごろも,,その他の設立登記法人,沖縄県,宜野湾市,普天間２丁目３２番６号,,47,205,9012202,,,,,,,2023-12-06,1,,,,,ハゴロモ,0
1397,5370001050696,新規,0,2023-12-06,2023-12-06,株式会社プルミエ,,株式会社,宮城県,仙台市泉区,泉ケ丘５丁目１２番２１号,,04,105,9813201,,,,,,,2023-12-06,1,,,,,プルミエ,0
1403,5400001016479,新規,0,2023-12-06,2023-12-06,ＩＮＫＥＤ株式会社,,株式会社,岩手県,盛岡市,川目町１９番５号,,03,201,0200811,,,,,,,2023-12-06,1,,,,,インクド,0
1412,5470005006536,新規,0,2023-12-06,2023-12-06,特定非営利活動法人１つだけ美術館,,その他の設立登記法人,香川県,高松市,西宝町３丁目１番２－２０１号アールひだまり西宝町Ａ,,37,201,7600004,,,,,,,2023-12-06,1,,,,,ヒトツダケビジュツカン,0
1417,5500001025346,新規,0,2023-12-06,2023-12-06,株式会社エースペイント,,株式会社,愛媛県,松山市,北久米町１０３０番地４,,38,201,7900923,,,,,,,2023-12-06,1,,,,,エースペイント,0
1423,5700150118566,新規,0,2023-12-06,2023-12-06,Ｈａｎｇｚｈｏｕ　Ａｏｗｅｉｌｏｎｇ　Ｆｕｒｎｉｔｕｒｅ　Ｃｏ．Ｌｔｄ．,,外国会社等,,,,,,,,ＺｈｅＪｉａｎｇ　ＨａｎｇＺｈｏｕ　ＳＨＩ　ＸｉａｏＳｈａｎ　Ｑｕ　ＧｕａＬｉ　Ｚｈｅｎ　ＳｈａｎＳａｎ　Ｃｕｎ　８ｚｕ,,,,,,2023-12-06,1,,,,,ハンジョウアオウェイロンファニチャーカンパニーリミテッド,0
1424,5700150120464,新規,0,2023-12-06,2023-12-06,ｓｈｅｎｚｈｅｎ　ｔａｎ　ｓｕｏ　ｚｈｅ　ｈｕｗａｉｙｏｎｇ　ｐｉｎ　ｙｏｕｘｉａｎｇｏｎｇｓｉ,,外国会社等,,,,,,,,ｓｈｅｎｚｈｅｎｓｈｉｂａｏａｎｑｕｃｈｅｎｔｉａｎｇｏｎｇｙｅｑｕｒｏｎｇｈｅｎｇｘｉｎｙｕａｎ５Ｂｚｕｏ１３Ａ０１　ｓｈｅｎｚｈｅｎｓｈｉ　ｇｕａｎｇｄｏｎｇ　ＣＮ　５１８０００,,,,,,2023-12-06,1,,,,,シエンジエンタンスオジヨアフウワイヨンピンヨウシエンゴンスー,0
1425,5700150120992,新規,0,2023-12-06,2023-12-06,ＳｈｅｎＺｈｅｎＳｈｉ　ＹｉＫｅＤａＪｕｎ　Ｔｅｃｈｎｏｌｏｇｙ　Ｃｏ．，Ｌｔｄ,,外国会社等,,,,,,,,ｚｈａｏｓｈａｎｇｊｉｅｄａｏｎａｎｈａｉｄａｄａｏ１０１０ｎａｎｂｏｋｅｊｉｄａｓｈａ６０９　ｎａｎｓｈａｎｑｕ　ｓｈｅｎｚｈｅｎ　ｇｕａｎｇｄｏｎｇ　５１８０００　ＣＮ,,,,,,2023-12-06,1,,,,,シェンジェンシイーカーダージュンテクノロジーカンパニーリミテッド,0
1426,5700150122527,新規,0,2023-12-06,2023-12-06,Ｙａｎ　Ｊｉ　Ｊｉｎ　Ｄｉ　Ｔｅｃｈｎｏｌｏｇｙ　Ｃｏ．，Ｌｔｄ．,,外国会社等,,,,,,,,Ｔｕａｎ　Ｊｉｅ　Ｌｕ　１７１－２　Ｙａｎ　Ｊｉ　Ｓｈｉ　Ｊｉ　Ｌｉｎ　１３３０００ＣＮ,,,,,,2023-12-06,1,,,,,イエンジージンディーコージーヨウシエンゴンスー,0
1440,6010001240448,新規,0,2023-12-06,2023-12-06,ＯＭＴ株式会社,,株式会社,東京都,中央区,入船３丁目１番４号,,13,102,1040042,,,,,,,2023-12-06,1,,,,,オーエムティー,0
1441,6010001240514,新規,0,2023-12-06,2023-12-06,Ｐａｓｔｅｌ　Ｌａｂ株式会社,,株式会社,東京都,文京区,本郷３丁目３０番２号内田ビル１階,,13,105,1130033,,,,,,,2023-12-06,1,,,,,パステルラボ,0
1442,6010001240522,新規,0,2023-12-06,2023-12-06,株式会社Ｄｅｍｏｉｓｅｌｌｅ,,株式会社,東京都,中央区,銀座１丁目１２番４号Ｎ＆ＥＢＬＤ．６Ｆ,,13,102,1040061,,,,,,,2023-12-06,1,,,,,ドゥモワゼル,0
1443,6010001240539,新規,0,2023-12-06,2023-12-06,株式会社不動産パーク,,株式会社,東京都,中央区,日本橋大伝馬町１３番７号,,13,102,1030011,,,,,,,2023-12-06,1,,,,,フドウサンパーク,0
1444,6010001240555,新規,0,2023-12-06,2023-12-06,株式会社エスアイ,,株式会社,東京都,中央区,日本橋室町１丁目１１番１２号日本橋水野ビル７階,,13,102,1030022,,,,,,,2023-12-06,1,,,,,エスアイ,0
1449,6010003042363,新規,0,2023-12-06,2023-12-06,合同会社東京セントラルリアルティ,,合同会社,東京都,中央区,日本橋１丁目４番１号,,13,102,1030027,,,,,,,2023-12-06,1,,,,,トウキョウセントラルリアルティ,0
1454,6010401178899,新規,0,2023-12-06,2023-12-06,株式会社ハナワテクノハウス,,株式会社,東京都,港区,六本木７丁目１１番９号ＲＯＳＳＯ２Ｂ,,13,103,1060032,,,,,,,2023-12-06,1,,,,,ハナワテクノハウス,0
1455,6010401178908,新規,0,2023-12-06,2023-12-06,株式会社Ｌｉｇａｒｏ　Ｌｉｆｅ,,株式会社,東京都,港区,青山三丁目１番３６号青山丸竹ビル６Ｆ,,13,103,1050000,,,,,,,2023-12-06,1,,,,,リガーロライフ,0
1456,6010401178916,新規,0,2023-12-06,2023-12-06,株式会社ＫＤＴ,,株式会社,東京都,港区,麻布十番２丁目４番８号プレサジオ４０１,,13,103,1060045,,,,,,,2023-12-06,1,,,,,ケイディーティー,0
1457,6010401178924,新規,0,2023-12-06,2023-12-06,株式会社メタコネクト,,株式会社,東京都,港区,新橋５丁目１２番１１号天翔新橋５丁目ビル９０７,,13,103,1050004,,,,,,,2023-12-06,1,,,,,メタコネクト,0
1461,6010503007238,新規,0,2023-12-06,2023-12-06,アルタイルアドバイザリー合同会社,,合同会社,東京都,台東区,浅草３丁目３８番５ー２０６号サンクタス浅草レジデンス,,13,106,1110032,,,,,,,2023-12-06,1,,,,,アルタイルアドバイザリー,0
1463,6010603010505,新規,0,2023-12-06,2023-12-06,エバービリオン合同会社,,合同会社,東京都,江東区,豊洲３丁目６番５－４１０６号,,13,108,1350061,,,,,,,2023-12-06,1,,,,,エバービリオン,0
1468,6010801034578,新規,0,2023-12-06,2023-12-06,株式会社北杜アズビー,,株式会社,東京都,大田区,上池台１丁目１４番１８号,,13,111,1450064,,,,,,,2023-12-06,1,,,,,ホクトアズビー,0
1474,6011001158523,新規,0,2023-12-06,2023-12-06,株式会社一双,,株式会社,東京都,渋谷区,桜丘町２３番１７号シティコート桜丘４０８号,,13,113,1500031,,,,,,,2023-12-06,1,,,,,イッソウ,0
1475,6011001158606,新規,0,2023-12-06,2023-12-06,株式会社ＳｙｎｃＢｌｏｏｍ,,株式会社,東京都,渋谷区,道玄坂１丁目１０番８号渋谷道玄坂東急ビル２Ｆ－Ｃ,,13,113,1500043,,,,,,,2023-12-06,1,,,,,シンクブルーム,0
1476,6011001158639,新規,0,2023-12-06,2023-12-06,株式会社テクノアニマ,,株式会社,東京都,渋谷区,恵比寿西２丁目４番８号ウィンド恵比寿ビル８Ｆ,,13,113,1500021,,,,,,,2023-12-06,1,,,,,テクノアニマ,0
1479,6011003018048,新規,0,2023-12-06,2023-12-06,ギャラクティックブレーン合同会社,,合同会社,東京都,目黒区,下目黒１丁目１番１４号コノトラビル７階,,13,110,1530064,,,,,,,2023-12-06,1,,,,,ギャラクティックブレーン,0
1486,6011101105342,新規,0,2023-12-06,2023-12-06,株式会社ＫＥＴ　ＰＲＯＭＯＴＩＯＮ,,株式会社,東京都,新宿区,新宿２丁目１５番２２号Ｌａｎｄｗｏｒｋ新宿ビル３階Ａ号室,,13,104,1600022,,,,,,,2023-12-06,1,,,,,ケーイーティープロモーション,0
1487,6011101105350,新規,0,2023-12-06,2023-12-06,株式会社Ｏ＆Ｏ,,株式会社,東京都,新宿区,西新宿４丁目１７番６－１０１号,,13,104,1600023,,,,,,,2023-12-06,1,,,,,オーアンドオー,0
1492,6011103013816,新規,0,2023-12-06,2023-12-06,ＬＲＦ３プロパティーズ合同会社,,合同会社,東京都,新宿区,四谷２丁目９番地１５東京ユナイテッド綜合事務所内,,13,104,1600004,,,,,,,2023-12-06,1,,,,,エルアールエフスリープロパティーズ,0
1496,6011203004244,新規,0,2023-12-06,2023-12-06,ＬａＶｉｅ　Ｃｏｕｃｏｕ合同会社,,合同会社,東京都,中野区,弥生町１丁目４３番１号アーデルホーフ弥生町１Ｅ,,13,114,1640013,,,,,,,2023-12-06,1,,,,,ラヴィクウクウ,0
1501,6011401025645,新規,0,2023-12-06,2023-12-06,株式会社いろは,,株式会社,東京都,板橋区,成増２丁目４番５号石川コーポ１０１,,13,119,1750094,,,,,,,2023-12-06,1,,,,,,0
1502,6011401025661,新規,0,2023-12-06,2023-12-06,株式会社トミデン,,株式会社,東京都,板橋区,高島平５丁目４９番９号,,13,119,1750082,,,,,,,2023-12-06,1,,,,,トミデン,0
1503,6011501030082,新規,0,2023-12-06,2023-12-06,ＭＫ株式会社,,株式会社,東京都,北区,滝野川６丁目４４番１３－８０１号,,13,117,1140023,,,,,,,2023-12-06,1,,,,,エムケー,0
1504,6011501030090,新規,0,2023-12-06,2023-12-06,ＨＯＢＥ　ＥＮＥＲＧＹ株式会社,,株式会社,東京都,北区,滝野川１丁目７６番８号,,13,117,1140023,,,,,,,2023-12-06,1,,,,,ホウビエナジー,0
1506,6011603004158,新規,0,2023-12-06,2023-12-06,合同会社猫の手,,合同会社,東京都,練馬区,早宮４丁目３６番１０号Ｂｒａｎｃｈｅ豊島園２０５号室,,13,120,1790085,,,,,,,2023-12-06,1,,,,,ネコノテ,0
1509,6011701026822,新規,0,2023-12-06,2023-12-06,Ｙ＆Ｚ株式会社,,株式会社,東京都,江戸川区,宇喜田町１１０９－１－６０２,,13,123,1340082,,,,,,,2023-12-06,1,,,,,ワイアンドゼット,0
1510,6011803005971,新規,0,2023-12-06,2023-12-06,合同会社来来,,合同会社,東京都,足立区,南花畑４丁目２４番１５号ブルーメセゾンＩＩ１０５,00132887,13,121,1210062,,,,,,,2023-12-06,1,,,,,ライライ,0
1516,6012401041293,新規,0,2023-12-06,2023-12-06,株式会社Ｔａｋｅｉｃｈｉ,,株式会社,東京都,稲城市,向陽台４丁目４番地の２ビュープラザ向陽台２－１２１１,,13,225,2060803,,,,,,,2023-12-06,1,,,,,タケイチ,0
1520,6012801022802,新規,0,2023-12-06,2023-12-06,株式会社ｓｏｅｌｌ,,株式会社,東京都,立川市,柴崎町２丁目１番５号立川龍生堂ビル３Ｆ,,13,202,1900023,,,,,,,2023-12-06,1,,,,,ソエル,0
1527,6013301051721,新規,0,2023-12-06,2023-12-06,株式会社３ｃｏｎｎｅｃｔ,,株式会社,東京都,豊島区,雑司が谷１丁目３８－２－２０２,,13,116,1710032,,,,,,,2023-12-06,1,,,,,スリーコネクト,0
1533,6020001154754,新規,0,2023-12-06,2023-12-06,株式会社Ｄ‐Ｉ’ｚ,,株式会社,神奈川県,横浜市鶴見区,馬場１丁目１０番６－Ａ２０１号,,14,101,2300076,,,,,,,2023-12-06,1,,,,,ディーアイズ,0
1534,6020001154762,新規,0,2023-12-06,2023-12-06,ＨＵＧ．ｓｉｇｎ株式会社,,株式会社,神奈川県,川崎市川崎区,出来野３番１－１０３号ワンズレジデンス,,14,131,2100825,,,,,,,2023-12-06,1,,,,,ハグサイン,0
1535,6020001154770,新規,0,2023-12-06,2023-12-06,株式会社アネカワ防災,,株式会社,神奈川県,横浜市保土ケ谷区,鎌谷町２１５－２,,14,106,2400063,,,,,,,2023-12-06,1,,,,,アネカワボウサイ,0
1540,6021001080882,新規,0,2023-12-06,2023-12-06,ｅｎｄｅｅ株式会社,,株式会社,神奈川県,小田原市,城山３丁目１番２９号,,14,206,2500045,,,,,,,2023-12-06,1,,,,,エンディー,0
1541,6021001080890,新規,0,2023-12-06,2023-12-06,株式会社シナモン,,株式会社,神奈川県,大和市,林間２丁目２２番１９号,,14,213,2420003,,,,,,,2023-12-06,1,,,,,シナモン,0
1542,6021001080899,新規,0,2023-12-06,2023-12-06,株式会社日本リウマチ膠原病ケアパートナーズ,,株式会社,神奈川県,大和市,中央林間４丁目７番１２－１０１号,,14,213,2420007,,,,,,,2023-12-06,1,,,,,ニホンリウマチコウゲンビョウケアパートナーズ,0
1543,6021001080908,新規,0,2023-12-06,2023-12-06,株式会社漠漠,,株式会社,神奈川県,藤沢市,円行１８８９番地の３テラスハウス矢部Ｂ１１０,,14,205,2520805,,,,,,,2023-12-06,1,,,,,バクバク,0
1561,6040001131165,新規,0,2023-12-06,2023-12-06,株式会社フードコネクト,,株式会社,千葉県,香取市,虫幡１９０番地１,,12,236,2890341,,,,,,,2023-12-06,1,,,,,フードコネクト,0
1562,6040001131223,新規,0,2023-12-06,2023-12-06,富士鉄総業ホールディングス株式会社,,株式会社,千葉県,千葉市中央区,東千葉１丁目１３番２号,,12,101,2600041,,,,,,,2023-12-06,1,,,,,フジテツソウギョウホールディングス,0
1565,6040003023856,新規,0,2023-12-06,2023-12-06,合同会社ＴＯＫＩＷＡ,,合同会社,千葉県,松戸市,常盤平６丁目３番地８,,12,207,2702261,,,,,,,2023-12-06,1,,,,,トキワ,0
1569,6050001053870,新規,0,2023-12-06,2023-12-06,千祥瑞国際株式会社,,株式会社,茨城県,筑西市,松原１１２７番地１,,08,227,3004541,,,,,,,2023-12-06,1,,,,,センショウリコクサイ,0
1581,6080001026015,新規,0,2023-12-06,2023-12-06,株式会社柿本林産,,株式会社,静岡県,島田市,川根町家山７２４番地の３,,22,209,4280104,,,,,,,2023-12-06,1,,,,,カキモトリンサン,0
1583,6080101024380,新規,0,2023-12-06,2023-12-06,田代鉄筋工業株式会社,,株式会社,静岡県,富士市,厚原６５０番地の１１,,22,210,4190201,,,,,,,2023-12-06,1,,,,,タシロテッキンコウギョウ,0
1590,6100001037034,新規,0,2023-12-06,2023-12-06,株式会社Ｌｉｌｙ,,株式会社,長野県,諏訪郡下諏訪町,社７０４６番地２６,,20,361,3930000,,,,,,,2023-12-06,1,,,,,リリー,0
1591,6100003007290,新規,0,2023-12-06,2023-12-06,合同会社ＥＭＺＥＱ,,合同会社,長野県,長野市,三輪８丁目１０番６号,,20,201,3800803,,,,,,,2023-12-06,1,,,,,エムゼグ,0
1597,6120001260369,新規,0,2023-12-06,2023-12-06,株式会社ゼロクレスト,,株式会社,大阪府,大阪市北区,天神橋３丁目１番３５号,,27,127,5300041,,,,,,,2023-12-06,1,,,,,ゼロクレスト,0
1598,6120001260385,新規,0,2023-12-06,2023-12-06,株式会社ビティーホールディングス,,株式会社,大阪府,大阪市平野区,長吉出戸６丁目１４番３０号,,27,126,5470011,,,,,,,2023-12-06,1,,,,,ビティーホールディングス,0
1599,6120001260402,新規,0,2023-12-06,2023-12-06,Ｃｙｐｈｅｒ株式会社,,株式会社,大阪府,大阪市淀川区,西中島３丁目１８番９号新大阪日大ビル８０１,,27,123,5320011,,,,,,,2023-12-06,1,,,,,サイファー,0
1600,6120001260410,新規,0,2023-12-06,2023-12-06,株式会社五座,,株式会社,大阪府,大阪市北区,堂島２丁目１番３３－３１２号,,27,127,5300003,,,,,,,2023-12-06,1,,,,,ゴザ,0
1601,6120001260451,新規,0,2023-12-06,2023-12-06,ココ・アズール株式会社,,株式会社,大阪府,大阪市住之江区,新北島３丁目４番１０号１Ｆ,,27,125,5590024,,,,,,,2023-12-06,1,,,,,ココアズール,0
1602,6120003025448,新規,0,2023-12-06,2023-12-06,合同会社Ａｄｖａｎｃｅ,,合同会社,大阪府,枚方市,楠葉朝日３丁目５番２８号,,27,210,5731111,,,,,,,2023-12-06,1,,,,,アドバンス,0
1606,6120101068621,新規,0,2023-12-06,2023-12-06,株式会社ＴＨＡＮＫ,,株式会社,大阪府,堺市西区,上１９８番地７６,,27,144,5938311,,,,,,,2023-12-06,1,,,,,サンク,0
1608,6120901048442,新規,0,2023-12-06,2023-12-06,Ｊ＆Ｍ重機株式会社,,株式会社,大阪府,豊能郡能勢町,片山３番地の９,,27,322,5630354,,,,,,,2023-12-06,1,,,,,ジェイアンドエムジュウキ,0
1613,6122001037631,新規,0,2023-12-06,2023-12-06,株式会社ＰＥＡＣＥ,,株式会社,大阪府,柏原市,石川町８番３号,,27,221,5820029,,,,,,,2023-12-06,1,,,,,ピース,0
1617,6130001075857,新規,0,2023-12-06,2023-12-06,株式会社京栄メンテ,,株式会社,京都府,舞鶴市,字福来９０２番地,,26,202,6240905,,,,,,,2023-12-06,1,,,,,キョウエイメンテ,0
1618,6130001075865,新規,0,2023-12-06,2023-12-06,ＶｉＫＵＲＯ株式会社,,株式会社,京都府,木津川市,梅美台６丁目１６番地２７,,26,214,6190215,,,,,,,2023-12-06,1,,,,,ビクロ,0
1626,6140001132574,新規,0,2023-12-06,2023-12-06,株式会社ＣＳＬ,,株式会社,兵庫県,豊岡市,九日市中町１１０番地２,,28,209,6680053,,,,,,,2023-12-06,1,,,,,シーエスエル,0
1627,6140001132582,新規,0,2023-12-06,2023-12-06,ヨアケ株式会社,,株式会社,兵庫県,神戸市灘区,篠原本町５丁目４番１４号,,28,102,6570067,,,,,,,2023-12-06,1,,,,,ヨアケ,0
1629,6140003019885,新規,0,2023-12-06,2023-12-06,合同会社ＣＯＮＮＥＣＴ,,合同会社,兵庫県,西宮市,南甲子園３丁目４番４０－５０２号,,28,204,6638153,,,,,,,2023-12-06,1,,,,,コネクト,0
1630,6140005026822,新規,0,2023-12-06,2023-12-06,トラスト社会保険労務士法人,,その他の設立登記法人,兵庫県,加古川市,加古川町北在家２４４２番地,,28,210,6750031,,,,,,,2023-12-06,1,,,,,トラスト,0
1638,6160003003053,新規,0,2023-12-06,2023-12-06,合同会社くりあ,,合同会社,滋賀県,野洲市,冨波甲１１５８番地７,,25,210,5202351,,,,,,,2023-12-06,1,,,,,クリア,0
1642,6180001159151,新規,0,2023-12-06,2023-12-06,株式会社ＮＯＡ　ｃｏｎｎｅｃｔ,,株式会社,愛知県,名古屋市中区,栄２丁目２－１広小路伏見中駒ビル２Ｆ－９,,23,106,4600008,,,,,,,2023-12-06,1,,,,,ノアコネクト,0
1643,6180001159176,新規,0,2023-12-06,2023-12-06,株式会社ＯＦＦＩＣＥ秀丸,,株式会社,愛知県,名古屋市東区,泉３丁目２６番５号（ライオンズシティ泉２０６号）,,23,102,4610001,,,,,,,2023-12-06,1,,,,,オフィスヒデマル,0
1644,6180001159184,新規,0,2023-12-06,2023-12-06,株式会社ＭＡＢ,,株式会社,愛知県,名古屋市西区,又穂町１丁目６４番地,,23,104,4510014,,,,,,,2023-12-06,1,,,,,エムエービー,0
1645,6180001159250,新規,0,2023-12-06,2023-12-06,ウエルネスサポート株式会社,,株式会社,愛知県,一宮市,丹羽字西出３０番地,,23,203,4910083,,,,,,,2023-12-06,1,,,,,ウエルネスサポート,0
1654,6180301038088,新規,0,2023-12-06,2023-12-06,株式会社藤一工業,,株式会社,愛知県,豊田市,上脇町松方８番地,,23,211,4442335,,,,,,,2023-12-06,1,,,,,フジイチコウギョウ,0
1660,6220003003633,新規,0,2023-12-06,2023-12-06,北山産業合同会社,,合同会社,石川県,小松市,白山田町ロ２２６番地,,17,203,9230321,,,,,,,2023-12-06,1,,,,,キタヤマサンギョウ,0
1662,6240003006436,新規,0,2023-12-06,2023-12-06,合同会社ＳＩＧ,,合同会社,広島県,福山市,多治米町６丁目１４－４０（１階）,,34,207,7200824,,,,,,,2023-12-06,1,,,,,エスアイジー,0
1685,6330003010115,新規,0,2023-12-06,2023-12-06,合同会社Ｇｒｅｅｎ・Ｍａｒｋｅｔ,,合同会社,熊本県,菊池市,大琳寺２８８番地１６,,43,210,8611306,,,,,,,2023-12-06,1,,,,,グリーンマーケット,0
1686,6340001026120,新規,0,2023-12-06,2023-12-06,株式会社ＫＡＺＵ企画,,株式会社,鹿児島県,鹿児島市,城山１丁目１４番３号,,46,201,8900013,,,,,,,2023-12-06,1,,,,,カズキカク,0
1691,6350001018686,新規,0,2023-12-06,2023-12-06,株式会社Ｈｉｇｈ　Ｃｅｄａｒ,,株式会社,宮崎県,日向市,原町２丁目１番１４号イワコビル２０１号,,45,206,8830014,,,,,,,2023-12-06,1,,,,,ハイシーダー,0
1693,6360001032901,新規,0,2023-12-06,2023-12-06,株式会社大生,,株式会社,沖縄県,豊見城市,字真玉橋２７４番地３赤嶺ビル２０５号室,,47,212,9010201,,,,,,,2023-12-06,1,,,,,タイセイ,0
1698,6380001034169,新規,0,2023-12-06,2023-12-06,ヤナイ・エンジニアリング株式会社,,株式会社,福島県,いわき市,富津町畔内４８番地,,07,204,9748231,,,,,,,2023-12-06,1,,,,,ヤナイエンジニアリング,0
1713,6430001090586,新規,0,2023-12-06,2023-12-06,株式会社Ｇ‐Ｈａｎｄｓ,,株式会社,北海道,札幌市白石区,菊水九条４丁目１番１－３０１号,,01,104,0030809,,,,,,,2023-12-06,1,,,,,ジーハンズ,0
1714,6430001090594,新規,0,2023-12-06,2023-12-06,すこやかコム株式会社,,株式会社,北海道,札幌市北区,新琴似十一条９丁目７番１号,,01,102,0010911,,,,,,,2023-12-06,1,,,,,スコヤカコム,0
1715,6430001090603,新規,0,2023-12-06,2023-12-06,株式会社ＺｏＷ,,株式会社,北海道,札幌市北区,北十三条西４丁目１番２号第一志水ビル３階Ｂルーム,,01,102,0010013,,,,,,,2023-12-06,1,,,,,ゾウ,0
1718,6430005014839,新規,0,2023-12-06,2023-12-06,一般社団法人北海道強靭化推進研究会,,その他の設立登記法人,北海道,札幌市北区,篠路二条７丁目２番１４号ＴＫビル,,01,102,0028022,,,,,,,2023-12-06,1,,,,,ホッカイドウキョウジンカスイシンケンキュウカイ,0
1720,6450001014163,新規,0,2023-12-06,2023-12-06,株式会社ジーエスピー,,株式会社,北海道,旭川市,永山三条２０丁目２番１号,,01,204,0798413,,,,,,,2023-12-06,1,,,,,ジーエスピー,0
1722,6450003002414,新規,0,2023-12-06,2023-12-06,合同会社カンマ,,合同会社,北海道,旭川市,永山六条４丁目９番６号,,01,204,0798416,,,,,,,2023-12-06,1,,,,,カンマ,0
1724,6470001019929,新規,0,2023-12-06,2023-12-06,株式会社Ｍｉｎｉｍａｌ　Ｉｎｎｏｖａｔｉｏｎ,,株式会社,香川県,木田郡三木町,大字下高岡４１１２番地２０,,37,341,7610704,,,,,,,2023-12-06,1,,,,,ミニマルイノベーション,0
1728,6500001025345,新規,0,2023-12-06,2023-12-06,株式会社プライベートジムｉｔｏ,,株式会社,愛媛県,松山市,千舟町５丁目１番地５,,38,201,7900011,,,,,,,2023-12-06,1,,,,,プライベートジムイト,0
1733,6700150120249,新規,0,2023-12-06,2023-12-06,Ｚｈｕ　ｈａｉ　ａｎ　ｓｈｉ　ｊｉａ　ｄｉａｎ　ｚｉ　ｙｏｕ　ｘｉａｎ　ｇｏｎｇ　ｓｉ,,外国会社等,,,,,,,,Ｘｉａｎｇｚｈｏｕ　Ｑｕ，Ｙｏｎｇｔｉａｎ　Ｌｕ　２１　Ｈａｏ　１　Ｄｏｎｇ　３０１　Ｚｈｕ　ｈａｉ　Ｇｕａｎｇｄｏｎｇ　５１９０００　ＣＮ,,,,,,2023-12-06,1,,,,,ズーハイアンシージヤーデイエンズヨウシエンゴンス,0
1734,6700150120455,新規,0,2023-12-06,2023-12-06,Ｊｉｕｊｉａｎｇｚｈｉｓｈｅｎｇｄｏｎｇｍａｏｙｉｙｏｕｘｉａｎｇｏｎｇｓｉ,,外国会社等,,,,,,,,Ｃｈａｎｇｈｏｎｇｄａｄａｏ１６８ｈａｏｋａｉｆａｇｏｎｇｓｉｄａｌｏｕ５ｌｏｕ５０３－３ｓｈｉ　Ｊｉｕｊｉａｎｇ　Ｊｉａｎｇｘｉｓｈｅｎｇ　Ｌｉａｎｘｉｑｕ　Ｃｈｉｎａ３３２０９９,,,,,,2023-12-06,1,,,,,ジュージャンジーションドンマオイーヨウシェンゴンス,0
1735,6700150120463,新規,0,2023-12-06,2023-12-06,ｓｈｅｎｚｈｅｎｓｈｉｓｈｉｙｉｎｇｋｅｊｉｙｏｕｘｉａｎｇｏｎｇｓｉ,,外国会社等,,,,,,,,ｓｈｅｎｚｈｅｎｓｈｉｂａｏａｎｑｕｓｈｉｙａｎｊｉｅｄａｏｔａｎｇ－ｔｏｕｓｈｅｑｕｔａｎｇｔｏｕ１ｈａｏｌｕｃｈｕａｎｇｗｅｉｃｈｕａｎｇｘｉｎｇｕ５＃Ｄｄｏｎｇ８０１,,,,,,2023-12-06,1,,,,,シェンジェンシシインカージヨウシェンゴンスー,0
1736,6700150120991,新規,0,2023-12-06,2023-12-06,Ｓｕｎｏｎ　Ｔｅｃｈｎｏｌｏｇｙ　Ｃｏ．，Ｌｔｄ,,外国会社等,,,,,,,,＃３５　Ｎｉｎｇｄｏｎｇ　Ｒｏａｄ，Ｘｉａｏｓｈａｎ　Ｅｃｏｎｏｍｉｃ　ａｎｄ　Ｔｅｃｈｎｏｌｏｇｉｃａｌ　Ｄｅｖｅｌｏｐｍｅｎｔ　Ｚｏｎｅ　ｈａｎｇｚｈｏｕ　ｚｈｅｊｉａｎｇ　ＣＮ　３１００００,,,,,,2023-12-06,1,,,,,スノンテクノロジーカンパニーリミテッド,0
1737,6700150122526,新規,0,2023-12-06,2023-12-06,Ｓｈｅｎｚｈｅｎｓｈｉ　ｊｕｌｉｘｉｎ　ｋｅｊｉ　ｙｏｕｘｉａｎｇｏｎｇｓｉ,,外国会社等,,,,,,,,ｌｏｎｇｇａｎｇｑｕ　ｐｉｎｇｈｕｊｉｅｄａｏ　ｅｇｏｎｇｌｉｎｇｓｈｅｑｕ　ｃｈｕｎｈｕｇｏｎｇｙｅｑｕ１ｈａｏ４０２　Ｓｈｅｎｚｈｅｎ　Ｇｕａｎｇｄｏｎｇ　Ｃｈｉｎａ,,,,,,2023-12-06,1,,,,,シェンジェンシージーリーシンコージーヨウシエンゴンスー,0
1743,7010001240380,新規,0,2023-12-06,2023-12-06,株式会社Ｒｕｔｉｌｅ,,株式会社,東京都,中央区,銀座７丁目１５番８号タウンハイツ銀座４０６,,13,102,1040061,,,,,,,2023-12-06,1,,,,,ルチル,0
1744,7010001240538,新規,0,2023-12-06,2023-12-06,ワダツミキャピタルＦｉｖｅ株式会社,,株式会社,東京都,千代田区,大手町２丁目６番４号常盤橋タワー２５階,,13,101,1000004,,,,,,,2023-12-06,1,,,,,ワダツミキャピタルファイブ,0
1745,7010001240579,新規,0,2023-12-06,2023-12-06,ドラマメイカーズ株式会社,,株式会社,東京都,中央区,銀座１丁目１２－４Ｎ＆Ｅ・ＢＬＤ．７階,,13,102,1040061,,,,,,,2023-12-06,1,,,,,ドラマメイカーズ,0
1755,7010401178907,新規,0,2023-12-06,2023-12-06,ＭｉＣＯＲホールディングス株式会社,,株式会社,東京都,港区,芝２丁目２８番１１号芝ＭＫビル,,13,103,1050014,,,,,,,2023-12-06,1,,,,,ミコルホールディングス,0
1756,7010401178923,新規,0,2023-12-06,2023-12-06,Ｈｅｌｏｗ株式会社,,株式会社,東京都,港区,六本木６丁目６番１５号,,13,103,1060032,,,,,,,2023-12-06,1,,,,,ハロー,0
1758,7010403031460,新規,0,2023-12-06,2023-12-06,Ｍｏｕｎｔａｉｎ　Ｖｉｅｗ合同会社,,合同会社,東京都,港区,赤坂６丁目１８番４号,,13,103,1070052,,,,,,,2023-12-06,1,,,,,マウンテンビュー,0
1759,7010403031502,新規,0,2023-12-06,2023-12-06,ＡＡＩＩ東京合同会社,,合同会社,東京都,港区,赤坂４丁目７番６号赤坂ビジネスコート４０８Ｂ,,13,103,1070052,,,,,,,2023-12-06,1,,,,,エーエーアイアイ,0
1761,7010405022755,新規,0,2023-12-06,2023-12-06,アジアライフ３特定目的会社,,その他の設立登記法人,東京都,港区,六本木１丁目９番１０号アークヒルズ仙石山森タワー４０階,,13,103,1060032,,,,,,,2023-12-06,1,,,,,アジアライフスリー,0
1764,7010601064270,新規,0,2023-12-06,2023-12-06,麦田株式会社,,株式会社,東京都,江東区,佐賀１丁目１６番３号２０１－７号室,,13,108,1350031,,,,,,,2023-12-06,1,,,,,ムギタ,0
1772,7010901054277,新規,0,2023-12-06,2023-12-06,株式会社シエルトコミュニケーションズ,,株式会社,東京都,世田谷区,代沢２丁目４０番１号ディアナコート代沢４０８,,13,112,1550032,,,,,,,2023-12-06,1,,,,,シエルトコミュニケーションズ,0
1774,7010903008636,新規,0,2023-12-06,2023-12-06,ラブレターフロム合同会社,,合同会社,東京都,世田谷区,北沢３丁目１７番５号シナノレジデンス１０２,,13,112,1550031,,,,,,,2023-12-06,1,,,,,ラブレターフロム,0
1796,7011603004157,新規,0,2023-12-06,2023-12-06,ＫＨＳＢアドバイザリー合同会社,,合同会社,東京都,練馬区,小竹町２丁目６１番２号,,13,120,1760004,,,,,,,2023-12-06,1,,,,,ケーエイチエスビーアドバイザリー,0
1800,7011803005979,新規,0,2023-12-06,2023-12-06,合同会社オーケーインベストメント,,合同会社,東京都,葛飾区,東水元１丁目９番１５号ダイエイコーポ１０１号,,13,122,1250033,,,,,,,2023-12-06,1,,,,,オーケーインベストメント,0
1802,7012301013689,新規,0,2023-12-06,2023-12-06,株式会社ＬＯＫＥＹ,,株式会社,東京都,町田市,成瀬が丘１丁目２０－５,,13,209,1940011,,,,,,,2023-12-06,1,,,,,,0
1803,7012305002069,新規,0,2023-12-06,2023-12-06,一般社団法人ＫＪＡ,,その他の設立登記法人,東京都,町田市,野津田町９１９番地,,13,209,1950063,,,,,,,2023-12-06,1,,,,,ケージェイエー,0
1811,7012805003244,新規,0,2023-12-06,2023-12-06,一般社団法人竹村,,その他の設立登記法人,東京都,国分寺市,南町１丁目１１番１０号,,13,214,1850021,,,,,,,2023-12-06,1,,,,,タケムラ,0
1822,7020001154753,新規,0,2023-12-06,2023-12-06,株式会社ＮＩＮＥ,,株式会社,神奈川県,横浜市神奈川区,鶴屋町１丁目８番地１,,14,102,2210835,,,,,,,2023-12-06,1,,,,,ナイン,0
1823,7020001154778,新規,0,2023-12-06,2023-12-06,株式会社五徳,,株式会社,神奈川県,横浜市金沢区,富岡西７丁目２５番１号,,14,108,2360052,,,,,,,2023-12-06,1,,,,,ゴトク,0
1824,7020001154803,新規,0,2023-12-06,2023-12-06,株式会社ディアミー,,株式会社,神奈川県,横浜市旭区,川井本町４４番地７,,14,112,2410803,,,,,,,2023-12-06,1,,,,,ディアミー,0
1829,7020003025127,新規,0,2023-12-06,2023-12-06,合同会社ＲＩＶＥＴ,,合同会社,神奈川県,横浜市都筑区,中川１丁目１９番２７号ノースヒルズ中川４０６,,14,118,2240001,,,,,,,2023-12-06,1,,,,,リベット,0
1834,7021001080881,新規,0,2023-12-06,2023-12-06,ＫＡＭＯＤＡホールディングス株式会社,,株式会社,神奈川県,大和市,大和南１丁目１２番１１号,,14,213,2420016,,,,,,,2023-12-06,1,,,,,カモダホールディングス,0
1835,7021001080898,新規,0,2023-12-06,2023-12-06,株式会社ＴＳエージェント,,株式会社,神奈川県,相模原市緑区,鳥屋２７９番地７,,14,151,2520155,,,,,,,2023-12-06,1,,,,,ティーエスエージェント,0
1846,7030001157540,新規,0,2023-12-06,2023-12-06,株式会社モンス,,株式会社,埼玉県,所沢市,北原町８６６番地の１１,,11,208,3590004,,,,,,,2023-12-06,1,,,,,モンス,0
1850,7030003023113,新規,0,2023-12-06,2023-12-06,合同会社めークリエイト,,合同会社,埼玉県,さいたま市大宮区,桜木町２丁目３番地大宮マルイ７階,,11,103,3300854,,,,,,,2023-12-06,1,,,,,メークリエイト,0
1851,7030003023121,新規,0,2023-12-06,2023-12-06,合同会社ＰＨＩ１６１８,,合同会社,埼玉県,川口市,戸塚３丁目２０番２７号,,11,203,3330811,,,,,,,2023-12-06,1,,,,,ファイイチロクイチハチ,0
1857,7040001131206,新規,0,2023-12-06,2023-12-06,株式会社Ｓ．Ｋ,,株式会社,千葉県,千葉市中央区,南町２丁目２０番２０－２１３号,,12,101,2600842,,,,,,,2023-12-06,1,,,,,エスケイ,0
1858,7040001131222,新規,0,2023-12-06,2023-12-06,工研基礎株式会社,,株式会社,千葉県,千葉市花見川区,幕張本郷２丁目４番１号タカソービル５０５号,,12,102,2620033,,,,,,,2023-12-06,1,,,,,コウケンキソ,0
1859,7040001131230,新規,0,2023-12-06,2023-12-06,株式会社迎,,株式会社,千葉県,市川市,市川南１丁目８番３０号市川セレストビル１階,,12,203,2720033,,,,,,,2023-12-06,1,,,,,ムカエ,0
1860,7040001131247,新規,0,2023-12-06,2023-12-06,株式会社東亜練業,,株式会社,千葉県,千葉市中央区,宮崎町５２７－３蘇我ＬＡＰＩＳ・ＢＡＳＩＳ・１,,12,101,2600805,,,,,,,2023-12-06,1,,,,,トウアレンギョウ,0
1864,7040003023871,新規,0,2023-12-06,2023-12-06,合同会社コリノス,,合同会社,千葉県,匝瑳市,春海６９５３－７,,12,235,2892101,,,,,,,2023-12-06,1,,,,,コリノス,0
1878,7080003003102,新規,0,2023-12-06,2023-12-06,合同会社ＤｉｇＳｅｎｓｅ,,合同会社,静岡県,静岡市駿河区,谷田５２番１号,,22,102,4228002,,,,,,,2023-12-06,1,,,,,ディグセンス,0
1886,7090003002400,新規,0,2023-12-06,2023-12-06,合同会社遠矢山房,,合同会社,山梨県,山梨市,牧丘町千野々宮４０５,,19,205,4040016,,,,,,,2023-12-06,1,,,,,トオヤサンボウ,0
1891,7110001037981,新規,0,2023-12-06,2023-12-06,株式会社ＮＸＩＶ,,株式会社,新潟県,新潟市江南区,天野１１５４番地１ラ・フォーチュン１０４号,,15,104,9501134,,,,,,,2023-12-06,1,,,,,ネクシブ,0
1901,7120001260260,新規,0,2023-12-06,2023-12-06,ＲＨＩＮＯ株式会社,,株式会社,大阪府,大阪市福島区,玉川１丁目１４０番地１６リベールグラン中之島テラス９０３,,27,103,5530004,,,,,,,2023-12-06,1,,,,,リノ,0
1902,7120001260418,新規,0,2023-12-06,2023-12-06,株式会社田口工業,,株式会社,大阪府,大阪市西淀川区,福町２丁目２７－１６,,27,113,5550034,,,,,,,2023-12-06,1,,,,,タグチクギョウ,0
1903,7120001260483,新規,0,2023-12-06,2023-12-06,株式会社ＪＮＳラボ,,株式会社,大阪府,大阪市住之江区,南港北１丁目３０番３０－１００１号,,27,125,5590034,,,,,,,2023-12-06,1,,,,,ジェイエヌエスラボ,0
1905,7120003025439,新規,0,2023-12-06,2023-12-06,きりん合同会社,,合同会社,大阪府,大阪市生野区,田島３丁目４５番１号,,27,116,5440011,,,,,,,2023-12-06,1,,,,,キリン,0
1908,7120005024034,新規,0,2023-12-06,2023-12-06,一般社団法人日本メディカルフルサービス協会,,その他の設立登記法人,大阪府,大阪市淀川区,西中島３丁目８番１５号,,27,123,5320011,,,,,,,2023-12-06,1,,,,,ニホンメディカルフルサービスキョウカイ,0
1910,7120101068645,新規,0,2023-12-06,2023-12-06,株式会社栄和,,株式会社,大阪府,和泉市,上代町１２５番地,,27,219,5940011,,,,,,,2023-12-06,1,,,,,エイワ,0
1913,7120103005563,新規,0,2023-12-06,2023-12-06,合同会社ＭＩＲＡＩ,,合同会社,大阪府,泉佐野市,日根野７０５６番地の２,,27,213,5980021,,,,,,,2023-12-06,1,,,,,ミライ,0
1914,7120903004946,新規,0,2023-12-06,2023-12-06,合同会社ＡＮＧＥＬＩＣＡ,,合同会社,大阪府,豊中市,螢池西町１丁目２０番８号,,27,203,5600036,,,,,,,2023-12-06,1,,,,,アンヘリカ,0
1919,7130001075831,新規,0,2023-12-06,2023-12-06,株式会社フローラル・ライフ,,株式会社,京都府,京都市右京区,西院三蔵町１７番地,,26,108,6160000,,,,,,,2023-12-06,1,,,,,フローラルライフ,0
1920,7130001075864,新規,0,2023-12-06,2023-12-06,株式会社兼続,,株式会社,京都府,京都市中京区,河原町通三条上る恵比須町４３５番地２,,26,104,6048005,,,,,,,2023-12-06,1,,,,,カネツグ,0
1924,7140001132557,新規,0,2023-12-06,2023-12-06,株式会社ｂｅコーポレイション,,株式会社,兵庫県,西宮市,愛宕山２０番１３号,,28,204,6620871,,,,,,,2023-12-06,1,,,,,ビーコーポレイション,0
1925,7140001132565,新規,0,2023-12-06,2023-12-06,大淵アセット株式会社,,株式会社,兵庫県,伊丹市,平松６丁目３番９号,,28,207,6640853,,,,,,,2023-12-06,1,,,,,オオブチアセット,0
1926,7140001132598,新規,0,2023-12-06,2023-12-06,株式会社ＴＥＩＥＮ　ＨＯＭＥＳ,,株式会社,兵庫県,神戸市中央区,二宮町３丁目４番７号ブルーム神戸三宮１０１号室,,28,110,6510093,,,,,,,2023-12-06,1,,,,,テイエンホームズ,0
1927,7140001132607,新規,0,2023-12-06,2023-12-06,株式会社ロジャーグローバルジャパン,,株式会社,兵庫県,神戸市東灘区,甲南台５番１５号,,28,101,6580002,,,,,,,2023-12-06,1,,,,,ロジャーグローバルジャパン,0
1933,7140003019884,新規,0,2023-12-06,2023-12-06,合同会社花咲く街角,,合同会社,兵庫県,神戸市北区,藤原台北町７丁目４－１,,28,109,6511301,,,,,,,2023-12-06,1,,,,,ハナサクマチカド,0
1934,7140003019901,新規,0,2023-12-06,2023-12-06,合同会社ＴＡＴＳＵＹＡ,,合同会社,兵庫県,神戸市垂水区,上高丸１丁目７番３３－４０８号,,28,108,6550017,,,,,,,2023-12-06,1,,,,,タツヤ,0
1935,7140005026821,新規,0,2023-12-06,2023-12-06,助け合いケア労働者協同組合ヘルパント,,その他の設立登記法人,兵庫県,神戸市灘区,中郷町５丁目１番地１あすパーク,,28,102,6570032,,,,,,,2023-12-06,1,,,,,タスケアイケアヘルパント,0
1940,7170001017912,新規,0,2023-12-06,2023-12-06,翔歓航株式会社,,株式会社,和歌山県,和歌山市,小雑賀３丁目２番１号南２号,,30,201,6410007,,,,,,,2023-12-06,1,,,,,ショウカンコウ,0
1942,7180001159217,新規,0,2023-12-06,2023-12-06,株式会社ｉＳＢ,,株式会社,愛知県,津島市,越津町字柳之内７１番地,,23,208,4960022,,,,,,,2023-12-06,1,,,,,アイエスビー,0
1944,7180301038095,新規,0,2023-12-06,2023-12-06,株式会社Ｐｉｅｃｅ　Ｉｎｎｏｖａｔｉｏｎ,,株式会社,愛知県,岡崎市,鴨田町字山ノ圦５６番地１,,23,202,4442121,,,,,,,2023-12-06,1,,,,,ピースイノベーション,0
1948,7190003004527,新規,0,2023-12-06,2023-12-06,合同会社倭フーズ,,合同会社,三重県,伊勢市,御薗町長屋２１６０番地１コーポたかはし２０２,,24,203,5160804,,,,,,,2023-12-06,1,,,,,ヤマトフーズ,0
1965,7290001103898,新規,0,2023-12-06,2023-12-06,株式会社辰総建,,株式会社,福岡県,糸島市,潤２丁目１０番１－３０８号,,40,230,8191105,,,,,,,2023-12-06,1,,,,,タツソウケン,0
1966,7290001103931,新規,0,2023-12-06,2023-12-06,株式会社理研管理,,株式会社,福岡県,福岡市中央区,平和３丁目１５番３７号,,40,133,8100016,,,,,,,2023-12-06,1,,,,,リケンカンリ,0
1968,7290003014672,新規,0,2023-12-06,2023-12-06,ロードフェリーラボ合同会社,,合同会社,福岡県,福岡市博多区,博多駅前３丁目９－５－５１３,,40,132,8120011,,,,,,,2023-12-06,1,,,,,ロードフェリーラボ,0
1969,7290005019208,新規,0,2023-12-06,2023-12-06,一般社団法人ＫＡＴＡＲＵ,,その他の設立登記法人,福岡県,筑後市,大字溝口１１６２番地２,,40,211,8330012,,,,,,,2023-12-06,1,,,,,,0
1974,7320001020173,新規,0,2023-12-06,2023-12-06,株式会社ふくの湯,,株式会社,大分県,豊後高田市,界２７６番地,,44,209,8790615,,,,,,,2023-12-06,1,,,,,フクノユ,0
1984,7350001018693,新規,0,2023-12-06,2023-12-06,株式会社都城産業,,株式会社,宮崎県,都城市,鷹尾３丁目３２街区１６号,,45,202,8850081,,,,,,,2023-12-06,1,,,,,ミヤコノジョウサンギョウ,0
1992,7370001050686,新規,0,2023-12-06,2023-12-06,株式会社Ｂｅ　ｗａｔｅｒ,,株式会社,宮城県,石巻市,大街道西２丁目２番８号,,04,202,9860859,,,,,,,2023-12-06,1,,,,,ビーウォーター,0
1993,7370001050694,新規,0,2023-12-06,2023-12-06,株式会社ノルドシー,,株式会社,宮城県,大崎市,古川小野字裏高寺２０番地２,,04,215,9896251,,,,,,,2023-12-06,1,,,,,ノルドシー,0
2004,7430001090593,新規,0,2023-12-06,2023-12-06,ついてる株式会社,,株式会社,北海道,江別市,大麻高町７番地の２大麻駅前ハイツ２号室,,01,217,0690853,,,,,,,2023-12-06,1,,,,,ツイテル,0
2009,7430003015722,新規,0,2023-12-06,2023-12-06,合同会社泰樹興産,,合同会社,北海道,虻田郡倶知安町,南五条西１丁目６－１８,,01,400,0440035,,,,,,,2023-12-06,1,,,,,タイジュコウサン,0
2011,7470001019928,新規,0,2023-12-06,2023-12-06,株式会社ムスビ,,株式会社,香川県,高松市,木太町１５７４番地１,,37,201,7600080,,,,,,,2023-12-06,1,,,,,ムスビ,0
2017,7700150120248,新規,0,2023-12-06,2023-12-06,ＤＡＳＯＬ　Ｃｏ．，Ｌｔｄ．,,外国会社等,,,,,,,,３２９，Ｄｏａｎｄｏｎｇ－ｒｏ，Ｙｕｓｅｏｎｇ－ｇｕ，Ｄａｅｊｅｏｎ，Ｒｅｐｕｂｌｉｃ　ｏｆ　Ｋｏｒｅａ,,,,,,2023-12-06,1,,,,,ダソルカンパニーリミテツド,0
2018,7700150120990,新規,0,2023-12-06,2023-12-06,Ｓｉｍｏｎａ　Ｃｏｐｐｅｒｆｉｅｌｄｓ,,外国会社等,,,,,,,,ｙｕｈｕａｑｕｘｉａｎｇｆｕｄｏｎｇｌｕｅｒｄｕａｎ３００ｈａｏ　ｈｕａｙｕｅｓｈａｎｇｙｅｇｕａｎｇｃｈａｎｇ７ｄｏｎｇ１５０３ｆａｎｇ　ｃｈａｎｇｓｈａｓｈｉ　ｈｕｎａｎｓｈｅｎｇ　４１０００４　ＣＮ,,,,,,2023-12-06,1,,,,,シモナカッパーフィールズ,0
2026,8010001240529,新規,0,2023-12-06,2023-12-06,株式会社ＬＥＷＥＬＴ,,株式会社,東京都,中央区,日本橋小伝馬町２１番１号ＴＨＥＰＯＲＴＡＬＮｉｈｏｍｂａｓｈｉＥａｓｔ７階,,13,102,1030001,,,,,,,2023-12-06,1,,,,,リヴェルト,0
2027,8010001240537,新規,0,2023-12-06,2023-12-06,株式会社リアライズ,,株式会社,東京都,中央区,日本橋堀留町１丁目３番１６号ＪＳＢレジデンス＆オフィス日本橋９０８号,,13,102,1030012,,,,,,,2023-12-06,1,,,,,リアライズ,0
2035,8010401178914,新規,0,2023-12-06,2023-12-06,ＪａｐａｎＰａｙ株式会社,,株式会社,東京都,港区,東麻布１丁目１２番５号ＡＣＮ東麻布ビル６階,,13,103,1060044,,,,,,,2023-12-06,1,,,,,ジャパンペイ,0
2036,8010401178922,新規,0,2023-12-06,2023-12-06,ＳｙｎａｐＳｐａｒｋ株式会社,,株式会社,東京都,港区,海岸１丁目７番１号,,13,103,1050022,,,,,,,2023-12-06,1,,,,,シナプスパーク,0
2038,8010403031492,新規,0,2023-12-06,2023-12-06,合同会社ヘラコーポレーション,,合同会社,東京都,港区,元麻布３丁目１番６号ＢＬＩＮＫＳＭＡＲＴＷＯＲＫＳＰＡＣＥ,,13,103,1060046,,,,,,,2023-12-06,1,,,,,ヘラコーポレーション,0
2042,8010501051467,新規,0,2023-12-06,2023-12-06,株式会社オオモリ,,株式会社,東京都,台東区,浅草３丁目２１－９トーラス浅草２０１号,,13,106,1110032,,,,,,,2023-12-06,1,,,,,オオモリ,0
2047,8010601064261,新規,0,2023-12-06,2023-12-06,三瀛匯宅株式会社,00132890,株式会社,東京都,墨田区,立花１丁目２８番４－１２０５号,,13,107,1310043,,,,,,,2023-12-06,1,,,,,サンエイカイタク,0
2048,8010603010503,新規,0,2023-12-06,2023-12-06,ＲＩＳＩＮＧ　ＳＯＬＡＲ　ＪＡＰＡＮ合同会社,,合同会社,東京都,墨田区,緑１丁目２２番８号,,13,107,1300021,,,,,,,2023-12-06,1,,,,,ライジングソーラージャパン,0
2051,8010801034576,新規,0,2023-12-06,2023-12-06,株式会社スキルサポート,,株式会社,東京都,大田区,東海４丁目４番１２号,,13,111,1430001,,,,,,,2023-12-06,1,,,,,スキルサポート,0
2064,8011001158629,新規,0,2023-12-06,2023-12-06,株式会社ＰＲＥＭＥＡＴ,,株式会社,東京都,目黒区,大橋１丁目７－１６－３０１,,13,110,1530044,,,,,,,2023-12-06,1,,,,,プレミート,0
2065,8011001158653,新規,0,2023-12-06,2023-12-06,ＣＯＮＴＩＮＵＥ株式会社,,株式会社,東京都,渋谷区,神山町５－２０ＺＩＮＥＹＯＹＯＧＩ－ＫＯＥＮ４Ａ,,13,113,1500047,,,,,,,2023-12-06,1,,,,,コンティニュー,0
2066,8011003018054,新規,0,2023-12-06,2023-12-06,シェーブ合同会社,,合同会社,東京都,渋谷区,恵比寿西２丁目８番４号ＥＸ恵比寿西ビル５階,,13,113,1500021,,,,,,,2023-12-06,1,,,,,シェーブ,0
2070,8011101105349,新規,0,2023-12-06,2023-12-06,株式会社ＬＵＣＯＲＡＳ,,株式会社,東京都,新宿区,西新宿１丁目２０番３号西新宿高木ビル８Ｆ,,13,104,1600023,,,,,,,2023-12-06,1,,,,,ルコラス,0
2071,8011101105365,新規,0,2023-12-06,2023-12-06,株式会社ＴＩＯ,,株式会社,東京都,新宿区,市谷砂土原町３丁目１７番地１ラ・トゥール市谷砂土原Ｗ４０３,,13,104,1620842,,,,,,,2023-12-06,1,,,,,ティオ,0
2074,8011103013814,新規,0,2023-12-06,2023-12-06,ダンデライオン合同会社,,合同会社,東京都,新宿区,四谷２丁目９番地１５東京ユナイテッド綜合事務所内,,13,104,1600004,,,,,,,2023-12-06,1,,,,,ダンデライオン,0
2078,8011201025091,新規,0,2023-12-06,2023-12-06,マスターズ株式会社,,株式会社,東京都,中野区,中央３丁目１２番３号シャルムＹ・Ｍ１階,,13,114,1640011,,,,,,,2023-12-06,1,,,,,マスターズ,0
2083,8011603004156,新規,0,2023-12-06,2023-12-06,合同会社鈴木オフィス,,合同会社,東京都,練馬区,東大泉３丁目２４番１７号,,13,120,1780063,,,,,,,2023-12-06,1,,,,,スズキオフィス,0
2087,8011801043443,新規,0,2023-12-06,2023-12-06,株式会社クマテツ,,株式会社,東京都,葛飾区,西水元４丁目１５－２,,13,122,1250031,,,,,,,2023-12-06,1,,,,,クマテツ,0
2088,8011801043451,新規,0,2023-12-06,2023-12-06,森上株式会社,,株式会社,東京都,葛飾区,水元２丁目１０－７エリービル１３０６室,,13,122,1250032,,,,,,,2023-12-06,1,,,,,モリウエ,0
2092,8012401041291,新規,0,2023-12-06,2023-12-06,ふくだ食堂株式会社,,株式会社,東京都,小金井市,本町５丁目３２番１８号,,13,210,1840004,,,,,,,2023-12-06,1,,,,,フクダショクドウ,0
2098,8013301051728,新規,0,2023-12-06,2023-12-06,株式会社ＤｏｌｐｈｉｎＡＩ,,株式会社,東京都,豊島区,東池袋１丁目１８－１ハレザタワー２０階,,13,116,1700013,,,,,,,2023-12-06,1,,,,,ドルフィンエーアイ,0
2099,8013305003551,新規,0,2023-12-06,2023-12-06,一般社団法人日本越境電商総商会,,その他の設立登記法人,東京都,豊島区,池袋２丁目６５－１プラザフェリス３０２室,,13,116,1710014,,,,,,,2023-12-06,1,,,,,ニホンエッキョウデンショウソウショウカイ,0
2108,8020001154728,新規,0,2023-12-06,2023-12-06,株式会社テイクパート,,株式会社,神奈川県,川崎市麻生区,高石２丁目４５番９号メゾンドルミエール１０１,,14,137,2150003,,,,,,,2023-12-06,1,,,,,テイクパート,0
2109,8020001154752,新規,0,2023-12-06,2023-12-06,ライフバード株式会社,,株式会社,神奈川県,横浜市戸塚区,平戸町５８２－１２－Ａ３０６,,14,110,2440803,,,,,,,2023-12-06,1,,,,,ライフバード,0
2110,8020001154769,新規,0,2023-12-06,2023-12-06,株式会社ＢＲＪ,,株式会社,神奈川県,横浜市南区,通町３丁目５０番２マインドベリタ横浜壱号館４０２号,,14,105,2320056,,,,,,,2023-12-06,1,,,,,ビーアールジェイ,0
2111,8020001154777,新規,0,2023-12-06,2023-12-06,株式会社Ｌｉｇ．,,株式会社,神奈川県,横浜市西区,南幸２丁目５番３号ＡＨＣｍｉｎａｍｉｓａｉｗａｉ６Ｆ,,14,103,2200005,,,,,,,2023-12-06,1,,,,,リグ,0
2114,8020003025134,新規,0,2023-12-06,2023-12-06,合同会社まごころ弁当横浜栄,,合同会社,神奈川県,横浜市栄区,小菅ケ谷２丁目３３－３ウィン大船１０１号,,14,115,2470007,,,,,,,2023-12-06,1,,,,,マゴコロベントウヨコハマサカエ,0
2123,8021001080889,新規,0,2023-12-06,2023-12-06,株式会社ワイエムプランニング,,株式会社,神奈川県,小田原市,南鴨宮３丁目１１番１０号,,14,206,2500875,,,,,,,2023-12-06,1,,,,,ワイエムプランニング,0
2129,8021005012962,新規,0,2023-12-06,2023-12-06,医療法人ＭＥＣ,,その他の設立登記法人,神奈川県,藤沢市,鵠沼桜が岡１丁目８番１３号,,14,205,2510027,,,,,,,2023-12-06,1,,,,,エムイーシー,0
2133,8030001157531,新規,0,2023-12-06,2023-12-06,株式会社ライフスペース,,株式会社,埼玉県,八潮市,大字南後谷４６４番地５,,11,234,3400831,,,,,,,2023-12-06,1,,,,,ライフスペース,0
2137,8030003023120,新規,0,2023-12-06,2023-12-06,合同会社大山水道設備,,合同会社,埼玉県,春日部市,大場２４１番地１,,11,214,3440021,,,,,,,2023-12-06,1,,,,,オオヤマスイドウセツビ,0
2138,8030003023129,新規,0,2023-12-06,2023-12-06,合同会社ショコラ,,合同会社,埼玉県,志木市,本町６丁目２７番８－３０２号,,11,228,3530004,,,,,,,2023-12-06,1,,,,,ショコラ,0
2139,8030003023153,新規,0,2023-12-06,2023-12-06,ＹＯＹＯ商事合同会社,,合同会社,埼玉県,川口市,南町１丁目１３－３ワークタウンＢ室,,11,203,3320026,,,,,,,2023-12-06,1,,,,,ヨウヨウショウジ,0
2141,8040001131213,新規,0,2023-12-06,2023-12-06,株式会社ネクストステージレイ,,株式会社,千葉県,千葉市若葉区,大宮町２１２９－４,,12,104,2640016,,,,,,,2023-12-06,1,,,,,ネクストステージレイ,0
2142,8040001131246,新規,0,2023-12-06,2023-12-06,上総ライン興業株式会社,,株式会社,千葉県,市原市,君塚３丁目１１番地２スカイハイツ池田Ｆ－５,,12,219,2900051,,,,,,,2023-12-06,1,,,,,カズサラインコウギョウ,0
2143,8040003023854,新規,0,2023-12-06,2023-12-06,合同会社トリラテラル,,合同会社,千葉県,松戸市,串崎南町１３０番地の４,,12,207,2702215,,,,,,,2023-12-06,1,,,,,トリラテラル,0
2144,8040003023862,新規,0,2023-12-06,2023-12-06,合同会社スノーディア,,合同会社,千葉県,船橋市,印内２丁目８番３４号,,12,204,2730039,,,,,,,2023-12-06,1,,,,,スノーディア,0
2145,8050001053902,新規,0,2023-12-06,2023-12-06,ＭＳＡＩ　ＪＡＰＡＮ株式会社,,株式会社,茨城県,かすみがうら市,下稲吉３１８６番地２３川口アパート２０１,,08,230,3150052,,,,,,,2023-12-06,1,,,,,エムエスエーアイジャパン,0
2146,8050003007988,新規,0,2023-12-06,2023-12-06,合同会社ノット,,合同会社,茨城県,常総市,大輪町５５４,,08,211,3002512,,,,,,,2023-12-06,1,,,,,ノット,0
2153,8080001026013,新規,0,2023-12-06,2023-12-06,株式会社アーク,,株式会社,静岡県,静岡市清水区,高橋町５４５－７,,22,103,4240048,,,,,,,2023-12-06,1,,,,,アーク,0
2159,8080101024379,新規,0,2023-12-06,2023-12-06,株式会社ＳＵＮ,,株式会社,静岡県,富士市,依田原町７番１５号,,22,210,4170022,,,,,,,2023-12-06,1,,,,,サン,0
2172,8120001260350,新規,0,2023-12-06,2023-12-06,株式会社アイシーホーム,,株式会社,大阪府,枚方市,高田２丁目６番１５号平山ビル２０１,,27,210,5730073,,,,,,,2023-12-06,1,,,,,アイシーホーム,0
2173,8120001260359,新規,0,2023-12-06,2023-12-06,株式会社エス・エー・ミュージック,,株式会社,大阪府,大阪市浪速区,日本橋西１丁目１番１４号第２牧ビル２Ａ,,27,111,5560004,,,,,,,2023-12-06,1,,,,,エスエーミュージック,0
2174,8120001260367,新規,0,2023-12-06,2023-12-06,株式会社ｎｅｋｉ,,株式会社,大阪府,大阪市天王寺区,清水谷町３－１－１Ｆ,,27,109,5430011,,,,,,,2023-12-06,1,,,,,ネキ,0
2175,8120001260375,新規,0,2023-12-06,2023-12-06,令和産業株式会社,,株式会社,大阪府,大阪市中央区,北久宝寺町１丁目５－６,,27,128,5410057,,,,,,,2023-12-06,1,,,,,レイワサンギョウ,0
2176,8120001260417,新規,0,2023-12-06,2023-12-06,株式会社ズババババーン,,株式会社,大阪府,大阪市浪速区,日本橋４丁目８番１４号,,27,111,5560005,,,,,,,2023-12-06,1,,,,,ズババババーン,0
2177,8120001260441,新規,0,2023-12-06,2023-12-06,諾言株式会社,,株式会社,大阪府,大阪市淀川区,木川西１丁目４番１９号ヴィラ木川２０４号,,27,123,5320013,,,,,,,2023-12-06,1,,,,,ダクゲン,0
2183,8120005024033,新規,0,2023-12-06,2023-12-06,一般社団法人Ｂｅａｕｔｙ　ＬＢ　Ｇｒｏｕｐ,,その他の設立登記法人,大阪府,大阪市西区,南堀江３丁目１１番２２号ＨＯＲＩＥＪＮＳビル４階,,27,106,5500015,,,,,,,2023-12-06,1,,,,,ビューティーエルビーグループ,0
2189,8120103005562,新規,0,2023-12-06,2023-12-06,ＤＳＭ合同会社,,合同会社,大阪府,堺市南区,三原台２丁４番１－１０８号,,27,145,5900111,,,,,,,2023-12-06,1,,,,,ディーエスエム,0
2194,8122001037638,新規,0,2023-12-06,2023-12-06,ＳｈｉｚｕｋｕＳｔａｆｆ株式会社,,株式会社,大阪府,大東市,御領３丁目５番６０号,,27,218,5740064,,,,,,,2023-12-06,1,,,,,シズクスタッフ,0
2196,8130001075871,新規,0,2023-12-06,2023-12-06,株式会社男山殖産,,株式会社,京都府,八幡市,男山泉１７番地３,,26,210,6148366,,,,,,,2023-12-06,1,,,,,オトコヤマショクサン,0
2204,8130005016938,新規,0,2023-12-06,2023-12-06,八瀬鱒乃坊アーバンコンフォート管理組合法人,,その他の設立登記法人,京都府,京都市左京区,八瀬野瀬町２６７番地八瀬鱒乃坊アーバンコンフォート管理人室,,26,103,6011254,,,,,,,2023-12-06,1,,,,,ヤセマスノボウアーバンコンフォート,0
2210,8140001132572,新規,0,2023-12-06,2023-12-06,関通ネクストロジ株式会社,,株式会社,兵庫県,尼崎市,西向島町１１１番地の４,,28,202,6600857,,,,,,,2023-12-06,1,,,,,カンツウネクストロジ,0
2215,8140003019883,新規,0,2023-12-06,2023-12-06,合同会社ＲｂｙＲ,,合同会社,兵庫県,西宮市,大屋町１３番１１号,,28,204,6638106,,,,,,,2023-12-06,1,,,,,アールバイアール,0
2223,8180001159166,新規,0,2023-12-06,2023-12-06,株式会社ｅｉｉｃｈｉｒｏ,,株式会社,愛知県,名古屋市守山区,桔梗平２丁目１４０３番地,,23,113,4630814,,,,,,,2023-12-06,1,,,,,エーイチロ,0
2224,8180001159240,新規,0,2023-12-06,2023-12-06,株式会社箱丸,,株式会社,愛知県,瀬戸市,南山町１丁目１９１番地の１,,23,204,4890986,,,,,,,2023-12-06,1,,,,,ハコマル,0
2232,8180301038086,新規,0,2023-12-06,2023-12-06,株式会社ヴィクトワール,,株式会社,愛知県,みよし市,三好町下畷２６番地１,,23,236,4700224,,,,,,,2023-12-06,1,,,,,ヴィクトワール,0
2236,8190001030929,新規,0,2023-12-06,2023-12-06,株式会社新西方画像診断サービス,,株式会社,三重県,桑名市,新西方７丁目２０番地２３,,24,205,5110863,,,,,,,2023-12-06,1,,,,,シンニシカタガゾウシンダンサービス,0
2238,8190003004526,新規,0,2023-12-06,2023-12-06,未来インパクト合同会社,,合同会社,三重県,津市,末広町１６番１号,,24,201,5140012,,,,,,,2023-12-06,1,,,,,ミライインパクト,0
2255,8240001062504,新規,0,2023-12-06,2023-12-06,山根屋株式会社,,株式会社,広島県,竹原市,忠海東町５丁目２５番５号,,34,203,7292317,,,,,,,2023-12-06,1,,,,,ヤマネヤ,0
2260,8250001020411,新規,0,2023-12-06,2023-12-06,玉川サービス＆メンテナンス株式会社,,株式会社,山口県,宇部市,上条１丁目１２番３９－１号,,35,202,7550801,,,,,,,2023-12-06,1,,,,,タマガワサービスアンドメンテナンス,0
2267,8260001038527,新規,0,2023-12-06,2023-12-06,株式会社金山修一商店,,株式会社,岡山県,岡山市北区,神田町１丁目９番１９号,,33,101,7000935,,,,,,,2023-12-06,1,,,,,カナヤマシュウイチショウテン,0
2276,8290001103914,新規,0,2023-12-06,2023-12-06,エルエル商事株式会社,,株式会社,福岡県,福岡市博多区,板付７丁目８番３３号エリーナ板付１Ｆ,,40,132,8120888,,,,,,,2023-12-06,1,,,,,エルエルショウジ,0
2277,8290003014696,新規,0,2023-12-06,2023-12-06,センターリバー合同会社,,合同会社,福岡県,宗像市,自由ヶ丘１０丁目１９番地２７,,40,220,8114163,,,,,,,2023-12-06,1,,,,,センターリバー,0
2278,8290801030102,新規,0,2023-12-06,2023-12-06,株式会社ＲＢ,,株式会社,福岡県,北九州市門司区,浜町１０番７－３０３号,,40,101,8010856,,,,,,,2023-12-06,1,,,,,アールビー,0
2279,8290801030110,新規,0,2023-12-06,2023-12-06,トライアスエナジー株式会社,,株式会社,福岡県,遠賀郡遠賀町,大字広渡１９９２番地の４,,40,384,8114302,,,,,,,2023-12-06,1,,,,,トライアスエナジー,0
2282,8310001018738,新規,0,2023-12-06,2023-12-06,株式会社Ｊ企画,,株式会社,長崎県,佐世保市,船越町３６２番地２,,42,202,8571231,,,,,,,2023-12-06,1,,,,,ジェイキカク,0
2284,8320001020172,新規,0,2023-12-06,2023-12-06,レンバス株式会社,,株式会社,大分県,豊後高田市,界２７６番地,,44,209,8790615,,,,,,,2023-12-06,1,,,,,レンバス,0
2289,8340001026119,新規,0,2023-12-06,2023-12-06,株式会社ＲＭＴ,,株式会社,鹿児島県,鹿児島市,武岡１丁目１０番地１０,,46,201,8900031,,,,,,,2023-12-06,1,,,,,アールエムティ,0
2292,8360001032899,新規,0,2023-12-06,2023-12-06,株式会社でいご不動産,,株式会社,沖縄県,沖縄市,古謝３丁目１８－１７,,47,211,9042161,,,,,,,2023-12-06,1,,,,,デイゴフドウサン,0
2295,8370001050685,新規,0,2023-12-06,2023-12-06,株式会社山吹,,株式会社,宮城県,仙台市青葉区,錦ケ丘８丁目１２番地の２錦ケ丘タウンハウス３０８,,04,101,9893123,,,,,,,2023-12-06,1,,,,,ヤマブキ,0
2299,8430001090584,新規,0,2023-12-06,2023-12-06,株式会社Ｇｅｎｔｅｎ,,株式会社,北海道,札幌市中央区,北十一条西２１丁目１番１号マルワビル２階４号室,,01,101,0600011,,,,,,,2023-12-06,1,,,,,ゲンテン,0
2300,8430001090592,新規,0,2023-12-06,2023-12-06,弥栄株式会社,,株式会社,北海道,札幌市西区,西野八条２丁目２番８号,,01,107,0630038,,,,,,,2023-12-06,1,,,,,ヤサカ,0
2305,8430003015713,新規,0,2023-12-06,2023-12-06,合同会社ジェメレ,,合同会社,北海道,札幌市中央区,南二条西２４丁目２番２２－６０１号,,01,101,0640802,,,,,,,2023-12-06,1,,,,,ジェメレ,0
2313,8470003002526,新規,0,2023-12-06,2023-12-06,合同会社ＭＨスタイル,,合同会社,香川県,高松市,仏生山町甲１６３２番地５,,37,201,7618078,,,,,,,2023-12-06,1,,,,,エムエイチスタイル,0
2315,8500003003149,新規,0,2023-12-06,2023-12-06,農業物語合同会社,,合同会社,愛媛県,今治市,朝倉下甲６８１番地１,,38,202,7991603,,,,,,,2023-12-06,1,,,,,ノウギョウモノガタリ,0
2319,8700150121476,新規,0,2023-12-06,2023-12-06,Ｓｈｅｎｚｈｅｎ　Ｊｉｍ　Ｕｐｐｅｒ　Ｔｅｃｈｎｏｌｏｇｙ　Ｃｏ．，Ｌｔｄ,,外国会社等,,,,,,,,Ｒｏｏｍ　＃１０５，Ｂｕｉｌｄｉｎｇ　＃１９，Ｚｈｅｎｇｌｏｎｇ　Ｓｏｕｔｈ，Ｇｅｎｚｈｕｙｕａｎ　Ｃｏｍｍｕｎｉｔｙ，Ｍａｔｉａｎ　Ｓｔｒｅｅｔ，Ｇｕａｎｇｍｉｎｇ　ＤｉｓｔｒｉｃｔＳｈｅｎｚｈｅｎＧｕａｎｇｄｏｎｇ５１８１０６ＣＮ,,,,,,2023-12-06,1,,,,,シェンジェンジムアッパーテクノロジーカンパニーリミテッド,0
2327,9010001240528,新規,0,2023-12-06,2023-12-06,株式会社ＩＭＡＨＲＥＡ,,株式会社,東京都,千代田区,平河町１丁目３番１３号ＣＩＲＣＬＥＳ平河町１１階,,13,101,1020093,,,,,,,2023-12-06,1,,,,,イマレア,0
2328,9010001240544,新規,0,2023-12-06,2023-12-06,株式会社ＯＷＬｏｏ,,株式会社,東京都,中央区,銀座１丁目１３番１２銀友ビル８階,,13,102,1040061,,,,,,,2023-12-06,1,,,,,オウルー,0
2329,9010001240560,新規,0,2023-12-06,2023-12-06,株式会社Ｓ．Ｙ．Ｕ,,株式会社,東京都,中央区,勝どき４丁目６番２－１９３３号,,13,102,1040054,,,,,,,2023-12-06,1,,,,,エスワイユー,0
2336,9010103002264,新規,0,2023-12-06,2023-12-06,合同会社プロスパー,,合同会社,東京都,八王子市,北野町５６１番地１０,,13,201,1920906,,,,,,,2023-12-06,1,,,,,プロスパー,0
2343,9010401178896,新規,0,2023-12-06,2023-12-06,株式会社ノクターン,,株式会社,東京都,港区,六本木２丁目２番４－１１０５号,,13,103,1060032,,,,,,,2023-12-06,1,,,,,ノクターン,0
2344,9010401178946,新規,0,2023-12-06,2023-12-06,株式会社Ｖｅｃｅｓ,,株式会社,東京都,港区,浜松町１丁目２７－１７三和ビル４階４２０,,13,103,1050013,,,,,,,2023-12-06,1,,,,,ベセス,0
2346,9010405022761,新規,0,2023-12-06,2023-12-06,一般社団法人Ｇｒｅｅｎ　Ｂｕｉｌｄｉｎｇ　Ｅｃｏｓｙｓｔｅｍ,,その他の設立登記法人,東京都,港区,西新橋１丁目２番９号メンターキャピタル税理士法人内,,13,103,1050003,,,,,,,2023-12-06,1,,,,,グリーンビルディングエコシステム,0
2347,9010501051466,新規,0,2023-12-06,2023-12-06,リッチストーン株式会社,,株式会社,東京都,台東区,上野５丁目８番１３号,,13,106,1100005,,,,,,,2023-12-06,1,,,,,リッチストーン,0
2348,9010501051474,新規,0,2023-12-06,2023-12-06,エーオーエル株式会社,,株式会社,東京都,台東区,浅草橋４丁目４番９号,,13,106,1110053,,,,,,,2023-12-06,1,,,,,エーオーエル,0
2351,9010601064277,新規,0,2023-12-06,2023-12-06,東晟商事株式会社,,株式会社,東京都,江東区,東砂３丁目１９番３０号,,13,108,1360074,,,,,,,2023-12-06,1,,,,,トウセイショウジ,0
2352,9010603010502,新規,0,2023-12-06,2023-12-06,合同会社だいしゅき,,合同会社,東京都,墨田区,文花１丁目１８－１３,,13,107,1310044,,,,,,,2023-12-06,1,,,,,ダイシュキ,0
2353,9010603010510,新規,0,2023-12-06,2023-12-06,合同会社きまま,,合同会社,東京都,墨田区,本所１丁目３４－１１,,13,107,1300004,,,,,,,2023-12-06,1,,,,,,0
2355,9010701045227,新規,0,2023-12-06,2023-12-06,りぶシステム開発株式会社,,株式会社,東京都,品川区,南品川６丁目１８番１０号,,13,109,1400004,,,,,,,2023-12-06,1,,,,,リブシステムカイハツ,0
2358,9010801034575,新規,0,2023-12-06,2023-12-06,株式会社節,,株式会社,東京都,大田区,東矢口３丁目４番１６号,,13,111,1460094,,,,,,,2023-12-06,1,,,,,セツ,0
2364,9010901054300,新規,0,2023-12-06,2023-12-06,株式会社用賀建設,,株式会社,東京都,世田谷区,上用賀６丁目３番７号,,13,112,1580098,,,,,,,2023-12-06,1,,,,,ヨウガケンセツ,0
2369,9011001158611,新規,0,2023-12-06,2023-12-06,株式会社スーツ,,株式会社,東京都,渋谷区,西原１丁目３７番４号,,13,113,1510066,,,,,,,2023-12-06,1,,,,,スーツ,0
2376,9011101105348,新規,0,2023-12-06,2023-12-06,ケンメイホールディングス株式会社,,株式会社,東京都,新宿区,新宿４丁目３番１５号,,13,104,1600022,,,,,,,2023-12-06,1,,,,,ケンメイホールディングス,0
2378,9011103013821,新規,0,2023-12-06,2023-12-06,合同会社ＥＩＧＨＴ,,合同会社,東京都,新宿区,歌舞伎町２丁目４２番１６号第二大瀧ビル８階,,13,104,1600021,,,,,,,2023-12-06,1,,,,,エイト,0
2379,9011201025090,新規,0,2023-12-06,2023-12-06,ＯＩＡ株式会社,,株式会社,東京都,中野区,中央１丁目３８番１－２４１０号,,13,114,1640011,,,,,,,2023-12-06,1,,,,,オーアイーエー,0
2381,9011203004241,新規,0,2023-12-06,2023-12-06,合同会社ＪＢ,,合同会社,東京都,中野区,本町４丁目３０番２３－９０１号,,13,114,1640012,,,,,,,2023-12-06,1,,,,,ジェービー,0
2386,9011503005872,新規,0,2023-12-06,2023-12-06,Ｃｈａｃｏｔｔ・ｍｉｍｉ合同会社,,合同会社,東京都,北区,西ケ原４丁目９番７号,,13,117,1140024,,,,,,,2023-12-06,1,,,,,チャコットミミ,0
2387,9011601027348,新規,0,2023-12-06,2023-12-06,株式会社リペアクリエイツ,,株式会社,東京都,練馬区,豊玉上２丁目２５番７,,13,120,1760011,,,,,,,2023-12-06,1,,,,,リペアクリエイツ,0
2388,9011701026828,新規,0,2023-12-06,2023-12-06,株式会社ＴＡＲＯＷＳ,,株式会社,東京都,江戸川区,東瑞江１丁目３７番４号Ｋ’Ｓ瑞江１Ｆ,,13,123,1320014,,,,,,,2023-12-06,1,,,,,タロウズ,0
2391,9011705001810,新規,0,2023-12-06,2023-12-06,一般社団法人日本木造建築海外推進協会,,その他の設立登記法人,東京都,江戸川区,大杉５丁目１７番地６号,,13,123,1320022,,,,,,,2023-12-06,1,,,,,ニホンモクゾウケンチクカイガイスイシンキョウカイ,0
2393,9011801043450,新規,0,2023-12-06,2023-12-06,株式会社Ｊ．Ｄ．ＷＯＲＫＳ,,株式会社,東京都,足立区,六木３丁目４５番２１号,,13,121,1210052,,,,,,,2023-12-06,1,,,,,ジェイディワークス,0
2396,9012403006309,新規,0,2023-12-06,2023-12-06,アイケアディーエックス合同会社,,合同会社,東京都,調布市,調布ケ丘１丁目５番１号,,13,208,1820021,,,,,,,2023-12-06,1,,,,,アイケアディーエックス,0
2397,9012701017981,新規,0,2023-12-06,2023-12-06,ＡｃｃｏＲＯＡＤ株式会社,,株式会社,東京都,小平市,花小金井３丁目２番２３－２号,,13,211,1870002,,,,,,,2023-12-06,1,,,,,アコロード,0
2406,9020001154735,新規,0,2023-12-06,2023-12-06,スワロー金属株式会社,,株式会社,神奈川県,横浜市西区,北幸２丁目１０番４８号むつみビル３階,,14,103,2200004,,,,,,,2023-12-06,1,,,,,スワローキンゾク,0
2407,9020001154743,新規,0,2023-12-06,2023-12-06,株式会社寺地塗装,,株式会社,神奈川県,横浜市保土ケ谷区,新桜ケ丘１丁目３６番１５号,,14,106,2400036,,,,,,,2023-12-06,1,,,,,テラチトソウ,0
2408,9020001154784,新規,0,2023-12-06,2023-12-06,城宝株式会社,,株式会社,神奈川県,横浜市中区,山下町２１７番地林コーポ４０１号室,,14,104,2310023,,,,,,,2023-12-06,1,,,,,ジョウホウ,0
2414,9020003024944,新規,0,2023-12-06,2023-12-06,合同会社ＧＯＡＬ,,合同会社,神奈川県,川崎市幸区,小向町２１番２１号,,14,132,2120003,,,,,,,2023-12-06,1,,,,,ゴール,0
2421,9021003013870,新規,0,2023-12-06,2023-12-06,合同会社ｌｉｔｔｌｅ　ｈｅｌｐ,,合同会社,神奈川県,相模原市緑区,西橋本３丁目５番８号,,14,151,2520131,,,,,,,2023-12-06,1,,,,,リトルヘルプ,0
2427,9030001157398,新規,0,2023-12-06,2023-12-06,リシンク株式会社,,株式会社,埼玉県,越谷市,登戸町１８番１１号,,11,222,3430846,,,,,,,2023-12-06,1,,,,,リシンク,0
2428,9030001157480,新規,0,2023-12-06,2023-12-06,株式会社Ｄｅｍｅｔｅｒ,,株式会社,埼玉県,入間市,高倉４丁目２－２３レヴィールヒルズ入間リバービュー７０１,,11,225,3580021,,,,,,,2023-12-06,1,,,,,デメテル,0
2429,9030001157497,新規,0,2023-12-06,2023-12-06,株式会社ウェルウォーターペット,,株式会社,埼玉県,さいたま市見沼区,大字蓮沼１４０６番地１ＤＣＭさいたま蓮沼店トロピカルファーム内ペットウェルネスステーション,,11,104,3370015,,,,,,,2023-12-06,1,,,,,ウェルウォーターペット,0
2430,9030001157539,新規,0,2023-12-06,2023-12-06,株式会社ＡＳＴＲＯＳ,,株式会社,埼玉県,入間市,宮寺字宮寺新田２９７６番地２３,,11,225,3580014,,,,,,,2023-12-06,1,,,,,アストロス,0
2432,9030003023136,新規,0,2023-12-06,2023-12-06,ハックベリーホーム合同会社,,合同会社,埼玉県,和光市,白子３丁目２７番１号,,11,229,3510101,,,,,,,2023-12-06,1,,,,,ハックベリーホーム,0
2435,9040001131146,新規,0,2023-12-06,2023-12-06,文卿株式会社,,株式会社,千葉県,千葉市緑区,下大和田町８４０番,,12,105,2670052,,,,,,,2023-12-06,1,,,,,ブンキョウ,0
2436,9040001131220,新規,0,2023-12-06,2023-12-06,株式会社ｍａｒｏｕ,,株式会社,千葉県,柏市,豊住３丁目４番５号,,12,217,2770071,,,,,,,2023-12-06,1,,,,,マロウ,0
2437,9040001131237,新規,0,2023-12-06,2023-12-06,株式会社Ａｐｏｌｅｍｉａ,,株式会社,千葉県,柏市,柏３丁目１－１,,12,217,2770005,,,,,,,2023-12-06,1,,,,,アポレミア,0
2439,9040003023861,新規,0,2023-12-06,2023-12-06,ＹＭＳ合同会社,,合同会社,千葉県,浦安市,今川４丁目１番３５－２０８号エクセレントシティ新浦安ブレッサン,,12,227,2790022,,,,,,,2023-12-06,1,,,,,ワイエムエス,0
2442,9050003007979,新規,0,2023-12-06,2023-12-06,合同会社とうまや商店,,合同会社,茨城県,稲敷郡河内町,源清田堤外８２番地１,,08,447,3001324,,,,,,,2023-12-06,1,,,,,トウマヤショウテン,0
2443,9050003007987,新規,0,2023-12-06,2023-12-06,ＳＡＴＴＡＲ　ＴＲＡＤＩＮＧ合同会社,,合同会社,茨城県,下妻市,江１５７３番地１７ＳＵＷＡコーポＡ棟１０２号室,,08,210,3040002,,,,,,,2023-12-06,1,,,,,サタートレーデイング,0
2452,9070005010203,新規,0,2023-12-06,2023-12-06,一般社団法人ゆいまーる,,その他の設立登記法人,群馬県,館林市,楠町１３６６番地の１,,10,207,3740004,,,,,,,2023-12-06,1,,,,,ユイマール,0
2454,9080401026875,新規,0,2023-12-06,2023-12-06,株式会社ＹＯＬＯ,,株式会社,静岡県,磐田市,加茂８９９番地１０,,22,211,4380804,,,,,,,2023-12-06,1,,,,,ヨロ,0
2460,9100001037031,新規,0,2023-12-06,2023-12-06,株式会社不二昌栄,,株式会社,長野県,上田市,古里１９７５番地,,20,203,3860005,,,,,,,2023-12-06,1,,,,,フジショウエイ,0
2474,9120001260300,新規,0,2023-12-06,2023-12-06,Ｔｅａｍ　ｐｏｗｅｒ株式会社,,株式会社,大阪府,大阪市北区,西天満３丁目４－５大栄西天満ビル５０１号,,27,127,5300047,,,,,,,2023-12-06,1,,,,,チームパワー,0
2475,9120001260325,新規,0,2023-12-06,2023-12-06,ＫＳ株式会社,,株式会社,大阪府,大阪市中央区,石町１丁目１番１５号６Ｆ,,27,128,5400033,,,,,,,2023-12-06,1,,,,,ケーエス,0
2476,9120001260358,新規,0,2023-12-06,2023-12-06,株式会社パークプランネットワークシステム,,株式会社,大阪府,大阪市阿倍野区,阿倍野筋１丁目５番３６号,,27,119,5450052,,,,,,,2023-12-06,1,,,,,パークプランネットワークシステム,0
2477,9120001260366,新規,0,2023-12-06,2023-12-06,株式会社ＫＯＫＯ,,株式会社,大阪府,大阪市西区,江戸堀１丁目２１番４号ＭＲＫＥＤＯＢＯＲＩ１Ｆ,,27,106,5500002,,,,,,,2023-12-06,1,,,,,ココ,0
2478,9120001260399,新規,0,2023-12-06,2023-12-06,株式会社ＡＹＹ,,株式会社,大阪府,大阪市西区,北堀江３丁目６番８号西青山ビル４０１,,27,106,5500014,,,,,,,2023-12-06,1,,,,,エイ,0
2479,9120001260440,新規,0,2023-12-06,2023-12-06,伽福商事株式会社,,株式会社,大阪府,大阪市港区,港晴３丁目１－６－２０２室,,27,107,5520023,,,,,,,2023-12-06,1,,,,,カフクショウジ,0
2482,9120101068627,新規,0,2023-12-06,2023-12-06,株式会社ＫＯＵＫＥＮ,,株式会社,大阪府,堺市東区,北野田１１８番地６,,27,143,5998123,,,,,,,2023-12-06,1,,,,,コウケン,0
2485,9120903004936,新規,0,2023-12-06,2023-12-06,グッドバイバイ合同会社,,合同会社,大阪府,豊中市,緑丘３丁目１１番１５－３０５号,,27,203,5600002,,,,,,,2023-12-06,1,,,,,グッドバイバイ,0
2486,9122001037637,新規,0,2023-12-06,2023-12-06,株式会社慶仁商事,,株式会社,大阪府,東大阪市,日下町４丁目３番４号,,27,227,5798003,,,,,,,2023-12-06,1,,,,,ケイジンショウジ,0
2487,9122003002746,新規,0,2023-12-06,2023-12-06,合同会社オールスパーク,,合同会社,大阪府,大東市,南津の辺町２０番２７号グランピア南津の辺３０５号,,27,218,5740016,,,,,,,2023-12-06,1,,,,,オールスパーク,0
2489,9130001075854,新規,0,2023-12-06,2023-12-06,株式会社Ｓ,,株式会社,京都府,京都市北区,鞍馬口通寺町西入新御霊口町２５３－３,,26,101,6038146,,,,,,,2023-12-06,1,,,,,エス,0
2490,9130001075862,新規,0,2023-12-06,2023-12-06,株式会社ｍａｒｌｌｅ,,株式会社,京都府,京都市下京区,立売西町７６番地３四条高倉大西ビル９階,,26,106,6008007,,,,,,,2023-12-06,1,,,,,マーレ,0
2492,9130003009174,新規,0,2023-12-06,2023-12-06,合同会社Ｆｉｅｌｄ　Ｕｐ,,合同会社,京都府,城陽市,寺田今堀６２番地の３６,,26,207,6100121,,,,,,,2023-12-06,1,,,,,フィールドアップ,0
2503,9140001132555,新規,0,2023-12-06,2023-12-06,ドット・テラス株式会社,,株式会社,兵庫県,宝塚市,塔の町１番２４号,,28,214,6650073,,,,,,,2023-12-06,1,,,,,ドットテラス,0
2504,9140001132563,新規,0,2023-12-06,2023-12-06,株式会社ビートホーム,,株式会社,兵庫県,姫路市,車崎２丁目１番２２号,,28,201,6700058,,,,,,,2023-12-06,1,,,,,ビートホーム,0
2506,9140003019882,新規,0,2023-12-06,2023-12-06,合同会社ＴＩＮＹ,,合同会社,兵庫県,神戸市須磨区,菅の台３丁目１４番地の１－９０２号,,28,107,6540143,,,,,,,2023-12-06,1,,,,,タイニー,0
2507,9150003003134,新規,0,2023-12-06,2023-12-06,オギオート合同会社,,合同会社,奈良県,宇陀市,榛原あかね台１丁目９番３号,,29,212,6330256,,,,,,,2023-12-06,1,,,,,オギオート,0
2509,9160001025534,新規,0,2023-12-06,2023-12-06,株式会社ＺＡＦＨＩＲ　ＵＳＭＡＮ　ＡＵＴＯ,,株式会社,滋賀県,長浜市,泉町字浄光１０７９番地,,25,203,5260003,,,,,,,2023-12-06,1,,,,,ザフィールウスマンオート,0
2515,9180001028213,新規,0,2023-12-06,2023-12-06,株式会社ＭＡＰ,,株式会社,愛知県,名古屋市瑞穂区,彌富町字緑ケ岡１３番地の１,,23,108,4670031,,,,,,,2023-12-06,1,,,,,マップ,0
2518,9180001159157,新規,0,2023-12-06,2023-12-06,株式会社エコエース,,株式会社,愛知県,名古屋市港区,藤前１丁目９０４,,23,111,4550855,,,,,,,2023-12-06,1,,,,,エコエース,0
2519,9180001159165,新規,0,2023-12-06,2023-12-06,株式会社ＴＬＦ,,株式会社,愛知県,小牧市,久保一色南１丁目２４６番地,,23,219,4850007,,,,,,,2023-12-06,1,,,,,ティーエルエフ,0
2520,9180001159173,新規,0,2023-12-06,2023-12-06,株式会社由,,株式会社,愛知県,名古屋市東区,白壁２丁目３１番２号グランマスト白壁二丁目５０１号,,23,102,4610011,,,,,,,2023-12-06,1,,,,,ヨシ,0
2521,9180001159215,新規,0,2023-12-06,2023-12-06,株式会社コネクション,,株式会社,愛知県,名古屋市中区,大須１丁目２７番３４号,,23,106,4600011,,,,,,,2023-12-06,1,,,,,コネクション,0
2535,9190001030936,新規,0,2023-12-06,2023-12-06,株式会社Ｎ．Ｐ．Ｗホールディングス,,株式会社,三重県,伊勢市,佐八町８９４番地,,24,203,5161102,,,,,,,2023-12-06,1,,,,,ネピューホールディングス,0
2536,9190003004517,新規,0,2023-12-06,2023-12-06,合同会社ＨＡＫＵ,,合同会社,三重県,四日市市,川尻町２１６５番地６,,24,202,5100871,,,,,,,2023-12-06,1,,,,,ハク,0
2537,9190003004525,新規,0,2023-12-06,2023-12-06,合同会社Ｒ．Ｙｕ．Ｃｏ．,,合同会社,三重県,松阪市,中央町３８番地９,,24,204,5150019,,,,,,,2023-12-06,1,,,,,アールユーカンパニー,0
2542,9230001020131,新規,0,2023-12-06,2023-12-06,株式会社ＲＥＧ‐ＺＡ,,株式会社,富山県,富山市,婦中町吉谷３番地３,,16,201,9392638,,,,,,,2023-12-06,1,,,,,レグザ,0
2544,9240001062511,新規,0,2023-12-06,2023-12-06,株式会社ＳＥＩＪＩ,,株式会社,広島県,東広島市,西条町寺家６７０７番地１,,34,212,7390041,,,,,,,2023-12-06,1,,,,,セイジ,0
2548,9250005008880,新規,0,2023-12-06,2023-12-06,医療法人田中歯科医院,,その他の設立登記法人,山口県,長門市,東深川９０６番地１,,35,211,7594101,,,,,,,2023-12-06,1,,,,,タナカシカイイン,0
2553,9260001038526,新規,0,2023-12-06,2023-12-06,株式会社ＭＫ,,株式会社,岡山県,総社市,金井戸１３８番地１,,33,208,7191114,,,,,,,2023-12-06,1,,,,,エムケー,0
2563,9290001103938,新規,0,2023-12-06,2023-12-06,株式会社ＣＲＯＳＳ　ＧＵＩＬＤ,,株式会社,福岡県,福岡市中央区,平和３丁目１２－１イルシオン平和２０２,,40,133,8100016,,,,,,,2023-12-06,1,,,,,クロスギルド,0
2564,9290001103954,新規,0,2023-12-06,2023-12-06,株式会社金城,,株式会社,福岡県,福岡市東区,松島２丁目７番１１号５０１室,,40,131,8120062,,,,,,,2023-12-06,1,,,,,キンジョウ,0
2568,9290003014679,新規,0,2023-12-06,2023-12-06,合同会社薬事医療翻訳Ｒｉｂｏｌｅｘｉ,,合同会社,福岡県,福岡市早良区,西新５丁目１１番１３－２号,,40,137,8140002,,,,,,,2023-12-06,1,,,,,ヤクジイリョウホンヤクリボレキシ,0
2569,9290003014695,新規,0,2023-12-06,2023-12-06,合同会社ＢｅＳｈｕ,,合同会社,福岡県,福岡市中央区,天神２丁目２番１２号Ｔ＆Ｊビルディング７Ｆ,,40,133,8100001,,,,,,,2023-12-06,1,,,,,ビーシュー,0
2573,9310001018729,新規,0,2023-12-06,2023-12-06,株式会社ホームタウン,,株式会社,長崎県,平戸市,岩の上町７２５番地５,,42,207,8595121,,,,,,,2023-12-06,1,,,,,ホームタウン,0
2574,9310001018737,新規,0,2023-12-06,2023-12-06,株式会社ＩＫＩＳＨＯ,,株式会社,長崎県,壱岐市,勝本町新城西触４７８番地,,42,210,8115533,,,,,,,2023-12-06,1,,,,,イキショウ,0
2577,9320003004247,新規,0,2023-12-06,2023-12-06,合同会社永原商会,,合同会社,大分県,臼杵市,大字吉小野１００１番地,,44,206,8750071,,,,,,,2023-12-06,1,,,,,ナガハラショウカイ,0
2584,9340001026118,新規,0,2023-12-06,2023-12-06,エスアートデザイン株式会社,,株式会社,鹿児島県,鹿児島市,武３丁目２５－６－２０２号,,46,201,8900045,,,,,,,2023-12-06,1,,,,,エスアートデザイン,0
2590,9360001032898,新規,0,2023-12-06,2023-12-06,株式会社設計工房琉華,,株式会社,沖縄県,沖縄市,宮里１丁目２３番３号,,47,211,9042165,,,,,,,2023-12-06,1,,,,,セッケイコウボウリュウカ,0
2592,9370001050684,新規,0,2023-12-06,2023-12-06,Ｔｅａｍ　ＰＲＯ株式会社,,株式会社,宮城県,仙台市宮城野区,新田東１丁目１０番地の１ＬＭ小鶴新田センターパーク６０４,,04,102,9830039,,,,,,,2023-12-06,1,,,,,チームプロ,0
2593,9370001050692,新規,0,2023-12-06,2023-12-06,株式会社ＢＬＵＥ　ＡＩＲＩＳ,,株式会社,宮城県,仙台市青葉区,国分町３丁目８番１７号日東ハイツ８０１号室,,04,101,9800803,,,,,,,2023-12-06,1,,,,,ブルーアイリス,0
2598,9380001034166,新規,0,2023-12-06,2023-12-06,株式会社旭進工業,,株式会社,福島県,会津若松市,旭町１番２７号,,07,202,9650032,,,,,,,2023-12-06,1,,,,,キョクシンコウギョウ,0
2599,9380001034174,新規,0,2023-12-06,2023-12-06,株式会社ＦＡＣ,,株式会社,福島県,郡山市,大槻町字菅田５１番地１,,07,203,9630201,,,,,,,2023-12-06,1,,,,,エフエーシー,0
2606,9450003002411,新規,0,2023-12-06,2023-12-06,合同会社春秋コンサルティング,,合同会社,北海道,旭川市,春光台四条１２丁目５２４８番地の４,,01,204,0718144,,,,,,,2023-12-06,1,,,,,シュンジュウコンサルティング,0
2607,9470003002525,新規,0,2023-12-06,2023-12-06,合同会社うとせんうどん,,合同会社,香川県,高松市,伏石町２０１５番地１,,37,201,7618071,,,,,,,2023-12-06,1,,,,,ウトセンウドン,0
2616,9500003003148,新規,0,2023-12-06,2023-12-06,まる合同会社,,合同会社,愛媛県,松山市,東垣生町３０３番地１シャルマンイシダ３０２号,,38,201,7918043,,,,,,,2023-12-06,1,,,,,マル,0
2623,9700150120246,新規,0,2023-12-06,2023-12-06,ｈａｎｇｚｈｏｕｋａｉｄｉｓｉｍａｏｙｉｙｏｕｘｉａｎｇｏｎｇｓｉ,,外国会社等,,,,,,,,ｈａｎｇｚｈｏｕｓｈｉｘｉｈｕｑｕｘｉｘｉｈｕａｙｕａｎｌｉｎｇｂｏｙｕａｎ１２２ｈａｏ,,,,,,2023-12-06,1,,,,,ハンジヨウカイデイスーマオイーヨウシエンゴンスー,0
2624,9700150120460,新規,0,2023-12-06,2023-12-06,Ｓｈｅｎｚｈｅｎ　Ｈｏｌｌｙｌａｎｄ　Ｔｅｃｈｎｏｌｏｇｙ　Ｃｏ．，Ｌｔｄ．,,外国会社等,,,,,,,,５Ｄ８０１，Ｓｋｙｗｏｒｔｈ　Ｉｎｎｏｖａｔｉｏｎ　Ｖａｌｌｅｙ，Ｎｏ．１　Ｒｏａｄ，Ｔａｎｇｔｏｕ　Ｃｏｍｍｕｎｉｔｙ，Ｓｈｉｙａｎ　Ｓｔ．，Ｂａｏａｎ　Ｄｉｓｔ．，Ｓｋｙｗｏｒｔｈ,,,,,,2023-12-06,1,,,,,シェンジェンホリーランドテクノロジーシーオーエルティディ,0
2625,9700150120997,新規,0,2023-12-06,2023-12-06,Ｓｈｅｎｚｈｅｎｓｈｉｙｕｂａｎｇｓｕｊｉａｏｙｕａｎｌｉａｏｙｏｕｘｉａｎｇｏｎｇｓｉ,,外国会社等,,,,,,,,ｆｕｂａｏｊｉｅｄａｏｘｉｎｔｉａｎｓｈｉｊｉｓｈａｎｇｗｕｚｈｏｎｇｘｉｎ１ｄｏｎｇＢｚｕｏ９０９ｈａｏ　ｆｕｔｉａｎｑｕ　ｓｈｅｎｚｈｅｎｓｈｉ　５１８１１１　ＣＮ,,,,,,2023-12-06,1,,,,,シェンジェンシユイバンスージャオユエンリァオヨウシエンゴンス,0
2626,9700150121475,新規,0,2023-12-06,2023-12-06,ｓｈｅｎｙａｎｇ　ａｉｌｉｎｄａ　ｊｉｎｃｈｕｋｏｕ　ｍａｏｙｉｙｏｕｘｉａｎｇｏｎｇｓｉ,,外国会社等,,,,,,,,Ｌｉａｏｎｉｎｇｓｈｅｎｇｓｈｅｎｙａｎｇｓｈｉ　ｊｉｎｇｊｉｊｉｓｈｕｋａｉｆａｑｕ　ｃａｎｇｈａｉｌｕ８－５６ｈａｏ（３５２）,,,,,,2023-12-06,1,,,,,シェンヤンアイリンダージンチュウコウマオイーヨウシェンゴンスー,0
