sequenceNumber,corporateNumber,process,correct,updateDate,changeDate,name,nameImageId,kind,prefectureName,cityName,streetNumber,addressImageId,prefectureCode,cityCode,postCode,addressOutside,addressOutsideImageId,closeDate,closeCause,successorCorporateNumber,changeCause,assignmentDate,latest,enName,enPrefectureName,enCityName,enAddressOutside,furigana,hihyoji
7,1010001199094,登記記録の閉鎖等,0,2025-08-06,2025-07-08,ｒｅｇｌｏリテイリング株式会社,,株式会社,東京都,千代田区,麹町３丁目２－１３,,13,101,1020083,,,2025-07-08,清算の結了等,,,2019-03-08,1,,,,,レグロリテイリング,0
12,1010002029309,登記記録の閉鎖等,0,2025-08-06,2025-07-31,有限会社メッセージ,,有限会社,東京都,文京区,千駄木２丁目３３番２号,,13,105,1130022,,,2025-07-31,合併による解散等,3011201009421,令和７年７月１日東京都台東区蔵前四丁目２４番２号株式会社メッセージ（3011201009421）に合併し解散,2015-10-05,1,,,,,メッセージ,0
28,1010501030345,登記記録の閉鎖等,0,2025-08-06,2025-07-22,ライズ株式会社,,株式会社,東京都,台東区,台東１丁目１０番９号ルート台東ビル２階,,13,106,1100016,,,2025-07-22,清算の結了等,,,2015-10-05,1,,,,,ライズ,0
31,1010601019420,登記記録の閉鎖等,0,2025-08-06,2025-07-28,三誠株式会社,,株式会社,東京都,墨田区,石原２丁目１１番９号,,13,107,1300011,,,2025-07-28,清算の結了等,,,2015-10-05,1,,,,,サンセイ,0
33,1010601040995,登記記録の閉鎖等,0,2025-08-06,2025-07-25,株式会社メグデンタル,,株式会社,東京都,江東区,塩浜２丁目７番５－１１０７号,,13,108,1350043,,,2025-07-25,清算の結了等,,,2015-10-05,1,,,,,メグデンタル,0
38,1010701004933,登記記録の閉鎖等,0,2025-08-06,2025-08-01,株式会社杉山雄文堂,,株式会社,東京都,品川区,東大井５丁目７番１４号,,13,109,1400011,,,2025-08-01,清算の結了等,,,2015-10-05,1,,,,,スギヤマユウブンドウ,0
73,1012405002783,登記記録の閉鎖等,0,2025-08-06,2025-08-01,一般社団法人Ｈａｐｐｙ　Ｋｏｋｏｒｏｊｉ,,その他の設立登記法人,東京都,武蔵野市,中町３丁目６番１９号,,13,203,1800006,,,2025-08-01,清算の結了等,,,2015-10-05,1,,,,,ハッピイココロージ,0
81,1020001114151,登記記録の閉鎖等,0,2025-08-06,2025-07-22,株式会社沼田工房,,株式会社,神奈川県,横浜市南区,高根町３丁目１７番地ストーク大通り公園三番館９０１,,14,105,2320022,,,2025-07-22,清算の結了等,,,2015-12-25,1,,,,,ヌマタコウボウ,0
82,1020001136245,登記記録の閉鎖等,0,2025-08-06,2025-08-01,株式会社Ｂｒａｎｄｉｎｇ　Ｈｏｕｓｅ,,株式会社,神奈川県,横浜市中区,常盤町３丁目２１番地アライアンス関内ビル３０２号室,,14,104,2310014,,,2025-08-01,清算の結了等,,,2020-05-27,1,,,,,ブランディングハウス,0
85,1020002026362,登記記録の閉鎖等,0,2025-08-06,2025-07-23,有限会社小杉造園,,有限会社,神奈川県,横浜市磯子区,坂下町４番２３号,,14,107,2350003,,,2025-07-23,清算の結了等,,,2015-10-05,1,,,,,コスギゾウエン,0
86,1020002030364,登記記録の閉鎖等,0,2025-08-06,2025-07-23,有限会社鈴木タイル工業,,有限会社,神奈川県,横浜市南区,六ツ川２丁目５７番地７第一ハイム弘明寺１０８,,14,105,2320066,,,2025-07-23,清算の結了等,,,2015-10-05,1,,,,,スズキタイルコウギョウ,0
87,1020002052813,登記記録の閉鎖等,0,2025-08-06,2025-07-23,有限会社フォーレスト,,有限会社,神奈川県,横浜市磯子区,森２丁目２３番１０－４０３号,,14,107,2350023,,,2025-07-23,清算の結了等,,,2015-10-05,1,,,,,フォーレスト,0
90,1020005008696,登記記録の閉鎖等,0,2025-08-06,2025-07-22,一般社団法人川崎朝日会,,その他の設立登記法人,神奈川県,川崎市中原区,小杉町１丁目４０３番地１０サニーウェル小杉,,14,133,2110063,,,2025-07-22,清算の結了等,,,2015-10-05,1,,,,,カワサキアサヒカイ,0
91,1021001058157,登記記録の閉鎖等,0,2025-08-06,2025-08-04,株式会社ＭＡＳＡＹＡ,,株式会社,神奈川県,鎌倉市,大船２丁目６番２８号,,14,204,2470056,,,2025-08-04,清算の結了等,,,2016-01-07,1,,,,,マサヤ,0
112,1030005010560,登記記録の閉鎖等,0,2025-08-06,2025-07-30,特定非営利活動法人シビルサポートネットワーク,,その他の設立登記法人,埼玉県,吉川市,きよみ野２丁目１３番地２,,11,243,3420058,,,2025-07-30,清算の結了等,,,2015-10-05,1,,,,,シビルサポートネットワーク,0
113,1040001020538,登記記録の閉鎖等,0,2025-08-06,2025-07-16,エス・エス・リフォーム株式会社,,株式会社,千葉県,八千代市,大和田新田４５３番地１３１,,12,221,2760046,,,2025-07-16,清算の結了等,,,2015-10-05,1,,,,,エスエスリフォーム,0
118,1040002024744,登記記録の閉鎖等,0,2025-08-06,2025-07-10,有限会社ビューティサロンワコー,,有限会社,千葉県,船橋市,松が丘４丁目５７番１１号,,12,204,2740064,,,2025-07-10,清算の結了等,,,2015-10-05,1,,,,,ビューティサロンワコー,0
129,1070001023356,登記記録の閉鎖等,0,2025-08-06,2025-07-31,株式会社ツツミ,,株式会社,群馬県,利根郡昭和村,大字糸井１０７７番地,,10,448,3791203,,,2025-07-31,清算の結了等,,,2015-10-05,1,,,,,ツツミ,0
151,1110002016791,登記記録の閉鎖等,0,2025-08-06,2025-07-14,有限会社あさひ美装,,有限会社,新潟県,三条市,上須頃８５９番地１,,15,204,9550091,,,2025-07-14,清算の結了等,,,2015-10-05,1,,,,,アサヒビソウ,0
165,1120002047943,登記記録の閉鎖等,0,2025-08-06,2025-07-16,有限会社ティ・エス・ユー・プランニング,,有限会社,大阪府,池田市,伏尾台１丁目１４番地の４,,27,204,5630017,,,2025-07-16,清算の結了等,,,2015-10-05,1,,,,,ティエスユープランニング,0
167,1120101004738,登記記録の閉鎖等,0,2025-08-06,2025-07-30,株式会社トークホーム,,株式会社,大阪府,堺市西区,浜寺船尾町西５丁１３６番地,,27,144,5928342,,,2025-07-30,清算の結了等,,,2015-10-05,1,,,,,トークホーム,0
185,1160001025178,登記記録の閉鎖等,0,2025-08-06,2025-07-24,株式会社聖心,,株式会社,滋賀県,犬上郡豊郷町,大字高野瀬６７８－１７,,25,441,5291173,,,2025-07-24,清算の結了等,,,2023-07-12,1,,,,,ミココロ,0
195,1190003001653,登記記録の閉鎖等,0,2025-08-06,2025-07-28,合資会社向井写真店,,合資会社,三重県,四日市市,中部７番８号,,24,202,5100082,,,2025-07-28,清算の結了等,,,2015-10-05,1,,,,,ムカイシャシンテン,0
198,1200001026898,登記記録の閉鎖等,0,2025-08-06,2025-07-28,粋株式会社,,株式会社,岐阜県,岐阜市,市橋４丁目４番７号,,21,201,5008381,,,2025-07-28,清算の結了等,,,2015-10-05,1,,,,,イキ,0
228,1310001003135,登記記録の閉鎖等,0,2025-08-06,2025-07-09,株式会社クール,,株式会社,長崎県,長崎市,江の浦町１７番１５号,,42,201,8528007,,,2025-07-09,清算の結了等,,,2015-10-05,1,,,,,クール,0
234,1320002020038,登記記録の閉鎖等,0,2025-08-06,2025-07-29,有限会社河野工務店,,有限会社,大分県,玖珠郡玖珠町,大字山浦７９６番地,,44,462,8794400,,,2025-07-29,清算の結了等,,,2015-10-05,1,,,,,カワノコウムテン,0
242,1340002017189,登記記録の閉鎖等,0,2025-08-06,2025-07-16,有限会社湯田水産,,有限会社,鹿児島県,薩摩川内市,港町６１１３番地２,,46,215,8991924,,,2025-07-16,清算の結了等,,,2015-10-05,1,,,,,ユダスイサン,0
245,1370402002119,登記記録の閉鎖等,0,2025-08-06,2025-07-14,有限会社フォー・ユー,,有限会社,宮城県,登米市,南方町上砥落１３番地１,,04,212,9870425,,,2025-07-14,清算の結了等,,,2015-10-05,1,,,,,フォーユー,0
250,1390002003473,登記記録の閉鎖等,0,2025-08-06,2025-07-25,有限会社ジュネス・カンパニー,,有限会社,山形県,山形市,上町３丁目６番２０号,,06,201,9902483,,,2025-07-25,清算の結了等,,,2015-10-05,1,,,,,ジュネスカンパニー,0
252,1390005003735,登記記録の閉鎖等,0,2025-08-06,2025-07-25,特定非営利活動法人ふれあいヘルパーサービス,,その他の設立登記法人,山形県,酒田市,北新橋１丁目８－１,,06,204,9980865,,,2025-07-25,清算の結了等,,,2015-10-05,1,,,,,フレアイヘルパーサービス,0
255,1430002049776,登記記録の閉鎖等,0,2025-08-06,2025-07-15,有限会社北海道競馬機器,,有限会社,北海道,岩見沢市,日の出町５７７番地７,,01,210,0680825,,,2025-07-15,清算の結了等,,,2015-10-05,1,,,,,ホッカイドウケイバキキ,0
263,1470001007905,登記記録の閉鎖等,0,2025-08-06,2025-07-30,株式会社スタイルハウス,,株式会社,香川県,仲多度郡多度津町,大字葛原１４１４番地８,,37,404,7640028,,,2025-07-30,清算の結了等,,,2015-10-05,1,,,,,スタイルハウス,0
267,1700150022722,登記記録の閉鎖等,0,2025-08-06,2025-03-31,おぢや風船一揆実行委員会,,その他,新潟県,小千谷市,城内１丁目８－２５　サンプラザ１階,,15,208,9470028,,,2025-03-31,その他の清算の結了等,,,2015-10-09,1,,,,,オヂヤフウセンイツキジツコウイインカイ,0
285,2010401158459,登記記録の閉鎖等,0,2025-08-06,2025-07-08,株式会社フォーミラ,,株式会社,東京都,千代田区,外神田３丁目６番４号第一勧業信用組合秋葉原ビル５階,,13,101,1010021,,,2025-07-08,清算の結了等,,,2021-03-01,1,,,,,フォーミラ,0
288,2010405019368,登記記録の閉鎖等,0,2025-08-06,2025-07-07,一般社団法人ＴＱＳＭ協会,,その他の設立登記法人,東京都,港区,海岸１丁目２番３号汐留芝離宮ビルディング２１階（エクスプローラーコンサルティング株式会社内）,,13,103,1050022,,,2025-07-07,清算の結了等,,,2020-12-28,1,,,,,ティーキューエスエムキョウカイ,0
294,2010802001300,登記記録の閉鎖等,0,2025-08-06,2025-07-23,有限会社伊藤精機,,有限会社,東京都,大田区,下丸子２丁目２５番３号,,13,111,1460092,,,2025-07-23,清算の結了等,,,2015-10-05,1,,,,,イトウセイキ,0
315,2011701024763,登記記録の閉鎖等,0,2025-08-06,2025-07-24,株式会社金井興業,,株式会社,東京都,江戸川区,西瑞江５丁目１番地１６,,13,123,1340015,,,2025-07-24,清算の結了等,,,2021-10-06,1,,,,,カナイコウギョウ,0
326,2013401006447,登記記録の閉鎖等,0,2025-08-06,2025-07-07,株式会社絆,,株式会社,東京都,多摩市,落合２丁目８番地の４,,13,224,2060033,,,2025-07-07,清算の結了等,,,2015-10-05,1,,,,,キズナ,0
332,2020001103748,登記記録の閉鎖等,0,2025-08-06,2025-07-22,安全基画株式会社,,株式会社,神奈川県,横浜市西区,楠町４－３,,14,103,2200003,,,2025-07-22,清算の結了等,,,2015-10-05,1,,,,,アンゼンキカク,0
333,2020001120066,登記記録の閉鎖等,0,2025-08-06,2025-07-18,株式会社ＬａＬａ,,株式会社,神奈川県,横浜市港北区,日吉２丁目１番５号坂井ビル１Ｆ,,14,109,2230061,,,2025-07-18,清算の結了等,,,2017-02-22,1,,,,,ララ,0
338,2021001031749,登記記録の閉鎖等,0,2025-08-06,2025-07-22,株式会社石信,,株式会社,神奈川県,川崎市川崎区,鋼管通４丁目８番２号,,14,131,2100852,,,2025-07-22,清算の結了等,,,2015-10-05,1,,,,,イシシン,0
345,2030001028234,登記記録の閉鎖等,0,2025-08-06,2025-08-04,タイトニック販売株式会社,,株式会社,埼玉県,所沢市,東狭山ケ丘１丁目４１番地の７,,11,208,3591106,,,2025-08-04,合併による解散等,8011101062219,令和７年７月１日東京都千代田区飯田橋四丁目１番１号株式会社ティ・カトウ（8011101062219）に合併し解散,2015-10-05,1,,,,,タイトニックハンバイ,0
351,2030005016490,登記記録の閉鎖等,0,2025-08-06,2025-07-28,一般社団法人地域福祉を推進する会,,その他の設立登記法人,埼玉県,深谷市,人見１９７５番地,,11,218,3660811,,,2025-07-28,清算の結了等,,,2015-10-05,1,,,,,チイキフクシヲスイシンスルカイ,0
362,2050002045029,登記記録の閉鎖等,0,2025-08-06,2025-07-24,有限会社森貞次商店,,有限会社,茨城県,結城市,大字上山川３４９６番地の１,,08,207,3070021,,,2025-07-24,清算の結了等,,,2015-10-05,1,,,,,モリテイジショウテン,0
366,2060002023685,登記記録の閉鎖等,0,2025-08-06,2025-07-25,有限会社源三窟,,有限会社,栃木県,那須塩原市,塩原１１１８番地,,09,213,3292921,,,2025-07-25,清算の結了等,,,2015-10-05,1,,,,,ゲンザンクツ,0
386,2090002015390,登記記録の閉鎖等,0,2025-08-06,2025-08-01,有限会社ファースト,,有限会社,山梨県,南巨摩郡身延町,梅平２０１８番地１,,19,365,4092531,,,2025-08-01,清算の結了等,,,2015-10-05,1,,,,,ファースト,0
394,2110002010240,登記記録の閉鎖等,0,2025-08-06,2025-07-14,有限会社中長書店,,有限会社,新潟県,新潟市南区,白根３０４０番地,,15,106,9501217,,,2025-07-14,清算の結了等,,,2015-10-05,1,,,,,ナカチョウショテン,0
398,2110005000684,登記記録の閉鎖等,0,2025-08-06,2025-07-14,医療法人社団高橋小児科医院,,その他の設立登記法人,新潟県,新潟市東区,逢谷内１丁目２番８号,00071301,15,102,9500814,,,2025-07-14,清算の結了等,,,2015-10-05,1,,,,,タカハシショウニカイイン,0
436,2140001031730,登記記録の閉鎖等,0,2025-08-06,2025-07-29,株式会社シーエスパートナーズ,,株式会社,兵庫県,神戸市西区,中野１丁目４番地の１５,,28,111,6512136,,,2025-07-29,清算の結了等,,,2015-10-05,1,,,,,シーエスパートナーズ,0
444,2170005005579,登記記録の閉鎖等,0,2025-08-06,2025-05-12,常明寺,,その他の設立登記法人,和歌山県,東牟婁郡串本町,吐生２２１番地の内２号,,30,428,6493517,,,2025-05-12,合併による解散等,9170005005580,令和７年５月１２日和歌山県東牟婁郡串本町有田上９４番地寳生寺（9170005005580）に合併し解散,2015-10-05,1,,,,,,0
449,2180001123359,登記記録の閉鎖等,0,2025-08-06,2025-07-11,工事プロ株式会社,,株式会社,愛知県,名古屋市緑区,熊の前２丁目７０１番地,,23,114,4580851,,,2025-07-11,清算の結了等,,,2016-05-17,1,,,,,コウジプロ,0
467,2200001020636,登記記録の閉鎖等,0,2025-08-06,2025-07-25,株式会社サトウ,,株式会社,岐阜県,多治見市,平和町８丁目５４番地,,21,204,5070827,,,2025-07-25,清算の結了等,,,2015-10-05,1,,,,,サトウ,0
468,2200002018893,登記記録の閉鎖等,0,2025-08-06,2025-07-30,有限会社ダイワ商事,,有限会社,岐阜県,関市,星ケ丘２０番６号,,21,205,5013267,,,2025-07-30,清算の結了等,,,2015-10-05,1,,,,,ダイワショウジ,0
479,2250005001818,登記記録の閉鎖等,0,2025-08-06,2025-07-29,特定非営利活動法人防府まちと住まいのアドバイザーセンター,,その他の設立登記法人,山口県,防府市,大字植松１７８３番地の２,,35,206,7470836,,,2025-07-29,清算の結了等,,,2015-10-05,1,,,,,,0
480,2260001037006,登記記録の閉鎖等,0,2025-08-06,2025-07-24,セントケア岡山株式会社,,株式会社,岡山県,岡山市南区,三浜町１丁目１番２０号,,33,104,7028036,,,2025-07-24,合併による解散等,3140001026028,令和７年７月１日神戸市中央区多聞通二丁目４番４号セントケア西日本株式会社（3140001026028）に合併し解散,2022-07-06,1,,,,,セントケアオカヤマ,0
504,2340002028169,登記記録の閉鎖等,0,2025-08-06,2025-08-01,株式会社ケイ・エム・エクスプレス鹿児島,,株式会社,鹿児島県,曽於市,末吉町諏訪方９８０３番地,,46,217,8998604,,,2025-08-01,合併による解散等,4350001007955,令和７年７月１１日宮崎県都城市都原町３０６２番地９草水運送株式会社（4350001007955）に合併し解散,2015-10-05,1,,,,,ケイエムエクスプレスカゴシマ,0
506,2350001007684,登記記録の閉鎖等,0,2025-08-06,2025-07-30,株式会社暁観光,,株式会社,宮崎県,児湯郡川南町,大字川南１９７５５番地２,,45,405,8891301,,,2025-07-30,清算の結了等,,,2015-10-05,1,,,,,アカツキカンコウ,0
510,2370002006345,登記記録の閉鎖等,0,2025-08-06,2025-07-15,有限会社渡邉歯科技研,00081899,有限会社,宮城県,仙台市若林区,古城１丁目２番５号,,04,103,9840825,,,2025-07-15,清算の結了等,,,2015-10-05,1,,,,,ワタナベシカギケン,0
520,2440001001785,登記記録の閉鎖等,0,2025-08-06,2025-07-31,株式会社ハーベリィ科学研究所,,株式会社,北海道,函館市,桔梗１丁目２番９号,,01,202,0410808,,,2025-07-31,合併による解散等,1130001050294,令和７年７月１日東京都千代田区大手町１－１－２大手門タワーなぎさアセットマネジメント株式会社（1130001050294）に合併し解散,2015-10-05,1,,,,,ハーベリィカガクケンキュウショ,0
524,2450005003439,登記記録の閉鎖等,0,2025-08-06,2025-07-31,紋別酒販協同組合,,その他の設立登記法人,北海道,紋別市,真砂町３丁目２番１２号,,01,219,0940002,,,2025-07-31,清算の結了等,,,2015-10-05,1,,,,,モンベツシュハン,0
525,2460002000512,登記記録の閉鎖等,0,2025-08-06,2025-08-01,有限会社家具のながくぼ,,有限会社,北海道,釧路郡釧路町,中央４丁目１２番地,,01,661,0880606,,,2025-08-01,清算の結了等,,,2015-10-05,1,,,,,カグノナガクボ,0
534,2700150022721,登記記録の閉鎖等,0,2025-08-06,2025-03-31,おぢやまつり実行委員会,,その他,新潟県,小千谷市,城内１丁目８－２５サンプラザ１階,,15,208,9470028,,,2025-03-31,その他の清算の結了等,,,2015-10-09,1,,,,,オヂヤマツリジツコウイインカイ,0
535,2700150110162,登記記録の閉鎖等,0,2025-08-06,2025-03-31,ムジークフェラインＡＳＡＭＡ,,その他,長野県,小諸市,大字柏木４９１－６７,,20,208,3840055,,,2025-03-31,その他の清算の結了等,,,2022-06-21,1,,,,,ムジークフエラインアサマ,0
559,3010501018470,登記記録の閉鎖等,0,2025-08-06,2025-07-24,株式会社和晃,,株式会社,東京都,台東区,松が谷３丁目２０番１１－３０２号,,13,106,1110036,,,2025-07-24,清算の結了等,,,2015-10-05,1,,,,,ワコウ,0
560,3010501023958,登記記録の閉鎖等,0,2025-08-06,2025-07-18,株式会社フォーシーズン,,株式会社,東京都,台東区,台東２丁目６番６号,,13,106,1100016,,,2025-07-18,清算の結了等,,,2015-10-05,1,,,,,フォーシーズン,0
595,3011801042391,登記記録の閉鎖等,0,2025-08-06,2025-07-23,株式会社三友トラベル,,株式会社,東京都,台東区,東上野３丁目２１番２号,,13,106,1100015,,,2025-07-23,清算の結了等,,,2023-05-16,1,,,,,ミトモトラベル,0
600,3012401031033,登記記録の閉鎖等,0,2025-08-06,2025-07-29,ＩＧＢネットワーク株式会社,,株式会社,東京都,調布市,深大寺北町２丁目３０番地８,,13,208,1820011,,,2025-07-29,清算の結了等,,,2016-02-08,1,,,,,アイジービーネットワーク,0
604,3012402016594,登記記録の閉鎖等,0,2025-08-06,2025-07-29,有限会社協和,,有限会社,東京都,武蔵野市,関前１丁目４番２号,,13,203,1800014,,,2025-07-29,清算の結了等,,,2015-10-05,1,,,,,キョウワ,0
611,3020001036856,登記記録の閉鎖等,0,2025-08-06,2025-07-23,ケーコーポレーション株式会社,,株式会社,神奈川県,横浜市鶴見区,豊岡町１２－３１,,14,101,2300062,,,2025-07-23,清算の結了等,,,2015-10-05,1,,,,,ケーコーポレーション,0
614,3020001079764,登記記録の閉鎖等,0,2025-08-06,2025-07-18,ツーエッグス株式会社,,株式会社,神奈川県,川崎市多摩区,登戸新町４０２番地,,14,135,2140013,,,2025-07-18,清算の結了等,,,2015-10-05,1,,,,,ツーエッグス,0
618,3020001122375,登記記録の閉鎖等,0,2025-08-06,2025-07-22,富士仮設株式会社,,株式会社,神奈川県,横浜市南区,中村町４丁目２７９番地１１サンパイン２０２号室,,14,105,2320033,,,2025-07-22,清算の結了等,,,2017-07-28,1,,,,,,0
623,3020002100124,登記記録の閉鎖等,0,2025-08-06,2025-07-18,有限会社キョウショウ工業,,有限会社,神奈川県,川崎市川崎区,京町２丁目４番１２号,,14,131,2100848,,,2025-07-18,清算の結了等,,,2015-10-05,1,,,,,キョウショウコウギョウ,0
651,3040002092104,登記記録の閉鎖等,0,2025-08-06,2025-04-24,株式会社アズフィーダ,,株式会社,東京都,中央区,日本橋小伝馬町１４番５号１０１,,13,102,1030001,,,2025-04-24,合併による解散等,6030001066965,令和７年４月１日埼玉県北葛飾郡松伏町築比地７９５番地１株式会社ウィーズ（6030001066965）に合併し解散,2015-10-05,1,,,,,アズフィーダ,0
659,3070001001269,登記記録の閉鎖等,0,2025-08-06,2025-07-31,株式会社こばやし商事,,株式会社,群馬県,前橋市,下川町４９番地６,,10,201,3792144,,,2025-07-31,清算の結了等,,,2015-10-05,1,,,,,コバヤシショウジ,0
678,3100002031724,登記記録の閉鎖等,0,2025-08-06,2025-07-31,有限会社フジサワヤ,,有限会社,長野県,岡谷市,中央町１丁目１０番１４号,,20,204,3940027,,,2025-07-31,清算の結了等,,,2015-10-05,1,,,,,フジサワヤ,0
679,3100002033448,登記記録の閉鎖等,0,2025-08-06,2025-08-01,有限会社夢空間,,有限会社,長野県,伊那市,中央５２１７番地２,,20,209,3960015,,,2025-08-01,清算の結了等,,,2015-10-05,1,,,,,ユメクウカン,0
703,3120101048865,登記記録の閉鎖等,0,2025-08-06,2025-07-30,ムーンスター株式会社,,株式会社,大阪府,堺市東区,大美野１６３番地１２,,27,143,5998126,,,2025-07-30,清算の結了等,,,2015-10-05,1,,,,,ムーンスター,0
707,3120102027447,登記記録の閉鎖等,0,2025-08-06,2025-07-28,有限会社ウイニング,,有限会社,大阪府,泉南市,樽井９丁目１０番１号,,27,228,5900521,,,2025-07-28,清算の結了等,,,2015-10-05,1,,,,,ウイニング,0
713,3140002023602,登記記録の閉鎖等,0,2025-08-06,2025-07-31,有限会社マーケティングデポ,,有限会社,兵庫県,神戸市北区,松が枝町１丁目１１番地の４,,28,109,6511232,,,2025-07-31,清算の結了等,,,2015-10-05,1,,,,,マーケティングデポ,0
724,3180001127854,登記記録の閉鎖等,0,2025-08-06,2025-07-11,株式会社ＫＹ企画,,株式会社,愛知県,名古屋市中区,錦３丁目４番１９号,,23,106,4600003,,,2025-07-11,清算の結了等,,,2017-05-17,1,,,,,ケイワイキカク,0
725,3180002015034,登記記録の閉鎖等,0,2025-08-06,2025-07-11,有限会社メモリーシステム,,有限会社,愛知県,名古屋市南区,鳥栖１丁目１番１号コンフォート桜本町１０１号,,23,112,4570006,,,2025-07-11,清算の結了等,,,2015-10-05,1,,,,,メモリーシステム,0
731,3200002011732,登記記録の閉鎖等,0,2025-08-06,2025-07-29,有限会社トラスト,,有限会社,岐阜県,羽島郡岐南町,伏屋９丁目８１番地,,21,302,5016006,,,2025-07-29,清算の結了等,,,2015-10-05,1,,,,,トラスト,0
735,3240001021415,登記記録の閉鎖等,0,2025-08-06,2025-07-31,株式会社ＳＣ保安警備,,株式会社,広島県,広島市西区,中広町１丁目１２番１６号,,34,104,7330012,,,2025-07-31,合併による解散等,4240001005598,令和７年７月３１日広島市西区中広町一丁目１２番１６号セフト株式会社（4240001005598）に合併し解散,2015-10-05,1,,,,,エスシーホアンケイビ,0
743,3260005010791,登記記録の閉鎖等,0,2025-08-06,2025-07-18,一般社団法人おかやま市スケートボード協会,,その他の設立登記法人,岡山県,岡山市北区,奉還町３丁目１２番１１号,,33,101,7000026,,,2025-07-18,清算の結了等,,,2020-08-12,1,,,,,オカヤマシスケートボードキョウカイ,0
770,3340003003525,登記記録の閉鎖等,0,2025-08-06,2025-07-17,ＮＯＴＡＭ合同会社,,合同会社,鹿児島県,薩摩川内市,樋脇町市比野５１９番地９,,46,215,8951203,,,2025-07-17,清算の結了等,,,2021-08-19,1,,,,,ノータム,0
773,3350005000742,登記記録の閉鎖等,0,2025-08-06,2025-07-28,赤江第一漁業生産組合,,その他の設立登記法人,宮崎県,宮崎市,高洲町１番地２,,45,201,8800852,,,2025-07-28,清算の結了等,,,2015-10-05,1,,,,,アカエダイイチ,0
775,3370002012441,登記記録の閉鎖等,0,2025-08-06,2025-07-16,有限会社藤武商事,,有限会社,宮城県,仙台市泉区,松陵１丁目１番地の３,,04,105,9813108,,,2025-07-16,清算の結了等,,,2015-10-05,1,,,,,トウブショウジ,0
800,3700150021854,登記記録の閉鎖等,0,2025-08-06,2025-03-31,長野銀行健康保険組合,,その他,長野県,松本市,渚２丁目９－３８,,20,202,3900841,,,2025-03-31,その他の清算の結了等,,,2015-10-09,1,,,,,ナガノギンコウケンコウホケンクミアイ,0
801,3700150073251,登記記録の閉鎖等,0,2025-08-06,2025-03-31,つむぎ,,その他,島根県,雲南市,大東町飯田３６－１２出雲大東駅構内,,32,209,6991221,,,2025-03-31,その他の清算の結了等,,,2016-05-17,1,,,,,ツムギ,0
819,4010401124418,登記記録の閉鎖等,0,2025-08-06,2025-07-09,株式会社グロースポイント・エクイティ,,株式会社,東京都,港区,南青山２丁目４番１５号天翔南青山ビル,,13,103,1070062,,,2025-07-09,清算の結了等,,,2016-04-27,1,,,,,グロースポイントエクイティ,0
842,4011001090711,登記記録の閉鎖等,0,2025-08-06,2025-07-15,株式会社エルエヌ,,株式会社,東京都,目黒区,青葉台２丁目１９番１０号,,13,110,1530042,,,2025-07-15,合併による解散等,7013201016303,令和７年７月１日東京都渋谷区道玄坂二丁目２５番１２号株式会社パン・パシフィック・インターナショナルホールディングス（7013201016303）に合併し解散,2015-10-05,1,,,,,エルエヌ,0
857,4011105001762,登記記録の閉鎖等,0,2025-08-06,2025-07-04,特定非営利活動法人アジア・アフリカにおける医学教育支援機構,,その他の設立登記法人,東京都,新宿区,新宿５丁目１７番２号ＹＭビル２０１号室,,13,104,1600022,,,2025-07-04,清算の結了等,,,2015-10-05,1,,,,,アジアアフリカニオケルイガクキョウイクシエンキコウ,0
862,4011801012708,登記記録の閉鎖等,0,2025-08-06,2025-07-31,株式会社ヤマゴ,,株式会社,東京都,足立区,西伊興３丁目１３番２４号,,13,121,1210824,,,2025-07-31,清算の結了等,,,2015-10-05,1,,,,,ヤマゴ,0
871,4012402002899,登記記録の閉鎖等,0,2025-08-06,2025-07-28,有限会社ゆう住宅工房,,有限会社,東京都,府中市,押立町５丁目６番地の１８,,13,206,1830012,,,2025-07-28,清算の結了等,,,2015-10-05,1,,,,,,0
874,4013201015332,登記記録の閉鎖等,0,2025-08-06,2025-07-25,株式会社ドルチェ,,株式会社,東京都,目黒区,平町２丁目２番４号ナズ平町ビル,,13,110,1520032,,,2025-07-25,合併による解散等,8013201018298,令和７年７月７日東京都目黒区平町二丁目２番４号株式会社ナズカンパニィ（8013201018298）に合併し解散,2015-10-05,1,,,,,ドルチェ,0
876,4013301001819,登記記録の閉鎖等,0,2025-08-06,2025-07-18,株式会社エー・アイ・エフ総研,,株式会社,東京都,豊島区,西池袋１丁目５番３号,,13,116,1710021,,,2025-07-18,清算の結了等,,,2015-10-05,1,,,,,エーアイエフソウケン,0
886,4020001068857,登記記録の閉鎖等,0,2025-08-06,2025-07-22,株式会社いさみや,,株式会社,神奈川県,川崎市中原区,小杉町３丁目１５番地,,14,133,2110063,,,2025-07-22,清算の結了等,,,2015-10-05,1,,,,,イサミヤ,0
890,4020001115428,登記記録の閉鎖等,0,2025-08-06,2025-07-18,株式会社ポイント,,株式会社,神奈川県,横浜市神奈川区,栗田谷５番４８号レジデンス・カーラ１０１号,,14,102,2210804,,,2025-07-18,清算の結了等,,,2016-03-30,1,,,,,ポイント,0
891,4020001128933,登記記録の閉鎖等,0,2025-08-06,2025-07-22,株式会社アイディーエー,,株式会社,神奈川県,横浜市港北区,高田東２丁目３１番１７号,,14,109,2230065,,,2025-07-22,清算の結了等,,,2018-11-29,1,,,,,アイディーエー,0
906,4021001051563,登記記録の閉鎖等,0,2025-08-06,2025-07-28,株式会社友心,,株式会社,神奈川県,小田原市,飯田岡５１５番地の７,,14,206,2500854,,,2025-07-28,清算の結了等,,,2015-10-05,1,,,,,,0
926,4040001104164,登記記録の閉鎖等,0,2025-08-06,2025-08-04,株式会社ＭＩＸ,,株式会社,東京都,江東区,有明１丁目５番２号ブリリア有明シティタワー,,13,108,1350063,,,2025-08-04,合併による解散等,5040001122776,令和７年７月１日千葉県富里市御料９１５番地７８株式会社八番屋（5040001122776）に合併し解散,2018-04-04,1,,,,,ミックス,0
930,4040002037529,登記記録の閉鎖等,0,2025-08-06,2025-07-11,有限会社旭工業,,有限会社,千葉県,鎌ケ谷市,鎌ケ谷２丁目１５番１４号,,12,224,2730105,,,2025-07-11,清算の結了等,,,2015-10-05,1,,,,,,0
951,4100001000407,登記記録の閉鎖等,0,2025-08-06,2025-08-01,株式会社エスエフシーアール,,株式会社,長野県,長野市,川中島町上氷鉋１６８５番地１３,,20,201,3812233,,,2025-08-01,合併による解散等,5100001001148,令和７年８月１日長野市川中島町上氷鉋１６８５番地１３株式会社シューマート（5100001001148）に合併し解散,2015-10-05,1,,,,,エスエフシーアール,0
955,4110005012488,登記記録の閉鎖等,0,2025-08-06,2025-07-28,医療法人社団さんと,,その他の設立登記法人,新潟県,長岡市,上岩井６５０７番地,,15,202,9402314,,,2025-07-28,清算の結了等,,,2015-10-05,1,,,,,サント,0
956,4120001032357,登記記録の閉鎖等,0,2025-08-06,2025-07-28,大山設備株式会社,,株式会社,大阪府,大阪市住吉区,万代６丁目６番６号,,27,120,5580055,,,2025-07-28,清算の結了等,,,2015-10-05,1,,,,,オオヤマセツビ,0
963,4120001255809,登記記録の閉鎖等,0,2025-08-06,2025-07-24,株式会社ＦＲＡＧＭＥＮＴ,,株式会社,大阪府,大阪市北区,梅田１丁目２番２号大阪駅前第２ビル１２－１２,,27,127,5300001,,,2025-07-24,清算の結了等,,,2023-06-20,1,,,,,フラグメント,0
989,4120102014683,登記記録の閉鎖等,0,2025-08-06,2025-07-22,有限会社ヤマヨシ,,有限会社,大阪府,松原市,上田１丁目１０番７号,,27,217,5800016,,,2025-07-22,清算の結了等,,,2015-10-05,1,,,,,ヤマヨシ,0
1005,4140002002927,登記記録の閉鎖等,0,2025-08-06,2025-07-31,有限会社オーティーエム,,有限会社,兵庫県,神戸市灘区,烏帽子町２丁目１番７号,,28,102,6570042,,,2025-07-31,清算の結了等,,,2015-10-05,1,,,,,オーティーエム,0
1006,4140002026570,登記記録の閉鎖等,0,2025-08-06,2025-07-30,有限会社芦屋フルフル,00040783,有限会社,兵庫県,芦屋市,東芦屋町１７番２６－８０４号,00040784,28,206,6590095,,,2025-07-30,清算の結了等,,,2015-10-05,1,,,,,アシヤフルフル,0
1016,4180001126590,登記記録の閉鎖等,0,2025-08-06,2025-07-11,株式会社ＨＹ企画,,株式会社,愛知県,名古屋市中区,錦３丁目１３番１０号,,23,106,4600003,,,2025-07-11,清算の結了等,,,2017-02-14,1,,,,,エイチワイキカク,0
1028,4230001004618,登記記録の閉鎖等,0,2025-08-06,2025-08-04,株式会社リモデル・コラボ,,株式会社,富山県,富山市,飯野２６番地２１,,16,201,9300821,,,2025-08-04,清算の結了等,,,2015-10-05,1,,,,,リモデルコラボ,0
1048,4290802009462,登記記録の閉鎖等,0,2025-08-06,2025-08-04,有限会社下田材木店,,有限会社,福岡県,北九州市門司区,下二十町４番４３号,,40,101,8000028,,,2025-08-04,清算の結了等,,,2015-10-05,1,,,,,シモダザイモクテン,0
1057,4310001001920,登記記録の閉鎖等,0,2025-08-06,2025-07-09,株式会社ラフ,,株式会社,長崎県,長崎市,江の浦町１７番１５号,,42,201,8528007,,,2025-07-09,清算の結了等,,,2015-10-05,1,,,,,ラフ,0
1058,4310002005508,登記記録の閉鎖等,0,2025-08-06,2025-08-01,南商事有限会社,,有限会社,長崎県,長崎市,船大工町２番２９号１,,42,201,8500904,,,2025-08-01,清算の結了等,,,2015-10-05,1,,,,,ミナミショウジ,0
1059,4310003001282,登記記録の閉鎖等,0,2025-08-06,2025-07-30,合名会社壽陶,,合名会社,長崎県,東彼杵郡波佐見町,宿郷４１３番地,,42,323,8593715,,,2025-07-30,清算の結了等,,,2015-10-05,1,,,,,ジュトウ,0
1082,4380002034871,登記記録の閉鎖等,0,2025-08-06,2025-07-10,有限会社酒のズーム,,有限会社,福島県,喜多方市,関柴町上高額字上中１１９７番地６,,07,208,9660015,,,2025-07-10,清算の結了等,,,2015-10-05,1,,,,,サケノズーム,0
1085,4400502000800,登記記録の閉鎖等,0,2025-08-06,2025-07-11,有限会社丸庄,,有限会社,岩手県,西磐井郡平泉町,平泉字花立２１５番地,,03,402,0294102,,,2025-07-11,清算の結了等,,,2015-10-05,1,,,,,マルショウ,0
1100,4700150109112,登記記録の閉鎖等,0,2025-08-06,2022-12-31,カカフカカ企画,,その他,静岡県,下田市,柿崎１１２８－７,,22,219,4150013,,,2022-12-31,その他の清算の結了等,,,2022-05-30,1,,,,,カカフカカキカク,0
1107,5010001218742,登記記録の閉鎖等,0,2025-08-06,2025-07-08,株式会社丸菱太陽,,株式会社,東京都,文京区,千駄木３丁目５番３号,,13,105,1130022,,,2025-07-08,清算の結了等,,,2021-06-10,1,,,,,マルビシタイヨウ,0
1120,5010101003895,登記記録の閉鎖等,0,2025-08-06,2025-07-30,株式会社ムナカタ興業,,株式会社,東京都,八王子市,下恩方町６３８番地の５,,13,201,1920154,,,2025-07-30,清算の結了等,,,2015-10-05,1,,,,,ムナカタコウギョウ,0
1121,5010101013184,登記記録の閉鎖等,0,2025-08-06,2025-07-31,株式会社クロバー,,株式会社,東京都,八王子市,下柚木３丁目１番地Ａ－１０２,,13,201,1920372,,,2025-07-31,清算の結了等,,,2018-02-07,1,,,,,クロバー,0
1129,5010401102612,登記記録の閉鎖等,0,2025-08-06,2025-07-08,Ｇｌａｎｚ　Ｇｌａｎｚ株式会社,,株式会社,東京都,千代田区,霞が関３丁目２番６号,,13,101,1000013,,,2025-07-08,清算の結了等,,,2015-10-05,1,,,,,グランツグランツ,0
1178,5012801023058,登記記録の閉鎖等,0,2025-08-06,2025-07-04,株式会社ＧＯＬＡＺＯ,,株式会社,東京都,新宿区,新宿１丁目３６－２新宿第七葉山ビル３Ｆ,,13,104,1600022,,,2025-07-04,清算の結了等,,,2024-03-27,1,,,,,ゴラッソ,0
1189,5020002082162,登記記録の閉鎖等,0,2025-08-06,2025-07-23,有限会社フロンティア,,有限会社,神奈川県,川崎市幸区,南加瀬４丁目４０番１号,,14,132,2120055,,,2025-07-23,清算の結了等,,,2015-10-05,1,,,,,フロンティア,0
1190,5020002085223,登記記録の閉鎖等,0,2025-08-06,2025-07-23,有限会社丸新不動産部,,有限会社,神奈川県,川崎市中原区,上丸子山王町１丁目１４２６番地,,14,133,2110002,,,2025-07-23,清算の結了等,,,2015-10-05,1,,,,,マルシンフドウサンブ,0
1191,5020003012218,登記記録の閉鎖等,0,2025-08-06,2025-07-22,合同会社ｍｏｎｔｅｒ,,合同会社,神奈川県,横浜市西区,北幸１丁目１１番１号水信ビル７Ｆ,,14,103,2200004,,,2025-07-22,清算の結了等,,,2017-01-12,1,,,,,,0
1195,5021001065190,登記記録の閉鎖等,0,2025-08-06,2025-08-04,株式会社創美エクステリア,,株式会社,神奈川県,秦野市,寿町３番１１号,,14,211,2570042,,,2025-08-04,清算の結了等,,,2018-07-11,1,,,,,,0
1199,5030001069234,登記記録の閉鎖等,0,2025-08-06,2025-08-04,株式会社ＰＦＡ,,株式会社,埼玉県,坂戸市,千代田５丁目７番１号,,11,239,3500214,,,2025-08-04,合併による解散等,3012801002889,令和７年７月１日東京都武蔵村山市伊奈平二丁目５１番地の１ヤマハロボティクス株式会社（3012801002889）に合併し解散,2015-10-05,1,,,,,ピーエフエー,0
1219,5040001093365,登記記録の閉鎖等,0,2025-08-06,2025-07-07,アルファ・モバイル株式会社,,株式会社,千葉県,袖ケ浦市,福王台３丁目３０番地２５,,12,229,2990261,,,2025-07-07,清算の結了等,,,2015-12-22,1,,,,,アルファモバイル,0
1245,5070005005347,登記記録の閉鎖等,0,2025-08-06,2025-07-24,農事組合法人敷島肉用牛生産組合,,その他の設立登記法人,群馬県,渋川市,赤城町津久田１９３０番地の１,,10,208,3791103,,,2025-07-24,清算の結了等,,,2015-10-05,1,,,,,シキシマニクヨウウシセイサンクミアイ,0
1249,5080101010670,登記記録の閉鎖等,0,2025-08-06,2025-07-31,ハンヤ環境株式会社,,株式会社,静岡県,富士市,十兵衛３４４番地,,22,210,4160941,,,2025-07-31,清算の結了等,,,2015-10-05,1,,,,,ハンヤカンキョウ,0
1256,5100001009208,登記記録の閉鎖等,0,2025-08-06,2025-07-29,株式会社サクセス,,株式会社,長野県,佐久市,中込３０８８番地４,,20,217,3850051,,,2025-07-29,清算の結了等,,,2015-10-05,1,,,,,サクセス,0
1258,5100001028463,登記記録の閉鎖等,0,2025-08-06,2025-08-01,株式会社ヤマジンオート,,株式会社,長野県,松本市,鎌田１丁目１１番２７号,,20,202,3900837,,,2025-08-01,合併による解散等,9100001013841,令和７年８月１日長野県松本市鎌田一丁目１６番１号日産プリンス松本販売株式会社（9100001013841）に合併し解散,2015-10-05,1,,,,,ヤマジンオート,0
1259,5100001034370,登記記録の閉鎖等,0,2025-08-06,2025-08-01,株式会社川村コンサルタント,,株式会社,長野県,松本市,大手２丁目２番１０－５０５グランドメゾン松本六九,,20,202,3900874,,,2025-08-01,清算の結了等,,,2021-06-29,1,,,,,カワムラコンサルタント,0
1268,5110002033610,登記記録の閉鎖等,0,2025-08-06,2025-07-14,有限会社アイバ企画,,有限会社,新潟県,魚沼市,虫野４９９番地１,,15,225,9460037,,,2025-07-14,清算の結了等,,,2015-10-05,1,,,,,アイバキカク,0
1270,5120001021680,登記記録の閉鎖等,0,2025-08-06,2025-07-14,株式会社まもる工務店,,株式会社,大阪府,大阪市平野区,長吉六反１丁目３番２２号,,27,126,5470012,,,2025-07-14,清算の結了等,,,2015-10-05,1,,,,,マモルコウムテン,0
1273,5120001124665,登記記録の閉鎖等,0,2025-08-06,2025-07-28,株式会社ヘッド,,株式会社,大阪府,大阪市中央区,本町橋２番２３号,,27,128,5400029,,,2025-07-28,清算の結了等,,,2015-10-05,1,,,,,ヘッド,0
1282,5120001261327,登記記録の閉鎖等,0,2025-08-06,2025-07-01,Ｅｎｆｕｃｅｌｌ　Ｊａｐａｎ柔性電子株式会社,,株式会社,大阪府,大阪市北区,長柄中２丁目５番３０号,,27,127,5310062,,,2025-07-01,清算の結了等,,,2024-01-15,1,,,,,エンフセルジャパンジュウセイデンシ,0
1295,5120002022182,登記記録の閉鎖等,0,2025-08-06,2025-07-16,杉本有限会社,,有限会社,大阪府,大阪市西区,九条南３丁目６番９号,,27,106,5500025,,,2025-07-16,清算の結了等,,,2015-10-05,1,,,,,スギモト,0
1316,5130002033798,登記記録の閉鎖等,0,2025-08-06,2025-07-23,有限会社末次,,有限会社,京都府,京丹後市,網野町三津３７番地,,26,212,6293111,,,2025-07-23,清算の結了等,,,2015-10-05,1,,,,,スエツグ,0
1320,5140001002480,登記記録の閉鎖等,0,2025-08-06,2025-07-31,株式会社穂高,,株式会社,兵庫県,神戸市東灘区,岡本４丁目８番３号,,28,101,6580072,,,2025-07-31,清算の結了等,,,2015-10-05,1,,,,,ホダカ,0
1323,5140002008733,登記記録の閉鎖等,0,2025-08-06,2025-07-29,有限会社住本電気,,有限会社,兵庫県,神戸市長田区,松野通２丁目５番２５号,,28,106,6530841,,,2025-07-29,清算の結了等,,,2015-10-05,1,,,,,スミモトデンキ,0
1332,5170002009902,登記記録の閉鎖等,0,2025-08-06,2025-08-04,有限会社アーバンサービス,,有限会社,和歌山県,西牟婁郡白浜町,１０７７番地の１３の１０１,,30,401,6492211,,,2025-08-04,清算の結了等,,,2015-10-05,1,,,,,アーバンサービス,0
1350,5180305003361,登記記録の閉鎖等,0,2025-08-06,2025-07-15,特定非営利活動法人渥美半島ハイキングクラブ,,その他の設立登記法人,愛知県,田原市,和地町新切５４番地,,23,231,4413622,,,2025-07-15,清算の結了等,,,2015-10-05,1,,,,,アツミハントウハイキングクラブ,0
1356,5200002013272,登記記録の閉鎖等,0,2025-08-06,2025-07-30,有限会社安井仏壇店,,有限会社,岐阜県,大垣市,栗屋町１１番地,,21,202,5030902,,,2025-07-30,清算の結了等,,,2015-10-05,1,,,,,,0
1357,5200003000518,登記記録の閉鎖等,0,2025-08-06,2025-07-31,合資会社大新建設,,合資会社,岐阜県,岐阜市,長良大路２丁目１７番地,,21,201,5020031,,,2025-07-31,清算の結了等,,,2015-10-05,1,,,,,ダイシンケンセツ,0
1360,5220002009203,登記記録の閉鎖等,0,2025-08-06,2025-08-04,有限会社住ライフ,,有限会社,石川県,白山市,宮保町１０４０番地,,17,210,9240061,,,2025-08-04,清算の結了等,,,2015-10-05,1,,,,,ジョウライフ,0
1361,5220002010870,登記記録の閉鎖等,0,2025-08-06,2025-08-01,有限会社辻機工,00078472,有限会社,石川県,小松市,八幡丁２１３番地,,17,203,9230833,,,2025-08-01,清算の結了等,,,2015-10-05,1,,,,,ツジキコウ,0
1366,5240002050163,登記記録の閉鎖等,0,2025-08-06,2025-07-30,有限会社小田原建設,,有限会社,広島県,尾道市,向島町５４３１番地の１,,34,205,7220073,,,2025-07-30,清算の結了等,,,2015-10-05,1,,,,,オダワラケンセツ,0
1383,5290801012466,登記記録の閉鎖等,0,2025-08-06,2025-07-30,株式会社若松のれん街,,株式会社,福岡県,北九州市若松区,中川町１２番５号,,40,103,8080025,,,2025-07-30,清算の結了等,,,2015-10-05,1,,,,,ワカマツノレンガイ,0
1393,5320001017717,登記記録の閉鎖等,0,2025-08-06,2025-07-28,株式会社カイタクト,,株式会社,大分県,由布市,湯布院町川南１０３の５番地,,44,213,8795103,,,2025-07-28,清算の結了等,,,2020-05-25,1,,,,,カイタクト,0
1395,5320005007210,登記記録の閉鎖等,0,2025-08-06,2025-07-25,協同組合ここのえショッピングセンター,,その他の設立登記法人,大分県,玖珠郡九重町,大字右田１３２１番地,,44,461,8794601,,,2025-07-25,清算の結了等,,,2015-10-05,1,,,,,ココノエショッピングセンター,0
1396,5330001013698,登記記録の閉鎖等,0,2025-08-06,2025-07-16,株式会社福岡土木,,株式会社,熊本県,八代市,塩屋町５番２３号,,43,202,8660864,,,2025-07-16,清算の結了等,,,2015-10-05,1,,,,,フクオカドボク,0
1400,5340002002550,登記記録の閉鎖等,0,2025-08-06,2025-07-17,有限会社叶印入工場,,有限会社,鹿児島県,鹿児島市,錦江町１番２８号,,46,201,8920836,,,2025-07-17,清算の結了等,,,2015-10-05,1,,,,,カナエシルシイレコウジョウ,0
1409,5380005010704,登記記録の閉鎖等,0,2025-08-06,2025-07-14,特定非営利活動法人交流ステーションみのり,,その他の設立登記法人,福島県,いわき市,平赤井比良３丁目４１番地,,07,204,9793132,,,2025-07-14,清算の結了等,,,2015-10-05,1,,,,,コウリュウステーションミノリ,0
1415,5410002009530,登記記録の閉鎖等,0,2025-08-06,2025-08-04,有限会社村上繊維,,有限会社,秋田県,北秋田市,綴子字掛泥７０番地,,05,213,0183301,,,2025-08-04,清算の結了等,,,2015-10-05,1,,,,,ムラカミセンイ,0
1416,5420001012204,登記記録の閉鎖等,0,2025-08-06,2025-07-24,株式会社　戸田石油,,株式会社,青森県,上北郡六ヶ所村,大字鷹架字向田８１番地,,02,411,0393213,,,2025-07-24,清算の結了等,,,2015-10-05,1,,,,,トダセキユ,0
1417,5420002007525,登記記録の閉鎖等,0,2025-08-06,2025-07-22,総合技術管理有限会社,,有限会社,青森県,八戸市,大字鮫町字忍町３１番地５,,02,203,0310841,,,2025-07-22,清算の結了等,,,2015-10-05,1,,,,,ソウゴウギジュツカンリ,0
1419,5430001073575,登記記録の閉鎖等,0,2025-08-06,2025-07-14,株式会社ニセコニアン,,株式会社,北海道,虻田郡ニセコ町,字本通１１３番地４,,01,395,0481502,,,2025-07-14,清算の結了等,,,2017-03-21,1,,,,,ニセコニアン,0
1423,5440001000066,登記記録の閉鎖等,0,2025-08-06,2025-07-31,アサヒ調剤薬局株式会社,,株式会社,北海道,函館市,松陰町２４番１号,,01,202,0400003,,,2025-07-31,合併による解散等,1130001050294,令和７年７月１日東京都千代田区大手町１－１－２大手門タワーなぎさアセットマネジメント株式会社（1130001050294）に合併し解散,2015-10-05,1,,,,,アサヒチョウザイヤッキョク,0
1424,5440002008744,登記記録の閉鎖等,0,2025-08-06,2025-07-14,有限会社小町工務店,,有限会社,北海道,山越郡長万部町,字長万部４３０番地の３５,,01,347,0493521,,,2025-07-14,清算の結了等,,,2015-10-05,1,,,,,コマチコウムテン,0
1429,5700150013668,登記記録の閉鎖等,0,2025-08-06,2025-03-31,中原配食グループなかよし,,その他,神奈川県,川崎市中原区,下沼部１９１０,,14,133,2110011,,,2025-03-31,その他の清算の結了等,,,2015-10-09,1,,,,,ナカハラハイシヨクグループナカヨシ,0
1432,5700150106934,登記記録の閉鎖等,0,2025-08-06,2023-07-31,大河ドラマ「鎌倉殿の１３人」鎌倉市推進協議会,,その他,神奈川県,鎌倉市,御成町１８－１０,,14,204,2480012,,,2023-07-31,その他の清算の結了等,,,2022-02-04,1,,,,,タイガドラマカマクラドノノジユウサンニンカマクラシスイシンキヨウギカイ,0
1436,6010001102846,登記記録の閉鎖等,0,2025-08-06,2025-07-07,株式会社ユークリッドプロジェクト,,株式会社,東京都,千代田区,岩本町３丁目１０番地７号東自機ビル７階,,13,101,1010032,,,2025-07-07,清算の結了等,,,2015-10-05,1,,,,,ユークリッドプロジェクト,0
1462,6010501025860,登記記録の閉鎖等,0,2025-08-06,2025-07-14,株式会社万宝産業,,株式会社,東京都,台東区,上野３丁目１４番６号,,13,106,1100005,,,2025-07-14,清算の結了等,,,2015-10-05,1,,,,,マンポウサンギョウ,0
1465,6010502003221,登記記録の閉鎖等,0,2025-08-06,2025-07-23,有限会社木村紙工所,,有限会社,東京都,台東区,蔵前３丁目９番８号,,13,106,1110051,,,2025-07-23,清算の結了等,,,2015-10-05,1,,,,,,0
1467,6010503006256,登記記録の閉鎖等,0,2025-08-06,2025-07-17,ＭＳＰ合同会社,,合同会社,東京都,台東区,上野２丁目１２番１６号池之端スカイビル２階,,13,106,1100005,,,2025-07-17,清算の結了等,,,2021-05-12,1,,,,,エムエスピー,0
1468,6010601013674,登記記録の閉鎖等,0,2025-08-06,2025-08-04,台東設備株式会社,,株式会社,東京都,墨田区,両国２丁目１０番１４号,,13,107,1300026,,,2025-08-04,清算の結了等,,,2015-10-05,1,,,,,タイトウセツビ,0
1473,6010602021123,登記記録の閉鎖等,0,2025-08-06,2025-07-28,有限会社小城板金工業,,有限会社,東京都,江東区,森下１丁目２番１号,,13,108,1350004,,,2025-07-28,清算の結了等,,,2015-10-05,1,,,,,,0
1474,6010602033457,登記記録の閉鎖等,0,2025-08-06,2025-08-05,有限会社古屋企画,,有限会社,東京都,八王子市,南大沢３丁目１６番１－５０３号,,13,201,1920364,,,2025-08-05,清算の結了等,,,2015-10-05,1,,,,,フルヤキカク,0
1478,6010702000786,登記記録の閉鎖等,0,2025-08-06,2025-07-31,有限会社井上栄商店,,有限会社,東京都,品川区,東品川１丁目２８番３３号,,13,109,1400002,,,2025-07-31,清算の結了等,,,2015-10-05,1,,,,,イノウエサカエショウテン,0
1479,6010703007384,登記記録の閉鎖等,0,2025-08-06,2025-07-30,合同会社ミラクル８,,合同会社,東京都,品川区,小山６丁目２１番地５号エクセル５－１０５,,13,109,1420062,,,2025-07-30,清算の結了等,,,2024-10-17,1,,,,,ミラクルエイト,0
1481,6010801028596,登記記録の閉鎖等,0,2025-08-06,2025-07-18,Ａ’ｓ株式会社,,株式会社,神奈川県,横浜市南区,井土ケ谷上町２１番３６号エミナンス井土ヶ谷１０３,,14,105,2320051,,,2025-07-18,清算の結了等,,,2018-03-06,1,,,,,エイシズ,0
1513,6011503005371,登記記録の閉鎖等,0,2025-08-06,2025-07-04,ＤＥＦＩＮＩＴＹ合同会社,,合同会社,東京都,渋谷区,道玄坂１丁目１０番８号渋谷道玄坂東急ビル２Ｆ－Ｃ,,13,113,1500043,,,2025-07-04,清算の結了等,,,2022-11-22,1,,,,,デフィニティ,0
1515,6011601022491,登記記録の閉鎖等,0,2025-08-06,2025-07-11,株式会社Ｅ－Ｃｕｂｅ,,株式会社,愛知県,名古屋市中区,丸の内３丁目７番２６号,,23,106,4600002,,,2025-07-11,清算の結了等,,,2018-04-11,1,,,,,イーキューブ,0
1536,6013301032507,登記記録の閉鎖等,0,2025-08-06,2025-07-31,株式会社ＧＤ,,株式会社,東京都,豊島区,南大塚２丁目１１番１０号ミモザビル３階,,13,116,1700005,,,2025-07-31,合併による解散等,8010401082570,令和７年７月１日東京都渋谷区道玄坂一丁目１２番１号渋谷マークシティＷ２２階株式会社ロージー（8010401082570）に合併し解散,2015-10-05,1,,,,,,0
1537,6020001002640,登記記録の閉鎖等,0,2025-08-06,2025-07-22,株式会社伊豆昌,,株式会社,神奈川県,横浜市磯子区,磯子７丁目５番２９号,,14,107,2350016,,,2025-07-22,清算の結了等,,,2015-10-05,1,,,,,イズショウ,0
1539,6020001142767,登記記録の閉鎖等,0,2025-08-06,2025-07-18,Ｙ’ｓ株式会社,,株式会社,神奈川県,川崎市川崎区,四谷上町１２番９号,,14,131,2100828,,,2025-07-18,清算の結了等,,,2021-08-26,1,,,,,ワイズ,0
1554,6021002005888,登記記録の閉鎖等,0,2025-08-06,2025-07-28,有限会社バイオニック,,有限会社,神奈川県,藤沢市,本鵠沼２丁目１番３０号,,14,205,2510028,,,2025-07-28,清算の結了等,,,2015-10-05,1,,,,,バイオニック,0
1556,6030001077822,登記記録の閉鎖等,0,2025-08-06,2025-07-30,株式会社和田工務店,,株式会社,埼玉県,川口市,領家３丁目１２番２０号,,11,203,3320004,,,2025-07-30,清算の結了等,,,2015-10-05,1,,,,,ワダコウムテン,0
1575,6060001017387,登記記録の閉鎖等,0,2025-08-06,2025-07-17,クズウハウス株式会社,,株式会社,栃木県,栃木市,都賀町家中６４１４番地,,09,203,3280111,,,2025-07-17,清算の結了等,,,2017-03-02,1,,,,,クズウハウス,0
1581,6080001018177,登記記録の閉鎖等,0,2025-08-06,2025-07-28,株式会社共栄マネージメント,,株式会社,静岡県,静岡市駿河区,中田２丁目３番２８－７０１号,,22,102,4228041,,,2025-07-28,清算の結了等,,,2015-10-05,1,,,,,キョウエイマネージメント,0
1590,6080403004790,登記記録の閉鎖等,0,2025-08-06,2025-07-31,合同会社ｔｒｕｅ‐５,,合同会社,静岡県,浜松市中央区,高丘北１丁目２０番１０号,,22,138,4338119,,,2025-07-31,清算の結了等,,,2023-05-18,1,,,,,トゥルーファイブ,0
1591,6090001003392,登記記録の閉鎖等,0,2025-08-06,2025-07-31,トライベスト株式会社,,株式会社,山梨県,都留市,上谷６丁目９番１２号,,19,204,4020053,,,2025-07-31,清算の結了等,,,2015-10-05,1,,,,,トライベスト,0
1592,6090001006172,登記記録の閉鎖等,0,2025-08-06,2025-07-30,イン・フィニティ株式会社,,株式会社,山梨県,笛吹市,石和町唐柏５８３番地,,19,211,4060034,,,2025-07-30,清算の結了等,,,2015-10-05,1,,,,,インフィニティ,0
1593,6100001028462,登記記録の閉鎖等,0,2025-08-06,2025-08-01,オートガーデンクラウド株式会社,,株式会社,長野県,松本市,鎌田１丁目１６番１号,,20,202,3900837,,,2025-08-01,合併による解散等,9100001013841,令和７年８月１日長野県松本市鎌田一丁目１６番１号日産プリンス松本販売株式会社（9100001013841）に合併し解散,2015-10-05,1,,,,,オートガーデンクラウド,0
1595,6100002001419,登記記録の閉鎖等,0,2025-08-06,2025-08-01,有限会社クボタ,,有限会社,長野県,長野市,稲里町田牧９６６番地２,,20,201,3812214,,,2025-08-01,清算の結了等,,,2015-10-05,1,,,,,クボタ,0
1605,6110002025607,登記記録の閉鎖等,0,2025-08-06,2025-07-14,染感性有限会社ティモード,,有限会社,新潟県,十日町市,下川原町３５番地,,15,210,9480004,,,2025-07-14,清算の結了等,,,2015-10-05,1,,,,,ソメカンセイティモード,0
1612,6120001200688,登記記録の閉鎖等,0,2025-08-06,2025-07-14,ＰＬＵＳ－Ｔパートナーズ株式会社,,株式会社,大阪府,大阪市中央区,島之内１丁目２２番２３号,,27,128,5420082,,,2025-07-14,清算の結了等,,,2016-09-13,1,,,,,,0
1626,6120901006342,登記記録の閉鎖等,0,2025-08-06,2025-07-16,コウノオート株式会社,,株式会社,大阪府,吹田市,幸町７番２号,,27,205,5640015,,,2025-07-16,清算の結了等,,,2015-10-05,1,,,,,コウノオート,0
1642,6140005008580,登記記録の閉鎖等,0,2025-08-06,2025-07-29,農事組合法人城北畜産組合,,その他の設立登記法人,兵庫県,丹波篠山市,郡家２３７番地,,28,221,6692341,,,2025-07-29,清算の結了等,,,2024-11-26,1,,,,,ジョウホクチクサンクミアイ,0
1656,6200002023956,登記記録の閉鎖等,0,2025-08-06,2025-07-30,有限会社ブライダリーナタケイ,,有限会社,岐阜県,恵那市,長島町中野３０７番地の８,,21,210,5097205,,,2025-07-30,清算の結了等,,,2015-10-05,1,,,,,ブライダリーナタケイ,0
1659,6200005010324,登記記録の閉鎖等,0,2025-08-06,2025-07-28,神岡部品工業労働組合,,その他の設立登記法人,岐阜県,飛騨市,神岡町麻生野字中野田３６３番地,,21,217,5061131,,,2025-07-28,清算の結了等,,,2015-10-05,1,,,,,カミオカブヒンコウギョウ,0
1661,6210002014285,登記記録の閉鎖等,0,2025-08-06,2025-07-30,有限会社コ・ダ・マ,,有限会社,福井県,小浜市,西勢第６４号１９番地の１,,18,204,9170043,,,2025-07-30,清算の結了等,,,2015-10-05,1,,,,,コダマ,0
1663,6220001004419,登記記録の閉鎖等,0,2025-08-06,2025-08-01,株式会社天狗中田商店,,株式会社,石川県,金沢市,南新保町ロ８７番地,,17,201,9200064,,,2025-08-01,合併による解散等,6220001003081,令和７年８月１日石川県金沢市南新保町ロ８７番地株式会社サニーフーズ（6220001003081）に合併し解散,2015-10-05,1,,,,,テングナカタショウテン,0
1674,6250001012609,登記記録の閉鎖等,0,2025-08-06,2025-07-24,株式会社柳井日日新聞社,,株式会社,山口県,柳井市,柳井津４３６番地,,35,212,7420022,,,2025-07-24,清算の結了等,,,2015-10-05,1,,,,,ヤナイニチニチシンブンシャ,0
1677,6260001003219,登記記録の閉鎖等,0,2025-08-06,2025-07-10,株式会社仕事,,株式会社,岡山県,岡山市中区,西川原２５番地の３,,33,102,7038258,,,2025-07-10,清算の結了等,,,2015-10-05,1,,,,,シゴト,0
1695,6290005013252,登記記録の閉鎖等,0,2025-08-06,2025-07-11,医療法人飯野内科,,その他の設立登記法人,福岡県,筑紫野市,二日市中央４丁目１４番２３号,,40,217,8180072,,,2025-07-11,清算の結了等,,,2015-10-05,1,,,,,イイノナイカ,0
1697,6290802010815,登記記録の閉鎖等,0,2025-08-06,2025-08-05,有限会社とり園,,有限会社,福岡県,北九州市小倉北区,神岳２丁目１１番２１－３０３号,,40,106,8020045,,,2025-08-05,清算の結了等,,,2015-10-05,1,,,,,トリエン,0
1703,6320005007845,登記記録の閉鎖等,0,2025-08-06,2025-07-28,医療法人横井医院,,その他の設立登記法人,大分県,中津市,本耶馬渓町落合１０１１番地,,44,203,8710313,,,2025-07-28,清算の結了等,,,2015-10-05,1,,,,,ヨコイイイン,0
1707,6340002003671,登記記録の閉鎖等,0,2025-08-06,2025-07-22,有限会社ケイスタジオ,,有限会社,鹿児島県,鹿児島市,上之園町１３番１０号,,46,201,8900052,,,2025-07-22,清算の結了等,,,2015-10-05,1,,,,,ケイスタジオ,0
1720,6400005007738,登記記録の閉鎖等,0,2025-08-06,2025-07-07,特定非営利活動法人久慈未来,,その他の設立登記法人,岩手県,久慈市,京の森第７地割１９番地２１,,03,207,0280013,,,2025-07-07,清算の結了等,,,2016-12-27,1,,,,,クジミライ,0
1732,6470002013154,登記記録の閉鎖等,0,2025-08-06,2025-07-31,有限会社吉田工務店,00005426,有限会社,香川県,善通寺市,稲木町８４１番地,,37,204,7650022,,,2025-07-31,清算の結了等,,,2015-10-05,1,,,,,ヨシダコウムテン,0
1735,6700150018030,登記記録の閉鎖等,0,2025-08-06,2025-03-31,みさと第三住宅　管理組合,,その他,埼玉県,三郷市,彦成３丁目１３－１３,,11,237,3410003,,,2025-03-31,その他の清算の結了等,,,2015-10-09,1,,,,,ミサトダイサンジユウタクカンリクミアイ,0
1736,6700150040827,登記記録の閉鎖等,0,2025-08-06,2025-03-28,上郷地区穀物乾燥調製施設利用組合,,その他,山形県,鶴岡市,水沢字水京７３－７,,06,203,9997542,,,2025-03-28,その他の清算の結了等,,,2015-10-09,1,,,,,カミゴウチクコクモツカンソウチヨウセイシセツリヨウクミアイ,0
1759,7010003035894,登記記録の閉鎖等,0,2025-08-06,2025-07-08,合同会社エヌアド,,合同会社,東京都,中央区,銀座１丁目２２番１１号銀座大竹ビジデンス２階,,13,102,1040061,,,2025-07-08,清算の結了等,,,2021-09-27,1,,,,,エヌアド,0
1785,7010602008879,登記記録の閉鎖等,0,2025-08-06,2025-07-31,有限会社市六製作所,,有限会社,東京都,墨田区,八広１丁目１５番１７号,,13,107,1310041,,,2025-07-31,清算の結了等,,,2015-10-05,1,,,,,イチロクセイサクショ,0
1786,7010701002403,登記記録の閉鎖等,0,2025-08-06,2025-08-01,株式会社カナザワ,,株式会社,東京都,品川区,大崎４丁目４番２１号,,13,109,1410032,,,2025-08-01,清算の結了等,,,2015-10-05,1,,,,,カナザワ,0
1802,7011003010862,登記記録の閉鎖等,0,2025-08-06,2025-07-04,合同会社シャロンテック所沢,,合同会社,東京都,目黒区,洗足２丁目１６番１９号,,13,110,1520012,,,2025-07-04,清算の結了等,,,2020-02-07,1,,,,,シャロンテックトコロザワ,0
1803,7011003014252,登記記録の閉鎖等,0,2025-08-06,2025-08-01,Ｍ１Ｃｏ合同会社,,合同会社,東京都,渋谷区,桜丘町１番４号,,13,113,1500031,,,2025-08-01,合併による解散等,1010001148860,令和７年６月２１日東京都渋谷区桜丘町１番４号コインチェック株式会社（1010001148860）に合併し解散,2022-02-24,1,,,,,エムワンコ,0
1804,7011003016430,登記記録の閉鎖等,0,2025-08-06,2025-08-05,合同会社サポーター,,合同会社,神奈川県,藤沢市,鵠沼石上３丁目１番１３～１Ｂ号,,14,205,2510025,,,2025-08-05,清算の結了等,,,2023-03-15,1,,,,,サポーター,0
1809,7011101076070,登記記録の閉鎖等,0,2025-08-06,2025-07-03,株式会社トップ・ハーベスト・ジャパン,,株式会社,東京都,新宿区,新宿１丁目３番８号,,13,104,1600022,,,2025-07-03,清算の結了等,,,2016-02-19,1,,,,,トップハーベストジャパン,0
1819,7011401013896,登記記録の閉鎖等,0,2025-08-06,2025-08-01,株式会社インサイト,,株式会社,東京都,板橋区,加賀２丁目１６番１－１２０１号,,13,119,1730003,,,2025-08-01,清算の結了等,,,2015-10-05,1,,,,,インサイト,0
1837,7012702006028,登記記録の閉鎖等,0,2025-08-06,2025-07-29,有限会社森質店,,有限会社,東京都,西東京市,田無町３丁目２番１４号,,13,229,1880011,,,2025-07-29,清算の結了等,,,2015-10-05,1,,,,,モリシチテン,0
1840,7013301018083,登記記録の閉鎖等,0,2025-08-06,2025-08-04,信栄産業株式会社,,株式会社,神奈川県,鎌倉市,腰越２丁目６番２号,,14,204,2480033,,,2025-08-04,清算の結了等,,,2015-10-05,1,,,,,シンエイサンギョウ,0
1849,7020002084322,登記記録の閉鎖等,0,2025-08-06,2025-07-18,有限会社太成印刷事業所,,有限会社,神奈川県,川崎市中原区,苅宿３１－７,,14,133,2110022,,,2025-07-18,清算の結了等,,,2015-10-05,1,,,,,,0
1851,7021001043038,登記記録の閉鎖等,0,2025-08-06,2025-07-31,株式会社ＯＮＯＳＨＩＭＡ,,株式会社,神奈川県,横須賀市,森崎１丁目２番２１－３０１号,,14,201,2380023,,,2025-07-31,清算の結了等,,,2015-10-05,1,,,,,オノシマ,0
1852,7021002015787,登記記録の閉鎖等,0,2025-08-06,2025-07-30,有限会社モノリス,,有限会社,神奈川県,鎌倉市,扇ガ谷２丁目２番１５号,,14,204,2480011,,,2025-07-30,清算の結了等,,,2015-10-05,1,,,,,モノリス,0
1853,7021002053630,登記記録の閉鎖等,0,2025-08-06,2025-07-28,有限会社菜根淡,,有限会社,神奈川県,小田原市,本町１丁目１１番１４号,,14,206,2500012,,,2025-07-28,清算の結了等,,,2015-10-05,1,,,,,サイコンタン,0
1855,7030001139968,登記記録の閉鎖等,0,2025-08-06,2025-07-30,株式会社ＰＥＡＫ,,株式会社,埼玉県,白岡市,西１丁目８番６マイシティ・ウエスト１０３,,11,246,3490205,,,2025-07-30,清算の結了等,,,2021-01-04,1,,,,,ピーク,0
1859,7040002054050,登記記録の閉鎖等,0,2025-08-06,2025-07-16,有限会社エスフューチャーズ,,有限会社,千葉県,松戸市,新作２４０番地,,12,207,2710052,,,2025-07-16,清算の結了等,,,2015-10-05,1,,,,,エスフューチャーズ,0
1877,7100001005758,登記記録の閉鎖等,0,2025-08-06,2025-07-31,株式会社メディカルアソシエイツ,,株式会社,長野県,須坂市,大字須坂１３８７番地プチメゾン小林Ｂ,,20,207,3820000,,,2025-07-31,合併による解散等,1130001050294,令和７年７月１日東京都千代田区大手町１－１－２大手門タワーなぎさアセットマネジメント株式会社（1130001050294）に合併し解散,2015-10-05,1,,,,,メディカルアソシエイツ,0
1885,7110005006693,登記記録の閉鎖等,0,2025-08-06,2025-07-30,柏崎住宅建設業協同組合,,その他の設立登記法人,新潟県,柏崎市,大字曽地５６５番地１,,15,205,9450214,,,2025-07-30,清算の結了等,,,2015-10-05,1,,,,,カシワザキジュウタクケンセツギョウ,0
1886,7120001027643,登記記録の閉鎖等,0,2025-08-06,2025-07-28,精工建設株式会社,,株式会社,大阪府,大阪市大正区,三軒家西２丁目３番２２号,,27,108,5510001,,,2025-07-28,清算の結了等,,,2015-10-05,1,,,,,セイコウケンセツ,0
1888,7120001168124,登記記録の閉鎖等,0,2025-08-06,2025-07-01,株式会社ＲＥＳＥＥＤ,,株式会社,大阪府,大阪市北区,大淀中４丁目１２番２０号,,27,127,5310076,,,2025-07-01,合併による解散等,5120001164141,令和７年７月１日大阪市北区中之島三丁目２番１８号株式会社レスタス（5120001164141）に合併し解散,2015-10-05,1,,,,,レシード,0
1909,7120101000962,登記記録の閉鎖等,0,2025-08-06,2025-07-24,株式会社オーク,,株式会社,大阪府,堺市中区,土師町２丁３３番１４号,,27,142,5998238,,,2025-07-24,清算の結了等,,,2015-10-05,1,,,,,オーク,0
1910,7120101006704,登記記録の閉鎖等,0,2025-08-06,2025-07-31,株式会社堀野商店,,株式会社,大阪府,堺市堺区,新在家町東１丁１番３１号,,27,141,5900964,,,2025-07-31,清算の結了等,,,2015-10-05,1,,,,,ホリノショウテン,0
1916,7120901022009,登記記録の閉鎖等,0,2025-08-06,2025-07-15,株式会社ビーザム,,株式会社,大阪府,池田市,渋谷１丁目６番１４号,,27,204,5630028,,,2025-07-15,清算の結了等,,,2015-10-05,1,,,,,ビーザム,0
1925,7130001074321,登記記録の閉鎖等,0,2025-08-06,2025-07-16,株式会社ＤＩＧＩＧＮＩＴＥ,,株式会社,京都府,京都市上京区,甲斐守町９７西陣産業創造会館２Ｆ,,26,102,6028061,,,2025-07-16,清算の結了等,,,2023-05-16,1,,,,,ディジグナイト,0
1928,7140001035611,登記記録の閉鎖等,0,2025-08-06,2025-07-30,株式会社森田川魚店,,株式会社,兵庫県,明石市,藤江２０２８の５７,,28,203,6730044,,,2025-07-30,清算の結了等,,,2015-10-05,1,,,,,モリタカワウオテン,0
1937,7150001000993,登記記録の閉鎖等,0,2025-08-06,2025-08-04,新日本産業株式会社,,株式会社,奈良県,奈良市,餅飯殿町２９番地,00042587,29,201,6308222,,,2025-08-04,清算の結了等,,,2015-10-05,1,,,,,シンニホンサンギョウ,0
1948,7180305007492,登記記録の閉鎖等,0,2025-08-06,2025-07-24,社会福祉法人田口宝保育園,,その他の設立登記法人,愛知県,北設楽郡設楽町,田口字居立１４番地２,,23,561,4412301,,,2025-07-24,清算の結了等,,,2015-10-05,1,,,,,タグチタカラホイクエン,0
1960,7220002010670,登記記録の閉鎖等,0,2025-08-06,2025-08-01,有限会社サカシタ,,有限会社,石川県,小松市,島町ヌ１４番地２,,17,203,9230303,,,2025-08-01,清算の結了等,,,2015-10-05,1,,,,,サカシタ,0
1999,7330005001854,登記記録の閉鎖等,0,2025-08-06,2025-07-18,医療法人浩仁会,,その他の設立登記法人,熊本県,熊本市中央区,安政町５番１５,,43,101,8600801,,,2025-07-18,清算の結了等,,,2015-10-05,1,,,,,,0
2028,7420002018702,登記記録の閉鎖等,0,2025-08-06,2025-07-24,有限会社松舘工業,,有限会社,青森県,上北郡野辺地町,字助佐小路１５番地の２６,,02,401,0393114,,,2025-07-24,清算の結了等,,,2015-10-05,1,,,,,マツダテコウギョウ,0
2042,7700150089070,登記記録の閉鎖等,0,2025-08-06,2024-03-31,川口栄町３丁目銀座地区市街地再開発組合,,その他,埼玉県,川口市,大字赤山１４３８－３,,11,203,3330825,,,2024-03-31,その他の清算の結了等,,,2018-05-29,1,,,,,カワグチサカエチヨウサンチヨウメギンザチクシガイチサイカイハツクミアイ,0
2043,7700150099508,登記記録の閉鎖等,0,2025-08-06,2025-04-25,飯野小児童クラブ　保護者会,,その他,熊本県,上益城郡益城町,大字砥川１３７,,43,443,8612222,,,2025-04-25,その他の清算の結了等,,,2020-06-23,1,,,,,イイノシヨウジドウクラブホゴシヤカイ,0
2051,8010001138608,登記記録の閉鎖等,0,2025-08-06,2025-07-31,株式会社長良ファミリークラブ,,株式会社,東京都,千代田区,神田神保町１丁目１１番地,,13,101,1010051,,,2025-07-31,合併による解散等,6010401070841,令和７年７月１日東京都港区六本木七丁目３番１６号株式会社ソルブレイド（6010401070841）に合併し解散,2015-10-05,1,,,,,ナガラファミリークラブ,0
2058,8010001252342,登記記録の閉鎖等,0,2025-08-06,2025-07-07,株式会社トランプ,,株式会社,東京都,中央区,京橋２丁目７番８号,,13,102,1040031,,,2025-07-07,清算の結了等,,,2025-02-19,1,,,,,トランプ,0
2066,8010401055592,登記記録の閉鎖等,0,2025-08-06,2025-07-09,株式会社アデア,,株式会社,東京都,港区,赤坂９丁目５番２６号,,13,103,1070052,,,2025-07-09,清算の結了等,,,2015-10-05,1,,,,,アデア,0
2095,8011001155130,登記記録の閉鎖等,0,2025-08-06,2025-07-01,株式会社ニコラシステム,,株式会社,東京都,渋谷区,道玄坂１丁目１６番６号二葉ビル８ｂ,,13,113,1500043,,,2025-07-01,合併による解散等,7011001148341,令和７年７月１日東京都渋谷区神宮前一丁目５番８号神宮前タワービルディング１４階バクリ株式会社（7011001148341）に合併し解散,2023-06-16,1,,,,,ニコラシステム,0
2114,8011703002217,登記記録の閉鎖等,0,2025-08-06,2025-07-31,合同会社ＨＫマネージメント,,合同会社,東京都,江戸川区,大杉１丁目１５番１９号,,13,123,1320022,,,2025-07-31,清算の結了等,,,2019-03-07,1,,,,,エイチケーマネージメント,0
2116,8011801038146,登記記録の閉鎖等,0,2025-08-06,2025-07-18,Ｍｉｒａｃｌｅ・Ｃｉｔｙ株式会社,,株式会社,東京都,台東区,上野３丁目１９番４号,,13,106,1100005,,,2025-07-18,清算の結了等,,,2020-09-28,1,,,,,ミラクルシティ,0
2145,8021002008534,登記記録の閉鎖等,0,2025-08-06,2025-07-31,有限会社スロースタイル,,有限会社,神奈川県,藤沢市,南藤沢２０番１５号第一興産１８号館６Ｆ,,14,205,2510055,,,2025-07-31,清算の結了等,,,2015-10-05,1,,,,,スロースタイル,0
2146,8021002072464,登記記録の閉鎖等,0,2025-08-06,2025-07-16,有限会社ＦａｓｔＴｒａｃｋ,,有限会社,沖縄県,国頭郡恩納村,字真栄田７１２番地１オーシャンリゾート真栄田岬３１１号,,47,311,9040417,,,2025-07-16,清算の結了等,,,2015-10-05,1,,,,,ファストトラック,0
2165,8040001027691,登記記録の閉鎖等,0,2025-08-06,2025-07-10,株式会社ミヤウチ,,株式会社,千葉県,市川市,市川南３丁目２番１３号,,12,203,2720033,,,2025-07-10,清算の結了等,,,2015-10-05,1,,,,,ミヤウチ,0
2172,8040002088262,登記記録の閉鎖等,0,2025-08-06,2025-07-11,有限会社アイデヤ,,有限会社,千葉県,香取市,小見川２０４９番地４,,12,236,2890313,,,2025-07-11,清算の結了等,,,2015-10-05,1,,,,,アイデヤ,0
2187,8080102003092,登記記録の閉鎖等,0,2025-08-06,2025-07-30,文化図書有限会社,,有限会社,静岡県,沼津市,東熊堂字芳成４１１番地の７,,22,203,4100013,,,2025-07-30,清算の結了等,,,2015-10-05,1,,,,,ブンカトショ,0
2193,8100001001500,登記記録の閉鎖等,0,2025-08-06,2025-08-01,株式会社シューマート,,株式会社,長野県,長野市,川中島町上氷鉋１６８５番地１３,,20,201,3812233,,,2025-08-01,合併による解散等,5100001001148,令和７年８月１日長野市川中島町上氷鉋１６８５番地１３株式会社シューマート（5100001001148）に合併し解散,2015-10-05,1,,,,,シューマート,0
2204,8110001037881,登記記録の閉鎖等,0,2025-08-06,2025-07-18,株式会社キャンプの力研究所,,株式会社,新潟県,三条市,中野原４５６番地,,15,204,9550147,,,2025-07-18,清算の結了等,,,2023-10-05,1,,,,,キャンプノチカラケンキュウジョ,0
2209,8120001153331,登記記録の閉鎖等,0,2025-08-06,2025-07-15,森下運輸株式会社,,株式会社,大阪府,交野市,倉治９丁目２６４４番地の３,,27,230,5760051,,,2025-07-15,清算の結了等,,,2015-10-05,1,,,,,,0
2262,8200001012537,登記記録の閉鎖等,0,2025-08-06,2025-07-28,株式会社エターナル,,株式会社,岐阜県,岐阜市,山県岩南２７１番地５,,21,201,5012506,,,2025-07-28,清算の結了等,,,2015-10-05,1,,,,,エターナル,0
2264,8200005004084,登記記録の閉鎖等,0,2025-08-06,2025-08-04,岐阜県化粧品販売協同組合,,その他の設立登記法人,岐阜県,大垣市,高屋町２丁目５番地,,21,202,5030901,,,2025-08-04,清算の結了等,,,2015-10-05,1,,,,,ギフケンケショウヒンハンバイ,0
2271,8240001035377,登記記録の閉鎖等,0,2025-08-06,2025-07-15,株式会社Ｋ’ｓ　Ｌｉｂｅｒｏ,,株式会社,広島県,福山市,日吉台２丁目１５番５－１１０３号,,34,207,7210972,,,2025-07-15,清算の結了等,,,2015-10-05,1,,,,,ケイズリベロ,0
2293,8310001014927,登記記録の閉鎖等,0,2025-08-06,2025-08-01,株式会社ＭＹＭ,,株式会社,長崎県,長崎市,船大工町２番２９－１号,,42,201,8500904,,,2025-08-01,清算の結了等,,,2017-05-30,1,,,,,エムワイエム,0
2334,8500001002061,登記記録の閉鎖等,0,2025-08-06,2025-08-01,株式会社重松建築匠房,,株式会社,愛媛県,松山市,空港通４丁目６番８号,,38,201,7910054,,,2025-08-01,清算の結了等,,,2015-10-05,1,,,,,シゲマツケンチクショウボウ,0
2335,8500001003555,登記記録の閉鎖等,0,2025-08-06,2025-08-04,株式会社不動産プランニング・ジャパン,,株式会社,愛媛県,松山市,上伊台町１８番地,,38,201,7910111,,,2025-08-04,清算の結了等,,,2015-10-05,1,,,,,フドウサンプランニングジャパン,0
2337,8700150022773,登記記録の閉鎖等,0,2025-08-06,2025-03-31,小千谷観光協会,,その他,新潟県,小千谷市,城内１丁目８－２５サンプラザ１階,,15,208,9470028,,,2025-03-31,その他の清算の結了等,,,2015-10-09,1,,,,,オヂヤカンコウキヨウカイ,0
2341,9010001045308,登記記録の閉鎖等,0,2025-08-06,2025-07-23,株式会社サンユウゴルフサービス,,株式会社,神奈川県,横浜市神奈川区,神大寺１丁目３番６－２０１号,,14,102,2210801,,,2025-07-23,清算の結了等,,,2015-10-05,1,,,,,サンユウゴルフサービス,0
2342,9010001078720,登記記録の閉鎖等,0,2025-08-06,2025-07-08,菱光サービス株式会社,,株式会社,東京都,中央区,銀座３丁目１３番２号,,13,102,1040061,,,2025-07-08,清算の結了等,,,2015-10-05,1,,,,,リョウコウサービス,0
2384,9010502009158,登記記録の閉鎖等,0,2025-08-06,2025-07-22,有限会社ハヤシ印商,,有限会社,東京都,台東区,浅草１丁目２４番３号,,13,106,1110032,,,2025-07-22,清算の結了等,,,2015-10-05,1,,,,,ハヤシインショウ,0
2391,9010702004784,登記記録の閉鎖等,0,2025-08-06,2025-07-30,有限会社太子製作所,,有限会社,東京都,品川区,小山１丁目９番２３号,,13,109,1420062,,,2025-07-30,清算の結了等,,,2015-10-05,1,,,,,タイコセイサクショ,0
2398,9011001042179,登記記録の閉鎖等,0,2025-08-06,2025-07-22,株式会社ＳＥＩコミュニケーションズ,,株式会社,神奈川県,横浜市港北区,新横浜２丁目１２番１２号,,14,109,2220033,,,2025-07-22,清算の結了等,,,2015-10-05,1,,,,,エスイーアイコミュニケーションズ,0
2405,9011401007533,登記記録の閉鎖等,0,2025-08-06,2025-08-01,株式会社絵都,,株式会社,東京都,板橋区,板橋１丁目１６番３号,,13,119,1730004,,,2025-08-01,清算の結了等,,,2015-10-05,1,,,,,カイト,0
2419,9020001070973,登記記録の閉鎖等,0,2025-08-06,2025-07-23,斉幸商事株式会社,,株式会社,神奈川県,川崎市幸区,戸手１丁目７番２号,,14,132,2120005,,,2025-07-23,清算の結了等,,,2015-10-05,1,,,,,サイコウショウジ,0
2420,9020001075824,登記記録の閉鎖等,0,2025-08-06,2025-07-23,ジェイピー企画株式会社,,株式会社,神奈川県,川崎市川崎区,東扇島１８番地２,,14,131,2100869,,,2025-07-23,清算の結了等,,,2015-10-05,1,,,,,ジェイピーキカク,0
2421,9020001095698,登記記録の閉鎖等,0,2025-08-06,2025-07-23,株式会社アートライフ,,株式会社,神奈川県,川崎市多摩区,枡形１丁目２１番１－４０３号,,14,135,2140032,,,2025-07-23,清算の結了等,,,2015-10-05,1,,,,,アートライフ,0
2423,9020001119911,登記記録の閉鎖等,0,2025-08-06,2025-07-22,エネルヒア川崎株式会社,,株式会社,神奈川県,川崎市高津区,千年５５２－１,,14,134,2130022,,,2025-07-22,清算の結了等,,,2017-02-10,1,,,,,エネルヒアカワサキ,0
2428,9020003016256,登記記録の閉鎖等,0,2025-08-06,2025-07-22,合同会社アイル,,合同会社,神奈川県,横浜市鶴見区,鶴見中央２丁目２番２３－２０２号,,14,101,2300051,,,2025-07-22,清算の結了等,,,2019-06-21,1,,,,,アイル,0
2440,9030003007270,登記記録の閉鎖等,0,2025-08-06,2025-07-22,Ｃ＆Ｊ商事合同会社,,合同会社,東京都,台東区,上野３丁目１７番７号東亜御徒町ビル３Ｆ,,13,106,1100005,,,2025-07-22,清算の結了等,,,2015-10-05,1,,,,,,0
2455,9050005000965,登記記録の閉鎖等,0,2025-08-06,2025-07-24,医療法人五味渕整形外科,,その他の設立登記法人,茨城県,水戸市,双葉台４丁目２０番地の５,,08,201,3114145,,,2025-07-24,清算の結了等,,,2015-10-05,1,,,,,ゴミブチセイケイゲカ,0
2456,9060001013763,登記記録の閉鎖等,0,2025-08-06,2025-07-24,株式会社栄進コーポレーション,,株式会社,栃木県,芳賀郡芳賀町,芳賀台６２番地１７,,09,345,3213325,,,2025-07-24,清算の結了等,,,2015-10-05,1,,,,,エイシンコーポレーション,0
2462,9080101020055,登記記録の閉鎖等,0,2025-08-06,2025-07-31,株式会社アオブ,,株式会社,静岡県,富士宮市,大宮町３１番７号澤田ビル２Ｆ,,22,207,4180066,,,2025-07-31,清算の結了等,,,2017-09-08,1,,,,,アオブ,0
2473,9100002018947,登記記録の閉鎖等,0,2025-08-06,2025-08-01,有限会社長野光文社,,有限会社,長野県,中野市,大字江部９９３番地３,,20,211,3830045,,,2025-08-01,合併による解散等,8100001000221,令和７年８月１日長野市川中島町原６００－１長野マルマツ株式会社（8100001000221）に合併し解散,2015-10-05,1,,,,,ナガノコウブンシャ,0
2479,9120001040776,登記記録の閉鎖等,0,2025-08-06,2025-07-14,アイテック株式会社,,株式会社,大阪府,大阪市大正区,南恩加島５丁目１５番８号,,27,108,5510021,,,2025-07-14,清算の結了等,,,2015-10-05,1,,,,,アイテック,0
2489,9120001206278,登記記録の閉鎖等,0,2025-08-06,2025-07-28,株式会社Ｏｒｉｅｎｔａｌ　Ｌｉｆｅ　Ｇｕａｒｄ,,株式会社,大阪府,大阪市西成区,玉出中１丁目２番１２号,,27,122,5570044,,,2025-07-28,清算の結了等,,,2017-06-12,1,,,,,オリエンタルライフガード,0
2508,9120902013145,登記記録の閉鎖等,0,2025-08-06,2025-07-16,有限会社ゴーイング,,有限会社,大阪府,茨木市,美穂ケ丘１３番１１２２号,,27,211,5670047,,,2025-07-16,清算の結了等,,,2015-10-05,1,,,,,ゴーイング,0
2522,9140002016253,登記記録の閉鎖等,0,2025-08-06,2025-07-31,有限会社元町明化電業社,,有限会社,兵庫県,神戸市中央区,元町通４丁目６番１６号,,28,110,6500022,,,2025-07-31,清算の結了等,,,2015-10-05,1,,,,,モトマチメイカデンギョウシャ,0
2528,9170001014833,登記記録の閉鎖等,0,2025-08-06,2025-08-01,株式会社ヒキガワ環境,,株式会社,和歌山県,西牟婁郡白浜町,日置２０３９番地の６４,,30,401,6492511,,,2025-08-01,清算の結了等,,,2017-07-11,1,,,,,ヒキガワカンキョウ,0
2544,9200005013596,登記記録の閉鎖等,0,2025-08-06,2025-07-30,一般社団法人岐阜協立大学アスリート育成クラブ,,その他の設立登記法人,岐阜県,大垣市,北方町５丁目５０番地,,21,202,5030019,,,2025-07-30,清算の結了等,,,2024-04-08,1,,,,,ギフキョウリツダイガクアスリートイクセイクラブ,0
2545,9210001001273,登記記録の閉鎖等,0,2025-08-06,2025-07-31,小林織物株式会社,,株式会社,福井県,福井市,新田塚１丁目８０番３０号,,18,201,9100067,,,2025-07-31,清算の結了等,,,2015-10-05,1,,,,,コバヤシオリモノ,0
2567,9310002018281,登記記録の閉鎖等,0,2025-08-06,2025-07-30,有限会社原建設,,有限会社,長崎県,南島原市,有家町原尾５９４番地１,,42,214,8592123,,,2025-07-30,清算の結了等,,,2015-10-05,1,,,,,ハラケンセツ,0
2568,9310005000609,登記記録の閉鎖等,0,2025-08-06,2025-07-30,一般社団法人長崎県管工事協会,,その他の設立登記法人,長崎県,長崎市,古町５４番地,,42,201,8500026,,,2025-07-30,清算の結了等,,,2015-10-05,1,,,,,ナガサキケンカンコウジキョウカイ,0
2572,9330003007075,登記記録の閉鎖等,0,2025-08-06,2025-07-17,合同会社サダルスウドサービス,,合同会社,熊本県,熊本市東区,下南部３丁目９番１７号,,43,102,8618019,,,2025-07-17,清算の結了等,,,2017-05-17,1,,,,,サダルスウドサービス,0
2574,9340002023221,登記記録の閉鎖等,0,2025-08-06,2025-07-24,有限会社正角産業,,有限会社,鹿児島県,出水市,高尾野町柴引２４番地９,,46,208,8990402,,,2025-07-24,清算の結了等,,,2015-10-05,1,,,,,ショウカクサンギョウ,0
2575,9350001016308,登記記録の閉鎖等,0,2025-08-06,2025-07-31,株式会社やぁぐな,,株式会社,宮崎県,宮崎市,清水１丁目２番６号ミリオン清水３０１号,,45,201,8800021,,,2025-07-31,清算の結了等,,,2020-03-04,1,,,,,ヤァグナ,0
2585,9390002011618,登記記録の閉鎖等,0,2025-08-06,2025-07-24,有限会社太田薬局,,有限会社,山形県,村山市,楯岡五日町２番９号,,06,208,9950034,,,2025-07-24,清算の結了等,,,2015-10-05,1,,,,,オオタヤッキョク,0
2593,9470001014415,登記記録の閉鎖等,0,2025-08-06,2025-07-30,株式会社Ｅｘｐａｎｄ,,株式会社,香川県,高松市,国分寺町新居２８８番地８,,37,201,7690101,,,2025-07-30,清算の結了等,,,2015-10-05,1,,,,,エクスパンド,0
2594,9470001017293,登記記録の閉鎖等,0,2025-08-06,2025-07-30,株式会社トータル７２,,株式会社,香川県,高松市,福岡町２丁目９番１－８０１号スカイハイツ玉藻,,37,201,7600066,,,2025-07-30,清算の結了等,,,2019-03-12,1,,,,,トータルナナジュウニ,0
2595,9470002006428,登記記録の閉鎖等,0,2025-08-06,2025-07-31,有限会社松屋食料品店,,有限会社,香川県,高松市,瓦町２丁目１２番地の３,,37,201,7600052,,,2025-07-31,清算の結了等,,,2015-10-05,1,,,,,マツヤショクリョウヒンテン,0
2604,9700150109719,登記記録の閉鎖等,0,2025-08-06,2025-03-31,演劇企画ＮＡＧＡＳＥ,,その他,東京都,練馬区,大泉学園町３丁目１２－１８,,13,120,1780061,,,2025-03-31,その他の清算の結了等,,,2022-06-15,1,,,,,エンゲキキカクナガセ,0
