sequenceNumber,corporateNumber,process,correct,updateDate,changeDate,name,nameImageId,kind,prefectureName,cityName,streetNumber,addressImageId,prefectureCode,cityCode,postCode,addressOutside,addressOutsideImageId,closeDate,closeCause,successorCorporateNumber,changeCause,assignmentDate,latest,enName,enPrefectureName,enCityName,enAddressOutside,furigana,hihyoji
5,1010001252836,新規,0,2025-03-06,2025-03-06,Ｔｅｉａ　ＩＩＩ株式会社,,株式会社,東京都,千代田区,永田町２丁目１４番２号山王グランドビル３階スリーアイズキャピタル株式会社内,,13,101,1000014,,,,,,,2025-03-06,1,,,,,テイアスリー,0
6,1010001252860,新規,0,2025-03-06,2025-03-06,株式会社ミツウロコＥＢＭ,,株式会社,東京都,中央区,京橋３丁目１番１号,,13,102,1040031,,,,,,,2025-03-06,1,,,,,ミツウロコイービーエム,0
8,1010003046617,新規,0,2025-03-06,2025-03-06,合同会社エメラルド,,合同会社,東京都,千代田区,二番町３番地麹町スクエア株式会社シリウス・アドバイザリー内,,13,101,1020084,,,,,,,2025-03-06,1,,,,,エメラルド,0
9,1010003046625,新規,0,2025-03-06,2025-03-06,キーバリュー合同会社,,合同会社,東京都,中央区,日本橋室町１丁目１１番１２号,,13,102,1030022,,,,,,,2025-03-06,1,,,,,キーバリュー,0
10,1010003046641,新規,0,2025-03-06,2025-03-06,幸田知能合同会社,,合同会社,東京都,中央区,新川１丁目７番１号,,13,102,1040033,,,,,,,2025-03-06,1,,,,,コウダチノウ,0
19,1010401188622,新規,0,2025-03-06,2025-03-06,株式会社Ｌ’ｍｏｏｉ,,株式会社,東京都,港区,三田３丁目４－３ＲＩＰＬ９、１Ｆ,,13,103,1080073,,,,,,,2025-03-06,1,,,,,エルモーイ,0
20,1010401188663,新規,0,2025-03-06,2025-03-06,株式会社ｂａｂｙ　ｂｅｌｌｅ,,株式会社,東京都,港区,南青山２丁目２番１５号ウィン青山９４２,,13,103,1070062,,,,,,,2025-03-06,1,,,,,ベイビーベル,0
21,1010403034543,新規,0,2025-03-06,2025-03-06,合同会社プライム３４号,,合同会社,東京都,港区,元麻布３丁目１－３４,,13,103,1060046,,,,,,,2025-03-06,1,,,,,プライムサンジュウヨンゴウ,0
22,1010403034551,新規,0,2025-03-06,2025-03-06,合同会社Ａｕｔｏ　Ｘ‐Ｃｈａｎｇｅ,,合同会社,東京都,港区,六本木３丁目５番１５号,,13,103,1060032,,,,,,,2025-03-06,1,,,,,オートエクスチェンジ,0
24,1010501053742,新規,0,2025-03-06,2025-03-06,Ｏｈａｎａｋｋｏ株式会社,,株式会社,東京都,台東区,北上野２丁目６－１４,,13,106,1100014,,,,,,,2025-03-06,1,,,,,オハナッコ,0
27,1010601066883,新規,0,2025-03-06,2025-03-06,チャンタ株式会社,,株式会社,東京都,墨田区,江東橋４丁目２７番１４号楽天地ビル３Ｆ,,13,107,1300022,,,,,,,2025-03-06,1,,,,,チャンタ,0
29,1010801035903,新規,0,2025-03-06,2025-03-06,株式会社ディーズ,,株式会社,東京都,大田区,東海３丁目９番１５号八治ビル５０３号室,,13,111,1430001,,,,,,,2025-03-06,1,,,,,ディーズ,0
30,1010805003162,新規,0,2025-03-06,2025-03-06,医療法人社団ＣＭＣ,,その他の設立登記法人,東京都,大田区,大森東２丁目２５番１１号,,13,111,1430012,,,,,,,2025-03-06,1,,,,,シーエムシー,0
31,1010901056931,新規,0,2025-03-06,2025-03-06,株式会社ＰＯＰＳ,,株式会社,東京都,世田谷区,下馬１丁目２４番１２－２０１号,,13,112,1540002,,,,,,,2025-03-06,1,,,,,ポップス,0
32,1010903009755,新規,0,2025-03-06,2025-03-06,合同会社ＭＫＲＹ,,合同会社,東京都,世田谷区,太子堂４丁目１８番１５号マガザン三軒茶屋２／３Ｆ―３,,13,112,1540004,,,,,,,2025-03-06,1,,,,,マクリー,0
39,1011001168031,新規,0,2025-03-06,2025-03-06,株式会社Ｒｉｃｅｒｉｖｅｒ,,株式会社,東京都,渋谷区,道玄坂１丁目１０番８号渋谷道玄坂東急ビル２Ｆ－Ｃ,,13,113,1500043,,,,,,,2025-03-06,1,,,,,ライスリバー,0
40,1011001168064,新規,0,2025-03-06,2025-03-06,株式会社Ｋｉｒｄｅ,,株式会社,東京都,渋谷区,神宮前６丁目２３番４号桑野ビル２階,,13,113,1500001,,,,,,,2025-03-06,1,,,,,カード,0
41,1011001168072,新規,0,2025-03-06,2025-03-06,プライムエージェント株式会社,,株式会社,東京都,目黒区,碑文谷４丁目１０番６号,,13,110,1520003,,,,,,,2025-03-06,1,,,,,プライムエージェント,0
47,1011101110826,新規,0,2025-03-06,2025-03-06,株式会社ｍｉｒａｃｌｅ,,株式会社,東京都,新宿区,北新宿１丁目１９－２４－２０６,,13,104,1690074,,,,,,,2025-03-06,1,,,,,ミラクル,0
48,1011101110883,新規,0,2025-03-06,2025-03-06,株式会社喝,,株式会社,東京都,新宿区,早稲田南町３２番地カサ山越１０１,,13,104,1620043,,,,,,,2025-03-06,1,,,,,カツ,0
49,1011105011351,新規,0,2025-03-06,2025-03-06,特定非営利活動法人Ｒｅｌｉｇｈｔ,,その他の設立登記法人,東京都,新宿区,市谷田町２丁目１７番地八重洲市谷ビル１０階,,13,104,1620843,,,,,,,2025-03-06,1,,,,,リライト,0
52,1011301030411,新規,0,2025-03-06,2025-03-06,株式会社一ノ鞍,,株式会社,東京都,杉並区,高井戸東４丁目７番１２号,,13,115,1680072,,,,,,,2025-03-06,1,,,,,イチノクラ,0
53,1011405002380,新規,0,2025-03-06,2025-03-06,医療法人社団創伸会,,その他の設立登記法人,東京都,板橋区,南常盤台１丁目３４番２号ウィステリアときわ台１階,,13,119,1740072,,,,,,,2025-03-06,1,,,,,ソウシンカイ,0
55,1011703004145,新規,0,2025-03-06,2025-03-06,エンマインズベンチャー合同会社,,合同会社,東京都,江戸川区,松江４丁目１３番９号,,13,123,1320025,,,,,,,2025-03-06,1,,,,,エンマインズベンチャー,0
58,1011801045735,新規,0,2025-03-06,2025-03-06,ｅ‐ＨＯＵＳＥ株式会社,,株式会社,東京都,葛飾区,東立石３丁目３２番３号,,13,122,1240013,,,,,,,2025-03-06,1,,,,,イーハウス,0
62,1012401042833,新規,0,2025-03-06,2025-03-06,株式会社Ａｓｈｌａｎｄ,,株式会社,東京都,調布市,深大寺東町３丁目２７番地１９,,13,208,1820012,,,,,,,2025-03-06,1,,,,,アッシュランド,0
63,1012401042841,新規,0,2025-03-06,2025-03-06,株式会社輝京,,株式会社,東京都,府中市,八幡町２丁目１番地の８,,13,206,1830016,,,,,,,2025-03-06,1,,,,,キキョウ,0
64,1012403007009,新規,0,2025-03-06,2025-03-06,合同会社ガナクエスト,,合同会社,東京都,武蔵野市,吉祥寺本町１丁目１３－２シラカバビル５Ｆ,,13,203,1800004,,,,,,,2025-03-06,1,,,,,ガナクエスト,0
70,1020001161664,新規,0,2025-03-06,2025-03-06,株式会社ｔｙプラン,,株式会社,神奈川県,横浜市鶴見区,獅子ケ谷１丁目２３番２５号,,14,101,2300073,,,,,,,2025-03-06,1,,,,,ティーワイプラン,0
71,1020001161722,新規,0,2025-03-06,2025-03-06,Ｓｅｒｉｏ株式会社,,株式会社,神奈川県,横浜市中区,山下町１６２番地１横浜飛栄ビル２０３号室,,14,104,2310023,,,,,,,2025-03-06,1,,,,,セリオ,0
77,1020003027954,新規,0,2025-03-06,2025-03-06,合同会社スタートアップ,,合同会社,神奈川県,横浜市西区,浅間町１丁目４－３ウィザードビル４０２,,14,103,2200072,,,,,,,2025-03-06,1,,,,,スタートアップ,0
78,1020003027962,新規,0,2025-03-06,2025-03-06,朝陽研究院合同会社,,合同会社,神奈川県,川崎市川崎区,殿町３丁目２５番４０号リサーチゲートビルディング殿町３（ＲＧＢ３）Ａ棟１階,,14,131,2100821,,,,,,,2025-03-06,1,,,,,チョウヨウケンキュウイン,0
80,1021001084624,新規,0,2025-03-06,2025-03-06,Ｍ・Ｇ・Ｃ株式会社,,株式会社,神奈川県,平塚市,大神６丁目１５番５３号,,14,203,2540012,,,,,,,2025-03-06,1,,,,,エムジーシー,0
89,1030001165177,新規,0,2025-03-06,2025-03-06,株式会社ＤＲＯＰ‐Ｉｎ,,株式会社,埼玉県,さいたま市緑区,大字三室４７０番地２,,11,109,3360911,,,,,,,2025-03-06,1,,,,,ドロップイン,0
90,1030001165193,新規,0,2025-03-06,2025-03-06,株式会社ＲＹＮＯ,,株式会社,埼玉県,三郷市,高州２丁目２９７番地６,,11,237,3410037,,,,,,,2025-03-06,1,,,,,リノ,0
91,1030001165227,新規,0,2025-03-06,2025-03-06,株式会社ヒライファシリティーズ,,株式会社,埼玉県,富士見市,大字水子２５３３番地７,,11,235,3540011,,,,,,,2025-03-06,1,,,,,ヒライファシリティーズ,0
92,1030001165235,新規,0,2025-03-06,2025-03-06,株式会社センテン,,株式会社,埼玉県,久喜市,鷲宮６丁目８番５３号,,11,232,3400217,,,,,,,2025-03-06,1,,,,,センテン,0
93,1030001165243,新規,0,2025-03-06,2025-03-06,株式会社シバテック,,株式会社,埼玉県,戸田市,喜沢２丁目４０番地の２９,,11,224,3350013,,,,,,,2025-03-06,1,,,,,シバテック,0
94,1030001165251,新規,0,2025-03-06,2025-03-06,ユータス株式会社,,株式会社,埼玉県,本庄市,柏１丁目１番１１号,,11,211,3670045,,,,,,,2025-03-06,1,,,,,ユータス,0
95,1030001165284,新規,0,2025-03-06,2025-03-06,株式会社興進,,株式会社,埼玉県,入間市,大字小谷田３４２番地５,,11,225,3580026,,,,,,,2025-03-06,1,,,,,コウシン,0
99,1030003026286,新規,0,2025-03-06,2025-03-06,合同会社ウエル川越,,合同会社,埼玉県,川越市,新宿町１丁目４番地２１,,11,201,3501124,,,,,,,2025-03-06,1,,,,,ウエルカワゴエ,0
101,1040001137621,新規,0,2025-03-06,2025-03-06,富士特殊金型株式会社,,株式会社,千葉県,市川市,塩浜２丁目１７番７号,,12,203,2720127,,,,,,,2025-03-06,1,,,,,フジトクシュカナガタ,0
102,1040001137662,新規,0,2025-03-06,2025-03-06,株式会社皓博国際健診,,株式会社,千葉県,千葉市美浜区,打瀬１丁目６番地４Ｅ棟８０５号,,12,106,2610013,,,,,,,2025-03-06,1,,,,,コウハクコクサイケンシン,0
103,1040001137679,新規,0,2025-03-06,2025-03-06,株式会社鈴,,株式会社,千葉県,松戸市,金ケ作４１９番地の５４鈴木ビル１Ｆ,,12,207,2702251,,,,,,,2025-03-06,1,,,,,スズ,0
104,1040001137687,新規,0,2025-03-06,2025-03-06,マルスパートナーズ株式会社,,株式会社,千葉県,柏市,戸張１１６０番地１０,,12,217,2770008,,,,,,,2025-03-06,1,,,,,マルスパートナーズ,0
107,1050001056259,新規,0,2025-03-06,2025-03-06,株式会社エスポワール,,株式会社,茨城県,水戸市,柳河町１４７番地,,08,201,3100003,,,,,,,2025-03-06,1,,,,,エスポワール,0
108,1050001056291,新規,0,2025-03-06,2025-03-06,矢橋ホールディングス株式会社,,株式会社,茨城県,那珂市,額田南郷２２８５番地の４,,08,226,3110107,,,,,,,2025-03-06,1,,,,,ヤバシホールディングス,0
109,1050003009074,新規,0,2025-03-06,2025-03-06,合同会社アシストＰＤ,,合同会社,茨城県,水戸市,田谷町１５０番地の３,,08,201,3114204,,,,,,,2025-03-06,1,,,,,アシストピーディー,0
111,1060001037968,新規,0,2025-03-06,2025-03-06,ヴィクトリアホーム株式会社,,株式会社,栃木県,下野市,下石橋３６５番地４,,09,216,3290512,,,,,,,2025-03-06,1,,,,,ヴィクトリアホーム,0
112,1060001037984,新規,0,2025-03-06,2025-03-06,ＪＥＭＩＮ株式会社,,株式会社,栃木県,那須郡那須町,大字湯本字ツムジケ平７１３番地１６,,09,407,3250301,,,,,,,2025-03-06,1,,,,,ジェミン,0
113,1070001042678,新規,0,2025-03-06,2025-03-06,株式会社俊輝,,株式会社,群馬県,佐波郡玉村町,大字樋越９番地１,,10,464,3701103,,,,,,,2025-03-06,1,,,,,トシキ,0
117,1070005010359,新規,0,2025-03-06,2025-03-06,社会保険労務士法人関事務所,,その他の設立登記法人,群馬県,前橋市,元総社町１４１１番地１服部ハイツＡ１０１,,10,201,3710846,,,,,,,2025-03-06,1,,,,,セキジムショ,0
121,1080101025342,新規,0,2025-03-06,2025-03-06,タイラホールディングス株式会社,,株式会社,静岡県,駿東郡長泉町,南一色６３２番地８,,22,342,4110932,,,,,,,2025-03-06,1,,,,,タイラホールディングス,0
122,1080103003263,新規,0,2025-03-06,2025-03-06,Ｖｅｒｔｅｘ富士山合同会社,,合同会社,静岡県,富士宮市,野中１０８４番地の４,,22,207,4180039,,,,,,,2025-03-06,1,,,,,ヴァーテックスフジサン,0
124,1080401027773,新規,0,2025-03-06,2025-03-06,株式会社ＳＰＯＴ　ｃｌｏｓｅｔ,,株式会社,静岡県,浜松市中央区,神田町１６６番地の１,,22,138,4328047,,,,,,,2025-03-06,1,,,,,スポットクローゼット,0
126,1100001038350,新規,0,2025-03-06,2025-03-06,株式会社Ｓｗｅｅｔ　Ａｒｔｓ,,株式会社,長野県,長野市,南千歳２丁目１２番地３,,20,201,3800823,,,,,,,2025-03-06,1,,,,,スウィートアーツ,0
127,1100001038359,新規,0,2025-03-06,2025-03-06,株式会社Ｒｕａｃｎａ,,株式会社,長野県,上田市,上田原１１４７番地１０,,20,203,3861102,,,,,,,2025-03-06,1,,,,,ルアナ,0
128,1100003008021,新規,0,2025-03-06,2025-03-06,合同会社地域政治経済研究会,,合同会社,長野県,松本市,大字笹賀４３７７番地８,,20,202,3990033,,,,,,,2025-03-06,1,,,,,チイキセイジケイザイケンキュウカイ,0
130,1110001039083,新規,0,2025-03-06,2025-03-06,株式会社Ｎ’ｓ,,株式会社,新潟県,新潟市中央区,女池神明１丁目８番地１１コートハウス女池１０２,,15,103,9500943,,,,,,,2025-03-06,1,,,,,エヌズ,0
131,1110001039091,新規,0,2025-03-06,2025-03-06,株式会社転ばぬ先のつえ,,株式会社,新潟県,上越市,木田２丁目１番１号,,15,222,9430805,,,,,,,2025-03-06,1,,,,,コロバヌサキノツエ,0
139,1120001273441,新規,0,2025-03-06,2025-03-06,株式会社アジール,,株式会社,大阪府,大阪市平野区,瓜破５丁目２番１６号,,27,126,5470024,,,,,,,2025-03-06,1,,,,,アジール,0
141,1120003028793,新規,0,2025-03-06,2025-03-06,合同会社ハッピータイムズ,,合同会社,大阪府,大阪市港区,市岡元町３丁目１３番２号,,27,107,5520002,,,,,,,2025-03-06,1,,,,,ハッピータイムズ,0
142,1120003028802,新規,0,2025-03-06,2025-03-06,合同会社トレードライフ,,合同会社,大阪府,大阪市北区,梅田１丁目２番２号大阪駅前第２ビル１２‐１２,,27,127,5300001,,,,,,,2025-03-06,1,,,,,トレードライフ,0
145,1120101071167,新規,0,2025-03-06,2025-03-06,株式会社柊工業,,株式会社,大阪府,堺市南区,桃山台２丁８番７－７１８号,,27,145,5900141,,,,,,,2025-03-06,1,,,,,シュウコウギョウ,0
146,1120101071209,新規,0,2025-03-06,2025-03-06,株式会社ＢＩＳＣＵＳＳ建設,,株式会社,大阪府,岸和田市,岸野町５番１２号,,27,202,5960051,,,,,,,2025-03-06,1,,,,,ビスカスケンセツ,0
150,1122001038964,新規,0,2025-03-06,2025-03-06,株式会社ＭＣ,,株式会社,大阪府,八尾市,東弓削２丁目４７番地,,27,212,5810029,,,,,,,2025-03-06,1,,,,,エムシー,0
156,1130001079111,新規,0,2025-03-06,2025-03-06,株式会社ＲＩＳＯ,,株式会社,京都府,亀岡市,宮前町宮川上フケ１番地,,26,206,6210243,,,,,,,2025-03-06,1,,,,,リソー,0
158,1130003010214,新規,0,2025-03-06,2025-03-06,合同会社芳川,,合同会社,京都府,京都市南区,西九条針小路町２２－８８いろは小紫,,26,107,6018422,,,,,,,2025-03-06,1,,,,,ヨシカワ,0
162,1140001137594,新規,0,2025-03-06,2025-03-06,Ｓａｎｔｅ　ｅｔ　Ｂｅａｕｔｅ株式会社,,株式会社,兵庫県,神戸市西区,白水２丁目９番２８号,,28,111,6512129,,,,,,,2025-03-06,1,,,,,,0
163,1140001137636,新規,0,2025-03-06,2025-03-06,株式会社ＭＴＭｃｕｒｒｅｎｔ,,株式会社,兵庫県,神戸市北区,筑紫が丘１丁目１４番地の６,,28,109,6511212,,,,,,,2025-03-06,1,,,,,エムティーエムカレント,0
164,1140001137644,新規,0,2025-03-06,2025-03-06,株式会社ニコリエデザインプランニング,,株式会社,兵庫県,神戸市須磨区,神の谷６丁目２番１０６－２０４号,,28,107,6540162,,,,,,,2025-03-06,1,,,,,ニコリエデザインプランニング,0
167,1140003021739,新規,0,2025-03-06,2025-03-06,合同会社Ｆｉｒｓｔ　Ｖａｌｌｅｙ,,合同会社,兵庫県,西宮市,若山町９番２１－３０１号,,28,204,6638016,,,,,,,2025-03-06,1,,,,,ファーストヴァレー,0
168,1140003021747,新規,0,2025-03-06,2025-03-06,合同会社Ｂ．Ｉｍｐｒｅｓｓｉｖｅ,,合同会社,兵庫県,神戸市垂水区,下畑町１０２９番地の１１,,28,108,6550861,,,,,,,2025-03-06,1,,,,,ビーインプレッシブ,0
171,1140005027395,新規,0,2025-03-06,2025-03-06,特定非営利活動法人ルンバルンバ,,その他の設立登記法人,兵庫県,姫路市,家島町宮４８－１,,28,201,6720102,,,,,,,2025-03-06,1,,,,,ルンバルンバ,0
173,1150003003521,新規,0,2025-03-06,2025-03-06,合同会社ＳＰＯＯＯＮ,,合同会社,奈良県,生駒市,東松ケ丘２番１７号酉島マンション２０２,,29,209,6300244,,,,,,,2025-03-06,1,,,,,スプーン,0
177,1160001026589,新規,0,2025-03-06,2025-03-06,株式会社ＪＰＦサーフ,,株式会社,滋賀県,草津市,大路１丁目１１番１４号フロント草津ビル５Ｆ,,25,206,5250032,,,,,,,2025-03-06,1,,,,,ジェイピーエフサーフ,0
187,1180005020966,新規,0,2025-03-06,2025-03-06,社会福祉法人ともいき,,その他の設立登記法人,愛知県,名古屋市熱田区,尾頭町３番１９号,,23,109,4560017,,,,,,,2025-03-06,1,,,,,トモイキ,0
190,1200001043497,新規,0,2025-03-06,2025-03-06,株式会社勝美ホールディングス,,株式会社,岐阜県,下呂市,湯之島５７０番地,,21,220,5092207,,,,,,,2025-03-06,1,,,,,カツミホールディングス,0
193,1230001020774,新規,0,2025-03-06,2025-03-06,株式会社ホブスロック,,株式会社,富山県,富山市,大場１３９番地２,,16,201,9398103,,,,,,,2025-03-06,1,,,,,ホブスロック,0
194,1230001020782,新規,0,2025-03-06,2025-03-06,ｃｈｅｒｉ株式会社,,株式会社,富山県,高岡市,下黒田１６８６‐１,,16,202,9330852,,,,,,,2025-03-06,1,,,,,シェリ,0
195,1230005009442,新規,0,2025-03-06,2025-03-06,農事組合法人下邑営農組合,,その他の設立登記法人,富山県,富山市,婦中町下邑２４７番地,,16,201,9392602,,,,,,,2025-03-06,1,,,,,シモムラエイノウクミアイ,0
198,1250001021028,新規,0,2025-03-06,2025-03-06,株式会社ＨＢキャリア,,株式会社,山口県,岩国市,今津町１丁目６番１号,,35,208,7400017,,,,,,,2025-03-06,1,,,,,エイチビーキャリア,0
200,1260003005085,新規,0,2025-03-06,2025-03-06,ＬＩＢＥＲＴＡＳ合同会社,,合同会社,岡山県,笠岡市,旭が丘１２３番地,,33,205,7140056,,,,,,,2025-03-06,1,,,,,リベルタス,0
201,1280001009367,新規,0,2025-03-06,2025-03-06,由志園ホールディングス株式会社,,株式会社,島根県,松江市,八束町波入１２６０番地の２,,32,201,6901404,,,,,,,2025-03-06,1,,,,,ユウシエンホールディングス,0
204,1290001109182,新規,0,2025-03-06,2025-03-06,株式会社リパワ,,株式会社,福岡県,福岡市中央区,高砂２丁目６番１５号ロマネスク渡辺通２－７０１,,40,133,8100011,,,,,,,2025-03-06,1,,,,,リパワ,0
206,1290801031321,新規,0,2025-03-06,2025-03-06,株式会社Ｒｅｘ,,株式会社,福岡県,北九州市八幡西区,陣原５丁目３番１号,,40,109,8070821,,,,,,,2025-03-06,1,,,,,レックス,0
207,1290801031338,新規,0,2025-03-06,2025-03-06,株式会社ＫＹＳ,,株式会社,福岡県,北九州市小倉北区,馬借１丁目１１番６号,,40,106,8020077,,,,,,,2025-03-06,1,,,,,ケイワイエス,0
208,1290803004985,新規,0,2025-03-06,2025-03-06,Ｓ‐Ｓｔｙｌｅ合同会社,,合同会社,福岡県,北九州市八幡西区,大字本城３４４３番地,,40,109,8070801,,,,,,,2025-03-06,1,,,,,エススタイル,0
213,1330003010879,新規,0,2025-03-06,2025-03-06,合同会社インテルナ,,合同会社,熊本県,熊本市東区,桜木５丁目１０番４０号シャンピア桜木東２０２,,43,102,8612101,,,,,,,2025-03-06,1,,,,,インテルナ,0
214,1340001027172,新規,0,2025-03-06,2025-03-06,株式会社ＳＩＮＲＩＮ,,株式会社,鹿児島県,姶良市,平松５４４６番地１,,46,225,8995652,,,,,,,2025-03-06,1,,,,,シンリン,0
215,1360001034852,新規,0,2025-03-06,2025-03-06,株式会社ＳＭＯホールディングス,,株式会社,沖縄県,糸満市,西崎町５丁目１０番地１６,,47,210,9010306,,,,,,,2025-03-06,1,,,,,エスエムオーホールディングス,0
216,1360001034860,新規,0,2025-03-06,2025-03-06,株式会社新里美菜子,,株式会社,沖縄県,うるま市,字田場７４１番地３,,47,213,9042213,,,,,,,2025-03-06,1,,,,,シンザトミナコ,0
217,1360001034877,新規,0,2025-03-06,2025-03-06,株式会社ティーダ,,株式会社,沖縄県,豊見城市,字高安５９７番地３プラザとよみ４０３号,,47,212,9010242,,,,,,,2025-03-06,1,,,,,ティーダ,0
218,1360003014737,新規,0,2025-03-06,2025-03-06,合同会社Ｈｉｖｅ,,合同会社,沖縄県,中頭郡読谷村,字楚辺１９２２番地１シーサイドマンション１０１,,47,324,9040304,,,,,,,2025-03-06,1,,,,,ハイブ,0
222,1370003006964,新規,0,2025-03-06,2025-03-06,ＴＫＫクリエイト合同会社,,合同会社,宮城県,仙台市太白区,茂庭台４丁目３番２－９０１号,,04,104,9820252,,,,,,,2025-03-06,1,,,,,ティーケーケークリエイト,0
230,1400001016961,新規,0,2025-03-06,2025-03-06,株式会社ＴＫ‐１,,株式会社,岩手県,八幡平市,平笠第１２地割１９２番地２,,03,214,0287113,,,,,,,2025-03-06,1,,,,,ティーケーワン,0
231,1400003003405,新規,0,2025-03-06,2025-03-06,アイ・エデュテインメント合同会社,,合同会社,岩手県,盛岡市,大沢川原３丁目５番２０号,,03,201,0200025,,,,,,,2025-03-06,1,,,,,アイエデュテインメント,0
232,1410001014080,新規,0,2025-03-06,2025-03-06,株式会社フジシマ,,株式会社,秋田県,北秋田市,坊沢字桐木沢７番地２,,05,213,0183333,,,,,,,2025-03-06,1,,,,,フジシマ,0
235,1410003004055,新規,0,2025-03-06,2025-03-06,合同会社昌,,合同会社,秋田県,秋田市,山王２丁目２番１２号全観ビル１,,05,201,0100951,,,,,,,2025-03-06,1,,,,,サカン,0
236,1420001019038,新規,0,2025-03-06,2025-03-06,株式会社名古屋住総,,株式会社,青森県,青森市,大字幸畑字阿部野１６３番地２３４,,02,201,0300943,,,,,,,2025-03-06,1,,,,,ナゴヤジュウソウ,0
240,1430001093825,新規,0,2025-03-06,2025-03-06,株式会社Ｍｙｓｉｇ,,株式会社,北海道,札幌市白石区,東米里２０４０番地２８,,01,104,0030876,,,,,,,2025-03-06,1,,,,,ミーシグ,0
241,1430001093841,新規,0,2025-03-06,2025-03-06,株式会社ｃｈｅｍｉｃａｌ　ｍｏｏｎ,,株式会社,北海道,札幌市中央区,南五条西１５丁目２－３－５０３,,01,101,0640805,,,,,,,2025-03-06,1,,,,,ケミカルムーン,0
243,1440001009573,新規,0,2025-03-06,2025-03-06,株式会社ＫＨ,,株式会社,北海道,函館市,松川町４３番１８号,,01,202,0400074,,,,,,,2025-03-06,1,,,,,ケイエイチ,0
244,1450001014548,新規,0,2025-03-06,2025-03-06,株式会社吉田住設,,株式会社,北海道,稚内市,緑５丁目１５番６号,,01,214,0970004,,,,,,,2025-03-06,1,,,,,ヨシダジュウセツ,0
249,1500001026182,新規,0,2025-03-06,2025-03-06,株式会社安否確認見守りセンター,,株式会社,愛媛県,松山市,大街道３丁目２番地３３,,38,201,7900004,,,,,,,2025-03-06,1,,,,,アンピカクニンミマモリセンター,0
252,1700150129451,新規,0,2025-03-06,2025-03-06,ＫＲＡＹ　ＴＲＡＤＩＮＧ　ＣＯＭＰＡＮＹ　ＰＶＴ　ＬＴＤ,,外国会社等,千葉県,夷隅郡大多喜町,下大多喜３２４５番地１オフィス７号,,12,441,2980202,スリランカ民主社会主義共和国、カルダウェラ、１ｓｔレーン、Ｎｏ．１５８／５０,,,,,,2025-03-06,1,,,,,クライトレーデイングカンパニープライベートリミテツド,0
262,2010001252802,新規,0,2025-03-06,2025-03-06,株式会社ＬＣ‐０１,,株式会社,東京都,千代田区,大手町１丁目６番１号,,13,101,1000004,,,,,,,2025-03-06,1,,,,,エルシーゼロイチ,0
263,2010001252819,新規,0,2025-03-06,2025-03-06,ＮＣＣＡＰ１‐３株式会社,,株式会社,東京都,千代田区,大手町１丁目３番１号,,13,101,1000004,,,,,,,2025-03-06,1,,,,,エヌシーキャップイチノサン,0
264,2010001252835,新規,0,2025-03-06,2025-03-06,株式会社ＫＳＦＲ１４,,株式会社,東京都,千代田区,内幸町２丁目１番６号,,13,101,1000011,,,,,,,2025-03-06,1,,,,,ケイエスエフアールフォーティーン,0
266,2010003046599,新規,0,2025-03-06,2025-03-06,リエネみどりファーム合同会社,,合同会社,東京都,中央区,京橋２丁目１２番６号ＡＯＪ税理士法人内,,13,102,1040031,,,,,,,2025-03-06,1,,,,,リエネミドリファーム,0
267,2010003046624,新規,0,2025-03-06,2025-03-06,合同会社スピカ,,合同会社,東京都,千代田区,二番町３番地麹町スクエア株式会社シリウス・アドバイザリー内,,13,101,1020084,,,,,,,2025-03-06,1,,,,,スピカ,0
268,2010003046640,新規,0,2025-03-06,2025-03-06,ＨＡリゾーツ合同会社,,合同会社,東京都,中央区,日本橋横山町３番１４号,,13,102,1030003,,,,,,,2025-03-06,1,,,,,エイチエーリゾーツ,0
269,2010101016545,新規,0,2025-03-06,2025-03-06,株式会社Ｐｉｎｏ,,株式会社,東京都,八王子市,中野上町４丁目３５番１８号,,13,201,1920041,,,,,,,2025-03-06,1,,,,,ピノ,0
274,2010401188613,新規,0,2025-03-06,2025-03-06,株式会社ｂｌｏｏｍ,,株式会社,東京都,港区,白金台３丁目２－７朝日白金台マンション５０６,,13,103,1080071,,,,,,,2025-03-06,1,,,,,ブルーム,0
275,2010401188662,新規,0,2025-03-06,2025-03-06,株式会社ＹＳ３,,株式会社,東京都,港区,麻布台１丁目２番１－２４０１号,,13,103,1060041,,,,,,,2025-03-06,1,,,,,ワイエススリー,0
276,2010401188695,新規,0,2025-03-06,2025-03-06,株式会社シリウススタジオ,,株式会社,東京都,港区,芝５丁目２６番２４号,,13,103,1080014,,,,,,,2025-03-06,1,,,,,シリウススタジオ,0
278,2010403034518,新規,0,2025-03-06,2025-03-06,合同会社ｙｏｗｎ,,合同会社,東京都,港区,高輪４丁目２３番６号ハイホーム高輪７０８,,13,103,1080074,,,,,,,2025-03-06,1,,,,,ヨウン,0
279,2010403034534,新規,0,2025-03-06,2025-03-06,合同会社ＴＯＰＭＥＤ,,合同会社,東京都,港区,西新橋１丁目７番５号,,13,103,1050003,,,,,,,2025-03-06,1,,,,,トップメド,0
280,2010403034542,新規,0,2025-03-06,2025-03-06,合同会社プライム３３号,,合同会社,東京都,港区,元麻布３丁目１－３４,,13,103,1060046,,,,,,,2025-03-06,1,,,,,プライムサンジュウサンゴウ,0
288,2010901056939,新規,0,2025-03-06,2025-03-06,株式会社推し活,,株式会社,東京都,世田谷区,奥沢１丁目１５番１４－１１２号,,13,112,1580083,,,,,,,2025-03-06,1,,,,,オシカツ,0
296,2011001168088,新規,0,2025-03-06,2025-03-06,株式会社Ｐｌａｙｆｕｌ　Ｗｏｒｌｄ,,株式会社,東京都,渋谷区,渋谷２丁目１９－１５宮益坂ビルディング６０９,,13,113,1500002,,,,,,,2025-03-06,1,,,,,プレイフルワールド,0
297,2011001168187,新規,0,2025-03-06,2025-03-06,株式会社サニー,,株式会社,東京都,渋谷区,広尾２丁目１３番６号ＡＲＫ３０１,,13,113,1500012,,,,,,,2025-03-06,1,,,,,サニー,0
298,2011001168278,新規,0,2025-03-06,2025-03-06,ジェイクロス株式会社,,株式会社,東京都,渋谷区,渋谷２丁目１９‐１５宮益坂ビルディング６０９,,13,113,1500002,,,,,,,2025-03-06,1,,,,,ジェイクロス,0
300,2011003021063,新規,0,2025-03-06,2025-03-06,合同会社ｅａｃｈ　Ｉ　ｓｔａｎｄａｒｄ,,合同会社,東京都,渋谷区,道玄坂１丁目１０番８号渋谷道玄坂東急ビル２Ｆ‐Ｃ,,13,113,1500043,,,,,,,2025-03-06,1,,,,,イーチアイスタンダード,0
301,2011003021096,新規,0,2025-03-06,2025-03-06,ＭＳＣ合同会社,,合同会社,東京都,渋谷区,渋谷２丁目１９－１５宮益坂ビルディング６０９,,13,113,1500002,,,,,,,2025-03-06,1,,,,,エムエスシー,0
302,2011003021138,新規,0,2025-03-06,2025-03-06,むすび合同会社,,合同会社,東京都,渋谷区,桜丘町８番１１号パークアクシス渋谷桜丘サウス４０１,,13,113,1500031,,,,,,,2025-03-06,1,,,,,ムスビ,0
303,2011101110874,新規,0,2025-03-06,2025-03-06,株式会社須藤陽平事務所,,株式会社,東京都,新宿区,西新宿３丁目５－１２トーカン新宿第２キャステール２０９号室,,13,104,1600023,,,,,,,2025-03-06,1,,,,,スドウヨウヘイジムショ,0
304,2011101110882,新規,0,2025-03-06,2025-03-06,株式会社ＮＯＶＡエンジニアリング,,株式会社,東京都,新宿区,新宿４丁目３－１５レイフラット新宿Ｂ棟３階,,13,104,1600022,,,,,,,2025-03-06,1,,,,,ノバエンジニアリング,0
305,2011103015618,新規,0,2025-03-06,2025-03-06,合同会社ＰＲｏｖｅＲ,,合同会社,東京都,新宿区,西新宿３丁目３番１３号西新宿水間ビル２Ｆ,,13,104,1600023,,,,,,,2025-03-06,1,,,,,プローヴァー,0
306,2011103015626,新規,0,2025-03-06,2025-03-06,ＴＡＮＡ合同会社,,合同会社,東京都,新宿区,百人町１丁目１５－１９－８Ｆ,,13,104,1690073,,,,,,,2025-03-06,1,,,,,タナ,0
307,2011301030402,新規,0,2025-03-06,2025-03-06,株式会社ＯＮＫＮ,,株式会社,東京都,杉並区,和泉１丁目２２番１９号,,13,115,1680063,,,,,,,2025-03-06,1,,,,,オーエヌケーエヌ,0
308,2011301030410,新規,0,2025-03-06,2025-03-06,好貝教育株式会社,,株式会社,東京都,杉並区,梅里２丁目２５番１３号高円寺プラザ２０３号－Ａ室,,13,115,1660011,,,,,,,2025-03-06,1,,,,,コウガイキョウイク,0
313,2011801045750,新規,0,2025-03-06,2025-03-06,株式会社ＮＯＲＩＫＩ,,株式会社,東京都,足立区,神明３丁目３０番２７号,,13,121,1210051,,,,,,,2025-03-06,1,,,,,ノリキ,0
317,2011803006718,新規,0,2025-03-06,2025-03-06,合同会社Ｃａｃａｏ９０ｐｅｒｃｅｎｔ,,合同会社,東京都,葛飾区,東堀切２丁目１－１５,,13,122,1240004,,,,,,,2025-03-06,1,,,,,カカオキュウジュッパーセント,0
320,2012401042857,新規,0,2025-03-06,2025-03-06,株式会社Ｄｏｎｕｔｓ,,株式会社,東京都,多摩市,関戸１丁目１１‐３桜ヶ丘プラザ２Ｆ,,13,224,2060011,,,,,,,2025-03-06,1,,,,,ドーナッツ,0
334,2020001161696,新規,0,2025-03-06,2025-03-06,ニイヤ株式会社,,株式会社,神奈川県,横浜市都筑区,川和町１４２８番地,,14,118,2240057,,,,,,,2025-03-06,1,,,,,ニイヤ,0
335,2020001161705,新規,0,2025-03-06,2025-03-06,株式会社赤坂興産,,株式会社,神奈川県,横浜市中区,長者町９丁目１４７番地２,,14,104,2310033,,,,,,,2025-03-06,1,,,,,アカサカコウサン,0
336,2020001161746,新規,0,2025-03-06,2025-03-06,宸曜株式会社,,株式会社,神奈川県,川崎市川崎区,大島１丁目５番３－３号,,14,131,2100834,,,,,,,2025-03-06,1,,,,,シンヨウ,0
337,2020001161762,新規,0,2025-03-06,2025-03-06,株式会社ＢＲＥＴ,,株式会社,神奈川県,横浜市青葉区,藤が丘１丁目３２番地２オークヒルズ６０３号,,14,117,2270043,,,,,,,2025-03-06,1,,,,,ブレット,0
339,2020003027937,新規,0,2025-03-06,2025-03-06,合同会社ｇａｔｏｒ,,合同会社,神奈川県,横浜市中区,桜木町１丁目１０１番地１クロスゲート７階,,14,104,2310062,,,,,,,2025-03-06,1,,,,,ゲイター,0
340,2020003027978,新規,0,2025-03-06,2025-03-06,合同会社オフィス菊池,,合同会社,神奈川県,横浜市南区,中里３丁目１１番１２号,,14,105,2320063,,,,,,,2025-03-06,1,,,,,オフィスキクチ,0
342,2021001084598,新規,0,2025-03-06,2025-03-06,株式会社ｅｖｏｌｖｅ,,株式会社,神奈川県,相模原市南区,上鶴間２丁目９番３８号カーサ・アネーロ２０４,,14,153,2520302,,,,,,,2025-03-06,1,,,,,エボルブ,0
343,2021001084623,新規,0,2025-03-06,2025-03-06,ＢＩＧＯＣＥＡＮ株式会社,,株式会社,神奈川県,相模原市南区,南台５丁目１０番１３号,,14,153,2520314,,,,,,,2025-03-06,1,,,,,ビッグオーシャン,0
348,2030001165192,新規,0,2025-03-06,2025-03-06,株式会社オガワリゾート,,株式会社,埼玉県,比企郡小川町,大字角山２６番地,,11,343,3550316,,,,,,,2025-03-06,1,,,,,オガワリゾート,0
349,2030001165218,新規,0,2025-03-06,2025-03-06,ｓｈｅｅｒ株式会社,,株式会社,埼玉県,幸手市,大字神扇１５２２番地５,,11,240,3400146,,,,,,,2025-03-06,1,,,,,シアー,0
350,2030001165226,新規,0,2025-03-06,2025-03-06,株式会社ＨＡ,,株式会社,埼玉県,八潮市,大字大瀬５３８番地１－２階,,11,234,3400822,,,,,,,2025-03-06,1,,,,,エイチエー,0
351,2030001165242,新規,0,2025-03-06,2025-03-06,株式会社五十嵐工務店,,株式会社,埼玉県,八潮市,大字浮塚１０９２番地１,,11,234,3400835,,,,,,,2025-03-06,1,,,,,イガラシコウムテン,0
352,2030001165259,新規,0,2025-03-06,2025-03-06,株式会社栗屋,,株式会社,埼玉県,春日部市,大枝４１４,,11,214,3440023,,,,,,,2025-03-06,1,,,,,クリヤ,0
356,2030003026269,新規,0,2025-03-06,2025-03-06,合同会社ＯＭＧ,,合同会社,埼玉県,さいたま市桜区,西堀６丁目１１番１号３０５,,11,106,3380832,,,,,,,2025-03-06,1,,,,,オーエムジー,0
361,2040001137645,新規,0,2025-03-06,2025-03-06,株式会社ＪＵＮ,,株式会社,千葉県,船橋市,三咲３丁目９番２２号,,12,204,2740812,,,,,,,2025-03-06,1,,,,,ジュン,0
362,2040001137686,新規,0,2025-03-06,2025-03-06,株式会社エレノア,,株式会社,千葉県,八千代市,勝田台１丁目４３番１３号,,12,221,2760023,,,,,,,2025-03-06,1,,,,,エレノア,0
363,2040001137694,新規,0,2025-03-06,2025-03-06,株式会社Ｒｅｍａｋｅ,,株式会社,千葉県,香取市,小見川４６５３番地２８,,12,236,2890313,,,,,,,2025-03-06,1,,,,,リメイク,0
368,2040003027019,新規,0,2025-03-06,2025-03-06,グッジョブ合同会社,,合同会社,千葉県,船橋市,高根台７丁目３３番１－２１２号,,12,204,2740065,,,,,,,2025-03-06,1,,,,,グッジョブ,0
370,2050001056258,新規,0,2025-03-06,2025-03-06,株式会社のうえ,,株式会社,茨城県,土浦市,下高津３丁目４－８岡野テナント２Ｒ号室,,08,203,3000812,,,,,,,2025-03-06,1,,,,,ノウエ,0
371,2050001056274,新規,0,2025-03-06,2025-03-06,株式会社カラビナ,,株式会社,茨城県,ひたちなか市,大字津田２６１３番地２,,08,221,3120032,,,,,,,2025-03-06,1,,,,,カラビナ,0
372,2050001056290,新規,0,2025-03-06,2025-03-06,株式会社ファーマーコイケ,,株式会社,茨城県,ひたちなか市,阿字ケ浦町８６０番地,,08,221,3111201,,,,,,,2025-03-06,1,,,,,ファーマーコイケ,0
377,2060001037959,新規,0,2025-03-06,2025-03-06,株式会社ＳｕｉＳｕｉ,,株式会社,栃木県,那須塩原市,下永田７丁目１０８２番地５４,,09,213,3292712,,,,,,,2025-03-06,1,,,,,スイスイ,0
378,2060001037967,新規,0,2025-03-06,2025-03-06,セキドヒッサン株式会社,,株式会社,栃木県,宇都宮市,桜３丁目１番２０号,,09,201,3200043,,,,,,,2025-03-06,1,,,,,セキドヒッサン,0
379,2060001037983,新規,0,2025-03-06,2025-03-06,株式会社Ｍａｎａ‐Ｂ,,株式会社,栃木県,日光市,矢野口１４４番地３,,09,206,3212356,,,,,,,2025-03-06,1,,,,,マナビー,0
382,2080003003404,新規,0,2025-03-06,2025-03-06,合同会社徠月徠央,,合同会社,静岡県,静岡市葵区,四番町１２番地の４,,22,101,4200074,,,,,,,2025-03-06,1,,,,,ウルキオ,0
387,2100003008020,新規,0,2025-03-06,2025-03-06,合同会社矢口屋,,合同会社,長野県,松本市,中央３丁目５番５号,,20,202,3900811,,,,,,,2025-03-06,1,,,,,ヤグチヤ,0
388,2100003008029,新規,0,2025-03-06,2025-03-06,合同会社ＯＣＴＯＶＡ,,合同会社,長野県,松本市,女鳥羽２丁目３番２６号グレイスコート女鳥羽１Ｆ,,20,202,3900806,,,,,,,2025-03-06,1,,,,,オクトーバ,0
395,2120001273218,新規,0,2025-03-06,2025-03-06,株式会社ワークスター,,株式会社,大阪府,門真市,ひえ島町１５番７号,,27,223,5710037,,,,,,,2025-03-06,1,,,,,ワークスター,0
396,2120001273374,新規,0,2025-03-06,2025-03-06,富海株式会社,,株式会社,大阪府,大阪市阿倍野区,阿倍野筋４丁目２３番２号,,27,119,5450052,,,,,,,2025-03-06,1,,,,,トノミ,0
397,2120001273473,新規,0,2025-03-06,2025-03-06,株式会社テイクホールディングス,,株式会社,大阪府,寝屋川市,木田元宮１丁目１８番５号,,27,215,5720822,,,,,,,2025-03-06,1,,,,,テイクホールディングス,0
398,2120001273515,新規,0,2025-03-06,2025-03-06,株式会社スイッチ,,株式会社,大阪府,枚方市,山之上北町５番１号サンエース山之上ビル３階,,27,210,5730049,,,,,,,2025-03-06,1,,,,,スイッチ,0
401,2120003028801,新規,0,2025-03-06,2025-03-06,ファング合同会社,,合同会社,大阪府,大阪市北区,梅田１丁目１－３大阪駅前第３ビル２９階１－１－１号室,,27,127,5300001,,,,,,,2025-03-06,1,,,,,ファング,0
404,2120101071208,新規,0,2025-03-06,2025-03-06,タイリンファーマ株式会社,,株式会社,大阪府,岸和田市,岸野町５番１２号,,27,202,5960051,,,,,,,2025-03-06,1,,,,,タイリンファーマ,0
407,2120903005569,新規,0,2025-03-06,2025-03-06,ＨＹＭホームサービス合同会社,,合同会社,大阪府,豊中市,服部南町４丁目３番１１の２号,,27,203,5610853,,,,,,,2025-03-06,1,,,,,エイチワイエムホームサービス,0
409,2122003003131,新規,0,2025-03-06,2025-03-06,合同会社コミュニティベースサポート,,合同会社,大阪府,東大阪市,高井田中１丁目１番２６号,,27,227,5770065,,,,,,,2025-03-06,1,,,,,コミュニティベースサポート,0
412,2130001079110,新規,0,2025-03-06,2025-03-06,株式会社Ｍ‐ＬＯＧＩ,,株式会社,京都府,京都市下京区,七条御所ノ内中町５１番地,,26,106,6008862,,,,,,,2025-03-06,1,,,,,エムロジ,0
413,2130001079119,新規,0,2025-03-06,2025-03-06,株式会社ＺＩＮ‐ＤＥＮ,,株式会社,京都府,京都市伏見区,久我東町２番地３６－Ｄ,,26,109,6128494,,,,,,,2025-03-06,1,,,,,ジンデン,0
414,2130005017306,新規,0,2025-03-06,2025-03-06,特定非営利活動法人あおのそら協会,,その他の設立登記法人,京都府,京都市右京区,山ノ内宮脇町１５番１クエスト御池２１２号室,,26,108,6150092,,,,,,,2025-03-06,1,,,,,アオノソラキョウカイ,0
416,2140001137610,新規,0,2025-03-06,2025-03-06,株式会社シティーライフ断熱,,株式会社,兵庫県,尼崎市,常吉２丁目１２番１号,,28,202,6610042,,,,,,,2025-03-06,1,,,,,シティーライフダンネツ,0
417,2140001137643,新規,0,2025-03-06,2025-03-06,株式会社Ｕ・ｃｏｎｎｅｃｔｉｏｎ,,株式会社,兵庫県,伊丹市,下河原２丁目１１番１１号,,28,207,6640832,,,,,,,2025-03-06,1,,,,,ユーコネクション,0
418,2140003021738,新規,0,2025-03-06,2025-03-06,合同会社一連,,合同会社,兵庫県,尼崎市,武庫之荘東２丁目３３－４,,28,202,6610032,,,,,,,2025-03-06,1,,,,,,0
419,2140003021746,新規,0,2025-03-06,2025-03-06,山岡運送合同会社,,合同会社,兵庫県,高砂市,米田町米田９２５番地の２高砂アーバンコンフォート３０７号,,28,216,6760805,,,,,,,2025-03-06,1,,,,,ヤマオカウンソウ,0
420,2150003003520,新規,0,2025-03-06,2025-03-06,合同会社よりごこち,,合同会社,奈良県,橿原市,川西町９２５－８,,29,205,6340826,,,,,,,2025-03-06,1,,,,,ヨリゴコチ,0
422,2160001026588,新規,0,2025-03-06,2025-03-06,株式会社庭龍,,株式会社,滋賀県,栗東市,川辺２１４番地１１,,25,208,5203014,,,,,,,2025-03-06,1,,,,,ニワリュウ,0
425,2180001165764,新規,0,2025-03-06,2025-03-06,株式会社ハヤシ工業,,株式会社,愛知県,丹羽郡扶桑町,大字高雄字海道田３２２－１,,23,362,4800102,,,,,,,2025-03-06,1,,,,,ハヤシコウギョウ,0
430,2180005020965,新規,0,2025-03-06,2025-03-06,特定非営利活動法人育ちあいネット,,その他の設立登記法人,愛知県,名古屋市守山区,小幡中２丁目２０番２２号,,23,113,4630013,,,,,,,2025-03-06,1,,,,,ソダチアイネット,0
432,2180301039585,新規,0,2025-03-06,2025-03-06,株式会社ベルクブレイズテック,,株式会社,愛知県,安城市,二本木新町２丁目９番地１０,,23,212,4460075,,,,,,,2025-03-06,1,,,,,ベルクブレイズテック,0
433,2180303006476,新規,0,2025-03-06,2025-03-06,合同会社大林鞄製作所,,合同会社,愛知県,豊川市,蔵子６丁目４番地７,,23,207,4420842,,,,,,,2025-03-06,1,,,,,オオバヤシカバンセイサクショ,0
434,2180305009667,新規,0,2025-03-06,2025-03-06,一般社団法人火‐Ｏｋｏｓｈｉ,,その他の設立登記法人,愛知県,豊橋市,花田町字中郷９２番地１１,,23,201,4418024,,,,,,,2025-03-06,1,,,,,ヒオコシ,0
441,2200001043496,新規,0,2025-03-06,2025-03-06,株式会社Ｈｐ,,株式会社,岐阜県,岐阜市,西川手５丁目１２３番地６,,21,201,5008258,,,,,,,2025-03-06,1,,,,,エイチピー,0
444,2220003003967,新規,0,2025-03-06,2025-03-06,合同会社アンレーヴ,,合同会社,石川県,河北郡津幡町,字北中条八号６６番地３,,17,361,9290342,,,,,,,2025-03-06,1,,,,,アンレーヴ,0
445,2230001020773,新規,0,2025-03-06,2025-03-06,株式会社ＹＡＭＡＴＯ,,株式会社,富山県,高岡市,高陵町３番４０号,,16,202,9330018,,,,,,,2025-03-06,1,,,,,ヤマト,0
446,2230001020781,新規,0,2025-03-06,2025-03-06,株式会社ＲＩＮＳＥＮ　ＰＬＡＮＴ　ＣＯＭＭＵＮＩＴＹ,,株式会社,富山県,南砺市,吉江野１９２番地２,,16,210,9391742,,,,,,,2025-03-06,1,,,,,リンセンプラントコミュニティー,0
450,2250001021027,新規,0,2025-03-06,2025-03-06,株式会社ショウエイ,,株式会社,山口県,下松市,南花岡５丁目３番２６号,,35,207,7440027,,,,,,,2025-03-06,1,,,,,ショウエイ,0
452,2260001039976,新規,0,2025-03-06,2025-03-06,岡山会計事務所株式会社,,株式会社,岡山県,倉敷市,宮前４１８－３,,33,202,7100065,,,,,,,2025-03-06,1,,,,,オカヤマカイケイジムショ,0
455,2280001009366,新規,0,2025-03-06,2025-03-06,株式会社やさかプロダクツ,,株式会社,島根県,浜田市,弥栄町木都賀イ５０６番地８,,32,202,6971122,,,,,,,2025-03-06,1,,,,,ヤサカプロダクツ,0
459,2290001109157,新規,0,2025-03-06,2025-03-06,エターナル・ハーモニー株式会社,,株式会社,福岡県,福岡市博多区,博多駅前２丁目１１－２２－３０７号室,,40,132,8120011,,,,,,,2025-03-06,1,,,,,エターナルハーモニー,0
460,2290001109165,新規,0,2025-03-06,2025-03-06,株式会社りのぴ,,株式会社,福岡県,福岡市博多区,博多駅前１丁目１５番２０号ＮＭＦ博多駅前ビル２階,,40,132,8120011,,,,,,,2025-03-06,1,,,,,リノピ,0
461,2290001109173,新規,0,2025-03-06,2025-03-06,株式会社大里,,株式会社,福岡県,嘉麻市,桑野２０５０番地１,,40,227,8200313,,,,,,,2025-03-06,1,,,,,オオサト,0
463,2290003016483,新規,0,2025-03-06,2025-03-06,合同会社Ｇｒａｎｓｓｉｒ,,合同会社,福岡県,福岡市博多区,吉塚５丁目１１番２４－５０６号リラス吉塚通り,00138237,40,132,8120041,,,,,,,2025-03-06,1,,,,,グランスィール,0
464,2290003016500,新規,0,2025-03-06,2025-03-06,合同会社Ｆｕｋｕｏｋａ　ｏｆｆｉｃｅ２５１,,合同会社,福岡県,福岡市中央区,大名１丁目９番５２号,,40,133,8100041,,,,,,,2025-03-06,1,,,,,フクオカオフィスニゴイチ,0
465,2290801031337,新規,0,2025-03-06,2025-03-06,グランズノリナ株式会社,,株式会社,福岡県,宮若市,龍徳３１番地４－２０１号,,40,226,8230001,,,,,,,2025-03-06,1,,,,,グランズノリナ,0
469,2310001019477,新規,0,2025-03-06,2025-03-06,株式会社Ｙｕ‐Ｍｅ,,株式会社,長崎県,諫早市,小川町３５３番地２,,42,204,8540053,,,,,,,2025-03-06,1,,,,,ユーミー,0
470,2320003004591,新規,0,2025-03-06,2025-03-06,リフォームおおいた合同会社,,合同会社,大分県,大分市,公園通り１丁目３番地の６,,44,201,8700173,,,,,,,2025-03-06,1,,,,,リフォームオオイタ,0
471,2330001032940,新規,0,2025-03-06,2025-03-06,株式会社Ｅｍｉｉｌｅ,,株式会社,熊本県,上益城郡益城町,大字広崎１５３４番地１（２０街区３画地２）,,43,443,8612236,,,,,,,2025-03-06,1,,,,,エミール,0
473,2330005010884,新規,0,2025-03-06,2025-03-06,医療法人定正会,,その他の設立登記法人,熊本県,熊本市東区,佐土原３丁目１１番７７号,,43,102,8620916,,,,,,,2025-03-06,1,,,,,ジョウセイカイ,0
474,2340001027163,新規,0,2025-03-06,2025-03-06,ＡＣＯＵ　ＳＰＩＲＩＴＳ株式会社,,株式会社,鹿児島県,指宿市,西方４６５７番地,,46,210,8910311,,,,,,,2025-03-06,1,,,,,アコウスピリッツ,0
480,2370001052324,新規,0,2025-03-06,2025-03-06,株式会社ＭＩＲＡＩ,,株式会社,宮城県,大崎市,三本木新沼字諏訪２番地８カーペンター奈須野Ａ－１,,04,215,9896315,,,,,,,2025-03-06,1,,,,,ミライ,0
481,2380003005980,新規,0,2025-03-06,2025-03-06,合同会社やまだｆａｒｍ,,合同会社,福島県,南会津郡下郷町,大字湯野上字大島乙６３番地,,07,362,9695206,,,,,,,2025-03-06,1,,,,,ヤマダファーム,0
484,2390003002358,新規,0,2025-03-06,2025-03-06,Ｆｌａｇｓｈｉｐ　Ｐａｒｔｎｅｒｓ合同会社,,合同会社,山形県,酒田市,緑ケ丘１丁目７－１３,,06,204,9980052,,,,,,,2025-03-06,1,,,,,フラッグシップパートナーズ,0
486,2390005009104,新規,0,2025-03-06,2025-03-06,さとう社会保険労務士法人,,その他の設立登記法人,山形県,鶴岡市,日和田町２１番３０号エスポ日和田ｈｉｌｌｓ　Ａ－２,,06,203,9970016,,,,,,,2025-03-06,1,,,,,サトウ,0
488,2410001014088,新規,0,2025-03-06,2025-03-06,株式会社リューテック,,株式会社,秋田県,大館市,比内町中野字上五日市９６番地,,05,204,0185722,,,,,,,2025-03-06,1,,,,,リューテック,0
489,2420001019045,新規,0,2025-03-06,2025-03-06,株式会社Ｓｔａｒｔｉｎｇ　Ｐｏｉｎｔ,,株式会社,青森県,弘前市,大字田園４丁目１番地１,,02,202,0368086,,,,,,,2025-03-06,1,,,,,スターティングポイント,0
491,2430001093816,新規,0,2025-03-06,2025-03-06,株式会社フジモリ果樹園,,株式会社,北海道,有珠郡壮瞥町,字滝之町４５５番地５,,01,575,0520101,,,,,,,2025-03-06,1,,,,,フジモリカジュエン,0
492,2430001093824,新規,0,2025-03-06,2025-03-06,株式会社ＳＯＡＲ,,株式会社,北海道,札幌市南区,石山東２丁目９－６９,,01,106,0050850,,,,,,,2025-03-06,1,,,,,ソアー,0
493,2430003017351,新規,0,2025-03-06,2025-03-06,合同会社北永,,合同会社,北海道,札幌市中央区,北十二条西２３丁目２番７号,,01,101,0600012,,,,,,,2025-03-06,1,,,,,ホクエイ,0
499,2700150129450,新規,0,2025-03-06,2025-03-06,ＯＣＥＡＮＴＩＤＥ　ＰＶＴ　ＬＴＤ,,外国会社等,千葉県,夷隅郡大多喜町,下大多喜３２４５番地１オフィス７号,,12,441,2980202,スリランカ民主社会主義共和国、キャンディ、カトゥガストタ、マタレロード、Ｎｏ．２００／５,,,,,,2025-03-06,1,,,,,オーシヤンタイドプライベートリミテツド,0
504,3010001252818,新規,0,2025-03-06,2025-03-06,株式会社Ｋｉｒａｎａｈ＆Ｓａｌｔ　ｗｅｌｌｖｅｓｔ,,株式会社,東京都,千代田区,丸の内１丁目１１番１号,,13,101,1000005,,,,,,,2025-03-06,1,,,,,キラナアンドソルトウェルベスト,0
505,3010001252850,新規,0,2025-03-06,2025-03-06,株式会社Ｌｉｂｅｃｃｉｏ,,株式会社,東京都,中央区,銀座３丁目３番地１２号銀座ビルディングＢ１Ｆ,,13,102,1040061,,,,,,,2025-03-06,1,,,,,リベッチョ,0
506,3010001252909,新規,0,2025-03-06,2025-03-06,高速マリン・トランスポート２株式会社,,株式会社,東京都,千代田区,内幸町２丁目１番１号,,13,101,1000011,,,,,,,2025-03-06,1,,,,,コウソクマリントランスポートツー,0
507,3010003046598,新規,0,2025-03-06,2025-03-06,前津蓄電所合同会社,,合同会社,東京都,中央区,京橋２丁目１２番６号ＡＯＪ税理士法人内,,13,102,1040031,,,,,,,2025-03-06,1,,,,,マエヅチクデンショ,0
508,3010003046623,新規,0,2025-03-06,2025-03-06,合同会社オリオン,,合同会社,東京都,千代田区,二番町３番地麹町スクエア株式会社シリウス・アドバイザリー内,,13,101,1020084,,,,,,,2025-03-06,1,,,,,オリオン,0
509,3010003046648,新規,0,2025-03-06,2025-03-06,合同会社ＳＨＯＳＨＡ,,合同会社,東京都,中央区,日本橋茅場町３丁目９－６－１１０１,,13,102,1030025,,,,,,,2025-03-06,1,,,,,ショウシャ,0
510,3010005039708,新規,0,2025-03-06,2025-03-06,一般社団法人福島いわきソーラー,,その他の設立登記法人,東京都,千代田区,二番町３番地麹町スクエア株式会社シリウス・アドバイザリー内,,13,101,1020084,,,,,,,2025-03-06,1,,,,,フクシマイワキソーラー,0
513,3010401188678,新規,0,2025-03-06,2025-03-06,株式会社ｉｍｐ,,株式会社,東京都,港区,赤坂５丁目２番３３－５０２号,,13,103,1070052,,,,,,,2025-03-06,1,,,,,アイエムピー,0
516,3010403034541,新規,0,2025-03-06,2025-03-06,合同会社プライム３２号,,合同会社,東京都,港区,元麻布３丁目１－３４,,13,103,1060046,,,,,,,2025-03-06,1,,,,,プライムサンジュウニゴウ,0
517,3010403034558,新規,0,2025-03-06,2025-03-06,合同会社ＩＫＬ,,合同会社,東京都,港区,虎ノ門５丁目３番２０号株式会社アカウンティング・マネジメント・サービス内,,13,103,1050001,,,,,,,2025-03-06,1,,,,,アイケーエル,0
519,3010501053740,新規,0,2025-03-06,2025-03-06,株式会社江戸さくら,,株式会社,東京都,台東区,下谷３丁目２番１３号,,13,106,1100004,,,,,,,2025-03-06,1,,,,,エドサクラ,0
520,3010601066898,新規,0,2025-03-06,2025-03-06,彦雄株式会社,,株式会社,東京都,江東区,亀戸３丁目６２番１０号４０８号室,,13,108,1360071,,,,,,,2025-03-06,1,,,,,ヒコオ,0
521,3010603011415,新規,0,2025-03-06,2025-03-06,インフィニットツリー合同会社,,合同会社,東京都,江東区,東陽３丁目１４番１０号リバーサイド東陽４０２号室,,13,108,1350016,,,,,,,2025-03-06,1,,,,,インフィニットツリー,0
522,3010801035901,新規,0,2025-03-06,2025-03-06,株式会社ｗｉｔｈ　ＣＡＲＡＶＡＮ,,株式会社,東京都,大田区,東雪谷１丁目２５番１１号洗足ハウス１０１,,13,111,1450065,,,,,,,2025-03-06,1,,,,,ウィズキャラバン,0
523,3010803005308,新規,0,2025-03-06,2025-03-06,ＨＴＳ合同会社,,合同会社,東京都,大田区,南蒲田３丁目１番４－３０２号,,13,111,1440035,,,,,,,2025-03-06,1,,,,,エイチティーエス,0
525,3010901056938,新規,0,2025-03-06,2025-03-06,株式会社ハイステージ,,株式会社,東京都,世田谷区,玉川１丁目１５番２号二子玉川ライズタワーイースト１９１０,,13,112,1580094,,,,,,,2025-03-06,1,,,,,ハイステージ,0
526,3010903009753,新規,0,2025-03-06,2025-03-06,合同会社チェンジ,,合同会社,東京都,世田谷区,太子堂４丁目１８番１５号マガザン三軒茶屋２・３Ｆ－３,,13,112,1540004,,,,,,,2025-03-06,1,,,,,,0
527,3010903009761,新規,0,2025-03-06,2025-03-06,宝町合同会社,,合同会社,東京都,世田谷区,松原４丁目２番１３号メゾンＭ１０１,,13,112,1560043,,,,,,,2025-03-06,1,,,,,タカラマチ,0
528,3010905004744,新規,0,2025-03-06,2025-03-06,医療法人社団香桜会,,その他の設立登記法人,東京都,世田谷区,桜丘２丁目２７番１４号メディカルタワー千歳船橋１階,,13,112,1560054,,,,,,,2025-03-06,1,,,,,カオウカイ,0
534,3011001168079,新規,0,2025-03-06,2025-03-06,エマージファイ株式会社,,株式会社,東京都,渋谷区,道玄坂１丁目１０番８号渋谷道玄坂東急ビル２Ｆ－Ｃ,,13,113,1500043,,,,,,,2025-03-06,1,,,,,エマージファイ,0
536,3011101110774,新規,0,2025-03-06,2025-03-06,株式会社マジオフードサービス,,株式会社,東京都,新宿区,新宿５丁目１７番５号,,13,104,1600022,,,,,,,2025-03-06,1,,,,,マジオフードサービス,0
537,3011103015609,新規,0,2025-03-06,2025-03-06,合同会社ＳＴＡＲＴＵＰ,,合同会社,東京都,新宿区,西新宿３丁目３番１３号西新宿水間ビル２Ｆ,,13,104,1600023,,,,,,,2025-03-06,1,,,,,スタートアップ,0
539,3011301030401,新規,0,2025-03-06,2025-03-06,株式会社ＧｒｅｅｎＩｄｅａ,,株式会社,東京都,杉並区,久我山５丁目１１番１５－３０５号,,13,115,1680082,,,,,,,2025-03-06,1,,,,,グリニディア,0
546,3011703004151,新規,0,2025-03-06,2025-03-06,合同会社ＴｏｋｕＰｌａｎｎｉｎｇ,,合同会社,東京都,江戸川区,東小松川２丁目２０‐１２,,13,123,1320033,,,,,,,2025-03-06,1,,,,,トクプランニング,0
547,3011801045733,新規,0,2025-03-06,2025-03-06,株式会社ＤＸＡＩソリューションズ,,株式会社,東京都,葛飾区,金町６丁目２番１－２６１０号,,13,122,1250042,,,,,,,2025-03-06,1,,,,,ディーエックスエーアイソリューションズ,0
548,3011801045741,新規,0,2025-03-06,2025-03-06,株式会社オーサムコネクション,,株式会社,東京都,葛飾区,新小岩１丁目４２番１２号,,13,122,1240024,,,,,,,2025-03-06,1,,,,,オーサムコネクション,0
549,3011801045758,新規,0,2025-03-06,2025-03-06,株式会社ヒトノバ,,株式会社,東京都,葛飾区,小菅４丁目２１番３５号メゾンＳＥＩＷＡ３０５,,13,122,1240001,,,,,,,2025-03-06,1,,,,,ヒトノバ,0
550,3011803006717,新規,0,2025-03-06,2025-03-06,合同会社Ｓ＆Ｈ,,合同会社,東京都,足立区,入谷５丁目５番１７号,,13,121,1210836,,,,,,,2025-03-06,1,,,,,エスアンドエイチ,0
551,3012403007007,新規,0,2025-03-06,2025-03-06,合同会社Ｌｉｌｙ,,合同会社,東京都,狛江市,和泉本町１丁目２－１９－２０２,,13,219,2010003,,,,,,,2025-03-06,1,,,,,リリー,0
552,3012405005082,新規,0,2025-03-06,2025-03-06,医療法人社団誠楓会,,その他の設立登記法人,東京都,多摩市,鶴牧１丁目２２番地２多摩メディカルビルディング２階,,13,224,2060034,,,,,,,2025-03-06,1,,,,,セイフウカイ,0
553,3012701018738,新規,0,2025-03-06,2025-03-06,株式会社Ｍａａｋ,,株式会社,東京都,東村山市,本町３丁目３７－１０,,13,213,1890014,,,,,,,2025-03-06,1,,,,,マーク,0
554,3012803003646,新規,0,2025-03-06,2025-03-06,澄和創藝合同会社,,合同会社,東京都,国分寺市,日吉町２丁目３４番地１４－２－Ｇ号室,,13,214,1850032,,,,,,,2025-03-06,1,,,,,チョウワソウゲイ,0
560,3020001161638,新規,0,2025-03-06,2025-03-06,Ｒｅｓａｇｅ株式会社,,株式会社,神奈川県,横浜市中区,扇町１丁目１－２５,,14,104,2310027,,,,,,,2025-03-06,1,,,,,リサージ,0
561,3020001161695,新規,0,2025-03-06,2025-03-06,株式会社ＥＮＪＯＹＩＮＧ　ＬＩＦＥ,,株式会社,神奈川県,川崎市多摩区,中野島６丁目２９番５－８０７号,,14,135,2140012,,,,,,,2025-03-06,1,,,,,エンジョイングライフ,0
562,3020001161712,新規,0,2025-03-06,2025-03-06,株式会社トシキ,,株式会社,神奈川県,川崎市幸区,塚越１丁目６０番地４７,,14,132,2120024,,,,,,,2025-03-06,1,,,,,トシキ,0
564,3021001084614,新規,0,2025-03-06,2025-03-06,株式会社Ｌａｚｏ,,株式会社,神奈川県,横須賀市,池田町６丁目４番１４号,,14,201,2390806,,,,,,,2025-03-06,1,,,,,ラソ,0
576,3030001165175,新規,0,2025-03-06,2025-03-06,株式会社フリースタイル,,株式会社,埼玉県,北葛飾郡杉戸町,大字目沼３６４番地１９,,11,464,3450005,,,,,,,2025-03-06,1,,,,,フリースタイル,0
577,3030001165191,新規,0,2025-03-06,2025-03-06,株式会社ＲＳＵ,,株式会社,埼玉県,児玉郡上里町,大字七本木２９９３番地１,,11,385,3690306,,,,,,,2025-03-06,1,,,,,アールエスユー,0
578,3030001165209,新規,0,2025-03-06,2025-03-06,株式会社トリプルアーク,,株式会社,埼玉県,さいたま市北区,宮原町１丁目１８４番地１,,11,102,3310812,,,,,,,2025-03-06,1,,,,,トリプルアーク,0
579,3030001165241,新規,0,2025-03-06,2025-03-06,株式会社８６９,,株式会社,埼玉県,川口市,金山町３番１５号井ノ浦ビル２Ｆ,,11,203,3320014,,,,,,,2025-03-06,1,,,,,ハルク,0
585,3030003026210,新規,0,2025-03-06,2025-03-06,合同会社ＮｅＸｕｓ　ＡＩ,,合同会社,埼玉県,川口市,大字石神３４１番地の１８,,11,203,3330823,,,,,,,2025-03-06,1,,,,,ネクサスエーアイ,0
589,3040001137677,新規,0,2025-03-06,2025-03-06,梨の石井園株式会社,,株式会社,千葉県,鎌ケ谷市,初富２１９番地,,12,224,2730121,,,,,,,2025-03-06,1,,,,,ナシノイシイエン,0
590,3040001137685,新規,0,2025-03-06,2025-03-06,株式会社ＳｔｅｌｌａＳ,,株式会社,千葉県,船橋市,藤原１丁目２７番３０号,,12,204,2730047,,,,,,,2025-03-06,1,,,,,ステラス,0
593,3040003027018,新規,0,2025-03-06,2025-03-06,合同会社エクリプス２,,合同会社,千葉県,船橋市,西船６丁目６番４１－３０６号,,12,204,2730031,,,,,,,2025-03-06,1,,,,,エクリプスツー,0
595,3050001056257,新規,0,2025-03-06,2025-03-06,明和株式会社,,株式会社,茨城県,稲敷市,中山４３７７－２４きくちテナント２０１号室,,08,229,3001415,,,,,,,2025-03-06,1,,,,,メイワ,0
596,3050001056273,新規,0,2025-03-06,2025-03-06,株式会社セブンフィッシュホールディングス,,株式会社,茨城県,水戸市,水府町１２８５番地の４,,08,201,3100005,,,,,,,2025-03-06,1,,,,,セブンフィッシュホールディングス,0
597,3050001056298,新規,0,2025-03-06,2025-03-06,株式会社ロードウェイ,,株式会社,茨城県,常総市,古間木１５８５－３,,08,211,3002724,,,,,,,2025-03-06,1,,,,,ロードウェイ,0
599,3050003009089,新規,0,2025-03-06,2025-03-06,合同会社ＫＳＭプランニング,,合同会社,茨城県,取手市,戸頭２丁目４０番１３号,,08,217,3020034,,,,,,,2025-03-06,1,,,,,ケーエスエムプランニング,0
601,3060001037982,新規,0,2025-03-06,2025-03-06,株式会社ツタヤ商店,,株式会社,栃木県,小山市,大字横倉新田５－１２８,,09,208,3230819,,,,,,,2025-03-06,1,,,,,ツタヤショウテン,0
605,3080001026793,新規,0,2025-03-06,2025-03-06,株式会社しずおかフィールドマスター,,株式会社,静岡県,静岡市清水区,高橋２丁目１２番４３号２０１,,22,103,4240041,,,,,,,2025-03-06,1,,,,,シズオカフィールドマスター,0
621,3120001273373,新規,0,2025-03-06,2025-03-06,株式会社タカヤマ建装,,株式会社,大阪府,大阪市淀川区,十八条３丁目１４番１５－２１０号,,27,123,5320001,,,,,,,2025-03-06,1,,,,,タカヤマケンソウ,0
622,3120001273415,新規,0,2025-03-06,2025-03-06,伊騰株式会社,,株式会社,大阪府,大阪市東淀川区,豊里２丁目１１番５８号木元ハイツ３２０号室,,27,114,5330013,,,,,,,2025-03-06,1,,,,,イトウ,0
623,3120001273431,新規,0,2025-03-06,2025-03-06,株式会社ＦＵＫＡＮ,,株式会社,大阪府,大阪市西区,江戸堀１丁目８番２０号,,27,106,5500002,,,,,,,2025-03-06,1,,,,,フカン,0
624,3120001273448,新規,0,2025-03-06,2025-03-06,株式会社Ｍａｒｙ,,株式会社,大阪府,大阪市北区,曾根崎２丁目１５番１６号,,27,127,5300057,,,,,,,2025-03-06,1,,,,,マリー,0
625,3120001273456,新規,0,2025-03-06,2025-03-06,株式会社楷然,,株式会社,大阪府,大阪市西成区,萩之茶屋１丁目１２番７号５階１０３室,,27,122,5570004,,,,,,,2025-03-06,1,,,,,カイゼン,0
626,3120001273464,新規,0,2025-03-06,2025-03-06,株式会社Ａｒａｘ,,株式会社,大阪府,大阪市生野区,巽北３丁目１５番２６号タツミ第６ハイツ１１１号,00138224,27,116,5440004,,,,,,,2025-03-06,1,,,,,アラックス,0
629,3120101071173,新規,0,2025-03-06,2025-03-06,株式会社ｅｎｉｓｈｉ‐ｃｏｒｐｏｒａｔｉｏｎ,,株式会社,大阪府,泉南郡岬町,淡輪９１２番地の３,,27,366,5990301,,,,,,,2025-03-06,1,,,,,エニシコーポレーション,0
630,3120101071207,新規,0,2025-03-06,2025-03-06,株式会社石神,,株式会社,大阪府,堺市堺区,栄橋町２丁３番１５号,,27,141,5900971,,,,,,,2025-03-06,1,,,,,イシガミ,0
635,3122001038946,新規,0,2025-03-06,2025-03-06,ＭＩＤトレーディング株式会社,,株式会社,大阪府,東大阪市,小阪本町２丁目１２番２号,,27,227,5770802,,,,,,,2025-03-06,1,,,,,エムアイディートレーディング,0
637,3130001079118,新規,0,2025-03-06,2025-03-06,ＦＰ事務所ベルエキップ株式会社,,株式会社,京都府,京都市中京区,小川通蛸薬師上る元本能寺町３８２Ｍ／Ｂビル２ＦＵ４Ｄ号室,,26,104,6048244,,,,,,,2025-03-06,1,,,,,エフピージムショベルエキップ,0
638,3130001079134,新規,0,2025-03-06,2025-03-06,株式会社スミカ,,株式会社,京都府,京都市中京区,柳水町７２－４０１,,26,104,6048242,,,,,,,2025-03-06,1,,,,,スミカ,0
639,3130003010245,新規,0,2025-03-06,2025-03-06,Ｌｉｂｅｎｓ合同会社,,合同会社,京都府,木津川市,南加茂台３丁目４番地７,,26,214,6191127,,,,,,,2025-03-06,1,,,,,リーベンス,0
642,3140001137642,新規,0,2025-03-06,2025-03-06,株式会社三栄堂,,株式会社,兵庫県,西宮市,津門呉羽町７番９号,,28,204,6638245,,,,,,,2025-03-06,1,,,,,サンエイドウ,0
645,3140005027393,新規,0,2025-03-06,2025-03-06,一般社団法人サンライズ,,その他の設立登記法人,兵庫県,淡路市,岩屋２９４２番地２８,,28,226,6562401,,,,,,,2025-03-06,1,,,,,サンライズ,0
646,3150001027917,新規,0,2025-03-06,2025-03-06,株式会社セガワ繊維,,株式会社,奈良県,大和高田市,大字大谷１９８番地,,29,202,6350076,,,,,,,2025-03-06,1,,,,,セガワセンイ,0
652,3160003003411,新規,0,2025-03-06,2025-03-06,合同会社サンクレバー,,合同会社,滋賀県,野洲市,北比江５７番地２,,25,210,5202436,,,,,,,2025-03-06,1,,,,,サンクレバー,0
655,3180001165755,新規,0,2025-03-06,2025-03-06,明貴設備株式会社,,株式会社,愛知県,半田市,乙川稗田町１２８番地の１空ＳｋｙＶｉｌｌａｇｅ３０１,,23,205,4750048,,,,,,,2025-03-06,1,,,,,メイキセツビ,0
656,3180001165771,新規,0,2025-03-06,2025-03-06,株式会社ＴＣクラス,,株式会社,愛知県,東海市,名和町焼山１番地の８,,23,222,4760002,,,,,,,2025-03-06,1,,,,,ティーシークラス,0
657,3180003028084,新規,0,2025-03-06,2025-03-06,合同会社ｓｔｕｄｉｏ．ｍ,,合同会社,愛知県,名古屋市中区,栄１丁目２４番１１号（タワー・ザ・ファースト名古屋栄７０６号）,,23,106,4600008,,,,,,,2025-03-06,1,,,,,スタジオエム,0
658,3180005020964,新規,0,2025-03-06,2025-03-06,一般財団法人環境ｅ技術開発研究所,,その他の設立登記法人,愛知県,常滑市,大谷字鴨８０番地の３,,23,216,4790806,,,,,,,2025-03-06,1,,,,,カンキョウイーギジュツカイハツケンキュウジョ,0
659,3180301039568,新規,0,2025-03-06,2025-03-06,和光プロスパリティ株式会社,,株式会社,愛知県,西尾市,平坂町梨子山３５番地６,,23,213,4440305,,,,,,,2025-03-06,1,,,,,ワコウプロスパリティ,0
660,3180301039576,新規,0,2025-03-06,2025-03-06,ＣＯＲＥ３３株式会社,,株式会社,愛知県,豊橋市,牧野町１２１番地１,,23,201,4418112,,,,,,,2025-03-06,1,,,,,コアサンジュウサン,0
661,3180301039584,新規,0,2025-03-06,2025-03-06,ヴィレッジ株式会社,,株式会社,愛知県,岡崎市,福岡町字久後４６番地６,,23,202,4440825,,,,,,,2025-03-06,1,,,,,ヴィレッジ,0
665,3200001043495,新規,0,2025-03-06,2025-03-06,株式会社イワタ,,株式会社,岐阜県,郡上市,明宝畑佐５４５番地,,21,219,5014306,,,,,,,2025-03-06,1,,,,,イワタ,0
666,3210001020089,新規,0,2025-03-06,2025-03-06,株式会社維優,,株式会社,福井県,福井市,米松１丁目１１番１９号,,18,201,9100851,,,,,,,2025-03-06,1,,,,,イユウ,0
670,3230001020772,新規,0,2025-03-06,2025-03-06,株式会社四津,,株式会社,富山県,高岡市,佐野１４７番地１,,16,202,9330826,,,,,,,2025-03-06,1,,,,,ヨツ,0
671,3230001020780,新規,0,2025-03-06,2025-03-06,新湊まちなかデザイン株式会社,,株式会社,富山県,射水市,作道７５１番地１,,16,211,9340042,,,,,,,2025-03-06,1,,,,,シンミナトマチナカデザイン,0
676,3240001064612,新規,0,2025-03-06,2025-03-06,株式会社Ｘ　ＢＩＴ,,株式会社,広島県,広島市西区,観音町５番３１号ＭＫビル３Ｆ,,34,104,7330031,,,,,,,2025-03-06,1,,,,,テンビット,0
677,3250001021026,新規,0,2025-03-06,2025-03-06,株式会社侑建設,,株式会社,山口県,防府市,今市町１９番１５号,,35,206,7470042,,,,,,,2025-03-06,1,,,,,ユウケンセツ,0
678,3250003003666,新規,0,2025-03-06,2025-03-06,合同会社ＶＩＭＯ,,合同会社,山口県,美祢市,於福町下１１６３番地,,35,213,7592302,,,,,,,2025-03-06,1,,,,,ヴィモ,0
680,3260001039967,新規,0,2025-03-06,2025-03-06,株式会社みまさかフード,,株式会社,岡山県,美作市,美来１番地,,33,215,7070017,,,,,,,2025-03-06,1,,,,,ミマサカフード,0
681,3260001039975,新規,0,2025-03-06,2025-03-06,まびの里山田農園株式会社,,株式会社,岡山県,倉敷市,真備町岡田５６６番地２,,33,202,7101311,,,,,,,2025-03-06,1,,,,,マビノサトヤマダノウエン,0
682,3260001039983,新規,0,2025-03-06,2025-03-06,ＤＡＩＣＨＩ株式会社,,株式会社,岡山県,赤磐市,桜が丘東６丁目６番地５７３,,33,213,7090721,,,,,,,2025-03-06,1,,,,,ダイチ,0
686,3290001109164,新規,0,2025-03-06,2025-03-06,なかむら不動産株式会社,,株式会社,福岡県,久留米市,上津２丁目１番３６－３号,,40,203,8300055,,,,,,,2025-03-06,1,,,,,ナカムラフドウサン,0
687,3290001109172,新規,0,2025-03-06,2025-03-06,＿川株式会社,00138227,株式会社,福岡県,福岡市博多区,博多駅前４丁目１４番２０－５０１号,,40,132,8120011,,,,,,,2025-03-06,1,,,,,シンカワ,0
688,3290001109180,新規,0,2025-03-06,2025-03-06,株式会社ピークスホールディングス,,株式会社,福岡県,福岡市南区,大楠３丁目２１番５号,,40,134,8150082,,,,,,,2025-03-06,1,,,,,ピークスホールディングス,0
689,3290001109197,新規,0,2025-03-06,2025-03-06,株式会社Ｃａｔａｌｉｓ,,株式会社,福岡県,大野城市,仲畑４丁目２４番３号,,40,219,8160921,,,,,,,2025-03-06,1,,,,,,0
690,3290001109206,新規,0,2025-03-06,2025-03-06,株式会社ＦｏｒｔｕｎａＬｉｎｋ,,株式会社,福岡県,福岡市中央区,天神４丁目１番１８号サンビル２１１号室,,40,133,8100001,,,,,,,2025-03-06,1,,,,,フォルトゥナリンク,0
691,3290001109214,新規,0,2025-03-06,2025-03-06,株式会社ＴＫＮ　ｐｒｏｊｅｃｔ,,株式会社,福岡県,福岡市東区,香住ヶ丘２丁目５番４号,,40,131,8130003,,,,,,,2025-03-06,1,,,,,ティーケーエヌプロジェクト,0
692,3290001109222,新規,0,2025-03-06,2025-03-06,株式会社ＴＯＹＡ,,株式会社,福岡県,福岡市中央区,今泉２丁目２番１号,,40,133,8100021,,,,,,,2025-03-06,1,,,,,トヤ,0
693,3290003016490,新規,0,2025-03-06,2025-03-06,中園コンサルティング合同会社,,合同会社,福岡県,久留米市,津福今町４８０番地１１２,,40,203,8300061,,,,,,,2025-03-06,1,,,,,ナカゾノコンサルティング,0
694,3290003016499,新規,0,2025-03-06,2025-03-06,合同会社ＨＳＳ,,合同会社,福岡県,福岡市東区,香椎駅前２丁目１４番５号日野ビル２Ｆ,,40,131,8130013,,,,,,,2025-03-06,1,,,,,エイチエスエス,0
701,3300003002233,新規,0,2025-03-06,2025-03-06,合同会社ＧＭＴ,,合同会社,佐賀県,唐津市,和多田海士町３番１８号,,41,202,8470071,,,,,,,2025-03-06,1,,,,,ジーエムティー,0
702,3310001019484,新規,0,2025-03-06,2025-03-06,株式会社サイハ,,株式会社,長崎県,南島原市,深江町丙８番地３,,42,214,8591503,,,,,,,2025-03-06,1,,,,,サイハ,0
704,3340001027154,新規,0,2025-03-06,2025-03-06,株式会社ショウブ建設,,株式会社,鹿児島県,鹿屋市,西原２丁目３４番１号,,46,203,8930064,,,,,,,2025-03-06,1,,,,,ショウブケンセツ,0
705,3340001027170,新規,0,2025-03-06,2025-03-06,株式会社いずも,,株式会社,鹿児島県,鹿児島市,東佐多町１１９番地,,46,201,8911302,,,,,,,2025-03-06,1,,,,,イズモ,0
709,3350003004860,新規,0,2025-03-06,2025-03-06,合同会社五峰,,合同会社,宮崎県,西臼杵郡高千穂町,大字岩戸１５０１番地,,45,441,8821621,,,,,,,2025-03-06,1,,,,,ゴホウ,0
710,3360001034859,新規,0,2025-03-06,2025-03-06,龍湊丸株式会社,,株式会社,沖縄県,糸満市,字糸満９８９番地７４,,47,210,9010361,,,,,,,2025-03-06,1,,,,,リュウソウマル,0
711,3360001034875,新規,0,2025-03-06,2025-03-06,株式会社幸縁,,株式会社,沖縄県,那覇市,古波蔵３丁目１５番８号,,47,201,9000024,,,,,,,2025-03-06,1,,,,,コウエン,0
713,3370001052331,新規,0,2025-03-06,2025-03-06,株式会社ＨＡＭＹ,,株式会社,宮城県,仙台市若林区,若林２丁目４番１５号,,04,103,9840826,,,,,,,2025-03-06,1,,,,,アミー,0
719,3420001019044,新規,0,2025-03-06,2025-03-06,株式会社ＣＡＲＰＥＮＴＥＲ,,株式会社,青森県,北津軽郡中泊町,大字深郷田字甘木１４０番地９８,,02,387,0370308,,,,,,,2025-03-06,1,,,,,カーペンター,0
720,3420003003079,新規,0,2025-03-06,2025-03-06,合同会社山崎商事,00138229,合同会社,青森県,八戸市,南郷大字市野沢字市野沢４１番地,,02,203,0310111,,,,,,,2025-03-06,1,,,,,ヤマザキショウジ,0
726,3480001012761,新規,0,2025-03-06,2025-03-06,株式会社阿部商運,,株式会社,徳島県,板野郡上板町,七條字中井手３２番地１,,36,405,7711302,,,,,,,2025-03-06,1,,,,,アベショウウン,0
732,3500001026172,新規,0,2025-03-06,2025-03-06,株式会社Ｌａｎｄ　ｖｉｅｗ,,株式会社,愛媛県,四国中央市,妻鳥町１５２０番地１,,38,213,7990113,,,,,,,2025-03-06,1,,,,,ランドビュー,0
734,3500003003450,新規,0,2025-03-06,2025-03-06,合同会社ｓｉｃｉｌｙ,,合同会社,愛媛県,喜多郡内子町,内子２６３７,,38,422,7913301,,,,,,,2025-03-06,1,,,,,シシリー,0
748,4010001252759,新規,0,2025-03-06,2025-03-06,航寧株式会社,,株式会社,東京都,中央区,晴海５丁目５－６,,13,102,1040053,,,,,,,2025-03-06,1,,,,,コウネイ,0
749,4010001252817,新規,0,2025-03-06,2025-03-06,トライポット株式会社,,株式会社,東京都,中央区,晴海５丁目３番３号ＨＡＲＵＭＩＦＬＡＧＰＯＲＴＶＩＬＬＡＧＥＣ棟１５０９号室,,13,102,1040053,,,,,,,2025-03-06,1,,,,,トライポット,0
750,4010001252858,新規,0,2025-03-06,2025-03-06,マハロプラス株式会社,,株式会社,東京都,中央区,勝どき４丁目６番２－４３０２号,,13,102,1040054,,,,,,,2025-03-06,1,,,,,マハロプラス,0
752,4010003046606,新規,0,2025-03-06,2025-03-06,ＮＴＴグローバルデータセンターＴＣＧ‐２合同会社,,合同会社,東京都,千代田区,大手町２丁目３番１号,,13,101,1000004,,,,,,,2025-03-06,1,,,,,エヌティティグローバルデータセンターティシージーツー,0
753,4010003046622,新規,0,2025-03-06,2025-03-06,合同会社アルタイル,,合同会社,東京都,千代田区,二番町３番地麹町スクエア株式会社シリウス・アドバイザリー内,,13,101,1020084,,,,,,,2025-03-06,1,,,,,アルタイル,0
754,4010003046647,新規,0,2025-03-06,2025-03-06,ＲＡＭ　ｆｏｒｅｓｔ合同会社,,合同会社,東京都,中央区,銀座１丁目１２番４号Ｎ＆ＥＢＬＤ．６Ｆ,,13,102,1040061,,,,,,,2025-03-06,1,,,,,ラムフォレスト,0
757,4010005039698,新規,0,2025-03-06,2025-03-06,一般社団法人社会構想デザイン機構,,その他の設立登記法人,東京都,文京区,白山２丁目２２番２０号,,13,105,1120001,,,,,,,2025-03-06,1,,,,,シャカイコウソウデザインキコウ,0
762,4010401188636,新規,0,2025-03-06,2025-03-06,ＰＥＲＭＡ株式会社,,株式会社,東京都,港区,芝浦４丁目１９番１号,,13,103,1080023,,,,,,,2025-03-06,1,,,,,ペルマ,0
763,4010401188644,新規,0,2025-03-06,2025-03-06,株式会社ポストアーカイブＪＡＰＡＮ,,株式会社,東京都,港区,南青山４丁目１８－１１フォレストヒルズイーストウィング２Ｆ,,13,103,1070062,,,,,,,2025-03-06,1,,,,,ポストアーカイブジャパン,0
764,4010401188660,新規,0,2025-03-06,2025-03-06,フジケンアセット株式会社,,株式会社,東京都,港区,六本木１丁目６番１号,,13,103,1060032,,,,,,,2025-03-06,1,,,,,フジケンアセット,0
765,4010401188669,新規,0,2025-03-06,2025-03-06,株式会社Ｅｐｉｃ　Ｓｔｏｒｙ,,株式会社,東京都,港区,六本木３丁目１－３０,,13,103,1060032,,,,,,,2025-03-06,1,,,,,エピックストーリー,0
766,4010401188727,新規,0,2025-03-06,2025-03-06,株式会社Ｆｔゼロ,,株式会社,東京都,港区,南青山２丁目２番１５号,,13,103,1070062,,,,,,,2025-03-06,1,,,,,エフティゼロ,0
768,4010403034532,新規,0,2025-03-06,2025-03-06,Ｕ‐Ｒａｎｇｅ合同会社,,合同会社,東京都,港区,南青山２丁目２－１５ウィン青山１２２３,,13,103,1070062,,,,,,,2025-03-06,1,,,,,ユーレンジ,0
769,4010403034549,新規,0,2025-03-06,2025-03-06,合同会社プライム４０号,,合同会社,東京都,港区,元麻布３丁目１－３４,,13,103,1060046,,,,,,,2025-03-06,1,,,,,プライムヨンジュウゴウ,0
773,4010601066856,新規,0,2025-03-06,2025-03-06,株式会社三共技建,,株式会社,東京都,江東区,深川２丁目１－５リノスタイル門前仲町４０１,,13,108,1350033,,,,,,,2025-03-06,1,,,,,サンキョウギケン,0
774,4010601066889,新規,0,2025-03-06,2025-03-06,三吉ＨＤ株式会社,,株式会社,東京都,江東区,豊洲３丁目４番２号,,13,108,1350061,,,,,,,2025-03-06,1,,,,,ミツヨシホールディング,0
775,4010803005307,新規,0,2025-03-06,2025-03-06,Ｔａｋｅ　Ｏｎｅ　Ｐａｒｔｎｅｒ合同会社,,合同会社,東京都,大田区,田園調布本町３９番１０号,,13,111,1450072,,,,,,,2025-03-06,1,,,,,テイクワンパートナー,0
785,4010901056937,新規,0,2025-03-06,2025-03-06,株式会社一花,,株式会社,東京都,世田谷区,経堂５丁目２４番２５号,,13,112,1560052,,,,,,,2025-03-06,1,,,,,イチカ,0
788,4010903009760,新規,0,2025-03-06,2025-03-06,合同会社クアドリフォリオ,,合同会社,東京都,世田谷区,上祖師谷６丁目２４番１８号,,13,112,1570065,,,,,,,2025-03-06,1,,,,,クアドリフォリオ,0
789,4010905004743,新規,0,2025-03-06,2025-03-06,医療法人社団ＮＭ会,,その他の設立登記法人,東京都,世田谷区,南烏山１丁目１３番１２号芦花公園駅前メディカルモール３階,,13,112,1570062,,,,,,,2025-03-06,1,,,,,エヌエムカイ,0
801,4011001168078,新規,0,2025-03-06,2025-03-06,株式会社ｅｌｕ,,株式会社,東京都,渋谷区,神南１丁目１１－４ＦＰＧリンクス神南５階,,13,113,1500041,,,,,,,2025-03-06,1,,,,,エル,0
802,4011001168094,新規,0,2025-03-06,2025-03-06,株式会社Ｆｉｃｕｓ,,株式会社,東京都,渋谷区,道玄坂１丁目１０番８号渋谷道玄坂東急ビル２Ｆ－Ｃ,,13,113,1500043,,,,,,,2025-03-06,1,,,,,フィカス,0
803,4011001168185,新規,0,2025-03-06,2025-03-06,Ｊ＆Ｋ株式会社,,株式会社,東京都,目黒区,緑が丘１丁目１１番８号,,13,110,1520034,,,,,,,2025-03-06,1,,,,,ジェイアンドケイ,0
804,4011001168193,新規,0,2025-03-06,2025-03-06,グリーンヒル・キャピタル株式会社,,株式会社,東京都,渋谷区,渋谷４丁目２番８号ホーマットグリーンヒルズ２１０,,13,113,1500002,,,,,,,2025-03-06,1,,,,,グリーンヒルキャピタル,0
805,4011001168284,新規,0,2025-03-06,2025-03-06,株式会社ＵＬＵ　Ｔｅｃｈ　Ｌａｂ,,株式会社,東京都,渋谷区,道玄坂１丁目１０番８号渋谷道玄坂東急ビル２Ｆ‐Ｃ,,13,113,1500043,,,,,,,2025-03-06,1,,,,,ウルテックラボ,0
809,4011003021103,新規,0,2025-03-06,2025-03-06,合同会社ＳｅｃｕＬｅａｐ,,合同会社,東京都,渋谷区,渋谷２丁目１９－１５宮益坂ビルディング６０９,,13,113,1500002,,,,,,,2025-03-06,1,,,,,セキュリープ,0
810,4011003021136,新規,0,2025-03-06,2025-03-06,アイスフロイド合同会社,,合同会社,東京都,渋谷区,道玄坂２丁目８番８号コスモ渋谷館１０５,,13,113,1500043,,,,,,,2025-03-06,1,,,,,アイスロイド,0
811,4011003021160,新規,0,2025-03-06,2025-03-06,合同会社４ｅｘｐ,,合同会社,東京都,渋谷区,渋谷２丁目１９－１５宮益坂ビルディング６０９,,13,113,1500002,,,,,,,2025-03-06,1,,,,,フォーエクスプ,0
817,4011101110773,新規,0,2025-03-06,2025-03-06,株式会社マジオスカイビジョン,,株式会社,東京都,新宿区,新宿５丁目１７番５号,,13,104,1600022,,,,,,,2025-03-06,1,,,,,マジオスカイビジョン,0
819,4011103015624,新規,0,2025-03-06,2025-03-06,和人天合同会社,,合同会社,東京都,新宿区,西新宿３丁目３番１３号西新宿水間ビル２Ｆ,,13,104,1600023,,,,,,,2025-03-06,1,,,,,ワニンテン,0
821,4011203004634,新規,0,2025-03-06,2025-03-06,合同会社シーピーユープラス,,合同会社,東京都,中野区,新井１丁目１６番４号,,13,114,1650026,,,,,,,2025-03-06,1,,,,,シーピーユープラス,0
822,4011301030409,新規,0,2025-03-06,2025-03-06,株式会社ｓａｉｚ,,株式会社,東京都,杉並区,阿佐谷南３丁目４８番１２号,,13,115,1660004,,,,,,,2025-03-06,1,,,,,サイズ,0
823,4011401026876,新規,0,2025-03-06,2025-03-06,ＧＬＯＷ　ＵＰ株式会社,,株式会社,東京都,板橋区,中台３丁目２０番８号,,13,119,1740064,,,,,,,2025-03-06,1,,,,,グローアップ,0
832,4011801045732,新規,0,2025-03-06,2025-03-06,株式会社Ｄｉｇｉｔａｌ　ｃｌｏｖｅｒ,,株式会社,東京都,葛飾区,奥戸７丁目９番３号,,13,122,1240022,,,,,,,2025-03-06,1,,,,,デジタルクローバー,0
834,4012301014285,新規,0,2025-03-06,2025-03-06,株式会社ＫＵＤＯ,,株式会社,東京都,町田市,相原町４４６４番地９,,13,209,1940211,,,,,,,2025-03-06,1,,,,,クドウ,0
837,4012401042847,新規,0,2025-03-06,2025-03-06,株式会社クラス,,株式会社,東京都,稲城市,東長沼９８２番地の１,,13,225,2060802,,,,,,,2025-03-06,1,,,,,クラス,0
838,4012403007006,新規,0,2025-03-06,2025-03-06,合同会社ＦＯＡＫ,,合同会社,東京都,多摩市,東寺方１丁目２番地の３０,,13,224,2060003,,,,,,,2025-03-06,1,,,,,フォーク,0
840,4012701018737,新規,0,2025-03-06,2025-03-06,株式会社グイド,,株式会社,東京都,小平市,花小金井南町１丁目３番１６－Ｆ６０９号,,13,211,1870003,,,,,,,2025-03-06,1,,,,,グイド,0
845,4020001161703,新規,0,2025-03-06,2025-03-06,株式会社相承,,株式会社,神奈川県,横浜市鶴見区,鶴見２丁目１番３号鶴見大学内,,14,101,2300063,,,,,,,2025-03-06,1,,,,,ソウジョウ,0
846,4020001161736,新規,0,2025-03-06,2025-03-06,株式会社内田環境計画,,株式会社,神奈川県,横浜市鶴見区,鶴見中央２丁目３番３－９１２号,,14,101,2300051,,,,,,,2025-03-06,1,,,,,ウチダカンキョウケイカク,0
849,4020003027968,新規,0,2025-03-06,2025-03-06,三伸建設合同会社,,合同会社,神奈川県,川崎市高津区,上作延１丁目２４番２４－６０１号,,14,134,2130034,,,,,,,2025-03-06,1,,,,,サンシンケンセツ,0
850,4020003027976,新規,0,2025-03-06,2025-03-06,合同会社ヒロ,,合同会社,神奈川県,横浜市港北区,篠原町１０７４番地２７,,14,109,2220026,,,,,,,2025-03-06,1,,,,,ヒロ,0
851,4021001084596,新規,0,2025-03-06,2025-03-06,株式会社ナイン,,株式会社,神奈川県,相模原市緑区,与野本町２６－２グリンセブンハイツ東１０５,,14,151,2520100,,,,,,,2025-03-06,1,,,,,ナイン,0
852,4021001084613,新規,0,2025-03-06,2025-03-06,株式会社Ｔｉｇｒｅ,,株式会社,神奈川県,横須賀市,久里浜５丁目１４番９号,,14,201,2390831,,,,,,,2025-03-06,1,,,,,ティーグル,0
859,4030001165166,新規,0,2025-03-06,2025-03-06,Ａ　ｓｔｒｉｖｅ株式会社,,株式会社,埼玉県,三郷市,彦音２丁目７３番地２,,11,237,3410002,,,,,,,2025-03-06,1,,,,,エーストライブ,0
862,4030003026259,新規,0,2025-03-06,2025-03-06,合同会社Ｎ‐Ｃｌａｓｓ,,合同会社,埼玉県,所沢市,寿町２１番１２－７０４号,,11,208,3591122,,,,,,,2025-03-06,1,,,,,,0
863,4030003026267,新規,0,2025-03-06,2025-03-06,スタジオワークショップ合同会社,,合同会社,埼玉県,さいたま市西区,大字内野本郷４８６番地２６,,11,101,3310045,,,,,,,2025-03-06,1,,,,,スタジオワークショップ,0
864,4030003026283,新規,0,2025-03-06,2025-03-06,合同会社殻不動産,,合同会社,埼玉県,川口市,飯塚４丁目１２番３７－３０３号シャインノーブル川口リバーパーク,,11,203,3320023,,,,,,,2025-03-06,1,,,,,カラフドウサン,0
868,4040001137676,新規,0,2025-03-06,2025-03-06,リンフォード株式会社,,株式会社,千葉県,千葉市若葉区,千城台西３丁目４番３号,,12,104,2640004,,,,,,,2025-03-06,1,,,,,リンフォード,0
869,4040001137684,新規,0,2025-03-06,2025-03-06,エズホールディングス株式会社,,株式会社,千葉県,山武郡芝山町,岩山１１４番地９,,12,409,2891608,,,,,,,2025-03-06,1,,,,,エズホールディングス,0
870,4040001137692,新規,0,2025-03-06,2025-03-06,ＹＳ　ａｎｄ　Ｃｏｍｐａｎｙ株式会社,,株式会社,千葉県,千葉市美浜区,若葉３丁目１番地１１幕張ベイパークミッドスクエアタワー４０１号,,12,106,2610014,,,,,,,2025-03-06,1,,,,,ワイエスアンドカンパニー,0
871,4040001137726,新規,0,2025-03-06,2025-03-06,いぬねこ株式会社,,株式会社,千葉県,四街道市,つくし座２丁目１番６号,,12,228,2840026,,,,,,,2025-03-06,1,,,,,イヌネコ,0
873,4040003027041,新規,0,2025-03-06,2025-03-06,Ｐａｃｋｅｔ　Ｐｉｌｏｔ合同会社,,合同会社,千葉県,大網白里市,季美の森南５丁目３番地３,,12,239,2993241,,,,,,,2025-03-06,1,,,,,パケットパイロット,0
877,4050001056256,新規,0,2025-03-06,2025-03-06,ＡＳＩＦ　ＢＲＯＴＨＥＲＳ　ＴＲＡＤＩＮＧ株式会社,,株式会社,茨城県,坂東市,辺田６０８番地１０,,08,228,3060632,,,,,,,2025-03-06,1,,,,,アシフブラザーズトレイディング,0
878,4050001056272,新規,0,2025-03-06,2025-03-06,株式会社ＥＭＺＥＱ,,株式会社,茨城県,つくば市,流星台３４番地５アネサキ２棟１０１号,,08,220,3050008,,,,,,,2025-03-06,1,,,,,エムゼック,0
879,4050001056280,新規,0,2025-03-06,2025-03-06,寶仁株式会社,,株式会社,茨城県,ひたちなか市,大字田彦１４４３番地１５,,08,221,3120063,,,,,,,2025-03-06,1,,,,,ホウジン,0
880,4050001056297,新規,0,2025-03-06,2025-03-06,株式会社ＲＩＳＥ,,株式会社,茨城県,神栖市,知手４２８４－２,,08,232,3140115,,,,,,,2025-03-06,1,,,,,ライズ,0
881,4050003009088,新規,0,2025-03-06,2025-03-06,合同会社ＳＡＭＵＲＡＩ　ＴＲＡＤＩＮＧ,,合同会社,茨城県,古河市,東山田５８１－８（Ｃ－１４）,,08,204,3060112,,,,,,,2025-03-06,1,,,,,サムライトレーディング,0
883,4070001042700,新規,0,2025-03-06,2025-03-06,エクスピース株式会社,,株式会社,群馬県,前橋市,西大室町１２５７番地３,,10,201,3792104,,,,,,,2025-03-06,1,,,,,エクスピース,0
885,4080003003402,新規,0,2025-03-06,2025-03-06,卓越青果合同会社,,合同会社,静岡県,静岡市葵区,追手町１０番９１１号,,22,101,4200853,,,,,,,2025-03-06,1,,,,,タクエツセイカ,0
894,4110001039089,新規,0,2025-03-06,2025-03-06,株式会社山口,,株式会社,新潟県,長岡市,千歳１丁目２番２１号,,15,202,9400082,,,,,,,2025-03-06,1,,,,,ヤマグチ,0
898,4120001273455,新規,0,2025-03-06,2025-03-06,宏興株式会社,,株式会社,大阪府,大阪市生野区,新今里３丁目８番１６号啓源ビル３階３０２,,27,116,5440001,,,,,,,2025-03-06,1,,,,,ヒロオキ,0
900,4120101071164,新規,0,2025-03-06,2025-03-06,株式会社Ｋ＆Ｈ,,株式会社,大阪府,堺市西区,浜寺石津町東３丁１１番２０号,,27,144,5928335,,,,,,,2025-03-06,1,,,,,ケイアンドエイチ,0
901,4120101071180,新規,0,2025-03-06,2025-03-06,株式会社曙オート・トレーディング,,株式会社,大阪府,堺市西区,鳳北町６丁３５７番地６,,27,144,5938328,,,,,,,2025-03-06,1,,,,,アケボノオートトレーディング,0
903,4120105009978,新規,0,2025-03-06,2025-03-06,一般社団法人アシスト,,その他の設立登記法人,大阪府,泉佐野市,新安松３丁目３番１２－３３３号,,27,213,5980032,,,,,,,2025-03-06,1,,,,,アシスト,0
904,4122001038937,新規,0,2025-03-06,2025-03-06,株式会社ＧＩＶＥＲ,,株式会社,大阪府,東大阪市,鴻池町１丁目２０番２１号,,27,227,5780972,,,,,,,2025-03-06,1,,,,,ギバー,0
906,4130001079109,新規,0,2025-03-06,2025-03-06,株式会社ＥＬＥＮ企画,,株式会社,京都府,京都市中京区,西ノ京春日町１６番地１、５０６号,,26,104,6048453,,,,,,,2025-03-06,1,,,,,エレンキカク,0
907,4130001079117,新規,0,2025-03-06,2025-03-06,株式会社上嶋爽禄園,,株式会社,京都府,相楽郡和束町,大字白栖小字中出５０番地,,26,365,6191222,,,,,,,2025-03-06,1,,,,,ウエジマソウロクエン,0
908,4130001079133,新規,0,2025-03-06,2025-03-06,株式会社ＴＯＰ　ＨＩＬＬ,,株式会社,京都府,京都市中京区,壬生中川町１１－６,,26,104,6048863,,,,,,,2025-03-06,1,,,,,トップヒル,0
909,4130003010260,新規,0,2025-03-06,2025-03-06,合同会社ＫＭＴ,,合同会社,京都府,宇治市,神明石塚７１－２０,00138239,26,204,6110025,,,,,,,2025-03-06,1,,,,,ケイエムティ,0
914,4140001137609,新規,0,2025-03-06,2025-03-06,ＷＩＤＥ　ＲＡＮＧＥ株式会社,,株式会社,兵庫県,三田市,けやき台３丁目７３－３、２０７号室,,28,219,6691321,,,,,,,2025-03-06,1,,,,,ワイドレンジ,0
915,4140001137625,新規,0,2025-03-06,2025-03-06,株式会社スエヒロ,,株式会社,兵庫県,姫路市,大塩町９７４番地１０,,28,201,6710101,,,,,,,2025-03-06,1,,,,,スエヒロ,0
918,4140003021736,新規,0,2025-03-06,2025-03-06,Ｅｍ　ｐｌａｎｎｉｎｇ合同会社,,合同会社,兵庫県,神戸市中央区,山本通４丁目１４番２１－４０３号,,28,110,6500003,,,,,,,2025-03-06,1,,,,,,0
919,4140003021744,新規,0,2025-03-06,2025-03-06,合同会社Ｂｒｉｎｇｌｕｃｋ,,合同会社,兵庫県,淡路市,岩屋１番地６２,,28,226,6562401,,,,,,,2025-03-06,1,,,,,ブリングラック,0
921,4150001027916,新規,0,2025-03-06,2025-03-06,株式会社Ａｍｃｉ,,株式会社,奈良県,橿原市,中曽司町１７８番地４,,29,205,6340845,,,,,,,2025-03-06,1,,,,,アムシー,0
924,4160001026586,新規,0,2025-03-06,2025-03-06,ケージープラン株式会社,,株式会社,滋賀県,大津市,月輪５丁目１１番１１号,,25,201,5202152,,,,,,,2025-03-06,1,,,,,ケージープラン,0
928,4180001165688,新規,0,2025-03-06,2025-03-06,株式会社あしおじ,,株式会社,愛知県,稲沢市,清水郷西町１３９番地,,23,220,4928315,,,,,,,2025-03-06,1,,,,,アシオジ,0
929,4180001165721,新規,0,2025-03-06,2025-03-06,株式会社ノルネイル,,株式会社,愛知県,名古屋市中区,栄３丁目１２番６号ライオンズマンション栄１０１２号室,,23,106,4600008,,,,,,,2025-03-06,1,,,,,ノルネイル,0
930,4180001165746,新規,0,2025-03-06,2025-03-06,ＭＴＲ株式会社,,株式会社,愛知県,名古屋市東区,橦木町１丁目１０番地,,23,102,4610014,,,,,,,2025-03-06,1,,,,,エムティーアール,0
931,4180001165762,新規,0,2025-03-06,2025-03-06,株式会社バリューパートナー,,株式会社,愛知県,名古屋市西区,上名古屋１丁目２－１０,,23,104,4510025,,,,,,,2025-03-06,1,,,,,バリューパートナー,0
933,4180003028067,新規,0,2025-03-06,2025-03-06,合同会社白河館,,合同会社,愛知県,名古屋市中村区,名駅３丁目４番１０号アルティメイト名駅１ｓｔ２階,,23,105,4500002,,,,,,,2025-03-06,1,,,,,シラカワカン,0
934,4180005020971,新規,0,2025-03-06,2025-03-06,一般社団法人名古屋スポーツコミッション,,その他の設立登記法人,愛知県,名古屋市中区,栄３丁目１８番１号デザインセンタービル７階デザインラボ９号室,,23,106,4600008,,,,,,,2025-03-06,1,,,,,ナゴヤスポーツコミッション,0
935,4180301039567,新規,0,2025-03-06,2025-03-06,シノゲン株式会社,,株式会社,愛知県,高浜市,沢渡町４丁目２番地３,,23,227,4441333,,,,,,,2025-03-06,1,,,,,シノゲン,0
936,4180301039575,新規,0,2025-03-06,2025-03-06,株式会社ＫＯＧＵＭＡ　ＢＡＳＥ,,株式会社,愛知県,岡崎市,柱曙１丁目９番地１１,,23,202,4440833,,,,,,,2025-03-06,1,,,,,コグマベイス,0
937,4180301039583,新規,0,2025-03-06,2025-03-06,株式会社オアシスファーム,,株式会社,愛知県,岡崎市,土井町字西番城１９番地１,,23,202,4440204,,,,,,,2025-03-06,1,,,,,オアシスファーム,0
938,4180303006474,新規,0,2025-03-06,2025-03-06,合同会社ｂｅｕｓｅ,,合同会社,愛知県,安城市,里町１丁目３０番地１２,,23,212,4460001,,,,,,,2025-03-06,1,,,,,ビーユース,0
940,4190001032037,新規,0,2025-03-06,2025-03-06,株式会社マルイチ設備,,株式会社,三重県,度会郡玉城町,岡出８８番地,,24,461,5190428,,,,,,,2025-03-06,1,,,,,マルイチセツビ,0
943,4200001043503,新規,0,2025-03-06,2025-03-06,株式会社グリーン・プロ,,株式会社,岐阜県,美濃市,極楽寺中野１１１４番地,,21,207,5013763,,,,,,,2025-03-06,1,,,,,グリーンプロ,0
944,4220001026530,新規,0,2025-03-06,2025-03-06,株式会社ヤスヒロ,,株式会社,石川県,金沢市,東力町ニ２６０番地１,,17,201,9218016,,,,,,,2025-03-06,1,,,,,ヤスヒロ,0
945,4220003003965,新規,0,2025-03-06,2025-03-06,合同会社七宝ファーム,,合同会社,石川県,鹿島郡中能登町,小竹テ部４５‐３,,17,407,9291722,,,,,,,2025-03-06,1,,,,,シッポウファーム,0
947,4230001020771,新規,0,2025-03-06,2025-03-06,銭座瓦店株式会社,,株式会社,富山県,高岡市,常国２１５番地,,16,202,9391251,,,,,,,2025-03-06,1,,,,,ゼンザカワラテン,0
948,4230003002388,新規,0,2025-03-06,2025-03-06,合同会社ＳＧサポート,,合同会社,富山県,富山市,八尾町井田５９４番地２,,16,201,9392306,,,,,,,2025-03-06,1,,,,,エスジーサポート,0
951,4250001021025,新規,0,2025-03-06,2025-03-06,株式会社慈愛の里,,株式会社,山口県,山口市,佐山１３１番地１－２,,35,203,7540894,,,,,,,2025-03-06,1,,,,,ジアイノサト,0
952,4250003003657,新規,0,2025-03-06,2025-03-06,合同会社ミルリエ,,合同会社,山口県,山陽小野田市,北竜王町２番１４号,,35,216,7560833,,,,,,,2025-03-06,1,,,,,ミルリエ,0
954,4260001039982,新規,0,2025-03-06,2025-03-06,株式会社えこすまいる,,株式会社,岡山県,総社市,西郡４３０番地２,,33,208,7191164,,,,,,,2025-03-06,1,,,,,エコスマイル,0
955,4260003005082,新規,0,2025-03-06,2025-03-06,あぐりんちゅ合同会社,,合同会社,岡山県,久米郡久米南町,京尾１５９番地１,,33,663,7093634,,,,,,,2025-03-06,1,,,,,アグリンチュ,0
956,4280001009364,新規,0,2025-03-06,2025-03-06,株式会社山陰和建,,株式会社,島根県,松江市,美保関町北浦４９１番地２,,32,201,6901221,,,,,,,2025-03-06,1,,,,,サンインワケン,0
960,4290001109171,新規,0,2025-03-06,2025-03-06,株式会社総合設備ＯＮＥ,,株式会社,福岡県,飯塚市,太郎丸９９４番地,,40,205,8200076,,,,,,,2025-03-06,1,,,,,ソウゴウセツビワン,0
961,4290001109188,新規,0,2025-03-06,2025-03-06,株式会社Ｎｅｘｔ　Ｔｏｋｙｏ,,株式会社,福岡県,福岡市中央区,春吉２丁目９番２６号ＢＡＬ．ＨＡＲＵＹＯＳＨＩ３階,,40,133,8100003,,,,,,,2025-03-06,1,,,,,ネクストトウキョウ,0
962,4290001109205,新規,0,2025-03-06,2025-03-06,株式会社Ｒｅｖｉｔ,,株式会社,福岡県,福岡市中央区,今泉１丁目１８番２８号アペゼｉｍａｉｚｕｍｉ３階Ａ,,40,133,8100021,,,,,,,2025-03-06,1,,,,,リビット,0
963,4290001109213,新規,0,2025-03-06,2025-03-06,株式会社愛光エステート,,株式会社,福岡県,福岡市博多区,博多駅東１丁目１６番８号,,40,132,8120013,,,,,,,2025-03-06,1,,,,,アイコウエステート,0
965,4290003016481,新規,0,2025-03-06,2025-03-06,合同会社伊藤九,,合同会社,福岡県,福岡市早良区,百道浜４丁目２番２－５０１号クリスタージュ弐番館,,40,137,8140001,,,,,,,2025-03-06,1,,,,,イトウキュウ,0
966,4290003016498,新規,0,2025-03-06,2025-03-06,合同会社空手大会,,合同会社,福岡県,福岡市中央区,六本松４丁目２－６－２０８,,40,133,8100044,,,,,,,2025-03-06,1,,,,,カラテタイカイ,0
970,4290803004982,新規,0,2025-03-06,2025-03-06,合同会社Ｋｕｒｕｔｏ,,合同会社,福岡県,築上郡築上町,大字湊２２０番地６,,40,647,8290311,,,,,,,2025-03-06,1,,,,,クルト,0
971,4300003002232,新規,0,2025-03-06,2025-03-06,合同会社ＬＩＭＢ,,合同会社,佐賀県,三養基郡上峰町,大字坊所２５５８－４３,,41,345,8490123,,,,,,,2025-03-06,1,,,,,リム,0
973,4320001020969,新規,0,2025-03-06,2025-03-06,株式会社ＪＩＮ,,株式会社,大分県,大分市,大字光吉９１０番地大分ユースコーポ１０２号,,44,201,8701132,,,,,,,2025-03-06,1,,,,,ジン,0
983,4370001052314,新規,0,2025-03-06,2025-03-06,株式会社渡英,,株式会社,宮城県,名取市,上余田字千刈田１５６番地,,04,207,9811222,,,,,,,2025-03-06,1,,,,,トーエー,0
984,4370001052322,新規,0,2025-03-06,2025-03-06,株式会社ＫＳＹ,,株式会社,宮城県,仙台市太白区,中田町字前沖北３７番地の１,,04,104,9811103,,,,,,,2025-03-06,1,,,,,ケーエスワイ,0
985,4370003006961,新規,0,2025-03-06,2025-03-06,合同会社Ｈｏｏｐ,,合同会社,宮城県,多賀城市,新田字北関合６９－１Ｂ棟,,04,209,9850854,,,,,,,2025-03-06,1,,,,,フープ,0
994,4380003005979,新規,0,2025-03-06,2025-03-06,合同会社カジヤ,,合同会社,福島県,いわき市,大久町大久字北田２８番地の１,,07,204,9790338,,,,,,,2025-03-06,1,,,,,カジヤ,0
1001,4410001014078,新規,0,2025-03-06,2025-03-06,株式会社渡幸ＪＮＰＧ,,株式会社,秋田県,秋田市,新屋船場町２番１８号,,05,201,0101615,,,,,,,2025-03-06,1,,,,,ワタコウジェイエヌピージー,0
1003,4420001019043,新規,0,2025-03-06,2025-03-06,さくらクリーニング株式会社,,株式会社,青森県,八戸市,下長１丁目１９番２１号,,02,203,0391164,,,,,,,2025-03-06,1,,,,,サクラクリーニング,0
1012,4470003002827,新規,0,2025-03-06,2025-03-06,合同会社ｃｏｃｏｃｈｉ,,合同会社,香川県,高松市,鍛冶屋町１番地９ＴＨＥＡＩＲビル２Ｆ,,37,201,7600028,,,,,,,2025-03-06,1,,,,,ココチ,0
1013,4480001012760,新規,0,2025-03-06,2025-03-06,株式会社にし阿波ホールディングス,,株式会社,徳島県,三好郡東みよし町,足代８９０番地３,,36,489,7712502,,,,,,,2025-03-06,1,,,,,ニシアワホールディングス,0
1016,4500001026171,新規,0,2025-03-06,2025-03-06,Ｓｅａ　Ｔｅｃグループ株式会社,,株式会社,愛媛県,西条市,樋之口３７３番地３,,38,206,7930043,,,,,,,2025-03-06,1,,,,,シーテックグループ,0
1027,5010001252725,新規,0,2025-03-06,2025-03-06,千景株式会社,,株式会社,東京都,千代田区,外神田２丁目１番８－１１２号,,13,101,1010021,,,,,,,2025-03-06,1,,,,,チカゲ,0
1028,5010001252733,新規,0,2025-03-06,2025-03-06,株式会社ディーズフォース,,株式会社,東京都,中央区,東日本橋１丁目９番２号,,13,102,1030004,,,,,,,2025-03-06,1,,,,,ディーズフォース,0
1029,5010001252758,新規,0,2025-03-06,2025-03-06,株式会社Ａｓｃｅｎｄｉｘ,,株式会社,東京都,中央区,晴海３丁目１３番１－４１１号,,13,102,1040053,,,,,,,2025-03-06,1,,,,,アセンディクス,0
1030,5010001252808,新規,0,2025-03-06,2025-03-06,株式会社ＴＫ‐ｉｎｇ,,株式会社,東京都,中央区,佃２丁目１番１－３８１２号,,13,102,1040051,,,,,,,2025-03-06,1,,,,,ティーケイイング,0
1031,5010001252824,新規,0,2025-03-06,2025-03-06,ＬＷＬホールディングス株式会社,,株式会社,東京都,千代田区,麹町１丁目１２番地１号住友不動産ふくおか半蔵門ビル３階,,13,101,1020083,,,,,,,2025-03-06,1,,,,,エルダブリューエルホールディングス,0
1032,5010001252840,新規,0,2025-03-06,2025-03-06,ＭＩＲＡＩ　ＭＥＴＡＬＳ株式会社,,株式会社,東京都,千代田区,麹町３丁目１－８,,13,101,1020083,,,,,,,2025-03-06,1,,,,,ミライメタルズ,0
1034,5010003046621,新規,0,2025-03-06,2025-03-06,合同会社ベガ,,合同会社,東京都,千代田区,二番町３番地麹町スクエア株式会社シリウス・アドバイザリー内,,13,101,1020084,,,,,,,2025-03-06,1,,,,,ベガ,0
1035,5010003046646,新規,0,2025-03-06,2025-03-06,Ａｄａ西東京１‐２合同会社,,合同会社,東京都,中央区,八重洲２丁目２番１号,,13,102,1040028,,,,,,,2025-03-06,1,,,,,エイダニシトウキョウイチノニ,0
1036,5010003046695,新規,0,2025-03-06,2025-03-06,Ｄ‐Ｇｒｉｄ合同会社,,合同会社,東京都,千代田区,神田須田町１丁目７番８号ＶＯＲＴ秋葉原４・２Ｆ,,13,101,1010041,,,,,,,2025-03-06,1,,,,,ディーグリッド,0
1039,5010401188635,新規,0,2025-03-06,2025-03-06,ＨＵＩＴ株式会社,,株式会社,東京都,港区,南麻布５丁目４番２－７１５号,,13,103,1060047,,,,,,,2025-03-06,1,,,,,ユイット,0
1040,5010401188684,新規,0,2025-03-06,2025-03-06,ＴＷＯ　ＳＴＥＰＳ株式会社,,株式会社,東京都,港区,南麻布２丁目８番２１号ＳＮＵＧ南麻布６０１,,13,103,1060047,,,,,,,2025-03-06,1,,,,,トゥーステップス,0
1041,5010401188759,新規,0,2025-03-06,2025-03-06,株式会社ＦｏｒｃｅＡＩ,,株式会社,東京都,港区,南青山３丁目１番３６号青山丸竹ビル６Ｆ,,13,103,1070062,,,,,,,2025-03-06,1,,,,,フォースエーアイ,0
1049,5010403034548,新規,0,2025-03-06,2025-03-06,合同会社プライム３９号,,合同会社,東京都,港区,元麻布３丁目１－３４,,13,103,1060046,,,,,,,2025-03-06,1,,,,,プライムサンジュウキュウゴウ,0
1051,5010601066888,新規,0,2025-03-06,2025-03-06,株式会社ＹＤＰ,,株式会社,東京都,江東区,南砂１丁目２０番１－２２２号,,13,108,1360076,,,,,,,2025-03-06,1,,,,,ワイディーピー,0
1052,5010601066896,新規,0,2025-03-06,2025-03-06,Ｗｉｎｄ　Ｉｎｆｏｒｍａｔｉｏｎ　Ｊａｐａｎ株式会社,,株式会社,東京都,江東区,豊洲６丁目２番３１－１９１７号,,13,108,1350061,,,,,,,2025-03-06,1,,,,,ウィンドインフォメーションジャパン,0
1053,5010801035899,新規,0,2025-03-06,2025-03-06,石井コンサルティング株式会社,,株式会社,東京都,大田区,上池台１丁目３２－７－２０２,,13,111,1450064,,,,,,,2025-03-06,1,,,,,イシイコンサルティング,0
1055,5010903009768,新規,0,2025-03-06,2025-03-06,達屋合同会社,,合同会社,東京都,世田谷区,太子堂４丁目１８番１５号マガザン三軒茶屋２・３Ｆ－３,,13,112,1540004,,,,,,,2025-03-06,1,,,,,タツヤ,0
1056,5010905004742,新規,0,2025-03-06,2025-03-06,医療法人社団Ｓａｎａｒｓ,,その他の設立登記法人,東京都,世田谷区,太子堂４丁目２６番１２くらしの友三軒茶屋ビル５階,,13,112,1540004,,,,,,,2025-03-06,1,,,,,サナルス,0
1061,5011001168085,新規,0,2025-03-06,2025-03-06,株式会社ミーメモリー,,株式会社,東京都,渋谷区,渋谷２丁目１９－１５宮益坂ビルディング６０９,,13,113,1500002,,,,,,,2025-03-06,1,,,,,ミーメモリー,0
1063,5011003021093,新規,0,2025-03-06,2025-03-06,合同会社ＢＵＮＳＨＩＮ,,合同会社,東京都,渋谷区,神南１丁目１１－４ＦＰＧリンクス神南５階,,13,113,1500041,,,,,,,2025-03-06,1,,,,,ブンシン,0
1069,5011103015623,新規,0,2025-03-06,2025-03-06,合同会社サンワールド,,合同会社,東京都,新宿区,下落合１丁目１－１,,13,104,1610033,,,,,,,2025-03-06,1,,,,,サンワールド,0
1070,5011201026159,新規,0,2025-03-06,2025-03-06,ＳＵＮ　ＣＯＡＳＴ株式会社,,株式会社,東京都,中野区,江古田４丁目３０番１９－１０８号,,13,114,1650022,,,,,,,2025-03-06,1,,,,,サンコースト,0
1072,5011301030399,新規,0,2025-03-06,2025-03-06,株式会社ＲＩＲＩ,,株式会社,東京都,杉並区,下井草４丁目４番４号ＪＬＢグランエクリュ杉並２Ｆ,,13,115,1670022,,,,,,,2025-03-06,1,,,,,リリ,0
1073,5011303005440,新規,0,2025-03-06,2025-03-06,Ｔｗｏ　Ｅｉｇｈｔｙ　Ｆｏｕｒ合同会社,,合同会社,東京都,杉並区,和泉２丁目１９－１０,,13,115,1680063,,,,,,,2025-03-06,1,,,,,ツーエイティフォー,0
1076,5011801045731,新規,0,2025-03-06,2025-03-06,株式会社トラスト防水,,株式会社,東京都,足立区,千住大川町４８番８号３０１号室,,13,121,1200031,,,,,,,2025-03-06,1,,,,,トラストボウスイ,0
1077,5011803006723,新規,0,2025-03-06,2025-03-06,合同会社ジョイントプラス,,合同会社,東京都,足立区,千住１丁目４番１号東京芸術センター１０Ｆ,,13,121,1200034,,,,,,,2025-03-06,1,,,,,ジョイントプラス,0
1080,5012301014284,新規,0,2025-03-06,2025-03-06,株式会社コラボナレッジ,,株式会社,東京都,町田市,原町田６丁目９番８号ＡＥＴＡ町田４Ｆ,,13,209,1940013,,,,,,,2025-03-06,1,,,,,コラボナレッジ,0
1081,5012401042838,新規,0,2025-03-06,2025-03-06,株式会社レナリ,,株式会社,東京都,武蔵野市,関前３丁目３３番３号,,13,203,1800014,,,,,,,2025-03-06,1,,,,,レナリ,0
1082,5012401042846,新規,0,2025-03-06,2025-03-06,株式会社心和,,株式会社,東京都,狛江市,元和泉１丁目１番２号エコルマ２－２０１号,,13,219,2010013,,,,,,,2025-03-06,1,,,,,シンワ,0
1084,5012701018736,新規,0,2025-03-06,2025-03-06,株式会社ＹＭエステート,,株式会社,東京都,西東京市,ひばりが丘２丁目５番３４－１３１５号,,13,229,2020001,,,,,,,2025-03-06,1,,,,,ワイエムエステート,0
1085,5012801023792,新規,0,2025-03-06,2025-03-06,株式会社ＲＩＺＥＬ,,株式会社,東京都,昭島市,武蔵野２丁目１番４８－９０８号,,13,207,1960021,,,,,,,2025-03-06,1,,,,,リゼル,0
1086,5012801023801,新規,0,2025-03-06,2025-03-06,株式会社清田建築,,株式会社,東京都,東大和市,新堀３丁目１６番地の２３,,13,220,2070012,,,,,,,2025-03-06,1,,,,,キヨタケンチク,0
1098,5020001161685,新規,0,2025-03-06,2025-03-06,株式会社キタムラ,,株式会社,神奈川県,川崎市幸区,塚越２丁目２７１－２,,14,132,2120024,,,,,,,2025-03-06,1,,,,,キタムラ,0
1099,5020001161735,新規,0,2025-03-06,2025-03-06,株式会社ＦＬＡＶＥ,,株式会社,神奈川県,横浜市泉区,中田北３丁目６番５２号プレジール中田Ａ－１号,,14,116,2450012,,,,,,,2025-03-06,1,,,,,フレイブ,0
1100,5020001161743,新規,0,2025-03-06,2025-03-06,ＯＡＳＩＳ株式会社,,株式会社,神奈川県,横浜市神奈川区,金港町５番地１４クアドリフォリオ８階,,14,102,2210056,,,,,,,2025-03-06,1,,,,,オアシス,0
1101,5020003027918,新規,0,2025-03-06,2025-03-06,フラテル合同会社,,合同会社,神奈川県,横浜市西区,西平沼町１番２２－８０６号,,14,103,2200024,,,,,,,2025-03-06,1,,,,,フラテル,0
1102,5020003027926,新規,0,2025-03-06,2025-03-06,ＺｕｌｕＤｅｌｔａ合同会社,,合同会社,神奈川県,横浜市西区,浅間町１丁目４番３号ウィザードビル４０２,,14,103,2200072,,,,,,,2025-03-06,1,,,,,ズールデルタ,0
1103,5020003027934,新規,0,2025-03-06,2025-03-06,合同会社カラフルリーフ,,合同会社,神奈川県,川崎市多摩区,生田３丁目１８番２号アボードベアー３０１,,14,135,2140038,,,,,,,2025-03-06,1,,,,,カラフルリーフ,0
1106,5021001084604,新規,0,2025-03-06,2025-03-06,株式会社細川建装,,株式会社,神奈川県,平塚市,豊田平等寺４３８番地の１３,,14,203,2540086,,,,,,,2025-03-06,1,,,,,ホソカワケンソウ,0
1107,5021001084612,新規,0,2025-03-06,2025-03-06,ＨＡＣＫ　ＭＡＮ株式会社,,株式会社,神奈川県,伊勢原市,高森４丁目４番６６号グランフォーレ２０２号,,14,214,2591114,,,,,,,2025-03-06,1,,,,,ハックマン,0
1121,5030001165215,新規,0,2025-03-06,2025-03-06,ＳＮアドバンス株式会社,,株式会社,埼玉県,さいたま市大宮区,桜木町２丁目３番地大宮マルイ７階,,11,103,3300854,,,,,,,2025-03-06,1,,,,,エスエヌアドバンス,0
1122,5030001165256,新規,0,2025-03-06,2025-03-06,株式会社オクイエ,,株式会社,埼玉県,南埼玉郡宮代町,字西原６３５番地１,,11,442,3450817,,,,,,,2025-03-06,1,,,,,オクイエ,0
1123,5030001165289,新規,0,2025-03-06,2025-03-06,慶松薬品株式会社,,株式会社,埼玉県,朝霞市,田島２丁目１４番１－１０３号,,11,227,3510032,,,,,,,2025-03-06,1,,,,,ケイショウヤクヒン,0
1129,5030003026274,新規,0,2025-03-06,2025-03-06,Ｊ‐Ｆｉｅｌｄ合同会社,,合同会社,埼玉県,坂戸市,八幡２丁目３番１８－１号,,11,239,3500223,,,,,,,2025-03-06,1,,,,,ジェイフィールド,0
1130,5030003026282,新規,0,2025-03-06,2025-03-06,カルペディエム合同会社,,合同会社,埼玉県,所沢市,東所沢和田２丁目２９番地の１１,,11,208,3590023,,,,,,,2025-03-06,1,,,,,カルペディエム,0
1131,5030005022065,新規,0,2025-03-06,2025-03-06,ＮＰＯ法人襷,,その他の設立登記法人,埼玉県,坂戸市,元町１４番３号,,11,239,3500228,,,,,,,2025-03-06,1,,,,,タスキ,0
1132,5040001137667,新規,0,2025-03-06,2025-03-06,バイナリワークス株式会社,,株式会社,千葉県,佐倉市,ユーカリが丘４丁目１スカイプラザ・モール３ＦＣＯ－ＬＡＢＯＳＡＫＵＲＡ,,12,212,2850858,,,,,,,2025-03-06,1,,,,,バイナリワークス,0
1133,5040001137691,新規,0,2025-03-06,2025-03-06,株式会社ＷｏｎｄｅｒＭｅｄｉｃａｌ,,株式会社,千葉県,柏市,若柴１７８番地４柏の葉キャンパス１４８街区２ショップ＆オフィス棟,,12,217,2770871,,,,,,,2025-03-06,1,,,,,ワンダーメディカル,0
1139,5050001056288,新規,0,2025-03-06,2025-03-06,株式会社ヒロコーポレーション,,株式会社,茨城県,ひたちなか市,大字市毛８２９番地,,08,221,3120033,,,,,,,2025-03-06,1,,,,,ヒロコーポレーション,0
1140,5060001037980,新規,0,2025-03-06,2025-03-06,シンクアス株式会社,,株式会社,栃木県,小山市,大字大行寺１０６５番地３,,09,208,3230041,,,,,,,2025-03-06,1,,,,,シンクアス,0
1152,5080401027786,新規,0,2025-03-06,2025-03-06,株式会社ラプラス,,株式会社,静岡県,周智郡森町,森８４５番地の４,,22,461,4370215,,,,,,,2025-03-06,1,,,,,ラプラス,0
1155,5110001039088,新規,0,2025-03-06,2025-03-06,株式会社リコーテック,,株式会社,新潟県,新潟市西区,亀貝９６６,,15,107,9502033,,,,,,,2025-03-06,1,,,,,リコーテック,0
1164,5120001273347,新規,0,2025-03-06,2025-03-06,超越株式会社,,株式会社,大阪府,大阪市住之江区,安立２丁目１０番１４号三坂ビル２０６号室,,27,125,5590003,,,,,,,2025-03-06,1,,,,,チョウエツ,0
1169,5120005024820,新規,0,2025-03-06,2025-03-06,一般社団法人ｒｅ　Ｍｅｄ,,その他の設立登記法人,大阪府,大阪市中央区,東心斎橋１丁目７番２２号メゾン・デ・ノムラ７階,,27,128,5420083,,,,,,,2025-03-06,1,,,,,リメッド,0
1170,5120101071155,新規,0,2025-03-06,2025-03-06,株式会社ＳＯＡＲ,,株式会社,大阪府,阪南市,さつき台１丁目１２番２号,,27,232,5990215,,,,,,,2025-03-06,1,,,,,ソアー,0
1171,5120101071196,新規,0,2025-03-06,2025-03-06,株式会社太星,,株式会社,大阪府,高石市,綾園６丁目２３番２５号,,27,225,5920014,,,,,,,2025-03-06,1,,,,,タイセイ,0
1172,5120105009977,新規,0,2025-03-06,2025-03-06,特定非営利活動法人カリネ,,その他の設立登記法人,大阪府,堺市堺区,向陵東町１丁９番５－３０３号,,27,141,5900025,,,,,,,2025-03-06,1,,,,,カリネ,0
1178,5130001079116,新規,0,2025-03-06,2025-03-06,Ｐａｃｉｆｉｃ株式会社,,株式会社,京都府,京都市西京区,大枝沓掛町９番地２８ヴェルドミール桂坂３０５号,,26,111,6101106,,,,,,,2025-03-06,1,,,,,パシフィック,0
1179,5130001079124,新規,0,2025-03-06,2025-03-06,株式会社ＷＡＳＯＥＮ,,株式会社,京都府,京都市下京区,寺町通松原下る植松町７１４番地ジ・アーバネックス京都河原町プレイズ１０５,,26,106,6008028,,,,,,,2025-03-06,1,,,,,ワソウエン,0
1180,5130003010251,新規,0,2025-03-06,2025-03-06,寿限無テック合同会社,,合同会社,京都府,京都市伏見区,桃山町伊庭１０９番地,,26,109,6128011,,,,,,,2025-03-06,1,,,,,ジュゲムテック,0
1183,5140001137467,新規,0,2025-03-06,2025-03-06,株式会社ＤＭＰ,,株式会社,兵庫県,尼崎市,東園田町６丁目７１番２号１０４号室,,28,202,6610953,,,,,,,2025-03-06,1,,,,,,0
1184,5140003021735,新規,0,2025-03-06,2025-03-06,合同会社エススリー,,合同会社,兵庫県,西宮市,馬場町１－２－２０３,,28,204,6620915,,,,,,,2025-03-06,1,,,,,エススリー,0
1185,5140005027391,新規,0,2025-03-06,2025-03-06,一般社団法人全国墓じまい協会,,その他の設立登記法人,兵庫県,加古川市,加古川町北在家６５３番地,,28,210,6750031,,,,,,,2025-03-06,1,,,,,ゼンコクハカジマイキョウカイ,0
1191,5180001165695,新規,0,2025-03-06,2025-03-06,株式会社Ｓｈｉｃｈｉｒｉｅｓ,,株式会社,愛知県,清須市,西枇杷島町南大和１８０番地,,23,233,4520013,,,,,,,2025-03-06,1,,,,,シチリーズ,0
1192,5180001165720,新規,0,2025-03-06,2025-03-06,株式会社ＮａｎｏＡｃｔ,,株式会社,愛知県,名古屋市中村区,名駅３丁目４－１０アルティメイト名駅１ｓｔ２階,,23,105,4500002,,,,,,,2025-03-06,1,,,,,ナノアクト,0
1195,5180005020970,新規,0,2025-03-06,2025-03-06,社会福祉法人よびつぎ,,その他の設立登記法人,愛知県,名古屋市南区,汐田町７番２５号,,23,112,4570016,,,,,,,2025-03-06,1,,,,,ヨビツギ,0
1196,5180301039574,新規,0,2025-03-06,2025-03-06,株式会社カネマツ,,株式会社,愛知県,安城市,池浦町曲尺手３４番地,,23,212,4460066,,,,,,,2025-03-06,1,,,,,カネマツ,0
1197,5180301039590,新規,0,2025-03-06,2025-03-06,株式会社エーアイエー,,株式会社,愛知県,岡崎市,北野町字山之間３番地４,,23,202,4440951,,,,,,,2025-03-06,1,,,,,エーアイエー,0
1203,5200001043485,新規,0,2025-03-06,2025-03-06,東来商事株式会社,,株式会社,岐阜県,養老郡養老町,室原字新宮１０６４番地１,,21,341,5031301,,,,,,,2025-03-06,1,,,,,トウライショウジ,0
1204,5200001043493,新規,0,2025-03-06,2025-03-06,株式会社くみひだ,,株式会社,岐阜県,高山市,松之木町３２４番地８,,21,203,5060802,,,,,,,2025-03-06,1,,,,,クミヒダ,0
1205,5200001043502,新規,0,2025-03-06,2025-03-06,株式会社Ｒ＆Ｇ　Ｃｏｌｌｅｃｔｉｏｎ,,株式会社,岐阜県,大垣市,墨俣町さい川１１７番地,,21,202,5030106,,,,,,,2025-03-06,1,,,,,アールアンドジーコレクション,0
1207,5220001026521,新規,0,2025-03-06,2025-03-06,株式会社市建,,株式会社,石川県,金沢市,駅西新町１丁目３８番４号（トロワ・ヴィラージュ・２０２号）,,17,201,9200027,,,,,,,2025-03-06,1,,,,,イチケン,0
1211,5240001064610,新規,0,2025-03-06,2025-03-06,株式会社Ｇｒａｃｅ　ｗａｎ,,株式会社,広島県,広島市佐伯区,新宮苑１３番１０号,,34,108,7315126,,,,,,,2025-03-06,1,,,,,グレースワン,0
1216,5250001021024,新規,0,2025-03-06,2025-03-06,株式会社エムズコーポレーション,,株式会社,山口県,光市,虹ケ丘７丁目１９番３２号,,35,210,7430031,,,,,,,2025-03-06,1,,,,,エムズコーポレーション,0
1217,5250001021032,新規,0,2025-03-06,2025-03-06,株式会社マーレ,,株式会社,山口県,山口市,小郡みらい町１丁目１番１０号,,35,203,7540032,,,,,,,2025-03-06,1,,,,,マーレ,0
1220,5260001039965,新規,0,2025-03-06,2025-03-06,株式会社農耕舎,,株式会社,岡山県,赤磐市,穂崎４８４番地,,33,213,7090824,,,,,,,2025-03-06,1,,,,,ノウコウシャ,0
1227,5290001109170,新規,0,2025-03-06,2025-03-06,株式会社Ｍ３,,株式会社,福岡県,福岡市博多区,博多駅前３丁目４番２５号,,40,132,8120011,,,,,,,2025-03-06,1,,,,,エムスリー,0
1228,5290001109179,新規,0,2025-03-06,2025-03-06,株式会社ランドル,,株式会社,福岡県,大野城市,山田３丁目４番８号,,40,219,8160922,,,,,,,2025-03-06,1,,,,,ランドル,0
1229,5290001109187,新規,0,2025-03-06,2025-03-06,ドリームシェアサポート株式会社,,株式会社,福岡県,福岡市中央区,赤坂１丁目１２番６号,,40,133,8100042,,,,,,,2025-03-06,1,,,,,ドリームシェアサポート,0
1230,5290001109212,新規,0,2025-03-06,2025-03-06,株式会社Ｎａｔｕｒａｌ,,株式会社,福岡県,小郡市,古飯７６５番地２,,40,216,8380124,,,,,,,2025-03-06,1,,,,,ナチュラル,0
1231,5290001109229,新規,0,2025-03-06,2025-03-06,株式会社ＳＰＡＣＥ　ＣＲＥＡＴＵＳ,,株式会社,福岡県,福岡市南区,寺塚１丁目１３番４号,,40,134,8150074,,,,,,,2025-03-06,1,,,,,スペースクリエイタス,0
1234,5290003016480,新規,0,2025-03-06,2025-03-06,合同会社ＴＴａｓｓｏ,,合同会社,福岡県,福岡市東区,原田２丁目１９－１５,,40,131,8120063,,,,,,,2025-03-06,1,,,,,タッソ,0
1237,5290801031326,新規,0,2025-03-06,2025-03-06,株式会社井上工務店,,株式会社,福岡県,北九州市八幡西区,本城東４丁目３－３,,40,109,8070815,,,,,,,2025-03-06,1,,,,,イノウエコウムテン,0
1238,5290801031334,新規,0,2025-03-06,2025-03-06,株式会社ＦＲＵＯＲ,,株式会社,福岡県,北九州市若松区,中畑町２３番１７号,,40,103,8080047,,,,,,,2025-03-06,1,,,,,フルオール,0
1241,5320003004589,新規,0,2025-03-06,2025-03-06,ルリエクル合同会社,,合同会社,大分県,大分市,舞鶴町３丁目１番１６号,,44,201,8700044,,,,,,,2025-03-06,1,,,,,ルリエクル,0
1242,5330001032938,新規,0,2025-03-06,2025-03-06,株式会社田山ヘルスケアサービス,,株式会社,熊本県,宇土市,入地町１６１番地２,,43,211,8690422,,,,,,,2025-03-06,1,,,,,タヤマヘルスケアサービス,0
1243,5330001032946,新規,0,2025-03-06,2025-03-06,株式会社ｍｉｇｎｏｎｎｅ　ｍｉｍｉ,,株式会社,熊本県,熊本市北区,植木町伊知坊４１０－５,,43,105,8610113,,,,,,,2025-03-06,1,,,,,ミニョンヌミミ,0
1245,5330003010883,新規,0,2025-03-06,2025-03-06,長岡産業合同会社,,合同会社,熊本県,八代市,袋町４番１４号,,43,202,8660855,,,,,,,2025-03-06,1,,,,,ナガオカサンギョウ,0
1249,5350001019421,新規,0,2025-03-06,2025-03-06,株式会社ＧＲＡＮＤ　ＬＩＦＥ,,株式会社,宮崎県,都城市,太郎坊町１８５２番地５,,45,202,8850002,,,,,,,2025-03-06,1,,,,,グランドライフ,0
1254,5360001034881,新規,0,2025-03-06,2025-03-06,真琉エンジ株式会社,,株式会社,沖縄県,南城市,佐敷字新里１７４番地,,47,215,9011412,,,,,,,2025-03-06,1,,,,,シンリュウエンジ,0
1257,5360003014709,新規,0,2025-03-06,2025-03-06,合同会社Ｊａｓｍｉｎｅ,,合同会社,沖縄県,宜野湾市,真栄原２丁目１－８ラフォンテＵＫ３０１号室,,47,205,9012215,,,,,,,2025-03-06,1,,,,,ジャスミン,0
1258,5370003006960,新規,0,2025-03-06,2025-03-06,合同会社ＤＳＨ,,合同会社,宮城県,多賀城市,八幡３丁目１５番３０号３１５サーティ１０１号室,,04,209,9850874,,,,,,,2025-03-06,1,,,,,ディーエスエイチ,0
1260,5390001017900,新規,0,2025-03-06,2025-03-06,株式会社ＨＩＲＲ,,株式会社,山形県,東置賜郡川西町,大字上小松９３２番地,,06,382,9990121,,,,,,,2025-03-06,1,,,,,エイチアイアールアール,0
1265,5410001014085,新規,0,2025-03-06,2025-03-06,株式会社Ｇｒｉｔ,,株式会社,秋田県,秋田市,楢山登町７‐１０・２Ｆ,,05,201,0100021,,,,,,,2025-03-06,1,,,,,グリット,0
1273,5430001093796,新規,0,2025-03-06,2025-03-06,株式会社Ｈｉｍｙｕ,,株式会社,北海道,札幌市南区,簾舞三条５丁目６番１６号,,01,106,0612263,,,,,,,2025-03-06,1,,,,,ヒミュウ,0
1275,5460301005283,新規,0,2025-03-06,2025-03-06,ホクトコアポレーション株式会社,,株式会社,北海道,網走郡大空町,女満別中央２６０番地２０,,01,564,0992371,,,,,,,2025-03-06,1,,,,,ホクトコアポレーション,0
1280,5490001010985,新規,0,2025-03-06,2025-03-06,株式会社ＮＡＲ,,株式会社,高知県,高知市,北本町３丁目９番３８－９０１号,,39,201,7800056,,,,,,,2025-03-06,1,,,,,ナー,0
1283,5500001026179,新規,0,2025-03-06,2025-03-06,株式会社木藤新聞舗,,株式会社,愛媛県,四国中央市,川之江町１８０９番地８,,38,213,7990101,,,,,,,2025-03-06,1,,,,,キトウシンブンホ,0
1289,6010001252468,新規,0,2025-03-06,2025-03-06,株式会社アートバロン,,株式会社,東京都,中央区,銀座１丁目２２－１１銀座大竹ビジデンス２Ｆアドバロン,,13,102,1040061,,,,,,,2025-03-06,1,,,,,アートバロン,0
1290,6010001252724,新規,0,2025-03-06,2025-03-06,瑞橋株式会社,,株式会社,東京都,千代田区,外神田２丁目１番８－１１３号,,13,101,1010021,,,,,,,2025-03-06,1,,,,,ズイキョウ,0
1291,6010001252732,新規,0,2025-03-06,2025-03-06,株式会社オーイージー・リニュウアブルズ,,株式会社,東京都,千代田区,丸の内３丁目２番２号丸の内二重橋ビル３階,,13,101,1000005,,,,,,,2025-03-06,1,,,,,オーイージーリニュウアブルズ,0
1292,6010001252781,新規,0,2025-03-06,2025-03-06,株式会社ＢＣＪ‐９６,,株式会社,東京都,千代田区,丸の内１丁目１番１号パレスビル５階,,13,101,1000005,,,,,,,2025-03-06,1,,,,,ビーシージェイナインティーシックス,0
1293,6010001252988,新規,0,2025-03-06,2025-03-06,株式会社ＬｅＶｅｎｔ,,株式会社,東京都,文京区,大塚５丁目１６番１４号プラティーク文京護国寺２０１,,13,105,1120012,,,,,,,2025-03-06,1,,,,,ルヴァン,0
1295,6010003046595,新規,0,2025-03-06,2025-03-06,合同会社Ｌｉｇｈｔ　ｓｔａｒ,,合同会社,東京都,千代田区,東神田１丁目６番４号東神田テラスレジデンス７０９号,,13,101,1010031,,,,,,,2025-03-06,1,,,,,ライトスター,0
1296,6010003046620,新規,0,2025-03-06,2025-03-06,合同会社トパーズ,,合同会社,東京都,千代田区,二番町３番地麹町スクエア株式会社シリウス・アドバイザリー内,,13,101,1020084,,,,,,,2025-03-06,1,,,,,トパーズ,0
1297,6010003046645,新規,0,2025-03-06,2025-03-06,Ａｄａ西東京１‐３合同会社,,合同会社,東京都,中央区,八重洲２丁目２番１号,,13,102,1040028,,,,,,,2025-03-06,1,,,,,エイダニシトウキョウイチノサン,0
1303,6010401188403,新規,0,2025-03-06,2025-03-06,株式会社オタッキーＡＩ,,株式会社,東京都,港区,六本木７丁目１４－２３ラウンドクロス六本木４階,,13,103,1060032,,,,,,,2025-03-06,1,,,,,オタッキーエーアイ,0
1304,6010401188667,新規,0,2025-03-06,2025-03-06,株式会社Ｎｅｘｔ　Ｒｅｓｅａｒｃｈ,,株式会社,東京都,港区,新橋１丁目１番１３号アーバンネット内幸町ビル５３７,,13,103,1050004,,,,,,,2025-03-06,1,,,,,ネクストリサーチ,0
1306,6010403034547,新規,0,2025-03-06,2025-03-06,合同会社プライム３８号,,合同会社,東京都,港区,元麻布３丁目１－３４,,13,103,1060046,,,,,,,2025-03-06,1,,,,,プライムサンジュウハチゴウ,0
1307,6010405024158,新規,0,2025-03-06,2025-03-06,一般社団法人ＩＫＬ,,その他の設立登記法人,東京都,港区,虎ノ門５丁目３番２０号株式会社アカウンティング・マネジメント・サービス内,,13,103,1050001,,,,,,,2025-03-06,1,,,,,アイケーエル,0
1316,6010601066879,新規,0,2025-03-06,2025-03-06,誉欽株式会社,,株式会社,東京都,江東区,北砂５丁目１９－３１セトルコート大島６０４号,,13,108,1360073,,,,,,,2025-03-06,1,,,,,ヨキン,0
1317,6010601066904,新規,0,2025-03-06,2025-03-06,ブルーマウンテン株式会社,,株式会社,東京都,墨田区,東駒形１丁目７番１５号ＤＥＣＯ３Ｆ,,13,107,1300005,,,,,,,2025-03-06,1,,,,,ブルーマウンテン,0
1320,6010801035898,新規,0,2025-03-06,2025-03-06,株式会社みすず綜合社,,株式会社,東京都,大田区,大森本町１丁目６番２－１０１５号,,13,111,1430011,,,,,,,2025-03-06,1,,,,,ミスズソウゴウシャ,0
1323,6010901056935,新規,0,2025-03-06,2025-03-06,株式会社グレープエステイト,,株式会社,東京都,世田谷区,奥沢５丁目２６番４号ダイヤハイツ自由が丘,,13,112,1580083,,,,,,,2025-03-06,1,,,,,グレープエステイト,0
1324,6010903009750,新規,0,2025-03-06,2025-03-06,合同会社コージェリ,,合同会社,東京都,世田谷区,太子堂４丁目１８番１５号マガザン三軒茶屋２－３Ｆ－３,,13,112,1540004,,,,,,,2025-03-06,1,,,,,コージェリ,0
1327,6011001167581,新規,0,2025-03-06,2025-03-06,株式会社Ｆｉｖｅｋ,,株式会社,東京都,目黒区,三田１丁目９－８Ａｌｆｌａｔ三田１０１,,13,110,1530062,,,,,,,2025-03-06,1,,,,,ファイベック,0
1328,6011001168076,新規,0,2025-03-06,2025-03-06,株式会社ＡＲＩＫＡ,,株式会社,東京都,渋谷区,渋谷２丁目１９－１５宮益坂ビルディング６０９,,13,113,1500002,,,,,,,2025-03-06,1,,,,,アリカ,0
1329,6011001168175,新規,0,2025-03-06,2025-03-06,ＹＴレントラスト株式会社,,株式会社,東京都,目黒区,自由が丘１丁目３１番２号２階,,13,110,1520035,,,,,,,2025-03-06,1,,,,,ワイティーレントラスト,0
1330,6011003021134,新規,0,2025-03-06,2025-03-06,新和興産合同会社,,合同会社,東京都,目黒区,目黒２丁目７番１４号,,13,110,1530063,,,,,,,2025-03-06,1,,,,,シンワコウサン,0
1333,6011101110879,新規,0,2025-03-06,2025-03-06,株式会社プラス,,株式会社,東京都,新宿区,矢来町８２番地,,13,104,1620805,,,,,,,2025-03-06,1,,,,,プラス,0
1335,6011103015606,新規,0,2025-03-06,2025-03-06,合同会社ｎｏｔ　ｅｑｕａｌ　ｏｎｌｉｎｅ,,合同会社,東京都,新宿区,西新宿３丁目３番１３号西新宿水間ビル２Ｆ,,13,104,1600023,,,,,,,2025-03-06,1,,,,,ノットイコールオンライン,0
1336,6011103015622,新規,0,2025-03-06,2025-03-06,合同会社アヴァンティ,,合同会社,東京都,新宿区,新宿２丁目１２番１３号新宿アントレサロンビル２階,,13,104,1600022,,,,,,,2025-03-06,1,,,,,アヴァンティ,0
1339,6011301030398,新規,0,2025-03-06,2025-03-06,株式会社安，龍,,株式会社,東京都,杉並区,和泉１丁目３５番１９号,,13,115,1680063,,,,,,,2025-03-06,1,,,,,アンロン,0
1345,6011603004629,新規,0,2025-03-06,2025-03-06,ＦＭアドバイザリー合同会社,,合同会社,東京都,練馬区,高松１丁目４２－１,,13,120,1790075,,,,,,,2025-03-06,1,,,,,エフエムアドバイザリー,0
1348,6011801045706,新規,0,2025-03-06,2025-03-06,順成株式会社,,株式会社,東京都,葛飾区,金町２丁目２１－１トップ金町４０９号室,,13,122,1250042,,,,,,,2025-03-06,1,,,,,ジュンセイ,0
1352,6012801023800,新規,0,2025-03-06,2025-03-06,株式会社ＧＣＡ　Ｎｅｘｕｓ,,株式会社,東京都,昭島市,昭和町２丁目７番１１－７０２号,,13,207,1960015,,,,,,,2025-03-06,1,,,,,ジーシーエーネクサス,0
1358,6020001161726,新規,0,2025-03-06,2025-03-06,株式会社Ｌｉｅｎ,,株式会社,神奈川県,川崎市多摩区,菅馬場２丁目６番３３号ハイツシャラ２０２,,14,135,2140004,,,,,,,2025-03-06,1,,,,,リアン,0
1359,6020001161750,新規,0,2025-03-06,2025-03-06,株式会社デジタルアドバンテージサポート,,株式会社,神奈川県,横浜市都筑区,北山田６丁目２６番３号,,14,118,2240021,,,,,,,2025-03-06,1,,,,,デジタルアドバンテージサポート,0
1360,6020001161759,新規,0,2025-03-06,2025-03-06,ＮｏＯｎｅ株式会社,,株式会社,神奈川県,川崎市川崎区,砂子１丁目８番４号,,14,131,2100006,,,,,,,2025-03-06,1,,,,,ノーワン,0
1361,6020001161783,新規,0,2025-03-06,2025-03-06,株式会社ミラステージ,,株式会社,神奈川県,川崎市麻生区,万福寺４丁目１９番１－８３８号,,14,137,2150004,,,,,,,2025-03-06,1,,,,,ミラステージ,0
1363,6020003027966,新規,0,2025-03-06,2025-03-06,合同会社ＨｕｉｔＭｅｒｓ,,合同会社,神奈川県,横浜市青葉区,美しが丘西２丁目３７番地２７,,14,117,2250001,,,,,,,2025-03-06,1,,,,,ユイットメール,0
1366,6021001084594,新規,0,2025-03-06,2025-03-06,株式会社ＩＮ‐ＴＥＣＨ,,株式会社,神奈川県,厚木市,飯山南５丁目１６番６号,,14,212,2430218,,,,,,,2025-03-06,1,,,,,インテック,0
1367,6021001084611,新規,0,2025-03-06,2025-03-06,株式会社やもり,,株式会社,神奈川県,大和市,中央林間３丁目１３番２２号林間コーポＡ号,,14,213,2420007,,,,,,,2025-03-06,1,,,,,ヤモリ,0
1369,6021003015671,新規,0,2025-03-06,2025-03-06,合同会社ハートフル,,合同会社,神奈川県,茅ヶ崎市,本村３丁目９番７号,,14,207,2530042,,,,,,,2025-03-06,1,,,,,ハートフル,0
1370,6021005013285,新規,0,2025-03-06,2025-03-06,一般社団法人クレアル,,その他の設立登記法人,神奈川県,相模原市緑区,吉野５０２番地２,,14,151,2520183,,,,,,,2025-03-06,1,,,,,クレアル,0
1372,6030001165180,新規,0,2025-03-06,2025-03-06,株式会社松田電気,,株式会社,埼玉県,新座市,北野２丁目１１番２４号,,11,230,3520003,,,,,,,2025-03-06,1,,,,,マツダデンキ,0
1373,6030001165189,新規,0,2025-03-06,2025-03-06,株式会社Ｙ＆Ａ,,株式会社,埼玉県,新座市,野火止４丁目１番１５－１１０６号,,11,230,3520011,,,,,,,2025-03-06,1,,,,,ワイアンドエー,0
1374,6030001165214,新規,0,2025-03-06,2025-03-06,いつも株式会社,,株式会社,埼玉県,久喜市,菖蒲町菖蒲１３７５番地４,,11,232,3460106,,,,,,,2025-03-06,1,,,,,イツモ,0
1375,6030001165239,新規,0,2025-03-06,2025-03-06,株式会社クロニクル・オブ・ライフ,,株式会社,埼玉県,さいたま市大宮区,大門町３丁目１６３番地１第２５松ビル２階,,11,103,3300846,,,,,,,2025-03-06,1,,,,,クロニクルオブライフ,0
1379,6030003026257,新規,0,2025-03-06,2025-03-06,合同会社ＳＲＴ,,合同会社,埼玉県,川越市,大字今福８９８番地１４,,11,201,3501151,,,,,,,2025-03-06,1,,,,,エスアールティー,0
1380,6030003026265,新規,0,2025-03-06,2025-03-06,合同会社ケーエムワイ,,合同会社,埼玉県,さいたま市大宮区,仲町１丁目８７番地３第五ヨシケンビル,,11,103,3300845,,,,,,,2025-03-06,1,,,,,ケーエムワイ,0
1381,6030003026273,新規,0,2025-03-06,2025-03-06,合同会社ＫＵＵエステート,,合同会社,埼玉県,蓮田市,大字笹山６０１,,11,238,3490103,,,,,,,2025-03-06,1,,,,,クウエステート,0
1383,6040001137682,新規,0,2025-03-06,2025-03-06,株式会社Ｓｕｚｕｎｅ　Ｉｎｖｅｓｔｍｅｎｔ　Ｇｒｏｕｐ,,株式会社,千葉県,佐倉市,染井野７丁目３２番地９,,12,212,2850831,,,,,,,2025-03-06,1,,,,,スズネインベストメントグループ,0
1384,6040001137690,新規,0,2025-03-06,2025-03-06,株式会社ＳＯＬＯＩＳＴ,,株式会社,千葉県,柏市,東上町１－１ダイヤモンドクレスト柏３０４,,12,217,2770011,,,,,,,2025-03-06,1,,,,,ソロイスト,0
1386,6040003027048,新規,0,2025-03-06,2025-03-06,クレストクレスタ合同会社,,合同会社,千葉県,浦安市,当代島２丁目１３番８―４０５号エクセレントプレイス浦安５,,12,227,2790001,,,,,,,2025-03-06,1,,,,,クレストクレスタ,0
1387,6050001056254,新規,0,2025-03-06,2025-03-06,ステラクラブアセットマネジメント株式会社,,株式会社,茨城県,牛久市,牛久町３２７０番地１１,,08,219,3001221,,,,,,,2025-03-06,1,,,,,ステラクラブアセットマネジメント,0
1390,6060001037971,新規,0,2025-03-06,2025-03-06,株式会社中商リサイクル,,株式会社,栃木県,那須塩原市,二区町４７８番地７,,09,213,3292733,,,,,,,2025-03-06,1,,,,,ナカショウリサイクル,0
1391,6060001037988,新規,0,2025-03-06,2025-03-06,株式会社つなぐ,,株式会社,栃木県,真岡市,荒町２丁目１１番地４,,09,209,3214305,,,,,,,2025-03-06,1,,,,,ツナグ,0
1397,6080001026790,新規,0,2025-03-06,2025-03-06,株式会社Ｓｍｉｌｅｓ　ｏｆ　Ｔｈａｎｋｓ,,株式会社,静岡県,静岡市葵区,古庄３丁目１７番３２号ヴァンダーレ２０２号,,22,101,4200812,,,,,,,2025-03-06,1,,,,,スマイルズオブサンクス,0
1398,6080101025346,新規,0,2025-03-06,2025-03-06,株式会社アツカル,,株式会社,静岡県,熱海市,春日町９番１号２２０７,,22,205,4130005,,,,,,,2025-03-06,1,,,,,アツカル,0
1399,6080103003267,新規,0,2025-03-06,2025-03-06,合同会社ＭＲＯ,,合同会社,静岡県,富士市,依田原新田１０４番地の１２ＭＲＯビル３Ｆ,,22,210,4170053,,,,,,,2025-03-06,1,,,,,エムアールオー,0
1402,6080401027785,新規,0,2025-03-06,2025-03-06,株式会社ビルドギルド,,株式会社,静岡県,浜松市中央区,富塚町４７０２番地の１グランフォルム西,,22,138,4328002,,,,,,,2025-03-06,1,,,,,ビルドギルド,0
1403,6080403005211,新規,0,2025-03-06,2025-03-06,合同会社ぐっど,,合同会社,静岡県,浜松市中央区,篠ケ瀬町７５７番地の７,,22,138,4350042,,,,,,,2025-03-06,1,,,,,グッド,0
1407,6100001038362,新規,0,2025-03-06,2025-03-06,株式会社Ｊ・Ｓ・Ｐ,,株式会社,長野県,大町市,常盤４４９番地４,,20,212,3980004,,,,,,,2025-03-06,1,,,,,ジェイエスピー,0
1409,6100003008025,新規,0,2025-03-06,2025-03-06,合同会社ＭＩＹＡＮＡＫＡ設備,,合同会社,長野県,松本市,大字惣社５５３番地１０,,20,202,3900305,,,,,,,2025-03-06,1,,,,,ミヤナカセツビ,0
1411,6110001039079,新規,0,2025-03-06,2025-03-06,柴田建築株式会社,,株式会社,新潟県,新潟市江南区,祖父興野３３４番地,,15,104,9501144,,,,,,,2025-03-06,1,,,,,シバタケンチク,0
1412,6110001039087,新規,0,2025-03-06,2025-03-06,株式会社さかつめ農場,,株式会社,新潟県,長岡市,六日市町１７１０番地２,,15,202,9401133,,,,,,,2025-03-06,1,,,,,サカツメノウジョウ,0
1421,6120001273288,新規,0,2025-03-06,2025-03-06,星辰科技株式会社,,株式会社,大阪府,大阪市西成区,橘１丁目１１－２８オフィスポート橘３０４号室,,27,122,5570051,,,,,,,2025-03-06,1,,,,,セイシンテクノロジー,0
1422,6120001273338,新規,0,2025-03-06,2025-03-06,トゥララ株式会社,,株式会社,大阪府,大阪市中央区,淡路町３丁目５番１３号創建御堂筋ビル２階,,27,128,5410047,,,,,,,2025-03-06,1,,,,,トゥララ,0
1423,6120001273346,新規,0,2025-03-06,2025-03-06,偉大前程株式会社,,株式会社,大阪府,大阪市住之江区,安立２丁目１０番１４号三坂ビル３０３号室,,27,125,5590003,,,,,,,2025-03-06,1,,,,,イダイゼンテイ,0
1424,6120001273362,新規,0,2025-03-06,2025-03-06,株式会社ＡＩＬＬＩＯ,,株式会社,大阪府,大阪市中央区,南船場２丁目１１番１２号アオヤマビル３－Ａ,,27,128,5420081,,,,,,,2025-03-06,1,,,,,エーリオ,0
1425,6120001273429,新規,0,2025-03-06,2025-03-06,株式会社ＴＫ,,株式会社,大阪府,大阪市住之江区,住之江３丁目４番２号,,27,125,5590004,,,,,,,2025-03-06,1,,,,,ティーケー,0
1427,6120101071179,新規,0,2025-03-06,2025-03-06,株式会社わかば給食,,株式会社,大阪府,貝塚市,澤１０４３番地１５,,27,208,5970062,,,,,,,2025-03-06,1,,,,,ワカバキュウショク,0
1428,6120103006298,新規,0,2025-03-06,2025-03-06,合同会社Ａｒｋ,,合同会社,大阪府,堺市西区,浜寺船尾町西１丁５０番地２０,,27,144,5928342,,,,,,,2025-03-06,1,,,,,アーク,0
1439,6130001079115,新規,0,2025-03-06,2025-03-06,株式会社Ｂａｌｌｏｏｎ　Ｄｅｓｉｇｎ　Ｗｏｒｋｓ,,株式会社,京都府,京都市北区,紫野下柳町３番地,,26,101,6038174,,,,,,,2025-03-06,1,,,,,バルーンデザインワークス,0
1440,6130001079123,新規,0,2025-03-06,2025-03-06,株式会社カインドハンズ,,株式会社,京都府,向日市,寺戸町飛龍７番地の８,,26,208,6170002,,,,,,,2025-03-06,1,,,,,カインドハンズ,0
1441,6130003010250,新規,0,2025-03-06,2025-03-06,合同会社Ｅ＆Ｂ,,合同会社,京都府,京都市右京区,梅津上田町４番地３揺籃ガーデンＦ号室,,26,108,6150932,,,,,,,2025-03-06,1,,,,,イーアンドビー,0
1442,6130003010259,新規,0,2025-03-06,2025-03-06,ＦＵＮ　ＣＯＮＮＥＣＴ合同会社,,合同会社,京都府,京都市中京区,富小路通錦小路下る西大文字町５９９番地５１２号室,,26,104,6048054,,,,,,,2025-03-06,1,,,,,ファンコネクト,0
1444,6140001137524,新規,0,2025-03-06,2025-03-06,日新技研株式会社,,株式会社,兵庫県,芦屋市,東山町１６番１１－１００号２Ｆ,,28,206,6590091,,,,,,,2025-03-06,1,,,,,ニッシンギケン,0
1445,6140001137672,新規,0,2025-03-06,2025-03-06,株式会社Ｃｅｌｋｉａ,,株式会社,兵庫県,川西市,けやき坂３丁目１２－１０,,28,217,6660145,,,,,,,2025-03-06,1,,,,,セルキア,0
1452,6150001027922,新規,0,2025-03-06,2025-03-06,株式会社トトリエ,,株式会社,奈良県,奈良市,神功４丁目１番地の２,,29,201,6310804,,,,,,,2025-03-06,1,,,,,トトリエ,0
1460,6180001165752,新規,0,2025-03-06,2025-03-06,株式会社ＥＭＯＴＩＯＮ　ＲＨＹＴＨＭ,,株式会社,愛知県,名古屋市守山区,弁天が丘１１１６番地,,23,113,4630027,,,,,,,2025-03-06,1,,,,,エモーションリズム,0
1467,6180003028081,新規,0,2025-03-06,2025-03-06,合同会社ｒｅ,,合同会社,愛知県,名古屋市東区,泉１丁目５番２６号ローレルコート泉７０４号,,23,102,4610001,,,,,,,2025-03-06,1,,,,,リ,0
1468,6180301039581,新規,0,2025-03-06,2025-03-06,株式会社大和精密工業,,株式会社,愛知県,豊橋市,細谷町字坂東堀４２番地の６,,23,201,4413113,,,,,,,2025-03-06,1,,,,,ダイワセイミツコウギョウ,0
1472,6190003004924,新規,0,2025-03-06,2025-03-06,合同会社Ｉ．,,合同会社,三重県,伊勢市,上地町１５０６－８,,24,203,5160051,,,,,,,2025-03-06,1,,,,,アイドット,0
1477,6210001020086,新規,0,2025-03-06,2025-03-06,株式会社ＥＮＶＹＹ．,,株式会社,福井県,鯖江市,柳町１丁目１０番１２号第三窪田ビル３Ｆ１２,,18,207,9160047,,,,,,,2025-03-06,1,,,,,エンヴィー,0
1481,6230001020778,新規,0,2025-03-06,2025-03-06,株式会社ＡＬＢＡＴＲＯＳＳ,,株式会社,富山県,南砺市,山見１５７５番地１,,16,210,9320231,,,,,,,2025-03-06,1,,,,,アルバトロス,0
1482,6230003002386,新規,0,2025-03-06,2025-03-06,合同会社いつきアソシエイツ,,合同会社,富山県,南砺市,山見２２０３番地１０,,16,210,9320231,,,,,,,2025-03-06,1,,,,,イツキアソシエイツ,0
1487,6250003003663,新規,0,2025-03-06,2025-03-06,みなみマリン合同会社,,合同会社,山口県,岩国市,南岩国町１丁目２４番６０－４号,,35,208,7400034,,,,,,,2025-03-06,1,,,,,ミナミマリン,0
1495,6290001109161,新規,0,2025-03-06,2025-03-06,株式会社ＹＵＫＯ,,株式会社,福岡県,福岡市城南区,東油山２丁目７－７,,40,136,8140155,,,,,,,2025-03-06,1,,,,,ユーコー,0
1496,6290001109228,新規,0,2025-03-06,2025-03-06,株式会社ＳＳトレーディング,,株式会社,福岡県,宗像市,石丸２丁目９番１２号パインビリーフジヤ１０３号,,40,220,8114147,,,,,,,2025-03-06,1,,,,,エスエストレーディング,0
1497,6290001109236,新規,0,2025-03-06,2025-03-06,株式会社ＴＥＲＩＹＡＫＩ,,株式会社,福岡県,久留米市,東町３３－９鷲崎ビル３０１,,40,203,8300032,,,,,,,2025-03-06,1,,,,,テリヤキ,0
1498,6290003016496,新規,0,2025-03-06,2025-03-06,ＦＩＲＳＴ合同会社,,合同会社,福岡県,筑後市,大字羽犬塚６５７番地３,,40,211,8330003,,,,,,,2025-03-06,1,,,,,ファースト,0
1499,6290801031333,新規,0,2025-03-06,2025-03-06,株式会社ＨＩＧＧＤＥＳＩＧＮ,,株式会社,福岡県,北九州市小倉南区,上石田２丁目３番６号,,40,107,8020833,,,,,,,2025-03-06,1,,,,,ヒグデザイン,0
1504,6330001032937,新規,0,2025-03-06,2025-03-06,豊住電設株式会社,,株式会社,熊本県,熊本市西区,田崎町４３０番地９,,43,103,8600058,,,,,,,2025-03-06,1,,,,,トヨズミデンセツ,0
1505,6330003010882,新規,0,2025-03-06,2025-03-06,ベルブロッサム合同会社,,合同会社,熊本県,熊本市西区,横手４丁目１３番５－５０２号,,43,103,8600046,,,,,,,2025-03-06,1,,,,,ベルブロッサム,0
1508,6350001019420,新規,0,2025-03-06,2025-03-06,株式会社聖,,株式会社,宮崎県,延岡市,松山町１１４３番地,,45,203,8820062,,,,,,,2025-03-06,1,,,,,ヒジリ,0
1512,6360001034872,新規,0,2025-03-06,2025-03-06,株式会社ＳＵＮ　ＦＡＣＥ沖縄,,株式会社,沖縄県,浦添市,宮城１丁目１番１３号,,47,208,9012126,,,,,,,2025-03-06,1,,,,,サンフェイスオキナワ,0
1518,6370005010919,新規,0,2025-03-06,2025-03-06,一般社団法人アイソンサポート,,その他の設立登記法人,宮城県,亘理郡亘理町,字新町２２番地１,,04,361,9892351,,,,,,,2025-03-06,1,,,,,アイソンサポート,0
1523,6390001017899,新規,0,2025-03-06,2025-03-06,株式会社スズキファーム,,株式会社,山形県,西置賜郡白鷹町,大字広野１５９３番地,,06,402,9920851,,,,,,,2025-03-06,1,,,,,スズキファーム,0
1524,6390001017908,新規,0,2025-03-06,2025-03-06,旭光株式会社,,株式会社,山形県,長井市,東町４番１－１号,,06,209,9930003,,,,,,,2025-03-06,1,,,,,アサヒ,0
1528,6420001019041,新規,0,2025-03-06,2025-03-06,株式会社Ｃ＆Ｋ,,株式会社,青森県,三戸郡五戸町,大字倉石又重字上川原１１０番地２,,02,442,0391703,,,,,,,2025-03-06,1,,,,,シイアンドケイ,0
1532,6430001093795,新規,0,2025-03-06,2025-03-06,エンタライフ株式会社,,株式会社,北海道,札幌市東区,北十四条東１５丁目２番１－１００１号,,01,103,0650014,,,,,,,2025-03-06,1,,,,,エンタライフ,0
1535,6430003017315,新規,0,2025-03-06,2025-03-06,合同会社ｎｅｃｏ,,合同会社,北海道,札幌市中央区,南五条西１５丁目２－３－５０３,,01,101,0640805,,,,,,,2025-03-06,1,,,,,ネコ,0
1539,6450003002612,新規,0,2025-03-06,2025-03-06,Ｐａｄｅｌ　Ｐｌｕｓ合同会社,,合同会社,北海道,富良野市,北の峰町１１番１３号,,01,229,0760034,,,,,,,2025-03-06,1,,,,,パデルプラス,0
1540,6470003002825,新規,0,2025-03-06,2025-03-06,Ｌｙｎｘ合同会社,,合同会社,香川県,綾歌郡綾川町,滝宮１０１３番地２５,,37,387,7612305,,,,,,,2025-03-06,1,,,,,リンクス,0
1543,6500001026178,新規,0,2025-03-06,2025-03-06,株式会社Ｌｅａ,,株式会社,愛媛県,松山市,衣山３丁目３番４５号,,38,201,7918025,,,,,,,2025-03-06,1,,,,,レア,0
1544,6500003003448,新規,0,2025-03-06,2025-03-06,合同会社Ｗｅ　Ｒｉｄｅ　Ｊａｐａｎ,,合同会社,愛媛県,喜多郡内子町,内子１９７３番地,,38,422,7913301,,,,,,,2025-03-06,1,,,,,ウィーライドジャパン,0
1555,7010001252896,新規,0,2025-03-06,2025-03-06,国際興産株式会社,,株式会社,東京都,中央区,日本橋兜町５番１号兜町第１平和ビル７階税理士法人レコルテ内,,13,102,1030026,,,,,,,2025-03-06,1,,,,,コクサイコウサン,0
1557,7010003046636,新規,0,2025-03-06,2025-03-06,合同会社ＦＵＮＡＤＥ,,合同会社,東京都,中央区,京橋２丁目１２番６号ＡＯＪ税理士法人内,,13,102,1040031,,,,,,,2025-03-06,1,,,,,フナデ,0
1558,7010003046644,新規,0,2025-03-06,2025-03-06,ＴＣ福島蓄電合同会社,,合同会社,東京都,千代田区,神田練塀町３番地,,13,101,1010022,,,,,,,2025-03-06,1,,,,,ティーシーフクシマチクデン,0
1560,7010005039687,新規,0,2025-03-06,2025-03-06,一般社団法人教育技術連携機構,,その他の設立登記法人,東京都,千代田区,九段南３丁目４番５号フタバ九段ビル３Ｆ,,13,101,1020074,,,,,,,2025-03-06,1,,,,,キョウイクギジュツレンケイキコウ,0
1565,7010401188575,新規,0,2025-03-06,2025-03-06,株式会社ＡＭＣ　ＳＣＨＯＵ　Ｊａｐａｎ,,株式会社,東京都,港区,赤坂７丁目６－１５赤坂ロイヤルビル３０６室,,13,103,1070052,,,,,,,2025-03-06,1,,,,,エーエムシースゴージャパン,0
1566,7010401188633,新規,0,2025-03-06,2025-03-06,株式会社グランヤード,,株式会社,東京都,港区,新橋４丁目１４番１号,,13,103,1050004,,,,,,,2025-03-06,1,,,,,グランヤード,0
1567,7010401188724,新規,0,2025-03-06,2025-03-06,株式会社ＣＯＲＥ,,株式会社,東京都,港区,高輪４丁目２３番６号ハイホーム高輪７０８,,13,103,1080074,,,,,,,2025-03-06,1,,,,,コア,0
1571,7010403034546,新規,0,2025-03-06,2025-03-06,合同会社プライム３７号,,合同会社,東京都,港区,元麻布３丁目１－３４,,13,103,1060046,,,,,,,2025-03-06,1,,,,,プライムサンジュウナナゴウ,0
1576,7010605004421,新規,0,2025-03-06,2025-03-06,医療法人社団ひざとこかんせつ,,その他の設立登記法人,東京都,江東区,亀戸５丁目１番２号ＬＩＶ亀戸２・４階,,13,108,1360071,,,,,,,2025-03-06,1,,,,,ヒザトコカンセツ,0
1583,7011001168018,新規,0,2025-03-06,2025-03-06,株式会社Ｂ．Ａ．Ｇ　ＤＥＳＩＧＮ,,株式会社,東京都,渋谷区,神南１丁目１１番４号ＦＰＧリンクス神南５階,,13,113,1500041,,,,,,,2025-03-06,1,,,,,ビーエージーデザイン,0
1584,7011001168083,新規,0,2025-03-06,2025-03-06,株式会社ＴＩＭＥ　ＩＳ,,株式会社,東京都,渋谷区,渋谷２丁目１９番１９号ワコー宮益坂ビル５階,,13,113,1500002,,,,,,,2025-03-06,1,,,,,タイムイズ,0
1585,7011001168100,新規,0,2025-03-06,2025-03-06,株式会社レイズ,,株式会社,東京都,渋谷区,渋谷２丁目１９‐１５‐６０９,,13,113,1500002,,,,,,,2025-03-06,1,,,,,レイズ,0
1586,7011001168208,新規,0,2025-03-06,2025-03-06,クリームソーダ株式会社,,株式会社,東京都,渋谷区,渋谷１丁目２３番２３号,,13,113,1500002,,,,,,,2025-03-06,1,,,,,クリームソーダ,0
1587,7011003021109,新規,0,2025-03-06,2025-03-06,キラキラトモ合同会社,,合同会社,東京都,渋谷区,道玄坂１丁目１０番８号渋谷道玄坂東急ビル２Ｆ－Ｃ,,13,113,1500043,,,,,,,2025-03-06,1,,,,,,0
1588,7011003021125,新規,0,2025-03-06,2025-03-06,合同会社ＢｌｕｅＢｅｅ,,合同会社,東京都,渋谷区,渋谷２丁目１９‐１５宮益坂ビルディング６０９,,13,113,1500002,,,,,,,2025-03-06,1,,,,,ブルービー,0
1589,7011005010893,新規,0,2025-03-06,2025-03-06,一般社団法人ＡＩ業務活用推進協会,,その他の設立登記法人,東京都,渋谷区,神泉町２０番２１号クロスシー渋谷神泉ビル,,13,113,1500045,,,,,,,2025-03-06,1,,,,,エーアイギョウムスイシンキョウカイ,0
1591,7011101110878,新規,0,2025-03-06,2025-03-06,アイグラウンド株式会社,,株式会社,東京都,新宿区,西新宿３丁目３番１３号西新宿水間ビル２Ｆ,,13,104,1600023,,,,,,,2025-03-06,1,,,,,アイグラウンド,0
1594,7011203004631,新規,0,2025-03-06,2025-03-06,合同会社地所サポート,,合同会社,東京都,中野区,野方４丁目２番地１号１０３号室,,13,114,1650027,,,,,,,2025-03-06,1,,,,,チショサポート,0
1595,7011303005439,新規,0,2025-03-06,2025-03-06,合同会社森立石フーズ,,合同会社,東京都,杉並区,和泉４丁目２０番１３号和泉サンハイツＢ－１,,13,115,1680063,,,,,,,2025-03-06,1,,,,,モリタテイシフーズ,0
1602,7011801045738,新規,0,2025-03-06,2025-03-06,株式会社ＡＲＫ,,株式会社,東京都,葛飾区,金町６丁目２－１ヴィナシス金町１５０９号室,,13,122,1250042,,,,,,,2025-03-06,1,,,,,アーク,0
1603,7012301014282,新規,0,2025-03-06,2025-03-06,株式会社たけとみ,,株式会社,東京都,町田市,中町３丁目９番５号豊明ハイツ１０１,,13,209,1940021,,,,,,,2025-03-06,1,,,,,タケトミ,0
1604,7012303002120,新規,0,2025-03-06,2025-03-06,組込みラーニング合同会社,,合同会社,東京都,町田市,成瀬２丁目４－１６,,13,209,1940044,,,,,,,2025-03-06,1,,,,,クミコミラーニング,0
1606,7012401042836,新規,0,2025-03-06,2025-03-06,株式会社ＨＩＢＩＫＩ,,株式会社,東京都,府中市,宮西町５丁目６番地の２アローランドマンション２０３,,13,206,1830022,,,,,,,2025-03-06,1,,,,,ヒビキ,0
1607,7012403007003,新規,0,2025-03-06,2025-03-06,ＳＳ＆Ｃｏｍｐａｎｙ合同会社,,合同会社,東京都,武蔵野市,吉祥寺北町３丁目７番８号,,13,203,1800001,,,,,,,2025-03-06,1,,,,,エスエスアンドカンパニー,0
1608,7012703003214,新規,0,2025-03-06,2025-03-06,合同会社ぷれりゅーど,,合同会社,東京都,東久留米市,浅間町３丁目３－５,,13,222,2030012,,,,,,,2025-03-06,1,,,,,プレリュード,0
1623,7020001161683,新規,0,2025-03-06,2025-03-06,株式会社キソシン,,株式会社,神奈川県,横浜市瀬谷区,五貫目町２４－２１－２０３号室,,14,114,2460008,,,,,,,2025-03-06,1,,,,,キソシン,0
1629,7021001084585,新規,0,2025-03-06,2025-03-06,株式会社ＴＯＢＩ,,株式会社,神奈川県,厚木市,愛名９３５番地１コーポ愛名Ａ３０１号,,14,212,2430038,,,,,,,2025-03-06,1,,,,,トビ,0
1630,7021001084593,新規,0,2025-03-06,2025-03-06,座間園芸株式会社,,株式会社,神奈川県,相模原市中央区,田名６００４番地１４,,14,152,2520244,,,,,,,2025-03-06,1,,,,,ザマエンゲイ,0
1631,7021001084602,新規,0,2025-03-06,2025-03-06,株式会社ＭＳコンサルティング,,株式会社,神奈川県,藤沢市,亀井野２丁目２７番地の１２,,14,205,2520813,,,,,,,2025-03-06,1,,,,,エムエスコンサルティング,0
1632,7021001084610,新規,0,2025-03-06,2025-03-06,株式会社エイトクリーン,,株式会社,神奈川県,相模原市中央区,宮下本町３丁目２５番３号,,14,152,2520211,,,,,,,2025-03-06,1,,,,,エイトクリーン,0
1636,7030001165155,新規,0,2025-03-06,2025-03-06,Ｍ・Ａ・Ｓ株式会社,,株式会社,埼玉県,本庄市,児玉町児玉２６５９番地２,,11,211,3670212,,,,,,,2025-03-06,1,,,,,エムエーエス,0
1637,7030001165188,新規,0,2025-03-06,2025-03-06,株式会社山陽,,株式会社,埼玉県,ふじみ野市,鶴ケ岡３丁目２番２９号,,11,245,3560045,,,,,,,2025-03-06,1,,,,,サンヨウ,0
1638,7030001165221,新規,0,2025-03-06,2025-03-06,Ｙ　ａｎｄ　Ｍ　Ｃｒｅａｔｅ株式会社,,株式会社,埼玉県,新座市,石神４丁目２番１７－１４号,,11,230,3520033,,,,,,,2025-03-06,1,,,,,ワイアンドエムクリエイト,0
1639,7030001165270,新規,0,2025-03-06,2025-03-06,株式会社ＮＯＶＡ　ＲＩＦＩＸ,,株式会社,埼玉県,さいたま市南区,南浦和２丁目８番１４号コルティーレ１０４号,,11,108,3360017,,,,,,,2025-03-06,1,,,,,ノヴァリフィックス,0
1643,7030003026264,新規,0,2025-03-06,2025-03-06,合同会社みさと総合企画,,合同会社,埼玉県,吉川市,中央１丁目２４番地１９,,11,243,3420061,,,,,,,2025-03-06,1,,,,,ミサトソウゴウキカク,0
1644,7030003026272,新規,0,2025-03-06,2025-03-06,サンブンノニ合同会社,,合同会社,埼玉県,朝霞市,宮戸４丁目１２番２４号サングローリー朝霞台３１０号,,11,227,3510031,,,,,,,2025-03-06,1,,,,,サンブンノニ,0
1649,7040001137649,新規,0,2025-03-06,2025-03-06,株式会社ＭＯＶ,,株式会社,千葉県,八千代市,勝田台４丁目２８番地６,,12,221,2760023,,,,,,,2025-03-06,1,,,,,モヴ,0
1650,7040001137673,新規,0,2025-03-06,2025-03-06,株式会社なじみや,,株式会社,千葉県,千葉市花見川区,こてはし台６丁目５２番７号,,12,102,2620005,,,,,,,2025-03-06,1,,,,,ナジミヤ,0
1651,7040001137681,新規,0,2025-03-06,2025-03-06,株式会社ハイフォレスト,,株式会社,千葉県,茂原市,木崎２０４１番地８,,12,210,2970016,,,,,,,2025-03-06,1,,,,,ハイフォレスト,0
1652,7040001137698,新規,0,2025-03-06,2025-03-06,株式会社ＪＡＣＫ,,株式会社,千葉県,松戸市,栗ケ沢８２９番地の１カスターニャＩ棟１０３号,,12,207,2700022,,,,,,,2025-03-06,1,,,,,ジャック,0
1653,7040001137715,新規,0,2025-03-06,2025-03-06,スベデイー株式会社,,株式会社,千葉県,佐倉市,江原台２丁目３３－１４－２０１号室,,12,212,2850825,,,,,,,2025-03-06,1,,,,,スベデイー,0
1655,7040003026949,新規,0,2025-03-06,2025-03-06,ＮＯＹＵ　ＨＯＭＥ合同会社,,合同会社,千葉県,船橋市,金杉台２丁目２－１５－４０２号,,12,204,2730852,,,,,,,2025-03-06,1,,,,,ノユホーム,0
1656,7040003027039,新規,0,2025-03-06,2025-03-06,合同会社カプセルコーポレーション,,合同会社,千葉県,木更津市,富士見２丁目２番１４号越路ビル２階１号,,12,206,2920831,,,,,,,2025-03-06,1,,,,,カプセルコーポレーション,0
1660,7050003009085,新規,0,2025-03-06,2025-03-06,菅合同会社,,合同会社,茨城県,北茨城市,中郷町粟野７８９番地の６２,,08,215,3191554,,,,,,,2025-03-06,1,,,,,カン,0
1664,7060001037970,新規,0,2025-03-06,2025-03-06,株式会社丸福産業,,株式会社,栃木県,真岡市,小林１１８１番地１,,09,209,3214321,,,,,,,2025-03-06,1,,,,,マルフクサンギョウ,0
1666,7070001042697,新規,0,2025-03-06,2025-03-06,株式会社Ｄワーク,,株式会社,群馬県,前橋市,粕川町深津１６６７番地２４,,10,201,3710215,,,,,,,2025-03-06,1,,,,,ディーワーク,0
1675,7100001038345,新規,0,2025-03-06,2025-03-06,株式会社にこやま,,株式会社,長野県,松本市,大字岡田下岡田４８３番地２,,20,202,3900313,,,,,,,2025-03-06,1,,,,,ニコヤマ,0
1676,7100001038361,新規,0,2025-03-06,2025-03-06,リトリーブ株式会社,,株式会社,長野県,飯田市,座光寺４５９０番地,,20,205,3950001,,,,,,,2025-03-06,1,,,,,リトリーブ,0
1679,7110001039078,新規,0,2025-03-06,2025-03-06,ＮＫファクトリー株式会社,,株式会社,新潟県,三条市,塚野目２丁目９番１号,,15,204,9550055,,,,,,,2025-03-06,1,,,,,エヌケーファクトリー,0
1680,7110001039086,新規,0,2025-03-06,2025-03-06,株式会社繁蔵,,株式会社,新潟県,刈羽郡刈羽村,大字赤田町方９１９番地,,15,504,9450323,,,,,,,2025-03-06,1,,,,,シゲゾウ,0
1681,7110001039094,新規,0,2025-03-06,2025-03-06,株式会社ＨＭファーム,,株式会社,新潟県,上越市,柿崎区猿毛１０７２番地２,,15,222,9493367,,,,,,,2025-03-06,1,,,,,エイチエムファーム,0
1691,7120001273411,新規,0,2025-03-06,2025-03-06,株式会社ゆうりん,,株式会社,大阪府,守口市,南寺方北通１丁目１３番６号,,27,209,5700046,,,,,,,2025-03-06,1,,,,,ユウリン,0
1692,7120001273428,新規,0,2025-03-06,2025-03-06,株式会社新運家族,,株式会社,大阪府,大阪市住吉区,長居３丁目３番２８号Ｂ４０２号室,,27,120,5580003,,,,,,,2025-03-06,1,,,,,シンウンカゾク,0
1693,7120001273444,新規,0,2025-03-06,2025-03-06,株式会社Ｓｔｅａｄｙ　Ｏｃｅａｎ,,株式会社,大阪府,大阪市中央区,北浜１丁目５番１０号高階ビル２Ｆ,,27,128,5410041,,,,,,,2025-03-06,1,,,,,ステディオーシャン,0
1694,7120001273502,新規,0,2025-03-06,2025-03-06,株式会社しど,,株式会社,大阪府,大阪市生野区,中川東１丁目２番２５－７０７号,,27,116,5440006,,,,,,,2025-03-06,1,,,,,シド,0
1696,7120003028788,新規,0,2025-03-06,2025-03-06,合同会社ＹＡＥＮ,,合同会社,大阪府,大阪市浪速区,桜川４丁目１４番２１‐７０４号,,27,111,5560022,,,,,,,2025-03-06,1,,,,,ヤエン,0
1701,7120101071194,新規,0,2025-03-06,2025-03-06,株式会社光輝,,株式会社,大阪府,泉佐野市,市場西２丁目７番１３号,,27,213,5980006,,,,,,,2025-03-06,1,,,,,コウキ,0
1702,7120105009975,新規,0,2025-03-06,2025-03-06,特定非営利活動法人ぜん,,その他の設立登記法人,大阪府,堺市北区,常磐町３丁７番地２１,,27,146,5918001,,,,,,,2025-03-06,1,,,,,ゼン,0
1712,7130001079097,新規,0,2025-03-06,2025-03-06,Ｓａｐｐｈｉｒｕｓ　Ｔｒｕｓｔ株式会社,,株式会社,京都府,京田辺市,田辺沓脱４１番地,,26,211,6100331,,,,,,,2025-03-06,1,,,,,サフィルストラスト,0
1713,7130001079106,新規,0,2025-03-06,2025-03-06,株式会社三成建設,,株式会社,京都府,久世郡久御山町,大橋辺１番地４３,,26,322,6130046,,,,,,,2025-03-06,1,,,,,サンセイケンセツ,0
1714,7130001079122,新規,0,2025-03-06,2025-03-06,株式会社コンフィアンステクノ,,株式会社,京都府,京都市伏見区,淀際目町３２７番地の１６,,26,109,6130915,,,,,,,2025-03-06,1,,,,,コンフィアンステクノ,0
1723,7150003003516,新規,0,2025-03-06,2025-03-06,合同会社アスリートラボ,,合同会社,奈良県,香芝市,良福寺２５７－１５,,29,210,6390235,,,,,,,2025-03-06,1,,,,,アスリートラボ,0
1725,7160001026591,新規,0,2025-03-06,2025-03-06,株式会社壱弥,,株式会社,滋賀県,大津市,札の辻４番１６号日赤前シブヤビル１階北,,25,201,5200045,,,,,,,2025-03-06,1,,,,,イチヤ,0
1732,7180003028080,新規,0,2025-03-06,2025-03-06,合同会社ｋｏｎｏ,,合同会社,愛知県,稲沢市,祖父江町甲新田前田１１２番地４,,23,220,4950022,,,,,,,2025-03-06,1,,,,,コウノ,0
1733,7180301039564,新規,0,2025-03-06,2025-03-06,株式会社リンクアップ,,株式会社,愛知県,岡崎市,北本郷町字神明９番地１１,,23,202,4440944,,,,,,,2025-03-06,1,,,,,リンクアップ,0
1736,7180303006471,新規,0,2025-03-06,2025-03-06,合同会社イマジネイティブ・アンダーバー,,合同会社,愛知県,岡崎市,明大寺町字奈良井４０番地,,23,202,4440864,,,,,,,2025-03-06,1,,,,,イマジネイティブアンダーバー,0
1741,7200001043483,新規,0,2025-03-06,2025-03-06,ＲＥＨＭＡＮ　ＴＲＡＤＩＮＧ株式会社,,株式会社,岐阜県,岐阜市,黒野南３丁目５長屋マンション１０１号,,21,201,5011136,,,,,,,2025-03-06,1,,,,,レフマントレーディング,0
1742,7210003001892,新規,0,2025-03-06,2025-03-06,合同会社おも屋,,合同会社,福井県,鯖江市,新横江１丁目４番１９－５号,,18,207,9160042,,,,,,,2025-03-06,1,,,,,オモヤ,0
1743,7220001026528,新規,0,2025-03-06,2025-03-06,株式会社ＴＯＴＡＬ　ＢＡＳＥ,,株式会社,石川県,金沢市,太陽が丘３丁目７５番地,,17,201,9201154,,,,,,,2025-03-06,1,,,,,トータルベース,0
1745,7230001020769,新規,0,2025-03-06,2025-03-06,株式会社堀メンテナンス,,株式会社,富山県,射水市,生源寺新４３番地,,16,211,9390414,,,,,,,2025-03-06,1,,,,,ホリメンテナンス,0
1750,7260001039988,新規,0,2025-03-06,2025-03-06,株式会社ラフェスタ,,株式会社,岡山県,倉敷市,水江１４１０番地６,,33,202,7100802,,,,,,,2025-03-06,1,,,,,ラフェスタ,0
1753,7290001109177,新規,0,2025-03-06,2025-03-06,株式会社ＦＹパートナーズ,,株式会社,福岡県,福岡市中央区,高砂１丁目７番１７号アーバンＩＩ１０１号室,00138232,40,133,8100011,,,,,,,2025-03-06,1,,,,,エフワイパートナーズ,0
1754,7290001109219,新規,0,2025-03-06,2025-03-06,株式会社隆華産業,,株式会社,福岡県,福岡市中央区,平尾１丁目１１番６－４１１号,,40,133,8100014,,,,,,,2025-03-06,1,,,,,リュウカサンギョウ,0
1755,7290001109235,新規,0,2025-03-06,2025-03-06,ＡＭＧホールディングス株式会社,,株式会社,福岡県,福岡市博多区,博多駅東１丁目２番２号,,40,132,8120013,,,,,,,2025-03-06,1,,,,,エイエムジーホールディングス,0
1757,7290003016487,新規,0,2025-03-06,2025-03-06,合同会社ＰＯＮＤＺ,,合同会社,福岡県,福岡市博多区,博多駅前１丁目２３番２号ＰａｒｋＦｒｏｎｔ博多駅前１丁目５Ｆ－Ｂ,,40,132,8120011,,,,,,,2025-03-06,1,,,,,,0
1758,7300001014111,新規,0,2025-03-06,2025-03-06,株式会社Ｅ．Ｆ．Ｃ,,株式会社,佐賀県,伊万里市,波多津町中山９７２番地,,41,205,8480115,,,,,,,2025-03-06,1,,,,,イーエフシー,0
1759,7330001032944,新規,0,2025-03-06,2025-03-06,株式会社あすなろ社,,株式会社,熊本県,上益城郡益城町,大字広崎８１５番地４,,43,443,8612236,,,,,,,2025-03-06,1,,,,,アスナロシャ,0
1760,7330001032952,新規,0,2025-03-06,2025-03-06,株式会社三浦サン,,株式会社,熊本県,熊本市東区,八反田２丁目２番６－４０３号,,43,102,8618034,,,,,,,2025-03-06,1,,,,,ミウラサン,0
1762,7330003010881,新規,0,2025-03-06,2025-03-06,合同会社ｓｏｍｅｔｈｉｎｇ　ｅｌｓｅ,,合同会社,熊本県,八代市,西松江城町４番３０号,,43,202,8660863,,,,,,,2025-03-06,1,,,,,サムシングエルス,0
1763,7340001027159,新規,0,2025-03-06,2025-03-06,株式会社カノヤ宮下製茶,,株式会社,鹿児島県,鹿屋市,東原町６２０４番地２５,,46,203,8930021,,,,,,,2025-03-06,1,,,,,カノヤミヤシタセイチャ,0
1764,7340005009822,新規,0,2025-03-06,2025-03-06,特定非営利活動法人未来へつなぐ田中一村,,その他の設立登記法人,鹿児島県,奄美市,名瀬末広町１番１１号,,46,222,8940027,,,,,,,2025-03-06,1,,,,,ミライヘツナグタナカイッソン,0
1777,7390001017898,新規,0,2025-03-06,2025-03-06,株式会社まほろばかじゅ園,,株式会社,山形県,東置賜郡高畠町,大字金原１８３番地,,06,381,9920311,,,,,,,2025-03-06,1,,,,,マホロバカジュエン,0
1779,7400001016964,新規,0,2025-03-06,2025-03-06,株式会社香りと,,株式会社,岩手県,奥州市,江刺愛宕字大畑１７５番地１,,03,215,0231131,,,,,,,2025-03-06,1,,,,,カオリト,0
1780,7410001014083,新規,0,2025-03-06,2025-03-06,株式会社吉虎,,株式会社,秋田県,横手市,平鹿町浅舞字浅舞３４６番地１,,05,203,0130105,,,,,,,2025-03-06,1,,,,,キチトラ,0
1784,7420001019040,新規,0,2025-03-06,2025-03-06,村畑電工株式会社,,株式会社,青森県,上北郡六戸町,小松ケ丘４丁目７７番地１１３１,,02,405,0330074,,,,,,,2025-03-06,1,,,,,ムラハタデンコウ,0
1787,7430001093828,新規,0,2025-03-06,2025-03-06,株式会社オルカアカウンティング,,株式会社,北海道,札幌市厚別区,大谷地西３丁目２－３,,01,108,0040042,,,,,,,2025-03-06,1,,,,,オルカアカウンティング,0
1789,7440001009576,新規,0,2025-03-06,2025-03-06,株式会社Ｈ．Ｌ,,株式会社,北海道,函館市,旭町３番１号,,01,202,0400037,,,,,,,2025-03-06,1,,,,,エイチドットエル,0
1790,7440003001671,新規,0,2025-03-06,2025-03-06,合同会社Ｙ,,合同会社,北海道,函館市,富岡町１丁目１６番２号,,01,202,0410811,,,,,,,2025-03-06,1,,,,,ワイ,0
1792,7450003002611,新規,0,2025-03-06,2025-03-06,合同会社中塚漁業,,合同会社,北海道,稚内市,宗谷岬１１番２１号,,01,214,0986758,,,,,,,2025-03-06,1,,,,,ナカツカギョギョウ,0
1797,7490003001989,新規,0,2025-03-06,2025-03-06,自由軒合同会社,,合同会社,高知県,高岡郡越知町,越知甲１４９１番地,,39,403,7811301,,,,,,,2025-03-06,1,,,,,ジユウケン,0
1798,7490005006978,新規,0,2025-03-06,2025-03-06,特定非営利活動法人高知県遊漁船協議会,,その他の設立登記法人,高知県,高知市,神田１１２０番地７,,39,201,7808040,,,,,,,2025-03-06,1,,,,,コウチケンユウギョセンキョウギカイ,0
1799,7500001026169,新規,0,2025-03-06,2025-03-06,株式会社８８,,株式会社,愛媛県,東温市,北野田４７番地１,,38,215,7910215,,,,,,,2025-03-06,1,,,,,ハチハチ,0
1800,7500001026177,新規,0,2025-03-06,2025-03-06,河内設備株式会社,,株式会社,愛媛県,大洲市,長浜町下須戒１４番地４,,38,207,7993441,,,,,,,2025-03-06,1,,,,,コウチセツビ,0
1802,7500003003447,新規,0,2025-03-06,2025-03-06,ａ‐ｔｓｕｂａｋｉ合同会社,,合同会社,愛媛県,松山市,居相１丁目３番１号,,38,201,7900934,,,,,,,2025-03-06,1,,,,,アツバキ,0
1803,7700150117384,新規,0,2025-03-06,2025-03-06,深セン市双聚電子有限公司,,外国会社等,,,,,,,,深セン市龍華区民治街道民治大道牛欄前大厦主楼４楼Ｃ３２１室,,,,,,2025-03-06,1,,,,,シンジェンシシュアンジュディアンシーユーシャンゴンスー,0
1804,7700150123944,新規,0,2025-03-06,2025-03-06,Ｇｕａｎｇｚｈｏｕ　Ｎａｊｉｅ　Ｄｉａｎｚｉ　Ｓｈａｎｇｗｕ　Ｙｏｕｘｉａｎ　Ｇｏｎｇｓｉ,,外国会社等,,,,,,,,Ｒｏｏｍ　１０６，Ｆｅｎｇｚｅｄｏｎｇ　ＲＤ．，Ｎａｎｓｈａ，Ｇｕａｎｇｚｈｏｕ，Ｇｕａｎｇｄｏｎｇ，ＣＨＩＮＡ,,,,,,2025-03-06,1,,,,,コウシュウノウケツデンシショウムユウゲンコウシ,0
1814,8010001252771,新規,0,2025-03-06,2025-03-06,ＪＡＩＣデータダイナミクス株式会社,,株式会社,東京都,千代田区,九段北３丁目２番４号,,13,101,1020073,,,,,,,2025-03-06,1,,,,,ジャイクデータダイナミクス,0
1815,8010001252838,新規,0,2025-03-06,2025-03-06,株式会社コスモテラス．,,株式会社,東京都,中央区,日本橋人形町１丁目１９番８－１１０１号,,13,102,1030013,,,,,,,2025-03-06,1,,,,,コスモテラス,0
1819,8010003046593,新規,0,2025-03-06,2025-03-06,ココロＡＩ合同会社,,合同会社,東京都,中央区,銀座１丁目１２番４号Ｎ＆ＥＢＬＤ．６Ｆ,,13,102,1040061,,,,,,,2025-03-06,1,,,,,ココロエイアイ,0
1820,8010003046619,新規,0,2025-03-06,2025-03-06,合同会社ヒスイ,,合同会社,東京都,千代田区,二番町３番地麹町スクエア株式会社シリウス・アドバイザリー内,,13,101,1020084,,,,,,,2025-03-06,1,,,,,ヒスイ,0
1821,8010003046635,新規,0,2025-03-06,2025-03-06,合同会社エンジン,,合同会社,東京都,千代田区,神田和泉町１－６－１６ヤマトビル４０５,,13,101,1010024,,,,,,,2025-03-06,1,,,,,エンジン,0
1822,8010003046643,新規,0,2025-03-06,2025-03-06,Ｊ＆ＴＣ北芽室蓄電合同会社,,合同会社,東京都,千代田区,神田練塀町３番地,,13,101,1010022,,,,,,,2025-03-06,1,,,,,ジェイアンドティーシーキタメムロチクデン,0
1830,8010401188665,新規,0,2025-03-06,2025-03-06,Ｍｏｏｖｅ　Ｊａｐａｎ　Ｈｏｌｄｃｏ株式会社,,株式会社,東京都,港区,海岸１丁目２番２０号汐留ビルディング３階,,13,103,1050022,,,,,,,2025-03-06,1,,,,,ムーヴジャパンホールドコー,0
1831,8010401188698,新規,0,2025-03-06,2025-03-06,株式会社日本絵画保存システムズ,,株式会社,東京都,港区,赤坂６丁目４番１７－６０１号,,13,103,1070052,,,,,,,2025-03-06,1,,,,,ニホンカイガホゾンシステムズ,0
1834,8010403034537,新規,0,2025-03-06,2025-03-06,マリーナベイキャピタルアドバイザーズジャパン合同会社,,合同会社,東京都,港区,赤坂９丁目７－４－７２２,,13,103,1070052,,,,,,,2025-03-06,1,,,,,マリーナベイキャピタルアドバイザーズジャパン,0
1835,8010403034545,新規,0,2025-03-06,2025-03-06,合同会社プライム３６号,,合同会社,東京都,港区,元麻布３丁目１－３４,,13,103,1060046,,,,,,,2025-03-06,1,,,,,プライムサンジュウロクゴウ,0
1837,8010405024131,新規,0,2025-03-06,2025-03-06,ジー・エイ・ワン・レジデンス・ナイン特定目的会社,,その他の設立登記法人,東京都,港区,虎ノ門５丁目１番４号,,13,103,1050001,,,,,,,2025-03-06,1,,,,,ジーエイワンレジデンスナイン,0
1838,8010405024156,新規,0,2025-03-06,2025-03-06,Ｈｕｎｔｅｒ一般社団法人,,その他の設立登記法人,東京都,港区,虎ノ門２丁目６番１号,,13,103,1050001,,,,,,,2025-03-06,1,,,,,ハンター,0
1840,8010501053760,新規,0,2025-03-06,2025-03-06,株式会社ネクサス,,株式会社,東京都,台東区,上野２丁目１１番２号ＴＳ不忍ビル４階Ｂ号室,,13,106,1100005,,,,,,,2025-03-06,1,,,,,ネクサス,0
1843,8010601066885,新規,0,2025-03-06,2025-03-06,株式会社Ａｍａｎｉ　Ｎｅｓｔ,,株式会社,東京都,江東区,新砂２丁目１番２７－３１４号,,13,108,1360075,,,,,,,2025-03-06,1,,,,,アマニネスト,0
1845,8010701047372,新規,0,2025-03-06,2025-03-06,ＣＲＯＧ株式会社,,株式会社,東京都,品川区,西五反田２丁目９－７－４０７号,,13,109,1410031,,,,,,,2025-03-06,1,,,,,クログ,0
1847,8010801035896,新規,0,2025-03-06,2025-03-06,株式会社Ｌｉｅｎ,,株式会社,東京都,大田区,蒲田１丁目２番５号ビューハイム２０２号室,,13,111,1440052,,,,,,,2025-03-06,1,,,,,リヤン,0
1850,8010903009740,新規,0,2025-03-06,2025-03-06,合同会社Ｉ．Ｐ．Ｌ,,合同会社,東京都,世田谷区,宮坂３丁目４番５号ＫＴハウス,,13,112,1560051,,,,,,,2025-03-06,1,,,,,アイピーエル,0
1855,8011001167951,新規,0,2025-03-06,2025-03-06,株式会社オムらいす,,株式会社,東京都,渋谷区,渋谷２丁目１９－１５宮益坂ビルディング６０９,,13,113,1500002,,,,,,,2025-03-06,1,,,,,オムライス,0
1856,8011001168082,新規,0,2025-03-06,2025-03-06,株式会社アシスト,,株式会社,東京都,目黒区,上目黒３丁目１４番２６号グランツＡＦ－１０３,,13,110,1530051,,,,,,,2025-03-06,1,,,,,アシスト,0
1860,8011003021157,新規,0,2025-03-06,2025-03-06,合同会社ｂ．ｋ．ｂ．ｈ．,,合同会社,東京都,目黒区,上目黒２丁目６番１号,,13,110,1530051,,,,,,,2025-03-06,1,,,,,ビーケービーエイチ,0
1861,8011005010892,新規,0,2025-03-06,2025-03-06,一般社団法人らららクラブ,,その他の設立登記法人,東京都,渋谷区,渋谷３丁目５番１６号渋谷三丁目スクエアビル２階,,13,113,1500002,,,,,,,2025-03-06,1,,,,,ラララクラブ,0
1864,8011101110877,新規,0,2025-03-06,2025-03-06,株式会社勝どき,,株式会社,東京都,新宿区,大久保３丁目８番１－７０７号,,13,104,1690072,,,,,,,2025-03-06,1,,,,,カチドキ,0
1868,8011103015612,新規,0,2025-03-06,2025-03-06,ＳＥＩＫＯＵ合同会社,,合同会社,東京都,新宿区,大久保１丁目９番６号カネトモ新宿マンション１０Ｄ,,13,104,1690072,,,,,,,2025-03-06,1,,,,,セイコウ,0
1869,8011103015620,新規,0,2025-03-06,2025-03-06,合同会社雲水,,合同会社,東京都,新宿区,西新宿３丁目３番１３号西新宿水間ビル６階,,13,104,1600023,,,,,,,2025-03-06,1,,,,,ウンスイ,0
1870,8011303005438,新規,0,2025-03-06,2025-03-06,Ｋ合同会社,,合同会社,東京都,杉並区,荻窪５丁目３０番１２－７１３号グローリア荻窪,,13,115,1670051,,,,,,,2025-03-06,1,,,,,ケイ,0
1875,8011701028115,新規,0,2025-03-06,2025-03-06,Ｍ・Ｔ工業株式会社,,株式会社,東京都,江戸川区,北小岩６丁目３番９号,,13,123,1330051,,,,,,,2025-03-06,1,,,,,エムティコウギョウ,0
1887,8020001161690,新規,0,2025-03-06,2025-03-06,株式会社二引,,株式会社,神奈川県,横浜市港北区,大曽根台８番３１号,,14,109,2220004,,,,,,,2025-03-06,1,,,,,フタツヒキ,0
1888,8020001161732,新規,0,2025-03-06,2025-03-06,野村スタジオ株式会社,,株式会社,神奈川県,川崎市高津区,諏訪１丁目９番４１－２０１号,,14,134,2130004,,,,,,,2025-03-06,1,,,,,ノムラスタジオ,0
1890,8021001084601,新規,0,2025-03-06,2025-03-06,株式会社スターフィールド,,株式会社,神奈川県,相模原市南区,相模大野７丁目３５番２－１６０８号,,14,153,2520303,,,,,,,2025-03-06,1,,,,,スターフィールド,0
1891,8021001084626,新規,0,2025-03-06,2025-03-06,株式会社ＷＹ,,株式会社,神奈川県,大和市,中央２丁目７－２ＨＢビル大和２Ｆ,,14,213,2420021,,,,,,,2025-03-06,1,,,,,ダブリューワイ,0
1892,8021001084634,新規,0,2025-03-06,2025-03-06,神奈園ファーム株式会社,,株式会社,神奈川県,愛甲郡愛川町,半原８０７番地の１,,14,401,2430307,,,,,,,2025-03-06,1,,,,,カンナエンファーム,0
1894,8021005013291,新規,0,2025-03-06,2025-03-06,医療法人社団豪章会,,その他の設立登記法人,神奈川県,鎌倉市,城廻４８番地１,,14,204,2470074,,,,,,,2025-03-06,1,,,,,ゴウショウカイ,0
1897,8030001165170,新規,0,2025-03-06,2025-03-06,株式会社ＳＫグリット,,株式会社,埼玉県,さいたま市大宮区,桜木町４丁目３０１番地２アトラス大宮桜木町６０６,,11,103,3300854,,,,,,,2025-03-06,1,,,,,エスケイグリット,0
1898,8030001165179,新規,0,2025-03-06,2025-03-06,株式会社ひまわりホールディングス,,株式会社,埼玉県,上尾市,小泉６丁目３３番地１,,11,219,3620063,,,,,,,2025-03-06,1,,,,,ヒマワリホールディングス,0
1899,8030001165187,新規,0,2025-03-06,2025-03-06,株式会社８１８８,,株式会社,埼玉県,川口市,東領家２丁目３２番１１号,,11,203,3320003,,,,,,,2025-03-06,1,,,,,ハチイチハチハチ,0
1900,8030001165195,新規,0,2025-03-06,2025-03-06,株式会社サンエムイー,,株式会社,埼玉県,熊谷市,本町１丁目７２番地（１３０１）,,11,202,3600042,,,,,,,2025-03-06,1,,,,,サンエムイー,0
1901,8030001165229,新規,0,2025-03-06,2025-03-06,株式会社ｓｐｅｃｔｒｕｍ,,株式会社,埼玉県,入間市,小谷田１丁目１番４号,,11,225,3580026,,,,,,,2025-03-06,1,,,,,スペクトラム,0
1902,8030001165253,新規,0,2025-03-06,2025-03-06,株式会社Ｔ‐ＯＦＦＩＣＥ,,株式会社,埼玉県,本庄市,本庄１丁目１番２号,,11,211,3670051,,,,,,,2025-03-06,1,,,,,ティーオフィス,0
1903,8030001165286,新規,0,2025-03-06,2025-03-06,株式会社ギアサポ,,株式会社,埼玉県,さいたま市大宮区,三橋２丁目６５７番地１ラフレシール大宮２０１号室,,11,103,3300856,,,,,,,2025-03-06,1,,,,,ギアサポ,0
1907,8030003026288,新規,0,2025-03-06,2025-03-06,合同会社ＲＥＣ保険サービス,,合同会社,埼玉県,新座市,野火止８丁目２０番５３－２３号,,11,230,3520011,,,,,,,2025-03-06,1,,,,,レックホケンサービス,0
1909,8040001137656,新規,0,2025-03-06,2025-03-06,株式会社スポーツブレイントレーニング,,株式会社,千葉県,千葉市中央区,富士見２丁目７番９号富士見ビル６０９号,,12,101,2600015,,,,,,,2025-03-06,1,,,,,スポーツブレイントレーニング,0
1910,8040001137664,新規,0,2025-03-06,2025-03-06,テレジアプロジェクト株式会社,,株式会社,千葉県,成田市,加良部６丁目６番地３（１４０１号）,,12,211,2860036,,,,,,,2025-03-06,1,,,,,テレジアプロジェクト,0
1911,8040001137672,新規,0,2025-03-06,2025-03-06,ＧｅｒｂｅＲｉｓｅ株式会社,,株式会社,千葉県,千葉市花見川区,幕張町６丁目２９１番地２,,12,102,2620032,,,,,,,2025-03-06,1,,,,,ガーベライズ,0
1912,8040001137680,新規,0,2025-03-06,2025-03-06,株式会社慈愛,,株式会社,千葉県,四街道市,鹿渡１１０９番地１７,,12,228,2840003,,,,,,,2025-03-06,1,,,,,ジアイ,0
1913,8040001137714,新規,0,2025-03-06,2025-03-06,株式会社ＣＯＮＮＥＣＴ,,株式会社,千葉県,船橋市,坪井東６丁目５番２３号,,12,204,2740060,,,,,,,2025-03-06,1,,,,,コネクト,0
1914,8040001137722,新規,0,2025-03-06,2025-03-06,ＫＩＳＥＩ　Ｇｒｏｕｐ株式会社,,株式会社,千葉県,船橋市,栄町１丁目９番１－７２１号,,12,204,2730018,,,,,,,2025-03-06,1,,,,,キセイグループ,0
1922,8050001056260,新規,0,2025-03-06,2025-03-06,株式会社７８Ｇｅｎｅｒａｌ　Ｔｒａｄｉｎｇ,,株式会社,茨城県,龍ケ崎市,長沖町６番地１,,08,208,3010015,,,,,,,2025-03-06,1,,,,,ナナジュウハチゼネラルトレーディング,0
1925,8060001037978,新規,0,2025-03-06,2025-03-06,株式会社相真工業,,株式会社,栃木県,栃木市,樋ノ口町１０１番地１７,,09,203,3280024,,,,,,,2025-03-06,1,,,,,アイシンコウギョウ,0
1926,8060001037986,新規,0,2025-03-06,2025-03-06,株式会社後藤電匠,,株式会社,栃木県,大田原市,黒羽向町４８４番地５,,09,210,3240241,,,,,,,2025-03-06,1,,,,,ゴトウデンショウ,0
1927,8060003005438,新規,0,2025-03-06,2025-03-06,栃木総合販売合同会社,,合同会社,栃木県,小山市,大字雨ケ谷６２５番地８６,,09,208,3230826,,,,,,,2025-03-06,1,,,,,トチギソウゴウハンバイ,0
1937,8080101025352,新規,0,2025-03-06,2025-03-06,株式会社Ｃｈｉｃ,,株式会社,静岡県,富士市,川成新町３００番地の３,,22,210,4160955,,,,,,,2025-03-06,1,,,,,シック,0
1943,8100001038352,新規,0,2025-03-06,2025-03-06,高森マツザワファーム株式会社,,株式会社,長野県,下伊那郡高森町,下市田３１２３番地,,20,403,3993103,,,,,,,2025-03-06,1,,,,,タカモリマツザワファーム,0
1944,8100001038369,新規,0,2025-03-06,2025-03-06,株式会社ヒロセ,,株式会社,長野県,伊那市,日影３３４番地３,,20,209,3960009,,,,,,,2025-03-06,1,,,,,ヒロセ,0
1945,8100003008023,新規,0,2025-03-06,2025-03-06,合同会社ａｒｔな日,,合同会社,長野県,安曇野市,穂高有明７０４０番地２,,20,220,3998301,,,,,,,2025-03-06,1,,,,,アートナヒ,0
1947,8110001039093,新規,0,2025-03-06,2025-03-06,＿峰株式会社,00138238,株式会社,新潟県,上越市,柿崎区馬正面１２１０番地１８,,15,222,9493214,,,,,,,2025-03-06,1,,,,,ハクミネ,0
1954,8120001273179,新規,0,2025-03-06,2025-03-06,エコゼロ株式会社,,株式会社,大阪府,大阪市西区,南堀江３丁目９番２１－２０６号,,27,106,5500015,,,,,,,2025-03-06,1,,,,,エコゼロ,0
1955,8120001273501,新規,0,2025-03-06,2025-03-06,南海電気鉄道分割準備株式会社,,株式会社,大阪府,大阪市中央区,難波５丁目１番６０号,,27,128,5420076,,,,,,,2025-03-06,1,,,,,ナンカイデンキテツドウブンカツジュンビ,0
1956,8120003028804,新規,0,2025-03-06,2025-03-06,合同会社ゴールド,,合同会社,大阪府,大阪市淀川区,十三本町１丁目９番２０－４０１号,,27,123,5320024,,,,,,,2025-03-06,1,,,,,ゴールド,0
1957,8120003028812,新規,0,2025-03-06,2025-03-06,合同会社ＰｉＣｉ　Ｇｒｏｕｐ,,合同会社,大阪府,大阪市浪速区,戎本町１丁目９番２１－３０１号,,27,111,5560013,,,,,,,2025-03-06,1,,,,,ピシグループ,0
1959,8120101071177,新規,0,2025-03-06,2025-03-06,株式会社ＫＯＤＡＲＵ,,株式会社,大阪府,和泉市,三林町１０７４番地,,27,219,5941112,,,,,,,2025-03-06,1,,,,,コダル,0
1961,8122003003134,新規,0,2025-03-06,2025-03-06,Ｊａｐａｎ　Ｇｒｏｕｐ　Ｔｒａｖｅｌ合同会社,,合同会社,大阪府,東大阪市,金岡２丁目１５－９,,27,227,5770823,,,,,,,2025-03-06,1,,,,,ジャパングループトラベル,0
1964,8130001079047,新規,0,2025-03-06,2025-03-06,株式会社アリタ,,株式会社,京都府,京都市中京区,壬生馬場町３番地,,26,104,6048805,,,,,,,2025-03-06,1,,,,,アリタ,0
1965,8130001079063,新規,0,2025-03-06,2025-03-06,株式会社ＫｏｔｏＭｅｅｔ,,株式会社,京都府,京都市北区,衣笠街道町１６番地,,26,101,6038372,,,,,,,2025-03-06,1,,,,,コトミート,0
1966,8130001079096,新規,0,2025-03-06,2025-03-06,Ｒｕｂｅｕｓ　Ｔｒｕｓｔ株式会社,,株式会社,京都府,京田辺市,田辺沓脱４１番地,,26,211,6100331,,,,,,,2025-03-06,1,,,,,ルベウストラスト,0
1967,8130001079105,新規,0,2025-03-06,2025-03-06,工匠宮本株式会社,,株式会社,京都府,京都市北区,紫野東御所田町３９番地３,,26,101,6038164,,,,,,,2025-03-06,1,,,,,コウショウミヤモト,0
1968,8130001079138,新規,0,2025-03-06,2025-03-06,株式会社ハイ・ブリッジ,,株式会社,京都府,京都市下京区,綾西洞院町７５１番地プラネシア星の子四条西洞院８０４,,26,106,6008474,,,,,,,2025-03-06,1,,,,,ハイブリッジ,0
1969,8130001079146,新規,0,2025-03-06,2025-03-06,株式会社モモトキ,,株式会社,京都府,京都市下京区,七条通油小路東入大黒町２２７番地第２キョートビル４０２,,26,106,6008223,,,,,,,2025-03-06,1,,,,,モモトキ,0
1971,8130003010249,新規,0,2025-03-06,2025-03-06,辰墨空間合同会社,,合同会社,京都府,京都市中京区,堺町通三条下る道祐町１４１番地－４１０号室,,26,104,6048118,,,,,,,2025-03-06,1,,,,,シンボククウカン,0
1974,8140001137638,新規,0,2025-03-06,2025-03-06,アライアンスホールディングス株式会社,,株式会社,兵庫県,芦屋市,大桝町５番１５号,,28,206,6590066,,,,,,,2025-03-06,1,,,,,アライアンスホールディングス,0
1975,8140001137646,新規,0,2025-03-06,2025-03-06,株式会社ユニオン,,株式会社,兵庫県,神戸市中央区,八雲通１丁目１－３６マルイコーポ３０１,,28,110,6510078,,,,,,,2025-03-06,1,,,,,ユニオン,0
1976,8140001137662,新規,0,2025-03-06,2025-03-06,株式会社三徳,,株式会社,兵庫県,西宮市,東町１丁目１４番２０－１１１５号,,28,204,6620922,,,,,,,2025-03-06,1,,,,,サントク,0
1983,8180001165692,新規,0,2025-03-06,2025-03-06,株式会社ナミテック,,株式会社,愛知県,名古屋市守山区,桔梗平２丁目１９１５番地,,23,113,4630814,,,,,,,2025-03-06,1,,,,,ナミテック,0
1984,8180001165759,新規,0,2025-03-06,2025-03-06,株式会社つがわ,,株式会社,愛知県,名古屋市南区,松城町１丁目１５番地の９,,23,112,4570045,,,,,,,2025-03-06,1,,,,,ツガワ,0
1990,8180301039563,新規,0,2025-03-06,2025-03-06,あいＨＯＲＳＥ株式会社,,株式会社,愛知県,安城市,新明町１３番地８,,23,212,4460019,,,,,,,2025-03-06,1,,,,,アイホース,0
1991,8180301039571,新規,0,2025-03-06,2025-03-06,Ｓ‐ｐｒｉｍｅ株式会社,,株式会社,愛知県,豊橋市,柱一番町３２番地１,,23,201,4418054,,,,,,,2025-03-06,1,,,,,エスプライム,0
1992,8180301039588,新規,0,2025-03-06,2025-03-06,株式会社ＰＭリゾリューション,,株式会社,愛知県,西尾市,一色町佐久島前田１０,,23,213,4440416,,,,,,,2025-03-06,1,,,,,ピーエムリゾリューション,0
1995,8200001043499,新規,0,2025-03-06,2025-03-06,アグリックギフ株式会社,,株式会社,岐阜県,中津川市,苗木４２９６番地,,21,206,5080101,,,,,,,2025-03-06,1,,,,,アグリックギフ,0
1998,8220001026519,新規,0,2025-03-06,2025-03-06,株式会社ネクストワン,,株式会社,石川県,金沢市,東長江町ほ５２番地３,,17,201,9200822,,,,,,,2025-03-06,1,,,,,ネクストワン,0
1999,8220001026527,新規,0,2025-03-06,2025-03-06,株式会社Ｌｉｎｋ,,株式会社,石川県,金沢市,高尾台１丁目１５１番地２,,17,201,9218155,,,,,,,2025-03-06,1,,,,,リンク,0
2000,8220005008934,新規,0,2025-03-06,2025-03-06,社会福祉法人創風会,,その他の設立登記法人,石川県,白山市,今平町１１１番地２,,17,210,9240827,,,,,,,2025-03-06,1,,,,,ソウフウカイ,0
2001,8230001020768,新規,0,2025-03-06,2025-03-06,株式会社伊久三郎商店,,株式会社,富山県,富山市,二口町４丁目２番地１２,,16,201,9398211,,,,,,,2025-03-06,1,,,,,イクサブロウショウテン,0
2008,8250003003661,新規,0,2025-03-06,2025-03-06,合同会社亀楽,,合同会社,山口県,柳井市,伊陸６０６０番地,,35,212,7420201,,,,,,,2025-03-06,1,,,,,キラク,0
2014,8260005011447,新規,0,2025-03-06,2025-03-06,一般社団法人土屋雉翔会,,その他の設立登記法人,岡山県,岡山市北区,下石井２丁目１０番８号杜の街プラザ５階,,33,101,7000907,,,,,,,2025-03-06,1,,,,,ツチヤチショウカイ,0
2015,8280001009369,新規,0,2025-03-06,2025-03-06,株式会社栂前ファーム,,株式会社,島根県,松江市,東津田町７３８番地,,32,201,6900011,,,,,,,2025-03-06,1,,,,,トガマエファーム,0
2020,8290001109184,新規,0,2025-03-06,2025-03-06,株式会社コガネマル,,株式会社,福岡県,福岡市東区,千早３丁目９番２３号,,40,131,8130044,,,,,,,2025-03-06,1,,,,,コガネマル,0
2021,8290001109192,新規,0,2025-03-06,2025-03-06,株式会社ペンシルリープエッジ,,株式会社,福岡県,福岡市中央区,天神１丁目１０番２０号１５階,,40,133,8100001,,,,,,,2025-03-06,1,,,,,ペンシルリープエッジ,0
2022,8290001109226,新規,0,2025-03-06,2025-03-06,小西建装株式会社,,株式会社,福岡県,福岡市早良区,野芥６丁目５８番１８号,,40,137,8140171,,,,,,,2025-03-06,1,,,,,,0
2024,8290005019669,新規,0,2025-03-06,2025-03-06,ＮＰＯ法人Ｆｏｒｅｉｇｎ　ｔｅｃｈｎｉｃａｌ　ｔｒａｉｎｅｅ　ｓｕｐｐｏｒｔｓ,,その他の設立登記法人,福岡県,大野城市,白木原１丁目９番４３号７０２号室パレスＪＪ,,40,219,8160943,,,,,,,2025-03-06,1,,,,,フォーリンテクニカルトレイニーサポーツ,0
2026,8290801031323,新規,0,2025-03-06,2025-03-06,株式会社ｐｏｓｓｉｂｉｌｉｔｙ,,株式会社,福岡県,行橋市,大字大野井７８７番地１５,,40,213,8240041,,,,,,,2025-03-06,1,,,,,ポシビリティ,0
2030,8320001020973,新規,0,2025-03-06,2025-03-06,株式会社ＡＬＮ,,株式会社,大分県,大分市,新川町２丁目１０番６５－５０１号サクラリア新川,,44,201,8700016,,,,,,,2025-03-06,1,,,,,エーエルエヌ,0
2031,8330001032935,新規,0,2025-03-06,2025-03-06,株式会社キャップドゥーエデュケーションズ,,株式会社,熊本県,熊本市東区,花立２丁目３番７号,,43,102,8612118,,,,,,,2025-03-06,1,,,,,キャップドゥーエデュケーションズ,0
2039,8350003004864,新規,0,2025-03-06,2025-03-06,合同会社ウミノカンパニー,,合同会社,宮崎県,日向市,大字平岩１２１３１番地５,,45,206,8830022,,,,,,,2025-03-06,1,,,,,ウミノカンパニー,0
2050,8370003006966,新規,0,2025-03-06,2025-03-06,合同会社ＦＩＲＭＡＭＥＮＴ,,合同会社,宮城県,石巻市,中里７丁目２番７号,,04,202,9860815,,,,,,,2025-03-06,1,,,,,フィルマメント,0
2057,8400001016963,新規,0,2025-03-06,2025-03-06,株式会社甚,,株式会社,岩手県,八幡平市,勝善川原４４番地,,03,214,0287642,,,,,,,2025-03-06,1,,,,,ジン,0
2058,8410001014082,新規,0,2025-03-06,2025-03-06,ブルパワーファーム株式会社,,株式会社,秋田県,仙北市,角館町山谷川崎上萩ノ台２－３３,,05,215,0140345,,,,,,,2025-03-06,1,,,,,ブルパワーファーム,0
2062,8430001093843,新規,0,2025-03-06,2025-03-06,株式会社ＢＰ,,株式会社,北海道,札幌市中央区,北三条東５丁目３５７番地ザ・タワーズフロンティア札幌４０２号,,01,101,0600033,,,,,,,2025-03-06,1,,,,,ビーピー,0
2064,8440001009575,新規,0,2025-03-06,2025-03-06,株式会社ＤＫテクニカル,,株式会社,北海道,函館市,富岡町２丁目７番１８号,,01,202,0410811,,,,,,,2025-03-06,1,,,,,ディーケーテクニカル,0
2072,8500001026176,新規,0,2025-03-06,2025-03-06,株式会社テルオカ,,株式会社,愛媛県,松山市,南斎院町１１１３番地１２,,38,201,7918032,,,,,,,2025-03-06,1,,,,,テルオカ,0
2073,8500001026184,新規,0,2025-03-06,2025-03-06,株式会社グッドライフ,,株式会社,愛媛県,松山市,井門町４８９－１大久保ビル２０１,,38,201,7911114,,,,,,,2025-03-06,1,,,,,グッドライフ,0
2086,9010001252837,新規,0,2025-03-06,2025-03-06,株式会社東京電力タイムレスキャピタルＳＰＣ第４号,,株式会社,東京都,千代田区,丸の内２丁目２番１号,,13,101,1000005,,,,,,,2025-03-06,1,,,,,トウキョウデンリョクタイムレスキャピタルエスピーシーダイヨンゴウ,0
2087,9010001252861,新規,0,2025-03-06,2025-03-06,株式会社スクエア,,株式会社,東京都,千代田区,神田多町２丁目２番地１０－２階,,13,101,1010046,,,,,,,2025-03-06,1,,,,,スクエア,0
2088,9010003046618,新規,0,2025-03-06,2025-03-06,合同会社ルビー,,合同会社,東京都,千代田区,二番町３番地麹町スクエア株式会社シリウス・アドバイザリー内,,13,101,1020084,,,,,,,2025-03-06,1,,,,,ルビー,0
2089,9010003046634,新規,0,2025-03-06,2025-03-06,久世合同会社,,合同会社,東京都,千代田区,霞が関３丁目２番５号,,13,101,1000013,,,,,,,2025-03-06,1,,,,,クゼ,0
2090,9010003046659,新規,0,2025-03-06,2025-03-06,合同会社ＤｉｖｅＤｅｅｐ,,合同会社,東京都,中央区,新川１丁目３番２１号,,13,102,1040033,,,,,,,2025-03-06,1,,,,,ダイブディープ,0
2092,9010101016547,新規,0,2025-03-06,2025-03-06,株式会社ジーテック,,株式会社,東京都,八王子市,横川町７０８番地４,,13,201,1930823,,,,,,,2025-03-06,1,,,,,ジーテック,0
2100,9010401188573,新規,0,2025-03-06,2025-03-06,株式会社ＶＩＢＲＯＡ　Ｔｈｅ　Ｈａｙａｍａ,,株式会社,東京都,港区,赤坂８丁目６番１３号,,13,103,1070052,,,,,,,2025-03-06,1,,,,,ヴィブロアザハヤマ,0
2101,9010401188664,新規,0,2025-03-06,2025-03-06,株式会社プレストケア山口,,株式会社,東京都,港区,三田３丁目７番１８号,,13,103,1080073,,,,,,,2025-03-06,1,,,,,プレストケアヤマグチ,0
2102,9010401188722,新規,0,2025-03-06,2025-03-06,Ｒｅ．Ｆｕｊｉｎ株式会社,,株式会社,東京都,港区,新橋２丁目２０番１５号,,13,103,1050004,,,,,,,2025-03-06,1,,,,,リフジン,0
2104,9010403034544,新規,0,2025-03-06,2025-03-06,合同会社プライム３５号,,合同会社,東京都,港区,元麻布３丁目１－３４,,13,103,1060046,,,,,,,2025-03-06,1,,,,,プライムサンジュウゴゴウ,0
2107,9010501053685,新規,0,2025-03-06,2025-03-06,株式会社ＨＯＵＳＨＩＮ,,株式会社,東京都,台東区,上野４丁目５－５－７階,,13,106,1100005,,,,,,,2025-03-06,1,,,,,ホウシン,0
2108,9010501053751,新規,0,2025-03-06,2025-03-06,株式会社リライオンコネクト,,株式会社,東京都,台東区,２－１－１１井上ビル２階,,13,106,1100000,,,,,,,2025-03-06,1,,,,,リライオンコネクト,0
2112,9010505003587,新規,0,2025-03-06,2025-03-06,一般社団法人Ｇｌｏｂａｌ　Ｇａｍｉｎｇ　Ａｓｓｏｃｉａｔｉｏｎ,,その他の設立登記法人,東京都,台東区,駒形２丁目３番５号駒形武蔵野マンション１０４Ａ,,13,106,1110043,,,,,,,2025-03-06,1,,,,,グローバルゲーミングアソシエイション,0
2113,9010601066868,新規,0,2025-03-06,2025-03-06,ワークケアリンク株式会社,,株式会社,東京都,江東区,豊洲２丁目５番１－６０８号,,13,108,1350061,,,,,,,2025-03-06,1,,,,,ワークケアリンク,0
2114,9010601066884,新規,0,2025-03-06,2025-03-06,Ｗ株式会社,,株式会社,東京都,江東区,三好１丁目８番３号,,13,108,1350022,,,,,,,2025-03-06,1,,,,,ダブリュー,0
2120,9010801035895,新規,0,2025-03-06,2025-03-06,株式会社Ｇｙｐｓｏ,,株式会社,東京都,大田区,仲六郷４丁目３番１６号パークハイツ多摩川７０７,,13,111,1440055,,,,,,,2025-03-06,1,,,,,ジプソ,0
2121,9010801035904,新規,0,2025-03-06,2025-03-06,株式会社ＡＲ,,株式会社,東京都,大田区,北千束１丁目５２番３号大出ビル,,13,111,1450062,,,,,,,2025-03-06,1,,,,,エーアール,0
2123,9010901056932,新規,0,2025-03-06,2025-03-06,リプロジェニクス株式会社,,株式会社,東京都,世田谷区,尾山台２丁目３２番７号,,13,112,1580086,,,,,,,2025-03-06,1,,,,,リプロジェニクス,0
2124,9010903009756,新規,0,2025-03-06,2025-03-06,合同会社２４１,,合同会社,東京都,世田谷区,太子堂４丁目１８番１５号マガザン三軒茶屋２―３Ｆ―３,,13,112,1540004,,,,,,,2025-03-06,1,,,,,ニイヨンイチ,0
2128,9011001168189,新規,0,2025-03-06,2025-03-06,株式会社ＩＭＫ　Ｒ　ＥＮＴＥＲＴＡＩＮＭＥＮＴ,,株式会社,東京都,渋谷区,神宮前５丁目５０番５号,,13,113,1500001,,,,,,,2025-03-06,1,,,,,アイエムケーアールエンターテインメント,0
2129,9011001168247,新規,0,2025-03-06,2025-03-06,オープン・エージェント株式会社,,株式会社,東京都,渋谷区,神南１丁目１２‐１４渋谷宮田ビルオープンオフィス７１５号室,,13,113,1500041,,,,,,,2025-03-06,1,,,,,オープンエージェント,0
2132,9011003021156,新規,0,2025-03-06,2025-03-06,高砂合同会社,00138228,合同会社,東京都,渋谷区,上原２丁目６番１６号,,13,113,1510064,,,,,,,2025-03-06,1,,,,,ダカサゴ,0
2136,9011201026163,新規,0,2025-03-06,2025-03-06,株式会社日本基興ビル管理,,株式会社,東京都,中野区,弥生町２丁目３１番１７号,,13,114,1640013,,,,,,,2025-03-06,1,,,,,ニホンキコウビルカンリ,0
2137,9011301030395,新規,0,2025-03-06,2025-03-06,株式会社ｏｖｅｒｇｒｏｗ,,株式会社,東京都,杉並区,高円寺北２丁目３番４号高円寺ビル５０４,,13,115,1660002,,,,,,,2025-03-06,1,,,,,オーバーグロー,0
2138,9011301030404,新規,0,2025-03-06,2025-03-06,株式会社プレーヌ,,株式会社,東京都,杉並区,阿佐谷北１丁目３１番１２号,,13,115,1660001,,,,,,,2025-03-06,1,,,,,プレーヌ,0
2139,9011301030412,新規,0,2025-03-06,2025-03-06,株式会社ＬＩＭＳ,,株式会社,東京都,杉並区,上荻１丁目２１番２１号シンフォニーマーレ２０１,,13,115,1670043,,,,,,,2025-03-06,1,,,,,リムズ,0
2140,9011303005437,新規,0,2025-03-06,2025-03-06,みやざき犬合同会社,,合同会社,東京都,杉並区,方南２丁目２３番８号,,13,115,1680062,,,,,,,2025-03-06,1,,,,,ミヤザキケン,0
2149,9012401042834,新規,0,2025-03-06,2025-03-06,株式会社クレチ,,株式会社,東京都,稲城市,東長沼３７２番地の８,,13,225,2060802,,,,,,,2025-03-06,1,,,,,クレチ,0
2151,9012705002451,新規,0,2025-03-06,2025-03-06,医療法人社団西翔会,,その他の設立登記法人,東京都,西東京市,南町５丁目５番１３号田無丸八ビル２０１,,13,229,1880012,,,,,,,2025-03-06,1,,,,,セイショウカイ,0
2156,9013301053871,新規,0,2025-03-06,2025-03-06,株式会社ＦｉＺｏｒａ,,株式会社,東京都,豊島区,東池袋２丁目６２番８号ＢＩＧオフィスプラザ池袋１２０６,,13,116,1700013,,,,,,,2025-03-06,1,,,,,フィゾーラ,0
2163,9020003027781,新規,0,2025-03-06,2025-03-06,Ａｔｌｕｍ合同会社,,合同会社,神奈川県,横浜市港北区,綱島東１丁目１３－２４新星ハイツ４０２号室,,14,109,2230052,,,,,,,2025-03-06,1,,,,,アトラム,0
2164,9020003027848,新規,0,2025-03-06,2025-03-06,合同会社ＦＲＡＺＩＥＲ　Ｃｏｒｐｏｒａｔｉｏｎ,,合同会社,神奈川県,横浜市青葉区,荏田町２３５－３－２０２,,14,117,2250013,,,,,,,2025-03-06,1,,,,,フレイザーコーポレーション,0
2165,9020003027955,新規,0,2025-03-06,2025-03-06,合同会社ＭＳＧ,,合同会社,神奈川県,川崎市高津区,二子２丁目８番１－１０６号,,14,134,2130002,,,,,,,2025-03-06,1,,,,,エムエスジー,0
2167,9021001084625,新規,0,2025-03-06,2025-03-06,株式会社ＰＢ,,株式会社,神奈川県,座間市,相模が丘１丁目３４番２７号サンシャイン９１ビル３０２号,,14,216,2520001,,,,,,,2025-03-06,1,,,,,ピービー,0
2168,9021001084641,新規,0,2025-03-06,2025-03-06,志村産業株式会社,,株式会社,神奈川県,南足柄市,班目６９番地,,14,217,2500101,,,,,,,2025-03-06,1,,,,,シムラサンギョウ,0
2170,9021003015677,新規,0,2025-03-06,2025-03-06,Ｒｉｃｅ　Ｖａｌｌｅｙ合同会社,,合同会社,神奈川県,秦野市,平沢１０６４番地の２,,14,211,2570015,,,,,,,2025-03-06,1,,,,,ライスヴァレー,0
2171,9021005013290,新規,0,2025-03-06,2025-03-06,一般財団法人ブレスト財団,,その他の設立登記法人,神奈川県,鎌倉市,御成町１１番８号,,14,204,2480012,,,,,,,2025-03-06,1,,,,,ブレストザイダン,0
2178,9030001165087,新規,0,2025-03-06,2025-03-06,株式会社ＧＨＥＴＴＯ,,株式会社,埼玉県,狭山市,大字下奥富１３４８番地の６,,11,215,3501332,,,,,,,2025-03-06,1,,,,,ゲットー,0
2179,9030001165186,新規,0,2025-03-06,2025-03-06,株式会社エーアールティー,,株式会社,埼玉県,入間郡三芳町,大字北永井２５９番地６,,11,324,3540044,,,,,,,2025-03-06,1,,,,,エーアールティー,0
2180,9030001165203,新規,0,2025-03-06,2025-03-06,株式会社エイト,,株式会社,埼玉県,朝霞市,浜崎４丁目１２番９号,,11,227,3510033,,,,,,,2025-03-06,1,,,,,エイト,0
2181,9030001165228,新規,0,2025-03-06,2025-03-06,株式会社ＷＯＮＤＥＲ　ＷＡＬＬ,,株式会社,埼玉県,所沢市,花園１丁目２４３４番地の５,,11,208,3590047,,,,,,,2025-03-06,1,,,,,ワンダーウォール,0
2182,9030001165277,新規,0,2025-03-06,2025-03-06,株式会社典祥,,株式会社,埼玉県,入間市,高倉４丁目９番４号,,11,225,3580021,,,,,,,2025-03-06,1,,,,,テンショウ,0
2183,9030001165285,新規,0,2025-03-06,2025-03-06,株式会社コバテック,,株式会社,埼玉県,さいたま市見沼区,大字南中野７９０番地６,,11,104,3370042,,,,,,,2025-03-06,1,,,,,コバテック,0
2192,9030003026254,新規,0,2025-03-06,2025-03-06,合同会社Ｍａｘｉｍｉｎｔ,,合同会社,埼玉県,さいたま市中央区,新中里１丁目５番１号,,11,105,3380011,,,,,,,2025-03-06,1,,,,,マクシミント,0
2193,9030003026262,新規,0,2025-03-06,2025-03-06,合同会社ケイティ,,合同会社,埼玉県,朝霞市,岡１丁目３番２７クリオ朝霞７０３号,,11,227,3510007,,,,,,,2025-03-06,1,,,,,ケイティ,0
2194,9030003026279,新規,0,2025-03-06,2025-03-06,ＮＥＸ合同会社,,合同会社,埼玉県,さいたま市南区,白幡３丁目１２－２３－６０４,,11,108,3360022,,,,,,,2025-03-06,1,,,,,ネクス,0
2195,9030003026287,新規,0,2025-03-06,2025-03-06,合同会社ブリオン,,合同会社,埼玉県,狭山市,入間川１４１４－４５,,11,215,3501305,,,,,,,2025-03-06,1,,,,,ブリオン,0
2197,9040001137622,新規,0,2025-03-06,2025-03-06,首都圏ＣＣＳ株式会社,,株式会社,千葉県,千葉市中央区,問屋町１番３５号,,12,101,2600025,,,,,,,2025-03-06,1,,,,,シュトケンシーシーエス,0
2198,9040001137647,新規,0,2025-03-06,2025-03-06,ユースフルライフ株式会社,,株式会社,千葉県,君津市,南子安６丁目１８番１８－７号,,12,225,2991162,,,,,,,2025-03-06,1,,,,,ユースフルライフ,0
2199,9040001137696,新規,0,2025-03-06,2025-03-06,株式会社ｏｆｆｉｃｅ　Ｃ．Ｔ．Ｌ,,株式会社,千葉県,浦安市,高洲４丁目３番１－１５１５号,,12,227,2790023,,,,,,,2025-03-06,1,,,,,オフィスシーティーエル,0
2200,9040001137705,新規,0,2025-03-06,2025-03-06,株式会社ＬｉＴＡ,,株式会社,千葉県,千葉市中央区,登戸３丁目７番８号,,12,101,2600032,,,,,,,2025-03-06,1,,,,,リタ,0
2201,9040001137721,新規,0,2025-03-06,2025-03-06,ミツバ観光株式会社,,株式会社,千葉県,船橋市,湊町２丁目１５－１５－１０１,,12,204,2730011,,,,,,,2025-03-06,1,,,,,ミツバカンコウ,0
2205,9040003027012,新規,0,2025-03-06,2025-03-06,合同会社ＲＫ,,合同会社,千葉県,柏市,藤ケ谷新田１６８番地２３,,12,217,2770932,,,,,,,2025-03-06,1,,,,,アールケー,0
2211,9060001037977,新規,0,2025-03-06,2025-03-06,株式会社ＫＧＫホールディングス,,株式会社,栃木県,足利市,福富新町７２６番地３０,,09,202,3260332,,,,,,,2025-03-06,1,,,,,ケージーケーホールディングス,0
2212,9060001037985,新規,0,2025-03-06,2025-03-06,株式会社ＦＪ　Ｃｏｎｎｅｃｔ,,株式会社,栃木県,宇都宮市,宿郷１丁目１５番６号ジ・エッセンスビル２０４,,09,201,3210945,,,,,,,2025-03-06,1,,,,,エフジェイコネクト,0
2217,9080101025351,新規,0,2025-03-06,2025-03-06,株式会社山本オート,,株式会社,静岡県,富士宮市,山本１０５番地の７,,22,207,4180023,,,,,,,2025-03-06,1,,,,,ヤマモトオート,0
2223,9100001038351,新規,0,2025-03-06,2025-03-06,株式会社Ｈａｒｍｏｎｙ．Ｌａｂｏ,,株式会社,長野県,岡谷市,湖畔４丁目１番２７号,,20,204,3940034,,,,,,,2025-03-06,1,,,,,ハーモニーラボ,0
2225,9100003008022,新規,0,2025-03-06,2025-03-06,合同会社ゆずは,,合同会社,長野県,北佐久郡軽井沢町,大字長倉５４１１番地２,,20,321,3890111,,,,,,,2025-03-06,1,,,,,ユズハ,0
2229,9110001039092,新規,0,2025-03-06,2025-03-06,株式会社ＡＯＤ,,株式会社,新潟県,新潟市東区,竹尾２丁目１５番１１号,,15,102,9500862,,,,,,,2025-03-06,1,,,,,エーオーディー,0
2236,9120001273302,新規,0,2025-03-06,2025-03-06,君宜株式会社,,株式会社,大阪府,大阪市大正区,三軒家西３丁目４番１６号中山ビル１０２０,,27,108,5510001,,,,,,,2025-03-06,1,,,,,クンギ,0
2237,9120001273335,新規,0,2025-03-06,2025-03-06,雨梓株式会社,,株式会社,大阪府,大阪市中央区,淡路町３丁目５番１３号創建御堂筋ビル２階,,27,128,5410047,,,,,,,2025-03-06,1,,,,,ユシ,0
2238,9120001273442,新規,0,2025-03-06,2025-03-06,株式会社モテナス,,株式会社,大阪府,大阪市西区,北堀江４丁目１３番５号,,27,106,5500014,,,,,,,2025-03-06,1,,,,,モテナス,0
2239,9120001273491,新規,0,2025-03-06,2025-03-06,株式会社ＣＲＥＡＭ,,株式会社,大阪府,寝屋川市,秦町４２－１－３０６,,27,215,5720848,,,,,,,2025-03-06,1,,,,,クリーム,0
2243,9120101071176,新規,0,2025-03-06,2025-03-06,龍華国際株式会社,,株式会社,大阪府,泉佐野市,上町１丁目１０番３５－２０２号,,27,213,5980007,,,,,,,2025-03-06,1,,,,,リュウカコクサイ,0
2244,9120103006295,新規,0,2025-03-06,2025-03-06,ＺＩＮＺＡＩ合同会社,,合同会社,大阪府,堺市東区,野尻町４９７,,27,143,5998116,,,,,,,2025-03-06,1,,,,,ジンザイ,0
2247,9120901050528,新規,0,2025-03-06,2025-03-06,キャレッジ株式会社,,株式会社,大阪府,豊中市,庄内東町２丁目１番４号,,27,203,5610831,,,,,,,2025-03-06,1,,,,,キャレッジ,0
2248,9122001038916,新規,0,2025-03-06,2025-03-06,三友株式会社,,株式会社,大阪府,東大阪市,新鴻池町１４番２１号２０２号室,,27,227,5780967,,,,,,,2025-03-06,1,,,,,ミツトモ,0
2249,9122001038965,新規,0,2025-03-06,2025-03-06,株式会社Ｒｅｓｔａｍ,,株式会社,大阪府,八尾市,東弓削２丁目８７番地,,27,212,5810029,,,,,,,2025-03-06,1,,,,,リスタム,0
2252,9122003003133,新規,0,2025-03-06,2025-03-06,合同会社ＮａｋａｙａｍａＰｌａｎｔｓ,,合同会社,大阪府,東大阪市,俊徳町４丁目１１－１７,,27,227,5770831,,,,,,,2025-03-06,1,,,,,ナカヤマプランツ,0
2253,9130001079112,新規,0,2025-03-06,2025-03-06,株式会社ＤＫドリームズ,,株式会社,京都府,京都市中京区,河原町通四条上る米屋町３８４番地３,,26,104,6048026,,,,,,,2025-03-06,1,,,,,ディーケードリームズ,0
2254,9130001079120,新規,0,2025-03-06,2025-03-06,東堺町酒造株式会社,,株式会社,京都府,京都市伏見区,東堺町４７２番地,,26,109,6128066,,,,,,,2025-03-06,1,,,,,ヒガシサカイマチシュゾウ,0
2255,9130001079129,新規,0,2025-03-06,2025-03-06,株式会社７ｔｅａ,,株式会社,京都府,京都市下京区,綾小路富小路東入塩屋町７３番地１,,26,106,6000000,,,,,,,2025-03-06,1,,,,,セブンティー,0
2256,9130001079137,新規,0,2025-03-06,2025-03-06,株式会社ｔｕｒｕｇｏｈａｎ,,株式会社,京都府,京都市中京区,山本町４３９番地２,,26,104,6040933,,,,,,,2025-03-06,1,,,,,ツルゴハン,0
2265,9140001137645,新規,0,2025-03-06,2025-03-06,株式会社レジリエンス,,株式会社,兵庫県,西宮市,松並町４番２８－３１５号,,28,204,6638102,,,,,,,2025-03-06,1,,,,,レジリエンス,0
2272,9180001165725,新規,0,2025-03-06,2025-03-06,株式会社ＫＢＥＬＬ,,株式会社,愛知県,愛西市,善太新田町十一下９４,,23,232,4960924,,,,,,,2025-03-06,1,,,,,クベル,0
2277,9180301039579,新規,0,2025-03-06,2025-03-06,マルタカベース株式会社,,株式会社,愛知県,西尾市,川口町中切３１番地,,23,213,4450873,,,,,,,2025-03-06,1,,,,,マルタカベース,0
2286,9220001026526,新規,0,2025-03-06,2025-03-06,ＴＹＴ株式会社,,株式会社,石川県,小松市,安宅新町丁２０番地７,,17,203,9230995,,,,,,,2025-03-06,1,,,,,ティーワイティー,0
2287,9220005008933,新規,0,2025-03-06,2025-03-06,社会福祉法人慶逸会,,その他の設立登記法人,石川県,加賀市,山中温泉菅谷町ニ４５番地１,,17,206,9220139,,,,,,,2025-03-06,1,,,,,ケイイツカイ,0
2290,9230001020775,新規,0,2025-03-06,2025-03-06,株式会社Ｂｅｅ,,株式会社,富山県,南砺市,八塚１４１番地２５,,16,210,9391533,,,,,,,2025-03-06,1,,,,,ビー,0
2291,9230001020783,新規,0,2025-03-06,2025-03-06,株式会社ＢＩＭ　Ｗｏｒｋｓ,,株式会社,富山県,南砺市,広安２０５番地,,16,210,9391534,,,,,,,2025-03-06,1,,,,,ビムワークス,0
2295,9240001064615,新規,0,2025-03-06,2025-03-06,アサイアカウンティング・システムズ株式会社,,株式会社,広島県,呉市,溝路町１番３号,,34,202,7370034,,,,,,,2025-03-06,1,,,,,アサイアカウンティングシステムズ,0
2298,9240005015911,新規,0,2025-03-06,2025-03-06,医療法人社団藤元内科ファミリークリニック,,その他の設立登記法人,広島県,広島市南区,東本浦町２２番２９号,,34,103,7340025,,,,,,,2025-03-06,1,,,,,フジモトナイカファミリークリニック,0
2300,9260005011446,新規,0,2025-03-06,2025-03-06,弁護士法人余傳法律事務所,,その他の設立登記法人,岡山県,岡山市北区,富田町１丁目７番１４号サンヒルズビル３階,,33,101,7000816,,,,,,,2025-03-06,1,,,,,ヨデンホウリツジムショ,0
2302,9280003001926,新規,0,2025-03-06,2025-03-06,合同会社Ｍｙ‐Ｋｅｙｓ,,合同会社,島根県,松江市,八幡町７６６番地２,,32,201,6900025,,,,,,,2025-03-06,1,,,,,マイキーズ,0
2306,9290001109167,新規,0,2025-03-06,2025-03-06,株式会社ＭＵＮＣＨ,,株式会社,福岡県,八女市,蒲原４０１番地１ＣａｍｅｌｌｉａＩＩ２０３号,00138231,40,210,8340064,,,,,,,2025-03-06,1,,,,,ムンク,0
2307,9290001109200,新規,0,2025-03-06,2025-03-06,株式会社ＢＯＯＳＴＥＲ,,株式会社,福岡県,福岡市西区,姪の浜５丁目７番１１－５０５号,,40,135,8190002,,,,,,,2025-03-06,1,,,,,ブースター,0
2309,9290003016493,新規,0,2025-03-06,2025-03-06,合同会社ＰＩＣＡ　ＢＡＮＫ,,合同会社,福岡県,福岡市博多区,博多駅前３丁目２３番２０－１００４号ウェルブライト博多ステーション,,40,132,8120011,,,,,,,2025-03-06,1,,,,,ピカバンク,0
2311,9290801031330,新規,0,2025-03-06,2025-03-06,株式会社１ｓｔ,,株式会社,福岡県,北九州市小倉北区,木町１丁目４番３０‐８１０号,,40,106,8030851,,,,,,,2025-03-06,1,,,,,ファースト,0
2314,9300003002236,新規,0,2025-03-06,2025-03-06,西九州風力発電合同会社,,合同会社,佐賀県,唐津市,千代田町２１０９番地１７栗原ビル２階,,41,202,8470041,,,,,,,2025-03-06,1,,,,,ニシキュウシュウフウリョクハツデン,0
2315,9310003004958,新規,0,2025-03-06,2025-03-06,合同会社カメリアクラブ,,合同会社,長崎県,五島市,下大津町１４８１‐３,,42,211,8530011,,,,,,,2025-03-06,1,,,,,カメリアクラブ,0
2316,9320001020972,新規,0,2025-03-06,2025-03-06,株式会社ＫＩＢＯＵ,,株式会社,大分県,大分市,牧２丁目９番１１－３０４号リビングハイツ牧Ａ,,44,201,8700924,,,,,,,2025-03-06,1,,,,,キボウ,0
2317,9320005010227,新規,0,2025-03-06,2025-03-06,一般社団法人三聚志,,その他の設立登記法人,大分県,豊後大野市,三重町百枝２０２９番地１,,44,212,8797152,,,,,,,2025-03-06,1,,,,,サンジュウシ,0
2318,9330001032942,新規,0,2025-03-06,2025-03-06,株式会社本田アセットマネジメント,,株式会社,熊本県,熊本市中央区,水前寺公園２８－７－２０５,,43,101,8620956,,,,,,,2025-03-06,1,,,,,ホンダアセットマネジメント,0
2325,9340003004765,新規,0,2025-03-06,2025-03-06,合同会社おはし,,合同会社,鹿児島県,鹿児島市,中央町１１番地地下１階,,46,201,8900053,,,,,,,2025-03-06,1,,,,,オハシ,0
2327,9350001019426,新規,0,2025-03-06,2025-03-06,賢琉建設株式会社,,株式会社,宮崎県,宮崎市,川原町１番３２号　７０８号,,45,201,8800866,,,,,,,2025-03-06,1,,,,,ケンリュウケンセツ,0
2328,9360001034861,新規,0,2025-03-06,2025-03-06,株式会社Ｇｒｏｗ　ｕｐ,,株式会社,沖縄県,浦添市,勢理客２丁目１５番２４－２０１号,,47,208,9012122,,,,,,,2025-03-06,1,,,,,グロウアップ,0
2336,9390001017905,新規,0,2025-03-06,2025-03-06,株式会社アルカナコード,,株式会社,山形県,山形市,十日町２丁目２番５－１４０６号,,06,201,9900031,,,,,,,2025-03-06,1,,,,,アルカナコード,0
2337,9390005009106,新規,0,2025-03-06,2025-03-06,農事組合法人福すい舎,,その他の設立登記法人,山形県,村山市,大字＿山１１番地,00138226,06,208,9950005,,,,,,,2025-03-06,1,,,,,フクスイシャ,0
2340,9400003003406,新規,0,2025-03-06,2025-03-06,盛南メンテナンス合同会社,,合同会社,岩手県,盛岡市,湯沢南１丁目４番１号,,03,201,0200845,,,,,,,2025-03-06,1,,,,,セイナンメンテナンス,0
2345,9420001019039,新規,0,2025-03-06,2025-03-06,株式会社ＩＮＡＨＯ,,株式会社,青森県,十和田市,大字赤沼字沼袋１７２番地４,,02,206,0340071,,,,,,,2025-03-06,1,,,,,イナホ,0
2349,9430001093818,新規,0,2025-03-06,2025-03-06,久泉建設株式会社,,株式会社,北海道,札幌市白石区,中央一条３丁目１－５エフュート東札幌３０２,,01,104,0030011,,,,,,,2025-03-06,1,,,,,ヒサイズミケンセツ,0
2350,9430003017345,新規,0,2025-03-06,2025-03-06,太田中原アドバイザリー合同会社,,合同会社,北海道,札幌市北区,北七条西４丁目４－１第五道通ビル６０２,,01,102,0600807,,,,,,,2025-03-06,1,,,,,オオタナカハラアドバイザリー,0
2351,9430003017353,新規,0,2025-03-06,2025-03-06,合同会社ＳＲＦ,,合同会社,北海道,札幌市南区,澄川四条２丁目１１番７‐４０３号,,01,106,0050004,,,,,,,2025-03-06,1,,,,,エスアールエフ,0
2352,9440001009574,新規,0,2025-03-06,2025-03-06,株式会社ＭＡＲＵＫＯ,,株式会社,北海道,茅部郡森町,字森川町２９５番地２５,,01,345,0492313,,,,,,,2025-03-06,1,,,,,マルコ,0
2355,9470001020603,新規,0,2025-03-06,2025-03-06,株式会社前川防虫,,株式会社,香川県,坂出市,川津町４０６５番地３,,37,203,7620025,,,,,,,2025-03-06,1,,,,,マエカワボウチュウ,0
2360,9490003001987,新規,0,2025-03-06,2025-03-06,合同会社ＲＩＳＥ,,合同会社,高知県,高知市,朝倉甲５０５番地１０,,39,201,7808061,,,,,,,2025-03-06,1,,,,,ライズ,0
2363,9500001026167,新規,0,2025-03-06,2025-03-06,株式会社安心,,株式会社,愛媛県,宇和島市,中央町１丁目８番１２号,,38,203,7980040,,,,,,,2025-03-06,1,,,,,アンシン,0
2364,9700150117382,新規,0,2025-03-06,2025-03-06,深セン市安騰照明有限公司,,外国会社等,,,,,,,,中華人民共和国深セン市竜華区観瀾街道君子布社区環観南路１０号６０１,,,,,,2025-03-06,1,,,,,シンセンシアントウショウメイユウゲンコウシ,0
2366,9700150129452,新規,0,2025-03-06,2025-03-06,ＶＩＢＥ　ＬＡＮＫＡ　ＥＮＴＥＲＰＲＩＳＥＳ,,外国会社等,千葉県,茂原市,粟生野３３８０－３６Ｂ,,12,210,2994106,スリランカ民主社会主義共和国Ｎｏ．１１４、ドルワロード、マータレ,,,,,,2025-03-06,1,,,,,ワイブランカーエンタープライズ,0
