sequenceNumber,corporateNumber,process,correct,updateDate,changeDate,name,nameImageId,kind,prefectureName,cityName,streetNumber,addressImageId,prefectureCode,cityCode,postCode,addressOutside,addressOutsideImageId,closeDate,closeCause,successorCorporateNumber,changeCause,assignmentDate,latest,enName,enPrefectureName,enCityName,enAddressOutside,furigana,hihyoji
21,1011001137226,登記記録の閉鎖等,0,2024-03-13,2024-03-05,株式会社ＬＤ２,,株式会社,埼玉県,さいたま市大宮区,仲町２丁目２５番地,,11,103,3300845,,,2024-03-05,清算の結了等,,,2020-12-02,1,,,,,エルディーツー,0
47,1021005012226,登記記録の閉鎖等,0,2024-03-13,2024-03-08,特定非営利活動法人ひよこ広場,,その他の設立登記法人,神奈川県,相模原市南区,相武台団地２丁目３番５号,,14,153,2520323,,,2024-03-08,清算の結了等,,,2021-06-18,1,,,,,ヒヨコヒロバ,0
49,1030001018401,登記記録の閉鎖等,0,2024-03-13,2024-03-07,株式会社笹本工務店,,株式会社,埼玉県,蓮田市,大字黒浜９７７番地の４６,,11,238,3490101,,,2024-03-07,清算の結了等,,,2015-10-05,1,,,,,ササモトコウムテン,0
62,1040001113250,登記記録の閉鎖等,0,2024-03-13,2024-03-08,株式会社ファイブスター,,株式会社,千葉県,船橋市,葛飾町２丁目３４０番地,,12,204,2730032,,,2024-03-08,清算の結了等,,,2020-04-07,1,,,,,ファイブスター,0
63,1040001117788,登記記録の閉鎖等,0,2024-03-13,2024-03-05,株式会社Ｐ－ｍｉｎｄ,,株式会社,千葉県,市川市,東菅野４丁目２８番２０号,,12,203,2720823,,,2024-03-05,清算の結了等,,,2021-04-05,1,,,,,ピーマインド,0
70,1070002014775,登記記録の閉鎖等,0,2024-03-13,2024-03-08,有限会社小板橋モータース,,有限会社,群馬県,安中市,原市２丁目５番２号,,10,211,3790133,,,2024-03-08,清算の結了等,,,2015-10-05,1,,,,,コイタバシモータース,0
113,1130002028356,登記記録の閉鎖等,0,2024-03-13,2024-03-01,有限会社大鉄建設,,有限会社,京都府,南丹市,園部町横田５号８７番地,,26,213,6220051,,,2024-03-01,合併による解散等,7130001034977,令和６年２月２９日京都府船井郡京丹波町蒲生蒲生野２８２番地２伊藤土木株式会社（7130001034977）に合併し解散,2015-10-05,1,,,,,ダイテツケンセツ,0
132,1180302006032,登記記録の閉鎖等,0,2024-03-13,2024-03-01,アイケイオーハウジング有限会社,,有限会社,愛知県,豊橋市,大山町字西大山５２番地,,23,201,4418071,,,2024-03-01,合併による解散等,2180301005100,令和６年３月１日愛知県豊橋市大山町字西大山５２番地一幸建設株式会社（2180301005100）に合併し解散,2015-10-05,1,,,,,アイケイオーハウジング,0
140,1240002041604,登記記録の閉鎖等,0,2024-03-13,2024-03-06,有限会社高橋纎維,,有限会社,広島県,福山市,御幸町大字中津原１４６４番地,,34,207,7200004,,,2024-03-06,清算の結了等,,,2015-10-05,1,,,,,タカハシセンイ,0
141,1260002011919,登記記録の閉鎖等,0,2024-03-13,2024-03-11,有限会社妹尾興食,,有限会社,岡山県,加賀郡吉備中央町,上野１２９２番地,,33,681,7092344,,,2024-03-11,清算の結了等,,,2015-10-05,1,,,,,セノオコウショク,0
148,1290801001431,登記記録の閉鎖等,0,2024-03-13,2024-03-01,コスモポリタンタクシー株式会社,,株式会社,福岡県,北九州市小倉北区,宇佐町２丁目２番１５号,,40,106,8020016,,,2024-03-01,合併による解散等,4290801001461,令和６年３月１日北九州市小倉北区宇佐町二丁目２番１５号小倉交通株式会社（4290801001461）に合併し解散,2015-10-05,1,,,,,コスモポリタンタクシー,0
155,1350001007272,登記記録の閉鎖等,0,2024-03-13,2024-03-08,株式会社日光電機,,株式会社,宮崎県,西臼杵郡高千穂町,大字三田井８６８番地４,,45,441,8821101,,,2024-03-08,清算の結了等,,,2015-10-05,1,,,,,ニッコウデンキ,0
163,1420001016844,登記記録の閉鎖等,0,2024-03-13,2024-03-06,株式会社関建設,,株式会社,青森県,五所川原市,大字七ツ館字虫流５１番地７０,,02,205,0370025,,,2024-03-06,清算の結了等,,,2020-01-14,1,,,,,セキケンセツ,0
181,2010005030782,登記記録の閉鎖等,0,2024-03-13,2024-03-12,南茨木特定目的会社,,その他の設立登記法人,東京都,中央区,新川２丁目２７番１号,,13,102,1040033,,,2024-03-12,清算の結了等,,,2019-09-18,1,,,,,ミナミイバラキ,0
202,2010501039526,登記記録の閉鎖等,0,2024-03-13,2024-03-06,株式会社エイトワンマネジメント,,株式会社,東京都,台東区,小島２丁目２０－１１ＬＩＧビル,,13,106,1110056,,,2024-03-06,清算の結了等,,,2016-05-11,1,,,,,エイトワンマネジメント,0
203,2010602023049,登記記録の閉鎖等,0,2024-03-13,2024-03-08,有限会社菱川,,有限会社,東京都,江東区,新大橋３丁目１１番１３号,,13,108,1350007,,,2024-03-08,清算の結了等,,,2015-10-05,1,,,,,,0
205,2010705001026,登記記録の閉鎖等,0,2024-03-13,2024-03-07,特定非営利活動法人わかば,,その他の設立登記法人,東京都,豊島区,西池袋３丁目１７番地１６－１０２号,,13,116,1710021,,,2024-03-07,清算の結了等,,,2015-10-05,1,,,,,ワカバ,0
224,2011401006764,登記記録の閉鎖等,0,2024-03-13,2023-12-12,株式会社和合,,株式会社,東京都,板橋区,志村３丁目７番１４号,,13,119,1740056,,,2023-12-12,清算の結了等,,,2015-10-05,1,,,,,ワゴウ,0
237,2012802005058,登記記録の閉鎖等,0,2024-03-13,2024-03-07,有限会社宮,,有限会社,東京都,武蔵村山市,大南２丁目１２１番地の３,,13,223,2080013,,,2024-03-07,清算の結了等,,,2015-10-05,1,,,,,ミヤ,0
241,2020001105604,登記記録の閉鎖等,0,2024-03-13,2024-03-07,株式会社アーキノート,,株式会社,神奈川県,川崎市川崎区,砂子１丁目１０番２号ソシオ砂子ビル,,14,131,2100006,,,2024-03-07,清算の結了等,,,2015-10-05,1,,,,,アーキノート,0
244,2020002077495,登記記録の閉鎖等,0,2024-03-13,2024-03-08,有限会社はあと,,有限会社,神奈川県,横浜市中区,本牧町１丁目５７番地５,,14,104,2310806,,,2024-03-08,清算の結了等,,,2015-10-05,1,,,,,ハアト,0
257,2030002056060,登記記録の閉鎖等,0,2024-03-13,2024-03-06,有限会社福貴,,有限会社,埼玉県,桶川市,東１丁目５番２４号,,11,231,3630013,,,2024-03-06,清算の結了等,,,2015-10-05,1,,,,,,0
280,2080003001416,登記記録の閉鎖等,0,2024-03-13,2024-03-11,エム・エスビューティー合資会社,,合資会社,静岡県,焼津市,惣右衛門５９９番地,,22,212,4250065,,,2024-03-11,清算の結了等,,,2015-10-05,1,,,,,エムエスビューティー,0
304,2120901034116,登記記録の閉鎖等,0,2024-03-13,2024-03-12,株式会社ハウスヴィス,,株式会社,大阪府,池田市,宇保町１１番３号,,27,204,5630042,,,2024-03-12,清算の結了等,,,2015-10-05,1,,,,,ハウスヴィス,0
311,2140001098258,登記記録の閉鎖等,0,2024-03-13,2024-03-08,株式会社エースＫＯＢＥ,,株式会社,香川県,高松市,高松町１０－３,,37,201,7610104,,,2024-03-08,合併による解散等,4140001087250,令和６年２月２９日神戸市垂水区塩屋町三丁目２５番３号株式会社エクシード関西（4140001087250）に合併し解散,2015-10-05,1,,,,,エースコウベ,0
315,2140002037710,登記記録の閉鎖等,0,2024-03-13,2024-03-11,清水興業有限会社,,有限会社,兵庫県,加古郡稲美町,中一色２７番地,,28,381,6751127,,,2024-03-11,清算の結了等,,,2015-10-05,1,,,,,シミズコウギョウ,0
329,2180301008441,登記記録の閉鎖等,0,2024-03-13,2024-03-01,株式会社暖団,,株式会社,愛知県,豊橋市,大山町字西大山５２番地,,23,201,4418071,,,2024-03-01,合併による解散等,2180301005100,令和６年３月１日愛知県豊橋市大山町字西大山５２番地一幸建設株式会社（2180301005100）に合併し解散,2015-10-05,1,,,,,ダンダン,0
337,2210002003201,登記記録の閉鎖等,0,2024-03-13,2024-03-08,有限会社フクイ化成,,有限会社,福井県,福井市,文京３丁目２４番２４号,,18,201,9100017,,,2024-03-08,清算の結了等,,,2015-10-05,1,,,,,フクイカセイ,0
346,2290003014330,登記記録の閉鎖等,0,2024-03-13,2024-03-05,合同会社てんてん,,合同会社,福岡県,古賀市,小竹９６５番地１１,,40,223,8113135,,,2024-03-05,清算の結了等,,,2023-09-07,1,,,,,テンテン,0
373,2430002020307,登記記録の閉鎖等,0,2024-03-13,2024-03-05,有限会社安田機械製作所,,有限会社,北海道,札幌市東区,北丘珠二条４丁目１番１９号,,01,103,0070882,,,2024-03-05,清算の結了等,,,2015-10-05,1,,,,,ヤスダキカイセイサクショ,0
374,2430002062919,登記記録の閉鎖等,0,2024-03-13,2024-03-11,有限会社松本鉄工所,,有限会社,北海道,沙流郡日高町,門別本町２０７番地１０,,01,601,0592121,,,2024-03-11,清算の結了等,,,2015-10-05,1,,,,,,0
378,3010001030216,登記記録の閉鎖等,0,2024-03-13,2024-03-08,株式会社ミュゼオ,,株式会社,東京都,港区,三田３丁目１４番１０号,,13,103,1080073,,,2024-03-08,清算の結了等,,,2015-10-05,1,,,,,ミュゼオ,0
379,3010001151136,登記記録の閉鎖等,0,2024-03-13,2024-03-01,アクトソリューションズ株式会社,,株式会社,東京都,港区,虎ノ門１丁目１７番１号,,13,103,1050001,,,2024-03-01,合併による解散等,5010401126594,令和６年３月１日東京都港区虎ノ門一丁目１７番１号アクトホールディングス株式会社（5010401126594）に合併し解散,2015-10-05,1,,,,,アクトソリューションズ,0
380,3010001181570,登記記録の閉鎖等,0,2024-03-13,2024-03-06,株式会社Ｇｏｅｎ,,株式会社,東京都,中央区,築地４丁目２番１１号新橋演舞場別館,,13,102,1040045,,,2024-03-06,清算の結了等,,,2017-02-17,1,,,,,ゴエン,0
383,3010401054913,登記記録の閉鎖等,0,2024-03-13,2024-03-07,株式会社ファッションクロス,,株式会社,東京都,港区,北青山３丁目５番１０号,,13,103,1070061,,,2024-03-07,合併による解散等,3013201003940,令和６年３月１日東京都港区北青山三丁目５番１０号株式会社ライフスタイルイノベーション（3013201003940）に合併し解散,2015-10-05,1,,,,,ファッションクロス,0
385,3010403012464,登記記録の閉鎖等,0,2024-03-13,2024-03-11,株式会社リアル,,株式会社,東京都,渋谷区,恵比寿２丁目８番１３号,,13,113,1500013,,,2024-03-11,清算の結了等,,,2015-10-05,1,,,,,リアル,0
391,3010501039434,登記記録の閉鎖等,0,2024-03-13,2024-03-08,株式会社ｎｏｈ,,株式会社,東京都,台東区,柳橋２丁目１３－８・３０２プレイス浅草橋,,13,106,1110052,,,2024-03-08,清算の結了等,,,2016-04-20,1,,,,,エヌオーエイチ,0
405,3011001138107,登記記録の閉鎖等,0,2024-03-13,2024-03-05,株式会社マニュアルクラウド,,株式会社,東京都,渋谷区,恵比寿南２丁目１０番１－４０６号,,13,113,1500022,,,2024-03-05,清算の結了等,,,2021-02-02,1,,,,,マニュアルクラウド,0
423,3011302000782,登記記録の閉鎖等,0,2024-03-13,2024-03-01,有限会社飯田商店,,有限会社,東京都,杉並区,天沼３丁目２７番１９号ＶＩＤＡ１０１,,13,115,1670032,,,2024-03-01,清算の結了等,,,2015-10-05,1,,,,,イイダショウテン,0
431,3012702001239,登記記録の閉鎖等,0,2024-03-13,2024-03-11,有限会社ティンカーベル,,有限会社,東京都,小平市,学園東町１丁目９番１７号,,13,211,1870043,,,2024-03-11,清算の結了等,,,2015-10-05,1,,,,,ティンカーベル,0
439,3020001131269,登記記録の閉鎖等,0,2024-03-13,2024-03-07,株式会社プレバック,,株式会社,神奈川県,横浜市緑区,中山３丁目３８－２－７０１,,14,113,2260019,,,2024-03-07,清算の結了等,,,2019-05-24,1,,,,,プレバック,0
447,3030002069598,登記記録の閉鎖等,0,2024-03-13,2024-03-11,有限会社ワコー,,有限会社,埼玉県,春日部市,千間１丁目５９番地１,,11,214,3440024,,,2024-03-11,清算の結了等,,,2015-10-05,1,,,,,ワコー,0
453,3040002071495,登記記録の閉鎖等,0,2024-03-13,2024-03-07,有限会社ヒロシ商会,,有限会社,千葉県,富津市,下飯野２４１番地,,12,226,2930006,,,2024-03-07,清算の結了等,,,2015-10-05,1,,,,,ヒロシショウカイ,0
455,3050001003143,登記記録の閉鎖等,0,2024-03-13,2024-03-07,株式会社光地技建,,株式会社,茨城県,水戸市,泉町３丁目５番３０号,,08,201,3100026,,,2024-03-07,清算の結了等,,,2015-10-05,1,,,,,,0
464,3080101005904,登記記録の閉鎖等,0,2024-03-13,2024-03-11,三嶋観光バス株式会社,,株式会社,静岡県,田方郡函南町,上沢字山ヶ下２４１番地の２２,,22,325,4190122,,,2024-03-11,清算の結了等,,,2015-10-05,1,,,,,ミシマカンコウバス,0
470,3120001057231,登記記録の閉鎖等,0,2024-03-13,2024-03-11,株式会社とも吉,00028295,株式会社,大阪府,大阪市淀川区,十三東３丁目２８番１４号,,27,123,5320023,,,2024-03-11,合併による解散等,5130001021770,令和６年３月１日京都市中京区三条通烏丸西入御倉町８５番地１烏丸ビル５階株式会社ＴＯＡＩ（5130001021770）に合併し解散,2015-10-05,1,,,,,トモヨシ,0
471,3120001127273,登記記録の閉鎖等,0,2024-03-13,2024-03-08,イーハウス株式会社,,株式会社,大阪府,大阪市淀川区,新高５丁目１３番１２号,,27,123,5320033,,,2024-03-08,清算の結了等,,,2015-10-05,1,,,,,イーハウス,0
472,3120001197424,登記記録の閉鎖等,0,2024-03-13,2024-03-11,株式会社ダンディズムコレクション,,株式会社,大阪府,大阪市中央区,東心斎橋１丁目８番１１号アルグラッドザ・タワー心斎橋３５０３号,,27,128,5420083,,,2024-03-11,清算の結了等,,,2016-04-05,1,,,,,ダンディズムコレクション,0
478,3120101008489,登記記録の閉鎖等,0,2024-03-13,2024-03-11,株式会社日進堂,,株式会社,大阪府,高石市,取石３丁目１１番４２号,,27,225,5920013,,,2024-03-11,清算の結了等,,,2015-10-05,1,,,,,ニッシンドウ,0
482,3120901039428,登記記録の閉鎖等,0,2024-03-13,2024-03-08,正起技研株式会社,,株式会社,大阪府,大阪市西淀川区,中島１丁目７番７号,,27,113,5550041,,,2024-03-08,清算の結了等,,,2018-01-18,1,,,,,セイキギケン,0
488,3130005006118,登記記録の閉鎖等,0,2024-03-13,2024-02-20,特定非営利活動法人ＤＲＥＡＭ　ＴＯＹ’ｓ,,その他の設立登記法人,京都府,京都市下京区,室町通松原下る元両替町２５４番地株式会社中村設計内,,26,106,6008436,,,2024-02-20,清算の結了等,,,2015-10-05,1,,,,,ドリームトイ,0
493,3140001088571,登記記録の閉鎖等,0,2024-03-13,2024-03-01,株式会社大木地所,,株式会社,兵庫県,神戸市東灘区,御影山手２丁目１１番３２－２０７号,,28,101,6580065,,,2024-03-01,合併による解散等,5140001125315,令和６年３月１日神戸市中央区下山手通三丁目２番１３号株式会社大木管財（5140001125315）に合併し解散,2015-10-05,1,,,,,,0
497,3150001006912,登記記録の閉鎖等,0,2024-03-13,2024-03-12,株式会社ＵＳＴ,,株式会社,奈良県,生駒郡斑鳩町,龍田２丁目２番１１号,00042779,29,344,6360152,,,2024-03-12,清算の結了等,,,2015-10-05,1,,,,,,0
501,3170001005169,登記記録の閉鎖等,0,2024-03-13,2024-02-20,和興開発株式会社,,株式会社,和歌山県,和歌山市,六十谷８６番地の３,,30,201,6408482,,,2024-02-20,清算の結了等,,,2015-10-05,1,,,,,ワコウカイハツ,0
517,3310005000911,登記記録の閉鎖等,0,2024-03-13,2024-03-11,長崎県漁協女性部連合会生活協同組合,,その他の設立登記法人,長崎県,長崎市,五島町２番２７号,,42,201,8500036,,,2024-03-11,清算の結了等,,,2015-10-05,1,,,,,,0
528,3360001027508,登記記録の閉鎖等,0,2024-03-13,2024-03-11,株式会社美らハルサー,,株式会社,沖縄県,中頭郡中城村,字北浜４５番地,,47,328,9012414,,,2024-03-11,清算の結了等,,,2020-08-03,1,,,,,チュラハルサー,0
530,3360002016360,登記記録の閉鎖等,0,2024-03-13,2024-03-11,有限会社チヤンピオン,,有限会社,沖縄県,那覇市,宮城１丁目１８番１２－５０３号Ｆステージ小禄宮城参番館,,47,201,9010147,,,2024-03-11,清算の結了等,,,2015-10-05,1,,,,,チャンピオン,0
538,3380005006927,登記記録の閉鎖等,0,2024-03-13,2024-03-06,特定非営利活動法人みどりと花の大地学園,,その他の設立登記法人,福島県,南相馬市,原町区仲町１丁目３８番地,,07,212,9750016,,,2024-03-06,清算の結了等,,,2015-10-05,1,,,,,ミドリトハナノダイチガクエン,0
539,3430002029215,登記記録の閉鎖等,0,2024-03-13,2024-03-05,有限会社よいところ,,有限会社,北海道,札幌市中央区,北三条西２丁目１番地カミヤマビル２Ｆ,,01,101,0600003,,,2024-03-05,清算の結了等,,,2015-10-05,1,,,,,ヨイトコロ,0
555,4010001128736,登記記録の閉鎖等,0,2024-03-13,2024-03-06,かぶちゃんファイナンシャルサービス株式会社,,株式会社,東京都,千代田区,神田須田町２丁目２５番地１６,,13,101,1010041,,,2024-03-06,清算の結了等,,,2015-10-05,1,,,,,カブチャンファイナンシャルサービス,0
567,4010401154687,登記記録の閉鎖等,0,2024-03-13,2024-03-08,タイムケトル・ジャパン株式会社,,株式会社,東京都,港区,東新橋２丁目７番３号昭和アステック１号館,,13,103,1050021,,,2024-03-08,清算の結了等,,,2020-08-21,1,,,,,タイムケトルジャパン,0
580,4010701042583,登記記録の閉鎖等,0,2024-03-13,2024-03-08,株式会社ｉ,,株式会社,大阪府,大阪市北区,梅田１丁目１番３号大阪駅前第３ビル２３０７,,27,127,5300001,,,2024-03-08,清算の結了等,,,2022-05-10,1,,,,,アイ,0
586,4011001126886,登記記録の閉鎖等,0,2024-03-13,2024-03-04,株式会社ＥＷ,,株式会社,東京都,渋谷区,元代々木町８番８号ｍｏｔｏｙｏｙｏｇｉｌｅａｆ２Ｆ,,13,113,1510062,,,2024-03-04,合併による解散等,3011001115295,令和６年３月１日東京都渋谷区元代々木町８番８号ｍｏｔｏｙｏｙｏｇｉｌｅａｆ２Ｆ株式会社ｅｄｅｎｗｏｒｋｓ（3011001115295）に合併し解散,2019-03-05,1,,,,,イーダブリュー,0
595,4011201020815,登記記録の閉鎖等,0,2024-03-13,2024-03-11,株式会社ワイ・エイチ・ケイ・コーポレーション,,株式会社,東京都,目黒区,目黒２丁目１１番９号,,13,110,1530063,,,2024-03-11,清算の結了等,,,2018-08-17,1,,,,,ワイエイチケイコーポレーション,0
623,4040001075835,登記記録の閉鎖等,0,2024-03-13,2024-03-08,株式会社ユン家,,株式会社,千葉県,船橋市,葛飾町２丁目３４０番地,,12,204,2730032,,,2024-03-08,清算の結了等,,,2015-10-05,1,,,,,ユンケ,0
625,4040001112869,登記記録の閉鎖等,0,2024-03-13,2024-03-07,株式会社Ｋ,,株式会社,千葉県,船橋市,二和東６丁目１７番３７号,,12,204,2740805,,,2024-03-07,清算の結了等,,,2020-03-11,1,,,,,ケイ,0
639,4110002004026,登記記録の閉鎖等,0,2024-03-13,2024-03-08,有限会社田中新聞店,,有限会社,新潟県,新潟市江南区,嘉瀬８３５番地,,15,104,9500323,,,2024-03-08,清算の結了等,,,2015-10-05,1,,,,,タナカシンブンテン,0
656,4130001054111,登記記録の閉鎖等,0,2024-03-13,2024-03-07,株式会社青木,,株式会社,京都府,宮津市,字須津２３番地の２２,,26,205,6292251,,,2024-03-07,清算の結了等,,,2015-10-05,1,,,,,アオキ,0
663,4140001088570,登記記録の閉鎖等,0,2024-03-13,2024-03-01,株式会社大木興産,,株式会社,兵庫県,神戸市中央区,北長狭通４丁目７番２８－４０６号,,28,110,6500012,,,2024-03-01,合併による解散等,5140001125315,令和６年３月１日神戸市中央区下山手通三丁目２番１３号株式会社大木管財（5140001125315）に合併し解散,2015-10-05,1,,,,,,0
687,4290005001556,登記記録の閉鎖等,0,2024-03-13,2024-03-07,医療法人ウェルビーイング,,その他の設立登記法人,福岡県,福岡市中央区,大名１丁目１５番２４号,,40,133,8100041,,,2024-03-07,清算の結了等,,,2015-10-05,1,,,,,ウェルビーイング,0
688,4290801005388,登記記録の閉鎖等,0,2024-03-13,2024-03-01,昭和交通株式会社,,株式会社,福岡県,北九州市門司区,下二十町１１番１号,,40,101,8000028,,,2024-03-01,合併による解散等,4290801001461,令和６年３月１日北九州市小倉北区宇佐町二丁目２番１５号小倉交通株式会社（4290801001461）に合併し解散,2015-10-05,1,,,,,ショウワコウツウ,0
712,4500002008929,登記記録の閉鎖等,0,2024-03-13,2024-03-11,サンアイ地所有限会社,,有限会社,愛媛県,松山市,三番町７丁目２番地１２,,38,201,7900003,,,2024-03-11,合併による解散等,6500001001701,令和６年３月１０日愛媛県松山市三番町七丁目２番地１２三愛建設株式会社（6500001001701）に合併し解散,2015-10-05,1,,,,,サンアイジショ,0
723,5010001237263,登記記録の閉鎖等,0,2024-03-13,2024-01-25,株式会社住宅ローンサービス,,株式会社,東京都,千代田区,麹町５丁目４番地,,13,101,1020083,,,2024-01-25,清算の結了等,,,2023-07-31,1,,,,,ジュウタクローンサービス,0
764,5011801006270,登記記録の閉鎖等,0,2024-03-13,2024-03-11,株式会社エイセン・アド・ビューロー,,株式会社,東京都,足立区,千住３丁目７番地栄宣ビル内,,13,121,1200034,,,2024-03-11,清算の結了等,,,2015-10-05,1,,,,,エイセンアドビューロー,0
771,5012805002116,登記記録の閉鎖等,0,2024-03-13,2024-03-06,土地家屋調査士法人ＵＮＩＢＥＳＴ,,その他の設立登記法人,東京都,立川市,曙町２丁目３１番１５号日住金ビル３階,00059645,13,202,1900012,,,2024-03-06,清算の結了等,,,2015-10-05,1,,,,,ユニベスト,0
787,5030002111894,登記記録の閉鎖等,0,2024-03-13,2024-03-11,有限会社ＵＺＩ,,有限会社,埼玉県,川口市,本蓮２丁目５番１０号,,11,203,3340076,,,2024-03-11,清算の結了等,,,2015-10-05,1,,,,,ウージー,0
792,5050001005996,登記記録の閉鎖等,0,2024-03-13,2024-03-08,株式会社Ｂ．Ｅ．Ｓ,,株式会社,茨城県,水戸市,栄町１丁目１１番１２号,,08,201,3100064,,,2024-03-08,清算の結了等,,,2015-10-05,1,,,,,ビーイーエス,0
794,5050001027784,登記記録の閉鎖等,0,2024-03-13,2024-03-11,筑波補償鑑定株式会社,,株式会社,茨城県,守谷市,久保ケ丘１丁目３番地２,,08,224,3020104,,,2024-03-11,清算の結了等,,,2015-10-05,1,,,,,,0
842,5210001016515,登記記録の閉鎖等,0,2024-03-13,2024-03-11,株式会社リンクリエイト,,株式会社,福井県,鯖江市,幸町２丁目４番２３－３号,,18,207,9160018,,,2024-03-11,清算の結了等,,,2016-10-25,1,,,,,リンクリエイト,0
850,5290801003358,登記記録の閉鎖等,0,2024-03-13,2024-03-01,平和タクシー株式会社,,株式会社,福岡県,北九州市小倉北区,大田町１４番１３号,,40,106,8020015,,,2024-03-01,合併による解散等,4290801001461,令和６年３月１日北九州市小倉北区宇佐町二丁目２番１５号小倉交通株式会社（4290801001461）に合併し解散,2015-10-05,1,,,,,ヘイワタクシー,0
860,5360001024296,登記記録の閉鎖等,0,2024-03-13,2024-03-11,株式会社謎,,株式会社,沖縄県,那覇市,西１丁目２番１８号西レジデンス５－Ａ号室,,47,201,9000036,,,2024-03-11,清算の結了等,,,2018-07-24,1,,,,,ナゾ,0
905,6011001133385,登記記録の閉鎖等,0,2024-03-13,2024-03-05,株式会社ロジランド・デベロップメント,,株式会社,埼玉県,さいたま市大宮区,仲町２丁目２５番地,,11,103,3300845,,,2024-03-05,清算の結了等,,,2020-04-15,1,,,,,ロジランドデベロップメント,0
917,6011103012306,登記記録の閉鎖等,0,2024-03-13,2024-03-08,ＣＲＥＡ　ＮＥＸＴ　ＩＮＮＯＶＡＴＩＯＮ合同会社,,合同会社,東京都,板橋区,徳丸６丁目９番２８号フラウズ４０２,,13,119,1750083,,,2024-03-08,清算の結了等,,,2022-10-27,1,,,,,,0
920,6011203002875,登記記録の閉鎖等,0,2024-03-13,2024-03-12,信歴合同会社,,合同会社,東京都,中野区,大和町３丁目４０番１－３０１号,,13,114,1650034,,,2024-03-12,清算の結了等,,,2018-10-11,1,,,,,シンレキ,0
921,6011302014334,登記記録の閉鎖等,0,2024-03-13,2024-03-11,有限会社平城,,有限会社,東京都,東村山市,富士見町５丁目６番地３４,,13,213,1890024,,,2024-03-11,清算の結了等,,,2015-10-05,1,,,,,ヒラジョウ,0
930,6011803003521,登記記録の閉鎖等,0,2024-03-13,2024-03-11,兄弟貿易合同会社,,合同会社,東京都,足立区,西保木間１丁目１４－２８ライドリンク竹ノ塚６０３号,,13,121,1210812,,,2024-03-11,清算の結了等,,,2018-11-22,1,,,,,キョウダイボウエキ,0
936,6020001072733,登記記録の閉鎖等,0,2024-03-13,2024-03-06,株式会社京浜ランドリー,,株式会社,神奈川県,川崎市川崎区,桜本２丁目４１番１６号,,14,131,2100833,,,2024-03-06,清算の結了等,,,2015-10-05,1,,,,,,0
941,6020002023512,登記記録の閉鎖等,0,2024-03-13,2024-03-07,株式会社共進電業社,,株式会社,神奈川県,横浜市保土ケ谷区,神戸町１１６番地,,14,106,2400005,,,2024-03-07,清算の結了等,,,2015-10-05,1,,,,,キョウシンデンギョウシャ,0
946,6021002042907,登記記録の閉鎖等,0,2024-03-13,2024-03-05,有限会社吉川花園,00013476,有限会社,神奈川県,大和市,福田３７２４番地,,14,213,2420024,,,2024-03-05,清算の結了等,,,2015-10-05,1,,,,,ヨシカワカエン,0
954,6030003008156,登記記録の閉鎖等,0,2024-03-13,2024-03-11,ゴールデンライフ合同会社,,合同会社,埼玉県,春日部市,緑町２丁目１０－５グリーンヒルズＩＩ２０１,00105143,11,214,3440063,,,2024-03-11,清算の結了等,,,2015-12-02,1,,,,,ゴールデンライフ,0
967,6050001013874,登記記録の閉鎖等,0,2024-03-13,2024-03-06,風見米菓株式会社,,株式会社,茨城県,猿島郡境町,４７７番地,,08,546,3060433,,,2024-03-06,合併による解散等,3110001014191,令和６年３月１日新潟県三条市塚野目２１５３番地５株式会社ＳＡＮＫＡ（3110001014191）に合併し解散,2015-10-05,1,,,,,カザミベイカ,0
969,6070001037153,登記記録の閉鎖等,0,2024-03-13,2024-03-07,北毛チップ株式会社,,株式会社,群馬県,渋川市,上白井１７８７番,,10,208,3770201,,,2024-03-07,清算の結了等,,,2020-09-01,1,,,,,ホクモウチップ,0
977,6100005009921,登記記録の閉鎖等,0,2024-03-13,2024-03-07,医療法人杉浦整形外科,,その他の設立登記法人,長野県,飯田市,北方２５２１番地１,,20,205,3950151,,,2024-03-07,清算の結了等,,,2015-10-05,1,,,,,スギウラセイケイゲカ,0
979,6110002027371,登記記録の閉鎖等,0,2024-03-13,2024-03-06,有限会社菊地不動産,,有限会社,新潟県,長岡市,千歳３丁目３番１号,,15,202,9400082,,,2024-03-06,合併による解散等,8110003001893,令和６年３月６日新潟県長岡市千歳三丁目３番１号合資会社千歳（8110003001893）に合併し解散,2015-10-05,1,,,,,キクチフドウサン,0
980,6110005002322,登記記録の閉鎖等,0,2024-03-13,2024-03-08,豊栄石油販売協同組合,,その他の設立登記法人,新潟県,新潟市北区,葛塚３４４０－１,,15,101,9503321,,,2024-03-08,清算の結了等,,,2015-10-05,1,,,,,トヨサカセキユハンバイ,0
986,6120003020192,登記記録の閉鎖等,0,2024-03-13,2024-03-08,合同会社山商,,合同会社,大阪府,大阪市都島区,東野田町４丁目４番９号,,27,102,5340024,,,2024-03-08,清算の結了等,,,2021-09-09,1,,,,,ヤマショウ,0
989,6120005019605,登記記録の閉鎖等,0,2024-03-13,2024-03-11,一般社団法人響,,その他の設立登記法人,大阪府,大阪市西区,南堀江４丁目７番１－１３１５号,,27,106,5500015,,,2024-03-11,清算の結了等,,,2017-07-20,1,,,,,ヒビキ,0
993,6120902014591,登記記録の閉鎖等,0,2024-03-13,2024-03-11,有限会社スターランドリー,,有限会社,大阪府,池田市,石橋３丁目１番２２号,,27,204,5630032,,,2024-03-11,清算の結了等,,,2015-10-05,1,,,,,スターランドリー,0
1005,6140001085070,登記記録の閉鎖等,0,2024-03-13,2024-03-11,近畿セラミックス株式会社,,株式会社,兵庫県,淡路市,大谷８８１番地の８,,28,226,6562224,,,2024-03-11,清算の結了等,,,2015-10-05,1,,,,,キンキセラミックス,0
1013,6180005020012,登記記録の閉鎖等,0,2024-03-13,2024-03-06,社会保険労務士法人ＤＸフルサポート,,その他の設立登記法人,愛知県,名古屋市中村区,名駅１丁目１番１号ＪＰタワー名古屋２１階,,23,105,4500002,,,2024-03-06,清算の結了等,,,2022-12-02,1,,,,,ディーエックスフルサポート,0
1015,6180302023444,登記記録の閉鎖等,0,2024-03-13,2024-03-07,有限会社保見電化,,有限会社,愛知県,豊田市,保見ケ丘２丁目１０５番地,,23,211,4700353,,,2024-03-07,清算の結了等,,,2015-10-05,1,,,,,ホミデンカ,0
1016,6200005009283,登記記録の閉鎖等,0,2024-03-13,2024-03-08,加子母林産協同組合,,その他の設立登記法人,岐阜県,中津川市,加子母３９００番地の３,,21,206,5080421,,,2024-03-08,清算の結了等,,,2015-10-05,1,,,,,カシモリンサン,0
1018,6210002003395,登記記録の閉鎖等,0,2024-03-13,2024-03-04,有限会社ポパイ,,有限会社,福井県,福井市,花堂中２丁目１６番６号,,18,201,9188014,,,2024-03-04,合併による解散等,6210001017702,令和６年３月１日福井市高木中央二丁目３３１１番地ナリタ自動車株式会社（6210001017702）に合併し解散,2015-10-05,1,,,,,ポパイ,0
1021,6260002013316,登記記録の閉鎖等,0,2024-03-13,2024-03-08,有限会社為成コーポレーション,,有限会社,岡山県,岡山市北区,野田２丁目２番３５－１０５号,,33,101,7000971,,,2024-03-08,清算の結了等,,,2015-10-05,1,,,,,タメナリコーポレーション,0
1043,6370002008791,登記記録の閉鎖等,0,2024-03-13,2024-03-08,ミノワ建機有限会社,,有限会社,宮城県,富谷市,東向陽台２丁目１番８－１０１号,,04,216,9813331,,,2024-03-08,清算の結了等,,,2015-10-05,1,,,,,ミノワケンキ,0
1049,6430001008927,登記記録の閉鎖等,0,2024-03-13,2024-03-11,株式会社セフティハウジング,,株式会社,北海道,札幌市南区,真駒内柏丘６丁目４番２－１０２号,,01,106,0050022,,,2024-03-11,清算の結了等,,,2015-10-05,1,,,,,セフティハウジング,0
1050,6430001050664,登記記録の閉鎖等,0,2024-03-13,2024-03-11,和信木工株式会社,,株式会社,北海道,小樽市,山田町７番１３号,,01,203,0470025,,,2024-03-11,清算の結了等,,,2015-10-05,1,,,,,ワシンモッコウ,0
1051,6430001081759,登記記録の閉鎖等,0,2024-03-13,2024-03-11,株式会社ＹＫサービス,,株式会社,北海道,石狩市,新港南１丁目２２番地７,,01,235,0613244,,,2024-03-11,清算の結了等,,,2020-06-24,1,,,,,ワイケーサービス,0
1136,7013301026169,登記記録の閉鎖等,0,2024-03-13,2024-03-08,株式会社リブロワークス,,株式会社,東京都,豊島区,南池袋２丁目１８番９号,,13,116,1710022,,,2024-03-08,合併による解散等,1010401158336,令和６年３月１日東京都港区虎ノ門五丁目１番４号株式会社ディジタルグロースアカデミア（1010401158336）に合併し解散,2015-10-05,1,,,,,リブロワークス,0
1149,7030001089932,登記記録の閉鎖等,0,2024-03-13,2024-03-08,株式会社アリムラ,,株式会社,埼玉県,日高市,大字上鹿山２７４番地８,,11,242,3501234,,,2024-03-08,清算の結了等,,,2015-10-05,1,,,,,アリムラ,0
1158,7030002088826,登記記録の閉鎖等,0,2024-03-13,2024-03-07,有限会社ルネサンス,,有限会社,埼玉県,越谷市,瓦曽根２丁目１１番６４号,,11,222,3430821,,,2024-03-07,清算の結了等,,,2015-10-05,1,,,,,ルネサンス,0
1161,7040001113377,登記記録の閉鎖等,0,2024-03-13,2024-03-08,株式会社インクファクトリー,,株式会社,千葉県,千葉市美浜区,中瀬１丁目３番地幕張テクノガーデンＣＢ棟３階ＭＢＰ内,,12,106,2610023,,,2024-03-08,合併による解散等,9011001044381,令和６年２月２９日東京都新宿区西新宿一丁目２２番２号株式会社キュリエ（9011001044381）に合併し解散,2020-04-17,1,,,,,インクファクトリー,0
1177,7080002002988,登記記録の閉鎖等,0,2024-03-13,2024-03-08,株式会社スタージョイナス,,株式会社,静岡県,静岡市葵区,七間町１番地の５,,22,101,4200035,,,2024-03-08,合併による解散等,5080001013641,令和６年３月１日静岡県牧之原市静波２３１６番地５株式会社ジャック（5080001013641）に合併し解散,2015-10-05,1,,,,,スタージョイナス,0
1178,7100001022737,登記記録の閉鎖等,0,2024-03-13,2023-12-25,堀口電機株式会社,,株式会社,長野県,飯田市,上郷別府３３４９番地２０,,20,205,3950003,,,2023-12-25,清算の結了等,,,2015-10-05,1,,,,,ホリグチデンキ,0
1189,7120002063472,登記記録の閉鎖等,0,2024-03-13,2024-03-07,株式会社マーカス・メディアアーカイブス,,株式会社,京都府,宮津市,字灘波野小字五斗田道ノ上３４４－１,,26,205,6260000,,,2024-03-07,清算の結了等,,,2015-10-05,1,,,,,マーカスメディアアーカイブス,0
1192,7120901042510,登記記録の閉鎖等,0,2024-03-13,2024-03-12,株式会社Ａｌｌ,,株式会社,大阪府,豊中市,新千里東町１丁目４番１号,,27,203,5600082,,,2024-03-12,清算の結了等,,,2020-03-11,1,,,,,オール,0
1196,7130001028657,登記記録の閉鎖等,0,2024-03-13,2024-03-11,株式会社希宗,,株式会社,京都府,京都市西京区,山田南山田町３３番地５,,26,111,6158266,,,2024-03-11,清算の結了等,,,2015-10-05,1,,,,,キソウ,0
1219,7180301016142,登記記録の閉鎖等,0,2024-03-13,2024-03-07,平沢交易株式会社,,株式会社,愛知県,知立市,昭和１丁目１６番地３,,23,225,4720011,,,2024-03-07,清算の結了等,,,2015-10-05,1,,,,,ヒラサワコウエキ,0
1241,7380005002963,登記記録の閉鎖等,0,2024-03-13,2024-03-08,郡山顕本教会,,その他の設立登記法人,福島県,郡山市,字咲田町３４０番地,,07,203,9630000,,,2024-03-08,清算の結了等,,,2015-10-05,1,,,,,コオリヤマケンポンキョウカイ,0
1256,8010001145876,登記記録の閉鎖等,0,2024-03-13,2024-03-11,スマホオーク株式会社,,株式会社,大阪府,枚方市,星丘２丁目１３番１１号,,27,210,5730013,,,2024-03-11,清算の結了等,,,2015-10-05,1,,,,,スマホオーク,0
1259,8010001167730,登記記録の閉鎖等,0,2024-03-13,2024-03-06,レジェンドジャパン株式会社,,株式会社,東京都,中央区,日本橋１丁目２番１０号,,13,102,1030027,,,2024-03-06,清算の結了等,,,2015-10-05,1,,,,,,0
1268,8010601039081,登記記録の閉鎖等,0,2024-03-13,2024-03-01,アクトアドバイザーズ株式会社,,株式会社,東京都,港区,虎ノ門１丁目１７番１号,,13,103,1050001,,,2024-03-01,合併による解散等,5010401126594,令和６年３月１日東京都港区虎ノ門一丁目１７番１号アクトホールディングス株式会社（5010401126594）に合併し解散,2015-10-05,1,,,,,アクトアドバイザーズ,0
1277,8011001146195,登記記録の閉鎖等,0,2024-03-13,2024-03-08,株式会社ｖｉｖｅｌｙ,,株式会社,東京都,目黒区,上目黒２丁目４４番１０－５０２号,,13,110,1530051,,,2024-03-08,清算の結了等,,,2022-03-10,1,,,,,ビベリイ,0
1286,8011003002322,登記記録の閉鎖等,0,2024-03-13,2024-03-08,合同会社ウィニング・ターン,,合同会社,東京都,渋谷区,代官山町２０番９号,,13,113,1500034,,,2024-03-08,清算の結了等,,,2015-10-05,1,,,,,ウィニングターン,0
1299,8020001008628,登記記録の閉鎖等,0,2024-03-13,2024-03-08,株式会社サントレーディング,,株式会社,神奈川県,横浜市都筑区,中川中央１丁目３０番１号,,14,118,2240003,,,2024-03-08,清算の結了等,,,2015-10-05,1,,,,,サントレーディング,0
1318,8021005009934,登記記録の閉鎖等,0,2024-03-13,2024-03-12,特定非営利活動法人気功太極拳普及協会,,その他の設立登記法人,神奈川県,大和市,南林間１丁目７番９号３Ｆ,,14,213,2420006,,,2024-03-12,清算の結了等,,,2015-10-05,1,,,,,キコウタイキョクケンフキュウキョウカイ,0
1322,8030001143291,登記記録の閉鎖等,0,2024-03-13,2024-03-11,株式会社サンクチュアリ,,株式会社,埼玉県,春日部市,南中曽根３５２番地オリンピアヒルズ豊春４０３,,11,214,3440048,,,2024-03-11,清算の結了等,,,2021-07-13,1,,,,,サンクチュアリ,0
1327,8040001046089,登記記録の閉鎖等,0,2024-03-13,2024-02-28,株式会社イーツーレジデンス,,株式会社,千葉県,佐倉市,上志津１６６９番６,,12,212,2850846,,,2024-02-28,清算の結了等,,,2015-10-05,1,,,,,イーツーレジデンス,0
1333,8050001013880,登記記録の閉鎖等,0,2024-03-13,2024-03-06,風見製菓販売株式会社,,株式会社,茨城県,猿島郡境町,４７７番地,,08,546,3060433,,,2024-03-06,合併による解散等,3110001014191,令和６年３月１日新潟県三条市塚野目２１５３番地５株式会社ＳＡＮＫＡ（3110001014191）に合併し解散,2015-10-05,1,,,,,カザミセイカハンバイ,0
1347,8100002031827,登記記録の閉鎖等,0,2024-03-13,2024-03-05,有限会社マルカ林,,有限会社,長野県,岡谷市,本町３丁目８番３１号,,20,204,3940028,,,2024-03-05,清算の結了等,,,2015-10-05,1,,,,,マルカハヤシ,0
1354,8120001063836,登記記録の閉鎖等,0,2024-03-13,2024-03-07,コーサン化工株式会社,,株式会社,大阪府,大阪市北区,天神橋２丁目５番１３号,,27,127,5300041,,,2024-03-07,清算の結了等,,,2015-10-05,1,,,,,コーサンカコウ,0
1356,8120001090608,登記記録の閉鎖等,0,2024-03-13,2024-03-11,宮崎紙業株式会社,,株式会社,大阪府,大阪市中央区,内久宝寺町３丁目３番９号,,27,128,5400013,,,2024-03-11,清算の結了等,,,2015-10-05,1,,,,,ミヤザキシギョウ,0
1359,8120001147746,登記記録の閉鎖等,0,2024-03-13,2024-03-11,株式会社くろがねファシリティ創研,,株式会社,大阪府,寝屋川市,石津元町１０番１２号,,27,215,5720025,,,2024-03-11,清算の結了等,,,2015-10-05,1,,,,,クロガネファシリティソウケン,0
1376,8140001078741,登記記録の閉鎖等,0,2024-03-13,2024-03-11,日伊包装株式会社,,株式会社,兵庫県,伊丹市,森本１丁目８番地の６,,28,207,6640842,,,2024-03-11,合併による解散等,8120001071062,令和６年３月１日大阪市北区西天満一丁目２番５号株式会社ミューチュアル（8120001071062）に合併し解散,2015-10-05,1,,,,,ニチイホウソウ,0
1385,8160001021732,登記記録の閉鎖等,0,2024-03-13,2024-03-11,長浜バイオマスエナジー株式会社,,株式会社,滋賀県,長浜市,川崎町１１９番地,,25,203,5260846,,,2024-03-11,清算の結了等,,,2019-06-12,1,,,,,ナガハマバイオマスエナジー,0
1391,8190005006173,登記記録の閉鎖等,0,2024-03-13,2024-03-11,特定非営利活動法人アガペの家,,その他の設立登記法人,三重県,伊賀市,上神戸４３９７番地の５,,24,216,5180116,,,2024-03-11,清算の結了等,,,2015-10-05,1,,,,,アガペノイエ,0
1395,8210001009813,登記記録の閉鎖等,0,2024-03-13,2024-03-08,株式会社セレクトワーク大宝,,株式会社,福井県,大野市,吉２７号１番地,,18,205,9120401,,,2024-03-08,清算の結了等,,,2017-03-23,1,,,,,セレクトワークタイホウ,0
1398,8230003000347,登記記録の閉鎖等,0,2024-03-13,2024-03-08,合資会社シーズメカデザイン,,合資会社,富山県,下新川郡入善町,春日４３５番地,,16,342,9390617,,,2024-03-08,清算の結了等,,,2015-10-05,1,,,,,シーズメカデザイン,0
1407,8310002003417,登記記録の閉鎖等,0,2024-03-13,2024-03-12,有限会社哲設計,,有限会社,長崎県,長崎市,清水町１１番１号,,42,201,8528041,,,2024-03-12,清算の結了等,,,2015-10-05,1,,,,,,0
1425,8410001013646,登記記録の閉鎖等,0,2024-03-13,2024-03-06,株式会社小林建設,,株式会社,秋田県,秋田市,保戸野字新川向６２番地の１,,05,201,0100915,,,2024-03-06,清算の結了等,,,2023-11-22,1,,,,,コバヤシケンセツ,0
1430,8430002023287,登記記録の閉鎖等,0,2024-03-13,2024-03-05,有限会社札幌葬祭,,有限会社,北海道,札幌市南区,澄川三条１丁目３番１－１００４号,,01,106,0050003,,,2024-03-05,清算の結了等,,,2015-10-05,1,,,,,サッポロソウサイ,0
1438,9010001026737,登記記録の閉鎖等,0,2024-03-13,2024-03-01,株式会社パン,,株式会社,東京都,千代田区,麹町１丁目５番３０１,00060442,13,101,1020083,,,2024-03-01,清算の結了等,,,2015-10-05,1,,,,,パン,0
1452,9010701003952,登記記録の閉鎖等,0,2024-03-13,2024-03-11,株式会社サンローズィ,,株式会社,東京都,品川区,旗の台６丁目１５番１３号,,13,109,1420064,,,2024-03-11,清算の結了等,,,2015-10-05,1,,,,,サンローズィ,0
1453,9010801023339,登記記録の閉鎖等,0,2024-03-13,2024-03-07,ＧＥＮ株式会社,,株式会社,東京都,大田区,大森北４丁目１５番１４－５０２号,,13,111,1430016,,,2024-03-07,清算の結了等,,,2015-10-05,1,,,,,ゲン,0
1462,9011001149032,登記記録の閉鎖等,0,2024-03-13,2024-03-08,株式会社マツミ,,株式会社,東京都,渋谷区,恵比寿１丁目９番１０号ドエリング恵比寿７０２号,,13,113,1500013,,,2024-03-08,清算の結了等,,,2022-08-04,1,,,,,マツミ,0
1463,9011001149775,登記記録の閉鎖等,0,2024-03-13,2024-03-08,株式会社アロポリプロイド,,株式会社,東京都,渋谷区,初台１丁目４８番６号,,13,113,1510061,,,2024-03-08,清算の結了等,,,2022-09-14,1,,,,,アロポリプロイド,0
1490,9020001080287,登記記録の閉鎖等,0,2024-03-13,2024-03-08,株式会社ＢＧ福,,株式会社,神奈川県,横浜市神奈川区,七島町１３８番地マック子安コート１０４号,,14,102,2210061,,,2024-03-08,清算の結了等,,,2015-10-05,1,,,,,ビージーフク,0
1494,9020002073273,登記記録の閉鎖等,0,2024-03-13,2024-03-06,有限会社キョードーシステム,,有限会社,神奈川県,横浜市旭区,左近山１９９７番地の７左近山団地２街区１２棟２０５号,,14,112,2410831,,,2024-03-06,清算の結了等,,,2015-10-05,1,,,,,キョードーシステム,0
1503,9030001152309,登記記録の閉鎖等,0,2024-03-13,2024-03-04,株式会社ロハロス,,株式会社,埼玉県,本庄市,児玉町高柳１３５番地,,11,211,3670224,,,2024-03-04,清算の結了等,,,2023-02-09,1,,,,,ロハロス,0
1510,9040002086216,登記記録の閉鎖等,0,2024-03-13,2024-03-06,有限会社ミネラル湯旅館あしか荘,,有限会社,千葉県,銚子市,海鹿島町５２８７番地,,12,202,2880005,,,2024-03-06,清算の結了等,,,2015-10-05,1,,,,,ミネラルユリョカンアシカソウ,0
1522,9070002035558,登記記録の閉鎖等,0,2024-03-13,2024-03-11,小林工業有限会社,,有限会社,群馬県,利根郡みなかみ町,湯原４６７番地,,10,449,3791617,,,2024-03-11,清算の結了等,,,2015-10-05,1,,,,,,0
1531,9120002014440,登記記録の閉鎖等,0,2024-03-13,2024-03-11,有限会社山下歯車工業,,有限会社,大阪府,大阪市此花区,四貫島２丁目１７番１４号,,27,104,5540014,,,2024-03-11,清算の結了等,,,2015-10-05,1,,,,,ヤマシタハグルマコウギョウ,0
1532,9120002061053,登記記録の閉鎖等,0,2024-03-13,2024-03-11,有限会社都市デザイン研究所,,有限会社,大阪府,大阪市淀川区,西宮原２丁目３番３５号,,27,123,5320004,,,2024-03-11,清算の結了等,,,2015-10-05,1,,,,,トシデザインケンキュウショ,0
1542,9130002015891,登記記録の閉鎖等,0,2024-03-13,2024-03-11,有限会社大西商店,,有限会社,京都府,京都市中京区,西ノ京南聖町２１番地,,26,104,6048412,,,2024-03-11,清算の結了等,,,2015-10-05,1,,,,,,0
1549,9140005023395,登記記録の閉鎖等,0,2024-03-13,2024-03-07,ＮＰＯ法人Ｄａｎｋｅ心と身体のデトックス研究所,,その他の設立登記法人,兵庫県,神戸市須磨区,須磨浦通３丁目２番１８号,,28,107,6540055,,,2024-03-07,清算の結了等,,,2017-03-01,1,,,,,ダンケココロトカラダノデトックスケンキュウショ,0
1555,9180005009639,登記記録の閉鎖等,0,2024-03-13,2024-03-08,木曽川町商業協同組合,,その他の設立登記法人,愛知県,一宮市,木曽川町黒田字古城１５番地の１１,,23,203,4930001,,,2024-03-08,清算の結了等,,,2015-10-05,1,,,,,キソガワチョウショウギョウ,0
1559,9180301013253,登記記録の閉鎖等,0,2024-03-13,2024-03-07,株式会社ビー・ウェブ,,株式会社,愛知県,安城市,三河安城本町２丁目４番地８,,23,212,4460059,,,2024-03-07,合併による解散等,2180001036585,令和６年３月１日名古屋市中区栄三丁目１１番３１号株式会社シーアイエス（2180001036585）に合併し解散,2015-10-05,1,,,,,ビーウエブ,0
1566,9260001023313,登記記録の閉鎖等,0,2024-03-13,2024-03-08,株式会社ユニバーサルワークス,,株式会社,岡山県,岡山市北区,東花尻８５番地１トゥールモンド１０１,,33,101,7010135,,,2024-03-08,清算の結了等,,,2015-10-05,1,,,,,ユニバーサルワークス,0
1586,9370001047656,登記記録の閉鎖等,0,2024-03-13,2024-03-01,株式会社Ｂｒｉｌｌｉａｎｔ　Ｋｉｙｏｎｏ,,株式会社,宮城県,仙台市青葉区,下愛子字町３番地の２－Ｂ号,,04,101,9893125,,,2024-03-01,合併による解散等,8370001046650,令和６年３月１日仙台市青葉区下愛子字町３番地の２－Ｂ号株式会社清野興業（8370001046650）に合併し解散,2021-10-07,1,,,,,ブリリアントキヨノ,0
1595,9440001008865,登記記録の閉鎖等,0,2024-03-13,2024-03-08,株式会社安田建設,,株式会社,北海道,函館市,桔梗町４１８番地３８,,01,202,0410801,,,2024-03-08,清算の結了等,,,2021-04-12,1,,,,,ヤスダケンセツ,0
1598,9450001001869,登記記録の閉鎖等,0,2024-03-13,2024-03-12,株式会社高橋養蜂園,,株式会社,北海道,旭川市,旭町一条１丁目,,01,204,0700831,,,2024-03-12,清算の結了等,,,2015-10-05,1,,,,,タカハシヨウホウエン,0
1599,9490002007300,登記記録の閉鎖等,0,2024-03-13,2024-03-04,有限会社レックソフト,,有限会社,高知県,高知市,朝倉己８０２番地１９,,39,201,7808066,,,2024-03-04,清算の結了等,,,2015-10-05,1,,,,,,0
