sequenceNumber,corporateNumber,process,correct,updateDate,changeDate,name,nameImageId,kind,prefectureName,cityName,streetNumber,addressImageId,prefectureCode,cityCode,postCode,addressOutside,addressOutsideImageId,closeDate,closeCause,successorCorporateNumber,changeCause,assignmentDate,latest,enName,enPrefectureName,enCityName,enAddressOutside,furigana,hihyoji
18,1010003033672,登記記録の閉鎖等,0,2022-10-26,2022-10-20,郡司ホールディングス合同会社,,合同会社,東京都,千代田区,九段南１丁目５番６号りそな九段ビル５階,,13,101,1020074,,,2022-10-20,清算の結了等,,,2020-12-07,1,,,,,グンジホールディングス,0
21,1010401152231,登記記録の閉鎖等,0,2022-10-26,2022-10-06,株式会社アール・ジェ・インフィニティ,,株式会社,東京都,港区,芝３丁目８番２－３１０３号,,13,103,1050014,,,2022-10-06,清算の結了等,,,2020-04-13,1,,,,,アールジェインフィニティ,0
30,1010702002820,登記記録の閉鎖等,0,2022-10-26,2022-10-20,有限会社ケーユー,,有限会社,東京都,品川区,西五反田７丁目２４番４号,,13,109,1410031,,,2022-10-20,清算の結了等,,,2015-10-05,1,,,,,,0
33,1010902016414,登記記録の閉鎖等,0,2022-10-26,2022-10-24,有限会社龍鳳,,有限会社,東京都,世田谷区,上祖師谷４丁目２０番３号,,13,112,1570065,,,2022-10-24,清算の結了等,,,2015-10-05,1,,,,,リュウホウ,0
38,1011001097040,登記記録の閉鎖等,0,2022-10-26,2022-10-20,株式会社Ｍｉｓｓ　ＢＩＢＩ,,株式会社,東京都,港区,南青山６丁目５番４０号,,13,103,1070062,,,2022-10-20,合併による解散等,9010801018132,令和４年１０月１日東京都目黒区目黒一丁目２４番１２号ペッツファースト株式会社（9010801018132）に合併し解散,2015-10-05,1,,,,,ミスビビ,0
39,1011001116782,登記記録の閉鎖等,0,2022-10-26,2022-10-11,Ｃｒｅａｍ株式会社,,株式会社,東京都,目黒区,柿の木坂２丁目３番４号ヴェルト柿の木坂２０１,,13,110,1520022,,,2022-10-11,清算の結了等,,,2017-06-12,1,,,,,クリーム,0
53,1011202000694,登記記録の閉鎖等,0,2022-10-26,2022-10-20,有限会社今井塗装店,,有限会社,東京都,中野区,中央５丁目１９番３号,,13,114,1640011,,,2022-10-20,清算の結了等,,,2015-10-05,1,,,,,イマイトソウテン,0
61,1011601001707,登記記録の閉鎖等,0,2022-10-26,2022-10-20,株式会社キクチ住窓,,株式会社,東京都,練馬区,豊玉南２丁目２０番３号,,13,120,1760014,,,2022-10-20,清算の結了等,,,2015-10-05,1,,,,,キクチジュウソウ,0
74,1013303004475,登記記録の閉鎖等,0,2022-10-26,2022-10-19,ＣＲＭ合同会社,,合同会社,千葉県,松戸市,松戸１１３９－２－２３０７,,12,207,2710092,,,2022-10-19,清算の結了等,,,2019-01-30,1,,,,,シーアールエム,0
78,1020001066426,登記記録の閉鎖等,0,2022-10-26,2022-10-19,株式会社スタジオエンジニアリングサービス,,株式会社,神奈川県,川崎市高津区,二子６丁目１０番１０号,,14,134,2130002,,,2022-10-19,清算の結了等,,,2015-10-05,1,,,,,スタジオエンジニアリングサービス,0
85,1020002093287,登記記録の閉鎖等,0,2022-10-26,2022-10-19,有限会社プランドゥー,,有限会社,神奈川県,川崎市多摩区,登戸８０５番地,,14,135,2140014,,,2022-10-19,清算の結了等,,,2015-10-05,1,,,,,プランドゥー,0
87,1020003009077,登記記録の閉鎖等,0,2022-10-26,2022-10-03,合同会社快適住まい工房,,合同会社,神奈川県,横浜市青葉区,千草台５２番地１０９,,14,117,2270051,,,2022-10-03,合併による解散等,1040003006873,令和４年１０月１日神奈川県横浜市青葉区千草台５２番地１０９合同会社ＦＳプロパティー（1040003006873）に合併し解散,2015-10-05,1,,,,,カイテキスマイコウボウ,0
95,1021002021428,登記記録の閉鎖等,0,2022-10-26,2022-10-21,有限会社鈴木産業,,有限会社,神奈川県,相模原市南区,新磯野１丁目４４番１０－５０３号,,14,153,2520325,,,2022-10-21,清算の結了等,,,2015-10-05,1,,,,,スズキサンギョウ,0
98,1030001028375,登記記録の閉鎖等,0,2022-10-26,2022-10-14,株式会社ミューテックス,,株式会社,埼玉県,川越市,南台３丁目１番地２６,,11,201,3501165,,,2022-10-14,清算の結了等,,,2015-10-05,1,,,,,ミューテックス,0
103,1030002093963,登記記録の閉鎖等,0,2022-10-26,2022-10-17,有限会社秋芳,,有限会社,埼玉県,入間郡毛呂山町,岩井西２丁目２６番地２,,11,326,3500465,,,2022-10-17,清算の結了等,,,2015-10-05,1,,,,,アキヨシ,0
115,1040005015492,登記記録の閉鎖等,0,2022-10-26,2022-09-26,永福寺,,その他の設立登記法人,千葉県,南房総市,千倉町忽戸４０９番地の２,,12,234,2950022,,,2022-09-26,合併による解散等,7040005015520,令和４年９月２６日千葉県南房総市千倉町忽戸１４６番地能藏院（7040005015520）に合併し解散,2015-10-05,1,,,,,エイフクジ,0
116,1040005015633,登記記録の閉鎖等,0,2022-10-26,2022-09-26,寶樹院,,その他の設立登記法人,千葉県,南房総市,和田町沼６３６番地,,12,234,2992714,,,2022-09-26,合併による解散等,7040005015520,令和４年９月２６日千葉県南房総市千倉町忽戸１４６番地能藏院（7040005015520）に合併し解散,2015-10-05,1,,,,,ホウジュイン,0
120,1060002002970,登記記録の閉鎖等,0,2022-10-26,2022-10-20,有限会社川上自動車工場,,有限会社,栃木県,宇都宮市,幕田町６２７番地,,09,201,3210157,,,2022-10-20,清算の結了等,,,2015-10-05,1,,,,,カワカミジドウシャコウジョウ,0
133,1120001006537,登記記録の閉鎖等,0,2022-10-26,2022-10-21,株式会社三田技研,,株式会社,東京都,千代田区,内神田２丁目７番１２号,,13,101,1010047,,,2022-10-21,清算の結了等,,,2015-10-05,1,,,,,ミタギケン,0
146,1120002022525,登記記録の閉鎖等,0,2022-10-26,2022-10-25,東京商事有限会社,,有限会社,大阪府,大阪市西区,新町２丁目１４番１１号,,27,106,5500013,,,2022-10-25,清算の結了等,,,2015-10-05,1,,,,,トウキョウショウジ,0
153,1120105005484,登記記録の閉鎖等,0,2022-10-26,2022-10-11,天理教南河内分教会,,その他の設立登記法人,大阪府,河内長野市,天見７番地,,27,216,5860062,,,2022-10-11,合併による解散等,8170005004724,令和４年１０月７日和歌山県橋本市柱本１５番地の８天理教紀見分教会（8170005004724）に合併し解散,2015-10-05,1,,,,,テンリキョウミナミカワチブンキョウカイ,0
158,1130001050435,登記記録の閉鎖等,0,2022-10-26,2022-10-18,株式会社庵プロデュース,,株式会社,京都府,京都市中京区,錦小路通室町西入天神山町２８２番地アウスハイレン栗田３０３,,26,104,6048221,,,2022-10-18,清算の結了等,,,2015-10-05,1,,,,,イオリプロデュース,0
162,1130002028901,登記記録の閉鎖等,0,2022-10-26,2022-10-19,有限会社ケアハッピー,,有限会社,京都府,亀岡市,下矢田町４丁目２０番２号,,26,206,6210854,,,2022-10-19,清算の結了等,,,2015-10-05,1,,,,,ケアハッピー,0
174,1180001077085,登記記録の閉鎖等,0,2022-10-26,2022-10-14,中央企画株式会社,,株式会社,茨城県,守谷市,久保ケ丘２丁目１４番地３,,08,224,3020104,,,2022-10-14,清算の結了等,,,2015-10-05,1,,,,,チュウオウキカク,0
197,1240001010683,登記記録の閉鎖等,0,2022-10-26,2022-10-25,株式会社平和荘,,株式会社,広島県,広島市西区,西観音町５番１６－１０１号,,34,104,7330037,,,2022-10-25,清算の結了等,,,2015-10-05,1,,,,,ヘイワソウ,0
199,1250003002827,登記記録の閉鎖等,0,2022-10-26,2022-10-24,合同会社ＹＴＧ,,合同会社,山口県,玖珂郡和木町,瀬田４丁目６－３,,35,321,7400062,,,2022-10-24,清算の結了等,,,2021-05-14,1,,,,,ワイテイジー,0
218,1310005005573,登記記録の閉鎖等,0,2022-10-26,2022-10-05,天理教東口分教会,,その他の設立登記法人,長崎県,南島原市,口之津町甲４５８番地２,,42,214,8592502,,,2022-10-05,合併による解散等,3310005005563,令和４年１０月５日長崎県南島原市南有馬町戊２９６番地天理教筑島分教会（3310005005563）に合併し解散,2015-10-05,1,,,,,テンリキョウトウコウブンキョウカイ,0
223,1360001028838,登記記録の閉鎖等,0,2022-10-26,2022-10-17,ＢＩＯＺＯＮＥ沖縄株式会社,,株式会社,沖縄県,那覇市,長田２丁目３４番１５ー１０３号,,47,201,9020077,,,2022-10-17,清算の結了等,,,2021-05-28,1,,,,,バイオゾーンオキナワ,0
255,2010001188550,登記記録の閉鎖等,0,2022-10-26,2022-10-20,株式会社神田かぶき,,株式会社,東京都,千代田区,内神田３丁目２２番１０号ハチヤビル１階,,13,101,1010047,,,2022-10-20,清算の結了等,,,2017-12-21,1,,,,,カンダカブキ,0
259,2010101009086,登記記録の閉鎖等,0,2022-10-26,2022-10-24,シーアールボックス株式会社,,株式会社,東京都,八王子市,大塚６３１番地１,,13,201,1920352,,,2022-10-24,合併による解散等,4010001170845,令和４年１０月１日東京都中央区築地二丁目１番１７号株式会社アドテック（4010001170845）に合併し解散,2015-10-05,1,,,,,,0
271,2010403021177,登記記録の閉鎖等,0,2022-10-26,2022-10-05,ビーエムキャピタル合同会社,,合同会社,東京都,港区,六本木７丁目１８番１－７０２号,,13,103,1060032,,,2022-10-05,清算の結了等,,,2019-07-30,1,,,,,ビーエムキャピタル,0
304,2011401012829,登記記録の閉鎖等,0,2022-10-26,2022-10-21,株式会社和高,,株式会社,東京都,板橋区,板橋１丁目４２番２号,,13,119,1730004,,,2022-10-21,合併による解散等,5011401012826,令和４年１０月１９日東京都板橋区板橋一丁目４２番２号株式会社いなばグループ（5011401012826）に合併し解散,2015-10-05,1,,,,,ワタカ,0
319,2013202001275,登記記録の閉鎖等,0,2022-10-26,2022-10-24,有限会社えびすや洋品店,,有限会社,東京都,世田谷区,尾山台３丁目２６番１２号,,13,112,1580086,,,2022-10-24,清算の結了等,,,2015-10-05,1,,,,,エビスヤヨウヒンテン,0
363,2040001086719,登記記録の閉鎖等,0,2022-10-26,2022-10-18,友部重機株式会社,,株式会社,千葉県,柏市,北柏２丁目５番地４,,12,217,2770832,,,2022-10-18,清算の結了等,,,2015-10-05,1,,,,,トモベジュウキ,0
376,2050002032456,登記記録の閉鎖等,0,2022-10-26,2022-10-19,有限会社常信,,有限会社,茨城県,北茨城市,中郷町汐見ケ丘２丁目１２５９番地の２６０,,08,215,3191553,,,2022-10-19,清算の結了等,,,2015-10-05,1,,,,,ジョウシン,0
382,2070003002365,登記記録の閉鎖等,0,2022-10-26,2022-09-30,Ｍ－Ｗｉｌｌ合同会社,,合同会社,群馬県,みどり市,笠懸町阿左美２１１６番地４,,10,212,3792311,,,2022-09-30,合併による解散等,7070001016305,令和４年８月３１日群馬県桐生市仲町二丁目７番３３号株式会社東京会館（7070001016305）に合併し解散,2015-10-05,1,,,,,エムウィル,0
392,2080402009027,登記記録の閉鎖等,0,2022-10-26,2022-10-21,有限会社良和商会,,有限会社,静岡県,浜松市南区,参野町１７５番地,,22,134,4300816,,,2022-10-21,清算の結了等,,,2015-10-05,1,,,,,リョウワショウカイ,0
395,2100001014219,登記記録の閉鎖等,0,2022-10-26,2022-10-20,丸山製畳株式会社,,株式会社,長野県,松本市,大字島内８１３５番地,,20,202,3900851,,,2022-10-20,清算の結了等,,,2015-10-05,1,,,,,マルヤマセイジョウ,0
409,2120001203975,登記記録の閉鎖等,0,2022-10-26,2022-10-24,ＷＡＱ株式会社,,株式会社,大阪府,大阪市東淀川区,東中島１丁目６番１４号,,27,114,5330033,,,2022-10-24,合併による解散等,5010401167614,令和４年１０月１日東京都港区虎ノ門三丁目７番１０号ランディック虎ノ門ビル９階ＷＡＱ株式会社（5010401167614）に合併し解散,2017-02-28,1,,,,,ワック,0
435,2130002033917,登記記録の閉鎖等,0,2022-10-26,2022-10-18,山口ペンテック有限会社,,有限会社,京都府,京丹後市,峰山町室３番地,,26,212,6270024,,,2022-10-18,清算の結了等,,,2015-10-05,1,,,,,ヤマグチペンテック,0
458,2240002038574,登記記録の閉鎖等,0,2022-10-26,2022-10-24,岩岡プリーツ有限会社,,有限会社,広島県,福山市,神辺町字東中条７９９番地の２,,34,207,7202102,,,2022-10-24,清算の結了等,,,2015-10-05,1,,,,,イワオカプリーツ,0
462,2240005000572,登記記録の閉鎖等,0,2022-10-26,2022-09-26,日裏山神社,,その他の設立登記法人,広島県,広島市安佐北区,安佐町大字後山３３７番地,,34,106,7313352,,,2022-09-26,合併による解散等,2240005000044,令和４年９月２６日広島市安佐北区安佐町大字後山１２５３番地後山八幡神社（2240005000044）に合併し解散,2015-10-05,1,,,,,ヒウラヤマジンジャ,0
466,2290001044536,登記記録の閉鎖等,0,2022-10-26,2022-10-19,株式会社ファルマシア,,株式会社,福岡県,朝倉市,古毛２５１６番地,,40,228,8381307,,,2022-10-19,清算の結了等,,,2015-10-05,1,,,,,ファルマシア,0
497,2370401000411,登記記録の閉鎖等,0,2022-10-26,2022-10-17,アリスモード株式会社,,株式会社,宮城県,登米市,南方町鴻ノ木７４番地１,,04,212,9870403,,,2022-10-17,清算の結了等,,,2015-10-05,1,,,,,,0
501,2370802001504,登記記録の閉鎖等,0,2022-10-26,2022-10-18,有限会社シンプルシティ加納,,有限会社,宮城県,亘理郡山元町,浅生原字館新田２１番地の２,,04,362,9892203,,,2022-10-18,清算の結了等,,,2015-10-05,1,,,,,シンプルシティカノウ,0
502,2390001001766,登記記録の閉鎖等,0,2022-10-26,2022-10-19,株式会社まるき,,株式会社,山形県,山形市,あこや町２丁目６番８号,,06,201,9900025,,,2022-10-19,清算の結了等,,,2015-10-05,1,,,,,マルキ,0
505,2390002015443,登記記録の閉鎖等,0,2022-10-26,2022-10-20,有限会社山形新聞長井南専売所,,有限会社,山形県,長井市,四ツ谷１丁目１番３５号,,06,209,9930015,,,2022-10-20,清算の結了等,,,2015-10-05,1,,,,,,0
515,2430002032599,登記記録の閉鎖等,0,2022-10-26,2022-10-14,有限会社北洋レーシング,,有限会社,北海道,札幌市中央区,南四条西７丁目６番地,,01,101,0640804,,,2022-10-14,清算の結了等,,,2015-10-05,1,,,,,ホクヨウレーシング,0
536,3010001156341,登記記録の閉鎖等,0,2022-10-26,2022-10-20,京食株式会社,,株式会社,山形県,山形市,富神台１番地,,06,201,9902345,,,2022-10-20,清算の結了等,,,2015-10-05,1,,,,,,0
580,3011105008536,登記記録の閉鎖等,0,2022-10-26,2022-10-21,ＮＰＯ法人ＬＩＵＳ,,その他の設立登記法人,東京都,新宿区,新宿３丁目１１番２号村木ビル３階右,,13,104,1600022,,,2022-10-21,清算の結了等,,,2018-10-11,1,,,,,リアス,0
581,3011501023865,登記記録の閉鎖等,0,2022-10-26,2022-10-20,株式会社アドライトワークス,,株式会社,東京都,北区,中里３丁目１８番２号ホワイトヒル清水２０１,,13,117,1140015,,,2022-10-20,清算の結了等,,,2018-07-05,1,,,,,アドライトワークス,0
587,3011802002881,登記記録の閉鎖等,0,2022-10-26,2022-10-24,有限会社こだま,,有限会社,東京都,葛飾区,高砂３丁目２９番９号,,13,122,1250054,,,2022-10-24,清算の結了等,,,2015-10-05,1,,,,,コダマ,0
588,3011802013929,登記記録の閉鎖等,0,2022-10-26,2022-10-20,有限会社下川自動車工業,,有限会社,東京都,足立区,小台２丁目２８番１０号,,13,121,1200046,,,2022-10-20,清算の結了等,,,2015-10-05,1,,,,,シモカワジドウシャコウギョウ,0
590,3012401023947,登記記録の閉鎖等,0,2022-10-26,2022-10-21,株式会社コーラル,,株式会社,東京都,三鷹市,下連雀２丁目１８番１０号,,13,204,1810013,,,2022-10-21,清算の結了等,,,2015-10-05,1,,,,,コーラル,0
611,3020001141441,登記記録の閉鎖等,0,2022-10-26,2022-10-19,株式会社Ｍａｒｋｅｔ　Ｍａｋｅｒ’ｓ,,株式会社,神奈川県,川崎市幸区,幸町３丁目９番地５,,14,132,2120011,,,2022-10-19,清算の結了等,,,2021-05-25,1,,,,,マーケットメイカーズ,0
617,3021001030584,登記記録の閉鎖等,0,2022-10-26,2022-10-21,株式会社システムウイング,,株式会社,神奈川県,大和市,上和田２４１２番地上和田団地２－８－２０７,,14,213,2420014,,,2022-10-21,清算の結了等,,,2015-10-05,1,,,,,システムウイング,0
630,3030001055921,登記記録の閉鎖等,0,2022-10-26,2022-10-14,株式会社三栄建設,,株式会社,埼玉県,ふじみ野市,霞ケ丘１丁目２番１２号,,11,245,3560006,,,2022-10-14,清算の結了等,,,2015-10-05,1,,,,,サンエイケンセツ,0
631,3030001059798,登記記録の閉鎖等,0,2022-10-26,2022-10-17,中村木材工業株式会社,,株式会社,埼玉県,比企郡川島町,大字中山２１３６番地１,,11,346,3500165,,,2022-10-17,清算の結了等,,,2015-10-05,1,,,,,ナカムラモクザイコウギョウ,0
636,3030001112714,登記記録の閉鎖等,0,2022-10-26,2022-10-14,株式会社ＳＫＦコーポレーション,,株式会社,埼玉県,川越市,新宿町３丁目９番地２,,11,201,3501124,,,2022-10-14,清算の結了等,,,2016-02-05,1,,,,,エスケーエフコーポレーション,0
637,3030001136845,登記記録の閉鎖等,0,2022-10-26,2022-10-17,株式会社ＨＩＲＯ・ＨＯＵＳＥ,,株式会社,埼玉県,さいたま市中央区,上峰３丁目１０番１号,,11,105,3380014,,,2022-10-17,清算の結了等,,,2020-06-12,1,,,,,ヒロハウス,0
641,3030003012953,登記記録の閉鎖等,0,2022-10-26,2022-10-14,合同会社アローステップ,,合同会社,埼玉県,さいたま市北区,日進町１丁目４１０番地２若林倉庫２階,,11,102,3310823,,,2022-10-14,清算の結了等,,,2019-01-18,1,,,,,アローステップ,0
644,3040001056695,登記記録の閉鎖等,0,2022-10-26,2022-10-12,大江戸ライフネット株式会社,,株式会社,千葉県,富里市,日吉台１丁目２０番地８,,12,233,2860201,,,2022-10-12,清算の結了等,,,2015-10-05,1,,,,,オオエドライフネット,0
651,3050001039633,登記記録の閉鎖等,0,2022-10-26,2022-10-19,未来株式会社,,株式会社,茨城県,坂東市,岩井４４６１番地,,08,228,3060631,,,2022-10-19,清算の結了等,,,2015-10-05,1,,,,,,0
668,3110001016972,登記記録の閉鎖等,0,2022-10-26,2022-10-07,新潟福山通運株式会社,,株式会社,新潟県,三条市,栄荻島１９９１番地１,,15,204,9591122,,,2022-10-07,合併による解散等,8010601040551,令和４年１０月１日東京都江東区越中島三丁目６番１５号王子運送株式会社（8010601040551）に合併し解散,2015-10-05,1,,,,,ニイガタフクヤマツウウン,0
670,3120001008036,登記記録の閉鎖等,0,2022-10-26,2022-10-20,タナカ工業株式会社,,株式会社,大阪府,大阪市都島区,東野田町４丁目８番１４号,,27,102,5340024,,,2022-10-20,清算の結了等,,,2015-10-05,1,,,,,タナカコウギョウ,0
671,3120001029008,登記記録の閉鎖等,0,2022-10-26,2022-10-24,三晃食産株式会社,,株式会社,大阪府,大阪市港区,弁天４丁目１１番１９号,,27,107,5520007,,,2022-10-24,清算の結了等,,,2015-10-05,1,,,,,サンコウショクサン,0
706,3140002048087,登記記録の閉鎖等,0,2022-10-26,2022-10-19,有限会社カンバラ,,有限会社,兵庫県,姫路市,福中町２３番地,,28,201,6700017,,,2022-10-19,清算の結了等,,,2015-10-05,1,,,,,カンバラ,0
707,3140002070090,登記記録の閉鎖等,0,2022-10-26,2022-10-21,有限会社パラゾンテヒロ,,有限会社,兵庫県,南あわじ市,広田広田４８６番地,,28,224,6560122,,,2022-10-21,清算の結了等,,,2015-10-05,1,,,,,パラゾンテヒロ,0
712,3160001003529,登記記録の閉鎖等,0,2022-10-26,2022-10-25,セルテスコメディカルエンジニアリング株式会社,,株式会社,滋賀県,大津市,下阪本１丁目８番２１号,,25,201,5200105,,,2022-10-25,清算の結了等,,,2015-10-05,1,,,,,セルテスコメディカルエンジニアリング,0
714,3170002009086,登記記録の閉鎖等,0,2022-10-26,2022-10-21,有限会社松本組,,有限会社,和歌山県,田辺市,上の山２丁目１５番１４号,,30,206,6460061,,,2022-10-21,清算の結了等,,,2015-10-05,1,,,,,マツモトグミ,0
717,3180001065897,登記記録の閉鎖等,0,2022-10-26,2022-10-21,株式会社さくらケアセンター,,株式会社,愛知県,名古屋市北区,喜惣治１丁目２０番地の２,,23,103,4620065,,,2022-10-21,清算の結了等,,,2015-10-05,1,,,,,サクラケアセンター,0
723,3180002078114,登記記録の閉鎖等,0,2022-10-26,2022-10-20,岩村染色有限会社,,有限会社,愛知県,一宮市,開明字教堂池５３番地の２,,23,203,4940001,,,2022-10-20,清算の結了等,,,2015-10-05,1,,,,,イワムラセンショク,0
742,3230001001938,登記記録の閉鎖等,0,2022-10-26,2022-10-24,富山県印刷器材株式会社,,株式会社,富山県,富山市,婦中町板倉新８５番２１,,16,201,9392721,,,2022-10-24,清算の結了等,,,2015-10-05,1,,,,,,0
763,3290805000188,登記記録の閉鎖等,0,2022-10-26,2022-10-03,天理教赤坂山分教会,,その他の設立登記法人,福岡県,北九州市小倉北区,赤坂１丁目２番１３号,,40,106,8020032,,,2022-10-03,合併による解散等,4290805000195,令和４年１０月３日北九州市小倉北区上富野五丁目７番２４号天理教延命山分教会（4290805000195）に合併し解散,2015-10-05,1,,,,,,0
767,3310001000139,登記記録の閉鎖等,0,2022-10-26,2022-10-25,石橋コンクリート工業株式会社,,株式会社,長崎県,長崎市,布巻町２１１番地,,42,201,8510403,,,2022-10-25,清算の結了等,,,2015-10-05,1,,,,,イシバシコンクリートコウギョウ,0
777,3330003005869,登記記録の閉鎖等,0,2022-10-26,2022-10-12,合同会社エスト,,合同会社,熊本県,熊本市東区,花立３丁目１１番１１号,,43,102,8612118,,,2022-10-12,清算の結了等,,,2015-10-05,1,,,,,エスト,0
796,3450001000059,登記記録の閉鎖等,0,2022-10-26,2022-10-21,株式会社りゅうじゅ,,株式会社,北海道,上川郡上川町,旭町５３番地,,01,457,0781761,,,2022-10-21,清算の結了等,,,2022-08-25,1,,,,,,0
801,4010001075656,登記記録の閉鎖等,0,2022-10-26,2022-10-20,株式会社アイル,,株式会社,東京都,千代田区,内神田２丁目７番１２号,,13,101,1010047,,,2022-10-20,清算の結了等,,,2015-10-05,1,,,,,アイル,0
846,4011001096915,登記記録の閉鎖等,0,2022-10-26,2022-10-06,株式会社トータルデザイン,,株式会社,東京都,港区,浜松町２丁目２番１５号浜松町ダイヤハイツ８０３号,,13,103,1050013,,,2022-10-06,清算の結了等,,,2015-10-05,1,,,,,トータルデザイン,0
874,4011102022563,登記記録の閉鎖等,0,2022-10-26,2022-10-17,有限会社エクステリア総合研究所,,有限会社,埼玉県,朝霞市,根岸台１丁目４番２３号４０６,,11,227,3510005,,,2022-10-17,清算の結了等,,,2015-10-05,1,,,,,エクステリアソウゴウケンキュウジョ,0
886,4012701002501,登記記録の閉鎖等,0,2022-10-26,2022-10-21,株式会社双葉,,株式会社,東京都,西東京市,田無町４丁目２番１２号,,13,229,1880011,,,2022-10-21,清算の結了等,,,2015-10-05,1,,,,,フタバ,0
894,4020001020082,登記記録の閉鎖等,0,2022-10-26,2022-10-20,株式会社康伸總合建設,00009299,株式会社,神奈川県,横浜市港北区,高田東４丁目２１番１３号,,14,109,2230065,,,2022-10-20,清算の結了等,,,2015-10-05,1,,,,,コウシンソウゴウケンセツ,0
898,4020001112854,登記記録の閉鎖等,0,2022-10-26,2022-09-01,株式会社クラフト,,株式会社,神奈川県,横浜市金沢区,釜利谷西３丁目２９番７号,,14,108,2360046,,,2022-09-01,合併による解散等,2020001139461,令和４年９月１日横浜市金沢区釜利谷西三丁目２９番７号株式会社ＫＥＮＳＨＯ（2020001139461）に合併し解散,2015-10-05,1,,,,,クラフト,0
902,4020002056745,登記記録の閉鎖等,0,2022-10-26,2022-10-20,有限会社マサキ,,有限会社,神奈川県,横浜市港南区,日野９丁目２番１９号,,14,111,2340051,,,2022-10-20,清算の結了等,,,2015-10-05,1,,,,,マサキ,0
924,4030002008555,登記記録の閉鎖等,0,2022-10-26,2022-10-17,有限会社大道ホーム,,有限会社,埼玉県,さいたま市見沼区,大字南中丸７３４番地の７３,,11,104,3370041,,,2022-10-17,清算の結了等,,,2015-10-05,1,,,,,ダイドウホーム,0
938,4040003009782,登記記録の閉鎖等,0,2022-10-26,2022-10-03,合同会社すみれホーム,,合同会社,千葉県,千葉市中央区,富士見２丁目７番９号富士見ビル６０９号,,12,101,2600015,,,2022-10-03,合併による解散等,6040003011051,令和４年１０月１日千葉市中央区富士見二丁目７番９号富士見ビル６０９号みのりファーム合同会社（6040003011051）に合併し解散　,2017-03-10,1,,,,,スミレホーム,0
953,4060005009770,登記記録の閉鎖等,0,2022-10-26,2022-10-20,一般社団法人ＣＧＫ,,その他の設立登記法人,栃木県,宇都宮市,陽南２丁目１４番３４号陽南イタリハイツ２０４,,09,201,3200834,,,2022-10-20,清算の結了等,,,2020-08-04,1,,,,,シージーケー,0
957,4070003002108,登記記録の閉鎖等,0,2022-10-26,2022-09-30,Ｗｉｌｌ合同会社,,合同会社,群馬県,みどり市,笠懸町阿左美２１１６番地４,,10,212,3792311,,,2022-09-30,合併による解散等,7070001016305,令和４年８月３１日群馬県桐生市仲町二丁目７番３３号株式会社東京会館（7070001016305）に合併し解散,2015-10-05,1,,,,,ウィル,0
964,4100002023200,登記記録の閉鎖等,0,2022-10-26,2022-10-21,有限会社アイリス,,有限会社,長野県,安曇野市,三郷温９６７－１番地,,20,220,3998102,,,2022-10-21,清算の結了等,,,2015-10-05,1,,,,,アイリス,0
968,4120001115582,登記記録の閉鎖等,0,2022-10-26,2022-10-11,株式会社スカイコーポレーション,,株式会社,大阪府,大阪市中央区,南新町１丁目２番４号椿本ビル,,27,128,5400024,,,2022-10-11,合併による解散等,8200001019664,令和４年１０月１日岐阜県美濃市極楽寺１４５１番地の１美濃化学工業株式会社（8200001019664）に合併し解散,2015-10-05,1,,,,,スカイコーポレーション,0
984,4120005005202,登記記録の閉鎖等,0,2022-10-26,2022-10-05,医療法人慈勉会,,その他の設立登記法人,大阪府,大阪市西成区,天下茶屋北２丁目５番１５号,,27,122,5570003,,,2022-10-05,合併による解散等,6120005007956,令和４年１０月５日大阪市西成区天下茶屋一丁目１５番１号医療法人生樹会（6120005007956）に合併し解散,2015-10-05,1,,,,,ジベンカイ,0
995,4130001041233,登記記録の閉鎖等,0,2022-10-26,2022-10-19,株式会社ビル・ケアー・関西,,株式会社,京都府,福知山市,土師宮町２丁目５番地,,26,201,6200856,,,2022-10-19,清算の結了等,,,2015-10-05,1,,,,,ビルケアーカンサイ,0
1002,4130005010011,登記記録の閉鎖等,0,2022-10-26,2022-10-19,夜久野商業協同組合,,その他の設立登記法人,京都府,福知山市,夜久野町額田小字森嶋１３３８番地の４,,26,201,6291304,,,2022-10-19,清算の結了等,,,2015-10-05,1,,,,,ヤクノ,0
1018,4170005003738,登記記録の閉鎖等,0,2022-10-26,2022-10-07,天理教紀福分教会,,その他の設立登記法人,和歌山県,田辺市,龍神村福井９３８番地,,30,206,6450301,,,2022-10-07,合併による解散等,3170005003788,令和４年１０月７日和歌山県田辺市龍神村柳瀬１０８７番地の３天理教龍神分教会（3170005003788）に合併し解散,2015-10-05,1,,,,,テンリキョウキフクブンキョウカイ,0
1021,4180001034918,登記記録の閉鎖等,0,2022-10-26,2022-10-18,大藪商事株式会社,,株式会社,愛知県,名古屋市中区,錦２丁目７番３１号,,23,106,4600003,,,2022-10-18,清算の結了等,,,2015-10-05,1,,,,,オオヤブショウジ,0
1034,4180005008141,登記記録の閉鎖等,0,2022-10-26,2022-10-03,天理教本枇西分教会,,その他の設立登記法人,愛知県,春日井市,上田楽町字庄司山３０４３番地の４,,23,206,4860801,,,2022-10-03,合併による解散等,1180005000118,令和４年１０月３日名古屋市中村区大宮町一丁目６０番地天理教本愛大教会（1180005000118）に合併し解散,2015-10-05,1,,,,,テンリキョウホンビニシブンキョウカイ,0
1054,4250001010630,登記記録の閉鎖等,0,2022-10-26,2022-10-14,サンコウ株式会社,,株式会社,山口県,光市,大字岩田２５０３番地６,,35,210,7430103,,,2022-10-14,清算の結了等,,,2015-10-05,1,,,,,サンコウ,0
1087,4370001024370,登記記録の閉鎖等,0,2022-10-26,2022-10-17,株式会社ａｒｔｅｇｉａ,,株式会社,宮城県,仙台市宮城野区,宮城野１丁目１５番１２号ＡＳＡビル１Ｆ,,04,102,9830045,,,2022-10-17,清算の結了等,,,2015-10-05,1,,,,,,0
1094,4390001009980,登記記録の閉鎖等,0,2022-10-26,2022-10-20,株式会社つたや物産,,株式会社,山形県,米沢市,小野川町２４５８番地,,06,202,9920076,,,2022-10-20,清算の結了等,,,2015-10-05,1,,,,,,0
1097,4420001017880,登記記録の閉鎖等,0,2022-10-26,2022-10-20,株式会社たかむら家畜病院,,株式会社,青森県,十和田市,大字三本木字西小稲２１４番地５,,02,206,0340001,,,2022-10-20,清算の結了等,,,2022-06-07,1,,,,,タカムラカチクビョウイン,0
1104,4460101000361,登記記録の閉鎖等,0,2022-10-26,2022-10-05,株式会社カエデ,,株式会社,北海道,帯広市,西四条南１５丁目１７番地４,,01,207,0800014,,,2022-10-05,合併による解散等,7430001023669,令和４年１０月１日札幌市中央区北六条西十六丁目１番地５株式会社そえる（7430001023669）に合併し解散,2015-10-05,1,,,,,カエデ,0
1117,5010001207332,登記記録の閉鎖等,0,2022-10-26,2022-10-20,株式会社ＳＴＯＣＫ８７,,株式会社,東京都,千代田区,永田町２丁目１２番４号,,13,101,1000014,,,2022-10-20,清算の結了等,,,2020-02-07,1,,,,,ストックハチジュウナナ,0
1121,5010002043644,登記記録の閉鎖等,0,2022-10-26,2022-10-20,有限会社ロンサン,,有限会社,東京都,文京区,本郷５丁目２５番２号,,13,105,1130033,,,2022-10-20,清算の結了等,,,2015-10-05,1,,,,,ロンサン,0
1128,5010401115655,登記記録の閉鎖等,0,2022-10-26,2022-10-20,株式会社ホットステップ,,株式会社,東京都,中央区,銀座７丁目１０番５号,,13,102,1040061,,,2022-10-20,清算の結了等,,,2015-10-05,1,,,,,ホットステップ,0
1129,5010401138128,登記記録の閉鎖等,0,2022-10-26,2022-10-03,シースリー株式会社,,株式会社,東京都,渋谷区,西原３丁目６番５号,,13,113,1510066,,,2022-10-03,合併による解散等,9011001056807,令和４年１０月１日東京都渋谷区西原三丁目６番５号スリーロック株式会社（9011001056807）に合併し解散,2018-05-11,1,,,,,シースリー,0
1139,5010901011809,登記記録の閉鎖等,0,2022-10-26,2022-10-24,株式会社三宅島グリーンホテル東京,,株式会社,東京都,世田谷区,上馬４丁目１２番２６号,,13,112,1540011,,,2022-10-24,清算の結了等,,,2015-10-05,1,,,,,ミヤケジマグリーンホテルトウキョウ,0
1145,5011001131638,登記記録の閉鎖等,0,2022-10-26,2022-10-20,株式会社コンパーテス・ジャパン,,株式会社,神奈川県,鎌倉市,稲村ガ崎１丁目９番３１号,,14,204,2480024,,,2022-10-20,清算の結了等,,,2020-01-10,1,,,,,,0
1156,5011301003363,登記記録の閉鎖等,0,2022-10-26,2022-10-17,株式会社ジョンインターナショナル,,株式会社,東京都,杉並区,阿佐谷南３丁目３７番１４号,,13,115,1660004,,,2022-10-17,清算の結了等,,,2015-10-05,1,,,,,ジョンインターナショナル,0
1157,5011301025432,登記記録の閉鎖等,0,2022-10-26,2022-10-19,株式会社ｃｒｅｅｔｙ,,株式会社,東京都,杉並区,高円寺北２丁目３４番１４号ガーデンパレス高円寺２０５,,13,115,1660002,,,2022-10-19,清算の結了等,,,2019-10-17,1,,,,,クリーティー,0
1167,5013302012509,登記記録の閉鎖等,0,2022-10-26,2022-10-21,有限会社富士グリーン企画,,有限会社,東京都,豊島区,西池袋５丁目５番２１号,,13,116,1710021,,,2022-10-21,清算の結了等,,,2015-10-05,1,,,,,フジグリーンキカク,0
1178,5021001030673,登記記録の閉鎖等,0,2022-10-26,2022-10-19,株式会社環境サービス,,株式会社,神奈川県,海老名市,上河内１０５０番地３,,14,215,2430415,,,2022-10-19,清算の結了等,,,2015-10-05,1,,,,,,0
1183,5021002010187,登記記録の閉鎖等,0,2022-10-26,2022-10-24,有限会社出雲メタル,,有限会社,神奈川県,茅ヶ崎市,松風台５番２号,,14,207,2530005,,,2022-10-24,清算の結了等,,,2015-10-05,1,,,,,,0
1204,5040002018800,登記記録の閉鎖等,0,2022-10-26,2022-10-17,有限会社日盛堂,,有限会社,千葉県,習志野市,大久保３丁目１１番１８号,,12,216,2750011,,,2022-10-17,清算の結了等,,,2015-10-05,1,,,,,ニッセイドウ,0
1218,5080401016302,登記記録の閉鎖等,0,2022-10-26,2022-10-21,株式会社ＬＯＳ,,株式会社,静岡県,袋井市,山崎５９１４番地の１１６４,,22,216,4371311,,,2022-10-21,清算の結了等,,,2015-10-05,1,,,,,ロス,0
1221,5100001010479,登記記録の閉鎖等,0,2022-10-26,2022-10-17,株式会社ヤマミ,,株式会社,長野県,小県郡青木村,大字村松３８番地１,,20,349,3861602,,,2022-10-17,清算の結了等,,,2022-08-01,1,,,,,ヤマミ,0
1223,5100003004875,登記記録の閉鎖等,0,2022-10-26,2022-10-25,合同会社プラットフォーラム河合,,合同会社,長野県,上水内郡信濃町,大字野尻４７９番地２８,,20,583,3891303,,,2022-10-25,清算の結了等,,,2018-01-23,1,,,,,プラットフォーラムカワイ,0
1237,5120002002481,登記記録の閉鎖等,0,2022-10-26,2022-10-25,有限会社松山製菓,,有限会社,大阪府,大阪市西成区,長橋３丁目６番１８号,,27,122,5570025,,,2022-10-25,清算の結了等,,,2015-10-05,1,,,,,マツヤマセイカ,0
1240,5120101032801,登記記録の閉鎖等,0,2022-10-26,2022-10-24,株式会社サンライズ,,株式会社,大阪府,藤井寺市,野中４丁目１３番１４号,,27,226,5830014,,,2022-10-24,清算の結了等,,,2015-10-05,1,,,,,サンライズ,0
1241,5120101056478,登記記録の閉鎖等,0,2022-10-26,2022-10-25,株式会社ＧＧ’ｓ,,株式会社,大阪府,羽曳野市,羽曳が丘２丁目４番１７号,,27,222,5830864,,,2022-10-25,清算の結了等,,,2017-05-08,1,,,,,ジージーズ,0
1260,5170003001718,登記記録の閉鎖等,0,2022-10-26,2022-10-07,ＮＳＨ企画合同会社,,合同会社,和歌山県,和歌山市,六十谷２７５－４－２０１,,30,201,6408482,,,2022-10-07,清算の結了等,,,2022-05-10,1,,,,,,0
1267,5180001122911,登記記録の閉鎖等,0,2022-10-26,2022-10-24,株式会社ヨシカワ,,株式会社,岐阜県,羽島市,桑原町八神２０５０番地,,21,209,5016321,,,2022-10-24,清算の結了等,,,2016-04-15,1,,,,,ヨシカワ,0
1276,5210002009963,登記記録の閉鎖等,0,2022-10-26,2022-10-24,有限会社プランニングヤマコウ,,有限会社,福井県,大野市,日吉町２４番１０号,,18,205,9120051,,,2022-10-24,清算の結了等,,,2015-10-05,1,,,,,,0
1279,5240001047318,登記記録の閉鎖等,0,2022-10-26,2022-10-24,株式会社ＦＯＲＥＶＥＲ,,株式会社,広島県,廿日市市,前空２丁目１番７号ほうらいの里宮島６０８号,,34,213,7390424,,,2022-10-24,清算の結了等,,,2015-10-05,1,,,,,フォーエバー,0
1281,5240002038745,登記記録の閉鎖等,0,2022-10-26,2022-10-24,大邦産業有限会社,,有限会社,広島県,福山市,神辺町字湯野２８０番地の１,,34,207,7202121,,,2022-10-24,清算の結了等,,,2015-10-05,1,,,,,タイホウサンギョウ,0
1285,5250005006252,登記記録の閉鎖等,0,2022-10-26,2022-09-30,天理教錦陽分教会,,その他の設立登記法人,山口県,岩国市,牛野谷町１丁目３８番１４号,,35,208,7410071,,,2022-09-30,合併による解散等,5250005006244,令和４年９月３０日山口県岩国市錦見二丁目７番４５号天理教岩国分教会（5250005006244）に合併し解散,2015-10-05,1,,,,,,0
1289,5290001034278,登記記録の閉鎖等,0,2022-10-26,2022-10-19,株式会社ＴＡＫＥ,,株式会社,福岡県,福岡市中央区,警固３丁目２番２２号,,40,133,8100023,,,2022-10-19,清算の結了等,,,2015-10-05,1,,,,,テイク,0
1309,5360003010154,登記記録の閉鎖等,0,2022-10-26,2022-10-19,合同会社ＭＩＬＣＯＮ　ＰＲＯ,,合同会社,沖縄県,沖縄市,中央２丁目１０番４号,,47,211,9040004,,,2022-10-19,清算の結了等,,,2020-03-17,1,,,,,ミルコンプロ,0
1335,5470002013270,登記記録の閉鎖等,0,2022-10-26,2022-10-24,有限会社カワサキ企画,,有限会社,香川県,綾歌郡宇多津町,浜二番丁２０番地１３,,37,386,7690202,,,2022-10-24,清算の結了等,,,2015-10-05,1,,,,,カワサキキカク,0
1346,6010001214410,登記記録の閉鎖等,0,2022-10-26,2022-10-18,ブルーワークス株式会社,,株式会社,東京都,中央区,銀座６丁目４番８号,,13,102,1040061,,,2022-10-18,合併による解散等,9021001012271,令和４年１０月１日神奈川県相模原市南区相模大野三丁目１９番１５号株式会社サービスメイク（9021001012271）に合併し解散,2020-12-15,1,,,,,ブルーワークス,0
1354,6010401144983,登記記録の閉鎖等,0,2022-10-26,2022-10-20,セルフケア薬局株式会社,,株式会社,東京都,港区,北青山３丁目６番１９号バイナリー・北青山ビル１０階,,13,103,1070061,,,2022-10-20,合併による解散等,5180001122358,令和４年９月３０日名古屋市中村区名駅一丁目２番４号１０階ＧＯＯＤ　ＡＩＤ株式会社（5180001122358）に合併し解散,2019-04-11,1,,,,,セルフケアヤッキョク,0
1372,6010902013811,登記記録の閉鎖等,0,2022-10-26,2022-10-24,有限会社鳳鳴春,,有限会社,東京都,世田谷区,上祖師谷４丁目２０番３号,,13,112,1570065,,,2022-10-24,清算の結了等,,,2015-10-05,1,,,,,ホウメイシュン,0
1401,6012402016897,登記記録の閉鎖等,0,2022-10-26,2022-10-21,有限会社シーアンドエヌ,,有限会社,東京都,武蔵野市,西久保１丁目４２番１５号,,13,203,1800013,,,2022-10-21,清算の結了等,,,2015-10-05,1,,,,,シーアンドエヌ,0
1403,6012801019575,登記記録の閉鎖等,0,2022-10-26,2022-10-05,株式会社アンドフォーク,,株式会社,東京都,立川市,柏町４丁目７０番地の１７,,13,202,1900004,,,2022-10-05,合併による解散等,7110002005566,令和４年１０月１日新潟市中央区神道寺南二丁目４番１５号株式会社ＦＬＥＧＲＥ（7110002005566）に合併し解散,2019-07-31,1,,,,,アンドフォーク,0
1441,6040001067129,登記記録の閉鎖等,0,2022-10-26,2022-10-21,川岸工事株式会社,,株式会社,千葉県,柏市,若白毛字宮原１１２４,,12,217,2701444,,,2022-10-21,合併による解散等,1010401007286,令和４年１０月１日東京都港区東新橋一丁目２番１３号川岸工業株式会社（1010401007286）に合併し解散,2015-10-05,1,,,,,カワギシコウジ,0
1446,6040002024970,登記記録の閉鎖等,0,2022-10-26,2022-10-17,有限会社武道建設,,有限会社,千葉県,市川市,原木３丁目７番１６号,,12,203,2720004,,,2022-10-17,清算の結了等,,,2015-10-05,1,,,,,ブドウケンセツ,0
1469,6080401014718,登記記録の閉鎖等,0,2022-10-26,2022-10-21,大高酵素静岡販売株式会社,,株式会社,静岡県,掛川市,横須賀１４４１番地,,22,213,4371301,,,2022-10-21,清算の結了等,,,2015-10-05,1,,,,,オオタカコウソシズオカハンバイ,0
1483,6120001048277,登記記録の閉鎖等,0,2022-10-26,2022-10-25,ヨシカワ産業株式会社,,株式会社,大阪府,大阪市西区,境川１丁目６番１９号,,27,106,5500024,,,2022-10-25,清算の結了等,,,2015-10-05,1,,,,,ヨシカワ,0
1486,6120001173686,登記記録の閉鎖等,0,2022-10-26,2022-10-21,株式会社グッドブライト,,株式会社,大阪府,大阪市中央区,東高麗橋２番３７号三精ビル９０１号,,27,128,5400039,,,2022-10-21,清算の結了等,,,2015-10-05,1,,,,,グッドブライト,0
1491,6120002074818,登記記録の閉鎖等,0,2022-10-26,2022-10-20,有限会社長尾開発,,有限会社,大阪府,枚方市,長尾元町６丁目１番１５号,,27,210,5730163,,,2022-10-20,清算の結了等,,,2022-07-07,1,,,,,,0
1500,6120101052352,登記記録の閉鎖等,0,2022-10-26,2022-10-24,株式会社ＧＭコーポレーション,,株式会社,大阪府,富田林市,桜ケ丘町１１番２２号,,27,214,5840084,,,2022-10-24,清算の結了等,,,2015-10-05,1,,,,,ジーエムコーポレーション,0
1514,6130002018138,登記記録の閉鎖等,0,2022-10-26,2022-10-18,有限会社しゅうざん,,有限会社,京都府,京都市山科区,東野森野町２３番地の４ルシェル山科森野町２番館５０２号,,26,110,6078147,,,2022-10-18,清算の結了等,,,2015-10-05,1,,,,,シュウザン,0
1524,6150005005899,登記記録の閉鎖等,0,2022-10-26,2022-10-21,奈良県日中鋳物技術友好工業協同組合,,その他の設立登記法人,奈良県,香芝市,五位堂４丁目３５５番地の１,,29,210,6390226,,,2022-10-21,清算の結了等,,,2015-10-05,1,,,,,ナラケンニッチュウイモノギジュツユウコウコウギョウキョウドウ,0
1532,6180001100429,登記記録の閉鎖等,0,2022-10-26,2022-10-19,株式会社すてきな暮らし,,株式会社,愛知県,豊田市,竜神町錦５２番地１,,23,211,4730907,,,2022-10-19,清算の結了等,,,2015-10-05,1,,,,,ステキナクラシ,0
1533,6180001104132,登記記録の閉鎖等,0,2022-10-26,2022-10-24,株式会社スリーエル,,株式会社,愛知県,名古屋市瑞穂区,中根町２丁目６１番地,,23,108,4670055,,,2022-10-24,清算の結了等,,,2015-10-05,1,,,,,スリーエル,0
1543,6180302002687,登記記録の閉鎖等,0,2022-10-26,2022-10-19,有限会社フルーツ・フーズ大長,,有限会社,愛知県,岡崎市,中町５丁目８番地４,,23,202,4440015,,,2022-10-19,清算の結了等,,,2015-10-05,1,,,,,フルーツフーズダイチョウ,0
1549,6200001031489,登記記録の閉鎖等,0,2022-10-26,2022-10-25,Ｃ＆Ｔ株式会社,,株式会社,岐阜県,加茂郡八百津町,和知２７２２番地の１,,21,505,5050305,,,2022-10-25,清算の結了等,,,2015-10-05,1,,,,,,0
1553,6220001012413,登記記録の閉鎖等,0,2022-10-26,2022-10-20,株式会社北栄建設,,株式会社,石川県,小松市,平面町カ１８４番地,,17,203,9230036,,,2022-10-20,清算の結了等,,,2015-10-05,1,,,,,ホクエイケンセツ,0
1564,6250002019314,登記記録の閉鎖等,0,2022-10-26,2022-10-24,有限会社勇恵工業,,有限会社,山口県,岩国市,今津町４丁目１６番５号,,35,208,7400017,,,2022-10-24,清算の結了等,,,2015-10-05,1,,,,,ユウエコウギョウ,0
1573,6310002007485,登記記録の閉鎖等,0,2022-10-26,2022-10-21,有限会社山脇保険プランニング,,有限会社,長崎県,長崎市,田上３丁目１５番１２号,,42,201,8510251,,,2022-10-21,清算の結了等,,,2015-10-05,1,,,,,ヤマワキホケンプランニング,0
1589,6370801001435,登記記録の閉鎖等,0,2022-10-26,2022-10-17,株式会社門間屋根工業,,株式会社,宮城県,仙台市泉区,上谷刈字松林４番地の３,,04,105,9813121,,,2022-10-17,清算の結了等,,,2015-10-05,1,,,,,,0
1596,6400001009408,登記記録の閉鎖等,0,2022-10-26,2022-10-24,株式会社アイケイケイ,,株式会社,岩手県,盛岡市,津志田西１丁目２番２０号,,03,201,0200836,,,2022-10-24,清算の結了等,,,2015-10-05,1,,,,,アイケイケイ,0
1602,6430002001419,登記記録の閉鎖等,0,2022-10-26,2022-10-03,有限会社いいの,,有限会社,北海道,札幌市南区,藤野三条５丁目６番７号,,01,106,0612283,,,2022-10-03,清算の結了等,,,2015-10-05,1,,,,,イイノ,0
1607,6470005003391,登記記録の閉鎖等,0,2022-10-26,2022-10-24,一般社団法人西日本理容美容学園,,その他の設立登記法人,香川県,坂出市,文京町１丁目８番３３号,,37,203,7620031,,,2022-10-24,清算の結了等,,,2015-10-05,1,,,,,ニシニホンリヨウビヨウガクエン,0
1621,7010001170462,登記記録の閉鎖等,0,2022-10-26,2022-10-21,株式会社Ｇｅｔ　Ｉｔ,,株式会社,東京都,中央区,銀座１丁目１５－７ＭＡＣ銀座ビル３階,,13,102,1040061,,,2022-10-21,清算の結了等,,,2015-10-05,1,,,,,ゲットイット,0
1635,7010403009738,登記記録の閉鎖等,0,2022-10-26,2022-10-06,合同会社榛名キャピタル,,合同会社,東京都,港区,六本木６丁目１０番１号六本木ヒルズ森タワー,,13,103,1060032,,,2022-10-06,清算の結了等,,,2015-10-05,1,,,,,ハルナキャピタル,0
1660,7011001127171,登記記録の閉鎖等,0,2022-10-26,2022-10-24,株式会社東横イン建設,,株式会社,東京都,渋谷区,恵比寿４丁目５番２１号,,13,113,1500013,,,2022-10-24,合併による解散等,8010801008365,令和４年１０月１日東京都大田区新蒲田一丁目７番４号株式会社東横イン（8010801008365）に合併し解散,2019-03-22,1,,,,,トウヨコインケンセツ,0
1663,7011001133211,登記記録の閉鎖等,0,2022-10-26,2022-10-24,株式会社東横イン工務店,,株式会社,東京都,渋谷区,恵比寿４丁目５番２１号,,13,113,1500013,,,2022-10-24,合併による解散等,8010801008365,令和４年１０月１日東京都大田区新蒲田一丁目７番４号株式会社東横イン（8010801008365）に合併し解散,2020-04-06,1,,,,,,0
1676,7011801038147,登記記録の閉鎖等,0,2022-10-26,2022-10-24,株式会社青果日和研究所,,株式会社,東京都,足立区,六町４丁目１２番１２号,,13,121,1210073,,,2022-10-24,合併による解散等,8011801039631,令和４年１０月２２日東京都足立区六町四丁目１２番１２号楽彩株式会社（8011801039631）に合併し解散,2020-09-28,1,,,,,サイカビヨリケンキュウジョ,0
1678,7011802029863,登記記録の閉鎖等,0,2022-10-26,2022-10-19,有限会社日高工業,,有限会社,東京都,足立区,古千谷本町３丁目９番１８号,,13,121,1210832,,,2022-10-19,清算の結了等,,,2015-10-05,1,,,,,ヒダカコウギョウ,0
1681,7012402005395,登記記録の閉鎖等,0,2022-10-26,2022-10-21,有限会社原田商店,,有限会社,東京都,小金井市,本町５丁目１２番１５号,,13,210,1840004,,,2022-10-21,清算の結了等,,,2015-10-05,1,,,,,ハラダショウテン,0
1710,7030001055463,登記記録の閉鎖等,0,2022-10-26,2022-10-14,株式会社フィルトロン,,株式会社,埼玉県,川越市,大字谷中１６－１,,11,201,3500836,,,2022-10-14,清算の結了等,,,2015-10-05,1,,,,,フィルトロン,0
1715,7030001112438,登記記録の閉鎖等,0,2022-10-26,2022-10-17,株式会社Ｍ’ｓ,,株式会社,埼玉県,越谷市,瓦曽根２丁目６番３４号ＲＳビル３０２,,11,222,3430821,,,2022-10-17,清算の結了等,,,2016-02-01,1,,,,,エムズ,0
1733,7040005019752,登記記録の閉鎖等,0,2022-10-26,2022-10-18,一般財団法人鎧橋文化財団,,その他の設立登記法人,千葉県,我孫子市,つくし野３丁目１９番３０３号,,12,222,2701164,,,2022-10-18,清算の結了等,,,2017-11-16,1,,,,,ヨロイバシブンカザイダン,0
1738,7050005012715,登記記録の閉鎖等,0,2022-10-26,2022-10-18,ワールドデザイン協同組合,,その他の設立登記法人,茨城県,常総市,豊岡町乙１１６０番地６８,,08,211,3030041,,,2022-10-18,清算の結了等,,,2020-06-17,1,,,,,ワールドデザイン,0
1749,7080101005132,登記記録の閉鎖等,0,2022-10-26,2022-10-24,株式会社アイプラント,,株式会社,静岡県,伊豆の国市,田京２９９番地の１４,,22,225,4102315,,,2022-10-24,清算の結了等,,,2015-10-05,1,,,,,アイプラント,0
1764,7100002034517,登記記録の閉鎖等,0,2022-10-26,2022-10-21,有限会社モンキーマジック,,有限会社,長野県,上伊那郡宮田村,５６７６番地１,,20,388,3994301,,,2022-10-21,清算の結了等,,,2015-10-05,1,,,,,モンキーマジック,0
1805,7160001011156,登記記録の閉鎖等,0,2022-10-26,2022-10-24,株式会社田辺製作所,,株式会社,滋賀県,東近江市,岡田町字野上１１８番地１,,25,213,5270057,,,2022-10-24,清算の結了等,,,2015-10-05,1,,,,,タナベセイサクショ,0
1807,7170001008985,登記記録の閉鎖等,0,2022-10-26,2022-10-24,株式会社輪玉組,,株式会社,和歌山県,田辺市,上芳養９４９番地の１,,30,206,6460101,,,2022-10-24,清算の結了等,,,2015-10-05,1,,,,,ワダマグミ,0
1809,7170005004519,登記記録の閉鎖等,0,2022-10-26,2022-10-07,天理教鳴瀧分教会,,その他の設立登記法人,和歌山県,日高郡日高川町,大字坂野川２２０番地,,30,392,6441161,,,2022-10-07,合併による解散等,5170005004520,令和４年１０月７日和歌山県日高郡日高川町大字高津尾６５０番地天理教日高川分教会（5170005004520）に合併し解散,2015-10-05,1,,,,,テンリキョウナルタキブンキョウカイ,0
1814,7180003018701,登記記録の閉鎖等,0,2022-10-26,2022-10-13,合同会社ＴＯＹ,,合同会社,愛知県,北名古屋市,九之坪石ノ戸２６番地２,,23,234,4810041,,,2022-10-13,合併による解散等,6180003019320,令和４年１０月１日愛知県北名古屋市九之坪石ノ戸２６番地２合同会社オアシスプランニング（6180003019320）に合併し解散,2018-02-21,1,,,,,トイ,0
1823,7210002000796,登記記録の閉鎖等,0,2022-10-26,2022-10-24,有限会社奥田商店,,有限会社,福井県,福井市,みのり３丁目２番２０号,,18,201,9188005,,,2022-10-24,清算の結了等,,,2015-10-05,1,,,,,オクダショウテン,0
1830,7230001008252,登記記録の閉鎖等,0,2022-10-26,2022-10-24,さがの商事株式会社,,株式会社,富山県,砺波市,林７１１番地,,16,208,9391345,,,2022-10-24,清算の結了等,,,2015-10-05,1,,,,,サガノショウジ,0
1831,7240002034453,登記記録の閉鎖等,0,2022-10-26,2022-10-24,有限会社吉野工業,,有限会社,広島県,呉市,朝日町８番４号,,34,202,7370056,,,2022-10-24,清算の結了等,,,2015-10-05,1,,,,,ヨシノコウギョウ,0
1842,7290001022256,登記記録の閉鎖等,0,2022-10-26,2022-10-06,エバーランド株式会社,,株式会社,東京都,港区,高輪２丁目１５番１３号,,13,103,1080074,,,2022-10-06,清算の結了等,,,2015-10-05,1,,,,,エバーランド,0
1844,7290001059298,登記記録の閉鎖等,0,2022-10-26,2022-10-20,株式会社ダイチ,,株式会社,福岡県,三井郡大刀洗町,大字今９０５番地３,,40,503,8301223,,,2022-10-20,清算の結了等,,,2015-10-05,1,,,,,ダイチ,0
1878,7420001006286,登記記録の閉鎖等,0,2022-10-26,2022-10-19,日東石膏ボード株式会社,,株式会社,青森県,八戸市,江陽３丁目１番１０９号,,02,203,0310801,,,2022-10-19,清算の結了等,,,2015-10-05,1,,,,,ニットウセッコウボード,0
1884,7430001077509,登記記録の閉鎖等,0,2022-10-26,2022-10-12,株式会社Ｓ．Ｒ．Ｃ,,株式会社,北海道,札幌市中央区,南六条西３丁目３－１３セントラルコーポ４０５,,01,101,0640806,,,2022-10-12,清算の結了等,,,2018-10-03,1,,,,,エスアールシー,0
1916,8010403022252,登記記録の閉鎖等,0,2022-10-26,2022-10-07,Ｆａｌｌ　Ｌｉｎｅ　Ｅｖｅｎｔｓ合同会社,,合同会社,東京都,港区,南麻布３丁目１９番２３号オーク南麻布ビル２階,,13,103,1060047,,,2022-10-07,清算の結了等,,,2020-02-04,1,,,,,フォールラインイベンツ,0
1939,8011001133268,登記記録の閉鎖等,0,2022-10-26,2022-10-11,ＣＣＣマーケティング株式会社,,株式会社,東京都,渋谷区,南平台町１６番１７号,,13,113,1500036,,,2022-10-11,合併による解散等,8011001091920,令和４年１０月１日東京都渋谷区南平台町１６番１７号ＣＣＣＭＫホールディングス株式会社（8011001091920）に合併し解散,2020-05-22,1,,,,,シーシーシーマーケティング,0
1955,8011302008516,登記記録の閉鎖等,0,2022-10-26,2022-10-17,有限会社ホレストヒルズ小林,,有限会社,東京都,杉並区,高井戸東１丁目３１番４－４２０号,,13,115,1680072,,,2022-10-17,清算の結了等,,,2015-10-05,1,,,,,ホレストヒルズコバヤシ,0
1961,8011801030359,登記記録の閉鎖等,0,2022-10-26,2022-10-19,株式会社臼倉商店,,株式会社,東京都,葛飾区,東水元２丁目３４番２号,,13,122,1250033,,,2022-10-19,清算の結了等,,,2015-10-05,1,,,,,ウスクラショウテン,0
1976,8020001121521,登記記録の閉鎖等,0,2022-10-26,2022-10-18,株式会社ＩｍａｇｉｎＥｘ,,株式会社,神奈川県,川崎市川崎区,駅前本町１１番地２川崎フロンティアビル４階,,14,131,2100007,,,2022-10-18,清算の結了等,,,2017-05-29,1,,,,,イマジネックス,0
1977,8020001136049,登記記録の閉鎖等,0,2022-10-26,2022-10-19,株式会社Ｋ．Ｐ．Ｍ,,株式会社,神奈川県,川崎市宮前区,犬蔵２丁目４番１０号プレディオ鷺宮第一５０４,,14,136,2160011,,,2022-10-19,清算の結了等,,,2020-05-11,1,,,,,,0
1979,8021001004971,登記記録の閉鎖等,0,2022-10-26,2022-10-20,株式会社湘南仁成社,,株式会社,神奈川県,藤沢市,藤沢９７番地,,14,205,2510052,,,2022-10-20,清算の結了等,,,2015-10-05,1,,,,,ショウナンジンセイシャ,0
1998,8030001093636,登記記録の閉鎖等,0,2022-10-26,2022-10-14,石川建設興業株式会社,,株式会社,埼玉県,三郷市,天神１丁目１２２番地１,,11,237,3410051,,,2022-10-14,清算の結了等,,,2015-10-05,1,,,,,,0
2033,8080405003327,登記記録の閉鎖等,0,2022-10-26,2022-10-21,浜北商業協同組合,,その他の設立登記法人,静岡県,浜松市浜北区,貴布祢１０９番地の４,,22,136,4340038,,,2022-10-21,清算の結了等,,,2015-10-05,1,,,,,ハマキタショウギョウ,0
2038,8110002004971,登記記録の閉鎖等,0,2022-10-26,2022-10-24,有限会社新潟ワンダー社,,有限会社,新潟県,新潟市中央区,上所３丁目１６番９号,,15,103,9500994,,,2022-10-24,清算の結了等,,,2015-10-05,1,,,,,ニイガタワンダーシャ,0
2040,8120001002686,登記記録の閉鎖等,0,2022-10-26,2022-10-24,株式会社安澤熔接機工,,株式会社,大阪府,寝屋川市,成田西町２１番１１号,,27,215,5720005,,,2022-10-24,清算の結了等,,,2015-10-05,1,,,,,アンザワヨウセツキコウ,0
2045,8120001124803,登記記録の閉鎖等,0,2022-10-26,2022-10-20,株式会社ＮＯＢＯＲＩ,,株式会社,大阪府,大阪市天王寺区,生玉町８番１２号,,27,109,5430071,,,2022-10-20,清算の結了等,,,2015-10-05,1,,,,,ノボリ,0
2055,8120101003808,登記記録の閉鎖等,0,2022-10-26,2022-10-07,株式会社大希綜合警備保障,,株式会社,大阪府,堺市堺区,南旅篭町東１丁１番２９号,,27,141,5900965,,,2022-10-07,合併による解散等,7010001045656,令和４年１０月１日東京都中央区新富一丁目８番８号シンテイ警備株式会社（7010001045656）に合併し解散,2015-10-05,1,,,,,ダイキソウゴウケイビホショウ,0
2081,8140005016763,登記記録の閉鎖等,0,2022-10-26,2022-10-06,天理教嬉野分教会,,その他の設立登記法人,兵庫県,加東市,田中１７３番地,,28,228,6731441,,,2022-10-06,合併による解散等,9140005016779,令和４年１０月６日兵庫県加東市大門５７２番地２天理教播大分教会（9140005016779）に合併し解散,2015-10-05,1,,,,,テンリキョウウレシノブンキョウカイ,0
2104,8230002011840,登記記録の閉鎖等,0,2022-10-26,2022-10-24,有限会社ヒヨシ靴店,,有限会社,富山県,高岡市,新横町１番地,,16,202,9330035,,,2022-10-24,清算の結了等,,,2015-10-05,1,,,,,ヒヨシクツテン,0
2107,8240002044245,登記記録の閉鎖等,0,2022-10-26,2022-10-24,有限会社ササデン,,有限会社,広島県,福山市,赤坂町大字早戸１８２９番地の２,,34,207,7200844,,,2022-10-24,清算の結了等,,,2015-10-05,1,,,,,ササデン,0
2108,8250003002671,登記記録の閉鎖等,0,2022-10-26,2022-10-24,合同会社山口コアラ,,合同会社,山口県,周南市,新清光台２丁目２番８号,,35,215,7450643,,,2022-10-24,清算の結了等,,,2020-08-07,1,,,,,ヤマグチコアラ,0
2111,8290001001085,登記記録の閉鎖等,0,2022-10-26,2022-10-19,九州マルコメ味噌販売株式会社,,株式会社,福岡県,福岡市南区,寺塚１丁目９番２０号,,40,134,8150074,,,2022-10-19,清算の結了等,,,2015-10-05,1,,,,,キュウシュウマルコメミソハンバイ,0
2116,8290001037897,登記記録の閉鎖等,0,2022-10-26,2022-10-12,サイバートップ株式会社,,株式会社,福岡県,福岡市博多区,店屋町６番２５号,,40,132,8120025,,,2022-10-12,清算の結了等,,,2015-10-05,1,,,,,サイバートップ,0
2133,8340002023619,登記記録の閉鎖等,0,2022-10-26,2022-10-21,有限会社庭月野瓦工業,,有限会社,鹿児島県,南さつま市,加世田本町１３番地８,,46,220,8970006,,,2022-10-21,清算の結了等,,,2015-10-05,1,,,,,ニワツキノカワラコウギョウ,0
2137,8380001016124,登記記録の閉鎖等,0,2022-10-26,2022-10-20,株式会社渡辺建設,,株式会社,福島県,相馬郡新地町,谷地小屋字南狼沢８番地の１２,,07,561,9792702,,,2022-10-20,清算の結了等,,,2015-10-05,1,,,,,ワタナベケンセツ,0
2140,8390001009903,登記記録の閉鎖等,0,2022-10-26,2022-10-20,株式会社シルク,,株式会社,山形県,米沢市,鍛冶町４５８１番地,,06,202,9920014,,,2022-10-20,清算の結了等,,,2015-10-05,1,,,,,シルク,0
2149,8430001055323,登記記録の閉鎖等,0,2022-10-26,2022-10-17,株式会社新冠ヒルズ,,株式会社,北海道,新冠郡新冠町,字西泊津１６番地の３,,01,604,0592418,,,2022-10-17,清算の結了等,,,2015-10-05,1,,,,,ニイカップヒルズ,0
2160,9010001056916,登記記録の閉鎖等,0,2022-10-26,2022-10-20,朋栄商事株式会社,,株式会社,東京都,中央区,銀座３丁目１０番７号銀座京屋ビル１０階,,13,102,1040061,,,2022-10-20,清算の結了等,,,2015-10-05,1,,,,,ホウエイショウジ,0
2170,9010003032865,登記記録の閉鎖等,0,2022-10-26,2022-10-21,合同会社アスタリスク,,合同会社,東京都,中央区,銀座１丁目２２番１１号銀座大竹ビジデンス２階,,13,102,1040061,,,2022-10-21,清算の結了等,,,2020-08-18,1,,,,,アスタリスク,0
2185,9010401144469,登記記録の閉鎖等,0,2022-10-26,2022-10-13,株式会社ニッケル,,株式会社,東京都,渋谷区,千駄ヶ谷３丁目２番６号小高ビル３階,,13,113,1510051,,,2022-10-13,清算の結了等,,,2019-03-14,1,,,,,ニッケル,0
2193,9010403014595,登記記録の閉鎖等,0,2022-10-26,2022-10-21,合同会社ベリーランド,,合同会社,東京都,千代田区,丸の内３丁目１番１号東京共同会計事務所内,,13,101,1000005,,,2022-10-21,清算の結了等,,,2016-03-22,1,,,,,ベリーランド,0
2201,9010602024486,登記記録の閉鎖等,0,2022-10-26,2022-10-20,有限会社佐藤企画,,有限会社,東京都,江東区,東砂５丁目７番３号,,13,108,1360074,,,2022-10-20,清算の結了等,,,2015-10-05,1,,,,,サトウキカク,0
2215,9010901032033,登記記録の閉鎖等,0,2022-10-26,2022-10-21,株式会社サクセスサポート２１,,株式会社,東京都,世田谷区,奥沢６丁目９番１６号,,13,112,1580083,,,2022-10-21,清算の結了等,,,2015-10-05,1,,,,,サクセスサポートニジュウイチ,0
2279,9021001018129,登記記録の閉鎖等,0,2022-10-26,2022-10-20,株式会社システムプロダクト,,株式会社,神奈川県,相模原市中央区,横山３丁目１６番６号Ａｃｔ１－２０２,,14,152,2520242,,,2022-10-20,清算の結了等,,,2015-10-05,1,,,,,,0
2290,9021002050551,登記記録の閉鎖等,0,2022-10-26,2022-10-20,有限会社大朝工務店,,有限会社,神奈川県,足柄下郡箱根町,強羅１３２０番地,,14,382,2500408,,,2022-10-20,清算の結了等,,,2015-10-05,1,,,,,オオトモコウムテン,0
2306,9040001040702,登記記録の閉鎖等,0,2022-10-26,2022-10-18,株式会社ケースタイル,,株式会社,千葉県,松戸市,二ツ木１８０３番地の２,,12,207,2700027,,,2022-10-18,清算の結了等,,,2015-10-05,1,,,,,ケースタイル,0
2315,9050001004474,登記記録の閉鎖等,0,2022-10-26,2022-10-17,セイコーエンタープライス株式会社,,株式会社,茨城県,水戸市,千波町３８２番地１９,,08,201,3100851,,,2022-10-17,合併による解散等,4050001001798,令和４年１０月１７日茨城県水戸市千波町３８２番地１９東洋観光株式会社（4050001001798）に合併し解散,2015-10-05,1,,,,,セイコーエンタープライス,0
2317,9050002033373,登記記録の閉鎖等,0,2022-10-26,2022-10-19,有限会社内藤建築設計工房,,有限会社,茨城県,龍ケ崎市,川原代町１８５１番地の１,,08,208,3010005,,,2022-10-19,清算の結了等,,,2015-10-05,1,,,,,ナイトウケンチクセッケイコウボウ,0
2324,9070001029453,登記記録の閉鎖等,0,2022-10-26,2022-10-18,株式会社ＭＭＴ．,,株式会社,群馬県,館林市,新宿１丁目１番３号,,10,207,3740026,,,2022-10-18,清算の結了等,,,2015-10-05,1,,,,,エムエムティードット,0
2327,9080001007623,登記記録の閉鎖等,0,2022-10-26,2022-10-21,イトーコーポレーション株式会社,,株式会社,静岡県,静岡市清水区,桜橋町９番８号,,22,103,4240837,,,2022-10-21,清算の結了等,,,2015-10-05,1,,,,,イトーコーポレーション,0
2329,9080102004817,登記記録の閉鎖等,0,2022-10-26,2022-10-24,有限会社エルセル,,有限会社,静岡県,沼津市,井出５８番地の８,,22,203,4100319,,,2022-10-24,清算の結了等,,,2015-10-05,1,,,,,エルセル,0
2332,9080102022224,登記記録の閉鎖等,0,2022-10-26,2022-10-20,有限会社新組,,有限会社,静岡県,御殿場市,新橋１６２７番地の１,,22,215,4120043,,,2022-10-20,清算の結了等,,,2015-10-05,1,,,,,,0
2338,9100002015713,登記記録の閉鎖等,0,2022-10-26,2022-10-24,有限会社清水電設,,有限会社,長野県,東御市,県１２７番地３,,20,219,3890517,,,2022-10-24,清算の結了等,,,2015-10-05,1,,,,,シミズデンセツ,0
2367,9130002003640,登記記録の閉鎖等,0,2022-10-26,2022-10-19,有限会社久保商店,,有限会社,京都府,京都市北区,小山上板倉町２番地,,26,101,6038126,,,2022-10-19,清算の結了等,,,2015-10-05,1,,,,,クボショウテン,0
2401,9180005010027,登記記録の閉鎖等,0,2022-10-26,2022-10-03,天理教本一宮分教会,,その他の設立登記法人,愛知県,一宮市,千秋町天摩字山海道４７番地,,23,203,4910817,,,2022-10-03,合併による解散等,1180005000118,令和４年１０月３日名古屋市中村区大宮町一丁目６０番地天理教本愛大教会（1180005000118）に合併し解散,2015-10-05,1,,,,,テンリキョウホンイチノミヤブンキョウカイ,0
2434,9260002026686,登記記録の閉鎖等,0,2022-10-26,2022-10-19,石井乳業有限会社,,有限会社,岡山県,高梁市,原田南町１１１３番地の２,,33,209,7160044,,,2022-10-19,清算の結了等,,,2015-10-05,1,,,,,イシイニュウギョウ,0
2456,9290805005925,登記記録の閉鎖等,0,2022-10-26,2022-10-24,徳光院,,その他の設立登記法人,福岡県,宮若市,上大隈６４２番地,,40,226,8230005,,,2022-10-24,清算の結了等,,,2015-10-05,1,,,,,トクミツイン,0
2458,9320003002696,登記記録の閉鎖等,0,2022-10-26,2022-10-25,大分グルメード合同会社,,合同会社,大分県,別府市,大字内竈３０２０番地の７１,,44,202,8740011,,,2022-10-25,清算の結了等,,,2017-11-13,1,,,,,オオイタグルメード,0
2463,9330002007118,登記記録の閉鎖等,0,2022-10-26,2022-10-21,有限会社寺原自動車サービスセンター,,有限会社,熊本県,熊本市中央区,壺川２丁目８番１号,,43,101,8600076,,,2022-10-21,清算の結了等,,,2015-10-05,1,,,,,テラバルジドウシャサービスセンター,0
2468,9360001011290,登記記録の閉鎖等,0,2022-10-26,2022-10-19,株式会社フロンティアプラネット,,株式会社,沖縄県,島尻郡北大東村,字中野２１９番地,,47,358,9013902,,,2022-10-19,清算の結了等,,,2015-10-05,1,,,,,フロンティアプラネット,0
2471,9370001041857,登記記録の閉鎖等,0,2022-10-26,2022-10-20,清野建設株式会社,,株式会社,大阪府,交野市,星田５丁目１７番２８号,,27,230,5760016,,,2022-10-20,清算の結了等,,,2017-07-27,1,,,,,キヨノケンセツ,0
2482,9390002012640,登記記録の閉鎖等,0,2022-10-26,2022-10-21,有限会社エムエス工業,,有限会社,山形県,米沢市,徳町１５番地の４,,06,202,9920047,,,2022-10-21,清算の結了等,,,2015-10-05,1,,,,,エムエスコウギョウ,0
2484,9400002010873,登記記録の閉鎖等,0,2022-10-26,2022-10-24,ＹＵＴＡＫＡＳＵＮ有限会社,,有限会社,岩手県,宮古市,栄町１番６２号,,03,202,0270076,,,2022-10-24,清算の結了等,,,2015-10-05,1,,,,,,0
2486,9410001001047,登記記録の閉鎖等,0,2022-10-26,2022-10-21,グランド交通株式会社,,株式会社,秋田県,秋田市,中通２丁目５番１号クロッセ秋田１７０１,,05,201,0100001,,,2022-10-21,清算の結了等,,,2015-10-05,1,,,,,グランドコウツウ,0
