sequenceNumber,corporateNumber,process,correct,updateDate,changeDate,name,nameImageId,kind,prefectureName,cityName,streetNumber,addressImageId,prefectureCode,cityCode,postCode,addressOutside,addressOutsideImageId,closeDate,closeCause,successorCorporateNumber,changeCause,assignmentDate,latest,enName,enPrefectureName,enCityName,enAddressOutside,furigana,hihyoji
5,1010001127105,登記記録の閉鎖等,0,2023-10-13,2023-10-02,株式会社アポロン,,株式会社,東京都,中央区,日本橋横山町７番１８号,,13,102,1030003,,,2023-10-02,清算の結了等,,,2015-10-05,1,,,,,アポロン,0
15,1010005012856,登記記録の閉鎖等,0,2023-10-13,2023-10-11,ささしまライブ２４特定目的会社,,その他の設立登記法人,東京都,千代田区,丸の内３丁目１番１号東京共同会計事務所内,,13,101,1000005,,,2023-10-11,清算の結了等,,,2015-10-05,1,,,,,ササシマライブニジュウヨン,0
30,1010601009413,登記記録の閉鎖等,0,2023-10-13,2023-10-05,エスポール企画株式会社,,株式会社,東京都,墨田区,石原１丁目３７番８号,,13,107,1300011,,,2023-10-05,清算の結了等,,,2015-10-05,1,,,,,エスポールキカク,0
44,1011001131765,登記記録の閉鎖等,0,2023-10-13,2023-10-06,株式会社まさ,,株式会社,東京都,渋谷区,渋谷２丁目２番１７号,,13,113,1500002,,,2023-10-06,清算の結了等,,,2020-01-14,1,,,,,マサ,0
49,1011101069385,登記記録の閉鎖等,0,2023-10-13,2023-09-27,ＭＴパートナーズ株式会社,,株式会社,東京都,港区,南青山１丁目４番１７号,,13,103,1070062,,,2023-09-27,清算の結了等,,,2015-10-05,1,,,,,エムティーパートナーズ,0
60,1011301014216,登記記録の閉鎖等,0,2023-10-13,2023-10-03,株式会社ムサシノ工房,,株式会社,東京都,杉並区,善福寺４丁目１番１号,,13,115,1670041,,,2023-10-03,清算の結了等,,,2015-10-05,1,,,,,ムサシノコウボウ,0
76,1012702006900,登記記録の閉鎖等,0,2023-10-13,2023-10-10,有限会社高木商会,00058493,有限会社,東京都,東久留米市,南沢４丁目４番３号,,13,222,2030023,,,2023-10-10,清算の結了等,,,2015-10-05,1,,,,,タカギショウカイ,0
84,1020001140379,登記記録の閉鎖等,0,2023-10-13,2023-10-02,株式会社Ｂｕｉｌｄ,,株式会社,神奈川県,横浜市中区,本牧間門２０番４０号,,14,104,2310825,,,2023-10-02,清算の結了等,,,2021-03-17,1,,,,,ビルド,0
106,1030002059989,登記記録の閉鎖等,0,2023-10-13,2023-09-21,有限会社柴木左官工業,,有限会社,埼玉県,志木市,上宗岡５丁目１９番４０号,,11,228,3530001,,,2023-09-21,清算の結了等,,,2015-10-05,1,,,,,シバキサカンコウギョウ,0
109,1030003003228,登記記録の閉鎖等,0,2023-10-13,2023-09-25,合名会社太田屋建具店,,合名会社,埼玉県,越谷市,瓦曽根１丁目１４番５号,,11,222,3430821,,,2023-09-25,清算の結了等,,,2015-10-05,1,,,,,オオタヤタテグテン,0
120,1040002017582,登記記録の閉鎖等,0,2023-10-13,2023-09-27,有限会社小野寺工業,,有限会社,千葉県,千葉市若葉区,桜木北１丁目３７番９号,,12,104,2640029,,,2023-09-27,清算の結了等,,,2015-10-05,1,,,,,オノデラコウギョウ,0
127,1060001010363,登記記録の閉鎖等,0,2023-10-13,2023-10-05,株式会社君島薬局,,株式会社,栃木県,鹿沼市,貝島町５０１番地５,,09,205,3220027,,,2023-10-05,清算の結了等,,,2015-10-05,1,,,,,キミジマヤッキョク,0
128,1060001018209,登記記録の閉鎖等,0,2023-10-13,2023-10-04,株式会社新井スリッパ,,株式会社,栃木県,足利市,小俣南町３７番地５,,09,202,3260142,,,2023-10-04,清算の結了等,,,2015-10-05,1,,,,,アライスリッパ,0
129,1060001026293,登記記録の閉鎖等,0,2023-10-13,2023-10-03,株式会社つちのか,,株式会社,栃木県,足利市,大月町３番地１,,09,202,3260005,,,2023-10-03,清算の結了等,,,2015-10-05,1,,,,,ツチノカ,0
130,1060002023629,登記記録の閉鎖等,0,2023-10-13,2023-10-04,有限会社旭屋旅館,,有限会社,栃木県,那須塩原市,関谷１１７８番地９,,09,213,3292801,,,2023-10-04,清算の結了等,,,2015-10-05,1,,,,,アサヒヤリョカン,0
142,1110002010704,登記記録の閉鎖等,0,2023-10-13,2023-10-10,有限会社スターフーズ,,有限会社,新潟県,新潟市北区,下大谷内１４２番地,,15,101,9503308,,,2023-10-10,清算の結了等,,,2015-10-05,1,,,,,スターフーズ,0
147,1120001106312,登記記録の閉鎖等,0,2023-10-13,2023-10-10,２・Ｓセキュリティー株式会社,,株式会社,大阪府,大阪市天王寺区,東高津町１１番７号上本町グランディムビル,,27,109,5430021,,,2023-10-10,合併による解散等,5120001125250,令和５年１０月１日大阪市天王寺区東高津町１１番７号株式会社Ｍｏｃｈリアルエステート（5120001125250）に合併し解散,2015-10-05,1,,,,,ツーエスセキュリティー,0
165,1120101050633,登記記録の閉鎖等,0,2023-10-13,2023-10-10,株式会社天徳,00032606,株式会社,大阪府,堺市堺区,大浜南町２丁５番１９号,,27,141,5900976,,,2023-10-10,清算の結了等,,,2015-10-05,1,,,,,テントク,0
181,1140001036474,登記記録の閉鎖等,0,2023-10-13,2023-10-04,友澤電気株式会社,,株式会社,兵庫県,三木市,志染町西自由が丘１丁目４６８番地,,28,215,6730551,,,2023-10-04,清算の結了等,,,2015-10-05,1,,,,,トモサワデンキ,0
184,1140002004364,登記記録の閉鎖等,0,2023-10-13,2023-10-06,有限会社近畿碓永輸送センター,,有限会社,兵庫県,神戸市西区,岩岡町野中内山２番地の１,,28,111,6512405,,,2023-10-06,清算の結了等,,,2023-09-08,1,,,,,,0
199,1180301015554,登記記録の閉鎖等,0,2023-10-13,2023-10-06,三河品川燃料株式会社,,株式会社,愛知県,碧南市,浅間町５丁目３９番地,,23,209,4470865,,,2023-10-06,合併による解散等,8120001160674,令和５年１０月１日大阪市西区江戸堀一丁目９番６号ミライフ西日本株式会社（8120001160674）に合併し解散,2015-10-05,1,,,,,ミカワシナガワネンリョウ,0
203,1190001022908,登記記録の閉鎖等,0,2023-10-13,2023-10-03,ＮＮテック株式会社,,株式会社,三重県,亀山市,関町会下１２６６番地３１,,24,210,5191106,,,2023-10-03,清算の結了等,,,2015-10-05,1,,,,,エヌエヌテック,0
204,1190001023237,登記記録の閉鎖等,0,2023-10-13,2023-10-10,株式会社ＭＩＳ,,株式会社,三重県,津市,垂水３７６番地４３,,24,201,5140821,,,2023-10-10,清算の結了等,,,2015-12-02,1,,,,,エムアイエス,0
219,1240003002927,登記記録の閉鎖等,0,2023-10-13,2023-10-02,トワニ・スマイル合同会社,,合同会社,広島県,福山市,港町２丁目１８番６号アルファステイツみなと公園１３０８号室,,34,207,7210964,,,2023-10-02,清算の結了等,,,2015-10-05,1,,,,,トワニスマイル,0
224,1250002016654,登記記録の閉鎖等,0,2023-10-13,2023-10-02,有限会社周南海陸運送,,有限会社,山口県,周南市,室尾１丁目５番１号,,35,215,7460053,,,2023-10-02,合併による解散等,4250001009061,令和５年１０月１日山口県周南市築港町２番１８号トクヤマ海陸運送株式会社（4250001009061）に合併し解散,2015-10-05,1,,,,,シュウナンカイリクウンソウ,0
226,1260001023717,登記記録の閉鎖等,0,2023-10-13,2023-10-06,パナソニックＡＶＣディスクサービス株式会社,,株式会社,岡山県,津山市,草加部鮒込１４５８番地５,,33,203,7081117,,,2023-10-06,清算の結了等,,,2015-10-05,1,,,,,パナソニックエーブイシーディスクサービス,0
231,1280001005110,登記記録の閉鎖等,0,2023-10-13,2023-10-10,益田自動車工業株式会社,,株式会社,島根県,益田市,有明町３番２８号,,32,204,6980022,,,2023-10-10,合併による解散等,2140001068095,令和５年１０月１日兵庫県伊丹市堀池四丁目９番７号Ｇライオン・レントオール株式会社（2140001068095）に合併し解散,2015-10-05,1,,,,,マスダジドウシャコウギョウ,0
241,1310002000123,登記記録の閉鎖等,0,2023-10-13,2023-10-10,有限会社麻生システム,,有限会社,長崎県,長崎市,川上町４番６号,,42,201,8500946,,,2023-10-10,清算の結了等,,,2015-10-05,1,,,,,アソウシステム,0
265,1420001008115,登記記録の閉鎖等,0,2023-10-13,2023-10-04,丸五青果株式会社,,株式会社,青森県,五所川原市,字田町１７３番地,,02,205,0370041,,,2023-10-04,清算の結了等,,,2015-10-05,1,,,,,マルゴセイカ,0
267,1420005005653,登記記録の閉鎖等,0,2023-10-13,2023-10-04,十和田湖商工会,,その他の設立登記法人,青森県,十和田市,大字奥瀬字中平６１番地１,,02,206,0340301,,,2023-10-04,清算の結了等,,,2015-10-05,1,,,,,,0
277,1500002004798,登記記録の閉鎖等,0,2023-10-13,2023-10-12,有限会社とび魚,,有限会社,愛媛県,松山市,三番町８丁目１２番地４,,38,201,7900003,,,2023-10-12,合併による解散等,3500002003096,令和５年１０月１日愛媛県松山市松ノ木一丁目２番４５号株式会社サルーテ（3500002003096）に合併し解散,2015-10-05,1,,,,,トビウオ,0
287,2010001173131,登記記録の閉鎖等,0,2023-10-13,2023-10-02,株式会社Ｙ・ｓｐａｃｅ,,株式会社,東京都,千代田区,神田駿河台４丁目３番地,,13,101,1010062,,,2023-10-02,合併による解散等,6010001163260,令和５年１０月１日東京都千代田区神田駿河台四丁目３番地ＮＩＣリテールズ株式会社（6010001163260）に合併し解散,2016-01-25,1,,,,,ワイスペース,0
337,2011601015409,登記記録の閉鎖等,0,2023-10-13,2023-10-10,株式会社エス・フォー,,株式会社,東京都,練馬区,豊玉北６丁目２番１－３５０５号,,13,120,1760012,,,2023-10-10,清算の結了等,,,2015-10-05,1,,,,,エスフォー,0
341,2011801023285,登記記録の閉鎖等,0,2023-10-13,2023-10-10,株式会社アドワーク,,株式会社,東京都,葛飾区,東金町５丁目１番４－１０５号,,13,122,1250041,,,2023-10-10,清算の結了等,,,2015-10-05,1,,,,,アドワーク,0
379,2021002062363,登記記録の閉鎖等,0,2023-10-13,2023-09-29,有限会社田中水道店,,有限会社,神奈川県,横須賀市,平作３丁目６番９号,,14,201,2380032,,,2023-09-29,清算の結了等,,,2015-10-05,1,,,,,タナカスイドウテン,0
380,2030001055451,登記記録の閉鎖等,0,2023-10-13,2023-09-25,株式会社ひらはら,,株式会社,埼玉県,川越市,むさし野２６番地１５,,11,201,3501170,,,2023-09-25,清算の結了等,,,2015-10-05,1,,,,,ヒラハラ,0
383,2030001072199,登記記録の閉鎖等,0,2023-10-13,2023-09-25,株式会社東京日穀商事,,株式会社,埼玉県,比企郡滑川町,みなみ野２丁目１２番地６,,11,341,3550814,,,2023-09-25,清算の結了等,,,2015-10-05,1,,,,,,0
389,2030001152455,登記記録の閉鎖等,0,2023-10-13,2023-09-25,株式会社ＥＤＡ工業,,株式会社,埼玉県,さいたま市岩槻区,大字笹久保新田１０５４番７,,11,110,3390035,,,2023-09-25,清算の結了等,,,2023-02-17,1,,,,,エダコウギョウ,0
399,2030002121070,登記記録の閉鎖等,0,2023-10-13,2023-09-25,有限会社ヤマ・インターナショナル,,有限会社,埼玉県,入間市,向陽台１丁目１番地１７,,11,225,3580001,,,2023-09-25,清算の結了等,,,2015-10-05,1,,,,,ヤマインターナショナル,0
409,2040002044766,登記記録の閉鎖等,0,2023-10-13,2023-09-28,有限会社オイシゲ商事,,有限会社,千葉県,松戸市,五香２丁目６番地の３,,12,207,2702213,,,2023-09-28,清算の結了等,,,2015-10-05,1,,,,,オイシゲショウジ,0
410,2040002051515,登記記録の閉鎖等,0,2023-10-13,2023-09-26,有限会社サカマキ,,有限会社,千葉県,流山市,加６丁目１２７８番地の１,,12,220,2700176,,,2023-09-26,清算の結了等,,,2015-10-05,1,,,,,サカマキ,0
422,2070001000370,登記記録の閉鎖等,0,2023-10-13,2023-10-10,株式会社梅川企画,,株式会社,群馬県,前橋市,茂木町７９１番地の３,,10,201,3710232,,,2023-10-10,清算の結了等,,,2015-10-05,1,,,,,ウメカワキカク,0
423,2080001023338,登記記録の閉鎖等,0,2023-10-13,2023-10-11,株式会社Ｋ．ｒｕｓｙｕ,,株式会社,静岡県,静岡市清水区,山原２１０番地の６,,22,103,4240002,,,2023-10-11,清算の結了等,,,2020-01-17,1,,,,,ケールーシュ,0
425,2080101018345,登記記録の閉鎖等,0,2023-10-13,2023-10-10,スター株式会社,,株式会社,静岡県,富士市,大淵３３０５番地,,22,210,4170801,,,2023-10-10,清算の結了等,,,2015-10-05,1,,,,,スター,0
434,2110001005506,登記記録の閉鎖等,0,2023-10-13,2023-10-10,株式会社村山油店,,株式会社,新潟県,新潟市中央区,上大川前通７番町１１６４番地,,15,103,9518068,,,2023-10-10,清算の結了等,,,2015-10-05,1,,,,,ムラヤマアブラテン,0
436,2110001037268,登記記録の閉鎖等,0,2023-10-13,2023-10-10,株式会社加島屋酒販,,株式会社,新潟県,新潟市西蒲区,越前浜５３５４番地,,15,108,9530012,,,2023-10-10,合併による解散等,7110001001475,令和５年１０月１０日新潟市中央区東堀前通八番町１３６７番地１株式会社加島屋（7110001001475）に合併し解散,2023-02-02,1,,,,,カシマヤシュハン,0
444,2120001090687,登記記録の閉鎖等,0,2023-10-13,2023-10-02,村松商事株式会社,,株式会社,大阪府,大阪市中央区,瓦町２丁目６番１６号,,27,128,5410048,,,2023-10-02,清算の結了等,,,2015-10-05,1,,,,,,0
456,2120002071892,登記記録の閉鎖等,0,2023-10-13,2023-10-05,有限会社エス・シープラン,,有限会社,大阪府,寝屋川市,高宮栄町２９番６号,,27,215,5720846,,,2023-10-05,清算の結了等,,,2015-10-05,1,,,,,エスシープラン,0
486,2140001034717,登記記録の閉鎖等,0,2023-10-13,2023-10-10,株式会社金子エンジニアリング,,株式会社,兵庫県,明石市,立石２丁目３番３０フラワ－メゾン立石ＩＩ－２０１号,00119588,28,203,6730032,,,2023-10-10,清算の結了等,,,2015-10-05,1,,,,,カネコエンジニアリング,0
495,2140002027769,登記記録の閉鎖等,0,2023-10-13,2023-10-10,有限会社ホープ,,有限会社,兵庫県,神戸市北区,道場町塩田２８５６－１・２０３号,,28,109,6511502,,,2023-10-10,清算の結了等,,,2015-10-05,1,,,,,ホープ,0
509,2180301029388,登記記録の閉鎖等,0,2023-10-13,2023-10-02,ゆかりコンサルティング株式会社,,株式会社,愛知県,安城市,南町１７番１１号,,23,212,4460034,,,2023-10-02,清算の結了等,,,2016-07-13,1,,,,,ユカリコンサルティング,0
525,2240001057633,登記記録の閉鎖等,0,2023-10-13,2023-10-02,ミネタカ株式会社,,株式会社,広島県,広島市安佐北区,大林３丁目２－９,,34,106,7310201,,,2023-10-02,清算の結了等,,,2021-03-24,1,,,,,ミネタカ,0
544,2290002025683,登記記録の閉鎖等,0,2023-10-13,2023-10-02,有限会社エフエム住宅情報センター,,有限会社,福岡県,糟屋郡篠栗町,中央５丁目８番１５号,,40,342,8112417,,,2023-10-02,清算の結了等,,,2015-10-05,1,,,,,エフエムジュウタクジョウホウセンター,0
591,3010001076003,登記記録の閉鎖等,0,2023-10-13,2023-10-05,日鉄物流鹿島株式会社,,株式会社,茨城県,鹿嶋市,大字光３番地,,08,222,3140014,,,2023-10-05,合併による解散等,1010001098619,令和５年１０月１日東京都中央区日本橋一丁目１３番１号日鉄物流株式会社（1010001098619）に合併し解散,2015-10-05,1,,,,,,0
592,3010001108202,登記記録の閉鎖等,0,2023-10-13,2023-10-11,オリンパスデジタルシステムデザイン株式会社,,株式会社,東京都,立川市,曙町２丁目２０番５号,00116407,13,202,1900012,,,2023-10-11,合併による解散等,5011001005222,令和５年１０月１日東京都八王子市石川町２９５１番地オリンパス株式会社（5011001005222）に合併し解散,2015-10-05,1,,,,,オリンパスデジタルシステムデザイン,0
595,3010001170796,登記記録の閉鎖等,0,2023-10-13,2023-10-03,株式会社Ｓｍａｒｔ　Ｐｒｉｍｅｒ,,株式会社,東京都,中央区,日本橋本町２丁目２番２号,,13,102,1030023,,,2023-10-03,清算の結了等,,,2015-10-05,1,,,,,スマートプライマー,0
596,3010001173915,登記記録の閉鎖等,0,2023-10-13,2023-10-02,アルファＭＲＩジャパン株式会社,,株式会社,東京都,中央区,日本橋茅場町２丁目４番９号,,13,102,1030025,,,2023-10-02,清算の結了等,,,2016-03-01,1,,,,,,0
600,3010002008475,登記記録の閉鎖等,0,2023-10-13,2023-10-11,有限会社オーエヌオー商会,,有限会社,東京都,稲城市,坂浜３０５６－３,,13,225,2060822,,,2023-10-11,清算の結了等,,,2015-10-05,1,,,,,オーエヌオーショウカイ,0
664,3020002012162,登記記録の閉鎖等,0,2023-10-13,2023-10-02,有限会社太陽電気商会,,有限会社,神奈川県,横浜市戸塚区,上矢部町１３９０番地,,14,110,2450053,,,2023-10-02,清算の結了等,,,2015-10-05,1,,,,,,0
705,3040002057841,登記記録の閉鎖等,0,2023-10-13,2023-09-28,有限会社プロテック,,有限会社,千葉県,印西市,木刈１丁目１番地８棟３０３号,,12,231,2701359,,,2023-09-28,清算の結了等,,,2015-10-05,1,,,,,プロテック,0
713,3060001006005,登記記録の閉鎖等,0,2023-10-13,2023-10-03,株式会社サンケン,,株式会社,栃木県,さくら市,氏家１１１０番地,,09,214,3291311,,,2023-10-03,清算の結了等,,,2015-10-05,1,,,,,サンケン,0
721,3060002039912,登記記録の閉鎖等,0,2023-10-13,2023-10-05,有限会社にしざわ,,有限会社,栃木県,佐野市,多田町１０７９番地,,09,204,3270311,,,2023-10-05,清算の結了等,,,2015-10-05,1,,,,,ニシザワ,0
730,3080401004300,登記記録の閉鎖等,0,2023-10-13,2023-10-11,株式会社バッグショップナカノ,,株式会社,静岡県,浜松市中区,鍛冶町８７番地の１,,22,131,4300933,,,2023-10-11,清算の結了等,,,2015-10-05,1,,,,,バッグショップナカノ,0
734,3100001023524,登記記録の閉鎖等,0,2023-10-13,2023-10-02,信州テーマ開発株式会社,,株式会社,長野県,飯田市,上郷飯沼３４７２番地１,,20,205,3950002,,,2023-10-02,合併による解散等,2100001022907,令和５年１０月１日長野県飯田市上郷飯沼３４７２番地１株式会社コクサイＨＤ（2100001022907）に合併し解散,2015-10-05,1,,,,,シンシュウテーマカイハツ,0
735,3100001023532,登記記録の閉鎖等,0,2023-10-13,2023-10-02,株式会社コクサイ産業,,株式会社,長野県,飯田市,上郷飯沼３４７２番地１,,20,205,3950002,,,2023-10-02,合併による解散等,2100001022907,令和５年１０月１日長野県飯田市上郷飯沼３４７２番地１株式会社コクサイＨＤ（2100001022907）に合併し解散,2015-10-05,1,,,,,コクサイサンギョウ,0
742,3110001026187,登記記録の閉鎖等,0,2023-10-13,2023-10-10,株式会社魚沼さく泉,,株式会社,新潟県,南魚沼市,五日町２１７７番地,,15,226,9497101,,,2023-10-10,清算の結了等,,,2015-10-05,1,,,,,ウオヌマサクセン,0
744,3110002032705,登記記録の閉鎖等,0,2023-10-13,2023-10-11,有限会社上田建設,,有限会社,新潟県,南魚沼市,長崎５５１番地５,,15,226,9496545,,,2023-10-11,清算の結了等,,,2015-10-05,1,,,,,ウエダケンセツ,0
756,3120003020856,登記記録の閉鎖等,0,2023-10-13,2023-10-06,合同会社スピロヘータ,,合同会社,大阪府,大阪市都島区,東野田町４丁目２０番２４号,,27,102,5340024,,,2023-10-06,清算の結了等,,,2021-12-28,1,,,,,スピロヘータ,0
785,3160005010612,登記記録の閉鎖等,0,2023-10-13,2023-10-12,ＮＰＯ法人ながみね,,その他の設立登記法人,滋賀県,東近江市,宮川町２４４番地５７５,,25,213,5291551,,,2023-10-12,清算の結了等,,,2018-08-17,1,,,,,ナガミネ,0
796,3200001017557,登記記録の閉鎖等,0,2023-10-13,2023-10-02,パジェロ製造株式会社,,株式会社,愛知県,岡崎市,橋目町字中新切１番地,,23,202,4440908,,,2023-10-02,清算の結了等,,,2015-10-05,1,,,,,パジェロセイゾウ,0
802,3230002007777,登記記録の閉鎖等,0,2023-10-13,2023-10-06,有限会社早川ユウテリテー,,有限会社,富山県,富山市,古沢７０２番地５,,16,201,9300151,,,2023-10-06,合併による解散等,6140001048523,令和５年１０月１日大阪市中央区北浜二丁目６番１８号株式会社レゾンディレクション（6140001048523）に合併し解散,2015-10-05,1,,,,,ハヤカワユウテリテー,0
813,3260001014961,登記記録の閉鎖等,0,2023-10-13,2023-10-06,株式会社三宅号,,株式会社,岡山県,倉敷市,阿知２丁目７番２０号,,33,202,7100055,,,2023-10-06,清算の結了等,,,2015-10-05,1,,,,,ミヤケゴウ,0
814,3260002001307,登記記録の閉鎖等,0,2023-10-13,2023-10-10,有限会社江草水道工業所,,有限会社,岡山県,岡山市東区,大多羅町１７４の２番地,,33,103,7048172,,,2023-10-10,清算の結了等,,,2015-10-05,1,,,,,エグサスイドウコウギョウショ,0
845,3370602002230,登記記録の閉鎖等,0,2023-10-13,2023-10-04,イズム有限会社,,有限会社,宮城県,塩竈市,錦町２０番３３号,,04,203,9850024,,,2023-10-04,清算の結了等,,,2015-10-05,1,,,,,イズム,0
858,3480005003402,登記記録の閉鎖等,0,2023-10-13,2023-10-11,木曽御嶽本教大鳴門教会,,その他の設立登記法人,徳島県,鳴門市,撫養町南浜字東浜５２９番地,,36,202,7720003,,,2023-10-11,清算の結了等,,,2015-10-05,1,,,,,キソオンタケホンキョウオオナルトキョウカイ,0
875,4010003036474,登記記録の閉鎖等,0,2023-10-13,2023-10-02,Ｋ＆Ｎ　ＭＡＮＡＧＥＭＥＮＴ合同会社,,合同会社,東京都,中央区,日本橋１丁目１８番１４号クローバー日本橋３０１,,13,102,1030027,,,2023-10-02,清算の結了等,,,2021-12-02,1,,,,,ケイアンドエヌマネージメント,0
890,4010403027998,登記記録の閉鎖等,0,2023-10-13,2023-09-27,Ｒｅｃｒｕｉｔ　Ｃｏｎｓｕｌｔｉｎｇ合同会社,,合同会社,東京都,港区,南青山２丁目２番１５号,,13,103,1070062,,,2023-09-27,清算の結了等,,,2022-06-30,1,,,,,リクルートコンサルティング,0
910,4011001007657,登記記録の閉鎖等,0,2023-10-13,2023-10-04,株式会社広告企画研究所,,株式会社,東京都,世田谷区,北烏山３丁目１０番１６号,,13,112,1570061,,,2023-10-04,清算の結了等,,,2015-10-05,1,,,,,コウコクキカクケンキュウショ,0
921,4011101001857,登記記録の閉鎖等,0,2023-10-13,2023-10-11,泉メンテナンス株式会社,,株式会社,東京都,新宿区,西新宿２丁目４番１号,,13,104,1600023,,,2023-10-11,清算の結了等,,,2015-10-05,1,,,,,イズミメンテナンス,0
929,4011502008294,登記記録の閉鎖等,0,2023-10-13,2023-10-03,有限会社コーシン商会,,有限会社,東京都,荒川区,東尾久１丁目６番１１号,,13,118,1160012,,,2023-10-03,清算の結了等,,,2015-10-05,1,,,,,,0
931,4011601004021,登記記録の閉鎖等,0,2023-10-13,2023-10-11,株式会社大日本開発事業団,,株式会社,東京都,練馬区,練馬１丁目２６番１５号,,13,120,1760001,,,2023-10-11,清算の結了等,,,2015-10-05,1,,,,,ダイニホンカイハツジギョウダン,0
943,4012301011588,登記記録の閉鎖等,0,2023-10-13,2023-10-05,株式会社ニュートリアガベアジア,,株式会社,東京都,町田市,つくし野４丁目１６番地１３,,13,209,1940001,,,2023-10-05,清算の結了等,,,2018-12-05,1,,,,,ニュートリアガベアジア,0
946,4012402011520,登記記録の閉鎖等,0,2023-10-13,2023-10-10,有限会社スミレ乳業,,有限会社,東京都,調布市,佐須町３丁目３９番地２,,13,208,1820016,,,2023-10-10,清算の結了等,,,2015-10-05,1,,,,,スミレニュウギョウ,0
949,4012702001295,登記記録の閉鎖等,0,2023-10-13,2023-10-10,有限会社戸隠,,有限会社,東京都,小平市,学園西町１丁目２０番２２号,,13,211,1870045,,,2023-10-10,清算の結了等,,,2015-10-05,1,,,,,トガクシ,0
951,4013301010200,登記記録の閉鎖等,0,2023-10-13,2023-10-02,株式会社パワー,,株式会社,東京都,豊島区,西池袋２丁目３６番１１号ソフトタウンニュー池袋５０３号,,13,116,1710021,,,2023-10-02,清算の結了等,,,2015-10-05,1,,,,,パワー,0
959,4020001110767,登記記録の閉鎖等,0,2023-10-13,2023-10-02,株式会社ＳＡＩＴＯ設備工業,,株式会社,神奈川県,横浜市南区,弘明寺町字前田２３１番地,,14,105,2320067,,,2023-10-02,清算の結了等,,,2015-10-05,1,,,,,サトウセツビコウギョウ,0
982,4030001001412,登記記録の閉鎖等,0,2023-10-13,2023-09-21,株式会社大宮物産,,株式会社,埼玉県,さいたま市桜区,中島４丁目１番１号,,11,106,3380822,,,2023-09-21,清算の結了等,,,2015-10-05,1,,,,,オオミヤブッサン,0
983,4030001016922,登記記録の閉鎖等,0,2023-10-13,2023-10-06,ロジスティード関東株式会社,,株式会社,埼玉県,さいたま市大宮区,桜木町１丁目１２番地７,,11,103,3300854,,,2023-10-06,合併による解散等,7050001023567,令和５年１０月１日茨城県日立市城南町一丁目５番１号ロジスティード東日本株式会社（7050001023567）に合併し解散,2015-10-05,1,,,,,ロジスティードカントウ,0
999,4030002044253,登記記録の閉鎖等,0,2023-10-13,2023-09-25,有限会社酒よし,,有限会社,埼玉県,草加市,稲荷３丁目８番１７号,,11,221,3400003,,,2023-09-25,清算の結了等,,,2015-10-05,1,,,,,サカヨシ,0
1015,4050003006341,登記記録の閉鎖等,0,2023-10-13,2023-10-02,Ｒｅｉｗａ　Ｊａｐａｎ合同会社,,合同会社,茨城県,筑西市,岡芹９０２番地１,,08,227,3080051,,,2023-10-02,清算の結了等,,,2022-01-28,1,,,,,レイワジャパン,0
1026,4080101023970,登記記録の閉鎖等,0,2023-10-13,2023-10-05,株式会社Ｇ‐ｓｔｕｄｉｏ,,株式会社,静岡県,御殿場市,新橋１００３番地の２２,,22,215,4120043,,,2023-10-05,清算の結了等,,,2023-05-09,1,,,,,ジースタジオ,0
1030,4080405000559,登記記録の閉鎖等,0,2023-10-13,2023-10-11,浜松ベジタブル加工協同組合,,その他の設立登記法人,静岡県,浜松市南区,金折町１７６４番地の１,,22,134,4350026,,,2023-10-11,清算の結了等,,,2015-10-05,1,,,,,ハママツベジタブルカコウ,0
1032,4110001011576,登記記録の閉鎖等,0,2023-10-13,2023-10-10,株式会社浦木屋,,株式会社,新潟県,五泉市,本町２丁目１番７号,,15,218,9591865,,,2023-10-10,清算の結了等,,,2015-10-05,1,,,,,ウラギヤ,0
1036,4120001137503,登記記録の閉鎖等,0,2023-10-13,2023-10-03,株式会社エコ・マーケット,,株式会社,大阪府,大阪市北区,中崎西１丁目４番２２号梅田東ビル４０９号,,27,127,5300015,,,2023-10-03,清算の結了等,,,2015-10-05,1,,,,,エコマーケット,0
1048,4120002038915,登記記録の閉鎖等,0,2023-10-13,2023-10-06,有限会社ムラバヤシ,,有限会社,大阪府,大阪市中央区,船場中央２丁目３番６－Ｂ１１７号,,27,128,5410055,,,2023-10-06,清算の結了等,,,2015-10-05,1,,,,,ムラバヤシ,0
1088,4180302013240,登記記録の閉鎖等,0,2023-10-13,2023-10-10,有限会社ジェーシーエム,,有限会社,愛知県,豊川市,蔵子６丁目１４番地の１８,,23,207,4420842,,,2023-10-10,清算の結了等,,,2015-10-05,1,,,,,ジェーシーエム,0
1093,4190002011519,登記記録の閉鎖等,0,2023-10-13,2023-10-06,有限会社ダイドウ,,有限会社,三重県,志摩市,阿児町鵜方１９４５番地,,24,215,5170501,,,2023-10-06,清算の結了等,,,2015-10-05,1,,,,,ダイドウ,0
1104,4220002001796,登記記録の閉鎖等,0,2023-10-13,2023-10-10,有限会社カイト,,有限会社,石川県,金沢市,高畠１丁目４５２番地２,,17,201,9218001,,,2023-10-10,清算の結了等,,,2015-10-05,1,,,,,カイト,0
1106,4230002007792,登記記録の閉鎖等,0,2023-10-13,2023-10-12,有限会社富多神,,有限会社,富山県,魚津市,友道１１８９番地の３,,16,204,9370806,,,2023-10-12,清算の結了等,,,2015-10-05,1,,,,,フタカミ,0
1112,4250002019027,登記記録の閉鎖等,0,2023-10-13,2023-10-02,有限会社ツーえんどスリー,,有限会社,山口県,岩国市,由宇町千鳥ヶ丘１丁目３番１０号,,35,208,7401441,,,2023-10-02,合併による解散等,8250002019015,令和５年１０月１日山口県岩国市由宇町千鳥ヶ丘一丁目３番１０号株式会社龠心堂（8250002019015）に合併し解散,2015-10-05,1,,,,,ツーエンドスリー,0
1127,4290801018472,登記記録の閉鎖等,0,2023-10-13,2023-10-12,ＰＡＳＳＯＣ．Ｂ株式会社,,株式会社,福岡県,北九州市小倉北区,浅野２丁目１２番３３号,,40,106,8020001,,,2023-10-12,清算の結了等,,,2015-10-05,1,,,,,パッソシービー,0
1133,4350002013473,登記記録の閉鎖等,0,2023-10-13,2023-10-04,有限会社藤岡商会,,有限会社,宮崎県,延岡市,川原崎町２１６１番地２,,45,203,8820033,,,2023-10-04,清算の結了等,,,2015-10-05,1,,,,,フジオカショウカイ,0
1136,4360002003762,登記記録の閉鎖等,0,2023-10-13,2023-10-05,有限会社藤田保険センター,,有限会社,沖縄県,那覇市,おもろまち４丁目１９番１０号フレスコートおもろまち３－Ｃ,,47,201,9000006,,,2023-10-05,清算の結了等,,,2015-10-05,1,,,,,フジタホケンセンター,0
1145,4370505000207,登記記録の閉鎖等,0,2023-10-13,2023-10-06,邦栄酒販協同組合,,その他の設立登記法人,宮城県,気仙沼市,唐桑町港７７番地の１,,04,205,9880505,,,2023-10-06,清算の結了等,,,2015-10-05,1,,,,,ホウエイシュハン,0
1156,4430002057933,登記記録の閉鎖等,0,2023-10-13,2023-09-29,有限会社あざみ美容室,,有限会社,北海道,白老郡白老町,字社台２７７番地２０２,,01,578,0590901,,,2023-09-29,清算の結了等,,,2015-10-05,1,,,,,アザミビヨウシツ,0
1174,5010001080671,登記記録の閉鎖等,0,2023-10-13,2023-10-02,株式会社パフォーマンス,,株式会社,東京都,中央区,日本橋横山町７番１８号,,13,102,1030003,,,2023-10-02,清算の結了等,,,2015-10-05,1,,,,,パフォーマンス,0
1190,5010401105648,登記記録の閉鎖等,0,2023-10-13,2023-10-04,株式会社ＷＯＮＤＥＲ　ＴＯＫＹＯ,,株式会社,東京都,渋谷区,南平台町１６番１１号,,13,113,1500036,,,2023-10-04,合併による解散等,6010401061980,令和５年１０月１日東京都渋谷区南平台町１６番１１号株式会社レバレッジ（6010401061980）に合併し解散,2015-10-05,1,,,,,ワンダートウキョウ,0
1207,5010802005026,登記記録の閉鎖等,0,2023-10-13,2023-10-05,有限会社高栄建設,,有限会社,東京都,大田区,中央８丁目４５番８号,,13,111,1430024,,,2023-10-05,清算の結了等,,,2015-10-05,1,,,,,コウエイケンセツ,0
1212,5011001069861,登記記録の閉鎖等,0,2023-10-13,2023-10-05,株式会社ａｃｄｃ,,株式会社,東京都,渋谷区,千駄ヶ谷５丁目２０番２０号,,13,113,1510051,,,2023-10-05,清算の結了等,,,2015-10-05,1,,,,,エーシーディーシー,0
1229,5011101077707,登記記録の閉鎖等,0,2023-10-13,2023-10-05,株式会社ＴＫＰメディカリンク,,株式会社,東京都,新宿区,市谷八幡町８番地,,13,104,1620844,,,2023-10-05,合併による解散等,7010001105955,令和５年１０月１日東京都新宿区市谷八幡町８番地株式会社ティーケーピー（7010001105955）に合併し解散,2016-07-21,1,,,,,ティーケーピーメディカリンク,0
1244,5011303004153,登記記録の閉鎖等,0,2023-10-13,2023-10-03,合同会社Ｉｇｎｉｔｉｏｎ,,合同会社,東京都,杉並区,高円寺南１丁目１８番１３号,,13,115,1660003,,,2023-10-03,合併による解散等,1011303004082,令和５年１０月３日東京都杉並区高円寺南一丁目１８番１３号合同会社ＨａｎａＢｉ（1011303004082）に合併し解散,2021-09-02,1,,,,,イグニッション,0
1247,5011402007437,登記記録の閉鎖等,0,2023-10-13,2023-10-12,有限会社ヒサミ商事,,有限会社,東京都,板橋区,大谷口上町４５番地３４,,13,119,1730032,,,2023-10-12,清算の結了等,,,2015-10-05,1,,,,,,0
1251,5011602005083,登記記録の閉鎖等,0,2023-10-13,2023-10-10,有限会社匠美,,有限会社,東京都,練馬区,高松６丁目２９番７号,,13,120,1790075,,,2023-10-10,清算の結了等,,,2015-10-05,1,,,,,,0
1254,5011602007682,登記記録の閉鎖等,0,2023-10-13,2023-10-11,有限会社にし,,有限会社,東京都,練馬区,三原台１丁目６番３６号,,13,120,1770031,,,2023-10-11,清算の結了等,,,2015-10-05,1,,,,,ニシ,0
1263,5011802012730,登記記録の閉鎖等,0,2023-10-13,2023-10-06,有限会社コバ電機,,有限会社,東京都,足立区,舎人３丁目３番３号,,13,121,1210831,,,2023-10-06,清算の結了等,,,2015-10-05,1,,,,,コバデンキ,0
1268,5012302004755,登記記録の閉鎖等,0,2023-10-13,2023-10-10,有限会社ムービンオン,,有限会社,東京都,町田市,金森東１丁目７番１０号,,13,209,1940015,,,2023-10-10,清算の結了等,,,2015-10-05,1,,,,,ムービンオン,0
1269,5012401031361,登記記録の閉鎖等,0,2023-10-13,2023-09-22,株式会社ＢＩＧ,,株式会社,埼玉県,さいたま市見沼区,大和田町１丁目１８８３番３号ＯＨＡＮＡＴＯＷＮＩＩ期Ｙ,00121058,11,104,3370053,,,2023-09-22,清算の結了等,,,2016-04-27,1,,,,,ビーアイジー,0
1277,5020001028208,登記記録の閉鎖等,0,2023-10-13,2023-10-06,ロジスティード南関東株式会社,,株式会社,神奈川県,横浜市中区,弁天通４丁目５９番地,,14,104,2310007,,,2023-10-06,合併による解散等,7050001023567,令和５年１０月１日茨城県日立市城南町一丁目５番１号ロジスティード東日本株式会社（7050001023567）に合併し解散,2015-10-05,1,,,,,ロジスティードミナミカントウ,0
1293,5030001128411,登記記録の閉鎖等,0,2023-10-13,2023-10-10,ライフビルダー株式会社,,株式会社,埼玉県,幸手市,東４丁目３番１５号,,11,240,3400114,,,2023-10-10,清算の結了等,,,2018-11-28,1,,,,,ライフビルダー,0
1299,5030003009956,登記記録の閉鎖等,0,2023-10-13,2023-09-22,Ｓ．Ｍ．Ｓ　Ｔｒａｄｉｎｇ合同会社,,合同会社,埼玉県,所沢市,西所沢２丁目９番６－１０１号,,11,208,3591144,,,2023-09-22,清算の結了等,,,2017-03-01,1,,,,,エスエムエストレーディング,0
1301,5040001016912,登記記録の閉鎖等,0,2023-10-13,2023-10-10,株式会社オイシー,,株式会社,千葉県,船橋市,本町２丁目７番１７号,,12,204,2730005,,,2023-10-10,清算の結了等,,,2015-10-05,1,,,,,オイシー,0
1316,5060001010938,登記記録の閉鎖等,0,2023-10-13,2023-10-05,株式会社アルエ,,株式会社,栃木県,鹿沼市,茂呂２５２番地４５,,09,205,3220026,,,2023-10-05,清算の結了等,,,2015-10-05,1,,,,,アルエ,0
1327,5080001015126,登記記録の閉鎖等,0,2023-10-13,2023-10-11,株式会社長谷川造船所,,株式会社,静岡県,焼津市,小川３６７１番地の１,,22,212,4250033,,,2023-10-11,清算の結了等,,,2015-10-05,1,,,,,ハセガワゾウセンジョ,0
1330,5080401013365,登記記録の閉鎖等,0,2023-10-13,2023-10-10,株式会社倉敷,,株式会社,静岡県,浜松市南区,飯田町６３２番地の３,,22,134,4350028,,,2023-10-10,清算の結了等,,,2015-10-05,1,,,,,クラシキ,0
1336,5100001010891,登記記録の閉鎖等,0,2023-10-13,2023-10-03,森田建材株式会社,,株式会社,長野県,東御市,本海野１４０２番地１,,20,219,3890518,,,2023-10-03,清算の結了等,,,2015-10-05,1,,,,,モリタケンザイ,0
1343,5110001012540,登記記録の閉鎖等,0,2023-10-13,2023-10-10,株式会社かねきち,,株式会社,新潟県,新発田市,本田戊１８６６番地の１,,15,206,9592335,,,2023-10-10,清算の結了等,,,2015-10-05,1,,,,,,0
1345,5110002009255,登記記録の閉鎖等,0,2023-10-13,2023-10-10,有限会社ウェブナック,,有限会社,新潟県,新潟市中央区,東出来島１０番１号越路ビル,,15,103,9500961,,,2023-10-10,清算の結了等,,,2015-10-05,1,,,,,ウェブナック,0
1346,5110002028775,登記記録の閉鎖等,0,2023-10-13,2023-10-04,有限会社ハイ・ビルド,,有限会社,東京都,江戸川区,小松川１丁目２番２－１１０２号,,13,123,1320034,,,2023-10-04,清算の結了等,,,2015-10-05,1,,,,,ハイビルド,0
1360,5120001243804,登記記録の閉鎖等,0,2023-10-13,2023-10-05,丸阪株式会社,,株式会社,大阪府,大阪市中央区,松屋町９番２０号ローレルステート松屋町７０５Ａ,,27,128,5420067,,,2023-10-05,清算の結了等,,,2022-02-16,1,,,,,マルハン,0
1369,5120002037750,登記記録の閉鎖等,0,2023-10-13,2023-10-05,有限会社野崎商会,00030917,有限会社,大阪府,大阪市中央区,船場中央４丁目１番１０号,,27,128,5410055,,,2023-10-05,清算の結了等,,,2015-10-05,1,,,,,ノザキショウカイ,0
1421,5230002002958,登記記録の閉鎖等,0,2023-10-13,2023-10-11,有限会社あおば財産クリニック,,有限会社,富山県,富山市,五福５８１番地の３,,16,201,9300887,,,2023-10-11,清算の結了等,,,2015-10-05,1,,,,,ザイサン,0
1426,5240001006711,登記記録の閉鎖等,0,2023-10-13,2023-10-02,株式会社エア・ガシズ広島,,株式会社,広島県,広島市中区,南吉島１丁目２番３号,,34,101,7300826,,,2023-10-02,合併による解散等,3240001026182,令和５年１０月１日広島市中区上幟町７番３号中国酸素株式会社（3240001026182）に合併し解散,2015-10-05,1,,,,,エアガシズ,0
1430,5240002034216,登記記録の閉鎖等,0,2023-10-13,2023-10-06,有限会社ミヤザキ看板,,有限会社,広島県,呉市,本町３番１８号,,34,202,7370032,,,2023-10-06,清算の結了等,,,2015-10-05,1,,,,,ミヤザキカンバン,0
1449,5290002039292,登記記録の閉鎖等,0,2023-10-13,2023-10-02,有限会社篠原木工所,,有限会社,福岡県,大野城市,御笠川６丁目２番５号,,40,219,8160912,,,2023-10-02,清算の結了等,,,2015-10-05,1,,,,,シノハラモッコウショ,0
1457,5310002017634,登記記録の閉鎖等,0,2023-10-13,2023-10-11,和光食品有限会社,,有限会社,長崎県,大村市,協和町７１９番地,,42,205,8560820,,,2023-10-11,合併による解散等,8300001007519,令和５年１０月１日佐賀県唐津市呼子町殿ノ浦１９４４番地１株式会社萬坊（8300001007519）に合併し解散,2015-10-05,1,,,,,ワコウショクヒン,0
1462,5320202000430,登記記録の閉鎖等,0,2023-10-13,2023-10-02,株式会社ホワイト急便臼杵,,株式会社,宮崎県,宮崎市,神宮東３丁目２番３９号,,45,201,8800056,,,2023-10-02,合併による解散等,5350002004240,令和５年１０月１日宮崎市神宮東三丁目２番３９号株式会社ホワイト急便（5350002004240）に合併し解散,2015-10-05,1,,,,,ホワイトキュウビンウスキ,0
1483,5370001049128,登記記録の閉鎖等,0,2023-10-13,2023-10-06,株式会社タニカゼクリーン,,株式会社,宮城県,仙台市若林区,上飯田字天神４１番地の１２,,04,103,9840838,,,2023-10-06,清算の結了等,,,2022-10-07,1,,,,,タニカゼクリーン,0
1486,5370302000540,登記記録の閉鎖等,0,2023-10-13,2023-10-10,有限会社大槻工業,,有限会社,宮城県,石巻市,広渕字舘前６１番地,,04,202,9871222,,,2023-10-10,清算の結了等,,,2015-10-05,1,,,,,,0
1503,5500002019272,登記記録の閉鎖等,0,2023-10-13,2023-10-11,有限会社森正農園,,有限会社,愛媛県,今治市,菊間町長坂２２番地,,38,202,7992310,,,2023-10-11,清算の結了等,,,2015-10-05,1,,,,,モリショウノウエン,0
1518,6010002001196,登記記録の閉鎖等,0,2023-10-13,2023-10-03,有限会社オオウラ印刷,,有限会社,東京都,文京区,水道２丁目６番５号Ｓ－ＢＯＸ１階,,13,105,1120005,,,2023-10-03,清算の結了等,,,2015-10-05,1,,,,,オオウラインサツ,0
1521,6010401023262,登記記録の閉鎖等,0,2023-10-13,2023-10-04,日本マイダス株式会社,,株式会社,北海道,札幌市北区,北十八条西６丁目３番１０号ＭＦビル,,01,102,0010018,,,2023-10-04,清算の結了等,,,2015-10-05,1,,,,,ニホンマイダス,0
1532,6010405014101,登記記録の閉鎖等,0,2023-10-13,2023-09-27,一般社団法人ＴＳＭ１３３,,その他の設立登記法人,東京都,港区,元赤坂１丁目１番７号,,13,103,1070051,,,2023-09-27,清算の結了等,,,2015-10-05,1,,,,,ティーエスエムヒャクサンジュウサン,0
1534,6010501035736,登記記録の閉鎖等,0,2023-10-13,2023-10-10,株式会社Ｔｏｋｙｏ　Ｃｒａｆｔ,,株式会社,東京都,台東区,浅草橋２丁目５番４号,,13,106,1110053,,,2023-10-10,清算の結了等,,,2015-10-05,1,,,,,トウキョウクラフト,0
1551,6011001055472,登記記録の閉鎖等,0,2023-10-13,2023-10-05,バリューアークコンサルティング株式会社,,株式会社,東京都,千代田区,丸の内１丁目７番１２号,,13,101,1000005,,,2023-10-05,合併による解散等,3180001057481,令和５年１０月１日名古屋市中村区名駅南一丁目２４番２０号株式会社コプロテクノロジー（3180001057481）に合併し解散,2015-10-05,1,,,,,バリューアークコンサルティング,0
1572,6011701021402,登記記録の閉鎖等,0,2023-10-13,2023-10-02,株式会社Ｍ＆Ｍディレクションズ,,株式会社,東京都,中央区,日本橋１丁目３番１３号,,13,102,1030027,,,2023-10-02,清算の結了等,,,2017-12-19,1,,,,,エムアンドエムディレクションズ,0
1578,6012301008681,登記記録の閉鎖等,0,2023-10-13,2023-10-06,株式会社イーエフイー,,株式会社,東京都,多摩市,落合１丁目１５番地２,,13,224,2060033,,,2023-10-06,合併による解散等,7013401005080,令和５年１０月１日沖縄県うるま市勝連南風原５１９２番地８株式会社ナノシステムソリューションズ（7013401005080）に合併し解散,2015-10-05,1,,,,,イーエフイー,0
1580,6012401020710,登記記録の閉鎖等,0,2023-10-13,2023-09-26,サイバーナレッジ株式会社,,株式会社,東京都,港区,南青山２丁目２番１５号,,13,103,1070062,,,2023-09-26,清算の結了等,,,2015-10-05,1,,,,,サイバーナレッジ,0
1584,6012402001726,登記記録の閉鎖等,0,2023-10-13,2023-10-11,有限会社タニ産業,,有限会社,東京都,府中市,美好町１丁目３７番地の２,,13,206,1830045,,,2023-10-11,清算の結了等,,,2015-10-05,1,,,,,タニサンギョウ,0
1591,6020001036944,登記記録の閉鎖等,0,2023-10-13,2023-10-10,株式会社エフトレーディング,,株式会社,神奈川県,横浜市金沢区,六浦５丁目６番１号,,14,108,2360031,,,2023-10-10,合併による解散等,1011001146409,令和５年１０月１日東京都渋谷区代々木五丁目２５番２１号アパートメント代々木３０１ロボッコ株式会社（1011001146409）に合併し解散,2015-10-05,1,,,,,エフトレーディング,0
1597,6020002005510,登記記録の閉鎖等,0,2023-10-13,2023-10-02,有限会社市原塗装,,有限会社,神奈川県,川崎市中原区,下小田中６丁目１０番３６号,,14,133,2110041,,,2023-10-02,清算の結了等,,,2015-10-05,1,,,,,イチハラトソウ,0
1606,6020005004385,登記記録の閉鎖等,0,2023-10-13,2023-10-02,特定非営利活動法人草の根援助運動,,その他の設立登記法人,神奈川県,横浜市磯子区,森３丁目３－１７－２１７,,14,107,2350023,,,2023-10-02,清算の結了等,,,2015-10-05,1,,,,,クサノネエンジョウンドウ,0
1608,6021001025722,登記記録の閉鎖等,0,2023-10-13,2023-10-10,日硝精機株式会社,,株式会社,神奈川県,相模原市緑区,大山町３番４５号日本山村硝子株式会社東京工場内,,14,151,2520146,,,2023-10-10,合併による解散等,2140001054905,令和５年１０月１日兵庫県尼崎市西向島町１５番１山村倉庫株式会社（2140001054905）に合併し解散,2015-10-05,1,,,,,ニッショウセイキ,0
1626,6030002050340,登記記録の閉鎖等,0,2023-10-13,2023-09-22,有限会社白信金型,,有限会社,埼玉県,三郷市,鷹野１丁目４１１番地７,,11,237,3410035,,,2023-09-22,清算の結了等,,,2015-10-05,1,,,,,ハクシンカナガタ,0
1630,6040001027405,登記記録の閉鎖等,0,2023-10-13,2023-10-10,株式会社ファーム,,株式会社,千葉県,市川市,妙典４丁目５番地２５号,,12,203,2720111,,,2023-10-10,合併による解散等,8021001026041,令和５年１０月１日神奈川県大和市西鶴間一丁目９番１８号薬樹株式会社（8021001026041）に合併し解散,2015-10-05,1,,,,,ファーム,0
1633,6040001079917,登記記録の閉鎖等,0,2023-10-13,2023-10-10,ミズホロジスティクス株式会社,,株式会社,千葉県,佐倉市,太田２１７３番地１３,,12,212,2850808,,,2023-10-10,合併による解散等,1010001007612,令和５年１０月１日東京都文京区本郷三丁目３０番１３号ミズホ株式会社（1010001007612）に合併し解散,2015-10-05,1,,,,,ミズホロジスティクス,0
1639,6040002067697,登記記録の閉鎖等,0,2023-10-13,2023-09-28,有限会社ホリイ建設,,有限会社,千葉県,木更津市,祇園２丁目２９番９号,00020550,12,206,2920052,,,2023-09-28,清算の結了等,,,2015-10-05,1,,,,,ホリイケンセツ,0
1646,6050001049729,登記記録の閉鎖等,0,2023-10-13,2023-10-03,山百合の里株式会社,,株式会社,茨城県,笠間市,笠間１６９１番地２,,08,216,3091611,,,2023-10-03,清算の結了等,,,2021-08-23,1,,,,,ヤマユリノサト,0
1656,6080001019373,登記記録の閉鎖等,0,2023-10-13,2023-10-06,株式会社タイズＭフーズ,,株式会社,静岡県,静岡市葵区,昭府２丁目１０番２０－４号,,22,101,4200871,,,2023-10-06,清算の結了等,,,2015-10-05,1,,,,,タイズエムフーズ,0
1659,6080101009159,登記記録の閉鎖等,0,2023-10-13,2023-10-10,東和株式会社,,株式会社,静岡県,富士市,原田３８９番地の２,,22,210,4170852,,,2023-10-10,合併による解散等,4010001035429,令和５年９月３０日東京都中央区八丁堀二丁目２１番１１号アコーダー・ビジネス・フォーム株式会社（4010001035429）に合併し解散,2015-10-05,1,,,,,トウワ,0
1668,6100002038618,登記記録の閉鎖等,0,2023-10-13,2023-10-03,有限会社ミヤシタ,,有限会社,長野県,下伊那郡泰阜村,２０７９番地,,20,414,3991801,,,2023-10-03,清算の結了等,,,2015-10-05,1,,,,,ミヤシタ,0
1670,6110001027843,登記記録の閉鎖等,0,2023-10-13,2023-10-02,株式会社ウェルファー,,株式会社,新潟県,佐渡市,小木町１９３５番地２,,15,224,9520604,,,2023-10-02,合併による解散等,5110001027729,令和５年１０月１日新潟県佐渡市小木町１９３５番地２９ムラタ興業株式会社（5110001027729）に合併し解散,2015-10-05,1,,,,,ウェルファー,0
1671,6110001028809,登記記録の閉鎖等,0,2023-10-13,2023-10-11,ＨＡＮＡ株式会社,,株式会社,新潟県,新潟市中央区,弁天３丁目２番１号,,15,103,9500901,,,2023-10-11,清算の結了等,,,2015-10-05,1,,,,,ハナ,0
1675,6110002033428,登記記録の閉鎖等,0,2023-10-13,2023-10-11,有限会社ヨコタ・エンタープライズ,,有限会社,新潟県,南魚沼郡湯沢町,大字土樽７３１番地５０,00071180,15,461,9496103,,,2023-10-11,清算の結了等,,,2015-10-05,1,,,,,ヨコタエンタープライズ,0
1709,6130003002743,登記記録の閉鎖等,0,2023-10-13,2023-10-02,合同会社創造空間,,合同会社,京都府,久世郡久御山町,野村村東１８０番５,,26,322,6130023,,,2023-10-02,清算の結了等,,,2015-10-05,1,,,,,ソウゾウクウカン,0
1713,6140001057508,登記記録の閉鎖等,0,2023-10-13,2023-10-06,株式会社アール都市建築研究所,,株式会社,兵庫県,姫路市,東辻井３丁目８番１９号,00130039,28,201,6700084,,,2023-10-06,清算の結了等,,,2015-10-05,1,,,,,アールトシケンチクケンキュウショ,0
1725,6180001133560,登記記録の閉鎖等,0,2023-10-13,2023-10-02,高岡商業開発株式会社,,株式会社,愛知県,名古屋市中村区,平池町４丁目６０番地の１２,,23,105,4530872,,,2023-10-02,合併による解散等,7180001059227,令和５年１０月１日名古屋市東区橦木町三丁目７０番地中部管財株式会社（7180001059227）に合併し解散,2018-08-31,1,,,,,タカオカショウギョウカイハツ,0
1726,6180001150655,登記記録の閉鎖等,0,2023-10-13,2023-10-06,アスプロ株式会社,,株式会社,愛知県,名古屋市熱田区,千年２丁目１２番８号－２,,23,109,4560054,,,2023-10-06,清算の結了等,,,2022-04-08,1,,,,,アスプロ,0
1737,6200001020211,登記記録の閉鎖等,0,2023-10-13,2023-10-11,株式会社よつば,,株式会社,岐阜県,関市,平成通２丁目２番９号,,21,205,5013919,,,2023-10-11,清算の結了等,,,2015-10-05,1,,,,,ヨツバ,0
1747,6240001028408,登記記録の閉鎖等,0,2023-10-13,2023-10-02,株式会社エイト,,株式会社,熊本県,荒尾市,高浜１９７８番地,,43,204,8640025,,,2023-10-02,合併による解散等,1330001018362,令和５年１０月１日熊本県荒尾市高浜１９７８番地株式会社旭製作所（1330001018362）に合併し解散,2015-10-05,1,,,,,エイト,0
1748,6240001030090,登記記録の閉鎖等,0,2023-10-13,2023-10-04,岩部倉庫運輸株式会社,,株式会社,広島県,福山市,箕島町字南丘６６１７番地,,34,207,7210957,,,2023-10-04,清算の結了等,,,2015-10-05,1,,,,,,0
1754,6240002037564,登記記録の閉鎖等,0,2023-10-13,2023-10-10,有限会社えばた薬局,,有限会社,広島県,大竹市,元町１丁目１１番２号,,34,211,7390615,,,2023-10-10,清算の結了等,,,2015-10-05,1,,,,,エバタヤッキョク,0
1761,6260003000750,登記記録の閉鎖等,0,2023-10-13,2023-10-05,合同会社アイズ,,合同会社,岡山県,倉敷市,新田２５２７番地６,,33,202,7100038,,,2023-10-05,清算の結了等,,,2015-10-05,1,,,,,アイズ,0
1775,6300005003045,登記記録の閉鎖等,0,2023-10-13,2023-10-11,特定非営利活動法人盛年の会,,その他の設立登記法人,佐賀県,神埼市,神埼町本堀３１５０番地３９,,41,210,8420003,,,2023-10-11,清算の結了等,,,2015-10-05,1,,,,,セイネンノカイ,0
1791,6360003010814,登記記録の閉鎖等,0,2023-10-13,2023-10-03,５８ＢＡＳＥ合同会社,,合同会社,沖縄県,那覇市,泊２丁目１番地１８,,47,201,9000012,,,2023-10-03,清算の結了等,,,2021-01-28,1,,,,,ゴーパチベース,0
1793,6370001047502,登記記録の閉鎖等,0,2023-10-13,2023-10-12,山吹の里株式会社,,株式会社,宮城県,白石市,字半沢屋敷前７７番地３,,04,206,9890259,,,2023-10-12,清算の結了等,,,2021-08-23,1,,,,,ヤマブキノサト,0
1797,6370405000148,登記記録の閉鎖等,0,2023-10-13,2023-10-10,つやま産直事業協同組合,,その他の設立登記法人,宮城県,登米市,津山町横山字細屋２６番地１,,04,212,9860402,,,2023-10-10,清算の結了等,,,2015-10-05,1,,,,,ツヤマサンチョク,0
1802,6390002016157,登記記録の閉鎖等,0,2023-10-13,2023-10-10,有限会社すずき,,有限会社,山形県,西村山郡朝日町,大字宮宿１１８７番地,,06,323,9901442,,,2023-10-10,清算の結了等,,,2015-10-05,1,,,,,,0
1822,6500001019198,登記記録の閉鎖等,0,2023-10-13,2023-10-11,古都味株式会社,,株式会社,愛媛県,八幡浜市,保内町宮内２番耕地８５４番地１,,38,204,7960202,,,2023-10-11,清算の結了等,,,2015-10-05,1,,,,,コトミ,0
1826,7010001036696,登記記録の閉鎖等,0,2023-10-13,2023-10-02,石川商工株式会社,,株式会社,東京都,文京区,白山４丁目２５番６号,,13,105,1120001,,,2023-10-02,合併による解散等,3010001007338,令和５年１０月１日東京都文京区白山四丁目２５番６号オリロー株式会社（3010001007338）に合併し解散,2015-10-05,1,,,,,イシカワショウコウ,0
1838,7010401019111,登記記録の閉鎖等,0,2023-10-13,2023-10-04,株式会社也阿弥,,株式会社,東京都,杉並区,方南２丁目２１番４号,,13,115,1680062,,,2023-10-04,清算の結了等,,,2015-10-05,1,,,,,ヤアミ,0
1839,7010401044704,登記記録の閉鎖等,0,2023-10-13,2023-10-02,ユニ・デバイシス株式会社,,株式会社,東京都,港区,白金台３丁目２番３４号,,13,103,1080071,,,2023-10-02,合併による解散等,8010701006527,令和５年１０月１日東京都港区白金台三丁目２番３４号東京ソフト株式会社（8010701006527）に合併し解散,2015-10-05,1,,,,,ユニデバイシス,0
1862,7011001129416,登記記録の閉鎖等,0,2023-10-13,2023-10-10,株式会社ＬＯＷＶＥ,,株式会社,東京都,武蔵野市,御殿山１丁目２番１号吉祥寺御殿山デュープレックスリズ地下１階,,13,203,1800005,,,2023-10-10,清算の結了等,,,2019-08-13,1,,,,,ローブ,0
1870,7011103011265,登記記録の閉鎖等,0,2023-10-13,2023-10-02,合同会社インサイトマーケティング,,合同会社,東京都,文京区,本郷１丁目３３番１２号２０２,,13,105,1130033,,,2023-10-02,清算の結了等,,,2021-12-14,1,,,,,,0
1885,7011602009702,登記記録の閉鎖等,0,2023-10-13,2023-10-10,有限会社都寿司,,有限会社,東京都,練馬区,練馬１丁目２３番３号,,13,120,1760001,,,2023-10-10,清算の結了等,,,2015-10-05,1,,,,,ミヤコズシ,0
1886,7011701004406,登記記録の閉鎖等,0,2023-10-13,2023-10-06,株式会社石丈工務店,,株式会社,東京都,江戸川区,北小岩４丁目１番５号,,13,123,1330051,,,2023-10-06,清算の結了等,,,2015-10-05,1,,,,,イシジョウコウムテン,0
1888,7011701023868,登記記録の閉鎖等,0,2023-10-13,2023-10-04,株式会社ＷｅＰｌｕｓ,,株式会社,東京都,江戸川区,本一色１丁目３４番１６－２０３号,,13,123,1330044,,,2023-10-04,清算の結了等,,,2020-11-02,1,,,,,ウィプラス,0
1917,7030001117131,登記記録の閉鎖等,0,2023-10-13,2023-09-22,株式会社ＴＳＫカンパニー,,株式会社,埼玉県,本庄市,駅南２丁目１番２５号,,11,211,3670041,,,2023-09-22,清算の結了等,,,2016-11-11,1,,,,,ティーエスケーカンパニー,0
1933,7030003005466,登記記録の閉鎖等,0,2023-10-13,2023-09-22,合同会社ホーム＆ギフトジャパン,,合同会社,埼玉県,所沢市,小手指元町３丁目２５番地の２４,,11,208,3591147,,,2023-09-22,清算の結了等,,,2015-10-05,1,,,,,ホームアンドギフトジャパン,0
1944,7040002024747,登記記録の閉鎖等,0,2023-10-13,2023-09-27,有限会社ビューテイフタバ,,有限会社,千葉県,船橋市,本町１丁目１２番１１－２０５号,,12,204,2730005,,,2023-09-27,清算の結了等,,,2015-10-05,1,,,,,ビューテイフタバ,0
1947,7040002068901,登記記録の閉鎖等,0,2023-10-13,2023-09-29,有限会社アトリエ唯建築設計事務所,,有限会社,千葉県,木更津市,万石６４９番地３,,12,206,2920003,,,2023-09-29,清算の結了等,,,2015-10-05,1,,,,,アトリエタダケンチクセッケイジムショ,0
1977,7100001020336,登記記録の閉鎖等,0,2023-10-13,2023-10-03,株式会社海楽,,株式会社,長野県,諏訪市,大字湖南１３６７番地１,,20,206,3920131,,,2023-10-03,清算の結了等,,,2015-10-05,1,,,,,カイラク,0
1997,7120002051865,登記記録の閉鎖等,0,2023-10-13,2023-10-02,有限会社間口鉄工所,,有限会社,大阪府,大阪市東住吉区,矢田１丁目９番２８号,,27,121,5460023,,,2023-10-02,清算の結了等,,,2015-10-05,1,,,,,,0
2005,7120901007050,登記記録の閉鎖等,0,2023-10-13,2023-10-10,株式会社清流メンテナンス,,株式会社,大阪府,吹田市,垂水町３丁目５番９号,,27,205,5640062,,,2023-10-10,合併による解散等,4140001072021,令和５年１０月１日大阪市中央区淡路町三丁目６番３号株式会社日本管財環境サービス（4140001072021）に合併し解散,2015-10-05,1,,,,,セイリュウメンテナンス,0
2006,7120901011465,登記記録の閉鎖等,0,2023-10-13,2023-10-10,株式会社チカラモータース,,株式会社,大阪府,高槻市,真上町２丁目８番５号,,27,207,5691121,,,2023-10-10,合併による解散等,3140002037825,令和５年１０月１日兵庫県加古郡稲美町加古４７８番地の３株式会社レーヴェ・クヴァリテート（3140002037825）に合併し解散,2015-10-05,1,,,,,チカラモータース,0
2013,7130001000269,登記記録の閉鎖等,0,2023-10-13,2023-10-02,株式会社宇佐美,,株式会社,京都府,京都市右京区,山ノ内北ノ口町３番地４,,26,108,6150094,,,2023-10-02,清算の結了等,,,2015-10-05,1,,,,,ウサミ,0
2017,7140002047589,登記記録の閉鎖等,0,2023-10-13,2023-10-10,有限会社イズムアソシエイツ,,有限会社,兵庫県,姫路市,駅前町３３８ＷＡＴビル３Ｆ,,28,201,6700927,,,2023-10-10,清算の結了等,,,2015-10-05,1,,,,,,0
2025,7160001012872,登記記録の閉鎖等,0,2023-10-13,2023-10-11,滋賀デリカクリエイツ株式会社,,株式会社,滋賀県,草津市,草津町１９４８番地２,,25,206,5250036,,,2023-10-11,清算の結了等,,,2015-10-05,1,,,,,シガデリカクリエイツ,0
2040,7180002006095,登記記録の閉鎖等,0,2023-10-13,2023-10-06,有限会社アイテックリース,,有限会社,愛知県,名古屋市港区,砂美町１８７番地,,23,111,4550056,,,2023-10-06,清算の結了等,,,2015-10-05,1,,,,,アイテックリース,0
2043,7180301033914,登記記録の閉鎖等,0,2023-10-13,2023-10-05,株式会社やなせひろし,,株式会社,愛知県,岡崎市,羽根町字陣場１５４番地２,,23,202,4440815,,,2023-10-05,清算の結了等,,,2020-07-27,1,,,,,ヤナセヒロシ,0
2044,7190001010584,登記記録の閉鎖等,0,2023-10-13,2023-10-06,株式会社松阪街づくり公社,,株式会社,三重県,松阪市,日野町７８８番地,,24,204,5150084,,,2023-10-06,清算の結了等,,,2015-10-05,1,,,,,マツサカマチヅクリコウシャ,0
2062,7240002001288,登記記録の閉鎖等,0,2023-10-13,2023-10-04,有限会社イトー工業,,有限会社,広島県,広島市安佐南区,東野３丁目２３－６,,34,105,7310111,,,2023-10-04,清算の結了等,,,2015-10-05,1,,,,,イトーコウギョウ,0
2083,7310001000779,登記記録の閉鎖等,0,2023-10-13,2023-10-10,新長崎乳業株式会社,,株式会社,長崎県,長崎市,若竹町１番１１号,,42,201,8528047,,,2023-10-10,清算の結了等,,,2015-10-05,1,,,,,シンナガサキニュウギョウ,0
2088,7330001025097,登記記録の閉鎖等,0,2023-10-13,2023-10-02,株式会社ＡＧＩテクニグラス,,株式会社,熊本県,荒尾市,高浜１９７８番地,,43,204,8640025,,,2023-10-02,合併による解散等,1330001018362,令和５年１０月１日熊本県荒尾市高浜１９７８番地株式会社旭製作所（1330001018362）に合併し解散,2018-03-12,1,,,,,エイジーアイテクニグラス,0
2092,7350001010551,登記記録の閉鎖等,0,2023-10-13,2023-10-04,株式会社キャリアカレッジ,,株式会社,宮崎県,宮崎市,高千穂通２丁目４番３７号,,45,201,8800812,,,2023-10-04,清算の結了等,,,2015-10-05,1,,,,,キャリアカレッジ,0
2102,7370202005191,登記記録の閉鎖等,0,2023-10-13,2023-10-10,有限会社翌檜食堂,,有限会社,宮城県,角田市,角田字扇町９番地１１,,04,208,9811505,,,2023-10-10,清算の結了等,,,2015-10-05,1,,,,,,0
2108,7390002009044,登記記録の閉鎖等,0,2023-10-13,2023-10-10,有限会社グローバルアイ,,有限会社,山形県,鶴岡市,大西町２６番３０号,,06,203,9970831,,,2023-10-10,清算の結了等,,,2015-10-05,1,,,,,グローバルアイ,0
2109,7390002014597,登記記録の閉鎖等,0,2023-10-13,2023-10-11,有限会社アグリかわにし,,有限会社,山形県,東置賜郡川西町,大字上小松６９７－２,,06,382,9990121,,,2023-10-11,清算の結了等,,,2015-10-05,1,,,,,アグリカワニシ,0
2121,7450002007710,登記記録の閉鎖等,0,2023-10-13,2023-10-06,有限会社須藤商会,,有限会社,北海道,雨竜郡秩父別町,１３０４番地の４４,,01,434,0782100,,,2023-10-06,清算の結了等,,,2015-10-05,1,,,,,,0
2148,8010401035727,登記記録の閉鎖等,0,2023-10-13,2023-10-10,富士フイルムシステムズ株式会社,,株式会社,神奈川県,横浜市西区,みなとみらい３丁目６番１号,,14,103,2200012,,,2023-10-10,合併による解散等,2010401064789,令和５年１０月１日東京都港区西麻布二丁目２６番３０号富士フイルム株式会社（2010401064789）に合併し解散,2015-10-05,1,,,,,フジフイルムシステムズ,0
2154,8010402000663,登記記録の閉鎖等,0,2023-10-13,2023-09-27,有限会社アトリエ角田明美,,有限会社,東京都,港区,北青山３丁目２番１１号,,13,103,1070061,,,2023-09-27,清算の結了等,,,2015-10-05,1,,,,,アトリエツノダアケミ,0
2155,8010402002635,登記記録の閉鎖等,0,2023-10-13,2023-10-02,有限会社大久保敏幸デザイン事務所,,有限会社,東京都,文京区,向丘２丁目２８番１２号,,13,105,1130023,,,2023-10-02,清算の結了等,,,2015-10-05,1,,,,,オオクボトシユキデザインジムショ,0
2162,8010601043686,登記記録の閉鎖等,0,2023-10-13,2023-10-06,株式会社天辰フーズ,,株式会社,東京都,墨田区,千歳１丁目１番９－１００２号,,13,107,1300025,,,2023-10-06,清算の結了等,,,2015-10-05,1,,,,,テンタツフーズ,0
2191,8011602005262,登記記録の閉鎖等,0,2023-10-13,2023-10-10,有限会社信和製作所,,有限会社,東京都,練馬区,下石神井２丁目１６番１８号,,13,120,1770042,,,2023-10-10,清算の結了等,,,2015-10-05,1,,,,,シンワセイサクジョ,0
2196,8011802008825,登記記録の閉鎖等,0,2023-10-13,2023-10-10,有限会社アイ・エフ,,有限会社,東京都,足立区,梅田５丁目２８番１２号,,13,121,1230851,,,2023-10-10,清算の結了等,,,2015-10-05,1,,,,,アイエフ,0
2198,8012303001170,登記記録の閉鎖等,0,2023-10-13,2023-10-06,株式会社マイ・ターン,,株式会社,東京都,町田市,真光寺１丁目１６番地２,,13,209,1950057,,,2023-10-06,清算の結了等,,,2018-07-05,1,,,,,マイターン,0
2204,8012801017370,登記記録の閉鎖等,0,2023-10-13,2023-10-02,エテルノ株式会社,,株式会社,東京都,武蔵村山市,伊奈平１丁目５７番地の４,,13,223,2080023,,,2023-10-02,合併による解散等,3012801009117,令和５年１０月２日東京都武蔵村山市伊奈平一丁目５７番地の４株式会社アイゴルフ（3012801009117）に合併し解散,2016-07-07,1,,,,,エテルノ,0
2212,8020001036208,登記記録の閉鎖等,0,2023-10-13,2023-10-02,株式会社ミリオンズ,,株式会社,神奈川県,横浜市鶴見区,北寺尾２丁目５番５号,,14,101,2300074,,,2023-10-02,清算の結了等,,,2015-10-05,1,,,,,ミリオンズ,0
2216,8020001135447,登記記録の閉鎖等,0,2023-10-13,2023-09-12,ハナキスタジオ株式会社,,株式会社,神奈川県,川崎市中原区,木月２丁目１０番３号ベンチャーマックス２０７号室,,14,133,2110025,,,2023-09-12,清算の結了等,,,2020-03-30,1,,,,,ハナキスタジオ,0
2242,8030002071970,登記記録の閉鎖等,0,2023-10-13,2023-09-25,有限会社アークリミテッド,,有限会社,埼玉県,越谷市,千間台西３丁目３番地パークタウン１３－１０１,,11,222,3430041,,,2023-09-25,清算の結了等,,,2015-10-05,1,,,,,アークリミテッド,0
2256,8040003000597,登記記録の閉鎖等,0,2023-10-13,2023-09-27,合同会社ショコラ,,合同会社,千葉県,浦安市,東野３丁目３４番８号,,12,227,2790042,,,2023-09-27,清算の結了等,,,2015-10-05,1,,,,,ショコラ,0
2266,8070001005249,登記記録の閉鎖等,0,2023-10-13,2023-10-11,株式会社ナカ・アーキ,,株式会社,群馬県,前橋市,荒口町６０１番地１,,10,201,3792107,,,2023-10-11,清算の結了等,,,2015-10-05,1,,,,,,0
2280,8080101009140,登記記録の閉鎖等,0,2023-10-13,2023-10-10,東伸紙工株式会社,,株式会社,静岡県,富士市,原田３５９番地の１,,22,210,4170852,,,2023-10-10,合併による解散等,4010001035429,令和５年９月３０日東京都中央区八丁堀二丁目２１番１１号アコーダー・ビジネス・フォーム株式会社（4010001035429）に合併し解散,2015-10-05,1,,,,,トウシンシコウ,0
2289,8100002027395,登記記録の閉鎖等,0,2023-10-13,2023-10-03,有限会社志なのや降籏製麺所,00069648,有限会社,長野県,木曽郡木曽町,福島６２０５番地１４,,20,432,3970001,,,2023-10-03,清算の結了等,,,2015-10-05,1,,,,,シナノヤフリハタセイメンジョ,0
2292,8110002003016,登記記録の閉鎖等,0,2023-10-13,2023-10-11,有限会社信越サービス,,有限会社,新潟県,新潟市東区,東明３丁目９番地４,,15,102,9500853,,,2023-10-11,清算の結了等,,,2015-10-05,1,,,,,シンエツサービス,0
2298,8120001130685,登記記録の閉鎖等,0,2023-10-13,2023-10-04,株式会社シンコーテクノス,,株式会社,大阪府,大阪市平野区,長吉長原西４丁目７番１０号,,27,126,5470015,,,2023-10-04,清算の結了等,,,2015-10-05,1,,,,,シンコーテクノス,0
2325,8130001011827,登記記録の閉鎖等,0,2023-10-13,2023-10-02,株式会社村田自動車工業所,,株式会社,京都府,京都市南区,東九条南河辺町２４番地,,26,107,6018034,,,2023-10-02,清算の結了等,,,2015-10-05,1,,,,,ムラタジドウシャコウギョウショ,0
2343,8150005006664,登記記録の閉鎖等,0,2023-10-13,2023-10-10,特定非営利活動法人奈良県社会福祉事業協会,,その他の設立登記法人,奈良県,大和高田市,本郷町１０番２８号,,29,202,6350082,,,2023-10-10,清算の結了等,,,2015-10-05,1,,,,,ナラケンシャカイフクシジギョウキョウカイ,0
2352,8180005016322,登記記録の閉鎖等,0,2023-10-13,2023-10-11,一般社団法人未来マトリクス,,その他の設立登記法人,愛知県,名古屋市東区,泉１丁目２１番２７号泉ファーストスクエア８階,,23,102,4610001,,,2023-10-11,清算の結了等,,,2015-10-05,1,,,,,ミライマトリクス,0
2362,8230002000827,登記記録の閉鎖等,0,2023-10-13,2023-10-10,有限会社金田商店,,有限会社,富山県,富山市,本郷町１６７番地の１,,16,201,9398045,,,2023-10-10,清算の結了等,,,2015-10-05,1,,,,,カネダショウテン,0
2363,8230002010768,登記記録の閉鎖等,0,2023-10-13,2023-10-10,有限会社扇建興,,有限会社,富山県,高岡市,戸出市野瀬７５８番地,,16,202,9391101,,,2023-10-10,清算の結了等,,,2015-10-05,1,,,,,オオギケンコウ,0
2367,8240002022432,登記記録の閉鎖等,0,2023-10-13,2023-09-29,有限会社サロンド・ウイング,,有限会社,広島県,広島市佐伯区,新宮苑１４番３５号,,34,108,7315126,,,2023-09-29,清算の結了等,,,2015-10-05,1,,,,,サロンドウイング,0
2379,8290001080988,登記記録の閉鎖等,0,2023-10-13,2023-10-02,基ホールディングス株式会社,,株式会社,福岡県,糟屋郡粕屋町,大字仲原２７５３番地１,,40,349,8112304,,,2023-10-02,合併による解散等,3290001001998,令和５年９月３０日福岡県糟屋郡粕屋町大字仲原２７５３番地５八光オートメーション株式会社（3290001001998）に合併し解散,2018-04-10,1,,,,,モトイホールディングス,0
2407,8370402002129,登記記録の閉鎖等,0,2023-10-13,2023-09-25,有限会社北斗リード宮城,,有限会社,埼玉県,三郷市,彦成２丁目２５７番地２,,11,237,3410003,,,2023-09-25,清算の結了等,,,2015-10-05,1,,,,,ホクトリードミヤギ,0
2409,8390002013425,登記記録の閉鎖等,0,2023-10-13,2023-10-10,有限会社丸の内ナカムラ薬局,,有限会社,山形県,米沢市,丸の内２丁目４番１３号,,06,202,9920052,,,2023-10-10,清算の結了等,,,2015-10-05,1,,,,,マルノウチナカムラヤッキョク,0
2419,8440002001374,登記記録の閉鎖等,0,2023-10-13,2023-10-10,有限会社クスリのスズキ,,有限会社,北海道,函館市,柏木町３４番２５号,,01,202,0420942,,,2023-10-10,清算の結了等,,,2015-10-05,1,,,,,クスリノスズキ,0
2430,9010001204202,登記記録の閉鎖等,0,2023-10-13,2023-10-02,ＵＢＳ　ＳｕＭｉ　ＴＲＵＳＴウェルス・アドバイザリー株式会社,,株式会社,東京都,千代田区,丸の内１丁目４番１号,,13,101,1000005,,,2023-10-02,清算の結了等,,,2019-09-30,1,,,,,ユービーエススミトラストウェルスアドバイザリー,0
2431,9010001207477,登記記録の閉鎖等,0,2023-10-13,2023-10-02,株式会社オルト,,株式会社,東京都,千代田区,神田神保町２丁目４４番,,13,101,1010051,,,2023-10-02,清算の結了等,,,2020-02-13,1,,,,,オルト,0
2433,9010001236352,登記記録の閉鎖等,0,2023-10-13,2023-10-02,株式会社オレンジセブン,,株式会社,東京都,千代田区,富士見２丁目１７番１号,,13,101,1020071,,,2023-10-02,清算の結了等,,,2023-06-22,1,,,,,オレンジセブン,0
2440,9010401140377,登記記録の閉鎖等,0,2023-10-13,2023-09-26,ミッション・キャピタル株式会社,,株式会社,東京都,港区,浜松町２丁目２番１５号,,13,103,1050013,,,2023-09-26,清算の結了等,,,2018-08-23,1,,,,,ミッションキャピタル,0
2445,9010403021609,登記記録の閉鎖等,0,2023-10-13,2023-09-26,合同会社Ｖｉｎｃｅｒｅ,,合同会社,東京都,港区,浜松町２丁目２番１５号,,13,103,1050013,,,2023-09-26,清算の結了等,,,2019-10-11,1,,,,,ヴィンチェレ,0
2456,9010701041192,登記記録の閉鎖等,0,2023-10-13,2023-10-04,株式会社ビットエーパートナーズ,,株式会社,東京都,品川区,西五反田１丁目１番８号,,13,109,1410031,,,2023-10-04,合併による解散等,4013201018698,令和５年７月１日東京都品川区西五反田一丁目１番８号株式会社ビットエー（4013201018698）に合併し解散,2021-07-05,1,,,,,ビットエーパートナーズ,0
2460,9011001073208,登記記録の閉鎖等,0,2023-10-13,2023-09-27,ザ・クックウェア・カンパニー・ジャパン株式会社,,株式会社,東京都,港区,浜松町２丁目２－１５,,13,103,1050013,,,2023-09-27,清算の結了等,,,2015-10-05,1,,,,,ザクックウェアカンパニージャパン,0
2490,9011701012340,登記記録の閉鎖等,0,2023-10-13,2023-10-05,トモエ空調株式会社,,株式会社,東京都,江戸川区,大杉４丁目１２番４号,,13,123,1320022,,,2023-10-05,清算の結了等,,,2015-10-05,1,,,,,トモエクウチョウ,0
2491,9011702008214,登記記録の閉鎖等,0,2023-10-13,2023-10-04,有限会社登坂設備,,有限会社,東京都,江戸川区,西一之江２丁目２５番１２号,,13,123,1320023,,,2023-10-04,清算の結了等,,,2015-10-05,1,,,,,トサカセツビ,0
2506,9020001028749,登記記録の閉鎖等,0,2023-10-13,2023-10-03,ヘルス産業株式会社,,株式会社,神奈川県,横浜市中区,万代町２丁目４番地の１,,14,104,2310031,,,2023-10-03,清算の結了等,,,2015-10-05,1,,,,,ヘルスサンギョウ,0
2518,9020002005227,登記記録の閉鎖等,0,2023-10-13,2023-10-03,有限会社ヨコハマケイ・ワイ商事,,有限会社,神奈川県,横浜市緑区,白山１丁目１９番６号,,14,113,2260006,,,2023-10-03,清算の結了等,,,2015-10-05,1,,,,,ヨコハマケイワイショウジ,0
2527,9030001010821,登記記録の閉鎖等,0,2023-10-13,2023-10-02,株式会社ビッグ・ワイ,,株式会社,埼玉県,さいたま市桜区,大字白鍬７２３番地１,,11,106,3380811,,,2023-10-02,清算の結了等,,,2015-10-05,1,,,,,ビッグワイ,0
2529,9030001038235,登記記録の閉鎖等,0,2023-10-13,2023-09-21,株式会社タイヨー,,株式会社,埼玉県,三郷市,早稲田４丁目１６番地１１,,11,237,3410018,,,2023-09-21,清算の結了等,,,2015-10-05,1,,,,,タイヨー,0
2537,9030002090565,登記記録の閉鎖等,0,2023-10-13,2023-09-25,有限会社ヘアメイクコーゾー,,有限会社,埼玉県,吉川市,木売２丁目７番地７,,11,243,3420045,,,2023-09-25,清算の結了等,,,2015-10-05,1,,,,,ヘアメイクコーゾー,0
2542,9030003009242,登記記録の閉鎖等,0,2023-10-13,2023-09-25,合同会社さおりーと,,合同会社,埼玉県,さいたま市南区,大字円正寺５１７－１０,,11,108,3360043,,,2023-09-25,清算の結了等,,,2016-09-05,1,,,,,サオリート,0
2551,9040002078378,登記記録の閉鎖等,0,2023-10-13,2023-09-28,有限会社すみれ薬局,,有限会社,千葉県,大網白里市,みやこ野２丁目１番地７,,12,239,2993236,,,2023-09-28,清算の結了等,,,2015-10-05,1,,,,,スミレヤッキョク,0
2591,9110002022849,登記記録の閉鎖等,0,2023-10-13,2023-10-10,有限会社篠宮祭典,,有限会社,新潟県,上越市,大字戸野目７２１番地２,,15,222,9430178,,,2023-10-10,清算の結了等,,,2015-10-05,1,,,,,シノミヤサイテン,0
2596,9120001137762,登記記録の閉鎖等,0,2023-10-13,2023-10-02,株式会社Ｔ＆Ａアソシエイツ,,株式会社,大阪府,大阪市中央区,谷町５丁目５番２号７１２号室,,27,128,5400012,,,2023-10-02,清算の結了等,,,2015-10-05,1,,,,,ティアンドエイアソシエイツ,0
2597,9120001178427,登記記録の閉鎖等,0,2023-10-13,2023-10-04,株式会社ギャザープランニング,,株式会社,大阪府,大阪市北区,西天満５丁目１１－４ｔｏｒｉｏ西天満ビル２０３号,,27,127,5300047,,,2023-10-04,清算の結了等,,,2015-10-05,1,,,,,ギャザープランニング,0
2610,9120102015933,登記記録の閉鎖等,0,2023-10-13,2023-10-12,有限会社政ハウジング,,有限会社,大阪府,松原市,天美南５丁目６番２３号,,27,217,5800033,,,2023-10-12,清算の結了等,,,2015-10-05,1,,,,,マサハウジング,0
2616,9122001016509,登記記録の閉鎖等,0,2023-10-13,2023-10-05,株式会社明来管財,,株式会社,大阪府,大東市,北条７丁目１５番３１号,,27,218,5740011,,,2023-10-05,清算の結了等,,,2015-10-05,1,,,,,アキカンザイ,0
2619,9130001062506,登記記録の閉鎖等,0,2023-10-13,2023-10-11,キョウトテキスタイルプロダクツ株式会社,,株式会社,京都府,京都市右京区,西京極北庄境町２５番地,,26,108,6150802,,,2023-10-11,清算の結了等,,,2018-07-09,1,,,,,キョウトテキスタイルプロダクツ,0
2621,9130003002625,登記記録の閉鎖等,0,2023-10-13,2023-09-27,合資会社ジャパンクリエイト,,合資会社,京都府,木津川市,兜台７丁目１８番地１５,,26,214,6190224,,,2023-09-27,清算の結了等,,,2015-10-05,1,,,,,ジャパンクリエイト,0
2627,9140001054213,登記記録の閉鎖等,0,2023-10-13,2023-10-10,株式会社ＴＡＫＥ工業,,株式会社,兵庫県,尼崎市,西長洲町２丁目１４番８号,,28,202,6600805,,,2023-10-10,清算の結了等,,,2015-10-05,1,,,,,テイクコウギョウ,0
2640,9180001156195,登記記録の閉鎖等,0,2023-10-13,2023-10-06,オーララ株式会社,,株式会社,愛知県,一宮市,栄４丁目５番１１号リテイル２Ａ,,23,203,4910858,,,2023-10-06,清算の結了等,,,2023-05-09,1,,,,,オーララ,0
2648,9190001022421,登記記録の閉鎖等,0,2023-10-13,2023-10-10,株式会社華々ライフケア,,株式会社,三重県,桑名市,大字西方２５１０番地,,24,205,5110864,,,2023-10-10,清算の結了等,,,2015-10-05,1,,,,,カガライフケア,0
2658,9210001007725,登記記録の閉鎖等,0,2023-10-13,2023-10-02,株式会社イマージュ,,株式会社,福井県,福井市,下中町第２号１番地２,,18,201,9188211,,,2023-10-02,合併による解散等,8210001004723,令和５年１０月１日福井市下中町第２号１番地２株式会社ヒップ（8210001004723）に合併し解散,2015-10-05,1,,,,,イマージュ,0
2659,9210001013327,登記記録の閉鎖等,0,2023-10-13,2023-10-10,株式会社宮田食品,,株式会社,福井県,鯖江市,上河端町第４６号１０番地,,18,207,9160037,,,2023-10-10,清算の結了等,,,2015-10-05,1,,,,,ミヤタショクヒン,0
2664,9230001010982,登記記録の閉鎖等,0,2023-10-13,2023-10-06,丸喜産業株式会社,,株式会社,富山県,高岡市,葦附５８５８番地,,16,202,9391273,,,2023-10-06,合併による解散等,4010001204017,令和５年１０月１日東京都千代田区平河町二丁目１６番１号平河町森タワー１０階丸喜産業株式会社（4010001204017）に合併し解散,2015-10-05,1,,,,,マルキサンギョウ,0
2665,9230001012954,登記記録の閉鎖等,0,2023-10-13,2023-10-10,株式会社メタルテクノロジー,,株式会社,富山県,射水市,庄西町２丁目９番３８号,,16,211,9340001,,,2023-10-10,合併による解散等,3010401063179,令和５年１０月１日東京都港区芝三丁目８番２号ＪＦＥミネラル株式会社（3010401063179）に合併し解散,2015-10-05,1,,,,,メタルテクノロジー,0
2667,9230002007581,登記記録の閉鎖等,0,2023-10-13,2023-10-06,有限会社グッドエイチ,,有限会社,富山県,富山市,古沢７０２番地５,,16,201,9300151,,,2023-10-06,合併による解散等,6140001048523,令和５年１０月１日大阪市中央区北浜二丁目６番１８号株式会社レゾンディレクション（6140001048523）に合併し解散,2015-10-05,1,,,,,グッドエイチ,0
2669,9240001030088,登記記録の閉鎖等,0,2023-10-13,2023-10-04,岩部株式会社,,株式会社,広島県,福山市,卸町９番１号,,34,207,7210954,,,2023-10-04,清算の結了等,,,2015-10-05,1,,,,,イワベ,0
2679,9260001027041,登記記録の閉鎖等,0,2023-10-13,2023-10-10,株式会社アドテクノ,,株式会社,岡山県,総社市,泉１３番地３３,,33,208,7191106,,,2023-10-10,清算の結了等,,,2015-10-05,1,,,,,アドテクノ,0
2681,9260005007320,登記記録の閉鎖等,0,2023-10-13,2023-10-06,美作酒類工業協同組合,,その他の設立登記法人,岡山県,美作市,入田２０７番地,,33,215,7070004,,,2023-10-06,清算の結了等,,,2015-10-05,1,,,,,ミマサカシュルイコウギョウ,0
2691,9290801003841,登記記録の閉鎖等,0,2023-10-13,2023-10-12,ユタカ開発株式会社,,株式会社,福岡県,北九州市小倉北区,浅野２丁目１２番３３号,,40,106,8020001,,,2023-10-12,清算の結了等,,,2015-10-05,1,,,,,ユタカカイハツ,0
2695,9290802018327,登記記録の閉鎖等,0,2023-10-13,2023-10-10,有限会社八幡機工,,有限会社,福岡県,北九州市八幡東区,上本町２丁目１５番１７号,,40,108,8050018,,,2023-10-10,清算の結了等,,,2015-10-05,1,,,,,ヤハタキコウ,0
2696,9300001000712,登記記録の閉鎖等,0,2023-10-13,2023-10-06,株式会社スーパーサカイ,,株式会社,佐賀県,佐賀市,嘉瀬町大字中原１９７６番地の５,,41,201,8400861,,,2023-10-06,清算の結了等,,,2015-10-05,1,,,,,スーパーサカイ,0
2708,9350002000665,登記記録の閉鎖等,0,2023-10-13,2023-10-03,有限会社えにし,,有限会社,宮崎県,宮崎市,下北方町下郷６０４５番地４,,45,201,8800035,,,2023-10-03,清算の結了等,,,2015-10-05,1,,,,,エニシ,0
2713,9360002019390,登記記録の閉鎖等,0,2023-10-13,2023-10-02,有限会社アクアサプライ,,有限会社,沖縄県,宮古島市,平良字久貝８７０番地１,,47,214,9060015,,,2023-10-02,合併による解散等,5360001013893,令和５年１０月１日沖縄県宮古島市平良字久貝８７０番地１株式会社パラダイスプラン（5360001013893）に合併し解散,2015-10-05,1,,,,,アクアサプライ,0
2725,9390001014448,登記記録の閉鎖等,0,2023-10-13,2023-10-10,株式会社トーヨーカンパニー,,株式会社,山形県,鶴岡市,宝田１丁目９－６０,,06,203,9970011,,,2023-10-10,清算の結了等,,,2016-04-06,1,,,,,トーヨーカンパニー,0
2730,9410001005139,登記記録の閉鎖等,0,2023-10-13,2023-10-03,むつみ工業株式会社,,株式会社,秋田県,にかほ市,黒川字岩潟１５番地の２,,05,214,0180302,,,2023-10-03,清算の結了等,,,2015-10-05,1,,,,,ムツミコウギョウ,0
2733,9410002003612,登記記録の閉鎖等,0,2023-10-13,2023-10-03,有限会社緑ケ丘薬局,,有限会社,秋田県,秋田市,飯島緑丘町２番３２号,,05,201,0110915,,,2023-10-03,清算の結了等,,,2015-10-05,1,,,,,ミドリガオカヤッキョク,0
