sequenceNumber,corporateNumber,process,correct,updateDate,changeDate,name,nameImageId,kind,prefectureName,cityName,streetNumber,addressImageId,prefectureCode,cityCode,postCode,addressOutside,addressOutsideImageId,closeDate,closeCause,successorCorporateNumber,changeCause,assignmentDate,latest,enName,enPrefectureName,enCityName,enAddressOutside,furigana,hihyoji
13,1010003040660,登記記録の閉鎖等,0,2025-07-22,2025-06-25,合同会社クロノス,,合同会社,東京都,千代田区,丸の内１丁目４番１号東京共同会計事務所内,,13,101,1000005,,,2025-06-25,清算の結了等,,,2023-05-24,1,,,,,クロノス,0
20,1010501019198,登記記録の閉鎖等,0,2025-07-22,2025-06-23,株式会社イー・エフ・オー,,株式会社,東京都,台東区,東上野３丁目１５番１１号,,13,106,1100015,,,2025-06-23,清算の結了等,,,2015-10-05,1,,,,,イーエフオー,0
24,1010701045390,登記記録の閉鎖等,0,2025-07-22,2025-07-07,ワイカホン株式会社,,株式会社,東京都,品川区,東五反田２丁目５－２・３０６号室,,13,109,1410022,,,2025-07-07,清算の結了等,,,2024-01-11,1,,,,,ワイカホン,0
46,1011302016640,登記記録の閉鎖等,0,2025-07-22,2025-07-04,有限会社オサダメディカル,,有限会社,東京都,杉並区,阿佐谷南３丁目３８番３２号林ビル１０２,,13,115,1660004,,,2025-07-04,清算の結了等,,,2015-10-05,1,,,,,オサダメディカル,0
52,1012301000172,登記記録の閉鎖等,0,2025-07-22,2025-07-14,株式会社東建設研究所,,株式会社,東京都,町田市,成瀬が丘２丁目２３番地１１,,13,209,1940011,,,2025-07-14,合併による解散等,6021001000741,令和７年７月１日神奈川県藤沢市長後６７８番地丸屋本店ビル２Ｆ株式会社サンエンジ・東研究所（6021001000741）に合併し解散,2015-10-05,1,,,,,ヒガシケンセツケンキュウジョ,0
55,1012401034129,登記記録の閉鎖等,0,2025-07-22,2025-06-30,株式会社アミー,,株式会社,東京都,港区,赤坂４丁目１５番１号,,13,103,1070052,,,2025-06-30,清算の結了等,,,2018-06-28,1,,,,,アミー,0
59,1013301044309,登記記録の閉鎖等,0,2025-07-22,2025-07-10,朗為株式会社,,株式会社,神奈川県,横浜市中区,本郷町３丁目１３７番２号,,14,104,2310843,,,2025-07-10,清算の結了等,,,2019-08-06,1,,,,,ロウイ,0
91,1040002090324,登記記録の閉鎖等,0,2025-07-22,2025-07-01,有限会社少名子,,有限会社,千葉県,柏市,北柏１丁目２番７号,,12,217,2770832,,,2025-07-01,清算の結了等,,,2015-10-05,1,,,,,ショウナゴ,0
92,1040002098549,登記記録の閉鎖等,0,2025-07-22,2025-07-01,有限会社サワダサービス,,有限会社,千葉県,野田市,下三ケ尾３５２番地１,,12,208,2780014,,,2025-07-01,合併による解散等,8011001092497,令和７年７月１日千葉県野田市下三ケ尾３２７番地５株式会社ＩＫコーポレーション（8011001092497）に合併し解散,2015-10-05,1,,,,,サワダサービス,0
100,1060001030155,登記記録の閉鎖等,0,2025-07-22,2025-07-07,株式会社ＴＡＣ,,株式会社,栃木県,足利市,堀込町２９２５番地５,,09,202,3260831,,,2025-07-07,清算の結了等,,,2018-01-18,1,,,,,ティーエーシー,0
107,1080401020225,登記記録の閉鎖等,0,2025-07-22,2025-07-10,株式会社日本ピアノ設計国際企画,,株式会社,静岡県,浜松市中央区,幸４丁目３１番２号,,22,138,4338123,,,2025-07-10,清算の結了等,,,2015-10-05,1,,,,,ニホンピアノセッケイコクサイキカク,0
116,1120001019299,登記記録の閉鎖等,0,2025-07-22,2025-07-11,株式会社大阪紙工業所,,株式会社,大阪府,大阪市生野区,田島３丁目４番２号,,27,116,5440011,,,2025-07-11,清算の結了等,,,2015-10-05,1,,,,,オオサカシコウギョウショ,0
120,1120001149451,登記記録の閉鎖等,0,2025-07-22,2025-07-09,桑田住宅株式会社,,株式会社,大阪府,枚方市,町楠葉１丁目８番６号,,27,210,5731106,,,2025-07-09,清算の結了等,,,2015-10-05,1,,,,,クワタジュウタク,0
122,1120001164054,登記記録の閉鎖等,0,2025-07-22,2025-07-11,株式会社エルグラン,,株式会社,大阪府,東大阪市,荒本西３丁目２番２５号,,27,227,5770024,,,2025-07-11,清算の結了等,,,2015-10-05,1,,,,,エルグラン,0
128,1120002064154,登記記録の閉鎖等,0,2025-07-22,2025-07-09,有限会社プロガイドサービス,,有限会社,大阪府,大阪市北区,中津５丁目９番２号,,27,127,5310071,,,2025-07-09,清算の結了等,,,2015-10-05,1,,,,,プロガイドサービス,0
145,1122005002842,登記記録の閉鎖等,0,2025-07-22,2025-07-03,特定非営利活動法人るんるん,,その他の設立登記法人,大阪府,東大阪市,東石切町４丁目８番１４号,,27,227,5798011,,,2025-07-03,清算の結了等,,,2015-10-05,1,,,,,ルンルン,0
170,1180301013806,登記記録の閉鎖等,0,2025-07-22,2025-07-07,小野鍛工株式会社,,株式会社,愛知県,刈谷市,一里山町柳原２番地３,,23,210,4480002,,,2025-07-07,清算の結了等,,,2015-10-05,1,,,,,オノタンコウ,0
171,1180301016008,登記記録の閉鎖等,0,2025-07-22,2025-07-01,株式会社スマイルガス,,株式会社,愛知県,刈谷市,野田町馬池３番地１,,23,210,4480803,,,2025-07-01,合併による解散等,8180301014392,令和７年７月１日愛知県刈谷市野田町馬池３番地１東海スマート企業グループ株式会社（8180301014392）に合併し解散,2015-10-05,1,,,,,スマイルガス,0
172,1180301016271,登記記録の閉鎖等,0,2025-07-22,2025-07-16,アルファホーム名古屋株式会社,,株式会社,愛知県,名古屋市瑞穂区,妙音通２丁目４１番地２,,23,108,4670842,,,2025-07-16,合併による解散等,1180301013987,令和７年７月１日愛知県刈谷市小垣江町大津崎１番地２８クレフォートグループ株式会社（1180301013987）に合併し解散,2015-10-05,1,,,,,アルファホームナゴヤ,0
174,1180302010975,登記記録の閉鎖等,0,2025-07-22,2025-07-07,有限会社桑名商店,,有限会社,愛知県,田原市,福江町浜田２１番地,,23,231,4413617,,,2025-07-07,清算の結了等,,,2015-10-05,1,,,,,クワナショウテン,0
175,1180302023572,登記記録の閉鎖等,0,2025-07-22,2025-07-07,有限会社ＭＡＲＵＴＯＨ,,有限会社,愛知県,岡崎市,矢作町字市場３１番地４,,23,202,4440943,,,2025-07-07,清算の結了等,,,2015-10-05,1,,,,,マルトウ,0
176,1180302024505,登記記録の閉鎖等,0,2025-07-22,2025-07-08,有限会社サンシュウ建設,,有限会社,愛知県,豊田市,久木町宮ノ洞４３番地１,,23,211,4442506,,,2025-07-08,清算の結了等,,,2015-10-05,1,,,,,サンシュウケンセツ,0
178,1190002002198,登記記録の閉鎖等,0,2025-07-22,2025-07-03,有限会社和光,,有限会社,三重県,津市,一志町庄村４５５番地の４,,24,201,5152501,,,2025-07-03,合併による解散等,1190002004871,令和７年６月３０日三重県亀山市下庄町５９５番地株式会社マツヤ（1190002004871）に合併し解散,2015-10-05,1,,,,,ワコウ,0
197,1260001008825,登記記録の閉鎖等,0,2025-07-22,2025-06-27,株式会社灘崎産業,00126821,株式会社,岡山県,岡山市南区,西高崎５番地,,33,104,7091204,,,2025-06-27,清算の結了等,,,2022-06-15,1,,,,,ナダサキサンギョウ,0
203,1290001041352,登記記録の閉鎖等,0,2025-07-22,2025-07-10,株式会社イマフク,,株式会社,福岡県,福岡市南区,野多目５丁目１５番２２号,,40,134,8111347,,,2025-07-10,清算の結了等,,,2015-10-05,1,,,,,イマフク,0
204,1290001099151,登記記録の閉鎖等,0,2025-07-22,2025-07-10,株式会社ハイ・スリー,,株式会社,福岡県,福岡市早良区,百道浜３丁目３番６－４０７号,,40,137,8140001,,,2025-07-10,清算の結了等,,,2022-10-12,1,,,,,ハイスリー,0
216,1330002025102,登記記録の閉鎖等,0,2025-07-22,2025-07-01,有限会社アコード,,有限会社,熊本県,宇土市,境目町１０４５番地５,,43,211,8690417,,,2025-07-01,清算の結了等,,,2015-10-05,1,,,,,アコード,0
223,1370201003846,登記記録の閉鎖等,0,2025-07-22,2025-06-30,株式会社ソウデンシャ,,株式会社,宮城県,仙台市泉区,高森２丁目１番地の４７エバーグリーンシティ・高森１７０７号室,,04,105,9813203,,,2025-06-30,清算の結了等,,,2015-10-05,1,,,,,ソウデンシャ,0
228,1420005002700,登記記録の閉鎖等,0,2025-07-22,2025-07-01,医療法人池谷歯科医院,,その他の設立登記法人,青森県,八戸市,柏崎５丁目４番１７号,,02,203,0310081,,,2025-07-01,清算の結了等,,,2015-10-05,1,,,,,イケヤシカイイン,0
245,2010001239799,登記記録の閉鎖等,0,2025-07-22,2025-07-01,株式会社Ｐｒｅｆｅｒｒｅｄ　Ｅｌｅｍｅｎｔｓ,,株式会社,東京都,千代田区,大手町１丁目６番１号大手町ビル,,13,101,1000004,,,2025-07-01,合併による解散等,1010001159494,令和７年７月１日東京都千代田区大手町一丁目６番１号大手町ビル株式会社Ｐｒｅｆｅｒｒｅｄ　Ｎｅｔｗｏｒｋｓ（1010001159494）に合併し解散,2023-11-09,1,,,,,プリファードエレメンツ,0
257,2010601037339,登記記録の閉鎖等,0,2025-07-22,2025-07-07,株式会社バーンスター,,株式会社,東京都,江東区,南砂２丁目３番２－４１１号,,13,108,1360076,,,2025-07-07,清算の結了等,,,2015-10-05,1,,,,,バーンスター,0
258,2010803002875,登記記録の閉鎖等,0,2025-07-22,2025-07-09,合同会社ぴよちゃん,,合同会社,東京都,大田区,北馬込２丁目１０番２－７０２号,,13,111,1430021,,,2025-07-09,清算の結了等,,,2018-12-13,1,,,,,ピヨチャン,0
266,2011101105602,登記記録の閉鎖等,0,2025-07-22,2025-06-20,株式会社近商リサーチバンク,,株式会社,東京都,新宿区,新宿２丁目９番２２号多摩川新宿ビル,,13,104,1600022,,,2025-06-20,清算の結了等,,,2023-12-26,1,,,,,オウショウリサーチバンク,0
277,2011801018541,登記記録の閉鎖等,0,2025-07-22,2025-07-14,株式会社アップフィールド,,株式会社,東京都,足立区,梅島３丁目３２番２５号,,13,121,1210816,,,2025-07-14,清算の結了等,,,2015-10-05,1,,,,,アップフィールド,0
283,2012302000253,登記記録の閉鎖等,0,2025-07-22,2025-07-08,アールアンドアールエージェンシー有限会社,,有限会社,東京都,町田市,能ヶ谷７丁目３９番１３号,,13,209,1950053,,,2025-07-08,清算の結了等,,,2015-10-05,1,,,,,,0
285,2012703001908,登記記録の閉鎖等,0,2025-07-22,2025-07-07,合同会社スモフラ,,合同会社,東京都,練馬区,豊玉南１丁目１９－３－３０２,,13,120,1760014,,,2025-07-07,清算の結了等,,,2020-01-14,1,,,,,スモフラ,0
286,2012801003269,登記記録の閉鎖等,0,2025-07-22,2025-07-07,株式会社ネクスメディア,,株式会社,東京都,東大和市,高木３丁目３５１番地１,,13,220,2070005,,,2025-07-07,清算の結了等,,,2015-10-05,1,,,,,ネクスメディア,0
300,2030001023986,登記記録の閉鎖等,0,2025-07-22,2025-07-10,株式会社栗原金物店,,株式会社,埼玉県,所沢市,元町２１番１９号,,11,208,3591121,,,2025-07-10,清算の結了等,,,2015-10-05,1,,,,,クリハラカナモノテン,0
323,2070003003149,登記記録の閉鎖等,0,2025-07-22,2025-07-08,合同会社柔道整復ＩＭ,,合同会社,群馬県,みどり市,大間々町大間々４７４番地６,,10,212,3760101,,,2025-07-08,清算の結了等,,,2018-04-06,1,,,,,ジュウドウセイフクアイエム,0
327,2080101012001,登記記録の閉鎖等,0,2025-07-22,2025-07-10,株式会社アクアクララ朝霧,,株式会社,静岡県,富士宮市,人穴２０３番地の３３,,22,207,4180102,,,2025-07-10,清算の結了等,,,2015-10-05,1,,,,,アクアクララアサギリ,0
335,2090001005178,登記記録の閉鎖等,0,2025-07-22,2025-07-01,株式会社積隆銀行,,株式会社,山梨県,南アルプス市,西野７１番地,,19,208,4000213,,,2025-07-01,清算の結了等,,,2015-10-05,1,,,,,セキリュウギンコウ,0
359,2120002012368,登記記録の閉鎖等,0,2025-07-22,2025-07-10,有限会社和光工業,,有限会社,大阪府,大阪市平野区,長吉六反２丁目１番３２号,,27,126,5470012,,,2025-07-10,清算の結了等,,,2015-10-05,1,,,,,ワコウコウギョウ,0
361,2120005021127,登記記録の閉鎖等,0,2025-07-22,2025-07-15,一般社団法人全日本学生留学支援協会,,その他の設立登記法人,大阪府,大阪市城東区,蒲生１丁目１番１３号,,27,118,5360016,,,2025-07-15,清算の結了等,,,2019-09-13,1,,,,,ゼンニホンガクセイリュウガクシエンキョウカイ,0
389,2180002060592,登記記録の閉鎖等,0,2025-07-22,2025-07-01,有限会社エムティケイ,,有限会社,愛知県,名古屋市緑区,平子が丘３００１番地,,23,114,4580826,,,2025-07-01,清算の結了等,,,2015-10-05,1,,,,,エムティケイ,0
391,2180301013854,登記記録の閉鎖等,0,2025-07-22,2025-07-01,株式会社ガステクノサーブ,,株式会社,愛知県,刈谷市,中島町３丁目７６番地１,,23,210,4480815,,,2025-07-01,合併による解散等,8180301014392,令和７年７月１日愛知県刈谷市野田町馬池３番地１東海スマート企業グループ株式会社（8180301014392）に合併し解散,2015-10-05,1,,,,,ガステクノサーブ,0
392,2180301034462,登記記録の閉鎖等,0,2025-07-22,2025-07-07,ＳＫＹ‐ｊｏｉｎｔ株式会社,,株式会社,愛知県,岡崎市,本宿町字柿崎１２番地４,,23,202,4443505,,,2025-07-07,清算の結了等,,,2020-12-25,1,,,,,スカイジョイント,0
403,2210001002724,登記記録の閉鎖等,0,2025-07-22,2025-07-10,株式会社パナテック,,株式会社,福井県,越前市,家久町第４６号２０番地,,18,209,9150801,,,2025-07-10,清算の結了等,,,2015-10-05,1,,,,,パナテック,0
408,2240003006225,登記記録の閉鎖等,0,2025-07-22,2025-07-04,ＴＩＥＮ　ＨＵＯＮＧ　ＴＰ　ＶＩＥＴ合同会社,,合同会社,広島県,福山市,新市町戸手４６番地６,,34,207,7210000,,,2025-07-04,清算の結了等,,,2023-07-19,1,,,,,ティエンホアンティーピーベト,0
417,2290001086818,登記記録の閉鎖等,0,2025-07-22,2025-07-01,株式会社Ｏ・Ｓ・Ｃｈｅｅｅ,,株式会社,福岡県,朝倉郡筑前町,二１９２番地５,,40,447,8380228,,,2025-07-01,合併による解散等,6290001067698,令和７年７月１日福岡県朝倉郡筑前町二１９２番地１株式会社真生堂（6290001067698）に合併し解散,2019-10-09,1,,,,,オーエスチー,0
428,2300002006475,登記記録の閉鎖等,0,2025-07-22,2025-07-16,有限会社パーム・ド・ミニ,,有限会社,佐賀県,武雄市,山内町大字宮野２７１０５番地,,41,206,8492305,,,2025-07-16,清算の結了等,,,2015-10-05,1,,,,,パームドミニ,0
431,2320001011037,登記記録の閉鎖等,0,2025-07-22,2025-07-10,耶馬溪観光ホテル株式会社,,株式会社,大分県,中津市,蛭子町３丁目６５番地エスパシオ日進４０１号室,,44,203,8710065,,,2025-07-10,清算の結了等,,,2015-10-05,1,,,,,ヤバケイカンコウホテル,0
433,2330002006654,登記記録の閉鎖等,0,2025-07-22,2025-07-03,有限会社田上石油,,有限会社,熊本県,熊本市東区,若葉６丁目４番２８号,,43,102,8612103,,,2025-07-03,清算の結了等,,,2015-10-05,1,,,,,タノウエセキユ,0
438,2360002010463,登記記録の閉鎖等,0,2025-07-22,2025-07-02,有限会社グランド産業,,有限会社,沖縄県,島尻郡南風原町,字兼城６６５番地２,,47,350,9011111,,,2025-07-02,清算の結了等,,,2015-10-05,1,,,,,グランドサンギョウ,0
461,3010001235293,登記記録の閉鎖等,0,2025-07-22,2025-07-09,株式会社Ｎｏｎｆｉｃｔｉｏｎ,,株式会社,神奈川県,横浜市神奈川区,高島台５番地１２ロワール５号室,,14,102,2210833,,,2025-07-09,清算の結了等,,,2023-05-18,1,,,,,ノンフィクション,0
481,3010501047404,登記記録の閉鎖等,0,2025-07-22,2025-07-01,株式会社ＡＴＴ,,株式会社,東京都,台東区,東上野１丁目７番１３号５Ｆ,,13,106,1100015,,,2025-07-01,合併による解散等,6013301039980,令和７年７月１日東京都台東区東上野一丁目７番１３号５Ｆ株式会社イーストコーポレーション（6013301039980）に合併し解散,2021-06-07,1,,,,,エーティーティー,0
488,3010801023518,登記記録の閉鎖等,0,2025-07-22,2025-07-09,株式会社ＪＣＴ,,株式会社,東京都,品川区,北品川１丁目２３番１号,,13,109,1400001,,,2025-07-09,清算の結了等,,,2015-10-05,1,,,,,ジェイシーティ,0
502,3011105007918,登記記録の閉鎖等,0,2025-07-22,2025-06-25,ＮＰＯ法人ｉＴｅａｃｈｅｒｓ　Ａｃａｄｅｍｙ,,その他の設立登記法人,東京都,新宿区,新宿１丁目３０番１１号ビルプランタン２階,,13,104,1600022,,,2025-06-25,清算の結了等,,,2017-07-31,1,,,,,アイティーチャーズアカデミー,0
503,3011301007597,登記記録の閉鎖等,0,2025-07-22,2025-07-09,株式会社ワミー,,株式会社,東京都,杉並区,浜田山１丁目２８番４号,,13,115,1680065,,,2025-07-09,清算の結了等,,,2015-10-05,1,,,,,ワミー,0
534,3030001104884,登記記録の閉鎖等,0,2025-07-22,2025-07-01,観世音センター株式会社,,株式会社,埼玉県,飯能市,大字上名栗３１９６番地,,11,209,3570111,,,2025-07-01,合併による解散等,2030001103714,令和７年７月１日埼玉県飯能市大字上名栗３１９３番地１鳥居観光株式会社（2030001103714）に合併し解散,2015-10-05,1,,,,,カンゼオンセンター,0
544,3040003019122,登記記録の閉鎖等,0,2025-07-22,2025-07-01,合同会社ａｒｒｏｗｓ,,合同会社,千葉県,千葉市若葉区,都賀５丁目２４番地２１フローテラス都賀２０２号室,,12,104,2640025,,,2025-07-01,清算の結了等,,,2021-12-17,1,,,,,アローズ,0
553,3060003001318,登記記録の閉鎖等,0,2025-07-22,2025-07-07,木村化成合同会社,,合同会社,栃木県,栃木市,西方町真名子４０６番地,,09,203,3220605,,,2025-07-07,清算の結了等,,,2015-10-05,1,,,,,キムラカセイ,0
560,3070002002092,登記記録の閉鎖等,0,2025-07-22,2025-07-08,有限会社小曽根硝子,,有限会社,群馬県,前橋市,池端町１７５番地１,,10,201,3703571,,,2025-07-08,清算の結了等,,,2015-10-05,1,,,,,コゾネガラス,0
567,3080402004241,登記記録の閉鎖等,0,2025-07-22,2025-07-11,有限会社鈴仙,,有限会社,静岡県,浜松市中央区,上島２丁目２５番１３号,,22,138,4338122,,,2025-07-11,清算の結了等,,,2015-10-05,1,,,,,スズセン,0
573,3110002010322,登記記録の閉鎖等,0,2025-07-22,2025-07-01,有限会社ホクセイ,,有限会社,新潟県,新潟市南区,保坂字岡下３５３番地１,,15,106,9501233,,,2025-07-01,清算の結了等,,,2015-10-05,1,,,,,,0
606,3140001090692,登記記録の閉鎖等,0,2025-07-22,2025-07-14,光洋ファシリティサービス株式会社,,株式会社,大阪府,大阪市中央区,千日前１丁目４番８号,,27,128,5420074,,,2025-07-14,合併による解散等,7120001248594,令和７年７月１日大阪市中央区南船場二丁目５番８号富士ファシリティサービス株式会社（7120001248594）に合併し解散,2015-10-05,1,,,,,コウヨウファシリティサービス,0
609,3140002062410,登記記録の閉鎖等,0,2025-07-22,2025-07-08,有限会社高橋精工所,,有限会社,兵庫県,加西市,北条町西高室５０３番地の１,,28,220,6752322,,,2025-07-08,清算の結了等,,,2015-10-05,1,,,,,タカハシセイコウショ,0
621,3180302004034,登記記録の閉鎖等,0,2025-07-22,2025-07-07,有限会社まるそう,,有限会社,愛知県,岡崎市,板屋町１８５番地２,,23,202,4440053,,,2025-07-07,清算の結了等,,,2015-10-05,1,,,,,マルソウ,0
627,3190002024067,登記記録の閉鎖等,0,2025-07-22,2025-07-07,有限会社昴,,有限会社,三重県,四日市市,三重３丁目３番地,,24,202,5120912,,,2025-07-07,清算の結了等,,,2015-10-05,1,,,,,スバル,0
630,3200001005033,登記記録の閉鎖等,0,2025-07-22,2025-07-17,株式会社丸庄石田産業,,株式会社,岐阜県,岐阜市,六条南２丁目６番９号,,21,201,5008358,,,2025-07-17,清算の結了等,,,2015-10-05,1,,,,,,0
635,3220002001938,登記記録の閉鎖等,0,2025-07-22,2025-07-16,神戸建材有限会社,,有限会社,石川県,金沢市,神野町西２６８番地１,,17,201,9200365,,,2025-07-16,清算の結了等,,,2015-10-05,1,,,,,カンベケンザイ,0
653,3290001107283,登記記録の閉鎖等,0,2025-07-22,2025-07-02,ＭＯＥ株式会社,,株式会社,福岡県,福岡市博多区,博多駅前１丁目２３番２号ＰａｒｋＦｒｏｎｔ博多駅前１丁目５ＦＢ,,40,132,8120011,,,2025-07-02,清算の結了等,,,2024-09-20,1,,,,,エムオーイー,0
661,3290801027103,登記記録の閉鎖等,0,2025-07-22,2025-07-08,株式会社テッシン,,株式会社,福岡県,北九州市門司区,梅ノ木町３番１６号,,40,101,8000026,,,2025-07-08,清算の結了等,,,2021-01-14,1,,,,,テッシン,0
662,3290802004266,登記記録の閉鎖等,0,2025-07-22,2025-07-09,有限会社輝明物産,,有限会社,福岡県,北九州市小倉北区,都１丁目１４番６号,,40,106,8030834,,,2025-07-09,清算の結了等,,,2015-10-05,1,,,,,,0
673,3370001019198,登記記録の閉鎖等,0,2025-07-22,2025-07-09,株式会社ファーマケーション,,株式会社,宮城県,仙台市青葉区,木町通１丁目８番１８号,,04,101,9800801,,,2025-07-09,合併による解散等,7370201000573,令和７年７月１日宮城県大崎市古川駅南一丁目９番地株式会社医薬品情報センター（7370201000573）に合併し解散,2015-10-05,1,,,,,ファーマケーション,0
676,3390001005452,登記記録の閉鎖等,0,2025-07-22,2025-07-07,株式会社山形学校給食サービス,,株式会社,山形県,山形市,清住町１丁目２番１８号,,06,201,9900834,,,2025-07-07,清算の結了等,,,2015-10-05,1,,,,,ヤマガタガッコウキュウショクサービス,0
689,3470001014123,登記記録の閉鎖等,0,2025-07-22,2025-07-11,株式会社Ｌｉｆｅ　ｃｏｕｎｔｒｙ,,株式会社,香川県,高松市,一宮町７１７－１,,37,201,7618084,,,2025-07-11,清算の結了等,,,2015-10-05,1,,,,,ライフカントリー,0
691,3490002003239,登記記録の閉鎖等,0,2025-07-22,2025-07-17,有限会社田攸商事,,有限会社,高知県,高知市,桜井町２丁目５番１８号,,39,201,7800821,,,2025-07-17,清算の結了等,,,2015-10-05,1,,,,,タドコロショウジ,0
695,4010001239814,登記記録の閉鎖等,0,2025-07-22,2025-07-08,リビンＤＸ株式会社,,株式会社,東京都,中央区,日本橋堀留町１丁目８番１２号,,13,102,1030012,,,2025-07-08,合併による解散等,9010001086161,令和７年７月１日東京都中央区日本橋堀留町一丁目８番１２号リビン・テクノロジーズ株式会社（9010001086161）に合併し解散,2023-11-06,1,,,,,リビンディーエックス,0
702,4010005038114,登記記録の閉鎖等,0,2025-07-22,2025-07-02,一般社団法人みんなでマルシェＣＳＲ,,その他の設立登記法人,東京都,中央区,銀座１丁目２２番１１号２Ｆ,,13,102,1040061,,,2025-07-02,清算の結了等,,,2024-04-11,1,,,,,ミンナデマルシェシーエスアール,0
711,4010501031803,登記記録の閉鎖等,0,2025-07-22,2025-06-23,株式会社バナナトリップ,,株式会社,東京都,台東区,浅草橋１丁目５番２号,,13,106,1110053,,,2025-06-23,清算の結了等,,,2015-10-05,1,,,,,,0
715,4010502000030,登記記録の閉鎖等,0,2025-07-22,2025-07-02,有限会社浅井商会,,有限会社,東京都,台東区,下谷２丁目１５番１２号,,13,106,1100004,,,2025-07-02,清算の結了等,,,2015-10-05,1,,,,,アサイショウカイ,0
726,4010801021974,登記記録の閉鎖等,0,2025-07-22,2025-07-10,三葉能率テクノ株式会社,,株式会社,東京都,大田区,久が原１丁目３３番３号,,13,111,1460085,,,2025-07-10,清算の結了等,,,2015-10-05,1,,,,,サンヨウノウリツテクノ,0
729,4011001021922,登記記録の閉鎖等,0,2025-07-22,2025-06-20,株式会社前田麻名デザイン事務所,,株式会社,東京都,渋谷区,富ヶ谷１丁目３８番５号ＰＯＷＥＲｓＳＴＡＴＩＯＮ,,13,113,1510063,,,2025-06-20,清算の結了等,,,2015-10-05,1,,,,,マエダマナデザインジムショ,0
739,4011101104528,登記記録の閉鎖等,0,2025-07-22,2025-06-26,株式会社アンチドーテ,,株式会社,東京都,新宿区,新宿２丁目７番３－３０３号,,13,104,1600022,,,2025-06-26,清算の結了等,,,2023-09-28,1,,,,,アンチドーテ,0
751,4012301011811,登記記録の閉鎖等,0,2025-07-22,2025-07-07,株式会社ＧｏｏＤ,,株式会社,東京都,町田市,原町田６丁目１０番３号１Ｆ,,13,209,1940013,,,2025-07-07,清算の結了等,,,2019-07-30,1,,,,,グッド,0
758,4020001142397,登記記録の閉鎖等,0,2025-07-22,2025-07-07,株式会社ＧＨＯＳＴ　ＤＩＮＩＮＧ,,株式会社,神奈川県,横浜市南区,中島町２丁目２７番地２ＧＳハイム蒔田１０２,,14,105,2320055,,,2025-07-07,清算の結了等,,,2021-07-29,1,,,,,ゴーストダイニング,0
766,4020002099348,登記記録の閉鎖等,0,2025-07-22,2025-07-16,みつる自動車有限会社,,有限会社,神奈川県,川崎市川崎区,京町２丁目１番１９号,,14,131,2100848,,,2025-07-16,清算の結了等,,,2015-10-05,1,,,,,ミツルジドウシャ,0
768,4020003016070,登記記録の閉鎖等,0,2025-07-22,2025-07-07,合同会社マジカル,,合同会社,神奈川県,横浜市西区,北幸２丁目１０番２８号むつみビル３Ｆ,,14,103,2200004,,,2025-07-07,清算の結了等,,,2019-05-21,1,,,,,マジカル,0
787,4030001117803,登記記録の閉鎖等,0,2025-07-22,2025-07-11,株式会社メモリーズ,,株式会社,埼玉県,吉川市,きよみ野４丁目１８番地４,,11,243,3420058,,,2025-07-11,清算の結了等,,,2016-12-21,1,,,,,メモリーズ,0
791,4030002078524,登記記録の閉鎖等,0,2025-07-22,2025-07-09,有限会社弘建工,,有限会社,埼玉県,川越市,大字小堤３５２番地グリーンハイツ１０３号,,11,201,3500811,,,2025-07-09,清算の結了等,,,2015-10-05,1,,,,,ヒロケンコウ,0
799,4040001122323,登記記録の閉鎖等,0,2025-07-22,2025-07-02,株式会社ＫＨＣＷ,,株式会社,千葉県,千葉市美浜区,中瀬１丁目３番地幕張テクノガーデン,,12,106,2610023,,,2025-07-02,清算の結了等,,,2022-02-24,1,,,,,ケーエイチシーダブリュー,0
821,4120001190849,登記記録の閉鎖等,0,2025-07-22,2025-07-11,株式会社ＷＥＬＬ　ＧＬＯＲＹ８１,,株式会社,大阪府,大阪市天王寺区,上汐３丁目４番８号柯風居２０１,,27,109,5430002,,,2025-07-11,清算の結了等,,,2015-10-05,1,,,,,ウエルグローリーハチジュウイチ,0
842,4122001000806,登記記録の閉鎖等,0,2025-07-22,2025-07-11,株式会社エスケーシー,,株式会社,大阪府,東大阪市,稲田上町１丁目１３番１６号,,27,227,5770002,,,2025-07-11,清算の結了等,,,2015-10-05,1,,,,,エスケーシー,0
843,4122005000348,登記記録の閉鎖等,0,2025-07-22,2025-07-03,大阪せんべい協同組合,,その他の設立登記法人,大阪府,東大阪市,三島３丁目１番１２号株式会社播彦内,,27,227,5780966,,,2025-07-03,清算の結了等,,,2015-10-05,1,,,,,オオサカセンベイ,0
844,4130002001566,登記記録の閉鎖等,0,2025-07-22,2025-07-07,有限会社松宮自動車,,有限会社,京都府,京都市右京区,西院清水町８２番地の４,,26,108,6150052,,,2025-07-07,清算の結了等,,,2015-10-05,1,,,,,マツミヤジドウシャ,0
845,4130002012704,登記記録の閉鎖等,0,2025-07-22,2025-07-07,有限会社ファッションヒコ,,有限会社,京都府,京都市山科区,竹鼻西ノ口町７番地の１１,,26,110,6078089,,,2025-07-07,清算の結了等,,,2015-10-05,1,,,,,ファッションヒコ,0
849,4140002058515,登記記録の閉鎖等,0,2025-07-22,2025-07-08,有限会社ビリウィッシュ,,有限会社,兵庫県,西宮市,上甲子園３丁目１番２７号,,28,204,6638114,,,2025-07-08,清算の結了等,,,2015-10-05,1,,,,,ビリウィッシュ,0
861,4180001149740,登記記録の閉鎖等,0,2025-07-22,2025-07-01,株式会社プラッツ,,株式会社,愛知県,名古屋市南区,豊２丁目１３番２７号,,23,112,4570863,,,2025-07-01,合併による解散等,1180001110671,令和７年７月１日名古屋市南区豊二丁目１３番２７号株式会社イグナーツ（1180001110671）に合併し解散,2022-02-04,1,,,,,プラッツ,0
865,4180002066324,登記記録の閉鎖等,0,2025-07-22,2025-07-02,有限会社白山亭,,有限会社,愛知県,春日井市,味美白山町２丁目５番地の７,,23,206,4860969,,,2025-07-02,清算の結了等,,,2015-10-05,1,,,,,ハクサンテイ,0
874,4190002004877,登記記録の閉鎖等,0,2025-07-22,2025-07-03,マツオ精工有限会社,,有限会社,三重県,亀山市,下庄町７６６番地の１,,24,210,5190133,,,2025-07-03,合併による解散等,1190002004871,令和７年６月３０日三重県亀山市下庄町５９５番地株式会社マツヤ（1190002004871）に合併し解散,2015-10-05,1,,,,,マツオセイコウ,0
880,4220001005121,登記記録の閉鎖等,0,2025-07-22,2025-07-15,株式会社日本産業,,株式会社,石川県,金沢市,泉野出町２丁目２２番６号,,17,201,9218116,,,2025-07-15,清算の結了等,,,2015-10-05,1,,,,,ニホンサンギョウ,0
886,4230001012892,登記記録の閉鎖等,0,2025-07-22,2025-07-14,株式会社シミズ,,株式会社,富山県,射水市,戸破４３３１番地１,,16,211,9390351,,,2025-07-14,合併による解散等,6030001066965,令和７年６月１日埼玉県北葛飾郡松伏町築比地７９５番地１株式会社ウィーズ（6030001066965）に合併し解散,2015-10-05,1,,,,,シミズ,0
893,4240002021149,登記記録の閉鎖等,0,2025-07-22,2025-07-10,有限会社泰佳堂,,有限会社,広島県,広島市中区,上八丁堀８番１６号,,34,101,7300012,,,2025-07-10,清算の結了等,,,2015-10-05,1,,,,,タイケイドウ,0
940,4420001013005,登記記録の閉鎖等,0,2025-07-22,2025-07-02,佐々木フレーム株式会社,,株式会社,青森県,十和田市,大字伝法寺字大窪５９番地８,,02,206,0340051,,,2025-07-02,清算の結了等,,,2015-10-05,1,,,,,ササキフレーム,0
945,4460101001401,登記記録の閉鎖等,0,2025-07-22,2025-07-14,株式会社大洋薬品北海道,,株式会社,北海道,帯広市,東四条南２２丁目１０番地７,,01,207,0800804,,,2025-07-14,合併による解散等,6030001066965,令和７年６月１日埼玉県北葛飾郡松伏町築比地７９５番地１株式会社ウィーズ（6030001066965）に合併し解散,2015-10-05,1,,,,,タイヨウヤクヒンホッカイドウ,0
949,4470001020509,登記記録の閉鎖等,0,2025-07-22,2025-06-20,株式会社ｆｏｒＮ,,株式会社,東京都,渋谷区,道玄坂１丁目１０番８号渋谷道玄坂東急ビル２Ｆ－Ｃ,,13,113,1500043,,,2025-06-20,清算の結了等,,,2024-12-26,1,,,,,フォーエヌ,0
953,4480001000542,登記記録の閉鎖等,0,2025-07-22,2025-07-01,共正汽船株式会社,,株式会社,徳島県,徳島市,中洲町３丁目５番地１,,36,201,7700856,,,2025-07-01,合併による解散等,7480001000531,令和７年７月１日徳島市中洲町三丁目５番地１共正海運株式会社（7480001000531）に合併し解散,2015-10-05,1,,,,,キョウショウキセン,0
955,4500001015901,登記記録の閉鎖等,0,2025-07-22,2025-07-09,株式会社サンファッション,,株式会社,愛媛県,宇和島市,津島町近家甲３番地２,,38,203,7983303,,,2025-07-09,清算の結了等,,,2015-10-05,1,,,,,,0
956,5010001091405,登記記録の閉鎖等,0,2025-07-22,2025-06-27,健康医学研究所株式会社,,株式会社,東京都,中央区,日本橋小伝馬町７番１４号,,13,102,1030001,,,2025-06-27,清算の結了等,,,2015-10-05,1,,,,,ケンコウイガクケンキュウジョ,0
957,5010001119115,登記記録の閉鎖等,0,2025-07-22,2025-07-10,株式会社トータルダイニング,,株式会社,兵庫県,たつの市,揖西町小犬丸７５９番地,,28,229,6794021,,,2025-07-10,清算の結了等,,,2015-10-05,1,,,,,トータルダイニング,0
973,5010401130638,登記記録の閉鎖等,0,2025-07-22,2025-06-26,株式会社ＡＹＮＩＬ,,株式会社,東京都,港区,東麻布２丁目２９番４－７０２号,,13,103,1060044,,,2025-06-26,合併による解散等,3010401133849,令和７年６月１日東京都港区麻布台三丁目４番１２号麻布台ロイヤルプラザ１０２株式会社ＣＵＳＴＯＭＡＤＥ（3010401133849）に合併し解散,2017-04-06,1,,,,,アイニル,0
977,5010403033236,登記記録の閉鎖等,0,2025-07-22,2025-06-30,合同会社ｉｎｆｉｎｉｔｙ,,合同会社,東京都,港区,麻布十番２丁目２０番１０号麻布フラット３０１,,13,103,1060045,,,2025-06-30,清算の結了等,,,2024-08-19,1,,,,,インフィニティ,0
981,5010601039324,登記記録の閉鎖等,0,2025-07-22,2025-06-30,株式会社ＹＳホールディングス,,株式会社,東京都,港区,浜松町２丁目２番１５号２Ｆ,,13,103,1050013,,,2025-06-30,合併による解散等,8011001145065,令和７年６月３０日東京都港区浜松町二丁目２番１５号２Ｆ株式会社トラストホールディングス（8011001145065）に合併し解散,2015-10-05,1,,,,,ワイエスホールディングス,0
987,5010801023714,登記記録の閉鎖等,0,2025-07-22,2025-07-09,株式会社天竜,,株式会社,東京都,大田区,西蒲田７丁目５番６号,,13,111,1440051,,,2025-07-09,清算の結了等,,,2015-10-05,1,,,,,,0
993,5011001145324,登記記録の閉鎖等,0,2025-07-22,2025-06-23,キャリアトラック株式会社,,株式会社,東京都,渋谷区,道玄坂１丁目１０番８号渋谷道玄坂東急ビル２Ｆ－Ｃ,,13,113,1500043,,,2025-06-23,清算の結了等,,,2022-02-02,1,,,,,キャリアトラック,0
1006,5011703003845,登記記録の閉鎖等,0,2025-07-22,2025-07-08,バイトブリッジ合同会社,,合同会社,東京都,江戸川区,西葛西５丁目７番６号,,13,123,1340088,,,2025-07-08,清算の結了等,,,2024-05-27,1,,,,,バイトブリッジ,0
1009,5013201016206,登記記録の閉鎖等,0,2025-07-22,2025-06-20,株式会社サムライコーポレーション,,株式会社,東京都,目黒区,目黒本町２丁目２３番２０号,,13,110,1520002,,,2025-06-20,清算の結了等,,,2015-10-05,1,,,,,サムライコーポレーション,0
1020,5020002020568,登記記録の閉鎖等,0,2025-07-22,2025-07-10,有限会社石谷商会,,有限会社,神奈川県,横浜市南区,八幡町７９番地,,14,105,2320037,,,2025-07-10,清算の結了等,,,2015-10-05,1,,,,,イシタニショウカイ,0
1028,5021001034121,登記記録の閉鎖等,0,2025-07-22,2025-07-11,さがみエステートエージェンシー株式会社,,株式会社,神奈川県,小田原市,本町２丁目９番２５号,,14,206,2500012,,,2025-07-11,清算の結了等,,,2015-10-05,1,,,,,サガミエステート,0
1037,5030001142239,登記記録の閉鎖等,0,2025-07-22,2025-06-30,株式会社Ｆｒｅｇｒｅｓｓ,,株式会社,埼玉県,さいたま市南区,大谷場１丁目９番１７号,,11,108,3360016,,,2025-06-30,清算の結了等,,,2021-05-19,1,,,,,フレグレス,0
1062,5080402017885,登記記録の閉鎖等,0,2025-07-22,2025-07-10,有限会社ケイ・エフ・シー,,有限会社,静岡県,掛川市,葛川４６６番地の２,,22,213,4360074,,,2025-07-10,清算の結了等,,,2015-10-05,1,,,,,ケイエフシー,0
1063,5090005001229,登記記録の閉鎖等,0,2025-07-22,2025-07-08,医療法人木之瀬医院,,その他の設立登記法人,山梨県,中央市,布施２０７４番地,,19,214,4093841,,,2025-07-08,清算の結了等,,,2015-10-05,1,,,,,キノセイイン,0
1085,5120905005705,登記記録の閉鎖等,0,2025-07-22,2025-07-08,一般社団法人大阪府ノルディック・ウォーク連盟,,その他の設立登記法人,大阪府,泉南郡熊取町,朝代東２丁目８番５号,,27,361,5900457,,,2025-07-08,清算の結了等,,,2018-04-13,1,,,,,オオサカフノルディックウォークレンメイ,0
1095,5140001112783,登記記録の閉鎖等,0,2025-07-22,2025-07-11,フリーフライト株式会社,,株式会社,兵庫県,芦屋市,山芦屋町８番１３号,00115812,28,206,6590082,,,2025-07-11,清算の結了等,,,2019-02-20,1,,,,,フリーフライト,0
1107,5180301013513,登記記録の閉鎖等,0,2025-07-22,2025-07-07,カネショー機販株式会社,,株式会社,愛知県,安城市,新明町１０番地６,,23,212,4460019,,,2025-07-07,清算の結了等,,,2015-10-05,1,,,,,カネショーキハン,0
1109,5190001027993,登記記録の閉鎖等,0,2025-07-22,2022-04-27,三銀ファイナンス株式会社,,株式会社,三重県,松阪市,末広町２丁目１９５番地の４,,24,204,5150016,,,2022-04-27,清算の結了等,,,2021-01-29,1,,,,,サンギンファイナンス,0
1111,5200001034377,登記記録の閉鎖等,0,2025-07-22,2025-07-17,株式会社エイトビレッヂ,,株式会社,岐阜県,本巣郡北方町,高屋１１４８番地の１,,21,421,5010458,,,2025-07-17,清算の結了等,,,2017-08-23,1,,,,,,0
1125,5260001006734,登記記録の閉鎖等,0,2025-07-22,2025-07-01,山一建材株式会社,,株式会社,岡山県,岡山市北区,久米２２６番地,,33,101,7010144,,,2025-07-01,清算の結了等,,,2015-10-05,1,,,,,ヤマイチケンザイ,0
1142,5290802009131,登記記録の閉鎖等,0,2025-07-22,2025-07-08,ＮＴＳ有限会社,,有限会社,福岡県,北九州市門司区,大字大里５８５３番地の２０７,,40,101,8000014,,,2025-07-08,清算の結了等,,,2015-10-05,1,,,,,エヌティエス,0
1147,5340003000215,登記記録の閉鎖等,0,2025-07-22,2025-07-03,合名会社大一産業,,合名会社,鹿児島県,鹿児島市,南林寺町１８番９号,,46,201,8920834,,,2025-07-03,清算の結了等,,,2015-10-05,1,,,,,ダイイチサンギョウ,0
1154,5380002031216,登記記録の閉鎖等,0,2025-07-22,2025-07-02,有限会社井上板金,,有限会社,福島県,大沼郡会津美里町,字本郷２９７２番地,,07,447,9696125,,,2025-07-02,清算の結了等,,,2015-10-05,1,,,,,イノウエバンキン,0
1155,5400002009341,登記記録の閉鎖等,0,2025-07-22,2025-06-30,有限会社国益建築,,有限会社,岩手県,北上市,立花１０地割２１番地,,03,206,0240043,,,2025-06-30,清算の結了等,,,2015-10-05,1,,,,,コクエキケンチク,0
1159,5420002010917,登記記録の閉鎖等,0,2025-07-22,2025-07-03,有限会社荒関生花店,,有限会社,青森県,五所川原市,字一ツ谷５０９番地７,,02,205,0370016,,,2025-07-03,清算の結了等,,,2015-10-05,1,,,,,アラセキセイカテン,0
1167,5430002008885,登記記録の閉鎖等,0,2025-07-22,2025-07-03,有限会社澤田,,有限会社,北海道,札幌市東区,北二十二条東１６丁目４番１５号,,01,103,0650022,,,2025-07-03,清算の結了等,,,2015-10-05,1,,,,,サワダ,0
1175,5500002004530,登記記録の閉鎖等,0,2025-07-22,2025-07-10,有限会社エム・エイチ・アイ,,有限会社,愛媛県,松山市,朝生田町１丁目１番２０号,,38,201,7900952,,,2025-07-10,清算の結了等,,,2015-10-05,1,,,,,エムエイチアイ,0
1176,5500002009570,登記記録の閉鎖等,0,2025-07-22,2025-07-10,有限会社サンユー,,有限会社,愛媛県,松山市,土居田町５２１番地６,,38,201,7900056,,,2025-07-10,清算の結了等,,,2015-10-05,1,,,,,サンユー,0
1199,6010401136139,登記記録の閉鎖等,0,2025-07-22,2025-06-30,株式会社Ｇｏｏｄ　Ｌｕｃｋｏｏｎ＆Ｃｏ．,,株式会社,東京都,港区,港南１丁目９番３６号,,13,103,1080075,,,2025-06-30,清算の結了等,,,2018-01-22,1,,,,,グッドラクーンアンドカンパニー,0
1206,6010601055758,登記記録の閉鎖等,0,2025-07-22,2025-07-01,株式会社ＢＥＢＥＲ,,株式会社,静岡県,静岡市駿河区,小鹿３丁目１番５８号,,22,102,4228021,,,2025-07-01,合併による解散等,4080001003255,令和７年７月１日静岡市駿河区小鹿三丁目１番５８号株式会社タカラ・エムシー（4080001003255）に合併し解散,2019-07-04,1,,,,,ベベル,0
1214,6011003010335,登記記録の閉鎖等,0,2025-07-22,2025-06-20,スコトマ合同会社,,合同会社,東京都,渋谷区,渋谷３丁目１番９号ＹＡＺＡＷＡビル３階,,13,113,1500002,,,2025-06-20,清算の結了等,,,2019-09-13,1,,,,,スコトマ,0
1225,6011601023465,登記記録の閉鎖等,0,2025-07-22,2025-07-07,株式会社佐藤計企画,,株式会社,東京都,練馬区,桜台１丁目１９番８号,,13,120,1760002,,,2025-07-07,清算の結了等,,,2019-07-02,1,,,,,サトウケイキカク,0
1240,6020001136918,登記記録の閉鎖等,0,2025-07-22,2025-07-11,株式会社データステップ,,株式会社,神奈川県,横浜市港北区,篠原西町１２番１９号,,14,109,2220025,,,2025-07-11,清算の結了等,,,2020-07-15,1,,,,,データステップ,0
1253,6030001040482,登記記録の閉鎖等,0,2025-07-22,2025-07-11,株式会社詫工業所,,株式会社,埼玉県,八潮市,大字鶴ケ曽根８４０番地１３,,11,234,3400802,,,2025-07-11,清算の結了等,,,2015-10-05,1,,,,,ツゲコウギョウショ,0
1255,6030001072410,登記記録の閉鎖等,0,2025-07-22,2025-07-10,株式会社ハイ・ゲンキ・ツーユー,,株式会社,神奈川県,横浜市青葉区,つつじが丘１７番地２３,,14,117,2270055,,,2025-07-10,清算の結了等,,,2015-10-05,1,,,,,ハイゲンキツーユー,0
1259,6030002117627,登記記録の閉鎖等,0,2025-07-22,2025-07-11,有限会社川井建材興業,,有限会社,埼玉県,行田市,大字真名板１３１番地７,,11,206,3610013,,,2025-07-11,清算の結了等,,,2015-10-05,1,,,,,カワイケンザイコウギョウ,0
1273,6040005006470,登記記録の閉鎖等,0,2025-07-22,2025-06-30,医療法人社団井仁会,,その他の設立登記法人,千葉県,白井市,清水口３丁目２５番４号,,12,232,2701435,,,2025-06-30,清算の結了等,,,2015-10-05,1,,,,,イジンカイ,0
1274,6040005012675,登記記録の閉鎖等,0,2025-07-22,2025-06-25,医療法人社団ひがた内科医院,,その他の設立登記法人,千葉県,旭市,鎌数９４９０番地７,,12,215,2892505,,,2025-06-25,清算の結了等,,,2015-10-05,1,,,,,ヒガタナイカイイン,0
1282,6060002012313,登記記録の閉鎖等,0,2025-07-22,2025-07-07,有限会社永田呉服店,,有限会社,栃木県,塩谷郡高根沢町,大字宝積寺２３８３番地２６,,09,386,3291233,,,2025-07-07,清算の結了等,,,2015-10-05,1,,,,,ナガタゴフクテン,0
1327,6120901042123,登記記録の閉鎖等,0,2025-07-22,2025-07-08,株式会社ビーデレック,,株式会社,大阪府,豊中市,螢池東町４丁目２番１８号,,27,203,5600032,,,2025-07-08,清算の結了等,,,2019-12-11,1,,,,,,0
1338,6180301014378,登記記録の閉鎖等,0,2025-07-22,2025-07-01,株式会社相生開発,,株式会社,愛知県,刈谷市,野田町馬池３番地１,,23,210,4480803,,,2025-07-01,合併による解散等,8180301014392,令和７年７月１日愛知県刈谷市野田町馬池３番地１東海スマート企業グループ株式会社（8180301014392）に合併し解散,2015-10-05,1,,,,,アイオイカイハツ,0
1348,6220001005697,登記記録の閉鎖等,0,2025-07-22,2025-07-15,株式会社ブライダル静,,株式会社,石川県,金沢市,高尾台２丁目３６番地,,17,201,9218155,,,2025-07-15,清算の結了等,,,2015-10-05,1,,,,,ブライダルシズカ,0
1350,6220001018195,登記記録の閉鎖等,0,2025-07-22,2025-07-16,株式会社光明,,株式会社,石川県,河北郡津幡町,字潟端ト３７番地,,17,361,9290346,,,2025-07-16,清算の結了等,,,2015-10-05,1,,,,,コウメイ,0
1354,6240001023838,登記記録の閉鎖等,0,2025-07-22,2025-07-09,株式会社めだか本舗,,株式会社,広島県,東広島市,高屋町造賀４６６５番地,,34,212,7392101,,,2025-07-09,清算の結了等,,,2015-10-05,1,,,,,メダカホンポ,0
1358,6260001003846,登記記録の閉鎖等,0,2025-07-22,2025-06-30,株式会社曽根工務店,,株式会社,岡山県,岡山市南区,西市８０２番地の５,,33,104,7000953,,,2025-06-30,清算の結了等,,,2015-10-05,1,,,,,ソネコウムテン,0
1360,6290001031910,登記記録の閉鎖等,0,2025-07-22,2025-06-30,株式会社奥田政興産,,株式会社,福岡県,福岡市東区,多の津４丁目１２番１１号,,40,131,8130034,,,2025-06-30,清算の結了等,,,2015-10-05,1,,,,,オクダマサコウサン,0
1385,6410001001041,登記記録の閉鎖等,0,2025-07-22,2025-07-16,株式会社グリーン薬局,,株式会社,秋田県,秋田市,外旭川字八幡田２０７番地７,,05,201,0100802,,,2025-07-16,清算の結了等,,,2015-10-05,1,,,,,グリーンヤッキョク,0
1386,6410002006642,登記記録の閉鎖等,0,2025-07-22,2025-07-14,有限会社コスモ広告代理店,,有限会社,秋田県,由利本荘市,大門４３番地,,05,210,0150808,,,2025-07-14,清算の結了等,,,2015-10-05,1,,,,,,0
1388,6440001002318,登記記録の閉鎖等,0,2025-07-22,2025-07-17,株式会社丸八石黒商店,,株式会社,北海道,函館市,昭和２丁目１１番２号,,01,202,0410812,,,2025-07-17,清算の結了等,,,2015-10-05,1,,,,,マルハチイシグロショウテン,0
1396,6460302003384,登記記録の閉鎖等,0,2025-07-22,2025-07-18,有限会社佐藤電器,,有限会社,北海道,網走郡津別町,字一条通３３番地,,01,544,0920215,,,2025-07-18,清算の結了等,,,2015-10-05,1,,,,,サトウデンキ,0
1435,7011003010334,登記記録の閉鎖等,0,2025-07-22,2025-06-20,モーテン合同会社,,合同会社,東京都,渋谷区,渋谷３丁目１番９号ＹＡＺＡＷＡビル３階,,13,113,1500002,,,2025-06-20,清算の結了等,,,2019-09-17,1,,,,,モーテン,0
1445,7011502007211,登記記録の閉鎖等,0,2025-07-22,2025-07-15,有限会社ウシオジョイントボデー,,有限会社,東京都,荒川区,町屋７丁目１３番２０号,,13,118,1160001,,,2025-07-15,清算の結了等,,,2015-10-05,1,,,,,,0
1448,7011602004331,登記記録の閉鎖等,0,2025-07-22,2025-07-07,有限会社三協トレース,,有限会社,東京都,練馬区,高松１丁目１２番２号２Ｆ,,13,120,1790075,,,2025-07-07,清算の結了等,,,2015-10-05,1,,,,,サンキョウトレース,0
1451,7012805002667,登記記録の閉鎖等,0,2025-07-22,2025-07-03,一般社団法人アートインファーム,,その他の設立登記法人,東京都,立川市,富士見町３丁目９番６号,,13,202,1900013,,,2025-07-03,清算の結了等,,,2017-05-16,1,,,,,アートインファーム,0
1452,7013303006375,登記記録の閉鎖等,0,2025-07-22,2025-07-07,合同会社Ｌｉａｍｍｅｓｓａｍ,,合同会社,東京都,小平市,鈴木町２丁目６１４－２０,,13,211,1870011,,,2025-07-07,清算の結了等,,,2022-11-17,1,,,,,リーアムメッサム,0
1461,7020002066642,登記記録の閉鎖等,0,2025-07-22,2025-06-30,有限会社ヨコハママリタイム,,有限会社,東京都,港区,西新橋１丁目１３番１号ＤＬＸビルディング５階,,13,103,1050003,,,2025-06-30,合併による解散等,3010401051563,令和７年６月３０日東京都港区西新橋一丁目１３番１号ＤＬＸビルディング５階株式会社ＮＭＤグループ（3010401051563）に合併し解散,2015-10-05,1,,,,,ヨコハママリタイム,0
1463,7020003027164,登記記録の閉鎖等,0,2025-07-22,2025-07-08,合同会社ＰＷＣ,,合同会社,神奈川県,横浜市港南区,日野中央２丁目３７－１０－１０８,,14,111,2340053,,,2025-07-08,清算の結了等,,,2024-11-13,1,,,,,ピーダブリューシー,0
1473,7030001088125,登記記録の閉鎖等,0,2025-07-22,2025-07-11,株式会社ヒューマン・ビジネス・サポート,,株式会社,埼玉県,深谷市,原郷１９８７番地２,,11,218,3660035,,,2025-07-11,清算の結了等,,,2015-10-05,1,,,,,ヒューマンビジネスサポート,0
1474,7030001088380,登記記録の閉鎖等,0,2025-07-22,2025-07-07,進和建設株式会社,,株式会社,埼玉県,行田市,谷郷１丁目１３番２３号,,11,206,3610062,,,2025-07-07,清算の結了等,,,2015-10-05,1,,,,,シンワケンセツ,0
1483,7040001056147,登記記録の閉鎖等,0,2025-07-22,2025-07-02,株式会社三機,,株式会社,千葉県,市原市,島野１９０８番地１－１０１,,12,219,2900034,,,2025-07-02,清算の結了等,,,2015-10-05,1,,,,,サンキ,0
1489,7040003018500,登記記録の閉鎖等,0,2025-07-22,2025-07-01,合同会社ｅｓｐｏｉｒ,,合同会社,千葉県,長生郡長南町,佐坪１１３１ＫＩＺＵＮＡＨＯＭＥ１２４,,12,427,2970145,,,2025-07-01,清算の結了等,,,2021-09-13,1,,,,,エスポール,0
1501,7110001027891,登記記録の閉鎖等,0,2025-07-22,2025-07-01,株式会社Ｅ・Ｍエンジニアリング,,株式会社,新潟県,南魚沼市,塩沢９９０番地２,,15,226,9496408,,,2025-07-01,清算の結了等,,,2015-10-05,1,,,,,イーエムエンジニアリング,0
1531,7122005003455,登記記録の閉鎖等,0,2025-07-22,2025-07-04,特定非営利活動法人災害避難研究所,,その他の設立登記法人,大阪府,東大阪市,玉串町東２丁目５番３９号,,27,227,5780932,,,2025-07-04,清算の結了等,,,2019-11-07,1,,,,,サイガイヒナンケンキュウショ,0
1540,7140002003542,登記記録の閉鎖等,0,2025-07-22,2025-07-09,株式会社にし村フーズ,,株式会社,兵庫県,神戸市灘区,大石北町７－１,,28,102,6570843,,,2025-07-09,清算の結了等,,,2015-10-05,1,,,,,ニシムラフーズ,0
1547,7180001139615,登記記録の閉鎖等,0,2025-07-22,2025-07-16,Ｅｘｅｎｔ株式会社,,株式会社,岐阜県,大垣市,中川町１丁目７０６番地１,,21,202,5030017,,,2025-07-16,清算の結了等,,,2020-01-14,1,,,,,エクセント,0
1549,7180301017009,登記記録の閉鎖等,0,2025-07-22,2025-07-01,株式会社スマイルテクノロジー,,株式会社,愛知県,刈谷市,野田町馬池３番地４,,23,210,4480803,,,2025-07-01,合併による解散等,8180301014392,令和７年７月１日愛知県刈谷市野田町馬池３番地１東海スマート企業グループ株式会社（8180301014392）に合併し解散,2015-10-05,1,,,,,スマイルテクノロジー,0
1553,7180302022957,登記記録の閉鎖等,0,2025-07-22,2025-07-04,ナカ商工業有限会社,,有限会社,愛知県,豊田市,本徳町東屋敷５５８番地１,,23,211,4700363,,,2025-07-04,清算の結了等,,,2015-10-05,1,,,,,ナカショウコウギョウ,0
1554,7180302025910,登記記録の閉鎖等,0,2025-07-22,2025-07-07,有限会社せんだん,,有限会社,愛知県,豊田市,青木町５丁目１５８番地１０,,23,211,4700335,,,2025-07-07,清算の結了等,,,2015-10-05,1,,,,,センダン,0
1572,7290001045934,登記記録の閉鎖等,0,2025-07-22,2025-06-30,株式会社伯英開発,,株式会社,福岡県,嘉穂郡桂川町,大字九郎丸８１５番地,,40,421,8200602,,,2025-06-30,清算の結了等,,,2015-10-05,1,,,,,ハクエイカイハツ,0
1582,7310002019505,登記記録の閉鎖等,0,2025-07-22,2025-07-11,有限会社丸田建設,,有限会社,長崎県,平戸市,鏡川町１８４５番地２,,42,207,8595152,,,2025-07-11,清算の結了等,,,2015-10-05,1,,,,,マルタケンセツ,0
1597,7380001029093,登記記録の閉鎖等,0,2025-07-22,2025-07-02,株式会社ＧＲＣたまかわ,,株式会社,福島県,石川郡玉川村,大字小高字稲荷畷１番地,,07,502,9636312,,,2025-07-02,清算の結了等,,,2018-05-09,1,,,,,ジーアールシータマカワ,0
1600,7420002020105,登記記録の閉鎖等,0,2025-07-22,2025-07-03,有限会社東光丸,,有限会社,青森県,上北郡横浜町,字上イタヤノ木８６番地１６３,,02,406,0394142,,,2025-07-03,清算の結了等,,,2015-10-05,1,,,,,トウコウマル,0
1609,7460302001222,登記記録の閉鎖等,0,2025-07-22,2025-07-17,有限会社ビルドアップ,,有限会社,北海道,北見市,無加川町３９６番地の２０,,01,208,0900825,,,2025-07-17,清算の結了等,,,2015-10-05,1,,,,,ビルドアップ,0
1612,7500001008555,登記記録の閉鎖等,0,2025-07-22,2025-07-10,エヒメ薬友株式会社,,株式会社,愛媛県,八幡浜市,２４９番地１,,38,204,7960088,,,2025-07-10,清算の結了等,,,2015-10-05,1,,,,,エヒメヤクユウ,0
1614,8010001080586,登記記録の閉鎖等,0,2025-07-22,2025-06-30,株式会社シャラン,,株式会社,東京都,千代田区,四番町８番地１８,,13,101,1020081,,,2025-06-30,合併による解散等,1010001010863,令和７年６月３０日東京都千代田区四番町８番地１８株式会社イーアンドアール（1010001010863）に合併し解散,2015-10-05,1,,,,,シャラン,0
1620,8010005015530,登記記録の閉鎖等,0,2025-07-22,2025-07-03,特定非営利活動法人インディペンデント・コントラクター協会,,その他の設立登記法人,東京都,千代田区,一番町２３番地２,,13,101,1020082,,,2025-07-03,清算の結了等,,,2015-10-05,1,,,,,インディペンデントコントラクターキョウカイ,0
1631,8010403000761,登記記録の閉鎖等,0,2025-07-22,2025-07-01,株式会社東亜商館,,株式会社,東京都,港区,麻布十番１丁目１１番３号,,13,103,1060045,,,2025-07-01,合併による解散等,6010401020144,令和７年７月１日東京都港区麻布十番一丁目１１番３号株式会社東亜（6010401020144）に合併し解散,2015-10-05,1,,,,,トウアショウカン,0
1637,8010601011577,登記記録の閉鎖等,0,2025-07-22,2025-07-07,株式会社島村歯車製作所,,株式会社,東京都,墨田区,立花５丁目３９番１１号,,13,107,1310043,,,2025-07-07,清算の結了等,,,2015-10-05,1,,,,,,0
1640,8010701045905,登記記録の閉鎖等,0,2025-07-22,2025-07-07,Ｓｔｙｌｅｓ株式会社,,株式会社,東京都,品川区,東五反田２丁目５－２・３０６号室,,13,109,1410022,,,2025-07-07,清算の結了等,,,2024-04-25,1,,,,,スタイルズ,0
1650,8011001065932,登記記録の閉鎖等,0,2025-07-22,2025-07-18,ブランドステン・ジャパン株式会社,,株式会社,東京都,世田谷区,中町３丁目３４番１５号,,13,112,1580091,,,2025-07-18,清算の結了等,,,2015-10-05,1,,,,,ブランドステンジャパン,0
1663,8011102020167,登記記録の閉鎖等,0,2025-07-22,2025-07-07,山本テクノ販売株式会社,,株式会社,東京都,町田市,下小山田町２５６２番地,,13,209,1940202,,,2025-07-07,清算の結了等,,,2015-10-05,1,,,,,ヤマモトテクノハンバイ,0
1672,8011501023927,登記記録の閉鎖等,0,2025-07-22,2025-07-14,株式会社コアリソース,,株式会社,東京都,荒川区,南千住６丁目３７番１号アクロシティＡポート１０２号室,,13,118,1160003,,,2025-07-14,清算の結了等,,,2018-07-27,1,,,,,コアリソース,0
1700,8020003016629,登記記録の閉鎖等,0,2025-07-22,2025-07-11,合同会社Ｆｏｒｗａｒｄ　Ｗａｌｋｅｒ,,合同会社,神奈川県,横浜市青葉区,美しが丘１丁目８番地１ドレッセＷＩＳＥたまプラーザＡ９０６,,14,117,2250002,,,2025-07-11,清算の結了等,,,2019-09-11,1,,,,,フォワードウォカー,0
1718,8040002009623,登記記録の閉鎖等,0,2025-07-22,2025-07-01,有限会社ヒジカタ水産,,有限会社,千葉県,千葉市稲毛区,宮野木町１８４９番地６４,,12,103,2630054,,,2025-07-01,清算の結了等,,,2015-10-05,1,,,,,ヒジカタスイサン,0
1719,8040002021215,登記記録の閉鎖等,0,2025-07-22,2025-07-01,株式会社あんしん保険,,株式会社,千葉県,船橋市,芝山５丁目４４番１号,,12,204,2740816,,,2025-07-01,清算の結了等,,,2015-10-05,1,,,,,アンシンホケン,0
1730,8060001004490,登記記録の閉鎖等,0,2025-07-22,2025-07-07,安田工業株式会社,,株式会社,栃木県,宇都宮市,さつき３丁目１９番１１号,,09,201,3210141,,,2025-07-07,清算の結了等,,,2015-10-05,1,,,,,ヤスダコウギョウ,0
1731,8060001007444,登記記録の閉鎖等,0,2025-07-22,2025-07-07,株式会社ＭＫコーポレーション,,株式会社,栃木県,宇都宮市,清住１丁目３番１４号,,09,201,3200037,,,2025-07-07,清算の結了等,,,2015-10-05,1,,,,,エムケーコーポレーション,0
1737,8080001004803,登記記録の閉鎖等,0,2025-07-22,2025-07-08,牧野製茶株式会社,,株式会社,静岡県,静岡市葵区,産女９９８番地,,22,101,4211222,,,2025-07-08,清算の結了等,,,2015-10-05,1,,,,,マキノセイチャ,0
1739,8080002018604,登記記録の閉鎖等,0,2025-07-22,2025-07-08,有限会社静岡フットボールプロジェクト,,有限会社,静岡県,藤枝市,本町２丁目６番１４号,,22,214,4260018,,,2025-07-08,清算の結了等,,,2015-10-05,1,,,,,シズオカフットボールプロジェクト,0
1743,8090001010214,登記記録の閉鎖等,0,2025-07-22,2025-07-10,山梨県織物整理株式会社,,株式会社,山梨県,富士吉田市,下吉田２丁目１８番６号,,19,202,4030004,,,2025-07-10,清算の結了等,,,2015-10-05,1,,,,,ヤマナシケンオリモノセイリ,0
1780,8140001038159,登記記録の閉鎖等,0,2025-07-22,2025-07-15,株式会社アサヒ・ヴィクトワール,,株式会社,兵庫県,神戸市北区,山田町小部字南山２番地の４７６,,28,109,6511101,,,2025-07-15,清算の結了等,,,2015-10-05,1,,,,,アサヒヴィクトワール,0
1791,8180002075172,登記記録の閉鎖等,0,2025-07-22,2025-07-01,有限会社オーエム,,有限会社,愛知県,丹羽郡大口町,萩島１丁目９８番地,,23,361,4800124,,,2025-07-01,清算の結了等,,,2015-10-05,1,,,,,オーエム,0
1794,8180005005531,登記記録の閉鎖等,0,2025-07-22,2025-07-03,特定非営利活動法人フーチャー二十二,,その他の設立登記法人,愛知県,名古屋市東区,白壁２丁目３０番８号,,23,102,4610011,,,2025-07-03,清算の結了等,,,2015-10-05,1,,,,,フーチャーニジュウニ,0
1795,8180301016694,登記記録の閉鎖等,0,2025-07-22,2025-07-01,株式会社スマイルエネルギーサービス,,株式会社,愛知県,刈谷市,野田町馬池３番地１,,23,210,4480803,,,2025-07-01,合併による解散等,8180301014392,令和７年７月１日愛知県刈谷市野田町馬池３番地１東海スマート企業グループ株式会社（8180301014392）に合併し解散,2015-10-05,1,,,,,スマイルエネルギーサービス,0
1796,8180301017791,登記記録の閉鎖等,0,2025-07-22,2025-07-03,愛北工業株式会社,,株式会社,愛知県,豊田市,駒新町中通１１３番地,,23,211,4730926,,,2025-07-03,清算の結了等,,,2015-10-05,1,,,,,アイホクコウギョウ,0
1809,8200005001222,登記記録の閉鎖等,0,2025-07-22,2025-07-15,協同組合映像情報センター,,その他の設立登記法人,岐阜県,岐阜市,早田本町３丁目６２番地,,21,201,5020848,,,2025-07-15,清算の結了等,,,2015-10-05,1,,,,,エイゾウジョウホウセンター,0
1828,8290001052319,登記記録の閉鎖等,0,2025-07-22,2025-07-02,株式会社エイト,,株式会社,福岡県,飯塚市,幸袋５７６番地３８,,40,205,8200066,,,2025-07-02,清算の結了等,,,2015-10-05,1,,,,,エイト,0
1851,8390001010968,登記記録の閉鎖等,0,2025-07-22,2025-07-07,株式会社サクセス,,株式会社,山形県,米沢市,中田町中谷地二２５９番地－１１,,06,202,9920011,,,2025-07-07,清算の結了等,,,2015-10-05,1,,,,,サクセス,0
1859,8470002002436,登記記録の閉鎖等,0,2025-07-22,2025-07-11,有限会社グツドウイル,,有限会社,香川県,高松市,宮脇町２丁目３１番６号,,37,201,7600005,,,2025-07-11,清算の結了等,,,2015-10-05,1,,,,,グッドウイル,0
1861,8490001001271,登記記録の閉鎖等,0,2025-07-22,2025-07-17,株式会社しんえい,,株式会社,高知県,高知市,長浜１１９２番地,,39,201,7810270,,,2025-07-17,清算の結了等,,,2015-10-05,1,,,,,シンエイ,0
1868,9010001109756,登記記録の閉鎖等,0,2025-07-22,2025-07-07,Ｉ．Ｂ．Ｓ株式会社,,株式会社,東京都,墨田区,石原３丁目２０番９号,,13,107,1300011,,,2025-07-07,清算の結了等,,,2015-10-05,1,,,,,アイビーエス,0
1881,9010401157149,登記記録の閉鎖等,0,2025-07-22,2025-07-17,株式会社之音企画,,株式会社,東京都,港区,三田４丁目７番２０号大信寺内,,13,103,1080073,,,2025-07-17,清算の結了等,,,2020-12-17,1,,,,,シオンキカク,0
1883,9010501040403,登記記録の閉鎖等,0,2025-07-22,2025-07-03,悠游投資株式会社,,株式会社,東京都,台東区,入谷２丁目１６番１０－１０２号,,13,106,1100013,,,2025-07-03,清算の結了等,,,2016-12-15,1,,,,,ユウユウトウシ,0
1890,9010701045391,登記記録の閉鎖等,0,2025-07-22,2025-07-07,Ｇｒｅａｔ株式会社,,株式会社,東京都,品川区,東五反田２丁目５－２・３０６号室,,13,109,1410022,,,2025-07-07,清算の結了等,,,2024-01-11,1,,,,,グレート,0
1893,9010802006805,登記記録の閉鎖等,0,2025-07-22,2025-07-11,有限会社眞工,,有限会社,東京都,大田区,矢口３丁目３０番１０号,,13,111,1460093,,,2025-07-11,清算の結了等,,,2015-10-05,1,,,,,シンコウ,0
1908,9011201012535,登記記録の閉鎖等,0,2025-07-22,2025-06-27,株式会社ＨＩソリューションズ,,株式会社,東京都,中央区,晴海２丁目３番３０－４８０６号,,13,102,1040053,,,2025-06-27,清算の結了等,,,2015-10-05,1,,,,,エイチアイソリューションズ,0
1915,9011501006930,登記記録の閉鎖等,0,2025-07-22,2025-07-15,株式会社島野工業,,株式会社,東京都,荒川区,東日暮里２丁目３７番２号,,13,118,1160014,,,2025-07-15,清算の結了等,,,2015-10-05,1,,,,,シマノコウギョウ,0
1925,9012301009215,登記記録の閉鎖等,0,2025-07-22,2025-07-07,株式会社アオキテクノ,,株式会社,東京都,町田市,森野１丁目３２番１４－３０４号,,13,209,1940022,,,2025-07-07,清算の結了等,,,2015-10-05,1,,,,,アオキテクノ,0
1938,9020002003016,登記記録の閉鎖等,0,2025-07-22,2025-07-07,千神麺工業有限会社,00010145,有限会社,神奈川県,横浜市泉区,中田北２丁目４番４４号,,14,116,2450012,,,2025-07-07,清算の結了等,,,2015-10-05,1,,,,,センシンメンコウギョウ,0
1958,9040002072645,登記記録の閉鎖等,0,2025-07-22,2025-07-02,有限会社大森建築工房,,有限会社,千葉県,市原市,北国分寺台１丁目１０番地１５,,12,219,2900071,,,2025-07-02,清算の結了等,,,2015-10-05,1,,,,,,0
1972,9080002003241,登記記録の閉鎖等,0,2025-07-22,2025-07-07,静岡八幡金属有限会社,,有限会社,静岡県,静岡市駿河区,八幡３丁目１１番８号,,22,102,4228076,,,2025-07-07,清算の結了等,,,2015-10-05,1,,,,,シズオカヤハタキンゾク,0
1975,9080401012000,登記記録の閉鎖等,0,2025-07-22,2025-07-10,株式会社マルタイ,,株式会社,静岡県,湖西市,古見１１６４番地の１,,22,221,4310442,,,2025-07-10,清算の結了等,,,2015-10-05,1,,,,,マルタイ,0
1978,9100001007513,登記記録の閉鎖等,0,2025-07-22,2025-07-14,株式会社アイデーイー,,株式会社,長野県,佐久市,北川５２５番地５２,,20,217,3840304,,,2025-07-14,清算の結了等,,,2015-10-05,1,,,,,アイデーイー,0
1979,9100001011928,登記記録の閉鎖等,0,2025-07-22,2025-07-14,ＳＢＣ木島平リゾート株式会社,,株式会社,長野県,下高井郡木島平村,大字上木島３８７８番地２,,20,562,3892303,,,2025-07-14,合併による解散等,8020001138524,令和７年７月１日横浜市戸塚区上倉田町９０８番地株式会社ＳＢＣ（8020001138524）に合併し解散,2015-10-05,1,,,,,エスビーシーキジマダイラリゾート,0
1987,9120001117087,登記記録の閉鎖等,0,2025-07-22,2025-07-08,株式会社ビデオファースト,,株式会社,大阪府,大阪市東成区,中本２丁目５番１－１０１号,,27,115,5370022,,,2025-07-08,清算の結了等,,,2015-10-05,1,,,,,ビデオファースト,0
1988,9120001132383,登記記録の閉鎖等,0,2025-07-22,2025-07-14,株式会社ファシリティーサービセス,,株式会社,大阪府,大阪市北区,天満４丁目１６番１９号２０２号室,,27,127,5300043,,,2025-07-14,清算の結了等,,,2015-10-05,1,,,,,ファシリティーサービセス,0
1989,9120001150880,登記記録の閉鎖等,0,2025-07-22,2025-07-08,株式会社山本電気商会,,株式会社,大阪府,枚方市,出口２丁目１７番７号,,27,210,5730065,,,2025-07-08,清算の結了等,,,2015-10-05,1,,,,,ヤマモトデンキショウカイ,0
2014,9122002003191,登記記録の閉鎖等,0,2025-07-22,2025-07-18,有限会社ディ・ディ・エー,,有限会社,大阪府,東大阪市,長田東２丁目３番２２号,,27,227,5770012,,,2025-07-18,清算の結了等,,,2015-10-05,1,,,,,ディディエー,0
2022,9140002023943,登記記録の閉鎖等,0,2025-07-22,2025-07-11,有限会社徳山商運,,有限会社,兵庫県,神戸市西区,櫨谷町菅野３８２番３,,28,111,6512238,,,2025-07-11,清算の結了等,,,2015-10-05,1,,,,,トクヤマショウウン,0
2023,9140002025733,登記記録の閉鎖等,0,2025-07-22,2025-07-11,有限会社スマイル住介,,有限会社,兵庫県,神戸市北区,藤原台南町５丁目４番地１７,,28,109,6511303,,,2025-07-11,清算の結了等,,,2015-10-05,1,,,,,スマイルジュウカイ,0
2029,9180001136651,登記記録の閉鎖等,0,2025-07-22,2025-07-01,株式会社真英建築,,株式会社,愛知県,瀬戸市,品野町２丁目２８８番地,,23,204,4801207,,,2025-07-01,清算の結了等,,,2019-05-22,1,,,,,シンエイケンチク,0
2040,9190001023774,登記記録の閉鎖等,0,2025-07-22,2025-07-07,株式会社未来風力太陽開発,,株式会社,三重県,津市,長岡町７７３番地１２,,24,201,5140064,,,2025-07-07,清算の結了等,,,2016-06-23,1,,,,,,0
2042,9200002009647,登記記録の閉鎖等,0,2025-07-22,2025-07-08,有限会社徳田建設,,有限会社,岐阜県,本巣市,文殊１０３５番地１７,,21,218,5011203,,,2025-07-08,清算の結了等,,,2015-10-05,1,,,,,トクダケンセツ,0
2049,9230001012590,登記記録の閉鎖等,0,2025-07-22,2025-07-14,株式会社ワタヤホーム,,株式会社,富山県,射水市,本町３丁目１２番５号,,16,211,9340011,,,2025-07-14,清算の結了等,,,2015-10-05,1,,,,,ワタヤホーム,0
2059,9290001043580,登記記録の閉鎖等,0,2025-07-22,2025-07-02,クロノス工業株式会社,,株式会社,福岡県,筑紫野市,大字古賀４１８－１,,40,217,8180047,,,2025-07-02,清算の結了等,,,2015-10-05,1,,,,,クロノスコウギョウ,0
2070,9300003001584,登記記録の閉鎖等,0,2025-07-22,2025-07-15,合同会社ＰＯＵＮＤ,,合同会社,佐賀県,佐賀市,久保田町大字徳万２４１０－１６,,41,201,8490201,,,2025-07-15,清算の結了等,,,2020-08-24,1,,,,,ポンド,0
2071,9310005007455,登記記録の閉鎖等,0,2025-07-22,2025-07-10,一般社団法人ド・ロさまの家,,その他の設立登記法人,長崎県,長崎市,西出津町２６９６番地１,,42,201,8512322,,,2025-07-10,清算の結了等,,,2015-10-05,1,,,,,ドロサマノイエ,0
2075,9330002003174,登記記録の閉鎖等,0,2025-07-22,2025-07-03,有限会社グローバルヘルスコーポレーション,,有限会社,熊本県,熊本市西区,田崎本町８番３０号,,43,103,8600052,,,2025-07-03,清算の結了等,,,2015-10-05,1,,,,,グローバルヘルスコーポレーション,0
2077,9340002012356,登記記録の閉鎖等,0,2025-07-22,2025-07-03,ＹＴ企画有限会社,,有限会社,鹿児島県,鹿児島市,桜ヶ丘６丁目２６番４,,46,201,8910175,,,2025-07-03,清算の結了等,,,2015-10-05,1,,,,,ワイティキカク,0
2082,9360001026413,登記記録の閉鎖等,0,2025-07-22,2025-07-08,株式会社真栄田,,株式会社,大阪府,大阪市中央区,内平野町２丁目２番７号,,27,128,5400037,,,2025-07-08,清算の結了等,,,2019-11-05,1,,,,,マエダ,0
