sequenceNumber,corporateNumber,process,correct,updateDate,changeDate,name,nameImageId,kind,prefectureName,cityName,streetNumber,addressImageId,prefectureCode,cityCode,postCode,addressOutside,addressOutsideImageId,closeDate,closeCause,successorCorporateNumber,changeCause,assignmentDate,latest,enName,enPrefectureName,enCityName,enAddressOutside,furigana,hihyoji
13,1010001235246,新規,0,2023-05-16,2023-05-16,株式会社ＳＢＨホールディングス,,株式会社,東京都,中央区,銀座６丁目１３番９号,,13,102,1040061,,,,,,,2023-05-16,1,,,,,エスビーエイチホールディングス,0
14,1010001235254,新規,0,2023-05-16,2023-05-16,株式会社日本プロフィックス・テクノロジー,,株式会社,東京都,千代田区,九段南２丁目４番１２号,,13,101,1020074,,,,,,,2023-05-16,1,,,,,ニホンプロフィックステクノロジー,0
15,1010001235270,新規,0,2023-05-16,2023-05-16,株式会社Ｎｉｐｐｏｎ　Ｇｌｏｂａｌ　Ｂｉｏｓｏｌｕｔｉｏｎｓ,,株式会社,東京都,中央区,銀座１丁目２２－１１号銀座大竹ビジデンス２Ｆ,,13,102,1040061,,,,,,,2023-05-16,1,,,,,ニッポングローバルバイオソリューションズ,0
16,1010001235279,新規,0,2023-05-16,2023-05-16,株式会社ミュージック・テック・ソリューションズ,,株式会社,東京都,中央区,日本橋室町１丁目１１番１２号日本橋水野ビル７階,,13,102,1030022,,,,,,,2023-05-16,1,,,,,ミュージックテックソリューションズ,0
18,1010003040594,新規,0,2023-05-16,2023-05-16,エンジェル合同会社,,合同会社,東京都,中央区,入船１丁目４番９－５０７号,,13,102,1040042,,,,,,,2023-05-16,1,,,,,エンジェル,0
19,1010005036657,新規,0,2023-05-16,2023-05-16,税理士法人ＴＲＵＳＴ会計,,その他の設立登記法人,東京都,千代田区,九段南３丁目２番２号森ビル３階,,13,101,1020074,,,,,,,2023-05-16,1,,,,,トラストカイケイ,0
20,1010005036681,新規,0,2023-05-16,2023-05-16,一般社団法人天神西インベストメント,,その他の設立登記法人,東京都,中央区,日本橋１丁目４番１号,,13,102,1030027,,,,,,,2023-05-16,1,,,,,テンジンニシインベストメント,0
23,1010101015647,新規,0,2023-05-16,2023-05-16,株式会社ｒａｊｉ　ｂｈｏｊ,,株式会社,東京都,八王子市,下柚木２丁目１１－１８グリーンパレスＡ棟ＣＡＳＡ１０１,,13,201,1920372,,,,,,,2023-05-16,1,,,,,ラジブホージ,0
28,1010401174333,新規,0,2023-05-16,2023-05-16,株式会社ＭＯＤＯＯＦＩＮＤ　ＪＡＰＡＮ,,株式会社,東京都,港区,赤坂３丁目１１－７ソシアル赤坂Ｂ２Ｆ,,13,103,1070052,,,,,,,2023-05-16,1,,,,,モドゥファインドジャパン,0
31,1010405022091,新規,0,2023-05-16,2023-05-16,スマートハイムシティ平岸団地管理組合法人,,その他の設立登記法人,東京都,港区,虎ノ門２丁目１０－４,,13,103,1050001,,,,,,,2023-05-16,1,,,,,スマートハイムシティヒラギシ,0
32,1010501050467,新規,0,2023-05-16,2023-05-16,株式会社プリファーリアルティ,,株式会社,東京都,台東区,東上野３丁目１３－５深谷ビル６Ｆ,,13,106,1100015,,,,,,,2023-05-16,1,,,,,プリファーリアルティ,0
33,1010503006987,新規,0,2023-05-16,2023-05-16,合同会社マイナース東京,,合同会社,東京都,台東区,東上野６丁目１２番１－２０３号,,13,106,1100015,,,,,,,2023-05-16,1,,,,,マイナーストウキョウ,0
35,1010601063105,新規,0,2023-05-16,2023-05-16,株式会社ＡｎｉＫＩＲＡ,,株式会社,東京都,墨田区,東駒形２丁目２番１３東駒形二丁目ビル４０６号室,,13,107,1300005,,,,,,,2023-05-16,1,,,,,アニキラ,0
39,1010701044236,新規,0,2023-05-16,2023-05-16,メンテプラス株式会社,,株式会社,東京都,品川区,東大井２丁目１５番２号,,13,109,1400011,,,,,,,2023-05-16,1,,,,,メンテプラス,0
45,1010901053061,新規,0,2023-05-16,2023-05-16,株式会社純子,,株式会社,東京都,世田谷区,中町３丁目１２番１７号,,13,112,1580091,,,,,,,2023-05-16,1,,,,,ジュンコ,0
51,1011001154320,新規,0,2023-05-16,2023-05-16,株式会社さくら,,株式会社,東京都,渋谷区,渋谷２丁目１９－１５宮益坂ビルディング６０９,,13,113,1500002,,,,,,,2023-05-16,1,,,,,サクラ,0
52,1011001154386,新規,0,2023-05-16,2023-05-16,株式会社ビジネスファクトリー,,株式会社,東京都,渋谷区,神宮前６丁目２３番４号桑野ビル２階,,13,113,1500001,,,,,,,2023-05-16,1,,,,,ビジネスファクトリー,0
53,1011003016816,新規,0,2023-05-16,2023-05-16,合同会社ｄｅｔｏｕｒ,,合同会社,東京都,渋谷区,西原２丁目２３番９号,,13,113,1510066,,,,,,,2023-05-16,1,,,,,ディツアー,0
54,1011003016832,新規,0,2023-05-16,2023-05-16,ＬｅＳｐａｃｅ　ＩＩ合同会社,,合同会社,東京都,渋谷区,西原２丁目２９番５号,,13,113,1510066,,,,,,,2023-05-16,1,,,,,ルスペースツー,0
55,1011003016840,新規,0,2023-05-16,2023-05-16,Ｈｏｒｉｚｏｎ　Ｐａｒｔｎｅｒｓ合同会社,,合同会社,東京都,渋谷区,道玄坂１丁目１０番８号渋谷道玄坂東急ビル２Ｆ－Ｃ,,13,113,1500043,,,,,,,2023-05-16,1,,,,,ホライゾンパートナーズ,0
61,1011101102856,新規,0,2023-05-16,2023-05-16,株式会社ＣｏｍｐＴｕｒｎ,,株式会社,東京都,新宿区,西新宿３丁目３番１３号西新宿水間ビル２Ｆ,,13,104,1600023,,,,,,,2023-05-16,1,,,,,コンプターン,0
62,1011103013052,新規,0,2023-05-16,2023-05-16,合同会社Ｈａｒｍｏ,,合同会社,東京都,新宿区,西新宿３丁目３番１３号西新宿水間ビル２Ｆ,,13,104,1600023,,,,,,,2023-05-16,1,,,,,ハルモ,0
65,1011301028703,新規,0,2023-05-16,2023-05-16,株式会社Ｃａｌｍｅ,,株式会社,東京都,杉並区,高井戸東３丁目２０番１１,,13,115,1680072,,,,,,,2023-05-16,1,,,,,カルム,0
71,1011601026811,新規,0,2023-05-16,2023-05-16,ワコーカンパニー株式会社,,株式会社,東京都,練馬区,上石神井４丁目２４番３－１０１号,,13,120,1770044,,,,,,,2023-05-16,1,,,,,ワコーカンパニー,0
72,1011603003924,新規,0,2023-05-16,2023-05-16,合同会社Ｄ‐ＤＥＭ,,合同会社,東京都,練馬区,大泉学園町７丁目１１番６号,,13,120,1780061,,,,,,,2023-05-16,1,,,,,ディーデム,0
74,1011701026240,新規,0,2023-05-16,2023-05-16,株式会社大橋製作所,,株式会社,東京都,江戸川区,春江町３丁目２２番２０号,,13,123,1320003,,,,,,,2023-05-16,1,,,,,オオハシセイサクショ,0
76,1011801042377,新規,0,2023-05-16,2023-05-16,ＨＯＵＳＩＮＧ　ＳＯＬＵＴＩＯＮ株式会社,,株式会社,東京都,葛飾区,東金町１丁目４１番６号武田ビル３階,,13,122,1250041,,,,,,,2023-05-16,1,,,,,ハウジングソリューション,0
77,1011801042393,新規,0,2023-05-16,2023-05-16,株式会社ミッドアップ,,株式会社,東京都,足立区,神明南２丁目１０番７号,,13,121,1210057,,,,,,,2023-05-16,1,,,,,ミッドアップ,0
78,1011801042402,新規,0,2023-05-16,2023-05-16,株式会社ＬＵＮＬＵＮ,,株式会社,東京都,足立区,東和３丁目２番１号グレースヒル８７８・１０５号室,,13,121,1200003,,,,,,,2023-05-16,1,,,,,ルンルン,0
81,1012303001821,新規,0,2023-05-16,2023-05-16,合同会社ＭＯ,,合同会社,東京都,町田市,東玉川学園２丁目１０番１５号,,13,209,1940042,,,,,,,2023-05-16,1,,,,,エムオー,0
88,1013301050728,新規,0,2023-05-16,2023-05-16,株式会社パンと水と,,株式会社,東京都,豊島区,東池袋１丁目１７番１１号パークハイツ池袋１１０５号,,13,116,1700013,,,,,,,2023-05-16,1,,,,,パントミズト,0
89,1013301050760,新規,0,2023-05-16,2023-05-16,株式会社ｂｌｉｓｓ　ｐｒｏｍｏｔｉｏｎ,,株式会社,東京都,豊島区,池袋２丁目３９番１０号,,13,116,1710014,,,,,,,2023-05-16,1,,,,,ブリスプロモーション,0
92,1020001151566,新規,0,2023-05-16,2023-05-16,Ｒｅ‐ｅｎｔｅｒ株式会社,,株式会社,神奈川県,横浜市都筑区,仲町台４丁目１番５号,,14,118,2240041,,,,,,,2023-05-16,1,,,,,リエンター,0
93,1020001151608,新規,0,2023-05-16,2023-05-16,株式会社Ｒｉｎａｌｕｍｏ,,株式会社,神奈川県,川崎市中原区,新丸子東２丁目９２５番地,,14,133,2110004,,,,,,,2023-05-16,1,,,,,リナルモ,0
94,1020001151616,新規,0,2023-05-16,2023-05-16,太白株式会社,,株式会社,神奈川県,川崎市多摩区,生田６丁目３５番７号,,14,135,2140038,,,,,,,2023-05-16,1,,,,,オオシロ,0
97,1020003023879,新規,0,2023-05-16,2023-05-16,ＣＣＷＢ合同会社,,合同会社,神奈川県,横浜市神奈川区,子安通３丁目３５３番地クレストシティタワーズ横浜３０９号,,14,102,2210021,,,,,,,2023-05-16,1,,,,,シーシーダブルビー,0
98,1020003023904,新規,0,2023-05-16,2023-05-16,エス・ワイ・パートナーズジャパン合同会社,,合同会社,神奈川県,横浜市中区,山下町２番地産業貿易センタービル２階,,14,104,2310023,,,,,,,2023-05-16,1,,,,,エスワイパートナーズジャパン,0
99,1020003023920,新規,0,2023-05-16,2023-05-16,合同会社デジクロ,,合同会社,神奈川県,横浜市鶴見区,北寺尾２丁目２０番１３号,,14,101,2300074,,,,,,,2023-05-16,1,,,,,デジクロ,0
100,1021001079054,新規,0,2023-05-16,2023-05-16,株式会社Ｍａｋｅ　Ｃｕｌｔｕｒｅ,,株式会社,神奈川県,三浦郡葉山町,長柄３１０－６,,14,301,2400113,,,,,,,2023-05-16,1,,,,,メイクカルチャー,0
112,1030003021758,新規,0,2023-05-16,2023-05-16,ＰａｎＡｃｈｅ　Ｊａｐａｎ合同会社,,合同会社,埼玉県,川越市,霞ケ関北１丁目２１番地３９,,11,201,3501109,,,,,,,2023-05-16,1,,,,,パナチェジャパン,0
121,1040003022540,新規,0,2023-05-16,2023-05-16,合同会社Ｌ．Ｋ,,合同会社,千葉県,松戸市,小根本１８３番地の３,,12,207,2710073,,,,,,,2023-05-16,1,,,,,エルケー,0
122,1040003022607,新規,0,2023-05-16,2023-05-16,合同会社Ｎ・Ａ・Ｃ,,合同会社,千葉県,松戸市,栄町６丁目４３４番地の１８,,12,207,2710062,,,,,,,2023-05-16,1,,,,,エヌエーシー,0
125,1050001052786,新規,0,2023-05-16,2023-05-16,阿さ川製菓株式会社,,株式会社,茨城県,笠間市,福原１３０５番地１,,08,216,3091634,,,,,,,2023-05-16,1,,,,,アサカワセイカ,0
135,1070001040450,新規,0,2023-05-16,2023-05-16,ＮＳＩラミネート株式会社,,株式会社,群馬県,前橋市,上大島町９２番地,,10,201,3792153,,,,,,,2023-05-16,1,,,,,エヌエスアイラミネート,0
141,1080101024006,新規,0,2023-05-16,2023-05-16,株式会社ＳａＴｒｅｅ,,株式会社,静岡県,熱海市,桃山町２２番９号,,22,205,4130006,,,,,,,2023-05-16,1,,,,,サツリー,0
146,1090001018123,新規,0,2023-05-16,2023-05-16,ＧＬＯＢＡＬ株式会社,,株式会社,山梨県,上野原市,上野原３２８４番地,,19,212,4090112,,,,,,,2023-05-16,1,,,,,グローバル,0
150,1100001036354,新規,0,2023-05-16,2023-05-16,株式会社ホワイトラスト,,株式会社,長野県,飯田市,松尾城５０３８番地４,,20,205,3950825,,,,,,,2023-05-16,1,,,,,ホワイトラスト,0
151,1100001036412,新規,0,2023-05-16,2023-05-16,株式会社アットマークグループ,,株式会社,長野県,長野市,大字鶴賀権堂町２２９６番地１第二宮澤ビル３階,,20,201,3800833,,,,,,,2023-05-16,1,,,,,アットマークグループ,0
152,1100003007015,新規,0,2023-05-16,2023-05-16,グローカルＥＣ合同会社,,合同会社,長野県,松本市,大字里山辺１３９１番地１ルベルＡ,,20,202,3900221,,,,,,,2023-05-16,1,,,,,グローカルイーシー,0
155,1110003005050,新規,0,2023-05-16,2023-05-16,合同会社板井茶豆生産グループ,,合同会社,新潟県,新潟市西区,板井６７３番地の１,,15,107,9501121,,,,,,,2023-05-16,1,,,,,イタイチャマメセイサングループ,0
165,1120001254697,新規,0,2023-05-16,2023-05-16,山水家株式会社,,株式会社,大阪府,大阪市西淀川区,柏里２丁目７－２６ラ・ピース塚本３０３号室,,27,113,5550022,,,,,,,2023-05-16,1,,,,,サンスイヤ,0
166,1120001254813,新規,0,2023-05-16,2023-05-16,ツマノ株式会社,,株式会社,大阪府,寝屋川市,東香里園町１６番１８号,,27,215,5720081,,,,,,,2023-05-16,1,,,,,ツマノ,0
167,1120001254846,新規,0,2023-05-16,2023-05-16,株式会社晟軒,,株式会社,大阪府,大阪市生野区,中川１丁目１番１０号,,27,116,5440005,,,,,,,2023-05-16,1,,,,,セイケン,0
168,1120001254895,新規,0,2023-05-16,2023-05-16,美希株式会社,,株式会社,大阪府,大阪市中央区,日本橋２丁目５番２号ＭＩＤＯＲＩビル２階,,27,128,5420073,,,,,,,2023-05-16,1,,,,,ミキ,0
185,1122001036976,新規,0,2023-05-16,2023-05-16,株式会社ｓｈｏｕｅｉ　ｈｏｍｅ,,株式会社,大阪府,東大阪市,西岩田４丁目８番３４号,,27,227,5780947,,,,,,,2023-05-16,1,,,,,ショウエイホーム,0
196,1140001130145,新規,0,2023-05-16,2023-05-16,株式会社ＫＵＯＮ．ｓ　ｉｎｔｅｒｎａｔｉｏｎａｌ,,株式会社,兵庫県,神戸市灘区,森後町１丁目２－１３－２０１,,28,102,6570028,,,,,,,2023-05-16,1,,,,,クオンズインターナショナル,0
206,1180001156269,新規,0,2023-05-16,2023-05-16,株式会社ＵＮＣＯＲＤ,,株式会社,愛知県,弥富市,西中地町五右２８１－２１,,23,235,4980001,,,,,,,2023-05-16,1,,,,,アンコード,0
207,1180001156277,新規,0,2023-05-16,2023-05-16,株式会社ＴｈｒｅｅＫ,,株式会社,愛知県,清須市,阿原鴨池１４２番地アクティブ鴨池Ｄ,,23,233,4520901,,,,,,,2023-05-16,1,,,,,スリーケー,0
208,1180001156293,新規,0,2023-05-16,2023-05-16,株式会社彩陽,,株式会社,愛知県,犬山市,大字犬山字西古券３３０ロックヒルズ１Ａ,,23,215,4840085,,,,,,,2023-05-16,1,,,,,サイヨウ,0
209,1180001156327,新規,0,2023-05-16,2023-05-16,名進警備保障株式会社,,株式会社,愛知県,名古屋市中川区,野田１丁目３８５番地パークホームズ高畑１０６号,,23,110,4540912,,,,,,,2023-05-16,1,,,,,メイシンケイビホショウ,0
210,1180001156343,新規,0,2023-05-16,2023-05-16,株式会社ラビットリンク,,株式会社,愛知県,小牧市,大字東田中５１番地１２,,23,219,4850826,,,,,,,2023-05-16,1,,,,,ラビットリンク,0
223,1220001025411,新規,0,2023-05-16,2023-05-16,Ｇグローバル株式会社,,株式会社,石川県,金沢市,西泉３丁目１２番地,,17,201,9218043,,,,,,,2023-05-16,1,,,,,ジーグローバル,0
224,1240001061529,新規,0,2023-05-16,2023-05-16,株式会社ＪＩＮＡＲＴ,,株式会社,広島県,東広島市,豊栄町安宿２０２９番地,,34,212,7392316,,,,,,,2023-05-16,1,,,,,ジンアート,0
232,1290001101569,新規,0,2023-05-16,2023-05-16,株式会社ＮＹＴＲＯ,,株式会社,福岡県,福岡市南区,清水３丁目１０－３２－１,,40,134,8150031,,,,,,,2023-05-16,1,,,,,ナイトロ,0
235,1290003013911,新規,0,2023-05-16,2023-05-16,合同会社メック,,合同会社,福岡県,糟屋郡粕屋町,花ヶ浦１丁目２番３－２０２号パティオ福岡東Ｎ棟,,40,349,8112310,,,,,,,2023-05-16,1,,,,,メック,0
237,1300001013300,新規,0,2023-05-16,2023-05-16,株式会社ＳＴＥＬＬＡ,,株式会社,佐賀県,佐賀市,久保泉町大字下和泉２８５３番地１,,41,201,8490903,,,,,,,2023-05-16,1,,,,,ステラ,0
239,1320003004080,新規,0,2023-05-16,2023-05-16,亀川未来企画合同会社,,合同会社,大分県,別府市,亀川中央町１３－１４,,44,202,8740021,,,,,,,2023-05-16,1,,,,,カメガワミライキカク,0
245,1340005009605,新規,0,2023-05-16,2023-05-16,奄美市しまワーク協同組合,,その他の設立登記法人,鹿児島県,奄美市,名瀬港町３番１０号,,46,222,8940026,,,,,,,2023-05-16,1,,,,,アマミシシマワーク,0
247,1360001032014,新規,0,2023-05-16,2023-05-16,小浜島グランピングファーム株式会社,,株式会社,沖縄県,八重山郡竹富町,字小浜１４２４番地の７,,47,381,9071221,,,,,,,2023-05-16,1,,,,,コハマジマグランピングファーム,0
248,1360003012947,新規,0,2023-05-16,2023-05-16,合同会社仲や,,合同会社,沖縄県,浦添市,当山１丁目７番１４号,,47,208,9012104,,,,,,,2023-05-16,1,,,,,ヒトナカヤ,0
250,1370001049949,新規,0,2023-05-16,2023-05-16,株式会社ＬＩＦＩＸ,,株式会社,宮城県,大崎市,松山千石字松山１３８番地１,,04,215,9871304,,,,,,,2023-05-16,1,,,,,リフィックス,0
251,1370001049957,新規,0,2023-05-16,2023-05-16,ｉｉｉ株式会社,,株式会社,宮城県,仙台市宮城野区,岩切字谷地１２－３,,04,102,9830821,,,,,,,2023-05-16,1,,,,,イー,0
276,1700150116219,新規,0,2023-05-16,2023-05-16,ＹＯＲＦＡ　ＫＯＲＯＮＡ　ＴＵＲＩＺＭ　ＶＥ　ＤＩＳ　ＴＩＣＡＲＥＴ　ＬＩＭＩＴＥＤ　ＳＩＲＫＥＴＩ,,外国会社等,東京都,品川区,北品川５丁目１２番３－９０３号,,13,109,1410001,トルコ共和国イスタンブール市ウスキュダル区アジズマフムッドヒュダイ地区アチュクテュルベメクテピ通りエロズアパートメント８－５,,,,,,2023-05-16,1,,,,,ヨルフアコロナトウリズムヴエドウシユテイジヤレツトリミテツドシルケツテイ,0
284,2010001235039,新規,0,2023-05-16,2023-05-16,株式会社Ｄｅｏｇｒａ　Ｊａｐａｎ,,株式会社,東京都,千代田区,内神田１丁目１５番１６号ザ・パークハビオＳＯＨＯ大手町１１０３室,,13,101,1010047,,,,,,,2023-05-16,1,,,,,デオグラジャパン,0
285,2010001235253,新規,0,2023-05-16,2023-05-16,株式会社キュリーズ,,株式会社,東京都,中央区,銀座６丁目１３番１６号銀座ＷａｌｌビルＵＣＦ５０１,,13,102,1040061,,,,,,,2023-05-16,1,,,,,キュリーズ,0
286,2010001235278,新規,0,2023-05-16,2023-05-16,株式会社エニサム,,株式会社,東京都,中央区,八丁堀３丁目２２番１１号深川ビル３階,,13,102,1040032,,,,,,,2023-05-16,1,,,,,エニサム,0
287,2010003040313,新規,0,2023-05-16,2023-05-16,合同会社ＷＡＶＥ,,合同会社,東京都,千代田区,神田猿楽町２丁目２番５－６０４号,,13,101,1010064,,,,,,,2023-05-16,1,,,,,ウェーブ,0
288,2010003040569,新規,0,2023-05-16,2023-05-16,合同会社ＳＰＣ６,,合同会社,東京都,千代田区,平河町１丁目６番１５号シルスフィア会計事務所内,,13,101,1020093,,,,,,,2023-05-16,1,,,,,エスピーシーシックス,0
289,2010003040602,新規,0,2023-05-16,2023-05-16,ＳＳＹエステート合同会社,,合同会社,東京都,中央区,勝どき１丁目１３番６－１６０３号,,13,102,1040054,,,,,,,2023-05-16,1,,,,,エスエスワイエステート,0
290,2010005036680,新規,0,2023-05-16,2023-05-16,一般社団法人日の出ホールディングス,,その他の設立登記法人,東京都,千代田区,丸の内１丁目６番５号,,13,101,1000005,,,,,,,2023-05-16,1,,,,,ヒノデホールディングス,0
291,2010005036689,新規,0,2023-05-16,2023-05-16,東京レジ３７一般社団法人,,その他の設立登記法人,東京都,千代田区,丸の内３丁目１番１号東京共同会計事務所内,,13,101,1000005,,,,,,,2023-05-16,1,,,,,トウキョウレジサーティセブン,0
292,2010005036706,新規,0,2023-05-16,2023-05-16,ＢＳＰ司法書士法人,,その他の設立登記法人,東京都,千代田区,九段南１丁目６番１７号千代田会館ビル２階,,13,101,1020074,,,,,,,2023-05-16,1,,,,,ビーエスピー,0
307,2010403029955,新規,0,2023-05-16,2023-05-16,合同会社ＨｅａｄＱｕａｒｔｅｒＧａｍｅｓ,,合同会社,東京都,港区,浜松町２丁目２番１５号浜松町ダイヤビル２Ｆ,,13,103,1050013,,,,,,,2023-05-16,1,,,,,ヘッドクォーターゲームズ,0
309,2010405022090,新規,0,2023-05-16,2023-05-16,一般社団法人アースデイジャパンネットワーク,,その他の設立登記法人,東京都,港区,港南３丁目５番１０－２０３号,,13,103,1080075,,,,,,,2023-05-16,1,,,,,アースデイジャパンネットワーク,0
317,2010601063104,新規,0,2023-05-16,2023-05-16,株式会社ＰＬＡＮ‐Ｂ,,株式会社,東京都,墨田区,東向島２丁目４９－４,,13,107,1310032,,,,,,,2023-05-16,1,,,,,プランビー,0
320,2010603010137,新規,0,2023-05-16,2023-05-16,合同会社Ｓｔｒｅａｍ,,合同会社,東京都,墨田区,業平２丁目１２番１０号,,13,107,1300002,,,,,,,2023-05-16,1,,,,,ストリーム,0
328,2010901053052,新規,0,2023-05-16,2023-05-16,株式会社Ｈｅｌｌｏ　ｗｏｒｌｄ,,株式会社,東京都,世田谷区,駒沢５丁目２５番１２号モアエスワン１０６,,13,112,1540012,,,,,,,2023-05-16,1,,,,,ハローワールド,0
332,2011001154245,新規,0,2023-05-16,2023-05-16,ＫＩＴ株式会社,,株式会社,東京都,渋谷区,道玄坂１丁目２０番３号,,13,113,1500043,,,,,,,2023-05-16,1,,,,,ケーアイティー,0
333,2011001154393,新規,0,2023-05-16,2023-05-16,すまいるハンド株式会社,,株式会社,東京都,渋谷区,道玄坂１丁目１０番８号２Ｆ－Ｃ,,13,113,1500043,,,,,,,2023-05-16,1,,,,,スマイルハンド,0
334,2011001154410,新規,0,2023-05-16,2023-05-16,ドライビングモール株式会社,,株式会社,東京都,渋谷区,上原３丁目１６番２号,,13,113,1510064,,,,,,,2023-05-16,1,,,,,ドライビングモール,0
338,2011003016823,新規,0,2023-05-16,2023-05-16,マッシュルーム合同会社,,合同会社,東京都,目黒区,下目黒３丁目７番２９号,,13,110,1530064,,,,,,,2023-05-16,1,,,,,マッシュルーム,0
345,2011103013035,新規,0,2023-05-16,2023-05-16,合同会社韓国映画平和発電所ｊａｐａｎ,,合同会社,東京都,新宿区,西新宿３丁目３番１３号西新宿水間ビル６階,,13,104,1600023,,,,,,,2023-05-16,1,,,,,カンコクエイガヘイワハツデンショジャパン,0
346,2011103013043,新規,0,2023-05-16,2023-05-16,合同会社ＳＮリビング,,合同会社,東京都,新宿区,西新宿８丁目５番１号,,13,104,1600023,,,,,,,2023-05-16,1,,,,,エスエヌリビング,0
349,2011301028702,新規,0,2023-05-16,2023-05-16,株式会社Ｋ‐ホールディングス,,株式会社,東京都,杉並区,和田１丁目１２番１号,,13,115,1660012,,,,,,,2023-05-16,1,,,,,ケーホールディングス,0
351,2011401025129,新規,0,2023-05-16,2023-05-16,株式会社武電気総合設備,,株式会社,東京都,板橋区,中台１丁目５４番６号,,13,119,1740064,,,,,,,2023-05-16,1,,,,,タケデンキソウゴウセツビ,0
352,2011401025137,新規,0,2023-05-16,2023-05-16,株式会社クリーンクライム,,株式会社,東京都,板橋区,弥生町３２番１号,,13,119,1730021,,,,,,,2023-05-16,1,,,,,クリーンクライム,0
355,2011501029293,新規,0,2023-05-16,2023-05-16,株式会社新,,株式会社,東京都,北区,上中里１丁目４３番１２号,,13,117,1140016,,,,,,,2023-05-16,1,,,,,アラタ,0
360,2011503005598,新規,0,2023-05-16,2023-05-16,合同会社ロシアンルーレット,,合同会社,東京都,北区,東十条２丁目１６番１３－９０４号,,13,117,1140001,,,,,,,2023-05-16,1,,,,,ロシアンルーレット,0
361,2011503005607,新規,0,2023-05-16,2023-05-16,中里企画合同会社,,合同会社,東京都,荒川区,東日暮里３丁目１５番５号,,13,118,1160014,,,,,,,2023-05-16,1,,,,,ナカザトキカク,0
364,2011601026810,新規,0,2023-05-16,2023-05-16,株式会社ワコー,,株式会社,東京都,練馬区,上石神井２丁目３０番２１－３０２号,,13,120,1770044,,,,,,,2023-05-16,1,,,,,ワコー,0
366,2011701026231,新規,0,2023-05-16,2023-05-16,株式会社藤成建設,,株式会社,東京都,江戸川区,江戸川５丁目１３番地７パームコート一之江１０３,,13,123,1340013,,,,,,,2023-05-16,1,,,,,トウセイケンセツ,0
367,2011705001783,新規,0,2023-05-16,2023-05-16,一般社団法人Ｊａｐａｎペットケアマネージャー協会,,その他の設立登記法人,東京都,江戸川区,中葛西２丁目１９番１３号,,13,123,1340083,,,,,,,2023-05-16,1,,,,,ジャパンペットケアマネージャーキョウカイ,0
370,2011801042392,新規,0,2023-05-16,2023-05-16,株式会社吉田自動車,,株式会社,東京都,足立区,西新井５丁目１３番１８号,,13,121,1230841,,,,,,,2023-05-16,1,,,,,ヨシダジドウシャ,0
371,2011801042401,新規,0,2023-05-16,2023-05-16,キャプチャーイン株式会社,,株式会社,東京都,足立区,花畑６丁目１１番１５号,,13,121,1210061,,,,,,,2023-05-16,1,,,,,キャプチャーイン,0
373,2011803005653,新規,0,2023-05-16,2023-05-16,オー・デライト合同会社,,合同会社,東京都,葛飾区,高砂５丁目４番１号,,13,122,1250054,,,,,,,2023-05-16,1,,,,,オーデライト,0
375,2012303001820,新規,0,2023-05-16,2023-05-16,合同会社ＯＴ,,合同会社,東京都,町田市,中町１丁目９番２０号,,13,209,1940021,,,,,,,2023-05-16,1,,,,,オーティ,0
382,2013301050768,新規,0,2023-05-16,2023-05-16,株式会社Ｈｉｇｈｌａｎｄｅｒｓ,,株式会社,東京都,豊島区,南大塚２丁目１１－１０ミモザビル３階,,13,116,1700005,,,,,,,2023-05-16,1,,,,,ハイランダーズ,0
397,2020001151581,新規,0,2023-05-16,2023-05-16,Ｒ２株式会社,,株式会社,神奈川県,横浜市西区,南浅間町１２番地２,,14,103,2200074,,,,,,,2023-05-16,1,,,,,アールツー,0
398,2020001151607,新規,0,2023-05-16,2023-05-16,株式会社ＭＯＮＴＥＧＯ,,株式会社,神奈川県,川崎市川崎区,田島町１０番１６号シーズランドフィッツ１０１,,14,131,2100853,,,,,,,2023-05-16,1,,,,,モンティゴ,0
399,2020001151631,新規,0,2023-05-16,2023-05-16,株式会社Ａ．Ｊ,,株式会社,神奈川県,横浜市戸塚区,舞岡町３６０２番地１,,14,110,2440813,,,,,,,2023-05-16,1,,,,,エージェー,0
407,2021001078930,新規,0,2023-05-16,2023-05-16,株式会社Ｂａｎｓｏ,,株式会社,神奈川県,藤沢市,本鵠沼２丁目４番３３号,00130506,14,205,2510028,,,,,,,2023-05-16,1,,,,,バンソー,0
411,2030001153791,新規,0,2023-05-16,2023-05-16,株式会社バイシクルプランニング,,株式会社,埼玉県,越谷市,流通団地１丁目１番９号,,11,222,3430824,,,,,,,2023-05-16,1,,,,,バイシクルプランニング,0
421,2040001128347,新規,0,2023-05-16,2023-05-16,株式会社バーリット,,株式会社,千葉県,松戸市,上本郷２２８５番地の１セレナハイム北松戸１４０４号,,12,207,2710064,,,,,,,2023-05-16,1,,,,,バーリット,0
422,2040001128421,新規,0,2023-05-16,2023-05-16,Ｍｕｌｔｉｔｏｎｅ株式会社,,株式会社,千葉県,八街市,榎戸９１７番１０,,12,230,2891106,,,,,,,2023-05-16,1,,,,,マルチトーン,0
426,2040003022589,新規,0,2023-05-16,2023-05-16,ちゃんこぬＤａｔａＬａｂｓ合同会社,,合同会社,千葉県,佐倉市,染井野３丁目３０番地７,,12,212,2850831,,,,,,,2023-05-16,1,,,,,チャンコヌデータラボ,0
427,2040003022622,新規,0,2023-05-16,2023-05-16,Ｙ＆Ｎ合同会社,,合同会社,千葉県,松戸市,小金清志町１丁目３６番１７号１０２号室プラザドゥクリークＡ棟,,12,207,2700016,,,,,,,2023-05-16,1,,,,,ワイアンドエヌ,0
437,2070001040458,新規,0,2023-05-16,2023-05-16,立群産業株式会社,,株式会社,群馬県,高崎市,新町１３８２－８ロジュマン新町ＩＩ１０５号室,00130509,10,202,3701301,,,,,,,2023-05-16,1,,,,,リツグンサンギョウ,0
439,2080003002983,新規,0,2023-05-16,2023-05-16,中部メンテナンス合同会社,,合同会社,静岡県,藤枝市,駅前１丁目１４番１１号,,22,214,4260034,,,,,,,2023-05-16,1,,,,,チュウブメンテナンス,0
441,2100001036403,新規,0,2023-05-16,2023-05-16,株式会社ＮＥＸＵＳ　ＣＯＡＴ,,株式会社,長野県,上伊那郡辰野町,大字澤底７２７番地１,,20,382,3990423,,,,,,,2023-05-16,1,,,,,ネクサスコート,0
442,2100001036411,新規,0,2023-05-16,2023-05-16,株式会社泰交精器,,株式会社,長野県,諏訪市,湖岸通り１丁目１９番７号,,20,206,3920027,,,,,,,2023-05-16,1,,,,,タイコウセイキ,0
443,2100003007014,新規,0,2023-05-16,2023-05-16,合同会社テールウインド,,合同会社,長野県,飯田市,高羽町４丁目２番地３,,20,205,3950051,,,,,,,2023-05-16,1,,,,,テールウインド,0
444,2110001037540,新規,0,2023-05-16,2023-05-16,株式会社ＦＩＲＳＴ,,株式会社,新潟県,新潟市江南区,下早通１丁目４番９号,,15,104,9500149,,,,,,,2023-05-16,1,,,,,ファースト,0
456,2120001254589,新規,0,2023-05-16,2023-05-16,株式会社Ｉｎｏテック,,株式会社,大阪府,交野市,星田４丁目３４番１９－２０２号,,27,230,5760016,,,,,,,2023-05-16,1,,,,,イノテック,0
457,2120001254696,新規,0,2023-05-16,2023-05-16,三明株式会社,,株式会社,大阪府,大阪市西淀川区,柏里２丁目７－２６ラ・ピース塚本３０１号室,,27,113,5550022,,,,,,,2023-05-16,1,,,,,サンメイ,0
458,2120001254861,新規,0,2023-05-16,2023-05-16,株式会社ＳＴＯＮＥ　ＦＩＥＬＤ,,株式会社,大阪府,大阪市中央区,日本橋２丁目１８番１９号セントラル日本橋１０１,,27,128,5420073,,,,,,,2023-05-16,1,,,,,ストーンフィールド,0
464,2120901047530,新規,0,2023-05-16,2023-05-16,株式会社ロックフローズンフーズジャパン,,株式会社,大阪府,茨木市,真砂１丁目１２番５号,,27,211,5670851,,,,,,,2023-05-16,1,,,,,ロックフローズンフーズジャパン,0
468,2122001036975,新規,0,2023-05-16,2023-05-16,株式会社ＨＡＮＩＥＳ　ＯＮＥ,,株式会社,大阪府,大東市,北条５丁目３番２０号,,27,218,5740011,,,,,,,2023-05-16,1,,,,,ハニエスワン,0
469,2122003002579,新規,0,2023-05-16,2023-05-16,合同会社リアン,,合同会社,大阪府,八尾市,山城町４丁目３番２６号,,27,212,5810801,,,,,,,2023-05-16,1,,,,,リアン,0
472,2130001074301,新規,0,2023-05-16,2023-05-16,株式会社ＴＡＲＵ,,株式会社,京都府,京都市東山区,宮川筋四条下る宮川筋六丁目３６８番地,,26,105,6050000,,,,,,,2023-05-16,1,,,,,タル,0
479,2140001130144,新規,0,2023-05-16,2023-05-16,株式会社ＦＲＯＮＴＩＥＲ,,株式会社,兵庫県,姫路市,名古山町１３番１２号,,28,201,6700051,,,,,,,2023-05-16,1,,,,,フロンティア,0
480,2140001130193,新規,0,2023-05-16,2023-05-16,株式会社２６９,,株式会社,兵庫県,神戸市長田区,四番町１丁目１１－４,,28,106,6530004,,,,,,,2023-05-16,1,,,,,ニーロクキュウ,0
486,2180001156334,新規,0,2023-05-16,2023-05-16,株式会社Ｙ．Ｏ．Ｍ,,株式会社,愛知県,名古屋市中区,栄４丁目４番１８号,,23,106,4600008,,,,,,,2023-05-16,1,,,,,ワイオーエム,0
487,2180001156350,新規,0,2023-05-16,2023-05-16,株式会社Ｕｕｂ,,株式会社,愛知県,名古屋市中村区,名駅４丁目２４番５号第２森ビル４０１,,23,105,4500002,,,,,,,2023-05-16,1,,,,,ウーブ,0
489,2180003025215,新規,0,2023-05-16,2023-05-16,合同会社ＭＡＥ,,合同会社,愛知県,春日井市,西高山町１丁目４番地の１シャトー春日井グランステージ１０２号,,23,206,4860911,,,,,,,2023-05-16,1,,,,,エムエーイー,0
492,2180301037382,新規,0,2023-05-16,2023-05-16,株式会社みつよし,,株式会社,愛知県,豊橋市,芦原町字西上１１６番地,,23,201,4418155,,,,,,,2023-05-16,1,,,,,ミツヨシ,0
494,2190001030406,新規,0,2023-05-16,2023-05-16,株式会社あづま工務店,,株式会社,三重県,伊賀市,摺見５８３番地,,24,216,5180104,,,,,,,2023-05-16,1,,,,,アヅマコウムテン,0
500,2220001025410,新規,0,2023-05-16,2023-05-16,円山工業株式会社,,株式会社,石川県,金沢市,矢木２丁目５２番地４,,17,201,9218066,,,,,,,2023-05-16,1,,,,,エンヤマコウギョウ,0
502,2240003006142,新規,0,2023-05-16,2023-05-16,合同会社ＡＩｄ,,合同会社,広島県,福山市,駅家町大字法成寺２７３７番地５,,34,207,7202413,,,,,,,2023-05-16,1,,,,,エイド,0
507,2260001037955,新規,0,2023-05-16,2023-05-16,株式会社結伸,,株式会社,岡山県,倉敷市,北畝２丁目５番２４号Ｃ棟２０１,,33,202,7128032,,,,,,,2023-05-16,1,,,,,ユウシン,0
510,2280001008938,新規,0,2023-05-16,2023-05-16,泰榮ソリューションズ株式会社,,株式会社,島根県,松江市,魚町５３番地６,,32,201,6900062,,,,,,,2023-05-16,1,,,,,タイエイソリューションズ,0
516,2290001101535,新規,0,2023-05-16,2023-05-16,株式会社かがやき,,株式会社,福岡県,久留米市,日吉町２２番地７,,40,203,8300017,,,,,,,2023-05-16,1,,,,,カガヤキ,0
519,2290003013893,新規,0,2023-05-16,2023-05-16,合同会社ＴＫ　ＯＦＦＩＣＥ,,合同会社,福岡県,福岡市中央区,天神４丁目６－２８天神ファーストビル７階,,40,133,8100001,,,,,,,2023-05-16,1,,,,,ティーケーオフィス,0
520,2290003013910,新規,0,2023-05-16,2023-05-16,合同会社３３,,合同会社,福岡県,久留米市,長門石３丁目１１番９号プレフェランス長門石２０２号,,40,203,8300027,,,,,,,2023-05-16,1,,,,,サンサン,0
521,2290003013919,新規,0,2023-05-16,2023-05-16,合同会社Ａｌｌ　Ｒｏｕｎｄ,,合同会社,福岡県,福岡市博多区,博多駅東１丁目２番５号日之出ビル博多駅前１００１号室,,40,132,8120013,,,,,,,2023-05-16,1,,,,,オールラウンド,0
531,2320002022867,新規,0,2023-05-16,2023-05-16,有限会社大塚農場,,有限会社,大分県,国東市,国東町重藤３５５番地,,44,214,8730514,,,,,,,2023-05-16,1,,,,,,0
537,2340005009604,新規,0,2023-05-16,2023-05-16,特定非営利活動法人求名Ｍ＆Ｈふるさと協議会,,その他の設立登記法人,鹿児島県,薩摩郡さつま町,求名３３５６番地１,,46,392,8952201,,,,,,,2023-05-16,1,,,,,グミョウエムアンドエイチフルサトキョウギカイ,0
544,2370001049931,新規,0,2023-05-16,2023-05-16,株式会社亘理ざった市,,株式会社,宮城県,亘理郡亘理町,荒浜字上東４番地１,,04,361,9892311,,,,,,,2023-05-16,1,,,,,ワタリザッタイチ,0
545,2370001049948,新規,0,2023-05-16,2023-05-16,株式会社櫻絆,,株式会社,宮城県,多賀城市,町前３丁目３番２３号,,04,209,9850845,,,,,,,2023-05-16,1,,,,,オウバン,0
548,2380001033686,新規,0,2023-05-16,2023-05-16,Ｖａｎｇｕａｒｄ　Ｂｕｓｉｎｅｓｓ　Ｓｏｌｕｔｉｏｎｓ株式会社,,株式会社,福島県,白河市,高山西１６７番地３３,,07,205,9610855,,,,,,,2023-05-16,1,,,,,ヴァンガードビジネスソリューションズ,0
549,2380001033694,新規,0,2023-05-16,2023-05-16,株式会社カネキュウ商事,,株式会社,福島県,田村郡三春町,字荒町１０１番地,,07,521,9637765,,,,,,,2023-05-16,1,,,,,カネキュウショウジ,0
550,2380001033703,新規,0,2023-05-16,2023-05-16,株式会社ＳＫＹＬＹＮＸ,,株式会社,福島県,郡山市,菜根２丁目１１番１３号,,07,203,9638862,,,,,,,2023-05-16,1,,,,,スカイリンクス,0
557,2430001089070,新規,0,2023-05-16,2023-05-16,叶屋渡邊電工株式会社,,株式会社,北海道,札幌市東区,北四十六条東９丁目６番１１号,,01,103,0070846,,,,,,,2023-05-16,1,,,,,カノウヤワタナベデンコウ,0
563,2470001019619,新規,0,2023-05-16,2023-05-16,寿コンサルティング株式会社,,株式会社,香川県,高松市,出作町２１２番地５,,37,201,7618077,,,,,,,2023-05-16,1,,,,,コトブキコンサルティング,0
565,2480001012102,新規,0,2023-05-16,2023-05-16,大成物産株式会社,,株式会社,徳島県,三好市,池田町白地本名４９番地の１０,,36,208,7785251,,,,,,,2023-05-16,1,,,,,,0
578,3010001235203,新規,0,2023-05-16,2023-05-16,量子宇宙株式会社,,株式会社,東京都,千代田区,神田須田町１丁目６番地２４,,13,101,1010041,,,,,,,2023-05-16,1,,,,,リョウシウチュウ,0
579,3010001235228,新規,0,2023-05-16,2023-05-16,株式会社ボン・ランパス,,株式会社,東京都,千代田区,神田神保町１丁目１０３東京パークタワー２６０６号,,13,101,1010051,,,,,,,2023-05-16,1,,,,,ボンランパス,0
580,3010001235260,新規,0,2023-05-16,2023-05-16,株式会社Ｒｅｄｏｘｔｒｏｎｉｃｓ,,株式会社,東京都,千代田区,九段南１丁目５－６りそな九段ビル５Ｆ‐ＫＳフロア,,13,101,1020074,,,,,,,2023-05-16,1,,,,,レドクストロニクス,0
583,3010003040584,新規,0,2023-05-16,2023-05-16,合同会社ホテル熊本,,合同会社,東京都,千代田区,霞が関３丁目２番５号,,13,101,1000013,,,,,,,2023-05-16,1,,,,,ホテルクマモト,0
584,3010003040601,新規,0,2023-05-16,2023-05-16,合同会社ＨＥ２,,合同会社,東京都,千代田区,一ツ橋２丁目６番３号アクシスインベストメントアドバイザーズ株式会社内,,13,101,1010003,,,,,,,2023-05-16,1,,,,,エイチイーツー,0
588,3010005036655,新規,0,2023-05-16,2023-05-16,一般社団法人国家財政研究所,,その他の設立登記法人,東京都,千代田区,三番町３０番８第二生光ビル６０３,,13,101,1020075,,,,,,,2023-05-16,1,,,,,コッカザイセイケンキュウジョ,0
589,3010005036688,新規,0,2023-05-16,2023-05-16,東京レジ３６一般社団法人,,その他の設立登記法人,東京都,千代田区,丸の内３丁目１番１号東京共同会計事務所内,,13,101,1000005,,,,,,,2023-05-16,1,,,,,トウキョウレジサーティシックス,0
594,3010401174257,新規,0,2023-05-16,2023-05-16,株式会社Ｍａｒｓｑｕａｉ,,株式会社,東京都,港区,南青山２丁目２－１５ウィン青山内,,13,103,1070062,,,,,,,2023-05-16,1,,,,,マーズクワイ,0
595,3010401174315,新規,0,2023-05-16,2023-05-16,株式会社ＨＡＲＡ　Ｍｕｓｉｃ　Ｊａｐａｎ,,株式会社,東京都,港区,南麻布４丁目５番４７号,,13,103,1060047,,,,,,,2023-05-16,1,,,,,ハラミュージックジャパン,0
596,3010401174348,新規,0,2023-05-16,2023-05-16,株式会社Ａｍｙ,,株式会社,東京都,港区,南青山２丁目２番１５号ウィン青山９４２,,13,103,1070062,,,,,,,2023-05-16,1,,,,,エイミ,0
597,3010401174389,新規,0,2023-05-16,2023-05-16,株式会社Ｒａｉｓｅ　Ｊａｐａｎ,,株式会社,東京都,港区,浜松町２丁目１２番９号,,13,103,1050013,,,,,,,2023-05-16,1,,,,,レイズジャパン,0
607,3010601063094,新規,0,2023-05-16,2023-05-16,ＨＥＭＰ　ＶＡＬＵＥ　ＪＡＰＡＮ株式会社,,株式会社,東京都,墨田区,文花１丁目１８番１３号,,13,107,1310044,,,,,,,2023-05-16,1,,,,,ヘンプバリュージャパン,0
609,3010701044250,新規,0,2023-05-16,2023-05-16,株式会社キーウィ,,株式会社,東京都,品川区,東品川１丁目３３番１０号,,13,109,1400002,,,,,,,2023-05-16,1,,,,,キーウィ,0
620,3010901052978,新規,0,2023-05-16,2023-05-16,株式会社Ａｓｃｒｅ,,株式会社,東京都,世田谷区,三軒茶屋１丁目２番地１４号,,13,112,1540024,,,,,,,2023-05-16,1,,,,,アスクレ,0
622,3010903008169,新規,0,2023-05-16,2023-05-16,合同会社Ｙ‐ｔｈｒｅｅ,,合同会社,東京都,世田谷区,世田谷４丁目４番２５－２０１号,,13,112,1540017,,,,,,,2023-05-16,1,,,,,ワイスリー,0
628,3011001154392,新規,0,2023-05-16,2023-05-16,株式会社ココロコ,,株式会社,東京都,渋谷区,円山町５番５号,,13,113,1500044,,,,,,,2023-05-16,1,,,,,ココロコ,0
629,3011001154401,新規,0,2023-05-16,2023-05-16,ＲＥＩ株式会社,,株式会社,東京都,渋谷区,神泉町１０－１５アネックス神泉１００２,,13,113,1500045,,,,,,,2023-05-16,1,,,,,レイ,0
631,3011003016822,新規,0,2023-05-16,2023-05-16,合同会社ｅｍ,,合同会社,東京都,渋谷区,恵比寿２丁目１５番４号Ｍａｎｃｙ’ｓ恵比寿２０１,,13,113,1500013,,,,,,,2023-05-16,1,,,,,エム,0
638,3011101102821,新規,0,2023-05-16,2023-05-16,株式会社ＧＰＧＣ,,株式会社,東京都,新宿区,西新宿７丁目１７番７号,,13,104,1600023,,,,,,,2023-05-16,1,,,,,ジーピージーシー,0
639,3011101102838,新規,0,2023-05-16,2023-05-16,株式会社グランアール,,株式会社,東京都,新宿区,西新宿３丁目３番１３号西新宿水間ビル２Ｆ,,13,104,1600023,,,,,,,2023-05-16,1,,,,,グランアール,0
641,3011203004081,新規,0,2023-05-16,2023-05-16,合同会社スラムワッフル,,合同会社,東京都,中野区,江原町１丁目１７番５号メゾン江原台１０５,,13,114,1650023,,,,,,,2023-05-16,1,,,,,スラムワッフル,0
646,3011401025136,新規,0,2023-05-16,2023-05-16,株式会社常盤型枠,,株式会社,東京都,板橋区,前野町６丁目４７番５号２０１,,13,119,1740063,,,,,,,2023-05-16,1,,,,,トキワカタワク,0
650,3011501029268,新規,0,2023-05-16,2023-05-16,ＳＹＳ株式会社,,株式会社,東京都,北区,十条仲原１丁目３－５鈴木ビル２０１号室,,13,117,1140031,,,,,,,2023-05-16,1,,,,,エスワイエス,0
655,3011701026239,新規,0,2023-05-16,2023-05-16,株式会社湾岸整備,,株式会社,東京都,江戸川区,鹿骨２丁目３番７号,,13,123,1330073,,,,,,,2023-05-16,1,,,,,ワンガンセイビ,0
657,3011801042391,新規,0,2023-05-16,2023-05-16,株式会社三友トラベル,,株式会社,東京都,足立区,鹿浜６丁目２７番４号,,13,121,1230864,,,,,,,2023-05-16,1,,,,,ミトモトラベル,0
662,3012401040521,新規,0,2023-05-16,2023-05-16,株式会社ＲＵＢＹ,,株式会社,東京都,三鷹市,牟礼１丁目８番３号Ｊ,,13,204,1810002,,,,,,,2023-05-16,1,,,,,ルビー,0
666,3013301050750,新規,0,2023-05-16,2023-05-16,日本星辰健康産業株式会社,,株式会社,東京都,豊島区,東池袋１丁目３６番７－７０１号室,,13,116,1700013,,,,,,,2023-05-16,1,,,,,ニホンスターケンコウサンギョウ,0
672,3020001151564,新規,0,2023-05-16,2023-05-16,株式会社Ｃｏａｎｎａ,,株式会社,神奈川県,横浜市西区,平沼１丁目４０番１号嶋森ビル８階,,14,103,2200023,,,,,,,2023-05-16,1,,,,,コアンナ,0
673,3020001151597,新規,0,2023-05-16,2023-05-16,株式会社ＮＳＲコンサルティング,,株式会社,神奈川県,横浜市中区,太田町５丁目６７第一須賀ビル２階Ａ号室,,14,104,2310011,,,,,,,2023-05-16,1,,,,,ナシロコンサルティング,0
674,3020001151622,新規,0,2023-05-16,2023-05-16,株式会社ユコカ,,株式会社,神奈川県,横浜市青葉区,美しが丘１丁目２１番６－３－１０２,,14,117,2250002,,,,,,,2023-05-16,1,,,,,ユコカ,0
683,3021001079011,新規,0,2023-05-16,2023-05-16,青川株式会社,,株式会社,神奈川県,相模原市南区,相模台１丁目１４－３カメヤハイツ３０２,,14,153,2520321,,,,,,,2023-05-16,1,,,,,アオカワ,0
709,3040003022621,新規,0,2023-05-16,2023-05-16,合同会社Ｏｐｐｏｆｉｅｌｄｓ,,合同会社,千葉県,千葉市美浜区,打瀬１丁目２番地３セントラルパーク・ウエスト・シータワー６０３号,,12,106,2610013,,,,,,,2023-05-16,1,,,,,オポフィールズ,0
716,3060001036002,新規,0,2023-05-16,2023-05-16,Ｗｅｓｔ　Ｖａｌｌｅｙ　Ｈｏｌｄｉｎｇｓ株式会社,,株式会社,栃木県,佐野市,堀米町４１番地１,,09,204,3270843,,,,,,,2023-05-16,1,,,,,ウエストバレーホールディングス,0
719,3070001040457,新規,0,2023-05-16,2023-05-16,株式会社図南農業クラブ,,株式会社,群馬県,前橋市,野中町４４７番地１,,10,201,3792166,,,,,,,2023-05-16,1,,,,,トナンノウギョウクラブ,0
725,3080401026484,新規,0,2023-05-16,2023-05-16,株式会社ＬＵＺＣ,,株式会社,静岡県,浜松市中区,鍛冶町１００番地の１ザザシティ浜松中央館Ｂ１Ｆ・ＦＵＳＥ,,22,131,4300933,,,,,,,2023-05-16,1,,,,,ルースクリエイション,0
730,3100001036402,新規,0,2023-05-16,2023-05-16,株式会社ＡｐｐｌｅＮ,,株式会社,長野県,松本市,本庄２丁目４番１号フォーラム本庄２０２号室,,20,202,3900814,,,,,,,2023-05-16,1,,,,,アップルン,0
745,3120001254811,新規,0,2023-05-16,2023-05-16,株式会社ＡＫＡ,,株式会社,大阪府,大阪市住吉区,山之内２丁目２番７号エバーグリーン山之内２０１号,,27,120,5580023,,,,,,,2023-05-16,1,,,,,エーケーエー,0
746,3120001254885,新規,0,2023-05-16,2023-05-16,中益商事株式会社,,株式会社,大阪府,大阪市浪速区,日本橋東３丁目１５番３－４０２号,,27,111,5560006,,,,,,,2023-05-16,1,,,,,チュウエキショウジ,0
747,3120001254951,新規,0,2023-05-16,2023-05-16,株式会社ＭＵＲＯＴＡＮＩ　ＪＡＰＡＮ,,株式会社,大阪府,大阪市北区,堂島１丁目４番１０号岩伸ＧＡＬＩＮＡビル,,27,127,5300003,,,,,,,2023-05-16,1,,,,,ムロタニジャパン,0
749,3120003024023,新規,0,2023-05-16,2023-05-16,Ａｉｓａｓ　Ｉｎｎｏｖａｔｉｏｎ合同会社,,合同会社,大阪府,大阪市中央区,南船場３丁目１１－１０心斎橋大陽ビル３Ｆ,,27,128,5420081,,,,,,,2023-05-16,1,,,,,アイサスイノベーション,0
750,3120003024072,新規,0,2023-05-16,2023-05-16,ＮｏＬｅｍｏｎｓ　ＧｒｏｗｎＵｐＫｉｄｓ奈良難波神戸観光研究所合名会社,,合名会社,大阪府,大阪市城東区,森之宮２丁目第１１６号室,,27,118,5360025,,,,,,,2023-05-16,1,,,,,ノーレモンズグローンアップキッズナラナンバコウベカンコウケンキュウショ,0
754,3120101067535,新規,0,2023-05-16,2023-05-16,漢和投資株式会社,,株式会社,大阪府,泉佐野市,鶴原１丁目３番１９号,,27,213,5980071,,,,,,,2023-05-16,1,,,,,カンワトウシ,0
755,3120101067543,新規,0,2023-05-16,2023-05-16,Ｍａｋｏ　Ｔｒａｄｉｎｇ株式会社,,株式会社,大阪府,和泉市,下宮町９７番地の３,,27,219,5941121,,,,,,,2023-05-16,1,,,,,マコトレーディング,0
757,3120103005220,新規,0,2023-05-16,2023-05-16,合同会社ＡＲＣＨＥ,,合同会社,大阪府,泉佐野市,鶴原５０２番地（５－３０２）,,27,213,5980071,,,,,,,2023-05-16,1,,,,,アーチ,0
761,3122001036974,新規,0,2023-05-16,2023-05-16,株式会社鴻伸ベンダーサービス,,株式会社,大阪府,東大阪市,中鴻池町２丁目９番１５号,,27,227,5780975,,,,,,,2023-05-16,1,,,,,コウシンベンダーサービス,0
764,3130001074325,新規,0,2023-05-16,2023-05-16,株式会社精華住宅,,株式会社,京都府,木津川市,兜台７丁目１３番地１４,,26,214,6190224,,,,,,,2023-05-16,1,,,,,セイカジュウタク,0
770,3170003001868,新規,0,2023-05-16,2023-05-16,合同会社ＰＭ１,,合同会社,和歌山県,岩出市,山７４０番地の１３,,30,209,6496258,,,,,,,2023-05-16,1,,,,,ピーエムワン,0
777,3180001156259,新規,0,2023-05-16,2023-05-16,株式会社北野瓦店,,株式会社,愛知県,一宮市,浅井町黒岩字郷西３７番地１,,23,203,4910141,,,,,,,2023-05-16,1,,,,,キタノカワラテン,0
780,3180003025206,新規,0,2023-05-16,2023-05-16,合同会社ＩＢＵ,,合同会社,愛知県,名古屋市東区,東桜２丁目３－４日中交流会館２Ｆ,,23,102,4610005,,,,,,,2023-05-16,1,,,,,アイビーユー,0
781,3180003025222,新規,0,2023-05-16,2023-05-16,合同会社ハピネスＴ＆Ｋ,,合同会社,愛知県,江南市,和田町中１０１番地,,23,217,4838028,,,,,,,2023-05-16,1,,,,,ハピネスティーアンドケイ,0
789,3200001041318,新規,0,2023-05-16,2023-05-16,もんぞう株式会社,,株式会社,岐阜県,各務原市,上戸町２丁目４３番地１,,21,213,5040927,,,,,,,2023-05-16,1,,,,,モンゾウ,0
797,3240001061519,新規,0,2023-05-16,2023-05-16,株式会社大暉,,株式会社,広島県,尾道市,門田町２０番６号,,34,205,7220017,,,,,,,2023-05-16,1,,,,,ダイキ,0
807,3260005011229,新規,0,2023-05-16,2023-05-16,医療法人社団Ｄｏｒｆ中村,,その他の設立登記法人,岡山県,岡山市北区,津島京町１丁目１番２５号,,33,101,7000087,,,,,,,2023-05-16,1,,,,,ドルフナカムラ,0
813,3290001101501,新規,0,2023-05-16,2023-05-16,株式会社ルモン,,株式会社,福岡県,福岡市博多区,中洲４丁目１番１２号,,40,132,8100801,,,,,,,2023-05-16,1,,,,,ルモン,0
814,3290001101526,新規,0,2023-05-16,2023-05-16,ヒカリシステム株式会社,,株式会社,福岡県,久留米市,高良内町１０２８番地,,40,203,8390852,,,,,,,2023-05-16,1,,,,,ヒカリシステム,0
815,3290001101542,新規,0,2023-05-16,2023-05-16,ハラシビル設計株式会社,,株式会社,福岡県,久留米市,三潴町高三潴１０８２番地,,40,203,8300103,,,,,,,2023-05-16,1,,,,,ハラシビルセッケイ,0
827,3320001019772,新規,0,2023-05-16,2023-05-16,株式会社カーセレクト・エイト,,株式会社,大分県,速見郡日出町,大字大神３２５４番地７３,,44,341,8791504,,,,,,,2023-05-16,1,,,,,カーセレクトエイト,0
836,3340003004127,新規,0,2023-05-16,2023-05-16,合同会社環,,合同会社,鹿児島県,姶良市,加治木町朝日町８１,,46,225,8995213,,,,,,,2023-05-16,1,,,,,カン,0
840,3360001032020,新規,0,2023-05-16,2023-05-16,株式会社ＩＧＥ　ＦＡＭＩＬＩＡ,,株式会社,沖縄県,国頭郡金武町,字金武７９７番地,,47,314,9041201,,,,,,,2023-05-16,1,,,,,イゲファミリア,0
841,3370001049955,新規,0,2023-05-16,2023-05-16,株式会社ＤＯＧＳＨＯＰ　ＢＡＣＫＳ　ＴＡＩＬ,,株式会社,宮城県,仙台市青葉区,落合５丁目３番１３号,,04,101,9893126,,,,,,,2023-05-16,1,,,,,ドッグショップバックステール,0
858,3430001089078,新規,0,2023-05-16,2023-05-16,入初鉱業株式会社,,株式会社,北海道,石狩郡当別町,スウェーデンヒルズ２５４２番地５２,,01,303,0613777,,,,,,,2023-05-16,1,,,,,イリソメコウギョウ,0
869,3500001024928,新規,0,2023-05-16,2023-05-16,株式会社オセロ,,株式会社,愛媛県,西条市,飯岡１１２２番地１０,,38,206,7930010,,,,,,,2023-05-16,1,,,,,オセロ,0
880,4010001235227,新規,0,2023-05-16,2023-05-16,株式会社Ｗｉｓｅｍ,,株式会社,東京都,中央区,銀座７丁目２番１４号,,13,102,1040061,,,,,,,2023-05-16,1,,,,,ワイゼム,0
881,4010001235292,新規,0,2023-05-16,2023-05-16,スキンラボ株式会社,,株式会社,東京都,中央区,八丁堀４丁目３番５号,,13,102,1040032,,,,,,,2023-05-16,1,,,,,スキンラボ,0
882,4010001235326,新規,0,2023-05-16,2023-05-16,株式会社魚月,,株式会社,東京都,中央区,築地４丁目７番５号,,13,102,1040045,,,,,,,2023-05-16,1,,,,,ナヅキ,0
883,4010001235334,新規,0,2023-05-16,2023-05-16,日本森美医学研究院株式会社,,株式会社,東京都,中央区,日本橋蛎殻町１丁目３番５号共同ビル２階２３号,,13,102,1030014,,,,,,,2023-05-16,1,,,,,ニホンモリミイガクケンキュウイン,0
887,4010003040559,新規,0,2023-05-16,2023-05-16,Ａｎｙｂｉｚ合同会社,,合同会社,東京都,中央区,築地２丁目１４番５号サイエスタビル７０２,,13,102,1040045,,,,,,,2023-05-16,1,,,,,エニービズ,0
889,4010005036662,新規,0,2023-05-16,2023-05-16,一般社団法人寄附遺贈支援機構,,その他の設立登記法人,東京都,千代田区,丸の内１丁目６番１号丸の内センタービル１７階,,13,101,1000005,,,,,,,2023-05-16,1,,,,,キフイゾウシエンキコウ,0
898,4010401174330,新規,0,2023-05-16,2023-05-16,ＧｒａｎｄＴｅｃｈ　Ｃｌｏｕｄ　Ｓｅｒｖｉｃｅｓ　Ｊａｐａｎ株式会社,,株式会社,東京都,港区,三田１丁目２番１８号ＴＴＤビル,,13,103,1080073,,,,,,,2023-05-16,1,,,,,グラウンドテッククラウドサービスジャパン,0
899,4010401174388,新規,0,2023-05-16,2023-05-16,株式会社Ｓｔａｒｒｙ　Ｉｓｌａｎｄ,,株式会社,東京都,港区,白金台５丁目６番９号ＷＩＮＤＢＡＳＥ白金３１２号室,,13,103,1080071,,,,,,,2023-05-16,1,,,,,スターリーアイランド,0
904,4010601063093,新規,0,2023-05-16,2023-05-16,株式会社Ｆｒｅａｋｅｒｓ,,株式会社,東京都,江東区,越中島２丁目１番３２号,,13,108,1350044,,,,,,,2023-05-16,1,,,,,フリーカーズ,0
905,4010601063102,新規,0,2023-05-16,2023-05-16,株式会社Ｒｅｑｕｅｌ,,株式会社,東京都,墨田区,錦糸３丁目８－７水島ビル３階,,13,107,1300013,,,,,,,2023-05-16,1,,,,,レクエル,0
906,4010601063110,新規,0,2023-05-16,2023-05-16,株式会社カナ・インテリア,,株式会社,東京都,墨田区,押上１丁目１６番４号１階,,13,107,1310045,,,,,,,2023-05-16,1,,,,,カナインテリア,0
913,4010901053059,新規,0,2023-05-16,2023-05-16,株式会社ｎａａｋ,,株式会社,東京都,世田谷区,北沢２丁目１番１０号リレント下北沢４０１,,13,112,1550031,,,,,,,2023-05-16,1,,,,,ナーク,0
917,4011001154375,新規,0,2023-05-16,2023-05-16,株式会社アルビレオ,,株式会社,東京都,渋谷区,富ヶ谷２丁目３９番９号,,13,113,1510063,,,,,,,2023-05-16,1,,,,,アルビレオ,0
918,4011001154391,新規,0,2023-05-16,2023-05-16,麻ノ製薬株式会社,,株式会社,東京都,渋谷区,代々木２丁目２番１号,,13,113,1510053,,,,,,,2023-05-16,1,,,,,アサノセイヤク,0
919,4011001154409,新規,0,2023-05-16,2023-05-16,株式会社碧三日月社,,株式会社,東京都,渋谷区,東２丁目１５番１ｔｒｉａｓ２１５・４０１号室,,13,113,1500011,,,,,,,2023-05-16,1,,,,,ヘキミカヅキシャ,0
920,4011003016805,新規,0,2023-05-16,2023-05-16,合同会社ｔｃｏｄｅ,,合同会社,東京都,渋谷区,神宮前６丁目２３番４号桑野ビル２階,,13,113,1500001,,,,,,,2023-05-16,1,,,,,ティーコード,0
921,4011003016813,新規,0,2023-05-16,2023-05-16,合同会社ＭＡＲＳ,,合同会社,東京都,渋谷区,西原３丁目２７番８号,,13,113,1510066,,,,,,,2023-05-16,1,,,,,マーズ,0
922,4011003016821,新規,0,2023-05-16,2023-05-16,Ａｒｃｈｅ　ｄｕ　ｍｏｎｄｅ合同会社,,合同会社,東京都,目黒区,碑文谷６丁目７番１号碑文谷壱番館３１６,,13,110,1520003,,,,,,,2023-05-16,1,,,,,アーシュドゥモンド,0
923,4011005010070,新規,0,2023-05-16,2023-05-16,一般社団法人出産・育児情報推進協会,,その他の設立登記法人,東京都,渋谷区,道玄坂１丁目１０番８号渋谷道玄坂東急ビル２Ｆ－Ｃ,,13,113,1500043,,,,,,,2023-05-16,1,,,,,シュッサンイクジジョウホウスイシンキョウカイ,0
926,4011101102845,新規,0,2023-05-16,2023-05-16,株式会社梅岩塾,,株式会社,東京都,新宿区,西新宿７丁目１番７－９１１号（ダイカンプラザＡ館）,,13,104,1600023,,,,,,,2023-05-16,1,,,,,バイガンジュク,0
930,4011201024642,新規,0,2023-05-16,2023-05-16,三協ホールディングス株式会社,,株式会社,東京都,中野区,中央５丁目８番１１号,,13,114,1640011,,,,,,,2023-05-16,1,,,,,サンキョウホールディングス,0
934,4011503005596,新規,0,2023-05-16,2023-05-16,合同会社プロエッジ,,合同会社,東京都,北区,滝野川６丁目８－６カスカータ西巣鴨７０１,,13,117,1140023,,,,,,,2023-05-16,1,,,,,プロエッジ,0
938,4011801042341,新規,0,2023-05-16,2023-05-16,株式会社きらり,,株式会社,東京都,足立区,梅田３丁目１１番２０号,,13,121,1230851,,,,,,,2023-05-16,1,,,,,,0
939,4011801042399,新規,0,2023-05-16,2023-05-16,株式会社ＢＭＣ,,株式会社,東京都,足立区,千住河原町１３番４－２０３号,,13,121,1200037,,,,,,,2023-05-16,1,,,,,ビーエムシー,0
940,4012301013444,新規,0,2023-05-16,2023-05-16,株式会社石建,,株式会社,東京都,町田市,小野路町９７番地,,13,209,1950064,,,,,,,2023-05-16,1,,,,,イシケン,0
953,4020003023901,新規,0,2023-05-16,2023-05-16,合同会社ＫＭパインズ企画,,合同会社,神奈川県,横浜市南区,中里３丁目３番２５号,,14,105,2320063,,,,,,,2023-05-16,1,,,,,ケーエムパインズキカク,0
955,4021001078978,新規,0,2023-05-16,2023-05-16,ａｎＫ株式会社,,株式会社,神奈川県,逗子市,小坪３丁目２４番５号,,14,208,2490008,,,,,,,2023-05-16,1,,,,,アンク,0
956,4021001079019,新規,0,2023-05-16,2023-05-16,株式会社湘南薬品,,株式会社,神奈川県,藤沢市,南藤沢３番４号,,14,205,2510055,,,,,,,2023-05-16,1,,,,,ショウナンヤクヒン,0
957,4021001079051,新規,0,2023-05-16,2023-05-16,株式会社Ｅｓｐｒｉｔ　Ｃｕｒｉｏｓｉｔｅ,,株式会社,神奈川県,鎌倉市,雪ノ下１丁目５－１０クレフォート１Ｄ,,14,204,2480005,,,,,,,2023-05-16,1,,,,,エスプリットキュリオジテ,0
964,4030001153798,新規,0,2023-05-16,2023-05-16,マリア株式会社,,株式会社,埼玉県,富士見市,諏訪２丁目１３番３９号,,11,235,3540023,,,,,,,2023-05-16,1,,,,,マリア,0
965,4030001153930,新規,0,2023-05-16,2023-05-16,株式会社Ｔｅｌｌｕｓ,,株式会社,埼玉県,川越市,大字下新河岸４７,,11,201,3501136,,,,,,,2023-05-16,1,,,,,テルス,0
968,4030005021258,新規,0,2023-05-16,2023-05-16,一般社団法人ワン・ペン・メソッド英語協会,,その他の設立登記法人,埼玉県,越谷市,南越谷２丁目１６－２－６０２,,11,222,3430845,,,,,,,2023-05-16,1,,,,,ワンペンメソッドエイゴキョウカイ,0
972,4040001128411,新規,0,2023-05-16,2023-05-16,佐藤通商株式会社,,株式会社,千葉県,八街市,八街ほ４６番地２１,,12,230,2891115,,,,,,,2023-05-16,1,,,,,サトウツウショウ,0
975,4040003022546,新規,0,2023-05-16,2023-05-16,合同会社ユヨ,,合同会社,千葉県,松戸市,松戸１４３４－２リバーシティ松戸２１２号,,12,207,2710092,,,,,,,2023-05-16,1,,,,,ユヨ,0
976,4040003022570,新規,0,2023-05-16,2023-05-16,合同会社松江,,合同会社,千葉県,松戸市,常盤平柳町１５番地の２３,,12,207,2702263,,,,,,,2023-05-16,1,,,,,マツエ,0
986,4070001040448,新規,0,2023-05-16,2023-05-16,株式会社ＭＩＲＯＩＲ,,株式会社,群馬県,太田市,尾島町５０４番地１チェリーテラス１０１,,10,205,3700401,,,,,,,2023-05-16,1,,,,,ミロワール,0
987,4070001040456,新規,0,2023-05-16,2023-05-16,株式会社毛利畜産,,株式会社,群馬県,安中市,松井田町松井田１１番地３,,10,211,3790222,,,,,,,2023-05-16,1,,,,,モウリチクサン,0
989,4080001025621,新規,0,2023-05-16,2023-05-16,株式会社ネクストエム,,株式会社,静岡県,静岡市清水区,草薙２丁目３番５０－３１０号,,22,103,4240886,,,,,,,2023-05-16,1,,,,,ネクストエム,0
990,4080101023995,新規,0,2023-05-16,2023-05-16,株式会社ＰｅｐＵｐ,,株式会社,静岡県,御殿場市,東田中８８９番地の１芹沢住宅Ａ,,22,215,4120026,,,,,,,2023-05-16,1,,,,,ペップアップ,0
998,4100003007012,新規,0,2023-05-16,2023-05-16,合同会社ＬｕＡ,,合同会社,長野県,諏訪市,高島１丁目１６番８号,,20,206,3920022,,,,,,,2023-05-16,1,,,,,ルア,0
1000,4110001037530,新規,0,2023-05-16,2023-05-16,株式会社マツザワ,,株式会社,新潟県,新潟市江南区,両川１丁目１２０１番地１３,,15,104,9500322,,,,,,,2023-05-16,1,,,,,マツザワ,0
1001,4110001037539,新規,0,2023-05-16,2023-05-16,株式会社小布施技研,,株式会社,新潟県,新潟市東区,下木戸２丁目１９番３３号,,15,102,9500885,,,,,,,2023-05-16,1,,,,,コフセギケン,0
1009,4120001254810,新規,0,2023-05-16,2023-05-16,株式会社Ｍａｓｔｅｒ　Ｇｕｉｌｄ,,株式会社,大阪府,大阪市北区,梅田１丁目２番２号大阪駅前第２ビル１２－１２,,27,127,5300001,,,,,,,2023-05-16,1,,,,,マスターギルド,0
1010,4120001254827,新規,0,2023-05-16,2023-05-16,福寿建機株式会社,,株式会社,大阪府,大阪市東成区,中道３丁目１番６号田宮ビル４０２,,27,115,5370025,,,,,,,2023-05-16,1,,,,,フクジュケンキ,0
1011,4120001254901,新規,0,2023-05-16,2023-05-16,株式会社ＮＩＢ,,株式会社,大阪府,大阪市北区,中之島４丁目２番２８－１１０５号,,27,127,5300005,,,,,,,2023-05-16,1,,,,,エヌアイビー,0
1012,4120001254926,新規,0,2023-05-16,2023-05-16,株式会社福島会計事務所,,株式会社,大阪府,大阪市中央区,安土町１丁目６番１８号,,27,128,5410052,,,,,,,2023-05-16,1,,,,,フクシマカイケイジムショ,0
1013,4120001254934,新規,0,2023-05-16,2023-05-16,欧諾宝株式会社,,株式会社,大阪府,大阪市住吉区,山之内５丁目２－４,,27,120,5580023,,,,,,,2023-05-16,1,,,,,オウダクホウ,0
1014,4120001254959,新規,0,2023-05-16,2023-05-16,株式会社ＣｒａｆＴａｂｌｅ,,株式会社,大阪府,大阪市東成区,玉津１丁目２番１８号,,27,115,5370023,,,,,,,2023-05-16,1,,,,,クラフターブル,0
1019,4120003024022,新規,0,2023-05-16,2023-05-16,アシスト合同会社,,合同会社,大阪府,大阪市中央区,南船場３丁目１１－１０心斎橋大陽ビルＢ１Ｆ,,27,128,5420081,,,,,,,2023-05-16,1,,,,,アシスト,0
1020,4120003024055,新規,0,2023-05-16,2023-05-16,リンクヘルピング合同会社,,合同会社,大阪府,大阪市中央区,農人橋１丁目１－２９アップルタワー大阪谷町１８０５号室,,27,128,5400011,,,,,,,2023-05-16,1,,,,,リンクヘルピング,0
1021,4120003024063,新規,0,2023-05-16,2023-05-16,合同会社ムーンコーポレーション,,合同会社,大阪府,大阪市西区,京町堀１丁目１７番１６号京町堀センタービルディング２Ｆ,,27,106,5500003,,,,,,,2023-05-16,1,,,,,ムーンコーポレーション,0
1022,4120101067526,新規,0,2023-05-16,2023-05-16,株式会社旭クリエーション,,株式会社,大阪府,大阪狭山市,半田５丁目１４４番地の３,,27,231,5890011,,,,,,,2023-05-16,1,,,,,アサヒクリエーション,0
1027,4120903004635,新規,0,2023-05-16,2023-05-16,合同会社笑美鈴,,合同会社,大阪府,吹田市,芳野町１１－１バウハウス１Ｆ,,27,205,5640054,,,,,,,2023-05-16,1,,,,,エミス,0
1029,4122001036973,新規,0,2023-05-16,2023-05-16,株式会社ＤｅｎｔＳＲ,,株式会社,大阪府,東大阪市,永和１丁目３番１０－１５０１号,,27,227,5770809,,,,,,,2023-05-16,1,,,,,デントエスアール,0
1030,4130003008718,新規,0,2023-05-16,2023-05-16,Ｋ　ｃａｐｉｔａｌ合同会社,,合同会社,京都府,京丹後市,大宮町善王寺６３５－２－１０３号,,26,212,6292504,,,,,,,2023-05-16,1,,,,,ケイキャピタル,0
1038,4140001130191,新規,0,2023-05-16,2023-05-16,盛源商行株式会社,,株式会社,兵庫県,神戸市中央区,元町通２丁目２番３号,,28,110,6500022,,,,,,,2023-05-16,1,,,,,セイゲンショウコウ,0
1042,4140003019094,新規,0,2023-05-16,2023-05-16,合同会社ボレロ,,合同会社,兵庫県,西宮市,南昭和町３番１３号,,28,204,6620834,,,,,,,2023-05-16,1,,,,,ボレロ,0
1052,4180001156308,新規,0,2023-05-16,2023-05-16,司管理事務所株式会社,,株式会社,愛知県,名古屋市中村区,則武２丁目１４番１１号,,23,105,4530014,,,,,,,2023-05-16,1,,,,,ツカサカンリジムショ,0
1053,4180001156332,新規,0,2023-05-16,2023-05-16,株式会社ｍｏｏｎ　ｂａｌａｎｃｅｂａｌｌ,,株式会社,愛知県,瀬戸市,東長根町３番地の２,,23,204,4890871,,,,,,,2023-05-16,1,,,,,ムーンバランスボール,0
1054,4180001156340,新規,0,2023-05-16,2023-05-16,株式会社スズショウ,,株式会社,愛知県,海部郡大治町,大字花常字出口１０２番地の１,,23,424,4901136,,,,,,,2023-05-16,1,,,,,スズショウ,0
1055,4180001156349,新規,0,2023-05-16,2023-05-16,株式会社フェニックスクラウド,,株式会社,愛知県,名古屋市名東区,八前２丁目３１０番地,,23,115,4650018,,,,,,,2023-05-16,1,,,,,フェニックスクラウド,0
1068,4240005015577,新規,0,2023-05-16,2023-05-16,一般社団法人ライフジョイント,,その他の設立登記法人,広島県,三次市,三和町羽出庭２６５４番地４,,34,209,7296614,,,,,,,2023-05-16,1,,,,,ライフジョイント,0
1071,4260001037945,新規,0,2023-05-16,2023-05-16,株式会社Ｃ．Ｗ．Ｐ,,株式会社,岡山県,倉敷市,新田３０５５番地２,,33,202,7100038,,,,,,,2023-05-16,1,,,,,シーダブルピー,0
1077,4290001101509,新規,0,2023-05-16,2023-05-16,株式会社福岡ウイニングスピリッツ,,株式会社,福岡県,福岡市博多区,冷泉町６番１５‐４０５,,40,132,8120039,,,,,,,2023-05-16,1,,,,,フクオカウイニングスピリッツ,0
1078,4290001101566,新規,0,2023-05-16,2023-05-16,宗像陸上養殖株式会社,,株式会社,福岡県,宗像市,江口１４１４番地１,,40,220,8113502,,,,,,,2023-05-16,1,,,,,ムナカタリクジョウヨウショク,0
1083,4290003013900,新規,0,2023-05-16,2023-05-16,アマサズ合同会社,,合同会社,福岡県,福岡市中央区,春吉２丁目１３番２４－５０１号エンクレスト天神ＩＶ,00130507,40,133,8100003,,,,,,,2023-05-16,1,,,,,アマサズ,0
1097,4340001025578,新規,0,2023-05-16,2023-05-16,徳澤技建株式会社,00130513,株式会社,鹿児島県,奄美市,名瀬浦上町１８番地８,,46,222,8940068,,,,,,,2023-05-16,1,,,,,トクザワギケン,0
1098,4340001025586,新規,0,2023-05-16,2023-05-16,株式会社スミカラ,,株式会社,鹿児島県,鹿屋市,今坂町１０１０７番地１６,,46,203,8930057,,,,,,,2023-05-16,1,,,,,スミカラ,0
1110,4380001033692,新規,0,2023-05-16,2023-05-16,株式会社レザレクション,,株式会社,福島県,いわき市,平下平窪字大念仏５番４,,07,204,9708003,,,,,,,2023-05-16,1,,,,,レザレクション,0
1119,4400005008333,新規,0,2023-05-16,2023-05-16,一般社団法人岩手イノベーションベース,,その他の設立登記法人,岩手県,久慈市,田屋町第１地割３０番地８,,03,207,0280022,,,,,,,2023-05-16,1,,,,,イワテイノベーションベース,0
1122,4430001089102,新規,0,2023-05-16,2023-05-16,株式会社ＬＯＩａｕｔｏ,,株式会社,北海道,札幌市中央区,南二条西２３丁目１番７号－２０７号室,,01,101,0640802,,,,,,,2023-05-16,1,,,,,ロイオート,0
1123,4430001089127,新規,0,2023-05-16,2023-05-16,株式会社タイズデンタル,,株式会社,北海道,札幌市東区,東苗穂四条２丁目７番２４号,,01,103,0070804,,,,,,,2023-05-16,1,,,,,タイズデンタル,0
1128,4500001024927,新規,0,2023-05-16,2023-05-16,株式会社トップボルト,,株式会社,愛媛県,松山市,東石井５丁目８－３０,,38,201,7900932,,,,,,,2023-05-16,1,,,,,,0
1138,5010001235151,新規,0,2023-05-16,2023-05-16,東日通商株式会社,,株式会社,東京都,中央区,日本橋小伝馬町１－１日本橋末広ビル５階,,13,102,1030001,,,,,,,2023-05-16,1,,,,,トウニチツウショウ,0
1139,5010001235259,新規,0,2023-05-16,2023-05-16,チヂキ東京サンレオ株式会社,,株式会社,東京都,文京区,白山１丁目２６番２０号,,13,105,1130001,,,,,,,2023-05-16,1,,,,,チヂキトウキョウサンレオ,0
1140,5010001235275,新規,0,2023-05-16,2023-05-16,株式会社ｉｋｓ,,株式会社,東京都,文京区,本郷２丁目４０番１７号本郷若井ビル２階,,13,105,1130033,,,,,,,2023-05-16,1,,,,,イクス,0
1144,5010005036653,新規,0,2023-05-16,2023-05-16,一般社団法人総合免疫学術機構,,その他の設立登記法人,東京都,千代田区,一番町２番地３一番町パークマンション２０１,,13,101,1020082,,,,,,,2023-05-16,1,,,,,ソウゴウメンエキガクジュツキコウ,0
1146,5010103002136,新規,0,2023-05-16,2023-05-16,合同会社アシスト,,合同会社,東京都,八王子市,長沼町１３４番地３３４,,13,201,1920907,,,,,,,2023-05-16,1,,,,,アシスト,0
1147,5010401174263,新規,0,2023-05-16,2023-05-16,ＤｏｔＡＩ株式会社,,株式会社,東京都,港区,南青山３丁目１７番１４号中山ビルディング４Ｆ,,13,103,1070062,,,,,,,2023-05-16,1,,,,,ドットエーアイ,0
1148,5010401174445,新規,0,2023-05-16,2023-05-16,Ｗｅｌｌｂｅｉｎｇ　Ｅｌｅｍｅｎｔｓ株式会社,,株式会社,東京都,港区,虎ノ門２丁目２番５号共同通信会館４階ＳＣＳ国際税理士法人内,,13,103,1050001,,,,,,,2023-05-16,1,,,,,ウェルビーイングエレメンツ,0
1151,5010403030084,新規,0,2023-05-16,2023-05-16,合同会社Ｃプラス,,合同会社,東京都,港区,高輪３丁目１０番２号,,13,103,1080074,,,,,,,2023-05-16,1,,,,,シープラス,0
1154,5010501050463,新規,0,2023-05-16,2023-05-16,帝心株式会社,,株式会社,東京都,台東区,浅草橋３丁目２８番３－７０４号ＴＲＡＤＩＳ浅草橋,,13,106,1110053,,,,,,,2023-05-16,1,,,,,テイシン,0
1165,5010901053033,新規,0,2023-05-16,2023-05-16,株式会社Ｓ‐ＴＴＮ,,株式会社,東京都,世田谷区,奥沢６丁目１１番４号レピュートハイツ２０６,,13,112,1580083,,,,,,,2023-05-16,1,,,,,エスティーティーエヌ,0
1166,5010901053058,新規,0,2023-05-16,2023-05-16,株式会社オレンジ,,株式会社,東京都,世田谷区,玉川２丁目５番３ー２０７号,,13,112,1580094,,,,,,,2023-05-16,1,,,,,オレンジ,0
1170,5010903008175,新規,0,2023-05-16,2023-05-16,ＲＥアカウンティング合同会社,,合同会社,東京都,世田谷区,代沢３丁目１１番１２―３０３号,,13,112,1550032,,,,,,,2023-05-16,1,,,,,アールイーアカウンティング,0
1171,5011001154366,新規,0,2023-05-16,2023-05-16,株式会社２０４９,,株式会社,東京都,渋谷区,千駄ヶ谷２丁目３番５号リリーハイツ３０６,,13,113,1510051,,,,,,,2023-05-16,1,,,,,トゥーオーフォーナイン,0
1172,5011001154374,新規,0,2023-05-16,2023-05-16,株式会社ネル,,株式会社,東京都,渋谷区,渋谷２丁目１９番１５号宮益坂ビルディング６０９,,13,113,1500002,,,,,,,2023-05-16,1,,,,,ネル,0
1173,5011001154416,新規,0,2023-05-16,2023-05-16,ＫＨＤ株式会社,,株式会社,東京都,渋谷区,本町４丁目４番１３－５０１号Ｂｒｉｌｌｉａｉｓｔ渋谷本町,,13,113,1510071,,,,,,,2023-05-16,1,,,,,ケイホールディングス,0
1174,5011001154424,新規,0,2023-05-16,2023-05-16,株式会社人中の龍,,株式会社,東京都,渋谷区,恵比寿１丁目１８番４号ヴィレッジイースト３Ｆ,,13,113,1500013,,,,,,,2023-05-16,1,,,,,ジンチュウノリュウ,0
1177,5011003016820,新規,0,2023-05-16,2023-05-16,ＭＡＴ３１合同会社,,合同会社,東京都,目黒区,柿の木坂３丁目８番１７号,,13,110,1520022,,,,,,,2023-05-16,1,,,,,マットサーティーワン,0
1178,5011003016837,新規,0,2023-05-16,2023-05-16,Ｋｅｙ‐Ｇｏｏ‐Ｍｅｅ合同会社,,合同会社,東京都,渋谷区,神宮前６丁目２３番４号２階,,13,113,1500001,,,,,,,2023-05-16,1,,,,,キグミ,0
1190,5011101102836,新規,0,2023-05-16,2023-05-16,株式会社ＫＲＥＡＳ,,株式会社,東京都,新宿区,中井１丁目１３－１９長生マンション２０３,,13,104,1610035,,,,,,,2023-05-16,1,,,,,クレアス,0
1191,5011101102869,新規,0,2023-05-16,2023-05-16,といろ株式会社,,株式会社,東京都,新宿区,新宿２丁目１６番９号五城ビル４階,,13,104,1600022,,,,,,,2023-05-16,1,,,,,トイロ,0
1194,5011401025101,新規,0,2023-05-16,2023-05-16,株式会社ベストリー,,株式会社,東京都,板橋区,舟渡１丁目１４番２３号ルーエ浮間舟戸４０８,,13,119,1740041,,,,,,,2023-05-16,1,,,,,ベストリー,0
1195,5011403004004,新規,0,2023-05-16,2023-05-16,ＮＵＲ　ＩＮＴＥＲＮＡＴＩＯＮＡＬ合同会社,,合同会社,東京都,板橋区,中台１丁目３番６号アスパ上板橋Ｂ号室,,13,119,1740064,,,,,,,2023-05-16,1,,,,,ヌルインターナショナル,0
1197,5011501029274,新規,0,2023-05-16,2023-05-16,株式会社食堂渋谷,,株式会社,東京都,北区,中里３丁目１５番３－５０７号,,13,117,1140015,,,,,,,2023-05-16,1,,,,,ショクドウシブヤ,0
1198,5011501029290,新規,0,2023-05-16,2023-05-16,嘉庭国際株式会社,,株式会社,東京都,北区,王子本町１丁目２２番１号３０１号室,,13,117,1140022,,,,,,,2023-05-16,1,,,,,カテイコクサイ,0
1199,5011501029299,新規,0,2023-05-16,2023-05-16,株式会社ジャンラフィット,,株式会社,東京都,北区,王子１丁目５－１２,,13,117,1140002,,,,,,,2023-05-16,1,,,,,ジャンラフィット,0
1204,5011801042398,新規,0,2023-05-16,2023-05-16,柳やサイン株式会社,,株式会社,東京都,葛飾区,東新小岩５丁目７番１２号,,13,122,1240023,,,,,,,2023-05-16,1,,,,,ヤナギヤサイン,0
1205,5012301013443,新規,0,2023-05-16,2023-05-16,株式会社敬理,,株式会社,東京都,町田市,森野５丁目１８番２号,,13,209,1940022,,,,,,,2023-05-16,1,,,,,ケイリ,0
1209,5013301050773,新規,0,2023-05-16,2023-05-16,株式会社ｍｕｕｂ,,株式会社,東京都,豊島区,南大塚２丁目３８番１号ＭＩＤ・ＰＯＩＮＴ大塚５Ｆ－０５,,13,116,1700005,,,,,,,2023-05-16,1,,,,,ムーブ,0
1210,5013303006633,新規,0,2023-05-16,2023-05-16,合同会社エムスト,,合同会社,東京都,豊島区,千早２丁目３８－１６,,13,116,1710044,,,,,,,2023-05-16,1,,,,,エムスト,0
1220,5020001151430,新規,0,2023-05-16,2023-05-16,天天農園株式会社,,株式会社,神奈川県,横浜市中区,山手町９０番地１３,,14,104,2310862,,,,,,,2023-05-16,1,,,,,テンテンノウエン,0
1221,5020001151612,新規,0,2023-05-16,2023-05-16,輝聿株式会社,,株式会社,神奈川県,川崎市川崎区,大師駅前２丁目１番１－１１０号,,14,131,2100802,,,,,,,2023-05-16,1,,,,,キイツ,0
1222,5020001151620,新規,0,2023-05-16,2023-05-16,株式会社アイル,,株式会社,神奈川県,川崎市川崎区,四谷上町１６番２１号,,14,131,2100828,,,,,,,2023-05-16,1,,,,,アイル,0
1223,5020001151629,新規,0,2023-05-16,2023-05-16,株式会社ＡＩ　Ｍｅｄｉｃａｌ　Ｃｏｎｓｕｌｔｉｎｇ,,株式会社,神奈川県,川崎市宮前区,鷺沼４丁目１４番地２鷺沼の杜Ｂ－５０９,,14,136,2160004,,,,,,,2023-05-16,1,,,,,エーアイメディカルコンサルティング,0
1234,5020005015986,新規,0,2023-05-16,2023-05-16,一般社団法人神奈川被害者支援センター,,その他の設立登記法人,神奈川県,横浜市神奈川区,鶴屋町２丁目２４番地の２,,14,102,2210835,,,,,,,2023-05-16,1,,,,,カナガワヒガイシャシエンセンター,0
1238,5021001079050,新規,0,2023-05-16,2023-05-16,株式会社興栄企画,,株式会社,神奈川県,足柄上郡中井町,遠藤８７６番地１１,,14,361,2590141,,,,,,,2023-05-16,1,,,,,コウエイキカク,0
1239,5021003013073,新規,0,2023-05-16,2023-05-16,ＳＫＳ合同会社,,合同会社,神奈川県,相模原市南区,東林間６丁目２番４号,,14,153,2520311,,,,,,,2023-05-16,1,,,,,エスケーエス,0
1253,5030003021746,新規,0,2023-05-16,2023-05-16,ＫＡＶＩＳＨ合同会社,,合同会社,埼玉県,桶川市,若宮２丁目１－３若宮ビル２０１号室,,11,231,3630022,,,,,,,2023-05-16,1,,,,,カビス,0
1260,5080001025620,新規,0,2023-05-16,2023-05-16,株式会社ちょびすけ,,株式会社,静岡県,静岡市駿河区,馬渕３丁目１３番３６号,,22,102,4228063,,,,,,,2023-05-16,1,,,,,チョビスケ,0
1271,5100005013016,新規,0,2023-05-16,2023-05-16,あずさ税理士法人,,その他の設立登記法人,長野県,松本市,中央１丁目２１番３号長野県理容会館２階南号室,,20,202,3900811,,,,,,,2023-05-16,1,,,,,アズサ,0
1290,5120001254636,新規,0,2023-05-16,2023-05-16,株式会社Ａ．Ｍ．Ｆ,,株式会社,大阪府,大阪市浪速区,元町１丁目２－２,,27,111,5560016,,,,,,,2023-05-16,1,,,,,エーエムエフ,0
1291,5120001254909,新規,0,2023-05-16,2023-05-16,株式会社枚方揚走,,株式会社,大阪府,枚方市,村野東町４６番４号,,27,210,5730015,,,,,,,2023-05-16,1,,,,,ヒラカタヨウソウ,0
1293,5120003024021,新規,0,2023-05-16,2023-05-16,合同会社インクル,,合同会社,大阪府,大阪市浪速区,恵美須西３丁目１２－２－３０１,,27,111,5560003,,,,,,,2023-05-16,1,,,,,インクル,0
1294,5120003024046,新規,0,2023-05-16,2023-05-16,合同会社ソマリデンタルオフィス,,合同会社,大阪府,大阪市北区,梅田１丁目２番２号大阪駅前第２ビル１２－１２,,27,127,5300001,,,,,,,2023-05-16,1,,,,,ソマリデンタルオフィス,0
1298,5120101067533,新規,0,2023-05-16,2023-05-16,オールハート株式会社,,株式会社,大阪府,藤井寺市,御舟町６番１６号,,27,226,5830021,,,,,,,2023-05-16,1,,,,,オールハート,0
1302,5120901047528,新規,0,2023-05-16,2023-05-16,株式会社Ｍｓａ,,株式会社,大阪府,豊中市,緑丘１丁目４番５号,,27,203,5600002,,,,,,,2023-05-16,1,,,,,エムエスエー,0
1306,5122001036972,新規,0,2023-05-16,2023-05-16,上垣メタル株式会社,,株式会社,大阪府,八尾市,新家町６丁目２９,,27,212,5810811,,,,,,,2023-05-16,1,,,,,ウエガキメタル,0
1307,5122001036980,新規,0,2023-05-16,2023-05-16,株式会社Ｋ’ｓ　ｗｏｒｋｓ,,株式会社,大阪府,八尾市,中田２丁目４０５番地プロスベール３０５号,,27,212,5810014,,,,,,,2023-05-16,1,,,,,ケーズワークス,0
1308,5130003008725,新規,0,2023-05-16,2023-05-16,合同会社ＫＩＴ,,合同会社,京都府,京都市左京区,下鴨松ノ木町８８番地１１,,26,103,6060816,,,,,,,2023-05-16,1,,,,,キット,0
1315,5140003019085,新規,0,2023-05-16,2023-05-16,合同会社ＹＭＣ,,合同会社,兵庫県,尼崎市,富松町１丁目２６番２９－３０１号,,28,202,6610003,,,,,,,2023-05-16,1,,,,,ワイエムシー,0
1325,5180001156265,新規,0,2023-05-16,2023-05-16,株式会社ＫＪキャピタル,,株式会社,愛知県,東海市,富木島町山中１６０番地の３,,23,222,4760011,,,,,,,2023-05-16,1,,,,,ケイジェイキャピタル,0
1326,5180001156315,新規,0,2023-05-16,2023-05-16,株式会社白壁さくら事務所,,株式会社,愛知県,名古屋市東区,白壁４丁目８３番地グラン　レ・ジェイド　白壁　月露ノ邸３０３号,,23,102,4610011,,,,,,,2023-05-16,1,,,,,シラカベサクラジムショ,0
1327,5180001156356,新規,0,2023-05-16,2023-05-16,栄興商事株式会社,,株式会社,愛知県,名古屋市守山区,瀬古東２丁目６２１番地の３,,23,113,4630090,,,,,,,2023-05-16,1,,,,,エイコウショウジ,0
1333,5180003025212,新規,0,2023-05-16,2023-05-16,合同会社ミライの歩き方,,合同会社,愛知県,名古屋市南区,豊１丁目４１番１７号,,23,112,4570863,,,,,,,2023-05-16,1,,,,,ミライノアルキカタ,0
1334,5180003025229,新規,0,2023-05-16,2023-05-16,合同会社ＴＹＳ・真栄,,合同会社,愛知県,名古屋市北区,長田町１丁目５番地の２,,23,103,4620834,,,,,,,2023-05-16,1,,,,,ティワイエスシンエイ,0
1335,5180003025237,新規,0,2023-05-16,2023-05-16,合同会社Ｆｕｎａｎｅｃｏ,,合同会社,愛知県,東海市,名和町切戸９番地の５,,23,222,4760002,,,,,,,2023-05-16,1,,,,,フナネコ,0
1339,5200001041299,新規,0,2023-05-16,2023-05-16,株式会社下牧農園,,株式会社,岐阜県,郡上市,高鷲町鷲見４９３７番地,,21,219,5015302,,,,,,,2023-05-16,1,,,,,シモマキノウエン,0
1342,5210003001647,新規,0,2023-05-16,2023-05-16,アルケーミーム合同会社,,合同会社,福井県,坂井市,三国町緑ケ丘５丁目４－８,,18,210,9130048,,,,,,,2023-05-16,1,,,,,アルケーミーム,0
1344,5240001061483,新規,0,2023-05-16,2023-05-16,株式会社ロッシュ,,株式会社,広島県,広島市東区,矢賀６丁目１番２５－５号,,34,102,7320042,,,,,,,2023-05-16,1,,,,,ロッシュ,0
1347,5260001037944,新規,0,2023-05-16,2023-05-16,株式会社ＤＤＥ西日本,,株式会社,岡山県,岡山市北区,表町２丁目３番５５号,,33,101,7000822,,,,,,,2023-05-16,1,,,,,ディーディーイーニシニホン,0
1348,5260003004307,新規,0,2023-05-16,2023-05-16,ＦＩＫＣＡＭ合同会社,,合同会社,岡山県,岡山市北区,中原８３４,,33,101,7012155,,,,,,,2023-05-16,1,,,,,フィカム,0
1354,5290001101524,新規,0,2023-05-16,2023-05-16,株式会社Ｆｒｕｉｔｓ　Ｆａｃｔｏｒｙ,,株式会社,福岡県,福岡市中央区,今泉１丁目２番２０－１７０６号天神プレイスＷＥＳＴ棟,,40,133,8100021,,,,,,,2023-05-16,1,,,,,フルーツファクトリー,0
1355,5290001101557,新規,0,2023-05-16,2023-05-16,株式会社ヒルトップ１１,,株式会社,福岡県,宗像市,武丸９５０番地１５,,40,220,8114152,,,,,,,2023-05-16,1,,,,,ヒルトップイレブン,0
1358,5290003013908,新規,0,2023-05-16,2023-05-16,合同会社ライフイノベーション,,合同会社,福岡県,宗像市,須恵３丁目１２番２号,,40,220,8113405,,,,,,,2023-05-16,1,,,,,ライフイノベーション,0
1360,5300001013296,新規,0,2023-05-16,2023-05-16,株式会社スクエアー,,株式会社,佐賀県,三養基郡みやき町,大字簑原５４０１番地２,,41,346,8490102,,,,,,,2023-05-16,1,,,,,スクエアー,0
1362,5320001019762,新規,0,2023-05-16,2023-05-16,株式会社照栄工業,,株式会社,大分県,別府市,石垣東１丁目２番８－６０１号ジェムシティ境川,,44,202,8740919,,,,,,,2023-05-16,1,,,,,ショウエイコウギョウ,0
1366,5340001025577,新規,0,2023-05-16,2023-05-16,株式会社ＤＲＥＡＭ,,株式会社,鹿児島県,奄美市,名瀬久里町２０番１５号,,46,222,8940022,,,,,,,2023-05-16,1,,,,,ドリーム,0
1381,5420003002723,新規,0,2023-05-16,2023-05-16,北陽冷設合同会社,,合同会社,青森県,青森市,浜館１丁目１３番地１０,,02,201,0300947,,,,,,,2023-05-16,1,,,,,ホクヨウレイセツ,0
1385,5430001089043,新規,0,2023-05-16,2023-05-16,株式会社ドコカ,,株式会社,北海道,札幌市清田区,真栄二条２丁目２番２３号,,01,110,0040832,,,,,,,2023-05-16,1,,,,,ドコカ,0
1386,5430001089101,新規,0,2023-05-16,2023-05-16,株式会社ラフメット,,株式会社,北海道,新冠郡新冠町,字北星町６番地の８,,01,604,0592403,,,,,,,2023-05-16,1,,,,,ラフメット,0
1389,5430003015030,新規,0,2023-05-16,2023-05-16,合同会社才光,,合同会社,北海道,札幌市白石区,菊水五条１丁目６－９－１２２号室,,01,104,0030805,,,,,,,2023-05-16,1,,,,,サイコウ,0
1393,5480003001983,新規,0,2023-05-16,2023-05-16,合同会社ジェイノマド,,合同会社,徳島県,阿波市,吉野町西条字岡ノ川原１７３番地１,,36,206,7711402,,,,,,,2023-05-16,1,,,,,ジェイノマド,0
1402,6010001235209,新規,0,2023-05-16,2023-05-16,希不動産株式会社,,株式会社,東京都,中央区,晴海２丁目３番２号４６１３,,13,102,1040053,,,,,,,2023-05-16,1,,,,,ノゾミフドウサン,0
1403,6010001235225,新規,0,2023-05-16,2023-05-16,株式会社Ｄａｒｗｉｎ’ｓ　Ｌａｂ．,,株式会社,東京都,中央区,築地７丁目１３番７－３０６号,,13,102,1040045,,,,,,,2023-05-16,1,,,,,ダーウィンズラボ,0
1404,6010001235258,新規,0,2023-05-16,2023-05-16,株式会社ダイヤモンドリリー,,株式会社,東京都,千代田区,麹町３丁目２番地９,,13,101,1020083,,,,,,,2023-05-16,1,,,,,ダイヤモンドリリー,0
1405,6010001235332,新規,0,2023-05-16,2023-05-16,株式会社ＣＥＣアセットマネジメント,,株式会社,東京都,千代田区,大手町２丁目７番１号,,13,101,1000004,,,,,,,2023-05-16,1,,,,,シーイーシーアセットマネジメント,0
1408,6010005036628,新規,0,2023-05-16,2023-05-16,一般社団法人ルール形成戦略機構,,その他の設立登記法人,東京都,千代田区,丸の内１丁目７番１２号サピアタワー８階,,13,101,1000005,,,,,,,2023-05-16,1,,,,,ルールケイセイセンリャクキコウ,0
1409,6010005036660,新規,0,2023-05-16,2023-05-16,一般社団法人美容皮膚エキスパートナース育成協会,,その他の設立登記法人,東京都,中央区,銀座４丁目６番１号三和ビル４Ｆ,,13,102,1040061,,,,,,,2023-05-16,1,,,,,ビヨウヒフエキスパートナースイクセイキョウカイ,0
1422,6010401174329,新規,0,2023-05-16,2023-05-16,株式会社仲裁審問東京施設,,株式会社,東京都,港区,赤坂１丁目１２番３２号,,13,103,1070052,,,,,,,2023-05-16,1,,,,,チュウサイシンモントウキョウシセツ,0
1423,6010401174337,新規,0,2023-05-16,2023-05-16,株式会社ブルームデベロップメント,,株式会社,東京都,港区,東新橋２丁目１１番４号,,13,103,1050021,,,,,,,2023-05-16,1,,,,,ブルームデベロップメント,0
1424,6010401174353,新規,0,2023-05-16,2023-05-16,株式会社サイバーイーグル,,株式会社,東京都,港区,新橋２丁目２０番１５新橋駅前ビル１号館６階ビステーション新橋,,13,103,1050004,,,,,,,2023-05-16,1,,,,,サイバーイーグル,0
1425,6010401174436,新規,0,2023-05-16,2023-05-16,コーラル・バレリー株式会社,,株式会社,東京都,港区,南青山４丁目１６番７号,,13,103,1070062,,,,,,,2023-05-16,1,,,,,コーラルバレリー,0
1435,6010601063091,新規,0,2023-05-16,2023-05-16,株式会社Ｓｏｔｏ,,株式会社,東京都,江東区,佐賀１丁目１６番６号サンハイム門前仲町４０１,,13,108,1350031,,,,,,,2023-05-16,1,,,,,ソト,0
1436,6010601063100,新規,0,2023-05-16,2023-05-16,株式会社Ｃｏｃｏ　Ｕｐ　Ｌｉｆｅ,,株式会社,東京都,墨田区,江東橋４丁目２７－１４楽天地ビル３Ｆ,,13,107,1300022,,,,,,,2023-05-16,1,,,,,ココアップライフ,0
1439,6010701044231,新規,0,2023-05-16,2023-05-16,株式会社ＴＭＬ,,株式会社,東京都,品川区,東五反田５丁目２３番７号,,13,109,1410022,,,,,,,2023-05-16,1,,,,,ティーエムエル,0
1440,6010701044248,新規,0,2023-05-16,2023-05-16,株式会社ウイングブリッジ,,株式会社,東京都,品川区,戸越１丁目２７番１０号ハイツ戸越１０３,,13,109,1420041,,,,,,,2023-05-16,1,,,,,ウイングブリッジ,0
1443,6010901053057,新規,0,2023-05-16,2023-05-16,株式会社ＡＳＴＥＩＯＮ,,株式会社,東京都,世田谷区,三軒茶屋２丁目１１番１４号,,13,112,1540024,,,,,,,2023-05-16,1,,,,,アステイオン,0
1444,6010903008174,新規,0,2023-05-16,2023-05-16,合同会社ｔｒａｍｐｏｌｉｎｅ,,合同会社,東京都,世田谷区,北沢２丁目２１－２２（ｔｅｆｕ）ｌｏｕｎｇｅ３０３,,13,112,1550031,,,,,,,2023-05-16,1,,,,,トランポリン,0
1451,6011001154324,新規,0,2023-05-16,2023-05-16,ういだち株式会社,,株式会社,東京都,渋谷区,鶯谷町１９－１８,,13,113,1500032,,,,,,,2023-05-16,1,,,,,ウイダチ,0
1452,6011001154373,新規,0,2023-05-16,2023-05-16,株式会社ＲＡＷ,,株式会社,東京都,渋谷区,東２丁目２９番１０号レジーナエビス１４０２,,13,113,1500011,,,,,,,2023-05-16,1,,,,,ロウ,0
1453,6011001154415,新規,0,2023-05-16,2023-05-16,株式会社ふな屋,,株式会社,東京都,渋谷区,代々木１丁目５５番１４号,,13,113,1510053,,,,,,,2023-05-16,1,,,,,フナヤ,0
1454,6011001154431,新規,0,2023-05-16,2023-05-16,Ｄｉｒｔｙ４株式会社,,株式会社,東京都,渋谷区,渋谷３丁目１番８号オーベル渋谷５０２,,13,113,1500002,,,,,,,2023-05-16,1,,,,,ダーティーフォー,0
1455,6011003016828,新規,0,2023-05-16,2023-05-16,ＰＡＣＫ　Ａ　ＤＩＬＬＹ　ＪＡＰＡＮ合同会社,,合同会社,東京都,渋谷区,道玄坂１丁目１０番８号渋谷道玄坂東急ビル２Ｆ－Ｃ,,13,113,1500043,,,,,,,2023-05-16,1,,,,,パッカディリージャパン,0
1460,6011103013023,新規,0,2023-05-16,2023-05-16,山と旅合同会社,,合同会社,東京都,新宿区,西新宿４丁目２－１５－１８０８,,13,104,1600023,,,,,,,2023-05-16,1,,,,,ヤマトタビ,0
1468,6011301028707,新規,0,2023-05-16,2023-05-16,株式会社徳山商事,,株式会社,東京都,杉並区,西荻北２丁目５番７号ヴィブレ西荻２１１,,13,115,1670042,,,,,,,2023-05-16,1,,,,,トクヤマショウジ,0
1474,6011501029281,新規,0,2023-05-16,2023-05-16,株式会社山佐貿易,,株式会社,東京都,北区,豊島４丁目１８－７プレミスト東京王子１１０４号室,,13,117,1140003,,,,,,,2023-05-16,1,,,,,ヤマサボウエキ,0
1475,6011501029298,新規,0,2023-05-16,2023-05-16,株式会社ＳＩＣ,,株式会社,東京都,北区,西が丘１丁目２５番２号,,13,117,1150056,,,,,,,2023-05-16,1,,,,,エスアイシー,0
1476,6011601026815,新規,0,2023-05-16,2023-05-16,株式会社えすどら,,株式会社,東京都,練馬区,高野台１丁目１１番５－４０９号,,13,120,1770033,,,,,,,2023-05-16,1,,,,,エスドラ,0
1479,6011801042389,新規,0,2023-05-16,2023-05-16,ＭＳＲ　Ｕｒｂａｎ　Ｗｅａｌｔｈ　Ｍａｎａｇｅｍｅｎｔ株式会社,,株式会社,東京都,足立区,西新井栄町３丁目４番１１号,,13,121,1230843,,,,,,,2023-05-16,1,,,,,エムエスアールアーバンウェルスマネージメント,0
1480,6011801042397,新規,0,2023-05-16,2023-05-16,日進工業サービス株式会社,,株式会社,東京都,葛飾区,青戸４丁目３番１１－３０５号ベルググランデ青戸,,13,122,1250062,,,,,,,2023-05-16,1,,,,,ニッシンコウギョウサービス,0
1481,6011801042406,新規,0,2023-05-16,2023-05-16,株式会社ＣＰＴ,,株式会社,東京都,足立区,宮城１丁目１６－１０,,13,121,1200047,,,,,,,2023-05-16,1,,,,,シーピーティー,0
1482,6011803005633,新規,0,2023-05-16,2023-05-16,ＥＬＰインターナショナル合同会社,,合同会社,東京都,葛飾区,青戸３丁目３１番４号磯太郎ビル２Ｆ,,13,122,1250062,,,,,,,2023-05-16,1,,,,,イーエルピーインターナショナル,0
1483,6012301013442,新規,0,2023-05-16,2023-05-16,株式会社Ｔｏｍｏｍｉ’ｓ,,株式会社,東京都,町田市,高ヶ坂７丁目７番１７号,,13,209,1940014,,,,,,,2023-05-16,1,,,,,トモミズ,0
1485,6012403005981,新規,0,2023-05-16,2023-05-16,合同会社Ｎｓ　Ｆａｍｉｌｙ,,合同会社,東京都,府中市,幸町３丁目１番地の１ヴェラクシスガーデン府中５０２,,13,206,1830054,,,,,,,2023-05-16,1,,,,,エヌエスファミリー,0
1499,6020001151537,新規,0,2023-05-16,2023-05-16,株式会社Ｇａｌｉｒａｇｅ,,株式会社,神奈川県,川崎市川崎区,駅前本町１１番地２川崎フロンティアビル４階,,14,131,2100007,,,,,,,2023-05-16,1,,,,,ガリレージ,0
1500,6020001151611,新規,0,2023-05-16,2023-05-16,株式会社Ｎ’Ｓコーポレーション,,株式会社,神奈川県,横浜市鶴見区,駒岡１丁目２１番１４号,,14,101,2300071,,,,,,,2023-05-16,1,,,,,エヌズコーポレーション,0
1505,6020003023866,新規,0,2023-05-16,2023-05-16,合同会社飯野工業,,合同会社,神奈川県,川崎市川崎区,浅田３丁目１７番１８号２０５室,,14,131,2100847,,,,,,,2023-05-16,1,,,,,イイノコウギョウ,0
1506,6020003023916,新規,0,2023-05-16,2023-05-16,合同会社ＡＤＷＯＲＫ,,合同会社,神奈川県,川崎市多摩区,菅北浦２丁目２６－３４－３０１,,14,135,2140008,,,,,,,2023-05-16,1,,,,,アドワーク,0
1511,6021001079025,新規,0,2023-05-16,2023-05-16,株式会社進藤設備,,株式会社,神奈川県,横須賀市,吉井１丁目１４番１８号,,14,201,2390804,,,,,,,2023-05-16,1,,,,,シンドウセツビ,0
1512,6021003013072,新規,0,2023-05-16,2023-05-16,檜垣ＩＴコンサル合同会社,,合同会社,神奈川県,小田原市,穴部４０３番地の８,,14,206,2500053,,,,,,,2023-05-16,1,,,,,ヒガキアイティーコンサル,0
1513,6021003013089,新規,0,2023-05-16,2023-05-16,ＫＥＮＺＯ　ＳＨＯＫＡＩ合同会社,,合同会社,神奈川県,厚木市,妻田東３丁目２３－３ガブァナーズアームスＣ－２０１,,14,212,2430813,,,,,,,2023-05-16,1,,,,,ケンゾショカイ,0
1527,6040001128211,新規,0,2023-05-16,2023-05-16,株式会社ＴＡＩＮ　ＢＡＣＨＩ　ＪＡＰＡＮ,,株式会社,千葉県,千葉市中央区,末広３丁目２５番４号－３０１,,12,101,2600843,,,,,,,2023-05-16,1,,,,,ティンバッチジャパン,0
1528,6040001128310,新規,0,2023-05-16,2023-05-16,株式会社ＴＴ．ＦＯＵＲ,,株式会社,千葉県,四街道市,内黒田３２４番地１,,12,228,2840013,,,,,,,2023-05-16,1,,,,,ティーティーフォー,0
1529,6040001128335,新規,0,2023-05-16,2023-05-16,株式会社零,,株式会社,千葉県,柏市,中央１丁目２番２６号,,12,217,2770023,,,,,,,2023-05-16,1,,,,,ゼロ,0
1530,6040001128434,新規,0,2023-05-16,2023-05-16,株式会社アグリデザイン,,株式会社,千葉県,柏市,北柏２丁目１５番地１５,,12,217,2770832,,,,,,,2023-05-16,1,,,,,アグリデザイン,0
1533,6040003022577,新規,0,2023-05-16,2023-05-16,家福製図合同会社,,合同会社,千葉県,富里市,十倉３７４番地７８,,12,233,2860212,,,,,,,2023-05-16,1,,,,,ヤフクセイズ,0
1535,6050003007478,新規,0,2023-05-16,2023-05-16,合同会社エクセレート,,合同会社,茨城県,神栖市,神栖１丁目１１番２０号,,08,232,3140143,,,,,,,2023-05-16,1,,,,,エクセレート,0
1546,6100001036408,新規,0,2023-05-16,2023-05-16,ヨコット株式会社,,株式会社,長野県,諏訪市,大字湖南西沢４７４８番地１,,20,206,3920131,,,,,,,2023-05-16,1,,,,,ヨコット,0
1547,6100001036416,新規,0,2023-05-16,2023-05-16,株式会社Ｓｅｏｕｌ　Ｅｘｐｒｅｓｓ,,株式会社,長野県,佐久市,望月１０番地３,,20,217,3842202,,,,,,,2023-05-16,1,,,,,ソウルエクスプレス,0
1548,6100003007010,新規,0,2023-05-16,2023-05-16,合同会社シムノン・ジャパン,,合同会社,長野県,飯田市,三日市場１４３５番地１,,20,205,3950155,,,,,,,2023-05-16,1,,,,,シムノンジャパン,0
1549,6100005013015,新規,0,2023-05-16,2023-05-16,一般社団法人にゃははん応援隊,,その他の設立登記法人,長野県,茅野市,豊平１９５１番地１,,20,214,3910213,,,,,,,2023-05-16,1,,,,,ニャハハンオウエンタイ,0
1558,6120001254742,新規,0,2023-05-16,2023-05-16,ＴＳＵＧＩＫＩ　ｄｅｓｉｇｎ株式会社,,株式会社,大阪府,大阪市中央区,南船場２丁目１１－２０ＧＡＴＯ三休橋ビル７Ｆ,,27,128,5420081,,,,,,,2023-05-16,1,,,,,ツギキデザイン,0
1559,6120001254817,新規,0,2023-05-16,2023-05-16,ＧＡＵＮ株式会社,,株式会社,大阪府,大阪市旭区,大宮４丁目２３番７号,,27,117,5350002,,,,,,,2023-05-16,1,,,,,ガウン,0
1560,6120001254833,新規,0,2023-05-16,2023-05-16,ＱＯＬ株式会社,,株式会社,大阪府,大阪市北区,大淀中２丁目１－３０ＢＰＲレジデンス新梅田２０７号,,27,127,5310076,,,,,,,2023-05-16,1,,,,,キューオーエル,0
1561,6120001254841,新規,0,2023-05-16,2023-05-16,株式会社ＫＥＲＲＹ,,株式会社,大阪府,大阪市淀川区,三国本町２丁目１７－１３－３０１,,27,123,5320005,,,,,,,2023-05-16,1,,,,,ケリー,0
1562,6120001254866,新規,0,2023-05-16,2023-05-16,株式会社メディラウンジ,,株式会社,大阪府,大阪市北区,野崎町９番１３号梅田扇町通ビル９Ｆ,,27,127,5300055,,,,,,,2023-05-16,1,,,,,メディラウンジ,0
1563,6120001254874,新規,0,2023-05-16,2023-05-16,お仕事ドクター株式会社,,株式会社,大阪府,大阪市淀川区,宮原１丁目１番１号新大阪阪急ビル３階,,27,123,5320003,,,,,,,2023-05-16,1,,,,,オシゴトドクター,0
1564,6120001254916,新規,0,2023-05-16,2023-05-16,株式会社ＨＪコーポレーション,,株式会社,大阪府,大阪市城東区,新喜多東２丁目６番１３－６０４号,,27,118,5360017,,,,,,,2023-05-16,1,,,,,エイチジェイコーポレーション,0
1565,6120001254932,新規,0,2023-05-16,2023-05-16,株式会社ＶＡＬＵＥ　ＳＵＰＰＯＲＴ,,株式会社,大阪府,大阪市北区,梅田１丁目１－３大阪駅前第３ビル２９階１－１－１号室,,27,127,5300001,,,,,,,2023-05-16,1,,,,,バリューサポート,0
1569,6120003024078,新規,0,2023-05-16,2023-05-16,Ｈａｐｐｙ合同会社,,合同会社,大阪府,大阪市生野区,新今里３丁目２番６号７１３号室,,27,116,5440001,,,,,,,2023-05-16,1,,,,,ハッピー,0
1570,6120003024086,新規,0,2023-05-16,2023-05-16,合同会社ＡＲＡ,,合同会社,大阪府,守口市,大久保町２丁目３４－１１,,27,209,5700012,,,,,,,2023-05-16,1,,,,,エーアールエー,0
1571,6120101067549,新規,0,2023-05-16,2023-05-16,株式会社Ｌａｚｏ,,株式会社,大阪府,堺市西区,鳳中町１丁１２番１号,,27,144,5938327,,,,,,,2023-05-16,1,,,,,ラソ,0
1575,6120901047519,新規,0,2023-05-16,2023-05-16,株式会社Ｒｅｓｏｎａｎｃｅ,,株式会社,大阪府,摂津市,鳥飼下３丁目３４番７号,,27,224,5660071,,,,,,,2023-05-16,1,,,,,レゾナンス,0
1577,6122005003679,新規,0,2023-05-16,2023-05-16,一般社団法人日本機能性コーティング協会,,その他の設立登記法人,大阪府,八尾市,柏村町３丁目１０９７番地,,27,212,5810022,,,,,,,2023-05-16,1,,,,,ニホンキノウセイコーティングキョウカイ,0
1582,6130001074223,新規,0,2023-05-16,2023-05-16,Ｈ＆Ｔ株式会社,,株式会社,京都府,京都市中京区,二条通柳馬場西入観音町８８番地１,,26,104,6040821,,,,,,,2023-05-16,1,,,,,エイチアンドティー,0
1592,6140001130140,新規,0,2023-05-16,2023-05-16,株式会社ジャスト,,株式会社,兵庫県,尼崎市,大庄西町１丁目１２番１８号,,28,202,6600077,,,,,,,2023-05-16,1,,,,,ジャスト,0
1593,6140001130149,新規,0,2023-05-16,2023-05-16,エレガントライン株式会社,,株式会社,兵庫県,加古川市,加古川町中津５１５番地の２８,,28,210,6750068,,,,,,,2023-05-16,1,,,,,エレガントライン,0
1594,6140001130173,新規,0,2023-05-16,2023-05-16,株式会社アイ・トランスポート,,株式会社,兵庫県,加古川市,加古川町粟津７３３－５石野ビル２Ｆ,,28,210,6750039,,,,,,,2023-05-16,1,,,,,アイトランスポート,0
1599,6150001026404,新規,0,2023-05-16,2023-05-16,ＦＩＬＴＥＲ株式会社,,株式会社,奈良県,奈良市,中登美ヶ丘６丁目５番１－１０８号室,,29,201,6310003,,,,,,,2023-05-16,1,,,,,フィルター,0
1606,6160003002880,新規,0,2023-05-16,2023-05-16,合同会社ランドリユース,,合同会社,滋賀県,大津市,神領３丁目２１番１９号,,25,201,5202132,,,,,,,2023-05-16,1,,,,,ランドリユース,0
1611,6180001156248,新規,0,2023-05-16,2023-05-16,株式会社サンヒコ企画,,株式会社,愛知県,名古屋市北区,柳原１丁目１１番７号ウィステリアパーク５Ｆ,,23,103,4620845,,,,,,,2023-05-16,1,,,,,サンヒコキカク,0
1612,6180001156264,新規,0,2023-05-16,2023-05-16,株式会社ザ・シーズニングマーケット,,株式会社,愛知県,名古屋市天白区,菅田２丁目１２０６番地さくらハウスＢ棟１０２号,,23,116,4680043,,,,,,,2023-05-16,1,,,,,ザシーズニングマーケット,0
1613,6180001156297,新規,0,2023-05-16,2023-05-16,株式会社コネクト,,株式会社,愛知県,名古屋市中川区,澄池町１２番２４号,,23,110,4540806,,,,,,,2023-05-16,1,,,,,コネクト,0
1617,6180005020219,新規,0,2023-05-16,2023-05-16,一般社団法人アロマテラピーサポート協会,,その他の設立登記法人,愛知県,名古屋市中村区,名駅３丁目１３番２８号,,23,105,4500002,,,,,,,2023-05-16,1,,,,,アロマテラピーサポートキョウカイ,0
1622,6180301037395,新規,0,2023-05-16,2023-05-16,株式会社プライムライフ,,株式会社,愛知県,岡崎市,稲熊町字７丁目７０番地,,23,202,4440071,,,,,,,2023-05-16,1,,,,,プライムライフ,0
1623,6190001030402,新規,0,2023-05-16,2023-05-16,株式会社ＳＯＲ,,株式会社,三重県,桑名市,大字赤尾１０２８番地,,24,205,5110934,,,,,,,2023-05-16,1,,,,,ソール,0
1629,6240001061490,新規,0,2023-05-16,2023-05-16,株式会社セブンウェイブス,,株式会社,広島県,広島市安佐南区,長束西２丁目２番３号サウザンクロス高田１０５号室,,34,105,7310136,,,,,,,2023-05-16,1,,,,,セブンウェイブス,0
1630,6240001061540,新規,0,2023-05-16,2023-05-16,株式会社つばさクリエイト,,株式会社,広島県,広島市中区,江波南２丁目１番３０－１３０４号,,34,101,7300835,,,,,,,2023-05-16,1,,,,,ツバサクリエイト,0
1632,6240005015575,新規,0,2023-05-16,2023-05-16,一般社団法人きなり,,その他の設立登記法人,広島県,広島市中区,橋本町９番７号ビル博丈５階,,34,101,7300015,,,,,,,2023-05-16,1,,,,,キナリ,0
1639,6260005011226,新規,0,2023-05-16,2023-05-16,一般社団法人ｑｕｅｕｅ　ｄｅ　ｃｈａｔ,,その他の設立登記法人,岡山県,加賀郡吉備中央町,吉川９１３番地,,33,681,7161241,,,,,,,2023-05-16,1,,,,,クゥドゥシャ,0
1650,6320003004084,新規,0,2023-05-16,2023-05-16,ＮｅｘｔＬｉｆｅデザイン合同会社,,合同会社,大分県,大分市,大字光吉字スゲノ迫１８４３番地２３９,,44,201,8701132,,,,,,,2023-05-16,1,,,,,ネクストライフデザイン,0
1659,6360003012967,新規,0,2023-05-16,2023-05-16,合同会社３７‐ＬＡＢＯ,,合同会社,沖縄県,名護市,宮里５丁目９－６,,47,209,9050011,,,,,,,2023-05-16,1,,,,,サンシチラボ,0
1661,6370001049960,新規,0,2023-05-16,2023-05-16,株式会社ＳＥＡＬｓ,,株式会社,宮城県,仙台市泉区,将監４丁目１２番１９－１号,,04,105,9813132,,,,,,,2023-05-16,1,,,,,シールズ,0
1686,6430001089059,新規,0,2023-05-16,2023-05-16,株式会社ナカガワ,,株式会社,北海道,札幌市東区,北二十四条東３丁目１番５号,,01,103,0650024,,,,,,,2023-05-16,1,,,,,ナカガワ,0
1687,6430001089133,新規,0,2023-05-16,2023-05-16,株式会社ｍｉｙａ　ａｃｃｏｕｎｔｉｎｇ　ｍａｎａｇｅｍｅｎｔ,,株式会社,北海道,札幌市手稲区,稲穂三条４丁目４番１０号,,01,109,0060033,,,,,,,2023-05-16,1,,,,,ミヤアカウンティングマネジメント,0
1693,6430003015021,新規,0,2023-05-16,2023-05-16,合同会社藤乃屋,,合同会社,北海道,札幌市南区,藤野三条２丁目１番５３号,,01,106,0612283,,,,,,,2023-05-16,1,,,,,フジノヤ,0
1700,6500001024925,新規,0,2023-05-16,2023-05-16,株式会社大内電工,,株式会社,愛媛県,松山市,宮田町１６９番地５,,38,201,7900066,,,,,,,2023-05-16,1,,,,,オオウチデンコウ,0
1718,7010001235224,新規,0,2023-05-16,2023-05-16,ＭＡＲＵＧＯ＆Ｃｏ株式会社,,株式会社,東京都,中央区,湊３丁目５番１０号,,13,102,1040043,,,,,,,2023-05-16,1,,,,,マルゴアンドコー,0
1719,7010001235257,新規,0,2023-05-16,2023-05-16,株式会社Ｂａｂｙ　Ｅｍｐｉｒｅ,,株式会社,東京都,千代田区,神田和泉町１番地６－１６ヤマトビル４０５,,13,101,1010024,,,,,,,2023-05-16,1,,,,,ベビーエンパイア,0
1720,7010001235265,新規,0,2023-05-16,2023-05-16,アセットパートナーズシステム株式会社,,株式会社,東京都,千代田区,大手町１丁目５－１大手町ファーストスクエアイーストタワー４Ｆ,,13,101,1000004,,,,,,,2023-05-16,1,,,,,アセットパートナーズシステム,0
1721,7010001235331,新規,0,2023-05-16,2023-05-16,エルプロ株式会社,,株式会社,東京都,千代田区,四番町６番地東急番町ビル９階,,13,101,1020081,,,,,,,2023-05-16,1,,,,,エルプロ,0
1728,7010003040564,新規,0,2023-05-16,2023-05-16,東京直送ＴＯＫＹＯ　ＳＴＯＲＥ合同会社,,合同会社,東京都,千代田区,神田三崎町２丁目１０番１１号Ｐｅｇビル４Ｂ－５,,13,101,1010061,,,,,,,2023-05-16,1,,,,,トウキョウチョクソウトウキョウストア,0
1729,7010003040589,新規,0,2023-05-16,2023-05-16,天神西インベストメント合同会社,,合同会社,東京都,中央区,日本橋１丁目４番１号,,13,102,1030027,,,,,,,2023-05-16,1,,,,,テンジンニシインベストメント,0
1730,7010003040597,新規,0,2023-05-16,2023-05-16,合同会社転がる石,,合同会社,東京都,文京区,本郷５丁目１番１１号ＫＩＩＨＯＵＳＥ２０２,,13,105,1130033,,,,,,,2023-05-16,1,,,,,コロガルイシ,0
1731,7010005036668,新規,0,2023-05-16,2023-05-16,一般社団法人日本ｅモータースポーツ機構,,その他の設立登記法人,東京都,千代田区,丸の内３丁目３番１号,,13,101,1000005,,,,,,,2023-05-16,1,,,,,ニホンイーモータースポーツキコウ,0
1732,7010005036676,新規,0,2023-05-16,2023-05-16,ＺＥＨ・ＳＨＭ２一般社団法人,,その他の設立登記法人,東京都,千代田区,霞が関３丁目２番５号,,13,101,1000013,,,,,,,2023-05-16,1,,,,,ゼッチエスエイチエムツー,0
1741,7010401173949,新規,0,2023-05-16,2023-05-16,株式会社ブラン・パシフィーク,,株式会社,東京都,港区,麻布十番４丁目３番１－１０９０号,,13,103,1060045,,,,,,,2023-05-16,1,,,,,ブランパシフィーク,0
1742,7010401174278,新規,0,2023-05-16,2023-05-16,株式会社ユナイテッドフードサービス,,株式会社,東京都,港区,南青山２丁目２番１５号,,13,103,1070062,,,,,,,2023-05-16,1,,,,,ユナイテッドフードサービス,0
1743,7010401174311,新規,0,2023-05-16,2023-05-16,株式会社デルソーレ,,株式会社,東京都,港区,六本木４丁目３番２１号,,13,103,1060032,,,,,,,2023-05-16,1,,,,,デルソーレ,0
1746,7010501050461,新規,0,2023-05-16,2023-05-16,株式会社リンク,,株式会社,東京都,台東区,松が谷１丁目５番５号,,13,106,1110036,,,,,,,2023-05-16,1,,,,,リンク,0
1752,7010601063090,新規,0,2023-05-16,2023-05-16,株式会社ミナプロ,,株式会社,東京都,墨田区,江東橋４丁目２４－３Ｃｒｏｂｉｓ錦糸町ビル５Ｆ,,13,107,1300022,,,,,,,2023-05-16,1,,,,,ミナプロ,0
1754,7010603010157,新規,0,2023-05-16,2023-05-16,合同会社ＡＭＡＢＬＥ,,合同会社,東京都,江東区,東陽３丁目１６番１３－８０３号,,13,108,1350016,,,,,,,2023-05-16,1,,,,,アマーブレ,0
1758,7010801033950,新規,0,2023-05-16,2023-05-16,株式会社フィオーレ,,株式会社,東京都,大田区,大森南１丁目２２番１６号,,13,111,1430013,,,,,,,2023-05-16,1,,,,,フィオーレ,0
1763,7010901053048,新規,0,2023-05-16,2023-05-16,株式会社Ｈｏｒｉｚｏｎ,,株式会社,東京都,世田谷区,砧２丁目１６番１－３３２号,,13,112,1570073,,,,,,,2023-05-16,1,,,,,ホライゾン,0
1770,7011001154414,新規,0,2023-05-16,2023-05-16,株式会社ＨＡＰＩＡＳ,,株式会社,東京都,渋谷区,神宮前６丁目２３番４号桑野ビル２階,,13,113,1500001,,,,,,,2023-05-16,1,,,,,ハピアス,0
1772,7011003016810,新規,0,2023-05-16,2023-05-16,合同会社アプリコットマロン,,合同会社,東京都,渋谷区,神宮前６丁目２３番４号桑野ビル２Ｆ,,13,113,1500001,,,,,,,2023-05-16,1,,,,,アプリコットマロン,0
1773,7011003016819,新規,0,2023-05-16,2023-05-16,合同会社ａｋａ,,合同会社,東京都,渋谷区,上原１丁目３番９号,,13,113,1510064,,,,,,,2023-05-16,1,,,,,アカ,0
1774,7011005010068,新規,0,2023-05-16,2023-05-16,医療法人社団慶里会,,その他の設立登記法人,東京都,目黒区,八雲１丁目５番５号ホワイトフロント１階,,13,110,1520023,,,,,,,2023-05-16,1,,,,,ケイリカイ,0
1777,7011101102826,新規,0,2023-05-16,2023-05-16,株式会社Ｈａｎ’ｓ　Ｄｅｌｉ,,株式会社,東京都,新宿区,上落合３丁目２３番４号,,13,104,1610034,,,,,,,2023-05-16,1,,,,,ハンズデリ,0
1779,7011203004078,新規,0,2023-05-16,2023-05-16,合同会社Ａｌｌｉｎ,,合同会社,東京都,中野区,弥生町１丁目３３番５号,,13,114,1640013,,,,,,,2023-05-16,1,,,,,オールイン,0
1780,7011501029297,新規,0,2023-05-16,2023-05-16,株式会社メビウステック,,株式会社,東京都,北区,豊島４丁目１５番２５号,,13,117,1140003,,,,,,,2023-05-16,1,,,,,メビウステック,0
1781,7011503005610,新規,0,2023-05-16,2023-05-16,合同会社ＭＡＵＭＩ,,合同会社,東京都,荒川区,荒川３丁目７９番３－１１０５号,,13,118,1160002,,,,,,,2023-05-16,1,,,,,マウミ,0
1786,7011801042388,新規,0,2023-05-16,2023-05-16,ビッグベンド株式会社,,株式会社,東京都,足立区,保木間５丁目３５番４号,,13,121,1210064,,,,,,,2023-05-16,1,,,,,ビッグベンド,0
1787,7011801042396,新規,0,2023-05-16,2023-05-16,株式会社ＡＲＴ,,株式会社,東京都,足立区,竹の塚１丁目２８－１０グランアスティ１Ｆ,,13,121,1210813,,,,,,,2023-05-16,1,,,,,エーアールティー,0
1788,7012301013441,新規,0,2023-05-16,2023-05-16,Ｌｉｖｅ　ｌｉｆｅ株式会社,,株式会社,東京都,町田市,小山町４６５１番地１,,13,209,1940212,,,,,,,2023-05-16,1,,,,,リブライフ,0
1789,7012303001824,新規,0,2023-05-16,2023-05-16,合同会社エニシ,,合同会社,東京都,町田市,野津田町２６００－７,,13,209,1950063,,,,,,,2023-05-16,1,,,,,エニシ,0
1801,7013301050763,新規,0,2023-05-16,2023-05-16,株式会社リアン,,株式会社,東京都,豊島区,西池袋３丁目２２番１０号,,13,116,1710021,,,,,,,2023-05-16,1,,,,,リアン,0
1805,7020001151552,新規,0,2023-05-16,2023-05-16,リアンＲｏｓｅ　Ｋ株式会社,,株式会社,神奈川県,横浜市緑区,長津田２丁目１番１－３０４号,,14,113,2260027,,,,,,,2023-05-16,1,,,,,リアンローズケー,0
1806,7020001151610,新規,0,2023-05-16,2023-05-16,株式会社関東ホームサポート,,株式会社,神奈川県,横浜市旭区,鶴ケ峰本町３丁目６番２０号,,14,112,2410021,,,,,,,2023-05-16,1,,,,,カントウホームサポート,0
1822,7030001153853,新規,0,2023-05-16,2023-05-16,株式会社サニタス,,株式会社,埼玉県,坂戸市,関間３丁目１番３４－６号,,11,239,3500215,,,,,,,2023-05-16,1,,,,,サニタス,0
1824,7030003021744,新規,0,2023-05-16,2023-05-16,Ｎメンテナンス合同会社,,合同会社,埼玉県,さいたま市南区,大字大谷口３０３５番地１３,,11,108,3360042,,,,,,,2023-05-16,1,,,,,エヌメンテナンス,0
1825,7030003021769,新規,0,2023-05-16,2023-05-16,合同会社ＤＲＩＶＥ,,合同会社,埼玉県,志木市,館１丁目１番３６号,,11,228,3530006,,,,,,,2023-05-16,1,,,,,ドライブ,0
1834,7040001128284,新規,0,2023-05-16,2023-05-16,ジェイ・ワン・ロジスティクス株式会社,,株式会社,千葉県,木更津市,畑沢２丁目３７－２６,,12,206,2920825,,,,,,,2023-05-16,1,,,,,ジェイワンロジスティクス,0
1835,7040001128391,新規,0,2023-05-16,2023-05-16,青いとんぼ株式会社,,株式会社,千葉県,いすみ市,楽町７３番地２,,12,238,2980122,,,,,,,2023-05-16,1,,,,,アオイトンボ,0
1836,7040001128433,新規,0,2023-05-16,2023-05-16,株式会社ラナンキュラス,,株式会社,千葉県,南房総市,岩糸４７９番地,,12,234,2992512,,,,,,,2023-05-16,1,,,,,ラナンキュラス,0
1844,7050001052822,新規,0,2023-05-16,2023-05-16,株式会社ＮＥＯＳ,,株式会社,茨城県,つくば市,高見原４丁目２番地２３,,08,220,3001252,,,,,,,2023-05-16,1,,,,,ネオス,0
1850,7060003004548,新規,0,2023-05-16,2023-05-16,合同会社日本メディアプラント,,合同会社,栃木県,宇都宮市,石井町３４１３番地６５吉澤貸家６号室,,09,201,3210912,,,,,,,2023-05-16,1,,,,,ニホンメディアプラント,0
1860,7080105006341,新規,0,2023-05-16,2023-05-16,一般社団法人千年芸術,,その他の設立登記法人,静岡県,富士市,厚原１５１４番地の６,,22,210,4190201,,,,,,,2023-05-16,1,,,,,センネンゲイジュツ,0
1870,7110003005053,新規,0,2023-05-16,2023-05-16,ｅｆｆｅｃｔａｍ合同会社,,合同会社,新潟県,長岡市,悠久町４丁目１１２７－１２,,15,202,9400827,,,,,,,2023-05-16,1,,,,,エフェタム,0
1882,7120001254782,新規,0,2023-05-16,2023-05-16,霖株式会社,,株式会社,大阪府,大阪市天王寺区,悲田院町４－３９・８０８号室,,27,109,5430055,,,,,,,2023-05-16,1,,,,,リン,0
1884,7120003023970,新規,0,2023-05-16,2023-05-16,吉田工業合同会社,,合同会社,大阪府,大阪市生野区,中川東２丁目４番３号,,27,116,5440006,,,,,,,2023-05-16,1,,,,,ヨシダコウギョウ,0
1885,7120003024069,新規,0,2023-05-16,2023-05-16,合同会社トモサキ,,合同会社,大阪府,大阪市北区,梅田１丁目１番３－２９００号大阪駅前第３ビル２９階１－１－１号室,,27,127,5300001,,,,,,,2023-05-16,1,,,,,トモサキ,0
1891,7120103005217,新規,0,2023-05-16,2023-05-16,ウイズユー合同会社,,合同会社,大阪府,堺市堺区,大浜中町２丁６－１７,,27,141,5900975,,,,,,,2023-05-16,1,,,,,ウイズユー,0
1894,7120901047534,新規,0,2023-05-16,2023-05-16,株式会社ジェイアート,,株式会社,大阪府,箕面市,森町北２丁目３番２２号,,27,220,5630256,,,,,,,2023-05-16,1,,,,,ジェイアート,0
1895,7120903004640,新規,0,2023-05-16,2023-05-16,ＣＪＴ合同会社,,合同会社,大阪府,茨木市,白川３丁目２番地４号棟８０５号室,,27,211,5670832,,,,,,,2023-05-16,1,,,,,シージェイティ,0
1899,7122001036979,新規,0,2023-05-16,2023-05-16,ザ・ミーツ株式会社,,株式会社,大阪府,柏原市,円明町１１番１７号,,27,221,5820027,,,,,,,2023-05-16,1,,,,,ザミーツ,0
1901,7130001074321,新規,0,2023-05-16,2023-05-16,株式会社ＤＩＧＩＧＮＩＴＥ,,株式会社,京都府,京都市上京区,甲斐守町９７西陣産業創造会館２Ｆ,,26,102,6028061,,,,,,,2023-05-16,1,,,,,ディジグナイト,0
1905,7140001130197,新規,0,2023-05-16,2023-05-16,株式会社アイスマン,,株式会社,兵庫県,尼崎市,南初島町９番地５,,28,202,6600833,,,,,,,2023-05-16,1,,,,,アイスマン,0
1907,7140003019034,新規,0,2023-05-16,2023-05-16,多聞合同会社,,合同会社,兵庫県,明石市,松が丘２丁目５番,,28,203,6730862,,,,,,,2023-05-16,1,,,,,タモン,0
1908,7140003019075,新規,0,2023-05-16,2023-05-16,合同会社ヘリテージ,,合同会社,兵庫県,伊丹市,緑ケ丘５丁目１１８番地１,,28,207,6640012,,,,,,,2023-05-16,1,,,,,ヘリテージ,0
1909,7140003019083,新規,0,2023-05-16,2023-05-16,合同会社ｓａｃｈｉ,,合同会社,兵庫県,神戸市北区,筑紫が丘８丁目６番地の６,,28,109,6511212,,,,,,,2023-05-16,1,,,,,サチ,0
1923,7180001156239,新規,0,2023-05-16,2023-05-16,株式会社ＹＥＬＬＯＷ　ＢＵＬＬ,,株式会社,愛知県,名古屋市中川区,福島３丁目９７番地,,23,110,4540965,,,,,,,2023-05-16,1,,,,,イエローブル,0
1924,7180001156296,新規,0,2023-05-16,2023-05-16,株式会社ｏｎｅ,,株式会社,愛知県,名古屋市西区,城西２丁目１０番３－１０２号,,23,104,4510031,,,,,,,2023-05-16,1,,,,,ワン,0
1925,7180001156313,新規,0,2023-05-16,2023-05-16,株式会社ＫＯＨ＆ＣＯ,,株式会社,愛知県,一宮市,定水寺字砂連１７番地,,23,203,4910004,,,,,,,2023-05-16,1,,,,,コウアンドシーオー,0
1926,7180001156321,新規,0,2023-05-16,2023-05-16,株式会社Ｖレク,,株式会社,愛知県,名古屋市千種区,鹿子町７丁目３３－１－１０２,,23,101,4640033,,,,,,,2023-05-16,1,,,,,ブイレク,0
1927,7180001156362,新規,0,2023-05-16,2023-05-16,株式会社ＶＥＲＥ,,株式会社,愛知県,名古屋市千種区,千種３丁目３５－１７吹上インタービル７Ｆ,,23,101,4640858,,,,,,,2023-05-16,1,,,,,ヴェレ,0
1939,7260001037959,新規,0,2023-05-16,2023-05-16,株式会社ダイナソープラス,,株式会社,岡山県,津山市,沼４８８番地１,,33,203,7080824,,,,,,,2023-05-16,1,,,,,ダイナソープラス,0
1943,7270001008777,新規,0,2023-05-16,2023-05-16,株式会社三徳産業,,株式会社,鳥取県,境港市,竹内町２８６番地１,,31,204,6840043,,,,,,,2023-05-16,1,,,,,ミトクサンギョウ,0
1946,7290001101539,新規,0,2023-05-16,2023-05-16,株式会社ＢＳＴ,,株式会社,福岡県,福岡市博多区,奈良屋町２番１号,,40,132,8120023,,,,,,,2023-05-16,1,,,,,ビーエスティー,0
1947,7290001101547,新規,0,2023-05-16,2023-05-16,ソラテラスエンジニアリング株式会社,,株式会社,福岡県,嘉穂郡桂川町,大字吉隈１５１番地７,,40,421,8200609,,,,,,,2023-05-16,1,,,,,ソラテラスエンジニアリング,0
1956,7300001013303,新規,0,2023-05-16,2023-05-16,株式会社牛商山桜,,株式会社,佐賀県,唐津市,肥前町万賀里川９７１番地２,,41,202,8471515,,,,,,,2023-05-16,1,,,,,ギュウショウヤマザクラ,0
1967,7350005006158,新規,0,2023-05-16,2023-05-16,一般社団法人ウィメンズトリニティーライフデザイン協会,,その他の設立登記法人,宮崎県,北諸県郡三股町,大字樺山３６０５番地,,45,341,8891901,,,,,,,2023-05-16,1,,,,,ウィメンズトリニティーライフデザインキョウカイ,0
1971,7360003012958,新規,0,2023-05-16,2023-05-16,合同会社フリークオキナワ,,合同会社,沖縄県,沖縄市,池原３丁目１番６号１階,,47,211,9042141,,,,,,,2023-05-16,1,,,,,フリークオキナワ,0
1974,7370005010629,新規,0,2023-05-16,2023-05-16,一般社団法人宮城県野球連盟,,その他の設立登記法人,宮城県,石巻市,和渕字牡丹窪１７８番地,,04,202,9871102,,,,,,,2023-05-16,1,,,,,ミヤギケンヤキュウレンメイ,0
1994,7430001089082,新規,0,2023-05-16,2023-05-16,ＳＧＢ株式会社,,株式会社,北海道,千歳市,緑町５丁目１番２３号,,01,224,0660074,,,,,,,2023-05-16,1,,,,,エスジービー,0
1995,7430001089108,新規,0,2023-05-16,2023-05-16,株式会社司工業,,株式会社,北海道,札幌市北区,篠路六条７丁目１番１１－１号,,01,102,0028026,,,,,,,2023-05-16,1,,,,,ツカサコウギョウ,0
1997,7430003015037,新規,0,2023-05-16,2023-05-16,ＵＮＩＯＮＦＩＥＬＤ合同会社,,合同会社,北海道,札幌市中央区,南七条西４丁目２－５ＬＣ七番館５階,,01,101,0640807,,,,,,,2023-05-16,1,,,,,ユニオンフィールド,0
2005,7700150115842,新規,0,2023-05-16,2023-04-27,福働会一人親方部会,,その他,沖縄県,那覇市,壺川１丁目４番地１５,,47,201,9000025,,,,,,,2023-04-27,1,,,,,フクドウカイヒトリオヤカタブカイ,0
2014,8010001235248,新規,0,2023-05-16,2023-05-16,ｙｏｋｉｌａｂｏ株式会社,,株式会社,東京都,千代田区,神田小川町１丁目８番地３,,13,101,1010052,,,,,,,2023-05-16,1,,,,,ヨキラボ,0
2015,8010001235256,新規,0,2023-05-16,2023-05-16,Ｂｒｉｇｈｔｓｔａｒ株式会社,,株式会社,東京都,中央区,築地５丁目４番１９号,,13,102,1040045,,,,,,,2023-05-16,1,,,,,ブライトスター,0
2016,8010001235289,新規,0,2023-05-16,2023-05-16,Ｐｒｏｔｅａ　Ｃａｔａｌｙｓｔ株式会社,,株式会社,東京都,千代田区,外神田６丁目１５番４号２階・Ａｉｒ－Ｅｒａ,,13,101,1010021,,,,,,,2023-05-16,1,,,,,プロテアカタリスト,0
2021,8010003040563,新規,0,2023-05-16,2023-05-16,合同会社Ｅｄｅｌ　Ｌｉｐ,,合同会社,東京都,中央区,銀座１丁目１２番４号Ｎ＆Ｅ．ＢＬＤ．６Ｆ,,13,102,1040061,,,,,,,2023-05-16,1,,,,,エーデルリップ,0
2022,8010003040571,新規,0,2023-05-16,2023-05-16,運転代行合同会社,,合同会社,東京都,中央区,銀座１丁目１２番４号Ｎ＆ＥＢＬＤ．７階,,13,102,1040061,,,,,,,2023-05-16,1,,,,,ウンテンダイコウ,0
2025,8010005036675,新規,0,2023-05-16,2023-05-16,ＺＥＨ・ＳＨＭ１一般社団法人,,その他の設立登記法人,東京都,千代田区,霞が関３丁目２番５号,,13,101,1000013,,,,,,,2023-05-16,1,,,,,ゼッチエスエイチエムワン,0
2026,8010005036691,新規,0,2023-05-16,2023-05-16,東京レジ３９一般社団法人,,その他の設立登記法人,東京都,千代田区,丸の内３丁目１番１号東京共同会計事務所内,,13,101,1000005,,,,,,,2023-05-16,1,,,,,トウキョウレジサーティナイン,0
2042,8010401174335,新規,0,2023-05-16,2023-05-16,株式会社ＯＺ,,株式会社,東京都,港区,南青山２丁目２番１５号ウィン青山１２１４号,,13,103,1070062,,,,,,,2023-05-16,1,,,,,オズ,0
2043,8010401174384,新規,0,2023-05-16,2023-05-16,株式会社ＴＥＡＭ　ＭＡＴＳＵＭＯＴＯ,,株式会社,東京都,港区,虎ノ門１丁目１番１２号－８０２,,13,103,1050001,,,,,,,2023-05-16,1,,,,,チームマツモト,0
2044,8010503006989,新規,0,2023-05-16,2023-05-16,合同会社モーランド,,合同会社,東京都,台東区,東上野１丁目１番６号ＴＨ１１６、３０１,,13,106,1100015,,,,,,,2023-05-16,1,,,,,モーランド,0
2049,8010803004544,新規,0,2023-05-16,2023-05-16,合同会社ユーラシア不動産,,合同会社,東京都,大田区,田園調布１丁目１２番１－５０２号,,13,111,1450071,,,,,,,2023-05-16,1,,,,,ユーラシアフドウサン,0
2050,8010901053030,新規,0,2023-05-16,2023-05-16,Ｂｅｙｏｎｄ　Ｏｒｇａｎｉｃ株式会社,,株式会社,東京都,世田谷区,祖師谷３丁目３１番１９号シャルダン大庭２０２,,13,112,1570072,,,,,,,2023-05-16,1,,,,,ビヨンドオーガニック,0
2051,8010901053039,新規,0,2023-05-16,2023-05-16,Ｅ＆ｄｅｓｉｇｎ株式会社,,株式会社,東京都,世田谷区,若林４丁目２５番１４号コーナー松蔭２Ｆ,,13,112,1540023,,,,,,,2023-05-16,1,,,,,イーアンドデザイン,0
2052,8010903008172,新規,0,2023-05-16,2023-05-16,合同会社ＳｏＺ,,合同会社,東京都,世田谷区,桜丘５丁目６番１６号,,13,112,1560054,,,,,,,2023-05-16,1,,,,,ソーズ,0
2060,8011001154388,新規,0,2023-05-16,2023-05-16,株式会社ＧＨＮ,,株式会社,東京都,渋谷区,大山町３８番１４号ホーマットローズ３０１号,,13,113,1510065,,,,,,,2023-05-16,1,,,,,ジーエイチエヌ,0
2061,8011001154421,新規,0,2023-05-16,2023-05-16,株式会社Ｂａｓｉｔ,,株式会社,東京都,渋谷区,神宮前３丁目２０番４号ＨＩＢＩＣＡ神宮前１Ｆ,,13,113,1500001,,,,,,,2023-05-16,1,,,,,バシット,0
2062,8011003016818,新規,0,2023-05-16,2023-05-16,合同会社Ｊ＆Ｋ,,合同会社,東京都,渋谷区,神泉町１０番１５号,,13,113,1500045,,,,,,,2023-05-16,1,,,,,ジェイアンドケイ,0
2065,8011101102825,新規,0,2023-05-16,2023-05-16,株式会社ＭＳ,,株式会社,東京都,新宿区,大久保２丁目６番１７号１０６号室,,13,104,1690072,,,,,,,2023-05-16,1,,,,,エムエス,0
2066,8011201024639,新規,0,2023-05-16,2023-05-16,株式会社ｌｉｎｏ,,株式会社,東京都,中野区,本町５丁目３７番１１号バウス新中野９０３,,13,114,1640012,,,,,,,2023-05-16,1,,,,,リノ,0
2072,8011501029296,新規,0,2023-05-16,2023-05-16,株式会社サクセスストーリー,,株式会社,東京都,荒川区,南千住７丁目１番１－１１０３号,,13,118,1160003,,,,,,,2023-05-16,1,,,,,サクセスストーリー,0
2078,8011601026821,新規,0,2023-05-16,2023-05-16,青雲株式会社,,株式会社,東京都,練馬区,桜台１丁目７番７－４０２号,,13,120,1760002,,,,,,,2023-05-16,1,,,,,セイウン,0
2080,8011605002521,新規,0,2023-05-16,2023-05-16,特定非営利活動法人Ｋａｌｉｍｂａ　Ｃａｒｅ．３５８８ＪＡＰＡＮ,,その他の設立登記法人,東京都,練馬区,羽沢１丁目２１番２号,,13,120,1760003,,,,,,,2023-05-16,1,,,,,カリンバケアサンゴハチハチジャパン,0
2081,8011801042404,新規,0,2023-05-16,2023-05-16,株式会社ラゴパス,,株式会社,東京都,葛飾区,亀有３丁目１７番１４－２０２号ハイムミモザ,,13,122,1250061,,,,,,,2023-05-16,1,,,,,ラゴパス,0
2082,8012301013440,新規,0,2023-05-16,2023-05-16,株式会社ｏｂｉ,,株式会社,東京都,町田市,南町田３丁目４２番１－２０６号,,13,209,1940005,,,,,,,2023-05-16,1,,,,,オビ,0
2083,8012303001823,新規,0,2023-05-16,2023-05-16,ＨＡＲＵ．Ｒｅｍｏｄｅｌ合同会社,,合同会社,東京都,町田市,南町田３丁目２５番１－７０１号,,13,209,1940005,,,,,,,2023-05-16,1,,,,,ハルリモデル,0
2089,8013305003477,新規,0,2023-05-16,2023-05-16,一般社団法人福松,,その他の設立登記法人,東京都,豊島区,東池袋４丁目２番１－２９０４号,,13,116,1700013,,,,,,,2023-05-16,1,,,,,フクマツ,0
2094,8020001151584,新規,0,2023-05-16,2023-05-16,株式会社心和建設,,株式会社,神奈川県,川崎市川崎区,殿町２丁目１５番４号ベルメゾン川崎羽田２０１,,14,131,2100821,,,,,,,2023-05-16,1,,,,,シンワケンセツ,0
2095,8020001151601,新規,0,2023-05-16,2023-05-16,株式会社ｄｉｎａｆｙ,,株式会社,神奈川県,川崎市多摩区,南生田２丁目１６番１５－１０３号,,14,135,2140036,,,,,,,2023-05-16,1,,,,,ディナフィー,0
2096,8020001151626,新規,0,2023-05-16,2023-05-16,株式会社ｊｉｊｉ,,株式会社,神奈川県,川崎市高津区,下作延１丁目１番７号ｎｏｋｕｔｉｃａ,,14,134,2130033,,,,,,,2023-05-16,1,,,,,ジジ,0
2097,8020003023906,新規,0,2023-05-16,2023-05-16,ｆｌｅｅｋ合同会社,,合同会社,神奈川県,川崎市宮前区,梶ケ谷１番地１０ディアスタ梶ヶ谷ヒルズ３０１,,14,136,2160034,,,,,,,2023-05-16,1,,,,,フリーク,0
2103,8021001079048,新規,0,2023-05-16,2023-05-16,株式会社ロングバリィリバー,,株式会社,神奈川県,小田原市,北ノ窪４２０番地の９,,14,206,2500051,,,,,,,2023-05-16,1,,,,,ロングバリィリバー,0
2108,8021003013095,新規,0,2023-05-16,2023-05-16,合同会社アウルムソリューションズ,,合同会社,神奈川県,厚木市,旭町２丁目１１番６－７号,,14,212,2430014,,,,,,,2023-05-16,1,,,,,アウルムソリューションズ,0
2118,8030003021677,新規,0,2023-05-16,2023-05-16,向陽合同会社,,合同会社,埼玉県,熊谷市,弥藤吾１６０－６三合ビル２０１号室,,11,202,3600203,,,,,,,2023-05-16,1,,,,,コウヨウ,0
2119,8030003021768,新規,0,2023-05-16,2023-05-16,合同会社フロンティアセールスセッション,,合同会社,埼玉県,さいたま市南区,太田窪４丁目１２番１４号,,11,108,3360015,,,,,,,2023-05-16,1,,,,,フロンティアセールスセッション,0
2121,8030005021262,新規,0,2023-05-16,2023-05-16,一般社団法人ｅｙｅｌｉｅｎ　ｐｉｌａｔｅｓ,,その他の設立登記法人,埼玉県,さいたま市大宮区,桜木町２丁目３番地大宮マルイ７階,,11,103,3300854,,,,,,,2023-05-16,1,,,,,アイリアンピラティス,0
2130,8040001128432,新規,0,2023-05-16,2023-05-16,株式会社アヴァンティ,,株式会社,千葉県,我孫子市,中峠１４０６番地の１,,12,222,2701121,,,,,,,2023-05-16,1,,,,,アヴァンティ,0
2135,8050001052838,新規,0,2023-05-16,2023-05-16,株式会社ＰｉｇＢｅｌｌ,,株式会社,茨城県,筑西市,折本３３３番地６,,08,227,3080007,,,,,,,2023-05-16,1,,,,,ピッグベル,0
2152,8070005010121,新規,0,2023-05-16,2023-05-16,一般社団法人ＫＡＴＡＳＨＩＮＡ　ＭＯＵＮＴＡＩＮＳ,,その他の設立登記法人,群馬県,利根郡片品村,大字土出１０４５番地,,10,443,3780412,,,,,,,2023-05-16,1,,,,,カタシナマウンテンズ,0
2167,8090001018125,新規,0,2023-05-16,2023-05-16,株式会社清水工業,,株式会社,山梨県,都留市,四日市場８５４番地１１,,19,204,4020005,,,,,,,2023-05-16,1,,,,,シミズコウギョウ,0
2169,8100001036406,新規,0,2023-05-16,2023-05-16,株式会社ＴＫ　ＴＥＣＨ,,株式会社,長野県,上田市,大手１丁目１２番２３号ビッグウエダ５０３号,,20,203,3860024,,,,,,,2023-05-16,1,,,,,ティーケーテック,0
2170,8100001036414,新規,0,2023-05-16,2023-05-16,株式会社大崎工業,00130505,株式会社,長野県,長野市,中越２丁目１０番３３号Ａ２０２,,20,201,3810044,,,,,,,2023-05-16,1,,,,,オオサキコウギョウ,0
2175,8110001037527,新規,0,2023-05-16,2023-05-16,株式会社ＣＯＮＴＯ,,株式会社,新潟県,長岡市,与板町与板９１１番地１,,15,202,9402402,,,,,,,2023-05-16,1,,,,,コント,0
2190,8120001254848,新規,0,2023-05-16,2023-05-16,株式会社Ａ＆Ａ,,株式会社,大阪府,大阪市生野区,中川１丁目１番１０号,,27,116,5440005,,,,,,,2023-05-16,1,,,,,エイアンドエイ,0
2191,8120001254880,新規,0,2023-05-16,2023-05-16,株式会社ラピスホープ,,株式会社,大阪府,大阪市東成区,大今里南５丁目１８番１８号,,27,115,5370013,,,,,,,2023-05-16,1,,,,,ラピスホープ,0
2192,8120001254889,新規,0,2023-05-16,2023-05-16,Ｒ＆Ｍ株式会社,,株式会社,大阪府,大阪市此花区,島屋３丁目１０番１７号,,27,104,5540024,,,,,,,2023-05-16,1,,,,,アールアンドエム,0
2193,8120001254897,新規,0,2023-05-16,2023-05-16,株式会社フジサワ工業,,株式会社,大阪府,大阪市東成区,東小橋２丁目７番２３号,,27,115,5370024,,,,,,,2023-05-16,1,,,,,フジサワコウギョウ,0
2202,8122001036978,新規,0,2023-05-16,2023-05-16,ＫＴ株式会社,,株式会社,大阪府,柏原市,平野２丁目１７番４０号,,27,221,5820019,,,,,,,2023-05-16,1,,,,,ケイティ,0
2205,8130001074122,新規,0,2023-05-16,2023-05-16,株式会社ネクストストーリー,,株式会社,京都府,京都市山科区,御陵中内町３８－８,,26,110,6078414,,,,,,,2023-05-16,1,,,,,ネクストストーリー,0
2212,8140001130171,新規,0,2023-05-16,2023-05-16,株式会社アンサング,,株式会社,兵庫県,伊丹市,荒牧南２丁目５番６号,,28,207,6640008,,,,,,,2023-05-16,1,,,,,アンサング,0
2216,8140003019090,新規,0,2023-05-16,2023-05-16,３Ｋｓ合同会社,,合同会社,兵庫県,西宮市,仁川町１丁目８－２７,,28,204,6620811,,,,,,,2023-05-16,1,,,,,スリーケーズ,0
2219,8170001017606,新規,0,2023-05-16,2023-05-16,株式会社コシイシ製パン所,,株式会社,和歌山県,和歌山市,園部６３７番地１,,30,201,6408483,,,,,,,2023-05-16,1,,,,,コシイシセイパンショ,0
2224,8180001156238,新規,0,2023-05-16,2023-05-16,ＨａｐｐｙＬｉｆｅ株式会社,,株式会社,愛知県,名古屋市守山区,四軒家２丁目５５５番地,,23,113,4630034,,,,,,,2023-05-16,1,,,,,ハッピーライフ,0
2225,8180001156312,新規,0,2023-05-16,2023-05-16,株式会社Ｓｅｒｖｅ,,株式会社,愛知県,名古屋市北区,敷島町５５ファミール旭３Ｂ,,23,103,4620045,,,,,,,2023-05-16,1,,,,,サーブ,0
2226,8180001156320,新規,0,2023-05-16,2023-05-16,Ｉｎｄｏｂｏｘ株式会社,,株式会社,愛知県,名古屋市中区,栄３丁目２番３号名古屋日興証券ビル４階,,23,106,4600008,,,,,,,2023-05-16,1,,,,,インドボックス,0
2227,8180001156329,新規,0,2023-05-16,2023-05-16,株式会社長久手不動産,,株式会社,愛知県,長久手市,岩作中立花４４番地１,,23,238,4801103,,,,,,,2023-05-16,1,,,,,ナガクテフドウサン,0
2228,8180001156353,新規,0,2023-05-16,2023-05-16,株式会社Ｌｏｖｉｎｇ,,株式会社,愛知県,名古屋市緑区,桶狭間上の山２００１,,23,114,4580926,,,,,,,2023-05-16,1,,,,,ラヴィング,0
2229,8180001156361,新規,0,2023-05-16,2023-05-16,ＨＣＳＥＣｗｉｔｈ株式会社,,株式会社,愛知県,名古屋市名東区,宝が丘２８８番地,,23,115,4650043,,,,,,,2023-05-16,1,,,,,エイチシーエスイーシーウィズ,0
2241,8200001041313,新規,0,2023-05-16,2023-05-16,株式会社Ｋ．Ｔ．Ｇ　ＰＬＡＮＮＩＮＧ,,株式会社,岐阜県,羽島市,下中町石田１８９番地,,21,209,5016315,,,,,,,2023-05-16,1,,,,,,0
2251,8230001019827,新規,0,2023-05-16,2023-05-16,日本エネルギー設備株式会社,,株式会社,富山県,富山市,布瀬町南２丁目９番地２,,16,201,9398208,,,,,,,2023-05-16,1,,,,,ニホンエネルギーセツビ,0
2253,8240001061506,新規,0,2023-05-16,2023-05-16,株式会社ＩＮＡＢＡ,,株式会社,広島県,三原市,港町３丁目７番２７号,,34,204,7230017,,,,,,,2023-05-16,1,,,,,イナバ,0
2255,8250001020097,新規,0,2023-05-16,2023-05-16,株式会社三戸工業,,株式会社,山口県,岩国市,玖珂町１２１５番地１,,35,208,7420344,,,,,,,2023-05-16,1,,,,,ミトコウギョウ,0
2257,8260001037958,新規,0,2023-05-16,2023-05-16,ｋａｔａｌｙｓｔ株式会社,,株式会社,岡山県,岡山市南区,西市４６５番地１ル・サンク西市４０１,,33,104,7000953,,,,,,,2023-05-16,1,,,,,カタリスト,0
2263,8290001101538,新規,0,2023-05-16,2023-05-16,ＦＦＧインダストリーズ株式会社,,株式会社,福岡県,福岡市中央区,大手門１丁目８番３号,,40,133,8100074,,,,,,,2023-05-16,1,,,,,エフエフジーインダストリーズ,0
2264,8290001101579,新規,0,2023-05-16,2023-05-16,株式会社ふくの木,,株式会社,福岡県,福岡市博多区,博多駅前３丁目３０番１５－７１５号,,40,132,8120011,,,,,,,2023-05-16,1,,,,,フクノキ,0
2270,8300003001965,新規,0,2023-05-16,2023-05-16,ＰｕｂｌｉｃＧａｔｅ合同会社,,合同会社,佐賀県,杵島郡大町町,大字大町５２５４番地１７,,41,423,8492101,,,,,,,2023-05-16,1,,,,,パブリックゲート,0
2274,8320001019776,新規,0,2023-05-16,2023-05-16,株式会社ＡｓｏｒＡ,,株式会社,大分県,国東市,安岐町下原５４１番地９８,,44,214,8730231,,,,,,,2023-05-16,1,,,,,エソラ,0
2287,8370001049942,新規,0,2023-05-16,2023-05-16,株式会社Ｓ‐ＳＴＹＬＥ,,株式会社,宮城県,仙台市若林区,卸町東２丁目２番５号,,04,103,9840002,,,,,,,2023-05-16,1,,,,,エススタイル,0
2288,8370003006132,新規,0,2023-05-16,2023-05-16,合同会社ＹＵＴＡＫＡＮＩカンパニー,,合同会社,宮城県,石巻市,わかば１丁目２番地１,,04,202,9860867,,,,,,,2023-05-16,1,,,,,ユタカニカンパニー,0
2294,8380001033689,新規,0,2023-05-16,2023-05-16,株式会社小林,,株式会社,福島県,河沼郡会津坂下町,大字塔寺字大門１５２４番地,,07,421,9696584,,,,,,,2023-05-16,1,,,,,コバヤシ,0
2295,8380001033697,新規,0,2023-05-16,2023-05-16,株式会社Ｍ＆Ｍコーポレーション,,株式会社,福島県,郡山市,三穂田町川田字大徳原１番地の１３８,,07,203,9630121,,,,,,,2023-05-16,1,,,,,エムアンドエムコーポレーション,0
2310,8430001089049,新規,0,2023-05-16,2023-05-16,株式会社ＬｉｎＱ,,株式会社,北海道,江別市,野幌松並町２６番地の６,,01,217,0690814,,,,,,,2023-05-16,1,,,,,リンク,0
2311,8430001089065,新規,0,2023-05-16,2023-05-16,株式会社柴田塗装店,,株式会社,北海道,室蘭市,小橋内町１丁目２８番２７号,,01,205,0510033,,,,,,,2023-05-16,1,,,,,シバタトソウテン,0
2312,8430001089081,新規,0,2023-05-16,2023-05-16,ノースライン株式会社,,株式会社,北海道,千歳市,泉郷３８２番地７,,01,224,0660004,,,,,,,2023-05-16,1,,,,,ノースライン,0
2313,8430001089123,新規,0,2023-05-16,2023-05-16,株式会社さねともの庭,,株式会社,北海道,余市郡余市町,黒川町７丁目６０番地２３,,01,408,0460003,,,,,,,2023-05-16,1,,,,,サネトモノニワ,0
2316,8450001013989,新規,0,2023-05-16,2023-05-16,旭造材株式会社,,株式会社,北海道,旭川市,豊岡二条５丁目６番１７号,,01,204,0788232,,,,,,,2023-05-16,1,,,,,アサヒゾウザイ,0
2317,8460001005795,新規,0,2023-05-16,2023-05-16,株式会社Ｎｅｗ　ｐｏｓｔｕｒｅ,,株式会社,北海道,釧路市,駒場町３番３２号,,01,206,0850048,,,,,,,2023-05-16,1,,,,,ニューポスチュアー,0
2318,8460003000951,新規,0,2023-05-16,2023-05-16,合同会社佐藤デンタルラボラトリー,,合同会社,北海道,釧路市,文苑４丁目２３番１０号,,01,206,0850063,,,,,,,2023-05-16,1,,,,,サトウデンタルラボラトリー,0
2323,8490001010479,新規,0,2023-05-16,2023-05-16,株式会社ベジふる高知,,株式会社,高知県,高知市,永国寺町１番４３号ハイツ永国寺６０２,,39,201,7800844,,,,,,,2023-05-16,1,,,,,ベジフルコウチ,0
2324,8700150017195,新規,0,2023-05-16,2015-10-09,草加市地場産業振興会,,その他,埼玉県,草加市,松江１丁目１－５,,11,221,3400013,,,,,,,2015-10-09,1,,,,,ソウカシジバサンギヨウシンコウカイ,0
2325,8700150115957,新規,0,2023-05-16,2023-05-09,南アルプスユネスコエコパーク山梨県連絡協議会,,その他,山梨県,韮崎市,水神１丁目３－１,,19,207,4070022,,,,,,,2023-05-09,1,,,,,ミナミアルプスユネスコエコパークヤマナシケンレンラクキヨウギカイ,0
2339,9010001235239,新規,0,2023-05-16,2023-05-16,株式会社ＴＡＩＧＡ,,株式会社,東京都,中央区,東日本橋２丁目９番７－８０３号,,13,102,1030004,,,,,,,2023-05-16,1,,,,,タイガ,0
2340,9010001235321,新規,0,2023-05-16,2023-05-16,Ｆ３コンサルティング株式会社,,株式会社,東京都,千代田区,神田小川町１丁目８－３小川町北ビル５０３号,,13,101,1010052,,,,,,,2023-05-16,1,,,,,エフスリィーコンサルティング,0
2341,9010001235346,新規,0,2023-05-16,2023-05-16,株式会社テイクイージー,,株式会社,東京都,中央区,日本橋２丁目１番１７号丹生ビル２階,,13,102,1030027,,,,,,,2023-05-16,1,,,,,テイクイージー,0
2342,9010001235354,新規,0,2023-05-16,2023-05-16,株式会社Ｓｏｌｉｓ,,株式会社,東京都,中央区,勝どき５丁目３番１－３８１３号,,13,102,1040054,,,,,,,2023-05-16,1,,,,,ソリス,0
2345,9010003040562,新規,0,2023-05-16,2023-05-16,合同会社ＡＭＩＣＡＬ,,合同会社,東京都,文京区,湯島３丁目３５番１１号,,13,105,1130034,,,,,,,2023-05-16,1,,,,,アミカル,0
2346,9010003040570,新規,0,2023-05-16,2023-05-16,ＳＢＮ合同会社,,合同会社,東京都,千代田区,神田松永町１３番地ＶＯＲＴ秋葉原ＩＩ,00130504,13,101,1010023,,,,,,,2023-05-16,1,,,,,エスビーエヌ,0
2348,9010005036690,新規,0,2023-05-16,2023-05-16,東京レジ３８一般社団法人,,その他の設立登記法人,東京都,千代田区,丸の内３丁目１番１号東京共同会計事務所内,,13,101,1000005,,,,,,,2023-05-16,1,,,,,トウキョウレジサーティエイト,0
2349,9010005036699,新規,0,2023-05-16,2023-05-16,一般社団法人日本橋オペラ研究会,,その他の設立登記法人,東京都,中央区,東日本橋３丁目６番１６号,,13,102,1030004,,,,,,,2023-05-16,1,,,,,ニホンバシオペラケンキュウカイ,0
2360,9010401174334,新規,0,2023-05-16,2023-05-16,電気天気株式会社,,株式会社,東京都,港区,高輪１丁目１９番１１号,,13,103,1080074,,,,,,,2023-05-16,1,,,,,デンキテンキ,0
2361,9010401174367,新規,0,2023-05-16,2023-05-16,ＭＯＺＵ株式会社,,株式会社,東京都,港区,虎ノ門１丁目１６番６号ＲＡＰＯ－ＴＯビル７０３,,13,103,1050001,,,,,,,2023-05-16,1,,,,,,0
2362,9010401174383,新規,0,2023-05-16,2023-05-16,株式会社ＳＷＡＹ,,株式会社,東京都,港区,六本木７丁目７番１３号アトラスタワ－六本木３０１,,13,103,1060032,,,,,,,2023-05-16,1,,,,,スウェイ,0
2363,9010401174400,新規,0,2023-05-16,2023-05-16,ＧＣＪＧ３２株式会社,,株式会社,東京都,港区,元赤坂１丁目１番８号株式会社赤坂国際会計内,,13,103,1070051,,,,,,,2023-05-16,1,,,,,ジーシージェイジーサーティトゥー,0
2373,9010703006697,新規,0,2023-05-16,2023-05-16,合同会社Ｙｕｕｉ　Ｖｉｓｉｏｎ,,合同会社,東京都,品川区,小山台１丁目２０番１２号,,13,109,1420061,,,,,,,2023-05-16,1,,,,,ユウイビジョン,0
2377,9010803004543,新規,0,2023-05-16,2023-05-16,Ｒａｋｓｍａｙ合同会社,,合同会社,東京都,大田区,池上７丁目３０番６号ビラフォレスト池上１０３,,13,111,1460082,,,,,,,2023-05-16,1,,,,,ラクスメイ,0
2379,9010901053038,新規,0,2023-05-16,2023-05-16,株式会社糸川総合研究所,,株式会社,東京都,世田谷区,上用賀１丁目６番２号,,13,112,1580098,,,,,,,2023-05-16,1,,,,,イトカワソウゴウケンキュウジョ,0
2382,9011001154379,新規,0,2023-05-16,2023-05-16,株式会社ニュースケープ,,株式会社,東京都,渋谷区,神宮前３丁目４２番８号,,13,113,1500001,,,,,,,2023-05-16,1,,,,,ニュースケープ,0
2383,9011001154429,新規,0,2023-05-16,2023-05-16,ネイティブエアー株式会社,,株式会社,東京都,渋谷区,道玄坂１丁目１０番８号渋谷道玄坂東急ビル２Ｆ－Ｃ,,13,113,1500043,,,,,,,2023-05-16,1,,,,,ネイティブエアー,0
2384,9011001154453,新規,0,2023-05-16,2023-05-16,株式会社ＮＥＲＤ,,株式会社,東京都,渋谷区,代々木５丁目５７－２ザ・パークハビオＳＯＨＯ代々木公園,,13,113,1510053,,,,,,,2023-05-16,1,,,,,エヌイーアールディー,0
2387,9011003016809,新規,0,2023-05-16,2023-05-16,しろくま合同会社,,合同会社,東京都,渋谷区,渋谷１丁目１１番３号,,13,113,1500002,,,,,,,2023-05-16,1,,,,,,0
2390,9011101102824,新規,0,2023-05-16,2023-05-16,ジョブコンフォート株式会社,,株式会社,東京都,新宿区,下宮比町２番２８号飯田橋ハイタウン８２４号室,,13,104,1620822,,,,,,,2023-05-16,1,,,,,ジョブコンフォート,0
2395,9011201024638,新規,0,2023-05-16,2023-05-16,ＦＶ　ＧＲＯＵＰ株式会社,,株式会社,東京都,中野区,本町２丁目５１番６号ＬＥＧＡＬＡＮＤ中野坂上３０４号室,,13,114,1640012,,,,,,,2023-05-16,1,,,,,エフブイグループ,0
2397,9011601026820,新規,0,2023-05-16,2023-05-16,株式会社南海メンテナンス,,株式会社,東京都,練馬区,関町南１丁目９番４６号,,13,120,1770053,,,,,,,2023-05-16,1,,,,,ナンカイメンテナンス,0
2399,9011605002520,新規,0,2023-05-16,2023-05-16,特定非営利活動法人子ども未来食堂,,その他の設立登記法人,東京都,練馬区,桜台６丁目４番１０－５０３号,,13,120,1760002,,,,,,,2023-05-16,1,,,,,コドモミライショクドウ,0
2401,9011701026233,新規,0,2023-05-16,2023-05-16,株式会社ＭＳＴ,,株式会社,東京都,江戸川区,南小岩２丁目８番８号金子マンション１０２,,13,123,1330056,,,,,,,2023-05-16,1,,,,,エムエスティー,0
2404,9011801042403,新規,0,2023-05-16,2023-05-16,株式会社中西建設,,株式会社,東京都,足立区,新田３丁目８番１８号４階,,13,121,1230865,,,,,,,2023-05-16,1,,,,,ナカニシケンセツ,0
2406,9012401040524,新規,0,2023-05-16,2023-05-16,亜拓デジタル情報株式会社,,株式会社,東京都,調布市,多摩川５丁目１５－３京王マンション１０６,,13,208,1820025,,,,,,,2023-05-16,1,,,,,アタクデジタルジョウホウ,0
2412,9013301050761,新規,0,2023-05-16,2023-05-16,株式会社ＴＯＲ,,株式会社,東京都,豊島区,池袋本町１丁目４６番６号石森ビル２階,,13,116,1700011,,,,,,,2023-05-16,1,,,,,ティーオーアール,0
2421,9020001151583,新規,0,2023-05-16,2023-05-16,株式会社Ｍ’ｓ,,株式会社,神奈川県,横浜市神奈川区,菅田町７２８番地１９,,14,102,2210864,,,,,,,2023-05-16,1,,,,,エムズ,0
2422,9020001151609,新規,0,2023-05-16,2023-05-16,株式会社さきわい,,株式会社,神奈川県,横浜市青葉区,あざみ野２丁目３０番地,,14,117,2250011,,,,,,,2023-05-16,1,,,,,サキワイ,0
2423,9020001151617,新規,0,2023-05-16,2023-05-16,株式会社ＴＯＫＵＪＩＲＯ,,株式会社,神奈川県,横浜市青葉区,美しが丘４丁目２９番地１３,,14,117,2250002,,,,,,,2023-05-16,1,,,,,トクジロウ,0
2427,9020003023905,新規,0,2023-05-16,2023-05-16,Ｇｏｌｉｎｅ　Ｇｌｏｂａｌ　Ｊａｐａｎテクノロジー合同会社,,合同会社,神奈川県,横浜市西区,北幸１丁目１１番１号水信ビル７階,,14,103,2200004,,,,,,,2023-05-16,1,,,,,ゴーライングローバルジャパンテクノロジー,0
2428,9021001078998,新規,0,2023-05-16,2023-05-16,株式会社ゆかし旅案内,,株式会社,神奈川県,秦野市,鶴巻北３丁目６番１１号,,14,211,2570001,,,,,,,2023-05-16,1,,,,,ユカシタビアンナイ,0
2444,9030003021767,新規,0,2023-05-16,2023-05-16,Ｍ＆Ｍ　Ｃｏｍｐａｎｙ合同会社,,合同会社,埼玉県,所沢市,東狭山ケ丘２丁目２９００－３１,,11,208,3591106,,,,,,,2023-05-16,1,,,,,エムアンドエムカンパニー,0
2450,9040005021987,新規,0,2023-05-16,2023-05-16,一般社団法人ＫＲプロジェクト,,その他の設立登記法人,千葉県,香取市,小見川１０７０番地２,,12,236,2890313,,,,,,,2023-05-16,1,,,,,,0
2462,9070001040435,新規,0,2023-05-16,2023-05-16,株式会社ＫＭ商事,,株式会社,群馬県,高崎市,高関町１５１番地１メゾンカサブランカ１０３号,,10,202,3700043,,,,,,,2023-05-16,1,,,,,ケイエムショウジ,0
2465,9070003004941,新規,0,2023-05-16,2023-05-16,Ｙｏｇｉｙｏ合同会社,,合同会社,群馬県,富岡市,富岡２６７番地１,,10,210,3702316,,,,,,,2023-05-16,1,,,,,ヨギヨ,0
2467,9080101024007,新規,0,2023-05-16,2023-05-16,Ｓｕｎｎｙ　Ｃｏｕｎｔｒｙ株式会社,,株式会社,静岡県,三島市,一番町１２番１８号第８ＴＳビル１Ｆ,,22,206,4110036,,,,,,,2023-05-16,1,,,,,サニーカントリー,0
2470,9080401026487,新規,0,2023-05-16,2023-05-16,株式会社渡辺隆建築設計事務所,,株式会社,静岡県,磐田市,見付１７６８番地３４,,22,211,4380086,,,,,,,2023-05-16,1,,,,,ワタナベタカシケンチクセッケイジムショ,0
2475,9110003005051,新規,0,2023-05-16,2023-05-16,合同会社ＩＭＡＮ　ＴＲＡＤＩＮＧ,,合同会社,新潟県,新潟市北区,横土居３８３１番地,,15,101,9503303,,,,,,,2023-05-16,1,,,,,イマントレーディング,0
2486,9120001254698,新規,0,2023-05-16,2023-05-16,文石山房株式会社,,株式会社,大阪府,大阪市西淀川区,柏里２丁目７－２６ラ・ピース塚本４０５号室,,27,113,5550022,,,,,,,2023-05-16,1,,,,,ブンセキサンボウ,0
2487,9120001254830,新規,0,2023-05-16,2023-05-16,株式会社ＡＤＶＡＮＣＥＤ　ＴＥＣＨＮＯＬＯＧＩＥＳ　ＪＡＰＡＮ,,株式会社,大阪府,大阪市北区,梅田１丁目１番３号大阪駅前第３ビル２９階１－１－１号室,,27,127,5300001,,,,,,,2023-05-16,1,,,,,アドバンスドテクノロジーズジャパン,0
2488,9120001254847,新規,0,2023-05-16,2023-05-16,株式会社Ｃ．Ｃ．Ｃ,,株式会社,大阪府,大阪市北区,西天満３丁目１番１３号清州西天満ビル４階,,27,127,5300047,,,,,,,2023-05-16,1,,,,,シーシーシー,0
2489,9120001254896,新規,0,2023-05-16,2023-05-16,株式会社Ａｋｉｒａ,,株式会社,大阪府,大阪市中央区,島之内２丁目４番１３－２０１号,,27,128,5420082,,,,,,,2023-05-16,1,,,,,アキラ,0
2490,9120003024059,新規,0,2023-05-16,2023-05-16,ＴＳＵＧＩ　ＤＥＳＩＧＮ合同会社,,合同会社,大阪府,大阪市中央区,島町１丁目１－１島町ビル９Ｆ,,27,128,5400034,,,,,,,2023-05-16,1,,,,,ツギデザイン,0
2494,9120903004639,新規,0,2023-05-16,2023-05-16,フィール合同会社,,合同会社,大阪府,摂津市,一津屋３丁目５番２５号,,27,224,5660043,,,,,,,2023-05-16,1,,,,,フィール,0
2497,9122001036969,新規,0,2023-05-16,2023-05-16,株式会社大志をいだけ,,株式会社,大阪府,東大阪市,若江本町１丁目４番１８号,,27,227,5780942,,,,,,,2023-05-16,1,,,,,タイシヲイダケ,0
2498,9122001036977,新規,0,2023-05-16,2023-05-16,ＮＫトビノス株式会社,,株式会社,大阪府,東大阪市,布市町３丁目２番５３号,,27,227,5798004,,,,,,,2023-05-16,1,,,,,エヌケイトビノス,0
2513,9140001130146,新規,0,2023-05-16,2023-05-16,株式会社志道,,株式会社,兵庫県,姫路市,船津町１４５３番地１,,28,201,6792101,,,,,,,2023-05-16,1,,,,,シドウ,0
2514,9140001130204,新規,0,2023-05-16,2023-05-16,株式会社ＷＥＬＬ　ＢＩＺ,,株式会社,兵庫県,尼崎市,東園田町１丁目２４５番地ステージア園田東１０１号,,28,202,6610953,,,,,,,2023-05-16,1,,,,,ウェルビズ,0
2527,9180001156220,新規,0,2023-05-16,2023-05-16,株式会社ＢＲＩＮＧ　ＯＵＴ,,株式会社,愛知県,稲沢市,西島町治兵２６番地９,,23,220,4928329,,,,,,,2023-05-16,1,,,,,ブリングアウト,0
2528,9180001156237,新規,0,2023-05-16,2023-05-16,株式会社ブラン,,株式会社,愛知県,名古屋市守山区,翠松園２丁目４１５番,,23,113,4630010,,,,,,,2023-05-16,1,,,,,ブラン,0
2529,9180001156336,新規,0,2023-05-16,2023-05-16,ＶＩＶＩＤ株式会社,,株式会社,愛知県,名古屋市中区,錦１丁目１７番１３号２Ｆ,,23,106,4600003,,,,,,,2023-05-16,1,,,,,ビビッド,0
2530,9180001156360,新規,0,2023-05-16,2023-05-16,株式会社トータルインテリアロック,,株式会社,愛知県,名古屋市名東区,香流１丁目１３０２番地の２,,23,115,4650005,,,,,,,2023-05-16,1,,,,,トータルインテリアロック,0
2531,9180301037392,新規,0,2023-05-16,2023-05-16,株式会社ひかり,,株式会社,愛知県,安城市,北山崎町築地２５番地１１,,23,212,4460011,,,,,,,2023-05-16,1,,,,,ヒカリ,0
2536,9200001041312,新規,0,2023-05-16,2023-05-16,株式会社Ｋ．Ｒｅｆｌｅｃｔ,,株式会社,岐阜県,各務原市,蘇原希望町１丁目４３番地１,,21,213,5040829,,,,,,,2023-05-16,1,,,,,ケイリフレクト,0
2546,9240003006144,新規,0,2023-05-16,2023-05-16,合同会社ＮＢＣ,,合同会社,広島県,福山市,松永町４丁目３４番３－３号,,34,207,7290104,,,,,,,2023-05-16,1,,,,,エヌビーシー,0
2552,9260001037957,新規,0,2023-05-16,2023-05-16,ホワイトネットワーク株式会社,,株式会社,岡山県,岡山市北区,津島本町５番３号リヴェール津島本町２０２号室,,33,101,7000089,,,,,,,2023-05-16,1,,,,,ホワイトネットワーク,0
2553,9260005011231,新規,0,2023-05-16,2023-05-16,労働者協同組合だんだん,,その他の設立登記法人,岡山県,倉敷市,広江５丁目２‐４５,,33,202,7128043,,,,,,,2023-05-16,1,,,,,ダンダン,0
2562,9290001101520,新規,0,2023-05-16,2023-05-16,株式会社ブルー,,株式会社,福岡県,飯塚市,忠隈１０９番地４,,40,205,8200071,,,,,,,2023-05-16,1,,,,,ブルー,0
2563,9290001101537,新規,0,2023-05-16,2023-05-16,株式会社Ｆｉｒｓｔ　Ｆｉｎｅ,,株式会社,福岡県,福岡市東区,西戸崎３丁目１７番３号,,40,131,8110321,,,,,,,2023-05-16,1,,,,,ファーストファイン,0
2568,9290801029515,新規,0,2023-05-16,2023-05-16,株式会社ＡＬＩ,,株式会社,福岡県,北九州市小倉北区,魚町３丁目５番１５号,,40,106,8020006,,,,,,,2023-05-16,1,,,,,アリ,0
2569,9300001013301,新規,0,2023-05-16,2023-05-16,株式会社ＳＵＮ,,株式会社,佐賀県,鳥栖市,真木町１９６７番地９,,41,203,8410046,,,,,,,2023-05-16,1,,,,,サン,0
2570,9300003001964,新規,0,2023-05-16,2023-05-16,合同会社ほのか,,合同会社,佐賀県,嬉野市,嬉野町大字下宿甲５７０番地１,,41,209,8430301,,,,,,,2023-05-16,1,,,,,ホノカ,0
2573,9320003004073,新規,0,2023-05-16,2023-05-16,合同会社Ｈａｕｏｌｉ　Ｍａｋａｎａ,,合同会社,大分県,大分市,青葉台３丁目１３番９号,,44,201,8700875,,,,,,,2023-05-16,1,,,,,ハウオリマカナ,0
2574,9320005010078,新規,0,2023-05-16,2023-05-16,一般社団法人ブルーインパクト普及推進協会,,その他の設立登記法人,大分県,大分市,中島東１丁目１番７号春光ビル１Ｆ,,44,201,8700043,,,,,,,2023-05-16,1,,,,,ブルーインパクトフキュウスイシンキョウカイ,0
2583,9360005006849,新規,0,2023-05-16,2023-05-16,無限責任洲鎌負債整理組合,,その他の設立登記法人,沖縄県,宮古島市,下地字洲鎌,,47,214,9060303,,,,,,,2023-05-16,1,,,,,ムゲンセキニンスガマフサイセイリクミアイ,0
2585,9370001049958,新規,0,2023-05-16,2023-05-16,株式会社プログラ,,株式会社,宮城県,仙台市若林区,沖野６丁目３４番３０号,,04,103,9840831,,,,,,,2023-05-16,1,,,,,プログラ,0
2593,9380001033696,新規,0,2023-05-16,2023-05-16,株式会社こころ創建,,株式会社,福島県,福島市,方木田字下川原４０番地,,07,201,9608163,,,,,,,2023-05-16,1,,,,,ココロソウケン,0
2596,9400003003083,新規,0,2023-05-16,2023-05-16,合同会社ＧＲＩＴ,,合同会社,岩手県,大船渡市,日頃市町字長安寺９１－５,,03,203,0220005,,,,,,,2023-05-16,1,,,,,グリット,0
2605,9430001089072,新規,0,2023-05-16,2023-05-16,株式会社オーシング,,株式会社,北海道,札幌市手稲区,手稲本町三条２丁目１番５号,,01,109,0060023,,,,,,,2023-05-16,1,,,,,オーシング,0
2606,9430001089097,新規,0,2023-05-16,2023-05-16,株式会社Ｎｏｂｏｒｉ　Ｏｒｃｈａｒｄ,,株式会社,北海道,余市郡余市町,登町１６５８番１,,01,408,0460002,,,,,,,2023-05-16,1,,,,,ノボリオーチャード,0
2618,9470003002418,新規,0,2023-05-16,2023-05-16,Ｌｉｂｅｒａｃｅ合同会社,,合同会社,香川県,高松市,屋島中町６２８－１,,37,201,7610112,,,,,,,2023-05-16,1,,,,,リベラーチェ,0
2620,9480001012104,新規,0,2023-05-16,2023-05-16,株式会社紡樹,,株式会社,徳島県,徳島市,西新町４丁目７番地,,36,201,7700902,,,,,,,2023-05-16,1,,,,,ツムギ,0
