sequenceNumber,corporateNumber,process,correct,updateDate,changeDate,name,nameImageId,kind,prefectureName,cityName,streetNumber,addressImageId,prefectureCode,cityCode,postCode,addressOutside,addressOutsideImageId,closeDate,closeCause,successorCorporateNumber,changeCause,assignmentDate,latest,enName,enPrefectureName,enCityName,enAddressOutside,furigana,hihyoji
9,1010003043465,新規,0,2024-04-11,2024-04-11,合同会社スプリング３,,合同会社,東京都,千代田区,丸の内３丁目１番１号東京共同会計事務所内,,13,101,1000005,,,,,,,2024-04-11,1,,,,,スプリングスリー,0
10,1010005038109,新規,0,2024-04-11,2024-04-11,一般社団法人イブー,,その他の設立登記法人,東京都,千代田区,一番町２２番地７,,13,101,1020082,,,,,,,2024-04-11,1,,,,,イブー,0
22,1010401181676,新規,0,2024-04-11,2024-04-11,株式会社協和グループ,,株式会社,東京都,港区,北青山１丁目３番１号アールキューブ青山３階,,13,103,1070061,,,,,,,2024-04-11,1,,,,,キョウワグループ,0
23,1010401181701,新規,0,2024-04-11,2024-04-11,株式会社日本設備工事基盤,,株式会社,東京都,港区,麻布台１丁目１１番１０号,,13,103,1060041,,,,,,,2024-04-11,1,,,,,ニホンセツビコウジキバン,0
24,1010401181767,新規,0,2024-04-11,2024-04-11,株式会社ジーン,,株式会社,東京都,港区,六本木５丁目１２番７－３０２号,,13,103,1060032,,,,,,,2024-04-11,1,,,,,ジーン,0
31,1010505003512,新規,0,2024-04-11,2024-04-11,桂国際法務行政書士法人,,その他の設立登記法人,東京都,台東区,元浅草１丁目１９－４－３０２,,13,106,1110041,,,,,,,2024-04-11,1,,,,,ケイコクサイホウム,0
32,1010605004311,新規,0,2024-04-11,2024-04-11,フォーカス行政書士法人,,その他の設立登記法人,東京都,墨田区,東向島２丁目４７番１３号第８安井ビル７階,,13,107,1310032,,,,,,,2024-04-11,1,,,,,フォーカス,0
33,1010801034938,新規,0,2024-04-11,2024-04-11,株式会社コトナス,,株式会社,東京都,大田区,東雪谷５丁目３９番１３号,,13,111,1450065,,,,,,,2024-04-11,1,,,,,コトナス,0
40,1010903008963,新規,0,2024-04-11,2024-04-11,合同会社ＭＳＭ,,合同会社,東京都,世田谷区,深沢４丁目１５番７号,,13,112,1580081,,,,,,,2024-04-11,1,,,,,エムエスエム,0
45,1011001161201,新規,0,2024-04-11,2024-04-11,ルスツリゾートテック株式会社,,株式会社,東京都,渋谷区,渋谷１丁目８－５グローリア宮益坂１０２,,13,113,1500002,,,,,,,2024-04-11,1,,,,,ルスツリゾートテック,0
46,1011003018903,新規,0,2024-04-11,2024-04-11,ファーネルジャパン合同会社,,合同会社,東京都,渋谷区,恵比寿４丁目２０番３号恵比寿ガーデンプレイスタワー２３階,,13,113,1500013,,,,,,,2024-04-11,1,,,,,ファーネルジャパン,0
49,1011101106865,新規,0,2024-04-11,2024-04-11,株式会社リンクス・クリエイト,,株式会社,東京都,新宿区,西新宿６丁目５番１号新宿アイランドタワー２階,,13,104,1600023,,,,,,,2024-04-11,1,,,,,リンクスクリエイト,0
50,1011101106873,新規,0,2024-04-11,2024-04-11,東京星楽株式会社,,株式会社,東京都,新宿区,原町２丁目５番地ＫＥＮ２１ビル９０１,,13,104,1620053,,,,,,,2024-04-11,1,,,,,トウキョウセイラク,0
51,1011101106898,新規,0,2024-04-11,2024-04-11,株式会社Ｄａｔａ　Ｔｒａｉｎｉｎｇ　Ｊａｐａｎ,,株式会社,東京都,新宿区,中里町２７ＴＭＫ神楽坂７０２,,13,104,1620804,,,,,,,2024-04-11,1,,,,,データトレーニングジャパン,0
54,1011201025395,新規,0,2024-04-11,2024-04-11,Ｐｒｏｊｅｃｔ　Ｂ株式会社,,株式会社,東京都,中野区,本町４丁目３０番１１号アーク新中野５０１号室,,13,114,1640012,,,,,,,2024-04-11,1,,,,,プロジェクトビー,0
58,1011601027677,新規,0,2024-04-11,2024-04-11,ベストオーダー株式会社,,株式会社,東京都,練馬区,練馬１丁目６番１－１３０６号,,13,120,1760001,,,,,,,2024-04-11,1,,,,,ベストオーダー,0
60,1011701027189,新規,0,2024-04-11,2024-04-11,株式会社Ｒｅｆｒｅｓｈ,,株式会社,東京都,江戸川区,西小岩１丁目１９番２４号,,13,123,1330057,,,,,,,2024-04-11,1,,,,,リフレッシュ,0
64,1011801044043,新規,0,2024-04-11,2024-04-11,株式会社ＳＩシフト,,株式会社,東京都,足立区,東六月町７番３８号,,13,121,1210071,,,,,,,2024-04-11,1,,,,,エスアイシフト,0
65,1012801023103,新規,0,2024-04-11,2024-04-11,株式会社ｓｏｒａ,,株式会社,東京都,国立市,中１丁目１３番地の１１２,,13,215,1860004,,,,,,,2024-04-11,1,,,,,ソラ,0
80,1021001081935,新規,0,2024-04-11,2024-04-11,株式会社アペンド,,株式会社,神奈川県,平塚市,徳延４１番地の１４,,14,203,2540902,,,,,,,2024-04-11,1,,,,,アペンド,0
84,1030001159699,新規,0,2024-04-11,2024-04-11,株式会社ＭＵＳＡＳＨＩ,,株式会社,埼玉県,久喜市,南栗橋１１丁目１７番地１７,,11,232,3491117,,,,,,,2024-04-11,1,,,,,ムサシ,0
85,1030001159724,新規,0,2024-04-11,2024-04-11,株式会社ブライトン,,株式会社,埼玉県,さいたま市大宮区,大門町３丁目６１番地,,11,103,3300846,,,,,,,2024-04-11,1,,,,,ブライトン,0
86,1030001159757,新規,0,2024-04-11,2024-04-11,株式会社和興,,株式会社,埼玉県,越谷市,川柳町２丁目１９８番地,,11,222,3430827,,,,,,,2024-04-11,1,,,,,ワコウ,0
89,1030003023985,新規,0,2024-04-11,2024-04-11,合同会社シャインズプラン,,合同会社,埼玉県,さいたま市中央区,八王子５丁目４番８号,,11,105,3380006,,,,,,,2024-04-11,1,,,,,シャインズプラン,0
90,1030005021649,新規,0,2024-04-11,2024-04-11,特定非営利活動法人埼玉盲ろう者友の会,,その他の設立登記法人,埼玉県,さいたま市浦和区,大原３丁目１０番１号埼玉県障害者交流センター内,,11,107,3300046,,,,,,,2024-04-11,1,,,,,サイタマモウロウシャトモノカイ,0
95,1040003024719,新規,0,2024-04-11,2024-04-11,合同会社鈴木興業,,合同会社,千葉県,館山市,下真倉５１９番地の５,,12,205,2940048,,,,,,,2024-04-11,1,,,,,スズキコウギョウ,0
96,1040003024735,新規,0,2024-04-11,2024-04-11,合同会社ＤＩＣＥ‐Ｋ,,合同会社,千葉県,市川市,市川南１丁目１番１‐３３０２号,,12,203,2720033,,,,,,,2024-04-11,1,,,,,ダイスケー,0
97,1040005022340,新規,0,2024-04-11,2024-04-11,特定非営利活動法人Ｆａｍｉｌａｉ家庭・家族のミライ研究協会,,その他の設立登記法人,千葉県,佐倉市,西志津２丁目１７番１８号,,12,212,2850845,,,,,,,2024-04-11,1,,,,,ファミライカテイカゾクノミライケンキュウキョウカイ,0
101,1050003008282,新規,0,2024-04-11,2024-04-11,合同会社ベースボール５スマイル,,合同会社,茨城県,日立市,城南町２丁目７－３８,,08,202,3170077,,,,,,,2024-04-11,1,,,,,ベースボールファイブスマイル,0
109,1080101024666,新規,0,2024-04-11,2024-04-11,株式会社原商事,,株式会社,静岡県,三島市,大場１３６番地の４,,22,206,4110803,,,,,,,2024-04-11,1,,,,,ハラショウジ,0
113,1090001018643,新規,0,2024-04-11,2024-04-11,イタダキワークス株式会社,,株式会社,山梨県,南都留郡富士河口湖町,小立６００１番地,,19,430,4010302,,,,,,,2024-04-11,1,,,,,イタダキワークス,0
115,1100003007485,新規,0,2024-04-11,2024-04-11,長和ヴィニュロン合同会社,,合同会社,長野県,小県郡長和町,和田１４８２－５,,20,350,3860701,,,,,,,2024-04-11,1,,,,,ナガワヴィニュロン,0
126,1120001263748,新規,0,2024-04-11,2024-04-11,株式会社サンドリーム,,株式会社,大阪府,大阪市此花区,島屋６丁目２番１００－１５０１号,,27,104,5540024,,,,,,,2024-04-11,1,,,,,サンドリーム,0
127,1120001263871,新規,0,2024-04-11,2024-04-11,株式会社タケシグローバル,,株式会社,大阪府,大阪市中央区,久宝寺町３－６－１本町南ガーデンシティ７階,,27,128,5390000,,,,,,,2024-04-11,1,,,,,タケシグローバル,0
128,1120001263962,新規,0,2024-04-11,2024-04-11,株式会社Ｒｉｓｉｎｇ　Ｓｕｎ,,株式会社,大阪府,大阪市中央区,南船場１丁目６番１５号ＬＩＢＥＲＡビル４階,,27,128,5420081,,,,,,,2024-04-11,1,,,,,ライジングサン,0
130,1120003026343,新規,0,2024-04-11,2024-04-11,ＩＳメディカル合同会社,,合同会社,大阪府,大阪市東淀川区,大桐３丁目１６－１４カムネス経大前４１７,,27,114,5330011,,,,,,,2024-04-11,1,,,,,アイエスメディカル,0
131,1120003026351,新規,0,2024-04-11,2024-04-11,クラインテック合同会社,,合同会社,大阪府,大阪市北区,梅田１丁目２番２号大阪駅前第２ビル１２－１２,,27,127,5300001,,,,,,,2024-04-11,1,,,,,クラインテック,0
139,1120103005775,新規,0,2024-04-11,2024-04-11,ｋｕｋｕｎａ合同会社,,合同会社,大阪府,和泉市,室堂町１１０３番地の９５,,27,219,5941101,,,,,,,2024-04-11,1,,,,,ククナ,0
142,1122001037999,新規,0,2024-04-11,2024-04-11,あったか暮ラルス株式会社,,株式会社,大阪府,大東市,朋来２丁目５番３５号９２１,,27,218,5740034,,,,,,,2024-04-11,1,,,,,アッタカクラルス,0
143,1122001038007,新規,0,2024-04-11,2024-04-11,株式会社Ｒａｄｉａｎｃｅ　Ｎａｎａ　Ｇｕａｒｄｉａｎｓ,,株式会社,大阪府,東大阪市,鷹殿町１１番２号カワショウビル３階,,27,227,5798036,,,,,,,2024-04-11,1,,,,,ラディアンスナナガーディアンズ,0
145,1130001076793,新規,0,2024-04-11,2024-04-11,株式会社エルピーエス,,株式会社,京都府,京都市下京区,松原通油小路西入麓町６５８番地,,26,106,6008467,,,,,,,2024-04-11,1,,,,,エルピーエス,0
148,1140001133949,新規,0,2024-04-11,2024-04-11,株式会社Ｋ’ｓ　ＧｒｅｅＮ,,株式会社,兵庫県,姫路市,夢前町山之内戊４０７番地,,28,201,6712101,,,,,,,2024-04-11,1,,,,,ケイズグリーン,0
149,1140001134030,新規,0,2024-04-11,2024-04-11,株式会社Ｉｎｓｐｉｒｅ,,株式会社,兵庫県,神戸市中央区,下山手通８丁目１９－１２－１０２,,28,110,6500011,,,,,,,2024-04-11,1,,,,,インスピレ,0
157,1160001025839,新規,0,2024-04-11,2024-04-11,株式会社篠建,,株式会社,滋賀県,大津市,大萱５丁目７番４号レークハイツＡ１０５,,25,201,5202144,,,,,,,2024-04-11,1,,,,,シノケン,0
165,1180001160857,新規,0,2024-04-11,2024-04-11,株式会社ＭＩＫＫＥ　ＳＴＹＬＥ,,株式会社,愛知県,海部郡蟹江町,本町９丁目１２６番地１,,23,425,4970034,,,,,,,2024-04-11,1,,,,,ミッケスタイル,0
166,1180001160873,新規,0,2024-04-11,2024-04-11,株式会社知のヒキダシ,,株式会社,愛知県,名古屋市東区,泉２丁目１１番４号４０１,,23,102,4610001,,,,,,,2024-04-11,1,,,,,チノヒキダシ,0
167,1180001160898,新規,0,2024-04-11,2024-04-11,株式会社カーアンドライフ,,株式会社,愛知県,知多郡東浦町,大字緒川字政所１番地６,,23,442,4702102,,,,,,,2024-04-11,1,,,,,カーアンドライフ,0
168,1180001160931,新規,0,2024-04-11,2024-04-11,株式会社Ｆｒｕｉｃｈｅ,,株式会社,愛知県,知多市,八幡字鍋山５４番地の１,,23,224,4780001,,,,,,,2024-04-11,1,,,,,フルーチェ,0
169,1180003026610,新規,0,2024-04-11,2024-04-11,合同会社Ｇｒｏｗｔｈ＆Ｓｙｏ　ｃｏｎｓｕｌｔａｎｔ,,合同会社,愛知県,名古屋市中村区,本陣通４丁目１１番１号,,23,105,4530041,,,,,,,2024-04-11,1,,,,,アンドショウコンサルタント,0
170,1180003026635,新規,0,2024-04-11,2024-04-11,合同会社Ｔｉｓａ’ｓ　ｈｏｕｓｅ,,合同会社,愛知県,名古屋市港区,千鳥２丁目２番１７号,,23,111,4550031,,,,,,,2024-04-11,1,,,,,ティサーズハウス,0
179,1190001031264,新規,0,2024-04-11,2024-04-11,株式会社Ｈ２Ｏ,,株式会社,三重県,津市,森町１６５番地,,24,201,5141254,,,,,,,2024-04-11,1,,,,,エイチツーオー,0
182,1200005013587,新規,0,2024-04-11,2024-04-11,一般社団法人彩雲社,,その他の設立登記法人,岐阜県,恵那市,大井町２９３番地１０,,21,210,5097201,,,,,,,2024-04-11,1,,,,,サイウンシャ,0
194,1280001000136,新規,0,2024-04-11,2024-04-11,株式会社オバラ産業,,株式会社,島根県,松江市,上乃木８丁目１０番２号,,32,201,6900015,,,,,,,2024-04-11,1,,,,,オバラサンギョウ,0
200,1290001105322,新規,0,2024-04-11,2024-04-11,株式会社吟泉,,株式会社,福岡県,福岡市早良区,有田２丁目２１番３号,,40,137,8140033,,,,,,,2024-04-11,1,,,,,,0
201,1290001105330,新規,0,2024-04-11,2024-04-11,株式会社植木造園,,株式会社,福岡県,福岡市東区,唐原４丁目１６番１５－１０７号,,40,131,8130001,,,,,,,2024-04-11,1,,,,,ウエキゾウエン,0
202,1290003015197,新規,0,2024-04-11,2024-04-11,合同会社ＢＥＮＺＡＩＴＥＮ,,合同会社,福岡県,福岡市南区,長丘３丁目１６－１６奥牟田住宅３棟２０３,,40,134,8150075,,,,,,,2024-04-11,1,,,,,ベンザイテン,0
206,1290005019353,新規,0,2024-04-11,2024-04-11,行政書士法人Ｂｒｅａｋ　ｔｈｒｏｕｇｈ,,その他の設立登記法人,福岡県,糸島市,前原中央３丁目１９番２０号,,40,230,8191116,,,,,,,2024-04-11,1,,,,,ブレイクスルー,0
212,1310003004767,新規,0,2024-04-11,2024-04-11,合同会社愛弘,,合同会社,長崎県,諫早市,高来町黒崎１０１番地,,42,204,8590122,,,,,,,2024-04-11,1,,,,,アイコウ,0
216,1350001018906,新規,0,2024-04-11,2024-04-11,株式会社Ｍｅｄｉｆｆｕｓｉｏｎ,,株式会社,宮崎県,宮崎市,大字赤江１５４５番地２,,45,201,8800912,,,,,,,2024-04-11,1,,,,,メディフュージョン,0
221,1360001033499,新規,0,2024-04-11,2024-04-11,株式会社ＲｅｄＰｒｏ,,株式会社,沖縄県,那覇市,田原１丁目１２番地６－１Ｒ,,47,201,9010156,,,,,,,2024-04-11,1,,,,,レッドプロ,0
226,1370005010766,新規,0,2024-04-11,2024-04-11,一般社団法人ｌａｒｕｇｏ,,その他の設立登記法人,宮城県,宮城郡利府町,青山２丁目３６番地４,,04,406,9810131,,,,,,,2024-04-11,1,,,,,ラルゴ,0
229,1380001034446,新規,0,2024-04-11,2024-04-11,株式会社ＭＲＴ油圧技研,,株式会社,福島県,いわき市,常磐水野谷町亀ノ尾１３４番地の４,,07,204,9728311,,,,,,,2024-04-11,1,,,,,エムアールティーユアツギケン,0
230,1380003005734,新規,0,2024-04-11,2024-04-11,翔エンジニアリング合同会社,,合同会社,福島県,本宮市,岩根字北原３３番地２,,07,214,9691106,,,,,,,2024-04-11,1,,,,,ハバタキエンジニアリング,0
235,1420005007897,新規,0,2024-04-11,2024-04-11,農事組合法人横沢丸岸共同防除組合,,その他の設立登記法人,青森県,北津軽郡板柳町,大字横沢字岡部１４番地１,,02,381,0383644,,,,,,,2024-04-11,1,,,,,ヨコサワマルキシキョウドウボウジョクミアイ,0
242,1450001014283,新規,0,2024-04-11,2024-04-11,株式会社ホクセイ,,株式会社,北海道,深川市,西町２３番２号,,01,228,0740012,,,,,,,2024-04-11,1,,,,,,0
244,1470001020131,新規,0,2024-04-11,2024-04-11,株式会社ライス,,株式会社,香川県,坂出市,谷町２丁目５番７２号,,37,203,7620033,,,,,,,2024-04-11,1,,,,,ライス,0
262,2010003043349,新規,0,2024-04-11,2024-04-11,合同会社プリュス,,合同会社,東京都,中央区,銀座４丁目３－６＿Ｇ４ＢＲＩＣＫＳ＿ＢＬＤ６階,,13,102,1040061,,,,,,,2024-04-11,1,,,,,プリュス,0
272,2010401181171,新規,0,2024-04-11,2024-04-11,株式会社ＷＡＯＲＩ,,株式会社,東京都,港区,南青山３丁目１番３６号青山丸竹ビル６Ｆ,,13,103,1070062,,,,,,,2024-04-11,1,,,,,ワオリ,0
273,2010401181584,新規,0,2024-04-11,2024-04-11,株式会社ＥＸＰＥＤＩＴＩＯＮ　ＳＴＹＬＥ,,株式会社,東京都,港区,芝２丁目１番２５－２０３号,,13,103,1050014,,,,,,,2024-04-11,1,,,,,エクスペディションスタイル,0
274,2010401181691,新規,0,2024-04-11,2024-04-11,株式会社ＧＯＯＤＭＥＤＩＣＡＬ,,株式会社,東京都,港区,南青山３丁目１番３６号青山丸竹ビル６階,,13,103,1070062,,,,,,,2024-04-11,1,,,,,グッドメディカル,0
275,2010401181700,新規,0,2024-04-11,2024-04-11,株式会社Ｌｉｎｑｕａｇｅｓ,,株式会社,東京都,港区,南青山３丁目１番３６号青山丸竹ビル６Ｆ,,13,103,1070062,,,,,,,2024-04-11,1,,,,,リンケージ,0
276,2010401181725,新規,0,2024-04-11,2024-04-11,株式会社Ｏｗｎｅｒｓ’Ｋｉｔｃｈｅｎ,,株式会社,東京都,港区,西麻布２丁目２５番２４号ＦＴビルＭＢ１階,,13,103,1060031,,,,,,,2024-04-11,1,,,,,オーナーズキッチン,0
278,2010403032356,新規,0,2024-04-11,2024-04-11,ｒｅｎｇａプロ第３号合同会社,,合同会社,東京都,港区,赤坂４丁目１５番１号赤坂ガーデンシティ３階,,13,103,1070052,,,,,,,2024-04-11,1,,,,,レンガプロダイサンゴウ,0
282,2010501052090,新規,0,2024-04-11,2024-04-11,エントリー株式会社,,株式会社,東京都,台東区,東上野１丁目２０番９号,,13,106,1100015,,,,,,,2024-04-11,1,,,,,エントリー,0
292,2010903008962,新規,0,2024-04-11,2024-04-11,ＴＫ　ＡＭ合同会社,,合同会社,東京都,世田谷区,弦巻２丁目３３番２０－４０７号,,13,112,1540016,,,,,,,2024-04-11,1,,,,,ティーケイエーエム,0
297,2011001160846,新規,0,2024-04-11,2024-04-11,株式会社ＣＯＭＶＡＳ,,株式会社,東京都,渋谷区,渋谷２丁目１９－１５宮益坂ビルディング６０９,,13,113,1500002,,,,,,,2024-04-11,1,,,,,コンバス,0
298,2011001161183,新規,0,2024-04-11,2024-04-11,株式会社Ｄｍｅｌｔ,,株式会社,東京都,渋谷区,神宮前６丁目２３番４号桑野ビル２階,,13,113,1500001,,,,,,,2024-04-11,1,,,,,ディーメルト,0
299,2011001161200,新規,0,2024-04-11,2024-04-11,Ｋａｐｉｔｏ　Ｊａｐａｎ株式会社,,株式会社,東京都,渋谷区,渋谷３丁目１７番４号アクシーズ７号館ビル１０Ｆ,,13,113,1500002,,,,,,,2024-04-11,1,,,,,カピトジャパン,0
300,2011001161225,新規,0,2024-04-11,2024-04-11,株式会社ｈａｎｕｒｙ,,株式会社,東京都,渋谷区,松濤１丁目２８－１４,,13,113,1500046,,,,,,,2024-04-11,1,,,,,ハヌリー,0
301,2011001161274,新規,0,2024-04-11,2024-04-11,株式会社ロクプロダクション,,株式会社,東京都,目黒区,駒場１丁目１番６－７０１号ザ・パークハビオ神泉,,13,110,1530041,,,,,,,2024-04-11,1,,,,,ロクプロダクション,0
302,2011003018893,新規,0,2024-04-11,2024-04-11,ゼロワンスープ合同会社,,合同会社,東京都,渋谷区,神宮前６丁目２３番４号桑野ビル２階,,13,113,1500001,,,,,,,2024-04-11,1,,,,,ゼロワンスープ,0
307,2011103014306,新規,0,2024-04-11,2024-04-11,合同会社テキン,,合同会社,東京都,新宿区,西新宿３丁目３番１３号西新宿水間ビル２Ｆ,,13,104,1600023,,,,,,,2024-04-11,1,,,,,テキン,0
309,2011203004355,新規,0,2024-04-11,2024-04-11,合同会社スマイリー,,合同会社,東京都,中野区,東中野１丁目１５番５号エクセルワイエム２０２,,13,114,1640003,,,,,,,2024-04-11,1,,,,,スマイリー,0
311,2011501030482,新規,0,2024-04-11,2024-04-11,三木株式会社,,株式会社,東京都,北区,王子１丁目２２番２号王子一番街ビル２０２号室,,13,117,1140002,,,,,,,2024-04-11,1,,,,,ミキ,0
315,2011603004293,新規,0,2024-04-11,2024-04-11,合同会社ＦＵＪＩＴＡ　ＡＲＴＳ　ＡＮＤ　ＩＮＶＥＳＴＩＧＡＴＩＯＮ,,合同会社,東京都,練馬区,石神井台８丁目１７番３号,,13,120,1770045,,,,,,,2024-04-11,1,,,,,フジタアーツアンドインベステイゲイション,0
319,2011803006164,新規,0,2024-04-11,2024-04-11,合同会社Ａｙａｚｏ,,合同会社,東京都,葛飾区,東堀切２丁目１０番２７号,,13,122,1240004,,,,,,,2024-04-11,1,,,,,アヤゾー,0
320,2011803006180,新規,0,2024-04-11,2024-04-11,合同会社ＡＭＳ　ＡＧＥＮＣＹ,,合同会社,東京都,足立区,日ノ出町２０番８号,,13,121,1200021,,,,,,,2024-04-11,1,,,,,エーエムエスエージェンシー,0
322,2012301013867,新規,0,2024-04-11,2024-04-11,株式会社ＡＫカンパニー,,株式会社,東京都,町田市,森野３丁目１０番１３号フォレストクローバー２０１,,13,209,1940022,,,,,,,2024-04-11,1,,,,,エーケーカンパニー,0
323,2012403006505,新規,0,2024-04-11,2024-04-11,Ｏｒｃｈａｒｄ　Ｐａｒｋ　Ａｓｉａ合同会社,,合同会社,東京都,調布市,布田６丁目６３番地４０,,13,208,1820024,,,,,,,2024-04-11,1,,,,,オーチャードパークアジア,0
328,2020001156614,新規,0,2024-04-11,2024-04-11,ＩＮＦＩＮＩＴＹ株式会社,,株式会社,神奈川県,横浜市泉区,上飯田町７７３番地７,,14,116,2450018,,,,,,,2024-04-11,1,,,,,インフィニティ,0
333,2021001081934,新規,0,2024-04-11,2024-04-11,ＬＩＮＯ株式会社,,株式会社,神奈川県,南足柄市,中沼４９２番地,,14,217,2500123,,,,,,,2024-04-11,1,,,,,リノ,0
343,2030001159756,新規,0,2024-04-11,2024-04-11,株式会社ＲｉｚＺ,,株式会社,埼玉県,蕨市,中央３丁目１６番２号サニーコート蕨第７－９０２号,,11,223,3350004,,,,,,,2024-04-11,1,,,,,リズ,0
353,2040003024718,新規,0,2024-04-11,2024-04-11,Ｄｉｇｉｔａｌ　Ｗｈｅｅｌ合同会社,,合同会社,千葉県,浦安市,明海２丁目１１番１３号,,12,227,2790014,,,,,,,2024-04-11,1,,,,,デジタルホイール,0
359,2050003008281,新規,0,2024-04-11,2024-04-11,合同会社ＩＴコーポレーション,,合同会社,茨城県,かすみがうら市,下志筑１０４１番地１,,08,230,3150074,,,,,,,2024-04-11,1,,,,,アイティーコーポレーション,0
366,2080103003031,新規,0,2024-04-11,2024-04-11,まる不二合同会社,,合同会社,静岡県,裾野市,茶畑２５９－１,,22,220,4101121,,,,,,,2024-04-11,1,,,,,マルフジ,0
367,2080105006420,新規,0,2024-04-11,2024-04-11,一般社団法人リタイアメント・コーチング協会,,その他の設立登記法人,静岡県,熱海市,下多賀２５３番地１,,22,205,4130102,,,,,,,2024-04-11,1,,,,,リタイアメントコーチングキョウカイ,0
384,2120001263895,新規,0,2024-04-11,2024-04-11,ティーワン株式会社,,株式会社,大阪府,大阪市大正区,平尾４丁目１１番７－３０５号,,27,108,5510012,,,,,,,2024-04-11,1,,,,,ティーワン,0
385,2120001263953,新規,0,2024-04-11,2024-04-11,株式会社ＳＫ美装,,株式会社,大阪府,大阪市淀川区,西中島３丁目１８番９号,,27,123,5320011,,,,,,,2024-04-11,1,,,,,エスケイビソウ,0
389,2120101069400,新規,0,2024-04-11,2024-04-11,株式会社豊島電気,,株式会社,大阪府,藤井寺市,小山２丁目３番３７号,,27,226,5830033,,,,,,,2024-04-11,1,,,,,トヨシマデンキ,0
398,2130003009404,新規,0,2024-04-11,2024-04-11,合同会社Ｎｏｒｓ,,合同会社,京都府,京都市中京区,式阿弥町１３０御池サンハイツ６０２,,26,104,6048261,,,,,,,2024-04-11,1,,,,,ノアーズ,0
403,2140001133997,新規,0,2024-04-11,2024-04-11,株式会社ピグモ,,株式会社,兵庫県,姫路市,飾磨区英賀保駅前町６７番地－１１０２,,28,201,6728091,,,,,,,2024-04-11,1,,,,,ピグモ,0
409,2150001027216,新規,0,2024-04-11,2024-04-11,株式会社古都,,株式会社,奈良県,橿原市,新賀町３００番地の１,,29,205,6340006,,,,,,,2024-04-11,1,,,,,コト,0
413,2170003002017,新規,0,2024-04-11,2024-04-11,合同会社アン,,合同会社,和歌山県,和歌山市,鷹匠町１丁目５６番地１,,30,201,6408135,,,,,,,2024-04-11,1,,,,,アン,0
417,2180003026592,新規,0,2024-04-11,2024-04-11,合同会社ＴＥＮＪＩＮ,,合同会社,愛知県,尾張旭市,柏井町弥栄１２番地１,,23,226,4880008,,,,,,,2024-04-11,1,,,,,テンジン,0
418,2180003026642,新規,0,2024-04-11,2024-04-11,合同会社ＰｉｎｕｓＣｏｐｉａ,,合同会社,愛知県,名古屋市中村区,名駅４丁目２４番５号第２森ビル４０１,,23,105,4500002,,,,,,,2024-04-11,1,,,,,ピーヌスコピア,0
420,2190001031263,新規,0,2024-04-11,2024-04-11,株式会社フリークス,,株式会社,三重県,四日市市,水沢町１０５７番地２,,24,202,5121105,,,,,,,2024-04-11,1,,,,,フリークス,0
426,2220001025914,新規,0,2024-04-11,2024-04-11,株式会社イチカワ工建,,株式会社,石川県,金沢市,千田町ヘ５１番地,,17,201,9200204,,,,,,,2024-04-11,1,,,,,イチカワコウケン,0
436,2270005005585,新規,0,2024-04-11,2024-04-11,一般社団法人つなぐみらい,,その他の設立登記法人,鳥取県,米子市,茶町６１番地（１Ｆ）,,31,202,6830041,,,,,,,2024-04-11,1,,,,,ツナグミライ,0
448,2290801030487,新規,0,2024-04-11,2024-04-11,株式会社Ｃｌｏｖｅｒ,,株式会社,福岡県,田川郡香春町,大字中津原１１８８番地４,,40,601,8221405,,,,,,,2024-04-11,1,,,,,クローバー,0
452,2310003004758,新規,0,2024-04-11,2024-04-11,合同会社ｓｔａｎｄ　ｂｙ　ｙｏｕ,,合同会社,長崎県,諫早市,天満町１６－３３,,42,204,8540006,,,,,,,2024-04-11,1,,,,,スタンドバイユー,0
454,2320001020418,新規,0,2024-04-11,2024-04-11,株式会社外国人材サポートセンター,,株式会社,大分県,大分市,舞鶴町１丁目３番２８号ネクスト舞鶴ビル６Ｆ,,44,201,8700044,,,,,,,2024-04-11,1,,,,,ガイコクジンザイサポートセンター,0
456,2320003004336,新規,0,2024-04-11,2024-04-11,合同会社姫徹工業,,合同会社,大分県,臼杵市,大字大野３１４番地の２,,44,206,8750004,,,,,,,2024-04-11,1,,,,,ヒメテツコウギョウ,0
457,2320005010150,新規,0,2024-04-11,2024-04-11,一般社団法人ＳＤＡｃｔｉｏｎｓひた,,その他の設立登記法人,大分県,日田市,天瀬町五馬市１４５９番地,,44,204,8770111,,,,,,,2024-04-11,1,,,,,エスディーアクションズヒタ,0
458,2330003010309,新規,0,2024-04-11,2024-04-11,合同会社ＴＨＣ,,合同会社,熊本県,熊本市中央区,平成３丁目１７番１０号,,43,101,8600833,,,,,,,2024-04-11,1,,,,,ティーエイチシー,0
460,2340001026438,新規,0,2024-04-11,2024-04-11,株式会社ＡＭＡＭＩ,,株式会社,鹿児島県,奄美市,名瀬港町２１番７号,,46,222,8940026,,,,,,,2024-04-11,1,,,,,アマミ,0
463,2350003004614,新規,0,2024-04-11,2024-04-11,合同会社和,,合同会社,宮崎県,東臼杵郡門川町,西栄町３丁目４番１６号,,45,421,8890622,,,,,,,2024-04-11,1,,,,,ナゴミ,0
471,2390001017580,新規,0,2024-04-11,2024-04-11,株式会社ＣＨ企画,,株式会社,山形県,米沢市,下花沢３丁目１０－１９,,06,202,9920023,,,,,,,2024-04-11,1,,,,,シーエッチキカク,0
476,2400003003247,新規,0,2024-04-11,2024-04-11,合同会社森の民舎,,合同会社,岩手県,二戸郡一戸町,姉帯字侍村９２番地,,03,524,0285222,,,,,,,2024-04-11,1,,,,,モリノタミシャ,0
482,2430001091456,新規,0,2024-04-11,2024-04-11,株式会社共和住宅設備,,株式会社,北海道,札幌市東区,北十五条東１０丁目１番５号,,01,103,0650015,,,,,,,2024-04-11,1,,,,,キョウワジュウタクセツビ,0
483,2430001091547,新規,0,2024-04-11,2024-04-11,株式会社Ａｎｔｉｑｕｕｓ．ｓｅａｉｃｅ,,株式会社,北海道,札幌市中央区,南六条西１丁目４番地１１レジデンスカープ札幌６０９,,01,101,0640806,,,,,,,2024-04-11,1,,,,,アンティクウスシーアイス,0
485,2430003016171,新規,0,2024-04-11,2024-04-11,合同会社ナカヨシ,,合同会社,北海道,恵庭市,島松本町２丁目１０番６号,,01,231,0611353,,,,,,,2024-04-11,1,,,,,ナカヨシ,0
486,2450001014282,新規,0,2024-04-11,2024-04-11,高橋農園フードラボ株式会社,,株式会社,北海道,上川郡当麻町,宇園別２区,,01,454,0781332,,,,,,,2024-04-11,1,,,,,タカハシノウエンフードラボ,0
490,2470001020130,新規,0,2024-04-11,2024-04-11,株式会社Ｒ．Ｈａｍａｍｏｔｏ電気,,株式会社,香川県,小豆郡土庄町,小海甲１７３番地６,,37,322,7614144,,,,,,,2024-04-11,1,,,,,アールハマモトデンキ,0
491,2470003002622,新規,0,2024-04-11,2024-04-11,合同会社ＹＵＩＴＳ,,合同会社,香川県,高松市,三谷町１７０７番地１,,37,201,7610450,,,,,,,2024-04-11,1,,,,,ユイツ,0
494,2490001010749,新規,0,2024-04-11,2024-04-11,株式会社ラクセレ,,株式会社,高知県,高知市,高須１丁目７番２０号,,39,201,7818104,,,,,,,2024-04-11,1,,,,,ラクセレ,0
496,2500005008696,新規,0,2024-04-11,2024-04-11,特定非営利活動法人ホームスクール愛媛,,その他の設立登記法人,愛媛県,松山市,湯の山２丁目１番地１５,,38,201,7910121,,,,,,,2024-04-11,1,,,,,ホームスクールエヒメ,0
503,2700150124798,新規,0,2024-04-11,2024-04-11,株式会社マルシス,,外国会社等,東京都,港区,虎ノ門２丁目３番１７号虎ノ門２丁目タワー１９階,,13,103,1050001,大韓民国ソウル特別市江南区彦州路８５ギル７，２階－６階（驛三洞、ソウォンビル）,,,,,,2024-04-11,1,,,,,カブシキガイシヤマルシス,0
504,3010001056533,新規,0,2024-04-11,2024-04-11,平和防災工業株式会社,,株式会社,東京都,中央区,湊２丁目１２番７号,,13,102,1040043,,,,,,,2024-04-11,1,,,,,ヘイワボウサイコウギョウ,0
510,3010001243635,新規,0,2024-04-11,2024-04-11,株式会社おひさまホールディングス,,株式会社,東京都,中央区,晴海３丁目１３番１号ドゥ・トゥールＥＡＳＴ４８２３号室,,13,102,1040053,,,,,,,2024-04-11,1,,,,,オヒサマホールディングス,0
511,3010003043430,新規,0,2024-04-11,2024-04-11,合同会社リバイブテクノロジー,,合同会社,東京都,千代田区,神田紺屋町８ＮＣＯ神田紺屋町７Ｆ－１２,,13,101,1010035,,,,,,,2024-04-11,1,,,,,リバイブテクノロジー,0
513,3010005038148,新規,0,2024-04-11,2024-04-11,ベンチャーサポート土地家屋調査士法人,,その他の設立登記法人,東京都,中央区,銀座３丁目７番３号,,13,102,1040061,,,,,,,2024-04-11,1,,,,,ベンチャーサポート,0
523,3010501052081,新規,0,2024-04-11,2024-04-11,株式会社リルホーク,,株式会社,東京都,台東区,北上野１丁目１－１４コスモ上野ロイヤルフォルム４０４,,13,106,1100014,,,,,,,2024-04-11,1,,,,,リルホーク,0
525,3010603010763,新規,0,2024-04-11,2024-04-11,合同会社ＥＳＧパラドックス,,合同会社,東京都,江東区,永代２丁目３３番９－３０２号,,13,108,1350034,,,,,,,2024-04-11,1,,,,,イーエスジーパラドックス,0
531,3010803004904,新規,0,2024-04-11,2024-04-11,ＭａｒｓＦｕｎ合同会社,,合同会社,東京都,大田区,上池台２丁目３９－８,,13,111,1450064,,,,,,,2024-04-11,1,,,,,マースファン,0
532,3010903008961,新規,0,2024-04-11,2024-04-11,ＹＫ　ＡＭ合同会社,,合同会社,東京都,世田谷区,弦巻２丁目３３番２０－４０７号,,13,112,1540016,,,,,,,2024-04-11,1,,,,,ワイケイエーエム,0
538,3011001161199,新規,0,2024-04-11,2024-04-11,ＯＲＲＥＬＳ株式会社,,株式会社,東京都,目黒区,下目黒１丁目１番１４号コノトラビル７Ｆ,,13,110,1530064,,,,,,,2024-04-11,1,,,,,オレルス,0
539,3011001161273,新規,0,2024-04-11,2024-04-11,クライチ商事株式会社,,株式会社,東京都,渋谷区,南平台町７番９号,,13,113,1500036,,,,,,,2024-04-11,1,,,,,クライチショウジ,0
543,3011003018884,新規,0,2024-04-11,2024-04-11,合同会社ＮＡＮＡＳＥ,,合同会社,東京都,目黒区,鷹番３丁目１０－７－４Ｆ,,13,110,1520004,,,,,,,2024-04-11,1,,,,,ナナセ,0
544,3011005010468,新規,0,2024-04-11,2024-04-11,一般社団法人全国施工店倒産時保証業協会,,その他の設立登記法人,東京都,渋谷区,渋谷２丁目１９番１５号宮益坂ビルディング６０９,,13,113,1500002,,,,,,,2024-04-11,1,,,,,ゼンコクセコウテントウサンジホショウギョウキョウカイ,0
546,3011101106780,新規,0,2024-04-11,2024-04-11,ＢＥＬＬＡＷＩＮ株式会社,,株式会社,東京都,新宿区,四谷４丁目２７番６号ラインビルド新宿御苑４０４号室,,13,104,1600004,,,,,,,2024-04-11,1,,,,,ベラウィン,0
548,3011203004354,新規,0,2024-04-11,2024-04-11,合同会社ゴルフマネジメントオフィス,,合同会社,東京都,中野区,本町１丁目３２番４号,,13,114,1640012,,,,,,,2024-04-11,1,,,,,マネジメントオフィス,0
553,3011601027675,新規,0,2024-04-11,2024-04-11,株式会社ＴＥＮＰＲＯＦＩＴ,,株式会社,東京都,練馬区,関町北１丁目２３番４－４０３号,,13,120,1770051,,,,,,,2024-04-11,1,,,,,テンプロフィット,0
557,3011803006171,新規,0,2024-04-11,2024-04-11,ＬＵＣＫＹ　ＩＮＶＥＳＴＭＥＮＴ合同会社,,合同会社,東京都,足立区,六月３丁目１６番１－２０６号,,13,121,1210814,,,,,,,2024-04-11,1,,,,,ラッキーインベストメント,0
558,3012301013866,新規,0,2024-04-11,2024-04-11,株式会社ノビック,,株式会社,東京都,町田市,本町田１７６９番地７５,,13,209,1940032,,,,,,,2024-04-11,1,,,,,ノビック,0
560,3012403006512,新規,0,2024-04-11,2024-04-11,合同会社ＴａｙｕｍａＺｕ,,合同会社,東京都,調布市,国領町５丁目８－１８,,13,208,1820022,,,,,,,2024-04-11,1,,,,,タユマズ,0
562,3012801023092,新規,0,2024-04-11,2024-04-11,株式会社立飛カリナリーベース,,株式会社,東京都,立川市,錦町１丁目２４番２６号,,13,202,1900022,,,,,,,2024-04-11,1,,,,,タチヒカリナリーベース,0
572,3020003025898,新規,0,2024-04-11,2024-04-11,合同会社Ｆａｎｔａｓｉａ,,合同会社,神奈川県,川崎市宮前区,鷺沼１丁目１４－８,,14,136,2160004,,,,,,,2024-04-11,1,,,,,ファンタジア,0
573,3020003025915,新規,0,2024-04-11,2024-04-11,合同会社マイリート,,合同会社,神奈川県,川崎市高津区,瀬田１１番１５号,,14,134,2130003,,,,,,,2024-04-11,1,,,,,マイリート,0
575,3021001081917,新規,0,2024-04-11,2024-04-11,櫻井興業ホールディングス株式会社,,株式会社,神奈川県,藤沢市,遠藤３４１５番地,,14,205,2520816,,,,,,,2024-04-11,1,,,,,サクライコウギョウホールディングス,0
586,3030001159722,新規,0,2024-04-11,2024-04-11,株式会社富士見サービス,,株式会社,埼玉県,富士見市,西みずほ台２丁目２番地９ＴＭビル５０２,,11,235,3540018,,,,,,,2024-04-11,1,,,,,フジミサービス,0
587,3030001159730,新規,0,2024-04-11,2024-04-11,株式会社日東商事,,株式会社,埼玉県,さいたま市岩槻区,大字笹久保新田６５番,,11,110,3390035,,,,,,,2024-04-11,1,,,,,,0
590,3030003024032,新規,0,2024-04-11,2024-04-11,Ｓ．Ｋ商事合同会社,,合同会社,埼玉県,所沢市,緑町１丁目５番２－６０３号,,11,208,3591111,,,,,,,2024-04-11,1,,,,,エスケーショウジ,0
594,3040001133065,新規,0,2024-04-11,2024-04-11,株式会社長尾,,株式会社,千葉県,館山市,安布里７８０番地,,12,205,2940043,,,,,,,2024-04-11,1,,,,,ナガオ,0
598,3040003024709,新規,0,2024-04-11,2024-04-11,傑禾商貿合同会社,,合同会社,千葉県,柏市,南逆井２丁目７－２０－１０１号室,,12,217,2770043,,,,,,,2024-04-11,1,,,,,タケカショウボウ,0
599,3040005022339,新規,0,2024-04-11,2024-04-11,弁理士法人石井特許事務所,,その他の設立登記法人,千葉県,千葉市美浜区,中瀬１丁目６番地エム・ベイポイント幕張５階５０４－２－４,,12,106,2610023,,,,,,,2024-04-11,1,,,,,イシイトッキョジムショ,0
602,3050003008256,新規,0,2024-04-11,2024-04-11,タコミツフーズ合同会社,,合同会社,茨城県,守谷市,百合ケ丘３丁目２７８４－１０,,08,224,3020110,,,,,,,2024-04-11,1,,,,,タコミツフーズ,0
620,3100001037350,新規,0,2024-04-11,2024-04-11,未来マネジメント株式会社,,株式会社,長野県,松本市,中央３丁目１１番１号ハヤマビル３Ｆ,,20,202,3900811,,,,,,,2024-04-11,1,,,,,ミライマネジメント,0
621,3100005013158,新規,0,2024-04-11,2024-04-11,一般社団法人セントラルキッチンしもすわ,,その他の設立登記法人,長野県,諏訪郡下諏訪町,４４２９番地６,,20,361,3930000,,,,,,,2024-04-11,1,,,,,セントラルキッチンシモスワ,0
629,3120001263647,新規,0,2024-04-11,2024-04-11,東雲株式会社,,株式会社,大阪府,大阪市西成区,南津守６丁目３番７３－１０１Ａ号室,,27,122,5570063,,,,,,,2024-04-11,1,,,,,シノノメ,0
630,3120001263944,新規,0,2024-04-11,2024-04-11,株式会社ＭＹ電設工業,,株式会社,大阪府,守口市,八雲北町３丁目２０番２９号,,27,209,5700008,,,,,,,2024-04-11,1,,,,,エムワイデンセツコウギョウ,0
631,3120001263952,新規,0,2024-04-11,2024-04-11,日本ＢＩＺＵＫＩ製薬医療集団株式会社,,株式会社,大阪府,大阪市中央区,南船場２丁目４番１号５Ａ,,27,128,5420081,,,,,,,2024-04-11,1,,,,,ニホンビズキセイヤクイリョウシュウダン,0
632,3120001263960,新規,0,2024-04-11,2024-04-11,株式会社Ｐａｒｔｉｒｅ,,株式会社,大阪府,大阪市阿倍野区,丸山通１丁目５番３５－１４０３号,,27,119,5450042,,,,,,,2024-04-11,1,,,,,パルティーレ,0
633,3120001263969,新規,0,2024-04-11,2024-04-11,福誠株式会社,,株式会社,大阪府,大阪市旭区,今市１丁目２－５カルム千林３０５号室,,27,117,5350011,,,,,,,2024-04-11,1,,,,,フクセイ,0
644,3122001037997,新規,0,2024-04-11,2024-04-11,株式会社Ｐｌｕｓ　Ｋｅｉｇｏ．,,株式会社,大阪府,東大阪市,吉田下島１４番７号,,27,227,5780983,,,,,,,2024-04-11,1,,,,,プラスケイゴ,0
651,3130001076734,新規,0,2024-04-11,2024-04-11,株式会社ＲＰＺ,,株式会社,京都府,京都市下京区,立売西町６６番地京都証券ビル４０５,,26,106,6008007,,,,,,,2024-04-11,1,,,,,アールピージー,0
661,3140003020391,新規,0,2024-04-11,2024-04-11,合同会社２ＤＡＹｓ,,合同会社,兵庫県,芦屋市,三条南町５番１０－２０７号,,28,206,6590086,,,,,,,2024-04-11,1,,,,,トゥデイズ,0
663,3150001027207,新規,0,2024-04-11,2024-04-11,株式会社ムスカリ,,株式会社,奈良県,奈良市,芝辻町２丁目１１番６号,00134373,29,201,6308114,,,,,,,2024-04-11,1,,,,,ムスカリ,0
666,3160003003163,新規,0,2024-04-11,2024-04-11,合同会社ＳＵＮＲＯＯＭ,,合同会社,滋賀県,大津市,南郷２丁目４４番地２０号,,25,201,5200865,,,,,,,2024-04-11,1,,,,,サンルーム,0
671,3180001160863,新規,0,2024-04-11,2024-04-11,株式会社ＭＡＭＯＲＵホールディングス,,株式会社,愛知県,名古屋市守山区,天子田２丁目１７０６ＳＨｉＮグループ本社ビル４０８号室,,23,113,4630037,,,,,,,2024-04-11,1,,,,,マモルホールディングス,0
672,3180001160896,新規,0,2024-04-11,2024-04-11,株式会社ＺＡＫ,,株式会社,愛知県,名古屋市中区,丸の内２丁目１９番３２号パインツリー丸の内,,23,106,4600002,,,,,,,2024-04-11,1,,,,,ザック,0
673,3180001160938,新規,0,2024-04-11,2024-04-11,勝和産業ホールディングス株式会社,,株式会社,愛知県,名古屋市中区,錦１丁目５番１１号,,23,106,4600003,,,,,,,2024-04-11,1,,,,,ショウワサンギョウホールディングス,0
677,3180003026617,新規,0,2024-04-11,2024-04-11,合同会社グランアッシュ,,合同会社,愛知県,名古屋市千種区,朝岡町３丁目５４番地の３,,23,101,4640811,,,,,,,2024-04-11,1,,,,,グランアッシュ,0
687,3220001025921,新規,0,2024-04-11,2024-04-11,北陸総合建装株式会社,,株式会社,石川県,金沢市,諸江町２７番地９ＨＯＲＩビル１階,,17,201,9200014,,,,,,,2024-04-11,1,,,,,ホクリクソウゴウケンソウ,0
691,3230003002182,新規,0,2024-04-11,2024-04-11,合同会社Ｌｉｖ,,合同会社,富山県,富山市,中島５丁目３番地１５,,16,201,9300801,,,,,,,2024-04-11,1,,,,,リブ,0
697,3250003003476,新規,0,2024-04-11,2024-04-11,つみちぇり合同会社,,合同会社,山口県,防府市,大字高井８３番地の１,,35,206,7470064,,,,,,,2024-04-11,1,,,,,ツミチェリ,0
698,3250005008911,新規,0,2024-04-11,2024-04-11,社会保険労務士法人しんみ,,その他の設立登記法人,山口県,防府市,大字田島７１２番地の３,,35,206,7470834,,,,,,,2024-04-11,1,,,,,シンミ,0
699,3260001038960,新規,0,2024-04-11,2024-04-11,株式会社イン・スプリング,,株式会社,岡山県,玉野市,和田１丁目１６－３８,,33,204,7060021,,,,,,,2024-04-11,1,,,,,インスプリング,0
705,3290001105378,新規,0,2024-04-11,2024-04-11,株式会社ＡＴＥＲ,,株式会社,福岡県,福岡市中央区,小笹３丁目１５番４１号,,40,133,8100033,,,,,,,2024-04-11,1,,,,,アーテル,0
710,3290801030486,新規,0,2024-04-11,2024-04-11,株式会社インフラ・テックソリューションズ西日本,,株式会社,福岡県,北九州市小倉北区,鍛冶町２丁目１番６号,,40,106,8020004,,,,,,,2024-04-11,1,,,,,インフラテックソリューションズニシニホン,0
715,3310003004773,新規,0,2024-04-11,2024-04-11,ＩＮＯＲＵ合同会社,,合同会社,長崎県,佐世保市,祇園町２０－１、２階２０１号室,,42,202,8570801,,,,,,,2024-04-11,1,,,,,イノル,0
719,3330005010784,新規,0,2024-04-11,2024-04-11,税理士法人青い鳥サポート,,その他の設立登記法人,熊本県,熊本市東区,山ノ神１丁目２番２号,,43,102,8620915,,,,,,,2024-04-11,1,,,,,アオイトリサポート,0
731,3380005012818,新規,0,2024-04-11,2024-04-11,一般社団法人アニマルサポート虹のしずく,,その他の設立登記法人,福島県,白河市,表郷金山字高梨沢１１番地１４,,07,205,9610416,,,,,,,2024-04-11,1,,,,,アニマルサポートニジノシズク,0
734,3420005007895,新規,0,2024-04-11,2024-04-11,一般社団法人Ｌｏｔｕｓ　Ｔｏｗｎ,,その他の設立登記法人,青森県,平川市,南田中村内１８番地１,,02,210,0360203,,,,,,,2024-04-11,1,,,,,ロータスタウン,0
738,3430001091471,新規,0,2024-04-11,2024-04-11,株式会社ＦＰバンク,,株式会社,北海道,札幌市中央区,南三条西９丁目９９３番地３号アパタワーズ札幌大通公園１４２１号,,01,101,0600063,,,,,,,2024-04-11,1,,,,,エフピーバンク,0
744,3430003016170,新規,0,2024-04-11,2024-04-11,合同会社ＨＳマネジメント,,合同会社,北海道,札幌市中央区,南二十条西７丁目２番１－２０２号,,01,101,0640920,,,,,,,2024-04-11,1,,,,,エイチエスマネジメント,0
745,3430003016204,新規,0,2024-04-11,2024-04-11,Ｅｖｅｒｇｒｅｅｎ合同会社,,合同会社,北海道,虻田郡洞爺湖町,高砂町３７番地８,,01,584,0495605,,,,,,,2024-04-11,1,,,,,エヴァーグリーン,0
746,3430003016212,新規,0,2024-04-11,2024-04-11,合同会社エム・アンド・エム,,合同会社,北海道,札幌市白石区,菊水六条２丁目１番１号,,01,104,0030806,,,,,,,2024-04-11,1,,,,,エムアンドエム,0
747,3430003016220,新規,0,2024-04-11,2024-04-11,合同会社タスカル,,合同会社,北海道,岩見沢市,幌向南三条２丁目２３１番地５８,,01,210,0690373,,,,,,,2024-04-11,1,,,,,タスカル,0
756,3490001010748,新規,0,2024-04-11,2024-04-11,株式会社えいところ,,株式会社,高知県,高知市,東久万１９３－１,,39,201,7800982,,,,,,,2024-04-11,1,,,,,エイトコロ,0
757,3490005006932,新規,0,2024-04-11,2024-04-11,一般社団法人海ギャラＣＨＩＬＬ　ＯＵＴ,,その他の設立登記法人,高知県,土佐清水市,竜串２３番８号,,39,209,7870452,,,,,,,2024-04-11,1,,,,,,0
758,3500005008695,新規,0,2024-04-11,2024-04-11,一般社団法人Ｈｙｐｅｒ　Ｆｉｖｅ,,その他の設立登記法人,愛媛県,松山市,道後一万１０番１号,,38,201,7900844,,,,,,,2024-04-11,1,,,,,ハイパーファイブ,0
761,3700150124236,新規,0,2024-04-11,2024-04-11,ＡＭ　Ｃａｐｉｔａｌ　ＵＳＡ　ＬＬＣ,,外国会社等,,,,,,,,２７　ｃｅｄａｒ　ｆａｒｍｓ　ｄｒｉｖｅ　Ｎｅｗａｒｋ　ＤＥ　１９７０２　ＵＳ,,,,,,2024-04-11,1,,,,,アムキャピタルユーエスエーリミテッドライアビリティーカンパニー,0
762,3700150124806,新規,0,2024-04-11,2024-04-11,美浜山上土地改良区,,その他,福井県,三方郡美浜町,郷市２５－２５,,18,442,9191141,,,,,,,2024-04-11,1,,,,,ミハマヤマガミトチカイリョウク,0
772,4010005038114,新規,0,2024-04-11,2024-04-11,一般社団法人みんなでマルシェＣＳＲ,,その他の設立登記法人,東京都,中央区,銀座１丁目２２番１１号２Ｆ,,13,102,1040061,,,,,,,2024-04-11,1,,,,,ミンナデマルシェシーエスアール,0
778,4010401181698,新規,0,2024-04-11,2024-04-11,株式会社上場を目指す会,,株式会社,東京都,港区,港南２丁目４－１３スターゼンビル２階,,13,103,1080075,,,,,,,2024-04-11,1,,,,,ジョウジョウヲメザスカイ,0
779,4010401181806,新規,0,2024-04-11,2024-04-11,株式会社Ｈｉｔ　ｍｅ　ｕｐ,,株式会社,東京都,港区,南青山３丁目１番３６号青山丸竹ビル６Ｆ,,13,103,1070062,,,,,,,2024-04-11,1,,,,,ヒットミーアップ,0
780,4010403032305,新規,0,2024-04-11,2024-04-11,合同会社ＯＤＡ　ＧＲＯＵＰ　ＰＲＥＰＳ　ＳＣＨＯＯＬ　ＬＬＣ,,合同会社,東京都,港区,麻布台１丁目５－３,,13,103,1060041,,,,,,,2024-04-11,1,,,,,,0
781,4010403032370,新規,0,2024-04-11,2024-04-11,スコッチ合同会社,,合同会社,東京都,港区,北青山１丁目３番１号アールキューブ青山３階,,13,103,1070061,,,,,,,2024-04-11,1,,,,,スコッチ,0
788,4010501052089,新規,0,2024-04-11,2024-04-11,株式会社ダウニー,,株式会社,東京都,台東区,上野７丁目１０番６号磐城産業ビル１Ｆ,,13,106,1100005,,,,,,,2024-04-11,1,,,,,ダウニー,0
804,4011001161165,新規,0,2024-04-11,2024-04-11,株式会社Ｍａｒｂｌｅ　Ｗｅｌｌ‐ｂｅｉｎｇ,,株式会社,東京都,渋谷区,円山町５番５号Ｎａｖｉ渋谷Ｖ３階,,13,113,1500044,,,,,,,2024-04-11,1,,,,,マーブルウェルビーング,0
805,4011001161198,新規,0,2024-04-11,2024-04-11,株式会社ＬＲ　ＤＩＮＩＮＧ,,株式会社,東京都,目黒区,自由が丘１丁目１６番１５号,,13,110,1520035,,,,,,,2024-04-11,1,,,,,エルアールダイニング,0
806,4011001161223,新規,0,2024-04-11,2024-04-11,株式会社ＳｐｒｉｎｔＢｕｒｓｔ,,株式会社,東京都,渋谷区,道玄坂１丁目１０番８号渋谷道玄坂東急ビル２Ｆ－Ｃ,,13,113,1500043,,,,,,,2024-04-11,1,,,,,スプリントバースト,0
807,4011001161248,新規,0,2024-04-11,2024-04-11,株式会社Ｉｚｕｍｏ,,株式会社,東京都,渋谷区,神宮前６丁目２３番４号桑野ビル２階,,13,113,1500001,,,,,,,2024-04-11,1,,,,,イズモ,0
808,4011001161272,新規,0,2024-04-11,2024-04-11,株式会社サーチファンド・ジャパン０６,,株式会社,東京都,目黒区,柿の木坂２丁目７番１４号,,13,110,1520022,,,,,,,2024-04-11,1,,,,,サーチファンドジャパンゼロシックス,0
809,4011001161297,新規,0,2024-04-11,2024-04-11,株式会社Ｇ３‐Ｍｉｒａｉｚｏｎ,,株式会社,東京都,渋谷区,千駄ヶ谷５丁目２１番１２号,,13,113,1510051,,,,,,,2024-04-11,1,,,,,ジースリーミライゾン,0
816,4011101106895,新規,0,2024-04-11,2024-04-11,＿華グローバルビジョン株式会社,00134376,株式会社,東京都,新宿区,西新宿３丁目７－２７セントヒルズ西新宿６０２号室,,13,104,1600023,,,,,,,2024-04-11,1,,,,,ゼイカグローバルビジョン,0
817,4011101106920,新規,0,2024-04-11,2024-04-11,株式会社オール・インコンサルティング,,株式会社,東京都,新宿区,百人町１丁目１８番８号大久保カドビルＬｉｎｋＳｐａｃｅ百人町Ｗ０３,,13,104,1690073,,,,,,,2024-04-11,1,,,,,オールインコンサルティング,0
818,4011103014312,新規,0,2024-04-11,2024-04-11,Ｊａｐａｎ　Ｃａｍｐｓ合同会社,,合同会社,東京都,新宿区,新宿６丁目１９－１３,,13,104,1600022,,,,,,,2024-04-11,1,,,,,ジャパンキャンプス,0
825,4011703003805,新規,0,2024-04-11,2024-04-11,合同会社ＳＴＡＮＤ　ＡＬＯＮＥ,,合同会社,東京都,江戸川区,南葛西１丁目１０－１９,,13,123,1340085,,,,,,,2024-04-11,1,,,,,スタンドアローン,0
827,4011801044049,新規,0,2024-04-11,2024-04-11,Ｕｆｉ　Ｓｐａｃｅ株式会社,,株式会社,東京都,足立区,弘道２丁目１２番２５－３０４号,,13,121,1200013,,,,,,,2024-04-11,1,,,,,ユフィースペース,0
830,4012701018191,新規,0,2024-04-11,2024-04-11,三匠庭園株式会社,,株式会社,東京都,東久留米市,中央町４丁目８番４号,,13,222,2030054,,,,,,,2024-04-11,1,,,,,サンショウテイエン,0
831,4012701018200,新規,0,2024-04-11,2024-04-11,株式会社ＨｕｂＨａｃｋ,,株式会社,東京都,西東京市,ひばりが丘２丁目５－３４ブリリアシティひばりが丘６１６,,13,229,2020001,,,,,,,2024-04-11,1,,,,,ハブハック,0
835,4012803003364,新規,0,2024-04-11,2024-04-11,合同会社ＰＩＥＣＥ,,合同会社,東京都,武蔵村山市,岸１丁目４３－１４,,13,223,2080031,,,,,,,2024-04-11,1,,,,,ピース,0
843,4020001156637,新規,0,2024-04-11,2024-04-11,株式会社ファイブシーズンホールディングス,,株式会社,神奈川県,横浜市中区,長者町９丁目１４７番地２,,14,104,2310033,,,,,,,2024-04-11,1,,,,,ファイブシーズンホールディングス,0
846,4020003025897,新規,0,2024-04-11,2024-04-11,合同会社空雅書房,,合同会社,神奈川県,横浜市磯子区,磯子台２７番Ｂ－２０５号,,14,107,2350019,,,,,,,2024-04-11,1,,,,,クウガショボウ,0
851,4021001081916,新規,0,2024-04-11,2024-04-11,株式会社リカプラ,,株式会社,神奈川県,相模原市中央区,水郷田名１丁目４番１６号,,14,152,2520246,,,,,,,2024-04-11,1,,,,,リカプラ,0
852,4021001081924,新規,0,2024-04-11,2024-04-11,株式会社住まいる館,,株式会社,神奈川県,藤沢市,片瀬山３丁目１番５号,,14,205,2510033,,,,,,,2024-04-11,1,,,,,スマイルカン,0
853,4021001081940,新規,0,2024-04-11,2024-04-11,株式会社オラシオン,,株式会社,神奈川県,藤沢市,鵠沼海岸３丁目１２番３７号,,14,205,2510037,,,,,,,2024-04-11,1,,,,,オラシオン,0
856,4021003014361,新規,0,2024-04-11,2024-04-11,合同会社ＢＩＲＤＩＥ’Ｓ　ｏｎ　ｔｈｅ　ＢＥＡＣＨ,,合同会社,神奈川県,鎌倉市,由比ガ浜２丁目２２番２号,,14,204,2480014,,,,,,,2024-04-11,1,,,,,バーディーズオンザビーチ,0
857,4021005013064,新規,0,2024-04-11,2024-04-11,一般社団法人ミウラ・スポーツアカデミー,,その他の設立登記法人,神奈川県,横須賀市,金谷３丁目２番３号オリーブハウス２０６,,14,201,2380034,,,,,,,2024-04-11,1,,,,,ミウラスポーツアカデミー,0
861,4030001159663,新規,0,2024-04-11,2024-04-11,株式会社ＹＤＳ,,株式会社,埼玉県,所沢市,東町１２番１０－１２０４号ブランズタワー所沢,,11,208,3591116,,,,,,,2024-04-11,1,,,,,ワイディーエス,0
862,4030001159713,新規,0,2024-04-11,2024-04-11,株式会社ｉＳＡｊｉＮ,,株式会社,埼玉県,川越市,脇田町２３番地５ライフシティ４０７号室,,11,201,3501122,,,,,,,2024-04-11,1,,,,,イサジン,0
877,4040005022346,新規,0,2024-04-11,2024-04-11,一般社団法人千葉看護学会,,その他の設立登記法人,千葉県,千葉市中央区,亥鼻１丁目８番１号,,12,101,2600856,,,,,,,2024-04-11,1,,,,,チバカンゴガッカイ,0
882,4050003008271,新規,0,2024-04-11,2024-04-11,合同会社Ａｐａｒｔｍｅｎｔ,,合同会社,茨城県,神栖市,大野原３丁目２－２１,,08,232,3140144,,,,,,,2024-04-11,1,,,,,アパートメント,0
889,4080105006419,新規,0,2024-04-11,2024-04-11,特定非営利活動法人保護ねこピリカ,,その他の設立登記法人,静岡県,裾野市,佐野１１９２番地の４,,22,220,4101118,,,,,,,2024-04-11,1,,,,,ホゴネコピリカ,0
901,4120001263753,新規,0,2024-04-11,2024-04-11,茗盛商貿株式会社,,株式会社,大阪府,大阪市都島区,都島中通２丁目１５番１０号,,27,102,5340022,,,,,,,2024-04-11,1,,,,,メイセイショウボウ,0
902,4120001263951,新規,0,2024-04-11,2024-04-11,株式会社ブレイブ,,株式会社,大阪府,大阪市中央区,南船場３丁目２番２２号おおきに南船場ビル２０５,,27,128,5420081,,,,,,,2024-04-11,1,,,,,ブレイブ,0
903,4120001263968,新規,0,2024-04-11,2024-04-11,株式会社オカザキ,,株式会社,大阪府,大阪市福島区,玉川１丁目１番３６－２００５号,,27,103,5530004,,,,,,,2024-04-11,1,,,,,オカザキ,0
905,4120003026316,新規,0,2024-04-11,2024-04-11,合同会社マインドブルーム,,合同会社,大阪府,大阪市中央区,日本橋１丁目１７番１７号ピカソ日本一ビル６０４号室,,27,128,5420073,,,,,,,2024-04-11,1,,,,,,0
906,4120003026349,新規,0,2024-04-11,2024-04-11,合同会社高栄総建,00134375,合同会社,大阪府,大阪市西成区,花園北２丁目６番１０号ドリームワン１０５号,,27,122,5570016,,,,,,,2024-04-11,1,,,,,コウエイソウケン,0
908,4120005024276,新規,0,2024-04-11,2024-04-11,一般社団法人ＯＣ会,,その他の設立登記法人,大阪府,大阪市北区,梅田１丁目１１番４号大阪駅前第４ビル２階３５号,,27,127,5300001,,,,,,,2024-04-11,1,,,,,オーシーカイ,0
910,4120103005772,新規,0,2024-04-11,2024-04-11,合同会社堺の電気屋さん,,合同会社,大阪府,堺市西区,鳳北町８丁４４８番地５,,27,144,5938328,,,,,,,2024-04-11,1,,,,,サカイノデンキヤサン,0
913,4130001076790,新規,0,2024-04-11,2024-04-11,株式会社Ｄｕｏ‐Ｇｕｉｔａｒ．ｃｏｍ,,株式会社,京都府,福知山市,字下柳１８・２０番合地,,26,201,6200022,,,,,,,2024-04-11,1,,,,,デュオギタードットコム,0
918,4130003009451,新規,0,2024-04-11,2024-04-11,リルディー合同会社,,合同会社,京都府,京都市伏見区,下鳥羽南円面田町４,,26,109,6128499,,,,,,,2024-04-11,1,,,,,リルディー,0
922,4140003020374,新規,0,2024-04-11,2024-04-11,合同会社Ａ．Ｃ．Ｃ．Ｔｒａｄｉｎｇ,,合同会社,兵庫県,神戸市須磨区,南町１丁目２番３３号,,28,107,6540036,,,,,,,2024-04-11,1,,,,,エーシーシートレーディング,0
924,4140005027038,新規,0,2024-04-11,2024-04-11,医療法人社団敦成会,,その他の設立登記法人,兵庫県,明石市,大明石町１丁目６番１号パピオスあかし３階,,28,203,6730891,,,,,,,2024-04-11,1,,,,,アツセイカイ,0
925,4160001025836,新規,0,2024-04-11,2024-04-11,株式会社ＡＬＬ　ＧＲＥＥＮ,,株式会社,滋賀県,長浜市,今町１５６５番地,,25,203,5260806,,,,,,,2024-04-11,1,,,,,オールグリーン,0
932,4180001160953,新規,0,2024-04-11,2024-04-11,株式会社リョウデン,,株式会社,愛知県,名古屋市中村区,稲葉地町２丁目３５番地（市営第二北稲葉地荘８０５号）,,23,105,4530841,,,,,,,2024-04-11,1,,,,,リョウデン,0
934,4180003026608,新規,0,2024-04-11,2024-04-11,合同会社真希,,合同会社,愛知県,東海市,中央町７丁目８４番地,,23,222,4760013,,,,,,,2024-04-11,1,,,,,シンキ,0
935,4180003026657,新規,0,2024-04-11,2024-04-11,ステラセット合同会社,,合同会社,愛知県,名古屋市中村区,名駅３丁目４番１０号アルティメイト名駅１ｓｔ２階,,23,105,4500002,,,,,,,2024-04-11,1,,,,,ステラセット,0
939,4200001042389,新規,0,2024-04-11,2024-04-11,株式会社アスリード,,株式会社,岐阜県,関市,稲口２０８番地,,21,205,5013932,,,,,,,2024-04-11,1,,,,,アスリード,0
946,4240001063076,新規,0,2024-04-11,2024-04-11,株式会社ＰＥＡＣＥ,,株式会社,広島県,福山市,元町１３－１０ブティックイリヤビル５Ｆ,,34,207,7200063,,,,,,,2024-04-11,1,,,,,ピース,0
953,4290001105443,新規,0,2024-04-11,2024-04-11,株式会社フルール,,株式会社,福岡県,久留米市,日吉町７４番地１グランフォーレ日吉プレミアム７０５号,,40,203,8300017,,,,,,,2024-04-11,1,,,,,フルール,0
965,4290801030485,新規,0,2024-04-11,2024-04-11,株式会社アドバンス,,株式会社,福岡県,北九州市八幡西区,南鷹見町１０番１―２０２号,,40,109,8070833,,,,,,,2024-04-11,1,,,,,アドバンス,0
977,4330005010783,新規,0,2024-04-11,2024-04-11,税理士法人架け橋,,その他の設立登記法人,熊本県,上益城郡益城町,大字古閑５５１番地５,,43,443,8612234,,,,,,,2024-04-11,1,,,,,カケハシ,0
980,4350001018911,新規,0,2024-04-11,2024-04-11,ＯＯＴＡＫＡ株式会社,,株式会社,宮崎県,宮崎市,佐土原町東上那珂１６０２４番地５,,45,201,8800303,,,,,,,2024-04-11,1,,,,,オオタカ,0
983,4370003006565,新規,0,2024-04-11,2024-04-11,ＳＫＣ　ＭＡＮＡＭＩ合同会社,,合同会社,宮城県,仙台市青葉区,宮町２丁目３番１０－２号オアシスワン１０１,,04,101,9800004,,,,,,,2024-04-11,1,,,,,エスケーシーマナミ,0
989,4380001034443,新規,0,2024-04-11,2024-04-11,ブライトフューチャーコーポレーション株式会社,,株式会社,福島県,いわき市,平字東町１６番地の４,,07,204,9708026,,,,,,,2024-04-11,1,,,,,ブライトフューチャーコーポレーション,0
1001,4410001013807,新規,0,2024-04-11,2024-04-11,株式会社イーズベース,,株式会社,秋田県,秋田市,仁井田潟中町１６番２５号,,05,201,0101435,,,,,,,2024-04-11,1,,,,,イーズベース,0
1002,4420001018680,新規,0,2024-04-11,2024-04-11,株式会社種子,,株式会社,青森県,三戸郡田子町,大字田子字野々上２番地の１,,02,443,0390201,,,,,,,2024-04-11,1,,,,,,0
1009,4430005014948,新規,0,2024-04-11,2024-04-11,一般社団法人マーチ,,その他の設立登記法人,北海道,札幌市豊平区,豊平六条２丁目２番７号,,01,105,0620906,,,,,,,2024-04-11,1,,,,,マーチ,0
1017,4700150123807,新規,0,2024-04-11,2024-04-11,ＨＡＮＧＺＨＯＵ　ＧＲＥＡＴ　ＳＴＡＲ　ＴＯＯＬＳ　ＣＯ．，ＬＴＤ,,外国会社等,,,,,,,,３５　ＪＩＵＨＵＡＮ　ＲＯＡＤ，ＪＩＵ　ＢＡＯ，ＨＡＮＧＺＨＯＵ，ＣＨＩＮＡ,,,,,,2024-04-11,1,,,,,コウシユウグレートスターツールユウゲンコウシ,0
1018,4700150124805,新規,0,2024-04-11,2024-04-11,上海遠欽浄化科技有限公司,,外国会社等,,,,,,,,中国上海市奉賢区奉永路５０８号５幢３層,,,,,,2024-04-11,1,,,,,シャンハイエンキンジョウカカギユウゲンコウシ,0
1027,5010003043437,新規,0,2024-04-11,2024-04-11,Ｘ‐Ｅｌｉｏ２９合同会社,,合同会社,東京都,中央区,銀座４丁目１４番１１号七十七銀座ビル８階,,13,102,1040061,,,,,,,2024-04-11,1,,,,,エクセリオトゥエンティーナイン,0
1030,5010101016088,新規,0,2024-04-11,2024-04-11,株式会社Ｓｈｉｒｏｚ,,株式会社,東京都,八王子市,みなみ野４丁目３３番５号,,13,201,1920916,,,,,,,2024-04-11,1,,,,,シロウズ,0
1031,5010103002334,新規,0,2024-04-11,2024-04-11,合同会社シェフィールドのシェフ,,合同会社,東京都,八王子市,万町９８－１ヴェルシェ３、３０１号室,,13,201,1920903,,,,,,,2024-04-11,1,,,,,シェフィールドノシェフ,0
1053,5010901055046,新規,0,2024-04-11,2024-04-11,株式会社ＥｍｉｔＴＳＵ,,株式会社,東京都,世田谷区,三宿１丁目１番８号,,13,112,1540005,,,,,,,2024-04-11,1,,,,,エミッツ,0
1054,5010901055054,新規,0,2024-04-11,2024-04-11,アイ・アセット株式会社,,株式会社,東京都,世田谷区,松原５丁目２０番５号,,13,112,1560043,,,,,,,2024-04-11,1,,,,,アイアセット,0
1056,5010903008943,新規,0,2024-04-11,2024-04-11,Ｙ’ｓ　Ｍａｎａｇｅｍｅｎｔ合同会社,,合同会社,東京都,世田谷区,宮坂２丁目２５－２３－４０２,,13,112,1560051,,,,,,,2024-04-11,1,,,,,ワイズマネジメント,0
1058,5011001161180,新規,0,2024-04-11,2024-04-11,株式会社Ｐｅｒｉｐｈｅｒａｌ,,株式会社,東京都,目黒区,碑文谷５丁目２－５Ｔ＆Ａビル５Ｆ,,13,110,1520003,,,,,,,2024-04-11,1,,,,,ペリフェラル,0
1059,5011001161197,新規,0,2024-04-11,2024-04-11,ＭＫメディカル株式会社,,株式会社,東京都,渋谷区,上原２丁目２８番５－５０３号,,13,113,1510064,,,,,,,2024-04-11,1,,,,,エムケーメディカル,0
1060,5011001161230,新規,0,2024-04-11,2024-04-11,株式会社Ｓｕｎｌｉｔ,,株式会社,東京都,渋谷区,道玄坂１丁目１０番８号渋谷道玄坂東急ビル２Ｆ－Ｃ,,13,113,1500043,,,,,,,2024-04-11,1,,,,,サンリット,0
1061,5011001161239,新規,0,2024-04-11,2024-04-11,株式会社ＧＵＣＨＩ,,株式会社,東京都,渋谷区,代々木１丁目１９－２,,13,113,1510053,,,,,,,2024-04-11,1,,,,,グッチ,0
1063,5011003018858,新規,0,2024-04-11,2024-04-11,アウリオン合同会社,,合同会社,東京都,渋谷区,道玄坂１丁目１０番８号渋谷道玄坂東急ビル２Ｆ－Ｃ,,13,113,1500043,,,,,,,2024-04-11,1,,,,,アウリオン,0
1064,5011003018899,新規,0,2024-04-11,2024-04-11,合同会社Ｒｏｕｎｄｅｒｓインベストメント,,合同会社,東京都,渋谷区,円山町５番５号Ｎａｖｉ渋谷Ｖ３階,,13,113,1500044,,,,,,,2024-04-11,1,,,,,ラウンダーズインベストメント,0
1068,5011101106861,新規,0,2024-04-11,2024-04-11,株式会社ＫＩＳ,,株式会社,東京都,新宿区,住吉町４－１－４２１,,13,104,1620065,,,,,,,2024-04-11,1,,,,,ケーアイエス,0
1069,5011101106903,新規,0,2024-04-11,2024-04-11,株式会社ＭＪ　Ｎｅｔｗｏｒｋ,,株式会社,東京都,新宿区,高田馬場４丁目２６番１２－１０２号,,13,104,1690075,,,,,,,2024-04-11,1,,,,,エムジェーネットワーク,0
1073,5011103014303,新規,0,2024-04-11,2024-04-11,合同会社ｆｌｏｗｅｒ．,,合同会社,東京都,新宿区,歌舞伎町２丁目１０－１－５ｆ,,13,104,1600021,,,,,,,2024-04-11,1,,,,,フラワー,0
1077,5011501030521,新規,0,2024-04-11,2024-04-11,株式会社ｋｏｓａｍｅ,,株式会社,東京都,荒川区,町屋３丁目９－１６－４０１号室,,13,118,1160001,,,,,,,2024-04-11,1,,,,,コサメ,0
1078,5011603004299,新規,0,2024-04-11,2024-04-11,ＳＵＮ　ＳＴＥＰ合同会社,,合同会社,東京都,練馬区,大泉学園町８丁目２番３７号,,13,120,1780061,,,,,,,2024-04-11,1,,,,,サンステップ,0
1083,5011801044015,新規,0,2024-04-11,2024-04-11,Ｓ＆Ｋ株式会社,,株式会社,東京都,足立区,六月１丁目３７－１４,,13,121,1210814,,,,,,,2024-04-11,1,,,,,エスアンドケイ,0
1084,5011801044048,新規,0,2024-04-11,2024-04-11,ＡＫＩＲＡ株式会社,,株式会社,東京都,葛飾区,東金町３丁目１７番１０号金町ビジネスサロン２階Ｄ－３,,13,122,1250041,,,,,,,2024-04-11,1,,,,,アキラ,0
1086,5012303001974,新規,0,2024-04-11,2024-04-11,イデア合同会社,,合同会社,東京都,町田市,図師町６１４－５,,13,209,1940203,,,,,,,2024-04-11,1,,,,,イデア,0
1087,5012401041740,新規,0,2024-04-11,2024-04-11,株式会社パスサポート,,株式会社,東京都,多摩市,落合４丁目２番地,,13,224,2060033,,,,,,,2024-04-11,1,,,,,パスサポート,0
1088,5012403006502,新規,0,2024-04-11,2024-04-11,合同会社ｆｒｅｅｓｉａ,,合同会社,東京都,調布市,国領町４丁目３４番１号クレヴィア調布国領レジデンス４０８,,13,208,1820022,,,,,,,2024-04-11,1,,,,,プリジア,0
1089,5012403006510,新規,0,2024-04-11,2024-04-11,合同会社くらすら,,合同会社,東京都,小金井市,貫井南町２丁目１－１６,,13,210,1840014,,,,,,,2024-04-11,1,,,,,クラスラ,0
1092,5012705002397,新規,0,2024-04-11,2024-04-11,医療法人社団森創会,,その他の設立登記法人,東京都,小平市,小川町２丁目１２１０,,13,211,1870032,,,,,,,2024-04-11,1,,,,,シンソウカイ,0
1094,5012803003363,新規,0,2024-04-11,2024-04-11,Ｓｔｕｄｉｏ　ｈｕａ合同会社,,合同会社,東京都,国立市,東４丁目１３番地の１８,,13,215,1860002,,,,,,,2024-04-11,1,,,,,スタジオハ,0
1106,5020001156594,新規,0,2024-04-11,2024-04-11,株式会社ＵＥＭＵＲＡ　ＪＡＰＡＮ,,株式会社,神奈川県,横浜市南区,永田みなみ台一丁目２番－４１６号,,14,105,2320075,,,,,,,2024-04-11,1,,,,,ウエムラジャパン,0
1107,5020001156636,新規,0,2024-04-11,2024-04-11,Ｙｉｓ株式会社,,株式会社,神奈川県,横浜市中区,桜木町１丁目１０１番地１クロスゲート７階,,14,104,2310062,,,,,,,2024-04-11,1,,,,,ワイズ,0
1108,5020001156660,新規,0,2024-04-11,2024-04-11,株式会社美研,,株式会社,神奈川県,横浜市都筑区,勝田町１３８１番地１,,14,118,2240034,,,,,,,2024-04-11,1,,,,,ビケン,0
1110,5020003025921,新規,0,2024-04-11,2024-04-11,合同会社メディカルライン,,合同会社,神奈川県,横浜市港北区,綱島西３丁目２８番２０号,,14,109,2230053,,,,,,,2024-04-11,1,,,,,メディカルライン,0
1115,5021001081907,新規,0,2024-04-11,2024-04-11,株式会社食機能探索研究所ＢＡＢＩＬＯＮ,,株式会社,神奈川県,相模原市緑区,西橋本５丁目４番２１号,,14,151,2520131,,,,,,,2024-04-11,1,,,,,ショクキノウタンサクケンキュウショバビロン,0
1116,5021001081923,新規,0,2024-04-11,2024-04-11,株式会社ホームプランニング,,株式会社,神奈川県,藤沢市,白旗４丁目１０番５号,,14,205,2510051,,,,,,,2024-04-11,1,,,,,ホームプランニング,0
1119,5021003014344,新規,0,2024-04-11,2024-04-11,合同会社ｆｉｎ．Ｄ．ｖａｌｕｅ,,合同会社,神奈川県,綾瀬市,深谷中１丁目２０番１３号,,14,218,2521107,,,,,,,2024-04-11,1,,,,,ファインドバリュー,0
1120,5021005013063,新規,0,2024-04-11,2024-04-11,税理士法人秋葉会計,,その他の設立登記法人,神奈川県,横須賀市,小川町２６番地,,14,201,2380004,,,,,,,2024-04-11,1,,,,,アキバカイケイ,0
1129,5030001159753,新規,0,2024-04-11,2024-04-11,青木商事株式会社,,株式会社,埼玉県,川口市,上青木１丁目２３番３０号,,11,203,3330844,,,,,,,2024-04-11,1,,,,,アオキショウジ,0
1131,5030003023841,新規,0,2024-04-11,2024-04-11,合同会社クリエイティブ企画,,合同会社,埼玉県,東松山市,本町１丁目８－１３,,11,212,3550015,,,,,,,2024-04-11,1,,,,,クリエイティブキカク,0
1140,5040001133014,新規,0,2024-04-11,2024-04-11,Ｆｅｌｉｃｉｔａ　Ｃｒｅａｔｅ株式会社,,株式会社,千葉県,浦安市,富士見５丁目１０番１４号コーポ富士美２０５,,12,227,2790043,,,,,,,2024-04-11,1,,,,,フェリシタクリエイト,0
1141,5040001133047,新規,0,2024-04-11,2024-04-11,埜鷹貿易株式会社,,株式会社,千葉県,柏市,豊四季９５,,12,217,2770863,,,,,,,2024-04-11,1,,,,,ノタカボウエキ,0
1142,5040001133088,新規,0,2024-04-11,2024-04-11,株式会社ライフフィーロ,,株式会社,千葉県,千葉市美浜区,打瀬１丁目２番地２－Ｆ６０１号,,12,106,2610013,,,,,,,2024-04-11,1,,,,,ライフフィーロ,0
1145,5040003024698,新規,0,2024-04-11,2024-04-11,Ｎプラス合同会社,,合同会社,千葉県,市原市,五井１９００番地,,12,219,2900056,,,,,,,2024-04-11,1,,,,,エヌプラス,0
1146,5040003024723,新規,0,2024-04-11,2024-04-11,Ｃａｒｒｉｅ　Ｗａｓｔｅ　Ｖｉｌｌａｇｅ合同会社,,合同会社,千葉県,山武市,松尾町高富５６０番地４,,12,237,2891522,,,,,,,2024-04-11,1,,,,,キャリーウエストヴィレッジ,0
1150,5050003008270,新規,0,2024-04-11,2024-04-11,合同会社ＫＭＡ,,合同会社,茨城県,猿島郡境町,大字志鳥１２３０－１,,08,546,3060401,,,,,,,2024-04-11,1,,,,,ケイエムエー,0
1157,5060005010190,新規,0,2024-04-11,2024-04-11,一般社団法人ｇｌｏｗｉｎｇ,,その他の設立登記法人,栃木県,宇都宮市,東宿郷３丁目２番１８高智穂ビル７－Ａ,,09,201,3210953,,,,,,,2024-04-11,1,,,,,グロウイング,0
1160,5070005010256,新規,0,2024-04-11,2024-04-11,特定非営利活動法人外国人居住支援協会,,その他の設立登記法人,群馬県,前橋市,南町３丁目５０番地２プラザアン２階Ｅ,,10,201,3710805,,,,,,,2024-04-11,1,,,,,ガイコクジンキョジュウシエンキョウカイ,0
1164,5080105006418,新規,0,2024-04-11,2024-04-11,医療法人社団喜一会,,その他の設立登記法人,静岡県,富士宮市,西町２８番１６号,,22,207,4180056,,,,,,,2024-04-11,1,,,,,キイチカイ,0
1165,5080401027101,新規,0,2024-04-11,2024-04-11,株式会社エンゲージメントフォーカス,,株式会社,静岡県,湖西市,岡崎２１９１番地の４１,,22,221,4310422,,,,,,,2024-04-11,1,,,,,エンゲージメントフォーカス,0
1167,5100001037357,新規,0,2024-04-11,2024-04-11,株式会社ＮＥＷ　ＳＴＡＮＤＡＲＤ,,株式会社,長野県,飯田市,毛賀２９５番地１,,20,205,3950813,,,,,,,2024-04-11,1,,,,,ニュースタンダード,0
1168,5100001037373,新規,0,2024-04-11,2024-04-11,株式会社高野不動産,00134377,株式会社,長野県,小諸市,相生町１丁目２番７号,,20,208,3840025,,,,,,,2024-04-11,1,,,,,タカノフドウサン,0
1177,5120001263942,新規,0,2024-04-11,2024-04-11,株式会社ＭＹＫ,,株式会社,大阪府,大阪市中央区,日本橋１丁目３番１号三共日本橋ビル２Ｆ,,27,128,5420073,,,,,,,2024-04-11,1,,,,,エムワイケイ,0
1178,5120001263967,新規,0,2024-04-11,2024-04-11,テンパーセント株式会社,,株式会社,大阪府,大阪市中央区,船越町２丁目４番１７号住地オリエント中央ビル７０１,,27,128,5400036,,,,,,,2024-04-11,1,,,,,テンパーセント,0
1179,5120001264024,新規,0,2024-04-11,2024-04-11,株式会社Ｏｒｉｅｎｔ,,株式会社,大阪府,大阪市都島区,都島中通１丁目４－２ジュネス中通１０１号,,27,102,5340022,,,,,,,2024-04-11,1,,,,,オリエント,0
1184,5120003026348,新規,0,2024-04-11,2024-04-11,合同会社日本ＥＰ機構,,合同会社,大阪府,大阪市北区,梅田２丁目２番２号ヒルトンプラザウエストオフィスタワー１９Ｆ,,27,127,5300001,,,,,,,2024-04-11,1,,,,,ニホンイーピーキコウ,0
1185,5120101069356,新規,0,2024-04-11,2024-04-11,株式会社ＯＳＳ,,株式会社,大阪府,堺市堺区,新在家町東１丁１－２８セントラルフォート堺ビル６階,,27,141,5900964,,,,,,,2024-04-11,1,,,,,オーエスエス,0
1188,5120103005771,新規,0,2024-04-11,2024-04-11,Ｍｋ　Ｔｒａｄｉｎｇ合同会社,,合同会社,大阪府,和泉市,父鬼町２５４番地の１－２階,,27,219,5941132,,,,,,,2024-04-11,1,,,,,エムケイトレーディング,0
1191,5120903005120,新規,0,2024-04-11,2024-04-11,合同会社Ｂ‐ＰＬＡＴ,,合同会社,大阪府,豊中市,曽根南町３丁目８番２－２０３号,,27,203,5610804,,,,,,,2024-04-11,1,,,,,ビープラット,0
1202,5150001027213,新規,0,2024-04-11,2024-04-11,株式会社アルエステート,,株式会社,奈良県,磯城郡田原本町,大字秦庄５６番地の１,,29,363,6360343,,,,,,,2024-04-11,1,,,,,アルエステート,0
1204,5160001025835,新規,0,2024-04-11,2024-04-11,レオソルケア株式会社,,株式会社,滋賀県,大津市,枝４丁目９番５号,,25,201,5202275,,,,,,,2024-04-11,1,,,,,レオソルケア,0
1213,5190001031260,新規,0,2024-04-11,2024-04-11,株式会社麗クリーニング,,株式会社,三重県,四日市市,あかつき台２丁目１番地２４,,24,202,5128046,,,,,,,2024-04-11,1,,,,,レイクリーニング,0
1217,5200005013591,新規,0,2024-04-11,2024-04-11,一般社団法人ハッピーロードあんじゅ,,その他の設立登記法人,岐阜県,岐阜市,福光東３丁目６番１５号,,21,201,5020813,,,,,,,2024-04-11,1,,,,,ハッピーロードアンジュ,0
1220,5220003003709,新規,0,2024-04-11,2024-04-11,合同会社かしみ工務店,,合同会社,石川県,金沢市,天神町２丁目７番３４号,,17,201,9200925,,,,,,,2024-04-11,1,,,,,カシミコウムテン,0
1221,5230001020291,新規,0,2024-04-11,2024-04-11,株式会社谷川農園,,株式会社,富山県,南砺市,東城寺５０番地,,16,210,9320246,,,,,,,2024-04-11,1,,,,,タニカワノウエン,0
1226,5240001063042,新規,0,2024-04-11,2024-04-11,ヤクルトチャイルドサポート株式会社,,株式会社,広島県,広島市西区,福島町１丁目２３番１３号,,34,104,7330024,,,,,,,2024-04-11,1,,,,,ヤクルトチャイルドサポート,0
1233,5260003004645,新規,0,2024-04-11,2024-04-11,合同会社Ｔｓｕｎａｇｕ,,合同会社,岡山県,岡山市南区,平福２丁目１０番１９－７号,,33,104,7028043,,,,,,,2024-04-11,1,,,,,ツナグ,0
1240,5290005019366,新規,0,2024-04-11,2024-04-11,医療法人しろうず耳鼻咽喉科クリニック,,その他の設立登記法人,福岡県,久留米市,諏訪野町１９３５－１５,,40,203,8300037,,,,,,,2024-04-11,1,,,,,シロウズジビインコウカクリニック,0
1252,5320001020415,新規,0,2024-04-11,2024-04-11,Ｌｏｃａｌ　Ｖｅｎｔｕｒｅ　Ｃｏｍｍｏｎｓ株式会社,,株式会社,大分県,大分市,府内町１丁目６番４３号,,44,201,8700021,,,,,,,2024-04-11,1,,,,,ローカルベンチャーコモンズ,0
1257,5330003010314,新規,0,2024-04-11,2024-04-11,合同会社洸成開発熊本空港,,合同会社,熊本県,熊本市北区,麻生田３丁目３番６０号２Ｆ,,43,105,8618081,,,,,,,2024-04-11,1,,,,,コウセイカイハツクマモトクウコウ,0
1260,5340003004422,新規,0,2024-04-11,2024-04-11,ＭＳ合同会社,,合同会社,鹿児島県,鹿屋市,寿６丁目１番１０号ロータスＡ２０３号,,46,203,8930014,,,,,,,2024-04-11,1,,,,,エムエス,0
1261,5350001018910,新規,0,2024-04-11,2024-04-11,株式会社ＲＥＬＡＹ,,株式会社,宮崎県,宮崎市,大字恒久５９６１番地４,,45,201,8800916,,,,,,,2024-04-11,1,,,,,リレー,0
1263,5360003013850,新規,0,2024-04-11,2024-04-11,合同会社旅するだがし屋,,合同会社,沖縄県,中頭郡中城村,字南上原３６５番地１３号,,47,328,9012424,,,,,,,2024-04-11,1,,,,,タビスルダガシヤ,0
1264,5370001051174,新規,0,2024-04-11,2024-04-11,アズールファーマ株式会社,,株式会社,宮城県,仙台市青葉区,中山５丁目３番８号,,04,101,9810952,,,,,,,2024-04-11,1,,,,,アズールファーマ,0
1273,5410001013806,新規,0,2024-04-11,2024-04-11,株式会社正木興業,,株式会社,秋田県,大仙市,刈和野字清光院後１５番地４,,05,212,0192112,,,,,,,2024-04-11,1,,,,,マサキコウギョウ,0
1282,5430001091461,新規,0,2024-04-11,2024-04-11,株式会社Ｃｒｅａｔｅ　Ｎｉｎｅ,,株式会社,北海道,北広島市,大曲並木２丁目６番地７,,01,234,0611279,,,,,,,2024-04-11,1,,,,,クリエイトナイン,0
1291,5500003003218,新規,0,2024-04-11,2024-04-11,合同会社ＩｃＬ　Ｔｅａｃｈｅｒｓ,,合同会社,愛媛県,松山市,東石井２丁目３番７号,,38,201,7900932,,,,,,,2024-04-11,1,,,,,アイシーエルティーチャーズ,0
1301,6010003043436,新規,0,2024-04-11,2024-04-11,Ｘ‐Ｅｌｉｏ２８合同会社,,合同会社,東京都,中央区,銀座４丁目１４番１１号七十七銀座ビル８階,,13,102,1040061,,,,,,,2024-04-11,1,,,,,エクセリオトゥエンティーエイト,0
1302,6010003043444,新規,0,2024-04-11,2024-04-11,合同会社アクトウェル,,合同会社,東京都,中央区,東日本橋３丁目１２番１１号アヅマビル９Ｆ,,13,102,1030004,,,,,,,2024-04-11,1,,,,,アクトウェル,0
1303,6010003043469,新規,0,2024-04-11,2024-04-11,合同会社ミズタキカク,,合同会社,東京都,中央区,築地６丁目１２番１―４０１号,,13,102,1040045,,,,,,,2024-04-11,1,,,,,ミズタキカク,0
1305,6010105002257,新規,0,2024-04-11,2024-04-11,一般社団法人ペットライフサポート協会,,その他の設立登記法人,東京都,八王子市,中野町２８１０番地１,,13,201,1920015,,,,,,,2024-04-11,1,,,,,ペットライフサポートキョウカイ,0
1311,6010403032377,新規,0,2024-04-11,2024-04-11,元気合同会社,,合同会社,東京都,港区,芝５丁目２９番１７号ＭＡビル札の辻１Ｆ,,13,103,1080014,,,,,,,2024-04-11,1,,,,,ゲンキ,0
1312,6010403032410,新規,0,2024-04-11,2024-04-11,合同会社ＳＴＵＤＩＯ　ＥＶＡＬＡＣＲＥＳ,,合同会社,東京都,港区,北青山１丁目２番１８号５０２,,13,103,1070061,,,,,,,2024-04-11,1,,,,,スタジオエバラクレス,0
1323,6010901055053,新規,0,2024-04-11,2024-04-11,株式会社ＢＹＹ,,株式会社,東京都,世田谷区,船橋２丁目１３番５－１０５号,,13,112,1560055,,,,,,,2024-04-11,1,,,,,ビーワイワイ,0
1324,6010901055061,新規,0,2024-04-11,2024-04-11,株式会社プロプライエン,,株式会社,東京都,世田谷区,若林４丁目２９番１２号,,13,112,1540023,,,,,,,2024-04-11,1,,,,,プロプライエン,0
1326,6010905004601,新規,0,2024-04-11,2024-04-11,一般社団法人日本スポーツ教育学会,,その他の設立登記法人,東京都,世田谷区,深沢７丁目１番１号,,13,112,1580081,,,,,,,2024-04-11,1,,,,,ニホンスポーツキョウイクガッカイ,0
1329,6011001161205,新規,0,2024-04-11,2024-04-11,株式会社ＤＩＧＩＴＡＬ　ＭＥＲＣＥＮＡＬＹ,,株式会社,東京都,渋谷区,道玄坂１丁目１０番８号渋谷道玄坂東急ビル２Ｆ－Ｃ,,13,113,1500043,,,,,,,2024-04-11,1,,,,,デジタルマーセナリー,0
1330,6011001161254,新規,0,2024-04-11,2024-04-11,Ｏｔａｋｏｏｚ株式会社,,株式会社,東京都,渋谷区,道玄坂２丁目２０番２６－３１２号,,13,113,1500043,,,,,,,2024-04-11,1,,,,,オタクーズ,0
1331,6011001161262,新規,0,2024-04-11,2024-04-11,Ｃｈａｒｌｉｅ＆Ｒｏｂｉｎ株式会社,,株式会社,東京都,渋谷区,道玄坂１丁目１０番８号渋谷道玄坂東急ビル２Ｆ－Ｃ,,13,113,1500043,,,,,,,2024-04-11,1,,,,,チャーリーアンドロビン,0
1334,6011003018915,新規,0,2024-04-11,2024-04-11,合同会社ＢｏＰａｒａ,,合同会社,東京都,渋谷区,恵比寿西２丁目８番４号ＥＸ恵比寿西ビル５階,,13,113,1500021,,,,,,,2024-04-11,1,,,,,ボパラ,0
1338,6011101106935,新規,0,2024-04-11,2024-04-11,株式会社張家ＦｎＣ,,株式会社,東京都,新宿区,高田馬場３丁目４１－１０名倉２０２,,13,104,1690075,,,,,,,2024-04-11,1,,,,,チャンガエフエヌシー,0
1340,6011103014285,新規,0,2024-04-11,2024-04-11,合同会社ｆａｒｔｈｅｒ,,合同会社,東京都,新宿区,北新宿４丁目１９－１３－４０３,,13,104,1690074,,,,,,,2024-04-11,1,,,,,ファーザー,0
1341,6011103014310,新規,0,2024-04-11,2024-04-11,合同会社キンタロウ,,合同会社,東京都,新宿区,西新宿３丁目３番１３号西新宿水間ビル６階,,13,104,1600023,,,,,,,2024-04-11,1,,,,,キンタロウ,0
1348,6011501030520,新規,0,2024-04-11,2024-04-11,株式会社テクニカルファーム,,株式会社,東京都,荒川区,南千住６丁目３５番１号静香マンション１Ｆ,,13,118,1160003,,,,,,,2024-04-11,1,,,,,テクニカルファーム,0
1349,6011503006015,新規,0,2024-04-11,2024-04-11,合同会社ｆｕｍｅｓ,,合同会社,東京都,北区,赤羽２丁目１５番６－２０２号,,13,117,1150045,,,,,,,2024-04-11,1,,,,,フューム,0
1350,6011603004298,新規,0,2024-04-11,2024-04-11,合同会社ＳＵＮ,,合同会社,東京都,練馬区,上石神井１丁目１６番２３号コフレ上石神井４０２,,13,120,1770044,,,,,,,2024-04-11,1,,,,,サン,0
1354,6011701027184,新規,0,2024-04-11,2024-04-11,株式会社Ｇｒｉｄ　Ｓｅｒｖｉｃｅ,,株式会社,東京都,江戸川区,船堀２丁目１９番２３号,,13,123,1340091,,,,,,,2024-04-11,1,,,,,グリッドサービス,0
1356,6011801044063,新規,0,2024-04-11,2024-04-11,株式会社Ｔａｎ,,株式会社,東京都,葛飾区,金町２丁目７番１０号グリーンキャピタル金町３０２,,13,122,1250042,,,,,,,2024-04-11,1,,,,,タン,0
1370,6020001156610,新規,0,2024-04-11,2024-04-11,株式会社９７,,株式会社,神奈川県,川崎市多摩区,東三田３丁目１０番２号,,14,135,2140033,,,,,,,2024-04-11,1,,,,,キュージューナナ,0
1371,6020001156684,新規,0,2024-04-11,2024-04-11,株式会社シルクロード,,株式会社,神奈川県,川崎市多摩区,生田６丁目９番１４－２号,,14,135,2140038,,,,,,,2024-04-11,1,,,,,シルクロード,0
1372,6020001156701,新規,0,2024-04-11,2024-04-11,株式会社さちマネジメント,,株式会社,神奈川県,横浜市磯子区,杉田４丁目２－１３,,14,107,2350033,,,,,,,2024-04-11,1,,,,,サチマネジメント,0
1376,6020003025912,新規,0,2024-04-11,2024-04-11,合同会社ｅｓｓｅｎｃｅ,,合同会社,神奈川県,横浜市港南区,上大岡東１丁目６番２５－２号,,14,111,2330001,,,,,,,2024-04-11,1,,,,,エッセンス,0
1377,6020003025945,新規,0,2024-04-11,2024-04-11,合同会社シェアスペ,,合同会社,神奈川県,横浜市西区,北幸２丁目１０番４８号むつみビル３階,,14,103,2200004,,,,,,,2024-04-11,1,,,,,シェアスペ,0
1379,6021001081906,新規,0,2024-04-11,2024-04-11,ティーエンジ株式会社,,株式会社,神奈川県,相模原市南区,麻溝台８丁目１８番８号,,14,153,2520328,,,,,,,2024-04-11,1,,,,,ティーエンジ,0
1380,6021001081922,新規,0,2024-04-11,2024-04-11,株式会社ケイ,,株式会社,神奈川県,茅ヶ崎市,富士見町９番４２－４号,,14,207,2530031,,,,,,,2024-04-11,1,,,,,ケイ,0
1381,6021003014335,新規,0,2024-04-11,2024-04-11,合同会社マルヤマ,,合同会社,神奈川県,厚木市,戸室１丁目１８番２１号,,14,212,2430031,,,,,,,2024-04-11,1,,,,,マルヤマ,0
1382,6021003014376,新規,0,2024-04-11,2024-04-11,合同会社ｇａｒａｇｅ　Ｂｏｏ,,合同会社,神奈川県,高座郡寒川町,田端１１７０番地１,,14,321,2530114,,,,,,,2024-04-11,1,,,,,ガレージブー,0
1383,6021005013079,新規,0,2024-04-11,2024-04-11,医療法人慶光会,,その他の設立登記法人,神奈川県,伊勢原市,板戸２０４番地の２,,14,214,2591145,,,,,,,2024-04-11,1,,,,,ケイコウカイ,0
1388,6030001159728,新規,0,2024-04-11,2024-04-11,楽貝株式会社,,株式会社,埼玉県,川口市,並木２丁目３３－４号６階,,11,203,3320034,,,,,,,2024-04-11,1,,,,,ラクカイ,0
1389,6030001159744,新規,0,2024-04-11,2024-04-11,文明設備株式会社,,株式会社,埼玉県,上尾市,大字原市３７－１,,11,219,3620021,,,,,,,2024-04-11,1,,,,,ブンメイセツビ,0
1390,6030001159769,新規,0,2024-04-11,2024-04-11,株式会社パルシベイト,,株式会社,埼玉県,蕨市,中央２丁目３７番６号,,11,223,3350004,,,,,,,2024-04-11,1,,,,,パルシベイト,0
1393,6030003023997,新規,0,2024-04-11,2024-04-11,合同会社カウンセリングルームＳＴＡＹＣＬＯＳＥ,,合同会社,埼玉県,越谷市,蒲生２丁目１４番３２号,,11,222,3430838,,,,,,,2024-04-11,1,,,,,カウンセリングルームステイクローズ,0
1396,6040001132997,新規,0,2024-04-11,2024-04-11,株式会社一心,,株式会社,千葉県,柏市,桜台６番１０号,,12,217,2770012,,,,,,,2024-04-11,1,,,,,イッシン,0
1417,6080403004989,新規,0,2024-04-11,2024-04-11,ＮＳ企画合同会社,,合同会社,静岡県,浜松市中央区,南浅田１丁目１０番１号,,22,138,4328044,,,,,,,2024-04-11,1,,,,,エヌエスキカク,0
1420,6090003002541,新規,0,2024-04-11,2024-04-11,合同会社Ａｌｌ　Ｃｏｕｎｔｒｙ,,合同会社,山梨県,甲府市,増坪町６５２－１ルパークＡ１０２号,,19,201,4000832,,,,,,,2024-04-11,1,,,,,オールカントリー,0
1423,6100001037364,新規,0,2024-04-11,2024-04-11,天心無限株式会社,,株式会社,長野県,茅野市,北山４０２６－１２０５ペンションアダージオ,,20,214,3910301,,,,,,,2024-04-11,1,,,,,テンシンムゲン,0
1424,6100003007489,新規,0,2024-04-11,2024-04-11,ＯＫＩグラビュール合同会社,,合同会社,長野県,安曇野市,明科七貴９３９４番地,,20,220,3997104,,,,,,,2024-04-11,1,,,,,オキグラビュール,0
1439,6120001263966,新規,0,2024-04-11,2024-04-11,昊林株式会社,,株式会社,大阪府,大阪市大正区,千島１丁目１０番１０号エスポワール４３,,27,108,5510003,,,,,,,2024-04-11,1,,,,,コウリン,0
1440,6120003026339,新規,0,2024-04-11,2024-04-11,ＭＵＬＴＩ　ＰＵＲＰＯＳＥ合同会社,,合同会社,大阪府,大阪市淀川区,西中島７丁目１３番７号土井マンション２０６号,,27,123,5320011,,,,,,,2024-04-11,1,,,,,マルチパーパス,0
1444,6120101069388,新規,0,2024-04-11,2024-04-11,株式会社Ｒ．Ｏ．Ｙ,,株式会社,大阪府,堺市堺区,中田出井町３丁２番６号,,27,141,5900016,,,,,,,2024-04-11,1,,,,,ロイ,0
1447,6130005017062,新規,0,2024-04-11,2024-04-11,ＡＩＰＰＡＹ弁理士法人,,その他の設立登記法人,京都府,京都市伏見区,淀木津町１８０番地の１,,26,109,6130911,,,,,,,2024-04-11,1,,,,,エイアイピーペイ,0
1452,6140001133993,新規,0,2024-04-11,2024-04-11,株式会社す・なお,,株式会社,兵庫県,多可郡多可町,加美区大袋１０１番地１,,28,365,6791332,,,,,,,2024-04-11,1,,,,,スナオ,0
1453,6140001134034,新規,0,2024-04-11,2024-04-11,株式会社ソラナ,,株式会社,兵庫県,西宮市,老松町１４番１５－３１６号,,28,204,6620085,,,,,,,2024-04-11,1,,,,,ソラナ,0
1455,6140005027028,新規,0,2024-04-11,2024-04-11,一般社団法人サンタキャスト,,その他の設立登記法人,兵庫県,尼崎市,杭瀬本町２丁目２０番６号,,28,202,6600814,,,,,,,2024-04-11,1,,,,,サンタキャスト,0
1456,6140005027036,新規,0,2024-04-11,2024-04-11,医療法人社団ふじもと歯科診療所,,その他の設立登記法人,兵庫県,神戸市東灘区,田中町２丁目９－１３,,28,101,6580081,,,,,,,2024-04-11,1,,,,,フジモトシカシンリョウショ,0
1464,6180001160844,新規,0,2024-04-11,2024-04-11,株式会社赤鬼東海クラブ,,株式会社,愛知県,名古屋市西区,江向町４丁目１８番地,,23,104,4510013,,,,,,,2024-04-11,1,,,,,アカオニトウカイクラブ,0
1465,6180001160910,新規,0,2024-04-11,2024-04-11,Ｍ’ｓエンジニアリング株式会社,,株式会社,愛知県,東海市,浅山３丁目１９６番地,,23,222,4760006,,,,,,,2024-04-11,1,,,,,エムズエンジニアリング,0
1466,6180001160919,新規,0,2024-04-11,2024-04-11,ＳＴ‐ＡＩＲ株式会社,,株式会社,愛知県,犬山市,大字橋爪字地蔵下８番地１,,23,215,4840076,,,,,,,2024-04-11,1,,,,,ステアー,0
1474,6200001042387,新規,0,2024-04-11,2024-04-11,株式会社キィポーションＨＤ,,株式会社,岐阜県,大垣市,新田町４丁目２０番地１,,21,202,5030856,,,,,,,2024-04-11,1,,,,,キィポーションホールディングス,0
1480,6200005013599,新規,0,2024-04-11,2024-04-11,一般財団法人ＣＭＣ元島アカデミー,,その他の設立登記法人,岐阜県,岐阜市,福光東１丁目２３番５１号,,21,201,5020813,,,,,,,2024-04-11,1,,,,,シーエムシーモトジマアカデミー,0
1507,6290001105359,新規,0,2024-04-11,2024-04-11,Ｔ‐ＳＹＳＴＥＭ九州株式会社,,株式会社,福岡県,福岡市博多区,板付７丁目７番４４－２０５号,,40,132,8120888,,,,,,,2024-04-11,1,,,,,,0
1510,6290801030491,新規,0,2024-04-11,2024-04-11,株式会社Ｈ・Ｓカンパニー,,株式会社,福岡県,北九州市小倉北区,黄金２丁目６番３号シンコー小倉黄金スカイマンション９０７号,,40,106,8020071,,,,,,,2024-04-11,1,,,,,エイチエスカンパニー,0
1512,6310003004770,新規,0,2024-04-11,2024-04-11,合同会社ＷＩＴＨ　ＹＯＵ,,合同会社,長崎県,佐世保市,大宮町２８－２９,,42,202,8570841,,,,,,,2024-04-11,1,,,,,ウィズユー,0
1517,6340001026442,新規,0,2024-04-11,2024-04-11,株式会社ＡＢＥＩＧＥ,,株式会社,鹿児島県,鹿児島市,上之園町２６番地６,,46,201,8900052,,,,,,,2024-04-11,1,,,,,アベージュ,0
1526,6360003013890,新規,0,2024-04-11,2024-04-11,合同会社コスモ産業,,合同会社,沖縄県,那覇市,字仲井真４００番地８,,47,201,9020074,,,,,,,2024-04-11,1,,,,,コスモサンギョウ,0
1527,6360005007016,新規,0,2024-04-11,2024-04-11,一般社団法人ごやすけ,,その他の設立登記法人,沖縄県,宜野湾市,普天間１丁目３３番１８ＢＥＮアパート３０３号,,47,205,9012202,,,,,,,2024-04-11,1,,,,,ゴヤスケ,0
1536,6380001034441,新規,0,2024-04-11,2024-04-11,Ｃ．Ｍ．Ｄトレーディング株式会社,,株式会社,福島県,いわき市,小名浜玉川町南２６番地６,,07,204,9718127,,,,,,,2024-04-11,1,,,,,シーエムディトレーディング,0
1544,6390003002230,新規,0,2024-04-11,2024-04-11,合同会社さくらラヂエーター工業,,合同会社,山形県,山形市,飯塚町１３５３番地１（２－１０１号）県営飯塚住宅２,,06,201,9900845,,,,,,,2024-04-11,1,,,,,サクララヂエーターコウギョウ,0
1547,6400003003243,新規,0,2024-04-11,2024-04-11,Ｇ‐ＲＩＳＥ合同会社,,合同会社,岩手県,奥州市,水沢佐倉河字十文字５４－１,,03,215,0230003,,,,,,,2024-04-11,1,,,,,ジーライズ,0
1550,6400005008406,新規,0,2024-04-11,2024-04-11,一般社団法人持続可能な観光推進協議会,,その他の設立登記法人,岩手県,釜石市,只越町１丁目１番９号,,03,211,0260021,,,,,,,2024-04-11,1,,,,,ジゾクカノウナカンコウスイシンキョウギカイ,0
1554,6420001018679,新規,0,2024-04-11,2024-04-11,株式会社マルイワ,,株式会社,青森県,青森市,大字油川字中道６番地１０５,,02,201,0380059,,,,,,,2024-04-11,1,,,,,マルイワ,0
1558,6430001091576,新規,0,2024-04-11,2024-04-11,株式会社エヌカンパニー,,株式会社,北海道,札幌市南区,芸術の森３丁目９１５番地１９,,01,106,0050864,,,,,,,2024-04-11,1,,,,,エヌカンパニー,0
1563,6430003016192,新規,0,2024-04-11,2024-04-11,合同会社ＯＮＥ’ｓ,,合同会社,北海道,江別市,野幌町６１番地の１０第２高関ビル３階,,01,217,0690813,,,,,,,2024-04-11,1,,,,,ワンズ,0
1571,6470001020135,新規,0,2024-04-11,2024-04-11,株式会社キムラメタル,,株式会社,香川県,高松市,三谷町４９５８番地,,37,201,7610450,,,,,,,2024-04-11,1,,,,,キムラメタル,0
1590,7010003043435,新規,0,2024-04-11,2024-04-11,Ｘ‐Ｅｌｉｏ２７合同会社,,合同会社,東京都,中央区,銀座４丁目１４番１１号七十七銀座ビル８階,,13,102,1040061,,,,,,,2024-04-11,1,,,,,エクセリオトゥエンティーセブン,0
1591,7010103002332,新規,0,2024-04-11,2024-04-11,合同会社オトミセ,,合同会社,東京都,八王子市,鑓水２丁目８２番地２－５０７,,13,201,1920375,,,,,,,2024-04-11,1,,,,,,0
1602,7010401181563,新規,0,2024-04-11,2024-04-11,Ｈｅｓｔｉａ　Ｒｏｂｏｔｉｃｓ株式会社,,株式会社,東京都,港区,虎ノ門１丁目２３－１,,13,103,1050001,,,,,,,2024-04-11,1,,,,,ヘスティアロボティクス,0
1603,7010401181638,新規,0,2024-04-11,2024-04-11,ＢＥＳエンジニアリング株式会社,,株式会社,東京都,港区,芝公園１丁目１番１２号,,13,103,1050011,,,,,,,2024-04-11,1,,,,,ベスエンジニアリング,0
1604,7010401181662,新規,0,2024-04-11,2024-04-11,ＪＳＯコンサルティング株式会社,,株式会社,東京都,港区,浜松町２丁目２番１５号浜松町ダイヤビル２Ｆ,,13,103,1050013,,,,,,,2024-04-11,1,,,,,ジェイエスオーコンサルティング,0
1605,7010403032368,新規,0,2024-04-11,2024-04-11,ジャパンコンサルティング合同会社,,合同会社,東京都,港区,三田５丁目２番２２号ザ・パークハウス三田ガーデン１９０１,,13,103,1080073,,,,,,,2024-04-11,1,,,,,ジャパンコンサルティング,0
1606,7010405023126,新規,0,2024-04-11,2024-04-11,特定非営利活動法人日本イングリッシュ・コンサーティーナ協会,,その他の設立登記法人,東京都,港区,芝浦４丁目１０番１－２５０１号,,13,103,1080023,,,,,,,2024-04-11,1,,,,,ニホンイングリッシュコンサーティーナキョウカイ,0
1607,7010405023142,新規,0,2024-04-11,2024-04-11,一般社団法人ｒｅｎｇａプロ第３号,,その他の設立登記法人,東京都,港区,赤坂４丁目１５番１号赤坂ガーデンシティ３階,,13,103,1070052,,,,,,,2024-04-11,1,,,,,レンガプロダイサンゴウ,0
1613,7010803004909,新規,0,2024-04-11,2024-04-11,合同会社オクタビオ,,合同会社,東京都,大田区,田園調布４丁目９番６号,,13,111,1450071,,,,,,,2024-04-11,1,,,,,オクタビオ,0
1615,7010901055052,新規,0,2024-04-11,2024-04-11,株式会社ＳＴＡＮＤ　ＵＰ　Ｅ,,株式会社,東京都,世田谷区,駒沢２丁目１７番９号シェアプレイス駒沢７０５,,13,112,1540012,,,,,,,2024-04-11,1,,,,,スタンドアップイー,0
1619,7011001161195,新規,0,2024-04-11,2024-04-11,シアン株式会社,,株式会社,東京都,渋谷区,宇田川町１４－１３宇田川町ビルディング８Ｆ,,13,113,1500042,,,,,,,2024-04-11,1,,,,,シアン,0
1620,7011001161261,新規,0,2024-04-11,2024-04-11,株式会社くぼみ,,株式会社,東京都,渋谷区,初台１丁目３９番１２号富士ハイライズ２０７,,13,113,1510061,,,,,,,2024-04-11,1,,,,,クボミ,0
1621,7011001161278,新規,0,2024-04-11,2024-04-11,株式会社Ｑｕｅ,,株式会社,東京都,渋谷区,道玄坂１丁目１０番８号渋谷道玄坂東急ビル２Ｆ－Ｃ,,13,113,1500043,,,,,,,2024-04-11,1,,,,,キュー,0
1622,7011001161303,新規,0,2024-04-11,2024-04-11,Ｍ＆Ａドットコム株式会社,,株式会社,東京都,渋谷区,渋谷２丁目１９－１５宮益坂ビルディング６０９,,13,113,1500002,,,,,,,2024-04-11,1,,,,,エムアンドエイドットコム,0
1623,7011003018897,新規,0,2024-04-11,2024-04-11,ＭｕｓｉｃＡｉｄ合同会社,,合同会社,東京都,渋谷区,渋谷２丁目１９－１５宮益坂ビルディング６０９,,13,113,1500002,,,,,,,2024-04-11,1,,,,,ミュージケイド,0
1624,7011003018906,新規,0,2024-04-11,2024-04-11,Ｕ‐ＳＯＡＲＳ合同会社,,合同会社,東京都,渋谷区,恵比寿西２丁目４番８号ウィンド恵比寿ビル８Ｆ,,13,113,1500021,,,,,,,2024-04-11,1,,,,,ユーソアーズ,0
1625,7011003018914,新規,0,2024-04-11,2024-04-11,合同会社ＨｉｔｏＲｉ,,合同会社,東京都,渋谷区,道玄坂１丁目１０番８号渋谷道玄坂東急ビル２Ｆ―Ｃ,,13,113,1500043,,,,,,,2024-04-11,1,,,,,ヒトリ,0
1629,7011101106892,新規,0,2024-04-11,2024-04-11,ファイナンシャル・バリュー＆アドバイザーズ株式会社,,株式会社,東京都,新宿区,新宿１丁目３番８号ＹＫＢ新宿御苑３階,,13,104,1600022,,,,,,,2024-04-11,1,,,,,ファイナンシャルバリューアンドアドバイザーズ,0
1631,7011103014301,新規,0,2024-04-11,2024-04-11,Ｓｅｎｍｏｒｉ合同会社,,合同会社,東京都,新宿区,北新宿３丁目２番１６シャンボール北新宿１００７号,,13,104,1690074,,,,,,,2024-04-11,1,,,,,センモリ,0
1634,7011303005125,新規,0,2024-04-11,2024-04-11,合同会社アトラス,,合同会社,東京都,杉並区,和泉１丁目５４番１１－１０２号,,13,115,1680063,,,,,,,2024-04-11,1,,,,,アトラス,0
1642,7011803006168,新規,0,2024-04-11,2024-04-11,合同会社キャラック,,合同会社,東京都,足立区,西保木間３丁目２２番２２号カインドステージ竹ノ塚６０１,,13,121,1210812,,,,,,,2024-04-11,1,,,,,キャラック,0
1645,7012401041739,新規,0,2024-04-11,2024-04-11,ドウバオテクノロジー株式会社,,株式会社,東京都,三鷹市,下連雀３丁目９－６三鷹ダイカンプラザ３０２,,13,204,1810013,,,,,,,2024-04-11,1,,,,,ドウバオテクノロジー,0
1651,7020001156659,新規,0,2024-04-11,2024-04-11,株式会社新輪堂,,株式会社,神奈川県,横浜市西区,浅間町１丁目４番３号ウィザードビル４０２,,14,103,2200072,,,,,,,2024-04-11,1,,,,,ニュウリンドウ,0
1652,7020001156667,新規,0,2024-04-11,2024-04-11,會澤建築株式会社,,株式会社,神奈川県,川崎市川崎区,渡田１丁目７番４号,,14,131,2100837,,,,,,,2024-04-11,1,,,,,アイザワケンチク,0
1653,7021001081913,新規,0,2024-04-11,2024-04-11,セイコー警備株式会社,,株式会社,神奈川県,相模原市中央区,淵野辺１丁目１１番１４号福本ビル１０１号室,,14,152,2520206,,,,,,,2024-04-11,1,,,,,セイコーケイビ,0
1654,7021001081938,新規,0,2024-04-11,2024-04-11,スプレッド・ザ・ウイングス株式会社,,株式会社,神奈川県,横須賀市,汐入町４丁目４４番地,,14,201,2380042,,,,,,,2024-04-11,1,,,,,スプレッドザウイングス,0
1659,7030001159611,新規,0,2024-04-11,2024-04-11,株式会社ＮＡＯ商事,,株式会社,埼玉県,上尾市,中妻４丁目２１番地１,,11,219,3620072,,,,,,,2024-04-11,1,,,,,ナヲショウジ,0
1660,7030001159644,新規,0,2024-04-11,2024-04-11,株式会社ＯＥＣ,,株式会社,埼玉県,草加市,松江３丁目１６－４３クレイノグレイス松江１０３,,11,221,3400013,,,,,,,2024-04-11,1,,,,,オーイーシー,0
1663,7030003023947,新規,0,2024-04-11,2024-04-11,合同会社めぐみ,,合同会社,埼玉県,さいたま市浦和区,領家７丁目４番１８号,,11,107,3300072,,,,,,,2024-04-11,1,,,,,メグミ,0
1664,7030003023971,新規,0,2024-04-11,2024-04-11,Ｄ‐ＰＲＡＣＴ合同会社,,合同会社,埼玉県,さいたま市大宮区,桜木町２丁目３番地大宮マルイ７階,,11,103,3300854,,,,,,,2024-04-11,1,,,,,ディープラクト,0
1668,7050001054612,新規,0,2024-04-11,2024-04-11,株式会社臼井グループ,,株式会社,茨城県,結城市,大字結城１０６６４番地４,,08,207,3070001,,,,,,,2024-04-11,1,,,,,ウスイグループ,0
1669,7050003008277,新規,0,2024-04-11,2024-04-11,ＳＣ　ＩＮＴＥＲＮＡＴＩＯＮＡＬ合同会社,,合同会社,茨城県,下妻市,高道祖４２７０－４Ｄ,,08,210,3040031,,,,,,,2024-04-11,1,,,,,エスシーインターナショナル,0
1670,7050003008285,新規,0,2024-04-11,2024-04-11,Ｇｕｌ　Ｎａｗａｚａ　Ｔｒａｄｉｎｇ合同会社,,合同会社,茨城県,筑西市,藤ケ谷２０９１番地ロマ１０６号,,08,227,3080112,,,,,,,2024-04-11,1,,,,,,0
1674,7060001036997,新規,0,2024-04-11,2024-04-11,株式会社Ｙ’ｓ,,株式会社,栃木県,宇都宮市,御幸ケ原町１５０－８秀栄コーポ１－１０２号,,09,201,3210982,,,,,,,2024-04-11,1,,,,,ワイズ,0
1684,7090003002540,新規,0,2024-04-11,2024-04-11,合同会社甲信エージェンシー,,合同会社,山梨県,甲府市,朝気２丁目１番２号メゾン・ジラソーレ２０１,,19,201,4000862,,,,,,,2024-04-11,1,,,,,コウシンエージェンシー,0
1687,7100001037363,新規,0,2024-04-11,2024-04-11,株式会社美功,,株式会社,長野県,安曇野市,穂高牧１７９番地１０,,20,220,3998305,,,,,,,2024-04-11,1,,,,,ビコウ,0
1688,7100003007488,新規,0,2024-04-11,2024-04-11,合同会社Ｃｈａｌｌｅｎｇｅ　ｏｆ　Ｌｉｆｅ,,合同会社,長野県,長野市,大字安茂里３３２７番地１犀北団地Ａ８－９,,20,201,3800941,,,,,,,2024-04-11,1,,,,,チャレンジオブライフ,0
1689,7100005013162,新規,0,2024-04-11,2024-04-11,税理士法人小原会計,,その他の設立登記法人,長野県,松本市,北深志１丁目８番１号,,20,202,3900872,,,,,,,2024-04-11,1,,,,,オハラカイケイ,0
1705,7120001263949,新規,0,2024-04-11,2024-04-11,株式会社大和,,株式会社,大阪府,守口市,馬場町３丁目３－３,,27,209,5700062,,,,,,,2024-04-11,1,,,,,ヤマト,0
1709,7120101069379,新規,0,2024-04-11,2024-04-11,株式会社ハイドロテックＲ＆Ｄ,,株式会社,大阪府,羽曳野市,島泉７丁目１１番３号,,27,222,5830881,,,,,,,2024-04-11,1,,,,,ハイドロテックアールアンドディ,0
1710,7120101069387,新規,0,2024-04-11,2024-04-11,株式会社Ｋ‐Ａｃｅ,,株式会社,大阪府,松原市,天美我堂２丁目３８８番地の３,,27,217,5800026,,,,,,,2024-04-11,1,,,,,ケーエース,0
1712,7120103005778,新規,0,2024-04-11,2024-04-11,合同会社クローバー,,合同会社,大阪府,堺市堺区,西湊町３丁３－２,,27,141,5900835,,,,,,,2024-04-11,1,,,,,クローバー,0
1720,7120901049010,新規,0,2024-04-11,2024-04-11,株式会社北摂リノベーション,,株式会社,大阪府,茨木市,島４丁目１２番４号,,27,211,5670854,,,,,,,2024-04-11,1,,,,,ホクセツリノベーション,0
1728,7140001133919,新規,0,2024-04-11,2024-04-11,株式会社テイク,,株式会社,兵庫県,神戸市須磨区,古川町３丁目２番１６号,,28,107,6540041,,,,,,,2024-04-11,1,,,,,テイク,0
1732,7150001027211,新規,0,2024-04-11,2024-04-11,株式会社ＴＹプログレス,,株式会社,奈良県,香芝市,真美ヶ丘７丁目１３番２８号,,29,210,6390223,,,,,,,2024-04-11,1,,,,,ティーワイプログレス,0
1734,7170003002020,新規,0,2024-04-11,2024-04-11,ＢＥＬＬＳＴＥＰ合同会社,,合同会社,和歌山県,田辺市,湊６番２４号,,30,206,6460031,,,,,,,2024-04-11,1,,,,,ベルステップ,0
1739,7180001161016,新規,0,2024-04-11,2024-04-11,株式会社ソイルフィールド,,株式会社,愛知県,一宮市,真清田１丁目３番地１３リヴェール真清田２０２,,23,203,4910043,,,,,,,2024-04-11,1,,,,,ソイルフィールド,0
1743,7200001042386,新規,0,2024-04-11,2024-04-11,株式会社アジュジャパン,,株式会社,岐阜県,揖斐郡大野町,大字寺内２２１番地１,,21,403,5010503,,,,,,,2024-04-11,1,,,,,アジュジャパン,0
1745,7200005013598,新規,0,2024-04-11,2024-04-11,一般社団法人居場所を考える会,,その他の設立登記法人,岐阜県,可児市,久々利２１００番地２,,21,214,5090224,,,,,,,2024-04-11,1,,,,,イバショヲカンガエルカイ,0
1760,7250003003472,新規,0,2024-04-11,2024-04-11,カイコーポレーション合同会社,,合同会社,山口県,光市,浅江７丁目１７－２６－１０２,,35,210,7430021,,,,,,,2024-04-11,1,,,,,カイコーポレーション,0
1761,7260001038957,新規,0,2024-04-11,2024-04-11,やまと健康堂株式会社,,株式会社,岡山県,岡山市北区,表町１丁目５番１号,,33,101,7000822,,,,,,,2024-04-11,1,,,,,ヤマトケンコウドウ,0
1762,7260005011340,新規,0,2024-04-11,2024-04-11,リアン協同組合,,その他の設立登記法人,岡山県,倉敷市,浦田２４３２番地１,,33,202,7100843,,,,,,,2024-04-11,1,,,,,リアン,0
1766,7270005005589,新規,0,2024-04-11,2024-04-11,一般社団法人ＣＯＯＤ　ＣＲＥＡＴＯＲＳ,,その他の設立登記法人,鳥取県,米子市,両三柳２２８番地２,,31,202,6830853,,,,,,,2024-04-11,1,,,,,クッドクリエイターズ,0
1768,7290001105317,新規,0,2024-04-11,2024-04-11,株式会社さくら教育サービス,,株式会社,福岡県,福岡市博多区,博多駅東１丁目１９番１８号,,40,132,8120013,,,,,,,2024-04-11,1,,,,,サクラキョウイクサービス,0
1769,7290005019364,新規,0,2024-04-11,2024-04-11,医療法人ＳＡＣＬ,,その他の設立登記法人,福岡県,福岡市南区,寺塚１丁目２番１１号,,40,134,8150074,,,,,,,2024-04-11,1,,,,,エスエーシーエル,0
1785,7360001033485,新規,0,2024-04-11,2024-04-11,株式会社光,,株式会社,沖縄県,宜野湾市,野嵩１丁目２７番８号,,47,205,9012203,,,,,,,2024-04-11,1,,,,,ヒカリ,0
1801,7430001091550,新規,0,2024-04-11,2024-04-11,株式会社Ｃｉｅｌ,,株式会社,北海道,千歳市,旭ケ丘２丁目４番７号,,01,224,0660018,,,,,,,2024-04-11,1,,,,,シエル,0
1802,7430001091575,新規,0,2024-04-11,2024-04-11,ＲＥＭ株式会社,,株式会社,北海道,札幌市西区,二十四軒二条５丁目４番１号,,01,107,0630802,,,,,,,2024-04-11,1,,,,,レム,0
1806,7430003016191,新規,0,2024-04-11,2024-04-11,合同会社ｔｏｌｅｒａｎｃｅ,,合同会社,北海道,札幌市中央区,南一条西７丁目１２番地６号パークアベニュービル５０６,,01,101,0600061,,,,,,,2024-04-11,1,,,,,トレランス,0
1809,7470001020134,新規,0,2024-04-11,2024-04-11,株式会社藤電工,,株式会社,香川県,三豊市,三野町下高瀬１６７８番地５,,37,208,7670032,,,,,,,2024-04-11,1,,,,,フジデンコウ,0
1815,7700150124678,新規,0,2024-04-11,2024-04-02,江戸川区花火大会実行委員会,,その他,東京都,江戸川区,中央１丁目４－１（江戸川区産業経済課　内）,,13,123,1320021,,,,,,,2024-04-02,1,,,,,エドガワクハナビタイカイジツコウイインカイ,0
1828,8010001243845,新規,0,2024-04-11,2024-04-11,黒鷹投資株式会社,,株式会社,東京都,文京区,関口３丁目１４番７号,,13,105,1120014,,,,,,,2024-04-11,1,,,,,クロタカトウシ,0
1830,8010003043434,新規,0,2024-04-11,2024-04-11,Ｂ５　Ｊａｐａｎ合同会社,,合同会社,東京都,中央区,銀座４丁目１４番１１号七十七銀座ビル８階,,13,102,1040061,,,,,,,2024-04-11,1,,,,,ビーファイブジャパン,0
1833,8010005038119,新規,0,2024-04-11,2024-04-11,一般社団法人Ｔｓｕｎａｇｕ,,その他の設立登記法人,東京都,中央区,日本橋兜町６番７号兜町第７平和ビル１Ｆ,,13,102,1030026,,,,,,,2024-04-11,1,,,,,ツナグ,0
1835,8010105002255,新規,0,2024-04-11,2024-04-11,ライオンズマンション西八王子駅前管理組合法人,,その他の設立登記法人,東京都,八王子市,散田町３丁目９番１５号,,13,201,1930832,,,,,,,2024-04-11,1,,,,,ライオンズマンションニシハチオウジエキマエ,0
1846,8010401181521,新規,0,2024-04-11,2024-04-11,ＣｙｂｅｒＳＴＡＲ株式会社,,株式会社,東京都,港区,海岸１丁目１５番１号,,13,103,1050022,,,,,,,2024-04-11,1,,,,,サイバスター,0
1847,8010401181538,新規,0,2024-04-11,2024-04-11,株式会社ＹＭＳ,,株式会社,東京都,港区,芝浦４丁目９番１８号,,13,103,1080023,,,,,,,2024-04-11,1,,,,,ワイエムエス,0
1848,8010401181554,新規,0,2024-04-11,2024-04-11,株式会社ＩＣＴシーズ,,株式会社,東京都,港区,三田３丁目１１番３６号,,13,103,1080073,,,,,,,2024-04-11,1,,,,,アイシーティーシーズ,0
1854,8010501052085,新規,0,2024-04-11,2024-04-11,星輝国際株式会社,,株式会社,東京都,台東区,台東３丁目５番１０号－１０２－２Ｂ,,13,106,1100016,,,,,,,2024-04-11,1,,,,,ホシキコクサイ,0
1861,8010603010759,新規,0,2024-04-11,2024-04-11,合同会社ＪＢＩＮＴＥＲＮＡＴＩＯＮＡＬ,,合同会社,東京都,墨田区,江東橋３丁目５番８号Ｋ．ビル５階Ａ,,13,107,1300022,,,,,,,2024-04-11,1,,,,,ジェイビーインターナショナル,0
1862,8010605004313,新規,0,2024-04-11,2024-04-11,一般社団法人ライフワーク,,その他の設立登記法人,東京都,江東区,亀戸９丁目３３番２－５０７号,,13,108,1360071,,,,,,,2024-04-11,1,,,,,ライフワーク,0
1867,8011001161285,新規,0,2024-04-11,2024-04-11,株式会社ヒステリックグラマーホールディングス,,株式会社,東京都,渋谷区,千駄ヶ谷３丁目１２番６号,,13,113,1510051,,,,,,,2024-04-11,1,,,,,ヒステリックグラマーホールディングス,0
1883,8011501030519,新規,0,2024-04-11,2024-04-11,株式会社たかやま製作所,,株式会社,東京都,北区,滝野川７丁目３６番２号青山ビル一階,,13,117,1140023,,,,,,,2024-04-11,1,,,,,タカヤマセイサクジョ,0
1887,8011601027679,新規,0,2024-04-11,2024-04-11,株式会社メディックス,,株式会社,東京都,練馬区,練馬３丁目２５－６ゲートフィールド練馬３０２,,13,120,1760001,,,,,,,2024-04-11,1,,,,,メディックス,0
1890,8011701027182,新規,0,2024-04-11,2024-04-11,株式会社ＯＣＥＡＮＯ,,株式会社,東京都,江戸川区,中央３丁目１６番１３号,,13,123,1320021,,,,,,,2024-04-11,1,,,,,オセアーノ,0
1893,8011801044037,新規,0,2024-04-11,2024-04-11,ユニクエア株式会社,,株式会社,東京都,足立区,島根１丁目１４番１３号,,13,121,1210815,,,,,,,2024-04-11,1,,,,,ユニクエア,0
1897,8011803006159,新規,0,2024-04-11,2024-04-11,合同会社凛,,合同会社,東京都,足立区,千住２丁目６２番,,13,121,1200034,,,,,,,2024-04-11,1,,,,,リン,0
1899,8012405004971,新規,0,2024-04-11,2024-04-11,社会保険労務士法人東京さくら人事労務事務所,,その他の設立登記法人,東京都,三鷹市,下連雀３丁目４３番３２号,,13,204,1810013,,,,,,,2024-04-11,1,,,,,トウキョウサクラジンジロウムジムショ,0
1900,8012701018205,新規,0,2024-04-11,2024-04-11,株式会社Ｖｅｌ・ｃｕｏｒｅ,,株式会社,東京都,東村山市,栄町２丁目２７－１エクセレンス久米川４０７,,13,213,1890013,,,,,,,2024-04-11,1,,,,,ヴェルクオーレ,0
1901,8012803003360,新規,0,2024-04-11,2024-04-11,ＣｈｉＫｏ＆Ｃｏ．合同会社,,合同会社,東京都,国分寺市,新町１丁目１０番地１８,,13,214,1850004,,,,,,,2024-04-11,1,,,,,チコアンドコウ,0
1908,8021003014358,新規,0,2024-04-11,2024-04-11,合同会社Ａ＆Ｄ,,合同会社,神奈川県,藤沢市,鵠沼海岸７丁目２番１８号,00134374,14,205,2510037,,,,,,,2024-04-11,1,,,,,エーアンドディー,0
1917,8030001159759,新規,0,2024-04-11,2024-04-11,株式会社エクステリアＳＫ,,株式会社,埼玉県,大里郡寄居町,大字用土４１３４番地３,,11,408,3691201,,,,,,,2024-04-11,1,,,,,エクステリアエスケイ,0
1919,8030003024003,新規,0,2024-04-11,2024-04-11,ＤＵＣ　ＡＮＨ合同会社,,合同会社,埼玉県,鶴ヶ島市,富士見１丁目７番１２号レジデンスピープル１０６号室,,11,241,3502201,,,,,,,2024-04-11,1,,,,,ドックアン,0
1933,8040005022342,新規,0,2024-04-11,2024-04-11,一般社団法人紫陽花,,その他の設立登記法人,千葉県,香取市,佐原イ５２５番地,,12,236,2870003,,,,,,,2024-04-11,1,,,,,アジサイ,0
1934,8050001054611,新規,0,2024-04-11,2024-04-11,アドバンフォアード株式会社,,株式会社,茨城県,日立市,水木町１丁目３１番１７－１号,,08,202,3160024,,,,,,,2024-04-11,1,,,,,アドバンフォアード,0
1937,8060001036996,新規,0,2024-04-11,2024-04-11,株式会社ファンド,,株式会社,栃木県,宇都宮市,戸祭台２７番地３,,09,201,3200017,,,,,,,2024-04-11,1,,,,,ファンド,0
1944,8060003005025,新規,0,2024-04-11,2024-04-11,合同会社ＥＭＩＲＩＺＥ,,合同会社,栃木県,栃木市,今泉町１丁目１８番１７号,,09,203,3280027,,,,,,,2024-04-11,1,,,,,エミライズ,0
1951,8100001037370,新規,0,2024-04-11,2024-04-11,軽井沢オーガニックファーム株式会社,,株式会社,長野県,北佐久郡軽井沢町,大字発地１１６６番地７１,,20,321,3890113,,,,,,,2024-04-11,1,,,,,カルイザワオーガニックファーム,0
1953,8100003007479,新規,0,2024-04-11,2024-04-11,ＴＴＶＨ合同会社,,合同会社,長野県,塩尻市,大字広丘野村１６７４番地７１,,20,215,3990702,,,,,,,2024-04-11,1,,,,,ティーティーブイエイチ,0
1954,8100005013161,新規,0,2024-04-11,2024-04-11,一般社団法人イノチグラス大学,,その他の設立登記法人,長野県,駒ヶ根市,中央１８番７号,,20,210,3994112,,,,,,,2024-04-11,1,,,,,イノチグラスダイガク,0
1955,8110001038327,新規,0,2024-04-11,2024-04-11,三国株式会社,,株式会社,新潟県,上越市,吉川区梶５４８番地１,,15,222,9493437,,,,,,,2024-04-11,1,,,,,サンゴク,0
1962,8120001263659,新規,0,2024-04-11,2024-04-11,東潤国際株式会社,,株式会社,大阪府,大阪市城東区,永田３丁目１番４－１０２号,,27,118,5360022,,,,,,,2024-04-11,1,,,,,トウジュンコクサイ,0
1963,8120001264021,新規,0,2024-04-11,2024-04-11,ノゾ・ネクスト株式会社,,株式会社,大阪府,大阪市西区,阿波座１丁目１１番８号,,27,106,5500011,,,,,,,2024-04-11,1,,,,,ノゾネクスト,0
1965,8120003026196,新規,0,2024-04-11,2024-04-11,合同会社Ｃ＆Ｉ,,合同会社,大阪府,大阪市東淀川区,豊新２丁目１１－２８,,27,114,5330014,,,,,,,2024-04-11,1,,,,,シーアンドアイ,0
1967,8120101069394,新規,0,2024-04-11,2024-04-11,株式会社ミライ,,株式会社,大阪府,泉佐野市,葵町２丁目４番１３号,,27,213,5980014,,,,,,,2024-04-11,1,,,,,ミライ,0
1968,8120103005777,新規,0,2024-04-11,2024-04-11,合同会社ＮＯＶＡ,,合同会社,大阪府,堺市北区,金岡町５４５番地（９０３号室）,,27,146,5918022,,,,,,,2024-04-11,1,,,,,ノヴァ,0
1978,8130001076812,新規,0,2024-04-11,2024-04-11,株式会社りゅっけ,,株式会社,京都府,京都市下京区,七条通油小路東入大黒町２２７番地第２キョートビル４０２,,26,106,6008223,,,,,,,2024-04-11,1,,,,,リュッケ,0
1979,8130001076820,新規,0,2024-04-11,2024-04-11,株式会社Ｌｉｎｎｅ,,株式会社,京都府,京都市下京区,朱雀宝蔵町４４番地協栄ビル２階京都朱雀スタジオ,,26,106,6008846,,,,,,,2024-04-11,1,,,,,リンネ,0
1980,8130003009448,新規,0,2024-04-11,2024-04-11,ザンジョ合同会社,,合同会社,京都府,京都市右京区,梅津石灘町４１番地１レオパレスイシナダ１０６,,26,108,6150905,,,,,,,2024-04-11,1,,,,,ザンジョ,0
1981,8140001134032,新規,0,2024-04-11,2024-04-11,エーディ株式会社,,株式会社,兵庫県,神戸市長田区,庄田町２丁目５－１３,,28,106,6530035,,,,,,,2024-04-11,1,,,,,エーディ,0
1984,8150001027210,新規,0,2024-04-11,2024-04-11,株式会社プレジャー泉,,株式会社,奈良県,大和高田市,東雲町１３番３０号,,29,202,6350017,,,,,,,2024-04-11,1,,,,,プレジャーイズミ,0
1988,8180001160925,新規,0,2024-04-11,2024-04-11,Ｋｏｍｏｅｓｔａｔｅ株式会社,,株式会社,愛知県,名古屋市中区,栄２丁目１３番２１号,,23,106,4600008,,,,,,,2024-04-11,1,,,,,コモエステイト,0
1989,8180001160982,新規,0,2024-04-11,2024-04-11,Ｉ’ｓ　ｅｓｔａｔｅ株式会社,,株式会社,愛知県,名古屋市北区,志賀町５丁目２番地の２,,23,103,4620037,,,,,,,2024-04-11,1,,,,,アイズエステート,0
1994,8180003026637,新規,0,2024-04-11,2024-04-11,合同会社ＳＩＥＧ,,合同会社,愛知県,知多郡東浦町,大字緒川字西本坪８番地の１４,,23,442,4702102,,,,,,,2024-04-11,1,,,,,ジーク,0
2017,8290003015125,新規,0,2024-04-11,2024-04-11,あさくら資産運用合同会社,,合同会社,福岡県,朝倉市,頓田７６番地２,,40,228,8380064,,,,,,,2024-04-11,1,,,,,アサクラシサンウンヨウ,0
2021,8290005019363,新規,0,2024-04-11,2024-04-11,医療法人ＮＴＳＣ,,その他の設立登記法人,福岡県,福岡市博多区,那珂１丁目４４番１７号,,40,132,8120893,,,,,,,2024-04-11,1,,,,,エヌティーエスシー,0
2029,8330003010311,新規,0,2024-04-11,2024-04-11,合同会社白‐ＨＡＫＵ,,合同会社,熊本県,菊池郡菊陽町,光の森７丁目２４番１０号オンブラージュ光の森１０１,,43,404,8691108,,,,,,,2024-04-11,1,,,,,ハクハク,0
2031,8340001026382,新規,0,2024-04-11,2024-04-11,株式会社ＮＡＫＡＮＡＫＡ,,株式会社,鹿児島県,大島郡伊仙町,大字犬田布６５９番地,,46,532,8918327,,,,,,,2024-04-11,1,,,,,ナカナカ,0
2033,8340003004428,新規,0,2024-04-11,2024-04-11,Ｃｌｅａｎ＆Ｍｕｓｉｃ合同会社,,合同会社,鹿児島県,鹿児島市,桜ヶ丘３丁目１８番地８,,46,201,8910175,,,,,,,2024-04-11,1,,,,,クリンアンドミュージック,0
2036,8360001033484,新規,0,2024-04-11,2024-04-11,株式会社ＲＥＩ,,株式会社,沖縄県,那覇市,久茂地１丁目１番１号９階,,47,201,9000015,,,,,,,2024-04-11,1,,,,,レイ,0
2038,8360005007022,新規,0,2024-04-11,2024-04-11,一般社団法人顔晴れ会,,その他の設立登記法人,沖縄県,浦添市,牧港３丁目３７番１１号,,47,208,9012131,,,,,,,2024-04-11,1,,,,,カオハレカイ,0
2039,8370001051139,新規,0,2024-04-11,2024-04-11,サツエーイースト株式会社,,株式会社,宮城県,仙台市泉区,根白石字花輪前１番地１,,04,105,9813221,,,,,,,2024-04-11,1,,,,,サツエーイースト,0
2047,8400001016617,新規,0,2024-04-11,2024-04-11,株式会社ツリーハウス,,株式会社,岩手県,盛岡市,梨木町４番３０号,,03,201,0200064,,,,,,,2024-04-11,1,,,,,ツリーハウス,0
2058,8460001005886,新規,0,2024-04-11,2024-04-11,株式会社パームファクトリー,,株式会社,北海道,釧路市,文苑２丁目２１番４号,,01,206,0850063,,,,,,,2024-04-11,1,,,,,,0
2060,8470001020125,新規,0,2024-04-11,2024-04-11,Ｃｏｏｋ＆ＤｅｌｉｃｉｏｕｓＦａｒｍ株式会社,,株式会社,香川県,高松市,元山町８２１番地３,,37,201,7610311,,,,,,,2024-04-11,1,,,,,,0
2063,8490001010751,新規,0,2024-04-11,2024-04-11,株式会社ＫＩＲＵＫＯＲＵ,,株式会社,高知県,高知市,桜井町２丁目７番３２－７０５号サーパスシティ桜井町,,39,201,7800821,,,,,,,2024-04-11,1,,,,,キルコル,0
2080,9010003043441,新規,0,2024-04-11,2024-04-11,合同会社ＺＥＨＰＪ１２,,合同会社,東京都,中央区,銀座４丁目６番１号三幸アセットマネジメント株式会社内,,13,102,1040061,,,,,,,2024-04-11,1,,,,,ゼッチピージェートゥエルブ,0
2092,9010401181586,新規,0,2024-04-11,2024-04-11,株式会社中部発展商事,,株式会社,東京都,港区,港南２丁目１８番１号,,13,103,1080075,,,,,,,2024-04-11,1,,,,,チュウブハッテンショウジ,0
2093,9010401181652,新規,0,2024-04-11,2024-04-11,株式会社青熊舎,,株式会社,東京都,港区,西新橋３丁目１番２号,,13,103,1050003,,,,,,,2024-04-11,1,,,,,アオクマシャ,0
2094,9010401181669,新規,0,2024-04-11,2024-04-11,ダブルアイ株式会社,,株式会社,東京都,港区,西麻布１丁目１２番８号２Ｆ,,13,103,1060031,,,,,,,2024-04-11,1,,,,,ダブルアイ,0
2095,9010401181702,新規,0,2024-04-11,2024-04-11,株式会社地盤革新総合研究所,,株式会社,東京都,港区,麻布台１丁目１１番１０号,,13,103,1060041,,,,,,,2024-04-11,1,,,,,ジバンカクシンソウゴウケンキュウジョ,0
2106,9010701001213,新規,0,2024-04-11,2024-04-11,株式会社上田化成製作所,,株式会社,東京都,品川区,東品川２丁目２番４号東京ＭＩビル,,13,109,1400002,,,,,,,2024-04-11,1,,,,,,0
2107,9010803004907,新規,0,2024-04-11,2024-04-11,ワンスタープロダクト合同会社,,合同会社,東京都,大田区,山王２丁目５番６号ＳＡＮＮＯＢＲＩＤＧＥ,,13,111,1430023,,,,,,,2024-04-11,1,,,,,ワンスタープロダクト,0
2115,9011001161185,新規,0,2024-04-11,2024-04-11,株式会社ｒ’ｏｏ　ｐｌｕｓ,,株式会社,東京都,渋谷区,恵比寿１丁目８－６共同ビル２階,,13,113,1500013,,,,,,,2024-04-11,1,,,,,ループラス,0
2116,9011001161235,新規,0,2024-04-11,2024-04-11,ＢＣ株式会社,,株式会社,東京都,渋谷区,道玄坂１丁目１０番８号渋谷道玄坂東急ビル２Ｆ－Ｃ,,13,113,1500043,,,,,,,2024-04-11,1,,,,,ビーシー,0
2117,9011001161243,新規,0,2024-04-11,2024-04-11,株式会社２４４,,株式会社,東京都,渋谷区,鶯谷町１３番１－Ｈ４０１,,13,113,1500032,,,,,,,2024-04-11,1,,,,,ニーヨンヨン,0
2120,9011003018912,新規,0,2024-04-11,2024-04-11,合同会社南国,,合同会社,東京都,渋谷区,神宮前６丁目２３番４号桑野ビル２階,,13,113,1500001,,,,,,,2024-04-11,1,,,,,ナンゴク,0
2123,9011101106866,新規,0,2024-04-11,2024-04-11,株式会社Ｄｅｌｅｔｅ,,株式会社,東京都,新宿区,西新宿３丁目３番１３号西新宿水間ビル２Ｆ,,13,104,1600023,,,,,,,2024-04-11,1,,,,,デリート,0
2124,9011101106916,新規,0,2024-04-11,2024-04-11,吉盛商事株式会社,,株式会社,東京都,新宿区,歌舞伎町２丁目１９番１１－５０７号,,13,104,1600021,,,,,,,2024-04-11,1,,,,,ヨシモリショウジ,0
2127,9011301029561,新規,0,2024-04-11,2024-04-11,株式会社ｃａｎｂｅａｌｌ,,株式会社,東京都,杉並区,宮前３丁目３１番１７号シティテラス西荻窪２１３,,13,115,1680081,,,,,,,2024-04-11,1,,,,,キャンベル,0
2132,9011503006012,新規,0,2024-04-11,2024-04-11,五十里会計事務合同会社,,合同会社,東京都,北区,豊島３丁目９番１４号,,13,117,1140003,,,,,,,2024-04-11,1,,,,,イカリカイケイジム,0
2135,9011801044011,新規,0,2024-04-11,2024-04-11,株式会社ガトワークス,,株式会社,東京都,足立区,佐野２丁目２６番１１号,,13,121,1210053,,,,,,,2024-04-11,1,,,,,ガトワークス,0
2140,9012703002957,新規,0,2024-04-11,2024-04-11,合同会社Ｉ．ｄｅｓｉｇｎ,,合同会社,東京都,西東京市,東町５丁目９－２５,,13,229,2020012,,,,,,,2024-04-11,1,,,,,アイデザイン,0
2145,9020001049051,新規,0,2024-04-11,2024-04-11,株式会社関東物流,,株式会社,神奈川県,横浜市旭区,白根２丁目７番１０号,,14,112,2410005,,,,,,,2024-04-11,1,,,,,カントウブツリュウ,0
2151,9020001156566,新規,0,2024-04-11,2024-04-11,株式会社Ｐｒｏｘｉｍａ,,株式会社,神奈川県,横浜市中区,竹之丸１６番地６,,14,104,2310847,,,,,,,2024-04-11,1,,,,,プロキシマ,0
2152,9020001156649,新規,0,2024-04-11,2024-04-11,株式会社Ａｅｋｏ・Ｕｌｕ,,株式会社,神奈川県,横浜市戸塚区,深谷町１６４７番地１４２,,14,110,2450067,,,,,,,2024-04-11,1,,,,,アエコウル,0
2164,9030001159683,新規,0,2024-04-11,2024-04-11,株式会社テセア,,株式会社,埼玉県,さいたま市見沼区,深作１丁目３番地２７,,11,104,3370003,,,,,,,2024-04-11,1,,,,,テセア,0
2165,9030001159717,新規,0,2024-04-11,2024-04-11,株式会社ＰＲＯＭＩＮＥＮＣＥ,,株式会社,埼玉県,さいたま市見沼区,大字小深作２３２番地４,,11,104,3370005,,,,,,,2024-04-11,1,,,,,プロミネンス,0
2166,9030001159733,新規,0,2024-04-11,2024-04-11,株式会社ＮＳＴＥＣ,,株式会社,埼玉県,川越市,小仙波町２丁目１６番地６,,11,201,3500036,,,,,,,2024-04-11,1,,,,,エヌエステック,0
2173,9050003008275,新規,0,2024-04-11,2024-04-11,合同会社ＴＩＡＭＡ　ＪＡＰＡＮ　ＡＮＤ　ＬＡＮＫＡ,,合同会社,茨城県,筑西市,藤ケ谷１０９４番地,,08,227,3080112,,,,,,,2024-04-11,1,,,,,ティアマジャパンアンドランカ,0
2177,9060001036995,新規,0,2024-04-11,2024-04-11,株式会社森田城,,株式会社,栃木県,那須烏山市,森田１６４１,,09,215,3210514,,,,,,,2024-04-11,1,,,,,モリタジョウ,0
2182,9080003003174,新規,0,2024-04-11,2024-04-11,合同会社猫屋,,合同会社,静岡県,静岡市駿河区,大谷３丁目１０－１７,,22,102,4228017,,,,,,,2024-04-11,1,,,,,ネコヤ,0
2185,9080101024667,新規,0,2024-04-11,2024-04-11,株式会社ｈａｂｉｔ　ｌａｂ,,株式会社,静岡県,富士宮市,山本３６８番地の３,,22,207,4180023,,,,,,,2024-04-11,1,,,,,ハビットラボ,0
2190,9100001037345,新規,0,2024-04-11,2024-04-11,株式会社プロット,,株式会社,長野県,上高井郡小布施町,大字雁田６０５,,20,541,3810211,,,,,,,2024-04-11,1,,,,,プロット,0
2195,9120001263658,新規,0,2024-04-11,2024-04-11,吉昌株式会社,,株式会社,大阪府,大阪市北区,天神橋１丁目１９－１６、３階３０３号室,,27,127,5300041,,,,,,,2024-04-11,1,,,,,ヨシマサ,0
2196,9120001263971,新規,0,2024-04-11,2024-04-11,智園株式会社,,株式会社,大阪府,大阪市西成区,萩之茶屋２丁目８－３ハイツニューコンパ２１０号,,27,122,5570004,,,,,,,2024-04-11,1,,,,,チエン,0
2197,9120001264004,新規,0,2024-04-11,2024-04-11,ＵＴＯＰＩＡ株式会社,,株式会社,大阪府,大阪市都島区,内代町２丁目３－６吉松マンション２０１室,,27,102,5340013,,,,,,,2024-04-11,1,,,,,ユートピア,0
2199,9120003026328,新規,0,2024-04-11,2024-04-11,合同会社ＶＩＥ　Ｅｎｔｅｒｔａｉｎｍｅｎｔ,,合同会社,大阪府,枚方市,東香里２丁目２６番２４号,,27,210,5730075,,,,,,,2024-04-11,1,,,,,ブイアイイーエンターテイメント,0
2200,9120003026344,新規,0,2024-04-11,2024-04-11,瀧錫商事合同会社,,合同会社,大阪府,大阪市住吉区,万代東１丁目３番２２号メゾン東和１０７号室,,27,120,5580056,,,,,,,2024-04-11,1,,,,,ロウシショウジ,0
2201,9120003026377,新規,0,2024-04-11,2024-04-11,企業サポート合同会社,,合同会社,大阪府,大阪市中央区,玉造２丁目６番９号,,27,128,5400004,,,,,,,2024-04-11,1,,,,,キギョウサポート,0
2209,9120101069393,新規,0,2024-04-11,2024-04-11,株式会社ＣＯＣＯ　ＣＯＬＯＲ,,株式会社,大阪府,岸和田市,尾生町２丁目６番１５号,,27,202,5960816,,,,,,,2024-04-11,1,,,,,ココカラ,0
2217,9130001076794,新規,0,2024-04-11,2024-04-11,株式会社Ｙ’ｓ　Ｃ,,株式会社,京都府,亀岡市,東つつじケ丘曙台４丁目３３番１１号,,26,206,6210833,,,,,,,2024-04-11,1,,,,,ワイズシー,0
2219,9130005017068,新規,0,2024-04-11,2024-04-11,医療法人ＣＥＮＴＵＲＹ　ＰＬＡＮＴ,,その他の設立登記法人,京都府,京都市中京区,烏丸通蛸薬師下る手洗水町６６２番地メディアジョイＩＴビル５階,,26,104,6048152,,,,,,,2024-04-11,1,,,,,センチュリープラント,0
2223,9140001133941,新規,0,2024-04-11,2024-04-11,株式会社Ｌｅｇａｍｅ,,株式会社,兵庫県,西宮市,甲子園口３丁目３番９－３０４号,,28,204,6638113,,,,,,,2024-04-11,1,,,,,レガーメ,0
2224,9140001133966,新規,0,2024-04-11,2024-04-11,Ｗｈｉｔｅ　Ｆｉｅｌｄ株式会社,,株式会社,兵庫県,宝塚市,中筋山手２丁目６番１０号,,28,214,6650875,,,,,,,2024-04-11,1,,,,,ホワイトフィールド,0
2225,9140003020403,新規,0,2024-04-11,2024-04-11,ＦＰオフィスＴ＆Ｍ合同会社,,合同会社,兵庫県,加東市,ひろのが丘６番地２１,,28,228,6731432,,,,,,,2024-04-11,1,,,,,エフピーオフィスティーアンドエム,0
2249,9190001031265,新規,0,2024-04-11,2024-04-11,Ｅａ株式会社,,株式会社,三重県,三重郡川越町,大字亀崎新田５０番地６,,24,344,5108114,,,,,,,2024-04-11,1,,,,,エア,0
2251,9200001042392,新規,0,2024-04-11,2024-04-11,有名商会株式会社,,株式会社,岐阜県,岐阜市,折立８４０番地１ユニテ井上３０１,,21,201,5011132,,,,,,,2024-04-11,1,,,,,ユウメイショウカイ,0
2252,9200003006305,新規,0,2024-04-11,2024-04-11,合同会社Ｙ＆Ｍ,,合同会社,岐阜県,大垣市,中曽根町２番地２,,21,202,5030986,,,,,,,2024-04-11,1,,,,,ワイアンドエム,0
2253,9200005013588,新規,0,2024-04-11,2024-04-11,農事組合法人中野方第１部営農組合,,その他の設立登記法人,岐阜県,恵那市,中野方町６３８番地９,,21,210,5098231,,,,,,,2024-04-11,1,,,,,ナカノホウダイイチブエイノウクミアイ,0
2254,9220001025924,新規,0,2024-04-11,2024-04-11,株式会社クリーン・ウォーター・メカニズム,,株式会社,石川県,加賀市,弓波町８番地,,17,206,9220422,,,,,,,2024-04-11,1,,,,,クリーンウォーターメカニズム,0
2274,9290003015149,新規,0,2024-04-11,2024-04-11,合同会社樋口,00134382,合同会社,福岡県,福岡市東区,和白東４丁目４番２８号,,40,131,8110214,,,,,,,2024-04-11,1,,,,,ヒグチ,0
2278,9290005019362,新規,0,2024-04-11,2024-04-11,医療法人正明会,,その他の設立登記法人,福岡県,福岡市城南区,田島１丁目１５番５９号,,40,136,8140113,,,,,,,2024-04-11,1,,,,,マサアキカイ,0
2282,9290801030489,新規,0,2024-04-11,2024-04-11,株式会社Ｕテック,,株式会社,福岡県,北九州市小倉北区,馬借２丁目６番１１－１４０５号,,40,106,8020077,,,,,,,2024-04-11,1,,,,,ユーテック,0
2284,9300003002104,新規,0,2024-04-11,2024-04-11,久宝商貿合同会社,,合同会社,佐賀県,小城市,芦刈町永田２５４番地,,41,208,8490313,,,,,,,2024-04-11,1,,,,,キュウホウショウボウ,0
2286,9310001018951,新規,0,2024-04-11,2024-04-11,株式会社慎,,株式会社,長崎県,諫早市,飯盛町里２２３６番地１,,42,204,8541123,,,,,,,2024-04-11,1,,,,,シン,0
2288,9320003004338,新規,0,2024-04-11,2024-04-11,掌リターニング合同会社,,合同会社,大分県,大分市,原新町１４番１６号ＢＧ原新町１０２,,44,201,8700912,,,,,,,2024-04-11,1,,,,,タナゴコロリターニング,0
2293,9340005009721,新規,0,2024-04-11,2024-04-11,一般社団法人さくらオンライン日本語補習校,,その他の設立登記法人,鹿児島県,鹿児島市,城南町７番２９号グランディール大木４０５号,,46,201,8920835,,,,,,,2024-04-11,1,,,,,サクラオンラインニホンゴホシュウコウ,0
2299,9360001033500,新規,0,2024-04-11,2024-04-11,株式会社ＡＮＥＭＯＮＥ,,株式会社,沖縄県,島尻郡久米島町,字比屋定１４４番地,,47,361,9013102,,,,,,,2024-04-11,1,,,,,アネモネ,0
2301,9360003013888,新規,0,2024-04-11,2024-04-11,合同会社ＯＫＩＮＡＷＡ,,合同会社,沖縄県,うるま市,字喜屋武１０６番地１３－２Ｆ,,47,213,9042225,,,,,,,2024-04-11,1,,,,,オキナワ,0
2319,9490005006935,新規,0,2024-04-11,2024-04-11,医療法人夕凪会,,その他の設立登記法人,高知県,高知市,桟橋通３丁目１番２２号,,39,201,7818010,,,,,,,2024-04-11,1,,,,,ユウナギカイ,0
2320,9500001025540,新規,0,2024-04-11,2024-04-11,株式会社ユライト,,株式会社,愛媛県,四国中央市,妻鳥町１０１２番地３,,38,213,7990113,,,,,,,2024-04-11,1,,,,,ユライト,0
2323,9500003003222,新規,0,2024-04-11,2024-04-11,合同会社ヱビス珈琲,,合同会社,愛媛県,松山市,正円寺２丁目４番６号,,38,201,7900904,,,,,,,2024-04-11,1,,,,,エビスコーヒー,0
