sequenceNumber,corporateNumber,process,correct,updateDate,changeDate,name,nameImageId,kind,prefectureName,cityName,streetNumber,addressImageId,prefectureCode,cityCode,postCode,addressOutside,addressOutsideImageId,closeDate,closeCause,successorCorporateNumber,changeCause,assignmentDate,latest,enName,enPrefectureName,enCityName,enAddressOutside,furigana,hihyoji
13,1010001231229,新規,0,2022-12-02,2022-12-02,株式会社きずなグループ,,株式会社,東京都,千代田区,神田小川町１丁目８番地３,,13,101,1010052,,,,,,,2022-12-02,1,,,,,キズナグループ,0
19,1010401171116,新規,0,2022-12-02,2022-12-02,株式会社レアル,,株式会社,東京都,港区,海岸１丁目１番１号アクティ汐留２８０３号,,13,103,1050022,,,,,,,2022-12-02,1,,,,,レアル,0
20,1010401171149,新規,0,2022-12-02,2022-12-02,株式会社ゼットリンク,,株式会社,東京都,港区,虎ノ門１丁目１７番１号虎ノ門ヒルズビジネスタワー１５階,,13,103,1050001,,,,,,,2022-12-02,1,,,,,ゼットリンク,0
25,1010405021622,新規,0,2022-12-02,2022-12-02,弁護士法人シティクロス,,その他の設立登記法人,東京都,港区,西新橋１丁目６－１２アイオス虎ノ門９０１,,13,103,1050003,,,,,,,2022-12-02,1,,,,,シティクロス,0
26,1010601062239,新規,0,2022-12-02,2022-12-02,美錦投資株式会社,,株式会社,東京都,江東区,豊洲５丁目６番２９－１４３４号,,13,108,1350061,,,,,,,2022-12-02,1,,,,,ビキントウシ,0
28,1010603009873,新規,0,2022-12-02,2022-12-02,合同会社なしたま,,合同会社,東京都,墨田区,本所２丁目１４－１２－３０３,,13,107,1300004,,,,,,,2022-12-02,1,,,,,ナシタマ,0
29,1010701043551,新規,0,2022-12-02,2022-12-02,株式会社Ｕスタジオ,,株式会社,東京都,品川区,西品川２丁目１０番１５号,,13,109,1410033,,,,,,,2022-12-02,1,,,,,ユースタジオ,0
30,1010701043568,新規,0,2022-12-02,2022-12-02,株式会社碧,,株式会社,東京都,品川区,上大崎２丁目２１番１３号東高目黒ペアシティ６０２,,13,109,1410021,,,,,,,2022-12-02,1,,,,,アオイ,0
31,1010801033460,新規,0,2022-12-02,2022-12-02,株式会社Ｕ２Ｕ,,株式会社,東京都,大田区,南六郷２丁目３５番１号,,13,111,1440045,,,,,,,2022-12-02,1,,,,,ユーツーユー,0
35,1010901052096,新規,0,2022-12-02,2022-12-02,株式会社ＡＬＦＡＺＢＥＴ,,株式会社,東京都,世田谷区,代沢４丁目４０－１０－Ｅ,,13,112,1550032,,,,,,,2022-12-02,1,,,,,アルファズベット,0
44,1011005009859,新規,0,2022-12-02,2022-12-02,特定非営利活動法人教育の環,,その他の設立登記法人,東京都,目黒区,下目黒２丁目２２－１７ＡＤビル４０２号室,,13,110,1530064,,,,,,,2022-12-02,1,,,,,キョウイクノワ,0
45,1011101101008,新規,0,2022-12-02,2022-12-02,峰杭商事株式会社,,株式会社,東京都,新宿区,北新宿３丁目２番１６－１２０３号シャンボール北新宿,,13,104,1690074,,,,,,,2022-12-02,1,,,,,ホウコウショウジ,0
46,1011101101040,新規,0,2022-12-02,2022-12-02,株式会社哲枝会,,株式会社,東京都,新宿区,西新宿３丁目３番１３号西新宿水間ビル２Ｆ,,13,104,1600023,,,,,,,2022-12-02,1,,,,,テツエカイ,0
49,1011303004594,新規,0,2022-12-02,2022-12-02,アドバイザース合同会社,,合同会社,東京都,杉並区,高円寺南１丁目９―８―３０２,,13,115,1660003,,,,,,,2022-12-02,1,,,,,アドバイザース,0
60,1011703003287,新規,0,2022-12-02,2022-12-02,ＴＯＫＹＯ　ＨＩＫＡＲＩ合同会社,,合同会社,東京都,江戸川区,松島１丁目１８番１６号,,13,123,1320031,,,,,,,2022-12-02,1,,,,,トウキョウヒカリ,0
61,1011801041627,新規,0,2022-12-02,2022-12-02,優米東亜株式会社,,株式会社,東京都,足立区,西新井本町５丁目２番４－１０２号,,13,121,1230845,,,,,,,2022-12-02,1,,,,,ユウマイトウア,0
63,1012701017378,新規,0,2022-12-02,2022-12-02,株式会社もがみ不動産,,株式会社,東京都,小平市,津田町１丁目１８番３０号,,13,211,1870025,,,,,,,2022-12-02,1,,,,,モガミフドウサン,0
69,1020001149214,新規,0,2022-12-02,2022-12-02,西田商事株式会社,,株式会社,神奈川県,川崎市幸区,小向西町４丁目２１番地,,14,132,2120004,,,,,,,2022-12-02,1,,,,,ニシダショウジ,0
70,1020001149230,新規,0,2022-12-02,2022-12-02,株式会社ブログチェーン,,株式会社,神奈川県,横浜市神奈川区,鶴屋町２丁目９番地７号グローリア初穂横浜３０８,,14,102,2210835,,,,,,,2022-12-02,1,,,,,ブログチェーン,0
71,1020001149247,新規,0,2022-12-02,2022-12-02,株式会社良製,,株式会社,神奈川県,横浜市西区,境之谷１０１番地１９,,14,103,2200054,,,,,,,2022-12-02,1,,,,,リョウセイ,0
72,1020001149255,新規,0,2022-12-02,2022-12-02,株式会社ｎｏｐｉｒｏ,,株式会社,神奈川県,横浜市戸塚区,平戸町８２番地４,,14,110,2440803,,,,,,,2022-12-02,1,,,,,ノピロ,0
73,1020001149263,新規,0,2022-12-02,2022-12-02,株式会社カメリアブラン,,株式会社,神奈川県,横浜市港南区,日限山１丁目６５番５号,,14,111,2330015,,,,,,,2022-12-02,1,,,,,カメリアブラン,0
74,1020001149271,新規,0,2022-12-02,2022-12-02,株式会社ＳｅｌｆｉｓｈＬａｂ,,株式会社,神奈川県,横浜市南区,白妙町３丁目３６番地ガーデンプラザ横浜南６０１,,14,105,2320023,,,,,,,2022-12-02,1,,,,,セルフィッシュラボ,0
86,1030001151292,新規,0,2022-12-02,2022-12-02,株式会社ＴＫパンガラップ,,株式会社,埼玉県,大里郡寄居町,大字西ノ入３９２番地５,,11,408,3691225,,,,,,,2022-12-02,1,,,,,ティーケーパンガラップ,0
87,1030001151301,新規,0,2022-12-02,2022-12-02,熊谷子育て支援・保健拠点施設株式会社,,株式会社,埼玉県,熊谷市,江南中央２丁目１７番１号,,11,202,3600114,,,,,,,2022-12-02,1,,,,,クマガヤコソダテシエンホケンキョテンシセツ,0
88,1030001151342,新規,0,2022-12-02,2022-12-02,株式会社ｍｏｃｃａ,,株式会社,埼玉県,さいたま市大宮区,宮町２丁目９３－２（２Ｆ－０７）,,11,103,3300802,,,,,,,2022-12-02,1,,,,,モッカ,0
90,1030003020669,新規,0,2022-12-02,2022-12-02,合同会社真聖興業,,合同会社,埼玉県,羽生市,大字喜右エ門新田３８２番地,,11,216,3480014,,,,,,,2022-12-02,1,,,,,シンセイコウギョウ,0
91,1030003020685,新規,0,2022-12-02,2022-12-02,合同会社リハ・クリエイティブ,,合同会社,埼玉県,さいたま市南区,鹿手袋５丁目１－２２第一寺尾マンション１０２,,11,108,3360031,,,,,,,2022-12-02,1,,,,,リハクリエイティブ,0
92,1030005021087,新規,0,2022-12-02,2022-12-02,一般社団法人元気グループ,,その他の設立登記法人,埼玉県,さいたま市大宮区,桜木町１丁目１１番地９,,11,103,3300854,,,,,,,2022-12-02,1,,,,,ゲンキグループ,0
102,1040001126070,新規,0,2022-12-02,2022-12-02,株式会社田村建設,,株式会社,千葉県,千葉市中央区,塩田町６３１番地,,12,101,2600823,,,,,,,2022-12-02,1,,,,,タムラケンセツ,0
103,1040001126087,新規,0,2022-12-02,2022-12-02,石川国際コンサルティング株式会社,,株式会社,千葉県,千葉市美浜区,真砂４丁目４番１３,,12,106,2610011,,,,,,,2022-12-02,1,,,,,イシカワコクサイコンサルティング,0
111,1050003007061,新規,0,2022-12-02,2022-12-02,Ｄ＆Ｄ　Ｓｔａｒ合同会社,,合同会社,茨城県,稲敷市,羽賀２２６７番地１－３号棟,,08,229,3000525,,,,,,,2022-12-02,1,,,,,ディーアンドディースター,0
114,1060001035492,新規,0,2022-12-02,2022-12-02,株式会社ワタナベ農園,,株式会社,栃木県,鹿沼市,藤江町１２４１番地,,09,205,3220532,,,,,,,2022-12-02,1,,,,,ワタナベノウエン,0
120,1080001025319,新規,0,2022-12-02,2022-12-02,株式会社福林,,株式会社,静岡県,静岡市清水区,八木間町４１５－１１八木間ビル３階,,22,103,4240212,,,,,,,2022-12-02,1,,,,,フクリン,0
121,1080001025327,新規,0,2022-12-02,2022-12-02,テクノリンク株式会社,,株式会社,静岡県,牧之原市,細江３０３１番地５,,22,226,4210421,,,,,,,2022-12-02,1,,,,,テクノリンク,0
123,1080101023668,新規,0,2022-12-02,2022-12-02,株式会社ＭＥＧ’Ｓ　ＦＩＴＮＥＳＳ,,株式会社,静岡県,三島市,富田町１番２号,,22,206,4110836,,,,,,,2022-12-02,1,,,,,メグズフィットネス,0
127,1090001017868,新規,0,2022-12-02,2022-12-02,株式会社オーネクスト,,株式会社,山梨県,南巨摩郡南部町,万沢４２３０－１１,,19,366,4092103,,,,,,,2022-12-02,1,,,,,オーネクスト,0
129,1100001035918,新規,0,2022-12-02,2022-12-02,三澤興業株式会社,,株式会社,長野県,安曇野市,三郷小倉５５番地２,,20,220,3998103,,,,,,,2022-12-02,1,,,,,ミサワコウギョウ,0
130,1100003006801,新規,0,2022-12-02,2022-12-02,合同会社トライル,,合同会社,長野県,長野市,大字三輪１２５２番地５柳町コーポラス４０３号,,20,201,3800803,,,,,,,2022-12-02,1,,,,,トライル,0
131,1110001037153,新規,0,2022-12-02,2022-12-02,株式会社ＣＲＯＣＯ,,株式会社,新潟県,新潟市中央区,天神１丁目１番地プラーカ３,,15,103,9500917,,,,,,,2022-12-02,1,,,,,クロコ,0
139,1120001250655,新規,0,2022-12-02,2022-12-02,向陽株式会社,,株式会社,大阪府,大阪市東成区,大今里西３丁目２－２９・１Ｆ・１０３号室,,27,115,5370014,,,,,,,2022-12-02,1,,,,,コウヨウ,0
140,1120001250663,新規,0,2022-12-02,2022-12-02,まるけん株式会社,,株式会社,大阪府,大阪市生野区,生野東２丁目７番２６号,,27,116,5440025,,,,,,,2022-12-02,1,,,,,マルケン,0
141,1120001250713,新規,0,2022-12-02,2022-12-02,株式会社ハッピーエース,,株式会社,大阪府,大阪市住之江区,東加賀屋１丁目１番３２－１４０１号,,27,125,5590012,,,,,,,2022-12-02,1,,,,,ハッピーエース,0
142,1120001250721,新規,0,2022-12-02,2022-12-02,株式会社Ａ’ｚ建築工房,,株式会社,大阪府,守口市,東郷通３丁目９番８号,,27,209,5700041,,,,,,,2022-12-02,1,,,,,エーゼットケンチクコウボウ,0
144,1120003022978,新規,0,2022-12-02,2022-12-02,ＬＩＮＨ　ＡＮＨ合同会社,,合同会社,大阪府,大阪市生野区,新今里３丁目８番１７号ラ・フォンテ今里２０２号室,,27,116,5440001,,,,,,,2022-12-02,1,,,,,リンアン,0
145,1120003023010,新規,0,2022-12-02,2022-12-02,ブリングアドバイザリー合同会社,,合同会社,大阪府,大阪市北区,天満橋１丁目２番３－１４０２号,,27,127,5300042,,,,,,,2022-12-02,1,,,,,ブリングアドバイザリー,0
150,1120103004950,新規,0,2022-12-02,2022-12-02,合同会社清美,,合同会社,大阪府,和泉市,緑ケ丘２丁目１４－２,,27,219,5941155,,,,,,,2022-12-02,1,,,,,セイビ,0
154,1120903004365,新規,0,2022-12-02,2022-12-02,合同会社フェリーチェ,,合同会社,大阪府,豊中市,東豊中町６丁目２０－１８,,27,203,5600003,,,,,,,2022-12-02,1,,,,,フェリーチェ,0
155,1120903004398,新規,0,2022-12-02,2022-12-02,合同会社ＢＡＮＣＡＴ,,合同会社,大阪府,池田市,栄本町２番７－９０３号,,27,204,5630058,,,,,,,2022-12-02,1,,,,,バンキャット,0
168,1140001128239,新規,0,2022-12-02,2022-12-02,Ｂ‐Ｔｉｍｅｚ株式会社,,株式会社,兵庫県,神戸市長田区,菅原通１丁目６８番地,,28,106,6530015,,,,,,,2022-12-02,1,,,,,ビータイムズ,0
169,1140001128247,新規,0,2022-12-02,2022-12-02,株式会社ＭＩＲＡＩ,,株式会社,兵庫県,神戸市垂水区,乙木１丁目５番７号,,28,108,6550882,,,,,,,2022-12-02,1,,,,,ミライ,0
170,1140001128288,新規,0,2022-12-02,2022-12-02,株式会社Ｓｕｂｓｃｈｉｖｅ,,株式会社,兵庫県,神戸市兵庫区,吉田町１丁目１－３御崎グリーンマンション５１１号,,28,105,6520872,,,,,,,2022-12-02,1,,,,,サブスカイブ,0
182,1180001154009,新規,0,2022-12-02,2022-12-02,株式会社８・ｃｌｕｂ,,株式会社,愛知県,稲沢市,平和町塩川２２６番地１,,23,220,4901323,,,,,,,2022-12-02,1,,,,,エイトクラブ,0
183,1180001154025,新規,0,2022-12-02,2022-12-02,株式会社ＴＨＥ　ＡＦＲＩＣＡＮ　ＢＲＯＴＨＥＲＳ,,株式会社,愛知県,名古屋市緑区,鳴海町字作町２７番地の２,,23,114,4580801,,,,,,,2022-12-02,1,,,,,ザアフリカンブラザーズ,0
188,1180301036880,新規,0,2022-12-02,2022-12-02,株式会社ソーイング浅田,,株式会社,愛知県,高浜市,田戸町２丁目１番地２２,,23,227,4441323,,,,,,,2022-12-02,1,,,,,ソーイングアサダ,0
189,1190001029969,新規,0,2022-12-02,2022-12-02,株式会社ヤマトミコーポレーション,,株式会社,三重県,四日市市,川島町５９３０番地８３,,24,202,5120934,,,,,,,2022-12-02,1,,,,,ヤマトミコーポレーション,0
190,1190001029977,新規,0,2022-12-02,2022-12-02,株式会社古田工業,,株式会社,三重県,亀山市,安知本町２０１３番地１,,24,210,5190143,,,,,,,2022-12-02,1,,,,,フルタコウギョウ,0
191,1190001029985,新規,0,2022-12-02,2022-12-02,株式会社エムアイイージャパン,,株式会社,三重県,松阪市,丹生寺町９０７番地３０,,24,204,5150832,,,,,,,2022-12-02,1,,,,,エムアイイージャパン,0
194,1220001025155,新規,0,2022-12-02,2022-12-02,株式会社モデナレンタカー,,株式会社,石川県,金沢市,広岡１丁目１１番６号,,17,201,9200031,,,,,,,2022-12-02,1,,,,,モデナレンタカー,0
203,1250001019864,新規,0,2022-12-02,2022-12-02,株式会社ＦｏｕｒＥｉｇｈｔ,,株式会社,山口県,宇部市,大字中山１０６２－９ポエム中山３０２号,,35,202,7550058,,,,,,,2022-12-02,1,,,,,フォーエイト,0
208,1270001008675,新規,0,2022-12-02,2022-12-02,株式会社シーケイ・クリエイト,,株式会社,鳥取県,東伯郡北栄町,国坂７２８番地５,,31,372,6892102,,,,,,,2022-12-02,1,,,,,シーケイクリエイト,0
209,1280001008831,新規,0,2022-12-02,2022-12-02,株式会社Ｍｓｅａｓｏｎ,,株式会社,島根県,出雲市,駅北町１番地,,32,203,6930007,,,,,,,2022-12-02,1,,,,,エムシーズン,0
211,1290001099754,新規,0,2022-12-02,2022-12-02,株式会社タクス,,株式会社,福岡県,福岡市東区,下原２丁目３５番５号,,40,131,8130002,,,,,,,2022-12-02,1,,,,,タクス,0
212,1290001099762,新規,0,2022-12-02,2022-12-02,株式会社おうちハピネスはなまる,,株式会社,福岡県,福岡市中央区,天神２丁目３－１０,,40,133,8100001,,,,,,,2022-12-02,1,,,,,オウチハピネスハナマル,0
213,1290001099779,新規,0,2022-12-02,2022-12-02,株式会社ＩＬＥ　Ｃｏｎｎｅｃｔ,,株式会社,福岡県,福岡市南区,五十川２丁目２４番２４号,,40,134,8150001,,,,,,,2022-12-02,1,,,,,イルコネクト,0
214,1290003013259,新規,0,2022-12-02,2022-12-02,合同会社まるて,,合同会社,福岡県,福岡市博多区,博多駅前１丁目２３番１号ＰａｒｋＦｒｏｎｔ博多駅前一丁目５Ｆ－Ｂ,,40,132,8120011,,,,,,,2022-12-02,1,,,,,マルテ,0
215,1290003013283,新規,0,2022-12-02,2022-12-02,合同会社ＨａｊｉｍＥ,,合同会社,福岡県,福岡市中央区,平尾５丁目８番３６－２０１号,,40,133,8100014,,,,,,,2022-12-02,1,,,,,ハジメ,0
220,1290801029084,新規,0,2022-12-02,2022-12-02,株式会社ＧＩＤＡＲＩＭ,,株式会社,福岡県,北九州市小倉北区,堺町２丁目３－３０－３０２,,40,106,8020005,,,,,,,2022-12-02,1,,,,,ギダリム,0
221,1290801029101,新規,0,2022-12-02,2022-12-02,株式会社エスケイ,,株式会社,福岡県,北九州市小倉南区,葛原高松１丁目１番４０号（１０１）,,40,107,8000252,,,,,,,2022-12-02,1,,,,,エスケイ,0
235,1320001019444,新規,0,2022-12-02,2022-12-02,株式会社照麻,,株式会社,大分県,別府市,弓ケ浜町３番３５号,,44,202,8740927,,,,,,,2022-12-02,1,,,,,ショウマ,0
238,1330001030350,新規,0,2022-12-02,2022-12-02,株式会社ＫＳ工業,,株式会社,熊本県,熊本市中央区,黒髪５丁目２７番２号エスペランサＮ３０２,,43,101,8600862,,,,,,,2022-12-02,1,,,,,ケイエスコウギョウ,0
239,1330001030359,新規,0,2022-12-02,2022-12-02,株式会社吉本水産,,株式会社,熊本県,宇城市,三角町戸馳６７５７番地３,,43,213,8693203,,,,,,,2022-12-02,1,,,,,ヨシモトスイサン,0
243,1350001018055,新規,0,2022-12-02,2022-12-02,株式会社ｆ＆ｆ,,株式会社,宮崎県,都城市,高木町４１９７番地１,,45,202,8850003,,,,,,,2022-12-02,1,,,,,エフアンドエフ,0
249,1380001033299,新規,0,2022-12-02,2022-12-02,マルワビジネス株式会社,,株式会社,福島県,福島市,野田町３丁目４番２５－１号,,07,201,9608055,,,,,,,2022-12-02,1,,,,,マルワビジネス,0
252,1400003003000,新規,0,2022-12-02,2022-12-02,シャインビーチ合同会社,,合同会社,岩手県,北上市,さくら通り５丁目１０番３８号,,03,206,0240084,,,,,,,2022-12-02,1,,,,,シャインビーチ,0
257,1420001018089,新規,0,2022-12-02,2022-12-02,藤権産業株式会社,,株式会社,青森県,青森市,大字安田字近野３８４番地１,,02,201,0380021,,,,,,,2022-12-02,1,,,,,トウケンサンギョウ,0
268,1500001024624,新規,0,2022-12-02,2022-12-02,株式会社善工業,,株式会社,愛媛県,今治市,別宮町６丁目４番７号セレーノ別宮１０５,,38,202,7940026,,,,,,,2022-12-02,1,,,,,ゼンコウギョウ,0
276,2010001231236,新規,0,2022-12-02,2022-12-02,株式会社ドゥポイントクリエイションズ,,株式会社,東京都,中央区,新川１丁目６番１１号ニューリバータワー,,13,102,1040033,,,,,,,2022-12-02,1,,,,,ドゥポイントクリエイションズ,0
277,2010001231269,新規,0,2022-12-02,2022-12-02,株式会社トライゼン・コンサルティング,,株式会社,東京都,中央区,銀座７丁目１３番２０号銀座ＴＨビル９階,,13,102,1040061,,,,,,,2022-12-02,1,,,,,トライゼンコンサルティング,0
280,2010005035848,新規,0,2022-12-02,2022-12-02,一般社団法人日本アニカナ業協会,,その他の設立登記法人,東京都,千代田区,六番町３－４,,13,101,1020085,,,,,,,2022-12-02,1,,,,,ニホンアニカナギョウキョウカイ,0
287,2010401171131,新規,0,2022-12-02,2022-12-02,株式会社ｎｅｕ,,株式会社,東京都,港区,六本木４丁目５番３号,,13,103,1060032,,,,,,,2022-12-02,1,,,,,ニュー,0
289,2010403029063,新規,0,2022-12-02,2022-12-02,合同会社全国港湾サービス,,合同会社,東京都,港区,南青山２丁目２番１５号,,13,103,1070062,,,,,,,2022-12-02,1,,,,,ゼンコクコウワンサービス,0
291,2010405021638,新規,0,2022-12-02,2022-12-02,一般社団法人ライズツー,,その他の設立登記法人,東京都,港区,虎ノ門３丁目２２番１０－２０１号,,13,103,1050001,,,,,,,2022-12-02,1,,,,,ライズツー,0
296,2010601062238,新規,0,2022-12-02,2022-12-02,栄利株式会社,,株式会社,東京都,墨田区,両国２丁目１７番１７号両国ダイヤハイツ２０２－Ｉ,,13,107,1300026,,,,,,,2022-12-02,1,,,,,エイリ,0
298,2010701043501,新規,0,2022-12-02,2022-12-02,ＢＭＮインターナショナル株式会社,,株式会社,東京都,品川区,東五反田５丁目１２番１号,,13,109,1410022,,,,,,,2022-12-02,1,,,,,ビーエムエヌインターナショナル,0
299,2010701043550,新規,0,2022-12-02,2022-12-02,株式会社４５ｇ　Ｐｈｏｔｏｇｒａｐｈｙ,,株式会社,東京都,品川区,中延１丁目１番２２号,,13,109,1420053,,,,,,,2022-12-02,1,,,,,ヨンゴージーフォトグラフィー,0
300,2010701043559,新規,0,2022-12-02,2022-12-02,株式会社ＲＥＮＴＯＷＮ,,株式会社,東京都,品川区,戸越５丁目４番３号アズ品川ビル４階３４号,,13,109,1420041,,,,,,,2022-12-02,1,,,,,レンタウン,0
301,2010701043567,新規,0,2022-12-02,2022-12-02,ＯＤＹＳＣＩ株式会社,,株式会社,東京都,品川区,北品川１丁目２０番９号ＦＯＲＥＣＡＳＴ品川３階,,13,109,1400001,,,,,,,2022-12-02,1,,,,,オディシー,0
302,2010703006497,新規,0,2022-12-02,2022-12-02,合同会社ポジティブライフデザイン,,合同会社,東京都,品川区,西五反田１丁目１３番７－５０３号,,13,109,1410031,,,,,,,2022-12-02,1,,,,,ポジティブライフデザイン,0
312,2010903007808,新規,0,2022-12-02,2022-12-02,合同会社Ｋ．Ｏ．Ｈ,,合同会社,東京都,世田谷区,深沢４丁目２８番２号ワイズ深沢２０１,,13,112,1580081,,,,,,,2022-12-02,1,,,,,ケーオーエイチ,0
315,2011001151242,新規,0,2022-12-02,2022-12-02,株式会社デジタル療育研究所,,株式会社,東京都,目黒区,柿の木坂２丁目２９番７号,,13,110,1520022,,,,,,,2022-12-02,1,,,,,デジタルリョウイクケンキュウショ,0
316,2011001151259,新規,0,2022-12-02,2022-12-02,株式会社ハンバーグ食べたい,,株式会社,東京都,渋谷区,宇田川町３６番地１９サーティー宇田川３階,,13,113,1500042,,,,,,,2022-12-02,1,,,,,ハンバーグタベタイ,0
318,2011003015817,新規,0,2022-12-02,2022-12-02,ＴＳＢ　Ｊａｐａｎ合同会社,,合同会社,東京都,渋谷区,道玄坂１丁目１０番８号,,13,113,1500043,,,,,,,2022-12-02,1,,,,,ティーエスビージャパン,0
319,2011003015833,新規,0,2022-12-02,2022-12-02,合同会社タシキ,,合同会社,東京都,渋谷区,上原２丁目１７番２号ＡｃｈｔＩｎｓｅｌｎ２０１,,13,113,1510064,,,,,,,2022-12-02,1,,,,,タシキ,0
321,2011101101031,新規,0,2022-12-02,2022-12-02,株式会社ＳＸイノベーション・パートナーズ,,株式会社,東京都,新宿区,揚場町１番２１号,,13,104,1620824,,,,,,,2022-12-02,1,,,,,エスエックスイノベーションパートナーズ,0
326,2011303004585,新規,0,2022-12-02,2022-12-02,合同会社Ｊ３,,合同会社,東京都,杉並区,西荻南２丁目２９番１２号トノブール西荻２１３,,13,115,1670053,,,,,,,2022-12-02,1,,,,,,0
329,2011403003834,新規,0,2022-12-02,2022-12-02,合同会社メタルキング,,合同会社,東京都,板橋区,大谷口上町４１番２号ハウス茜２０２,,13,119,1730032,,,,,,,2022-12-02,1,,,,,メタルキング,0
332,2011703003303,新規,0,2022-12-02,2022-12-02,合同会社ＨｏｎｅｙＫ,,合同会社,東京都,江戸川区,南小岩７丁目２２番１４号リベーロ平和１－４０３,,13,123,1330056,,,,,,,2022-12-02,1,,,,,ハニーケー,0
335,2012703002591,新規,0,2022-12-02,2022-12-02,合同会社Ｋ’ｓＡ,,合同会社,東京都,東村山市,恩多町５丁目３７番地４５,,13,213,1890011,,,,,,,2022-12-02,1,,,,,ケーズエー,0
339,2013301050025,新規,0,2022-12-02,2022-12-02,株式会社アールイズウェル,,株式会社,東京都,豊島区,東池袋１丁目１７番３号ウェルシャン池袋１０１号室,,13,116,1700013,,,,,,,2022-12-02,1,,,,,アールイズウェル,0
349,2020001149213,新規,0,2022-12-02,2022-12-02,株式会社阿部建設,,株式会社,神奈川県,川崎市多摩区,宿河原１丁目２２番５８号,,14,135,2140021,,,,,,,2022-12-02,1,,,,,アベケンセツ,0
350,2020001149254,新規,0,2022-12-02,2022-12-02,株式会社ｋ３‐ｍｏｍｍｙ,,株式会社,神奈川県,川崎市中原区,上小田中６丁目４６番４号,,14,133,2110053,,,,,,,2022-12-02,1,,,,,ケイスリーマミー,0
351,2020001149262,新規,0,2022-12-02,2022-12-02,瀚田株式会社,,株式会社,神奈川県,横浜市神奈川区,六角橋５丁目３２番３号,,14,102,2210802,,,,,,,2022-12-02,1,,,,,カンダ,0
352,2020001149270,新規,0,2022-12-02,2022-12-02,株式会社ＣｏＴｏＦｕ,,株式会社,神奈川県,川崎市中原区,上丸子山王町２丁目１３２８番地,,14,133,2110002,,,,,,,2022-12-02,1,,,,,コトフ,0
361,2021001077602,新規,0,2022-12-02,2022-12-02,株式会社湘嵐,,株式会社,神奈川県,高座郡寒川町,岡田４丁目１９番４号Ａ２０１,,14,321,2530105,,,,,,,2022-12-02,1,,,,,ショウラン,0
362,2021001077610,新規,0,2022-12-02,2022-12-02,株式会社リアン,,株式会社,神奈川県,横須賀市,三春町２丁目３番２０,,14,201,2380014,,,,,,,2022-12-02,1,,,,,リアン,0
369,2021003012441,新規,0,2022-12-02,2022-12-02,天使の樹合同会社,,合同会社,神奈川県,相模原市中央区,淵野辺２丁目１１番１１号,,14,152,2520206,,,,,,,2022-12-02,1,,,,,テンシノキ,0
372,2030001151283,新規,0,2022-12-02,2022-12-02,ホープ株式会社,,株式会社,埼玉県,さいたま市南区,南浦和２丁目３６番１６号田中ビル４０７号,,11,108,3360017,,,,,,,2022-12-02,1,,,,,ホープ,0
373,2030001151291,新規,0,2022-12-02,2022-12-02,株式会社Ｄ‐ＣＥＴＥＲＡ,,株式会社,埼玉県,さいたま市大宮区,桜木町２丁目３番地,,11,103,3300854,,,,,,,2022-12-02,1,,,,,ディーセトラ,0
379,2030003020651,新規,0,2022-12-02,2022-12-02,合同会社フロフロ,,合同会社,埼玉県,吉川市,大字三輪野江１１０６番地２,,11,243,3420027,,,,,,,2022-12-02,1,,,,,フロフロ,0
380,2030003020668,新規,0,2022-12-02,2022-12-02,ビズ・ライト合同会社,,合同会社,埼玉県,さいたま市大宮区,桜木町２丁目４４６番地４１６,,11,103,3300854,,,,,,,2022-12-02,1,,,,,ビズライト,0
381,2030003020676,新規,0,2022-12-02,2022-12-02,合同会社小林,,合同会社,埼玉県,川越市,清水町１４－５－３０１,,11,201,3501145,,,,,,,2022-12-02,1,,,,,コバヤシ,0
386,2040001126061,新規,0,2022-12-02,2022-12-02,株式会社尖端浪漫製作堂,,株式会社,千葉県,市原市,ちはら台西１丁目２６番地５８,,12,219,2900143,,,,,,,2022-12-02,1,,,,,モダンロマンセイサクドウ,0
388,2040003021384,新規,0,2022-12-02,2022-12-02,合同会社キャリア,,合同会社,千葉県,柏市,若柴１番地２１,,12,217,2770871,,,,,,,2022-12-02,1,,,,,キャリア,0
390,2050005013180,新規,0,2022-12-02,2022-12-02,特定非営利活動法人ひたちみなみスポーツクラブ,,その他の設立登記法人,茨城県,日立市,久慈町７丁目１番１号,,08,202,3191222,,,,,,,2022-12-02,1,,,,,ヒタチミナミスポーツクラブ,0
392,2060001035491,新規,0,2022-12-02,2022-12-02,株式会社Ｋ’ｚインテリア,,株式会社,栃木県,芳賀郡市貝町,大字市塙４０５４番地１８,,09,344,3213423,,,,,,,2022-12-02,1,,,,,ケイズインテリア,0
393,2060001035500,新規,0,2022-12-02,2022-12-02,株式会社ミライズ,,株式会社,栃木県,佐野市,天神町７７６番７号棟,,09,204,3270847,,,,,,,2022-12-02,1,,,,,ミライズ,0
401,2080001025326,新規,0,2022-12-02,2022-12-02,株式会社シズメイ,,株式会社,静岡県,静岡市駿河区,中島８５３番地の２,,22,102,4228046,,,,,,,2022-12-02,1,,,,,シズメイ,0
407,2110001037144,新規,0,2022-12-02,2022-12-02,株式会社サナダ,,株式会社,新潟県,新潟市西区,赤塚４２８５番地,,15,107,9502261,,,,,,,2022-12-02,1,,,,,サナダ,0
409,2110003004927,新規,0,2022-12-02,2022-12-02,きのすい合同会社,,合同会社,新潟県,佐渡市,三瀬川３８２,,15,224,9521204,,,,,,,2022-12-02,1,,,,,キノスイ,0
423,2120001250704,新規,0,2022-12-02,2022-12-02,フジアンドチェリーグループ準備会社株式会社,,株式会社,大阪府,大阪市淀川区,西中島６丁目９番２７号,,27,123,5320011,,,,,,,2022-12-02,1,,,,,フジアンドチェリーグループジュンビガイシャ,0
424,2120001250712,新規,0,2022-12-02,2022-12-02,＿洛株式会社,00128662,株式会社,大阪府,大阪市中央区,船場中央２丁目１番４号船場センタービル４号館地下一階Ｂ１０８ＲＯＹＡＬＯＦＦＩＣＥ内,,27,128,5410055,,,,,,,2022-12-02,1,,,,,カロ,0
425,2120001250720,新規,0,2022-12-02,2022-12-02,ｍｉｘｅｒ株式会社,,株式会社,大阪府,大阪市東淀川区,東中島１丁目１７－５,,27,114,5330033,,,,,,,2022-12-02,1,,,,,ミクサー,0
426,2120001250729,新規,0,2022-12-02,2022-12-02,株式会社コナトス,,株式会社,大阪府,大阪市西区,南堀江１丁目２６番１５－２９０４号,,27,106,5500015,,,,,,,2022-12-02,1,,,,,コナトス,0
429,2120005023321,新規,0,2022-12-02,2022-12-02,一般社団法人さいくる,,その他の設立登記法人,大阪府,大阪市淀川区,木川東２丁目１６番１２－１１０２号,,27,123,5320012,,,,,,,2022-12-02,1,,,,,サイクル,0
433,2120101066612,新規,0,2022-12-02,2022-12-02,株式会社ｓｔｏｒｅ３９,,株式会社,大阪府,堺市西区,浜寺石津町東４丁５－８－１０８,,27,144,5928335,,,,,,,2022-12-02,1,,,,,ストアサンキュー,0
438,2120903004397,新規,0,2022-12-02,2022-12-02,Ｍｏｏｋａ合同会社,,合同会社,大阪府,箕面市,西宿２丁目１２番１２－Ａ１０１０号,,27,220,5620034,,,,,,,2022-12-02,1,,,,,ムーカ,0
443,2130001073204,新規,0,2022-12-02,2022-12-02,キッチャンフーズ株式会社,,株式会社,京都府,京都市伏見区,醍醐池田町１番地５９,,26,109,6011362,,,,,,,2022-12-02,1,,,,,キッチャンフーズ,0
444,2130001073212,新規,0,2022-12-02,2022-12-02,サンクリエイション株式会社,,株式会社,京都府,宇治市,広野町尖山４番地の１２１９,,26,204,6110031,,,,,,,2022-12-02,1,,,,,サンクリエイション,0
452,2140001128221,新規,0,2022-12-02,2022-12-02,株式会社ミルテック,,株式会社,兵庫県,丹波篠山市,中４９５番地,,28,221,6692601,,,,,,,2022-12-02,1,,,,,ミルテック,0
453,2140001128270,新規,0,2022-12-02,2022-12-02,株式会社藤原建設,,株式会社,兵庫県,神戸市須磨区,松風町６丁目１番５号,,28,107,6540045,,,,,,,2022-12-02,1,,,,,フジワラケンセツ,0
454,2140003018429,新規,0,2022-12-02,2022-12-02,合同会社ＡＳＥＡＮ　Ｆｏｏｄ,,合同会社,兵庫県,神戸市灘区,水道筋４丁目１－１３,,28,102,6570831,,,,,,,2022-12-02,1,,,,,アシアフード,0
459,2150005009441,新規,0,2022-12-02,2022-12-02,特定非営利活動法人色彩社会貢献事業いろすまいる,,その他の設立登記法人,奈良県,葛城市,竹内４０２番地,,29,211,6392155,,,,,,,2022-12-02,1,,,,,シキサイシャカイコウケンジギョウイロスマイル,0
460,2160001024666,新規,0,2022-12-02,2022-12-02,株式会社ハニカムワークス,,株式会社,滋賀県,大津市,山百合の丘７番２８号,,25,201,5200357,,,,,,,2022-12-02,1,,,,,ハニカムワークス,0
469,2180001154016,新規,0,2022-12-02,2022-12-02,株式会社青桐,,株式会社,愛知県,名古屋市中区,新栄１丁目２６番７号,,23,106,4600007,,,,,,,2022-12-02,1,,,,,アオギリ,0
470,2180001154024,新規,0,2022-12-02,2022-12-02,株式会社アイチクリエイション,,株式会社,愛知県,名古屋市東区,白壁３丁目２４番５８号,,23,102,4610011,,,,,,,2022-12-02,1,,,,,アイチクリエイション,0
475,2190001029968,新規,0,2022-12-02,2022-12-02,株式会社アサヒエンジニアサービス,,株式会社,三重県,四日市市,小杉新町１１０番地１,,24,202,5120903,,,,,,,2022-12-02,1,,,,,アサヒエンジニアサービス,0
476,2190001029976,新規,0,2022-12-02,2022-12-02,株式会社ルチュラ,,株式会社,三重県,津市,江戸橋１丁目１１３ＫＴＧレジデンス江戸橋１Ｆ,,24,201,5140001,,,,,,,2022-12-02,1,,,,,ルチュラ,0
477,2190001029984,新規,0,2022-12-02,2022-12-02,株式会社インテックス,,株式会社,三重県,津市,久居北口町９２１番地１２,,24,201,5141105,,,,,,,2022-12-02,1,,,,,インテックス,0
478,2200001040717,新規,0,2022-12-02,2022-12-02,株式会社ＮｏｕＨｉｍｅ,,株式会社,岐阜県,岐阜市,橋本町２丁目５２番地,,21,201,5008856,,,,,,,2022-12-02,1,,,,,ノウヒメ,0
479,2200001040725,新規,0,2022-12-02,2022-12-02,エース株式会社,,株式会社,岐阜県,岐阜市,東鶉３丁目５４番地１,,21,201,5008281,,,,,,,2022-12-02,1,,,,,エース,0
483,2210005010070,新規,0,2022-12-02,2022-12-02,一般社団法人ふくい身元保証サービスおりづる,,その他の設立登記法人,福井県,福井市,西木田３丁目１３番２号,,18,201,9188004,,,,,,,2022-12-02,1,,,,,フクイミモトホショウサービスオリヅル,0
488,2220001025154,新規,0,2022-12-02,2022-12-02,株式会社ブリスモーメント,,株式会社,石川県,金沢市,堀川町４番１号セントラルビル３Ｆ,,17,201,9200847,,,,,,,2022-12-02,1,,,,,ブリスモーメント,0
493,2240001060728,新規,0,2022-12-02,2022-12-02,株式会社Ｎｅｘｔ　Ｉｎｎｏｖａｔｉｏｎ,,株式会社,広島県,東広島市,西条中央７丁目３番１７号,,34,212,7390025,,,,,,,2022-12-02,1,,,,,ネクストイノベーション,0
495,2240003005912,新規,0,2022-12-02,2022-12-02,合同会社経営人事研究所,,合同会社,広島県,広島市中区,大手町１丁目１番２６号大手町一番ビル３０５,,34,101,7300051,,,,,,,2022-12-02,1,,,,,ケイエイジンジケンキュウジョ,0
497,2260001037468,新規,0,2022-12-02,2022-12-02,株式会社浩洋貿易,,株式会社,岡山県,岡山市北区,清心町１番７号アルファ清心町ＩＩ１０３,00128663,33,101,7000027,,,,,,,2022-12-02,1,,,,,コウヨウボウエキ,0
499,2280001008830,新規,0,2022-12-02,2022-12-02,株式会社ヤマノ建築,,株式会社,島根県,松江市,八雲町熊野３０６番地１,,32,201,6902104,,,,,,,2022-12-02,1,,,,,ヤマノケンチク,0
504,2290001099753,新規,0,2022-12-02,2022-12-02,浮世株式会社,,株式会社,福岡県,久留米市,西町１０２６番地６,,40,203,8300038,,,,,,,2022-12-02,1,,,,,ウキヨ,0
505,2290001099786,新規,0,2022-12-02,2022-12-02,株式会社ＭＩＲＡ‐Ｉ,,株式会社,福岡県,筑紫野市,針摺東５丁目１番１８号,,40,217,8180081,,,,,,,2022-12-02,1,,,,,ミライ,0
507,2290003013274,新規,0,2022-12-02,2022-12-02,合同会社ハピウェル,,合同会社,福岡県,飯塚市,菰田４番地７,,40,205,8200015,,,,,,,2022-12-02,1,,,,,ハピウェル,0
518,2290801029083,新規,0,2022-12-02,2022-12-02,株式会社石橋牧場,,株式会社,福岡県,北九州市八幡西区,大字楠橋４９５５番地１,,40,109,8071151,,,,,,,2022-12-02,1,,,,,イシバシボクジョウ,0
519,2290801029091,新規,0,2022-12-02,2022-12-02,株式会社西本工業,,株式会社,福岡県,北九州市若松区,下原町７番２８号,,40,103,8080005,,,,,,,2022-12-02,1,,,,,ニシモトコウギョウ,0
520,2290801029100,新規,0,2022-12-02,2022-12-02,株式会社めいきち,,株式会社,福岡県,田川市,上本町９－２８,,40,206,8260023,,,,,,,2022-12-02,1,,,,,メイキチ,0
540,2360003012475,新規,0,2022-12-02,2022-12-02,合同会社ゲシュタルト,,合同会社,沖縄県,島尻郡与那原町,字与那原８１５番地ユニヴァリスカイアサヒテラス４０２,,47,348,9011303,,,,,,,2022-12-02,1,,,,,ゲシュタルト,0
551,2380001033307,新規,0,2022-12-02,2022-12-02,株式会社アルタイル,,株式会社,福島県,福島市,山居１３２番地の３,,07,201,9608234,,,,,,,2022-12-02,1,,,,,アルタイル,0
553,2390001017085,新規,0,2022-12-02,2022-12-02,株式会社Ｓ‐ｒｏｗ,,株式会社,山形県,米沢市,御廟２丁目１番９号,,06,202,9920055,,,,,,,2022-12-02,1,,,,,スロウ,0
554,2390001017093,新規,0,2022-12-02,2022-12-02,株式会社ＮＯＣ,,株式会社,山形県,米沢市,舘山２丁目２番１６号,,06,202,9920072,,,,,,,2022-12-02,1,,,,,エヌオーシー,0
558,2420001018088,新規,0,2022-12-02,2022-12-02,株式会社勝山商事,,株式会社,青森県,青森市,大字安田字近野３８９番地１０,,02,201,0380021,,,,,,,2022-12-02,1,,,,,カツヤマショウジ,0
578,3010001231202,新規,0,2022-12-02,2022-12-02,サマセット株式会社,,株式会社,東京都,中央区,日本橋浜町３丁目３番１号,,13,102,1030007,,,,,,,2022-12-02,1,,,,,サマセット,0
579,3010001231235,新規,0,2022-12-02,2022-12-02,株式会社ＶＥＡＬ,,株式会社,東京都,中央区,銀座１丁目２２番１１号銀座大竹ビジデンス２階,,13,102,1040061,,,,,,,2022-12-02,1,,,,,ヴェアル,0
580,3010003039164,新規,0,2022-12-02,2022-12-02,彩友合同会社,,合同会社,東京都,千代田区,四番町４－９ＳＴＫ内,,13,101,1020081,,,,,,,2022-12-02,1,,,,,サイユウ,0
581,3010003039214,新規,0,2022-12-02,2022-12-02,ｃｒｅａｔｅｍｏｒｅ合同会社,,合同会社,東京都,中央区,銀座１丁目１２番４号,,13,102,1040061,,,,,,,2022-12-02,1,,,,,クリエイトモア,0
589,3010401171114,新規,0,2022-12-02,2022-12-02,株式会社Ｃｏｓｍｇａｔｅ,,株式会社,東京都,港区,赤坂６丁目１３番１３－９０１号,,13,103,1070052,,,,,,,2022-12-02,1,,,,,コズムゲート,0
590,3010405021620,新規,0,2022-12-02,2022-12-02,一般社団法人東京都ライフセービング協会,,その他の設立登記法人,東京都,港区,浜松町２丁目２－１５浜松町ダイヤビル２Ｆ,,13,103,1050013,,,,,,,2022-12-02,1,,,,,トウキョウトライフセービングキョウカイ,0
591,3010405021637,新規,0,2022-12-02,2022-12-02,一般社団法人ライズワン,,その他の設立登記法人,東京都,港区,虎ノ門３丁目２２番１０－２０１号,,13,103,1050001,,,,,,,2022-12-02,1,,,,,ライズワン,0
593,3010501049706,新規,0,2022-12-02,2022-12-02,株式会社Ｊａｘｉｓ,,株式会社,東京都,台東区,上野５丁目１７番５号ＫＨビル４階,,13,106,1100005,,,,,,,2022-12-02,1,,,,,ジェイアクシス,0
595,3010601062237,新規,0,2022-12-02,2022-12-02,大吉株式会社,,株式会社,東京都,墨田区,両国２丁目１７番１７号両国ダイヤハイツ２０２－Ｆ,,13,107,1300026,,,,,,,2022-12-02,1,,,,,ダイキチ,0
596,3010601062245,新規,0,2022-12-02,2022-12-02,株式会社バックヤード,,株式会社,東京都,江東区,亀戸５丁目３番４号林ビル１０１,,13,108,1360071,,,,,,,2022-12-02,1,,,,,バックヤード,0
600,3010701043566,新規,0,2022-12-02,2022-12-02,株式会社モンパリス,,株式会社,東京都,品川区,東五反田１丁目８番１１号,,13,109,1410022,,,,,,,2022-12-02,1,,,,,モンパリス,0
601,3010801033483,新規,0,2022-12-02,2022-12-02,株式会社ＺＥＳＴ,,株式会社,東京都,大田区,西六郷２丁目１４番１４号,,13,111,1440056,,,,,,,2022-12-02,1,,,,,ゼスト,0
602,3010803004375,新規,0,2022-12-02,2022-12-02,合同会社Ｌｈｙ,,合同会社,東京都,大田区,東雪谷２丁目２２番１８－４０６号,,13,111,1450065,,,,,,,2022-12-02,1,,,,,リー,0
606,3010901052078,新規,0,2022-12-02,2022-12-02,株式会社ｃｈｉｐｓｔａｒ,,株式会社,東京都,世田谷区,弦巻３丁目３番７号,,13,112,1540016,,,,,,,2022-12-02,1,,,,,チップスター,0
610,3011001151233,新規,0,2022-12-02,2022-12-02,株式会社ビューティバンク,,株式会社,東京都,渋谷区,道玄坂１丁目２－３,,13,113,1500043,,,,,,,2022-12-02,1,,,,,ビューティバンク,0
611,3011001151258,新規,0,2022-12-02,2022-12-02,ＹＡＭＡＭＯＴＯ株式会社,,株式会社,東京都,渋谷区,恵比寿南１丁目１７番６号コートモデリアサウス恵比寿２０１,,13,113,1500022,,,,,,,2022-12-02,1,,,,,ヤマモト,0
612,3011001151274,新規,0,2022-12-02,2022-12-02,株式会社Ｋ‐ＨＯＬＤＩＮＧＳ,,株式会社,東京都,渋谷区,広尾１丁目１番３９号恵比寿プライムスクエアタワー,,13,113,1500012,,,,,,,2022-12-02,1,,,,,ケイホールディングス,0
616,3011005009849,新規,0,2022-12-02,2022-12-02,一般社団法人宗遍流時習軒,00128659,その他の設立登記法人,東京都,渋谷区,広尾２丁目１５番１２号,,13,113,1500012,,,,,,,2022-12-02,1,,,,,ソウヘンリュウジシュウケン,0
620,3011101101014,新規,0,2022-12-02,2022-12-02,株式会社ワイジェーン,,株式会社,東京都,新宿区,四谷坂町９番５号ＫＮハイム四谷２０５,,13,104,1600002,,,,,,,2022-12-02,1,,,,,ワイジェーン,0
624,3011403003833,新規,0,2022-12-02,2022-12-02,合同会社Ｋ‐ｗｏｒｋｓ,,合同会社,東京都,板橋区,舟渡２丁目１９番４号,,13,119,1740041,,,,,,,2022-12-02,1,,,,,ケーワークス,0
625,3011503005382,新規,0,2022-12-02,2022-12-02,合同会社ゴールドパートナーズ,,合同会社,東京都,荒川区,荒川１丁目３５番４号,,13,118,1160002,,,,,,,2022-12-02,1,,,,,ゴールドパートナーズ,0
634,3012301013230,新規,0,2022-12-02,2022-12-02,株式会社Ｗはうす,,株式会社,東京都,町田市,原町田５丁目５－２,,13,209,1940013,,,,,,,2022-12-02,1,,,,,ダブルハウス,0
639,3012703002590,新規,0,2022-12-02,2022-12-02,合同会社ＫＫＫＳ,,合同会社,東京都,東村山市,久米川町１丁目３９番地８,,13,213,1890003,,,,,,,2022-12-02,1,,,,,トリプルケーエス,0
644,3020001149229,新規,0,2022-12-02,2022-12-02,株式会社Ｂｉｔ,,株式会社,神奈川県,横浜市青葉区,市ケ尾町１７２８－５－３０１,,14,117,2250024,,,,,,,2022-12-02,1,,,,,ビット,0
645,3020001149278,新規,0,2022-12-02,2022-12-02,株式会社ワイズウェイ,,株式会社,神奈川県,横浜市西区,高島２丁目１１番２号スカイメナー横浜５１９,,14,103,2200011,,,,,,,2022-12-02,1,,,,,ワイズウェイ,0
650,3020003022821,新規,0,2022-12-02,2022-12-02,合同会社未来創造,,合同会社,神奈川県,川崎市多摩区,宿河原１丁目１７番６号,,14,135,2140021,,,,,,,2022-12-02,1,,,,,ミライソウゾウ,0
651,3020005015740,新規,0,2022-12-02,2022-12-02,特定非営利活動法人全員参加による地域未来創造機構,,その他の設立登記法人,神奈川県,横浜市港北区,新横浜２丁目８番地４オルタナティブ生活館３Ｆ,,14,109,2220033,,,,,,,2022-12-02,1,,,,,ゼンインサンカニヨルチイキミライソウゾウキコウ,0
655,3021001077601,新規,0,2022-12-02,2022-12-02,金沢マシンツール株式会社,,株式会社,神奈川県,相模原市南区,大野台２丁目１番１号,,14,153,2520331,,,,,,,2022-12-02,1,,,,,カナザワマシンツール,0
659,3021005012678,新規,0,2022-12-02,2022-12-02,医療法人治,,その他の設立登記法人,神奈川県,大和市,西鶴間１丁目１番７号１階,,14,213,2420005,,,,,,,2022-12-02,1,,,,,ハル,0
672,3030001151290,新規,0,2022-12-02,2022-12-02,株式会社ＴＳＭ,,株式会社,埼玉県,川越市,連雀町１１番地１,,11,201,3500066,,,,,,,2022-12-02,1,,,,,ティーエスエム,0
674,3030003020634,新規,0,2022-12-02,2022-12-02,宝商店合同会社,,合同会社,埼玉県,三郷市,高州１丁目１８５番地１,,11,237,3410037,,,,,,,2022-12-02,1,,,,,タカラショウテン,0
675,3030003020675,新規,0,2022-12-02,2022-12-02,合同会社ＡＯカトー,,合同会社,埼玉県,越谷市,大沢３丁目６番１号２００１,,11,222,3430025,,,,,,,2022-12-02,1,,,,,エーオーカトー,0
676,3030005021085,新規,0,2022-12-02,2022-12-02,特定非営利活動法人ＦＵＮＲＩＳＥ,,その他の設立登記法人,埼玉県,久喜市,本町５丁目４番３０号塩崎コーポ店舗・事務所,,11,232,3460005,,,,,,,2022-12-02,1,,,,,ファンライズ,0
679,3040001126069,新規,0,2022-12-02,2022-12-02,株式会社シバタ工務店,,株式会社,千葉県,鎌ケ谷市,東初富３丁目８番１９号,,12,224,2730122,,,,,,,2022-12-02,1,,,,,シバタコウムテン,0
681,3040003021409,新規,0,2022-12-02,2022-12-02,オオハシカンリ合同会社,,合同会社,千葉県,船橋市,芝山６丁目２８番７号,,12,204,2740816,,,,,,,2022-12-02,1,,,,,オオハシカンリ,0
686,3060001035499,新規,0,2022-12-02,2022-12-02,株式会社アールジーピー,,株式会社,栃木県,宇都宮市,針ヶ谷町２３７－３,,09,201,3210147,,,,,,,2022-12-02,1,,,,,アールジーピー,0
695,3070001039870,新規,0,2022-12-02,2022-12-02,株式会社ナカマフロンティア,,株式会社,群馬県,前橋市,上佐鳥町７０４番地１,,10,201,3710816,,,,,,,2022-12-02,1,,,,,ナカマフロンティア,0
702,3080101023666,新規,0,2022-12-02,2022-12-02,株式会社ウェスト１７,,株式会社,静岡県,熱海市,伊豆山７６０番地の２中銀ライフケア第二伊豆山２０３号,,22,205,4130002,,,,,,,2022-12-02,1,,,,,ウェストジュウナナ,0
704,3080401026187,新規,0,2022-12-02,2022-12-02,株式会社あいやゆ,,株式会社,静岡県,浜松市浜北区,小松９９９番地の２,,22,136,4340042,,,,,,,2022-12-02,1,,,,,アイヤユ,0
728,3120003022968,新規,0,2022-12-02,2022-12-02,合同会社Ｓｔａｒｔｉｎｇ　Ｐｏｉｎｔ,,合同会社,大阪府,大阪市北区,豊崎３丁目１６番１６－３１０４号,,27,127,5310072,,,,,,,2022-12-02,1,,,,,スターティングポイント,0
730,3120901046804,新規,0,2022-12-02,2022-12-02,株式会社上博組,,株式会社,大阪府,豊中市,服部西町２丁目７番３１の２号,,27,203,5610858,,,,,,,2022-12-02,1,,,,,カミヒログミ,0
731,3120901046820,新規,0,2022-12-02,2022-12-02,安東電気工業株式会社,,株式会社,大阪府,高槻市,大和１丁目１７番１８号,,27,207,5691047,,,,,,,2022-12-02,1,,,,,アンドウデンキコウギョウ,0
732,3120903004396,新規,0,2022-12-02,2022-12-02,合同会社ＭＳＹアセッタス,,合同会社,大阪府,高槻市,殿町１番２３号,,27,207,5691126,,,,,,,2022-12-02,1,,,,,エムエスワイアセッタス,0
737,3130001073194,新規,0,2022-12-02,2022-12-02,株式会社京町みらい,,株式会社,京都府,京都市中京区,室町通竹屋町下る鏡屋町５１番地,,26,104,6040002,,,,,,,2022-12-02,1,,,,,キョウマチミライ,0
738,3130001073203,新規,0,2022-12-02,2022-12-02,株式会社ジャッジ,,株式会社,京都府,京都市伏見区,下鳥羽西柳長町１２７番地,,26,109,6128489,,,,,,,2022-12-02,1,,,,,ジャッジ,0
744,3140001128237,新規,0,2022-12-02,2022-12-02,株式会社トーハイＰｌｕｓ,,株式会社,兵庫県,川辺郡猪名川町,白金２丁目６０番地７,,28,301,6660257,,,,,,,2022-12-02,1,,,,,トーハイプラス,0
745,3140003018428,新規,0,2022-12-02,2022-12-02,ａｎｄｓｐｉｃｅ合同会社,,合同会社,兵庫県,淡路市,楠本３８７－１,,28,226,6562301,,,,,,,2022-12-02,1,,,,,アンドスパイス,0
757,3180001154015,新規,0,2022-12-02,2022-12-02,株式会社山中インベストメント,,株式会社,愛知県,名古屋市中村区,名駅４丁目２４番５号第２森ビル４０１,,23,105,4500002,,,,,,,2022-12-02,1,,,,,ヤマナカインベストメント,0
758,3180001154048,新規,0,2022-12-02,2022-12-02,株式会社ｃｌｕｔｃｈ,,株式会社,愛知県,瀬戸市,水北町１３５７－１,,23,204,4890009,,,,,,,2022-12-02,1,,,,,クラッチ,0
759,3180003024562,新規,0,2022-12-02,2022-12-02,アーバンライフ合同会社,,合同会社,愛知県,名古屋市西区,城西２丁目１３番５号,,23,104,4510031,,,,,,,2022-12-02,1,,,,,アーバンライフ,0
762,3180303005519,新規,0,2022-12-02,2022-12-02,ＴＭインヴェストメント合同会社,,合同会社,愛知県,刈谷市,相生町１丁目２１番地藤和シティコープ刈谷駅前Ｉ９０３号,00128653,23,210,4480027,,,,,,,2022-12-02,1,,,,,ティーエムインヴェストメント,0
763,3180303005527,新規,0,2022-12-02,2022-12-02,合同会社Ａ．Ｆ．Ｙ,,合同会社,愛知県,豊田市,泉町１丁目２番地６,,23,211,4710803,,,,,,,2022-12-02,1,,,,,エーエフワイ,0
767,3190001029967,新規,0,2022-12-02,2022-12-02,株式会社セイコウ,,株式会社,三重県,四日市市,中里町３２番地５,,24,202,5100864,,,,,,,2022-12-02,1,,,,,セイコウ,0
768,3190001029975,新規,0,2022-12-02,2022-12-02,Ｂｅ‐Ｒｉｓｅ株式会社,,株式会社,三重県,津市,高茶屋６丁目１１番７１号,,24,201,5140819,,,,,,,2022-12-02,1,,,,,ビーライズ,0
773,3200001040716,新規,0,2022-12-02,2022-12-02,株式会社匠家,,株式会社,岐阜県,岐阜市,岩崎８１３番地１,,21,201,5020005,,,,,,,2022-12-02,1,,,,,タクミヤ,0
774,3200001040724,新規,0,2022-12-02,2022-12-02,株式会社八代建装,,株式会社,岐阜県,本巣郡北方町,高屋白木３丁目１０９番地の３,,21,421,5010454,,,,,,,2022-12-02,1,,,,,ヤシロケンソウ,0
780,3220003003405,新規,0,2022-12-02,2022-12-02,合同会社高屋設計ＰＭＣ,00128658,合同会社,石川県,金沢市,瓢箪町１２番４７号,,17,201,9200845,,,,,,,2022-12-02,1,,,,,タカヤセッケイピーエムシー,0
781,3230001019617,新規,0,2022-12-02,2022-12-02,大飛システム株式会社,,株式会社,富山県,富山市,向新庄町７丁目２番７０号,,16,201,9300916,,,,,,,2022-12-02,1,,,,,ダイトシステム,0
782,3230003001936,新規,0,2022-12-02,2022-12-02,富友合同会社,,合同会社,富山県,富山市,北新町２丁目１－２４,,16,201,9300023,,,,,,,2022-12-02,1,,,,,トミユウ,0
783,3240001060735,新規,0,2022-12-02,2022-12-02,マツモテック株式会社,,株式会社,広島県,大竹市,黒川２丁目１番１３号,,34,211,7390653,,,,,,,2022-12-02,1,,,,,マツモテック,0
784,3250003003187,新規,0,2022-12-02,2022-12-02,ロッソＪｒメディカル合同会社,,合同会社,山口県,山口市,宝町３番４０号,,35,203,7530812,,,,,,,2022-12-02,1,,,,,ロッソジュニアメディカル,0
785,3260001037467,新規,0,2022-12-02,2022-12-02,株式会社アプローチ,,株式会社,岡山県,倉敷市,日ノ出町１丁目８番１４－２号,,33,202,7100063,,,,,,,2022-12-02,1,,,,,アプローチ,0
789,3290001099744,新規,0,2022-12-02,2022-12-02,株式会社スリープテック,,株式会社,福岡県,福岡市博多区,博多駅南６丁目１３番２９号,,40,132,8120016,,,,,,,2022-12-02,1,,,,,スリープテック,0
790,3290001099760,新規,0,2022-12-02,2022-12-02,株式会社白鳥ロジスティックシステム,,株式会社,福岡県,福岡市東区,多の津１丁目１２番２号,,40,131,8130034,,,,,,,2022-12-02,1,,,,,シラトリロジスティックシステム,0
791,3290001099769,新規,0,2022-12-02,2022-12-02,株式会社アメノチハレ,,株式会社,福岡県,福岡市中央区,桜坂１丁目１４番１８号ＥＳハウス１１,,40,133,8100024,,,,,,,2022-12-02,1,,,,,アメノチハレ,0
806,3320005010034,新規,0,2022-12-02,2022-12-02,税理士法人此本会計事務所,,その他の設立登記法人,大分県,大分市,長浜町２丁目１４番３０号,,44,201,8700023,,,,,,,2022-12-02,1,,,,,コノモトカイケイジムショ,0
810,3330005010586,新規,0,2022-12-02,2022-12-02,火の国合同労組,,その他の設立登記法人,熊本県,熊本市西区,蓮台寺１丁目８－２０,,43,103,8600055,,,,,,,2022-12-02,1,,,,,ヒノクニ,0
812,3340001025208,新規,0,2022-12-02,2022-12-02,株式会社晴天,,株式会社,鹿児島県,薩摩川内市,入来町副田５９６７番地１,,46,215,8951401,,,,,,,2022-12-02,1,,,,,セイテン,0
815,3340003003987,新規,0,2022-12-02,2022-12-02,合同会社しんじん,,合同会社,鹿児島県,鹿児島市,西陵８丁目２９－８,,46,201,8900032,,,,,,,2022-12-02,1,,,,,シンジン,0
817,3350001018053,新規,0,2022-12-02,2022-12-02,株式会社ｗｅｌｌｂａｌａｎｃｅ,,株式会社,宮崎県,児湯郡高鍋町,大字北高鍋１００３番地２,,45,401,8840002,,,,,,,2022-12-02,1,,,,,ウェルバランス,0
823,3390001017084,新規,0,2022-12-02,2022-12-02,株式会社Ｍｏｏｎ,,株式会社,山形県,山形市,小白川町５丁目３番３１－２号クロワールＡ,,06,201,9900021,,,,,,,2022-12-02,1,,,,,ムーン,0
838,3500001024622,新規,0,2022-12-02,2022-12-02,株式会社水産研究所,,株式会社,愛媛県,八幡浜市,向灘２２２３番地,,38,204,7960001,,,,,,,2022-12-02,1,,,,,スイサンケンキュウジョ,0
839,3500001024630,新規,0,2022-12-02,2022-12-02,株式会社Ａ‐ｓｔｙｌｅ,,株式会社,愛媛県,松山市,東長戸４丁目７番４１号,,38,201,7918005,,,,,,,2022-12-02,1,,,,,エースタイル,0
842,3700150113230,新規,0,2022-12-02,2022-12-02,Ｙａｚｈｉ　Ｓｈｅｎｚｈｅｎ　Ｋｅｊｉ　Ｙｏｕｘｉａｎ　Ｇｏｎｇｓｉ,,外国会社等,,,,,,,,Ｄｏｎｇｆａｎｇｋｅｊｉｄａｓｈａ　１８６７，ＹｕｅｈａｉＪｉｅｄａｏ　ＫｅｊｉｙｕａｎＳｈｅｑｕ　Ｋｅｙｕａｎｌｕ１６ｈａｏ，Ｎａｎｓｈａｎ　Ｓｈｅｎｚｈｅｎ,,,,,,2022-12-02,1,,,,,ヤチシエンチエンケジユウゲンコウシ,0
851,4010001231201,新規,0,2022-12-02,2022-12-02,株式会社ひでん,,株式会社,東京都,千代田区,東神田１丁目１１番８－４０１号,,13,101,1010031,,,,,,,2022-12-02,1,,,,,ヒデン,0
862,4010401171113,新規,0,2022-12-02,2022-12-02,株式会社ベタナギ,,株式会社,東京都,港区,西麻布３丁目２４番２１号ビレッジ山村１０２,,13,103,1060031,,,,,,,2022-12-02,1,,,,,ベタナギ,0
864,4010403029037,新規,0,2022-12-02,2022-12-02,合同会社壬生町福和田発電所,,合同会社,東京都,港区,六本木３丁目２番１号,,13,103,1060032,,,,,,,2022-12-02,1,,,,,ミブマチフクワダハツデンショ,0
865,4010403029053,新規,0,2022-12-02,2022-12-02,合同会社ａｍｉｔｉｅ,,合同会社,東京都,港区,赤坂３丁目６－６赤坂ビル２階,,13,103,1070052,,,,,,,2022-12-02,1,,,,,アミティエ,0
867,4010405021628,新規,0,2022-12-02,2022-12-02,特定目的会社ＢＰ０１,,その他の設立登記法人,東京都,港区,元赤坂１丁目１番７号,,13,103,1070051,,,,,,,2022-12-02,1,,,,,ビーピーゼロワン,0
870,4010601062236,新規,0,2022-12-02,2022-12-02,株式会社龍騰,,株式会社,東京都,墨田区,両国２丁目１７番１７号両国ダイヤハイツ２０２－Ｋ,,13,107,1300026,,,,,,,2022-12-02,1,,,,,リュウトウ,0
871,4010603009870,新規,0,2022-12-02,2022-12-02,Ｗｉｔｈ　Ｔｏｍｏｒｒｏｗ合同会社,,合同会社,東京都,江東区,東雲２丁目２番１４－３１０９号,,13,108,1350062,,,,,,,2022-12-02,1,,,,,ウィズトゥモロー,0
874,4010701043549,新規,0,2022-12-02,2022-12-02,ｂｉｏｌｕｃｅ株式会社,,株式会社,東京都,品川区,東品川４丁目１１番３６－１７０２号,,13,109,1400002,,,,,,,2022-12-02,1,,,,,ビオルーチェ,0
879,4010801033482,新規,0,2022-12-02,2022-12-02,株式会社クレール,,株式会社,東京都,大田区,矢口３丁目２番１６－２０２号,,13,111,1460093,,,,,,,2022-12-02,1,,,,,クレール,0
885,4011001151240,新規,0,2022-12-02,2022-12-02,株式会社ｍｕｕ,,株式会社,東京都,渋谷区,桜丘町１８番４号,,13,113,1500031,,,,,,,2022-12-02,1,,,,,ムウ,0
886,4011001151257,新規,0,2022-12-02,2022-12-02,ｇ．ｔ．ｃ株式会社,,株式会社,東京都,渋谷区,神泉町２２番４号メイクスデザイン渋谷神泉９０１,,13,113,1500045,,,,,,,2022-12-02,1,,,,,ジーティーシー,0
888,4011005009856,新規,0,2022-12-02,2022-12-02,一般社団法人獣医フリーランス協会,,その他の設立登記法人,東京都,渋谷区,神宮前６丁目２３番４号桑野ビル２階,,13,113,1500001,,,,,,,2022-12-02,1,,,,,ジュウイフリーランスキョウカイ,0
895,4011101101038,新規,0,2022-12-02,2022-12-02,株式会社東晃,,株式会社,東京都,新宿区,西新宿８丁目１２番１号,,13,104,1600023,,,,,,,2022-12-02,1,,,,,トウコウ,0
897,4011103012448,新規,0,2022-12-02,2022-12-02,長＿合同会社,00128652,合同会社,東京都,新宿区,大久保１丁目１－９,,13,104,1690072,,,,,,,2022-12-02,1,,,,,チョウシュウ,0
905,4011403003832,新規,0,2022-12-02,2022-12-02,合同会社九九,,合同会社,東京都,板橋区,熊野町１５－１パレドール池袋北４０５号,,13,119,1730025,,,,,,,2022-12-02,1,,,,,クク,0
908,4011701025826,新規,0,2022-12-02,2022-12-02,漢和林株式会社,,株式会社,東京都,江戸川区,南小岩５丁目２０－３ヴィラ四宮２０１,,13,123,1330056,,,,,,,2022-12-02,1,,,,,カンワリン,0
910,4011801041624,新規,0,2022-12-02,2022-12-02,株式会社ケイツー,,株式会社,東京都,足立区,梅田４丁目１番６号,,13,121,1230851,,,,,,,2022-12-02,1,,,,,ケイツー,0
912,4011803005412,新規,0,2022-12-02,2022-12-02,合同会社Ｚｘｔｅｎｄ,,合同会社,東京都,足立区,伊興３丁目２３―９ピュアハイツ２０４,,13,121,1210823,,,,,,,2022-12-02,1,,,,,ゼクステンド,0
915,4013301049981,新規,0,2022-12-02,2022-12-02,三友株式会社,,株式会社,東京都,豊島区,池袋本町１丁目１５－４パインズハウス２０２,,13,116,1700011,,,,,,,2022-12-02,1,,,,,ミツトモ,0
916,4013301050023,新規,0,2022-12-02,2022-12-02,株式会社オクト,,株式会社,東京都,豊島区,要町１丁目４５番８号,,13,116,1710043,,,,,,,2022-12-02,1,,,,,オクト,0
922,4020001149211,新規,0,2022-12-02,2022-12-02,宮前建工株式会社,,株式会社,神奈川県,川崎市宮前区,神木本町２丁目１７番１４－１０３号,,14,136,2160031,,,,,,,2022-12-02,1,,,,,ミヤマエケンコウ,0
923,4020001149260,新規,0,2022-12-02,2022-12-02,株式会社ハローワークス,,株式会社,神奈川県,横浜市瀬谷区,阿久和西１丁目１７番地６９,,14,114,2460025,,,,,,,2022-12-02,1,,,,,ハローワークス,0
924,4020001149277,新規,0,2022-12-02,2022-12-02,株式会社ＲＯＳＫＡＭ,,株式会社,神奈川県,川崎市高津区,上作延５９５番地４,,14,134,2130034,,,,,,,2022-12-02,1,,,,,ロスカム,0
930,4021001077484,新規,0,2022-12-02,2022-12-02,日本通洋株式会社,,株式会社,神奈川県,横須賀市,森崎１丁目１１番１９号,,14,201,2380023,,,,,,,2022-12-02,1,,,,,ニホンツウヨウ,0
942,4030003020674,新規,0,2022-12-02,2022-12-02,合同会社Ｒｅｉ,,合同会社,埼玉県,川口市,差間１丁目１９番８号,,11,203,3330816,,,,,,,2022-12-02,1,,,,,レイ,0
943,4030005021084,新規,0,2022-12-02,2022-12-02,ホーユウパレス本庄管理組合法人,,その他の設立登記法人,埼玉県,本庄市,千代田２丁目１８１４番地２,,11,211,3670054,,,,,,,2022-12-02,1,,,,,ホーユウパレスホンジョウ,0
952,4040005021827,新規,0,2022-12-02,2022-12-02,一般社団法人はぐネット長生,,その他の設立登記法人,千葉県,長生郡長生村,七井土１６１２番地１７,,12,423,2994333,,,,,,,2022-12-02,1,,,,,ハグネットチョウセイ,0
959,4050005013179,新規,0,2022-12-02,2022-12-02,一般社団法人みらい,,その他の設立登記法人,茨城県,水戸市,河和田１丁目１５１３番地の２５,,08,201,3114152,,,,,,,2022-12-02,1,,,,,ミライ,0
961,4060001035498,新規,0,2022-12-02,2022-12-02,株式会社邂逅貿易,,株式会社,栃木県,栃木市,岩舟町静和２４４８番地３５,,09,203,3294304,,,,,,,2022-12-02,1,,,,,カイコウボウエキ,0
976,4080401026186,新規,0,2022-12-02,2022-12-02,株式会社スリーピース,,株式会社,静岡県,磐田市,福田２０７１番地１,,22,211,4371203,,,,,,,2022-12-02,1,,,,,スリーピース,0
980,4100001035923,新規,0,2022-12-02,2022-12-02,シミズ工業株式会社,,株式会社,長野県,長野市,大字北尾張部５５９番地８,,20,201,3810014,,,,,,,2022-12-02,1,,,,,シミズコウギョウ,0
982,4110003004933,新規,0,2022-12-02,2022-12-02,ＨＡＤＩ　ＴＲＡＤＩＮＧ合同会社,,合同会社,新潟県,新潟市北区,横土居３８３５番地,,15,101,9503303,,,,,,,2022-12-02,1,,,,,ハディトレーディング,0
990,4120001250677,新規,0,2022-12-02,2022-12-02,ＤＪＳ株式会社,,株式会社,大阪府,大阪市北区,豊崎３丁目１５番５号ＴＫビル２Ｆ,,27,127,5310072,,,,,,,2022-12-02,1,,,,,ディージェイエス,0
991,4120001250719,新規,0,2022-12-02,2022-12-02,株式会社ＳＭＡＤコンサルティング,,株式会社,大阪府,大阪市北区,芝田２丁目４番１号東洋ビル新館２階２０８号,,27,127,5300012,,,,,,,2022-12-02,1,,,,,エスエムエーディーコンサルティング,0
992,4120001250768,新規,0,2022-12-02,2022-12-02,株式会社ライズアップ,,株式会社,大阪府,守口市,八雲東町２丁目３０番１５号,,27,209,5700021,,,,,,,2022-12-02,1,,,,,ライズアップ,0
995,4120003023008,新規,0,2022-12-02,2022-12-02,合同会社としひろ,,合同会社,大阪府,大阪市北区,梅田１丁目２番２号大阪駅前第２ビル１２―１２,,27,127,5300001,,,,,,,2022-12-02,1,,,,,トシヒロ,0
1001,4120005023328,新規,0,2022-12-02,2022-12-02,一般社団法人Ｇｌｏｂａｌ　Ｃａｒｅｅｒ　Ｇａｍｅ　Ｃｈａｎｇｅｒ,,その他の設立登記法人,大阪府,大阪市北区,梅田１丁目１番３号,,27,127,5300001,,,,,,,2022-12-02,1,,,,,グローバルキャリアゲームチェンジャー,0
1014,4120903004395,新規,0,2022-12-02,2022-12-02,合同会社サンデボーテ,,合同会社,大阪府,豊中市,上野坂１丁目１１番１８号,,27,203,5600012,,,,,,,2022-12-02,1,,,,,サンデボーテ,0
1028,4140001128269,新規,0,2022-12-02,2022-12-02,株式会社大六,,株式会社,兵庫県,神戸市須磨区,千守町２丁目７番８号,,28,107,6540072,,,,,,,2022-12-02,1,,,,,ダイロク,0
1029,4140001128277,新規,0,2022-12-02,2022-12-02,株式会社安田どうぶつ病院,,株式会社,兵庫県,西脇市,和田町６８８－３１,,28,213,6770052,,,,,,,2022-12-02,1,,,,,ヤスダドウブツビョウイン,0
1034,4140005026386,新規,0,2022-12-02,2022-12-02,一般社団法人日本家庭料理協会,,その他の設立登記法人,兵庫県,西宮市,六湛寺町２番２－１３０１号,,28,204,6620918,,,,,,,2022-12-02,1,,,,,ニホンカテイリョウリキョウカイ,0
1040,4170001017394,新規,0,2022-12-02,2022-12-02,株式会社真建,,株式会社,和歌山県,和歌山市,小倉４０１番地１７,,30,201,6496261,,,,,,,2022-12-02,1,,,,,マサケン,0
1046,4180001154006,新規,0,2022-12-02,2022-12-02,株式会社ＳＴＲＡＮ,,株式会社,愛知県,名古屋市中区,千代田２丁目１８－７ライオンズマンション鶴舞４１１号,,23,106,4600012,,,,,,,2022-12-02,1,,,,,ストラン,0
1047,4180001154030,新規,0,2022-12-02,2022-12-02,株式会社タイヤホイール買取王国,,株式会社,愛知県,名古屋市守山区,大森４丁目１７０７番地,,23,113,4630021,,,,,,,2022-12-02,1,,,,,タイヤホイールカイトリオウコク,0
1048,4180001154047,新規,0,2022-12-02,2022-12-02,株式会社満天,,株式会社,愛知県,名古屋市千種区,楠元町２丁目３５番地,,23,101,4640037,,,,,,,2022-12-02,1,,,,,マンテン,0
1052,4180303005526,新規,0,2022-12-02,2022-12-02,合同会社ＭＩＲＡＩＫＵ,,合同会社,愛知県,安城市,赤松町堀切８９番地１４,,23,212,4460046,,,,,,,2022-12-02,1,,,,,ミライク,0
1054,4190001029966,新規,0,2022-12-02,2022-12-02,株式会社ＳａａＴｓｕ,,株式会社,三重県,四日市市,伊坂台３丁目２０８番地,,24,202,5128066,,,,,,,2022-12-02,1,,,,,サーツ,0
1055,4190001029974,新規,0,2022-12-02,2022-12-02,株式会社オートボディーナガモリ,,株式会社,三重県,松阪市,桂瀬町１５６番地５,,24,204,5151104,,,,,,,2022-12-02,1,,,,,オートボディーナガモリ,0
1058,4190003004158,新規,0,2022-12-02,2022-12-02,合同会社ライムグリーン,,合同会社,三重県,伊賀市,川西１３９１番地,,24,216,5191425,,,,,,,2022-12-02,1,,,,,ライムグリーン,0
1066,4210001019171,新規,0,2022-12-02,2022-12-02,株式会社ＪＩＮ,,株式会社,福井県,福井市,三万谷町第２２号１８番地,,18,201,9102224,,,,,,,2022-12-02,1,,,,,ジン,0
1067,4210005010069,新規,0,2022-12-02,2022-12-02,一般社団法人堀川会,,その他の設立登記法人,福井県,鯖江市,糺町第２８号５番地,,18,207,9160004,,,,,,,2022-12-02,1,,,,,ホリカワカイ,0
1068,4220001025136,新規,0,2022-12-02,2022-12-02,Ｈ２Ｋ株式会社,,株式会社,石川県,金沢市,新保本４丁目４５番地,,17,201,9218062,,,,,,,2022-12-02,1,,,,,エイチツーケー,0
1069,4220001025160,新規,0,2022-12-02,2022-12-02,株式会社ＺＥＫＥ,,株式会社,石川県,金沢市,矢木３丁目２５３番地ソシアプランタン１０５号室,,17,201,9218066,,,,,,,2022-12-02,1,,,,,ジーク,0
1070,4220003003404,新規,0,2022-12-02,2022-12-02,合同会社シールド,,合同会社,石川県,金沢市,鈴見台３丁目１６番１２号はうす秋,,17,201,9201161,,,,,,,2022-12-02,1,,,,,シールド,0
1075,4240001060734,新規,0,2022-12-02,2022-12-02,株式会社アルゴ,,株式会社,広島県,広島市西区,横川町１丁目７番７－１０１号,,34,104,7330011,,,,,,,2022-12-02,1,,,,,アルゴ,0
1076,4240001060742,新規,0,2022-12-02,2022-12-02,株式会社シンマチ,,株式会社,広島県,安芸郡府中町,本町５丁目６番１号,,34,302,7350006,,,,,,,2022-12-02,1,,,,,シンマチ,0
1077,4250001019861,新規,0,2022-12-02,2022-12-02,株式会社Ｒｅｂｅｒａｌ,,株式会社,山口県,下松市,栄町１丁目６番２１号,,35,207,7440013,,,,,,,2022-12-02,1,,,,,リベラル,0
1078,4250003003186,新規,0,2022-12-02,2022-12-02,合同会社Ｃｏｎｉｇｌｉｏ,,合同会社,山口県,岩国市,門前町４丁目８番１７号,,35,208,7400031,,,,,,,2022-12-02,1,,,,,コニーリョ,0
1082,4260001037466,新規,0,2022-12-02,2022-12-02,株式会社Ｃｙｂｅｒ　Ｒｅｔａｉｌ,,株式会社,岡山県,岡山市北区,平田１１０－１２１,,33,101,7000952,,,,,,,2022-12-02,1,,,,,サイバーリテール,0
1086,4280001008829,新規,0,2022-12-02,2022-12-02,ｔａｂ企画株式会社,,株式会社,島根県,安来市,汐手が丘２４番１７号,,32,206,6920028,,,,,,,2022-12-02,1,,,,,ティーエイビーキカク,0
1094,4290001099792,新規,0,2022-12-02,2022-12-02,株式会社ＡＮＤ　ＯＮＥ,,株式会社,福岡県,福岡市中央区,舞鶴１丁目８番２８号マジックスクエアビル１階,,40,133,8100073,,,,,,,2022-12-02,1,,,,,アンドワン,0
1096,4290801029098,新規,0,2022-12-02,2022-12-02,株式会社奧ノ屋,,株式会社,福岡県,北九州市小倉南区,横代葉山１１番２２号,,40,107,8020825,,,,,,,2022-12-02,1,,,,,オクノヤ,0
1097,4300001013149,新規,0,2022-12-02,2022-12-02,株式会社ケイ興産,,株式会社,佐賀県,伊万里市,東山代町長浜３１番地１,,41,205,8494271,,,,,,,2022-12-02,1,,,,,ケイコウサン,0
1100,4310001018147,新規,0,2022-12-02,2022-12-02,日々研究所株式会社,,株式会社,長崎県,東彼杵郡東彼杵町,瀬戸郷１３０３－１,,42,321,8593923,,,,,,,2022-12-02,1,,,,,ヒビケンキュウジョ,0
1104,4320003003963,新規,0,2022-12-02,2022-12-02,合同会社ＳＥＮＳＥ,,合同会社,大分県,由布市,挾間町下市７７８番地９,,44,213,8795504,,,,,,,2022-12-02,1,,,,,センス,0
1108,4340001025223,新規,0,2022-12-02,2022-12-02,株式会社Ｈ．Ｍ,,株式会社,鹿児島県,鹿児島市,樋之口町７－３５萩原ビル２０５,,46,201,8920845,,,,,,,2022-12-02,1,,,,,エイチドットエム,0
1109,4350001018060,新規,0,2022-12-02,2022-12-02,株式会社Ｋａｎｎｏｎ,,株式会社,宮崎県,宮崎市,大字熊野１０１５２番地４,,45,201,8892151,,,,,,,2022-12-02,1,,,,,カノン,0
1111,4350003004232,新規,0,2022-12-02,2022-12-02,冨永農園合同会社,,合同会社,宮崎県,宮崎市,山崎町四郎房９２０番地,,45,201,8800836,,,,,,,2022-12-02,1,,,,,トミナガノウエン,0
1128,4470001019360,新規,0,2022-12-02,2022-12-02,株式会社アテナ,,株式会社,香川県,善通寺市,善通寺町５丁目８番３１号,,37,204,7650003,,,,,,,2022-12-02,1,,,,,アテナ,0
1130,4480001011936,新規,0,2022-12-02,2022-12-02,ウチダ工業株式会社,,株式会社,徳島県,板野郡板野町,吹田字町西１７番地１,,36,404,7790104,,,,,,,2022-12-02,1,,,,,ウチダコウギョウ,0
1135,4500003002930,新規,0,2022-12-02,2022-12-02,合同会社シアーズエム,,合同会社,愛媛県,新居浜市,新田町２丁目１番５号,,38,205,7920003,,,,,,,2022-12-02,1,,,,,シアーズエム,0
1153,5010001231217,新規,0,2022-12-02,2022-12-02,株式会社タウンピース,,株式会社,東京都,中央区,銀座１丁目２２番１１号銀座大竹ビジデンス２階,,13,102,1040061,,,,,,,2022-12-02,1,,,,,タウンピース,0
1154,5010001231258,新規,0,2022-12-02,2022-12-02,株式会社ブリスホームズ,,株式会社,東京都,中央区,京橋２丁目８－２１仁大ビル７３４,,13,102,1040031,,,,,,,2022-12-02,1,,,,,ブリスホームズ,0
1155,5010001231266,新規,0,2022-12-02,2022-12-02,東京佳天承株式会社,,株式会社,東京都,文京区,西片２丁目２１番３－１０１,,13,105,1130024,,,,,,,2022-12-02,1,,,,,トウキョウカテンショウ,0
1163,5010403028995,新規,0,2022-12-02,2022-12-02,合同会社艶,,合同会社,東京都,港区,白金台５丁目２番５号トランドゥ００７号,,13,103,1080071,,,,,,,2022-12-02,1,,,,,ツヤ,0
1164,5010501049695,新規,0,2022-12-02,2022-12-02,株式会社文月,,株式会社,東京都,台東区,蔵前４丁目２０番４号シノノメビル１階,,13,106,1110051,,,,,,,2022-12-02,1,,,,,フヅキ,0
1165,5010601062235,新規,0,2022-12-02,2022-12-02,瑞明株式会社,,株式会社,東京都,墨田区,東駒形１丁目１７番１３－６０３号,,13,107,1300005,,,,,,,2022-12-02,1,,,,,ズイメイ,0
1166,5010603009878,新規,0,2022-12-02,2022-12-02,合同会社白ねこグループ,,合同会社,東京都,江東区,有明１丁目２番地１１ガレリアグランデ４０２,,13,108,1350063,,,,,,,2022-12-02,1,,,,,シロネコグループ,0
1173,5010701043556,新規,0,2022-12-02,2022-12-02,共栄建設興業株式会社,,株式会社,東京都,品川区,大崎３丁目６番７－２０４号パークハイツ大崎,,13,109,1410032,,,,,,,2022-12-02,1,,,,,トモエケンセツコウギョウ,0
1175,5010801033473,新規,0,2022-12-02,2022-12-02,株式会社ＭＥＤＨＡ,,株式会社,東京都,大田区,大森南２丁目４番１６号紅荘３０５,,13,111,1430013,,,,,,,2022-12-02,1,,,,,メダ,0
1177,5010901052068,新規,0,2022-12-02,2022-12-02,株式会社ｓａｎｉ　ｗｏｒｌｄ,,株式会社,東京都,世田谷区,南烏山５丁目２０番１３号タフネレジデンス２０２号,,13,112,1570062,,,,,,,2022-12-02,1,,,,,サニワールド,0
1178,5010903007821,新規,0,2022-12-02,2022-12-02,合同会社今井博文堂,,合同会社,東京都,世田谷区,砧６丁目１５番２号玄妙館,,13,112,1570073,,,,,,,2022-12-02,1,,,,,イマイハクブンドウ,0
1185,5011001151280,新規,0,2022-12-02,2022-12-02,ｆｏ４株式会社,,株式会社,東京都,渋谷区,円山町５番５号Ｎａｖｉ渋谷Ｖ３階,00128654,13,113,1500044,,,,,,,2022-12-02,1,,,,,エフオーフォー,0
1188,5011003015814,新規,0,2022-12-02,2022-12-02,合同会社ＰＬＵＳ,,合同会社,東京都,渋谷区,恵比寿西２丁目２０番１,,13,113,1500021,,,,,,,2022-12-02,1,,,,,プラス,0
1189,5011003015822,新規,0,2022-12-02,2022-12-02,ハーマンインテリア合同会社,,合同会社,東京都,渋谷区,本町４丁目４番７－６０５号,,13,113,1510071,,,,,,,2022-12-02,1,,,,,ハーマンインテリア,0
1190,5011003015830,新規,0,2022-12-02,2022-12-02,合同会社ワイケイプラン,,合同会社,東京都,目黒区,目黒本町４丁目２０－７ラージヒル３０２,,13,110,1520002,,,,,,,2022-12-02,1,,,,,ワイケイプラン,0
1191,5011005009855,新規,0,2022-12-02,2022-12-02,一般社団法人日本パーソナライズメイクアップ検定協会,,その他の設立登記法人,東京都,渋谷区,千駄ヶ谷４丁目２６番１２号玉造ビル７０１号,,13,113,1510051,,,,,,,2022-12-02,1,,,,,,0
1193,5011101101020,新規,0,2022-12-02,2022-12-02,吉田エレテック株式会社,,株式会社,東京都,新宿区,西新宿６丁目１６番１２号,,13,104,1600023,,,,,,,2022-12-02,1,,,,,ヨシダエレテック,0
1194,5011101101037,新規,0,2022-12-02,2022-12-02,恒森リアルエステート株式会社,,株式会社,東京都,新宿区,新宿２丁目１６番９号,,13,104,1600022,,,,,,,2022-12-02,1,,,,,コウシンリアルエステート,0
1200,5011703003317,新規,0,2022-12-02,2022-12-02,合同会社ＯＭＯＮＹＡ,,合同会社,東京都,江戸川区,東葛西１丁目２１番１４号,,13,123,1340084,,,,,,,2022-12-02,1,,,,,オモンヤ,0
1214,5020001149210,新規,0,2022-12-02,2022-12-02,株式会社Ｎ,,株式会社,神奈川県,横浜市金沢区,六浦南５丁目８番３６号,,14,108,2360038,,,,,,,2022-12-02,1,,,,,エヌ,0
1215,5020001149219,新規,0,2022-12-02,2022-12-02,株式会社マクロワクロ,,株式会社,神奈川県,川崎市宮前区,菅生５丁目２番２８号１,,14,136,2160015,,,,,,,2022-12-02,1,,,,,マクロワクロ,0
1218,5020003022828,新規,0,2022-12-02,2022-12-02,シーエント合同会社,,合同会社,神奈川県,川崎市中原区,下小田中３丁目１６－２８ウエストヴィラ１０３,,14,133,2110041,,,,,,,2022-12-02,1,,,,,シーエント,0
1219,5021003012430,新規,0,2022-12-02,2022-12-02,合同会社エンジョイ商店,,合同会社,神奈川県,三浦郡葉山町,一色２１４７－２－Ａ２,,14,301,2400111,,,,,,,2022-12-02,1,,,,,エンジョイショウテン,0
1220,5021003012439,新規,0,2022-12-02,2022-12-02,ＦＢ商事合同会社,,合同会社,神奈川県,海老名市,今泉６－２７－４７－５,,14,215,2430400,,,,,,,2022-12-02,1,,,,,エフビーショウジ,0
1221,5021005012676,新規,0,2022-12-02,2022-12-02,医療法人社団湘成会,,その他の設立登記法人,神奈川県,茅ヶ崎市,東海岸北２丁目１番５２号茅ヶ崎メディカルビル２階,,14,207,2530053,,,,,,,2022-12-02,1,,,,,ショウセイカイ,0
1226,5030001151289,新規,0,2022-12-02,2022-12-02,株式会社Ｆｏｒｅｓｔ,,株式会社,埼玉県,草加市,松原２丁目４番１６－７１１号,,11,221,3400041,,,,,,,2022-12-02,1,,,,,フォレスト,0
1227,5030001151297,新規,0,2022-12-02,2022-12-02,株式会社ＫｓＹ,,株式会社,埼玉県,深谷市,折之口１１３２番地,,11,218,3660812,,,,,,,2022-12-02,1,,,,,ケイエスワイ,0
1235,5030003020649,新規,0,2022-12-02,2022-12-02,間中建設合同会社,,合同会社,埼玉県,さいたま市大宮区,櫛引町１丁目２８８番地,,11,103,3300851,,,,,,,2022-12-02,1,,,,,マナカケンセツ,0
1243,5040005021834,新規,0,2022-12-02,2022-12-02,協同組合永興,,その他の設立登記法人,千葉県,船橋市,湊町２丁目８番２棟－２０２号,,12,204,2730011,,,,,,,2022-12-02,1,,,,,エイコウ,0
1257,5080001025323,新規,0,2022-12-02,2022-12-02,株式会社ＢｒｅａｋＯｕｔ,,株式会社,静岡県,静岡市駿河区,高松２丁目２番８号,,22,102,4228034,,,,,,,2022-12-02,1,,,,,ブレイクアウト,0
1261,5080401026185,新規,0,2022-12-02,2022-12-02,株式会社コバルトピクチャーズ,,株式会社,静岡県,浜松市南区,東若林町１５４５番地の１,,22,134,4328052,,,,,,,2022-12-02,1,,,,,コバルトピクチャーズ,0
1279,5120001250701,新規,0,2022-12-02,2022-12-02,株式会社ケイケイパートナーズ,,株式会社,大阪府,枚方市,新之栄町２０－５－１０１,,27,210,5731166,,,,,,,2022-12-02,1,,,,,ケイケイパートナーズ,0
1281,5120005023319,新規,0,2022-12-02,2022-12-02,一般社団法人そよ風,,その他の設立登記法人,大阪府,大阪市生野区,小路３丁目１４番９号,,27,116,5440002,,,,,,,2022-12-02,1,,,,,ソヨカゼ,0
1284,5120101066601,新規,0,2022-12-02,2022-12-02,株式会社久左衛門,,株式会社,大阪府,岸和田市,池尻町４３５番地の９,,27,202,5960813,,,,,,,2022-12-02,1,,,,,キュウザエモン,0
1291,5130001073201,新規,0,2022-12-02,2022-12-02,株式会社青丘,,株式会社,京都府,京都市下京区,綾小路通柳馬場東入塩屋町４４番地,,26,106,6008052,,,,,,,2022-12-02,1,,,,,セイキュウ,0
1297,5140001128235,新規,0,2022-12-02,2022-12-02,株式会社ＬＩＦＥ　ＳＴＩＴＣＨ,,株式会社,兵庫県,神戸市西区,伊川谷町有瀬１１５７番地２－５０２号,,28,111,6512113,,,,,,,2022-12-02,1,,,,,ライフステッチ,0
1298,5140001128243,新規,0,2022-12-02,2022-12-02,八達商事株式会社,,株式会社,兵庫県,神戸市灘区,鶴甲５丁目１番５０－２０２号,,28,102,6570011,,,,,,,2022-12-02,1,,,,,ハッタツショウジ,0
1299,5140001128268,新規,0,2022-12-02,2022-12-02,株式会社Ｂ．Ｃ．Ｊ,,株式会社,兵庫県,宝塚市,安倉北３丁目６番５号,,28,214,6650821,,,,,,,2022-12-02,1,,,,,ビーシージェイ,0
1300,5140005026393,新規,0,2022-12-02,2022-12-02,特定非営利活動法人おてがるカリンバ協会,,その他の設立登記法人,兵庫県,姫路市,手柄１丁目７８番地の１,,28,201,6700972,,,,,,,2022-12-02,1,,,,,オテガルカリンバキョウカイ,0
1306,5170001017393,新規,0,2022-12-02,2022-12-02,株式会社アリダ薬局,,株式会社,和歌山県,有田市,辻堂６２６番地,,30,204,6490311,,,,,,,2022-12-02,1,,,,,アリダヤッキョク,0
1312,5180001154013,新規,0,2022-12-02,2022-12-02,株式会社ユニバーサルファーム大口,,株式会社,愛知県,丹羽郡大口町,下小口７丁目１５５番地,,23,361,4800144,,,,,,,2022-12-02,1,,,,,ユニバーサルファームオオグチ,0
1315,5180003024544,新規,0,2022-12-02,2022-12-02,合同会社ＨＫＧ,,合同会社,愛知県,日進市,三本木町一番割３８番地１サンシャイン富士ＰＡＲＴＩＶ６１８,00128656,23,230,4700101,,,,,,,2022-12-02,1,,,,,エイチケージー,0
1316,5180003024569,新規,0,2022-12-02,2022-12-02,合同会社サイバティクス,,合同会社,愛知県,小牧市,城山４丁目５８番地１６,,23,219,4850812,,,,,,,2022-12-02,1,,,,,サイバティクス,0
1317,5180005020013,新規,0,2022-12-02,2022-12-02,一般社団法人Ｇｏ　Ｇｒｅｅｎ　Ｊａｐａｎ,,その他の設立登記法人,愛知県,海部郡大治町,大字砂子字長田１１７８番地２,,23,424,4901143,,,,,,,2022-12-02,1,,,,,ゴーグリーンジャパン,0
1321,5190001029981,新規,0,2022-12-02,2022-12-02,株式会社Ｔ‐ｅｃ,,株式会社,三重県,鈴鹿市,庄野羽山４丁目１７番２号,,24,207,5130834,,,,,,,2022-12-02,1,,,,,テック,0
1324,5200001040714,新規,0,2022-12-02,2022-12-02,ＥＧホールディングス株式会社,,株式会社,岐阜県,多治見市,赤坂町８丁目３２番地の１,,21,204,5070057,,,,,,,2022-12-02,1,,,,,イージーホールディングス,0
1325,5200001040722,新規,0,2022-12-02,2022-12-02,株式会社クロスワーカー,,株式会社,岐阜県,関市,段下１２０番地１０,,21,205,5013255,,,,,,,2022-12-02,1,,,,,クロスワーカー,0
1326,5200001040730,新規,0,2022-12-02,2022-12-02,株式会社ワットクリーンサービス,,株式会社,岐阜県,高山市,名田町３丁目８６番地６,,21,203,5060021,,,,,,,2022-12-02,1,,,,,ワットクリーンサービス,0
1330,5230003001942,新規,0,2022-12-02,2022-12-02,合同会社建築設計Ｋ‐ｓｔｙｌｅ,,合同会社,富山県,富山市,経堂１丁目７８番地,,16,201,9300951,,,,,,,2022-12-02,1,,,,,ケンチクセッケイケースタイル,0
1333,5240001060733,新規,0,2022-12-02,2022-12-02,株式会社ＳＴＡＲ　ＯＲＩＥＮＴ,,株式会社,広島県,広島市中区,袋町４番５号渡辺ビル２階,,34,101,7300036,,,,,,,2022-12-02,1,,,,,スターオリエント,0
1336,5240003005901,新規,0,2022-12-02,2022-12-02,ＦＸ　Ｈ・Ｈジャパン合名会社,,合名会社,広島県,広島市東区,戸坂大上４丁目９－１５－２０２号,,34,102,7320014,,,,,,,2022-12-02,1,,,,,エフエックスエイチエイチジャパン,0
1343,5260001037465,新規,0,2022-12-02,2022-12-02,株式会社ベルドットコム,,株式会社,岡山県,岡山市北区,下中野３３４番地１１０日商ビル３Ｆ,,33,101,7000973,,,,,,,2022-12-02,1,,,,,ベルドットコム,0
1345,5280001008828,新規,0,2022-12-02,2022-12-02,まつえ環境の森株式会社,,株式会社,島根県,松江市,学園南２丁目５番１３号２０３,,32,201,6900826,,,,,,,2022-12-02,1,,,,,マツエカンキョウノモリ,0
1347,5290003013271,新規,0,2022-12-02,2022-12-02,合同会社Ｕｎｄｉｎｅ,,合同会社,福岡県,福岡市南区,筑紫丘１丁目１２番１－５１９号チサンマンション大橋,,40,134,8150036,,,,,,,2022-12-02,1,,,,,ウンディーネ,0
1349,5290801029089,新規,0,2022-12-02,2022-12-02,株式会社明和,,株式会社,福岡県,鞍手郡鞍手町,大字中山３１６８番地２２,,40,402,8071312,,,,,,,2022-12-02,1,,,,,メイワ,0
1350,5290801029097,新規,0,2022-12-02,2022-12-02,ＳＵＮＴＡＣ株式会社,,株式会社,福岡県,北九州市小倉南区,蜷田若園３丁目１１番３０号,,40,107,8020814,,,,,,,2022-12-02,1,,,,,サンタック,0
1362,5330001030347,新規,0,2022-12-02,2022-12-02,Ａプラン株式会社,,株式会社,熊本県,熊本市南区,近見８丁目１０７２番地５,,43,104,8614101,,,,,,,2022-12-02,1,,,,,エープラン,0
1364,5330005010592,新規,0,2022-12-02,2022-12-02,医療法人アトピア,,その他の設立登記法人,熊本県,菊池郡菊陽町,大字津久礼２４２２番地４サンリーカリーノ２階,,43,404,8691101,,,,,,,2022-12-02,1,,,,,アトピア,0
1365,5340001025214,新規,0,2022-12-02,2022-12-02,株式会社ＫＭＪ,,株式会社,鹿児島県,鹿児島市,新栄町６番２２号,,46,201,8900072,,,,,,,2022-12-02,1,,,,,ケイエムジェイ,0
1366,5340001025222,新規,0,2022-12-02,2022-12-02,株式会社ＭＰＳ　Ｇｒｏｕｐ,,株式会社,鹿児島県,鹿児島市,千日町２番１３号程よしビル２階,,46,201,8920843,,,,,,,2022-12-02,1,,,,,エムピーエスグループ,0
1371,5350003004231,新規,0,2022-12-02,2022-12-02,合同会社Ｐ．Ｓ．藤宝,,合同会社,宮崎県,都城市,早鈴町１４６９番地,,45,202,8850055,,,,,,,2022-12-02,1,,,,,ピーエストウホウ,0
1376,5410001013335,新規,0,2022-12-02,2022-12-02,ＳＩＡ株式会社,,株式会社,秋田県,秋田市,牛島東１丁目５番１６－９号,,05,201,0100062,,,,,,,2022-12-02,1,,,,,エスアイエー,0
1387,5460301005110,新規,0,2022-12-02,2022-12-02,株式会社嘉藤鉄工所,,株式会社,北海道,北見市,留辺蘂町旭中央２６番地３９,,01,208,0910023,,,,,,,2022-12-02,1,,,,,カトウテッコウショ,0
1399,5700150113229,新規,0,2022-12-02,2022-12-02,Ｄｏｎｇｇｕａｎｓｈｉ　Ｚｈｉｓｈｏｕ　Ｄｉａｎｚｉｓｈａｎｇｗｕ　Ｙｏｕｘｉａｎｇｏｎｇｓｉ,,外国会社等,,,,,,,,１００５　Ｄａｎｙｕａｎ，Ｓ２　Ｈａｏｌｏｕ，Ｆｅｎｇｇａｎｇ，Ｔｉａｎａｎｓｈｕｍａｃｈｅｎｇ６６　Ｈａｏ，ＤｏｎｇＳｈｅｎ　２　Ｌｕ，Ｙａｎｔｉａｎｃｕｎ　Ｆｅｎｇｇａｎｇｚｈｅｎ　Ｄｏｎｇｇｕａｎ,,,,,,2022-12-02,1,,,,,ドングアンシチシユデンシシヨウムユウゲンコウシ,0
1405,6010001231232,新規,0,2022-12-02,2022-12-02,ワンポリッシュ株式会社,,株式会社,東京都,中央区,銀座７丁目１３番２１号銀座ｓｉｎｒｏｋｕｓｙｕビル２階,,13,102,1040061,,,,,,,2022-12-02,1,,,,,ワンポリッシュ,0
1411,6010005035828,新規,0,2022-12-02,2022-12-02,一般社団法人財務・金融コンサルタント協会,,その他の設立登記法人,東京都,千代田区,永田町２丁目１７番１７号,,13,101,1000014,,,,,,,2022-12-02,1,,,,,ザイムキンユウコンサルタントキョウカイ,0
1412,6010005035852,新規,0,2022-12-02,2022-12-02,プライムパートナー税理士法人,,その他の設立登記法人,東京都,千代田区,六番町１１番地７ＡＨＫＳ・ＡＴＲＩＵＭ２階,,13,101,1020085,,,,,,,2022-12-02,1,,,,,プライムパートナー,0
1428,6010701043539,新規,0,2022-12-02,2022-12-02,ビジネス総合支援サービス株式会社,,株式会社,東京都,品川区,北品川１丁目１０番２号ピラミッド品川ビル５Ｆ,,13,109,1400001,,,,,,,2022-12-02,1,,,,,ビジネスソウゴウシエンサービス,0
1430,6010903007820,新規,0,2022-12-02,2022-12-02,テイクホーム合同会社,,合同会社,東京都,世田谷区,成城３丁目１４番３号,,13,112,1570066,,,,,,,2022-12-02,1,,,,,テイクホーム,0
1446,6011101101028,新規,0,2022-12-02,2022-12-02,株式会社スニフアウト,,株式会社,東京都,新宿区,西新宿６丁目１５番１号セントラルパークタワー・ラ・トゥール新宿７０１号室,,13,104,1600023,,,,,,,2022-12-02,1,,,,,スニフアウト,0
1454,6011501028705,新規,0,2022-12-02,2022-12-02,ＴＡＫＡＲＡ株式会社,,株式会社,東京都,荒川区,西日暮里６丁目４８番５－３０１号,,13,118,1160013,,,,,,,2022-12-02,1,,,,,タカラ,0
1455,6011703003316,新規,0,2022-12-02,2022-12-02,合同会社未来人材なつ,,合同会社,東京都,江戸川区,一之江６丁目６－７,,13,123,1320024,,,,,,,2022-12-02,1,,,,,ミライジンザイナツ,0
1459,6011803005410,新規,0,2022-12-02,2022-12-02,アル合同会社,,合同会社,東京都,足立区,保塚町１９番１６号－１Ｆ,,13,121,1210072,,,,,,,2022-12-02,1,,,,,アル,0
1460,6011805003230,新規,0,2022-12-02,2022-12-02,一般社団法人ＪＣＳＡ,,その他の設立登記法人,東京都,足立区,千住３丁目６番１２号ツオード千住壱番館１２０２号室,,13,121,1200034,,,,,,,2022-12-02,1,,,,,ジェイシーエスエイ,0
1464,6012701017381,新規,0,2022-12-02,2022-12-02,株式会社市村建工,,株式会社,東京都,清瀬市,中清戸１丁目４５１番地１,,13,221,2040012,,,,,,,2022-12-02,1,,,,,イチムラケンコウ,0
1472,6013305003413,新規,0,2022-12-02,2022-12-02,一般社団法人日本付加製造学会,,その他の設立登記法人,東京都,豊島区,雑司が谷３丁目１９番１２号,,13,116,1710032,,,,,,,2022-12-02,1,,,,,ニホンフカセイゾウガッカイ,0
1478,6020001149234,新規,0,2022-12-02,2022-12-02,相心機工株式会社,,株式会社,神奈川県,横浜市鶴見区,上末吉４丁目５番２９号,,14,101,2300011,,,,,,,2022-12-02,1,,,,,ソウシンキコウ,0
1484,6020003022835,新規,0,2022-12-02,2022-12-02,合同会社ＯＬＴＬ,,合同会社,神奈川県,横浜市港南区,上大岡西２丁目１０番３７号,,14,111,2330002,,,,,,,2022-12-02,1,,,,,オーエルテーエル,0
1485,6020003022843,新規,0,2022-12-02,2022-12-02,合同会社エムケーワン,,合同会社,神奈川県,川崎市宮前区,有馬３丁目２４－１有馬マンション２０１,,14,136,2160003,,,,,,,2022-12-02,1,,,,,エムケーワン,0
1491,6021001077581,新規,0,2022-12-02,2022-12-02,株式会社神工冷熱,,株式会社,神奈川県,平塚市,田村１丁目２１番２１－１号,,14,203,2540013,,,,,,,2022-12-02,1,,,,,シンコウレイネツ,0
1492,6021001077623,新規,0,2022-12-02,2022-12-02,株式会社ＢＩＲＩＳＥ,,株式会社,神奈川県,大和市,南林間１丁目７番１０号サンライズビル２Ｆ,,14,213,2420006,,,,,,,2022-12-02,1,,,,,ビライズ,0
1496,6021003012438,新規,0,2022-12-02,2022-12-02,ＭＲＰ合同会社,,合同会社,神奈川県,横須賀市,上町３丁目７番地２,,14,201,2380017,,,,,,,2022-12-02,1,,,,,エムアールピー,0
1499,6030001151172,新規,0,2022-12-02,2022-12-02,株式会社真興業,,株式会社,埼玉県,春日部市,粕壁２丁目７－４１ＢＥＣＫＥＡＳＴ９０２,,11,214,3440061,,,,,,,2022-12-02,1,,,,,マコトコウギョウ,0
1500,6030001151296,新規,0,2022-12-02,2022-12-02,株式会社アスクレオ,,株式会社,埼玉県,川口市,戸塚鋏町２５番３号,,11,203,3330805,,,,,,,2022-12-02,1,,,,,アスクレオ,0
1503,6030003020664,新規,0,2022-12-02,2022-12-02,ｒｅｖｅｒｉｅ合同会社,,合同会社,埼玉県,さいたま市北区,大成町４丁目４７５番地２ライオンズマンション大宮大成２０４号,,11,102,3310815,,,,,,,2022-12-02,1,,,,,レヴェリ,0
1512,6060001035496,新規,0,2022-12-02,2022-12-02,株式会社ＴａＯ,,株式会社,栃木県,下野市,上吉田３２４番地１,,09,216,3230102,,,,,,,2022-12-02,1,,,,,タオ,0
1518,6080001025322,新規,0,2022-12-02,2022-12-02,株式会社ニューワールドエンターテイメント,,株式会社,静岡県,静岡市葵区,昭和町１番地の２,,22,101,4200033,,,,,,,2022-12-02,1,,,,,ニューワールドエンターテイメント,0
1519,6080003002906,新規,0,2022-12-02,2022-12-02,合同会社ライフ,,合同会社,静岡県,静岡市清水区,堂林２丁目２番１７号,,22,103,4240851,,,,,,,2022-12-02,1,,,,,ライフ,0
1546,6120101066609,新規,0,2022-12-02,2022-12-02,株式会社小川造林,,株式会社,大阪府,河内長野市,小山田町２８４６番地の３,,27,216,5860094,,,,,,,2022-12-02,1,,,,,オガワゾウリン,0
1548,6120103004954,新規,0,2022-12-02,2022-12-02,合同会社ｓｅＤ’ｓ,,合同会社,大阪府,泉南市,信達市場１１６－４３,,27,228,5900504,,,,,,,2022-12-02,1,,,,,エスイーディーズ,0
1550,6120903004393,新規,0,2022-12-02,2022-12-02,合同会社キャスト,,合同会社,大阪府,池田市,空港１丁目８番７号,,27,204,5630034,,,,,,,2022-12-02,1,,,,,キャスト,0
1560,6130001073175,新規,0,2022-12-02,2022-12-02,明軒株式会社,,株式会社,京都府,舞鶴市,字倉谷１０９０番地１,,26,202,6240906,,,,,,,2022-12-02,1,,,,,メイケン,0
1563,6140001128176,新規,0,2022-12-02,2022-12-02,株式会社アトリエ・エトー,,株式会社,兵庫県,加古川市,野口町坂元北５丁目１３番地の１,,28,210,6750010,,,,,,,2022-12-02,1,,,,,アトリエエトー,0
1564,6140001128234,新規,0,2022-12-02,2022-12-02,Ａｕｔｈｅｎｔｉｃ株式会社,,株式会社,兵庫県,川辺郡猪名川町,紫合字氏上１６８番地の６,,28,301,6660233,,,,,,,2022-12-02,1,,,,,オーセンティック,0
1565,6140001128242,新規,0,2022-12-02,2022-12-02,マイチーム株式会社,,株式会社,兵庫県,明石市,朝霧南町２丁目５－２７,,28,203,6730870,,,,,,,2022-12-02,1,,,,,マイチーム,0
1568,6140003018417,新規,0,2022-12-02,2022-12-02,合同会社ｓｅｅｓｕｎ,,合同会社,兵庫県,神戸市垂水区,青山台１丁目２番１５－１号,,28,108,6550873,,,,,,,2022-12-02,1,,,,,シーサン,0
1569,6140003018433,新規,0,2022-12-02,2022-12-02,合同会社エストファーム,,合同会社,兵庫県,三田市,小野５９４番地３,,28,219,6691504,,,,,,,2022-12-02,1,,,,,エストファーム,0
1570,6140005026401,新規,0,2022-12-02,2022-12-02,南武建設土木事業協同組合,,その他の設立登記法人,兵庫県,尼崎市,南武庫之荘１１丁目８番１９－１０９号,,28,202,6610033,,,,,,,2022-12-02,1,,,,,ナンブケンセツドボク,0
1578,6180001154020,新規,0,2022-12-02,2022-12-02,株式会社幹,,株式会社,愛知県,西春日井郡豊山町,大字豊場字中之町４７番地１,,23,342,4800202,,,,,,,2022-12-02,1,,,,,ミキ,0
1579,6180001154029,新規,0,2022-12-02,2022-12-02,株式会社ＴＫＲ,,株式会社,愛知県,名古屋市昭和区,山手通２丁目９番地の１アビタシオン山手１階Ｂ,,23,107,4660815,,,,,,,2022-12-02,1,,,,,テイケイアール,0
1580,6180005020012,新規,0,2022-12-02,2022-12-02,社会保険労務士法人ＤＸフルサポート,,その他の設立登記法人,愛知県,名古屋市中村区,名駅１丁目１番１号ＪＰタワー名古屋２１階,,23,105,4500002,,,,,,,2022-12-02,1,,,,,ディーエックスフルサポート,0
1586,6190001029980,新規,0,2022-12-02,2022-12-02,ＥＳプラス株式会社,,株式会社,三重県,四日市市,別名５丁目４番２８号,,24,202,5100007,,,,,,,2022-12-02,1,,,,,イーエスプラス,0
1587,6200001040713,新規,0,2022-12-02,2022-12-02,株式会社グッドウェーブ,,株式会社,岐阜県,羽島郡岐南町,上印食４丁目１１４番地,,21,302,5016001,,,,,,,2022-12-02,1,,,,,グッドウェーブ,0
1588,6200001040721,新規,0,2022-12-02,2022-12-02,株式会社西川精機,,株式会社,岐阜県,岐阜市,六条片田２丁目２番２号,,21,201,5008355,,,,,,,2022-12-02,1,,,,,ニシカワセイキ,0
1590,6200003005755,新規,0,2022-12-02,2022-12-02,ＴＧ合同会社,,合同会社,岐阜県,不破郡垂井町,栗原１９１２番地の１,,21,361,5032123,,,,,,,2022-12-02,1,,,,,ティージー,0
1591,6220001025150,新規,0,2022-12-02,2022-12-02,ＱＡＩ　Ｊａｐａｎ株式会社,,株式会社,石川県,金沢市,彦三町１丁目２番１号アソルティ金沢彦三１階,,17,201,9200901,,,,,,,2022-12-02,1,,,,,キューエーアイジャパン,0
1594,6240001060732,新規,0,2022-12-02,2022-12-02,株式会社オーピーエヌ,,株式会社,広島県,広島市中区,堺町２丁目４番１号,,34,101,7300853,,,,,,,2022-12-02,1,,,,,オーピーエヌ,0
1602,6260001037456,新規,0,2022-12-02,2022-12-02,株式会社正宗,,株式会社,岡山県,備前市,伊里中２４８番地,,33,211,7050023,,,,,,,2022-12-02,1,,,,,マサムネ,0
1612,6290001099774,新規,0,2022-12-02,2022-12-02,株式会社Ｋラッシュ,,株式会社,福岡県,福岡市東区,松島６丁目７番６号,,40,131,8130062,,,,,,,2022-12-02,1,,,,,ケイラッシュ,0
1613,6290001099799,新規,0,2022-12-02,2022-12-02,株式会社１０ｙｅａｒｓ　ａｆｔｅｒ,,株式会社,福岡県,久留米市,田主丸町益生田２６１番地２７,,40,203,8391213,,,,,,,2022-12-02,1,,,,,テンイアーズアフター,0
1619,6290803004279,新規,0,2022-12-02,2022-12-02,合同会社小川屋,,合同会社,福岡県,北九州市小倉北区,昭和町１９番１０‐９０６号,,40,106,8020075,,,,,,,2022-12-02,1,,,,,オガワヤ,0
1624,6330001030354,新規,0,2022-12-02,2022-12-02,株式会社ｉｍｍｅｒｓｉｏｎ,,株式会社,熊本県,熊本市東区,若葉１丁目３番１４号松本ビル１Ｆ,,43,102,8620903,,,,,,,2022-12-02,1,,,,,イマージョン,0
1626,6340001025213,新規,0,2022-12-02,2022-12-02,株式会社ゆうゆう,,株式会社,鹿児島県,霧島市,霧島田口２６１４番地１,,46,218,8994201,,,,,,,2022-12-02,1,,,,,ユウユウ,0
1627,6340001025221,新規,0,2022-12-02,2022-12-02,株式会社光耀技研,,株式会社,鹿児島県,鹿児島市,希望ヶ丘町２５番６－１号,,46,201,8910107,,,,,,,2022-12-02,1,,,,,コウヨウギケン,0
1629,6350001018059,新規,0,2022-12-02,2022-12-02,株式会社のぞみステーション,,株式会社,宮崎県,宮崎市,上野町１番３号アルテマイスタードルチェ１００２号,,45,201,8800011,,,,,,,2022-12-02,1,,,,,ノゾミステーション,0
1630,6350003004230,新規,0,2022-12-02,2022-12-02,合同会社エフズコーポレーション,,合同会社,宮崎県,小林市,南西方６２９２番地１０,,45,205,8860005,,,,,,,2022-12-02,1,,,,,エフズコーポレーション,0
1641,6380003005333,新規,0,2022-12-02,2022-12-02,ながぬまアスク合同会社,,合同会社,福島県,須賀川市,志茂字六角６５番地,,07,207,9620201,,,,,,,2022-12-02,1,,,,,ナガヌマアスク,0
1643,6390001017081,新規,0,2022-12-02,2022-12-02,株式会社ＡＳ　Ｈｏｌｄｉｎｇｓ,,株式会社,山形県,南陽市,赤湯３３１番地の４ＴＷＩＮ－Ｌ,,06,213,9992211,,,,,,,2022-12-02,1,,,,,アースホールディングス,0
1660,6450001013850,新規,0,2022-12-02,2022-12-02,株式会社林家,,株式会社,北海道,上川郡当麻町,四条東２丁目１１番１０号,,01,454,0781314,,,,,,,2022-12-02,1,,,,,ハヤシヤ,0
1664,6490001010349,新規,0,2022-12-02,2022-12-02,株式会社ゆずの木,,株式会社,高知県,南国市,陣山１８０番地１,,39,204,7830028,,,,,,,2022-12-02,1,,,,,ユズノキ,0
1674,6700150113228,新規,0,2022-12-02,2022-12-02,ｓｈｅｎｚｈｅｎｓｈｉ　ｙｉ　ｗｅｉ　Ｔｅｃｈｎｏｌｏｇｙ　Ｃｏ．Ｌｔｄ,,外国会社等,,,,,,,,Ｒｏｏｍ　２０１，Ａ　ｂｌｏｃｋ，１　１ｓｔ　Ｑｉａｎ　Ｗａｎ　Ｒｏａｄ，Ｑｉａｎｈａｉ　Ｓｈｅｎｚｈｅｎ－Ｈｏｎｇ　Ｋｏｎｇ　Ｃｏｏｐｅｒａｔｉｏｎ　Ｚｏｎｅ　Ｓｈｅｎｚｈｅｎ　Ｇｕａｎｇｄｏｎｇ,,,,,,2022-12-02,1,,,,,シエンチエンシイウエイテクノロジーカンパニーリミテツド,0
1685,7010001231231,新規,0,2022-12-02,2022-12-02,株式会社生乳検査センター,,株式会社,東京都,文京区,湯島２丁目１８番６号,,13,105,1130034,,,,,,,2022-12-02,1,,,,,セイニュウケンサセンター,0
1686,7010001231272,新規,0,2022-12-02,2022-12-02,蜜巣株式会社,,株式会社,東京都,中央区,日本橋蛎殻町１丁目３番５号共同ビル２階２３号,,13,102,1030014,,,,,,,2022-12-02,1,,,,,ミツソウ,0
1691,7010005035851,新規,0,2022-12-02,2022-12-02,一般社団法人ＳＤＣ,,その他の設立登記法人,東京都,文京区,本駒込１丁目２３番１０－１０４号,,13,105,1130021,,,,,,,2022-12-02,1,,,,,エスディーシー,0
1694,7010401171119,新規,0,2022-12-02,2022-12-02,株式会社ＭＳＭＣ,,株式会社,東京都,港区,浜松町２丁目２－１５浜松町ダイヤビル２Ｆ,,13,103,1050013,,,,,,,2022-12-02,1,,,,,エムエスエムシー,0
1696,7010403029059,新規,0,2022-12-02,2022-12-02,ＫＡＪＩＴＳＵ合同会社,,合同会社,東京都,港区,南青山３丁目１番３６号青山丸竹ビル６Ｆ,,13,103,1070062,,,,,,,2022-12-02,1,,,,,カジツ,0
1699,7010503006800,新規,0,2022-12-02,2022-12-02,合同会社ＳＦＳ,,合同会社,東京都,台東区,千束１丁目１４―９レアライズ浅草２、４０２,,13,106,1110031,,,,,,,2022-12-02,1,,,,,エスエフエス,0
1702,7010601062241,新規,0,2022-12-02,2022-12-02,ＮＡＭＹ株式会社,,株式会社,東京都,墨田区,横川１丁目１６番３号,,13,107,1300003,,,,,,,2022-12-02,1,,,,,ナミー,0
1706,7010701043562,新規,0,2022-12-02,2022-12-02,ＩＣＡソリューションズ株式会社,,株式会社,東京都,品川区,平塚３丁目１３番７号ＺＥＳＴＹ戸越銀座１０２,,13,109,1420051,,,,,,,2022-12-02,1,,,,,アイシーエーソリューションズ,0
1707,7010703006484,新規,0,2022-12-02,2022-12-02,Ｍｅｄｉｃａｌ　Ｐｏｉｎｔ合同会社,,合同会社,東京都,品川区,大崎２丁目９番２－３２０１号,,13,109,1410032,,,,,,,2022-12-02,1,,,,,メディカルポイント,0
1710,7010803004347,新規,0,2022-12-02,2022-12-02,合同会社天然水,,合同会社,東京都,大田区,中馬込３丁目１０－３ケリア西馬込アジールコート３１５,,13,111,1430027,,,,,,,2022-12-02,1,,,,,テンネンスイ,0
1715,7011001151205,新規,0,2022-12-02,2022-12-02,Ｍｏｖｅｓ株式会社,,株式会社,東京都,目黒区,上目黒２丁目１６番１５号Ｈａｍａｙｕ－２０３,,13,110,1530051,,,,,,,2022-12-02,1,,,,,ムーブス,0
1716,7011001151279,新規,0,2022-12-02,2022-12-02,株式会社スカイズ,,株式会社,東京都,渋谷区,桜丘町２７番１号,,13,113,1500031,,,,,,,2022-12-02,1,,,,,,0
1720,7011101101010,新規,0,2022-12-02,2022-12-02,ＨＳＢリアルエステート株式会社,,株式会社,東京都,新宿区,西新宿７丁目６番８号アイアイビル３Ｆ,,13,104,1600023,,,,,,,2022-12-02,1,,,,,エイチエスビーリアルエステート,0
1721,7011101101027,新規,0,2022-12-02,2022-12-02,株式会社フォカッチャ,,株式会社,東京都,新宿区,新宿１丁目３６－２新宿第七葉山ビル３Ｆ,,13,104,1600022,,,,,,,2022-12-02,1,,,,,フォカッチャ,0
1722,7011101101043,新規,0,2022-12-02,2022-12-02,株式会社ＨＲベンチャーズ,,株式会社,東京都,新宿区,西新宿１丁目１７番１号日本生命新宿西口ビル,,13,104,1600023,,,,,,,2022-12-02,1,,,,,エイチアールベンチャーズ,0
1726,7011201024268,新規,0,2022-12-02,2022-12-02,株式会社Ｓ＆Ｈ,,株式会社,東京都,中野区,本町４丁目４４番１１号アルペジオ新中野２０５,,13,114,1640012,,,,,,,2022-12-02,1,,,,,エスアンドエイチ,0
1727,7011201024276,新規,0,2022-12-02,2022-12-02,ここ杜株式会社,,株式会社,東京都,中野区,鷺宮１丁目２７－６青山ビル２階,,13,114,1650032,,,,,,,2022-12-02,1,,,,,ココモリ,0
1730,7011301028276,新規,0,2022-12-02,2022-12-02,Ｌａｕｇｈ＆Ｐｅａｃｅ株式会社,,株式会社,東京都,杉並区,高円寺北３丁目１番９号青田ビル１０２,,13,115,1660002,,,,,,,2022-12-02,1,,,,,ラフアンドピース,0
1731,7011303004589,新規,0,2022-12-02,2022-12-02,合同会社Ｃｌｅａｒ　Ｆｌｏｕｒ,,合同会社,東京都,杉並区,今川４丁目１９－２０キャニオンヒル１９９２－１２０２,,13,115,1670035,,,,,,,2022-12-02,1,,,,,,0
1733,7011601026392,新規,0,2022-12-02,2022-12-02,Ｓｏｍａｔｏ一級建築士事務所株式会社,,株式会社,東京都,練馬区,上石神井３丁目２８－１１－２号室,,13,120,1770044,,,,,,,2022-12-02,1,,,,,ソマトイッキュウケンチクシジムショ,0
1742,7011701025823,新規,0,2022-12-02,2022-12-02,Ｕｌｔｒａｇｅｎｉｃ　Ｒｅｓｅａｒｃｈ　ａｎｄ　Ｔｅｃｈｎｏｌｏｇｉｅｓ株式会社,,株式会社,東京都,江戸川区,中葛西２丁目２１番１０号,,13,123,1340083,,,,,,,2022-12-02,1,,,,,ウルトラジェニックリサーチアンドテクノロジーズ,0
1743,7011701025831,新規,0,2022-12-02,2022-12-02,株式会社ホワイトビアード,,株式会社,東京都,江戸川区,瑞江２丁目４番３号プラウド瑞江１０２号,,13,123,1320011,,,,,,,2022-12-02,1,,,,,ホワイトビアード,0
1744,7011703003315,新規,0,2022-12-02,2022-12-02,恵心国際合同会社,,合同会社,東京都,江戸川区,西小岩１丁目１２番４号メゾン杉本１０２号,,13,123,1330057,,,,,,,2022-12-02,1,,,,,エシンコクサイ,0
1759,7020001149266,新規,0,2022-12-02,2022-12-02,株式会社Ａｏ,,株式会社,神奈川県,川崎市宮前区,宮崎２丁目７番地４３エスティ宮崎台２０５,,14,136,2160033,,,,,,,2022-12-02,1,,,,,アオ,0
1762,7020003022834,新規,0,2022-12-02,2022-12-02,Ｊ．Ｂ．Ｗｅｓｔｅｒｎ　Ｒｅｃｒｕｉｔ合同会社,,合同会社,神奈川県,横浜市磯子区,磯子３丁目１３番Ｊ－３１０号,,14,107,2350016,,,,,,,2022-12-02,1,,,,,ジェイビーウエスタンリクルート,0
1764,7021001077597,新規,0,2022-12-02,2022-12-02,株式会社Ｓｅｖｅｎ　Ｓｅａｓ,,株式会社,神奈川県,茅ヶ崎市,富士見町１２番８－３０５号ビッグヴァン湘南茅ヶ崎,,14,207,2530031,,,,,,,2022-12-02,1,,,,,セブンシーズ,0
1766,7021005012674,新規,0,2022-12-02,2022-12-02,一般社団法人日本オンラインスクール協会,,その他の設立登記法人,神奈川県,藤沢市,片瀬海岸１丁目４番４～６０１号,,14,205,2510035,,,,,,,2022-12-02,1,,,,,ニホンオンラインスクールキョウカイ,0
1772,7030001151287,新規,0,2022-12-02,2022-12-02,株式会社談けいほんぽ,,株式会社,埼玉県,さいたま市南区,太田窪４丁目１２番１４号,,11,108,3360015,,,,,,,2022-12-02,1,,,,,ダンケイホンポ,0
1773,7030001151295,新規,0,2022-12-02,2022-12-02,新日本エネルギー株式会社,,株式会社,埼玉県,さいたま市北区,宮原町３丁目９０２番２号２０１,,11,102,3310812,,,,,,,2022-12-02,1,,,,,シンニッポンエネルギー,0
1774,7030001151304,新規,0,2022-12-02,2022-12-02,ＴＭＰ　Ｃｏｒｐｏｒａｔｉｏｎ株式会社,,株式会社,埼玉県,加須市,東栄２丁目１番３５号,,11,210,3470064,,,,,,,2022-12-02,1,,,,,ティーエムピーコーポレーション,0
1776,7030003020663,新規,0,2022-12-02,2022-12-02,合同会社ＰＯＳＩＳＴＡ,,合同会社,埼玉県,朝霞市,溝沼３丁目１番３８号,,11,227,3510023,,,,,,,2022-12-02,1,,,,,ポジスタ,0
1785,7040003021388,新規,0,2022-12-02,2022-12-02,合同会社ＫＴＰ,,合同会社,千葉県,印西市,師戸２９５６番地２,,12,231,2701615,,,,,,,2022-12-02,1,,,,,ケーティーピー,0
1786,7040005021832,新規,0,2022-12-02,2022-12-02,ＮＰＯ法人ＡＷＡ３６９,,その他の設立登記法人,千葉県,館山市,波左間９７８番地,,12,205,2940307,,,,,,,2022-12-02,1,,,,,アワサンロクキュウ,0
1787,7050003007064,新規,0,2022-12-02,2022-12-02,日本グローバル合同会社,,合同会社,茨城県,古河市,小堤１９１３番地８１－１Ｆ,,08,204,3060231,,,,,,,2022-12-02,1,,,,,ニホングローバル,0
1790,7060001035495,新規,0,2022-12-02,2022-12-02,４７Ｆｏｏｄｓ株式会社,,株式会社,栃木県,宇都宮市,東宿郷３丁目８番８号,,09,201,3210953,,,,,,,2022-12-02,1,,,,,ヨンナナフーズ,0
1801,7080001025321,新規,0,2022-12-02,2022-12-02,株式会社テラオ,,株式会社,静岡県,牧之原市,静谷１６００番地１,,22,226,4210404,,,,,,,2022-12-02,1,,,,,テラオ,0
1803,7080101023670,新規,0,2022-12-02,2022-12-02,株式会社ＬＩＦＥ　ＣＲＥＡＴＩＯＮ,,株式会社,静岡県,富士市,中央町２丁目１０番３号,,22,210,4170052,,,,,,,2022-12-02,1,,,,,ライフクリエーション,0
1804,7080103002697,新規,0,2022-12-02,2022-12-02,ＤＯＰＥ合同会社,,合同会社,静岡県,沼津市,大手町２丁目３番１号ワイズビル３階,,22,203,4100801,,,,,,,2022-12-02,1,,,,,ドープ,0
1805,7080105006300,新規,0,2022-12-02,2022-12-02,一般社団法人金融リテラシー推進機構,,その他の設立登記法人,静岡県,熱海市,昭和町１５番７号,,22,205,4130022,,,,,,,2022-12-02,1,,,,,キンユウリテラシースイシンキコウ,0
1822,7120001250666,新規,0,2022-12-02,2022-12-02,天正株式会社,,株式会社,大阪府,大阪市東成区,深江北３丁目４番２１号エクラ深江橋１０２Ａ,,27,115,5370001,,,,,,,2022-12-02,1,,,,,テンショウ,0
1823,7120001250708,新規,0,2022-12-02,2022-12-02,株式会社ＯＲＡＮＧＥ,,株式会社,大阪府,大阪市北区,堂島２丁目１番２５－８０８号室,,27,127,5300003,,,,,,,2022-12-02,1,,,,,オレンジ,0
1824,7120001250716,新規,0,2022-12-02,2022-12-02,株式会社アイニーク,,株式会社,大阪府,大阪市北区,曾根崎新地１丁目７番８号,,27,127,5300002,,,,,,,2022-12-02,1,,,,,アイニーク,0
1825,7120001250740,新規,0,2022-12-02,2022-12-02,株式会社ＢＴ　Ｈｏｕｓｅ,,株式会社,大阪府,大阪市中央区,安土町２丁目４番１１－３５０９号,,27,128,5410052,,,,,,,2022-12-02,1,,,,,ビーティーハウス,0
1831,7120101066624,新規,0,2022-12-02,2022-12-02,株式会社ＫＩＺＵＮＡ,,株式会社,大阪府,堺市南区,大庭寺５６９－７５,,27,145,5900153,,,,,,,2022-12-02,1,,,,,キズナ,0
1833,7120103004953,新規,0,2022-12-02,2022-12-02,合同会社オフィス千代田,,合同会社,大阪府,河内長野市,原町２丁目３番１３－７１２,,27,216,5860021,,,,,,,2022-12-02,1,,,,,オフィスチヨダ,0
1835,7120901046809,新規,0,2022-12-02,2022-12-02,株式会社ＬＩＢ,,株式会社,大阪府,豊中市,上野東１丁目４番１－２１６号,,27,203,5600013,,,,,,,2022-12-02,1,,,,,リブ,0
1848,7130001073216,新規,0,2022-12-02,2022-12-02,株式会社Ｃａｎｓｉｒ,,株式会社,京都府,京都市東山区,福稲上高松町２－２４,,26,105,6050983,,,,,,,2022-12-02,1,,,,,キャンサー,0
1853,7130005016641,新規,0,2022-12-02,2022-12-02,特定非営利活動法人いっぽねっと,,その他の設立登記法人,京都府,京都市南区,上鳥羽高畠町１０１－２,,26,107,6018101,,,,,,,2022-12-02,1,,,,,イッポネット,0
1856,7140001128167,新規,0,2022-12-02,2022-12-02,ファーストキャット株式会社,,株式会社,兵庫県,西宮市,甲子園口５丁目１６番１４－１２０２号,,28,204,6638113,,,,,,,2022-12-02,1,,,,,ファーストキャット,0
1857,7140001128233,新規,0,2022-12-02,2022-12-02,株式会社ＬＡＶＯＲＯ,,株式会社,兵庫県,神戸市中央区,相生町４丁目７番１３号,,28,110,6500025,,,,,,,2022-12-02,1,,,,,ラボロ,0
1858,7140001128290,新規,0,2022-12-02,2022-12-02,株式会社栗岡測量,,株式会社,兵庫県,姫路市,白鳥台３丁目１３４３番地６１４,,28,201,6712245,,,,,,,2022-12-02,1,,,,,クリオカソクリョウ,0
1864,7150003002815,新規,0,2022-12-02,2022-12-02,ＫＳＳ合同会社,,合同会社,奈良県,御所市,大字三室３０４番地サニークアイエット２－１０２号室,,29,208,6392306,,,,,,,2022-12-02,1,,,,,ケーエスエス,0
1870,7170001017391,新規,0,2022-12-02,2022-12-02,株式会社ＴＯＲＡＹＡＭＡ,,株式会社,和歌山県,和歌山市,園部１００１番地６,,30,201,6408483,,,,,,,2022-12-02,1,,,,,トラヤマ,0
1874,7180001153987,新規,0,2022-12-02,2022-12-02,吉山不動産株式会社,,株式会社,愛知県,名古屋市昭和区,長戸町５丁目４０番地,,23,107,4660848,,,,,,,2022-12-02,1,,,,,ヨシヤマフドウサン,0
1875,7180001154011,新規,0,2022-12-02,2022-12-02,株式会社Ｇ　ＦＩＥＬＤ,,株式会社,愛知県,名古屋市中村区,名駅１丁目１番１号ＪＰタワー名古屋２１Ｆ,,23,105,4500002,,,,,,,2022-12-02,1,,,,,ジーフィールド,0
1876,7180001154036,新規,0,2022-12-02,2022-12-02,ａｒｅｔｅ株式会社,,株式会社,愛知県,名古屋市中村区,名駅南１丁目１５番１６号節立ビル３階,,23,105,4500003,,,,,,,2022-12-02,1,,,,,アレテ,0
1882,7180301036875,新規,0,2022-12-02,2022-12-02,株式会社アクティブ,,株式会社,愛知県,豊川市,御油町上河原４１番地,,23,207,4410211,,,,,,,2022-12-02,1,,,,,アクティブ,0
1890,7200001040729,新規,0,2022-12-02,2022-12-02,株式会社Ｇａｔｔｏ,,株式会社,岐阜県,羽島郡岐南町,みやまち１丁目４７番地,,21,302,5016019,,,,,,,2022-12-02,1,,,,,ガット,0
1896,7240001060723,新規,0,2022-12-02,2022-12-02,株式会社Ｃ．Ｌ．Ｍ,,株式会社,広島県,広島市中区,昭和町４番３０号,,34,101,7300046,,,,,,,2022-12-02,1,,,,,シーエルエム,0
1899,7260001037463,新規,0,2022-12-02,2022-12-02,成伶工業株式会社,,株式会社,岡山県,岡山市中区,海吉１４６２‐７,,33,102,7038261,,,,,,,2022-12-02,1,,,,,セイレイコウギョウ,0
1901,7260003004115,新規,0,2022-12-02,2022-12-02,ＡＰ合同会社,,合同会社,岡山県,岡山市中区,森下町４番１０号ピアグロリア森下町３０１号,,33,102,7038237,,,,,,,2022-12-02,1,,,,,エーピー,0
1902,7260005011167,新規,0,2022-12-02,2022-12-02,医療法人社団秀明会,,その他の設立登記法人,岡山県,岡山市東区,西大寺中野４９８番地１,,33,103,7048191,,,,,,,2022-12-02,1,,,,,シュウメイカイ,0
1903,7280003001671,新規,0,2022-12-02,2022-12-02,合同会社安達ファーム,,合同会社,島根県,出雲市,西園町１０８０番地,,32,203,6930041,,,,,,,2022-12-02,1,,,,,アダチファーム,0
1907,7290001099740,新規,0,2022-12-02,2022-12-02,株式会社Ａｎｅｓｔｈ　ｇｒｏｕｎｄ,,株式会社,福岡県,福岡市中央区,平尾２丁目５番８－１６０２号,,40,133,8100014,,,,,,,2022-12-02,1,,,,,アネスグランド,0
1908,7290001099757,新規,0,2022-12-02,2022-12-02,株式会社福岡エイテック,,株式会社,福岡県,福岡市博多区,金の隈２丁目２３番１１号,,40,132,8120863,,,,,,,2022-12-02,1,,,,,フクオカエイテック,0
1909,7290001099765,新規,0,2022-12-02,2022-12-02,２００７ｓｕｅｃｏ．株式会社,,株式会社,福岡県,糟屋郡久山町,大字久原４２８０番地１,,40,348,8112501,,,,,,,2022-12-02,1,,,,,ニセンナナスエコ,0
1913,7290801029087,新規,0,2022-12-02,2022-12-02,株式会社ＴＫＲ,,株式会社,福岡県,北九州市八幡西区,若葉３丁目４番６６－９０２号,,40,109,8060066,,,,,,,2022-12-02,1,,,,,ティーケーアール,0
1914,7290803004278,新規,0,2022-12-02,2022-12-02,合同会社ひびきの,,合同会社,福岡県,北九州市若松区,ひびきの南２丁目２１番９号,,40,103,8080137,,,,,,,2022-12-02,1,,,,,ヒビキノ,0
1915,7290805009606,新規,0,2022-12-02,2022-12-02,税理士法人前田会計,,その他の設立登記法人,福岡県,北九州市八幡東区,祝町２丁目６番８号,,40,108,8050041,,,,,,,2022-12-02,1,,,,,マエダカイケイ,0
1919,7320001019447,新規,0,2022-12-02,2022-12-02,株式会社ＲＫＦ．Ｌｉｂｅｒｔｙ,,株式会社,大分県,大分市,都町３丁目５番３号,,44,201,8700034,,,,,,,2022-12-02,1,,,,,アールケーエフリバティー,0
1920,7320003003960,新規,0,2022-12-02,2022-12-02,ＰＲＯＧＲＥＳＳ‐ＴＲＡＩＬ合同会社,,合同会社,大分県,別府市,石垣西６丁目３番２３号,,44,202,8740910,,,,,,,2022-12-02,1,,,,,プログレストレイル,0
1923,7330003009610,新規,0,2022-12-02,2022-12-02,合同会社インフィニティ３,,合同会社,熊本県,熊本市中央区,京町２丁目８番２９号,,43,101,8600078,,,,,,,2022-12-02,1,,,,,インフィニティスリー,0
1925,7350001018058,新規,0,2022-12-02,2022-12-02,株式会社空海,,株式会社,宮崎県,宮崎市,大字柏原６６８番地１,,45,201,8802111,,,,,,,2022-12-02,1,,,,,クウカイ,0
1926,7360001031266,新規,0,2022-12-02,2022-12-02,ロガコア株式会社,,株式会社,沖縄県,中頭郡北谷町,字吉原３５９番地４－３０１号,,47,326,9040105,,,,,,,2022-12-02,1,,,,,ロガコア,0
1934,7390001017089,新規,0,2022-12-02,2022-12-02,株式会社ＦＣＳ,,株式会社,山形県,山形市,江俣２丁目１０番５号,,06,201,9900861,,,,,,,2022-12-02,1,,,,,エフシーエス,0
1936,7420003002606,新規,0,2022-12-02,2022-12-02,合同会社ウイットライフ,,合同会社,青森県,三戸郡五戸町,大字倉石又重字舘町８７番地,,02,442,0391703,,,,,,,2022-12-02,1,,,,,ウイットライフ,0
1949,7700150113227,新規,0,2022-12-02,2022-12-02,ｔｉａｎｃｈａｎｇｓｈｉｏｕｍｅｉｔｅｄｉａｎｚｉｘｉａｏｓｈｏｕｙｏｕｘｉａｎｇｏｎｇｓｉ,,外国会社等,,,,,,,,ｃｈｕｚｈｏｕ　ａｎｈｕｉ　ｔｉａｎｃｈａｎｇｓｈｉｑｉｎｌａｎｚｈｅｎｘｉｎｍｉｎｃｕｎ,,,,,,2022-12-02,1,,,,,テンチヨウシオウベトクデンシイアオシヨウユウゲンコウシ,0
1957,8010001231214,新規,0,2022-12-02,2022-12-02,ＳＵＮＴＣＨＩ　ＪＡＰＡＮ株式会社,,株式会社,東京都,千代田区,飯田橋２丁目１６－４九段下コート２Ｆ－２１０号室,,13,101,1020072,,,,,,,2022-12-02,1,,,,,スンチージャパン,0
1958,8010001231222,新規,0,2022-12-02,2022-12-02,株式会社マッシュホールディングス,,株式会社,東京都,千代田区,麹町５丁目７番地１,,13,101,1020083,,,,,,,2022-12-02,1,,,,,マッシュホールディングス,0
1959,8010001231230,新規,0,2022-12-02,2022-12-02,テクノ・ジャパン株式会社,,株式会社,東京都,千代田区,岩本町２丁目３番３号,,13,101,1010032,,,,,,,2022-12-02,1,,,,,テクノジャパン,0
1965,8010401171118,新規,0,2022-12-02,2022-12-02,Ｃｈａｒｇｅ　Ｐｌｕｓ　Ｊａｐａｎ株式会社,,株式会社,東京都,港区,白金１丁目１７番３号,,13,103,1080072,,,,,,,2022-12-02,1,,,,,チャージプラスジャパン,0
1973,8010603009875,新規,0,2022-12-02,2022-12-02,合同会社Ｖｉｌｌｅｕｐ,,合同会社,東京都,墨田区,文花１丁目１８－１３,,13,107,1310044,,,,,,,2022-12-02,1,,,,,ヴィルアップ,0
1976,8010901052073,新規,0,2022-12-02,2022-12-02,株式会社ＨＰＦ,,株式会社,東京都,世田谷区,祖師谷１丁目１０番１１号,,13,112,1570072,,,,,,,2022-12-02,1,,,,,エイチピーエフ,0
1981,8010903007819,新規,0,2022-12-02,2022-12-02,合同会社クレアシア,,合同会社,東京都,世田谷区,上馬５丁目８番２３号－１,,13,112,1540011,,,,,,,2022-12-02,1,,,,,クレアシア,0
1985,8011001150734,新規,0,2022-12-02,2022-12-02,株式会社ＴＩＭＥＳ,,株式会社,東京都,渋谷区,道玄坂１丁目１０番８号渋谷道玄坂東急ビル２Ｆ－Ｃ,,13,113,1500043,,,,,,,2022-12-02,1,,,,,タイムズ,0
1986,8011001151220,新規,0,2022-12-02,2022-12-02,株式会社エーオーエル,,株式会社,東京都,渋谷区,桜丘町４－１７－１０４,,13,113,1500031,,,,,,,2022-12-02,1,,,,,エーオーエル,0
1987,8011005009852,新規,0,2022-12-02,2022-12-02,一般社団法人スターエンジェルス,,その他の設立登記法人,東京都,渋谷区,東３丁目１９番１８号Ｓｔａｒｆｉｅｌｄ２Ｆ,,13,113,1500011,,,,,,,2022-12-02,1,,,,,スターエンジェルス,0
1991,8011101101034,新規,0,2022-12-02,2022-12-02,株式会社新和ホールディングス,,株式会社,東京都,新宿区,西早稲田２丁目２１番１２号,,13,104,1690051,,,,,,,2022-12-02,1,,,,,シンワホールディングス,0
2004,8011803005409,新規,0,2022-12-02,2022-12-02,合同会社クロシェット,,合同会社,東京都,葛飾区,堀切４丁目７番１６号,,13,122,1240006,,,,,,,2022-12-02,1,,,,,クロシェット,0
2014,8020001149199,新規,0,2022-12-02,2022-12-02,株式会社ｋｉｔｅｎｅ,,株式会社,神奈川県,横浜市青葉区,桂台２丁目１９番地２５,,14,117,2270034,,,,,,,2022-12-02,1,,,,,キテネ,0
2015,8020001149224,新規,0,2022-12-02,2022-12-02,株式会社ＳＯＥＤＡ,,株式会社,神奈川県,横浜市神奈川区,栄町１７番地４コーポレートヨコハマポートサイド１２０７号,,14,102,2210052,,,,,,,2022-12-02,1,,,,,ソエダ,0
2016,8020001149240,新規,0,2022-12-02,2022-12-02,株式会社ＡＯＹＡＧＩＲＥＮＯＳ,,株式会社,神奈川県,川崎市高津区,末長２丁目４番３－２０１号セブンフォレストヒルユーカリコート,,14,134,2130013,,,,,,,2022-12-02,1,,,,,アオヤギリノズ,0
2024,8020003022833,新規,0,2022-12-02,2022-12-02,合同会社横浜環境サポート,,合同会社,神奈川県,横浜市保土ケ谷区,上菅田町９５１－４８－２０４,,14,106,2400051,,,,,,,2022-12-02,1,,,,,ヨコハマカンキョウサポート,0
2028,8021005012673,新規,0,2022-12-02,2022-12-02,一般社団法人地域未来創造大学校次世代まちづくりスクール,,その他の設立登記法人,神奈川県,鎌倉市,由比ガ浜１丁目３番１号,,14,204,2480014,,,,,,,2022-12-02,1,,,,,チイキミライソウゾウダイガッコウジセダイマチヅクリスクール,0
2038,8030001151294,新規,0,2022-12-02,2022-12-02,株式会社ＣＯＮＮＥＣＴ,,株式会社,埼玉県,川口市,大字東本郷８９４番地の１,,11,203,3340063,,,,,,,2022-12-02,1,,,,,コネクト,0
2039,8030001151344,新規,0,2022-12-02,2022-12-02,ハヤシ設備株式会社,,株式会社,埼玉県,入間郡三芳町,大字藤久保１２番地４２,,11,324,3540041,,,,,,,2022-12-02,1,,,,,ハヤシセツビ,0
2045,8030003020670,新規,0,2022-12-02,2022-12-02,合同会社晴明社,,合同会社,埼玉県,富士見市,西みずほ台２丁目４番地６－１０２,,11,235,3540018,,,,,,,2022-12-02,1,,,,,セイメイシャ,0
2046,8030003020687,新規,0,2022-12-02,2022-12-02,合同会社タイガープロジェクト,,合同会社,埼玉県,川口市,芝２丁目７－３,,11,203,3330866,,,,,,,2022-12-02,1,,,,,タイガープロジェクト,0
2049,8040001126072,新規,0,2022-12-02,2022-12-02,株式会社ＨＯＭＥＹ,,株式会社,千葉県,東金市,西福俵９９番地１７,,12,213,2830816,,,,,,,2022-12-02,1,,,,,ホーミー,0
2051,8040003021395,新規,0,2022-12-02,2022-12-02,ミラフィックス合同会社,,合同会社,千葉県,船橋市,本町１丁目１８番１０号,,12,204,2730005,,,,,,,2022-12-02,1,,,,,ミラフィックス,0
2053,8040005021831,新規,0,2022-12-02,2022-12-02,医療法人社団ひろ消化器内科クリニック,,その他の設立登記法人,千葉県,市川市,市川２丁目１番４号ＷａｋｏｕｋａｉＢｌｄｇ．４階,,12,203,2720034,,,,,,,2022-12-02,1,,,,,ヒロショウカキナイカクリニック,0
2056,8060001035494,新規,0,2022-12-02,2022-12-02,株式会社ＳＧ架設,,株式会社,栃木県,鹿沼市,下粕尾９７０番地４,,09,205,3220421,,,,,,,2022-12-02,1,,,,,エスジーカセツ,0
2057,8060003004324,新規,0,2022-12-02,2022-12-02,ＷＡＴＡＮＡＰＩＣＨ　ＫＨ合同会社,,合同会社,栃木県,小山市,駅東通り１丁目４８番１２号神原ハイム２０６号室,,09,208,3230022,,,,,,,2022-12-02,1,,,,,ワタナピッチク,0
2063,8070001039882,新規,0,2022-12-02,2022-12-02,株式会社ハレレア,,株式会社,群馬県,前橋市,粕川町月田１２７８番地２,,10,201,3710203,,,,,,,2022-12-02,1,,,,,ハレレア,0
2067,8080003002904,新規,0,2022-12-02,2022-12-02,うまベジ合同会社,,合同会社,静岡県,牧之原市,中１２０番地６,,22,226,4210403,,,,,,,2022-12-02,1,,,,,ウマベジ,0
2071,8080403004665,新規,0,2022-12-02,2022-12-02,合同会社ルトレフル,,合同会社,静岡県,湖西市,坊瀬７７０番地,,22,221,4310444,,,,,,,2022-12-02,1,,,,,ルトレフル,0
2077,8110001037147,新規,0,2022-12-02,2022-12-02,株式会社ＪＳファンダリ新潟,,株式会社,新潟県,小千谷市,大字千谷甲３０００番地,,15,208,9470052,,,,,,,2022-12-02,1,,,,,ジェイエスファンダリニイガタ,0
2087,8120001250723,新規,0,2022-12-02,2022-12-02,株式会社グッドワン,,株式会社,大阪府,寝屋川市,三井が丘４丁目２番１２０－３号,,27,215,5720013,,,,,,,2022-12-02,1,,,,,グッドワン,0
2095,8120101066607,新規,0,2022-12-02,2022-12-02,株式会社インターサービスコーポレーション,,株式会社,大阪府,堺市西区,浜寺昭和町４丁４５５番地１,,27,144,5928345,,,,,,,2022-12-02,1,,,,,インターサービスコーポレーション,0
2096,8120101066615,新規,0,2022-12-02,2022-12-02,蒼株式会社,,株式会社,大阪府,岸和田市,磯上町４丁目２３番２８－１０２号,,27,202,5960001,,,,,,,2022-12-02,1,,,,,アオイ,0
2097,8120103004952,新規,0,2022-12-02,2022-12-02,合同会社フローレッド,,合同会社,大阪府,堺市南区,檜尾１３１４－２ライオンズマンション檜尾２０５,,27,145,5900142,,,,,,,2022-12-02,1,,,,,フローレッド,0
2098,8120901046808,新規,0,2022-12-02,2022-12-02,株式会社ＫＯＵＥＩサービス,,株式会社,大阪府,摂津市,南別府町１５番４４号,,27,224,5660045,,,,,,,2022-12-02,1,,,,,コウエイサービス,0
2106,8130001073181,新規,0,2022-12-02,2022-12-02,Ｓｕｍｍｉｔ株式会社,,株式会社,京都府,京都市西京区,大枝北沓掛町５丁目６番地１,,26,111,6101101,,,,,,,2022-12-02,1,,,,,サミット,0
2112,8140001128224,新規,0,2022-12-02,2022-12-02,株式会社オメル,,株式会社,兵庫県,丹波篠山市,東吹１０９０番地１,,28,221,6692202,,,,,,,2022-12-02,1,,,,,オメル,0
2113,8140001128240,新規,0,2022-12-02,2022-12-02,株式会社池田電工,,株式会社,兵庫県,川西市,小戸３丁目１４番９号,,28,217,6660014,,,,,,,2022-12-02,1,,,,,イケダデンコウ,0
2126,8170001017390,新規,0,2022-12-02,2022-12-02,株式会社ホールドハンズ,,株式会社,和歌山県,和歌山市,中之島１７３９番地２,,30,201,6408392,,,,,,,2022-12-02,1,,,,,ホールドハンズ,0
2131,8180001154027,新規,0,2022-12-02,2022-12-02,Ｋｉｔａｎｏ．ｃｏｎｓｕｌｔｉｎｇ株式会社,,株式会社,愛知県,名古屋市中村区,名駅２丁目４５番１４号東進名駅ビル４階,,23,105,4500002,,,,,,,2022-12-02,1,,,,,キタノコンサルティング,0
2136,8180003024558,新規,0,2022-12-02,2022-12-02,覚王山ＪＯＹ　ＢＯＸ合同会社,,合同会社,愛知県,名古屋市千種区,丘上町２丁目７番地覚王山ＪＯＹＢＯＸＩＩＣ－４号,00128660,23,101,4640837,,,,,,,2022-12-02,1,,,,,カクオウザンジョイボックス,0
2139,8180301036866,新規,0,2022-12-02,2022-12-02,株式会社ｍａｉｎｔａｉｎ,,株式会社,愛知県,豊橋市,草間町字平東１３０番地,,23,201,4418141,,,,,,,2022-12-02,1,,,,,メインテイン,0
2144,8200001040728,新規,0,2022-12-02,2022-12-02,株式会社ｓｉｒｏｏｂｉ,,株式会社,岐阜県,揖斐郡大野町,大字下磯２４番地１０,,21,403,5010532,,,,,,,2022-12-02,1,,,,,シロオビ,0
2145,8220001025149,新規,0,2022-12-02,2022-12-02,株式会社アリューベ,,株式会社,石川県,金沢市,泉本町４丁目２３３番地２,,17,201,9218042,,,,,,,2022-12-02,1,,,,,アリューベ,0
2150,8240001060722,新規,0,2022-12-02,2022-12-02,株式会社Ｚｉｐｌｉｎｅ,,株式会社,広島県,福山市,駅家町大字近田２０９番地２,,34,207,7201133,,,,,,,2022-12-02,1,,,,,ジップライン,0
2156,8250001019866,新規,0,2022-12-02,2022-12-02,株式会社グリーンサステナブル,,株式会社,山口県,岩国市,装束町２丁目１４番３７号,,35,208,7400001,,,,,,,2022-12-02,1,,,,,グリーンサステナブル,0
2160,8270001008677,新規,0,2022-12-02,2022-12-02,株式会社ＥＣＦ,,株式会社,鳥取県,鳥取市,上味野６６番地１６,,31,201,6801167,,,,,,,2022-12-02,1,,,,,イーシーエフ,0
2161,8270003001465,新規,0,2022-12-02,2022-12-02,合同会社マイスター,,合同会社,鳥取県,鳥取市,河原町布袋４７番地２５,,31,201,6801202,,,,,,,2022-12-02,1,,,,,マイスター,0
2173,8290001099748,新規,0,2022-12-02,2022-12-02,株式会社ダイニチ,,株式会社,福岡県,糟屋郡志免町,片峰２丁目６番１７号,,40,343,8112245,,,,,,,2022-12-02,1,,,,,ダイニチ,0
2174,8290001099789,新規,0,2022-12-02,2022-12-02,株式会社Ｆａｒｂａｎ,,株式会社,福岡県,三潴郡大木町,大字蛭池１５９４－２,,40,522,8300411,,,,,,,2022-12-02,1,,,,,ファーバン,0
2182,8290003013269,新規,0,2022-12-02,2022-12-02,合同会社Ｔｒｉａｎｇｌｅ,,合同会社,福岡県,久留米市,津福本町２１８７番地５,,40,203,8300047,,,,,,,2022-12-02,1,,,,,トライアングル,0
2183,8290003013277,新規,0,2022-12-02,2022-12-02,合同会社Ｎｅｏ　Ｌｉｎｋマネージメント,,合同会社,福岡県,みやま市,山川町立山１２３３番地１,,40,229,8350101,,,,,,,2022-12-02,1,,,,,ネオリンクマネージメント,0
2186,8290801029094,新規,0,2022-12-02,2022-12-02,株式会社ユニティ,,株式会社,福岡県,北九州市八幡西区,引野２丁目３番３７号アルシェール引野１０４号,,40,109,8060067,,,,,,,2022-12-02,1,,,,,ユニティ,0
2188,8310001018143,新規,0,2022-12-02,2022-12-02,株式会社内野建設,,株式会社,長崎県,佐世保市,宇久町大久保６０２番地１,,42,202,8574815,,,,,,,2022-12-02,1,,,,,ウチノケンセツ,0
2191,8320001019446,新規,0,2022-12-02,2022-12-02,株式会社ホテルアーサー,,株式会社,大分県,別府市,北浜１丁目２番５号,,44,202,8740920,,,,,,,2022-12-02,1,,,,,ホテルアーサー,0
2192,8330001030352,新規,0,2022-12-02,2022-12-02,株式会社ＳＭＡＲＴ・ＣＯＭＰＡＮＹ,,株式会社,熊本県,熊本市中央区,帯山４丁目９番１８号,,43,101,8620924,,,,,,,2022-12-02,1,,,,,スマートカンパニー,0
2193,8330001030360,新規,0,2022-12-02,2022-12-02,山一総建株式会社,,株式会社,熊本県,上益城郡山都町,柏９８１番地４,,43,447,8613923,,,,,,,2022-12-02,1,,,,,ヤマイチソウケン,0
2214,8470001019365,新規,0,2022-12-02,2022-12-02,株式会社Ｌ．Ｓ．Ｂａｎｋ,,株式会社,香川県,高松市,高松町５５５番地３,,37,201,7610104,,,,,,,2022-12-02,1,,,,,エルエスバンク,0
2216,8490001010347,新規,0,2022-12-02,2022-12-02,メロディーダンス株式会社,,株式会社,高知県,高知市,南宝永町１８番１４号ロイヤルコーポ４０１,,39,201,7800816,,,,,,,2022-12-02,1,,,,,メロディーダンス,0
2218,8500001024626,新規,0,2022-12-02,2022-12-02,株式会社ワイズテック,,株式会社,愛媛県,北宇和郡鬼北町,大字吉波１２番地１,,38,488,7981364,,,,,,,2022-12-02,1,,,,,ワイズテック,0
2220,8500003002927,新規,0,2022-12-02,2022-12-02,合同会社新山建設,,合同会社,愛媛県,大洲市,森山甲６９６番地１,,38,207,7950087,,,,,,,2022-12-02,1,,,,,シンヤマケンセツ,0
2226,8700150113226,新規,0,2022-12-02,2022-12-02,Ｓｈｅｎｚｈｅｎ　Ｃｈｕａｎｇｙｉｔｏｎｇ　Ｅ－ｃｏｍｍｅｒｃｅ　Ｃｏ．，Ｌｔｄ,,外国会社等,,,,,,,,ｌｏｎｇｇａｎｇｑｕｐｉｎｇｈｕｊｉｅｄａｏｘｉｎｎａｎｓｈｅｑｕｆｕｘｉｎｌｕ１８ｈａｏ５０２　ｓｈｅｎｚｈｅｎｓｈｉ　ｇｕａｎｇｄｏｎｇｓｈｅｎｇ,,,,,,2022-12-02,1,,,,,シエンチエンツアンチイコマースカンパニーリミテツド,0
2233,9010001231213,新規,0,2022-12-02,2022-12-02,サイトリ・セルセラピー株式会社,,株式会社,東京都,千代田区,大手町１丁目１番１号,,13,101,1000004,,,,,,,2022-12-02,1,,,,,サイトリセルセラピー,0
2235,9010003039225,新規,0,2022-12-02,2022-12-02,合同会社ｒｙｕｐｒｏ,,合同会社,東京都,中央区,銀座１丁目１２番４号Ｎ＆ＥＢＬＤ．６Ｆ,,13,102,1040061,,,,,,,2022-12-02,1,,,,,リュプロ,0
2236,9010003039233,新規,0,2022-12-02,2022-12-02,ライドハイ合同会社,,合同会社,東京都,中央区,銀座１丁目２２番１１号銀座大竹ビジデンス２階,,13,102,1040061,,,,,,,2022-12-02,1,,,,,ライドハイ,0
2244,9010401171059,新規,0,2022-12-02,2022-12-02,株式会社ＣＲＩＭＳＯＮ,,株式会社,東京都,港区,赤坂４丁目１番２号シントミ赤坂一ツ木ビル５階,,13,103,1070052,,,,,,,2022-12-02,1,,,,,クリムゾン,0
2245,9010401171133,新規,0,2022-12-02,2022-12-02,元智株式会社,,株式会社,東京都,港区,赤坂２丁目２１番５号ＡＢＣ,,13,103,1070052,,,,,,,2022-12-02,1,,,,,ゲンチ,0
2246,9010401171158,新規,0,2022-12-02,2022-12-02,株式会社シネマコネクト,,株式会社,東京都,港区,海岸１丁目１４番２号,,13,103,1050022,,,,,,,2022-12-02,1,,,,,シネマコネクト,0
2253,9010601062248,新規,0,2022-12-02,2022-12-02,株式会社イークロック,,株式会社,東京都,江東区,亀戸６丁目３１－１－１３１７,,13,108,1360071,,,,,,,2022-12-02,1,,,,,イークロック,0
2256,9010701043552,新規,0,2022-12-02,2022-12-02,株式会社Ｋ＆Ａ商事,,株式会社,東京都,品川区,東品川２丁目３番１２号シーフォートスクエアセンタービルディング１０Ｆ,,13,109,1400002,,,,,,,2022-12-02,1,,,,,ケイアンドエイショウジ,0
2260,9010901052072,新規,0,2022-12-02,2022-12-02,株式会社Ｙａｍｈｉｌｌ　Ｓｃｉｅｎｃｅｓ,,株式会社,東京都,世田谷区,砧６丁目１５番２号玄妙館,,13,112,1570073,,,,,,,2022-12-02,1,,,,,ヤムヒルサイエンシーズ,0
2263,9011001151277,新規,0,2022-12-02,2022-12-02,ＬＵＶ株式会社,,株式会社,東京都,渋谷区,恵比寿西２丁目２－９ＳＵＧＡＹＡＢＬＤＧ２階,,13,113,1500021,,,,,,,2022-12-02,1,,,,,ラヴ,0
2264,9011001151285,新規,0,2022-12-02,2022-12-02,株式会社ｈｕｇｅｎ,,株式会社,東京都,渋谷区,神宮前６丁目２３番４号桑野ビル２階,,13,113,1500001,,,,,,,2022-12-02,1,,,,,,0
2265,9011003015802,新規,0,2022-12-02,2022-12-02,合同会社ＰＲＯＧＲＡＮＤ,,合同会社,東京都,目黒区,中目黒４丁目８‐８,,13,110,1530061,,,,,,,2022-12-02,1,,,,,プログランド,0
2266,9011003015810,新規,0,2022-12-02,2022-12-02,合同会社ＭＦＦ,,合同会社,東京都,渋谷区,神宮前４丁目９番１７号,,13,113,1500001,,,,,,,2022-12-02,1,,,,,エムエフエフ,0
2270,9011101101041,新規,0,2022-12-02,2022-12-02,ＭＡＹ株式会社,,株式会社,東京都,新宿区,百人町１丁目１９－１４大久保駅前ビル５Ｆ,,13,104,1690073,,,,,,,2022-12-02,1,,,,,メイ,0
2275,9011205002524,新規,0,2022-12-02,2022-12-02,特定非営利活動法人ゆるナカ,,その他の設立登記法人,東京都,中野区,上高田２丁目６番５号,,13,114,1640002,,,,,,,2022-12-02,1,,,,,ユルナカ,0
2276,9011301028282,新規,0,2022-12-02,2022-12-02,株式会社広優サービス,,株式会社,東京都,杉並区,大宮１丁目２２番１０号,,13,115,1680061,,,,,,,2022-12-02,1,,,,,コウユウサービス,0
2279,9011401024743,新規,0,2022-12-02,2022-12-02,パラコット株式会社,,株式会社,東京都,板橋区,板橋２丁目６３番９－９０８号,,13,119,1730004,,,,,,,2022-12-02,1,,,,,パラコット,0
2284,9011801041628,新規,0,2022-12-02,2022-12-02,株式会社ｂｏｎｏ,,株式会社,東京都,足立区,千住中居町１番２２－５０２号,,13,121,1200035,,,,,,,2022-12-02,1,,,,,ボーノ,0
2285,9011803005408,新規,0,2022-12-02,2022-12-02,合同会社おんいく,,合同会社,東京都,足立区,西新井本町４丁目５－１４第二斎藤ビル２Ｆ,,13,121,1230845,,,,,,,2022-12-02,1,,,,,オンイク,0
2293,9020001149215,新規,0,2022-12-02,2022-12-02,ＪＧＣ　Ｄｉｇｉｔａｌ株式会社,,株式会社,神奈川県,横浜市西区,みなとみらい２丁目３番１号,,14,103,2200012,,,,,,,2022-12-02,1,,,,,ジェイジーシーデジタル,0
2294,9020001149231,新規,0,2022-12-02,2022-12-02,株式会社チリング,,株式会社,神奈川県,横浜市中区,本牧町１丁目２７２番地７,,14,104,2310806,,,,,,,2022-12-02,1,,,,,チリング,0
2298,9020003022832,新規,0,2022-12-02,2022-12-02,スリーアドバンテージ合同会社,,合同会社,神奈川県,川崎市高津区,上作延２１１番地１－５０７,,14,134,2130034,,,,,,,2022-12-02,1,,,,,スリーアドバンテージ,0
2302,9021001077562,新規,0,2022-12-02,2022-12-02,株式会社ｘ‐ｏｒｉｇｉｎ,,株式会社,神奈川県,相模原市中央区,矢部３丁目２７番６－２号,,14,152,2520232,,,,,,,2022-12-02,1,,,,,エックスオリジン,0
2303,9021001077587,新規,0,2022-12-02,2022-12-02,株式会社ＬＩＦＥＷＯＲＫ,,株式会社,神奈川県,平塚市,立野町１０番２号,,14,203,2540046,,,,,,,2022-12-02,1,,,,,ライフワーク,0
2313,9030001151277,新規,0,2022-12-02,2022-12-02,株式会社Ｈｏａｌｏｈａ,,株式会社,埼玉県,川口市,大字東内野５３３番地,,11,203,3330821,,,,,,,2022-12-02,1,,,,,ホアロハ,0
2314,9030001151285,新規,0,2022-12-02,2022-12-02,株式会社木浦清掃,,株式会社,埼玉県,さいたま市岩槻区,大字長宮９９０番地１,,11,110,3390011,,,,,,,2022-12-02,1,,,,,キウラセイソウ,0
2315,9030001151293,新規,0,2022-12-02,2022-12-02,株式会社ＣＲＥＡＳ,,株式会社,埼玉県,川口市,西川口６丁目１６番９－７０１号ヴィラーヌ川口ブライトヴィスタ,,11,203,3320021,,,,,,,2022-12-02,1,,,,,クレアス,0
2316,9030001151327,新規,0,2022-12-02,2022-12-02,株式会社Ｉｍｐｒｏｖｅ,,株式会社,埼玉県,越谷市,蒲生１丁目５番１号,,11,222,3430838,,,,,,,2022-12-02,1,,,,,インプルーブ,0
2317,9030001151343,新規,0,2022-12-02,2022-12-02,株式会社根岸設備,,株式会社,埼玉県,越谷市,大字恩間８０番地４,,11,222,3430033,,,,,,,2022-12-02,1,,,,,ネギシセツビ,0
2329,9040001126063,新規,0,2022-12-02,2022-12-02,株式会社ＳＯＲＡ,,株式会社,千葉県,千葉市中央区,富士見１丁目１４番１３号千葉大栄ビル８Ｆ,,12,101,2600015,,,,,,,2022-12-02,1,,,,,ソラ,0
2333,9040003021394,新規,0,2022-12-02,2022-12-02,合同会社朝日,,合同会社,千葉県,船橋市,日の出２丁目３番１７号,,12,204,2730015,,,,,,,2022-12-02,1,,,,,アサヒ,0
2334,9040005021830,新規,0,2022-12-02,2022-12-02,一般財団法人田村社会貢献財団,,その他の設立登記法人,千葉県,千葉市中央区,旭町１６番４号,,12,101,2600002,,,,,,,2022-12-02,1,,,,,タムラシャカイコウケンザイダン,0
2336,9050001052028,新規,0,2022-12-02,2022-12-02,株式会社ＲＡＡＮ　ＭＯＴＯＲＳ,,株式会社,茨城県,猿島郡境町,大字若林３１８８番地１１,,08,546,3060417,,,,,,,2022-12-02,1,,,,,ラーンモータース,0
2339,9060005010030,新規,0,2022-12-02,2022-12-02,特定非営利活動法人宇都宮第九合唱団,,その他の設立登記法人,栃木県,宇都宮市,宝木町２丁目９００番地２,,09,201,3200061,,,,,,,2022-12-02,1,,,,,ウツノミヤダイクガッショウダン,0
2342,9070003004735,新規,0,2022-12-02,2022-12-02,合同会社まちの編集社,,合同会社,群馬県,高崎市,上中居町５８番地,,10,202,3700851,,,,,,,2022-12-02,1,,,,,マチノヘンシュウシャ,0
2344,9080001025328,新規,0,2022-12-02,2022-12-02,株式会社リチャードＡＰ,,株式会社,静岡県,静岡市葵区,安東１丁目７－３１－２０３,,22,101,4200882,,,,,,,2022-12-02,1,,,,,リチャードエイピー,0
2347,9080101023669,新規,0,2022-12-02,2022-12-02,株式会社深沢商事,,株式会社,静岡県,沼津市,高島町１６番１３号パレスマンション５０２,,22,203,4100056,,,,,,,2022-12-02,1,,,,,フカサワショウジ,0
2348,9080103002695,新規,0,2022-12-02,2022-12-02,合同会社Ｆ‐Ｔｅｃｈ,,合同会社,静岡県,三島市,新谷４８‐２７,,22,206,4110834,,,,,,,2022-12-02,1,,,,,エフテック,0
2351,9090001017860,新規,0,2022-12-02,2022-12-02,宏超株式会社,,株式会社,山梨県,南アルプス市,東南湖８８７番地１,,19,208,4000412,,,,,,,2022-12-02,1,,,,,コウチョウ,0
2352,9090001017869,新規,0,2022-12-02,2022-12-02,株式会社ＲＤ　ＧＥＭＳ,,株式会社,山梨県,甲府市,湯田２丁目２０番１５号Ｂ１０１,,19,201,4000864,,,,,,,2022-12-02,1,,,,,アールディージェムス,0
2355,9100001035919,新規,0,2022-12-02,2022-12-02,株式会社ＡＲＴＥ．Ｘ．ＯＮＥ,,株式会社,長野県,松本市,寿台６丁目６番１７号,,20,202,3990025,,,,,,,2022-12-02,1,,,,,アルテエクスワン,0
2356,9100003006802,新規,0,2022-12-02,2022-12-02,合同会社ＷｈｙＬａｂ,,合同会社,長野県,松本市,桐１丁目４－２２尾島ハイツ２０１,,20,202,3900871,,,,,,,2022-12-02,1,,,,,ワイラボ,0
2368,9120001250623,新規,0,2022-12-02,2022-12-02,株式会社Ｂｅｙｏｎｄ　Ｃｏｍｍｉｔｍｅｎｔ,,株式会社,大阪府,大阪市北区,中之島６丁目１番３８－１７１９号,,27,127,5300005,,,,,,,2022-12-02,1,,,,,ビヨンドコミットメント,0
2370,9120003022979,新規,0,2022-12-02,2022-12-02,合同会社イマジン,,合同会社,大阪府,大阪市北区,天満橋１丁目４番８－１３０１,,27,127,5300042,,,,,,,2022-12-02,1,,,,,イマジン,0
2371,9120003023003,新規,0,2022-12-02,2022-12-02,Ｙ‐ＳＴＡＮＤＡＲＤ合同会社,,合同会社,大阪府,大阪市中央区,南船場４丁目１０番５号南船場ＳＯＨＯビル７０２,,27,128,5420081,,,,,,,2022-12-02,1,,,,,ワイスタンダード,0
2372,9120005023323,新規,0,2022-12-02,2022-12-02,淀屋橋社会保険労務士法人,,その他の設立登記法人,大阪府,大阪市中央区,北浜２丁目１番２６号,,27,128,5410041,,,,,,,2022-12-02,1,,,,,ヨドヤバシ,0
2373,9120101066606,新規,0,2022-12-02,2022-12-02,株式会社ひまわり,,株式会社,大阪府,羽曳野市,軽里１丁目１０５番地の１,,27,222,5830854,,,,,,,2022-12-02,1,,,,,ヒマワリ,0
2374,9120101066614,新規,0,2022-12-02,2022-12-02,株式会社エムユーファクトリー,,株式会社,大阪府,堺市東区,日置荘原寺町４６１番地４６,,27,143,5998112,,,,,,,2022-12-02,1,,,,,エムユーファクトリー,0
2376,9120103004951,新規,0,2022-12-02,2022-12-02,くるみ合同会社,,合同会社,大阪府,堺市美原区,青南台２丁目９－１１,,27,147,5870043,,,,,,,2022-12-02,1,,,,,クルミ,0
2378,9120901046807,新規,0,2022-12-02,2022-12-02,株式会社ＮＣＣ　Ｃｏｎｓｕｌｔｉｎｇ,,株式会社,大阪府,茨木市,蔵垣内２丁目７番１号Ｄ－Ｒｅｓｉｄｅｎｃｅ１０３号,,27,211,5670878,,,,,,,2022-12-02,1,,,,,エヌシーシーコンサルティング,0
2379,9120903004399,新規,0,2022-12-02,2022-12-02,フォレストリバー合同会社,,合同会社,大阪府,池田市,天神１丁目１０番１４－３０２号,,27,204,5630031,,,,,,,2022-12-02,1,,,,,フォレストリバー,0
2386,9130001073214,新規,0,2022-12-02,2022-12-02,ソラリス株式会社,,株式会社,京都府,京都市下京区,五条烏丸町４０６番地,,26,106,6008418,,,,,,,2022-12-02,1,,,,,ソラリス,0
2392,9140003018414,新規,0,2022-12-02,2022-12-02,合同会社つむぎ,,合同会社,兵庫県,姫路市,大津区吉美７９０番６号,,28,201,6711133,,,,,,,2022-12-02,1,,,,,ツムギ,0
2406,9180001154050,新規,0,2022-12-02,2022-12-02,株式会社Ｋｐ＆Ｃｏｃｏ．,,株式会社,愛知県,名古屋市西区,城北町１丁目７１番地の５,,23,104,4510023,,,,,,,2022-12-02,1,,,,,ケイピーアンドココ,0
2407,9180003024549,新規,0,2022-12-02,2022-12-02,Ｐａｋ　Ｈａｎｋｏｋ　Ｔｒａｄｉｎｇ合同会社,,合同会社,愛知県,名古屋市中村区,稲葉地町７丁目４１番,,23,105,4530841,,,,,,,2022-12-02,1,,,,,パクハンコックトレイディング,0
2408,9180301036865,新規,0,2022-12-02,2022-12-02,株式会社ｌｅ　Ｌｉｅｎ,,株式会社,愛知県,岡崎市,康生通西１丁目２番地リコットタワー岡崎康生１６０３,,23,202,4440059,,,,,,,2022-12-02,1,,,,,ルリアン,0
2413,9200001040710,新規,0,2022-12-02,2022-12-02,株式会社和正,,株式会社,岐阜県,加茂郡富加町,大山９６３番地３,,21,502,5013306,,,,,,,2022-12-02,1,,,,,カズセイ,0
2414,9200001040735,新規,0,2022-12-02,2022-12-02,株式会社ＲｅＢＡＳＥ,,株式会社,岐阜県,岐阜市,又丸９５３番地５,,21,201,5011152,,,,,,,2022-12-02,1,,,,,リベース,0
2417,9210003001585,新規,0,2022-12-02,2022-12-02,合同会社ＦＵＮ　ＤＩＮＩＮＧ,,合同会社,福井県,坂井市,春江町藤鷲塚第４０号３０番地,,18,210,9190411,,,,,,,2022-12-02,1,,,,,ファンダイニング,0
2418,9220001025148,新規,0,2022-12-02,2022-12-02,株式会社ＹＯＳＩＴＡＩ,,株式会社,石川県,白山市,白峰イ９１番地,,17,210,9202501,,,,,,,2022-12-02,1,,,,,ヨシタイ,0
2423,9260001037445,新規,0,2022-12-02,2022-12-02,株式会社小椋製作所,,株式会社,岡山県,苫田郡鏡野町,羽出１６５７番地７,,33,606,7080511,,,,,,,2022-12-02,1,,,,,オグラセイサクショ,0
2428,9290001099755,新規,0,2022-12-02,2022-12-02,株式会社モリシタ建創,,株式会社,福岡県,福岡市南区,西長住１丁目３番４号,,40,134,8111361,,,,,,,2022-12-02,1,,,,,モリシタケンソウ,0
2432,9290801029102,新規,0,2022-12-02,2022-12-02,株式会社ＡＬＬ,,株式会社,福岡県,北九州市小倉北区,若富士町１番１０号アサヒビル１０２号,,40,106,8020063,,,,,,,2022-12-02,1,,,,,オール,0
2433,9300001013152,新規,0,2022-12-02,2022-12-02,株式会社Ａｖｅｎｉｒ,,株式会社,佐賀県,佐賀市,鍋島町大字森田５１２番地１８,,41,201,8490936,,,,,,,2022-12-02,1,,,,,アベニール,0
2437,9330001030351,新規,0,2022-12-02,2022-12-02,株式会社Ｃｏｗａｌｉｂｚ,,株式会社,熊本県,熊本市中央区,大江３丁目１番７２－７１４号,,43,101,8620971,,,,,,,2022-12-02,1,,,,,コーワリブズ,0
2438,9340001025210,新規,0,2022-12-02,2022-12-02,株式会社空間デザイン建築研究所,,株式会社,鹿児島県,鹿児島市,荒田１丁目２８番１号,,46,201,8900054,,,,,,,2022-12-02,1,,,,,クウカンデザインケンチクケンキュウジョ,0
2439,9340001025219,新規,0,2022-12-02,2022-12-02,株式会社ライブアーク,,株式会社,鹿児島県,鹿児島市,吉野町３３５５番地２６２,,46,201,8920871,,,,,,,2022-12-02,1,,,,,ライブアーク,0
2441,9340003003981,新規,0,2022-12-02,2022-12-02,合同会社旅楽プランニング,,合同会社,鹿児島県,鹿児島市,薬師１丁目６番８－２１０号,,46,201,8900042,,,,,,,2022-12-02,1,,,,,タビラクプランニング,0
2446,9360001031272,新規,0,2022-12-02,2022-12-02,株式会社安里興業,,株式会社,沖縄県,那覇市,東町７番５－５０３号ロイヤルマンション東町,,47,201,9000034,,,,,,,2022-12-02,1,,,,,アサトコウギョウ,0
2451,9370001049330,新規,0,2022-12-02,2022-12-02,株式会社プログレス,,株式会社,宮城県,仙台市泉区,市名坂字町４３番地プレジオ泉３０７,,04,105,9813117,,,,,,,2022-12-02,1,,,,,プログレス,0
2452,9380001033300,新規,0,2022-12-02,2022-12-02,株式会社五十嵐建築,,株式会社,福島県,会津若松市,門田町大字飯寺字村東１００１番地の５５,,07,202,9650846,,,,,,,2022-12-02,1,,,,,イガラシケンチク,0
2455,9390001017087,新規,0,2022-12-02,2022-12-02,ホレルビットエンジニアリング株式会社,,株式会社,山形県,山形市,松山３丁目１４番７８－１０１号きらりビル松山,,06,201,9902412,,,,,,,2022-12-02,1,,,,,ホレルビットエンジニアリング,0
2470,9700150113225,新規,0,2022-12-02,2022-12-02,ＮＩＮＧＢＯ　ＨＡＩＳＨＵ　ＧＡＲＲＯＮ　ＨＯＵＳＥＷＡＲＥ　ＣＯ．，ＬＴＤ,,外国会社等,,,,,,,,Ｎｏ．２０，Ｌａｎｅ　９１２　Ｄｕａｎｍｅｉ　Ｒｏａｄ　Ｇｕｌｉｎ　Ｔｗｏｎ　Ｎｉｎｇｂｏ　ｚｈｅｊｉａｎｇ,,,,,,2022-12-02,1,,,,,ニンボカイシヨガロンハウスワレカンパニーリミテツド,0
