sequenceNumber,corporateNumber,process,correct,updateDate,changeDate,name,nameImageId,kind,prefectureName,cityName,streetNumber,addressImageId,prefectureCode,cityCode,postCode,addressOutside,addressOutsideImageId,closeDate,closeCause,successorCorporateNumber,changeCause,assignmentDate,latest,enName,enPrefectureName,enCityName,enAddressOutside,furigana,hihyoji
12,1010003050057,新規,0,2026-01-23,2026-01-23,ＴｒａｄｅＮｏｖａ合同会社,,合同会社,東京都,千代田区,神田和泉町一丁目６番１６ヤマトビル４０５号,,13,101,1010024,,,,,,,2026-01-23,1,,,,,トレードノヴァ,0
13,1010003050131,新規,0,2026-01-23,2026-01-23,ラクシヨＬａｂ合同会社,,合同会社,東京都,中央区,日本橋２丁目１６‐４ｒｅｍｉｘ日本橋６階,,13,102,1030027,,,,,,,2026-01-23,1,,,,,ラクシヨラボ,0
24,1010401194736,新規,0,2026-01-23,2026-01-23,ＣＨＥＣＫＭＡＴＥ　ＪＡＰＡＮ株式会社,,株式会社,東京都,港区,虎ノ門４丁目３番１号城山トラストタワー２７階,,13,103,1050001,,,,,,,2026-01-23,1,,,,,チェックメイトジャパン,0
25,1010401195908,新規,0,2026-01-23,2026-01-23,株式会社Ｌｅａｐ,,株式会社,東京都,港区,赤坂６丁目１２番１４－１１０６号,,13,103,1070052,,,,,,,2026-01-23,1,,,,,リープ,0
26,1010401195949,新規,0,2026-01-23,2026-01-23,株式会社Ｔｏｔｏｎｏ　Ｐｒｉｍｅ　Ｃａｐｉｔａｌ,,株式会社,東京都,港区,西新橋３丁目１４番１－１００１号,,13,103,1050003,,,,,,,2026-01-23,1,,,,,トトノプライムキャピタル,0
27,1010401196022,新規,0,2026-01-23,2026-01-23,株式会社カレント,,株式会社,東京都,港区,麻布台３丁目４番１２－６０２号,,13,103,1060041,,,,,,,2026-01-23,1,,,,,カレント,0
28,1010401196039,新規,0,2026-01-23,2026-01-23,Ｈｉｋａｒｉ２株式会社,,株式会社,東京都,港区,芝２丁目１０番６号ＥＡＲＴＨＳＨＩＢＡＢＬＤ．３Ｆ,,13,103,1050014,,,,,,,2026-01-23,1,,,,,ヒカリツー,0
36,1010601068608,新規,0,2026-01-23,2026-01-23,株式会社Ｌｉｇｈｔ　Ｅｎｅｒｇｙ,,株式会社,東京都,江東区,福住２丁目６番９－７１１号,,13,108,1350032,,,,,,,2026-01-23,1,,,,,ライトエナジー,0
37,1010603012019,新規,0,2026-01-23,2026-01-23,ＢＯＮＵＳ　ＴＲＡＣＫ　ＢＲＥＷＥＲＹ合同会社,,合同会社,東京都,墨田区,京島２丁目５―７,,13,107,1310046,,,,,,,2026-01-23,1,,,,,ボーナストラックブルワリー,0
38,1010701048930,新規,0,2026-01-23,2026-01-23,Ｒｉｇｏｒｏ株式会社,,株式会社,東京都,品川区,西五反田１丁目２６番２号五反田サンハイツ９１１,,13,109,1410031,,,,,,,2026-01-23,1,,,,,リゴロ,0
41,1010901058812,新規,0,2026-01-23,2026-01-23,株式会社ＫＥＮ．ＧＲＥＥＮ　ＴＥＣＨＮＯ　ＳＥＲＶＩＣＥ,,株式会社,東京都,世田谷区,南烏山２丁目３５番２号ロカテラーザ３５１０,,13,112,1570062,,,,,,,2026-01-23,1,,,,,ケングリーンテクノサービス,0
45,1011001174987,新規,0,2026-01-23,2026-01-23,株式会社ＴＨＥ　ＳＭＣ　ＪＡＰＡＮ,,株式会社,東京都,渋谷区,代々木４丁目３１番４号キャッスル新宿１１０２号室,,13,113,1510053,,,,,,,2026-01-23,1,,,,,ザエスエムシージャパン,0
46,1011001175119,新規,0,2026-01-23,2026-01-23,株式会社ナナプロ,,株式会社,東京都,目黒区,下目黒１丁目１番１４号コノトラビル７階,,13,110,1530064,,,,,,,2026-01-23,1,,,,,ナナプロ,0
47,1011001175201,新規,0,2026-01-23,2026-01-23,株式会社トーキョービヨウボーイズ,,株式会社,東京都,渋谷区,神宮前６丁目８－４,,13,113,1500001,,,,,,,2026-01-23,1,,,,,トーキョービヨウボーイズ,0
48,1011003023408,新規,0,2026-01-23,2026-01-23,合同会社Ｃｏｒｅ　Ｓｙｓｔｅｍｓ,,合同会社,東京都,渋谷区,神南１丁目１１番４号ＦＰＧリンクス神南５階,,13,113,1500041,,,,,,,2026-01-23,1,,,,,コアシステムズ,0
49,1011003023424,新規,0,2026-01-23,2026-01-23,須藤奨合同会社,,合同会社,東京都,渋谷区,円山町５番３号　ＭＩＥＵＸ渋谷ビル８階,,13,113,1500044,,,,,,,2026-01-23,1,,,,,スドウショウ,0
50,1011005011328,新規,0,2026-01-23,2026-01-23,特定非営利活動法人こどものみらい教育推進協会,,その他の設立登記法人,東京都,渋谷区,神南１丁目１１－４ＦＰＧリンクス神南５階,,13,113,1500041,,,,,,,2026-01-23,1,,,,,コドモノミライキョウイクスイシンキョウカイ,0
54,1011101114496,新規,0,2026-01-23,2026-01-23,株式会社ＴＡＩＬＳ,,株式会社,東京都,新宿区,西新宿３丁目３番１３号西新宿水間ビル２Ｆ,,13,104,1600023,,,,,,,2026-01-23,1,,,,,テイルズ,0
55,1011105011698,新規,0,2026-01-23,2026-01-23,一般社団法人ＡＩ伴走士協会,,その他の設立登記法人,東京都,新宿区,西新宿７丁目２番５号,,13,104,1600023,,,,,,,2026-01-23,1,,,,,エーアイバンソウシキョウカイ,0
61,1011401027745,新規,0,2026-01-23,2026-01-23,ＬＯＧＯＳＰＨＥＲＥ株式会社,,株式会社,東京都,板橋区,中台１丁目１９－５太陽ハウス１０１,,13,119,1740064,,,,,,,2026-01-23,1,,,,,ロゴスフィア,0
69,1011701029094,新規,0,2026-01-23,2026-01-23,龍平商事株式会社,,株式会社,東京都,江戸川区,松島１丁目４１－１３,,13,123,1320031,,,,,,,2026-01-23,1,,,,,リュウヘイショウジ,0
112,1012403007578,新規,0,2026-01-23,2026-01-23,合同会社ＯｄｄＰｏｐ,,合同会社,東京都,小金井市,本町６丁目７－１０本町ハウス１０４,,13,210,1840004,,,,,,,2026-01-23,1,,,,,オッドポップ,0
142,1020001166754,新規,0,2026-01-23,2026-01-23,小方舟株式会社,,株式会社,神奈川県,横浜市南区,真金町２丁目１６番１号ハイツ大通り公園７０５,,14,105,2320021,,,,,,,2026-01-23,1,,,,,コハコブネ,0
143,1020001166787,新規,0,2026-01-23,2026-01-23,株式会社ＯｎｅＣｌｉｃｋ,,株式会社,神奈川県,川崎市宮前区,野川本町１丁目４番１６号,,14,136,2160041,,,,,,,2026-01-23,1,,,,,ワンクリック,0
145,1020003030215,新規,0,2026-01-23,2026-01-23,太田合同会社,,合同会社,神奈川県,横浜市金沢区,泥亀２丁目３番１－３２７号,,14,108,2360021,,,,,,,2026-01-23,1,,,,,オオタ,0
155,1030001170722,新規,0,2026-01-23,2026-01-23,株式会社ライジングサン,,株式会社,埼玉県,東松山市,日吉町１６―５,,11,212,3550012,,,,,,,2026-01-23,1,,,,,ライジングサン,0
165,1030003028506,新規,0,2026-01-23,2026-01-23,合同会社ＴＭマーケティング,,合同会社,埼玉県,川口市,新井町２３番２号,,11,203,3320005,,,,,,,2026-01-23,1,,,,,ティーエムマーケティング,0
168,1040001142175,新規,0,2026-01-23,2026-01-23,株式会社Ｎ＆Ｈ,,株式会社,千葉県,成田市,加良部４丁目２２番地（３棟３０５号）,,12,211,2860036,,,,,,,2026-01-23,1,,,,,エヌアンドエイチ,0
171,1040003029271,新規,0,2026-01-23,2026-01-23,合同会社ＯＮ　ＭＹ　ＢＥＡＴ,,合同会社,千葉県,八千代市,緑が丘西１丁目４番地１－３０８,,12,221,2760040,,,,,,,2026-01-23,1,,,,,オンマイビート,0
239,1080401028334,新規,0,2026-01-23,2026-01-23,株式会社Ｗ’ｘ,,株式会社,静岡県,浜松市中央区,鍛冶町１００番地の１ザザシティ浜松中央館Ｂ１Ｆ,,22,138,4300933,,,,,,,2026-01-23,1,,,,,ワックス,0
242,1100001039290,新規,0,2026-01-23,2026-01-23,株式会社Ｌｅａｐ,,株式会社,長野県,長野市,松代町西寺尾１８３７番地２,,20,201,3811215,,,,,,,2026-01-23,1,,,,,リープ,0
243,1100003008582,新規,0,2026-01-23,2026-01-23,合同会社トミカメファーム,,合同会社,長野県,塩尻市,大字広丘野村８９４番地１５,,20,215,3990702,,,,,,,2026-01-23,1,,,,,トミカメファーム,0
259,1120001283457,新規,0,2026-01-23,2026-01-23,株式会社鶴橋商店,,株式会社,大阪府,大阪市生野区,鶴橋２丁目１０－１６,,27,116,5440031,,,,,,,2026-01-23,1,,,,,ツルハシショウテン,0
260,1120001283481,新規,0,2026-01-23,2026-01-23,想終活ラボ株式会社,,株式会社,大阪府,大阪市北区,角田町８番４７号阪急グランドビル２０階,,27,127,5300017,,,,,,,2026-01-23,1,,,,,ソウシュウカツラボ,0
261,1120001283564,新規,0,2026-01-23,2026-01-23,株式会社一念創建,,株式会社,大阪府,大阪市阿倍野区,桃ケ池町２丁目９番５号ラ・ハイール桃ヶ池公園３０１号,,27,119,5450012,,,,,,,2026-01-23,1,,,,,イチネンソウケン,0
262,1120001283597,新規,0,2026-01-23,2026-01-23,えいさい株式会社,,株式会社,大阪府,大阪市東淀川区,柴島２丁目１４番２２号,,27,114,5330024,,,,,,,2026-01-23,1,,,,,エイサイ,0
263,1120001283606,新規,0,2026-01-23,2026-01-23,株式会社ハウジングサポート関西,,株式会社,大阪府,大阪市住吉区,万代東２丁目３番１６号１Ｆ－４,,27,120,5580056,,,,,,,2026-01-23,1,,,,,ハウジングサポートカンサイ,0
264,1120001283663,新規,0,2026-01-23,2026-01-23,株式会社マッシュアップ,,株式会社,大阪府,大阪市中央区,上本町西４丁目１番５,,27,128,5420062,,,,,,,2026-01-23,1,,,,,マッシュアップ,0
269,1120903006048,新規,0,2026-01-23,2026-01-23,トーホーラボ合同会社,,合同会社,大阪府,吹田市,豊津町１番１８号,,27,205,5640051,,,,,,,2026-01-23,1,,,,,トーホーラボ,0
282,1140001141398,新規,0,2026-01-23,2026-01-23,株式会社カドカラＨＤ,,株式会社,兵庫県,神戸市北区,鈴蘭台西町２丁目２番５号,,28,109,6511114,,,,,,,2026-01-23,1,,,,,カドカラエイチディ,0
283,1140001141448,新規,0,2026-01-23,2026-01-23,株式会社デジびと,,株式会社,兵庫県,神戸市中央区,磯辺通２丁目２番１０号ｏｎｅｋｎｏｔｔｒａｄｅｓ神戸ビル１００６号室,,28,110,6510084,,,,,,,2026-01-23,1,,,,,デジビト,0
290,1170001018957,新規,0,2026-01-23,2026-01-23,株式会社ＣＲＥＡ,,株式会社,和歌山県,田辺市,文里１丁目３０－５－５－２０２,,30,206,6460023,,,,,,,2026-01-23,1,,,,,クレア,0
302,1180005021403,新規,0,2026-01-23,2026-01-23,一般社団法人Ｎｅｕ　Ｖｉｂｒａｔｉｏｎ,,その他の設立登記法人,愛知県,名古屋市東区,泉１丁目１４番１号泉久屋サンコービル５Ｆ,,23,102,4610001,,,,,,,2026-01-23,1,,,,,ニューバイブレーション,0
306,1190001032849,新規,0,2026-01-23,2026-01-23,株式会社ＯＮＥ,,株式会社,三重県,桑名市,長島町福吉８７１番地３７,,24,205,5111137,,,,,,,2026-01-23,1,,,,,ワン,0
307,1190003005332,新規,0,2026-01-23,2026-01-23,合同会社田中映像,,合同会社,三重県,津市,豊が丘５丁目１０番１１号,,24,201,5142222,,,,,,,2026-01-23,1,,,,,タナカエイゾウ,0
308,1200003007203,新規,0,2026-01-23,2026-01-23,合同会社森遊舎,,合同会社,岐阜県,高山市,荘川町寺河戸１２４番地１,,21,203,5015405,,,,,,,2026-01-23,1,,,,,シンユウシャ,0
311,1230001021260,新規,0,2026-01-23,2026-01-23,株式会社むすびとやま不動産,,株式会社,富山県,射水市,中央町４番１３号,,16,211,9340012,,,,,,,2026-01-23,1,,,,,ムスビトヤマフドウサン,0
414,1270003001835,新規,0,2026-01-23,2026-01-23,合同会社ＫＲＦ,,合同会社,鳥取県,東伯郡琴浦町,大字徳万７１１番地１,,31,371,6892303,,,,,,,2026-01-23,1,,,,,ケイアールエフ,0
461,1400001017290,新規,0,2026-01-23,2026-01-23,三陸ファーム株式会社,,株式会社,岩手県,大船渡市,日頃市町字上坂本沢２４番地,,03,203,0220005,,,,,,,2026-01-23,1,,,,,サンリクファーム,0
475,1430003018532,新規,0,2026-01-23,2026-01-23,合同会社Ｂｒｅａｋ　Ｔｈｒｏｕｇｈ,,合同会社,北海道,札幌市中央区,南四条西２丁目８番地７わたなべビル４Ｆ,,01,101,0640804,,,,,,,2026-01-23,1,,,,,ブレークスルー,0
488,1500001026736,新規,0,2026-01-23,2026-01-23,株式会社萌徳,,株式会社,愛媛県,伊予郡砥部町,高尾田６８４番地１,,38,402,7912101,,,,,,,2026-01-23,1,,,,,ホウトク,0
489,1700150134088,新規,0,2026-01-23,2026-01-23,ＳｈｅｎＺｈｅｎＳｈｉ　ＹｉｎｇＹｉｎｇ　ＫｅＪｉ　ＹｏｕＸｉａｎＧｏｎｇＳｉ,,外国会社等,,,,,,,,ＳｈｅｎＺｈｅｎｓｈｉ　Ｌｏｎｇｇａｎｇｑｕ　Ｂａｎｔｉａｎｊｉｅｄａｏ　Ｍａａｎｔａｎｇｓｈｅｑｕ　Ｚｈｏｎｇｘｉｎｇｌｕ１０ｈａｏ　ＳｈｕｎｘｉｎｇｇｏｎｇｙｅｑｕＥｄｏｎｇ４１３－４１６,,,,,,2026-01-23,1,,,,,シンセンシエイエイカギユウゲンコウシ,0
497,2010001261571,新規,0,2026-01-23,2026-01-23,ＴＮＰロジコム株式会社,,株式会社,東京都,千代田区,飯田橋２丁目１番地２号,,13,101,1020072,,,,,,,2026-01-23,1,,,,,ティーエヌピーロジコム,0
499,2010003049949,新規,0,2026-01-23,2026-01-23,紫陌生物科技合同会社,,合同会社,東京都,文京区,千石４丁目１４番９号,,13,105,1120011,,,,,,,2026-01-23,1,,,,,シモセイブツカガク,0
500,2010003050080,新規,0,2026-01-23,2026-01-23,Ｓｔａｎｄ　Ｉｎ　Ｐａｒｔｎｅｒｓ合同会社,,合同会社,東京都,文京区,根津１丁目２６番５－８０２号,,13,105,1130031,,,,,,,2026-01-23,1,,,,,スタンドインパートナーズ,0
501,2010003050089,新規,0,2026-01-23,2026-01-23,ＬＵＣＡ　ＧＰ３合同会社,,合同会社,東京都,千代田区,大手町１丁目６－１大手町ビル４階ＦＩＮＯＬＡＢ,,13,101,1000004,,,,,,,2026-01-23,1,,,,,ルカジーピースリー,0
502,2010003050122,新規,0,2026-01-23,2026-01-23,東新宿ＣＦＢ合同会社,,合同会社,東京都,千代田区,平河町１丁目６番１５号シルスフィア会計事務所内,,13,101,1020093,,,,,,,2026-01-23,1,,,,,ヒガシシンジュクシーエフビー,0
503,2010003050130,新規,0,2026-01-23,2026-01-23,エレヴァーレ合同会社,,合同会社,東京都,千代田区,霞が関３丁目２番５号,,13,101,1000013,,,,,,,2026-01-23,1,,,,,エレヴァーレ,0
504,2010005041268,新規,0,2026-01-23,2026-01-23,エレヴァーレ一般社団法人,,その他の設立登記法人,東京都,千代田区,霞が関３丁目２番５号,,13,101,1000013,,,,,,,2026-01-23,1,,,,,エレヴァーレ,0
509,2010401195948,新規,0,2026-01-23,2026-01-23,株式会社ＨＫＭＲ　ＯＮＥ,,株式会社,東京都,港区,六本木４丁目２番２０－１０３号,,13,103,1060032,,,,,,,2026-01-23,1,,,,,エイチケーエムアールワン,0
510,2010401196046,新規,0,2026-01-23,2026-01-23,Ｄｙｎａｂｒｉｄｇｅ株式会社,,株式会社,東京都,港区,芝浦２丁目１７番地の１０,,13,103,1080023,,,,,,,2026-01-23,1,,,,,ダイナブリッジ,0
515,2010405025242,新規,0,2026-01-23,2026-01-23,ソーラーマイルホールディングス一般社団法人,,その他の設立登記法人,東京都,港区,芝大門２丁目１２番３号共生ビル２号館７階環境エネルギー会計事務所内,,13,103,1050012,,,,,,,2026-01-23,1,,,,,ソーラーマイルホールディングス,0
516,2010405025275,新規,0,2026-01-23,2026-01-23,ＡＣＰ３一般社団法人,,その他の設立登記法人,東京都,港区,六本木１丁目６番１号泉ガーデンタワー,,13,103,1060032,,,,,,,2026-01-23,1,,,,,エーシーピースリー,0
528,2010801036990,新規,0,2026-01-23,2026-01-23,株式会社Ｊシダー,,株式会社,東京都,大田区,西蒲田７丁目４－４小山第二ビル６Ｆ,,13,111,1440051,,,,,,,2026-01-23,1,,,,,ジェイシダー,0
529,2010901058828,新規,0,2026-01-23,2026-01-23,株式会社ＣＯＣＯＬＵ,,株式会社,東京都,世田谷区,宇奈根２丁目５番２１号,,13,112,1570068,,,,,,,2026-01-23,1,,,,,ココル,0
530,2010903010571,新規,0,2026-01-23,2026-01-23,ＴＥＦＵＤＡ合同会社,,合同会社,東京都,世田谷区,大原１丁目６－１６ミレドゥーエ下北沢Ｉ１０７,00142302,13,112,1560041,,,,,,,2026-01-23,1,,,,,テフダ,0
536,2011201026921,新規,0,2026-01-23,2026-01-23,株式会社ストライク,,株式会社,東京都,中野区,東中野３丁目１６番１８号藤和東中野コープ２１４号室,,13,114,1640003,,,,,,,2026-01-23,1,,,,,ストライク,0
577,2011801047359,新規,0,2026-01-23,2026-01-23,株式会社Ｇ＆Ｋ,,株式会社,東京都,葛飾区,西水元５丁目１０番２２号,,13,122,1250031,,,,,,,2026-01-23,1,,,,,ジーアンドケー,0
585,2011803007294,新規,0,2026-01-23,2026-01-23,合同会社Ｈｋ,,合同会社,東京都,葛飾区,東新小岩８丁目１７番７号ソリテアシャイン１・２０１,,13,122,1240023,,,,,,,2026-01-23,1,,,,,エイチケイ,0
589,2012401044044,新規,0,2026-01-23,2026-01-23,株式会社星月花,,株式会社,東京都,府中市,緑町１丁目３０番地の１４,,13,206,1830006,,,,,,,2026-01-23,1,,,,,ホシゲッカ,0
590,2012401044052,新規,0,2026-01-23,2026-01-23,ＺＥｉＮ株式会社,,株式会社,東京都,小金井市,東町４丁目３番９号,,13,210,1840011,,,,,,,2026-01-23,1,,,,,ゼイン,0
626,2020003030189,新規,0,2026-01-23,2026-01-23,合同会社ＭＩＮＥホームズ,,合同会社,神奈川県,横浜市神奈川区,大口仲町１５－１１,,14,102,2210003,,,,,,,2026-01-23,1,,,,,マインホームズ,0
631,2021001087295,新規,0,2026-01-23,2026-01-23,笑乃建株式会社,,株式会社,神奈川県,鎌倉市,腰越３丁目１２番１１号,,14,204,2480033,,,,,,,2026-01-23,1,,,,,ショウノケン,0
632,2021001087329,新規,0,2026-01-23,2026-01-23,株式会社セオサイクル相模,,株式会社,神奈川県,相模原市中央区,横山３丁目３１番１号淡路ビル１０２号室,,14,152,2520242,,,,,,,2026-01-23,1,,,,,セオサイクルサガミ,0
643,2030003028505,新規,0,2026-01-23,2026-01-23,合同会社スマイル輝,,合同会社,埼玉県,さいたま市中央区,上落合９丁目１７番４－３０２号,,11,105,3380001,,,,,,,2026-01-23,1,,,,,スマイルカガヤキ,0
647,2040001142224,新規,0,2026-01-23,2026-01-23,ノッカ株式会社,,株式会社,千葉県,流山市,加３丁目６番地の１センターコート弐番館５０６,,12,220,2700176,,,,,,,2026-01-23,1,,,,,ノッカ,0
694,2070001043766,新規,0,2026-01-23,2026-01-23,ｍａｋｏｔｏ　ｃｌｏｕｄ株式会社,,株式会社,群馬県,高崎市,上並榎町３０６番地５,,10,202,3700801,,,,,,,2026-01-23,1,,,,,マコトクラウド,0
695,2080401028399,新規,0,2026-01-23,2026-01-23,株式会社ＤＥＦマシナリー,,株式会社,静岡県,菊川市,下平川４６８２番地の１,,22,224,4371514,,,,,,,2026-01-23,1,,,,,デフマシナリー,0
698,2090005007757,新規,0,2026-01-23,2026-01-23,特定非営利活動法人救援バイクＶＳやまなしトライアル隊,,その他の設立登記法人,山梨県,甲府市,中央５丁目２番１９号,,19,201,4000032,,,,,,,2026-01-23,1,,,,,キュウエンバイクブイエスヤマナシトライアルタイ,0
703,2110001039859,新規,0,2026-01-23,2026-01-23,株式会社みらい農商,,株式会社,新潟県,上越市,三和区米子９２４番地,,15,222,9420276,,,,,,,2026-01-23,1,,,,,ミライノウショウ,0
705,2110005017316,新規,0,2026-01-23,2026-01-23,一般社団法人ウォルケア,,その他の設立登記法人,新潟県,新潟市北区,葛塚３３１９番地２サンロード１階,,15,101,9503321,,,,,,,2026-01-23,1,,,,,ウォルケア,0
719,2120001283506,新規,0,2026-01-23,2026-01-23,株式会社ｏｎ　ｔｈｅ　ｅｄｇｅ,,株式会社,大阪府,大阪市北区,鶴野町３番９－２１０３号,,27,127,5300014,,,,,,,2026-01-23,1,,,,,オンザエッジ,0
720,2120001283539,新規,0,2026-01-23,2026-01-23,ＴＯＲＡＪＩＲＯ‐ＯＮＥ株式会社,,株式会社,大阪府,大阪市北区,梅田１丁目１番３号大阪駅前第３ビル２５階,,27,127,5300001,,,,,,,2026-01-23,1,,,,,トラジロウワン,0
721,2120001283613,新規,0,2026-01-23,2026-01-23,壹方テック株式会社,,株式会社,大阪府,大阪市都島区,高倉町２丁目３－１１Ｑｕｎｓｉビル３０１号,,27,102,5340011,,,,,,,2026-01-23,1,,,,,イッポウテック,0
727,2120003031755,新規,0,2026-01-23,2026-01-23,合同会社Ｎｏｒｔｈ　Ｖｉｌｌａｇｅ,,合同会社,大阪府,大阪市北区,大淀中４丁目１番３号ウィステリア西梅田２０３号室,,27,127,5310076,,,,,,,2026-01-23,1,,,,,ノースビレッジ,0
728,2120003031763,新規,0,2026-01-23,2026-01-23,合同会社Ｈ２,,合同会社,大阪府,大阪市西区,南堀江１丁目５番１０－４０５号,,27,106,5500015,,,,,,,2026-01-23,1,,,,,エイチツー,0
729,2120005025359,新規,0,2026-01-23,2026-01-23,一般社団法人つながる輪,,その他の設立登記法人,大阪府,守口市,松月町２－２－１階,,27,209,5700026,,,,,,,2026-01-23,1,,,,,ツナガルワ,0
730,2120005025375,新規,0,2026-01-23,2026-01-23,医療法人月盛,,その他の設立登記法人,大阪府,大阪市東成区,東中本２丁目４番４号ニコルビル４階,,27,115,5370021,,,,,,,2026-01-23,1,,,,,ツキモリ,0
750,2140001141430,新規,0,2026-01-23,2026-01-23,株式会社センツウ,,株式会社,兵庫県,尼崎市,立花町３丁目５番１５号,,28,202,6610025,,,,,,,2026-01-23,1,,,,,センツウ,0
753,2150003003818,新規,0,2026-01-23,2026-01-23,合同会社久宝寺,,合同会社,奈良県,奈良市,平松４丁目４番８号,,29,201,6310846,,,,,,,2026-01-23,1,,,,,キュウホウジ,0
757,2180001170343,新規,0,2026-01-23,2026-01-23,株式会社日奈多,,株式会社,愛知県,名古屋市中村区,太閤通５丁目２０－４ｗｉｌｌＤｏ太閤通３０４号,,23,105,4530811,,,,,,,2026-01-23,1,,,,,ヒナタ,0
758,2180001170392,新規,0,2026-01-23,2026-01-23,株式会社リフテクト,,株式会社,愛知県,小牧市,大字三ツ渕２３５０番地１０３,,23,219,4850075,,,,,,,2026-01-23,1,,,,,リフテクト,0
775,2220001027134,新規,0,2026-01-23,2026-01-23,株式会社ＨＲＴ防災サポート,,株式会社,石川県,金沢市,出雲町イ２９７番地２,,17,201,9200056,,,,,,,2026-01-23,1,,,,,ハートボウサイサポート,0
782,2240001066089,新規,0,2026-01-23,2026-01-23,メンタルザイム株式会社,,株式会社,広島県,広島市中区,本川町３丁目１－５,,34,101,7300802,,,,,,,2026-01-23,1,,,,,メンタルザイム,0
904,2310001019931,新規,0,2026-01-23,2026-01-23,株式会社ヤマケン,,株式会社,長崎県,佐世保市,吉井町下原５８番地,,42,202,8596315,,,,,,,2026-01-23,1,,,,,ヤマケン,0
909,2330001033930,新規,0,2026-01-23,2026-01-23,株式会社丞司,,株式会社,熊本県,熊本市西区,小島８丁目９番１３－１０３号,,43,103,8615287,,,,,,,2026-01-23,1,,,,,ジョウジ,0
916,2360001036294,新規,0,2026-01-23,2026-01-23,株式会社Ｇｉｖｅ＆Ｔａｋｅ,,株式会社,沖縄県,石垣市,字真栄里２８０番地３,,47,207,9070002,,,,,,,2026-01-23,1,,,,,ギブアンドテイク,0
921,2370001053413,新規,0,2026-01-23,2026-01-23,株式会社ＣＬＡＭ,,株式会社,宮城県,仙台市青葉区,東勝山３丁目１７番２４－２号,,04,101,9810923,,,,,,,2026-01-23,1,,,,,クラム,0
923,2390005009153,新規,0,2026-01-23,2026-01-23,特定非営利活動法人おきたまランドバンク,,その他の設立登記法人,山形県,東置賜郡川西町,大字吉田４６９０番地,,06,382,9990214,,,,,,,2026-01-23,1,,,,,オキタマランドバンク,0
933,2410001014377,新規,0,2026-01-23,2026-01-23,株式会社ＫＵＲＩＨＡＳＨＩホールディングス,,株式会社,秋田県,鹿角市,花輪字柴内太田谷地１１番地２,,05,209,0185201,,,,,,,2026-01-23,1,,,,,クリハシホールディングス,0
945,2440005002813,新規,0,2026-01-23,2026-01-23,一般社団法人ＪＵＮ福祉会,,その他の設立登記法人,北海道,函館市,旭岡町２９番地１３,,01,202,0420916,,,,,,,2026-01-23,1,,,,,,0
946,2450001014844,新規,0,2026-01-23,2026-01-23,網干電工株式会社,,株式会社,北海道,旭川市,春光七条２丁目３番６号,,01,204,0700877,,,,,,,2026-01-23,1,,,,,アボシデンコウ,0
958,2470003003059,新規,0,2026-01-23,2026-01-23,ポポラス合同会社,,合同会社,香川県,高松市,木太町３５０８番地１３,,37,201,7600080,,,,,,,2026-01-23,1,,,,,ポポラス,0
963,2700150134087,新規,0,2026-01-23,2026-01-23,Ｓｈｅｎ　Ｚｈｅｎ　Ｓｈｉ　Ｃｈｕａｎ　Ｙｕａｎ　Ｍａｏ　Ｙｉ　Ｙｏｕ　Ｘｉａｎ　Ｇｏｎｇ　Ｓｉ,,外国会社等,,,,,,,,Ｄｏｎｇｚｕｏ　１８０５Ａ，Ｔｉａｎａｎ　Ｃｈｕａｎｇｘｉｎ　Ｋｅｊｉ　Ｇｕａｎｇｃｈａｎｇ　Ｅｒ　Ｑｉ，Ｎｏ．２　Ｔａｉｒａｎ　Ｓｈｉｌｕ，Ｔｉａｎａｎ　Ｓｈｅｑｕ，Ｓｈａｔｏｕ　Ｊｉｅｄａｏ，Ｆｕｔｉａｎ　Ｑｕ，Ｓｈｅｎｚｈｅｎ，Ｇｕａｎｇｄｏｎｇ,,,,,,2026-01-23,1,,,,,シンセンシセンエンボウエキユウゲンコウシ,0
964,2700150134095,新規,0,2026-01-23,2026-01-23,溝口地区自治会,,その他,広島県,東広島市,高屋町溝口２５０番地,,34,212,7392123,,,,,,,2026-01-23,1,,,,,ミゾクチチクジチカイ,0
974,3010001261728,新規,0,2026-01-23,2026-01-23,リン・アンド・カンパニー株式会社,,株式会社,東京都,千代田区,二番町９－３,,13,101,1020084,,,,,,,2026-01-23,1,,,,,リンアンドカンパニー,0
975,3010001261835,新規,0,2026-01-23,2026-01-23,株式会社ＴｒｕｓｔＬｉｎｋ,,株式会社,東京都,千代田区,神田須田町１丁目７番８号ＶＯＲＴ秋葉原ＩＶ２Ｆ,00142315,13,101,1010041,,,,,,,2026-01-23,1,,,,,トラストリンク,0
980,3010005041234,新規,0,2026-01-23,2026-01-23,一般社団法人みらいセーフティＪＡＰＡＮ,,その他の設立登記法人,東京都,中央区,銀座４丁目１３－１１松竹倶楽部ビル４Ｆ,,13,102,1040061,,,,,,,2026-01-23,1,,,,,ミライセーフティジャパン,0
995,3010401195971,新規,0,2026-01-23,2026-01-23,株式会社Ａｓｐｉｒｅ　Ｃａｔａｌｙｓｔ　Ｐａｒｔｎｅｒｓ,,株式会社,東京都,港区,南青山３丁目１番３６号青山丸竹ビル６Ｆ,,13,103,1070062,,,,,,,2026-01-23,1,,,,,アスパイアカタリストパートナーズ,0
996,3010401196012,新規,0,2026-01-23,2026-01-23,株式会社サプライアセット,,株式会社,東京都,港区,港南２丁目１６－１品川イーストワンタワー７Ｆ,,13,103,1080075,,,,,,,2026-01-23,1,,,,,サプライアセット,0
997,3010401196037,新規,0,2026-01-23,2026-01-23,株式会社ＬＵＮＥＡ,,株式会社,東京都,港区,港南３丁目７番１０号ラクシア品川ポルトチッタ８０８,,13,103,1080075,,,,,,,2026-01-23,1,,,,,ルネア,0
1002,3010403037032,新規,0,2026-01-23,2026-01-23,合同会社ＧＵＮＵＮＵ,,合同会社,東京都,港区,南青山３丁目１番３６号青山丸竹ビル６Ｆ,,13,103,1070062,,,,,,,2026-01-23,1,,,,,グヌヌ,0
1003,3010403037123,新規,0,2026-01-23,2026-01-23,ＡＣＰ３合同会社,,合同会社,東京都,港区,六本木１丁目６番１号泉ガーデンタワー,,13,103,1060032,,,,,,,2026-01-23,1,,,,,エーシーピースリー,0
1020,3011001174845,新規,0,2026-01-23,2026-01-23,株式会社ＰＵＮＴＯ,,株式会社,東京都,渋谷区,恵比寿４丁目７番１５号恵比寿コラージュ３０３,,13,113,1500013,,,,,,,2026-01-23,1,,,,,プント,0
1021,3011001174894,新規,0,2026-01-23,2026-01-23,株式会社ＩＴＣ,,株式会社,東京都,渋谷区,神南１丁目１１－４ＦＰＧリンクス神南５階,,13,113,1500041,,,,,,,2026-01-23,1,,,,,アイティーシー,0
1022,3011001175050,新規,0,2026-01-23,2026-01-23,株式会社ＴＭＬホールディングス,,株式会社,東京都,渋谷区,広尾２丁目１３番１５号,,13,113,1500012,,,,,,,2026-01-23,1,,,,,ティーエムエルホールディングス,0
1024,3011005011326,新規,0,2026-01-23,2026-01-23,一般財団法人ワタナベ文化振興財団,,その他の設立登記法人,東京都,渋谷区,神宮前３丁目２７番１９号ＷＥＳ原宿,,13,113,1500001,,,,,,,2026-01-23,1,,,,,ワタナベブンカシンコウザイダン,0
1064,3011803007293,新規,0,2026-01-23,2026-01-23,合同会社Ｖｉｏｌａ,,合同会社,東京都,足立区,梅島３丁目３４番１２－３０１号,,13,121,1210816,,,,,,,2026-01-23,1,,,,,ヴィオラ,0
1068,3012403007584,新規,0,2026-01-23,2026-01-23,合同会社薄明舎,,合同会社,東京都,狛江市,中和泉２丁目２５番地４,,13,219,2010012,,,,,,,2026-01-23,1,,,,,ハクメイシャ,0
1083,3012803003984,新規,0,2026-01-23,2026-01-23,合同会社Ｃｏｍｅｔ　Ｓｔｕｄｉｏ,,合同会社,東京都,武蔵村山市,大南４丁目１１番地の１８シャルム・アン２０３,,13,223,2080013,,,,,,,2026-01-23,1,,,,,コメットスタジオ,0
1085,3012805003388,新規,0,2026-01-23,2026-01-23,税理士法人山本総合会計,,その他の設立登記法人,東京都,国分寺市,南町２丁目１３番１２号,,13,214,1850021,,,,,,,2026-01-23,1,,,,,ヤマモトソウゴウカイケイ,0
1101,3020001166562,新規,0,2026-01-23,2026-01-23,ＹＴＣ株式会社,,株式会社,神奈川県,横浜市緑区,長津田６丁目４番地２４,,14,113,2260027,,,,,,,2026-01-23,1,,,,,ワイティーシー,0
1102,3020001166752,新規,0,2026-01-23,2026-01-23,株式会社Ｓｕｎ　Ｌｉｆｅ　Ｓｔｙｌｅ,,株式会社,神奈川県,横浜市神奈川区,金港町５番地１４クアドリフォリオ８階,,14,102,2210056,,,,,,,2026-01-23,1,,,,,サンライフスタイル,0
1105,3021001087311,新規,0,2026-01-23,2026-01-23,るりこしライフサポート株式会社,,株式会社,神奈川県,相模原市中央区,東淵野辺４丁目３５番２７号,,14,152,2520203,,,,,,,2026-01-23,1,,,,,ルリコシライフサポート,0
1117,3030001170695,新規,0,2026-01-23,2026-01-23,Ｋ．オートジャパン株式会社,,株式会社,埼玉県,久喜市,菖蒲町上栢間３０４１番地の２,,11,232,3460114,,,,,,,2026-01-23,1,,,,,ケイオートジャパン,0
1128,3040001142173,新規,0,2026-01-23,2026-01-23,いぬ街株式会社,,株式会社,千葉県,佐倉市,王子台３丁目３番１号,,12,212,2850837,,,,,,,2026-01-23,1,,,,,イヌマチ,0
1129,3040001142215,新規,0,2026-01-23,2026-01-23,日本億暉株式会社,,株式会社,千葉県,習志野市,鷺沼台１丁目８－８,,12,216,2750015,,,,,,,2026-01-23,1,,,,,ニホンオクノカガヤキ,0
1132,3040003029352,新規,0,2026-01-23,2026-01-23,合同会社トライ,,合同会社,千葉県,木更津市,朝日３丁目１番１５－１０１号,,12,206,2920055,,,,,,,2026-01-23,1,,,,,トライ,0
1133,3040005023007,新規,0,2026-01-23,2026-01-23,医療法人社団樹智会,,その他の設立登記法人,千葉県,鎌ケ谷市,鎌ケ谷５丁目１番３９号,,12,224,2730105,,,,,,,2026-01-23,1,,,,,ジュチカイ,0
1192,3080001027395,新規,0,2026-01-23,2026-01-23,静浪エステート株式会社,,株式会社,静岡県,静岡市葵区,中ノ郷１７３番地の５,,22,101,4212111,,,,,,,2026-01-23,1,,,,,シズナミエステート,0
1195,3090001019706,新規,0,2026-01-23,2026-01-23,株式会社ａｎｎｅｉ,,株式会社,山梨県,甲府市,住吉３丁目２９番１３号ツインズＫ２，１－Ｄ,,19,201,4000851,,,,,,,2026-01-23,1,,,,,アンネイ,0
1198,3110005017315,新規,0,2026-01-23,2026-01-23,社会保険労務士法人齋藤事務所,,その他の設立登記法人,新潟県,村上市,下大鳥１４２番地４,,15,212,9593933,,,,,,,2026-01-23,1,,,,,サイトウジムショ,0
1212,3120003031746,新規,0,2026-01-23,2026-01-23,合同会社アドバンスワードサポート,,合同会社,大阪府,大阪市中央区,本町４丁目１－３大阪センタービル６Ｆ－３９２,,27,128,5410053,,,,,,,2026-01-23,1,,,,,アドバンスワードサポート,0
1213,3120003031754,新規,0,2026-01-23,2026-01-23,合同会社スリースターズ,,合同会社,大阪府,大阪市福島区,福島４丁目２－７２がど加賀ビル１００３,,27,103,5530003,,,,,,,2026-01-23,1,,,,,スリースターズ,0
1230,3130001081461,新規,0,2026-01-23,2026-01-23,株式会社加藤急便,,株式会社,京都府,京都市右京区,梅津北浦町２番地スカイハイツ和新２０３,,26,108,6150934,,,,,,,2026-01-23,1,,,,,カトウキュウビン,0
1232,3140001141454,新規,0,2026-01-23,2026-01-23,株式会社住吉赤塚山,,株式会社,兵庫県,神戸市東灘区,住吉山手８丁目１５番２８号,,28,101,6580063,,,,,,,2026-01-23,1,,,,,スミヨシアカツカヤマ,0
1233,3140003023122,新規,0,2026-01-23,2026-01-23,合同会社ＵＡ,,合同会社,兵庫県,神戸市垂水区,小束山手１丁目７－１,,28,108,6550009,,,,,,,2026-01-23,1,,,,,ユウエイ,0
1247,3180003029660,新規,0,2026-01-23,2026-01-23,Ａｓｌａｎ工業合同会社,,合同会社,愛知県,春日井市,明知町山ノ田３０８番１号,,23,206,4800303,,,,,,,2026-01-23,1,,,,,アスランコウギョウ,0
1364,3270001009374,新規,0,2026-01-23,2026-01-23,株式会社ｅｎｎ,,株式会社,鳥取県,米子市,和田町３０１０番地６,,31,202,6830102,,,,,,,2026-01-23,1,,,,,エン,0
1395,3340001027922,新規,0,2026-01-23,2026-01-23,株式会社笑ＮＥＮ馬,,株式会社,鹿児島県,鹿児島市,原良１丁目５番６号エスペランサ城西５０１号,,46,201,8900026,,,,,,,2026-01-23,1,,,,,ショウネンバ,0
1396,3340003005075,新規,0,2026-01-23,2026-01-23,合同会社あかねフーズ,,合同会社,鹿児島県,南さつま市,坊津町泊８６９２番地,,46,220,8980102,,,,,,,2026-01-23,1,,,,,アカネフーズ,0
1402,3360001036293,新規,0,2026-01-23,2026-01-23,株式会社ＫＡＬＭ,,株式会社,沖縄県,島尻郡南風原町,字宮平３番地１ミルコマンション南風原スカイリベール２０５,,47,350,9011104,,,,,,,2026-01-23,1,,,,,カルム,0
1407,3380001035830,新規,0,2026-01-23,2026-01-23,株式会社迎建築研究舎,,株式会社,福島県,石川郡石川町,字石田５０番地,,07,501,9637833,,,,,,,2026-01-23,1,,,,,ムカイケンチクケンキュウシャ,0
1422,3430001096116,新規,0,2026-01-23,2026-01-23,株式会社カリス,,株式会社,北海道,札幌市東区,北四十条東９丁目１番２０号,,01,103,0070840,,,,,,,2026-01-23,1,,,,,カリス,0
1426,3440005002812,新規,0,2026-01-23,2026-01-23,特定非営利活動法人バンブー・ペリフェリーズ・オーバーシーズ・ボランティアーズ,,その他の設立登記法人,北海道,函館市,乃木町１番８－３号,,01,202,0420943,,,,,,,2026-01-23,1,,,,,バンブーペリフェリーズオーバーシーズボランティアーズ,0
1443,3470003003058,新規,0,2026-01-23,2026-01-23,Ａｙ合同会社,,合同会社,香川県,高松市,瀬戸内町２４番１９号,,37,201,7600012,,,,,,,2026-01-23,1,,,,,エーワイ,0
1445,3480001013058,新規,0,2026-01-23,2026-01-23,株式会社チケンホーム,,株式会社,徳島県,徳島市,上八万町西山５１２番地,,36,201,7708041,,,,,,,2026-01-23,1,,,,,チケンホーム,0
1447,3700150134086,新規,0,2026-01-23,2026-01-23,ＺｈｕＺｈｏｕＹｏｕＸｉａｎＨｏｎｇＸｉＹｕｎＪｉＷａｎｇＬｕｏＹｏｕＸｉａｎＧｏｎｇＳｉ,,外国会社等,,,,,,,,Ｎｏ．３３，Ｍｉｎｇｌｏｕ，Ｌｉａｎｘｉｎｇ　Ｃｏｍｍｕｎｉｔｙ，Ｌｉａｎｘｉｎｇ　Ｓｔｒｅｅｔ，Ｙｏｕ　Ｃｏｕｎｔｙ，Ｚｈｕｚｈｏｕ　Ｃｉｔｙ，Ｈｕｎａｎ　Ｐｒｏｖｉｎｃｅ,,,,,,2026-01-23,1,,,,,シュシュウヨウケンコウシウンシュウネットワークユウゲンコウシ,0
1448,3700150134094,新規,0,2026-01-23,2026-01-23,小泉製麻健康保険組合,,その他,兵庫県,神戸市灘区,新在家南町１丁目２番１号,,28,102,6570864,,,,,,,2026-01-23,1,,,,,コイズミセイマケンコウホケンクミアイ,0
1456,4010001261727,新規,0,2026-01-23,2026-01-23,株式会社ＦＬＩＮＴ,,株式会社,東京都,千代田区,神田和泉町１番地６－１６ヤマトビル４０５,,13,101,1010024,,,,,,,2026-01-23,1,,,,,フリント,0
1457,4010001261974,新規,0,2026-01-23,2026-01-23,株式会社Ｑｒａｄ,,株式会社,東京都,千代田区,二番町９番３号ＴＨＥ．ＢＡＳＥ麹町ＴＨＥ．ＨＵＢ麹町Ｗ３０７号室,,13,101,1020084,,,,,,,2026-01-23,1,,,,,クラド,0
1462,4010003049955,新規,0,2026-01-23,2026-01-23,Ｃｈａｑｕｉｅ合同会社,,合同会社,東京都,中央区,佃２丁目１１番６－６１１号,,13,102,1040051,,,,,,,2026-01-23,1,,,,,チャキイ,0
1463,4010005041266,新規,0,2026-01-23,2026-01-23,一般社団法人熱海マネジメント,,その他の設立登記法人,東京都,千代田区,飯田橋４丁目７番１号結和税理士法人内,,13,101,1020072,,,,,,,2026-01-23,1,,,,,アタミマネジメント,0
1479,4010401195616,新規,0,2026-01-23,2026-01-23,株式会社社台ファーム山元,,株式会社,東京都,港区,六本木５丁目１７番９号,,13,103,1060032,,,,,,,2026-01-23,1,,,,,シャダイファームヤマモト,0
1480,4010401195905,新規,0,2026-01-23,2026-01-23,ＡｇｅｎＴｅｃｈ株式会社,,株式会社,東京都,港区,虎ノ門１丁目１７番１号虎ノ門ヒルズビジネスタワー１５階,,13,103,1050001,,,,,,,2026-01-23,1,,,,,エージェンテック,0
1481,4010401195946,新規,0,2026-01-23,2026-01-23,ヘルスケアバンク株式会社,,株式会社,東京都,港区,芝１丁目１５－１０第一芝１丁目ビル６階,,13,103,1050014,,,,,,,2026-01-23,1,,,,,ヘルスケアバンク,0
1484,4010403037056,新規,0,2026-01-23,2026-01-23,ソーラーマイル合同会社,,合同会社,東京都,港区,芝大門２丁目１２番３号共生ビル２号館７階環境エネルギー会計事務所内,,13,103,1050012,,,,,,,2026-01-23,1,,,,,ソーラーマイル,0
1485,4010403037097,新規,0,2026-01-23,2026-01-23,ＷｉｔｈＢｉｔファンド合同会社,,合同会社,東京都,港区,西新橋３丁目１３番３号ＢＩＺＣＯＲＥ西新橋１３階,,13,103,1050003,,,,,,,2026-01-23,1,,,,,ウィズビットファンド,0
1486,4010405025281,新規,0,2026-01-23,2026-01-23,ＪＶＦ２０２６ＧＰ一般社団法人,,その他の設立登記法人,東京都,港区,六本木１丁目９番１０号アークヒルズ仙石山森タワー４０階,,13,103,1060032,,,,,,,2026-01-23,1,,,,,ジェーブイエフニーゼロニーロクジーピー,0
1490,4010701048911,新規,0,2026-01-23,2026-01-23,株式会社エクイハーモニー,,株式会社,東京都,品川区,大井１丁目２２番１１号,,13,109,1400014,,,,,,,2026-01-23,1,,,,,エクイハーモニー,0
1494,4010801036980,新規,0,2026-01-23,2026-01-23,Ｌｉｃｏ株式会社,,株式会社,東京都,大田区,田園調布３丁目２１番１６号Ｂ棟,,13,111,1450071,,,,,,,2026-01-23,1,,,,,リコ,0
1495,4010801036989,新規,0,2026-01-23,2026-01-23,株式会社ＦｏｒＹｏｕ,,株式会社,東京都,大田区,南六郷２丁目７－１９－１０２,,13,111,1440045,,,,,,,2026-01-23,1,,,,,フォーユー,0
1499,4011001174745,新規,0,2026-01-23,2026-01-23,株式会社ＩＷＡＴＡ＆Ｃｏ．,,株式会社,東京都,渋谷区,東３丁目９番１２号,,13,113,1500011,,,,,,,2026-01-23,1,,,,,イワタアンドコー,0
1503,4011101114543,新規,0,2026-01-23,2026-01-23,株式会社キークレアホールディングス,,株式会社,東京都,新宿区,四谷４丁目３番地１,,13,104,1600004,,,,,,,2026-01-23,1,,,,,キークレアホールディングス,0
1506,4011203004923,新規,0,2026-01-23,2026-01-23,合同会社シャイン・キャッスル,,合同会社,東京都,中野区,本町６丁目１４－７ｔｈｅ　ｔｒｉａｓ　ｓｈｉｎｎａｋａｎｏ３０３,,13,114,1640012,,,,,,,2026-01-23,1,,,,,シャインキャッスル,0
1516,4011603004985,新規,0,2026-01-23,2026-01-23,ＬｉｎｋＢｒｉｄｇｅ合同会社,,合同会社,東京都,練馬区,関町北５丁目１２番１４号,,13,120,1770051,,,,,,,2026-01-23,1,,,,,リンクブリッジ,0
1548,4011801047357,新規,0,2026-01-23,2026-01-23,株式会社ＶｉａＬｕｘ,,株式会社,東京都,葛飾区,水元５丁目４－１１,,13,122,1250032,,,,,,,2026-01-23,1,,,,,ヴィアルクス,0
1560,4012401044050,新規,0,2026-01-23,2026-01-23,株式会社Ｌａｚｕｒｉｔｅ,,株式会社,東京都,稲城市,平尾２丁目７４番地の７,,13,225,2060823,,,,,,,2026-01-23,1,,,,,ラズライト,0
1562,4012403007583,新規,0,2026-01-23,2026-01-23,合同会社くぬぎ,,合同会社,東京都,府中市,宮町１丁目１００－７１２,,13,206,1830023,,,,,,,2026-01-23,1,,,,,クヌギ,0
1572,4012801024494,新規,0,2026-01-23,2026-01-23,株式会社Ｍｏｎａｋａ．ＡＩ,,株式会社,東京都,国立市,東１丁目１５－１１、４４８ビル３Ｆ,,13,215,1860002,,,,,,,2026-01-23,1,,,,,モナカエーアイ,0
1574,4012803003983,新規,0,2026-01-23,2026-01-23,合同会社ＡＺＵＬＩＴＥ,,合同会社,東京都,立川市,曙町２丁目１５－１４ヒロセビル１１、３Ｆ,,13,202,1900012,,,,,,,2026-01-23,1,,,,,アズライト,0
1586,4020001166834,新規,0,2026-01-23,2026-01-23,株式会社アサヒ,,株式会社,神奈川県,川崎市中原区,上平間２１２番地１川崎平間ガーデンハウス２０２,,14,133,2110013,,,,,,,2026-01-23,1,,,,,アサヒ,0
1589,4020003030179,新規,0,2026-01-23,2026-01-23,合同会社横浜サポート,,合同会社,神奈川県,横浜市都筑区,早渕１丁目２０番１０号テラスチャチャ１０２,,14,118,2240025,,,,,,,2026-01-23,1,,,,,,0
1590,4020003030187,新規,0,2026-01-23,2026-01-23,ＰＢラボ合同会社,,合同会社,神奈川県,川崎市多摩区,登戸１０３５ＧＩＮＺＯ２０３,,14,135,2140014,,,,,,,2026-01-23,1,,,,,ピービーラボ,0
1591,4020003030212,新規,0,2026-01-23,2026-01-23,横浜エアコン合同会社,,合同会社,神奈川県,横浜市西区,北幸２丁目１０番４８号むつみビル３階,,14,103,2200004,,,,,,,2026-01-23,1,,,,,ヨコハマエアコン,0
1596,4021001087310,新規,0,2026-01-23,2026-01-23,アソブランカ株式会社,,株式会社,神奈川県,中郡大磯町,東小磯１００３番地３,,14,341,2550004,,,,,,,2026-01-23,1,,,,,アソブランカ,0
1599,4030001170703,新規,0,2026-01-23,2026-01-23,Ｈｙｂｒｉｄ　Ｃｏｍｍｅｒｃｅ株式会社,,株式会社,埼玉県,さいたま市見沼区,大字東門前２３番地４メイプルコート大宮７０１号室,,11,104,3370016,,,,,,,2026-01-23,1,,,,,ハイブリッドコマース,0
1604,4030005022396,新規,0,2026-01-23,2026-01-23,特定非営利活動法人埼玉日台文化交流協会,,その他の設立登記法人,埼玉県,朝霞市,溝沼２丁目７番１５－３号,,11,227,3510023,,,,,,,2026-01-23,1,,,,,サイタマニッタイブンカコウリュウキョウカイ,0
1607,4040001142164,新規,0,2026-01-23,2026-01-23,Ｂｅｓｔ　Ｏｎｅ　Ｊａｐａｎ　Ｉｎｔｅｒｎａｔｉｏｎａｌ株式会社,,株式会社,千葉県,八千代市,八千代台西１丁目１番地７青木ビル２階,,12,221,2760034,,,,,,,2026-01-23,1,,,,,ベストワンジャパンインターナショナル,0
1612,4040003029343,新規,0,2026-01-23,2026-01-23,合同会社鈴木工房,,合同会社,千葉県,船橋市,楠が山町６１番地９１,,12,204,2740055,,,,,,,2026-01-23,1,,,,,スズキコウボウ,0
1654,4060001038930,新規,0,2026-01-23,2026-01-23,株式会社ＡＴＯＴＳＵＧＩ,,株式会社,栃木県,那須郡那須町,大字湯本２０６番地,,09,407,3250301,,,,,,,2026-01-23,1,,,,,アトツギ,0
1657,4070001043764,新規,0,2026-01-23,2026-01-23,株式会社２１,,株式会社,群馬県,高崎市,上佐野町２９２－１,,10,202,3700857,,,,,,,2026-01-23,1,,,,,フタイチ,0
1658,4070003006273,新規,0,2026-01-23,2026-01-23,ｕｓｕｒａ合同会社,,合同会社,群馬県,伊勢崎市,東小保方町３５８６番地３,,10,204,3792234,,,,,,,2026-01-23,1,,,,,ウスラ,0
1662,4090001019705,新規,0,2026-01-23,2026-01-23,株式会社ＣＲＥＷ　ＬＩＮＫ,,株式会社,山梨県,都留市,小野１２８６番地２,,19,204,4020024,,,,,,,2026-01-23,1,,,,,クルーリンク,0
1665,4100001039288,新規,0,2026-01-23,2026-01-23,株式会社ＫＭマネジメント,,株式会社,長野県,諏訪郡原村,１１１２２番地１,,20,363,3910100,,,,,,,2026-01-23,1,,,,,ケイエムマネジメント,0
1677,4120001283487,新規,0,2026-01-23,2026-01-23,株式会社ＥＮＲＯＵＴＥ,,株式会社,大阪府,大阪市中央区,難波４丁目１－１５近鉄難波ビル１１５,,27,128,5420076,,,,,,,2026-01-23,1,,,,,エンルート,0
1678,4120001283561,新規,0,2026-01-23,2026-01-23,牧心斎株式会社,,株式会社,大阪府,大阪市生野区,新今里１丁目１２番２－２０２号,,27,116,5440001,,,,,,,2026-01-23,1,,,,,ボクシンサイ,0
1679,4120001283603,新規,0,2026-01-23,2026-01-23,株式会社匠工芸,,株式会社,大阪府,大阪市西成区,天下茶屋１丁目１６番２９号,,27,122,5570014,,,,,,,2026-01-23,1,,,,,タクミコウゲイ,0
1682,4120005025365,新規,0,2026-01-23,2026-01-23,医療法人ＭＩＯ,,その他の設立登記法人,大阪府,大阪市北区,梅田１丁目１２番６号Ｅ－ｍａビル地下２階,,27,127,5300001,,,,,,,2026-01-23,1,,,,,ミオ,0
1704,4180001170390,新規,0,2026-01-23,2026-01-23,株式会社ＲＹＧ,,株式会社,愛知県,名古屋市中区,丸の内３丁目１６番１９号,,23,106,4600002,,,,,,,2026-01-23,1,,,,,アールワイジー,0
1705,4180001170424,新規,0,2026-01-23,2026-01-23,株式会社零Ｄｅｓｉｇｎ　Ｗｏｒｋｓ,,株式会社,愛知県,知多郡東浦町,大字森岡字上山之上４６番地の３,,23,442,4702101,,,,,,,2026-01-23,1,,,,,ゼロデザインワークス,0
1710,4200003007200,新規,0,2026-01-23,2026-01-23,ＡＫＩＲＡ　ＧＬＯＢＡＬ　ＧＲＯＵＰ　ＯＦ　ＣＯＭＰＡＮＹ合同会社,,合同会社,岐阜県,本巣市,浅木２９１番地１,,21,218,5010475,,,,,,,2026-01-23,1,,,,,アキラグローバルグループオブカンパニー,0
1711,4200005013840,新規,0,2026-01-23,2026-01-23,一般社団法人地域ラボ産官学連携推進センター,,その他の設立登記法人,岐阜県,中津川市,新町１番１５号,,21,206,5080038,,,,,,,2026-01-23,1,,,,,チイキラボサンカンガクレンケイスイシンセンター,0
1828,4260001040924,新規,0,2026-01-23,2026-01-23,株式会社国富設備,,株式会社,岡山県,岡山市中区,国富４丁目４番８－７号,,33,102,7038236,,,,,,,2026-01-23,1,,,,,クニトミセツビ,0
1840,4290001112919,新規,0,2026-01-23,2026-01-23,株式会社ＭＩＲＡＹ,,株式会社,福岡県,福岡市城南区,梅林５丁目３３－３エクシア野芥駅１０１,,40,136,8140144,,,,,,,2026-01-23,1,,,,,ミレイ,0
1846,4290803005262,新規,0,2026-01-23,2026-01-23,合同会社ＷＩＴＣＨ,,合同会社,福岡県,北九州市八幡西区,鉄王２丁目１５番２１号,,40,109,8060057,,,,,,,2026-01-23,1,,,,,ウィッチ,0
1868,4330001033945,新規,0,2026-01-23,2026-01-23,株式会社和子,,株式会社,熊本県,宇城市,豊野町上郷１８０８番地１,,43,213,8614303,,,,,,,2026-01-23,1,,,,,ワコ,0
1870,4330003011404,新規,0,2026-01-23,2026-01-23,合同会社ＫＭセクター,,合同会社,熊本県,熊本市東区,御領５丁目２番２９－１０１号,,43,102,8618035,,,,,,,2026-01-23,1,,,,,ケーエムセクター,0
1880,4360001036292,新規,0,2026-01-23,2026-01-23,株式会社清,,株式会社,沖縄県,那覇市,繁多川５丁目１番３号,,47,201,9020071,,,,,,,2026-01-23,1,,,,,シン,0
1882,4360005007356,新規,0,2026-01-23,2026-01-23,一般社団法人楊姓童心,,その他の設立登記法人,沖縄県,那覇市,首里大名町１丁目１６５番地２階,,47,201,9030802,,,,,,,2026-01-23,1,,,,,ヨウセイドウシン,0
1920,4700150134093,新規,0,2026-01-23,2026-01-23,ＨＯＮＧ　ＫＯＮＧ　ＢＡＯＦＵ　ＴＥＣＨＮＯＬＯＧＹ　ＬＩＭＩＴＥＤ,,外国会社等,,,,,,,,ＲＭ　２０　ＦＡＣＴＯＲＹ　ＵＮＩＴ　１　４／Ｆ　ＳＩＮＧ　ＷＩＮ　ＦＡＣＴＯＲＹ　ＢＵＩＬＤＩＮＧ　ＮＯＳ．１５－１７　ＳＨＩＮＧ　ＹＩＰ　ＳＴＲＥＥＴ　ＫＷＵＮ　ＴＯＮＧ　ＫＬ,,,,,,2026-01-23,1,,,,,ホンコンホフカギユウゲンコウシ,0
1938,5010001261924,新規,0,2026-01-23,2026-01-23,株式会社ＰｕｎｋＣｏｄｅ,,株式会社,東京都,中央区,銀座６丁目１３番１６号銀座ＷａｌｌビルＵＦＣ５階,,13,102,1040061,,,,,,,2026-01-23,1,,,,,パンクコード,0
1939,5010001262229,新規,0,2026-01-23,2026-01-23,ケアダ株式会社,,株式会社,東京都,中央区,日本橋室町１丁目１１番１２号,,13,102,1030022,,,,,,,2026-01-23,1,,,,,ケアダ,0
1946,5010005041265,新規,0,2026-01-23,2026-01-23,一般社団法人東新宿ＣＦＢ,,その他の設立登記法人,東京都,千代田区,平河町１丁目６番１５号シルスフィア会計事務所内,,13,101,1020093,,,,,,,2026-01-23,1,,,,,ヒガシシンジュクシーエフビー,0
1954,5010401195961,新規,0,2026-01-23,2026-01-23,株式会社クリーンサポート・パートナーズ,,株式会社,東京都,港区,赤坂１丁目１４番５号アークヒルズエグゼクティブタワーＮ５１１,,13,103,1070052,,,,,,,2026-01-23,1,,,,,クリーンサポートパートナーズ,0
1959,5010501055347,新規,0,2026-01-23,2026-01-23,株式会社Ｏｒｔｈｏ　Ｓｈｏｅｗｏｒｋｓ,,株式会社,東京都,台東区,清川２丁目１１－７,,13,106,1110022,,,,,,,2026-01-23,1,,,,,オルトシューワークス,0
1962,5010601068620,新規,0,2026-01-23,2026-01-23,株式会社ジェイリード,,株式会社,東京都,江東区,豊洲５丁目６番３６号,,13,108,1350061,,,,,,,2026-01-23,1,,,,,ジェイリード,0
1971,5010701048927,新規,0,2026-01-23,2026-01-23,株式会社ベイリーフ,,株式会社,東京都,品川区,大崎２丁目５番６－４０７号,,13,109,1410032,,,,,,,2026-01-23,1,,,,,ベイリーフ,0
1972,5010805003233,新規,0,2026-01-23,2026-01-23,税理士法人ＺＥＤ東京,,その他の設立登記法人,東京都,大田区,山王２丁目５番１３号,,13,111,1430023,,,,,,,2026-01-23,1,,,,,ゼッドトウキョウ,0
1979,5011001175123,新規,0,2026-01-23,2026-01-23,株式会社ＥＲＩ,,株式会社,東京都,渋谷区,恵比寿３丁目４６番７－２０１号,,13,113,1500013,,,,,,,2026-01-23,1,,,,,エリ,0
1984,5011101114542,新規,0,2026-01-23,2026-01-23,株式会社Ｗｅｌｌｅｘ,,株式会社,東京都,新宿区,新小川町４番７号アオヤギビル,,13,104,1620814,,,,,,,2026-01-23,1,,,,,ウェレックス,0
1986,5011103016968,新規,0,2026-01-23,2026-01-23,まるよん合同会社,,合同会社,東京都,新宿区,西新宿３丁目３番１３号西新宿水間ビル２Ｆ,,13,104,1600023,,,,,,,2026-01-23,1,,,,,マルヨン,0
1987,5011103017000,新規,0,2026-01-23,2026-01-23,合同会社ＬＩＦＥ,,合同会社,東京都,新宿区,新宿５丁目１１－２新宿岡田ビル６０８,,13,104,1600022,,,,,,,2026-01-23,1,,,,,ライフ,0
2033,5012401044058,新規,0,2026-01-23,2026-01-23,株式会社ＤＯＵＭＥＮＧＥ,,株式会社,東京都,調布市,染地２丁目３６番地３－６１０,,13,208,1820023,,,,,,,2026-01-23,1,,,,,ドゥマンジュ,0
2034,5012403007582,新規,0,2026-01-23,2026-01-23,合同会社ＦＣ　ＫＯＯＮ,,合同会社,東京都,三鷹市,下連雀５丁目１番１－６６１号,,13,204,1810013,,,,,,,2026-01-23,1,,,,,エフシークーン,0
2064,5020001166750,新規,0,2026-01-23,2026-01-23,株式会社Ｎｏｓｔａｌ,,株式会社,神奈川県,横浜市神奈川区,三ツ沢中町２３番１号,,14,102,2210851,,,,,,,2026-01-23,1,,,,,ノスタル,0
2065,5020001166791,新規,0,2026-01-23,2026-01-23,株式会社ＴＲＵＳＴ　ＬＩＮＥ,,株式会社,神奈川県,横浜市鶴見区,菅沢町１４番１４号,,14,101,2300027,,,,,,,2026-01-23,1,,,,,トラストライン,0
2066,5020001166833,新規,0,2026-01-23,2026-01-23,株式会社ディプラス,,株式会社,神奈川県,横浜市都筑区,中川中央１丁目２３番９号,,14,118,2240003,,,,,,,2026-01-23,1,,,,,ディプラス,0
2070,5020003030186,新規,0,2026-01-23,2026-01-23,ＩＺ　ＦＩＬＭＳ合同会社,,合同会社,神奈川県,川崎市中原区,小杉陣屋町１丁目２２－２,,14,133,2110062,,,,,,,2026-01-23,1,,,,,イズフィルムズ,0
2072,5020005017124,新規,0,2026-01-23,2026-01-23,マック社会保険労務士法人,,その他の設立登記法人,神奈川県,横浜市中区,尾上町４丁目５７番横浜尾上町ビルディング８階,,14,104,2310015,,,,,,,2026-01-23,1,,,,,マックシャカイホケン,0
2079,5021003017025,新規,0,2026-01-23,2026-01-23,合同会社浮舟社,,合同会社,神奈川県,藤沢市,鵠沼石上２丁目５番１号３階Ｃ号室,00142304,14,205,2510025,,,,,,,2026-01-23,1,,,,,ウキフネシャ,0
2081,5030001170693,新規,0,2026-01-23,2026-01-23,ミオテック株式会社,,株式会社,埼玉県,さいたま市大宮区,土手町３丁目２６５－２－２０３,,11,103,3300801,,,,,,,2026-01-23,1,,,,,ミオテック,0
2087,5040001142163,新規,0,2026-01-23,2026-01-23,株式会社Ｈａｉｒ　ｓａｌｏｎ　ＳｏＲａ,,株式会社,千葉県,山武市,成東２０２６番地２２,,12,237,2891326,,,,,,,2026-01-23,1,,,,,ヘアーサロンソラ,0
2088,5040001142221,新規,0,2026-01-23,2026-01-23,ｂｅ　ＦＬＯＷ株式会社,,株式会社,千葉県,千葉市若葉区,東寺山町５１番地６,,12,104,2640035,,,,,,,2026-01-23,1,,,,,ビーフロウ,0
2134,5080003003640,新規,0,2026-01-23,2026-01-23,合同会社ＭＣ　ＮＥＸＵＳ,,合同会社,静岡県,静岡市葵区,山崎２丁目３－３０,,22,101,4211213,,,,,,,2026-01-23,1,,,,,エムシーネクサス,0
2136,5080401028396,新規,0,2026-01-23,2026-01-23,株式会社ＤＭＴ,,株式会社,静岡県,浜松市中央区,薬新町１７８番地,,22,138,4350018,,,,,,,2026-01-23,1,,,,,ディーエムティー,0
2138,5110001039864,新規,0,2026-01-23,2026-01-23,カミムラ建築設計株式会社,,株式会社,新潟県,新潟市東区,津島屋４丁目２４,,15,102,9500801,,,,,,,2026-01-23,1,,,,,カミムラケンチクセッケイ,0
2150,5120001283585,新規,0,2026-01-23,2026-01-23,株式会社善音,,株式会社,大阪府,大阪市西成区,梅南３丁目１－２０ケースリーハイツ１０１号,,27,122,5570033,,,,,,,2026-01-23,1,,,,,ゼンネ,0
2151,5120001283610,新規,0,2026-01-23,2026-01-23,株式会社ほしやす,,株式会社,大阪府,大阪市旭区,中宮５丁目３番２８号シャーメゾンパークイースト２０１,,27,117,5350003,,,,,,,2026-01-23,1,,,,,ホシヤス,0
2155,5120003031744,新規,0,2026-01-23,2026-01-23,Ａｒａｂ　Ｂｒｅｅｚｅ合同会社,,合同会社,大阪府,大阪市平野区,喜連４丁目６番２７号ファミール喜連１０５号,,27,126,5470027,,,,,,,2026-01-23,1,,,,,アラブブリーズ,0
2156,5120003031760,新規,0,2026-01-23,2026-01-23,Ｅ‐Ｓｅｃｏｎｄ合同会社,,合同会社,大阪府,大阪市北区,中之島３丁目６番１６号,,27,127,5300005,,,,,,,2026-01-23,1,,,,,イーセカンド,0
2162,5120903006044,新規,0,2026-01-23,2026-01-23,合同会社黒田班,,合同会社,大阪府,吹田市,元町２４番５－３０１号,,27,205,5640031,,,,,,,2026-01-23,1,,,,,クロダハン,0
2180,5140001141452,新規,0,2026-01-23,2026-01-23,株式会社Ｌｏｖｅ　ｉｓ　ａｌｌ,,株式会社,兵庫県,高砂市,米田町米田１１４５番地の２,,28,216,6760805,,,,,,,2026-01-23,1,,,,,ラブイズオール,0
2181,5140001141477,新規,0,2026-01-23,2026-01-23,株式会社Ｋｏｄｅ　Ｂｉｏ,,株式会社,兵庫県,神戸市東灘区,御影郡家２丁目１３番５号,,28,101,6580048,,,,,,,2026-01-23,1,,,,,コードバイオ,0
2182,5140001141502,新規,0,2026-01-23,2026-01-23,株式会社Ｅｐｉｓｏｄｅ　Ｃｏｎｎｅｃｔ,,株式会社,兵庫県,神戸市北区,桜森町１２番地の１,,28,109,6511214,,,,,,,2026-01-23,1,,,,,エピソードコネクト,0
2193,5180001170407,新規,0,2026-01-23,2026-01-23,きさき園芸株式会社,,株式会社,愛知県,江南市,勝佐町地光堂５５番地,,23,217,4838037,,,,,,,2026-01-23,1,,,,,キサキエンゲイ,0
2208,5230003002560,新規,0,2026-01-23,2026-01-23,合同会社バララーマ,,合同会社,富山県,黒部市,石田７６－２,,16,207,9380059,,,,,,,2026-01-23,1,,,,,バララーマ,0
2211,5240001066061,新規,0,2026-01-23,2026-01-23,株式会社ユニコーンホールディングス,,株式会社,広島県,広島市安佐南区,川内１丁目１０番２２号,,34,105,7310102,,,,,,,2026-01-23,1,,,,,ユニコーンホールディングス,0
2212,5240001066086,新規,0,2026-01-23,2026-01-23,株式会社Ｓｙｎｃ,,株式会社,広島県,廿日市市,阿品台北６番２６号,,34,213,7380051,,,,,,,2026-01-23,1,,,,,シンク,0
2327,5280003002028,新規,0,2026-01-23,2026-01-23,合同会社エース,,合同会社,島根県,浜田市,周布町ロ３７０番地１,,32,202,6971321,,,,,,,2026-01-23,1,,,,,エース,0
2359,5340001027920,新規,0,2026-01-23,2026-01-23,株式会社住宅環境,,株式会社,鹿児島県,鹿児島市,吉野町５９５６番地８４,,46,201,8920871,,,,,,,2026-01-23,1,,,,,ジュウタクカンキョウ,0
2378,5380001035829,新規,0,2026-01-23,2026-01-23,株式会社ｃａｓａ,,株式会社,福島県,会津若松市,本町１０番５３号,,07,202,9650862,,,,,,,2026-01-23,1,,,,,カーサ,0
2408,5460101007810,新規,0,2026-01-23,2026-01-23,株式会社トリップエンジン,,株式会社,北海道,帯広市,西二条南１０丁目２０番３号,,01,207,0800012,,,,,,,2026-01-23,1,,,,,トリップエンジン,0
2412,5480005007120,新規,0,2026-01-23,2026-01-23,一般社団法人パラフットボール徳島,,その他の設立登記法人,徳島県,徳島市,国府町府中２４２番地９,,36,201,7793122,,,,,,,2026-01-23,1,,,,,パラフットボールトクシマ,0
2415,5700150134092,新規,0,2026-01-23,2026-01-23,ｊｉａｎｇｘｉｊｉｎｚｈｉｇｕｄｉａｎｚｉｋｅｊｉｙｏｕｘｉａｎｇｏｎｇｓｉ,,外国会社等,,,,,,,,Ｘｉｎｇｈｕｏ　Ｒｏａｄ，Ｊｉ’ａｎ　Ｉｎｄｕｓｔｒｉａｌ　Ｐａｒｋ，Ｊｉ’ａｎ　Ｃｏｕｎｔｙ,,,,,,2026-01-23,1,,,,,エセイキンノヤデンシカギユウゲンコウシ,0
2424,6010001261717,新規,0,2026-01-23,2026-01-23,パシフィックコンサルタンツホールディングス株式会社,,株式会社,東京都,千代田区,神田錦町３丁目２２番地,,13,101,1010054,,,,,,,2026-01-23,1,,,,,パシフィックコンサルタンツホールディングス,0
2427,6010005041264,新規,0,2026-01-23,2026-01-23,一般社団法人日本恋愛学協会,,その他の設立登記法人,東京都,中央区,銀座６丁目１３番１６号銀座ＷａｌｌビルＵＣＦ５階,,13,102,1040061,,,,,,,2026-01-23,1,,,,,ニホンレンアイガクキョウカイ,0
2443,6010403037095,新規,0,2026-01-23,2026-01-23,合同会社インターライド,,合同会社,東京都,港区,愛宕１丁目３番２号,,13,103,1050002,,,,,,,2026-01-23,1,,,,,インターライド,0
2444,6010403037112,新規,0,2026-01-23,2026-01-23,カクトーテクノロジー合同会社,,合同会社,東京都,港区,芝浦４丁目２２－１－３６０３,,13,103,1080023,,,,,,,2026-01-23,1,,,,,カクトーテクノロジー,0
2445,6010403037129,新規,0,2026-01-23,2026-01-23,ＪＶＦ２０２６ＧＰ合同会社,,合同会社,東京都,港区,六本木１丁目９番１０号アークヒルズ仙石山森タワー４０階,,13,103,1060032,,,,,,,2026-01-23,1,,,,,ジェーブイエフニーゼロニーロクジーピー,0
2449,6010501055338,新規,0,2026-01-23,2026-01-23,株式会社ＳＭＡＲＴＷＡＬＫ,,株式会社,東京都,台東区,浅草６丁目２６－３,,13,106,1110032,,,,,,,2026-01-23,1,,,,,スマートウォーク,0
2453,6010703008093,新規,0,2026-01-23,2026-01-23,Ｇｒｅｅｎｆｉｅｌｄ合同会社,,合同会社,東京都,品川区,北品川５丁目９番３７号,,13,109,1410001,,,,,,,2026-01-23,1,,,,,グリーンフィールド,0
2454,6010703008102,新規,0,2026-01-23,2026-01-23,ｒｅ．ｆｒａｍｅ合同会社,,合同会社,東京都,品川区,戸越４丁目４番９号,,13,109,1420041,,,,,,,2026-01-23,1,,,,,リフレーム,0
2455,6010703008110,新規,0,2026-01-23,2026-01-23,アベメイク合同会社,,合同会社,東京都,品川区,二葉１丁目１１番５－２０５号,,13,109,1420043,,,,,,,2026-01-23,1,,,,,アベメイク,0
2460,6010903010551,新規,0,2026-01-23,2026-01-23,合同会社ＭＵＲＡＫＡＭＩ　ＧＬＯＢＡＬ　ＰＡＲＴＮＥＲＳ,,合同会社,東京都,世田谷区,岡本３丁目１番１３ー３０４号,,13,112,1570076,,,,,,,2026-01-23,1,,,,,ムラカミグローバルパートナーズ,0
2465,6011001174933,新規,0,2026-01-23,2026-01-23,株式会社Ｒｅｓｏｌｉａ,,株式会社,東京都,渋谷区,恵比寿西２丁目４番８号ウィンド恵比寿ビル８Ｆ,,13,113,1500021,,,,,,,2026-01-23,1,,,,,レソリア,0
2466,6011003023287,新規,0,2026-01-23,2026-01-23,Ｇａｉｎａｄｖｉｓｏｒ合同会社,,合同会社,東京都,目黒区,東山２丁目１３番５－５０７号,,13,110,1530043,,,,,,,2026-01-23,1,,,,,ゲインアドバイザー,0
2470,6011101114500,新規,0,2026-01-23,2026-01-23,株式会社ｃｏｃｏａ,,株式会社,東京都,新宿区,西新宿３丁目３番１３号西新宿水間ビル６階,,13,104,1600023,,,,,,,2026-01-23,1,,,,,ココア,0
2473,6011401027749,新規,0,2026-01-23,2026-01-23,株式会社アプタ,,株式会社,東京都,板橋区,舟渡２丁目１３番１９号,,13,119,1740041,,,,,,,2026-01-23,1,,,,,アプタ,0
2475,6011601029306,新規,0,2026-01-23,2026-01-23,株式会社ＡｃｃｅｌＬｉｎｅ,,株式会社,東京都,練馬区,大泉学園町１丁目２８番２１号,,13,120,1780061,,,,,,,2026-01-23,1,,,,,アクセルライン,0
2518,6012401044049,新規,0,2026-01-23,2026-01-23,株式会社ｗｉｂｓ,,株式会社,東京都,調布市,菊野台２丁目３５－２６菊野台ＫＹハイツ４０６,,13,208,1820007,,,,,,,2026-01-23,1,,,,,ウイブス,0
2549,6020001166790,新規,0,2026-01-23,2026-01-23,株式会社ｍａｃｈｉｇｏｌ,,株式会社,神奈川県,横浜市磯子区,杉田坪呑１３番７号,,14,107,2350034,,,,,,,2026-01-23,1,,,,,マチゴル,0
2554,6020003030160,新規,0,2026-01-23,2026-01-23,合同会社星見社,,合同会社,神奈川県,横浜市神奈川区,金港町五丁目１４番地クアドリフォリオ８階,,14,102,2210056,,,,,,,2026-01-23,1,,,,,ホシミシャ,0
2555,6020003030243,新規,0,2026-01-23,2026-01-23,合同会社キープ,,合同会社,神奈川県,川崎市高津区,上作延２丁目６―２９,,14,134,2130034,,,,,,,2026-01-23,1,,,,,キープ,0
2556,6020005017123,新規,0,2026-01-23,2026-01-23,一般社団法人ＦＵＧＯ,,その他の設立登記法人,神奈川県,横浜市旭区,川島町１９６９－１１,,14,112,2410011,,,,,,,2026-01-23,1,,,,,フーゴ,0
2560,6021001087291,新規,0,2026-01-23,2026-01-23,神奈川マリーンサービス株式会社,,株式会社,神奈川県,大和市,福田７丁目３５番地３,,14,213,2420024,,,,,,,2026-01-23,1,,,,,カナガワマリーンサービス,0
2561,6021001087300,新規,0,2026-01-23,2026-01-23,株式会社Ｒ８,,株式会社,神奈川県,高座郡寒川町,倉見２３６３番地１４,,14,321,2530101,,,,,,,2026-01-23,1,,,,,アールエイト,0
2562,6021001087358,新規,0,2026-01-23,2026-01-23,株式会社スリーＲ,,株式会社,神奈川県,大和市,上和田２８１３番地５,,14,213,2420014,,,,,,,2026-01-23,1,,,,,スリーアール,0
2617,6050003009870,新規,0,2026-01-23,2026-01-23,合同会社グリーンフューエルジャパン,,合同会社,茨城県,水戸市,平須町１８２７番地の１６,,08,201,3100853,,,,,,,2026-01-23,1,,,,,グリーンフューエルジャパン,0
2618,6050003009887,新規,0,2026-01-23,2026-01-23,合同会社宮本ブロック工業,,合同会社,茨城県,土浦市,大岩田１７５６番地１,,08,203,3000835,,,,,,,2026-01-23,1,,,,,ミヤモトブロックコウギョウ,0
2629,6080001027392,新規,0,2026-01-23,2026-01-23,エースワン支援基金株式会社,,株式会社,静岡県,牧之原市,静波３２５８番地１,,22,226,4210422,,,,,,,2026-01-23,1,,,,,エースワンシエンキキン,0
2633,6080105006565,新規,0,2026-01-23,2026-01-23,一般社団法人伊豆半島医療介護活性化協会,,その他の設立登記法人,静岡県,伊東市,広野１丁目３番２６号広野ｍｃビル３Ｆ,,22,208,4140038,,,,,,,2026-01-23,1,,,,,イズハントウイリョウカイゴカッセイカキョウカイ,0
2639,6110001039863,新規,0,2026-01-23,2026-01-23,株式会社ＨＹＯ,,株式会社,新潟県,新潟市北区,長戸呂３５１番地,,15,101,9503353,,,,,,,2026-01-23,1,,,,,ヒョウ,0
2644,6120001283551,新規,0,2026-01-23,2026-01-23,創地住建株式会社,,株式会社,大阪府,大阪市中央区,常盤町１丁目１番９号－７０３号室,,27,128,5400028,,,,,,,2026-01-23,1,,,,,ソウチジュウケン,0
2645,6120001283592,新規,0,2026-01-23,2026-01-23,ＮｅｏＦｌａｍｅ　Ｒｏｂｏｔｉｃｓ株式会社,,株式会社,大阪府,大阪市港区,三先１丁目１２番９－２１５号,,27,107,5520016,,,,,,,2026-01-23,1,,,,,ネオフレームロボティクス,0
2648,6120003031685,新規,0,2026-01-23,2026-01-23,合同会社ＰＬＳＢ,,合同会社,大阪府,大阪市浪速区,元町１丁目２－２２－１０３,,27,111,5560016,,,,,,,2026-01-23,1,,,,,ピーエルエスビー,0
2649,6120003031735,新規,0,2026-01-23,2026-01-23,合同会社セクォーズ,,合同会社,大阪府,大阪市西淀川区,姫島５丁目９番２６号レオパレスＧＩＮＧＡ２０４,,27,113,5550033,,,,,,,2026-01-23,1,,,,,セクォーズ,0
2650,6120003031743,新規,0,2026-01-23,2026-01-23,合同会社ＲＪ‐Ｃｒｏｓｓｌｉｎｋ,,合同会社,大阪府,大阪市阿倍野区,昭和町２丁目３番６号５０１号,,27,119,5450011,,,,,,,2026-01-23,1,,,,,アールジェークロスリンク,0
2668,6140001141377,新規,0,2026-01-23,2026-01-23,株式会社０７,,株式会社,兵庫県,神戸市中央区,下山手通２丁目４番１０号９階,,28,110,6500011,,,,,,,2026-01-23,1,,,,,ゼロナナ,0
2669,6140001141451,新規,0,2026-01-23,2026-01-23,ＡＭＡｐｅｒｆｏｒｍａｎｃｅ株式会社,,株式会社,兵庫県,尼崎市,東大物町１丁目１番９号,,28,202,6600828,,,,,,,2026-01-23,1,,,,,エーエムエーパフォーマンス,0
2677,6160001027376,新規,0,2026-01-23,2026-01-23,株式会社飯田総業,,株式会社,滋賀県,近江八幡市,中村町１０番地３,,25,204,5230894,,,,,,,2026-01-23,1,,,,,イイダソウギョウ,0
2687,6180003029658,新規,0,2026-01-23,2026-01-23,合同会社ライフデッキ,,合同会社,愛知県,名古屋市中川区,八熊通６丁目４９番地の１ファミリアーレ八熊通３０１号,,23,110,4540035,,,,,,,2026-01-23,1,,,,,ライフデッキ,0
2691,6180301040630,新規,0,2026-01-23,2026-01-23,ＪｏＨｏ　Ｌｉｎｋ株式会社,,株式会社,愛知県,知立市,西町新川２６番地４２,,23,225,4720023,,,,,,,2026-01-23,1,,,,,ジョホリンク,0
2692,6200003007207,新規,0,2026-01-23,2026-01-23,ＣＩＴＹＭ合同会社,,合同会社,岐阜県,各務原市,那加芦原町２丁目４７番地６,00142316,21,213,5040007,,,,,,,2026-01-23,1,,,,,シティム,0
2696,6220001027122,新規,0,2026-01-23,2026-01-23,スズキ工業株式会社,,株式会社,石川県,白山市,下柏野町３４３番地２,,17,210,9240038,,,,,,,2026-01-23,1,,,,,スズキコウギョウ,0
2699,6230003002568,新規,0,2026-01-23,2026-01-23,合同会社グマ,,合同会社,富山県,魚津市,木下新１５８番地５,,16,204,9370011,,,,,,,2026-01-23,1,,,,,グマ,0
2822,6290001112925,新規,0,2026-01-23,2026-01-23,株式会社ＭＥトラスト,,株式会社,福岡県,糟屋郡宇美町,大字井野２２１番地１,,40,341,8112104,,,,,,,2026-01-23,1,,,,,エムイートラスト,0
2823,6290001112933,新規,0,2026-01-23,2026-01-23,海鴻電気ＪＡＰＡＮ株式会社,,株式会社,福岡県,福岡市博多区,博多駅前２丁目４番１２タイセイビル５０２号,,40,132,8120011,,,,,,,2026-01-23,1,,,,,ハイホンデンキジャパン,0
2840,6330001033943,新規,0,2026-01-23,2026-01-23,株式会社ＴｒｉＳｔａｒ,,株式会社,熊本県,熊本市中央区,草葉町４－１コアスクエア上乃裏２Ｆ,,43,101,8600843,,,,,,,2026-01-23,1,,,,,トライスター,0
2843,6340001027928,新規,0,2026-01-23,2026-01-23,凱信数基株式会社,,株式会社,鹿児島県,薩摩川内市,サーキュラーパーク１丁目１番地,,46,215,8991926,,,,,,,2026-01-23,1,,,,,ガイシンスウキ,0
2849,6360001036290,新規,0,2026-01-23,2026-01-23,ｉｉＴＯ株式会社,,株式会社,沖縄県,那覇市,久茂地１丁目１番１号９階,,47,201,9000015,,,,,,,2026-01-23,1,,,,,イート,0
2850,6360001036299,新規,0,2026-01-23,2026-01-23,株式会社ｓ２,,株式会社,沖縄県,宮古島市,平良字西里７８８番地２ＮｅｗＷａｖｅ西里３０３,,47,214,9060012,,,,,,,2026-01-23,1,,,,,エスツー,0
2854,6370001053418,新規,0,2026-01-23,2026-01-23,株式会社ＴＳ,,株式会社,宮城県,仙台市青葉区,国分町２丁目１１番１１号,,04,101,9800803,,,,,,,2026-01-23,1,,,,,ティーエス,0
2905,6700150134091,新規,0,2026-01-23,2026-01-23,Ｃｈｅｎｇｄｕｆａｎｈｕａｑｉｙｉｍａｏｙｉｙｏｕｘｉａｎｇｏｎｇｓｉ,,外国会社等,,,,,,,,Ｎｏ．１３２８，１３ｔｈ　Ｆｌｏｏｒ，Ｂｕｉｌｄｉｎｇ　３，Ｎｏ．１６０，Ｒｏｎｇｘｉａｎｇ　Ｒｏａｄ，Ｓａｎｈｅ　Ｓｔｒｅｅｔ，Ｘｉｎｄｕ　Ｄｉｓｔｒｉｃｔ，Ｃｈｅｎｇｄｕ　Ｃｉｔｙ，Ｓｉｃｈｕａｎ　Ｐｒｏｖｉｎｃｅ,,,,,,2026-01-23,1,,,,,セイトハンハケイイボウエキユウゲンコウシ,0
2920,7010001262210,新規,0,2026-01-23,2026-01-23,株式会社カタリンク,,株式会社,東京都,千代田区,一番町６番地相模屋本社ビル７Ｆ,,13,101,1020082,,,,,,,2026-01-23,1,,,,,カタリンク,0
2923,7010003050126,新規,0,2026-01-23,2026-01-23,合同会社ＮＢＩ熱海インベストメント,,合同会社,東京都,千代田区,飯田橋４丁目７番１号結和税理士法人内,,13,101,1020072,,,,,,,2026-01-23,1,,,,,エヌビーアイアタミインベストメント,0
2931,7010401195968,新規,0,2026-01-23,2026-01-23,株式会社Ｓｃｈｏｌｅ　Ｔｅｃｈｎｏｌｏｇｉｅｓ,,株式会社,東京都,港区,南青山３丁目１番３６号青山丸竹ビル６Ｆ,,13,103,1070062,,,,,,,2026-01-23,1,,,,,スコーレテクノロジーズ,0
2932,7010401196033,新規,0,2026-01-23,2026-01-23,株式会社Ａｍｕｓｅ,,株式会社,東京都,港区,南青山３丁目１番３６号青山丸竹ビル６Ｆ,,13,103,1070062,,,,,,,2026-01-23,1,,,,,アミューズ,0
2936,7010403037086,新規,0,2026-01-23,2026-01-23,ル・リヤン合同会社,,合同会社,東京都,港区,北青山３丁目５－１４,,13,103,1070061,,,,,,,2026-01-23,1,,,,,ルリヤン,0
2937,7010403037094,新規,0,2026-01-23,2026-01-23,合同会社ｎＯｕｓ,,合同会社,東京都,港区,浜松町２丁目２番１５号浜松町ダイヤビル２Ｆ,,13,103,1050013,,,,,,,2026-01-23,1,,,,,ヌース,0
2939,7010405025196,新規,0,2026-01-23,2026-01-23,一般社団法人全国あんしん社会保障支援協会,,その他の設立登記法人,東京都,港区,芝浦４丁目１９番１－４４０４号,,13,103,1080023,,,,,,,2026-01-23,1,,,,,ゼンコクアンシンシャカイホショウシエンキョウカイ,0
2954,7011101114722,新規,0,2026-01-23,2026-01-23,株式会社Ｔｒｅｑｏ,,株式会社,東京都,新宿区,西新宿３丁目３番１３号西新宿水間ビル２Ｆ,,13,104,1600023,,,,,,,2026-01-23,1,,,,,トレコ,0
2962,7011401027756,新規,0,2026-01-23,2026-01-23,株式会社ＫｓＦｏｒｃｅ,,株式会社,東京都,板橋区,桜川３丁目２２－９－１１０３,,13,119,1740075,,,,,,,2026-01-23,1,,,,,ケイズフォース,0
2972,7011701029106,新規,0,2026-01-23,2026-01-23,Ｓｕｐｅｒｔｒａｖｅｌ　ＡＩ　Ｔｅｃｈ株式会社,,株式会社,東京都,江戸川区,松島３丁目１４番７－３０５号若林ビル,,13,123,1320031,,,,,,,2026-01-23,1,,,,,スーパートラベルエーアイテック,0
2990,7011801047346,新規,0,2026-01-23,2026-01-23,株式会社ＡＫ工業,,株式会社,東京都,足立区,関原３丁目２１番１０号関原ロイヤルハイツ２０２,,13,121,1230852,,,,,,,2026-01-23,1,,,,,エーケーコウギョウ,0
2991,7011801047354,新規,0,2026-01-23,2026-01-23,株式会社ファンタベイス,,株式会社,東京都,足立区,加平１丁目２０番７号,,13,121,1210055,,,,,,,2026-01-23,1,,,,,ファンタベイス,0
3000,7012403007580,新規,0,2026-01-23,2026-01-23,合同会社ＲＫパートナーズ,,合同会社,東京都,稲城市,平尾２丁目７８番地の５,,13,225,2060823,,,,,,,2026-01-23,1,,,,,アールケーパートナーズ,0
3018,7012801024483,新規,0,2026-01-23,2026-01-23,株式会社ＷＡＫＵ,,株式会社,東京都,日野市,平山６丁目２番地の１５,,13,212,1910043,,,,,,,2026-01-23,1,,,,,ワク,0
3023,7013101009919,新規,0,2026-01-23,2026-01-23,株式会社Ｒｅｐｏｓ,,株式会社,東京都,西多摩郡瑞穂町,大字駒形富士山字原３２４番地１,,13,303,1901202,,,,,,,2026-01-23,1,,,,,ルポ,0
3035,7020001166699,新規,0,2026-01-23,2026-01-23,株式会社Ｎｅｘｔ　Ａｎｃｈｏｒ,,株式会社,神奈川県,横浜市南区,浦舟町４丁目５７,,14,105,2320024,,,,,,,2026-01-23,1,,,,,ネクストアンカー,0
3036,7020001166749,新規,0,2026-01-23,2026-01-23,株式会社ふしぎ,,株式会社,神奈川県,横浜市西区,みなとみらい４丁目９番１－Ｂ９０５号,,14,103,2200012,,,,,,,2026-01-23,1,,,,,フシギ,0
3037,7020001166765,新規,0,2026-01-23,2026-01-23,株式会社あさひメンテナンスサービス,,株式会社,神奈川県,横浜市保土ケ谷区,仏向西２０番３４号セラハイツ平成２０２号,,14,106,2400046,,,,,,,2026-01-23,1,,,,,アサヒメンテナンスサービス,0
3040,7020003030176,新規,0,2026-01-23,2026-01-23,ハヤブサＬＮＤ合同会社,,合同会社,神奈川県,横浜市西区,浅間町１丁目４番３号ウィザードビル４０２号,,14,103,2200072,,,,,,,2026-01-23,1,,,,,ハヤブサランド,0
3041,7020005017122,新規,0,2026-01-23,2026-01-23,医療法人社団有慶会,,その他の設立登記法人,神奈川県,横浜市南区,井土ケ谷中町１５８番地４アクロスキューブ井土ヶ谷３階,,14,105,2320052,,,,,,,2026-01-23,1,,,,,ユウケイカイ,0
3047,7021001087324,新規,0,2026-01-23,2026-01-23,株式会社リティース,,株式会社,神奈川県,相模原市中央区,相模原４丁目９番４号ライオンズマンション相模原第８・７０４,,14,152,2520231,,,,,,,2026-01-23,1,,,,,リティース,0
3051,7021005013524,新規,0,2026-01-23,2026-01-23,一般社団法人東海大相模柔道部育英会,,その他の設立登記法人,神奈川県,相模原市南区,新磯野１丁目１９番３－２０１号,,14,153,2520325,,,,,,,2026-01-23,1,,,,,トウカイダイサガミジュウドウブイクエイカイ,0
3056,7030001170618,新規,0,2026-01-23,2026-01-23,株式会社ＭＭＫ,,株式会社,埼玉県,新座市,西堀１丁目４番２８号,,11,230,3520031,,,,,,,2026-01-23,1,,,,,エムエムケー,0
3063,7040001142186,新規,0,2026-01-23,2026-01-23,コウセイ株式会社,,株式会社,千葉県,成田市,中台４丁目１番地３６,,12,211,2860015,,,,,,,2026-01-23,1,,,,,コウセイ,0
3066,7040005023011,新規,0,2026-01-23,2026-01-23,一般社団法人ＳＳＣ７１５,,その他の設立登記法人,千葉県,市原市,海士有木２８８番地,,12,219,2900207,,,,,,,2026-01-23,1,,,,,エスエスシーナナイチゴ,0
3119,7080003003639,新規,0,2026-01-23,2026-01-23,合同会社ＬＯＵＤＡＳＨ,,合同会社,静岡県,焼津市,小土６０４番地の１,,22,212,4250086,,,,,,,2026-01-23,1,,,,,ラウダッシュ,0
3121,7100003008585,新規,0,2026-01-23,2026-01-23,合同会社７０ＢＡＳＥ,,合同会社,長野県,諏訪郡富士見町,落合４１９５番地１,,20,362,3990214,,,,,,,2026-01-23,1,,,,,ナナマルベース,0
3122,7110001039862,新規,0,2026-01-23,2026-01-23,株式会社ナック,,株式会社,新潟県,長岡市,下山５丁目８７番地７メゾン下山１０１号室,,15,202,9402115,,,,,,,2026-01-23,1,,,,,ナック,0
3136,7120001283617,新規,0,2026-01-23,2026-01-23,株式会社ＳＣ,,株式会社,大阪府,大阪市東住吉区,杭全８丁目１－２２,,27,121,5460002,,,,,,,2026-01-23,1,,,,,エスシー,0
3137,7120001283658,新規,0,2026-01-23,2026-01-23,株式会社ハピネスファルマ,,株式会社,大阪府,大阪市福島区,吉野４丁目２１番１９号,,27,103,5530006,,,,,,,2026-01-23,1,,,,,ハピネスファルマ,0
3138,7120001283666,新規,0,2026-01-23,2026-01-23,株式会社五七堂,,株式会社,大阪府,枚方市,長尾谷町２丁目６９５番地,,27,210,5730164,,,,,,,2026-01-23,1,,,,,ゴシチドウ,0
3139,7120001283699,新規,0,2026-01-23,2026-01-23,株式会社いなほ,,株式会社,大阪府,大阪市福島区,玉川１丁目６番２号,,27,103,5530004,,,,,,,2026-01-23,1,,,,,イナホ,0
3141,7120003031668,新規,0,2026-01-23,2026-01-23,合同会社Ｒｅｐｒｏｇｒａｍ,,合同会社,大阪府,大阪市中央区,東心斎橋１丁目３－２７－６０１号,,27,128,5420083,,,,,,,2026-01-23,1,,,,,リプログラム,0
3142,7120003031734,新規,0,2026-01-23,2026-01-23,ＡＲＣＨＩＶＥ　ＳＴＵＤＩＯ合同会社,,合同会社,大阪府,大阪市淀川区,三国本町２丁目１２番１１－３０２号,,27,123,5320005,,,,,,,2026-01-23,1,,,,,アーカイブスタジオ,0
3143,7120003031750,新規,0,2026-01-23,2026-01-23,合同会社マツモッティ,,合同会社,大阪府,大阪市北区,大淀南２丁目１番１－７０４号,,27,127,5310075,,,,,,,2026-01-23,1,,,,,マツモッティ,0
3147,7120905006833,新規,0,2026-01-23,2026-01-23,一般社団法人イヒレナ,,その他の設立登記法人,大阪府,豊中市,服部本町３丁目７－１８,,27,203,5610852,,,,,,,2026-01-23,1,,,,,イヒレナ,0
3150,7122001040130,新規,0,2026-01-23,2026-01-23,株式会社ダ・ビンチ５,,株式会社,大阪府,東大阪市,下小阪１丁目１５－１９,,27,227,5770803,,,,,,,2026-01-23,1,,,,,ダビンチファイブ,0
3173,7140001141434,新規,0,2026-01-23,2026-01-23,株式会社Ｙ．,,株式会社,兵庫県,神戸市中央区,二宮町１丁目６番５－２０３号,,28,110,6510093,,,,,,,2026-01-23,1,,,,,ワイドット,0
3174,7140001141442,新規,0,2026-01-23,2026-01-23,ＫＩＮＧ＆ＳＯＮＳ株式会社,,株式会社,兵庫県,神戸市西区,神出町小束野字小池５８番２,,28,111,6512304,,,,,,,2026-01-23,1,,,,,キングアンドサンズ,0
3175,7140001141491,新規,0,2026-01-23,2026-01-23,株式会社昭和建設,,株式会社,兵庫県,神戸市兵庫区,新開地６丁目２番２５号,,28,105,6520811,,,,,,,2026-01-23,1,,,,,ショウワケンセツ,0
3177,7140003023110,新規,0,2026-01-23,2026-01-23,合同会社ＭＴクリエイト,,合同会社,兵庫県,尼崎市,大庄北４丁目３番１－２０８号,,28,202,6600063,,,,,,,2026-01-23,1,,,,,エムティークリエイト,0
3178,7140003023119,新規,0,2026-01-23,2026-01-23,たぬき合同会社,,合同会社,兵庫県,川西市,美山台３丁目４－２９,,28,217,6660151,,,,,,,2026-01-23,1,,,,,タヌキ,0
3179,7140003023127,新規,0,2026-01-23,2026-01-23,合同会社ＯＲＴＯＮＡ,,合同会社,兵庫県,神戸市中央区,中山手通１丁目９番７号３階３０１号室,,28,110,6500004,,,,,,,2026-01-23,1,,,,,オルトナ,0
3185,7160001027375,新規,0,2026-01-23,2026-01-23,株式会社Ｂａｒｅｌｙ,,株式会社,滋賀県,大津市,大江２丁目１７番３０号アイビ－ハイツ１０１,,25,201,5202141,,,,,,,2026-01-23,1,,,,,ベアリー,0
3199,7180003029673,新規,0,2026-01-23,2026-01-23,ＴＫ　Ｃｏｎｎｅｃｔ合同会社,,合同会社,愛知県,一宮市,住吉１丁目５番１７－３号,,23,203,4910919,,,,,,,2026-01-23,1,,,,,ティーケイコネクト,0
3206,7220001027138,新規,0,2026-01-23,2026-01-23,株式会社コスメクイーン,,株式会社,石川県,金沢市,疋田３丁目４１番地,,17,201,9200003,,,,,,,2026-01-23,1,,,,,コスメクイーン,0
3209,7230003002567,新規,0,2026-01-23,2026-01-23,合同会社コンクリート,,合同会社,富山県,富山市,根塚町３丁目１－４ＶＴＥＣビル３Ｆ,,16,201,9398204,,,,,,,2026-01-23,1,,,,,コンクリート,0
3213,7240001066084,新規,0,2026-01-23,2026-01-23,株式会社アクトアクトアクト,,株式会社,広島県,東広島市,西条町下見４２７０番地８,,34,212,7390044,,,,,,,2026-01-23,1,,,,,アクトアクトアクト,0
3341,7290001112908,新規,0,2026-01-23,2026-01-23,株式会社スギヤマ,,株式会社,福岡県,筑後市,大字上北島９９８番地３,,40,211,8330033,,,,,,,2026-01-23,1,,,,,スギヤマ,0
3344,7290005019975,新規,0,2026-01-23,2026-01-23,社会保険労務士法人ＦＫコンサル,,その他の設立登記法人,福岡県,福岡市中央区,大宮２丁目６番１１号第１４泰平ビル４Ｆ－４,,40,133,8100013,,,,,,,2026-01-23,1,,,,,エフケーコンサル,0
3366,7330001033942,新規,0,2026-01-23,2026-01-23,株式会社ソルブワン,,株式会社,熊本県,熊本市中央区,横手３丁目２４－２８,,43,101,8600046,,,,,,,2026-01-23,1,,,,,ソルブワン,0
3367,7330001033950,新規,0,2026-01-23,2026-01-23,株式会社ＩＭＥＣ,,株式会社,熊本県,熊本市東区,戸島６丁目３３番２２号,,43,102,8618041,,,,,,,2026-01-23,1,,,,,アイメック,0
3378,7360003015572,新規,0,2026-01-23,2026-01-23,エン合同会社,,合同会社,沖縄県,名護市,字田井等３４５番地翁長アパート１階１０６号室Ｂ,,47,209,9051147,,,,,,,2026-01-23,1,,,,,エン,0
3381,7370001053409,新規,0,2026-01-23,2026-01-23,株式会社Ｕｎｉｖｅｒｓａｌ　Ｏｒｉｅｎｓ,,株式会社,宮城県,仙台市青葉区,荒巻神明町１６番３２号ハウス北仙台１０５,,04,101,9810965,,,,,,,2026-01-23,1,,,,,ユニバーサルオリエンス,0
3382,7370001053417,新規,0,2026-01-23,2026-01-23,株式会社ファミール・イシダ,,株式会社,宮城県,仙台市宮城野区,鉄砲町東３番地の１５,,04,102,9830867,,,,,,,2026-01-23,1,,,,,ファミールイシダ,0
3384,7380001035827,新規,0,2026-01-23,2026-01-23,ＡＫＹコミュニケーション株式会社,,株式会社,福島県,いわき市,小名浜野田字田中１０番地１０,,07,204,9718126,,,,,,,2026-01-23,1,,,,,エーケーワイコミュニケーション,0
3386,7390003002485,新規,0,2026-01-23,2026-01-23,合同会社ＤＡＳＨ,,合同会社,山形県,山形市,旅篭町２丁目２－２６庄司ビル１Ｆ,,06,201,9900047,,,,,,,2026-01-23,1,,,,,ダッシュ,0
3405,7430001096079,新規,0,2026-01-23,2026-01-23,株式会社Ｓｃｉｄｅ　Ｂａｓｅ,,株式会社,北海道,札幌市東区,北四十二条東４丁目１番２６号,,01,103,0070842,,,,,,,2026-01-23,1,,,,,サイドベース,0
3406,7430001096120,新規,0,2026-01-23,2026-01-23,株式会社よしだ商店,,株式会社,北海道,札幌市中央区,南一条西４丁目５番地１Ｂ１Ｆ,,01,101,0600061,,,,,,,2026-01-23,1,,,,,ヨシダショウテン,0
3407,7430001096129,新規,0,2026-01-23,2026-01-23,株式会社Ｗａｖｅ,,株式会社,北海道,札幌市白石区,本郷通１３丁目南１番１３号アピカル南郷１Ｆ,,01,104,0030024,,,,,,,2026-01-23,1,,,,,ウェイブ,0
3422,7500001026747,新規,0,2026-01-23,2026-01-23,株式会社ＪＰＳ,,株式会社,愛媛県,東温市,吉久６４３番地２３,,38,215,7910302,,,,,,,2026-01-23,1,,,,,ジェイピーエス,0
3424,7700150134090,新規,0,2026-01-23,2026-01-23,Ｓｈｅｎｚｈｅｎ　Ａｏｗｅｉ　Ｗａｎｘｉｎ　Ｅ－ｃｏｍｍｅｒｃｅ　Ｃｏ．，Ｌｔｄ,,外国会社等,,,,,,,,ｌｏｎｇｇａｎｇｑｕｂａｎｔｉａｎｊｉｅｄａｏｙａｎｇｍｅｉｓｈｅｑｕｙａｎｇｍａｘｉｎｃｕｎ９ｘｉａｎｇ３ｈａｏ１０１　ｓｈｅｎｚｈｅｎ,,,,,,2026-01-23,1,,,,,シンセンシオクイマンシンデンシショウムユウゲンコウシ,0
3433,8010001261698,新規,0,2026-01-23,2026-01-23,株式会社イノセンシア,,株式会社,東京都,千代田区,外神田５丁目１番１０号６階,,13,101,1010021,,,,,,,2026-01-23,1,,,,,イノセシア,0
3434,8010001262102,新規,0,2026-01-23,2026-01-23,株式会社Ｅｅｅ建設,,株式会社,東京都,中央区,湊２丁目１１番１－９２２号,,13,102,1040043,,,,,,,2026-01-23,1,,,,,イーケンセツ,0
3438,8010103002744,新規,0,2026-01-23,2026-01-23,合同会社ｚｅｒｏ,,合同会社,東京都,八王子市,散田町２丁目５５番１４号,,13,201,1930832,,,,,,,2026-01-23,1,,,,,ゼロ,0
3446,8010401196040,新規,0,2026-01-23,2026-01-23,株式会社ＡＲＣＡＬＩＳホールディングス,,株式会社,東京都,港区,愛宕２丁目５番１号愛宕グリーンヒルズＭＯＲＩタワー３６階,,13,103,1050002,,,,,,,2026-01-23,1,,,,,アルカリスホールディングス,0
3453,8010403037127,新規,0,2026-01-23,2026-01-23,豪州中小企業ローン投資２合同会社,,合同会社,東京都,港区,六本木１丁目９番１０号アークヒルズ仙石山森タワー４０階,,13,103,1060032,,,,,,,2026-01-23,1,,,,,ゴウシュウチュウショウキギョウローントウシツー,0
3454,8010501055344,新規,0,2026-01-23,2026-01-23,Ｉｒｏｈａ　Ａｔｅｌｉｅｒ株式会社,,株式会社,東京都,台東区,根岸２丁目７番７号,,13,106,1100003,,,,,,,2026-01-23,1,,,,,イロハアトリエ,0
3461,8010603012037,新規,0,2026-01-23,2026-01-23,合同会社ＩＴＳ,,合同会社,東京都,墨田区,江東橋５丁目２番２０－５０１号,,13,107,1300022,,,,,,,2026-01-23,1,,,,,アイティエス,0
3467,8010703008100,新規,0,2026-01-23,2026-01-23,合同会社香莉会,,合同会社,東京都,品川区,北品川５丁目３番１－１８１２号,,13,109,1410001,,,,,,,2026-01-23,1,,,,,,0
3475,8011001175046,新規,0,2026-01-23,2026-01-23,株式会社Ｆｏｏｄ　Ｈｏｒｉｚｏｎ,,株式会社,東京都,目黒区,中央町２丁目１０番５号,,13,110,1520001,,,,,,,2026-01-23,1,,,,,フードホライズン,0
3485,8011203004936,新規,0,2026-01-23,2026-01-23,ディス・イズ・ミー合同会社,,合同会社,東京都,中野区,若宮２丁目２６番１９号,,13,114,1650033,,,,,,,2026-01-23,1,,,,,ディスイズミー,0
3487,8011301031221,新規,0,2026-01-23,2026-01-23,株式会社サニーコート,,株式会社,東京都,杉並区,堀ノ内３丁目２２番１３号,,13,115,1660013,,,,,,,2026-01-23,1,,,,,サニーコート,0
3489,8011501033034,新規,0,2026-01-23,2026-01-23,クロスビート・コンサルティング株式会社,,株式会社,東京都,北区,赤羽１丁目７－９,,13,117,1150045,,,,,,,2026-01-23,1,,,,,クロスビートコンサルティング,0
3506,8011801047353,新規,0,2026-01-23,2026-01-23,株式会社横田商店,,株式会社,東京都,足立区,千住東２丁目６番１３号,,13,121,1200025,,,,,,,2026-01-23,1,,,,,ヨコタショウテン,0
3514,8012401044055,新規,0,2026-01-23,2026-01-23,株式会社Ｍｔｏｎｅ,,株式会社,東京都,府中市,府中町１丁目７番地の２さくら食品館５Ｆ,,13,206,1830055,,,,,,,2026-01-23,1,,,,,エムティワン,0
3532,8013101009918,新規,0,2026-01-23,2026-01-23,エンデバー株式会社,,株式会社,東京都,青梅市,住江町９０番地の１塚本コーポ１０２,,13,205,1980084,,,,,,,2026-01-23,1,,,,,エンデバー,0
3536,8013303008065,新規,0,2026-01-23,2026-01-23,ｏｆｆｉｃｅ　Ｋ合同会社,,合同会社,東京都,豊島区,高田１丁目３８番１２－１１３号,,13,116,1710033,,,,,,,2026-01-23,1,,,,,オフィスケイ,0
3539,8020001166756,新規,0,2026-01-23,2026-01-23,株式会社イチイ地球,,株式会社,神奈川県,横浜市青葉区,梅が丘１６番１９,,14,117,2270052,,,,,,,2026-01-23,1,,,,,イチイチキュウ,0
3541,8020003030159,新規,0,2026-01-23,2026-01-23,合同会社Ｍ’ｓキャピタル,,合同会社,神奈川県,川崎市中原区,井田三舞町１０－４１－１０５,,14,133,2110037,,,,,,,2026-01-23,1,,,,,エムズキャピタル,0
3542,8020003030209,新規,0,2026-01-23,2026-01-23,合同会社ｐｌａｃｅ,,合同会社,神奈川県,川崎市宮前区,鷺沼１丁目１１番地６鷺沼第一ビル１－２号室,,14,136,2160004,,,,,,,2026-01-23,1,,,,,プレイス,0
3553,8030001170690,新規,0,2026-01-23,2026-01-23,アルファ・ジャパン・パートナーズ株式会社,,株式会社,埼玉県,坂戸市,大字栄３２３番地１,,11,239,3500213,,,,,,,2026-01-23,1,,,,,アルファジャパンパートナーズ,0
3554,8030001170716,新規,0,2026-01-23,2026-01-23,ＳＲ　ＪＡＰＡＮ　ＭＯＴＯＲＳ株式会社,,株式会社,埼玉県,川口市,大字神戸６７２番地の１－Ｃ－８０８,,11,203,3330832,,,,,,,2026-01-23,1,,,,,エスアールジャパンモーターズ,0
3559,8030003028441,新規,0,2026-01-23,2026-01-23,ＰＵＣＨＩＧＲＯ合同会社,,合同会社,埼玉県,三郷市,早稲田４丁目５―１７０５号,,11,237,3410018,,,,,,,2026-01-23,1,,,,,プチグロ,0
3565,8040001142004,新規,0,2026-01-23,2026-01-23,高嶺商事株式会社,,株式会社,千葉県,柏市,柏７４４番地１２,,12,217,2770005,,,,,,,2026-01-23,1,,,,,タカミネショウジ,0
3566,8040001142185,新規,0,2026-01-23,2026-01-23,株式会社Ｓｈｉｆｔ　ｏｎｅ,,株式会社,千葉県,松戸市,松戸１３４３番地の３グランマノワール４０５号,,12,207,2710092,,,,,,,2026-01-23,1,,,,,シフトワン,0
3567,8040001142193,新規,0,2026-01-23,2026-01-23,株式会社Ｍ＆Ｓパートナーズ,,株式会社,千葉県,木更津市,本郷３丁目５番４５号木更津ロフト１０１号室,,12,206,2920015,,,,,,,2026-01-23,1,,,,,,0
3617,8060003005933,新規,0,2026-01-23,2026-01-23,合同会社ＴＳＵＮＡＧＵ,,合同会社,栃木県,鹿沼市,東町３丁目３番７号,,09,205,3220022,,,,,,,2026-01-23,1,,,,,ツナグ,0
3621,8070001043760,新規,0,2026-01-23,2026-01-23,株式会社ＥＩＴＯ建設,,株式会社,群馬県,太田市,本町４５番９号,,10,205,3730057,,,,,,,2026-01-23,1,,,,,エイトケンセツ,0
3624,8080003003638,新規,0,2026-01-23,2026-01-23,合同会社ＣＥＮＴＲＯＴＵＳ,,合同会社,静岡県,静岡市駿河区,谷田３１番２８号,,22,102,4228002,,,,,,,2026-01-23,1,,,,,セントロータス,0
3628,8090003002969,新規,0,2026-01-23,2026-01-23,Ｎｏａｈコンサル合同会社,,合同会社,山梨県,中巨摩郡昭和町,西条１８８４番地１８エルスールＷ４２号,,19,384,4093866,,,,,,,2026-01-23,1,,,,,ノアコンサル,0
3630,8100003008584,新規,0,2026-01-23,2026-01-23,合同会社ノビレッジパワー,,合同会社,長野県,上田市,上田原７９２番地９,,20,203,3861102,,,,,,,2026-01-23,1,,,,,ノビレッジパワー,0
3632,8110001039861,新規,0,2026-01-23,2026-01-23,株式会社グロース,,株式会社,新潟県,新潟市江南区,江口２１２８番地５,,15,104,9500101,,,,,,,2026-01-23,1,,,,,グロース,0
3642,8120001283616,新規,0,2026-01-23,2026-01-23,株式会社Ｆｌｏｕｒｉｓｈ,,株式会社,大阪府,大阪市平野区,西脇１丁目１１番３号,,27,126,5470035,,,,,,,2026-01-23,1,,,,,フローリッシュ,0
3643,8120001283657,新規,0,2026-01-23,2026-01-23,株式会社グロリアエンジニアリング,,株式会社,大阪府,大阪市北区,梅田１丁目１２番１２号東京建物梅田ビル１２階,,27,127,5300001,,,,,,,2026-01-23,1,,,,,グロリアエンジニアリング,0
3645,8120101073116,新規,0,2026-01-23,2026-01-23,株式会社ＬＡＰＥ,,株式会社,大阪府,堺市中区,深井沢町３３９１番地２カサ・ディ・ソル６０１号,,27,142,5998236,,,,,,,2026-01-23,1,,,,,ラペ,0
3653,8122001040113,新規,0,2026-01-23,2026-01-23,株式会社Ｔｒａｖｅｌ　Ｗｉｔｈ,,株式会社,大阪府,東大阪市,長堂１丁目２番１６号東大阪新光ビル２０２,,27,227,5770056,,,,,,,2026-01-23,1,,,,,トラベルウィズ,0
3670,8140001141433,新規,0,2026-01-23,2026-01-23,ＮｅｘＭｅｓｈ株式会社,,株式会社,兵庫県,神戸市中央区,磯辺通２丁目２－１０ｏｎｅｋｎｏｔｔｒａｄｅｓ神戸ビル１００６号室,,28,110,6510084,,,,,,,2026-01-23,1,,,,,ネクスメッシュ,0
3671,8140001141482,新規,0,2026-01-23,2026-01-23,ＴＯＣＣ芦屋株式会社,,株式会社,兵庫県,芦屋市,業平町２－１４－６０２,,28,206,6590068,,,,,,,2026-01-23,1,,,,,トックアシヤ,0
3672,8140001141499,新規,0,2026-01-23,2026-01-23,株式会社仁馬,,株式会社,兵庫県,宝塚市,大原野字下林１４,,28,214,6691211,,,,,,,2026-01-23,1,,,,,ジンバ,0
3674,8150005009758,新規,0,2026-01-23,2026-01-23,農事組合法人福住地域営農組合,,その他の設立登記法人,奈良県,天理市,福住町２１０５番地,,29,204,6320122,,,,,,,2026-01-23,1,,,,,フクスミチイキエイノウクミアイ,0
3676,8160001027374,新規,0,2026-01-23,2026-01-23,株式会社真家,,株式会社,滋賀県,大津市,山上町２番１１号（１０１号）,,25,201,5200038,,,,,,,2026-01-23,1,,,,,シンヤ,0
3677,8160003003712,新規,0,2026-01-23,2026-01-23,合同会社Ｌｉｆｅ‐ｗｉｔｈ　Ｗｏｒｋｓ,,合同会社,滋賀県,草津市,草津１丁目７番９－２０１号シャーメゾングランヴィア１０,,25,206,5250034,,,,,,,2026-01-23,1,,,,,ライフウィズワークス,0
3688,8180003029672,新規,0,2026-01-23,2026-01-23,合同会社のの屋,,合同会社,愛知県,名古屋市中村区,名駅４丁目２４番５号第２森ビル４０１,,23,105,4500002,,,,,,,2026-01-23,1,,,,,ノノヤ,0
3697,8200001044646,新規,0,2026-01-23,2026-01-23,吉田漢方草本株式会社,,株式会社,岐阜県,羽島市,福寿町浅平３丁目９番地,,21,209,5016255,,,,,,,2026-01-23,1,,,,,ヨシダカンポウソウホン,0
3702,8220003004209,新規,0,2026-01-23,2026-01-23,合同会社七海Ｔ＆Ｍ,,合同会社,石川県,かほく市,森カ１１番地４,,17,209,9291123,,,,,,,2026-01-23,1,,,,,ナナミティーアンドエム,0
3709,8240001066067,新規,0,2026-01-23,2026-01-23,株式会社ニシキンホールディングス,,株式会社,広島県,広島市安佐北区,小河原町１０４番地の１,,34,106,7391754,,,,,,,2026-01-23,1,,,,,ニシキンホールディングス,0
3710,8240001066083,新規,0,2026-01-23,2026-01-23,株式会社ＨＩＦ‐Ｊ,,株式会社,広島県,広島市中区,中町７番１６号ポレスター広島２階,,34,101,7300037,,,,,,,2026-01-23,1,,,,,エイチアイエフジェイ,0
3713,8240003007564,新規,0,2026-01-23,2026-01-23,合同会社メグミアセット,,合同会社,広島県,広島市南区,皆実町１丁目４番８－１５０６号,,34,103,7340007,,,,,,,2026-01-23,1,,,,,メグミアセット,0
3728,8250001021509,新規,0,2026-01-23,2026-01-23,株式会社陽風,,株式会社,山口県,下松市,桃山町１４２番地,,35,207,7440052,,,,,,,2026-01-23,1,,,,,ヨウフウ,0
3829,8270003001837,新規,0,2026-01-23,2026-01-23,合同会社フィールド,,合同会社,鳥取県,八頭郡八頭町,井古８２,,31,329,6800425,,,,,,,2026-01-23,1,,,,,フィールド,0
3845,8290003017963,新規,0,2026-01-23,2026-01-23,合同会社エーデルワイス,,合同会社,福岡県,福岡市博多区,那珂５丁目３番５０号ステラ３０８号室,,40,132,8120893,,,,,,,2026-01-23,1,,,,,エーデルワイス,0
3848,8290803005259,新規,0,2026-01-23,2026-01-23,合同会社もちつもたれつ,,合同会社,福岡県,北九州市八幡東区,清田２丁目２番５号,,40,108,8050034,,,,,,,2026-01-23,1,,,,,モチツモタレツ,0
3874,8360001036297,新規,0,2026-01-23,2026-01-23,株式会社ＳｅａｒｃｈＭａｎｉａ,,株式会社,沖縄県,那覇市,首里石嶺町２丁目２４８番地,,47,201,9030804,,,,,,,2026-01-23,1,,,,,サーチマニア,0
3894,8430001096103,新規,0,2026-01-23,2026-01-23,株式会社信基,,株式会社,北海道,磯谷郡蘭越町,字清水３８番地５,,01,394,0481264,,,,,,,2026-01-23,1,,,,,シンキ,0
3895,8430003018534,新規,0,2026-01-23,2026-01-23,合同会社クラフトマンシップ・Ｎ,,合同会社,北海道,岩見沢市,六条西３丁目３番地２３,,01,210,0680026,,,,,,,2026-01-23,1,,,,,クラフトマンシップエヌ,0
3907,8480003002376,新規,0,2026-01-23,2026-01-23,合同会社ＯＮＥ　ＰＬＵＳ,,合同会社,徳島県,阿波市,阿波町松川内１１７番地,,36,206,7711705,,,,,,,2026-01-23,1,,,,,ワンプラス,0
3908,8500001026746,新規,0,2026-01-23,2026-01-23,株式会社みやうち,,株式会社,愛媛県,松山市,中央１丁目１４－８,,38,201,7918015,,,,,,,2026-01-23,1,,,,,ミヤウチ,0
3919,9010001261730,新規,0,2026-01-23,2026-01-23,ＣＯＡＳＴＡＬ株式会社,,株式会社,東京都,中央区,日本橋室町１丁目１１番１２号日本橋水野ビル７階,,13,102,1030022,,,,,,,2026-01-23,1,,,,,コースタル,0
3920,9010001261978,新規,0,2026-01-23,2026-01-23,ハヤテ１０３株式会社,,株式会社,東京都,中央区,日本橋兜町６番５号,,13,102,1030026,,,,,,,2026-01-23,1,,,,,ハヤテイチゼロサン,0
3926,9010003050041,新規,0,2026-01-23,2026-01-23,合同会社ＹＡＣ,,合同会社,東京都,文京区,大塚４丁目３６番１号,,13,105,1120012,,,,,,,2026-01-23,1,,,,,ワイエーシー,0
3939,9010401195826,新規,0,2026-01-23,2026-01-23,株式会社ＳＵＡ,,株式会社,東京都,港区,新橋６丁目１１－１３プライム新橋タワー１１０２号室,,13,103,1050004,,,,,,,2026-01-23,1,,,,,スア,0
3940,9010401195917,新規,0,2026-01-23,2026-01-23,株式会社ＮａｎｏＴｉｔａｎ,,株式会社,東京都,港区,六本木６丁目３番１号,,13,103,1060032,,,,,,,2026-01-23,1,,,,,ナノタイタン,0
3946,9010403037092,新規,0,2026-01-23,2026-01-23,合同会社ａｄｎｉｌ,,合同会社,東京都,港区,芝公園３丁目５番１５－６１１号,,13,103,1050011,,,,,,,2026-01-23,1,,,,,アドニル,0
3949,9010501055343,新規,0,2026-01-23,2026-01-23,海聯株式会社,,株式会社,東京都,台東区,上野６丁目７－１６川久保ビル４１１号室,,13,106,1100005,,,,,,,2026-01-23,1,,,,,カイレン,0
3952,9010601068609,新規,0,2026-01-23,2026-01-23,株式会社アプロスト,,株式会社,東京都,江東区,白河３丁目９番１６号,,13,108,1350021,,,,,,,2026-01-23,1,,,,,アプロスト,0
3960,9011001175202,新規,0,2026-01-23,2026-01-23,株式会社Ｍａｓｔｅｒｐｌａｎ,,株式会社,東京都,渋谷区,広尾１丁目２番地１号,,13,113,1500012,,,,,,,2026-01-23,1,,,,,マスタープラン,0
3965,9011103016907,新規,0,2026-01-23,2026-01-23,アイラカイ合同会社,,合同会社,東京都,新宿区,西新宿３丁目３番１３号西新宿水間ビル２Ｆ,,13,104,1600023,,,,,,,2026-01-23,1,,,,,アイラカイ,0
3966,9011103016915,新規,0,2026-01-23,2026-01-23,合同会社Ｍａｌａｍａ,,合同会社,東京都,新宿区,四谷１丁目１４番地２,,13,104,1600004,,,,,,,2026-01-23,1,,,,,マラマ,0
3967,9011103016989,新規,0,2026-01-23,2026-01-23,合同会社ＳＤＳ,,合同会社,東京都,新宿区,西新宿３丁目３番１３号西新宿水間ビル６階,,13,104,1600023,,,,,,,2026-01-23,1,,,,,エスディエス,0
3968,9011201026915,新規,0,2026-01-23,2026-01-23,ＬＯＣＯ株式会社,,株式会社,東京都,中野区,大和町３丁目４１番９号,,13,114,1650034,,,,,,,2026-01-23,1,,,,,ロコ,0
3976,9011701029112,新規,0,2026-01-23,2026-01-23,株式会社Ｂｌｏｏｍ　ｈｏｍｅ,,株式会社,東京都,江戸川区,小松川３丁目１２番２号,,13,123,1320034,,,,,,,2026-01-23,1,,,,,ブルームホーム,0
4010,9012401044054,新規,0,2026-01-23,2026-01-23,株式会社三鷹ＡＩ研究所,,株式会社,東京都,三鷹市,下連雀４丁目１番１１－３０２号,,13,204,1810013,,,,,,,2026-01-23,1,,,,,ミタカエーアイケンキュウジョ,0
4017,9012703003451,新規,0,2026-01-23,2026-01-23,合同会社Ｂｏｕ,,合同会社,東京都,西東京市,住吉町４丁目９番４号光コーポ３０２,,13,229,2020005,,,,,,,2026-01-23,1,,,,,ボウ,0
4049,9020003030174,新規,0,2026-01-23,2026-01-23,合同会社Ｍｉｒｅｙｅｓ,,合同会社,神奈川県,横浜市西区,高島２丁目１１番２号スカイメナー横浜５１９,,14,103,2200011,,,,,,,2026-01-23,1,,,,,ミライズ,0
4050,9020003030182,新規,0,2026-01-23,2026-01-23,ＴＬＣＭ　Ｅａｓｔ　Ｈｏｌｄｉｎｇｓ合同会社,,合同会社,神奈川県,横浜市西区,みなとみらい３丁目７番２号３０５号,,14,103,2200012,,,,,,,2026-01-23,1,,,,,ティーエルシーエムイーストホールディングス,0
4051,9020003030216,新規,0,2026-01-23,2026-01-23,合同会社音楽出版ハピーエコー,,合同会社,神奈川県,横浜市旭区,柏町１２番地の２,,14,112,2410835,,,,,,,2026-01-23,1,,,,,オンガクシュッパンハピーエコー,0
4056,9021001087306,新規,0,2026-01-23,2026-01-23,株式会社Ｏｒｃｕｓ,,株式会社,神奈川県,藤沢市,片瀬海岸３丁目１４番１０号,,14,205,2510035,,,,,,,2026-01-23,1,,,,,オルクス,0
4057,9021001087314,新規,0,2026-01-23,2026-01-23,株式会社ＤＭＰ,,株式会社,神奈川県,相模原市中央区,光が丘２丁目１番６号,,14,152,2520227,,,,,,,2026-01-23,1,,,,,ディーエムピー,0
4058,9021001087330,新規,0,2026-01-23,2026-01-23,株式会社建真,,株式会社,神奈川県,相模原市南区,新磯野４丁目５番１－２０７号,,14,153,2520325,,,,,,,2026-01-23,1,,,,,ケンシン,0
4059,9021001087339,新規,0,2026-01-23,2026-01-23,株式会社ｎｉｚｉｃａ,,株式会社,神奈川県,鎌倉市,上町屋８１５番地６,,14,204,2470065,,,,,,,2026-01-23,1,,,,,ニジカ,0
4061,9021003017038,新規,0,2026-01-23,2026-01-23,アクトアセットコンサルティング合同会社,,合同会社,神奈川県,茅ヶ崎市,柳島海岸６番４―１６号,,14,207,2530063,,,,,,,2026-01-23,1,,,,,アクトアセットコンサルティング,0
4070,9030001170681,新規,0,2026-01-23,2026-01-23,株式会社マル大,,株式会社,埼玉県,戸田市,笹目５丁目２－２２,,11,224,3350034,,,,,,,2026-01-23,1,,,,,マルダイ,0
4071,9030001170698,新規,0,2026-01-23,2026-01-23,ＭＳ株式会社,,株式会社,埼玉県,戸田市,川岸１丁目３番３０号,,11,224,3350015,,,,,,,2026-01-23,1,,,,,エムエス,0
4079,9040001142176,新規,0,2026-01-23,2026-01-23,株式会社Ｒ‐ｃｒａｆｔ,,株式会社,千葉県,柏市,逆井字古宿３３２番１,,12,217,2770042,,,,,,,2026-01-23,1,,,,,アールクラフト,0
4136,9080401028401,新規,0,2026-01-23,2026-01-23,株式会社Ｇ．Ｆ．Ｉ,,株式会社,静岡県,浜松市中央区,高林１丁目１番２９号,,22,138,4300907,,,,,,,2026-01-23,1,,,,,ジーエフアイ,0
4137,9080403005431,新規,0,2026-01-23,2026-01-23,合同会社ＡＸＩＳ,,合同会社,静岡県,浜松市中央区,高丘東２丁目２０番７―２０８号ツインタワーズ浜松,,22,138,4338117,,,,,,,2026-01-23,1,,,,,アクシス,0
4146,9110005017318,新規,0,2026-01-23,2026-01-23,一般社団法人絆,,その他の設立登記法人,新潟県,新潟市中央区,堀之内南１丁目３２番４号,,15,103,9500982,,,,,,,2026-01-23,1,,,,,キズナ,0
4158,9120001283202,新規,0,2026-01-23,2026-01-23,株式会社ＡＫ　ｃｏｍｐａｎｙ,,株式会社,大阪府,大阪市中央区,南久宝寺町３丁目２－１１,,27,128,5410058,,,,,,,2026-01-23,1,,,,,エーケーカンパニー,0
4159,9120001283615,新規,0,2026-01-23,2026-01-23,株式会社ルミライフ,,株式会社,大阪府,大阪市北区,兎我野町１１－１９本社浪速ビル３０２,,27,127,5300056,,,,,,,2026-01-23,1,,,,,ルミライフ,0
4160,9120001283623,新規,0,2026-01-23,2026-01-23,株式会社はちひこＯＮＥ,,株式会社,大阪府,大阪市西成区,橘３丁目４番３号,,27,122,5570051,,,,,,,2026-01-23,1,,,,,ハチヒコワン,0
4161,9120001283631,新規,0,2026-01-23,2026-01-23,株式会社ワレワレハツリビトダ,,株式会社,大阪府,大阪市北区,梅田１丁目２番２号大阪駅前第２ビル１２－１２,,27,127,5300001,,,,,,,2026-01-23,1,,,,,ワレワレハツリビトダ,0
4163,9120003031757,新規,0,2026-01-23,2026-01-23,合同会社ＲＯＯＴＳ,,合同会社,大阪府,大阪市東淀川区,西淡路３丁目５番８－１００８号,,27,114,5330031,,,,,,,2026-01-23,1,,,,,ルーツ,0
4164,9120005025344,新規,0,2026-01-23,2026-01-23,一般社団法人日本薬局メディエーター研究会,,その他の設立登記法人,大阪府,大阪市中央区,内久宝寺町２丁目２番２２－２１０６号,,27,128,5400013,,,,,,,2026-01-23,1,,,,,ニッポンヤッキョクメディエーターケンキュウカイ,0
4168,9120101073115,新規,0,2026-01-23,2026-01-23,フードセーフティグローバルジャパン株式会社,,株式会社,大阪府,泉佐野市,中庄１７２１番地の３５,,27,213,5980002,,,,,,,2026-01-23,1,,,,,フードセーフティグローバルジャパン,0
4174,9130001081464,新規,0,2026-01-23,2026-01-23,株式会社力,,株式会社,京都府,京都市中京区,蛸薬師通河原町東入備前島町３０９番地６,,26,104,6048023,,,,,,,2026-01-23,1,,,,,チカラ,0
4179,9140001141440,新規,0,2026-01-23,2026-01-23,株式会社アトラホーム,,株式会社,兵庫県,芦屋市,涼風町２７番５号,,28,206,6590036,,,,,,,2026-01-23,1,,,,,アトラホーム,0
4180,9140001141473,新規,0,2026-01-23,2026-01-23,株式会社ＦＩＮＦＯＲＴ,,株式会社,兵庫県,宝塚市,仁川台２０１－２,,28,214,6650074,,,,,,,2026-01-23,1,,,,,フィンフォート,0
4182,9140003023109,新規,0,2026-01-23,2026-01-23,白鷹アグリ合同会社,,合同会社,兵庫県,三木市,吉川町市野瀬６８４番地の６,,28,215,6731235,,,,,,,2026-01-23,1,,,,,ハクタカアグリ,0
4183,9140005027776,新規,0,2026-01-23,2026-01-23,医療法人社団やまね小児科,,その他の設立登記法人,兵庫県,神戸市北区,藤原台中町１丁目２－１北神中央ビル３階,,28,109,6511302,,,,,,,2026-01-23,1,,,,,ヤマネショウニカ,0
4187,9160003003694,新規,0,2026-01-23,2026-01-23,合同会社ホシラボ,,合同会社,滋賀県,大津市,苗鹿２丁目３１－２８,,25,201,5200102,,,,,,,2026-01-23,1,,,,,ホシラボ,0
4190,9170003002349,新規,0,2026-01-23,2026-01-23,合同会社和歌山クリーンサービス,,合同会社,和歌山県,東牟婁郡那智勝浦町,大字築地２丁目１－１０,,30,421,6495335,,,,,,,2026-01-23,1,,,,,ワカヤマクリーンサービス,0
4208,9200003007204,新規,0,2026-01-23,2026-01-23,合同会社みらいのたねガーデン,,合同会社,岐阜県,羽島郡岐南町,平成３丁目５１番地の４,,21,302,5016013,,,,,,,2026-01-23,1,,,,,ミライノタネガーデン,0
4209,9210001020471,新規,0,2026-01-23,2026-01-23,株式会社若竹産業グループ,,株式会社,福井県,福井市,東森田３丁目１６０３番地,,18,201,9100138,,,,,,,2026-01-23,1,,,,,ワカタケサンギョウグループ,0
4210,9220001027136,新規,0,2026-01-23,2026-01-23,株式会社ＨＬコミュニケーションズ,,株式会社,石川県,河北郡内灘町,字向陽台１丁目２３８番地２,,17,365,9200272,,,,,,,2026-01-23,1,,,,,エイチエルコミュニケーションズ,0
4211,9230001021253,新規,0,2026-01-23,2026-01-23,株式会社輝子,,株式会社,富山県,中新川郡立山町,前沢１２０９番地１８,,16,323,9300221,,,,,,,2026-01-23,1,,,,,コウシ,0
4330,9270003001836,新規,0,2026-01-23,2026-01-23,合同会社ういわーぱす,,合同会社,鳥取県,米子市,上福原１３７８－６,,31,202,6830004,,,,,,,2026-01-23,1,,,,,ウイワーパス,0
4335,9290003017962,新規,0,2026-01-23,2026-01-23,合同会社舘会計,,合同会社,福岡県,福岡市中央区,六本松４丁目４番８号－５０４号,,40,133,8100044,,,,,,,2026-01-23,1,,,,,タチカイケイ,0
4358,9340001027925,新規,0,2026-01-23,2026-01-23,テイクフォワード株式会社,,株式会社,鹿児島県,鹿児島市,明和３丁目１５番２号,,46,201,8900024,,,,,,,2026-01-23,1,,,,,テイクフォワード,0
4359,9340005009936,新規,0,2026-01-23,2026-01-23,弁護士法人谷山中央法律事務所,,その他の設立登記法人,鹿児島県,鹿児島市,谷山中央２丁目４１１９－２４ビアンカ谷山２階,,46,201,8910141,,,,,,,2026-01-23,1,,,,,タニヤマチュウオウホウリツジムショ,0
4363,9360001036288,新規,0,2026-01-23,2026-01-23,株式会社ｔａｋｅ　ａｃｔｉｏｎ　ｖａｌｕｅ,,株式会社,沖縄県,那覇市,銘苅２丁目２番１８号トゥエルヴガーデンアイム６０２,,47,201,9000004,,,,,,,2026-01-23,1,,,,,テイクアクションバリュー,0
4364,9360003015579,新規,0,2026-01-23,2026-01-23,合同会社ＵＧＯＫＵ庭,,合同会社,沖縄県,沖縄市,海邦２丁目２４番２１号,,47,211,9042162,,,,,,,2026-01-23,1,,,,,ウゴクニワ,0
4366,9370005011063,新規,0,2026-01-23,2026-01-23,一般社団法人Ｌｙｃｋａ,,その他の設立登記法人,宮城県,仙台市太白区,山田本町１２番４８号,,04,104,9820816,,,,,,,2026-01-23,1,,,,,リッカ,0
4377,9400003003595,新規,0,2026-01-23,2026-01-23,合同会社シン・コーポレーション,,合同会社,岩手県,紫波郡紫波町,中島字前郷６番地５０,,03,321,0283301,,,,,,,2026-01-23,1,,,,,シンコーポレーション,0
4384,9430001096102,新規,0,2026-01-23,2026-01-23,株式会社Ｉｒｅｎｋａ,,株式会社,北海道,札幌市東区,北二十五条東１６丁目４番３－４Ｃ,,01,103,0650025,,,,,,,2026-01-23,1,,,,,イレンカ,0
4385,9430001096119,新規,0,2026-01-23,2026-01-23,株式会社Ｈ・Ｋ,,株式会社,北海道,札幌市東区,北二十六条東５丁目３番１－３０３号,,01,103,0650026,,,,,,,2026-01-23,1,,,,,エイチケー,0
4386,9430001096127,新規,0,2026-01-23,2026-01-23,エルエスエス株式会社,,株式会社,北海道,小樽市,桜２丁目２４番６号,,01,203,0470156,,,,,,,2026-01-23,1,,,,,エルエスエス,0
4396,9500001026745,新規,0,2026-01-23,2026-01-23,株式会社Ｓｏｌｅｓｔ,,株式会社,愛媛県,松山市,三番町４丁目４番地２,,38,201,7900003,,,,,,,2026-01-23,1,,,,,ソレスト,0
4399,9500005008847,新規,0,2026-01-23,2026-01-23,一般社団法人久万高原配車予約センター,,その他の設立登記法人,愛媛県,上浮穴郡久万高原町,中黒岩１９７３番地,,38,386,7911502,,,,,,,2026-01-23,1,,,,,,0
4400,9700150134089,新規,0,2026-01-23,2026-01-23,Ｄｏｎｇｇｕａｎｓｈｉ　Ｘｉａｏｅｎｋｅｊｉ　Ｙｏｕｘｉａｎｇｏｎｇｓｉ,,外国会社等,,,,,,,,Ｑｉｎｇｘｉａｌｕ　１　ｈａｏ　５１１　ｓｈｉ，Ｑｉｎｇｘｉｚｈｅｎ，Ｄｏｎｇｇｕａｎｓｈｉ，Ｇｕａｎｇｄｏｎｇｓｈｅｎ,,,,,,2026-01-23,1,,,,,トウカンシコウオンカギユウゲンコウシ,0
