sequenceNumber,corporateNumber,process,correct,updateDate,changeDate,name,nameImageId,kind,prefectureName,cityName,streetNumber,addressImageId,prefectureCode,cityCode,postCode,addressOutside,addressOutsideImageId,closeDate,closeCause,successorCorporateNumber,changeCause,assignmentDate,latest,enName,enPrefectureName,enCityName,enAddressOutside,furigana,hihyoji
1,1010001170922,登記記録の閉鎖等,0,2025-09-12,2025-08-29,株式会社プログレス,,株式会社,東京都,中央区,築地３丁目９番１０号,,13,102,1040045,,,2025-08-29,清算の結了等,,,2015-10-14,1,,,,,プログレス,0
11,1010001250724,登記記録の閉鎖等,0,2025-09-12,2025-09-04,ＣＹＢＥＲ　ＮＥＴＷＯＲＫＳ株式会社,,株式会社,東京都,中央区,銀座７丁目１３番６号サガミビル２階,,13,102,1040061,,,2025-09-04,清算の結了等,,,2024-12-13,1,,,,,サイバーネットワークス,0
16,1010002009310,登記記録の閉鎖等,0,2025-09-12,2025-08-19,有限会社グラン,,有限会社,東京都,千代田区,神田神保町２丁目２４番地,,13,101,1010051,,,2025-08-19,清算の結了等,,,2015-10-05,1,,,,,,0
46,1010903003832,登記記録の閉鎖等,0,2025-09-12,2025-08-29,上北沢合同会社,,合同会社,東京都,千代田区,神田小川町３丁目２６番８号神田小川町三丁目ビル６階,,13,101,1010052,,,2025-08-29,清算の結了等,,,2017-09-07,1,,,,,カミキタザワ,0
53,1011001146367,登記記録の閉鎖等,0,2025-09-12,2025-08-12,ニューリジェンセキュリティ株式会社,,株式会社,東京都,渋谷区,神宮前６丁目１２番１８号,,13,113,1500001,,,2025-08-12,清算の結了等,,,2022-03-17,1,,,,,ニューリジェンセキュリティ,0
70,1011102010645,登記記録の閉鎖等,0,2025-09-12,2025-08-08,有限会社ひとみ,,有限会社,東京都,新宿区,新宿２丁目１２番８号,,13,104,1600022,,,2025-08-08,清算の結了等,,,2015-10-05,1,,,,,ヒトミ,0
78,1011402005592,登記記録の閉鎖等,0,2025-09-12,2025-09-05,有限会社田口彫刻,,有限会社,東京都,板橋区,中台１丁目３８番３号,,13,119,1740064,,,2025-09-05,清算の結了等,,,2015-10-05,1,,,,,タグチチョウコク,0
82,1011701016332,登記記録の閉鎖等,0,2025-09-12,2025-09-05,ＭＹＫ株式会社,,株式会社,東京都,江戸川区,一之江６丁目９番３０－８０７号,,13,123,1320024,,,2025-09-05,清算の結了等,,,2015-10-05,1,,,,,エムワイケー,0
89,1011802029035,登記記録の閉鎖等,0,2025-09-12,2025-09-05,ダッシュ有限会社,,有限会社,東京都,足立区,千住龍田町３番地５,,13,121,1200042,,,2025-09-05,清算の結了等,,,2015-10-05,1,,,,,ダッシュ,0
97,1012402015342,登記記録の閉鎖等,0,2025-09-12,2025-09-11,サンシナジー有限会社,,有限会社,東京都,調布市,柴崎１丁目９番地２,,13,208,1820014,,,2025-09-11,清算の結了等,,,2015-10-05,1,,,,,サンシナジー,0
101,1012801000580,登記記録の閉鎖等,0,2025-09-12,2025-09-01,株式会社サビアコーポレーション,,株式会社,東京都,立川市,栄町６丁目１番地の１,,13,202,1900003,,,2025-09-01,合併による解散等,2012801000159,令和７年９月１日東京都立川市栄町六丁目１番地の１株式会社いなげや（2012801000159）に合併し解散,2015-10-05,1,,,,,サビアコーポレーション,0
105,1013201006458,登記記録の閉鎖等,0,2025-09-12,2025-09-09,株式会社レット・イット・ビー,,株式会社,長崎県,諫早市,山川町４番地２８,,42,204,8540074,,,2025-09-09,清算の結了等,,,2015-10-05,1,,,,,レットイットビー,0
117,1020002047978,登記記録の閉鎖等,0,2025-09-12,2025-08-28,インターアーツ有限会社,,有限会社,神奈川県,横浜市金沢区,富岡東１丁目３６－１３,,14,108,2360051,,,2025-08-28,清算の結了等,,,2015-10-05,1,,,,,インターアーツ,0
118,1021001027260,登記記録の閉鎖等,0,2025-09-12,2025-09-08,株式会社荏原軽合金製作所,,株式会社,神奈川県,綾瀬市,吉岡東１丁目８番１６号,,14,218,2521125,,,2025-09-08,清算の結了等,,,2015-10-05,1,,,,,エバラケイゴウキンセイサクショ,0
148,1070001037083,登記記録の閉鎖等,0,2025-09-12,2025-09-08,ＥｘｅｃｔＦａｍｉｌｉａｒ株式会社,,株式会社,群馬県,伊勢崎市,東小保方町３７９８番地２７,,10,204,3792234,,,2025-09-08,清算の結了等,,,2020-08-05,1,,,,,エグゼクトファミリア,0
151,1070002000296,登記記録の閉鎖等,0,2025-09-12,2025-09-08,有限会社東屋石材店,,有限会社,群馬県,前橋市,二之宮町１４０４番地の１,,10,201,3792117,,,2025-09-08,清算の結了等,,,2015-10-05,1,,,,,アズマヤセキザイテン,0
162,1120001031411,登記記録の閉鎖等,0,2025-09-12,2025-09-03,西昭木材株式会社,,株式会社,大阪府,大阪市住之江区,平林北２丁目７番２２号,,27,125,5590026,,,2025-09-03,清算の結了等,,,2015-10-05,1,,,,,ニシアキモクザイ,0
172,1120005021838,登記記録の閉鎖等,0,2025-09-12,2025-09-10,特定非営利活動法人あんぽんたん,,その他の設立登記法人,大阪府,大阪市生野区,巽南２丁目７番２号,00120748,27,116,5440015,,,2025-09-10,清算の結了等,,,2020-09-10,1,,,,,アンポンタン,0
179,1122001008315,登記記録の閉鎖等,0,2025-09-12,2025-09-10,株式会社吉村産業,,株式会社,大阪府,東大阪市,花園本町１丁目１１番９号,,27,227,5780937,,,2025-09-10,清算の結了等,,,2015-10-05,1,,,,,,0
183,1130001034818,登記記録の閉鎖等,0,2025-09-12,2025-08-26,株式会社藤田物流,,株式会社,京都府,京都市伏見区,羽束師菱川町５８９番地１６,,26,109,6128487,,,2025-08-26,清算の結了等,,,2015-10-05,1,,,,,フジタブツリュウ,0
192,1140001015271,登記記録の閉鎖等,0,2025-09-12,2025-09-08,ナリックス株式会社,,株式会社,兵庫県,神戸市北区,泉台２丁目２番１（２－５０４号）,,28,109,6511141,,,2025-09-08,清算の結了等,,,2015-10-05,1,,,,,ナリックス,0
199,1140002046968,登記記録の閉鎖等,0,2025-09-12,2025-09-08,有限会社中山衣料店,,有限会社,兵庫県,美方郡新温泉町,浜坂１９４９番地の１,,28,586,6696702,,,2025-09-08,清算の結了等,,,2025-06-06,1,,,,,ナカヤマイリョウテン,0
200,1140002056315,登記記録の閉鎖等,0,2025-09-12,2025-09-05,有限会社黒木通信建設,,有限会社,兵庫県,西宮市,久保町１５番１１－１０７号,,28,204,6620927,,,2025-09-05,清算の結了等,,,2015-10-05,1,,,,,クロキツウシンケンセツ,0
203,1150001016491,登記記録の閉鎖等,0,2025-09-12,2025-09-11,株式会社サトワ,,株式会社,奈良県,奈良市,北之庄西町２丁目８番地の６,,29,201,6308452,,,2025-09-11,清算の結了等,,,2015-10-05,1,,,,,サトワ,0
208,1170001011549,登記記録の閉鎖等,0,2025-09-12,2025-09-11,南海スバル自動車株式会社,,株式会社,和歌山県,新宮市,鴻田２丁目３番２３号,,30,207,6470082,,,2025-09-11,清算の結了等,,,2015-10-05,1,,,,,ナンカイスバルジドウシャ,0
238,1260002019185,登記記録の閉鎖等,0,2025-09-12,2025-09-02,有限会社創瓦工業,,有限会社,岡山県,都窪郡早島町,早島１１８７番地,,33,423,7010304,,,2025-09-02,清算の結了等,,,2015-10-05,1,,,,,ソウガコウギョウ,0
244,1290002054361,登記記録の閉鎖等,0,2025-09-12,2025-09-01,有限会社ファームポイント,,有限会社,福岡県,三潴郡大木町,大字奥牟田１１５４番地の２,,40,522,8300421,,,2025-09-01,清算の結了等,,,2015-10-05,1,,,,,ファームポイント,0
247,1290803003896,登記記録の閉鎖等,0,2025-09-12,2025-09-08,合同会社ＴＨＩＭＫ,,合同会社,福岡県,北九州市小倉北区,魚町２丁目１番７号ＡＣＴ松永ビル２階Ｂ号,,40,106,8020006,,,2025-09-08,清算の結了等,,,2021-08-04,1,,,,,シンク,0
280,1420002012909,登記記録の閉鎖等,0,2025-09-12,2025-09-01,有限会社エヌコンタクトレンズ,,有限会社,青森県,弘前市,大字稔町２３番地の２７,,02,202,0368231,,,2025-09-01,清算の結了等,,,2015-10-05,1,,,,,エヌコンタクトレンズ,0
282,1430001086977,登記記録の閉鎖等,0,2025-09-12,2025-08-28,株式会社ＳＫＨ７２,,株式会社,北海道,札幌市中央区,南十四条西７丁目３番５号,,01,101,0640914,,,2025-08-28,清算の結了等,,,2022-06-30,1,,,,,エスケーエイチナナジュウニ,0
292,2010001146120,登記記録の閉鎖等,0,2025-09-12,2025-08-29,株式会社鹿野管財,,株式会社,東京都,中央区,月島１丁目５番１－８０３号,,13,102,1040052,,,2025-08-29,清算の結了等,,,2015-10-05,1,,,,,カノカンザイ,0
301,2010401039361,登記記録の閉鎖等,0,2025-09-12,2025-09-05,高楊産業株式会社,,株式会社,東京都,大田区,山王４丁目１９番６号,,13,111,1430023,,,2025-09-05,清算の結了等,,,2015-10-05,1,,,,,コウヨウサンギョウ,0
319,2010703005359,登記記録の閉鎖等,0,2025-09-12,2025-09-09,合同会社エムシックスファイナンス,,合同会社,東京都,品川区,北品川１丁目１－１５北品川２１ビル３Ｆ,,13,109,1400001,,,2025-09-09,合併による解散等,6140003014804,令和７年８月３１日兵庫県三木市志染町東自由が丘３－３７６合同会社エムスリーエデュケーション（6140003014804）に合併し解散,2020-08-05,1,,,,,エムシックスファイナンス,0
323,2011001123679,登記記録の閉鎖等,0,2025-09-12,2025-09-04,Ｙ．Ｍ．Ｇ株式会社,,株式会社,埼玉県,川口市,赤井１丁目２７番１９号,,11,203,3340073,,,2025-09-04,清算の結了等,,,2018-08-13,1,,,,,ワイエムジー,0
333,2011101081975,登記記録の閉鎖等,0,2025-09-12,2025-08-13,株式会社ＦｇＧ,,株式会社,東京都,新宿区,西新宿４丁目３４番７号,,13,104,1600023,,,2025-08-13,合併による解散等,8011101056625,令和７年８月１日東京都新宿区西新宿四丁目３４番７号株式会社ｇｕｍｉ（8011101056625）に合併し解散,2017-10-13,1,,,,,エフジージー,0
344,2012401018031,登記記録の閉鎖等,0,2025-09-12,2025-09-11,クリスタルヒーリングアカデミー株式会社,,株式会社,東京都,調布市,柴崎１丁目９番地２,,13,208,1820014,,,2025-09-11,清算の結了等,,,2015-10-05,1,,,,,クリスタルヒーリングアカデミー,0
345,2012402014789,登記記録の閉鎖等,0,2025-09-12,2025-09-09,有限会社さくら設備工業,,有限会社,東京都,府中市,小柳町４丁目３９番地２８,,13,206,1830013,,,2025-09-09,清算の結了等,,,2015-10-05,1,,,,,サクラセツビコウギョウ,0
350,2020001020027,登記記録の閉鎖等,0,2025-09-12,2025-08-18,株式会社ＫＫ,,株式会社,東京都,千代田区,丸の内１丁目９番２号グラントウキョウサウスタワー,,13,101,1000005,,,2025-08-18,清算の結了等,,,2015-10-05,1,,,,,ケーケー,0
353,2020003006750,登記記録の閉鎖等,0,2025-09-12,2025-08-21,グレーシー合同会社,,合同会社,神奈川県,川崎市麻生区,上麻生１丁目１７番２号,,14,137,2150021,,,2025-08-21,清算の結了等,,,2015-10-05,1,,,,,グレーシー,0
356,2021001026939,登記記録の閉鎖等,0,2025-09-12,2025-09-08,株式会社ストック,,株式会社,神奈川県,海老名市,中央３丁目５番地５号,,14,215,2430432,,,2025-09-08,清算の結了等,,,2015-10-05,1,,,,,ストック,0
358,2021002068492,登記記録の閉鎖等,0,2025-09-12,2025-09-08,有限会社冨士商事,,有限会社,神奈川県,逗子市,逗子１丁目２番６号,,14,208,2490006,,,2025-09-08,清算の結了等,,,2015-10-05,1,,,,,フジショウジ,0
362,2030002021741,登記記録の閉鎖等,0,2025-09-12,2025-09-04,有限会社堀川総建,,有限会社,埼玉県,さいたま市岩槻区,東岩槻４丁目１２番地６,,11,110,3390005,,,2025-09-04,清算の結了等,,,2015-10-05,1,,,,,,0
375,2040001023993,登記記録の閉鎖等,0,2025-09-12,2025-08-19,ＯＭＢＲＡ株式会社,,株式会社,千葉県,船橋市,西船２丁目２２番２８号,,12,204,2730031,,,2025-08-19,清算の結了等,,,2015-10-05,1,,,,,オンブラ,0
379,2040002061662,登記記録の閉鎖等,0,2025-09-12,2025-08-20,有限会社メディカルスタッフサービス,,有限会社,千葉県,千葉市中央区,本千葉町４番１４－８０２号,,12,101,2600014,,,2025-08-20,清算の結了等,,,2015-10-05,1,,,,,メディカルスタッフサービス,0
389,2060001030922,登記記録の閉鎖等,0,2025-09-12,2025-09-05,株式会社真帝運輸,,株式会社,栃木県,那須塩原市,埼玉８２番地１５,,09,213,3250033,,,2025-09-05,清算の結了等,,,2018-09-27,1,,,,,シンテイウンユ,0
397,2080005006652,登記記録の閉鎖等,0,2025-09-12,2025-09-05,特定非営利活動法人キッズアートプロジェクトしずおか,,その他の設立登記法人,静岡県,静岡市駿河区,登呂３丁目１番１号,,22,102,4228033,,,2025-09-05,清算の結了等,,,2015-10-05,1,,,,,キッズアートプロジェクトシズオカ,0
411,2120001135946,登記記録の閉鎖等,0,2025-09-12,2025-09-08,株式会社和合実事務所,,株式会社,大阪府,大阪市鶴見区,鶴見２丁目５番３５号,,27,124,5380053,,,2025-09-08,清算の結了等,,,2015-10-05,1,,,,,ワゴウミノルジムショ,0
427,2120005007844,登記記録の閉鎖等,0,2025-09-12,2025-09-10,特定非営利活動法人女性職能集団ＷＡＲＰ－ＬＥＥＮＥＴ,,その他の設立登記法人,大阪府,大阪市北区,中津３丁目１１番２－５０６号,,27,127,5310071,,,2025-09-10,清算の結了等,,,2015-10-05,1,,,,,ジョセイショクノウシュウダンワープリーネット,0
435,2122001012084,登記記録の閉鎖等,0,2025-09-12,2025-09-09,株式会社構造総合技術研究所,,株式会社,大阪府,東大阪市,長田東３丁目２番２７号,,27,227,5770012,,,2025-09-09,合併による解散等,3120001079309,令和７年９月１日大阪市東淀川区東中島一丁目６番１４号国土工営コンサルタンツ株式会社（3120001079309）に合併し解散,2015-10-05,1,,,,,コウゾウソウゴウギジュツケンキュウジョ,0
441,2140001004496,登記記録の閉鎖等,0,2025-09-12,2025-09-09,英電産業株式会社,,株式会社,兵庫県,神戸市西区,桜が丘西町３丁目１１番地の５,,28,111,6512227,,,2025-09-09,清算の結了等,,,2015-10-05,1,,,,,エイデンサンギョウ,0
442,2140001014958,登記記録の閉鎖等,0,2025-09-12,2025-09-05,株式会社源辞苑,,株式会社,兵庫県,神戸市北区,有野町二郎１７８番地１,,28,109,6511311,,,2025-09-05,清算の結了等,,,2015-10-05,1,,,,,ゲンジエン,0
450,2160001007381,登記記録の閉鎖等,0,2025-09-12,2025-09-09,株式会社タク・アンド・拓,,株式会社,滋賀県,長浜市,神照町８９７番地の７,,25,203,5260015,,,2025-09-09,清算の結了等,,,2015-10-05,1,,,,,タクアンドタク,0
451,2160001019699,登記記録の閉鎖等,0,2025-09-12,2025-09-08,ＴｅｄＴｅｃｈ株式会社,,株式会社,滋賀県,大津市,におの浜３丁目５番１５－１４０４号,,25,201,5200801,,,2025-09-08,清算の結了等,,,2016-09-01,1,,,,,テッドテック,0
461,2210001012905,登記記録の閉鎖等,0,2025-09-12,2025-09-09,株式会社斎藤印刷,,株式会社,福井県,鯖江市,深江町８番５号,,18,207,9160052,,,2025-09-09,清算の結了等,,,2015-10-05,1,,,,,,0
471,2240002048400,登記記録の閉鎖等,0,2025-09-12,2025-09-08,有限会社トモニシ,,有限会社,広島県,安芸郡熊野町,中溝４丁目２０番５号,,34,307,7314214,,,2025-09-08,清算の結了等,,,2015-10-05,1,,,,,トモニシ,0
482,2290001093351,登記記録の閉鎖等,0,2025-09-12,2025-09-01,ふくふく証券設立準備株式会社,,株式会社,東京都,中央区,日本橋室町３丁目４番４号,,13,102,1030022,,,2025-09-01,合併による解散等,4011101074671,令和７年９月１日東京都中央区京橋一丁目７番１号ダルマ・キャピタル株式会社（4011101074671）に合併し解散,2021-06-03,1,,,,,フクフクショウケンセツリツジュンビ,0
508,2430001011439,登記記録の閉鎖等,0,2025-09-12,2025-08-28,株式会社トウダ,,株式会社,北海道,札幌市東区,北二十三条東１丁目９番３号,,01,103,0650023,,,2025-08-28,清算の結了等,,,2015-10-05,1,,,,,トウダ,0
509,2430001017915,登記記録の閉鎖等,0,2025-09-12,2025-08-29,株式会社吉田商事,,株式会社,北海道,札幌市南区,澄川四条２丁目１１番３３号,,01,106,0050004,,,2025-08-29,清算の結了等,,,2015-10-05,1,,,,,ヨシダショウジ,0
515,2470001000553,登記記録の閉鎖等,0,2025-09-12,2025-09-10,株式会社イトー技研,,株式会社,香川県,高松市,番町３丁目２番９号,,37,201,7600017,,,2025-09-10,清算の結了等,,,2015-10-05,1,,,,,イトーギケン,0
536,3010003035618,登記記録の閉鎖等,0,2025-09-12,2025-08-26,日光Ｐｌｕｓ２０合同会社１２,,合同会社,東京都,千代田区,丸の内１丁目４番１号東京共同会計事務所内,,13,101,1000005,,,2025-08-26,清算の結了等,,,2021-08-16,1,,,,,ニッコウプラストゥエンティイチニー,0
541,3010005037835,登記記録の閉鎖等,0,2025-09-12,2025-08-29,一般社団法人Ｈａｒｉ,,その他の設立登記法人,東京都,中央区,八丁堀４丁目２番１０号ＡＯＪ税理士法人内,,13,102,1040032,,,2025-08-29,清算の結了等,,,2024-02-06,1,,,,,ハリ,0
543,3010102002997,登記記録の閉鎖等,0,2025-09-12,2025-09-10,有限会社佐藤パーツ,,有限会社,東京都,八王子市,小宮町６９２番地の１４,,13,201,1920031,,,2025-09-10,清算の結了等,,,2015-10-05,1,,,,,サトウパーツ,0
562,3011001097591,登記記録の閉鎖等,0,2025-09-12,2025-08-13,株式会社ＣＩＥＬ,,株式会社,東京都,目黒区,下目黒２丁目１７番２号第一東和ビル２階,,13,110,1530064,,,2025-08-13,合併による解散等,6011001112100,令和７年７月３１日東京都目黒区下目黒二丁目１７番３号Ｋ’ＳＯＮＥビル３Ｆ株式会社おすすめ屋（6011001112100）に合併し解散,2015-10-05,1,,,,,シエル,0
573,3011101099216,登記記録の閉鎖等,0,2025-09-12,2025-08-18,株式会社ＴＯＹＯＵ　ＳＴＵＤＩＯ　ＪＰ,,株式会社,東京都,千代田区,永田町２丁目４番１１号ＦＲＩＥＮＤＢＵＩＬＤＩＮＧ５階,,13,101,1000014,,,2025-08-18,清算の結了等,,,2022-06-14,1,,,,,トゥーユースタジオジェーピー,0
607,3021001074937,登記記録の閉鎖等,0,2025-09-12,2025-09-08,株式会社Ｒｅｌｅｎｉｔｙ,,株式会社,神奈川県,鎌倉市,御成町１４番２２－４０１号,,14,204,2480012,,,2025-09-08,清算の結了等,,,2022-01-13,1,,,,,リレニティ,0
608,3021002041911,登記記録の閉鎖等,0,2025-09-12,2025-09-08,有限会社南部庵,,有限会社,神奈川県,大和市,福田４丁目２０番地の７,,14,213,2420024,,,2025-09-08,清算の結了等,,,2015-10-05,1,,,,,ナンブアン,0
623,3040001015016,登記記録の閉鎖等,0,2025-09-12,2025-08-20,株式会社ジャスト,,株式会社,千葉県,習志野市,谷津５丁目１５番１７号,,12,216,2750026,,,2025-08-20,清算の結了等,,,2015-10-05,1,,,,,ジャスト,0
626,3040001098309,登記記録の閉鎖等,0,2025-09-12,2025-08-20,株式会社Ｇｌｅｉｓ,,株式会社,千葉県,松戸市,六実６丁目１３番地の３０,,12,207,2702204,,,2025-08-20,清算の結了等,,,2017-01-13,1,,,,,グレイス,0
631,3040002061315,登記記録の閉鎖等,0,2025-09-12,2025-08-19,有限会社二藤部電機設計,,有限会社,千葉県,佐倉市,中志津２丁目９番９号,,12,212,2850843,,,2025-08-19,清算の結了等,,,2015-10-05,1,,,,,ニトベデンキセッケイ,0
640,3060002003067,登記記録の閉鎖等,0,2025-09-12,2025-09-08,有限会社菊秀刃物店,,有限会社,栃木県,宇都宮市,鶴田町３２９９番地２,,09,201,3200851,,,2025-09-08,清算の結了等,,,2015-10-05,1,,,,,キクヒデハモノテン,0
650,3080401002460,登記記録の閉鎖等,0,2025-09-12,2025-09-08,鈴木石油株式会社,,株式会社,静岡県,浜松市中央区,篠原町１２０１２番地,,22,138,4310201,,,2025-09-08,清算の結了等,,,2015-10-05,1,,,,,スズキセキユ,0
652,3090001011729,登記記録の閉鎖等,0,2025-09-12,2025-09-05,株式会社クリアライト・スタジオ,,株式会社,山梨県,北杜市,小淵沢町上笹尾３３３２番地４０４,,19,209,4080041,,,2025-09-05,清算の結了等,,,2015-10-05,1,,,,,クリアライトスタジオ,0
660,3120001020016,登記記録の閉鎖等,0,2025-09-12,2025-09-02,株式会社北田製作所,,株式会社,大阪府,大阪市平野区,加美北９丁目２番８号,,27,126,5470001,,,2025-09-02,清算の結了等,,,2015-10-05,1,,,,,キタダセイサクショ,0
661,3120001031376,登記記録の閉鎖等,0,2025-09-12,2025-09-03,ニシアキホーム株式会社,,株式会社,大阪府,大阪市住之江区,平林北２丁目７番２２号,,27,125,5590026,,,2025-09-03,清算の結了等,,,2015-10-05,1,,,,,ニシアキホーム,0
680,3120101062239,登記記録の閉鎖等,0,2025-09-12,2025-08-28,株式会社大島,,株式会社,大阪府,富田林市,中野町１丁目２０４番地１フラワーＩＩＩ２０１,00120635,27,214,5840021,,,2025-08-28,清算の結了等,,,2020-08-31,1,,,,,オオシマ,0
697,3140001125192,登記記録の閉鎖等,0,2025-09-12,2025-09-04,スミアン株式会社,,株式会社,兵庫県,宝塚市,ふじガ丘４番,,28,214,6650806,,,2025-09-04,清算の結了等,,,2022-03-09,1,,,,,スミアン,0
705,3150002010995,登記記録の閉鎖等,0,2025-09-12,2025-09-09,株式会社花田設計事務所,,株式会社,兵庫県,芦屋市,茶屋之町２番２１－９０１号,,28,206,6590067,,,2025-09-09,合併による解散等,3120001079309,令和７年９月１日大阪市東淀川区東中島一丁目６番１４号国土工営コンサルタンツ株式会社（3120001079309）に合併し解散,2015-10-05,1,,,,,ハナダセッケイジムショ,0
708,3160001020177,登記記録の閉鎖等,0,2025-09-12,2025-09-05,リョーワ株式会社,,株式会社,滋賀県,高島市,新旭町饗庭２６０６番地１,,25,212,5201531,,,2025-09-05,清算の結了等,,,2017-05-09,1,,,,,リョーワ,0
719,3180002089359,登記記録の閉鎖等,0,2025-09-12,2025-08-25,有限会社大栄建工,,有限会社,愛知県,津島市,愛宕町６丁目１０８番地,,23,208,4960036,,,2025-08-25,清算の結了等,,,2015-10-05,1,,,,,ダイエイケンコウ,0
727,3230001000106,登記記録の閉鎖等,0,2025-09-12,2025-09-09,株式会社アソー宣伝社,,株式会社,富山県,富山市,二口町２丁目６番地の７,,16,201,9398211,,,2025-09-09,清算の結了等,,,2015-10-05,1,,,,,アソーセンデンシャ,0
730,3240001021101,登記記録の閉鎖等,0,2025-09-12,2025-09-05,株式会社ニーナ工業,,株式会社,広島県,広島市安芸区,中野６丁目９番１７号,,34,107,7390321,,,2025-09-05,清算の結了等,,,2015-10-05,1,,,,,ニーナコウギョウ,0
734,3290001051515,登記記録の閉鎖等,0,2025-09-12,2025-08-15,ジオプロモート株式会社,,株式会社,福岡県,小郡市,福童１００２番地４,,40,216,8380137,,,2025-08-15,清算の結了等,,,2015-10-05,1,,,,,ジオプロモート,0
743,3300002006318,登記記録の閉鎖等,0,2025-09-12,2025-09-08,有限会社山下組,,有限会社,佐賀県,嬉野市,嬉野町大字岩屋川内甲３８０番地４,,41,209,8430304,,,2025-09-08,清算の結了等,,,2015-10-05,1,,,,,ヤマシタグミ,0
744,3310002019120,登記記録の閉鎖等,0,2025-09-12,2025-09-09,有限会社東部魚冷,,有限会社,長崎県,壱岐市,郷ノ浦町釘山触１１４５番地,,42,210,8115123,,,2025-09-09,清算の結了等,,,2015-10-05,1,,,,,トウブギョレイ,0
747,3330001014698,登記記録の閉鎖等,0,2025-09-12,2025-08-20,株式会社まるいちや,,株式会社,熊本県,阿蘇郡西原村,大字鳥子２７１０番地,,43,432,8612401,,,2025-08-20,清算の結了等,,,2015-10-05,1,,,,,マルイチヤ,0
754,3360001027986,登記記録の閉鎖等,0,2025-09-12,2025-08-28,コアシステスト株式会社,,株式会社,神奈川県,横浜市中区,野毛町２丁目７８番地５グランデ野毛本通り３０１,,14,104,2310064,,,2025-08-28,清算の結了等,,,2020-11-26,1,,,,,コアシステスト,0
757,3380002031688,登記記録の閉鎖等,0,2025-09-12,2025-09-03,有限会社国江工務店,,有限会社,福島県,会津若松市,門田町大字御山字村上３１９番地,,07,202,9650826,,,2025-09-03,清算の結了等,,,2015-10-05,1,,,,,クニエコウムテン,0
758,3380002034765,登記記録の閉鎖等,0,2025-09-12,2025-09-02,喜光電気有限会社,,有限会社,福島県,喜多方市,字舘野５１７７番地の３,,07,208,9660873,,,2025-09-02,清算の結了等,,,2015-10-05,1,,,,,キコウデンキ,0
760,3420001002149,登記記録の閉鎖等,0,2025-09-12,2025-09-01,株式会社ヤマイいと福,,株式会社,青森県,青森市,古川１丁目５番１号,,02,201,0300862,,,2025-09-01,清算の結了等,,,2015-10-05,1,,,,,ヤマイイトフク,0
765,3430002029198,登記記録の閉鎖等,0,2025-09-12,2025-08-27,有限会社ダンススタジオマインド,,有限会社,北海道,札幌市中央区,南二条西３丁目１３番地,,01,101,0600062,,,2025-08-27,清算の結了等,,,2015-10-05,1,,,,,ダンススタジオマインド,0
777,3490002004435,登記記録の閉鎖等,0,2025-09-12,2025-09-10,有限会社福井酒販,,有限会社,高知県,高知市,福井町４４８番地,,39,201,7800965,,,2025-09-10,清算の結了等,,,2015-10-05,1,,,,,フクイシュハン,0
783,4010001189811,登記記録の閉鎖等,0,2025-09-12,2025-09-10,小柳コーポレーション株式会社,,株式会社,東京都,千代田区,飯田橋２丁目９番４号,,13,101,1020072,,,2025-09-10,合併による解散等,3110001025610,令和７年９月１日新潟県加茂市大字宮寄上５２４番地株式会社小柳コーポレーション（3110001025610）に合併し解散,2018-02-23,1,,,,,オヤナギコーポレーション,0
797,4010003021006,登記記録の閉鎖等,0,2025-09-12,2025-08-26,日光１７８レスカール鵜の森合同会社,,合同会社,東京都,千代田区,丸の内１丁目４番１号東京共同会計事務所内,,13,101,1000005,,,2025-08-26,清算の結了等,,,2015-10-05,1,,,,,ニッコウワンハンドレッドセブンティーエイトレスカールウノモリ,0
798,4010003021030,登記記録の閉鎖等,0,2025-09-12,2025-08-26,日光１９８エトワール小金井合同会社,,合同会社,東京都,千代田区,丸の内１丁目４番１号東京共同会計事務所内,,13,101,1000005,,,2025-08-26,清算の結了等,,,2015-10-05,1,,,,,ニッコウワンハンドレッドナイティーエイトエトワールコガネイ,0
806,4010401147947,登記記録の閉鎖等,0,2025-09-12,2025-08-28,エレクトロラックス・ジャパン株式会社,,株式会社,東京都,港区,虎ノ門４丁目３番１号城山トラストタワー４階,,13,103,1050001,,,2025-08-28,清算の結了等,,,2019-09-13,1,,,,,エレクトロラックスジャパン,0
825,4010601040489,登記記録の閉鎖等,0,2025-09-12,2025-09-11,株式会社デュマイロジャパン,,株式会社,鳥取県,米子市,四日市町８６番地,,31,202,6830061,,,2025-09-11,清算の結了等,,,2015-10-05,1,,,,,デュマイロジャパン,0
826,4010601049191,登記記録の閉鎖等,0,2025-09-12,2025-08-27,株式会社ｔｙｏｔｔｏ,,株式会社,神奈川県,川崎市中原区,下沼部１７６０カインド玉川４Ｆ,,14,133,2110011,,,2025-08-27,清算の結了等,,,2016-02-10,1,,,,,チョット,0
857,4011101106086,登記記録の閉鎖等,0,2025-09-12,2025-08-22,株式会社ＮｏｄｅＧｅａｒ,,株式会社,東京都,新宿区,市谷田町３丁目８－１市ヶ谷科学技術イノベーションセンター２Ｆ,,13,104,1620843,,,2025-08-22,清算の結了等,,,2024-02-05,1,,,,,ノードギア,0
868,4011801002576,登記記録の閉鎖等,0,2025-09-12,2025-09-05,株式会社太閤,,株式会社,東京都,葛飾区,東金町６丁目１２番１０号,,13,122,1250041,,,2025-09-05,清算の結了等,,,2015-10-05,1,,,,,タイコウ,0
869,4011801026749,登記記録の閉鎖等,0,2025-09-12,2025-09-08,エイトア株式会社,,株式会社,東京都,足立区,東綾瀬２丁目１－７,,13,121,1200004,,,2025-09-08,清算の結了等,,,2015-10-05,1,,,,,,0
876,4012802000890,登記記録の閉鎖等,0,2025-09-12,2025-08-21,有限会社コウテイ,,有限会社,東京都,新宿区,百人町１丁目１１番２５号,,13,104,1690073,,,2025-08-21,清算の結了等,,,2015-10-05,1,,,,,コウテイ,0
918,4060001023338,登記記録の閉鎖等,0,2025-09-12,2025-09-08,株式会社高山材木店,,株式会社,栃木県,下都賀郡壬生町,至宝１丁目１番１４号,,09,361,3210217,,,2025-09-08,清算の結了等,,,2015-10-05,1,,,,,タカヤマザイモクテン,0
922,4080001000129,登記記録の閉鎖等,0,2025-09-12,2025-09-08,株式会社アガタエンジニアリング,,株式会社,静岡県,静岡市駿河区,小鹿１丁目６６番３７号,,22,102,4228021,,,2025-09-08,清算の結了等,,,2015-10-05,1,,,,,アガタエンジニアリング,0
923,4080005007351,登記記録の閉鎖等,0,2025-09-12,2025-09-08,一般社団法人ふじえだやもり,,その他の設立登記法人,静岡県,藤枝市,駅前１丁目１９番４号１階,,22,214,4260034,,,2025-09-08,清算の結了等,,,2021-04-07,1,,,,,フジエダヤモリ,0
924,4080401010842,登記記録の閉鎖等,0,2025-09-12,2025-09-03,株式会社トップインターナショナル,,株式会社,静岡県,浜松市天竜区,佐久間町大井１２１７番地,,22,140,4313902,,,2025-09-03,清算の結了等,,,2015-10-05,1,,,,,トップインターナショナル,0
926,4080402006609,登記記録の閉鎖等,0,2025-09-12,2025-09-05,有限会社彦坂商事,,有限会社,静岡県,浜松市中央区,平田町５２番地,,22,138,4328031,,,2025-09-05,清算の結了等,,,2015-10-05,1,,,,,ヒコサカショウジ,0
934,4100005012679,登記記録の閉鎖等,0,2025-09-12,2025-09-08,一般社団法人Ｆａｍｉｌｙ　Ｗｏｒｋａｔｉｏｎ,,その他の設立登記法人,長野県,塩尻市,大門八番町１番２８号,,20,215,3990737,,,2025-09-08,清算の結了等,,,2021-03-02,1,,,,,ファミリーワーケーション,0
936,4120001029799,登記記録の閉鎖等,0,2025-09-12,2025-09-05,ホリーエンジニアリング株式会社,,株式会社,大阪府,大阪市浪速区,塩草３丁目８番１２号,,27,111,5560024,,,2025-09-05,合併による解散等,9120001098963,令和７年９月１日大阪市中央区上汐二丁目１番２２号株式会社ジャパンシステムサービス（9120001098963）に合併し解散,2015-10-05,1,,,,,ホリーエンジニアリング,0
958,4120901005404,登記記録の閉鎖等,0,2025-09-12,2025-09-01,株式会社インターナショナルススム,,株式会社,大阪府,吹田市,山手町４丁目４番５号,,27,205,5640073,,,2025-09-01,清算の結了等,,,2015-10-05,1,,,,,インターナショナルススム,0
964,4122001012628,登記記録の閉鎖等,0,2025-09-12,2025-09-11,株式会社モトヤマ,,株式会社,大阪府,東大阪市,末広町２１番７号,,27,227,5798055,,,2025-09-11,清算の結了等,,,2015-10-05,1,,,,,モトヤマ,0
967,4122002002198,登記記録の閉鎖等,0,2025-09-12,2025-09-10,有限会社薩摩鉄工,00034665,有限会社,大阪府,東大阪市,稲田新町２丁目１０番３０号,,27,227,5770004,,,2025-09-10,清算の結了等,,,2015-10-05,1,,,,,,0
968,4130001035152,登記記録の閉鎖等,0,2025-09-12,2025-09-01,あけぼの建設株式会社,,株式会社,京都府,船井郡京丹波町,妙楽寺石原７０番地１,,26,407,6220302,,,2025-09-01,合併による解散等,4130001041118,令和７年９月１日京都府福知山市字天田３８６番地の２瀬戸内建設工業株式会社（4130001041118）に合併し解散,2015-10-05,1,,,,,アケボノケンセツ,0
969,4130001038972,登記記録の閉鎖等,0,2025-09-12,2025-09-03,阪神管財株式会社,,株式会社,京都府,京田辺市,三山木野神８６番地１,,26,211,6100313,,,2025-09-03,清算の結了等,,,2015-10-05,1,,,,,ハンシンカンザイ,0
978,4150001025696,登記記録の閉鎖等,0,2025-09-12,2025-09-10,神愛株式会社,,株式会社,奈良県,吉野郡大淀町,大字北野１３０番地の５,,29,442,6393125,,,2025-09-10,清算の結了等,,,2022-07-14,1,,,,,シンアイ,0
979,4150003002082,登記記録の閉鎖等,0,2025-09-12,2025-09-10,合同会社ジーエスエムジャパン,,合同会社,奈良県,奈良市,富雄北１丁目１７番３４－４０３号,,29,201,6310076,,,2025-09-10,清算の結了等,,,2020-01-30,1,,,,,ジーエスエムジャパン,0
982,4160001022239,登記記録の閉鎖等,0,2025-09-12,2025-09-08,小林電機商会株式会社,,株式会社,滋賀県,蒲生郡日野町,大字大窪７２５番地,,25,383,5291603,,,2025-09-08,清算の結了等,,,2020-01-22,1,,,,,コバヤシデンキショウカイ,0
1002,4220002013445,登記記録の閉鎖等,0,2025-09-12,2025-09-09,有限会社村井精工,,有限会社,石川県,能美市,浜町ヲ２０１番地１,,17,211,9290124,,,2025-09-09,清算の結了等,,,2015-10-05,1,,,,,ムライセイコウ,0
1012,4290001035310,登記記録の閉鎖等,0,2025-09-12,2025-08-20,株式会社エーシー,,株式会社,福岡県,糟屋郡志免町,王子３丁目２５－８,,40,343,8112209,,,2025-08-20,清算の結了等,,,2015-10-05,1,,,,,エーシー,0
1035,4370001010453,登記記録の閉鎖等,0,2025-09-12,2025-08-29,株式会社三塚商会,00081457,株式会社,宮城県,仙台市青葉区,国見３丁目４番３０号,,04,101,9810943,,,2025-08-29,清算の結了等,,,2015-10-05,1,,,,,ミツヅカショウカイ,0
1039,4380001008728,登記記録の閉鎖等,0,2025-09-12,2025-09-03,株式会社テンカート福島,,株式会社,福島県,郡山市,東原３丁目１８０番地,,07,203,9630552,,,2025-09-03,清算の結了等,,,2015-10-05,1,,,,,テンカートフクシマ,0
1050,4430001062868,登記記録の閉鎖等,0,2025-09-12,2025-08-29,合同会社Ｌｕｃｅ,,合同会社,北海道,札幌市中央区,大通西２１丁目１番１２号,,01,101,0640820,,,2025-08-29,合併による解散等,7430003006052,令和７年８月２７日札幌市中央区大通西二十一丁目１番１２号合同会社Ｅｌｅｐｈａｎｔ（7430003006052）に合併し解散,2015-10-05,1,,,,,ルーチェ,0
1085,5010003021112,登記記録の閉鎖等,0,2025-09-12,2025-08-26,日光１６０フェアフィールド菊水合同会社,,合同会社,東京都,千代田区,丸の内１丁目４番１号東京共同会計事務所内,,13,101,1000005,,,2025-08-26,清算の結了等,,,2015-10-05,1,,,,,ニッコウワンハンドレッドシックスティーフェアフィールドキクスイ,0
1095,5010401132089,登記記録の閉鎖等,0,2025-09-12,2025-08-15,エリー株式会社,,株式会社,東京都,新宿区,百人町１丁目１０番１５号ＪＲ新大久保駅ビル４Ｆ,,13,104,1690073,,,2025-08-15,清算の結了等,,,2017-06-20,1,,,,,エリー,0
1103,5010405018202,登記記録の閉鎖等,0,2025-09-12,2025-08-29,一般財団法人志太勤８５歳記念拓世財団,,その他の設立登記法人,東京都,千代田区,霞が関３丁目３番１号尚友会館６階,,13,101,1000013,,,2025-08-29,清算の結了等,,,2019-10-31,1,,,,,シダツトムハチジュウゴサイキネンタクセイザイダン,0
1107,5010501038574,登記記録の閉鎖等,0,2025-09-12,2025-08-25,株式会社ｋｉｎｄ　Ｈｅａｒｔｅｄ,,株式会社,東京都,台東区,駒形２丁目１番８号初音ビル１０１,,13,106,1110043,,,2025-08-25,清算の結了等,,,2015-10-05,1,,,,,カインドハーテッド,0
1109,5010502022239,登記記録の閉鎖等,0,2025-09-12,2025-09-09,有限会社テクノブリッジ,,有限会社,東京都,江東区,亀戸４丁目４４番１－４０１号,,13,108,1360071,,,2025-09-09,清算の結了等,,,2015-10-05,1,,,,,テクノブリッジ,0
1114,5010902022524,登記記録の閉鎖等,0,2025-09-12,2025-09-09,有限会社メトロマート,,有限会社,東京都,世田谷区,喜多見９丁目２４－４９ドルフ喜多見１１６号室,,13,112,1570067,,,2025-09-09,清算の結了等,,,2015-10-05,1,,,,,メトロマート,0
1118,5011001155348,登記記録の閉鎖等,0,2025-09-12,2025-08-26,株式会社ＢＲＥＡＫＦＡＳＴ,,株式会社,東京都,目黒区,中目黒２丁目１番２３－２０１号,,13,110,1530061,,,2025-08-26,清算の結了等,,,2023-07-03,1,,,,,ブレックファスト,0
1129,5011102012266,登記記録の閉鎖等,0,2025-09-12,2025-09-04,丸福興業有限会社,,有限会社,埼玉県,上尾市,愛宕３丁目９番１６号,,11,219,3620034,,,2025-09-04,清算の結了等,,,2015-10-05,1,,,,,マルフクコウギョウ,0
1139,5011502001249,登記記録の閉鎖等,0,2025-09-12,2025-09-09,有限会社オギノ商店,,有限会社,東京都,北区,十条仲原２丁目１２番１５号,,13,117,1140031,,,2025-09-09,清算の結了等,,,2015-10-05,1,,,,,オギノショウテン,0
1141,5011601020975,登記記録の閉鎖等,0,2025-09-12,2025-09-01,株式会社環境ワークス,,株式会社,東京都,練馬区,石神井台６丁目２番４号,,13,120,1770045,,,2025-09-01,清算の結了等,,,2016-06-07,1,,,,,カンキョウワークス,0
1148,5011801009232,登記記録の閉鎖等,0,2025-09-12,2025-09-05,株式会社大運,,株式会社,東京都,足立区,鹿浜５丁目２２番１５号,,13,121,1230864,,,2025-09-05,清算の結了等,,,2015-10-05,1,,,,,ダイウン,0
1150,5011802000693,登記記録の閉鎖等,0,2025-09-12,2025-09-08,有限会社伊藤製作所,,有限会社,東京都,葛飾区,堀切３丁目２１番９号,,13,122,1240006,,,2025-09-08,清算の結了等,,,2015-10-05,1,,,,,イトウセイサクジョ,0
1152,5012302001471,登記記録の閉鎖等,0,2025-09-12,2025-09-01,共栄商事有限会社,,有限会社,東京都,町田市,小山町４３２８番地の３,,13,209,1940212,,,2025-09-01,清算の結了等,,,2015-10-05,1,,,,,キョウエイショウジ,0
1159,5013201003039,登記記録の閉鎖等,0,2025-09-12,2025-08-14,株式会社ステューディオ・オルガオ,,株式会社,東京都,目黒区,大橋２丁目１６番２５号,,13,110,1530044,,,2025-08-14,清算の結了等,,,2015-10-05,1,,,,,ステューディオオルガオ,0
1167,5020001108934,登記記録の閉鎖等,0,2025-09-12,2025-08-28,コアシスソフト株式会社,,株式会社,神奈川県,横浜市中区,野毛町２丁目７８番地５グランデ野毛本通り３０１,,14,104,2310064,,,2025-08-28,清算の結了等,,,2015-10-05,1,,,,,コアシスソフト,0
1173,5020005015292,登記記録の閉鎖等,0,2025-09-12,2025-08-28,医療法人社団福長会,,その他の設立登記法人,神奈川県,川崎市麻生区,白鳥３丁目５番地１号シャンテ１階１０２号室,,14,137,2150024,,,2025-08-28,清算の結了等,,,2021-12-08,1,,,,,フクチョウカイ,0
1176,5021003013528,登記記録の閉鎖等,0,2025-09-12,2025-08-25,汐音商事合同会社,,合同会社,神奈川県,横須賀市,東浦賀２丁目２２番１－４０２,,14,201,2390821,,,2025-08-25,清算の結了等,,,2023-09-04,1,,,,,シオンショウジ,0
1196,5040001072609,登記記録の閉鎖等,0,2025-09-12,2025-09-01,株式会社みずきファーマシー,,株式会社,東京都,板橋区,坂下２丁目３２番２３号,,13,119,1740043,,,2025-09-01,合併による解散等,6011401010787,令和７年９月１日東京都板橋区坂下二丁目３２番２３号株式会社エスシーグループ（6011401010787）に合併し解散,2015-10-05,1,,,,,ミズキファーマシー,0
1216,5080401010081,登記記録の閉鎖等,0,2025-09-12,2025-09-04,株式会社アレックスホーム,,株式会社,静岡県,浜松市浜名区,四大地９番地の６９１,,22,139,4340006,,,2025-09-04,清算の結了等,,,2015-10-05,1,,,,,アレックスホーム,0
1220,5080402000172,登記記録の閉鎖等,0,2025-09-12,2025-09-03,有限会社アーデントブレーン,,有限会社,静岡県,浜松市中央区,若林町１６２２番地の４,,22,138,4328051,,,2025-09-03,清算の結了等,,,2015-10-05,1,,,,,アーデントブレーン,0
1223,5090001015125,登記記録の閉鎖等,0,2025-09-12,2025-09-04,ユイテック株式会社,,株式会社,山梨県,南アルプス市,藤田２５４６番地６,,19,208,4000334,,,2025-09-04,清算の結了等,,,2017-06-06,1,,,,,ユイテック,0
1224,5100002036110,登記記録の閉鎖等,0,2025-09-12,2025-09-02,有限会社河井精機製作所,,有限会社,長野県,飯田市,桐林９１５番地１,,20,205,3992565,,,2025-09-02,清算の結了等,,,2015-10-05,1,,,,,カワイセイキセイサクジョ,0
1229,5120001172656,登記記録の閉鎖等,0,2025-09-12,2025-09-09,ＩＣＩパートナーズ株式会社,,株式会社,京都府,京都市西京区,嵐山上海道町７番地１嵐山コミュニティハウス１０１,,26,111,6160016,,,2025-09-09,合併による解散等,3120001166379,令和７年８月１日大阪市東成区東小橋三丁目１番１５号株式会社なみはやホールディングス（3120001166379）に合併し解散,2015-10-05,1,,,,,アイシーアイパートナーズ,0
1240,5120002034021,登記記録の閉鎖等,0,2025-09-12,2025-09-08,有限会社有村松雲堂,,有限会社,兵庫県,西宮市,津門大塚町１１番５８－１０３０号,,28,204,6638241,,,2025-09-08,清算の結了等,,,2015-10-05,1,,,,,アリムラショウウンドウ,0
1249,5122002010811,登記記録の閉鎖等,0,2025-09-12,2025-09-05,株式会社やまと,,株式会社,奈良県,桜井市,大字三輪４３０番地の１１,,29,206,6330001,,,2025-09-05,清算の結了等,,,2015-10-05,1,,,,,ヤマト,0
1282,5190001022169,登記記録の閉鎖等,0,2025-09-12,2025-09-02,株式会社清水,,株式会社,三重県,四日市市,桜町６６９８番地５７,,24,202,5121211,,,2025-09-02,清算の結了等,,,2015-10-05,1,,,,,シミズ,0
1325,5370001038898,登記記録の閉鎖等,0,2025-09-12,2025-08-28,コアシスネットコム株式会社,,株式会社,神奈川県,横浜市中区,野毛町２丁目７８番地５グランデ野毛本通り３０１,,14,104,2310064,,,2025-08-28,清算の結了等,,,2015-12-08,1,,,,,コアシスネットコム,0
1329,5380001031101,登記記録の閉鎖等,0,2025-09-12,2025-09-02,大芦企画株式会社,,株式会社,福島県,大沼郡昭和村,大字大芦字八反田４番地の１,00120422,07,446,9680214,,,2025-09-02,清算の結了等,,,2020-08-06,1,,,,,,0
1343,5430001063130,登記記録の閉鎖等,0,2025-09-12,2025-08-29,株式会社蓮正社セレモニー,,株式会社,北海道,札幌市厚別区,厚別中央五条５丁目５番２２－１０１号,,01,108,0040055,,,2025-08-29,清算の結了等,,,2015-10-05,1,,,,,レンセイシャセレモニー,0
1344,5430001076289,登記記録の閉鎖等,0,2025-09-12,2025-08-27,株式会社ナカイ企画,,株式会社,北海道,恵庭市,柏木町４丁目２番２２号,,01,231,0611423,,,2025-08-27,清算の結了等,,,2018-04-06,1,,,,,ナカイキカク,0
1357,5480001007181,登記記録の閉鎖等,0,2025-09-12,2025-09-11,株式会社アトム,,株式会社,徳島県,海部郡海陽町,中山字石堤１番地１,,36,388,7750305,,,2025-09-11,清算の結了等,,,2015-10-05,1,,,,,アトム,0
1358,5480002007949,登記記録の閉鎖等,0,2025-09-12,2025-09-10,有限会社富川造園,,有限会社,徳島県,小松島市,日開野町字井理守６５番地の１,,36,203,7730010,,,2025-09-10,清算の結了等,,,2015-10-05,1,,,,,トミカワゾウエン,0
1368,6010001093227,登記記録の閉鎖等,0,2025-09-12,2025-08-01,株式会社アイシーティ,,株式会社,東京都,文京区,音羽２丁目１１番１４号,,13,105,1120013,,,2025-08-01,合併による解散等,9010001000072,令和７年８月１日東京都文京区音羽二丁目１１番１４号株式会社アイエスアイ（9010001000072）に合併し解散,2015-10-05,1,,,,,,0
1369,6010001147511,登記記録の閉鎖等,0,2025-09-12,2025-09-02,株式会社銀座マルキーズ,,株式会社,大阪府,大阪市生野区,鶴橋３丁目５番４６号,,27,116,5440031,,,2025-09-02,合併による解散等,8120001018773,令和７年９月１日大阪市生野区鶴橋三丁目５番４６号株式会社正木牧場（8120001018773）に合併し解散,2015-10-05,1,,,,,ギンザマルキーズ,0
1373,6010001233699,登記記録の閉鎖等,0,2025-09-12,2025-09-10,株式会社Ｊｏｕｒｎｅｙ,,株式会社,東京都,千代田区,有楽町１丁目１３番２号第一生命日比谷ファースト１８階,,13,101,1000006,,,2025-09-10,合併による解散等,6180001062909,令和７年９月１日東京都港区港南二丁目１６番７号品川Ｖタワー２３０１号室株式会社ジャパントラストホールディングス（6180001062909）に合併し解散,2023-03-14,1,,,,,ジャーニー,0
1387,6010401164362,登記記録の閉鎖等,0,2025-09-12,2025-08-06,Ｎｉｐｐｏｎ　Ｇｏｌｄ＆Ｃｏｐｐｅｒ株式会社,,株式会社,東京都,港区,麻布台２丁目３番２３号ヒルトップ麻布台９０１,,13,103,1060041,,,2025-08-06,清算の結了等,,,2021-12-14,1,,,,,ニッポンゴールドアンドコッパー,0
1414,6011003009674,登記記録の閉鎖等,0,2025-09-12,2025-08-14,合同会社Ｕｓａ　Ｐｌａｎｎｉｎｇ,,合同会社,東京都,渋谷区,広尾４丁目１番２５－１２０７号,,13,113,1500012,,,2025-08-14,清算の結了等,,,2019-02-14,1,,,,,ウサプランニング,0
1439,6011602012161,登記記録の閉鎖等,0,2025-09-12,2025-09-01,有限会社熊澤謙三事務所,,有限会社,東京都,練馬区,光が丘３丁目８番２－３０６号,,13,120,1790072,,,2025-09-01,清算の結了等,,,2015-10-05,1,,,,,クマザワケンゾウジムショ,0
1441,6011801006402,登記記録の閉鎖等,0,2025-09-12,2025-09-05,株式会社エヌ・オー・アイ,,株式会社,東京都,足立区,東和３丁目１４番２８号,,13,121,1200003,,,2025-09-05,清算の結了等,,,2015-10-05,1,,,,,エヌオーアイ,0
1446,6011802013158,登記記録の閉鎖等,0,2025-09-12,2025-09-08,有限会社山京,,有限会社,東京都,足立区,東和５丁目５番２０号,,13,121,1200003,,,2025-09-08,清算の結了等,,,2015-10-05,1,,,,,ヤマキョウ,0
1453,6013102000200,登記記録の閉鎖等,0,2025-09-12,2025-09-10,有限会社オプチカルプロート,,有限会社,東京都,福生市,北田園２丁目１４番地１０,,13,218,1970005,,,2025-09-10,清算の結了等,,,2015-10-05,1,,,,,オプチカルプロート,0
1455,6013305003470,登記記録の閉鎖等,0,2025-09-12,2025-08-21,一般社団法人日本ビジネスＡＩ検定協会,,その他の設立登記法人,東京都,豊島区,東池袋３丁目１１番９号下総屋ビル６０１号室,,13,116,1700013,,,2025-08-21,清算の結了等,,,2023-05-10,1,,,,,ニホンビジネスエーアイケンテイキョウカイ,0
1457,6020001056208,登記記録の閉鎖等,0,2025-09-12,2025-08-28,コアシステクノロジ株式会社,,株式会社,神奈川県,横浜市中区,野毛町２丁目７８番地５グランデ野毛本通り３０１,,14,104,2310064,,,2025-08-28,清算の結了等,,,2015-10-05,1,,,,,コアシステクノロジ,0
1459,6020001134401,登記記録の閉鎖等,0,2025-09-12,2025-08-25,ｕｃｈｉｎｏ株式会社,,株式会社,神奈川県,横浜市旭区,中沢１丁目６７番１号,,14,112,2410814,,,2025-08-25,清算の結了等,,,2020-01-09,1,,,,,ウチノ,0
1465,6020002007432,登記記録の閉鎖等,0,2025-09-12,2025-08-28,有限会社安斉鉄骨工業,,有限会社,神奈川県,横浜市金沢区,並木３丁目１１番９－１０１号,,14,108,2360005,,,2025-08-28,清算の結了等,,,2015-10-05,1,,,,,アンザイテッコツコウギョウ,0
1466,6020002056421,登記記録の閉鎖等,0,2025-09-12,2025-09-01,有限会社ビーズシステム,,有限会社,神奈川県,横浜市港北区,新横浜３丁目１７番２号友泉新横浜ビル,,14,109,2220033,,,2025-09-01,合併による解散等,7020001015848,令和７年９月１日横浜市港北区新横浜三丁目１７番２号友泉新横浜ビルビーズ情報サービス株式会社（7020001015848）に合併し解散,2015-10-05,1,,,,,ビーズシステム,0
1473,6021005003336,登記記録の閉鎖等,0,2025-09-12,2025-08-27,津久井環境事業協同組合,,その他の設立登記法人,神奈川県,相模原市緑区,青山１０５３番地有限会社津久井興産内,,14,151,2520156,,,2025-08-27,清算の結了等,,,2015-10-05,1,,,,,ツクイカンキョウジギョウ,0
1489,6040001125860,登記記録の閉鎖等,0,2025-09-12,2025-08-28,株式会社ＡｈａＡｇｅｎｔ,,株式会社,東京都,中央区,日本橋茅場町２丁目１６番地６号７０１ＣＱレジデンス茅場町駅前Ｄ－ＳＴＹＬＥ,,13,102,1030025,,,2025-08-28,清算の結了等,,,2022-11-14,1,,,,,アハエージェント,0
1504,6050002029886,登記記録の閉鎖等,0,2025-09-12,2025-09-04,新築リフォーム有限会社コイヌマハウス,,有限会社,茨城県,鉾田市,安房１０６０番地３,,08,234,3111504,,,2025-09-04,清算の結了等,,,2015-10-05,1,,,,,シンチクリフォームコイヌマハウス,0
1510,6080102018472,登記記録の閉鎖等,0,2025-09-12,2025-09-05,有限会社中島家政婦紹介所,,有限会社,静岡県,熱海市,紅葉ガ丘町９番１号,,22,205,4130027,,,2025-09-05,清算の結了等,,,2015-10-05,1,,,,,ナカジマカセイフショウカイジョ,0
1511,6080401024345,登記記録の閉鎖等,0,2025-09-12,2025-09-08,株式会社ＳＯＲＡ企画,,株式会社,静岡県,湖西市,梅田５１３番地の２,,22,221,4310425,,,2025-09-08,清算の結了等,,,2020-06-05,1,,,,,ソラキカク,0
1523,6120001225685,登記記録の閉鎖等,0,2025-09-12,2025-08-29,株式会社フォーリーフ,,株式会社,大阪府,大阪市阿倍野区,相生通２丁目１３番１４号,,27,119,5450033,,,2025-08-29,清算の結了等,,,2019-12-10,1,,,,,フォーリーフ,0
1541,6120002047914,登記記録の閉鎖等,0,2025-09-12,2025-09-01,有限会社エーストラップ,,有限会社,大阪府,豊中市,箕輪２丁目１４番６号メゾンエアポート１０３,,27,203,5600035,,,2025-09-01,清算の結了等,,,2015-10-05,1,,,,,エーストラップ,0
1555,6120903004765,登記記録の閉鎖等,0,2025-09-12,2025-09-03,合同会社ジェイエスエイチエー,,合同会社,大阪府,吹田市,五月が丘東６－Ａ６１０,,27,205,5650831,,,2025-09-03,清算の結了等,,,2023-08-04,1,,,,,ジェイエスエイチエー,0
1556,6130001015879,登記記録の閉鎖等,0,2025-09-12,2025-09-03,桃山ポリ株式会社,,株式会社,京都府,京都市伏見区,桃山南大島町６７番地の４３,,26,109,6128017,,,2025-09-03,清算の結了等,,,2015-10-05,1,,,,,モモヤマポリ,0
1565,6130002017833,登記記録の閉鎖等,0,2025-09-12,2025-09-02,有限会社京都システムプロデユース,,有限会社,京都府,京都市中京区,壬生相合町１３番地３５サーパス四条大宮３０３号,,26,104,6048812,,,2025-09-02,清算の結了等,,,2015-10-05,1,,,,,キョウトシステムプロデユース,0
1582,6180001030849,登記記録の閉鎖等,0,2025-09-12,2025-08-29,株式会社正高社,,株式会社,愛知県,名古屋市中村区,鈍池町３丁目１１９番地,,23,105,4530826,,,2025-08-29,清算の結了等,,,2015-10-05,1,,,,,セイコウシャ,0
1589,6180002047677,登記記録の閉鎖等,0,2025-09-12,2025-08-29,有限会社ナリック,,有限会社,愛知県,名古屋市西区,名西２丁目３８番２１号ポレスターセントラルシティ名西弐番館３０８号,,23,104,4510064,,,2025-08-29,清算の結了等,,,2015-10-05,1,,,,,ナリック,0
1595,6180302001301,登記記録の閉鎖等,0,2025-09-12,2025-09-01,有限会社栄塗工,,有限会社,愛知県,岡崎市,戸崎町字牛転１０番地１,,23,202,4440840,,,2025-09-01,清算の結了等,,,2015-10-05,1,,,,,サカエトコウ,0
1602,6220001001845,登記記録の閉鎖等,0,2025-09-12,2025-09-09,株式会社叶商会,,株式会社,石川県,金沢市,中村町１０番２７号,,17,201,9218022,,,2025-09-09,清算の結了等,,,2015-10-05,1,,,,,カノウショウカイ,0
1616,6280002007547,登記記録の閉鎖等,0,2025-09-12,2025-09-11,有限会社大谷牧場,,有限会社,島根県,大田市,朝山町朝倉７３１番地,,32,205,6992213,,,2025-09-11,清算の結了等,,,2015-10-05,1,,,,,,0
1635,6410002009067,登記記録の閉鎖等,0,2025-09-12,2025-09-09,有限会社小松商店,,有限会社,秋田県,大館市,中道１丁目８番３２号,,05,204,0170045,,,2025-09-09,清算の結了等,,,2015-10-05,1,,,,,コマツショウテン,0
1643,6430002014528,登記記録の閉鎖等,0,2025-09-12,2025-08-28,有限会社ナカヒロ北海道,00089163,有限会社,北海道,札幌市豊平区,月寒西一条４丁目２番３６号,,01,105,0620021,,,2025-08-28,清算の結了等,,,2015-10-05,1,,,,,ナカヒロホッカイドウ,0
1668,7010001235265,登記記録の閉鎖等,0,2025-09-12,2025-08-18,アセットパートナーズシステム株式会社,,株式会社,東京都,千代田区,大手町１丁目５－１大手町ファーストスクエアイーストタワー４Ｆ,,13,101,1000004,,,2025-08-18,清算の結了等,,,2023-05-16,1,,,,,アセットパートナーズシステム,0
1677,7010003031811,登記記録の閉鎖等,0,2025-09-12,2025-08-29,合同会社Ａｄｄｅｄ　ｖａｌｕｅ,,合同会社,東京都,中央区,日本橋室町１丁目１１番２号二葉ビル５階,,13,102,1030022,,,2025-08-29,清算の結了等,,,2020-03-06,1,,,,,アディドバリュー,0
1696,7010502016189,登記記録の閉鎖等,0,2025-09-12,2025-09-03,永生有限会社,,有限会社,東京都,台東区,元浅草３丁目６番２－６０３号,,13,106,1110041,,,2025-09-03,清算の結了等,,,2015-10-05,1,,,,,エイセイ,0
1701,7010701046202,登記記録の閉鎖等,0,2025-09-12,2025-09-01,ベニー商事株式会社,,株式会社,東京都,品川区,西大井４丁目１３番１２号,,13,109,1400015,,,2025-09-01,合併による解散等,4010701038276,令和７年９月１日東京都品川区西大井四丁目１３番１２号スリー株式会社（4010701038276）に合併し解散,2024-07-04,1,,,,,ベニーショウジ,0
1712,7010905003445,登記記録の閉鎖等,0,2025-09-12,2025-08-29,上北沢一般社団法人,,その他の設立登記法人,東京都,千代田区,神田小川町３丁目２６番８号神田小川町三丁目ビル６階,,13,101,1010052,,,2025-08-29,清算の結了等,,,2017-08-17,1,,,,,カミキタザワ,0
1715,7011001163976,登記記録の閉鎖等,0,2025-09-12,2025-08-08,株式会社目黒エンジニアリングコンサルタンツ,,株式会社,東京都,目黒区,下目黒４丁目１６番１号,,13,110,1530064,,,2025-08-08,清算の結了等,,,2024-10-03,1,,,,,メグロエンジニアリングコンサルタンツ,0
1733,7011401024704,登記記録の閉鎖等,0,2025-09-12,2025-09-09,アトミック株式会社,,株式会社,東京都,台東区,浅草橋１丁目３番１１号,,13,106,1110053,,,2025-09-09,合併による解散等,4030001002633,令和７年９月１日埼玉県川越市芳野台二丁目８番地４０株式会社弘輝テック（4030001002633）に合併し解散,2022-11-18,1,,,,,アトミック,0
1737,7011601017202,登記記録の閉鎖等,0,2025-09-12,2025-09-02,株式会社ジョイノ,,株式会社,東京都,練馬区,関町北５丁目１６番１－１１７号,,13,120,1770051,,,2025-09-02,清算の結了等,,,2015-10-05,1,,,,,,0
1757,7020001084918,登記記録の閉鎖等,0,2025-09-12,2025-08-25,株式会社レティシア,,株式会社,神奈川県,横浜市鶴見区,諏訪坂１３番２５号コーポ時枝３０３号室,,14,101,2300014,,,2025-08-25,清算の結了等,,,2015-10-05,1,,,,,レティシア,0
1759,7020003014848,登記記録の閉鎖等,0,2025-09-12,2025-08-28,合同会社Ａ＆Ｐ　Ｃｏｎｓｕｌｔａｎｔ,,合同会社,神奈川県,横浜市港北区,新横浜３丁目７番１８－５０１号,,14,109,2220033,,,2025-08-28,清算の結了等,,,2018-09-05,1,,,,,エイアンドピーコンサルタント,0
1768,7030001132989,登記記録の閉鎖等,0,2025-09-12,2025-09-04,ｅｓｐｌｕｓ　ｄｅｓｉｇｎ株式会社,,株式会社,埼玉県,さいたま市見沼区,大字御蔵１２２７－５,,11,104,3370033,,,2025-09-04,清算の結了等,,,2019-09-27,1,,,,,エスプラスデザイン,0
1770,7030001148366,登記記録の閉鎖等,0,2025-09-12,2025-09-03,株式会社りばすとエステート,,株式会社,埼玉県,さいたま市西区,西大宮３丁目１０番地８,,11,101,3310078,,,2025-09-03,清算の結了等,,,2022-05-25,1,,,,,リバストエステート,0
1789,7050001033962,登記記録の閉鎖等,0,2025-09-12,2025-09-03,株式会社アイビーワーク,,株式会社,茨城県,稲敷郡阿見町,大字塙７８１,,08,443,3000321,,,2025-09-03,清算の結了等,,,2015-10-05,1,,,,,アイビーワーク,0
1792,7050001041924,登記記録の閉鎖等,0,2025-09-12,2025-09-04,樹葬祭株式会社,,株式会社,茨城県,水戸市,上水戸１丁目３番８号,,08,201,3100041,,,2025-09-04,清算の結了等,,,2016-12-07,1,,,,,ジュソウサイ,0
1799,7060001011273,登記記録の閉鎖等,0,2025-09-12,2025-09-08,株式会社シンエイ企画,,株式会社,広島県,廿日市市,宮島口２丁目２番２３－２０５号,,34,213,7390411,,,2025-09-08,清算の結了等,,,2015-10-05,1,,,,,シンエイキカク,0
1804,7080102020543,登記記録の閉鎖等,0,2025-09-12,2025-09-08,有限会社浜や,,有限会社,静岡県,伊東市,川奈９２７番地の２,,22,208,4140044,,,2025-09-08,清算の結了等,,,2015-10-05,1,,,,,ハマヤ,0
1809,7090005002217,登記記録の閉鎖等,0,2025-09-12,2025-09-03,特定非営利活動法人ワーカーズコープおてっと,,その他の設立登記法人,山梨県,甲斐市,中下条１８５８番地,,19,210,4000124,,,2025-09-03,清算の結了等,,,2015-10-05,1,,,,,ワーカーズコープオテット,0
1810,7120001006366,登記記録の閉鎖等,0,2025-09-12,2025-09-02,株式会社宝鏡,,株式会社,大阪府,大阪市阿倍野区,三明町１丁目８番２４号,,27,119,5450005,,,2025-09-02,清算の結了等,,,2015-10-05,1,,,,,タカラカガミ,0
1835,7130001046700,登記記録の閉鎖等,0,2025-09-12,2025-09-03,株式会社伍八山椒堂,,株式会社,京都府,京都市伏見区,深草稲荷御前町６８,,26,109,6120881,,,2025-09-03,清算の結了等,,,2015-10-05,1,,,,,ゴハチサンショウドウ,0
1836,7130001049067,登記記録の閉鎖等,0,2025-09-12,2025-09-04,株式会社染のさきら,,株式会社,京都府,京都市左京区,一乗寺塚本町３１－４,00131873,26,103,6068176,,,2025-09-04,清算の結了等,,,2015-10-05,1,,,,,ソメノサキラ,0
1837,7130001059784,登記記録の閉鎖等,0,2025-09-12,2025-09-03,株式会社伍八堂フードシステム,,株式会社,京都府,京都市伏見区,深草稲荷御前町６８,,26,109,6120881,,,2025-09-03,清算の結了等,,,2017-05-15,1,,,,,ゴハチドウフードシステム,0
1840,7130002013245,登記記録の閉鎖等,0,2025-09-12,2025-09-03,有限会社井辻コーポレーション,00037381,有限会社,京都府,京都市伏見区,深草西浦町１丁目１０番地の３ロイヤル深草７０７号,,26,109,6120029,,,2025-09-03,清算の結了等,,,2015-10-05,1,,,,,,0
1848,7140001117442,登記記録の閉鎖等,0,2025-09-12,2025-09-08,株式会社ａｎｄ．,,株式会社,兵庫県,神戸市中央区,栄町通５丁目１番１号,,28,110,6500023,,,2025-09-08,清算の結了等,,,2020-05-25,1,,,,,アンドドット,0
1854,7170001005594,登記記録の閉鎖等,0,2025-09-12,2025-09-11,株式会社ＷＲ,,株式会社,和歌山県,和歌山市,布施屋２２０番地,,30,201,6496321,,,2025-09-11,清算の結了等,,,2015-10-05,1,,,,,ダブリューアール,0
1869,7190001010832,登記記録の閉鎖等,0,2025-09-12,2025-09-04,門山印刷工業株式会社,,株式会社,三重県,多気郡明和町,大字有爾中１２４３番地の１１０,,24,442,5150316,,,2025-09-04,清算の結了等,,,2015-10-05,1,,,,,カドヤマインサツコウギョウ,0
1873,7190002017645,登記記録の閉鎖等,0,2025-09-12,2025-09-03,有限会社ファミリーショップ・イトウ,,有限会社,三重県,桑名郡木曽岬町,大字西対海地２６０番地の４,,24,303,4980807,,,2025-09-03,清算の結了等,,,2015-10-05,1,,,,,,0
1886,7240005002845,登記記録の閉鎖等,0,2025-09-12,2025-09-11,特定非営利活動法人キラリ会,,その他の設立登記法人,広島県,広島市安佐北区,可部６丁目２０番６号,,34,106,7310221,,,2025-09-11,清算の結了等,,,2015-10-05,1,,,,,,0
1892,7280005004714,登記記録の閉鎖等,0,2025-09-12,2025-09-10,農事組合法人伊木いき区田,,その他の設立登記法人,島根県,浜田市,金城町七条ロ４１５番地１８,,32,202,6970123,,,2025-09-10,清算の結了等,,,2015-10-05,1,,,,,イキイキクデン,0
1899,7290003005119,登記記録の閉鎖等,0,2025-09-12,2025-09-04,合同会社ＳＥＥＫ,,合同会社,鹿児島県,奄美市,名瀬大字浦上１１２７番地７シェトワ浦上３０２,,46,222,8940008,,,2025-09-04,清算の結了等,,,2015-10-05,1,,,,,シーク,0
1903,7290801001483,登記記録の閉鎖等,0,2025-09-12,2025-09-08,小倉商運株式会社,,株式会社,福岡県,北九州市小倉北区,浅野３丁目７番５０号,,40,106,8020001,,,2025-09-08,清算の結了等,,,2015-10-05,1,,,,,コクラショウウン,0
1912,7370005003021,登記記録の閉鎖等,0,2025-09-12,2025-09-01,一般社団法人ユニ・デ・グラン,,その他の設立登記法人,宮城県,仙台市青葉区,大町１丁目３番２号,,04,101,9800804,,,2025-09-01,清算の結了等,,,2015-10-05,1,,,,,ユニデグラン,0
1925,7430001084455,登記記録の閉鎖等,0,2025-09-12,2025-09-01,株式会社イーエスジーマネージメント,,株式会社,北海道,札幌市中央区,南八条西２２丁目４番１０号,,01,101,0640808,,,2025-09-01,合併による解散等,4430001058635,令和７年８月３１日北海道石狩市新港南三丁目７０３番３４合同会社ＥＳＧ（4430001058635）に合併し解散,2021-07-06,1,,,,,イーエスジーマネージメント,0
1933,7480002006395,登記記録の閉鎖等,0,2025-09-12,2025-09-10,有限会社鴨川建設,,有限会社,徳島県,徳島市,安宅３丁目３番８号,,36,201,7700863,,,2025-09-10,清算の結了等,,,2015-10-05,1,,,,,カモガワケンセツ,0
1934,7480002008565,登記記録の閉鎖等,0,2025-09-12,2025-09-09,有限会社第一インテリア,,有限会社,徳島県,徳島市,安宅２丁目５番２３号,,36,201,7700863,,,2025-09-09,清算の結了等,,,2015-10-05,1,,,,,ダイイチインテリア,0
1939,8010001135068,登記記録の閉鎖等,0,2025-09-12,2025-09-01,株式会社ティーエスシー,,株式会社,東京都,中央区,築地２丁目１０番６号,,13,102,1040045,,,2025-09-01,清算の結了等,,,2015-10-05,1,,,,,ティーエスシー,0
1951,8010003044770,登記記録の閉鎖等,0,2025-09-12,2025-08-27,香杏堂漢方薬局合同会社,,合同会社,東京都,中央区,日本橋室町１丁目１１番１２号日本橋水野ビル７階,,13,102,1030022,,,2025-08-27,清算の結了等,,,2024-08-30,1,,,,,コウアンドウカンポウヤッキョク,0
1971,8011003009202,登記記録の閉鎖等,0,2025-09-12,2025-08-13,合同会社プライムラック,,合同会社,東京都,渋谷区,恵比寿１丁目１５－９－４０３,,13,113,1500013,,,2025-08-13,清算の結了等,,,2018-09-27,1,,,,,プライムラック,0
1973,8011101047863,登記記録の閉鎖等,0,2025-09-12,2025-08-21,株式会社エム・エープランニング,,株式会社,東京都,新宿区,大久保１丁目１２番６号,,13,104,1690072,,,2025-08-21,清算の結了等,,,2015-10-05,1,,,,,エムエープランニング,0
1982,8011103010539,登記記録の閉鎖等,0,2025-09-12,2025-08-21,合同会社ＫＡＭＩＫＡＺＥ,,合同会社,東京都,新宿区,百人町１丁目１１番２５号,,13,104,1690073,,,2025-08-21,清算の結了等,,,2021-04-01,1,,,,,カミカゼ,0
1991,8011601002228,登記記録の閉鎖等,0,2025-09-12,2025-09-02,株式会社興和建設,,株式会社,東京都,練馬区,富士見台４丁目１４番１号,,13,120,1770034,,,2025-09-02,清算の結了等,,,2015-10-05,1,,,,,コウワケンセツ,0
1993,8011602000098,登記記録の閉鎖等,0,2025-09-12,2025-09-01,有限会社アトリエ・紘,,有限会社,東京都,練馬区,下石神井５丁目４番１１号,,13,120,1770042,,,2025-09-01,清算の結了等,,,2015-10-05,1,,,,,アトリエコウ,0
1998,8011801002894,登記記録の閉鎖等,0,2025-09-12,2025-09-08,田辺株式会社,,株式会社,東京都,葛飾区,鎌倉４丁目１７番１１号,,13,122,1250053,,,2025-09-08,清算の結了等,,,2015-10-05,1,,,,,タナベ,0
2024,8020001153416,登記記録の閉鎖等,0,2025-09-12,2025-09-01,株式会社ＪＱＳホールディングス,,株式会社,神奈川県,横浜市港南区,大久保１丁目１８－４荒川ビル２階,,14,111,2330007,,,2025-09-01,合併による解散等,9020001130892,令和７年８月３１日横浜市神奈川区鶴屋町３－３５－１０リーヴ横浜西口ビル６階株式会社スマートハウジング（9020001130892）に合併し解散,2023-09-08,1,,,,,ジェイキューエスホールディングス,0
2051,8030003018921,登記記録の閉鎖等,0,2025-09-12,2025-09-04,リスタ合同会社,,合同会社,埼玉県,和光市,新倉２丁目２８番２９号,,11,229,3510115,,,2025-09-04,清算の結了等,,,2022-02-25,1,,,,,リスタ,0
2057,8040001088206,登記記録の閉鎖等,0,2025-09-12,2025-08-20,央製パン株式会社,,株式会社,千葉県,流山市,中３０７番地の３,,12,220,2700153,,,2025-08-20,清算の結了等,,,2015-10-05,1,,,,,ナカセイパン,0
2068,8070001010728,登記記録の閉鎖等,0,2025-09-12,2025-09-03,株式会社カインズ総合保険サービス,,株式会社,埼玉県,本庄市,早稲田の杜１丁目２番１号,,11,211,3670030,,,2025-09-03,清算の結了等,,,2015-10-05,1,,,,,カインズソウゴウホケンサービス,0
2072,8080001025634,登記記録の閉鎖等,0,2025-09-12,2025-09-08,株式会社Ｄｆｕｎ,,株式会社,静岡県,静岡市駿河区,手越原２３６番地の１,,22,102,4210131,,,2025-09-08,清算の結了等,,,2023-05-23,1,,,,,ディーファン,0
2089,8110002022692,登記記録の閉鎖等,0,2025-09-12,2025-09-01,有限会社酒井硝子店,,有限会社,新潟県,上越市,安江１丁目６番１号,,15,222,9420041,,,2025-09-01,清算の結了等,,,2015-10-05,1,,,,,サカイガラステン,0
2096,8120001103170,登記記録の閉鎖等,0,2025-09-12,2025-09-03,ジェイシーエーインターナショナル株式会社,,株式会社,大阪府,大阪市西区,立売堀１丁目１２番１４号,,27,106,5500012,,,2025-09-03,清算の結了等,,,2015-10-05,1,,,,,ジェイシーエーインターナショナル,0
2116,8120101047094,登記記録の閉鎖等,0,2025-09-12,2025-09-01,株式会社第一建材,,株式会社,大阪府,泉佐野市,りんくう往来南５番地の１０,,27,213,5980047,,,2025-09-01,清算の結了等,,,2015-10-05,1,,,,,ダイイチケンザイ,0
2138,8140001076398,登記記録の閉鎖等,0,2025-09-12,2025-09-05,株式会社西谷工務店,,株式会社,兵庫県,加西市,鎮岩町２２０番地,,28,220,6752332,,,2025-09-05,清算の結了等,,,2015-10-05,1,,,,,ニシタニコウムテン,0
2194,8320005005839,登記記録の閉鎖等,0,2025-09-12,2025-09-02,特定非営利活動法人全国いじめ被害者の会,,その他の設立登記法人,大分県,佐伯市,内町２番３０号,,44,205,8760845,,,2025-09-02,清算の結了等,,,2015-10-05,1,,,,,ゼンコクイジメヒガイシャノカイ,0
2204,8360001010657,登記記録の閉鎖等,0,2025-09-12,2025-09-05,株式会社シー・シー・ダブル琉球,,株式会社,沖縄県,宜野湾市,志真志３丁目８番７号,,47,205,9012213,,,2025-09-05,清算の結了等,,,2015-10-05,1,,,,,シーシーダブルリュウキュウ,0
2208,8370001045702,登記記録の閉鎖等,0,2025-09-12,2025-08-28,株式会社しまなみ工業,,株式会社,宮城県,多賀城市,東田中１丁目１６番１５号,,04,209,9850863,,,2025-08-28,清算の結了等,,,2020-05-01,1,,,,,シマナミコウギョウ,0
2213,8380002001851,登記記録の閉鎖等,0,2025-09-12,2025-09-02,有限会社鈴木測量事務所,,有限会社,福島県,福島市,森合字川前２１番地の５,,07,201,9608003,,,2025-09-02,清算の結了等,,,2015-10-05,1,,,,,スズキソクリョウジムショ,0
2226,8450002013096,登記記録の閉鎖等,0,2025-09-12,2025-09-08,有限会社白辰水産,,有限会社,北海道,紋別市,北浜町３丁目２番２０号,,01,219,0940001,,,2025-09-08,清算の結了等,,,2015-10-05,1,,,,,ハクシンスイサン,0
2228,8470001002577,登記記録の閉鎖等,0,2025-09-12,2025-09-10,株式会社大日食品,,株式会社,香川県,高松市,屋島西町２４８６番地１,,37,201,7610113,,,2025-09-10,清算の結了等,,,2015-10-05,1,,,,,ダイニチショクヒン,0
2242,9010001199343,登記記録の閉鎖等,0,2025-09-12,2025-09-02,ＡＣＧ　ＳＴＡＲ株式会社,,株式会社,東京都,台東区,台東４丁目３１番７号,,13,106,1100016,,,2025-09-02,清算の結了等,,,2019-03-19,1,,,,,エイシージースター,0
2246,9010005035585,登記記録の閉鎖等,0,2025-09-12,2025-08-27,ジャパン・ロジスティクス・デベロップメント１特定目的会社,,その他の設立登記法人,東京都,中央区,日本橋１丁目４番１号日本橋一丁目ビルディング,,13,102,1030027,,,2025-08-27,清算の結了等,,,2022-09-22,1,,,,,ジャパンロジスティクスデベロップメントワン,0
2250,9010102006340,登記記録の閉鎖等,0,2025-09-12,2025-09-09,有限会社マイクロ・デバッグ,,有限会社,東京都,八王子市,大和田町５丁目１８番１５号,,13,201,1920045,,,2025-09-09,清算の結了等,,,2015-10-05,1,,,,,マイクロデバッグ,0
2251,9010102007545,登記記録の閉鎖等,0,2025-09-12,2025-09-10,有限会社リビングトップ,,有限会社,東京都,八王子市,鑓水１６１６番地,,13,201,1920375,,,2025-09-10,清算の結了等,,,2015-10-05,1,,,,,リビングトップ,0
2282,9011103011288,登記記録の閉鎖等,0,2025-09-12,2025-08-15,プログレッション・エネルギー・日本合同会社,,合同会社,東京都,新宿区,中井２丁目１１番５号,,13,104,1610035,,,2025-08-15,清算の結了等,,,2021-12-16,1,,,,,プログレッションエネルギーニホン,0
2300,9020001034284,登記記録の閉鎖等,0,2025-09-12,2025-08-27,ベル・ウェイ株式会社,,株式会社,神奈川県,横浜市旭区,本宿町８６番地１,,14,112,2410023,,,2025-08-27,清算の結了等,,,2015-10-05,1,,,,,ベルウェイ,0
2309,9021002014317,登記記録の閉鎖等,0,2025-09-12,2025-09-08,有限会社かねだ,,有限会社,神奈川県,鎌倉市,西鎌倉１丁目１７番４号,,14,204,2480035,,,2025-09-08,清算の結了等,,,2015-10-05,1,,,,,カネダ,0
2310,9021002049916,登記記録の閉鎖等,0,2025-09-12,2025-09-09,有限会社インテリアあすなろ,,有限会社,神奈川県,足柄下郡湯河原町,中央２丁目６番地７,,14,384,2590301,,,2025-09-09,清算の結了等,,,2015-10-05,1,,,,,インテリアアスナロ,0
2328,9040001001803,登記記録の閉鎖等,0,2025-09-12,2025-08-26,株式会社キャピタル通商,,株式会社,千葉県,千葉市中央区,末広１丁目１７番１号,,12,101,2600843,,,2025-08-26,清算の結了等,,,2015-10-05,1,,,,,キャピタルツウショウ,0
2341,9060002021625,登記記録の閉鎖等,0,2025-09-12,2025-09-08,有限会社オカダ総合保険,,有限会社,栃木県,鹿沼市,樅山町４１８番地２１,,09,205,3220046,,,2025-09-08,清算の結了等,,,2015-10-05,1,,,,,オカダソウゴウホケン,0
2342,9070001017243,登記記録の閉鎖等,0,2025-09-12,2025-09-01,シーシーエス販売株式会社,,株式会社,東京都,千代田区,霞が関３丁目２番５号,,13,101,1000013,,,2025-09-01,清算の結了等,,,2015-10-05,1,,,,,シーシーエスハンバイ,0
2346,9080002003778,登記記録の閉鎖等,0,2025-09-12,2025-09-09,有限会社田畑左官店,,有限会社,静岡県,静岡市駿河区,広野６丁目１６番２５号,,22,102,4210121,,,2025-09-09,清算の結了等,,,2015-10-05,1,,,,,タバタサカンテン,0
2353,9080405006048,登記記録の閉鎖等,0,2025-09-12,2025-08-29,中遠織物協同組合,,その他の設立登記法人,静岡県,袋井市,大野３６２０番地,,22,216,4371112,,,2025-08-29,清算の結了等,,,2015-10-05,1,,,,,チュウエンオリモノ,0
2358,9110002032014,登記記録の閉鎖等,0,2025-09-12,2025-08-28,有限会社Ｍ保険企画,,有限会社,新潟県,見附市,本所１丁目１０番２４号,,15,211,9540051,,,2025-08-28,清算の結了等,,,2015-10-05,1,,,,,エムホケンキカク,0
2364,9120001247371,登記記録の閉鎖等,0,2025-09-12,2025-09-01,ハートケアウィングス株式会社,,株式会社,大阪府,大阪市阿倍野区,阿倍野筋１丁目１番４３号あべのハルカス３１Ｆ,,27,119,5450052,,,2025-09-01,清算の結了等,,,2022-07-19,1,,,,,ハートケアウィングス,0
2378,9120102001702,登記記録の閉鎖等,0,2025-09-12,2025-09-02,有限会社倖成産業,,有限会社,大阪府,堺市北区,長曽根町６３８番地,,27,146,5918025,,,2025-09-02,清算の結了等,,,2015-10-05,1,,,,,コウセイサンギョウ,0
2380,9120902019448,登記記録の閉鎖等,0,2025-09-12,2025-09-05,有限会社英建装,,有限会社,大阪府,豊中市,走井２丁目２番３号,,27,203,5610891,,,2025-09-05,清算の結了等,,,2015-10-05,1,,,,,ハナブサケンソウ,0
2381,9122001028297,登記記録の閉鎖等,0,2025-09-12,2025-08-29,株式会社ユー・ケンメンテナンス,,株式会社,大阪府,大東市,諸福４丁目１番４０号,,27,218,5740044,,,2025-08-29,清算の結了等,,,2015-10-05,1,,,,,ユーケンメンテナンス,0
2414,9180302020257,登記記録の閉鎖等,0,2025-09-12,2025-09-01,有限会社丸賀,,有限会社,愛知県,碧南市,大浜上町２丁目４６番地の２,,23,209,4470857,,,2025-09-01,清算の結了等,,,2015-10-05,1,,,,,マルガ,0
2419,9230001000447,登記記録の閉鎖等,0,2025-09-12,2025-09-01,株式会社エムテーランチ,,株式会社,富山県,富山市,上赤江町１丁目４番３０号,,16,201,9300816,,,2025-09-01,合併による解散等,6230001002289,令和７年９月１日富山市上赤江町一丁目８番１３号日本海給食株式会社（6230001002289）に合併し解散,2015-10-05,1,,,,,エムテーランチ,0
2434,9300003001436,登記記録の閉鎖等,0,2025-09-12,2025-09-08,合同会社ＭＣＣ企画,,合同会社,佐賀県,鳥栖市,弥生が丘１丁目１１－１－１００６,,41,203,8410005,,,2025-09-08,清算の結了等,,,2019-05-27,1,,,,,エムシーシーキカク,0
2442,9360003006173,登記記録の閉鎖等,0,2025-09-12,2025-09-04,合同会社プライムゾーン,,合同会社,沖縄県,那覇市,首里桃原町２丁目４７番地,,47,201,9030822,,,2025-09-04,清算の結了等,,,2015-10-05,1,,,,,プライムゾーン,0
2447,9370002019043,登記記録の閉鎖等,0,2025-09-12,2025-08-29,有限会社ニューインドインターナショナル,,有限会社,宮城県,仙台市青葉区,立町２４番２３ライオンズマンション４０１,,04,101,9800822,,,2025-08-29,清算の結了等,,,2015-10-05,1,,,,,ニューインドインターナショナル,0
2461,9430001031356,登記記録の閉鎖等,0,2025-09-12,2025-08-29,株式会社広積,,株式会社,北海道,札幌市北区,太平十条４丁目５番１３号,,01,102,0028010,,,2025-08-29,清算の結了等,,,2015-10-05,1,,,,,ヒロセキ,0
2462,9430001082449,登記記録の閉鎖等,0,2025-09-12,2025-08-28,コアシススタッフ株式会社,,株式会社,神奈川県,横浜市中区,野毛町２丁目７８番地５グランデ野毛本通り３０１,,14,104,2310064,,,2025-08-28,清算の結了等,,,2020-10-07,1,,,,,コアシススタッフ,0
2466,9460302003308,登記記録の閉鎖等,0,2025-09-12,2025-09-10,有限会社いとう,,有限会社,北海道,常呂郡佐呂間町,字西富９２番地の４,,01,552,0930504,,,2025-09-10,清算の結了等,,,2015-10-05,1,,,,,イトウ,0
2467,9470002019116,登記記録の閉鎖等,0,2025-09-12,2025-09-09,有限会社三木宏工務店,,有限会社,香川県,小豆郡土庄町,黒岩４８１番地１,,37,322,7614152,,,2025-09-09,清算の結了等,,,2015-10-05,1,,,,,ミキヒロシコウムテン,0
2468,9480002001741,登記記録の閉鎖等,0,2025-09-12,2025-09-09,有限会社コスモタウン近藤,,有限会社,徳島県,徳島市,八万町橋本１９３番地,,36,201,7708078,,,2025-09-09,清算の結了等,,,2015-10-05,1,,,,,コスモタウンコンドウ,0
