sequenceNumber,corporateNumber,process,correct,updateDate,changeDate,name,nameImageId,kind,prefectureName,cityName,streetNumber,addressImageId,prefectureCode,cityCode,postCode,addressOutside,addressOutsideImageId,closeDate,closeCause,successorCorporateNumber,changeCause,assignmentDate,latest,enName,enPrefectureName,enCityName,enAddressOutside,furigana,hihyoji
9,1010001223473,新規,0,2021-12-28,2021-12-28,株式会社Ｄｒ．つるかめキッチン,,株式会社,東京都,千代田区,神田司町２丁目１３番地神田第４アメレックスビル（ワイムビジネスプラザ神田内）,,13,101,1010048,,,,,,,2021-12-28,1,,,,,ドクターツルカメキッチン,0
10,1010001223507,新規,0,2021-12-28,2021-12-28,株式会社Ｇｒａｐｈｉｃ　Ｍａｇｉｃ,,株式会社,東京都,千代田区,麹町２丁目１２－１３,,13,101,1020083,,,,,,,2021-12-28,1,,,,,グラフィックマジック,0
11,1010001223531,新規,0,2021-12-28,2021-12-28,株式会社ウィック,,株式会社,東京都,中央区,月島１丁目５番１号,,13,102,1040052,,,,,,,2021-12-28,1,,,,,ウィック,0
15,1010005034347,新規,0,2021-12-28,2021-12-28,一般社団法人日本メタバース協会,,その他の設立登記法人,東京都,中央区,日本橋茅場町２丁目９－８,,13,102,1030025,,,,,,,2021-12-28,1,,,,,ニホンメタバースキョウカイ,0
22,1010403026805,新規,0,2021-12-28,2021-12-28,合同会社ｅｎｓｉａ,,合同会社,東京都,港区,南青山２丁目２番１５号ウィン青山１２１４号,,13,103,1070062,,,,,,,2021-12-28,1,,,,,エンシア,0
28,1010701041984,新規,0,2021-12-28,2021-12-28,Ａｎｄ　Ｃｒｅａｔｏｒ株式会社,,株式会社,東京都,品川区,小山５丁目８番１３号アルビレオ１０１,,13,109,1420062,,,,,,,2021-12-28,1,,,,,アンドクリエイター,0
40,1011001144833,新規,0,2021-12-28,2021-12-28,株式会社藤翠,,株式会社,東京都,渋谷区,神宮前６丁目３２番５号ドルミ原宿１０１号,,13,113,1500001,,,,,,,2021-12-28,1,,,,,トウスイ,0
49,1011501027604,新規,0,2021-12-28,2021-12-28,翰翔国際株式会社,,株式会社,東京都,北区,王子本町２丁目９番８号,,13,117,1140022,,,,,,,2021-12-28,1,,,,,カンショウコクサイ,0
54,1011801040109,新規,0,2021-12-28,2021-12-28,株式会社内田商店,,株式会社,東京都,葛飾区,西水元６丁目３番８号,,13,122,1250031,,,,,,,2021-12-28,1,,,,,ウチダショウテン,0
58,1012403005169,新規,0,2021-12-28,2021-12-28,合同会社エス・ケイ・コーポレーション,,合同会社,東京都,多摩市,鶴牧３丁目１３番５グリーンメゾン鶴牧４０１,,13,224,2060034,,,,,,,2021-12-28,1,,,,,エスケイコーポレーション,0
59,1012403005177,新規,0,2021-12-28,2021-12-28,ｍｓｔ－ｔｒａｄｉｎｇ合同会社,,合同会社,東京都,調布市,深大寺元町４丁目２７番地６セジュール深大１０１,,13,208,1820017,,,,,,,2021-12-28,1,,,,,エムエスティトレーディング,0
62,1013101008810,新規,0,2021-12-28,2021-12-28,株式会社大栄商会,,株式会社,東京都,青梅市,根ヶ布２丁目１３７０番地の５５,,13,205,1980004,,,,,,,2021-12-28,1,,,,,ダイエイショウカイ,0
65,1013301048482,新規,0,2021-12-28,2021-12-28,株式会社ＲＥＡＺＮ,,株式会社,東京都,豊島区,南大塚３丁目５０番１号ウィンド大塚ビル３階,,13,116,1700005,,,,,,,2021-12-28,1,,,,,リーズン,0
66,1013301048490,新規,0,2021-12-28,2021-12-28,株式会社Ａｓｒｏｎｉ,,株式会社,東京都,豊島区,東池袋１丁目３４番５号いちご東池袋ビル６階,,13,116,1700013,,,,,,,2021-12-28,1,,,,,アスロニ,0
67,1013303005969,新規,0,2021-12-28,2021-12-28,後藤ソリューション合同会社,,合同会社,東京都,豊島区,南大塚２丁目４０番１－３０７号,,13,116,1700005,,,,,,,2021-12-28,1,,,,,ゴトウソリューション,0
70,1020001144520,新規,0,2021-12-28,2021-12-28,モーリーズジャパンプロモーション株式会社,,株式会社,神奈川県,横浜市鶴見区,鶴見中央５丁目２５番１９－２号,,14,101,2300051,,,,,,,2021-12-28,1,,,,,モーリーズジャパンプロモーション,0
71,1020001144529,新規,0,2021-12-28,2021-12-28,株式会社森川工業,,株式会社,神奈川県,横浜市旭区,中白根３丁目２４番１８号,,14,112,2410004,,,,,,,2021-12-28,1,,,,,モリカワコウギョウ,0
75,1030001146086,新規,0,2021-12-28,2021-12-28,株式会社あんおん,,株式会社,埼玉県,三郷市,中央２丁目１４番地２６,,11,237,3410038,,,,,,,2021-12-28,1,,,,,アンオン,0
78,1030003018564,新規,0,2021-12-28,2021-12-28,ＴｒｙＦｏｒ合同会社,,合同会社,埼玉県,川越市,大字南田島８０６番地１アステール川越７０７号室,,11,201,3500027,,,,,,,2021-12-28,1,,,,,トライフォー,0
81,1040001121501,新規,0,2021-12-28,2021-12-28,株式会社ＷｉＶＩＣ,,株式会社,千葉県,船橋市,本中山５丁目７番１－１０９号,,12,204,2730035,,,,,,,2021-12-28,1,,,,,ウィビック,0
82,1040001121518,新規,0,2021-12-28,2021-12-28,株式会社Ｓｙｎｋ,,株式会社,千葉県,習志野市,鷺沼台３丁目１４番３６－１号,,12,216,2750015,,,,,,,2021-12-28,1,,,,,シンク,0
83,1040001121534,新規,0,2021-12-28,2021-12-28,ＳＯＵＬＭＡＮ　Ｍ株式会社,,株式会社,千葉県,野田市,岩名２０２３番地の４１－１０１,,12,208,2780055,,,,,,,2021-12-28,1,,,,,ソーマンエム,0
87,1050001050336,新規,0,2021-12-28,2021-12-28,株式会社鹿島ネクストステージ,,株式会社,茨城県,鹿嶋市,大字泉川２０５５ポートサイド鹿島３０１,,08,222,3140015,,,,,,,2021-12-28,1,,,,,,0
88,1050001050377,新規,0,2021-12-28,2021-12-28,株式会社マークス,,株式会社,茨城県,水戸市,見川２丁目１０８番地２６アーバンテラス一周館Ａ２０７,,08,201,3100912,,,,,,,2021-12-28,1,,,,,マークス,0
90,1060001034420,新規,0,2021-12-28,2021-12-28,株式会社リーエンダ,,株式会社,栃木県,佐野市,赤見町２９２１番地,,09,204,3270104,,,,,,,2021-12-28,1,,,,,リーエンダ,0
91,1060001034429,新規,0,2021-12-28,2021-12-28,金龍株式会社,,株式会社,栃木県,栃木市,樋ノ口町５５８番地１－２０３室,,09,203,3280024,,,,,,,2021-12-28,1,,,,,キンリュウ,0
96,1070001038775,新規,0,2021-12-28,2021-12-28,相馬冷設株式会社,,株式会社,群馬県,太田市,亀岡町６５８番地４,,10,205,3700411,,,,,,,2021-12-28,1,,,,,ソウマレイセツ,0
100,1070003004346,新規,0,2021-12-28,2021-12-28,合同会社深澤企画,,合同会社,群馬県,前橋市,下増田町９４３番地,,10,201,3792113,,,,,,,2021-12-28,1,,,,,フカサワキカク,0
115,1120005022670,新規,0,2021-12-28,2021-12-28,一般社団法人未来設計あんしん家族協会,,その他の設立登記法人,大阪府,大阪市東成区,大今里２丁目２番３号,,27,115,5370012,,,,,,,2021-12-28,1,,,,,ミライセツケイアンシンカゾクキヨウカイ,0
118,1120101064823,新規,0,2021-12-28,2021-12-28,株式会社ＭＫコーポレーション,,株式会社,大阪府,堺市堺区,大浜中町２丁１番６号オリエントハピネス４０５号,,27,141,5900975,,,,,,,2021-12-28,1,,,,,エムケイコーポレーション,0
121,1120103004496,新規,0,2021-12-28,2021-12-28,合同会社ｍａｖｉｅ,,合同会社,大阪府,羽曳野市,栄町８番１０－１３０１号,,27,222,5830853,,,,,,,2021-12-28,1,,,,,マヴィ,0
126,1122001035458,新規,0,2021-12-28,2021-12-28,株式会社ユーパッケージングソリューションズ,,株式会社,大阪府,東大阪市,松原２丁目４番１３号,,27,227,5780922,,,,,,,2021-12-28,1,,,,,ユーパッケージングソリューションズ,0
130,1130001070805,新規,0,2021-12-28,2021-12-28,株式会社ワンダーサロン,,株式会社,京都府,京都市南区,上鳥羽南鉾立町５１番地１,,26,107,6018114,,,,,,,2021-12-28,1,,,,,ワンダーサロン,0
134,1140001124329,新規,0,2021-12-28,2021-12-28,株式会社いなみ野いちご畑,,株式会社,兵庫県,加古郡稲美町,中村１０６７－１,,28,381,6751122,,,,,,,2021-12-28,1,,,,,イナミノイチゴバタケ,0
135,1140001124345,新規,0,2021-12-28,2021-12-28,ＩＮＶＩＣＴＡＳ株式会社,,株式会社,兵庫県,神戸市兵庫区,滝山町７番６２号,,28,105,6520056,,,,,,,2021-12-28,1,,,,,インヴィクタス,0
136,1140001124353,新規,0,2021-12-28,2021-12-28,株式会社Ｄｉｏ,,株式会社,兵庫県,明石市,大久保町大久保町３０５番地の５,,28,203,6740067,,,,,,,2021-12-28,1,,,,,ディオ,0
137,1140001124361,新規,0,2021-12-28,2021-12-28,株式会社華和,,株式会社,兵庫県,神戸市兵庫区,新開地４丁目４番７号,,28,105,6520811,,,,,,,2021-12-28,1,,,,,ハナワ,0
144,1140003017142,新規,0,2021-12-28,2021-12-28,合同会社ＭＴ総研,,合同会社,兵庫県,神戸市東灘区,深江南町１丁目９番３５－６０３号,,28,101,6580022,,,,,,,2021-12-28,1,,,,,エムティーソウケン,0
145,1140003017150,新規,0,2021-12-28,2021-12-28,ＭＹ合同会社,,合同会社,兵庫県,西宮市,上ケ原四番町２番２３号,,28,204,6620894,,,,,,,2021-12-28,1,,,,,マイ,0
146,1140005025960,新規,0,2021-12-28,2021-12-28,一般社団法人姫路市私立こども支援機構,,その他の設立登記法人,兵庫県,姫路市,佃町３８番地,,28,201,6728049,,,,,,,2021-12-28,1,,,,,ヒメジシシリツコドモシエンキコウ,0
148,1160003002456,新規,0,2021-12-28,2021-12-28,ａｍｉｇｏ合同会社,,合同会社,滋賀県,東近江市,八日市上之町５番２２号２Ｆ,,25,213,5270022,,,,,,,2021-12-28,1,,,,,アミーゴ,0
156,1180001149297,新規,0,2021-12-28,2021-12-28,株式会社ＥＣＯ・栄信,,株式会社,愛知県,名古屋市熱田区,大宝１丁目１番１号ヴェルクレート日比野Ａ棟２２０号,,23,109,4560062,,,,,,,2021-12-28,1,,,,,エコエイシン,0
160,1180301035767,新規,0,2021-12-28,2021-12-28,株式会社小島商店,,株式会社,愛知県,豊田市,大多賀町下平１３番地１,,23,211,4442603,,,,,,,2021-12-28,1,,,,,コジマショウテン,0
169,1230003001780,新規,0,2021-12-28,2021-12-28,キューシステム合同会社,,合同会社,富山県,高岡市,高陵町６番３２号,,16,202,9330018,,,,,,,2021-12-28,1,,,,,キューシステム,0
182,1260001036355,新規,0,2021-12-28,2021-12-28,株式会社善ぞう,,株式会社,岡山県,倉敷市,北浜町８番１５－２号,,33,202,7100812,,,,,,,2021-12-28,1,,,,,ゼンゾウ,0
188,1290001095836,新規,0,2021-12-28,2021-12-28,秋山電器株式会社,,株式会社,福岡県,糟屋郡新宮町,大字新宮２７７番地１,,40,345,8110115,,,,,,,2021-12-28,1,,,,,アキヤマデンキ,0
189,1290001095860,新規,0,2021-12-28,2021-12-28,株式会社ＨＯＮＯＲ,,株式会社,福岡県,福岡市博多区,金の隈２丁目２３番６号,,40,132,8120863,,,,,,,2021-12-28,1,,,,,オナー,0
191,1310001017647,新規,0,2021-12-28,2021-12-28,株式会社怪物,,株式会社,長崎県,長崎市,小江原４丁目２４番１０号,,42,201,8511132,,,,,,,2021-12-28,1,,,,,カイブツ,0
196,1310003004239,新規,0,2021-12-28,2021-12-28,合同会社有明Ｖｉｌｌａｇｅ,,合同会社,長崎県,長崎市,西北町１４番５２号,,42,201,8528051,,,,,,,2021-12-28,1,,,,,アリアケビレッジ,0
198,1330001029302,新規,0,2021-12-28,2021-12-28,株式会社山田林業,,株式会社,熊本県,菊池郡大津町,大字室１５２１番地５,,43,403,8691235,,,,,,,2021-12-28,1,,,,,ヤマダリンギョウ,0
208,1380001032433,新規,0,2021-12-28,2021-12-28,株式会社ＡＳＧ,,株式会社,福島県,郡山市,横塚６丁目１６番２１号,,07,203,9638803,,,,,,,2021-12-28,1,,,,,エーエスジー,0
223,1470005006399,新規,0,2021-12-28,2021-12-28,一般社団法人ベル・相続サポート協会,,その他の設立登記法人,香川県,高松市,桜町２丁目１５番４１号,,37,201,7600074,,,,,,,2021-12-28,1,,,,,ベルソウゾクサポートキョウカイ,0
225,1500003002743,新規,0,2021-12-28,2021-12-28,合同会社ジェイビーエイチ,,合同会社,愛媛県,松山市,土居田町８１８－６,,38,201,7900056,,,,,,,2021-12-28,1,,,,,ジェイビーエイチ,0
226,1700150065969,新規,0,2021-12-28,2015-10-09,那覇中央社交飲食業協会,,その他,沖縄県,那覇市,松山１丁目３５－１宮平ビル２Ｆ,,47,201,9000032,,,,,,,2015-10-09,1,,,,,ナハチユウオウシヤコウインシヨクギヨウキヨウカイ,0
227,1700150106467,新規,0,2021-12-28,2021-12-28,亡阿部忠助相続財産法人,,その他,岩手県,盛岡市,南大通１丁目８番７号ＣＦＣビル３階　熊谷法律事務所,,03,201,0200874,,,,,,,2021-12-28,1,,,,,ボウアベチュウスケソウゾクザイサンホウジン,0
242,2010003036625,新規,0,2021-12-28,2021-12-28,Ｇｒｅｅｎｅｓｔ　Ｅｎｅｒｇｙ１合同会社,,合同会社,東京都,千代田区,丸の内２丁目３番１号,,13,101,1000005,,,,,,,2021-12-28,1,,,,,グリーネストエナジーワン,0
243,2010003036633,新規,0,2021-12-28,2021-12-28,合同会社ＰｏｔＣｒｏｓｓ,,合同会社,東京都,中央区,銀座１丁目２２番１１号銀座大竹ビジデンス２階,,13,102,1040061,,,,,,,2021-12-28,1,,,,,ポットクロス,0
245,2010101014994,新規,0,2021-12-28,2021-12-28,株式会社Ｄｏｕｂｌｅ　Ｏ,,株式会社,東京都,八王子市,堀之内６６１番地３９東山５－４,,13,201,1920355,,,,,,,2021-12-28,1,,,,,ダブルオー,0
246,2010101015002,新規,0,2021-12-28,2021-12-28,株式会社中央大学ビズサポート,,株式会社,東京都,八王子市,東中野７４２番１,,13,201,1920351,,,,,,,2021-12-28,1,,,,,チュウオウダイガクビズサポート,0
247,2010103001834,新規,0,2021-12-28,2021-12-28,合同会社ＬＥ　ＰＡＬＡＩＳ,,合同会社,東京都,八王子市,大楽寺町３２０番地４,,13,201,1930816,,,,,,,2021-12-28,1,,,,,ルパレ,0
252,2010401164564,新規,0,2021-12-28,2021-12-28,株式会社ＡＳＯＶＩＮＡ,,株式会社,東京都,港区,西麻布４丁目１番１－９１１号,,13,103,1060031,,,,,,,2021-12-28,1,,,,,アソビナ,0
253,2010403026779,新規,0,2021-12-28,2021-12-28,ＭＡＮＡ　ＡＧＥＮＴ合同会社,,合同会社,東京都,港区,南青山２丁目２番１５号,,13,103,1070062,,,,,,,2021-12-28,1,,,,,マナエージェント,0
254,2010405020540,新規,0,2021-12-28,2021-12-28,一般社団法人Ｓ・Ｎ・Ｐ２,,その他の設立登記法人,東京都,港区,元赤坂１丁目１番７号,,13,103,1070051,,,,,,,2021-12-28,1,,,,,エスエヌピツー,0
260,2010701041950,新規,0,2021-12-28,2021-12-28,株式会社海医,,株式会社,東京都,品川区,北品川５丁目３番１－３１０７号,,13,109,1410001,,,,,,,2021-12-28,1,,,,,カイイ,0
261,2010701041991,新規,0,2021-12-28,2021-12-28,株式会社エニーシング,,株式会社,東京都,品川区,荏原２丁目１７番地１４号富士ビル４階,,13,109,1420063,,,,,,,2021-12-28,1,,,,,エニーシング,0
267,2010801032619,新規,0,2021-12-28,2021-12-28,株式会社微笑堂,,株式会社,東京都,大田区,田園調布本町４５番１１号,,13,111,1450072,,,,,,,2021-12-28,1,,,,,ホホエミドウ,0
274,2011001144667,新規,0,2021-12-28,2021-12-28,株式会社桜人,,株式会社,東京都,渋谷区,東２丁目１番４号,,13,113,1500011,,,,,,,2021-12-28,1,,,,,,0
275,2011001144816,新規,0,2021-12-28,2021-12-28,ティーティーシー株式会社,,株式会社,東京都,渋谷区,神宮前５丁目１８番７号,,13,113,1500001,,,,,,,2021-12-28,1,,,,,ティーティーシー,0
276,2011001144832,新規,0,2021-12-28,2021-12-28,株式会社ＥＭＭＥ,,株式会社,東京都,渋谷区,渋谷２丁目３番１９号ローゼ青山１階,,13,113,1500002,,,,,,,2021-12-28,1,,,,,エンメ,0
280,2011101097377,新規,0,2021-12-28,2021-12-28,株式会社Ｈａｋｕｓｈｉ,,株式会社,東京都,新宿区,歌舞伎町２丁目２５番８号エコプレイス新宿１１３号室,,13,104,1600021,,,,,,,2021-12-28,1,,,,,ハクシ,0
289,2011603003485,新規,0,2021-12-28,2021-12-28,ＳＨＵＢＨＡＭ合同会社,,合同会社,東京都,練馬区,北町２丁目４１番３号１Ｆ,,13,120,1790081,,,,,,,2021-12-28,1,,,,,シュバム,0
293,2011703003039,新規,0,2021-12-28,2021-12-28,合同会社ＰＩＰＥＴＳ,,合同会社,東京都,江戸川区,西葛西２丁目２２番３８－１０９号,,13,123,1340088,,,,,,,2021-12-28,1,,,,,ピッピエス,0
296,2012701016841,新規,0,2021-12-28,2021-12-28,株式会社ＡＬＫ企画,,株式会社,東京都,小平市,花小金井南町３丁目２７番１５号,,13,211,1870003,,,,,,,2021-12-28,1,,,,,エーエルケーキカク,0
304,2021001074814,新規,0,2021-12-28,2021-12-28,株式会社ＮＯＤＤＡインターナショナル,,株式会社,神奈川県,茅ヶ崎市,中島７６７番地４,,14,207,2530073,,,,,,,2021-12-28,1,,,,,ノッダインターナショナル,0
305,2021002001073,新規,0,2021-12-28,2021-12-28,有限会社奥津農機具商会,,有限会社,神奈川県,藤沢市,長後８４３番地,,14,205,2520801,,,,,,,2021-12-28,1,,,,,,0
307,2021005012407,新規,0,2021-12-28,2021-12-28,一般社団法人さくら,,その他の設立登記法人,神奈川県,茅ヶ崎市,香川６丁目３番２２号,,14,207,2530082,,,,,,,2021-12-28,1,,,,,サクラ,0
311,2030001145970,新規,0,2021-12-28,2021-12-28,株式会社源達総合サービス,,株式会社,埼玉県,さいたま市西区,大字指扇３１９９番地１,,11,101,3310047,,,,,,,2021-12-28,1,,,,,ゲンタツソウゴウサービス,0
312,2030001146069,新規,0,2021-12-28,2021-12-28,株式会社アサヒ,,株式会社,埼玉県,所沢市,東狭山ケ丘１丁目１２番地の１０,,11,208,3591106,,,,,,,2021-12-28,1,,,,,アサヒ,0
313,2030001146085,新規,0,2021-12-28,2021-12-28,株式会社朝日工業,,株式会社,埼玉県,草加市,八幡町１４１番地４,,11,221,3400006,,,,,,,2021-12-28,1,,,,,アサヒコウギョウ,0
326,2040001121491,新規,0,2021-12-28,2021-12-28,株式会社Ｔ．Ｍ．ＤＲＥＡＭ,,株式会社,千葉県,浦安市,富士見１丁目１５番１７－３０１号ハイグレース,,12,227,2790043,,,,,,,2021-12-28,1,,,,,ティーエムドリーム,0
327,2040001121500,新規,0,2021-12-28,2021-12-28,株式会社凛,,株式会社,千葉県,船橋市,本町７丁目５番１９号ヤマケンビル５Ｆ,,12,204,2730005,,,,,,,2021-12-28,1,,,,,リン,0
328,2040001121509,新規,0,2021-12-28,2021-12-28,株式会社ａｐｐｌａｕｓｅ,,株式会社,千葉県,千葉市中央区,松ケ丘町１７１番地,,12,101,2600807,,,,,,,2021-12-28,1,,,,,アプローズ,0
329,2040001121525,新規,0,2021-12-28,2021-12-28,株式会社Ｌａｍｐ,,株式会社,千葉県,八千代市,緑が丘西７丁目１８番地５０,,12,221,2760040,,,,,,,2021-12-28,1,,,,,ランプ,0
330,2040001121574,新規,0,2021-12-28,2021-12-28,株式会社千柏,,株式会社,千葉県,松戸市,小金きよしケ丘３丁目２０番地の２シャンボール新松戸１０５－２,,12,207,2700013,,,,,,,2021-12-28,1,,,,,センハク,0
340,2060001034428,新規,0,2021-12-28,2021-12-28,市川ホールディングス株式会社,,株式会社,栃木県,栃木市,泉町２３番１６号,,09,203,3280014,,,,,,,2021-12-28,1,,,,,イチカワホールディングス,0
348,2080101023007,新規,0,2021-12-28,2021-12-28,株式会社ｓｏｎａｒ,,株式会社,静岡県,三島市,文教町２丁目１３‐１,,22,206,4110033,,,,,,,2021-12-28,1,,,,,ソナー,0
355,2090001017339,新規,0,2021-12-28,2021-12-28,株式会社ＳＴＥＬＬＡ,,株式会社,山梨県,中央市,臼井阿原９６３番地４メゾン秋山Ｂ棟１０２号,,19,214,4093844,,,,,,,2021-12-28,1,,,,,ステラ,0
357,2100001034927,新規,0,2021-12-28,2021-12-28,プレイリーホールディングス株式会社,,株式会社,長野県,松本市,大字笹賀７１１６番地１,,20,202,3990033,,,,,,,2021-12-28,1,,,,,プレイリーホールディングス,0
365,2120001242750,新規,0,2021-12-28,2021-12-28,株式会社結,,株式会社,大阪府,大阪市北区,曾根崎新地１丁目７番８号新日本新地ビルＢ階７．８．９,,27,127,5300002,,,,,,,2021-12-28,1,,,,,ユイ,0
366,2120001242759,新規,0,2021-12-28,2021-12-28,株式会社Ｇｌｏｂａｌ　Ｆａｍｉｌｙ,,株式会社,大阪府,大阪市天王寺区,生玉町９－１６サメジマビル２階Ｂ室,,27,109,5430071,,,,,,,2021-12-28,1,,,,,グローバルファミリー,0
367,2120001242783,新規,0,2021-12-28,2021-12-28,大阪ＩＲ株式会社,,株式会社,大阪府,大阪市北区,中之島３丁目３番２３号,,27,127,5300005,,,,,,,2021-12-28,1,,,,,オオサカアイアール,0
368,2120003020840,新規,0,2021-12-28,2021-12-28,合同会社ＧＲＳ,,合同会社,大阪府,大阪市阿倍野区,松虫通２丁目３－７,,27,119,5450043,,,,,,,2021-12-28,1,,,,,ジーアールエス,0
373,2120901045385,新規,0,2021-12-28,2021-12-28,株式会社利兵衛,,株式会社,大阪府,池田市,畑４丁目２番５－１０３号,,27,204,5630021,,,,,,,2021-12-28,1,,,,,リヘイ,0
379,2122001035465,新規,0,2021-12-28,2021-12-28,株式会社Ｕｐ　ｅｉｇｈｔ,,株式会社,大阪府,東大阪市,衣摺２丁目８番７号,,27,227,5770827,,,,,,,2021-12-28,1,,,,,アップエイト,0
381,2130001070779,新規,0,2021-12-28,2021-12-28,株式会社テルマ池上,,株式会社,京都府,京都市北区,紫竹上竹殿町３７番地２,,26,101,6038411,,,,,,,2021-12-28,1,,,,,テルマイケガミ,0
382,2130003007655,新規,0,2021-12-28,2021-12-28,合同会社Ｇｏｚｅｎ,,合同会社,京都府,向日市,寺戸町中野２番地の６４,,26,208,6170002,,,,,,,2021-12-28,1,,,,,ゴゼン,0
387,2140001124303,新規,0,2021-12-28,2021-12-28,株式会社ビルドプラス,,株式会社,兵庫県,尼崎市,西川２丁目４４番１－１１０号,,28,202,6610966,,,,,,,2021-12-28,1,,,,,ビルドプラス,0
388,2140001124328,新規,0,2021-12-28,2021-12-28,株式会社ジープラス建設,,株式会社,兵庫県,尼崎市,西立花町３丁目１９番８号東洋ハウス１０１号,,28,202,6600054,,,,,,,2021-12-28,1,,,,,ジープラスケンセツ,0
389,2140001124360,新規,0,2021-12-28,2021-12-28,株式会社オフィスパートナー,,株式会社,兵庫県,姫路市,緑台１丁目２８番１８号,,28,201,6712247,,,,,,,2021-12-28,1,,,,,オフィスパートナー,0
400,2180005019578,新規,0,2021-12-28,2021-12-28,一般社団法人革新的空き家活用推進協会,,その他の設立登記法人,愛知県,名古屋市東区,東桜２丁目９番２４号,,23,102,4610005,,,,,,,2021-12-28,1,,,,,カクシンテキアキヤカツヨウスイシンキョウカイ,0
403,2190001028978,新規,0,2021-12-28,2021-12-28,株式会社ＩＬ　ＢＬＵＥＮＯ,,株式会社,三重県,津市,城山３丁目３番地３５,,24,201,5140818,,,,,,,2021-12-28,1,,,,,イルブルーノ,0
409,2200005013297,新規,0,2021-12-28,2021-12-28,特定非営利活動法人ｆооｄｐａｎｔｒｙいいものねっとわーく,,その他の設立登記法人,岐阜県,美濃加茂市,深田町２丁目６番３１号,,21,211,5050043,,,,,,,2021-12-28,1,,,,,フードパントリーイイモノネットワーク,0
412,2240003005425,新規,0,2021-12-28,2021-12-28,合同会社佳怜,,合同会社,広島県,広島市中区,上幟町１番４－３０１号セントヒルズ上幟町,,34,101,7300014,,,,,,,2021-12-28,1,,,,,ケイレイ,0
421,2290001095827,新規,0,2021-12-28,2021-12-28,株式会社８６ＳＯＵＫＥＮ,,株式会社,福岡県,福岡市博多区,空港前２丁目１１番２３号,,40,132,8120002,,,,,,,2021-12-28,1,,,,,ハチロクソウケン,0
425,2290003011971,新規,0,2021-12-28,2021-12-28,合同会社有吉商店,,合同会社,福岡県,福岡市中央区,渡辺通１丁目８－１８,,40,133,8100004,,,,,,,2021-12-28,1,,,,,アリヨシショウテン,0
427,2290005018494,新規,0,2021-12-28,2021-12-28,社会保険労務士法人エフ・エス・ケー事務所,,その他の設立登記法人,福岡県,福岡市中央区,西中洲１２番２１号ＫＳ第２ビル３階,,40,133,8100002,,,,,,,2021-12-28,1,,,,,エフエスケージムショ,0
431,2290801028127,新規,0,2021-12-28,2021-12-28,株式会社ＩＳＥＩ,,株式会社,福岡県,北九州市若松区,塩屋３丁目３４番１０号,,40,103,8080131,,,,,,,2021-12-28,1,,,,,イセイ,0
436,2300001012755,新規,0,2021-12-28,2021-12-28,株式会社エルツ商会,,株式会社,佐賀県,佐賀市,兵庫南１丁目１１番１０号,,41,201,8490918,,,,,,,2021-12-28,1,,,,,エルツショウカイ,0
440,2320001018809,新規,0,2021-12-28,2021-12-28,株式会社木綿,,株式会社,大分県,由布市,挾間町挾間５１５番地,,44,213,8795506,,,,,,,2021-12-28,1,,,,,ユフ,0
443,2330001029301,新規,0,2021-12-28,2021-12-28,株式会社ＧＲＯＫ,,株式会社,熊本県,熊本市中央区,上通町６番２３号長崎書店ビル１－Ｄ,,43,101,8600845,,,,,,,2021-12-28,1,,,,,グロック,0
453,2380001032432,新規,0,2021-12-28,2021-12-28,株式会社福島新聞開発,,株式会社,福島県,東白川郡塙町,大字塙字大町２丁目３４－１,,07,483,9635405,,,,,,,2021-12-28,1,,,,,フクシマシンブンカイハツ,0
472,2430001085689,新規,0,2021-12-28,2021-12-28,株式会社２２ＬＩＦＥ,,株式会社,北海道,札幌市豊平区,平岸二条１２丁目５番１７－８８２号,,01,105,0620932,,,,,,,2021-12-28,1,,,,,フウフライフ,0
475,2430003013482,新規,0,2021-12-28,2021-12-28,合同会社ＥＫａｒｔ,,合同会社,北海道,札幌市中央区,南七条西７丁目１０３３－４１エタニティー７　３０１号室,,01,101,0640807,,,,,,,2021-12-28,1,,,,,エークアート,0
476,2430003013490,新規,0,2021-12-28,2021-12-28,合同会社Ａｔｕｙ,,合同会社,北海道,札幌市厚別区,大谷地西５丁目２番５号パスウェイ弐番館,,01,108,0040042,,,,,,,2021-12-28,1,,,,,アトゥーイ,0
484,2500003002742,新規,0,2021-12-28,2021-12-28,合同会社スラッシュ,,合同会社,愛媛県,松山市,西石井３丁目１０番１４号,,38,201,7900931,,,,,,,2021-12-28,1,,,,,スラッシュ,0
488,3010001089434,新規,0,2021-12-28,2021-12-28,フジシステムリース株式会社,,株式会社,東京都,千代田区,外神田２丁目１５番２号,,13,101,1010021,,,,,,,2021-12-28,1,,,,,フジシステムリース,0
496,3010001223521,新規,0,2021-12-28,2021-12-28,株式会社Ｘ－ＣＵＢＥ,,株式会社,東京都,中央区,銀座１丁目１２番４号Ｎ＆Ｅ－ＢＬＤ．７階,,13,102,1040061,,,,,,,2021-12-28,1,,,,,クロスキューブ,0
499,3010005034378,新規,0,2021-12-28,2021-12-28,東京オフィス２一般社団法人,,その他の設立登記法人,東京都,千代田区,丸の内３丁目１番１号東京共同会計事務所内,,13,101,1000005,,,,,,,2021-12-28,1,,,,,トウキョウオフィスツー,0
504,3010401164588,新規,0,2021-12-28,2021-12-28,株式会社Ａｐｒｉｌ　ｂｒｅａｔｈ,,株式会社,東京都,港区,南青山２丁目２番１５号,,13,103,1070062,,,,,,,2021-12-28,1,,,,,エイプリルブレス,0
505,3010403026786,新規,0,2021-12-28,2021-12-28,ＩＮＶＥＲＮＯ合同会社,,合同会社,東京都,港区,南青山２丁目２２番２号石山ビル１階,,13,103,1070062,,,,,,,2021-12-28,1,,,,,インヴェルノ,0
515,3010705003302,新規,0,2021-12-28,2021-12-28,一般社団法人軽貨物ドライバー支援機構,,その他の設立登記法人,東京都,品川区,東五反田２丁目１０番１,,13,109,1410022,,,,,,,2021-12-28,1,,,,,ケイカモツドライバーシエンキコウ,0
516,3010801032618,新規,0,2021-12-28,2021-12-28,株式会社ｍｏｍｉｎｅｓｓ,,株式会社,東京都,大田区,池上３丁目４０番２１号セントラルヴィレッジ２Ｆ,,13,111,1460082,,,,,,,2021-12-28,1,,,,,マミネス,0
517,3010803004004,新規,0,2021-12-28,2021-12-28,合同会社Ｃｈａｒｉｔｅｓ,,合同会社,東京都,大田区,大森西４丁目１２－１９,,13,111,1430015,,,,,,,2021-12-28,1,,,,,カリテス,0
520,3010903007039,新規,0,2021-12-28,2021-12-28,合同会社ミュージック・モータース,,合同会社,東京都,世田谷区,北沢２丁目２７番９号,,13,112,1550031,,,,,,,2021-12-28,1,,,,,ミュージックモータース,0
521,3011001144740,新規,0,2021-12-28,2021-12-28,ＣＩＲＡＮＵＩ株式会社,,株式会社,東京都,渋谷区,恵比寿２丁目２８番７号,,13,113,1500013,,,,,,,2021-12-28,1,,,,,シラヌイ,0
522,3011001144807,新規,0,2021-12-28,2021-12-28,株式会社ＣＬＡ,,株式会社,東京都,渋谷区,道玄坂１丁目６番２号,,13,113,1500043,,,,,,,2021-12-28,1,,,,,シーエルエー,0
531,3011501027585,新規,0,2021-12-28,2021-12-28,株式会社ＭｏＴｒａｎ,,株式会社,東京都,北区,西ケ原３丁目５７番１７－６０３号アルヴァローレ西ヶ原,,13,117,1140024,,,,,,,2021-12-28,1,,,,,モートラン,0
538,3011701024936,新規,0,2021-12-28,2021-12-28,株式会社佐久間,,株式会社,東京都,江戸川区,東葛西６丁目４７番４号,,13,123,1340084,,,,,,,2021-12-28,1,,,,,サクマ,0
539,3011701024944,新規,0,2021-12-28,2021-12-28,Ｙ．Ｋ．株式会社,,株式会社,東京都,江戸川区,西小岩４丁目３番２２－２１０号メゾンエクセル,,13,123,1330057,,,,,,,2021-12-28,1,,,,,ワイケイ,0
540,3011703003038,新規,0,2021-12-28,2021-12-28,合同会社ケイ・エス,,合同会社,東京都,江戸川区,東葛西４丁目９番６－２０６号,,13,123,1340084,,,,,,,2021-12-28,1,,,,,ケイエス,0
542,3012401038689,新規,0,2021-12-28,2021-12-28,ＨＩＥＮ　Ａｅｒｏ　Ｔｅｃｈｎｏｌｏｇｉｅｓ株式会社,,株式会社,東京都,小金井市,梶野町１丁目２番３６号,,13,210,1840002,,,,,,,2021-12-28,1,,,,,ヒエンエアロテクノロジーズ,0
544,3012403005175,新規,0,2021-12-28,2021-12-28,Ｇａｍｅ　Ｌａｂ　Ｔｅｃｈｎｏｌｏｇｉｅｓ合同会社,,合同会社,東京都,調布市,入間町３丁目５番地７０,,13,208,1820004,,,,,,,2021-12-28,1,,,,,ゲームラボテクノロジーズ,0
550,3013305003291,新規,0,2021-12-28,2021-12-28,一般社団法人福島元氣村,,その他の設立登記法人,東京都,豊島区,長崎４丁目４３番１号,,13,116,1710051,,,,,,,2021-12-28,1,,,,,フクシマゲンキムラ,0
553,3020001144535,新規,0,2021-12-28,2021-12-28,株式会社真建設,,株式会社,神奈川県,横浜市港南区,笹下２丁目２０－２４,,14,111,2340052,,,,,,,2021-12-28,1,,,,,マコトケンセツ,0
555,3020003021039,新規,0,2021-12-28,2021-12-28,合同会社ＳＴＵＤＩＯ　ＫＥＹ,,合同会社,神奈川県,横浜市青葉区,大場町３８２番地３０グレイスヒルあざみ野Ａ棟１階,,14,117,2250023,,,,,,,2021-12-28,1,,,,,スタジオキー,0
559,3030001146019,新規,0,2021-12-28,2021-12-28,株式会社ジャパンリフォーム,,株式会社,埼玉県,行田市,佐間１丁目２０番２５号,,11,206,3610032,,,,,,,2021-12-28,1,,,,,ジャパンリフォーム,0
560,3030001146076,新規,0,2021-12-28,2021-12-28,株式会社ムゲン,,株式会社,埼玉県,川口市,上青木１丁目２１番１３号,,11,203,3330844,,,,,,,2021-12-28,1,,,,,ムゲン,0
565,3030003018562,新規,0,2021-12-28,2021-12-28,合同会社松島農園,,合同会社,埼玉県,北本市,石戸宿６丁目５０番地,,11,233,3640025,,,,,,,2021-12-28,1,,,,,マツシマノウエン,0
570,3040001121499,新規,0,2021-12-28,2021-12-28,株式会社岩井組,,株式会社,千葉県,旭市,足川３９５２番地,,12,215,2892522,,,,,,,2021-12-28,1,,,,,イワイグミ,0
571,3040001121516,新規,0,2021-12-28,2021-12-28,株式会社Ｂｉｒｕｂｉ,,株式会社,千葉県,東金市,川場２６－１エスケイション２１１,,12,213,2830064,,,,,,,2021-12-28,1,,,,,ビルビ,0
572,3040001121524,新規,0,2021-12-28,2021-12-28,株式会社ＲＩＳＥ　ＬＡＮＤ,,株式会社,千葉県,千葉市中央区,都町５丁目９番７号パークヒルズミヤコＧ－３０５号,,12,101,2600001,,,,,,,2021-12-28,1,,,,,ライズランド,0
573,3040003019196,新規,0,2021-12-28,2021-12-28,合同会社Ｌａｓｔｉｎｇ,,合同会社,千葉県,柏市,東柏１丁目２３番２３号,,12,217,2770017,,,,,,,2021-12-28,1,,,,,ラステイング,0
586,3070001038781,新規,0,2021-12-28,2021-12-28,株式会社フォレストモータース,,株式会社,群馬県,渋川市,中村１１６０番地２,,10,208,3770002,,,,,,,2021-12-28,1,,,,,フォレストモータース,0
592,3100001034934,新規,0,2021-12-28,2021-12-28,株式会社Ｒｅ　Ｂｉｒｔｈ,,株式会社,長野県,佐久市,甲４４５番地,,20,217,3842104,,,,,,,2021-12-28,1,,,,,リバース,0
595,3110001036302,新規,0,2021-12-28,2021-12-28,株式会社ビルドデザイン,,株式会社,新潟県,新潟市西区,坂井６５３番地４,,15,107,9502042,,,,,,,2021-12-28,1,,,,,ビルドデザイン,0
610,3120003020856,新規,0,2021-12-28,2021-12-28,合同会社スピロヘータ,,合同会社,大阪府,大阪市都島区,東野田町４丁目２０番２４号,,27,102,5340024,,,,,,,2021-12-28,1,,,,,スピロヘータ,0
614,3120101064862,新規,0,2021-12-28,2021-12-28,株式会社カワショウ,,株式会社,大阪府,南河内郡千早赤阪村,大字小吹１１３５番地１３,,27,383,5850053,,,,,,,2021-12-28,1,,,,,カワショウ,0
619,3122001035464,新規,0,2021-12-28,2021-12-28,株式会社Ｈａｊｙ,,株式会社,大阪府,東大阪市,下小阪５丁目９番５号,,27,227,5770803,,,,,,,2021-12-28,1,,,,,ハジー,0
622,3130001070811,新規,0,2021-12-28,2021-12-28,京都物販株式会社,,株式会社,京都府,京都市山科区,北花山市田町８９番地５,,26,110,6078483,,,,,,,2021-12-28,1,,,,,キョウトブッパン,0
626,3140001124310,新規,0,2021-12-28,2021-12-28,株式会社レイコンサルティング,,株式会社,兵庫県,芦屋市,東芦屋町３番１９－５０１号,00125257,28,206,6590095,,,,,,,2021-12-28,1,,,,,レイコンサルティング,0
630,3150003002579,新規,0,2021-12-28,2021-12-28,合同会社ＵＮＡＺＫＩ,,合同会社,奈良県,磯城郡田原本町,大字阪手６３０－４今西ビル１号館２階北,,29,363,6360247,,,,,,,2021-12-28,1,,,,,ウナズキ,0
638,3180001149262,新規,0,2021-12-28,2021-12-28,株式会社ハプス,,株式会社,愛知県,東海市,加木屋町小家ノ脇５番地の１１２ライフヒルズ加木屋（Ｃ－１）,,23,222,4770032,,,,,,,2021-12-28,1,,,,,ハプス,0
639,3180001149304,新規,0,2021-12-28,2021-12-28,名古屋ミノマール株式会社,,株式会社,愛知県,名古屋市中村区,名駅１丁目１番４号,,23,105,4500002,,,,,,,2021-12-28,1,,,,,ナゴヤミノマール,0
640,3180001149312,新規,0,2021-12-28,2021-12-28,株式会社Ｂｅｓｅｌ,,株式会社,愛知県,名古屋市中区,錦１丁目１０番１２号服部ビル１０Ｆ,,23,106,4600003,,,,,,,2021-12-28,1,,,,,ベゼル,0
646,3190001028977,新規,0,2021-12-28,2021-12-28,株式会社グローバルフードＭＩＹＡ,,株式会社,三重県,四日市市,三栄町３番１４号カタオカビル５０５Ａ１,,24,202,5100068,,,,,,,2021-12-28,1,,,,,グローバルフードミヤ,0
651,3200001039576,新規,0,2021-12-28,2021-12-28,籏鉾小水力発電株式会社,,株式会社,岐阜県,高山市,江名子町２７１５番地１１,,21,203,5060818,,,,,,,2021-12-28,1,,,,,ハタホコショウスイリョクハツデン,0
655,3230003001779,新規,0,2021-12-28,2021-12-28,合同会社モフ,,合同会社,富山県,富山市,八尾町大杉２６７４番地６,,16,201,9392303,,,,,,,2021-12-28,1,,,,,モフ,0
665,3250001019318,新規,0,2021-12-28,2021-12-28,株式会社ＰＥＴ　ＪＵＭＰ,,株式会社,山口県,岩国市,周東町下須通４１８番地１,,35,208,7420423,,,,,,,2021-12-28,1,,,,,ペットジャンプ,0
676,3290001095834,新規,0,2021-12-28,2021-12-28,株式会社エイト,,株式会社,福岡県,筑紫野市,大字筑紫２３番１号,,40,217,8180025,,,,,,,2021-12-28,1,,,,,エイト,0
677,3290001095842,新規,0,2021-12-28,2021-12-28,株式会社農・みのり,,株式会社,福岡県,糸島市,飯原１６７５番地１,,40,230,8191152,,,,,,,2021-12-28,1,,,,,ミノリ,0
678,3290001095850,新規,0,2021-12-28,2021-12-28,九州企画サービス株式会社,,株式会社,福岡県,久留米市,田主丸町殖木４３７番地４,,40,203,8391204,,,,,,,2021-12-28,1,,,,,キュウシュウキカクサービス,0
681,3290003011970,新規,0,2021-12-28,2021-12-28,合同会社ティーエスフーズ,,合同会社,福岡県,福岡市西区,上山門１丁目３番３７号,,40,135,8190054,,,,,,,2021-12-28,1,,,,,ティーエスフーズ,0
683,3290801028126,新規,0,2021-12-28,2021-12-28,ハピネ・スイート株式会社,,株式会社,福岡県,北九州市八幡西区,別当町２６番３３号,,40,109,8060062,,,,,,,2021-12-28,1,,,,,ハピネスイート,0
691,3320003003683,新規,0,2021-12-28,2021-12-28,合同会社ｔ．ｏ．ｋホーム,,合同会社,大分県,大分市,角子原１丁目１番６号,,44,201,8700271,,,,,,,2021-12-28,1,,,,,ティーオーケイホーム,0
692,3330001029300,新規,0,2021-12-28,2021-12-28,株式会社Ｍコーポレーション,,株式会社,熊本県,荒尾市,牛水７１６番地２,,43,204,8640026,,,,,,,2021-12-28,1,,,,,エムコーポレーション,0
693,3340001024358,新規,0,2021-12-28,2021-12-28,株式会社ＦＬＥＸ　ＣＯＲＰＯＲＡＴＩＯＮ,,株式会社,鹿児島県,鹿児島市,上本町１２番１９号惟神上町ビル６０２号,,46,201,8920818,,,,,,,2021-12-28,1,,,,,フレックスコーポレーション,0
694,3360001029818,新規,0,2021-12-28,2021-12-28,株式会社チャレンジ,,株式会社,沖縄県,中頭郡中城村,字屋宜７３５番地１,,47,328,9012405,,,,,,,2021-12-28,1,,,,,チャレンジ,0
699,3380001032431,新規,0,2021-12-28,2021-12-28,株式会社福栄建設,,株式会社,福島県,郡山市,字名倉４０番地の２,,07,203,9638845,,,,,,,2021-12-28,1,,,,,フクエイケンセツ,0
703,3390001016730,新規,0,2021-12-28,2021-12-28,株式会社大渡会ファーム,,株式会社,山形県,東田川郡庄内町,千河原字前野２４番地,,06,428,9997704,,,,,,,2021-12-28,1,,,,,ダイトカイファーム,0
713,3500003002741,新規,0,2021-12-28,2021-12-28,合同会社アップヒル,,合同会社,愛媛県,松山市,東石井３丁目１３番８号セジュール宮内Ａ－１０３号,,38,201,7900932,,,,,,,2021-12-28,1,,,,,アップヒル,0
720,4010001223487,新規,0,2021-12-28,2021-12-28,株式会社Ｔｉｍｂｅｒ　Ｅｎｅｒｇｙ,,株式会社,東京都,千代田区,永田町２丁目１７番１７号,,13,101,1000014,,,,,,,2021-12-28,1,,,,,ティンバーエナジー,0
721,4010001223504,新規,0,2021-12-28,2021-12-28,株式会社無限の富,,株式会社,東京都,中央区,湊２丁目１２番７－８０４号,,13,102,1040043,,,,,,,2021-12-28,1,,,,,ムゲンノトミ,0
723,4010005034385,新規,0,2021-12-28,2021-12-28,円海山一般社団法人,,その他の設立登記法人,東京都,千代田区,丸の内３丁目１番１号東京共同会計事務所内,,13,101,1000005,,,,,,,2021-12-28,1,,,,,エンカイザン,0
728,4010401164686,新規,0,2021-12-28,2021-12-28,株式会社松下,,株式会社,東京都,港区,六本木１丁目５番３,,13,103,1060032,,,,,,,2021-12-28,1,,,,,マツシタ,0
729,4010403026736,新規,0,2021-12-28,2021-12-28,ｅＭｏｖａｌ合同会社,,合同会社,東京都,港区,芝１丁目２番１－６０３号,,13,103,1050014,,,,,,,2021-12-28,1,,,,,イムーバル,0
732,4010603009318,新規,0,2021-12-28,2021-12-28,ストライク合同会社,,合同会社,東京都,墨田区,八広５丁目７番２－５０３号,,13,107,1310041,,,,,,,2021-12-28,1,,,,,ストライク,0
734,4010803004003,新規,0,2021-12-28,2021-12-28,合同会社サイプレス,,合同会社,東京都,大田区,仲池上２丁目３０番１９号,,13,111,1460081,,,,,,,2021-12-28,1,,,,,サイプレス,0
736,4010901050072,新規,0,2021-12-28,2021-12-28,株式会社Ｍｅｒｃｉ,,株式会社,東京都,世田谷区,粕谷３丁目１５番２６号,,13,112,1570063,,,,,,,2021-12-28,1,,,,,メルシー,0
742,4011001144789,新規,0,2021-12-28,2021-12-28,株式会社ＫＴカンパニー,,株式会社,東京都,渋谷区,広尾４丁目１番２５号,,13,113,1500012,,,,,,,2021-12-28,1,,,,,ケーティーカンパニー,0
743,4011001144830,新規,0,2021-12-28,2021-12-28,株式会社ＬＤＸ,,株式会社,東京都,渋谷区,円山町５番５号渋谷橋本ビル９Ｆ,,13,113,1500044,,,,,,,2021-12-28,1,,,,,エルディーエックス,0
744,4011001144847,新規,0,2021-12-28,2021-12-28,株式会社ｓｎａｃｋ,,株式会社,東京都,渋谷区,神宮前６丁目２３番４号桑野ビル２階,,13,113,1500001,,,,,,,2021-12-28,1,,,,,スナック,0
745,4011001144855,新規,0,2021-12-28,2021-12-28,株式会社ＮＯＭＡ,,株式会社,東京都,目黒区,柿の木坂２丁目１５番１５号,,13,110,1520022,,,,,,,2021-12-28,1,,,,,ノーマ,0
747,4011003013884,新規,0,2021-12-28,2021-12-28,合同会社マルシェ,,合同会社,東京都,渋谷区,神宮前６丁目２３番４号桑野ビル２階,,13,113,1500001,,,,,,,2021-12-28,1,,,,,マルシェ,0
748,4011003013926,新規,0,2021-12-28,2021-12-28,Ｃｒｅａｔｉｖｅ　Ｄｏｓｅ合同会社,,合同会社,東京都,渋谷区,渋谷２丁目１９番１５号宮益坂ビルディング６０９,,13,113,1500002,,,,,,,2021-12-28,1,,,,,クリエイティブドース,0
753,4011301027454,新規,0,2021-12-28,2021-12-28,株式会社ＶＩＳＩＯＮ,,株式会社,東京都,杉並区,上井草２丁目１０番２１号エンドレスパール２Ｆ,,13,115,1670023,,,,,,,2021-12-28,1,,,,,ビジョン,0
757,4011701024943,新規,0,2021-12-28,2021-12-28,株式会社ＦｉｘＨａｎｄｓ,,株式会社,東京都,江戸川区,西葛西５丁目１番９号近代ＢＬＤ．１８－２Ｆ,,13,123,1340088,,,,,,,2021-12-28,1,,,,,フィックスハンズ,0
760,4011801040122,新規,0,2021-12-28,2021-12-28,株式会社ベスト,,株式会社,東京都,足立区,関原２丁目１番２５号,,13,121,1230852,,,,,,,2021-12-28,1,,,,,ベスト,0
762,4012403005174,新規,0,2021-12-28,2021-12-28,ＡＧＥＳ合同会社,,合同会社,東京都,小金井市,前原町３丁目４０－１－１００８小金井スカイコーポラス,,13,210,1840013,,,,,,,2021-12-28,1,,,,,エイジス,0
763,4012801021302,新規,0,2021-12-28,2021-12-28,株式会社ＦＡＳＴＬｉｇｈｔ　Ｔｅｃｈｎｏｌｏｇｙ,,株式会社,東京都,国立市,富士見台１丁目２３番４号,,13,215,1860003,,,,,,,2021-12-28,1,,,,,ファストライトテクノロジー,0
771,4020001144476,新規,0,2021-12-28,2021-12-28,栄物産株式会社,,株式会社,神奈川県,川崎市川崎区,京町１丁目９番１０号,,14,131,2100848,,,,,,,2021-12-28,1,,,,,サカエブッサン,0
772,4020001144492,新規,0,2021-12-28,2021-12-28,株式会社リフレックス,,株式会社,神奈川県,川崎市川崎区,池田１丁目５－１３鳴島ビル１階,,14,131,2100022,,,,,,,2021-12-28,1,,,,,リフレックス,0
773,4020001144526,新規,0,2021-12-28,2021-12-28,８Ｋワークス株式会社,,株式会社,神奈川県,横浜市金沢区,瀬戸５－３－４０８号,,14,108,2360027,,,,,,,2021-12-28,1,,,,,ハチケイワークス,0
774,4020001144542,新規,0,2021-12-28,2021-12-28,神奈川不動産販売株式会社,,株式会社,神奈川県,横浜市中区,常盤町３丁目３０番地１,,14,104,2310014,,,,,,,2021-12-28,1,,,,,カナガワフドウサンハンバイ,0
776,4020003021054,新規,0,2021-12-28,2021-12-28,合同会社ライフベターホールディングス,,合同会社,神奈川県,横浜市中区,桜木町１丁目１０１番地１クロスゲート７階,,14,104,2310062,,,,,,,2021-12-28,1,,,,,ライフベターホールディングス,0
780,4021001074812,新規,0,2021-12-28,2021-12-28,株式会社大榮健工,,株式会社,神奈川県,大和市,下鶴間２９７６番地８キャッスル山金２０２,,14,213,2420001,,,,,,,2021-12-28,1,,,,,タイエイケンコウ,0
789,4030001146018,新規,0,2021-12-28,2021-12-28,株式会社Ｍ＆Ｍ,,株式会社,埼玉県,さいたま市大宮区,浅間町１丁目１５０番地４アヴェニューコートセンゲン２０２,,11,103,3300842,,,,,,,2021-12-28,1,,,,,エムアンドエム,0
790,4030001146050,新規,0,2021-12-28,2021-12-28,株式会社ｅｃｏｍｐａｎｙ,,株式会社,埼玉県,所沢市,大字北秋津７７８番地の３０,,11,208,3590038,,,,,,,2021-12-28,1,,,,,イーカンパニー,0
791,4030001146067,新規,0,2021-12-28,2021-12-28,株式会社ＯＮＥｏｎＳＴＥＰ,,株式会社,埼玉県,熊谷市,籠原南３丁目３０３番地,,11,202,3600847,,,,,,,2021-12-28,1,,,,,ワンオンステップ,0
792,4030001146075,新規,0,2021-12-28,2021-12-28,株式会社スタートアップソリューション,,株式会社,埼玉県,川口市,芝新町３番５号アイアイレジデンス川口１０２,,11,203,3330851,,,,,,,2021-12-28,1,,,,,スタートアップソリューション,0
793,4030001146083,新規,0,2021-12-28,2021-12-28,株式会社グランツ,,株式会社,埼玉県,さいたま市見沼区,大字南中丸５３０番地４,,11,104,3370041,,,,,,,2021-12-28,1,,,,,グランツ,0
794,4030001146091,新規,0,2021-12-28,2021-12-28,株式会社ヤマダ興業,,株式会社,埼玉県,朝霞市,田島１丁目１６番２３号,,11,227,3510032,,,,,,,2021-12-28,1,,,,,ヤマダコウギョウ,0
806,4040001121498,新規,0,2021-12-28,2021-12-28,株式会社ＲＡＩＳＥ,,株式会社,千葉県,松戸市,小金原８丁目２０番地の５０,,12,207,2700021,,,,,,,2021-12-28,1,,,,,レイズ,0
807,4040001121531,新規,0,2021-12-28,2021-12-28,株式会社土井新聞舗,,株式会社,千葉県,茂原市,法目８２９番地,,12,210,2994113,,,,,,,2021-12-28,1,,,,,ドイシンブンホ,0
808,4040001121564,新規,0,2021-12-28,2021-12-28,株式会社ＳＨＩＲＯ．,,株式会社,千葉県,柏市,旭町１丁目１番９号オダヤマ第３ビル２Ｆ,,12,217,2770852,,,,,,,2021-12-28,1,,,,,シロ,0
810,4040003019195,新規,0,2021-12-28,2021-12-28,合同会社Ｃｈｉｚｕｒｕ　Ａｕｔｏ　Ｐａｒｔｓ,,合同会社,千葉県,八街市,八街は１０６番地２０８,,12,230,2891107,,,,,,,2021-12-28,1,,,,,チズルオートパーツ,0
811,4040003019212,新規,0,2021-12-28,2021-12-28,合同会社トミナーガ企画,,合同会社,千葉県,習志野市,鷺沼台３丁目２－２８,,12,216,2750015,,,,,,,2021-12-28,1,,,,,トミナーガキカク,0
816,4050001050374,新規,0,2021-12-28,2021-12-28,株式会社ＧＡＫＵ,,株式会社,茨城県,牛久市,田宮町３９１番地６６,,08,219,3001236,,,,,,,2021-12-28,1,,,,,ガク,0
819,4050003006283,新規,0,2021-12-28,2021-12-28,合同会社王氏商会,,合同会社,茨城県,水戸市,宮町１丁目２－４ＭＹＭビル３Ｆ３号室,,08,201,3100015,,,,,,,2021-12-28,1,,,,,オウシショウカイ,0
822,4060001034426,新規,0,2021-12-28,2021-12-28,株式会社マツパン,,株式会社,栃木県,宇都宮市,平松本町３４９番地２,,09,201,3210932,,,,,,,2021-12-28,1,,,,,マツパン,0
826,4070001038780,新規,0,2021-12-28,2021-12-28,株式会社シェーブル,,株式会社,群馬県,太田市,下浜田町１４３番地１,,10,205,3730821,,,,,,,2021-12-28,1,,,,,シェーブル,0
845,4080403004438,新規,0,2021-12-28,2021-12-28,合同会社拓発,,合同会社,静岡県,湖西市,古見１１９２番地,,22,221,4310442,,,,,,,2021-12-28,1,,,,,タクハツ,0
846,4090001017345,新規,0,2021-12-28,2021-12-28,Ｙｏｕｒ．ｃ　ｍｅｄｉｃａｌ株式会社,,株式会社,山梨県,甲斐市,西八幡２４６６番地１０,,19,210,4000117,,,,,,,2021-12-28,1,,,,,ユアードットシーメディカル,0
850,4100003006336,新規,0,2021-12-28,2021-12-28,エービーエステート合同会社,,合同会社,長野県,東御市,滋野乙３１３１番地３,,20,219,3890512,,,,,,,2021-12-28,1,,,,,エービーエステート,0
856,4120001242749,新規,0,2021-12-28,2021-12-28,株式会社Ｒｉｖｅｒ　Ｓｅｒｖｉｃｅ,,株式会社,大阪府,大阪市平野区,長吉長原１丁目７番３１号サンタカオビル５Ｆ,,27,126,5470016,,,,,,,2021-12-28,1,,,,,リバーサービス,0
858,4120005022668,新規,0,2021-12-28,2021-12-28,特定非営利活動法人レジリエンス教育研究所,,その他の設立登記法人,大阪府,大阪市天王寺区,上汐４丁目４番２５－９０５号,,27,109,5430002,,,,,,,2021-12-28,1,,,,,レジリエンスキョウイクケンキュウショ,0
860,4120101064861,新規,0,2021-12-28,2021-12-28,株式会社ＮＳ,,株式会社,大阪府,貝塚市,加神１丁目３番３６号,,27,208,5970071,,,,,,,2021-12-28,1,,,,,エヌエス,0
862,4120901045400,新規,0,2021-12-28,2021-12-28,株式会社スクエアワン,,株式会社,大阪府,摂津市,千里丘２丁目６番２２号,,27,224,5660001,,,,,,,2021-12-28,1,,,,,スクエアワン,0
864,4120903003967,新規,0,2021-12-28,2021-12-28,ＯＦＦＩＣＥ　ＵＭＥＨＡＲＡ合同会社,,合同会社,大阪府,高槻市,城南町４丁目４番１８号,,27,207,5690056,,,,,,,2021-12-28,1,,,,,オフィスウメハラ,0
866,4122001035463,新規,0,2021-12-28,2021-12-28,株式会社ＳＴ,,株式会社,大阪府,東大阪市,旭町２番２号,,27,227,5798048,,,,,,,2021-12-28,1,,,,,エスティ,0
867,4122003002239,新規,0,2021-12-28,2021-12-28,合同会社すきま産業,,合同会社,大阪府,東大阪市,鴻池徳庵町８番１１号,,27,227,5780977,,,,,,,2021-12-28,1,,,,,スキマサンギョウ,0
869,4130001070793,新規,0,2021-12-28,2021-12-28,株式会社はるきゅう,,株式会社,京都府,舞鶴市,字浜５７０番地,,26,202,6250036,,,,,,,2021-12-28,1,,,,,ハルキュウ,0
870,4130001070802,新規,0,2021-12-28,2021-12-28,株式会社松井工業,,株式会社,京都府,長岡京市,井ノ内芝山１２番地６,,26,209,6170813,,,,,,,2021-12-28,1,,,,,マツイコウギョウ,0
871,4130001070810,新規,0,2021-12-28,2021-12-28,メイコウ株式会社,,株式会社,京都府,宇治市,槇島町本屋敷５１－１２グリーンタウン槇島第二４０１棟２０６号,,26,204,6110041,,,,,,,2021-12-28,1,,,,,メイコウ,0
879,4140001124334,新規,0,2021-12-28,2021-12-28,株式会社えん,,株式会社,兵庫県,明石市,大久保町ゆりのき通１丁目１番地の１、Ｉ番館１４０６号,00125267,28,203,6740068,,,,,,,2021-12-28,1,,,,,エン,0
880,4140001124342,新規,0,2021-12-28,2021-12-28,株式会社すずか,,株式会社,兵庫県,西宮市,甲子園口２丁目４番１４号,,28,204,6638113,,,,,,,2021-12-28,1,,,,,スズカ,0
882,4140003017148,新規,0,2021-12-28,2021-12-28,合同会社ＮＴ．ＤＲＥＡＭ,,合同会社,兵庫県,西宮市,大森町６番５２－２０４号,,28,204,6638023,,,,,,,2021-12-28,1,,,,,エヌティードリーム,0
887,4180001149286,新規,0,2021-12-28,2021-12-28,株式会社メーク,,株式会社,愛知県,知多郡美浜町,大字野間字新町２００番地,,23,446,4703235,,,,,,,2021-12-28,1,,,,,メーク,0
896,4190001028984,新規,0,2021-12-28,2021-12-28,加納屋株式会社,,株式会社,三重県,伊勢市,神久１丁目６番２３号,,24,203,5160017,,,,,,,2021-12-28,1,,,,,カノウヤ,0
900,4200001039575,新規,0,2021-12-28,2021-12-28,株式会社ＳＷＦ,,株式会社,岐阜県,土岐市,妻木町１２１７番地の１０,,21,212,5095301,,,,,,,2021-12-28,1,,,,,エスダブリュエフ,0
902,4220001016936,新規,0,2021-12-28,2021-12-28,株式会社中市鉄工所,,株式会社,石川県,珠洲市,野々江町ヒノ部３１番地の２,,17,205,9271213,,,,,,,2021-12-28,1,,,,,ナカイチテッコウジョ,0
903,4220003003172,新規,0,2021-12-28,2021-12-28,金澤洋品店合同会社,,合同会社,石川県,白山市,福正寺町５番地,,17,210,9240813,,,,,,,2021-12-28,1,,,,,カナザワヨウヒンテン,0
906,4240001059099,新規,0,2021-12-28,2021-12-28,株式会社オルリード,,株式会社,広島県,尾道市,美ノ郷町白江３０８番地,,34,205,7220213,,,,,,,2021-12-28,1,,,,,オルリード,0
913,4260003003755,新規,0,2021-12-28,2021-12-28,合同会社ケイズスタッフ,,合同会社,岡山県,岡山市南区,新保４００番地３,,33,104,7000945,,,,,,,2021-12-28,1,,,,,ケイズスタッフ,0
922,4290001095833,新規,0,2021-12-28,2021-12-28,雅正文化株式会社,,株式会社,福岡県,福岡市城南区,荒江団地３５番,,40,136,8140102,,,,,,,2021-12-28,1,,,,,ガショウブンカ,0
923,4290001095841,新規,0,2021-12-28,2021-12-28,株式会社ＤＢＬ,,株式会社,福岡県,八女市,蒲原９４８番地３,,40,210,8340064,,,,,,,2021-12-28,1,,,,,デービーエル,0
924,4290801028109,新規,0,2021-12-28,2021-12-28,株式会社Ｔメタル,,株式会社,福岡県,北九州市八幡西区,浅川学園台３丁目１７番３号,,40,109,8070871,,,,,,,2021-12-28,1,,,,,ティメタル,0
925,4290801028125,新規,0,2021-12-28,2021-12-28,株式会社タスクキカク,,株式会社,福岡県,北九州市小倉南区,葛原２丁目２５番３４号２０６,,40,107,8000251,,,,,,,2021-12-28,1,,,,,タスクキカク,0
926,4300003001770,新規,0,2021-12-28,2021-12-28,Ｃｉｒｃｌｅ　ｏｆ　Ｔａｃｏｓ合同会社,,合同会社,佐賀県,鳥栖市,藤木町２４５６コンダクトレジデンス１０１４,,41,203,8410048,,,,,,,2021-12-28,1,,,,,サークルオブタコス,0
933,4320003003682,新規,0,2021-12-28,2021-12-28,合同会社ライズ,,合同会社,大分県,宇佐市,大字閤８３番地レフェル池本２０１号,,44,211,8790455,,,,,,,2021-12-28,1,,,,,ライズ,0
935,4330001029299,新規,0,2021-12-28,2021-12-28,株式会社伊藤工業,,株式会社,熊本県,熊本市北区,清水新地２丁目１４番５号,,43,105,8618075,,,,,,,2021-12-28,1,,,,,イトウコウギョウ,0
940,4360001029817,新規,0,2021-12-28,2021-12-28,株式会社Ｓ企画,,株式会社,沖縄県,石垣市,字野底６９８番地１,,47,207,9070333,,,,,,,2021-12-28,1,,,,,エスキカク,0
941,4360003011673,新規,0,2021-12-28,2021-12-28,合同会社カミラ,,合同会社,沖縄県,那覇市,字上間３６５番地ショコラＢ棟,,47,201,9020073,,,,,,,2021-12-28,1,,,,,カミラ,0
943,4370001047999,新規,0,2021-12-28,2021-12-28,高野原不動産株式会社,,株式会社,宮城県,仙台市青葉区,高野原１丁目１４番地の１,,04,101,9893216,,,,,,,2021-12-28,1,,,,,タカノハラフドウサン,0
952,4380001032430,新規,0,2021-12-28,2021-12-28,株式会社ジオライズ,,株式会社,福島県,いわき市,常磐上湯長谷町湯台堂１２１番地の２１３,,07,204,9728322,,,,,,,2021-12-28,1,,,,,ジオライズ,0
960,4400001015721,新規,0,2021-12-28,2021-12-28,株式会社ワイケーミー,,株式会社,岩手県,紫波郡紫波町,日詰西１丁目５番地８シャーメゾンけやきＩＩ１０１,00125255,03,321,0283306,,,,,,,2021-12-28,1,,,,,ワイケーミー,0
961,4400005008201,新規,0,2021-12-28,2021-12-28,特定非営利活動法人Ｆｕｔｕｒｅ　Ｓｅｅｄｓ,,その他の設立登記法人,岩手県,滝沢市,高屋敷７２－２３,,03,216,0200645,,,,,,,2021-12-28,1,,,,,フューチャーシーズ,0
969,4420005007779,新規,0,2021-12-28,2021-12-28,医療法人高橋こどもクリニック,,その他の設立登記法人,青森県,八戸市,根城５丁目９番１号,,02,203,0391166,,,,,,,2021-12-28,1,,,,,タカハシコドモクリニック,0
977,4470003002091,新規,0,2021-12-28,2021-12-28,水野合名会社,,合名会社,香川県,小豆郡小豆島町,西村甲１８３１番地,,37,324,7614434,,,,,,,2021-12-28,1,,,,,ミズノ,0
979,4500001023895,新規,0,2021-12-28,2021-12-28,ひうち物流株式会社,,株式会社,愛媛県,西条市,今在家１０２４番地４,,38,206,7991362,,,,,,,2021-12-28,1,,,,,ヒウチブツリュウ,0
982,4500003002740,新規,0,2021-12-28,2021-12-28,合同会社未在,,合同会社,愛媛県,松山市,恵原町甲８２０番地３,,38,201,7911134,,,,,,,2021-12-28,1,,,,,ミザイ,0
989,5010001223445,新規,0,2021-12-28,2021-12-28,株式会社ＨａｎＤｓ,,株式会社,東京都,中央区,日本橋２丁目１番１７号丹生ビル２Ｆ,,13,102,1030027,,,,,,,2021-12-28,1,,,,,ハンズ,0
990,5010001223528,新規,0,2021-12-28,2021-12-28,古屋敷存続株式会社,,株式会社,東京都,中央区,銀座１丁目１４番１４号,,13,102,1040061,,,,,,,2021-12-28,1,,,,,フルヤシキソンゾク,0
993,5010003036481,新規,0,2021-12-28,2021-12-28,合同会社ＭＹＫ,,合同会社,東京都,文京区,小石川１丁目５番１－３７０７号,,13,105,1120002,,,,,,,2021-12-28,1,,,,,エムワイケー,0
998,5010401164652,新規,0,2021-12-28,2021-12-28,ｇｒａｔｃｈ　ｓｃａｌｉｎｇ株式会社,,株式会社,東京都,港区,北青山２丁目７番１３号プラセオ青山ビル３Ｆ,,13,103,1070061,,,,,,,2021-12-28,1,,,,,グラッチスケーリング,0
999,5010401164693,新規,0,2021-12-28,2021-12-28,株式会社ビジョナリーテーブル,,株式会社,東京都,港区,南青山６丁目１番３号コレッツィオーネ４０１,,13,103,1070062,,,,,,,2021-12-28,1,,,,,ビジョナリーテーブル,0
1000,5010401164719,新規,0,2021-12-28,2021-12-28,株式会社イーストノート,,株式会社,東京都,港区,南青山２丁目２番１５号ウィン青山９４２,,13,103,1070062,,,,,,,2021-12-28,1,,,,,イーストノート,0
1003,5010503006463,新規,0,2021-12-28,2021-12-28,ブライトウイン合同会社,,合同会社,東京都,台東区,根岸３丁目１８番４号,,13,106,1100003,,,,,,,2021-12-28,1,,,,,ブライトウイン,0
1006,5010701041989,新規,0,2021-12-28,2021-12-28,株式会社カミカグ,,株式会社,東京都,品川区,大崎４丁目１番７号,,13,109,1410032,,,,,,,2021-12-28,1,,,,,カミカグ,0
1014,5010903007045,新規,0,2021-12-28,2021-12-28,合同会社Ｃｅｌｅｂｒａｔｅ,,合同会社,東京都,世田谷区,奥沢６丁目１９番１２号,,13,112,1580083,,,,,,,2021-12-28,1,,,,,セレブレイト,0
1025,5011001144813,新規,0,2021-12-28,2021-12-28,株式会社ＴＨＯ　Ｍｅｄｉａ＆Ｓｏｌｕｔｉｏｎｓ,,株式会社,東京都,目黒区,平町１丁目２４番１号桜森テラス３０３,,13,110,1520032,,,,,,,2021-12-28,1,,,,,ティーエイチオーメディアアンドソリューションズ,0
1031,5011101097399,新規,0,2021-12-28,2021-12-28,株式会社Ｓ＆Ｔ,,株式会社,東京都,新宿区,愛住町１９番地１６－６Ｆ,,13,104,1600005,,,,,,,2021-12-28,1,,,,,エスアンドティー,0
1032,5011301027445,新規,0,2021-12-28,2021-12-28,株式会社アトリエミニヨン・ド・サトコ,,株式会社,東京都,杉並区,宮前１丁目１４番１７号,,13,115,1680081,,,,,,,2021-12-28,1,,,,,アトリエミニヨンドサトコ,0
1034,5011401023930,新規,0,2021-12-28,2021-12-28,株式会社ＨＯＰＥ,,株式会社,東京都,板橋区,三園１丁目４４番１６号ヴェルティ三園２０２号,,13,119,1750091,,,,,,,2021-12-28,1,,,,,ホープ,0
1036,5011501027600,新規,0,2021-12-28,2021-12-28,ＡＳＡＮＡＧＩ株式会社,,株式会社,東京都,荒川区,町屋３丁目２－１Ｂ１０３５号室,,13,118,1160001,,,,,,,2021-12-28,1,,,,,アサナギ,0
1043,5012401038695,新規,0,2021-12-28,2021-12-28,株式会社ＩＮＮＯ,,株式会社,東京都,武蔵野市,境南町３丁目２１－２５－２０５,,13,203,1800023,,,,,,,2021-12-28,1,,,,,イノー,0
1046,5013301048479,新規,0,2021-12-28,2021-12-28,アクセス株式会社,,株式会社,東京都,豊島区,南大塚３丁目３５番２号,,13,116,1700005,,,,,,,2021-12-28,1,,,,,アクセス,0
1050,5020001144525,新規,0,2021-12-28,2021-12-28,株式会社クロイワ商店,,株式会社,神奈川県,横浜市青葉区,あざみ野１丁目３１番地１１－１０３号,,14,117,2250011,,,,,,,2021-12-28,1,,,,,クロイワショウテン,0
1054,5020003021053,新規,0,2021-12-28,2021-12-28,アントローズジャパン合同会社,,合同会社,神奈川県,横浜市泉区,領家３丁目９番地１,,14,116,2450004,,,,,,,2021-12-28,1,,,,,アントローズジャパン,0
1055,5021001074828,新規,0,2021-12-28,2021-12-28,株式会社ＲＯＭＭＹ．,,株式会社,神奈川県,海老名市,泉２丁目１４番１－７１４号,,14,215,2430437,,,,,,,2021-12-28,1,,,,,ロミー,0
1058,5021003011234,新規,0,2021-12-28,2021-12-28,合同会社ＫｈＭ,,合同会社,神奈川県,中郡二宮町,富士見が丘２丁目１０番２６号,,14,342,2590122,,,,,,,2021-12-28,1,,,,,ケーエイチエム,0
1065,5030001146041,新規,0,2021-12-28,2021-12-28,株式会社林興業,,株式会社,埼玉県,草加市,谷塚仲町４０７番地１レガシイハイツ４０５号,,11,221,3400025,,,,,,,2021-12-28,1,,,,,ハヤシコウギョウ,0
1066,5030001146058,新規,0,2021-12-28,2021-12-28,株式会社ＣＯＲＡＺＯＮ,,株式会社,埼玉県,大里郡寄居町,大字西ノ入１２５２番地,,11,408,3691225,,,,,,,2021-12-28,1,,,,,コラゾン,0
1067,5030001146074,新規,0,2021-12-28,2021-12-28,株式会社Ｍｉｙａｚａｗａ　Ｆｏｏｄｓ　Ｉｎｔｅｒｎａｔｉｏｎａｌ,,株式会社,埼玉県,川口市,飯塚４丁目４番３１－２０４号,,11,203,3320023,,,,,,,2021-12-28,1,,,,,ミヤザワフーズインターナショナル,0
1068,5030001146090,新規,0,2021-12-28,2021-12-28,Ｊ．Ａ．Ｐトレーディング株式会社,,株式会社,埼玉県,深谷市,宮ケ谷戸１８３番地２,,11,218,3660023,,,,,,,2021-12-28,1,,,,,ジェイエイピートレーディング,0
1069,5030003018560,新規,0,2021-12-28,2021-12-28,合同会社ＡＤＮＡＮ　ＴＲＡＤＩＮＧ,,合同会社,埼玉県,久喜市,菖蒲町新堀２３７４番地,,11,232,3460105,,,,,,,2021-12-28,1,,,,,アドナントレーディング,0
1077,5040001121497,新規,0,2021-12-28,2021-12-28,ｔｈｅ　ａｎｓｗｅｒ株式会社,,株式会社,千葉県,長生郡一宮町,東浪見７１１６番地５（東浪見ＢｅａｃｈＨｏｕｓｅ）,,12,421,2994303,,,,,,,2021-12-28,1,,,,,ジアンサー,0
1078,5040001121530,新規,0,2021-12-28,2021-12-28,株式会社片山新聞販売,,株式会社,千葉県,富津市,青木１６４７番地２,,12,226,2930012,,,,,,,2021-12-28,1,,,,,カタヤマシンブンハンバイ,0
1079,5040001121547,新規,0,2021-12-28,2021-12-28,株式会社Ｇｉｖｂｌｉｓｓ,,株式会社,千葉県,市原市,ちはら台西２丁目１０番地１３メゾンドレミ３０６,,12,219,2900143,,,,,,,2021-12-28,1,,,,,ギブリス,0
1084,5040003019211,新規,0,2021-12-28,2021-12-28,合同会社Ｒｉｎａｔｏ,,合同会社,千葉県,野田市,柳沢２４８－２,,12,208,2780006,,,,,,,2021-12-28,1,,,,,リナート,0
1091,5050003006266,新規,0,2021-12-28,2021-12-28,Ｄ＆Ｔ合同会社,,合同会社,茨城県,守谷市,けやき台５丁目９番地１,,08,224,3020128,,,,,,,2021-12-28,1,,,,,ディーアンドティー,0
1101,5080101023004,新規,0,2021-12-28,2021-12-28,株式会社フロレゾン,,株式会社,静岡県,富士市,久沢７９３番地,,22,210,4190202,,,,,,,2021-12-28,1,,,,,フロレゾン,0
1103,5090001017344,新規,0,2021-12-28,2021-12-28,株式会社ひととどうぶつ,,株式会社,山梨県,北杜市,大泉町西井出８２４０番地６２８４,,19,209,4091501,,,,,,,2021-12-28,1,,,,,ヒトトドウブツ,0
1111,5120001242764,新規,0,2021-12-28,2021-12-28,株式会社ＮｅｃｏＭａｃｈｉ,,株式会社,大阪府,大阪市北区,豊崎２丁目１１番１号,,27,127,5310072,,,,,,,2021-12-28,1,,,,,ネコマチ,0
1120,5120101064852,新規,0,2021-12-28,2021-12-28,株式会社畑の力,,株式会社,大阪府,羽曳野市,駒ケ谷１２２０番地,,27,222,5830841,,,,,,,2021-12-28,1,,,,,ハタケノチカラ,0
1127,5130001070784,新規,0,2021-12-28,2021-12-28,玖邁株式会社,,株式会社,京都府,京都市伏見区,深草西浦町２丁目８１メゾン・ド・プラトー２０４号室,,26,109,6120029,,,,,,,2021-12-28,1,,,,,キュウマイ,0
1128,5130001070801,新規,0,2021-12-28,2021-12-28,株式会社おやゆび,,株式会社,京都府,京都市右京区,西院矢掛町２８番地２シンワ会館２階,,26,108,6150024,,,,,,,2021-12-28,1,,,,,オヤユビ,0
1134,5140001124325,新規,0,2021-12-28,2021-12-28,株式会社エムズ食販,,株式会社,兵庫県,姫路市,白浜町甲７４４番地５,,28,201,6728023,,,,,,,2021-12-28,1,,,,,エムズショクハン,0
1135,5140001124374,新規,0,2021-12-28,2021-12-28,株式会社ＦＬＡＴ,,株式会社,兵庫県,神戸市中央区,加納町３丁目２番１号Ｉ．Ｃ．Ｏビル４０１号室,,28,110,6500001,,,,,,,2021-12-28,1,,,,,フラット,0
1137,5140003017072,新規,0,2021-12-28,2021-12-28,にちでん合同会社,,合同会社,兵庫県,神戸市西区,池上１丁目２番１６号ブリュンヒルト２０８号,,28,111,6512111,,,,,,,2021-12-28,1,,,,,ニチデン,0
1139,5150003002577,新規,0,2021-12-28,2021-12-28,合同会社ｍｕｔｈｏｓ,,合同会社,奈良県,橿原市,中曽司町３４８－１,,29,205,6340845,,,,,,,2021-12-28,1,,,,,ミュートス,0
1141,5160001023905,新規,0,2021-12-28,2021-12-28,株式会社開花者,,株式会社,滋賀県,長浜市,室町８６番地,,25,203,5260835,,,,,,,2021-12-28,1,,,,,カイカモン,0
1142,5160003002460,新規,0,2021-12-28,2021-12-28,合同会社オフィスオータム,,合同会社,滋賀県,大津市,粟津町７番２１－２０３号,,25,201,5200832,,,,,,,2021-12-28,1,,,,,オフィスオータム,0
1146,5180001149293,新規,0,2021-12-28,2021-12-28,株式会社ティーテック,,株式会社,愛知県,名古屋市瑞穂区,雁道町３丁目１６番地,,23,108,4670877,,,,,,,2021-12-28,1,,,,,ティーテック,0
1147,5180001149319,新規,0,2021-12-28,2021-12-28,ＭＥＤＩＮＡ　ＴＲＡＤＩＮＧ株式会社,,株式会社,愛知県,津島市,東柳原町１丁目３６番地ヒルズＭＹ２０５号室,,23,208,4960045,,,,,,,2021-12-28,1,,,,,メディナトレーディング,0
1148,5180001149327,新規,0,2021-12-28,2021-12-28,株式会社ＦＬＯＷＳ,,株式会社,愛知県,名古屋市天白区,元植田２丁目１７０７番地コートアベニュー２０２号室,,23,116,4680009,,,,,,,2021-12-28,1,,,,,フロウズ,0
1151,5180303005203,新規,0,2021-12-28,2021-12-28,合同会社アセットマネジメントベース,,合同会社,愛知県,知立市,中町花山１０番地３,,23,225,4720033,,,,,,,2021-12-28,1,,,,,アセットマネジメントベース,0
1156,5200001039574,新規,0,2021-12-28,2021-12-28,株式会社メンシス,,株式会社,岐阜県,岐阜市,中川原４丁目１０９番地,,21,201,5020013,,,,,,,2021-12-28,1,,,,,メンシス,0
1157,5200003005401,新規,0,2021-12-28,2021-12-28,合同会社Ｔｈｏｕｇｈｔｆｕｌ　ｒｅａｌｔｙ,,合同会社,岐阜県,安八郡安八町,大森４１３－２,,21,383,5030116,,,,,,,2021-12-28,1,,,,,ソートフルリアリティ,0
1168,5240001059098,新規,0,2021-12-28,2021-12-28,株式会社美工業,,株式会社,広島県,広島市安佐北区,可部１丁目６番１９号,,34,106,7310221,,,,,,,2021-12-28,1,,,,,ビコウギョウ,0
1179,5270005005491,新規,0,2021-12-28,2021-12-28,一般社団法人北栄町観光協会,,その他の設立登記法人,鳥取県,東伯郡北栄町,由良宿５７３番地１,,31,372,6892221,,,,,,,2021-12-28,1,,,,,ホクエイチョウカンコウキョウカイ,0
1183,5290001095849,新規,0,2021-12-28,2021-12-28,日本アセットアンドエステート株式会社,,株式会社,福岡県,福岡市中央区,輝国２丁目２５番４０号,,40,133,8100032,,,,,,,2021-12-28,1,,,,,ニホンアセットアンドエステート,0
1184,5290001095873,新規,0,2021-12-28,2021-12-28,Ｉｒｅａ株式会社,,株式会社,福岡県,福岡市南区,市崎１丁目２番８－４５０号,,40,134,8150084,,,,,,,2021-12-28,1,,,,,アイリア,0
1187,5290801028124,新規,0,2021-12-28,2021-12-28,株式会社白文舎,,株式会社,福岡県,北九州市八幡西区,日吉台１丁目１４番５号,,40,109,8070866,,,,,,,2021-12-28,1,,,,,ハクブンシャ,0
1188,5290803004016,新規,0,2021-12-28,2021-12-28,アーク合同会社,,合同会社,福岡県,北九州市小倉南区,企救丘４丁目１０番７号,,40,107,8020981,,,,,,,2021-12-28,1,,,,,アーク,0
1192,5320003003681,新規,0,2021-12-28,2021-12-28,合同会社大和,,合同会社,大分県,中津市,１１２８番地１,,44,203,8710099,,,,,,,2021-12-28,1,,,,,ヤマト,0
1193,5330001029298,新規,0,2021-12-28,2021-12-28,株式会社ＭＴ工業,,株式会社,熊本県,玉名郡長洲町,大字高浜１６３４番地５,,43,368,8690121,,,,,,,2021-12-28,1,,,,,エムティーコウギョウ,0
1196,5330003009182,新規,0,2021-12-28,2021-12-28,合同会社ＴＡＢＥＧＯＲＯ,,合同会社,熊本県,熊本市西区,花園７丁目７番２２－２号,,43,103,8600072,,,,,,,2021-12-28,1,,,,,タベゴロ,0
1197,5340003003663,新規,0,2021-12-28,2021-12-28,グリーン興産合同会社,,合同会社,鹿児島県,鹿児島市,田上町４３４６番３,,46,201,8900035,,,,,,,2021-12-28,1,,,,,グリーンコウサン,0
1202,5360001029824,新規,0,2021-12-28,2021-12-28,波之屋不動産株式会社,,株式会社,沖縄県,国頭郡恩納村,字名嘉真２２８８番地８０ハレアネラ１０３号室,,47,311,9040401,,,,,,,2021-12-28,1,,,,,ナミノヤフドウサン,0
1204,5360003011680,新規,0,2021-12-28,2021-12-28,合同会社Ｒ．ｐ,,合同会社,沖縄県,うるま市,字塩屋５３番地Ｍａｎｓｉｏｎ２０２０－１０１号,,47,213,9042231,,,,,,,2021-12-28,1,,,,,アールピー,0
1206,5370001047998,新規,0,2021-12-28,2021-12-28,ＴＨＥ　ＨＯＭＥ株式会社,,株式会社,宮城県,仙台市若林区,遠見塚１丁目２番３１号,,04,103,9840823,,,,,,,2021-12-28,1,,,,,ザホーム,0
1211,5380001032438,新規,0,2021-12-28,2021-12-28,株式会社ＡＺＩＡ,,株式会社,福島県,喜多方市,関柴町下柴字天神前３９１番地７,,07,208,9660012,,,,,,,2021-12-28,1,,,,,エイジア,0
1226,5430003013488,新規,0,2021-12-28,2021-12-28,合同会社おさつ不動産,,合同会社,北海道,千歳市,長都駅前３丁目８番７号,,01,224,0660031,,,,,,,2021-12-28,1,,,,,オサツフドウサン,0
1247,6010001223477,新規,0,2021-12-28,2021-12-28,株式会社セットセッテ,,株式会社,東京都,中央区,銀座７丁目５番４号,,13,102,1040061,,,,,,,2021-12-28,1,,,,,セットセッテ,0
1259,6010401164635,新規,0,2021-12-28,2021-12-28,ゴルフメイトジャパン株式会社,,株式会社,東京都,港区,新橋２丁目５番６号,,13,103,1050004,,,,,,,2021-12-28,1,,,,,ゴルフメイトジャパン,0
1260,6010401164692,新規,0,2021-12-28,2021-12-28,株式会社ＮｙａｍｏＷｏｒｌｄ,,株式会社,東京都,港区,南青山２丁目２番１５号,,13,103,1070062,,,,,,,2021-12-28,1,,,,,ニャモワールド,0
1261,6010401164718,新規,0,2021-12-28,2021-12-28,エヌエフティアーツ株式会社,,株式会社,東京都,港区,虎ノ門１丁目１７番１号虎ノ門ヒルズビジネスタワー１５階,,13,103,1050001,,,,,,,2021-12-28,1,,,,,エヌエフティアーツ,0
1264,6010403026676,新規,0,2021-12-28,2021-12-28,フリーダム合同会社,,合同会社,東京都,港区,六本木４丁目１番２－２０２,,13,103,1060032,,,,,,,2021-12-28,1,,,,,,0
1284,6011001144746,新規,0,2021-12-28,2021-12-28,コスマックスジャパン株式会社,,株式会社,東京都,渋谷区,千駄ヶ谷３丁目８番５号２Ｆ,,13,113,1510051,,,,,,,2021-12-28,1,,,,,コスマックスジャパン,0
1285,6011001144812,新規,0,2021-12-28,2021-12-28,株式会社ＤＲＫ,,株式会社,東京都,目黒区,洗足２丁目１７番４号ジョイハウス洗足１Ｆ,,13,110,1520012,,,,,,,2021-12-28,1,,,,,ディーアールケイ,0
1286,6011003013916,新規,0,2021-12-28,2021-12-28,合同会社ヘスパー,,合同会社,東京都,渋谷区,神宮前６丁目２３番４号,,13,113,1500001,,,,,,,2021-12-28,1,,,,,ヘスパー,0
1287,6011005009375,新規,0,2021-12-28,2021-12-28,一般社団法人ＳＣＴ入間,,その他の設立登記法人,東京都,目黒区,洗足２丁目１６番１９号,,13,110,1520012,,,,,,,2021-12-28,1,,,,,エスシーティーイルマ,0
1291,6011101097324,新規,0,2021-12-28,2021-12-28,株式会社エリートプロモーション,,株式会社,東京都,新宿区,西新宿７丁目６番８号,,13,104,1600023,,,,,,,2021-12-28,1,,,,,エリートプロモーション,0
1292,6011101097381,新規,0,2021-12-28,2021-12-28,株式会社アンロック,,株式会社,東京都,新宿区,西新宿７丁目７番２６号ワコーレ新宿第一ビル,,13,104,1600023,,,,,,,2021-12-28,1,,,,,,0
1299,6011501027608,新規,0,2021-12-28,2021-12-28,株式会社オージーアイ,,株式会社,東京都,北区,岩淵町１２番８号,,13,117,1150041,,,,,,,2021-12-28,1,,,,,オージーアイ,0
1301,6011603003481,新規,0,2021-12-28,2021-12-28,合同会社Ｎｅｘｔ　Ｓｐｏｔ,,合同会社,東京都,練馬区,西大泉６丁目１１番３５号,,13,120,1780065,,,,,,,2021-12-28,1,,,,,ネクストスポット,0
1303,6011701024941,新規,0,2021-12-28,2021-12-28,株式会社アートブルー,,株式会社,東京都,江戸川区,北小岩６丁目１７番５号,,13,123,1330051,,,,,,,2021-12-28,1,,,,,アートブルー,0
1304,6011801040120,新規,0,2021-12-28,2021-12-28,株式会社高橋創建,00125259,株式会社,東京都,葛飾区,堀切２丁目５９番１２－３０３号,,13,122,1240006,,,,,,,2021-12-28,1,,,,,タカハシソウケン,0
1307,6012401038703,新規,0,2021-12-28,2021-12-28,ＭｅｒｅｐｏｓｓｉｂｉＴｉｅｓ株式会社,,株式会社,東京都,三鷹市,上連雀２丁目３番１－６０４号,,13,204,1810012,,,,,,,2021-12-28,1,,,,,ミアポシビタイズ,0
1308,6012403005172,新規,0,2021-12-28,2021-12-28,合同会社Ｏライフパートナーズ,,合同会社,東京都,狛江市,猪方３丁目４－４,,13,219,2010015,,,,,,,2021-12-28,1,,,,,オーライフパートナーズ,0
1312,6013301048453,新規,0,2021-12-28,2021-12-28,ＳＥＩＫＯ株式会社,,株式会社,東京都,豊島区,北大塚２丁目２３番２－４０１号,,13,116,1700004,,,,,,,2021-12-28,1,,,,,セイコー,0
1313,6013301048478,新規,0,2021-12-28,2021-12-28,星野瑞希・Ｕ株式会社,,株式会社,東京都,豊島区,南池袋３丁目１３－９,,13,116,1710022,,,,,,,2021-12-28,1,,,,,ホシノミズキユー,0
1314,6013303005964,新規,0,2021-12-28,2021-12-28,合同会社レッドフェザー,,合同会社,東京都,豊島区,池袋本町３丁目２６番１１－２０１号,,13,116,1700011,,,,,,,2021-12-28,1,,,,,レッドフェザー,0
1320,6020001144508,新規,0,2021-12-28,2021-12-28,株式会社よしだ商会,,株式会社,神奈川県,横浜市神奈川区,六角橋２丁目１４－２クレインビル,,14,102,2210802,,,,,,,2021-12-28,1,,,,,ヨシダショウカイ,0
1321,6020001144516,新規,0,2021-12-28,2021-12-28,みなとみらいリサイクル株式会社,,株式会社,神奈川県,横浜市中区,弥生町３丁目３３番地１－８０２号室,,14,104,2310058,,,,,,,2021-12-28,1,,,,,ミナトミライリサイクル,0
1322,6020001144524,新規,0,2021-12-28,2021-12-28,株式会社明和商事,,株式会社,神奈川県,川崎市多摩区,長沢４丁目３７番１４号,,14,135,2140035,,,,,,,2021-12-28,1,,,,,メイワショウジ,0
1326,6021001074827,新規,0,2021-12-28,2021-12-28,株式会社ｂｌｏｏｍ,,株式会社,神奈川県,三浦郡葉山町,堀内９３９番地の１１,,14,301,2400112,,,,,,,2021-12-28,1,,,,,ブルーム,0
1327,6021001074835,新規,0,2021-12-28,2021-12-28,株式会社ゼスト,,株式会社,神奈川県,小田原市,飯泉１０９７番地,,14,206,2500863,,,,,,,2021-12-28,1,,,,,ゼスト,0
1331,6030001146024,新規,0,2021-12-28,2021-12-28,株式会社ＭＡＫＩＴＯ,,株式会社,埼玉県,川口市,差間１丁目２０番１８号,,11,203,3330816,,,,,,,2021-12-28,1,,,,,マキト,0
1335,6040001121513,新規,0,2021-12-28,2021-12-28,ＦＣＯＳ株式会社,,株式会社,千葉県,富津市,岩瀬３３７番地３,,12,226,2930043,,,,,,,2021-12-28,1,,,,,エフコス,0
1336,6040001121521,新規,0,2021-12-28,2021-12-28,ＳＳＭ株式会社,,株式会社,千葉県,流山市,江戸川台東４丁目１１９番地,,12,220,2700111,,,,,,,2021-12-28,1,,,,,エスエスエム,0
1337,6040001121546,新規,0,2021-12-28,2021-12-28,株式会社メマルリ,,株式会社,千葉県,市川市,行徳駅前２丁目９番２６号,,12,203,2720133,,,,,,,2021-12-28,1,,,,,メマルリ,0
1338,6040001121554,新規,0,2021-12-28,2021-12-28,ＫＢＣアドバンス株式会社,,株式会社,千葉県,鎌ケ谷市,東初富６丁目８番１号,,12,224,2730122,,,,,,,2021-12-28,1,,,,,ケイビーシーアドバンス,0
1340,6040003019210,新規,0,2021-12-28,2021-12-28,合同会社縁人,,合同会社,千葉県,柏市,明原２丁目２番２０号,,12,217,2770843,,,,,,,2021-12-28,1,,,,,エンジン,0
1343,6050001050380,新規,0,2021-12-28,2021-12-28,坂東産業株式会社,,株式会社,茨城県,坂東市,逆井２５４７番地１,,08,228,3060501,,,,,,,2021-12-28,1,,,,,バンドウサンギョウ,0
1355,6070005009933,新規,0,2021-12-28,2021-12-28,一般社団法人コムズ,,その他の設立登記法人,群馬県,桐生市,広沢町４丁目１９７６番地の５１,,10,203,3760013,,,,,,,2021-12-28,1,,,,,コムズ,0
1359,6100003006334,新規,0,2021-12-28,2021-12-28,ＤＰＭＳｓ合同会社,,合同会社,長野県,上伊那郡辰野町,大字伊那富３５０２番地,,20,382,3990428,,,,,,,2021-12-28,1,,,,,ディーピーエムエスエス,0
1363,6110003004667,新規,0,2021-12-28,2021-12-28,ＡＴＩ合同会社,,合同会社,新潟県,中魚沼郡津南町,大字芦ケ崎乙５６３番地,,15,482,9498202,,,,,,,2021-12-28,1,,,,,エーティーアイ,0
1382,6122001035461,新規,0,2021-12-28,2021-12-28,株式会社Ｋ’Ｄｒｅａｍ　Ｄｉａｒｙ,,株式会社,大阪府,八尾市,木の本１丁目３１－１６,,27,212,5810044,,,,,,,2021-12-28,1,,,,,ケイドリームダイアリー,0
1388,6140001124308,新規,0,2021-12-28,2021-12-28,株式会社ＴＲＹ,,株式会社,兵庫県,川西市,水明台２丁目２番１０号,,28,217,6660116,,,,,,,2021-12-28,1,,,,,トライ,0
1390,6140003017154,新規,0,2021-12-28,2021-12-28,合同会社Ｂｉｓｏｎａｒｕ,,合同会社,兵庫県,小野市,王子町６６０－１ＭＴメゾン１０１,,28,218,6751378,,,,,,,2021-12-28,1,,,,,ビソナル,0
1397,6180001149318,新規,0,2021-12-28,2021-12-28,株式会社エイトック工業,,株式会社,愛知県,春日井市,宮町字宮町１５５番地６,,23,206,4860904,,,,,,,2021-12-28,1,,,,,エイトックコウギョウ,0
1405,6200003005409,新規,0,2021-12-28,2021-12-28,合同会社Ａ３,,合同会社,岐阜県,岐阜市,日野北５丁目２番１６号,,21,201,5008207,,,,,,,2021-12-28,1,,,,,アンスリー,0
1415,6260001036359,新規,0,2021-12-28,2021-12-28,株式会社Ｔａｕｔｏｌｏｇｙ,,株式会社,岡山県,岡山市北区,伊島町２丁目４番５号（３０２号室）,,33,101,7000016,,,,,,,2021-12-28,1,,,,,トートロジー,0
1417,6280005007453,新規,0,2021-12-28,2021-12-28,特定非営利活動法人Ｇｒｅｅｎ‐Ｌｉｇｈｔ,,その他の設立登記法人,島根県,浜田市,日脚町１８５－１２サンライズ日脚、部屋番号３,,32,202,6971322,,,,,,,2021-12-28,1,,,,,グリーンライト,0
1420,6290001095781,新規,0,2021-12-28,2021-12-28,株式会社農業開発機構,,株式会社,福岡県,福岡市南区,長丘２丁目２６‐１長丘リーゼントコーポレーションＣ，３０２,,40,134,8150075,,,,,,,2021-12-28,1,,,,,ノウギョウカイハツキコウ,0
1421,6290005018499,新規,0,2021-12-28,2021-12-28,一般社団法人麦,,その他の設立登記法人,福岡県,福岡市城南区,梅林１丁目４番１５－１０５号,,40,136,8140144,,,,,,,2021-12-28,1,,,,,ムギ,0
1423,6290801028123,新規,0,2021-12-28,2021-12-28,株式会社オフィスＯＺ,,株式会社,福岡県,北九州市小倉南区,下曽根３丁目２番５号,,40,107,8000217,,,,,,,2021-12-28,1,,,,,オフィスオズ,0
1433,6330001029297,新規,0,2021-12-28,2021-12-28,株式会社富仁建設,,株式会社,熊本県,合志市,福原１０００番地１,,43,216,8611116,,,,,,,2021-12-28,1,,,,,フジケンセツ,0
1434,6330003009181,新規,0,2021-12-28,2021-12-28,合同会社鹿央町車両センター,,合同会社,熊本県,山鹿市,鹿央町合里２１１０番地１,,43,208,8610565,,,,,,,2021-12-28,1,,,,,カオウマチシャリョウセンター,0
1435,6340001024355,新規,0,2021-12-28,2021-12-28,株式会社ケイライフ,,株式会社,鹿児島県,熊毛郡中種子町,野間４３０３番地１６,,46,501,8913604,,,,,,,2021-12-28,1,,,,,ケイライフ,0
1443,6360001029823,新規,0,2021-12-28,2021-12-28,株式会社シャーネット,,株式会社,沖縄県,浦添市,仲間１丁目１０番５号,,47,208,9012103,,,,,,,2021-12-28,1,,,,,シャーネット,0
1446,6370001047989,新規,0,2021-12-28,2021-12-28,株式会社油圧サービス,,株式会社,宮城県,加美郡色麻町,四竃字東原２９１番地１,,04,444,9814122,,,,,,,2021-12-28,1,,,,,ユアツサービス,0
1448,6380001032437,新規,0,2021-12-28,2021-12-28,株式会社アーツクラフト,,株式会社,福島県,東白川郡棚倉町,大字棚倉字日向前２１８番地３,,07,481,9636131,,,,,,,2021-12-28,1,,,,,アーツクラフト,0
1460,6470001018889,新規,0,2021-12-28,2021-12-28,株式会社ＦＯＲＷＩＮ,,株式会社,香川県,観音寺市,植田町１０５１番地２,,37,205,7680012,,,,,,,2021-12-28,1,,,,,フォーウィン,0
1471,7010001223484,新規,0,2021-12-28,2021-12-28,株式会社Ｆｕｎｄａｙ,,株式会社,東京都,千代田区,麹町４丁目３番地５紀尾井観光ビル４階,,13,101,1020083,,,,,,,2021-12-28,1,,,,,ファンデイ,0
1474,7010003036579,新規,0,2021-12-28,2021-12-28,合同会社ＬＯＯＰ,,合同会社,東京都,中央区,勝どき３丁目７番５－７０１号,,13,102,1040054,,,,,,,2021-12-28,1,,,,,ループ,0
1475,7010103001838,新規,0,2021-12-28,2021-12-28,合同会社Ｂカンパニー,,合同会社,東京都,八王子市,西寺方町３４７番地１,,13,201,1920153,,,,,,,2021-12-28,1,,,,,,0
1476,7010401164659,新規,0,2021-12-28,2021-12-28,株式会社ガーデンクオーツ,,株式会社,東京都,港区,北青山３丁目４番３号クラス青山１４０７,,13,103,1070061,,,,,,,2021-12-28,1,,,,,ガーデンクオーツ,0
1478,7010403026782,新規,0,2021-12-28,2021-12-28,合同会社Ｉｍａｇｉｎｉｃ,,合同会社,東京都,港区,浜松町２丁目２番１５号浜松町ダイヤビル２Ｆ,,13,103,1050013,,,,,,,2021-12-28,1,,,,,イマジニック,0
1484,7010601060443,新規,0,2021-12-28,2021-12-28,株式会社ｓｔｕｄｉｏ　ＷＩＬＤＫＩＤＳ,,株式会社,東京都,江東区,亀戸６丁目５６番４号１階,,13,108,1360071,,,,,,,2021-12-28,1,,,,,スタジオワイルドキッズ,0
1487,7010701041995,新規,0,2021-12-28,2021-12-28,株式会社鍵屋,,株式会社,東京都,品川区,荏原２丁目１０番２－１０１号,,13,109,1420063,,,,,,,2021-12-28,1,,,,,カギヤ,0
1493,7010901050078,新規,0,2021-12-28,2021-12-28,株式会社ＳＨＲ　Ｃｏｎｓｕｌｔｉｎｇ,,株式会社,東京都,世田谷区,千歳台３丁目６－９－６０２,,13,112,1570071,,,,,,,2021-12-28,1,,,,,エスエイチアールコンサルティング,0
1498,7011001144745,新規,0,2021-12-28,2021-12-28,株式会社しろくま,,株式会社,東京都,渋谷区,宇田川町３６番１７号ニューシブヤマンション３０５,,13,113,1500042,,,,,,,2021-12-28,1,,,,,シロクマ,0
1499,7011001144753,新規,0,2021-12-28,2021-12-28,株式会社ＨＲｄｅｖ,,株式会社,東京都,渋谷区,神宮前６丁目２３－４桑野ビル２Ｆ,,13,113,1500001,,,,,,,2021-12-28,1,,,,,,0
1500,7011001144794,新規,0,2021-12-28,2021-12-28,株式会社ハングオーバープレート,,株式会社,東京都,目黒区,青葉台３丁目５番８－１０３号,,13,110,1530042,,,,,,,2021-12-28,1,,,,,ハングオーバープレート,0
1501,7011001144803,新規,0,2021-12-28,2021-12-28,株式会社バウンスレス,,株式会社,東京都,渋谷区,代々木２丁目２６番２号第二桑野ビル５Ｄ,,13,113,1510053,,,,,,,2021-12-28,1,,,,,バウンスレス,0
1503,7011003013931,新規,0,2021-12-28,2021-12-28,合同会社ＰｒｏｄｕｃｔｉｏｎＨａｌ,,合同会社,東京都,渋谷区,神宮前６丁目２３番４号桑野ビル２階,,13,113,1500001,,,,,,,2021-12-28,1,,,,,プロダクションハル,0
1504,7011101097397,新規,0,2021-12-28,2021-12-28,株式会社クロス・バード,,株式会社,東京都,新宿区,西新宿３丁目３番１３号６階,,13,104,1600023,,,,,,,2021-12-28,1,,,,,クロスバード,0
1509,7011501027607,新規,0,2021-12-28,2021-12-28,株式会社日本ホテルマネジメント,,株式会社,東京都,荒川区,荒川５丁目１－１３山路ビル３０３号室,,13,118,1160002,,,,,,,2021-12-28,1,,,,,ニッポンホテルマネジメント,0
1515,7011701024940,新規,0,2021-12-28,2021-12-28,株式会社ＨＩＲＡＭＡＴＳＵ,,株式会社,東京都,江戸川区,中葛西５丁目１７番６－１０２号,,13,123,1340083,,,,,,,2021-12-28,1,,,,,ヒラマツ,0
1520,7011803004898,新規,0,2021-12-28,2021-12-28,合同会社ＵＲＡＩＷＡＮ,,合同会社,東京都,葛飾区,四つ木５丁目１４番１－６０３号ライオンズマンション立石第２,,13,122,1240011,,,,,,,2021-12-28,1,,,,,ウライワン,0
1522,7012701016837,新規,0,2021-12-28,2021-12-28,株式会社千田興業,,株式会社,東京都,西東京市,向台町２丁目１３番３６号,,13,229,1880013,,,,,,,2021-12-28,1,,,,,センダコウギョウ,0
1523,7012701016845,新規,0,2021-12-28,2021-12-28,サクセスラボ株式会社,,株式会社,東京都,小平市,花小金井７丁目６番１－７０１号,,13,211,1870002,,,,,,,2021-12-28,1,,,,,サクセスラボ,0
1525,7013301048460,新規,0,2021-12-28,2021-12-28,君君株式会社,,株式会社,東京都,豊島区,池袋１丁目１２－１ハニービーＥ号室,,13,116,1700014,,,,,,,2021-12-28,1,,,,,クンクン,0
1526,7013301048493,新規,0,2021-12-28,2021-12-28,株式会社ひりゅう,,株式会社,東京都,豊島区,南大塚３丁目４５番７号,,13,116,1700005,,,,,,,2021-12-28,1,,,,,ヒリュウ,0
1534,7020001144531,新規,0,2021-12-28,2021-12-28,株式会社バースドット,,株式会社,神奈川県,横浜市金沢区,釜利谷南２丁目１６－３５－５０７,,14,108,2360045,,,,,,,2021-12-28,1,,,,,バースドット,0
1535,7020003021035,新規,0,2021-12-28,2021-12-28,合同会社ＲＲＨ,,合同会社,神奈川県,川崎市中原区,上新城２丁目６番１号,,14,133,2110045,,,,,,,2021-12-28,1,,,,,アールアールエイチ,0
1543,7021003011232,新規,0,2021-12-28,2021-12-28,合同会社アローズ,,合同会社,神奈川県,横須賀市,田浦大作町１５番地,,14,201,2370074,,,,,,,2021-12-28,1,,,,,アローズ,0
1544,7021003011240,新規,0,2021-12-28,2021-12-28,合同会社ＢＲＯＳ,,合同会社,神奈川県,茅ヶ崎市,中海岸３丁目４番１２号ワレアハレ中海岸１０２,,14,207,2530055,,,,,,,2021-12-28,1,,,,,ブロス,0
1554,7030003018559,新規,0,2021-12-28,2021-12-28,合同会社アトラス,,合同会社,埼玉県,幸手市,中３丁目１４番６号,,11,240,3400115,,,,,,,2021-12-28,1,,,,,アトラス,0
1560,7040001121512,新規,0,2021-12-28,2021-12-28,株式会社みさと,,株式会社,千葉県,四街道市,もねの里２丁目７番２４号,,12,228,2840016,,,,,,,2021-12-28,1,,,,,ミサト,0
1561,7040001121529,新規,0,2021-12-28,2021-12-28,株式会社Ｙ．Ｌｉｎｋ,,株式会社,千葉県,市川市,須和田１丁目２４番１４号－２０１,,12,203,2720825,,,,,,,2021-12-28,1,,,,,ワイリンク,0
1562,7040001121537,新規,0,2021-12-28,2021-12-28,サンテラ株式会社,,株式会社,千葉県,茂原市,六ツ野３３９４番地２,,12,210,2970012,,,,,,,2021-12-28,1,,,,,サンテラ,0
1565,7050001050355,新規,0,2021-12-28,2021-12-28,株式会社クルス,,株式会社,茨城県,土浦市,藤沢１２８５番地,,08,203,3004115,,,,,,,2021-12-28,1,,,,,クルス,0
1567,7050003006289,新規,0,2021-12-28,2021-12-28,合同会社未来企業,,合同会社,茨城県,つくばみらい市,谷井田１４００番地８－１階,,08,235,3002337,,,,,,,2021-12-28,1,,,,,ミライキギョウ,0
1572,7070001038778,新規,0,2021-12-28,2021-12-28,ＥＮＳＹＯ株式会社,,株式会社,群馬県,太田市,新井町３３０番地２０,,10,205,3730852,,,,,,,2021-12-28,1,,,,,エンショウ,0
1573,7070005009932,新規,0,2021-12-28,2021-12-28,農事組合法人ＵＤＮ,,その他の設立登記法人,群馬県,太田市,熊野町２９番１４号,,10,205,3730025,,,,,,,2021-12-28,1,,,,,ユーディーエヌ,0
1577,7080403004435,新規,0,2021-12-28,2021-12-28,合同会社生命の探求院,,合同会社,静岡県,浜松市浜北区,宮口３５１５番地の１ドエルコートＡ－２,,22,136,4340004,,,,,,,2021-12-28,1,,,,,イノチノタンキュウイン,0
1581,7100001034930,新規,0,2021-12-28,2021-12-28,株式会社南信メタル,,株式会社,長野県,岡谷市,湖畔２丁目５番１０号,,20,204,3940034,,,,,,,2021-12-28,1,,,,,ナンシンメタル,0
1587,7120001242738,新規,0,2021-12-28,2021-12-28,アイトスホールディングス株式会社,,株式会社,大阪府,大阪市中央区,北久宝寺町２丁目４番８号,,27,128,5410057,,,,,,,2021-12-28,1,,,,,アイトスホールディングス,0
1591,7120101064859,新規,0,2021-12-28,2021-12-28,星成国際貿易株式会社,,株式会社,大阪府,堺市堺区,竜神橋町２丁１番２２号フォレストコート３０１号,,27,141,5900972,,,,,,,2021-12-28,1,,,,,セイセイコクサイボウエキ,0
1594,7120901045406,新規,0,2021-12-28,2021-12-28,株式会社さかまる堂,,株式会社,大阪府,茨木市,東奈良１丁目７番１２号,,27,211,5670861,,,,,,,2021-12-28,1,,,,,サカマルドウ,0
1595,7120903003964,新規,0,2021-12-28,2021-12-28,合同会社ベアーズオフィス,,合同会社,大阪府,箕面市,小野原西３丁目２３番１号,,27,220,5620032,,,,,,,2021-12-28,1,,,,,ベアーズオフィス,0
1602,7130001070790,新規,0,2021-12-28,2021-12-28,株式会社丸順工業,,株式会社,京都府,八幡市,内里荒場３１番地の１,,26,210,6148232,,,,,,,2021-12-28,1,,,,,マルジュンコウギョウ,0
1603,7130001070799,新規,0,2021-12-28,2021-12-28,株式会社ＳＡＫＩ,,株式会社,京都府,京都市南区,東九条北烏丸町３番地１,,26,107,6018017,,,,,,,2021-12-28,1,,,,,サキ,0
1604,7130003007659,新規,0,2021-12-28,2021-12-28,合同会社ｎ,,合同会社,京都府,京都市南区,久世上久世町３３４番地,,26,107,6018212,,,,,,,2021-12-28,1,,,,,ン,0
1610,7140001124356,新規,0,2021-12-28,2021-12-28,株式会社ｔｒｙ－Ｒ,,株式会社,兵庫県,芦屋市,楠町１５番５－５０５号,,28,206,6590015,,,,,,,2021-12-28,1,,,,,トライアール,0
1611,7140001124364,新規,0,2021-12-28,2021-12-28,Ｔ’ｓ　Ｆａｃｔｏｒｙ株式会社,,株式会社,兵庫県,宝塚市,山手台東４丁目１９番２号,,28,214,6650887,,,,,,,2021-12-28,1,,,,,ティーズファクトリー,0
1615,7140003017145,新規,0,2021-12-28,2021-12-28,合同会社ＢＵＬＬ,,合同会社,兵庫県,神戸市長田区,若松町５丁目５番１－２００１号,,28,106,6530038,,,,,,,2021-12-28,1,,,,,ブル,0
1618,7150001025207,新規,0,2021-12-28,2021-12-28,株式会社大和セキュリティー,,株式会社,奈良県,奈良市,大宮町６丁目９－８岡田ビル５０３,,29,201,6308115,,,,,,,2021-12-28,1,,,,,ヤマトセキュリティー,0
1627,7180001149275,新規,0,2021-12-28,2021-12-28,ＴＹホールディングス株式会社,,株式会社,愛知県,名古屋市中区,錦３丁目１９番１７号,,23,106,4600003,,,,,,,2021-12-28,1,,,,,ティーワイホールディングス,0
1634,7180301035761,新規,0,2021-12-28,2021-12-28,株式会社ＰＲＥＺｉＡ,,株式会社,愛知県,知立市,栄１丁目５番地エキタス知立２Ｆ２０１,,23,225,4720037,,,,,,,2021-12-28,1,,,,,プレジア,0
1639,7200001039580,新規,0,2021-12-28,2021-12-28,株式会社昇栄工業,,株式会社,岐阜県,岐阜市,下鵜飼１５５７番地４,,21,201,5011172,,,,,,,2021-12-28,1,,,,,ショウエイコウギョウ,0
1644,7210001018740,新規,0,2021-12-28,2021-12-28,クリーンテクノホールディングス株式会社,,株式会社,福井県,鯖江市,下河端町１８０２番地,,18,207,9160038,,,,,,,2021-12-28,1,,,,,クリーンテクノホールディングス,0
1656,7260001036358,新規,0,2021-12-28,2021-12-28,株式会社アルムサポート,,株式会社,岡山県,倉敷市,水島西弥生町１１－１２,,33,202,7128036,,,,,,,2021-12-28,1,,,,,アルムサポート,0
1665,7290001095839,新規,0,2021-12-28,2021-12-28,株式会社ＮｅｘｔＲ,,株式会社,福岡県,福岡市南区,長丘２丁目５番２２号ヴァンヴェール平和ＩＩ１６号,00125266,40,134,8150075,,,,,,,2021-12-28,1,,,,,ネクストラウンド,0
1666,7290001095855,新規,0,2021-12-28,2021-12-28,ＦＲＥＥ　ＳＴＹＬＥ株式会社,,株式会社,福岡県,福岡市城南区,大字東油山５１５番地１４,,40,136,8140155,,,,,,,2021-12-28,1,,,,,フリースタイル,0
1667,7290001095871,新規,0,2021-12-28,2021-12-28,しらはま設計株式会社,,株式会社,福岡県,筑紫野市,桜台２丁目１９番２２－７０８号,,40,217,8180063,,,,,,,2021-12-28,1,,,,,シラハマセッケイ,0
1670,7290005018498,新規,0,2021-12-28,2021-12-28,医療法人真心,,その他の設立登記法人,福岡県,福岡市南区,若久５丁目２４番２９号コンフォート若久Ａ１０１号,,40,134,8150042,,,,,,,2021-12-28,1,,,,,マゴコロ,0
1672,7310003004241,新規,0,2021-12-28,2021-12-28,Ｉｍｇ　ａｇｅｎｔｓ合同会社,,合同会社,長崎県,佐世保市,高天町１０番２号,,42,202,8570802,,,,,,,2021-12-28,1,,,,,アイエムジーエージェンツ,0
1675,7330005010450,新規,0,2021-12-28,2021-12-28,一般社団法人在宅就労情報センター,,その他の設立登記法人,熊本県,熊本市東区,神園１丁目６番２０号,,43,102,8618044,,,,,,,2021-12-28,1,,,,,ザイタクシュウロウジョウホウセンター,0
1682,7360001029822,新規,0,2021-12-28,2021-12-28,株式会社ＣＲＯＷＮ,,株式会社,沖縄県,那覇市,松山２丁目１５番８号富士屋スクラッチビル２階,,47,201,9000032,,,,,,,2021-12-28,1,,,,,クラウン,0
1683,7360003011687,新規,0,2021-12-28,2021-12-28,合同会社Ｈ＆Ｒ,,合同会社,沖縄県,那覇市,字小禄１６１番地,,47,201,9010152,,,,,,,2021-12-28,1,,,,,エイチアンドアール,0
1688,7370001047922,新規,0,2021-12-28,2021-12-28,株式会社稜來,,株式会社,宮城県,仙台市太白区,郡山７丁目１１番１９号ディアスコートＤ１０１,,04,104,9820003,,,,,,,2021-12-28,1,,,,,リク,0
1689,7370001047988,新規,0,2021-12-28,2021-12-28,株式会社せいの庭,,株式会社,宮城県,仙台市太白区,八木山東２丁目７番２９号,,04,104,9820802,,,,,,,2021-12-28,1,,,,,セイノニワ,0
1690,7370003005531,新規,0,2021-12-28,2021-12-28,合同会社質と縁,,合同会社,宮城県,仙台市宮城野区,福室２丁目８番１７号福室マンション３１４号,,04,102,9830005,,,,,,,2021-12-28,1,,,,,シチトエン,0
1695,7390001016727,新規,0,2021-12-28,2021-12-28,キュービック・プラス株式会社,,株式会社,山形県,山形市,花楯１丁目５番１０号,,06,201,9900067,,,,,,,2021-12-28,1,,,,,キュービックプラス,0
1697,7400001015719,新規,0,2021-12-28,2021-12-28,株式会社ＴＭＲ,,株式会社,岩手県,花巻市,諏訪町１丁目５番６号,,03,205,0250039,,,,,,,2021-12-28,1,,,,,ティエムアール,0
1703,7430001085684,新規,0,2021-12-28,2021-12-28,株式会社Ｉｍｐａｃｔ　ＮＯＲＴＨ,,株式会社,北海道,札幌市中央区,南一条西７丁目１２番地５大通パークサイドビル１０Ｆ,,01,101,0600061,,,,,,,2021-12-28,1,,,,,インパクトノース,0
1704,7430003013486,新規,0,2021-12-28,2021-12-28,合同会社Ｔｒｉｄｅｎｔ　ｕｐ,,合同会社,北海道,札幌市厚別区,厚別中央四条４丁目３番２号ロアジスＩ　１０３号,00125256,01,108,0040054,,,,,,,2021-12-28,1,,,,,トライデントアップ,0
1706,7480001011594,新規,0,2021-12-28,2021-12-28,株式会社萌希,,株式会社,徳島県,吉野川市,山川町堤外１番地１１４,,36,205,7793403,,,,,,,2021-12-28,1,,,,,ホマレ,0
1718,8010001223483,新規,0,2021-12-28,2021-12-28,株式会社アールフェイス,,株式会社,東京都,中央区,銀座７丁目１３番６号サガミビル２階,,13,102,1040061,,,,,,,2021-12-28,1,,,,,アールフェイス,0
1719,8010001223491,新規,0,2021-12-28,2021-12-28,アースタックスアドバイザーズ株式会社,,株式会社,東京都,中央区,銀座１丁目６番１１号土志田ビルディング３Ｆ,,13,102,1040061,,,,,,,2021-12-28,1,,,,,アースタックスアドバイザーズ,0
1720,8010001223509,新規,0,2021-12-28,2021-12-28,株式会社１１Ａｒｋ,,株式会社,東京都,千代田区,岩本町１丁目４番２号ＨＩビル,,13,101,1010032,,,,,,,2021-12-28,1,,,,,イレブンアーク,0
1726,8010101014997,新規,0,2021-12-28,2021-12-28,マルベリー・コーポレーション株式会社,,株式会社,東京都,八王子市,中野上町２丁目３番１４号,,13,201,1920041,,,,,,,2021-12-28,1,,,,,マルベリーコーポレーション,0
1740,8010401164690,新規,0,2021-12-28,2021-12-28,株式会社サカイヤ,,株式会社,東京都,港区,新橋５丁目１３番５号,,13,103,1050004,,,,,,,2021-12-28,1,,,,,サカイヤ,0
1743,8010405020543,新規,0,2021-12-28,2021-12-28,ジャパンインフラホールディングス１７号一般社団法人,,その他の設立登記法人,東京都,港区,元赤坂１丁目１番７号,,13,103,1070051,,,,,,,2021-12-28,1,,,,,ジャパンインフラホールディングスジュウナナゴウ,0
1745,8010501048273,新規,0,2021-12-28,2021-12-28,株式会社スターリーアニメーション,,株式会社,東京都,台東区,上野６丁目８番１９－３０１号,,13,106,1100005,,,,,,,2021-12-28,1,,,,,スターリーアニメーション,0
1749,8010603009322,新規,0,2021-12-28,2021-12-28,合同会社ピーピーエフエー・ジャパン,,合同会社,東京都,江東区,亀戸６丁目５６番１５号,,13,108,1360071,,,,,,,2021-12-28,1,,,,,ピーピーエフエージャパン,0
1755,8010801032613,新規,0,2021-12-28,2021-12-28,株式会社ＳｅＫｎＡｃＫ,,株式会社,東京都,大田区,大森西２丁目１４番９号,,13,111,1430015,,,,,,,2021-12-28,1,,,,,シークナック,0
1756,8010801032621,新規,0,2021-12-28,2021-12-28,株式会社のらら,,株式会社,東京都,大田区,本羽田１丁目２０番１１号,,13,111,1440044,,,,,,,2021-12-28,1,,,,,ノララ,0
1757,8010803003991,新規,0,2021-12-28,2021-12-28,合同会社都市整備,,合同会社,東京都,大田区,田園調布本町３０番３号,,13,111,1450072,,,,,,,2021-12-28,1,,,,,トシセイビ,0
1764,8011001144843,新規,0,2021-12-28,2021-12-28,株式会社ＩＲＣ２,,株式会社,東京都,渋谷区,神宮前２丁目６番７号,,13,113,1500001,,,,,,,2021-12-28,1,,,,,アイアールシーツー,0
1765,8011003013922,新規,0,2021-12-28,2021-12-28,ＡＴＬ　Ｇｌｏｂａｌ　Ｓｏｌｕｔｉｏｎ合同会社,,合同会社,東京都,渋谷区,渋谷２丁目１９―１５宮益坂ビルディング６０９,,13,113,1500002,,,,,,,2021-12-28,1,,,,,エーティーエルグローバルソリューション,0
1771,8011301027442,新規,0,2021-12-28,2021-12-28,ＷＩＮＳＰＡＣＥ　ＪＡＰＡＮ株式会社,,株式会社,東京都,杉並区,荻窪１丁目２１番１６号ビバリーハウスＮｏ．７地下１階,,13,115,1670051,,,,,,,2021-12-28,1,,,,,ウィンスペースジャパン,0
1786,8012801021298,新規,0,2021-12-28,2021-12-28,株式会社ｈａｃｈｉ,,株式会社,東京都,国分寺市,東元町１丁目１９番２７号メゾンアンソレイエ１０２,,13,214,1850022,,,,,,,2021-12-28,1,,,,,ハチ,0
1789,8013301048492,新規,0,2021-12-28,2021-12-28,株式会社誠翔,,株式会社,東京都,豊島区,池袋２丁目２３番３号橘ビル３階,,13,116,1710014,,,,,,,2021-12-28,1,,,,,セイショウ,0
1793,8020003021042,新規,0,2021-12-28,2021-12-28,合同会社大路商事,,合同会社,神奈川県,川崎市幸区,塚越３丁目４８４番地１ラグゼコートＢ－３０６,,14,132,2120024,,,,,,,2021-12-28,1,,,,,オオジショウジ,0
1795,8021001074833,新規,0,2021-12-28,2021-12-28,株式会社パラダイスホールディングス,,株式会社,神奈川県,相模原市緑区,又野５６２番地５,,14,151,2520158,,,,,,,2021-12-28,1,,,,,パラダイスホールディングス,0
1797,8021003011215,新規,0,2021-12-28,2021-12-28,合同会社Ｄｉｇｉｔａｌ　Ｂｏｏｍｅｒ,,合同会社,神奈川県,相模原市南区,上鶴間本町１丁目３５番２７－１４０２号,,14,153,2520318,,,,,,,2021-12-28,1,,,,,デジタルブーマー,0
1802,8030001146063,新規,0,2021-12-28,2021-12-28,ＩｎｔｅｇＲｅｇｅｎ株式会社,,株式会社,埼玉県,さいたま市浦和区,仲町２丁目１９番２４号,,11,107,3300062,,,,,,,2021-12-28,1,,,,,インテグリージェン,0
1807,8030003018558,新規,0,2021-12-28,2021-12-28,合同会社ＥＣＲＡＳ,,合同会社,埼玉県,白岡市,篠津５８３番地２７,,11,246,3490204,,,,,,,2021-12-28,1,,,,,エクラス,0
1814,8040001121511,新規,0,2021-12-28,2021-12-28,ビーエルジー株式会社,,株式会社,千葉県,千葉市若葉区,都賀３丁目１番１５号ＣＩＴＹ１８－２０３号,,12,104,2640025,,,,,,,2021-12-28,1,,,,,ビーエルジー,0
1815,8040001121528,新規,0,2021-12-28,2021-12-28,株式会社えんむすび,,株式会社,千葉県,野田市,七光台１５７番地の７,,12,208,2780051,,,,,,,2021-12-28,1,,,,,エンムスビ,0
1816,8040001121577,新規,0,2021-12-28,2021-12-28,株式会社リフォームライト,,株式会社,千葉県,柏市,南増尾４丁目３５番１１号,,12,217,2770054,,,,,,,2021-12-28,1,,,,,リフォームライト,0
1822,8050003006288,新規,0,2021-12-28,2021-12-28,合同会社セカンドプロジェクト,,合同会社,茨城県,つくばみらい市,古川１０８－４,,08,235,3002422,,,,,,,2021-12-28,1,,,,,セカンドプロジェクト,0
1828,8070001038777,新規,0,2021-12-28,2021-12-28,株式会社ユーモア,,株式会社,群馬県,高崎市,上並榎町７５５番地２６,,10,202,3700801,,,,,,,2021-12-28,1,,,,,ユーモア,0
1832,8080101022985,新規,0,2021-12-28,2021-12-28,株式会社高＿,00125258,株式会社,静岡県,沼津市,東椎路８４番地の１,,22,203,4100302,,,,,,,2021-12-28,1,,,,,コウギョク,0
1837,8090001017341,新規,0,2021-12-28,2021-12-28,Ｅｕｓｔｒｅｓｓ株式会社,,株式会社,山梨県,西八代郡市川三郷町,市川大門７７８番地２,,19,346,4093601,,,,,,,2021-12-28,1,,,,,ユーストレス,0
1849,8120001242753,新規,0,2021-12-28,2021-12-28,株式会社遊び場ＬＡＢＯ,,株式会社,大阪府,大阪市中央区,内久宝寺町４丁目１番７－２７０５号,,27,128,5400013,,,,,,,2021-12-28,1,,,,,アソビバラボ,0
1850,8120001242803,新規,0,2021-12-28,2021-12-28,エレクトロニカンパニー株式会社,,株式会社,大阪府,大阪市都島区,中野町３丁目５－１３,,27,102,5340027,,,,,,,2021-12-28,1,,,,,エレクトロニカンパニー,0
1855,8120101064858,新規,0,2021-12-28,2021-12-28,株式会社ＳＡＮＡＲ,,株式会社,大阪府,岸和田市,南上町１丁目３０番３号,,27,202,5960078,,,,,,,2021-12-28,1,,,,,サナー,0
1857,8120901045405,新規,0,2021-12-28,2021-12-28,株式会社ｄａ　ｃａｐｏ,,株式会社,大阪府,池田市,栄町３番２号,,27,204,5630056,,,,,,,2021-12-28,1,,,,,ダカーポ,0
1859,8120903003963,新規,0,2021-12-28,2021-12-28,ワクフリ合同会社,,合同会社,大阪府,茨木市,郡３丁目１４番１０号,,27,211,5670072,,,,,,,2021-12-28,1,,,,,ワクフリ,0
1862,8130001070781,新規,0,2021-12-28,2021-12-28,株式会社ＨＡＮＡＭＡＲＵ,,株式会社,京都府,京都市山科区,四ノ宮行者谷２７番地１６１,,26,110,6078021,,,,,,,2021-12-28,1,,,,,ハナマル,0
1863,8130001070807,新規,0,2021-12-28,2021-12-28,株式会社クローバー,,株式会社,京都府,京都市山科区,大宅御供田町２４０番地,,26,110,6078192,,,,,,,2021-12-28,1,,,,,クローバー,0
1864,8130001070815,新規,0,2021-12-28,2021-12-28,株式会社ＮＡＧＡＴＡ,,株式会社,京都府,京都市右京区,西京極堤下町２０番地１９,,26,108,6150835,,,,,,,2021-12-28,1,,,,,ナガタ,0
1871,8140001124314,新規,0,2021-12-28,2021-12-28,ネクストアイ株式会社,,株式会社,兵庫県,三田市,三輪３丁目６－２,,28,219,6691513,,,,,,,2021-12-28,1,,,,,ネクストアイ,0
1872,8140001124347,新規,0,2021-12-28,2021-12-28,株式会社エクステージ,,株式会社,兵庫県,三木市,福井３丁目１３－２６,,28,215,6730433,,,,,,,2021-12-28,1,,,,,エクステージ,0
1873,8140001124363,新規,0,2021-12-28,2021-12-28,株式会社ＳＨＩＮＥｒｅｎｏｖａｔｉｏｎ,,株式会社,兵庫県,尼崎市,西昆陽２丁目４０番１１号,,28,202,6610047,,,,,,,2021-12-28,1,,,,,シャインリノベーション,0
1880,8140003017152,新規,0,2021-12-28,2021-12-28,合同会社キタオ商事,,合同会社,兵庫県,神戸市西区,王塚台１丁目３６番地の６,,28,111,6512135,,,,,,,2021-12-28,1,,,,,キタオショウジ,0
1881,8140005025962,新規,0,2021-12-28,2021-12-28,一般社団法人明石魚住教育学園,,その他の設立登記法人,兵庫県,明石市,魚住町住吉１丁目８番２５－２０１号,,28,203,6740083,,,,,,,2021-12-28,1,,,,,アカシウオズミキョウイクガクエン,0
1887,8180003023329,新規,0,2021-12-28,2021-12-28,合同会社名古屋メンテナンス,,合同会社,愛知県,名古屋市中区,東桜２丁目１９－９明治第１１ビル２階,,23,106,4600005,,,,,,,2021-12-28,1,,,,,ナゴヤメンテナンス,0
1888,8180301035752,新規,0,2021-12-28,2021-12-28,株式会社中部メディカルＧＨ,,株式会社,愛知県,豊橋市,東郷町１１８番地,,23,201,4400068,,,,,,,2021-12-28,1,,,,,チュウブメディカルジーエッチ,0
1889,8180301035760,新規,0,2021-12-28,2021-12-28,株式会社Ｗｅａｌｔｈ　Ｈａｔｃｈ,,株式会社,愛知県,豊田市,若草町３丁目３１番地５,,23,211,4710061,,,,,,,2021-12-28,1,,,,,ウェルスハッチ,0
1892,8190003003858,新規,0,2021-12-28,2021-12-28,合同会社イーグルアイ,,合同会社,三重県,鈴鹿市,岡田２丁目１２番８号,,24,207,5130027,,,,,,,2021-12-28,1,,,,,イーグルアイ,0
1900,8240003005428,新規,0,2021-12-28,2021-12-28,Ｒａｄｉａｎｃｅ合同会社,,合同会社,広島県,広島市中区,江波東１丁目１７番４－９０２号,,34,101,7300832,,,,,,,2021-12-28,1,,,,,ラディアンス,0
1910,8290001095838,新規,0,2021-12-28,2021-12-28,株式会社アルク,,株式会社,福岡県,福岡市西区,橋本２丁目１５番３６号,,40,135,8190031,,,,,,,2021-12-28,1,,,,,アルク,0
1911,8290003011925,新規,0,2021-12-28,2021-12-28,ブルードラゴン合同会社,,合同会社,福岡県,福岡市東区,松島１丁目１８番１－４０１号アミューズメント松島,,40,131,8120062,,,,,,,2021-12-28,1,,,,,ブルードラゴン,0
1913,8290801028105,新規,0,2021-12-28,2021-12-28,株式会社ＧＳ,,株式会社,福岡県,遠賀郡遠賀町,遠賀川２丁目１番３５号,,40,384,8114307,,,,,,,2021-12-28,1,,,,,ジーエス,0
1915,8330001029295,新規,0,2021-12-28,2021-12-28,エヌエナジー株式会社,,株式会社,熊本県,熊本市北区,室園町１０番２２号,,43,105,8618072,,,,,,,2021-12-28,1,,,,,エヌエナジー,0
1918,8360005006577,新規,0,2021-12-28,2021-12-28,一般社団法人Ｉｎｓｅｃｔ　Ｔｅｃｈｎｏｌｏｇｉｅｓ　Ｉｎｓｔｉｔｕｔｅ,,その他の設立登記法人,沖縄県,うるま市,石川曙３丁目１２番２０号,,47,213,9041107,,,,,,,2021-12-28,1,,,,,インセクトテクノロジーズインスティテュート,0
1919,8370005010421,新規,0,2021-12-28,2021-12-28,一般社団法人マスタードシードクリスチャン教会－仙台,,その他の設立登記法人,宮城県,仙台市青葉区,一番町２丁目６番地１号シティハウス一番町中央２Ｆ１２号室,,04,101,9800811,,,,,,,2021-12-28,1,,,,,マスタードシードクリスチャンキョウカイーセンダイ,0
1926,8380001032427,新規,0,2021-12-28,2021-12-28,株式会社ジン,,株式会社,福島県,福島市,飯坂町湯野字大平４３番地の４,,07,201,9600211,,,,,,,2021-12-28,1,,,,,ジン,0
1928,8380003005075,新規,0,2021-12-28,2021-12-28,光企画合同会社,,合同会社,福島県,郡山市,安積町荒井字上荒井田２１番地,,07,203,9630111,,,,,,,2021-12-28,1,,,,,ヒカリキカク,0
1929,8400001015718,新規,0,2021-12-28,2021-12-28,株式会社山田メディアワークス,,株式会社,岩手県,胆沢郡金ケ崎町,西根下北田３８－２,,03,381,0294503,,,,,,,2021-12-28,1,,,,,ヤマダメディアワークス,0
1931,8430001085667,新規,0,2021-12-28,2021-12-28,株式会社濱道工業,,株式会社,北海道,札幌市白石区,北郷三条４丁目３番１７－２０５号,,01,104,0030833,,,,,,,2021-12-28,1,,,,,ハマミチコウギョウ,0
1932,8430001085683,新規,0,2021-12-28,2021-12-28,株式会社フロンティア電力,,株式会社,北海道,千歳市,千代田町４丁目１４番千歳第一ビル３階,,01,224,0660062,,,,,,,2021-12-28,1,,,,,フロンティアデンリョク,0
1941,8480001011593,新規,0,2021-12-28,2021-12-28,株式会社四国の野菜,,株式会社,徳島県,海部郡海陽町,大里字松原３６番地２,,36,388,7750203,,,,,,,2021-12-28,1,,,,,シコクノヤサイ,0
1952,9010001223532,新規,0,2021-12-28,2021-12-28,ＰＷＩ株式会社,,株式会社,東京都,文京区,大塚５丁目１８－５－８０２,,13,105,1120012,,,,,,,2021-12-28,1,,,,,ピーダブリューアイ,0
1959,9010401164673,新規,0,2021-12-28,2021-12-28,株式会社Ｋｖｅｌｌ　Ｗｏｒｋｓ,,株式会社,東京都,港区,三田１丁目２番１７号,,13,103,1080073,,,,,,,2021-12-28,1,,,,,クヴェルワークス,0
1961,9010403026780,新規,0,2021-12-28,2021-12-28,合同会社ＩＣＯＭ,,合同会社,東京都,港区,高輪２丁目１４番１９－５０３号,,13,103,1080074,,,,,,,2021-12-28,1,,,,,アイコム,0
1963,9010405020542,新規,0,2021-12-28,2021-12-28,ジャパンインフラホールディングス１６号一般社団法人,,その他の設立登記法人,東京都,港区,元赤坂１丁目１番７号,,13,103,1070051,,,,,,,2021-12-28,1,,,,,ジャパンインフラホールディングスジュウロクゴウ,0
1966,9010501048272,新規,0,2021-12-28,2021-12-28,株式会社スターリーエンタテインメント,,株式会社,東京都,台東区,上野６丁目８番１９－３０１号,,13,106,1100005,,,,,,,2021-12-28,1,,,,,スターリーエンタテインメント,0
1982,9011001144834,新規,0,2021-12-28,2021-12-28,株式会社マメフィット,,株式会社,東京都,目黒区,八雲１丁目６番７号ＳａｐｈｉｒＹａｋｕｍｏ１０２,,13,110,1520023,,,,,,,2021-12-28,1,,,,,マメフィット,0
1983,9011001144842,新規,0,2021-12-28,2021-12-28,株式会社ＧＲＡＴＢＲＯＷＮ,,株式会社,東京都,目黒区,駒場２丁目９番２号,,13,110,1530041,,,,,,,2021-12-28,1,,,,,グラットブラウン,0
1985,9011101097379,新規,0,2021-12-28,2021-12-28,株式会社Ａｌｅａｐ,,株式会社,東京都,新宿区,市谷本村町２番１１号,,13,104,1620845,,,,,,,2021-12-28,1,,,,,アリープ,0
1998,9011403003530,新規,0,2021-12-28,2021-12-28,Ｒｉｓｕｓ合同会社,,合同会社,東京都,板橋区,宮本町６０番９－３０９号,,13,119,1740054,,,,,,,2021-12-28,1,,,,,リーゾス,0
2000,9011501027605,新規,0,2021-12-28,2021-12-28,創研開発株式会社,,株式会社,東京都,北区,東田端２丁目１番１０号豊田ビル１０３号,,13,117,1140013,,,,,,,2021-12-28,1,,,,,ソウケンカイハツ,0
2007,9011701024939,新規,0,2021-12-28,2021-12-28,ダイヤモンド株式会社,,株式会社,東京都,江戸川区,西葛西８丁目２１番１３号,,13,123,1340088,,,,,,,2021-12-28,1,,,,,ダイヤモンド,0
2011,9011801040126,新規,0,2021-12-28,2021-12-28,東京国際諮詢株式会社,,株式会社,東京都,葛飾区,西亀有３丁目６番１３号,,13,122,1250002,,,,,,,2021-12-28,1,,,,,トウキョウコクサイシジュン,0
2013,9012401038691,新規,0,2021-12-28,2021-12-28,株式会社木,,株式会社,東京都,三鷹市,中原１丁目２１番１９号,,13,204,1810005,,,,,,,2021-12-28,1,,,,,ギ,0
2014,9012401038700,新規,0,2021-12-28,2021-12-28,ＫＥＴＥ株式会社,,株式会社,東京都,狛江市,岩戸南２丁目５番地１２号２０６,,13,219,2010005,,,,,,,2021-12-28,1,,,,,ケイト,0
2016,9012701016835,新規,0,2021-12-28,2021-12-28,ｋｏｆｆ株式会社,,株式会社,東京都,小平市,上水本町５丁目７番２５号,,13,211,1870022,,,,,,,2021-12-28,1,,,,,コフ,0
2025,9020001144513,新規,0,2021-12-28,2021-12-28,株式会社チワワボーイズ,,株式会社,神奈川県,横浜市金沢区,能見台４丁目３番地１５壱番館２０１号,,14,108,2360057,,,,,,,2021-12-28,1,,,,,チワワボーイズ,0
2031,9021005012383,新規,0,2021-12-28,2021-12-28,特定非営利活動法人まほろば,,その他の設立登記法人,神奈川県,相模原市中央区,並木３丁目３番地３２,,14,152,2520228,,,,,,,2021-12-28,1,,,,,マホロバ,0
2038,9030001146038,新規,0,2021-12-28,2021-12-28,株式会社オーエムアカデミー,,株式会社,埼玉県,越谷市,大字袋山１４２４番地１,,11,222,3430032,,,,,,,2021-12-28,1,,,,,オーエムアカデミー,0
2039,9030001146062,新規,0,2021-12-28,2021-12-28,株式会社ｔｏｔＫｎｏｗ,,株式会社,埼玉県,川口市,東川口４丁目７番２８号,,11,203,3330801,,,,,,,2021-12-28,1,,,,,トトノウ,0
2040,9030001146087,新規,0,2021-12-28,2021-12-28,株式会社ネクスト,,株式会社,埼玉県,越谷市,蒲生愛宕町８番３９号オーベル越谷南４１２号,,11,222,3430834,,,,,,,2021-12-28,1,,,,,ネクスト,0
2045,9030003018565,新規,0,2021-12-28,2021-12-28,ペイフォワード合同会社,,合同会社,埼玉県,飯能市,大字川寺６８９番地２,,11,209,3570044,,,,,,,2021-12-28,1,,,,,ペイフォワード,0
2053,9040001121510,新規,0,2021-12-28,2021-12-28,株式会社Ｋ－Ｍａｒｃｈｅ,,株式会社,千葉県,船橋市,丸山４丁目１４番２９号,,12,204,2730048,,,,,,,2021-12-28,1,,,,,ケーマルシェ,0
2054,9040001121519,新規,0,2021-12-28,2021-12-28,ｓａｌｏｎ　ｄｅ　Ｓ株式会社,,株式会社,千葉県,八街市,八街ろ１４３番地１２５,,12,230,2891144,,,,,,,2021-12-28,1,,,,,サロンドエス,0
2058,9040003019199,新規,0,2021-12-28,2021-12-28,合同会社フレイズン,,合同会社,千葉県,流山市,江戸川台東４丁目７１番地,,12,220,2700111,,,,,,,2021-12-28,1,,,,,フレイズン,0
2062,9060001034438,新規,0,2021-12-28,2021-12-28,株式会社くう,,株式会社,栃木県,小山市,駅東通り２丁目１０－１２グランエスト３０７号室,,09,208,3230022,,,,,,,2021-12-28,1,,,,,クウ,0
2065,9070001038776,新規,0,2021-12-28,2021-12-28,株式会社ＳＪ,,株式会社,群馬県,桐生市,境野町７丁目１８５７番地２,,10,203,3760002,,,,,,,2021-12-28,1,,,,,エスジェイ,0
2070,9090001017340,新規,0,2021-12-28,2021-12-28,株式会社Ｓ’Ｊワークス,,株式会社,山梨県,上野原市,八ツ沢１４９番地４,,19,212,4090133,,,,,,,2021-12-28,1,,,,,エスジェイワークス,0
2072,9100001034929,新規,0,2021-12-28,2021-12-28,ｎｅｘｔ　ｎｏｔｅ株式会社,,株式会社,長野県,長野市,川中島町御厨２８１番地４０,,20,201,3812221,,,,,,,2021-12-28,1,,,,,ネクストノート,0
2075,9110003004664,新規,0,2021-12-28,2021-12-28,合同会社ＭＣ,,合同会社,新潟県,妙高市,大字関川１５５３番地８,,15,217,9492112,,,,,,,2021-12-28,1,,,,,エムシー,0
2083,9120001242769,新規,0,2021-12-28,2021-12-28,株式会社アネット,,株式会社,大阪府,大阪市中央区,南船場３丁目１１番１０号ＴＨＥＨＵＢ心斎橋００２,,27,128,5420081,,,,,,,2021-12-28,1,,,,,アネット,0
2084,9120003020850,新規,0,2021-12-28,2021-12-28,合同会社インターテック,,合同会社,大阪府,大阪市中央区,南新町１丁目１番１号,,27,128,5400024,,,,,,,2021-12-28,1,,,,,インターテック,0
2091,9130001070814,新規,0,2021-12-28,2021-12-28,株式会社ＷｅｓｔＦｉｅｌｄ,,株式会社,京都府,京都市上京区,田中町４１８－３,,26,102,6028163,,,,,,,2021-12-28,1,,,,,ウエストフィールド,0
2094,9130003007665,新規,0,2021-12-28,2021-12-28,メイファ合同会社,,合同会社,京都府,京都市上京区,浮田町６０５番地川上ビルＩＩＩ３０３,00125261,26,102,6028104,,,,,,,2021-12-28,1,,,,,メイファ,0
2100,9140001124164,新規,0,2021-12-28,2021-12-28,株式会社コベスト,,株式会社,兵庫県,加古川市,米田町平津５９０－１,,28,210,6750054,,,,,,,2021-12-28,1,,,,,コベスト,0
2101,9140001124346,新規,0,2021-12-28,2021-12-28,株式会社ＨＩＧＨＷＩＮＧ,,株式会社,兵庫県,神戸市東灘区,御影３丁目１３番５号,,28,101,6580047,,,,,,,2021-12-28,1,,,,,ハイウイング,0
2102,9140001124362,新規,0,2021-12-28,2021-12-28,ＯＴＳＵＭＩ　ＨＥＡＬＴＨＹ＆ＢＥＡＵＴＹ株式会社,,株式会社,兵庫県,神戸市兵庫区,東柳原町２－２４,,28,105,6520892,,,,,,,2021-12-28,1,,,,,オツミヘルシーアンドビューティー,0
2107,9160003002457,新規,0,2021-12-28,2021-12-28,合同会社ＭＡＩＫＥＹ　ＭｃＦＬＹ,,合同会社,滋賀県,草津市,草津町１６６０番地２,,25,206,5250036,,,,,,,2021-12-28,1,,,,,マイキーマクフライ,0
2113,9180001149298,新規,0,2021-12-28,2021-12-28,株式会社ミライプラス,,株式会社,愛知県,海部郡大治町,大字馬島字大道西１２番地,,23,424,4901141,,,,,,,2021-12-28,1,,,,,ミライプラス,0
2119,9180301035751,新規,0,2021-12-28,2021-12-28,株式会社永幸内装,,株式会社,愛知県,豊橋市,西口町字元茶屋４８番地４２,,23,201,4400841,,,,,,,2021-12-28,1,,,,,エイコウナイソウ,0
2120,9180305009280,新規,0,2021-12-28,2021-12-28,一般社団法人ＳＡＣＵＤＩＲＥＲ,,その他の設立登記法人,愛知県,安城市,東栄町３丁目１４番２号,,23,212,4460007,,,,,,,2021-12-28,1,,,,,サクディーラー,0
2123,9200003005406,新規,0,2021-12-28,2021-12-28,合同会社玉ゆら,,合同会社,岐阜県,岐阜市,黒野１４１番地,,21,201,5011131,,,,,,,2021-12-28,1,,,,,タマユラ,0
2125,9230001019149,新規,0,2021-12-28,2021-12-28,株式会社牛勝ホールディングス,,株式会社,富山県,氷見市,稲積字宮ケ谷内１２４番地１,,16,205,9350006,,,,,,,2021-12-28,1,,,,,ギュウカツホールディングス,0
2129,9230005009187,新規,0,2021-12-28,2021-12-28,特定非営利活動法人ワンハート野良猫応援隊,,その他の設立登記法人,富山県,黒部市,山田新４８２番地,,16,207,9380807,,,,,,,2021-12-28,1,,,,,ワンハートノラネコオウエンタイ,0
2131,9240001059094,新規,0,2021-12-28,2021-12-28,株式会社プロテックランド,,株式会社,広島県,福山市,南蔵王町６丁目１番３６号２Ｆ,,34,207,7210973,,,,,,,2021-12-28,1,,,,,プロテックランド,0
2136,9250001019320,新規,0,2021-12-28,2021-12-28,株式会社ＵＩＣ,,株式会社,山口県,防府市,大字牟礼４９０番地,,35,206,7470004,,,,,,,2021-12-28,1,,,,,ユーアイシー,0
2137,9250003002968,新規,0,2021-12-28,2021-12-28,合同会社ＢＥＳＴ　ＤＩＹ,,合同会社,山口県,光市,大字室積村１６４０番地１,,35,210,7430001,,,,,,,2021-12-28,1,,,,,ベストディアイワイ,0
2139,9260001036356,新規,0,2021-12-28,2021-12-28,株式会社アストライ,,株式会社,岡山県,倉敷市,中帯江８３番地１２,,33,202,7100013,,,,,,,2021-12-28,1,,,,,アストライ,0
2147,9290001095837,新規,0,2021-12-28,2021-12-28,株式会社アイデザイン,,株式会社,福岡県,福岡市東区,松田３丁目１３番３－４０６号,,40,131,8120064,,,,,,,2021-12-28,1,,,,,アイデザイン,0
2148,9290001095853,新規,0,2021-12-28,2021-12-28,株式会社ケープランニング,,株式会社,福岡県,福岡市博多区,住吉５丁目１４番１５号,,40,132,8120018,,,,,,,2021-12-28,1,,,,,ケープランニング,0
2153,9290003011973,新規,0,2021-12-28,2021-12-28,合同会社コーシンマーケット,,合同会社,福岡県,福岡市早良区,原団地１８番１０４号,,40,137,8140023,,,,,,,2021-12-28,1,,,,,コーシンマーケット,0
2157,9310001017648,新規,0,2021-12-28,2021-12-28,株式会社幸輝,,株式会社,長崎県,諫早市,森山町唐比西字紅皿坂１１１６番３,,42,204,8540208,,,,,,,2021-12-28,1,,,,,コウキ,0
2160,9330001029303,新規,0,2021-12-28,2021-12-28,株式会社ＨＤＬ,,株式会社,熊本県,荒尾市,東屋形４丁目９番地１１,,43,204,8640042,,,,,,,2021-12-28,1,,,,,エイチディーエル,0
2162,9330005010449,新規,0,2021-12-28,2021-12-28,行政書士法人塩永事務所,,その他の設立登記法人,熊本県,熊本市中央区,水前寺１丁目９番６号,,43,101,8620950,,,,,,,2021-12-28,1,,,,,シオナガジムショ,0
2169,9360001029820,新規,0,2021-12-28,2021-12-28,株式会社オーシャンアドベンチャー,,株式会社,沖縄県,那覇市,久茂地１丁目１番１号９階,,47,201,9000015,,,,,,,2021-12-28,1,,,,,オーシャンアドベンチャー,0
2171,9360003011685,新規,0,2021-12-28,2021-12-28,銀龍侍合同会社,,合同会社,沖縄県,島尻郡八重瀬町,字富盛２０５番地、２Ｆ,,47,362,9010402,,,,,,,2021-12-28,1,,,,,ギンリュウザムライ,0
2172,9370001047994,新規,0,2021-12-28,2021-12-28,株式会社ＫＯＳＥＮ,,株式会社,宮城県,仙台市泉区,泉中央４丁目１番５号,,04,105,9813133,,,,,,,2021-12-28,1,,,,,コーセン,0
2174,9370005010420,新規,0,2021-12-28,2021-12-28,一般社団法人東北フードバンク連携センター,,その他の設立登記法人,宮城県,石巻市,駅前北通り４丁目１０番２６－３,,04,202,9860813,,,,,,,2021-12-28,1,,,,,トウホクフードバンクレンケイセンター,0
