sequenceNumber,corporateNumber,process,correct,updateDate,changeDate,name,nameImageId,kind,prefectureName,cityName,streetNumber,addressImageId,prefectureCode,cityCode,postCode,addressOutside,addressOutsideImageId,closeDate,closeCause,successorCorporateNumber,changeCause,assignmentDate,latest,enName,enPrefectureName,enCityName,enAddressOutside,furigana,hihyoji
9,1010001246169,新規,0,2024-07-02,2024-07-02,株式会社ＴＦＯ,,株式会社,東京都,千代田区,神田錦町３丁目１８番寿ビル８階,,13,101,1010054,,,,,,,2024-07-02,1,,,,,ティーエフオー,0
10,1010001246177,新規,0,2024-07-02,2024-07-02,ふこく株式会社,,株式会社,東京都,中央区,銀座１丁目１２番４号Ｎ＆ＥＢＬＤ．６Ｆ,,13,102,1040061,,,,,,,2024-07-02,1,,,,,フコク,0
11,1010001246185,新規,0,2024-07-02,2024-07-02,株式会社まりぱん,,株式会社,東京都,中央区,銀座７丁目８番１号銀座梅林ビル２階,,13,102,1040061,,,,,,,2024-07-02,1,,,,,マリパン,0
14,1010401183417,新規,0,2024-07-02,2024-07-02,株式会社ＡＫ‐ＴＲＹＳ,,株式会社,東京都,港区,芝公園１丁目２番９号,,13,103,1050011,,,,,,,2024-07-02,1,,,,,エーケートライズ,0
15,1010401183474,新規,0,2024-07-02,2024-07-02,株式会社プロティア・ホールディングス,,株式会社,東京都,港区,虎ノ門４丁目１番１３号,,13,103,1050001,,,,,,,2024-07-02,1,,,,,プロティアホールディングス,0
16,1010401183524,新規,0,2024-07-02,2024-07-02,株式会社ｔａｙｏｒｉ,,株式会社,東京都,港区,南青山３丁目１番３６号青山丸竹ビル６Ｆ,,13,103,1070062,,,,,,,2024-07-02,1,,,,,タヨリ,0
17,1010405023354,新規,0,2024-07-02,2024-07-02,一般社団法人マインドウェルネス研究会,,その他の設立登記法人,東京都,港区,麻布台１丁目３番１号,,13,103,1060041,,,,,,,2024-07-02,1,,,,,マインドウェルネスケンキュウカイ,0
18,1010601065464,新規,0,2024-07-02,2024-07-02,株式会社ＴＲｉＬｉｎ,,株式会社,東京都,江東区,豊洲６丁目２番２９―４０４号,,13,108,1350061,,,,,,,2024-07-02,1,,,,,トリリン,0
30,1011103014629,新規,0,2024-07-02,2024-07-02,合同会社アイボリーノーツ,,合同会社,東京都,新宿区,中落合３丁目２４－１コーポ落合１０２,,13,104,1610032,,,,,,,2024-07-02,1,,,,,アイボリーノーツ,0
36,1012801023292,新規,0,2024-07-02,2024-07-02,株式会社ＫｏＫｏペイント,,株式会社,東京都,東大和市,芋窪６丁目１３７７番地１４,,13,220,2070033,,,,,,,2024-07-02,1,,,,,ココペイント,0
45,1020001157976,新規,0,2024-07-02,2024-07-02,株式会社トライアド,,株式会社,神奈川県,横浜市西区,浅間町１丁目４番３号ウィザードビル４０２,,14,103,2200072,,,,,,,2024-07-02,1,,,,,トライアド,0
50,1020003026428,新規,0,2024-07-02,2024-07-02,Ｓｈｉｎｉｎｇ　Ｈａｎｄｓ合同会社,,合同会社,神奈川県,横浜市泉区,緑園１丁目２１番地６－１０２号,,14,116,2450002,,,,,,,2024-07-02,1,,,,,シャイニングハンズ,0
51,1020003026477,新規,0,2024-07-02,2024-07-02,合同会社ＡＩＲ,,合同会社,神奈川県,川崎市麻生区,片平１丁目９番５－２０６号,,14,137,2150023,,,,,,,2024-07-02,1,,,,,エアー,0
52,1021001082628,新規,0,2024-07-02,2024-07-02,株式会社鈴電,,株式会社,神奈川県,足柄上郡開成町,延沢２５１４番地４,,14,366,2580026,,,,,,,2024-07-02,1,,,,,スズデン,0
55,1030001161201,新規,0,2024-07-02,2024-07-02,金舟国際貿易株式会社,,株式会社,埼玉県,さいたま市大宮区,櫛引町１丁目８７５番地１ウィズ大宮二番館１０１号,00135381,11,103,3300851,,,,,,,2024-07-02,1,,,,,キンシュウコクサイボウエキ,0
58,1030003024604,新規,0,2024-07-02,2024-07-02,合同会社ケアサービス優,,合同会社,埼玉県,志木市,上宗岡３丁目１１番１９号,,11,228,3530001,,,,,,,2024-07-02,1,,,,,ケアサービスユウ,0
59,1030003024620,新規,0,2024-07-02,2024-07-02,玉泉合同会社,,合同会社,埼玉県,草加市,旭町３丁目４－１２エムコーポ４０３,,11,221,3400053,,,,,,,2024-07-02,1,,,,,ユウチュン,0
72,1070001041911,新規,0,2024-07-02,2024-07-02,株式会社ヒューマンアソシエイツ,,株式会社,群馬県,邑楽郡邑楽町,大字篠塚１９２６番地４,,10,525,3700615,,,,,,,2024-07-02,1,,,,,ヒューマンアソシエイツ,0
93,1100001037591,新規,0,2024-07-02,2024-07-02,株式会社安藤削蹄所,,株式会社,長野県,東御市,八重原３２８９－６２,,20,219,3890406,,,,,,,2024-07-02,1,,,,,アンドウサクテイショ,0
99,1110001038523,新規,0,2024-07-02,2024-07-02,株式会社ふーど工房ゆうこ,,株式会社,新潟県,三条市,曲谷７０８－１,,15,204,9550101,,,,,,,2024-07-02,1,,,,,フードコウボウユウコ,0
103,1120001048100,新規,0,2024-07-02,2024-07-02,株式会社山田食品,,株式会社,大阪府,大阪市西区,本田１丁目３番３７号,,27,106,5500022,,,,,,,2024-07-02,1,,,,,ヤマダショクヒン,0
111,1120001266247,新規,0,2024-07-02,2024-07-02,株式会社Ｌｕｍｉｇｎｏｎ,,株式会社,大阪府,大阪市北区,兎我野町１１番１９号本社浪速ビル３０２,,27,127,5300056,,,,,,,2024-07-02,1,,,,,ルミニョン,0
112,1120001266370,新規,0,2024-07-02,2024-07-02,株式会社ドラスティック,,株式会社,大阪府,大阪市北区,梅田１丁目２番２号大阪駅前第２ビル２階５－６号室,,27,127,5300001,,,,,,,2024-07-02,1,,,,,ドラスティック,0
113,1120001266404,新規,0,2024-07-02,2024-07-02,株式会社ＭＩＹＡ,,株式会社,大阪府,大阪市中央区,南船場２丁目７番６号セレニテ心斎橋グランデ１０１４号,,27,128,5420081,,,,,,,2024-07-02,1,,,,,ミヤ,0
114,1120001266412,新規,0,2024-07-02,2024-07-02,アセンダ株式会社,,株式会社,大阪府,大阪市平野区,長吉長原東１丁目２番５６号,,27,126,5470013,,,,,,,2024-07-02,1,,,,,アセンダ,0
115,1120001266420,新規,0,2024-07-02,2024-07-02,株式会社Ｃｉｅｌ,,株式会社,大阪府,大阪市淀川区,西中島２丁目４番１８号粉河ビル４０３,,27,123,5320011,,,,,,,2024-07-02,1,,,,,シエル,0
117,1120003026954,新規,0,2024-07-02,2024-07-02,ユアミヤジャパン合同会社,,合同会社,大阪府,大阪市北区,梅田２丁目５番１３号桜橋第一ビル３０４号,,27,127,5300001,,,,,,,2024-07-02,1,,,,,ユアミヤジャパン,0
118,1120101069888,新規,0,2024-07-02,2024-07-02,株式会社ＧＲ８,,株式会社,大阪府,松原市,天美東７丁目１０番２０－８０１号,,27,217,5800032,,,,,,,2024-07-02,1,,,,,グレイト,0
119,1120103005916,新規,0,2024-07-02,2024-07-02,東方ワールド合同会社,,合同会社,大阪府,泉北郡忠岡町,忠岡東１丁目４－３,,27,341,5950805,,,,,,,2024-07-02,1,,,,,トウホウワールド,0
120,1120103005924,新規,0,2024-07-02,2024-07-02,合同会社シュポール,,合同会社,大阪府,岸和田市,池尻町２４６番地の１,,27,202,5960813,,,,,,,2024-07-02,1,,,,,シュポール,0
122,1120901049412,新規,0,2024-07-02,2024-07-02,株式会社アンビシャスセントラルパイオニア,,株式会社,大阪府,茨木市,鮎川４丁目２３番１８号,,27,211,5670831,,,,,,,2024-07-02,1,,,,,アンビシャスセントラルパイオニア,0
137,1140001135012,新規,0,2024-07-02,2024-07-02,株式会社日東ピクシス,,株式会社,兵庫県,神戸市垂水区,千鳥が丘３丁目２４番８７号,,28,108,6550011,,,,,,,2024-07-02,1,,,,,ニットウピクシス,0
138,1140003020749,新規,0,2024-07-02,2024-07-02,合同会社マール,,合同会社,兵庫県,明石市,魚住町西岡２０２２番地の２７,,28,203,6740084,,,,,,,2024-07-02,1,,,,,マール,0
141,1150001027398,新規,0,2024-07-02,2024-07-02,ＢａｓｅＢｕｉｌｄ株式会社,,株式会社,奈良県,奈良市,四条大路１丁目１０番１８号,,29,201,6308014,,,,,,,2024-07-02,1,,,,,ベースビルド,0
146,1170001018206,新規,0,2024-07-02,2024-07-02,株式会社ｐｕｌｓ２８,,株式会社,和歌山県,和歌山市,直川１０７２番地７,,30,201,6408481,,,,,,,2024-07-02,1,,,,,プルスニーハチ,0
147,1170005007089,新規,0,2024-07-02,2024-07-02,一般社団法人ｒｕａｍるあむ,,その他の設立登記法人,和歌山県,西牟婁郡白浜町,富田４９７番地の１,,30,401,6492325,,,,,,,2024-07-02,1,,,,,ルアム,0
153,1180001162176,新規,0,2024-07-02,2024-07-02,株式会社Ｌｏｔｕｓ,,株式会社,愛知県,名古屋市中村区,名駅南１丁目１番１５号,,23,105,4500003,,,,,,,2024-07-02,1,,,,,ロータス,0
154,1180001162192,新規,0,2024-07-02,2024-07-02,森・アセットマネジメント株式会社,,株式会社,愛知県,名古屋市北区,如来町７６番地の３,,23,103,4620008,,,,,,,2024-07-02,1,,,,,モリアセットマネジメント,0
156,1180003026998,新規,0,2024-07-02,2024-07-02,合同会社伸イズム,,合同会社,愛知県,名古屋市中村区,名駅３丁目４－１０アルティメイト名駅１ｓｔ２階,,23,105,4500002,,,,,,,2024-07-02,1,,,,,ノブイズム,0
175,1260001039218,新規,0,2024-07-02,2024-07-02,株式会社ＮＥＸＴ　ＧＲＯＷ,,株式会社,岡山県,総社市,駅前２丁目９番１２号２階,,33,208,7191136,,,,,,,2024-07-02,1,,,,,ネクストグロウ,0
177,1260003004806,新規,0,2024-07-02,2024-07-02,合同会社ｏｆｆｉｃｅ寿,,合同会社,岡山県,岡山市南区,郡２８７番地６,,33,104,7028011,,,,,,,2024-07-02,1,,,,,オフィスコトブキ,0
183,1290001106295,新規,0,2024-07-02,2024-07-02,株式会社六笑,,株式会社,福岡県,福岡市中央区,渡辺通５丁目２－１０渡辺通プレイス３０１,,40,133,8100004,,,,,,,2024-07-02,1,,,,,ロクショウ,0
189,1320003004403,新規,0,2024-07-02,2024-07-02,Ｓ＆Ｔ合同会社,,合同会社,大分県,大分市,大字森町１２０７番地の４,,44,201,8700127,,,,,,,2024-07-02,1,,,,,エスアンドティ,0
201,1370005010808,新規,0,2024-07-02,2024-07-02,土地家屋調査士法人杜ｏｆｆｉｃｅ,,その他の設立登記法人,宮城県,仙台市若林区,鶴代町３番１５号,,04,103,9840001,,,,,,,2024-07-02,1,,,,,モリオフィス,0
207,1380003005800,新規,0,2024-07-02,2024-07-02,ティーアイ合同会社,,合同会社,福島県,福島市,西中央３丁目３９番地の５ウエストインネクシス１０３号室,,07,201,9608074,,,,,,,2024-07-02,1,,,,,ティーアイ,0
215,1430001092133,新規,0,2024-07-02,2024-07-02,Ｌａｕｇｈ　ａｎｄ　Ｌｉｅｎ株式会社,,株式会社,北海道,札幌市中央区,南一条西１丁目１５番地３ＳＡＫＵＲＡ－Ｓ１,,01,101,0600061,,,,,,,2024-07-02,1,,,,,ラフリアン,0
219,1430003016503,新規,0,2024-07-02,2024-07-02,ＣＯ合同会社,,合同会社,北海道,虻田郡倶知安町,北三条東６丁目３番地６１号,,01,400,0440003,,,,,,,2024-07-02,1,,,,,シーオー,0
226,1460305002017,新規,0,2024-07-02,2024-07-02,農事組合法人Ｍ＆Ｈｃｏ,,その他の設立登記法人,北海道,北見市,山下町１丁目１番１０－３０１号,,01,208,0900037,,,,,,,2024-07-02,1,,,,,,0
227,1470003002672,新規,0,2024-07-02,2024-07-02,合同会社ヴィジョン,,合同会社,香川県,さぬき市,造田野間田１３６番地２８,,37,206,7692313,,,,,,,2024-07-02,1,,,,,ヴィジョン,0
232,1700150017037,新規,0,2024-07-02,2015-10-09,大宮民主商工会,,その他,埼玉県,さいたま市大宮区,三橋３丁目２６２,,11,103,3300856,,,,,,,2015-10-09,1,,,,,オオミヤミンシユシヨウコウカイ,0
243,2010005038487,新規,0,2024-07-02,2024-07-02,小島司法書士法人,,その他の設立登記法人,東京都,千代田区,神田神保町１丁目３４番地三村ビル５階,,13,101,1010051,,,,,,,2024-07-02,1,,,,,コジマ,0
244,2010401183515,新規,0,2024-07-02,2024-07-02,株式会社Ｋ２,,株式会社,東京都,港区,白金台３丁目１４－２２,,13,103,1080071,,,,,,,2024-07-02,1,,,,,ケーツー,0
245,2010403032934,新規,0,2024-07-02,2024-07-02,合同会社泉北リーシング,,合同会社,東京都,港区,虎ノ門２丁目６番１号虎ノ門ヒルズステーションタワー,,13,103,1050001,,,,,,,2024-07-02,1,,,,,センボクリーシング,0
246,2010405023353,新規,0,2024-07-02,2024-07-02,一般財団法人ジー・エス・ティ・アール財団,,その他の設立登記法人,東京都,港区,西新橋１丁目２番９号日比谷セントラルビル１４階,,13,103,1050003,,,,,,,2024-07-02,1,,,,,ジーエスティアールザイダン,0
247,2010405023361,新規,0,2024-07-02,2024-07-02,東池袋ホールディング２一般社団法人,,その他の設立登記法人,東京都,港区,虎ノ門３丁目２２番１０－２０１号,,13,103,1050001,,,,,,,2024-07-02,1,,,,,ヒガシイケブクロホールディングツー,0
249,2010601065463,新規,0,2024-07-02,2024-07-02,三安株式会社,,株式会社,東京都,江東区,大島２丁目２番２０号９０９号室,,13,108,1360072,,,,,,,2024-07-02,1,,,,,ミツヤス,0
263,2011001163089,新規,0,2024-07-02,2024-07-02,株式会社モスフィ,,株式会社,東京都,渋谷区,渋谷２丁目１９－１５宮益坂ビルディング６０９,,13,113,1500002,,,,,,,2024-07-02,1,,,,,モスフィ,0
264,2011001163114,新規,0,2024-07-02,2024-07-02,株式会社シェアペイ,,株式会社,東京都,渋谷区,恵比寿西２丁目４番８号ウィンド恵比寿ビル８Ｆ,,13,113,1500021,,,,,,,2024-07-02,1,,,,,シェアペイ,0
265,2011001163122,新規,0,2024-07-02,2024-07-02,株式会社ラズワード,,株式会社,東京都,渋谷区,神宮前６丁目２３番４号,,13,113,1500001,,,,,,,2024-07-02,1,,,,,ラズワード,0
266,2011001163188,新規,0,2024-07-02,2024-07-02,株式会社ｎｅｎｒｉｎ,,株式会社,東京都,目黒区,上目黒１丁目３番２０号中目黒ヒルズ２－Ａ号室,,13,110,1530051,,,,,,,2024-07-02,1,,,,,ネンリン,0
270,2011003019438,新規,0,2024-07-02,2024-07-02,合同会社アイアム,,合同会社,東京都,渋谷区,恵比寿１丁目１３番１０号,,13,113,1500013,,,,,,,2024-07-02,1,,,,,アイアム,0
271,2011003019495,新規,0,2024-07-02,2024-07-02,合同会社Ｒｅ．Ｓｍｉｌｅ・ＳＰ,,合同会社,東京都,渋谷区,道玄坂１丁目１０番８号,,13,113,1500043,,,,,,,2024-07-02,1,,,,,リスマイルエスピー,0
274,2011101107821,新規,0,2024-07-02,2024-07-02,和諧株式会社,,株式会社,東京都,新宿区,百人町３丁目２８番４－７０３号,,13,104,1690073,,,,,,,2024-07-02,1,,,,,ワカイ,0
275,2011103014628,新規,0,2024-07-02,2024-07-02,合同会社ＤＡＣＨＯ,,合同会社,東京都,新宿区,西新宿３丁目３番１３号西新宿水間ビル２Ｆ,,13,104,1600023,,,,,,,2024-07-02,1,,,,,ダチョウ,0
281,2011503006134,新規,0,2024-07-02,2024-07-02,合同会社として,,合同会社,東京都,北区,赤羽１丁目７－９赤羽第一葉山ビル４Ｆ,,13,117,1150045,,,,,,,2024-07-02,1,,,,,トシテ,0
287,2011703003889,新規,0,2024-07-02,2024-07-02,エコー合同会社,,合同会社,東京都,江戸川区,西葛西７丁目４番５号第８カネ長ビル２０３,,13,123,1340088,,,,,,,2024-07-02,1,,,,,エコー,0
288,2011801044471,新規,0,2024-07-02,2024-07-02,Ｈ．Ｉ．Ｄ．Ｅ．パートナーズ株式会社,,株式会社,東京都,葛飾区,青戸１丁目２番６号,,13,122,1250062,,,,,,,2024-07-02,1,,,,,ヒデパートナーズ,0
291,2012403006645,新規,0,2024-07-02,2024-07-02,イルネージュ合同会社,,合同会社,東京都,多摩市,東寺方１丁目１７番地の７ウイング桜ケ丘３０３,,13,224,2060003,,,,,,,2024-07-02,1,,,,,イルネージュ,0
292,2012801023291,新規,0,2024-07-02,2024-07-02,株式会社ＦｒｅｅＳｏｃｉｅｔｙ,,株式会社,東京都,東大和市,蔵敷２丁目５１０番地の１１,,13,220,2070032,,,,,,,2024-07-02,1,,,,,フリーソサイエティ,0
293,2012801023300,新規,0,2024-07-02,2024-07-02,株式会社ピース・アド,,株式会社,東京都,立川市,富士見町１丁目９番３号,,13,202,1900013,,,,,,,2024-07-02,1,,,,,ピースアド,0
295,2013301052756,新規,0,2024-07-02,2024-07-02,ＨａｎＭａｘ日本株式会社,,株式会社,東京都,豊島区,池袋本町２丁目３２番３号－Ａ１０６,,13,116,1700011,,,,,,,2024-07-02,1,,,,,ハンマックスニホン,0
297,2013303007196,新規,0,2024-07-02,2024-07-02,スター九合同会社,,合同会社,東京都,豊島区,駒込３丁目４番１５号,,13,116,1700003,,,,,,,2024-07-02,1,,,,,スターキュウ,0
299,2020001157975,新規,0,2024-07-02,2024-07-02,株式会社横浜Ｋ‐ＳＭＩＬＥ,,株式会社,神奈川県,横浜市南区,永田北３丁目３番７－３０１号,,14,105,2320071,,,,,,,2024-07-02,1,,,,,ヨコハマケースマイル,0
300,2020001158032,新規,0,2024-07-02,2024-07-02,株式会社アールエイチカンパニー,,株式会社,神奈川県,横浜市中区,相生町２丁目４３番地,,14,104,2310012,,,,,,,2024-07-02,1,,,,,アールエイチカンパニー,0
303,2020003026427,新規,0,2024-07-02,2024-07-02,合同会社ワニ研究所,,合同会社,神奈川県,川崎市高津区,久本３丁目３番地２溝ノ口第一生命ビル,,14,134,2130011,,,,,,,2024-07-02,1,,,,,ワニケンキュウショ,0
304,2020003026492,新規,0,2024-07-02,2024-07-02,ＫＯＭＥＮＹ合同会社,,合同会社,神奈川県,横浜市青葉区,松風台１番地１２ロイヤルシーズン青葉台ＥＡＳＴ７０２,,14,117,2270067,,,,,,,2024-07-02,1,,,,,コメニー,0
313,2030003024628,新規,0,2024-07-02,2024-07-02,合同会社ＤｉｇｉＣｒｉｏｓｙｓ,,合同会社,埼玉県,北葛飾郡杉戸町,杉戸４丁目１５番１号コスモ東武動物公園３０２,,11,464,3450036,,,,,,,2024-07-02,1,,,,,デジクリオシス,0
318,2050001055012,新規,0,2024-07-02,2024-07-02,株式会社ヴァルワール,,株式会社,茨城県,ひたちなか市,大字勝倉２６１７番地４,,08,221,3120024,,,,,,,2024-07-02,1,,,,,ヴァルワール,0
319,2050001055029,新規,0,2024-07-02,2024-07-02,株式会社ｎａｋｏｎｅｋｏ,,株式会社,茨城県,つくば市,梅園２丁目１番地１５スプリングテックつくばビル４０１,,08,220,3050045,,,,,,,2024-07-02,1,,,,,ナコネコ,0
328,2070001041919,新規,0,2024-07-02,2024-07-02,株式会社木村工業所,,株式会社,群馬県,太田市,新田木崎町１３８６番地１,,10,205,3700321,,,,,,,2024-07-02,1,,,,,キムラコウギョウショ,0
329,2070003005483,新規,0,2024-07-02,2024-07-02,ブライダルアヤカ合同会社,,合同会社,群馬県,伊勢崎市,安堀町１１４６番地１,,10,204,3720007,,,,,,,2024-07-02,1,,,,,ブライダルアヤカ,0
334,2080401027285,新規,0,2024-07-02,2024-07-02,株式会社ＹＨ,,株式会社,静岡県,浜松市中央区,半田山１丁目３番３号,,22,138,4313125,,,,,,,2024-07-02,1,,,,,ワイエイチ,0
341,2110003005438,新規,0,2024-07-02,2024-07-02,合同会社長岡フロート,,合同会社,新潟県,長岡市,水道町１丁目５番５号,,15,202,9400093,,,,,,,2024-07-02,1,,,,,ナガオカフロート,0
347,2120001266353,新規,0,2024-07-02,2024-07-02,株式会社Ｓｐｅｓ,,株式会社,大阪府,大阪市中央区,日本橋２丁目５番４号日本橋ＨＯＳＯＩビル,,27,128,5420073,,,,,,,2024-07-02,1,,,,,スペース,0
353,2120003026912,新規,0,2024-07-02,2024-07-02,晶宝合同会社,,合同会社,大阪府,大阪市西成区,玉出東１丁目７－２３－１０３室,,27,122,5570043,,,,,,,2024-07-02,1,,,,,ショウホウ,0
357,2120103005923,新規,0,2024-07-02,2024-07-02,合同会社ＳＩ,,合同会社,大阪府,河内長野市,喜多町４８４番地の２,,27,216,5860033,,,,,,,2024-07-02,1,,,,,エスアイ,0
359,2120901049403,新規,0,2024-07-02,2024-07-02,株式会社森本グリーンサービス,,株式会社,大阪府,高槻市,上田辺町２番１１号,,27,207,5690805,,,,,,,2024-07-02,1,,,,,モリモトグリーンサービス,0
373,2140001134954,新規,0,2024-07-02,2024-07-02,株式会社セナレ,,株式会社,兵庫県,宝塚市,山手台東５丁目３２番７号,,28,214,6650887,,,,,,,2024-07-02,1,,,,,セナレ,0
374,2140001134962,新規,0,2024-07-02,2024-07-02,ｅコミュニケーション株式会社,,株式会社,兵庫県,宝塚市,山手台西４丁目１１番３号,,28,214,6650886,,,,,,,2024-07-02,1,,,,,イーコミュニケーション,0
375,2140001135011,新規,0,2024-07-02,2024-07-02,株式会社Ｍ　Ｃｏｎｎｅｃｔ,,株式会社,兵庫県,神戸市西区,枝吉４丁目１９１番地の１,,28,111,6512133,,,,,,,2024-07-02,1,,,,,エムコネクト,0
377,2150001027389,新規,0,2024-07-02,2024-07-02,株式会社ＨＡＮＡＢＡＴＳＵ,,株式会社,奈良県,奈良市,学園大和町４丁目１４３番地,,29,201,6310041,,,,,,,2024-07-02,1,,,,,ハナバツ,0
378,2150005009607,新規,0,2024-07-02,2024-07-02,一般社団法人日本アグリク,,その他の設立登記法人,奈良県,奈良市,別所町５４６番地,,29,201,6302153,,,,,,,2024-07-02,1,,,,,ニホンアグリク,0
381,2160001026035,新規,0,2024-07-02,2024-07-02,＿帝徳株式会社,00135378,株式会社,滋賀県,犬上郡豊郷町,大字安食南３６１‐１,,25,441,5291172,,,,,,,2024-07-02,1,,,,,カテイトク,0
387,2180001162118,新規,0,2024-07-02,2024-07-02,株式会社セブンリーフ,,株式会社,愛知県,名古屋市守山区,脇田町７１０番地,,23,113,4630024,,,,,,,2024-07-02,1,,,,,セブンリーフ,0
388,2180001162159,新規,0,2024-07-02,2024-07-02,株式会社ＣＬＯＳＥ,,株式会社,愛知県,清須市,中河原２２番地２,,23,233,4520915,,,,,,,2024-07-02,1,,,,,クローズ,0
389,2180001162175,新規,0,2024-07-02,2024-07-02,株式会社ＭＦＳ,,株式会社,愛知県,名古屋市守山区,桔梗平１丁目７０５番地,,23,113,4630814,,,,,,,2024-07-02,1,,,,,エムエフエス,0
390,2180001162200,新規,0,2024-07-02,2024-07-02,株式会社ターフ,,株式会社,愛知県,名古屋市北区,中丸町１丁目４番地の２サントピア又穂２Ａ,,23,103,4620056,,,,,,,2024-07-02,1,,,,,ターフ,0
391,2180001162209,新規,0,2024-07-02,2024-07-02,株式会社Ｖｉｔａｂｉ,,株式会社,愛知県,名古屋市緑区,南陵１１１番地桶狭間荘２棟２０４号,,23,114,4580918,,,,,,,2024-07-02,1,,,,,バイタビ,0
392,2180001162225,新規,0,2024-07-02,2024-07-02,ぐらいえ株式会社,,株式会社,愛知県,春日井市,勝川町７丁目３７番地,,23,206,4860945,,,,,,,2024-07-02,1,,,,,グライエ,0
396,2180003026997,新規,0,2024-07-02,2024-07-02,メディカルデバイスラボ合同会社,,合同会社,愛知県,豊明市,沓掛町田楽ケ窪１番地９８,,23,229,4701101,,,,,,,2024-07-02,1,,,,,メディカルデバイスラボ,0
397,2180003027013,新規,0,2024-07-02,2024-07-02,ネクストＡＩ合同会社,,合同会社,愛知県,尾張旭市,新居町下切戸１２２４番地１１６,,23,226,4880071,,,,,,,2024-07-02,1,,,,,ネクストエイアイ,0
399,2180005020684,新規,0,2024-07-02,2024-07-02,一般社団法人日本よもぎ協会,,その他の設立登記法人,愛知県,名古屋市中村区,稲葉地町７丁目４１番地,,23,105,4530841,,,,,,,2024-07-02,1,,,,,ニホンヨモギキョウカイ,0
401,2190001031453,新規,0,2024-07-02,2024-07-02,株式会社人と街,,株式会社,三重県,亀山市,東町１丁目７番４号,,24,210,5190125,,,,,,,2024-07-02,1,,,,,ヒトトマチ,0
415,2260001039217,新規,0,2024-07-02,2024-07-02,ＢＰＬ株式会社,,株式会社,岡山県,岡山市北区,今２丁目１６番３５号,,33,101,7000975,,,,,,,2024-07-02,1,,,,,ビーピーエル,0
416,2260001039225,新規,0,2024-07-02,2024-07-02,Ａ・ＢＬＹ株式会社,,株式会社,岡山県,倉敷市,徳芳１２８番地７,,33,202,7100011,,,,,,,2024-07-02,1,,,,,エィビエルワイ,0
421,2280003001858,新規,0,2024-07-02,2024-07-02,合同会社フライヤー,,合同会社,島根県,松江市,法吉町９３９番地６,,32,201,6900861,,,,,,,2024-07-02,1,,,,,フライヤー,0
423,2290003015485,新規,0,2024-07-02,2024-07-02,合同会社ＪＡＮＥ,,合同会社,福岡県,福岡市西区,愛宕南２丁目８－３１，３０１号グランドアーチ姪浜,,40,135,8190007,,,,,,,2024-07-02,1,,,,,ジェーン,0
426,2290801030685,新規,0,2024-07-02,2024-07-02,株式会社ＴＫＡ,,株式会社,福岡県,遠賀郡岡垣町,大字糠塚５２５番地,,40,383,8114213,,,,,,,2024-07-02,1,,,,,ティーケーエー,0
428,2330003010424,新規,0,2024-07-02,2024-07-02,合同会社Ｉ．Ｎ．Ｖ,,合同会社,熊本県,熊本市中央区,米屋町２丁目９番地ロフティ米屋町３０５,,43,101,8600029,,,,,,,2024-07-02,1,,,,,アイエヌブイ,0
434,2370005010815,新規,0,2024-07-02,2024-07-02,医療法人さんらく会,,その他の設立登記法人,宮城県,仙台市青葉区,本町２丁目１６番１号コニシビル１階,,04,101,9800014,,,,,,,2024-07-02,1,,,,,サンラクカイ,0
445,2460001005917,新規,0,2024-07-02,2024-07-02,株式会社秋田河商会,,株式会社,北海道,釧路市,末広町１１丁目１番地,,01,206,0850014,,,,,,,2024-07-02,1,,,,,アキタガワショウカイ,0
448,2470001020270,新規,0,2024-07-02,2024-07-02,株式会社六車組,,株式会社,香川県,東かがわ市,白鳥１３３６番地,,37,207,7692705,,,,,,,2024-07-02,1,,,,,ムグルマグミ,0
450,2500001025720,新規,0,2024-07-02,2024-07-02,株式会社Ｌｕｃｉａｓホールディングス,,株式会社,愛媛県,松山市,問屋町１番１４号,,38,201,7918018,,,,,,,2024-07-02,1,,,,,ルシアスホールディングス,0
452,3010001246150,新規,0,2024-07-02,2024-07-02,株式会社経済界デジタルサービス,,株式会社,東京都,千代田区,永田町２丁目４番１１号フレンドビル３階,,13,101,1000014,,,,,,,2024-07-02,1,,,,,ケイザイカイデジタルサービス,0
453,3010001246159,新規,0,2024-07-02,2024-07-02,株式会社ＲＯＦＬ,,株式会社,東京都,中央区,銀座４丁目９番８号ＮＭＦ銀座四丁目ビル５階,,13,102,1040061,,,,,,,2024-07-02,1,,,,,ロフル,0
454,3010005038478,新規,0,2024-07-02,2024-07-02,一般社団法人晴天,,その他の設立登記法人,東京都,千代田区,一ツ橋２丁目６番３号アクシスインベストメントアドバイザーズ株式会社内,,13,101,1010003,,,,,,,2024-07-02,1,,,,,セイテン,0
463,3010401183472,新規,0,2024-07-02,2024-07-02,株式会社ＭＯＣＯＣＯ,,株式会社,東京都,港区,南麻布３丁目２１番１４－５１６号,,13,103,1060047,,,,,,,2024-07-02,1,,,,,モココ,0
465,3010403032900,新規,0,2024-07-02,2024-07-02,合同会社Ｌｅｉ‐ｆｌｅｕｒ,,合同会社,東京都,港区,南青山２丁目２番１５号,,13,103,1070062,,,,,,,2024-07-02,1,,,,,レイフルール,0
466,3010405023360,新規,0,2024-07-02,2024-07-02,東池袋ホールディング１一般社団法人,,その他の設立登記法人,東京都,港区,虎ノ門３丁目２２番１０－２０１号,,13,103,1050001,,,,,,,2024-07-02,1,,,,,ヒガシイケブクロホールディングワン,0
469,3010501052528,新規,0,2024-07-02,2024-07-02,ＴＯＤＡ国際コンサルティング株式会社,,株式会社,東京都,台東区,松が谷２丁目９番１－３０６号,,13,106,1110036,,,,,,,2024-07-02,1,,,,,トダコクサイコンサルティング,0
471,3010603010912,新規,0,2024-07-02,2024-07-02,Ｇ．Ｏ．Ａ．Ｔ合同会社,,合同会社,東京都,江東区,福住１丁目８番１５－２０５号,,13,108,1350032,,,,,,,2024-07-02,1,,,,,ゴート,0
472,3010603010929,新規,0,2024-07-02,2024-07-02,アニーリング合同会社,,合同会社,東京都,墨田区,両国３丁目１５番４－７０１号,,13,107,1300026,,,,,,,2024-07-02,1,,,,,アニーリング,0
479,3010903009191,新規,0,2024-07-02,2024-07-02,ＴＹ　ｃｏｎｎｅｃｔ合同会社,,合同会社,東京都,世田谷区,世田谷３丁目１７番１４号,,13,112,1540017,,,,,,,2024-07-02,1,,,,,ティーワイコネクト,0
480,3011001162874,新規,0,2024-07-02,2024-07-02,株式会社Ｓ４,,株式会社,東京都,渋谷区,神宮前２丁目３３番８－５０４号,,13,113,1500001,,,,,,,2024-07-02,1,,,,,エスフォー,0
481,3011001163047,新規,0,2024-07-02,2024-07-02,ｏｎ株式会社,,株式会社,東京都,渋谷区,幡ヶ谷１丁目２番２号京王幡ヶ谷ビル４Ｆ４０３,,13,113,1510072,,,,,,,2024-07-02,1,,,,,オン,0
482,3011001163096,新規,0,2024-07-02,2024-07-02,株式会社ＢｎＢ　Ｓｏｌｕｔｉｏｎｓ,,株式会社,東京都,目黒区,下目黒２丁目２０番２８号いちご目黒ビル９階,,13,110,1530064,,,,,,,2024-07-02,1,,,,,ビーアンドビーソリューションズ,0
483,3011001163113,新規,0,2024-07-02,2024-07-02,ウノサワエンジニアリングサービス株式会社,,株式会社,東京都,渋谷区,恵比寿１丁目１９番１５号,,13,113,1500013,,,,,,,2024-07-02,1,,,,,ウノサワエンジニアリングサービス,0
484,3011001163138,新規,0,2024-07-02,2024-07-02,株式会社アールエー,,株式会社,東京都,目黒区,青葉台４丁目４番１２号,,13,110,1530042,,,,,,,2024-07-02,1,,,,,アールエー,0
485,3011003019494,新規,0,2024-07-02,2024-07-02,ＨＹＵＩ合同会社,,合同会社,東京都,渋谷区,道玄坂１丁目１０番８号渋谷道玄坂東急ビル２Ｆ－Ｃ,,13,113,1500043,,,,,,,2024-07-02,1,,,,,ヒュイ,0
489,3011301029798,新規,0,2024-07-02,2024-07-02,株式会社ＢＳＩ,,株式会社,東京都,杉並区,高井戸東３丁目２８番１２号,,13,115,1680072,,,,,,,2024-07-02,1,,,,,ビーエスアイ,0
490,3011503006133,新規,0,2024-07-02,2024-07-02,合同会社マツオ製作所,,合同会社,東京都,北区,田端５丁目１番地１０号メゾン田端２０３号,,13,117,1140014,,,,,,,2024-07-02,1,,,,,マツオセイサクジョ,0
493,3011801044462,新規,0,2024-07-02,2024-07-02,株式会社ＤＯＲＡ,,株式会社,東京都,葛飾区,新宿６丁目４番１５コスモタウン金町３０９,,13,122,1250051,,,,,,,2024-07-02,1,,,,,ドラ,0
498,3012801023290,新規,0,2024-07-02,2024-07-02,アイアンドブイ株式会社,,株式会社,東京都,立川市,錦町１丁目４番地４号サニービル２ＦＣＳ－２０８,,13,202,1900022,,,,,,,2024-07-02,1,,,,,アイアンドブイ,0
499,3012801023299,新規,0,2024-07-02,2024-07-02,株式会社ＮＯＴＯＳＵ,,株式会社,東京都,日野市,東豊田３丁目８－４健友ビル２０１,,13,212,1910052,,,,,,,2024-07-02,1,,,,,ノトス,0
500,3012803003448,新規,0,2024-07-02,2024-07-02,合同会社もりびと,,合同会社,東京都,日野市,程久保８丁目７番地の３５,,13,212,1910042,,,,,,,2024-07-02,1,,,,,モリビト,0
506,3020001157958,新規,0,2024-07-02,2024-07-02,株式会社ＭＯＴＯ　ＩＭＥＸ,,株式会社,神奈川県,横浜市都筑区,荏田東４丁目２９－３,,14,118,2240006,,,,,,,2024-07-02,1,,,,,モトイメックス,0
507,3020001157982,新規,0,2024-07-02,2024-07-02,株式会社マネジメント・テクノロジー,,株式会社,神奈川県,横浜市神奈川区,旭ケ丘２－７,,14,102,2210814,,,,,,,2024-07-02,1,,,,,マネジメントテクノロジー,0
508,3020001158031,新規,0,2024-07-02,2024-07-02,株式会社グラデュエーション,,株式会社,神奈川県,横浜市港北区,綱島東１丁目９－１０－２１０２,,14,109,2230052,,,,,,,2024-07-02,1,,,,,グラデュエーション,0
511,3020003026426,新規,0,2024-07-02,2024-07-02,Ｙ．Ｌ．Ｓ．合同会社,,合同会社,神奈川県,横浜市神奈川区,松ケ丘７６番地２０,,14,102,2210843,,,,,,,2024-07-02,1,,,,,ワイエルエス,0
518,3030003024627,新規,0,2024-07-02,2024-07-02,合同会社ＢＮＫ,,合同会社,埼玉県,さいたま市南区,大字太田窪２２３６番３５号,,11,108,3360015,,,,,,,2024-07-02,1,,,,,ビーエヌケー,0
519,3030003024651,新規,0,2024-07-02,2024-07-02,ＵＹアシスタンス合同会社,,合同会社,埼玉県,さいたま市浦和区,仲町１丁目４－１０－９０５,,11,107,3300062,,,,,,,2024-07-02,1,,,,,ユーワイアシスタンス,0
534,3070001041901,新規,0,2024-07-02,2024-07-02,株式会社ＱｕｉｃｋＣｌｅａｎ,,株式会社,群馬県,伊勢崎市,境栄１８番地１,,10,204,3700122,,,,,,,2024-07-02,1,,,,,クイッククリーン,0
536,3070003005482,新規,0,2024-07-02,2024-07-02,天政合同会社,,合同会社,群馬県,高崎市,末広町１６２番地２１,,10,202,3700065,,,,,,,2024-07-02,1,,,,,テンセイ,0
538,3080001026364,新規,0,2024-07-02,2024-07-02,株式会社Ｍａｎａ,,株式会社,静岡県,静岡市駿河区,下島９６５,,22,102,4228037,,,,,,,2024-07-02,1,,,,,,0
541,3080103003088,新規,0,2024-07-02,2024-07-02,合同会社光翔,,合同会社,静岡県,沼津市,大岡２２４２番地の１８、３０１,,22,203,4100022,,,,,,,2024-07-02,1,,,,,,0
542,3080401027284,新規,0,2024-07-02,2024-07-02,浜松マンションサポート株式会社,,株式会社,静岡県,浜松市浜名区,東美薗６４２番地の２,,22,139,4340026,,,,,,,2024-07-02,1,,,,,ハママツマンションサポート,0
543,3080401027292,新規,0,2024-07-02,2024-07-02,株式会社えなみ農園,,株式会社,静岡県,浜松市浜名区,大平１０４１番１,,22,139,4340005,,,,,,,2024-07-02,1,,,,,エナミノウエン,0
549,3110003005437,新規,0,2024-07-02,2024-07-02,Ｒｅｎｓｈｕｕ合同会社,,合同会社,新潟県,新潟市西区,五十嵐２の町８３９９番地２４,,15,107,9502102,,,,,,,2024-07-02,1,,,,,レンシュウ,0
557,3120001266369,新規,0,2024-07-02,2024-07-02,株式会社マスエージ,,株式会社,大阪府,大阪市中央区,日本橋１丁目１７番１７号ピカソ日本一ビル６０４,,27,128,5420073,,,,,,,2024-07-02,1,,,,,マスエージ,0
558,3120001266410,新規,0,2024-07-02,2024-07-02,株式会社ネクスト,,株式会社,大阪府,大阪市浪速区,敷津東２丁目１番２４－１８０６号,,27,111,5560012,,,,,,,2024-07-02,1,,,,,ネクスト,0
569,3120101069878,新規,0,2024-07-02,2024-07-02,株式会社東旭観光,,株式会社,大阪府,泉南市,樽井３丁目２６番７号,,27,228,5900521,,,,,,,2024-07-02,1,,,,,ヒガシアサヒカンコウ,0
570,3120101069911,新規,0,2024-07-02,2024-07-02,株式会社Ｋ．Ｋ．不動産,,株式会社,大阪府,高石市,東羽衣３丁目１６番２９号,,27,225,5920003,,,,,,,2024-07-02,1,,,,,ケイケイ,0
573,3120901049393,新規,0,2024-07-02,2024-07-02,株式会社Ｗｏｒｌｄ　Ｒｅａｌ　Ｓｔｏｒｙ,,株式会社,大阪府,吹田市,広芝町１２番２８－６０４号,,27,205,5640052,,,,,,,2024-07-02,1,,,,,ワールドリアルストーリー,0
574,3120901049410,新規,0,2024-07-02,2024-07-02,株式会社清和,,株式会社,大阪府,吹田市,春日１丁目１１番８号,,27,205,5650853,,,,,,,2024-07-02,1,,,,,セイワ,0
578,3130001077377,新規,0,2024-07-02,2024-07-02,株式会社トラストアイ,,株式会社,京都府,京都市中京区,御倉町７３三条両替町ビル４Ｆ１６号,,26,104,6048166,,,,,,,2024-07-02,1,,,,,トラストアイ,0
579,3130001077385,新規,0,2024-07-02,2024-07-02,株式会社虎徹,,株式会社,京都府,向日市,物集女町堂ノ前２２番地５エイトハイム２０３号室,,26,208,6170001,,,,,,,2024-07-02,1,,,,,コテツ,0
585,3140001134953,新規,0,2024-07-02,2024-07-02,株式会社タカタ技研,,株式会社,兵庫県,神戸市兵庫区,浜崎通４番１３－７０１号,,28,105,6520807,,,,,,,2024-07-02,1,,,,,タカタギケン,0
586,3140001135010,新規,0,2024-07-02,2024-07-02,株式会社ＡＶＲＩＬ,,株式会社,兵庫県,西宮市,津門稲荷町２番６号,,28,204,6638247,,,,,,,2024-07-02,1,,,,,アヴリル,0
593,3180001162141,新規,0,2024-07-02,2024-07-02,株式会社Ｗｅｓｔ　Ｖｉｌｌａｇｅ,,株式会社,愛知県,長久手市,岩作三ケ峯２番地５３２,,23,238,4801103,,,,,,,2024-07-02,1,,,,,ウェストビレッジ,0
594,3180001162158,新規,0,2024-07-02,2024-07-02,株式会社ムーブオン,,株式会社,愛知県,尾張旭市,東印場町１丁目１番地２,,23,226,4880830,,,,,,,2024-07-02,1,,,,,ムーブオン,0
595,3180001162166,新規,0,2024-07-02,2024-07-02,株式会社今栄,,株式会社,愛知県,名古屋市熱田区,二番２丁目２６番１８号,,23,109,4560052,,,,,,,2024-07-02,1,,,,,イマエ,0
596,3180001162174,新規,0,2024-07-02,2024-07-02,株式会社ミヤビ式,,株式会社,愛知県,名古屋市西区,名駅２丁目３４番１７号セントラル名古屋１１０１号,,23,104,4510045,,,,,,,2024-07-02,1,,,,,ミヤビシキ,0
597,3180001162199,新規,0,2024-07-02,2024-07-02,ＨＯＰＥ株式会社,,株式会社,愛知県,名古屋市中区,栄３丁目１１番３１号,,23,106,4600008,,,,,,,2024-07-02,1,,,,,ホープ,0
598,3180001162208,新規,0,2024-07-02,2024-07-02,株式会社中川犬猫病院,,株式会社,愛知県,名古屋市港区,知多２丁目２４０８番地,,23,111,4550883,,,,,,,2024-07-02,1,,,,,ナカガワイヌネコビョウイン,0
603,3180003027012,新規,0,2024-07-02,2024-07-02,合同会社ＭＴＳＲ,,合同会社,愛知県,名古屋市中区,千代田１丁目１０番２号レジデンスラミア７０３号,,23,106,4600012,,,,,,,2024-07-02,1,,,,,エムティエスアール,0
608,3190003004729,新規,0,2024-07-02,2024-07-02,スナグルカーズ合同会社,,合同会社,三重県,四日市市,下海老町９１番地１,,24,202,5121203,,,,,,,2024-07-02,1,,,,,スナグルカーズ,0
613,3210005010152,新規,0,2024-07-02,2024-07-02,一般社団法人福井県訪問看護ステーション連絡協議会,,その他の設立登記法人,福井県,福井市,北四ツ居町６０１公益社団法人福井県看護協会会館内,,18,201,9188206,,,,,,,2024-07-02,1,,,,,フクイケンホウモンカンゴステーションレンラクキョウギカイ,0
617,3220001026069,新規,0,2024-07-02,2024-07-02,株式会社ファミリア,,株式会社,石川県,小松市,串町３５番地１７,,17,203,9230965,,,,,,,2024-07-02,1,,,,,ファミリア,0
624,3240005015792,新規,0,2024-07-02,2024-07-02,一般財団法人深川真マリモ奨学財団,,その他の設立登記法人,広島県,広島市西区,庚午北３丁目１０番２－１０２号,,34,104,7330821,,,,,,,2024-07-02,1,,,,,フカガワマコトマリモショウガクザイダン,0
625,3260001039232,新規,0,2024-07-02,2024-07-02,株式会社ＶＥＲＩＴＡＳ　ＦＯＯＤＳ,,株式会社,岡山県,倉敷市,宮前４１８－３,,33,202,7100065,,,,,,,2024-07-02,1,,,,,ベリタスフーズ,0
627,3290001106351,新規,0,2024-07-02,2024-07-02,株式会社ＦｌａｇＳｈｉｐ　Ｊａｐａｎ,,株式会社,福岡県,福岡市博多区,中洲３丁目６番７号ギャラリーヤマモトビル３Ｆ,,40,132,8100801,,,,,,,2024-07-02,1,,,,,フラッグシップジャパン,0
630,3290801030676,新規,0,2024-07-02,2024-07-02,株式会社Ｈ‐ＯＡＫｓ,,株式会社,福岡県,北九州市八幡西区,八枝３丁目９番３３号,,40,109,8070856,,,,,,,2024-07-02,1,,,,,エイチオークス,0
633,3310001019088,新規,0,2024-07-02,2024-07-02,株式会社Ｌ．Ｃ,,株式会社,長崎県,長崎市,西海町１９７４番地１,,42,201,8513101,,,,,,,2024-07-02,1,,,,,エルシー,0
640,3360001033877,新規,0,2024-07-02,2024-07-02,株式会社Ｌｏｓ　Ｈｅｒｍａｎｏｓ,,株式会社,沖縄県,宮古島市,平良字西里２９９番地４、２Ｆ,,47,214,9060012,,,,,,,2024-07-02,1,,,,,ロスエルマーノス,0
641,3360001033893,新規,0,2024-07-02,2024-07-02,株式会社ナレーション映像制作ＳＡＭ,,株式会社,沖縄県,那覇市,三原１丁目１０番３１号コート・ダジュール４０５,,47,201,9020063,,,,,,,2024-07-02,1,,,,,ナレーションエイゾウセイサクサム,0
661,3460001005916,新規,0,2024-07-02,2024-07-02,株式会社Ｄｅｓｔｉｎａｔｉｏｎ　ＨＯＫＫＡＩＤＯ　Ｌａｂ,,株式会社,北海道,釧路市,錦町５丁目１番地１,,01,206,0850016,,,,,,,2024-07-02,1,,,,,ディスティネーションホッカイドウラボ,0
664,3500001025728,新規,0,2024-07-02,2024-07-02,株式会社メイウン,,株式会社,愛媛県,松山市,安城寺町９６６番地１,,38,201,7918006,,,,,,,2024-07-02,1,,,,,メイウン,0
666,3700150126001,新規,0,2024-07-02,2024-06-14,井口バドミントンクラブ,,その他,富山県,南砺市,池尻３８,,16,210,9391600,,,,,,,2024-06-14,1,,,,,イノクチバドミントンクラブ,0
670,4010101016221,新規,0,2024-07-02,2024-07-02,株式会社Ｍ’ｓコーポレーション,,株式会社,東京都,八王子市,大塚１４７２－３－９０１,,13,201,1920352,,,,,,,2024-07-02,1,,,,,エムズコーポレション,0
672,4010501052527,新規,0,2024-07-02,2024-07-02,ＫＡＮＥＩ株式会社,,株式会社,東京都,台東区,雷門２丁目１９－１７浅草雷一ビル・ハローオフィス浅草４１５,,13,106,1110034,,,,,,,2024-07-02,1,,,,,カネイ,0
674,4010503007504,新規,0,2024-07-02,2024-07-02,合同会社エゼ,,合同会社,東京都,台東区,元浅草１丁目１９―４―５０２,,13,106,1110041,,,,,,,2024-07-02,1,,,,,エゼ,0
684,4010703007238,新規,0,2024-07-02,2024-07-02,合同会社ｔａｎｄｍ,,合同会社,東京都,品川区,西五反田３丁目１５―６リードシー目黒不動前ビル２Ｆ,,13,109,1410031,,,,,,,2024-07-02,1,,,,,ティーアンドエム,0
699,4011001163021,新規,0,2024-07-02,2024-07-02,株式会社ＪＯＡＮ,,株式会社,東京都,渋谷区,東２丁目２６番１５号ストーク代官山,,13,113,1500011,,,,,,,2024-07-02,1,,,,,ジョアン,0
700,4011001163104,新規,0,2024-07-02,2024-07-02,株式会社ｃｏｍｂｉｎｅｓ,,株式会社,東京都,渋谷区,元代々木町１０‐７代々木五月ビル３０１,,13,113,1510062,,,,,,,2024-07-02,1,,,,,コンバインズ,0
703,4011003019485,新規,0,2024-07-02,2024-07-02,合同会社プロダクションアシスト,,合同会社,東京都,渋谷区,南平台町７番９号ＤＥＮＦＬＡＴ南平台３０１,,13,113,1500036,,,,,,,2024-07-02,1,,,,,プロダクションアシスト,0
704,4011003019493,新規,0,2024-07-02,2024-07-02,合同会社Ｆｉｖｅ　Ｔｒｅｅ　Ａｄｖｉｓｏｒ,,合同会社,東京都,渋谷区,恵比寿西２丁目８番４号ＥＸ恵比寿西ビル５階,,13,113,1500021,,,,,,,2024-07-02,1,,,,,ファイブツリーアドバイザー,0
705,4011003019510,新規,0,2024-07-02,2024-07-02,Ｃｕｒｅａｂｌｅ合同会社,,合同会社,東京都,渋谷区,神宮前６丁目２３番４号桑野ビル２階,,13,113,1500001,,,,,,,2024-07-02,1,,,,,キュアブル,0
707,4011101107885,新規,0,2024-07-02,2024-07-02,株式会社ｋｉｒａｋｕ,,株式会社,東京都,新宿区,西早稲田３丁目１７番３４号,,13,104,1690051,,,,,,,2024-07-02,1,,,,,キラク,0
709,4011103014618,新規,0,2024-07-02,2024-07-02,首都圏レジ合同会社,,合同会社,東京都,新宿区,四谷４丁目３２番８号ＹＫＢサニービル６階,,13,104,1600004,,,,,,,2024-07-02,1,,,,,シュトケンレジ,0
710,4011105011084,新規,0,2024-07-02,2024-07-02,一般社団法人首都圏レジ,,その他の設立登記法人,東京都,新宿区,四谷４丁目３２番８号ＹＫＢサニービル６階,,13,104,1600004,,,,,,,2024-07-02,1,,,,,シュトケンレジ,0
715,4011501030869,新規,0,2024-07-02,2024-07-02,株式会社ＮＡＳＯＮ　ＨＯＭＥ,,株式会社,東京都,北区,田端新町２丁目１９番６－３０１号タイガースマンション,,13,117,1140012,,,,,,,2024-07-02,1,,,,,ネイスンホーム,0
716,4011503006132,新規,0,2024-07-02,2024-07-02,合同会社リフューエル,,合同会社,東京都,北区,神谷２丁目５１－１シティテラス赤羽Ｅ１４１２,,13,117,1150043,,,,,,,2024-07-02,1,,,,,リフューエル,0
721,4011801044461,新規,0,2024-07-02,2024-07-02,株式会社スプリングカントリー,,株式会社,東京都,足立区,扇１丁目１５番７－７０２号,,13,121,1230873,,,,,,,2024-07-02,1,,,,,スプリングカントリー,0
730,4020001157949,新規,0,2024-07-02,2024-07-02,ムックラボ株式会社,,株式会社,神奈川県,川崎市幸区,堀川町７２番地２１ラゾーナ川崎レジデンスＴ２９０５,,14,132,2120013,,,,,,,2024-07-02,1,,,,,ムックラボ,0
731,4020001158030,新規,0,2024-07-02,2024-07-02,ＴＳＵＣＨＩ　Ａｓｓｅｔ　Ｍａｎａｇｅｍｅｎｔ株式会社,,株式会社,神奈川県,川崎市麻生区,上麻生３丁目１３番１－９０３号,,14,137,2150021,,,,,,,2024-07-02,1,,,,,ツチアセットマネジメント,0
736,4021003014650,新規,0,2024-07-02,2024-07-02,ＥＲＤＥＭ合同会社,,合同会社,神奈川県,相模原市南区,若松４丁目１７－１１アーチス相模大野Ｉ１０３号室,00135380,14,153,2520334,,,,,,,2024-07-02,1,,,,,エレデム,0
737,4021003014683,新規,0,2024-07-02,2024-07-02,合同会社ｆｌａｍｉｎｇｏ,,合同会社,神奈川県,藤沢市,朝日町２１－５,,14,205,2510054,,,,,,,2024-07-02,1,,,,,フラミンゴ,0
738,4021003014691,新規,0,2024-07-02,2024-07-02,ＡｂｌａｚｅＪａｐａｎ合同会社,,合同会社,神奈川県,茅ヶ崎市,東海岸北２丁目４番５０号,,14,207,2530053,,,,,,,2024-07-02,1,,,,,アブレイズジャパン,0
739,4021005013139,新規,0,2024-07-02,2024-07-02,一般社団法人ＭｏｍＮｅｓｔ,,その他の設立登記法人,神奈川県,逗子市,小坪５丁目２３番７号,,14,208,2490008,,,,,,,2024-07-02,1,,,,,マムネスト,0
747,4030005021745,新規,0,2024-07-02,2024-07-02,一般社団法人みんなの越谷,,その他の設立登記法人,埼玉県,越谷市,越ヶ谷本町８番３号,,11,222,3430818,,,,,,,2024-07-02,1,,,,,ミンナノコシガヤ,0
753,4050001055010,新規,0,2024-07-02,2024-07-02,株式会社ＳＵＰＲＥＭＥ　ＣＯＲＰＯＲＡＴＩＯＮ,,株式会社,茨城県,水戸市,三の丸３丁目１－４,,08,201,3100011,,,,,,,2024-07-02,1,,,,,スプリームコーポレーション,0
754,4050001055019,新規,0,2024-07-02,2024-07-02,ＹＮＹ株式会社,,株式会社,茨城県,守谷市,久保ケ丘１丁目２３番地１０,,08,224,3020104,,,,,,,2024-07-02,1,,,,,ワイエヌワイ,0
758,4060001037247,新規,0,2024-07-02,2024-07-02,株式会社Ｃｌａｒｏ　ａｚｕｌ,,株式会社,栃木県,宇都宮市,今宮１丁目１５番１９号コーポインティアマウンテン１号棟１０５,,09,201,3210166,,,,,,,2024-07-02,1,,,,,クラロアスール,0
764,4080001026363,新規,0,2024-07-02,2024-07-02,株式会社イノベイトコム,,株式会社,静岡県,静岡市葵区,駒形通６丁目６－２３,,22,101,4200042,,,,,,,2024-07-02,1,,,,,イノベイトコム,0
766,4080101024853,新規,0,2024-07-02,2024-07-02,Ｌｕｃｋｙｄａｙ株式会社,,株式会社,静岡県,沼津市,米山町６番５号商工会議所会館４階,,22,203,4100046,,,,,,,2024-07-02,1,,,,,ラッキーデイ,0
788,4120001266327,新規,0,2024-07-02,2024-07-02,株式会社宮脇産業,,株式会社,大阪府,大阪市福島区,吉野２丁目１０番２３号,,27,103,5530006,,,,,,,2024-07-02,1,,,,,ミヤワキサンギョウ,0
789,4120001266351,新規,0,2024-07-02,2024-07-02,株式会社ＡｍａｋｅＬ,,株式会社,大阪府,大阪市天王寺区,生玉前町１番１８号,,27,109,5430072,,,,,,,2024-07-02,1,,,,,アマイクル,0
790,4120001266368,新規,0,2024-07-02,2024-07-02,株式会社ａｍｂｉｔｉｏｎ,,株式会社,大阪府,大阪市北区,本庄東３丁目８番３－３０４号,,27,127,5310074,,,,,,,2024-07-02,1,,,,,アンビション,0
791,4120001266376,新規,0,2024-07-02,2024-07-02,株式会社ビーエムエス,,株式会社,大阪府,大阪市平野区,長吉長原３丁目１７番２７号長吉長原ライゼホビー０５,,27,126,5470016,,,,,,,2024-07-02,1,,,,,ビーエムエス,0
792,4120001266426,新規,0,2024-07-02,2024-07-02,一心工業株式会社,,株式会社,大阪府,大阪市住之江区,北島２丁目５番２６号,,27,125,5590014,,,,,,,2024-07-02,1,,,,,イッシンコウギョウ,0
793,4120001266467,新規,0,2024-07-02,2024-07-02,株式会社ＣＰＣ,,株式会社,大阪府,大阪市此花区,春日出北１丁目２５番９号,,27,104,5540021,,,,,,,2024-07-02,1,,,,,シーピーシー,0
796,4120003026943,新規,0,2024-07-02,2024-07-02,合同会社ＬＩＮＫ,,合同会社,大阪府,大阪市西成区,玉出中１丁目１番１５号,,27,122,5570044,,,,,,,2024-07-02,1,,,,,リンク,0
797,4120101069902,新規,0,2024-07-02,2024-07-02,株式会社Ｋ,,株式会社,大阪府,堺市南区,和田東７６２番地２０,,27,145,5900102,,,,,,,2024-07-02,1,,,,,ケイ,0
798,4120101069910,新規,0,2024-07-02,2024-07-02,サンスチール工業株式会社,,株式会社,大阪府,堺市西区,下田町１７番２７－１０２号,,27,144,5938329,,,,,,,2024-07-02,1,,,,,サンスチールコウギョウ,0
806,4130003009674,新規,0,2024-07-02,2024-07-02,合同会社ｂａｍｂｏｏ,,合同会社,京都府,京都市中京区,津軽町７６７イーグルコート烏丸御池ルシエル１００２,,26,104,6048271,,,,,,,2024-07-02,1,,,,,バンブー,0
809,4140003020746,新規,0,2024-07-02,2024-07-02,合同会社ｍｏｎａ　ｍｏｎａ,,合同会社,兵庫県,宝塚市,月見山１丁目１７番２７号,,28,214,6650002,,,,,,,2024-07-02,1,,,,,モナモナ,0
811,4150001027387,新規,0,2024-07-02,2024-07-02,株式会社大翔技建,,株式会社,奈良県,奈良市,古市町２０８７－１,,29,201,6308424,,,,,,,2024-07-02,1,,,,,ヤマトギケン,0
817,4180001162157,新規,0,2024-07-02,2024-07-02,株式会社Ｋｅｍｂｉ,,株式会社,愛知県,名古屋市南区,大磯通４丁目１８番地の１,,23,112,4570048,,,,,,,2024-07-02,1,,,,,ケンビ,0
818,4180001162198,新規,0,2024-07-02,2024-07-02,株式会社マルトモ,,株式会社,愛知県,丹羽郡大口町,奈良子１丁目２８６番地,,23,361,4800139,,,,,,,2024-07-02,1,,,,,マルトモ,0
820,4180003027003,新規,0,2024-07-02,2024-07-02,合同会社Ｈｉ　ｗｏｒｋｓ,,合同会社,愛知県,稲沢市,陸田本町７９番地１,,23,220,4928036,,,,,,,2024-07-02,1,,,,,ハイワークス,0
823,4180005020674,新規,0,2024-07-02,2024-07-02,一般社団法人ライフウィズスポーツ協会,,その他の設立登記法人,愛知県,名古屋市昭和区,小坂町２丁目１３番地１,,23,107,4660021,,,,,,,2024-07-02,1,,,,,ライフウィズスポーツキョウカイ,0
838,4240005015791,新規,0,2024-07-02,2024-07-02,農事組合法人あきおおた元気村,,その他の設立登記法人,広島県,山県郡安芸太田町,大字寺領１６６８,,34,368,7313824,,,,,,,2024-07-02,1,,,,,アキオオタゲンキムラ,0
839,4250001020712,新規,0,2024-07-02,2024-07-02,ＢＡＭＢＯＯ株式会社,,株式会社,山口県,下関市,秋根本町１丁目７－５－第一坂野ビル１０２,,35,201,7510875,,,,,,,2024-07-02,1,,,,,バンプー,0
844,4270001009010,新規,0,2024-07-02,2024-07-02,株式会社日本きのこセンター商事,,株式会社,鳥取県,鳥取市,古郡家２１１番地,,31,201,6891125,,,,,,,2024-07-02,1,,,,,ニホンキノコセンターショウジ,0
845,4270005005600,新規,0,2024-07-02,2024-07-02,一般社団法人ＯＲＣＡ．Ｐｒｅｐａｒｅ,,その他の設立登記法人,鳥取県,米子市,上福原２３５番地９,,31,202,6830004,,,,,,,2024-07-02,1,,,,,オルカドットプリペア,0
860,4350001019034,新規,0,2024-07-02,2024-07-02,株式会社松乃山,,株式会社,宮崎県,宮崎市,田野町乙７４２１番地１,,45,201,8891702,,,,,,,2024-07-02,1,,,,,マツノヤマ,0
866,4360001033868,新規,0,2024-07-02,2024-07-02,株式会社ｕｌｕ　Ｏｋｉｎａｗａ　Ｒｅｓｏｒｔ,,株式会社,沖縄県,那覇市,樋川２丁目１０番１４号,,47,201,9000022,,,,,,,2024-07-02,1,,,,,ウルオキナワリゾート,0
867,4360001033884,新規,0,2024-07-02,2024-07-02,株式会社Ｎ３クリエイト,,株式会社,沖縄県,那覇市,久茂地２丁目４番１６号山内ビル２階,,47,201,9000015,,,,,,,2024-07-02,1,,,,,エヌスリークリエイト,0
872,4370001051480,新規,0,2024-07-02,2024-07-02,株式会社ＣＡＲＡＶＡＮ,,株式会社,宮城県,仙台市青葉区,中山７丁目２２番７号,,04,101,9810952,,,,,,,2024-07-02,1,,,,,キャラバン,0
884,4400001016711,新規,0,2024-07-02,2024-07-02,株式会社ＯＮ　ＴＨＥ　ＲＯＡＤ,,株式会社,岩手県,北上市,上江釣子１９地割２５番地７,,03,206,0240071,,,,,,,2024-07-02,1,,,,,オンザロード,0
895,4430001092139,新規,0,2024-07-02,2024-07-02,Ｍｉｃｒｏ　Ａｖｉｏｎｉｃ　Ｓｙｓｔｅｍｓ株式会社,,株式会社,北海道,札幌市中央区,北五条西１１丁目１５番地４,,01,101,0600005,,,,,,,2024-07-02,1,,,,,マイクロアビオニックシステムズ,0
896,4430001092155,新規,0,2024-07-02,2024-07-02,株式会社ハウスリヴァーブ,,株式会社,北海道,石狩市,花川北二条５丁目３３番地,,01,235,0613212,,,,,,,2024-07-02,1,,,,,ハウスリヴァーブ,0
898,4430003016509,新規,0,2024-07-02,2024-07-02,ＭａｉｓｏｎＣｏｒｏｌｌｅ合同会社,,合同会社,北海道,札幌市東区,北三十九条東１０丁目２番１６号,,01,103,0070839,,,,,,,2024-07-02,1,,,,,メゾンコロール,0
903,4700150126000,新規,0,2024-07-02,2024-06-14,上平ジュニア,,その他,富山県,南砺市,池尻３８,,16,210,9391600,,,,,,,2024-06-14,1,,,,,カミタイラジユニア,0
911,5010001246157,新規,0,2024-07-02,2024-07-02,ユニプロパティ株式会社,,株式会社,東京都,中央区,日本橋小舟町８番６号Ｈ１Ｏ日本橋小舟町,,13,102,1030024,,,,,,,2024-07-02,1,,,,,ユニプロパティ,0
912,5010001246165,新規,0,2024-07-02,2024-07-02,株式会社ＳＯＤＡＰＯＰ,,株式会社,東京都,千代田区,外神田５丁目２番１３号千代田ビル２０１,,13,101,1010021,,,,,,,2024-07-02,1,,,,,ソーダポップ,0
915,5010003044212,新規,0,2024-07-02,2024-07-02,Ｇｒｉｄｔ　Ｉｎｔｅｒｎａｔｉｏｎａｌ合同会社,,合同会社,東京都,中央区,日本橋人形町２丁目１０番１０－４０１号,,13,102,1030013,,,,,,,2024-07-02,1,,,,,グリットインターナショナル,0
916,5010005038476,新規,0,2024-07-02,2024-07-02,一般社団法人新医療領域実装研究会,,その他の設立登記法人,東京都,千代田区,麹町４丁目５番地２０ＫＳビル８Ｆ,,13,101,1020083,,,,,,,2024-07-02,1,,,,,シンイリョウリョウイキジッソウケンキュウカイ,0
922,5010403032931,新規,0,2024-07-02,2024-07-02,Ｇｉｎｚａ　Ｈｏｔｅｌ　Ｏｐｅｒａｔｉｏｎｓ合同会社,,合同会社,東京都,港区,赤坂２丁目１０番５号税理士法人赤坂国際会計事務所内,,13,103,1070052,,,,,,,2024-07-02,1,,,,,ギンザホテルオペレーションズ,0
929,5010601065469,新規,0,2024-07-02,2024-07-02,株式会社プロシード,,株式会社,東京都,江東区,猿江１丁目２１番５－５０２号,,13,108,1350003,,,,,,,2024-07-02,1,,,,,プロシード,0
931,5010603010927,新規,0,2024-07-02,2024-07-02,ＧｏｔｏＶｉｓｉｏｎ合同会社,,合同会社,東京都,江東区,高橋６番９号１０３,,13,108,1350005,,,,,,,2024-07-02,1,,,,,ゴトウヴィジョン,0
941,5011001163152,新規,0,2024-07-02,2024-07-02,Ｎｉｃｈｏｌａｓ　Ｊａｐａｎ株式会社,,株式会社,東京都,渋谷区,恵比寿４丁目３番５号７０４号室アークアウトソーシング株式会社内,,13,113,1500013,,,,,,,2024-07-02,1,,,,,ニコラスジャパン,0
947,5011003019501,新規,0,2024-07-02,2024-07-02,合同会社ＢＬＵＥＢＡＣＫ,,合同会社,東京都,渋谷区,神宮前６丁目２３番４号桑野ビル２階,,13,113,1500001,,,,,,,2024-07-02,1,,,,,ブルーバック,0
949,5011101107884,新規,0,2024-07-02,2024-07-02,株式会社クラリタス,,株式会社,東京都,新宿区,若葉１丁目８番地１,,13,104,1600011,,,,,,,2024-07-02,1,,,,,クラリタス,0
950,5011101107901,新規,0,2024-07-02,2024-07-02,株式会社Ｒｅｙａｎｄ,,株式会社,東京都,新宿区,北新宿２丁目１４番５号,,13,104,1690074,,,,,,,2024-07-02,1,,,,,レイアンド,0
971,5012303002015,新規,0,2024-07-02,2024-07-02,合同会社Ｏｈａｎａ,,合同会社,東京都,町田市,金森東２丁目９番１７号,,13,209,1940015,,,,,,,2024-07-02,1,,,,,オハナ,0
974,5012701018331,新規,0,2024-07-02,2024-07-02,株式会社ＢＲＩＳＴＡＲ　ＰＫＧ,,株式会社,東京都,西東京市,富士町４丁目３１番４号,,13,229,2020014,,,,,,,2024-07-02,1,,,,,ブリスターパッケージ,0
978,5013301052745,新規,0,2024-07-02,2024-07-02,株式会社富田,,株式会社,東京都,豊島区,池袋１丁目１６番２０号ユニーブル池袋リ・ノヴァス３０２号,,13,116,1700014,,,,,,,2024-07-02,1,,,,,トミタ,0
983,5020001157956,新規,0,2024-07-02,2024-07-02,ＤＡＩＳＨＯリース株式会社,,株式会社,神奈川県,川崎市川崎区,京町３丁目１６番６号,,14,131,2100848,,,,,,,2024-07-02,1,,,,,ダイショーリース,0
984,5020001157964,新規,0,2024-07-02,2024-07-02,ＧＬ株式会社,,株式会社,神奈川県,横浜市神奈川区,台町１１番地２６ライオンズマンション台町３０１号室,,14,102,2210834,,,,,,,2024-07-02,1,,,,,ジーエル,0
987,5020003026440,新規,0,2024-07-02,2024-07-02,合同会社ＤＡＲＵＭＡ　ＪＯＥ,,合同会社,神奈川県,横浜市神奈川区,金港町５－１４クアドリフォリオ８階,,14,102,2210056,,,,,,,2024-07-02,1,,,,,ダルマジョー,0
989,5021003014690,新規,0,2024-07-02,2024-07-02,合同会社トラスト一級建築士事務所,,合同会社,神奈川県,茅ヶ崎市,東海岸北２丁目１２番１３号,,14,207,2530053,,,,,,,2024-07-02,1,,,,,トラストイッキュウケンチクシジムショ,0
997,5030001161206,新規,0,2024-07-02,2024-07-02,タナベ商事株式会社,,株式会社,埼玉県,八潮市,大字古新田５４４番地レーベンハイムエクスプレシャス３０２号室,,11,234,3400823,,,,,,,2024-07-02,1,,,,,タナベショウジ,0
1000,5030003024625,新規,0,2024-07-02,2024-07-02,合同会社真紅商事,,合同会社,埼玉県,川口市,南鳩ヶ谷７丁目４０番１２号,,11,203,3340013,,,,,,,2024-07-02,1,,,,,シンクショウジ,0
1002,5040001134292,新規,0,2024-07-02,2024-07-02,株式会社ドットライン・ゼルバ,,株式会社,千葉県,千葉市美浜区,中瀬２丁目６番地１,,12,106,2610023,,,,,,,2024-07-02,1,,,,,ドットラインゼルバ,0
1003,5040001134301,新規,0,2024-07-02,2024-07-02,東高商事株式会社,,株式会社,千葉県,松戸市,栄町６丁目３８８番地の３,,12,207,2710062,,,,,,,2024-07-02,1,,,,,トウコウショウジ,0
1008,5050001055001,新規,0,2024-07-02,2024-07-02,株式会社ＳＥＴ,,株式会社,茨城県,那珂郡東海村,舟石川駅東２丁目２３番２１号,,08,341,3191118,,,,,,,2024-07-02,1,,,,,エスイーティー,0
1009,5050001055026,新規,0,2024-07-02,2024-07-02,株式会社エネーブル,,株式会社,茨城県,守谷市,中央１丁目１４番地１３－３０１,,08,224,3020115,,,,,,,2024-07-02,1,,,,,エネーブル,0
1011,5050003008493,新規,0,2024-07-02,2024-07-02,東晟合同会社,,合同会社,茨城県,神栖市,神栖２丁目２番７０号,,08,232,3140143,,,,,,,2024-07-02,1,,,,,トウセイ,0
1012,5050003008510,新規,0,2024-07-02,2024-07-02,合同会社ＳＣインターナショナル,,合同会社,茨城県,つくば市,松野木１５０―１１,,08,220,3050056,,,,,,,2024-07-02,1,,,,,エスシーインターナショナル,0
1022,5070001041916,新規,0,2024-07-02,2024-07-02,株式会社和たし,,株式会社,群馬県,桐生市,新宿１丁目８番２７号,,10,203,3760006,,,,,,,2024-07-02,1,,,,,ワタシ,0
1023,5070001041924,新規,0,2024-07-02,2024-07-02,株式会社ＥＮ,,株式会社,群馬県,前橋市,元総社町２６９１番地６ルアナ元総社８０３,,10,201,3710846,,,,,,,2024-07-02,1,,,,,エン,0
1025,5080001026362,新規,0,2024-07-02,2024-07-02,株式会社カナリヤ,,株式会社,静岡県,静岡市駿河区,宮竹１丁目１０番６号,,22,102,4228035,,,,,,,2024-07-02,1,,,,,カナリヤ,0
1026,5080001026370,新規,0,2024-07-02,2024-07-02,株式会社フロックス,,株式会社,静岡県,静岡市葵区,古庄３丁目２８番１５－４号,,22,101,4200812,,,,,,,2024-07-02,1,,,,,フロックス,0
1030,5080402020039,新規,0,2024-07-02,2024-07-02,有限会社渡辺製作所,,有限会社,静岡県,磐田市,中野４５７番地の１,,22,211,4380053,,,,,,,2024-07-02,1,,,,,ワタナベセイサクショ,0
1031,5090003002591,新規,0,2024-07-02,2024-07-02,合同会社ｇｌａｄｌｙ,,合同会社,山梨県,富士吉田市,新西原２丁目２１番３号,,19,202,4030017,,,,,,,2024-07-02,1,,,,,グラッドリー,0
1032,5100003007639,新規,0,2024-07-02,2024-07-02,合同会社ＬＩＴＴＬＥ　ＲＥＤ　ＥＮＧＬＩＳＨ　ＳＣＨＯＯＬ,,合同会社,長野県,松本市,大字寿小赤２７１２番地,,20,202,3990024,,,,,,,2024-07-02,1,,,,,,0
1045,5120003026950,新規,0,2024-07-02,2024-07-02,ＳＷＡＬＬＯＷＳ合同会社,,合同会社,大阪府,大阪市中央区,心斎橋筋２丁目２－１１小川心斎橋ビル２Ｆ,,27,128,5420085,,,,,,,2024-07-02,1,,,,,スワローズ,0
1048,5120101069884,新規,0,2024-07-02,2024-07-02,大川産業株式会社,,株式会社,大阪府,堺市南区,豊田６５２番地,,27,145,5900106,,,,,,,2024-07-02,1,,,,,ダイカワサンギョウ,0
1049,5120101069901,新規,0,2024-07-02,2024-07-02,株式会社あおい,,株式会社,大阪府,岸和田市,岡山町８１０番地の１０６,,27,202,5960814,,,,,,,2024-07-02,1,,,,,アオイ,0
1050,5120103005920,新規,0,2024-07-02,2024-07-02,崎球合同会社,,合同会社,大阪府,堺市東区,北野田８１３番地２,,27,143,5998123,,,,,,,2024-07-02,1,,,,,ザック,0
1056,5130001077375,新規,0,2024-07-02,2024-07-02,トライゲット株式会社,,株式会社,京都府,京都市中京区,烏丸通四条上る笋町６８２番地梅軒ビル４階,,26,104,6048153,,,,,,,2024-07-02,1,,,,,トライゲット,0
1069,5140001134951,新規,0,2024-07-02,2024-07-02,株式会社一谷忠昌綜合商事,,株式会社,兵庫県,明石市,二見町西二見８６の２,,28,203,6740094,,,,,,,2024-07-02,1,,,,,イチタニタダマサソウゴウショウジ,0
1075,5150003003303,新規,0,2024-07-02,2024-07-02,合同会社上松花緒,,合同会社,奈良県,生駒郡三郷町,立野北１丁目３０番２号,,29,343,6360821,,,,,,,2024-07-02,1,,,,,ウエマツハナオ,0
1078,5160001026032,新規,0,2024-07-02,2024-07-02,秀真建設株式会社,,株式会社,滋賀県,高島市,新旭町深溝１１１番地９,,25,212,5201503,,,,,,,2024-07-02,1,,,,,ホツマケンセツ,0
1079,5180001162148,新規,0,2024-07-02,2024-07-02,クロスクルーシブパートナーズ株式会社,,株式会社,愛知県,半田市,桐ケ丘３丁目４番地の４,,23,205,4750928,,,,,,,2024-07-02,1,,,,,クロスクルーシブパートナーズ,0
1082,5180003026904,新規,0,2024-07-02,2024-07-02,常滑ハッピー農園合同会社,,合同会社,愛知県,常滑市,大和町１丁目９６番地,,23,216,4790844,,,,,,,2024-07-02,1,,,,,トコナメハッピーノウエン,0
1084,5180005020673,新規,0,2024-07-02,2024-07-02,特定非営利活動法人総合数理イノベーション,,その他の設立登記法人,愛知県,名古屋市天白区,島田２丁目３０１番地島田橋住宅１棟２０１号,,23,116,4680056,,,,,,,2024-07-02,1,,,,,ソウゴウスウリイノベーション,0
1085,5180301038782,新規,0,2024-07-02,2024-07-02,株式会社東＿貿易,00135382,株式会社,愛知県,西尾市,高落町郷前６７番地３,,23,213,4450001,,,,,,,2024-07-02,1,,,,,トウシンボウエキ,0
1086,5180303006168,新規,0,2024-07-02,2024-07-02,北川合同会社,,合同会社,愛知県,みよし市,三好町中鯰ヶ池８８番地の１,,23,236,4700224,,,,,,,2024-07-02,1,,,,,キタカワ,0
1096,5240001063447,新規,0,2024-07-02,2024-07-02,株式会社ワルツ,,株式会社,広島県,広島市安佐南区,八木３丁目２１番４１号,,34,105,7310101,,,,,,,2024-07-02,1,,,,,ワルツ,0
1097,5240001063455,新規,0,2024-07-02,2024-07-02,株式会社ＬＩＴ,,株式会社,広島県,広島市安佐南区,長束西４丁目２３番５号アベンティーノＢ２０１,,34,105,7310136,,,,,,,2024-07-02,1,,,,,リット,0
1100,5260001039222,新規,0,2024-07-02,2024-07-02,株式会社ｅ‐Ａｉｍ,,株式会社,岡山県,総社市,清音柿木８８２番地６,,33,208,7191176,,,,,,,2024-07-02,1,,,,,イーエイム,0
1101,5260001039230,新規,0,2024-07-02,2024-07-02,株式会社ＮＡＫＡＧＡＷＡ,,株式会社,岡山県,岡山市中区,江並１５２番地２１,,33,102,7028004,,,,,,,2024-07-02,1,,,,,ナカガワ,0
1107,5290001106325,新規,0,2024-07-02,2024-07-02,株式会社クレア,,株式会社,福岡県,福岡市中央区,大名２丁目９番１号ヒューベスト天神ビル８階,,40,133,8100041,,,,,,,2024-07-02,1,,,,,クレア,0
1114,5310001019086,新規,0,2024-07-02,2024-07-02,株式会社ＴｅｎＨｕｕ,,株式会社,長崎県,壱岐市,石田町印通寺浦１６０番地,,42,210,8115214,,,,,,,2024-07-02,1,,,,,テンフー,0
1121,5340001026617,新規,0,2024-07-02,2024-07-02,株式会社サウス,,株式会社,鹿児島県,鹿児島市,坂之上５丁目９番２０号,,46,201,8910150,,,,,,,2024-07-02,1,,,,,サウス,0
1126,5380001034640,新規,0,2024-07-02,2024-07-02,株式会社本丸,,株式会社,福島県,郡山市,駅前２丁目１－７－２階,,07,203,9638002,,,,,,,2024-07-02,1,,,,,ホンマル,0
1129,5400001016710,新規,0,2024-07-02,2024-07-02,株式会社もりおかローカル不動産,,株式会社,岩手県,盛岡市,湯沢南１丁目１番１号,,03,201,0200845,,,,,,,2024-07-02,1,,,,,モリオカローカルフドウサン,0
1133,5430001092146,新規,0,2024-07-02,2024-07-02,株式会社ＳＵＮＢＡＳＥ,,株式会社,北海道,小樽市,張碓町５０５番地９８,,01,203,0470266,,,,,,,2024-07-02,1,,,,,サンベース,0
1134,5430001092154,新規,0,2024-07-02,2024-07-02,株式会社介護屋ごとう,,株式会社,北海道,札幌市北区,北三十二条西５丁目３番２８号,,01,102,0010032,,,,,,,2024-07-02,1,,,,,カイゴヤゴトウ,0
1135,5430001092162,新規,0,2024-07-02,2024-07-02,株式会社天壇,,株式会社,北海道,札幌市中央区,北五条西６丁目１－２３第二北海道通信ビルＢ１Ｆ,,01,101,0600005,,,,,,,2024-07-02,1,,,,,テンダン,0
1137,5430003016508,新規,0,2024-07-02,2024-07-02,合同会社杉野税務会計,,合同会社,北海道,札幌市白石区,南郷通１０丁目南２番３号,,01,104,0030022,,,,,,,2024-07-02,1,,,,,スギノゼイムカイケイ,0
1142,5460301005234,新規,0,2024-07-02,2024-07-02,株式会社大野ファーム,,株式会社,北海道,網走郡美幌町,字豊富２４６番地３,,01,543,0920023,,,,,,,2024-07-02,1,,,,,オオノファーム,0
1143,5480001012529,新規,0,2024-07-02,2024-07-02,Ｍｉｒａｉ株式会社,,株式会社,徳島県,徳島市,国府町池尻４２番地の３,,36,201,7793116,,,,,,,2024-07-02,1,,,,,ミライ,0
1144,5480003002156,新規,0,2024-07-02,2024-07-02,合同会社宮本商会,,合同会社,徳島県,吉野川市,鴨島町西麻植字大東１５３番地１,,36,205,7760020,,,,,,,2024-07-02,1,,,,,ミヤモトショウカイ,0
1148,5700150126123,新規,0,2024-07-02,2024-06-21,長瀬組　安全協力会,,その他,愛知県,名古屋市西区,城西４丁目２５番２０号,,23,104,4510031,,,,,,,2024-06-21,1,,,,,ナガセグミアンゼンキヨウリヨクカイ,0
1160,6010001246180,新規,0,2024-07-02,2024-07-02,株式会社覚理,,株式会社,東京都,中央区,銀座３丁目１３－１１銀座芦澤ビル３階,00135379,13,102,1040061,,,,,,,2024-07-02,1,,,,,サトリ,0
1162,6010103002382,新規,0,2024-07-02,2024-07-02,合同会社スクロー,,合同会社,東京都,八王子市,元横山町３丁目２２番２３号,,13,201,1920063,,,,,,,2024-07-02,1,,,,,スクロー,0
1165,6010401183420,新規,0,2024-07-02,2024-07-02,株式会社ＫＡＲＡＤＡ　ＣＯＯＲＤＩＮＡＴＥ　ＬＡＢＯ．,,株式会社,東京都,港区,麻布十番１丁目１０番３号モンテプラザ麻布７０６,,13,103,1060045,,,,,,,2024-07-02,1,,,,,,0
1174,6010701046203,新規,0,2024-07-02,2024-07-02,Ｆｕｔｕｒｅ　Ｌｉｆｅ　Ｄｅｓｉｇｎ株式会社,,株式会社,東京都,品川区,南大井５丁目１３番５号,,13,109,1400013,,,,,,,2024-07-02,1,,,,,フューチャーライフデザイン,0
1175,6010701046211,新規,0,2024-07-02,2024-07-02,株式会社ｒｉｔ．,,株式会社,東京都,品川区,東品川２丁目３番１５－１００２号,,13,109,1400002,,,,,,,2024-07-02,1,,,,,リット,0
1180,6010903009189,新規,0,2024-07-02,2024-07-02,瑞海合同会社,,合同会社,東京都,世田谷区,砧６丁目３７－２,,13,112,1570073,,,,,,,2024-07-02,1,,,,,ミズミ,0
1182,6011001163044,新規,0,2024-07-02,2024-07-02,株式会社ファーストペンギン,,株式会社,東京都,渋谷区,神南１丁目９番４号,,13,113,1500041,,,,,,,2024-07-02,1,,,,,ファーストペンギン,0
1183,6011001163069,新規,0,2024-07-02,2024-07-02,株式会社Ｓｈａｄｏｗ　Ｖｉｎｔａｇｅ,,株式会社,東京都,渋谷区,恵比寿１丁目２５－６シュロスヨコオ４０３,,13,113,1500013,,,,,,,2024-07-02,1,,,,,シャドウヴィンテージ,0
1184,6011001163085,新規,0,2024-07-02,2024-07-02,Ｊ‐ＢＲＥＡＫ株式会社,,株式会社,東京都,渋谷区,初台１丁目５１－１,,13,113,1510061,,,,,,,2024-07-02,1,,,,,ジェイブレイク,0
1185,6011001163135,新規,0,2024-07-02,2024-07-02,株式会社モニュケ,,株式会社,東京都,渋谷区,渋谷２丁目１９‐１５,,13,113,1500002,,,,,,,2024-07-02,1,,,,,モニュケ,0
1186,6011001163151,新規,0,2024-07-02,2024-07-02,株式会社ヒノキローズアセットマネジメント,,株式会社,東京都,渋谷区,恵比寿西２丁目８番４号ＥＸ恵比寿西ビル５階,,13,113,1500021,,,,,,,2024-07-02,1,,,,,ヒノキローズアセットマネジメント,0
1187,6011003019475,新規,0,2024-07-02,2024-07-02,合同会社ｅｎｄｅ,,合同会社,東京都,渋谷区,恵比寿３丁目２９番１２号マカッサルマンション４Ｄ号室,,13,113,1500013,,,,,,,2024-07-02,1,,,,,エンデ,0
1188,6011003019483,新規,0,2024-07-02,2024-07-02,合同会社はうかみな,,合同会社,東京都,渋谷区,道玄坂１丁目１０番８号渋谷道玄坂東急ビル２Ｆ－Ｃ,,13,113,1500043,,,,,,,2024-07-02,1,,,,,ハウカミナ,0
1189,6011003019491,新規,0,2024-07-02,2024-07-02,Ｓｅｎｏｂｉ合同会社,,合同会社,東京都,渋谷区,道玄坂１丁目１０番８号渋谷道玄坂東急ビル２Ｆ－Ｃ,,13,113,1500043,,,,,,,2024-07-02,1,,,,,セノビ,0
1191,6011101107883,新規,0,2024-07-02,2024-07-02,株式会社ＥＸＯＲＡ,,株式会社,東京都,新宿区,歌舞伎町２丁目２５番８号２２３号室,,13,104,1600021,,,,,,,2024-07-02,1,,,,,エクソラ,0
1192,6011101107900,新規,0,2024-07-02,2024-07-02,ＵＮＤＥＲＴＯＮＥ株式会社,,株式会社,東京都,新宿区,西新宿３丁目３番１３号西新宿水間ビル６階,,13,104,1600023,,,,,,,2024-07-02,1,,,,,アンダートーン,0
1193,6011103014624,新規,0,2024-07-02,2024-07-02,Ｈａｎｇｒｙ　Ｂｙ　Ｎａｔｕｒｅ　Ｊａｐａｎ合同会社,,合同会社,東京都,新宿区,高田馬場３丁目２番１４号,,13,104,1690075,,,,,,,2024-07-02,1,,,,,ハングリーバイネイチャージャパン,0
1208,6012401042036,新規,0,2024-07-02,2024-07-02,株式会社Ｔｅｃｒｅｓｔ,,株式会社,東京都,調布市,国領町６丁目５番地１２,,13,208,1820022,,,,,,,2024-07-02,1,,,,,テクレスト,0
1217,6013301052744,新規,0,2024-07-02,2024-07-02,株式会社恋人ＫＥＩＢＡ,,株式会社,東京都,豊島区,池袋本町１丁目１７番４号,,13,116,1700011,,,,,,,2024-07-02,1,,,,,コイビトケイバ,0
1218,6013301052752,新規,0,2024-07-02,2024-07-02,株式会社医療法務センター,,株式会社,東京都,豊島区,巣鴨１丁目２４番５号第２ビラ京５階,,13,116,1700002,,,,,,,2024-07-02,1,,,,,イリョウホウムセンター,0
1223,6020001157947,新規,0,2024-07-02,2024-07-02,株式会社Ｌａｎｄ　Ｌｉｎｅ,,株式会社,神奈川県,横浜市磯子区,栗木１丁目３３番７号,,14,107,2350041,,,,,,,2024-07-02,1,,,,,ランドライン,0
1224,6020001157971,新規,0,2024-07-02,2024-07-02,株式会社コロネ,,株式会社,神奈川県,横浜市西区,北幸２丁目１０番４８号むつみビル３階,,14,103,2200004,,,,,,,2024-07-02,1,,,,,コロネ,0
1227,6021001082631,新規,0,2024-07-02,2024-07-02,株式会社ＯＮＬＹ,,株式会社,神奈川県,海老名市,中央１丁目１６番３１号,,14,215,2430432,,,,,,,2024-07-02,1,,,,,オンリー,0
1232,6030001161213,新規,0,2024-07-02,2024-07-02,株式会社Ａｌｐｈａ　Ｔｅｃｈ　Ｓｏｌｕｔｉｏｎｓ,,株式会社,埼玉県,川口市,幸町１丁目３番３１－２０３号,,11,203,3320016,,,,,,,2024-07-02,1,,,,,アルファテックソルーションズ,0
1248,6070001041923,新規,0,2024-07-02,2024-07-02,株式会社ＦＩＥＬＤ　ＯＦ　ＤＲＥＡＭＳ,,株式会社,群馬県,安中市,鷺宮８１３番地,,10,211,3790124,,,,,,,2024-07-02,1,,,,,フィールドオブドリームス,0
1253,6080103003085,新規,0,2024-07-02,2024-07-02,合同会社わくわく,,合同会社,静岡県,富士市,比奈２２５７番地の１１,,22,210,4170847,,,,,,,2024-07-02,1,,,,,ワクワク,0
1261,6120001266325,新規,0,2024-07-02,2024-07-02,ＲＡＳＨＩＫＵ株式会社,,株式会社,大阪府,大阪市淀川区,宮原１丁目４番２３－９０２,,27,123,5320003,,,,,,,2024-07-02,1,,,,,ラシク,0
1262,6120001266390,新規,0,2024-07-02,2024-07-02,株式会社アイネクス,,株式会社,大阪府,大阪市北区,梅田１丁目１３番１号１７Ｆ,,27,127,5300001,,,,,,,2024-07-02,1,,,,,アイネクス,0
1263,6120001266498,新規,0,2024-07-02,2024-07-02,株式会社すずめ,,株式会社,大阪府,大阪市中央区,上町１丁目２番２８－２９０４号,,27,128,5400005,,,,,,,2024-07-02,1,,,,,スズメ,0
1265,6120003026958,新規,0,2024-07-02,2024-07-02,合同会社幸貴堂,,合同会社,大阪府,大阪市北区,堂山町１４－２９鈴木ビル２０１,,27,127,5300027,,,,,,,2024-07-02,1,,,,,コウキドウ,0
1277,6130001077358,新規,0,2024-07-02,2024-07-02,朶藍図株式会社,,株式会社,京都府,京都市伏見区,深草祓川町２５－６（北側）,,26,109,6120000,,,,,,,2024-07-02,1,,,,,タランズ,0
1278,6130001077374,新規,0,2024-07-02,2024-07-02,株式会社Ａ　ｌａ　ｍｏｄｅ　Ｊ,,株式会社,京都府,京都市西京区,樫原下池田町１２－３９,,26,111,6158173,,,,,,,2024-07-02,1,,,,,アラモードジェイ,0
1279,6130001077382,新規,0,2024-07-02,2024-07-02,株式会社Ｎａｇｏｍｉ,,株式会社,京都府,京都市東山区,高台寺南門通下河原東入桝屋町３４９－７,,26,105,6050826,,,,,,,2024-07-02,1,,,,,ナゴミ,0
1284,6140001134959,新規,0,2024-07-02,2024-07-02,株式会社ＴＨＳキャリア,,株式会社,兵庫県,姫路市,夢前町山冨４０番地,,28,201,6712123,,,,,,,2024-07-02,1,,,,,ティーエッチエスキャリア,0
1294,6170003002070,新規,0,2024-07-02,2024-07-02,合同会社ＩＮＣ,,合同会社,和歌山県,和歌山市,栄谷７９６番地６グラン・エスポワール２０２,,30,201,6408441,,,,,,,2024-07-02,1,,,,,アイエヌシー,0
1297,6180001162155,新規,0,2024-07-02,2024-07-02,株式会社豊穣,,株式会社,愛知県,小牧市,大字北外山１８１４番地３,,23,219,4850023,,,,,,,2024-07-02,1,,,,,ホウジョウ,0
1298,6180001162163,新規,0,2024-07-02,2024-07-02,株式会社アシストワン,,株式会社,愛知県,名古屋市中村区,名駅２丁目４１番１０号,,23,105,4500002,,,,,,,2024-07-02,1,,,,,アシストワン,0
1299,6180001162171,新規,0,2024-07-02,2024-07-02,株式会社朝貿,,株式会社,愛知県,常滑市,字垣出口３５－１,,23,216,4790000,,,,,,,2024-07-02,1,,,,,チョウボウ,0
1300,6180001162196,新規,0,2024-07-02,2024-07-02,株式会社ティープラス,,株式会社,愛知県,弥富市,鯏浦町下六１０６番地６,,23,235,4980022,,,,,,,2024-07-02,1,,,,,ティープラス,0
1301,6180001162205,新規,0,2024-07-02,2024-07-02,株式会社Ｒｉｔａｒａｆｆ,,株式会社,愛知県,名古屋市東区,百人町１１番地の１,,23,102,4610037,,,,,,,2024-07-02,1,,,,,リタラフ,0
1303,6180003027001,新規,0,2024-07-02,2024-07-02,ＲＥＤ　ＷＡＶＥ合同会社,,合同会社,愛知県,名古屋市中区,錦２丁目２０番８号,,23,106,4600003,,,,,,,2024-07-02,1,,,,,レッドウェイブ,0
1304,6180003027018,新規,0,2024-07-02,2024-07-02,合同会社ウェルスプラス,,合同会社,愛知県,名古屋市中村区,名駅４丁目２４番５号第２森ビル４０１,,23,105,4500002,,,,,,,2024-07-02,1,,,,,ウェルスプラス,0
1306,6180303006167,新規,0,2024-07-02,2024-07-02,小泉合同会社,,合同会社,愛知県,みよし市,三好町中鯰ヶ池８８番地の１,,23,236,4700224,,,,,,,2024-07-02,1,,,,,コイズミ,0
1321,6280001009206,新規,0,2024-07-02,2024-07-02,現進株式会社,,株式会社,島根県,松江市,西川津町７００番地１２,,32,201,6900823,,,,,,,2024-07-02,1,,,,,ゲンシン,0
1323,6290001106340,新規,0,2024-07-02,2024-07-02,ｔｅａｓｅｅｄ不動産株式会社,,株式会社,福岡県,福岡市城南区,田島１丁目１２番５－２０５号,,40,136,8140113,,,,,,,2024-07-02,1,,,,,ティーシードフドウサン,0
1329,6310003004812,新規,0,2024-07-02,2024-07-02,合同会社まごめ建設,,合同会社,長崎県,西彼杵郡時津町,日並郷２２７５番地１カレントハウスＢ１０１,,42,308,8512108,,,,,,,2024-07-02,1,,,,,,0
1334,6330001032202,新規,0,2024-07-02,2024-07-02,株式会社ぼんぼんめん,,株式会社,熊本県,熊本市中央区,出水６丁目４０番１５号,,43,101,8620941,,,,,,,2024-07-02,1,,,,,ボンボンメン,0
1338,6360001033874,新規,0,2024-07-02,2024-07-02,南のカフェ株式会社,,株式会社,沖縄県,中頭郡北谷町,字美浜３４番地２レクー沖縄北谷スパ＆リゾート１Ｆ,,47,326,9040115,,,,,,,2024-07-02,1,,,,,ミナミノカフェ,0
1339,6360001033882,新規,0,2024-07-02,2024-07-02,株式会社伊藤,,株式会社,沖縄県,那覇市,字天久８１６ファミーユコート天久３０１号室,,47,201,9000005,,,,,,,2024-07-02,1,,,,,イトウ,0
1344,6370003006662,新規,0,2024-07-02,2024-07-02,合同会社ＳＡＮＰＯＹＡ,,合同会社,宮城県,仙台市青葉区,川平４丁目２６番３０号,,04,101,9810954,,,,,,,2024-07-02,1,,,,,サンポヤ,0
1346,6380001034631,新規,0,2024-07-02,2024-07-02,株式会社フジタ木工,,株式会社,福島県,東白川郡棚倉町,大字棚倉字古町５２番地３,,07,481,9636131,,,,,,,2024-07-02,1,,,,,フジタモッコウ,0
1349,6400001016701,新規,0,2024-07-02,2024-07-02,ＴＲＰ　Ｔｒｕｓｔ株式会社,,株式会社,岩手県,紫波郡紫波町,日詰字東裏９７番地１,,03,321,0283305,,,,,,,2024-07-02,1,,,,,ティーアールピートラスト,0
1384,7010005038466,新規,0,2024-07-02,2024-07-02,一般社団法人Ｇｌｏｂａｌ　Ｉｍｐｌａｎｔ　Ｄｅｎｔｉｓｔｒｙ,,その他の設立登記法人,東京都,中央区,八丁堀１丁目７番７号長井ビル２Ｆ,,13,102,1040032,,,,,,,2024-07-02,1,,,,,グローバルインプラントデンティストリー,0
1385,7010005038474,新規,0,2024-07-02,2024-07-02,一般社団法人ＫＲＦ１１１,,その他の設立登記法人,東京都,千代田区,内幸町２丁目１番６号,,13,101,1000011,,,,,,,2024-07-02,1,,,,,ケイアールエフヒャクジュウイチ,0
1387,7010101016219,新規,0,2024-07-02,2024-07-02,株式会社Ｅｐｈｅｍｅｒａｌ　Ｗｏｒｋｓ　Ｓｔｕｄｉｏｓ,,株式会社,東京都,八王子市,八日町１番１０－１００９号,,13,201,1920071,,,,,,,2024-07-02,1,,,,,エフェメールワークススタジオ,0
1395,7010401183469,新規,0,2024-07-02,2024-07-02,株式会社Ｈ＆Ｂ,,株式会社,東京都,港区,北青山１丁目３番１号,,13,103,1070061,,,,,,,2024-07-02,1,,,,,エイチアンドビー,0
1396,7010401183485,新規,0,2024-07-02,2024-07-02,ＨＨＳ　ＬＩＮＫ株式会社,,株式会社,東京都,港区,新橋３丁目１番１２号新橋シティビル６Ｆ,,13,103,1050004,,,,,,,2024-07-02,1,,,,,エイチエスリンク,0
1397,7010401183493,新規,0,2024-07-02,2024-07-02,株式会社星野,,株式会社,東京都,港区,白金３丁目３番４号メゾン白金２０５,,13,103,1080072,,,,,,,2024-07-02,1,,,,,ホシノ,0
1398,7010401183510,新規,0,2024-07-02,2024-07-02,株式会社ブリッジコーポレーション,,株式会社,東京都,港区,三田２丁目１７番１６－１３０３号,,13,103,1080073,,,,,,,2024-07-02,1,,,,,ブリッジコーポレーション,0
1401,7010601065459,新規,0,2024-07-02,2024-07-02,新鳴一株式会社,,株式会社,東京都,墨田区,向島４丁目１－１、２０８号室,,13,107,1310033,,,,,,,2024-07-02,1,,,,,シンメイイチ,0
1408,7010901055580,新規,0,2024-07-02,2024-07-02,ＹＡＭＡＳＵＧＩ建装株式会社,,株式会社,東京都,世田谷区,三軒茶屋２丁目６番７号,,13,112,1540024,,,,,,,2024-07-02,1,,,,,ヤマスギケンソウ,0
1410,7011001163084,新規,0,2024-07-02,2024-07-02,株式会社Ｓｙｎｅｒｇｙ　Ｂｌｏｏｍ,,株式会社,東京都,渋谷区,恵比寿西２丁目８番４号ＥＸ恵比寿西ビル５階,,13,113,1500021,,,,,,,2024-07-02,1,,,,,シナジーブルーム,0
1411,7011001163092,新規,0,2024-07-02,2024-07-02,株式会社ＦＩＲＥ,,株式会社,東京都,渋谷区,桜丘町２６番１号セルリアンタワー１５階,,13,113,1500031,,,,,,,2024-07-02,1,,,,,ファイア,0
1412,7011001163126,新規,0,2024-07-02,2024-07-02,株式会社ビターズ,,株式会社,東京都,渋谷区,笹塚３丁目３１‐２,,13,113,1510073,,,,,,,2024-07-02,1,,,,,ビターズ,0
1413,7011001163150,新規,0,2024-07-02,2024-07-02,株式会社ＲＥ‐ＨＥＡＲＴ,,株式会社,東京都,目黒区,東山３丁目４番５－１０５号,,13,110,1530043,,,,,,,2024-07-02,1,,,,,リハート,0
1417,7011103014615,新規,0,2024-07-02,2024-07-02,ＭＴ合同会社,,合同会社,東京都,新宿区,新宿６丁目６番４号羅生門ビル５Ｆ,,13,104,1600022,,,,,,,2024-07-02,1,,,,,エムティ,0
1419,7011501030866,新規,0,2024-07-02,2024-07-02,秋実株式会社,,株式会社,東京都,荒川区,東尾久２丁目２番９号三祥ビル２４４,,13,118,1160012,,,,,,,2024-07-02,1,,,,,アキミ,0
1421,7011601027861,新規,0,2024-07-02,2024-07-02,株式会社Ｏ．Ｓ．Ａ,,株式会社,東京都,練馬区,春日町５丁目３３番３７号,,13,120,1790074,,,,,,,2024-07-02,1,,,,,オーエスエー,0
1422,7011801044459,新規,0,2024-07-02,2024-07-02,峻崎国際株式会社,,株式会社,東京都,葛飾区,奥戸１丁目４番５号,,13,122,1240022,,,,,,,2024-07-02,1,,,,,シュンザキコクサイ,0
1427,7012401042027,新規,0,2024-07-02,2024-07-02,水月雨ジャパン株式会社,,株式会社,東京都,稲城市,矢野口２０４０グランソフィア松南ＩＩＣ,00135384,13,225,2060812,,,,,,,2024-07-02,1,,,,,スイゲツアメジャパン,0
1428,7012803003444,新規,0,2024-07-02,2024-07-02,合同会社夢創造企画コーポレーション,,合同会社,東京都,立川市,柴崎町３丁目８－５立川ＮＸビル５Ｆ,,13,202,1900023,,,,,,,2024-07-02,1,,,,,ユメソウゾウキカクコーポレーション,0
1432,7020001157970,新規,0,2024-07-02,2024-07-02,株式会社マチノマワークス,,株式会社,神奈川県,横浜市緑区,中山１丁目３０番３－９０３号,,14,113,2260019,,,,,,,2024-07-02,1,,,,,マチノマワークス,0
1433,7020001157979,新規,0,2024-07-02,2024-07-02,エーアイテレコム株式会社,,株式会社,神奈川県,横浜市西区,北幸２丁目１０番４８号むつみビル３階,,14,103,2200004,,,,,,,2024-07-02,1,,,,,エーアイテレコム,0
1440,7021003014697,新規,0,2024-07-02,2024-07-02,志緑時中合同会社,,合同会社,神奈川県,鎌倉市,山ノ内１８６番地３,,14,204,2470062,,,,,,,2024-07-02,1,,,,,シログジチュウ,0
1443,7030001161204,新規,0,2024-07-02,2024-07-02,株式会社ヒグチ電気工事,,株式会社,埼玉県,北本市,西高尾５丁目１９８番地２,,11,233,3640035,,,,,,,2024-07-02,1,,,,,ヒグチデンキコウジ,0
1444,7030001161212,新規,0,2024-07-02,2024-07-02,ＢＴＳ株式会社,,株式会社,埼玉県,さいたま市南区,大字円正寺１１２－１－３０１,,11,108,3360043,,,,,,,2024-07-02,1,,,,,ビティエス,0
1458,7040003025315,新規,0,2024-07-02,2024-07-02,合同会社前岡工業,,合同会社,千葉県,浦安市,富士見２丁目１１番１０－１０５号ノーブル富士見,,12,227,2790043,,,,,,,2024-07-02,1,,,,,マエオカコウギョウ,0
1461,7050001055032,新規,0,2024-07-02,2024-07-02,株式会社グッドソルト,,株式会社,茨城県,守谷市,乙子８―５,,08,224,3020123,,,,,,,2024-07-02,1,,,,,グッドソルト,0
1463,7050003008491,新規,0,2024-07-02,2024-07-02,合同会社アヤプランニング,,合同会社,茨城県,坂東市,辺田１４６９番地１１,,08,228,3060632,,,,,,,2024-07-02,1,,,,,アヤプランニング,0
1470,7080003003242,新規,0,2024-07-02,2024-07-02,田中喜美合同会社,,合同会社,静岡県,島田市,金谷扇町１９１６番地の１４,,22,209,4280015,,,,,,,2024-07-02,1,,,,,タナカキミ,0
1476,7090001018794,新規,0,2024-07-02,2024-07-02,株式会社アールビー,,株式会社,山梨県,甲府市,富士見１丁目２番１５号,,19,201,4000027,,,,,,,2024-07-02,1,,,,,アールビー,0
1488,7120001266282,新規,0,2024-07-02,2024-07-02,世界橋株式会社,,株式会社,大阪府,大阪市浪速区,下寺３丁目１－１４エクレール夕陽ケ丘５号２１８室,,27,111,5560001,,,,,,,2024-07-02,1,,,,,セカイバシ,0
1490,7120101069866,新規,0,2024-07-02,2024-07-02,瞬映株式会社,,株式会社,大阪府,堺市堺区,中瓦町１丁２－９－６０１,,27,141,5900077,,,,,,,2024-07-02,1,,,,,シュンエイ,0
1491,7120101069890,新規,0,2024-07-02,2024-07-02,株式会社ＺＡＴ,,株式会社,大阪府,藤井寺市,林２丁目５番１０－５０５号,,27,226,5830007,,,,,,,2024-07-02,1,,,,,ザット,0
1492,7120103005927,新規,0,2024-07-02,2024-07-02,きららホーム合同会社,,合同会社,大阪府,堺市南区,檜尾１１４１番地,,27,145,5900142,,,,,,,2024-07-02,1,,,,,キララホーム,0
1499,7130001077381,新規,0,2024-07-02,2024-07-02,株式会社Ｓｉｎｃｅｒｅ，ｌｙ,,株式会社,京都府,京都市下京区,中堂寺坊城町２番地ＢＥＡＵＴＹＢＬＤＧＴＡＮＢＡＧＵＣＨＩ５Ｆ,,26,106,6008811,,,,,,,2024-07-02,1,,,,,シンシアリー,0
1500,7130001077407,新規,0,2024-07-02,2024-07-02,株式会社ふぉーすまいる,,株式会社,京都府,京都市北区,鷹峯黒門町８番地１８,,26,101,6038464,,,,,,,2024-07-02,1,,,,,フォースマイル,0
1508,7140001134982,新規,0,2024-07-02,2024-07-02,ＩＳＥ会計コンサルティング株式会社,,株式会社,兵庫県,西宮市,堀切町５番２５号,,28,204,6620953,,,,,,,2024-07-02,1,,,,,アイエスイーカイケイコンサルティング,0
1509,7150001027392,新規,0,2024-07-02,2024-07-02,株式会社大和苺ジョイフルパーク,,株式会社,奈良県,大和郡山市,筒井町１２３０番地１,,29,203,6391123,,,,,,,2024-07-02,1,,,,,ヤマトイチゴジョイフルパーク,0
1510,7150003003301,新規,0,2024-07-02,2024-07-02,グリーンハブ合同会社,,合同会社,奈良県,御所市,大字冨田７３番地,,29,208,6392274,,,,,,,2024-07-02,1,,,,,グリーンハブ,0
1511,7180001046729,新規,0,2024-07-02,2024-07-02,株式会社ケイテック,,株式会社,愛知県,名古屋市緑区,砂田２丁目９０１番地,,23,114,4580807,,,,,,,2024-07-02,1,,,,,ケイテック,0
1516,7180001162096,新規,0,2024-07-02,2024-07-02,株式会社Ｎ‐ＳＴＹＬＥ,,株式会社,愛知県,名古屋市中区,錦２丁目１１番２７号,,23,106,4600003,,,,,,,2024-07-02,1,,,,,エヌスタイル,0
1517,7180001162146,新規,0,2024-07-02,2024-07-02,株式会社あんじゅ,,株式会社,愛知県,名古屋市瑞穂区,田辺通２丁目１１番地の２プレティナレジデンス瑞穂田辺通８０５号,,23,108,4670027,,,,,,,2024-07-02,1,,,,,アンジュ,0
1518,7180001162154,新規,0,2024-07-02,2024-07-02,株式会社日貴,,株式会社,愛知県,瀬戸市,北丘町１９５番地１,,23,204,4801204,,,,,,,2024-07-02,1,,,,,ヒダカ,0
1519,7180001162162,新規,0,2024-07-02,2024-07-02,株式会社友,,株式会社,愛知県,常滑市,金山字大岨９番地の８８,,23,216,4790003,,,,,,,2024-07-02,1,,,,,ユウ,0
1520,7180001162179,新規,0,2024-07-02,2024-07-02,株式会社Ｓｍｉｌｅ　ｈｕｇ,,株式会社,愛知県,春日井市,松新町４丁目７番地１ＴＨＥ・ＰＲＥＣＩＯＵＳ・ＫＡＣＨＩＧＡＷＡ６０５号,,23,206,4860931,,,,,,,2024-07-02,1,,,,,スマイルハグ,0
1521,7180001162187,新規,0,2024-07-02,2024-07-02,Ｎ’ｓ　ｈｏｕｓｅ株式会社,,株式会社,愛知県,日進市,米野木町丁田１２７番地２,,23,230,4700111,,,,,,,2024-07-02,1,,,,,エヌズハウス,0
1522,7180001162212,新規,0,2024-07-02,2024-07-02,ＹＫｐｒｏｊｅｃｔ株式会社,,株式会社,愛知県,名古屋市南区,鶴里町１丁目１３番地の１,,23,112,4570021,,,,,,,2024-07-02,1,,,,,ワイケイプロジェクト,0
1525,7180003026984,新規,0,2024-07-02,2024-07-02,合同会社フィットスル,,合同会社,愛知県,名古屋市中区,松原３丁目１６番４号（エスティメゾン東別院１２０５号）,,23,106,4600017,,,,,,,2024-07-02,1,,,,,フィットスル,0
1526,7180003027009,新規,0,2024-07-02,2024-07-02,Ｑｕｉｔｅｅ合同会社,,合同会社,愛知県,名古屋市中村区,名駅３丁目４－１０アルティメイト名駅１ｓｔ２階,,23,105,4500002,,,,,,,2024-07-02,1,,,,,クイティ,0
1527,7180003027017,新規,0,2024-07-02,2024-07-02,ＢＡＴＵ合同会社,,合同会社,愛知県,あま市,富塚十の坪６０番地１メゾンドハラゼン２３,,23,237,4901202,,,,,,,2024-07-02,1,,,,,バトゥ,0
1545,7270005005597,新規,0,2024-07-02,2024-07-02,一般社団法人コスモメモリアル,,その他の設立登記法人,鳥取県,西伯郡伯耆町,福兼３５７番地３,,31,390,6894216,,,,,,,2024-07-02,1,,,,,コスモメモリアル,0
1548,7290003015530,新規,0,2024-07-02,2024-07-02,ＳＥＥＤ合同会社,,合同会社,福岡県,柳川市,大和町鷹ノ尾５０５番地,,40,207,8390253,,,,,,,2024-07-02,1,,,,,シード,0
1549,7300001013815,新規,0,2024-07-02,2024-07-02,株式会社ティーダ建築工房,,株式会社,佐賀県,三養基郡みやき町,大字簑原５５４８番地２,,41,346,8490102,,,,,,,2024-07-02,1,,,,,ティーダケンチクコウボウ,0
1551,7330003010444,新規,0,2024-07-02,2024-07-02,合同会社Ｎ,,合同会社,熊本県,熊本市中央区,下通１丁目１０番１号,,43,101,8600807,,,,,,,2024-07-02,1,,,,,エヌ,0
1555,7340005009748,新規,0,2024-07-02,2024-07-02,一般社団法人ＲＩＮＮＥ,,その他の設立登記法人,鹿児島県,大島郡知名町,大字瀬利覚１２５４番地,,46,534,8919213,,,,,,,2024-07-02,1,,,,,リンネ,0
1556,7350001019048,新規,0,2024-07-02,2024-07-02,株式会社ｍｃｔｒ,,株式会社,宮崎県,宮崎市,下北方町牟タ田１１９０番地１,,45,201,8800035,,,,,,,2024-07-02,1,,,,,エムシーティーアール,0
1565,7380001034639,新規,0,2024-07-02,2024-07-02,株式会社光栄建設工業,,株式会社,福島県,南相馬市,原町区上北高平字西高松６番地の６,,07,212,9750027,,,,,,,2024-07-02,1,,,,,コウエイケンセツコウギョウ,0
1570,7400001016709,新規,0,2024-07-02,2024-07-02,株式会社Ｇｒｅｅｎ　Ｇｒｉｄ,,株式会社,岩手県,盛岡市,仙北１丁目３番１３号,,03,201,0200861,,,,,,,2024-07-02,1,,,,,グリーングリッド,0
1580,7460401001263,新規,0,2024-07-02,2024-07-02,株式会社ＷＩＮＧＷＯＲＬＤ,,株式会社,北海道,根室市,西浜町４丁目７４番地,,01,223,0870025,,,,,,,2024-07-02,1,,,,,,0
1582,7480001012527,新規,0,2024-07-02,2024-07-02,株式会社楠本電気商会,,株式会社,徳島県,板野郡板野町,大寺字岡ノ前９番地１,,36,404,7790105,,,,,,,2024-07-02,1,,,,,クスモトデンキショウカイ,0
1589,7700150050395,新規,0,2024-07-02,2015-10-09,越前市国際交流協会,,その他,福井県,越前市,府中１丁目１１－２市民プラザたけふ３階,,18,209,9150071,,,,,,,2015-10-09,1,,,,,エチゼンシコクサイコウリユウキヨウカイ,0
1598,8010005038473,新規,0,2024-07-02,2024-07-02,一般社団法人ＫＲＦ１０８,,その他の設立登記法人,東京都,千代田区,内幸町２丁目１番６号,,13,101,1000011,,,,,,,2024-07-02,1,,,,,ケイアールエフヒャクハチ,0
1610,8010401183492,新規,0,2024-07-02,2024-07-02,株式会社ＳＰＡＣＥ‐Ｕ,,株式会社,東京都,港区,北青山１丁目２番３号青山ビル１３階,,13,103,1070061,,,,,,,2024-07-02,1,,,,,スペースユー,0
1612,8010403032929,新規,0,2024-07-02,2024-07-02,合同会社ＴＳＭ１６３,,合同会社,東京都,港区,元赤坂１丁目１番７号,,13,103,1070051,,,,,,,2024-07-02,1,,,,,ティーエスエムヒャクロクジュウサン,0
1615,8010601065458,新規,0,2024-07-02,2024-07-02,Ｌｅ’ａｐｉｌｉｎａ株式会社,,株式会社,東京都,江東区,南砂２丁目３番３－２２２号南砂３号棟,,13,108,1360076,,,,,,,2024-07-02,1,,,,,レアピリナ,0
1616,8010601065482,新規,0,2024-07-02,2024-07-02,ＭＸＭ少額短期設立準備株式会社,,株式会社,東京都,江東区,豊洲３丁目２番２４号,,13,108,1350061,,,,,,,2024-07-02,1,,,,,エムエックスエムショウガクタンキセツリツジュンビ,0
1618,8010701046201,新規,0,2024-07-02,2024-07-02,ＡＬＨＤ株式会社,,株式会社,東京都,品川区,西大井４丁目１３番１２号,,13,109,1400015,,,,,,,2024-07-02,1,,,,,エーエルエイチディー,0
1620,8010901055555,新規,0,2024-07-02,2024-07-02,Ｒｅｖｉｖｅ　Ｓｔｒａｔｅｇｉｅｓ株式会社,,株式会社,東京都,世田谷区,用賀１丁目１３番２３―４０４号,,13,112,1580097,,,,,,,2024-07-02,1,,,,,リバイブストラテジーズ,0
1627,8011101107915,新規,0,2024-07-02,2024-07-02,ブランディングパートナー株式会社,,株式会社,東京都,新宿区,西新宿３丁目１７番７号西新宿ＴＯＫビル２Ｆ,,13,104,1600023,,,,,,,2024-07-02,1,,,,,ブランディングパートナー,0
1628,8011101107923,新規,0,2024-07-02,2024-07-02,推しが尊い株式会社,,株式会社,東京都,新宿区,西新宿３丁目３－１３西新宿水間ビル６階,,13,104,1600023,,,,,,,2024-07-02,1,,,,,オシガトウトイ,0
1629,8011203004432,新規,0,2024-07-02,2024-07-02,合同会社ＯＳＯＲＡ,,合同会社,東京都,中野区,本町１丁目２９－９,,13,114,1640012,,,,,,,2024-07-02,1,,,,,オソラ,0
1632,8011501030873,新規,0,2024-07-02,2024-07-02,クフー株式会社,,株式会社,東京都,荒川区,荒川１丁目２－１１,,13,118,1160002,,,,,,,2024-07-02,1,,,,,クフー,0
1637,8011801044466,新規,0,2024-07-02,2024-07-02,株式会社秀幸,,株式会社,東京都,足立区,青井２丁目４番１２号,,13,121,1200012,,,,,,,2024-07-02,1,,,,,ヒデコウ,0
1638,8011803006266,新規,0,2024-07-02,2024-07-02,順心合同会社,,合同会社,東京都,葛飾区,新宿５丁目２２－１２コスモ金町１０２,,13,122,1250051,,,,,,,2024-07-02,1,,,,,ジュンシン,0
1640,8012803003443,新規,0,2024-07-02,2024-07-02,ｓｈｏｗ‐ｔｅｃｈ合同会社,,合同会社,東京都,日野市,三沢２丁目３６‐１２,,13,212,1910032,,,,,,,2024-07-02,1,,,,,ショーテック,0
1645,8020001157953,新規,0,2024-07-02,2024-07-02,株式会社Ｆｕｎ　Ｈｅａｒｔ　Ｂａｓｅ,,株式会社,神奈川県,横浜市西区,伊勢町３丁目１２９番地２エムヒルズ横浜３０１号,,14,103,2200045,,,,,,,2024-07-02,1,,,,,ファンハートベース,0
1646,8020001157986,新規,0,2024-07-02,2024-07-02,株式会社ｓｏｕｒｉｒｅ．,,株式会社,神奈川県,横浜市南区,大岡１丁目３２番４号,,14,105,2320061,,,,,,,2024-07-02,1,,,,,,0
1650,8020003026438,新規,0,2024-07-02,2024-07-02,昇晟合同会社,,合同会社,神奈川県,横浜市中区,山下町１６２番地２プレシス横濱山下町,,14,104,2310023,,,,,,,2024-07-02,1,,,,,ショウセイ,0
1651,8021001082613,新規,0,2024-07-02,2024-07-02,ライフシフトホームズ株式会社,,株式会社,神奈川県,茅ヶ崎市,東海岸北４丁目９番１４号,,14,207,2530053,,,,,,,2024-07-02,1,,,,,ライフシフトホームズ,0
1663,8050001055031,新規,0,2024-07-02,2024-07-02,かとりコンストラクション株式会社,,株式会社,茨城県,下妻市,高道祖２７６番地３,,08,210,3040031,,,,,,,2024-07-02,1,,,,,カトリコンストラクション,0
1697,8120001266125,新規,0,2024-07-02,2024-07-02,株式会社エクレラージュ,,株式会社,大阪府,寝屋川市,明和２丁目２－８,,27,215,5720863,,,,,,,2024-07-02,1,,,,,エクレラージュ,0
1698,8120001266281,新規,0,2024-07-02,2024-07-02,ＪＲ株式会社,,株式会社,大阪府,大阪市淀川区,加島４丁目１９番３３号３０３号室,,27,123,5320031,,,,,,,2024-07-02,1,,,,,ジェイアール,0
1699,8120001266364,新規,0,2024-07-02,2024-07-02,洛庭株式会社,,株式会社,大阪府,大阪市東成区,大今里１丁目６番１号,,27,115,5370012,,,,,,,2024-07-02,1,,,,,ラクニワ,0
1700,8120001266406,新規,0,2024-07-02,2024-07-02,株式会社Ｄｅｎａｌｉ,,株式会社,大阪府,大阪市阿倍野区,北畠３丁目３番３号,,27,119,5450035,,,,,,,2024-07-02,1,,,,,デナリ,0
1701,8120001266430,新規,0,2024-07-02,2024-07-02,株式会社Ｂａｌａｎｃｅ,,株式会社,大阪府,大阪市中央区,平野町４丁目５番８号,,27,128,5410046,,,,,,,2024-07-02,1,,,,,バランス,0
1715,8130003009687,新規,0,2024-07-02,2024-07-02,ｈｏｄｇｅｐｏｄｇｅ合同会社,,合同会社,京都府,京都市左京区,高野蓼原町１４－１,,26,103,6068101,,,,,,,2024-07-02,1,,,,,ホッジポッジ,0
1724,8140001134998,新規,0,2024-07-02,2024-07-02,株式会社Ｍａｎａ３,,株式会社,兵庫県,加西市,北条町北条５７６番地の１０,,28,220,6752312,,,,,,,2024-07-02,1,,,,,マナスリー,0
1728,8140003020759,新規,0,2024-07-02,2024-07-02,Ａｌｐｈａ‐ｅ‐ｗｏｒｋｓ合同会社,,合同会社,兵庫県,姫路市,城見台３丁目１１１１－１１０,,28,201,6700803,,,,,,,2024-07-02,1,,,,,アルファイーワークス,0
1729,8140003020775,新規,0,2024-07-02,2024-07-02,合同会社Ｎａｖｙ　Ｂｌｕｅ,,合同会社,兵庫県,神戸市中央区,磯辺通１丁目１－１８カサベラ国際プラザビル７０７,,28,110,6510084,,,,,,,2024-07-02,1,,,,,ネイビーブルー,0
1730,8150001027391,新規,0,2024-07-02,2024-07-02,株式会社Ｆｕｕ,,株式会社,奈良県,大和郡山市,石川町１１番地７,,29,203,6391111,,,,,,,2024-07-02,1,,,,,フー,0
1734,8180001161980,新規,0,2024-07-02,2024-07-02,トラスト中部株式会社,,株式会社,愛知県,名古屋市中区,錦２丁目４番１５号ＯＲＥ錦二丁目ビル６階２号室,,23,106,4600003,,,,,,,2024-07-02,1,,,,,トラストチュウブ,0
1735,8180001162178,新規,0,2024-07-02,2024-07-02,株式会社ＪＡＰＡＲＴＥＣ,,株式会社,愛知県,名古屋市中区,橘１丁目６番８号,,23,106,4600016,,,,,,,2024-07-02,1,,,,,ジャパルテック,0
1736,8180001162203,新規,0,2024-07-02,2024-07-02,株式会社ＹＡＥ,,株式会社,愛知県,北名古屋市,鹿田５９２番地１,,23,234,4810004,,,,,,,2024-07-02,1,,,,,ワイエーイー,0
1737,8180003026991,新規,0,2024-07-02,2024-07-02,シンロンケミカル合同会社,,合同会社,愛知県,名古屋市港区,新茶屋４丁目３１４―１,,23,111,4550863,,,,,,,2024-07-02,1,,,,,シンロンケミカル,0
1738,8180003027008,新規,0,2024-07-02,2024-07-02,合同会社オーケー,,合同会社,愛知県,名古屋市名東区,勢子坊１丁目３０２番地,,23,115,4650055,,,,,,,2024-07-02,1,,,,,オーケー,0
1739,8180003027016,新規,0,2024-07-02,2024-07-02,合同会社ＥＧＧ,,合同会社,愛知県,瀬戸市,山口町２５１番地,,23,204,4890865,,,,,,,2024-07-02,1,,,,,エッグ,0
1741,8190001031448,新規,0,2024-07-02,2024-07-02,株式会社ＣＯＬＯＲ,,株式会社,三重県,四日市市,西浦１丁目５番６号向陽ビル１Ｆ１０２号,,24,202,5100071,,,,,,,2024-07-02,1,,,,,カラー,0
1748,8220005008868,新規,0,2024-07-02,2024-07-02,一般社団法人能登半島仮設宿泊所,,その他の設立登記法人,石川県,輪島市,三井町洲衛１０部１１番地１能登空港ターミナルビル１階,,17,204,9292372,,,,,,,2024-07-02,1,,,,,ノトハントウカセツシュクハクジョ,0
1752,8260001039228,新規,0,2024-07-02,2024-07-02,株式会社一寸奉仕,,株式会社,岡山県,倉敷市,寿町７番６号,,33,202,7100813,,,,,,,2024-07-02,1,,,,,イッスンホウシ,0
1754,8260003004808,新規,0,2024-07-02,2024-07-02,合同会社Ｒ．ｏｒａｎｇｅ,,合同会社,岡山県,岡山市南区,福富西２丁目５番７－２号,,33,104,7028031,,,,,,,2024-07-02,1,,,,,アールオレンジ,0
1756,8280005007617,新規,0,2024-07-02,2024-07-02,一般社団法人ｅドライブスポーツ,,その他の設立登記法人,島根県,出雲市,平田町２７７８番地４,,32,203,6910001,,,,,,,2024-07-02,1,,,,,イードライブスポーツ,0
1761,8290001106297,新規,0,2024-07-02,2024-07-02,株式会社蜃気楼,,株式会社,福岡県,福岡市博多区,麦野１丁目２８番２５号,,40,132,8120882,,,,,,,2024-07-02,1,,,,,シンキロウ,0
1768,8310001019083,新規,0,2024-07-02,2024-07-02,文織工房株式会社,,株式会社,長崎県,島原市,仁田町乙１８４５番地９８仁田団地,,42,203,8550884,,,,,,,2024-07-02,1,,,,,,0
1784,8390001017666,新規,0,2024-07-02,2024-07-02,株式会社アイ・エー企画,,株式会社,山形県,米沢市,大字長手１１２１番地１０２号室,,06,202,9920113,,,,,,,2024-07-02,1,,,,,,0
1802,8700150125774,新規,0,2024-07-02,2024-07-02,Ｗｈｉｔｅ　Ｍａｇｎｏｌｉａ　Ｂｌｏｏｍ　Ｃｏｍｐａｎｙ　Ｌｉｍｉｔｅｄ,,外国会社等,,,,,,,,ＯＦＦＩＣＥ　４，１０／Ｆ．，ＫＷＡＮ　ＣＨＡＲＴ　ＴＯＷＥＲ，ＮＯ．６　ＴＯＮＮＯＣＨＹ　ＲＯＡＤ，ＷＡＮＣＨＡＩ，ＨＯＮＧ　ＫＯＮＧ,,,,,,2024-07-02,1,,,,,ホワイトマグノリアブルームカンパニーリミテツド,0
1807,9010401183483,新規,0,2024-07-02,2024-07-02,株式会社プロステップ,,株式会社,東京都,港区,西新橋３丁目１５番１２号,,13,103,1050003,,,,,,,2024-07-02,1,,,,,プロステップ,0
1808,9010503007490,新規,0,2024-07-02,2024-07-02,合同会社ＮＩＮＥ　ＦＩＧＵＲＥ,,合同会社,東京都,台東区,下谷３丁目１－２４－１０１１,,13,106,1100004,,,,,,,2024-07-02,1,,,,,ナインフィギュア,0
1810,9010601065424,新規,0,2024-07-02,2024-07-02,株式会社ＳＨＡＤＥＺ　ＯＦ　ＢＬＵＥ,,株式会社,東京都,江東区,清澄３丁目９－１８,,13,108,1350024,,,,,,,2024-07-02,1,,,,,シェイズオブブルー,0
1811,9010601065449,新規,0,2024-07-02,2024-07-02,株式会社グルマンズ,,株式会社,東京都,墨田区,江東橋１丁目８番１３号りゅうげつビル１Ｆ,,13,107,1300022,,,,,,,2024-07-02,1,,,,,グルマンズ,0
1823,9011001163017,新規,0,2024-07-02,2024-07-02,ＦＯＲＭＡ　ＨＯＭＥＳ株式会社,,株式会社,東京都,渋谷区,渋谷２丁目１９－１５宮益坂ビルディング６０９,,13,113,1500002,,,,,,,2024-07-02,1,,,,,フォーマホームズ,0
1824,9011001163033,新規,0,2024-07-02,2024-07-02,株式会社ｂｅａｍｙ,,株式会社,東京都,渋谷区,広尾５丁目４－１６,,13,113,1500012,,,,,,,2024-07-02,1,,,,,ビーミー,0
1825,9011001163082,新規,0,2024-07-02,2024-07-02,株式会社Ｓｅｅｄ　Ｌａｂｓ,,株式会社,東京都,渋谷区,道玄坂１丁目１０番８号渋谷道玄坂東急ビル２Ｆ‐Ｃ,,13,113,1500043,,,,,,,2024-07-02,1,,,,,シードラボ,0
1826,9011001163090,新規,0,2024-07-02,2024-07-02,株式会社ジンブードラゴン,,株式会社,東京都,渋谷区,道玄坂１丁目１０番８号渋谷道玄坂東急ビル２Ｆ－Ｃ,,13,113,1500043,,,,,,,2024-07-02,1,,,,,ジンブードラゴン,0
1827,9011001163099,新規,0,2024-07-02,2024-07-02,株式会社盛嘉,,株式会社,東京都,渋谷区,松濤１丁目１８番２３号,,13,113,1500046,,,,,,,2024-07-02,1,,,,,セイカ,0
1828,9011001163116,新規,0,2024-07-02,2024-07-02,株式会社またね,,株式会社,東京都,渋谷区,本町３丁目１０番３号清水橋矢部ビル７０１,,13,113,1510071,,,,,,,2024-07-02,1,,,,,マタネ,0
1829,9011003019464,新規,0,2024-07-02,2024-07-02,Ａｉｍ合同会社,,合同会社,東京都,渋谷区,代官山町１４－１５ＨＡＲＡＰＰＡＤＡＩＫＡＮＹＡＭＡ３Ｆ株式会社ＳＵＩＫＯＳＨＡ内,,13,113,1500034,,,,,,,2024-07-02,1,,,,,エイム,0
1830,9011003019489,新規,0,2024-07-02,2024-07-02,合同会社Ｇｌｕｔｔｏｎ,,合同会社,東京都,渋谷区,猿楽町２６－２ＳａｒｕｇａｋｕＢ棟Ｂ１,,13,113,1500033,,,,,,,2024-07-02,1,,,,,グラトン,0
1831,9011003019497,新規,0,2024-07-02,2024-07-02,合同会社ヘンハウスコンサルティング,,合同会社,東京都,目黒区,中目黒４丁目５番１２号,,13,110,1530061,,,,,,,2024-07-02,1,,,,,ヘンハウスコンサルティング,0
1833,9011101107897,新規,0,2024-07-02,2024-07-02,株式会社起業の学校,,株式会社,東京都,新宿区,新宿４丁目３番１７号ＦＯＲＥＣＡＳＴ新宿ＳＯＵＴＨ３０４,,13,104,1600022,,,,,,,2024-07-02,1,,,,,キギョウノガッコウ,0
1834,9011101107922,新規,0,2024-07-02,2024-07-02,ＪＲ東日本不動産株式会社,,株式会社,東京都,新宿区,新宿４丁目１番６号,,13,104,1600022,,,,,,,2024-07-02,1,,,,,ジェイアールヒガシニホンフドウサン,0
1837,9011105011096,新規,0,2024-07-02,2024-07-02,税理士法人鈴木会計事務所,,その他の設立登記法人,東京都,新宿区,歌舞伎町２丁目４２番１１号カーサ新宿５階,,13,104,1600021,,,,,,,2024-07-02,1,,,,,スズキイチロウカイケイジムショ,0
1839,9011301029801,新規,0,2024-07-02,2024-07-02,株式会社ヤマザキ,,株式会社,東京都,杉並区,本天沼３丁目１２番２５号,,13,115,1670031,,,,,,,2024-07-02,1,,,,,ヤマザキ,0
1853,9012701018328,新規,0,2024-07-02,2024-07-02,浩明株式会社,,株式会社,東京都,清瀬市,下清戸２丁目４６２－１,,13,221,2040011,,,,,,,2024-07-02,1,,,,,コウメイ,0
1855,9013301052741,新規,0,2024-07-02,2024-07-02,株式会社ＥＣ,,株式会社,東京都,豊島区,池袋２丁目１７番８－４０９号,,13,116,1710014,,,,,,,2024-07-02,1,,,,,イーシー,0
1858,9020003026461,新規,0,2024-07-02,2024-07-02,ｅｅｅ　Ｂｅａｕｔｙ合同会社,,合同会社,神奈川県,横浜市西区,北幸１丁目１１－１水信ビル７階,,14,103,2200004,,,,,,,2024-07-02,1,,,,,イービューティー,0
1860,9021001082612,新規,0,2024-07-02,2024-07-02,株式会社菅工業,,株式会社,神奈川県,横須賀市,衣笠町１２番４号,,14,201,2380025,,,,,,,2024-07-02,1,,,,,スガコウギョウ,0
1863,9021003014704,新規,0,2024-07-02,2024-07-02,神奈川モータス合同会社,,合同会社,神奈川県,藤沢市,用田２７８９番地２,,14,205,2520821,,,,,,,2024-07-02,1,,,,,カナガワモータス,0
1870,9030001161210,新規,0,2024-07-02,2024-07-02,株式会社浩義サービス,,株式会社,埼玉県,川越市,南台３丁目９－７ダイアパレス川越南台２０４号,,11,201,3501165,,,,,,,2024-07-02,1,,,,,コウギサービス,0
1876,9030005021749,新規,0,2024-07-02,2024-07-02,一般社団法人まちづくりＧｏ高砂,,その他の設立登記法人,埼玉県,さいたま市浦和区,元町２丁目２３番３１号,,11,107,3300073,,,,,,,2024-07-02,1,,,,,,0
1882,9040005022432,新規,0,2024-07-02,2024-07-02,ＮＰＯ法人こどもサポートみらい,,その他の設立登記法人,千葉県,富里市,七栄６４６番地１１１,,12,233,2860221,,,,,,,2024-07-02,1,,,,,コドモサポートミライ,0
1888,9070003005485,新規,0,2024-07-02,2024-07-02,合同会社Ｓｏｌｉｄ,,合同会社,群馬県,太田市,宝町１６４番地２,,10,205,3730042,,,,,,,2024-07-02,1,,,,,ソリッド,0
1891,9080001026359,新規,0,2024-07-02,2024-07-02,株式会社スズシマ,,株式会社,静岡県,静岡市清水区,大内２７５－３,,22,103,4240061,,,,,,,2024-07-02,1,,,,,スズシマ,0
1892,9080003003240,新規,0,2024-07-02,2024-07-02,あすか合同会社,,合同会社,静岡県,静岡市駿河区,曲金２丁目３１５番地３,,22,102,4228006,,,,,,,2024-07-02,1,,,,,,0
1894,9080401027287,新規,0,2024-07-02,2024-07-02,株式会社ライトハンドオフィス,,株式会社,静岡県,浜松市中央区,大平台１丁目１７番８号,,22,138,4328068,,,,,,,2024-07-02,1,,,,,ライトハンドオフィス,0
1898,9110001038516,新規,0,2024-07-02,2024-07-02,株式会社Ａｘｉｏｍ,,株式会社,新潟県,新潟市西区,五十嵐２の町８０５０番地産学連携共同研究棟１号棟ＮＯＴ、ＴＨＥ、ＵＮＩＶＥＲＳＩＴＹ,,15,107,9502102,,,,,,,2024-07-02,1,,,,,アクシオム,0
1907,9120001266264,新規,0,2024-07-02,2024-07-02,ナショナルタクシー株式会社,,株式会社,大阪府,大阪市鶴見区,放出東３丁目３６番６号,,27,124,5380044,,,,,,,2024-07-02,1,,,,,ナショナルタクシー,0
1908,9120001266289,新規,0,2024-07-02,2024-07-02,株式会社ＦＩＥＬＤ　ＰＬＵＳ,,株式会社,大阪府,大阪市北区,芝田２丁目２番１３号日生ビル東館５階,,27,127,5300012,,,,,,,2024-07-02,1,,,,,フィールドプラス,0
1909,9120001266371,新規,0,2024-07-02,2024-07-02,ＹＥＳ商事株式会社,,株式会社,大阪府,大阪市北区,梅田１丁目２番２号大阪駅前第２ビル１２－１２,,27,127,5300001,,,,,,,2024-07-02,1,,,,,ワイイーエスショウジ,0
1911,9120003026897,新規,0,2024-07-02,2024-07-02,合同会社ｍａｒｕｃｏ,,合同会社,大阪府,大阪市北区,梅田１丁目２番２号大阪駅前第２ビル１２－１２,,27,127,5300001,,,,,,,2024-07-02,1,,,,,マルコ,0
1912,9120003026955,新規,0,2024-07-02,2024-07-02,Ａｕｆｔａｃｋｔ合同会社,,合同会社,大阪府,大阪市北区,梅田１丁目１－３大阪駅前第３ビル２９階１－１－１号室,,27,127,5300001,,,,,,,2024-07-02,1,,,,,アウフタクト,0
1921,9122001038230,新規,0,2024-07-02,2024-07-02,株式会社ＢＬＯＷ　ＧＵＩＬＤ,,株式会社,大阪府,東大阪市,大蓮北１丁目６番２１号,00135383,27,227,5770826,,,,,,,2024-07-02,1,,,,,ブローギルド,0
1928,9130001077371,新規,0,2024-07-02,2024-07-02,千賀株式会社,,株式会社,京都府,京都市伏見区,淀新町１１２番地の６,,26,109,6130906,,,,,,,2024-07-02,1,,,,,センガ,0
1930,9130005017126,新規,0,2024-07-02,2024-07-02,一般社団法人京都アカデミア法律研究所,,その他の設立登記法人,京都府,京都市左京区,吉田本町国際科学イノベーション棟４階４０１,,26,103,6068317,,,,,,,2024-07-02,1,,,,,キョウトアカデミアホウリツケンキュウショ,0
1935,9140001134972,新規,0,2024-07-02,2024-07-02,株式会社エイワード,,株式会社,兵庫県,神戸市中央区,磯辺通１丁目１番１８号カサベラ国際プラザビル７０７,,28,110,6510084,,,,,,,2024-07-02,1,,,,,エイワード,0
1936,9140003020766,新規,0,2024-07-02,2024-07-02,合同会社ＳＵｕ,,合同会社,兵庫県,姫路市,香寺町須加院３３８番地３２１,,28,201,6792132,,,,,,,2024-07-02,1,,,,,エスユーユー,0
1939,9150001027390,新規,0,2024-07-02,2024-07-02,ましろエステート株式会社,,株式会社,奈良県,奈良市,登美ヶ丘２丁目１番３５号,,29,201,6310004,,,,,,,2024-07-02,1,,,,,マシロエステート,0
1947,9180001162111,新規,0,2024-07-02,2024-07-02,株式会社大山商事,,株式会社,愛知県,瀬戸市,上半田川町１４０９番地の１,,23,204,4801211,,,,,,,2024-07-02,1,,,,,オオヤマショウジ,0
1948,9180001162152,新規,0,2024-07-02,2024-07-02,株式会社ｅＶｏｏｓｔｅｒ,,株式会社,愛知県,名古屋市西区,那古野２丁目１４番１号,,23,104,4510042,,,,,,,2024-07-02,1,,,,,イーブースター,0
1949,9180001162160,新規,0,2024-07-02,2024-07-02,株式会社ＲＭ,,株式会社,愛知県,大府市,柊山町４丁目４１番,,23,223,4740053,,,,,,,2024-07-02,1,,,,,アールエム,0
1950,9180001162177,新規,0,2024-07-02,2024-07-02,カミング株式会社,,株式会社,愛知県,名古屋市瑞穂区,弥富通五丁目５６番地,,23,108,4670000,,,,,,,2024-07-02,1,,,,,カミング,0
1951,9180001162185,新規,0,2024-07-02,2024-07-02,株式会社Ｓｏｌｔｕｒｅ,,株式会社,愛知県,一宮市,大和町戸塚字宮崎東１９番地３４,,23,203,4910927,,,,,,,2024-07-02,1,,,,,ソルチャー,0
1952,9180001162193,新規,0,2024-07-02,2024-07-02,株式会社いしずえ,,株式会社,愛知県,犬山市,中山町２丁目８７番地サンディーヌ２０６,,23,215,4840087,,,,,,,2024-07-02,1,,,,,イシズエ,0
1953,9180001162202,新規,0,2024-07-02,2024-07-02,株式会社陽向,,株式会社,愛知県,春日井市,如意申町１丁目５番地３,,23,206,4860918,,,,,,,2024-07-02,1,,,,,ヒナタ,0
1957,9180003026917,新規,0,2024-07-02,2024-07-02,合同会社ＬＩＣＡＯＮ,,合同会社,愛知県,一宮市,今伊勢町本神戸字権現９－２,,23,203,4910053,,,,,,,2024-07-02,1,,,,,リカオン,0
1961,9190001031439,新規,0,2024-07-02,2024-07-02,億豊株式会社,,株式会社,三重県,松阪市,駅部田町１７０７番地１,,24,204,5150045,,,,,,,2024-07-02,1,,,,,オクホウ,0
1966,9220001026071,新規,0,2024-07-02,2024-07-02,株式会社小松ＤＭＣ,,株式会社,石川県,小松市,龍助町２９番地１,,17,203,9230926,,,,,,,2024-07-02,1,,,,,コマツディーエムシー,0
1975,9260001039219,新規,0,2024-07-02,2024-07-02,仁木ホールディングス株式会社,,株式会社,岡山県,岡山市北区,蕃山町３番７号両備蕃山町ビル５階,,33,101,7000818,,,,,,,2024-07-02,1,,,,,ニキホールディングス,0
1978,9260003004807,新規,0,2024-07-02,2024-07-02,合同会社祇園湯屋,,合同会社,岡山県,岡山市北区,丸の内１丁目５‐２２‐１２０２,,33,101,7000823,,,,,,,2024-07-02,1,,,,,ギオンユヤ,0
2000,9330003010442,新規,0,2024-07-02,2024-07-02,合同会社ＨＡＬ,,合同会社,熊本県,熊本市中央区,本山１丁目３番２６号ＣＲＥＡもとやま一丁目Ａ,,43,101,8600821,,,,,,,2024-07-02,1,,,,,ハル,0
2002,9370001051468,新規,0,2024-07-02,2024-07-02,株式会社ＰＯＰＥＹＥ,,株式会社,宮城県,仙台市宮城野区,鉄砲町中８番地の３ベレオ仙台駅東４０１,,04,102,9830868,,,,,,,2024-07-02,1,,,,,ポパイ,0
2007,9400001016698,新規,0,2024-07-02,2024-07-02,株式会社マルテン水産,,株式会社,岩手県,陸前高田市,小友町字塩谷５番地１,,03,210,0292207,,,,,,,2024-07-02,1,,,,,マルテンスイサン,0
2020,9430001092167,新規,0,2024-07-02,2024-07-02,株式会社Ｒｕｂａｎ,,株式会社,北海道,札幌市東区,北四十二条東８丁目１番７号,,01,103,0070842,,,,,,,2024-07-02,1,,,,,ルーバン,0
2022,9460101007567,新規,0,2024-07-02,2024-07-02,株式会社池田酒販,,株式会社,北海道,中川郡池田町,字高島５０番地の３,,01,644,0893152,,,,,,,2024-07-02,1,,,,,イケダシュハン,0
