sequenceNumber,corporateNumber,process,correct,updateDate,changeDate,name,nameImageId,kind,prefectureName,cityName,streetNumber,addressImageId,prefectureCode,cityCode,postCode,addressOutside,addressOutsideImageId,closeDate,closeCause,successorCorporateNumber,changeCause,assignmentDate,latest,enName,enPrefectureName,enCityName,enAddressOutside,furigana,hihyoji
10,1010001253140,新規,0,2025-03-19,2025-03-19,株式会社ＫＥＷＩＴ,,株式会社,東京都,中央区,日本橋兜町１７番２号兜町第６葉山ビル４Ｆ,,13,102,1030026,,,,,,,2025-03-19,1,,,,,キューウィット,0
11,1010001253280,新規,0,2025-03-19,2025-03-19,株式会社タナカ製造所,,株式会社,東京都,中央区,銀座１丁目１３番８号,,13,102,1040061,,,,,,,2025-03-19,1,,,,,タナカセイゾウショ,0
12,1010001253297,新規,0,2025-03-19,2025-03-19,株式会社Ｎｅｗ　Ｄｅａｌ,,株式会社,東京都,千代田区,大手町２丁目２番１号,,13,101,1000004,,,,,,,2025-03-19,1,,,,,ニューディール,0
14,1010003046798,新規,0,2025-03-19,2025-03-19,合同会社ＢＳ‐ＥＮＥＲＧＹ,,合同会社,東京都,千代田区,飯田橋３丁目１番５号ＲＯＬＥＳ千代田飯田橋８Ｆ,,13,101,1020072,,,,,,,2025-03-19,1,,,,,ビーエスエナジー,0
15,1010003046815,新規,0,2025-03-19,2025-03-19,天馬ホールディングス合同会社,,合同会社,東京都,中央区,銀座１丁目１２－４Ｎ＆ＥＢＬＤ．７階,,13,102,1040061,,,,,,,2025-03-19,1,,,,,テンバホールディングス,0
16,1010003046831,新規,0,2025-03-19,2025-03-19,合同会社ＮＯ　Ｐｌａｎｎｉｎｇ,,合同会社,東京都,中央区,勝どき１丁目８番１－３５１２号,,13,102,1040054,,,,,,,2025-03-19,1,,,,,エヌオープランニング,0
21,1010005039783,新規,0,2025-03-19,2025-03-19,ＥｄｇｅＣｏｎｎｅＸ　Ｊａｐａｎ５一般社団法人,,その他の設立登記法人,東京都,千代田区,霞が関３丁目２番６号東京倶楽部ビルディング１１階,,13,101,1000013,,,,,,,2025-03-19,1,,,,,エッジコネックスジャパンファイブ,0
23,1010101016570,新規,0,2025-03-19,2025-03-19,株式会社Ｉｎｔｅｌｌｅｃｔａ,,株式会社,東京都,八王子市,みなみ野５丁目３０－６４,,13,201,1920916,,,,,,,2025-03-19,1,,,,,インテレクタ,0
32,1010401188977,新規,0,2025-03-19,2025-03-19,ＳｅａＬｅａｄ　Ｓｈｉｐｐｉｎｇ　Ｊａｐａｎ株式会社,,株式会社,東京都,港区,海岸１丁目２番２０号汐留ビルディング３階,,13,103,1050022,,,,,,,2025-03-19,1,,,,,シーリードシッピングジャパン,0
33,1010401188985,新規,0,2025-03-19,2025-03-19,株式会社ブロックネット,,株式会社,東京都,港区,北青山１丁目３－３三橋ビル３階,,13,103,1070061,,,,,,,2025-03-19,1,,,,,ブロックネット,0
34,1010401188993,新規,0,2025-03-19,2025-03-19,株式会社オリナス,,株式会社,東京都,港区,六本木２丁目２番６号福吉町ビル,,13,103,1060032,,,,,,,2025-03-19,1,,,,,オリナス,0
35,1010401189001,新規,0,2025-03-19,2025-03-19,新清産業株式会社,,株式会社,東京都,港区,南青山３丁目１番３６号青山丸竹ビル６Ｆ,,13,103,1070062,,,,,,,2025-03-19,1,,,,,シンセイサンギョウ,0
39,1010501053817,新規,0,2025-03-19,2025-03-19,梅嵐株式会社,,株式会社,東京都,台東区,西浅草３丁目２６番１２号２０１号室,,13,106,1110035,,,,,,,2025-03-19,1,,,,,バイラン,0
41,1010601066982,新規,0,2025-03-19,2025-03-19,株式会社ＧＲＡＶＩＴＹＢＬＵＥ,,株式会社,東京都,江東区,北砂３丁目４番３６－６０９号,,13,108,1360073,,,,,,,2025-03-19,1,,,,,グラビティブルー,0
42,1010601066990,新規,0,2025-03-19,2025-03-19,ソレマーレ株式会社,,株式会社,東京都,江東区,大島２丁目７番８号－６０４,,13,108,1360072,,,,,,,2025-03-19,1,,,,,ソレマーレ,0
44,1010701047379,新規,0,2025-03-19,2025-03-19,ＧｏｏｄＢｅｅｒ＆Ｆｒｉｅｎｄｓ株式会社,,株式会社,東京都,品川区,西五反田６丁目２５番２号,,13,109,1410031,,,,,,,2025-03-19,1,,,,,グッドビアアンドフレンズ,0
45,1010703007604,新規,0,2025-03-19,2025-03-19,ＫＯＭＡＭＥ合同会社,,合同会社,東京都,品川区,上大崎２丁目１８番２０－２０３号,,13,109,1410021,,,,,,,2025-03-19,1,,,,,コマメ,0
51,1011001168213,新規,0,2025-03-19,2025-03-19,株式会社コーワリエゾン,,株式会社,東京都,渋谷区,渋谷２丁目１９－１５宮益坂ビルディング６０９,,13,113,1500002,,,,,,,2025-03-19,1,,,,,コーワリエゾン,0
52,1011001168262,新規,0,2025-03-19,2025-03-19,株式会社アンテナファースト,,株式会社,東京都,目黒区,中央町２丁目１１番１０号,,13,110,1520001,,,,,,,2025-03-19,1,,,,,,0
53,1011003021163,新規,0,2025-03-19,2025-03-19,ＳＡＴＯＹＡＭＡ　ＧＬＯＣＡＬ合同会社,,合同会社,東京都,渋谷区,道玄坂１丁目１０番８号渋谷道玄坂東急ビル２Ｆ－Ｃ,,13,113,1500043,,,,,,,2025-03-19,1,,,,,サトヤマグローカル,0
54,1011003021213,新規,0,2025-03-19,2025-03-19,合同会社ｍｉｍｉｂｏｏｎ,,合同会社,東京都,目黒区,自由が丘２丁目１６番１２号ＲＪ３,,13,110,1520035,,,,,,,2025-03-19,1,,,,,ミミボーン,0
60,1011303005452,新規,0,2025-03-19,2025-03-19,ちちり合同会社,,合同会社,東京都,杉並区,高円寺南２丁目４０番２６号,,13,115,1660003,,,,,,,2025-03-19,1,,,,,チチリ,0
61,1011503006449,新規,0,2025-03-19,2025-03-19,Ｓ．Ｓ．ＮＩＰＰＯＮ合同会社,,合同会社,東京都,北区,上十条４丁目９番１０号,,13,117,1140034,,,,,,,2025-03-19,1,,,,,エスエスニッポン,0
62,1011801045702,新規,0,2025-03-19,2025-03-19,ＨｙｐｅｒＩｎ株式会社,,株式会社,東京都,葛飾区,東堀切１丁目１２―６,,13,122,1240004,,,,,,,2025-03-19,1,,,,,ハイパーイン,0
63,1011805003441,新規,0,2025-03-19,2025-03-19,一般社団法人ライフインセプション,,その他の設立登記法人,東京都,足立区,千住緑町１丁目２番１号１０１２号,,13,121,1200044,,,,,,,2025-03-19,1,,,,,,0
66,1012401042874,新規,0,2025-03-19,2025-03-19,株式会社ＢｌｏｏｍＥｄｇｅ,,株式会社,東京都,調布市,小島町１丁目３４番地２４Ｌｅｄａｍｉｅｒ４０６,,13,208,1820026,,,,,,,2025-03-19,1,,,,,ブルームエッジ,0
68,1012405005092,新規,0,2025-03-19,2025-03-19,一般社団法人ジャパンカインドネス協会,,その他の設立登記法人,東京都,府中市,宮西町２丁目８－２松原ビル５階２２号室,,13,206,1830022,,,,,,,2025-03-19,1,,,,,ジャパンカインドネスキョウカイ,0
69,1012701018748,新規,0,2025-03-19,2025-03-19,ＴＭＮ商事株式会社,,株式会社,東京都,小平市,鈴木町２丁目１５６番地の４４,,13,211,1870011,,,,,,,2025-03-19,1,,,,,ティーエムエヌショウジ,0
72,1013301053961,新規,0,2025-03-19,2025-03-19,株式会社Ｍｉｎｔ,,株式会社,東京都,豊島区,南池袋２丁目４５番２－３６０５号,,13,116,1710022,,,,,,,2025-03-19,1,,,,,ミント,0
87,1021001084748,新規,0,2025-03-19,2025-03-19,株式会社Ｐｉｎｏｖｉｅｎｔｏ,,株式会社,神奈川県,平塚市,松風町１１番１５号,,14,203,2540812,,,,,,,2025-03-19,1,,,,,ピノヴィエント,0
89,1021003015750,新規,0,2025-03-19,2025-03-19,合同会社藤井商事,,合同会社,神奈川県,藤沢市,湘南台２丁目７番地の１１若林ビル３階３０１号室,,14,205,2520804,,,,,,,2025-03-19,1,,,,,フジイショウジ,0
90,1021003015759,新規,0,2025-03-19,2025-03-19,合同会社ウルトラ海賊団,,合同会社,神奈川県,相模原市緑区,上九沢４番地７８ディアスプラザＣ１０２,,14,151,2520136,,,,,,,2025-03-19,1,,,,,,0
98,1030001165482,新規,0,2025-03-19,2025-03-19,ＥＣ‐ｍａｔｅ株式会社,,株式会社,埼玉県,深谷市,中瀬７７１番地２,,11,218,3660001,,,,,,,2025-03-19,1,,,,,イーシーメイト,0
108,1040001137745,新規,0,2025-03-19,2025-03-19,株式会社ＯＮＥ,,株式会社,千葉県,千葉市稲毛区,小深町５３５－２,,12,103,2630003,,,,,,,2025-03-19,1,,,,,ワン,0
109,1040001137885,新規,0,2025-03-19,2025-03-19,株式会社オーエス総建,,株式会社,千葉県,八街市,八街ほ２０３番地２５,,12,230,2891115,,,,,,,2025-03-19,1,,,,,オーエスソウケン,0
110,1040001137893,新規,0,2025-03-19,2025-03-19,株式会社ＹＢ,,株式会社,千葉県,八街市,八街ほ１７７番地４６,,12,230,2891115,,,,,,,2025-03-19,1,,,,,ワイビー,0
113,1040003027119,新規,0,2025-03-19,2025-03-19,リバティコネクト合同会社,,合同会社,千葉県,松戸市,小金原９丁目１０番地の２７,,12,207,2700021,,,,,,,2025-03-19,1,,,,,リバティコネクト,0
115,1060001038033,新規,0,2025-03-19,2025-03-19,株式会社福田構造解析事務所,,株式会社,栃木県,日光市,板橋３２９３番地２３２,,09,206,3211102,,,,,,,2025-03-19,1,,,,,フクダコウゾウカイセキジムショ,0
118,1080001026812,新規,0,2025-03-19,2025-03-19,株式会社ｓｕｎｎｙ　ｐｒｏｍｏｔｉｏｎ,,株式会社,静岡県,静岡市駿河区,東新田１丁目８番１４号,,22,102,4210112,,,,,,,2025-03-19,1,,,,,サニープロモーション,0
123,1090001019187,新規,0,2025-03-19,2025-03-19,株式会社ＢＡＣＣＩ,,株式会社,山梨県,大月市,大月町真木４１３８－２,,19,206,4010016,,,,,,,2025-03-19,1,,,,,バッチ,0
126,1110001039125,新規,0,2025-03-19,2025-03-19,小松金属株式会社,,株式会社,新潟県,五泉市,木越１８３６番地,,15,218,9591834,,,,,,,2025-03-19,1,,,,,コマツキンゾク,0
128,1110003005694,新規,0,2025-03-19,2025-03-19,坂上ぶどう園合同会社,,合同会社,新潟県,北蒲原郡聖籠町,大字二本松１９４６番地,,15,307,9570123,,,,,,,2025-03-19,1,,,,,サカウエブドウエン,0
129,1110003005703,新規,0,2025-03-19,2025-03-19,合同会社イノセンス,,合同会社,新潟県,長岡市,下柳２丁目１０番１５号,,15,202,9402013,,,,,,,2025-03-19,1,,,,,イノセンス,0
137,1120001273747,新規,0,2025-03-19,2025-03-19,株式会社ＫＭ,,株式会社,大阪府,大阪市中央区,南本町２丁目５番１３号,,27,128,5410054,,,,,,,2025-03-19,1,,,,,ケーエム,0
138,1120001273805,新規,0,2025-03-19,2025-03-19,株式会社プラスネット,,株式会社,大阪府,大阪市東住吉区,桑津３丁目４番２７号,,27,121,5460041,,,,,,,2025-03-19,1,,,,,プラスネット,0
139,1120001273904,新規,0,2025-03-19,2025-03-19,株式会社ＷＩＴＨ,,株式会社,大阪府,大阪市浪速区,大国１丁目５番４－５０１号,,27,111,5560014,,,,,,,2025-03-19,1,,,,,ウィズ,0
140,1120003028926,新規,0,2025-03-19,2025-03-19,合同会社大阪デンタルヘルスセンター,,合同会社,大阪府,大阪市東淀川区,小松１丁目１１番１号,,27,114,5330004,,,,,,,2025-03-19,1,,,,,オオサカデンタルヘルスセンター,0
141,1120005024849,新規,0,2025-03-19,2025-03-19,一般社団法人きらな,,その他の設立登記法人,大阪府,大阪市中央区,南船場１丁目１１番２３号３０１,,27,128,5420081,,,,,,,2025-03-19,1,,,,,キラナ,0
144,1120101071290,新規,0,2025-03-19,2025-03-19,株式会社ＨＵＧ,,株式会社,大阪府,堺市北区,中長尾町４丁５番１０号２,,27,146,5918044,,,,,,,2025-03-19,1,,,,,ハグ,0
155,1140001137784,新規,0,2025-03-19,2025-03-19,ＳＥＥ　ＲＡＤＩＡＬ株式会社,,株式会社,兵庫県,神戸市中央区,中山手通４丁目１１番２０号,,28,110,6500004,,,,,,,2025-03-19,1,,,,,シーラディアル,0
156,1140001137826,新規,0,2025-03-19,2025-03-19,Ｍｏｒｎｉｎｇ　Ｃｒｅｓｔ株式会社,,株式会社,兵庫県,神戸市北区,柏尾台８番地の８,,28,109,6511255,,,,,,,2025-03-19,1,,,,,モーニングクレスト,0
169,1180001165988,新規,0,2025-03-19,2025-03-19,株式会社かがやき,,株式会社,愛知県,名古屋市千種区,春岡１丁目５番５号４０１,,23,101,4640848,,,,,,,2025-03-19,1,,,,,カガヤキ,0
178,1180005020990,新規,0,2025-03-19,2025-03-19,特定非営利活動法人名古屋つばめ塾,,その他の設立登記法人,愛知県,名古屋市瑞穂区,田辺通６丁目５－２,,23,108,4670027,,,,,,,2025-03-19,1,,,,,ナゴヤツバメジュク,0
186,1200003006741,新規,0,2025-03-19,2025-03-19,プリクション岐阜合同会社,,合同会社,岐阜県,羽島郡岐南町,三宅３丁目１９４番地,,21,302,5016002,,,,,,,2025-03-19,1,,,,,プリクションギフ,0
188,1220003003976,新規,0,2025-03-19,2025-03-19,合同会社輝宝,,合同会社,石川県,白山市,相川町２０４番地,,17,210,9240027,,,,,,,2025-03-19,1,,,,,コウホウ,0
192,1240001064663,新規,0,2025-03-19,2025-03-19,株式会社ＯＤＫ,,株式会社,広島県,広島市中区,宝町１０番５号光山ビル２０１,,34,101,7300044,,,,,,,2025-03-19,1,,,,,オーディーケー,0
194,1240003007117,新規,0,2025-03-19,2025-03-19,ＥＮＴＲＡＮＣＥ合同会社,,合同会社,広島県,尾道市,土堂２丁目３－２７,,34,205,7220035,,,,,,,2025-03-19,1,,,,,エントランス,0
201,1290001109190,新規,0,2025-03-19,2025-03-19,株式会社アジサムライ,,株式会社,福岡県,福岡市中央区,舞鶴３丁目１番８号本町ビル,,40,133,8100073,,,,,,,2025-03-19,1,,,,,アジサムライ,0
202,1290001109199,新規,0,2025-03-19,2025-03-19,九龍通商株式会社,,株式会社,福岡県,八女郡広川町,大字新代１４２８番地１３,,40,544,8340115,,,,,,,2025-03-19,1,,,,,キュウリュウツウショウ,0
203,1290001109315,新規,0,2025-03-19,2025-03-19,駿泰建設株式会社,,株式会社,福岡県,糸島市,泊１２９３番地１,,40,230,8191111,,,,,,,2025-03-19,1,,,,,シュンタイ,0
204,1290001109380,新規,0,2025-03-19,2025-03-19,株式会社オンボーディング,,株式会社,福岡県,小郡市,美鈴が丘２丁目１番地１,,40,216,8380101,,,,,,,2025-03-19,1,,,,,オンボーディング,0
205,1290803005001,新規,0,2025-03-19,2025-03-19,合同会社築,,合同会社,福岡県,京都郡みやこ町,節丸２９５番地,,40,625,8240114,,,,,,,2025-03-19,1,,,,,キズキ,0
206,1330001032982,新規,0,2025-03-19,2025-03-19,株式会社ｕｍｕ．,,株式会社,熊本県,玉名市,立願寺７７４番地１９－１０１号,,43,206,8650061,,,,,,,2025-03-19,1,,,,,ウム,0
207,1330003010904,新規,0,2025-03-19,2025-03-19,ｗｅｓｔ合同会社,,合同会社,熊本県,宇城市,小川町新田出４４４－１,,43,213,8690636,,,,,,,2025-03-19,1,,,,,ウエスト,0
209,1370001052366,新規,0,2025-03-19,2025-03-19,株式会社ヤマロク仙台東,,株式会社,宮城県,仙台市宮城野区,福田町南２丁目４番３２号１０４,,04,102,9830025,,,,,,,2025-03-19,1,,,,,ヤマロクセンダイヒガシ,0
210,1370005010923,新規,0,2025-03-19,2025-03-19,一般社団法人子どもカウンセリング基金,,その他の設立登記法人,宮城県,仙台市青葉区,中央２丁目２番１０号仙都会館ビル５階,,04,101,9800021,,,,,,,2025-03-19,1,,,,,コドモカウンセリングキキン,0
213,1380003005981,新規,0,2025-03-19,2025-03-19,合同会社いわき第一ビル,,合同会社,福島県,いわき市,平字小太郎町４番地の１いわき第一ビル,,07,204,9708026,,,,,,,2025-03-19,1,,,,,イワキダイイチビル,0
214,1380005012927,新規,0,2025-03-19,2025-03-19,一般社団法人会津柳津観光物産協会,,その他の設立登記法人,福島県,河沼郡柳津町,大字柳津字寺家町甲１７６番地３,,07,423,9697201,,,,,,,2025-03-19,1,,,,,アイヅヤナイヅカンコウブッサンキョウカイ,0
222,1430001093949,新規,0,2025-03-19,2025-03-19,株式会社Ｓｅｌｅｃｔｙｒ,,株式会社,北海道,札幌市中央区,南九条西１２丁目２番２－１０２号,,01,101,0640809,,,,,,,2025-03-19,1,,,,,セレクティア,0
223,1430003017419,新規,0,2025-03-19,2025-03-19,合同会社ジャパンテック,,合同会社,北海道,北広島市,大曲中央３丁目２番地１３,,01,234,0611271,,,,,,,2025-03-19,1,,,,,ジャパンテック,0
225,1450001014564,新規,0,2025-03-19,2025-03-19,株式会社Ｇｒａｔｅ　Ｉｎｃ,,株式会社,北海道,上川郡下川町,共栄町６７番地,,01,468,0981203,,,,,,,2025-03-19,1,,,,,グレートインク,0
244,2010001253288,新規,0,2025-03-19,2025-03-19,株式会社ＭＯＭＯ,,株式会社,東京都,中央区,銀座７丁目２番１１号,,13,102,1040061,,,,,,,2025-03-19,1,,,,,モモ,0
245,2010001253296,新規,0,2025-03-19,2025-03-19,ＩＨＢ株式会社,,株式会社,東京都,千代田区,神田小川町３丁目７－１６報道ビル３階,,13,101,1010052,,,,,,,2025-03-19,1,,,,,アイエイチビー,0
246,2010001253305,新規,0,2025-03-19,2025-03-19,ＴＨＩ株式会社,,株式会社,東京都,中央区,銀座１丁目１２－４Ｎ＆ＥＢＬＤ．７階,,13,102,1040061,,,,,,,2025-03-19,1,,,,,ティーエイチアイ,0
249,2010003046756,新規,0,2025-03-19,2025-03-19,Ｓｙｎｏｅｌｅｃ　Ｔｅｃｈｎｏｌｏｇｙ　Ｊａｐａｎ合同会社,,合同会社,東京都,千代田区,丸の内１丁目１１番１号パシフィックセンチュリープレイス丸の内８階,,13,101,1000005,,,,,,,2025-03-19,1,,,,,シノエレクテクノロジージャパン,0
250,2010003046797,新規,0,2025-03-19,2025-03-19,ステークホルダー２合同会社,,合同会社,東京都,中央区,日本橋本石町４丁目２番１６号,,13,102,1030021,,,,,,,2025-03-19,1,,,,,ステークホルダーツー,0
251,2010003046806,新規,0,2025-03-19,2025-03-19,アキバ技研合同会社,,合同会社,東京都,千代田区,神田須田町１丁目７番８号ＶＯＲＴ秋葉原ＩＶ２Ｆ,00138392,13,101,1010041,,,,,,,2025-03-19,1,,,,,アキバギケン,0
252,2010003046830,新規,0,2025-03-19,2025-03-19,ＹＰ合同会社,,合同会社,東京都,中央区,銀座１丁目１２番４号Ｎ＆ＥＢＬＤ．６Ｆ,,13,102,1040061,,,,,,,2025-03-19,1,,,,,ワイピー,0
253,2010003046855,新規,0,2025-03-19,2025-03-19,合同会社メタプロモーション,,合同会社,東京都,中央区,銀座１丁目１２番４号Ｎ＆ＥＢＬＤ．６Ｆ,,13,102,1040061,,,,,,,2025-03-19,1,,,,,メタプロモーション,0
255,2010005039782,新規,0,2025-03-19,2025-03-19,名古屋ファルコン一般社団法人,,その他の設立登記法人,東京都,千代田区,霞が関３丁目２番５号,,13,101,1000013,,,,,,,2025-03-19,1,,,,,ナゴヤファルコン,0
259,2010401188943,新規,0,2025-03-19,2025-03-19,株式会社愛宕プロパティ,,株式会社,東京都,港区,新橋４丁目３１番３号,,13,103,1050004,,,,,,,2025-03-19,1,,,,,アタゴプロパティ,0
263,2010403034682,新規,0,2025-03-19,2025-03-19,合同会社ＭＰＲＪソーラー,,合同会社,東京都,港区,虎ノ門１丁目２番８号リニューアブル・ジャパン株式会社内,,13,103,1050001,,,,,,,2025-03-19,1,,,,,エムピーアールジェイソーラー,0
272,2010701047428,新規,0,2025-03-19,2025-03-19,株式会社ＬＥＩＭＡＹ,,株式会社,東京都,品川区,荏原２丁目３番１０－２０６号,,13,109,1420063,,,,,,,2025-03-19,1,,,,,レイメイ,0
274,2010703007611,新規,0,2025-03-19,2025-03-19,合同会社スクイーズ,,合同会社,東京都,品川区,上大崎３丁目９番９号ｎｏｚｏｍｉｏｐｒｅｍｉｅｒ目黒４０３,,13,109,1410021,,,,,,,2025-03-19,1,,,,,スクイーズ,0
275,2010901057020,新規,0,2025-03-19,2025-03-19,ＳＮＰ生命工学株式会社,,株式会社,東京都,世田谷区,世田谷１丁目４１番２号,,13,112,1540017,,,,,,,2025-03-19,1,,,,,スニップセイメイコウガク,0
276,2010901057045,新規,0,2025-03-19,2025-03-19,株式会社Ｌｕｌｕｓｅｎａ,,株式会社,東京都,世田谷区,三軒茶屋１丁目３９―５メゾンデスタチュ４０２,,13,112,1540024,,,,,,,2025-03-19,1,,,,,ルルセナ,0
285,2011003021154,新規,0,2025-03-19,2025-03-19,Ｇｒｅｅｎ　Ｆｏｒｅｓｔ恵比寿合同会社,,合同会社,東京都,渋谷区,恵比寿西２丁目４番８号ウィンド恵比寿ビル８Ｆ,,13,113,1500021,,,,,,,2025-03-19,1,,,,,グリーンフォレストエビス,0
286,2011101110899,新規,0,2025-03-19,2025-03-19,ワセシン株式会社,,株式会社,東京都,新宿区,新小川町５番５号,,13,104,1620814,,,,,,,2025-03-19,1,,,,,ワセシン,0
287,2011101110998,新規,0,2025-03-19,2025-03-19,株式会社サンクスメイク,,株式会社,東京都,新宿区,北新宿４丁目１３番２号,,13,104,1690074,,,,,,,2025-03-19,1,,,,,サンクスメイク,0
288,2011101111022,新規,0,2025-03-19,2025-03-19,株式会社桃源院,,株式会社,東京都,新宿区,住吉町１－１０,,13,104,1620065,,,,,,,2025-03-19,1,,,,,トウゲンイン,0
289,2011103015659,新規,0,2025-03-19,2025-03-19,磯井俊昭合同会社,,合同会社,東京都,新宿区,南元町２０番地３ガーデンヒルズ四ツ谷迎賓の森３０４,,13,104,1600012,,,,,,,2025-03-19,1,,,,,イソイトシアキ,0
290,2011103015667,新規,0,2025-03-19,2025-03-19,合同会社渡辺事務所,,合同会社,東京都,新宿区,高田馬場４丁目４０番２－６０４号,,13,104,1690075,,,,,,,2025-03-19,1,,,,,ワタナベジムショ,0
294,2011603004640,新規,0,2025-03-19,2025-03-19,ＡＲＫ合同会社,,合同会社,東京都,練馬区,氷川台３丁目２４番２４－２０１号,,13,120,1790084,,,,,,,2025-03-19,1,,,,,エーアールケー,0
297,2012701018747,新規,0,2025-03-19,2025-03-19,株式会社ｏｚ,,株式会社,東京都,東久留米市,柳窪２丁目１４－１７,,13,222,2030044,,,,,,,2025-03-19,1,,,,,オズ,0
301,2013301053952,新規,0,2025-03-19,2025-03-19,株式会社ヘアリゾートトウキョー,,株式会社,東京都,豊島区,南池袋２丁目１７番９号ライヴス南池袋２Ｆ,,13,116,1710022,,,,,,,2025-03-19,1,,,,,ヘアリゾートトウキョー,0
309,2020001161977,新規,0,2025-03-19,2025-03-19,株式会社ヘルシーウェルシー,,株式会社,神奈川県,横浜市青葉区,新石川１丁目２９番地１５,,14,117,2250003,,,,,,,2025-03-19,1,,,,,ヘルシーウェルシー,0
318,2020005016748,新規,0,2025-03-19,2025-03-19,一般社団法人ｐｉｓｔａ　ｄｅ　ｓｕｅｎｏｓ,,その他の設立登記法人,神奈川県,横浜市神奈川区,菅田町１５０２番地６０,,14,102,2210864,,,,,,,2025-03-19,1,,,,,ピスタデスエニョス,0
324,2030001165515,新規,0,2025-03-19,2025-03-19,株式会社ＳＥＥＤＳ,,株式会社,埼玉県,南埼玉郡宮代町,本田５丁目１３－１０メゾン３番館２０６,,11,442,3450827,,,,,,,2025-03-19,1,,,,,シーズ,0
325,2030001165523,新規,0,2025-03-19,2025-03-19,株式会社ＰＬＵＳ　ＯＮＥ,,株式会社,埼玉県,さいたま市見沼区,大和田町２丁目１４１５－１,,11,104,3370053,,,,,,,2025-03-19,1,,,,,プラスワン,0
326,2030001165531,新規,0,2025-03-19,2025-03-19,南洋産業株式会社,,株式会社,埼玉県,川口市,芝２丁目１４番３０号１階,,11,203,3330866,,,,,,,2025-03-19,1,,,,,ナンヨウサンギョウ,0
330,2040001137843,新規,0,2025-03-19,2025-03-19,聖哲株式会社,,株式会社,千葉県,千葉市稲毛区,作草部町１０２５番地１３作草部コーポ３０１号室,,12,103,2630014,,,,,,,2025-03-19,1,,,,,セイテツ,0
331,2040001137884,新規,0,2025-03-19,2025-03-19,華彦株式会社,,株式会社,千葉県,市川市,八幡３丁目９－２３ポルカーレＩＩ１０１号室,00138393,12,203,2720021,,,,,,,2025-03-19,1,,,,,ハナヒコ,0
332,2040001137892,新規,0,2025-03-19,2025-03-19,株式会社アスペリア,,株式会社,千葉県,千葉市美浜区,中瀬１丁目３番地幕張テクノガーデンＢ棟５階,,12,106,2610023,,,,,,,2025-03-19,1,,,,,アスペリア,0
333,2040001137901,新規,0,2025-03-19,2025-03-19,株式会社ヨックス,,株式会社,千葉県,成田市,宗吾２丁目５０４－２６,,12,211,2860004,,,,,,,2025-03-19,1,,,,,ヨックス,0
334,2040001137926,新規,0,2025-03-19,2025-03-19,株式会社Ｔｒａｄｅ　Ｉｎｆｉｎｉｔｙ,,株式会社,千葉県,我孫子市,布佐酉町６２番地７サンヴィレッジ松島Ｅ１０１,,12,222,2701103,,,,,,,2025-03-19,1,,,,,トレードインフィニティ,0
335,2040003027092,新規,0,2025-03-19,2025-03-19,合同会社ＯＨＡＮＡ,,合同会社,千葉県,松戸市,下矢切２２番地４,,12,207,2710096,,,,,,,2025-03-19,1,,,,,オハナ,0
347,2110003005702,新規,0,2025-03-19,2025-03-19,合同会社テックリージョン,,合同会社,新潟県,新潟市中央区,南万代町３番４７号１ＣｏＣｏＰｌａｃｅ萬代１階,,15,103,9500902,,,,,,,2025-03-19,1,,,,,テックリージョン,0
361,2120001273663,新規,0,2025-03-19,2025-03-19,株式会社岩本興産,,株式会社,大阪府,門真市,上島町４４番１２号,,27,223,5710071,,,,,,,2025-03-19,1,,,,,イワモトコウサン,0
362,2120001273762,新規,0,2025-03-19,2025-03-19,株式会社トリビアル,,株式会社,大阪府,枚方市,岡本町７番１号,,27,210,5730031,,,,,,,2025-03-19,1,,,,,トリビアル,0
363,2120001273804,新規,0,2025-03-19,2025-03-19,株式会社ＹＵＫＯＳＴＹＬＥ,,株式会社,大阪府,大阪市中央区,東心斎橋１丁目１１－１３－６０２,,27,128,5420083,,,,,,,2025-03-19,1,,,,,ユウコスタイル,0
364,2120001273829,新規,0,2025-03-19,2025-03-19,株式会社はぴはぴ,,株式会社,大阪府,大阪市西区,北堀江１丁目１６番２５号ＹＳＳ３Ｆ,,27,106,5500014,,,,,,,2025-03-19,1,,,,,ハピハピ,0
366,2120003028867,新規,0,2025-03-19,2025-03-19,合同会社スタンドロード,,合同会社,大阪府,寝屋川市,豊野町２番２３号,,27,215,5720831,,,,,,,2025-03-19,1,,,,,スタンドロード,0
367,2120003028909,新規,0,2025-03-19,2025-03-19,合同会社さくらサービス,,合同会社,大阪府,大阪市北区,中崎２丁目３番１７－３０５号,,27,127,5300016,,,,,,,2025-03-19,1,,,,,サクラサービス,0
369,2120005024831,新規,0,2025-03-19,2025-03-19,一般社団法人ユウケイパートナーズ,,その他の設立登記法人,大阪府,大阪市西区,北堀江１丁目１９番１号八光心斎橋ＡＩＲビル８階,,27,106,5500014,,,,,,,2025-03-19,1,,,,,ユウケイパートナーズ,0
370,2120005024848,新規,0,2025-03-19,2025-03-19,ＪＷ有限責任監査法人,,その他の設立登記法人,大阪府,大阪市北区,堂島１丁目１番５号,,27,127,5300003,,,,,,,2025-03-19,1,,,,,ジェイダブリュー,0
372,2120901050609,新規,0,2025-03-19,2025-03-19,株式会社誠屋商事,,株式会社,大阪府,池田市,石橋１丁目１５番１０号,,27,204,5630032,,,,,,,2025-03-19,1,,,,,マコトヤショウジ,0
373,2120903005585,新規,0,2025-03-19,2025-03-19,合同会社Ｂｅｒｓａｍａ‐ｓａｍａ,,合同会社,大阪府,池田市,緑丘２丁目１アルビス緑丘１０７－１０３,,27,204,5630026,,,,,,,2025-03-19,1,,,,,ベルサマサマ,0
374,2120905006706,新規,0,2025-03-19,2025-03-19,一般社団法人非認知能力検定協会,,その他の設立登記法人,大阪府,吹田市,江坂町１丁目２３番３８号,,27,205,5640063,,,,,,,2025-03-19,1,,,,,ヒニンチノウリョクケンテイキョウカイ,0
375,2122001038988,新規,0,2025-03-19,2025-03-19,株式会社匠電業,,株式会社,大阪府,八尾市,久宝寺２丁目４番５９－２０５号,,27,212,5810072,,,,,,,2025-03-19,1,,,,,タクミデンギョウ,0
380,2130001079242,新規,0,2025-03-19,2025-03-19,株式会社松島,,株式会社,京都府,京都市中京区,木屋町通三条上る上大阪町５１５番地ＭＩＹＵＫＩビル５Ｆ,,26,104,6048001,,,,,,,2025-03-19,1,,,,,マツシマ,0
381,2130003010295,新規,0,2025-03-19,2025-03-19,合同会社ＳＯＵ　ＮＡＴＵＲＥ,,合同会社,京都府,京都市右京区,嵯峨大覚寺門前井頭町１２－２,,26,108,6168416,,,,,,,2025-03-19,1,,,,,ソウネイチャー,0
383,2140001137775,新規,0,2025-03-19,2025-03-19,株式会社オークモント,,株式会社,兵庫県,神戸市灘区,鶴甲３丁目１２－４０－４０４,,28,102,6570011,,,,,,,2025-03-19,1,,,,,オークモント,0
384,2140001137817,新規,0,2025-03-19,2025-03-19,株式会社岸本牧場,,株式会社,兵庫県,宍粟市,波賀町道谷１３７番地３,,28,227,6714202,,,,,,,2025-03-19,1,,,,,キシモトボクジョウ,0
385,2140003021787,新規,0,2025-03-19,2025-03-19,ＶＥＲＤＯＲＡ合同会社,,合同会社,兵庫県,姫路市,南条２丁目３９番地第一平成ビル１階,,28,201,6700952,,,,,,,2025-03-19,1,,,,,ヴェルドラ,0
386,2140005027403,新規,0,2025-03-19,2025-03-19,ＮＰＯ法人伊丹日本語学習支援教室,,その他の設立登記法人,兵庫県,伊丹市,安堂寺町３丁目１２５番地,,28,207,6640864,,,,,,,2025-03-19,1,,,,,イタミニホンゴガクシュウシエンキョウシツ,0
396,2180001165987,新規,0,2025-03-19,2025-03-19,株式会社ＲＥＡＬ　Ｋ＆Ａ,,株式会社,愛知県,名古屋市昭和区,桜山町４丁目７０番地の２１,,23,107,4660044,,,,,,,2025-03-19,1,,,,,リアルケーアンドエー,0
403,2200003006740,新規,0,2025-03-19,2025-03-19,和心屋合同会社,,合同会社,岐阜県,大垣市,荒尾町３９０番地８,,21,202,5030034,,,,,,,2025-03-19,1,,,,,ワゴコロヤ,0
407,2220001026557,新規,0,2025-03-19,2025-03-19,株式会社協龍,,株式会社,石川県,珠洲市,上戸町北方２７字５１番地９,,17,205,9271215,,,,,,,2025-03-19,1,,,,,キョウリュウ,0
411,2240003007116,新規,0,2025-03-19,2025-03-19,合同会社みすずがおか不動産,,合同会社,広島県,広島市佐伯区,美鈴が丘南４丁目１１－１４,,34,108,7315112,,,,,,,2025-03-19,1,,,,,ミスズガオカフドウサン,0
418,2290001109215,新規,0,2025-03-19,2025-03-19,株式会社１０１０ｃｒｅａｔｅ,,株式会社,福岡県,福岡市早良区,荒江３丁目３６番１号,,40,137,8140021,,,,,,,2025-03-19,1,,,,,イチマルイチマルクリエイト,0
422,2290003016509,新規,0,2025-03-19,2025-03-19,合同会社ｎｅｘｙ,,合同会社,福岡県,福岡市博多区,博多駅前１丁目２３－２パークフロント博多駅前１－５Ｆ－Ｂ,,40,132,8120011,,,,,,,2025-03-19,1,,,,,ネクシー,0
423,2290003016533,新規,0,2025-03-19,2025-03-19,合同会社はっぴー,,合同会社,福岡県,糟屋郡久山町,大字久原４２５２番地,,40,348,8112501,,,,,,,2025-03-19,1,,,,,ハッピー,0
424,2290003016541,新規,0,2025-03-19,2025-03-19,Ｌｉｒａ　Ｍｕｓｅ合同会社,,合同会社,福岡県,福岡市博多区,博多駅前１丁目２３番２号ＰａｒｋＦｒｏｎｔ博多駅前１丁目５Ｆ－Ｂ,,40,132,8120011,,,,,,,2025-03-19,1,,,,,リラミューズ,0
425,2290003016558,新規,0,2025-03-19,2025-03-19,エディトーン合同会社,,合同会社,福岡県,福岡市博多区,博多駅前１丁目２３－２ＰａｒｋＦｒｏｎｔ博多駅前１丁目５Ｆ－Ｂ,,40,132,8120011,,,,,,,2025-03-19,1,,,,,エディトーン,0
430,2320003004600,新規,0,2025-03-19,2025-03-19,ＡＣＴＡ合同会社,,合同会社,大分県,竹田市,大字会々５０７９番地１,,44,208,8780011,,,,,,,2025-03-19,1,,,,,アクタ,0
437,2350003004878,新規,0,2025-03-19,2025-03-19,合同会社ＣＯＲＥ　ＴＥＣ,,合同会社,宮崎県,宮崎市,大塚町大迫北平４０９３番地２４,,45,201,8800951,,,,,,,2025-03-19,1,,,,,コアテック,0
443,2370001052373,新規,0,2025-03-19,2025-03-19,株式会社マック,,株式会社,宮城県,仙台市太白区,中田６丁目２４番３号,,04,104,9811104,,,,,,,2025-03-19,1,,,,,マック,0
458,2430001093849,新規,0,2025-03-19,2025-03-19,株式会社ひらじん,,株式会社,北海道,札幌市中央区,南三条西６丁目３番３号ジャラン狸小路６０３,,01,101,0600063,,,,,,,2025-03-19,1,,,,,ヒラジン,0
460,2430003017418,新規,0,2025-03-19,2025-03-19,合同会社蓮弥,,合同会社,北海道,札幌市白石区,本通３丁目南６番２１号ギルド６－２号,,01,104,0030026,,,,,,,2025-03-19,1,,,,,レンヤ,0
466,2490003001993,新規,0,2025-03-19,2025-03-19,合同会社エイト,,合同会社,高知県,高知市,鴨部１３３６番地アーネスト晴美台７０５,,39,201,7808050,,,,,,,2025-03-19,1,,,,,,0
471,3010001253254,新規,0,2025-03-19,2025-03-19,味わう株式会社,,株式会社,東京都,中央区,京橋１丁目１４－１０きょういち京橋骨董通りビル,,13,102,1040031,,,,,,,2025-03-19,1,,,,,アジワウ,0
472,3010001253287,新規,0,2025-03-19,2025-03-19,森みたいな株式会社,,株式会社,東京都,中央区,日本橋蛎殻町１丁目２１－６南雲ビル２Ｆ,,13,102,1030014,,,,,,,2025-03-19,1,,,,,モリミタイナ,0
473,3010001253312,新規,0,2025-03-19,2025-03-19,東維機械株式会社,,株式会社,東京都,中央区,晴海３丁目１０番１号Ｄａｉｗａ晴海ビル２Ｆ,,13,102,1040053,,,,,,,2025-03-19,1,,,,,トウイキカイ,0
474,3010001253320,新規,0,2025-03-19,2025-03-19,株式会社スムーズリンク,,株式会社,東京都,千代田区,外神田６丁目９番８－３０１号,,13,101,1010021,,,,,,,2025-03-19,1,,,,,スムーズリンク,0
478,3010003046796,新規,0,2025-03-19,2025-03-19,ＴＬＣもりみず小水力調査合同会社,,合同会社,東京都,中央区,京橋２丁目１２番６号ＡＯＪ税理士法人内,,13,102,1040031,,,,,,,2025-03-19,1,,,,,ティーエルシーモリミズショウスイリョクチョウサ,0
479,3010003046805,新規,0,2025-03-19,2025-03-19,合同会社インサイドパス,,合同会社,東京都,中央区,銀座１丁目１２－４Ｎ＆ＥＢＬＤ．７階,,13,102,1040061,,,,,,,2025-03-19,1,,,,,インサイドパス,0
481,3010005039773,新規,0,2025-03-19,2025-03-19,一般社団法人未来の電気,,その他の設立登記法人,東京都,中央区,日本橋横山町５－１３Ｍｉｄｏｒｉ．ｓｏＢａｋｕｒｏｙｏｋｏｙａｍａ,,13,102,1030003,,,,,,,2025-03-19,1,,,,,ミライノデンキ,0
485,3010401188851,新規,0,2025-03-19,2025-03-19,Ａｓｃｅｎｓｉｏｎ株式会社,,株式会社,東京都,港区,南青山３丁目１番３６号青山丸竹ビル６Ｆ,,13,103,1070062,,,,,,,2025-03-19,1,,,,,アセンション,0
487,3010403034616,新規,0,2025-03-19,2025-03-19,合同会社オフィスエムアンド,,合同会社,東京都,港区,新橋４丁目１４番１新橋ＡＵＮＢＬＤＧ４階,,13,103,1050004,,,,,,,2025-03-19,1,,,,,オフィスエムアンド,0
488,3010403034640,新規,0,2025-03-19,2025-03-19,Ｃｒｅａブリッジ合同会社,,合同会社,東京都,港区,赤坂９丁目７番１号,,13,103,1070052,,,,,,,2025-03-19,1,,,,,クレアブリッジ,0
490,3010601066980,新規,0,2025-03-19,2025-03-19,エデュケア・マネジメント株式会社,,株式会社,東京都,江東区,大島６丁目２２番６－３０７号,,13,108,1360072,,,,,,,2025-03-19,1,,,,,エデュケアマネジメント,0
491,3010601066989,新規,0,2025-03-19,2025-03-19,豊穂農業株式会社,,株式会社,東京都,墨田区,錦糸３丁目５番５号小林ビル１階,,13,107,1300013,,,,,,,2025-03-19,1,,,,,トヨホノウギョウ,0
494,3010701047443,新規,0,2025-03-19,2025-03-19,株式会社福永テクノ,,株式会社,東京都,品川区,西大井２丁目１０番２２号,,13,109,1400015,,,,,,,2025-03-19,1,,,,,フクナガテクノ,0
509,3011101110997,新規,0,2025-03-19,2025-03-19,株式会社Ｃａｎｖｉ,,株式会社,東京都,新宿区,西新宿５丁目８－２惠徳ビル,,13,104,1600023,,,,,,,2025-03-19,1,,,,,キャンビ,0
513,3011401026919,新規,0,2025-03-19,2025-03-19,ＳＡＫＵＲＡ株式会社,,株式会社,東京都,板橋区,仲宿６３番地７号ＯＥ・Ｏｆｆｉｃｅ・Ｂｌｄｇ．２０８号,,13,119,1730005,,,,,,,2025-03-19,1,,,,,サクラ,0
515,3011701028152,新規,0,2025-03-19,2025-03-19,ＡＩ　Ｃｒｅａｔｉｖｅ　Ｌａｂ株式会社,,株式会社,東京都,江戸川区,中葛西５丁目４１番５－７０１号アリエージュアキヤ,,13,123,1340083,,,,,,,2025-03-19,1,,,,,エーアイクリエイティブラボ,0
517,3011801045799,新規,0,2025-03-19,2025-03-19,株式会社ＷＩＴＨ　ＭＥ,,株式会社,東京都,足立区,伊興本町１丁目１４番５号,,13,121,1210807,,,,,,,2025-03-19,1,,,,,ウィズミー,0
520,3012801023836,新規,0,2025-03-19,2025-03-19,株式会社ＳｅｒｖＥｄｇｅ,,株式会社,東京都,日野市,東平山２丁目２６番地の２,,13,212,1910054,,,,,,,2025-03-19,1,,,,,サーブエッジ,0
522,3013301053951,新規,0,2025-03-19,2025-03-19,株式会社ＴＷ,,株式会社,東京都,豊島区,池袋２丁目２３番３号橘ビル１階,,13,116,1710014,,,,,,,2025-03-19,1,,,,,ティーダブリュー,0
523,3013301053968,新規,0,2025-03-19,2025-03-19,Ｈａｒｍｏｎｙ　Ｈｏｕｓｅ株式会社,,株式会社,東京都,豊島区,巣鴨１丁目２９番１０号ＴＫビル２階,,13,116,1700002,,,,,,,2025-03-19,1,,,,,ハーモニーハウス,0
524,3013303007583,新規,0,2025-03-19,2025-03-19,ＥＡｒｔｈ合同会社,,合同会社,東京都,豊島区,西巣鴨１丁目１４番３－３０５号,,13,116,1700001,,,,,,,2025-03-19,1,,,,,アース,0
538,3020003028026,新規,0,2025-03-19,2025-03-19,合同会社さねよし,,合同会社,神奈川県,横浜市西区,浅間町１丁目４番３号ウィザードビル４０２,,14,103,2200072,,,,,,,2025-03-19,1,,,,,サネヨシ,0
539,3020005016730,新規,0,2025-03-19,2025-03-19,アジア建設交流協同組合,,その他の設立登記法人,神奈川県,川崎市高津区,千歳新町１５－５デタケビル１０６,,14,134,2130000,,,,,,,2025-03-19,1,,,,,アジアケンセツコウリュウ,0
550,3030001165480,新規,0,2025-03-19,2025-03-19,株式会社オーラム,,株式会社,埼玉県,春日部市,立野１４１番地１,,11,214,3440134,,,,,,,2025-03-19,1,,,,,オーラム,0
551,3030005022083,新規,0,2025-03-19,2025-03-19,医療法人社団源穂会,,その他の設立登記法人,埼玉県,草加市,高砂２丁目７番１号アコス草加南館２階,,11,221,3400015,,,,,,,2025-03-19,1,,,,,ゲンホカイ,0
555,3040001137891,新規,0,2025-03-19,2025-03-19,株式会社石栗商事,,株式会社,千葉県,市川市,高谷２丁目３番４－５１３号,,12,203,2720013,,,,,,,2025-03-19,1,,,,,イシグリショウジ,0
556,3040001137933,新規,0,2025-03-19,2025-03-19,株式会社びりじあん,,株式会社,千葉県,木更津市,牛込１０２０番地,,12,206,2920001,,,,,,,2025-03-19,1,,,,,ビリジアン,0
560,3040003027109,新規,0,2025-03-19,2025-03-19,合同会社Ｓ２‐Ｇｒａｖｉｔｙ,,合同会社,千葉県,香取郡東庄町,笹川い４７１４－２７２,,12,349,2890601,,,,,,,2025-03-19,1,,,,,エスツーグラビティー,0
561,3040005022693,新規,0,2025-03-19,2025-03-19,ＮＰＯ法人キャンプファイヤー屋,,その他の設立登記法人,千葉県,木更津市,清見台南２丁目１５番６号,,12,206,2920042,,,,,,,2025-03-19,1,,,,,キャンプファイヤーヤ,0
570,3080103003278,新規,0,2025-03-19,2025-03-19,日本アップリンク合同会社,,合同会社,静岡県,伊東市,八幡野１１０５番地の８５－２０２,,22,208,4130232,,,,,,,2025-03-19,1,,,,,ニホンアップリンク,0
571,3080401027805,新規,0,2025-03-19,2025-03-19,ＮＥＸＴ　ＢＡＳＥ株式会社,,株式会社,静岡県,浜松市中央区,有玉南町１８６７番地の１,,22,138,4313122,,,,,,,2025-03-19,1,,,,,ネクストベース,0
572,3080401027813,新規,0,2025-03-19,2025-03-19,株式会社ここから,,株式会社,静岡県,袋井市,袋井３４６番地プライムビル１０２,,22,216,4370026,,,,,,,2025-03-19,1,,,,,ココカラ,0
575,3100001038407,新規,0,2025-03-19,2025-03-19,株式会社レボルム,,株式会社,長野県,松本市,大字島立１９５番地４,,20,202,3900852,,,,,,,2025-03-19,1,,,,,レボルム,0
576,3100003008044,新規,0,2025-03-19,2025-03-19,合同会社ＢＦＦ２４６,,合同会社,長野県,松本市,野溝木工１丁目９番２７号ラフィーネ松本南壱番館３０１,,20,202,3990005,,,,,,,2025-03-19,1,,,,,ビーエフエフニーヨンロク,0
587,3120001273662,新規,0,2025-03-19,2025-03-19,株式会社ＳＩＯＮ,,株式会社,大阪府,大阪市福島区,福島６丁目１番６号,,27,103,5530003,,,,,,,2025-03-19,1,,,,,シオン,0
588,3120001273712,新規,0,2025-03-19,2025-03-19,株式会社スリーアーク,,株式会社,大阪府,大阪市西区,南堀江３丁目７番１２号エムテック南堀江３０２号,,27,106,5500015,,,,,,,2025-03-19,1,,,,,スリーアーク,0
589,3120001273745,新規,0,2025-03-19,2025-03-19,株式会社ａｏ‐ａｒｃｈｉｔｅｃｔｓ,,株式会社,大阪府,大阪市生野区,田島１丁目１３番５号,,27,116,5440011,,,,,,,2025-03-19,1,,,,,アオアーキテクツ,0
590,3120001273761,新規,0,2025-03-19,2025-03-19,ニホント株式会社,,株式会社,大阪府,大阪市北区,梅田１丁目２番２号大阪駅前第２ビル１２－１２,,27,127,5300001,,,,,,,2025-03-19,1,,,,,ニホント,0
591,3120001273836,新規,0,2025-03-19,2025-03-19,瀛算株式会社,,株式会社,大阪府,大阪市城東区,関目５丁目１９番９号関目花博公館６０６Ｂ,,27,118,5360008,,,,,,,2025-03-19,1,,,,,エイサン,0
592,3120001273852,新規,0,2025-03-19,2025-03-19,株式会社大輝,,株式会社,大阪府,門真市,古川町７番１８－１０１号,,27,223,5710031,,,,,,,2025-03-19,1,,,,,ダイキ,0
593,3120001273877,新規,0,2025-03-19,2025-03-19,株式会社Ｎｅｏｖａｔｅ,,株式会社,大阪府,大阪市浪速区,日本橋５丁目６番２２－１０３号,,27,111,5560005,,,,,,,2025-03-19,1,,,,,ネオベイト,0
596,3120003028890,新規,0,2025-03-19,2025-03-19,ａｎｄ　Ｎａｌｍ．合同会社,,合同会社,大阪府,大阪市阿倍野区,西田辺町１丁目１３番３４号,,27,119,5450014,,,,,,,2025-03-19,1,,,,,アンドナルム,0
601,3120903005592,新規,0,2025-03-19,2025-03-19,サンエス・ケアポート合同会社,,合同会社,大阪府,高槻市,城南町２丁目２２番９号,,27,207,5690056,,,,,,,2025-03-19,1,,,,,サンエスケアポート,0
603,3122001038970,新規,0,2025-03-19,2025-03-19,株式会社Ｎ・Ａ・Ｃ,,株式会社,大阪府,東大阪市,菱屋西５丁目６番１９号,,27,227,5770807,,,,,,,2025-03-19,1,,,,,エヌエーシー,0
604,3122003003147,新規,0,2025-03-19,2025-03-19,合同会社ハイドランジア,,合同会社,大阪府,東大阪市,足代北１丁目８番１２号,,27,227,5770058,,,,,,,2025-03-19,1,,,,,ハイドランジア,0
616,3140001137824,新規,0,2025-03-19,2025-03-19,株式会社ＧＡＲＡＧＥ４２,,株式会社,兵庫県,神戸市垂水区,王居殿２丁目１０番１－１０８号,,28,108,6550883,,,,,,,2025-03-19,1,,,,,ガレージフォーティツー,0
619,3140003021811,新規,0,2025-03-19,2025-03-19,合同会社ＴｒｅＭｏｓｃｈｅｔｔｉｅｒｉ,,合同会社,兵庫県,伊丹市,北河原３丁目２番１７－５０５号,,28,207,6640837,,,,,,,2025-03-19,1,,,,,トレモスケッティエーリ,0
634,3180001165994,新規,0,2025-03-19,2025-03-19,株式会社ＨＯＮＮＥＴＥ,,株式会社,愛知県,豊明市,間米町鶴根１０７２番地１７５,,23,229,4701133,,,,,,,2025-03-19,1,,,,,オネット,0
641,3180003028167,新規,0,2025-03-19,2025-03-19,合同会社ＢＡＳＥ,,合同会社,愛知県,春日井市,森山田９８番地,,23,206,4860000,,,,,,,2025-03-19,1,,,,,ベース,0
646,3200001043537,新規,0,2025-03-19,2025-03-19,株式会社ＭＹ　Ｄｒｅａｍ,,株式会社,岐阜県,羽島市,竹鼻町丸の内４丁目１１１番地１（２１ウイングＩ、１０８号室）,00138396,21,209,5016244,,,,,,,2025-03-19,1,,,,,エムワイドリーム,0
647,3200001043553,新規,0,2025-03-19,2025-03-19,株式会社タクイ,,株式会社,岐阜県,岐阜市,長住町９丁目１１番地ＴＡＮＡＫＡビル９０１号室,,21,201,5008175,,,,,,,2025-03-19,1,,,,,タクイ,0
651,3240001064661,新規,0,2025-03-19,2025-03-19,株式会社どこでも,,株式会社,広島県,広島市中区,立町１番６号,,34,101,7300032,,,,,,,2025-03-19,1,,,,,ドコデモ,0
656,3290001109288,新規,0,2025-03-19,2025-03-19,株式会社ｓｏｉｌ,,株式会社,福岡県,福岡市博多区,博多駅前１丁目２３番２号ＰａｒｋＦｒｏｎｔ博多駅前１丁目５Ｆ－Ｂ,,40,132,8120011,,,,,,,2025-03-19,1,,,,,ソイル,0
657,3290001109338,新規,0,2025-03-19,2025-03-19,株式会社カノア,,株式会社,福岡県,福岡市南区,屋形原５丁目２番３７号,,40,134,8111351,,,,,,,2025-03-19,1,,,,,カノア,0
658,3290001109370,新規,0,2025-03-19,2025-03-19,株式会社ｌｉｏｓ,,株式会社,福岡県,福岡市城南区,鳥飼７丁目３４－７０８,,40,136,8140103,,,,,,,2025-03-19,1,,,,,リオス,0
659,3290001109379,新規,0,2025-03-19,2025-03-19,株式会社スタートラスト,,株式会社,福岡県,福岡市中央区,薬院２丁目１５番１０－３０２号,,40,133,8100022,,,,,,,2025-03-19,1,,,,,スタートラスト,0
660,3290001109387,新規,0,2025-03-19,2025-03-19,一産業株式会社,,株式会社,福岡県,福岡市早良区,城西１丁目５番２５号,,40,137,8140003,,,,,,,2025-03-19,1,,,,,ハジメサンギョウ,0
663,3290003016532,新規,0,2025-03-19,2025-03-19,大安合同会社,,合同会社,福岡県,柳川市,三橋町下百町１８番地１アオバビル２０３号室,,40,207,8320822,,,,,,,2025-03-19,1,,,,,ダイアン,0
664,3290003016557,新規,0,2025-03-19,2025-03-19,合同会社スズネコ,,合同会社,福岡県,福岡市博多区,博多駅前１丁目２３番２号ＰａｒｋＦｒｏｎｔ博多駅前１丁目５Ｆ－Ｂ,,40,132,8120011,,,,,,,2025-03-19,1,,,,,スズネコ,0
665,3290801031369,新規,0,2025-03-19,2025-03-19,Ｅ‐Ｔｅｃ株式会社,,株式会社,福岡県,北九州市小倉北区,室町２丁目９番１－１７０２号,,40,106,8030812,,,,,,,2025-03-19,1,,,,,イーテック,0
667,3300005007230,新規,0,2025-03-19,2025-03-19,一般社団法人Ａｃｔｉｖｅ　Ｌｉｎｋ‐Ｇｙｍｎａｓｔｉｃ　Ａｃａｄｅｍｙ‐,,その他の設立登記法人,佐賀県,佐賀市,諸富町大字諸富津１３２番地１３,,41,201,8402105,,,,,,,2025-03-19,1,,,,,アクティブリンクジムナスティックアカデミー,0
674,3330001032989,新規,0,2025-03-19,2025-03-19,泰嘉地産株式会社,,株式会社,熊本県,熊本市中央区,辛島町４番３５号ラ・シック辛島１０階１０１０号室,,43,101,8600804,,,,,,,2025-03-19,1,,,,,タイカチサン,0
675,3330003010902,新規,0,2025-03-19,2025-03-19,Ｐｏｎｏ　Ａｌｏｈａ合同会社,,合同会社,熊本県,八代市,妙見町２４０１番地２,,43,202,8660802,,,,,,,2025-03-19,1,,,,,ポノアロハ,0
690,3390001017927,新規,0,2025-03-19,2025-03-19,株式会社ビリーフトラスト,,株式会社,山形県,山形市,松波５丁目２番４３号,,06,201,9900023,,,,,,,2025-03-19,1,,,,,ビリーフトラスト,0
703,3430001093963,新規,0,2025-03-19,2025-03-19,千歳ステンレス株式会社,,株式会社,北海道,千歳市,上長都１２４番地１１,,01,224,0660077,,,,,,,2025-03-19,1,,,,,チトセステンレス,0
704,3430001093971,新規,0,2025-03-19,2025-03-19,株式会社卓球データ研究所,,株式会社,北海道,札幌市中央区,南五条西１５丁目２－３－５０３,,01,101,0640805,,,,,,,2025-03-19,1,,,,,タッキュウデータケンキュウジョ,0
710,3470003002836,新規,0,2025-03-19,2025-03-19,合同会社ＥＴＥＲＮＩＴＹ,,合同会社,香川県,善通寺市,上吉田町１丁目４－１１瀬川ビル２０１,,37,204,7650011,,,,,,,2025-03-19,1,,,,,エタニティ,0
716,3500003003459,新規,0,2025-03-19,2025-03-19,合同会社港南クリーン,,合同会社,愛媛県,伊予市,市場甲１０２１番地８,,38,210,7993122,,,,,,,2025-03-19,1,,,,,コウナンクリーン,0
723,4010001252809,新規,0,2025-03-19,2025-03-19,ハウスブル株式会社,,株式会社,東京都,中央区,日本橋人形町２丁目２６番１２－６０４号,,13,102,1030013,,,,,,,2025-03-19,1,,,,,ハウスブル,0
724,4010001253162,新規,0,2025-03-19,2025-03-19,株式会社クォンタム・テック,,株式会社,東京都,中央区,銀座１丁目２２番１１号,,13,102,1040061,,,,,,,2025-03-19,1,,,,,クォンタムテック,0
725,4010001253253,新規,0,2025-03-19,2025-03-19,株式会社クラウドテック,,株式会社,東京都,千代田区,神田司町２丁目１５番地５－１１０１,,13,101,1010048,,,,,,,2025-03-19,1,,,,,クラウドテック,0
726,4010001253303,新規,0,2025-03-19,2025-03-19,株式会社イデリオテクノ,,株式会社,東京都,中央区,銀座１丁目１２番４号Ｎ＆ＥＢＬＤ．６Ｆ,,13,102,1040061,,,,,,,2025-03-19,1,,,,,イデリオテクノ,0
727,4010001253369,新規,0,2025-03-19,2025-03-19,ＩＭＦＳ創蔵社株式会社,,株式会社,東京都,中央区,銀座８丁目１７番５号ＴＨＥＨＵＢ銀座ＯＣＴ,,13,102,1040061,,,,,,,2025-03-19,1,,,,,アイエムエフエスソウゾウシャ,0
728,4010001253427,新規,0,2025-03-19,2025-03-19,株式会社シーメイプルアルファ,,株式会社,東京都,中央区,八丁堀４丁目１１－７、５階,,13,102,1040032,,,,,,,2025-03-19,1,,,,,シーメイプルアルファ,0
732,4010005039780,新規,0,2025-03-19,2025-03-19,一般社団法人誠雲会,,その他の設立登記法人,東京都,中央区,日本橋２丁目１６番３号３ＦＢ号室,,13,102,1030027,,,,,,,2025-03-19,1,,,,,セイウンカイ,0
733,4010101016568,新規,0,2025-03-19,2025-03-19,Ｄｏｍｉｎａｎｔｅ株式会社,,株式会社,東京都,八王子市,絹ケ丘１丁目４４番２－１０３号,,13,201,1920912,,,,,,,2025-03-19,1,,,,,ドミナント,0
742,4010401188933,新規,0,2025-03-19,2025-03-19,株式会社ＢＡＬＬＡＲＩＮ,,株式会社,東京都,港区,芝１丁目４番１号芝コバヤシビル１階,,13,103,1050014,,,,,,,2025-03-19,1,,,,,バラリン,0
743,4010401188982,新規,0,2025-03-19,2025-03-19,ＵＺＺ株式会社,,株式会社,東京都,港区,北青山１丁目３－３三橋ビル３階,,13,103,1070061,,,,,,,2025-03-19,1,,,,,ウズ,0
744,4010401188999,新規,0,2025-03-19,2025-03-19,Ｓｅｎａｏ　Ｎｅｔｗｏｒｋｓ　Ｊａｐａｎ株式会社,,株式会社,東京都,港区,芝浦３丁目６番１４号１０階,,13,103,1080023,,,,,,,2025-03-19,1,,,,,セナオネットワークスジャパン,0
746,4010403034664,新規,0,2025-03-19,2025-03-19,合同会社レイアウト,,合同会社,東京都,港区,芝浦２丁目６番１６－１７０２号,,13,103,1080023,,,,,,,2025-03-19,1,,,,,レイアウト,0
747,4010501053830,新規,0,2025-03-19,2025-03-19,Ｊｉｎｎ　Ｍｕｓｉｃ株式会社,,株式会社,東京都,台東区,花川戸１丁目２番１０号コーポ早川９０１,,13,106,1110033,,,,,,,2025-03-19,1,,,,,ジンミュージック,0
750,4010601066988,新規,0,2025-03-19,2025-03-19,株式会社Ｓ,,株式会社,東京都,江東区,豊洲６丁目２番２９ー２００３号,,13,108,1350061,,,,,,,2025-03-19,1,,,,,エス,0
751,4010603011455,新規,0,2025-03-19,2025-03-19,チャージング・ブル合同会社,,合同会社,東京都,江東区,有明１丁目４番１１－９２９号,,13,108,1350063,,,,,,,2025-03-19,1,,,,,チャージングブル,0
752,4010605004432,新規,0,2025-03-19,2025-03-19,特定非営利活動法人江東ねこの会,,その他の設立登記法人,東京都,江東区,門前仲町２丁目４番９号青木ビル３階,,13,108,1350048,,,,,,,2025-03-19,1,,,,,コウトウネコノカイ,0
755,4010701047401,新規,0,2025-03-19,2025-03-19,株式会社ｌａｗｎ,,株式会社,東京都,品川区,大崎３丁目４番１４号,,13,109,1410032,,,,,,,2025-03-19,1,,,,,ローン,0
757,4010703007634,新規,0,2025-03-19,2025-03-19,エスリッチ合同会社,,合同会社,東京都,品川区,豊町６丁目１１番７号,,13,109,1420042,,,,,,,2025-03-19,1,,,,,エスリッチ,0
760,4010801035933,新規,0,2025-03-19,2025-03-19,シルシレンダ株式会社,,株式会社,東京都,大田区,西六郷３丁目２番１４－３１０号,,13,111,1440056,,,,,,,2025-03-19,1,,,,,シルシレンダ,0
769,4011001168029,新規,0,2025-03-19,2025-03-19,創一経営アドバイザリー事務所株式会社,,株式会社,東京都,渋谷区,恵比寿西１丁目２１－３グレイス代官山２０２号,,13,113,1500021,,,,,,,2025-03-19,1,,,,,ソウイチケイエイアドバイザリージムショ,0
778,4011101110947,新規,0,2025-03-19,2025-03-19,株式会社ＴＡＰＩ,,株式会社,東京都,新宿区,西新宿３丁目３番１３号西新宿水間ビル２Ｆ,,13,104,1600023,,,,,,,2025-03-19,1,,,,,タピ,0
779,4011101110996,新規,0,2025-03-19,2025-03-19,株式会社Ｓｔａｒｌｉｎｋ　Ｈｏｌｄｉｎｇｓ,,株式会社,東京都,新宿区,西新宿３丁目７－３０フロンティアグラン西新宿１０Ｆ,,13,104,1600023,,,,,,,2025-03-19,1,,,,,スターリンクホールディングス,0
781,4011103015665,新規,0,2025-03-19,2025-03-19,合同会社ｄｏｌｇｅ,,合同会社,東京都,新宿区,西新宿８丁目３－３４マンションながい３０５,,13,104,1600023,,,,,,,2025-03-19,1,,,,,ドルゲ,0
782,4011103015681,新規,0,2025-03-19,2025-03-19,Ｚｅｒｏ　Ｇｒａｖｉｔｙ合同会社,,合同会社,東京都,新宿区,歌舞伎町２丁目４５番５号４０６室,,13,104,1600021,,,,,,,2025-03-19,1,,,,,ゼログラビティ,0
786,4011603004639,新規,0,2025-03-19,2025-03-19,レディビートル合同会社,,合同会社,東京都,練馬区,西大泉３丁目１１番７号コートハウス西大泉２０１,,13,120,1780065,,,,,,,2025-03-19,1,,,,,レディビートル,0
791,4011801045823,新規,0,2025-03-19,2025-03-19,株式会社ＱＳＢ,,株式会社,東京都,足立区,千住元町３５番１－４１２号,,13,121,1200041,,,,,,,2025-03-19,1,,,,,キューエスビー,0
793,4012701018761,新規,0,2025-03-19,2025-03-19,なかま株式会社,,株式会社,東京都,西東京市,北町２丁目１２番６号,,13,229,2020003,,,,,,,2025-03-19,1,,,,,ナカマ,0
797,4013101009649,新規,0,2025-03-19,2025-03-19,株式会社Ｍ‐ＮＥＴ,,株式会社,東京都,青梅市,根ヶ布２丁目２３７番地の４１０,,13,205,1980004,,,,,,,2025-03-19,1,,,,,エムネット,0
799,4013301053967,新規,0,2025-03-19,2025-03-19,株式会社バロンデオロ,,株式会社,東京都,豊島区,目白１丁目３番１７－Ｃ３２３号,,13,116,1710031,,,,,,,2025-03-19,1,,,,,バロンデオロ,0
800,4013301053983,新規,0,2025-03-19,2025-03-19,株式会社ソーツ,,株式会社,東京都,豊島区,東池袋２丁目６２番８号ＢＩＧオフィスプラザ池袋１２０６,,13,116,1700013,,,,,,,2025-03-19,1,,,,,ソーツ,0
803,4013303007582,新規,0,2025-03-19,2025-03-19,ＬＩＮＫ合同会社,,合同会社,東京都,豊島区,南大塚２丁目４１番１０号河野ビル,,13,116,1700005,,,,,,,2025-03-19,1,,,,,リンク,0
818,4021003015748,新規,0,2025-03-19,2025-03-19,ＫＷＴ合同会社,,合同会社,神奈川県,相模原市南区,新戸２１０３番地３オークヒルズ相武台２０２,,14,153,2520326,,,,,,,2025-03-19,1,,,,,ケイダブルティー,0
819,4021003015756,新規,0,2025-03-19,2025-03-19,合同会社ＹＡ‐ＧＥＮ,,合同会社,神奈川県,鎌倉市,雪ノ下３丁目６番２８号,,14,204,2480005,,,,,,,2025-03-19,1,,,,,ヤゲン,0
825,4030001165348,新規,0,2025-03-19,2025-03-19,株式会社ＫＦＣ,,株式会社,埼玉県,新座市,畑中１丁目１１番３８号,,11,230,3520012,,,,,,,2025-03-19,1,,,,,ケイエフシー,0
826,4030001165513,新規,0,2025-03-19,2025-03-19,株式会社Ｇｌｏｂａｌ　Ｃｏｎｎｅｃｔ,,株式会社,埼玉県,さいたま市西区,大字指扇領辻１５０番地１９,00138391,11,101,3310076,,,,,,,2025-03-19,1,,,,,グローバルコネクト,0
833,4030005022058,新規,0,2025-03-19,2025-03-19,一般社団法人バイクロアワールド,,その他の設立登記法人,埼玉県,さいたま市浦和区,仲町２丁目１７番６号,,11,107,3300062,,,,,,,2025-03-19,1,,,,,バイクロアワールド,0
834,4030005022082,新規,0,2025-03-19,2025-03-19,農事組合法人デミタス,,その他の設立登記法人,埼玉県,比企郡滑川町,大字土塩６０９－１,,11,341,3550801,,,,,,,2025-03-19,1,,,,,デミタス,0
838,4040001137890,新規,0,2025-03-19,2025-03-19,株式会社オータムベース,,株式会社,千葉県,柏市,若柴１７８番地４柏の葉キャンパス１４８街区１Ｅ－３３０９,,12,217,2770871,,,,,,,2025-03-19,1,,,,,オータムベース,0
839,4040003026992,新規,0,2025-03-19,2025-03-19,合同会社セルインターナショナル,,合同会社,千葉県,富里市,七栄字南内野１９９番地１８１,,12,233,2860221,,,,,,,2025-03-19,1,,,,,セルインターナショナル,0
840,4040003027099,新規,0,2025-03-19,2025-03-19,武雄商事合同会社,,合同会社,千葉県,我孫子市,中峠１７９２番地の１（１号）テラスハウス小池Ａ,,12,222,2701121,,,,,,,2025-03-19,1,,,,,タケオショウジ,0
842,4040005022692,新規,0,2025-03-19,2025-03-19,一般社団法人防犯代行協会,,その他の設立登記法人,千葉県,松戸市,中矢切６２４番地の１アドグランデ松戸１０３号,,12,207,2710095,,,,,,,2025-03-19,1,,,,,ボウハンダイコウキョウカイ,0
845,4050003009121,新規,0,2025-03-19,2025-03-19,ＴＮ　ＩＮＴＥＲＮＡＴＩＯＮＡＬ合同会社,,合同会社,茨城県,坂東市,猫実１１００－４Ａ,,08,228,3060616,,,,,,,2025-03-19,1,,,,,ティーエヌインターナショナル,0
849,4100003008043,新規,0,2025-03-19,2025-03-19,Ｇｒｅｅｎ　Ｌｉｆｅ合同会社,,合同会社,長野県,大町市,大町３３９６－２,,20,212,3980002,,,,,,,2025-03-19,1,,,,,グリーンライフ,0
858,4120001273777,新規,0,2025-03-19,2025-03-19,株式会社ＮＩＳＳＨＯＵ,,株式会社,大阪府,大阪市北区,中崎１丁目６番１４－１１０８号,,27,127,5300016,,,,,,,2025-03-19,1,,,,,ニッショウ,0
859,4120001273835,新規,0,2025-03-19,2025-03-19,宸光株式会社,,株式会社,大阪府,大阪市大正区,三軒家西３丁目４番１６号中山ビル２１２Ａ,,27,108,5510001,,,,,,,2025-03-19,1,,,,,シンコウ,0
863,4120003028857,新規,0,2025-03-19,2025-03-19,合同会社野田鮮魚店,,合同会社,大阪府,大阪市北区,池田町３番１号,,27,127,5300033,,,,,,,2025-03-19,1,,,,,ノダセンギョテン,0
864,4120003028915,新規,0,2025-03-19,2025-03-19,合同会社ライフサポート一路,,合同会社,大阪府,大阪市都島区,内代町３丁目１０番１０－６０５号,,27,102,5340013,,,,,,,2025-03-19,1,,,,,ライフサポートイチロ,0
871,4130003010302,新規,0,2025-03-19,2025-03-19,合同会社ＰＩＣＫＵＰ,,合同会社,京都府,京都市中京区,御池通東洞院東入笹屋町４３６番地永和御池ビル６０６号,,26,104,6048187,,,,,,,2025-03-19,1,,,,,ピックアップ,0
876,4140001137724,新規,0,2025-03-19,2025-03-19,株式会社３９,,株式会社,兵庫県,神戸市兵庫区,浜崎通３番１９号ＩＨ兵庫１０１号,,28,105,6520807,,,,,,,2025-03-19,1,,,,,スリーナイン,0
878,4150003003519,新規,0,2025-03-19,2025-03-19,ＵＭアセットマネジメント合同会社,,合同会社,奈良県,大和郡山市,筒井町６２７番地１クレール郡山筒井９０１号,,29,203,6391123,,,,,,,2025-03-19,1,,,,,ユーエムアセットマネジメント,0
888,4180001165754,新規,0,2025-03-19,2025-03-19,株式会社パレット,,株式会社,愛知県,名古屋市南区,本星崎町字西田１２０３－１グランレーヴ本星崎１０７,,23,112,4570056,,,,,,,2025-03-19,1,,,,,パレット,0
889,4180001165993,新規,0,2025-03-19,2025-03-19,株式会社ふみ興産,,株式会社,愛知県,名古屋市西区,比良１丁目３２８番地,,23,104,4520802,,,,,,,2025-03-19,1,,,,,フミコウサン,0
891,4180005020996,新規,0,2025-03-19,2025-03-19,医療法人道心会,,その他の設立登記法人,愛知県,瀬戸市,共栄通２丁目６２番,,23,204,4890809,,,,,,,2025-03-19,1,,,,,ドウシンカイ,0
895,4190001032086,新規,0,2025-03-19,2025-03-19,株式会社ＶＥＲＲＡ,,株式会社,三重県,鈴鹿市,白子町１９３５番地ラウムズ白子８０６号,,24,207,5100244,,,,,,,2025-03-19,1,,,,,ベラ,0
896,4200001043552,新規,0,2025-03-19,2025-03-19,株式会社ＭＳコーポレーション,,株式会社,岐阜県,岐阜市,折立２１６番地１,,21,201,5011132,,,,,,,2025-03-19,1,,,,,エムエスコーポレーション,0
900,4230001020796,新規,0,2025-03-19,2025-03-19,株式会社ＪＭ　ＭＯＴＯＲＳ,,株式会社,富山県,射水市,善光寺３２番１号,,16,211,9340005,,,,,,,2025-03-19,1,,,,,ジェイエムモーターズ,0
906,4250003003681,新規,0,2025-03-19,2025-03-19,合同会社ウエルネス福賀,,合同会社,山口県,阿武郡阿武町,大字宇生賀８３４番地２,,35,502,7580613,,,,,,,2025-03-19,1,,,,,ウエルネスフクガ,0
916,4290001109304,新規,0,2025-03-19,2025-03-19,海外ビジネスサポート株式会社,,株式会社,福岡県,飯塚市,相田１７２０番地,,40,205,8200052,,,,,,,2025-03-19,1,,,,,カイガイビジネスサポート,0
917,4290001109337,新規,0,2025-03-19,2025-03-19,株式会社ＬＳ,,株式会社,福岡県,福岡市東区,下原１丁目９番２３号,,40,131,8130002,,,,,,,2025-03-19,1,,,,,エルエス,0
918,4290001109345,新規,0,2025-03-19,2025-03-19,ＵｌｕＰｌｕｓ株式会社,,株式会社,福岡県,福岡市城南区,友丘４丁目１２番１０号,,40,136,8140112,,,,,,,2025-03-19,1,,,,,ウルプラス,0
919,4290001109361,新規,0,2025-03-19,2025-03-19,株式会社ＳＰＲＩＮＧＳ,,株式会社,福岡県,大牟田市,南船津町３丁目４番地８の２左号室,,40,202,8360075,,,,,,,2025-03-19,1,,,,,スプリングス,0
925,4310001019509,新規,0,2025-03-19,2025-03-19,株式会社マルセイ,,株式会社,長崎県,西彼杵郡長与町,丸田郷２７７番地１,,42,307,8512124,,,,,,,2025-03-19,1,,,,,マルセイ,0
926,4320001021001,新規,0,2025-03-19,2025-03-19,株式会社いろはな,,株式会社,大分県,大分市,府内町１丁目６番１７号,,44,201,8700021,,,,,,,2025-03-19,1,,,,,イロハナ,0
928,4330001032988,新規,0,2025-03-19,2025-03-19,金良株式会社,,株式会社,熊本県,菊池郡大津町,大字引水８８８番地１６,,43,403,8691234,,,,,,,2025-03-19,1,,,,,カネヨシ,0
931,4340005009833,新規,0,2025-03-19,2025-03-19,一般社団法人ウェルビーイングゲート屋久島,,その他の設立登記法人,鹿児島県,熊毛郡屋久島町,宮之浦２４４５番地６,,46,505,8914205,,,,,,,2025-03-19,1,,,,,ウェルビーイングゲートヤクシマ,0
934,4360001034940,新規,0,2025-03-19,2025-03-19,沖縄建設Ｎｅｏ株式会社,,株式会社,沖縄県,うるま市,石川東山本町２丁目６番１２号１Ｆ,,47,213,9041101,,,,,,,2025-03-19,1,,,,,オキナワケンセツネオ,0
937,4360003014783,新規,0,2025-03-19,2025-03-19,ＳＮＳバズらせ隊合同会社,,合同会社,沖縄県,名護市,大北３丁目２０－１７－２０３,,47,209,9050019,,,,,,,2025-03-19,1,,,,,エスエヌエスバズラセタイ,0
938,4370001052330,新規,0,2025-03-19,2025-03-19,株式会社ＡＤＤ,,株式会社,宮城県,多賀城市,八幡２丁目８番３０号,,04,209,9850874,,,,,,,2025-03-19,1,,,,,アド,0
939,4370001052371,新規,0,2025-03-19,2025-03-19,Ｔ＆Ａメディカルコンサルティング株式会社,,株式会社,宮城県,仙台市青葉区,中央２丁目１番５号青葉２１ビル４階,,04,101,9800021,,,,,,,2025-03-19,1,,,,,ティーアンドエーメディカルコンサルティング,0
941,4380001035160,新規,0,2025-03-19,2025-03-19,ＢｒｉｄＳ　Ｈｏｌｄｉｎｇｓ株式会社,,株式会社,福島県,郡山市,並木３丁目６番地の１１,,07,203,9638026,,,,,,,2025-03-19,1,,,,,ブリッズホールディングス,0
951,4430003017408,新規,0,2025-03-19,2025-03-19,速配ロジ合同会社,,合同会社,北海道,札幌市白石区,菊水元町八条１丁目８番１２号２０３,,01,104,0030828,,,,,,,2025-03-19,1,,,,,ソクハイロジ,0
961,5010003046704,新規,0,2025-03-19,2025-03-19,シエルエデュケーション合同会社,,合同会社,東京都,中央区,日本橋２丁目２番３号ＲＩＳＨＥビルＵＣＦ４階,,13,102,1030027,,,,,,,2025-03-19,1,,,,,シエルエデュケーション,0
962,5010003046803,新規,0,2025-03-19,2025-03-19,富景合同会社,,合同会社,東京都,中央区,銀座１丁目１２番４号Ｎ＆ＥＢＬＤ．６Ｆ,,13,102,1040061,,,,,,,2025-03-19,1,,,,,フケイ,0
965,5010005039771,新規,0,2025-03-19,2025-03-19,ＡＡＪ　Ｈ特定目的会社,,その他の設立登記法人,東京都,千代田区,霞が関３丁目２番５号,,13,101,1000013,,,,,,,2025-03-19,1,,,,,エーエージェーエイチ,0
966,5010103002532,新規,0,2025-03-19,2025-03-19,惠成合同会社,,合同会社,東京都,八王子市,大塚６４５番地１ユーカリハイツ八王子１０５号室,,13,201,1920352,,,,,,,2025-03-19,1,,,,,ケイセイ,0
972,5010401188890,新規,0,2025-03-19,2025-03-19,株式会社ＧＲＥＷ　ＣＲＥＡＴＥ,,株式会社,東京都,港区,麻布十番１丁目５番１０号アトラスビル４階,,13,103,1060045,,,,,,,2025-03-19,1,,,,,グルークリエイト,0
973,5010401188981,新規,0,2025-03-19,2025-03-19,株式会社Ｎａｔｕｒｅ　Ｐｏｓｉｔｉｖｅ　Ｊａｐａｎ,,株式会社,東京都,港区,赤坂２丁目１８番４－７０４号,,13,103,1070052,,,,,,,2025-03-19,1,,,,,ネイチャーポジティブジャパン,0
974,5010401189006,新規,0,2025-03-19,2025-03-19,Ｎ．Ｂｉｒｔｈ株式会社,,株式会社,東京都,港区,六本木４丁目１番２６号六本木ＫビルＢ１,,13,103,1060032,,,,,,,2025-03-19,1,,,,,エヌドットバース,0
975,5010403034655,新規,0,2025-03-19,2025-03-19,合同会社アオイキカク,,合同会社,東京都,港区,南青山４丁目６番３号,,13,103,1070062,,,,,,,2025-03-19,1,,,,,アオイキカク,0
978,5010601066979,新規,0,2025-03-19,2025-03-19,株式会社アールエムティー,,株式会社,東京都,墨田区,江東橋４丁目２１－６錦糸町ハイタウン４０７,,13,107,1300022,,,,,,,2025-03-19,1,,,,,アールエムティー,0
979,5010601066987,新規,0,2025-03-19,2025-03-19,株式会社Ｌｉｆｅｌｏｎｇ　Ｌａｂ,,株式会社,東京都,江東区,亀戸１丁目２８番６号タニビル７階７０４号室,,13,108,1360071,,,,,,,2025-03-19,1,,,,,ライフロングラボ,0
980,5010603011454,新規,0,2025-03-19,2025-03-19,合同会社ＴＳ,,合同会社,東京都,江東区,富岡１丁目１２番１号２階,,13,108,1350047,,,,,,,2025-03-19,1,,,,,ティーエス,0
990,5011001168077,新規,0,2025-03-19,2025-03-19,株式会社ＢＬＯＯＭＩＥ,,株式会社,東京都,目黒区,下目黒１丁目１番１４号コノトラビル７Ｆ,,13,110,1530064,,,,,,,2025-03-19,1,,,,,ブルーミー,0
991,5011001168300,新規,0,2025-03-19,2025-03-19,株式会社ＮＪ,,株式会社,東京都,目黒区,鷹番３丁目１１－１２セレーノ学芸大学１０１,,13,110,1520004,,,,,,,2025-03-19,1,,,,,エヌジェイ,0
992,5011001168507,新規,0,2025-03-19,2025-03-19,ＥＣのしるし株式会社,,株式会社,東京都,渋谷区,恵比寿４丁目２０番３号恵比寿ガーデンプレイスタワー,,13,113,1500013,,,,,,,2025-03-19,1,,,,,イーシーノシルシ,0
993,5011003021218,新規,0,2025-03-19,2025-03-19,きよたび合同会社,,合同会社,東京都,渋谷区,神宮前６丁目２３番４号桑野ビル２階,,13,113,1500001,,,,,,,2025-03-19,1,,,,,キヨタビ,0
999,5011101110995,新規,0,2025-03-19,2025-03-19,株式会社Ａｎｏｔｈｅｒ　Ｈｅａｒｔ,,株式会社,東京都,新宿区,若葉３丁目４番地４０,,13,104,1600011,,,,,,,2025-03-19,1,,,,,アナザーハート,0
1000,5011101111003,新規,0,2025-03-19,2025-03-19,リブラパートナーズ株式会社,,株式会社,東京都,新宿区,西新宿６丁目２０番７－３００４号コンシェリア西新宿,,13,104,1600023,,,,,,,2025-03-19,1,,,,,リブラパートナーズ,0
1001,5011101111028,新規,0,2025-03-19,2025-03-19,株式会社禄宝会,,株式会社,東京都,新宿区,百人町１丁目１５番２０号レジデンスカマタ１０３,,13,104,1690073,,,,,,,2025-03-19,1,,,,,ロクホウカイ,0
1004,5011103015648,新規,0,2025-03-19,2025-03-19,ＣＳ鹿児島野方ＥＳＳ合同会社,,合同会社,東京都,新宿区,西新宿２丁目１番１号新宿三井ビル４３階,,13,104,1600023,,,,,,,2025-03-19,1,,,,,シーエスカゴシマノガタイーエスエス,0
1006,5011201026183,新規,0,2025-03-19,2025-03-19,株式会社ＰＲＯＳＰＥＲＩＴＥ,,株式会社,東京都,中野区,南台４丁目１番７―４０３号,,13,114,1640014,,,,,,,2025-03-19,1,,,,,プロスペロティ,0
1009,5011603004638,新規,0,2025-03-19,2025-03-19,スマイルズ合同会社,,合同会社,東京都,練馬区,桜台１丁目３４番５号,,13,120,1760002,,,,,,,2025-03-19,1,,,,,スマイルズ,0
1010,5011701028175,新規,0,2025-03-19,2025-03-19,ＮＯＭＡＤＯＸ株式会社,,株式会社,東京都,江戸川区,北小岩８丁目４－１２ゼファー北小岩クリアス５０４号,,13,123,1330051,,,,,,,2025-03-19,1,,,,,ノマドックス,0
1011,5011703004166,新規,0,2025-03-19,2025-03-19,天地人和国際旅行合同会社,,合同会社,東京都,江戸川区,西小岩５丁目１３－１３小出マンション１５２号室,,13,123,1330057,,,,,,,2025-03-19,1,,,,,テンチジンワコクサイリョコウ,0
1020,5012705002455,新規,0,2025-03-19,2025-03-19,医療法人社団泰慈会,,その他の設立登記法人,東京都,西東京市,柳沢６丁目６番３号トキビル２０２号室,,13,229,2020022,,,,,,,2025-03-19,1,,,,,タイジカイ,0
1029,5013301053966,新規,0,2025-03-19,2025-03-19,株式会社ＴＲＵＳＴ,,株式会社,東京都,豊島区,池袋２丁目５１－１５第３ハルタビル８０１号,,13,116,1710014,,,,,,,2025-03-19,1,,,,,トラスト,0
1030,5013303007581,新規,0,2025-03-19,2025-03-19,Ｆａｌｔａ合同会社,,合同会社,東京都,豊島区,南大塚２丁目４１番１０号河野ビル,,13,116,1700005,,,,,,,2025-03-19,1,,,,,ファルタ,0
1040,5020001161990,新規,0,2025-03-19,2025-03-19,株式会社エヌアイホールディングス,,株式会社,神奈川県,川崎市中原区,上新城１丁目１１‐８‐１０８号アールブラン武蔵新城,,14,133,2110045,,,,,,,2025-03-19,1,,,,,エヌアイホールディングス,0
1055,5030005022081,新規,0,2025-03-19,2025-03-19,農事組合法人ＡＬＦ,,その他の設立登記法人,埼玉県,比企郡滑川町,大字土塩６０９－１,,11,341,3550801,,,,,,,2025-03-19,1,,,,,アルフ,0
1060,5040001137907,新規,0,2025-03-19,2025-03-19,恒誠堂ハウジング千葉株式会社,,株式会社,千葉県,千葉市花見川区,幕張町５丁目４１１－１ロイヤルシャトー幕張２０９号,,12,102,2620032,,,,,,,2025-03-19,1,,,,,コウセイドウハウジングチバ,0
1061,5040001137923,新規,0,2025-03-19,2025-03-19,さくら工業株式会社,,株式会社,千葉県,八千代市,八千代台南１丁目３番１２号,,12,221,2760033,,,,,,,2025-03-19,1,,,,,サクラコウギョウ,0
1065,5060001038038,新規,0,2025-03-19,2025-03-19,ＲＳインターナショナル株式会社,,株式会社,栃木県,小山市,犬塚４丁目１０番地２２,,09,208,3230811,,,,,,,2025-03-19,1,,,,,アールエスインターナショナル,0
1071,5080103003276,新規,0,2025-03-19,2025-03-19,合同会社ＣＯＲＥ,,合同会社,静岡県,伊東市,荻５１０番地３０号,,22,208,4140053,,,,,,,2025-03-19,1,,,,,コア,0
1078,5120001273710,新規,0,2025-03-19,2025-03-19,株式会社刻工業,,株式会社,大阪府,門真市,島頭４丁目２番１３号,,27,223,5710016,,,,,,,2025-03-19,1,,,,,トキコウギョウ,0
1079,5120001273900,新規,0,2025-03-19,2025-03-19,株式会社エコピック,,株式会社,大阪府,大阪市中央区,徳井町２丁目２番５号,,27,128,5400025,,,,,,,2025-03-19,1,,,,,エコピック,0
1083,5120003028872,新規,0,2025-03-19,2025-03-19,合同会社葉っぱ倶楽部,,合同会社,大阪府,寝屋川市,三井が丘４丁目７番３６－１号,,27,215,5720013,,,,,,,2025-03-19,1,,,,,ハッパクラブ,0
1084,5120003028889,新規,0,2025-03-19,2025-03-19,合同会社ＪＴ工業,,合同会社,大阪府,守口市,梶町４丁目８２番９号,,27,209,5700015,,,,,,,2025-03-19,1,,,,,ジェイティーコウギョウ,0
1085,5120003028906,新規,0,2025-03-19,2025-03-19,ＡＳＴＨＡ合同会社,,合同会社,大阪府,大阪市淀川区,西宮原１丁目７番１５－１２１０号,,27,123,5320004,,,,,,,2025-03-19,1,,,,,アスタ,0
1086,5120005024837,新規,0,2025-03-19,2025-03-19,日本基督教団都島教会,,その他の設立登記法人,大阪府,大阪市都島区,御幸町２丁目６番１７号,,27,102,5340012,,,,,,,2025-03-19,1,,,,,ニホンキリストキョウダンミヤコジマキョウカイ,0
1093,5130001079149,新規,0,2025-03-19,2025-03-19,株式会社嵩山塾,,株式会社,京都府,京都市伏見区,深草馬谷町１０－７２－２０２号室,,26,109,6120816,,,,,,,2025-03-19,1,,,,,カサヤマジュク,0
1094,5130001079231,新規,0,2025-03-19,2025-03-19,株式会社アムナム,,株式会社,京都府,京都市上京区,西熊町２８９,,26,102,6028498,,,,,,,2025-03-19,1,,,,,,0
1099,5140001137731,新規,0,2025-03-19,2025-03-19,株式会社ＣＲＥＡＴＥ,,株式会社,兵庫県,伊丹市,鈴原町６丁目４１番地１,,28,207,6640882,,,,,,,2025-03-19,1,,,,,クリエイト,0
1100,5140001137814,新規,0,2025-03-19,2025-03-19,株式会社ＣＲＡＺＹ　ＭＩＮＤ,,株式会社,兵庫県,神戸市長田区,六番町３丁目１－１２フレール長田室内西１０２,,28,106,6530002,,,,,,,2025-03-19,1,,,,,クレイジーマインド,0
1101,5140001137839,新規,0,2025-03-19,2025-03-19,株式会社ゴールドリバー,,株式会社,兵庫県,神戸市西区,狩場台２丁目１２番地の１,,28,111,6512272,,,,,,,2025-03-19,1,,,,,ゴールドリバー,0
1105,5140003021792,新規,0,2025-03-19,2025-03-19,合同会社クレア,,合同会社,兵庫県,朝来市,和田山町土田６２９番地９土田ＰＳビル３０２号室,,28,225,6695241,,,,,,,2025-03-19,1,,,,,クレア,0
1120,5180001165984,新規,0,2025-03-19,2025-03-19,株式会社セカンドスマイル,,株式会社,愛知県,名古屋市西区,牛島町６番１号名古屋ルーセントタワー４０階,,23,104,4510046,,,,,,,2025-03-19,1,,,,,セカンドスマイル,0
1157,5290001109336,新規,0,2025-03-19,2025-03-19,株式会社ＴＫＣ,,株式会社,福岡県,福岡市中央区,大名１丁目４番３５－７０１号,,40,133,8100041,,,,,,,2025-03-19,1,,,,,ティーケーシー,0
1158,5290001109344,新規,0,2025-03-19,2025-03-19,Ｑｕａｎｔｕｍ　Ｓｏｌｕｔｉｏｎ株式会社,,株式会社,福岡県,糸島市,三雲１１９番地２,,40,230,8191583,,,,,,,2025-03-19,1,,,,,クォンタムソリューション,0
1159,5290001109360,新規,0,2025-03-19,2025-03-19,株式会社鄭家ネ,,株式会社,福岡県,福岡市博多区,須崎町１番８号,,40,132,8120028,,,,,,,2025-03-19,1,,,,,ジョンガネ,0
1162,5290003016547,新規,0,2025-03-19,2025-03-19,合同会社Ａｒｐｅｚｉａ,,合同会社,福岡県,福岡市西区,戸切３丁目１２－３,,40,135,8190032,,,,,,,2025-03-19,1,,,,,アルペジア,0
1165,5300001014121,新規,0,2025-03-19,2025-03-19,株式会社アキロジ,,株式会社,佐賀県,鳥栖市,宿町９７１番地３グロリアス鳥栖１０６,,41,203,8410052,,,,,,,2025-03-19,1,,,,,アキロジ,0
1168,5340001027202,新規,0,2025-03-19,2025-03-19,株式会社ＡＲＣ,,株式会社,鹿児島県,鹿児島市,中央町１２番１号ベストホーム鹿児島中央ビル６Ｆ,,46,201,8900053,,,,,,,2025-03-19,1,,,,,アーク,0
1174,5360003014782,新規,0,2025-03-19,2025-03-19,ＩＧエンターテイメント合同会社,,合同会社,沖縄県,名護市,字為又２６９番地２シャトーユミザ２０２,,47,209,9050005,,,,,,,2025-03-19,1,,,,,アイジーエンターテイメント,0
1185,5430001093961,新規,0,2025-03-19,2025-03-19,株式会社アイリス・エンジニアリング,,株式会社,北海道,札幌市中央区,南五条西１５丁目２－３リズム医大前５０３号室,,01,101,0640805,,,,,,,2025-03-19,1,,,,,アイリスエンジニアリング,0
1187,5430003017415,新規,0,2025-03-19,2025-03-19,合同会社ＳＮＫ,,合同会社,北海道,札幌市豊平区,平岸五条７丁目７番２３号－５０２,,01,105,0620935,,,,,,,2025-03-19,1,,,,,エスエヌケー,0
1190,5440003001673,新規,0,2025-03-19,2025-03-19,合同会社ＳＴＡＮＣＥ,,合同会社,北海道,北斗市,中野通３２１番地,,01,236,0490156,,,,,,,2025-03-19,1,,,,,スタンス,0
1194,5490001010993,新規,0,2025-03-19,2025-03-19,株式会社ＢＲＥＷＳＨＩＤＯ,,株式会社,高知県,高岡郡日高村,本郷８８５番地１,,39,410,7812153,,,,,,,2025-03-19,1,,,,,ブリューシドウ,0
1197,5500001026204,新規,0,2025-03-19,2025-03-19,ＩＭＡアシスト株式会社,,株式会社,愛媛県,松山市,津吉町１２１７,,38,201,7911122,,,,,,,2025-03-19,1,,,,,イマアシスト,0
1204,6010001252922,新規,0,2025-03-19,2025-03-19,株式会社Ｒｉｃｈｅ,,株式会社,東京都,中央区,日本橋室町１丁目１１番１２号日本橋水野ビル７階,,13,102,1030022,,,,,,,2025-03-19,1,,,,,リッシュ,0
1205,6010001253045,新規,0,2025-03-19,2025-03-19,フラミンゴ株式会社,,株式会社,東京都,千代田区,神田須田町２丁目１５－３－２１０,,13,101,1010041,,,,,,,2025-03-19,1,,,,,フラミンゴ,0
1206,6010001253251,新規,0,2025-03-19,2025-03-19,株式会社ライトテクノロジー,,株式会社,東京都,千代田区,神田小川町３丁目７番地－６０２号,,13,101,1010052,,,,,,,2025-03-19,1,,,,,ライトテクノロジー,0
1207,6010001253276,新規,0,2025-03-19,2025-03-19,希少疾患・病態診断向上研究所株式会社,,株式会社,東京都,千代田区,一番町２番地７カーサＡＢＣ４０２号,,13,101,1020082,,,,,,,2025-03-19,1,,,,,キショウシッカンビョウタイシンダンコウジョウケンキュウジョ,0
1208,6010001253301,新規,0,2025-03-19,2025-03-19,株式会社ＳＣブルーム,,株式会社,東京都,千代田区,神田和泉町１番地６－１６ヤマトビル４０５,,13,101,1010024,,,,,,,2025-03-19,1,,,,,エスシーブルーム,0
1212,6010003046686,新規,0,2025-03-19,2025-03-19,Ｕｎｉｋｏｔ合同会社,,合同会社,東京都,中央区,日本橋横山町七丁目１０番第２７イチオクビル４Ｈ,,13,102,1030003,,,,,,,2025-03-19,1,,,,,ユニコット,0
1213,6010003046827,新規,0,2025-03-19,2025-03-19,Ｌａｅｔｕｓグループ合同会社,,合同会社,東京都,中央区,銀座１丁目１２番４号Ｎ＆ＥＢＬＤ．６Ｆ,,13,102,1040061,,,,,,,2025-03-19,1,,,,,ラエティスグループ,0
1221,6010401188972,新規,0,2025-03-19,2025-03-19,アンブレスティア株式会社,,株式会社,東京都,港区,南麻布２丁目２－２３,,13,103,1060047,,,,,,,2025-03-19,1,,,,,アンブレスティア,0
1222,6010401188980,新規,0,2025-03-19,2025-03-19,セカンドバリュー株式会社,,株式会社,東京都,港区,港南２丁目１６番１号品川イーストワンタワー４階,,13,103,1080075,,,,,,,2025-03-19,1,,,,,セカンドバリュー,0
1223,6010401188989,新規,0,2025-03-19,2025-03-19,株式会社ＭＴＣロジスティクス,,株式会社,東京都,港区,六本木７丁目３番８号永谷ヒルプラザ六本木２０３号,,13,103,1060032,,,,,,,2025-03-19,1,,,,,エムティーシーロジスティクス,0
1237,6011001168241,新規,0,2025-03-19,2025-03-19,ＳＡＲＡＩ株式会社,,株式会社,東京都,渋谷区,道玄坂１丁目１６－６二葉ビル８ｂ,,13,113,1500043,,,,,,,2025-03-19,1,,,,,サライ,0
1238,6011003021183,新規,0,2025-03-19,2025-03-19,合同会社新人類,,合同会社,東京都,渋谷区,神宮前２丁目３番２３号,,13,113,1500001,,,,,,,2025-03-19,1,,,,,シンジンルイ,0
1242,6011101111002,新規,0,2025-03-19,2025-03-19,株式会社ＣＲＴＫ,,株式会社,東京都,新宿区,歌舞伎町１丁目１番１５－８０３号,,13,104,1600021,,,,,,,2025-03-19,1,,,,,シーアールティーケー,0
1243,6011101111010,新規,0,2025-03-19,2025-03-19,株式会社Ｃｏｓｍｉｃｏ,,株式会社,東京都,新宿区,西新宿３丁目３番１３号西新宿水間ビル６階,,13,104,1600023,,,,,,,2025-03-19,1,,,,,コスミコ,0
1244,6011103015647,新規,0,2025-03-19,2025-03-19,ＣＳ秋田仙北ＥＳＳ合同会社,,合同会社,東京都,新宿区,西新宿２丁目１番１号新宿三井ビル４３階,,13,104,1600023,,,,,,,2025-03-19,1,,,,,シーエスアキタセンボクイーエスエス,0
1245,6011103015663,新規,0,2025-03-19,2025-03-19,合同会社ＦＯＲＣＥ　ＯＦ　ＮＡＴＵＲＥ,,合同会社,東京都,新宿区,西新宿３丁目３番１３号西新宿水間ビル２Ｆ,,13,104,1600023,,,,,,,2025-03-19,1,,,,,フォースオブネイチャー,0
1249,6011601028514,新規,0,2025-03-19,2025-03-19,Ｓｗｅｅｔ　Ｈｏｍｉｅ株式会社,,株式会社,東京都,練馬区,大泉町５丁目２７番１７号,,13,120,1780062,,,,,,,2025-03-19,1,,,,,スイートホーミー,0
1250,6011701028158,新規,0,2025-03-19,2025-03-19,三徳ＨＤ株式会社,,株式会社,東京都,江戸川区,一之江７丁目８１番９号,,13,123,1320024,,,,,,,2025-03-19,1,,,,,サントクエイチディー,0
1251,6011703004165,新規,0,2025-03-19,2025-03-19,東京ＹＮ合同会社,,合同会社,東京都,江戸川区,平井７丁目１６－１１－２０２号室,,13,123,1320035,,,,,,,2025-03-19,1,,,,,トウキョウワイエヌ,0
1254,6012403007020,新規,0,2025-03-19,2025-03-19,合同会社Ｌｕｃａｓ,,合同会社,東京都,府中市,白糸台１丁目５３番地の４マスターズマンション１０３,,13,206,1830011,,,,,,,2025-03-19,1,,,,,ルーカス,0
1255,6012403007029,新規,0,2025-03-19,2025-03-19,合同会社なないろ,,合同会社,東京都,府中市,宮町２丁目１５－１柏屋ビル３０６号室,,13,206,1830023,,,,,,,2025-03-19,1,,,,,ナナイロ,0
1258,6013301053949,新規,0,2025-03-19,2025-03-19,東京タイムス株式会社,,株式会社,東京都,豊島区,上池袋３丁目１番１号ヴィア・シテラ・東京４０３号,,13,116,1700012,,,,,,,2025-03-19,1,,,,,トウキョウタイムス,0
1259,6013301053965,新規,0,2025-03-19,2025-03-19,株式会社ロストマン,,株式会社,東京都,豊島区,東池袋２丁目６２番８号ＢＩＧオフィスプラザ池袋１２０６,,13,116,1700013,,,,,,,2025-03-19,1,,,,,ロストマン,0
1260,6013303007580,新規,0,2025-03-19,2025-03-19,ＩＴＢＳ合同会社,,合同会社,東京都,豊島区,東池袋１丁目１７番１１－１１０５号パークハイツ池袋,,13,116,1700013,,,,,,,2025-03-19,1,,,,,アイティービーエス,0
1269,6020001161809,新規,0,2025-03-19,2025-03-19,株式会社ＧＥＮＴＡ,,株式会社,神奈川県,横浜市都筑区,中川１丁目２番地Ｅ－９０４,,14,118,2240001,,,,,,,2025-03-19,1,,,,,ジェンタ,0
1279,6021001084735,新規,0,2025-03-19,2025-03-19,ワイナイズ株式会社,,株式会社,神奈川県,藤沢市,辻堂元町６丁目１番３号,,14,205,2510043,,,,,,,2025-03-19,1,,,,,ワイナイズ,0
1287,6030001165461,新規,0,2025-03-19,2025-03-19,株式会社Ｒｅｄｅｆｉｎｅ,,株式会社,埼玉県,川越市,新富町２丁目２－５マルフジビル１階,,11,201,3500043,,,,,,,2025-03-19,1,,,,,リディファイン,0
1293,6030005022080,新規,0,2025-03-19,2025-03-19,農事組合法人スター,,その他の設立登記法人,埼玉県,比企郡滑川町,大字土塩６０９－１,,11,341,3550801,,,,,,,2025-03-19,1,,,,,スター,0
1298,6040001137897,新規,0,2025-03-19,2025-03-19,株式会社ＩＫＫ設備,,株式会社,千葉県,千葉市花見川区,長作町５２２番地１,,12,102,2620044,,,,,,,2025-03-19,1,,,,,アイケーケーセツビ,0
1299,6040001137914,新規,0,2025-03-19,2025-03-19,株式会社カインドルーム,,株式会社,千葉県,四街道市,大日９０５番地１４,,12,228,2840001,,,,,,,2025-03-19,1,,,,,カインドルーム,0
1303,6050001056353,新規,0,2025-03-19,2025-03-19,Ｆｕｎｄａｍｅｎｔｕｍ株式会社,,株式会社,茨城県,つくば市,島名３７２２－３,,08,220,3002655,,,,,,,2025-03-19,1,,,,,ファンダメンタム,0
1306,6080003003400,新規,0,2025-03-19,2025-03-19,Ａｃｏｍｐａｎｙ合同会社,,合同会社,静岡県,藤枝市,下当間９７１番地,,22,214,4260003,,,,,,,2025-03-19,1,,,,,アカンパニー,0
1315,6100003008041,新規,0,2025-03-19,2025-03-19,合同会社ロボウノイシ,,合同会社,長野県,下伊那郡松川町,上片桐１９０１,,20,402,3993301,,,,,,,2025-03-19,1,,,,,ロボウノイシ,0
1323,6120001273726,新規,0,2025-03-19,2025-03-19,株式会社Ｔ．Ｒｅｔａｉｌ．,,株式会社,大阪府,大阪市中央区,高津２丁目１番２号大越ビル１Ｆ,,27,128,5420072,,,,,,,2025-03-19,1,,,,,ティーリテイル,0
1324,6120001273809,新規,0,2025-03-19,2025-03-19,惠中商事株式会社,,株式会社,大阪府,大阪市天王寺区,生玉町１２－３－１００２号,,27,109,5430071,,,,,,,2025-03-19,1,,,,,エイチュウショウジ,0
1328,6120003028913,新規,0,2025-03-19,2025-03-19,ａｉｌａ合同会社,,合同会社,大阪府,大阪市住之江区,御崎６丁目１番２３号,,27,125,5590013,,,,,,,2025-03-19,1,,,,,アイラ,0
1330,6120101071253,新規,0,2025-03-19,2025-03-19,秀義株式会社,,株式会社,大阪府,羽曳野市,はびきの４丁目１７番６号,,27,222,5830872,,,,,,,2025-03-19,1,,,,,シュウギ,0
1331,6120105009984,新規,0,2025-03-19,2025-03-19,一般社団法人ＨＩＫＡＲＩ,,その他の設立登記法人,大阪府,松原市,天美我堂４丁目３番２２号,,27,217,5800026,,,,,,,2025-03-19,1,,,,,ヒカリ,0
1339,6130001079239,新規,0,2025-03-19,2025-03-19,株式会社Ｍ’ｓ　ｅｓｔａｔｅ,,株式会社,京都府,京都市西京区,大枝沓掛町１番地２９清風ハイム２０１,,26,111,6101106,,,,,,,2025-03-19,1,,,,,エムズエステート,0
1340,6130003010300,新規,0,2025-03-19,2025-03-19,合同会社Ｃｈｕｌａ２１,,合同会社,京都府,京都市上京区,橋西二町目６５３番地タウンルームキシ１階,,26,102,6028123,,,,,,,2025-03-19,1,,,,,チュラトニーワン,0
1343,6140005027408,新規,0,2025-03-19,2025-03-19,ＮＰＯ法人Ｄｉｖｅ　ｉｎ,,その他の設立登記法人,兵庫県,神戸市長田区,御屋敷通３丁目１番３０号,,28,106,6530843,,,,,,,2025-03-19,1,,,,,ダイブイン,0
1358,6180001165967,新規,0,2025-03-19,2025-03-19,ＡＳＡＨＩ　ＭＹＡＮＭＡＲ株式会社,,株式会社,愛知県,岩倉市,東新町釜之口１番地１第６３号棟第２号室,,23,228,4820001,,,,,,,2025-03-19,1,,,,,アサヒミャンマー,0
1359,6180001165983,新規,0,2025-03-19,2025-03-19,ａｔ株式会社,,株式会社,愛知県,大府市,横根町後田１７番地,,23,223,4740011,,,,,,,2025-03-19,1,,,,,エーティー,0
1360,6180001165991,新規,0,2025-03-19,2025-03-19,株式会社未来テクノロジー,,株式会社,愛知県,名古屋市中村区,大日町１７番１号,,23,105,4530034,,,,,,,2025-03-19,1,,,,,ミライテクノロジー,0
1366,6180301039631,新規,0,2025-03-19,2025-03-19,株式会社ＶＯＴＡＮ,,株式会社,愛知県,西尾市,徳永町稲場７０番地６,,23,213,4440315,,,,,,,2025-03-19,1,,,,,ボタン,0
1370,6190001032084,新規,0,2025-03-19,2025-03-19,株式会社ＣＲＡＴＥ,,株式会社,三重県,鈴鹿市,若松西２丁目２７番２３号,,24,207,5100222,,,,,,,2025-03-19,1,,,,,クレート,0
1372,6190003004965,新規,0,2025-03-19,2025-03-19,合同会社さくらともも,,合同会社,三重県,多気郡明和町,大字佐田９４０番地３６,,24,442,5150331,,,,,,,2025-03-19,1,,,,,サクラトモモ,0
1373,6200001043550,新規,0,2025-03-19,2025-03-19,株式会社Ｌｅｌｉｅｎ,,株式会社,岐阜県,土岐市,土岐津町土岐口１３７２‐１４０,,21,212,5095122,,,,,,,2025-03-19,1,,,,,ルリアン,0
1375,6210005010190,新規,0,2025-03-19,2025-03-19,一般社団法人敦賀空き家利活用協会,,その他の設立登記法人,福井県,敦賀市,長沢２８号４番地４,,18,202,9140046,,,,,,,2025-03-19,1,,,,,ツルガアキヤリカツヨウキョウカイ,0
1376,6230001020794,新規,0,2025-03-19,2025-03-19,株式会社ｓｔｉｎｓ,,株式会社,富山県,滑川市,上小泉２１３９番地３,,16,206,9360053,,,,,,,2025-03-19,1,,,,,スティンズ,0
1385,6240005015914,新規,0,2025-03-19,2025-03-19,一般社団法人広島県華僑華人連合総会,,その他の設立登記法人,広島県,広島市中区,大手町４丁目１番１号大手町平和ビル１階,,34,101,7300051,,,,,,,2025-03-19,1,,,,,ヒロシマケンカキョウカジンレンゴウソウカイ,0
1391,6270003001723,新規,0,2025-03-19,2025-03-19,合同会社パーパス,,合同会社,鳥取県,鳥取市,浜坂８丁目３番２０号,,31,201,6800001,,,,,,,2025-03-19,1,,,,,パーパス,0
1395,6290001109327,新規,0,2025-03-19,2025-03-19,株式会社ＯＷＬ　ｔｈｒｅｅ,,株式会社,福岡県,福岡市博多区,吉塚本町１３－２７－４０９,,40,132,8120046,,,,,,,2025-03-19,1,,,,,オウルスリー,0
1396,6290001109368,新規,0,2025-03-19,2025-03-19,株式会社ＮＥＸＵＳ,,株式会社,福岡県,久留米市,藤山町１６００番地１７,,40,203,8300053,,,,,,,2025-03-19,1,,,,,ネクサス,0
1398,6290003016546,新規,0,2025-03-19,2025-03-19,アトリエヨシザワ合同会社,,合同会社,福岡県,福岡市西区,今宿町４０８－６,,40,135,8190164,,,,,,,2025-03-19,1,,,,,アトリエヨシザワ,0
1399,6290003016554,新規,0,2025-03-19,2025-03-19,合同会社ＳＲＣ,,合同会社,福岡県,福岡市早良区,百道浜３丁目９番２６－１５０２号,,40,137,8140001,,,,,,,2025-03-19,1,,,,,エスアールシー,0
1405,6320003004605,新規,0,2025-03-19,2025-03-19,合同会社Ｌｉｂｅｒｔｙ,,合同会社,大分県,大分市,都町３丁目５番３号,,44,201,8700034,,,,,,,2025-03-19,1,,,,,リバティ,0
1407,6330003010890,新規,0,2025-03-19,2025-03-19,合同会社ＳＡＮＴＡ　ＨＯＭＥ,,合同会社,熊本県,宇土市,新開町１５７,,43,211,8690403,,,,,,,2025-03-19,1,,,,,サンタホーム,0
1414,6360001034880,新規,0,2025-03-19,2025-03-19,株式会社ミヤタサービス,,株式会社,沖縄県,那覇市,松尾１丁目１０－２４ホークシティ那覇,,47,201,9000014,,,,,,,2025-03-19,1,,,,,ミヤタサービス,0
1417,6360003014773,新規,0,2025-03-19,2025-03-19,合同会社琉球ＷＥＳＴ,,合同会社,沖縄県,中頭郡読谷村,字比謝３１０番地９,,47,324,9040311,,,,,,,2025-03-19,1,,,,,リュウキュウウェスト,0
1425,6380001035159,新規,0,2025-03-19,2025-03-19,ＲＥＡＤＹ　ＳＯＣＩＡＬ株式会社,,株式会社,福島県,双葉郡大熊町,大字下野上字清水２３０番地,,07,545,9791308,,,,,,,2025-03-19,1,,,,,レディーソーシャル,0
1437,6430001093952,新規,0,2025-03-19,2025-03-19,株式会社ＳｈｉｆｕｋｕＢＡＳＥ,,株式会社,北海道,札幌市西区,発寒十一条１丁目９番２５－８０４号,,01,107,0630831,,,,,,,2025-03-19,1,,,,,シフクベイス,0
1438,6430001093960,新規,0,2025-03-19,2025-03-19,株式会社紬,,株式会社,北海道,札幌市北区,篠路町拓北３１－２１２,,01,102,0028054,,,,,,,2025-03-19,1,,,,,ツムグ,0
1439,6430001093969,新規,0,2025-03-19,2025-03-19,株式会社ｏｆｆｉｃｅ　Ｒ　ｐｌｕｓ,,株式会社,北海道,札幌市北区,新川二条１丁目２番５１号,,01,102,0010922,,,,,,,2025-03-19,1,,,,,オフィスアールプラス,0
1445,6480001012783,新規,0,2025-03-19,2025-03-19,株式会社大津,,株式会社,徳島県,板野郡藍住町,富吉字富吉１００３,,36,403,7711231,,,,,,,2025-03-19,1,,,,,オオツ,0
1453,7010001253291,新規,0,2025-03-19,2025-03-19,ウィンスリーインターナショナル株式会社,,株式会社,東京都,千代田区,神田鍛冶町３丁目３番９号喜助新千代田ビル４３室,,13,101,1010045,,,,,,,2025-03-19,1,,,,,ウィンスリーインターナショナル,0
1454,7010001253300,新規,0,2025-03-19,2025-03-19,株式会社清水基礎,,株式会社,東京都,中央区,銀座１丁目１２番４号Ｎ＆ＥＢＬＤ．６Ｆ,,13,102,1040061,,,,,,,2025-03-19,1,,,,,シミズキソ,0
1455,7010001253309,新規,0,2025-03-19,2025-03-19,株式会社ＬＩＶＥＡＣＥ,,株式会社,東京都,千代田区,丸の内１丁目１１番１号パシフィックセンチュリープレイス丸の内,,13,101,1000005,,,,,,,2025-03-19,1,,,,,リブエース,0
1456,7010001253333,新規,0,2025-03-19,2025-03-19,株式会社美優の安心ホーム紹介所,,株式会社,東京都,中央区,佃３丁目６番５－８０３号,,13,102,1040051,,,,,,,2025-03-19,1,,,,,ミユノアンシンホームショウカイジョ,0
1465,7010003046776,新規,0,2025-03-19,2025-03-19,合同会社ロイヤル,,合同会社,東京都,中央区,銀座６丁目１３－１６銀座ＷａｌｌビルＵＣＦ５階,,13,102,1040061,,,,,,,2025-03-19,1,,,,,ロイヤル,0
1466,7010003046792,新規,0,2025-03-19,2025-03-19,麒麟４合同会社,,合同会社,東京都,中央区,京橋２丁目１２番６号ＡＯＪ税理士法人内,,13,102,1040031,,,,,,,2025-03-19,1,,,,,キリンフォー,0
1467,7010003046834,新規,0,2025-03-19,2025-03-19,合同会社ＴＩＤＥＬＬＥ,,合同会社,東京都,中央区,銀座１丁目２２番１１号銀座大竹ビジデンス２Ｆ,,13,102,1040061,,,,,,,2025-03-19,1,,,,,ティデル,0
1469,7010005039745,新規,0,2025-03-19,2025-03-19,医療法人社団銀銀,,その他の設立登記法人,東京都,中央区,銀座４丁目３番９号天賞堂ビル４階,,13,102,1040061,,,,,,,2025-03-19,1,,,,,ギンギン,0
1474,7010401188988,新規,0,2025-03-19,2025-03-19,株式会社ＪＪ　ＰＯＷＥＲ‐１,,株式会社,東京都,港区,北青山１丁目３－３三橋ビル３階,,13,103,1070061,,,,,,,2025-03-19,1,,,,,ジェイジェイパワーワン,0
1476,7010403034645,新規,0,2025-03-19,2025-03-19,モモヘルスジャパン合同会社,,合同会社,東京都,港区,虎ノ門４丁目３番１号虎ノ門トラストタワー,,13,103,1050001,,,,,,,2025-03-19,1,,,,,モモヘルスジャパン,0
1481,7010505003589,新規,0,2025-03-19,2025-03-19,医療法人社団慈耳会,,その他の設立登記法人,東京都,台東区,蔵前３丁目６番１号玉川ビル３階,,13,106,1110051,,,,,,,2025-03-19,1,,,,,ジジカイ,0
1484,7010601066985,新規,0,2025-03-19,2025-03-19,株式会社ＧＤＬＳ,,株式会社,東京都,墨田区,東向島２丁目４２番１号,,13,107,1310032,,,,,,,2025-03-19,1,,,,,ジーディーエルエス,0
1491,7011001168273,新規,0,2025-03-19,2025-03-19,株式会社ＴＯＧＡＲＩ,,株式会社,東京都,渋谷区,神宮前５丁目３番２１号ＺＵＫＫＩビル,,13,113,1500001,,,,,,,2025-03-19,1,,,,,トガリ,0
1492,7011003021166,新規,0,2025-03-19,2025-03-19,トライアス合同会社,,合同会社,東京都,目黒区,中目黒５丁目７番３４号ステラ自然園２０２,,13,110,1530061,,,,,,,2025-03-19,1,,,,,トライアス,0
1495,7011103015588,新規,0,2025-03-19,2025-03-19,合同会社ＹＵＭＥ　ＰＬＡＮ,,合同会社,東京都,新宿区,西新宿３丁目３番１３号西新宿水間ビル２Ｆ,,13,104,1600023,,,,,,,2025-03-19,1,,,,,ユメプラン,0
1496,7011103015646,新規,0,2025-03-19,2025-03-19,ＣＳ青森八戸ＥＳＳ合同会社,,合同会社,東京都,新宿区,西新宿２丁目１番１号新宿三井ビル４３階,,13,104,1600023,,,,,,,2025-03-19,1,,,,,シーエスアオモリハチノヘイーエスエス,0
1497,7011201026207,新規,0,2025-03-19,2025-03-19,株式会社昭暎,,株式会社,東京都,中野区,中央２丁目３０番９号,,13,114,1640011,,,,,,,2025-03-19,1,,,,,ショウエイ,0
1499,7011301030447,新規,0,2025-03-19,2025-03-19,株式会社アートクリエイト,,株式会社,東京都,杉並区,宮前３丁目１９番８号プランドミール・桧１０１,,13,115,1680081,,,,,,,2025-03-19,1,,,,,アートクリエイト,0
1504,7012403007011,新規,0,2025-03-19,2025-03-19,合同会社ＡＬＬ‐ＩＮ,,合同会社,東京都,小金井市,桜町２丁目１０－１７ヤマザキエムハイツ１０１,,13,210,1840005,,,,,,,2025-03-19,1,,,,,オールイン,0
1510,7013301053956,新規,0,2025-03-19,2025-03-19,Ｌｅｌｉｅｎ株式会社,,株式会社,東京都,豊島区,南大塚２丁目４１番１０号,,13,116,1700005,,,,,,,2025-03-19,1,,,,,ルリアン,0
1520,7021003015761,新規,0,2025-03-19,2025-03-19,ナトラ合同会社,,合同会社,神奈川県,鎌倉市,由比ガ浜１丁目２番１９号,,14,204,2480014,,,,,,,2025-03-19,1,,,,,ナトラ,0
1526,7030001165510,新規,0,2025-03-19,2025-03-19,株式会社サムトラスト,,株式会社,埼玉県,所沢市,大字北秋津２３２番地,,11,208,3590038,,,,,,,2025-03-19,1,,,,,サムトラスト,0
1535,7050001056336,新規,0,2025-03-19,2025-03-19,株式会社Ｍｉｌａｎ,,株式会社,茨城県,土浦市,真鍋２丁目１番３９号,,08,203,3000051,,,,,,,2025-03-19,1,,,,,ミラン,0
1536,7050001056352,新規,0,2025-03-19,2025-03-19,株式会社アルティメットリーダー,,株式会社,茨城県,つくば市,天王台１丁目１番１筑波大学体育学科系Ａ棟４０５,,08,220,3050006,,,,,,,2025-03-19,1,,,,,アルティメットリーダー,0
1541,7080001026815,新規,0,2025-03-19,2025-03-19,株式会社Ａｕｔｈｅｎｔｉｌｌ　Ｓｔｙｌｅ,,株式会社,静岡県,静岡市葵区,御幸町１１－８レイアップ御幸町ビル２Ｆ,,22,101,4200857,,,,,,,2025-03-19,1,,,,,オーセンティルスタイル,0
1546,7100001038411,新規,0,2025-03-19,2025-03-19,株式会社ＧＥＳＴ,,株式会社,長野県,塩尻市,大門三番町１２番３－３号,,20,215,3990733,,,,,,,2025-03-19,1,,,,,ジャスト,0
1550,7120001273675,新規,0,2025-03-19,2025-03-19,株式会社ｋａｂｏｓｕ　ｌａｂ,,株式会社,大阪府,大阪市淀川区,宮原２丁目１１番５号メゾン新大阪北４０１号,,27,123,5320003,,,,,,,2025-03-19,1,,,,,カボスラボ,0
1551,7120001273808,新規,0,2025-03-19,2025-03-19,株式会社アシスト,,株式会社,大阪府,大阪市西区,阿波座１丁目３番１８号エッグビル本町８０１,,27,106,5500011,,,,,,,2025-03-19,1,,,,,アシスト,0
1552,7120001273824,新規,0,2025-03-19,2025-03-19,巻山株式会社,,株式会社,大阪府,大阪市西成区,萩之茶屋１丁目１２－７－２８号室,,27,122,5570004,,,,,,,2025-03-19,1,,,,,マキヤマ,0
1553,7120003028904,新規,0,2025-03-19,2025-03-19,ＨＧＭ合同会社,,合同会社,大阪府,大阪市北区,梅田１丁目２番２号大阪駅前第２ビル１２－１２,,27,127,5300001,,,,,,,2025-03-19,1,,,,,エイチジーエム,0
1554,7120003028920,新規,0,2025-03-19,2025-03-19,隆盛テック合同会社,,合同会社,大阪府,大阪市北区,芝田２丁目８番１１号共栄ビル３階,,27,127,5300012,,,,,,,2025-03-19,1,,,,,リュウセイテック,0
1556,7120103006339,新規,0,2025-03-19,2025-03-19,合同会社ユアドリーム,,合同会社,大阪府,和泉市,室堂町５番地の１,,27,219,5941101,,,,,,,2025-03-19,1,,,,,ユアドリーム,0
1565,7130003010299,新規,0,2025-03-19,2025-03-19,ＰＡＲＴＡＧＥ　ＣＯＮＳＵＬＴＩＮＧ合同会社,,合同会社,京都府,京都市右京区,京北上弓削町神ノ本６番地１,,26,108,6010531,,,,,,,2025-03-19,1,,,,,パルタゲコンサルティング,0
1568,7140001137829,新規,0,2025-03-19,2025-03-19,ＳＵＰＥＲ　ＹＡＣＨＴ　ＢＡＳＥ　ＫＯＢＥ株式会社,,株式会社,兵庫県,神戸市中央区,新港町１１番１号,,28,110,6500041,,,,,,,2025-03-19,1,,,,,スーパーヨットベースコウベ,0
1569,7140001137853,新規,0,2025-03-19,2025-03-19,ＯｎＭｅｅｔｓＪａｐａｎ株式会社,,株式会社,兵庫県,神戸市中央区,磯辺通１丁目１番１８号カサベラ国際プラザビル７０７号室,,28,110,6510084,,,,,,,2025-03-19,1,,,,,オンミーツジャパン,0
1576,7150005009676,新規,0,2025-03-19,2025-03-19,ＮＰＯ法人こどもゆめひろば,,その他の設立登記法人,奈良県,生駒市,真弓４丁目１５－２２,,29,209,6300122,,,,,,,2025-03-19,1,,,,,コドモユメヒロバ,0
1578,7170001018539,新規,0,2025-03-19,2025-03-19,株式会社Ｌ‐ｉｎｋｓ,,株式会社,和歌山県,和歌山市,太田１２０番地６－６０６号,,30,201,6408323,,,,,,,2025-03-19,1,,,,,リンクス,0
1579,7170005007141,新規,0,2025-03-19,2025-03-19,一般社団法人龍神植田塾,,その他の設立登記法人,和歌山県,田辺市,上の山１丁目１０番５号セレモニーホールなかた内,,30,206,6460061,,,,,,,2025-03-19,1,,,,,リュウジンウエダジュク,0
1600,7180001165982,新規,0,2025-03-19,2025-03-19,ＧＵＴＳ株式会社,,株式会社,愛知県,春日井市,白山町５丁目５番地２０,,23,206,4870034,,,,,,,2025-03-19,1,,,,,ガッツ,0
1608,7180005020952,新規,0,2025-03-19,2025-03-19,一般社団法人日本プロフェッショナルポーカー協会,,その他の設立登記法人,愛知県,名古屋市中区,大須４丁目１－９菱水ビル９Ｆ,,23,106,4600011,,,,,,,2025-03-19,1,,,,,ニホンプロフェッショナルポーカーキョウカイ,0
1612,7190003004964,新規,0,2025-03-19,2025-03-19,合同会社彩紅葉,,合同会社,三重県,多気郡明和町,大字佐田９４０番地３６,,24,442,5150331,,,,,,,2025-03-19,1,,,,,イロドリモミジ,0
1615,7230005009445,新規,0,2025-03-19,2025-03-19,水橋漁業生産組合,,その他の設立登記法人,富山県,富山市,水橋辻ヶ堂３６番地,,16,201,9393515,,,,,,,2025-03-19,1,,,,,ミズハシ,0
1623,7290001109342,新規,0,2025-03-19,2025-03-19,株式会社ＬＩＦＥ　Ｗｏｒｋｓ,,株式会社,福岡県,福岡市城南区,梅林１丁目１７番８号,,40,136,8140144,,,,,,,2025-03-19,1,,,,,ライフワークス,0
1624,7290001109375,新規,0,2025-03-19,2025-03-19,株式会社堀川,,株式会社,福岡県,八女市,黒木町本分２４８番地２,,40,210,8341213,,,,,,,2025-03-19,1,,,,,ホリカワ,0
1628,7290003016553,新規,0,2025-03-19,2025-03-19,合同会社ＩＫＩＧＡＩ,,合同会社,福岡県,福岡市東区,名島４丁目１５番１０号,,40,131,8130043,,,,,,,2025-03-19,1,,,,,イキガイ,0
1630,7290805009812,新規,0,2025-03-19,2025-03-19,Ｋ　ａｎｄ　Ａワークブリッジ協同組合,,その他の設立登記法人,福岡県,京都郡苅田町,長浜町１７番地２,,40,621,8000311,,,,,,,2025-03-19,1,,,,,ケイアンドエーワークブリッジ,0
1634,7320003004604,新規,0,2025-03-19,2025-03-19,合同会社さきわふ,,合同会社,大分県,大分市,東春日町１７番２０号大分第２ソフィアプラザビル５階,,44,201,8700037,,,,,,,2025-03-19,1,,,,,サキワフ,0
1635,7330001032993,新規,0,2025-03-19,2025-03-19,Ｕｎｉｃｅ　Ｊａｐａｎ株式会社,,株式会社,熊本県,菊池郡菊陽町,大字津久礼１３３番地６,,43,404,8691101,,,,,,,2025-03-19,1,,,,,ユナイスジャパン,0
1640,7340001027200,新規,0,2025-03-19,2025-03-19,株式会社ＩＢＵＫＩバイオファーム,,株式会社,鹿児島県,指宿市,西方５１９３番地２,,46,210,8910311,,,,,,,2025-03-19,1,,,,,イブキバイオファーム,0
1643,7350003004881,新規,0,2025-03-19,2025-03-19,合同会社ＲＩＴＡ,,合同会社,宮崎県,宮崎市,学園木花台西１丁目２番地１,,45,201,8892155,,,,,,,2025-03-19,1,,,,,リタ,0
1651,7370001052369,新規,0,2025-03-19,2025-03-19,株式会社ＳＫエンジニア,,株式会社,宮城県,仙台市宮城野区,岩切字洞ノ口２６番地の９,,04,102,9830821,,,,,,,2025-03-19,1,,,,,エスケーエンジニア,0
1654,7380001035166,新規,0,2025-03-19,2025-03-19,株式会社名郷糀屋,,株式会社,福島県,本宮市,本宮字花町４２番地,,07,214,9691147,,,,,,,2025-03-19,1,,,,,ナゴウコウジヤ,0
1662,7430001093968,新規,0,2025-03-19,2025-03-19,株式会社ＴＫＳ,,株式会社,北海道,札幌市中央区,南九条西４丁目３番１号－２９０３号室,,01,101,0640809,,,,,,,2025-03-19,1,,,,,ティーケーエス,0
1663,7430003017413,新規,0,2025-03-19,2025-03-19,合同会社ＴＯＮ　ＤＯＮ,,合同会社,北海道,札幌市豊平区,豊平四条３丁目３－２さんぱちビル２　１階,,01,105,0620904,,,,,,,2025-03-19,1,,,,,トンドン,0
1664,7460001005986,新規,0,2025-03-19,2025-03-19,株式会社ＭＡＲＣｙｚ,,株式会社,北海道,釧路市,住吉１丁目８番１２号,,01,206,0850831,,,,,,,2025-03-19,1,,,,,マーシーズ,0
1665,7460105002310,新規,0,2025-03-19,2025-03-19,医療法人社団北とかちみんなのクリニック,,その他の設立登記法人,北海道,河東郡音更町,木野大通東９丁目４番地４０,,01,631,0800111,,,,,,,2025-03-19,1,,,,,キタトカチミンナノクリニック,0
1675,8010001252862,新規,0,2025-03-19,2025-03-19,株式会社虎昭産業グループ,,株式会社,東京都,文京区,小日向４丁目５番１６号,,13,105,1120006,,,,,,,2025-03-19,1,,,,,トラショウサンギョウグループ,0
1676,8010001253217,新規,0,2025-03-19,2025-03-19,株式会社Ａｒｇｏ,,株式会社,東京都,中央区,日本橋室町１丁目１１番１２号日本橋水野ビル７階,,13,102,1030022,,,,,,,2025-03-19,1,,,,,アルゴ,0
1677,8010001253282,新規,0,2025-03-19,2025-03-19,株式会社ウィンドグループ,,株式会社,東京都,中央区,日本橋兜町２１番４号,,13,102,1030026,,,,,,,2025-03-19,1,,,,,ウィンドグループ,0
1678,8010001253340,新規,0,2025-03-19,2025-03-19,株式会社ＨａｌａｌＴｏｋｙｏ,,株式会社,東京都,千代田区,外神田３丁目１４番３号,,13,101,1010021,,,,,,,2025-03-19,1,,,,,ハラルトウキョウ,0
1680,8010003046742,新規,0,2025-03-19,2025-03-19,ＮＰ登山部合同会社,,合同会社,東京都,中央区,晴海２丁目３番３０－３５１３号,,13,102,1040053,,,,,,,2025-03-19,1,,,,,エヌピートザンブ,0
1681,8010003046800,新規,0,2025-03-19,2025-03-19,合同会社Ａｌｐｈａ　Ｏｍｅｇａ　Ｉｎｎｏｖａｔｉｏｎｓ,,合同会社,東京都,千代田区,神田和泉町１番地６－１６ヤマトビル４０５,,13,101,1010024,,,,,,,2025-03-19,1,,,,,アルファオメガイノヴェーションズ,0
1682,8010003046809,新規,0,2025-03-19,2025-03-19,合同会社流星インベストメント,,合同会社,東京都,千代田区,内神田１丁目３番７号４０１あすな会計事務所内,,13,101,1010047,,,,,,,2025-03-19,1,,,,,リュウセイインベストメント,0
1683,8010005039769,新規,0,2025-03-19,2025-03-19,特定非営利活動法人継なぐ会,,その他の設立登記法人,東京都,文京区,千石１丁目１番１６号,,13,105,1120011,,,,,,,2025-03-19,1,,,,,ツナグカイ,0
1693,8010401188995,新規,0,2025-03-19,2025-03-19,株式会社Ｊａｌｏｒｅ,,株式会社,東京都,港区,赤坂３丁目１－１６ＢＩビル１階,00138399,13,103,1070052,,,,,,,2025-03-19,1,,,,,ジャロア,0
1694,8010401189003,新規,0,2025-03-19,2025-03-19,株式会社Ｗｉｔｈ　ＦＯＯＴＢＡＬＬ,,株式会社,東京都,港区,港南２丁目１２番１９－９０３号,,13,103,1080075,,,,,,,2025-03-19,1,,,,,ウィズフットボール,0
1695,8010501053819,新規,0,2025-03-19,2025-03-19,日騰株式会社,,株式会社,東京都,台東区,蔵前４丁目１６－６ストーク蔵前Ｍ＆Ｋ４階４０５,,13,106,1110051,,,,,,,2025-03-19,1,,,,,ニットウ,0
1696,8010503007756,新規,0,2025-03-19,2025-03-19,京港貿易合同会社,,合同会社,東京都,台東区,北上野２丁目６－１クレストコート上野６０１号室,,13,106,1100014,,,,,,,2025-03-19,1,,,,,ケイコウボウエキ,0
1697,8010505003588,新規,0,2025-03-19,2025-03-19,行政書士法人ポラリスＴＳ,,その他の設立登記法人,東京都,台東区,東上野１丁目１１番４号ザイマックス東上野ビル４階,,13,106,1100015,,,,,,,2025-03-19,1,,,,,ポラリスティーエス,0
1700,8010601066992,新規,0,2025-03-19,2025-03-19,ひだまり株式会社,,株式会社,東京都,墨田区,八広２丁目３７－８梅鉢屋ビル１階,,13,107,1310041,,,,,,,2025-03-19,1,,,,,ヒダマリ,0
1701,8010701047447,新規,0,2025-03-19,2025-03-19,株式会社Ｇｏｂｙ,,株式会社,東京都,品川区,北品川５丁目５番１５号,,13,109,1410001,,,,,,,2025-03-19,1,,,,,ゴビー,0
1702,8010801035921,新規,0,2025-03-19,2025-03-19,株式会社オールドファッション,,株式会社,東京都,大田区,池上７丁目２番７号,,13,111,1460082,,,,,,,2025-03-19,1,,,,,オールドファッション,0
1704,8010903009781,新規,0,2025-03-19,2025-03-19,合同会社ＭＯＧ,,合同会社,東京都,世田谷区,駒沢２丁目２０番１１号,,13,112,1540012,,,,,,,2025-03-19,1,,,,,モグ,0
1707,8011001168215,新規,0,2025-03-19,2025-03-19,株式会社ＥＮＧＡＧＥ,,株式会社,東京都,渋谷区,幡ヶ谷２丁目６－６幡ヶ谷北村ビル４階,,13,113,1510072,,,,,,,2025-03-19,1,,,,,エンゲージ,0
1710,8011101110852,新規,0,2025-03-19,2025-03-19,ＣＧＩトラストホールディングス株式会社,,株式会社,東京都,新宿区,新宿１丁目７番１号,,13,104,1600022,,,,,,,2025-03-19,1,,,,,シージーアイトラストホールディングス,0
1711,8011101110992,新規,0,2025-03-19,2025-03-19,株式会社Ｈａｎｅｕｒ,,株式会社,東京都,新宿区,大久保２丁目３１番１６号－４階,,13,104,1690072,,,,,,,2025-03-19,1,,,,,ハヌル,0
1717,8011103015661,新規,0,2025-03-19,2025-03-19,合同会社Ａｔｔｕｒｅ,,合同会社,東京都,新宿区,新宿２丁目１２番１３号,,13,104,1600022,,,,,,,2025-03-19,1,,,,,アチュア,0
1728,8011403004645,新規,0,2025-03-19,2025-03-19,Ａｖａｎｃｅ合同会社,,合同会社,東京都,板橋区,舟渡３丁目５－８,,13,119,1740041,,,,,,,2025-03-19,1,,,,,アヴァンス,0
1729,8011503006450,新規,0,2025-03-19,2025-03-19,Ｍｏｍｅｎ　Ｔｒａｄｅ　Ｎｅｔｗｏｒｋ合同会社,,合同会社,東京都,北区,上十条４丁目９番１０号,,13,117,1140034,,,,,,,2025-03-19,1,,,,,モーメントレードネットワーク,0
1731,8011701028172,新規,0,2025-03-19,2025-03-19,株式会社ｇｅｎｏｍｅ,,株式会社,東京都,江戸川区,南葛西４丁目５－１２アモーレフラワーガーデンＣ号室,,13,123,1340085,,,,,,,2025-03-19,1,,,,,ゲノム,0
1732,8011801045828,新規,0,2025-03-19,2025-03-19,マルシチ株式会社,,株式会社,東京都,足立区,南花畑２丁目４２番地２、３Ｆ,,13,121,1210062,,,,,,,2025-03-19,1,,,,,マルシチ,0
1734,8012401042901,新規,0,2025-03-19,2025-03-19,株式会社ソーメニーイヤーズ,,株式会社,東京都,狛江市,元和泉１丁目１－２イトーピア狛江エコルマ２、２Ｆ,,13,219,2010013,,,,,,,2025-03-19,1,,,,,ソーメニーイヤーズ,0
1736,8012403007027,新規,0,2025-03-19,2025-03-19,シャルミー合同会社,,合同会社,東京都,武蔵野市,境南町４丁目８番地４号,,13,203,1800023,,,,,,,2025-03-19,1,,,,,シャルミー,0
1737,8012703003221,新規,0,2025-03-19,2025-03-19,合同会社ＺＥＲＯＺＥＲＯ　Ａ,,合同会社,東京都,東村山市,秋津町３丁目３０番地３６,,13,213,1890001,,,,,,,2025-03-19,1,,,,,ゼロゼロエー,0
1740,8013101009645,新規,0,2025-03-19,2025-03-19,瑞禾株式会社,,株式会社,東京都,あきる野市,伊奈１１８７－９,,13,228,1900142,,,,,,,2025-03-19,1,,,,,ズイカ,0
1743,8013301053963,新規,0,2025-03-19,2025-03-19,千代田株式会社,,株式会社,東京都,豊島区,長崎６丁目３１番１１号,,13,116,1710051,,,,,,,2025-03-19,1,,,,,チヨダ,0
1755,8030001165501,新規,0,2025-03-19,2025-03-19,株式会社ケイ．ファースト,,株式会社,埼玉県,さいたま市西区,大字指扇１３２６番地１７,,11,101,3310047,,,,,,,2025-03-19,1,,,,,ケイファースト,0
1758,8030003026354,新規,0,2025-03-19,2025-03-19,合同会社クローバー,,合同会社,埼玉県,志木市,上宗岡５丁目１８番１８―１００３号,,11,228,3530001,,,,,,,2025-03-19,1,,,,,クローバー,0
1760,8030005022079,新規,0,2025-03-19,2025-03-19,農事組合法人Ｄ１４,,その他の設立登記法人,埼玉県,比企郡滑川町,大字土塩６０９－１,,11,341,3550801,,,,,,,2025-03-19,1,,,,,ディイチヨン,0
1765,8040001137846,新規,0,2025-03-19,2025-03-19,株式会社ちば建物,,株式会社,千葉県,千葉市中央区,富士見１丁目１４番１３号千葉大栄ビル８階,,12,101,2600015,,,,,,,2025-03-19,1,,,,,チバタテモノ,0
1766,8040001137945,新規,0,2025-03-19,2025-03-19,ＳＡＥＩホールディングス株式会社,,株式会社,千葉県,佐倉市,上志津１０３２番地９,,12,212,2850846,,,,,,,2025-03-19,1,,,,,サエイホールディングス,0
1774,8040003027112,新規,0,2025-03-19,2025-03-19,合同会社松本ＴＲトレーディング,,合同会社,千葉県,野田市,中野台７９４番地の１８,,12,208,2780035,,,,,,,2025-03-19,1,,,,,マツモトトレーディング,0
1775,8050003009101,新規,0,2025-03-19,2025-03-19,Ｐａｋ　Ｔｒａｄｉｎｇ合同会社,,合同会社,茨城県,筑西市,藤ケ谷２０９１番地ロマ０８号,,08,227,3080112,,,,,,,2025-03-19,1,,,,,パックトレーディング,0
1776,8050003009126,新規,0,2025-03-19,2025-03-19,合同会社ヤマトツールズ,,合同会社,茨城県,筑西市,西方１０５番地１,,08,227,3080845,,,,,,,2025-03-19,1,,,,,ヤマトツールズ,0
1782,8090001019189,新規,0,2025-03-19,2025-03-19,株式会社Ｙ’ｓシステムサポート,,株式会社,山梨県,北杜市,須玉町若神子６５０番地１,,19,209,4080112,,,,,,,2025-03-19,1,,,,,ワイズシステムサポート,0
1783,8090005007685,新規,0,2025-03-19,2025-03-19,一般社団法人やまなしこども食堂地域食堂サポートセンター,,その他の設立登記法人,山梨県,甲府市,朝気３丁目２３番１号,,19,201,4000862,,,,,,,2025-03-19,1,,,,,ヤマナシコドモショクドウチイキショクドウサポートセンター,0
1785,8100001038419,新規,0,2025-03-19,2025-03-19,株式会社カートリスモ,,株式会社,長野県,中野市,大字三ツ和４８６４番地１,,20,211,3830043,,,,,,,2025-03-19,1,,,,,カートリスモ,0
1787,8110001039127,新規,0,2025-03-19,2025-03-19,株式会社肉スパジャンキー企画,,株式会社,新潟県,佐渡市,沢根２４４９番地２,,15,224,9521435,,,,,,,2025-03-19,1,,,,,ニクスパジャンキーキカク,0
1795,8120001273658,新規,0,2025-03-19,2025-03-19,株式会社家プラス,,株式会社,大阪府,大阪市平野区,瓜破４丁目１番４９－１０７号,,27,126,5470024,,,,,,,2025-03-19,1,,,,,イエプラス,0
1796,8120001273807,新規,0,2025-03-19,2025-03-19,株式会社ヴェルネット不動産販売,,株式会社,大阪府,大阪市阿倍野区,昭和町２丁目２番６号,,27,119,5450011,,,,,,,2025-03-19,1,,,,,ヴェルネットフドウサンハンバイ,0
1797,8120001273864,新規,0,2025-03-19,2025-03-19,株式会社Ｔａｂｉｍａｅ,,株式会社,大阪府,大阪市北区,梅田１丁目２番２号大阪駅前第２ビル１２－１２,,27,127,5300001,,,,,,,2025-03-19,1,,,,,タビマエ,0
1800,8120005024834,新規,0,2025-03-19,2025-03-19,一般社団法人ＷＯＲＬＤ　ＦＥＬＩｘ,,その他の設立登記法人,大阪府,大阪市旭区,高殿６丁目２５番４号３０２号室,,27,117,5350031,,,,,,,2025-03-19,1,,,,,ワールドフィリックス,0
1809,8130003010298,新規,0,2025-03-19,2025-03-19,ＮＳＫＴ合同会社,,合同会社,京都府,京都市山科区,厨子奥長通１１－６７,,26,110,6078455,,,,,,,2025-03-19,1,,,,,エヌエスケーティー,0
1814,8140001137852,新規,0,2025-03-19,2025-03-19,ＳＰＡＣＥ　ＤＥＣＯＮＳＴＲＵＣＴ株式会社,,株式会社,兵庫県,神戸市兵庫区,神田町１２番５号,,28,105,6520006,,,,,,,2025-03-19,1,,,,,スペースデコンストラクト,0
1820,8140003021807,新規,0,2025-03-19,2025-03-19,合同会社ＭＨＤ,,合同会社,兵庫県,姫路市,西夢前台２丁目９４番地,,28,201,6712214,,,,,,,2025-03-19,1,,,,,エムエイチディ,0
1821,8150005009675,新規,0,2025-03-19,2025-03-19,ＮＰＯ法人アングラーズプロジェクト,,その他の設立登記法人,奈良県,大和郡山市,小泉町１９８２番地２８,,29,203,6391042,,,,,,,2025-03-19,1,,,,,アングラーズプロジェクト,0
1824,8180001165965,新規,0,2025-03-19,2025-03-19,愛知テクノス株式会社,,株式会社,愛知県,名古屋市西区,則武新町３丁目１番５０号,,23,104,4510051,,,,,,,2025-03-19,1,,,,,アイチテクノス,0
1825,8180001165981,新規,0,2025-03-19,2025-03-19,ＧＵＴＳ１．０株式会社,,株式会社,愛知県,春日井市,白山町５丁目５番地２０,,23,206,4870034,,,,,,,2025-03-19,1,,,,,ガッツワン,0
1834,8180003028179,新規,0,2025-03-19,2025-03-19,ＹＴＴ＆Ｐ合同会社,,合同会社,愛知県,名古屋市千種区,東山元町４丁目１２番地の２,,23,101,4640804,,,,,,,2025-03-19,1,,,,,ワイティティアンドピー,0
1847,8250001021054,新規,0,2025-03-19,2025-03-19,株式会社ＳｕｍｓＵｐＰｌｕｓ,,株式会社,山口県,長門市,仙崎１５５４番地２,,35,211,7594106,,,,,,,2025-03-19,1,,,,,サムズアッププラス,0
1850,8260005011455,新規,0,2025-03-19,2025-03-19,一般社団法人おかやまＣａＲｅ,,その他の設立登記法人,岡山県,岡山市北区,春日町５番６号,,33,101,7000905,,,,,,,2025-03-19,1,,,,,オカヤマカレ,0
1856,8290001109333,新規,0,2025-03-19,2025-03-19,株式会社ＧＹＵＴＴＯ,,株式会社,福岡県,福岡市博多区,祇園町８番１３号第一プリンスビル１階,,40,132,8120038,,,,,,,2025-03-19,1,,,,,ギュット,0
1857,8290001109341,新規,0,2025-03-19,2025-03-19,株式会社小さな一歩,,株式会社,福岡県,福岡市南区,大橋１丁目１５番６号アルボーレ大橋４Ｆ,,40,134,8150033,,,,,,,2025-03-19,1,,,,,チイサナイッポ,0
1858,8290001109358,新規,0,2025-03-19,2025-03-19,株式会社オレンジロック,,株式会社,福岡県,筑紫野市,大字隈２２３番地,,40,217,8180031,,,,,,,2025-03-19,1,,,,,オレンジロック,0
1859,8290001109366,新規,0,2025-03-19,2025-03-19,株式会社ＷｏｒｌｄＬＩＴ,,株式会社,福岡県,福岡市早良区,原６丁目２９番２７－２０３号プレヌセゾン葉月,,40,137,8140022,,,,,,,2025-03-19,1,,,,,ワールドリット,0
1860,8290001109374,新規,0,2025-03-19,2025-03-19,福岡中日国際貿易株式会社,,株式会社,福岡県,福岡市城南区,飯倉１丁目６番２７－２０５号,,40,136,8140134,,,,,,,2025-03-19,1,,,,,フクオカチュウニチコクサイボウエキ,0
1861,8290001109382,新規,0,2025-03-19,2025-03-19,ＳＥＴ　Ｇｒｏｕｐ　Ｊａｐａｎ株式会社,,株式会社,福岡県,福岡市博多区,博多駅南２丁目８番３２号,,40,132,8120016,,,,,,,2025-03-19,1,,,,,セットグループジャパン,0
1862,8290003016536,新規,0,2025-03-19,2025-03-19,合同会社ｄｏｐｅ,,合同会社,福岡県,糟屋郡粕屋町,長者原東６丁目１３番１８号,,40,349,8112317,,,,,,,2025-03-19,1,,,,,ドープ,0
1863,8290003016544,新規,0,2025-03-19,2025-03-19,合同会社福張,,合同会社,福岡県,福岡市東区,和白丘１丁目２１番７－９０３号,,40,131,8110213,,,,,,,2025-03-19,1,,,,,フクハリ,0
1864,8290003016552,新規,0,2025-03-19,2025-03-19,合同会社ＮＥＵＢＡＵ,,合同会社,福岡県,大川市,大字道海島４７４番地,,40,212,8310007,,,,,,,2025-03-19,1,,,,,ノイバウ,0
1868,8290801031372,新規,0,2025-03-19,2025-03-19,株式会社Ｆ．ｂｙ‐Ｂｉｓ,,株式会社,福岡県,北九州市八幡西区,熊手３丁目３番１４号,,40,109,8060028,,,,,,,2025-03-19,1,,,,,エフバイビス,0
1872,8320001020998,新規,0,2025-03-19,2025-03-19,株式会社ＰＥＮＭＹ,,株式会社,大分県,別府市,大字鶴見４０２４番地７３,,44,202,8740840,,,,,,,2025-03-19,1,,,,,ペンミー,0
1885,8360003014763,新規,0,2025-03-19,2025-03-19,Ｔｈｅ・Ｏｒｉｅｎｔａｌ・Ｃｌｕｂ合同会社,,合同会社,沖縄県,那覇市,牧志２丁目１７番２４号４０１,,47,201,9000013,,,,,,,2025-03-19,1,,,,,ザオリエンタルクラブ,0
1892,8380005012929,新規,0,2025-03-19,2025-03-19,一般社団法人一知花,,その他の設立登記法人,福島県,白河市,田島香取１番地,,07,205,9610015,,,,,,,2025-03-19,1,,,,,イチカ,0
1900,8430001093959,新規,0,2025-03-19,2025-03-19,株式会社ＺＥＡＬ,,株式会社,北海道,札幌市中央区,大通西１６丁目２－１５大通ガーデンヒルズ３０３号室,,01,101,0600042,,,,,,,2025-03-19,1,,,,,ジール,0
1902,8430003017412,新規,0,2025-03-19,2025-03-19,合同会社ＴＩＣＫＥＴＳ,,合同会社,北海道,札幌市東区,北四十条東９丁目２番３号,,01,103,0070840,,,,,,,2025-03-19,1,,,,,チケッツ,0
1904,8480005007068,新規,0,2025-03-19,2025-03-19,一般社団法人Ｓｐｏｒｔ　Ｌｉｎｋ,,その他の設立登記法人,徳島県,名西郡石井町,石井字石井２０８番地３５,,36,341,7793233,,,,,,,2025-03-19,1,,,,,スポーツリンク,0
1916,9010001252390,新規,0,2025-03-19,2025-03-19,ＣｏｓｍｏＳｔｒａｔｅｇｉｅｓ株式会社,,株式会社,東京都,千代田区,丸の内１丁目８－１丸の内トラストタワーＮ館１９階,,13,101,1000005,,,,,,,2025-03-19,1,,,,,コスモストラテジーズ,0
1917,9010001252952,新規,0,2025-03-19,2025-03-19,株式会社ビタマイズ,,株式会社,東京都,中央区,日本橋人形町２丁目２５番１５号,,13,102,1030013,,,,,,,2025-03-19,1,,,,,ビタマイズ,0
1918,9010001253109,新規,0,2025-03-19,2025-03-19,株式会社ＡＩ,,株式会社,東京都,千代田区,神田三崎町３丁目３番３号太陽ビル３０２,,13,101,1010061,,,,,,,2025-03-19,1,,,,,エーアイ,0
1919,9010001253125,新規,0,2025-03-19,2025-03-19,株式会社ＡＲＡ　ＰＩＡＮＯ,,株式会社,東京都,中央区,銀座１丁目１２－４Ｎ＆ＥＢＬＤ．７階,,13,102,1040061,,,,,,,2025-03-19,1,,,,,アラピアノ,0
1920,9010001253199,新規,0,2025-03-19,2025-03-19,株式会社ＧＳＤ,,株式会社,東京都,中央区,銀座１丁目２０－２,,13,102,1040061,,,,,,,2025-03-19,1,,,,,ジーエスディー,0
1921,9010001253331,新規,0,2025-03-19,2025-03-19,ＮｅＸＰｏｗｅｒ　Ｊａｐａｎ株式会社,,株式会社,東京都,千代田区,麹町４丁目４－５麹町シャインビル６０１,00138398,13,101,1020083,,,,,,,2025-03-19,1,,,,,ネクスパワージャパン,0
1927,9010003046782,新規,0,2025-03-19,2025-03-19,ｍｏｄｅ１１合同会社,,合同会社,東京都,千代田区,神田佐久間町３丁目２１番５号ヒガシカンダビル３０７,,13,101,1010025,,,,,,,2025-03-19,1,,,,,モードイレブン,0
1928,9010003046824,新規,0,2025-03-19,2025-03-19,ソーラークローバー合同会社,,合同会社,東京都,千代田区,紀尾井町４番１号ニューオータニガーデンコート１９階フィンポート税理士法人内,,13,101,1020094,,,,,,,2025-03-19,1,,,,,ソーラークローバー,0
1935,9010401188904,新規,0,2025-03-19,2025-03-19,アリアナ・コンサルティング株式会社,,株式会社,東京都,港区,愛宕２丁目５番１号愛宕グリーンヒルズＭＯＲＩタワー２７階,,13,103,1050002,,,,,,,2025-03-19,1,,,,,アリアナコンサルティング,0
1936,9010401188937,新規,0,2025-03-19,2025-03-19,株式会社秡川,,株式会社,東京都,港区,白金台５丁目１８番５号スペランサ白金台５Ｆ,,13,103,1080071,,,,,,,2025-03-19,1,,,,,ハライカワ,0
1937,9010401188994,新規,0,2025-03-19,2025-03-19,Ｍｕｌｔｉｃｏｒｐ株式会社,,株式会社,東京都,港区,芝浦３丁目１７番１１号天翔田町ビル３階３０８号室,,13,103,1080023,,,,,,,2025-03-19,1,,,,,マルチコープ,0
1938,9010401189035,新規,0,2025-03-19,2025-03-19,介護福祉総研株式会社,,株式会社,東京都,港区,南青山５丁目１７番２号,,13,103,1070062,,,,,,,2025-03-19,1,,,,,カイゴフクシソウケン,0
1939,9010403034643,新規,0,2025-03-19,2025-03-19,合同会社バーバー,,合同会社,東京都,港区,赤坂２丁目１３番１号,,13,103,1070052,,,,,,,2025-03-19,1,,,,,バーバー,0
1940,9010403034684,新規,0,2025-03-19,2025-03-19,インダストリアルドライブ合同会社,,合同会社,東京都,港区,浜松町２丁目２番１５号浜松町ダイヤビル２Ｆ,,13,103,1050013,,,,,,,2025-03-19,1,,,,,インダストリアルドライブ,0
1941,9010601066983,新規,0,2025-03-19,2025-03-19,ターンイン株式会社,,株式会社,東京都,墨田区,向島２丁目１３番１０－１００２号アーデル向島アヴァンセア,,13,107,1310033,,,,,,,2025-03-19,1,,,,,ターンイン,0
1942,9010601066991,新規,0,2025-03-19,2025-03-19,株式会社ＩＤＫ＆Ｃｏｍｐａｎｙ,,株式会社,東京都,江東区,豊洲２丁目５－１－１３１２,,13,108,1350061,,,,,,,2025-03-19,1,,,,,アイディーケーアンドカンパニー,0
1943,9010603011426,新規,0,2025-03-19,2025-03-19,ＴＩＧＥＲ　ＮＵＴＳ合同会社,,合同会社,東京都,江東区,東雲１丁目９番１６－９１３号,,13,108,1350062,,,,,,,2025-03-19,1,,,,,タイガーナッツ,0
1944,9010701047396,新規,0,2025-03-19,2025-03-19,株式会社ＹＥＬＬ,,株式会社,東京都,品川区,大崎４丁目１番６号,,13,109,1410032,,,,,,,2025-03-19,1,,,,,エール,0
1945,9010701047446,新規,0,2025-03-19,2025-03-19,ネクストドライブパートナーズ株式会社,,株式会社,東京都,品川区,東五反田４丁目３番２４号,,13,109,1410022,,,,,,,2025-03-19,1,,,,,ネクストドライブパートナーズ,0
1951,9011001168214,新規,0,2025-03-19,2025-03-19,株式会社ＰａＧ,,株式会社,東京都,渋谷区,恵比寿西２丁目４番８号ウィンド恵比寿ビル８Ｆ,,13,113,1500021,,,,,,,2025-03-19,1,,,,,パグ,0
1952,9011001168263,新規,0,2025-03-19,2025-03-19,株式会社代々木システムズ,,株式会社,東京都,渋谷区,道玄坂１丁目１０番８号渋谷道玄坂東急ビル２Ｆ－Ｃ,,13,113,1500043,,,,,,,2025-03-19,1,,,,,ヨヨギシステムズ,0
1953,9011001168321,新規,0,2025-03-19,2025-03-19,ＶＩＳＩＯＮ株式会社,,株式会社,東京都,渋谷区,円山町２４－５メゾンブランシュ神泉１０３号室,,13,113,1500044,,,,,,,2025-03-19,1,,,,,ビジョン,0
1954,9011003021164,新規,0,2025-03-19,2025-03-19,ＭＡＲＫＥＢＲＡＩＮ合同会社,,合同会社,東京都,渋谷区,神南１丁目１１－４,,13,113,1500041,,,,,,,2025-03-19,1,,,,,マーケブレイン,0
1959,9011101110959,新規,0,2025-03-19,2025-03-19,株式会社リノオウル,,株式会社,東京都,新宿区,新宿１丁目２７番１号,,13,104,1600022,,,,,,,2025-03-19,1,,,,,リノオウル,0
1960,9011101111008,新規,0,2025-03-19,2025-03-19,ＺＯＥＭＩ株式会社,,株式会社,東京都,新宿区,百人町１丁目１８－８大久保カドビルＬｉｎｋＳｐａｃｅ百人町Ｓ０２,,13,104,1690073,,,,,,,2025-03-19,1,,,,,ゾエミ,0
1964,9011301030445,新規,0,2025-03-19,2025-03-19,株式会社Ｌｉｂｅｒａ　Ｌｉｎｋ,,株式会社,東京都,杉並区,高円寺北３丁目２３番１２号オーク・タワー高円寺８階,,13,115,1660002,,,,,,,2025-03-19,1,,,,,リベラリンク,0
1965,9011305003034,新規,0,2025-03-19,2025-03-19,医療法人社団ＳＩＢＹＬ,,その他の設立登記法人,東京都,杉並区,西荻北２丁目２番１７号西荻北エイフラッツビル４階,,13,115,1670042,,,,,,,2025-03-19,1,,,,,シビル,0
1969,9011701028155,新規,0,2025-03-19,2025-03-19,株式会社カノープス,,株式会社,東京都,江戸川区,西葛西５丁目８番２４－３０７号,,13,123,1340088,,,,,,,2025-03-19,1,,,,,カノープス,0
1970,9011801045793,新規,0,2025-03-19,2025-03-19,株式会社スターウェイ,,株式会社,東京都,葛飾区,亀有１丁目２２番１７号内田ビル１Ｆ,,13,122,1250061,,,,,,,2025-03-19,1,,,,,スターウェイ,0
1971,9011801045827,新規,0,2025-03-19,2025-03-19,株式会社ＫＲＡＦＴ,,株式会社,東京都,足立区,谷在家２丁目２２番６号,,13,121,1230863,,,,,,,2025-03-19,1,,,,,クラフト,0
1974,9011803006744,新規,0,2025-03-19,2025-03-19,合同会社ＦＡ,,合同会社,東京都,足立区,千住仲町１８番１４－２０４号ルネモア北千住,,13,121,1200036,,,,,,,2025-03-19,1,,,,,エフエー,0
1978,9013101009652,新規,0,2025-03-19,2025-03-19,株式会社三峰建設,,株式会社,東京都,福生市,加美平１丁目１８番地２９,,13,218,1970012,,,,,,,2025-03-19,1,,,,,ミツミネ,0
1987,9020001161987,新規,0,2025-03-19,2025-03-19,株式会社Ｌｅａｐ,,株式会社,神奈川県,横浜市青葉区,青葉台１丁目５‐４青葉台サンクスビル３Ｆ３３号室,,14,117,2270062,,,,,,,2025-03-19,1,,,,,リープ,0
1998,9021001084765,新規,0,2025-03-19,2025-03-19,株式会社川村工務店,,株式会社,神奈川県,座間市,広野台１丁目２６番３－３０７号,,14,216,2520012,,,,,,,2025-03-19,1,,,,,カワムラコウムテン,0
2000,9021003015743,新規,0,2025-03-19,2025-03-19,合同会社山口商事,,合同会社,神奈川県,厚木市,飯山南２丁目３３－２,,14,212,2430218,,,,,,,2025-03-19,1,,,,,ヤマグチショウジ,0
2001,9021003015751,新規,0,2025-03-19,2025-03-19,合同会社相模企画,,合同会社,神奈川県,相模原市中央区,相模原２丁目２番１６号ルネッサンスプラザ６階,,14,152,2520231,,,,,,,2025-03-19,1,,,,,サガミキカク,0
2005,9030001165244,新規,0,2025-03-19,2025-03-19,株式会社Ｔｏｐ　Ｇｅａｒ,,株式会社,埼玉県,入間市,大字南峯字東外野７５４－１,,11,225,3580046,,,,,,,2025-03-19,1,,,,,トップギア,0
2006,9030001165517,新規,0,2025-03-19,2025-03-19,株式会社プレシャス,,株式会社,埼玉県,川口市,芝樋ノ爪１丁目９番２７号芝樋ノ爪第一コーポ１０６,,11,203,3330852,,,,,,,2025-03-19,1,,,,,プレシャス,0
2008,9030003026345,新規,0,2025-03-19,2025-03-19,Ｆｕｓｉｏｎ　Ｃｒｅｓｔ合同会社,,合同会社,埼玉県,戸田市,喜沢１丁目３３－６ハイネス喜沢２０４号室,,11,224,3350013,,,,,,,2025-03-19,1,,,,,フュージョンクレスト,0
2010,9030005022078,新規,0,2025-03-19,2025-03-19,農事組合法人Ｄ１５,,その他の設立登記法人,埼玉県,比企郡滑川町,大字土塩６０９－１,,11,341,3550801,,,,,,,2025-03-19,1,,,,,ディイゴ,0
2015,9040001137795,新規,0,2025-03-19,2025-03-19,株式会社グランクレイス,,株式会社,千葉県,市川市,市川１丁目７番１５号,,12,203,2720034,,,,,,,2025-03-19,1,,,,,グランクレイス,0
2016,9040001137845,新規,0,2025-03-19,2025-03-19,Ｅ‐Ｎｅｘｕｓ株式会社,,株式会社,千葉県,佐倉市,王子台２丁目２６番１２号東丘ビル４０２,,12,212,2850837,,,,,,,2025-03-19,1,,,,,イーネクサス,0
2019,9040005022688,新規,0,2025-03-19,2025-03-19,ＮＩＣＨＥ姉ヶ崎一般社団法人,,その他の設立登記法人,千葉県,市原市,姉崎西１丁目１１番地３２,,12,219,2990119,,,,,,,2025-03-19,1,,,,,ニッチアネガサキ,0
2023,9060001038034,新規,0,2025-03-19,2025-03-19,株式会社フォーミカ,,株式会社,栃木県,那須塩原市,北赤田１５８９番地２２,,09,213,3292741,,,,,,,2025-03-19,1,,,,,フォーミカ,0
2039,9110003005704,新規,0,2025-03-19,2025-03-19,合同会社ＩｂｉｓＮＩＩＧＡＴＡ,,合同会社,新潟県,三条市,帯織２３４２番地２,,15,204,9591117,,,,,,,2025-03-19,1,,,,,アイビスニイガタ,0
2047,9120001273541,新規,0,2025-03-19,2025-03-19,物格株式会社,,株式会社,大阪府,大阪市大正区,三軒家西３丁目４番１６号中山ビル１０４３,,27,108,5510001,,,,,,,2025-03-19,1,,,,,ブツカク,0
2048,9120001273822,新規,0,2025-03-19,2025-03-19,甲子株式会社,,株式会社,大阪府,大阪市西区,九条２丁目１７番１２号九条二丁目明人ビル２０１,,27,106,5500027,,,,,,,2025-03-19,1,,,,,コウシ,0
2049,9120001273863,新規,0,2025-03-19,2025-03-19,株式会社ｓｏｐｉａ,,株式会社,大阪府,大阪市中央区,南船場３丁目１番１６号日宝ラッキービル５階６号室,,27,128,5420081,,,,,,,2025-03-19,1,,,,,ソピア,0
2052,9120003028885,新規,0,2025-03-19,2025-03-19,合同会社リプライエ,,合同会社,大阪府,大阪市北区,梅田１丁目２番２号大阪駅前第２ビル１２－１２,,27,127,5300001,,,,,,,2025-03-19,1,,,,,リプライエ,0
2053,9120003028893,新規,0,2025-03-19,2025-03-19,翌日通商合同会社,,合同会社,大阪府,大阪市西成区,萩之茶屋１丁目１２番７号万葉ビル８８号室,,27,122,5570004,,,,,,,2025-03-19,1,,,,,ヨクジツツウショウ,0
2054,9120003028902,新規,0,2025-03-19,2025-03-19,合同会社ＨＩ５,,合同会社,大阪府,大阪市西区,江戸堀１丁目６－１７Ｄグラフォート大阪Ｎ．Ｙ．タワーＨＩＧＯＢＡＳＨＩ２１０６号室,,27,106,5500002,,,,,,,2025-03-19,1,,,,,ハイファイブ,0
2063,9120901050593,新規,0,2025-03-19,2025-03-19,株式会社Ｓｈｉｋｕｍｉ‐ｍａｋｅｒ,,株式会社,大阪府,池田市,渋谷３丁目８番４号,,27,204,5630028,,,,,,,2025-03-19,1,,,,,シクミメーカー,0
2064,9120901050602,新規,0,2025-03-19,2025-03-19,株式会社ＰＳカンパニー,,株式会社,大阪府,箕面市,稲２丁目２番１５号,,27,220,5620015,,,,,,,2025-03-19,1,,,,,ピーエスカンパニー,0
2074,9130003010297,新規,0,2025-03-19,2025-03-19,ケミカルリソース合同会社,,合同会社,京都府,乙訓郡大山崎町,字大山崎小字永福寺１２番地３４,,26,303,6180071,,,,,,,2025-03-19,1,,,,,ケミカルリソース,0
2092,9180001165980,新規,0,2025-03-19,2025-03-19,株式会社ＣｒｏｓｓＵｎｉｏｎ,,株式会社,愛知県,名古屋市中村区,名駅３丁目４－１０アルティメイト名駅１ｓｔ２階,,23,105,4500002,,,,,,,2025-03-19,1,,,,,クロスユニオン,0
2099,9180003028120,新規,0,2025-03-19,2025-03-19,ソーシャル・ポリネーターズ合同会社,,合同会社,愛知県,名古屋市南区,弥生町２２０番地の２,,23,112,4570027,,,,,,,2025-03-19,1,,,,,ソーシャルポリネーターズ,0
2104,9200003006742,新規,0,2025-03-19,2025-03-19,合同会社ブルーピラミッド,,合同会社,岐阜県,土岐市,泉町河合９０８番地１,,21,212,5095101,,,,,,,2025-03-19,1,,,,,ブルーピラミッド,0
2114,9240001064672,新規,0,2025-03-19,2025-03-19,株式会社桜魅,,株式会社,広島県,東広島市,西条町助実２６６番地２,,34,212,7390021,,,,,,,2025-03-19,1,,,,,オウミ,0
2116,9250001021053,新規,0,2025-03-19,2025-03-19,株式会社ひよし会,,株式会社,山口県,下関市,椋野町３丁目２１番６号,,35,201,7510816,,,,,,,2025-03-19,1,,,,,ヒヨシカイ,0
2118,9260001040028,新規,0,2025-03-19,2025-03-19,株式会社ＭＯＲＩＹＡ,,株式会社,岡山県,岡山市南区,藤田５５９番地８,,33,104,7010221,,,,,,,2025-03-19,1,,,,,モリヤ,0
2121,9290001109299,新規,0,2025-03-19,2025-03-19,株式会社ＫＥＲＡＮ,,株式会社,福岡県,福岡市博多区,吉塚５丁目１１番１８－３０３号,,40,132,8120041,,,,,,,2025-03-19,1,,,,,,0
2122,9290001109308,新規,0,2025-03-19,2025-03-19,株式会社Ｋ・ＧＯＬＤ,,株式会社,福岡県,福岡市南区,西長住３丁目２３－３ボラブール西長住３０６,,40,134,8111361,,,,,,,2025-03-19,1,,,,,ケイゴールド,0
2123,9290001109373,新規,0,2025-03-19,2025-03-19,星正園株式会社,,株式会社,福岡県,八女市,星野村９６２番地１,,40,210,8340201,,,,,,,2025-03-19,1,,,,,セイショウエン,0
2125,9290003016543,新規,0,2025-03-19,2025-03-19,ＮＩＮＥＬＩＮＫＳ合同会社,,合同会社,福岡県,福岡市中央区,天神２丁目３番１０号天神パインクレスト７１９号,,40,133,8100001,,,,,,,2025-03-19,1,,,,,ナインリンクス,0
2126,9290003016551,新規,0,2025-03-19,2025-03-19,合同会社ほけんセーブ,,合同会社,福岡県,福岡市南区,井尻２丁目１９－１２－２１１号,,40,134,8111302,,,,,,,2025-03-19,1,,,,,ホケンセーブ,0
2128,9290803005002,新規,0,2025-03-19,2025-03-19,リバース合同会社,,合同会社,福岡県,北九州市小倉北区,浅野１丁目１－１ビエラ小倉１Ｆ　ＤＩＳＣＯＶＥＲＹ－１５７号,,40,106,8020001,,,,,,,2025-03-19,1,,,,,リバース,0
2131,9330001032991,新規,0,2025-03-19,2025-03-19,株式会社昇輝,,株式会社,熊本県,熊本市東区,昭和町２番２１号,,43,102,8612108,,,,,,,2025-03-19,1,,,,,ショウキ,0
2133,9330003010896,新規,0,2025-03-19,2025-03-19,合同会社ＨＯＤＬ　ｉｎｎｏｖａｔｉｏｎｓ,,合同会社,熊本県,八代市,上日置町４７９１－２－７０２,,43,202,8660824,,,,,,,2025-03-19,1,,,,,ホドルイノベーションズ,0
2143,9360003014787,新規,0,2025-03-19,2025-03-19,合同会社金城設備,,合同会社,沖縄県,糸満市,字真栄平２１５番地,,47,210,9010331,,,,,,,2025-03-19,1,,,,,キンジョウセツビ,0
2149,9380005012936,新規,0,2025-03-19,2025-03-19,農事組合法人Ｎｅｏ‐ライスファクトリー,,その他の設立登記法人,福島県,郡山市,逢瀬町多田野字本郷１３５番地,00138390,07,203,9630213,,,,,,,2025-03-19,1,,,,,ネオライスファクトリー,0
2157,9430001093966,新規,0,2025-03-19,2025-03-19,株式会社コガネテック,,株式会社,北海道,札幌市中央区,北八条西１３丁目２８番２１号,,01,101,0600008,,,,,,,2025-03-19,1,,,,,コガネテック,0
2161,9430003017411,新規,0,2025-03-19,2025-03-19,合同会社台本の学校,,合同会社,北海道,札幌市中央区,南二条西５丁目３１－１ＲＭＢｌｄ．７０１,,01,101,0600062,,,,,,,2025-03-19,1,,,,,ダイホンノガッコウ,0
2168,9500001026200,新規,0,2025-03-19,2025-03-19,株式会社ＴＲＵＳＴ　ＬＩＮＫ,,株式会社,愛媛県,松山市,中央１丁目１２番８号,,38,201,7918015,,,,,,,2025-03-19,1,,,,,トラストリンク,0
2169,9500001026209,新規,0,2025-03-19,2025-03-19,２ｎｄ　ｂａｓｅ株式会社,,株式会社,愛媛県,松山市,小栗５丁目６番４０号アルファスマート雄郡１２０３号,,38,201,7900036,,,,,,,2025-03-19,1,,,,,セカンドベース,0
