sequenceNumber,corporateNumber,process,correct,updateDate,changeDate,name,nameImageId,kind,prefectureName,cityName,streetNumber,addressImageId,prefectureCode,cityCode,postCode,addressOutside,addressOutsideImageId,closeDate,closeCause,successorCorporateNumber,changeCause,assignmentDate,latest,enName,enPrefectureName,enCityName,enAddressOutside,furigana,hihyoji
20,1010405014634,登記記録の閉鎖等,0,2026-02-13,2026-01-21,ＲＷ加須２一般社団法人,,その他の設立登記法人,東京都,港区,赤坂２丁目１０番５号デロイトトーマツ赤坂インターナショナル株式会社内,,13,103,1070052,,,2026-01-21,清算の結了等,,,2016-03-04,1,,,,,アールダブリューカゾツー,0
21,1010501035063,登記記録の閉鎖等,0,2026-02-13,2026-01-23,樋口鞄工房株式会社,,株式会社,東京都,港区,赤坂５丁目２番２０号赤坂パークビル１８階,,13,103,1070052,,,2026-01-23,合併による解散等,3010401187028,令和８年１月１日東京都港区赤坂五丁目２番２０号赤坂パークビル１８階株式会社ＳＨＩＦＦＯＮ（3010401187028）に合併し解散,2015-10-05,1,,,,,ヒグチカバンコウボウ,0
27,1010901029557,登記記録の閉鎖等,0,2026-02-13,2026-02-06,株式会社左夢,,株式会社,東京都,世田谷区,成城７丁目５番３号,,13,112,1570066,,,2026-02-06,清算の結了等,,,2015-10-05,1,,,,,,0
29,1010903010267,登記記録の閉鎖等,0,2026-02-13,2026-02-05,Ｃｌａｖｅｒｅ合同会社,,合同会社,東京都,世田谷区,玉川３丁目２０番２号マノア玉川第３ビル５０１号室,,13,112,1580094,,,2026-02-05,清算の結了等,,,2025-09-24,1,,,,,クラヴェール,0
35,1011001134413,登記記録の閉鎖等,0,2026-02-13,2026-01-22,株式会社ＭＩＤＡＳ,,株式会社,東京都,渋谷区,桜丘町２３番１７号シティコート桜丘４０８,,13,113,1500031,,,2026-01-22,清算の結了等,,,2020-06-23,1,,,,,マイダス,0
42,1011003021618,登記記録の閉鎖等,0,2026-02-13,2026-01-20,合同会社共栄リンクス,,合同会社,東京都,渋谷区,神南１丁目１１－４ＦＰＧリンクス神南５階,,13,113,1500041,,,2026-01-20,清算の結了等,,,2025-05-14,1,,,,,キョウエイリンクス,0
69,1011501027505,登記記録の閉鎖等,0,2026-02-13,2026-02-06,東祥産業株式会社,,株式会社,東京都,北区,豊島３丁目９番１６号,,13,117,1140003,,,2026-02-06,清算の結了等,,,2021-11-25,1,,,,,トウショウサンギョウ,0
72,1011801040587,登記記録の閉鎖等,0,2026-02-13,2026-02-06,和島商事株式会社,,株式会社,東京都,足立区,中央本町４丁目１３番１９－２０４号,,13,121,1210011,,,2026-02-06,清算の結了等,,,2022-04-15,1,,,,,ワジマショウジ,0
77,1020001044027,登記記録の閉鎖等,0,2026-02-13,2026-01-14,ティーエムディー・フリクション・ジャパン株式会社,,株式会社,東京都,中央区,日本橋人形町２丁目３１番１１号,,13,102,1030013,,,2026-01-14,清算の結了等,,,2015-10-05,1,,,,,ティーエムディーフリクションジャパン,0
103,1030005000116,登記記録の閉鎖等,0,2026-02-13,2025-10-03,天理教東栄和分教会,,その他の設立登記法人,埼玉県,さいたま市浦和区,元町３丁目２８番５号,,11,107,3300073,,,2025-10-03,合併による解散等,2240005000449,令和７年９月２９日広島県広島市安佐北区亀山九丁目１２番５４号天理教江波分教会（2240005000449）に合併し解散,2015-10-05,1,,,,,,0
104,1040001014985,登記記録の閉鎖等,0,2026-02-13,2026-01-26,幸和精機産業株式会社,,株式会社,千葉県,習志野市,袖ケ浦１丁目９番９号,,12,216,2750021,,,2026-01-26,清算の結了等,,,2015-10-05,1,,,,,コウワセイキサンギョウ,0
125,1080101020517,登記記録の閉鎖等,0,2026-02-13,2026-02-09,株式会社白壁荘,,株式会社,静岡県,伊豆市,湯ケ島１５９４番地,,22,222,4103206,,,2026-02-09,清算の結了等,,,2018-06-01,1,,,,,シラカベソウ,0
127,1080402009762,登記記録の閉鎖等,0,2026-02-13,2026-02-09,有限会社ワイ・ワイ企画,,有限会社,静岡県,湖西市,新居町中之郷３９４２番地,,22,221,4310301,,,2026-02-09,清算の結了等,,,2015-10-05,1,,,,,ワイワイキカク,0
140,1120001070483,登記記録の閉鎖等,0,2026-02-13,2026-02-09,株式会社毎日文化センター,,株式会社,大阪府,大阪市北区,梅田３丁目４番５号,,27,127,5300001,,,2026-02-09,合併による解散等,6120001070470,令和８年２月１日大阪市北区梅田三丁目４番５号毎日新聞大阪開発株式会社（6120001070470）に合併し解散,2015-10-05,1,,,,,マイニチブンカセンター,0
144,1120001215963,登記記録の閉鎖等,0,2026-02-13,2026-02-06,栄畿株式会社,,株式会社,大阪府,大阪市西区,江之子島１丁目７番３－１４０１号,,27,106,5500006,,,2026-02-06,清算の結了等,,,2018-09-21,1,,,,,エイキ,0
146,1120001268680,登記記録の閉鎖等,0,2026-02-13,2026-02-06,宝成株式会社,,株式会社,大阪府,大阪市北区,樋之口町１番２０－３５１６号,,27,127,5300032,,,2026-02-06,清算の結了等,,,2024-09-24,1,,,,,ホウセイ,0
164,1140001019025,登記記録の閉鎖等,0,2026-02-13,2026-02-10,株式会社関西八洋,,株式会社,兵庫県,神戸市東灘区,向洋町中１丁目１番地１４１号棟１２２１号室,,28,101,6580032,,,2026-02-10,合併による解散等,6290001036645,令和８年２月１日福岡県糟屋郡新宮町上府北四丁目１番１号八洋食品株式会社（6290001036645）に合併し解散,2015-10-05,1,,,,,カンサイハチヨウ,0
186,1210001011362,登記記録の閉鎖等,0,2026-02-13,2026-02-10,株式会社ＴＭＳ,,株式会社,福井県,三方上中郡若狭町,堤第１８号９番地,,18,501,9191553,,,2026-02-10,清算の結了等,,,2015-10-05,1,,,,,ティーエムエス,0
206,1290801023104,登記記録の閉鎖等,0,2026-02-13,2026-01-28,株式会社オフィスＫ,,株式会社,福岡県,北九州市小倉北区,熊本２丁目８番２４－１５０２号,,40,106,8020044,,,2026-01-28,清算の結了等,,,2016-12-09,1,,,,,オフィスケイ,0
213,1330003009830,登記記録の閉鎖等,0,2026-02-13,2026-02-05,合同会社常徳商事,,合同会社,熊本県,人吉市,上林町７４１番地２,,43,203,8680081,,,2026-02-05,清算の結了等,,,2023-05-09,1,,,,,ジョウトクショウジ,0
224,1360005004265,登記記録の閉鎖等,0,2026-02-13,2026-02-09,一般社団法人沖縄県しろあり対策協会,,その他の設立登記法人,沖縄県,那覇市,与儀２丁目１４番３号,,47,201,9020076,,,2026-02-09,清算の結了等,,,2015-10-05,1,,,,,オキナワケンシロアリタイサクキョウカイ,0
246,1490003001887,登記記録の閉鎖等,0,2026-02-13,2026-02-09,合同会社いとなみ舎,,合同会社,高知県,土佐清水市,津呂２６番地１,,39,209,7870313,,,2026-02-09,清算の結了等,,,2024-04-30,1,,,,,イトナミシャ,0
256,2010001202963,登記記録の閉鎖等,0,2026-02-13,2026-01-23,Ｒｅｖｉｔａｌｉｚａｔｉｏｎ　Ｇａｍｅｓ株式会社,,株式会社,東京都,中央区,日本橋３丁目９番１号日本橋三丁目スクエア１１階,,13,102,1030027,,,2026-01-23,清算の結了等,,,2019-08-02,1,,,,,レヴィタリゼーションゲームズ,0
266,2010002004260,登記記録の閉鎖等,0,2026-02-13,2026-01-26,有限会社トス,,有限会社,東京都,文京区,小日向２丁目２５番２２－３０４号,,13,105,1120006,,,2026-01-26,清算の結了等,,,2015-10-05,1,,,,,トス,0
291,2011001111221,登記記録の閉鎖等,0,2026-02-13,2026-01-22,株式会社オフィス坂,,株式会社,東京都,港区,西麻布４丁目１５番２号レジディア西麻布１２０２号,,13,103,1060031,,,2026-01-22,清算の結了等,,,2016-06-09,1,,,,,オフィスサカ,0
304,2011003019512,登記記録の閉鎖等,0,2026-02-13,2026-01-20,モントンリーパー合同会社,,合同会社,東京都,目黒区,自由が丘２丁目１６番１２号ＲＪ３,,13,110,1520035,,,2026-01-20,清算の結了等,,,2024-07-03,1,,,,,モントンリーパー,0
310,2011005003811,登記記録の閉鎖等,0,2026-02-13,2026-02-04,一般社団法人全国環境生物対策協会,,その他の設立登記法人,埼玉県,さいたま市見沼区,大和田町１丁目１９１７番地１,,11,104,3370053,,,2026-02-04,清算の結了等,,,2015-10-05,1,,,,,ゼンコクカンキョウセイブツタイサクキョウカイ,0
330,2013303001661,登記記録の閉鎖等,0,2026-02-13,2026-02-05,合同会社インスパイア,,合同会社,埼玉県,戸田市,大字新曽７９０番地の６,,11,224,3350021,,,2026-02-05,清算の結了等,,,2015-10-05,1,,,,,インスパイア,0
333,2020001091480,登記記録の閉鎖等,0,2026-02-13,2026-02-09,株式会社ＧＥＮＫＩ,,株式会社,神奈川県,横浜市港北区,新吉田町５５９２番地１,,14,109,2230056,,,2026-02-09,清算の結了等,,,2015-10-05,1,,,,,,0
335,2020001119109,登記記録の閉鎖等,0,2026-02-13,2026-02-09,株式会社信和,,株式会社,神奈川県,横浜市鶴見区,鶴見中央２丁目２０番１号,,14,101,2300051,,,2026-02-09,清算の結了等,,,2016-12-15,1,,,,,シンワ,0
348,2030001054387,登記記録の閉鎖等,0,2026-02-13,2026-02-05,株式会社エイピーコーポレーション,,株式会社,埼玉県,川越市,六軒町２丁目２３番地９,,11,201,3500041,,,2026-02-05,清算の結了等,,,2015-10-05,1,,,,,エイピーコーポレーション,0
350,2030001122540,登記記録の閉鎖等,0,2026-02-13,2026-02-04,株式会社ケイト,,株式会社,埼玉県,飯能市,大字南川６５９番地１０,,11,209,3570217,,,2026-02-04,合併による解散等,6030001023719,令和８年２月１日埼玉県所沢市日吉町４番３号栄進興業株式会社（6030001023719）に合併し解散,2017-10-13,1,,,,,ケイト,0
360,2030005003869,登記記録の閉鎖等,0,2026-02-13,2026-02-04,入間市土地開発公社,,その他の設立登記法人,埼玉県,入間市,豊岡１丁目１６番１号,,11,225,3580003,,,2026-02-04,清算の結了等,,,2015-10-05,1,,,,,イルマシ,0
390,2120001044825,登記記録の閉鎖等,0,2026-02-13,2026-02-06,大一運輸株式会社,,株式会社,大阪府,大阪市西成区,北津守２丁目６番７２号,,27,122,5570061,,,2026-02-06,清算の結了等,,,2015-10-05,1,,,,,ダイイチウンユ,0
419,2120005006037,登記記録の閉鎖等,0,2026-02-13,2026-02-09,大日本交通事業協同組合,,その他の設立登記法人,大阪府,大阪市北区,堂山町１５番２号,,27,127,5300027,,,2026-02-09,清算の結了等,,,2015-10-05,1,,,,,ダイニホンコウツウジギョウ,0
426,2120902008119,登記記録の閉鎖等,0,2026-02-13,2026-02-09,有限会社ルナパーク,,有限会社,大阪府,吹田市,津雲台３丁目１２番９号,,27,205,5650862,,,2026-02-09,清算の結了等,,,2015-10-05,1,,,,,ルナパーク,0
433,2140002063632,登記記録の閉鎖等,0,2026-02-13,2026-02-09,有限会社ジャストグリーン,,有限会社,兵庫県,伊丹市,東野４丁目１１番地の４１,,28,207,6640004,,,2026-02-09,清算の結了等,,,2015-10-05,1,,,,,ジャストグリーン,0
439,2180001022577,登記記録の閉鎖等,0,2026-02-13,2026-02-09,日本電弧興業株式会社,,株式会社,愛知県,名古屋市熱田区,一番２丁目２６番９号,,23,109,4560053,,,2026-02-09,清算の結了等,,,2015-10-05,1,,,,,ニホンデンココウギョウ,0
453,2180005013606,登記記録の閉鎖等,0,2026-02-13,2026-02-09,医療法人たご耳鼻咽喉科,,その他の設立登記法人,愛知県,津島市,蛭間町字宮重５５７番地,,23,208,4960004,,,2026-02-09,清算の結了等,,,2015-10-05,1,,,,,タゴジビインコウカ,0
455,2180303006204,登記記録の閉鎖等,0,2026-02-13,2026-02-09,合同会社ＬＨＴ,,合同会社,愛知県,豊田市,泉町山田１９８－８３,,23,211,4710803,,,2026-02-09,清算の結了等,,,2024-07-24,1,,,,,エルエイチティー,0
460,2200001028976,登記記録の閉鎖等,0,2026-02-13,2026-02-09,弘真株式会社,,株式会社,岐阜県,羽島市,福寿町間島３丁目１１４番地１,,21,209,5016251,,,2026-02-09,清算の結了等,,,2015-10-05,1,,,,,,0
465,2240001054606,登記記録の閉鎖等,0,2026-02-13,2026-02-03,株式会社Ｌ．Ｉ．Ｆ,,株式会社,広島県,廿日市市,宮島口３丁目１番３３号,,34,213,7390411,,,2026-02-03,清算の結了等,,,2019-07-01,1,,,,,エルアイエフ,0
470,2240005014911,登記記録の閉鎖等,0,2026-02-13,2026-02-10,一般社団法人働き方改革実現ネットワーク広島,,その他の設立登記法人,広島県,広島市南区,金屋町３番１３号,,34,103,7320825,,,2026-02-10,清算の結了等,,,2019-11-06,1,,,,,ハタラキカタカイカクジツゲンネットワークヒロシマ,0
483,2290002029305,登記記録の閉鎖等,0,2026-02-13,2026-02-03,田代測量有限会社,,有限会社,福岡県,福岡市中央区,薬院１丁目１３番８号,,40,133,8100022,,,2026-02-03,清算の結了等,,,2015-10-05,1,,,,,タシロソクリョウ,0
498,2350002003451,登記記録の閉鎖等,0,2026-02-13,2026-02-06,有限会社西田建材店,,有限会社,宮崎県,宮崎市,広島１丁目１番５号,,45,201,8800806,,,2026-02-06,清算の結了等,,,2015-10-05,1,,,,,ニシダケンザイ,0
503,2380001021757,登記記録の閉鎖等,0,2026-02-13,2026-02-09,新電力福島株式会社,,株式会社,福島県,郡山市,方八町２丁目１３番９号,,07,203,9638811,,,2026-02-09,合併による解散等,4110001028208,令和８年２月１日新潟市中央区東堀通一番町４９４番地３Ｓａｉｌａｒ　Ｅｎｅｒｇｙ株式会社（4110001028208）に合併し解散,2015-10-05,1,,,,,シンデンリョクフクシマ,0
506,2400001013958,登記記録の閉鎖等,0,2026-02-13,2026-02-04,株式会社ケイリーフ,,株式会社,岩手県,花巻市,上小舟渡２３６番地７,,03,205,0250062,,,2026-02-04,清算の結了等,,,2017-12-06,1,,,,,ケイリーフ,0
518,2500005003854,登記記録の閉鎖等,0,2026-02-13,2026-02-12,医療法人中村内科胃腸科,,その他の設立登記法人,愛媛県,西条市,丹原町丹原２１番地６,,38,206,7910510,,,2026-02-12,清算の結了等,,,2015-10-05,1,,,,,ナカムラナイカイチョウカ,0
522,3010001020753,登記記録の閉鎖等,0,2026-02-13,2026-01-21,株式会社星光社,,株式会社,東京都,千代田区,西神田２丁目７番５号,,13,101,1010065,,,2026-01-21,清算の結了等,,,2015-10-05,1,,,,,セイコウシャ,0
523,3010001118283,登記記録の閉鎖等,0,2026-02-13,2026-01-23,株式会社ＩＭＰＲＯＶＥ,,株式会社,東京都,中央区,明石町１番３,,13,102,1040044,,,2026-01-23,清算の結了等,,,2015-10-05,1,,,,,インプルーヴ,0
537,3010002040643,登記記録の閉鎖等,0,2026-02-13,2026-01-26,有限会社ユニバーサルシステムデザイン研究所,,有限会社,東京都,文京区,本駒込２丁目１４番６号,,13,105,1130021,,,2026-01-26,清算の結了等,,,2015-10-05,1,,,,,ケンキュウジョ,0
538,3010003032326,登記記録の閉鎖等,0,2026-02-13,2026-01-27,合同会社ファンファーレ,,合同会社,東京都,千代田区,丸の内１丁目４番１号東京共同会計事務所内,,13,101,1000005,,,2026-01-27,清算の結了等,,,2020-06-02,1,,,,,ファンファーレ,0
548,3010401111078,登記記録の閉鎖等,0,2026-02-13,2026-02-05,ＺＥＲＯ株式会社,,株式会社,東京都,品川区,西五反田２丁目１３－１プレジデントハイツ５１０号,,13,109,1410031,,,2026-02-05,清算の結了等,,,2015-10-05,1,,,,,ゼロ,0
555,3010402012465,登記記録の閉鎖等,0,2026-02-13,2026-01-23,有限会社水野企画,,有限会社,東京都,港区,港南２丁目２番１６号,,13,103,1080075,,,2026-01-23,清算の結了等,,,2015-10-05,1,,,,,ミズノキカク,0
560,3010405012215,登記記録の閉鎖等,0,2026-02-13,2026-01-21,川越特定目的会社,,その他の設立登記法人,東京都,港区,赤坂２丁目１０番５号デロイトトーマツ赤坂インターナショナル株式会社内,,13,103,1070052,,,2026-01-21,清算の結了等,,,2015-10-05,1,,,,,カワゴエ,0
566,3010701041454,登記記録の閉鎖等,0,2026-02-13,2026-02-05,株式会社Ｅｎｏｔａｖｏｌａ,,株式会社,東京都,品川区,東五反田２丁目１６番１－８０３号,,13,109,1410022,,,2026-02-05,清算の結了等,,,2021-09-07,1,,,,,エノターボラ,0
574,3010901030273,登記記録の閉鎖等,0,2026-02-13,2026-02-06,株式会社ベガ金島,,株式会社,東京都,世田谷区,松原４丁目２１番１２号,,13,112,1560043,,,2026-02-06,清算の結了等,,,2015-10-05,1,,,,,ベガカネシマ,0
576,3011001005372,登記記録の閉鎖等,0,2026-02-13,2026-01-14,株式会社海協通信,,株式会社,東京都,渋谷区,笹塚１丁目５４番９号,,13,113,1510073,,,2026-01-14,清算の結了等,,,2025-10-16,1,,,,,カイキョウツウシン,0
599,3011601004419,登記記録の閉鎖等,0,2026-02-13,2026-02-06,ファインハウス株式会社,,株式会社,東京都,練馬区,豊玉上２丁目２５番９号,,13,120,1760011,,,2026-02-06,清算の結了等,,,2015-10-05,1,,,,,ファインハウス,0
605,3012402018822,登記記録の閉鎖等,0,2026-02-13,2026-02-06,有限会社三功製作所,,有限会社,東京都,三鷹市,牟礼５丁目８番５１号,,13,204,1810002,,,2026-02-06,清算の結了等,,,2015-10-05,1,,,,,サンコウセイサクショ,0
606,3012701001735,登記記録の閉鎖等,0,2026-02-13,2026-02-02,株式会社のりの太丸,,株式会社,東京都,東村山市,富士見町４丁目１０番地７,,13,213,1890024,,,2026-02-02,清算の結了等,,,2015-10-05,1,,,,,,0
608,3013201010796,登記記録の閉鎖等,0,2026-02-13,2026-01-20,スペース・ビジネス・プロジェクト株式会社,,株式会社,東京都,目黒区,上目黒３丁目２１番２８－１２５号,,13,110,1530051,,,2026-01-20,清算の結了等,,,2015-10-05,1,,,,,スペースビジネスプロジェクト,0
616,3020003007244,登記記録の閉鎖等,0,2026-02-13,2026-02-09,合同会社エー・ケー,,合同会社,神奈川県,横浜市戸塚区,下倉田町６１５番地７８,,14,110,2440815,,,2026-02-09,清算の結了等,,,2015-10-05,1,,,,,エーケー,0
647,3070001023354,登記記録の閉鎖等,0,2026-02-13,2026-02-06,株式会社高橋舗道,,株式会社,群馬県,利根郡昭和村,大字糸井７８０番地の１,,10,448,3791203,,,2026-02-06,清算の結了等,,,2015-10-05,1,,,,,タカハシホドウ,0
660,3100001009572,登記記録の閉鎖等,0,2026-02-13,2026-02-02,上田ガストータルリフォーム株式会社,,株式会社,長野県,上田市,踏入１丁目３番３５号,,20,203,3860017,,,2026-02-02,合併による解散等,5100001010140,令和８年２月１日長野県上田市踏入一丁目３番３５号上田総合設備株式会社（5100001010140）に合併し解散,2015-10-05,1,,,,,ウエダガストータルリフォーム,0
664,3110001010331,登記記録の閉鎖等,0,2026-02-13,2026-02-05,株式会社Ｌａｎｄ　ｏｆ　ｆｒｅｅｄｏｍ,,株式会社,新潟県,新潟市中央区,南笹口１丁目８番地２０号ダイアパレス南笹口３０４号室,,15,103,9500912,,,2026-02-05,清算の結了等,,,2015-10-05,1,,,,,ランドオブフリーダム,0
674,3120001113323,登記記録の閉鎖等,0,2026-02-13,2026-02-02,株式会社メディカルケアコンフォート,,株式会社,大阪府,大阪市大正区,三軒家東１丁目７番１８号コニシビル３０１号,,27,108,5510002,,,2026-02-02,清算の結了等,,,2015-10-05,1,,,,,メディカルケアコンフォート,0
680,3120001243137,登記記録の閉鎖等,0,2026-02-13,2026-02-06,株式会社ケープロフェッショナル,,株式会社,大阪府,大阪市中央区,南船場４丁目１４番１号,,27,128,5420081,,,2026-02-06,清算の結了等,,,2022-01-17,1,,,,,ケープロフェッショナル,0
681,3120001250307,登記記録の閉鎖等,0,2026-02-13,2025-10-31,株式会社プロキスタ大阪,,株式会社,大阪府,大阪市中央区,南船場３丁目１番６号１０３号室,,27,128,5420081,,,2025-10-31,合併による解散等,6040001088323,令和７年９月３０日千葉県船橋市市場三丁目１０番３号１階株式会社スーパーゴールド（6040001088323）に合併し解散,2022-11-14,1,,,,,プロキスタオオサカ,0
707,3140001020146,登記記録の閉鎖等,0,2026-02-13,2026-02-10,株式会社マックスジャパン,,株式会社,兵庫県,神戸市垂水区,清玄町１６番地の３,,28,108,6550865,,,2026-02-10,清算の結了等,,,2015-10-05,1,,,,,マックスジャパン,0
740,3180002000366,登記記録の閉鎖等,0,2026-02-13,2026-02-09,有限会社加藤歯研,,有限会社,愛知県,名古屋市守山区,大字上志段味字蟻塚２７１番地,00072751,23,113,4630001,,,2026-02-09,清算の結了等,,,2015-10-05,1,,,,,カトウシケン,0
749,3180302002252,登記記録の閉鎖等,0,2026-02-13,2026-02-10,有限会社中山工業所,,有限会社,愛知県,岡崎市,広幡町３番地１２,,23,202,4440066,,,2026-02-10,清算の結了等,,,2015-10-05,1,,,,,ナカヤマコウギョウショ,0
755,3210003001104,登記記録の閉鎖等,0,2026-02-13,2026-02-12,合同会社和幸,,合同会社,福井県,丹生郡越前町,西田中第１４号２５番地,,18,423,9160141,,,2026-02-12,清算の結了等,,,2018-08-21,1,,,,,ワコウ,0
761,3280001003558,登記記録の閉鎖等,0,2026-02-13,2026-02-09,株式会社エコポット企画,,株式会社,島根県,出雲市,大津新崎町１丁目４６番地２,,32,203,6930012,,,2026-02-09,清算の結了等,,,2015-10-05,1,,,,,エコポットキカク,0
765,3290001019066,登記記録の閉鎖等,0,2026-02-13,2026-02-04,株式会社サンエンジニアリング,,株式会社,福岡県,福岡市南区,柏原２丁目１１番１９号,,40,134,8111353,,,2026-02-04,清算の結了等,,,2015-10-05,1,,,,,サンエンジニアリング,0
780,3290801014183,登記記録の閉鎖等,0,2026-02-13,2026-02-06,第一金属工業株式会社,,株式会社,福岡県,直方市,大字中泉９１５番地の４,,40,204,8220011,,,2026-02-06,清算の結了等,,,2015-10-05,1,,,,,,0
788,3310003002298,登記記録の閉鎖等,0,2026-02-13,2026-02-10,合資会社修行商店,,合資会社,長崎県,対馬市,上対馬町比田勝８３８番地,,42,209,8171701,,,2026-02-10,清算の結了等,,,2015-10-05,1,,,,,シュギョウショウテン,0
793,3330003007931,登記記録の閉鎖等,0,2026-02-13,2026-02-09,合同会社大塚工業,,合同会社,熊本県,上益城郡益城町,大字砥川２１１１番地１４,,43,443,8612222,,,2026-02-09,清算の結了等,,,2019-05-20,1,,,,,オオツカコウギョウ,0
795,3360001013490,登記記録の閉鎖等,0,2026-02-13,2026-02-09,ヤイマ株式会社,,株式会社,沖縄県,南城市,大里字稲嶺２１２７番地６,,47,215,9011204,,,2026-02-09,清算の結了等,,,2015-10-05,1,,,,,ヤイマ,0
810,3430001080400,登記記録の閉鎖等,0,2026-02-13,2026-02-09,株式会社信星企画,,株式会社,北海道,札幌市手稲区,西宮の沢六条１丁目１６番１－５０８号,,01,109,0060006,,,2026-02-09,清算の結了等,,,2019-12-06,1,,,,,シンセイキカク,0
828,4010003019850,登記記録の閉鎖等,0,2026-02-13,2026-01-26,Ｕｅｎｏ　Ｈｏｔｅｌ合同会社,,合同会社,東京都,千代田区,丸の内１丁目４番１号東京共同会計事務所内,,13,101,1000005,,,2026-01-26,清算の結了等,,,2015-10-05,1,,,,,ウエノホテル,0
846,4010405012214,登記記録の閉鎖等,0,2026-02-13,2026-01-21,ＲＷ千葉北特定目的会社,,その他の設立登記法人,東京都,港区,赤坂２丁目１０番５号デロイトトーマツ赤坂インターナショナル株式会社内,,13,103,1070052,,,2026-01-21,清算の結了等,,,2015-10-05,1,,,,,アールダブリューチバキタ,0
847,4010405012750,登記記録の閉鎖等,0,2026-02-13,2026-01-21,ＲＷ加須特定目的会社,,その他の設立登記法人,東京都,港区,赤坂２丁目１０番５号デロイトトーマツ赤坂インターナショナル株式会社内,,13,103,1070052,,,2026-01-21,清算の結了等,,,2015-10-05,1,,,,,アールダブリューカゾ,0
848,4010405013708,登記記録の閉鎖等,0,2026-02-13,2026-01-21,ＲＷ川越２一般社団法人,,その他の設立登記法人,東京都,港区,赤坂２丁目１０番５号デロイトトーマツ赤坂インターナショナル株式会社内,,13,103,1070052,,,2026-01-21,清算の結了等,,,2015-10-05,1,,,,,アールダブリューカワゴエツー,0
850,4010701034804,登記記録の閉鎖等,0,2026-02-13,2026-02-04,株式会社オフィスＳＵＺＵＫＩ,,株式会社,東京都,品川区,東五反田４丁目３番７号グレイス高輪２１６,,13,109,1410022,,,2026-02-04,清算の結了等,,,2017-10-13,1,,,,,,0
854,4010801014838,登記記録の閉鎖等,0,2026-02-13,2026-02-02,株式会社パラマウント・コーポレーション,,株式会社,東京都,大田区,大森北２丁目９番１４号,,13,111,1430016,,,2026-02-02,合併による解散等,7010801009232,令和８年２月１日東京都大田区大森北二丁目９番１４号二島ビル株式会社（7010801009232）に合併し解散,2015-10-05,1,,,,,パラマウントコーポレーション,0
855,4010801018871,登記記録の閉鎖等,0,2026-02-13,2026-02-02,株式会社アビリティーニッケン,,株式会社,東京都,大田区,西蒲田７丁目８番３号日研第２ビル,,13,111,1440051,,,2026-02-02,合併による解散等,4010801009318,令和８年２月１日東京都大田区西蒲田七丁目２３番３号日研第一ビル日研トータルソーシング株式会社（4010801009318）に合併し解散,2015-10-05,1,,,,,アビリティーニッケン,0
901,4020002023638,登記記録の閉鎖等,0,2026-02-13,2026-02-05,有限会社近藤エンジニアリング,,有限会社,神奈川県,横浜市保土ケ谷区,天王町２丁目４２番地の２,,14,106,2400003,,,2026-02-05,清算の結了等,,,2015-10-05,1,,,,,コンドウエンジニアリング,0
902,4020003004521,登記記録の閉鎖等,0,2026-02-13,2026-02-03,合同会社Ｌｉｇｈｔ　Ｈｏｕｓｅ,,合同会社,神奈川県,横浜市青葉区,鉄町１１０８番地３,,14,117,2250025,,,2026-02-03,清算の結了等,,,2015-10-05,1,,,,,ライトハウス,0
911,4030001150333,登記記録の閉鎖等,0,2026-02-13,2026-02-04,株式会社聖光,,株式会社,埼玉県,さいたま市見沼区,春岡３丁目１３番地１スプリングヒル弐番館１０１,,11,104,3370008,,,2026-02-04,清算の結了等,,,2022-10-03,1,,,,,セイコウ,0
916,4030002036036,登記記録の閉鎖等,0,2026-02-13,2026-02-02,有限会社めぐみ薬局,,有限会社,埼玉県,所沢市,緑町４丁目１５番２５号,,11,208,3591111,,,2026-02-02,合併による解散等,1030001026148,令和８年２月１日埼玉県富士見市羽沢三丁目２７番２号株式会社エフケイ（1030001026148）に合併し解散,2015-10-05,1,,,,,メグミヤッキョク,0
921,4040002046257,登記記録の閉鎖等,0,2026-02-13,2026-02-04,システムライズ有限会社,,有限会社,茨城県,坂東市,菅谷５８７番地３,,08,228,3060505,,,2026-02-04,清算の結了等,,,2015-10-05,1,,,,,システムライズ,0
923,4040002081543,登記記録の閉鎖等,0,2026-02-13,2026-01-14,有限会社星野薬舗,,有限会社,千葉県,茂原市,茂原１５８番地,,12,210,2970026,,,2026-01-14,清算の結了等,,,2015-10-05,1,,,,,,0
932,4080103001479,登記記録の閉鎖等,0,2026-02-13,2026-02-06,合同会社Ｓｑｕａｒｅ　Ｏｎｅ,,合同会社,静岡県,駿東郡清水町,新宿２９８番地の４,,22,341,4110901,,,2026-02-06,清算の結了等,,,2015-10-05,1,,,,,スクエアワン,0
951,4110002029106,登記記録の閉鎖等,0,2026-02-13,2026-02-05,有限会社本田工務店,,有限会社,新潟県,長岡市,袋町３丁目１１０２番地１,,15,202,9400055,,,2026-02-05,清算の結了等,,,2015-10-05,1,,,,,ホンダコウムテン,0
956,4120001186343,登記記録の閉鎖等,0,2026-02-13,2026-02-06,株式会社ＮＥＸＡＭ,,株式会社,大阪府,大阪市北区,中之島２丁目２番２号大阪中之島ビル４階,,27,127,5300005,,,2026-02-06,清算の結了等,,,2015-10-05,1,,,,,ネクサム,0
970,4120003019063,登記記録の閉鎖等,0,2026-02-13,2026-02-10,合同会社ＲＡＢＢＩＴ,,合同会社,大阪府,大阪市中央区,北浜２丁目２－２１－２４０９,,27,128,5410041,,,2026-02-10,清算の結了等,,,2021-03-16,1,,,,,ラビット,0
974,4120005020696,登記記録の閉鎖等,0,2026-02-13,2026-02-10,ＮＰＯ法人あべのっ子,,その他の設立登記法人,大阪府,大阪市阿倍野区,昭和町５丁目２番１０号,,27,119,5450011,,,2026-02-10,清算の結了等,,,2019-01-31,1,,,,,アベノッコ,0
988,4140001032792,登記記録の閉鎖等,0,2026-02-13,2026-02-05,株式会社Ｂｅｅ　ＢＡＬＡＮＣＥ,,株式会社,兵庫県,神戸市灘区,桜口町４丁目４番３－１０４号,,28,102,6570036,,,2026-02-05,清算の結了等,,,2015-10-05,1,,,,,ビーバランス,0
996,4180001006958,登記記録の閉鎖等,0,2026-02-13,2026-02-06,株式会社東泉損害保険,,株式会社,愛知県,名古屋市港区,港北町２丁目２６番地,,23,111,4550067,,,2026-02-06,清算の結了等,,,2015-10-05,1,,,,,トウセンソンガイホケン,0
997,4180001023367,登記記録の閉鎖等,0,2026-02-13,2026-02-06,株式会社オザキ松屋,,株式会社,愛知県,名古屋市天白区,高宮町８０７番地,,23,116,4680031,,,2026-02-06,清算の結了等,,,2015-10-05,1,,,,,オザキマツヤ,0
1013,4180005001880,登記記録の閉鎖等,0,2026-02-13,2025-10-27,天理教明春分教会,,その他の設立登記法人,愛知県,名古屋市守山区,更屋敷８番３号,,23,113,4630064,,,2025-10-27,合併による解散等,7190005000796,令和７年１０月１４日三重県津市岩田２２番１８号天理教津大教会（7190005000796）に合併し解散,2015-10-05,1,,,,,テンリキョウメイシュンブンキョウカイ,0
1019,4230002007850,登記記録の閉鎖等,0,2026-02-13,2026-02-06,有限会社アップルサポート,,有限会社,富山県,魚津市,北鬼江３６４番地,,16,204,9370066,,,2026-02-06,清算の結了等,,,2015-10-05,1,,,,,アップルサポート,0
1025,4260003001164,登記記録の閉鎖等,0,2026-02-13,2026-02-10,合同会社ＨａｒｅｒｕｙａＦＸ,,合同会社,岡山県,倉敷市,老松町５丁目６１８番地５,,33,202,7100826,,,2026-02-10,清算の結了等,,,2015-10-05,1,,,,,ハレルヤエフエックス,0
1027,4280002012029,登記記録の閉鎖等,0,2026-02-13,2026-02-10,有限会社武田水道,,有限会社,島根県,雲南市,大東町飯田３６４番地４６,,32,209,6991221,,,2026-02-10,清算の結了等,,,2015-10-05,1,,,,,タケダスイドウ,0
1029,4290001056827,登記記録の閉鎖等,0,2026-02-13,2026-02-05,アーソニーテ株式会社,,株式会社,福岡県,福岡市東区,美和台４丁目７番１０号,,40,131,8110212,,,2026-02-05,清算の結了等,,,2015-10-05,1,,,,,アーソニーテ,0
1038,4300002004279,登記記録の閉鎖等,0,2026-02-13,2026-02-09,有限会社小城小型運送,,有限会社,佐賀県,小城市,三日月町長神田１２１番地１３,,41,208,8450021,,,2026-02-09,清算の結了等,,,2015-10-05,1,,,,,オギコガタウンソウ,0
1063,4390003002422,登記記録の閉鎖等,0,2026-02-13,2026-02-10,合同会社えん縁ｆａｔｅ,,合同会社,山形県,東村山郡山辺町,近江５番地４８,,06,301,9900311,,,2026-02-10,清算の結了等,,,2025-08-12,1,,,,,エンエニシフェス,0
1066,4400005007756,登記記録の閉鎖等,0,2026-02-13,2026-02-03,一般社団法人ちーむ麻の葉,,その他の設立登記法人,岩手県,陸前高田市,米崎町字館２８番地１,,03,210,0292206,,,2026-02-03,清算の結了等,,,2017-03-08,1,,,,,チームアサノハ,0
1076,4440001005256,登記記録の閉鎖等,0,2026-02-13,2026-02-02,北海道ジェネリック株式会社,,株式会社,北海道,札幌市中央区,北十一条西２４丁目１番６号,,01,101,0600011,,,2026-02-02,合併による解散等,7430001027983,令和８年２月１日札幌市中央区北十条西二十四丁目２番１５号株式会社ナカジマ薬局（7430001027983）に合併し解散,2015-10-05,1,,,,,ホッカイドウジェネリック,0
1086,5010001173723,登記記録の閉鎖等,0,2026-02-13,2026-02-02,株式会社ＴＫナーセリー,,株式会社,東京都,大田区,東海２丁目１番６号,,13,111,1430001,,,2026-02-02,合併による解散等,7010001023372,令和８年２月１日東京都大田区東海二丁目１番６号株式会社ディーオーシー（7010001023372）に合併し解散,2016-02-22,1,,,,,ティーケーナーセリー,0
1093,5010005028064,登記記録の閉鎖等,0,2026-02-13,2026-02-05,特定非営利活動法人ソナタ,,その他の設立登記法人,東京都,中央区,銀座５丁目９番５号田創館ビル２階,,13,102,1040061,,,2026-02-05,清算の結了等,,,2018-02-05,1,,,,,ソナタ,0
1104,5010401172630,登記記録の閉鎖等,0,2026-02-13,2026-01-22,株式会社ファイブ,,株式会社,東京都,港区,浜松町２丁目２番１５号浜松町ダイヤビル２Ｆ,,13,103,1050013,,,2026-01-22,清算の結了等,,,2023-02-21,1,,,,,ファイブ,0
1109,5010403012347,登記記録の閉鎖等,0,2026-02-13,2026-01-22,合同会社二毛作,,合同会社,東京都,港区,白金４丁目１番６号エヴァル白金１階,,13,103,1080072,,,2026-01-22,清算の結了等,,,2015-10-05,1,,,,,ニモウサク,0
1116,5010501048318,登記記録の閉鎖等,0,2026-02-13,2026-02-03,株式会社クローズバイ,,株式会社,東京都,台東区,東上野３丁目２１番２号越前ビル２０１,,13,106,1100015,,,2026-02-03,清算の結了等,,,2022-01-14,1,,,,,クローズバイ,0
1123,5010703004127,登記記録の閉鎖等,0,2026-02-13,2026-02-10,合同会社インカローズ,,合同会社,東京都,中央区,銀座４丁目１０番１４号ＡＣＮ銀座４ビルディング１１階,,13,102,1040061,,,2026-02-10,合併による解散等,2010903003170,令和８年１月３１日東京都世田谷区瀬田四丁目３５番６号合同会社ルビーランド（2010903003170）に合併し解散,2018-02-23,1,,,,,インカローズ,0
1174,5020001087914,登記記録の閉鎖等,0,2026-02-13,2026-02-03,株式会社はなまる工務店,,株式会社,神奈川県,横浜市金沢区,谷津町２５０番地１,,14,108,2360016,,,2026-02-03,清算の結了等,,,2015-10-05,1,,,,,ハナマルコウムテン,0
1179,5020002057676,登記記録の閉鎖等,0,2026-02-13,2026-02-03,有限会社大崎塗装,,有限会社,神奈川県,横浜市南区,前里町１丁目１番地１クリオ黄金町弐番館９０１号,,14,105,2320004,,,2026-02-03,清算の結了等,,,2015-10-05,1,,,,,オオサキトソウ,0
1181,5020003026721,登記記録の閉鎖等,0,2026-02-13,2026-01-28,Ｒ２コーポレーション合同会社,,合同会社,神奈川県,横浜市神奈川区,松見町２丁目５８８番地１５,,14,102,2210005,,,2026-01-28,清算の結了等,,,2024-08-09,1,,,,,アールツーコーポレーション,0
1199,5030002076493,登記記録の閉鎖等,0,2026-02-13,2026-02-05,有限会社小倉商会,,有限会社,埼玉県,ふじみ野市,亀久保１６９４番地４２,,11,245,3560051,,,2026-02-05,清算の結了等,,,2015-10-05,1,,,,,オグラショウカイ,0
1202,5040002021622,登記記録の閉鎖等,0,2026-02-13,2026-01-21,有限会社キョウエイ,,有限会社,千葉県,船橋市,湊町３丁目２３番１０号,,12,204,2730011,,,2026-01-21,清算の結了等,,,2015-10-05,1,,,,,キョウエイ,0
1205,5040003011093,登記記録の閉鎖等,0,2026-02-13,2026-01-14,合同会社アルシオーネ,,合同会社,千葉県,鎌ケ谷市,南初富６丁目４番２４号,,12,224,2730123,,,2026-01-14,清算の結了等,,,2018-01-12,1,,,,,アルシオーネ,0
1215,5080401003738,登記記録の閉鎖等,0,2026-02-13,2026-02-09,株式会社中村シート製作所,,株式会社,静岡県,浜松市中央区,塩町１３番地,,22,138,4328034,,,2026-02-09,清算の結了等,,,2015-10-05,1,,,,,ナカムラシートセイサクショ,0
1218,5080402005064,登記記録の閉鎖等,0,2026-02-13,2026-02-06,有限会社司美装,,有限会社,静岡県,浜松市中央区,中郡町１０１１番地,,22,138,4313111,,,2026-02-06,清算の結了等,,,2015-10-05,1,,,,,ツカサビソウ,0
1253,5130001008108,登記記録の閉鎖等,0,2026-02-13,2026-02-04,協和設計株式会社,,株式会社,京都府,京都市西京区,上桂西居町８１番地の４,,26,111,6158228,,,2026-02-04,清算の結了等,,,2015-10-05,1,,,,,キョウワセッケイ,0
1272,5180002002402,登記記録の閉鎖等,0,2026-02-13,2026-02-06,秀菱有限会社,,有限会社,愛知県,名古屋市名東区,上社３丁目２１０４番地,,23,115,4650025,,,2026-02-06,清算の結了等,,,2015-10-05,1,,,,,ヒデビシ,0
1293,5290001082707,登記記録の閉鎖等,0,2026-02-13,2026-02-04,株式会社リプレイス,,株式会社,福岡県,大野城市,御笠川６丁目５番１９号,,40,219,8160912,,,2026-02-04,清算の結了等,,,2018-09-10,1,,,,,リプレイス,0
1299,5290801002186,登記記録の閉鎖等,0,2026-02-13,2026-02-05,高千穂商興株式会社,,株式会社,福岡県,北九州市戸畑区,牧山１丁目１番３６号,,40,105,8040053,,,2026-02-05,合併による解散等,4290801002526,令和８年２月１日北九州市戸畑区牧山一丁目１番３６号ＨＡＭＡＤＡホールディングス株式会社（4290801002526）に合併し解散,2015-10-05,1,,,,,タカチホショウコウ,0
1322,5380002032049,登記記録の閉鎖等,0,2026-02-13,2026-02-04,有限会社清水鉄工建設,,有限会社,福島県,会津若松市,河東町広田字緑ケ丘１６番地,,07,202,9693471,,,2026-02-04,清算の結了等,,,2015-10-05,1,,,,,シミズテッコウケンセツ,0
1347,6010401152078,登記記録の閉鎖等,0,2026-02-13,2025-10-16,株式会社オプティム・デジタルコンストラクション,,株式会社,東京都,港区,海岸１丁目２番２０号,,13,103,1050022,,,2025-10-16,合併による解散等,4300001001392,令和７年１０月１日佐賀県佐賀市本庄町１株式会社オプティム（4300001001392）に合併し解散,2020-04-13,1,,,,,オプティムデジタルコンストラクション,0
1348,6010401167497,登記記録の閉鎖等,0,2026-02-13,2026-02-06,株式会社保険見直し本舗グループ,,株式会社,東京都,新宿区,新宿５丁目１７番１８号,,13,104,1600022,,,2026-02-06,合併による解散等,1010001257595,令和８年１月１日東京都千代田区丸の内二丁目１番１号明治安田生命ビル１１階株式会社保険見直し本舗グループ（1010001257595）に合併し解散,2022-05-30,1,,,,,ホケンミナオシホンポグループ,0
1352,6010403027922,登記記録の閉鎖等,0,2026-02-13,2026-02-02,Ｃｏｒｓａｉｒ　Ｊａｐａｎ合同会社,,合同会社,東京都,中央区,日本橋室町１丁目１３番７号ＰＭＯ日本橋室町３階３０４号室,,13,102,1030022,,,2026-02-02,合併による解散等,5011501017221,令和８年２月１日東京都中央区日本橋室町一丁目１３番７号ＰＭＯ日本橋室町３階３０４号室Ｃｏｒｓａｉｒ　Ｆａｎａｔｅｃ　Ｊａｐａｎ株式会社（5011501017221）に合併し解散,2022-06-20,1,,,,,コルセアジャパン,0
1364,6010901000595,登記記録の閉鎖等,0,2026-02-13,2026-02-09,安藤塗装株式会社,,株式会社,東京都,世田谷区,北沢１丁目３３番２０号,,13,112,1550031,,,2026-02-09,清算の結了等,,,2015-10-05,1,,,,,アンドウトソウ,0
1376,6011003018824,登記記録の閉鎖等,0,2026-02-13,2026-01-21,トラストリフト合同会社,,合同会社,東京都,渋谷区,円山町５番５号Ｎａｖｉ渋谷Ｖ３階,,13,113,1500044,,,2026-01-21,清算の結了等,,,2024-04-26,1,,,,,トラストリフト,0
1409,6011501019902,登記記録の閉鎖等,0,2026-02-13,2026-02-10,株式会社Ｉｎｔｅｎｔｉｏｎａｌ・Ｓ,,株式会社,東京都,荒川区,南千住７丁目２０番１－８１１号,,13,118,1160003,,,2026-02-10,清算の結了等,,,2015-10-05,1,,,,,,0
1414,6011801004414,登記記録の閉鎖等,0,2026-02-13,2026-02-05,株式会社ボンテ,,株式会社,神奈川県,川崎市川崎区,白石町６番１号,,14,131,2100857,,,2026-02-05,合併による解散等,4140001005666,令和８年２月１日神戸市中央区港島中町四丁目１番１株式会社ダイエー（4140001005666）に合併し解散,2015-10-05,1,,,,,ボンテ,0
1427,6020001134302,登記記録の閉鎖等,0,2026-02-13,2026-02-09,株式会社中村屋,,株式会社,神奈川県,横浜市金沢区,瀬戸１７番地１八景ＢＬＤＧ１階,,14,108,2360027,,,2026-02-09,清算の結了等,,,2020-01-07,1,,,,,ナカムラヤ,0
1432,6020003017637,登記記録の閉鎖等,0,2026-02-13,2026-02-04,合同会社メイプルホーム,,合同会社,神奈川県,川崎市中原区,上小田中３丁目２９番１－９１４号,,14,133,2110053,,,2026-02-04,清算の結了等,,,2020-03-31,1,,,,,メイプルホーム,0
1446,6030001133311,登記記録の閉鎖等,0,2026-02-13,2026-02-05,ＴＯＳＹＯ　ＴＲＡＤＥ株式会社,,株式会社,埼玉県,越谷市,弥生町６番１７号,,11,222,3430816,,,2026-02-05,清算の結了等,,,2019-10-18,1,,,,,トーショートレード,0
1459,6040001019360,登記記録の閉鎖等,0,2026-02-13,2026-02-02,船橋イカリ消毒株式会社,,株式会社,千葉県,船橋市,海神１丁目２４番１３号,,12,204,2730021,,,2026-02-02,合併による解散等,8011101001721,令和８年１月１日東京都渋谷区千駄ケ谷五丁目２７番１１号イカリ消毒株式会社（8011101001721）に合併し解散,2015-10-05,1,,,,,フナバシイカリショウドク,0
1460,6040001025994,登記記録の閉鎖等,0,2026-02-13,2026-01-21,川崎不動産株式会社,,株式会社,千葉県,市川市,市川１丁目２４番８号,,12,203,2720034,,,2026-01-21,清算の結了等,,,2015-10-05,1,,,,,カワサキフドウサン,0
1461,6040001056338,登記記録の閉鎖等,0,2026-02-13,2026-01-23,株式会社アトラクト,,株式会社,千葉県,市原市,五所１６６１番地,,12,219,2900066,,,2026-01-23,清算の結了等,,,2015-10-05,1,,,,,アトラクト,0
1481,6110001032827,登記記録の閉鎖等,0,2026-02-13,2026-02-06,株式会社ファンドット,,株式会社,新潟県,新潟市北区,東栄町２丁目９番８号,,15,101,9503323,,,2026-02-06,清算の結了等,,,2017-11-20,1,,,,,ファンドット,0
1514,6122001038943,登記記録の閉鎖等,0,2026-02-13,2026-02-02,晋豊株式会社,,株式会社,大阪府,東大阪市,若江西新町４丁目６番１０－３０１号,,27,227,5780944,,,2026-02-02,清算の結了等,,,2025-03-13,1,,,,,シンホウ,0
1524,6160002008648,登記記録の閉鎖等,0,2026-02-13,2026-02-09,有限会社みやけ,,有限会社,滋賀県,彦根市,京町２丁目２番５号,,25,202,5220081,,,2026-02-09,清算の結了等,,,2015-10-05,1,,,,,ミヤケ,0
1536,6180002064359,登記記録の閉鎖等,0,2026-02-13,2026-02-09,有限会社山口業務店,,有限会社,愛知県,豊明市,栄町姥子２７番地５７,,23,229,4701163,,,2026-02-09,清算の結了等,,,2015-10-05,1,,,,,ヤマグチギョウムテン,0
1537,6180002080439,登記記録の閉鎖等,0,2026-02-13,2026-02-09,有限会社ウィズ,,有限会社,愛知県,稲沢市,朝府町１７番２－１０５号,,23,220,4928268,,,2026-02-09,清算の結了等,,,2015-10-05,1,,,,,ウィズ,0
1547,6200002001193,登記記録の閉鎖等,0,2026-02-13,2026-02-09,有限会社岐阜カワサキ,,有限会社,岐阜県,岐阜市,加納花ノ木町１０９番地,,21,201,5008275,,,2026-02-09,清算の結了等,,,2015-10-05,1,,,,,ギフカワサキ,0
1548,6200002014328,登記記録の閉鎖等,0,2026-02-13,2026-02-10,有限会社服創屋,,有限会社,岐阜県,大垣市,鶴見町５０番地５,,21,202,5030805,,,2026-02-10,清算の結了等,,,2015-10-05,1,,,,,フクソウヤ,0
1569,6290001059183,登記記録の閉鎖等,0,2026-02-13,2026-02-06,積水ハウスＧＭパートナーズ九州株式会社,,株式会社,福岡県,福岡市中央区,天神１丁目１５番６号,,40,133,8100001,,,2026-02-06,合併による解散等,8140001002791,令和８年２月１日大阪市北区大淀中一丁目１番８８号積水ハウスＧＭパートナーズ株式会社（8140001002791）に合併し解散,2015-10-05,1,,,,,セキスイハウスグランドメゾンパートナーズキュウシュウ,0
1577,6290003015110,登記記録の閉鎖等,0,2026-02-13,2026-01-29,合同会社ＲＩＴＡ,,合同会社,福岡県,福岡市西区,野方１丁目２－３３,,40,135,8190043,,,2026-01-29,清算の結了等,,,2024-03-25,1,,,,,リタ,0
1579,6290801015328,登記記録の閉鎖等,0,2026-02-13,2026-02-09,株式会社舛尾食肉産業,00094237,株式会社,福岡県,行橋市,北泉４丁目１４番１７号,,40,213,8240033,,,2026-02-09,清算の結了等,,,2015-10-05,1,,,,,マスオショクニクサンギョウ,0
1582,6300001003214,登記記録の閉鎖等,0,2026-02-13,2026-02-09,株式会社ミルンフーズ,,株式会社,佐賀県,神埼市,神埼町城原１６６１番地１,,41,210,8420122,,,2026-02-09,清算の結了等,,,2015-10-05,1,,,,,ミルンフーズ,0
1587,6320005002400,登記記録の閉鎖等,0,2026-02-13,2026-02-05,特定非営利活動法人子どもいじめ・虐待相談センター・大分,,その他の設立登記法人,大分県,大分市,中島西１丁目４番１４号,,44,201,8700047,,,2026-02-05,清算の結了等,,,2015-10-05,1,,,,,コドモイジメギャクタイソウダンセンターオオイタ,0
1588,6330001000877,登記記録の閉鎖等,0,2026-02-13,2026-02-06,株式会社キンキ,,株式会社,熊本県,熊本市中央区,大江４丁目２１番３号,,43,101,8620971,,,2026-02-06,清算の結了等,,,2015-10-05,1,,,,,キンキ,0
1595,6340002014735,登記記録の閉鎖等,0,2026-02-13,2026-02-05,有限会社羽月縫製,,有限会社,鹿児島県,伊佐市,大口堂崎５２７番地,,46,224,8952524,,,2026-02-05,清算の結了等,,,2015-10-05,1,,,,,ハツキホウセイ,0
1609,6360005003023,登記記録の閉鎖等,0,2026-02-13,2026-02-10,特定非営利活動法人ＫＩＤ’ｓサポートいっぽ,,その他の設立登記法人,沖縄県,中頭郡北中城村,字和仁屋５６番地,,47,327,9012312,,,2026-02-10,清算の結了等,,,2015-10-05,1,,,,,キッズサポートイッポ,0
1617,6410001004201,登記記録の閉鎖等,0,2026-02-13,2026-02-09,株式会社佐藤サービス,,株式会社,秋田県,男鹿市,野石字牛踏１番地３４,,05,206,0100401,,,2026-02-09,清算の結了等,,,2015-10-05,1,,,,,サトウサービス,0
1632,6500002001403,登記記録の閉鎖等,0,2026-02-13,2026-02-12,有限会社愛媛ロジスティクスサービス,00007730,有限会社,愛媛県,松山市,鷹子町６７番地３,,38,201,7900925,,,2026-02-12,清算の結了等,,,2015-10-05,1,,,,,,0
1643,7010001254752,登記記録の閉鎖等,0,2026-02-13,2026-01-22,株式会社リベンリ東京,,株式会社,東京都,千代田区,丸の内１丁目１１番１号パシフィックセンチュリープレイス丸の内８階,,13,101,1000005,,,2026-01-22,清算の結了等,,,2025-05-08,1,,,,,リベンリトウキョウ,0
1652,7010003037899,登記記録の閉鎖等,0,2026-02-13,2026-01-23,チェントミリアルド３号合同会社,,合同会社,東京都,中央区,日本橋１丁目４番１号日本橋一丁目ビルディング,,13,102,1030027,,,2026-01-23,清算の結了等,,,2022-06-17,1,,,,,チェントミリアルドサンゴウ,0
1674,7010901029361,登記記録の閉鎖等,0,2026-02-13,2026-02-02,株式会社スタジオトニー,,株式会社,東京都,中野区,野方３丁目１番１４－Ｂ１号,,13,114,1650027,,,2026-02-02,清算の結了等,,,2015-10-05,1,,,,,スタジオトニー,0
1697,7011103013542,登記記録の閉鎖等,0,2026-02-13,2026-01-22,ヨコハマブリッジ合同会社,,合同会社,東京都,新宿区,四谷２丁目９番地１５東京ユナイテッド綜合事務所内,,13,104,1600004,,,2026-01-22,清算の結了等,,,2023-10-05,1,,,,,ヨコハマブリッジ,0
1709,7011602021789,登記記録の閉鎖等,0,2026-02-13,2026-02-09,有限会社アベ・エリア・メッセンジャー,,有限会社,東京都,練馬区,春日町６丁目２番１４号,,13,120,1790074,,,2026-02-09,清算の結了等,,,2015-10-05,1,,,,,アベエリアメッセンジャー,0
1730,7020001118923,登記記録の閉鎖等,0,2026-02-13,2026-01-29,株式会社Ｎａｔｕｒａｌ　Ｄｅｌｉ,,株式会社,神奈川県,横浜市港北区,新吉田東４丁目１番７号,,14,109,2230058,,,2026-01-29,合併による解散等,7020001046991,令和７年１２月１日横浜市港北区新吉田東四丁目１番７号株式会社ローヤルよつや（7020001046991）に合併し解散,2016-12-07,1,,,,,ナチュラルデリ,0
1752,7030001058400,登記記録の閉鎖等,0,2026-02-13,2026-02-04,株式会社ＹＳスタジオ,,株式会社,埼玉県,川越市,大字鯨井１８６０番地１５,,11,201,3500815,,,2026-02-04,清算の結了等,,,2015-10-05,1,,,,,ワイエススタジオ,0
1758,7030002041685,登記記録の閉鎖等,0,2026-02-13,2026-02-04,有限会社小林ソーイング,,有限会社,埼玉県,羽生市,中央１丁目５番３１号,,11,216,3480058,,,2026-02-04,清算の結了等,,,2015-10-05,1,,,,,コバヤシソーイング,0
1764,7040001088289,登記記録の閉鎖等,0,2026-02-13,2026-01-19,株式会社青海,,株式会社,千葉県,勝浦市,川津１６９８番地,,12,218,2995232,,,2026-01-19,清算の結了等,,,2015-10-05,1,,,,,セイカイ,0
1775,7080002012673,登記記録の閉鎖等,0,2026-02-13,2026-02-09,株式会社玄米アミノ酸微生物農法,,株式会社,静岡県,静岡市駿河区,高松２丁目１５番２６号,,22,102,4228034,,,2026-02-09,清算の結了等,,,2015-10-05,1,,,,,ゲンマイアミノサンビセイブツノウホウ,0
1779,7080401014469,登記記録の閉鎖等,0,2026-02-13,2026-02-06,堀内住設株式会社,,株式会社,静岡県,掛川市,緑ケ丘１丁目１８番地の２,,22,213,4360021,,,2026-02-06,清算の結了等,,,2015-10-05,1,,,,,ホリウチジュウセツ,0
1781,7090001017210,登記記録の閉鎖等,0,2026-02-13,2026-02-06,株式会社みとみむら,,株式会社,山梨県,山梨市,三富下荻原３８７番地,,19,205,4040203,,,2026-02-06,清算の結了等,,,2021-10-01,1,,,,,ミトミムラ,0
1838,7180002085362,登記記録の閉鎖等,0,2026-02-13,2026-02-09,有限会社宏和商会,,有限会社,愛知県,知多郡東浦町,大字生路字森腰１０４番地,,23,442,4702104,,,2026-02-09,清算の結了等,,,2015-10-05,1,,,,,コウワショウカイ,0
1843,7190002006326,登記記録の閉鎖等,0,2026-02-13,2026-02-09,有限会社桜井工業所,,有限会社,三重県,鈴鹿市,長澤町１３５７番地の２,,24,207,5190314,,,2026-02-09,清算の結了等,,,2015-10-05,1,,,,,サクライコウギョウショ,0
1854,7240001045641,登記記録の閉鎖等,0,2026-02-13,2026-02-06,株式会社ミカフェート中国,,株式会社,広島県,呉市,宝町２番２５号１０１,,34,202,7370029,,,2026-02-06,清算の結了等,,,2015-10-05,1,,,,,ミカフェートチュウゴク,0
1867,7290001071360,登記記録の閉鎖等,0,2026-02-13,2026-02-04,株式会社トヨフク,,株式会社,福岡県,久留米市,宮ノ陣６丁目１４番３号,,40,203,8390801,,,2026-02-04,清算の結了等,,,2015-10-05,1,,,,,トヨフク,0
1887,7320002001924,登記記録の閉鎖等,0,2026-02-13,2026-02-06,有限会社金池木工製作所,,有限会社,大分県,大分市,大字下郡３４８３番地の７,,44,201,8700951,,,2026-02-06,清算の結了等,,,2015-10-05,1,,,,,カナイケモッコウセイサクショ,0
1896,7340001012730,登記記録の閉鎖等,0,2026-02-13,2026-02-02,松元ファーム株式会社,,株式会社,鹿児島県,南さつま市,金峰町池辺３２６８番地,,46,220,8993405,,,2026-02-02,清算の結了等,,,2015-10-05,1,,,,,マツモトファーム,0
1897,7340002005353,登記記録の閉鎖等,0,2026-02-13,2026-02-06,有限会社星和商会,,有限会社,鹿児島県,鹿児島市,星ヶ峯１丁目７番９号,,46,201,8910102,,,2026-02-06,清算の結了等,,,2015-10-05,1,,,,,,0
1905,7370003006629,登記記録の閉鎖等,0,2026-02-13,2026-02-09,合同会社ＴＯＨＯＰＥ,,合同会社,宮城県,仙台市青葉区,荒巻字青葉４６８―１東北大学青葉山ガレージ,,04,101,9800845,,,2026-02-09,清算の結了等,,,2024-05-30,1,,,,,トホペ,0
1908,7390001016891,登記記録の閉鎖等,0,2026-02-13,2026-02-09,株式会社Ａ　ＨＵＭＡＮ,,株式会社,山形県,最上郡金山町,大字金山４５１番地６,,06,361,9995402,,,2026-02-09,清算の結了等,,,2022-05-13,1,,,,,アヒューマン,0
1916,7500001012284,登記記録の閉鎖等,0,2026-02-13,2026-02-10,鳳洋海運株式会社,,株式会社,愛媛県,今治市,通町２丁目３番地２７,,38,202,7940036,,,2026-02-10,清算の結了等,,,2015-10-05,1,,,,,ホウヨウカイウン,0
1918,7500002021929,登記記録の閉鎖等,0,2026-02-13,2026-02-10,有限会社森川水道工業,,有限会社,愛媛県,四国中央市,金生町下分７７４番地の３,,38,213,7990111,,,2026-02-10,合併による解散等,4500001009746,令和８年１月３０日愛媛県新居浜市萩生４１番地の１加賀工業株式会社（4500001009746）に合併し解散,2015-10-05,1,,,,,モリカワスイドウコウギョウ,0
1922,8010001028602,登記記録の閉鎖等,0,2026-02-13,2026-01-27,フロリア株式会社,,株式会社,東京都,中央区,日本橋人形町１丁目２番６号,,13,102,1030013,,,2026-01-27,清算の結了等,,,2015-10-05,1,,,,,フロリア,0
1931,8010001238548,登記記録の閉鎖等,0,2026-02-13,2026-01-22,株式会社寰宇優仕,,株式会社,東京都,中央区,銀座１丁目１２番４号Ｎ＆ＥＢＬＤ．６Ｆ,,13,102,1040061,,,2026-01-22,清算の結了等,,,2023-09-19,1,,,,,カンウユウシ,0
1950,8010403017434,登記記録の閉鎖等,0,2026-02-13,2026-01-23,Ｓｃａｌａ１合同会社,,合同会社,東京都,港区,虎ノ門２丁目６番１号,,13,103,1050001,,,2026-01-23,清算の結了等,,,2017-10-20,1,,,,,スカーラワン,0
1973,8011001105192,登記記録の閉鎖等,0,2026-02-13,2026-02-04,株式会社ボールギャランティ,,株式会社,東京都,目黒区,鷹番２丁目５番２１号,,13,110,1520004,,,2026-02-04,合併による解散等,1011001126253,令和８年２月１日東京都目黒区鷹番二丁目５番２１号３階株式会社ボールディベロップメント（1011001126253）に合併し解散,2015-10-05,1,,,,,ボールギャランティ,0
1975,8011001130827,登記記録の閉鎖等,0,2026-02-13,2026-02-06,株式会社池田グループ,,株式会社,東京都,渋谷区,幡ヶ谷３丁目３９番１２号渋谷ウェストビル１階,,13,113,1510072,,,2026-02-06,清算の結了等,,,2019-11-11,1,,,,,イケダグループ,0
2008,8012805003111,登記記録の閉鎖等,0,2026-02-13,2026-02-05,一般社団法人心のパートナー,,その他の設立登記法人,東京都,国分寺市,東恋ヶ窪４丁目６番地１９,,13,214,1850014,,,2026-02-05,清算の結了等,,,2022-05-02,1,,,,,ココロノパートナー,0
2053,8030003012544,登記記録の閉鎖等,0,2026-02-13,2026-02-04,合同会社エフエヌ,,合同会社,埼玉県,上尾市,向山３丁目３番地１５,,11,219,3620045,,,2026-02-04,清算の結了等,,,2018-10-11,1,,,,,エフエヌ,0
2062,8040003008252,登記記録の閉鎖等,0,2026-02-13,2026-01-19,合同会社オフィス望,,合同会社,千葉県,千葉市中央区,富士見２丁目７番９号富士見ビル６０９号,,12,101,2600015,,,2026-01-19,清算の結了等,,,2016-02-19,1,,,,,オフィスノゾミ,0
2067,8050003009134,登記記録の閉鎖等,0,2026-02-13,2025-11-25,６８リサイクルショップ合同会社,,合同会社,茨城県,古河市,新久田１３１番地１９,,08,204,3060044,,,2025-11-25,清算の結了等,,,2025-03-28,1,,,,,ロクジュウハチリサイクルショップ,0
2079,8080105002323,登記記録の閉鎖等,0,2026-02-13,2026-02-09,アーキ・ユニティー設計事業協同組合,,その他の設立登記法人,静岡県,三島市,北田町２番２８号,,22,206,4110854,,,2026-02-09,清算の結了等,,,2015-10-05,1,,,,,アーキユニティーセッケイ,0
2082,8090001001262,登記記録の閉鎖等,0,2026-02-13,2026-02-09,株式会社ダイショウ印刷,,株式会社,山梨県,甲府市,上石田４丁目９番１２号,,19,201,4000041,,,2026-02-09,清算の結了等,,,2015-10-05,1,,,,,ダイショウインサツ,0
2085,8110001019475,登記記録の閉鎖等,0,2026-02-13,2026-01-22,株式会社ＯＴ企画,,株式会社,千葉県,東金市,小沼田１２６６番地１２,,12,213,2830044,,,2026-01-22,清算の結了等,,,2015-10-05,1,,,,,オーティーキカク,0
2105,8120002034068,登記記録の閉鎖等,0,2026-02-13,2026-02-10,有限会社有馬号,,有限会社,大阪府,大阪市中央区,北浜２丁目４番８号,,27,128,5410041,,,2026-02-10,清算の結了等,,,2015-10-05,1,,,,,アリマゴウ,0
2112,8122001022383,登記記録の閉鎖等,0,2026-02-13,2026-02-02,株式会社松浦精研,,株式会社,大阪府,八尾市,老原１丁目５０番地の６,,27,212,5810092,,,2026-02-02,清算の結了等,,,2015-10-05,1,,,,,マツウラセイケン,0
2113,8122001037290,登記記録の閉鎖等,0,2026-02-13,2026-02-10,株式会社近畿産業,,株式会社,奈良県,御所市,大字栗阪引野１０８番地,,29,208,6392256,,,2026-02-10,清算の結了等,,,2023-08-25,1,,,,,キンキサンギョウ,0
2121,8150001006981,登記記録の閉鎖等,0,2026-02-13,2026-02-10,株式会社黒松商会,,株式会社,奈良県,生駒郡斑鳩町,龍田西２丁目１番３４号,00042786,29,344,6360154,,,2026-02-10,清算の結了等,,,2015-10-05,1,,,,,クロマツショウカイ,0
2126,8180001036992,登記記録の閉鎖等,0,2026-02-13,2026-02-09,株式会社商品開発システムズ,,株式会社,愛知県,名古屋市中区,大井町４番１７号,,23,106,4600015,,,2026-02-09,清算の結了等,,,2015-10-05,1,,,,,ショウヒンカイハツシステムズ,0
2136,8180001143814,登記記録の閉鎖等,0,2026-02-13,2026-02-06,株式会社ＶＣＯＸ,,株式会社,愛知県,名古屋市名東区,若葉台１５１２フォーリアＩＩ１０１,00123999,23,115,4650015,,,2026-02-06,清算の結了等,,,2020-12-04,1,,,,,ヴコックス,0
2141,8180005000929,登記記録の閉鎖等,0,2026-02-13,2026-02-10,日本ペンテコステ神之教会教団キリスト教会,00074038,その他の設立登記法人,愛知県,名古屋市港区,東茶屋１丁目４９４番地,,23,111,4550851,,,2026-02-10,清算の結了等,,,2015-10-05,1,,,,,ニホンペンテコステカミノキョウカイキョウダンキリストキョウカイ,0
2143,8190001009964,登記記録の閉鎖等,0,2026-02-13,2026-02-02,株式会社白鳳アドバンス,,株式会社,三重県,伊賀市,西明寺２２１７番地の５,,24,216,5180809,,,2026-02-02,合併による解散等,5190001009736,令和８年２月１日三重県伊賀市西明寺２２１７番地の５白鳳アーキテック株式会社（5190001009736）に合併し解散,2015-10-05,1,,,,,ハクホウアドバンス,0
2152,8260001030392,登記記録の閉鎖等,0,2026-02-13,2026-02-12,株式会社アイティーシー,,株式会社,岡山県,岡山市東区,西大寺新地２０１番地,,33,103,7048122,,,2026-02-12,清算の結了等,,,2017-01-18,1,,,,,アイティーシー,0
2181,8360001033006,登記記録の閉鎖等,0,2026-02-13,2026-02-10,株式会社ＣＡＢＩＮＮ,,株式会社,沖縄県,宮古島市,下地字与那覇２８１番地８,,47,214,9060305,,,2026-02-10,清算の結了等,,,2023-12-28,1,,,,,キャビン,0
2189,8380002034083,登記記録の閉鎖等,0,2026-02-13,2026-01-09,有限会社オート製作所,,有限会社,福島県,河沼郡会津坂下町,大字坂本字家ノ下丁１２３７番地の６,,07,421,9696586,,,2026-01-09,清算の結了等,,,2015-10-05,1,,,,,オートセイクサジョ,0
2191,8410001007474,登記記録の閉鎖等,0,2026-02-13,2026-02-04,株式会社寝具のさいとう,,株式会社,秋田県,山本郡藤里町,藤琴字藤琴１９８番地,,05,346,0183201,,,2026-02-04,清算の結了等,,,2015-10-05,1,,,,,シングノサイトウ,0
2193,8430001027553,登記記録の閉鎖等,0,2026-02-13,2025-10-08,株式会社トライシス,,株式会社,北海道,札幌市豊平区,平岸二条６丁目１－１４三慶ビル４Ｆ,,01,105,0620932,,,2025-10-08,合併による解散等,7180001140424,令和７年１０月１日東京都八王子市宇津木町５２３番地１株式会社アペックス（7180001140424）に合併し解散,2015-10-05,1,,,,,トライシス,0
2205,8480002013416,登記記録の閉鎖等,0,2026-02-13,2026-02-13,有限会社中島化粧品店,,有限会社,徳島県,阿南市,羽ノ浦町中庄原婦知２３番地２,,36,204,7791101,,,2026-02-13,清算の結了等,,,2015-10-05,1,,,,,ナカジマケショウヒンテン,0
2206,8500001015402,登記記録の閉鎖等,0,2026-02-13,2026-02-04,株式会社趣味の着物花柳,,株式会社,愛媛県,宇和島市,中央町１丁目６番７号,,38,203,7980040,,,2026-02-04,清算の結了等,,,2015-10-05,1,,,,,シュミノキモノハナヤギ,0
2213,9010001163150,登記記録の閉鎖等,0,2026-02-13,2026-01-22,ＮＢケアサービス株式会社,,株式会社,東京都,中央区,銀座３丁目４番１２号,,13,102,1040061,,,2026-01-22,清算の結了等,,,2015-10-05,1,,,,,エヌビーケアサービス,0
2230,9010403031343,登記記録の閉鎖等,0,2026-02-13,2026-01-21,合同会社そらむ,,合同会社,東京都,港区,北青山１丁目３番１号アールキューブ青山３階,,13,103,1070061,,,2026-01-21,清算の結了等,,,2023-12-07,1,,,,,ソラム,0
2234,9010405013439,登記記録の閉鎖等,0,2026-02-13,2026-01-21,ＲＷ千葉北２一般社団法人,,その他の設立登記法人,東京都,港区,赤坂２丁目１０番５号デロイトトーマツ赤坂インターナショナル株式会社内,,13,103,1070052,,,2026-01-21,清算の結了等,,,2015-10-05,1,,,,,アールダブリューチバキタツー,0
2281,9020003022709,登記記録の閉鎖等,0,2026-02-13,2026-01-26,合同会社Ｎ　Ａｖｅｎｕｅ,,合同会社,神奈川県,横浜市西区,北幸２丁目１０番４８号むつみビル３階,,14,103,2200004,,,2026-01-26,清算の結了等,,,2022-11-10,1,,,,,エヌアベニュー,0
2315,9050005007531,登記記録の閉鎖等,0,2026-02-13,2026-01-30,特定非営利活動法人ほっと,,その他の設立登記法人,茨城県,北茨城市,磯原町磯原１６３０番地の８６,,08,215,3191541,,,2026-01-30,清算の結了等,,,2015-10-05,1,,,,,,0
2317,9080002010576,登記記録の閉鎖等,0,2026-02-13,2026-02-09,有限会社滝戸医院,,有限会社,静岡県,静岡市清水区,村松原１丁目２番５号,,22,103,4240934,,,2026-02-09,清算の結了等,,,2015-10-05,1,,,,,タキドイイン,0
2331,9120001170763,登記記録の閉鎖等,0,2026-02-13,2026-02-09,楽薬株式会社,,株式会社,大阪府,大阪市天王寺区,玉造元町３番１４号グランドムール玉造ＩＩ６０２号,00029663,27,109,5430014,,,2026-02-09,清算の結了等,,,2015-10-05,1,,,,,ラクヤク,0
2334,9120001247768,登記記録の閉鎖等,0,2026-02-13,2026-02-06,芙楽株式会社,,株式会社,大阪府,大阪市東淀川区,西淡路１丁目１－９ビジネス新大阪７０７号室,,27,114,5330031,,,2026-02-06,清算の結了等,,,2022-08-01,1,,,,,フウラク,0
2337,9120001264086,登記記録の閉鎖等,0,2026-02-13,2026-02-06,新辰株式会社,,株式会社,大阪府,大阪市北区,本庄東３丁目３番７号マンション淀３０２Ｃ,,27,127,5310074,,,2026-02-06,清算の結了等,,,2024-04-18,1,,,,,シンタツ,0
2358,9120902015257,登記記録の閉鎖等,0,2026-02-13,2026-02-09,有限会社ケイ・ワイ・メディカル,,有限会社,大阪府,箕面市,船場西１丁目６番７号,,27,220,5620036,,,2026-02-09,清算の結了等,,,2015-10-05,1,,,,,ケイワイメディカル,0
2386,9180002002670,登記記録の閉鎖等,0,2026-02-13,2026-02-06,有限会社ダイケン商事,,有限会社,愛知県,名古屋市名東区,神月町８０８番地,,23,115,4650006,,,2026-02-06,清算の結了等,,,2015-10-05,1,,,,,ダイケンショウジ,0
2388,9180002046552,登記記録の閉鎖等,0,2026-02-13,2026-02-09,有限会社シーイーアシスト,,有限会社,愛知県,名古屋市中川区,万場３丁目１００４番地,,23,110,4540997,,,2026-02-09,清算の結了等,,,2015-10-05,1,,,,,シーイーアシスト,0
2395,9180302017336,登記記録の閉鎖等,0,2026-02-13,2026-02-06,有限会社明法クリーン工業,,有限会社,愛知県,安城市,東町荒井３番地５,,23,212,4441153,,,2026-02-06,清算の結了等,,,2015-10-05,1,,,,,メイホウクリーンコウギョウ,0
2404,9200002015802,登記記録の閉鎖等,0,2026-02-13,2026-02-06,有限会社若山ゴム,,有限会社,岐阜県,揖斐郡揖斐川町,谷汲名礼１１７８番地の１,00076988,21,401,5011314,,,2026-02-06,清算の結了等,,,2015-10-05,1,,,,,ワカヤマゴム,0
2411,9230002001972,登記記録の閉鎖等,0,2026-02-13,2026-02-10,有限会社高木工務店,00079010,有限会社,富山県,富山市,東田地方町２丁目６番９号,,16,201,9300017,,,2026-02-10,清算の結了等,,,2015-10-05,1,,,,,タカギコウムテン,0
2412,9230002002252,登記記録の閉鎖等,0,2026-02-13,2026-02-09,有限会社電測機器研究所,,有限会社,富山県,富山市,本郷町１９番地の４２,,16,201,9398045,,,2026-02-09,清算の結了等,,,2015-10-05,1,,,,,デンソクキキケンキュウジョ,0
2413,9230002005833,登記記録の閉鎖等,0,2026-02-13,2026-02-09,有限会社サカイハウス,,有限会社,富山県,中新川郡上市町,広野２６７６番地,,16,322,9300412,,,2026-02-09,清算の結了等,,,2015-10-05,1,,,,,サカイハウス,0
2414,9230002013712,登記記録の閉鎖等,0,2026-02-13,2026-02-06,有限会社渋谷刺繍,,有限会社,富山県,射水市,放生津町１８番２号,,16,211,9340022,,,2026-02-06,清算の結了等,,,2015-10-05,1,,,,,シブタニシシュウ,0
2417,9250002016317,登記記録の閉鎖等,0,2026-02-13,2026-02-10,有限会社ショーケン,,有限会社,山口県,周南市,野村３丁目４番２８号,,35,215,7460022,,,2026-02-10,清算の結了等,,,2015-10-05,1,,,,,ショーケン,0
2419,9260002014609,登記記録の閉鎖等,0,2026-02-13,2026-02-10,有限会社白神建工,,有限会社,岡山県,岡山市南区,新福１丁目１３番７号パークサイド新福Ｃ２０２,,33,104,7000943,,,2026-02-10,清算の結了等,,,2015-10-05,1,,,,,シラガケンコウ,0
2420,9270002009327,登記記録の閉鎖等,0,2026-02-13,2026-02-09,山陰損調有限会社,,有限会社,鳥取県,西伯郡南部町,福成６６５番地７,,31,389,6830312,,,2026-02-09,清算の結了等,,,2015-10-05,1,,,,,,0
2428,9290802024960,登記記録の閉鎖等,0,2026-02-13,2026-02-09,有限会社コトブキ薬局,,有限会社,福岡県,田川郡福智町,赤池５２１番地の６３,,40,610,8221101,,,2026-02-09,清算の結了等,,,2015-10-05,1,,,,,コトブキヤッキョク,0
2437,9360001024276,登記記録の閉鎖等,0,2026-02-13,2026-01-05,株式会社ジョウマ宮古,,株式会社,沖縄県,宮古島市,平良字西仲宗根３８８番地３,,47,214,9060006,,,2026-01-05,合併による解散等,5360001018050,令和８年１月１日沖縄県那覇市字国場３６番地、１Ｆ株式会社ジョウマ（5360001018050）に合併し解散,2018-07-11,1,,,,,ジョウマミヤコ,0
2438,9360002020225,登記記録の閉鎖等,0,2026-02-13,2026-02-09,有限会社サクエフーズ,,有限会社,沖縄県,国頭郡本部町,字東４５７番地の１,,47,308,9050211,,,2026-02-09,清算の結了等,,,2015-10-05,1,,,,,サクエフーズ,0
2439,9360003000110,登記記録の閉鎖等,0,2026-02-13,2026-02-09,合資会社泉エンジニアリング,,合資会社,沖縄県,那覇市,古島１丁目１番地の２,,47,201,9020061,,,2026-02-09,清算の結了等,,,2015-10-05,1,,,,,イズミエンジニアリング,0
2441,9360003011603,登記記録の閉鎖等,0,2026-02-13,2026-02-10,合同会社ナチュラルライフ,,合同会社,沖縄県,豊見城市,字豊見城１３６番地１階,,47,212,9010241,,,2026-02-10,清算の結了等,,,2021-12-01,1,,,,,ナチュラルライフ,0
