sequenceNumber,corporateNumber,process,correct,updateDate,changeDate,name,nameImageId,kind,prefectureName,cityName,streetNumber,addressImageId,prefectureCode,cityCode,postCode,addressOutside,addressOutsideImageId,closeDate,closeCause,successorCorporateNumber,changeCause,assignmentDate,latest,enName,enPrefectureName,enCityName,enAddressOutside,furigana,hihyoji
5,1010001230932,新規,0,2022-11-21,2022-11-21,株式会社ＢＬＵＥ,,株式会社,東京都,中央区,晴海３丁目１３番１－５１１８号,,13,102,1040053,,,,,,,2022-11-21,1,,,,,ブルー,0
6,1010001230940,新規,0,2022-11-21,2022-11-21,ＭＣグローバルソーシング株式会社,,株式会社,東京都,千代田区,大手町１丁目４番２号,,13,101,1000004,,,,,,,2022-11-21,1,,,,,エムシーグローバルソーシング,0
7,1010001230973,新規,0,2022-11-21,2022-11-21,株式会社エラドゥーラ,,株式会社,東京都,中央区,勝どき１丁目８番１－３００８号,,13,102,1040054,,,,,,,2022-11-21,1,,,,,エラドゥーラ,0
9,1010003039018,新規,0,2022-11-21,2022-11-21,合同会社ＪＤＩＰ‐８,,合同会社,東京都,千代田区,九段北３丁目２番４号,,13,101,1020073,,,,,,,2022-11-21,1,,,,,ジェイディーアイピーエイト,0
10,1010005035816,新規,0,2022-11-21,2022-11-21,一般社団法人ウリィド,,その他の設立登記法人,東京都,千代田区,丸の内３丁目１番１号東京共同会計事務所内,,13,101,1000005,,,,,,,2022-11-21,1,,,,,ウリィド,0
14,1010401170844,新規,0,2022-11-21,2022-11-21,株式会社バクエバ,,株式会社,東京都,港区,南青山１丁目１５－２越山ビル５階,,13,103,1070062,,,,,,,2022-11-21,1,,,,,バクエバ,0
15,1010401170902,新規,0,2022-11-21,2022-11-21,株式会社ｆｌｏｏｍ　Ｐａｒｔｎｅｒｓ,,株式会社,東京都,港区,東新橋１丁目６－３ザロイヤルパークホテルアイコニック東京汐留２４Ｆ,,13,103,1050021,,,,,,,2022-11-21,1,,,,,フルームパートナーズ,0
16,1010401170951,新規,0,2022-11-21,2022-11-21,株式会社Ｌｙｎｘ,,株式会社,東京都,港区,南青山３丁目１番３６号青山丸竹ビル６Ｆ,,13,103,1070062,,,,,,,2022-11-21,1,,,,,リンクス,0
22,1010601062189,新規,0,2022-11-21,2022-11-21,株式会社ＩＫＡＲＵＧＡ,,株式会社,東京都,江東区,豊洲３丁目６番８号シティタワーズ豊洲ザシンボル２２１８号,,13,108,1350061,,,,,,,2022-11-21,1,,,,,イカルガ,0
24,1010603009849,新規,0,2022-11-21,2022-11-21,合同会社美創,,合同会社,東京都,江東区,東雲１丁目９番４２－３６０８号,,13,108,1350062,,,,,,,2022-11-21,1,,,,,ビソウ,0
29,1010701043502,新規,0,2022-11-21,2022-11-21,株式会社Ｑ企画,,株式会社,東京都,品川区,小山４丁目４－７コスモ武蔵小山ビル８Ｆｎаｇаｙа８ｆ,,13,109,1420062,,,,,,,2022-11-21,1,,,,,キューキカク,0
34,1011001150971,新規,0,2022-11-21,2022-11-21,株式会社アンドプラネット,,株式会社,東京都,渋谷区,神宮前４丁目１８－９ボヌール表参道３Ｆ,,13,113,1500001,,,,,,,2022-11-21,1,,,,,アンドプラネット,0
35,1011003015611,新規,0,2022-11-21,2022-11-21,合同会社ｍｏｍｏ,,合同会社,東京都,渋谷区,桜丘町１８－４二宮ビル１Ｆ,,13,113,1500031,,,,,,,2022-11-21,1,,,,,モモ,0
36,1011003015685,新規,0,2022-11-21,2022-11-21,合同会社ＳＮＫＹ,,合同会社,東京都,渋谷区,幡ヶ谷３丁目６８番８－３０４号,,13,113,1510072,,,,,,,2022-11-21,1,,,,,サンキー,0
37,1011003015727,新規,0,2022-11-21,2022-11-21,合同会社マクロビオティックワークス,,合同会社,東京都,渋谷区,西原３丁目１４－１６,,13,113,1510066,,,,,,,2022-11-21,1,,,,,マクロビオティックワークス,0
38,1011003015735,新規,0,2022-11-21,2022-11-21,合同会社００Ｗ０,,合同会社,東京都,目黒区,五本木２丁目５０－１２,,13,110,1530053,,,,,,,2022-11-21,1,,,,,フィフスゼロ,0
42,1011101100892,新規,0,2022-11-21,2022-11-21,株式会社ＴＨＥ　ＯＭＥＧＡ　ＳＵＮ,,株式会社,東京都,新宿区,高田馬場４丁目２８番１９号藤間ビル３０１号室,,13,104,1690075,,,,,,,2022-11-21,1,,,,,ザオメガサン,0
43,1011101100918,新規,0,2022-11-21,2022-11-21,株式会社Ｃｒａｖａｌ,,株式会社,東京都,新宿区,西新宿３丁目３番１３号西新宿水間ビル２Ｆ,,13,104,1600023,,,,,,,2022-11-21,1,,,,,クラバル,0
48,1011501028692,新規,0,2022-11-21,2022-11-21,潤林株式会社,,株式会社,東京都,北区,滝野川３丁目９番２号西巣鴨ＫＴＢビル２階,,13,117,1140023,,,,,,,2022-11-21,1,,,,,ジュンリン,0
49,1011603003750,新規,0,2022-11-21,2022-11-21,合同会社伏龍,,合同会社,東京都,練馬区,東大泉６丁目２－２６－２０２,,13,120,1780063,,,,,,,2022-11-21,1,,,,,フクリュウ,0
56,1012301013199,新規,0,2022-11-21,2022-11-21,株式会社シューツー,,株式会社,東京都,町田市,鶴間３丁目１５番地３,,13,209,1940004,,,,,,,2022-11-21,1,,,,,シューツー,0
70,1020001149032,新規,0,2022-11-21,2022-11-21,株式会社一建,,株式会社,神奈川県,横浜市青葉区,あざみ野１丁目３０番地１３第２シスルマンション１０２,,14,117,2250011,,,,,,,2022-11-21,1,,,,,イチケン,0
71,1020001149040,新規,0,2022-11-21,2022-11-21,株式会社デイズトランスアンドサービス,,株式会社,神奈川県,横浜市戸塚区,原宿２丁目３５番２７号,,14,110,2450063,,,,,,,2022-11-21,1,,,,,デイズトランスアンドサービス,0
72,1020001149049,新規,0,2022-11-21,2022-11-21,ヨコハマ・スタッコ株式会社,,株式会社,神奈川県,横浜市青葉区,美しが丘西３丁目６番地１３,,14,117,2250001,,,,,,,2022-11-21,1,,,,,ヨコハマスタッコ,0
73,1020001149057,新規,0,2022-11-21,2022-11-21,株式会社池澤産業,,株式会社,神奈川県,横浜市泉区,緑園１丁目１２番４号,,14,116,2450002,,,,,,,2022-11-21,1,,,,,イケザワサンギョウ,0
74,1020001149073,新規,0,2022-11-21,2022-11-21,株式会社オマカセ,,株式会社,神奈川県,横浜市都筑区,川和町２３８８,,14,118,2240057,,,,,,,2022-11-21,1,,,,,オマカセ,0
76,1020003022757,新規,0,2022-11-21,2022-11-21,合同会社ルーナ,,合同会社,神奈川県,横浜市栄区,上郷町１２１４番地１６内田テラス２号,,14,115,2470013,,,,,,,2022-11-21,1,,,,,ルーナ,0
92,1030001151144,新規,0,2022-11-21,2022-11-21,株式会社Ｄｅｆｔ,,株式会社,埼玉県,戸田市,美女木３丁目８番４号,,11,224,3350031,,,,,,,2022-11-21,1,,,,,デフト,0
93,1030001151152,新規,0,2022-11-21,2022-11-21,ショダイ株式会社,,株式会社,埼玉県,八潮市,大字柳之宮１５７番地１４,,11,234,3400832,,,,,,,2022-11-21,1,,,,,ショダイ,0
95,1030003020603,新規,0,2022-11-21,2022-11-21,リバレイト・カラーズ合同会社,,合同会社,埼玉県,蓮田市,大字黒浜２３３８番地２クレールサイフク１０２号,,11,238,3490101,,,,,,,2022-11-21,1,,,,,リバレイトカラーズ,0
105,1040001125915,新規,0,2022-11-21,2022-11-21,株式会社ＮＩＫＵＭＩ,,株式会社,千葉県,流山市,おおたかの森東３丁目３０番地の１８－１０２号,,12,220,2700138,,,,,,,2022-11-21,1,,,,,ニクミ,0
106,1040001125948,新規,0,2022-11-21,2022-11-21,株式会社電気ＷＯＲＬＤ,,株式会社,千葉県,松戸市,松戸新田３番地の３,,12,207,2702241,,,,,,,2022-11-21,1,,,,,デンキワールド,0
109,1040003021303,新規,0,2022-11-21,2022-11-21,合同会社ＡＮＨ　ＴＨＵ,,合同会社,千葉県,船橋市,金杉台１丁目２番６棟３０２号,,12,204,2730852,,,,,,,2022-11-21,1,,,,,アントゥ,0
110,1040003021311,新規,0,2022-11-21,2022-11-21,アグラフロー合同会社,,合同会社,千葉県,流山市,おおたかの森南１丁目１３番地の１エイミーグラントＤ－１０５,,12,220,2700139,,,,,,,2022-11-21,1,,,,,アグラフロー,0
117,1050003007029,新規,0,2022-11-21,2022-11-21,ＵＮＩＶＥＲＳＡＬ　ＴＲＡＤＩＮＧ合同会社,,合同会社,茨城県,常陸大宮市,下檜沢３５１３番地,,08,225,3192512,,,,,,,2022-11-21,1,,,,,ユニバーサルトレーディング,0
118,1060003004314,新規,0,2022-11-21,2022-11-21,ＶＩＮＡＹ　ＴＲＡＤＩＮＧ合同会社,,合同会社,栃木県,栃木市,岩舟町新里１３０４番地１３号室,,09,203,3294316,,,,,,,2022-11-21,1,,,,,ビーナイトレーディング,0
122,1080401026164,新規,0,2022-11-21,2022-11-21,ＪＰ　ａｕｔｏ株式会社,,株式会社,静岡県,磐田市,大原１４７番地１号,,22,211,4371211,,,,,,,2022-11-21,1,,,,,ジェイピーオート,0
124,1090003002199,新規,0,2022-11-21,2022-11-21,ＪＡＭ合同会社,,合同会社,山梨県,笛吹市,一宮町東原４９４－１,,19,211,4050075,,,,,,,2022-11-21,1,,,,,ジャム,0
126,1100001035901,新規,0,2022-11-21,2022-11-21,株式会社ＴＭ,,株式会社,長野県,長野市,三輪８丁目１０番６号,,20,201,3800803,,,,,,,2022-11-21,1,,,,,ティーエム,0
132,1120001250424,新規,0,2022-11-21,2022-11-21,株式会社ＳＫＹ,,株式会社,大阪府,大阪市浪速区,日本橋４丁目２番２０号コア日本橋２０２号室,,27,111,5560005,,,,,,,2022-11-21,1,,,,,スカイ,0
137,1120003022920,新規,0,2022-11-21,2022-11-21,合同会社ＴｈｒｅｅＣｏｌｏｒｓ,,合同会社,大阪府,大阪市中央区,久太郎町１丁目５－１３富士ビル２０７,,27,128,5410056,,,,,,,2022-11-21,1,,,,,スリーカラーズ,0
139,1120901046772,新規,0,2022-11-21,2022-11-21,株式会社ＫＩＣＫ‐ＳＴＹＬＥ,,株式会社,大阪府,吹田市,山田西１丁目８番３－３０９号,,27,205,5650824,,,,,,,2022-11-21,1,,,,,キックスタイル,0
144,1130001073097,新規,0,2022-11-21,2022-11-21,株式会社スカイアップオフィス,,株式会社,京都府,向日市,寺戸町蔵ノ町５番地の７０,,26,208,6170002,,,,,,,2022-11-21,1,,,,,スカイアップオフィス,0
154,1140001128131,新規,0,2022-11-21,2022-11-21,株式会社ワールドリンク,,株式会社,兵庫県,神戸市中央区,下山手通６丁目１番４号オフィス下山手３階Ａ,,28,110,6500011,,,,,,,2022-11-21,1,,,,,ワールドリンク,0
160,1140005026380,新規,0,2022-11-21,2022-11-21,農事組合法人冨岡営農組合,,その他の設立登記法人,兵庫県,三木市,吉川町冨岡２０８９番地,,28,215,6731102,,,,,,,2022-11-21,1,,,,,トミオカエイノウクミアイ,0
162,1150001025971,新規,0,2022-11-21,2022-11-21,山口工務店株式会社,,株式会社,奈良県,生駒市,北田原町２１４８番地,,29,209,6300142,,,,,,,2022-11-21,1,,,,,ヤマグチコウムテン,0
170,1180001153893,新規,0,2022-11-21,2022-11-21,株式会社Ｃ・Ｋサービス,,株式会社,愛知県,愛西市,日置町本郷５０番地,,23,232,4960906,,,,,,,2022-11-21,1,,,,,シーケーサービス,0
171,1180001153902,新規,0,2022-11-21,2022-11-21,株式会社バモスクルー,,株式会社,愛知県,名古屋市東区,葵２丁目１４番３１号,,23,102,4610004,,,,,,,2022-11-21,1,,,,,バモスクルー,0
172,1180001153910,新規,0,2022-11-21,2022-11-21,株式会社アクトテクノ,,株式会社,愛知県,一宮市,浅井町大野字東山１２番地１２,,23,203,4910143,,,,,,,2022-11-21,1,,,,,アクトテクノ,0
185,1240005015489,新規,0,2022-11-21,2022-11-21,一般社団法人ホールドハンズ,,その他の設立登記法人,広島県,三原市,沼田西町惣定９１１番地８,,34,204,7290474,,,,,,,2022-11-21,1,,,,,ホールドハンズ,0
188,1270001008667,新規,0,2022-11-21,2022-11-21,株式会社ＩＬＬ‐ＮＡＴＩＯＮＳ,,株式会社,鳥取県,日野郡日南町,丸山３５番地の１,,31,401,6895213,,,,,,,2022-11-21,1,,,,,イルネイションズ,0
193,1290001099639,新規,0,2022-11-21,2022-11-21,株式会社アバンサー,,株式会社,福岡県,福岡市東区,香椎照葉７丁目５番３号,,40,131,8130017,,,,,,,2022-11-21,1,,,,,アバンサー,0
195,1290003013218,新規,0,2022-11-21,2022-11-21,合同会社吉武技工,,合同会社,福岡県,福岡市早良区,早良７丁目１５番２号,,40,137,8111122,,,,,,,2022-11-21,1,,,,,ヨシタケギコウ,0
213,1360001031230,新規,0,2022-11-21,2022-11-21,Ｊａｐａｎ　Ｒｅｓｔａｕｒａｎｔｓ　Ｄｅｖｅｌｏｐｍｅｎｔ　Ｏｋｉｎａｗａ株式会社,,株式会社,沖縄県,那覇市,泉崎１丁目２０番１号カフーナ旭橋Ａ街区那覇オーパ３階,,47,201,9000021,,,,,,,2022-11-21,1,,,,,ジャパンレストランツデベロップメントオキナワ,0
214,1360003012476,新規,0,2022-11-21,2022-11-21,合同会社Ｋ’ｓ　Ｃｒｅａｔｉｏｎ,,合同会社,沖縄県,那覇市,銘苅２丁目８－２４マンションひまわり２０１,,47,201,9000004,,,,,,,2022-11-21,1,,,,,ケイズクリエーション,0
220,1390003002020,新規,0,2022-11-21,2022-11-21,合同会社ｏｈａｎａ,,合同会社,山形県,南陽市,宮内４６２４‐７,,06,213,9920472,,,,,,,2022-11-21,1,,,,,オハナ,0
227,1430003014481,新規,0,2022-11-21,2022-11-21,合同会社ＳＨＩＲＡＳＡＫＩ,,合同会社,北海道,札幌市白石区,菊水九条３丁目２番４１号,,01,104,0030809,,,,,,,2022-11-21,1,,,,,シラサキ,0
234,1500001024608,新規,0,2022-11-21,2022-11-21,株式会社プリエクリエーションサービス,,株式会社,愛媛県,松山市,松前町１丁目３番地１５アイビル西堀端２Ｆ,,38,201,7900812,,,,,,,2022-11-21,1,,,,,プリエクリエーションサービス,0
245,2010003039041,新規,0,2022-11-21,2022-11-21,ダイヤモンドホライズン合同会社,,合同会社,東京都,中央区,銀座１丁目２２番１１号銀座大竹ビジデンス２階,,13,102,1040061,,,,,,,2022-11-21,1,,,,,ダイヤモンドホライズン,0
246,2010003039132,新規,0,2022-11-21,2022-11-21,高田馬場合同会社,,合同会社,東京都,千代田区,神田小川町３丁目２６番８号神田小川町三丁目ビル６階,,13,101,1010052,,,,,,,2022-11-21,1,,,,,タカダノババ,0
253,2010501049657,新規,0,2022-11-21,2022-11-21,株式会社益彰,,株式会社,東京都,台東区,千束３丁目９－５浅草桜ノ宮２０１号室,,13,106,1110031,,,,,,,2022-11-21,1,,,,,エキショウ,0
254,2010603009848,新規,0,2022-11-21,2022-11-21,合同会社１ｐｘ,,合同会社,東京都,江東区,豊洲１丁目２番２７－８１２号,,13,108,1350061,,,,,,,2022-11-21,1,,,,,イチピクセル,0
260,2010703006472,新規,0,2022-11-21,2022-11-21,合同会社澤田コーポレーション,,合同会社,東京都,品川区,二葉１丁目７番１１号,,13,109,1420043,,,,,,,2022-11-21,1,,,,,サワダコーポレーション,0
273,2011001150871,新規,0,2022-11-21,2022-11-21,日本訪問看護株式会社,,株式会社,東京都,渋谷区,円山町５番５号Ｎａｖｉ渋谷Ｖ３階,,13,113,1500044,,,,,,,2022-11-21,1,,,,,ニホンホウモンカンゴ,0
274,2011001151003,新規,0,2022-11-21,2022-11-21,株式会社ＢＥＬＬ　ＧＬＯＢＡＬ,,株式会社,東京都,渋谷区,富ヶ谷１丁目４３－１０ベルパーク富ヶ谷１０１号,,13,113,1510063,,,,,,,2022-11-21,1,,,,,ベルグローバル,0
277,2011005009825,新規,0,2022-11-21,2022-11-21,一般社団法人リターンボディダイエット協会,,その他の設立登記法人,東京都,渋谷区,神宮前６丁目２３番４号桑野ビル２階,,13,113,1500001,,,,,,,2022-11-21,1,,,,,リターンボディダイエットキョウカイ,0
278,2011101100891,新規,0,2022-11-21,2022-11-21,株式会社ＹＰＭ,,株式会社,東京都,新宿区,大久保２丁目１３番５号福華ビル２０８号室,,13,104,1690072,,,,,,,2022-11-21,1,,,,,ワイピーエム,0
281,2011401024709,新規,0,2022-11-21,2022-11-21,ヒバリ株式会社,,株式会社,東京都,板橋区,大谷口２丁目４６－７コーポサンマリノ１０１,,13,119,1730035,,,,,,,2022-11-21,1,,,,,ヒバリ,0
285,2011803005389,新規,0,2022-11-21,2022-11-21,合同会社グレイスフィールド,,合同会社,東京都,葛飾区,四つ木１丁目２０番２号エムエス四ツ木ビル３０１,,13,122,1240011,,,,,,,2022-11-21,1,,,,,グレイスフィールド,0
286,2012301013215,新規,0,2022-11-21,2022-11-21,株式会社ダイグン,,株式会社,東京都,町田市,玉川学園４丁目３番１０号,,13,209,1940041,,,,,,,2022-11-21,1,,,,,ダイグン,0
303,2020001149056,新規,0,2022-11-21,2022-11-21,株式会社ビバテラス,,株式会社,神奈川県,横浜市中区,上野町１丁目２９番地９,,14,104,2310842,,,,,,,2022-11-21,1,,,,,ビバテラス,0
304,2020001149064,新規,0,2022-11-21,2022-11-21,株式会社顕現ワークス,,株式会社,神奈川県,横浜市西区,浅間町１丁目４番３号ウィザードビル４０２,,14,103,2200072,,,,,,,2022-11-21,1,,,,,ケンゲンワークス,0
305,2020001149072,新規,0,2022-11-21,2022-11-21,株式会社シー・ワイ・ピー・１,,株式会社,神奈川県,横浜市西区,みなとみらい３丁目１番１号,,14,103,2200012,,,,,,,2022-11-21,1,,,,,シーワイピーワン,0
307,2020003022764,新規,0,2022-11-21,2022-11-21,合同会社ＭＹＫ,,合同会社,神奈川県,横浜市戸塚区,前田町４７５番地１１,,14,110,2440804,,,,,,,2022-11-21,1,,,,,エムワイケー,0
316,2030001151143,新規,0,2022-11-21,2022-11-21,株式会社ヨプラスホーム,,株式会社,埼玉県,さいたま市南区,別所２丁目３７番１５号プラウド浦和別所１０２,,11,108,3360021,,,,,,,2022-11-21,1,,,,,ヨプラスホーム,0
323,2030003020602,新規,0,2022-11-21,2022-11-21,合同会社ＳｕｚｕＫｙｏ,,合同会社,埼玉県,加須市,大室１２８番地５,,11,210,3470027,,,,,,,2022-11-21,1,,,,,スズキョウ,0
327,2040001125880,新規,0,2022-11-21,2022-11-21,株式会社プルータス,,株式会社,千葉県,千葉市花見川区,天戸町６－３,,12,102,2620043,,,,,,,2022-11-21,1,,,,,プルータス,0
328,2040001125930,新規,0,2022-11-21,2022-11-21,株式会社華茂,,株式会社,千葉県,千葉市中央区,葛城２丁目６番１０号,,12,101,2600853,,,,,,,2022-11-21,1,,,,,ファモ,0
329,2040001125939,新規,0,2022-11-21,2022-11-21,Ｒ　ｐｌｕｓ　ｆａｃｔｏｒ株式会社,,株式会社,千葉県,木更津市,中央１丁目４－２,,12,206,2920067,,,,,,,2022-11-21,1,,,,,アールプラスファクター,0
332,2040005021820,新規,0,2022-11-21,2022-11-21,一般社団法人市原市ジュニアゴルフ協会,,その他の設立登記法人,千葉県,市原市,高滝８８６番地１９３,,12,219,2900555,,,,,,,2022-11-21,1,,,,,イチハラシジュニアゴルフキョウカイ,0
334,2050003007028,新規,0,2022-11-21,2022-11-21,ＧＬＯＢＡＬ　ＰＩＬＯＴ　ＳＹＳＴＥＭ’ｓ　ＪＡＰＡＮ合同会社,,合同会社,茨城県,つくば市,吾妻３丁目１８番地７,,08,220,3050031,,,,,,,2022-11-21,1,,,,,グローバルパイロットシステムズジャパン,0
335,2060001035467,新規,0,2022-11-21,2022-11-21,暁株式会社,,株式会社,栃木県,宇都宮市,元今泉１丁目１７番３号アビーロード１０１号室,,09,201,3210954,,,,,,,2022-11-21,1,,,,,アカツキ,0
355,2120001250381,新規,0,2022-11-21,2022-11-21,伊嘉洛株式会社,,株式会社,大阪府,大阪市淀川区,新高４丁目３－１９小林マンション２０３,,27,123,5320033,,,,,,,2022-11-21,1,,,,,イカラク,0
356,2120001250423,新規,0,2022-11-21,2022-11-21,株式会社ランドパートナー,,株式会社,大阪府,大阪市西区,南堀江４丁目２２－５－５０２号,,27,106,5500015,,,,,,,2022-11-21,1,,,,,ランドパートナー,0
357,2120001250448,新規,0,2022-11-21,2022-11-21,株式会社ＪＷ,,株式会社,大阪府,大阪市東成区,東小橋３丁目１５番９号,,27,115,5370024,,,,,,,2022-11-21,1,,,,,ジェイダブリュー,0
360,2120003022903,新規,0,2022-11-21,2022-11-21,合同会社アドニス,,合同会社,大阪府,大阪市中央区,難波４丁目３番２０号,,27,128,5420076,,,,,,,2022-11-21,1,,,,,アドニス,0
362,2120005023305,新規,0,2022-11-21,2022-11-21,一般社団法人光遥会,,その他の設立登記法人,大阪府,大阪市西区,新町１丁目２３番２号,,27,106,5500013,,,,,,,2022-11-21,1,,,,,コハルカイ,0
366,2120101066562,新規,0,2022-11-21,2022-11-21,株式会社いずみの菜菜ファーム,,株式会社,大阪府,堺市堺区,向陵中町４丁３番１５号,,27,141,5900024,,,,,,,2022-11-21,1,,,,,イズミノナナファーム,0
391,2180001153868,新規,0,2022-11-21,2022-11-21,株式会社美算,,株式会社,愛知県,知多郡東浦町,大字藤江字仏１１８番地の５,,23,442,4702105,,,,,,,2022-11-21,1,,,,,ビザン,0
392,2180001153918,新規,0,2022-11-21,2022-11-21,ＰＹＣ株式会社,,株式会社,愛知県,名古屋市中区,栄３丁目２番３号,,23,106,4600008,,,,,,,2022-11-21,1,,,,,ピーワイシー,0
397,2180003024514,新規,0,2022-11-21,2022-11-21,Ｌｉｎｄｗｕｒｍ合同会社,,合同会社,愛知県,名古屋市中区,錦２丁目１２番３２号さくらＨｉｌｌｓＮｉｓｈｉｋｉ５０５,,23,106,4600003,,,,,,,2022-11-21,1,,,,,リントブルム,0
402,2190001029943,新規,0,2022-11-21,2022-11-21,株式会社カディジャエンタープライセス,,株式会社,三重県,桑名市,大字西金井字西谷４１２番地２,,24,205,5110922,,,,,,,2022-11-21,1,,,,,カディジャエンタープライセス,0
406,2240001060661,新規,0,2022-11-21,2022-11-21,株式会社明日へ,,株式会社,広島県,福山市,明王台５丁目６番７号,,34,207,7200834,,,,,,,2022-11-21,1,,,,,アシタヘ,0
407,2240001060678,新規,0,2022-11-21,2022-11-21,株式会社ＯＮ’ｓ,,株式会社,広島県,広島市中区,鶴見町１３番１１号,,34,101,7300045,,,,,,,2022-11-21,1,,,,,オンズ,0
408,2240003005887,新規,0,2022-11-21,2022-11-21,合同会社アリクイ,,合同会社,広島県,廿日市市,阿品４丁目２番３９号,,34,213,7380054,,,,,,,2022-11-21,1,,,,,アリクイ,0
409,2240005015488,新規,0,2022-11-21,2022-11-21,特定非営利活動法人プログレッシオ,,その他の設立登記法人,広島県,広島市佐伯区,八幡東２丁目２８番８の７号,,34,108,7315115,,,,,,,2022-11-21,1,,,,,プログレッシオ,0
416,2290001099613,新規,0,2022-11-21,2022-11-21,株式会社トライホース,,株式会社,福岡県,福岡市城南区,鳥飼５丁目１２番３５－７０２号,,40,136,8140103,,,,,,,2022-11-21,1,,,,,トライホース,0
417,2290001099638,新規,0,2022-11-21,2022-11-21,株式会社西日本水道サービス,,株式会社,福岡県,飯塚市,若菜２５６番地６５,,40,205,8200082,,,,,,,2022-11-21,1,,,,,ニシニホンスイドウサービス,0
418,2290001099646,新規,0,2022-11-21,2022-11-21,ＳＴＡＲＳ．Ｌｏｇｉｓｔｉｃｓ株式会社,,株式会社,福岡県,古賀市,青柳３２７２番地１３,,40,223,8113134,,,,,,,2022-11-21,1,,,,,スターズロジスティックス,0
421,2290801029067,新規,0,2022-11-21,2022-11-21,株式会社ＴＷＩＮＳ,,株式会社,福岡県,北九州市戸畑区,小芝２丁目１０番１８号,,40,105,8040092,,,,,,,2022-11-21,1,,,,,ツインズ,0
423,2290803004266,新規,0,2022-11-21,2022-11-21,合同会社ビカム,,合同会社,福岡県,北九州市小倉北区,下富野４丁目２１－１７－３０１,,40,106,8020023,,,,,,,2022-11-21,1,,,,,ビカム,0
437,2390001017077,新規,0,2022-11-21,2022-11-21,株式会社新生,,株式会社,山形県,長井市,片田町１番２２号,,06,209,9930005,,,,,,,2022-11-21,1,,,,,シンセイ,0
459,3010001230971,新規,0,2022-11-21,2022-11-21,ＦＯＲＴＩＥ株式会社,,株式会社,東京都,中央区,晴海２丁目２番２４－２４０４号,,13,102,1040053,,,,,,,2022-11-21,1,,,,,フォルティエ,0
460,3010001230988,新規,0,2022-11-21,2022-11-21,株式会社Ｔｈｅｔａ　Ｔｈｅｒａｐｅｕｔｉｃｓ,,株式会社,東京都,中央区,日本橋本町２丁目３－１１２－３－１１日本橋ライフサイエンスビルディングＢ１Ｆ,,13,102,1030023,,,,,,,2022-11-21,1,,,,,シータセラピューティックス,0
467,3010003039123,新規,0,2022-11-21,2022-11-21,ミニヨツ合同会社,,合同会社,東京都,中央区,月島３丁目２０番８号ＴＨＥパームス月島ルナガーデン１階,,13,102,1040052,,,,,,,2022-11-21,1,,,,,ミニヨツ,0
468,3010003039131,新規,0,2022-11-21,2022-11-21,ＪＥＲＡソーラーマネジメント合同会社,,合同会社,東京都,中央区,日本橋２丁目５番１号,,13,102,1030027,,,,,,,2022-11-21,1,,,,,ジェラソーラーマネジメント,0
479,3010405021570,新規,0,2022-11-21,2022-11-21,一般社団法人日本発達障害未来推進協会Ｍｏｎｄｏｌｐｈｉｎモンドルフィン,,その他の設立登記法人,東京都,港区,六本木６丁目１－２０六本木電気ビル５階，６階，７階,,13,103,1060032,,,,,,,2022-11-21,1,,,,,ニホンハッタツショウガイミライスイシンキョウカイモンドルフィンモンドルフィン,0
480,3010501049656,新規,0,2022-11-21,2022-11-21,株式会社ＧＴ　Ｗｏｒｌｄ,,株式会社,東京都,台東区,上野３丁目１８番４号１１Ａ,,13,106,1100005,,,,,,,2022-11-21,1,,,,,ジーティーワールド,0
484,3010603009847,新規,0,2022-11-21,2022-11-21,コントレイル合同会社,,合同会社,東京都,墨田区,錦糸１丁目５番１６－８０７号,,13,107,1300013,,,,,,,2022-11-21,1,,,,,コントレイル,0
485,3010605004152,新規,0,2022-11-21,2022-11-21,税理士法人高橋会計事務所,00128538,その他の設立登記法人,東京都,江東区,清澄２丁目８番６号,,13,108,1350024,,,,,,,2022-11-21,1,,,,,タカハシカイケイジムショ,0
488,3010803004359,新規,0,2022-11-21,2022-11-21,合同会社トライミーツ,,合同会社,東京都,大田区,田園調布２丁目２１番１号西田方,,13,111,1450071,,,,,,,2022-11-21,1,,,,,トライミーツ,0
498,3011003015725,新規,0,2022-11-21,2022-11-21,合同会社ソラミル,,合同会社,東京都,渋谷区,道玄坂１丁目１０番８号渋谷道玄坂東急ビル２Ｆ－Ｃ,,13,113,1500043,,,,,,,2022-11-21,1,,,,,ソラミル,0
504,3011101100908,新規,0,2022-11-21,2022-11-21,松野趣品株式会社,,株式会社,東京都,新宿区,百人町２丁目１番４５号赤煉瓦２２９,,13,104,1690073,,,,,,,2022-11-21,1,,,,,マツノシュヒン,0
508,3011403003825,新規,0,2022-11-21,2022-11-21,合同会社ペコワ,,合同会社,東京都,板橋区,南常盤台１丁目１１－６レフア南常盤台１０１号室,,13,119,1740072,,,,,,,2022-11-21,1,,,,,ペコワ,0
509,3011701025802,新規,0,2022-11-21,2022-11-21,株式会社Ｐｌｕｍ,,株式会社,東京都,江戸川区,東葛西６丁目４番７－１２０１号,,13,123,1340084,,,,,,,2022-11-21,1,,,,,プラム,0
513,3011803005347,新規,0,2022-11-21,2022-11-21,Ｓｉｒａｎｔｏ合同会社,,合同会社,東京都,足立区,島根４丁目６－８－３１０,,13,121,1210815,,,,,,,2022-11-21,1,,,,,シラント,0
518,3012703002582,新規,0,2022-11-21,2022-11-21,オービー・カープ合同会社,,合同会社,東京都,西東京市,ひばりが丘北２丁目２番２９号,,13,229,2020002,,,,,,,2022-11-21,1,,,,,オービーカープ,0
519,3012803002929,新規,0,2022-11-21,2022-11-21,合同会社ｉｎｃｔｏｒｅ,,合同会社,東京都,国立市,谷保５０４５番地コスモガーデンＤ１０１,,13,215,1860011,,,,,,,2022-11-21,1,,,,,インクトア,0
523,3013303006379,新規,0,2022-11-21,2022-11-21,合同会社ＭＩＮＡ　ＫＯＴＡＮ,,合同会社,東京都,豊島区,南大塚２丁目４０番１１号ロマン第１ビル,,13,116,1700005,,,,,,,2022-11-21,1,,,,,ミナコタン,0
534,3020001149030,新規,0,2022-11-21,2022-11-21,日本ＲＩＨＯＮ株式会社,,株式会社,神奈川県,川崎市川崎区,小田４丁目１７番８号,,14,131,2100846,,,,,,,2022-11-21,1,,,,,ニホンリホン,0
535,3020001149039,新規,0,2022-11-21,2022-11-21,株式会社長沼興業,,株式会社,神奈川県,横浜市栄区,公田町５３１番地シャトー長沼Ｂ１０１,,14,115,2470014,,,,,,,2022-11-21,1,,,,,ナガヌマコウギョウ,0
536,3020001149047,新規,0,2022-11-21,2022-11-21,ＴＭＴ株式会社,,株式会社,神奈川県,横浜市港北区,小机町１３００番地９,,14,109,2220036,,,,,,,2022-11-21,1,,,,,ティーエムティ,0
537,3020001149063,新規,0,2022-11-21,2022-11-21,ＭＯＮＵＭＥＮＴＡＬ株式会社,,株式会社,神奈川県,横浜市神奈川区,七島町７７番地,,14,102,2210061,,,,,,,2022-11-21,1,,,,,モヌメンタル,0
538,3020001149071,新規,0,2022-11-21,2022-11-21,長谷川工業株式会社,,株式会社,神奈川県,横浜市鶴見区,浜町１丁目３番地１６,,14,101,2300036,,,,,,,2022-11-21,1,,,,,ハセガワコウギョウ,0
546,3021001077510,新規,0,2022-11-21,2022-11-21,株式会社湘南メディアスタジアム,,株式会社,神奈川県,平塚市,中堂１８番８号Ｅ棟３Ｆ,,14,203,2540026,,,,,,,2022-11-21,1,,,,,ショウナンメディアスタジアム,0
547,3021001077519,新規,0,2022-11-21,2022-11-21,株式会社Ｏｎｅｎｅｓｓ,,株式会社,神奈川県,座間市,緑ケ丘２丁目１３番５号,,14,216,2520021,,,,,,,2022-11-21,1,,,,,ワンネス,0
548,3021002019916,新規,0,2022-11-21,2022-11-21,有限会社高座開発,,有限会社,神奈川県,相模原市,相武台２丁目１７番４号,,14,209,2280824,,,,,,,2022-11-21,1,,,,,コウザカイハツ,0
557,3030001151142,新規,0,2022-11-21,2022-11-21,株式会社花音の森,,株式会社,埼玉県,熊谷市,筑波２丁目５６番地３,,11,202,3600037,,,,,,,2022-11-21,1,,,,,カノンノモリ,0
558,3030001151150,新規,0,2022-11-21,2022-11-21,株式会社Ａｎｎｕｌｕｓ,,株式会社,埼玉県,川口市,芝下１丁目１番７－５０９号日神パレステージ蕨,,11,203,3330848,,,,,,,2022-11-21,1,,,,,アニュラス,0
567,3040001125921,新規,0,2022-11-21,2022-11-21,株式会社ＬＨ,,株式会社,千葉県,市原市,五井中央西１丁目２１番地６,,12,219,2900081,,,,,,,2022-11-21,1,,,,,エルエイチ,0
568,3040001125946,新規,0,2022-11-21,2022-11-21,株式会社Ｆｕｊｉｗａｒａ　Ｓｈｉｐｐｉｎｇ,,株式会社,千葉県,八千代市,緑が丘２丁目２０番地３４,,12,221,2760049,,,,,,,2022-11-21,1,,,,,フジワラシッピング,0
570,3040003021318,新規,0,2022-11-21,2022-11-21,合同会社ＳＵＮ　ＴＥＣＨ　ＥＮＴＥＲＰＲＩＳＥＳ,,合同会社,千葉県,白井市,根１８６６番地１,,12,232,2701431,,,,,,,2022-11-21,1,,,,,サンテックエンタープライセス,0
571,3040003021326,新規,0,2022-11-21,2022-11-21,合同会社ヤスイ,,合同会社,千葉県,船橋市,西船５丁目６－８,,12,204,2730031,,,,,,,2022-11-21,1,,,,,ヤスイ,0
576,3060001035466,新規,0,2022-11-21,2022-11-21,株式会社悠流,,株式会社,栃木県,真岡市,田町２１９８番地１,,09,209,3214325,,,,,,,2022-11-21,1,,,,,ハルル,0
605,3120001250439,新規,0,2022-11-21,2022-11-21,株式会社弥栄設備,,株式会社,大阪府,交野市,私部西１丁目１７番７－２１０号,,27,230,5760041,,,,,,,2022-11-21,1,,,,,ヤサカセツビ,0
606,3120001250447,新規,0,2022-11-21,2022-11-21,株式会社ＳＫアセット,,株式会社,大阪府,大阪市西区,江戸堀３丁目６番４１号ロイヤルヒルＩ６０１号室,00128539,27,106,5500002,,,,,,,2022-11-21,1,,,,,エスケーアセット,0
607,3120001250463,新規,0,2022-11-21,2022-11-21,株式会社ＺＥＡＬＬ,,株式会社,大阪府,大阪市福島区,福島７丁目４番２２－５０２号,,27,103,5530003,,,,,,,2022-11-21,1,,,,,ジール,0
626,3140001128146,新規,0,2022-11-21,2022-11-21,株式会社オクシデント,,株式会社,兵庫県,加古川市,東神吉町西井ノ口６６９－１５,,28,210,6750055,,,,,,,2022-11-21,1,,,,,オクシデント,0
630,3140003018378,新規,0,2022-11-21,2022-11-21,Ｕｎ　ｍｏｍｅｎｔ　ｓｅｃｏｎｄ合同会社,,合同会社,兵庫県,宝塚市,光明町３０番１５－２０１,,28,214,6650045,,,,,,,2022-11-21,1,,,,,アンモーメントセカンド,0
637,3180001153850,新規,0,2022-11-21,2022-11-21,株式会社ＴＯＰ　ＯＦ,,株式会社,愛知県,名古屋市南区,要町１丁目１０番地の１,,23,112,4570802,,,,,,,2022-11-21,1,,,,,トップオブ,0
638,3180001153867,新規,0,2022-11-21,2022-11-21,株式会社フォレスト,,株式会社,愛知県,名古屋市西区,牛島町６－１名古屋ルーセントタワー４０階,,23,104,4510046,,,,,,,2022-11-21,1,,,,,フォレスト,0
639,3180001153883,新規,0,2022-11-21,2022-11-21,株式会社ｅホームビルダー,,株式会社,愛知県,春日井市,大手町１丁目１５４番地,,23,206,4860807,,,,,,,2022-11-21,1,,,,,イーホームビルダー,0
640,3180001153891,新規,0,2022-11-21,2022-11-21,株式会社ｙｕｒｔ,,株式会社,愛知県,名古屋市西区,上橋町７８番地の２,,23,104,4520844,,,,,,,2022-11-21,1,,,,,ユルト,0
641,3180001153925,新規,0,2022-11-21,2022-11-21,株式会社ＮＪサポート,,株式会社,愛知県,名古屋市中村区,則武１丁目１３－９,,23,105,4530014,,,,,,,2022-11-21,1,,,,,エヌジェイサポート,0
644,3180003024505,新規,0,2022-11-21,2022-11-21,ｒｏｔａｖｏｎｉ合同会社,,合同会社,愛知県,名古屋市中村区,名駅３丁目４－１０アルティメイト名駅１ｓｔ、２階,,23,105,4500002,,,,,,,2022-11-21,1,,,,,ロタボニ,0
650,3180305009410,新規,0,2022-11-21,2022-11-21,一般社団法人在日ベトナム人安全協会ＪＥＰ,,その他の設立登記法人,愛知県,知立市,西中町西街道３０番地１,,23,225,4720016,,,,,,,2022-11-21,1,,,,,ザイニチベトナムジンアンゼンキョウカイジェーイーピー,0
663,3240001060652,新規,0,2022-11-21,2022-11-21,株式会社石井和洋紙店,,株式会社,広島県,尾道市,栗原東２丁目１番４号,,34,205,7220025,,,,,,,2022-11-21,1,,,,,イシイワヨウシテン,0
666,3240005015487,新規,0,2022-11-21,2022-11-21,特定非営利活動法人ＮＰＯ福山エリア救急コミュニティ,,その他の設立登記法人,広島県,福山市,日吉台３丁目８番５号,,34,207,7210972,,,,,,,2022-11-21,1,,,,,エヌピーオーフクヤマエリアキュウキュウコミュニティ,0
677,3290001099595,新規,0,2022-11-21,2022-11-21,株式会社つぶだてる,,株式会社,福岡県,糸島市,二丈福井３１１９番地４,,40,230,8191631,,,,,,,2022-11-21,1,,,,,ツブダテル,0
678,3290001099645,新規,0,2022-11-21,2022-11-21,株式会社ロキシー・ブロス,,株式会社,福岡県,久留米市,六ツ門町３番地６２－２０１,,40,203,8300031,,,,,,,2022-11-21,1,,,,,ロキシーブロス,0
682,3310003004484,新規,0,2022-11-21,2022-11-21,合同会社Ｔａｎｉｍｏｔｏ,,合同会社,長崎県,島原市,仁田町乙８３３番地,,42,203,8550884,,,,,,,2022-11-21,1,,,,,タニモト,0
686,3330001030324,新規,0,2022-11-21,2022-11-21,株式会社Ｂｌｏｏｏ,,株式会社,熊本県,熊本市東区,保田窪５丁目１１２５－４,,43,102,8620926,,,,,,,2022-11-21,1,,,,,ブルー,0
688,3330003009597,新規,0,2022-11-21,2022-11-21,ＴＨＡＴ’Ｓ合同会社,,合同会社,熊本県,上益城郡嘉島町,大字下六嘉３２６２番地１,,43,442,8613102,,,,,,,2022-11-21,1,,,,,ザッツ,0
689,3360001031187,新規,0,2022-11-21,2022-11-21,でいご通信機株式会社,,株式会社,沖縄県,那覇市,楚辺２丁目４０番２１号２Ｆ,,47,201,9000023,,,,,,,2022-11-21,1,,,,,デイゴツウシンキ,0
690,3360001031220,新規,0,2022-11-21,2022-11-21,Ｇグループホールディングス株式会社,,株式会社,沖縄県,那覇市,松山２丁目１０番６号ウォータービル７階,,47,201,9000032,,,,,,,2022-11-21,1,,,,,ジーグループホールディングス,0
691,3360001031229,新規,0,2022-11-21,2022-11-21,沖縄１ＴＥＣＨ株式会社,,株式会社,沖縄県,国頭郡本部町,字伊野波２６０－２－Ｔ５,,47,308,9050228,,,,,,,2022-11-21,1,,,,,オキナワワンテック,0
692,3360003012474,新規,0,2022-11-21,2022-11-21,合同会社サンサポート宮古,,合同会社,沖縄県,宮古島市,平良字西里２７番地１０６,,47,214,9060012,,,,,,,2022-11-21,1,,,,,サンサポートミヤコ,0
693,3360005006747,新規,0,2022-11-21,2022-11-21,一般社団法人こくわ,,その他の設立登記法人,沖縄県,那覇市,久茂地３丁目２１番１号,,47,201,9000015,,,,,,,2022-11-21,1,,,,,コクワ,0
702,3430001087916,新規,0,2022-11-21,2022-11-21,株式会社北乃泉,,株式会社,北海道,札幌市豊平区,月寒東二条１８丁目１５番１３号,,01,105,0620052,,,,,,,2022-11-21,1,,,,,キタノイズミ,0
713,4010001230954,新規,0,2022-11-21,2022-11-21,クラシカルホーム株式会社,,株式会社,東京都,千代田区,九段北１丁目１番７号カーサ九段５０３,,13,101,1020073,,,,,,,2022-11-21,1,,,,,クラシカルホーム,0
721,4010003039122,新規,0,2022-11-21,2022-11-21,合同会社ＨＩＷＡＫＩ,,合同会社,東京都,文京区,小日向２丁目２３番１９号,,13,105,1120006,,,,,,,2022-11-21,1,,,,,ヒワキ,0
722,4010003039130,新規,0,2022-11-21,2022-11-21,ＪＥＲＡソーラーインベストメント合同会社,,合同会社,東京都,中央区,日本橋２丁目５番１号,,13,102,1030027,,,,,,,2022-11-21,1,,,,,ジェラソーラーインベストメント,0
723,4010003039139,新規,0,2022-11-21,2022-11-21,合同会社ウリィド,,合同会社,東京都,千代田区,丸の内３丁目１番１号東京共同会計事務所内,,13,101,1000005,,,,,,,2022-11-21,1,,,,,ウリィド,0
741,4010601062194,新規,0,2022-11-21,2022-11-21,株式会社佳誠,,株式会社,東京都,墨田区,立川３丁目１２番７－１０６号室,,13,107,1300023,,,,,,,2022-11-21,1,,,,,カセイ,0
750,4011001150993,新規,0,2022-11-21,2022-11-21,株式会社ＣａｒｅＦｒａｎ,,株式会社,東京都,渋谷区,円山町５番５号Ｎａｖｉ渋谷Ｖ３階,,13,113,1500044,,,,,,,2022-11-21,1,,,,,ケアフラン,0
751,4011001151001,新規,0,2022-11-21,2022-11-21,株式会社ＯＵＴ　ＯＦ　ＢＯＸ,,株式会社,東京都,渋谷区,恵比寿西１丁目１７－１プルミエール恵比寿３０４,,13,113,1500021,,,,,,,2022-11-21,1,,,,,アウトオブボックス,0
752,4011001151026,新規,0,2022-11-21,2022-11-21,株式会社ｖａｇｌａｎｔ,,株式会社,東京都,渋谷区,松濤１丁目２８－２,,13,113,1500046,,,,,,,2022-11-21,1,,,,,ベイグラント,0
753,4011001151034,新規,0,2022-11-21,2022-11-21,株式会社ｔｏｉｒｏｗｏｒｋｓ,,株式会社,東京都,渋谷区,円山町５番５号Ｎａｖｉ渋谷Ｖ３階,,13,113,1500044,,,,,,,2022-11-21,1,,,,,トイロワークス,0
756,4011003015724,新規,0,2022-11-21,2022-11-21,ＳＭＣ合同会社,,合同会社,東京都,渋谷区,神宮前６丁目２３番４号桑野ビル２階,,13,113,1500001,,,,,,,2022-11-21,1,,,,,エスエムシー,0
759,4011101100898,新規,0,2022-11-21,2022-11-21,株式会社ネクスト・プロパティ,,株式会社,東京都,新宿区,新宿５丁目４番１－６０３号,,13,104,1600022,,,,,,,2022-11-21,1,,,,,ネクストプロパティ,0
760,4011101100915,新規,0,2022-11-21,2022-11-21,株式会社ＸＥ‐ＮＯ,,株式会社,東京都,新宿区,西新宿３丁目３番１３号西新宿水間ビル２Ｆ,,13,104,1600023,,,,,,,2022-11-21,1,,,,,ゼノ,0
762,4011305002874,新規,0,2022-11-21,2022-11-21,一般社団法人ましろ,,その他の設立登記法人,東京都,杉並区,西荻北２丁目２７番１４－４０２号,,13,115,1670042,,,,,,,2022-11-21,1,,,,,マシロ,0
774,4013101009062,新規,0,2022-11-21,2022-11-21,株式会社イニライフ,,株式会社,東京都,青梅市,新町６丁目１４番１６号,,13,205,1980024,,,,,,,2022-11-21,1,,,,,,0
786,4020001149046,新規,0,2022-11-21,2022-11-21,株式会社ＩＫＳ,,株式会社,神奈川県,横浜市瀬谷区,瀬谷４丁目１１番地４０,,14,114,2460031,,,,,,,2022-11-21,1,,,,,アイケイエス,0
787,4020001149054,新規,0,2022-11-21,2022-11-21,株式会社横浜システムソリューションズ,,株式会社,神奈川県,横浜市中区,矢口台１４５－３５,,14,104,2310831,,,,,,,2022-11-21,1,,,,,ヨコハマシステムソリューションズ,0
788,4020001149062,新規,0,2022-11-21,2022-11-21,株式会社Ｋ．ＴＯＯＬＩＳＴ,,株式会社,神奈川県,川崎市川崎区,宮前町１２番１４－４０４号,,14,131,2100012,,,,,,,2022-11-21,1,,,,,ケイツーリスト,0
789,4020001149079,新規,0,2022-11-21,2022-11-21,株式会社エスタリア,,株式会社,神奈川県,川崎市高津区,下作延２丁目２２番２３－２０８号バースヒル溝の口ブレッサ,,14,134,2130033,,,,,,,2022-11-21,1,,,,,エスタリア,0
790,4020003022754,新規,0,2022-11-21,2022-11-21,グローカルバケーションズ合同会社,,合同会社,神奈川県,横浜市鶴見区,馬場７丁目１７－２４－２０６,,14,101,2300076,,,,,,,2022-11-21,1,,,,,グローカルバケーションズ,0
794,4021001077476,新規,0,2022-11-21,2022-11-21,株式会社スマイルフェイス,,株式会社,神奈川県,秦野市,栄町７番１０号２階,,14,211,2570043,,,,,,,2022-11-21,1,,,,,スマイルフェイス,0
799,4030001151141,新規,0,2022-11-21,2022-11-21,宮崎電設株式会社,,株式会社,埼玉県,川口市,戸塚東２丁目４番３０号,,11,203,3330802,,,,,,,2022-11-21,1,,,,,ミヤザキデンセツ,0
803,4030003020609,新規,0,2022-11-21,2022-11-21,合同会社ＲＡＣＥ,,合同会社,埼玉県,川口市,西川口１丁目１６番１５号キャッスルマンション川口駅前４０１号室,,11,203,3320021,,,,,,,2022-11-21,1,,,,,レース,0
808,4040001125937,新規,0,2022-11-21,2022-11-21,ハジメテクノ株式会社,,株式会社,千葉県,鎌ケ谷市,西佐津間２丁目１８番５５号,,12,224,2730134,,,,,,,2022-11-21,1,,,,,ハジメテクノ,0
811,4040003021300,新規,0,2022-11-21,2022-11-21,アイティー開発合同会社,,合同会社,千葉県,柏市,藤ケ谷９０１番地１,,12,217,2770931,,,,,,,2022-11-21,1,,,,,アイティーカイハツ,0
812,4040003021317,新規,0,2022-11-21,2022-11-21,合同会社ＫＵＭＡＲＡ　ＭＯＴＯＲＳ,,合同会社,千葉県,千葉市若葉区,谷当町１０２６番地２３,,12,104,2650072,,,,,,,2022-11-21,1,,,,,タマラモータース,0
813,4040003021325,新規,0,2022-11-21,2022-11-21,ＭＥＥＲＡ　ＩＮＴＥＲＮＡＴＩＯＮＡＬ合同会社,,合同会社,千葉県,山武市,上横地２９９７番地２Ｂ,,12,237,2891313,,,,,,,2022-11-21,1,,,,,ミーラインターナショナル,0
814,4040003021333,新規,0,2022-11-21,2022-11-21,合同会社ＴＥＮＳＨＯ,,合同会社,千葉県,船橋市,薬円台５丁目６番１７号宍倉マンション１０１号室,,12,204,2740077,,,,,,,2022-11-21,1,,,,,テンショウ,0
819,4050005013170,新規,0,2022-11-21,2022-11-21,一般社団法人ＡＬＬ　ＦＯＲ　ＫＩＤＳ,,その他の設立登記法人,茨城県,ひたちなか市,勝田中央５番１５号,,08,221,3120045,,,,,,,2022-11-21,1,,,,,オールフォーキッズ,0
824,4080001025308,新規,0,2022-11-21,2022-11-21,株式会社ＡＬＢＡ　ＬＩＺＥ,,株式会社,静岡県,榛原郡吉田町,住吉３３４１番地の１,,22,424,4210301,,,,,,,2022-11-21,1,,,,,アルバライズ,0
827,4100001035898,新規,0,2022-11-21,2022-11-21,株式会社マスダ,,株式会社,長野県,長野市,川中島町御厨７７５番地４,,20,201,3812221,,,,,,,2022-11-21,1,,,,,マスダ,0
828,4100003006781,新規,0,2022-11-21,2022-11-21,合同会社ＢＲＡＶＥ　ＲＡＧＥ,,合同会社,長野県,長野市,大字栗田２１２５番地長栄長野東口ビル１階・２階,,20,201,3800921,,,,,,,2022-11-21,1,,,,,ブレイブレイジ,0
831,4110001037126,新規,0,2022-11-21,2022-11-21,株式会社ワクタク,,株式会社,新潟県,新潟市江南区,沢海２９１９番地２,,15,104,9500205,,,,,,,2022-11-21,1,,,,,ワクタク,0
844,4120001250413,新規,0,2022-11-21,2022-11-21,時中株式会社,,株式会社,大阪府,大阪市中央区,松屋町９番２０号ローレルステート松屋町７１０Ｃ,,27,128,5420067,,,,,,,2022-11-21,1,,,,,ジチュウ,0
845,4120001250438,新規,0,2022-11-21,2022-11-21,株式会社ファミィユリエゾン,,株式会社,大阪府,大阪市阿倍野区,昭和町２丁目６番１６号,,27,119,5450011,,,,,,,2022-11-21,1,,,,,ファミィユリエゾン,0
850,4120003022901,新規,0,2022-11-21,2022-11-21,合同会社ノストラード,,合同会社,大阪府,寝屋川市,錦町１０番１８号,,27,215,5720043,,,,,,,2022-11-21,1,,,,,ノストラード,0
851,4120101066560,新規,0,2022-11-21,2022-11-21,株式会社ハッピーデビル,,株式会社,大阪府,松原市,高見の里１丁目２番３０号ふぁみーゆ松原中央９０６号,,27,217,5800021,,,,,,,2022-11-21,1,,,,,ハッピーデビル,0
853,4120103004931,新規,0,2022-11-21,2022-11-21,合同会社トータルケア大大,,合同会社,大阪府,堺市中区,土師町５丁２１－１０,,27,142,5998238,,,,,,,2022-11-21,1,,,,,トータルケアダイダイ,0
861,4130001073086,新規,0,2022-11-21,2022-11-21,株式会社八幡ホテル,,株式会社,京都府,八幡市,美濃山幸水１６番地１,,26,210,6148279,,,,,,,2022-11-21,1,,,,,ヤワタホテル,0
876,4140003018385,新規,0,2022-11-21,2022-11-21,合同会社アイエム・コーポレーション,,合同会社,兵庫県,西宮市,中浜町２番２９号,,28,204,6620952,,,,,,,2022-11-21,1,,,,,アイエムコーポレーション,0
879,4150001025969,新規,0,2022-11-21,2022-11-21,株式会社神八通商,,株式会社,奈良県,橿原市,光陽町１００番地の５５,,29,205,6340827,,,,,,,2022-11-21,1,,,,,カミヤツウショウ,0
891,4180005020006,新規,0,2022-11-21,2022-11-21,社会保険労務士法人あんしん代行,,その他の設立登記法人,愛知県,名古屋市中区,丸の内２丁目１７－１３,,23,106,4600002,,,,,,,2022-11-21,1,,,,,アンシンダイコウ,0
905,4240001060684,新規,0,2022-11-21,2022-11-21,株式会社Ｌ．Ｓ．ｃｏｎｎｅｃｔ,,株式会社,広島県,広島市中区,西平塚町８番１０－８０２号,,34,101,7300024,,,,,,,2022-11-21,1,,,,,エルエスコネクト,0
913,4290001099628,新規,0,2022-11-21,2022-11-21,株式会社５２１,,株式会社,福岡県,福岡市博多区,博多駅南１丁目１５－２８,,40,132,8120016,,,,,,,2022-11-21,1,,,,,ゴーニーイチ,0
914,4290001099636,新規,0,2022-11-21,2022-11-21,株式会社コネクト,,株式会社,福岡県,福岡市東区,多の津１丁目９番６号５Ｆ,,40,131,8130034,,,,,,,2022-11-21,1,,,,,コネクト,0
915,4290001099644,新規,0,2022-11-21,2022-11-21,株式会社Ｖｉｎｏｗａ,,株式会社,福岡県,福岡市中央区,渡辺通５丁目６番１８－６０１号コモダスパッソ天神,,40,133,8100004,,,,,,,2022-11-21,1,,,,,ヴィノワ,0
916,4290003013223,新規,0,2022-11-21,2022-11-21,合同会社鴨池,,合同会社,福岡県,福岡市中央区,警固２丁目１７番３０号,,40,133,8100023,,,,,,,2022-11-21,1,,,,,カモイケ,0
918,4290801029065,新規,0,2022-11-21,2022-11-21,株式会社ユウセイ,,株式会社,福岡県,田川郡大任町,大字大行事２１１３番地２,,40,608,8240512,,,,,,,2022-11-21,1,,,,,ユウセイ,0
919,4290803004264,新規,0,2022-11-21,2022-11-21,合同会社剱敬会,00128540,合同会社,福岡県,田川郡福智町,金田９５２番地１,,40,610,8221201,,,,,,,2022-11-21,1,,,,,ケンケイカイ,0
920,4310001018130,新規,0,2022-11-21,2022-11-21,しらはま株式会社,,株式会社,長崎県,長崎市,けやき台町１番１２号,,42,201,8528146,,,,,,,2022-11-21,1,,,,,シラハマ,0
921,4310003004483,新規,0,2022-11-21,2022-11-21,合同会社３０３ＣＡＴＬＡＢ,,合同会社,長崎県,佐世保市,石坂町１９９番地１６ウイング石坂１０３号,,42,202,8570037,,,,,,,2022-11-21,1,,,,,サンマルサンキャットラボ,0
926,4320005010033,新規,0,2022-11-21,2022-11-21,一般社団法人海と日本プロジェクトｉｎ大分県,,その他の設立登記法人,大分県,大分市,大字勢家字春日浦８４３番地２５,,44,201,8700100,,,,,,,2022-11-21,1,,,,,ウミトニッポンプロジェクトインオオイタケン,0
938,4360005006746,新規,0,2022-11-21,2022-11-21,一般社団法人日本骨格リンパ協会,,その他の設立登記法人,沖縄県,那覇市,銘苅２丁目５番２号シュガーヒル１階,,47,201,9000004,,,,,,,2022-11-21,1,,,,,ニホンコッカクリンパキョウカイ,0
942,4380003005327,新規,0,2022-11-21,2022-11-21,合同会社Ｓａｎｉ‐Ｃｏｎ,,合同会社,福島県,郡山市,富田町字下西田１７－１,,07,203,9638041,,,,,,,2022-11-21,1,,,,,サニコン,0
945,4400001016067,新規,0,2022-11-21,2022-11-21,株式会社盛岡南塗装,,株式会社,岩手県,紫波郡紫波町,日詰字下丸森１０２番地５川村ビル１階,,03,321,0283305,,,,,,,2022-11-21,1,,,,,モリオカミナミトソウ,0
948,4430003014470,新規,0,2022-11-21,2022-11-21,合同会社２００,,合同会社,北海道,樺戸郡新十津川町,字中央６番地７１,,01,432,0731103,,,,,,,2022-11-21,1,,,,,ニーマルマル,0
949,4430003014479,新規,0,2022-11-21,2022-11-21,ＯＮＥ　ＳＴＡＧＥ合同会社,,合同会社,北海道,札幌市東区,北四十六条東１７丁目２番１７－６０２号,,01,103,0070846,,,,,,,2022-11-21,1,,,,,ワンステージ,0
955,4500001024605,新規,0,2022-11-21,2022-11-21,株式会社ＮＩＣＯＲＯ　ＧＲＯＵＰ,,株式会社,愛媛県,松山市,生石町５１５番地４しらさきハイツ１０５,,38,201,7900051,,,,,,,2022-11-21,1,,,,,ニコログループ,0
959,5010001230953,新規,0,2022-11-21,2022-11-21,ビーナスマイル株式会社,,株式会社,東京都,中央区,銀座３丁目２番１１号５Ｆ,,13,102,1040061,,,,,,,2022-11-21,1,,,,,ビーナスマイル,0
960,5010001230986,新規,0,2022-11-21,2022-11-21,株式会社ｓｅａｓｏｎ　ｔｏ　ｗａｉｔ,,株式会社,東京都,文京区,千石２丁目１６－３グリーンヒルズ千石４０１,,13,105,1120011,,,,,,,2022-11-21,1,,,,,,0
964,5010003039121,新規,0,2022-11-21,2022-11-21,オメガエンジニアリング合同会社,,合同会社,東京都,千代田区,神田須田町２丁目２５番ＧＹＢ秋葉原ビル,,13,101,1010041,,,,,,,2022-11-21,1,,,,,オメガエンジニアリング,0
965,5010005035812,新規,0,2022-11-21,2022-11-21,一般社団法人エグゼクティブ講師育成協会,,その他の設立登記法人,東京都,中央区,銀座７丁目５番４号毛利ビル５階,,13,102,1040061,,,,,,,2022-11-21,1,,,,,エグゼクティブコウシイクセイキョウカイ,0
980,5010501049646,新規,0,2022-11-21,2022-11-21,株式会社えん,,株式会社,東京都,台東区,上野６丁目１６番５号,,13,106,1100005,,,,,,,2022-11-21,1,,,,,エン,0
981,5010501049662,新規,0,2022-11-21,2022-11-21,株式会社インパクト,,株式会社,東京都,台東区,東上野６丁目１８番１４号,,13,106,1100015,,,,,,,2022-11-21,1,,,,,インパクト,0
1003,5011001150992,新規,0,2022-11-21,2022-11-21,株式会社ドライブ,,株式会社,東京都,渋谷区,東３丁目２０番１号ＡｒｋＰｌａｃｅＥＢＩＳＵ４０２号室,,13,113,1500011,,,,,,,2022-11-21,1,,,,,ドライブ,0
1004,5011001151009,新規,0,2022-11-21,2022-11-21,株式会社ＣＡＰＥ,,株式会社,東京都,渋谷区,神宮前１丁目５番８号,,13,113,1500001,,,,,,,2022-11-21,1,,,,,ケイプ,0
1005,5011001151074,新規,0,2022-11-21,2022-11-21,株式会社Ｗｉｓｔｅｒｉａ,,株式会社,東京都,目黒区,祐天寺２丁目１７番９号,,13,110,1530052,,,,,,,2022-11-21,1,,,,,ウィステリア,0
1006,5011003015731,新規,0,2022-11-21,2022-11-21,ＯＡｓｉｓ合同会社,,合同会社,東京都,渋谷区,円山町５番４号ＦｅｅｌＡ渋谷３０７号,,13,113,1500044,,,,,,,2022-11-21,1,,,,,オアシス,0
1010,5011201024245,新規,0,2022-11-21,2022-11-21,株式会社かにたん,,株式会社,東京都,中野区,東中野４丁目５－１０－４０８,,13,114,1640003,,,,,,,2022-11-21,1,,,,,カニタン,0
1014,5011401024697,新規,0,2022-11-21,2022-11-21,徳光貿易株式会社,,株式会社,東京都,板橋区,大和町６番地１２板橋本町ビル６０２号室,,13,119,1730012,,,,,,,2022-11-21,1,,,,,トクミツボウエキ,0
1015,5011401024706,新規,0,2022-11-21,2022-11-21,株式会社ＴＲＩＥＵ　ＤＩＥＮ　ＪＡＰＡＮ,,株式会社,東京都,板橋区,赤塚２丁目１番１２号,,13,119,1750092,,,,,,,2022-11-21,1,,,,,チュウディエンジャパン,0
1019,5011703003309,新規,0,2022-11-21,2022-11-21,合同会社ＭＳＪ,,合同会社,東京都,江戸川区,西小岩３丁目１３番１９号,,13,123,1330057,,,,,,,2022-11-21,1,,,,,エムエスジェイ,0
1027,5012801021978,新規,0,2022-11-21,2022-11-21,株式会社カショウ,,株式会社,東京都,日野市,多摩平４丁目８番地の２オハナ豊田多摩平の森１０８,,13,212,1910062,,,,,,,2022-11-21,1,,,,,カショウ,0
1028,5013101009061,新規,0,2022-11-21,2022-11-21,株式会社Ｍｉｃｏｃｏｕｌｉｅｒ,,株式会社,東京都,福生市,大字福生１１２１,,13,218,1970011,,,,,,,2022-11-21,1,,,,,ミコクリエ,0
1029,5013301049915,新規,0,2022-11-21,2022-11-21,株式会社後藤塗装工業,,株式会社,東京都,豊島区,池袋２丁目６９番３号メゾン王城４０２号,,13,116,1710014,,,,,,,2022-11-21,1,,,,,ゴトウトソウコウギョウ,0
1037,5020003022761,新規,0,2022-11-21,2022-11-21,合同会社ｂｌｕｅ　ｔｕｂｅ,,合同会社,神奈川県,横浜市港北区,下田町３丁目１番３３号,,14,109,2230064,,,,,,,2022-11-21,1,,,,,ブルーチューブ,0
1054,5030001151149,新規,0,2022-11-21,2022-11-21,株式会社モノむすび,,株式会社,埼玉県,さいたま市南区,文蔵１丁目８番３－３０６号,,11,108,3360025,,,,,,,2022-11-21,1,,,,,モノムスビ,0
1055,5030001151157,新規,0,2022-11-21,2022-11-21,パール開発株式会社,,株式会社,埼玉県,春日部市,中央５丁目８番地２９,,11,214,3440067,,,,,,,2022-11-21,1,,,,,パールカイハツ,0
1056,5030003020616,新規,0,2022-11-21,2022-11-21,合同会社ＡＬＯＨＡ　ＧＹＭ,,合同会社,埼玉県,所沢市,元町２５番２－５０６号ローレルコート所沢元町,,11,208,3591121,,,,,,,2022-11-21,1,,,,,アロハジム,0
1060,5040001125928,新規,0,2022-11-21,2022-11-21,ｉｉｌｕ株式会社,,株式会社,千葉県,市川市,福栄２丁目３番３号,,12,203,2720137,,,,,,,2022-11-21,1,,,,,イール,0
1061,5040001125936,新規,0,2022-11-21,2022-11-21,株式会社濱名管工,00128536,株式会社,千葉県,市原市,五井１６８３番地１,,12,219,2900056,,,,,,,2022-11-21,1,,,,,ハマナカンコウ,0
1062,5040001125944,新規,0,2022-11-21,2022-11-21,株式会社パンジーケア,,株式会社,千葉県,千葉市緑区,誉田町２丁目２４番地１５,,12,105,2660005,,,,,,,2022-11-21,1,,,,,パンジーケア,0
1064,5040003021290,新規,0,2022-11-21,2022-11-21,スマートプレナー合同会社,,合同会社,千葉県,千葉市中央区,宮崎町４６４－８,,12,101,2600805,,,,,,,2022-11-21,1,,,,,スマートプレナー,0
1065,5040003021308,新規,0,2022-11-21,2022-11-21,合同会社ＺＥＲＯ,,合同会社,千葉県,鎌ケ谷市,鎌ケ谷４丁目１－３湯浅ビル３０５号,,12,224,2730105,,,,,,,2022-11-21,1,,,,,ゼロ,0
1066,5040003021316,新規,0,2022-11-21,2022-11-21,合同会社フォース,,合同会社,千葉県,千葉市中央区,長洲１丁目２４－１,,12,101,2600854,,,,,,,2022-11-21,1,,,,,フォース,0
1067,5040003021324,新規,0,2022-11-21,2022-11-21,ＴＩＬＬＡＢＩ　ＧＲＯＢＡＬ　ＶＥＮＴＵＲＥＳ合同会社,,合同会社,千葉県,富里市,七栄６５０番地１５１６,,12,233,2860221,,,,,,,2022-11-21,1,,,,,ティラビグローバルベンチャーズ,0
1069,5040005021818,新規,0,2022-11-21,2022-11-21,医療法人社団いぶきの森,,その他の設立登記法人,千葉県,柏市,布施１２１３番地４,,12,217,2770825,,,,,,,2022-11-21,1,,,,,イブキノモリ,0
1071,5050001051982,新規,0,2022-11-21,2022-11-21,株式会社リタ,,株式会社,茨城県,つくば市,研究学園１丁目３番地４,,08,220,3050817,,,,,,,2022-11-21,1,,,,,リタ,0
1087,5100001035897,新規,0,2022-11-21,2022-11-21,おどる株式会社,,株式会社,長野県,長野市,三輪４丁目２番１２－２０２号,,20,201,3800803,,,,,,,2022-11-21,1,,,,,オドル,0
1096,5120001250453,新規,0,2022-11-21,2022-11-21,株式会社ＰＲＯＭＩＳＩＮＧ,,株式会社,大阪府,大阪市中央区,平野町３丁目１番２号キューアス平野町ビル３Ｆ,,27,128,5410046,,,,,,,2022-11-21,1,,,,,プロミシング,0
1100,5120103004930,新規,0,2022-11-21,2022-11-21,合同会社トレカライン,,合同会社,大阪府,岸和田市,尾生町３丁目９番３号,,27,202,5960816,,,,,,,2022-11-21,1,,,,,トレカライン,0
1114,5140001128103,新規,0,2022-11-21,2022-11-21,株式会社ｇｕｌｕｇｕｌｕ,,株式会社,兵庫県,神戸市東灘区,住吉山手９丁目５番１０号,,28,101,6580063,,,,,,,2022-11-21,1,,,,,グルグル,0
1126,5180001153898,新規,0,2022-11-21,2022-11-21,株式会社北原塗装,,株式会社,愛知県,春日井市,勝川町２丁目１０番地３ロイヤル勝川２０１号,,23,206,4860945,,,,,,,2022-11-21,1,,,,,キタハラトソウ,0
1129,5180003024511,新規,0,2022-11-21,2022-11-21,合同会社マイスタイル,,合同会社,愛知県,名古屋市瑞穂区,土市町２丁目３２番地の４,,23,108,4670843,,,,,,,2022-11-21,1,,,,,マイスタイル,0
1135,5200001040689,新規,0,2022-11-21,2022-11-21,株式会社レクス,,株式会社,岐阜県,大垣市,三本木３丁目３２番地２,,21,202,5030813,,,,,,,2022-11-21,1,,,,,レクス,0
1137,5220001025135,新規,0,2022-11-21,2022-11-21,株式会社ＰＰＭ,,株式会社,石川県,金沢市,三池町１３５番地１３,,17,201,9200802,,,,,,,2022-11-21,1,,,,,ピィピィエム,0
1139,5220002017395,新規,0,2022-11-21,2022-11-21,新田纎維有限会社,,有限会社,石川県,羽咋市,菱分町イ１０番地,,17,207,9250621,,,,,,,2022-11-21,1,,,,,,0
1145,5240005015485,新規,0,2022-11-21,2022-11-21,特定非営利活動法人心のカーテン,,その他の設立登記法人,広島県,広島市安芸区,瀬野西５丁目３１番７号,,34,107,7390313,,,,,,,2022-11-21,1,,,,,ココロノカーテン,0
1154,5290001099627,新規,0,2022-11-21,2022-11-21,ＴｅｃｈＦｉｖｅ株式会社,,株式会社,福岡県,福岡市東区,香椎照葉３丁目３番１－４０１号アイランドタワースカイクラブ,,40,131,8130017,,,,,,,2022-11-21,1,,,,,テックファイブ,0
1155,5290001099635,新規,0,2022-11-21,2022-11-21,株式会社ＨＵＳ　ｃｏｎｃｅｐｔ,,株式会社,福岡県,宗像市,原町２２０１番地２,,40,220,8113424,,,,,,,2022-11-21,1,,,,,フースコンセプト,0
1156,5290001099651,新規,0,2022-11-21,2022-11-21,株式会社はちまるご,,株式会社,福岡県,福岡市中央区,長浜２丁目１番３０－８０５号インプレスト天神オークタワー,,40,133,8100072,,,,,,,2022-11-21,1,,,,,ハチマルゴ,0
1158,5290003013222,新規,0,2022-11-21,2022-11-21,合同会社Ｅｍｅｒａｌｄ,,合同会社,福岡県,久留米市,京町２８２番地４,,40,203,8300028,,,,,,,2022-11-21,1,,,,,エメラルド,0
1167,5330001030322,新規,0,2022-11-21,2022-11-21,株式会社ＳＡＮＨＡＰＩ,,株式会社,熊本県,山鹿市,中８９０番地１１,,43,208,8610531,,,,,,,2022-11-21,1,,,,,サンハピ,0
1169,5350003004223,新規,0,2022-11-21,2022-11-21,合同会社ソウムアシスト,,合同会社,宮崎県,都城市,志比田町９５２５番地,,45,202,8850093,,,,,,,2022-11-21,1,,,,,ソウムアシスト,0
1172,5360003012472,新規,0,2022-11-21,2022-11-21,宮古島ＬＵＡＮＡ合同会社,,合同会社,沖縄県,宮古島市,平良字西里２７番地１０３Ａ,,47,214,9060012,,,,,,,2022-11-21,1,,,,,ミヤコジマルアナ,0
1178,5380003005326,新規,0,2022-11-21,2022-11-21,安達ＢＡＳＥ合同会社,,合同会社,福島県,二本松市,油井字中條５３番地１２,,07,210,9691404,,,,,,,2022-11-21,1,,,,,アダチベース,0
1182,5430001087906,新規,0,2022-11-21,2022-11-21,株式会社アロープロジェクト,,株式会社,北海道,札幌市西区,西野六条７丁目３番３６号,,01,107,0630036,,,,,,,2022-11-21,1,,,,,アロープロジェクト,0
1183,5430001087914,新規,0,2022-11-21,2022-11-21,株式会社結快,,株式会社,北海道,札幌市手稲区,前田六条１２丁目５番２２号,,01,109,0060816,,,,,,,2022-11-21,1,,,,,ユカイ,0
1187,5490001010341,新規,0,2022-11-21,2022-11-21,株式会社エコすまいる,,株式会社,高知県,高知市,加賀野井１丁目２３番１８号,,39,201,7800032,,,,,,,2022-11-21,1,,,,,エコスマイル,0
1190,5500001024604,新規,0,2022-11-21,2022-11-21,株式会社緑運送,,株式会社,愛媛県,伊予郡砥部町,高尾田４４番地リージェントとべ３０２号,,38,402,7912101,,,,,,,2022-11-21,1,,,,,ミドリウンソウ,0
1200,6010003039137,新規,0,2022-11-21,2022-11-21,ＡｍｔＣｏｎｓｕｌｔｉｎｇ合同会社,,合同会社,東京都,文京区,本駒込２丁目８番３－５０３号,,13,105,1130021,,,,,,,2022-11-21,1,,,,,,0
1208,6010401170939,新規,0,2022-11-21,2022-11-21,株式会社メタジャパン,,株式会社,東京都,港区,海岸１丁目２－３汐留芝離宮ビルディング２１階,,13,103,1050022,,,,,,,2022-11-21,1,,,,,メタジャパン,0
1214,6010405021576,新規,0,2022-11-21,2022-11-21,くれみらい一般社団法人,,その他の設立登記法人,東京都,港区,元赤坂１丁目１番７号,,13,103,1070051,,,,,,,2022-11-21,1,,,,,クレミライ,0
1219,6010703006477,新規,0,2022-11-21,2022-11-21,スマートパワー合同会社,,合同会社,東京都,品川区,南大井６丁目１１番２号日興パレス大森パート２Ｂ１,,13,109,1400013,,,,,,,2022-11-21,1,,,,,スマートパワー,0
1222,6010801033448,新規,0,2022-11-21,2022-11-21,株式会社トモカク,,株式会社,東京都,大田区,上池台４丁目４５番１０号,,13,111,1450064,,,,,,,2022-11-21,1,,,,,トモカク,0
1223,6010803004356,新規,0,2022-11-21,2022-11-21,合同会社高千穂コーポレーション,,合同会社,東京都,大田区,西蒲田５丁目１番８号サンクレストヨコセ２０５,,13,111,1440051,,,,,,,2022-11-21,1,,,,,タカチホコーポレーション,0
1231,6011003015730,新規,0,2022-11-21,2022-11-21,合同会社ＲＥＳＵＲＲＥＣＴＩＯＮ．,,合同会社,東京都,目黒区,中目黒３丁目５番１号中目黒プレアタワー２Ｆ,,13,110,1530061,,,,,,,2022-11-21,1,,,,,リザレクション,0
1232,6011005009805,新規,0,2022-11-21,2022-11-21,一般社団法人ＡＬＬ　ＡＲＴＳ　Ｆｏｕｎｄａｔｉｏｎ,,その他の設立登記法人,東京都,目黒区,目黒２丁目１１番地３号,,13,110,1530063,,,,,,,2022-11-21,1,,,,,オールアーツファウンデーション,0
1247,6011201024236,新規,0,2022-11-21,2022-11-21,株式会社ＳＴＯＭ,,株式会社,東京都,中野区,中央２丁目８番２２－５０９号,,13,114,1640011,,,,,,,2022-11-21,1,,,,,ストム,0
1262,6012703002571,新規,0,2022-11-21,2022-11-21,合同会社ＭＧＢ,,合同会社,東京都,西東京市,緑町３丁目７番１４－１０２号,,13,229,1880002,,,,,,,2022-11-21,1,,,,,エムジービー,0
1264,6012801021977,新規,0,2022-11-21,2022-11-21,株式会社ＭＣＮ　Ｇａｒｄｅｎ,,株式会社,東京都,昭島市,松原町５丁目３番３号,,13,207,1960003,,,,,,,2022-11-21,1,,,,,エムシーエヌガーデン,0
1265,6013101009060,新規,0,2022-11-21,2022-11-21,株式会社Ｈ．Ｒ．Ｓ．,,株式会社,東京都,あきる野市,油平１２６番地１４,,13,228,1970827,,,,,,,2022-11-21,1,,,,,エイチアールエス,0
1282,6020001149069,新規,0,2022-11-21,2022-11-21,株式会社ほのぼの,,株式会社,神奈川県,川崎市宮前区,宮崎６丁目１番地５号,,14,136,2160033,,,,,,,2022-11-21,1,,,,,ホノボノ,0
1289,6021001077499,新規,0,2022-11-21,2022-11-21,株式会社ベイアンク,,株式会社,神奈川県,厚木市,中町２丁目１１番１０号,,14,212,2430018,,,,,,,2022-11-21,1,,,,,ベイアンク,0
1290,6021001077508,新規,0,2022-11-21,2022-11-21,株式会社ウチダ企画,,株式会社,神奈川県,茅ヶ崎市,東海岸北１丁目７番５号,,14,207,2530053,,,,,,,2022-11-21,1,,,,,ウチダキカク,0
1291,6021001077516,新規,0,2022-11-21,2022-11-21,株式会社Ｈａｒｕ,,株式会社,神奈川県,三浦市,三崎町小網代１８６６番地４,,14,210,2380225,,,,,,,2022-11-21,1,,,,,ハル,0
1298,6021005012667,新規,0,2022-11-21,2022-11-21,特定非営利活動法人エスオーエス,,その他の設立登記法人,神奈川県,厚木市,栄町１丁目１０番３号,,14,212,2430017,,,,,,,2022-11-21,1,,,,,エスオーエス,0
1312,6030003020557,新規,0,2022-11-21,2022-11-21,合同会社寅販,,合同会社,埼玉県,大里郡寄居町,大字赤浜９２６－２,,11,408,3691211,,,,,,,2022-11-21,1,,,,,トラハン,0
1313,6030003020581,新規,0,2022-11-21,2022-11-21,Ｍｏｔｏｒ　Ｅｍｐｉｒｅ　ＪＡＰＡＮ合同会社,,合同会社,埼玉県,幸手市,大字惣新田４９８番地５,,11,240,3400133,,,,,,,2022-11-21,1,,,,,モーターエンパイアジャパン,0
1314,6030003020607,新規,0,2022-11-21,2022-11-21,ＴＣドリーム合同会社,,合同会社,埼玉県,草加市,旭町４丁目９番１７号コーポ河野第１－２０２号,,11,221,3400053,,,,,,,2022-11-21,1,,,,,ティーシードリーム,0
1315,6030005021074,新規,0,2022-11-21,2022-11-21,一般社団法人医療福祉ネットワーク,,その他の設立登記法人,埼玉県,戸田市,上戸田１丁目１７番２２－１０２号,,11,224,3350022,,,,,,,2022-11-21,1,,,,,イリョウフクシネットワーク,0
1321,6040001125943,新規,0,2022-11-21,2022-11-21,株式会社テラスエステート,,株式会社,千葉県,市原市,西国分寺台１丁目２番地１０－３０１,,12,219,2900072,,,,,,,2022-11-21,1,,,,,テラスエステート,0
1324,6040003021315,新規,0,2022-11-21,2022-11-21,ＤＰ　ＩＮＴＥＲＮＡＴＩＯＮＡＬ合同会社,,合同会社,千葉県,白井市,根２８９番地３６,,12,232,2701431,,,,,,,2022-11-21,1,,,,,ディーピーインターナショナル,0
1325,6040003021323,新規,0,2022-11-21,2022-11-21,ＵＲコンサルティング合同会社,,合同会社,千葉県,市川市,大洲３丁目１５－５－３０９,,12,203,2720032,,,,,,,2022-11-21,1,,,,,ユーアールコンサルティング,0
1328,6050003006991,新規,0,2022-11-21,2022-11-21,合同会社Ｊｉｎｇｏｏｄ,,合同会社,茨城県,取手市,井野台３丁目７－１９,,08,217,3020015,,,,,,,2022-11-21,1,,,,,ジングッド,0
1330,6080101023655,新規,0,2022-11-21,2022-11-21,株式会社Ｈｉｇｈ　Ｂｒｉｄｇｅ,,株式会社,静岡県,富士宮市,三園平１０８７番地の５,,22,207,4180004,,,,,,,2022-11-21,1,,,,,ハイブリッジ,0
1335,6100001035896,新規,0,2022-11-21,2022-11-21,ＡＭＡＹＡ株式会社,,株式会社,長野県,北佐久郡軽井沢町,大字長倉３３０２番地１サンコーポ丸山３号室,,20,321,3890111,,,,,,,2022-11-21,1,,,,,アマヤ,0
1350,6120001250428,新規,0,2022-11-21,2022-11-21,株式会社ＭＮ工業,,株式会社,大阪府,大阪市西区,北堀江１丁目１番３０号,,27,106,5500014,,,,,,,2022-11-21,1,,,,,エムエヌコウギョウ,0
1351,6120001250444,新規,0,2022-11-21,2022-11-21,メタバースコレクション株式会社,,株式会社,大阪府,大阪市西区,新町１丁目８番１号行政ビル９階,,27,106,5500013,,,,,,,2022-11-21,1,,,,,メタバースコレクション,0
1352,6120001250477,新規,0,2022-11-21,2022-11-21,株式会社モンタネール,,株式会社,大阪府,大阪市西区,京町堀１丁目１６番１４－５０４号,,27,106,5500003,,,,,,,2022-11-21,1,,,,,モンタネール,0
1354,6120003022899,新規,0,2022-11-21,2022-11-21,合同会社アークス,,合同会社,大阪府,大阪市北区,梅田１丁目２番２号大阪駅前第２ビル１２－１２,,27,127,5300001,,,,,,,2022-11-21,1,,,,,アークス,0
1355,6120003022908,新規,0,2022-11-21,2022-11-21,合同会社これから,,合同会社,大阪府,大阪市旭区,中宮２丁目３番１７号,,27,117,5350003,,,,,,,2022-11-21,1,,,,,コレカラ,0
1359,6122001036427,新規,0,2022-11-21,2022-11-21,ＡＭＡＫＩグループ株式会社,,株式会社,大阪府,東大阪市,長田東２丁目３番５号日秀ビル３階３０３号,,27,227,5770012,,,,,,,2022-11-21,1,,,,,アマキグループ,0
1384,6180001153897,新規,0,2022-11-21,2022-11-21,株式会社エイプリルメイ,,株式会社,愛知県,小牧市,大字野口２２３３番地,,23,219,4850806,,,,,,,2022-11-21,1,,,,,エイプリルメイ,0
1385,6180001153922,新規,0,2022-11-21,2022-11-21,株式会社住宅保証パートナーズ,,株式会社,愛知県,名古屋市中区,栄２丁目２番２３号アーク白川公園ビルディング本館０７０１,,23,106,4600008,,,,,,,2022-11-21,1,,,,,ジュウタクホショウパートナーズ,0
1392,6180301036843,新規,0,2022-11-21,2022-11-21,株式会社佑,,株式会社,愛知県,豊田市,朝日町７丁目３６番地１,,23,211,4710031,,,,,,,2022-11-21,1,,,,,ユウ,0
1395,6200001040688,新規,0,2022-11-21,2022-11-21,株式会社泰幸建設,,株式会社,岐阜県,岐阜市,萱場南２丁目２番１７号,,21,201,5020936,,,,,,,2022-11-21,1,,,,,タイコウケンセツ,0
1397,6210001019161,新規,0,2022-11-21,2022-11-21,株式会社大林設備,,株式会社,福井県,丹生郡越前町,小倉第９１号３０番地１２,,18,423,9160111,,,,,,,2022-11-21,1,,,,,オオバヤシセツビ,0
1402,6240001060682,新規,0,2022-11-21,2022-11-21,株式会社ノン・ネック,,株式会社,広島県,呉市,中通３丁目２番１号,,34,202,7370046,,,,,,,2022-11-21,1,,,,,ノンネック,0
1404,6240003005900,新規,0,2022-11-21,2022-11-21,合同会社カジュマル,,合同会社,広島県,東広島市,黒瀬町宗近柳国７１６番地４,,34,212,7392504,,,,,,,2022-11-21,1,,,,,カジュマル,0
1410,6270001008670,新規,0,2022-11-21,2022-11-21,株式会社カプレア,,株式会社,鳥取県,西伯郡伯耆町,小野２４７番地,,31,390,6894113,,,,,,,2022-11-21,1,,,,,カプレア,0
1412,6290001099642,新規,0,2022-11-21,2022-11-21,株式会社ＧｒａｎＤｉｏｒ,,株式会社,福岡県,福岡市中央区,平尾３丁目２０番２号,,40,133,8100014,,,,,,,2022-11-21,1,,,,,グランディオール,0
1413,6290003013221,新規,0,2022-11-21,2022-11-21,合同会社ＢＥ,,合同会社,福岡県,福岡市西区,野方２丁目４３番７号,,40,135,8190043,,,,,,,2022-11-21,1,,,,,ビー,0
1414,6290801029071,新規,0,2022-11-21,2022-11-21,株式会社来れＢＡＲ,,株式会社,福岡県,遠賀郡芦屋町,高浜町３番１６号,,40,381,8070122,,,,,,,2022-11-21,1,,,,,クレバー,0
1420,6330001030288,新規,0,2022-11-21,2022-11-21,株式会社九映精機,,株式会社,熊本県,熊本市東区,戸島３丁目７番７３号,,43,102,8618041,,,,,,,2022-11-21,1,,,,,キュウエイセイキ,0
1421,6330001030321,新規,0,2022-11-21,2022-11-21,株式会社ＴＧｍ４,,株式会社,熊本県,熊本市中央区,出水７丁目５６番４１号,,43,101,8620941,,,,,,,2022-11-21,1,,,,,ティージーエムフォー,0
1422,6330003009594,新規,0,2022-11-21,2022-11-21,合同会社Ｙｏｎｅｓａｎ,,合同会社,熊本県,熊本市西区,沖新町１２５番地,,43,103,8615273,,,,,,,2022-11-21,1,,,,,ヨネサン,0
1423,6340001025188,新規,0,2022-11-21,2022-11-21,株式会社琉工務店,,株式会社,鹿児島県,大島郡伊仙町,大字検福８９６番地,,46,532,8918116,,,,,,,2022-11-21,1,,,,,リュウコウムテン,0
1433,6370001049275,新規,0,2022-11-21,2022-11-21,株式会社協立,,株式会社,宮城県,石巻市,三ツ股２丁目５番６４号,,04,202,9860858,,,,,,,2022-11-21,1,,,,,キョウリツ,0
1436,6380001033278,新規,0,2022-11-21,2022-11-21,株式会社ウェイブアクト,,株式会社,福島県,いわき市,小川町上小川字川原４７番地の２,,07,204,9793124,,,,,,,2022-11-21,1,,,,,ウェイブアクト,0
1437,6380003005325,新規,0,2022-11-21,2022-11-21,合同会社ＴＭアドバンス,,合同会社,福島県,郡山市,鶴見坦１丁目１２番３号,,07,203,9638861,,,,,,,2022-11-21,1,,,,,ティーエムアドバンス,0
1438,6400001016065,新規,0,2022-11-21,2022-11-21,株式会社Ｔ・Ｍ・Ｒ,,株式会社,岩手県,奥州市,水沢泉町２番３３号,,03,215,0230824,,,,,,,2022-11-21,1,,,,,ティーエムアール,0
1441,6430001087913,新規,0,2022-11-21,2022-11-21,株式会社家工房,,株式会社,北海道,石狩市,花川北二条６丁目６７番地,,01,235,0613212,,,,,,,2022-11-21,1,,,,,イエコウボウ,0
1443,6430003014469,新規,0,2022-11-21,2022-11-21,合同会社月寒商事,,合同会社,北海道,札幌市豊平区,月寒東二条２丁目４番７８号,,01,105,0620052,,,,,,,2022-11-21,1,,,,,ツキサムショウジ,0
1444,6430003014477,新規,0,2022-11-21,2022-11-21,合同会社ＦＬＡＴ,,合同会社,北海道,岩見沢市,南町五条２丁目１番１８号コーポフジサワ１０２,,01,210,0680805,,,,,,,2022-11-21,1,,,,,フラット,0
1447,6440001009189,新規,0,2022-11-21,2022-11-21,株式会社道南エネルギーシフト,,株式会社,北海道,北斗市,追分２丁目１７番２２号,,01,236,0490101,,,,,,,2022-11-21,1,,,,,ドウナンエネルギーシフト,0
1448,6460101007280,新規,0,2022-11-21,2022-11-21,株式会社ｍｉｚｕ,,株式会社,北海道,帯広市,西十七条南３丁目４５番１８号,,01,207,0800027,,,,,,,2022-11-21,1,,,,,ミズ,0
1455,6700150112956,新規,0,2022-11-21,2022-11-21,秋田県特別支援学校文化連盟,,その他,秋田県,秋田市,南ケ丘１丁目１番１号,,05,201,0101409,,,,,,,2022-11-21,1,,,,,アキタケントクベツシエンガッコウブンカレンメイ,0
1463,7010003039128,新規,0,2022-11-21,2022-11-21,ＪＡＺＳ６合同会社,,合同会社,東京都,中央区,日本橋室町４丁目３番９号,,13,102,1030022,,,,,,,2022-11-21,1,,,,,ジャズシックス,0
1467,7010101015419,新規,0,2022-11-21,2022-11-21,株式会社プロバイス,,株式会社,東京都,八王子市,緑町２９８番地５,,13,201,1930932,,,,,,,2022-11-21,1,,,,,プロバイス,0
1483,7010403028944,新規,0,2022-11-21,2022-11-21,ＴＨＹ合同会社,,合同会社,東京都,港区,芝１丁目１３番２１－１００２号,,13,103,1050014,,,,,,,2022-11-21,1,,,,,チエチワイ,0
1485,7010405021609,新規,0,2022-11-21,2022-11-21,Ａｚａｂｕｄａｉ　Ｌｉｖｉｎｇ一般社団法人,,その他の設立登記法人,東京都,港区,六本木１丁目９番１０号アークヒルズ仙石山森タワー４０階,,13,103,1060032,,,,,,,2022-11-21,1,,,,,アザブダイリビング,0
1487,7010503006791,新規,0,2022-11-21,2022-11-21,アキオ合同会社,,合同会社,東京都,台東区,上野６丁目１－６御徒町グリーンハイツ１０７室,,13,106,1100005,,,,,,,2022-11-21,1,,,,,アキオ,0
1490,7010601062175,新規,0,2022-11-21,2022-11-21,Ｈｏｍｅｒｕｎ　Ｐｉｃｔｕｒｅｓ株式会社,,株式会社,東京都,江東区,豊洲５丁目１番１３－６０１号,,13,108,1350061,,,,,,,2022-11-21,1,,,,,ホームランピクチャーズ,0
1491,7010603009851,新規,0,2022-11-21,2022-11-21,合同会社ＳＡＩＳＡＫＩ,,合同会社,東京都,墨田区,東向島２丁目２４番２号,,13,107,1310032,,,,,,,2022-11-21,1,,,,,サイサキ,0
1492,7010803004355,新規,0,2022-11-21,2022-11-21,合同会社Ｍｉｒａｉ,,合同会社,東京都,大田区,西六郷２丁目９番１‐３０２号,,13,111,1440056,,,,,,,2022-11-21,1,,,,,ミライ,0
1494,7010901052009,新規,0,2022-11-21,2022-11-21,株式会社ＡＬＬＹ,,株式会社,東京都,世田谷区,若林１丁目２１番１０号クレールコート２０１,,13,112,1540023,,,,,,,2022-11-21,1,,,,,アリー,0
1497,7010903007794,新規,0,2022-11-21,2022-11-21,Ｃｏｎｓｅｒｇｅ合同会社,,合同会社,東京都,世田谷区,上用賀１丁目７－２２－３０２,,13,112,1580098,,,,,,,2022-11-21,1,,,,,,0
1503,7011001150909,新規,0,2022-11-21,2022-11-21,株式会社ＲｅＭｅＦａ,,株式会社,東京都,渋谷区,道玄坂１丁目１０番８号渋谷道玄坂東急ビル２Ｆ－Ｃ,,13,113,1500043,,,,,,,2022-11-21,1,,,,,リミファ,0
1504,7011001151007,新規,0,2022-11-21,2022-11-21,よろずインターネット株式会社,,株式会社,東京都,渋谷区,道玄坂１丁目１０番８号渋谷道玄坂東急ビル２Ｆ－Ｃ,,13,113,1500043,,,,,,,2022-11-21,1,,,,,ヨロズインターネット,0
1510,7011101100895,新規,0,2022-11-21,2022-11-21,株式会社レヴァリエ,,株式会社,東京都,新宿区,愛住町２２番地,,13,104,1600005,,,,,,,2022-11-21,1,,,,,レヴァリエ,0
1511,7011103012404,新規,0,2022-11-21,2022-11-21,Ｍ＆Ｅ合同会社,,合同会社,東京都,新宿区,榎町３４－３榎町ビル５階－１３室,,13,104,1620806,,,,,,,2022-11-21,1,,,,,エムアンドイー,0
1515,7011503005370,新規,0,2022-11-21,2022-11-21,東瑞合同会社,,合同会社,東京都,荒川区,西日暮里２丁目２６番１０－２０３号,,13,118,1160013,,,,,,,2022-11-21,1,,,,,トウズイ,0
1529,7020001148986,新規,0,2022-11-21,2022-11-21,株式会社インテリアショウエイ,,株式会社,神奈川県,川崎市川崎区,渡田３丁目５番１号１０３,,14,131,2100837,,,,,,,2022-11-21,1,,,,,インテリアショウエイ,0
1530,7020001149068,新規,0,2022-11-21,2022-11-21,株式会社ヤシカジャパン,,株式会社,神奈川県,横浜市港北区,大豆戸町９０２番地２大倉山ハイム４－８１０,,14,109,2220032,,,,,,,2022-11-21,1,,,,,ヤシカジャパン,0
1531,7020001149076,新規,0,2022-11-21,2022-11-21,株式会社ソレイユ,,株式会社,神奈川県,横浜市鶴見区,寺谷２丁目４番２４－１０５号,,14,101,2300015,,,,,,,2022-11-21,1,,,,,ソレイユ,0
1534,7020003022652,新規,0,2022-11-21,2022-11-21,ＮＴ＆Ｃｏｍｐａｎｙ合同会社,,合同会社,神奈川県,横浜市神奈川区,栗田谷６番３４号,,14,102,2210804,,,,,,,2022-11-21,1,,,,,,0
1535,7020003022727,新規,0,2022-11-21,2022-11-21,合同会社Ｃ‐ＧＡＴＥ,,合同会社,神奈川県,川崎市多摩区,菅馬場１丁目１０－１５プルーズアネックス２０２,,14,135,2140004,,,,,,,2022-11-21,1,,,,,シーゲート,0
1542,7021001077507,新規,0,2022-11-21,2022-11-21,株式会社Ｃｙｍｂｉ,,株式会社,神奈川県,藤沢市,湘南台４丁目７番地の２,,14,205,2520804,,,,,,,2022-11-21,1,,,,,シンビ,0
1543,7021001077515,新規,0,2022-11-21,2022-11-21,株式会社ａｒｉａ,,株式会社,神奈川県,鎌倉市,大船２丁目２２番１６号松栄ビル３Ｆ,,14,204,2470056,,,,,,,2022-11-21,1,,,,,アリア,0
1549,7030001151097,新規,0,2022-11-21,2022-11-21,株式会社ＢＬＡＣＫ　ＰＥＡＣＨ,,株式会社,埼玉県,所沢市,小手指台２番地の４－１０３,,11,208,3591148,,,,,,,2022-11-21,1,,,,,ブラックピーチ,0
1550,7030001151122,新規,0,2022-11-21,2022-11-21,株式会社Ｌａｎｄａｒｔｓ,,株式会社,埼玉県,春日部市,藤塚１４１７番地,,11,214,3440011,,,,,,,2022-11-21,1,,,,,ランダーツ,0
1551,7030001151155,新規,0,2022-11-21,2022-11-21,まさごマッサージ株式会社,,株式会社,埼玉県,川口市,榛松２丁目２４番１２号,,11,203,3340062,,,,,,,2022-11-21,1,,,,,マサゴマッサージ,0
1556,7040001125918,新規,0,2022-11-21,2022-11-21,株式会社ＣＨＩＢＡ　ＣＬＵＢ,,株式会社,千葉県,千葉市中央区,栄町９－１,,12,101,2600016,,,,,,,2022-11-21,1,,,,,チバクラブ,0
1557,7040001125934,新規,0,2022-11-21,2022-11-21,株式会社カイエステート,,株式会社,千葉県,流山市,大字西深井８３８番地の１セントエルモ運河３Ｉ号室,,12,220,2700107,,,,,,,2022-11-21,1,,,,,カイエステート,0
1558,7040001125942,新規,0,2022-11-21,2022-11-21,株式会社川床,,株式会社,千葉県,松戸市,中矢切３７６番地の７,,12,207,2710095,,,,,,,2022-11-21,1,,,,,,0
1561,7040003021314,新規,0,2022-11-21,2022-11-21,合同会社ラトワール・ノエ,,合同会社,千葉県,船橋市,坪井東６丁目６番２２号,,12,204,2740060,,,,,,,2022-11-21,1,,,,,ラトワールノエ,0
1562,7040003021330,新規,0,2022-11-21,2022-11-21,Ｅｌ　Ｄｒｅａｍ合同会社,,合同会社,千葉県,佐倉市,大崎台４丁目２３番地１１,,12,212,2850817,,,,,,,2022-11-21,1,,,,,エルドリーム,0
1567,7050003007031,新規,0,2022-11-21,2022-11-21,Ｙｏｓｈ　Ｙｏｓｈ合同会社,,合同会社,茨城県,水戸市,宮町１丁目２番４号ＭＹＭビル３ＦＢＩＺｃｏｍｆｏｒｔ水戸,,08,201,3100015,,,,,,,2022-11-21,1,,,,,ヨシュヨシュ,0
1570,7060003004317,新規,0,2022-11-21,2022-11-21,合同会社グランシステムズ,,合同会社,栃木県,小山市,大字横倉新田７番地９８,,09,208,3230819,,,,,,,2022-11-21,1,,,,,グランシステムズ,0
1574,7080001025305,新規,0,2022-11-21,2022-11-21,株式会社８６,,株式会社,静岡県,島田市,川根町身成３４８３番地の２,,22,209,4280103,,,,,,,2022-11-21,1,,,,,エイティシックス,0
1576,7080101023654,新規,0,2022-11-21,2022-11-21,株式会社ＲｅＬＩＦＥ,,株式会社,静岡県,賀茂郡河津町,浜１０１番地の２,,22,302,4130513,,,,,,,2022-11-21,1,,,,,リライフ,0
1579,7100001035887,新規,0,2022-11-21,2022-11-21,エコシステム推進機構株式会社,,株式会社,長野県,諏訪郡富士見町,富士見４０４０番地１,,20,362,3990211,,,,,,,2022-11-21,1,,,,,エコシステムスイシンキコウ,0
1580,7100001035895,新規,0,2022-11-21,2022-11-21,株式会社Ｃｒｅａｔｏｐｉａ,,株式会社,長野県,松本市,大字里山辺３０１６番地ＧＲＥＡＴ　ＣＯＵＲＴ２０２号室,,20,202,3900221,,,,,,,2022-11-21,1,,,,,クリエイトピア,0
1584,7120001250476,新規,0,2022-11-21,2022-11-21,ヤマトファーネス株式会社,,株式会社,大阪府,大阪市西淀川区,姫島５丁目１６番１０－２０１号,,27,113,5550033,,,,,,,2022-11-21,1,,,,,ヤマトファーネス,0
1587,7120003022907,新規,0,2022-11-21,2022-11-21,Ｎｅｘｔ　Ｔｒａｎｃｅｎｄ合同会社,,合同会社,大阪府,大阪市鶴見区,放出東３丁目２１－４０ローレルコート放出２０５,,27,124,5380044,,,,,,,2022-11-21,1,,,,,ネクストトランセンド,0
1599,7130001073125,新規,0,2022-11-21,2022-11-21,アベイル株式会社,,株式会社,京都府,綴喜郡井手町,大字井手小字段ノ下２１番地の１２,,26,343,6100302,,,,,,,2022-11-21,1,,,,,アベイル,0
1614,7140001128142,新規,0,2022-11-21,2022-11-21,株式会社Ｗ‐ＳＴＹＬＥ,,株式会社,兵庫県,神戸市中央区,古湊通２丁目２番１０－１０１号,,28,110,6500026,,,,,,,2022-11-21,1,,,,,ダブルスタイル,0
1617,7150001025966,新規,0,2022-11-21,2022-11-21,株式会社パセリワークス,,株式会社,奈良県,生駒郡斑鳩町,龍田北４丁目４－６,00128537,29,344,6360151,,,,,,,2022-11-21,1,,,,,パセリワークス,0
1629,7180001153888,新規,0,2022-11-21,2022-11-21,株式会社ロックＰＬＵＳ,,株式会社,愛知県,名古屋市中区,東桜２丁目２２番２６号第２照運寺ビル１Ｆ,,23,106,4600005,,,,,,,2022-11-21,1,,,,,ロックプラス,0
1630,7180001153921,新規,0,2022-11-21,2022-11-21,株式会社ＯＮＥフィナンシャルサービス,,株式会社,愛知県,名古屋市中区,栄２丁目２番２３号アーク白川公園ビルディング本館０７０１,,23,106,4600008,,,,,,,2022-11-21,1,,,,,ワンフィナンシャルサービス,0
1637,7200001040687,新規,0,2022-11-21,2022-11-21,株式会社ＨＡＲＵＴＯ工業,,株式会社,岐阜県,羽島郡笠松町,北及２２１番地の１,,21,303,5016064,,,,,,,2022-11-21,1,,,,,ハルトコウギョウ,0
1641,7220003003401,新規,0,2022-11-21,2022-11-21,合同会社Ｓ＆Ｌ,,合同会社,石川県,金沢市,小立野５丁目１２‐１４,,17,201,9200942,,,,,,,2022-11-21,1,,,,,エスアンドエル,0
1644,7230001019605,新規,0,2022-11-21,2022-11-21,株式会社Ｍｕｂｅｅｎ　Ｔｒａｄｉｎｇ,,株式会社,富山県,高岡市,石瀬８０７番地５,,16,202,9330011,,,,,,,2022-11-21,1,,,,,ムビーントレーディング,0
1652,7290003013220,新規,0,2022-11-21,2022-11-21,キュリアス合同会社,,合同会社,福岡県,那珂川市,片縄北４丁目６番１０号,,40,231,8111203,,,,,,,2022-11-21,1,,,,,キュリアス,0
1655,7320001019430,新規,0,2022-11-21,2022-11-21,株式会社スカイ産業エアライン,,株式会社,大分県,杵築市,大字熊野１６８３番地,,44,210,8730008,,,,,,,2022-11-21,1,,,,,スカイサンギョウエアライン,0
1663,7340001025187,新規,0,2022-11-21,2022-11-21,株式会社シンフォニーコーポレーション,,株式会社,鹿児島県,姶良市,加治木町新生町３８６,,46,225,8995223,,,,,,,2022-11-21,1,,,,,シンフォニーコーポレーション,0
1667,7360001031217,新規,0,2022-11-21,2022-11-21,株式会社ＡＩソリューション,,株式会社,沖縄県,那覇市,字安里３８０番地,,47,201,9020067,,,,,,,2022-11-21,1,,,,,エーアイソリューション,0
1680,7430003014484,新規,0,2022-11-21,2022-11-21,合同会社ＥＲＩＡＮ,,合同会社,北海道,札幌市中央区,南十七条西９丁目１－６－７０３,,01,101,0640917,,,,,,,2022-11-21,1,,,,,エリアン,0
1689,7500001024602,新規,0,2022-11-21,2022-11-21,株式会社滝商,,株式会社,愛媛県,新居浜市,高津町１７番２２号,,38,205,7920867,,,,,,,2022-11-21,1,,,,,タキショウ,0
1696,8010001230918,新規,0,2022-11-21,2022-11-21,ＩＧＩＳ　ＪＡＰＡＮ株式会社,,株式会社,東京都,中央区,日本橋室町４丁目３番９号,,13,102,1030022,,,,,,,2022-11-21,1,,,,,イージスジャパン,0
1697,8010001230959,新規,0,2022-11-21,2022-11-21,株式会社三英ハイランド,,株式会社,東京都,中央区,築地７丁目１８番２８－６２０号,,13,102,1040045,,,,,,,2022-11-21,1,,,,,サンエイハイランド,0
1698,8010001230975,新規,0,2022-11-21,2022-11-21,株式会社フォースセキュリティ,,株式会社,東京都,中央区,銀座６丁目４番５号銀座オリエントビル,,13,102,1040061,,,,,,,2022-11-21,1,,,,,フォースセキュリティ,0
1701,8010003039127,新規,0,2022-11-21,2022-11-21,合同会社トリニティモンタナ,,合同会社,東京都,中央区,日本橋１丁目４番１号,,13,102,1030027,,,,,,,2022-11-21,1,,,,,トリニティモンタナ,0
1705,8010101015426,新規,0,2022-11-21,2022-11-21,株式会社ＷＡＲＭＧＬＯＷ,,株式会社,東京都,八王子市,東町１２番８号長澤ビル４Ｆ,,13,201,1920082,,,,,,,2022-11-21,1,,,,,ウォームグロー,0
1715,8010403028943,新規,0,2022-11-21,2022-11-21,ビーラインパートナーズ合同会社,,合同会社,東京都,港区,芝浦４丁目１６－３１東京ベイシティタワー２０１号室,,13,103,1080023,,,,,,,2022-11-21,1,,,,,ビーラインパートナーズ,0
1716,8010403028951,新規,0,2022-11-21,2022-11-21,ジー・エイ・ワン・ホールディング合同会社,,合同会社,東京都,港区,六本木１丁目９番１０号アークヒルズ仙石山森タワー４０階,,13,103,1060032,,,,,,,2022-11-21,1,,,,,ジーエイワンホールディング,0
1718,8010405021582,新規,0,2022-11-21,2022-11-21,一般社団法人ＳＫＥ,,その他の設立登記法人,東京都,港区,六本木７丁目１８番１５号六本木７１８ビル１１階,,13,103,1060032,,,,,,,2022-11-21,1,,,,,エスケーイー,0
1720,8010503006790,新規,0,2022-11-21,2022-11-21,上神楽地所合同会社,,合同会社,東京都,台東区,鳥越２丁目１１番１３号クラフトハウス１Ｆ,,13,106,1110054,,,,,,,2022-11-21,1,,,,,カミカグラジショ,0
1721,8010601062182,新規,0,2022-11-21,2022-11-21,株式会社オントリス,,株式会社,東京都,江東区,塩浜２丁目１１番５号,,13,108,1350043,,,,,,,2022-11-21,1,,,,,オントリス,0
1722,8010603009850,新規,0,2022-11-21,2022-11-21,合同会社カンガエル,,合同会社,東京都,江東区,牡丹２丁目９番１６号門前仲町東豊エステート８０４,,13,108,1350046,,,,,,,2022-11-21,1,,,,,カンガエル,0
1730,8010901052008,新規,0,2022-11-21,2022-11-21,株式会社ｔｔｉｔ,,株式会社,東京都,世田谷区,代沢１丁目１０番３号,,13,112,1550032,,,,,,,2022-11-21,1,,,,,ティティアイティ,0
1739,8011001151006,新規,0,2022-11-21,2022-11-21,株式会社ＢＯ,,株式会社,東京都,渋谷区,神宮前４丁目２９番９号,,13,113,1500001,,,,,,,2022-11-21,1,,,,,ビーオー,0
1740,8011001151030,新規,0,2022-11-21,2022-11-21,株式会社ＬＩＬＹＢＥＬＬＥ,,株式会社,東京都,渋谷区,神宮前６丁目２３番４号桑野ビル２階,,13,113,1500001,,,,,,,2022-11-21,1,,,,,リリーベル,0
1741,8011003015729,新規,0,2022-11-21,2022-11-21,合同会社グロウ,,合同会社,東京都,目黒区,自由が丘１丁目１３番１０号,,13,110,1520035,,,,,,,2022-11-21,1,,,,,グロウ,0
1745,8011101100886,新規,0,2022-11-21,2022-11-21,ＴＡＲＩＮＯＦ株式会社,,株式会社,東京都,新宿区,上落合２丁目２４番５号ガーデンコートアネックス２０３,,13,104,1610034,,,,,,,2022-11-21,1,,,,,タリノフ,0
1746,8011101100903,新規,0,2022-11-21,2022-11-21,株式会社ＢＥＹＯＮＤ,,株式会社,東京都,新宿区,西新宿３丁目３番１３号西新宿水間ビル６階,,13,104,1600023,,,,,,,2022-11-21,1,,,,,ビヨンド,0
1753,8011401024703,新規,0,2022-11-21,2022-11-21,株式会社ｐａｉｎ　ｍａｎａｇｅｍｅｎｔ,,株式会社,東京都,板橋区,高島平５丁目１５番６号,,13,119,1750082,,,,,,,2022-11-21,1,,,,,ペインマネジメント,0
1756,8011403003829,新規,0,2022-11-21,2022-11-21,東京Ｑｕａｌｉｔｙ合同会社,,合同会社,東京都,板橋区,本町２４番２号,,13,119,1730001,,,,,,,2022-11-21,1,,,,,トウキョウクオリティ,0
1757,8011501028686,新規,0,2022-11-21,2022-11-21,株式会社ＡｉＭ,,株式会社,東京都,北区,昭和町３丁目１０番１－１０６号ステージグランデ尾久,,13,117,1140011,,,,,,,2022-11-21,1,,,,,エイム,0
1761,8012401039889,新規,0,2022-11-21,2022-11-21,Ｌａｍｂｄａ　ＬＯＧＯＳ株式会社,,株式会社,東京都,調布市,調布ケ丘２丁目３２番地３１,,13,208,1820021,,,,,,,2022-11-21,1,,,,,ラムダロゴス,0
1763,8012801021975,新規,0,2022-11-21,2022-11-21,株式会社荒川造園,,株式会社,東京都,武蔵村山市,学園４丁目２１番地の３５,,13,223,2080011,,,,,,,2022-11-21,1,,,,,アラカワゾウエン,0
1765,8013101009059,新規,0,2022-11-21,2022-11-21,株式会社アルバ,,株式会社,東京都,あきる野市,網代３９４,,13,228,1900155,,,,,,,2022-11-21,1,,,,,アルバ,0
1769,8013305003403,新規,0,2022-11-21,2022-11-21,一般社団法人タスクシュート協会,,その他の設立登記法人,東京都,豊島区,東池袋２丁目６２番８号ＢＩＧオフィスプラザ池袋１１０２,,13,116,1700013,,,,,,,2022-11-21,1,,,,,タスクシュートキョウカイ,0
1773,8020001149059,新規,0,2022-11-21,2022-11-21,２２ソフト株式会社,,株式会社,神奈川県,横浜市金沢区,富岡東１丁目２番１－５１３号,,14,108,2360051,,,,,,,2022-11-21,1,,,,,フジソフト,0
1777,8020003022742,新規,0,2022-11-21,2022-11-21,合資会社Ｓｐｌａｔ．ｃｏ,,合資会社,神奈川県,横浜市南区,六ッ川二丁目３番地９４,,14,105,2320000,,,,,,,2022-11-21,1,,,,,,0
1778,8020003022750,新規,0,2022-11-21,2022-11-21,Ｗｈｉｔｅ　Ｒａｂｂｉｔ　Ｊａｐａｎ合同会社,,合同会社,神奈川県,横浜市中区,新山下１丁目１５番１１号コクサイエアロマリン新山下倉庫２階,,14,104,2310801,,,,,,,2022-11-21,1,,,,,ホワイトラビットジャパン,0
1779,8020005015728,新規,0,2022-11-21,2022-11-21,一般社団法人ｍｕｓｕｂｉ,,その他の設立登記法人,神奈川県,横浜市港北区,篠原町１４１０番地１,,14,109,2220026,,,,,,,2022-11-21,1,,,,,ムスビ,0
1784,8021003012394,新規,0,2022-11-21,2022-11-21,おしま建設合同会社,,合同会社,神奈川県,厚木市,中町３丁目１番２４号３Ｆ,,14,212,2430018,,,,,,,2022-11-21,1,,,,,,0
1799,8030005021072,新規,0,2022-11-21,2022-11-21,一般社団法人放課後さいたま,,その他の設立登記法人,埼玉県,川越市,寿町１丁目２２８６－４銀生五番館３号室,,11,201,3501116,,,,,,,2022-11-21,1,,,,,ホウカゴサイタマ,0
1808,8040001125917,新規,0,2022-11-21,2022-11-21,愛生ワンダーエステート株式会社,,株式会社,千葉県,千葉市若葉区,愛生町５７番地１,,12,104,2640031,,,,,,,2022-11-21,1,,,,,アイオイワンダーエステート,0
1809,8040001125933,新規,0,2022-11-21,2022-11-21,株式会社ｉ‐ｊｕｓｔ,,株式会社,千葉県,鎌ケ谷市,佐津間６７７番地９２ノクターン３０３号,,12,224,2730136,,,,,,,2022-11-21,1,,,,,アイジャスト,0
1810,8040001125941,新規,0,2022-11-21,2022-11-21,Ｎｉｃｏ　Ｆｒｏｈ株式会社,,株式会社,千葉県,千葉市若葉区,高品町１９８番地１,,12,104,2640024,,,,,,,2022-11-21,1,,,,,ニコフロー,0
1815,8040003021321,新規,0,2022-11-21,2022-11-21,合同会社Ａｆｌｏｊａｒ,,合同会社,千葉県,大網白里市,みずほ台１丁目２６番地２６,,12,239,2993234,,,,,,,2022-11-21,1,,,,,アフィロファ,0
1816,8040005021823,新規,0,2022-11-21,2022-11-21,税理士法人サクラコンサルタント,,その他の設立登記法人,千葉県,成田市,囲護台３丁目２番地３,,12,211,2860035,,,,,,,2022-11-21,1,,,,,サクラコンサルタント,0
1820,8060001035461,新規,0,2022-11-21,2022-11-21,株式会社ＴＯＴＩＮＯＫＩ,,株式会社,栃木県,足利市,田中町９２０番地９,,09,202,3260822,,,,,,,2022-11-21,1,,,,,トチノキ,0
1821,8060003004316,新規,0,2022-11-21,2022-11-21,リアリティー合同会社,,合同会社,栃木県,宇都宮市,上田原町９５２番地１９１,,09,201,3291112,,,,,,,2022-11-21,1,,,,,リアリティー,0
1823,8080101023653,新規,0,2022-11-21,2022-11-21,Ｍ＆Ｂパートナーズ株式会社,,株式会社,静岡県,伊東市,岡１３８２番地の１－９０１号,,22,208,4140055,,,,,,,2022-11-21,1,,,,,エムアンドビーパートナーズ,0
1827,8090005007529,新規,0,2022-11-21,2022-11-21,無限責任忍野村内野上区負債整理組合,,その他の設立登記法人,山梨県,南都留郡忍野村,忍草（役場内）,,19,424,4010511,,,,,,,2022-11-21,1,,,,,,0
1835,8120001250434,新規,0,2022-11-21,2022-11-21,株式会社ハク不動産,,株式会社,大阪府,大阪市西区,北堀江２丁目１３番１２号,,27,106,5500014,,,,,,,2022-11-21,1,,,,,ハクフドウサン,0
1836,8120001250442,新規,0,2022-11-21,2022-11-21,三民株式会社,,株式会社,大阪府,大阪市東淀川区,西淡路２丁目１４番４号Ｔ‘ｓＣｕｂｅ東淀川４０１号室,,27,114,5330031,,,,,,,2022-11-21,1,,,,,サンミン,0
1837,8120001250450,新規,0,2022-11-21,2022-11-21,株式会社ＯＴＡＭ,,株式会社,大阪府,大阪市港区,南市岡３丁目５番３２号,,27,107,5520011,,,,,,,2022-11-21,1,,,,,オータム,0
1838,8120001250467,新規,0,2022-11-21,2022-11-21,株式会社ＨＦＥＰ,,株式会社,大阪府,大阪市平野区,長吉川辺２丁目８－５８,,27,126,5470014,,,,,,,2022-11-21,1,,,,,エイチエフイーピー,0
1840,8120003022906,新規,0,2022-11-21,2022-11-21,合同会社ＴＲＤ,,合同会社,大阪府,大阪市淀川区,加島４丁目４番３８号アイビーハイム加島３Ｃ,,27,123,5320031,,,,,,,2022-11-21,1,,,,,ティアールディ,0
1844,8120901046774,新規,0,2022-11-21,2022-11-21,ＦＯＲＴＥＳ日本株式会社,,株式会社,大阪府,高槻市,天神町１丁目９番２６号,,27,207,5691117,,,,,,,2022-11-21,1,,,,,フォルテスニホン,0
1846,8122001036425,新規,0,2022-11-21,2022-11-21,株式会社ベジタセブン,,株式会社,大阪府,東大阪市,源氏ケ丘１３番２１号,,27,227,5770822,,,,,,,2022-11-21,1,,,,,ベジタセブン,0
1855,8130003008326,新規,0,2022-11-21,2022-11-21,合資会社ＲＳＡ,,合資会社,京都府,京都市左京区,岩倉南平岡町２５番地５,,26,103,6060032,,,,,,,2022-11-21,1,,,,,アールエスエイ,0
1878,8180001153706,新規,0,2022-11-21,2022-11-21,株式会社ＣＩＦ,,株式会社,愛知県,名古屋市名東区,八前１丁目２１０－４,,23,115,4650018,,,,,,,2022-11-21,1,,,,,シーアイエフ,0
1879,8180001153895,新規,0,2022-11-21,2022-11-21,株式会社鈴木技建,,株式会社,愛知県,名古屋市東区,出来町３丁目１３番１１号,,23,102,4610032,,,,,,,2022-11-21,1,,,,,スズキギケン,0
1881,8180003024525,新規,0,2022-11-21,2022-11-21,合同会社ＯＦＹ,,合同会社,愛知県,名古屋市北区,辻町字流７番地の２コープ野村上飯田２０１号,,23,103,4620032,,,,,,,2022-11-21,1,,,,,オーエフワイ,0
1889,8270001008669,新規,0,2022-11-21,2022-11-21,株式会社ナチュラルマテリアル,,株式会社,鳥取県,鳥取市,用瀬町美成３７番２,,31,201,6891212,,,,,,,2022-11-21,1,,,,,ナチュラルマテリアル,0
1894,8290001099509,新規,0,2022-11-21,2022-11-21,株式会社結美,,株式会社,福岡県,福岡市博多区,博多駅前２丁目１１－２２ライオンズマンションＪＯＹ博多３０５,,40,132,8120011,,,,,,,2022-11-21,1,,,,,ムスビ,0
1895,8290001099640,新規,0,2022-11-21,2022-11-21,株式会社あんど,,株式会社,福岡県,福岡市博多区,祇園町６番２６号,,40,132,8120038,,,,,,,2022-11-21,1,,,,,アンド,0
1910,8320003003951,新規,0,2022-11-21,2022-11-21,如水商店合同会社,,合同会社,大分県,中津市,大字上如水８１７番地１,,44,203,8710004,,,,,,,2022-11-21,1,,,,,ジョスイショウテン,0
1915,8340001025186,新規,0,2022-11-21,2022-11-21,株式会社ＯＦＡ,,株式会社,鹿児島県,南九州市,頴娃町上別府１６９９番地１,,46,223,8910705,,,,,,,2022-11-21,1,,,,,オーエフエー,0
1916,8340003003974,新規,0,2022-11-21,2022-11-21,ＨＯＡＮＧ　ＮＧＵＹＥＮ合同会社,,合同会社,鹿児島県,霧島市,隼人町見次８５３番地ヴァーチャスＭＫ１０１号,,46,218,8995117,,,,,,,2022-11-21,1,,,,,ホアングエン,0
1925,8410005006489,新規,0,2022-11-21,2022-11-21,一般社団法人秋田圏域社会福祉連携推進会,,その他の設立登記法人,秋田県,潟上市,昭和大久保字街道下９６番地２,,05,211,0181401,,,,,,,2022-11-21,1,,,,,アキタケンイキシャカイフクシレンケイスイシンカイ,0
1933,8470001019340,新規,0,2022-11-21,2022-11-21,ｅｌ　ｆｕｔｕｒｏ株式会社,,株式会社,香川県,丸亀市,飯野町東二甲３２４番地１０,,37,202,7630084,,,,,,,2022-11-21,1,,,,,エルフトゥーロ,0
1943,9010001230974,新規,0,2022-11-21,2022-11-21,株式会社セントラルライフ,,株式会社,東京都,千代田区,神田淡路町１丁目９番５号,,13,101,1010063,,,,,,,2022-11-21,1,,,,,セントラルライフ,0
1947,9010003039126,新規,0,2022-11-21,2022-11-21,合同会社ジーアイアイ２,,合同会社,東京都,中央区,日本橋１丁目４番１号日本橋一丁目ビルディング,,13,102,1030027,,,,,,,2022-11-21,1,,,,,ジーアイアイツー,0
1974,9010403028876,新規,0,2022-11-21,2022-11-21,Ｗｉｎｄｆａｌｌ合同会社,,合同会社,東京都,港区,北青山３丁目５番１４号青山鈴木硝子ビル６Ｆ,,13,103,1070061,,,,,,,2022-11-21,1,,,,,ウィンドフォール,0
1979,9010703006474,新規,0,2022-11-21,2022-11-21,合同会社楠田,,合同会社,東京都,品川区,西品川２丁目１７番８号,,13,109,1410033,,,,,,,2022-11-21,1,,,,,クスダ,0
1995,9011001150972,新規,0,2022-11-21,2022-11-21,株式会社ｓｅｓｓｉｏｎ,,株式会社,東京都,渋谷区,道玄坂１丁目１０番８号渋谷道玄坂東急ビル２Ｆ－Ｃ,,13,113,1500043,,,,,,,2022-11-21,1,,,,,セッション,0
1996,9011001151013,新規,0,2022-11-21,2022-11-21,株式会社ＨＡＫ,,株式会社,東京都,目黒区,上目黒１丁目１６番１２号鈴房ビル２０１Ａ中目黒ファームオフィス,,13,110,1530051,,,,,,,2022-11-21,1,,,,,ハク,0
2001,9011101100869,新規,0,2022-11-21,2022-11-21,株式会社セキグチ,,株式会社,東京都,新宿区,西新宿３丁目３番１３号西新宿水間ビル２Ｆ,,13,104,1600023,,,,,,,2022-11-21,1,,,,,セキグチ,0
2002,9011101100910,新規,0,2022-11-21,2022-11-21,株式会社ＡＮＳＷＥＲ,,株式会社,東京都,新宿区,新宿１丁目２８番地１７号,,13,104,1600022,,,,,,,2022-11-21,1,,,,,アンサー,0
2006,9011401024710,新規,0,2022-11-21,2022-11-21,株式会社ＮＥＸＴ　ＲＥＸ,,株式会社,東京都,板橋区,板橋３丁目４番３号プレミスト板橋５０２,,13,119,1730004,,,,,,,2022-11-21,1,,,,,ネクストレックス,0
2007,9011503005369,新規,0,2022-11-21,2022-11-21,合同会社依好味,,合同会社,東京都,荒川区,東日暮里６丁目４２番１５号（２階）,,13,118,1160014,,,,,,,2022-11-21,1,,,,,イコウミ,0
2012,9012301013217,新規,0,2022-11-21,2022-11-21,株式会社ＤＥＧＵＵ,,株式会社,東京都,町田市,原町田４丁目１番８号太陽ビル第１１、６階,,13,209,1940013,,,,,,,2022-11-21,1,,,,,デグー,0
2014,9012401039888,新規,0,2022-11-21,2022-11-21,株式会社Ｍ＆Ｍ　Ｔｏｋｙｏ,,株式会社,東京都,多摩市,落合１丁目３６ザ・パークハウス多摩センター１３０４,,13,224,2060033,,,,,,,2022-11-21,1,,,,,,0
2016,9012701017362,新規,0,2022-11-21,2022-11-21,ＳＳＥ株式会社,,株式会社,東京都,小平市,花小金井南町１丁目２０番２号ソラーレ花小金井ビル２０２号,,13,211,1870003,,,,,,,2022-11-21,1,,,,,エスエスイー,0
2027,9020001149058,新規,0,2022-11-21,2022-11-21,株式会社ｐｌｕｓ　Ｆａｍｉｌｙ,,株式会社,神奈川県,川崎市中原区,今井南町２７番１５号,,14,133,2110064,,,,,,,2022-11-21,1,,,,,プラスファミリー,0
2029,9020003022758,新規,0,2022-11-21,2022-11-21,合同会社ＬＥＯ,,合同会社,神奈川県,横浜市戸塚区,汲沢２丁目１３番１１号,,14,110,2450061,,,,,,,2022-11-21,1,,,,,レオ,0
2030,9020003022766,新規,0,2022-11-21,2022-11-21,合同会社Ａｒｃ,,合同会社,神奈川県,川崎市中原区,下小田中１丁目２４－１ブランディア武蔵中原２０５,,14,133,2110041,,,,,,,2022-11-21,1,,,,,アーク,0
2031,9020005015727,新規,0,2022-11-21,2022-11-21,一般社団法人煌,,その他の設立登記法人,神奈川県,横浜市金沢区,寺前２丁目９番２号,,14,108,2360014,,,,,,,2022-11-21,1,,,,,キラメキ,0
2046,9030001151145,新規,0,2022-11-21,2022-11-21,株式会社Ｍｐｏ,,株式会社,埼玉県,川口市,大字峯１１４９番地の９,,11,203,3340056,,,,,,,2022-11-21,1,,,,,エムピーオー,0
2047,9030001151161,新規,0,2022-11-21,2022-11-21,株式会社エコー,,株式会社,埼玉県,所沢市,大字上山口１９０３番地の１１,,11,208,3591153,,,,,,,2022-11-21,1,,,,,エコー,0
2050,9030003020604,新規,0,2022-11-21,2022-11-21,ファミリア・リリーフ合同会社,,合同会社,埼玉県,川越市,大字藤間３９２番地２２,,11,201,3501142,,,,,,,2022-11-21,1,,,,,ファミリアリリーフ,0
2054,9040001125924,新規,0,2022-11-21,2022-11-21,株式会社メディコネクサス,,株式会社,千葉県,野田市,岡田６７０番地の２,,12,208,2700223,,,,,,,2022-11-21,1,,,,,メディコネクサス,0
2055,9040001125940,新規,0,2022-11-21,2022-11-21,ワコー建工株式会社,,株式会社,千葉県,千葉市若葉区,みつわ台５丁目１８番１－５１０,,12,104,2640032,,,,,,,2022-11-21,1,,,,,ワコーケンコウ,0
2056,9040001125965,新規,0,2022-11-21,2022-11-21,ビエラ株式会社,,株式会社,千葉県,野田市,野田７８７番地１１－２Ｆ,,12,208,2780037,,,,,,,2022-11-21,1,,,,,ビエラ,0
2059,9040003021304,新規,0,2022-11-21,2022-11-21,合同会社まっちゅぴっちゅ,,合同会社,千葉県,船橋市,夏見６丁目２１番６号,,12,204,2730865,,,,,,,2022-11-21,1,,,,,マッチュピッチュ,0
2076,9120001070690,新規,0,2022-11-21,2022-11-21,株式会社丸一商店,,株式会社,大阪府,大阪市都島区,毛馬町１丁目２０番２９号,,27,102,5340001,,,,,,,2022-11-21,1,,,,,マルイチショウテン,0
2079,9120001156151,新規,0,2022-11-21,2022-11-21,大同開発株式会社,,株式会社,大阪府,守口市,早苗町６番１６号,,27,209,5700072,,,,,,,2022-11-21,1,,,,,ダイドウカイハツ,0
2091,9120001250441,新規,0,2022-11-21,2022-11-21,株式会社キィープ,,株式会社,大阪府,大阪市北区,梅田１丁目２番２号大阪駅前第２ビル１２－１２,,27,127,5300001,,,,,,,2022-11-21,1,,,,,キィープ,0
2097,9120901046773,新規,0,2022-11-21,2022-11-21,株式会社タントトレーディング,,株式会社,大阪府,豊中市,利倉西２丁目６番３２号,,27,203,5610844,,,,,,,2022-11-21,1,,,,,タントトレーディング,0
2102,9130001073123,新規,0,2022-11-21,2022-11-21,株式会社Ｌｅ．Ｌｉｅｎホールディングス,,株式会社,京都府,京都市伏見区,羽束師菱川町３８５番地７,,26,109,6128487,,,,,,,2022-11-21,1,,,,,ルリアンホールディングス,0
2103,9130003008333,新規,0,2022-11-21,2022-11-21,合同会社ＨＥＡ,,合同会社,京都府,相楽郡精華町,光台１丁目７番地けいはんなプラザラボ棟９階,,26,366,6190237,,,,,,,2022-11-21,1,,,,,エイチイーエー,0
2114,9150001025964,新規,0,2022-11-21,2022-11-21,株式会社Ｌｉｔ,,株式会社,奈良県,北葛城郡王寺町,太子１丁目１４番地の１８,,29,425,6360023,,,,,,,2022-11-21,1,,,,,リット,0
2131,9180001153861,新規,0,2022-11-21,2022-11-21,フェニックス・インベストメント株式会社,,株式会社,愛知県,名古屋市千種区,田代本通３丁目１８番地,,23,101,4640827,,,,,,,2022-11-21,1,,,,,フェニックスインベストメント,0
2132,9180001153894,新規,0,2022-11-21,2022-11-21,Ｘ　Ｐｒｏ　Ｊａｐａｎ株式会社,,株式会社,愛知県,名古屋市中川区,八家町２丁目１６４－１Ｃｏｕｒｔ八家４Ａ,,23,110,4540835,,,,,,,2022-11-21,1,,,,,エックスプロジャパン,0
2134,9180003024400,新規,0,2022-11-21,2022-11-21,朔合同会社,,合同会社,愛知県,名古屋市天白区,天白町大字野並字境根２００６番地の５,,23,116,4680037,,,,,,,2022-11-21,1,,,,,サク,0
2135,9180003024516,新規,0,2022-11-21,2022-11-21,合同会社晋,,合同会社,愛知県,一宮市,北方町中島字西松本３４番地サンテラスキタガタ１Ｆ,,23,203,4938003,,,,,,,2022-11-21,1,,,,,シン,0
2152,9290003013210,新規,0,2022-11-21,2022-11-21,ＫｈａＬｉ’ｓ合同会社,,合同会社,福岡県,福岡市中央区,清川１丁目１０－９佐倉３０２,,40,133,8100005,,,,,,,2022-11-21,1,,,,,カリス,0
2160,9330001030319,新規,0,2022-11-21,2022-11-21,株式会社ｉ．ｌｉｖｅｓ,,株式会社,熊本県,熊本市中央区,中央街７番２号銀座スカイビル９Ｆ,,43,101,8600802,,,,,,,2022-11-21,1,,,,,アイリブズ,0
2168,9360001031231,新規,0,2022-11-21,2022-11-21,スターツ沖縄株式会社,,株式会社,沖縄県,那覇市,久茂地２丁目１４番１３号,,47,201,9000015,,,,,,,2022-11-21,1,,,,,スターツオキナワ,0
2169,9360003012477,新規,0,2022-11-21,2022-11-21,合同会社ＧＢＣ７７,,合同会社,沖縄県,宜野湾市,伊佐４丁目１０－９,,47,205,9012221,,,,,,,2022-11-21,1,,,,,ジービーシーナナジュウナナ,0
