sequenceNumber,corporateNumber,process,correct,updateDate,changeDate,name,nameImageId,kind,prefectureName,cityName,streetNumber,addressImageId,prefectureCode,cityCode,postCode,addressOutside,addressOutsideImageId,closeDate,closeCause,successorCorporateNumber,changeCause,assignmentDate,latest,enName,enPrefectureName,enCityName,enAddressOutside,furigana,hihyoji
9,1010001245336,新規,0,2024-05-31,2024-05-31,Ｆａｌｉｎｗａ　Ｊａｐａｎ株式会社,,株式会社,東京都,中央区,日本橋本町２丁目２番２号日本橋本町ＹＳビル２階在日フランス商工会議所内,,13,102,1030023,,,,,,,2024-05-31,1,,,,,ファリンワジャパン,0
10,1010001245369,新規,0,2024-05-31,2024-05-31,Ｓ＆Ｙ株式会社,,株式会社,東京都,千代田区,丸の内１丁目９番２号グラントウキョウサウスタワー１１階,,13,101,1000005,,,,,,,2024-05-31,1,,,,,エスアンドワイ,0
13,1010003043894,新規,0,2024-05-31,2024-05-31,ＡＴＣ　ＳＯＬＵＴＩＯＮＳ合同会社,,合同会社,東京都,中央区,銀座１丁目１２番４号Ｎ＆ＥＢＬＤ．６Ｆ,,13,102,1040061,,,,,,,2024-05-31,1,,,,,エーティーシーソリューションズ,0
14,1010003043903,新規,0,2024-05-31,2024-05-31,合同会社アバディーン・ポートフォリオ・インベストメント,,合同会社,東京都,千代田区,丸の内３丁目１番１号東京共同会計事務所内,,13,101,1000005,,,,,,,2024-05-31,1,,,,,アバディーンポートフォリオインベストメント,0
24,1010401182781,新規,0,2024-05-31,2024-05-31,株式会社エックスプラス,,株式会社,東京都,港区,芝浦１丁目１２番３号,,13,103,1050023,,,,,,,2024-05-31,1,,,,,エックスプラス,0
27,1010403032712,新規,0,2024-05-31,2024-05-31,合同会社ケークラウド,,合同会社,東京都,港区,浜松町２丁目２番１５号浜松町ダイヤビル２Ｆ,,13,103,1050013,,,,,,,2024-05-31,1,,,,,ケークラウド,0
28,1010403032720,新規,0,2024-05-31,2024-05-31,ＣＫＢＭ合同会社,,合同会社,東京都,港区,新橋３丁目３番１３号ＴｓａｏＨｉｂｉｙａ９階,,13,103,1050004,,,,,,,2024-05-31,1,,,,,シーケービーエム,0
31,1010501052372,新規,0,2024-05-31,2024-05-31,株式会社信昌会,,株式会社,東京都,台東区,柳橋２丁目１０番２号,,13,106,1110052,,,,,,,2024-05-31,1,,,,,シンショウカイ,0
32,1010501052380,新規,0,2024-05-31,2024-05-31,株式会社ＫＴ,,株式会社,東京都,台東区,千束３丁目２０番３０号,,13,106,1110031,,,,,,,2024-05-31,1,,,,,ケーティー,0
33,1010505003529,新規,0,2024-05-31,2024-05-31,一般社団法人こども転落防止推進機構,,その他の設立登記法人,東京都,台東区,東上野３丁目３３番８号渡井ビル３Ｆ,,13,106,1100015,,,,,,,2024-05-31,1,,,,,コドモテンラクボウシスイシンキコウ,0
35,1010603010872,新規,0,2024-05-31,2024-05-31,合同会社ＹＬＧ,,合同会社,東京都,墨田区,緑４丁目５番１５－９０３号,,13,107,1300021,,,,,,,2024-05-31,1,,,,,ワイエルジー,0
38,1010801035102,新規,0,2024-05-31,2024-05-31,長洋商事株式会社,,株式会社,東京都,大田区,本羽田２丁目１４番１０－３０４号,,13,111,1440044,,,,,,,2024-05-31,1,,,,,ナガヒロショウジ,0
43,1010901055363,新規,0,2024-05-31,2024-05-31,株式会社ＳＰＥＣＩＡＬ　ＨＥＲＯＥＳ,,株式会社,東京都,世田谷区,中町４丁目３５番１５号,,13,112,1580091,,,,,,,2024-05-31,1,,,,,スペシャルヒーローズ,0
44,1010901055388,新規,0,2024-05-31,2024-05-31,株式会社Ｋａｐｉｔａｌ,,株式会社,東京都,世田谷区,桜丘３丁目１７番１０－３０７号,,13,112,1560054,,,,,,,2024-05-31,1,,,,,キャピタル,0
45,1010903009103,新規,0,2024-05-31,2024-05-31,合同会社ステートライフ,,合同会社,東京都,世田谷区,下馬２丁目８番１６号,,13,112,1540002,,,,,,,2024-05-31,1,,,,,ステートライフ,0
48,1011001162323,新規,0,2024-05-31,2024-05-31,株式会社ＢＲＵＴ,,株式会社,東京都,渋谷区,笹塚２丁目２５番６,,13,113,1510073,,,,,,,2024-05-31,1,,,,,ブルート,0
49,1011001162406,新規,0,2024-05-31,2024-05-31,Ｌｉｍｅｌｉｇｈｔ株式会社,,株式会社,東京都,渋谷区,渋谷２丁目１９‐１５宮益坂ビルディング６０９,,13,113,1500002,,,,,,,2024-05-31,1,,,,,ライムライト,0
51,1011003019249,新規,0,2024-05-31,2024-05-31,ＷｅＡｒｅＴｈｅＩｍｐａｃｔ合同会社,,合同会社,東京都,渋谷区,道玄坂１丁目１０番８号東急ビル２Ｆ－Ｃ,,13,113,1500043,,,,,,,2024-05-31,1,,,,,ウィーアーザーインパクト,0
54,1011101107500,新規,0,2024-05-31,2024-05-31,ＫＧ‐ＧＲＯＵＰ株式会社,,株式会社,東京都,新宿区,北新宿１丁目２番８号,,13,104,1690074,,,,,,,2024-05-31,1,,,,,ケージーグループ,0
55,1011105011046,新規,0,2024-05-31,2024-05-31,一般社団法人海原会,,その他の設立登記法人,東京都,新宿区,大久保３丁目６番１号,,13,104,1690072,,,,,,,2024-05-31,1,,,,,ウナバラカイ,0
66,1011601027792,新規,0,2024-05-31,2024-05-31,Ｌ’Ａｍｏｕｒ諾順再生医療株式会社,,株式会社,東京都,練馬区,桜台１丁目７番７－４０６号,,13,120,1760002,,,,,,,2024-05-31,1,,,,,ラモールダクジュンサイセイイリョウ,0
72,1011801044299,新規,0,2024-05-31,2024-05-31,株式会社カンライズ,,株式会社,東京都,葛飾区,亀有２丁目６８－５サンハイツ亀有１０３,,13,122,1250061,,,,,,,2024-05-31,1,,,,,カンライズ,0
73,1011801044308,新規,0,2024-05-31,2024-05-31,株式会社トリエホールディングス,,株式会社,東京都,葛飾区,新小岩４丁目１３番９号,,13,122,1240024,,,,,,,2024-05-31,1,,,,,トリエホールディングス,0
75,1011803006264,新規,0,2024-05-31,2024-05-31,ブリッジコネクト合同会社,,合同会社,東京都,足立区,西新井本町２丁目４番２０－４０３号,,13,121,1230845,,,,,,,2024-05-31,1,,,,,ブリッジコネクト,0
80,1012801023219,新規,0,2024-05-31,2024-05-31,株式会社ハレル舎,,株式会社,東京都,国立市,東１丁目９－１４－Ｂ号,,13,215,1860002,,,,,,,2024-05-31,1,,,,,ハレルシャ,0
99,1020001157431,新規,0,2024-05-31,2024-05-31,日本日宝株式会社,,株式会社,神奈川県,横浜市西区,桜木町４丁目２１番地１ＹＳＣ横浜ビル１００１,,14,103,2200021,,,,,,,2024-05-31,1,,,,,ニホンニッポウ,0
100,1020001157480,新規,0,2024-05-31,2024-05-31,株式会社ＧＲＩＴ,,株式会社,神奈川県,横浜市南区,永田北２丁目３２番２－２号,,14,105,2320071,,,,,,,2024-05-31,1,,,,,グリット,0
106,1021001082371,新規,0,2024-05-31,2024-05-31,株式会社ＲＯＣＥＬＬ,,株式会社,神奈川県,相模原市中央区,相模原市二丁目１２番１８号ＭＳビル２階,,14,152,2520200,,,,,,,2024-05-31,1,,,,,ルセル,0
114,1030001160616,新規,0,2024-05-31,2024-05-31,株式会社ｅｖｅｒ　ｐｒｅｓｅｎｔ＆ｃｏ．,,株式会社,埼玉県,川越市,大字上老袋４９８－３,,11,201,3500845,,,,,,,2024-05-31,1,,,,,エバープレゼントアンドコー,0
115,1030001160624,新規,0,2024-05-31,2024-05-31,株式会社大宮総業,,株式会社,埼玉県,さいたま市大宮区,寿能町１丁目５番地８,,11,103,3300805,,,,,,,2024-05-31,1,,,,,オオミヤソウギョウ,0
116,1030001160665,新規,0,2024-05-31,2024-05-31,Ｋ　ＰＲＡＭＩＳＨＡ　ＩＮＴＥＲＮＡＴＩＯＮＡＬ株式会社,,株式会社,埼玉県,さいたま市北区,日進町１丁目８４３番地１２,,11,102,3310823,,,,,,,2024-05-31,1,,,,,ケプラミサインターナショナル,0
117,1030001160681,新規,0,2024-05-31,2024-05-31,株式会社ＨｉｇｈＬｉｆｅ,,株式会社,埼玉県,草加市,北谷１丁目３１番１号,,11,221,3400046,,,,,,,2024-05-31,1,,,,,ハイライフ,0
123,1030005021715,新規,0,2024-05-31,2024-05-31,一般社団法人大和会,,その他の設立登記法人,埼玉県,川越市,今成１丁目１８番地２５,,11,201,3501105,,,,,,,2024-05-31,1,,,,,ダイワカイ,0
136,1070001041804,新規,0,2024-05-31,2024-05-31,株式会社リチウムバスター,,株式会社,群馬県,館林市,成島町６１１番地の２４,,10,207,3740055,,,,,,,2024-05-31,1,,,,,リチウムバスター,0
141,1100001037476,新規,0,2024-05-31,2024-05-31,株式会社ライフブリーズ,,株式会社,長野県,塩尻市,大字大門字桔梗ケ原１０７９番地６６,,20,215,3990744,,,,,,,2024-05-31,1,,,,,ライフブリーズ,0
155,1120001265406,新規,0,2024-05-31,2024-05-31,株式会社ダルマクレステート,,株式会社,大阪府,大阪市北区,東天満１丁目３番１５号インテリジェントビル４０３号室,,27,127,5300044,,,,,,,2024-05-31,1,,,,,ダルマクレステート,0
156,1120001265439,新規,0,2024-05-31,2024-05-31,株式会社八幸,,株式会社,大阪府,大阪市中央区,日本橋１丁目２１番５号,,27,128,5420073,,,,,,,2024-05-31,1,,,,,ハチコウ,0
159,1120003026715,新規,0,2024-05-31,2024-05-31,ＳＯＹＳＥＡ　ＲＥＡＬＩＺＥ合同会社,,合同会社,大阪府,大阪市西区,北堀江１丁目３番１０号エクセルコート北堀江１００２,,27,106,5500014,,,,,,,2024-05-31,1,,,,,ソイシーリアライズ,0
160,1120003026731,新規,0,2024-05-31,2024-05-31,合同会社Ｋ‐キャピタル,,合同会社,大阪府,大阪市中央区,安土町１丁目８番６号大永ビル２Ｆ,,27,128,5410052,,,,,,,2024-05-31,1,,,,,ケーキャピタル,0
162,1120101069673,新規,0,2024-05-31,2024-05-31,沢楊株式会社,,株式会社,大阪府,堺市南区,豊田２９９０番地１５４,,27,145,5900106,,,,,,,2024-05-31,1,,,,,サヨウ,0
172,1140001134583,新規,0,2024-05-31,2024-05-31,株式会社Ｍ＆Ｍ不動産コンサルタント,,株式会社,兵庫県,高砂市,高砂町戎町１０７３番地の４７,,28,216,6760045,,,,,,,2024-05-31,1,,,,,,0
179,1140003020633,新規,0,2024-05-31,2024-05-31,合同会社あまっぷ,,合同会社,兵庫県,尼崎市,昭和通２丁目６番６８号,,28,202,6600881,,,,,,,2024-05-31,1,,,,,アマップ,0
184,1160001025970,新規,0,2024-05-31,2024-05-31,協成機械工業株式会社,,株式会社,滋賀県,大津市,石場１１番５６号,,25,201,5200805,,,,,,,2024-05-31,1,,,,,キョウセイキカイコウギョウ,0
190,1180001161707,新規,0,2024-05-31,2024-05-31,丸宗株式会社,,株式会社,愛知県,名古屋市千種区,都通り三丁目５９番地の３,,23,101,4640000,,,,,,,2024-05-31,1,,,,,,0
194,1180003026866,新規,0,2024-05-31,2024-05-31,合同会社ｒｅｖｉｅｗｓ,,合同会社,愛知県,名古屋市西区,南堀越２丁目１番２３号（アーバンウインド３０２号）,,23,104,4510054,,,,,,,2024-05-31,1,,,,,レビューズ,0
204,1230003002218,新規,0,2024-05-31,2024-05-31,ＡＩ　Ｌａｂｏｒａｔｏｒｙ合同会社,,合同会社,富山県,富山市,高木南１０８－９,,16,201,9300106,,,,,,,2024-05-31,1,,,,,エーアイラボラトリー,0
206,1240001063293,新規,0,2024-05-31,2024-05-31,株式会社ユニカ,,株式会社,広島県,広島市西区,都町６番１号,,34,104,7330023,,,,,,,2024-05-31,1,,,,,ユニカ,0
207,1240001063302,新規,0,2024-05-31,2024-05-31,ビオラスタイル株式会社,,株式会社,広島県,尾道市,土堂２丁目６番３号３Ｆ,,34,205,7220035,,,,,,,2024-05-31,1,,,,,ビオラスタイル,0
208,1260001039127,新規,0,2024-05-31,2024-05-31,株式会社ｚｅｒｏｓｔａ,,株式会社,岡山県,岡山市北区,中山下１丁目１１番１５号新田第１ビル４０２,,33,101,7000821,,,,,,,2024-05-31,1,,,,,ゼロスタ,0
218,1340001026538,新規,0,2024-05-31,2024-05-31,株式会社井川ホールディングス,,株式会社,鹿児島県,薩摩郡さつま町,田原２２７１番地１,,46,392,8951802,,,,,,,2024-05-31,1,,,,,イガワホールディングス,0
221,1340005003962,新規,0,2024-05-31,2024-05-31,農事組合法人泊野牧野組合,,その他の設立登記法人,鹿児島県,薩摩郡さつま町,泊野６７８７番地１,,46,392,8951806,,,,,,,2024-05-31,1,,,,,,0
233,1400005008419,新規,0,2024-05-31,2024-05-31,市姫神社,,その他の設立登記法人,岩手県,北上市,相去町大清水６番地,,03,206,0240051,,,,,,,2024-05-31,1,,,,,イチヒメジンジャ,0
236,1430001091911,新規,0,2024-05-31,2024-05-31,株式会社ｏｒｉｎａｓｕ,,株式会社,北海道,札幌市北区,北二十三条西６丁目２－５３,,01,102,0010023,,,,,,,2024-05-31,1,,,,,オリナス,0
243,1480001012490,新規,0,2024-05-31,2024-05-31,株式会社ジェンコ,,株式会社,徳島県,徳島市,南昭和町３丁目２３番地の６,,36,201,7700944,,,,,,,2024-05-31,1,,,,,ジェンコ,0
247,1700150120518,新規,0,2024-05-31,2024-05-31,深セン市都剴楽実業有限公司,,外国会社等,,,,,,,,Ｎｏ．３，２／Ｆ，Ｂｌｏｃｋ　１０，Ｊｉｕｘｉａｎｇｌｉｎｇ　Ｉｎｄｕｓｔｒｉａｌ　Ｚｏｎｅ，Ｎｏ．７　Ｙａｎｈｅ　Ｒｏａｄ，Ｘｉｌｉ　Ｓｔｒｅｅｔ，Ｎａｎｓｈａｎ　Ｓｔｒｅｅｔ，Ｓｈｅｎｚｈｅｎ，Ｃｈｉｎａ,,,,,,2024-05-31,1,,,,,シンセンシトカイラクジツギョウユウゲンガイシャ,0
249,1700150125707,新規,0,2024-05-31,2024-05-31,世邦電池株式会社,,外国会社等,東京都,豊島区,東池袋５丁目７番３号アゼリア東池袋４０１,,13,116,1700013,大韓民国ソウル特別市江南区宣陵路４３３（駅三洞）,,,,,,2024-05-31,1,,,,,セバンデンチカブシキガイシヤ,0
258,2010001245327,新規,0,2024-05-31,2024-05-31,帝科国際株式会社,,株式会社,東京都,千代田区,神田平河町１番地,,13,101,1010027,,,,,,,2024-05-31,1,,,,,テイカコクサイ,0
259,2010001245351,新規,0,2024-05-31,2024-05-31,株式会社豊平,,株式会社,東京都,文京区,本郷３丁目２５番１２号,,13,105,1130033,,,,,,,2024-05-31,1,,,,,トヨヒラ,0
260,2010001245368,新規,0,2024-05-31,2024-05-31,総合メンテナンスサービス株式会社,,株式会社,東京都,中央区,銀座１丁目１２－４Ｎ＆Ｅ・ＢＬＤ．７階,,13,102,1040061,,,,,,,2024-05-31,1,,,,,ソウゴウメンテナンスサービス,0
262,2010003043893,新規,0,2024-05-31,2024-05-31,合同会社Ｐｌｅｎｉｘ,,合同会社,東京都,中央区,銀座１丁目１２番４号Ｎ＆ＥＢＬＤ．６Ｆ,,13,102,1040061,,,,,,,2024-05-31,1,,,,,プレニックス,0
274,2010401182806,新規,0,2024-05-31,2024-05-31,株式会社創意,,株式会社,東京都,港区,南青山１丁目３番２１号,,13,103,1070062,,,,,,,2024-05-31,1,,,,,ソウイ,0
275,2010401182822,新規,0,2024-05-31,2024-05-31,クレシェンド株式会社,,株式会社,東京都,港区,南青山３丁目１番３６号青山丸竹ビル６Ｆ,,13,103,1070062,,,,,,,2024-05-31,1,,,,,クレシェンド,0
276,2010401182839,新規,0,2024-05-31,2024-05-31,株式会社Ｗｉｓｔｅｒｉａ,,株式会社,東京都,港区,赤坂６丁目１１－２ピアース赤坂９０７,,13,103,1070052,,,,,,,2024-05-31,1,,,,,ウィステリア,0
280,2010501052363,新規,0,2024-05-31,2024-05-31,株式会社浅草花嶋,,株式会社,東京都,台東区,竜泉３丁目３５番８号ホワイトコート２０２,,13,106,1100012,,,,,,,2024-05-31,1,,,,,アサクサハナシマ,0
281,2010505003528,新規,0,2024-05-31,2024-05-31,一般社団法人賃貸セキュリティープロ,,その他の設立登記法人,東京都,台東区,北上野２丁目８番１３号,,13,106,1100014,,,,,,,2024-05-31,1,,,,,チンタイセキュリティープロ,0
289,2010901055370,新規,0,2024-05-31,2024-05-31,株式会社ｐｏｓａ,,株式会社,東京都,世田谷区,太子堂３丁目３６－１ブリリアイスト三軒茶屋アイビーテラス４１３,,13,112,1540004,,,,,,,2024-05-31,1,,,,,ポサ,0
299,2011001162289,新規,0,2024-05-31,2024-05-31,株式会社ＭＭＤ,,株式会社,東京都,渋谷区,恵比寿西２丁目４番８号ウィンド恵比寿ビル８Ｆ,,13,113,1500021,,,,,,,2024-05-31,1,,,,,エムエムディー,0
300,2011001162314,新規,0,2024-05-31,2024-05-31,株式会社ＤＡｉＲＯＫＵ,,株式会社,東京都,渋谷区,円山町５番５号Ｎａｖｉ渋谷Ｖ３階,,13,113,1500044,,,,,,,2024-05-31,1,,,,,ダイロク,0
301,2011001162322,新規,0,2024-05-31,2024-05-31,株式会社マウンテンモーニング,,株式会社,東京都,渋谷区,神宮前１丁目１０番３４号原宿コーポ別館７１０,,13,113,1500001,,,,,,,2024-05-31,1,,,,,マウンテンモーニング,0
302,2011001162330,新規,0,2024-05-31,2024-05-31,８８酒造株式会社,,株式会社,東京都,目黒区,中央町２丁目１０番２号ドルフ目黒５０１,,13,110,1520001,,,,,,,2024-05-31,1,,,,,ハチハチシュゾウ,0
303,2011001162355,新規,0,2024-05-31,2024-05-31,株式会社ＣＲＥＡＴＥ　ＳＴＯＲＹ,,株式会社,東京都,渋谷区,渋谷２丁目１９番１５号宮益坂ビルディング６０９,,13,113,1500002,,,,,,,2024-05-31,1,,,,,クリエイトストーリー,0
304,2011001162388,新規,0,2024-05-31,2024-05-31,ＡＩＣ株式会社,,株式会社,東京都,渋谷区,神南１丁目３番１１号,,13,113,1500041,,,,,,,2024-05-31,1,,,,,エーアイシー,0
305,2011001162396,新規,0,2024-05-31,2024-05-31,株式会社ＡＰＯＮＥ,,株式会社,東京都,渋谷区,代々木２丁目２３番１－８７１号,,13,113,1510053,,,,,,,2024-05-31,1,,,,,アップワン,0
308,2011003019231,新規,0,2024-05-31,2024-05-31,合同会社ＢＴＣコンピューター,,合同会社,東京都,渋谷区,道玄坂１丁目１０番８号渋谷道玄坂東急ビル２Ｆ－Ｃ,,13,113,1500043,,,,,,,2024-05-31,1,,,,,ビーティーシーコンピューター,0
309,2011003019289,新規,0,2024-05-31,2024-05-31,合同会社フラミアン,,合同会社,東京都,渋谷区,渋谷２丁目１９－１５宮益坂ビルディング６０９,,13,113,1500002,,,,,,,2024-05-31,1,,,,,フラミアン,0
311,2011005010535,新規,0,2024-05-31,2024-05-31,ＮＰＯ法人毛髪再生協会,,その他の設立登記法人,東京都,渋谷区,代々木２丁目２番１３号新宿ＴＲビル４階,,13,113,1510053,,,,,,,2024-05-31,1,,,,,モウハツサイセイキョウカイ,0
318,2011101107524,新規,0,2024-05-31,2024-05-31,株式会社ＥＳＴ,,株式会社,東京都,新宿区,西新宿３丁目３番１３号西新宿水間ビル６階,,13,104,1600023,,,,,,,2024-05-31,1,,,,,エスト,0
320,2011301029717,新規,0,2024-05-31,2024-05-31,株式会社恒陽建物,,株式会社,東京都,杉並区,下井草５丁目２２番１２－５０３号,,13,115,1670022,,,,,,,2024-05-31,1,,,,,コウヨウタテモノ,0
321,2011401026135,新規,0,2024-05-31,2024-05-31,株式会社工房ヒラム,,株式会社,東京都,板橋区,南常盤台２丁目７番３号,,13,119,1740072,,,,,,,2024-05-31,1,,,,,コウボウヒラム,0
322,2011401026143,新規,0,2024-05-31,2024-05-31,ＳＵＢＥＤＩ株式会社,,株式会社,東京都,板橋区,板橋１丁目２２番６号,,13,119,1730004,,,,,,,2024-05-31,1,,,,,スベディ,0
324,2011403004394,新規,0,2024-05-31,2024-05-31,合同会社スリーエス,,合同会社,東京都,板橋区,前野町１丁目８番９－４０２号,,13,119,1740063,,,,,,,2024-05-31,1,,,,,スリーエス,0
326,2011501030739,新規,0,2024-05-31,2024-05-31,ホクトＭＰＸ株式会社,,株式会社,東京都,荒川区,荒川２丁目６番９号,,13,118,1160002,,,,,,,2024-05-31,1,,,,,ホクトエムピーエックス,0
330,2011801044315,新規,0,2024-05-31,2024-05-31,来吉地不動産投資株式会社,,株式会社,東京都,足立区,千住桜木１丁目１０－１６－６０６,,13,121,1200045,,,,,,,2024-05-31,1,,,,,ライキチフドウサントウシ,0
349,2020001157513,新規,0,2024-05-31,2024-05-31,株式会社ヨシムラ,,株式会社,神奈川県,横浜市青葉区,荏子田２丁目２９番地３,,14,117,2250005,,,,,,,2024-05-31,1,,,,,ヨシムラ,0
360,2030001160615,新規,0,2024-05-31,2024-05-31,株式会社真和興業,,株式会社,埼玉県,上尾市,浅間台４丁目２１番地３３,,11,219,3620073,,,,,,,2024-05-31,1,,,,,シンワコウギョウ,0
361,2030001160623,新規,0,2024-05-31,2024-05-31,株式会社ｗｉｔｈ,,株式会社,埼玉県,三郷市,栄４丁目２０３番地,,11,237,3410043,,,,,,,2024-05-31,1,,,,,ウィズ,0
362,2030001160631,新規,0,2024-05-31,2024-05-31,平安家株式会社,,株式会社,埼玉県,さいたま市西区,三橋６丁目１４０６番地１,,11,101,3310052,,,,,,,2024-05-31,1,,,,,ヘイアンヤ,0
363,2030001160648,新規,0,2024-05-31,2024-05-31,Ｄｏｕｂｌｅ‐Ｓ株式会社,,株式会社,埼玉県,蕨市,錦町４丁目９番３２号,,11,223,3350005,,,,,,,2024-05-31,1,,,,,ダブルエス,0
369,2030003024405,新規,0,2024-05-31,2024-05-31,ＴＨＡＮＨ　ＴＩＮ合同会社,,合同会社,埼玉県,坂戸市,花影町７番２５号ＫＩＶオフィス花影Ｃ号室,,11,239,3500236,,,,,,,2024-05-31,1,,,,,タンティン,0
370,2030003024413,新規,0,2024-05-31,2024-05-31,合同会社カネボー,,合同会社,埼玉県,さいたま市大宮区,仲町１丁目７８番地３号,,11,103,3300845,,,,,,,2024-05-31,1,,,,,カネボー,0
376,2030005021714,新規,0,2024-05-31,2024-05-31,一般社団法人反差別・グローバル・アライアンス,,その他の設立登記法人,埼玉県,熊谷市,佐谷田３４７８番地１,,11,202,3600023,,,,,,,2024-05-31,1,,,,,ハンサベツグローバルアライアンス,0
384,2040001133768,新規,0,2024-05-31,2024-05-31,株式会社ジンテック,,株式会社,千葉県,佐倉市,田町１２１番地１－１０１３号,,12,212,2850012,,,,,,,2024-05-31,1,,,,,ジンテック,0
385,2040001133818,新規,0,2024-05-31,2024-05-31,株式会社ＹＢＪ,,株式会社,千葉県,いすみ市,深堀１７５１番地２サンフラワー大原８１４号室,,12,238,2980003,,,,,,,2024-05-31,1,,,,,ワイビージェイ,0
394,2050001054848,新規,0,2024-05-31,2024-05-31,株式会社グラッドメイクス,,株式会社,茨城県,ひたちなか市,大字津田３２１１番地１第２柳橋コーポＣ棟１０３号室,,08,221,3120032,,,,,,,2024-05-31,1,,,,,グラッドメイクス,0
395,2050005013453,新規,0,2024-05-31,2024-05-31,社会福祉法人茨城ＹＭＣＡ福祉会,,その他の設立登記法人,茨城県,つくば市,谷田部１５６０番地３,,08,220,3050861,,,,,,,2024-05-31,1,,,,,イバラキワイエムシーエーフクシカイ,0
398,2060001037158,新規,0,2024-05-31,2024-05-31,Ｓａｏｒｉ　Ｅｍｐｌｏｙｍｅｎｔ株式会社,,株式会社,栃木県,栃木市,室町１１番３号,,09,203,3280036,,,,,,,2024-05-31,1,,,,,サオリエンプロイメント,0
401,2070001041803,新規,0,2024-05-31,2024-05-31,株式会社おひるね５,,株式会社,群馬県,前橋市,総社町植野５８１番地２,,10,201,3710851,,,,,,,2024-05-31,1,,,,,オヒルネ,0
405,2090003002561,新規,0,2024-05-31,2024-05-31,合同会社地域の星になれ,,合同会社,山梨県,北都留郡小菅村,２０３５－５,,19,442,4090211,,,,,,,2024-05-31,1,,,,,チイキノホシニナレ,0
413,2120001265371,新規,0,2024-05-31,2024-05-31,株式会社ＳＤＲＥＡＭ,,株式会社,大阪府,大阪市中央区,島之内１丁目１５番１２号グランドシーズ心斎橋東１００１号室,,27,128,5420082,,,,,,,2024-05-31,1,,,,,エスドリーム,0
414,2120001265421,新規,0,2024-05-31,2024-05-31,株式会社ペイフォワード,,株式会社,大阪府,大阪市西成区,千本北１丁目１１番４号,,27,122,5570053,,,,,,,2024-05-31,1,,,,,ペイフォワード,0
415,2120001265462,新規,0,2024-05-31,2024-05-31,株式会社ロカ,,株式会社,大阪府,大阪市淀川区,宮原２丁目７番２９－３０８号,,27,123,5320003,,,,,,,2024-05-31,1,,,,,ロカ,0
416,2120001265487,新規,0,2024-05-31,2024-05-31,株式会社アップタウン,,株式会社,大阪府,大阪市淀川区,木川東４丁目１２－２５－５０２,,27,123,5320012,,,,,,,2024-05-31,1,,,,,アップタウン,0
420,2120003026714,新規,0,2024-05-31,2024-05-31,合同会社Ｉｎｆｉｎｉｔｙ　Ｃｒｅａｔｅ,,合同会社,大阪府,枚方市,牧野阪３丁目１９番１１－２３号,,27,210,5731146,,,,,,,2024-05-31,1,,,,,インフィニティクリエイト,0
422,2120005024336,新規,0,2024-05-31,2024-05-31,一般社団法人舎羅林山産業協会,,その他の設立登記法人,大阪府,大阪市中央区,高麗橋１丁目６番１０号豊田日生北浜ビル３階,,27,128,5410043,,,,,,,2024-05-31,1,,,,,シャラリンザンサンギョウキョウカイ,0
423,2120005024344,新規,0,2024-05-31,2024-05-31,一般社団法人鳳翔会,,その他の設立登記法人,大阪府,大阪市北区,芝田２丁目２番１号ＯＳＡＫＡ・ＵＫ・ＧＡＴＥ４階,,27,127,5300012,,,,,,,2024-05-31,1,,,,,ホウショウカイ,0
424,2120101069672,新規,0,2024-05-31,2024-05-31,ハチ株式会社,,株式会社,大阪府,阪南市,尾崎町２丁目３番２３－３０５号,,27,232,5990201,,,,,,,2024-05-31,1,,,,,ハチ,0
426,2120103005865,新規,0,2024-05-31,2024-05-31,合同会社柊,,合同会社,大阪府,羽曳野市,野々上４丁目３－２０,,27,222,5830871,,,,,,,2024-05-31,1,,,,,ヒイラギ,0
429,2122001038146,新規,0,2024-05-31,2024-05-31,ナゴヤ貿易株式会社,,株式会社,大阪府,八尾市,弓削町南３丁目１７番地弓削マンション２０１号,,27,212,5810034,,,,,,,2024-05-31,1,,,,,ナゴヤボウエキ,0
432,2130001077171,新規,0,2024-05-31,2024-05-31,株式会社Ｔ‐ｓｔｙｌｅ,,株式会社,京都府,京都市南区,上鳥羽高畠町１０４番地,,26,107,6018101,,,,,,,2024-05-31,1,,,,,ティースタイル,0
438,2140001134632,新規,0,2024-05-31,2024-05-31,ヨシオカＨＤ株式会社,,株式会社,兵庫県,豊岡市,日高町東河内８３５番地ロイヤルヴァンベール８０９号室,,28,209,6695373,,,,,,,2024-05-31,1,,,,,ヨシオカエイチディー,0
440,2140003020640,新規,0,2024-05-31,2024-05-31,合同会社中村家＆カンパニー,,合同会社,兵庫県,芦屋市,西山町２２番２４号３０１号,,28,206,6590083,,,,,,,2024-05-31,1,,,,,ナカムラケアンドカンパニー,0
450,2180001161714,新規,0,2024-05-31,2024-05-31,株式会社Ａｂｅｌｉａ,,株式会社,愛知県,名古屋市中区,錦２丁目１３－２８　２階北,,23,106,4600003,,,,,,,2024-05-31,1,,,,,アベリア,0
451,2180001161763,新規,0,2024-05-31,2024-05-31,株式会社ＤＣオフィス,,株式会社,愛知県,稲沢市,稲沢町前田２５２－１,,23,220,4928217,,,,,,,2024-05-31,1,,,,,ディーシーオフィス,0
453,2180003026865,新規,0,2024-05-31,2024-05-31,合同会社ＯＯＫＡＤＯ,,合同会社,愛知県,岩倉市,昭和町３丁目３８番地６,,23,228,4820011,,,,,,,2024-05-31,1,,,,,オオカド,0
460,2200001042556,新規,0,2024-05-31,2024-05-31,株式会社Ｇ・Ｐ・Ｐ,,株式会社,岐阜県,岐阜市,島田１丁目４番１０号,,21,201,5020917,,,,,,,2024-05-31,1,,,,,ジーピーピー,0
463,2200003006360,新規,0,2024-05-31,2024-05-31,合同会社ＫＭＴ　Ｇｌｏｂａｌ,,合同会社,岐阜県,岐阜市,黒野９９番地の１ぐりむ・ぎほく３号室,,21,201,5011131,,,,,,,2024-05-31,1,,,,,ケーエムティグローバル,0
488,2330001032115,新規,0,2024-05-31,2024-05-31,ディープコネクト株式会社,,株式会社,熊本県,熊本市中央区,本山町９５番地３,,43,101,8600822,,,,,,,2024-05-31,1,,,,,ディープコネクト,0
493,2350001018979,新規,0,2024-05-31,2024-05-31,ＨＩＲＯ　ｅｎｔｅｒｐｒｉｓｅ株式会社,,株式会社,宮崎県,宮崎市,下北方町祇園下３９８１番地４サンフローラ５０６号,,45,201,8800035,,,,,,,2024-05-31,1,,,,,ヒロエンタープライズ,0
494,2350001018987,新規,0,2024-05-31,2024-05-31,株式会社ＥＮ,,株式会社,宮崎県,都城市,高崎町大牟田６４３６番地,,45,202,8894505,,,,,,,2024-05-31,1,,,,,イーエヌ,0
497,2370001051342,新規,0,2024-05-31,2024-05-31,栄光電子株式会社,,株式会社,宮城県,仙台市泉区,山の寺３丁目１２番２号,,04,105,9813103,,,,,,,2024-05-31,1,,,,,エイコウデンシ,0
507,2410005006585,新規,0,2024-05-31,2024-05-31,一般社団法人ＲｅＢａＬｅ推進協議会,,その他の設立登記法人,秋田県,南秋田郡五城目町,字上町２２４番地６－１,,05,361,0181705,,,,,,,2024-05-31,1,,,,,レバレスイシンキョウギカイ,0
511,2430001091910,新規,0,2024-05-31,2024-05-31,ＫＫＴファクトリー株式会社,,株式会社,北海道,江別市,東野幌本町７番地の１のっぽろシティハウスＦ棟１３０３号室,,01,217,0690824,,,,,,,2024-05-31,1,,,,,ケイケイティーファクトリー,0
516,2460101007557,新規,0,2024-05-31,2024-05-31,山岸電気工業株式会社,,株式会社,北海道,十勝郡浦幌町,字住吉町６４番地２３,,01,649,0895606,,,,,,,2024-05-31,1,,,,,ヤマギシデンキコウギョウ,0
518,2700150125648,新規,0,2024-05-31,2024-05-31,義烏善格貿易有限公司,,外国会社等,,,,,,,,浙江省義烏市北苑街道春＿二区１２３幢５単元１楼,00134969,,,,,2024-05-31,1,,,,,ギウゼンカクボウエキユウゲンコウシ,0
527,3010001245318,新規,0,2024-05-31,2024-05-31,株式会社カギナラ,,株式会社,東京都,千代田区,神田和泉町１番地６－１６ヤマトビル４０５,,13,101,1010024,,,,,,,2024-05-31,1,,,,,カギナラ,0
528,3010001245367,新規,0,2024-05-31,2024-05-31,Ｐｌｕｔｏ株式会社,,株式会社,東京都,中央区,銀座１丁目２２番１１号銀座大竹ビジデンス２Ｆ,,13,102,1040061,,,,,,,2024-05-31,1,,,,,プルートー,0
529,3010003043884,新規,0,2024-05-31,2024-05-31,ＦＩ合同会社,,合同会社,東京都,中央区,銀座６丁目１３番１６号,,13,102,1040061,,,,,,,2024-05-31,1,,,,,エフアイ,0
535,3010401182821,新規,0,2024-05-31,2024-05-31,株式会社Ｆ２Ｃ,,株式会社,東京都,港区,三田４丁目９番７号,,13,103,1080073,,,,,,,2024-05-31,1,,,,,エフツーシー,0
539,3010405023261,新規,0,2024-05-31,2024-05-31,一般社団法人美容医療推進機構,,その他の設立登記法人,東京都,港区,高輪１丁目３－２プレミストタワー白金高輪１１０５,,13,103,1080074,,,,,,,2024-05-31,1,,,,,ビヨウイリョウスイシンキコウ,0
540,3010405023303,新規,0,2024-05-31,2024-05-31,一般社団法人みんなのピアノ協会,,その他の設立登記法人,東京都,港区,南麻布４丁目１１番１７－１１３号,,13,103,1060047,,,,,,,2024-05-31,1,,,,,ミンナノピアノキョウカイ,0
543,3010501052379,新規,0,2024-05-31,2024-05-31,株式会社ＣｏＵｐ,,株式会社,東京都,台東区,入谷１丁目１８―４コンシェリア東京１２０４号室,,13,106,1100013,,,,,,,2024-05-31,1,,,,,コアップ,0
544,3010503007463,新規,0,2024-05-31,2024-05-31,スター４１５デザイン合同会社,,合同会社,東京都,台東区,北上野１丁目１５‐５‐８０７,,13,106,1100014,,,,,,,2024-05-31,1,,,,,スターヨンイチゴデザイン,0
545,3010601065297,新規,0,2024-05-31,2024-05-31,大倉流通株式会社,,株式会社,東京都,江東区,亀戸５丁目３６番３号,,13,108,1360071,,,,,,,2024-05-31,1,,,,,オオクラリュウツウ,0
550,3010901055394,新規,0,2024-05-31,2024-05-31,Ａｘｙ　Ｍｅｄｉａ　Ｐａｒｔｎｅｒｓ株式会社,,株式会社,東京都,世田谷区,駒沢２丁目７番１－８０９号,,13,112,1540012,,,,,,,2024-05-31,1,,,,,アクシーメディアパートナーズ,0
551,3011001012856,新規,0,2024-05-31,2024-05-31,株式会社ソコロウ,,株式会社,東京都,渋谷区,神宮前６丁目３２番７号,,13,113,1500001,,,,,,,2024-05-31,1,,,,,,0
557,3011001162239,新規,0,2024-05-31,2024-05-31,株式会社ＢＬＯＯＭ．,,株式会社,東京都,目黒区,上目黒１丁目１１－１ＯＡＫＢＬＤＧＩＩ,00134972,13,110,1530051,,,,,,,2024-05-31,1,,,,,ブルーム,0
558,3011001162255,新規,0,2024-05-31,2024-05-31,日本Ｂｒｏｍａｋｅ株式会社,,株式会社,東京都,渋谷区,道玄坂１丁目１２－１渋谷マークシティ（Ｍａｒｋ　Ｃｉｔｙ）,,13,113,1500043,,,,,,,2024-05-31,1,,,,,ニホンブロメイク,0
559,3011001162338,新規,0,2024-05-31,2024-05-31,株式会社Ｚｅｎｎｙ,,株式会社,東京都,渋谷区,道玄坂１丁目２１番１号渋谷ソラスタ３Ｆ,,13,113,1500043,,,,,,,2024-05-31,1,,,,,ゼニー,0
560,3011001162354,新規,0,2024-05-31,2024-05-31,株式会社Ｍｅａｌ　ｍｏｎｓｔｅｒ,,株式会社,東京都,渋谷区,恵比寿４丁目１９番５号,,13,113,1500013,,,,,,,2024-05-31,1,,,,,ミールモンスター,0
561,3011001162362,新規,0,2024-05-31,2024-05-31,株式会社ＥＡＲＴＨ,,株式会社,東京都,渋谷区,道玄坂１丁目１０番８号渋谷道玄坂東急ビル２Ｆ‐Ｃ,,13,113,1500043,,,,,,,2024-05-31,1,,,,,アース,0
569,3011101107498,新規,0,2024-05-31,2024-05-31,株式会社ファッションアグリテック,,株式会社,東京都,新宿区,余丁町８番２－４０７号,,13,104,1620055,,,,,,,2024-05-31,1,,,,,ファッションアグリテック,0
570,3011101107507,新規,0,2024-05-31,2024-05-31,株式会社ＳＴＢ,,株式会社,東京都,新宿区,西新宿５丁目１０番１３－７０４号,,13,104,1600023,,,,,,,2024-05-31,1,,,,,エスティービー,0
572,3011401026142,新規,0,2024-05-31,2024-05-31,株式会社Ｍｙヒストリー,,株式会社,東京都,板橋区,赤塚３丁目１１番１２号,,13,119,1750092,,,,,,,2024-05-31,1,,,,,マイヒストリー,0
574,3011501030746,新規,0,2024-05-31,2024-05-31,株式会社ＡＪコミュニケーションズ,,株式会社,東京都,荒川区,東日暮里２丁目１３番４号グレイスＳ．Ｋ・３Ａ,,13,118,1160014,,,,,,,2024-05-31,1,,,,,エージェーコミュニケーションズ,0
581,3011701027336,新規,0,2024-05-31,2024-05-31,株式会社天翔,,株式会社,東京都,江戸川区,鹿骨４丁目２４番１５号,,13,123,1330073,,,,,,,2024-05-31,1,,,,,テント,0
586,3011801044306,新規,0,2024-05-31,2024-05-31,昊霖装修株式会社,,株式会社,東京都,葛飾区,新小岩３丁目２９番７号,,13,122,1240024,,,,,,,2024-05-31,1,,,,,コウリンソウシュウ,0
588,3012401041924,新規,0,2024-05-31,2024-05-31,株式会社モールハック,,株式会社,東京都,武蔵野市,中町１丁目１４番５号,,13,203,1800006,,,,,,,2024-05-31,1,,,,,モールハック,0
591,3012801023200,新規,0,2024-05-31,2024-05-31,株式会社和,,株式会社,東京都,立川市,曙町２丁目２番２２号プラウドタワー立川２６０５号室,,13,202,1900012,,,,,,,2024-05-31,1,,,,,ヤマト,0
592,3012801023209,新規,0,2024-05-31,2024-05-31,Ａｌｐｈａ　Ｒｏｂｏｔｉｃｓ株式会社,,株式会社,東京都,立川市,曙町１丁目１２番２０号コキアビル６Ａ,,13,202,1900012,,,,,,,2024-05-31,1,,,,,アルファロボティクス,0
595,3013301052607,新規,0,2024-05-31,2024-05-31,株式会社シアクル,,株式会社,東京都,豊島区,南大塚２丁目３２番１０号レヴリファイズマナ９０２号,,13,116,1700005,,,,,,,2024-05-31,1,,,,,シアクル,0
600,3020001157504,新規,0,2024-05-31,2024-05-31,デジ大株式会社,,株式会社,神奈川県,横浜市西区,宮ケ谷４２－１－２０１,,14,103,2200006,,,,,,,2024-05-31,1,,,,,デジダイ,0
610,3030001160606,新規,0,2024-05-31,2024-05-31,株式会社プラムス,,株式会社,埼玉県,さいたま市中央区,下落合３丁目２番１号,,11,105,3380002,,,,,,,2024-05-31,1,,,,,プラムス,0
611,3030001160639,新規,0,2024-05-31,2024-05-31,株式会社前田商店,,株式会社,埼玉県,川口市,西川口１丁目３３番４号,,11,203,3320021,,,,,,,2024-05-31,1,,,,,マエダショウテン,0
612,3030001160647,新規,0,2024-05-31,2024-05-31,株式会社ＯＲＣＡＲＴＩＳＡＮ,,株式会社,埼玉県,さいたま市北区,吉野町１丁目４１１番地９,,11,102,3310811,,,,,,,2024-05-31,1,,,,,オルカルティザン,0
621,3030003024412,新規,0,2024-05-31,2024-05-31,ＳＶＷ合同会社,,合同会社,埼玉県,蕨市,中央１丁目７番１号シティタワー蕨１５０１,,11,223,3350004,,,,,,,2024-05-31,1,,,,,エスブイダブリュー,0
643,3050001054839,新規,0,2024-05-31,2024-05-31,株式会社日本カーボンプライシング支援機構,,株式会社,茨城県,つくば市,二の宮３丁目７番地５,,08,220,3050051,,,,,,,2024-05-31,1,,,,,ニホンカーボンプライシングシエンキコウ,0
644,3050005013452,新規,0,2024-05-31,2024-05-31,農事組合法人須田農園,,その他の設立登記法人,茨城県,つくば市,大形１３０３番地４,,08,220,3004221,,,,,,,2024-05-31,1,,,,,スダノウエン,0
646,3060001037157,新規,0,2024-05-31,2024-05-31,株式会社Ｌａｕｇｈ　Ａｎｄ　Ｔｅｅｔｈ,,株式会社,栃木県,宇都宮市,西２丁目１番１１号,,09,201,3200861,,,,,,,2024-05-31,1,,,,,ラフアンドティース,0
652,3080101024771,新規,0,2024-05-31,2024-05-31,株式会社大我,,株式会社,静岡県,熱海市,西山町４２番１１号,,22,205,4130034,,,,,,,2024-05-31,1,,,,,タイガ,0
671,3120001265387,新規,0,2024-05-31,2024-05-31,株式会社チーエンス,,株式会社,大阪府,大阪市西区,西本町２丁目１番８－１２０１号,,27,106,5500005,,,,,,,2024-05-31,1,,,,,チーエンス,0
672,3120001265404,新規,0,2024-05-31,2024-05-31,正新株式会社,,株式会社,大阪府,大阪市生野区,新今里５丁目７番６－４０５号,,27,116,5440001,,,,,,,2024-05-31,1,,,,,セイシン,0
673,3120001265420,新規,0,2024-05-31,2024-05-31,Ｅｘｅ　ｈｏｍｅ株式会社,,株式会社,大阪府,大阪市西区,新町１丁目１３番１７号,,27,106,5500013,,,,,,,2024-05-31,1,,,,,エグゼホーム,0
674,3120001265437,新規,0,2024-05-31,2024-05-31,株式会社Ｇｏｌｆｉｓｍ,,株式会社,大阪府,大阪市北区,梅田１丁目３番１号大阪駅前第１ビル８Ｆ,,27,127,5300001,,,,,,,2024-05-31,1,,,,,ゴルフィズム,0
675,3120001265478,新規,0,2024-05-31,2024-05-31,２Ｕ株式会社,,株式会社,大阪府,大阪市浪速区,稲荷１丁目１１番１３号２Ａ,,27,111,5560023,,,,,,,2024-05-31,1,,,,,ニーユー,0
676,3120001265486,新規,0,2024-05-31,2024-05-31,株式会社ＱＰ,,株式会社,大阪府,大阪市淀川区,西中島３丁目１８番２１ＮＬＣ新大阪１８号館３－Ｇ,,27,123,5320011,,,,,,,2024-05-31,1,,,,,キューピー,0
677,3120001265503,新規,0,2024-05-31,2024-05-31,ＡＬＯＨＡ　ＬＩＮＥ株式会社,,株式会社,大阪府,大阪市西区,九条２丁目２９番１５－３０８号,,27,106,5500027,,,,,,,2024-05-31,1,,,,,アロハライン,0
684,3120003026622,新規,0,2024-05-31,2024-05-31,合同会社Ｋ企画,,合同会社,大阪府,大阪市西区,南堀江２丁目５‐３‐１１０９,,27,106,5500015,,,,,,,2024-05-31,1,,,,,ケーキカク,0
685,3120101069671,新規,0,2024-05-31,2024-05-31,株式会社仁武ファンファクトリー,,株式会社,大阪府,松原市,三宅中１丁目２番８号,,27,217,5800046,,,,,,,2024-05-31,1,,,,,ジンムファンファクトリー,0
686,3120103005864,新規,0,2024-05-31,2024-05-31,和気合同会社,,合同会社,大阪府,和泉市,和気町１丁目１０番１６号,,27,219,5940073,,,,,,,2024-05-31,1,,,,,ワケ,0
691,3120905006614,新規,0,2024-05-31,2024-05-31,特定非営利活動法人ＧｌｏｉｒｅＯｓａｋａ,,その他の設立登記法人,大阪府,茨木市,西田中町８番３１号,,27,211,5670027,,,,,,,2024-05-31,1,,,,,グロワールオオサカ,0
692,3122003002900,新規,0,2024-05-31,2024-05-31,７２ＥＮＴＥＲＴＡＩＮＭＥＮＴ合同会社,,合同会社,大阪府,東大阪市,花園東町１丁目３番５号,,27,227,5780931,,,,,,,2024-05-31,1,,,,,セブンツーエンターテインメント,0
695,3130001077170,新規,0,2024-05-31,2024-05-31,株式会社七福神,,株式会社,京都府,京都市南区,上鳥羽高畠町１０４番地,,26,107,6018101,,,,,,,2024-05-31,1,,,,,シチフクジン,0
698,3130005017107,新規,0,2024-05-31,2024-05-31,一般社団法人ＺＥＲＯ　ｌｏｎｅｌｉｎｅｓｓ,,その他の設立登記法人,京都府,京都市左京区,吉田橘町３２番地ｔｏｂｅｒｕ１,,26,103,6068303,,,,,,,2024-05-31,1,,,,,ゼロロンリネス,0
700,3140001134607,新規,0,2024-05-31,2024-05-31,賢天株式会社,,株式会社,兵庫県,明石市,魚住町西岡１１番地の４,,28,203,6740084,,,,,,,2024-05-31,1,,,,,ケンテン,0
701,3140001134615,新規,0,2024-05-31,2024-05-31,ＡＪＩＳＡＩ　ＪＡＰＡＮ株式会社,,株式会社,兵庫県,神戸市中央区,磯上通８丁目１番２９号カサベラビルＣ＆Ｍ４０３号室,,28,110,6510086,,,,,,,2024-05-31,1,,,,,アジサイジャパン,0
704,3150001027314,新規,0,2024-05-31,2024-05-31,株式会社ＨＲオペレーションズ,,株式会社,奈良県,生駒市,辻町３９９番地３６ガーデンハイツ１５－３０２,00134975,29,209,6300212,,,,,,,2024-05-31,1,,,,,エイチアールオペレーションズ,0
705,3150003003271,新規,0,2024-05-31,2024-05-31,オーリーラボ合同会社,,合同会社,奈良県,高市郡明日香村,大字野口３３０番地,,29,402,6340145,,,,,,,2024-05-31,1,,,,,オーリーラボ,0
710,3180001161713,新規,0,2024-05-31,2024-05-31,株式会社ｋｎｏｗｌｅｄｇｅ,,株式会社,愛知県,名古屋市中区,栄１丁目２０７番８号チサンマンション錦第２　４０６号,,23,106,4600008,,,,,,,2024-05-31,1,,,,,ナレッジ,0
711,3180001161738,新規,0,2024-05-31,2024-05-31,株式会社Ｓｔａｎｄ　ｂｙ　ｍｅ,,株式会社,愛知県,春日井市,高蔵寺町４丁目１３番地７－１Ａ,,23,206,4870013,,,,,,,2024-05-31,1,,,,,スタンドバイミー,0
713,3180003026864,新規,0,2024-05-31,2024-05-31,あゆみ建総合同会社,,合同会社,愛知県,名古屋市北区,山田４丁目１２番３３号,,23,103,4620810,,,,,,,2024-05-31,1,,,,,アユミケンソウ,0
720,3220001026003,新規,0,2024-05-31,2024-05-31,大洋繊維工業株式会社,,株式会社,石川県,加賀市,大聖寺観音町１０番地,,17,206,9220046,,,,,,,2024-05-31,1,,,,,タイヨウセンイコウギョウ,0
730,3260003004779,新規,0,2024-05-31,2024-05-31,合同会社ポケット,,合同会社,岡山県,岡山市北区,中仙道２丁目８番２２号,,33,101,7000964,,,,,,,2024-05-31,1,,,,,ポケット,0
751,3350001018978,新規,0,2024-05-31,2024-05-31,株式会社ａｄｖａｎｃｅ,,株式会社,宮崎県,宮崎市,堀川町２６番地４,,45,201,8800873,,,,,,,2024-05-31,1,,,,,アドバンス,0
770,3430003016393,新規,0,2024-05-31,2024-05-31,合同会社古家再生,,合同会社,北海道,札幌市南区,藤野６８５番地７,,01,106,0612271,,,,,,,2024-05-31,1,,,,,フルイエサイセイ,0
775,3450005004411,新規,0,2024-05-31,2024-05-31,特定非営利活動法人森のたね,,その他の設立登記法人,北海道,空知郡中富良野町,字中富良野基線北十四号,,01,461,0710704,,,,,,,2024-05-31,1,,,,,,0
776,3460001005908,新規,0,2024-05-31,2024-05-31,株式会社きらら不動産,,株式会社,北海道,釧路市,入江町１２番１９号,,01,206,0850008,,,,,,,2024-05-31,1,,,,,キララフドウサン,0
780,3480001012489,新規,0,2024-05-31,2024-05-31,株式会社ＹＡＮＯ,,株式会社,徳島県,徳島市,川内町榎瀬８０６番地１１,,36,201,7710144,,,,,,,2024-05-31,1,,,,,ヤノ,0
783,3700150070884,新規,0,2024-05-31,2016-02-17,三善自治会,,その他,愛媛県,大洲市,春賀甲９５０番地２,,38,207,7950046,,,,,,,2016-02-17,1,,,,,ミヨシジチカイ,0
785,3700150120524,新規,0,2024-05-31,2024-05-31,深セン市獅狼科技有限公司,,外国会社等,,,,,,,,２０８，Ｂｕｉｌｄｉｎｇ　１０，Ｊｉｕｘｉａｎｇｌｉｎｇ　Ｉｎｄｕｓｔｒｉａｌ　Ｚｏｎｅ，Ｙａｎｈｅ　Ｒｏａｄ，Ｘｉｌｉ　Ｓｔｒｅｅｔ，Ｎａｎｓｈａｎ　Ｄｉｓｔｒｉｃｔ，Ｓｈｅｎｚｈｅｎ，Ｃｈｉｎａ,,,,,,2024-05-31,1,,,,,シンセンシシロウテクノロジーユウゲンガイシャ,0
788,4010001245184,新規,0,2024-05-31,2024-05-31,玩伴科技株式会社,,株式会社,東京都,千代田区,六番町１５番地２号,,13,101,1020085,,,,,,,2024-05-31,1,,,,,ガンバンカギ,0
789,4010001245250,新規,0,2024-05-31,2024-05-31,グランドビューティー株式会社,,株式会社,東京都,中央区,銀座４丁目８番２号三福ビル,,13,102,1040061,,,,,,,2024-05-31,1,,,,,グランドビューティー,0
790,4010001245259,新規,0,2024-05-31,2024-05-31,株式会社リア・ユー,,株式会社,東京都,中央区,銀座１丁目１２番４号Ｎ＆ＥＢＬＤ．６Ｆ,,13,102,1040061,,,,,,,2024-05-31,1,,,,,リアユー,0
791,4010001245333,新規,0,2024-05-31,2024-05-31,ＭｕｃｈＡｐｐ株式会社,,株式会社,東京都,千代田区,外神田６丁目５番１１号,,13,101,1010021,,,,,,,2024-05-31,1,,,,,マッチアップ,0
794,4010005038329,新規,0,2024-05-31,2024-05-31,一般社団法人移動式あそび場全国ネットワーク,,その他の設立登記法人,東京都,千代田区,神田美土代町３－４ニュー楓ビル１階,,13,101,1010053,,,,,,,2024-05-31,1,,,,,イドウシキアソビバゼンコクネットワーク,0
795,4010005038337,新規,0,2024-05-31,2024-05-31,特定非営利活動法人ポラリス,,その他の設立登記法人,東京都,千代田区,九段南１丁目５番６号りそな九段５階,,13,101,1020074,,,,,,,2024-05-31,1,,,,,ポラリス,0
796,4010103002368,新規,0,2024-05-31,2024-05-31,合同会社アルビオン,,合同会社,東京都,八王子市,寺町３８番地４,,13,201,1920073,,,,,,,2024-05-31,1,,,,,アルビオン,0
799,4010401182804,新規,0,2024-05-31,2024-05-31,株式会社ＬＩＮＩＣＡ,,株式会社,東京都,港区,南青山４丁目１５番５号,,13,103,1070062,,,,,,,2024-05-31,1,,,,,リニカ,0
810,4010701046064,新規,0,2024-05-31,2024-05-31,株式会社クァントロ,,株式会社,東京都,品川区,上大崎２丁目２３番７－６５０号,,13,109,1410021,,,,,,,2024-05-31,1,,,,,クァントロ,0
812,4010901055369,新規,0,2024-05-31,2024-05-31,株式会社ｈａｋ‐ｉ,,株式会社,東京都,世田谷区,東玉川２丁目３３番１５号,,13,112,1580084,,,,,,,2024-05-31,1,,,,,ハクアイ,0
813,4010901055393,新規,0,2024-05-31,2024-05-31,株式会社ｄａｄａｍ,,株式会社,東京都,世田谷区,駒沢２丁目４３－２０カリラ駒沢２０２,,13,112,1540012,,,,,,,2024-05-31,1,,,,,ダダム,0
821,4011001162254,新規,0,2024-05-31,2024-05-31,株式会社Ｓａｌｅｓ　Ｇａｔｅ,,株式会社,東京都,渋谷区,恵比寿西２丁目４番８号ウィンド恵比寿ビル８Ｆ,,13,113,1500021,,,,,,,2024-05-31,1,,,,,セールスゲート,0
822,4011001162320,新規,0,2024-05-31,2024-05-31,Ｍ＆Ａテクノマージコンサルティング株式会社,,株式会社,東京都,渋谷区,桜丘町２２番１４号Ｎ．Ｅ．Ｓ．ビルＳ棟Ｂ３Ｆ,,13,113,1500031,,,,,,,2024-05-31,1,,,,,エムアンドエーテクノマージコンサルティング,0
823,4011001162329,新規,0,2024-05-31,2024-05-31,コパード株式会社,,株式会社,東京都,渋谷区,恵比寿１丁目１９番１９号恵比寿ビジネスタワー１２階,,13,113,1500013,,,,,,,2024-05-31,1,,,,,コパード,0
824,4011001162353,新規,0,2024-05-31,2024-05-31,株式会社ＳＹＯ,,株式会社,東京都,目黒区,下目黒２丁目２２番１１号トレステージ目黒６０２,,13,110,1530064,,,,,,,2024-05-31,1,,,,,エスワイオー,0
825,4011001162394,新規,0,2024-05-31,2024-05-31,株式会社ティアルト,,株式会社,東京都,渋谷区,元代々木町２２番７号村世界１Ｆ,,13,113,1510062,,,,,,,2024-05-31,1,,,,,ティアルト,0
827,4011003019270,新規,0,2024-05-31,2024-05-31,Ｚｅｐｈｙｒ　Ｔｒａｄｉｎｇ合同会社,,合同会社,東京都,渋谷区,桜丘町７番３号ベラコート渋谷２０３,,13,113,1500031,,,,,,,2024-05-31,1,,,,,ゼファートレーディング,0
828,4011003019279,新規,0,2024-05-31,2024-05-31,合同会社Ｏ,,合同会社,東京都,渋谷区,道玄坂１丁目１０番８号渋谷道玄坂東急ビル２Ｆ－Ｃ,,13,113,1500043,,,,,,,2024-05-31,1,,,,,,0
831,4011101107506,新規,0,2024-05-31,2024-05-31,ＴＣＤＳ株式会社,,株式会社,東京都,新宿区,百人町１丁目１８番８号大久保カドビルＬｉｎｋＳｐａｃｅ百人町Ｃ０１,,13,104,1690073,,,,,,,2024-05-31,1,,,,,ティーシーディーエス,0
838,4011401026100,新規,0,2024-05-31,2024-05-31,麗虎株式会社,,株式会社,東京都,板橋区,徳丸１丁目１７番２号ＸＯ財託第三ビル３０６号室,,13,119,1750083,,,,,,,2024-05-31,1,,,,,,0
839,4011403004401,新規,0,2024-05-31,2024-05-31,合同会社ＯＮＥ　ＭＯＶＩＥ,,合同会社,東京都,板橋区,東新町１丁目５２番１０号プロヌーブときわ台２０１,,13,119,1740074,,,,,,,2024-05-31,1,,,,,ワンムービー,0
840,4011501030737,新規,0,2024-05-31,2024-05-31,株式会社オーグマー,,株式会社,東京都,北区,東十条１丁目１０番１５号,,13,117,1140001,,,,,,,2024-05-31,1,,,,,オーグマー,0
841,4011501030745,新規,0,2024-05-31,2024-05-31,株式会社リエイド,,株式会社,東京都,北区,赤羽１丁目５９－９ネスト赤羽Ｅ５,,13,117,1150045,,,,,,,2024-05-31,1,,,,,リエイド,0
842,4011501030753,新規,0,2024-05-31,2024-05-31,ＴｅｌｅＡＩ株式会社,,株式会社,東京都,北区,豊島７丁目２０番１３号３０６室,,13,117,1140003,,,,,,,2024-05-31,1,,,,,ティレエイアイ,0
846,4011703003854,新規,0,2024-05-31,2024-05-31,インターナショナル東京トレード合同会社,,合同会社,東京都,江戸川区,新堀２丁目２５番１号,,13,123,1320001,,,,,,,2024-05-31,1,,,,,インターナショナルトウキョウトレード,0
848,4011801044305,新規,0,2024-05-31,2024-05-31,ＰＨＵＬＣＨＯＷＫＩ株式会社,,株式会社,東京都,足立区,東和５丁目１０番９－４０４号,,13,121,1200003,,,,,,,2024-05-31,1,,,,,プルチョウキ,0
849,4011801044313,新規,0,2024-05-31,2024-05-31,株式会社ｔｈｏｕｇｈｔ,,株式会社,東京都,足立区,入谷２丁目２番１１号,,13,121,1210836,,,,,,,2024-05-31,1,,,,,ソート,0
853,4012801023216,新規,0,2024-05-31,2024-05-31,株式会社ＧＴＯ‐ＹＥ,,株式会社,東京都,昭島市,松原町１丁目１番２０－３１７号,,13,207,1960003,,,,,,,2024-05-31,1,,,,,ジーティーオーワイイー,0
855,4012803003414,新規,0,2024-05-31,2024-05-31,ロブチェ合同会社,,合同会社,東京都,国分寺市,本多３丁目８番１１号メゾン奏２０１,,13,214,1850011,,,,,,,2024-05-31,1,,,,,ロブチェ,0
858,4013301052606,新規,0,2024-05-31,2024-05-31,株式会社ｍｏｎｏ研,,株式会社,東京都,豊島区,東池袋１丁目３４番５号いちご東池袋ビル６階,,13,116,1700013,,,,,,,2024-05-31,1,,,,,モノケン,0
859,4013303007153,新規,0,2024-05-31,2024-05-31,合同会社ＡＵＮＧ　ＭＹＩＮ,,合同会社,東京都,豊島区,南大塚２丁目１５番６号Ｂ１金文字ビル,,13,116,1700005,,,,,,,2024-05-31,1,,,,,アウンミイン,0
860,4013303007161,新規,0,2024-05-31,2024-05-31,合同会社キックス,,合同会社,東京都,豊島区,東池袋３丁目１番４－１１３０号,,13,116,1700013,,,,,,,2024-05-31,1,,,,,キックス,0
870,4020001157222,新規,0,2024-05-31,2024-05-31,株式会社Ｒｅｚｏｎ,,株式会社,神奈川県,川崎市多摩区,西生田５丁目１８番６号,,14,135,2140037,,,,,,,2024-05-31,1,,,,,レゾン,0
871,4020001157420,新規,0,2024-05-31,2024-05-31,株式会社ハコハコ,,株式会社,神奈川県,川崎市川崎区,渡田２丁目４番４号,,14,131,2100837,,,,,,,2024-05-31,1,,,,,ハコハコ,0
872,4020001157494,新規,0,2024-05-31,2024-05-31,ＭＭ国際貿易株式会社,,株式会社,神奈川県,横浜市神奈川区,台町１１番地２６ライオンズマンション台町２０６号室,,14,102,2210834,,,,,,,2024-05-31,1,,,,,エムエムコクサイボウエキ,0
873,4020003026219,新規,0,2024-05-31,2024-05-31,合同会社２ｎｄ　Ｄｏｏｒ,,合同会社,神奈川県,川崎市麻生区,はるひ野５丁目２８－４ＳＵＮ２０８,,14,137,2150036,,,,,,,2024-05-31,1,,,,,セカンドドア,0
880,4030001160605,新規,0,2024-05-31,2024-05-31,株式会社パブコム,,株式会社,埼玉県,所沢市,青葉台１３０１番地の５,,11,208,3591105,,,,,,,2024-05-31,1,,,,,パブコム,0
881,4030001160638,新規,0,2024-05-31,2024-05-31,芳伊貿易株式会社,,株式会社,埼玉県,所沢市,大字神米金３５８番地の１５郊外マンション新所沢団地Ｊ棟５０５,,11,208,3590005,,,,,,,2024-05-31,1,,,,,ホウイボウエキ,0
882,4030001160654,新規,0,2024-05-31,2024-05-31,株式会社ケイツーネット,,株式会社,埼玉県,川口市,大字安行藤八４６番地の１３６,,11,203,3340051,,,,,,,2024-05-31,1,,,,,ケイツーネット,0
896,4040001133808,新規,0,2024-05-31,2024-05-31,株式会社エヌセオリー,,株式会社,千葉県,木更津市,ほたる野１丁目９番８,,12,206,2920038,,,,,,,2024-05-31,1,,,,,エヌセオリー,0
897,4040001133816,新規,0,2024-05-31,2024-05-31,株式会社Ｘｃｈａｒｇｅ,,株式会社,千葉県,柏市,増尾１丁目１９番６号,,12,217,2770033,,,,,,,2024-05-31,1,,,,,エクスチャージ,0
898,4040001133840,新規,0,2024-05-31,2024-05-31,株式会社ＨＡＬＥＬＥＡ,,株式会社,千葉県,富里市,七栄６５４番地８４０,,12,233,2860221,,,,,,,2024-05-31,1,,,,,ハレレア,0
902,4060001037148,新規,0,2024-05-31,2024-05-31,ＣｏｃｏｒｏＷｏｒｋｅｒｓ株式会社,,株式会社,栃木県,真岡市,久下田１１４０番地８,,09,209,3214521,,,,,,,2024-05-31,1,,,,,ココロワーカーズ,0
916,4090003002576,新規,0,2024-05-31,2024-05-31,合同会社ミートトップ,,合同会社,山梨県,北杜市,須玉町若神子新町１１１番地,,19,209,4080117,,,,,,,2024-05-31,1,,,,,ミートトップ,0
922,4120001264751,新規,0,2024-05-31,2024-05-31,翡翠鳳凰株式会社,,株式会社,大阪府,大阪市都島区,都島北通１丁目１番４－４０４号,,27,102,5340014,,,,,,,2024-05-31,1,,,,,ヒスイホウオウ,0
923,4120001264883,新規,0,2024-05-31,2024-05-31,株式会社ＳＯＧＡ,,株式会社,大阪府,守口市,外島町１番５号,,27,209,5700096,,,,,,,2024-05-31,1,,,,,ソガ,0
924,4120001265444,新規,0,2024-05-31,2024-05-31,株式会社Ｃｌｏｖｅｒ,,株式会社,大阪府,大阪市生野区,中川６丁目１番６号,,27,116,5440005,,,,,,,2024-05-31,1,,,,,クローバー,0
925,4120001265477,新規,0,2024-05-31,2024-05-31,株式会社ＳＨＯＮＡＮホールディングス,,株式会社,大阪府,門真市,新橋町１７番８号,,27,223,5710048,,,,,,,2024-05-31,1,,,,,ショーナンホールディングス,0
926,4120001265493,新規,0,2024-05-31,2024-05-31,株式会社ＫＡＨＵＡ,,株式会社,大阪府,大阪市住吉区,長居東３丁目１３番３１号アメニティ長居公園２０２号室,,27,120,5580004,,,,,,,2024-05-31,1,,,,,カフア,0
928,4120003026737,新規,0,2024-05-31,2024-05-31,昌昊合同会社,,合同会社,大阪府,大阪市中央区,高津２丁目６番１０－５０８号,,27,128,5420072,,,,,,,2024-05-31,1,,,,,ショウコウ,0
930,4120101069687,新規,0,2024-05-31,2024-05-31,株式会社松田建築設計事務所,,株式会社,大阪府,堺市中区,楢葉１７０番地,,27,142,5998252,,,,,,,2024-05-31,1,,,,,マツダケンチクセッケイジムショ,0
932,4120901049252,新規,0,2024-05-31,2024-05-31,ＳＥＡ株式会社,,株式会社,大阪府,豊中市,利倉２丁目７番３号,,27,203,5610845,,,,,,,2024-05-31,1,,,,,シー,0
940,4130001077161,新規,0,2024-05-31,2024-05-31,株式会社ＡＴデザイン,,株式会社,京都府,宇治市,広野町尖山２番地の１８４,,26,204,6110031,,,,,,,2024-05-31,1,,,,,エーティデザイン,0
941,4140001134622,新規,0,2024-05-31,2024-05-31,株式会社須磨住宅,,株式会社,兵庫県,神戸市須磨区,寺田町２丁目１番１４号,,28,107,6540025,,,,,,,2024-05-31,1,,,,,スマジュウタク,0
953,4180003026863,新規,0,2024-05-31,2024-05-31,合同会社天伸,,合同会社,愛知県,名古屋市瑞穂区,中根町２丁目６５番地ボックスツリー２０２号,,23,108,4670055,,,,,,,2024-05-31,1,,,,,テンシン,0
963,4230001020375,新規,0,2024-05-31,2024-05-31,株式会社長津重機,,株式会社,富山県,富山市,東老田１２３３番地２,,16,201,9300161,,,,,,,2024-05-31,1,,,,,ナガツジュウキ,0
980,4330001032113,新規,0,2024-05-31,2024-05-31,株式会社Ｆｅｗ　ｅｌｉｔｅ’ｓ,,株式会社,熊本県,熊本市西区,小島８丁目８－２,,43,103,8615287,,,,,,,2024-05-31,1,,,,,フュエリーズ,0
982,4330003010397,新規,0,2024-05-31,2024-05-31,合同会社Ｐｉｌｉｎａ,,合同会社,熊本県,熊本市北区,弓削４丁目１番６６号,,43,105,8618002,,,,,,,2024-05-31,1,,,,,ピリナ,0
983,4340001026543,新規,0,2024-05-31,2024-05-31,株式会社かなみ,,株式会社,鹿児島県,大島郡徳之島町,轟木１１３５番地２,,46,530,8917424,,,,,,,2024-05-31,1,,,,,カナミ,0
984,4350001018985,新規,0,2024-05-31,2024-05-31,株式会社三協クレーン,,株式会社,宮崎県,宮崎市,佐土原町下田島１１８８４番地１８,,45,201,8800211,,,,,,,2024-05-31,1,,,,,サンキョウクレーン,0
995,4390001017620,新規,0,2024-05-31,2024-05-31,株式会社ｋａｇａｒｉｔｏ,,株式会社,山形県,山形市,あこや町２丁目１１－１１－２０２,,06,201,9900025,,,,,,,2024-05-31,1,,,,,カガリト,0
996,4390003002249,新規,0,2024-05-31,2024-05-31,合同会社はるポコ,,合同会社,山形県,山形市,七日町２丁目１番３号プラザビル七日町Ａブース,,06,201,9900042,,,,,,,2024-05-31,1,,,,,ハルポコ,0
1002,4410003003938,新規,0,2024-05-31,2024-05-31,フラワーコラボ合同会社,,合同会社,秋田県,秋田市,保戸野原の町５番５号パラッツオ保戸野１０２,,05,201,0100904,,,,,,,2024-05-31,1,,,,,フラワーコラボ,0
1008,4430003016376,新規,0,2024-05-31,2024-05-31,Ｓｎｏｗ　Ｔｉｇｅｒ合同会社,,合同会社,北海道,虻田郡倶知安町,北一条西１丁目１番地１山崎ビル３階,,01,400,0440051,,,,,,,2024-05-31,1,,,,,スノータイガー,0
1009,4430003016392,新規,0,2024-05-31,2024-05-31,合同会社ＳｕｚｕＬａｂｏ,,合同会社,北海道,札幌市西区,八軒二条東３丁目２番２８号八軒一二三荘１０２号,,01,107,0630862,,,,,,,2024-05-31,1,,,,,スズラボ,0
1011,4460001005907,新規,0,2024-05-31,2024-05-31,株式会社リバー・ヴィレッジ,,株式会社,北海道,釧路市,富士見１丁目１番１７号,,01,206,0850832,,,,,,,2024-05-31,1,,,,,リバーヴィレッジ,0
1014,4700150125712,新規,0,2024-05-31,2024-05-31,ＵＮＩＯＮ　ＥＮＴＥＲＰＲＩＳＥＳ,,外国会社等,千葉県,山武郡横芝光町,小堤５６番地３オフィス１号,,12,410,2891745,スリランカ民主社会主義共和国、エンビリピティヤ、メインストリート、Ｎｏ．１１,,,,,,2024-05-31,1,,,,,ユニオンエンタープライズ,0
1023,5010001245126,新規,0,2024-05-31,2024-05-31,株式会社Ｙ．Ｋ．Ｒ,,株式会社,東京都,中央区,日本橋浜町２丁目１３番９号,,13,102,1030007,,,,,,,2024-05-31,1,,,,,ワイケーアール,0
1024,5010001245324,新規,0,2024-05-31,2024-05-31,株式会社夏木,,株式会社,東京都,中央区,銀座８丁目６番５号ジーエスエイトビルディング５階,,13,102,1040061,,,,,,,2024-05-31,1,,,,,ナツキ,0
1025,5010001245365,新規,0,2024-05-31,2024-05-31,ジャパンインベストメント株式会社,,株式会社,東京都,中央区,新川２丁目１０－１－１２０９,,13,102,1040033,,,,,,,2024-05-31,1,,,,,ジャパンインベストメント,0
1028,5010003043882,新規,0,2024-05-31,2024-05-31,Ｋ．Ｙ．ファイナンスサービス合同会社,,合同会社,東京都,千代田区,神田和泉町１番地６－１６ヤマトビル４０５,,13,101,1010024,,,,,,,2024-05-31,1,,,,,ケイワイファイナンスサービス,0
1029,5010103002367,新規,0,2024-05-31,2024-05-31,合同会社フィールドスター,,合同会社,東京都,八王子市,長沼町１３４番地３００マ・メゾン長沼１０１号,,13,201,1920907,,,,,,,2024-05-31,1,,,,,,0
1033,5010401182803,新規,0,2024-05-31,2024-05-31,株式会社ｍａｒｂｌｅ,,株式会社,東京都,港区,南青山５丁目３番２２号ブルーサンクポイントＡ３０２号室,,13,103,1070062,,,,,,,2024-05-31,1,,,,,マーブル,0
1034,5010403032725,新規,0,2024-05-31,2024-05-31,合同会社ＩＴ　Ｂｒｉｄｇｅ　Ｐａｒｔｎｅｒｓ,,合同会社,東京都,港区,南青山３丁目１番３６号青山丸竹ビル６Ｆ,,13,103,1070062,,,,,,,2024-05-31,1,,,,,アイティーブリッジパートナーズ,0
1046,5010601065295,新規,0,2024-05-31,2024-05-31,志陽株式会社,,株式会社,東京都,江東区,佐賀１丁目１６番３号２階Ａ号室,,13,108,1350031,,,,,,,2024-05-31,1,,,,,シヨウ,0
1047,5010803004968,新規,0,2024-05-31,2024-05-31,合同会社ＹＡコンサルティング,,合同会社,東京都,大田区,中央８丁目２７番７号,,13,111,1430024,,,,,,,2024-05-31,1,,,,,ワイエイコンサルティング,0
1049,5010901055384,新規,0,2024-05-31,2024-05-31,株式会社アクト,,株式会社,東京都,世田谷区,太子堂１丁目１０番３号,,13,112,1540004,,,,,,,2024-05-31,1,,,,,アクト,0
1057,5011001162245,新規,0,2024-05-31,2024-05-31,株式会社Ｓｐｏｔｌｉｇｈｔ,,株式会社,東京都,渋谷区,渋谷２丁目１９－１５宮益坂ビルディング６０９,,13,113,1500002,,,,,,,2024-05-31,1,,,,,スポットライト,0
1058,5011001162336,新規,0,2024-05-31,2024-05-31,ダンクス株式会社,,株式会社,東京都,渋谷区,神泉町１０番１５号アネックス神泉３０１,,13,113,1500045,,,,,,,2024-05-31,1,,,,,ダンクス,0
1059,5011001162344,新規,0,2024-05-31,2024-05-31,株式会社ゴリラシステムズ,,株式会社,東京都,渋谷区,恵比寿西２丁目８番４号ＥＸ恵比寿西ビル５階,,13,113,1500021,,,,,,,2024-05-31,1,,,,,ゴリラシステムズ,0
1060,5011001162352,新規,0,2024-05-31,2024-05-31,株式会社ヴェルダント,,株式会社,東京都,目黒区,碑文谷６丁目５番７号,,13,110,1520003,,,,,,,2024-05-31,1,,,,,ヴェルダント,0
1061,5011001162369,新規,0,2024-05-31,2024-05-31,株式会社ｄｅｒｓｃｈｕｔｚｅ,,株式会社,東京都,渋谷区,神宮前６丁目２３番４号桑野ビル２階,,13,113,1500001,,,,,,,2024-05-31,1,,,,,デルシュッツ,0
1062,5011001162402,新規,0,2024-05-31,2024-05-31,ＷＩＳＫジャパン株式会社,,株式会社,東京都,渋谷区,恵比寿南１丁目１番１号ヒューマックス恵比寿ビル８階,,13,113,1500022,,,,,,,2024-05-31,1,,,,,ウィスクジャパン,0
1066,5011005010540,新規,0,2024-05-31,2024-05-31,一般社団法人Ｄｅｌｔａ　Ｃｏｍｐａｓｓ,,その他の設立登記法人,東京都,目黒区,原町２丁目１番４号,,13,110,1520011,,,,,,,2024-05-31,1,,,,,デルタコンパス,0
1072,5011101107505,新規,0,2024-05-31,2024-05-31,株式会社ＹＡＭＯ,,株式会社,東京都,新宿区,高田馬場１丁目２８－１０バンフォーレ三慶ビル４ＦＣＡＳＥＳｈｉｎｊｕｋｕ,,13,104,1690075,,,,,,,2024-05-31,1,,,,,ヤモ,0
1073,5011101107513,新規,0,2024-05-31,2024-05-31,ＵＮＩＦＩＲＥ　ＲＥＳＯＵＲＣＥＳ株式会社,,株式会社,東京都,新宿区,西新宿３丁目９－７フロンティア新宿タワー４０２,,13,104,1600023,,,,,,,2024-05-31,1,,,,,ユニファイアリソーシズ,0
1074,5011101107554,新規,0,2024-05-31,2024-05-31,株式会社ハイパーメディアクリエイト,,株式会社,東京都,新宿区,百人町１丁目５－１３－１０２号室,,13,104,1690073,,,,,,,2024-05-31,1,,,,,ハイパーメディアクリエイト,0
1076,5011103014476,新規,0,2024-05-31,2024-05-31,合同会社ＯＮ　ＹＯＵＲ　ＳＩＤＥ,,合同会社,東京都,新宿区,西新宿３丁目３番１３号西新宿水間ビル２Ｆ,,13,104,1600023,,,,,,,2024-05-31,1,,,,,オンユアサイド,0
1080,5011401026099,新規,0,2024-05-31,2024-05-31,逸笙情株式会社,,株式会社,東京都,板橋区,徳丸１丁目１７番２号ＸＯ財託第三ビル３０８号室,,13,119,1750083,,,,,,,2024-05-31,1,,,,,イチショウジョウ,0
1082,5011503006073,新規,0,2024-05-31,2024-05-31,輝泉合同会社,,合同会社,東京都,荒川区,西日暮里２丁目３２番１０号,,13,118,1160013,,,,,,,2024-05-31,1,,,,,キセン,0
1085,5011701027334,新規,0,2024-05-31,2024-05-31,株式会社瑞恩国際,,株式会社,東京都,江戸川区,江戸川６丁目４０－１４－２０８,,13,123,1340013,,,,,,,2024-05-31,1,,,,,ズイオンコクサイ,0
1088,5011801044312,新規,0,2024-05-31,2024-05-31,株式会社ゼンロク,,株式会社,東京都,足立区,鹿浜１丁目１１番７号,,13,121,1230864,,,,,,,2024-05-31,1,,,,,ゼンロク,0
1089,5011801044320,新規,0,2024-05-31,2024-05-31,株式会社麗,,株式会社,東京都,足立区,小台２丁目４１番３号,,13,121,1200046,,,,,,,2024-05-31,1,,,,,レイ,0
1095,5012701018265,新規,0,2024-05-31,2024-05-31,株式会社アイゲンシー,,株式会社,東京都,小平市,小川東町５丁目２０番３１号３０５号室,,13,211,1870031,,,,,,,2024-05-31,1,,,,,アイゲンシー,0
1104,5013301052613,新規,0,2024-05-31,2024-05-31,田澤株式会社,,株式会社,東京都,豊島区,池袋２丁目２４番２号１４０２号,,13,116,1710014,,,,,,,2024-05-31,1,,,,,タザワ,0
1105,5013303007152,新規,0,2024-05-31,2024-05-31,ＳＵＮＳＨＩＮＥ合同会社,,合同会社,東京都,豊島区,巣鴨３丁目２４番５号,,13,116,1700002,,,,,,,2024-05-31,1,,,,,サンシャイン,0
1114,5020001157485,新規,0,2024-05-31,2024-05-31,株式会社ＨＳ＆Ｗ,,株式会社,神奈川県,横浜市港北区,下田町１丁目２２番１１号,,14,109,2230064,,,,,,,2024-05-31,1,,,,,エイチエスアンドダブリュー,0
1117,5020003026201,新規,0,2024-05-31,2024-05-31,Ｈａｃｈｉ　Ｗａｖｅ合同会社,,合同会社,神奈川県,横浜市都筑区,東山田町１４９０番地２０,,14,118,2240024,,,,,,,2024-05-31,1,,,,,ハチウェーブ,0
1118,5020003026242,新規,0,2024-05-31,2024-05-31,合同会社ストリートビート,,合同会社,神奈川県,横浜市西区,浅間町１丁目４番３号ウィザードビル４０２,,14,103,2200072,,,,,,,2024-05-31,1,,,,,ストリートビート,0
1122,5030001160637,新規,0,2024-05-31,2024-05-31,縁和国際株式会社,,株式会社,埼玉県,八潮市,大字木曽根８３９番地の１,,11,234,3400813,,,,,,,2024-05-31,1,,,,,エンワコクサイ,0
1123,5030001160645,新規,0,2024-05-31,2024-05-31,株式会社ＳＥＣ,,株式会社,埼玉県,和光市,白子２丁目１番４号,,11,229,3510101,,,,,,,2024-05-31,1,,,,,エスイーシー,0
1124,5030001160653,新規,0,2024-05-31,2024-05-31,株式会社プロメテクス,,株式会社,埼玉県,志木市,柏町４丁目７番５７号,,11,228,3530007,,,,,,,2024-05-31,1,,,,,プロメテクス,0
1125,5030001160678,新規,0,2024-05-31,2024-05-31,株式会社Ｓ斗ワーク,,株式会社,埼玉県,南埼玉郡宮代町,宮代台１丁目８番地１６号,,11,442,3450835,,,,,,,2024-05-31,1,,,,,エストワーク,0
1128,5030003024402,新規,0,2024-05-31,2024-05-31,合同会社ｃｉｒｃｌｙ,,合同会社,埼玉県,上尾市,大字上１６－１０,,11,219,3620001,,,,,,,2024-05-31,1,,,,,サークリー,0
1137,5040001133831,新規,0,2024-05-31,2024-05-31,株式会社Ｒ．Ｋ．Ｔ,,株式会社,千葉県,野田市,木間ケ瀬４９５９番地１,,12,208,2700222,,,,,,,2024-05-31,1,,,,,アールケイティ,0
1142,5050001054845,新規,0,2024-05-31,2024-05-31,株式会社６３４エンターテイメント,,株式会社,茨城県,つくば市,城山１３番地１２,,08,220,3001251,,,,,,,2024-05-31,1,,,,,ムサシエンターテイメント,0
1151,5080401027217,新規,0,2024-05-31,2024-05-31,株式会社はままつ餃子Ｌａｂｏ,,株式会社,静岡県,浜松市中央区,半田町９２７番地,,22,138,4313124,,,,,,,2024-05-31,1,,,,,ハママツギョウザラボ,0
1171,5120001265435,新規,0,2024-05-31,2024-05-31,株式会社ＳＡＭ,,株式会社,大阪府,大阪市阿倍野区,三明町１丁目１３番１３号,,27,119,5450005,,,,,,,2024-05-31,1,,,,,エスエーエム,0
1172,5120001265492,新規,0,2024-05-31,2024-05-31,道真株式会社,,株式会社,大阪府,大阪市港区,港晴３丁目１－１１－５０３Ｅ,,27,107,5520023,,,,,,,2024-05-31,1,,,,,ドウシン,0
1176,5120101069678,新規,0,2024-05-31,2024-05-31,株式会社ＴＥＲＲＡ,,株式会社,大阪府,堺市西区,浜寺石津町東３丁６番５－５号,,27,144,5928335,,,,,,,2024-05-31,1,,,,,テラ,0
1177,5120101069694,新規,0,2024-05-31,2024-05-31,株式会社颯,,株式会社,大阪府,堺市堺区,遠里小野町３丁目４番１８号,,27,141,5900001,,,,,,,2024-05-31,1,,,,,ハヤテ,0
1187,5130003009608,新規,0,2024-05-31,2024-05-31,合同会社五一庵,,合同会社,京都府,京都市南区,西九条南田町４９番地,,26,107,6018441,,,,,,,2024-05-31,1,,,,,ゴイチアン,0
1195,5140001134571,新規,0,2024-05-31,2024-05-31,株式会社ＲＥＳＰＩＲＥＲ,,株式会社,兵庫県,芦屋市,六麓荘町１５番４号,,28,206,6590011,,,,,,,2024-05-31,1,,,,,レスピレ,0
1196,5140001134588,新規,0,2024-05-31,2024-05-31,株式会社ｓｏｌａ,,株式会社,兵庫県,姫路市,六角５４４番地１,,28,201,6712242,,,,,,,2024-05-31,1,,,,,ソラ,0
1206,5180001161744,新規,0,2024-05-31,2024-05-31,株式会社ＭＩＮＥＦＵＪＩＹＡＭＡ,,株式会社,愛知県,名古屋市東区,白壁５丁目１５番地プラウド白壁町５０１号,,23,102,4610011,,,,,,,2024-05-31,1,,,,,ミネフジヤマ,0
1211,5180005020649,新規,0,2024-05-31,2024-05-31,一般社団法人新瑞橋福祉センター,,その他の設立登記法人,愛知県,大府市,東新町３丁目１番地の１,,23,223,4740073,,,,,,,2024-05-31,1,,,,,アラタマバシフクシセンター,0
1213,5180301038683,新規,0,2024-05-31,2024-05-31,同源堂株式会社,,株式会社,愛知県,新城市,市場台２丁目８番地１３,,23,221,4411348,,,,,,,2024-05-31,1,,,,,ドウゲンドウ,0
1218,5210001019773,新規,0,2024-05-31,2024-05-31,株式会社まるだい不動産,,株式会社,福井県,福井市,木田町２３０３番地２,,18,201,9188106,,,,,,,2024-05-31,1,,,,,マルダイフドウサン,0
1221,5230001020358,新規,0,2024-05-31,2024-05-31,ＶＰＪ株式会社,,株式会社,富山県,氷見市,上泉４１２番地,,16,205,9350037,,,,,,,2024-05-31,1,,,,,ブイピージェー,0
1226,5240003006692,新規,0,2024-05-31,2024-05-31,合同会社タケウチ,,合同会社,広島県,三原市,円一町４丁目２番１４号,,34,204,7230015,,,,,,,2024-05-31,1,,,,,タケウチ,0
1229,5260005011359,新規,0,2024-05-31,2024-05-31,一般社団法人ｆｉｅｌｄ　ｏｆ　ｄｒｅａｍｓ真庭,,その他の設立登記法人,岡山県,真庭市,江川８４３番地１,,33,214,7170023,,,,,,,2024-05-31,1,,,,,フィールドオブドリームスマニワ,0
1236,5290001106003,新規,0,2024-05-31,2024-05-31,天辰水処理エンジニアリング株式会社,,株式会社,福岡県,福岡市南区,横手３丁目３８番１４号コーポヒロ２０３号,,40,134,8111311,,,,,,,2024-05-31,1,,,,,アマタツミズショリエンジニアリング,0
1242,5290003015391,新規,0,2024-05-31,2024-05-31,合同会社ツリー,,合同会社,福岡県,福岡市博多区,美野島４丁目１番５－１３０１号,,40,132,8120017,,,,,,,2024-05-31,1,,,,,ツリー,0
1244,5290803004742,新規,0,2024-05-31,2024-05-31,ＭＪ　Ｇｌｏｂａｌ合同会社,,合同会社,福岡県,田川郡糸田町,１８５９－１１,,40,604,8221300,,,,,,,2024-05-31,1,,,,,エムジェイグローバル,0
1245,5290805009748,新規,0,2024-05-31,2024-05-31,一般社団法人レインボーミル,,その他の設立登記法人,福岡県,北九州市門司区,吉志新町３丁目１５番６号,,40,101,8000118,,,,,,,2024-05-31,1,,,,,レインボーミル,0
1246,5310003004788,新規,0,2024-05-31,2024-05-31,合同会社白石商店,,合同会社,長崎県,対馬市,上県町犬ケ浦１６７－２,,42,209,8171524,,,,,,,2024-05-31,1,,,,,シライシショウテン,0
1247,5310005008770,新規,0,2024-05-31,2024-05-31,一般社団法人チャレンジド・ショップはあと屋,,その他の設立登記法人,長崎県,長崎市,西山４丁目６１０番地,,42,201,8500001,,,,,,,2024-05-31,1,,,,,チャレンジドショップハアトヤ,0
1251,5330001032112,新規,0,2024-05-31,2024-05-31,株式会社ルクールソル,,株式会社,熊本県,菊池郡菊陽町,大字津久礼２４２２番地３８号,,43,404,8691101,,,,,,,2024-05-31,1,,,,,ルクールソル,0
1252,5330001032120,新規,0,2024-05-31,2024-05-31,株式会社Ｌｅａｄ　ｔｈｅ　Ｗａｙ,,株式会社,熊本県,熊本市東区,下南部３丁目１１番１１５号,,43,102,8618019,,,,,,,2024-05-31,1,,,,,リードザウェイ,0
1257,5350001018984,新規,0,2024-05-31,2024-05-31,株式会社ＫＭ設備,,株式会社,宮崎県,日南市,北郷町郷之原乙１９５２番地３,,45,204,8892402,,,,,,,2024-05-31,1,,,,,ケイエムセツビ,0
1261,5360003014031,新規,0,2024-05-31,2024-05-31,合同会社ＳＥＣＲＥＴ　ＢＵＢＢＬＥ,,合同会社,沖縄県,那覇市,天久２丁目１８番１２号ＣＬＡＳＳ　ＩＮＮ新都心７０２,,47,201,9000005,,,,,,,2024-05-31,1,,,,,シークレットバブル,0
1279,5430003016367,新規,0,2024-05-31,2024-05-31,合同会社クマゲラ製作,,合同会社,北海道,虻田郡ニセコ町,字黒川２７３－１,,01,395,0481553,,,,,,,2024-05-31,1,,,,,クマゲラセイサク,0
1288,5700150125711,新規,0,2024-05-31,2024-05-31,ＲＥＮＯ　ＭＯＴＯＲＳ,,外国会社等,千葉県,山武郡横芝光町,小堤５６番地３オフィス３号,,12,410,2891745,スリランカ民主社会主義共和国、マッラワピティヤ、クルネガラロード、Ｎｏ．２３,,,,,,2024-05-31,1,,,,,レノモータース,0
1295,6010001245323,新規,0,2024-05-31,2024-05-31,株式会社ＢｏｔｔｌｅＣａｐ,,株式会社,東京都,中央区,勝どき４丁目６－１－７０５,,13,102,1040054,,,,,,,2024-05-31,1,,,,,ボトルキャップ,0
1296,6010001245348,新規,0,2024-05-31,2024-05-31,Ｆｏｒｅ　Ｂｒｉｄｇｅ株式会社,,株式会社,東京都,中央区,日本橋蛎殻町１丁目３０番１１号ヨートービル３階,,13,102,1030014,,,,,,,2024-05-31,1,,,,,フォアブリッジ,0
1300,6010003043873,新規,0,2024-05-31,2024-05-31,合同会社ＡＲＴアソシエイツ,,合同会社,東京都,中央区,銀座１丁目１２番４号Ｎ＆Ｅ・ＢＬＤ．６Ｆ,,13,102,1040061,,,,,,,2024-05-31,1,,,,,エーアールティーアソシエイツ,0
1303,6010005038376,新規,0,2024-05-31,2024-05-31,一般社団法人東京デジタルファンドインベストメント,,その他の設立登記法人,東京都,千代田区,丸の内３丁目１番１号東京共同会計事務所内,,13,101,1000005,,,,,,,2024-05-31,1,,,,,トウキョウデジタルファンドインベストメント,0
1325,6010703007203,新規,0,2024-05-31,2024-05-31,合同会社ｅｎｖ,,合同会社,東京都,品川区,西五反田１丁目２６番２号五反田サンハイツ９１１,,13,109,1410031,,,,,,,2024-05-31,1,,,,,エンブ,0
1332,6010901055367,新規,0,2024-05-31,2024-05-31,株式会社ＮＯＭＡ,,株式会社,東京都,世田谷区,瀬田３丁目１１番２４号,,13,112,1580095,,,,,,,2024-05-31,1,,,,,ノーマ,0
1333,6010901055375,新規,0,2024-05-31,2024-05-31,株式会社Ｌａ　Ｒｏｓｅａｕ,,株式会社,東京都,世田谷区,桜新町１丁目３８番１１号,,13,112,1540015,,,,,,,2024-05-31,1,,,,,ラロゾー,0
1338,6011001161980,新規,0,2024-05-31,2024-05-31,株式会社ハングリー,,株式会社,東京都,目黒区,碑文谷６丁目８－５ＨＩＭＯＮＹＡＦＬＡＴ－１０２,,13,110,1520003,,,,,,,2024-05-31,1,,,,,ハングリー,0
1339,6011001162310,新規,0,2024-05-31,2024-05-31,株式会社原宏事務所,,株式会社,東京都,渋谷区,広尾５丁目４－１２大成綱機ビル５Ｆ,,13,113,1500012,,,,,,,2024-05-31,1,,,,,ハラヒロシジムショ,0
1340,6011001162319,新規,0,2024-05-31,2024-05-31,株式会社シンクスヘルスケア,,株式会社,東京都,渋谷区,桜丘町２２番１４号Ｎ．Ｅ．Ｓ．ビルＳ棟Ｂ３Ｆ,,13,113,1500031,,,,,,,2024-05-31,1,,,,,シンクスヘルスケア,0
1341,6011001162335,新規,0,2024-05-31,2024-05-31,株式会社アップウェリング,,株式会社,東京都,渋谷区,神宮前６丁目２３番４号桑野ビル２階,,13,113,1500001,,,,,,,2024-05-31,1,,,,,アップウェリング,0
1342,6011001162376,新規,0,2024-05-31,2024-05-31,株式会社サニーファイブ,,株式会社,東京都,渋谷区,渋谷２丁目１０番６号,,13,113,1500002,,,,,,,2024-05-31,1,,,,,サニーファイブ,0
1343,6011001162384,新規,0,2024-05-31,2024-05-31,ＲＵＲＵＡＮＤ株式会社,,株式会社,東京都,目黒区,上目黒３丁目２１番２９号,,13,110,1530051,,,,,,,2024-05-31,1,,,,,ルルアンド,0
1348,6011003019277,新規,0,2024-05-31,2024-05-31,合同会社フェイバー,,合同会社,東京都,渋谷区,西原１丁目１６－１５－３０１,,13,113,1510066,,,,,,,2024-05-31,1,,,,,フェイバー,0
1349,6011003019285,新規,0,2024-05-31,2024-05-31,Ｈａｌｆｔｏｎｅ　Ｄｅｓｉｇｎ合同会社,,合同会社,東京都,目黒区,目黒区上目黒２‐１５‐１レジディアタワー中目黒１００２号室,,13,110,1520000,,,,,,,2024-05-31,1,,,,,ハーフトーンデザイン,0
1354,6011101107495,新規,0,2024-05-31,2024-05-31,株式会社ＳｏｍａＬｉ,,株式会社,東京都,新宿区,新宿１丁目３６番２号新宿第七葉山ビル３階,,13,104,1600022,,,,,,,2024-05-31,1,,,,,ソマリ,0
1355,6011101107512,新規,0,2024-05-31,2024-05-31,株式会社蒼,,株式会社,東京都,新宿区,四谷三栄町６番１号,,13,104,1600008,,,,,,,2024-05-31,1,,,,,アオイ,0
1359,6011103014483,新規,0,2024-05-31,2024-05-31,クロスプランニング合同会社,,合同会社,東京都,新宿区,西新宿３丁目３－１３西新宿水間ビル６Ｆ,,13,104,1600023,,,,,,,2024-05-31,1,,,,,クロスプランニング,0
1367,6011501030735,新規,0,2024-05-31,2024-05-31,株式会社エスリライフ,,株式会社,東京都,荒川区,町屋３丁目２０番１－６０１号,,13,118,1160001,,,,,,,2024-05-31,1,,,,,エスリライフ,0
1369,6011701027325,新規,0,2024-05-31,2024-05-31,同心株式会社,,株式会社,東京都,江戸川区,東松本２丁目１１番１８号,,13,123,1330071,,,,,,,2024-05-31,1,,,,,ドウシン,0
1370,6011701027333,新規,0,2024-05-31,2024-05-31,兆業株式会社,,株式会社,東京都,江戸川区,上篠崎１丁目１番２２号,,13,123,1330054,,,,,,,2024-05-31,1,,,,,チョウギョウ,0
1384,6012801023206,新規,0,2024-05-31,2024-05-31,株式会社Ｔｏｋｙｏ　Ｋｕｓｔｏｍ　Ｋｉｃｋｓ,,株式会社,東京都,国分寺市,東元町１丁目１１番１７号ヒルハイツモトマチ１０２,,13,214,1850022,,,,,,,2024-05-31,1,,,,,トウキョウカスタムキックス,0
1385,6012801023222,新規,0,2024-05-31,2024-05-31,株式会社プロカタリスト,,株式会社,東京都,国立市,東１丁目１５－１１,,13,215,1860002,,,,,,,2024-05-31,1,,,,,プロカタリスト,0
1392,6013301052612,新規,0,2024-05-31,2024-05-31,Ｙ‐ＦＩＶＥ株式会社,,株式会社,東京都,豊島区,西巣鴨１丁目１番２号山田ビル１Ｆ,,13,116,1700001,,,,,,,2024-05-31,1,,,,,ワイファイブ,0
1398,6020001157245,新規,0,2024-05-31,2024-05-31,株式会社Ｍａｋｅ　Ｈｏｍｅｓ,,株式会社,神奈川県,横浜市戸塚区,汲沢７丁目９－８,,14,110,2450061,,,,,,,2024-05-31,1,,,,,メイクホームズ,0
1399,6020001157518,新規,0,2024-05-31,2024-05-31,株式会社ＴＡＳＫ　ＬＡＢ．,,株式会社,神奈川県,横浜市港南区,下永谷５丁目２９－６,,14,111,2330016,,,,,,,2024-05-31,1,,,,,タスクラボ,0
1404,6021001082350,新規,0,2024-05-31,2024-05-31,旗興業株式会社,,株式会社,神奈川県,厚木市,長谷１６０２番地８,,14,212,2430036,,,,,,,2024-05-31,1,,,,,ハタコウギョウ,0
1406,6021003014574,新規,0,2024-05-31,2024-05-31,ＡＬＥＥＮＡ　ＴＲＡＤＩＮＧ合同会社,,合同会社,神奈川県,厚木市,松枝２丁目６－１６ハイツ大橋１０３号室,,14,212,2430005,,,,,,,2024-05-31,1,,,,,アリーナトレーディング,0
1414,6030001160652,新規,0,2024-05-31,2024-05-31,株式会社ｆｕｌｆｉｌｌ,,株式会社,埼玉県,さいたま市緑区,原山１丁目２８番１６－２号,,11,109,3360931,,,,,,,2024-05-31,1,,,,,フルフィル,0
1415,6030001160669,新規,0,2024-05-31,2024-05-31,株式会社岡部工業,,株式会社,埼玉県,志木市,柏町１丁目６番３３－１０９号,,11,228,3530007,,,,,,,2024-05-31,1,,,,,オカベコウギョウ,0
1429,6040003025084,新規,0,2024-05-31,2024-05-31,Ｂａｅｔｅｅ　Ｌａｙ合同会社,,合同会社,千葉県,千葉市美浜区,高洲２丁目２番８棟１０３号,,12,106,2610004,,,,,,,2024-05-31,1,,,,,ベーティーレィ,0
1430,6040005022410,新規,0,2024-05-31,2024-05-31,一般社団法人Ａｆｔｅｒ　Ｓｃｈｏｏｌ　Ｓｐｏｒｔｓ　Ｃｌｕｂ,,その他の設立登記法人,千葉県,印西市,武西学園台３丁目７番地１２,,12,231,2701355,,,,,,,2024-05-31,1,,,,,アフタースクールスポーツクラブ,0
1434,6050001054844,新規,0,2024-05-31,2024-05-31,株式会社つるみ脳神経病院,,株式会社,茨城県,古河市,上片田１２３２番地,,08,204,3060128,,,,,,,2024-05-31,1,,,,,ツルミノウシンケイビョウイン,0
1446,6070003005430,新規,0,2024-05-31,2024-05-31,合同会社Ｒｏｓｅ　Ｉｍｐｅｘ　Ｊｐ,,合同会社,群馬県,伊勢崎市,西久保町２丁目４８３番地セントラルハイツヨコツカアパートＩＩＡ１０４,00134973,10,204,3792204,,,,,,,2024-05-31,1,,,,,ロジインペクスジェピ,0
1452,6120001090114,新規,0,2024-05-31,2024-05-31,株式会社マルハ,,株式会社,大阪府,大阪市中央区,谷町６丁目３番１７号,,27,128,5420012,,,,,,,2024-05-31,1,,,,,マルハ,0
1459,6120001265376,新規,0,2024-05-31,2024-05-31,３Ｒ株式会社,,株式会社,大阪府,大阪市西淀川区,中島１丁目３５番１７５－１０号,,27,113,5550041,,,,,,,2024-05-31,1,,,,,サンアール,0
1460,6120001265392,新規,0,2024-05-31,2024-05-31,株式会社ヌーズ,,株式会社,大阪府,枚方市,川原町１３番２０－４０５号,,27,210,5730028,,,,,,,2024-05-31,1,,,,,ヌーズ,0
1463,6120003026710,新規,0,2024-05-31,2024-05-31,合同会社くりすさん,,合同会社,大阪府,大阪市中央区,玉造２丁目１番７号,,27,128,5400004,,,,,,,2024-05-31,1,,,,,クリスサン,0
1464,6120101069669,新規,0,2024-05-31,2024-05-31,株式会社エイト,,株式会社,大阪府,和泉市,王子町３丁目６番１９号ハイム王子町１０３,,27,219,5940004,,,,,,,2024-05-31,1,,,,,エイト,0
1465,6120101069677,新規,0,2024-05-31,2024-05-31,海運プラン株式会社,,株式会社,大阪府,松原市,岡７丁目２３９番地－Ａ,,27,217,5800014,,,,,,,2024-05-31,1,,,,,カイウンプラン,0
1479,6130001077151,新規,0,2024-05-31,2024-05-31,株式会社山七,,株式会社,京都府,京都市左京区,八瀬野瀬町２６７番地八瀬鱒乃坊アーバンコンフォート５２４,,26,103,6011254,,,,,,,2024-05-31,1,,,,,ヤマシチ,0
1485,6140001134612,新規,0,2024-05-31,2024-05-31,株式会社セレニテリノベ,,株式会社,兵庫県,神戸市西区,玉津町高津橋３２０番地,,28,111,6512122,,,,,,,2024-05-31,1,,,,,セレニテリノベ,0
1486,6140003020629,新規,0,2024-05-31,2024-05-31,ＭＡＣＨ合同会社,,合同会社,兵庫県,神戸市中央区,上筒井通７丁目３－１５アムール上筒井Ｃ棟,,28,110,6510061,,,,,,,2024-05-31,1,,,,,マルアンドムタルプコウクウコンサルティングハブ,0
1490,6150003003269,新規,0,2024-05-31,2024-05-31,合同会社モンスーン,,合同会社,奈良県,山辺郡山添村,大字峰寺１１９番地の７,,29,322,6302201,,,,,,,2024-05-31,1,,,,,モンスーン,0
1493,6180001161710,新規,0,2024-05-31,2024-05-31,株式会社ウィング,,株式会社,愛知県,名古屋市西区,五才美町２３５番地８,,23,104,4520806,,,,,,,2024-05-31,1,,,,,ウィング,0
1497,6190001031375,新規,0,2024-05-31,2024-05-31,株式会社檜作,,株式会社,三重県,南牟婁郡御浜町,大字下市木３５１９番地２,,24,561,5195203,,,,,,,2024-05-31,1,,,,,ヒヅクリ,0
1498,6190003004692,新規,0,2024-05-31,2024-05-31,合同会社ＫＧＴＲＵＳＴ,,合同会社,三重県,鳥羽市,安楽島町３２９番地２２１,,24,211,5170021,,,,,,,2024-05-31,1,,,,,ケージートラスト,0
1501,6230001020373,新規,0,2024-05-31,2024-05-31,株式会社山崎不動産,,株式会社,富山県,射水市,小島１４番地７,,16,211,9390274,,,,,,,2024-05-31,1,,,,,ヤマザキフドウサン,0
1503,6240003006700,新規,0,2024-05-31,2024-05-31,合同会社西本,,合同会社,広島県,広島市西区,古江新町１６番３３－５０５号,,34,104,7330873,,,,,,,2024-05-31,1,,,,,ニシモト,0
1508,6260001039114,新規,0,2024-05-31,2024-05-31,株式会社岡田不動産,,株式会社,岡山県,岡山市南区,西高崎５番地３２６,,33,104,7091204,,,,,,,2024-05-31,1,,,,,オカダフドウサン,0
1511,6260003004776,新規,0,2024-05-31,2024-05-31,合同会社ｎｕｕｕ．,,合同会社,岡山県,倉敷市,東富井７２３番地１ニッポー倉敷ビル１０２号室,,33,202,7100847,,,,,,,2024-05-31,1,,,,,ヌウ,0
1520,6290003015374,新規,0,2024-05-31,2024-05-31,合同会社ネクステ,,合同会社,福岡県,福岡市博多区,博多駅南１丁目１５番２５－６０３号,,40,132,8120016,,,,,,,2024-05-31,1,,,,,ネクステ,0
1527,6340003004495,新規,0,2024-05-31,2024-05-31,合同会社ｅｔｈｉｃａｌＴ．,,合同会社,鹿児島県,鹿児島市,緑ヶ丘町２番２３－５１号,,46,201,8911274,,,,,,,2024-05-31,1,,,,,エシカルティ,0
1529,6350001018983,新規,0,2024-05-31,2024-05-31,株式会社三福屋,,株式会社,宮崎県,日南市,岩崎３丁目１２番１８号,,45,204,8870014,,,,,,,2024-05-31,1,,,,,ミフクヤ,0
1530,6350005006233,新規,0,2024-05-31,2024-05-31,特定非営利活動法人ＡＳＤみやざき,,その他の設立登記法人,宮崎県,宮崎市,佐土原町下那珂１３７４番地１０号,,45,201,8800212,,,,,,,2024-05-31,1,,,,,エーエスディーミヤザキ,0
1532,6360003014022,新規,0,2024-05-31,2024-05-31,合同会社アルテシマ沖縄,,合同会社,沖縄県,浦添市,安波茶２丁目１１－１,,47,208,9012114,,,,,,,2024-05-31,1,,,,,アルテシマオキナワ,0
1533,6360003014030,新規,0,2024-05-31,2024-05-31,Ｌｅ　ｌｉｅｎ合同会社,,合同会社,沖縄県,南城市,玉城字糸数５１番地１,,47,215,9010606,,,,,,,2024-05-31,1,,,,,ルリセン,0
1563,6700150041370,新規,0,2024-05-31,2015-10-09,米沢市六郷コミュニティセンター管理運営委員会,,その他,山形県,米沢市,六郷町一漆６８－２,,06,202,9920095,,,,,,,2015-10-09,1,,,,,ヨネザワシロクゴウコミユニテイセンターカンリウンエイイインカイ,0
1570,7010001245090,新規,0,2024-05-31,2024-05-31,むすびめコミュニケーションクリエイツ株式会社,,株式会社,東京都,千代田区,内神田１丁目１０番１号平富ビル６Ｆ,,13,101,1010047,,,,,,,2024-05-31,1,,,,,ムスビメコミュニケーションクリエイツ,0
1571,7010001245157,新規,0,2024-05-31,2024-05-31,Ｔ．Ｋ．Ｃ．株式会社,,株式会社,東京都,文京区,西片２丁目１８番８号４０３,,13,105,1130024,,,,,,,2024-05-31,1,,,,,ティーケーシー,0
1572,7010001245297,新規,0,2024-05-31,2024-05-31,佳達マイ株式会社,,株式会社,東京都,文京区,千石４丁目１４番９号,,13,105,1120011,,,,,,,2024-05-31,1,,,,,カタツマイ,0
1573,7010001245322,新規,0,2024-05-31,2024-05-31,Ｈａｐｐｙ　Ｅｌｅｍｅｎｔｓ　Ｉｎｖｅｓｔｍｅｎｔ株式会社,,株式会社,東京都,千代田区,丸の内１丁目１１番１号,,13,101,1000005,,,,,,,2024-05-31,1,,,,,ハッピーエレメンツインベストメント,0
1581,7010005038375,新規,0,2024-05-31,2024-05-31,一般社団法人新川崎ＤＣインベストメント,,その他の設立登記法人,東京都,千代田区,丸の内３丁目１番１号東京共同会計事務所内,,13,101,1000005,,,,,,,2024-05-31,1,,,,,シンカワサキディーシーインベストメント,0
1583,7010101016169,新規,0,2024-05-31,2024-05-31,株式会社美桜,,株式会社,東京都,八王子市,中野上町５丁目２６番９号,,13,201,1920041,,,,,,,2024-05-31,1,,,,,,0
1594,7010401182776,新規,0,2024-05-31,2024-05-31,株式会社ＭＢＬ,,株式会社,東京都,港区,六本木５丁目１６番３５号麻布テラスアパートメント６０３,,13,103,1060032,,,,,,,2024-05-31,1,,,,,エムビーエル,0
1595,7010401182792,新規,0,2024-05-31,2024-05-31,株式会社ＣＹＬ,,株式会社,東京都,港区,南青山２丁目２番１５号ウィン青山９４２,,13,103,1070062,,,,,,,2024-05-31,1,,,,,シーワイエル,0
1596,7010401182801,新規,0,2024-05-31,2024-05-31,株式会社シリウス,,株式会社,東京都,港区,六本木４丁目１１番１１号六本木ＧＭビル５Ｆ,,13,103,1060032,,,,,,,2024-05-31,1,,,,,シリウス,0
1597,7010401182826,新規,0,2024-05-31,2024-05-31,株式会社Ｍａｌｅｎ,,株式会社,東京都,港区,南青山３丁目１番３６号青山丸竹ビル６Ｆ,,13,103,1070062,,,,,,,2024-05-31,1,,,,,マレン,0
1599,7010403032723,新規,0,2024-05-31,2024-05-31,ＳａｇａＷｏｒｄ合同会社,,合同会社,東京都,港区,元麻布２丁目１１番４号元麻布フォレストプラザ２－３０２号室,,13,103,1060046,,,,,,,2024-05-31,1,,,,,サガワード,0
1601,7010405023258,新規,0,2024-05-31,2024-05-31,一般社団法人日本美療カッピング協会,,その他の設立登記法人,東京都,港区,南青山２丁目２番１５号,,13,103,1070062,,,,,,,2024-05-31,1,,,,,ニホンビリョウカッピングキョウカイ,0
1605,7010503007443,新規,0,2024-05-31,2024-05-31,浩天合同会社,,合同会社,東京都,台東区,台東３丁目５番１０号－１０２－２Ｋ室,,13,106,1100016,,,,,,,2024-05-31,1,,,,,コウテン,0
1607,7010703007202,新規,0,2024-05-31,2024-05-31,中堤ビジネスリサーチ合同会社,,合同会社,東京都,品川区,東品川２丁目５番６号天王洲ビュータワー３１０７,,13,109,1400002,,,,,,,2024-05-31,1,,,,,ナカツツミビジネスリサーチ,0
1611,7010901055374,新規,0,2024-05-31,2024-05-31,万歳商事株式会社,,株式会社,東京都,世田谷区,世田谷４丁目６番４号レガーロ世田谷松陰神社３０２,,13,112,1540017,,,,,,,2024-05-31,1,,,,,バンザイショウジ,0
1612,7010901055390,新規,0,2024-05-31,2024-05-31,株式会社コネクトスリー,,株式会社,東京都,世田谷区,桜上水４丁目１番Ｅ－９０２号,,13,112,1560045,,,,,,,2024-05-31,1,,,,,コネクトスリー,0
1617,7011001162292,新規,0,2024-05-31,2024-05-31,株式会社Ｈｉｇｈｅｒ　Ｅｄｕｃａｔｉｏｎ　Ｊａｐａｎ,,株式会社,東京都,渋谷区,千駄ヶ谷５丁目１３番１８号オフィスコート代々木Ａ２,,13,113,1510051,,,,,,,2024-05-31,1,,,,,ハイアーエデュケーションジャパン,0
1618,7011001162334,新規,0,2024-05-31,2024-05-31,株式会社ａｓｏｂｉｒｉｃｈ,,株式会社,東京都,渋谷区,神宮前３丁目２１番８号,,13,113,1500001,,,,,,,2024-05-31,1,,,,,アソビリッチ,0
1619,7011001162342,新規,0,2024-05-31,2024-05-31,株式会社ＴＡＮＣＯＢ,,株式会社,東京都,渋谷区,恵比寿西２丁目８番４号ＥＸ恵比寿西ビル５階,,13,113,1500021,,,,,,,2024-05-31,1,,,,,タンコブ,0
1620,7011001162367,新規,0,2024-05-31,2024-05-31,ＭａＣｉｅｌ株式会社,,株式会社,東京都,目黒区,緑が丘２丁目９番１７号ＧＬＩＤＥ自由が丘１０７,,13,110,1520034,,,,,,,2024-05-31,1,,,,,マシエル,0
1621,7011003019268,新規,0,2024-05-31,2024-05-31,シャンス合同会社,,合同会社,東京都,渋谷区,代々木４丁目１－６－２０３,,13,113,1510053,,,,,,,2024-05-31,1,,,,,シャンス,0
1626,7011101107486,新規,0,2024-05-31,2024-05-31,水越株式会社,,株式会社,東京都,新宿区,百人町１丁目１８番８号大久保カドビル２階－Ｓ０３号室,,13,104,1690073,,,,,,,2024-05-31,1,,,,,ミズコシ,0
1627,7011101107494,新規,0,2024-05-31,2024-05-31,株式会社Ｔｉｐ　Ｕ,,株式会社,東京都,新宿区,西新宿６丁目２６番１１号,,13,104,1600023,,,,,,,2024-05-31,1,,,,,チップユー,0
1628,7011101107552,新規,0,2024-05-31,2024-05-31,株式会社猿川社,,株式会社,東京都,新宿区,西新宿３丁目３番１３号西新宿水間ビル２Ｆ,,13,104,1600023,,,,,,,2024-05-31,1,,,,,サルカワシャ,0
1629,7011201025506,新規,0,2024-05-31,2024-05-31,株式会社ハイクリ,,株式会社,東京都,中野区,中央４丁目４－２ヘリオス６新中野４階,,13,114,1640011,,,,,,,2024-05-31,1,,,,,ハイクリ,0
1635,7011503006088,新規,0,2024-05-31,2024-05-31,合同会社Ｔｅｃｈ　Ｌｉｎｋａｇｅ,,合同会社,東京都,北区,岸町２丁目２―２,,13,117,1140021,,,,,,,2024-05-31,1,,,,,テックリンケージ,0
1638,7011701027324,新規,0,2024-05-31,2024-05-31,佳成株式会社,,株式会社,東京都,江戸川区,春江町５丁目５番１３号,,13,123,1340003,,,,,,,2024-05-31,1,,,,,カセイ,0
1641,7012703003008,新規,0,2024-05-31,2024-05-31,合同会社ＳＨＩＢＵＹＡ　ＰＨＡＲＭＡＣＹ,,合同会社,東京都,西東京市,栄町３丁目５番１０号,,13,229,2020006,,,,,,,2024-05-31,1,,,,,シブヤファーマシー,0
1644,7013301052611,新規,0,2024-05-31,2024-05-31,株式会社ＬＵＮＡ,,株式会社,東京都,豊島区,南池袋１丁目９－１８－３５７,,13,116,1710022,,,,,,,2024-05-31,1,,,,,ルナ,0
1649,7020001157517,新規,0,2024-05-31,2024-05-31,エンソウ株式会社,,株式会社,神奈川県,横浜市西区,浅間町１丁目４番地３ウィザードビル４０２,,14,103,2200072,,,,,,,2024-05-31,1,,,,,エンソウ,0
1660,7030001160692,新規,0,2024-05-31,2024-05-31,株式会社ＣＡＮＶＡＳ,,株式会社,埼玉県,三郷市,栄３丁目２９０番１,,11,237,3410043,,,,,,,2024-05-31,1,,,,,キャンバス,0
1665,7030003024409,新規,0,2024-05-31,2024-05-31,きずなばし合同会社,,合同会社,埼玉県,さいたま市大宮区,北袋町２丁目４８８番地７,,11,103,3300835,,,,,,,2024-05-31,1,,,,,キズナバシ,0
1675,7040001133805,新規,0,2024-05-31,2024-05-31,株式会社ＲｅｃＫ,,株式会社,千葉県,市原市,八幡３５９番地３,,12,219,2900062,,,,,,,2024-05-31,1,,,,,リック,0
1681,7040003025091,新規,0,2024-05-31,2024-05-31,合同会社Ｙｕａｒｕ,,合同会社,千葉県,千葉市中央区,富士見２丁目１８番５号ＭＤビル３０１,,12,101,2600015,,,,,,,2024-05-31,1,,,,,ユアール,0
1682,7040003025100,新規,0,2024-05-31,2024-05-31,合同会社共創,,合同会社,千葉県,千葉市花見川区,幕張本郷７丁目２番３－３０４,,12,102,2620033,,,,,,,2024-05-31,1,,,,,キョウソウ,0
1691,7060001037145,新規,0,2024-05-31,2024-05-31,株式会社Ｍａｈａｎａ,,株式会社,栃木県,真岡市,小林１５２７番地１,,09,209,3214321,,,,,,,2024-05-31,1,,,,,マハナ,0
1694,7070001041798,新規,0,2024-05-31,2024-05-31,株式会社アスクリエイト,,株式会社,群馬県,前橋市,文京町２丁目２８番２３－１１０３号ポレスターけやきレジデンス,,10,201,3710801,,,,,,,2024-05-31,1,,,,,アスクリエイト,0
1695,7070001041807,新規,0,2024-05-31,2024-05-31,株式会社星野牧場,,株式会社,群馬県,吾妻郡中之条町,大字折田１２２番地,,10,421,3770433,,,,,,,2024-05-31,1,,,,,ホシノボクジョウ,0
1701,7080001026328,新規,0,2024-05-31,2024-05-31,株式会社グリオス,,株式会社,静岡県,静岡市駿河区,西島４６４番地の１－２０２号,,22,102,4228045,,,,,,,2024-05-31,1,,,,,グリオス,0
1717,7120001265466,新規,0,2024-05-31,2024-05-31,株式会社Ｌｉｅｎ　Ｆｏｒｔ,,株式会社,大阪府,大阪市中央区,鎗屋町１丁目２番１２号プレジオ鎗屋町１５０１,,27,128,5400027,,,,,,,2024-05-31,1,,,,,リアンフォート,0
1718,7120001265474,新規,0,2024-05-31,2024-05-31,株式会社ｗｈｉｔｅ　ｎｏｔｅ,,株式会社,大阪府,大阪市北区,梅田１丁目１－３大阪駅前第３ビル２９階１－１－１号室,,27,127,5300001,,,,,,,2024-05-31,1,,,,,ホワイトノート,0
1719,7120001265482,新規,0,2024-05-31,2024-05-31,株式会社Ａｎｃｏｒａ,,株式会社,大阪府,大阪市淀川区,新高６丁目１４番７－８０８号,,27,123,5320033,,,,,,,2024-05-31,1,,,,,アンコーラ,0
1720,7120001265508,新規,0,2024-05-31,2024-05-31,株式会社ハーモニクス,,株式会社,大阪府,大阪市大正区,泉尾１丁目２４番４号,,27,108,5510031,,,,,,,2024-05-31,1,,,,,ハーモニクス,0
1724,7120005024348,新規,0,2024-05-31,2024-05-31,一般社団法人日本防災支援機構,,その他の設立登記法人,大阪府,大阪市生野区,勝山北１丁目１１番３９号,,27,116,5440033,,,,,,,2024-05-31,1,,,,,ニホンボウサイシエンキコウ,0
1725,7120101069668,新規,0,2024-05-31,2024-05-31,株式会社ＣＥハンス,,株式会社,大阪府,松原市,天美南５丁目２０番１１号,,27,217,5800033,,,,,,,2024-05-31,1,,,,,シーイーハンス,0
1737,7140001134603,新規,0,2024-05-31,2024-05-31,株式会社アベリア,,株式会社,兵庫県,姫路市,駅前町２７１番地姫路駅前メディカルガーデン４階,,28,201,6700927,,,,,,,2024-05-31,1,,,,,アベリア,0
1745,7180001161734,新規,0,2024-05-31,2024-05-31,白壁さくらエステート株式会社,,株式会社,愛知県,名古屋市東区,白壁３丁目２０番５号,,23,102,4610011,,,,,,,2024-05-31,1,,,,,シラカベサクラエステート,0
1746,7180001161750,新規,0,2024-05-31,2024-05-31,株式会社ＮｏｖａＴｅｃｈ,,株式会社,愛知県,名古屋市中区,大須２丁目５番２０号,,23,106,4600011,,,,,,,2024-05-31,1,,,,,ノヴァテック,0
1750,7200001042551,新規,0,2024-05-31,2024-05-31,株式会社アシルアジャパン,,株式会社,岐阜県,美濃市,前野２９１番地１,,21,207,5013716,,,,,,,2024-05-31,1,,,,,アシルアジャパン,0
1753,7230001020372,新規,0,2024-05-31,2024-05-31,株式会社甲炎,,株式会社,富山県,砺波市,春日町１番４号アパガーデンコート砺波６０２号,,16,208,9391378,,,,,,,2024-05-31,1,,,,,コウエン,0
1770,7290001106001,新規,0,2024-05-31,2024-05-31,ザ．リッチ株式会社,,株式会社,福岡県,福岡市中央区,白金１丁目１４番９－４０１号,,40,133,8100012,,,,,,,2024-05-31,1,,,,,ザリッチ,0
1776,7310001019035,新規,0,2024-05-31,2024-05-31,エム・アール・ピー株式会社,,株式会社,長崎県,西彼杵郡長与町,三根郷５４番地２１,,42,307,8512125,,,,,,,2024-05-31,1,,,,,エムアールピー,0
1780,7310005008769,新規,0,2024-05-31,2024-05-31,一般社団法人子どもの平和と生存のための童話館基金,,その他の設立登記法人,長崎県,長崎市,中町５番２１号,,42,201,8500055,,,,,,,2024-05-31,1,,,,,コドモノヘイワトセイゾンノタメノドウワカンキキン,0
1782,7330001032110,新規,0,2024-05-31,2024-05-31,株式会社孝泰食恵,,株式会社,熊本県,上益城郡益城町,大字福富１０６２番地,,43,443,8612235,,,,,,,2024-05-31,1,,,,,タカヤスショクケイ,0
1785,7340003004494,新規,0,2024-05-31,2024-05-31,合同会社ＧＲＡＮＤＳＴＡＲＳ,,合同会社,鹿児島県,鹿児島市,宇宿３丁目２７番地１,,46,201,8900073,,,,,,,2024-05-31,1,,,,,グランドスターズ,0
1786,7350001018982,新規,0,2024-05-31,2024-05-31,株式会社ワシンクリエート,,株式会社,宮崎県,都城市,今町９１０９番地１,,45,202,8850064,,,,,,,2024-05-31,1,,,,,ワシンクリエート,0
1788,7360003014021,新規,0,2024-05-31,2024-05-31,合同会社島尻ガラス,,合同会社,沖縄県,宮古島市,平良字西里９３５番地３８,,47,214,9060012,,,,,,,2024-05-31,1,,,,,シマジリガラス,0
1789,7360005007048,新規,0,2024-05-31,2024-05-31,一般社団法人ＨＡＷＫＳ　ｏｋｉｎａｗａ,,その他の設立登記法人,沖縄県,沖縄市,知花６丁目９番２５号,,47,211,9042143,,,,,,,2024-05-31,1,,,,,ホークスオキナワ,0
1799,7420003002928,新規,0,2024-05-31,2024-05-31,合同会社Ｓｈｕｋｒｉｙｙａａ,,合同会社,青森県,青森市,新町１丁目１２番９号―１Ｆ,,02,201,0300801,,,,,,,2024-05-31,1,,,,,シュクリア,0
1801,7430005014994,新規,0,2024-05-31,2024-05-31,特定非営利活動法人みんなの,,その他の設立登記法人,北海道,砂川市,豊沼町４６番地３,,01,226,0730138,,,,,,,2024-05-31,1,,,,,ミンナノ,0
1803,7462503000218,新規,0,2024-05-31,2024-05-31,松福合同会社,,合同会社,北海道,標津郡中標津町,東五条北２丁目３番地４,,01,692,0861045,,,,,,,2024-05-31,1,,,,,マツフク,0
1807,7490005006945,新規,0,2024-05-31,2024-05-31,一般社団法人三正会,,その他の設立登記法人,高知県,高知市,大川筋１丁目３番３３号,,39,201,7800052,,,,,,,2024-05-31,1,,,,,サンセイカイ,0
1808,7500001025666,新規,0,2024-05-31,2024-05-31,株式会社さくら瓦工業,,株式会社,愛媛県,松山市,吉藤２丁目１６番４号,,38,201,7918011,,,,,,,2024-05-31,1,,,,,サクラカワラコウギョウ,0
1816,8010001245197,新規,0,2024-05-31,2024-05-31,技術先鋒株式会社,,株式会社,東京都,千代田区,内神田２丁目４番２号一広グローバルビル１００１号,,13,101,1010047,,,,,,,2024-05-31,1,,,,,ギジュツセンポウ,0
1817,8010001245321,新規,0,2024-05-31,2024-05-31,株式会社雉虎,,株式会社,東京都,中央区,日本橋室町１丁目１１番１２号日本橋水野ビル７階,,13,102,1030022,,,,,,,2024-05-31,1,,,,,キジトラ,0
1818,8010003043830,新規,0,2024-05-31,2024-05-31,ニセコ・ホスピタリティ合同会社,,合同会社,東京都,千代田区,霞が関３丁目２番５号,,13,101,1000013,,,,,,,2024-05-31,1,,,,,ニセコホスピタリティ,0
1819,8010003043888,新規,0,2024-05-31,2024-05-31,中村＆カンパニー合同会社,,合同会社,東京都,中央区,銀座８丁目１７－５,,13,102,1040061,,,,,,,2024-05-31,1,,,,,ナカムラアンドカンパニー,0
1820,8010003043896,新規,0,2024-05-31,2024-05-31,サステナブルローンファンド２６号合同会社,,合同会社,東京都,中央区,京橋２丁目１２番６号ＡＯＪ税理士法人内,,13,102,1040031,,,,,,,2024-05-31,1,,,,,サステナブルローンファンドニジュウロクゴウ,0
1824,8010005038366,新規,0,2024-05-31,2024-05-31,一般社団法人ファンドドゥ１９号,,その他の設立登記法人,東京都,千代田区,霞が関３丁目２番５号,,13,101,1000013,,,,,,,2024-05-31,1,,,,,ファンドドゥジュウキュウゴウ,0
1831,8010401182817,新規,0,2024-05-31,2024-05-31,ＳＯＵ株式会社,,株式会社,東京都,港区,白金６丁目１６番２４号,,13,103,1080072,,,,,,,2024-05-31,1,,,,,ソウ,0
1832,8010401182825,新規,0,2024-05-31,2024-05-31,株式会社ＳＥＭＩ　ＩＮＴＥＧＲＡＴＩＯＮ,,株式会社,東京都,港区,海岸１丁目７番１号東京ポートシティ竹芝１０階,,13,103,1050022,,,,,,,2024-05-31,1,,,,,セミインテグレーション,0
1836,8010403032722,新規,0,2024-05-31,2024-05-31,ｓｔａｙ合同会社,,合同会社,東京都,港区,浜松町２丁目２番１５号浜松町ダイヤビル２階,,13,103,1050013,,,,,,,2024-05-31,1,,,,,ステイ,0
1837,8010403032730,新規,0,2024-05-31,2024-05-31,合同会社ＬＯＷＥＬＬＤＩＡ,,合同会社,東京都,港区,東麻布２丁目３５－１ＫＣビル６Ｆ,,13,103,1060044,,,,,,,2024-05-31,1,,,,,ロウェルダイア,0
1839,8010405023265,新規,0,2024-05-31,2024-05-31,税理士法人北青山会計事務所,,その他の設立登記法人,東京都,港区,北青山１丁目４番１－４０３号,,13,103,1070061,,,,,,,2024-05-31,1,,,,,キタアオヤマカイケイジムショ,0
1842,8010501052341,新規,0,2024-05-31,2024-05-31,ＪＳＮ株式会社,,株式会社,東京都,台東区,上野６丁目７－１６川久保ビル７０１,,13,106,1100005,,,,,,,2024-05-31,1,,,,,ジェイエスエヌ,0
1844,8010503007442,新規,0,2024-05-31,2024-05-31,Ｐ２Ｐ合同会社,,合同会社,東京都,台東区,日本堤２丁目１２番３号,,13,106,1110021,,,,,,,2024-05-31,1,,,,,ピアツーピア,0
1848,8010601065268,新規,0,2024-05-31,2024-05-31,海拓亜船舶科技株式会社,,株式会社,東京都,墨田区,墨田５丁目５番２号,,13,107,1310031,,,,,,,2024-05-31,1,,,,,カイタクアセンパクカギ,0
1849,8010601065292,新規,0,2024-05-31,2024-05-31,株式会社東錦ワールド,,株式会社,東京都,江東区,清澄２丁目１１番１２号,,13,108,1350024,,,,,,,2024-05-31,1,,,,,トウキンワールド,0
1861,8011001162218,新規,0,2024-05-31,2024-05-31,株式会社ＵＮ＆Ｃｏ．,,株式会社,東京都,渋谷区,渋谷３丁目２７番１号１００ＢＡＮＣＨ２階,,13,113,1500002,,,,,,,2024-05-31,1,,,,,ウンアンドコー,0
1862,8011001162283,新規,0,2024-05-31,2024-05-31,ギョータク株式会社,,株式会社,東京都,渋谷区,道玄坂１丁目１０番８号渋谷道玄坂東急ビル２Ｆ－Ｃ,,13,113,1500043,,,,,,,2024-05-31,1,,,,,ギョータク,0
1863,8011001162291,新規,0,2024-05-31,2024-05-31,ダイニングラボ株式会社,,株式会社,東京都,渋谷区,本町１丁目１５－３,,13,113,1510071,,,,,,,2024-05-31,1,,,,,ダイニングラボ,0
1864,8011001162309,新規,0,2024-05-31,2024-05-31,株式会社ＨＯＵＳＥ　ＯＦ　ＤＡＴＡ,,株式会社,東京都,渋谷区,広尾５丁目２３番３－１２０１号ミリアレジデンス広尾,,13,113,1500012,,,,,,,2024-05-31,1,,,,,ハウスオブデータ,0
1865,8011001162333,新規,0,2024-05-31,2024-05-31,株式会社プラズマ,,株式会社,東京都,渋谷区,恵比寿西２丁目４番８号ウィンド恵比寿ビル８Ｆ,,13,113,1500021,,,,,,,2024-05-31,1,,,,,プラズマ,0
1866,8011001162341,新規,0,2024-05-31,2024-05-31,株式会社モナミアンドケイコンサルティング,,株式会社,東京都,目黒区,南２丁目１０番２号,,13,110,1520013,,,,,,,2024-05-31,1,,,,,モナミアンドケイコンサルティング,0
1867,8011001162408,新規,0,2024-05-31,2024-05-31,株式会社ＮＳＩ,,株式会社,東京都,目黒区,下目黒２丁目１５番７号,,13,110,1530064,,,,,,,2024-05-31,1,,,,,エヌエスアイ,0
1872,8011005010538,新規,0,2024-05-31,2024-05-31,一般社団法人牛島憲之芸術継承基金,,その他の設立登記法人,東京都,渋谷区,千駄ヶ谷２丁目３４番９号,,13,113,1510051,,,,,,,2024-05-31,1,,,,,ウシジマノリユキゲイジュツケイショウキキン,0
1876,8011101107485,新規,0,2024-05-31,2024-05-31,楽川株式会社,,株式会社,東京都,新宿区,百人町１丁目１８番８号大久保カドビル２階－Ｓ０５号室,,13,104,1690073,,,,,,,2024-05-31,1,,,,,ラクセン,0
1878,8011103014481,新規,0,2024-05-31,2024-05-31,合同会社オフィス秋山,,合同会社,東京都,新宿区,西五軒町６－１０秋山ビル６Ｆ,,13,104,1620812,,,,,,,2024-05-31,1,,,,,オフィスアキヤマ,0
1888,8011601027794,新規,0,2024-05-31,2024-05-31,株式会社ＧＲＯＶＥ,,株式会社,東京都,練馬区,西大泉２丁目６番１６号,,13,120,1780065,,,,,,,2024-05-31,1,,,,,グローブ,0
1889,8011701027331,新規,0,2024-05-31,2024-05-31,バードウイング株式会社,,株式会社,東京都,江戸川区,松島３丁目４番１３号,,13,123,1320031,,,,,,,2024-05-31,1,,,,,バードウイング,0
1895,8012703003007,新規,0,2024-05-31,2024-05-31,ＧＫ合同会社,,合同会社,東京都,東久留米市,下里３丁目１７番１０号山田ビル下里２０３,,13,222,2030043,,,,,,,2024-05-31,1,,,,,ジーケー,0
1896,8012801023220,新規,0,2024-05-31,2024-05-31,株式会社あどおん,,株式会社,東京都,立川市,柴崎町３丁目５番１号,,13,202,1900023,,,,,,,2024-05-31,1,,,,,アドオン,0
1900,8013105001846,新規,0,2024-05-31,2024-05-31,一般社団法人国際茶道華道交流協会,,その他の設立登記法人,東京都,青梅市,長渕二丁目６２０番地２３,,13,205,1980000,,,,,,,2024-05-31,1,,,,,コクサイサドウカドウコウリュウキョウカイ,0
1916,8020001157508,新規,0,2024-05-31,2024-05-31,株式会社ワンウィルホールディングス,,株式会社,神奈川県,横浜市中区,日本大通１５番地横浜朝日会館,,14,104,2310021,,,,,,,2024-05-31,1,,,,,ワンウィルホールディングス,0
1917,8020001157516,新規,0,2024-05-31,2024-05-31,株式会社Ｏ３,,株式会社,神奈川県,川崎市川崎区,南町１５番地３日神パレステージ７０２,,14,131,2100015,,,,,,,2024-05-31,1,,,,,オースリー,0
1919,8020003026248,新規,0,2024-05-31,2024-05-31,合同会社マウンテンズ,,合同会社,神奈川県,横浜市西区,浅間町１丁目４番３号ウィザードビル４０２,,14,103,2200072,,,,,,,2024-05-31,1,,,,,マウンテンズ,0
1920,8020005016429,新規,0,2024-05-31,2024-05-31,一般社団法人Ｍｕｓｕｈｉ,,その他の設立登記法人,神奈川県,横浜市都筑区,東方町６４２番２,,14,118,2240045,,,,,,,2024-05-31,1,,,,,ムスヒ,0
1922,8021001082340,新規,0,2024-05-31,2024-05-31,中沢スムースＰＡ株式会社,,株式会社,神奈川県,藤沢市,遠藤２０２３番１６号,,14,205,2520816,,,,,,,2024-05-31,1,,,,,ナカザワスムースピーエー,0
1938,8030001160642,新規,0,2024-05-31,2024-05-31,株式会社Ｙｏｕｔｉｌｉｔｙ,,株式会社,埼玉県,幸手市,東２丁目３７番３０号,,11,240,3400114,,,,,,,2024-05-31,1,,,,,ユーティリティ,0
1939,8030001160650,新規,0,2024-05-31,2024-05-31,ＪＸ未来株式会社,,株式会社,埼玉県,川口市,川口４丁目１１番２号川口ハイツ９１１,,11,203,3320015,,,,,,,2024-05-31,1,,,,,ジェイエックスミライ,0
1940,8030001160659,新規,0,2024-05-31,2024-05-31,Ｘ＆Ｙ株式会社,,株式会社,埼玉県,川口市,西川口１丁目６番１号小野田ビル８０１号,,11,203,3320021,,,,,,,2024-05-31,1,,,,,エックスアンドワイ,0
1942,8030003024408,新規,0,2024-05-31,2024-05-31,合同会社かくたす編集室,,合同会社,埼玉県,さいたま市大宮区,桜木町４丁目６８７－４,,11,103,3300854,,,,,,,2024-05-31,1,,,,,カクタスヘンシュウシツ,0
1948,8040001133829,新規,0,2024-05-31,2024-05-31,株式会社Ｌｉｎｏａｉｄ,,株式会社,千葉県,成田市,並木町１６１番地７７,,12,211,2860045,,,,,,,2024-05-31,1,,,,,リノエイド,0
1949,8040001133837,新規,0,2024-05-31,2024-05-31,株式会社ＴＭガーデン,,株式会社,千葉県,富里市,御料９７０番地１３３,,12,233,2860211,,,,,,,2024-05-31,1,,,,,ティーエムガーデン,0
1954,8040003025099,新規,0,2024-05-31,2024-05-31,合同会社エメラルズ,,合同会社,千葉県,船橋市,芝山７丁目３３番１８号,,12,204,2740816,,,,,,,2024-05-31,1,,,,,エメラルズ,0
1955,8040005022417,新規,0,2024-05-31,2024-05-31,一般社団法人鋸山ガイドセンター,,その他の設立登記法人,千葉県,富津市,金谷２１４６番地１,,12,226,2991861,,,,,,,2024-05-31,1,,,,,ノコギリヤマガイドセンター,0
1956,8050001054842,新規,0,2024-05-31,2024-05-31,株式会社犬愛,,株式会社,茨城県,土浦市,生田町４番３４号２Ｆ,,08,203,3000047,,,,,,,2024-05-31,1,,,,,イヌアイ,0
1964,8080103003075,新規,0,2024-05-31,2024-05-31,合同会社Ｊ‐ｕｎｉｔｅ,,合同会社,静岡県,沼津市,下香貫清水２１４１－５,,22,203,4100822,,,,,,,2024-05-31,1,,,,,ジェーユナイト,0
1980,8120001265507,新規,0,2024-05-31,2024-05-31,株式会社ＴＥＰ,,株式会社,大阪府,寝屋川市,新家１丁目２３番１－１号,,27,215,5720812,,,,,,,2024-05-31,1,,,,,テップ,0
1983,8120003026741,新規,0,2024-05-31,2024-05-31,合同会社ファシリトレード,,合同会社,大阪府,大阪市北区,梅田１丁目２番２号大阪駅前第２ビル１２－１２,,27,127,5300001,,,,,,,2024-05-31,1,,,,,ファシリトレード,0
1984,8120101069667,新規,0,2024-05-31,2024-05-31,株式会社大和,,株式会社,大阪府,堺市西区,浜寺昭和町２丁２３１番地５,,27,144,5928345,,,,,,,2024-05-31,1,,,,,ヤマト,0
1993,8140001134602,新規,0,2024-05-31,2024-05-31,株式会社ＡＩ保険コンサルティング,,株式会社,兵庫県,西宮市,二見町４番２１－３０１号,,28,204,6638111,,,,,,,2024-05-31,1,,,,,エーアイホケンコンサルティング,0
1995,8160001025956,新規,0,2024-05-31,2024-05-31,ブライト株式会社,,株式会社,滋賀県,大津市,瀬田３丁目３番３３号,,25,201,5202134,,,,,,,2024-05-31,1,,,,,ブライト,0
1996,8160001025964,新規,0,2024-05-31,2024-05-31,株式会社ＣＰＯ,,株式会社,滋賀県,守山市,立入町３３４番地の１,,25,207,5240031,,,,,,,2024-05-31,1,,,,,シーピーオー,0
2021,8290001105976,新規,0,2024-05-31,2024-05-31,愛樹グローバル株式会社,,株式会社,福岡県,福岡市西区,横浜２丁目２８番６号,,40,135,8190166,,,,,,,2024-05-31,1,,,,,アイジュグローバル,0
2023,8290003015364,新規,0,2024-05-31,2024-05-31,合同会社ｖｅｒｄｅ,,合同会社,福岡県,福岡市中央区,清川２丁目１１番３－１１１０号ロイヤル天神南２００,,40,133,8100005,,,,,,,2024-05-31,1,,,,,ヴェルデ,0
2028,8340003004493,新規,0,2024-05-31,2024-05-31,合同会社色彩,,合同会社,鹿児島県,鹿屋市,新生町８７５９番地１県営パークヒルズ鹿屋団地３４号,,46,203,8930062,,,,,,,2024-05-31,1,,,,,シキサイ,0
2029,8340005009739,新規,0,2024-05-31,2024-05-31,一般社団法人イイタバ沖永良部,,その他の設立登記法人,鹿児島県,大島郡知名町,大字屋者１００７－２,,46,534,8919202,,,,,,,2024-05-31,1,,,,,イイタバオキノエラブ,0
2030,8350001018981,新規,0,2024-05-31,2024-05-31,株式会社生活スタイル工房,,株式会社,宮崎県,児湯郡高鍋町,大字北高鍋１２５４番地３,,45,401,8840002,,,,,,,2024-05-31,1,,,,,,0
2032,8360003014029,新規,0,2024-05-31,2024-05-31,合同会社しんめ,,合同会社,沖縄県,国頭郡今帰仁村,字諸志７９番地,,47,306,9050426,,,,,,,2024-05-31,1,,,,,シンメ,0
2046,8430003016372,新規,0,2024-05-31,2024-05-31,合同会社ＰＧ２　Ｅｎｔｅｒｔａｉｎｍｅｎｔ,,合同会社,北海道,札幌市西区,琴似二条６丁目２－２６－２０１,,01,107,0630812,,,,,,,2024-05-31,1,,,,,ピージーツーエンターテインメント,0
2051,8490001010784,新規,0,2024-05-31,2024-05-31,宝産業株式会社,,株式会社,高知県,高知市,東城山町１６番地３,,39,201,7808036,,,,,,,2024-05-31,1,,,,,タカラサンギョウ,0
2052,8500001025665,新規,0,2024-05-31,2024-05-31,株式会社ＧＯＯＤＳＨＯＴ　ＪＡＰＡＮ,,株式会社,愛媛県,松山市,和田甲３７８番地９８カーサアルマーレ７号,,38,201,7992465,,,,,,,2024-05-31,1,,,,,グッドショットジャパン,0
2057,9010001245270,新規,0,2024-05-31,2024-05-31,株式会社福住商事,,株式会社,東京都,文京区,小石川１丁目５番１号パークコート文京小石川ザタワー１３１１号,,13,105,1120002,,,,,,,2024-05-31,1,,,,,フクズミショウジ,0
2058,9010001245295,新規,0,2024-05-31,2024-05-31,ストロベリーヒル株式会社,,株式会社,東京都,千代田区,丸の内１丁目８番３号,,13,101,1000005,,,,,,,2024-05-31,1,,,,,ストロベリーヒル,0
2059,9010001245320,新規,0,2024-05-31,2024-05-31,株式会社グラシアス,,株式会社,東京都,中央区,佃２丁目１１－６,,13,102,1040051,,,,,,,2024-05-31,1,,,,,グラシアス,0
2060,9010001245361,新規,0,2024-05-31,2024-05-31,ヒラソル電設株式会社,,株式会社,東京都,文京区,本郷７丁目３番地１号,,13,105,1130033,,,,,,,2024-05-31,1,,,,,ヒラソルデンセツ,0
2062,9010003043887,新規,0,2024-05-31,2024-05-31,合同会社コールドブリッジ２号,,合同会社,東京都,中央区,日本橋１丁目４番１号,,13,102,1030027,,,,,,,2024-05-31,1,,,,,コールドブリッジニゴウ,0
2063,9010003043895,新規,0,2024-05-31,2024-05-31,サステナブルローンファンド２５号合同会社,,合同会社,東京都,中央区,京橋２丁目１２番６号ＡＯＪ税理士法人内,,13,102,1040031,,,,,,,2024-05-31,1,,,,,サステナブルローンファンドニジュウゴゴウ,0
2068,9010101016167,新規,0,2024-05-31,2024-05-31,株式会社ｅｍｒｉｎａ,,株式会社,東京都,八王子市,東町１番１０号グランデハイツ八王子８０１号,,13,201,1920082,,,,,,,2024-05-31,1,,,,,イムリナ,0
2083,9010403032655,新規,0,2024-05-31,2024-05-31,合同会社かけるアート,,合同会社,東京都,港区,南青山３丁目３－３,,13,103,1070062,,,,,,,2024-05-31,1,,,,,,0
2084,9010403032721,新規,0,2024-05-31,2024-05-31,Ｇｏｒｄｏｎ１合同会社,,合同会社,東京都,港区,新橋３丁目３番１３号ＴｓａｏＨｉｂｉｙａ９階,,13,103,1050004,,,,,,,2024-05-31,1,,,,,ゴードンワン,0
2085,9010405023256,新規,0,2024-05-31,2024-05-31,一般社団法人栄養健康カウンセラー協会,,その他の設立登記法人,東京都,港区,北青山１丁目３番１号アールキューブ青山３階,,13,103,1070061,,,,,,,2024-05-31,1,,,,,エイヨウケンコウカウンセラーキョウカイ,0
2086,9010405023264,新規,0,2024-05-31,2024-05-31,一般社団法人Ｒｅ‐ｃｅｌｌｆ,,その他の設立登記法人,東京都,港区,赤坂６丁目８番２－８０２号,,13,103,1070052,,,,,,,2024-05-31,1,,,,,リセルフ,0
2092,9010601065309,新規,0,2024-05-31,2024-05-31,株式会社エムラルド,,株式会社,東京都,江東区,大島７丁目３９番１５号,,13,108,1360072,,,,,,,2024-05-31,1,,,,,エムラルド,0
2094,9010701046084,新規,0,2024-05-31,2024-05-31,株式会社ブルーラグーン,,株式会社,東京都,品川区,西五反田３丁目３番２号プラウドタワー目黒ＭＡＲＣ３１０１,,13,109,1410031,,,,,,,2024-05-31,1,,,,,ブルーラグーン,0
2099,9010901055397,新規,0,2024-05-31,2024-05-31,株式会社神永屋,,株式会社,東京都,世田谷区,三宿１丁目２２番１０号Ｔフラット１０１,,13,112,1540005,,,,,,,2024-05-31,1,,,,,カミナガヤ,0
2108,9011001162150,新規,0,2024-05-31,2024-05-31,株式会社ＨＡＴＳＵＫＩ,,株式会社,東京都,目黒区,下目黒３丁目７番８－３０４号ガラ・ステージ目黒,,13,110,1530064,,,,,,,2024-05-31,1,,,,,ハツキ,0
2109,9011001162308,新規,0,2024-05-31,2024-05-31,株式会社Ｋａｙａ,,株式会社,東京都,目黒区,下目黒１丁目１番１４号,,13,110,1530064,,,,,,,2024-05-31,1,,,,,カヤ,0
2110,9011001162349,新規,0,2024-05-31,2024-05-31,株式会社ＤＥＣＩＤＥＳ,,株式会社,東京都,渋谷区,道玄坂１丁目１０番８号渋谷道玄坂東急ビル２Ｆ－Ｃ,,13,113,1500043,,,,,,,2024-05-31,1,,,,,,0
2112,9011003019290,新規,0,2024-05-31,2024-05-31,ＡＤＡＭ合同会社,,合同会社,東京都,目黒区,下目黒１丁目１番１４号コノトラビル７Ｆ,,13,110,1530064,,,,,,,2024-05-31,1,,,,,アダム,0
2115,9011103014480,新規,0,2024-05-31,2024-05-31,合同会社石川家,,合同会社,東京都,新宿区,中落合１丁目１７番３号２階,,13,104,1610032,,,,,,,2024-05-31,1,,,,,イシカワヤ,0
2116,9011103014489,新規,0,2024-05-31,2024-05-31,合同会社学ぼう言語,,合同会社,東京都,新宿区,新宿１丁目２４番７号ルネ御苑プラザ１１２２号,,13,104,1600022,,,,,,,2024-05-31,1,,,,,マナボウゲンゴ,0
2120,9011501030732,新規,0,2024-05-31,2024-05-31,利楽株式会社,,株式会社,東京都,荒川区,町屋４丁目１８－９ＶｉｌｌａＡｎｇｅ１０５号室,,13,118,1160001,,,,,,,2024-05-31,1,,,,,リラク,0
2121,9011601027793,新規,0,2024-05-31,2024-05-31,３Ｘ４ジェネティクス株式会社,,株式会社,東京都,練馬区,羽沢１丁目６番１５号,,13,120,1760003,,,,,,,2024-05-31,1,,,,,スリーエックスフォージェネティクス,0
2123,9011801044184,新規,0,2024-05-31,2024-05-31,株式会社Ｓｕｐｅｒｈｉｉ,,株式会社,東京都,葛飾区,高砂１丁目２５－３,,13,122,1250054,,,,,,,2024-05-31,1,,,,,スーパーハイ,0
2124,9011801044291,新規,0,2024-05-31,2024-05-31,株式会社ＡＢＣＲｅｓｃｕｅ,,株式会社,東京都,足立区,大谷田４丁目８番１３号,,13,121,1200001,,,,,,,2024-05-31,1,,,,,エービーシーレスキュー,0
2137,9020001157382,新規,0,2024-05-31,2024-05-31,ｍｉｌｅ株式会社,,株式会社,神奈川県,横浜市神奈川区,金港町５番地１４クアドリフォリオ８階,,14,102,2210056,,,,,,,2024-05-31,1,,,,,マイル,0
2140,9020003026222,新規,0,2024-05-31,2024-05-31,合同会社紅葉,,合同会社,神奈川県,横浜市中区,豆口台１７９－３,,14,104,2310838,,,,,,,2024-05-31,1,,,,,モミジ,0
2141,9020003026239,新規,0,2024-05-31,2024-05-31,合同会社ＮＹＡＡホールディング,,合同会社,神奈川県,横浜市中区,相生町４丁目７０番２号ライズビル４階,,14,104,2310012,,,,,,,2024-05-31,1,,,,,エヌワイエーエーホールディング,0
2156,9030001160633,新規,0,2024-05-31,2024-05-31,北彩楽農株式会社,,株式会社,埼玉県,加須市,松永新田１８８番地,,11,210,3491141,,,,,,,2024-05-31,1,,,,,ホクサイラクノウ,0
2157,9030001160658,新規,0,2024-05-31,2024-05-31,株式会社匡ホーム,,株式会社,埼玉県,さいたま市南区,南浦和２丁目４番９号２Ｆ,,11,108,3360017,,,,,,,2024-05-31,1,,,,,タクミホーム,0
2158,9030001160666,新規,0,2024-05-31,2024-05-31,株式会社リフィックス,,株式会社,埼玉県,狭山市,富士見２丁目２６番２９号ホワイト富士見１０１,,11,215,3501306,,,,,,,2024-05-31,1,,,,,リフィックス,0
2180,9070001041796,新規,0,2024-05-31,2024-05-31,株式会社マシンプラザグローバル,,株式会社,群馬県,館林市,赤生田本町３８３１番地２,,10,207,3740014,,,,,,,2024-05-31,1,,,,,マシンプラザグローバル,0
2181,9070001041805,新規,0,2024-05-31,2024-05-31,アトラクトサポート株式会社,,株式会社,群馬県,太田市,東本町３４番１２号,,10,205,3730026,,,,,,,2024-05-31,1,,,,,アトラクトサポート,0
2184,9080003003216,新規,0,2024-05-31,2024-05-31,強盛商事合同会社,,合同会社,静岡県,静岡市清水区,三保６５３番地の２２,,22,103,4240901,,,,,,,2024-05-31,1,,,,,キョウセイショウジ,0
2187,9100002039373,新規,0,2024-05-31,2024-05-31,有限会社南通公司,,有限会社,長野県,北安曇郡白馬村,大字神城５７６３番地３２,,20,485,3999211,,,,,,,2024-05-31,1,,,,,ナンツウコウシ,0
2196,9120001265431,新規,0,2024-05-31,2024-05-31,株式会社ＧＯ‐ＳＥｉ,,株式会社,大阪府,門真市,元町２４番６号,,27,223,5710057,,,,,,,2024-05-31,1,,,,,ゴーセイ,0
2198,9120003026732,新規,0,2024-05-31,2024-05-31,合同会社ＫＴ,,合同会社,大阪府,大阪市浪速区,浪速東１丁目４番８号１Ｆ,,27,111,5560025,,,,,,,2024-05-31,1,,,,,ケーティー,0
2201,9120101069633,新規,0,2024-05-31,2024-05-31,中旭麗華株式会社,,株式会社,大阪府,泉佐野市,南中安松７３２番地１,,27,213,5980033,,,,,,,2024-05-31,1,,,,,ジュウキョクレイカ,0
2202,9120101069674,新規,0,2024-05-31,2024-05-31,株式会社グローバルイノベート,,株式会社,大阪府,松原市,大堀２丁目１２番９号,,27,217,5800006,,,,,,,2024-05-31,1,,,,,グローバルイノベート,0
2203,9120101069682,新規,0,2024-05-31,2024-05-31,五月測量株式会社,,株式会社,大阪府,堺市中区,毛穴町４３１番地７４,,27,142,5998266,,,,,,,2024-05-31,1,,,,,サツキソクリョウ,0
2204,9120101069690,新規,0,2024-05-31,2024-05-31,株式会社オレゴニアン,,株式会社,大阪府,岸和田市,土生町２２８６番地,,27,202,5960825,,,,,,,2024-05-31,1,,,,,オレゴニアン,0
2212,9130001077157,新規,0,2024-05-31,2024-05-31,株式会社ｊａｐａｎ,,株式会社,京都府,京都市中京区,堀川通蛸薬師下る宮本町７９９番地３,,26,104,6040000,,,,,,,2024-05-31,1,,,,,ジャパン,0
2213,9130001077173,新規,0,2024-05-31,2024-05-31,株式会社さくらこまち,,株式会社,京都府,向日市,物集女町中海道２２番地の７,,26,208,6170001,,,,,,,2024-05-31,1,,,,,サクラコマチ,0
2214,9130001077181,新規,0,2024-05-31,2024-05-31,株式会社Ｒｅｔｕｒｎ,,株式会社,京都府,宇治市,宇治里尻８２番地の３,,26,204,6110021,,,,,,,2024-05-31,1,,,,,リターン,0
2216,9130003009604,新規,0,2024-05-31,2024-05-31,合同会社Ｏｃｔｏｂｏｎｅ,,合同会社,京都府,京都市右京区,太秦馬塚町１７番地５ラフィナット馬塚ＡＮＮＥＸ１０１,00134978,26,108,6160000,,,,,,,2024-05-31,1,,,,,オクトボーン,0
2227,9150003003274,新規,0,2024-05-31,2024-05-31,ＹＡＭＡＴＯ　ＥＳＴＡＴＥ合同会社,,合同会社,奈良県,奈良市,北半田中町２２番地,,29,201,6308275,,,,,,,2024-05-31,1,,,,,ヤマトエステート,0
2239,9180003026859,新規,0,2024-05-31,2024-05-31,ＳＸＰＩ合同会社,,合同会社,愛知県,名古屋市東区,東桜２丁目１２番８号ＴＩビル,,23,102,4610005,,,,,,,2024-05-31,1,,,,,エスエックスピーアイ,0
2240,9180003026867,新規,0,2024-05-31,2024-05-31,合同会社ＫＳＡＭ,,合同会社,愛知県,名古屋市千種区,日岡町１丁目４０番地の１,,23,101,4640834,,,,,,,2024-05-31,1,,,,,ケーエスエーエム,0
2251,9240001063303,新規,0,2024-05-31,2024-05-31,株式会社Ｓｍｉｌｅｉ,,株式会社,広島県,山県郡北広島町,有間８９７番地,,34,369,7311503,,,,,,,2024-05-31,1,,,,,スミレイ,0
2284,9290803004739,新規,0,2024-05-31,2024-05-31,合同会社ＤｏＮｏｗ,,合同会社,福岡県,北九州市八幡西区,楠橋南１丁目７番２０号,,40,109,8071143,,,,,,,2024-05-31,1,,,,,ドゥナウ,0
2285,9300003002129,新規,0,2024-05-31,2024-05-31,合同会社Ｈｕｋｕ,,合同会社,佐賀県,唐津市,菜畑３３０９番地３,,41,202,8470844,,,,,,,2024-05-31,1,,,,,フク,0
2289,9340001026530,新規,0,2024-05-31,2024-05-31,株式会社溝川工業,,株式会社,鹿児島県,志布志市,志布志町安楽１９６９番地,,46,221,8997104,,,,,,,2024-05-31,1,,,,,ミゾカワコウギョウ,0
2290,9340001026539,新規,0,2024-05-31,2024-05-31,ＮＩＰＰＯＮ　ＤＩＲＥＣＴ株式会社,,株式会社,鹿児島県,霧島市,隼人町内６５５番地４,,46,218,8995116,,,,,,,2024-05-31,1,,,,,ニッポンダイレクト,0
2292,9350001018980,新規,0,2024-05-31,2024-05-31,株式会社ＳＰＣ,,株式会社,宮崎県,都城市,上町１４街区２１号,,45,202,8850072,,,,,,,2024-05-31,1,,,,,エスピーシー,0
2320,9700150125708,新規,0,2024-05-31,2024-05-31,ＪＶＥ　ＩＩ　Ｉｎｖｅｓｔｍｅｎｔ　Ｈｏｌｄｉｎｇ　Ｐｔｅ．Ｌｔｄ．,00134968,外国会社等,東京都,港区,虎ノ門５丁目１番４号,,13,103,1050001,シンガポール共和国０４８６１６、ラッフルズ・プレイス１、ワン・ラッフルズ・プレイス＃２０－０１,,,,,,2024-05-31,1,,,,,ジエイブイイーツーインベストメントホールデイングプライベートリミテツド,0
