sequenceNumber,corporateNumber,process,correct,updateDate,changeDate,name,nameImageId,kind,prefectureName,cityName,streetNumber,addressImageId,prefectureCode,cityCode,postCode,addressOutside,addressOutsideImageId,closeDate,closeCause,successorCorporateNumber,changeCause,assignmentDate,latest,enName,enPrefectureName,enCityName,enAddressOutside,furigana,hihyoji
13,1010001240733,新規,0,2023-12-14,2023-12-14,株式会社ｖｉｔｉｓ,,株式会社,東京都,中央区,日本橋箱崎町１７－８ノーベルコート箱崎５Ｆ,,13,102,1030015,,,,,,,2023-12-14,1,,,,,ヴィティス,0
14,1010001240808,新規,0,2023-12-14,2023-12-14,株式会社ＬｅｇａｌＳｕｉｔｅ,,株式会社,東京都,中央区,銀座７丁目１５番８号タウンハイツ銀座４０６,,13,102,1040061,,,,,,,2023-12-14,1,,,,,リーガルスイート,0
21,1010003042450,新規,0,2023-12-14,2023-12-14,合同会社Ｄ＆Ｉ　Ｓｏｃｉａｌ　Ｉｎｆｒａ,,合同会社,東京都,千代田区,神田錦町１丁目２１番１号,,13,101,1010054,,,,,,,2023-12-14,1,,,,,ディーアンドアイソーシャルインフラ,0
25,1010101015928,新規,0,2023-12-14,2023-12-14,株式会社スマートシックス,,株式会社,東京都,八王子市,台町４丁目３９－２２リブリＤａｉｍａｃｈｉ２０１号,,13,201,1930931,,,,,,,2023-12-14,1,,,,,スマートシックス,0
29,1010403031565,新規,0,2023-12-14,2023-12-14,ウィンドアセット合同会社,,合同会社,東京都,港区,六本木７丁目１８番６号,,13,103,1060032,,,,,,,2023-12-14,1,,,,,ウィンドアセット,0
30,1010403031581,新規,0,2023-12-14,2023-12-14,合同会社ｆａｎｔａｓｉｓｔａ　ｂａｔｔｅｒｙ１,,合同会社,東京都,港区,赤坂５丁目３番１号,,13,103,1070052,,,,,,,2023-12-14,1,,,,,ファンタジスタバッテリーワン,0
31,1010405022785,新規,0,2023-12-14,2023-12-14,一般社団法人２３３秋葉原,,その他の設立登記法人,東京都,港区,西新橋１丁目２番９号メンターキャピタル税理士法人内,,13,103,1050003,,,,,,,2023-12-14,1,,,,,トゥーハンドレッドサーティスリーアキハバラ,0
32,1010501051507,新規,0,2023-12-14,2023-12-14,後楽貿易株式会社,,株式会社,東京都,台東区,台東２丁目２７番３号ＮＳＫビル１０Ｆ,,13,106,1100016,,,,,,,2023-12-14,1,,,,,コウラクボウエキ,0
33,1010503007250,新規,0,2023-12-14,2023-12-14,合同会社ＡＸＩＡ　ＯＮＥ,,合同会社,東京都,台東区,蔵前２丁目９番１２－１４０３号,,13,106,1110051,,,,,,,2023-12-14,1,,,,,アクシアワン,0
35,1010601064342,新規,0,2023-12-14,2023-12-14,株式会社協育の伴奏者,,株式会社,東京都,江東区,有明３丁目７番２６号有明フロンティアビルＢ棟９階,,13,108,1350063,,,,,,,2023-12-14,1,,,,,キョウイクノアカンパニスト,0
37,1010701045267,新規,0,2023-12-14,2023-12-14,株式会社ＵＭＡ,,株式会社,東京都,品川区,大崎５丁目８－５グリーンプラザ五反田第二２１４号室,,13,109,1410032,,,,,,,2023-12-14,1,,,,,ユーエムエー,0
39,1010801034599,新規,0,2023-12-14,2023-12-14,株式会社大木崇稔建築設計事務所,,株式会社,東京都,大田区,田園調布１丁目３０－９,,13,111,1450071,,,,,,,2023-12-14,1,,,,,オオキタカトシケンチクセッケイジムショ,0
43,1010901054324,新規,0,2023-12-14,2023-12-14,ＯＡＫＳ株式会社,,株式会社,東京都,世田谷区,給田４丁目２２番１５－１０５号,,13,112,1570064,,,,,,,2023-12-14,1,,,,,オークス,0
46,1011001158841,新規,0,2023-12-14,2023-12-14,株式会社ぽちっと,,株式会社,東京都,渋谷区,恵比寿西２丁目８番４号ＥＸ恵比寿西ビル５階,,13,113,1500021,,,,,,,2023-12-14,1,,,,,ポチット,0
47,1011003018127,新規,0,2023-12-14,2023-12-14,合同会社ソウルグッド,,合同会社,東京都,渋谷区,道玄坂１丁目１０番８号渋谷道玄坂東急ビル２Ｆ－Ｃ,,13,113,1500043,,,,,,,2023-12-14,1,,,,,ソウルグッド,0
48,1011005010313,新規,0,2023-12-14,2023-12-14,一般社団法人ハンガリー文庫,,その他の設立登記法人,東京都,渋谷区,渋谷３丁目５番１号渋谷グランドハイツ４０４,,13,113,1500002,,,,,,,2023-12-14,1,,,,,ハンガリーブンコ,0
56,1011101105495,新規,0,2023-12-14,2023-12-14,株式会社遊源パートナーズ,,株式会社,東京都,新宿区,西新宿３丁目３番１３号西新宿水間ビル２Ｆ,,13,104,1600023,,,,,,,2023-12-14,1,,,,,ユウゲンパートナーズ,0
57,1011201025107,新規,0,2023-12-14,2023-12-14,ｉｎｓｅｌｍｉ株式会社,,株式会社,東京都,中野区,若宮２丁目５番２０－１０３号,,13,114,1650033,,,,,,,2023-12-14,1,,,,,インセルミ,0
64,1011501030046,新規,0,2023-12-14,2023-12-14,Ａｚｕｒｅ株式会社,,株式会社,東京都,荒川区,南千住３丁目２７－２浅草ビル５０８,,13,118,1160003,,,,,,,2023-12-14,1,,,,,アズール,0
65,1011601027371,新規,0,2023-12-14,2023-12-14,株式会社櫻井,,株式会社,東京都,練馬区,田柄２丁目５１番１４号,,13,120,1790073,,,,,,,2023-12-14,1,,,,,サクライ,0
73,1013301051759,新規,0,2023-12-14,2023-12-14,盛裕国際株式会社,,株式会社,東京都,豊島区,北大塚３丁目３４番１号ＤＴビル９Ｆ,,13,116,1700004,,,,,,,2023-12-14,1,,,,,セイユウコクサイ,0
82,1020001154916,新規,0,2023-12-14,2023-12-14,Ｋ‐ａｓｓｉｓｔ株式会社,,株式会社,神奈川県,横浜市中区,本牧元町３５番１号サングレイス本牧元町１０４号,,14,104,2310822,,,,,,,2023-12-14,1,,,,,ケーアシスト,0
86,1020003025173,新規,0,2023-12-14,2023-12-14,ＭＶＩＣ合同会社,,合同会社,神奈川県,川崎市宮前区,犬蔵２丁目１３番５３号,,14,136,2160011,,,,,,,2023-12-14,1,,,,,エムブイアイシー,0
87,1020005016220,新規,0,2023-12-14,2023-12-14,一般社団法人横浜竹林研究所,,その他の設立登記法人,神奈川県,横浜市港北区,篠原町１４１０番地１,,14,109,2220026,,,,,,,2023-12-14,1,,,,,ヨコハマチクリンケンキュウジョ,0
92,1021001080961,新規,0,2023-12-14,2023-12-14,株式会社サード．アイ,,株式会社,神奈川県,平塚市,徳延６０２番地の５,,14,203,2540902,,,,,,,2023-12-14,1,,,,,,0
101,1030001157612,新規,0,2023-12-14,2023-12-14,株式会社エンリキ,,株式会社,埼玉県,川越市,大字寺尾２１３番地６（レジデンス中野Ｂ棟１０２号室）,,11,201,3501141,,,,,,,2023-12-14,1,,,,,エンリキ,0
102,1030001157637,新規,0,2023-12-14,2023-12-14,株式会社幸福建設,,株式会社,埼玉県,日高市,大字中沢６２４番地２,,11,242,3501226,,,,,,,2023-12-14,1,,,,,コウフクケンセツ,0
103,1030001157653,新規,0,2023-12-14,2023-12-14,株式会社Ｋａｚｕ　Ｐｕｒｏｓａｎｇｕｅ,,株式会社,埼玉県,三郷市,彦成３丁目３８９番地３,,11,237,3410003,,,,,,,2023-12-14,1,,,,,カズプロサングエ,0
104,1030001157661,新規,0,2023-12-14,2023-12-14,株式会社サイオウ,,株式会社,埼玉県,川口市,芝新町６－２１清和ハイツ２０１,,11,203,3330851,,,,,,,2023-12-14,1,,,,,サイオウ,0
105,1030001157703,新規,0,2023-12-14,2023-12-14,株式会社ＶｉｒｔｕａｌＷｅｂ,,株式会社,埼玉県,さいたま市見沼区,大字蓮沼１０３４番地１３,,11,104,3370015,,,,,,,2023-12-14,1,,,,,ヴァーチャルウェブ,0
115,1040001131302,新規,0,2023-12-14,2023-12-14,株式会社旬,,株式会社,千葉県,木更津市,真舟５丁目１５番１９号,,12,206,2920802,,,,,,,2023-12-14,1,,,,,シュン,0
116,1040001131310,新規,0,2023-12-14,2023-12-14,株式会社ＹＭＤ,,株式会社,千葉県,船橋市,本町６丁目２番１０－９１０号,,12,204,2730005,,,,,,,2023-12-14,1,,,,,ワイエムディー,0
117,1040001131319,新規,0,2023-12-14,2023-12-14,ＫＯＵＳＥＩ株式会社,,株式会社,千葉県,香取市,観音９７６番地１,,12,236,2870036,,,,,,,2023-12-14,1,,,,,コウセイ,0
118,1040001131327,新規,0,2023-12-14,2023-12-14,株式会社海老原工業,,株式会社,千葉県,船橋市,二和東３丁目２４番３６号,,12,204,2740805,,,,,,,2023-12-14,1,,,,,エビハラコウギョウ,0
125,1040003023885,新規,0,2023-12-14,2023-12-14,ＩＭＨＳ合同会社,,合同会社,千葉県,いすみ市,深堀３６０番地３,,12,238,2980003,,,,,,,2023-12-14,1,,,,,アイエムエイチエス,0
127,1050001053966,新規,0,2023-12-14,2023-12-14,株式会社ゴムノキ,,株式会社,茨城県,つくば市,二の宮１丁目２番地２,,08,220,3050051,,,,,,,2023-12-14,1,,,,,ゴムノキ,0
141,1080101024402,新規,0,2023-12-14,2023-12-14,株式会社エヌエスアセットマネジメント,,株式会社,静岡県,富士市,青島町２２８番地２Ｆ,,22,210,4170047,,,,,,,2023-12-14,1,,,,,エヌエスアセットマネジメント,0
143,1080401026890,新規,0,2023-12-14,2023-12-14,株式会社ＳＰインターナショナル,,株式会社,静岡県,御前崎市,御前崎２７番地の２１,,22,223,4371621,,,,,,,2023-12-14,1,,,,,エスピーインターナショナル,0
146,1100001037055,新規,0,2023-12-14,2023-12-14,株式会社ＭＯＲＩグループ幼医研,,株式会社,長野県,千曲市,大字戸倉１８６６番地１,,20,218,3890804,,,,,,,2023-12-14,1,,,,,モリグループヨウイケン,0
147,1100003007312,新規,0,2023-12-14,2023-12-14,大豆島自動車合同会社,,合同会社,長野県,長野市,小島田町８０３番地５,,20,201,3812212,,,,,,,2023-12-14,1,,,,,マメジマジドウシャ,0
148,1110001038036,新規,0,2023-12-14,2023-12-14,株式会社ＴＬＦ,,株式会社,新潟県,新潟市中央区,東大通２丁目３番２３号道頓堀ビル３階,,15,103,9500087,,,,,,,2023-12-14,1,,,,,ティーエルエフ,0
160,1120001260613,新規,0,2023-12-14,2023-12-14,大豊株式会社,,株式会社,大阪府,交野市,私市６丁目３０番７号,,27,230,5760033,,,,,,,2023-12-14,1,,,,,タイホウ,0
161,1120001260670,新規,0,2023-12-14,2023-12-14,株式会社Ｔｏｂｏｒｕ,,株式会社,大阪府,大阪市浪速区,難波中２丁目６番１２号サウスポイントビル２階,,27,111,5560011,,,,,,,2023-12-14,1,,,,,トボル,0
165,1120005024048,新規,0,2023-12-14,2023-12-14,弁護士法人エヴィス法律会計事務所,,その他の設立登記法人,大阪府,大阪市中央区,高麗橋４丁目３番７号北ビル４階,,27,128,5410043,,,,,,,2023-12-14,1,,,,,エヴィスホウリツカイケイジムショ,0
167,1120103005528,新規,0,2023-12-14,2023-12-14,エルドラド合同会社,,合同会社,大阪府,堺市北区,百舌鳥本町３丁３６５－６,,27,146,5918036,,,,,,,2023-12-14,1,,,,,エルドラド,0
170,1120905006541,新規,0,2023-12-14,2023-12-14,一般社団法人ＳＫトラストパートナーズ,,その他の設立登記法人,大阪府,豊中市,新千里東町１丁目１番２－４１０６号,,27,203,5600082,,,,,,,2023-12-14,1,,,,,エスケイトラストパートナーズ,0
171,1122003002753,新規,0,2023-12-14,2023-12-14,Ｈ・Ｓ・Ｔ合同会社,,合同会社,大阪府,八尾市,佐堂町１丁目３番２－５０２号,,27,212,5810816,,,,,,,2023-12-14,1,,,,,エイチエスティ,0
176,1140001132645,新規,0,2023-12-14,2023-12-14,株式会社温故知新,,株式会社,兵庫県,神戸市灘区,鶴甲１丁目５番３－３０５号,,28,102,6570011,,,,,,,2023-12-14,1,,,,,オンコチシン,0
177,1140001132653,新規,0,2023-12-14,2023-12-14,株式会社アベニールホームズ,,株式会社,兵庫県,西宮市,甲子園口北町２７番１９号アベニール甲子園口北町１０３,,28,204,6638112,,,,,,,2023-12-14,1,,,,,アベニールホームズ,0
178,1140001132661,新規,0,2023-12-14,2023-12-14,株式会社姫路産業,,株式会社,兵庫県,姫路市,勝原区宮田７８２番地２,,28,201,6711213,,,,,,,2023-12-14,1,,,,,ヒメジサンギョウ,0
180,1150003003141,新規,0,2023-12-14,2023-12-14,Ｓｏｃｉｅｔｙ合同会社,,合同会社,奈良県,奈良市,六条西３丁目６番１９号,,29,201,6308044,,,,,,,2023-12-14,1,,,,,ソサエティ,0
184,1160001025566,新規,0,2023-12-14,2023-12-14,株式会社ココドライブ,,株式会社,滋賀県,東近江市,布施町１１４０番地２,,25,213,5270081,,,,,,,2023-12-14,1,,,,,ココドライブ,0
195,1180001159370,新規,0,2023-12-14,2023-12-14,株式会社佐藤,,株式会社,愛知県,瀬戸市,坂上町４３４番地の９,,23,204,4890977,,,,,,,2023-12-14,1,,,,,サトウ,0
199,1180003026107,新規,0,2023-12-14,2023-12-14,合同会社ＳＳｌｉｎｋ,,合同会社,愛知県,名古屋市東区,砂田橋４丁目１番５７号,,23,102,4610045,,,,,,,2023-12-14,1,,,,,エスエスリンク,0
200,1180005020454,新規,0,2023-12-14,2023-12-14,特定非営利活動法人スポーツクラブＣＨＩＴＡ,,その他の設立登記法人,愛知県,常滑市,飛香台１丁目１７番地の３８,,23,216,4790868,,,,,,,2023-12-14,1,,,,,スポーツクラブチタ,0
201,1180303005941,新規,0,2023-12-14,2023-12-14,合同会社ゲネプロ,,合同会社,愛知県,岡崎市,滝町字祭り田１０番地１１,,23,202,4443173,,,,,,,2023-12-14,1,,,,,ゲネプロ,0
203,1190003004540,新規,0,2023-12-14,2023-12-14,フリーフル合同会社,,合同会社,三重県,四日市市,生桑町１６３番地１,,24,202,5120911,,,,,,,2023-12-14,1,,,,,フリーフル,0
208,1240003006440,新規,0,2023-12-14,2023-12-14,合同会社ライフスタイルセレクト,,合同会社,広島県,東広島市,西条町寺家４８６５番地２,,34,212,7390041,,,,,,,2023-12-14,1,,,,,ライフスタイルセレクト,0
218,1290001104035,新規,0,2023-12-14,2023-12-14,あすなろベンチャーズ株式会社,,株式会社,福岡県,福岡市博多区,千代４丁目６番３号,,40,132,8120044,,,,,,,2023-12-14,1,,,,,アスナロベンチャーズ,0
219,1290001104051,新規,0,2023-12-14,2023-12-14,株式会社ＰＲＯＤ,,株式会社,福岡県,福岡市中央区,清川１丁目５－１３－１４１２,,40,133,8100005,,,,,,,2023-12-14,1,,,,,プロド,0
226,1320001020187,新規,0,2023-12-14,2023-12-14,株式会社ｅｔｏｉ,,株式会社,大分県,別府市,大字鶴見字下原４２３０番地５３ルーデンス荘園２階,,44,202,8740840,,,,,,,2023-12-14,1,,,,,エトワ,0
233,1370001050717,新規,0,2023-12-14,2023-12-14,株式会社ｔｏｉ　ｅｔ　ｍｏｉ,,株式会社,宮城県,仙台市宮城野区,苦竹１丁目１１番１－１０１５号,,04,102,9830036,,,,,,,2023-12-14,1,,,,,トワエモワ,0
234,1370001050725,新規,0,2023-12-14,2023-12-14,永盛国際株式会社,,株式会社,宮城県,仙台市青葉区,一番町１丁目１２－２星光堂ビル６０４号室,,04,101,9800811,,,,,,,2023-12-14,1,,,,,エイセイコクサイ,0
251,1430001090632,新規,0,2023-12-14,2023-12-14,株式会社ナナズブランドファーム,,株式会社,北海道,札幌市東区,丘珠町６９７番地１,,01,103,0070880,,,,,,,2023-12-14,1,,,,,ナナズブランドファーム,0
252,1430001090657,新規,0,2023-12-14,2023-12-14,四幸コンサルタンツ株式会社,,株式会社,北海道,札幌市東区,北九条東３丁目２番２－２１５号,,01,103,0600909,,,,,,,2023-12-14,1,,,,,シコウコンサルタンツ,0
255,1460101007475,新規,0,2023-12-14,2023-12-14,株式会社ＭＯＶＥ　ＵＰ,,株式会社,北海道,河東郡音更町,字上然別西８線１０４番地２,,01,631,0800575,,,,,,,2023-12-14,1,,,,,ムーブアップ,0
257,1460301005188,新規,0,2023-12-14,2023-12-14,株式会社売主１００パーセント,,株式会社,北海道,北見市,三住町１７番地２,,01,208,0900032,,,,,,,2023-12-14,1,,,,,ウリヌシヒャクパーセント,0
259,1470001019941,新規,0,2023-12-14,2023-12-14,翔耀産業株式会社,,株式会社,香川県,高松市,香西北町４４３番地,,37,201,7618011,,,,,,,2023-12-14,1,,,,,ショウヨウサンギョウ,0
260,1490001010659,新規,0,2023-12-14,2023-12-14,株式会社１６８８,,株式会社,高知県,南国市,里改田１２４８番地１,,39,204,7830082,,,,,,,2023-12-14,1,,,,,イロハヤ,0
265,1500001025366,新規,0,2023-12-14,2023-12-14,Ｄｏｔｓ．株式会社,,株式会社,愛媛県,松山市,北土居５丁目１２番１５号フレグランス宮内１０３号,,38,201,7911104,,,,,,,2023-12-14,1,,,,,ドッツ,0
275,2010003042441,新規,0,2023-12-14,2023-12-14,Ｍ’ｓ　Ｏｋｏｓｈｉｙａｓｕファンド１合同会社,,合同会社,東京都,千代田区,丸の内３丁目１番１号東京共同会計事務所内,,13,101,1000005,,,,,,,2023-12-14,1,,,,,エムズオコシヤスファンドワン,0
276,2010005037638,新規,0,2023-12-14,2023-12-14,一般社団法人サウンドアーカイブスジャパン,,その他の設立登記法人,東京都,文京区,小石川２丁目３番４号,,13,105,1120002,,,,,,,2023-12-14,1,,,,,サウンドアーカイブスジャパン,0
277,2010101015927,新規,0,2023-12-14,2023-12-14,株式会社ドリームウィング,,株式会社,東京都,八王子市,下恩方町１４９３番地２８,,13,201,1920154,,,,,,,2023-12-14,1,,,,,ドリームウィング,0
282,2010401179141,新規,0,2023-12-14,2023-12-14,株式会社ＰＡＤＡ,,株式会社,東京都,港区,南青山３丁目１番３６号青山丸竹ビル６Ｆ,,13,103,1070062,,,,,,,2023-12-14,1,,,,,パダ,0
283,2010401179166,新規,0,2023-12-14,2023-12-14,株式会社Ｕ　Ｋｎｏｗ　Ｇａｍｅｓ,,株式会社,東京都,港区,新橋３丁目１１番８号オーイズミ新橋第２ビル８０２,,13,103,1050004,,,,,,,2023-12-14,1,,,,,ユーノーゲームズ,0
284,2010403031580,新規,0,2023-12-14,2023-12-14,合同会社Ｍｙｓｔｉｃ　Ｍａｋｅｒｓ,,合同会社,東京都,港区,新橋３丁目１１番８号オーイズミ新橋第２ビル８０２,,13,103,1050004,,,,,,,2023-12-14,1,,,,,ミスティックメイカーズ,0
286,2010501051497,新規,0,2023-12-14,2023-12-14,Ｊライフ株式会社,,株式会社,東京都,台東区,東上野３丁目５－８星川ビル４階,,13,106,1100015,,,,,,,2023-12-14,1,,,,,ジェイライフ,0
289,2010701045258,新規,0,2023-12-14,2023-12-14,Ｔ．Ｓ．Ｉ株式会社,,株式会社,東京都,品川区,北品川３丁目１－１パラスト品川８０４号室,,13,109,1400001,,,,,,,2023-12-14,1,,,,,ティエスアイ,0
291,2010903008657,新規,0,2023-12-14,2023-12-14,合同会社ＢｒｉｌｌａｎｔｅＣｏｒｅ,,合同会社,東京都,世田谷区,桜新町２丁目１３番４－３０５号,,13,112,1540015,,,,,,,2023-12-14,1,,,,,ブリランテコア,0
292,2010903008665,新規,0,2023-12-14,2023-12-14,合同会社ＴＯｉ,,合同会社,東京都,世田谷区,代田３丁目１８－５－２０１,,13,112,1550033,,,,,,,2023-12-14,1,,,,,トイ,0
299,2011001158758,新規,0,2023-12-14,2023-12-14,株式会社ＨＡＴＯＲＡ,,株式会社,東京都,目黒区,柿の木坂２丁目２４番２３号,,13,110,1520022,,,,,,,2023-12-14,1,,,,,ハトラ,0
300,2011001158840,新規,0,2023-12-14,2023-12-14,ポータス・コンサルティング株式会社,,株式会社,東京都,渋谷区,渋谷２丁目２１番１号渋谷ヒカリエ３３階,,13,113,1500002,,,,,,,2023-12-14,1,,,,,ポータスコンサルティング,0
302,2011005010312,新規,0,2023-12-14,2023-12-14,一般社団法人美容医療カウンセラー協会,,その他の設立登記法人,東京都,渋谷区,渋谷３丁目６番１６号,,13,113,1500002,,,,,,,2023-12-14,1,,,,,ビヨウイリョウカウンセラーキョウカイ,0
317,2011501030103,新規,0,2023-12-14,2023-12-14,株式会社康永,,株式会社,東京都,北区,豊島７丁目３１番２３号－Ｃ２０７,,13,117,1140003,,,,,,,2023-12-14,1,,,,,コウエイ,0
318,2011501030111,新規,0,2023-12-14,2023-12-14,ＨＫジャパンソリューションズ株式会社,,株式会社,東京都,北区,浮間１丁目１－１４リムジンビル１３３,,13,117,1150051,,,,,,,2023-12-14,1,,,,,エイチケージャパンソリューションズ,0
323,2011703003690,新規,0,2023-12-14,2023-12-14,合同会社ＮＴＳ,,合同会社,東京都,江戸川区,松江５丁目２０番２２号,,13,123,1320025,,,,,,,2023-12-14,1,,,,,エヌティエス,0
325,2011803005991,新規,0,2023-12-14,2023-12-14,合同会社アイワホーム,,合同会社,東京都,足立区,綾瀬５丁目１５番１２－１０１号,,13,121,1200005,,,,,,,2023-12-14,1,,,,,アイワホーム,0
331,2012701017988,新規,0,2023-12-14,2023-12-14,株式会社Ｇｅｒｂｅｒａ,,株式会社,東京都,西東京市,向台町６丁目１１番２号,,13,229,1880013,,,,,,,2023-12-14,1,,,,,ガーベラ,0
333,2012801022822,新規,0,2023-12-14,2023-12-14,株式会社ハイアートラスト,,株式会社,東京都,国分寺市,本多４丁目６番１８号,,13,214,1850011,,,,,,,2023-12-14,1,,,,,ハイアートラスト,0
334,2013301051766,新規,0,2023-12-14,2023-12-14,株式会社てらまど,,株式会社,東京都,豊島区,南池袋１丁目１６番１５号,,13,116,1710022,,,,,,,2023-12-14,1,,,,,テラマド,0
340,2020001154881,新規,0,2023-12-14,2023-12-14,株式会社Ｄｏ　Ｎｕｒｓｉｎｇ,,株式会社,神奈川県,横浜市緑区,寺山町９７番３０２号,,14,113,2260013,,,,,,,2023-12-14,1,,,,,ドゥナーシング,0
341,2020001154907,新規,0,2023-12-14,2023-12-14,吉村工業株式会社,,株式会社,神奈川県,横浜市磯子区,洋光台６丁目８番１１号,,14,107,2350045,,,,,,,2023-12-14,1,,,,,ヨシムラコウギョウ,0
345,2020003025180,新規,0,2023-12-14,2023-12-14,合同会社時在服飾設計,,合同会社,神奈川県,川崎市麻生区,細山３丁目７－１０,,14,137,2150001,,,,,,,2023-12-14,1,,,,,トキアリフクショクセッケイ,0
346,2020003025189,新規,0,2023-12-14,2023-12-14,合同会社飛龍,,合同会社,神奈川県,横浜市磯子区,洋光台３丁目１３番９号,,14,107,2350045,,,,,,,2023-12-14,1,,,,,ヒリュウ,0
353,2021001080952,新規,0,2023-12-14,2023-12-14,株式会社将建,,株式会社,神奈川県,藤沢市,遠藤５０４９番地,,14,205,2520816,,,,,,,2023-12-14,1,,,,,ショウケン,0
354,2021001080960,新規,0,2023-12-14,2023-12-14,株式会社Ｓ‐ＬＩＮＫ,,株式会社,神奈川県,茅ヶ崎市,円蔵２１４５番地,,14,207,2530084,,,,,,,2023-12-14,1,,,,,エスリンク,0
355,2021001080977,新規,0,2023-12-14,2023-12-14,株式会社ＩＭＳＥＰＴ,,株式会社,神奈川県,海老名市,杉久保南５丁目１３－３７,,14,215,2430427,,,,,,,2023-12-14,1,,,,,インセプト,0
356,2021003013902,新規,0,2023-12-14,2023-12-14,合同会社Ｃｌｅａｒ　Ｐａｌｌｅｔ,,合同会社,神奈川県,秦野市,名古木７９７－１,,14,211,2570024,,,,,,,2023-12-14,1,,,,,クリアパレット,0
363,2030001157561,新規,0,2023-12-14,2023-12-14,株式会社ＱＫ,,株式会社,埼玉県,本庄市,児玉町入浅見１１１１番地４３こだまマンション２号棟１０６,,11,211,3670203,,,,,,,2023-12-14,1,,,,,キューケイ,0
364,2030001157644,新規,0,2023-12-14,2023-12-14,株式会社Ｉ　ＣＡＮ　ＤＡＹ,,株式会社,埼玉県,蓮田市,本町４番１１号２Ｆ,,11,238,3490123,,,,,,,2023-12-14,1,,,,,アイキャンデイ,0
365,2030001157693,新規,0,2023-12-14,2023-12-14,モードケア株式会社,,株式会社,埼玉県,入間郡毛呂山町,大字前久保１０９番地２４ベルゴールドビル中井２０３,,11,326,3500442,,,,,,,2023-12-14,1,,,,,モードケア,0
366,2030003023118,新規,0,2023-12-14,2023-12-14,合同会社アクティブイノベーション,,合同会社,埼玉県,さいたま市北区,宮原町３丁目５０番１号１０５号室,,11,102,3310812,,,,,,,2023-12-14,1,,,,,アクティブイノベーション,0
367,2030003023209,新規,0,2023-12-14,2023-12-14,合同会社アップステージ,,合同会社,埼玉県,秩父郡横瀬町,大字横瀬２３７０番地１０,,11,361,3680072,,,,,,,2023-12-14,1,,,,,アップステージ,0
368,2030003023225,新規,0,2023-12-14,2023-12-14,合同会社ライフ・エンハンスメント・メソッズ,,合同会社,埼玉県,川口市,本町４丁目５番８－１１０７号,,11,203,3320012,,,,,,,2023-12-14,1,,,,,ライフエンハンスメントメソッズ,0
369,2030005021499,新規,0,2023-12-14,2023-12-14,一般社団法人キセキ,,その他の設立登記法人,埼玉県,坂戸市,泉町３丁目２０番地４,,11,239,3500231,,,,,,,2023-12-14,1,,,,,キセキ,0
372,2040001131318,新規,0,2023-12-14,2023-12-14,グランゼンコウ株式会社,,株式会社,千葉県,浦安市,猫実４丁目１７番７号,,12,227,2790004,,,,,,,2023-12-14,1,,,,,グランゼンコウ,0
373,2040001131326,新規,0,2023-12-14,2023-12-14,ＹＭＪ株式会社,,株式会社,千葉県,千葉市花見川区,三角町２７５－２ＫＴマンション３０１,,12,102,2620011,,,,,,,2023-12-14,1,,,,,ワイエムジェー,0
374,2040001131334,新規,0,2023-12-14,2023-12-14,株式会社ＹＡＹＯＩ,,株式会社,千葉県,柏市,藤ケ谷１８１４番地３,,12,217,2770931,,,,,,,2023-12-14,1,,,,,ヤヨイ,0
375,2040001131350,新規,0,2023-12-14,2023-12-14,株式会社ＣＲＰ,,株式会社,千葉県,柏市,あけぼの１丁目８番２０号エイム柏１０４号室,,12,217,2770841,,,,,,,2023-12-14,1,,,,,シーアールピー,0
376,2040001131359,新規,0,2023-12-14,2023-12-14,株式会社凱輝,,株式会社,千葉県,大網白里市,上谷新田３８３番地９,,12,239,2993268,,,,,,,2023-12-14,1,,,,,ガイキ,0
383,2060001036614,新規,0,2023-12-14,2023-12-14,株式会社ワラカド,,株式会社,栃木県,小山市,大字下国府塚２５番地１,,09,208,3230065,,,,,,,2023-12-14,1,,,,,ワラカド,0
388,2080103002941,新規,0,2023-12-14,2023-12-14,合同会社山勝,,合同会社,静岡県,賀茂郡西伊豆町,田子１２４４番地の１,,22,306,4103515,,,,,,,2023-12-14,1,,,,,ヤマカツ,0
393,2100001037046,新規,0,2023-12-14,2023-12-14,株式会社はるか,,株式会社,長野県,安曇野市,豊科２６４３番地１２、２Ｆ,,20,220,3998205,,,,,,,2023-12-14,1,,,,,ハルカ,0
394,2100001037054,新規,0,2023-12-14,2023-12-14,関島建工株式会社,,株式会社,長野県,飯田市,鼎名古熊２０００番地,,20,205,3950804,,,,,,,2023-12-14,1,,,,,セキジマケンコウ,0
408,2120001260570,新規,0,2023-12-14,2023-12-14,Ｒｅｂｒａｎｄｉｎｇ　ｅｎｔｅｒｔａｉｎｍｅｎｔ株式会社,,株式会社,大阪府,大阪市西区,南堀江２丁目５番２４－２０８号ＧＡＲＲＥＴ南堀江,,27,106,5500015,,,,,,,2023-12-14,1,,,,,リブランディングエンターテインメント,0
409,2120001260645,新規,0,2023-12-14,2023-12-14,株式会社ＴＥＣＯＴ,,株式会社,大阪府,大阪市平野区,長吉出戸７丁目６番１８号,,27,126,5470011,,,,,,,2023-12-14,1,,,,,テコット,0
410,2120001260653,新規,0,2023-12-14,2023-12-14,株式会社双葉商事,,株式会社,大阪府,大阪市東成区,大今里２丁目９番１５号,,27,115,5370012,,,,,,,2023-12-14,1,,,,,フタバショウジ,0
414,2120005024047,新規,0,2023-12-14,2023-12-14,管理組合法人ベルデフラッツあべの丸山通,,その他の設立登記法人,大阪府,大阪市阿倍野区,丸山通１丁目２番２３号,,27,119,5450042,,,,,,,2023-12-14,1,,,,,ベルデフラッツアベノマルヤマドオリ,0
420,2122003002752,新規,0,2023-12-14,2023-12-14,オカテック合同会社,,合同会社,大阪府,東大阪市,菱屋西３丁目７番１８－１０１号,,27,227,5770807,,,,,,,2023-12-14,1,,,,,オカテック,0
421,2122005003724,新規,0,2023-12-14,2023-12-14,社会保険労務士法人企業労務センター,,その他の設立登記法人,大阪府,東大阪市,小阪本町１丁目１番７号,,27,227,5770802,,,,,,,2023-12-14,1,,,,,キギョウロウムセンター,0
430,2130001075943,新規,0,2023-12-14,2023-12-14,株式会社アポロン,,株式会社,京都府,京都市伏見区,桃山町丹後２９番地１グランツェントＢ－２０３,,26,109,6128018,,,,,,,2023-12-14,1,,,,,アポロン,0
432,2140001132702,新規,0,2023-12-14,2023-12-14,株式会社モアリス,,株式会社,兵庫県,宝塚市,山本台３丁目３番６号,,28,214,6650885,,,,,,,2023-12-14,1,,,,,モアリス,0
435,2150001026944,新規,0,2023-12-14,2023-12-14,株式会社吉岡コーポレーション,,株式会社,奈良県,奈良市,山陵町１１０番地の１２西大寺パークヴィラ１０１号,,29,201,6310803,,,,,,,2023-12-14,1,,,,,ヨシオカコーポレーション,0
443,2180001159312,新規,0,2023-12-14,2023-12-14,株式会社桜春,,株式会社,愛知県,名古屋市西区,中沼町１０２番地－４０５,,23,104,4520845,,,,,,,2023-12-14,1,,,,,オウシュン,0
444,2180001159361,新規,0,2023-12-14,2023-12-14,ｋ２ｙ．株式会社,,株式会社,愛知県,瀬戸市,東拝戸町２７番地１１,,23,204,4890027,,,,,,,2023-12-14,1,,,,,ケーツーワイ,0
452,2220001025732,新規,0,2023-12-14,2023-12-14,株式会社ハマショー,,株式会社,石川県,金沢市,金石東１丁目１番５３号,,17,201,9200335,,,,,,,2023-12-14,1,,,,,ハマショー,0
453,2220003003637,新規,0,2023-12-14,2023-12-14,合同会社ｋａｆｕａ,,合同会社,石川県,加賀市,大聖寺上木町ヘ４６番地１０,,17,206,9220001,,,,,,,2023-12-14,1,,,,,カフア,0
457,2240001062542,新規,0,2023-12-14,2023-12-14,株式会社まみむのイエ,,株式会社,広島県,福山市,鞆町後地１５２６番地２,,34,207,7200202,,,,,,,2023-12-14,1,,,,,マミムノイエ,0
459,2240003006448,新規,0,2023-12-14,2023-12-14,ツチダ合同会社,,合同会社,広島県,竹原市,仁賀町２８１８番地,,34,203,7250005,,,,,,,2023-12-14,1,,,,,ツチダ,0
461,2250001020425,新規,0,2023-12-14,2023-12-14,ＢＤＣ株式会社,,株式会社,山口県,山口市,宮野下２９８７番地１７メルヴェーユ宮野２０２号,,35,203,7530011,,,,,,,2023-12-14,1,,,,,ビーディーシー,0
462,2250001020433,新規,0,2023-12-14,2023-12-14,マルケン株式会社,,株式会社,山口県,防府市,酢貝８番２号,,35,206,7470002,,,,,,,2023-12-14,1,,,,,,0
468,2260003004524,新規,0,2023-12-14,2023-12-14,合同会社ＮｉＫＯ,,合同会社,岡山県,岡山市南区,福富中２丁目１９番１７号,,33,104,7028032,,,,,,,2023-12-14,1,,,,,ニコ,0
478,2290001104042,新規,0,2023-12-14,2023-12-14,株式会社ＶＥＳＴ,,株式会社,福岡県,福岡市西区,小戸４丁目２２番１６号,,40,135,8190001,,,,,,,2023-12-14,1,,,,,ベスト,0
479,2290001104050,新規,0,2023-12-14,2023-12-14,株式会社アンノーン,,株式会社,福岡県,福岡市早良区,田隈３丁目６８番２９－２号,,40,137,8140174,,,,,,,2023-12-14,1,,,,,アンノーン,0
485,2290003014743,新規,0,2023-12-14,2023-12-14,合同会社福,,合同会社,福岡県,福岡市東区,名島１丁目２７番４８－１０３号,,40,131,8130043,,,,,,,2023-12-14,1,,,,,フク,0
487,2290005019220,新規,0,2023-12-14,2023-12-14,弁護士法人岡本綜合法律事務所,,その他の設立登記法人,福岡県,福岡市中央区,天神３丁目３番５号,,40,133,8100001,,,,,,,2023-12-14,1,,,,,オカモトソウゴウホウリツジムショ,0
497,2340001026116,新規,0,2023-12-14,2023-12-14,株式会社薩猿,,株式会社,鹿児島県,霧島市,国分下井１８８７番地１,,46,218,8994463,,,,,,,2023-12-14,1,,,,,サツエン,0
500,2350003004523,新規,0,2023-12-14,2023-12-14,きらきら星合同会社,,合同会社,宮崎県,宮崎市,清水１丁目５番１３号,,45,201,8800021,,,,,,,2023-12-14,1,,,,,キラキラボシ,0
503,2370001050732,新規,0,2023-12-14,2023-12-14,株式会社睦,,株式会社,宮城県,白石市,鷹巣西１丁目６番１９号,,04,206,9890220,,,,,,,2023-12-14,1,,,,,トキ,0
505,2370005010732,新規,0,2023-12-14,2023-12-14,医療法人にこにこ歯科クリニック,,その他の設立登記法人,宮城県,仙台市泉区,南中山１丁目３５－４０イオン仙台中山店２階,,04,105,9813213,,,,,,,2023-12-14,1,,,,,ニコニコシカクリニック,0
509,2380005012777,新規,0,2023-12-14,2023-12-14,協同組合マルチワークスにしあいづ,,その他の設立登記法人,福島県,耶麻郡西会津町,野沢字諏訪西甲１０２３番地,,07,405,9694406,,,,,,,2023-12-14,1,,,,,マルチワークスニシアイヅ,0
517,2430001090631,新規,0,2023-12-14,2023-12-14,株式会社ＳＫメソッド,,株式会社,北海道,札幌市中央区,南十一条西１３丁目１番３２モデナ山鼻８０１,,01,101,0640811,,,,,,,2023-12-14,1,,,,,エスケイメソッド,0
518,2430001090656,新規,0,2023-12-14,2023-12-14,株式会社スリータクト,,株式会社,北海道,札幌市白石区,菊水元町一条４丁目４番５－３０２号,,01,104,0030821,,,,,,,2023-12-14,1,,,,,スリータクト,0
521,2460303000806,新規,0,2023-12-14,2023-12-14,合同会社三楽,,合同会社,北海道,北見市,三楽町７０番地３０,,01,208,0900019,,,,,,,2023-12-14,1,,,,,サンラク,0
523,2470003002531,新規,0,2023-12-14,2023-12-14,合同会社シュリー,,合同会社,香川県,丸亀市,綾歌町岡田西１４３６番地３,,37,202,7612403,,,,,,,2023-12-14,1,,,,,シュリー,0
553,3010001240772,新規,0,2023-12-14,2023-12-14,株式会社ＤＥＴＥＲＭＩＮＡＴＩＯＮ,,株式会社,東京都,中央区,銀座１丁目２２番９号ＳＫビル４階,,13,102,1040061,,,,,,,2023-12-14,1,,,,,デターミネーション,0
554,3010001240839,新規,0,2023-12-14,2023-12-14,株式会社Ｚａｓｈｂｙ,,株式会社,東京都,中央区,日本橋兜町１７－２兜町第６葉山ビル４Ｆ,,13,102,1030026,,,,,,,2023-12-14,1,,,,,ザシュビー,0
560,3010003042416,新規,0,2023-12-14,2023-12-14,アールスリー蓄電所合同会社,,合同会社,東京都,中央区,京橋２丁目２番１号,,13,102,1040031,,,,,,,2023-12-14,1,,,,,アールスリーチクデンショ,0
561,3010005037637,新規,0,2023-12-14,2023-12-14,一般社団法人Ｄ＆Ｉ　Ｓｏｃｉａｌ　Ｉｎｆｒａ,,その他の設立登記法人,東京都,千代田区,神田錦町１丁目２１番１号,,13,101,1010054,,,,,,,2023-12-14,1,,,,,ディーアンドアイソーシャルインフラ,0
564,3010401179124,新規,0,2023-12-14,2023-12-14,株式会社ｍｅｂｕｋｕｒａ,,株式会社,東京都,港区,南青山３丁目１番３６号青山丸竹ビル６Ｆ,,13,103,1070062,,,,,,,2023-12-14,1,,,,,メブクラ,0
565,3010401179140,新規,0,2023-12-14,2023-12-14,株式会社ＣＯＳＭＥＶＥＮＴＵＲＥＳ,,株式会社,東京都,港区,北青山１丁目３番１号アールキューブ青山３階,,13,103,1070061,,,,,,,2023-12-14,1,,,,,コスメベンチャーズ,0
566,3010401179149,新規,0,2023-12-14,2023-12-14,大和製作株式会社,,株式会社,東京都,港区,白金台２丁目２６番９号,,13,103,1080071,,,,,,,2023-12-14,1,,,,,ダイワセイサク,0
567,3010401179157,新規,0,2023-12-14,2023-12-14,ＴＲＴＬ　Ｓｔｕｄｉｏ株式会社,,株式会社,東京都,港区,南青山２丁目２番１５号,,13,103,1070062,,,,,,,2023-12-14,1,,,,,ティーアールティーエルスタジオ,0
568,3010401179165,新規,0,2023-12-14,2023-12-14,株式会社クレスモス,,株式会社,東京都,港区,六本木１丁目９番３９号六本木ファーストプラザ１３２４,,13,103,1060032,,,,,,,2023-12-14,1,,,,,クレスモス,0
573,3010405022775,新規,0,2023-12-14,2023-12-14,ＷＩＡ税理士法人,,その他の設立登記法人,東京都,港区,東麻布２丁目１７番２号Ｗビル２Ｆ,,13,103,1060044,,,,,,,2023-12-14,1,,,,,ダブリューアイエー,0
577,3010603010532,新規,0,2023-12-14,2023-12-14,ＭＩホールディングス合同会社,,合同会社,東京都,江東区,東雲２丁目２番１４‐６０１号,,13,108,1350062,,,,,,,2023-12-14,1,,,,,エムアイホールディングス,0
583,3010703006991,新規,0,2023-12-14,2023-12-14,合同会社チャン企画,,合同会社,東京都,品川区,東大井２丁目２３番１号名人亭ビル２階,,13,109,1400011,,,,,,,2023-12-14,1,,,,,チャンキカク,0
584,3010801034606,新規,0,2023-12-14,2023-12-14,株式会社Ｐａｖｉｌｉｏｎ,,株式会社,東京都,大田区,鵜の木２丁目２番２号オーチャードアルファＢ１Ｆ,,13,111,1460091,,,,,,,2023-12-14,1,,,,,パビリオン,0
587,3010903008664,新規,0,2023-12-14,2023-12-14,合同会社ＣＡＮＡＥＬ,,合同会社,東京都,世田谷区,赤堤５丁目１０－１６佐藤方２階,,13,112,1560044,,,,,,,2023-12-14,1,,,,,カナエル,0
597,3011301029229,新規,0,2023-12-14,2023-12-14,株式会社ギークナウ,,株式会社,東京都,杉並区,高円寺南３丁目５７番１０号第一高円寺ＫＳビル４階,,13,115,1660003,,,,,,,2023-12-14,1,,,,,ギークナウ,0
599,3011401025689,新規,0,2023-12-14,2023-12-14,株式会社Ａｌｌ　Ｇｒｅｅｎ,,株式会社,東京都,板橋区,加賀２丁目５番４号フォーリア加賀３Ｆ,,13,119,1730003,,,,,,,2023-12-14,1,,,,,オールグリーン,0
600,3011501030110,新規,0,2023-12-14,2023-12-14,八島電気工事株式会社,,株式会社,東京都,北区,西が丘２丁目２番７号,,13,117,1150056,,,,,,,2023-12-14,1,,,,,ヤシマデンキコウジ,0
601,3011501030119,新規,0,2023-12-14,2023-12-14,株式会社ＣＨＥＥＲＳ,,株式会社,東京都,荒川区,東日暮里５丁目５０－５アートホテル日暮里ラングウッド３Ｆ２１号室,,13,118,1160014,,,,,,,2023-12-14,1,,,,,チアーズ,0
602,3011503005886,新規,0,2023-12-14,2023-12-14,合同会社ＭＩＲＡ,,合同会社,東京都,荒川区,南千住１丁目１５番１２号,,13,118,1160003,,,,,,,2023-12-14,1,,,,,ミラ,0
604,3011601027378,新規,0,2023-12-14,2023-12-14,株式会社松光商事,,株式会社,東京都,練馬区,石神井町２丁目８番１号,,13,120,1770041,,,,,,,2023-12-14,1,,,,,ショウコウショウジ,0
608,3011803005990,新規,0,2023-12-14,2023-12-14,翊星商事合同会社,,合同会社,東京都,葛飾区,新小岩２丁目１番２３－３１０号ソフトタウン新小岩,,13,122,1240024,,,,,,,2023-12-14,1,,,,,ヨクホシショウジ,0
612,3012701017995,新規,0,2023-12-14,2023-12-14,株式会社ＳＷＹ,,株式会社,東京都,西東京市,南町３丁目１番１２号竹中ビル１階,,13,229,1880012,,,,,,,2023-12-14,1,,,,,スワイ,0
614,3012801022821,新規,0,2023-12-14,2023-12-14,株式会社Ｎ・Ｋ・Ｐ,,株式会社,東京都,国分寺市,東恋ヶ窪１丁目２８０番地４ザ・パークハウス国分寺四季の森Ｃ棟６６２,,13,214,1850014,,,,,,,2023-12-14,1,,,,,エヌケーピー,0
620,3013301051765,新規,0,2023-12-14,2023-12-14,株式会社ＢＭコンサルティング,,株式会社,東京都,豊島区,東池袋３丁目７番８号セントヒルズ池袋８０２号室,,13,116,1700013,,,,,,,2023-12-14,1,,,,,ビーエムコンサルティング,0
625,3020001154880,新規,0,2023-12-14,2023-12-14,ｅｎｅｆｌａ株式会社,,株式会社,神奈川県,川崎市高津区,子母口４２１番地,,14,134,2130023,,,,,,,2023-12-14,1,,,,,エネフラ,0
626,3020001154906,新規,0,2023-12-14,2023-12-14,株式会社デリア,,株式会社,神奈川県,横浜市南区,高砂町２丁目２５番地３１,,14,105,2320025,,,,,,,2023-12-14,1,,,,,デリア,0
643,3021001080951,新規,0,2023-12-14,2023-12-14,株式会社ｅｄｕ‐Ｃｒｉａｔｉｃｅ,,株式会社,神奈川県,平塚市,代官町２３番２９号,,14,203,2540807,,,,,,,2023-12-14,1,,,,,エデュクリエイティス,0
646,3021003013901,新規,0,2023-12-14,2023-12-14,合同会社Ｅｃｘｉａ,,合同会社,神奈川県,綾瀬市,寺尾南３丁目１０番７３号,,14,218,2521134,,,,,,,2023-12-14,1,,,,,エクシア,0
648,3030001157635,新規,0,2023-12-14,2023-12-14,株式会社Ｐｉｅｃｅ　ｏｆ　Ｍｉｎｄ,,株式会社,埼玉県,川越市,大字藤間８９０番地１８,,11,201,3501142,,,,,,,2023-12-14,1,,,,,ピースオブマインド,0
649,3030001157643,新規,0,2023-12-14,2023-12-14,阿部空調株式会社,,株式会社,埼玉県,川口市,大字里９３６番地の１－２１０号,,11,203,3340005,,,,,,,2023-12-14,1,,,,,アベクウチョウ,0
650,3030001157668,新規,0,2023-12-14,2023-12-14,子月株式会社,,株式会社,埼玉県,川口市,大字芝６９９０－８３ライブコア南浦和Ｂ棟１０１号室,,11,203,3330866,,,,,,,2023-12-14,1,,,,,コツキ,0
651,3030001157701,新規,0,2023-12-14,2023-12-14,株式会社ＫＫＣ,,株式会社,埼玉県,熊谷市,久下３丁目６８番地１,,11,202,3600026,,,,,,,2023-12-14,1,,,,,ケーケーシー,0
656,3030003023208,新規,0,2023-12-14,2023-12-14,合同会社ウエルワークス,,合同会社,埼玉県,さいたま市北区,日進町１丁目３０３番地２,,11,102,3310823,,,,,,,2023-12-14,1,,,,,ウエルワークス,0
657,3030003023216,新規,0,2023-12-14,2023-12-14,合同会社知見アドバイザリー,,合同会社,埼玉県,さいたま市浦和区,領家１丁目１４番１号浦和ガーデンズビル２０２,,11,107,3300072,,,,,,,2023-12-14,1,,,,,チケンアドバイザリー,0
658,3030003023224,新規,0,2023-12-14,2023-12-14,合同会社ＡＶＳ,,合同会社,埼玉県,さいたま市大宮区,桜木町４丁目４８２番地ドミール大宮第１－１０３,,11,103,3300854,,,,,,,2023-12-14,1,,,,,エーブイエス,0
663,3040001131309,新規,0,2023-12-14,2023-12-14,株式会社ＷＯＲＫＳ,,株式会社,千葉県,千葉市若葉区,若松町２１１７番地２４,,12,104,2640021,,,,,,,2023-12-14,1,,,,,ワークス,0
664,3040001131317,新規,0,2023-12-14,2023-12-14,株式会社チャミー,,株式会社,千葉県,松戸市,横須賀２丁目１１番地の２９,,12,207,2700031,,,,,,,2023-12-14,1,,,,,チャミー,0
665,3040001131366,新規,0,2023-12-14,2023-12-14,株式会社ＮＤＮ,,株式会社,千葉県,千葉市若葉区,桜木北２丁目４番３０号ネオハイツ都賀２０８号,,12,104,2640029,,,,,,,2023-12-14,1,,,,,エヌディーエヌ,0
666,3040001131374,新規,0,2023-12-14,2023-12-14,株式会社伊藤装建,,株式会社,千葉県,木更津市,真里谷７６１番地,,12,206,2920201,,,,,,,2023-12-14,1,,,,,イトウソウケン,0
684,3070001041166,新規,0,2023-12-14,2023-12-14,株式会社ＴＡＮ３７,,株式会社,群馬県,前橋市,荒牧町２丁目４３番地８レオンハウスＢ,,10,201,3710044,,,,,,,2023-12-14,1,,,,,タンスリーセブン,0
685,3070001041190,新規,0,2023-12-14,2023-12-14,クレインズ株式会社,,株式会社,群馬県,高崎市,下小鳥町８１番地１,,10,202,3700074,,,,,,,2023-12-14,1,,,,,クレインズ,0
686,3070001041199,新規,0,2023-12-14,2023-12-14,エスアイ産業株式会社,,株式会社,群馬県,藤岡市,神田１４２番地２,,10,209,3750032,,,,,,,2023-12-14,1,,,,,エスアイサンギョウ,0
687,3080001026026,新規,0,2023-12-14,2023-12-14,ＳＯＬＡＢ技研株式会社,,株式会社,静岡県,静岡市葵区,田町５丁目５２番地,,22,101,4200068,,,,,,,2023-12-14,1,,,,,ソラブギケン,0
692,3100003007310,新規,0,2023-12-14,2023-12-14,Ｒ＆Ａ合同会社,,合同会社,長野県,岡谷市,長地片間町１丁目１２番３５号,,20,204,3940084,,,,,,,2023-12-14,1,,,,,アールアンドエー,0
702,3120001260405,新規,0,2023-12-14,2023-12-14,金成株式会社,,株式会社,大阪府,大阪市北区,西天満２丁目６番８号６Ｆ新東京国際リーガル内,,27,127,5300047,,,,,,,2023-12-14,1,,,,,キンセイ,0
703,3120001260578,新規,0,2023-12-14,2023-12-14,中尾工業株式会社,,株式会社,大阪府,大阪市東淀川区,瑞光３丁目２番２７号,,27,114,5330005,,,,,,,2023-12-14,1,,,,,ナカオコウギョウ,0
704,3120001260586,新規,0,2023-12-14,2023-12-14,株式会社ＫＥＹＡＫＩ,,株式会社,大阪府,大阪市大正区,鶴町１丁目１番１５号大丸石油ビル,,27,108,5510023,,,,,,,2023-12-14,1,,,,,ケヤキ,0
705,3120001260652,新規,0,2023-12-14,2023-12-14,株式会社ハーフ＆Ｒ,,株式会社,大阪府,大阪市中央区,安土町２丁目４番１１－２８１７号,,27,128,5410052,,,,,,,2023-12-14,1,,,,,ハーフアンドアール,0
706,3120001260660,新規,0,2023-12-14,2023-12-14,株式会社Ｃｏｎｔｒｉｂｕｔｉｏｎ,,株式会社,大阪府,大阪市西区,西本町１丁目１１番１号本町セントラルハイツ６０５号室,,27,106,5500005,,,,,,,2023-12-14,1,,,,,コントリビューション,0
707,3120001260669,新規,0,2023-12-14,2023-12-14,株式会社ＳｍａｒｔＦｏｒｃｅ,,株式会社,大阪府,大阪市西区,南堀江１丁目１８－２７四ツ橋セントラルハイツ２０６,,27,106,5500015,,,,,,,2023-12-14,1,,,,,スマートフォース,0
712,3120005024046,新規,0,2023-12-14,2023-12-14,土地家屋調査士法人ワイズ登記・測量事務所,,その他の設立登記法人,大阪府,大阪市中央区,安堂寺町２丁目４番１５号スギコビル３階,,27,128,5420061,,,,,,,2023-12-14,1,,,,,ワイズトウキソクリョウジムショ,0
715,3120101068698,新規,0,2023-12-14,2023-12-14,ＪＥＣ株式会社,,株式会社,大阪府,泉佐野市,下瓦屋３丁目１３番１２－１０２号,,27,213,5980062,,,,,,,2023-12-14,1,,,,,ジェーイーシー,0
718,3122001037659,新規,0,2023-12-14,2023-12-14,株式会社ＵＫ‐Ａｉｒ,,株式会社,大阪府,東大阪市,大蓮東３丁目６番２１号,,27,227,5770824,,,,,,,2023-12-14,1,,,,,ユーケーエアー,0
723,3130001075942,新規,0,2023-12-14,2023-12-14,株式会社ヘラ,,株式会社,京都府,京都市南区,上鳥羽八王神町２５９番地,,26,107,6018173,,,,,,,2023-12-14,1,,,,,ヘラ,0
727,3140001132643,新規,0,2023-12-14,2023-12-14,株式会社ＳＷＩＦＴ,,株式会社,兵庫県,尼崎市,浜田町３丁目２２番地の１,,28,202,6600062,,,,,,,2023-12-14,1,,,,,スイフト,0
729,3140003019913,新規,0,2023-12-14,2023-12-14,合同会社Ｌｉｎｏａｓ,,合同会社,兵庫県,神戸市中央区,北長狭通４丁目２番１２号３Ｆ,,28,110,6500012,,,,,,,2023-12-14,1,,,,,リノアス,0
747,3180001159303,新規,0,2023-12-14,2023-12-14,ハウス・ルポ株式会社,,株式会社,愛知県,名古屋市東区,東桜２丁目３番７号,,23,102,4610005,,,,,,,2023-12-14,1,,,,,ハウスルポ,0
748,3180001159311,新規,0,2023-12-14,2023-12-14,ＮＫコーポレーション株式会社,,株式会社,愛知県,名古屋市港区,惟信町２丁目２１番地の３,,23,111,4550823,,,,,,,2023-12-14,1,,,,,エヌケーコーポレーション,0
749,3180001159328,新規,0,2023-12-14,2023-12-14,株式会社匠縁建設,,株式会社,愛知県,丹羽郡扶桑町,大字山那字屋敷地７６８番地,,23,362,4800101,,,,,,,2023-12-14,1,,,,,ショウエンケンセツ,0
753,3180003026105,新規,0,2023-12-14,2023-12-14,合同会社ｚｏｎ,,合同会社,愛知県,津島市,神守町字八反田３６番地‐１Ｆ,,23,208,4960005,,,,,,,2023-12-14,1,,,,,ゾン,0
763,3200001041986,新規,0,2023-12-14,2023-12-14,株式会社ＧＲＡＮＳＵＰＰＯＲＴ,,株式会社,岐阜県,岐阜市,加納北広江町２５番地１,,21,201,5008419,,,,,,,2023-12-14,1,,,,,グランサポート,0
768,3240001062533,新規,0,2023-12-14,2023-12-14,株式会社藤建設,,株式会社,広島県,福山市,多治米町２丁目１番５－２０１号,,34,207,7200824,,,,,,,2023-12-14,1,,,,,フジケンセツ,0
770,3240003006455,新規,0,2023-12-14,2023-12-14,合同会社ＤＡＲＵＭＡ技研,,合同会社,広島県,呉市,本通１丁目５番２２号,,34,202,7370045,,,,,,,2023-12-14,1,,,,,ダルマギケン,0
778,3290001104025,新規,0,2023-12-14,2023-12-14,株式会社ｆｉｌｌｉｆ,,株式会社,福岡県,福岡市中央区,高砂１丁目１番２５－９０２号,,40,133,8100011,,,,,,,2023-12-14,1,,,,,フィリフ,0
779,3290803004562,新規,0,2023-12-14,2023-12-14,合同会社ＳＴＹＬＥ‐ＵＰ,,合同会社,福岡県,北九州市八幡東区,祝町１丁目２２番４５号,,40,108,8050041,,,,,,,2023-12-14,1,,,,,スタイルアップ,0
781,3320001020185,新規,0,2023-12-14,2023-12-14,株式会社Ｇｏｌｄ　ｓｅｖｅｎ,,株式会社,大分県,大分市,大字細４４９番地の１,,44,201,8700305,,,,,,,2023-12-14,1,,,,,,0
789,3350001018706,新規,0,2023-12-14,2023-12-14,株式会社Ｋ．Ｊ．Ｍ,,株式会社,宮崎県,延岡市,北川町長井６５２４番地６,,45,203,8890102,,,,,,,2023-12-14,1,,,,,ケージェーエム,0
793,3370001050715,新規,0,2023-12-14,2023-12-14,株式会社雅仁会,,株式会社,宮城県,富谷市,明石台９丁目１０番地２１,,04,216,9813332,,,,,,,2023-12-14,1,,,,,ガジンカイ,0
809,3430001090639,新規,0,2023-12-14,2023-12-14,株式会社ｋｕｓｕｋｕｓｕ,,株式会社,北海道,札幌市西区,山の手七条８丁目６番２４号,,01,107,0630007,,,,,,,2023-12-14,1,,,,,クスクス,0
810,3430001090655,新規,0,2023-12-14,2023-12-14,株式会社Ｎｏｒｔｈｅｒｎ　ｎｕｒｓｅ,,株式会社,北海道,石狩市,花川南四条３丁目１０６番地１,,01,235,0613204,,,,,,,2023-12-14,1,,,,,ノーザンナース,0
825,4010001240771,新規,0,2023-12-14,2023-12-14,株式会社秋戸商事,,株式会社,東京都,中央区,日本橋室町１丁目２番６号日本橋大栄ビル７Ｆ,,13,102,1030022,,,,,,,2023-12-14,1,,,,,アキトショウジ,0
826,4010001240821,新規,0,2023-12-14,2023-12-14,株式会社カルディオアセット,,株式会社,東京都,千代田区,四番町４番地６パークコート千代田四番町３０８号,,13,101,1020081,,,,,,,2023-12-14,1,,,,,カルディオアセット,0
831,4010003042415,新規,0,2023-12-14,2023-12-14,アールツー蓄電所合同会社,,合同会社,東京都,中央区,京橋２丁目２番１号,,13,102,1040031,,,,,,,2023-12-14,1,,,,,アールツーチクデンショ,0
834,4010103002269,新規,0,2023-12-14,2023-12-14,ＯＣＥＡＮ　Ｃｏｎｓｕｌｔｉｎｇ合同会社,,合同会社,東京都,八王子市,上野町３番地５,,13,201,1920902,,,,,,,2023-12-14,1,,,,,オーシャンコンサルティング,0
837,4010401179156,新規,0,2023-12-14,2023-12-14,株式会社ＴＷ,,株式会社,東京都,港区,海岸１丁目２番２０号汐留ビルディング３階,,13,103,1050022,,,,,,,2023-12-14,1,,,,,ティーダブリュー,0
838,4010401179164,新規,0,2023-12-14,2023-12-14,株式会社クイーン２,,株式会社,東京都,港区,東新橋１丁目９番２号汐留住友ビル１６階,,13,103,1050021,,,,,,,2023-12-14,1,,,,,クイーンツー,0
841,4010403031570,新規,0,2023-12-14,2023-12-14,ＤＰＮ　Ｊａｐａｎ合同会社,,合同会社,東京都,港区,北青山１丁目３番１号,,13,103,1070061,,,,,,,2023-12-14,1,,,,,ディーピーエヌジャパン,0
842,4010403031579,新規,0,2023-12-14,2023-12-14,合同会社ＴｗｉｎｋＰｌａｙ　Ｇａｍｅｓ,,合同会社,東京都,港区,新橋３丁目１１番８号オーイズミ新橋第２ビル８０２,,13,103,1050004,,,,,,,2023-12-14,1,,,,,トゥインクプレイゲームズ,0
846,4010503007256,新規,0,2023-12-14,2023-12-14,ＲＥＳＴＩＡ合同会社,,合同会社,東京都,台東区,蔵前３丁目１３番１４－１３０３号,,13,106,1110051,,,,,,,2023-12-14,1,,,,,レスティア,0
850,4010901054338,新規,0,2023-12-14,2023-12-14,株式会社アポロ・キャピタル,,株式会社,東京都,世田谷区,用賀４丁目１０番１号,,13,112,1580097,,,,,,,2023-12-14,1,,,,,アポロキャピタル,0
851,4010903008655,新規,0,2023-12-14,2023-12-14,北浦ファミーユ合同会社,,合同会社,東京都,世田谷区,成城６丁目７番７号,,13,112,1570066,,,,,,,2023-12-14,1,,,,,キタウラファミーユ,0
852,4010903008671,新規,0,2023-12-14,2023-12-14,合同会社あのね,,合同会社,東京都,世田谷区,太子堂２丁目２番２１号セントワンヒルズ一番館２０２,,13,112,1540004,,,,,,,2023-12-14,1,,,,,アノネ,0
855,4011001158797,新規,0,2023-12-14,2023-12-14,Ｐａｃｉｆｉｃ　Ｅｃａｒｔｏ　Ｓｏｌｕｔｉｏｎｓ株式会社,,株式会社,東京都,目黒区,碑文谷５丁目９－３トップ学芸大学第四３１１号,,13,110,1520003,,,,,,,2023-12-14,1,,,,,パシフィックエカートソリューションズ,0
874,4011501030101,新規,0,2023-12-14,2023-12-14,株式会社ＣＯＲＡＬＲＯＯＴＳ,,株式会社,東京都,荒川区,西尾久４丁目２６番４号,,13,118,1160011,,,,,,,2023-12-14,1,,,,,コーラルルーツ,0
876,4011601027377,新規,0,2023-12-14,2023-12-14,株式会社フォーンブリーズ,,株式会社,東京都,練馬区,早宮２丁目１０番１３号ＯＮＥ・ＴＲＥＥ・ＨＩＬＬ１０９,,13,120,1790085,,,,,,,2023-12-14,1,,,,,フォーンブリーズ,0
878,4011701026857,新規,0,2023-12-14,2023-12-14,撲満株式会社,,株式会社,東京都,江戸川区,松江２丁目１－１３－１０７号室,,13,123,1320025,,,,,,,2023-12-14,1,,,,,ボクマン,0
881,4011801043496,新規,0,2023-12-14,2023-12-14,株式会社ＥＡＲＴＨ　ＰＲＯＴＥＣＴＩＯＮ,,株式会社,東京都,葛飾区,小菅３丁目１３－５,,13,122,1240001,,,,,,,2023-12-14,1,,,,,アースプロテクション,0
890,4020001154921,新規,0,2023-12-14,2023-12-14,株式会社川崎スクールエアクオリティ,,株式会社,神奈川県,川崎市多摩区,宿河原１丁目２０番１１号,,14,135,2140021,,,,,,,2023-12-14,1,,,,,カワサキスクールエアクオリティ,0
896,4020003025187,新規,0,2023-12-14,2023-12-14,ＹＢシステムズ合同会社,,合同会社,神奈川県,横浜市青葉区,美しが丘１丁目１３番地１０吉村ビル１０７号,,14,117,2250002,,,,,,,2023-12-14,1,,,,,ワイビーシステムズ,0
900,4021001080950,新規,0,2023-12-14,2023-12-14,弥栄建設株式会社,,株式会社,神奈川県,厚木市,飯山４８６８番地,,14,212,2430213,,,,,,,2023-12-14,1,,,,,ヤサカケンセツ,0
901,4021001080967,新規,0,2023-12-14,2023-12-14,株式会社ライフグループ,,株式会社,神奈川県,茅ヶ崎市,東海岸北２丁目４番２３号,,14,207,2530053,,,,,,,2023-12-14,1,,,,,ライフグループ,0
910,4030001157618,新規,0,2023-12-14,2023-12-14,相武建設株式会社,,株式会社,埼玉県,新座市,栄２丁目４番７号,,11,230,3520014,,,,,,,2023-12-14,1,,,,,アイブケンセツ,0
911,4030001157659,新規,0,2023-12-14,2023-12-14,株式会社みろくサービス,,株式会社,埼玉県,上尾市,向山１丁目１６番地１２,,11,219,3620045,,,,,,,2023-12-14,1,,,,,ミロクサービス,0
912,4030001157675,新規,0,2023-12-14,2023-12-14,ＳＭＡＬＴコンサルティング株式会社,,株式会社,埼玉県,川口市,飯塚２丁目３番３－８０８号,,11,203,3320023,,,,,,,2023-12-14,1,,,,,スマルトコンサルティング,0
913,4030001157691,新規,0,2023-12-14,2023-12-14,株式会社アウェアネス,,株式会社,埼玉県,さいたま市大宮区,下町１丁目２１番地１,,11,103,3300844,,,,,,,2023-12-14,1,,,,,アウェアネス,0
914,4030001157725,新規,0,2023-12-14,2023-12-14,株式会社エルミタージュ,,株式会社,埼玉県,上尾市,原市中１丁目３番地８ホシマタ沼南ビルＡ棟３階,,11,219,3620023,,,,,,,2023-12-14,1,,,,,エルミタージュ,0
915,4030003023223,新規,0,2023-12-14,2023-12-14,かすみテクノ合同会社,,合同会社,埼玉県,川越市,大字的場２６１２番地,,11,201,3501101,,,,,,,2023-12-14,1,,,,,カスミテクノ,0
916,4030003023231,新規,0,2023-12-14,2023-12-14,ｉ　Ｔｒｕｓｔ合同会社,,合同会社,埼玉県,さいたま市大宮区,桜木町２丁目３９８番地イレブン桜木１０３,,11,103,3300854,,,,,,,2023-12-14,1,,,,,アイトラスト,0
921,4040001131308,新規,0,2023-12-14,2023-12-14,永有道路株式会社,,株式会社,千葉県,匝瑳市,川辺６１５５番地,,12,235,2893186,,,,,,,2023-12-14,1,,,,,エイユウドウロ,0
922,4040001131316,新規,0,2023-12-14,2023-12-14,株式会社ＴＳエンジニアリング,,株式会社,千葉県,成田市,美郷台３丁目１２番地１２（コスモス２－１０１）,,12,211,2860013,,,,,,,2023-12-14,1,,,,,ティーエスエンジニアリング,0
923,4040001131324,新規,0,2023-12-14,2023-12-14,ウイングＨＤ株式会社,,株式会社,千葉県,成田市,多良貝２４５番地３８１,,12,211,2870242,,,,,,,2023-12-14,1,,,,,ウイングホールディングス,0
924,4040001131332,新規,0,2023-12-14,2023-12-14,株式会社武藤興業,,株式会社,千葉県,市原市,潤井戸１８０７番地３,,12,219,2900171,,,,,,,2023-12-14,1,,,,,ムトウコウギョウ,0
925,4040001131340,新規,0,2023-12-14,2023-12-14,半島スタイル株式会社,,株式会社,千葉県,館山市,佐野７０８番地３,,12,205,2940225,,,,,,,2023-12-14,1,,,,,ハントウスタイル,0
926,4040001131357,新規,0,2023-12-14,2023-12-14,ＦａＴ　Ｃｏｎｓｕｌｔｉｎｇ株式会社,,株式会社,千葉県,八千代市,緑が丘西１丁目４番地１,,12,221,2760040,,,,,,,2023-12-14,1,,,,,エフエーティーコンサルティング,0
927,4040001131365,新規,0,2023-12-14,2023-12-14,株式会社Ｐｒｏｐ‐ｕｐ,,株式会社,千葉県,浦安市,日の出６丁目１８番１５号,,12,227,2790013,,,,,,,2023-12-14,1,,,,,プロップアップ,0
928,4040001131373,新規,0,2023-12-14,2023-12-14,株式会社ＳＴＡＲＴＥＲ,,株式会社,千葉県,市川市,南八幡３丁目２３番３０－２０２号,,12,203,2720023,,,,,,,2023-12-14,1,,,,,スターター,0
931,4040003023932,新規,0,2023-12-14,2023-12-14,Ｂ＆Ｔ合同会社,,合同会社,千葉県,市川市,南八幡５丁目１７番１０号２Ｆ,,12,203,2720023,,,,,,,2023-12-14,1,,,,,ビーアンドティー,0
937,4080003003105,新規,0,2023-12-14,2023-12-14,ＳＥＳＡＤＩ　ＩＮＴＥＲＮＡＴＩＯＮＡＬ　ＪＡＰＡＮ合同会社,,合同会社,静岡県,静岡市清水区,草薙９８８－２,,22,103,4240886,,,,,,,2023-12-14,1,,,,,セサディーインターナショナルジャパン,0
942,4090001018459,新規,0,2023-12-14,2023-12-14,株式会社サムライハンバーグ,,株式会社,山梨県,甲府市,上石田３丁目１２番１２号南西パークマンション４０３,,19,201,4000041,,,,,,,2023-12-14,1,,,,,サムライハンバーグ,0
945,4100001037044,新規,0,2023-12-14,2023-12-14,株式会社信州メンテナンス,,株式会社,長野県,諏訪郡下諏訪町,４４３０番地９エーデルフジモリＡ２０６号,,20,361,3930000,,,,,,,2023-12-14,1,,,,,シンシュウメンテナンス,0
946,4100001037060,新規,0,2023-12-14,2023-12-14,アイランド長野株式会社,,株式会社,長野県,長野市,南千歳２丁目１５番地８,,20,201,3800823,,,,,,,2023-12-14,1,,,,,アイランドナガノ,0
952,4110001038033,新規,0,2023-12-14,2023-12-14,株式会社アップフラット,,株式会社,新潟県,長岡市,若草町３丁目３番地８,,15,202,9400851,,,,,,,2023-12-14,1,,,,,アップフラット,0
970,4120001260585,新規,0,2023-12-14,2023-12-14,株式会社克建,,株式会社,大阪府,門真市,常称寺町１２番１７号,,27,223,5710063,,,,,,,2023-12-14,1,,,,,カツケン,0
971,4120001260643,新規,0,2023-12-14,2023-12-14,株式会社ＴＯＷＡ設計事務所,,株式会社,大阪府,大阪市淀川区,新北野３丁目７番２１号新北野ＮＣビル,,27,123,5320025,,,,,,,2023-12-14,1,,,,,トワセッケイジムショ,0
978,4120101068689,新規,0,2023-12-14,2023-12-14,株式会社ＳｅｎＳｏｎ,,株式会社,大阪府,堺市西区,草部２３６番地草愛マンションＡ３０２号,,27,144,5938312,,,,,,,2023-12-14,1,,,,,センソン,0
980,4120901048485,新規,0,2023-12-14,2023-12-14,株式会社アウタースペース,,株式会社,大阪府,箕面市,瀬川４丁目１５番５３号１８Ｂ,,27,220,5620045,,,,,,,2023-12-14,1,,,,,アウタースペース,0
994,4140001132642,新規,0,2023-12-14,2023-12-14,株式会社クレール,,株式会社,兵庫県,伊丹市,南野３丁目９番１１号,,28,207,6640865,,,,,,,2023-12-14,1,,,,,クレール,0
995,4140001132667,新規,0,2023-12-14,2023-12-14,株式会社トーマ建工,,株式会社,兵庫県,加古郡播磨町,古宮３丁目６番３４号,,28,382,6750163,,,,,,,2023-12-14,1,,,,,トーマケンコウ,0
997,4160005011254,新規,0,2023-12-14,2023-12-14,滋賀コネクト協同組合,,その他の設立登記法人,滋賀県,彦根市,佐和町４２０番１,,25,202,5220075,,,,,,,2023-12-14,1,,,,,シガコネクト,0
1005,4180001159293,新規,0,2023-12-14,2023-12-14,株式会社戸田会計,,株式会社,愛知県,瀬戸市,見付町２番地の１８,,23,204,4890808,,,,,,,2023-12-14,1,,,,,トダカイケイ,0
1006,4180001159327,新規,0,2023-12-14,2023-12-14,株式会社ＬＩＢＥＲＴＹ,,株式会社,愛知県,名古屋市南区,豊２丁目２番２号,,23,112,4570863,,,,,,,2023-12-14,1,,,,,リバティー,0
1007,4180001159335,新規,0,2023-12-14,2023-12-14,ワビサビー株式会社,,株式会社,愛知県,名古屋市中川区,八田町２００７番地コンフォールアビデ３０２号,,23,110,4540877,,,,,,,2023-12-14,1,,,,,ワビサビー,0
1010,4180003026112,新規,0,2023-12-14,2023-12-14,Ｈｏｐｅ合同会社,,合同会社,愛知県,名古屋市千種区,鹿子町２丁目１２番地の１,,23,101,4640033,,,,,,,2023-12-14,1,,,,,ホープ,0
1011,4180003026129,新規,0,2023-12-14,2023-12-14,ののラボ合同会社,,合同会社,愛知県,東海市,名和町高ノ宮前３番地の１ネオハイツ名和４０１号,,23,222,4760002,,,,,,,2023-12-14,1,,,,,ノノラボ,0
1013,4180301038115,新規,0,2023-12-14,2023-12-14,株式会社順天の惠り,,株式会社,愛知県,安城市,福釜町猿町２番地,,23,212,4460052,,,,,,,2023-12-14,1,,,,,ジュンテンノメグリ,0
1014,4190001030957,新規,0,2023-12-14,2023-12-14,株式会社美味旬菜饗庭,,株式会社,三重県,四日市市,諏訪栄町６番２５－６０６号,,24,202,5100086,,,,,,,2023-12-14,1,,,,,ビミシュンサイアイバ,0
1016,4190003004538,新規,0,2023-12-14,2023-12-14,ｓｈｕｃｒｅ桑名合同会社,,合同会社,三重県,四日市市,鵜の森２丁目１番８－１００３号デュオヒルズ四日市鵜の森,,24,202,5100074,,,,,,,2023-12-14,1,,,,,シュクレクワナ,0
1028,4240001062540,新規,0,2023-12-14,2023-12-14,株式会社結び,,株式会社,広島県,三原市,須波１丁目２番６号,,34,204,7230031,,,,,,,2023-12-14,1,,,,,ムスビ,0
1029,4240001062549,新規,0,2023-12-14,2023-12-14,株式会社ＴＥＲＡＳＴ,,株式会社,広島県,福山市,沖野上町６丁目１７番６号３Ｆ,,34,207,7200825,,,,,,,2023-12-14,1,,,,,テラスト,0
1030,4240001062557,新規,0,2023-12-14,2023-12-14,株式会社ウエストファーム,,株式会社,広島県,広島市西区,楠木町１丁目１５番２４号,,34,104,7330002,,,,,,,2023-12-14,1,,,,,ウエストファーム,0
1033,4260001038563,新規,0,2023-12-14,2023-12-14,株式会社ＬｕｓｓｏＬ,,株式会社,岡山県,赤磐市,山陽４丁目２－８,,33,213,7090827,,,,,,,2023-12-14,1,,,,,ルスソル,0
1039,4290001104049,新規,0,2023-12-14,2023-12-14,株式会社ネオリーブ不動産,,株式会社,福岡県,久留米市,東合川３丁目１５番９号,,40,203,8390809,,,,,,,2023-12-14,1,,,,,ネオリーブフドウサン,0
1040,4290001104081,新規,0,2023-12-14,2023-12-14,株式会社シスイエン,,株式会社,福岡県,福岡市城南区,友丘５丁目２番１８号,,40,136,8140112,,,,,,,2023-12-14,1,,,,,シスイエン,0
1041,4290003014733,新規,0,2023-12-14,2023-12-14,合同会社恭楽,,合同会社,福岡県,福岡市中央区,天神３丁目５番２２号ＯＡＫＶＩＬＬＡ天神プラストロワ７Ｆ,,40,133,8100001,,,,,,,2023-12-14,1,,,,,キョウラク,0
1042,4290803004561,新規,0,2023-12-14,2023-12-14,合同会社アセット,,合同会社,福岡県,北九州市戸畑区,一枝２丁目４番１２－５号,,40,105,8040021,,,,,,,2023-12-14,1,,,,,アセット,0
1044,4330001031560,新規,0,2023-12-14,2023-12-14,株式会社ＰｌｕｇＬｉｂ,,株式会社,熊本県,熊本市中央区,下通１丁目８－１８ミフネ銀座ツインビル７Ｆ,,43,101,8600807,,,,,,,2023-12-14,1,,,,,,0
1049,4340001026122,新規,0,2023-12-14,2023-12-14,株式会社ハルテック,,株式会社,鹿児島県,日置市,伊集院町麦生田７９４番地５５,,46,216,8992513,,,,,,,2023-12-14,1,,,,,ハルテック,0
1050,4340001026139,新規,0,2023-12-14,2023-12-14,株式会社Ｍ．Ｒ．Ｉ,,株式会社,鹿児島県,鹿児島市,荒田１丁目３番３号４Ｆ,,46,201,8900054,,,,,,,2023-12-14,1,,,,,エムアールアイ,0
1051,4350001018705,新規,0,2023-12-14,2023-12-14,ＧＭ・エステート株式会社,,株式会社,宮崎県,宮崎市,下北方町常盤元１０３７番地,,45,201,8800035,,,,,,,2023-12-14,1,,,,,ジーエムエステート,0
1057,4370001050714,新規,0,2023-12-14,2023-12-14,株式会社大枝建設,,株式会社,宮城県,仙台市太白区,砂押町１５番１８号,,04,104,9820025,,,,,,,2023-12-14,1,,,,,オオエダケンセツ,0
1058,4370003006417,新規,0,2023-12-14,2023-12-14,ＫＵＵ　ＥＮＴＥＲＰＲＩＳＥ合同会社,,合同会社,宮城県,仙台市青葉区,本町１丁目５番２８号カーニープレイス仙台駅前通６０３号室,,04,101,9800014,,,,,,,2023-12-14,1,,,,,クウエンタープライズ,0
1059,4370005010730,新規,0,2023-12-14,2023-12-14,医療法人健甲会,,その他の設立登記法人,宮城県,仙台市青葉区,上杉１丁目７番２０号,,04,101,9800011,,,,,,,2023-12-14,1,,,,,ケンコウカイ,0
1066,4420001018508,新規,0,2023-12-14,2023-12-14,株式会社ａｔｅｌｉｅｒ,,株式会社,青森県,青森市,緑２丁目６番地２グレイス緑２Ａ,,02,201,0300845,,,,,,,2023-12-14,1,,,,,アトリエ,0
1068,4420003002848,新規,0,2023-12-14,2023-12-14,合同会社Ｂ‐ｌｉｎｅ,,合同会社,青森県,青森市,大字諏訪沢字桜川１１１番地１,,02,201,0300933,,,,,,,2023-12-14,1,,,,,ビーライン,0
1071,4430001090654,新規,0,2023-12-14,2023-12-14,北海消防機材株式会社,,株式会社,北海道,札幌市中央区,北五条西２０丁目２番３号,,01,101,0600005,,,,,,,2023-12-14,1,,,,,ホッカイショウボウキザイ,0
1074,4450003002416,新規,0,2023-12-14,2023-12-14,合同会社モカプロジェクト,,合同会社,北海道,旭川市,四条通１７丁目４０９９番地オール商店街６号館,,01,204,0700034,,,,,,,2023-12-14,1,,,,,モカプロジェクト,0
1079,4480005006998,新規,0,2023-12-14,2023-12-14,一般社団法人ｄｏｇ　ｃｏｍｍｕｎｉｔｙ　ｕｌｕ　ｌａａｕ,,その他の設立登記法人,徳島県,徳島市,新浜本町１丁目８番３６号,,36,201,7708007,,,,,,,2023-12-14,1,,,,,ドッグコミュニティウルラアウ,0
1081,4700150122305,新規,0,2023-12-14,2023-11-27,サポートさかぐち,,その他,福井県,越前市,湯谷町２４－１８－１,,18,209,9151225,,,,,,,2023-11-27,1,,,,,サポートサカグチ,0
1090,5010001240787,新規,0,2023-12-14,2023-12-14,株式会社Ｋａｒａｔ,,株式会社,東京都,中央区,銀座１丁目２２番１１号銀座大竹ビジデンス２Ｆ,,13,102,1040061,,,,,,,2023-12-14,1,,,,,カラット,0
1091,5010001240795,新規,0,2023-12-14,2023-12-14,株式会社ＤＣＨ,,株式会社,東京都,千代田区,神田神保町１丁目１１番地さくら綜合事務所内,,13,101,1010051,,,,,,,2023-12-14,1,,,,,ディーシーエイチ,0
1096,5010003042414,新規,0,2023-12-14,2023-12-14,アールワン蓄電所合同会社,,合同会社,東京都,中央区,京橋２丁目２番１号,,13,102,1040031,,,,,,,2023-12-14,1,,,,,アールワンチクデンショ,0
1097,5010003042422,新規,0,2023-12-14,2023-12-14,合同会社華咲,,合同会社,東京都,文京区,本駒込３丁目６番２２メゾンティーナ本駒込４０２,,13,105,1130021,,,,,,,2023-12-14,1,,,,,ハナサキ,0
1098,5010003042447,新規,0,2023-12-14,2023-12-14,嵐山Ａｓｉａ　Ｍ＆Ａ合同会社,,合同会社,東京都,千代田区,丸の内３丁目２番２号丸の内二重橋ビル３階,,13,101,1000005,,,,,,,2023-12-14,1,,,,,アラシヤマアジアエムアンドエー,0
1105,5010101015924,新規,0,2023-12-14,2023-12-14,株式会社ｌｕｓｈ‐ｉ,,株式会社,東京都,八王子市,八幡町２番３‐６０１号,,13,201,1920053,,,,,,,2023-12-14,1,,,,,ラッシュアイ,0
1106,5010103002268,新規,0,2023-12-14,2023-12-14,ＦＡＢＣＯＮＮＥＣＴ合同会社,,合同会社,東京都,八王子市,長房町１３８７番地２,,13,201,1930824,,,,,,,2023-12-14,1,,,,,ファブコネクト,0
1111,5010401179122,新規,0,2023-12-14,2023-12-14,株式会社フードテックワン,,株式会社,東京都,港区,六本木３丁目１番１号,,13,103,1060032,,,,,,,2023-12-14,1,,,,,フードテックワン,0
1112,5010401179163,新規,0,2023-12-14,2023-12-14,株式会社クイーン１,,株式会社,東京都,港区,東新橋１丁目９番２号汐留住友ビル１６階,,13,103,1050021,,,,,,,2023-12-14,1,,,,,クイーンワン,0
1115,5010403031578,新規,0,2023-12-14,2023-12-14,合同会社ＣｈｉｃＰｉｘｅｌ　Ｓｔｕｄｉｏ,,合同会社,東京都,港区,新橋３丁目１１番８号オーイズミ新橋第２ビル８０２,,13,103,1050004,,,,,,,2023-12-14,1,,,,,チックピクセルスタジオ,0
1116,5010601064330,新規,0,2023-12-14,2023-12-14,株式会社アーク,,株式会社,東京都,墨田区,向島４丁目１番１－２０９号,,13,107,1310033,,,,,,,2023-12-14,1,,,,,アーク,0
1118,5010701045263,新規,0,2023-12-14,2023-12-14,株式会社ＫＡＴＳＵフードサービス,,株式会社,東京都,品川区,上大崎３丁目１番１号ＪＲ東急目黒ビル９階,,13,109,1410021,,,,,,,2023-12-14,1,,,,,カツフードサービス,0
1122,5010901054337,新規,0,2023-12-14,2023-12-14,株式会社リーダーシード,,株式会社,東京都,世田谷区,等々力７丁目２－１７－２０２,,13,112,1580082,,,,,,,2023-12-14,1,,,,,リーダーシード,0
1123,5010903008646,新規,0,2023-12-14,2023-12-14,合同会社ｈａｔａｎｏ,,合同会社,東京都,世田谷区,梅丘１丁目１２番４号ビリィーメンハイム１－Ａ,,13,112,1540022,,,,,,,2023-12-14,1,,,,,ハタノ,0
1124,5010903008654,新規,0,2023-12-14,2023-12-14,合同会社ＫＵＴＵＬＯＧＵ,,合同会社,東京都,世田谷区,奥沢２丁目３８番１－３０２号,,13,112,1580083,,,,,,,2023-12-14,1,,,,,クツログ,0
1127,5011001158664,新規,0,2023-12-14,2023-12-14,株式会社ラーニングサイエンス,,株式会社,東京都,渋谷区,恵比寿西２丁目８番４号ＥＸ恵比寿西ビル５階,,13,113,1500021,,,,,,,2023-12-14,1,,,,,ラーニングサイエンス,0
1128,5011001158796,新規,0,2023-12-14,2023-12-14,株式会社アークセキュリティ,,株式会社,東京都,渋谷区,幡ヶ谷２丁目１３番６号富士ビル３－Ｂ,,13,113,1510072,,,,,,,2023-12-14,1,,,,,アークセキュリティ,0
1129,5011001158821,新規,0,2023-12-14,2023-12-14,株式会社ｔｉａｇｏ,,株式会社,東京都,目黒区,駒場１丁目２１－６渋谷松見坂パークサイドヒルズ２０５号室,,13,110,1530041,,,,,,,2023-12-14,1,,,,,ティアゴ,0
1130,5011001158879,新規,0,2023-12-14,2023-12-14,株式会社ワングランピング,,株式会社,東京都,目黒区,祐天寺２丁目１３番４号,,13,110,1530052,,,,,,,2023-12-14,1,,,,,ワングランピング,0
1133,5011003018065,新規,0,2023-12-14,2023-12-14,合同会社ＭＴＣ,,合同会社,東京都,渋谷区,恵比寿西２丁目４番８号ウィンド恵比寿ビル８Ｆ,,13,113,1500021,,,,,,,2023-12-14,1,,,,,エムティーシー,0
1134,5011003018115,新規,0,2023-12-14,2023-12-14,合同会社グロー,,合同会社,東京都,渋谷区,桜丘町４－１４Ｖｏｒｔ渋谷桜丘５Ｆ,,13,113,1500031,,,,,,,2023-12-14,1,,,,,グロー,0
1140,5011201025103,新規,0,2023-12-14,2023-12-14,ＭＲＦコンサルティング株式会社,,株式会社,東京都,中野区,中央４丁目４８‐４,,13,114,1640011,,,,,,,2023-12-14,1,,,,,エムアールエフコンサルティング,0
1142,5011401025695,新規,0,2023-12-14,2023-12-14,株式会社Ａｓｏｂｉｙａ,,株式会社,東京都,板橋区,東新町１丁目１０番１０号,,13,119,1740074,,,,,,,2023-12-14,1,,,,,アソビヤ,0
1144,5011501030075,新規,0,2023-12-14,2023-12-14,＿林株式会社,00132992,株式会社,東京都,荒川区,東日暮里４丁目３３番１２号,,13,118,1160014,,,,,,,2023-12-14,1,,,,,イリン,0
1145,5011501030100,新規,0,2023-12-14,2023-12-14,ＢｒｅａｋＡＩ株式会社,,株式会社,東京都,荒川区,荒川３丁目３５－５フラッツ荒川１２０１号室,,13,118,1160002,,,,,,,2023-12-14,1,,,,,ブレークエーアイ,0
1146,5011501030109,新規,0,2023-12-14,2023-12-14,株式会社ゴンズイ,,株式会社,東京都,荒川区,南千住６丁目３７番９－２６０３号,,13,118,1160003,,,,,,,2023-12-14,1,,,,,ゴンズイ,0
1153,5011701026848,新規,0,2023-12-14,2023-12-14,株式会社コトブキ,,株式会社,東京都,江戸川区,東瑞江１丁目４７番１８号,,13,123,1320014,,,,,,,2023-12-14,1,,,,,コトブキ,0
1156,5011803005989,新規,0,2023-12-14,2023-12-14,合同会社ブランステージ,,合同会社,東京都,足立区,六木４丁目７番６号,,13,121,1210052,,,,,,,2023-12-14,1,,,,,ブランステージ,0
1157,5012403006320,新規,0,2023-12-14,2023-12-14,合同会社Ｍ‐ＰＬＡＮ,,合同会社,東京都,多摩市,関戸１丁目３番地の１－４０３,,13,224,2060011,,,,,,,2023-12-14,1,,,,,エムプラン,0
1160,5012701017993,新規,0,2023-12-14,2023-12-14,株式会社ＭＩＮＩ,,株式会社,東京都,西東京市,南町２丁目１２番３０号３,,13,229,1880012,,,,,,,2023-12-14,1,,,,,ミニ,0
1161,5012801022836,新規,0,2023-12-14,2023-12-14,株式会社のみやまん,,株式会社,東京都,昭島市,玉川町３丁目１６番１４号三浦ビル別館３階Ｂ号室,,13,207,1960034,,,,,,,2023-12-14,1,,,,,ノミヤマン,0
1165,5020001154929,新規,0,2023-12-14,2023-12-14,株式会社Ｒｅｑｕｉｐｍｅｎｔ,,株式会社,神奈川県,横浜市鶴見区,菅沢町２０番１５号１階,,14,101,2300027,,,,,,,2023-12-14,1,,,,,リクイプメント,0
1175,5021001080958,新規,0,2023-12-14,2023-12-14,株式会社Ｓａｌｔｉｓｔａ橋本,,株式会社,神奈川県,相模原市緑区,二本松２丁目９番２０号,,14,151,2520137,,,,,,,2023-12-14,1,,,,,サルティスタハシモト,0
1176,5021001080966,新規,0,2023-12-14,2023-12-14,ＡＦＵＲＩ　ＢＲＥＷＩＮＧ株式会社,,株式会社,神奈川県,厚木市,恩名２丁目１番２３号,,14,212,2430032,,,,,,,2023-12-14,1,,,,,アフリブリューイング,0
1177,5021003013899,新規,0,2023-12-14,2023-12-14,小春日和合同会社,,合同会社,神奈川県,鎌倉市,佐助２丁目２０番１号,,14,204,2480017,,,,,,,2023-12-14,1,,,,,コハルビヨリ,0
1178,5021005012973,新規,0,2023-12-14,2023-12-14,医療法人よつば会,,その他の設立登記法人,神奈川県,海老名市,柏ケ谷５２２番地の４－１階,,14,215,2430402,,,,,,,2023-12-14,1,,,,,ヨツバカイ,0
1185,5030001157625,新規,0,2023-12-14,2023-12-14,ワンスト株式会社,,株式会社,埼玉県,朝霞市,三原５丁目１５番６号,,11,227,3510025,,,,,,,2023-12-14,1,,,,,ワンスト,0
1186,5030001157641,新規,0,2023-12-14,2023-12-14,株式会社ビーコン・ウェルス,,株式会社,埼玉県,川口市,飯塚１丁目３番６号プラウドタワー川口１６０９室,,11,203,3320023,,,,,,,2023-12-14,1,,,,,ビーコンウェルス,0
1187,5030001157658,新規,0,2023-12-14,2023-12-14,株式会社Ｊｙｓｓ,,株式会社,埼玉県,さいたま市大宮区,高鼻町１丁目４９番地明和マンション４０３号,,11,103,3300803,,,,,,,2023-12-14,1,,,,,ジス,0
1188,5030001157699,新規,0,2023-12-14,2023-12-14,株式会社リフォームメイク,,株式会社,埼玉県,越谷市,大沢１５９３番地３,,11,222,3430025,,,,,,,2023-12-14,1,,,,,リフォームメイク,0
1192,5030003023197,新規,0,2023-12-14,2023-12-14,合同会社ＮＯＮＡＫＳ,,合同会社,埼玉県,さいたま市北区,本郷町４０８番地７,,11,102,3310802,,,,,,,2023-12-14,1,,,,,ノナックス,0
1193,5030003023214,新規,0,2023-12-14,2023-12-14,合同会社指神,,合同会社,埼玉県,戸田市,下前１丁目１４番２６号マンション戸田橋１０１,,11,224,3350016,,,,,,,2023-12-14,1,,,,,シシン,0
1194,5030003023222,新規,0,2023-12-14,2023-12-14,合同会社Ｐｕｅｒｔａ,,合同会社,埼玉県,三郷市,戸ケ崎３丁目５６４番地１サンライフ戸ケ崎４０３号,,11,237,3410044,,,,,,,2023-12-14,1,,,,,プエルタ,0
1201,5040001131307,新規,0,2023-12-14,2023-12-14,株式会社千白,,株式会社,千葉県,千葉市若葉区,高根町６９１番地,,12,104,2650061,,,,,,,2023-12-14,1,,,,,チハク,0
1202,5040001131315,新規,0,2023-12-14,2023-12-14,株式会社花門,,株式会社,千葉県,成田市,大竹２２３６番地,,12,211,2860841,,,,,,,2023-12-14,1,,,,,カモン,0
1203,5040001131323,新規,0,2023-12-14,2023-12-14,株式会社しんぶん家,,株式会社,千葉県,山武郡芝山町,菱田７５５番地,,12,409,2891602,,,,,,,2023-12-14,1,,,,,シンブンヤ,0
1204,5040001131356,新規,0,2023-12-14,2023-12-14,株式会社Ｅ‐ＬＩＮＫ,,株式会社,千葉県,八千代市,萱田町７０６番地１６,,12,221,2760044,,,,,,,2023-12-14,1,,,,,イーリンク,0
1205,5040001131372,新規,0,2023-12-14,2023-12-14,ステラート株式会社,,株式会社,千葉県,長生郡白子町,剃金２７０２－２,,12,424,2994203,,,,,,,2023-12-14,1,,,,,ステラート,0
1215,5050001053962,新規,0,2023-12-14,2023-12-14,株式会社ＧＲＥＥＮ‐ＤＡ,,株式会社,茨城県,水戸市,栄町１丁目３番６クラージュ水戸１０２,,08,201,3100064,,,,,,,2023-12-14,1,,,,,グリンダ,0
1226,5070001041189,新規,0,2023-12-14,2023-12-14,ＭＫディビジョン株式会社,,株式会社,群馬県,高崎市,下小鳥町８１番地８,,10,202,3700074,,,,,,,2023-12-14,1,,,,,エムケーディビジョン,0
1227,5070001041197,新規,0,2023-12-14,2023-12-14,ＳＨＥＥＰ　ＷＩＮＧ株式会社,,株式会社,群馬県,みどり市,笠懸町久宮１４８番地１－Ｈ号棟,,10,212,3792312,,,,,,,2023-12-14,1,,,,,シープウィング,0
1231,5070003005183,新規,0,2023-12-14,2023-12-14,赤城インターナショナル合同会社,,合同会社,群馬県,伊勢崎市,連取町１５０３番地１本木マンション４０７,,10,204,3720812,,,,,,,2023-12-14,1,,,,,アカギインターナショナル,0
1233,5080001026032,新規,0,2023-12-14,2023-12-14,株式会社ＡＮＤ　ＡＮＴＩＤＯＴＥ,,株式会社,静岡県,静岡市葵区,伝馬町９番地の１３,,22,101,4200858,,,,,,,2023-12-14,1,,,,,アンドアンティドート,0
1235,5080401026879,新規,0,2023-12-14,2023-12-14,株式会社長楽静岡,,株式会社,静岡県,浜松市中区,千歳町１０３番地２,,22,131,4300934,,,,,,,2023-12-14,1,,,,,チョウラクシズオカ,0
1254,5120001260493,新規,0,2023-12-14,2023-12-14,株式会社ジョイストーリー,,株式会社,大阪府,大阪市西区,江戸堀２丁目１番１号江戸堀センタービル９階,,27,106,5500002,,,,,,,2023-12-14,1,,,,,ジョイストーリー,0
1255,5120003025473,新規,0,2023-12-14,2023-12-14,合同会社ＴＥＥ　ＴＩＭＥ,,合同会社,大阪府,大阪市淀川区,西中島３丁目１９番１９号５階,,27,123,5320011,,,,,,,2023-12-14,1,,,,,ティータイム,0
1256,5120003025523,新規,0,2023-12-14,2023-12-14,合同会社ＳＵＮＴＯ,,合同会社,大阪府,大阪市浪速区,久保吉１丁目２番４号,,27,111,5560028,,,,,,,2023-12-14,1,,,,,サント,0
1259,5120101068696,新規,0,2023-12-14,2023-12-14,株式会社一瑠技研,,株式会社,大阪府,高石市,西取石１丁目１５番２３号,,27,225,5920012,,,,,,,2023-12-14,1,,,,,イチルギケン,0
1277,5140001132641,新規,0,2023-12-14,2023-12-14,株式会社マックスフリー,,株式会社,兵庫県,加東市,木梨１６４番地３０,,28,228,6731461,,,,,,,2023-12-14,1,,,,,マックスフリー,0
1280,5140003019911,新規,0,2023-12-14,2023-12-14,コウベデンタルサポート合同会社,,合同会社,兵庫県,神戸市西区,学園東町６丁目６番地の４,,28,111,6512102,,,,,,,2023-12-14,1,,,,,コウベデンタルサポート,0
1283,5160005011253,新規,0,2023-12-14,2023-12-14,一般社団法人ＤＡＩＧＯＯＡＳＩＳ,,その他の設立登記法人,滋賀県,草津市,若竹町８－３８,,25,206,5250031,,,,,,,2023-12-14,1,,,,,ダイゴオアシス,0
1288,5180001159144,新規,0,2023-12-14,2023-12-14,株式会社ＦＧＰＺ,,株式会社,愛知県,名古屋市瑞穂区,桃園町３番１０号ライオンズステージ瑞穂ペンティアス１００６号,,23,108,4670855,,,,,,,2023-12-14,1,,,,,エフジーピーゼット,0
1289,5180001159334,新規,0,2023-12-14,2023-12-14,株式会社Ｒｅｂｒａ,,株式会社,愛知県,名古屋市名東区,引山１丁目９０１番地の４,,23,115,4650002,,,,,,,2023-12-14,1,,,,,リブラ,0
1290,5180001159342,新規,0,2023-12-14,2023-12-14,ベターデイズ株式会社,,株式会社,愛知県,江南市,五明町青木２５７－１,,23,217,4838241,,,,,,,2023-12-14,1,,,,,ベターデイズ,0
1291,5180001159350,新規,0,2023-12-14,2023-12-14,株式会社アクチュアライズ,,株式会社,愛知県,長久手市,山越９１２番地１,,23,238,4801111,,,,,,,2023-12-14,1,,,,,アクチュアライズ,0
1292,5180001159391,新規,0,2023-12-14,2023-12-14,株式会社ＧＡＬＬＥ,,株式会社,愛知県,長久手市,砂子１５１１番地,,23,238,4801112,,,,,,,2023-12-14,1,,,,,ガレ,0
1295,5180003026103,新規,0,2023-12-14,2023-12-14,エピオンリンク合同会社,,合同会社,愛知県,一宮市,浅井町大日比野字尾関前９番地,,23,203,4910105,,,,,,,2023-12-14,1,,,,,エピオンリンク,0
1298,5190005011894,新規,0,2023-12-14,2023-12-14,一般社団法人ａｔ　ｓｅａ,,その他の設立登記法人,三重県,鳥羽市,鳥羽５丁目２番１４号,,24,211,5170011,,,,,,,2023-12-14,1,,,,,アットシー,0
1313,5240003006453,新規,0,2023-12-14,2023-12-14,ｕｒｅ合同会社,,合同会社,広島県,広島市西区,鈴が峰町３５番１３－４０２号,,34,104,7330852,,,,,,,2023-12-14,1,,,,,ユール,0
1322,5260001038570,新規,0,2023-12-14,2023-12-14,株式会社兼光,,株式会社,岡山県,美作市,豆田１番地８,,33,215,7094214,,,,,,,2023-12-14,1,,,,,カネミツ,0
1326,5260003004521,新規,0,2023-12-14,2023-12-14,Ｄ＆Ｈ合同会社,,合同会社,岡山県,岡山市北区,新道２８－１０,,33,101,7000863,,,,,,,2023-12-14,1,,,,,ディーアンドエイチ,0
1331,5290001103999,新規,0,2023-12-14,2023-12-14,株式会社大尚建設,,株式会社,福岡県,福岡市東区,多の津１丁目１０番１号ビジネスエンジェルビル４２１号,,40,131,8130034,,,,,,,2023-12-14,1,,,,,ダイショウケンセツ,0
1332,5290001104023,新規,0,2023-12-14,2023-12-14,経倫株式会社,,株式会社,福岡県,糟屋郡新宮町,大字上府６８０番地１,,40,345,8110117,,,,,,,2023-12-14,1,,,,,ケイリン,0
1333,5290001104064,新規,0,2023-12-14,2023-12-14,株式会社白崎,,株式会社,福岡県,福岡市早良区,西新２丁目２１－２８,,40,137,8140002,,,,,,,2023-12-14,1,,,,,シラサキ,0
1338,5290801030138,新規,0,2023-12-14,2023-12-14,株式会社中山工業,,株式会社,福岡県,中間市,中央２丁目９番３４号,,40,215,8090030,,,,,,,2023-12-14,1,,,,,ナカヤマコウギョウ,0
1346,5370001050713,新規,0,2023-12-14,2023-12-14,株式会社ＢＴＲ,,株式会社,宮城県,遠田郡涌谷町,字一本柳２１３番地４,,04,501,9870136,,,,,,,2023-12-14,1,,,,,ビーティーアール,0
1352,5420001018507,新規,0,2023-12-14,2023-12-14,株式会社松寛コーポレーション,,株式会社,青森県,八戸市,石堂２丁目２１番２号,,02,203,0391165,,,,,,,2023-12-14,1,,,,,マツヒロコーポレーション,0
1355,5430003015749,新規,0,2023-12-14,2023-12-14,ｍｏｏｎ　ｒｉｖｅｒ合同会社,,合同会社,北海道,札幌市東区,北丘珠五条１丁目２番１７号,,01,103,0070885,,,,,,,2023-12-14,1,,,,,ムーンリバー,0
1358,5470003002537,新規,0,2023-12-14,2023-12-14,合同会社吉田不動産．Ｐｒｏ,,合同会社,香川県,高松市,瓦町２丁目８番地４３Ｙビル４階,,37,201,7600052,,,,,,,2023-12-14,1,,,,,ヨシダフドウサンドットプロ,0
1361,5500001025362,新規,0,2023-12-14,2023-12-14,環境職人株式会社,,株式会社,愛媛県,西条市,禎瑞１８１６番地２,,38,206,7930061,,,,,,,2023-12-14,1,,,,,カンキョウショクニン,0
1371,6010001240530,新規,0,2023-12-14,2023-12-14,サブエレメンツ株式会社,,株式会社,東京都,千代田区,外神田２丁目１番１２号,,13,101,1010021,,,,,,,2023-12-14,1,,,,,サブエレメンツ,0
1372,6010001240712,新規,0,2023-12-14,2023-12-14,株式会社テックワークス,,株式会社,東京都,千代田区,神田松永町１３番地ＶＯＲＴ秋葉原ＩＩ,00133001,13,101,1010023,,,,,,,2023-12-14,1,,,,,テックワークス,0
1373,6010001240737,新規,0,2023-12-14,2023-12-14,株式会社Ｅ・ＭＯＤＥ,,株式会社,東京都,中央区,銀座７丁目３番７号,,13,102,1040061,,,,,,,2023-12-14,1,,,,,イーモード,0
1378,6010103002267,新規,0,2023-12-14,2023-12-14,ＳＤＣ合同会社,,合同会社,東京都,八王子市,北野町５７８番地２４,,13,201,1920906,,,,,,,2023-12-14,1,,,,,エスデーシー,0
1388,6010401179113,新規,0,2023-12-14,2023-12-14,株式会社ＭＫｒｏｏｍ,,株式会社,東京都,港区,六本木３丁目７番１号,,13,103,1060032,,,,,,,2023-12-14,1,,,,,エムケイルーム,0
1389,6010403031577,新規,0,2023-12-14,2023-12-14,合同会社Ｏｕｒ　Ｖｉｖｌｉｏ　Ｇａｍｅｓ,,合同会社,東京都,港区,新橋３丁目１１番８号オーイズミ新橋第２ビル８０２,,13,103,1050004,,,,,,,2023-12-14,1,,,,,アワービブリオゲームズ,0
1394,6010501051510,新規,0,2023-12-14,2023-12-14,株式会社東京バイヤーズ,,株式会社,東京都,台東区,上野５丁目７番８号第６協立ビル５階,,13,106,1100005,,,,,,,2023-12-14,1,,,,,トウキョウバイヤーズ,0
1402,6010601064338,新規,0,2023-12-14,2023-12-14,楽喜笑株式会社,,株式会社,東京都,江東区,亀戸９丁目３７番１号,,13,108,1360071,,,,,,,2023-12-14,1,,,,,ラッキーショー,0
1410,6010701045221,新規,0,2023-12-14,2023-12-14,ｐｏｐ　ｕｐ　ｄｒｅｓｓ株式会社,,株式会社,東京都,品川区,中延６丁目１１番６号フラットＫ１０２,,13,109,1420053,,,,,,,2023-12-14,1,,,,,ポップアップドレス,0
1411,6010701045254,新規,0,2023-12-14,2023-12-14,和饗ホールディングス株式会社,,株式会社,東京都,品川区,西五反田７丁目２５番１９号,,13,109,1410031,,,,,,,2023-12-14,1,,,,,ワキョウホールディングス,0
1412,6010701045262,新規,0,2023-12-14,2023-12-14,株式会社幸せの杜,,株式会社,東京都,品川区,西五反田２丁目９番７号,,13,109,1410031,,,,,,,2023-12-14,1,,,,,シアワセノモリ,0
1415,6010901054336,新規,0,2023-12-14,2023-12-14,株式会社グロース,,株式会社,東京都,世田谷区,太子堂１丁目４番２０号,,13,112,1540004,,,,,,,2023-12-14,1,,,,,グロース,0
1416,6010901054344,新規,0,2023-12-14,2023-12-14,株式会社ＢＧＮＣＥ,,株式会社,東京都,世田谷区,桜３丁目７番１５号,,13,112,1560053,,,,,,,2023-12-14,1,,,,,ビグナス,0
1417,6010901054352,新規,0,2023-12-14,2023-12-14,株式会社日本の朝ごはん,,株式会社,東京都,世田谷区,中町４丁目２９番１２号,,13,112,1580091,,,,,,,2023-12-14,1,,,,,ニホンノアサゴハン,0
1418,6010905004551,新規,0,2023-12-14,2023-12-14,一般社団法人ＨＩＰＡ,,その他の設立登記法人,東京都,世田谷区,羽根木２丁目３４番１６号アージョ世田谷東松原２０２,,13,112,1560042,,,,,,,2023-12-14,1,,,,,エイチアイピーエイ,0
1425,6011001158787,新規,0,2023-12-14,2023-12-14,株式会社ＭＹ．ＳＴＵＤＩＯ,,株式会社,東京都,渋谷区,渋谷２丁目１９－１５宮益坂ビルディング６０９,,13,113,1500002,,,,,,,2023-12-14,1,,,,,エムワイスタジオ,0
1426,6011001158820,新規,0,2023-12-14,2023-12-14,Ｒａｂｂｉｔ　Ｔａｉｌ　Ｓｔｕｄｉｏ株式会社,,株式会社,東京都,渋谷区,千駄ヶ谷４丁目１６番６号,,13,113,1510051,,,,,,,2023-12-14,1,,,,,ラビットテイルスタジオ,0
1427,6011001158829,新規,0,2023-12-14,2023-12-14,株式会社贈りものホールディングス,,株式会社,東京都,目黒区,下目黒２丁目２番１０号ＴＨＥ・ＥＤＧＥ５０１号,,13,110,1530064,,,,,,,2023-12-14,1,,,,,オクリモノホールディングス,0
1428,6011001158845,新規,0,2023-12-14,2023-12-14,株式会社ココレル,,株式会社,東京都,渋谷区,神宮前６丁目２３番４号桑野ビル２階,,13,113,1500001,,,,,,,2023-12-14,1,,,,,ココレル,0
1429,6011003018114,新規,0,2023-12-14,2023-12-14,Ｆｉｎａｎｃｉａｌ　ｊｐ合同会社,,合同会社,東京都,渋谷区,笹塚１丁目１９番４号エガワハイツ１０３,,13,113,1510073,,,,,,,2023-12-14,1,,,,,ファイナンシャルジェイピー,0
1435,6011103013849,新規,0,2023-12-14,2023-12-14,合同会社ＭＴ３,,合同会社,東京都,新宿区,新宿５丁目１８番２０号ルックハイツ新宿８０３号,,13,104,1600022,,,,,,,2023-12-14,1,,,,,エムティスリー,0
1442,6011505002598,新規,0,2023-12-14,2023-12-14,一般社団法人日本文化活性化協会,,その他の設立登記法人,東京都,荒川区,西尾久２丁目３４番８号,,13,118,1160011,,,,,,,2023-12-14,1,,,,,ニホンブンカカッセイカキョウカイ,0
1445,6011701026855,新規,0,2023-12-14,2023-12-14,株式会社ＳＫ．ｗｏｒｋｓ,,株式会社,東京都,江戸川区,南篠崎町３丁目２９番１２号,,13,123,1330065,,,,,,,2023-12-14,1,,,,,エスケーワークス,0
1448,6011801043486,新規,0,2023-12-14,2023-12-14,ＴＣＢ信和株式会社,,株式会社,東京都,足立区,谷中１丁目３０－８大和住信ビル,,13,121,1200006,,,,,,,2023-12-14,1,,,,,テシビシンワ,0
1451,6012401041319,新規,0,2023-12-14,2023-12-14,農業法人株式会社畑まる,,株式会社,東京都,調布市,富士見町３丁目２７番地５４,,13,208,1820033,,,,,,,2023-12-14,1,,,,,ノウギョウホウジンハタケマル,0
1453,6012701017992,新規,0,2023-12-14,2023-12-14,株式会社０１０２,,株式会社,東京都,西東京市,田無町２丁目１２－６第三下田マンション２０１号室,,13,229,1880011,,,,,,,2023-12-14,1,,,,,オーワンオーツー,0
1456,6012703002869,新規,0,2023-12-14,2023-12-14,オフィスＺ‐ＣＯＳ合同会社,,合同会社,東京都,西東京市,下保谷４丁目１６番２４号,,13,229,2020004,,,,,,,2023-12-14,1,,,,,オフィスジーコス,0
1458,6012801022819,新規,0,2023-12-14,2023-12-14,株式会社ｊｏｌｉ,,株式会社,東京都,立川市,柴崎町３丁目６番１９号テラス立川４Ｆ,,13,202,1900023,,,,,,,2023-12-14,1,,,,,ジョリ,0
1459,6012801022827,新規,0,2023-12-14,2023-12-14,株式会社田島電気設備,,株式会社,東京都,国分寺市,東元町１丁目３８番５７号,,13,214,1850022,,,,,,,2023-12-14,1,,,,,タジマデンキセツビ,0
1461,6012803003255,新規,0,2023-12-14,2023-12-14,ジョオン合同会社,,合同会社,東京都,国立市,東２丁目２４番地の１９,,13,215,1860002,,,,,,,2023-12-14,1,,,,,ジョオン,0
1471,6021001080940,新規,0,2023-12-14,2023-12-14,株式会社Ｅａｒｔｈ２２,,株式会社,神奈川県,鎌倉市,稲村ガ崎２丁目１１－８－２,,14,204,2480024,,,,,,,2023-12-14,1,,,,,,0
1472,6021001080965,新規,0,2023-12-14,2023-12-14,アルパワ株式会社,,株式会社,神奈川県,厚木市,岡田３丁目１３番１４号,,14,212,2430021,,,,,,,2023-12-14,1,,,,,アルパワ,0
1473,6021003013898,新規,0,2023-12-14,2023-12-14,合同会社あかり,,合同会社,神奈川県,三浦市,南下浦町上宮田１４４３－１Ｆ,,14,210,2380101,,,,,,,2023-12-14,1,,,,,アカリ,0
1474,6021003013907,新規,0,2023-12-14,2023-12-14,合同会社ソエル,,合同会社,神奈川県,伊勢原市,板戸４０５－２,,14,214,2591145,,,,,,,2023-12-14,1,,,,,ソエル,0
1479,6030001157632,新規,0,2023-12-14,2023-12-14,株式会社Ｍ’Ｚ解体,,株式会社,埼玉県,川口市,大字安行原１２７１番地の３２,,11,203,3340057,,,,,,,2023-12-14,1,,,,,エムズカイタイ,0
1480,6030001157640,新規,0,2023-12-14,2023-12-14,株式会社ミヤザキ,,株式会社,埼玉県,戸田市,下前２丁目１番５－１００１号,,11,224,3350016,,,,,,,2023-12-14,1,,,,,ミヤザキ,0
1481,6030001157649,新規,0,2023-12-14,2023-12-14,株式会社将伸工業,,株式会社,埼玉県,熊谷市,善ヶ島７０６番地１,,11,202,3600211,,,,,,,2023-12-14,1,,,,,ショウシンコウギョウ,0
1482,6030001157681,新規,0,2023-12-14,2023-12-14,株式会社アクル,,株式会社,埼玉県,川口市,鳩ヶ谷本町４丁目１番３９号サニーハウス１０５号,,11,203,3340002,,,,,,,2023-12-14,1,,,,,アクル,0
1483,6030001157707,新規,0,2023-12-14,2023-12-14,株式会社ペイフォワード,,株式会社,埼玉県,新座市,畑中２丁目１４番２６－１７号,,11,230,3520012,,,,,,,2023-12-14,1,,,,,ペイフォワード,0
1488,6030003023205,新規,0,2023-12-14,2023-12-14,ＪＵＬＹ合同会社,,合同会社,埼玉県,坂戸市,南町３４番７号ＫＩＶオフィス南町Ｄ号室,,11,239,3500233,,,,,,,2023-12-14,1,,,,,ジュリー,0
1493,6040001131314,新規,0,2023-12-14,2023-12-14,株式会社青田塗装,,株式会社,千葉県,佐倉市,城２０４番地１７１,,12,212,2850815,,,,,,,2023-12-14,1,,,,,アオタトソウ,0
1494,6040001131330,新規,0,2023-12-14,2023-12-14,株式会社Ｎｏ　Ｌｉｍｉｔ,,株式会社,千葉県,南房総市,和田町仁我浦２６６番地１,,12,234,2992703,,,,,,,2023-12-14,1,,,,,ノーリミット,0
1495,6040001131339,新規,0,2023-12-14,2023-12-14,株式会社菱栄,,株式会社,千葉県,野田市,山崎２７０４番地の１１３,,12,208,2780022,,,,,,,2023-12-14,1,,,,,リョウエイ,0
1496,6040001131371,新規,0,2023-12-14,2023-12-14,株式会社マルミチコーポレーション,,株式会社,千葉県,木更津市,大久保６５２－１０,,12,206,2920815,,,,,,,2023-12-14,1,,,,,マルミチコーポレーション,0
1497,6040003023906,新規,0,2023-12-14,2023-12-14,ＡＣＬＡＡＮ　ＩＮＴＥＲＮＡＴＩＯＮＡＬ合同会社,,合同会社,千葉県,印西市,発作１９２０番地１,,12,231,2701361,,,,,,,2023-12-14,1,,,,,アクランインターナショナル,0
1500,6050001053879,新規,0,2023-12-14,2023-12-14,Ｔｉｍｅ　Ｔａｃｔｉｃ株式会社,,株式会社,茨城県,つくば市,田中１８５６－１,,08,220,3004244,,,,,,,2023-12-14,1,,,,,タイムタックテック,0
1504,6070001041188,新規,0,2023-12-14,2023-12-14,株式会社ホームカンパニー群馬,,株式会社,群馬県,高崎市,剣崎町１３８番地３ロイヤルグレイスＩＩ１０１,00132987,10,202,3700883,,,,,,,2023-12-14,1,,,,,,0
1508,6100001037059,新規,0,2023-12-14,2023-12-14,株式会社紫翠,,株式会社,長野県,北佐久郡軽井沢町,大字長倉２１４７番地８２５,,20,321,3890111,,,,,,,2023-12-14,1,,,,,シスイ,0
1523,6120001260567,新規,0,2023-12-14,2023-12-14,Ｉｃｈｉｇｏ　Ｆａｍｉｌｙ株式会社,,株式会社,大阪府,大阪市東成区,玉津１丁目３番２１号,,27,115,5370023,,,,,,,2023-12-14,1,,,,,イチゴファミリー,0
1524,6120001260575,新規,0,2023-12-14,2023-12-14,蒂娜資産株式会社,,株式会社,大阪府,大阪市住之江区,粉浜西２丁目７番２８号,,27,125,5590007,,,,,,,2023-12-14,1,,,,,ティナシサン,0
1525,6120001260699,新規,0,2023-12-14,2023-12-14,ワールドリンク株式会社,,株式会社,大阪府,大阪市西成区,岸里１丁目４番１５号２Ａ号室,,27,122,5570041,,,,,,,2023-12-14,1,,,,,ワールドリンク,0
1526,6120003025506,新規,0,2023-12-14,2023-12-14,合同会社キカン,,合同会社,大阪府,大阪市西区,北堀江１丁目１番２４号,,27,106,5500014,,,,,,,2023-12-14,1,,,,,キカン,0
1529,6120101068695,新規,0,2023-12-14,2023-12-14,株式会社Ｂｅ　Ｗｉｔｈ　Ｙｏｕ,,株式会社,大阪府,大阪狭山市,今熊４丁目６６５番地の１５,,27,231,5890021,,,,,,,2023-12-14,1,,,,,ビーウィズユー,0
1538,6130001075907,新規,0,2023-12-14,2023-12-14,泉不動産株式会社,,株式会社,京都府,宮津市,字鶴賀２０６０番地の１７,,26,205,6260041,,,,,,,2023-12-14,1,,,,,イズミフドウサン,0
1545,6140001132459,新規,0,2023-12-14,2023-12-14,Ｇｒｏｗ株式会社,,株式会社,兵庫県,姫路市,上手野１１３番地２,,28,201,6700065,,,,,,,2023-12-14,1,,,,,グロー,0
1546,6140001132657,新規,0,2023-12-14,2023-12-14,株式会社エムズプランニング,,株式会社,兵庫県,加古川市,加古川町備後５０番地の１１,,28,210,6750032,,,,,,,2023-12-14,1,,,,,エムズプランニング,0
1547,6140001132665,新規,0,2023-12-14,2023-12-14,株式会社ＩＮＴＥＲＩＯＲ　ＳＴＹＬＩＮＧ　ＳＡＬＯＮ,,株式会社,兵庫県,姫路市,下手野３丁目１７番１８号,,28,201,6700063,,,,,,,2023-12-14,1,,,,,インテリアスタイリングサロン,0
1548,6140003019919,新規,0,2023-12-14,2023-12-14,Ｅ＆Ｈ　ＧＬＯＴＵＲＥ合同会社,,合同会社,兵庫県,神戸市灘区,新在家南町４丁目１６－２,,28,102,6570864,,,,,,,2023-12-14,1,,,,,イーアンドエイチグローチャー,0
1556,6160003003061,新規,0,2023-12-14,2023-12-14,ＷＯＲＬＤＷＩＳＥ合同会社,,合同会社,滋賀県,守山市,吉身３丁目１番４４号,,25,207,5240021,,,,,,,2023-12-14,1,,,,,ワールドワイズ,0
1562,6180001159300,新規,0,2023-12-14,2023-12-14,金シャチエナジー株式会社,,株式会社,愛知県,名古屋市中区,錦２丁目１９番１号名古屋鴻池ビルディング３階,,23,106,4600003,,,,,,,2023-12-14,1,,,,,キンシャチエナジー,0
1563,6180001159325,新規,0,2023-12-14,2023-12-14,株式会社Ｗｉｓｅ　Ｐｒｏｔｅｃｔ,,株式会社,愛知県,名古屋市中区,栄２丁目１２番１２号アーク栄白川パークビル４階,,23,106,4600008,,,,,,,2023-12-14,1,,,,,ワイズプロテクト,0
1564,6180001159341,新規,0,2023-12-14,2023-12-14,株式会社Ｂａｍｂｕｓ,,株式会社,愛知県,名古屋市守山区,天子田４丁目９０４番地,,23,113,4630037,,,,,,,2023-12-14,1,,,,,バンブス,0
1566,6180003026110,新規,0,2023-12-14,2023-12-14,合同会社ラテラルラボ,,合同会社,愛知県,名古屋市中区,栄１丁目１６番２５号アールヴェール３０２,,23,106,4600008,,,,,,,2023-12-14,1,,,,,ラテラルラボ,0
1567,6180003026127,新規,0,2023-12-14,2023-12-14,合同会社モリマサソリューションズ,,合同会社,愛知県,清須市,春日夢の森２丁目１３０番地,,23,233,4520961,,,,,,,2023-12-14,1,,,,,モリマサソリューションズ,0
1573,6200001041991,新規,0,2023-12-14,2023-12-14,株式会社ＳＧＳ,,株式会社,岐阜県,岐阜市,茜部寺屋敷１丁目１８－５,,21,201,5008267,,,,,,,2023-12-14,1,,,,,エスジーエス,0
1574,6200003006183,新規,0,2023-12-14,2023-12-14,合同会社睦,,合同会社,岐阜県,養老郡養老町,下笠１７２８番地９,,21,341,5031384,,,,,,,2023-12-14,1,,,,,ムツミ,0
1578,6220001025737,新規,0,2023-12-14,2023-12-14,株式会社ＡＺＵ,,株式会社,石川県,河北郡津幡町,字加賀爪ル５１番地３,,17,361,9290325,,,,,,,2023-12-14,1,,,,,アズ,0
1584,6240001062547,新規,0,2023-12-14,2023-12-14,株式会社リーフ,,株式会社,広島県,広島市西区,観音本町２丁目９番２８号,,34,104,7330033,,,,,,,2023-12-14,1,,,,,リーフ,0
1607,6310001018748,新規,0,2023-12-14,2023-12-14,株式会社ウチノ,,株式会社,長崎県,長崎市,金堀町２７番４号,,42,201,8528026,,,,,,,2023-12-14,1,,,,,ウチノ,0
1611,6330005010732,新規,0,2023-12-14,2023-12-14,医療法人神鷹会,,その他の設立登記法人,熊本県,山鹿市,山鹿１７１９,,43,208,8610501,,,,,,,2023-12-14,1,,,,,コウヨウカイ,0
1613,6360001032942,新規,0,2023-12-14,2023-12-14,株式会社ＳＯＢＡ,,株式会社,沖縄県,那覇市,字与儀２０８番地７・２階,,47,201,9020076,,,,,,,2023-12-14,1,,,,,ソバ,0
1615,6370001050720,新規,0,2023-12-14,2023-12-14,株式会社ビズロット,,株式会社,宮城県,富谷市,成田７丁目１３番地５,,04,216,9813341,,,,,,,2023-12-14,1,,,,,ビズロット,0
1616,6370003006415,新規,0,2023-12-14,2023-12-14,義＿商事合同会社,00132990,合同会社,宮城県,仙台市青葉区,北山３丁目１０番２号,,04,101,9810931,,,,,,,2023-12-14,1,,,,,イシンショウジ,0
1617,6370005010729,新規,0,2023-12-14,2023-12-14,医療法人壮羽会,,その他の設立登記法人,宮城県,仙台市青葉区,五橋１丁目６－２ＫＪビル８階,,04,101,9800022,,,,,,,2023-12-14,1,,,,,ソウワカイ,0
1624,6420001018506,新規,0,2023-12-14,2023-12-14,株式会社Ｙ’ｓクリエイト,,株式会社,青森県,八戸市,大字田面木字下田面木３９番地１,,02,203,0391104,,,,,,,2023-12-14,1,,,,,ワイズクリエイト,0
1625,6430001090628,新規,0,2023-12-14,2023-12-14,株式会社大真建設,,株式会社,北海道,札幌市北区,太平十条５丁目２番１号,,01,102,0028010,,,,,,,2023-12-14,1,,,,,ダイシンケンセツ,0
1626,6430001090636,新規,0,2023-12-14,2023-12-14,株式会社富栄産業,,株式会社,北海道,江別市,大麻元町１５８番地の９２,,01,217,0690841,,,,,,,2023-12-14,1,,,,,トミエイサンギョウ,0
1627,6430001090660,新規,0,2023-12-14,2023-12-14,株式会社希綱,,株式会社,北海道,千歳市,勇舞４丁目１０番１号,,01,224,0660078,,,,,,,2023-12-14,1,,,,,キズナ,0
1631,6470003002536,新規,0,2023-12-14,2023-12-14,ｇｕｆｏｆｅｌｉｃｅ合同会社,,合同会社,香川県,高松市,国分寺町柏原５９２番地２,,37,201,7690105,,,,,,,2023-12-14,1,,,,,グーフォフェリーチェ,0
1633,6500001025361,新規,0,2023-12-14,2023-12-14,株式会社ｎａｎｏ,,株式会社,愛媛県,今治市,別名３５０番地２,,38,202,7940065,,,,,,,2023-12-14,1,,,,,ナノ,0
1642,7010003042437,新規,0,2023-12-14,2023-12-14,合同会社ＴＳＵＭＵＧＩ,,合同会社,東京都,文京区,白山２丁目１１－１４セントラル小石川３０４,,13,105,1120001,,,,,,,2023-12-14,1,,,,,ツムギ,0
1643,7010005037625,新規,0,2023-12-14,2023-12-14,一般社団法人日本医療の未来,,その他の設立登記法人,東京都,中央区,日本橋３丁目２番２号オオタケ第７ビル６階,,13,102,1030027,,,,,,,2023-12-14,1,,,,,ニホンイリョウノミライ,0
1644,7010005037633,新規,0,2023-12-14,2023-12-14,一般社団法人ＲｅＭ,,その他の設立登記法人,東京都,中央区,銀座５丁目１０番２号ＧＩＮＺＡＭＩＳＳＰＡＲＩＳ８階,,13,102,1040061,,,,,,,2023-12-14,1,,,,,レム,0
1651,7010401179145,新規,0,2023-12-14,2023-12-14,ウィズワークス・リアルティ株式会社,,株式会社,東京都,港区,赤坂１丁目１番１７号細川ビル５０７,,13,103,1070052,,,,,,,2023-12-14,1,,,,,ウィズワークスリアルティ,0
1652,7010401179153,新規,0,2023-12-14,2023-12-14,株式会社バイプレーン,,株式会社,東京都,港区,海岸１丁目２番２０号汐留ビルディング３階,,13,103,1050022,,,,,,,2023-12-14,1,,,,,バイプレーン,0
1657,7010403031551,新規,0,2023-12-14,2023-12-14,丸越合同会社,,合同会社,東京都,港区,南青山３丁目１番３６号青山丸竹ビル６Ｆ,,13,103,1070062,,,,,,,2023-12-14,1,,,,,マルエツ,0
1658,7010403031576,新規,0,2023-12-14,2023-12-14,合同会社ＢｌｉｔｚＢｒｉｇａｄｅ　Ｇａｍｅｓ,,合同会社,東京都,港区,新橋３丁目１１番８号オーイズミ新橋第２ビル８０２,,13,103,1050004,,,,,,,2023-12-14,1,,,,,ブリッツブリゲードゲームズ,0
1659,7010403031584,新規,0,2023-12-14,2023-12-14,ＩＲＥ姶良ＰＯＷＥＲ　ＳＴＯＲＡＧＥ合同会社,,合同会社,東京都,港区,新橋６丁目１７番２１号住友不動産御成門駅前ビル１０階,,13,103,1050004,,,,,,,2023-12-14,1,,,,,アイアールイーアイラパワーストレージ,0
1663,7010501051501,新規,0,2023-12-14,2023-12-14,武田株式会社,,株式会社,東京都,台東区,浅草５丁目２９番２－２０１号,,13,106,1110032,,,,,,,2023-12-14,1,,,,,タケダ,0
1668,7010603010520,新規,0,2023-12-14,2023-12-14,名大合同会社,,合同会社,東京都,江東区,亀戸５丁目２５－９金沐荘１０３,,13,108,1360071,,,,,,,2023-12-14,1,,,,,メイダイ,0
1671,7010703006988,新規,0,2023-12-14,2023-12-14,ＭＡＫＯ合同会社,,合同会社,東京都,品川区,大井４丁目２－２－５０７,,13,109,1400014,,,,,,,2023-12-14,1,,,,,マコ,0
1675,7010901054343,新規,0,2023-12-14,2023-12-14,株式会社ＬｅａＰ　ＵＰ,,株式会社,東京都,世田谷区,新町１丁目２３番１１－４０３号グランメール桜新町,,13,112,1540014,,,,,,,2023-12-14,1,,,,,リープアップ,0
1678,7010905004550,新規,0,2023-12-14,2023-12-14,ＮＰＯ法人ＪＡＨＡ,,その他の設立登記法人,東京都,世田谷区,駒沢１丁目８番２０号,,13,112,1540012,,,,,,,2023-12-14,1,,,,,ジャハ,0
1686,7011001158778,新規,0,2023-12-14,2023-12-14,Ａｂｓ株式会社,,株式会社,東京都,渋谷区,渋谷２丁目１９－１５宮益坂ビルディング６０９,,13,113,1500002,,,,,,,2023-12-14,1,,,,,アブズ,0
1687,7011001158836,新規,0,2023-12-14,2023-12-14,株式会社アイ・エム・ジェイ,,株式会社,東京都,渋谷区,代々木１丁目６番１２号ＭＦビル５階,,13,113,1510053,,,,,,,2023-12-14,1,,,,,アイエムジェイ,0
1688,7011001158844,新規,0,2023-12-14,2023-12-14,株式会社ＲＹアセット,,株式会社,東京都,渋谷区,渋谷２丁目１９番１５－６０８号宮益坂ビルディング,,13,113,1500002,,,,,,,2023-12-14,1,,,,,アールワイアセット,0
1689,7011005010299,新規,0,2023-12-14,2023-12-14,一般社団法人日本インスティテューショナル・リサーチ協会,,その他の設立登記法人,東京都,目黒区,下目黒１丁目１番１４号コノトラビル７Ｆ,,13,110,1530064,,,,,,,2023-12-14,1,,,,,ニホンインスティテューショナルリサーチキョウカイ,0
1695,7011101105457,新規,0,2023-12-14,2023-12-14,株式会社快活快護,,株式会社,東京都,新宿区,高田馬場３丁目２番１４号天翔高田馬場ビル２０８,,13,104,1690075,,,,,,,2023-12-14,1,,,,,カイカツカイゴ,0
1699,7011303005001,新規,0,2023-12-14,2023-12-14,合同会社廣國,,合同会社,東京都,杉並区,西荻北２丁目２４番４号,,13,115,1670042,,,,,,,2023-12-14,1,,,,,ヒロクニ,0
1700,7011401025702,新規,0,2023-12-14,2023-12-14,株式会社日本ルミカラー,,株式会社,東京都,板橋区,小茂根２丁目３番２号コバヤシコーポ１０３,,13,119,1730037,,,,,,,2023-12-14,1,,,,,ニホンルミカラー,0
1701,7011501030107,新規,0,2023-12-14,2023-12-14,０‐１設計株式会社,,株式会社,東京都,北区,昭和町２丁目７番１号７Ｂ,,13,117,1140011,,,,,,,2023-12-14,1,,,,,ゼロイチセッケイ,0
1702,7011501030123,新規,0,2023-12-14,2023-12-14,株式会社ＳＳＳ,,株式会社,東京都,北区,志茂２丁目１５番６号,,13,117,1150042,,,,,,,2023-12-14,1,,,,,エスエスエス,0
1704,7011701026854,新規,0,2023-12-14,2023-12-14,株式会社イー・エス・ティ,,株式会社,東京都,江戸川区,松島３丁目２８番１０号,,13,123,1320031,,,,,,,2023-12-14,1,,,,,イーエスティ,0
1707,7011801043493,新規,0,2023-12-14,2023-12-14,Ｔｅｃｈ　Ａｌｌｉａｎｃｅ株式会社,,株式会社,東京都,足立区,竹の塚２丁目２９番１３号,,13,121,1210813,,,,,,,2023-12-14,1,,,,,テックアライアンス,0
1709,7012301013697,新規,0,2023-12-14,2023-12-14,株式会社Ｏｆｆｉｃｅ　ＳＭＥＣ,,株式会社,東京都,町田市,南つくし野２丁目２７番地３８,,13,209,1940002,,,,,,,2023-12-14,1,,,,,オフィスエスエムイーシー,0
1713,7012801022818,新規,0,2023-12-14,2023-12-14,株式会社アイ・ボナール,,株式会社,東京都,立川市,若葉町１丁目２４番地の１１５,,13,202,1900001,,,,,,,2023-12-14,1,,,,,アイボナール,0
1716,7013101009308,新規,0,2023-12-14,2023-12-14,株式会社ＫＪ秋川総合研究所,,株式会社,東京都,あきる野市,油平１０８番地,,13,228,1970827,,,,,,,2023-12-14,1,,,,,,0
1726,7020003025201,新規,0,2023-12-14,2023-12-14,合同会社ｓｕｋｈａ　ｃｏｒｅ,,合同会社,神奈川県,横浜市神奈川区,台町１６－４神台ハイム４０２,,14,102,2210834,,,,,,,2023-12-14,1,,,,,スッカコア,0
1728,7021001080948,新規,0,2023-12-14,2023-12-14,株式会社ＡＦＡＣ,,株式会社,神奈川県,相模原市緑区,西橋本５丁目４番２１号,,14,151,2520131,,,,,,,2023-12-14,1,,,,,エーエフエーシー,0
1729,7021001080972,新規,0,2023-12-14,2023-12-14,株式会社コジマホールディングス,,株式会社,神奈川県,小田原市,浜町１丁目１１番２６号,,14,206,2500004,,,,,,,2023-12-14,1,,,,,コジマホールディングス,0
1730,7021001080980,新規,0,2023-12-14,2023-12-14,株式会社Ｃ,,株式会社,神奈川県,茅ヶ崎市,東海岸北１丁目２番８号たかすなヴィレッジＡＮＮＥＸ２Ｆ,,14,207,2530053,,,,,,,2023-12-14,1,,,,,シー,0
1733,7021003013906,新規,0,2023-12-14,2023-12-14,合同会社Ｐｈｙｍａｒｅ,,合同会社,神奈川県,藤沢市,藤沢３４番地の２ライオンズプラザ藤沢１０２号,,14,205,2510052,,,,,,,2023-12-14,1,,,,,フィマーレ,0
1738,7030001157680,新規,0,2023-12-14,2023-12-14,みのりほーむ株式会社,,株式会社,埼玉県,蕨市,塚越５丁目４８番１５号,,11,223,3350002,,,,,,,2023-12-14,1,,,,,,0
1739,7030001157722,新規,0,2023-12-14,2023-12-14,株式会社ＯＫＵＩ　ＲＥＡＬ　ＥＳＴＡＴＥ,,株式会社,埼玉県,鴻巣市,郷地４３２－１,,11,217,3650022,,,,,,,2023-12-14,1,,,,,オクイリアルエステート,0
1742,7030003023187,新規,0,2023-12-14,2023-12-14,合同会社オフィスフック,,合同会社,埼玉県,川口市,並木４丁目１５番１９号,,11,203,3320034,,,,,,,2023-12-14,1,,,,,オフィスフック,0
1752,7040001131321,新規,0,2023-12-14,2023-12-14,株式会社サニーウェルビーイング,,株式会社,千葉県,鴨川市,東町９０４番地,,12,223,2960041,,,,,,,2023-12-14,1,,,,,サニーウェルビーイング,0
1753,7040001131338,新規,0,2023-12-14,2023-12-14,株式会社ＬＵＡＮＡ,,株式会社,千葉県,柏市,旭町１丁目３－３,,12,217,2770852,,,,,,,2023-12-14,1,,,,,ルアナ,0
1754,7040001131346,新規,0,2023-12-14,2023-12-14,ヒカリ支援株式会社,,株式会社,千葉県,野田市,岩名２０２３番地の７湯浅ビル－２Ｆ,,12,208,2780055,,,,,,,2023-12-14,1,,,,,ヒカリシエン,0
1757,7040003023905,新規,0,2023-12-14,2023-12-14,Ｐ＆Ｌエンジニアリング合同会社,,合同会社,千葉県,浦安市,美浜３丁目５番１５号,,12,227,2790011,,,,,,,2023-12-14,1,,,,,ピーアンドエルエンジニアリング,0
1765,7070001041195,新規,0,2023-12-14,2023-12-14,株式会社ＪＵＮＫＥＮ,,株式会社,群馬県,館林市,足次町１２５番地,,10,207,3740073,,,,,,,2023-12-14,1,,,,,,0
1768,7080101024405,新規,0,2023-12-14,2023-12-14,株式会社アンドパッケージ,,株式会社,静岡県,三島市,大場４５番地の３,,22,206,4110803,,,,,,,2023-12-14,1,,,,,アンドパッケージ,0
1769,7080401026885,新規,0,2023-12-14,2023-12-14,佐野ホールディングス株式会社,,株式会社,静岡県,袋井市,川井８６５番地の４,,22,216,4370064,,,,,,,2023-12-14,1,,,,,サノホールディングス,0
1773,7110005017030,新規,0,2023-12-14,2023-12-14,一般社団法人ゆうあい,,その他の設立登記法人,新潟県,新潟市中央区,堀之内南１丁目３２番２５号,,15,103,9500982,,,,,,,2023-12-14,1,,,,,ユウアイ,0
1782,7120001260491,新規,0,2023-12-14,2023-12-14,品耐久株式会社,,株式会社,大阪府,大阪市西淀川区,花川２丁目４－３５,,27,113,5550023,,,,,,,2023-12-14,1,,,,,ヒンタイキュウ,0
1783,7120001260509,新規,0,2023-12-14,2023-12-14,株式会社ティクシー,,株式会社,大阪府,大阪市中央区,高津３丁目６番３１号カホリ南ビル３Ｃ－３,,27,128,5420072,,,,,,,2023-12-14,1,,,,,ティクシー,0
1785,7120003025505,新規,0,2023-12-14,2023-12-14,合同会社Ｗｏｎｄｅｒｌａｎｄ,,合同会社,大阪府,大阪市中央区,日本橋１丁目２２－４－２０３,,27,128,5420073,,,,,,,2023-12-14,1,,,,,ワンダーランド,0
1786,7120003025513,新規,0,2023-12-14,2023-12-14,ＢＩＮＨ　ＡＮ合同会社,,合同会社,大阪府,大阪市生野区,巽北２丁目５番３４号マック北巽別棟事務号室２Ｆ,00132991,27,116,5440004,,,,,,,2023-12-14,1,,,,,ビンアン,0
1789,7120903004962,新規,0,2023-12-14,2023-12-14,合同会社フォーマルハウト,,合同会社,大阪府,吹田市,広芝町７番２６号,,27,205,5640052,,,,,,,2023-12-14,1,,,,,フォーマルハウト,0
1796,7130001075872,新規,0,2023-12-14,2023-12-14,株式会社ＡＴＡＭＡＯＶＥＲ,,株式会社,京都府,京都市上京区,丸太町通黒門東入藁屋町５３５番地６８,,26,102,6028144,,,,,,,2023-12-14,1,,,,,アタマオーバー,0
1797,7130001075939,新規,0,2023-12-14,2023-12-14,京都北山資産管理株式会社,,株式会社,京都府,京都市左京区,岩倉幡枝町２４５６番地３,,26,103,6060015,,,,,,,2023-12-14,1,,,,,キョウトキタヤマシサンカンリ,0
1799,7130003009192,新規,0,2023-12-14,2023-12-14,合同会社Ｓｅｒｏｔｏｎｉｎ,,合同会社,京都府,京都市左京区,山端滝ケ鼻町１０山端マンション２０３号室,,26,103,6068012,,,,,,,2023-12-14,1,,,,,セロトニン,0
1800,7130003009201,新規,0,2023-12-14,2023-12-14,ＫＳＲ合同会社,,合同会社,京都府,京都市伏見区,桃山町三河６８番地１２,,26,109,6128029,,,,,,,2023-12-14,1,,,,,ケーエスアール,0
1802,7130005016947,新規,0,2023-12-14,2023-12-14,一般社団法人ヒューマンパフォーマンス・アンド・サイエンスアカデミー,,その他の設立登記法人,京都府,京都市下京区,麓町６４５番地２,,26,106,6008467,,,,,,,2023-12-14,1,,,,,ヒューマンパフォーマンスアンドサイエンスアカデミー,0
1805,7140001132648,新規,0,2023-12-14,2023-12-14,株式会社大雅ホールディングス,,株式会社,兵庫県,尼崎市,大浜町２丁目３０番地,,28,202,6600095,,,,,,,2023-12-14,1,,,,,タイガホールディングス,0
1806,7140001132656,新規,0,2023-12-14,2023-12-14,株式会社海翔,,株式会社,兵庫県,姫路市,飾磨区今在家７丁目２０番地３,,28,201,6728079,,,,,,,2023-12-14,1,,,,,カイショウ,0
1812,7150003003144,新規,0,2023-12-14,2023-12-14,合同会社リトルブルー,,合同会社,奈良県,生駒市,萩の台８６６番地２８,,29,209,6300224,,,,,,,2023-12-14,1,,,,,リトルブルー,0
1814,7170003001963,新規,0,2023-12-14,2023-12-14,合同会社山尾デザイン研究所,,合同会社,和歌山県,和歌山市,栄谷９７４番地２２９,,30,201,6408441,,,,,,,2023-12-14,1,,,,,ヤマオデザインケンキュウショ,0
1823,7180001159191,新規,0,2023-12-14,2023-12-14,株式会社ネオ・ケア,,株式会社,愛知県,名古屋市千種区,千種通７丁目１０５番地の２,,23,101,4640855,,,,,,,2023-12-14,1,,,,,ネオケア,0
1824,7180001159316,新規,0,2023-12-14,2023-12-14,株式会社リンクロム,,株式会社,愛知県,一宮市,大志２丁目２番１号,,23,203,4910852,,,,,,,2023-12-14,1,,,,,リンクロム,0
1825,7180001159324,新規,0,2023-12-14,2023-12-14,株式会社ウキヤ工業,,株式会社,愛知県,北名古屋市,野崎城屋敷５番地,,23,234,4810042,,,,,,,2023-12-14,1,,,,,ウキヤコウギョウ,0
1826,7180001159340,新規,0,2023-12-14,2023-12-14,ＢＬＯＯＭ株式会社,,株式会社,愛知県,名古屋市北区,若鶴町３３８番地の１,,23,103,4620006,,,,,,,2023-12-14,1,,,,,ブルーム,0
1827,7180001159349,新規,0,2023-12-14,2023-12-14,株式会社中部解体,,株式会社,愛知県,名古屋市昭和区,阿由知通３丁目３番地の２ロイヤル御器所５０１号,,23,107,4660027,,,,,,,2023-12-14,1,,,,,チュウブカイタイ,0
1828,7180001159373,新規,0,2023-12-14,2023-12-14,田中電気設備株式会社,,株式会社,愛知県,名古屋市北区,楠味鋺１丁目１１１番地の３,,23,103,4620014,,,,,,,2023-12-14,1,,,,,タナカデンキセツビ,0
1832,7180005020457,新規,0,2023-12-14,2023-12-14,一般社団法人三豊茶業,,その他の設立登記法人,愛知県,名古屋市千種区,東明町３丁目１５番地,,23,101,4640028,,,,,,,2023-12-14,1,,,,,ミトヨチャギョウ,0
1834,7180301038104,新規,0,2023-12-14,2023-12-14,ＳＥＩＢＵホールディングス株式会社,,株式会社,愛知県,西尾市,一色町池田宮前３６番地３,,23,213,4440401,,,,,,,2023-12-14,1,,,,,セイブホールディングス,0
1849,7240001062538,新規,0,2023-12-14,2023-12-14,日美商事株式会社,,株式会社,広島県,広島市安佐北区,大林１丁目１４－４２－４,,34,106,7310201,,,,,,,2023-12-14,1,,,,,ニチビショウジ,0
1850,7240001062562,新規,0,2023-12-14,2023-12-14,株式会社あさひ,,株式会社,広島県,呉市,安浦町三津口３丁目２番１７号,,34,202,7372502,,,,,,,2023-12-14,1,,,,,アサヒ,0
1852,7250001020429,新規,0,2023-12-14,2023-12-14,株式会社日高電工,00132988,株式会社,山口県,玖珂郡和木町,瀬田３丁目４番１号,,35,321,7400062,,,,,,,2023-12-14,1,,,,,ヒダカデンコウ,0
1853,7250003003398,新規,0,2023-12-14,2023-12-14,合同会社エフコーポレーション,,合同会社,山口県,防府市,大字西浦２６４１,,35,206,7470835,,,,,,,2023-12-14,1,,,,,エフコーポレーション,0
1864,7290001104005,新規,0,2023-12-14,2023-12-14,ヴィラオーヴェスト株式会社,,株式会社,福岡県,大牟田市,大字宮崎３０７４番地１,,40,202,8370903,,,,,,,2023-12-14,1,,,,,ヴィラオーヴェスト,0
1865,7290001104038,新規,0,2023-12-14,2023-12-14,株式会社エル・シー,,株式会社,福岡県,福岡市博多区,石城町１２番１号,,40,132,8120032,,,,,,,2023-12-14,1,,,,,エルシー,0
1868,7300001013550,新規,0,2023-12-14,2023-12-14,株式会社かねふ,,株式会社,佐賀県,佐賀市,大和町大字久池井２３８４番地１,,41,201,8400202,,,,,,,2023-12-14,1,,,,,カネフ,0
1873,7330003010122,新規,0,2023-12-14,2023-12-14,城山塗装工業合同会社,,合同会社,熊本県,熊本市西区,城山半田２丁目１８１－２,,43,103,8600064,,,,,,,2023-12-14,1,,,,,ジョウザントソウコウギョウ,0
1878,7350003004519,新規,0,2023-12-14,2023-12-14,合同会社リヤン,,合同会社,宮崎県,宮崎市,下北方町下郷５９５５番地１６,,45,201,8800035,,,,,,,2023-12-14,1,,,,,リヤン,0
1885,7380003005638,新規,0,2023-12-14,2023-12-14,合同会社Ｎ商事,,合同会社,福島県,郡山市,安積４丁目２４７番地,,07,203,9630107,,,,,,,2023-12-14,1,,,,,エヌショウジ,0
1892,7430001090627,新規,0,2023-12-14,2023-12-14,株式会社ハッピーゾーン,,株式会社,北海道,札幌市西区,琴似一条５丁目３番２０号,,01,107,0630811,,,,,,,2023-12-14,1,,,,,ハッピーゾーン,0
1893,7430001090643,新規,0,2023-12-14,2023-12-14,株式会社ＭＡＵＭＡＵ,,株式会社,北海道,札幌市白石区,菊水四条２丁目１番６号,,01,104,0030804,,,,,,,2023-12-14,1,,,,,マウマウ,0
1894,7430001090651,新規,0,2023-12-14,2023-12-14,株式会社ＮＡＳＵ企画,,株式会社,北海道,札幌市白石区,菊水元町六条２丁目５番１８号メゾン元町６２－１０１号室,,01,104,0030826,,,,,,,2023-12-14,1,,,,,ナスキカク,0
1896,7430003015747,新規,0,2023-12-14,2023-12-14,合同会社昌和建材,,合同会社,北海道,岩見沢市,金子町７５４番地２,,01,210,0680847,,,,,,,2023-12-14,1,,,,,ショウワケンザイ,0
1898,7470003002535,新規,0,2023-12-14,2023-12-14,合同会社タニオカ,,合同会社,香川県,丸亀市,飯山町東坂元３４４番地１,,37,202,7620081,,,,,,,2023-12-14,1,,,,,タニオカ,0
1899,7500001025360,新規,0,2023-12-14,2023-12-14,株式会社祐’ｓシステム,,株式会社,愛媛県,西予市,宇和町さくら１番地７４,,38,214,7970008,,,,,,,2023-12-14,1,,,,,ユーズシステム,0
1900,7700150122310,新規,0,2023-12-14,2023-11-27,坂田広亮後援会,,その他,宮崎県,児湯郡都農町,大字川北４８５８番地１,,45,406,8891201,,,,,,,2023-11-27,1,,,,,サカタヒロアキコウエンカイ,0
1908,8010001240693,新規,0,2023-12-14,2023-12-14,株式会社ビヨンド・コンサルティング,,株式会社,東京都,中央区,銀座６丁目１３番１６号銀座Ｗａｌｌビル,,13,102,1040061,,,,,,,2023-12-14,1,,,,,ビヨンドコンサルティング,0
1914,8010003042378,新規,0,2023-12-14,2023-12-14,合同会社７Ｃ,,合同会社,東京都,千代田区,霞が関３丁目２番５号,,13,101,1000013,,,,,,,2023-12-14,1,,,,,セブンシー,0
1916,8010101015913,新規,0,2023-12-14,2023-12-14,株式会社秀和鐵鋼,,株式会社,東京都,八王子市,寺田町７６５番地１グリーンパークみよだＡ１０１号,,13,201,1930943,,,,,,,2023-12-14,1,,,,,シュウワテッコウ,0
1917,8010101015921,新規,0,2023-12-14,2023-12-14,株式会社白雨,,株式会社,東京都,八王子市,東浅川町２７２番地６,,13,201,1930834,,,,,,,2023-12-14,1,,,,,ハクウ,0
1923,8010401179111,新規,0,2023-12-14,2023-12-14,株式会社ＸＳｐｒｏｕｔ,,株式会社,東京都,港区,虎ノ門５丁目９番１号,,13,103,1050001,,,,,,,2023-12-14,1,,,,,エクスプラウト,0
1924,8010401179128,新規,0,2023-12-14,2023-12-14,株式会社エム・シー・サービス,,株式会社,東京都,港区,赤坂２丁目２２番１９号南部坂アネックス５０１,,13,103,1070052,,,,,,,2023-12-14,1,,,,,エムシーサービス,0
1925,8010401179193,新規,0,2023-12-14,2023-12-14,株式会社千寿菊,,株式会社,東京都,港区,新橋３丁目２１番１０号オルバスビル３階,,13,103,1050004,,,,,,,2023-12-14,1,,,,,センジュギク,0
1928,8010403031575,新規,0,2023-12-14,2023-12-14,合同会社ＣｏｚｙＴｒａｉｌ　Ｇａｍｅｓ,,合同会社,東京都,港区,新橋３丁目１１番８号オーイズミ新橋第２ビル８０２,,13,103,1050004,,,,,,,2023-12-14,1,,,,,コージートレイルゲームズ,0
1930,8010405022770,新規,0,2023-12-14,2023-12-14,一般社団法人ｓｃｏｏｌ,,その他の設立登記法人,東京都,港区,南青山２丁目２－１５,,13,103,1070062,,,,,,,2023-12-14,1,,,,,スクール,0
1931,8010501051491,新規,0,2023-12-14,2023-12-14,株式会社ＡＩＭＯ　Ｂｅａｕｔｙ　ＬＡＢＯ,,株式会社,東京都,台東区,上野７丁目８－１１,,13,106,1100005,,,,,,,2023-12-14,1,,,,,アイモビューティーラボ,0
1932,8010501051500,新規,0,2023-12-14,2023-12-14,株式会社ＡＲＥＡ５１,,株式会社,東京都,台東区,台東４丁目３１番１号ＡＬビルＢ１階３,,13,106,1100016,,,,,,,2023-12-14,1,,,,,エリアゴジュウイチ,0
1934,8010601064328,新規,0,2023-12-14,2023-12-14,株式会社日晨,,株式会社,東京都,墨田区,亀沢１丁目４番１８号ニュー柏木ビル４階,,13,107,1300014,,,,,,,2023-12-14,1,,,,,ニッシン,0
1935,8010601064336,新規,0,2023-12-14,2023-12-14,株式会社ＯＮＥ　Ｓｕｐｐｏｒｔ,,株式会社,東京都,江東区,大島３丁目８番７－３１３号,,13,108,1360072,,,,,,,2023-12-14,1,,,,,ワンサポート,0
1939,8010801034592,新規,0,2023-12-14,2023-12-14,株式会社ｃｏｃｏｃｏ,,株式会社,東京都,大田区,西馬込１丁目２６番７号,,13,111,1430026,,,,,,,2023-12-14,1,,,,,コココ,0
1960,8011001158728,新規,0,2023-12-14,2023-12-14,株式会社バランシス,,株式会社,東京都,渋谷区,恵比寿西１丁目２４－１０ＡＳＴＩＬＥ代官山４０１,,13,113,1500021,,,,,,,2023-12-14,1,,,,,バランシス,0
1961,8011001158827,新規,0,2023-12-14,2023-12-14,ＯＶＥＲ株式会社,,株式会社,東京都,渋谷区,恵比寿西２丁目８番４号,,13,113,1500021,,,,,,,2023-12-14,1,,,,,オーバー,0
1964,8011003018104,新規,0,2023-12-14,2023-12-14,合同会社ピットインプロジェクト,,合同会社,東京都,渋谷区,円山町５番５号Ｎａｖｉ渋谷Ｖ３階,00132989,13,113,1500044,,,,,,,2023-12-14,1,,,,,ピットインプロジェクト,0
1980,8011603004164,新規,0,2023-12-14,2023-12-14,合同会社Ｙｏｈａｑｕｅ,,合同会社,東京都,練馬区,田柄４丁目８－４,,13,120,1790073,,,,,,,2023-12-14,1,,,,,ヨハク,0
1981,8011701026853,新規,0,2023-12-14,2023-12-14,株式会社白石設備,,株式会社,東京都,江戸川区,江戸川２丁目４番１０号,,13,123,1320013,,,,,,,2023-12-14,1,,,,,シライシセツビ,0
1985,8012701017990,新規,0,2023-12-14,2023-12-14,株式会社鷲尾建創,,株式会社,東京都,東村山市,久米川町１丁目３９番地９市川ハイツ３－１０１,,13,213,1890003,,,,,,,2023-12-14,1,,,,,ワシオケンソウ,0
1986,8012801022825,新規,0,2023-12-14,2023-12-14,株式会社ウタタネ,,株式会社,東京都,武蔵村山市,伊奈平６丁目６６番地の３７,,13,223,2080023,,,,,,,2023-12-14,1,,,,,ウタタネ,0
1990,8013301051769,新規,0,2023-12-14,2023-12-14,株式会社エル,,株式会社,東京都,豊島区,南池袋１丁目１５番２１号田中ビル１０５号室,,13,116,1710022,,,,,,,2023-12-14,1,,,,,エル,0
1995,8020001154868,新規,0,2023-12-14,2023-12-14,株式会社Ｆｏｕｒ　ｐｏｉｎｔｓ,,株式会社,神奈川県,横浜市瀬谷区,瀬谷６丁目１７番地３,,14,114,2460031,,,,,,,2023-12-14,1,,,,,フォーポインツ,0
1996,8020001154901,新規,0,2023-12-14,2023-12-14,株式会社ＧＭＣ,,株式会社,神奈川県,横浜市鶴見区,北寺尾１丁目１０番３６号,,14,101,2300074,,,,,,,2023-12-14,1,,,,,ジーエムシー,0
2002,8021001080971,新規,0,2023-12-14,2023-12-14,株式会社キャッシュカウ,,株式会社,神奈川県,平塚市,御殿１丁目１５番６－２号,,14,203,2540061,,,,,,,2023-12-14,1,,,,,キャッシュカウ,0
2007,8030001157622,新規,0,2023-12-14,2023-12-14,トミタワークス株式会社,,株式会社,埼玉県,吉川市,大字上笹塚１６５４番地２,,11,243,3420017,,,,,,,2023-12-14,1,,,,,トミタワークス,0
2008,8030001157639,新規,0,2023-12-14,2023-12-14,株式会社Ｖａｐａｕｓ,,株式会社,埼玉県,さいたま市西区,三橋６丁目１７０８番地５,,11,101,3310052,,,,,,,2023-12-14,1,,,,,ヴァパウス,0
2009,8030001157671,新規,0,2023-12-14,2023-12-14,株式会社比嘉工業,,株式会社,埼玉県,川口市,大字安行吉岡１２８０番地の９,,11,203,3340072,,,,,,,2023-12-14,1,,,,,ヒガコウギョウ,0
2014,8040001131312,新規,0,2023-12-14,2023-12-14,株式会社ＮＥＸＴ　ＬＩＮＥ,,株式会社,千葉県,印西市,草深２４７０番地７,,12,231,2701337,,,,,,,2023-12-14,1,,,,,ネクストライン,0
2015,8040001131329,新規,0,2023-12-14,2023-12-14,株式会社Ｅｄｅｎｓｔ,,株式会社,千葉県,千葉市稲毛区,稲毛東３丁目２番１７号ＷｉｎｇＢ１０７,,12,103,2630031,,,,,,,2023-12-14,1,,,,,エデンスト,0
2016,8040001131345,新規,0,2023-12-14,2023-12-14,株式会社ケイサポ,,株式会社,千葉県,長生郡長南町,千田９１８番地,,12,427,2970115,,,,,,,2023-12-14,1,,,,,ケイサポ,0
2017,8040001131361,新規,0,2023-12-14,2023-12-14,アイ・コミホールディングス株式会社,,株式会社,千葉県,千葉市稲毛区,山王町２７１番地１,,12,103,2630002,,,,,,,2023-12-14,1,,,,,アイコミホールディングス,0
2020,8040003023920,新規,0,2023-12-14,2023-12-14,合同会社Ｍａｋｅ　Ｓｅｎｓｅ,,合同会社,千葉県,鎌ケ谷市,中央２丁目２３番５号,,12,224,2730124,,,,,,,2023-12-14,1,,,,,メイクセンス,0
2027,8070001041186,新規,0,2023-12-14,2023-12-14,株式会社ＢＵＩＬＤ,,株式会社,群馬県,北群馬郡吉岡町,大字大久保６３０番地１６,,10,345,3703602,,,,,,,2023-12-14,1,,,,,ビィルド,0
2028,8070001041194,新規,0,2023-12-14,2023-12-14,株式会社Ｒｅｎｏ　Ｗｅｌｌｎｅｓｓ,,株式会社,群馬県,太田市,東別所町１７５番地１,,10,205,3730815,,,,,,,2023-12-14,1,,,,,リノウェルネス,0
2033,8080105006381,新規,0,2023-12-14,2023-12-14,一般社団法人ライフイズ,,その他の設立登記法人,静岡県,賀茂郡松崎町,江奈４７０番地,,22,305,4103624,,,,,,,2023-12-14,1,,,,,ライフイズ,0
2034,8080401026884,新規,0,2023-12-14,2023-12-14,環境アソシエイツ株式会社,,株式会社,静岡県,袋井市,豊沢１９１４番地の７,,22,216,4370032,,,,,,,2023-12-14,1,,,,,カンキョウアソシエイツ,0
2035,8080401026892,新規,0,2023-12-14,2023-12-14,株式会社ｋｒａｆｔｉｇ,,株式会社,静岡県,掛川市,仁藤１１７番地の１,,22,213,4360071,,,,,,,2023-12-14,1,,,,,クレフティヒ,0
2045,8120001260581,新規,0,2023-12-14,2023-12-14,株式会社Ｌｏｖｅ　Ｒａｉｎｂｏｗｓ,,株式会社,大阪府,寝屋川市,香里南之町２８番２４－４１０号,,27,215,5720084,,,,,,,2023-12-14,1,,,,,ラブレインボーゥズ,0
2046,8120001260672,新規,0,2023-12-14,2023-12-14,株式会社ＯｐｅｎＨｅａｌｔｈ,,株式会社,大阪府,大阪市北区,梅田１丁目２番２号大阪駅前第２ビル１２－１２,,27,127,5300001,,,,,,,2023-12-14,1,,,,,オープンヘルス,0
2049,8120003025520,新規,0,2023-12-14,2023-12-14,合同会社ＳＵＮＴＲＵＳＴ,,合同会社,大阪府,大阪市浪速区,桜川３丁目６番２３－６０１号,,27,111,5560022,,,,,,,2023-12-14,1,,,,,サントラスト,0
2053,8120903004961,新規,0,2023-12-14,2023-12-14,ＳＡＫＡＥ合同会社,,合同会社,大阪府,摂津市,鳥飼西１丁目３番２５号１Ａ,,27,224,5660072,,,,,,,2023-12-14,1,,,,,サカエ,0
2054,8122001037654,新規,0,2023-12-14,2023-12-14,株式会社安東商事,,株式会社,大阪府,東大阪市,鴻池町１丁目２０番１８号,,27,227,5780972,,,,,,,2023-12-14,1,,,,,アントウショウジ,0
2055,8122001037662,新規,0,2023-12-14,2023-12-14,株式会社ｓａｎ,,株式会社,大阪府,大東市,住道２丁目４番５０１号ＣＡＳＳＩＡ住道,,27,218,5740026,,,,,,,2023-12-14,1,,,,,サン,0
2062,8140001132622,新規,0,2023-12-14,2023-12-14,株式会社志,,株式会社,兵庫県,丹波市,柏原町見長５１番地３,,28,223,6693303,,,,,,,2023-12-14,1,,,,,ココロザシ,0
2063,8140001132655,新規,0,2023-12-14,2023-12-14,株式会社ＴＨＥ　ＭＯＳＴ,,株式会社,兵庫県,芦屋市,岩園町８番１５号,,28,206,6590013,,,,,,,2023-12-14,1,,,,,ザモスト,0
2065,8170003001962,新規,0,2023-12-14,2023-12-14,あたらしや合同会社,,合同会社,和歌山県,海草郡紀美野町,神野市場４２４番地,,30,304,6401243,,,,,,,2023-12-14,1,,,,,アタラシヤ,0
2073,8180001159298,新規,0,2023-12-14,2023-12-14,株式会社ＴＦＩ,,株式会社,愛知県,春日井市,篠木町８丁目２６９５番地１３,,23,206,4860851,,,,,,,2023-12-14,1,,,,,ティーエフアイ,0
2074,8180001159323,新規,0,2023-12-14,2023-12-14,株式会社奈冴美,,株式会社,愛知県,名古屋市中村区,名駅３丁目４番１０号アルティメイト名駅１ｓｔ２階,,23,105,4500002,,,,,,,2023-12-14,1,,,,,ナゴミ,0
2075,8180001159331,新規,0,2023-12-14,2023-12-14,株式会社ＳＴＲリスクマネジメント,,株式会社,愛知県,名古屋市中村区,那古野１丁目４７番１号名古屋国際センタービル１７Ｆ,,23,105,4500001,,,,,,,2023-12-14,1,,,,,エスティアールリスクマネジメント,0
2076,8180001159356,新規,0,2023-12-14,2023-12-14,株式会社ＬＢ不動産,,株式会社,愛知県,名古屋市中川区,西中島１丁目７１０番地,,23,110,4540934,,,,,,,2023-12-14,1,,,,,エルビーフドウサン,0
2082,8180003026100,新規,0,2023-12-14,2023-12-14,合同会社ローグリット,,合同会社,愛知県,名古屋市中村区,則武２丁目１４―１１名駅富士ビル１９号室,,23,105,4530014,,,,,,,2023-12-14,1,,,,,ローグリット,0
2083,8180003026109,新規,0,2023-12-14,2023-12-14,合同会社シンクロ,,合同会社,愛知県,半田市,清城町３丁目７番地１１,,23,205,4750917,,,,,,,2023-12-14,1,,,,,シンクロ,0
2086,8200001041973,新規,0,2023-12-14,2023-12-14,株式会社フジテック,,株式会社,岐阜県,揖斐郡大野町,大字公郷１９３９番地１,,21,403,5010555,,,,,,,2023-12-14,1,,,,,フジテック,0
2091,8240001062545,新規,0,2023-12-14,2023-12-14,株式会社ＣＲＥＡＴＥ,,株式会社,広島県,広島市安佐南区,山本新町３丁目１０番１号,,34,105,7310139,,,,,,,2023-12-14,1,,,,,クリエイト,0
2094,8260001038568,新規,0,2023-12-14,2023-12-14,株式会社ぐらんぷらす,,株式会社,岡山県,美作市,中山１２９１番地１１,,33,215,7070061,,,,,,,2023-12-14,1,,,,,グランプラス,0
2102,8290001104045,新規,0,2023-12-14,2023-12-14,株式会社諭吉,,株式会社,福岡県,大野城市,栄町３丁目１番３３号リスクマネジメントビル３Ｆ,,40,219,8160924,,,,,,,2023-12-14,1,,,,,ユキチ,0
2106,8290005019207,新規,0,2023-12-14,2023-12-14,ＨＡＫＯＢＩＹＡ協同組合,,その他の設立登記法人,福岡県,糸島市,前原北４丁目１０番２９号,,40,230,8191118,,,,,,,2023-12-14,1,,,,,ハコビヤ,0
2108,8290801030143,新規,0,2023-12-14,2023-12-14,株式会社西日本開発,,株式会社,福岡県,行橋市,大字入覚７３１番地,,40,213,8240077,,,,,,,2023-12-14,1,,,,,ニシニホンカイハツ,0
2113,8320003004256,新規,0,2023-12-14,2023-12-14,合同会社Ｒｉｅ,,合同会社,大分県,大分市,大字荏隈１６９７番地の３,,44,201,8700889,,,,,,,2023-12-14,1,,,,,リヱ,0
2119,8360001032940,新規,0,2023-12-14,2023-12-14,株式会社ＰＧＣ　ＩＮＴＥＲＮＡＴＩＯＮＡＬ,,株式会社,沖縄県,宜野湾市,字我如古３７２－２,,47,205,9012214,,,,,,,2023-12-14,1,,,,,ピージーシインターナショナル,0
2128,8410003003868,新規,0,2023-12-14,2023-12-14,合同会社秋田まちとケア協働舎,,合同会社,秋田県,秋田市,山王３丁目１番１号,,05,201,0100951,,,,,,,2023-12-14,1,,,,,アキタマチトケアキョウドウシャ,0
2133,8430001090642,新規,0,2023-12-14,2023-12-14,福島食品株式会社,,株式会社,北海道,札幌市中央区,北一条西１０丁目１番地２７,,01,101,0600001,,,,,,,2023-12-14,1,,,,,フクシマショクヒン,0
2134,8430001090650,新規,0,2023-12-14,2023-12-14,ＪＡＰＡＮ　ＴＲＵＳＴ　ＨＯＯＫＡＨ株式会社,,株式会社,北海道,札幌市東区,北四十三条東４丁目１番５号,,01,103,0070843,,,,,,,2023-12-14,1,,,,,ジャパントラストフーカー,0
2135,8430001090659,新規,0,2023-12-14,2023-12-14,株式会社ミーナリンク,,株式会社,北海道,札幌市北区,北九条西３丁目１番地１パワービル札幌駅前,,01,102,0600809,,,,,,,2023-12-14,1,,,,,ミーナリンク,0
2137,8430003015746,新規,0,2023-12-14,2023-12-14,合同会社Ｄｒａｇｅｅ,,合同会社,北海道,札幌市白石区,菊水二条２丁目４－１２ＡＬＰＨＡ菊水３０２号室,,01,104,0030802,,,,,,,2023-12-14,1,,,,,ドラジェ,0
2152,9010001240750,新規,0,2023-12-14,2023-12-14,株式会社ＳｈｉｓＣｏｌｏｒ,,株式会社,東京都,千代田区,九段北１丁目１０番３－３０１号,,13,101,1020073,,,,,,,2023-12-14,1,,,,,シーズカラー,0
2155,9010101015912,新規,0,2023-12-14,2023-12-14,株式会社カインドエスホールディングス,,株式会社,東京都,八王子市,長沼町１３０５番地１,,13,201,1920907,,,,,,,2023-12-14,1,,,,,カインドエスホールディングス,0
2156,9010101015920,新規,0,2023-12-14,2023-12-14,九沢造園株式会社,,株式会社,東京都,八王子市,上柚木６９１番地２,,13,201,1920373,,,,,,,2023-12-14,1,,,,,クザワゾウエン,0
2172,9010401179110,新規,0,2023-12-14,2023-12-14,みちびき株式会社,,株式会社,東京都,港区,浜松町１丁目３０番５号浜松町スクエア１０階,,13,103,1050013,,,,,,,2023-12-14,1,,,,,ミチビキ,0
2173,9010401179168,新規,0,2023-12-14,2023-12-14,株式会社デザリア,,株式会社,東京都,港区,白金６丁目２１－１５・１Ｆ,,13,103,1080072,,,,,,,2023-12-14,1,,,,,デザリア,0
2174,9010403031574,新規,0,2023-12-14,2023-12-14,合同会社ＢｌａｚｅＣｉｒｃｕｉｔ　Ｓｔｕｄｉｏ,,合同会社,東京都,港区,新橋３丁目１１番８号オーイズミ新橋第２ビル８０２,,13,103,1050004,,,,,,,2023-12-14,1,,,,,ブレイズサーキットスタジオ,0
2175,9010501051458,新規,0,2023-12-14,2023-12-14,アンドレジャパン株式会社,,株式会社,東京都,台東区,今戸１丁目５番１８号ミュージションプラス浅草３０２号室,,13,106,1110024,,,,,,,2023-12-14,1,,,,,アンドレジャパン,0
2189,9010901054341,新規,0,2023-12-14,2023-12-14,アークジャパン株式会社,,株式会社,東京都,世田谷区,船橋７丁目７番１０号,,13,112,1560055,,,,,,,2023-12-14,1,,,,,アークジャパン,0
2190,9010903008659,新規,0,2023-12-14,2023-12-14,合同会社緒心愛,,合同会社,東京都,世田谷区,松原１丁目３６－８ＳＨビル３０１,,13,112,1560043,,,,,,,2023-12-14,1,,,,,チョコア,0
2195,9011001158784,新規,0,2023-12-14,2023-12-14,株式会社Ｂｕｎｔｅｒ,,株式会社,東京都,渋谷区,道玄坂１丁目１６－６二葉ビル８ｂ,,13,113,1500043,,,,,,,2023-12-14,1,,,,,バンター,0
2196,9011001158801,新規,0,2023-12-14,2023-12-14,ＨＡＲＲＩＮＹグループ株式会社,,株式会社,東京都,渋谷区,恵比寿１丁目８番３号恵比寿リバストーンハイム５０２,,13,113,1500013,,,,,,,2023-12-14,1,,,,,ハリニーグループ,0
2197,9011001158826,新規,0,2023-12-14,2023-12-14,Ｕ＆Ｉエンターテイメントジャパン株式会社,,株式会社,東京都,目黒区,東が丘２丁目１４番１８号,,13,110,1520021,,,,,,,2023-12-14,1,,,,,ユーアンドアイエンターテイメントジャパン,0
2198,9011003018053,新規,0,2023-12-14,2023-12-14,合同会社Ｅｘｐｅｎｄａｂｌｅｓ．,,合同会社,東京都,渋谷区,幡ヶ谷１丁目３２－７Ｍｙハウス１０１,,13,113,1510072,,,,,,,2023-12-14,1,,,,,エクスペンダブルズドット,0
2211,9011101105488,新規,0,2023-12-14,2023-12-14,株式会社Ｓｗａｐｐｙ,,株式会社,東京都,新宿区,新宿７丁目２６－７,,13,104,1600022,,,,,,,2023-12-14,1,,,,,スワッピー,0
2213,9011201025108,新規,0,2023-12-14,2023-12-14,錦泰福瑞株式会社,,株式会社,東京都,中野区,南台４丁目６５番１３号フラット南台２０１号室,,13,114,1640014,,,,,,,2023-12-14,1,,,,,キンタイフクズイ,0
2215,9011501030047,新規,0,2023-12-14,2023-12-14,日本電産芝浦能源株式会社,,株式会社,東京都,荒川区,南千住３丁目２７－２浅草ビル,,13,118,1160003,,,,,,,2023-12-14,1,,,,,ニホンデンサンシバウラエネルギー,0
2216,9011501030113,新規,0,2023-12-14,2023-12-14,ＪＩＣ日本株式会社,,株式会社,東京都,荒川区,西日暮里１丁目５９番２０号海野田宮１０１,,13,118,1160013,,,,,,,2023-12-14,1,,,,,ジェーアイシーニホン,0
2223,9011803005985,新規,0,2023-12-14,2023-12-14,オフィス鈴木合同会社,,合同会社,東京都,足立区,西新井５丁目１３番１５号,,13,121,1230841,,,,,,,2023-12-14,1,,,,,オフィススズキ,0
2232,9012803003260,新規,0,2023-12-14,2023-12-14,合同会社そらの子堂,,合同会社,東京都,日野市,神明４丁目１７番地の２６グリーンヒルズ篠嵜１０１,00133002,13,212,1910016,,,,,,,2023-12-14,1,,,,,ソラノコドウ,0
2236,9013301051768,新規,0,2023-12-14,2023-12-14,フリードームデザイン株式会社,,株式会社,東京都,豊島区,池袋２丁目５５番２号,,13,116,1710014,,,,,,,2023-12-14,1,,,,,フリードームデザイン,0
2245,9020001154900,新規,0,2023-12-14,2023-12-14,株式会社ｄｅｓｉｇｎｉｃｓ,,株式会社,神奈川県,横浜市緑区,長津田町２３０６番地２,,14,113,2260026,,,,,,,2023-12-14,1,,,,,デザイニクス,0
2249,9020003025174,新規,0,2023-12-14,2023-12-14,合同会社Ｄｒｅａｍ　Ｗｏｒｌｄ,,合同会社,神奈川県,川崎市幸区,塚越４丁目３３３番地７５グリンコーポ１０１,,14,132,2120024,,,,,,,2023-12-14,1,,,,,ドリームワールド,0
2250,9020003025190,新規,0,2023-12-14,2023-12-14,合同会社アライヴァル,,合同会社,神奈川県,横浜市神奈川区,子安通３丁目３９４番地プラスワン横浜３０２,,14,102,2210021,,,,,,,2023-12-14,1,,,,,アライヴァル,0
2255,9021001080946,新規,0,2023-12-14,2023-12-14,株式会社ビースマイリー,,株式会社,神奈川県,藤沢市,鵠沼橘１丁目１番１２号ＭｉｌｋｅｙＷａｙ鵠沼１Ｆ,00133000,14,205,2510024,,,,,,,2023-12-14,1,,,,,ビースマイリー,0
2256,9021001080962,新規,0,2023-12-14,2023-12-14,株式会社ミキホールディングス,,株式会社,神奈川県,伊勢原市,岡崎６９９１番地の１８,,14,214,2591135,,,,,,,2023-12-14,1,,,,,ミキホールディングス,0
2257,9021001080970,新規,0,2023-12-14,2023-12-14,株式会社メゾンテック,,株式会社,神奈川県,厚木市,下川入１４５２番地１,,14,212,2430206,,,,,,,2023-12-14,1,,,,,メゾンテック,0
2258,9021003013862,新規,0,2023-12-14,2023-12-14,合同会社オレンジツリーＳＳＨ,,合同会社,神奈川県,逗子市,山の根３丁目１８番１７号,,14,208,2490002,,,,,,,2023-12-14,1,,,,,オレンジツリーエスエスエイチ,0
2261,9030001157621,新規,0,2023-12-14,2023-12-14,株式会社グルメサービス,,株式会社,埼玉県,川越市,岸町３丁目２１番地１８,,11,201,3501131,,,,,,,2023-12-14,1,,,,,グルメサービス,0
2262,9030001157638,新規,0,2023-12-14,2023-12-14,株式会社ＪＵＳＴ　Ａ　ＣＵＴ,,株式会社,埼玉県,三郷市,新和５丁目３８３番地,,11,237,3410034,,,,,,,2023-12-14,1,,,,,ジャストアカット,0
2268,9040001131311,新規,0,2023-12-14,2023-12-14,ＯＬＴＳＵ株式会社,,株式会社,千葉県,千葉市花見川区,柏井１丁目３１番８号ロイヤルビレッジ八千代台２０１号,,12,102,2620048,,,,,,,2023-12-14,1,,,,,オルツ,0
2269,9040001131336,新規,0,2023-12-14,2023-12-14,株式会社ＰＪ,,株式会社,千葉県,柏市,十余二１６４番地７７,,12,217,2770872,,,,,,,2023-12-14,1,,,,,ピージェイ,0
2270,9040001131344,新規,0,2023-12-14,2023-12-14,株式会社ＹＯＬＯ,,株式会社,千葉県,浦安市,猫実３丁目２８番７号,,12,227,2790004,,,,,,,2023-12-14,1,,,,,ヨロ,0
2271,9040001131369,新規,0,2023-12-14,2023-12-14,株式会社ＳＨ,,株式会社,千葉県,市原市,ちはら台東７丁目１番地４セレ・ルミエール１０１号,,12,219,2900141,,,,,,,2023-12-14,1,,,,,エスエイチ,0
2272,9040001131377,新規,0,2023-12-14,2023-12-14,株式会社カイゲン商事,,株式会社,千葉県,八千代市,八千代台西８丁目１７－１０パークホームズ５０７号,,12,221,2760034,,,,,,,2023-12-14,1,,,,,カイゲンショウジ,0
2274,9040003023911,新規,0,2023-12-14,2023-12-14,あなたは必ず笑みになる合同会社,,合同会社,千葉県,千葉市若葉区,加曽利町９４７番地１６,,12,104,2640017,,,,,,,2023-12-14,1,,,,,アナタハカナラズエミニナル,0
2277,9050001053934,新規,0,2023-12-14,2023-12-14,ＳＡＳＡＫＩ株式会社,,株式会社,茨城県,坂東市,莚打９６５番地８４,,08,228,3060625,,,,,,,2023-12-14,1,,,,,ササキ,0
2278,9050001053942,新規,0,2023-12-14,2023-12-14,株式会社アステラス,,株式会社,茨城県,神栖市,知手４６７８番地１６２,,08,232,3140115,,,,,,,2023-12-14,1,,,,,アステラス,0
2283,9070001041193,新規,0,2023-12-14,2023-12-14,石楽株式会社,,株式会社,群馬県,前橋市,元総社町１９４番地,,10,201,3710846,,,,,,,2023-12-14,1,,,,,セキラク,0
2291,9090001018462,新規,0,2023-12-14,2023-12-14,株式会社ＤＲＥＡＭ　ＡＧＥＮＴ　Ｐ７,,株式会社,山梨県,甲府市,伊勢３丁目３番１０号,,19,201,4000856,,,,,,,2023-12-14,1,,,,,ドリームエージェントピーセブン,0
2292,9090003002448,新規,0,2023-12-14,2023-12-14,合同会社ＴＯＮＡＲＩ,,合同会社,山梨県,笛吹市,石和町松本８９１－１,,19,211,4060021,,,,,,,2023-12-14,1,,,,,トナリ,0
2294,9100001037056,新規,0,2023-12-14,2023-12-14,株式会社ＨＡＣＫ,,株式会社,長野県,下伊那郡高森町,牛牧２７８５番地５３,,20,403,3993105,,,,,,,2023-12-14,1,,,,,ハック,0
2297,9110001038037,新規,0,2023-12-14,2023-12-14,株式会社Ｍｍカンパニー,,株式会社,新潟県,新潟市西区,東青山１丁目２２番地２６,,15,107,9502003,,,,,,,2023-12-14,1,,,,,エムエムカンパニー,0
2311,9120001260572,新規,0,2023-12-14,2023-12-14,株式会社みやび企画,,株式会社,大阪府,大阪市東成区,東小橋１丁目１７番１２号,,27,115,5370024,,,,,,,2023-12-14,1,,,,,ミヤビキカク,0
2318,9120101068692,新規,0,2023-12-14,2023-12-14,株式会社Ｚａｍ　Ｚａｍ　Ｔｒａｄｉｎｇ,,株式会社,大阪府,和泉市,光明台２丁目４６－２７,,27,219,5941111,,,,,,,2023-12-14,1,,,,,ザムザムトレーディング,0
2319,9120101068701,新規,0,2023-12-14,2023-12-14,株式会社ａｐ‐ｔｒａｄｅ,,株式会社,大阪府,羽曳野市,大黒５２１ＹＳＢｕｉｌｄｉｎｇ大黒２Ｆ,,27,222,5830847,,,,,,,2023-12-14,1,,,,,アップトレード,0
2322,9120903004960,新規,0,2023-12-14,2023-12-14,合同会社東豊中開発,,合同会社,大阪府,吹田市,五月が丘西１番Ａ－５０４号,,27,205,5650833,,,,,,,2023-12-14,1,,,,,ヒガシトヨナカカイハツ,0
2323,9120905006542,新規,0,2023-12-14,2023-12-14,一般社団法人日本経頭蓋集束超音波治療学会,,その他の設立登記法人,大阪府,吹田市,山田丘２番２号（大阪大学医学部脳神経外科）,,27,205,5650871,,,,,,,2023-12-14,1,,,,,ニホンケイズガイシュウソクチョウオンパチリョウガッカイ,0
2326,9122001037653,新規,0,2023-12-14,2023-12-14,安心農事株式会社,,株式会社,大阪府,八尾市,久宝寺３丁目１５番４８－６０６号,,27,212,5810072,,,,,,,2023-12-14,1,,,,,アンシンノウジ,0
2327,9122001037661,新規,0,2023-12-14,2023-12-14,株式会社ＣＣＢＳ,,株式会社,大阪府,八尾市,弓削町南２丁目１０４番地の２０,,27,212,5810034,,,,,,,2023-12-14,1,,,,,シーシービーエス,0
2336,9140001132654,新規,0,2023-12-14,2023-12-14,株式会社シュンルー,,株式会社,兵庫県,神戸市中央区,布引町２丁目２番１５－５０４号,,28,110,6510097,,,,,,,2023-12-14,1,,,,,シュンルー,0
2337,9140001132670,新規,0,2023-12-14,2023-12-14,株式会社Ｈｅａｒ２,,株式会社,兵庫県,芦屋市,船戸町５番２６号マリアキャリーヌビル,,28,206,6590093,,,,,,,2023-12-14,1,,,,,ハーツ,0
2338,9140001132704,新規,0,2023-12-14,2023-12-14,株式会社ＭＡ　ｃｏｍｐａｎｙ,,株式会社,兵庫県,丹波篠山市,東新町１９番地７,,28,221,6692324,,,,,,,2023-12-14,1,,,,,エムエイカンパニー,0
2339,9140003019916,新規,0,2023-12-14,2023-12-14,Ｊ　ＪＡＰＡＮ合同会社,,合同会社,兵庫県,神戸市中央区,熊内町５丁目５番１号,,28,110,6510056,,,,,,,2023-12-14,1,,,,,ジェイジャパン,0
2340,9140003019924,新規,0,2023-12-14,2023-12-14,合同会社ストライト,,合同会社,兵庫県,神戸市長田区,房王寺町６丁目１－２１－２階,,28,106,6530801,,,,,,,2023-12-14,1,,,,,ストライト,0
2342,9160001025567,新規,0,2023-12-14,2023-12-14,株式会社エーオーエステート,,株式会社,滋賀県,米原市,中多良６３０番地１,,25,214,5210011,,,,,,,2023-12-14,1,,,,,エーオーエステート,0
2345,9170001017927,新規,0,2023-12-14,2023-12-14,株式会社リンク不動産,,株式会社,和歌山県,和歌山市,秋月５３７番地１１,,30,201,6408322,,,,,,,2023-12-14,1,,,,,リンクフドウサン,0
2351,9180001159256,新規,0,2023-12-14,2023-12-14,株式会社ＭＭＫ,,株式会社,愛知県,小牧市,久保一色東１丁目２０,,23,219,4850001,,,,,,,2023-12-14,1,,,,,エムエムケイ,0
2352,9180001159272,新規,0,2023-12-14,2023-12-14,ＳＥＲＩ株式会社,,株式会社,愛知県,津島市,蛭間町字弁日１９番地２,,23,208,4960004,,,,,,,2023-12-14,1,,,,,セリ,0
2353,9180001159339,新規,0,2023-12-14,2023-12-14,株式会社ＺＥＮ,,株式会社,愛知県,名古屋市千種区,西崎町２丁目４７番地の３,,23,101,4640825,,,,,,,2023-12-14,1,,,,,ゼン,0
2354,9180001159355,新規,0,2023-12-14,2023-12-14,ｅｉｇｈｔ　ｃｏｌｏｒｓ株式会社,,株式会社,愛知県,名古屋市中区,大須３丁目１２番２６号グランドメゾン大須ザ・タワー１４０２号,,23,106,4600011,,,,,,,2023-12-14,1,,,,,エイトカラーズ,0
2356,9180003026033,新規,0,2023-12-14,2023-12-14,合同会社Ｂｉｌｌｉｏｎ,,合同会社,愛知県,名古屋市中村区,名駅４丁目２４番５号第２森ビル４０１,,23,105,4500002,,,,,,,2023-12-14,1,,,,,ビリオン,0
2357,9180003026116,新規,0,2023-12-14,2023-12-14,ＦｉｅｌｄＡｇｅｎｔ合同会社,,合同会社,愛知県,名古屋市中村区,名駅４丁目２４番５号第２森ビル４０１,,23,105,4500002,,,,,,,2023-12-14,1,,,,,フィールドエージェント,0
2358,9180005020455,新規,0,2023-12-14,2023-12-14,一般社団法人愛知県ティーボール連盟,,その他の設立登記法人,愛知県,犬山市,字的場１番地１,,23,215,4840927,,,,,,,2023-12-14,1,,,,,アイチケンティーボールレンメイ,0
2363,9200001041980,新規,0,2023-12-14,2023-12-14,ヒューマライズ株式会社,,株式会社,岐阜県,大垣市,熊野町３１１（２Ｆ）,,21,202,5030032,,,,,,,2023-12-14,1,,,,,ヒューマライズ,0
2364,9200001041989,新規,0,2023-12-14,2023-12-14,株式会社清水テッコー,,株式会社,岐阜県,各務原市,那加不動丘２丁目９４番地,,21,213,5040838,,,,,,,2023-12-14,1,,,,,シミズテッコー,0
2375,9240001062536,新規,0,2023-12-14,2023-12-14,株式会社イクチ,,株式会社,広島県,尾道市,因島洲江町１７９５番地２,,34,205,7222431,,,,,,,2023-12-14,1,,,,,イクチ,0
2380,9260001038567,新規,0,2023-12-14,2023-12-14,株式会社エイトフィールド,,株式会社,岡山県,岡山市中区,藤崎６３４番地７,,33,102,7028006,,,,,,,2023-12-14,1,,,,,エイトフィールド,0
2388,9290001104044,新規,0,2023-12-14,2023-12-14,株式会社Ｂｒａｎｃｈ,,株式会社,福岡県,福岡市中央区,渡辺通５丁目１４番１２号,,40,133,8100004,,,,,,,2023-12-14,1,,,,,ブランチ,0
2389,9290001104052,新規,0,2023-12-14,2023-12-14,株式会社ＯＮ不動産,,株式会社,福岡県,久留米市,宮ノ陣１丁目９番１５号,,40,203,8390801,,,,,,,2023-12-14,1,,,,,オーエヌフドウサン,0
2396,9290003014729,新規,0,2023-12-14,2023-12-14,合同会社ｅｌｐｉｓ,,合同会社,福岡県,福岡市早良区,東入部１丁目２９番３号,,40,137,8111102,,,,,,,2023-12-14,1,,,,,エルピス,0
2400,9320003004255,新規,0,2023-12-14,2023-12-14,合同会社ホリダイ,,合同会社,大分県,大分市,ふじが丘北２丁目４番７号,,44,201,8701181,,,,,,,2023-12-14,1,,,,,ホリダイ,0
2401,9330001031564,新規,0,2023-12-14,2023-12-14,株式会社ＳＯＬＡＫＥＮ,,株式会社,熊本県,熊本市東区,戸島１丁目１番７２号,,43,102,8618041,,,,,,,2023-12-14,1,,,,,ソラケン,0
2402,9330001031572,新規,0,2023-12-14,2023-12-14,株式会社旭プランニング,,株式会社,熊本県,熊本市中央区,下通２丁目５番１０号４階,,43,101,8600807,,,,,,,2023-12-14,1,,,,,アサヒプランニング,0
2417,9380003005644,新規,0,2023-12-14,2023-12-14,双峯合同会社,,合同会社,福島県,福島市,渡利字大久保４６番地の１,,07,201,9608141,,,,,,,2023-12-14,1,,,,,ソウホウ,0
2420,9400001016491,新規,0,2023-12-14,2023-12-14,株式会社リレーションシップマーケティング,,株式会社,岩手県,盛岡市,東見前５地割１１１番地４３,,03,201,0200832,,,,,,,2023-12-14,1,,,,,リレーションシップマーケティング,0
2426,9430001090633,新規,0,2023-12-14,2023-12-14,株式会社ＰｅＧ,,株式会社,北海道,札幌市手稲区,稲穂四条４丁目１７番１５号,,01,109,0060034,,,,,,,2023-12-14,1,,,,,ペグ,0
2427,9430001090658,新規,0,2023-12-14,2023-12-14,株式会社エフド,,株式会社,北海道,札幌市東区,北十五条東７丁目１番２０号,,01,103,0650015,,,,,,,2023-12-14,1,,,,,エフド,0
2432,9500001025359,新規,0,2023-12-14,2023-12-14,株式会社ＭＩＹＡＫＯ　ＤＥＳＩＧＮ,,株式会社,愛媛県,松山市,北条辻１１２３番地７,00132993,38,201,7992430,,,,,,,2023-12-14,1,,,,,ミヤコデザイン,0
2435,9700150104249,新規,0,2023-12-14,2021-08-03,ＳＯＬＡ　ＣＨＵＲＣＨ,,その他,静岡県,浜松市浜北区,大平１２２８－２,,22,136,4340005,,,,,,,2021-08-03,1,,,,,ソーラチヤーチ,0
