sequenceNumber,corporateNumber,process,correct,updateDate,changeDate,name,nameImageId,kind,prefectureName,cityName,streetNumber,addressImageId,prefectureCode,cityCode,postCode,addressOutside,addressOutsideImageId,closeDate,closeCause,successorCorporateNumber,changeCause,assignmentDate,latest,enName,enPrefectureName,enCityName,enAddressOutside,furigana,hihyoji
2,1010001142145,登記記録の閉鎖等,0,2023-08-14,2023-08-02,株式会社Ｒ．Ｏ．Ｊ,,株式会社,東京都,中央区,銀座３丁目５番８号,,13,102,1040061,,,2023-08-02,清算の結了等,,,2015-10-05,1,,,,,アールオージェー,0
29,1010402004605,登記記録の閉鎖等,0,2023-08-14,2023-07-19,有限会社ケイズアート,,有限会社,東京都,港区,赤坂６丁目４番１７号,,13,103,1070052,,,2023-07-19,清算の結了等,,,2015-10-05,1,,,,,ケイズアート,0
30,1010403017390,登記記録の閉鎖等,0,2023-08-14,2023-07-18,寶聖グローバルナビゲーション合同会社,,合同会社,東京都,港区,海岸３丁目３３番１７号東京ベイサイドビル,,13,103,1080022,,,2023-07-18,清算の結了等,,,2017-10-17,1,,,,,ホウセイグローバルナビゲーション,0
40,1010503005592,登記記録の閉鎖等,0,2023-08-14,2023-08-07,合同会社あおひげ,,合同会社,東京都,板橋区,大山町８番３号,,13,119,1730023,,,2023-08-07,清算の結了等,,,2019-05-21,1,,,,,アオヒゲ,0
54,1011001122211,登記記録の閉鎖等,0,2023-08-14,2023-08-03,株式会社Ｓｕｐｅｒ　Ｂｅａｕｔｙ　Ｌａｂｏ,,株式会社,東京都,中央区,日本橋兜町９－５,,13,102,1030026,,,2023-08-03,清算の結了等,,,2018-05-21,1,,,,,スーパービューティーラボ,0
57,1011002004796,登記記録の閉鎖等,0,2023-08-14,2023-08-04,有限会社サンデイ商会,,有限会社,東京都,渋谷区,円山町１５番１４－５０５号,,13,113,1500044,,,2023-08-04,清算の結了等,,,2015-10-05,1,,,,,サンデイショウカイ,0
63,1011101095357,登記記録の閉鎖等,0,2023-08-14,2023-08-09,ラウンドアバウトシステムズ株式会社,,株式会社,東京都,新宿区,西新宿７丁目７番２６号ワコーレ新宿第一ビル８１２号室,,13,104,1600023,,,2023-08-09,清算の結了等,,,2021-06-14,1,,,,,ラウンドアバウトシステム,0
73,1011801026066,登記記録の閉鎖等,0,2023-08-14,2023-08-02,株式会社一花,,株式会社,東京都,中央区,銀座４丁目６番１７号銀座シルクビル６階,,13,102,1040061,,,2023-08-02,清算の結了等,,,2015-10-05,1,,,,,イチカ,0
75,1011801039002,登記記録の閉鎖等,0,2023-08-14,2023-08-07,一同商事株式会社,,株式会社,東京都,小平市,花小金井南町１丁目３番１１号Ｃ６６２号室,,13,211,1870003,,,2023-08-07,清算の結了等,,,2021-04-06,1,,,,,イチドウショウジ,0
93,1020001087661,登記記録の閉鎖等,0,2023-08-14,2023-07-31,株式会社エスポワール,,株式会社,神奈川県,横浜市旭区,東希望が丘１７８番地５,,14,112,2410826,,,2023-07-31,清算の結了等,,,2015-10-05,1,,,,,エスポワール,0
105,1020002061392,登記記録の閉鎖等,0,2023-08-14,2023-07-25,有限会社神島空調,,有限会社,神奈川県,横浜市栄区,元大橋１丁目５番２１号,,14,115,2470011,,,2023-07-25,清算の結了等,,,2015-10-05,1,,,,,カミシマクウチョウ,0
110,1021001069823,登記記録の閉鎖等,0,2023-08-14,2023-08-04,ヒューコーポレーション株式会社,,株式会社,神奈川県,藤沢市,辻堂６丁目２３番７号,,14,205,2510047,,,2023-08-04,清算の結了等,,,2020-04-27,1,,,,,ヒューコーポレーション,0
141,1030002101890,登記記録の閉鎖等,0,2023-08-14,2023-07-11,有限会社川新総業,,有限会社,埼玉県,川口市,大字西立野３０４番地の２８,,11,203,3330813,,,2023-07-11,清算の結了等,,,2015-10-05,1,,,,,カワシンソウギョウ,0
150,1040002017681,登記記録の閉鎖等,0,2023-08-14,2023-07-19,有限会社ハリオ,,有限会社,千葉県,千葉市緑区,おゆみ野南５丁目２４番地１おゆみ野ハイムＣ－２０３号,,12,105,2660033,,,2023-07-19,清算の結了等,,,2015-10-05,1,,,,,ハリオ,0
151,1040002052167,登記記録の閉鎖等,0,2023-08-14,2023-07-19,有限会社パーム,,有限会社,千葉県,流山市,駒木５３０番地の８,,12,220,2700132,,,2023-07-19,清算の結了等,,,2015-10-05,1,,,,,パーム,0
161,1070001007301,登記記録の閉鎖等,0,2023-08-14,2023-08-07,株式会社白木屋紙店,,株式会社,群馬県,高崎市,緑町３丁目１番８号,,10,202,3700073,,,2023-08-07,清算の結了等,,,2015-10-05,1,,,,,シロキヤカミテン,0
165,1070002012713,登記記録の閉鎖等,0,2023-08-14,2023-08-08,有限会社ラウンド,,有限会社,群馬県,高崎市,大橋町９３番地１２,,10,202,3700803,,,2023-08-08,清算の結了等,,,2015-10-05,1,,,,,ラウンド,0
195,1120002032029,登記記録の閉鎖等,0,2023-08-14,2023-08-07,有限会社ニットー不動産,,有限会社,大阪府,大阪市北区,梅田１丁目１番３－２００号,,27,127,5300001,,,2023-08-07,清算の結了等,,,2015-10-05,1,,,,,ニットーフドウサン,0
196,1120003013218,登記記録の閉鎖等,0,2023-08-14,2023-07-31,合同会社ＮＡＴＵＲｅ,,合同会社,大阪府,大阪市阿倍野区,松崎町２丁目３番５０号,,27,119,5450053,,,2023-07-31,合併による解散等,2120001164615,令和５年７月３１日大阪市西成区旭三丁目４番１３号株式会社ライフアップ（2120001164615）に合併し解散,2017-08-31,1,,,,,ナチュレ,0
204,1120101046854,登記記録の閉鎖等,0,2023-08-14,2023-08-10,株式会社ケーユーテック,,株式会社,大阪府,泉南市,樽井７丁目２７番５号,,27,228,5900521,,,2023-08-10,清算の結了等,,,2015-10-05,1,,,,,ケーユーテック,0
210,1120901010778,登記記録の閉鎖等,0,2023-08-14,2023-08-02,楠見建設興業株式会社,,株式会社,大阪府,高槻市,津之江町２丁目３９番４号,,27,207,5690822,,,2023-08-02,清算の結了等,,,2015-10-05,1,,,,,クスミケンセツコウギョウ,0
220,1130001002551,登記記録の閉鎖等,0,2023-08-14,2023-08-01,今江株式会社,,株式会社,京都府,京都市上京区,室町通丸太町上る大門町２６７番地,,26,102,6028024,,,2023-08-01,清算の結了等,,,2015-10-05,1,,,,,イマエ,0
224,1130002027465,登記記録の閉鎖等,0,2023-08-14,2023-07-24,有限会社ワイズエステート,,有限会社,京都府,宇治市,寺山台３丁目３番地の１,,26,204,6110032,,,2023-07-24,清算の結了等,,,2015-10-05,1,,,,,ワイズエステート,0
263,1210005002110,登記記録の閉鎖等,0,2023-08-14,2023-08-08,特定非営利活動法人カウンセリング研究会あのの,,その他の設立登記法人,福井県,福井市,長本町１１１番地,,18,201,9100844,,,2023-08-08,清算の結了等,,,2015-10-05,1,,,,,カウンセリングケンキュウカイアノノ,0
267,1240002000626,登記記録の閉鎖等,0,2023-08-14,2023-08-08,有限会社アステムズ,,有限会社,広島県,広島市西区,井口台２丁目１８番１５号,,34,104,7330844,,,2023-08-08,清算の結了等,,,2015-10-05,1,,,,,アステムズ,0
271,1240002025012,登記記録の閉鎖等,0,2023-08-14,2023-08-07,有限会社ポンパドゥル,,有限会社,広島県,広島市中区,宝町９番１７号,,34,101,7300044,,,2023-08-07,清算の結了等,,,2015-10-05,1,,,,,ポンパドゥル,0
287,1290801021743,登記記録の閉鎖等,0,2023-08-14,2023-08-08,株式会社オフィスＴ,,株式会社,福岡県,北九州市八幡西区,光貞台２丁目２５番４号,,40,109,8070805,,,2023-08-08,清算の結了等,,,2015-10-05,1,,,,,オフィスティ,0
296,1320001013050,登記記録の閉鎖等,0,2023-08-14,2023-08-07,株式会社アトラックス,,株式会社,大分県,大分市,金池町５丁目８番１２号東洋第一ビル,,44,201,8700026,,,2023-08-07,清算の結了等,,,2015-10-05,1,,,,,,0
298,1320003000575,登記記録の閉鎖等,0,2023-08-14,2023-08-04,合資会社時枝表具店,,合資会社,大分県,別府市,幸町７番４号,,44,202,8740907,,,2023-08-04,清算の結了等,,,2015-10-05,1,,,,,,0
299,1330001015797,登記記録の閉鎖等,0,2023-08-14,2023-07-21,保険リサーチ株式会社,,株式会社,熊本県,熊本市中央区,新大江１丁目２１番１６号－４０３,,43,101,8620972,,,2023-07-21,清算の結了等,,,2015-10-05,1,,,,,ホケンリサーチ,0
307,1350002000788,登記記録の閉鎖等,0,2023-08-14,2023-08-01,有限会社蛯原酒店,,有限会社,宮崎県,宮崎市,田野町乙３６０４番地,,45,201,8891702,,,2023-08-01,清算の結了等,,,2015-10-05,1,,,,,エビハラサケテン,0
364,2010001207483,登記記録の閉鎖等,0,2023-08-14,2023-08-08,ＣＯＣＯホールディングス株式会社,,株式会社,東京都,千代田区,神田三崎町２丁目１５番６号,,13,101,1010061,,,2023-08-08,合併による解散等,9010803004444,令和５年８月１日東京都大田区東雪谷三丁目９番１０号エックスホールディングス株式会社（9010803004444）に合併し解散,2020-02-13,1,,,,,ココホールディングス,0
373,2010005022524,登記記録の閉鎖等,0,2023-08-14,2023-08-04,ＳＭＢＣ第２７回ＲＭＢＳ特定目的会社,,その他の設立登記法人,東京都,千代田区,丸の内３丁目１番１号東京共同会計事務所内,,13,101,1000005,,,2023-08-04,清算の結了等,,,2015-10-05,1,,,,,エスエムビーシーダイニジュウナナカイアールエムビーエス,0
393,2010701038674,登記記録の閉鎖等,0,2023-08-14,2023-08-08,株式会社サンライトグリーン,,株式会社,東京都,品川区,戸越５丁目４番３号４階,,13,109,1420041,,,2023-08-08,清算の結了等,,,2019-12-23,1,,,,,サンライトグリーン,0
405,2010902013014,登記記録の閉鎖等,0,2023-08-14,2023-08-04,有限会社服飾手芸くりやま,,有限会社,東京都,世田谷区,野沢３丁目１０番１６号,,13,112,1540003,,,2023-08-04,清算の結了等,,,2015-10-05,1,,,,,フクショクシュゲイクリヤマ,0
425,2011102008977,登記記録の閉鎖等,0,2023-08-14,2023-08-09,有限会社徳植米店,,有限会社,東京都,新宿区,大京町１４番地,,13,104,1600015,,,2023-08-09,清算の結了等,,,2015-10-05,1,,,,,トクウエコメテン,0
429,2011301019718,登記記録の閉鎖等,0,2023-08-14,2023-08-01,中井住宅株式会社,,株式会社,東京都,杉並区,和泉３丁目２２番１号,,13,115,1680063,,,2023-08-01,合併による解散等,7011302006719,令和５年８月１日東京都杉並区和泉三丁目２２番１号株式会社中井不動産（7011302006719）に合併し解散,2015-10-05,1,,,,,ナカイジュウタク,0
458,2020005015510,登記記録の閉鎖等,0,2023-08-14,2023-07-28,特定非営利活動法人蒔田倶楽部,,その他の設立登記法人,神奈川県,横浜市南区,榎町１丁目１０番２号,,14,105,2320044,,,2023-07-28,清算の結了等,,,2022-04-27,1,,,,,マイタクラブ,0
476,2030002121327,登記記録の閉鎖等,0,2023-08-14,2023-07-18,有限会社ケイオー堂,,有限会社,埼玉県,秩父市,番場町１９番２号,,11,207,3680041,,,2023-07-18,清算の結了等,,,2015-10-05,1,,,,,ケイオードウ,0
481,2040001006528,登記記録の閉鎖等,0,2023-08-14,2023-07-18,株式会社富士印刷,,株式会社,千葉県,千葉市稲毛区,轟町３丁目６番１８号,,12,103,2630021,,,2023-07-18,清算の結了等,,,2015-10-05,1,,,,,フジインサツ,0
489,2040002013003,登記記録の閉鎖等,0,2023-08-14,2023-07-19,有限会社オータニ・エンジニアリング,,有限会社,千葉県,千葉市美浜区,磯辺２丁目６番１３号,,12,106,2610012,,,2023-07-19,清算の結了等,,,2015-10-05,1,,,,,オータニエンジニアリング,0
492,2040002081529,登記記録の閉鎖等,0,2023-08-14,2023-07-19,有限会社リンク・シネマオフィス,,有限会社,千葉県,茂原市,国府関１４７２番地,,12,210,2970067,,,2023-07-19,清算の結了等,,,2015-10-05,1,,,,,リンクシネマオフィス,0
499,2060001029709,登記記録の閉鎖等,0,2023-08-14,2023-08-01,株式会社富華三和,,株式会社,栃木県,佐野市,植上町１６５３－４,,09,204,3270832,,,2023-08-01,合併による解散等,5060001021670,令和５年８月１日栃木県佐野市植野町１９５３番地１株式会社ミツワハウステック（5060001021670）に合併し解散,2017-08-18,1,,,,,トミカミツワ,0
510,2080102012850,登記記録の閉鎖等,0,2023-08-14,2023-08-10,有限会社オルソ,,有限会社,静岡県,三島市,萩２８３番地の１,,22,206,4110045,,,2023-08-10,清算の結了等,,,2015-10-05,1,,,,,オルソ,0
516,2110001002164,登記記録の閉鎖等,0,2023-08-14,2023-08-04,株式会社坂井塗装工業,,株式会社,新潟県,新潟市東区,山木戸８丁目７番３５号,,15,102,9500871,,,2023-08-04,清算の結了等,,,2015-10-05,1,,,,,サカイトソウコウギョウ,0
537,2120003006757,登記記録の閉鎖等,0,2023-08-14,2023-07-31,合同会社オアシス,,合同会社,大阪府,枚方市,山之上５丁目１番３３号,,27,210,5730047,,,2023-07-31,清算の結了等,,,2015-10-05,1,,,,,オアシス,0
543,2120101035393,登記記録の閉鎖等,0,2023-08-14,2023-08-09,林通工株式会社,,株式会社,大阪府,羽曳野市,南恵我之荘４丁目１０番６号,,27,222,5830885,,,2023-08-09,清算の結了等,,,2015-10-05,1,,,,,ハヤシツウコウ,0
552,2130001052703,登記記録の閉鎖等,0,2023-08-14,2023-07-31,株式会社ソーラー安岡,,株式会社,京都府,京田辺市,田辺北里２４番地,,26,211,6100331,,,2023-07-31,清算の結了等,,,2015-10-05,1,,,,,ソーラーヤスオカ,0
577,2180002009805,登記記録の閉鎖等,0,2023-08-14,2023-08-08,有限会社高島電気設備,,有限会社,愛知県,名古屋市天白区,元八事３丁目２８９番地,,23,116,4680066,,,2023-08-08,清算の結了等,,,2015-10-05,1,,,,,タカシマデンキセツビ,0
579,2180002056624,登記記録の閉鎖等,0,2023-08-14,2023-08-07,有限会社フィロソフィ,,有限会社,愛知県,名古屋市中区,丸の内３丁目２１番２１号,,23,106,4600002,,,2023-08-07,清算の結了等,,,2015-10-05,1,,,,,フィロソフィ,0
580,2180002081837,登記記録の閉鎖等,0,2023-08-14,2023-08-08,有限会社光洋建設,,有限会社,愛知県,江南市,中奈良町本郷８７番地,,23,217,4838256,,,2023-08-08,清算の結了等,,,2015-10-05,1,,,,,コウヨウケンセツ,0
583,2180005007062,登記記録の閉鎖等,0,2023-08-14,2023-08-08,特定非営利活動法人アドバンス,,その他の設立登記法人,愛知県,名古屋市南区,宝生町３丁目７５番地,,23,112,4570828,,,2023-08-08,清算の結了等,,,2015-10-05,1,,,,,アドバンス,0
584,2180301003789,登記記録の閉鎖等,0,2023-08-14,2023-08-01,株式会社ストラテジ．マネジメント．サポート,,株式会社,愛知県,額田郡幸田町,大字菱池字昆沙門１２３番地１,,23,501,4440113,,,2023-08-01,清算の結了等,,,2015-10-05,1,,,,,ストラテジマネジメントサポート,0
591,2210001002369,登記記録の閉鎖等,0,2023-08-14,2023-08-04,タツミ土地開発株式会社,,株式会社,福井県,福井市,加茂緑苑町４０８番地,,18,201,9188058,,,2023-08-04,清算の結了等,,,2015-10-05,1,,,,,タツミトチカイハツ,0
592,2210002011641,登記記録の閉鎖等,0,2023-08-14,2023-08-04,有限会社酒井芯製作所,,有限会社,福井県,越前市,池ノ上町第６０号１８番地,,18,209,9150873,,,2023-08-04,清算の結了等,,,2015-10-05,1,,,,,サカイシンセイサクショ,0
623,2340001021819,登記記録の閉鎖等,0,2023-08-14,2023-08-08,株式会社中村工業,,株式会社,鹿児島県,鹿児島市,小松原２丁目２４番２号コーポ水溜２０２,,46,201,8910114,,,2023-08-08,清算の結了等,,,2019-02-22,1,,,,,ナカムラコウギョウ,0
640,2400001012794,登記記録の閉鎖等,0,2023-08-14,2023-07-31,佐工業株式会社,,株式会社,岩手県,宮古市,千徳第２４地割２番地１,,03,202,0270058,,,2023-07-31,清算の結了等,,,2015-10-05,1,,,,,タスクコウギョウ,0
642,2400002011226,登記記録の閉鎖等,0,2023-08-14,2023-07-31,有限会社岩手工機,,有限会社,岩手県,宮古市,刈屋第１４地割１０番地２,,03,202,0282104,,,2023-07-31,清算の結了等,,,2015-10-05,1,,,,,イワテコウキ,0
662,2450001006305,登記記録の閉鎖等,0,2023-08-14,2023-08-10,丸善砂利工業株式会社,,株式会社,北海道,上川郡美瑛町,旭町１丁目６番１７号,,01,459,0710212,,,2023-08-10,清算の結了等,,,2015-10-05,1,,,,,マルゼンジャリコウギョウ,0
664,2480002000460,登記記録の閉鎖等,0,2023-08-14,2023-08-10,魚里水道興業有限会社,,有限会社,徳島県,徳島市,西新浜町１丁目３番１５号,,36,201,7708008,,,2023-08-10,清算の結了等,,,2015-10-05,1,,,,,ウオザトスイドウコウギョウ,0
666,2500003002247,登記記録の閉鎖等,0,2023-08-14,2023-08-10,合同会社ヒロキ,,合同会社,愛媛県,伊予郡松前町,大字浜７５９番地,,38,401,7913110,,,2023-08-10,清算の結了等,,,2019-04-04,1,,,,,ヒロキ,0
678,3010001146854,登記記録の閉鎖等,0,2023-08-14,2023-08-01,株式会社テップ,,株式会社,東京都,中央区,日本橋小網町１８番２０号,,13,102,1030016,,,2023-08-01,清算の結了等,,,2015-10-05,1,,,,,テップ,0
679,3010001178773,登記記録の閉鎖等,0,2023-08-14,2023-08-01,パブリックマネジメント株式会社,,株式会社,東京都,文京区,大塚３丁目１番１号,,13,105,1120012,,,2023-08-01,合併による解散等,3010001005556,令和５年８月１日東京都文京区大塚三丁目１番１号株式会社図書館流通センター（3010001005556）に合併し解散,2016-10-11,1,,,,,パブリックマネジメント,0
697,3010401015964,登記記録の閉鎖等,0,2023-08-14,2023-07-14,株式会社エアトリハワイ,,株式会社,東京都,港区,愛宕２丁目５番１号,,13,103,1050002,,,2023-07-14,合併による解散等,8011101002562,令和５年７月１日東京都港区愛宕二丁目５番１号株式会社エアトリインターナショナル（8011101002562）に合併し解散,2015-10-05,1,,,,,エアトリハワイ,0
702,3010401173341,登記記録の閉鎖等,0,2023-08-14,2023-07-18,ＰＪ　Ｏｒａｎｇｅ株式会社,,株式会社,東京都,港区,赤坂９丁目４番１号パークコート赤坂檜町ザタワー４００３号,,13,103,1070052,,,2023-07-18,清算の結了等,,,2023-03-28,1,,,,,ピージェーオレンジ,0
713,3010503005459,登記記録の閉鎖等,0,2023-08-14,2023-08-04,合同会社コスモス,,合同会社,東京都,台東区,清川１丁目７番４号,,13,106,1110022,,,2023-08-04,合併による解散等,9010503005024,令和５年８月４日東京都台東区清川一丁目７番４号合同会社ひまわり（9010503005024）に合併し解散,2018-11-27,1,,,,,コスモス,0
725,3011001016205,登記記録の閉鎖等,0,2023-08-14,2023-08-07,株式会社東京エネルギーサービス,,株式会社,東京都,渋谷区,恵比寿４丁目２０番３号,,13,113,1500013,,,2023-08-07,合併による解散等,2010401079028,令和５年７月１日東京都港区海岸一丁目２番３号東京ガスエンジニアリングソリューションズ株式会社（2010401079028）に合併し解散,2015-10-05,1,,,,,トウキョウエネルギーサービス,0
744,3011702006603,登記記録の閉鎖等,0,2023-08-14,2023-08-09,有限会社双成機業,,有限会社,東京都,江戸川区,西一之江１丁目１２番５号,,13,123,1320023,,,2023-08-09,清算の結了等,,,2015-10-05,1,,,,,ソウセイキギョウ,0
754,3020001024308,登記記録の閉鎖等,0,2023-08-14,2023-07-31,株式会社エフプレイス,,株式会社,神奈川県,横浜市神奈川区,三枚町５番地の１,,14,102,2210862,,,2023-07-31,清算の結了等,,,2015-10-05,1,,,,,エフプレイス,0
756,3020001036831,登記記録の閉鎖等,0,2023-08-14,2023-07-31,株式会社ルネサンス横浜,,株式会社,神奈川県,横浜市神奈川区,羽沢町１５５６番３号,,14,102,2210863,,,2023-07-31,清算の結了等,,,2015-10-05,1,,,,,,0
771,3020002083220,登記記録の閉鎖等,0,2023-08-14,2023-07-31,有限会社神奈川庭園,,有限会社,神奈川県,川崎市中原区,井田３丁目４番２号,,14,133,2110035,,,2023-07-31,清算の結了等,,,2015-10-05,1,,,,,カナガワテイエン,0
791,3030001141878,登記記録の閉鎖等,0,2023-08-14,2023-07-18,株式会社ミット,,株式会社,埼玉県,所沢市,星の宮１丁目７番１６号,,11,208,3591127,,,2023-07-18,清算の結了等,,,2021-04-21,1,,,,,ミット,0
817,3050001035574,登記記録の閉鎖等,0,2023-08-14,2023-08-04,株式会社ギャラクシーダイヤモンド,,株式会社,茨城県,古河市,上辺見１１８０番地２,,08,204,3060234,,,2023-08-04,清算の結了等,,,2015-10-05,1,,,,,,0
820,3060001020996,登記記録の閉鎖等,0,2023-08-14,2023-08-01,株式会社関東ウッドケミカル,,株式会社,栃木県,佐野市,植野町１９５３番地１,,09,204,3270837,,,2023-08-01,合併による解散等,5060001021670,令和５年８月１日栃木県佐野市植野町１９５３番地１株式会社ミツワハウステック（5060001021670）に合併し解散,2015-10-05,1,,,,,カントウウッドケミカル,0
821,3060002000700,登記記録の閉鎖等,0,2023-08-14,2023-08-01,高林有限会社,,有限会社,栃木県,宇都宮市,栄町６番１５号,,09,201,3200024,,,2023-08-01,合併による解散等,6060001013873,令和５年８月１日栃木県宇都宮市栄町６番１５号赤羽産業株式会社（6060001013873）に合併し解散,2015-10-05,1,,,,,タカバヤシ,0
824,3070001014485,登記記録の閉鎖等,0,2023-08-14,2023-08-04,株式会社アイ・ドゥ・コーポレーション,,株式会社,群馬県,伊勢崎市,西久保町３丁目８８８番地３,,10,204,3792204,,,2023-08-04,清算の結了等,,,2015-10-05,1,,,,,アイドゥコーポレーション,0
828,3080001011580,登記記録の閉鎖等,0,2023-08-14,2023-08-09,幸和株式会社,,株式会社,静岡県,静岡市清水区,渋川３丁目８番８号,,22,103,4240053,,,2023-08-09,清算の結了等,,,2015-10-05,1,,,,,コウワ,0
831,3080001024715,登記記録の閉鎖等,0,2023-08-14,2023-08-08,株式会社ブランサーチマーケティング,,株式会社,静岡県,静岡市清水区,南岡町６番３４号,,22,103,4240932,,,2023-08-08,清算の結了等,,,2022-01-27,1,,,,,ブランサーチマーケティング,0
832,3080002009640,登記記録の閉鎖等,0,2023-08-14,2023-08-09,有限会社川口保険事務所,,有限会社,静岡県,静岡市清水区,辻３丁目２番３０号,00067476,22,103,4240806,,,2023-08-09,清算の結了等,,,2015-10-05,1,,,,,カワグチホケンジムショ,0
877,3130002020187,登記記録の閉鎖等,0,2023-08-14,2023-07-27,有限会社北栄社,,有限会社,京都府,京都市北区,鞍馬口通室町東入小山町２２５番地,,26,101,6038152,,,2023-07-27,清算の結了等,,,2015-10-05,1,,,,,ホクエイシャ,0
879,3140001056495,登記記録の閉鎖等,0,2023-08-14,2023-08-04,株式会社カーゲット,,株式会社,兵庫県,豊岡市,森１３８番地,,28,209,6680806,,,2023-08-04,清算の結了等,,,2015-10-05,1,,,,,カーゲット,0
881,3140001103693,登記記録の閉鎖等,0,2023-08-14,2023-08-07,ＪＵＳＥＴＺコンストラクターズ株式会社,,株式会社,兵庫県,神戸市中央区,生田町２丁目１番２号,,28,110,6510092,,,2023-08-07,清算の結了等,,,2016-10-19,1,,,,,ジュウセツコンストラクターズ,0
911,3180001122715,登記記録の閉鎖等,0,2023-08-14,2023-07-31,株式会社ｔｅｌｌ　ｗｅ　Ｇｏ,,株式会社,愛知県,名古屋市瑞穂区,田辺通６丁目４９番地の２,,23,108,4670027,,,2023-07-31,清算の結了等,,,2016-04-04,1,,,,,テルミイゴー,0
915,3180001152885,登記記録の閉鎖等,0,2023-08-14,2023-08-08,株式会社Ｇ．Ｓ．Ｐ,,株式会社,愛知県,名古屋市中区,錦２丁目１２番８号,,23,106,4600003,,,2023-08-08,清算の結了等,,,2022-09-07,1,,,,,ジーエスピー,0
927,3180005003705,登記記録の閉鎖等,0,2023-08-14,2023-08-08,名古屋桐箪笥工業協同組合,,その他の設立登記法人,愛知県,春日井市,前並町字前並８番地４,,23,206,4860903,,,2023-08-08,清算の結了等,,,2015-10-05,1,,,,,ナゴヤキリダンスコウギョウ,0
937,3210002001749,登記記録の閉鎖等,0,2023-08-14,2023-08-08,有限会社嶋田ニット,,有限会社,福井県,福井市,高木北２丁目５０７番地,,18,201,9100807,,,2023-08-08,清算の結了等,,,2015-10-05,1,,,,,シマダニット,0
965,3310001018296,登記記録の閉鎖等,0,2023-08-14,2023-08-07,株式会社福志工業,,株式会社,長崎県,松浦市,福島町浅谷免８９９番地１,,42,208,8480404,,,2023-08-07,清算の結了等,,,2023-03-02,1,,,,,フクシコウギョウ,0
966,3320001002902,登記記録の閉鎖等,0,2023-08-14,2023-08-08,株式会社インフォウェイブ,,株式会社,大分県,大分市,東大道２丁目５番６０号,,44,201,8700823,,,2023-08-08,合併による解散等,6320001003732,令和５年８月１日大分市東大道二丁目５番６０号モバイルクリエイト株式会社（6320001003732）に合併し解散,2015-10-05,1,,,,,インフォウェイブ,0
970,3330001021109,登記記録の閉鎖等,0,2023-08-14,2023-07-31,株式会社モホーク,,株式会社,熊本県,熊本市南区,刈草２丁目３番２８号,,43,104,8614134,,,2023-07-31,清算の結了等,,,2015-10-05,1,,,,,モホーク,0
973,3330002014598,登記記録の閉鎖等,0,2023-08-14,2023-08-01,有限会社熊本バイオシステム,,有限会社,熊本県,熊本市中央区,帯山３丁目１６番１４－５１０号,,43,101,8620924,,,2023-08-01,清算の結了等,,,2015-10-05,1,,,,,バイオシステム,0
997,3430002011008,登記記録の閉鎖等,0,2023-08-14,2023-07-21,有限会社積算エスト一級建築士事務所,,有限会社,北海道,札幌市清田区,美しが丘三条８丁目１番１４号,,01,110,0040813,,,2023-07-21,清算の結了等,,,2015-10-05,1,,,,,セキサンエストイッキュウケンチクシジムショ,0
1013,4010001144907,登記記録の閉鎖等,0,2023-08-14,2023-08-01,ＴＲＣファシリティーズ株式会社,,株式会社,東京都,文京区,大塚３丁目１番１号,,13,105,1120012,,,2023-08-01,合併による解散等,3010001005556,令和５年８月１日東京都文京区大塚三丁目１番１号株式会社図書館流通センター（3010001005556）に合併し解散,2015-10-05,1,,,,,ティーアールシーファシリティーズ,0
1015,4010001158147,登記記録の閉鎖等,0,2023-08-14,2023-07-31,国上精機工業ホールディングス株式会社,,株式会社,神奈川県,横浜市中区,尾上町２丁目２７番地,,14,104,2310015,,,2023-07-31,清算の結了等,,,2015-10-05,1,,,,,クガミセイキコウギョウホールディングス,0
1035,4010401099924,登記記録の閉鎖等,0,2023-08-14,2023-07-14,株式会社インスペックス,,株式会社,東京都,港区,港南１丁目６番４１号,,13,103,1080075,,,2023-07-14,清算の結了等,,,2015-10-05,1,,,,,インスペックス,0
1036,4010401157624,登記記録の閉鎖等,0,2023-08-14,2023-08-01,株式会社イーエヌ,,株式会社,東京都,中央区,銀座７丁目１３番６号サガミビル２階,,13,102,1040061,,,2023-08-01,合併による解散等,3010401027737,令和５年８月１日東京都中央区銀座七丁目１３番６号サガミビル２階株式会社マークス（3010401027737）に合併し解散,2021-01-18,1,,,,,イーエヌ,0
1071,4011501016298,登記記録の閉鎖等,0,2023-08-14,2023-07-18,株式会社童夢,,株式会社,埼玉県,所沢市,小手指町１丁目３０番地の１７サンヴェール小手指２－１０４,,11,208,3591141,,,2023-07-18,清算の結了等,,,2015-10-05,1,,,,,ドウム,0
1101,4020001074525,登記記録の閉鎖等,0,2023-08-14,2023-07-31,株式会社間嶋商店,,株式会社,神奈川県,川崎市川崎区,浜町２丁目１８番４号,,14,131,2100851,,,2023-07-31,清算の結了等,,,2015-10-05,1,,,,,マジマショウテン,0
1105,4020001099638,登記記録の閉鎖等,0,2023-08-14,2023-07-31,たねとファーム株式会社,,株式会社,神奈川県,横浜市都筑区,仲町台２丁目７番１号,,14,118,2240041,,,2023-07-31,清算の結了等,,,2015-10-05,1,,,,,タネトファーム,0
1107,4020001126581,登記記録の閉鎖等,0,2023-08-14,2023-08-04,株式会社ジョブコムサービス,,株式会社,愛知県,名古屋市北区,大杉３丁目２０番１４号,,23,103,4620837,,,2023-08-04,清算の結了等,,,2018-06-04,1,,,,,ジョブコムサービス,0
1128,4030001052414,登記記録の閉鎖等,0,2023-08-14,2023-07-18,株式会社ケィ・ティ,,株式会社,埼玉県,春日部市,水角１０８番地２,,11,214,3440127,,,2023-07-18,清算の結了等,,,2015-10-05,1,,,,,ケィティ,0
1161,4080401011097,登記記録の閉鎖等,0,2023-08-14,2023-08-10,ＴＰＥテクノロジー株式会社,,株式会社,静岡県,浜松市東区,有玉南町１７４２番地,,22,132,4313122,,,2023-08-10,清算の結了等,,,2015-10-05,1,,,,,ティーピーイーテクノロジー,0
1162,4080401022598,登記記録の閉鎖等,0,2023-08-14,2023-08-10,株式会社楽食,,株式会社,静岡県,浜松市中区,幸１丁目１番４０号,,22,131,4338123,,,2023-08-10,清算の結了等,,,2017-12-06,1,,,,,,0
1177,4120001162468,登記記録の閉鎖等,0,2023-08-14,2023-08-09,株式会社ＰＨＩＬＬＩＰ　ＪＡＭＥＳ,,株式会社,大阪府,大阪市北区,梅田１丁目１１番４号,,27,127,5300001,,,2023-08-09,清算の結了等,,,2015-10-05,1,,,,,,0
1201,4120101049045,登記記録の閉鎖等,0,2023-08-14,2023-08-10,川商運輸株式会社,,株式会社,大阪府,阪南市,尾崎町５０８番地の３,,27,232,5990201,,,2023-08-10,清算の結了等,,,2015-10-05,1,,,,,,0
1205,4120105006521,登記記録の閉鎖等,0,2023-08-14,2023-08-09,特定非営利活動法人たんぽぽの会,,その他の設立登記法人,大阪府,泉佐野市,中町１丁目７番４３号,,27,213,5980013,,,2023-08-09,清算の結了等,,,2015-10-05,1,,,,,タンポポノカイ,0
1225,4140002053788,登記記録の閉鎖等,0,2023-08-14,2023-08-04,有限会社兵庫フレンドリー,,有限会社,兵庫県,姫路市,御立北２丁目８番２１号,,28,201,6700071,,,2023-08-04,清算の結了等,,,2015-10-05,1,,,,,ヒョウゴフレンドリー,0
1231,4180002066233,登記記録の閉鎖等,0,2023-08-14,2023-08-03,有限会社シマダ・アンド・カンパニー,,有限会社,愛知県,春日井市,町田町２丁目８７－２,,23,206,4860936,,,2023-08-03,合併による解散等,1180001074867,令和５年８月１日愛知県春日井市西屋町字中新田７２番地の３株式会社フジモト（1180001074867）に合併し解散,2015-10-05,1,,,,,シマダアンドカンパニー,0
1272,4290002055489,登記記録の閉鎖等,0,2023-08-14,2023-08-01,有限会社筒井電器商会,,有限会社,福岡県,大牟田市,大字草木１０２２番地の２,,40,202,8370917,,,2023-08-01,清算の結了等,,,2015-10-05,1,,,,,ツツイデンキショウカイ,0
1287,4330002029190,登記記録の閉鎖等,0,2023-08-14,2023-07-27,有限会社村崎水産,00098020,有限会社,熊本県,天草市,栖本町古江９７４番地３,,43,215,8616304,,,2023-07-27,清算の結了等,,,2015-10-05,1,,,,,ムラサキスイサン,0
1293,4350002011114,登記記録の閉鎖等,0,2023-08-14,2023-07-24,有限会社門川交通観光,,有限会社,宮崎県,東臼杵郡門川町,上町１丁目１４番地,,45,421,8890614,,,2023-07-24,清算の結了等,,,2015-10-05,1,,,,,カドガワコウツウカンコウ,0
1304,4402701000077,登記記録の閉鎖等,0,2023-08-14,2023-07-31,株式会社金野組,,株式会社,岩手県,大船渡市,赤崎町字跡浜１８３番地４,,03,203,0220007,,,2023-07-31,清算の結了等,,,2015-10-05,1,,,,,キンノグミ,0
1306,4420001014374,登記記録の閉鎖等,0,2023-08-14,2023-08-01,草野工業株式会社,,株式会社,青森県,上北郡おいらせ町,緑ヶ丘４丁目５０番地１８４７,,02,412,0392187,,,2023-08-01,清算の結了等,,,2015-10-05,1,,,,,クサノコウギョウ,0
1323,4460105001843,登記記録の閉鎖等,0,2023-08-14,2023-08-08,特定非営利活動法人障害者家族地域生活支援事業所てぃんくる,,その他の設立登記法人,北海道,帯広市,西十一条南２７丁目１７番地,,01,207,0800021,,,2023-08-08,清算の結了等,,,2015-10-05,1,,,,,ショウガイシャカゾクチイキセイカツシエンジギョウショティンクル,0
1362,5010401164099,登記記録の閉鎖等,0,2023-08-14,2023-07-21,インテリジェンスクリエイターズ株式会社,,株式会社,東京都,港区,麻布十番２丁目１番８,,13,103,1060045,,,2023-07-21,清算の結了等,,,2021-11-26,1,,,,,インテリジェンスクリエイターズ,0
1390,5011001110880,登記記録の閉鎖等,0,2023-08-14,2023-08-09,株式会社琥珀肌,,株式会社,東京都,渋谷区,代々木１丁目３０番７号,,13,113,1510053,,,2023-08-09,合併による解散等,1030001087198,令和５年７月１日埼玉県熊谷市三ケ尻３７６３番地株式会社ウエルネスジャパン（1030001087198）に合併し解散,2016-05-13,1,,,,,,0
1394,5011001134129,登記記録の閉鎖等,0,2023-08-14,2023-08-07,株式会社オンコーチ,,株式会社,東京都,港区,南青山３丁目３番３号リビエラ南青山ビルＡ棟１Ｆ,,13,103,1070062,,,2023-08-07,合併による解散等,3011001152792,令和５年７月１日東京都渋谷区元代々木町３０番１３号株式会社デジタルａｎｄ（3011001152792）に合併し解散,2020-06-09,1,,,,,オンコーチ,0
1417,5011601024019,登記記録の閉鎖等,0,2023-08-14,2023-08-03,株式会社ラッキーパワー,,株式会社,東京都,練馬区,春日町３丁目３１番１７号２階,,13,120,1790074,,,2023-08-03,合併による解散等,5011601026287,令和５年８月１日東京都練馬区春日町三丁目３１番１７号ラフィーネ春日町２階株式会社隆豊ホールディングス（5011601026287）に合併し解散,2020-02-19,1,,,,,ラッキーパワー,0
1431,5012701010239,登記記録の閉鎖等,0,2023-08-14,2023-08-04,株式会社ＭＡ‐１,,株式会社,茨城県,常総市,水海道淵頭町２９３２番地１,,08,211,3030022,,,2023-08-04,清算の結了等,,,2015-10-05,1,,,,,エムエーワン,0
1436,5020001001271,登記記録の閉鎖等,0,2023-08-14,2023-07-31,株式会社ガス器具センター,,株式会社,神奈川県,横浜市瀬谷区,本郷３丁目２８番地３第２メゾンモリヤ１０５号室,,14,114,2460015,,,2023-07-31,清算の結了等,,,2015-10-05,1,,,,,ガスキグセンター,0
1450,5020002067881,登記記録の閉鎖等,0,2023-08-14,2023-07-31,有限会社シルキィ,,有限会社,神奈川県,横浜市神奈川区,浦島丘１７番地１,,14,102,2210062,,,2023-07-31,清算の結了等,,,2015-10-05,1,,,,,シルキィ,0
1464,5030001056926,登記記録の閉鎖等,0,2023-08-14,2023-07-18,株式会社山藤ハウジング,,株式会社,埼玉県,川越市,大字的場１７６４番地１,,11,201,3501101,,,2023-07-18,清算の結了等,,,2015-10-05,1,,,,,ヤマフジハウジング,0
1466,5030001107373,登記記録の閉鎖等,0,2023-08-14,2023-08-02,株式会社Ｋ・ＰＬＵＳ,,株式会社,埼玉県,所沢市,大字上山口１５５６番地の１,,11,208,3591153,,,2023-08-02,合併による解散等,9130001060385,令和５年８月１日東京都新宿区西新宿六丁目１５番１号株式会社ＴＲＥＣＩＯＵＳ（9130001060385）に合併し解散,2015-10-05,1,,,,,,0
1481,5040002042437,登記記録の閉鎖等,0,2023-08-14,2023-07-19,エコ・グリーン株式会社,,株式会社,千葉県,市川市,八幡２丁目１６番２０号,,12,203,2720021,,,2023-07-19,清算の結了等,,,2015-10-05,1,,,,,エコグリーン,0
1482,5050001046982,登記記録の閉鎖等,0,2023-08-14,2023-08-04,株式会社エース,,株式会社,茨城県,石岡市,北府中３丁目１番２９号,,08,205,3150012,,,2023-08-04,清算の結了等,,,2020-01-07,1,,,,,エース,0
1495,5080101018680,登記記録の閉鎖等,0,2023-08-14,2023-08-09,伊豆高原ルバーブ株式会社,,株式会社,静岡県,伊東市,川奈１２７０番地の６,,22,208,4140044,,,2023-08-09,清算の結了等,,,2015-10-20,1,,,,,イズコウゲンルバーブ,0
1497,5080402010683,登記記録の閉鎖等,0,2023-08-14,2023-08-10,有限会社グランツ,,有限会社,静岡県,浜松市中区,佐鳴台３丁目５７番１４号,,22,131,4328021,,,2023-08-10,清算の結了等,,,2015-10-05,1,,,,,グランツ,0
1503,5120001020971,登記記録の閉鎖等,0,2023-08-14,2023-08-09,株式会社塚口服装,,株式会社,大阪府,大阪市平野区,加美東１丁目２番２８号,,27,126,5470002,,,2023-08-09,清算の結了等,,,2015-10-05,1,,,,,,0
1508,5120001248332,登記記録の閉鎖等,0,2023-08-14,2023-08-03,皆有福株式会社,,株式会社,大阪府,大阪市中央区,松屋町９番２０号ローレルステート松屋町６０２Ｂ,,27,128,5420067,,,2023-08-03,清算の結了等,,,2022-08-24,1,,,,,カイユウフク,0
1517,5120005014680,登記記録の閉鎖等,0,2023-08-14,2023-07-13,特定非営利活動法人大和川環境・生物・観測会,,その他の設立登記法人,大阪府,大阪市住之江区,北加賀屋５丁目７番２６－４０８号,,27,125,5590011,,,2023-07-13,清算の結了等,,,2015-10-05,1,,,,,ヤマトガワカンキョウセイブツカンソクカイ,0
1538,5130005015587,登記記録の閉鎖等,0,2023-08-14,2023-07-28,一般社団法人スマートアール推進協議会,,その他の設立登記法人,京都府,京都市南区,東九条烏丸町１１－３Ｅ９Ｆｌａｔ５０５,,26,107,6018016,,,2023-07-28,清算の結了等,,,2019-05-10,1,,,,,スマートアールスイシンキョウギカイ,0
1561,5180001019752,登記記録の閉鎖等,0,2023-08-14,2023-08-09,株式会社白神電気商会,,株式会社,愛知県,名古屋市中川区,新家１丁目１９１９番地,,23,110,4540972,,,2023-08-09,清算の結了等,,,2015-10-05,1,,,,,ハクシンデンキショウカイ,0
1573,5180003005511,登記記録の閉鎖等,0,2023-08-14,2023-08-07,合資会社寺本商店,,合資会社,愛知県,名古屋市中区,上前津１丁目９番１０号,,23,106,4600013,,,2023-08-07,清算の結了等,,,2015-10-05,1,,,,,テラモトショウテン,0
1579,5180301012812,登記記録の閉鎖等,0,2023-08-14,2023-08-01,衣浦化成株式会社,,株式会社,愛知県,安城市,福釜町矢場７１番地１,,23,212,4460052,,,2023-08-01,合併による解散等,7180301012827,令和５年８月１日愛知県安城市福釜町矢場１６番地１衣浦部品工業株式会社（7180301012827）に合併し解散,2015-10-05,1,,,,,キヌウラカセイ,0
1589,5200001036919,登記記録の閉鎖等,0,2023-08-14,2023-08-08,株式会社ａサポート,,株式会社,岐阜県,羽島郡岐南町,伏屋９丁目１６７番地,,21,302,5016006,,,2023-08-08,清算の結了等,,,2019-12-04,1,,,,,エーサポート,0
1593,5210001017629,登記記録の閉鎖等,0,2023-08-14,2023-08-07,株式会社アビリティ・アドバンス,,株式会社,福井県,敦賀市,鋳物師町９－１７レディースビル１Ｆ,,18,202,9140805,,,2023-08-07,清算の結了等,,,2019-07-12,1,,,,,アビリティアドバンス,0
1602,5260002009760,登記記録の閉鎖等,0,2023-08-14,2023-08-04,有限会社御乃商,,有限会社,岡山県,総社市,井尻野１３３番地１,,33,208,7191154,,,2023-08-04,清算の結了等,,,2015-10-05,1,,,,,ミノショウ,0
1604,5270002005668,登記記録の閉鎖等,0,2023-08-14,2023-08-02,門脇電機工事有限会社,,有限会社,鳥取県,米子市,米原７丁目６番８号,,31,202,6830804,,,2023-08-02,清算の結了等,,,2015-10-05,1,,,,,カドワキデンキコウジ,0
1612,5290005009342,登記記録の閉鎖等,0,2023-08-14,2023-07-25,御嶽教稲穂教会,,その他の設立登記法人,福岡県,八女市,黒木町今７２９番地,,40,210,8341221,,,2023-07-25,清算の結了等,,,2015-10-05,1,,,,,オンタケキョウイナホキョウカイ,0
1623,5320001011224,登記記録の閉鎖等,0,2023-08-14,2023-08-07,株式会社カケイ工業,,株式会社,大分県,中津市,大字植野字下原９６５番地の１,,44,203,8790103,,,2023-08-07,清算の結了等,,,2015-10-05,1,,,,,カケイコウギョウ,0
1625,5330001009705,登記記録の閉鎖等,0,2023-08-14,2023-07-28,九州茸技術開発センター株式会社,,株式会社,熊本県,菊池市,泗水町田島字岡原２８５０番地,,43,210,8611214,,,2023-07-28,清算の結了等,,,2015-10-05,1,,,,,キュウシュウキノコギジュツカイハツセンター,0
1628,5330002030940,登記記録の閉鎖等,0,2023-08-14,2023-07-14,有限会社小倉建設,,有限会社,熊本県,球磨郡多良木町,大字多良木２４６番地の１,,43,505,8680501,,,2023-07-14,清算の結了等,,,2015-10-05,1,,,,,,0
1642,5370001001393,登記記録の閉鎖等,0,2023-08-14,2023-08-01,株式会社東北医療サービス,,株式会社,宮城県,仙台市泉区,泉中央１丁目３２番地の５,,04,105,9813133,,,2023-08-01,合併による解散等,1370001000837,令和５年７月３１日仙台市泉区泉中央一丁目３２番地の５仙北薬品株式会社（1370001000837）に合併し解散,2015-10-05,1,,,,,トウホクイリョウサービス,0
1657,5450001002516,登記記録の閉鎖等,0,2023-08-14,2023-08-07,ビッグバン株式会社,,株式会社,北海道,旭川市,宮下通１９丁目１１１３番１,,01,204,0788330,,,2023-08-07,清算の結了等,,,2015-10-05,1,,,,,,0
1678,6010003032281,登記記録の閉鎖等,0,2023-08-14,2023-08-01,ＴＦＪ４合同会社,,合同会社,東京都,中央区,八丁堀４丁目２番１０号ＡＯＪ税理士法人内,,13,102,1040032,,,2023-08-01,清算の結了等,,,2020-05-26,1,,,,,ティーエフジェイフォー,0
1683,6010105001754,登記記録の閉鎖等,0,2023-08-14,2023-08-08,特定非営利活動法人ＭＡＧＯＫＯＲＯ,,その他の設立登記法人,東京都,多摩市,落合６丁目１５番地の３第三椎木ビル２０３号室,,13,224,2060033,,,2023-08-08,清算の結了等,,,2015-10-05,1,,,,,マゴコロ,0
1684,6010401005995,登記記録の閉鎖等,0,2023-08-14,2023-08-01,株式会社オービット,,株式会社,東京都,中央区,銀座７丁目１３番６号サガミビル２階,,13,102,1040061,,,2023-08-01,合併による解散等,3010401027737,令和５年８月１日東京都中央区銀座七丁目１３番６号サガミビル２階株式会社マークス（3010401027737）に合併し解散,2015-10-05,1,,,,,オービット,0
1701,6010902002756,登記記録の閉鎖等,0,2023-08-14,2023-08-03,有限会社エビス電機城南店,,有限会社,東京都,世田谷区,奥沢３丁目４７番８号,,13,112,1580083,,,2023-08-03,清算の結了等,,,2015-10-05,1,,,,,エビスデンキジョウナンテン,0
1704,6011001016945,登記記録の閉鎖等,0,2023-08-14,2023-08-01,株式会社南北商事,,株式会社,神奈川県,横浜市神奈川区,金港町５番地１,,14,102,2210056,,,2023-08-01,合併による解散等,5020001042019,令和５年８月１日横浜市神奈川区金港町５番地１オリエンタル物産株式会社（5020001042019）に合併し解散,2015-10-05,1,,,,,ナンボクショウジ,0
1736,6012301010274,登記記録の閉鎖等,0,2023-08-14,2023-08-04,株式会社ＲＥＮＪＡＰＡＮ,,株式会社,東京都,杉並区,和泉４丁目４０番３２号,,13,115,1680063,,,2023-08-04,合併による解散等,5010701041733,令和５年８月１日東京都品川区東五反田一丁目１４番１４号株式会社飛鳥コーポレーション（5010701041733）に合併し解散,2015-10-05,1,,,,,レンジャパン,0
1750,6020001061158,登記記録の閉鎖等,0,2023-08-14,2023-07-31,株式会社ジーン,,株式会社,神奈川県,横浜市金沢区,並木３丁目７番５－１０３号,,14,108,2360005,,,2023-07-31,清算の結了等,,,2015-10-05,1,,,,,ジーン,0
1790,6030003009963,登記記録の閉鎖等,0,2023-08-14,2023-07-07,合同会社ナンカイ,,合同会社,埼玉県,八潮市,八潮３丁目２８番地１０,,11,234,3400815,,,2023-07-07,清算の結了等,,,2017-03-02,1,,,,,ナンカイ,0
1822,6080001014580,登記記録の閉鎖等,0,2023-08-14,2023-08-08,株式会社ナラ・ネット,,株式会社,静岡県,島田市,河原１丁目３番３４号,,22,209,4270037,,,2023-08-08,清算の結了等,,,2015-10-05,1,,,,,ナラネット,0
1847,6120101054695,登記記録の閉鎖等,0,2023-08-14,2023-08-10,株式会社開光,,株式会社,大阪府,貝塚市,森９５３番地１３,,27,208,5970044,,,2023-08-10,清算の結了等,,,2016-04-26,1,,,,,カイコウ,0
1849,6120101063655,登記記録の閉鎖等,0,2023-08-14,2023-08-07,瀛川株式会社,00123097,株式会社,大阪府,泉佐野市,中庄２４番地の３７,,27,213,5980002,,,2023-08-07,清算の結了等,,,2021-05-20,1,,,,,エイセン,0
1856,6120902014880,登記記録の閉鎖等,0,2023-08-14,2023-08-02,有限会社山八西久保商店,,有限会社,大阪府,池田市,室町１番６号,,27,204,5630047,,,2023-08-02,清算の結了等,,,2015-10-05,1,,,,,ヤマハチニシクボショウテン,0
1861,6130001004411,登記記録の閉鎖等,0,2023-08-14,2023-07-31,株式会社エフティ,,株式会社,京都府,京都市北区,上賀茂向梅町６８番地,,26,101,6038086,,,2023-07-31,清算の結了等,,,2015-10-05,1,,,,,エフティ,0
1878,6140003009127,登記記録の閉鎖等,0,2023-08-14,2023-08-07,プラン合同会社,,合同会社,兵庫県,神戸市中央区,八幡通１丁目１番８号,,28,110,6510085,,,2023-08-07,清算の結了等,,,2015-10-05,1,,,,,プラン,0
1921,6290005015901,登記記録の閉鎖等,0,2023-08-14,2023-07-13,一般社団法人民事信託協会,,その他の設立登記法人,東京都,港区,虎ノ門５丁目１２番１１号ＮＣＯメトロ神谷町,,13,103,1050001,,,2023-07-13,清算の結了等,,,2016-04-22,1,,,,,ミンジシンタクキョウカイ,0
1926,6310002014845,登記記録の閉鎖等,0,2023-08-14,2023-08-10,有限会社アズマ,,有限会社,長崎県,諫早市,東小路町１２番７号,,42,204,8540014,,,2023-08-10,清算の結了等,,,2015-10-05,1,,,,,,0
1940,6380001023626,登記記録の閉鎖等,0,2023-08-14,2023-07-27,株式会社Ｔ・Ｋコーポレーション,,株式会社,福島県,いわき市,鹿島町久保１丁目１番地５能花ビル２Ｆ,,07,204,9718144,,,2023-07-27,清算の結了等,,,2015-10-05,1,,,,,ティケーコーポレーション,0
1950,6450002009559,登記記録の閉鎖等,0,2023-08-14,2023-08-07,有限会社三村青果,,有限会社,北海道,空知郡南富良野町,字幾寅１０８８番地,,01,462,0792400,,,2023-08-07,清算の結了等,,,2015-10-05,1,,,,,,0
1998,7010601050709,登記記録の閉鎖等,0,2023-08-14,2023-07-14,株式会社元気森林,,株式会社,東京都,港区,六本木３丁目３番１５号７０２号室,,13,103,1060032,,,2023-07-14,清算の結了等,,,2016-11-17,1,,,,,ゲンキシンリン,0
2000,7010802019206,登記記録の閉鎖等,0,2023-08-14,2023-08-04,有限会社ＹＨデザイン＆プラント,,有限会社,東京都,大田区,田園調布本町２０番３－６０２号,,13,111,1450072,,,2023-08-04,清算の結了等,,,2015-10-05,1,,,,,ワイエイチデザインアンドプラント,0
2003,7010903004924,登記記録の閉鎖等,0,2023-08-14,2023-08-04,ネスト合同会社,,合同会社,東京都,世田谷区,砧４丁目１０番１５－３０６号,,13,112,1570073,,,2023-08-04,清算の結了等,,,2019-04-25,1,,,,,ネスト,0
2004,7011001052444,登記記録の閉鎖等,0,2023-08-14,2023-07-31,株式会社ジューシーロック,,株式会社,神奈川県,横浜市港北区,新吉田東２丁目２番１－１０３号,,14,109,2230058,,,2023-07-31,清算の結了等,,,2015-10-05,1,,,,,ジューシーロック,0
2033,7013301007813,登記記録の閉鎖等,0,2023-08-14,2023-08-07,出島株式会社,,株式会社,東京都,豊島区,南池袋３丁目１８番３４号,,13,116,1710022,,,2023-08-07,清算の結了等,,,2015-10-05,1,,,,,デジマ,0
2060,7030001115754,登記記録の閉鎖等,0,2023-08-14,2023-08-08,株式会社みなけあ新座,,株式会社,埼玉県,新座市,野火止６丁目６番１２号,,11,230,3520011,,,2023-08-08,合併による解散等,1260001015656,令和５年８月１日東京都品川区東品川四丁目１２番８号ＳＯＭＰＯケア株式会社（1260001015656）に合併し解散,2016-08-08,1,,,,,ミナケアニイザ,0
2067,7030003006480,登記記録の閉鎖等,0,2023-08-14,2023-07-19,合同会社ワンダブル,,合同会社,埼玉県,戸田市,笹目１丁目５番地の１３,,11,224,3350034,,,2023-07-19,清算の結了等,,,2015-10-05,1,,,,,ワンダブル,0
2077,7040002029556,登記記録の閉鎖等,0,2023-08-14,2023-07-19,有限会社高津モリタ電器,,有限会社,千葉県,船橋市,田喜野井１丁目５番２５号,,12,204,2740073,,,2023-07-19,清算の結了等,,,2015-10-05,1,,,,,タカツモリタデンキ,0
2082,7050003002742,登記記録の閉鎖等,0,2023-08-14,2023-08-04,合同会社想・こころ,,合同会社,茨城県,北茨城市,磯原町磯原２丁目２２３番地,,08,215,3191541,,,2023-08-04,清算の結了等,,,2015-10-05,1,,,,,ソウココロ,0
2083,7050003006074,登記記録の閉鎖等,0,2023-08-14,2023-08-04,栗山管工合同会社,,合同会社,茨城県,牛久市,奥原町３６４０番地,,08,219,3001283,,,2023-08-04,清算の結了等,,,2021-09-14,1,,,,,クリヤマカンコウ,0
2088,7060001029308,登記記録の閉鎖等,0,2023-08-14,2023-08-01,株式会社ＯＮＥ’Ｓ,,株式会社,栃木県,さくら市,喜連川４４５５番地,,09,214,3291412,,,2023-08-01,合併による解散等,6060001006885,令和５年８月１日栃木県さくら市櫻野５０５番地株式会社ビッグワンホールディングス（6060001006885）に合併し解散,2017-04-21,1,,,,,ワンズ,0
2092,7070002037291,登記記録の閉鎖等,0,2023-08-14,2023-07-14,有限会社サム・インター,,有限会社,群馬県,高崎市,寺尾町１５８５番地３,,10,202,3700865,,,2023-07-14,清算の結了等,,,2015-10-05,1,,,,,サムインター,0
2095,7080401016762,登記記録の閉鎖等,0,2023-08-14,2023-08-09,東和テックス株式会社,,株式会社,静岡県,磐田市,豊岡６８５２番地の１,,22,211,4380231,,,2023-08-09,清算の結了等,,,2015-10-05,1,,,,,トウワテックス,0
2109,7120001153506,登記記録の閉鎖等,0,2023-08-14,2023-08-04,株式会社ネヤ設備,,株式会社,大阪府,寝屋川市,池田中町１４番１２号,,27,215,5720074,,,2023-08-04,清算の結了等,,,2015-10-05,1,,,,,ネヤセツビ,0
2139,7120905006107,登記記録の閉鎖等,0,2023-08-14,2023-07-20,ＮＰＯ法人障がい福祉サービス北大阪,,その他の設立登記法人,大阪府,摂津市,鳥飼野々３丁目１７番７号,,27,224,5660053,,,2023-07-20,清算の結了等,,,2020-12-01,1,,,,,ショウガイフクシサービスキタオオサカ,0
2150,7140001018021,登記記録の閉鎖等,0,2023-08-14,2023-08-01,株式会社山善興産,,株式会社,大阪府,大阪市北区,梅田１丁目１１番４－１８００号,,27,127,5300001,,,2023-08-01,合併による解散等,8120001170293,令和５年８月１日大阪市北区梅田一丁目１１番４－１８００号Ｙａｍａｚｅｎ株式会社（8120001170293）に合併し解散,2015-10-05,1,,,,,ヤマゼンコウサン,0
2169,7140005010073,登記記録の閉鎖等,0,2023-08-14,2023-08-04,協同組合兵庫但馬牛増頭推進協議会,,その他の設立登記法人,兵庫県,加古川市,志方町横大路４６番地の１,,28,210,6750332,,,2023-08-04,清算の結了等,,,2015-10-05,1,,,,,ヒョウゴタジマウシゾウトウスイシンキョウギカイ,0
2181,7180001135028,登記記録の閉鎖等,0,2023-08-14,2023-08-07,ＩＧＳ株式会社,,株式会社,愛知県,尾張旭市,新居町諏訪南１３３４番地３,,23,226,4880072,,,2023-08-07,清算の結了等,,,2019-01-08,1,,,,,アイジーエス,0
2187,7180002035771,登記記録の閉鎖等,0,2023-08-14,2023-08-07,有限会社ちくぶ,,有限会社,愛知県,名古屋市中村区,名駅３丁目１２番１２号,,23,105,4500002,,,2023-08-07,清算の結了等,,,2015-10-05,1,,,,,チクブ,0
2196,7200002002348,登記記録の閉鎖等,0,2023-08-14,2023-08-08,有限会社ジュエリー・ワダシン,,有限会社,岐阜県,岐阜市,則武中１丁目１３番３号,,21,201,5020932,,,2023-08-08,清算の結了等,,,2015-10-05,1,,,,,ジュエリーワダシン,0
2202,7210005005537,登記記録の閉鎖等,0,2023-08-14,2023-07-31,木本領家生産森林組合,,その他の設立登記法人,福井県,大野市,木本第５６号１７番地,,18,205,9120433,,,2023-07-31,清算の結了等,,,2015-10-05,1,,,,,コノモトリョウケ,0
2220,7260002032042,登記記録の閉鎖等,0,2023-08-14,2023-08-03,有限会社松原産業,,有限会社,岡山県,備前市,日生町寒河１０６４番地,,33,211,7013202,,,2023-08-03,清算の結了等,,,2015-10-05,1,,,,,マツバラサンギョウ,0
2230,7290002047161,登記記録の閉鎖等,0,2023-08-14,2023-07-31,有限会社古賀家具店,,有限会社,福岡県,筑後市,大字山ノ井９３４番地１０,,40,211,8330031,,,2023-07-31,清算の結了等,,,2015-10-05,1,,,,,コガカグテン,0
2238,7300005000512,登記記録の閉鎖等,0,2023-08-14,2023-08-08,佐賀電気工事業協同組合,,その他の設立登記法人,佐賀県,佐賀市,八丁畷町１１番８号,,41,201,8490925,,,2023-08-08,清算の結了等,,,2015-10-05,1,,,,,サガデンキコウジギョウ,0
2239,7320001010950,登記記録の閉鎖等,0,2023-08-14,2023-08-10,平和興産株式会社,,株式会社,大分県,中津市,豊田町三丁目８番地の１６,,44,203,8710058,,,2023-08-10,清算の結了等,,,2015-10-05,1,,,,,ヘイワコウサンカブシキガイシャ,0
2262,7380002035371,登記記録の閉鎖等,0,2023-08-14,2023-08-08,有限会社アンモード,,有限会社,福島県,南会津郡南会津町,中荒井字長畔８０１番地の１,,07,368,9670005,,,2023-08-08,清算の結了等,,,2015-10-05,1,,,,,アンモード,0
2279,8010001018470,登記記録の閉鎖等,0,2023-08-14,2023-08-03,株式会社新日比谷ビル,,株式会社,東京都,千代田区,内幸町２丁目２番１号,,13,101,1000011,,,2023-08-03,清算の結了等,,,2015-10-05,1,,,,,シンヒビヤビル,0
2291,8010001133922,登記記録の閉鎖等,0,2023-08-14,2023-08-03,株式会社インタースタイル,,株式会社,東京都,文京区,白山１丁目３３番８－２１３号,,13,105,1130001,,,2023-08-03,合併による解散等,9010001125092,令和５年７月２５日東京都文京区白山二丁目１７番１－６０４号株式会社インフォビジョン（9010001125092）に合併し解散,2015-10-05,1,,,,,インタースタイル,0
2305,8010005019647,登記記録の閉鎖等,0,2023-08-14,2023-08-04,山佐ＴＫ４一般社団法人,,その他の設立登記法人,東京都,千代田区,丸の内３丁目１番１号東京共同会計事務所内,,13,101,1000005,,,2023-08-04,清算の結了等,,,2015-10-05,1,,,,,ヤマサティーケイシ,0
2306,8010005027757,登記記録の閉鎖等,0,2023-08-14,2023-08-04,一般社団法人ハウス７,,その他の設立登記法人,東京都,千代田区,丸の内３丁目１番１号東京共同会計事務所内,,13,101,1000005,,,2023-08-04,清算の結了等,,,2017-11-20,1,,,,,ハウスセブン,0
2308,8010401024036,登記記録の閉鎖等,0,2023-08-14,2023-07-20,株式会社バンズ,,株式会社,東京都,港区,南麻布２丁目１３番１２号,,13,103,1060047,,,2023-07-20,清算の結了等,,,2015-10-05,1,,,,,バンズ,0
2311,8010401094574,登記記録の閉鎖等,0,2023-08-14,2023-07-21,株式会社Ａｒｃ,,株式会社,東京都,港区,三田１丁目２番２２号,,13,103,1080073,,,2023-07-21,合併による解散等,2010401043462,令和５年７月１日東京都港区三田一丁目２番２２号株式会社アイコール（2010401043462）に合併し解散,2015-10-05,1,,,,,アーク,0
2313,8010401125040,登記記録の閉鎖等,0,2023-08-14,2023-07-12,株式会社エス・アール・プロジェクト,,株式会社,東京都,港区,南青山２丁目２番６－１１０１号,,13,103,1070062,,,2023-07-12,清算の結了等,,,2016-05-27,1,,,,,エスアールプロジェクト,0
2366,8012301010529,登記記録の閉鎖等,0,2023-08-14,2023-08-08,株式会社メディア・イノベーション,,株式会社,東京都,町田市,原町田３丁目１６番１２号,,13,209,1940013,,,2023-08-08,清算の結了等,,,2016-05-09,1,,,,,,0
2367,8012302005643,登記記録の閉鎖等,0,2023-08-14,2023-08-07,有限会社志村モールド企画,,有限会社,東京都,町田市,小野路町７９番地,,13,209,1950064,,,2023-08-07,清算の結了等,,,2015-10-05,1,,,,,シムラモールドキカク,0
2374,8013105001755,登記記録の閉鎖等,0,2023-08-14,2023-08-08,一般社団法人日本特殊清掃隊,,その他の設立登記法人,東京都,中央区,新富１丁目４番１号ウインド新富ビル５０１号室,,13,102,1040041,,,2023-08-08,合併による解散等,5013305002325,令和５年８月１日東京都新宿区西新宿六丁目８番１号新宿オークタワー一般社団法人家財整理相談窓口（5013305002325）に合併し解散,2020-04-23,1,,,,,ニホントクシュセイソウタイ,0
2377,8013402002340,登記記録の閉鎖等,0,2023-08-14,2023-08-10,有限会社住研,,有限会社,東京都,多摩市,東寺方５７３番地,,13,224,2060003,,,2023-08-10,清算の結了等,,,2015-10-05,1,,,,,ジュウケン,0
2379,8020001018338,登記記録の閉鎖等,0,2023-08-14,2023-08-01,株式会社中山畜産,,株式会社,神奈川県,横浜市都筑区,池辺町１９５８番地４,,14,118,2240053,,,2023-08-01,合併による解散等,4020001073766,令和５年８月１日川崎市川崎区大川町１０番９号株式会社中山畜産（4020001073766）に合併し解散,2015-10-05,1,,,,,ナカヤマチクサン,0
2380,8020001092176,登記記録の閉鎖等,0,2023-08-14,2023-07-31,株式会社ダイムコーポレーション,,株式会社,神奈川県,横浜市港北区,新横浜２丁目１４番地８,,14,109,2220033,,,2023-07-31,清算の結了等,,,2015-10-05,1,,,,,ダイムコーポレーション,0
2410,8040002098641,登記記録の閉鎖等,0,2023-08-14,2023-07-19,有限会社高橋管工,,有限会社,千葉県,野田市,中野台鹿島町１４番５,,12,208,2780036,,,2023-07-19,清算の結了等,,,2015-10-05,1,,,,,タカハシカンコウ,0
2413,8050001043044,登記記録の閉鎖等,0,2023-08-14,2023-08-04,株式会社菅谷電設,,株式会社,茨城県,鉾田市,柏熊９８５番地９,,08,234,3111511,,,2023-08-04,清算の結了等,,,2017-07-04,1,,,,,スガヤデンセツ,0
2417,8050002030727,登記記録の閉鎖等,0,2023-08-14,2023-08-04,有限会社昌永,,有限会社,茨城県,日立市,会瀬町１丁目９番４号,,08,202,3170076,,,2023-08-04,清算の結了等,,,2015-10-05,1,,,,,ショウエイ,0
2435,8120001016959,登記記録の閉鎖等,0,2023-08-14,2023-08-07,株式会社映光,,株式会社,大阪府,大阪市生野区,巽北２丁目６番２５号,00027225,27,116,5440004,,,2023-08-07,清算の結了等,,,2015-10-05,1,,,,,エイコウ,0
2455,8120901032485,登記記録の閉鎖等,0,2023-08-14,2023-08-01,株式会社ＲＬ,,株式会社,大阪府,豊中市,少路１丁目１番８号,,27,203,5600004,,,2023-08-01,合併による解散等,1120901028399,令和５年８月１日大阪府豊中市少路一丁目１番８号株式会社Ｒ＆Ａホールディングス（1120901028399）に合併し解散,2015-10-05,1,,,,,アールエル,0
2487,8180002054944,登記記録の閉鎖等,0,2023-08-14,2023-08-03,有限会社西脇設計室,,有限会社,愛知県,名古屋市瑞穂区,白砂町２丁目４６番地の２,,23,108,4670056,,,2023-08-03,清算の結了等,,,2015-10-05,1,,,,,ニシワキセッケイシツ,0
2492,8180302018153,登記記録の閉鎖等,0,2023-08-14,2023-08-01,有限会社カラオケ情報誌エース,,有限会社,愛知県,知立市,長田３丁目３２番地３（２Ｆ）,,23,225,4720035,,,2023-08-01,合併による解散等,1180301033754,令和５年８月１日愛知県知立市長田三丁目３２番地３（２Ｆ）株式会社カラオケエース（1180301033754）に合併し解散,2015-10-05,1,,,,,カラオケジョウホウシエース,0
2495,8200002008311,登記記録の閉鎖等,0,2023-08-14,2023-08-08,有限会社丸吉工業,,有限会社,岐阜県,各務原市,上中屋町１丁目１６番地,,21,213,5040926,,,2023-08-08,清算の結了等,,,2015-10-05,1,,,,,マルヨシコウギョウ,0
2504,8240001012541,登記記録の閉鎖等,0,2023-08-14,2023-08-01,株式会社築地,,株式会社,広島県,広島市南区,出島１丁目１６番３号,,34,103,7340013,,,2023-08-01,合併による解散等,6240001008459,令和５年８月１日広島市南区出島一丁目１６番３号株式会社日経不動産（6240001008459）に合併し解散,2015-10-05,1,,,,,ツキジ,0
2507,8240003005048,登記記録の閉鎖等,0,2023-08-14,2023-08-08,合同会社アセットオペレーション,,合同会社,広島県,広島市西区,横川町２丁目９－１,,34,104,7330011,,,2023-08-08,清算の結了等,,,2021-04-05,1,,,,,アセットオペレーション,0
2550,8350005000119,登記記録の閉鎖等,0,2023-08-14,2023-08-01,公益財団法人宮崎県青果物資金協会,,その他の設立登記法人,宮崎県,宮崎市,霧島１丁目１番地１,,45,201,8800032,,,2023-08-01,合併による解散等,9350005000019,令和５年８月１日宮崎市霧島一丁目１番地１公益社団法人宮崎県青果物協会（9350005000019）に合併し解散,2015-10-05,1,,,,,ミヤザキケンセイカブツシキンキョウカイ,0
2575,8470002004135,登記記録の閉鎖等,0,2023-08-14,2023-08-07,有限会社高松三和メーター,,有限会社,香川県,高松市,郷東町５番地の１,,37,201,7618031,,,2023-08-07,清算の結了等,,,2015-10-05,1,,,,,タカマツサンワメーター,0
2576,8480001009142,登記記録の閉鎖等,0,2023-08-14,2023-08-10,株式会社マルタケ,,株式会社,徳島県,徳島市,安宅２丁目５番５,,36,201,7700863,,,2023-08-10,清算の結了等,,,2015-10-05,1,,,,,マルタケ,0
2589,9010001172531,登記記録の閉鎖等,0,2023-08-14,2023-08-02,株式会社ベル・ウエルス,,株式会社,東京都,千代田区,九段南２丁目４番１１号,,13,101,1020074,,,2023-08-02,清算の結了等,,,2015-12-25,1,,,,,ベルウエルス,0
2592,9010001215843,登記記録の閉鎖等,0,2023-08-14,2023-08-01,ＲＥＦＩＮＥ株式会社,,株式会社,東京都,中央区,日本橋蛎殻町１丁目１９番１号,,13,102,1030014,,,2023-08-01,清算の結了等,,,2021-02-18,1,,,,,リファイン,0
2600,9010002000864,登記記録の閉鎖等,0,2023-08-14,2023-08-01,有限会社エイセンビル,,有限会社,東京都,文京区,春日２丁目１４番１０－１０１号,,13,105,1120003,,,2023-08-01,合併による解散等,4010002000869,令和５年８月１日東京都文京区春日二丁目１４番１０－１０１号株式会社エイセンハウス（4010002000869）に合併し解散,2015-10-05,1,,,,,エイセンビル,0
2612,9010401171372,登記記録の閉鎖等,0,2023-08-14,2023-07-20,ｔｈｅ　Ａｑｕａ株式会社,,株式会社,東京都,港区,高輪２丁目１番９－２０５号,,13,103,1080074,,,2023-07-20,清算の結了等,,,2022-12-28,1,,,,,アクア,0
2613,9010401173253,登記記録の閉鎖等,0,2023-08-14,2023-07-18,Ｎａｖｙ株式会社,,株式会社,東京都,港区,赤坂９丁目４番１号パークコート赤坂檜町ザタワー４００３号,,13,103,1070052,,,2023-07-18,清算の結了等,,,2023-03-23,1,,,,,ネイビー,0
2632,9010702004421,登記記録の閉鎖等,0,2023-08-14,2023-08-08,有限会社鈴真工業,,有限会社,東京都,品川区,平塚３丁目１０番１０号,,13,109,1420051,,,2023-08-08,清算の結了等,,,2015-10-05,1,,,,,スズシンコウギョウ,0
2636,9010802018874,登記記録の閉鎖等,0,2023-08-14,2023-08-04,有限会社都東南商事,,有限会社,東京都,大田区,大森北１丁目３番７号,,13,111,1430016,,,2023-08-04,清算の結了等,,,2015-10-05,1,,,,,,0
2660,9011301021584,登記記録の閉鎖等,0,2023-08-14,2023-07-18,ｓａｆｅｒａｙ　Ｊａｐａｎ株式会社,,株式会社,東京都,港区,虎ノ門５丁目１番５号,,13,103,1050001,,,2023-07-18,清算の結了等,,,2015-10-05,1,,,,,セーフレイジャパン,0
2666,9011701018016,登記記録の閉鎖等,0,2023-08-14,2023-08-09,株式会社Ｋ．Ｉ．Ｔ,,株式会社,東京都,江戸川区,一之江１丁目１３番７号,,13,123,1320024,,,2023-08-09,清算の結了等,,,2015-10-05,1,,,,,ケイアイティー,0
2682,9013303004518,登記記録の閉鎖等,0,2023-08-14,2023-08-02,株式会社ＡＩＤＥＮＴ,,株式会社,東京都,千代田区,平河町１丁目６番１５号ＵＳビル８Ｆ,,13,101,1020093,,,2023-08-02,清算の結了等,,,2019-02-26,1,,,,,アイデント,0
2686,9020001075816,登記記録の閉鎖等,0,2023-08-14,2023-07-31,八州興業株式会社,,株式会社,神奈川県,川崎市川崎区,中瀬２丁目２番１号,,14,131,2100818,,,2023-07-31,清算の結了等,,,2015-10-05,1,,,,,ヤシマコウギョウ,0
2687,9020001087092,登記記録の閉鎖等,0,2023-08-14,2023-07-31,株式会社Ｂｉｇ　Ｆｏｒｅｓｔ,,株式会社,神奈川県,横浜市鶴見区,鶴見中央３丁目２２番２２－１０２号,,14,101,2300051,,,2023-07-31,清算の結了等,,,2015-10-05,1,,,,,ビッグフォレスト,0
2714,9030001064314,登記記録の閉鎖等,0,2023-08-14,2023-07-20,立花工業株式会社,,株式会社,埼玉県,越谷市,東大沢４丁目６番地２８,,11,222,3430022,,,2023-07-20,清算の結了等,,,2015-10-05,1,,,,,タチバナコウギョウ,0
2734,9030005020511,登記記録の閉鎖等,0,2023-08-14,2023-07-19,ＮＰＯ法人Ｂｒｅｍｅｎ,,その他の設立登記法人,埼玉県,越谷市,東越谷９丁目４番６,,11,222,3430023,,,2023-07-19,清算の結了等,,,2021-09-13,1,,,,,ブレーメン,0
2745,9050002030370,登記記録の閉鎖等,0,2023-08-14,2023-08-04,有限会社ベルク,,有限会社,茨城県,日立市,鹿島町２丁目１６番１２号,,08,202,3170071,,,2023-08-04,清算の結了等,,,2015-10-05,1,,,,,ベルク,0
2750,9060001021519,登記記録の閉鎖等,0,2023-08-14,2023-08-01,株式会社大日ミツワ,,株式会社,栃木県,佐野市,葛生東２丁目４‐６,,09,204,3270501,,,2023-08-01,合併による解散等,5060001021670,令和５年８月１日栃木県佐野市植野町１９５３番地１株式会社ミツワハウステック（5060001021670）に合併し解散,2015-10-05,1,,,,,ダイニチミツワ,0
2754,9070001019768,登記記録の閉鎖等,0,2023-08-14,2023-08-08,株式会社トーシン,,株式会社,群馬県,太田市,龍舞町５０４３番地,,10,205,3730806,,,2023-08-08,清算の結了等,,,2015-10-05,1,,,,,トーシン,0
2758,9080102019906,登記記録の閉鎖等,0,2023-08-14,2023-08-09,有限会社新栄工業,,有限会社,静岡県,伊東市,玖須美元和田７２７番地の８１５,,22,208,4140045,,,2023-08-09,清算の結了等,,,2015-10-05,1,,,,,シンエイコウギョウ,0
2759,9100001013676,登記記録の閉鎖等,0,2023-08-14,2023-08-04,株式会社富屋,,株式会社,長野県,松本市,巾上５番３２号,,20,202,3900817,,,2023-08-04,清算の結了等,,,2015-10-05,1,,,,,トミヤ,0
2766,9120001087025,登記記録の閉鎖等,0,2023-08-14,2023-08-08,野口商事株式会社,,株式会社,大阪府,大阪市中央区,谷町５丁目４－１－６０１,,27,128,5400012,,,2023-08-08,清算の結了等,,,2015-10-05,1,,,,,ノグチショウジ,0
2786,9130001047705,登記記録の閉鎖等,0,2023-08-14,2023-08-08,Ａｄｖａｎｃｅｄ　Ｉｍｐｌａｎｔ　Ａｇｅｎｃｙ株式会社,,株式会社,大阪府,大阪市中央区,船越町１丁目１番１－３０１,,27,128,5400036,,,2023-08-08,清算の結了等,,,2015-10-05,1,,,,,アドバンスドインプラントエージェンシー,0
2795,9140001123067,登記記録の閉鎖等,0,2023-08-14,2023-08-04,株式会社Ｂｉｔｅｚ,,株式会社,兵庫県,神戸市須磨区,妙法寺字下池ノ尻１２１２－１,,28,107,6540121,,,2023-08-04,清算の結了等,,,2021-09-16,1,,,,,バイツ,0
2833,9240001004810,登記記録の閉鎖等,0,2023-08-14,2023-08-01,株式会社エステートツキジ,,株式会社,広島県,広島市南区,出島１丁目１６番３号,,34,103,7340013,,,2023-08-01,合併による解散等,6240001008459,令和５年８月１日広島市南区出島一丁目１６番３号株式会社日経不動産（6240001008459）に合併し解散,2015-10-05,1,,,,,エステートツキジ,0
2835,9240001055639,登記記録の閉鎖等,0,2023-08-14,2023-08-04,株式会社リベルテエステート,,株式会社,広島県,広島市南区,大州５丁目１番３０号,,34,103,7320802,,,2023-08-04,合併による解散等,9240001048865,令和５年８月４日広島市南区大州五丁目１番３０号株式会社リベルテ（9240001048865）に合併し解散,2020-02-13,1,,,,,リベルテエステート,0
2849,9260002026570,登記記録の閉鎖等,0,2023-08-14,2023-08-03,昭和工業有限会社,,有限会社,岡山県,浅口市,金光町下竹４２５番地,,33,216,7190102,,,2023-08-03,清算の結了等,,,2015-10-05,1,,,,,ショウワコウギョウ,0
2864,9310002007417,登記記録の閉鎖等,0,2023-08-14,2023-08-08,有限会社やまぐち企画,,有限会社,長崎県,長崎市,上黒崎町６６５番地１,,42,201,8512324,,,2023-08-08,清算の結了等,,,2015-10-05,1,,,,,ヤマグチキカク,0
2867,9320005006712,登記記録の閉鎖等,0,2023-08-14,2023-08-07,浄光寺,,その他の設立登記法人,大分県,日田市,天瀬町赤岩４０７番地,,44,204,8794202,,,2023-08-07,清算の結了等,,,2015-10-05,1,,,,,ジョウコウジ,0
2869,9330002028155,登記記録の閉鎖等,0,2023-08-14,2023-08-01,有限会社あすなろ薬局,,有限会社,熊本県,上天草市,龍ヶ岳町高戸２０９５番地５２,,43,212,8660202,,,2023-08-01,清算の結了等,,,2015-10-05,1,,,,,アスナロヤッキョク,0
2901,9420002009831,登記記録の閉鎖等,0,2023-08-14,2023-08-01,有限会社立花書店,,有限会社,青森県,八戸市,根城１丁目３０番１４号,,02,203,0391166,,,2023-08-01,清算の結了等,,,2015-10-05,1,,,,,タチバナショテン,0
