sequenceNumber,corporateNumber,process,correct,updateDate,changeDate,name,nameImageId,kind,prefectureName,cityName,streetNumber,addressImageId,prefectureCode,cityCode,postCode,addressOutside,addressOutsideImageId,closeDate,closeCause,successorCorporateNumber,changeCause,assignmentDate,latest,enName,enPrefectureName,enCityName,enAddressOutside,furigana,hihyoji
9,1010001235527,新規,0,2023-05-26,2023-05-26,株式会社サイテック,,株式会社,東京都,千代田区,神田三崎町２丁目１０－１１Ｐｅｇビル３Ｂ６,,13,101,1010061,,,,,,,2023-05-26,1,,,,,サイテック,0
10,1010001235568,新規,0,2023-05-26,2023-05-26,株式会社Ａｓｃｈｇｒａｕ,,株式会社,東京都,中央区,銀座１丁目１２番４号Ｎ＆ＥＢＬＤ．６Ｆ,,13,102,1040061,,,,,,,2023-05-26,1,,,,,アッシュグラウ,0
13,1010101015655,新規,0,2023-05-26,2023-05-26,株式会社Ｌｉｇｈｔ,,株式会社,東京都,八王子市,久保山町１丁目２３－８グリーンヒルアイＣ号,,13,201,1920023,,,,,,,2023-05-26,1,,,,,ライト,0
18,1010401174572,新規,0,2023-05-26,2023-05-26,あるところに株式会社,,株式会社,東京都,港区,浜松町２丁目２番１５号浜松町ダイヤビル２Ｆ,,13,103,1050013,,,,,,,2023-05-26,1,,,,,アルトコロニ,0
20,1010403030121,新規,0,2023-05-26,2023-05-26,ジャパンインフラ３５号合同会社,,合同会社,東京都,港区,元赤坂１丁目１番７号,,13,103,1070051,,,,,,,2023-05-26,1,,,,,ジャパンインフラサンジュウゴゴウ,0
21,1010501050500,新規,0,2023-05-26,2023-05-26,株式会社スター,,株式会社,東京都,台東区,浅草橋１丁目８番６号,,13,106,1110053,,,,,,,2023-05-26,1,,,,,スター,0
22,1010501050509,新規,0,2023-05-26,2023-05-26,株式会社古畑,,株式会社,東京都,台東区,入谷１丁目６番６－３０３号,,13,106,1100013,,,,,,,2023-05-26,1,,,,,フルハタ,0
23,1010503007011,新規,0,2023-05-26,2023-05-26,合同会社ジジョカンパニー,,合同会社,東京都,台東区,池之端１丁目１番１号,,13,106,1100008,,,,,,,2023-05-26,1,,,,,ジジョカンパニー,0
32,1011001154659,新規,0,2023-05-26,2023-05-26,佐藤章事務所株式会社,,株式会社,東京都,目黒区,柿の木坂１丁目２５番３号,,13,110,1520022,,,,,,,2023-05-26,1,,,,,,0
33,1011101103004,新規,0,2023-05-26,2023-05-26,株式会社ｆｕｎｃｔｉｏｎ,,株式会社,東京都,新宿区,市谷八幡町１１－１市ヶ谷八幡町ビル４階,,13,104,1620844,,,,,,,2023-05-26,1,,,,,ファンクション,0
34,1011101103029,新規,0,2023-05-26,2023-05-26,株式会社グロリア,,株式会社,東京都,新宿区,四谷坂町１２番１７－２０１号,,13,104,1600002,,,,,,,2023-05-26,1,,,,,グロリア,0
35,1011103013085,新規,0,2023-05-26,2023-05-26,合同会社ニカ,,合同会社,東京都,新宿区,百人町１丁目２番９尚美ビルＩＩ３０１,00130633,13,104,1690073,,,,,,,2023-05-26,1,,,,,ニカ,0
37,1011203004091,新規,0,2023-05-26,2023-05-26,合同会社デルタインターナショナル,,合同会社,東京都,中野区,東中野５丁目２３－１２－２０２号,,13,114,1640003,,,,,,,2023-05-26,1,,,,,デルタインターナショナル,0
38,1011205002556,新規,0,2023-05-26,2023-05-26,特定非営利活動法人東京アグリカレッジ,,その他の設立登記法人,東京都,中野区,新井２丁目１番１６号飯田ビル３０１,,13,114,1650026,,,,,,,2023-05-26,1,,,,,トウキョウアグリカレッジ,0
39,1011301028736,新規,0,2023-05-26,2023-05-26,株式会社エンプラス,,株式会社,東京都,杉並区,今川２丁目２４番１号カリフール今川１棟３０７,,13,115,1670035,,,,,,,2023-05-26,1,,,,,エンプラス,0
42,1011403004008,新規,0,2023-05-26,2023-05-26,ＧＡＩＮ合同会社,,合同会社,東京都,板橋区,成増３丁目４７番５号カガミハウス、１０２,,13,119,1750094,,,,,,,2023-05-26,1,,,,,ゲイン,0
44,1011505002553,新規,0,2023-05-26,2023-05-26,一般財団法人ヨコオ育英会,,その他の設立登記法人,東京都,北区,滝野川７丁目５番１１号,,13,117,1140023,,,,,,,2023-05-26,1,,,,,ヨコオイクエイカイ,0
45,1011601026844,新規,0,2023-05-26,2023-05-26,株式会社サンライズジャパン,,株式会社,東京都,練馬区,大泉町２丁目９番２３号,,13,120,1780062,,,,,,,2023-05-26,1,,,,,サンライズジャパン,0
46,1011701026265,新規,0,2023-05-26,2023-05-26,株式会社ＳＰＬＣ,,株式会社,東京都,江戸川区,南小岩７丁目１４番４号,,13,123,1330056,,,,,,,2023-05-26,1,,,,,エスピーエルシー,0
51,1011801042451,新規,0,2023-05-26,2023-05-26,株式会社ｉＮｎｋ,,株式会社,東京都,足立区,綾瀬４丁目１６番６号,,13,121,1200005,,,,,,,2023-05-26,1,,,,,インク,0
57,1012801022377,新規,0,2023-05-26,2023-05-26,株式会社ＲＡＺＵ,,株式会社,東京都,立川市,高松町２丁目３番１９号ＧＡＲＡＧＥ・Ｃ・Ｎｏ．４,,13,202,1900011,,,,,,,2023-05-26,1,,,,,ラズ,0
58,1013101009180,新規,0,2023-05-26,2023-05-26,株式会社ＤＭＦシステム,,株式会社,東京都,青梅市,藤橋３丁目１４番地の３６,,13,205,1980022,,,,,,,2023-05-26,1,,,,,ディエムエフシステム,0
68,1020001151764,新規,0,2023-05-26,2023-05-26,株式会社クラルテ住宅企画,,株式会社,神奈川県,横浜市中区,尾上町３丁目４３番地横浜パークサイド関内７Ｆ,,14,104,2310015,,,,,,,2023-05-26,1,,,,,クラルテジュウタクキカク,0
69,1020001151772,新規,0,2023-05-26,2023-05-26,株式会社Ｐｅｎｇｕｉｎ　Ａｄｖｅｎｔｕｒｅ,,株式会社,神奈川県,横浜市戸塚区,矢部町１８１５－１７４,,14,110,2440002,,,,,,,2023-05-26,1,,,,,ペンギンアドベンチャー,0
76,1021005012820,新規,0,2023-05-26,2023-05-26,特定非営利活動法人ユメイク．,,その他の設立登記法人,神奈川県,相模原市緑区,橋本６丁目３２番５号シャーメゾン橋本２０８,,14,151,2520143,,,,,,,2023-05-26,1,,,,,ユメイク,0
87,1040001128521,新規,0,2023-05-26,2023-05-26,株式会社双建,,株式会社,千葉県,柏市,旭町１丁目１４番２５号,,12,217,2770852,,,,,,,2023-05-26,1,,,,,ソウケン,0
93,1040003022680,新規,0,2023-05-26,2023-05-26,合同会社嬉,,合同会社,千葉県,浦安市,当代島１丁目１１番１２－３０２号,,12,227,2790001,,,,,,,2023-05-26,1,,,,,ウレシイ,0
95,1050003007532,新規,0,2023-05-26,2023-05-26,合同会社Ｒｅ,,合同会社,茨城県,那珂郡東海村,大字舟石川２９５グリーンハイツイシカワＤ２０２,,08,341,3191111,,,,,,,2023-05-26,1,,,,,アールイー,0
107,1110003005059,新規,0,2023-05-26,2023-05-26,合同会社うちだかなもの屋,,合同会社,新潟県,南魚沼市,余川１３８４番地１,,15,226,9496681,,,,,,,2023-05-26,1,,,,,ウチダカナモノヤ,0
114,1120001255200,新規,0,2023-05-26,2023-05-26,株式会社大正産業,,株式会社,大阪府,大阪市中央区,日本橋２丁目１番２２号,,27,128,5420073,,,,,,,2023-05-26,1,,,,,タイショウサンギョウ,0
115,1120001255217,新規,0,2023-05-26,2023-05-26,株式会社Ｔｅｍｏｍｏ,,株式会社,大阪府,大阪市西成区,天下茶屋３丁目２２番２号,,27,122,5570014,,,,,,,2023-05-26,1,,,,,テモモ,0
116,1120001255225,新規,0,2023-05-26,2023-05-26,プラン株式会社,,株式会社,大阪府,大阪市城東区,東中浜７丁目２番１７号,,27,118,5360023,,,,,,,2023-05-26,1,,,,,プラン,0
117,1120001255233,新規,0,2023-05-26,2023-05-26,株式会社Ｍａｙ　ｂａｃｈ,,株式会社,大阪府,大阪市阿倍野区,北畠３丁目３番３号,,27,119,5450035,,,,,,,2023-05-26,1,,,,,マイバッハ,0
118,1120003024157,新規,0,2023-05-26,2023-05-26,サンテイ合同会社,,合同会社,大阪府,大阪市東成区,大今里南１丁目１６番２０号,,27,115,5370013,,,,,,,2023-05-26,1,,,,,サンテイ,0
121,1122001037017,新規,0,2023-05-26,2023-05-26,株式会社ｅｌａｎ,,株式会社,大阪府,八尾市,桜ヶ丘１丁目９４番地５階,,27,212,5810869,,,,,,,2023-05-26,1,,,,,エラン,0
130,1140001130277,新規,0,2023-05-26,2023-05-26,株式会社Ｏｌｉｖｅ　Ｈｏｕｓｅ,,株式会社,兵庫県,宝塚市,中山台２丁目２０番３号,,28,214,6650876,,,,,,,2023-05-26,1,,,,,オリーブハウス,0
131,1140001130293,新規,0,2023-05-26,2023-05-26,株式会社ａｉｌｅ,,株式会社,兵庫県,尼崎市,南七松町２丁目８番４号,,28,202,6600053,,,,,,,2023-05-26,1,,,,,エール,0
132,1140001130302,新規,0,2023-05-26,2023-05-26,株式会社ＥＭＩ不動産,,株式会社,兵庫県,尼崎市,立花町２丁目６番２３号Ｋハイツ立花北１Ｆ,,28,202,6610025,,,,,,,2023-05-26,1,,,,,エミフドウサン,0
133,1140003019139,新規,0,2023-05-26,2023-05-26,合同会社Ｓａｌｅｓ．ｃａｒｔｅｌ,,合同会社,兵庫県,尼崎市,稲葉荘２丁目２３番１号ルネ武庫川６１６号,,28,202,6600064,,,,,,,2023-05-26,1,,,,,セールスカルテル,0
136,1170001017620,新規,0,2023-05-26,2023-05-26,株式会社玉華,,株式会社,和歌山県,和歌山市,島橋東ノ丁１番４４号,,30,201,6408413,,,,,,,2023-05-26,1,,,,,ギョクカ,0
142,1180001156450,新規,0,2023-05-26,2023-05-26,株式会社ＴＭ　ＨＯＬＤＩＮＧＳ,,株式会社,愛知県,名古屋市港区,中川本町５丁目１番地の１６,,23,111,4550051,,,,,,,2023-05-26,1,,,,,ティーエムホールディングス,0
143,1180001156459,新規,0,2023-05-26,2023-05-26,株式会社ＴｒｙＡｎｄＦｏｒｔｈ,,株式会社,愛知県,名古屋市西区,名駅２丁目３４番１７号セントラル名古屋１１０１号,,23,104,4510045,,,,,,,2023-05-26,1,,,,,トライアンドフォース,0
147,1180303005719,新規,0,2023-05-26,2023-05-26,合同会社ＫＡＺＵＹＵＫＩ,,合同会社,愛知県,豊川市,御油町今斉５０番地の３,,23,207,4410211,,,,,,,2023-05-26,1,,,,,カズユキ,0
148,1200001041344,新規,0,2023-05-26,2023-05-26,株式会社ＶＧ,,株式会社,岐阜県,岐阜市,前一色１丁目１３番３,,21,201,5008232,,,,,,,2023-05-26,1,,,,,ブイジー,0
150,1210005010096,新規,0,2023-05-26,2023-05-26,一般社団法人稲津町活性化会議,,その他の設立登記法人,福井県,福井市,稲津町第２９号２６番地,,18,201,9102177,,,,,,,2023-05-26,1,,,,,イナズチョウカッセイカカイギ,0
161,1290001101610,新規,0,2023-05-26,2023-05-26,株式会社ＯＩＳＡ,,株式会社,福岡県,福岡市博多区,比恵町１‐１８東カン第二ビル４０７,,40,132,8120014,,,,,,,2023-05-26,1,,,,,オイサ,0
162,1290001101635,新規,0,2023-05-26,2023-05-26,株式会社ＳＯＲ,,株式会社,福岡県,福岡市東区,香椎浜４丁目２番２－１０３号,,40,131,8130016,,,,,,,2023-05-26,1,,,,,ソア,0
168,1290801029555,新規,0,2023-05-26,2023-05-26,株式会社ＬＥＡＬＥ,,株式会社,福岡県,北九州市小倉北区,竪林町２１番１７号,,40,106,8030855,,,,,,,2023-05-26,1,,,,,レアーレ,0
172,1340001025606,新規,0,2023-05-26,2023-05-26,株式会社ＯＶＥＲＡＬＬＳ,,株式会社,鹿児島県,鹿児島市,小野４丁目１番１６号,,46,201,8900021,,,,,,,2023-05-26,1,,,,,オーバーオール,0
187,1430001089187,新規,0,2023-05-26,2023-05-26,株式会社せんびき,,株式会社,北海道,北広島市,広葉町４丁目１番地１,,01,234,0611134,,,,,,,2023-05-26,1,,,,,センビキ,0
188,1430001089204,新規,0,2023-05-26,2023-05-26,株式会社じゃぱねすくラボ,,株式会社,北海道,札幌市北区,屯田三条２丁目８－２１,,01,102,0020853,,,,,,,2023-05-26,1,,,,,ジャパネスクラボ,0
192,1430003015083,新規,0,2023-05-26,2023-05-26,ライブインブルーベリーヒル合同会社,,合同会社,北海道,勇払郡厚真町,字本郷２５２番地の７ヤングハウス昭栄１０５,,01,581,0591605,,,,,,,2023-05-26,1,,,,,ライブインブルーベリーヒル,0
196,1500001024946,新規,0,2023-05-26,2023-05-26,株式会社一龍工業,,株式会社,愛媛県,今治市,杣田甲２０番地４,,38,202,7992114,,,,,,,2023-05-26,1,,,,,イチリュウコウギョウ,0
202,1700150116524,新規,0,2023-05-26,2023-05-26,ＪＡＰＡＮ　ＴＲＡＶＥＬ　ＢＵＲＥＡＵ　ＭＡＬＡＹＳＩＡ　ＳＤＮ．ＢＨＤ．,,外国会社等,東京都,品川区,東品川２丁目３－１１,,13,109,1400002,マレーシア国クアラルンプール市ジャランインビ，アモダ１６階（区画１６．０５―１６．０７）,,,,,,2023-05-26,1,,,,,ジヤパントラベルビユーローマレーシアエスデイーエヌビーエイチデイー,0
218,2010103002147,新規,0,2023-05-26,2023-05-26,合同会社ユギマネジメント,,合同会社,東京都,八王子市,別所１丁目４３番地４４,,13,201,1920363,,,,,,,2023-05-26,1,,,,,ユギマネジメント,0
221,2010401174605,新規,0,2023-05-26,2023-05-26,株式会社ＲＥＡＬＩＺＥ,,株式会社,東京都,港区,高輪２丁目５番１２号,,13,103,1080074,,,,,,,2023-05-26,1,,,,,リアライズ,0
223,2010403030120,新規,0,2023-05-26,2023-05-26,ジャパンインフラ３４号合同会社,,合同会社,東京都,港区,元赤坂１丁目１番７号,,13,103,1070051,,,,,,,2023-05-26,1,,,,,ジャパンインフラサンジュウヨンゴウ,0
224,2010403030153,新規,0,2023-05-26,2023-05-26,Ｂｌｕｅブリッジ合同会社,,合同会社,東京都,港区,赤坂９丁目７番１号,,13,103,1070052,,,,,,,2023-05-26,1,,,,,ブルーブリッジ,0
226,2010405022140,新規,0,2023-05-26,2023-05-26,ジャパンインフラホールディングス３５号一般社団法人,,その他の設立登記法人,東京都,港区,元赤坂１丁目１番７号,,13,103,1070051,,,,,,,2023-05-26,1,,,,,ジャパンインフラホールディングスサンジュウゴゴウ,0
228,2010503007010,新規,0,2023-05-26,2023-05-26,合同会社シスアドリフィル,,合同会社,東京都,台東区,根岸３丁目２２番３号,,13,106,1100003,,,,,,,2023-05-26,1,,,,,シスアドリフィル,0
244,2010903008194,新規,0,2023-05-26,2023-05-26,合同会社プルミエ,,合同会社,東京都,世田谷区,成城５丁目９番１０号,,13,112,1570066,,,,,,,2023-05-26,1,,,,,プルミエ,0
248,2011003016872,新規,0,2023-05-26,2023-05-26,ｅｓｐｌａｎａｄｅ合同会社,,合同会社,東京都,目黒区,上目黒４丁目１７－２２,,13,110,1530051,,,,,,,2023-05-26,1,,,,,エスプラナード,0
258,2011101102855,新規,0,2023-05-26,2023-05-26,株式会社Ｊ‐Ｌｉｖｉｎｇ　Ｃｏｎｓｕｌｔａｎｔｓ,,株式会社,東京都,新宿区,百人町１丁目２３番２２号４０７,,13,104,1690073,,,,,,,2023-05-26,1,,,,,ジェイリビングコンサルタンツ,0
259,2011105010666,新規,0,2023-05-26,2023-05-26,一般社団法人ベンチャー稲門会,,その他の設立登記法人,東京都,新宿区,西新宿３丁目３番１３号西新宿水間ビル６階,,13,104,1600023,,,,,,,2023-05-26,1,,,,,ベンチャートウモンカイ,0
261,2011301028735,新規,0,2023-05-26,2023-05-26,株式会社ハロ,,株式会社,東京都,杉並区,荻窪２丁目２４番２号,,13,115,1670051,,,,,,,2023-05-26,1,,,,,ハロ,0
262,2011303004767,新規,0,2023-05-26,2023-05-26,サードフロア合同会社,,合同会社,東京都,杉並区,下井草４丁目３３番２号,,13,115,1670022,,,,,,,2023-05-26,1,,,,,サードフロア,0
265,2011601026843,新規,0,2023-05-26,2023-05-26,株式会社エイチ・アンド・ティ,,株式会社,東京都,練馬区,田柄４丁目４番１８号,,13,120,1790073,,,,,,,2023-05-26,1,,,,,エイチアンドティ,0
267,2011801042475,新規,0,2023-05-26,2023-05-26,株式会社インフロント,,株式会社,東京都,葛飾区,東立石１丁目２４番１１－２０１号,,13,122,1240013,,,,,,,2023-05-26,1,,,,,インフロント,0
270,2012801022384,新規,0,2023-05-26,2023-05-26,株式会社リーズ,,株式会社,東京都,日野市,落川１０００－３エルヴァス１０３,,13,212,1910034,,,,,,,2023-05-26,1,,,,,リーズ,0
275,2013301050818,新規,0,2023-05-26,2023-05-26,株式会社ＣＲＥＡＴＥ,,株式会社,東京都,豊島区,東池袋１丁目３０－１４,,13,116,1700013,,,,,,,2023-05-26,1,,,,,クリエイト,0
284,2020001151714,新規,0,2023-05-26,2023-05-26,恒林日本能源株式会社,,株式会社,神奈川県,横浜市港北区,新横浜３丁目１７－６,,14,109,2220033,,,,,,,2023-05-26,1,,,,,イーグルウッドジャパンエナジー,0
285,2020001151747,新規,0,2023-05-26,2023-05-26,株式会社アルゴジャパン,,株式会社,神奈川県,横浜市港南区,東永谷２丁目１０番１３号,,14,111,2330011,,,,,,,2023-05-26,1,,,,,アルゴジャパン,0
286,2020001151771,新規,0,2023-05-26,2023-05-26,株式会社宮城,,株式会社,神奈川県,川崎市中原区,井田杉山町２５番２号,,14,133,2110036,,,,,,,2023-05-26,1,,,,,ミヤギ,0
290,2021001079169,新規,0,2023-05-26,2023-05-26,Ｍ．Ａｌｉ．Ｊａｐａｎ株式会社,,株式会社,神奈川県,厚木市,愛名９４８番地９－２０２,,14,212,2430038,,,,,,,2023-05-26,1,,,,,エムアリジャパン,0
292,2021003013118,新規,0,2023-05-26,2023-05-26,合同会社ＢＳＰ,,合同会社,神奈川県,小田原市,国府津３丁目１５－２２,,14,206,2560812,,,,,,,2023-05-26,1,,,,,ビーエスピー,0
296,2030001153973,新規,0,2023-05-26,2023-05-26,エフ・ジ株式会社,,株式会社,埼玉県,熊谷市,妻沼台１８７番地１,,11,202,3600241,,,,,,,2023-05-26,1,,,,,エフジ,0
297,2030001154055,新規,0,2023-05-26,2023-05-26,株式会社石川塗装,,株式会社,埼玉県,三郷市,彦成３丁目１１番１１－１１０４号,,11,237,3410003,,,,,,,2023-05-26,1,,,,,イシカワトソウ,0
298,2030001154071,新規,0,2023-05-26,2023-05-26,株式会社ＥＶＥＲ　ＦＲＥＥＤＯＭｓ,,株式会社,埼玉県,入間市,高倉２丁目３番４４号,,11,225,3580021,,,,,,,2023-05-26,1,,,,,エバーフリーダムス,0
304,2030003021807,新規,0,2023-05-26,2023-05-26,シェノン合同会社,,合同会社,埼玉県,戸田市,川岸３丁目４番２２－６０１号,,11,224,3350015,,,,,,,2023-05-26,1,,,,,シェノン,0
310,2040001128520,新規,0,2023-05-26,2023-05-26,株式会社Ｔ＆Ｄグループ,,株式会社,千葉県,松戸市,秋山１丁目１６番地の４－１０２号,,12,207,2702223,,,,,,,2023-05-26,1,,,,,ティーアンドディーグループ,0
311,2040001128553,新規,0,2023-05-26,2023-05-26,新＿産業株式会社,00130634,株式会社,千葉県,東金市,三ケ尻字木戸前５８番１４,,12,213,2830832,,,,,,,2023-05-26,1,,,,,シンエンサンギョウ,0
317,2050003007531,新規,0,2023-05-26,2023-05-26,合同会社エムエム,,合同会社,茨城県,水戸市,見川町２４２２番地の６,,08,201,3100913,,,,,,,2023-05-26,1,,,,,,0
321,2070003004956,新規,0,2023-05-26,2023-05-26,合同会社八社協業,,合同会社,群馬県,邑楽郡板倉町,大字岩田２４１７番地,,10,521,3740133,,,,,,,2023-05-26,1,,,,,ハッシャキョウギョウ,0
329,2100001036444,新規,0,2023-05-26,2023-05-26,株式会社ガラアグリ,,株式会社,長野県,上田市,芳田４４０番地１,,20,203,3860151,,,,,,,2023-05-26,1,,,,,ガラアグリ,0
331,2110005016953,新規,0,2023-05-26,2023-05-26,一般社団法人ＭＡＫＩＤＳ,,その他の設立登記法人,新潟県,新潟市西蒲区,角田浜１２９３,,15,108,9530011,,,,,,,2023-05-26,1,,,,,マキッズ,0
337,2120001255117,新規,0,2023-05-26,2023-05-26,傾城奧裕一心株式会社,,株式会社,大阪府,大阪市大正区,三軒家西３丁目４番１６号中山ビル３０３Ａ,,27,108,5510001,,,,,,,2023-05-26,1,,,,,ケイジョオクユイッシン,0
338,2120001255125,新規,0,2023-05-26,2023-05-26,万達ＪＡＰＡＮ株式会社,,株式会社,大阪府,大阪市生野区,小路１丁目２８番１７号,,27,116,5440002,,,,,,,2023-05-26,1,,,,,マンタツジャパン,0
339,2120001255199,新規,0,2023-05-26,2023-05-26,株式会社マルス,,株式会社,大阪府,大阪市淀川区,十三元今里２丁目１番１３号,,27,123,5320028,,,,,,,2023-05-26,1,,,,,マルス,0
340,2120001255208,新規,0,2023-05-26,2023-05-26,ポッシブル株式会社,,株式会社,大阪府,大阪市北区,万歳町１番１１号４Ｆ,,27,127,5300028,,,,,,,2023-05-26,1,,,,,ポッシブル,0
341,2120001255224,新規,0,2023-05-26,2023-05-26,雲の東株式会社,,株式会社,大阪府,大阪市生野区,新今里３丁目９番１５号３Ｃ号室,,27,116,5440001,,,,,,,2023-05-26,1,,,,,クモノヒガシ,0
342,2120001255232,新規,0,2023-05-26,2023-05-26,ＭＪ株式会社,,株式会社,大阪府,大阪市旭区,赤川１丁目５番１３号天理マンション２０６,,27,117,5350005,,,,,,,2023-05-26,1,,,,,エムジェイ,0
343,2120001255257,新規,0,2023-05-26,2023-05-26,株式会社キャリアスピーク,,株式会社,大阪府,大阪市北区,天満橋３丁目３番５号天満インキュベーションラボ３０５,,27,127,5300042,,,,,,,2023-05-26,1,,,,,キャリアスピーク,0
345,2120003024156,新規,0,2023-05-26,2023-05-26,合同会社ＹＯＬＯ,,合同会社,大阪府,大阪市中央区,上町１丁目１番２２号,,27,128,5400005,,,,,,,2023-05-26,1,,,,,ヨーロー,0
346,2120005023643,新規,0,2023-05-26,2023-05-26,一般社団法人アンサンブル・レネット,,その他の設立登記法人,大阪府,大阪市天王寺区,北河堀町１０番８－１００１号,,27,109,5430053,,,,,,,2023-05-26,1,,,,,アンサンブルレネット,0
347,2120101067569,新規,0,2023-05-26,2023-05-26,Ｌ＆Ｚ　ＪＡＰＡＮ株式会社,,株式会社,大阪府,泉南市,鳴滝２丁目３番１９号２Ａ,,27,228,5900534,,,,,,,2023-05-26,1,,,,,エルアンドゼットジャパン,0
348,2120101067602,新規,0,2023-05-26,2023-05-26,株式会社難波屋,,株式会社,大阪府,泉大津市,東豊中町２丁目７番２号,,27,206,5950021,,,,,,,2023-05-26,1,,,,,ナンバヤ,0
353,2120905006466,新規,0,2023-05-26,2023-05-26,特定非営利活動法人ｐｌｕｓ１,,その他の設立登記法人,大阪府,豊中市,服部西町３丁目８番７号,,27,203,5610858,,,,,,,2023-05-26,1,,,,,プラスワン,0
365,2140001130292,新規,0,2023-05-26,2023-05-26,株式会社倭園芸,,株式会社,兵庫県,川西市,出在家町９番１６号Ｂ－１０５,,28,217,6660011,,,,,,,2023-05-26,1,,,,,ヤマトエンゲイ,0
366,2140001130301,新規,0,2023-05-26,2023-05-26,株式会社Ｂｅｉｎｇ,,株式会社,兵庫県,神戸市兵庫区,大開通１０丁目３番９号７０１,,28,105,6520803,,,,,,,2023-05-26,1,,,,,ビーイング,0
370,2160005011198,新規,0,2023-05-26,2023-05-26,一般社団法人ケアＳＮＡＰたかしま,,その他の設立登記法人,滋賀県,高島市,野田８８０番地８,,25,212,5201102,,,,,,,2023-05-26,1,,,,,ケアスナップタカシマ,0
375,2180001156375,新規,0,2023-05-26,2023-05-26,伯太工業株式会社,,株式会社,愛知県,名古屋市中村区,名駅３丁目３番２号,,23,105,4500002,,,,,,,2023-05-26,1,,,,,ハクタコウギョウ,0
376,2180001156474,新規,0,2023-05-26,2023-05-26,株式会社ｍｏｎｏ　ｌｉｎｋ,,株式会社,愛知県,名古屋市西区,枇杷島５丁目２－２４,,23,104,4510053,,,,,,,2023-05-26,1,,,,,モノリンク,0
377,2180001156482,新規,0,2023-05-26,2023-05-26,株式会社ＢＥＬＬＥ,,株式会社,愛知県,あま市,上萱津大門５３番地,,23,237,4901112,,,,,,,2023-05-26,1,,,,,ベル,0
386,2220001025419,新規,0,2023-05-26,2023-05-26,株式会社下村設備,,株式会社,石川県,河北郡内灘町,字ハマナス２丁目２２番地２,,17,365,9200268,,,,,,,2023-05-26,1,,,,,シモムラセツビ,0
387,2220001025427,新規,0,2023-05-26,2023-05-26,株式会社マネジメントシェア,,株式会社,石川県,野々市市,徳用３丁目１４５番地,,17,212,9218842,,,,,,,2023-05-26,1,,,,,マネジメントシェア,0
389,2240001061577,新規,0,2023-05-26,2023-05-26,株式会社二木,,株式会社,広島県,広島市中区,銀山町１５番１６－４０２号,,34,101,7300022,,,,,,,2023-05-26,1,,,,,ニキ,0
406,2290001101634,新規,0,2023-05-26,2023-05-26,農業法人くじゃく株式会社,,株式会社,福岡県,久留米市,北野町中１５６９番地,,40,203,8301113,,,,,,,2023-05-26,1,,,,,ノウギョウホウジンクジャク,0
407,2290001101642,新規,0,2023-05-26,2023-05-26,株式会社ＫＩＩＰ,,株式会社,福岡県,福岡市中央区,赤坂１丁目１４番２２号センチュリー赤坂門ビル８階,,40,133,8100042,,,,,,,2023-05-26,1,,,,,キープ,0
409,2290003013951,新規,0,2023-05-26,2023-05-26,ＪＥＳＨＡ合同会社,,合同会社,福岡県,福岡市南区,井尻４丁目３３番１０号,,40,134,8111302,,,,,,,2023-05-26,1,,,,,ゼサ,0
421,2360003012995,新規,0,2023-05-26,2023-05-26,合同会社能力開発,,合同会社,沖縄県,那覇市,おもろまち４丁目７番８号,,47,201,9000006,,,,,,,2023-05-26,1,,,,,ノウリョクカイハツ,0
438,2430001089228,新規,0,2023-05-26,2023-05-26,株式会社Ａｄｄ　Ｃｌｅａｎ,,株式会社,北海道,札幌市中央区,南十八条西１３丁目１番１３号,,01,101,0640918,,,,,,,2023-05-26,1,,,,,アドクリーン,0
442,2430003015082,新規,0,2023-05-26,2023-05-26,合同会社パトリア札幌,,合同会社,北海道,札幌市北区,北二十四条西１５丁目２番１５号,,01,102,0010024,,,,,,,2023-05-26,1,,,,,パトリアサッポロ,0
445,2480003001986,新規,0,2023-05-26,2023-05-26,Ｔ’ｓ　Ｌｉｎｋ合同会社,,合同会社,徳島県,小松島市,小松島町字南開５６番地の６,,36,203,7730001,,,,,,,2023-05-26,1,,,,,ティーズリンク,0
446,2700150116523,新規,0,2023-05-26,2023-05-26,Ｐａｃｉｆｉｃ　Ｕｎｉｖｅｒｓａｌ　Ｇｒｏｕｐ　Ｌｉｍｉｔｅｄ,,外国会社等,東京都,新宿区,水道町１－１３,,13,104,1620811,Ｕｎｉｔ　８，３／Ｆ，Ｑｗｏｍａｒ　Ｔｒａｄｉｎｇ　Ｃｏｍｐｌｅｘ，Ｂｌａｃｋｂｕｒｎｅ　Ｒｄ，Ｐｏｒｔ　Ｐｕｒｃｅｌｌ　Ｒｏａｄ　Ｔｏｗｎ，Ｔｏｒｔｏｌａ，Ｂｒｉｔｉｓｈ　Ｖｉｒｇｉｎ　Ｉｓｌａｎｄｓ,,,,,,2023-05-26,1,,,,,パシフイツクユニバーサルグループリミテツド,0
458,3010003040642,新規,0,2023-05-26,2023-05-26,合同会社ＢＳＰＶ１号,,合同会社,東京都,千代田区,九段南１丁目６番５号九段会館テラス,,13,101,1020074,,,,,,,2023-05-26,1,,,,,ビーエスピーブイイチゴウ,0
469,3010401174579,新規,0,2023-05-26,2023-05-26,株式会社ファーストクラス,,株式会社,東京都,港区,虎ノ門１丁目１６番１６号虎ノ門一丁目ＭＧビル２階,,13,103,1050001,,,,,,,2023-05-26,1,,,,,ファーストクラス,0
470,3010401174604,新規,0,2023-05-26,2023-05-26,ＮＡＮＡＳ株式会社,,株式会社,東京都,港区,西新橋１丁目１７番６号高嶋ビル１階,,13,103,1050003,,,,,,,2023-05-26,1,,,,,ナナズ,0
471,3010401174612,新規,0,2023-05-26,2023-05-26,株式会社サム・エル,,株式会社,東京都,港区,元赤坂１丁目１番１８号,,13,103,1070051,,,,,,,2023-05-26,1,,,,,サムエル,0
472,3010403030177,新規,0,2023-05-26,2023-05-26,タイチトレーディング合同会社,,合同会社,東京都,港区,麻布十番１－２－７ラフィネ麻布十番７０１号室,,13,103,1050000,,,,,,,2023-05-26,1,,,,,タイチトレーディング,0
473,3010405022172,新規,0,2023-05-26,2023-05-26,銀座６丁目特定目的会社,,その他の設立登記法人,東京都,港区,六本木１丁目６番１号泉ガーデンタワー,,13,103,1060032,,,,,,,2023-05-26,1,,,,,ギンザロクチョウメ,0
491,3011001154649,新規,0,2023-05-26,2023-05-26,株式会社フェーヴ,,株式会社,東京都,渋谷区,渋谷２丁目２４－１２渋谷スクランブルスクエア３９階,,13,113,1500002,,,,,,,2023-05-26,1,,,,,フェーヴ,0
492,3011001154665,新規,0,2023-05-26,2023-05-26,株式会社０２３５,,株式会社,東京都,渋谷区,渋谷２丁目１９－１５宮益坂ビルディング６０９,,13,113,1500002,,,,,,,2023-05-26,1,,,,,ゼロニサンゴ,0
493,3011001154673,新規,0,2023-05-26,2023-05-26,株式会社ＦＬＢ,,株式会社,東京都,目黒区,中目黒４丁目６番１－１３０７号,,13,110,1530061,,,,,,,2023-05-26,1,,,,,エフエルビー,0
496,3011003016871,新規,0,2023-05-26,2023-05-26,合同会社禰津屋,,合同会社,東京都,渋谷区,神泉町１０番１５号,,13,113,1500045,,,,,,,2023-05-26,1,,,,,ネヅヤ,0
497,3011003016896,新規,0,2023-05-26,2023-05-26,Ｇａｒａｇｅｗｏｒｋｓ合同会社,,合同会社,東京都,渋谷区,道玄坂１丁目１０番８号渋谷道玄坂東急ビル２Ｆ－Ｃ,,13,113,1500043,,,,,,,2023-05-26,1,,,,,ガレージワークス,0
498,3011005010088,新規,0,2023-05-26,2023-05-26,一般財団法人ＭＩＺＵＮＯＴＥ,,その他の設立登記法人,東京都,目黒区,平町１丁目２６番２６号くりやまビル４Ｆ,,13,110,1520032,,,,,,,2023-05-26,1,,,,,ミズノート,0
503,3011201024668,新規,0,2023-05-26,2023-05-26,Ｄｏｉｎｇｒｅａｔ株式会社,,株式会社,東京都,中野区,中野５丁目２１番５号薫木荘０２室,,13,114,1640001,,,,,,,2023-05-26,1,,,,,ドゥーイングレイト,0
513,3011801042466,新規,0,2023-05-26,2023-05-26,株式会社Ｔ＆Ｍ建築事務所,,株式会社,東京都,足立区,西竹の塚二丁目６番３号２Ｆ,00130637,13,121,1200000,,,,,,,2023-05-26,1,,,,,ティーアンドエムケンチクジムショ,0
538,3030001154079,新規,0,2023-05-26,2023-05-26,慧博株式会社,,株式会社,埼玉県,川口市,西青木１丁目１３－１レインボー西青木ビル２階,,11,203,3320035,,,,,,,2023-05-26,1,,,,,ケイホ,0
539,3030001154087,新規,0,2023-05-26,2023-05-26,株式会社和興,,株式会社,埼玉県,幸手市,中１丁目７番３９号,,11,240,3400115,,,,,,,2023-05-26,1,,,,,ワコウ,0
542,3030003021814,新規,0,2023-05-26,2023-05-26,合同会社よんりんしゃ,,合同会社,埼玉県,桶川市,北１丁目２０番２号,,11,231,3630011,,,,,,,2023-05-26,1,,,,,ヨンリンシャ,0
543,3030003021822,新規,0,2023-05-26,2023-05-26,トルナーレ合同会社,,合同会社,埼玉県,さいたま市見沼区,東大宮６丁目３６番地７,,11,104,3370051,,,,,,,2023-05-26,1,,,,,トルナーレ,0
547,3040001128560,新規,0,2023-05-26,2023-05-26,株式会社ハマダ,,株式会社,千葉県,市原市,五井７４番地,,12,219,2900056,,,,,,,2023-05-26,1,,,,,ハマダ,0
549,3040002105146,新規,0,2023-05-26,2023-05-26,有限会社キムラ電機商会,,有限会社,千葉県,富里市,七栄６４７番地１３６,,12,233,2860221,,,,,,,2023-05-26,1,,,,,,0
554,3040005022017,新規,0,2023-05-26,2023-05-26,医療法人社団そはや,,その他の設立登記法人,千葉県,柏市,南柏中央６番地２２エリタージュ１階１０１号室,,12,217,2770075,,,,,,,2023-05-26,1,,,,,ソハヤ,0
556,3050003007530,新規,0,2023-05-26,2023-05-26,合同会社ＮＥＸＴ　ＩＮＮＯＶＡＴＩＯＮ,,合同会社,茨城県,水戸市,中央１丁目２番１０－５０３号Ｓ－ＦＯＲＴ水戸中央,,08,201,3100805,,,,,,,2023-05-26,1,,,,,ネクストイノベーション,0
557,3050003007539,新規,0,2023-05-26,2023-05-26,合同会社Ａｓｃｌｅｍａ,,合同会社,茨城県,行方市,船子３１１番１号,,08,233,3113806,,,,,,,2023-05-26,1,,,,,アスクレマ,0
559,3070001040481,新規,0,2023-05-26,2023-05-26,株式会社ＳＰＲＥＡＬＥ,,株式会社,群馬県,高崎市,中大類町４２１番地６,,10,202,3700033,,,,,,,2023-05-26,1,,,,,スプリール,0
561,3070003004955,新規,0,2023-05-26,2023-05-26,合同会社Ｉｎｆｏｒｍａｔｉｏｎ　Ｄｅｓｉｇｎ,,合同会社,群馬県,高崎市,本郷町１０３６番地２,,10,202,3703334,,,,,,,2023-05-26,1,,,,,インフォメーションデザイン,0
564,3080401026501,新規,0,2023-05-26,2023-05-26,株式会社ＢＥＳＴＥＣＯ,,株式会社,静岡県,御前崎市,池新田２３４０番地の８,,22,223,4371612,,,,,,,2023-05-26,1,,,,,ベステコ,0
571,3120001254992,新規,0,2023-05-26,2023-05-26,星河株式会社,,株式会社,大阪府,大阪市北区,浪花町９－１２－２０２号室,,27,127,5300022,,,,,,,2023-05-26,1,,,,,ホシカワ,0
572,3120001255108,新規,0,2023-05-26,2023-05-26,ＣＯＮＮＩＥ株式会社,,株式会社,大阪府,大阪市住吉区,遠里小野５丁目１４番２０号メリーゴーランドオリオノ２０４室,,27,120,5580032,,,,,,,2023-05-26,1,,,,,コンニエ,0
573,3120001255181,新規,0,2023-05-26,2023-05-26,秋百文化株式会社,,株式会社,大阪府,大阪市中央区,本町橋６番２１－１０１０号,,27,128,5400029,,,,,,,2023-05-26,1,,,,,アキヒャクブンカ,0
574,3120001255198,新規,0,2023-05-26,2023-05-26,株式会社ラクーン,,株式会社,大阪府,大阪市北区,中崎西４丁目３番３０－８０９号,,27,127,5300015,,,,,,,2023-05-26,1,,,,,ラクーン,0
575,3120001255215,新規,0,2023-05-26,2023-05-26,株式会社Ａｄｍｉｒｅ　Ｊａｐａｎ,,株式会社,大阪府,大阪市都島区,都島本通１丁目２１番２２号メディコート２階,,27,102,5340021,,,,,,,2023-05-26,1,,,,,アドマイアジャパン,0
576,3120001255256,新規,0,2023-05-26,2023-05-26,株式会社ユーケット,,株式会社,大阪府,守口市,大日東町４番Ｇ－２５０２,,27,209,5700016,,,,,,,2023-05-26,1,,,,,ユーケット,0
582,3120901047570,新規,0,2023-05-26,2023-05-26,株式会社ルーアン,,株式会社,大阪府,高槻市,柱本３丁目６番１４号,,27,207,5690844,,,,,,,2023-05-26,1,,,,,ルーアン,0
585,3130001074390,新規,0,2023-05-26,2023-05-26,株式会社来温,,株式会社,京都府,京都市南区,吉祥院定成町２５番地１,,26,107,6018322,,,,,,,2023-05-26,1,,,,,ライオン,0
590,3140001130300,新規,0,2023-05-26,2023-05-26,株式会社ＣＯＯＬＥＸ,,株式会社,兵庫県,たつの市,龍野町富永４９５番地５,,28,229,6794167,,,,,,,2023-05-26,1,,,,,クーレックス,0
592,3140003019087,新規,0,2023-05-26,2023-05-26,合同会社ＡＡＡ,,合同会社,兵庫県,西宮市,上葭原町１－３４,,28,204,6620954,,,,,,,2023-05-26,1,,,,,エイエイエイ,0
593,3140003019137,新規,0,2023-05-26,2023-05-26,合同会社いろり,,合同会社,兵庫県,尼崎市,富松町３丁目２３番１７号,,28,202,6610003,,,,,,,2023-05-26,1,,,,,イロリ,0
595,3150001026423,新規,0,2023-05-26,2023-05-26,株式会社東伸トラスト,,株式会社,奈良県,天理市,福住町４４５１番地,,29,204,6320122,,,,,,,2023-05-26,1,,,,,トウシントラスト,0
601,3170003001876,新規,0,2023-05-26,2023-05-26,合同会社ＶＥＲＴＥＸ,,合同会社,和歌山県,和歌山市,湊１番地５,,30,201,6408404,,,,,,,2023-05-26,1,,,,,バーテックス,0
609,3180001156424,新規,0,2023-05-26,2023-05-26,株式会社Ｆｅｅｌ　ｔｈｅ　Ｖｉｂｅｓ,,株式会社,愛知県,名古屋市中区,東桜２丁目２２番３３号,,23,106,4600005,,,,,,,2023-05-26,1,,,,,フィールザバイブス,0
610,3180001156465,新規,0,2023-05-26,2023-05-26,ＴＫＫ株式会社,,株式会社,愛知県,一宮市,萩原町林野字中道西４２０番地１,,23,203,4910361,,,,,,,2023-05-26,1,,,,,ティーケーケー,0
616,3190005011822,新規,0,2023-05-26,2023-05-26,ＣａｍｐｉｎｇＳｐｅｃｉａｌｉｓｔＫＯＭＯＮＯ労働者協同組合,,その他の設立登記法人,三重県,三重郡菰野町,大字菰野字茨野８３４８－７,,24,341,5101233,,,,,,,2023-05-26,1,,,,,キャンピングスペシャリストコモノ,0
619,3210003001649,新規,0,2023-05-26,2023-05-26,井上インベスト合同会社,,合同会社,福井県,福井市,西木田３丁目５番１号,,18,201,9188004,,,,,,,2023-05-26,1,,,,,イノウエインベスト,0
620,3220001025426,新規,0,2023-05-26,2023-05-26,株式会社西製作所,,株式会社,石川県,小松市,梯町へ１７番地,,17,203,9230028,,,,,,,2023-05-26,1,,,,,ニシセイサクショ,0
644,3290001101617,新規,0,2023-05-26,2023-05-26,株式会社九州メディカル,,株式会社,福岡県,福岡市中央区,天神４丁目５番１０号,,40,133,8100001,,,,,,,2023-05-26,1,,,,,キュウシュウメディカル,0
646,3290003013926,新規,0,2023-05-26,2023-05-26,ＧＲＥＥＮ　ＭＥＤＩＡ合同会社,,合同会社,福岡県,福岡市博多区,博多駅前１丁目２３番１号ＰａｒｋＦｒｏｎｔ博多駅前１丁目５Ｆ－Ｂ,,40,132,8120011,,,,,,,2023-05-26,1,,,,,グリーンメディア,0
658,3360003012994,新規,0,2023-05-26,2023-05-26,合同会社Ｓグループ企画,,合同会社,沖縄県,名護市,大中１丁目３番２０号大兼久ビル２Ｆ,,47,209,9050017,,,,,,,2023-05-26,1,,,,,エスグループキカク,0
679,3430001089202,新規,0,2023-05-26,2023-05-26,Ｌ‐サプライ株式会社,,株式会社,北海道,札幌市中央区,北一条西１８丁目１番地,,01,101,0600001,,,,,,,2023-05-26,1,,,,,エルサプライ,0
680,3430001089210,新規,0,2023-05-26,2023-05-26,株式会社ＡＲＩＡ,,株式会社,北海道,札幌市中央区,南一条西８丁目９番地２,,01,101,0600061,,,,,,,2023-05-26,1,,,,,アリア,0
681,3430001089219,新規,0,2023-05-26,2023-05-26,株式会社城南美建工業,,株式会社,北海道,苫小牧市,東開町５丁目２番３１号,,01,213,0591301,,,,,,,2023-05-26,1,,,,,ジョウナンビケンコウギョウ,0
682,3430001089243,新規,0,2023-05-26,2023-05-26,株式会社ＺｅｎＡ,,株式会社,北海道,札幌市中央区,南二条西９丁目１－１１カサトレスネオ３０３,,01,101,0600062,,,,,,,2023-05-26,1,,,,,ゼンエイ,0
684,3470001019634,新規,0,2023-05-26,2023-05-26,株式会社観音寺スクールランチパートナーズ,,株式会社,香川県,観音寺市,木之郷町１０７番地３,,37,205,7680051,,,,,,,2023-05-26,1,,,,,カンオンジスクールランチパートナーズ,0
687,3470003002431,新規,0,2023-05-26,2023-05-26,合同会社Ｍ,,合同会社,香川県,高松市,多賀町２丁目１－１３市川ビル３Ｆ,,37,201,7600063,,,,,,,2023-05-26,1,,,,,エム,0
688,3500003003038,新規,0,2023-05-26,2023-05-26,合同会社リエゾン,,合同会社,愛媛県,東温市,樋口甲７６５番地１,,38,215,7910202,,,,,,,2023-05-26,1,,,,,リエゾン,0
689,3700150004388,新規,0,2023-05-26,2015-10-09,紙パルプ技術協会,,その他,東京都,中央区,銀座３丁目９－１１紙パルプ会館,,13,102,1040061,,,,,,,2015-10-09,1,,,,,カミパルプギジユツキヨウカイ,0
690,3700150116530,新規,0,2023-05-26,2023-05-26,エアロＫ航空　株式会社,,外国会社等,大阪府,泉南郡田尻町,泉州空港中一番地航空会社南ビル２階１－４,,27,362,5490011,大韓民国忠清北道清州市興徳区五松邑五松生命路３路１５４番地,,,,,,2023-05-26,1,,,,,エアロケーコウクウカブシキガイシヤ,0
698,4010003040682,新規,0,2023-05-26,2023-05-26,合同会社ガストロノミーツーリズム研究所,,合同会社,東京都,中央区,勝どき１丁目８番１－７１３号,,13,102,1040054,,,,,,,2023-05-26,1,,,,,ガストロノミーツーリズムケンキュウジョ,0
699,4010005036737,新規,0,2023-05-26,2023-05-26,一般社団法人アカデミア発バイオ・ヘルスケアベンチャー協会,,その他の設立登記法人,東京都,文京区,湯島３丁目１９番１１号湯島ファーストビル４階,,13,105,1130034,,,,,,,2023-05-26,1,,,,,アカデミアハツバイオヘルスケアベンチャーキョウカイ,0
700,4010101015660,新規,0,2023-05-26,2023-05-26,株式会社啓明,,株式会社,東京都,八王子市,椚田町５５７－１９,,13,201,1930942,,,,,,,2023-05-26,1,,,,,ケイメイ,0
707,4010401174553,新規,0,2023-05-26,2023-05-26,株式会社Ａｎｔ　Ｔｅｃｈｎｏｌｏｇｙ,,株式会社,東京都,港区,浜松町２丁目５番３号,,13,103,1050013,,,,,,,2023-05-26,1,,,,,アントテックノロジー,0
708,4010401174586,新規,0,2023-05-26,2023-05-26,株式会社ＣＳＨＤ,,株式会社,東京都,港区,虎ノ門１丁目２３番１号ジャフコグループ株式会社内,,13,103,1050001,,,,,,,2023-05-26,1,,,,,シーエスエイチディー,0
710,4010405022130,新規,0,2023-05-26,2023-05-26,一般社団法人西五反田プロパティ,,その他の設立登記法人,東京都,港区,西新橋１丁目２番９号メンターキャピタル税理士法人内,,13,103,1050003,,,,,,,2023-05-26,1,,,,,ニシゴタンダプロパティ,0
711,4010405022139,新規,0,2023-05-26,2023-05-26,ジャパンインフラホールディングス３４号一般社団法人,,その他の設立登記法人,東京都,港区,元赤坂１丁目１番７号,,13,103,1070051,,,,,,,2023-05-26,1,,,,,ジャパンインフラホールディングスサンジュウヨンゴウ,0
712,4010405022171,新規,0,2023-05-26,2023-05-26,港インベストメンツ特定目的会社,,その他の設立登記法人,東京都,港区,六本木１丁目６番１号泉ガーデンタワー,,13,103,1060032,,,,,,,2023-05-26,1,,,,,ミナトインベストメンツ,0
713,4010501050506,新規,0,2023-05-26,2023-05-26,株式会社ＹＯＨＡＫＵ．,,株式会社,東京都,台東区,浅草３丁目３８－１奥浅草ハイブリッド１Ａ号室,,13,106,1110032,,,,,,,2023-05-26,1,,,,,ヨハク,0
720,4010801033986,新規,0,2023-05-26,2023-05-26,株式会社Ｄａｙ屋,,株式会社,東京都,大田区,西蒲田７丁目４番５号小山第一ビル４階,,13,111,1440051,,,,,,,2023-05-26,1,,,,,デイヤ,0
721,4010803004548,新規,0,2023-05-26,2023-05-26,合同会社フラワー,,合同会社,東京都,大田区,北千束３丁目２８番１号,,13,111,1450062,,,,,,,2023-05-26,1,,,,,フラワー,0
731,4011001154499,新規,0,2023-05-26,2023-05-26,株式会社Ｄｙｎａｇｏｎ,,株式会社,東京都,渋谷区,道玄坂１丁目１０－８渋谷道玄坂東急ビル２Ｆ－Ｃ,,13,113,1500043,,,,,,,2023-05-26,1,,,,,ダイナゴン,0
732,4011001154623,新規,0,2023-05-26,2023-05-26,Ｇｌｏｏｏｐｓ株式会社,,株式会社,東京都,渋谷区,恵比寿１丁目１５番９号４０３,,13,113,1500013,,,,,,,2023-05-26,1,,,,,グループス,0
733,4011001154648,新規,0,2023-05-26,2023-05-26,株式会社ルーゼン,,株式会社,東京都,渋谷区,渋谷１丁目８番６号宮益坂ＳＴビル９０４,,13,113,1500002,,,,,,,2023-05-26,1,,,,,ルーゼン,0
734,4011001154664,新規,0,2023-05-26,2023-05-26,株式会社ＲｉＲｉ．ｉｎｃ,,株式会社,東京都,目黒区,祐天寺１丁目２１番１１号ワイズ・メナー祐天寺３０３,,13,110,1530052,,,,,,,2023-05-26,1,,,,,リリインク,0
742,4011103013066,新規,0,2023-05-26,2023-05-26,合同会社クオリア,,合同会社,東京都,新宿区,百人町１丁目１１番６号３０６,,13,104,1690073,,,,,,,2023-05-26,1,,,,,クオリア,0
751,4011601026841,新規,0,2023-05-26,2023-05-26,株式会社ＢＯＤＹＳＯＮＧ,,株式会社,東京都,練馬区,桜台１丁目７番８号日新ハイム１０１,,13,120,1760002,,,,,,,2023-05-26,1,,,,,ボディソング,0
754,4011801042473,新規,0,2023-05-26,2023-05-26,Ｇ．Ｙコーポレーション株式会社,,株式会社,東京都,足立区,南花畑３丁目１６番２号,,13,121,1210062,,,,,,,2023-05-26,1,,,,,ジーワイコーポレーション,0
766,4020005016003,新規,0,2023-05-26,2023-05-26,一般社団法人日本アフリカ現代美術協会,,その他の設立登記法人,神奈川県,横浜市中区,海岸通４丁目２３番地,,14,104,2310002,,,,,,,2023-05-26,1,,,,,,0
767,4021001079142,新規,0,2023-05-26,2023-05-26,株式会社ＬｏｎｇＴｉｄｅ,,株式会社,神奈川県,鎌倉市,材木座２丁目１番１７号,,14,204,2480013,,,,,,,2023-05-26,1,,,,,ロングタイド,0
768,4021001079159,新規,0,2023-05-26,2023-05-26,関戸産業株式会社,,株式会社,神奈川県,綾瀬市,落合北４丁目２番４４号,,14,218,2521116,,,,,,,2023-05-26,1,,,,,セキドサンギョウ,0
769,4021003013140,新規,0,2023-05-26,2023-05-26,合同会社エスティ,,合同会社,神奈川県,藤沢市,片瀬海岸２丁目９番５～２０３号,,14,205,2510035,,,,,,,2023-05-26,1,,,,,エスティ,0
771,4030001154103,新規,0,2023-05-26,2023-05-26,株式会社ＫＵＲＵ,,株式会社,埼玉県,川口市,戸塚東１丁目２７番１５号ソメヤハイツ２０１号,00130632,11,203,3330802,,,,,,,2023-05-26,1,,,,,クル,0
774,4030003021771,新規,0,2023-05-26,2023-05-26,合同会社ＵＮＩＣＯＲＮ　ＭＯＴＯＲＳ,,合同会社,埼玉県,入間郡毛呂山町,大字西戸８８４番地３,,11,326,3500438,,,,,,,2023-05-26,1,,,,,ユニコーンモータース,0
782,4040001128551,新規,0,2023-05-26,2023-05-26,ＫＫ　ＳＯＮＳ　ＥＮＴＥＲＰＲＩＳＥＳ株式会社,,株式会社,千葉県,野田市,七光台３６１番地の９グリーンパークＡ１０２,,12,208,2780051,,,,,,,2023-05-26,1,,,,,ケーケーソンズエンタープライセズ,0
790,4040002105145,新規,0,2023-05-26,2023-05-26,有限会社丸信工業,,有限会社,千葉県,南房総市,千倉町南朝夷１５９３番地,,12,234,2950012,,,,,,,2023-05-26,1,,,,,マルシンコウギョウ,0
798,4060003004567,新規,0,2023-05-26,2023-05-26,ＮＡＧＯＭＩ　ＣＡＭＰ合同会社,,合同会社,栃木県,那須塩原市,関谷１０９３―２,,09,213,3292801,,,,,,,2023-05-26,1,,,,,ナゴミキャンプ,0
801,4080001025638,新規,0,2023-05-26,2023-05-26,ユニズホーム株式会社,,株式会社,静岡県,静岡市駿河区,南町１０－６村上駅南ビル６階,,22,102,4228067,,,,,,,2023-05-26,1,,,,,ユニズホーム,0
808,4100001036442,新規,0,2023-05-26,2023-05-26,ブックマーク株式会社,,株式会社,長野県,佐久市,岩村田３０９７－１,,20,217,3850022,,,,,,,2023-05-26,1,,,,,ブックマーク,0
815,4120001254991,新規,0,2023-05-26,2023-05-26,富華株式会社,,株式会社,大阪府,大阪市北区,浪花町９－１２－２０３号室,,27,127,5300022,,,,,,,2023-05-26,1,,,,,トミハナ,0
816,4120001255081,新規,0,2023-05-26,2023-05-26,小魚株式会社,,株式会社,大阪府,大阪市淀川区,西宮原１丁目７－４オリエント新大阪アーバンライフ９０５号室,,27,123,5320004,,,,,,,2023-05-26,1,,,,,コザカナ,0
817,4120001255197,新規,0,2023-05-26,2023-05-26,Ｋ‐Ｔｅｘ株式会社,,株式会社,大阪府,大阪市西区,西本町１丁目５番７号本町新興産ビル８階Ｅ号室,,27,106,5500005,,,,,,,2023-05-26,1,,,,,ケーテックス,0
818,4120001255206,新規,0,2023-05-26,2023-05-26,株式会社フォレスト,,株式会社,大阪府,大阪市天王寺区,上汐５丁目７－１８－３０１,,27,109,5430002,,,,,,,2023-05-26,1,,,,,フォレスト,0
819,4120001255230,新規,0,2023-05-26,2023-05-26,株式会社ステラビューティ,,株式会社,大阪府,大阪市北区,芝田１丁目１０番１０号芝田グランドビル７０８,,27,127,5300012,,,,,,,2023-05-26,1,,,,,ステラビューティ,0
820,4120001255239,新規,0,2023-05-26,2023-05-26,株式会社ＭＭＮ,,株式会社,大阪府,大阪市東住吉区,住道矢田５丁目１０番２５号,,27,121,5460022,,,,,,,2023-05-26,1,,,,,エムエムエヌ,0
824,4120103005236,新規,0,2023-05-26,2023-05-26,合同会社ＨＡＴ,,合同会社,大阪府,堺市堺区,田出井町１－３－３１０７,,27,141,5900014,,,,,,,2023-05-26,1,,,,,エイチエイティ,0
827,4122001037006,新規,0,2023-05-26,2023-05-26,株式会社ＩＮＫ,,株式会社,大阪府,大東市,太子田１丁目５番４５号,,27,218,5740045,,,,,,,2023-05-26,1,,,,,インク,0
844,4180003025270,新規,0,2023-05-26,2023-05-26,Ｐｏｌａｒｉｓ合同会社,,合同会社,愛知県,名古屋市瑞穂区,大喜新町４丁目２４番地の１アストリー大喜３０２号,,23,108,4670868,,,,,,,2023-05-26,1,,,,,ポラリス,0
850,4180301037422,新規,0,2023-05-26,2023-05-26,株式会社ｉＴｅｃｈ,,株式会社,愛知県,豊田市,西町４丁目２５－１５中根第２ビルＢ１階,,23,211,4710025,,,,,,,2023-05-26,1,,,,,アイテック,0
862,4240001061567,新規,0,2023-05-26,2023-05-26,株式会社ＳＨＩＫＩ,,株式会社,広島県,福山市,藤江町１５９４番地,,34,207,7200543,,,,,,,2023-05-26,1,,,,,シキ,0
870,4250003003277,新規,0,2023-05-26,2023-05-26,合同会社ワイワイ,,合同会社,山口県,防府市,自由ケ丘１丁目５番４０号,,35,206,7470066,,,,,,,2023-05-26,1,,,,,ワイワイ,0
872,4260003004308,新規,0,2023-05-26,2023-05-26,合同会社ｓｕｍｒｉｓｅ,,合同会社,岡山県,岡山市北区,横井上１２７８―１,,33,101,7011145,,,,,,,2023-05-26,1,,,,,サムライズ,0
881,4290801029552,新規,0,2023-05-26,2023-05-26,株式会社金興,,株式会社,福岡県,北九州市小倉南区,沼緑町２丁目３番１０号（Ａ２０５）,,40,107,8000207,,,,,,,2023-05-26,1,,,,,キンコウ,0
894,4330003009860,新規,0,2023-05-26,2023-05-26,合同会社Ｌｉｂｒｅ,,合同会社,熊本県,熊本市北区,武蔵ケ丘５丁目６－１,,43,105,8618001,,,,,,,2023-05-26,1,,,,,リーブル,0
897,4340001025603,新規,0,2023-05-26,2023-05-26,株式会社Ｌａｚｏ　ｌｉｅｎ,,株式会社,鹿児島県,鹿児島市,宇宿３丁目１８番２０号２Ｆ,,46,201,8900073,,,,,,,2023-05-26,1,,,,,ラソリアン,0
901,4350003004356,新規,0,2023-05-26,2023-05-26,合同会社虹色デザイン,,合同会社,宮崎県,宮崎市,清武町加納４丁目３７番地宮川ハイツ１０２号,,45,201,8891607,,,,,,,2023-05-26,1,,,,,ニジイロデザイン,0
905,4360001031962,新規,0,2023-05-26,2023-05-26,株式会社ＷＥ・ＴＲＡＶＥＬ,,株式会社,沖縄県,宮古島市,伊良部字国仲６１５－１,,47,214,9060505,,,,,,,2023-05-26,1,,,,,ウィートラベル,0
906,4360001032060,新規,0,2023-05-26,2023-05-26,株式会社フライト,,株式会社,沖縄県,那覇市,山下町３０番８号,,47,201,9000027,,,,,,,2023-05-26,1,,,,,フライト,0
914,4390003002100,新規,0,2023-05-26,2023-05-26,合同会社李家ネ,,合同会社,山形県,天童市,東久野本２丁目１３－３６,,06,210,9940016,,,,,,,2023-05-26,1,,,,,イガネ,0
920,4430001089192,新規,0,2023-05-26,2023-05-26,Ｔ‐ｃｏｍ株式会社,,株式会社,北海道,苫小牧市,新明町４丁目１７番１１号,,01,213,0530055,,,,,,,2023-05-26,1,,,,,ティーコム,0
921,4430001089201,新規,0,2023-05-26,2023-05-26,株式会社ＨＯＴＭＡＭＡ,,株式会社,北海道,札幌市中央区,北五条西１１丁目１５－４,,01,101,0600005,,,,,,,2023-05-26,1,,,,,ホットママ,0
922,4430001089218,新規,0,2023-05-26,2023-05-26,株式会社ＫＹ空調興業,,株式会社,北海道,札幌市手稲区,星置三条９丁目９番７号,,01,109,0060853,,,,,,,2023-05-26,1,,,,,ケーワイクウチョウコウギョウ,0
925,4430003015080,新規,0,2023-05-26,2023-05-26,合同会社Ｒｉｎ,,合同会社,北海道,札幌市北区,太平十二条７丁目４番１号,,01,102,0028012,,,,,,,2023-05-26,1,,,,,リン,0
927,4450001014000,新規,0,2023-05-26,2023-05-26,株式会社ＰＥＬＡＴＡ,,株式会社,北海道,旭川市,花咲町７丁目２４０７番地の２,,01,204,0700901,,,,,,,2023-05-26,1,,,,,ペラタ,0
939,5010001235622,新規,0,2023-05-26,2023-05-26,株式会社ｂａｒｂａｒｉａｎ,,株式会社,東京都,中央区,銀座１丁目１２－４Ｎ＆ＥＢＬＤ．７階,,13,102,1040061,,,,,,,2023-05-26,1,,,,,バーバリアン,0
940,5010001235630,新規,0,2023-05-26,2023-05-26,株式会社ブルーモルフ,,株式会社,東京都,中央区,日本橋浜町３丁目２０番２－１５０１号,,13,102,1030007,,,,,,,2023-05-26,1,,,,,ブルーモルフ,0
968,5010401174569,新規,0,2023-05-26,2023-05-26,インフィナジー株式会社,,株式会社,東京都,港区,芝浦３丁目１７番１１号,,13,103,1080023,,,,,,,2023-05-26,1,,,,,インフィナジー,0
970,5010403030175,新規,0,2023-05-26,2023-05-26,合同会社グリーンパワーリテイリング,,合同会社,東京都,港区,赤坂１丁目１１番４４号赤坂インターシティ,,13,103,1070052,,,,,,,2023-05-26,1,,,,,グリーンパワーリテイリング,0
972,5010405022154,新規,0,2023-05-26,2023-05-26,ジャパンロジスティクス２特定目的会社,,その他の設立登記法人,東京都,港区,六本木１丁目９番１０号アークヒルズ仙石山森タワー４０階,,13,103,1060032,,,,,,,2023-05-26,1,,,,,ジャパンロジスティクスツー,0
973,5010405022179,新規,0,2023-05-26,2023-05-26,Ｙｏｙｏｇｉ　Ｏｆｆｉｃｅ特定目的会社,,その他の設立登記法人,東京都,港区,六本木１丁目９番１０号アークヒルズ仙石山森タワー４０階,,13,103,1060032,,,,,,,2023-05-26,1,,,,,ヨヨギオフィス,0
982,5010901053041,新規,0,2023-05-26,2023-05-26,ワレアハレ株式会社,,株式会社,東京都,世田谷区,三軒茶屋２丁目４３番地３ワレアハレ三軒茶屋５０１号室,,13,112,1540024,,,,,,,2023-05-26,1,,,,,ワレアハレ,0
987,5011001154622,新規,0,2023-05-26,2023-05-26,エバーグリーン・インベストメント株式会社,,株式会社,東京都,渋谷区,道玄坂１丁目１２－１渋谷マークシティＷ２２階,,13,113,1500043,,,,,,,2023-05-26,1,,,,,エバーグリーンインベストメント,0
988,5011001154647,新規,0,2023-05-26,2023-05-26,株式会社ｈｉｔｏｉｒｏ,,株式会社,東京都,目黒区,下目黒４丁目１９番６号,,13,110,1530064,,,,,,,2023-05-26,1,,,,,ヒトイロ,0
989,5011003016894,新規,0,2023-05-26,2023-05-26,合同会社Ｃｈｌｏｅ　Ｔｏｋｙｏ,,合同会社,東京都,目黒区,鷹番１丁目１４－９,,13,110,1520004,,,,,,,2023-05-26,1,,,,,クロエトウキョウ,0
996,5011101102992,新規,0,2023-05-26,2023-05-26,株式会社ＩＢ　Ｌａｂｏｒａｔｏｒｙ,,株式会社,東京都,新宿区,市谷田町３丁目８市ヶ谷科学技術イノベーションセンタービル２Ｆ,,13,104,1620843,,,,,,,2023-05-26,1,,,,,アイビーラボラトリー,0
997,5011101103000,新規,0,2023-05-26,2023-05-26,ｅｐｉＳＴ　Ｖｅｎｔｕｒｅｓ株式会社,,株式会社,東京都,新宿区,下落合３丁目２２番１８号,,13,104,1610033,,,,,,,2023-05-26,1,,,,,エピストベンチャーズ,0
1001,5011201024666,新規,0,2023-05-26,2023-05-26,株式会社ファニープレイス,,株式会社,東京都,中野区,中野５丁目５２番１５号中野ブロードウェイ１０８,,13,114,1640001,,,,,,,2023-05-26,1,,,,,ファニープレイス,0
1003,5011301028732,新規,0,2023-05-26,2023-05-26,株式会社中村書店,,株式会社,東京都,杉並区,浜田山１丁目２４番２０号ラセイム新美Ｉ１２２,00130641,13,115,1680065,,,,,,,2023-05-26,1,,,,,ナカムラショテン,0
1011,5011601026840,新規,0,2023-05-26,2023-05-26,株式会社丸海,,株式会社,東京都,練馬区,土支田１丁目２４番８号,,13,120,1790076,,,,,,,2023-05-26,1,,,,,マルウミ,0
1019,5011801042431,新規,0,2023-05-26,2023-05-26,ニチジョウ株式会社,,株式会社,東京都,足立区,竹の塚５丁目１６番１６号,,13,121,1210813,,,,,,,2023-05-26,1,,,,,ニチジョウ,0
1020,5011801042472,新規,0,2023-05-26,2023-05-26,帛書株式会社,,株式会社,東京都,足立区,小台１丁目６番５号３０７号室,,13,121,1200046,,,,,,,2023-05-26,1,,,,,ハクショ,0
1030,5013301050823,新規,0,2023-05-26,2023-05-26,株式会社ブライトロード,,株式会社,東京都,豊島区,東池袋１丁目３４－５いちご東池袋ビル６階,,13,116,1700013,,,,,,,2023-05-26,1,,,,,ブライトロード,0
1031,5013301050831,新規,0,2023-05-26,2023-05-26,アルバンオンラインストア株式会社,,株式会社,東京都,豊島区,要町１丁目１６番１７号前原ビル２階,,13,116,1710043,,,,,,,2023-05-26,1,,,,,アルバンオンラインストア,0
1045,5030003021804,新規,0,2023-05-26,2023-05-26,ＰＨＡＮ　ＨＡＹ合同会社,,合同会社,埼玉県,坂戸市,伊豆の山町２１番地４７ＫＩＶオフィス伊豆の山１号棟Ｃ号室,,11,239,3500275,,,,,,,2023-05-26,1,,,,,ファンハイ,0
1046,5030003021820,新規,0,2023-05-26,2023-05-26,Ｊｏｈｎ　Ｂｒｉｇｈｔｌｙ　Ｏｆｆｉｃｅ合同会社,,合同会社,埼玉県,川口市,朝日５丁目５番１５号,,11,203,3320001,,,,,,,2023-05-26,1,,,,,ジョンブライトリーオフィス,0
1047,5030003021829,新規,0,2023-05-26,2023-05-26,猪俣合同会社,,合同会社,埼玉県,児玉郡美里町,大字猪俣３０３５番地１,,11,381,3670115,,,,,,,2023-05-26,1,,,,,イノマタ,0
1053,5040001128550,新規,0,2023-05-26,2023-05-26,株式会社Ｒｏｏｔ,,株式会社,千葉県,船橋市,前貝塚町２９７番地４,,12,204,2730042,,,,,,,2023-05-26,1,,,,,ルート,0
1054,5040001128559,新規,0,2023-05-26,2023-05-26,株式会社強盛,,株式会社,千葉県,柏市,松葉町６丁目４０番地１９,,12,217,2770827,,,,,,,2023-05-26,1,,,,,キョウセイ,0
1058,5050001052881,新規,0,2023-05-26,2023-05-26,Ａ‐ＥＣ株式会社,,株式会社,茨城県,つくば市,松代２丁目１０－２,,08,220,3050035,,,,,,,2023-05-26,1,,,,,エーイーシー,0
1063,5060003004558,新規,0,2023-05-26,2023-05-26,合同会社ハピエストエンタープライズ,,合同会社,栃木県,宇都宮市,兵庫塚町９番地１,,09,201,3210156,,,,,,,2023-05-26,1,,,,,ハピエストエンタープライズ,0
1065,5070001040488,新規,0,2023-05-26,2023-05-26,株式会社Ｈ＆Ｙ,,株式会社,群馬県,利根郡みなかみ町,湯原８０９番地５,,10,449,3791617,,,,,,,2023-05-26,1,,,,,エイチアンドワイ,0
1080,5120001255188,新規,0,2023-05-26,2023-05-26,アビーロード株式会社,,株式会社,大阪府,大阪市東住吉区,杭全４丁目９番５号,,27,121,5460002,,,,,,,2023-05-26,1,,,,,アビーロード,0
1081,5120001255213,新規,0,2023-05-26,2023-05-26,ＬＳＹ精密株式会社,,株式会社,大阪府,大阪市浪速区,恵美須西１丁目３番４号坂本ビル５階,,27,111,5560003,,,,,,,2023-05-26,1,,,,,エルエスワイセイミツ,0
1082,5120001255221,新規,0,2023-05-26,2023-05-26,株式会社とどろみ開発,,株式会社,大阪府,大阪市中央区,南久宝寺町４丁目５番１５号ニューライフ御堂筋本町１１０８号,,27,128,5410058,,,,,,,2023-05-26,1,,,,,トドロミカイハツ,0
1083,5120003024153,新規,0,2023-05-26,2023-05-26,合同会社ＡＺＡＳＵ,,合同会社,大阪府,大阪市北区,松ケ枝町７－６中世古ビル２Ａ,,27,127,5300037,,,,,,,2023-05-26,1,,,,,アザス,0
1084,5120003024161,新規,0,2023-05-26,2023-05-26,合同会社コミュニティプラス,,合同会社,大阪府,門真市,島頭１丁目６番２６号,,27,223,5710016,,,,,,,2023-05-26,1,,,,,コミュニティプラス,0
1085,5120005023640,新規,0,2023-05-26,2023-05-26,一般社団法人西部日本ボールルームダンス連盟プロフェッショナル選手会,,その他の設立登記法人,大阪府,大阪市住吉区,苅田２丁目１６番５－１０５号,,27,120,5580011,,,,,,,2023-05-26,1,,,,,セイブニホンボールルームダンスレンメイプロッフェショナルセンシュカイ,0
1089,5120901047577,新規,0,2023-05-26,2023-05-26,株式会社ＣＲＡＮＥ,,株式会社,大阪府,高槻市,大塚町３丁目２６番３－４１４号,,27,207,5690034,,,,,,,2023-05-26,1,,,,,クレイン,0
1101,5140001130298,新規,0,2023-05-26,2023-05-26,株式会社ゆうおん,,株式会社,兵庫県,尼崎市,瓦宮２丁目１６番１９号,,28,202,6610971,,,,,,,2023-05-26,1,,,,,ユウオン,0
1102,5140001130307,新規,0,2023-05-26,2023-05-26,株式会社アイティーオー,,株式会社,兵庫県,神戸市中央区,海岸通４丁目１番７‐４０６号,,28,110,6500024,,,,,,,2023-05-26,1,,,,,アイティーオー,0
1112,5180001156455,新規,0,2023-05-26,2023-05-26,半田・知多地域エネルギー株式会社,,株式会社,愛知県,半田市,吉田町１丁目６０番地,,23,205,4750977,,,,,,,2023-05-26,1,,,,,ハンダチタチイキエネルギー,0
1113,5180001156471,新規,0,2023-05-26,2023-05-26,株式会社りくとそら,,株式会社,愛知県,名古屋市中村区,中村本町２丁目２４番地の１,,23,105,4530828,,,,,,,2023-05-26,1,,,,,リクトソラ,0
1115,5180003025261,新規,0,2023-05-26,2023-05-26,合同会社豚福,,合同会社,愛知県,小牧市,常普請２丁目２９０番地,,23,219,4850044,,,,,,,2023-05-26,1,,,,,トンプク,0
1116,5180005020228,新規,0,2023-05-26,2023-05-26,特定非営利活動法人ＳＨＩＲＯＣＵＲＯ,,その他の設立登記法人,愛知県,名古屋市名東区,上社１丁目１００７番地（ダイアパレス上社駅前１４０３号）,,23,115,4650025,,,,,,,2023-05-26,1,,,,,シロクロ,0
1117,5220001025424,新規,0,2023-05-26,2023-05-26,株式会社ＡＮＩＫＩ‐逢人貴,,株式会社,石川県,小松市,小馬出町９５番地,,17,203,9230904,,,,,,,2023-05-26,1,,,,,アニキアニキ,0
1124,5260001037985,新規,0,2023-05-26,2023-05-26,株式会社トモテック,,株式会社,岡山県,岡山市北区,御津草生１６２６番地２,,33,101,7092132,,,,,,,2023-05-26,1,,,,,トモテック,0
1139,5340003004133,新規,0,2023-05-26,2023-05-26,合同会社ＫＢｃｒｅａｔｉｏｎ,,合同会社,鹿児島県,鹿児島市,上荒田町８番１１号２０１号室,,46,201,8900055,,,,,,,2023-05-26,1,,,,,ケービークリエイション,0
1140,5360003013000,新規,0,2023-05-26,2023-05-26,合同会社ｓｏｌｅｉｌ　ｓｕｉ,,合同会社,沖縄県,那覇市,首里崎山町４丁目４８番地３キャッスル城南Ｉ,,47,201,9030814,,,,,,,2023-05-26,1,,,,,ソレイユスイ,0
1145,5370001050003,新規,0,2023-05-26,2023-05-26,株式会社Ｍｅｄｉｃａｌ　Ｓｃｉｅｎｃｅ,,株式会社,宮城県,仙台市宮城野区,福田町南１丁目５番１号,,04,102,9830025,,,,,,,2023-05-26,1,,,,,メディカルサイエンス,0
1151,5380001033717,新規,0,2023-05-26,2023-05-26,Ｋｒｅｉｓ株式会社,,株式会社,福島県,須賀川市,陣場町１０６番地,,07,207,9620012,,,,,,,2023-05-26,1,,,,,クライス,0
1154,5400003003087,新規,0,2023-05-26,2023-05-26,Ｔｈｒｅｅ　Ｓｍｉｌｅ合同会社,,合同会社,岩手県,北上市,中野町３丁目２２－３,,03,206,0240024,,,,,,,2023-05-26,1,,,,,スリースマイル,0
1155,5410003003805,新規,0,2023-05-26,2023-05-26,合同会社ＯＲＣサポート,,合同会社,秋田県,大仙市,大曲住吉町１番１７号,,05,212,0140034,,,,,,,2023-05-26,1,,,,,オーアールシーサポート,0
1161,5430001089209,新規,0,2023-05-26,2023-05-26,株式会社ツヨクマ,,株式会社,北海道,札幌市西区,西野二条２丁目５番２０号,,01,107,0630032,,,,,,,2023-05-26,1,,,,,ツヨクマ,0
1162,5430001089225,新規,0,2023-05-26,2023-05-26,株式会社ドクターケーニッヒ札幌,,株式会社,北海道,札幌市手稲区,前田二条１１丁目９番１号,,01,109,0060812,,,,,,,2023-05-26,1,,,,,ドクターケーニッヒサッポロ,0
1168,5500001024950,新規,0,2023-05-26,2023-05-26,株式会社やすとも,,株式会社,愛媛県,松山市,萱町４丁目３番地６,,38,201,7900813,,,,,,,2023-05-26,1,,,,,ヤストモ,0
1183,6010005036743,新規,0,2023-05-26,2023-05-26,一般社団法人日本ソーシャルキャピタル協会,,その他の設立登記法人,東京都,中央区,日本橋室町１丁目１１番１２号日本橋水野ビル７階,,13,102,1030022,,,,,,,2023-05-26,1,,,,,ニホンソーシャルキャピタルキョウカイ,0
1184,6010103002143,新規,0,2023-05-26,2023-05-26,合同会社ＹｔｈｅＶｉｌｌａｇｅ,,合同会社,東京都,八王子市,大和田町７丁目３番１１号メイプル大和田ビル４階,,13,201,1920045,,,,,,,2023-05-26,1,,,,,ワイザヴィレッジ,0
1197,6010401174618,新規,0,2023-05-26,2023-05-26,ＭＣＰ１６株式会社,,株式会社,東京都,港区,元赤坂１丁目１番８号株式会社赤坂国際会計内,,13,103,1070051,,,,,,,2023-05-26,1,,,,,エムシーピーワンシックス,0
1201,6010503007007,新規,0,2023-05-26,2023-05-26,合同会社ＪＣＣ,,合同会社,東京都,台東区,花川戸２丁目３番４号ファミール浅草１０１,,13,106,1110033,,,,,,,2023-05-26,1,,,,,ジェイシーシー,0
1206,6010601063166,新規,0,2023-05-26,2023-05-26,森博澤商服株式会社,,株式会社,東京都,墨田区,東駒形２丁目２番１３東駒形二丁目ビル４０１号室,,13,107,1300005,,,,,,,2023-05-26,1,,,,,シンボザワショウプク,0
1217,6010801033992,新規,0,2023-05-26,2023-05-26,ＯＫベストサービス株式会社,,株式会社,東京都,大田区,上池台１丁目１３番１号,,13,111,1450064,,,,,,,2023-05-26,1,,,,,オーケーベストサービス,0
1227,6011001154563,新規,0,2023-05-26,2023-05-26,株式会社リノアップ,,株式会社,東京都,目黒区,五本木３丁目３２－２,,13,110,1530053,,,,,,,2023-05-26,1,,,,,リノアップ,0
1228,6011001154621,新規,0,2023-05-26,2023-05-26,株式会社マインドバース,,株式会社,東京都,渋谷区,神宮前６丁目２９番４号原宿ｋｏｍｉｙａビル６階,,13,113,1500001,,,,,,,2023-05-26,1,,,,,マインドバース,0
1229,6011001154646,新規,0,2023-05-26,2023-05-26,株式会社ＢＲＡＹＳＥＳ,,株式会社,東京都,目黒区,下目黒４丁目２３番８号,,13,110,1530064,,,,,,,2023-05-26,1,,,,,ブライセス,0
1230,6011001154654,新規,0,2023-05-26,2023-05-26,株式会社Ｓｐｒｏｕｔ,,株式会社,東京都,渋谷区,道玄坂１丁目１６－６二葉ビル８Ｂ,,13,113,1500043,,,,,,,2023-05-26,1,,,,,スプラウト,0
1232,6011003016885,新規,0,2023-05-26,2023-05-26,金川資産管理合同会社,,合同会社,東京都,渋谷区,千駄ヶ谷４丁目９番３,,13,113,1510051,,,,,,,2023-05-26,1,,,,,カナガワシサンカンリ,0
1233,6011003016902,新規,0,2023-05-26,2023-05-26,合同会社ＫＦＳ,,合同会社,東京都,渋谷区,神宮前６丁目２３番４号桑野ビル２階,,13,113,1500001,,,,,,,2023-05-26,1,,,,,ケイエフエス,0
1239,6011303004771,新規,0,2023-05-26,2023-05-26,合同会社松村,,合同会社,東京都,杉並区,西荻北５丁目４番１号,,13,115,1670042,,,,,,,2023-05-26,1,,,,,マツムラ,0
1240,6011305002906,新規,0,2023-05-26,2023-05-26,一般社団法人グリーンゲイブルズ,,その他の設立登記法人,東京都,杉並区,松庵３丁目３８－１４,,13,115,1670054,,,,,,,2023-05-26,1,,,,,グリーンゲイブルズ,0
1258,6012701017670,新規,0,2023-05-26,2023-05-26,株式会社時希左官,,株式会社,東京都,東村山市,萩山町４丁目８－３,,13,213,1890012,,,,,,,2023-05-26,1,,,,,トキサカン,0
1259,6012801022380,新規,0,2023-05-26,2023-05-26,ＣＢ　Ｔｒａｄｅ株式会社,,株式会社,東京都,昭島市,中神町１２５７番地２２号オハナ昭島中神５０７号,,13,207,1960022,,,,,,,2023-05-26,1,,,,,シービートレード,0
1280,6021001079149,新規,0,2023-05-26,2023-05-26,株式会社自家焙煎珈琲珈琲院,,株式会社,神奈川県,海老名市,下今泉１丁目７番２号,,14,215,2430435,,,,,,,2023-05-26,1,,,,,ジカバイセンコーヒーコーヒーイン,0
1284,6021003013139,新規,0,2023-05-26,2023-05-26,イロトリドリ合同会社,,合同会社,神奈川県,相模原市緑区,下九沢２４９５番地５レモンホームＩＩＩ２０３,00130626,14,151,2520134,,,,,,,2023-05-26,1,,,,,イロトリドリ,0
1285,6021005012824,新規,0,2023-05-26,2023-05-26,特定非営利活動法人湘南国際教育,,その他の設立登記法人,神奈川県,藤沢市,羽鳥３丁目１番８号アエラス辻堂Ｃ棟２Ｆ,,14,205,2510056,,,,,,,2023-05-26,1,,,,,ショウナンコクサイキョウイク,0
1293,6030001154043,新規,0,2023-05-26,2023-05-26,ダブルトラスト株式会社,,株式会社,埼玉県,八潮市,大字南川崎５５８番地４－２階,,11,234,3400814,,,,,,,2023-05-26,1,,,,,ダブルトラスト,0
1294,6030001154101,新規,0,2023-05-26,2023-05-26,株式会社Ｇｐ‐Ａｃｔ,,株式会社,埼玉県,春日部市,谷原１丁目８番地１９,,11,214,3440065,,,,,,,2023-05-26,1,,,,,ジーピーアクト,0
1306,6050001052889,新規,0,2023-05-26,2023-05-26,Ｄ’ｖｅｒ　Ｔｒｕｓｔ株式会社,,株式会社,茨城県,つくば市,上郷１７００番地４,,08,220,3002645,,,,,,,2023-05-26,1,,,,,ディーバートラスト,0
1310,6060005010099,新規,0,2023-05-26,2023-05-26,一般社団法人千安会,,その他の設立登記法人,栃木県,鹿沼市,東町２丁目１番３６号,,09,205,3220022,,,,,,,2023-05-26,1,,,,,センアンカイ,0
1315,6080003002988,新規,0,2023-05-26,2023-05-26,合同会社しずまち,,合同会社,静岡県,静岡市葵区,七間町１７番地の１エンブルタワー七間町４０３号,,22,101,4200035,,,,,,,2023-05-26,1,,,,,シズマチ,0
1319,6110003005062,新規,0,2023-05-26,2023-05-26,合同会社ふるさと．ｃｏｍ,,合同会社,新潟県,長岡市,美沢２丁目３７－１９,,15,202,9400856,,,,,,,2023-05-26,1,,,,,フルサトドットコム,0
1330,6120001255179,新規,0,2023-05-26,2023-05-26,順通国際株式会社,,株式会社,大阪府,大阪市西区,九条南２丁目１６番１３－３階,,27,106,5500025,,,,,,,2023-05-26,1,,,,,ジュンツウコクサイ,0
1331,6120001255220,新規,0,2023-05-26,2023-05-26,株式会社Ｍ．Ｄ．Ｏ,,株式会社,大阪府,大阪市北区,天満２丁目１番１４－１００３号,,27,127,5300043,,,,,,,2023-05-26,1,,,,,エムディオー,0
1338,6120003024160,新規,0,2023-05-26,2023-05-26,合同会社Ｍｉｎ‐ａ,,合同会社,大阪府,枚方市,須山町５５番７号,,27,210,5731164,,,,,,,2023-05-26,1,,,,,ミンア,0
1340,6120901047576,新規,0,2023-05-26,2023-05-26,ＡＩＲ　ＷＯＲＫＳ株式会社,,株式会社,大阪府,高槻市,三箇牧２丁目１１１８番地１,,27,207,5690843,,,,,,,2023-05-26,1,,,,,エアワークス,0
1342,6120903004658,新規,0,2023-05-26,2023-05-26,合同会社ｇｕｌｌｙ　ｓｉｄｅ,,合同会社,大阪府,箕面市,粟生間谷東１丁目３４番７号,,27,220,5620022,,,,,,,2023-05-26,1,,,,,ゴリーサイド,0
1348,6140001130306,新規,0,2023-05-26,2023-05-26,株式会社エスジーケー,,株式会社,兵庫県,川西市,小戸２丁目６番１１号河島ビル１階,,28,217,6660014,,,,,,,2023-05-26,1,,,,,エスジーケー,0
1352,6140003019134,新規,0,2023-05-26,2023-05-26,合同会社３５８,,合同会社,兵庫県,神戸市中央区,海岸通３丁目１番１号ＫＣＣビル４Ｆ,,28,110,6500024,,,,,,,2023-05-26,1,,,,,サンゴウハチ,0
1353,6150001026420,新規,0,2023-05-26,2023-05-26,株式会社セントリク,,株式会社,奈良県,大和高田市,東中２丁目３番２４号,,29,202,6350065,,,,,,,2023-05-26,1,,,,,セントリク,0
1356,6170001017624,新規,0,2023-05-26,2023-05-26,ＳＹＮ株式会社,,株式会社,和歌山県,和歌山市,新堀東１丁目７番２０号,,30,201,6410042,,,,,,,2023-05-26,1,,,,,エスワイエヌ,0
1362,6180001156454,新規,0,2023-05-26,2023-05-26,ｗｏｒｋｓ　ｇａｒｄｅｎ株式会社,,株式会社,愛知県,名古屋市中区,伊勢山２丁目１１番１５号,,23,106,4600026,,,,,,,2023-05-26,1,,,,,ワークスガーデン,0
1365,6180003025269,新規,0,2023-05-26,2023-05-26,合同会社Ｃｈａｒｍａｎｔ,,合同会社,愛知県,東海市,名和町石塚３番地１,00130628,23,222,4760002,,,,,,,2023-05-26,1,,,,,シャルマン,0
1366,6180301037420,新規,0,2023-05-26,2023-05-26,ＶａｒｂｅｎＦｉｌｌｉ株式会社,,株式会社,愛知県,豊田市,吉原町鶴喰４０番地３,,23,211,4730916,,,,,,,2023-05-26,1,,,,,バルベンフィリ,0
1367,6180303005722,新規,0,2023-05-26,2023-05-26,合同会社わん,,合同会社,愛知県,豊田市,井上町５丁目３５番地１,,23,211,4700372,,,,,,,2023-05-26,1,,,,,ワン,0
1372,6200001041348,新規,0,2023-05-26,2023-05-26,株式会社はなとら,,株式会社,岐阜県,郡上市,白鳥町向小駄良５４３,,21,219,5015126,,,,,,,2023-05-26,1,,,,,ハナトラ,0
1382,6250001020108,新規,0,2023-05-26,2023-05-26,株式会社シェルビー,,株式会社,山口県,宇部市,大字西岐波４７１６－３,,35,202,7550151,,,,,,,2023-05-26,1,,,,,シェルビー,0
1393,6290001101647,新規,0,2023-05-26,2023-05-26,ＫＥＮ株式会社,,株式会社,福岡県,福岡市南区,井尻２丁目３１番１９－１０２号,,40,134,8111302,,,,,,,2023-05-26,1,,,,,ケン,0
1398,6290801029550,新規,0,2023-05-26,2023-05-26,株式会社ＢＬＥＳＳＥＤ　ＷＩＮ,,株式会社,福岡県,北九州市小倉北区,木町１丁目１０‐１‐１９０３,,40,106,8030851,,,,,,,2023-05-26,1,,,,,ブリィーシィドウィン,0
1399,6310001018434,新規,0,2023-05-26,2023-05-26,株式会社しんか,,株式会社,長崎県,諫早市,永昌東町１６番１８号,,42,204,8540071,,,,,,,2023-05-26,1,,,,,シンカ,0
1402,6340001025601,新規,0,2023-05-26,2023-05-26,株式会社ビジネスパートナー遊,,株式会社,鹿児島県,大島郡喜界町,大字湾５５０番地１７,,46,529,8916202,,,,,,,2023-05-26,1,,,,,ビジネスパートナーユウ,0
1405,6370003006150,新規,0,2023-05-26,2023-05-26,合同会社ＴＳＫ,,合同会社,宮城県,仙台市宮城野区,榴岡５丁目８－１８－６０４,,04,102,9830852,,,,,,,2023-05-26,1,,,,,ティーエスケイ,0
1408,6380003005465,新規,0,2023-05-26,2023-05-26,Ｒｉｏ＆Ｒｙｕ　Ｃｏｍｐａｎｙ合同会社,,合同会社,福島県,伊達郡川俣町,大綱木字大木田６８番地の３,,07,308,9601403,,,,,,,2023-05-26,1,,,,,リオアンドリュウカンパニー,0
1418,6430001089109,新規,0,2023-05-26,2023-05-26,株式会社アクアグリッド,,株式会社,北海道,室蘭市,中島町２丁目１８番１－２０７号,,01,205,0500074,,,,,,,2023-05-26,1,,,,,アクアグリッド,0
1419,6430001089216,新規,0,2023-05-26,2023-05-26,株式会社サイバコ,,株式会社,北海道,札幌市北区,北十条西４丁目１番地９,,01,102,0010010,,,,,,,2023-05-26,1,,,,,サイバコ,0
1422,6430003015087,新規,0,2023-05-26,2023-05-26,３９１０合同会社,,合同会社,北海道,勇払郡安平町,追分若草２丁目７１番地,,01,585,0591951,,,,,,,2023-05-26,1,,,,,ミクト,0
1423,6460001005797,新規,0,2023-05-26,2023-05-26,ＯＧＡＷＡ　ＣＯＭＰＡＮＹ株式会社,,株式会社,北海道,厚岸郡浜中町,暮帰別東２丁目４６番地７,,01,663,0881524,,,,,,,2023-05-26,1,,,,,オガワカンパニー,0
1427,6470003002429,新規,0,2023-05-26,2023-05-26,五代産業合同会社,,合同会社,香川県,観音寺市,坂本町７丁目７番１５号,,37,205,7680067,,,,,,,2023-05-26,1,,,,,ゴダイサンギョウ,0
1436,7010002056776,新規,0,2023-05-26,2023-05-26,有限会社サカイビル,,有限会社,東京都,千代田区,麹町２丁目１４番地１,,13,101,1020083,,,,,,,2023-05-26,1,,,,,サカイビル,0
1444,7010405022169,新規,0,2023-05-26,2023-05-26,一般財団法人ルビ財団,,その他の設立登記法人,東京都,港区,新橋２丁目５番２号,,13,103,1050004,,,,,,,2023-05-26,1,,,,,ルビザイダン,0
1446,7010503006998,新規,0,2023-05-26,2023-05-26,合同会社Ｄａｉｋｏｋｕ,,合同会社,東京都,台東区,雷門１丁目２番１０－５０４号,,13,106,1110034,,,,,,,2023-05-26,1,,,,,ダイコク,0
1447,7010505003408,新規,0,2023-05-26,2023-05-26,一般社団法人日本アルゼンチン文化交流振興会,,その他の設立登記法人,東京都,台東区,浅草１丁目２６－５,,13,106,1110032,,,,,,,2023-05-26,1,,,,,ニホンアルゼンチンブンカコウリュウシンコウカイ,0
1449,7010601063157,新規,0,2023-05-26,2023-05-26,株式会社Ｄ　ａｎｄ　Ｃｏｍｐａｎｙ,,株式会社,東京都,江東区,有明１丁目５－２、２２０９,,13,108,1350063,,,,,,,2023-05-26,1,,,,,ディーアンドカンパニー,0
1454,7010803004561,新規,0,2023-05-26,2023-05-26,合同会社オフィスムーバル,,合同会社,東京都,大田区,東矢口１丁目６番１７－１０６号,,13,111,1460094,,,,,,,2023-05-26,1,,,,,オフィスムーバル,0
1465,7011001154595,新規,0,2023-05-26,2023-05-26,株式会社ＰＧホールディングス,,株式会社,東京都,渋谷区,富ヶ谷１丁目１４番１４号４階,,13,113,1510063,,,,,,,2023-05-26,1,,,,,ピージーホールディングス,0
1466,7011001154629,新規,0,2023-05-26,2023-05-26,株式会社ｍａｉｒｕ　ｔｅｃｈ,,株式会社,東京都,渋谷区,道玄坂１丁目１６－６二葉ビル８Ｂ,,13,113,1500043,,,,,,,2023-05-26,1,,,,,マイルテック,0
1467,7011001154637,新規,0,2023-05-26,2023-05-26,エムアイ商事株式会社,,株式会社,東京都,渋谷区,本町２丁目３２番１号２０１号室,,13,113,1510071,,,,,,,2023-05-26,1,,,,,エムアイショウジ,0
1468,7011001154645,新規,0,2023-05-26,2023-05-26,株式会社ＯＫＡＭＵＲＡ,,株式会社,東京都,渋谷区,恵比寿西２丁目６番１４号,,13,113,1500021,,,,,,,2023-05-26,1,,,,,,0
1469,7011001154653,新規,0,2023-05-26,2023-05-26,株式会社Ｓｔａｇｅ６ｉｘ,,株式会社,東京都,渋谷区,神宮前６丁目２３番４号桑野ビル２階,,13,113,1500001,,,,,,,2023-05-26,1,,,,,ステージシックス,0
1472,7011303004770,新規,0,2023-05-26,2023-05-26,合同会社サンテリエ,,合同会社,東京都,杉並区,和泉３丁目７－１,,13,115,1680063,,,,,,,2023-05-26,1,,,,,サンテリエ,0
1473,7011501029339,新規,0,2023-05-26,2023-05-26,株式会社リライト,,株式会社,東京都,北区,滝野川７丁目４５番２号,,13,117,1140023,,,,,,,2023-05-26,1,,,,,リライト,0
1480,7012401040567,新規,0,2023-05-26,2023-05-26,ＰＥＴＳ　ＢＯＮＤ株式会社,,株式会社,東京都,府中市,八幡町１丁目１１番地の２８プレシス府中１２０２,,13,206,1830016,,,,,,,2023-05-26,1,,,,,ペッツボンド,0
1482,7012701017661,新規,0,2023-05-26,2023-05-26,株式会社星洛,,株式会社,東京都,西東京市,富士町４丁目１９番７－２０２号,,13,229,2020014,,,,,,,2023-05-26,1,,,,,ホシラク,0
1500,7030001154091,新規,0,2023-05-26,2023-05-26,株式会社７５８,,株式会社,埼玉県,本庄市,若泉１丁目７－５キャッスル本庄弐番館５０７号,,11,211,3670055,,,,,,,2023-05-26,1,,,,,ナナゴウハチ,0
1512,7040001128549,新規,0,2023-05-26,2023-05-26,Ｓ．Ｋトレーディング株式会社,,株式会社,千葉県,野田市,木間ケ瀬４６４４番地,,12,208,2700222,,,,,,,2023-05-26,1,,,,,エスケートレーディング,0
1515,7050003007535,新規,0,2023-05-26,2023-05-26,合同会社松原電設,,合同会社,茨城県,古河市,東２丁目８番２２号,,08,204,3060011,,,,,,,2023-05-26,1,,,,,マツバラデンセツ,0
1517,7060001036031,新規,0,2023-05-26,2023-05-26,ＲＲ　ＪＡＰＡＮ株式会社,,株式会社,栃木県,小山市,大字中久喜１６７３番地１,,09,208,3230806,,,,,,,2023-05-26,1,,,,,アールアールジャパン,0
1525,7090003002318,新規,0,2023-05-26,2023-05-26,合同会社Ｋｈｉｓｈ　ｔｈｅ　Ｗｏｒｋ,,合同会社,山梨県,北杜市,大泉町西井出７２１５‐３,,19,209,4091501,,,,,,,2023-05-26,1,,,,,キッシュザワーク,0
1544,7120001255203,新規,0,2023-05-26,2023-05-26,海雲株式会社,,株式会社,大阪府,大阪市中央区,東心斎橋１丁目３番５－２０３号,,27,128,5420083,,,,,,,2023-05-26,1,,,,,カイウン,0
1545,7120001255228,新規,0,2023-05-26,2023-05-26,株式会社タイキホールディングス,,株式会社,大阪府,大阪市都島区,都島北通１丁目２番１６号,,27,102,5340014,,,,,,,2023-05-26,1,,,,,タイキホールディングス,0
1546,7120001255260,新規,0,2023-05-26,2023-05-26,ＷｏｒｋＨｉｖｅ株式会社,,株式会社,大阪府,大阪市中央区,久太郎町４丁目１－３大阪センタービル６Ｆ－２３２,,27,128,5410056,,,,,,,2023-05-26,1,,,,,ワークハイブ,0
1553,7120003024127,新規,0,2023-05-26,2023-05-26,士心合同会社,,合同会社,大阪府,大阪市淀川区,十三本町１丁目１８番８－９０２号,,27,123,5320024,,,,,,,2023-05-26,1,,,,,シシン,0
1554,7120003024151,新規,0,2023-05-26,2023-05-26,合同会社ゆきのやど,,合同会社,大阪府,大阪市北区,梅田１丁目２番２号,,27,127,5300001,,,,,,,2023-05-26,1,,,,,ユキノヤド,0
1555,7120005023639,新規,0,2023-05-26,2023-05-26,行政書士法人オルビー,,その他の設立登記法人,大阪府,大阪市城東区,古市３丁目１２番７号,,27,118,5360001,,,,,,,2023-05-26,1,,,,,オルビー,0
1557,7120101067606,新規,0,2023-05-26,2023-05-26,スマートスペースＳＩ株式会社,,株式会社,大阪府,堺市美原区,太井３３０番地,,27,147,5870062,,,,,,,2023-05-26,1,,,,,スマートスペースエスアイ,0
1562,7122001036995,新規,0,2023-05-26,2023-05-26,株式会社レジェンド,,株式会社,大阪府,東大阪市,足代３丁目１２番５号,,27,227,5770841,,,,,,,2023-05-26,1,,,,,レジェンド,0
1566,7130001074395,新規,0,2023-05-26,2023-05-26,株式会社ＬＧＫ,,株式会社,京都府,京都市中京区,下樵木町２０３－５田中ビル２Ｆ,,26,104,6048016,,,,,,,2023-05-26,1,,,,,エルジーケー,0
1567,7130003008756,新規,0,2023-05-26,2023-05-26,合同会社ＬＩＶｅ　Ｇｏｊｕ,,合同会社,京都府,京都市東山区,轆轤町１１０番地１５,,26,105,6050813,,,,,,,2023-05-26,1,,,,,ライブゴジュ,0
1573,7140003019133,新規,0,2023-05-26,2023-05-26,合同会社ＫＳ商会,,合同会社,兵庫県,神戸市西区,平野町福中２１２番地,,28,111,6512252,,,,,,,2023-05-26,1,,,,,ケイエスショウカイ,0
1574,7140005026631,新規,0,2023-05-26,2023-05-26,一般社団法人ジョイナス,,その他の設立登記法人,兵庫県,姫路市,呉服町４８番地ハトヤ第一ビル５階,,28,201,6700923,,,,,,,2023-05-26,1,,,,,ジョイナス,0
1576,7160001025065,新規,0,2023-05-26,2023-05-26,株式会社湖国商会,,株式会社,滋賀県,栗東市,荒張７０４番地１,,25,208,5203003,,,,,,,2023-05-26,1,,,,,ココクショウカイ,0
1579,7170001017623,新規,0,2023-05-26,2023-05-26,株式会社アイコンサルティング,,株式会社,和歌山県,田辺市,新庄町１９９３番地の１、１Ｆ,,30,206,6460011,,,,,,,2023-05-26,1,,,,,アイコンサルティング,0
1584,7180001156453,新規,0,2023-05-26,2023-05-26,株式会社ＭＶＰＧ,,株式会社,愛知県,名古屋市瑞穂区,瑞穂通１丁目６番地の１エスポア瑞穂９０５号,,23,108,4670806,,,,,,,2023-05-26,1,,,,,エムブイピージー,0
1589,7180005020226,新規,0,2023-05-26,2023-05-26,行政書士法人ロジエンス,,その他の設立登記法人,愛知県,名古屋市守山区,小幡南２丁目１４番地１７号グランコンフォール５階,,23,113,4630048,,,,,,,2023-05-26,1,,,,,ロジエンス,0
1590,7190001030434,新規,0,2023-05-26,2023-05-26,株式会社フレックス,,株式会社,三重県,名張市,瀬古口５１７番地３,,24,208,5180445,,,,,,,2023-05-26,1,,,,,フレックス,0
1594,7200001041347,新規,0,2023-05-26,2023-05-26,株式会社Ｃｒｏｓｓ,,株式会社,岐阜県,各務原市,鵜沼三ツ池町２丁目６７番地,,21,213,5090146,,,,,,,2023-05-26,1,,,,,クロス,0
1601,7230005009305,新規,0,2023-05-26,2023-05-26,一般社団法人恩の集,,その他の設立登記法人,富山県,富山市,中島４丁目２番１４号,,16,201,9300801,,,,,,,2023-05-26,1,,,,,オンノツドイ,0
1606,7260001037983,新規,0,2023-05-26,2023-05-26,転生ガラス株式会社,,株式会社,岡山県,新見市,高尾２４８４番地１３,,33,210,7180003,,,,,,,2023-05-26,1,,,,,テンセイガラス,0
1614,7290001101654,新規,0,2023-05-26,2023-05-26,株式会社Ｂｌｏｏｏｍｉｎｇ,,株式会社,福岡県,福岡市中央区,警固２丁目１番１５－２０１号,,40,133,8100023,,,,,,,2023-05-26,1,,,,,ブルーミング,0
1624,7350001018371,新規,0,2023-05-26,2023-05-26,株式会社ＡＲＣＡＴＨ,,株式会社,宮崎県,宮崎市,永楽町１２６番地６レーベンハイム２０２号,,45,201,8800872,,,,,,,2023-05-26,1,,,,,アルカス,0
1626,7350003004353,新規,0,2023-05-26,2023-05-26,合同会社ＡＬＩＣＥＬＬ　ＴＲＩＮＩＴＹ,,合同会社,宮崎県,宮崎市,神宮西２丁目２７８番地１ナチュラルタウン１－４０１,,45,201,8800033,,,,,,,2023-05-26,1,,,,,アリセルトリニティ,0
1628,7360003012982,新規,0,2023-05-26,2023-05-26,合同会社Ｃｏｍｏｌａｂｏ,,合同会社,沖縄県,島尻郡南風原町,字照屋３０３仲里ビル１０２,,47,350,9011116,,,,,,,2023-05-26,1,,,,,コモラボ,0
1629,7360003012999,新規,0,2023-05-26,2023-05-26,合同会社大航水産,,合同会社,沖縄県,宮古島市,平良字西仲宗根２６８番地和ハイツ１Ｆ奥,,47,214,9060006,,,,,,,2023-05-26,1,,,,,ダイコウスイサン,0
1637,7380001033723,新規,0,2023-05-26,2023-05-26,株式会社ＫＨＳ,,株式会社,福島県,いわき市,山田町塙沢１４９番地の６,,07,204,9748241,,,,,,,2023-05-26,1,,,,,ケーエイチエス,0
1640,7380005012715,新規,0,2023-05-26,2023-05-26,一般社団法人ちいさなかご,,その他の設立登記法人,福島県,福島市,北町４番５号北町ＤＡＮビル４Ｆ,,07,201,9608102,,,,,,,2023-05-26,1,,,,,チイサナカゴ,0
1649,7430001089215,新規,0,2023-05-26,2023-05-26,株式会社Ｇ．Ａ,,株式会社,北海道,札幌市東区,北四十三条東６丁目２番１１号,,01,103,0070843,,,,,,,2023-05-26,1,,,,,グーテアカツカヤクヒン,0
1650,7430001089223,新規,0,2023-05-26,2023-05-26,斎藤ハウス株式会社,,株式会社,北海道,室蘭市,日の出町１丁目２１－３,,01,205,0500081,,,,,,,2023-05-26,1,,,,,サイトウハウス,0
1654,7430003015086,新規,0,2023-05-26,2023-05-26,合同会社ｍｅｔｉｃｕｌｏｕｓサービス,,合同会社,北海道,札幌市東区,北丘珠三条１丁目１３番８号,,01,103,0070883,,,,,,,2023-05-26,1,,,,,マテキュラスサービス,0
1656,7470001019622,新規,0,2023-05-26,2023-05-26,Ｄ＆Ｒインターナショナルサービス株式会社,,株式会社,香川県,高松市,香南町吉光１３７番地１１,,37,201,7611403,,,,,,,2023-05-26,1,,,,,ディーアンドアールインターナショナルサービス,0
1661,7500001024949,新規,0,2023-05-26,2023-05-26,株式会社ＳＡＳＡＥＲＵ,,株式会社,愛媛県,伊予市,米湊３２３番地１,,38,210,7993113,,,,,,,2023-05-26,1,,,,,ササエル,0
1668,8010001235586,新規,0,2023-05-26,2023-05-26,株式会社ブランドＫ,,株式会社,東京都,千代田区,岩本町３丁目４番１１号ＶＡＩＮＱＵＥＵＲｉｗａｍｏｔｏｃｈｏ９０１号,,13,101,1010032,,,,,,,2023-05-26,1,,,,,ブランドケー,0
1669,8010001235611,新規,0,2023-05-26,2023-05-26,樟建築顧問株式会社,,株式会社,東京都,千代田区,神田淡路町１丁目１７デュオスカーラ御茶ノ水ＩＩ４１０号,00130630,13,101,1010063,,,,,,,2023-05-26,1,,,,,クスノキケンチクコモン,0
1670,8010001235628,新規,0,2023-05-26,2023-05-26,株式会社ＦＭＩフィットネス,,株式会社,東京都,千代田区,神田三崎町３丁目１０番２１－２０２号,,13,101,1010061,,,,,,,2023-05-26,1,,,,,エフエムアイフィットネス,0
1689,8010403030107,新規,0,2023-05-26,2023-05-26,合同会社西五反田プロパティ,,合同会社,東京都,港区,西新橋１丁目２番９号メンターキャピタル税理士法人内,,13,103,1050003,,,,,,,2023-05-26,1,,,,,ニシゴタンダプロパティ,0
1691,8010405022127,新規,0,2023-05-26,2023-05-26,一般社団法人ウーマンエンパワメント協会,,その他の設立登記法人,東京都,港区,麻布十番１丁目２番７号ラフィネ麻布十番７０１号室,,13,103,1060045,,,,,,,2023-05-26,1,,,,,ウーマンエンパワメントキョウカイ,0
1693,8010501050510,新規,0,2023-05-26,2023-05-26,株式会社ハートツアー,,株式会社,東京都,台東区,浅草１丁目１－１２第一屋ビル２Ｆ,,13,106,1110032,,,,,,,2023-05-26,1,,,,,ハートツアー,0
1696,8010601063164,新規,0,2023-05-26,2023-05-26,株式会社プラスワン,,株式会社,東京都,江東区,豊洲６丁目２番３１－２６１３号,,13,108,1350061,,,,,,,2023-05-26,1,,,,,プラスワン,0
1700,8010703006707,新規,0,2023-05-26,2023-05-26,クラフト醸造機械合同会社,,合同会社,東京都,品川区,西五反田８丁目１２－２アール五反田７Ａ,,13,109,1410031,,,,,,,2023-05-26,1,,,,,クラフトジョウゾウキカイ,0
1701,8010801033999,新規,0,2023-05-26,2023-05-26,株式会社ＩｎｆｌｕｅｎｃｅＭａｒｓ,,株式会社,東京都,大田区,東雪谷１丁目１２番２号フィオーレ雪谷,,13,111,1450065,,,,,,,2023-05-26,1,,,,,インフルエンスマーズ,0
1709,8011001154537,新規,0,2023-05-26,2023-05-26,アシュラスメディカル株式会社,,株式会社,東京都,渋谷区,道玄坂１丁目１０番８号渋谷道玄坂東急ビル２Ｆ－Ｃ,,13,113,1500043,,,,,,,2023-05-26,1,,,,,アシュラスメディカル,0
1710,8011001154611,新規,0,2023-05-26,2023-05-26,株式会社フラクシー,,株式会社,東京都,渋谷区,神宮前６丁目２３番４号桑野ビル２階,,13,113,1500001,,,,,,,2023-05-26,1,,,,,フラクシー,0
1711,8011001154636,新規,0,2023-05-26,2023-05-26,ワープス株式会社,,株式会社,東京都,渋谷区,道玄坂１丁目１０番８号渋谷道玄坂東急ビル２Ｆ－Ｃ,,13,113,1500043,,,,,,,2023-05-26,1,,,,,ワープス,0
1712,8011001154669,新規,0,2023-05-26,2023-05-26,株式会社Ｎｏｎｔｉｔｌｅ,,株式会社,東京都,渋谷区,神宮前６丁目２３番４号,,13,113,1500001,,,,,,,2023-05-26,1,,,,,ノンタイトル,0
1719,8011101102916,新規,0,2023-05-26,2023-05-26,株式会社アクシデント,,株式会社,東京都,新宿区,歌舞伎町２丁目２９番１号,,13,104,1600021,,,,,,,2023-05-26,1,,,,,アクシデント,0
1720,8011101103014,新規,0,2023-05-26,2023-05-26,株式会社ブラックレリック,,株式会社,東京都,新宿区,高田馬場１丁目３１番８号高田馬場ダイカンプラザ６１３号,,13,104,1690075,,,,,,,2023-05-26,1,,,,,ブラックレリック,0
1729,8011501029346,新規,0,2023-05-26,2023-05-26,株式会社田村畳店,,株式会社,東京都,北区,浮間１丁目７番３号,,13,117,1150051,,,,,,,2023-05-26,1,,,,,タムラタタミテン,0
1749,8020003023963,新規,0,2023-05-26,2023-05-26,Ｃｏｓｍｏ　Ｌｉｆｅ　Ａｉｄ合同会社,,合同会社,神奈川県,川崎市高津区,蟹ケ谷５９番地シーズガーデン日吉３０５,,14,134,2130025,,,,,,,2023-05-26,1,,,,,コスモライフエイド,0
1752,8021003013120,新規,0,2023-05-26,2023-05-26,合同会社ＫＵＫＵＮＡ,,合同会社,神奈川県,小田原市,曽比１５７４番地の２,,14,206,2500851,,,,,,,2023-05-26,1,,,,,ククナ,0
1753,8021003013137,新規,0,2023-05-26,2023-05-26,合同会社Ａｇｒｉ‐Ｃａｐａｃｉｔｙ＆Ｍｏｔｉｖａｔｉｏｎ,,合同会社,神奈川県,藤沢市,羽鳥１丁目１番１号,,14,205,2510056,,,,,,,2023-05-26,1,,,,,アグリキャパシティアンドモチベーション,0
1754,8021005012822,新規,0,2023-05-26,2023-05-26,特定非営利活動法人横須賀ＩＯＭスポーツクラブ,,その他の設立登記法人,神奈川県,横須賀市,池上５丁目１４番２９号,,14,201,2380035,,,,,,,2023-05-26,1,,,,,ヨコスカアイオーエムスポーツクラブ,0
1760,8030001154090,新規,0,2023-05-26,2023-05-26,ＵｎｉｆｙＸ株式会社,,株式会社,埼玉県,所沢市,元町２２番１０－７０１号クレアシティ所沢,,11,208,3591121,,,,,,,2023-05-26,1,,,,,ユニファイエックス,0
1766,8030005021279,新規,0,2023-05-26,2023-05-26,一般社団法人ブルージュ,,その他の設立登記法人,埼玉県,川口市,飯塚１丁目３番２６－２０１号,,11,203,3320023,,,,,,,2023-05-26,1,,,,,ブルージュ,0
1768,8040001128548,新規,0,2023-05-26,2023-05-26,日本信和株式会社,,株式会社,千葉県,千葉市中央区,中央１丁目１０番１０号シャンボール第２千葉中央４０２号室,,12,101,2600013,,,,,,,2023-05-26,1,,,,,ニホンシンワ,0
1769,8040001128564,新規,0,2023-05-26,2023-05-26,ＭＪＳ　ＡＳＳＥＴＭＡＮＡＧＥＭＥＮＴ株式会社,,株式会社,千葉県,浦安市,富士見３丁目１３－２５,,12,227,2790043,,,,,,,2023-05-26,1,,,,,エムジェイエスアセットマネジメント,0
1774,8040005022012,新規,0,2023-05-26,2023-05-26,一般社団法人千葉心電学研究会,,その他の設立登記法人,千葉県,千葉市中央区,亥鼻１丁目８番１号千葉大学大学院医学研究院医学系総合研究棟７階７３０室,,12,101,2600856,,,,,,,2023-05-26,1,,,,,チバシンデンガクケンキュウカイ,0
1784,8070001040485,新規,0,2023-05-26,2023-05-26,株式会社ハギデン,,株式会社,群馬県,沼田市,高橋場町２０５９番地３９,,10,206,3780056,,,,,,,2023-05-26,1,,,,,ハギデン,0
1785,8080101024032,新規,0,2023-05-26,2023-05-26,Ｓｕｎ　Ｓｔｏｃｋ　Ｊａｐａｎ株式会社,,株式会社,静岡県,富士市,松岡１８０５番地の２４,,22,210,4160909,,,,,,,2023-05-26,1,,,,,サンストックジャパン,0
1790,8100001036447,新規,0,2023-05-26,2023-05-26,株式会社ＡＲＣＡＤＩＡ,,株式会社,長野県,安曇野市,堀金三田８１６番地６,,20,220,3998212,,,,,,,2023-05-26,1,,,,,アルカディア,0
1794,8110003005060,新規,0,2023-05-26,2023-05-26,合同会社ブレインテック,,合同会社,新潟県,長岡市,四郎丸４丁目２番２３号,,15,202,9400046,,,,,,,2023-05-26,1,,,,,ブレインテック,0
1804,8120001255103,新規,0,2023-05-26,2023-05-26,ＣＮＴ株式会社,,株式会社,大阪府,大阪市北区,曾根崎２丁目１５番１６－３４０７号,,27,127,5300057,,,,,,,2023-05-26,1,,,,,シーエヌティー,0
1805,8120001255128,新規,0,2023-05-26,2023-05-26,ＨＫ商事株式会社,,株式会社,大阪府,大阪市中央区,高津３丁目１０番９号,,27,128,5420072,,,,,,,2023-05-26,1,,,,,エイチケーショウジ,0
1806,8120001255219,新規,0,2023-05-26,2023-05-26,ＪＡＣＫＳ株式会社,,株式会社,大阪府,大阪市北区,梅田１丁目２番２号大阪駅前第２ビル１２－１２,,27,127,5300001,,,,,,,2023-05-26,1,,,,,ジャックス,0
1807,8120001255227,新規,0,2023-05-26,2023-05-26,株式会社山腰商店,,株式会社,大阪府,大阪市天王寺区,堂ケ芝１丁目１０番３号,,27,109,5430033,,,,,,,2023-05-26,1,,,,,ヤマコシショウテン,0
1808,8120001255235,新規,0,2023-05-26,2023-05-26,株式会社みおつくし総研,,株式会社,大阪府,大阪市東成区,中本５丁目１１番２１号,,27,115,5370022,,,,,,,2023-05-26,1,,,,,ミオツクシソウケン,0
1811,8120003024159,新規,0,2023-05-26,2023-05-26,Ｊ．Ｒｅｍｙ合同会社,,合同会社,大阪府,大阪市北区,梅田１丁目１１番４－１０００号,,27,127,5300001,,,,,,,2023-05-26,1,,,,,ジェイレミー,0
1816,8120103005216,新規,0,2023-05-26,2023-05-26,合同会社アルカンシエル,,合同会社,大阪府,松原市,新堂３丁目２９３番地の１（Ａ棟２０１号）,,27,217,5800015,,,,,,,2023-05-26,1,,,,,アルカンシエル,0
1825,8130001074378,新規,0,2023-05-26,2023-05-26,株式会社キクロ,,株式会社,京都府,八幡市,上津屋八王子５３番地,,26,210,6148174,,,,,,,2023-05-26,1,,,,,キクロ,0
1826,8130001074394,新規,0,2023-05-26,2023-05-26,ファームアシスト株式会社,,株式会社,京都府,亀岡市,南つつじケ丘大葉台１丁目１２番４号,,26,206,6210846,,,,,,,2023-05-26,1,,,,,ファームアシスト,0
1829,8130003008755,新規,0,2023-05-26,2023-05-26,Ｉｃｃｈｉ合同会社,,合同会社,京都府,京田辺市,山手東２丁目５番地１ファインパークＡ３０７,,26,211,6100357,,,,,,,2023-05-26,1,,,,,イッチ,0
1832,8140001130295,新規,0,2023-05-26,2023-05-26,株式会社さくらい,,株式会社,兵庫県,西宮市,平木町１１番１２号,,28,204,6620835,,,,,,,2023-05-26,1,,,,,サクライ,0
1833,8140001130304,新規,0,2023-05-26,2023-05-26,株式会社Ｍ＆Ｍ　ＫＯＢＥ,,株式会社,兵庫県,神戸市灘区,六甲山町北六甲４５１２番地６８６,,28,102,6570101,,,,,,,2023-05-26,1,,,,,エムアンドエムコウベ,0
1834,8160001025064,新規,0,2023-05-26,2023-05-26,株式会社ネットワーク農場,,株式会社,滋賀県,野洲市,堤字伊庭ノ前２７１１番地,,25,210,5202416,,,,,,,2023-05-26,1,,,,,ネットワークノウジョウ,0
1844,8180001156436,新規,0,2023-05-26,2023-05-26,ＯＦＦＩＣＥ３ＫＡＫＵ株式会社,,株式会社,愛知県,一宮市,瀬部字中島１５,,23,203,4910001,,,,,,,2023-05-26,1,,,,,オフィスサンカク,0
1845,8180001156469,新規,0,2023-05-26,2023-05-26,なのはなライフ株式会社,,株式会社,愛知県,名古屋市東区,葵３丁目２２番５号,,23,102,4610004,,,,,,,2023-05-26,1,,,,,ナノハナライフ,0
1846,8180001156485,新規,0,2023-05-26,2023-05-26,株式会社ＳＲ,,株式会社,愛知県,名古屋市中区,錦３丁目１４番４号,,23,106,4600003,,,,,,,2023-05-26,1,,,,,エスアール,0
1848,8180003025267,新規,0,2023-05-26,2023-05-26,合同会社ＩＲＡＧＯ　ＤＲＯＮＥ,,合同会社,愛知県,半田市,北二ッ坂町二丁目１３番地１７－５０７,,23,205,4750000,,,,,,,2023-05-26,1,,,,,イラゴドローン,0
1849,8180003025275,新規,0,2023-05-26,2023-05-26,ネクストブリッジ・インターナショナル合同会社,,合同会社,愛知県,瀬戸市,東権現町５３番地の３レインボーティアラ瀬戸４１２,,23,204,4890883,,,,,,,2023-05-26,1,,,,,ネクストブリッジインターナショナル,0
1855,8210003001652,新規,0,2023-05-26,2023-05-26,エンタープライズ合同会社,,合同会社,福井県,敦賀市,新道５１－３－２,,18,202,9140317,,,,,,,2023-05-26,1,,,,,エンタープライズ,0
1864,8260001037982,新規,0,2023-05-26,2023-05-26,ＡＳＡＤＡ株式会社,,株式会社,岡山県,高梁市,成羽町吹屋３００番地,,33,209,7192341,,,,,,,2023-05-26,1,,,,,アサダ,0
1873,8290001101604,新規,0,2023-05-26,2023-05-26,株式会社楽描,,株式会社,福岡県,福岡市中央区,渡辺通５丁目２４番１号第２５天神南ｉｒ．ｂｌｄ３０２,,40,133,8100004,,,,,,,2023-05-26,1,,,,,ラクガキ,0
1874,8290001101637,新規,0,2023-05-26,2023-05-26,株式会社ｍｉｃｏｔｏ　ｌｉｆｅｄｅｓｉｇｎ,,株式会社,福岡県,福岡市中央区,大手門３丁目１４番２７号ラフォーレ大濠パークアベニュー６０４,,40,133,8100074,,,,,,,2023-05-26,1,,,,,ミコトライフデザイン,0
1876,8290003013946,新規,0,2023-05-26,2023-05-26,合同会社ファースト,,合同会社,福岡県,福岡市博多区,美野島３丁目６番１７－３０３号,,40,132,8120017,,,,,,,2023-05-26,1,,,,,ファースト,0
1877,8290003013962,新規,0,2023-05-26,2023-05-26,合同会社ＫＯＴＯＲＩ通信,,合同会社,福岡県,糟屋郡志免町,南里６丁目７－８,,40,343,8112207,,,,,,,2023-05-26,1,,,,,コトリツウシン,0
1882,8330003009857,新規,0,2023-05-26,2023-05-26,合同会社政真会,,合同会社,熊本県,熊本市西区,春日４丁目２０番９号,,43,103,8600047,,,,,,,2023-05-26,1,,,,,セイシンカイ,0
1883,8340003004130,新規,0,2023-05-26,2023-05-26,合同会社屋久島人,,合同会社,鹿児島県,熊毛郡屋久島町,志戸子１０４番地,,46,505,8914204,,,,,,,2023-05-26,1,,,,,ヤクシマンチュ,0
1885,8350003004360,新規,0,2023-05-26,2023-05-26,ゼロイチ合同会社,,合同会社,宮崎県,延岡市,幸町３丁目１０１番地延岡駅西口街区ビル２階コワーキングスペース内,,45,203,8820053,,,,,,,2023-05-26,1,,,,,ゼロイチ,0
1886,8360001032065,新規,0,2023-05-26,2023-05-26,ＫＩＮＡＬＩ株式会社,,株式会社,沖縄県,那覇市,前島３丁目１６番２－７０３号,,47,201,9000016,,,,,,,2023-05-26,1,,,,,キナリ,0
1887,8360003012882,新規,0,2023-05-26,2023-05-26,てらべる合同会社,,合同会社,沖縄県,石垣市,字川平１０３３－５４,,47,207,9070453,,,,,,,2023-05-26,1,,,,,テラベル,0
1891,8370001050009,新規,0,2023-05-26,2023-05-26,ＭＤＲ株式会社,,株式会社,宮城県,東松島市,矢本字穴尻１０７番地,,04,214,9810503,,,,,,,2023-05-26,1,,,,,エムディーアール,0
1898,8430001089206,新規,0,2023-05-26,2023-05-26,Ｃａｓａ株式会社,,株式会社,北海道,岩見沢市,六条西８丁目１番１,,01,210,0680026,,,,,,,2023-05-26,1,,,,,カーサ,0
1899,8430001089214,新規,0,2023-05-26,2023-05-26,株式会社いちテック,,株式会社,北海道,札幌市北区,篠路町上篠路２６３番地２９,,01,102,0028052,,,,,,,2023-05-26,1,,,,,イチテック,0
1902,8430003015085,新規,0,2023-05-26,2023-05-26,合同会社ＭＭＡコンサル,,合同会社,北海道,北広島市,高台町４丁目７番地１０,,01,234,0611146,,,,,,,2023-05-26,1,,,,,エムエムエーコンサル,0
1916,9010001235610,新規,0,2023-05-26,2023-05-26,株式会社ミル,,株式会社,東京都,文京区,本駒込３丁目１番５号オープンレジデンシア文京本駒込９０１,,13,105,1130021,,,,,,,2023-05-26,1,,,,,ミル,0
1917,9010001235619,新規,0,2023-05-26,2023-05-26,株式会社エフユー,,株式会社,東京都,千代田区,神田錦町３丁目１８寿ビル７階,,13,101,1010054,,,,,,,2023-05-26,1,,,,,エフユー,0
1925,9010003040694,新規,0,2023-05-26,2023-05-26,Ｊａｐａｎ　Ｉｍｍｉｇｒａｔｉｏｎ　Ｃｏｎｓｕｌｔａｎｔｓ合同会社,,合同会社,東京都,中央区,銀座７丁目１３番６号サガミビル２階,,13,102,1040061,,,,,,,2023-05-26,1,,,,,ジャパンイミグレーションコンサルタンツ,0
1926,9010003040703,新規,0,2023-05-26,2023-05-26,合同会社ＲＩＳＥＳ,,合同会社,東京都,中央区,銀座１丁目２２番１１号銀座大竹ビジデンス２Ｆ,,13,102,1040061,,,,,,,2023-05-26,1,,,,,ライジス,0
1929,9010005036749,新規,0,2023-05-26,2023-05-26,一般社団法人銀河第７号,,その他の設立登記法人,東京都,中央区,日本橋１丁目４番１号日本橋一丁目ビルディング,,13,102,1030027,,,,,,,2023-05-26,1,,,,,ギンガダイナナゴウ,0
1936,9010401174581,新規,0,2023-05-26,2023-05-26,東晟科技株式会社,,株式会社,東京都,港区,港南２丁目１５－１品川インターシティＡ棟２８階,,13,103,1080075,,,,,,,2023-05-26,1,,,,,トウセイカギ,0
1940,9010403030196,新規,0,2023-05-26,2023-05-26,Ｙｏｙｏｇｉ　Ｏｆｆｉｃｅ　ＰＳ合同会社,,合同会社,東京都,港区,六本木１丁目９番１０号アークヒルズ仙石山森タワー４０階,,13,103,1060032,,,,,,,2023-05-26,1,,,,,ヨヨギオフィスピーエス,0
1941,9010405022134,新規,0,2023-05-26,2023-05-26,一般社団法人フセ,,その他の設立登記法人,東京都,港区,六本木４丁目３番１１－３１９号,,13,103,1060032,,,,,,,2023-05-26,1,,,,,フセ,0
1947,9010501050501,新規,0,2023-05-26,2023-05-26,香港グルメ工房株式会社,,株式会社,東京都,台東区,上野５丁目１２－９第三江波戸ビル５０２,,13,106,1100005,,,,,,,2023-05-26,1,,,,,ホンコングルメコウボウ,0
1965,9011003016890,新規,0,2023-05-26,2023-05-26,ＨＥＭＰ　ＴＥＣＨ　ＩＮＤＵＳＴＲＹ　ＪＡＰＡＮ合同会社,,合同会社,東京都,渋谷区,代々木５丁目２９番７号,,13,113,1510053,,,,,,,2023-05-26,1,,,,,ヘンプテックインダストリージャパン,0
1966,9011003016899,新規,0,2023-05-26,2023-05-26,ＧｅｎｉｅＷｏｒｋｓ合同会社,,合同会社,東京都,渋谷区,渋谷１丁目２３－２１渋谷キャスト１３０８,,13,113,1500002,,,,,,,2023-05-26,1,,,,,ジーニーワークス,0
1971,9011101103005,新規,0,2023-05-26,2023-05-26,株式会社ＫｅｙＭｅｄｉａ,,株式会社,東京都,新宿区,西新宿３丁目３番１３号西新宿水間ビル２Ｆ,,13,104,1600023,,,,,,,2023-05-26,1,,,,,キーメディア,0
1973,9011103013078,新規,0,2023-05-26,2023-05-26,合同会社西大井,,合同会社,東京都,新宿区,若宮町１７番地,,13,104,1620827,,,,,,,2023-05-26,1,,,,,ニシオオイ,0
1974,9011301028737,新規,0,2023-05-26,2023-05-26,株式会社天岩戸の光,,株式会社,東京都,杉並区,浜田山４丁目５番１８号,,13,115,1680065,,,,,,,2023-05-26,1,,,,,アマノイワトノヒカリ,0
1975,9011303004769,新規,0,2023-05-26,2023-05-26,レスキス合同会社,,合同会社,東京都,杉並区,天沼３丁目１７番１７号,,13,115,1670032,,,,,,,2023-05-26,1,,,,,レスキス,0
1979,9011501029345,新規,0,2023-05-26,2023-05-26,株式会社ライフ・デコール,,株式会社,東京都,荒川区,東日暮里５丁目４２番１０号,,13,118,1160014,,,,,,,2023-05-26,1,,,,,ライフデコール,0
1985,9011603003933,新規,0,2023-05-26,2023-05-26,ホワイトキャンバス合同会社,,合同会社,東京都,練馬区,貫井４丁目１３－３,,13,120,1760021,,,,,,,2023-05-26,1,,,,,ホワイトキャンバス,0
1988,9011801042469,新規,0,2023-05-26,2023-05-26,株式会社一心志,,株式会社,東京都,葛飾区,奥戸６丁目１７番６－２１２号,,13,122,1240022,,,,,,,2023-05-26,1,,,,,イッシンシャ,0
1989,9011803005663,新規,0,2023-05-26,2023-05-26,合同会社トリコ,,合同会社,東京都,足立区,伊興５丁目９番１９号チュリス竹の塚ＩＩＤ,00130631,13,121,1210823,,,,,,,2023-05-26,1,,,,,トリコ,0
1990,9012401040549,新規,0,2023-05-26,2023-05-26,セーフティドライバーズ株式会社,,株式会社,東京都,調布市,西つつじケ丘３丁目２６番７号アーバンフラッツＭＡ２０３,,13,208,1820006,,,,,,,2023-05-26,1,,,,,セーフティドライバーズ,0
1993,9012403005987,新規,0,2023-05-26,2023-05-26,Ｍ．２合同会社,,合同会社,東京都,調布市,深大寺東町５丁目２９－４９,,13,208,1820012,,,,,,,2023-05-26,1,,,,,エムドットツー,0
1994,9012801022378,新規,0,2023-05-26,2023-05-26,株式会社ＯＶＡＬ,,株式会社,東京都,立川市,富士見町７丁目３７番２２号ふじみビル４０１号,,13,202,1900013,,,,,,,2023-05-26,1,,,,,オーバル,0
1995,9012803003087,新規,0,2023-05-26,2023-05-26,合同会社ｎｏｎ’ｓ,,合同会社,東京都,立川市,砂川町８丁目３６－３ル・モンヴェール１０６,,13,202,1900031,,,,,,,2023-05-26,1,,,,,ノンス,0
2001,9013301050836,新規,0,2023-05-26,2023-05-26,金櫻インターナショナル株式会社,,株式会社,東京都,豊島区,巣鴨４丁目１３－１９Ｗｉｓｅｒ巣鴨ビル１Ｆ,,13,116,1700002,,,,,,,2023-05-26,1,,,,,カナザクラインターナショナル,0
2002,9013303006638,新規,0,2023-05-26,2023-05-26,合同会社風曜日,,合同会社,東京都,豊島区,南大塚２丁目３２番８号,,13,116,1700005,,,,,,,2023-05-26,1,,,,,カゼヨウビ,0
2013,9020001151781,新規,0,2023-05-26,2023-05-26,株式会社アステンデザイン,,株式会社,神奈川県,横浜市西区,北幸１丁目１１番１号水信ビル７階,,14,103,2200004,,,,,,,2023-05-26,1,,,,,アステンデザイン,0
2019,9020005016007,新規,0,2023-05-26,2023-05-26,一般社団法人横浜在宅医療推進会,,その他の設立登記法人,神奈川県,横浜市神奈川区,松本町１丁目３番地１８,,14,102,2210841,,,,,,,2023-05-26,1,,,,,ヨコハマザイタクイリョウスイシンカイ,0
2024,9021001079154,新規,0,2023-05-26,2023-05-26,株式会社珠屋,,株式会社,神奈川県,鎌倉市,大町４丁目１５番７号,,14,204,2480007,,,,,,,2023-05-26,1,,,,,タマヤ,0
2025,9021001079162,新規,0,2023-05-26,2023-05-26,株式会社阿部電機サービス,,株式会社,神奈川県,海老名市,門沢橋４丁目８番２０号,,14,215,2430426,,,,,,,2023-05-26,1,,,,,アベデンキサービス,0
2028,9021003013136,新規,0,2023-05-26,2023-05-26,合同会社ＢＥ　ＹｕｕｕＭＡ,,合同会社,神奈川県,南足柄市,岩原８８８番地１４,,14,217,2500113,,,,,,,2023-05-26,1,,,,,ビーユーマ,0
2029,9021005012821,新規,0,2023-05-26,2023-05-26,特定非営利活動法人子ぼんのう,,その他の設立登記法人,神奈川県,座間市,小松原１丁目３３番２３号,,14,216,2520002,,,,,,,2023-05-26,1,,,,,コボンノウ,0
2034,9030001154057,新規,0,2023-05-26,2023-05-26,株式会社アスシルベ,,株式会社,埼玉県,草加市,原町２丁目３番１－１０号,,11,221,3400048,,,,,,,2023-05-26,1,,,,,アスシルベ,0
2035,9030001154081,新規,0,2023-05-26,2023-05-26,株式会社三輪舎,,株式会社,埼玉県,鴻巣市,富士見町４番２８号,,11,217,3650046,,,,,,,2023-05-26,1,,,,,サンリンシャ,0
2038,9030003021809,新規,0,2023-05-26,2023-05-26,合同会社アリエラ,,合同会社,埼玉県,戸田市,本町３丁目７番１３号,,11,224,3350023,,,,,,,2023-05-26,1,,,,,アリエラ,0
2039,9030003021825,新規,0,2023-05-26,2023-05-26,合同会社矢田企画,,合同会社,埼玉県,富士見市,東みずほ台２丁目１１番地１２グランドハイツ１０５,,11,235,3540015,,,,,,,2023-05-26,1,,,,,ヤダキカク,0
2040,9030003021833,新規,0,2023-05-26,2023-05-26,合同会社彩羽,,合同会社,埼玉県,さいたま市岩槻区,大字慈恩寺５４６番地５７,,11,110,3390009,,,,,,,2023-05-26,1,,,,,イロハ,0
2047,9040001128547,新規,0,2023-05-26,2023-05-26,シェルパーツトレーディング株式会社,,株式会社,千葉県,市川市,二俣１丁目１０番２７号－Ｃ６３Ｗ,,12,203,2720001,,,,,,,2023-05-26,1,,,,,シェルパーツトレーディング,0
2048,9040001128563,新規,0,2023-05-26,2023-05-26,ＧＯＬＤ　ＣＯＡＳＴ株式会社,,株式会社,千葉県,四街道市,物井１７９２－７３第八成和ハイツ８１２,,12,228,2840012,,,,,,,2023-05-26,1,,,,,ゴールドコースト,0
2055,9050005013273,新規,0,2023-05-26,2023-05-26,一般社団法人住まいと暮らしの相談ぷらっと,,その他の設立登記法人,茨城県,つくば市,小田３１１４,,08,220,3004223,,,,,,,2023-05-26,1,,,,,スマイトクラシノソウダンプラット,0
2061,9070001040484,新規,0,2023-05-26,2023-05-26,株式会社ＨＩＲＡＫＵ,,株式会社,群馬県,邑楽郡千代田町,大字赤岩２１３－５,,10,523,3700503,,,,,,,2023-05-26,1,,,,,ヒラク,0
2062,9070005010129,新規,0,2023-05-26,2023-05-26,特定非営利活動法人ぐんま里山学校,,その他の設立登記法人,群馬県,高崎市,上室田町２５９１番地,,10,202,3703346,,,,,,,2023-05-26,1,,,,,グンマサトヤマガッコウ,0
2080,9120001255176,新規,0,2023-05-26,2023-05-26,驥通株式会社,,株式会社,大阪府,大阪市西成区,中開１丁目３－２８－４階Ｄ号室,,27,122,5570022,,,,,,,2023-05-26,1,,,,,キツウ,0
2081,9120001255184,新規,0,2023-05-26,2023-05-26,株式会社大和サポート,,株式会社,大阪府,大阪市淀川区,西中島１丁目１０番１０－８０８号,,27,123,5320011,,,,,,,2023-05-26,1,,,,,ダイワサポート,0
2082,9120001255218,新規,0,2023-05-26,2023-05-26,株式会社アキヤマ建築未来研究所,,株式会社,大阪府,大阪市中央区,上町１丁目１８－１６－１９０２,,27,128,5400005,,,,,,,2023-05-26,1,,,,,アキヤマケンチクミライケンキュウジョ,0
2083,9120001255226,新規,0,2023-05-26,2023-05-26,株式会社松研会,,株式会社,大阪府,大阪市東住吉区,西今川１丁目１番６号,,27,121,5460042,,,,,,,2023-05-26,1,,,,,ショウケンカイ,0
2084,9120001255234,新規,0,2023-05-26,2023-05-26,長宜株式会社,,株式会社,大阪府,大阪市平野区,長吉出戸８丁目９番１７号グランデール平野１０２号室,,27,126,5470011,,,,,,,2023-05-26,1,,,,,チョウギ,0
2087,9120003024158,新規,0,2023-05-26,2023-05-26,合同会社ＷＴＫ,,合同会社,大阪府,大阪市中央区,島之内２丁目６番６号,,27,128,5420082,,,,,,,2023-05-26,1,,,,,ダブルティーケイ,0
2097,9122001037018,新規,0,2023-05-26,2023-05-26,株式会社ｕｎｌｏｃｋ．ｌｙ２号,,株式会社,大阪府,大東市,新田中町２番３６号,,27,218,5740056,,,,,,,2023-05-26,1,,,,,アンロックリーニゴウ,0
2105,9140001130303,新規,0,2023-05-26,2023-05-26,株式会社識,,株式会社,兵庫県,神戸市中央区,中山手通３丁目２－１－１１０７,,28,110,6500004,,,,,,,2023-05-26,1,,,,,シキ,0
2107,9150001026418,新規,0,2023-05-26,2023-05-26,東渡株式会社,,株式会社,奈良県,奈良市,横井３丁目１７５番地１０３号室,,29,201,6308422,,,,,,,2023-05-26,1,,,,,トウト,0
2108,9160001025063,新規,0,2023-05-26,2023-05-26,株式会社Ｔ‐ｗｏｒｋｓ．,,株式会社,滋賀県,彦根市,地蔵町１２番地７４,,25,202,5220029,,,,,,,2023-05-26,1,,,,,ティーワークス,0
2115,9180001156451,新規,0,2023-05-26,2023-05-26,株式会社ＨＡＵＳＫＡ　ＨＡＵＳ,,株式会社,愛知県,知多郡美浜町,大字上野間字北川４４番地,,23,446,4703231,,,,,,,2023-05-26,1,,,,,ハウスカハウス,0
2116,9180001156476,新規,0,2023-05-26,2023-05-26,ＭＫＴ株式会社,,株式会社,愛知県,名古屋市北区,楠４丁目１５１８番地,,23,103,4620012,,,,,,,2023-05-26,1,,,,,エムケーティー,0
2117,9180001156484,新規,0,2023-05-26,2023-05-26,株式会社ＲｉｎｇＭａｔｃｈ,,株式会社,愛知県,名古屋市西区,見寄町１４番地,,23,104,4520839,,,,,,,2023-05-26,1,,,,,リングマッチ,0
2119,9180003025274,新規,0,2023-05-26,2023-05-26,Ｈ＆Ｙ　ＧＲＯＵＰ合同会社,,合同会社,愛知県,名古屋市中川区,澄池町１９番１０号,,23,110,4540806,,,,,,,2023-05-26,1,,,,,エイチアンドワイグループ,0
2123,9190005011825,新規,0,2023-05-26,2023-05-26,特定非営利活動法人りーぶる・りーぶる,,その他の設立登記法人,三重県,度会郡南伊勢町,五ケ所浦３９１７番地南伊勢町町民文化会館内,,24,472,5160101,,,,,,,2023-05-26,1,,,,,リーブルリーブル,0
2124,9200001041345,新規,0,2023-05-26,2023-05-26,株式会社ミューアース,,株式会社,岐阜県,岐阜市,長住町５丁目４番地１０,,21,201,5008175,,,,,,,2023-05-26,1,,,,,ミューアース,0
2126,9210003001651,新規,0,2023-05-26,2023-05-26,ワールドトレード合同会社,,合同会社,福井県,敦賀市,新道５１－３－２,,18,202,9140317,,,,,,,2023-05-26,1,,,,,ワールドトレード,0
2127,9220001025420,新規,0,2023-05-26,2023-05-26,株式会社ＳｗｉｔｈＴ,,株式会社,石川県,金沢市,新保本５丁目７番地２,,17,201,9218062,,,,,,,2023-05-26,1,,,,,エスウィズティー,0
2133,9250001020113,新規,0,2023-05-26,2023-05-26,株式会社ＦＯＲＣＥ,,株式会社,山口県,宇部市,西平原４丁目１０番１号,,35,202,7550808,,,,,,,2023-05-26,1,,,,,フォース,0
2137,9280001008948,新規,0,2023-05-26,2023-05-26,株式会社Ｐｅｏｐｌｅ　Ｃｌｏｕｄ,,株式会社,島根県,出雲市,駅北町１０番地３,,32,203,6930007,,,,,,,2023-05-26,1,,,,,ピープルクラウド,0
2141,9290001101594,新規,0,2023-05-26,2023-05-26,株式会社ＪＴＬ,,株式会社,福岡県,福岡市博多区,吉塚２丁目３番２４号吉塚ＡＧビル６号館１０８号室,,40,132,8120041,,,,,,,2023-05-26,1,,,,,ジェイティエル,0
2142,9290001101644,新規,0,2023-05-26,2023-05-26,株式会社Ａ‐ＲＩＣＥ,,株式会社,福岡県,福岡市早良区,西新５丁目２－４３ＲＡＧＡＺＺＡニシジン１Ｆ,,40,137,8140002,,,,,,,2023-05-26,1,,,,,アライス,0
2143,9290001101652,新規,0,2023-05-26,2023-05-26,株式会社ＭＥＲＩＳＥ,,株式会社,福岡県,大野城市,筒井１丁目７番２５－１０１号,,40,219,8160931,,,,,,,2023-05-26,1,,,,,ミライズ,0
2153,9340001025607,新規,0,2023-05-26,2023-05-26,株式会社六角,,株式会社,鹿児島県,鹿児島市,東千石町１０番１号オリンピックビル地下１階,,46,201,8920842,,,,,,,2023-05-26,1,,,,,ロッカク,0
2155,9360001032064,新規,0,2023-05-26,2023-05-26,株式会社ＴＨＩＲＴＹ　ＥＩＧＨＴ,,株式会社,沖縄県,宮古島市,平良字下里２６番地、１階西側,,47,214,9060013,,,,,,,2023-05-26,1,,,,,サーティーエイト,0
2156,9360003012989,新規,0,2023-05-26,2023-05-26,合同会社ｅｎｌｓ,,合同会社,沖縄県,国頭郡本部町,字大浜８７７番地１３、２Ｆ,,47,308,9050212,,,,,,,2023-05-26,1,,,,,エンリス,0
2161,9400001016260,新規,0,2023-05-26,2023-05-26,株式会社ユニセキュリティー,,株式会社,岩手県,盛岡市,中央通１丁目８番１３号中央ビル１－１,,03,201,0200021,,,,,,,2023-05-26,1,,,,,ユニセキュリティー,0
2176,9430003015084,新規,0,2023-05-26,2023-05-26,合同会社エムオール,,合同会社,北海道,札幌市東区,東苗穂七条３丁目４番５０号イーストヒルズＡ１０２号,,01,103,0070807,,,,,,,2023-05-26,1,,,,,エムオール,0
2180,9450003002337,新規,0,2023-05-26,2023-05-26,合同会社樋口商会,00130629,合同会社,北海道,稚内市,栄１丁目２９番９号,,01,214,0970017,,,,,,,2023-05-26,1,,,,,,0
2183,9500001024947,新規,0,2023-05-26,2023-05-26,株式会社長野工業,,株式会社,愛媛県,西条市,大町１６６０番地２マルイラベンダーヒルズ１０１号,,38,206,7930030,,,,,,,2023-05-26,1,,,,,ナガノコウギョウ,0
2184,9700150116525,新規,0,2023-05-26,2023-05-26,Ｋｏｋｏｒｏ　Ｄｅｖｅｌｏｐｍｅｎｔ　Ｓｄｎ．Ｂｈｄ．,,外国会社等,東京都,台東区,浅草１丁目８番６－９０６号,,13,106,1110032,マレーシア、クアラルンプール５０１００、オフ・ジャラン・マスジド・インディア、メダン・ブヌス６３－１,,,,,,2023-05-26,1,,,,,ココロデイベロツプメントエスデイーエヌビーエイチデイー,0
