sequenceNumber,corporateNumber,process,correct,updateDate,changeDate,name,nameImageId,kind,prefectureName,cityName,streetNumber,addressImageId,prefectureCode,cityCode,postCode,addressOutside,addressOutsideImageId,closeDate,closeCause,successorCorporateNumber,changeCause,assignmentDate,latest,enName,enPrefectureName,enCityName,enAddressOutside,furigana,hihyoji
8,1010001224348,新規,0,2022-02-04,2022-02-04,株式会社チヨダコーポレーション,,株式会社,東京都,千代田区,外神田４丁目６番１０号１階,,13,101,1010021,,,,,,,2022-02-04,1,,,,,チヨダコーポレーション,0
9,1010001224356,新規,0,2022-02-04,2022-02-04,ＭＩＹＡＴＡＳＨＯＪＩ株式会社,,株式会社,東京都,中央区,八丁堀４丁目１２番４号,,13,102,1040032,,,,,,,2022-02-04,1,,,,,ミヤタショウジ,0
10,1010001224364,新規,0,2022-02-04,2022-02-04,株式会社松濤舎,,株式会社,東京都,文京区,小石川２丁目２５－１０パークホームズ小石川８０６,,13,105,1120002,,,,,,,2022-02-04,1,,,,,ショウトウシャ,0
11,1010001224372,新規,0,2022-02-04,2022-02-04,ｐｌａｎａ株式会社,,株式会社,東京都,文京区,湯島４丁目６番１２号湯島ハイタウンＢ－２１７,,13,105,1130034,,,,,,,2022-02-04,1,,,,,プラナ,0
12,1010003036923,新規,0,2022-02-04,2022-02-04,合同会社ヒラリト,,合同会社,東京都,中央区,銀座１丁目２２番１１号,,13,102,1040061,,,,,,,2022-02-04,1,,,,,,0
13,1010003036948,新規,0,2022-02-04,2022-02-04,Ｐｏｓｈ合同会社,,合同会社,東京都,文京区,湯島２丁目２３番９号湯島ナガタビル４０１,,13,105,1130034,,,,,,,2022-02-04,1,,,,,ポッシュ,0
22,1010401165340,新規,0,2022-02-04,2022-02-04,株式会社Ｃａｔａｃａ,,株式会社,東京都,港区,芝４丁目７番６号芝ビルディング７０４,,13,103,1080014,,,,,,,2022-02-04,1,,,,,カタカ,0
23,1010401165349,新規,0,2022-02-04,2022-02-04,株式会社レノス,,株式会社,東京都,港区,西麻布２丁目１１番２号ＳＨＩＮＫＯＨ西麻布ビル６Ｆ,,13,103,1060031,,,,,,,2022-02-04,1,,,,,レノス,0
24,1010401165365,新規,0,2022-02-04,2022-02-04,株式会社永田町ＴＥＣＨ,,株式会社,東京都,港区,三田３丁目１番２３号メザキビル３Ｆ,,13,103,1080073,,,,,,,2022-02-04,1,,,,,ナガタチョウテック,0
25,1010401165373,新規,0,2022-02-04,2022-02-04,ＳＨアセット・マネジメント株式会社,,株式会社,東京都,港区,南青山２丁目１５番２２－３０５号,,13,103,1070062,,,,,,,2022-02-04,1,,,,,エスエッチアセットマネジメント,0
26,1010401165415,新規,0,2022-02-04,2022-02-04,株式会社エーラーワン,,株式会社,東京都,港区,南青山１丁目２０－２乃木坂ビジネスコート１階,,13,103,1070062,,,,,,,2022-02-04,1,,,,,エーラーワン,0
31,1010501048412,新規,0,2022-02-04,2022-02-04,株式会社ヒューズ,,株式会社,東京都,台東区,清川２丁目２９番６－４０３号リファイズエクスクルーシブ,,13,106,1110022,,,,,,,2022-02-04,1,,,,,ヒューズ,0
42,1011001145435,新規,0,2022-02-04,2022-02-04,株式会社デリセクト,,株式会社,東京都,渋谷区,渋谷２丁目１５－１渋谷クロスタワー１７階,,13,113,1500002,,,,,,,2022-02-04,1,,,,,デリセクト,0
43,1011001145492,新規,0,2022-02-04,2022-02-04,株式会社ｉｍｐａｃｔ　ｍｉｒａｉ,,株式会社,東京都,渋谷区,渋谷２丁目１２番１９号,,13,113,1500002,,,,,,,2022-02-04,1,,,,,インパクトミライ,0
44,1011003014150,新規,0,2022-02-04,2022-02-04,ラグーン合同会社,,合同会社,東京都,渋谷区,円山町５番５号Ｎａｖｉ渋谷Ｖ３階,,13,113,1500044,,,,,,,2022-02-04,1,,,,,ラグーン,0
47,1011101097709,新規,0,2022-02-04,2022-02-04,株式会社ＬＡＴＴＥ,,株式会社,東京都,新宿区,歌舞伎町２丁目２７－１２,,13,104,1600021,,,,,,,2022-02-04,1,,,,,ラテ,0
48,1011101097725,新規,0,2022-02-04,2022-02-04,株式会社Ｔｏｌａｎｃｅ,,株式会社,東京都,新宿区,新宿１丁目３６番２号新宿第七葉山ビル３階,,13,104,1600022,,,,,,,2022-02-04,1,,,,,トランス,0
49,1011305002803,新規,0,2022-02-04,2022-02-04,一般財団法人川嶋みらい文化芸術財団,,その他の設立登記法人,東京都,杉並区,永福３丁目５６－３０レムカビル４階,,13,115,1680064,,,,,,,2022-02-04,1,,,,,カワシマミライブンカゲイジュツザイダン,0
52,1011701025028,新規,0,2022-02-04,2022-02-04,澤海株式会社,,株式会社,東京都,江戸川区,西葛西５丁目８番５－７１３号,,13,123,1340088,,,,,,,2022-02-04,1,,,,,サワウミ,0
58,1012401038823,新規,0,2022-02-04,2022-02-04,アールホームリビング株式会社,,株式会社,東京都,調布市,深大寺元町４丁目３４番地３０,,13,208,1820017,,,,,,,2022-02-04,1,,,,,アールホームリビング,0
59,1012401038831,新規,0,2022-02-04,2022-02-04,株式会社サニーサービス,,株式会社,東京都,多摩市,関戸４丁目２７番地の１８聖蹟ヒルズ３０３,,13,224,2060011,,,,,,,2022-02-04,1,,,,,サニーサービス,0
63,1012701016917,新規,0,2022-02-04,2022-02-04,株式会社カトズ,,株式会社,東京都,西東京市,東町６丁目５番６号,,13,229,2020012,,,,,,,2022-02-04,1,,,,,カトズ,0
66,1012801021379,新規,0,2022-02-04,2022-02-04,株式会社菅原建築測量,,株式会社,東京都,立川市,西砂町５丁目３番地１・Ｂ－５,,13,202,1900034,,,,,,,2022-02-04,1,,,,,スガワラケンチクソクリョウ,0
75,1020001145089,新規,0,2022-02-04,2022-02-04,株式会社ビンゴ動物病院,,株式会社,神奈川県,川崎市幸区,小倉５丁目５番２７号,,14,132,2120054,,,,,,,2022-02-04,1,,,,,ビンゴドウブツビョウイン,0
76,1020001145122,新規,0,2022-02-04,2022-02-04,ａｎｅｍｏｎｅ株式会社,,株式会社,神奈川県,横浜市中区,長者町１丁目１－３・３０７,,14,104,2310033,,,,,,,2022-02-04,1,,,,,アネモネ,0
79,1020003021255,新規,0,2022-02-04,2022-02-04,合同会社プライムミュージックラボ,,合同会社,神奈川県,横浜市緑区,長津田５丁目３番２２号夏目ビル２階,,14,113,2260027,,,,,,,2022-02-04,1,,,,,プライムミュージックラボ,0
85,1021001075103,新規,0,2022-02-04,2022-02-04,ＴＵＲＦ株式会社,,株式会社,神奈川県,足柄下郡箱根町,湯本字前田１９２番８,,14,382,2500311,,,,,,,2022-02-04,1,,,,,ターフ,0
86,1021003011361,新規,0,2022-02-04,2022-02-04,合同会社Ｓ．Ｔ．Ａ．Ｒ．Ｓ,,合同会社,神奈川県,相模原市緑区,鳥屋２２３２番地９,,14,151,2520155,,,,,,,2022-02-04,1,,,,,スターズ,0
93,1030001146615,新規,0,2022-02-04,2022-02-04,ＳＯＲＡ株式会社,,株式会社,埼玉県,志木市,中宗岡２丁目１９－３６,,11,228,3530002,,,,,,,2022-02-04,1,,,,,ソラ,0
94,1030001146631,新規,0,2022-02-04,2022-02-04,株式会社ＺＯＷ,,株式会社,埼玉県,川口市,戸塚２丁目７番１号－１０５,,11,203,3330811,,,,,,,2022-02-04,1,,,,,ゾウ,0
95,1030001146672,新規,0,2022-02-04,2022-02-04,株式会社重藤架設,,株式会社,埼玉県,新座市,野火止３丁目９番３０号,,11,230,3520011,,,,,,,2022-02-04,1,,,,,シゲトウカセツ,0
96,1030001146680,新規,0,2022-02-04,2022-02-04,株式会社満留屋,,株式会社,埼玉県,草加市,中央２丁目７番２号,,11,221,3400016,,,,,,,2022-02-04,1,,,,,マルヤ,0
97,1030001146689,新規,0,2022-02-04,2022-02-04,株式会社Ｒｅｉｎｄｅｅｒ,,株式会社,埼玉県,坂戸市,芦山町１４番地１,,11,239,3500273,,,,,,,2022-02-04,1,,,,,レインディア,0
100,1030003018804,新規,0,2022-02-04,2022-02-04,芝ｏｆｆｉｃｅ合同会社,,合同会社,埼玉県,桶川市,大字上日出谷８３０番地の１４６,,11,231,3630026,,,,,,,2022-02-04,1,,,,,シバオフィス,0
104,1040003019438,新規,0,2022-02-04,2022-02-04,Ｃｏｒｒｉｄｏｒ合同会社,,合同会社,千葉県,浦安市,海楽２丁目３３番３号,,12,227,2790003,,,,,,,2022-02-04,1,,,,,コリドー,0
108,1050001050575,新規,0,2022-02-04,2022-02-04,株式会社アイシーエス,,株式会社,茨城県,筑西市,野殿１３１５番地,,08,227,3080843,,,,,,,2022-02-04,1,,,,,アイシーエス,0
110,1060001034536,新規,0,2022-02-04,2022-02-04,ＱＲＳパックネット株式会社,,株式会社,栃木県,足利市,名草下町１０２３番地１,,09,202,3260003,,,,,,,2022-02-04,1,,,,,キューアールエスパックネット,0
116,1070001038916,新規,0,2022-02-04,2022-02-04,株式会社ライフモジュレーション,,株式会社,群馬県,前橋市,文京町１丁目４０番１８ダイアパレス前橋文京町２０５号,,10,201,3710801,,,,,,,2022-02-04,1,,,,,ライフモジュレーション,0
122,1080105006215,新規,0,2022-02-04,2022-02-04,一般社団法人社会課題協議会,,その他の設立登記法人,静岡県,沼津市,西浦平沢２８３番地の１３,,22,203,4100234,,,,,,,2022-02-04,1,,,,,シャカイカダイキョウギカイ,0
125,1080403004465,新規,0,2022-02-04,2022-02-04,フォーチュンライン合同会社,,合同会社,静岡県,浜松市中区,富塚町２０９番地の１０御前谷ハイツ３Ｂ３,,22,131,4328002,,,,,,,2022-02-04,1,,,,,フォーチュンライン,0
126,1100001035034,新規,0,2022-02-04,2022-02-04,株式会社ｃｈｉｒｉｍｅｎ,,株式会社,長野県,塩尻市,大字大門１００３番地４高原通りビル１階,,20,215,3990744,,,,,,,2022-02-04,1,,,,,チリメン,0
135,1120001243493,新規,0,2022-02-04,2022-02-04,株式会社藤田興産,,株式会社,大阪府,大阪市西成区,鶴見橋１丁目１６番３５号,,27,122,5570031,,,,,,,2022-02-04,1,,,,,フジタコウサン,0
136,1120001243634,新規,0,2022-02-04,2022-02-04,株式会社ＬＥＧＡＣＹ　ＰＬＡＮＮＩＮＧ,,株式会社,大阪府,大阪市北区,梅田１丁目２番２号大阪駅前第２ビルＢ１Ｆ－３６－１,,27,127,5300001,,,,,,,2022-02-04,1,,,,,レガシープランニング,0
137,1120001243642,新規,0,2022-02-04,2022-02-04,株式会社Ｓｐｉｃａ,,株式会社,大阪府,大阪市北区,中崎西２丁目２番１号東梅田八千代ビル１０階,,27,127,5300015,,,,,,,2022-02-04,1,,,,,スピカ,0
138,1120001243650,新規,0,2022-02-04,2022-02-04,株式会社ＡＫＡＬＡ,,株式会社,大阪府,大阪市都島区,片町２丁目９番２８号,,27,102,5340025,,,,,,,2022-02-04,1,,,,,アカラ,0
139,1120001243691,新規,0,2022-02-04,2022-02-04,ＺＷＥＩ株式会社,,株式会社,大阪府,大阪市北区,鶴野町１番９号,,27,127,5300014,,,,,,,2022-02-04,1,,,,,ツヴァイ,0
143,1120003021071,新規,0,2022-02-04,2022-02-04,合同会社あおい,,合同会社,大阪府,大阪市大正区,千島１丁目２７番２２号,,27,108,5510003,,,,,,,2022-02-04,1,,,,,アオイ,0
144,1120003021096,新規,0,2022-02-04,2022-02-04,合同会社グローイング,,合同会社,大阪府,大阪市北区,中崎西１丁目１－７－３０７,,27,127,5300015,,,,,,,2022-02-04,1,,,,,グローイング,0
148,1120101065037,新規,0,2022-02-04,2022-02-04,株式会社湧音工作,,株式会社,大阪府,岸和田市,春木大小路町１番３７号,,27,202,5960031,,,,,,,2022-02-04,1,,,,,ワトコウサク,0
149,1120105009519,新規,0,2022-02-04,2022-02-04,特定非営利活動法人にっぽん健康村,,その他の設立登記法人,大阪府,堺市北区,長曽根町２９号シュライクなかもず９０１,,27,146,5918025,,,,,,,2022-02-04,1,,,,,ニッポンケンコウムラ,0
153,1122001035565,新規,0,2022-02-04,2022-02-04,さてらいと株式会社,,株式会社,大阪府,八尾市,北本町１丁目４番８号ディバージョン八尾２Ｆ,,27,212,5810802,,,,,,,2022-02-04,1,,,,,サテライト,0
155,1130001071084,新規,0,2022-02-04,2022-02-04,株式会社ＯＰＥＲＡＲＴ,,株式会社,京都府,京都市上京区,今出川通堀川東入飛鳥井町２６７番地４アッドスパイスビル１Ｆ,,26,102,6020054,,,,,,,2022-02-04,1,,,,,オペラート,0
168,1140003017316,新規,0,2022-02-04,2022-02-04,合同会社千葉不動産,,合同会社,兵庫県,尼崎市,塚口町１丁目１６番６号,,28,202,6610002,,,,,,,2022-02-04,1,,,,,チバフドウサン,0
172,1170001016969,新規,0,2022-02-04,2022-02-04,株式会社藤本本店,,株式会社,和歌山県,和歌山市,栗栖３１番地２,,30,201,6408305,,,,,,,2022-02-04,1,,,,,フジモトホンテン,0
181,1180001149818,新規,0,2022-02-04,2022-02-04,株式会社テイズ,,株式会社,愛知県,清須市,西枇杷島町小田井２丁目１４番地１ＧＲＡＣＥ　ＭＡＩＳＯＮ１０１,,23,233,4520021,,,,,,,2022-02-04,1,,,,,テイズ,0
182,1180001149859,新規,0,2022-02-04,2022-02-04,株式会社ＳＫシナジー,,株式会社,愛知県,名古屋市中区,新栄２丁目１番１８号タケヤビル１階,,23,106,4600007,,,,,,,2022-02-04,1,,,,,エスケーシナジー,0
183,1180001149883,新規,0,2022-02-04,2022-02-04,株式会社びほくゆか,,株式会社,愛知県,江南市,北山町西２０番地,,23,217,4838157,,,,,,,2022-02-04,1,,,,,ビホクユカ,0
192,1190001029102,新規,0,2022-02-04,2022-02-04,しつけ美容室いぬ屋株式会社,,株式会社,三重県,四日市市,東日野町２番地４,,24,202,5100942,,,,,,,2022-02-04,1,,,,,シツケビヨウシツイヌヤ,0
193,1190005011667,新規,0,2022-02-04,2022-02-04,一般社団法人日本クリーンマイスター協会,,その他の設立登記法人,三重県,三重郡川越町,大字豊田一色５３番地２,,24,344,5108123,,,,,,,2022-02-04,1,,,,,ニホンクリーンマイスターキョウカイ,0
196,1210001018804,新規,0,2022-02-04,2022-02-04,株式会社ふくい整理収納サービス,,株式会社,福井県,福井市,石盛３丁目１４０５番地,,18,201,9100125,,,,,,,2022-02-04,1,,,,,フクイセイリシュウノウサービス,0
200,1220001024677,新規,0,2022-02-04,2022-02-04,株式会社平野塗装,,株式会社,石川県,羽咋郡志賀町,安部屋甲の２３０番地,,17,384,9250166,,,,,,,2022-02-04,1,,,,,ヒラノトソウ,0
202,1220003003200,新規,0,2022-02-04,2022-02-04,合同会社ｃｏｍｒａｄｅ,,合同会社,石川県,野々市市,太平寺２丁目１６９番地３,,17,212,9218845,,,,,,,2022-02-04,1,,,,,コムレイド,0
204,1230003001797,新規,0,2022-02-04,2022-02-04,合同会社廣人堂,,合同会社,富山県,富山市,婦中町西ヶ丘１番地２１５,,16,201,9392719,,,,,,,2022-02-04,1,,,,,コウジンドウ,0
206,1240001059283,新規,0,2022-02-04,2022-02-04,株式会社ＫＹＲ,,株式会社,広島県,広島市東区,中山上２丁目３０番８－１０１号,,34,102,7320027,,,,,,,2022-02-04,1,,,,,ケイワイアール,0
207,1260001036495,新規,0,2022-02-04,2022-02-04,株式会社司瑛,,株式会社,岡山県,倉敷市,児島阿津３丁目３番６０－４号,,33,202,7110923,,,,,,,2022-02-04,1,,,,,シエイ,0
216,1290001096306,新規,0,2022-02-04,2022-02-04,株式会社ＭＯＴＯＺＯＮＯ,,株式会社,福岡県,柳川市,立石２０８番地,,40,207,8320003,,,,,,,2022-02-04,1,,,,,モトゾノ,0
217,1290001096371,新規,0,2022-02-04,2022-02-04,株式会社Ｂａｌ　Ｇｒｏｕｐ,,株式会社,福岡県,福岡市中央区,清川１丁目２－２１ラペール・モリ６０４号,,40,133,8100005,,,,,,,2022-02-04,1,,,,,バルグループ,0
220,1290801028227,新規,0,2022-02-04,2022-02-04,清浄株式会社,,株式会社,福岡県,京都郡みやこ町,犀川本庄１５４番地,,40,625,8240231,,,,,,,2022-02-04,1,,,,,ショウジョウ,0
221,1290801028235,新規,0,2022-02-04,2022-02-04,ユタカ建装株式会社,,株式会社,福岡県,田川市,大字夏吉２０９番地４,,40,206,8250004,,,,,,,2022-02-04,1,,,,,ユタカケンソウ,0
222,1290801028243,新規,0,2022-02-04,2022-02-04,株式会社ＳＯＷＡ,,株式会社,福岡県,北九州市小倉北区,金鶏町９番２７号,,40,106,8030843,,,,,,,2022-02-04,1,,,,,ソワ,0
226,1290803004052,新規,0,2022-02-04,2022-02-04,合同会社Ｋｉｔｕｔｕｋｉ,,合同会社,福岡県,北九州市八幡東区,大蔵２丁目１７－２－６０４,,40,108,8050048,,,,,,,2022-02-04,1,,,,,キツツキ,0
228,1310001017705,新規,0,2022-02-04,2022-02-04,株式会社Ｗｅｌｆａｒｅ,,株式会社,長崎県,雲仙市,愛野町乙５７２番地５,,42,213,8540302,,,,,,,2022-02-04,1,,,,,ウェルフェア,0
232,1320001018883,新規,0,2022-02-04,2022-02-04,株式会社一成工業,,株式会社,大分県,大分市,東津留１丁目５番１号ユナイテッド東津留ビル２階,,44,201,8700934,,,,,,,2022-02-04,1,,,,,イッセイコウギョウ,0
241,1360001029976,新規,0,2022-02-04,2022-02-04,株式会社山水,,株式会社,沖縄県,うるま市,字赤野１０３９－８,,47,213,9042212,,,,,,,2022-02-04,1,,,,,サンスイ,0
243,1360003011775,新規,0,2022-02-04,2022-02-04,合同会社エボルバ沖縄,,合同会社,沖縄県,島尻郡南風原町,字宮平５２６番地,,47,350,9011104,,,,,,,2022-02-04,1,,,,,エボルバ,0
246,1370001048174,新規,0,2022-02-04,2022-02-04,株式会社日本未来創造研究所,,株式会社,宮城県,白石市,旭町１丁目５番７号,,04,206,9890223,,,,,,,2022-02-04,1,,,,,ニホンミライソウゾウケンキュウショ,0
248,1380001032540,新規,0,2022-02-04,2022-02-04,株式会社Ｃｌｅ,,株式会社,福島県,いわき市,平字倉前１０５番地７,,07,204,9708026,,,,,,,2022-02-04,1,,,,,クレ,0
249,1380001032557,新規,0,2022-02-04,2022-02-04,株式会社レリーフ,,株式会社,福島県,福島市,御山町２番１３号,,07,201,9608012,,,,,,,2022-02-04,1,,,,,,0
253,1380003005098,新規,0,2022-02-04,2022-02-04,合同会社ＩＭＳ,,合同会社,福島県,いわき市,錦町綾ノ内１２２番地,,07,204,9748232,,,,,,,2022-02-04,1,,,,,アイエムエス,0
254,1390001016781,新規,0,2022-02-04,2022-02-04,スポーク・ホールディングス株式会社,,株式会社,山形県,山形市,鉄砲町２丁目２１番３７号,,06,201,9902492,,,,,,,2022-02-04,1,,,,,スポークホールディングス,0
256,1410001013099,新規,0,2022-02-04,2022-02-04,ＮＳ農産株式会社,,株式会社,秋田県,男鹿市,船川港船川字海岸通り二号６番地２,,05,206,0100511,,,,,,,2022-02-04,1,,,,,エヌエスノウサン,0
259,1420001017710,新規,0,2022-02-04,2022-02-04,株式会社千照,,株式会社,青森県,青森市,港町２丁目１４番２１号,,02,201,0300901,,,,,,,2022-02-04,1,,,,,センショウ,0
261,1430001085921,新規,0,2022-02-04,2022-02-04,株式会社金戸ファーム,,株式会社,北海道,岩見沢市,御茶の水町１１６番地３,,01,210,0690384,,,,,,,2022-02-04,1,,,,,カネトファーム,0
262,1430001085954,新規,0,2022-02-04,2022-02-04,ＴＯＧＡＴＴＡ株式会社,,株式会社,北海道,札幌市中央区,南六条西１７丁目３番２２－９０１号,,01,101,0640806,,,,,,,2022-02-04,1,,,,,トガッタ,0
264,1430003013608,新規,0,2022-02-04,2022-02-04,合同会社ＮＩＣＯ,,合同会社,北海道,札幌市西区,西野三条２丁目４番２１号,,01,107,0630033,,,,,,,2022-02-04,1,,,,,ニコ,0
265,1430005014389,新規,0,2022-02-04,2022-02-04,社会保険労務士法人河合事務所,,その他の設立登記法人,北海道,札幌市北区,新琴似十一条９丁目９番２号,,01,102,0010911,,,,,,,2022-02-04,1,,,,,カワイジムショ,0
267,1460101007137,新規,0,2022-02-04,2022-02-04,株式会社ＣＡＴＴＬＥ　ＢＡＳＥ,,株式会社,北海道,中川郡幕別町,札内北栄町４番地の３,,01,643,0890537,,,,,,,2022-02-04,1,,,,,キャトルベース,0
277,1480005006877,新規,0,2022-02-04,2022-02-04,特定非営利活動法人二と八,,その他の設立登記法人,徳島県,美馬市,穴吹町穴吹字藤原１１番地１,,36,207,7770005,,,,,,,2022-02-04,1,,,,,ニトハ,0
279,1500001023989,新規,0,2022-02-04,2022-02-04,遠藤工業株式会社,,株式会社,愛媛県,松山市,善応寺甲７７４番地１,,38,201,7992443,,,,,,,2022-02-04,1,,,,,エンドウコウギョウ,0
284,1500003002768,新規,0,2022-02-04,2022-02-04,合同会社山利園,,合同会社,愛媛県,宇和島市,吉田町法花津６番耕地１５８番地,,38,203,7993742,,,,,,,2022-02-04,1,,,,,ヤマリエン,0
285,1700150041697,新規,0,2022-02-04,2015-10-09,中部マーケティング協会,,その他,愛知県,名古屋市中区,錦２丁目１５番１５号,,23,106,4600003,,,,,,,2015-10-09,1,,,,,チユウブマーケテイングキヨウカイ,0
287,1700150104867,新規,0,2022-02-04,2021-09-27,ＯＦＦＩＣＥ　ＪＳ　ＷＯＲＬＤ,,その他,東京都,世田谷区,深沢４丁目２９－５グレイス深沢２０１,,13,112,1580081,,,,,,,2021-09-27,1,,,,,オフイスジエーエスワールド,0
289,1700150106780,新規,0,2022-02-04,2022-01-24,Ｍｕｌｈｅｒｅｓ　ｎａ　Ｒｏｄａ　ｄｅ　Ｓａｍｂａ,,その他,神奈川県,相模原市中央区,星が丘３丁目１０－５,,14,152,2520238,,,,,,,2022-01-24,1,,,,,ムリエーリスナホーダジサンバ,0
300,2010001224330,新規,0,2022-02-04,2022-02-04,株式会社ａｖｅｒｓ,,株式会社,東京都,中央区,銀座１丁目２２番１１号銀座大竹ビジデンス２階,,13,102,1040061,,,,,,,2022-02-04,1,,,,,エイバース,0
301,2010001224347,新規,0,2022-02-04,2022-02-04,エムデイーシー株式会社,,株式会社,東京都,中央区,日本橋室町１丁目２番６号,,13,102,1030022,,,,,,,2022-02-04,1,,,,,,0
302,2010001224363,新規,0,2022-02-04,2022-02-04,株式会社ビッグツリーコンサルティング,,株式会社,東京都,中央区,銀座１丁目１６－７ＤａｉｅｉＧｉｎｚａＢｕｉｌｄｉｎｇ５Ｆ,,13,102,1040061,,,,,,,2022-02-04,1,,,,,ビッグツリーコンサルティング,0
303,2010001224371,新規,0,2022-02-04,2022-02-04,株式会社ＫａｋｅｒｕＨＲ,,株式会社,東京都,中央区,銀座１丁目１２番４号Ｎ＆ＥＢＬＤ．７階,,13,102,1040061,,,,,,,2022-02-04,1,,,,,カケルエイチアール,0
307,2010003036906,新規,0,2022-02-04,2022-02-04,月田久美子合同会社,,合同会社,東京都,中央区,銀座６丁目１２番１号矢口ビル２Ｆ,,13,102,1040061,,,,,,,2022-02-04,1,,,,,ツキダクミコ,0
308,2010003036930,新規,0,2022-02-04,2022-02-04,合同会社Ｇｒａｃｅ　Ｉｎｔｅｒｎａｔｉｏｎａｌ　Ｒｅａｌｔｙ,,合同会社,東京都,中央区,築地３丁目２番１３－８０１号,,13,102,1040045,,,,,,,2022-02-04,1,,,,,グレイスインターナショナルリアリティ,0
310,2010005034569,新規,0,2022-02-04,2022-02-04,一般社団法人レクサスリニューワブル,,その他の設立登記法人,東京都,千代田区,内神田２丁目２番６号５階あすな会計事務所内,,13,101,1010047,,,,,,,2022-02-04,1,,,,,レクサスリニューワブル,0
320,2010401165323,新規,0,2022-02-04,2022-02-04,株式会社ＪＹＳ　Ｃｈｏｃｏｌａｔ,,株式会社,東京都,港区,南青山４丁目５番２５号シンクレア南青山３０１号,,13,103,1070062,,,,,,,2022-02-04,1,,,,,ジェイワイエスショコラ,0
321,2010401165356,新規,0,2022-02-04,2022-02-04,株式会社ＫＴ,,株式会社,東京都,港区,赤坂２丁目１１番１３号ＣＯＭＭＯＮＡｋａｓａｋａ３Ｆ,,13,103,1070052,,,,,,,2022-02-04,1,,,,,ケーティー,0
326,2010601060621,新規,0,2022-02-04,2022-02-04,株式会社ノイテック,,株式会社,東京都,墨田区,東向島６丁目６４－１０,,13,107,1310032,,,,,,,2022-02-04,1,,,,,ノイテック,0
328,2010603009377,新規,0,2022-02-04,2022-02-04,合同会社ＹＭＤ,,合同会社,東京都,江東区,有明１丁目４番１１－２８０９号,,13,108,1350063,,,,,,,2022-02-04,1,,,,,ワイエムディ,0
338,2011001145426,新規,0,2022-02-04,2022-02-04,株式会社ののくさ,,株式会社,東京都,目黒区,駒場３丁目７－１７,,13,110,1530041,,,,,,,2022-02-04,1,,,,,ノノクサ,0
339,2011001145517,新規,0,2022-02-04,2022-02-04,ＵＣＬ株式会社,,株式会社,東京都,渋谷区,神宮前６丁目２３番４号桑野ビル２階,,13,113,1500001,,,,,,,2022-02-04,1,,,,,ユーシーエル,0
346,2011301027539,新規,0,2022-02-04,2022-02-04,株式会社カレン,,株式会社,東京都,杉並区,善福寺２丁目１番１１号,,13,115,1670041,,,,,,,2022-02-04,1,,,,,カレン,0
348,2011501027735,新規,0,2022-02-04,2022-02-04,株式会社五三堂,,株式会社,東京都,荒川区,西日暮里３丁目１１－８,,13,118,1160013,,,,,,,2022-02-04,1,,,,,ゴサンドウ,0
352,2011701025027,新規,0,2022-02-04,2022-02-04,株式会社福源,,株式会社,東京都,江戸川区,西一之江２丁目２６番８号,,13,123,1320023,,,,,,,2022-02-04,1,,,,,フクゲン,0
356,2011801040256,新規,0,2022-02-04,2022-02-04,煦庭商事株式会社,,株式会社,東京都,足立区,西新井本町３丁目７番６号レオパレス大師前１０１,,13,121,1230845,,,,,,,2022-02-04,1,,,,,クテイショウジ,0
357,2011801040297,新規,0,2022-02-04,2022-02-04,明心建設株式会社,,株式会社,東京都,葛飾区,東新小岩６丁目２番１１号,,13,122,1240023,,,,,,,2022-02-04,1,,,,,メイシンケンセツ,0
361,2012401038822,新規,0,2022-02-04,2022-02-04,株式会社宮内塗装店,,株式会社,東京都,狛江市,東和泉１丁目１８番７号中川ビル２階Ａ,,13,219,2010014,,,,,,,2022-02-04,1,,,,,ミヤウチトソウテン,0
364,2012403005201,新規,0,2022-02-04,2022-02-04,合同会社Ｃｏｒｋｓ,,合同会社,東京都,府中市,若松町１丁目２１－１８,,13,206,1830005,,,,,,,2022-02-04,1,,,,,コークス,0
367,2012701016916,新規,0,2022-02-04,2022-02-04,株式会社ワールドホース＆ガレージ,,株式会社,東京都,小平市,花小金井３丁目７番５号,,13,211,1870002,,,,,,,2022-02-04,1,,,,,ワールドホースアンドガレージ,0
374,2013301048597,新規,0,2022-02-04,2022-02-04,Ｓｅｒｅｎｄｉｐｉｔｙ株式会社,,株式会社,東京都,豊島区,東池袋５丁目１９－１－２０１,,13,116,1700013,,,,,,,2022-02-04,1,,,,,セレンディピティ,0
375,2013301048639,新規,0,2022-02-04,2022-02-04,株式会社クラリス,,株式会社,東京都,豊島区,千早２丁目５番１５号,,13,116,1710044,,,,,,,2022-02-04,1,,,,,クラリス,0
381,2020001145113,新規,0,2022-02-04,2022-02-04,株式会社ゴッドハンド,,株式会社,神奈川県,横浜市神奈川区,松見町４丁目１１１７番地８,,14,102,2210005,,,,,,,2022-02-04,1,,,,,ゴッドハンド,0
382,2020003021254,新規,0,2022-02-04,2022-02-04,ＳＢＲＡＮＤ合同会社,,合同会社,神奈川県,横浜市栄区,桂台東７番１８－２０１号,,14,115,2470032,,,,,,,2022-02-04,1,,,,,エスブランド,0
385,2021001075102,新規,0,2022-02-04,2022-02-04,株式会社ｇｏａｌｓ,,株式会社,神奈川県,藤沢市,亀井野１丁目７番地の１２,,14,205,2520813,,,,,,,2022-02-04,1,,,,,ゴールズ,0
386,2021001075110,新規,0,2022-02-04,2022-02-04,株式会社ＢＲＡＶＥ,,株式会社,神奈川県,横須賀市,野比３丁目３５番３９号,,14,201,2390841,,,,,,,2022-02-04,1,,,,,ブレイブ,0
400,2030001146655,新規,0,2022-02-04,2022-02-04,株式会社みみ,,株式会社,埼玉県,三郷市,戸ケ崎３０３８番地１,,11,237,3410044,,,,,,,2022-02-04,1,,,,,ミミ,0
413,2030003018803,新規,0,2022-02-04,2022-02-04,合同会社Ｗｅｅｄ　Ｓｏｕｌ,,合同会社,埼玉県,狭山市,大字北入曽５４２番地の１カルム・Ｋ２０４,,11,215,3501315,,,,,,,2022-02-04,1,,,,,ウィードソウル,0
414,2040001122102,新規,0,2022-02-04,2022-02-04,ジーシー株式会社,,株式会社,千葉県,市原市,八幡２０１４番地Ｂ－２０１,,12,219,2900062,,,,,,,2022-02-04,1,,,,,ジーシー,0
420,2040005021507,新規,0,2022-02-04,2022-02-04,千葉キッチンカー協同組合,,その他の設立登記法人,千葉県,千葉市緑区,おゆみ野中央６丁目４９番地５,,12,105,2660032,,,,,,,2022-02-04,1,,,,,チバキッチンカー,0
425,2050001050574,新規,0,2022-02-04,2022-02-04,株式会社ベンサン,,株式会社,茨城県,取手市,稲１１４４番地１,,08,217,3020026,,,,,,,2022-02-04,1,,,,,ベンサン,0
426,2050001050582,新規,0,2022-02-04,2022-02-04,株式会社アナダ工業,,株式会社,茨城県,筑西市,小川１３９１番地５１４,,08,227,3080857,,,,,,,2022-02-04,1,,,,,アナダコウギョウ,0
428,2060001034535,新規,0,2022-02-04,2022-02-04,株式会社石嵜工業,,株式会社,栃木県,河内郡上三川町,大字多功６６７番地,,09,301,3290524,,,,,,,2022-02-04,1,,,,,イシザキコウギョウ,0
429,2060001034543,新規,0,2022-02-04,2022-02-04,唐泓株式会社,,株式会社,栃木県,那須郡那須町,大字湯本７２７番地１４,,09,407,3250301,,,,,,,2022-02-04,1,,,,,トウコウ,0
430,2070001038915,新規,0,2022-02-04,2022-02-04,株式会社ひいらぎ,,株式会社,群馬県,高崎市,我峰町６５４番地４,,10,202,3700085,,,,,,,2022-02-04,1,,,,,ヒイラギ,0
434,2070005009945,新規,0,2022-02-04,2022-02-04,一般社団法人ＧＰＡ,,その他の設立登記法人,群馬県,前橋市,東善町１２０番地５０,,10,201,3792132,,,,,,,2022-02-04,1,,,,,ジーピーエー,0
436,2080001024740,新規,0,2022-02-04,2022-02-04,株式会社Ｂｉｓｏｎ．ｔ．ｇ,,株式会社,静岡県,静岡市駿河区,小鹿１丁目５４－５９,,22,102,4228021,,,,,,,2022-02-04,1,,,,,バイソンティージー,0
440,2080003002728,新規,0,2022-02-04,2022-02-04,合同会社Ｃｒｅａｍ,,合同会社,静岡県,静岡市清水区,三保１５００番地の８２,,22,103,4240901,,,,,,,2022-02-04,1,,,,,クリーム,0
446,2080403004464,新規,0,2022-02-04,2022-02-04,合同会社Ｓｐａｒｔａｎ,,合同会社,静岡県,浜松市浜北区,小松９４８番地の１３,,22,136,4340042,,,,,,,2022-02-04,1,,,,,スパルタン,0
458,2120001243625,新規,0,2022-02-04,2022-02-04,株式会社中山工業,,株式会社,大阪府,大阪市阿倍野区,共立通２丁目３番２９号,,27,119,5450041,,,,,,,2022-02-04,1,,,,,ナカヤマコウギョウ,0
459,2120001243633,新規,0,2022-02-04,2022-02-04,株式会社インポッシブル,,株式会社,大阪府,大阪市平野区,流町３丁目１０番２号,,27,126,5470032,,,,,,,2022-02-04,1,,,,,インポッシブル,0
460,2120001243641,新規,0,2022-02-04,2022-02-04,Ｒｉｇｅｌ株式会社,,株式会社,大阪府,大阪市北区,中崎西２丁目２番１号東梅田八千代ビル１０階,,27,127,5300015,,,,,,,2022-02-04,1,,,,,リゲル,0
461,2120001243658,新規,0,2022-02-04,2022-02-04,株式会社Ｃｈｏａｙｏ　Ａｇｅｎｃｙ,,株式会社,大阪府,守口市,暁町６番３号,,27,209,5700022,,,,,,,2022-02-04,1,,,,,チョアヨエージェンシー,0
462,2120001243666,新規,0,2022-02-04,2022-02-04,株式会社Ｂｌｏｏｍ　Ｓｈｉｆｔ,,株式会社,大阪府,大阪市北区,堂島１丁目１番５号関電不動産梅田新道ビル１２Ｆ,,27,127,5300003,,,,,,,2022-02-04,1,,,,,ブルームシフト,0
465,2120003021070,新規,0,2022-02-04,2022-02-04,フェアリーキサ合同会社,,合同会社,大阪府,大阪市城東区,今福西２丁目３－４,,27,118,5360004,,,,,,,2022-02-04,1,,,,,フェアリーキサ,0
473,2130001071067,新規,0,2022-02-04,2022-02-04,株式会社岡田石工業,,株式会社,京都府,京丹後市,久美浜町尉ケ畑９７８番地の２,,26,212,6293564,,,,,,,2022-02-04,1,,,,,オカダイシコウギョウ,0
475,2130003007738,新規,0,2022-02-04,2022-02-04,Ｋ’ｓＳｔｕｄｉｏ合同会社,,合同会社,京都府,京都市西京区,桂西滝川町４３番地３,,26,111,6158024,,,,,,,2022-02-04,1,,,,,ケイズスタジオ,0
481,2140001124765,新規,0,2022-02-04,2022-02-04,ＮＥＷ３コンサルティング株式会社,,株式会社,兵庫県,神戸市中央区,熊内町４丁目７番１２－３０４号,,28,110,6510056,,,,,,,2022-02-04,1,,,,,ニュースリーコンサルティング,0
482,2140001124773,新規,0,2022-02-04,2022-02-04,株式会社有野商会,,株式会社,兵庫県,神戸市北区,有野台８丁目１０－９,,28,109,6511321,,,,,,,2022-02-04,1,,,,,アリノショウカイ,0
488,2140003017307,新規,0,2022-02-04,2022-02-04,西本合同会社,,合同会社,兵庫県,たつの市,御津町黒崎８７５番地,,28,229,6711301,,,,,,,2022-02-04,1,,,,,ニシモト,0
501,2180001149833,新規,0,2022-02-04,2022-02-04,ＣＩＳアドバイザリー株式会社,,株式会社,愛知県,名古屋市中村区,名駅３丁目２６番８号ＫＤＸ名古屋駅前ビル１３階,,23,105,4500002,,,,,,,2022-02-04,1,,,,,シーアイエスアドバイザリー,0
502,2180001149858,新規,0,2022-02-04,2022-02-04,株式会社義満工業,,株式会社,愛知県,一宮市,松降２丁目１番２０号,,23,203,4910042,,,,,,,2022-02-04,1,,,,,ヨシミツコウギョウ,0
506,2180005019628,新規,0,2022-02-04,2022-02-04,一般社団法人住宅ローン支援協会,,その他の設立登記法人,愛知県,名古屋市千種区,今池南２９－１０,,23,101,4640851,,,,,,,2022-02-04,1,,,,,ジュウタクローンシエンキョウカイ,0
511,2180301035898,新規,0,2022-02-04,2022-02-04,株式会社Ｕｎｄｅｒ　Ｇｒｏｕｎｄ,,株式会社,愛知県,岡崎市,欠町字金谷３１番地５Ｇフォータン１８・３０２号室,,23,202,4440011,,,,,,,2022-02-04,1,,,,,アンダーグラウンド,0
514,2190001029076,新規,0,2022-02-04,2022-02-04,あぴり株式会社,,株式会社,三重県,鈴鹿市,岸岡町１６４１番地の３３,,24,207,5100226,,,,,,,2022-02-04,1,,,,,アピリ,0
515,2190001029101,新規,0,2022-02-04,2022-02-04,株式会社ＡＳＫ,,株式会社,三重県,四日市市,楠町北五味塚１９８１番地１,,24,202,5100103,,,,,,,2022-02-04,1,,,,,アスカ,0
521,2220001024676,新規,0,2022-02-04,2022-02-04,株式会社ＬＵＡＮＥＣＴインベストメント,,株式会社,石川県,金沢市,若草町８番３号,,17,201,9218111,,,,,,,2022-02-04,1,,,,,ルアネクトインベストメント,0
522,2220001024684,新規,0,2022-02-04,2022-02-04,株式会社ＦＩＲＭ,,株式会社,石川県,金沢市,彦三町２丁目１番１０号,,17,201,9200901,,,,,,,2022-02-04,1,,,,,ファーム,0
523,2220003003199,新規,0,2022-02-04,2022-02-04,合同会社ぷー,,合同会社,石川県,金沢市,金石通町２番１２号,,17,201,9200316,,,,,,,2022-02-04,1,,,,,プー,0
528,2250003002999,新規,0,2022-02-04,2022-02-04,合同会社河本水産,,合同会社,山口県,岩国市,周東町下久原１１６７番地２,,35,208,7420417,,,,,,,2022-02-04,1,,,,,カワモトスイサン,0
531,2260001036503,新規,0,2022-02-04,2022-02-04,ＧＲＡＥＡ株式会社,,株式会社,岡山県,岡山市北区,本町１－３ＥＡＳＥＬ＆ＣＯＭＰＬＥＸ,,33,101,7000901,,,,,,,2022-02-04,1,,,,,グライア,0
541,2290001096321,新規,0,2022-02-04,2022-02-04,Ｎｅｘｔ　Ｖｉｓｉｏｎ株式会社,,株式会社,福岡県,久留米市,津福本町１０９８番地２ルネス津福６０３号,,40,203,8300047,,,,,,,2022-02-04,1,,,,,ネクストビジョン,0
548,2300001012796,新規,0,2022-02-04,2022-02-04,株式会社大栄商事,,株式会社,佐賀県,唐津市,養母田４９２番地１,,41,202,8470004,,,,,,,2022-02-04,1,,,,,ダイエイショウジ,0
550,2310003004270,新規,0,2022-02-04,2022-02-04,合同会社村の菓子工房,,合同会社,長崎県,西海市,大瀬戸町多以良外郷３１０１番地１９,,42,212,8572311,,,,,,,2022-02-04,1,,,,,ムラノカシコウボウ,0
552,2330001029409,新規,0,2022-02-04,2022-02-04,株式会社からだ再生ラボ,,株式会社,熊本県,熊本市中央区,島崎１丁目２４番３１－５０５号,,43,101,8600073,,,,,,,2022-02-04,1,,,,,カラダサイセイラボ,0
553,2330001029425,新規,0,2022-02-04,2022-02-04,株式会社しんわ不動産,,株式会社,熊本県,荒尾市,大平町２丁目５１番地３,,43,204,8640005,,,,,,,2022-02-04,1,,,,,シンワフドウサン,0
556,2340001024466,新規,0,2022-02-04,2022-02-04,株式会社ＨｉｇｈＵｐＬｏｃａｌ,,株式会社,鹿児島県,薩摩川内市,永利町２５４３番地,,46,215,8950005,,,,,,,2022-02-04,1,,,,,ハイアップローカル,0
557,2340001024474,新規,0,2022-02-04,2022-02-04,株式会社ホットスタッフ伊集院,,株式会社,鹿児島県,日置市,伊集院町下谷口１９９９番地５,,46,216,8992501,,,,,,,2022-02-04,1,,,,,ホットスタッフイジュウイン,0
562,2360003011782,新規,0,2022-02-04,2022-02-04,ＩＳＬＡＮＤ　ＢＡＧ合同会社,,合同会社,沖縄県,中頭郡北谷町,字伊平４６５番地１１,,47,326,9040102,,,,,,,2022-02-04,1,,,,,アイランドバッグ,0
567,2370001048157,新規,0,2022-02-04,2022-02-04,栗駒木匠株式会社,,株式会社,宮城県,栗原市,栗駒中野田町東１１番地５,,04,213,9895351,,,,,,,2022-02-04,1,,,,,クリコマモクショウ,0
568,2370001048181,新規,0,2022-02-04,2022-02-04,株式会社高田機電,,株式会社,宮城県,仙台市太白区,八本松１丁目２番１２号,,04,104,9820001,,,,,,,2022-02-04,1,,,,,タカダキデン,0
569,2370003005577,新規,0,2022-02-04,2022-02-04,合同会社高幸,,合同会社,宮城県,仙台市宮城野区,萩野町２丁目２５番１号,,04,102,9830043,,,,,,,2022-02-04,1,,,,,コウコウ,0
575,2380003005097,新規,0,2022-02-04,2022-02-04,合同会社彩季亭,,合同会社,福島県,伊達郡国見町,大字山崎字北町田３１番地１１,,07,303,9691771,,,,,,,2022-02-04,1,,,,,サイキテイ,0
576,2400003002892,新規,0,2022-02-04,2022-02-04,合同会社ＢＲＧ,,合同会社,岩手県,奥州市,水沢佐倉河字西幅１０２番地２,,03,215,0230003,,,,,,,2022-02-04,1,,,,,バーグ,0
578,2420003002445,新規,0,2022-02-04,2022-02-04,合同会社ＭＵＧＥＮ,,合同会社,青森県,五所川原市,字鎌谷町５１７番地１,,02,205,0370033,,,,,,,2022-02-04,1,,,,,ムゲン,0
581,2430001085920,新規,0,2022-02-04,2022-02-04,株式会社秋場ライステック,,株式会社,北海道,美唄市,字茶志内３５番地９,,01,215,0720000,,,,,,,2022-02-04,1,,,,,アキバライステック,0
582,2430001085929,新規,0,2022-02-04,2022-02-04,株式会社齊藤屋商店,,株式会社,北海道,札幌市南区,澄川三条４丁目３番１０号,,01,106,0050003,,,,,,,2022-02-04,1,,,,,サイトウヤショウテン,0
583,2430001085937,新規,0,2022-02-04,2022-02-04,株式会社ＨＴＳ,,株式会社,北海道,虻田郡倶知安町,字瑞穂３６３番地,,01,400,0440067,,,,,,,2022-02-04,1,,,,,エイチティーエス,0
584,2430001085953,新規,0,2022-02-04,2022-02-04,株式会社フローライト,,株式会社,北海道,札幌市中央区,南十二条西６丁目１番３－４０６号,,01,101,0640912,,,,,,,2022-02-04,1,,,,,フローライト,0
585,2430001085961,新規,0,2022-02-04,2022-02-04,株式会社コクサイ,,株式会社,北海道,札幌市東区,北三十一条東１９丁目１番１０号３階,,01,103,0650031,,,,,,,2022-02-04,1,,,,,コクサイ,0
594,2470001018959,新規,0,2022-02-04,2022-02-04,株式会社ソレユアタ,,株式会社,香川県,高松市,牟礼町大町２３９１－３９,,37,201,7610122,,,,,,,2022-02-04,1,,,,,ソレユアタ,0
600,2500001023988,新規,0,2022-02-04,2022-02-04,株式会社Ｒファーム,,株式会社,愛媛県,松山市,北久米町９８９番地１,,38,201,7900923,,,,,,,2022-02-04,1,,,,,アールファーム,0
601,2500005008457,新規,0,2022-02-04,2022-02-04,一般社団法人地方創生機構,,その他の設立登記法人,愛媛県,西宇和郡伊方町,川永田甲１５３６番地４,,38,442,7960312,,,,,,,2022-02-04,1,,,,,チホウソウセイキコウ,0
603,2700150041696,新規,0,2022-02-04,2015-10-09,中部インダストリアル・エンジニアリング協会,,その他,愛知県,名古屋市中区,錦２丁目１５番１５号,,23,106,4600003,,,,,,,2015-10-09,1,,,,,チユウブインダストリアルエンジニアリングキヨウカイ,0
604,2700150045788,新規,0,2022-02-04,2015-10-09,焼津市職員組合,,その他,静岡県,焼津市,本町２丁目１６番３２号,,22,212,4250022,,,,,,,2015-10-09,1,,,,,ヤイヅシシヨクインクミアイ,0
608,2700150106920,新規,0,2022-02-04,2022-02-04,Ｎａｗａｌａｎｋａ　Ｔｒａｄｅｒｓ,,外国会社等,千葉県,千葉市若葉区,金親町８６番地２石井ハイツＤ号,,12,104,2640001,スリランカ民主社会主義共和国、クルネガラ、ウェヘラ、ニッサンカマワタ、７１,,,,,,2022-02-04,1,,,,,ナワランカトレーダース,0
618,3010001224346,新規,0,2022-02-04,2022-02-04,パフォーマンスソリューションズジャパン株式会社,,株式会社,東京都,千代田区,永田町２丁目１１番１号,,13,101,1000014,,,,,,,2022-02-04,1,,,,,パフォーマンスソリューションズジャパン,0
619,3010001224354,新規,0,2022-02-04,2022-02-04,株式会社ビットタワー,,株式会社,東京都,中央区,銀座１丁目２２番１１号銀座大竹ビジデンス２階,,13,102,1040061,,,,,,,2022-02-04,1,,,,,ビットタワー,0
620,3010001224362,新規,0,2022-02-04,2022-02-04,株式会社ＥＱＵＥＳ,,株式会社,東京都,文京区,本郷６丁目２５番１４号,,13,105,1130033,,,,,,,2022-02-04,1,,,,,エクエス,0
621,3010001224404,新規,0,2022-02-04,2022-02-04,タノシイ株式会社,,株式会社,東京都,中央区,日本橋中洲１番５号,,13,102,1030008,,,,,,,2022-02-04,1,,,,,タノシイ,0
623,3010003036946,新規,0,2022-02-04,2022-02-04,Ｓａｚａｒａｙｓ合同会社,,合同会社,東京都,中央区,銀座１丁目２２番１１号銀座大竹ビジデンス２階,,13,102,1040061,,,,,,,2022-02-04,1,,,,,サザレイス,0
638,3010401165347,新規,0,2022-02-04,2022-02-04,株式会社すしのすけ,,株式会社,東京都,港区,新橋２丁目１６番１号ニュー新橋ビルＢ３９号室,,13,103,1050004,,,,,,,2022-02-04,1,,,,,スシノスケ,0
639,3010403027041,新規,0,2022-02-04,2022-02-04,カインドコンサルティング合同会社,,合同会社,東京都,港区,虎ノ門１丁目１６番６号虎ノ門ＲＡＰＯ－ＴＯビルＵＣＦ７階,,13,103,1050001,,,,,,,2022-02-04,1,,,,,カインドコンサルティング,0
641,3010405020647,新規,0,2022-02-04,2022-02-04,一般社団法人先端医療推進センター,,その他の設立登記法人,東京都,港区,南青山３丁目１８番１７号エイジービル５階,,13,103,1070062,,,,,,,2022-02-04,1,,,,,センタンイリョウスイシンセンター,0
642,3010501048410,新規,0,2022-02-04,2022-02-04,株式会社ＴＥＴＳＵＪＩＮ,,株式会社,東京都,台東区,東上野５丁目６番３号Ｂｒｉｌｌｉａ上野Ｇａｒｄｅｎ１０１号,,13,106,1100015,,,,,,,2022-02-04,1,,,,,テツジン,0
643,3010601060604,新規,0,2022-02-04,2022-02-04,エレクトロン株式会社,,株式会社,東京都,墨田区,京島１丁目１番２号イーストコア曳舟二番館３２０８,,13,107,1310046,,,,,,,2022-02-04,1,,,,,エレクトロン,0
644,3010601060629,新規,0,2022-02-04,2022-02-04,株式会社セキュアエモーション,,株式会社,東京都,墨田区,本所３丁目１４番９－３０１号本所柿沼ビル,,13,107,1300004,,,,,,,2022-02-04,1,,,,,セキュアエモーション,0
649,3010801032717,新規,0,2022-02-04,2022-02-04,株式会社カラーバー,,株式会社,東京都,大田区,西蒲田７丁目４番４号小山第二ビル６Ｆ,,13,111,1440051,,,,,,,2022-02-04,1,,,,,カラーバー,0
650,3010803004053,新規,0,2022-02-04,2022-02-04,合同会社丸由,,合同会社,東京都,大田区,西馬込２丁目４番１１号,,13,111,1430026,,,,,,,2022-02-04,1,,,,,マルヨシ,0
653,3010901050296,新規,0,2022-02-04,2022-02-04,株式会社Ｃ＆Ｇ,,株式会社,東京都,世田谷区,野沢２丁目３４番５－４０１号,,13,112,1540003,,,,,,,2022-02-04,1,,,,,シーアンドジー,0
654,3010901050305,新規,0,2022-02-04,2022-02-04,株式会社ド研,,株式会社,東京都,世田谷区,太子堂１丁目１２番２９号,,13,112,1540004,,,,,,,2022-02-04,1,,,,,ドケン,0
665,3011001145425,新規,0,2022-02-04,2022-02-04,株式会社ＨＨＡハラヒロト建築設計事務所,,株式会社,東京都,渋谷区,上原１丁目３８番８号ＳＤ代々木上原ビルＧＦ,,13,113,1510064,,,,,,,2022-02-04,1,,,,,エイチエイチエーハラヒロトケンチクセッケイジムショ,0
666,3011001145433,新規,0,2022-02-04,2022-02-04,グローバルワークスジャパン株式会社,,株式会社,東京都,渋谷区,恵比寿４丁目２０番３号恵比寿ガーデンプレイスタワー１８階,,13,113,1500013,,,,,,,2022-02-04,1,,,,,グローバルワークスジャパン,0
667,3011001145466,新規,0,2022-02-04,2022-02-04,ふじさわ株式会社,,株式会社,東京都,目黒区,駒場３丁目１２－２４,,13,110,1530041,,,,,,,2022-02-04,1,,,,,フジサワ,0
668,3011001145482,新規,0,2022-02-04,2022-02-04,株式会社スタジオ・ガガ,,株式会社,東京都,渋谷区,恵比寿２丁目２０番１２号ｌａｎｉ恵比寿１０１号室,,13,113,1500013,,,,,,,2022-02-04,1,,,,,スタジオガガ,0
669,3011001145532,新規,0,2022-02-04,2022-02-04,株式会社ＪＡＭ,,株式会社,東京都,渋谷区,宇田川町３番１４－５０６号ザ・パークハウスアーバンス渋谷,,13,113,1500042,,,,,,,2022-02-04,1,,,,,ジャム,0
671,3011003014108,新規,0,2022-02-04,2022-02-04,ＢＲＭｚ合同会社,,合同会社,東京都,渋谷区,神宮前６丁目２３番４号桑野ビル２Ｆ,,13,113,1500001,,,,,,,2022-02-04,1,,,,,ビーアールエムズ,0
677,3011203003744,新規,0,2022-02-04,2022-02-04,デジタルデシジョン合同会社,,合同会社,東京都,中野区,東中野２丁目２２番１４号ハイネス東中野プリメール１０６,,13,114,1640003,,,,,,,2022-02-04,1,,,,,デジタルデシジョン,0
685,3011801040288,新規,0,2022-02-04,2022-02-04,オフィスパートナー株式会社,,株式会社,東京都,葛飾区,堀切７丁目２５番４号,,13,122,1240006,,,,,,,2022-02-04,1,,,,,オフィスパートナー,0
686,3012401038821,新規,0,2022-02-04,2022-02-04,齋藤建築塗装株式会社,,株式会社,東京都,府中市,白糸台６丁目１２番地の９サンパティーク１０２,,13,206,1830011,,,,,,,2022-02-04,1,,,,,サイトウケンチクトソウ,0
688,3012701016915,新規,0,2022-02-04,2022-02-04,株式会社ｂｕｉｌｄ,,株式会社,東京都,東村山市,萩山町３丁目３１番地５６－４１７,,13,213,1890012,,,,,,,2022-02-04,1,,,,,ビルド,0
689,3012801021377,新規,0,2022-02-04,2022-02-04,株式会社フジキチ,,株式会社,東京都,東大和市,桜が丘２丁目１４２番地の２０グランドメゾン玉川上水センタースクエア６０７,,13,220,2070022,,,,,,,2022-02-04,1,,,,,フジキチ,0
690,3012803002689,新規,0,2022-02-04,2022-02-04,合同会社孝貴,,合同会社,東京都,日野市,程久保２丁目１１－７,,13,212,1910042,,,,,,,2022-02-04,1,,,,,コウキ,0
691,3013301048638,新規,0,2022-02-04,2022-02-04,株式会社Ｖｅｔ’ｓ　Ｃｒｅａｔｉｏｎ,,株式会社,東京都,豊島区,北大塚１丁目２０番７号１Ｆ,,13,116,1700004,,,,,,,2022-02-04,1,,,,,ベッツクリエーション,0
696,3020001145079,新規,0,2022-02-04,2022-02-04,ＮＪＳクリエイト株式会社,,株式会社,神奈川県,横浜市港北区,新横浜２丁目１４番８号オフィス新横浜ビル３０１号,,14,109,2220033,,,,,,,2022-02-04,1,,,,,エヌジェーエスクリエイト,0
697,3020001145087,新規,0,2022-02-04,2022-02-04,株式会社ＩＰリーガルリサーチ,,株式会社,神奈川県,川崎市高津区,末長１丁目４９番１－５００１号,,14,134,2130013,,,,,,,2022-02-04,1,,,,,アイピーリーガルリサーチ,0
698,3020001145104,新規,0,2022-02-04,2022-02-04,ＴＳＵＮＡＧＵ株式会社,,株式会社,神奈川県,横浜市栄区,犬山町３７番２号,,14,115,2470026,,,,,,,2022-02-04,1,,,,,ツナグ,0
702,3020003021245,新規,0,2022-02-04,2022-02-04,合同会社オオツカ,,合同会社,神奈川県,横浜市青葉区,若草台３番地１３,,14,117,2270045,,,,,,,2022-02-04,1,,,,,オオツカ,0
704,3021001075101,新規,0,2022-02-04,2022-02-04,株式会社ＫＯＭＯＰＡＮ・ＣＯＭＰＡＮＹ,,株式会社,神奈川県,鎌倉市,腰越４丁目９番４号,,14,204,2480033,,,,,,,2022-02-04,1,,,,,コモパンカンパニー,0
705,3021001075118,新規,0,2022-02-04,2022-02-04,ジョイリビング株式会社,,株式会社,神奈川県,厚木市,中町２丁目３番１号ダイヤプラザビル１Ｆ,,14,212,2430018,,,,,,,2022-02-04,1,,,,,ジョイリビング,0
706,3021001075126,新規,0,2022-02-04,2022-02-04,株式会社ラグスポ,,株式会社,神奈川県,相模原市緑区,相原２丁目１２番１８号スカイコート橋本第１、５０８,,14,151,2520141,,,,,,,2022-02-04,1,,,,,ラグスポ,0
715,3030001146613,新規,0,2022-02-04,2022-02-04,株式会社Ｌｅａｐ,,株式会社,埼玉県,入間市,大字上藤沢４０６番地１２,,11,225,3580013,,,,,,,2022-02-04,1,,,,,リープ,0
716,3030001146670,新規,0,2022-02-04,2022-02-04,株式会社斉藤工業,,株式会社,埼玉県,川口市,大字安行原１０８９番地の２,,11,203,3340057,,,,,,,2022-02-04,1,,,,,サイトウコウギョウ,0
717,3030001146679,新規,0,2022-02-04,2022-02-04,Ｃａｓａ　ＷＯＲＫＳ株式会社,,株式会社,埼玉県,所沢市,大字上安松１２１６番地の６ライゼホビー７号室,,11,208,3590025,,,,,,,2022-02-04,1,,,,,カーサワークス,0
726,3040001122101,新規,0,2022-02-04,2022-02-04,株式会社オーテック,,株式会社,千葉県,富津市,大堀４丁目９－３０,,12,226,2930001,,,,,,,2022-02-04,1,,,,,オーテック,0
734,3050001050581,新規,0,2022-02-04,2022-02-04,株式会社クリーンアップ,,株式会社,茨城県,つくば市,二の宮３丁目８番地２雅ビル３０１,,08,220,3050051,,,,,,,2022-02-04,1,,,,,クリーンアップ,0
738,3060001034550,新規,0,2022-02-04,2022-02-04,ダルマジャパン株式会社,,株式会社,栃木県,宇都宮市,川田町１５２０番地４コーシュ箕輪１Ｆ－Ｄ,,09,201,3210111,,,,,,,2022-02-04,1,,,,,ダルマジャパン,0
739,3060001034559,新規,0,2022-02-04,2022-02-04,丸吉株式会社,,株式会社,栃木県,小山市,大字萱橋２８６番地２,,09,208,3230804,,,,,,,2022-02-04,1,,,,,マルヨシ,0
742,3060003003941,新規,0,2022-02-04,2022-02-04,合同会社住まいるサポート,,合同会社,栃木県,佐野市,出流原町６９１番地５,,09,204,3270102,,,,,,,2022-02-04,1,,,,,スマイルサポート,0
748,3080003002727,新規,0,2022-02-04,2022-02-04,ＲＩＭ　ｔｅｃｈｎｏ合同会社,,合同会社,静岡県,藤枝市,高柳１丁目１４番３５号リファインドコート３０３号,,22,214,4260041,,,,,,,2022-02-04,1,,,,,リムテクノ,0
749,3080103002511,新規,0,2022-02-04,2022-02-04,合同会社Ａ．Ｉ．,,合同会社,静岡県,三島市,徳倉３丁目８番３９号,,22,206,4110044,,,,,,,2022-02-04,1,,,,,エイアイ,0
750,3080401025610,新規,0,2022-02-04,2022-02-04,株式会社正視覚力推進研究所,,株式会社,静岡県,浜松市西区,大平台３丁目１６番１０号,,22,133,4328068,,,,,,,2022-02-04,1,,,,,セイシカクリョクスイシンケンキュウショ,0
751,3090001017395,新規,0,2022-02-04,2022-02-04,株式会社レインボーアシスト,,株式会社,山梨県,都留市,下谷４丁目３番１３号,,19,204,4020051,,,,,,,2022-02-04,1,,,,,レインボーアシスト,0
752,3100001035040,新規,0,2022-02-04,2022-02-04,株式会社ミヤ．クラー,,株式会社,長野県,佐久市,岩村田３７５１番地５,,20,217,3850022,,,,,,,2022-02-04,1,,,,,ミヤクラー,0
758,3120001243541,新規,0,2022-02-04,2022-02-04,株式会社ＴＷＣ　ＪＡＰＡＮ,,株式会社,大阪府,大阪市城東区,鴫野西４丁目２番２４号,,27,118,5360014,,,,,,,2022-02-04,1,,,,,ティーダブリューシージャパン,0
759,3120001243582,新規,0,2022-02-04,2022-02-04,株式会社Ｈｗｙｌ,,株式会社,大阪府,大阪市淀川区,西中島２丁目６番１２号,,27,123,5320011,,,,,,,2022-02-04,1,,,,,ヒュイル,0
760,3120001243590,新規,0,2022-02-04,2022-02-04,株式会社ユニヴァーサル・ダイバーシティ,,株式会社,大阪府,大阪市阿倍野区,阪南町３丁目８番１２号,,27,119,5450021,,,,,,,2022-02-04,1,,,,,ユニヴァーサルダイバーシティ,0
761,3120001243640,新規,0,2022-02-04,2022-02-04,株式会社ネオワーク,,株式会社,大阪府,大阪市天王寺区,四天王寺１丁目１４番２４－９０２号,,27,109,5430051,,,,,,,2022-02-04,1,,,,,ネオワーク,0
762,3120001243649,新規,0,2022-02-04,2022-02-04,株式会社Ｃｏｎｏｃａ,,株式会社,大阪府,大阪市中央区,南船場２丁目４番２０号,,27,128,5420081,,,,,,,2022-02-04,1,,,,,コノカ,0
763,3120001243665,新規,0,2022-02-04,2022-02-04,リアボディ株式会社,,株式会社,大阪府,寝屋川市,香里新町３番２号,,27,215,5720085,,,,,,,2022-02-04,1,,,,,リアボディ,0
764,3120001243673,新規,0,2022-02-04,2022-02-04,株式会社プロッツ,,株式会社,大阪府,大阪市北区,天満橋３丁目３番５号天満インキュベーションラボ,,27,127,5300042,,,,,,,2022-02-04,1,,,,,プロッツ,0
765,3120001243681,新規,0,2022-02-04,2022-02-04,株式会社マストキャリア,,株式会社,大阪府,大阪市中央区,南本町２丁目１番１号,,27,128,5410054,,,,,,,2022-02-04,1,,,,,マストキャリア,0
766,3120001243698,新規,0,2022-02-04,2022-02-04,ＡＫＡＺＵ株式会社,,株式会社,大阪府,大阪市北区,堂島１丁目４番４号,,27,127,5300003,,,,,,,2022-02-04,1,,,,,アカズ,0
768,3120003021061,新規,0,2022-02-04,2022-02-04,ＫＭホールディングス合同会社,,合同会社,大阪府,大阪市中央区,安土町１丁目４番５－３０１号,,27,128,5410052,,,,,,,2022-02-04,1,,,,,ケーエムホールディングス,0
770,3120005022719,新規,0,2022-02-04,2022-02-04,エイチ・ツー・オー商業開発労働組合,,その他の設立登記法人,大阪府,大阪市西成区,花園南１丁目４番４号,,27,122,5570015,,,,,,,2022-02-04,1,,,,,エイチツーオーショウギョウカイハツ,0
772,3120101065027,新規,0,2022-02-04,2022-02-04,株式会社ＨＹｃｏｒｐ．,,株式会社,大阪府,泉南郡熊取町,和田４丁目１１６８番地の６,,27,361,5900417,,,,,,,2022-02-04,1,,,,,エイチワイコーポレーション,0
776,3120901045541,新規,0,2022-02-04,2022-02-04,株式会社Ｍ・Ｏ・Ｐ,,株式会社,大阪府,豊中市,蛍池西町二丁目７番１２号,,27,203,5600000,,,,,,,2022-02-04,1,,,,,エムオーピー,0
780,3130001071066,新規,0,2022-02-04,2022-02-04,株式会社Ｈ－ｓｔｕｄｉｏ,,株式会社,京都府,京都市西京区,桂南巽町１２８ヴァン・クレール５階,,26,111,6158074,,,,,,,2022-02-04,1,,,,,エイチスタジオ,0
781,3130001071074,新規,0,2022-02-04,2022-02-04,株式会社ＮＥＸＴ　ＧＥＮＥＲＡＴＩＯＮ,,株式会社,京都府,京都市南区,久世大藪町４５２番地１１,,26,107,6010000,,,,,,,2022-02-04,1,,,,,ネクストジェネレーション,0
782,3130001071082,新規,0,2022-02-04,2022-02-04,株式会社ＺＥＡＬ,,株式会社,京都府,久世郡久御山町,大橋辺北島５番地４８,,26,322,6130046,,,,,,,2022-02-04,1,,,,,ジール,0
796,3140001124772,新規,0,2022-02-04,2022-02-04,Ｗｏｒｌｄ　Ｔｒａｄｅ株式会社,,株式会社,兵庫県,尼崎市,下坂部４丁目７番２８号,,28,202,6610975,,,,,,,2022-02-04,1,,,,,ワールドトレード,0
797,3140001124780,新規,0,2022-02-04,2022-02-04,株式会社ＴＯＤＡ,,株式会社,兵庫県,三木市,志染町広野１丁目２２１番地１メルヴェール広野１０５号室,,28,215,6730541,,,,,,,2022-02-04,1,,,,,トオダ,0
798,3140001124806,新規,0,2022-02-04,2022-02-04,株式会社ＰｒｏＭｅｄｉａｔｅ,,株式会社,兵庫県,神戸市須磨区,白川台６丁目１２－３森ビル２Ｆ,,28,107,6540103,,,,,,,2022-02-04,1,,,,,プロメディエート,0
806,3150003002612,新規,0,2022-02-04,2022-02-04,合同会社片岡,00125625,合同会社,奈良県,大和郡山市,筒井町８９４番地１寺西ハイツ５,,29,203,6391123,,,,,,,2022-02-04,1,,,,,カタオカ,0
810,3180003023424,新規,0,2022-02-04,2022-02-04,合同会社ＳＧＢＴ,,合同会社,愛知県,名古屋市中区,錦３丁目９番１５号サンロード錦Ｂ１,,23,106,4600003,,,,,,,2022-02-04,1,,,,,エスジービーティー,0
811,3180003023465,新規,0,2022-02-04,2022-02-04,合同会社Ｌｏｏｍ　Ｎｏ．６,,合同会社,愛知県,名古屋市北区,東長田町２丁目２５番地の１,,23,103,4620827,,,,,,,2022-02-04,1,,,,,ルームナンバーシックス,0
812,3180003023473,新規,0,2022-02-04,2022-02-04,合同会社こころん,,合同会社,愛知県,春日井市,大留町９丁目１番地２,,23,206,4870024,,,,,,,2022-02-04,1,,,,,ココロン,0
813,3180005019627,新規,0,2022-02-04,2022-02-04,一般財団法人古山奨学財団,,その他の設立登記法人,愛知県,名古屋市中区,丸の内３丁目２０番３号,,23,106,4600002,,,,,,,2022-02-04,1,,,,,コヤマショウガクザイダン,0
814,3190001029100,新規,0,2022-02-04,2022-02-04,株式会社謙真不動産,,株式会社,三重県,名張市,夏見３２２８番地,,24,208,5180441,,,,,,,2022-02-04,1,,,,,ケンシンフドウサン,0
823,3220001024675,新規,0,2022-02-04,2022-02-04,みんなの馬株式会社,,株式会社,石川県,珠洲市,熊谷町８の部３番地,,17,205,9271212,,,,,,,2022-02-04,1,,,,,ミンナノウマ,0
826,3220003003198,新規,0,2022-02-04,2022-02-04,ＣＳＢＡ合同会社,,合同会社,石川県,金沢市,増泉２丁目１０番１０号,,17,201,9218025,,,,,,,2022-02-04,1,,,,,シスバ,0
830,3240001059265,新規,0,2022-02-04,2022-02-04,株式会社堀内,,株式会社,広島県,東広島市,西条下見５丁目８番２４号,,34,212,7390047,,,,,,,2022-02-04,1,,,,,ホリウチ,0
831,3240001059281,新規,0,2022-02-04,2022-02-04,株式会社三入東ミート,,株式会社,広島県,広島市安佐北区,三入東１丁目３１番２０号,,34,106,7310212,,,,,,,2022-02-04,1,,,,,ミイリヒガシミート,0
836,3260001036485,新規,0,2022-02-04,2022-02-04,株式会社トーカロイホールディングス,,株式会社,岡山県,津山市,綾部１６４５番地２０,,33,203,7081104,,,,,,,2022-02-04,1,,,,,トーカロイホールディングス,0
837,3260001036502,新規,0,2022-02-04,2022-02-04,むろ不動産株式会社,,株式会社,岡山県,岡山市北区,平野６２２番地２３ＷＯＲＫ　ＳＰＡＣＥ平野２０２,,33,101,7010151,,,,,,,2022-02-04,1,,,,,ムロフドウサン,0
840,3270001008450,新規,0,2022-02-04,2022-02-04,株式会社コロネロ,,株式会社,鳥取県,岩美郡岩美町,大字浦富１０４１番地７,,31,302,6810003,,,,,,,2022-02-04,1,,,,,コロネロ,0
843,3290001096320,新規,0,2022-02-04,2022-02-04,株式会社保険のヒーローズ,,株式会社,福岡県,朝倉市,杷木池田７５２朝倉市商工会館２階,,40,228,8381511,,,,,,,2022-02-04,1,,,,,ホケンノヒーローズ,0
844,3290001096329,新規,0,2022-02-04,2022-02-04,株式会社ＵＭＡＨ’Ｓ,,株式会社,福岡県,福岡市博多区,寿町３丁目４番１６号７Ｆ,,40,132,8120884,,,,,,,2022-02-04,1,,,,,ユーマーズ,0
845,3290801028241,新規,0,2022-02-04,2022-02-04,株式会社ＨｅａｌｔｈＣｒａｆｔ,,株式会社,福岡県,北九州市八幡西区,山寺町１０番２３号,,40,109,8060030,,,,,,,2022-02-04,1,,,,,ヘルスクラフト,0
847,3300001012795,新規,0,2022-02-04,2022-02-04,株式会社スマイル・プランニング,,株式会社,佐賀県,唐津市,厳木町厳木８０２番地５,,41,202,8493131,,,,,,,2022-02-04,1,,,,,スマイルプランニング,0
850,3320001018881,新規,0,2022-02-04,2022-02-04,株式会社ＫＯＫＵＳＨＩ,,株式会社,大分県,佐伯市,大字長良６３番地２,,44,205,8761511,,,,,,,2022-02-04,1,,,,,コクシ,0
851,3330001029399,新規,0,2022-02-04,2022-02-04,株式会社勇創,,株式会社,熊本県,熊本市西区,河内町野出１７９番地７,,43,103,8615343,,,,,,,2022-02-04,1,,,,,ユウソウ,0
852,3330001029424,新規,0,2022-02-04,2022-02-04,ふぉれすと株式会社,,株式会社,熊本県,熊本市西区,河内町白浜９３番地１,,43,103,8615348,,,,,,,2022-02-04,1,,,,,フォレスト,0
858,3350001017567,新規,0,2022-02-04,2022-02-04,株式会社とことこ,,株式会社,宮崎県,宮崎市,大塚台西３丁目３７番地８,,45,201,8802105,,,,,,,2022-02-04,1,,,,,トコトコ,0
867,3370001048156,新規,0,2022-02-04,2022-02-04,株式会社ＮＯＡＨ,,株式会社,宮城県,石巻市,蛇田字新丸井戸１９番地１４,,04,202,9860861,,,,,,,2022-02-04,1,,,,,ノア,0
870,3380001032547,新規,0,2022-02-04,2022-02-04,株式会社ＧＲＡＦ,,株式会社,福島県,郡山市,安積町笹川字南向８番地の５４,,07,203,9630102,,,,,,,2022-02-04,1,,,,,グラフ,0
874,3400001015771,新規,0,2022-02-04,2022-02-04,株式会社Ｈａｐｐｙ,,株式会社,岩手県,花巻市,中根子字滝ノ沢１５０番地１,,03,205,0250036,,,,,,,2022-02-04,1,,,,,ハッピー,0
875,3400005008210,新規,0,2022-02-04,2022-02-04,葛巻町特定地域づくり事業協同組合,,その他の設立登記法人,岩手県,岩手郡葛巻町,葛巻第１６地割１番地１,,03,302,0285402,,,,,,,2022-02-04,1,,,,,クズマキマチトクテイチイキヅクリジギョウ,0
879,3420001017733,新規,0,2022-02-04,2022-02-04,まそら株式会社,,株式会社,青森県,八戸市,新井田西１丁目６番９号,,02,203,0310816,,,,,,,2022-02-04,1,,,,,マソラ,0
881,3420003002444,新規,0,2022-02-04,2022-02-04,合同会社Ｖａｌｏｒ,,合同会社,青森県,平川市,高木松元１７４番地２,,02,210,0360211,,,,,,,2022-02-04,1,,,,,バロール,0
887,3430001085960,新規,0,2022-02-04,2022-02-04,株式会社超越ジャパン,,株式会社,北海道,札幌市北区,北三十四条西４丁目２番１７号,,01,102,0010034,,,,,,,2022-02-04,1,,,,,チョウエツジャパン,0
890,3430003013606,新規,0,2022-02-04,2022-02-04,合同会社リードタイム,,合同会社,北海道,札幌市南区,中ノ沢３丁目３番１５号,,01,106,0050831,,,,,,,2022-02-04,1,,,,,リードタイム,0
902,3480003001787,新規,0,2022-02-04,2022-02-04,合同会社みま,,合同会社,徳島県,美馬市,脇町字拝原９３９番地,,36,207,7793601,,,,,,,2022-02-04,1,,,,,ミマ,0
903,3490001010112,新規,0,2022-02-04,2022-02-04,株式会社森本,,株式会社,高知県,高知市,愛宕山４番地５,,39,201,7800025,,,,,,,2022-02-04,1,,,,,モリモト,0
904,3500001023987,新規,0,2022-02-04,2022-02-04,株式会社Ｒフード,,株式会社,愛媛県,松山市,二番町３丁目７番地２６,,38,201,7900002,,,,,,,2022-02-04,1,,,,,アールフード,0
917,4010001224329,新規,0,2022-02-04,2022-02-04,株式会社ＢＡＬＬＡＳ,,株式会社,東京都,中央区,銀座１丁目２２番１１号銀座大竹ビジデンス２階,,13,102,1040061,,,,,,,2022-02-04,1,,,,,,0
918,4010001224345,新規,0,2022-02-04,2022-02-04,デュポンジャパン株式会社,,株式会社,東京都,千代田区,永田町２丁目１１番１号,,13,101,1000014,,,,,,,2022-02-04,1,,,,,,0
919,4010001224353,新規,0,2022-02-04,2022-02-04,Ｍｉｎｄ＆Ａｒｔｓ株式会社,,株式会社,東京都,千代田区,富士見２丁目２番９号大山ビル１階,,13,101,1020071,,,,,,,2022-02-04,1,,,,,マインドアンドアーツ,0
920,4010001224361,新規,0,2022-02-04,2022-02-04,ハンドワン株式会社,,株式会社,東京都,文京区,白山１丁目３１番９号小林ビル,,13,105,1130001,,,,,,,2022-02-04,1,,,,,ハンドワン,0
921,4010003036929,新規,0,2022-02-04,2022-02-04,サンゴーコンサルティング合同会社,,合同会社,東京都,文京区,小石川１丁目１７番１－Ａ５０３号,,13,105,1120002,,,,,,,2022-02-04,1,,,,,サンゴーコンサルティング,0
924,4010005034559,新規,0,2022-02-04,2022-02-04,ヒューマンネット社会保険労務士法人,,その他の設立登記法人,東京都,千代田区,岩本町１丁目４番５号,,13,101,1010032,,,,,,,2022-02-04,1,,,,,ヒューマンネット,0
932,4010401165354,新規,0,2022-02-04,2022-02-04,株式会社ｅ－Ｓｐｉｒｉｔ　Ｍａｒｋｅｔｉｎｇ,,株式会社,東京都,港区,北青山３丁目６番１６号,,13,103,1070061,,,,,,,2022-02-04,1,,,,,イースピリットマーケティング,0
941,4010405020646,新規,0,2022-02-04,2022-02-04,ルイス１一般社団法人,,その他の設立登記法人,東京都,港区,浜松町１丁目２０番１０号ライオネス浜松町５０６号室,,13,103,1050013,,,,,,,2022-02-04,1,,,,,ルイスイチ,0
942,4010405020662,新規,0,2022-02-04,2022-02-04,ＳＣＧ６９一般社団法人,,その他の設立登記法人,東京都,港区,虎ノ門４丁目１番２８号,,13,103,1050001,,,,,,,2022-02-04,1,,,,,エスシージーシックスティナイン,0
944,4010701042204,新規,0,2022-02-04,2022-02-04,株式会社雄優遊,,株式会社,東京都,品川区,東品川２丁目５番６－２９０９号,,13,109,1400002,,,,,,,2022-02-04,1,,,,,ユウユウユウ,0
946,4010801032708,新規,0,2022-02-04,2022-02-04,株式会社ケアキャリッジ,,株式会社,東京都,大田区,上池台４丁目２０番２号,,13,111,1450064,,,,,,,2022-02-04,1,,,,,ケアキャリッジ,0
947,4010801032716,新規,0,2022-02-04,2022-02-04,株式会社オクロフ,,株式会社,東京都,大田区,山王２丁目５番地６号,,13,111,1430023,,,,,,,2022-02-04,1,,,,,オクロフ,0
949,4010803004052,新規,0,2022-02-04,2022-02-04,合同会社アデランテ,,合同会社,東京都,大田区,新蒲田２丁目１６番１７号,,13,111,1440054,,,,,,,2022-02-04,1,,,,,アデランテ,0
951,4010901050295,新規,0,2022-02-04,2022-02-04,電気資格対策センター株式会社,,株式会社,東京都,世田谷区,弦巻３丁目１７番１０号,,13,112,1540016,,,,,,,2022-02-04,1,,,,,,0
954,4010905004256,新規,0,2022-02-04,2022-02-04,一般社団法人人と鹿と森の共生,,その他の設立登記法人,東京都,世田谷区,弦巻３丁目５番７号,,13,112,1540016,,,,,,,2022-02-04,1,,,,,ヒトトシカトモリノキョウセイ,0
960,4011001145399,新規,0,2022-02-04,2022-02-04,株式会社ｓｅｌｅｃａｏ,,株式会社,東京都,渋谷区,幡ヶ谷３丁目３９番１２号渋谷ウェストビル１階,,13,113,1510072,,,,,,,2022-02-04,1,,,,,セレソン,0
961,4011001145432,新規,0,2022-02-04,2022-02-04,プレゼント株式会社,,株式会社,東京都,渋谷区,桜丘町２３番１７号,,13,113,1500031,,,,,,,2022-02-04,1,,,,,プレゼント,0
963,4011003014131,新規,0,2022-02-04,2022-02-04,ＭＯＤＥ　ＶＡＬＵＥ　ＣＲＥＡＴＥ合同会社,,合同会社,東京都,目黒区,三田１丁目１２番２２－２０２号山佐三田ハイツ,,13,110,1530062,,,,,,,2022-02-04,1,,,,,モードバリュークリエイト,0
972,4011103011433,新規,0,2022-02-04,2022-02-04,アンフィニー合同会社,,合同会社,東京都,新宿区,新宿２丁目１２番１３号新宿アントレサロンビル２階,,13,104,1600022,,,,,,,2022-02-04,1,,,,,アンフィニー,0
973,4011103011441,新規,0,2022-02-04,2022-02-04,合同会社Ｓｐｒｉｎｇ　ｄｒｅａｍ,,合同会社,東京都,新宿区,百人町１丁目２番５号－２０２号室,,13,104,1690073,,,,,,,2022-02-04,1,,,,,スプリングドリーム,0
975,4011201023611,新規,0,2022-02-04,2022-02-04,株式会社Ｇｒａｆｆｉｔｉ倶楽部,,株式会社,東京都,中野区,本町５丁目４番５号ハレイ中野２０７,,13,114,1640012,,,,,,,2022-02-04,1,,,,,グラフィティクラブ,0
976,4011203003743,新規,0,2022-02-04,2022-02-04,合同会社Ｓｔｕｄｉｏ　Ｍｏｏｎｒｉｖｅｒ,,合同会社,東京都,中野区,本町２丁目３８－１６メゾンド中野坂上１０１号,,13,114,1640012,,,,,,,2022-02-04,1,,,,,スタジオムーンリバー,0
978,4011501027733,新規,0,2022-02-04,2022-02-04,株式会社有信,,株式会社,東京都,荒川区,南千住２丁目１９番５号,,13,118,1160003,,,,,,,2022-02-04,1,,,,,ユウシン,0
979,4011701025025,新規,0,2022-02-04,2022-02-04,株式会社ＢＥＺＥＬ,,株式会社,東京都,江戸川区,南小岩８丁目１６番１７号,,13,123,1330056,,,,,,,2022-02-04,1,,,,,ベゼル,0
981,4011801040295,新規,0,2022-02-04,2022-02-04,株式会社ＶＯＹＡＧＥ,,株式会社,東京都,足立区,西保木間１丁目２０－１,,13,121,1210812,,,,,,,2022-02-04,1,,,,,ボヤージュ,0
982,4011801040304,新規,0,2022-02-04,2022-02-04,株式会社ファイブスターマーケティング,,株式会社,東京都,足立区,千住曙町３９番５－５０４号,,13,121,1200023,,,,,,,2022-02-04,1,,,,,ファイブスターマーケティング,0
984,4012401038837,新規,0,2022-02-04,2022-02-04,株式会社ＴＭＳマネージメント,,株式会社,東京都,武蔵野市,関前４丁目１番４号ライフコートエビス４０７号室,,13,203,1800014,,,,,,,2022-02-04,1,,,,,ティーエムエスマネージメント,0
989,4012701016914,新規,0,2022-02-04,2022-02-04,赫威株式会社,,株式会社,東京都,東村山市,美住町２丁目１８－１オフィスプラザエコ２０５号室,,13,213,1890023,,,,,,,2022-02-04,1,,,,,カクイ,0
990,4012705002290,新規,0,2022-02-04,2022-02-04,社会福祉法人ウーノ,,その他の設立登記法人,東京都,西東京市,住吉町３丁目１２番１９号,,13,229,2020005,,,,,,,2022-02-04,1,,,,,ウーノ,0
995,4020001145078,新規,0,2022-02-04,2022-02-04,株式会社ＲＥＥＬ,,株式会社,神奈川県,横浜市青葉区,青葉台２丁目２５番地３－３０３,,14,117,2270062,,,,,,,2022-02-04,1,,,,,リール,0
996,4020001145094,新規,0,2022-02-04,2022-02-04,デジタル少額短期設立準備株式会社,,株式会社,神奈川県,横浜市神奈川区,金港町１番地４,,14,102,2210056,,,,,,,2022-02-04,1,,,,,デジタルショウガクタンキセツリツジュンビ,0
997,4020001145111,新規,0,2022-02-04,2022-02-04,株式会社ヤガサービス,,株式会社,神奈川県,川崎市川崎区,砂子２丁目５－２１第３９東京ビル４Ｆ,,14,131,2100006,,,,,,,2022-02-04,1,,,,,ヤガサービス,0
998,4020001145136,新規,0,2022-02-04,2022-02-04,株式会社サイバーロジスティクス,,株式会社,神奈川県,横浜市西区,花咲町７丁目１５８番２号ＳＩＣ横浜ビル２Ｆ,,14,103,2200022,,,,,,,2022-02-04,1,,,,,サイバーロジスティクス,0
1002,4020003021252,新規,0,2022-02-04,2022-02-04,合同会社Ｓｅａｇｕｌｌ,,合同会社,神奈川県,横浜市栄区,鍛冶ケ谷２丁目６番９号Ｄ２０３号室,,14,115,2470009,,,,,,,2022-02-04,1,,,,,シーガル,0
1003,4021001075100,新規,0,2022-02-04,2022-02-04,株式会社ジャンボ,,株式会社,神奈川県,藤沢市,大庭５０５５番地の１０湘南西部２－２－２１１,,14,205,2510861,,,,,,,2022-02-04,1,,,,,ジャンボ,0
1004,4021001075125,新規,0,2022-02-04,2022-02-04,株式会社スタジオオタマ,,株式会社,神奈川県,三浦郡葉山町,堀内３７５－１グレードＩ葉山１０３号室,00125637,14,301,2400112,,,,,,,2022-02-04,1,,,,,スタジオオタマ,0
1014,4030001146620,新規,0,2022-02-04,2022-02-04,株式会社山本工業,,株式会社,埼玉県,北本市,東間５丁目６０番地１４,,11,233,3640007,,,,,,,2022-02-04,1,,,,,ヤマモトコウギョウ,0
1015,4030001146637,新規,0,2022-02-04,2022-02-04,ＣｏｃｏＢａ　Ｆｏｏｄｓ株式会社,,株式会社,埼玉県,入間市,大字野田３４４番地１,,11,225,3580054,,,,,,,2022-02-04,1,,,,,ココバフーズ,0
1016,4030001146661,新規,0,2022-02-04,2022-02-04,アースシグナルソリューションズ株式会社,,株式会社,埼玉県,川越市,氷川町３０番地１,,11,201,3500851,,,,,,,2022-02-04,1,,,,,アースシグナルソリューションズ,0
1017,4030001146678,新規,0,2022-02-04,2022-02-04,株式会社ＵＮＤＥＲＦＬＯＯＲ,,株式会社,埼玉県,所沢市,けやき台１丁目２５番地の３１,,11,208,3591118,,,,,,,2022-02-04,1,,,,,アンダーフロア,0
1018,4030001146686,新規,0,2022-02-04,2022-02-04,株式会社ｂｉｏＬＥＧＯ,,株式会社,埼玉県,新座市,野火止５丁目２番４３－２０１号,,11,230,3520011,,,,,,,2022-02-04,1,,,,,ビオレゴ,0
1029,4040001122100,新規,0,2022-02-04,2022-02-04,Ｅｘｔｅｒｉｏｒ琉翔株式会社,,株式会社,千葉県,市原市,ちはら台東１丁目２５番地１８２,,12,219,2900141,,,,,,,2022-02-04,1,,,,,エクステリアリュウト,0
1035,4040003019419,新規,0,2022-02-04,2022-02-04,Ｊ　ＧＡＲＡＧＥ合同会社,,合同会社,千葉県,白井市,大松１丁目１８番１号,,12,232,2701439,,,,,,,2022-02-04,1,,,,,ジェイガレージ,0
1036,4040003019435,新規,0,2022-02-04,2022-02-04,合同会社クローバー,,合同会社,千葉県,船橋市,二和西４丁目２２番１７号,,12,204,2740806,,,,,,,2022-02-04,1,,,,,クローバー,0
1039,4050001050572,新規,0,2022-02-04,2022-02-04,株式会社ユーフィールド,,株式会社,茨城県,石岡市,府中５丁目３番２６号,,08,205,3150013,,,,,,,2022-02-04,1,,,,,ユーフィールド,0
1046,4060003003940,新規,0,2022-02-04,2022-02-04,合同会社八王子トクセン,,合同会社,栃木県,宇都宮市,戸祭４丁目１２番１２号,,09,201,3200056,,,,,,,2022-02-04,1,,,,,ハチオウジトクセン,0
1047,4060005009944,新規,0,2022-02-04,2022-02-04,税理士法人池田会計,,その他の設立登記法人,栃木県,栃木市,岩舟町曲ケ島２０１２番地４,,09,203,3294306,,,,,,,2022-02-04,1,,,,,イケダカイケイ,0
1051,4070003004368,新規,0,2022-02-04,2022-02-04,合同会社Ｂｅ・Ｃｒｅａｔｉｖｅ,,合同会社,群馬県,利根郡みなかみ町,川上３７６,,10,449,3791616,,,,,,,2022-02-04,1,,,,,ビークリエイティブ,0
1052,4070005009943,新規,0,2022-02-04,2022-02-04,ＮＰＯ法人群馬プライムス,,その他の設立登記法人,群馬県,高崎市,菅谷町２０番地６９０,,10,202,3703522,,,,,,,2022-02-04,1,,,,,グンマプライムス,0
1053,4080001024739,新規,0,2022-02-04,2022-02-04,株式会社とよ不動産,,株式会社,静岡県,静岡市葵区,北安東３丁目２９番５号,,22,101,4200881,,,,,,,2022-02-04,1,,,,,トヨフドウサン,0
1057,4090001017394,新規,0,2022-02-04,2022-02-04,株式会社コア美装,,株式会社,山梨県,甲府市,上今井町１３７２番地９,,19,201,4000845,,,,,,,2022-02-04,1,,,,,コアビソウ,0
1058,4090005007466,新規,0,2022-02-04,2022-02-04,医療法人修信会,,その他の設立登記法人,山梨県,甲府市,荒川１丁目３番２４号,,19,201,4000061,,,,,,,2022-02-04,1,,,,,シュウシンカイ,0
1062,4110003004693,新規,0,2022-02-04,2022-02-04,合同会社祈願－キット,,合同会社,新潟県,長岡市,大口１２２０番地３,,15,202,9540145,,,,,,,2022-02-04,1,,,,,キット,0
1067,4120001243607,新規,0,2022-02-04,2022-02-04,株式会社心有,,株式会社,大阪府,大阪市中央区,松屋町３番２３－２６０１号,,27,128,5420067,,,,,,,2022-02-04,1,,,,,シンユウ,0
1068,4120001243648,新規,0,2022-02-04,2022-02-04,株式会社クレア,,株式会社,大阪府,大阪市旭区,太子橋１丁目１１番１８号,,27,117,5350001,,,,,,,2022-02-04,1,,,,,クレア,0
1069,4120001243656,新規,0,2022-02-04,2022-02-04,株式会社スタッシュ,,株式会社,大阪府,大阪市港区,波除２丁目７番１３号ハレ・カイマナ２０１号,,27,107,5520001,,,,,,,2022-02-04,1,,,,,スタッシュ,0
1070,4120001243672,新規,0,2022-02-04,2022-02-04,株式会社Ｋｅｅｐ　ｒｕｎｎｉｎｇ,,株式会社,大阪府,大阪市西区,立売堀１丁目４番１２号立売堀スクエアビル８Ｆ,,27,106,5500012,,,,,,,2022-02-04,1,,,,,キープランニング,0
1071,4120001243680,新規,0,2022-02-04,2022-02-04,株式会社Ｚａｔｉｏｎパートナーズ,,株式会社,大阪府,大阪市中央区,久太郎町１丁目５番３１号,,27,128,5410056,,,,,,,2022-02-04,1,,,,,ゼイションパートナーズ,0
1072,4120001243689,新規,0,2022-02-04,2022-02-04,早坂建設工業株式会社,,株式会社,大阪府,大阪市城東区,蒲生４丁目１－５４,,27,118,5360016,,,,,,,2022-02-04,1,,,,,ハヤサカケンセツコウギョウ,0
1073,4120001243697,新規,0,2022-02-04,2022-02-04,株式会社スリーシートレジャー,,株式会社,大阪府,大阪市中央区,島之内２丁目４－１８,,27,128,5420082,,,,,,,2022-02-04,1,,,,,スリーシートレジャー,0
1078,4120003021077,新規,0,2022-02-04,2022-02-04,合同会社Ｆｅｌｉｚｋｙ,,合同会社,大阪府,枚方市,伊加賀西町６６番１号,,27,210,5730066,,,,,,,2022-02-04,1,,,,,フェリスキー,0
1079,4120003021085,新規,0,2022-02-04,2022-02-04,合同会社Ｇｒｏｏｖｅ,,合同会社,大阪府,大阪市北区,樋之口町２番１３号ジオナ天神橋１００１号室,,27,127,5300032,,,,,,,2022-02-04,1,,,,,グルーヴ,0
1085,4120901045540,新規,0,2022-02-04,2022-02-04,フジナカ興産株式会社,,株式会社,大阪府,茨木市,豊川５丁目１番１０号,,27,211,5670057,,,,,,,2022-02-04,1,,,,,フジナカコウサン,0
1086,4120901045549,新規,0,2022-02-04,2022-02-04,大阪北部土地開発株式会社,,株式会社,大阪府,高槻市,唐崎西１丁目９番３号,,27,207,5690836,,,,,,,2022-02-04,1,,,,,オオサカホクブトチカイハツ,0
1088,4120905006266,新規,0,2022-02-04,2022-02-04,医療法人利仁会,,その他の設立登記法人,大阪府,高槻市,野見町５番４５号Ｄｉａｍａｎｔｅ２０２０・３階,,27,207,5690077,,,,,,,2022-02-04,1,,,,,リジンカイ,0
1090,4122003002263,新規,0,2022-02-04,2022-02-04,合同会社ナカマエテック,,合同会社,大阪府,八尾市,若林町１丁目８７番地クロスティ八尾南壱番館５０１号,,27,212,5810038,,,,,,,2022-02-04,1,,,,,ナカマエテック,0
1098,4140001124763,新規,0,2022-02-04,2022-02-04,株式会社Ｄｉｘ,,株式会社,兵庫県,川西市,栄町１１番１号,,28,217,6660033,,,,,,,2022-02-04,1,,,,,ディックス,0
1099,4140001124771,新規,0,2022-02-04,2022-02-04,株式会社レイ,,株式会社,兵庫県,西宮市,高松町１７番１４号,,28,204,6638204,,,,,,,2022-02-04,1,,,,,レイ,0
1104,4160001023971,新規,0,2022-02-04,2022-02-04,Ｎｕｒ　Ａｖｅｎｕｅ株式会社,,株式会社,滋賀県,草津市,野路６丁目５番１０号,,25,206,5250059,,,,,,,2022-02-04,1,,,,,ヌーアアベニュー,0
1115,4180001149740,新規,0,2022-02-04,2022-02-04,株式会社プラッツ,,株式会社,愛知県,名古屋市南区,内田橋１丁目３番８号,,23,112,4570862,,,,,,,2022-02-04,1,,,,,プラッツ,0
1116,4180001149831,新規,0,2022-02-04,2022-02-04,株式会社小久保地質,,株式会社,愛知県,春日井市,西屋町字南野池１０５番地２,,23,206,4860908,,,,,,,2022-02-04,1,,,,,コクボチシツ,0
1117,4180001149880,新規,0,2022-02-04,2022-02-04,株式会社フクラボ,,株式会社,愛知県,清須市,西枇杷島町下新４８番地１,,23,233,4520023,,,,,,,2022-02-04,1,,,,,フクラボ,0
1118,4180001149889,新規,0,2022-02-04,2022-02-04,一宮浄化槽管理センター株式会社,,株式会社,愛知県,一宮市,西小原町５番地１,,23,203,4910081,,,,,,,2022-02-04,1,,,,,イチノミヤジョウカソウカンリセンター,0
1124,4180301035896,新規,0,2022-02-04,2022-02-04,株式会社アジアＤＡ,,株式会社,愛知県,蒲郡市,鹿島町東山１番地１,,23,214,4430037,,,,,,,2022-02-04,1,,,,,アジアディーエー,0
1125,4180301035905,新規,0,2022-02-04,2022-02-04,スピリッツ株式会社,,株式会社,愛知県,岡崎市,明大寺本町２丁目１９番地,,23,202,4440860,,,,,,,2022-02-04,1,,,,,スピリッツ,0
1128,4190001029099,新規,0,2022-02-04,2022-02-04,テンポイント株式会社,,株式会社,三重県,桑名市,筒尾２丁目１０番地の１４,,24,205,5110901,,,,,,,2022-02-04,1,,,,,テンポイント,0
1129,4200001039724,新規,0,2022-02-04,2022-02-04,株式会社ＦＵＪＩＭＯＴＯ建築企画,,株式会社,岐阜県,関市,山田８１５番地１３,,21,205,5013944,,,,,,,2022-02-04,1,,,,,フジモトケンチクキカク,0
1132,4210003001458,新規,0,2022-02-04,2022-02-04,合同会社ｎｉｃｈｅ,,合同会社,福井県,越前市,千原町５－１－１,,18,209,9150243,,,,,,,2022-02-04,1,,,,,ニッチ,0
1139,4240001059264,新規,0,2022-02-04,2022-02-04,株式会社アース・エンタープライズ,,株式会社,広島県,広島市中区,薬研堀８番６号メイセイパークプラザビル１階,,34,101,7300027,,,,,,,2022-02-04,1,,,,,アースエンタープライズ,0
1140,4240001059289,新規,0,2022-02-04,2022-02-04,ＡＩＶＥＳＴ株式会社,,株式会社,広島県,広島市西区,楠木町１丁目１５番２号１Ｆ,,34,104,7330002,,,,,,,2022-02-04,1,,,,,アイベスト,0
1141,4240001059297,新規,0,2022-02-04,2022-02-04,株式会社ｓｔａｒｔ　ｅｎｄ,,株式会社,広島県,広島市安佐南区,高取北２丁目２５番４号,,34,105,7310144,,,,,,,2022-02-04,1,,,,,スタートエンド,0
1143,4250001019390,新規,0,2022-02-04,2022-02-04,株式会社ハイテック,,株式会社,山口県,宇部市,宮地町１１番２０－３号,,35,202,7550071,,,,,,,2022-02-04,1,,,,,ハイテック,0
1148,4260001036492,新規,0,2022-02-04,2022-02-04,ライブスタッフ不動産株式会社,,株式会社,岡山県,久米郡美咲町,西幸１１６９番地２,,33,666,7093715,,,,,,,2022-02-04,1,,,,,ライブスタッフフドウサン,0
1155,4290001096311,新規,0,2022-02-04,2022-02-04,株式会社ショウエイ設備サービス,,株式会社,福岡県,太宰府市,観世音寺１丁目５番１８号,,40,221,8180101,,,,,,,2022-02-04,1,,,,,ショウエイセツビサービス,0
1156,4290001096352,新規,0,2022-02-04,2022-02-04,株式会社インクルーシヴシティ,,株式会社,福岡県,福岡市早良区,百道浜２丁目２番２２号,,40,137,8140001,,,,,,,2022-02-04,1,,,,,インクルーシヴシティ,0
1158,4290801028216,新規,0,2022-02-04,2022-02-04,株式会社ムーブ・オン,,株式会社,福岡県,田川市,大字弓削田２０９番地９,,40,206,8260041,,,,,,,2022-02-04,1,,,,,ムーブオン,0
1159,4290801028232,新規,0,2022-02-04,2022-02-04,株式会社ユウト建装,,株式会社,福岡県,築上郡築上町,大字築城６９５番地,,40,647,8290102,,,,,,,2022-02-04,1,,,,,ユウトケンソウ,0
1161,4310003004269,新規,0,2022-02-04,2022-02-04,テークルート合同会社,,合同会社,長崎県,長崎市,住吉町１４番２６号サンケイ第２ビル２０１号,,42,201,8528154,,,,,,,2022-02-04,1,,,,,テークルート,0
1162,4320001018872,新規,0,2022-02-04,2022-02-04,楓本商事株式会社,,株式会社,大分県,由布市,湯布院町川北９１６番地３２,,44,213,8795114,,,,,,,2022-02-04,1,,,,,フウホンショウジ,0
1165,4330001029407,新規,0,2022-02-04,2022-02-04,株式会社ＪＨＩ,,株式会社,熊本県,熊本市中央区,上通町３番１５号４Ｆ－Ａ,,43,101,8600845,,,,,,,2022-02-04,1,,,,,ジェイエッチアイ,0
1166,4330001029415,新規,0,2022-02-04,2022-02-04,株式会社徳川,,株式会社,熊本県,八代市,松江町１９４番地７,,43,202,8660883,,,,,,,2022-02-04,1,,,,,トクガワ,0
1173,4350001017566,新規,0,2022-02-04,2022-02-04,株式会社ハウスクリーニングＦ,,株式会社,宮崎県,延岡市,昭和町２丁目２２６１－２,,45,203,8820034,,,,,,,2022-02-04,1,,,,,ハウスクリーニングエフ,0
1175,4350003004018,新規,0,2022-02-04,2022-02-04,アウル合同会社,,合同会社,宮崎県,日向市,大字幸脇５４３番地２７,,45,206,8891112,,,,,,,2022-02-04,1,,,,,アウル,0
1178,4360001029973,新規,0,2022-02-04,2022-02-04,株式会社がんじゅ,,株式会社,沖縄県,名護市,字屋我仲田１７２－１１,,47,209,9051631,,,,,,,2022-02-04,1,,,,,ガンジュ,0
1179,4360003011780,新規,0,2022-02-04,2022-02-04,合同会社彦壱プラン,,合同会社,沖縄県,中頭郡北谷町,字桃原１５番地１,,47,326,9040104,,,,,,,2022-02-04,1,,,,,ヒコイチプラン,0
1181,4370001048163,新規,0,2022-02-04,2022-02-04,株式会社ＮＡＣＫ,,株式会社,宮城県,登米市,南方町戸根屋敷８２番地１,,04,212,9870402,,,,,,,2022-02-04,1,,,,,ナック,0
1189,4420001017732,新規,0,2022-02-04,2022-02-04,沼畑総合ファーム株式会社,,株式会社,青森県,三戸郡南部町,大字相内字荒屋敷９番地３,,02,445,0390106,,,,,,,2022-02-04,1,,,,,ヌマハタソウゴウファーム,0
1191,4430001085951,新規,0,2022-02-04,2022-02-04,株式会社ＣＳＯ,,株式会社,北海道,札幌市東区,北十四条東１２丁目１－２１,,01,103,0650014,,,,,,,2022-02-04,1,,,,,シーエスオー,0
1193,4430003013596,新規,0,2022-02-04,2022-02-04,スノー管理合同会社,,合同会社,北海道,札幌市中央区,北四条西２１丁目２番３号プレステージ２１（１０１号室）,,01,101,0640824,,,,,,,2022-02-04,1,,,,,スノーカンリ,0
1194,4430003013605,新規,0,2022-02-04,2022-02-04,ナナカマドあーと合同会社,,合同会社,北海道,札幌市白石区,東札幌一条１丁目４番１９号コーポあかしや２号,,01,104,0030001,,,,,,,2022-02-04,1,,,,,ナナカマドアート,0
1195,4460001005650,新規,0,2022-02-04,2022-02-04,株式会社遠藤肉店,,株式会社,北海道,釧路市,光陽町８番２号,,01,206,0850051,,,,,,,2022-02-04,1,,,,,エンドウニクテン,0
1197,4470001018965,新規,0,2022-02-04,2022-02-04,ＣＬＡＮ株式会社,,株式会社,香川県,丸亀市,川西町北２２５７番地２,,37,202,7630091,,,,,,,2022-02-04,1,,,,,クラン,0
1200,4470003002125,新規,0,2022-02-04,2022-02-04,合同会社光進,,合同会社,香川県,高松市,西町２９番４号,,37,201,7600003,,,,,,,2022-02-04,1,,,,,コウシン,0
1201,4480001011639,新規,0,2022-02-04,2022-02-04,善勝企画株式会社,,株式会社,徳島県,徳島市,南昭和町３丁目３７番３号ＳＫハイツ１０１,,36,201,7700944,,,,,,,2022-02-04,1,,,,,ゼンショウキカク,0
1211,5010001224328,新規,0,2022-02-04,2022-02-04,株式会社ティーバース,,株式会社,東京都,千代田区,神田佐久間町３丁目３８番地第５東ビル５Ｆ,,13,101,1010025,,,,,,,2022-02-04,1,,,,,ティーバース,0
1212,5010001224336,新規,0,2022-02-04,2022-02-04,株式会社Ｍ＆Ａバリューエンジニアリング,,株式会社,東京都,千代田区,有楽町２丁目７番１号有楽町イトシア１２階,,13,101,1000006,,,,,,,2022-02-04,1,,,,,エムアンドエーバリューエンジニアリング,0
1213,5010001224344,新規,0,2022-02-04,2022-02-04,株式会社Ｄｅｎｔｉｓｔ　Ｆｅｅｌ　Ｇｏｏｄ,,株式会社,東京都,中央区,銀座１丁目２２番１１号銀座大竹ビジデンス２階,,13,102,1040061,,,,,,,2022-02-04,1,,,,,デンティストフィールグッド,0
1214,5010001224360,新規,0,2022-02-04,2022-02-04,株式会社ユウト,,株式会社,東京都,千代田区,外神田５丁目２番１２号最上ビル２Ｆ,,13,101,1010021,,,,,,,2022-02-04,1,,,,,ユウト,0
1218,5010401165353,新規,0,2022-02-04,2022-02-04,株式会社ｅ－Ｓｐｉｒｉｔ　Ｈｏｌｄｉｎｇｓ,,株式会社,東京都,港区,北青山３丁目６番１６号,,13,103,1070061,,,,,,,2022-02-04,1,,,,,イースピリットホールディングス,0
1219,5010401165361,新規,0,2022-02-04,2022-02-04,株式会社イーストカレント,,株式会社,東京都,港区,新橋１丁目１８番１２号新橋１丁目ビル６Ｆ,,13,103,1050004,,,,,,,2022-02-04,1,,,,,イーストカレント,0
1220,5010405020645,新規,0,2022-02-04,2022-02-04,アイラ１一般社団法人,,その他の設立登記法人,東京都,港区,浜松町１丁目２０番１０号ライオネス浜松町５０６号室,,13,103,1050013,,,,,,,2022-02-04,1,,,,,アイライチ,0
1221,5010405020661,新規,0,2022-02-04,2022-02-04,ＳＣＧ６８一般社団法人,,その他の設立登記法人,東京都,港区,虎ノ門４丁目１番２８号,,13,103,1050001,,,,,,,2022-02-04,1,,,,,エスシージーシックスティエイト,0
1222,5010501048417,新規,0,2022-02-04,2022-02-04,株式会社ＴＩＭ,,株式会社,東京都,台東区,日本堤２丁目４番７号,,13,106,1110021,,,,,,,2022-02-04,1,,,,,ティーアイエム,0
1224,5010601060569,新規,0,2022-02-04,2022-02-04,株式会社Ｇｌｏｂａｌ　ＩＰ　Ｍａｎａｇｅｍｅｎｔ,,株式会社,東京都,江東区,佐賀１丁目１番１６号リバービュー茅場町８階,,13,108,1350031,,,,,,,2022-02-04,1,,,,,グローバルアイピーマネジメント,0
1225,5010601060610,新規,0,2022-02-04,2022-02-04,株式会社カーボンフライ,,株式会社,東京都,江東区,青海２丁目４番３２号,,13,108,1350064,,,,,,,2022-02-04,1,,,,,カーボンフライ,0
1229,5010701042203,新規,0,2022-02-04,2022-02-04,ＳＨＯＫＩ株式会社,,株式会社,東京都,品川区,勝島１丁目３－７オーベルグランディオ品川勝島８０５,,13,109,1400012,,,,,,,2022-02-04,1,,,,,ショウキ,0
1230,5010801032707,新規,0,2022-02-04,2022-02-04,株式会社テクノ・デポ,,株式会社,東京都,大田区,中央５丁目１７番１３号,,13,111,1430024,,,,,,,2022-02-04,1,,,,,テクノデポ,0
1231,5010803004051,新規,0,2022-02-04,2022-02-04,合同会社作太郎の休日,,合同会社,東京都,大田区,大森西３丁目１９番３号,,13,111,1430015,,,,,,,2022-02-04,1,,,,,サクタロウノキュウジツ,0
1236,5011001145571,新規,0,2022-02-04,2022-02-04,株式会社Ｒｅ－ｇｒｏｗ,,株式会社,東京都,渋谷区,神南１丁目１２番１４号渋谷宮田ビル,,13,113,1500041,,,,,,,2022-02-04,1,,,,,リグロー,0
1241,5011003014130,新規,0,2022-02-04,2022-02-04,合同会社Ｆｒｅｅｄｏｍ,,合同会社,東京都,渋谷区,渋谷２丁目１９番１５号宮益坂ビルディング６０９,,13,113,1500002,,,,,,,2022-02-04,1,,,,,フリーダム,0
1244,5011201023593,新規,0,2022-02-04,2022-02-04,株式会社百年匠人,,株式会社,東京都,中野区,弥生町５丁目８番２０号,,13,114,1640013,,,,,,,2022-02-04,1,,,,,ヒャクネンショウニン,0
1245,5011201023610,新規,0,2022-02-04,2022-02-04,株式会社ワイユーＡ,,株式会社,東京都,中野区,白鷺２丁目１－２１ＧＥＮＯＶＩＡ鷺ノ宮ｓｋｙｇａｒｄｅｎ９０１,,13,114,1650035,,,,,,,2022-02-04,1,,,,,ワイユーエー,0
1251,5011601025719,新規,0,2022-02-04,2022-02-04,株式会社サン,,株式会社,東京都,練馬区,旭町３丁目２７番１０号サンライズマンション３０３号室,,13,120,1790071,,,,,,,2022-02-04,1,,,,,サン,0
1253,5011703003060,新規,0,2022-02-04,2022-02-04,長谷川合同会社,,合同会社,東京都,江戸川区,一之江７丁目３３番１６号,,13,123,1320024,,,,,,,2022-02-04,1,,,,,ハセガワ,0
1258,5012401038828,新規,0,2022-02-04,2022-02-04,株式会社Ｒｅｍａｋｅ,,株式会社,東京都,多摩市,落合２丁目３３番地クロスガーデン多摩３階,,13,224,2060033,,,,,,,2022-02-04,1,,,,,リメイク,0
1259,5012801021375,新規,0,2022-02-04,2022-02-04,株式会社オフィス佐々木,,株式会社,東京都,日野市,南平１丁目７番地の２２,,13,212,1910041,,,,,,,2022-02-04,1,,,,,オフィスササキ,0
1260,5012803002695,新規,0,2022-02-04,2022-02-04,合同会社ＳＴ,,合同会社,東京都,立川市,曙町１丁目１２番２０号ＣＯＱＵＩＡビル７階,00125630,13,202,1900012,,,,,,,2022-02-04,1,,,,,エスティー,0
1264,5013301048636,新規,0,2022-02-04,2022-02-04,ビルドウォール株式会社,,株式会社,東京都,豊島区,巣鴨３丁目１８番２１－２１１号,,13,116,1700002,,,,,,,2022-02-04,1,,,,,ビルドウォール,0
1271,5020001145077,新規,0,2022-02-04,2022-02-04,株式会社相模,,株式会社,神奈川県,横浜市緑区,鴨居１丁目１４番１－１０１号,,14,113,2260003,,,,,,,2022-02-04,1,,,,,サガミ,0
1272,5020001145093,新規,0,2022-02-04,2022-02-04,株式会社ＮＫＴ３,,株式会社,神奈川県,横浜市西区,高島２丁目７番２－１０１３号,,14,103,2200011,,,,,,,2022-02-04,1,,,,,エヌケイティースリー,0
1273,5020001145102,新規,0,2022-02-04,2022-02-04,株式会社ＫＵＲＩＨＡＲＡ,,株式会社,神奈川県,横浜市都筑区,荏田南５丁目１３番８号,,14,118,2240007,,,,,,,2022-02-04,1,,,,,クリハラ,0
1274,5020001145110,新規,0,2022-02-04,2022-02-04,株式会社中沢事務所,,株式会社,神奈川県,横浜市港北区,樽町１丁目２０番４号,,14,109,2220001,,,,,,,2022-02-04,1,,,,,ナカザワジムショ,0
1275,5020001145127,新規,0,2022-02-04,2022-02-04,株式会社ＡＶＡＮＣＲＥＸ,,株式会社,神奈川県,川崎市麻生区,上麻生３丁目１３番１号,,14,137,2150021,,,,,,,2022-02-04,1,,,,,アバンクレックス,0
1276,5020001145135,新規,0,2022-02-04,2022-02-04,株式会社ＰｉｉＳ　Ｒｏａｄ,,株式会社,神奈川県,横浜市港北区,日吉本町３丁目４０番２９－１０８号,,14,109,2230062,,,,,,,2022-02-04,1,,,,,ピースロード,0
1278,5020003021235,新規,0,2022-02-04,2022-02-04,合同会社四季,,合同会社,神奈川県,横浜市青葉区,市ケ尾町５９４番地１マンションシルヴィア１０６,,14,117,2250024,,,,,,,2022-02-04,1,,,,,シキ,0
1279,5020005015375,新規,0,2022-02-04,2022-02-04,一般社団法人はじめ未来研究所,,その他の設立登記法人,神奈川県,横浜市神奈川区,羽沢町６３６番地４,,14,102,2210863,,,,,,,2022-02-04,1,,,,,ハジメミライケンキュウジョ,0
1287,5021003011374,新規,0,2022-02-04,2022-02-04,箱根麦酒合同会社,,合同会社,神奈川県,足柄下郡箱根町,仙石原６７番地の１,,14,382,2500631,,,,,,,2022-02-04,1,,,,,ハコネバクシュ,0
1298,5030001146628,新規,0,2022-02-04,2022-02-04,太和国際観光株式会社,,株式会社,埼玉県,志木市,上宗岡３丁目９－４４ワイエム倉庫２０１,,11,228,3530001,,,,,,,2022-02-04,1,,,,,タイワコクサイカンコウ,0
1299,5030001146644,新規,0,2022-02-04,2022-02-04,株式会社高見崚健,,株式会社,埼玉県,川越市,今成２丁目２２番地８,,11,201,3501105,,,,,,,2022-02-04,1,,,,,タカミリョウケン,0
1300,5030001146669,新規,0,2022-02-04,2022-02-04,株式会社ＬＩＧ,,株式会社,埼玉県,東松山市,大字柏崎７４１番地１,,11,212,3550034,,,,,,,2022-02-04,1,,,,,エルアイジー,0
1301,5030001146677,新規,0,2022-02-04,2022-02-04,株式会社アビット,,株式会社,埼玉県,さいたま市浦和区,元町２丁目２番１０－１０３号,,11,107,3300073,,,,,,,2022-02-04,1,,,,,アビット,0
1302,5030001146685,新規,0,2022-02-04,2022-02-04,株式会社コンペイント,,株式会社,埼玉県,さいたま市大宮区,大門町２丁目２０番地２ＴＭＯ北棟ＴＭＯｆｆｉｃｅ大宮１０１,,11,103,3300846,,,,,,,2022-02-04,1,,,,,コンペイント,0
1303,5030001146693,新規,0,2022-02-04,2022-02-04,株式会社小野建材,,株式会社,埼玉県,川口市,南鳩ヶ谷７丁目３５番７号ドリームリバー鳩ヶ谷３０３号,,11,203,3340013,,,,,,,2022-02-04,1,,,,,オノケンザイ,0
1308,5030003018800,新規,0,2022-02-04,2022-02-04,合同会社ＳＥＫＩＴＯ,,合同会社,埼玉県,越谷市,大字袋山１２１５－８ヨシカネ大袋ビル２０１,,11,222,3430032,,,,,,,2022-02-04,1,,,,,セキト,0
1315,5040003019434,新規,0,2022-02-04,2022-02-04,恒達合同会社,,合同会社,千葉県,船橋市,駿河台２丁目８番８号,,12,204,2730862,,,,,,,2022-02-04,1,,,,,ツネタツ,0
1321,5060001034540,新規,0,2022-02-04,2022-02-04,株式会社三橋電設,,株式会社,栃木県,真岡市,青田７８番地,,09,209,3214531,,,,,,,2022-02-04,1,,,,,ミハシデンセツ,0
1322,5060001034549,新規,0,2022-02-04,2022-02-04,ｊ２９株式会社,,株式会社,栃木県,足利市,大月町２８９番地２,,09,202,3260005,,,,,,,2022-02-04,1,,,,,ジェイトゥナイン,0
1325,5070001038912,新規,0,2022-02-04,2022-02-04,株式会社ＳＫ,,株式会社,群馬県,太田市,西本町５９番,,10,205,3730033,,,,,,,2022-02-04,1,,,,,エスケイ,0
1326,5070003004367,新規,0,2022-02-04,2022-02-04,Ｒｏｉｎｃ合同会社,,合同会社,群馬県,渋川市,北橘町上箱田１１７５番地５号,,10,208,3770052,,,,,,,2022-02-04,1,,,,,ロインク,0
1327,5070003004375,新規,0,2022-02-04,2022-02-04,合同会社アーリーヒルズ,,合同会社,群馬県,高崎市,筑縄町４番地１２,,10,202,3700075,,,,,,,2022-02-04,1,,,,,アーリーヒルズ,0
1335,5100001035039,新規,0,2022-02-04,2022-02-04,株式会社オアシス・アイ,,株式会社,長野県,上田市,真田町長３８３９番地１,,20,203,3862201,,,,,,,2022-02-04,1,,,,,オアシスアイ,0
1340,5120001243606,新規,0,2022-02-04,2022-02-04,ｏｎｅｓ株式会社,,株式会社,大阪府,大阪市西区,京町堀１丁目３番１３号辰巳ビル５階,,27,106,5500003,,,,,,,2022-02-04,1,,,,,ワンズ,0
1341,5120001243614,新規,0,2022-02-04,2022-02-04,株式会社杉本商店,,株式会社,大阪府,大阪市鶴見区,茨田大宮３丁目２０番３４号,,27,124,5380031,,,,,,,2022-02-04,1,,,,,スギモトショウテン,0
1342,5120001243639,新規,0,2022-02-04,2022-02-04,株式会社キッズ・ファン,,株式会社,大阪府,大阪市中央区,高津１丁目８番１１号３０１号室,,27,128,5420072,,,,,,,2022-02-04,1,,,,,キッズファン,0
1343,5120001243647,新規,0,2022-02-04,2022-02-04,株式会社トールニューワールド,,株式会社,大阪府,大阪市西区,京町堀１丁目８番１１号,,27,106,5500003,,,,,,,2022-02-04,1,,,,,トールニューワールド,0
1344,5120001243655,新規,0,2022-02-04,2022-02-04,株式会社ＮＯＶＡＥＲＡ,,株式会社,大阪府,大阪市城東区,東中浜１丁目３番２－２０５号,,27,118,5360023,,,,,,,2022-02-04,1,,,,,ノバエラ,0
1348,5120003021084,新規,0,2022-02-04,2022-02-04,ＲＡＬＹＳ’Ｓ　ＨＯＵＳＥ合同会社,,合同会社,大阪府,大阪市浪速区,恵美須東１丁目１６番９号ビジタル浪速１２－９０５号,,27,111,5560002,,,,,,,2022-02-04,1,,,,,レイリーズハウス,0
1349,5120005022774,新規,0,2022-02-04,2022-02-04,ＣＩＳコンサルティング税理士法人,,その他の設立登記法人,大阪府,大阪市中央区,平野町２丁目１番１４号ＫＤＸ北浜ビル１００１,,27,128,5410046,,,,,,,2022-02-04,1,,,,,シーアイエスコンサルティング,0
1355,5120901045548,新規,0,2022-02-04,2022-02-04,株式会社マスパックホールディングス,,株式会社,大阪府,摂津市,南別府町１番３号,,27,224,5660045,,,,,,,2022-02-04,1,,,,,マスパックホールディングス,0
1359,5122001035561,新規,0,2022-02-04,2022-02-04,株式会社斗樹和電機,,株式会社,大阪府,八尾市,志紀町南２丁目２６番地,,27,212,5810033,,,,,,,2022-02-04,1,,,,,トキワデンキ,0
1361,5130001071072,新規,0,2022-02-04,2022-02-04,株式会社ミレニアルズ,,株式会社,京都府,宇治市,宇治里尻８２番地３,,26,204,6110021,,,,,,,2022-02-04,1,,,,,ミレニアルズ,0
1362,5130001071080,新規,0,2022-02-04,2022-02-04,株式会社青木工務店,,株式会社,京都府,京都市西京区,大枝沓掛町８番地２３,,26,111,6101106,,,,,,,2022-02-04,1,,,,,アオキコウムテン,0
1363,5130001071089,新規,0,2022-02-04,2022-02-04,ヤマセイテクノサービス株式会社,,株式会社,京都府,京都市中京区,聚楽廻松下町１１番２９,,26,104,6048401,,,,,,,2022-02-04,1,,,,,ヤマセイテクノサービス,0
1366,5130003007735,新規,0,2022-02-04,2022-02-04,合同会社ミナクル,,合同会社,京都府,京都市南区,吉祥院中河原西屋敷町２１番地６,,26,107,6018395,,,,,,,2022-02-04,1,,,,,ミナクル,0
1371,5140001124762,新規,0,2022-02-04,2022-02-04,日伸工業株式会社,,株式会社,兵庫県,たつの市,揖保町揖保中３２１番地１,,28,229,6794155,,,,,,,2022-02-04,1,,,,,ニッシンコウギョウ,0
1372,5140001124770,新規,0,2022-02-04,2022-02-04,株式会社ＹＡＨＥＩ,,株式会社,兵庫県,尼崎市,長洲中通３丁目７番１７号,,28,202,6600802,,,,,,,2022-02-04,1,,,,,ヤヘイ,0
1373,5140001124779,新規,0,2022-02-04,2022-02-04,レゾナンス株式会社,,株式会社,兵庫県,西宮市,柏堂西町５番１２号,,28,204,6620098,,,,,,,2022-02-04,1,,,,,レゾナンス,0
1374,5140001124795,新規,0,2022-02-04,2022-02-04,アイジーインターナショナル株式会社,,株式会社,兵庫県,神戸市垂水区,青山台１丁目２８番１４号,,28,108,6550873,,,,,,,2022-02-04,1,,,,,アイジーインターナショナル,0
1375,5140001124804,新規,0,2022-02-04,2022-02-04,ｓｔｒｏｋｅ株式会社,,株式会社,兵庫県,川西市,鼓が滝１丁目１６番１３号,,28,217,6660123,,,,,,,2022-02-04,1,,,,,ストローク,0
1376,5140003017320,新規,0,2022-02-04,2022-02-04,合同会社２マイル,,合同会社,兵庫県,丹波篠山市,呉服町２－１,,28,221,6692322,,,,,,,2022-02-04,1,,,,,ニマイル,0
1377,5140003017329,新規,0,2022-02-04,2022-02-04,ｓｍａｌｌＡｘｅ合同会社,,合同会社,兵庫県,佐用郡佐用町,真宗中野１９９番地,,28,501,6795137,,,,,,,2022-02-04,1,,,,,スモールアックス,0
1378,5140005026014,新規,0,2022-02-04,2022-02-04,一般社団法人脱炭素事業推進協議会,,その他の設立登記法人,兵庫県,芦屋市,大桝町７番１０号,,28,206,6590066,,,,,,,2022-02-04,1,,,,,ダツタンソジギョウスイシンキョウギカイ,0
1379,5150001025299,新規,0,2022-02-04,2022-02-04,株式会社アグリテックプラス,,株式会社,奈良県,磯城郡田原本町,大字味間１６１番地２,,29,363,6360245,,,,,,,2022-02-04,1,,,,,アグリテックプラス,0
1382,5160001023979,新規,0,2022-02-04,2022-02-04,株式会社奥川商店,,株式会社,滋賀県,東近江市,神郷町６５番地,,25,213,5211213,,,,,,,2022-02-04,1,,,,,オクガワショウテン,0
1383,5160003002493,新規,0,2022-02-04,2022-02-04,合同会社Ｊ－ｔｈｏｕｇｈｔｆｕｌ,,合同会社,滋賀県,大津市,大江２丁目８番３１号,,25,201,5202141,,,,,,,2022-02-04,1,,,,,ジェイソートゥフル,0
1389,5180001149830,新規,0,2022-02-04,2022-02-04,株式会社Ｗｉｎ,,株式会社,愛知県,名古屋市北区,中味鋺３丁目１０１２番地,,23,103,4620015,,,,,,,2022-02-04,1,,,,,ウィン,0
1390,5180001149855,新規,0,2022-02-04,2022-02-04,フォーティ－ワン株式会社,,株式会社,愛知県,名古屋市西区,児玉２丁目２２番２６号,,23,104,4510066,,,,,,,2022-02-04,1,,,,,フォーティーワン,0
1391,5180001149863,新規,0,2022-02-04,2022-02-04,東海ＧＣ株式会社,,株式会社,愛知県,東海市,荒尾町仲田６１番地,,23,222,4760003,,,,,,,2022-02-04,1,,,,,トウカイジーシー,0
1392,5180001149871,新規,0,2022-02-04,2022-02-04,株式会社ＯＨＡＮＡ,,株式会社,愛知県,豊明市,三崎町中ノ坪１５番地１７,,23,229,4701125,,,,,,,2022-02-04,1,,,,,オハナ,0
1393,5180001149888,新規,0,2022-02-04,2022-02-04,株式会社ＤＡＩ,,株式会社,愛知県,大府市,共和町２丁目１４番地の５,,23,223,4740061,,,,,,,2022-02-04,1,,,,,ダイ,0
1396,5180003023455,新規,0,2022-02-04,2022-02-04,守田合同会社,,合同会社,愛知県,春日井市,八田町８丁目１４番地１,,23,206,4860849,,,,,,,2022-02-04,1,,,,,モリタ,0
1405,5180301035895,新規,0,2022-02-04,2022-02-04,株式会社三日月,,株式会社,愛知県,安城市,篠目町池下１８４番地１,,23,212,4460073,,,,,,,2022-02-04,1,,,,,ミカヅキ,0
1406,5180301035904,新規,0,2022-02-04,2022-02-04,あいち家守舎株式会社,,株式会社,愛知県,岡崎市,大和町字鳥ケ城３番地１,,23,202,4440931,,,,,,,2022-02-04,1,,,,,アイチヤモリシャ,0
1408,5180303005244,新規,0,2022-02-04,2022-02-04,合同会社ジパング,,合同会社,愛知県,豊川市,為当町上川原田２番地の１,,23,207,4420845,,,,,,,2022-02-04,1,,,,,ジパング,0
1420,5230005009199,新規,0,2022-02-04,2022-02-04,ワールドヤマシン協同組合,,その他の設立登記法人,富山県,中新川郡立山町,利田２２７番地２,,16,323,9300275,,,,,,,2022-02-04,1,,,,,ワールドヤマシン,0
1422,5240001059296,新規,0,2022-02-04,2022-02-04,株式会社愛‐ｙｏｕ,,株式会社,広島県,広島市中区,竹屋町８番２１－６０２号,,34,101,7300048,,,,,,,2022-02-04,1,,,,,アイユウ,0
1424,5240003005488,新規,0,2022-02-04,2022-02-04,合同会社ＳＨＩＥＬＤ,,合同会社,広島県,広島市南区,的場町１丁目８番７－９０２号,,34,103,7320824,,,,,,,2022-02-04,1,,,,,シールド,0
1425,5250001019398,新規,0,2022-02-04,2022-02-04,株式会社藤竹工業,,株式会社,山口県,宇部市,大字西岐波６０３４番地３,,35,202,7550151,,,,,,,2022-02-04,1,,,,,フジタケコウギョウ,0
1429,5260003003795,新規,0,2022-02-04,2022-02-04,合同会社ファームクン,,合同会社,岡山県,倉敷市,真備町市場３１７７番地２,,33,202,7101305,,,,,,,2022-02-04,1,,,,,ファームクン,0
1435,5290001096302,新規,0,2022-02-04,2022-02-04,株式会社伊都ハイランド,,株式会社,福岡県,糸島市,志摩岐志１５１３番地４,,40,230,8191334,,,,,,,2022-02-04,1,,,,,イトハイランド,0
1440,5290801028215,新規,0,2022-02-04,2022-02-04,株式会社叶向,,株式会社,福岡県,直方市,大字山部３９３番地１６,,40,204,8220034,,,,,,,2022-02-04,1,,,,,カナタ,0
1441,5310001017701,新規,0,2022-02-04,2022-02-04,株式会社中雄通信工業,,株式会社,長崎県,諫早市,小川町６０番地１ＧＬＡＮＺ小川町ＩＩ４０１号,00125627,42,204,8540053,,,,,,,2022-02-04,1,,,,,ナカオツウシンコウギョウ,0
1442,5320003003723,新規,0,2022-02-04,2022-02-04,ＹＳＣ合同会社,,合同会社,大分県,別府市,新港町２番３６号シーフロントビラ別府２０７号,,44,202,8740923,,,,,,,2022-02-04,1,,,,,ワイエスシー,0
1443,5320005009966,新規,0,2022-02-04,2022-02-04,佐伯市船舶管理協同組合,,その他の設立登記法人,大分県,佐伯市,１０４５２番地,,44,205,8760000,,,,,,,2022-02-04,1,,,,,サイキシセンパクカンリ,0
1446,5330001029406,新規,0,2022-02-04,2022-02-04,御所浦未来島株式会社,,株式会社,熊本県,天草市,御所浦町御所浦４３１０－８,,43,215,8660313,,,,,,,2022-02-04,1,,,,,ゴショウラミライジマ,0
1447,5330001029422,新規,0,2022-02-04,2022-02-04,株式会社園田建設,,株式会社,熊本県,八代市,千丁町古閑出３０９番地５,,43,202,8694704,,,,,,,2022-02-04,1,,,,,ソノダケンセツ,0
1451,5360001029972,新規,0,2022-02-04,2022-02-04,株式会社ヒダカ,,株式会社,沖縄県,名護市,字豊原１７９番地９,,47,209,9052172,,,,,,,2022-02-04,1,,,,,ヒダカ,0
1452,5360005006588,新規,0,2022-02-04,2022-02-04,一般社団法人Ｈｏｎｅｙｂｅｅ,,その他の設立登記法人,沖縄県,豊見城市,字豊崎１番地４５６,,47,212,9010225,,,,,,,2022-02-04,1,,,,,ハニービー,0
1456,5370001048138,新規,0,2022-02-04,2022-02-04,宮城美里ＰＦＩパートナーズ株式会社,,株式会社,宮城県,遠田郡美里町,南小牛田字山の神２１１番地１,,04,505,9870003,,,,,,,2022-02-04,1,,,,,ミヤギミサトピーエフアイパートナーズ,0
1457,5370001048179,新規,0,2022-02-04,2022-02-04,株式会社いただきます,,株式会社,宮城県,仙台市青葉区,川内三十人町１８番地の５,,04,101,9800866,,,,,,,2022-02-04,1,,,,,イタダキマス,0
1461,5380001032545,新規,0,2022-02-04,2022-02-04,株式会社芳賀石材工業,,株式会社,福島県,岩瀬郡天栄村,大字下松本字横内１番地,,07,344,9620503,,,,,,,2022-02-04,1,,,,,ハガセキザイコウギョウ,0
1465,5420001017731,新規,0,2022-02-04,2022-02-04,株式会社ＳＡＬＡ,,株式会社,青森県,弘前市,大字和泉２丁目１５番地３８,,02,202,0368053,,,,,,,2022-02-04,1,,,,,サラ,0
1468,5430001085918,新規,0,2022-02-04,2022-02-04,末永プランテック株式会社,,株式会社,北海道,苫小牧市,汐見町３丁目１２番７号,,01,213,0530012,,,,,,,2022-02-04,1,,,,,スエナガプランテック,0
1469,5430001085959,新規,0,2022-02-04,2022-02-04,株式会社ＰＥＡＣＥ,,株式会社,北海道,札幌市厚別区,青葉町１０丁目５番３号,,01,108,0040021,,,,,,,2022-02-04,1,,,,,ピース,0
1472,5430003013595,新規,0,2022-02-04,2022-02-04,合同会社古賀農園,,合同会社,北海道,滝川市,南滝の川４５５番地,,01,225,0730013,,,,,,,2022-02-04,1,,,,,コガノウエン,0
1473,5430005014377,新規,0,2022-02-04,2022-02-04,一般社団法人ネイチャー・サウナ協会,,その他の設立登記法人,北海道,苫小牧市,泉町１丁目５番６号,,01,213,0530047,,,,,,,2022-02-04,1,,,,,ネイチャーサウナキョウカイ,0
1475,5450003002175,新規,0,2022-02-04,2022-02-04,合同会社ワタナベファーム,,合同会社,北海道,天塩郡天塩町,字川口８５６７番地,,01,487,0983312,,,,,,,2022-02-04,1,,,,,,0
1476,5450005004327,新規,0,2022-02-04,2022-02-04,一般社団法人澄空,,その他の設立登記法人,北海道,空知郡上富良野町,宮町１丁目１番２４号,,01,460,0710552,,,,,,,2022-02-04,1,,,,,ソラ,0
1480,5470005006412,新規,0,2022-02-04,2022-02-04,一般社団法人山信,,その他の設立登記法人,香川県,さぬき市,造田宮西１３７７番地２,,37,206,7692311,,,,,,,2022-02-04,1,,,,,サンシン,0
1483,5480005006881,新規,0,2022-02-04,2022-02-04,司法書士法人ひとざい,,その他の設立登記法人,徳島県,徳島市,幸町３丁目１０１番地リーガルアクシスビル２階,,36,201,7700847,,,,,,,2022-02-04,1,,,,,ヒトザイ,0
1486,5700150105969,新規,0,2022-02-04,2021-11-25,ＬＡＰＩＴＡ　ＳＨＩＰ,,その他,東京都,渋谷区,幡ヶ谷３丁目１７－６,,13,113,1510072,,,,,,,2021-11-25,1,,,,,ラピタシツプ,0
1487,6000020199451,新規,0,2022-02-04,2022-02-04,富士・東部広域環境事務組合,,地方公共団体,山梨県,富士吉田市,小明見３丁目１１番３２号,,19,202,4030002,,,,,,,2022-02-04,1,,,,,フジトウブコウイキカンキョウジムクミアイ,0
1492,6010001224327,新規,0,2022-02-04,2022-02-04,ライフレーション株式会社,,株式会社,東京都,千代田区,九段南１丁目５番６号りそな九段ビル５Ｆ、ＫＳフロア,,13,101,1020074,,,,,,,2022-02-04,1,,,,,ライフレーション,0
1493,6010001224376,新規,0,2022-02-04,2022-02-04,株式会社ＬｅｍｏｎＲｏｏｍ,,株式会社,東京都,千代田区,神田佐久間町３丁目２０番５号秋葉原Ｙ’ｓビルＢ１,,13,101,1010025,,,,,,,2022-02-04,1,,,,,レモンルーム,0
1504,6010401165352,新規,0,2022-02-04,2022-02-04,株式会社エイシンリアルティ,,株式会社,東京都,港区,高輪４丁目２３番６号,,13,103,1080074,,,,,,,2022-02-04,1,,,,,エイシンリアルティ,0
1505,6010401165377,新規,0,2022-02-04,2022-02-04,株式会社Ｃｌｏｓ　Ｄｅ　Ｂｅｚｅ,,株式会社,東京都,港区,赤坂３丁目１４番２号ドルミ赤坂１０２,,13,103,1070052,,,,,,,2022-02-04,1,,,,,クロドベーズ,0
1506,6010401165410,新規,0,2022-02-04,2022-02-04,株式会社宝や,,株式会社,東京都,港区,白金１丁目１３番６号,,13,103,1080072,,,,,,,2022-02-04,1,,,,,タカラヤ,0
1507,6010403026981,新規,0,2022-02-04,2022-02-04,ヤスカ合同会社,,合同会社,東京都,港区,赤坂３丁目１０番１２号４０４,,13,103,1070052,,,,,,,2022-02-04,1,,,,,ヤスカ,0
1508,6010403027014,新規,0,2022-02-04,2022-02-04,ルイス合同会社,,合同会社,東京都,港区,浜松町１丁目２０番１０号ライオネス浜松町５０６号室,,13,103,1050013,,,,,,,2022-02-04,1,,,,,ルイス,0
1509,6010403027022,新規,0,2022-02-04,2022-02-04,合同会社サンライズウエスト,,合同会社,東京都,港区,浜松町２丁目２番１５号浜松町ダイヤビル２Ｆ,,13,103,1050013,,,,,,,2022-02-04,1,,,,,サンライズウエスト,0
1510,6010403027030,新規,0,2022-02-04,2022-02-04,合同会社ＹＭフューチャー,,合同会社,東京都,港区,海岸１丁目１番１号,,13,103,1050022,,,,,,,2022-02-04,1,,,,,ワイエムフューチャー,0
1512,6010405020660,新規,0,2022-02-04,2022-02-04,ＳＣＧ６７一般社団法人,,その他の設立登記法人,東京都,港区,虎ノ門４丁目１番２８号,,13,103,1050001,,,,,,,2022-02-04,1,,,,,エスシージーシックスティセブン,0
1515,6010501048408,新規,0,2022-02-04,2022-02-04,善＿株式会社,00125628,株式会社,東京都,台東区,上野７丁目７番１１号伸栄ビル２０３号室,,13,106,1100005,,,,,,,2022-02-04,1,,,,,ゼンレイ,0
1516,6010501048416,新規,0,2022-02-04,2022-02-04,株式会社ＧＷＣ,,株式会社,東京都,台東区,日本堤２丁目４番７号,,13,106,1110021,,,,,,,2022-02-04,1,,,,,ジーダブリューシー,0
1518,6010601060568,新規,0,2022-02-04,2022-02-04,株式会社ＩＰ・ＥＣ,,株式会社,東京都,江東区,佐賀１丁目１番１６号リバービュー茅場町１０階,,13,108,1350031,,,,,,,2022-02-04,1,,,,,アイピーイーシー,0
1519,6010601060634,新規,0,2022-02-04,2022-02-04,株式会社ＧＵＮＩ,,株式会社,東京都,江東区,北砂３丁目２１番７号,,13,108,1360073,,,,,,,2022-02-04,1,,,,,グニ,0
1520,6010801032706,新規,0,2022-02-04,2022-02-04,株式会社タタ,,株式会社,東京都,大田区,上池台２丁目１番１５号,,13,111,1450064,,,,,,,2022-02-04,1,,,,,タタ,0
1523,6010901050319,新規,0,2022-02-04,2022-02-04,株式会社プレシジョンケア,,株式会社,東京都,世田谷区,船橋１丁目４８番１１号－２,,13,112,1560055,,,,,,,2022-02-04,1,,,,,プレシジョンケア,0
1531,6011001145471,新規,0,2022-02-04,2022-02-04,株式会社ｏｆｆｉｃｅ　ＭＵＧＩ,,株式会社,東京都,渋谷区,神宮前６丁目１７番１５号落合原宿ビル９Ｆ,,13,113,1500001,,,,,,,2022-02-04,1,,,,,オフィスムギ,0
1532,6011001145505,新規,0,2022-02-04,2022-02-04,株式会社ｃｌｅ,,株式会社,東京都,渋谷区,神宮前６丁目８番４号,,13,113,1500001,,,,,,,2022-02-04,1,,,,,クレ,0
1533,6011003014121,新規,0,2022-02-04,2022-02-04,合同会社ＴｈａｎｋｓＮａｔｕｒｅ恵比寿代官山,,合同会社,東京都,渋谷区,恵比寿西１丁目３０番１４号エコー代官山２０３,,13,113,1500021,,,,,,,2022-02-04,1,,,,,サンクスネイチャーエビスダイカンヤマ,0
1534,6011103011431,新規,0,2022-02-04,2022-02-04,合同会社Ｄａｔｅｓ,,合同会社,東京都,新宿区,西新宿３丁目３番１３号西新宿水間ビル６階,,13,104,1600023,,,,,,,2022-02-04,1,,,,,デーツ,0
1548,6011701025023,新規,0,2022-02-04,2022-02-04,株式会社アセットパートナーズ京葉,,株式会社,東京都,江戸川区,一之江７丁目３０番１４号,,13,123,1320024,,,,,,,2022-02-04,1,,,,,アセットパートナーズケイヨウ,0
1549,6011701025031,新規,0,2022-02-04,2022-02-04,株式会社パンドラ,,株式会社,東京都,江戸川区,西小岩１丁目２７番２２号,,13,123,1330057,,,,,,,2022-02-04,1,,,,,パンドラ,0
1551,6011801040293,新規,0,2022-02-04,2022-02-04,ウルデック株式会社,,株式会社,東京都,葛飾区,東金町１丁目３２番５号,,13,122,1250041,,,,,,,2022-02-04,1,,,,,ウルデック,0
1552,6011801040302,新規,0,2022-02-04,2022-02-04,株式会社Ｍｉｌｌｕｓ,,株式会社,東京都,足立区,東和２丁目６番６号,,13,121,1200003,,,,,,,2022-02-04,1,,,,,ミルス,0
1554,6012401038827,新規,0,2022-02-04,2022-02-04,株式会社ＷＨＩＴＥ　ＢＡＳＥ　ＣＡＭＰ,,株式会社,東京都,三鷹市,牟礼２丁目４番４０－３０３号,,13,204,1810002,,,,,,,2022-02-04,1,,,,,ホワイトベースキャンプ,0
1555,6012401038835,新規,0,2022-02-04,2022-02-04,株式会社Ｔ＆Ｍ,,株式会社,東京都,三鷹市,上連雀９丁目２３番１８号,,13,204,1810012,,,,,,,2022-02-04,1,,,,,ティーアンドエム,0
1557,6012701016920,新規,0,2022-02-04,2022-02-04,株式会社太栄テック,,株式会社,東京都,東久留米市,小山４丁目５－１６,,13,222,2030051,,,,,,,2022-02-04,1,,,,,タイエイテック,0
1558,6012703002398,新規,0,2022-02-04,2022-02-04,合同会社フューチャーアート,,合同会社,東京都,小平市,栄町３丁目９番１１号,,13,211,1870034,,,,,,,2022-02-04,1,,,,,フューチャーアート,0
1564,6013301048635,新規,0,2022-02-04,2022-02-04,株式会社ＳＫ企画,,株式会社,東京都,豊島区,南池袋２丁目４９番７号池袋パークビル１階,,13,116,1710022,,,,,,,2022-02-04,1,,,,,エスケーキカク,0
1575,6020001144359,新規,0,2022-02-04,2022-02-04,株式会社ＮＦｉｅｌｄ,,株式会社,神奈川県,川崎市麻生区,上麻生６丁目２９－５０－２０９,,14,137,2150021,,,,,,,2022-02-04,1,,,,,エヌフィールド,0
1576,6020001145068,新規,0,2022-02-04,2022-02-04,株式会社Ｓｈａｆｔｅｌ,,株式会社,神奈川県,横浜市鶴見区,東寺尾１丁目３０－４０東寺尾ヒルズ８４－３３０号室,,14,101,2300077,,,,,,,2022-02-04,1,,,,,シャフテル,0
1577,6020001145084,新規,0,2022-02-04,2022-02-04,Ｓｈａｒｅ　Ｈａｐｐｉｎｅｓｓ　Ｈｏｌｄｉｎｇｓ株式会社,,株式会社,神奈川県,横浜市青葉区,奈良町１５６６番地６０,,14,117,2270036,,,,,,,2022-02-04,1,,,,,シェアハピネスホールディングス,0
1578,6020001145101,新規,0,2022-02-04,2022-02-04,株式会社ＭＪ企画,,株式会社,神奈川県,横浜市戸塚区,戸塚町２６６７番地,,14,110,2440003,,,,,,,2022-02-04,1,,,,,エムジェイキカク,0
1582,6020003021250,新規,0,2022-02-04,2022-02-04,合同会社Ｍａｒｉｎｅ,,合同会社,神奈川県,横浜市港北区,箕輪町２丁目７番６０,,14,109,2230051,,,,,,,2022-02-04,1,,,,,マリーン,0
1589,6021001075049,新規,0,2022-02-04,2022-02-04,ＡＮＤＥＳ　ＣＯＲＰＯＲＡＴＩＯＮ株式会社,,株式会社,神奈川県,藤沢市,湘南台４丁目３０番地の４,,14,205,2520804,,,,,,,2022-02-04,1,,,,,アンデスコーポレーション,0
1596,6030001146528,新規,0,2022-02-04,2022-02-04,株式会社メヴィ・サンティエ,,株式会社,埼玉県,戸田市,本町１丁目７番１２号,,11,224,3350023,,,,,,,2022-02-04,1,,,,,メヴィサンティエ,0
1597,6030001146668,新規,0,2022-02-04,2022-02-04,株式会社ＴＯＭＯクリエイト,,株式会社,埼玉県,八潮市,中央２丁目２０番地１９,,11,234,3400816,,,,,,,2022-02-04,1,,,,,トモクリエイト,0
1598,6030001146676,新規,0,2022-02-04,2022-02-04,鈴一興業株式会社,,株式会社,埼玉県,川口市,本町４丁目１２番１３－４１２号,,11,203,3320012,,,,,,,2022-02-04,1,,,,,スズイチコウギョウ,0
1599,6030001146684,新規,0,2022-02-04,2022-02-04,株式会社ＶＥＩＮ,,株式会社,埼玉県,ふじみ野市,駒林元町３丁目４番３０号カーサ・エーデルＡ２０１,,11,245,3560038,,,,,,,2022-02-04,1,,,,,ヴェイン,0
1601,6030003018758,新規,0,2022-02-04,2022-02-04,三木合同会社,,合同会社,埼玉県,戸田市,喜沢１丁目４６番１１－６０２室,,11,224,3350013,,,,,,,2022-02-04,1,,,,,ミキ,0
1611,6040001122049,新規,0,2022-02-04,2022-02-04,株式会社リリー,,株式会社,千葉県,八千代市,ゆりのき台７丁目１４番地２,,12,221,2760042,,,,,,,2022-02-04,1,,,,,リリー,0
1612,6040001122098,新規,0,2022-02-04,2022-02-04,Ａｍｏｅｂａ株式会社,,株式会社,千葉県,船橋市,習志野台２丁目１６番１２号,,12,204,2740063,,,,,,,2022-02-04,1,,,,,アメーバ,0
1613,6040003019433,新規,0,2022-02-04,2022-02-04,合同会社クールランニング,,合同会社,千葉県,浦安市,富士見５丁目１９番３０－４０２号カーサアイエヌイー,,12,227,2790043,,,,,,,2022-02-04,1,,,,,クールランニング,0
1616,6050001050570,新規,0,2022-02-04,2022-02-04,株式会社東山創鐵,,株式会社,茨城県,鹿嶋市,大字宮中２９７番地７,,08,222,3140031,,,,,,,2022-02-04,1,,,,,ヒガシヤマソウテツ,0
1617,6050001050579,新規,0,2022-02-04,2022-02-04,株式会社Ｎｉｇａｕｒｉ,,株式会社,茨城県,つくば市,千現２丁目１－６,,08,220,3050047,,,,,,,2022-02-04,1,,,,,ニガウリ,0
1627,6080001024737,新規,0,2022-02-04,2022-02-04,志太ハイトラスト株式会社,,株式会社,静岡県,焼津市,三右衛門新田２８２番地の５,,22,212,4250046,,,,,,,2022-02-04,1,,,,,シダハイトラスト,0
1629,6080103002509,新規,0,2022-02-04,2022-02-04,合同会社ＬＥＦＴＭＯＯＮ,,合同会社,静岡県,富士市,川成新町２０４番地の３,,22,210,4160955,,,,,,,2022-02-04,1,,,,,レフトムーン,0
1631,6100001035038,新規,0,2022-02-04,2022-02-04,ＳＩＭ’ｓ　Ｌｅａｔｈｅｒ　ｗｏｒｋｓ　Ｓｐｉｒｉｔ株式会社,,株式会社,長野県,下高井郡山ノ内町,大字平穏３３６３番地１,,20,561,3810401,,,,,,,2022-02-04,1,,,,,シムズレザーワークススピリット,0
1634,6110001036407,新規,0,2022-02-04,2022-02-04,Ｕｎｏ　Ｌｏｄｇｅ株式会社,,株式会社,新潟県,妙高市,大字赤倉１４番地,,15,217,9492111,,,,,,,2022-02-04,1,,,,,ウノロッジ,0
1635,6110001036423,新規,0,2022-02-04,2022-02-04,株式会社アイカルウェーブ,,株式会社,新潟県,新潟市西蒲区,仁箇１５７３番地１,,15,108,9530022,,,,,,,2022-02-04,1,,,,,アイカルウェーブ,0
1646,6120001243472,新規,0,2022-02-04,2022-02-04,株式会社バディアンドディレクターズ,,株式会社,大阪府,大阪市福島区,吉野２丁目１３番１０号,,27,103,5530006,,,,,,,2022-02-04,1,,,,,バディアンドディレクターズ,0
1647,6120001243646,新規,0,2022-02-04,2022-02-04,泉北機械商会株式会社,,株式会社,大阪府,大阪市北区,梅田２丁目６番２０号パシフィックマークス西梅田４階,,27,127,5300001,,,,,,,2022-02-04,1,,,,,センボクキカイショウカイ,0
1648,6120001243662,新規,0,2022-02-04,2022-02-04,株式会社Ａ－１,,株式会社,大阪府,大阪市中央区,高津１丁目８番１０号,,27,128,5420072,,,,,,,2022-02-04,1,,,,,エーワン,0
1650,6120003021083,新規,0,2022-02-04,2022-02-04,Ｍ・Ｓ・Ｔ合同会社,,合同会社,大阪府,大阪市住吉区,帝塚山東１丁目１０番１９号,,27,120,5580054,,,,,,,2022-02-04,1,,,,,エムエスティ,0
1651,6120003021091,新規,0,2022-02-04,2022-02-04,アセットアド合同会社,,合同会社,大阪府,大阪市平野区,瓜破東２丁目１１番１１－１３０７号,,27,126,5470022,,,,,,,2022-02-04,1,,,,,アセットアド,0
1652,6120005022781,新規,0,2022-02-04,2022-02-04,ＮＰＯ法人ＧＯ－ＥＮ,,その他の設立登記法人,大阪府,大阪市平野区,平野上町１丁目５－１０,,27,126,5470045,,,,,,,2022-02-04,1,,,,,ゴエン,0
1654,6120101065040,新規,0,2022-02-04,2022-02-04,株式会社ｃｒｏｓｓｒｏａｄｓ,,株式会社,大阪府,堺市西区,鳳南町３丁２１８番地１２,,27,144,5938325,,,,,,,2022-02-04,1,,,,,クロスロード,0
1656,6120901045547,新規,0,2022-02-04,2022-02-04,夢彩ホールディングス株式会社,,株式会社,大阪府,豊中市,千里園２丁目８番１６号,,27,203,5600046,,,,,,,2022-02-04,1,,,,,ユメイロホールディングス,0
1665,6130001071063,新規,0,2022-02-04,2022-02-04,株式会社ＮＥＫＳＴ,,株式会社,京都府,京都市北区,衣笠氷室町４番地１９,,26,101,6038484,,,,,,,2022-02-04,1,,,,,ネクスト,0
1666,6130003007734,新規,0,2022-02-04,2022-02-04,合同会社ＡＳリース,,合同会社,京都府,京都市南区,上鳥羽町田１９－２,,26,107,6018132,,,,,,,2022-02-04,1,,,,,エーエスリース,0
1668,6140001124794,新規,0,2022-02-04,2022-02-04,株式会社ｙｏｕ,,株式会社,兵庫県,川西市,小戸１丁目３番９号,,28,217,6660014,,,,,,,2022-02-04,1,,,,,ユー,0
1669,6140003017311,新規,0,2022-02-04,2022-02-04,合同会社ツカモト産業医事務所,,合同会社,兵庫県,芦屋市,山芦屋町２３番１８号,00125635,28,206,6590082,,,,,,,2022-02-04,1,,,,,ツカモトサンギョウイジムショ,0
1670,6150001025315,新規,0,2022-02-04,2022-02-04,ａｇｉｏ株式会社,,株式会社,奈良県,奈良市,中登美ヶ丘６丁目１６番１０号,,29,201,6310003,,,,,,,2022-02-04,1,,,,,アジーオ,0
1673,6160003002492,新規,0,2022-02-04,2022-02-04,アルゴリ合同会社,,合同会社,滋賀県,大津市,大江６丁目１０番３９号,,25,201,5202141,,,,,,,2022-02-04,1,,,,,アルゴリ,0
1677,6180001149813,新規,0,2022-02-04,2022-02-04,ハイパーキャット株式会社,,株式会社,愛知県,大府市,東新町２丁目２１９番地プラウド共和８０１号室,,23,223,4740073,,,,,,,2022-02-04,1,,,,,ハイパーキャット,0
1678,6180001149838,新規,0,2022-02-04,2022-02-04,株式会社ウェルビング,,株式会社,愛知県,名古屋市緑区,有松南１２０１番地,,23,114,4598004,,,,,,,2022-02-04,1,,,,,ウェルビング,0
1679,6180001149854,新規,0,2022-02-04,2022-02-04,株式会社ＭｏｎｋｅｙｐｏｄＧａｒｄｅｎ,,株式会社,愛知県,丹羽郡扶桑町,大字高木字福１３０３番地,,23,362,4800107,,,,,,,2022-02-04,1,,,,,モンキーポッドガーデン,0
1701,6220003003204,新規,0,2022-02-04,2022-02-04,合同会社オリザ,,合同会社,石川県,金沢市,横川１丁目１２２番地ラフィネ１０２,,17,201,9218163,,,,,,,2022-02-04,1,,,,,オリザ,0
1702,6230003001801,新規,0,2022-02-04,2022-02-04,ボンボヤージュ合同会社,,合同会社,富山県,高岡市,中川栄町１０番２０号,,16,202,9330042,,,,,,,2022-02-04,1,,,,,ボンボヤージュ,0
1707,6240001059287,新規,0,2022-02-04,2022-02-04,株式会社千花興業,,株式会社,広島県,呉市,中通３丁目８－１３第二山下ビル２０１号,,34,202,7370046,,,,,,,2022-02-04,1,,,,,センカコウギョウ,0
1710,6240003005487,新規,0,2022-02-04,2022-02-04,Ｌｉｖｅ　ｃｏｌｏｒｆｕｌｌｙ合同会社,,合同会社,広島県,広島市西区,古江上２丁目４９７番地２・８０４,,34,104,7330875,,,,,,,2022-02-04,1,,,,,リブカラフリー,0
1711,6250001019389,新規,0,2022-02-04,2022-02-04,株式会社ＬＣ,,株式会社,山口県,下松市,美里町３丁目１１番５号,,35,207,7440073,,,,,,,2022-02-04,1,,,,,エルシー,0
1716,6260001036474,新規,0,2022-02-04,2022-02-04,あんだんて株式会社,,株式会社,岡山県,赤磐市,東窪田８６－１,,33,213,7012223,,,,,,,2022-02-04,1,,,,,アンダンテ,0
1725,6290801028230,新規,0,2022-02-04,2022-02-04,株式会社匠伝統工芸社,,株式会社,福岡県,田川郡福智町,金田２７８番地３,,40,610,8221201,,,,,,,2022-02-04,1,,,,,タクミデントウコウゲイシャ,0
1728,6300001012801,新規,0,2022-02-04,2022-02-04,株式会社ｓｕｅｃｏ,,株式会社,佐賀県,伊万里市,黒川町福田１４０５－１,,41,205,8480122,,,,,,,2022-02-04,1,,,,,スエコ,0
1730,6330001029413,新規,0,2022-02-04,2022-02-04,株式会社カリーノリアルエステート,,株式会社,熊本県,熊本市中央区,安政町１番２号,,43,101,8600801,,,,,,,2022-02-04,1,,,,,カリーノリアルエステート,0
1731,6330001029421,新規,0,2022-02-04,2022-02-04,株式会社Ｍ－ＴＥＣ,,株式会社,熊本県,山鹿市,城１３７６番地,,43,208,8610554,,,,,,,2022-02-04,1,,,,,エムテック,0
1734,6330003009231,新規,0,2022-02-04,2022-02-04,合同会社Ｅ＆Ｔ,,合同会社,熊本県,八代郡氷川町,早尾５２９番地,,43,468,8694606,,,,,,,2022-02-04,1,,,,,イーアンドティ,0
1735,6340001024470,新規,0,2022-02-04,2022-02-04,株式会社Ｌ＆Ｒ不動産,,株式会社,鹿児島県,姶良市,船津８番地１,,46,225,8995655,,,,,,,2022-02-04,1,,,,,エルアンドアールフドウサン,0
1736,6340001024487,新規,0,2022-02-04,2022-02-04,株式会社ふぁみぃゆ南,,株式会社,鹿児島県,鹿児島市,荒田２丁目３０番８号７階,,46,201,8900054,,,,,,,2022-02-04,1,,,,,ファミィユミナミ,0
1738,6350001017564,新規,0,2022-02-04,2022-02-04,株式会社育英,,株式会社,宮崎県,北諸県郡三股町,大字樺山４１４２番地２,,45,341,8891901,,,,,,,2022-02-04,1,,,,,イクエイ,0
1739,6350003004024,新規,0,2022-02-04,2022-02-04,Ａ住まいる企画合同会社,,合同会社,宮崎県,都城市,一万城町３号５番地７,,45,202,8850041,,,,,,,2022-02-04,1,,,,,エイスマイルキカク,0
1740,6360001029971,新規,0,2022-02-04,2022-02-04,株式会社シマエンジニア,,株式会社,沖縄県,沖縄市,古謝津嘉山町２８番５号プレイズハイム２０１,,47,211,9042166,,,,,,,2022-02-04,1,,,,,シマエンジニア,0
1742,6360003011779,新規,0,2022-02-04,2022-02-04,合同会社ｃｌｏｍ　ｐｌｕｓ,,合同会社,沖縄県,石垣市,字新川１１９番地カンセイホーム新川４－Ｄ,,47,207,9070024,,,,,,,2022-02-04,1,,,,,クロムプラス,0
1743,6370001048178,新規,0,2022-02-04,2022-02-04,株式会社リンク,,株式会社,宮城県,仙台市泉区,市名坂字堂林１０５番地の３,,04,105,9813117,,,,,,,2022-02-04,1,,,,,リンク,0
1749,6380001032544,新規,0,2022-02-04,2022-02-04,ハニーエクセレント株式会社,,株式会社,福島県,いわき市,平泉崎字前原１８番地の１,,07,204,9700112,,,,,,,2022-02-04,1,,,,,ハニーエクセレント,0
1750,6380001032552,新規,0,2022-02-04,2022-02-04,株式会社友輝,,株式会社,福島県,河沼郡湯川村,大字桜町字中町２５０番地６,,07,422,9693545,,,,,,,2022-02-04,1,,,,,ユウキ,0
1758,6430001085917,新規,0,2022-02-04,2022-02-04,株式会社建樹工業,,株式会社,北海道,苫小牧市,明徳町３丁目２番１３号,,01,213,0591273,,,,,,,2022-02-04,1,,,,,ケンキコウギョウ,0
1759,6430001085925,新規,0,2022-02-04,2022-02-04,株式会社小林建設,,株式会社,北海道,札幌市白石区,北郷四条１１丁目７番１９号,,01,104,0030834,,,,,,,2022-02-04,1,,,,,コバヤシケンセツ,0
1761,6430003013594,新規,0,2022-02-04,2022-02-04,合同会社籠島農場,,合同会社,北海道,岩見沢市,栗沢町由良５７番地２,,01,210,0680111,,,,,,,2022-02-04,1,,,,,カゴシマノウジョウ,0
1764,6460001005649,新規,0,2022-02-04,2022-02-04,株式会社風牧場,,株式会社,北海道,川上郡標茶町,字熊牛原野十線東５番地９,,01,664,0883145,,,,,,,2022-02-04,1,,,,,カゼボクジョウ,0
1771,6470001018955,新規,0,2022-02-04,2022-02-04,株式会社大谷建築,,株式会社,香川県,観音寺市,流岡町６４４番地６,,37,205,7680014,,,,,,,2022-02-04,1,,,,,オオタニケンチク,0
1773,6480005006880,新規,0,2022-02-04,2022-02-04,税理士法人ひとざい,,その他の設立登記法人,徳島県,徳島市,佐古六番町１１番８号,,36,201,7700026,,,,,,,2022-02-04,1,,,,,ヒトザイ,0
1774,6500001023984,新規,0,2022-02-04,2022-02-04,株式会社ＳＯＢ,,株式会社,愛媛県,今治市,大新田町１丁目４番４７号,,38,202,7940005,,,,,,,2022-02-04,1,,,,,エスオービー,0
1784,7010001224301,新規,0,2022-02-04,2022-02-04,株式会社ｘＣＡＲＥ,,株式会社,東京都,中央区,日本橋１丁目２番１０号東洋ビル６階,,13,102,1030027,,,,,,,2022-02-04,1,,,,,クロスケア,0
1786,7010003036918,新規,0,2022-02-04,2022-02-04,合同会社ＨＹＬａｎｄ,,合同会社,東京都,中央区,晴海３丁目１３番１号ＤｅｕｘＴｏｕｒｓＥａｓｔＴｏｗｅｒ４５０６,,13,102,1040053,,,,,,,2022-02-04,1,,,,,ハイランド,0
1787,7010003036942,新規,0,2022-02-04,2022-02-04,合同会社ｎａｇａｔａ,,合同会社,東京都,千代田区,神田錦町３丁目１６番地ＢＲＩＣＫＣＯＵＲＴ神田錦町６０１号,,13,101,1010054,,,,,,,2022-02-04,1,,,,,ナガタ,0
1789,7010005034556,新規,0,2022-02-04,2022-02-04,ジェイコアレジ５ホールディング特定目的会社,,その他の設立登記法人,東京都,千代田区,丸の内３丁目１番１号東京共同会計事務所内,,13,101,1000005,,,,,,,2022-02-04,1,,,,,ジェイコアレジファイブホールディング,0
1793,7010401165335,新規,0,2022-02-04,2022-02-04,株式会社Ｖａｕｌｔ,,株式会社,東京都,港区,南青山２丁目２番１５号ウィン青山９４２,,13,103,1070062,,,,,,,2022-02-04,1,,,,,ヴォルト,0
1794,7010401165368,新規,0,2022-02-04,2022-02-04,ニューガイアゴールド株式会社,,株式会社,東京都,港区,芝１丁目１５番１４号,,13,103,1050014,,,,,,,2022-02-04,1,,,,,ニューガイアゴールド,0
1795,7010401165376,新規,0,2022-02-04,2022-02-04,株式会社Ｔ－ＳＰＩＮＥ,,株式会社,東京都,港区,東麻布１丁目２９番９号,,13,103,1060044,,,,,,,2022-02-04,1,,,,,ティースパイン,0
1796,7010401165384,新規,0,2022-02-04,2022-02-04,株式会社エパヌイール,,株式会社,東京都,港区,北青山２丁目７－１３プラセオ青山ビル３階,,13,103,1070061,,,,,,,2022-02-04,1,,,,,エパヌイール,0
1798,7010403027013,新規,0,2022-02-04,2022-02-04,アイラ合同会社,,合同会社,東京都,港区,浜松町１丁目２０番１０号ライオネス浜松町５０６号室,,13,103,1050013,,,,,,,2022-02-04,1,,,,,アイラ,0
1804,7010601060591,新規,0,2022-02-04,2022-02-04,株式会社ギガコンテンツ,,株式会社,東京都,江東区,東雲１丁目９－４パークタワー東雲８０２号室,,13,108,1350062,,,,,,,2022-02-04,1,,,,,ギガコンテンツ,0
1805,7010601060617,新規,0,2022-02-04,2022-02-04,株式会社アフターバーナー,,株式会社,東京都,江東区,豊洲５丁目６番４５－７０５号,,13,108,1350061,,,,,,,2022-02-04,1,,,,,アフターバーナー,0
1806,7010601060625,新規,0,2022-02-04,2022-02-04,株式会社あきら,,株式会社,東京都,江東区,東陽５丁目３０番７号サン・クレシェンテ１Ｆ,,13,108,1350016,,,,,,,2022-02-04,1,,,,,アキラ,0
1808,7010701042184,新規,0,2022-02-04,2022-02-04,ＡＳｔｅｃｈ株式会社,,株式会社,東京都,品川区,南大井３丁目１１番１４－８０３号,,13,109,1400013,,,,,,,2022-02-04,1,,,,,エーエステック,0
1812,7010801032705,新規,0,2022-02-04,2022-02-04,スペースゴリラ株式会社,,株式会社,東京都,大田区,久が原４丁目１４番１８号,,13,111,1460085,,,,,,,2022-02-04,1,,,,,スペースゴリラ,0
1820,7011001145396,新規,0,2022-02-04,2022-02-04,株式会社カサマアーキテクツ,,株式会社,東京都,渋谷区,道玄坂１丁目１０－８渋谷道玄坂東急ビル２Ｆ－Ｃ,,13,113,1500043,,,,,,,2022-02-04,1,,,,,カサマアーキテクツ,0
1823,7011003014112,新規,0,2022-02-04,2022-02-04,合同会社ｍｉｔｉｈｉｋｉ,,合同会社,東京都,渋谷区,渋谷２丁目１９－１５宮益坂ビルディング６０９,,13,113,1500002,,,,,,,2022-02-04,1,,,,,ミチヒキ,0
1828,7011101097694,新規,0,2022-02-04,2022-02-04,ＪＣインベストメント株式会社,,株式会社,東京都,新宿区,若葉２丁目１１番地３－８０４号,,13,104,1600011,,,,,,,2022-02-04,1,,,,,ジェーシーインベストメント,0
1829,7011103011430,新規,0,2022-02-04,2022-02-04,合同会社ウニベル,,合同会社,東京都,新宿区,西早稲田１丁目２２番３号,,13,104,1690051,,,,,,,2022-02-04,1,,,,,ウニベル,0
1830,7011201023609,新規,0,2022-02-04,2022-02-04,株式会社啓明フルーツ,,株式会社,東京都,中野区,大和町１丁目１０番５号,,13,114,1650034,,,,,,,2022-02-04,1,,,,,ケイメイフルーツ,0
1832,7011403003557,新規,0,2022-02-04,2022-02-04,合同会社オー・ティー・エム,,合同会社,東京都,板橋区,向原２丁目２８番１４号,,13,119,1730036,,,,,,,2022-02-04,1,,,,,オーティーエム,0
1833,7011501027730,新規,0,2022-02-04,2022-02-04,株式会社Ｓｈｏｒｅｆｉｅｌｄ,,株式会社,東京都,北区,堀船１丁目１番２－１４０３号,,13,117,1140004,,,,,,,2022-02-04,1,,,,,ショアフィールド,0
1837,7011805003139,新規,0,2022-02-04,2022-02-04,社会保険労務士法人えびす,,その他の設立登記法人,東京都,葛飾区,水元４丁目２３番７号,,13,122,1250032,,,,,,,2022-02-04,1,,,,,エビス,0
1838,7012401038826,新規,0,2022-02-04,2022-02-04,ＡＫ商事株式会社,,株式会社,東京都,武蔵野市,中町１丁目４番１号,,13,203,1800006,,,,,,,2022-02-04,1,,,,,エイケイショウジ,0
1839,7012703002397,新規,0,2022-02-04,2022-02-04,合同会社八洋,,合同会社,東京都,小平市,花小金井１丁目４５番９号,,13,211,1870002,,,,,,,2022-02-04,1,,,,,ハチヨウ,0
1840,7012801021381,新規,0,2022-02-04,2022-02-04,株式会社ドリームファクトリー,,株式会社,東京都,昭島市,上川原町１丁目１０番１５号,,13,207,1960011,,,,,,,2022-02-04,1,,,,,ドリームファクトリー,0
1844,7013301048634,新規,0,2022-02-04,2022-02-04,バーナビー株式会社,,株式会社,東京都,豊島区,東池袋１丁目３５番３号池袋センタービル８階,,13,116,1700013,,,,,,,2022-02-04,1,,,,,バーナビー,0
1849,7020001145075,新規,0,2022-02-04,2022-02-04,株式会社荏原屋,,株式会社,神奈川県,横浜市中区,日本大通１７番地,,14,104,2310021,,,,,,,2022-02-04,1,,,,,エバラヤ,0
1850,7020001145091,新規,0,2022-02-04,2022-02-04,株式会社ナカケン,,株式会社,神奈川県,川崎市川崎区,大島２丁目８番１号,,14,131,2100834,,,,,,,2022-02-04,1,,,,,ナカケン,0
1851,7020001145109,新規,0,2022-02-04,2022-02-04,アールケイ株式会社,,株式会社,神奈川県,横浜市神奈川区,沢渡一丁目２番地,,14,102,2210844,,,,,,,2022-02-04,1,,,,,アールケイ,0
1857,7020003021217,新規,0,2022-02-04,2022-02-04,合同会社ＬＣエステート,,合同会社,神奈川県,横浜市南区,井土ケ谷下町４４番１７号小野ビル２階,,14,105,2320053,,,,,,,2022-02-04,1,,,,,,0
1862,7021001075097,新規,0,2022-02-04,2022-02-04,株式会社Ａｇｒｉｓａｌｅｓ,,株式会社,神奈川県,三浦郡葉山町,長柄３４４番地の１１,,14,301,2400113,,,,,,,2022-02-04,1,,,,,アグリセールズ,0
1863,7021001075106,新規,0,2022-02-04,2022-02-04,ＴＲＵＳＴ　ＮＥＴＷＯＲＫ株式会社,,株式会社,神奈川県,秦野市,堀西１１３１番地,,14,211,2591331,,,,,,,2022-02-04,1,,,,,トラストネットワーク,0
1864,7021001075114,新規,0,2022-02-04,2022-02-04,積ユウ建設株式会社,,株式会社,神奈川県,小田原市,南鴨宮２丁目９番４号,,14,206,2500875,,,,,,,2022-02-04,1,,,,,セキユウケンセツ,0
1865,7021001075122,新規,0,2022-02-04,2022-02-04,株式会社ＢＳ商会,,株式会社,神奈川県,平塚市,東真土３丁目６番６５号,,14,203,2540018,,,,,,,2022-02-04,1,,,,,ビーエスショウカイ,0
1871,7021003011356,新規,0,2022-02-04,2022-02-04,ｉ　Ａｃｃｅｓｓ　Ｃｏｎｓｕｌｔｉｎｇ合同会社,,合同会社,神奈川県,小田原市,南町１丁目７番２４－２号,,14,206,2500013,,,,,,,2022-02-04,1,,,,,アイアクセスコンサルティング,0
1872,7021003011372,新規,0,2022-02-04,2022-02-04,ＭｅｄｉａＤＮＡ合同会社,,合同会社,神奈川県,茅ヶ崎市,東海岸南６丁目２番４４号,,14,207,2530054,,,,,,,2022-02-04,1,,,,,メディアディーエヌエー,0
1878,7030001146618,新規,0,2022-02-04,2022-02-04,株式会社遠藤設備工業,,株式会社,埼玉県,越谷市,大字大竹８２番地,,11,222,3430034,,,,,,,2022-02-04,1,,,,,エンドウセツビコウギョウ,0
1879,7030001146634,新規,0,2022-02-04,2022-02-04,株式会社鈴木工業,,株式会社,埼玉県,ふじみ野市,仲１丁目１番地５７,,11,245,3560025,,,,,,,2022-02-04,1,,,,,スズキコウギョウ,0
1880,7030001146642,新規,0,2022-02-04,2022-02-04,三陽建設株式会社,,株式会社,埼玉県,さいたま市岩槻区,並木２丁目５番２－３０１号,,11,110,3390068,,,,,,,2022-02-04,1,,,,,サンヨウケンセツ,0
1881,7030001146667,新規,0,2022-02-04,2022-02-04,株式会社サトウ総合事務所,,株式会社,埼玉県,川口市,東川口４丁目５番３２号,,11,203,3330801,,,,,,,2022-02-04,1,,,,,サトウソウゴウジムショ,0
1882,7030001146675,新規,0,2022-02-04,2022-02-04,株式会社江藤,,株式会社,埼玉県,さいたま市浦和区,北浦和３丁目７番３号,,11,107,3300074,,,,,,,2022-02-04,1,,,,,エトウ,0
1886,7030003018798,新規,0,2022-02-04,2022-02-04,Ａ＆Ｋ合同会社,,合同会社,埼玉県,さいたま市見沼区,春野１丁目５番４号,,11,104,3370002,,,,,,,2022-02-04,1,,,,,エーアンドケー,0
1899,7040001122097,新規,0,2022-02-04,2022-02-04,イオンネクストデリバリー株式会社,,株式会社,千葉県,千葉市美浜区,中瀬１丁目５番地１,,12,106,2610023,,,,,,,2022-02-04,1,,,,,イオンネクストデリバリー,0
1900,7040001122122,新規,0,2022-02-04,2022-02-04,ロッキーＦプロジェクト株式会社,,株式会社,千葉県,船橋市,前原西１丁目３１番１－６１５号,,12,204,2740825,,,,,,,2022-02-04,1,,,,,ロッキーエフプロジェクト,0
1902,7040003019408,新規,0,2022-02-04,2022-02-04,ビージェー・インターナショナル合同会社,,合同会社,千葉県,山武市,横田１０７０－６７,,12,237,2891226,,,,,,,2022-02-04,1,,,,,ビージェーインターナショナル,0
1903,7040003019440,新規,0,2022-02-04,2022-02-04,Ｃｏｃｏｄｅケア合同会社,,合同会社,千葉県,松戸市,小金原７丁目２３－２,,12,207,2700021,,,,,,,2022-02-04,1,,,,,ココデケア,0
1909,7060001034514,新規,0,2022-02-04,2022-02-04,株式会社ナスタチウム,,株式会社,栃木県,宇都宮市,峰４丁目１２番５号,,09,201,3210942,,,,,,,2022-02-04,1,,,,,ナスタチウム,0
1910,7060001034539,新規,0,2022-02-04,2022-02-04,株式会社丸和住環境サポート,,株式会社,栃木県,栃木市,吹上町１６３３番地１６,,09,203,3280125,,,,,,,2022-02-04,1,,,,,マルワジュウカンキョウサポート,0
1911,7060001034555,新規,0,2022-02-04,2022-02-04,株式会社インディーゴ,,株式会社,栃木県,鹿沼市,貝島町５０４３番地２,,09,205,3220027,,,,,,,2022-02-04,1,,,,,インディーゴ,0
1915,7070001038927,新規,0,2022-02-04,2022-02-04,株式会社ｍｅｂｉｕｓ,,株式会社,群馬県,太田市,由良町６４６－２,,10,205,3730036,,,,,,,2022-02-04,1,,,,,メビウス,0
1918,7080101023084,新規,0,2022-02-04,2022-02-04,株式会社プレミアムリゾート,,株式会社,静岡県,熱海市,渚町１５番１０号,,22,205,4130014,,,,,,,2022-02-04,1,,,,,プレミアムリゾート,0
1919,7080103002508,新規,0,2022-02-04,2022-02-04,合同会社ＪＰＡ　ＴＲＡＤＩＮＧ,,合同会社,静岡県,沼津市,石川７４番地の１,,22,203,4100317,,,,,,,2022-02-04,1,,,,,ジェイピーエートレーディング,0
1920,7100001035020,新規,0,2022-02-04,2022-02-04,株式会社艶,,株式会社,長野県,塩尻市,大字宗賀７３－３４６,,20,215,3996461,,,,,,,2022-02-04,1,,,,,エン,0
1922,7110001036414,新規,0,2022-02-04,2022-02-04,株式会社ＳＥＩＮＯ,,株式会社,新潟県,新発田市,中曽根町２丁目１４番２８号,,15,206,9570067,,,,,,,2022-02-04,1,,,,,セイノ,0
1936,7120001243570,新規,0,2022-02-04,2022-02-04,株式会社Ｅａｒｎｅｓｔｎｅｓｓ,,株式会社,大阪府,大阪市北区,梅田１丁目１番３号大阪駅前第３ビル２９階１－１－１号室,,27,127,5300001,,,,,,,2022-02-04,1,,,,,アーネストネス,0
1937,7120001243629,新規,0,2022-02-04,2022-02-04,株式会社ｄｅｕｘＥｍｏｔｉｏｎ,,株式会社,大阪府,大阪市中央区,安土町２丁目５－５本町明大ビル,,27,128,5410052,,,,,,,2022-02-04,1,,,,,ドゥーエモーション,0
1938,7120001243637,新規,0,2022-02-04,2022-02-04,株式会社トライアーツ,,株式会社,大阪府,大阪市淀川区,西中島４丁目５番１号ＮＬＣ新大阪パワービル５－Ｇ号室,,27,123,5320011,,,,,,,2022-02-04,1,,,,,トライアーツ,0
1939,7120001243645,新規,0,2022-02-04,2022-02-04,ＨＣＣビジネスサービス株式会社,,株式会社,大阪府,大阪市港区,波除１丁目４番３９号,,27,107,5520001,,,,,,,2022-02-04,1,,,,,エイチシーシービジネスサービス,0
1940,7120001243678,新規,0,2022-02-04,2022-02-04,株式会社Ｌａ　Ｐｌａｃｅ,,株式会社,大阪府,大阪市北区,東天満１丁目３番１１号,,27,127,5300044,,,,,,,2022-02-04,1,,,,,ラプラス,0
1941,7120001243686,新規,0,2022-02-04,2022-02-04,株式会社ＭＡＤＦＥＳ,,株式会社,大阪府,寝屋川市,八坂町１５番３号,,27,215,5720838,,,,,,,2022-02-04,1,,,,,マドフェス,0
1946,7120901045546,新規,0,2022-02-04,2022-02-04,株式会社ベア,,株式会社,大阪府,豊中市,中桜塚１丁目１５番２３号,,27,203,5610881,,,,,,,2022-02-04,1,,,,,ベア,0
1956,7130003007733,新規,0,2022-02-04,2022-02-04,合同会社ミライズ,,合同会社,京都府,京都市伏見区,竹田浄菩提院町２２０番地,,26,109,6128445,,,,,,,2022-02-04,1,,,,,ミライズ,0
1957,7130005016377,新規,0,2022-02-04,2022-02-04,特定非営利活動法人クラマウリ,,その他の設立登記法人,京都府,与謝郡与謝野町,字幾地８９２番地,,26,465,6292311,,,,,,,2022-02-04,1,,,,,クラマウリ,0
1961,7140001124769,新規,0,2022-02-04,2022-02-04,株式会社Ｙ．Ｋ企画,,株式会社,兵庫県,神戸市兵庫区,湊町３丁目２番１５号,,28,105,6520812,,,,,,,2022-02-04,1,,,,,ワイケイキカク,0
1962,7140001124777,新規,0,2022-02-04,2022-02-04,株式会社西播重量,,株式会社,兵庫県,姫路市,余部区上余部３９９番地８,,28,201,6711262,,,,,,,2022-02-04,1,,,,,セイバンジュウリョウ,0
1963,7140001124819,新規,0,2022-02-04,2022-02-04,株式会社Ｏｍｂｍａｎ,,株式会社,兵庫県,西宮市,櫨塚町３－４－４Ｆ,,28,204,6620854,,,,,,,2022-02-04,1,,,,,オンブマン,0
1964,7140001124827,新規,0,2022-02-04,2022-02-04,株式会社オーガスタエステート,,株式会社,兵庫県,尼崎市,西大物町１２番５８－６０８号,,28,202,6600827,,,,,,,2022-02-04,1,,,,,オーガスタエステート,0
1965,7140001124835,新規,0,2022-02-04,2022-02-04,株式会社カワショウ,,株式会社,兵庫県,伊丹市,中野北１丁目４番３０－１号,,28,207,6640029,,,,,,,2022-02-04,1,,,,,カワショウ,0
1971,7150001025314,新規,0,2022-02-04,2022-02-04,０８Ｐａｉｎｔ株式会社,,株式会社,奈良県,橿原市,古川町２８５番地,,29,205,6340828,,,,,,,2022-02-04,1,,,,,ゼロハチペイント,0
1972,7160001023985,新規,0,2022-02-04,2022-02-04,株式会社Ｌｏｄｅｓｔａｒ,,株式会社,滋賀県,大津市,堅田１丁目５番４９号,,25,201,5200243,,,,,,,2022-02-04,1,,,,,ロデスター,0
1975,7180001149837,新規,0,2022-02-04,2022-02-04,株式会社ヌックとＬｉｆｅ,,株式会社,愛知県,知多郡阿久比町,大字阿久比字北海道５４番地,,23,441,4702213,,,,,,,2022-02-04,1,,,,,ヌックトライフ,0
1976,7180001149853,新規,0,2022-02-04,2022-02-04,株式会社スマエネ,,株式会社,愛知県,名古屋市中区,丸の内１丁目７番１３号,,23,106,4600002,,,,,,,2022-02-04,1,,,,,スマエネ,0
1977,7180001149861,新規,0,2022-02-04,2022-02-04,株式会社ｏｙａｓｕｍｉ,,株式会社,愛知県,名古屋市中村区,名駅南１丁目２３番１号第２アスタービル６階,,23,105,4500003,,,,,,,2022-02-04,1,,,,,オヤスミ,0
1978,7180001149878,新規,0,2022-02-04,2022-02-04,株式会社ＲＥＤ’ＣＬＯＳ,,株式会社,愛知県,名古屋市西区,花の木３丁目１番２号,,23,104,4510062,,,,,,,2022-02-04,1,,,,,レッドクロス,0
1983,7180003023461,新規,0,2022-02-04,2022-02-04,Ｚｅｎａｎ　Ｌａｎｋａ合同会社,,合同会社,愛知県,名古屋市港区,善南町２３番地,,23,111,4550814,,,,,,,2022-02-04,1,,,,,ゼナンランカー,0
1984,7180301035902,新規,0,2022-02-04,2022-02-04,株式会社にゃーにゃー,,株式会社,愛知県,豊川市,御油町木ノ下１６番地,,23,207,4410211,,,,,,,2022-02-04,1,,,,,ニャーニャー,0
1994,7200001039721,新規,0,2022-02-04,2022-02-04,ＫｉｏｎＡｒｔ株式会社,,株式会社,岐阜県,多治見市,笠原町１１６２番地の１,,21,204,5070901,,,,,,,2022-02-04,1,,,,,キオンアート,0
1998,7210001018807,新規,0,2022-02-04,2022-02-04,株式会社竹内工業,,株式会社,福井県,小浜市,堀屋敷第４号６番地１,,18,204,9170097,,,,,,,2022-02-04,1,,,,,タケウチコウギョウ,0
2001,7220003003203,新規,0,2022-02-04,2022-02-04,瀬川屋プランニング合同会社,,合同会社,石川県,白山市,市原庚２０番地,,17,210,9202327,,,,,,,2022-02-04,1,,,,,セガワヤプランニング,0
2004,7240001059294,新規,0,2022-02-04,2022-02-04,株式会社Ａｄｄ‐ｏｎ　ｄｅｓｉｇｎ,,株式会社,広島県,広島市南区,段原１丁目４番１９号,,34,103,7320811,,,,,,,2022-02-04,1,,,,,アドオンデザイン,0
2005,7240003005486,新規,0,2022-02-04,2022-02-04,合同会社イオリ,,合同会社,広島県,呉市,焼山西３丁目９番３号１０２号室,,34,202,7370903,,,,,,,2022-02-04,1,,,,,イオリ,0
2012,7260001036498,新規,0,2022-02-04,2022-02-04,西日本不動産販売株式会社,,株式会社,岡山県,倉敷市,西阿知町西原５３２番地１,,33,202,7100806,,,,,,,2022-02-04,1,,,,,ニシニホンフドウサンハンバイ,0
2013,7260003003793,新規,0,2022-02-04,2022-02-04,合同会社メタルオート,,合同会社,岡山県,久米郡美咲町,打穴下６９０番地１,,33,666,7093702,,,,,,,2022-02-04,1,,,,,メタルオート,0
2016,7280001008628,新規,0,2022-02-04,2022-02-04,株式会社Ｇｏ島根,,株式会社,島根県,江津市,有福温泉町６９５番地,,32,207,6950156,,,,,,,2022-02-04,1,,,,,ゴーシマネ,0
2022,7290001096341,新規,0,2022-02-04,2022-02-04,株式会社ＲＩＳＥコミュニケーションズ,,株式会社,福岡県,福岡市中央区,警固２丁目１７番２５号けやきビル３Ｆ,,40,133,8100023,,,,,,,2022-02-04,1,,,,,ライズコミュニケーションズ,0
2023,7290001096358,新規,0,2022-02-04,2022-02-04,株式会社Ｇ‐Ａｄｖａｎｃｅ,,株式会社,福岡県,福岡市西区,大字元岡２６３９番地,,40,135,8190385,,,,,,,2022-02-04,1,,,,,ジーアドバンス,0
2024,7290001096366,新規,0,2022-02-04,2022-02-04,株式会社第一鑑定コネクトホーム,,株式会社,福岡県,福岡市中央区,大名２丁目２番５０号,,40,133,8100041,,,,,,,2022-02-04,1,,,,,ダイイチカンテイコネクトホーム,0
2026,7290003012115,新規,0,2022-02-04,2022-02-04,合同会社リーサステック,,合同会社,福岡県,久留米市,梅満町１６２７番地１－２,,40,203,8300048,,,,,,,2022-02-04,1,,,,,リーサステック,0
2027,7290003012123,新規,0,2022-02-04,2022-02-04,Ｈｏｌｄ　ｈａｎｄｓ合同会社,,合同会社,福岡県,福岡市東区,香住ヶ丘５丁目３番１１号ｎｉｃｏビル２０２号,,40,131,8130003,,,,,,,2022-02-04,1,,,,,ホールドハンズ,0
2028,7290005018548,新規,0,2022-02-04,2022-02-04,一般社団法人先鋭会,,その他の設立登記法人,福岡県,福岡市博多区,博多駅前２丁目１番１号,,40,132,8120011,,,,,,,2022-02-04,1,,,,,センエイカイ,0
2029,7290005018556,新規,0,2022-02-04,2022-02-04,ＮＰＯ法人ｒｏｕｔｅ,,その他の設立登記法人,福岡県,大野城市,下大利１丁目３番１４号,,40,219,8160952,,,,,,,2022-02-04,1,,,,,ルート,0
2038,7320005009964,新規,0,2022-02-04,2022-02-04,税理士法人咸宜,,その他の設立登記法人,大分県,日田市,川原町１番３２号,,44,204,8770043,,,,,,,2022-02-04,1,,,,,カンギ,0
2040,7330001029420,新規,0,2022-02-04,2022-02-04,株式会社Ｅ－メディスン,,株式会社,熊本県,上天草市,龍ヶ岳町高戸２０９５番地５２,,43,212,8660202,,,,,,,2022-02-04,1,,,,,イーメディスン,0
2042,7340001024486,新規,0,2022-02-04,2022-02-04,株式会社一新組,,株式会社,鹿児島県,姶良市,加治木町木田４７６番地,,46,225,8995241,,,,,,,2022-02-04,1,,,,,イッシングミ,0
2046,7340003003703,新規,0,2022-02-04,2022-02-04,合同会社グリーン会計センター,,合同会社,鹿児島県,鹿児島市,下荒田４丁目２１番３３号,,46,201,8900056,,,,,,,2022-02-04,1,,,,,グリーンカイケイセンター,0
2048,7350001017563,新規,0,2022-02-04,2022-02-04,株式会社とり乃屋,,株式会社,宮崎県,都城市,牟田町６街区７の１号,,45,202,8850079,,,,,,,2022-02-04,1,,,,,トリノヤ,0
2049,7350001017571,新規,0,2022-02-04,2022-02-04,株式会社ＧＯＴＯ　ＰＬＵＳ,,株式会社,宮崎県,宮崎市,村角町北原２１８９番地１,,45,201,8800837,,,,,,,2022-02-04,1,,,,,ゴートゥープラス,0
2051,7360001029970,新規,0,2022-02-04,2022-02-04,株式会社安巧業,,株式会社,沖縄県,うるま市,みどり町４丁目１番８号,,47,213,9042215,,,,,,,2022-02-04,1,,,,,ヤスコウギョウ,0
2052,7360003011778,新規,0,2022-02-04,2022-02-04,合同会社新陽セキュリティ,,合同会社,沖縄県,沖縄市,高原５丁目１番３号知念店舗２０２号室,,47,211,9042171,,,,,,,2022-02-04,1,,,,,シンヨウセキュリティ,0
2053,7360003011786,新規,0,2022-02-04,2022-02-04,合同会社ＣＲＥＡＴＥ,,合同会社,沖縄県,うるま市,字天願１１９番地,,47,213,9042202,,,,,,,2022-02-04,1,,,,,クリエイト,0
2056,7370001048144,新規,0,2022-02-04,2022-02-04,株式会社ＰＬＡＹＦＵＬ,,株式会社,宮城県,仙台市太白区,柳生７丁目２６番地の５アメニティライフ２１,,04,104,9811106,,,,,,,2022-02-04,1,,,,,プレイフル,0
2064,7380001032543,新規,0,2022-02-04,2022-02-04,株式会社ＨＡＮＥＲＵ葛尾,,株式会社,福島県,双葉郡葛尾村,大字落合字関下２１番地４,,07,548,9791602,,,,,,,2022-02-04,1,,,,,ハネルカツラオ,0
2071,7430001085908,新規,0,2022-02-04,2022-02-04,株式会社宮岸塗装,,株式会社,北海道,江別市,東光町４６番地の１７,,01,217,0670023,,,,,,,2022-02-04,1,,,,,ミヤギシトソウ,0
2072,7430001085940,新規,0,2022-02-04,2022-02-04,ＴＥＡＭ株式会社,,株式会社,北海道,札幌市豊平区,平岸四条９丁目４－６ラフレスカ平岸１階,,01,105,0620934,,,,,,,2022-02-04,1,,,,,チーム,0
2073,7430001085949,新規,0,2022-02-04,2022-02-04,ＭＪ株式会社,,株式会社,北海道,札幌市東区,北二十条東１８丁目８番５－５０６号,,01,103,0650020,,,,,,,2022-02-04,1,,,,,エムジェイ,0
2075,7430003013602,新規,0,2022-02-04,2022-02-04,合同会社Ｎ’ｓ　ｗｏｒｋｓ,,合同会社,北海道,札幌市東区,北十一条東４丁目２番７号,,01,103,0650011,,,,,,,2022-02-04,1,,,,,エヌズワークス,0
2076,7430005014383,新規,0,2022-02-04,2022-02-04,特定非営利活動法人Ｎｉｓｅｋｏ　Ａｒｅａ　Ｍｏｕｎｔａｉｎ　Ｂｉｋｅ　Ａｓｓｏｃｉａｔｉｏｎ,,その他の設立登記法人,北海道,虻田郡倶知安町,北一条東１丁目４番地木村食堂,,01,400,0440001,,,,,,,2022-02-04,1,,,,,ニセコエリアマウンテンバイクアソシエーション,0
2078,7450001013610,新規,0,2022-02-04,2022-02-04,株式会社舟山ファーム,,株式会社,北海道,上川郡当麻町,中央１区,,01,454,0781331,,,,,,,2022-02-04,1,,,,,フナヤマファーム,0
2080,7460003000878,新規,0,2022-02-04,2022-02-04,きずなサポート合同会社,,合同会社,北海道,川上郡標茶町,富士５丁目１２番地１,,01,664,0882302,,,,,,,2022-02-04,1,,,,,キズナサポート,0
2089,7490003001626,新規,0,2022-02-04,2022-02-04,合同会社太陽メダカ園,,合同会社,高知県,高知市,潮見台３丁目７０９番地,,39,201,7815108,,,,,,,2022-02-04,1,,,,,タイヨウメダカエン,0
2096,7700150033078,新規,0,2022-02-04,2015-10-09,北海道税理士会　小樽支部,,その他,北海道,小樽市,花園４丁目２２番２１号小樽公園ＢＬＤ,,01,203,0470024,,,,,,,2015-10-09,1,,,,,ホツカイドウゼイリシカイオタルシブ,0
2112,8010001224399,新規,0,2022-02-04,2022-02-04,株式会社たなこ,,株式会社,東京都,中央区,佃１丁目５番７号,,13,102,1040051,,,,,,,2022-02-04,1,,,,,タナコ,0
2114,8010003036933,新規,0,2022-02-04,2022-02-04,合同会社Ｔ．Ｉ　Ｐａｒｔｎｅｒ,,合同会社,東京都,千代田区,三番町９番地４ホーマット三番町３０７号,,13,101,1020075,,,,,,,2022-02-04,1,,,,,ティーアイパートナー,0
2127,8010401165383,新規,0,2022-02-04,2022-02-04,株式会社ｍｅｄｉｉｉ,,株式会社,東京都,港区,海岸３丁目１８番１号,,13,103,1080022,,,,,,,2022-02-04,1,,,,,メディー,0
2129,8010403027020,新規,0,2022-02-04,2022-02-04,桃郷ソーラー合同会社,,合同会社,東京都,港区,海岸１丁目５番２０号,,13,103,1050022,,,,,,,2022-02-04,1,,,,,トウキョウソーラー,0
2130,8010403027029,新規,0,2022-02-04,2022-02-04,Ｋａｇｅｒｏｕ合同会社,,合同会社,東京都,港区,南青山２丁目２番１５号,,13,103,1070062,,,,,,,2022-02-04,1,,,,,カゲロウ,0
2135,8010701042142,新規,0,2022-02-04,2022-02-04,株式会社７２４,,株式会社,東京都,品川区,東五反田２丁目６番５号フロインデ１０１,,13,109,1410022,,,,,,,2022-02-04,1,,,,,ナナニーヨン,0
2136,8010701042191,新規,0,2022-02-04,2022-02-04,Ｍｅｌｔｌｙ株式会社,,株式会社,東京都,品川区,豊町４丁目１９－２１ＰｌａｃｅＨａｎａｎｏｋｉ３０１,,13,109,1420042,,,,,,,2022-02-04,1,,,,,メルトリー,0
2138,8010901050291,新規,0,2022-02-04,2022-02-04,株式会社ＥＣＯＮＯＳＵＯＭＩ,,株式会社,東京都,世田谷区,粕谷３丁目３０番１４号,,13,112,1570063,,,,,,,2022-02-04,1,,,,,エコノスオミ,0
2140,8010903007133,新規,0,2022-02-04,2022-02-04,合同会社シンバ,,合同会社,東京都,世田谷区,砧４丁目５番９号ＧＳハイム祖師谷大蔵３０３,,13,112,1570073,,,,,,,2022-02-04,1,,,,,シンバ,0
2150,8011101097710,新規,0,2022-02-04,2022-02-04,株式会社アイビー,,株式会社,東京都,新宿区,新宿３丁目５番６号キュープラザ新宿三丁目４０２,,13,104,1600022,,,,,,,2022-02-04,1,,,,,アイビー,0
2157,8011303004299,新規,0,2022-02-04,2022-02-04,合同会社ａｉ　ｌｅｖｅｌ,,合同会社,東京都,杉並区,善福寺２丁目３－３ｃａｌｍｅ西荻窪１０５号室,,13,115,1670041,,,,,,,2022-02-04,1,,,,,アイレベル,0
2163,8012401038833,新規,0,2022-02-04,2022-02-04,株式会社ＫＡＮＥＫＡＴＳＵ教育,,株式会社,東京都,稲城市,坂浜１２５７番地小田良３１街区２３号,,13,225,2060822,,,,,,,2022-02-04,1,,,,,カネカツキョウイク,0
2168,8012403005229,新規,0,2022-02-04,2022-02-04,合同会社３２８ｗｏｒｋｓ,,合同会社,東京都,府中市,是政５丁目１９番地の１府中多摩川通り住宅２－４２２,,13,206,1830014,,,,,,,2022-02-04,1,,,,,ミツヤワークス,0
2173,8013301048617,新規,0,2022-02-04,2022-02-04,ＭＲ株式会社,,株式会社,東京都,豊島区,駒込１丁目５番７号３０１,,13,116,1700003,,,,,,,2022-02-04,1,,,,,エムアール,0
2174,8013301048641,新規,0,2022-02-04,2022-02-04,株式会社ＢＥＹＯＵＬＩＦＥ,,株式会社,東京都,豊島区,西巣鴨１丁目１５－５藤澤ビル１階,,13,116,1700001,,,,,,,2022-02-04,1,,,,,ビーユーライフ,0
2184,8020001145108,新規,0,2022-02-04,2022-02-04,株式会社ＫＤＫ,,株式会社,神奈川県,横浜市港南区,港南３丁目２３番２６号,,14,111,2330003,,,,,,,2022-02-04,1,,,,,ケィディケィ,0
2185,8020001145116,新規,0,2022-02-04,2022-02-04,株式会社ウイルアカデミー,,株式会社,神奈川県,横浜市南区,弘明寺町字山下２７７番地１１スピカハイツ弘明寺,,14,105,2320067,,,,,,,2022-02-04,1,,,,,ウイルアカデミー,0
2190,8020003021240,新規,0,2022-02-04,2022-02-04,ハウジングファクトリー合同会社,,合同会社,神奈川県,横浜市都筑区,長坂１４番３－２２３号,,14,118,2240063,,,,,,,2022-02-04,1,,,,,ハウジングファクトリー,0
2194,8021001075121,新規,0,2022-02-04,2022-02-04,株式会社十色,,株式会社,神奈川県,逗子市,小坪４丁目１４番１号,,14,208,2490008,,,,,,,2022-02-04,1,,,,,トイロ,0
2196,8021003011371,新規,0,2022-02-04,2022-02-04,合同会社ＷｉｎｇＨｏｐｅ,,合同会社,神奈川県,相模原市南区,相模台１丁目１番１２号パインヒル２０１,,14,153,2520321,,,,,,,2022-02-04,1,,,,,ウィングホープ,0
2203,8030001146617,新規,0,2022-02-04,2022-02-04,株式会社大和魂,,株式会社,埼玉県,さいたま市北区,今羽町３６０番地ファミーユガーデン２０７号室,,11,102,3310801,,,,,,,2022-02-04,1,,,,,ヤマトダマシイ,0
2204,8030001146633,新規,0,2022-02-04,2022-02-04,株式会社ＴＹＨＤ,,株式会社,埼玉県,大里郡寄居町,大字寄居１０６９番地,,11,408,3691203,,,,,,,2022-02-04,1,,,,,ティーワイエイチディー,0
2205,8030001146641,新規,0,2022-02-04,2022-02-04,株式会社Ｆｒｅｅ　Ｓｔｙｌｅ,,株式会社,埼玉県,北足立郡伊奈町,内宿台４丁目６９番地グレートノーブルＡ２０２,,11,301,3620812,,,,,,,2022-02-04,1,,,,,フリースタイル,0
2206,8030001146666,新規,0,2022-02-04,2022-02-04,株式会社Ｔ．ＨＯＭＥ,,株式会社,埼玉県,川越市,むさし野１３番地２３,,11,201,3501170,,,,,,,2022-02-04,1,,,,,ティーホーム,0
2207,8030001146674,新規,0,2022-02-04,2022-02-04,東海情報コミュニケーションズ株式会社,,株式会社,埼玉県,朝霞市,西原１丁目２番３１号,,11,227,3510034,,,,,,,2022-02-04,1,,,,,トウカイジョウホウコミュニケーションズ,0
2208,8030001146682,新規,0,2022-02-04,2022-02-04,株式会社ストビオ,,株式会社,埼玉県,北葛飾郡杉戸町,大字遠野３３３番地１,,11,464,3450031,,,,,,,2022-02-04,1,,,,,ストビオ,0
2221,8050001050577,新規,0,2022-02-04,2022-02-04,ＴＨライフ株式会社,,株式会社,茨城県,土浦市,摩利山新田３２７番地２Ａ－１０２,,08,203,3000838,,,,,,,2022-02-04,1,,,,,ティーエイチライフ,0
2222,8050001050585,新規,0,2022-02-04,2022-02-04,株式会社辻徹,,株式会社,茨城県,笠間市,中市原６７５番地,,08,216,3091732,,,,,,,2022-02-04,1,,,,,ツジトオル,0
2225,8050005013010,新規,0,2022-02-04,2022-02-04,一般社団法人ＲＡＴＴＡＮ,,その他の設立登記法人,茨城県,ひたちなか市,大字田彦７９１番地の３,,08,221,3120063,,,,,,,2022-02-04,1,,,,,ラタン,0
2227,8060001034538,新規,0,2022-02-04,2022-02-04,株式会社ふじちく,,株式会社,栃木県,下都賀郡野木町,大字南赤塚８３０番地２,,09,364,3290112,,,,,,,2022-02-04,1,,,,,フジチク,0
2240,8090001017399,新規,0,2022-02-04,2022-02-04,株式会社ＣＲＯＳＳ　ＲＯＡＤ,,株式会社,山梨県,甲府市,下曽根町１４７４番地４,,19,201,4001508,,,,,,,2022-02-04,1,,,,,クロスロード,0
2243,8100001035036,新規,0,2022-02-04,2022-02-04,株式会社苗香屋,,株式会社,長野県,伊那市,西箕輪２７２７番地２,,20,209,3994501,,,,,,,2022-02-04,1,,,,,ノウカヤ,0
2244,8100001035044,新規,0,2022-02-04,2022-02-04,株式会社ひなた,,株式会社,長野県,東筑摩郡朝日村,大字西洗馬７６７番地,,20,451,3901101,,,,,,,2022-02-04,1,,,,,ヒナタ,0
2249,8110001036405,新規,0,2022-02-04,2022-02-04,株式会社ｔｒｕｎｋ,,株式会社,新潟県,上越市,柿崎区柿崎６３０９番地の２,,15,222,9493216,,,,,,,2022-02-04,1,,,,,トランク,0
2255,8120001243644,新規,0,2022-02-04,2022-02-04,株式会社ＰＬＵＴＯＳ,,株式会社,大阪府,大阪市西区,南堀江２丁目５番２４号,,27,106,5500015,,,,,,,2022-02-04,1,,,,,プルートス,0
2263,8120003021065,新規,0,2022-02-04,2022-02-04,合同会社楽々Ｅｄｉｔ,,合同会社,大阪府,門真市,島頭２丁目５番１７号,,27,223,5710016,,,,,,,2022-02-04,1,,,,,ラクラクエディット,0
2276,8120901045553,新規,0,2022-02-04,2022-02-04,閂工房株式会社,,株式会社,大阪府,茨木市,野々宮２丁目１２番１８号１０４,,27,211,5670847,,,,,,,2022-02-04,1,,,,,カンヌキコウボウ,0
2277,8120903004020,新規,0,2022-02-04,2022-02-04,合同会社サンストレンジ,,合同会社,大阪府,吹田市,南金田２丁目６番３号,,27,205,5640044,,,,,,,2022-02-04,1,,,,,サンストレンジ,0
2280,8122001035567,新規,0,2022-02-04,2022-02-04,株式会社Ｔｏｄａ・ｒａｂａ,,株式会社,大阪府,東大阪市,横沼町３丁目１３番１７号,,27,227,5770808,,,,,,,2022-02-04,1,,,,,トダラバ,0
2281,8122005003603,新規,0,2022-02-04,2022-02-04,医療法人睦愛会,,その他の設立登記法人,大阪府,四條畷市,楠公２丁目９番１１号,,27,229,5750023,,,,,,,2022-02-04,1,,,,,マコトナカイ,0
2290,8130001071053,新規,0,2022-02-04,2022-02-04,株式会社タジマ,,株式会社,京都府,京都市南区,吉祥院東浦町２２番地,,26,107,6018333,,,,,,,2022-02-04,1,,,,,タジマタジマ,0
2296,8140001124776,新規,0,2022-02-04,2022-02-04,株式会社ＧＩＦＴ,,株式会社,兵庫県,西宮市,高松町１９番９号,,28,204,6638204,,,,,,,2022-02-04,1,,,,,ギフト,0
2301,8150001025313,新規,0,2022-02-04,2022-02-04,株式会社なかにし,,株式会社,奈良県,五條市,西吉野町湯川２３９番地,,29,207,6380644,,,,,,,2022-02-04,1,,,,,ナカニシ,0
2302,8150003002616,新規,0,2022-02-04,2022-02-04,合同会社京,,合同会社,奈良県,北葛城郡上牧町,片岡台１丁目１８番地２０,,29,424,6390201,,,,,,,2022-02-04,1,,,,,ケイ,0
2306,8160003002490,新規,0,2022-02-04,2022-02-04,合同会社ｏｃｔｓ,,合同会社,滋賀県,草津市,野路東５丁目１４－３２エリートナカノ７、２階,,25,206,5250058,,,,,,,2022-02-04,1,,,,,オクツ,0
2307,8170001016970,新規,0,2022-02-04,2022-02-04,株式会社田村建装,,株式会社,和歌山県,和歌山市,松江中２丁目３番１２号,,30,201,6408423,,,,,,,2022-02-04,1,,,,,タムラケンソウ,0
2317,8180001149828,新規,0,2022-02-04,2022-02-04,株式会社日比会計,,株式会社,愛知県,名古屋市中区,栄３丁目３２番２４号,,23,106,4600008,,,,,,,2022-02-04,1,,,,,ヒビカイケイ,0
2318,8180001149844,新規,0,2022-02-04,2022-02-04,愛研株式会社,,株式会社,愛知県,名古屋市南区,西又兵ヱ町４丁目５４番地の１（プレサンスロジェ大江９０６号）,,23,112,4570835,,,,,,,2022-02-04,1,,,,,アイケン,0
2319,8180001149860,新規,0,2022-02-04,2022-02-04,株式会社ブルームーン,,株式会社,愛知県,半田市,北二ツ坂町２丁目３番地の５,,23,205,4750927,,,,,,,2022-02-04,1,,,,,ブルームーン,0
2335,8210001018806,新規,0,2022-02-04,2022-02-04,Ｌａｐｌａｃｅ　Ｅｕｒｅｋａ　Ａｓｓｏｃｉａｔｉｏｎ株式会社,,株式会社,福井県,福井市,花堂東１丁目３５番１号,,18,201,9188013,,,,,,,2022-02-04,1,,,,,ラプラスエウレカアソシエーション,0
2337,8230005009196,新規,0,2022-02-04,2022-02-04,社会保険労務士法人アシスト人事,,その他の設立登記法人,富山県,氷見市,南大町１０番１号氷見商工会館３階,,16,205,9350013,,,,,,,2022-02-04,1,,,,,アシストジンジ,0
2339,8240001059277,新規,0,2022-02-04,2022-02-04,株式会社ＭＡＲＳ,,株式会社,広島県,広島市中区,大手町５丁目２－２０鷹の橋パーキングビル６Ｆ,,34,101,7300051,,,,,,,2022-02-04,1,,,,,マーズ,0
2340,8240001059293,新規,0,2022-02-04,2022-02-04,ディライトおく田株式会社,,株式会社,広島県,安芸郡府中町,大須２丁目１番４０－４０２号,,34,302,7350021,,,,,,,2022-02-04,1,,,,,ディライトオクダ,0
2343,8250001019387,新規,0,2022-02-04,2022-02-04,株式会社ＳＯＲＡサービス,,株式会社,山口県,岩国市,元町１丁目１番１７号ＤＥＭＩＯ元町１Ｆ，２Ｆ,,35,208,7400012,,,,,,,2022-02-04,1,,,,,ソラサービス,0
2344,8250001019395,新規,0,2022-02-04,2022-02-04,株式会社造園堀,,株式会社,山口県,下関市,長府豊城町１０番１０号,,35,201,7520943,,,,,,,2022-02-04,1,,,,,ゾウエンホリ,0
2354,8290003012114,新規,0,2022-02-04,2022-02-04,合同会社ＲＥＩＷＡコーポレーション,,合同会社,福岡県,嘉麻市,馬見１４４番地,,40,227,8200321,,,,,,,2022-02-04,1,,,,,レイワコーポレーション,0
2358,8290801028220,新規,0,2022-02-04,2022-02-04,株式会社ＳＳＧ,,株式会社,福岡県,北九州市戸畑区,天神２丁目１番８号,,40,105,8040094,,,,,,,2022-02-04,1,,,,,エスエスジー,0
2359,8290803004054,新規,0,2022-02-04,2022-02-04,合同会社サニー企画,,合同会社,福岡県,京都郡みやこ町,惣社１２５９番地１３,,40,625,8240124,,,,,,,2022-02-04,1,,,,,サニーキカク,0
2366,8320001018885,新規,0,2022-02-04,2022-02-04,株式会社ＡＫＥＥＭ,,株式会社,大分県,大分市,大字森町１２００番地の１グリーンパーク森町２０２,,44,201,8700127,,,,,,,2022-02-04,1,,,,,アキーム,0
2367,8320005009963,新規,0,2022-02-04,2022-02-04,弁護士法人咸宜,,その他の設立登記法人,大分県,日田市,川原町１番３２号,,44,204,8770043,,,,,,,2022-02-04,1,,,,,カンギ,0
2368,8330001029428,新規,0,2022-02-04,2022-02-04,株式会社クリアーク,,株式会社,熊本県,熊本市中央区,下通１丁目８番５号村上ビル３階１号室,,43,101,8600807,,,,,,,2022-02-04,1,,,,,クリアーク,0
2369,8340003003702,新規,0,2022-02-04,2022-02-04,順源合同会社,,合同会社,鹿児島県,鹿児島市,唐湊１丁目１２番１７号ロゼーヌ唐湊５０３号,,46,201,8900081,,,,,,,2022-02-04,1,,,,,ジュンゲン,0
2372,8350001017570,新規,0,2022-02-04,2022-02-04,株式会社ｙ－ｆｉｒｓｔ,,株式会社,宮崎県,宮崎市,下北方町下郷６０２２番地２１,,45,201,8800035,,,,,,,2022-02-04,1,,,,,ワイファースト,0
2376,8360001029978,新規,0,2022-02-04,2022-02-04,株式会社大盛不動産,,株式会社,沖縄県,島尻郡南風原町,字津嘉山１４９８番地レジデンス宝１０１号室,,47,350,9011117,,,,,,,2022-02-04,1,,,,,オオモリフドウサン,0
2378,8360003011777,新規,0,2022-02-04,2022-02-04,合同会社ＴＯＭＯ開発,,合同会社,沖縄県,名護市,字伊差川７８番地１,,47,209,9051152,,,,,,,2022-02-04,1,,,,,トモカイハツ,0
2380,8370001048184,新規,0,2022-02-04,2022-02-04,株式会社真好工業,,株式会社,宮城県,遠田郡涌谷町,小里字道祖神２４番地３,,04,501,9870281,,,,,,,2022-02-04,1,,,,,シンコウコウギョウ,0
2382,8380001032542,新規,0,2022-02-04,2022-02-04,仁和商事株式会社,,株式会社,福島県,双葉郡富岡町,大字本岡字王塚４４５番３１,,07,543,9791151,,,,,,,2022-02-04,1,,,,,ニンワショウジ,0
2383,8380001032550,新規,0,2022-02-04,2022-02-04,株式会社ハートオンガード,,株式会社,福島県,須賀川市,東町２４番地,,07,207,9620844,,,,,,,2022-02-04,1,,,,,ハートオンガード,0
2384,8380001032559,新規,0,2022-02-04,2022-02-04,エムズファーム株式会社,,株式会社,福島県,福島市,上鳥渡字城ノ内８番地,,07,201,9601107,,,,,,,2022-02-04,1,,,,,エムズファーム,0
2387,8390003001924,新規,0,2022-02-04,2022-02-04,マキ商会合同会社,,合同会社,山形県,天童市,糠塚２丁目５番２２号,,06,210,9940014,,,,,,,2022-02-04,1,,,,,マキショウカイ,0
2395,8430001085915,新規,0,2022-02-04,2022-02-04,株式会社ＡＣＥ小林農園,,株式会社,北海道,夕張市,滝ノ上６１番地,,01,209,0680756,,,,,,,2022-02-04,1,,,,,エーシーイーコバヤシノウエン,0
2396,8430001085931,新規,0,2022-02-04,2022-02-04,株式会社ジーエステート,,株式会社,北海道,伊達市,有珠町２５９番地,,01,233,0590151,,,,,,,2022-02-04,1,,,,,ジーエステート,0
2397,8430001085948,新規,0,2022-02-04,2022-02-04,株式会社創,,株式会社,北海道,苫小牧市,字樽前４２番地の１１,,01,213,0591265,,,,,,,2022-02-04,1,,,,,ツクル,0
2398,8430003013592,新規,0,2022-02-04,2022-02-04,合同会社アルスフォーキャスト,,合同会社,北海道,札幌市中央区,南二条東２丁目１６番地,,01,101,0600052,,,,,,,2022-02-04,1,,,,,アルスフォーキャスト,0
2405,8470001018961,新規,0,2022-02-04,2022-02-04,株式会社水縹,,株式会社,香川県,小豆郡土庄町,豊島家浦２７３－１,,37,322,7614661,,,,,,,2022-02-04,1,,,,,ミハナダ,0
2410,8480005006879,新規,0,2022-02-04,2022-02-04,特定非営利活動法人日本製,,その他の設立登記法人,徳島県,徳島市,佐古八番町５－１９,,36,201,7700028,,,,,,,2022-02-04,1,,,,,ニホンセイ,0
2414,8700150106907,新規,0,2022-02-04,2022-02-04,Ｐｅａｒｌ　Ａｂｙｓｓ　Ｃｏｒｐ．,,外国会社等,,,,,,,,２４，　Ｓｉｍｉｎ－ｄａｅｒｏ　３２７ｂｅｏｎ－ｇｉｌ，　Ｄｏｎｇａｎ－ｇｕ，　Ａｎｙａｎｇ－ｓｉ，　Ｇｙｅｏｎｇｇｉ－ｄｏｍ　Ｒｅｐｕｂｌｉｃ　ｏｆ　Ｋｏｒｅａ,,,,,,2022-02-04,1,,,,,パールアビス,0
2415,8700150106948,新規,0,2022-02-04,2022-02-04,地蔵南町会,,その他,大阪府,貝塚市,地藏堂１３９－２６,,27,208,5970053,,,,,,,2022-02-04,1,,,,,ジゾウミナミチヨウカイ,0
2423,9010001224332,新規,0,2022-02-04,2022-02-04,株式会社ＧＮＮ,,株式会社,東京都,千代田区,九段南３丁目２番２号,,13,101,1020074,,,,,,,2022-02-04,1,,,,,ジーエヌエヌ,0
2425,9010003036932,新規,0,2022-02-04,2022-02-04,合同会社ＯＣＰＦ１号,,合同会社,東京都,中央区,日本橋１丁目４番１号,,13,102,1030027,,,,,,,2022-02-04,1,,,,,オーシーピーエフイチゴウ,0
2430,9010005034554,新規,0,2022-02-04,2022-02-04,一般社団法人ｇｒａｔｚ,,その他の設立登記法人,東京都,中央区,銀座１丁目１２番４号Ｎ＆Ｅ・ＢＬＤ．７階,,13,102,1040061,,,,,,,2022-02-04,1,,,,,グラッツ,0
2439,9010401165333,新規,0,2022-02-04,2022-02-04,株式会社Ｓｅｔｔｌｅｒ,,株式会社,東京都,港区,新橋５丁目１２番１１号天翔新橋５丁目ビル２０７,,13,103,1050004,,,,,,,2022-02-04,1,,,,,セトラー,0
2440,9010401165341,新規,0,2022-02-04,2022-02-04,株式会社ＲＵＤＤＥＲＳ,,株式会社,東京都,港区,麻布十番１丁目４番８号麻布永坂ビル３Ｆ,,13,103,1060045,,,,,,,2022-02-04,1,,,,,ラダーズ,0
2441,9010401165382,新規,0,2022-02-04,2022-02-04,株式会社ＴＥＮＹＯ,,株式会社,東京都,港区,芝浦４丁目１９番１－２４０４号,,13,103,1080023,,,,,,,2022-02-04,1,,,,,テンヨ,0
2442,9010401165408,新規,0,2022-02-04,2022-02-04,株式会社ブリリア,,株式会社,東京都,港区,赤坂２丁目８番１４号ラミアール赤坂３０４号,,13,103,1070052,,,,,,,2022-02-04,1,,,,,ブリリア,0
2443,9010403027028,新規,0,2022-02-04,2022-02-04,オラムンド合同会社,,合同会社,東京都,港区,元麻布３丁目２番１９号,,13,103,1060046,,,,,,,2022-02-04,1,,,,,オラムンド,0
2447,9010501048413,新規,0,2022-02-04,2022-02-04,株式会社ＲＥＭＡＲＱＵＥ,,株式会社,東京都,台東区,千束４丁目２８番１１号エレガンスビル１０１号室,,13,106,1110031,,,,,,,2022-02-04,1,,,,,リマルク,0
2448,9010601060598,新規,0,2022-02-04,2022-02-04,ウエアハウス株式会社,,株式会社,東京都,江東区,新砂２丁目１番２７－７０４号,,13,108,1360075,,,,,,,2022-02-04,1,,,,,ウエアハウス,0
2449,9010601060607,新規,0,2022-02-04,2022-02-04,株式会社Ｈｕｕｌｕ,,株式会社,東京都,墨田区,押上３丁目１１番１１－３０１号,,13,107,1310045,,,,,,,2022-02-04,1,,,,,フウル,0
2457,9010901050308,新規,0,2022-02-04,2022-02-04,ＯＮＥ　ＶＥＲＳＥ株式会社,,株式会社,東京都,世田谷区,経堂１丁目２４－１２パサージュ経堂２０２,,13,112,1560052,,,,,,,2022-02-04,1,,,,,ワンバース,0
2465,9011001145337,新規,0,2022-02-04,2022-02-04,株式会社アネビーＨＤ,,株式会社,東京都,渋谷区,元代々木町３３番８号,,13,113,1510062,,,,,,,2022-02-04,1,,,,,アネビーホールディング,0
2466,9011001145428,新規,0,2022-02-04,2022-02-04,株式会社ＡＳＢホールディングス,,株式会社,東京都,渋谷区,道玄坂２丁目１７番３号,,13,113,1500043,,,,,,,2022-02-04,1,,,,,エーエスビーホールディングス,0
2467,9011001145469,新規,0,2022-02-04,2022-02-04,ＭＯＳＡ株式会社,,株式会社,東京都,目黒区,中町２丁目４８番２９号,,13,110,1530065,,,,,,,2022-02-04,1,,,,,モサ,0
2468,9011001145493,新規,0,2022-02-04,2022-02-04,株式会社ＮＤＲネクスト,,株式会社,東京都,渋谷区,恵比寿西１丁目１８番３号,,13,113,1500021,,,,,,,2022-02-04,1,,,,,エヌディーアールネクスト,0
2469,9011001145502,新規,0,2022-02-04,2022-02-04,株式会社Ｓｃａｌｅ　Ｊｏｉｎ,,株式会社,東京都,渋谷区,代官山町８－７Ｄａｉｗａビル３階,,13,113,1500034,,,,,,,2022-02-04,1,,,,,スケールジョイン,0
2470,9011003014093,新規,0,2022-02-04,2022-02-04,ＡｉｒＴｒｕｎｋ　Ｊａｐａｎ２合同会社,,合同会社,東京都,渋谷区,円山町３番６号Ｅ・スペースタワー,,13,113,1500044,,,,,,,2022-02-04,1,,,,,エアートランクジャパンツー,0
2475,9011101097726,新規,0,2022-02-04,2022-02-04,株式会社ＴＤＢ,,株式会社,東京都,新宿区,高田馬場２丁目１４番８号ＮＴビル２階Ａ,,13,104,1690075,,,,,,,2022-02-04,1,,,,,ティディビー,0
2477,9011201023615,新規,0,2022-02-04,2022-02-04,株式会社ＲｅＤＥＰＴ．,,株式会社,東京都,中野区,東中野２丁目２番８号,,13,114,1640003,,,,,,,2022-02-04,1,,,,,リデプト,0
2480,9011401024000,新規,0,2022-02-04,2022-02-04,株式会社ａｄｆｏｒｃｅ,,株式会社,東京都,板橋区,徳丸１丁目５０番３号,,13,119,1750083,,,,,,,2022-02-04,1,,,,,アドフォース,0
2492,9011801040282,新規,0,2022-02-04,2022-02-04,立新株式会社,,株式会社,東京都,足立区,西新井本町５丁目２番４－２０６号,,13,121,1230845,,,,,,,2022-02-04,1,,,,,リッシン,0
2493,9011801040308,新規,0,2022-02-04,2022-02-04,株式会社ＲＩＧ,,株式会社,東京都,足立区,大谷田３丁目１０－２,,13,121,1200001,,,,,,,2022-02-04,1,,,,,リグ,0
2497,9012401038832,新規,0,2022-02-04,2022-02-04,株式会社Ｐｒｏｃｅｓｓ　Ｏｎｅ,,株式会社,東京都,府中市,栄町３丁目９番地の１３－２０１,,13,206,1830051,,,,,,,2022-02-04,1,,,,,プロセスワン,0
2498,9012701016918,新規,0,2022-02-04,2022-02-04,株式会社ハイブリッドジャパン,,株式会社,東京都,西東京市,芝久保町３丁目６番２１号アモ・カネイ１０１,,13,229,1880014,,,,,,,2022-02-04,1,,,,,ハイブリッドジャパン,0
2503,9013301048640,新規,0,2022-02-04,2022-02-04,株式会社モナトカ,,株式会社,東京都,豊島区,高田１丁目６番１９号,,13,116,1710033,,,,,,,2022-02-04,1,,,,,モナトカ,0
2513,9020001145081,新規,0,2022-02-04,2022-02-04,株式会社わだむら,,株式会社,神奈川県,横浜市神奈川区,西神奈川１丁目２番１号,,14,102,2210822,,,,,,,2022-02-04,1,,,,,ワダムラ,0
2514,9020001145107,新規,0,2022-02-04,2022-02-04,株式会社アローズ,,株式会社,神奈川県,横浜市神奈川区,松見町３丁目５２４番地３スパシエヒルズ横浜妙蓮寺３０５号,,14,102,2210005,,,,,,,2022-02-04,1,,,,,アローズ,0
2515,9020001145131,新規,0,2022-02-04,2022-02-04,株式会社Ｌｏｏｘ,,株式会社,神奈川県,横浜市中区,山下町２１０－３－６０３,,14,104,2310023,,,,,,,2022-02-04,1,,,,,ルークス,0
2518,9020003021181,新規,0,2022-02-04,2022-02-04,合同会社Ｗｏｒｋ　ｈｓ,,合同会社,神奈川県,横浜市港北区,小机町１５３８―２ユナイト小机ステーションクロスビー２０２,,14,109,2220036,,,,,,,2022-02-04,1,,,,,ワークエイチズ,0
2519,9020003021248,新規,0,2022-02-04,2022-02-04,合同会社ＳＵＭＩＫＡ,,合同会社,神奈川県,横浜市磯子区,中原４丁目２６番２－１０１号,,14,107,2350036,,,,,,,2022-02-04,1,,,,,スミカ,0
2527,9021001075120,新規,0,2022-02-04,2022-02-04,マスト株式会社,,株式会社,神奈川県,小田原市,曽比２５１７番地,,14,206,2500851,,,,,,,2022-02-04,1,,,,,マスト,0
2529,9021003011362,新規,0,2022-02-04,2022-02-04,合同会社ぶーコッコ,,合同会社,神奈川県,愛甲郡愛川町,中津１５９５番地,,14,401,2430303,,,,,,,2022-02-04,1,,,,,ブーコッコ,0
2534,9030001146574,新規,0,2022-02-04,2022-02-04,株式会社ジョイライド,,株式会社,埼玉県,熊谷市,佐谷田１３２３番地,,11,202,3600023,,,,,,,2022-02-04,1,,,,,ジョイライド,0
2535,9030001146632,新規,0,2022-02-04,2022-02-04,株式会社リフィックス,,株式会社,埼玉県,幸手市,大字惣新田３３３４番地１,,11,240,3400133,,,,,,,2022-02-04,1,,,,,リフィックス,0
2536,9030001146657,新規,0,2022-02-04,2022-02-04,株式会社ＪＡＳＭＩＮＥ４,,株式会社,埼玉県,富士見市,大字水子６３２０番地１１,,11,235,3540011,,,,,,,2022-02-04,1,,,,,ジャスミンフォー,0
2537,9030001146665,新規,0,2022-02-04,2022-02-04,株式会社ＲＥＶＥＲ,,株式会社,埼玉県,川口市,柳根町１６－２１,,11,203,3330864,,,,,,,2022-02-04,1,,,,,リバー,0
2538,9030001146673,新規,0,2022-02-04,2022-02-04,株式会社ＢＢＬ,,株式会社,埼玉県,三郷市,さつき平２丁目４番１－１３０６号,,11,237,3410021,,,,,,,2022-02-04,1,,,,,ビービーエル,0
2540,9030003018722,新規,0,2022-02-04,2022-02-04,Ｒｅｓｔｉｃｋｙ合同会社,,合同会社,埼玉県,八潮市,八潮２丁目４番地３８,,11,234,3400815,,,,,,,2022-02-04,1,,,,,リスティッキー,0
2551,9040001122062,新規,0,2022-02-04,2022-02-04,株式会社ＮＳＲ,,株式会社,千葉県,千葉市若葉区,大宮台２丁目１番２号ウォールナッツビル２０１,,12,104,2640015,,,,,,,2022-02-04,1,,,,,エヌエスアール,0
2553,9050001050568,新規,0,2022-02-04,2022-02-04,株式会社マイアトリエ,,株式会社,茨城県,つくばみらい市,谷井田１０６７番地３－１０２,,08,235,3002337,,,,,,,2022-02-04,1,,,,,マイアトリエ,0
2554,9050001050576,新規,0,2022-02-04,2022-02-04,ピーシースケット株式会社,,株式会社,茨城県,つくば市,天久保２丁目３番地１ホソダビル２０３号,,08,220,3050005,,,,,,,2022-02-04,1,,,,,ピーシースケット,0
2555,9050001050584,新規,0,2022-02-04,2022-02-04,株式会社ＮＥＸＡＳ,,株式会社,茨城県,北相馬郡利根町,もえぎ野台４丁目２番地３７,,08,564,3001606,,,,,,,2022-02-04,1,,,,,ネクサス,0
2557,9060001034545,新規,0,2022-02-04,2022-02-04,株式会社はるいろやっきょく,,株式会社,栃木県,那須塩原市,太夫塚４丁目２１１番地３３,,09,213,3292735,,,,,,,2022-02-04,1,,,,,ハルイロヤッキョク,0
2558,9060001034553,新規,0,2022-02-04,2022-02-04,エムズカラー株式会社,,株式会社,栃木県,宇都宮市,細谷町６８１番地５,,09,201,3200074,,,,,,,2022-02-04,1,,,,,エムズカラー,0
2560,9070001038917,新規,0,2022-02-04,2022-02-04,株式会社ＬＵＣＯＳＭＥＴＩＣＳ,,株式会社,群馬県,伊勢崎市,田部井町１丁目１６００番地,,10,204,3792222,,,,,,,2022-02-04,1,,,,,エルユーコスメティックス,0
2563,9090003002035,新規,0,2022-02-04,2022-02-04,合同会社ハルノヒ,,合同会社,山梨県,中巨摩郡昭和町,西条２０１４番地１,,19,384,4093866,,,,,,,2022-02-04,1,,,,,ハルノヒ,0
2565,9100001035027,新規,0,2022-02-04,2022-02-04,株式会社Ａ＆Ｔレストランツ,,株式会社,長野県,上田市,大屋２４２番地３,,20,203,3860152,,,,,,,2022-02-04,1,,,,,エイアンドテイレストランツ,0
2572,9110005016757,新規,0,2022-02-04,2022-02-04,税理士法人和久井会計事務所,,その他の設立登記法人,新潟県,十日町市,本町６の１丁目５９８番地２３,,15,210,9480003,,,,,,,2022-02-04,1,,,,,ワクイカイケイジムショ,0
2576,9120001243593,新規,0,2022-02-04,2022-02-04,久松株式会社,,株式会社,大阪府,大阪市北区,西天満５丁目１５番９号アバンセ西天満ビル３Ｆ,,27,127,5300047,,,,,,,2022-02-04,1,,,,,ヒサマツ,0
2577,9120001243668,新規,0,2022-02-04,2022-02-04,フォースマイル株式会社,,株式会社,大阪府,守口市,菊水通２丁目１５番１２号松井ビル３０２号,,27,209,5700032,,,,,,,2022-02-04,1,,,,,フォースマイル,0
2578,9120001243684,新規,0,2022-02-04,2022-02-04,株式会社リッカ,,株式会社,大阪府,大阪市北区,梅田１丁目１－３大阪駅前第３ビル２９階１－１－１号室,,27,127,5300001,,,,,,,2022-02-04,1,,,,,リッカ,0
2580,9120003021072,新規,0,2022-02-04,2022-02-04,合同会社げんき,,合同会社,大阪府,大阪市城東区,東中浜３丁目１７番１８号,,27,118,5360023,,,,,,,2022-02-04,1,,,,,ゲンキ,0
2581,9120003021080,新規,0,2022-02-04,2022-02-04,合同会社ＷＩＳＤＯＭ,,合同会社,大阪府,大阪市住吉区,苅田２丁目３番２５号１０１号,,27,120,5580011,,,,,,,2022-02-04,1,,,,,ウィズダム,0
2588,9120901045544,新規,0,2022-02-04,2022-02-04,株式会社Ｍａｖｉｅ,,株式会社,大阪府,箕面市,今宮１丁目６番３０号,,27,220,5620033,,,,,,,2022-02-04,1,,,,,マヴィ,0
2589,9120901045552,新規,0,2022-02-04,2022-02-04,株式会社ＥＣＯ,,株式会社,大阪府,豊中市,刀根山２丁目９番５号,,27,203,5600045,,,,,,,2022-02-04,1,,,,,イーシーオー,0
2592,9122001035566,新規,0,2022-02-04,2022-02-04,日貿商事株式会社,,株式会社,大阪府,八尾市,山本町北７丁目３０番１号,,27,212,5810831,,,,,,,2022-02-04,1,,,,,ニチボウショウジ,0
2596,9130001071036,新規,0,2022-02-04,2022-02-04,株式会社アートの森,,株式会社,京都府,京都市左京区,孫橋町２３ＳＡＭＵＲＡＩビル２階,,26,103,6060000,,,,,,,2022-02-04,1,,,,,アートノモリ,0
2597,9130001071060,新規,0,2022-02-04,2022-02-04,株式会社ポラリス,,株式会社,京都府,京都市山科区,西野今屋敷町１９番地１,,26,110,6078341,,,,,,,2022-02-04,1,,,,,ポラリス,0
2598,9130001071077,新規,0,2022-02-04,2022-02-04,株式会社京都ぐらし,,株式会社,京都府,宇治市,伊勢田町毛語１２８－２辻ニューコーポ１０１,00125626,26,204,6110043,,,,,,,2022-02-04,1,,,,,キョウトグラシ,0
2606,9140001124759,新規,0,2022-02-04,2022-02-04,株式会社ＵＭＡＲＥＲＵ,,株式会社,兵庫県,尼崎市,南塚口町２丁目３５番１７号,,28,202,6610012,,,,,,,2022-02-04,1,,,,,ウマレル,0
2607,9140001124783,新規,0,2022-02-04,2022-02-04,株式会社ソウユウ,,株式会社,兵庫県,高砂市,阿弥陀町魚橋３７１番地５,,28,216,6760822,,,,,,,2022-02-04,1,,,,,ソウユウ,0
2608,9140001124833,新規,0,2022-02-04,2022-02-04,株式会社ＪＥＭＵＴＩＱ,,株式会社,兵庫県,神戸市西区,樫野台３丁目１４番地の１６,,28,111,6512275,,,,,,,2022-02-04,1,,,,,ジェムティック,0
2609,9140003017317,新規,0,2022-02-04,2022-02-04,合同会社千葉興産,,合同会社,兵庫県,尼崎市,塚口町１丁目１６番６号,,28,202,6610002,,,,,,,2022-02-04,1,,,,,チバコウサン,0
2610,9140003017333,新規,0,2022-02-04,2022-02-04,合同会社キシダミツヒロ,,合同会社,兵庫県,尼崎市,南武庫之荘２丁目８番１－１０４号,,28,202,6610033,,,,,,,2022-02-04,1,,,,,キシダミツヒロ,0
2612,9150001025312,新規,0,2022-02-04,2022-02-04,株式会社グリーディー,,株式会社,奈良県,奈良市,大宮町３丁目１番９号,,29,201,6308115,,,,,,,2022-02-04,1,,,,,グリーディー,0
2614,9150003002615,新規,0,2022-02-04,2022-02-04,合同会社ニコ,,合同会社,奈良県,奈良市,法華寺町１２１０番地ＴＭビル２０８号室,,29,201,6308001,,,,,,,2022-02-04,1,,,,,ニコ,0
2615,9160001023983,新規,0,2022-02-04,2022-02-04,ＤＥＮＳＨＯ株式会社,,株式会社,滋賀県,草津市,草津町１６４５番地７４,,25,206,5250036,,,,,,,2022-02-04,1,,,,,デンショー,0
2626,9180001149835,新規,0,2022-02-04,2022-02-04,株式会社セキオ,,株式会社,愛知県,名古屋市西区,比良４丁目６８番地,,23,104,4520802,,,,,,,2022-02-04,1,,,,,セキオ,0
2627,9180001149851,新規,0,2022-02-04,2022-02-04,名古屋木材株式会社,,株式会社,愛知県,名古屋市中川区,山王２丁目６番４１号２階,,23,110,4540011,,,,,,,2022-02-04,1,,,,,ナゴヤモクザイ,0
2628,9180001149884,新規,0,2022-02-04,2022-02-04,株式会社食のイノベーター,,株式会社,愛知県,名古屋市北区,玄馬町１５４,,23,103,4620018,,,,,,,2022-02-04,1,,,,,ショクノイノベーター,0
2629,9180001149892,新規,0,2022-02-04,2022-02-04,眞匠株式会社,,株式会社,愛知県,尾張旭市,大塚町２丁目６番地１３,,23,226,4880826,,,,,,,2022-02-04,1,,,,,シンショウ,0
2637,9180003023468,新規,0,2022-02-04,2022-02-04,さくらリファイン合同会社,,合同会社,愛知県,名古屋市中区,栄１丁目２４番２６号,,23,106,4600008,,,,,,,2022-02-04,1,,,,,サクラリファイン,0
2639,9180301035891,新規,0,2022-02-04,2022-02-04,株式会社ナチュラルトモロウ,,株式会社,愛知県,岡崎市,不吹町１番地１４４,,23,202,4440817,,,,,,,2022-02-04,1,,,,,ナチュラルトモロウ,0
2643,9190001029103,新規,0,2022-02-04,2022-02-04,ＲＥファーム株式会社,,株式会社,三重県,津市,栗真町屋町３３９番地１,,24,201,5140102,,,,,,,2022-02-04,1,,,,,リファーム,0
2646,9190005011668,新規,0,2022-02-04,2022-02-04,一般社団法人ｍｉｒａｉ,,その他の設立登記法人,三重県,伊勢市,朝熊町４３８３番地４６９,,24,203,5160021,,,,,,,2022-02-04,1,,,,,ミライ,0
2653,9220001024678,新規,0,2022-02-04,2022-02-04,株式会社Ｈｉ‐ＴＯＵＣＨ,,株式会社,石川県,小松市,若杉町１丁目６０,,17,203,9230832,,,,,,,2022-02-04,1,,,,,ハイタッチ,0
2656,9240001059268,新規,0,2022-02-04,2022-02-04,株式会社グランリゾート,,株式会社,広島県,東広島市,西条本町１７番１３号,,34,212,7390011,,,,,,,2022-02-04,1,,,,,グランリゾート,0
2657,9240001059284,新規,0,2022-02-04,2022-02-04,株式会社ヒロフク,,株式会社,広島県,広島市中区,鶴見町３番２１号,,34,101,7300045,,,,,,,2022-02-04,1,,,,,ヒロフク,0
2658,9240001059301,新規,0,2022-02-04,2022-02-04,株式会社コグニコ,,株式会社,広島県,広島市南区,京橋町１番７号,,34,103,7320828,,,,,,,2022-02-04,1,,,,,コグニコ,0
2671,9290001096281,新規,0,2022-02-04,2022-02-04,株式会社クリエイティブＨＯＭＥ,,株式会社,福岡県,福岡市早良区,次郎丸２丁目１０番２－１０３号,,40,137,8140165,,,,,,,2022-02-04,1,,,,,クリエイティブホーム,0
2672,9290001096315,新規,0,2022-02-04,2022-02-04,協同空調株式会社,,株式会社,福岡県,大野城市,乙金３丁目１０番３４号,,40,219,8160902,,,,,,,2022-02-04,1,,,,,キョウドウクウチョウ,0
2673,9290801028228,新規,0,2022-02-04,2022-02-04,株式会社トモサポ,,株式会社,福岡県,直方市,大字下新入１３１７番地２５,,40,204,8220032,,,,,,,2022-02-04,1,,,,,トモサポ,0
2676,9300001012798,新規,0,2022-02-04,2022-02-04,株式会社ＺＥＲＯ　ＣＲＥＡＴＩＯＮ,,株式会社,佐賀県,佐賀市,久保田町大字久富１２９２番地４７,,41,201,8490202,,,,,,,2022-02-04,1,,,,,ゼロクリエーション,0
2683,9310003004272,新規,0,2022-02-04,2022-02-04,合同会社Ｒｉｏｎ,,合同会社,長崎県,諫早市,多良見町市布１３１８番地１,,42,204,8590403,,,,,,,2022-02-04,1,,,,,リオン,0
2686,9320001018884,新規,0,2022-02-04,2022-02-04,株式会社ソルテユニット,,株式会社,大分県,大分市,大字森町６５１番地の１,,44,201,8700127,,,,,,,2022-02-04,1,,,,,ソルテユニット,0
2688,9330001029419,新規,0,2022-02-04,2022-02-04,株式会社ヤマテン,,株式会社,熊本県,山鹿市,中２７５番地,,43,208,8610531,,,,,,,2022-02-04,1,,,,,ヤマテン,0
2689,9330001029427,新規,0,2022-02-04,2022-02-04,株式会社ネクスタル,,株式会社,熊本県,熊本市中央区,花畑町１３番１３号木村ビル地下１階,,43,101,8600806,,,,,,,2022-02-04,1,,,,,ネクスタル,0
2691,9340001024484,新規,0,2022-02-04,2022-02-04,株式会社ＬｕＬａＬａｏ,,株式会社,鹿児島県,鹿児島市,和田２丁目４６番３号,,46,201,8910143,,,,,,,2022-02-04,1,,,,,ルララオ,0
2696,9370001048183,新規,0,2022-02-04,2022-02-04,株式会社ＳＴ４,,株式会社,宮城県,仙台市青葉区,栗生６丁目１１－５アロッジオＳ３０６,,04,101,9893122,,,,,,,2022-02-04,1,,,,,エスティフォー,0
2700,9380001032558,新規,0,2022-02-04,2022-02-04,株式会社ダイシマカーサービス,,株式会社,福島県,喜多方市,上三宮町上三宮字池田１６６２番地１,,07,208,9660931,,,,,,,2022-02-04,1,,,,,ダイシマカーサービス,0
2703,9380005012531,新規,0,2022-02-04,2022-02-04,一般社団法人ワークサポート福祉協会,,その他の設立登記法人,福島県,いわき市,内郷綴町高野作８３番地,,07,204,9738403,,,,,,,2022-02-04,1,,,,,ワークサポートフクシキョウカイ,0
2710,9430001085922,新規,0,2022-02-04,2022-02-04,株式会社アシストグリーン,,株式会社,北海道,岩見沢市,北村砂浜４８１９番地,,01,210,0690351,,,,,,,2022-02-04,1,,,,,アシストグリーン,0
2711,9430001085930,新規,0,2022-02-04,2022-02-04,株式会社ＣｒｅａＳｔｕｄｉｏ,,株式会社,北海道,札幌市白石区,栄通１２丁目５番２９号,,01,104,0030021,,,,,,,2022-02-04,1,,,,,クリエスタジオ,0
2712,9430001085955,新規,0,2022-02-04,2022-02-04,株式会社祥生社,,株式会社,北海道,札幌市中央区,南一条西１丁目１５―３　３Ｆ　ＬＩＧＨＴ　ＯＦＦＩＣＥ,,01,101,0600061,,,,,,,2022-02-04,1,,,,,サチオシャ,0
2718,9470001018960,新規,0,2022-02-04,2022-02-04,株式会社アフロディテー,,株式会社,香川県,高松市,仏生山町甲２７１１番地５,,37,201,7618078,,,,,,,2022-02-04,1,,,,,アフロディテー,0
2724,9500003002769,新規,0,2022-02-04,2022-02-04,合同会社オレンジオフィス,,合同会社,愛媛県,松山市,北斎院町１１５４－２,,38,201,7918031,,,,,,,2022-02-04,1,,,,,オレンジオフィス,0
2725,9700150015396,新規,0,2022-02-04,2015-10-09,印西交通安全協会,,その他,千葉県,印西市,大森２５１４―１３,,12,231,2701327,,,,,,,2015-10-09,1,,,,,インザイコウツウアンゼンキヨウカイ,0
2728,9700150106906,新規,0,2022-02-04,2022-02-04,日本同盟基督教団　静岡めぐみ教会,,その他,静岡県,静岡市駿河区,宮竹１丁目１８番９号,,22,102,4228035,,,,,,,2022-02-04,1,,,,,ニホンドウメイキリストキョウダンシズオカメグミキョウカイ,0
