sequenceNumber,corporateNumber,process,correct,updateDate,changeDate,name,nameImageId,kind,prefectureName,cityName,streetNumber,addressImageId,prefectureCode,cityCode,postCode,addressOutside,addressOutsideImageId,closeDate,closeCause,successorCorporateNumber,changeCause,assignmentDate,latest,enName,enPrefectureName,enCityName,enAddressOutside,furigana,hihyoji
9,1010001221543,新規,0,2021-10-07,2021-10-07,ＢｅＹｏｋｅ　Ｃａｐｉｔａｌ株式会社,,株式会社,東京都,中央区,京橋１丁目１番５号,,13,102,1040031,,,,,,,2021-10-07,1,,,,,ビヨークキャピタル,0
10,1010001221568,新規,0,2021-10-07,2021-10-07,株式会社鳳晏,,株式会社,東京都,中央区,日本橋蛎殻町１丁目２４番４号井川ビル２Ｆ,,13,102,1030014,,,,,,,2021-10-07,1,,,,,ホウアン,0
11,1010001221584,新規,0,2021-10-07,2021-10-07,アイヴイエスホールディングス株式会社,,株式会社,東京都,千代田区,鍛冶町２丁目９番１２号,,13,101,1010044,,,,,,,2021-10-07,1,,,,,アイヴイエスホールディングス,0
25,1010403026243,新規,0,2021-10-07,2021-10-07,Ｋｏｍｍｓ合同会社,,合同会社,東京都,港区,南青山２丁目２番１５号,,13,103,1070062,,,,,,,2021-10-07,1,,,,,コムズ,0
26,1010403026276,新規,0,2021-10-07,2021-10-07,Ｍｏｎｏｆｕｌ　Ｖｅｎｔｕｒｅ　Ｐａｒｔｎｅｒｓ合同会社,,合同会社,東京都,港区,東新橋１丁目５番２号汐留シティセンター,,13,103,1050021,,,,,,,2021-10-07,1,,,,,モノフルベンチャーパートナーズ,0
29,1010503006401,新規,0,2021-10-07,2021-10-07,合同会社Ｆｌｏｗｅｒ,,合同会社,東京都,台東区,北上野２丁目１６番１０号,,13,106,1100014,,,,,,,2021-10-07,1,,,,,フラワー,0
31,1010601060028,新規,0,2021-10-07,2021-10-07,株式会社ＡＣＬＰ,,株式会社,東京都,墨田区,石原１丁目３２番７号,,13,107,1300011,,,,,,,2021-10-07,1,,,,,アクロップ,0
32,1010601060052,新規,0,2021-10-07,2021-10-07,ＴＡＫＡＯバックオフィスサービス株式会社,,株式会社,東京都,江東区,三好１丁目８番３越前屋ビル２Ｆ,,13,108,1350022,,,,,,,2021-10-07,1,,,,,タカオバックオフィスサービス,0
33,1010603009188,新規,0,2021-10-07,2021-10-07,合同会社ｕｌｕｏｌｉ,,合同会社,東京都,墨田区,石原４丁目２２番１号,,13,107,1300011,,,,,,,2021-10-07,1,,,,,ウルオリ,0
49,1011001143042,新規,0,2021-10-07,2021-10-07,株式会社Ｎｕｄｇｅコンサルティング,,株式会社,東京都,目黒区,青葉台１丁目１０番１１－３０８号コンフォリア目黒青葉台,,13,110,1530042,,,,,,,2021-10-07,1,,,,,ナッジコンサルティング,0
50,1011001143125,新規,0,2021-10-07,2021-10-07,株式会社ＲＮ,,株式会社,東京都,渋谷区,恵比寿２丁目４番１－５０１号,,13,113,1500013,,,,,,,2021-10-07,1,,,,,アールエヌ,0
51,1011001143216,新規,0,2021-10-07,2021-10-07,シンツウシン株式会社,,株式会社,東京都,渋谷区,渋谷２丁目１９番１５－６０９号宮益坂ビルディング,,13,113,1500002,,,,,,,2021-10-07,1,,,,,シンツウシン,0
52,1011001143257,新規,0,2021-10-07,2021-10-07,株式会社ＭＡＮＡＫＡＭＡＮＡ,,株式会社,東京都,目黒区,目黒本町４丁目１４番２０号,,13,110,1520002,,,,,,,2021-10-07,1,,,,,マナカマナ,0
56,1011003013524,新規,0,2021-10-07,2021-10-07,荏原住設合同会社,,合同会社,東京都,渋谷区,本町６丁目６番１３号,,13,113,1510071,,,,,,,2021-10-07,1,,,,,エバラジュウセツ,0
62,1011101096504,新規,0,2021-10-07,2021-10-07,東京ラボ株式会社,,株式会社,東京都,新宿区,百人町１丁目２２番２８号,,13,104,1690073,,,,,,,2021-10-07,1,,,,,トウキョウラボ,0
63,1011101096512,新規,0,2021-10-07,2021-10-07,株式会社みつみ,,株式会社,東京都,新宿区,歌舞伎町１丁目２番１９号三権ビル２階,,13,104,1600021,,,,,,,2021-10-07,1,,,,,ミツミ,0
67,1011201023291,新規,0,2021-10-07,2021-10-07,ノコルアド株式会社,,株式会社,東京都,中野区,江古田１丁目２０番６号プレミール芳花園Ｂ棟１０６,,13,114,1650022,,,,,,,2021-10-07,1,,,,,ノコルアド,0
68,1011201023300,新規,0,2021-10-07,2021-10-07,株式会社ＫＥＮＥＸＸ,,株式会社,東京都,中野区,江原町２丁目２７番６号,,13,114,1650023,,,,,,,2021-10-07,1,,,,,ケネックス,0
75,1011501027356,新規,0,2021-10-07,2021-10-07,海悦商事株式会社,,株式会社,東京都,北区,東十条２丁目１６－１３－３０１号菱和パレス東十条駅前,,13,117,1140001,,,,,,,2021-10-07,1,,,,,カイエツショウジ,0
76,1011603003404,新規,0,2021-10-07,2021-10-07,合同会社オーディー企画,,合同会社,東京都,練馬区,旭丘１丁目３６番１０号,,13,120,1760005,,,,,,,2021-10-07,1,,,,,オーディーキカク,0
79,1011801039786,新規,0,2021-10-07,2021-10-07,株式会社スズヒロ,,株式会社,東京都,足立区,佐野１丁目６番４号,,13,121,1210053,,,,,,,2021-10-07,1,,,,,スズヒロ,0
80,1011801039794,新規,0,2021-10-07,2021-10-07,株式会社リアライズ,,株式会社,東京都,足立区,入谷１丁目７番１３－３０２号,,13,121,1210836,,,,,,,2021-10-07,1,,,,,リアライズ,0
81,1012401038360,新規,0,2021-10-07,2021-10-07,株式会社ループエンド,,株式会社,東京都,武蔵野市,吉祥寺本町３丁目２４番１６号,,13,203,1800004,,,,,,,2021-10-07,1,,,,,ループエンド,0
82,1012401038377,新規,0,2021-10-07,2021-10-07,Ｉｍｅｉ株式会社,,株式会社,東京都,府中市,宮西町３丁目１８番地の１グランレーブ府中２０８,,13,206,1830022,,,,,,,2021-10-07,1,,,,,イメイ,0
83,1012401038385,新規,0,2021-10-07,2021-10-07,ＭＴワークス株式会社,,株式会社,東京都,府中市,是政２丁目１６番地の６ライゼボックス６号,,13,206,1830014,,,,,,,2021-10-07,1,,,,,エムティワークス,0
84,1012701016710,新規,0,2021-10-07,2021-10-07,株式会社ＷＡＳＴ,,株式会社,東京都,小平市,上水本町６丁目１７番３号,,13,211,1870022,,,,,,,2021-10-07,1,,,,,ワスト,0
85,1012801021148,新規,0,2021-10-07,2021-10-07,株式会社たすく,,株式会社,東京都,立川市,一番町５丁目３－５,,13,202,1900033,,,,,,,2021-10-07,1,,,,,タスク,0
86,1012803002617,新規,0,2021-10-07,2021-10-07,合同会社Ｏｕｅｓｔ,,合同会社,東京都,立川市,一番町２丁目２４番地の１７,,13,202,1900033,,,,,,,2021-10-07,1,,,,,ウエスト,0
92,1013301048103,新規,0,2021-10-07,2021-10-07,株式会社１００ＤＩＶＥ,,株式会社,東京都,豊島区,南大塚３丁目３６番７号,,13,116,1700005,,,,,,,2021-10-07,1,,,,,ヒャクダイブ,0
93,1013301048111,新規,0,2021-10-07,2021-10-07,ＨＡＮ　ＨＡＮ株式会社,,株式会社,東京都,豊島区,西池袋３丁目３０番１１号泰共フラットビル４階４Ａ号室,,13,116,1710021,,,,,,,2021-10-07,1,,,,,ハンハン,0
103,1020001143324,新規,0,2021-10-07,2021-10-07,株式会社ＯＭＮＩＢＵＳ,,株式会社,神奈川県,川崎市川崎区,小川町１７番地８リ・ブラン川崎１Ｆ,,14,131,2100023,,,,,,,2021-10-07,1,,,,,オムニブス,0
104,1020001143381,新規,0,2021-10-07,2021-10-07,ノエルジャパン株式会社,,株式会社,神奈川県,横浜市栄区,鍛冶ケ谷２丁目５４番Ｄ－４０４号,,14,115,2470009,,,,,,,2021-10-07,1,,,,,ノエルジャパン,0
111,1020003020604,新規,0,2021-10-07,2021-10-07,合同会社ＵＬＧ,,合同会社,神奈川県,川崎市宮前区,犬蔵２丁目３９番２号,,14,136,2160011,,,,,,,2021-10-07,1,,,,,ユーエルジー,0
112,1020003020612,新規,0,2021-10-07,2021-10-07,アジアパシフィックコンサルティング合同会社,,合同会社,神奈川県,横浜市南区,永楽町２丁目２６番地３Ｌ－Ｆｌａｔ横浜大通り公園９０３号,,14,105,2320031,,,,,,,2021-10-07,1,,,,,アジアパシフィックコンサルティング,0
113,1020005015230,新規,0,2021-10-07,2021-10-07,一般社団法人ヨコハマ・インクルボッチャ・ラボ,,その他の設立登記法人,神奈川県,横浜市栄区,上郷町２６２番地３２－１号館５１４号,,14,115,2470013,,,,,,,2021-10-07,1,,,,,ヨコハマインクルボッチャラボ,0
115,1021001074105,新規,0,2021-10-07,2021-10-07,株式会社ハートフルペイント,,株式会社,神奈川県,相模原市南区,当麻８１８番地７,,14,153,2520336,,,,,,,2021-10-07,1,,,,,ハートフルペイント,0
116,1021001074121,新規,0,2021-10-07,2021-10-07,株式会社さかえ,,株式会社,神奈川県,平塚市,長持１５０番地の７－１０１,,14,203,2591217,,,,,,,2021-10-07,1,,,,,サカエ,0
117,1021003010958,新規,0,2021-10-07,2021-10-07,合同会社鎌倉繕助,,合同会社,神奈川県,鎌倉市,台４丁目２０番８号,,14,204,2470061,,,,,,,2021-10-07,1,,,,,カマクラゼンスケ,0
118,1021005012317,新規,0,2021-10-07,2021-10-07,社会保険労務士法人森労務,,その他の設立登記法人,神奈川県,高座郡寒川町,倉見４０１番地５,,14,321,2530101,,,,,,,2021-10-07,1,,,,,,0
123,1030001144742,新規,0,2021-10-07,2021-10-07,遊フォトライフ株式会社,,株式会社,埼玉県,さいたま市南区,南浦和２丁目３８－７－４０２,,11,108,3360017,,,,,,,2021-10-07,1,,,,,ユウフォトライフ,0
126,1030003018011,新規,0,2021-10-07,2021-10-07,合同会社三浦按針工房,,合同会社,埼玉県,蕨市,中央３丁目１８番８号,,11,223,3350004,,,,,,,2021-10-07,1,,,,,ミウラアンジンコウボウ,0
127,1030003018077,新規,0,2021-10-07,2021-10-07,合同会社Ｄｅｃｏ,,合同会社,埼玉県,八潮市,大字八條２７８８番地１８,,11,234,3400801,,,,,,,2021-10-07,1,,,,,デコ,0
128,1030003018085,新規,0,2021-10-07,2021-10-07,合同会社えにし,,合同会社,埼玉県,さいたま市見沼区,大字南中丸１０３８番地,,11,104,3370041,,,,,,,2021-10-07,1,,,,,エニシ,0
140,1050001049956,新規,0,2021-10-07,2021-10-07,株式会社ＭＡＮＡＮＣＹＡＵＨ,,株式会社,茨城県,土浦市,神立中央２丁目１２番４号桜井テナント１０２,,08,203,3000011,,,,,,,2021-10-07,1,,,,,マナンシアウ,0
143,1060001034148,新規,0,2021-10-07,2021-10-07,株式会社武田自動車,,株式会社,栃木県,宇都宮市,今宮３丁目７番５号,,09,201,3210166,,,,,,,2021-10-07,1,,,,,タケダジドウシャ,0
144,1060001034172,新規,0,2021-10-07,2021-10-07,株式会社上岡建設工業,,株式会社,栃木県,栃木市,藤岡町甲２４８９番地,,09,203,3231105,,,,,,,2021-10-07,1,,,,,カミオカケンセツコウギョウ,0
146,1080001024460,新規,0,2021-10-07,2021-10-07,株式会社アオイミライ,,株式会社,静岡県,静岡市葵区,大岩本町１番３４－９号,,22,101,4200884,,,,,,,2021-10-07,1,,,,,アオイミライ,0
147,1080001024493,新規,0,2021-10-07,2021-10-07,株式会社アオイ建設,,株式会社,静岡県,静岡市駿河区,中野新田３０３－５,,22,102,4228051,,,,,,,2021-10-07,1,,,,,アオイケンセツ,0
152,1080401025397,新規,0,2021-10-07,2021-10-07,富岡モータース株式会社,,株式会社,静岡県,磐田市,豊田１８８番地,,22,211,4380808,,,,,,,2021-10-07,1,,,,,トミオカモータース,0
153,1080405007391,新規,0,2021-10-07,2021-10-07,医療法人社団すずしろ,,その他の設立登記法人,静岡県,浜松市中区,松城町２００番地の１０,,22,131,4300947,,,,,,,2021-10-07,1,,,,,スズシロ,0
154,1090001017232,新規,0,2021-10-07,2021-10-07,株式会社ガリュー工業,,株式会社,山梨県,甲斐市,上芦沢１３５２番地１０,,19,210,4001121,,,,,,,2021-10-07,1,,,,,ガリューコウギョウ,0
157,1100001034696,新規,0,2021-10-07,2021-10-07,株式会社ＢＬＭホールディングス,,株式会社,長野県,佐久市,原５４７番地,,20,217,3850052,,,,,,,2021-10-07,1,,,,,ビーエルエムホールディングス,0
164,1100003006256,新規,0,2021-10-07,2021-10-07,合同会社ａｂｉｌｉｔｙ,,合同会社,長野県,茅野市,湖東８６７４番地１,,20,214,3910211,,,,,,,2021-10-07,1,,,,,アビリティ,0
165,1100005012772,新規,0,2021-10-07,2021-10-07,一般社団法人信州アナスタシアバスケットボールクラブ,,その他の設立登記法人,長野県,長野市,大字石渡１２０番地１４,,20,201,3810015,,,,,,,2021-10-07,1,,,,,シンシュウアナスタシアバスケットボールクラブ,0
183,1120001240813,新規,0,2021-10-07,2021-10-07,株式会社大阪甘泉堂,,株式会社,大阪府,大阪市西成区,花園南１丁目４番２２号,,27,122,5570015,,,,,,,2021-10-07,1,,,,,オオサカカンセンドウ,0
184,1120001240862,新規,0,2021-10-07,2021-10-07,株式会社ＧＲＩＴ,,株式会社,大阪府,大阪市東住吉区,矢田４丁目１２番９号,,27,121,5460023,,,,,,,2021-10-07,1,,,,,グリット,0
185,1120001240920,新規,0,2021-10-07,2021-10-07,株式会社Ｌ．Ｌ．Ｄ,,株式会社,大阪府,大阪市都島区,高倉町３丁目１番８号,,27,102,5340011,,,,,,,2021-10-07,1,,,,,エルエルディー,0
186,1120001240929,新規,0,2021-10-07,2021-10-07,マスターズライフ株式会社,,株式会社,大阪府,大阪市中央区,伏見町４丁目２番１４号,,27,128,5410044,,,,,,,2021-10-07,1,,,,,マスターズライフ,0
187,1120001240937,新規,0,2021-10-07,2021-10-07,Ｌｉｎａ株式会社,,株式会社,大阪府,大阪市西成区,萩之茶屋１丁目１４番１２号,,27,122,5570004,,,,,,,2021-10-07,1,,,,,リナ,0
188,1120001240945,新規,0,2021-10-07,2021-10-07,株式会社Ｇ＆Ｇ,,株式会社,大阪府,大阪市東住吉区,桑津１丁目２６番１６号,,27,121,5460041,,,,,,,2021-10-07,1,,,,,ジーアンドジー,0
189,1120001240961,新規,0,2021-10-07,2021-10-07,キーワークス株式会社,,株式会社,大阪府,大阪市北区,梅田１丁目１１番４号大阪駅前第４ビル９階９２３,,27,127,5300001,,,,,,,2021-10-07,1,,,,,キーワークス,0
190,1120003020346,新規,0,2021-10-07,2021-10-07,Ａｄｖａｎｃｅｄ　Ｉｎｉｔｉａｔｉｖｅｓ合同会社,,合同会社,大阪府,守口市,橋波東之町３丁目２番１２号京阪西三荘スクエアＷｅｓｔ１階,,27,209,5700031,,,,,,,2021-10-07,1,,,,,アドバンスドイニシアティブス,0
193,1120005022539,新規,0,2021-10-07,2021-10-07,一般社団法人関西・健康経営推進協議会,,その他の設立登記法人,大阪府,大阪市北区,曾根崎２丁目１６－１９メッセージ梅田ビルＯＮｔｈｅＵＭＥＤＡ内,,27,127,5300057,,,,,,,2021-10-07,1,,,,,カンサイケンコウケイエイスイシンキョウギカイ,0
196,1120101064419,新規,0,2021-10-07,2021-10-07,株式会社インテリアキタツジ,,株式会社,大阪府,富田林市,宮甲田町１２番４１号,,27,214,5840037,,,,,,,2021-10-07,1,,,,,インテリアキタツジ,0
197,1120101064443,新規,0,2021-10-07,2021-10-07,株式会社バッテリー,,株式会社,大阪府,堺市西区,浜寺船尾町西３丁９１－１－２０５,,27,144,5928342,,,,,,,2021-10-07,1,,,,,バッテリー,0
201,1120103004380,新規,0,2021-10-07,2021-10-07,合同会社ブルーイノベーション,,合同会社,大阪府,河内長野市,大矢船中町２８番３号,,27,216,5860075,,,,,,,2021-10-07,1,,,,,ブルーイノベーション,0
204,1120901044999,新規,0,2021-10-07,2021-10-07,ＡＮＡＯＲＩ　ＨＯＬＤＩＮＧＳ株式会社,,株式会社,大阪府,茨木市,畑田町６番２０号,,27,211,5670028,,,,,,,2021-10-07,1,,,,,アナオリホールディングス,0
205,1120901045007,新規,0,2021-10-07,2021-10-07,株式会社ＳＵＮＲＩＳＥ,,株式会社,大阪府,豊中市,小曽根５丁目５番９の１号,,27,203,5610813,,,,,,,2021-10-07,1,,,,,サンライズ,0
206,1120903003862,新規,0,2021-10-07,2021-10-07,合同会社Ｔｅｘｔｕｒｅ　Ｖｏｉｃｅ,,合同会社,大阪府,豊中市,庄内幸町３丁目１０番２６の１号,,27,203,5610833,,,,,,,2021-10-07,1,,,,,テクスチャボイス,0
208,1122001035227,新規,0,2021-10-07,2021-10-07,株式会社Ｋ＆Ｍ,,株式会社,大阪府,八尾市,久宝寺３丁目５番３号,,27,212,5810072,,,,,,,2021-10-07,1,,,,,ケーアンドエム,0
212,1130001070235,新規,0,2021-10-07,2021-10-07,マスダ不動産株式会社,,株式会社,京都府,京丹後市,峰山町荒山１３２６番地,,26,212,6270004,,,,,,,2021-10-07,1,,,,,マスダフドウサン,0
213,1130001070268,新規,0,2021-10-07,2021-10-07,株式会社芳眞,,株式会社,京都府,京都市伏見区,石田桜木１１番地の１,,26,109,6011435,,,,,,,2021-10-07,1,,,,,ホウマ,0
214,1130001070276,新規,0,2021-10-07,2021-10-07,株式会社ＲＡＹＨＯＭＥ,,株式会社,京都府,京都市南区,吉祥院菅原町３９番地１,,26,107,6018336,,,,,,,2021-10-07,1,,,,,レイホーム,0
217,1130005016283,新規,0,2021-10-07,2021-10-07,医療法人心葉会,,その他の設立登記法人,京都府,木津川市,木津駅前１丁目２３番地フロント木津２Ｆ,,26,214,6190214,,,,,,,2021-10-07,1,,,,,ココロバカイ,0
221,1140001123272,新規,0,2021-10-07,2021-10-07,株式会社ＳＯ建技功,,株式会社,兵庫県,尼崎市,田能４丁目１４番２３号,,28,202,6610951,,,,,,,2021-10-07,1,,,,,ソウケンギコウ,0
222,1140001123297,新規,0,2021-10-07,2021-10-07,株式会社Ｌｕｌｌ,,株式会社,兵庫県,姫路市,南駅前町８７番地リンクスビル２階,,28,201,6700962,,,,,,,2021-10-07,1,,,,,ラル,0
223,1140001123306,新規,0,2021-10-07,2021-10-07,株式会社ＨＯＮＥＹ,,株式会社,兵庫県,姫路市,忍町５７番地,,28,201,6700917,,,,,,,2021-10-07,1,,,,,ハニー,0
224,1150003002507,新規,0,2021-10-07,2021-10-07,合同会社テンタイムズ,,合同会社,奈良県,奈良市,西大寺栄町３番３２号６０１,,29,201,6310822,,,,,,,2021-10-07,1,,,,,テンタイムズ,0
225,1160001023669,新規,0,2021-10-07,2021-10-07,株式会社リトルスプーン,,株式会社,滋賀県,甲賀市,甲賀町小佐治１７０４番地,,25,209,5203402,,,,,,,2021-10-07,1,,,,,リトルスプーン,0
226,1160001023702,新規,0,2021-10-07,2021-10-07,株式会社良工業,,株式会社,滋賀県,大津市,石山寺３丁目５番１号ファインビュー石山２Ａ,,25,201,5200861,,,,,,,2021-10-07,1,,,,,リョウコウギョウ,0
229,1160005010993,新規,0,2021-10-07,2021-10-07,土地家屋調査士法人プラスエム,,その他の設立登記法人,滋賀県,米原市,顔戸２００２番地８,,25,214,5210072,,,,,,,2021-10-07,1,,,,,プラスエム,0
243,1180001148068,新規,0,2021-10-07,2021-10-07,株式会社Ｎ．Ｏ．Ｄ．Ａ．,,株式会社,愛知県,名古屋市中区,大須１丁目２４番４５号藤和シティホームズ大須９０３号,,23,106,4600011,,,,,,,2021-10-07,1,,,,,ノダ,0
244,1180001148092,新規,0,2021-10-07,2021-10-07,株式会社小川自動車整備工場,,株式会社,愛知県,名古屋市西区,砂原町３９０番地,,23,104,4520811,,,,,,,2021-10-07,1,,,,,オガワジドウシャセイビコウジョウ,0
245,1180001148126,新規,0,2021-10-07,2021-10-07,三原技建株式会社,,株式会社,愛知県,東海市,荒尾町御幣土８１番地,,23,222,4760003,,,,,,,2021-10-07,1,,,,,ミハラギケン,0
246,1180001148191,新規,0,2021-10-07,2021-10-07,株式会社スリーカラーズ,,株式会社,愛知県,大府市,中央町５丁目４５番地,,23,223,4740025,,,,,,,2021-10-07,1,,,,,スリーカラーズ,0
247,1180001148200,新規,0,2021-10-07,2021-10-07,株式会社ドクターヤン,,株式会社,愛知県,あま市,西今宿平割三２９番地１,,23,237,4901104,,,,,,,2021-10-07,1,,,,,ドクターヤン,0
248,1180001148225,新規,0,2021-10-07,2021-10-07,株式会社ＩＳＡ,,株式会社,愛知県,名古屋市西区,菊井１丁目１６番８号,,23,104,4510044,,,,,,,2021-10-07,1,,,,,アイエスエー,0
255,1190001028756,新規,0,2021-10-07,2021-10-07,株式会社ＮＡ,,株式会社,三重県,志摩市,阿児町鵜方１０４７番地１０２,,24,215,5170501,,,,,,,2021-10-07,1,,,,,エヌエー,0
261,1210001018639,新規,0,2021-10-07,2021-10-07,株式会社吉岡ロゴテック,,株式会社,福井県,福井市,花堂南２丁目１３番１６号,,18,201,9188015,,,,,,,2021-10-07,1,,,,,ヨシオカロゴテック,0
265,1220001024470,新規,0,2021-10-07,2021-10-07,エンツォショップ株式会社,,株式会社,石川県,加賀市,作見町ヨ１７番地１,,17,206,9220423,,,,,,,2021-10-07,1,,,,,エンツォショップ,0
267,1220003003126,新規,0,2021-10-07,2021-10-07,合同会社泰成,,合同会社,石川県,白山市,山島台６丁目７７番地,,17,210,9240836,,,,,,,2021-10-07,1,,,,,タイセイ,0
270,1230001019024,新規,0,2021-10-07,2021-10-07,株式会社コネクトエンジ,,株式会社,富山県,富山市,石金３丁目１番２０－４０５号,,16,201,9300966,,,,,,,2021-10-07,1,,,,,コネクトエンジ,0
278,1260001036058,新規,0,2021-10-07,2021-10-07,株式会社オートサービス,,株式会社,岡山県,勝田郡奈義町,上町川１９４番地６,,33,623,7081326,,,,,,,2021-10-07,1,,,,,オートサービス,0
291,1290801027897,新規,0,2021-10-07,2021-10-07,株式会社ロケーションスタイル,,株式会社,福岡県,北九州市小倉北区,若富士町２番１号朝日興産ビル２Ｆ,,40,106,8020063,,,,,,,2021-10-07,1,,,,,ロケーションスタイル,0
292,1300001012640,新規,0,2021-10-07,2021-10-07,株式会社ｋｏｔｏｂｕｋｉ,,株式会社,佐賀県,武雄市,東川登町大字袴野１０１３３番地１,,41,206,8430234,,,,,,,2021-10-07,1,,,,,コトブキ,0
297,1310003004180,新規,0,2021-10-07,2021-10-07,合同会社アトリエｋｅｉ,,合同会社,長崎県,諫早市,日の出町４番４４号,,42,204,8540002,,,,,,,2021-10-07,1,,,,,アトリエケイ,0
303,1330003009070,新規,0,2021-10-07,2021-10-07,合同会社アキュモク,,合同会社,熊本県,熊本市中央区,本荘４丁目１０番２０号,,43,101,8600811,,,,,,,2021-10-07,1,,,,,アキュモク,0
304,1330003009079,新規,0,2021-10-07,2021-10-07,合同会社熊本ワークス,,合同会社,熊本県,熊本市南区,日吉２丁目１２番７０号荒牧ビル２Ｆ,,43,104,8614109,,,,,,,2021-10-07,1,,,,,クマモトワークス,0
305,1330005010407,新規,0,2021-10-07,2021-10-07,一般社団法人高ＳＰＯ,,その他の設立登記法人,熊本県,阿蘇郡高森町,大字上色見２８１３番地,,43,428,8691601,,,,,,,2021-10-07,1,,,,,タカスポ,0
307,1350001017354,新規,0,2021-10-07,2021-10-07,株式会社スリール,,株式会社,宮崎県,宮崎市,丸山１丁目１６２番地１,,45,201,8800052,,,,,,,2021-10-07,1,,,,,スリール,0
312,1360001029464,新規,0,2021-10-07,2021-10-07,株式会社琉健企画,,株式会社,沖縄県,中頭郡嘉手納町,字水釜５０４番地（７４０２）,,47,325,9040204,,,,,,,2021-10-07,1,,,,,リュウケンキカク,0
313,1360001029472,新規,0,2021-10-07,2021-10-07,株式会社浜川モータース,,株式会社,沖縄県,島尻郡与那原町,字上与那原３５８番地１,,47,348,9011302,,,,,,,2021-10-07,1,,,,,ハマカワモータース,0
316,1360003011494,新規,0,2021-10-07,2021-10-07,合同会社ｃｏｃｏ,,合同会社,沖縄県,宮古島市,平良字西里７０９番地３、２Ｆ,,47,214,9060012,,,,,,,2021-10-07,1,,,,,ココ,0
317,1370001047647,新規,0,2021-10-07,2021-10-07,ＫＣＣ株式会社,,株式会社,宮城県,栗原市,金成片馬合佐野原８４番地１,,04,213,9894805,,,,,,,2021-10-07,1,,,,,ケーシーシー,0
318,1370001047655,新規,0,2021-10-07,2021-10-07,株式会社藤沢オートサービス,,株式会社,宮城県,栗原市,瀬峰荒神堂６３番地８,,04,213,9894518,,,,,,,2021-10-07,1,,,,,フジサワオートサービス,0
319,1370001047688,新規,0,2021-10-07,2021-10-07,株式会社ＡＫＲ,,株式会社,宮城県,名取市,美田園６丁目３番地の３,,04,207,9811217,,,,,,,2021-10-07,1,,,,,エーケーアール,0
322,1380001032251,新規,0,2021-10-07,2021-10-07,株式会社さちうえる,,株式会社,福島県,いわき市,郷ケ丘３丁目２８番地の８,,07,204,9708045,,,,,,,2021-10-07,1,,,,,サチウエル,0
337,1430001055214,新規,0,2021-10-07,2021-10-07,株式会社梅木産業,,株式会社,北海道,日高郡新ひだか町,東静内９番地,,01,610,0592561,,,,,,,2021-10-07,1,,,,,ウメキサンギョウ,0
338,1430003013228,新規,0,2021-10-07,2021-10-07,合同会社コアラパートナーズ,,合同会社,北海道,札幌市中央区,南二条東１丁目１－１１第３泊ビル２Ｆ,,01,101,0600052,,,,,,,2021-10-07,1,,,,,コアラパートナーズ,0
340,1430005014307,新規,0,2021-10-07,2021-10-07,アウローラ税理士法人,,その他の設立登記法人,北海道,札幌市北区,五十条東七丁目７番８号第二北舗ビル３階,,01,102,0010000,,,,,,,2021-10-07,1,,,,,アウローラ,0
355,2010001221550,新規,0,2021-10-07,2021-10-07,株式会社サファイアハウス,,株式会社,東京都,中央区,銀座３丁目５番８号,,13,102,1040061,,,,,,,2021-10-07,1,,,,,サファイアハウス,0
356,2010001221575,新規,0,2021-10-07,2021-10-07,辻・本郷Ｍ＆Ａソリューション株式会社,00124494,株式会社,東京都,千代田区,丸の内１丁目７番１２号サピアタワー１８階,,13,101,1000005,,,,,,,2021-10-07,1,,,,,ツジホンゴウエムアンドエーソリューション,0
357,2010001221583,新規,0,2021-10-07,2021-10-07,株式会社ミルコト,,株式会社,東京都,千代田区,神田佐久間町３丁目３８番地第５東ビル５０１号室,,13,101,1010025,,,,,,,2021-10-07,1,,,,,ミルコト,0
358,2010001221609,新規,0,2021-10-07,2021-10-07,ＴＲＥホールディングス株式会社,,株式会社,東京都,千代田区,大手町１丁目７番２号東京サンケイビル１５階,,13,101,1000004,,,,,,,2021-10-07,1,,,,,ティーアールイーホールディングス,0
359,2010001221641,新規,0,2021-10-07,2021-10-07,株式会社エムティー,,株式会社,東京都,中央区,晴海２丁目３－３０,,13,102,1040053,,,,,,,2021-10-07,1,,,,,エムティー,0
360,2010001221658,新規,0,2021-10-07,2021-10-07,株式会社モノダス,,株式会社,東京都,千代田区,丸の内１丁目８番３号丸の内トラストタワー本館２０階,,13,101,1000005,,,,,,,2021-10-07,1,,,,,モノダス,0
363,2010101014895,新規,0,2021-10-07,2021-10-07,株式会社ビジュナリア,,株式会社,東京都,八王子市,子安町１丁目２２番１８号Ｍａｉｓｏｎ　ｃａｓｃａｄｅ　ｉｌｅ　２０１号,,13,201,1920904,,,,,,,2021-10-07,1,,,,,ビジュナリア,0
368,2010403026283,新規,0,2021-10-07,2021-10-07,新御堂筋マネジメント合同会社,,合同会社,東京都,港区,六本木１丁目６番１号泉ガーデンタワー,,13,103,1060032,,,,,,,2021-10-07,1,,,,,シンミドウスジマネジメント,0
371,2010501047925,新規,0,2021-10-07,2021-10-07,株式会社リードス,,株式会社,東京都,台東区,浅草橋２丁目８番１１号１Ｆ,,13,106,1110053,,,,,,,2021-10-07,1,,,,,リードス,0
372,2010601060027,新規,0,2021-10-07,2021-10-07,株式会社ｒｏｅ,,株式会社,東京都,墨田区,石原１丁目３２番７号,,13,107,1300011,,,,,,,2021-10-07,1,,,,,ロー,0
373,2010601060043,新規,0,2021-10-07,2021-10-07,坂匠株式会社,,株式会社,東京都,江東区,富岡２丁目１１－１８－４Ｆ,,13,108,1350047,,,,,,,2021-10-07,1,,,,,サカショウ,0
374,2010603009187,新規,0,2021-10-07,2021-10-07,合同会社フレーバーラボ,,合同会社,東京都,江東区,有明１丁目１番１７号,,13,108,1350063,,,,,,,2021-10-07,1,,,,,フレーバーラボ,0
378,2010801032379,新規,0,2021-10-07,2021-10-07,株式会社アリビオ,,株式会社,東京都,大田区,池上４丁目２８番１４号２Ｆ,,13,111,1460082,,,,,,,2021-10-07,1,,,,,アリビオ,0
380,2010901049579,新規,0,2021-10-07,2021-10-07,Ｒ２－ＣＯＮＮＥＣＴ株式会社,,株式会社,東京都,世田谷区,桜丘２丁目２７番１６号,,13,112,1560054,,,,,,,2021-10-07,1,,,,,アールツーコネクト,0
382,2010903006842,新規,0,2021-10-07,2021-10-07,合同会社ＡＲＴＩＶＡＴＩＯＮ,,合同会社,東京都,世田谷区,上北沢５丁目２８番２０号,,13,112,1560057,,,,,,,2021-10-07,1,,,,,アティヴェーション,0
383,2010903006859,新規,0,2021-10-07,2021-10-07,合同会社ジージービー,,合同会社,東京都,世田谷区,粕谷１丁目１６－１－５１４,,13,112,1570063,,,,,,,2021-10-07,1,,,,,ジージービー,0
387,2011001143090,新規,0,2021-10-07,2021-10-07,スマートメディア株式会社,,株式会社,東京都,渋谷区,恵比寿２丁目２８番７号,,13,113,1500013,,,,,,,2021-10-07,1,,,,,スマートメディア,0
388,2011001143165,新規,0,2021-10-07,2021-10-07,株式会社ｉｎｉａｓｕ,,株式会社,東京都,渋谷区,渋谷２丁目１９－１５宮益坂ビルディング６０９,,13,113,1500002,,,,,,,2021-10-07,1,,,,,イニアス,0
389,2011001143223,新規,0,2021-10-07,2021-10-07,株式会社ＹＵＫＡＳＵＫＥ　Ｄｅｓｉｇｎ,,株式会社,東京都,渋谷区,神宮前６丁目２９番４号原宿ｋｏｍｉｙａビル６階,,13,113,1500001,,,,,,,2021-10-07,1,,,,,ユカスケデザイン,0
390,2011001143256,新規,0,2021-10-07,2021-10-07,株式会社Ａｂｏｕｔ　Ｙｏｕ,,株式会社,東京都,渋谷区,神宮前２丁目２番３９－１３１４号,,13,113,1500001,,,,,,,2021-10-07,1,,,,,アバウトユー,0
391,2011001143297,新規,0,2021-10-07,2021-10-07,株式会社Ｏｌｏｇｙ,,株式会社,東京都,目黒区,上大崎二丁目１５番１９号ＭＧ目黒駅前,,13,110,1520000,,,,,,,2021-10-07,1,,,,,オロジー,0
393,2011101096503,新規,0,2021-10-07,2021-10-07,新宿よろず屋株式会社,,株式会社,東京都,新宿区,下落合１丁目１６番７号松田ビル１０３,,13,104,1610033,,,,,,,2021-10-07,1,,,,,シンジュクヨロズヤ,0
394,2011101096528,新規,0,2021-10-07,2021-10-07,株式会社ＩＫＧＭ,,株式会社,東京都,新宿区,歌舞伎町１丁目３番１５号,,13,104,1600021,,,,,,,2021-10-07,1,,,,,アイケージーエム,0
395,2011103011071,新規,0,2021-10-07,2021-10-07,合同会社ＭＯ,,合同会社,東京都,新宿区,新宿５丁目１０－６近代ＢＬＤ２２．４階Ｂ,,13,104,1600022,,,,,,,2021-10-07,1,,,,,エムオー,0
396,2011105009997,新規,0,2021-10-07,2021-10-07,ＮＰＯ法人数学カフェ,,その他の設立登記法人,東京都,新宿区,西新宿７丁目４番４号武蔵ビル５Ｆ（ＨＡＰＯＮＳｈｉｎｊｕｋｕ株式会社すうがくぶんか内）,,13,104,1600023,,,,,,,2021-10-07,1,,,,,スウガクカフェ,0
398,2011201023290,新規,0,2021-10-07,2021-10-07,ｍｉｎｅｒａｉ株式会社,,株式会社,東京都,中野区,弥生町４丁目２３番１２－３０１号,,13,114,1640013,,,,,,,2021-10-07,1,,,,,ミヌレ,0
399,2011201023299,新規,0,2021-10-07,2021-10-07,すまいえ株式会社,,株式会社,東京都,中野区,上高田３丁目３６番３号,,13,114,1640002,,,,,,,2021-10-07,1,,,,,スマイエ,0
403,2011401023710,新規,0,2021-10-07,2021-10-07,第一建工株式会社,,株式会社,東京都,板橋区,成増１丁目１４－９成増グリーンハイツ４０１,,13,119,1750094,,,,,,,2021-10-07,1,,,,,ダイイチケンコウ,0
404,2011401023727,新規,0,2021-10-07,2021-10-07,株式会社ＬＩＭ,,株式会社,東京都,板橋区,清水町７３番４－１３０２号,,13,119,1740053,,,,,,,2021-10-07,1,,,,,リム,0
407,2011601025449,新規,0,2021-10-07,2021-10-07,株式会社みなりっち,,株式会社,東京都,練馬区,豊玉南３丁目２０番８－６０４号,,13,120,1760014,,,,,,,2021-10-07,1,,,,,ミナリッチ,0
411,2011701024755,新規,0,2021-10-07,2021-10-07,株式会社Ｎｅｘｔａｄｉｉ,,株式会社,東京都,江戸川区,東葛西５丁目１２－１６カワマンビル,,13,123,1340084,,,,,,,2021-10-07,1,,,,,ネクスタディー,0
413,2011801039785,新規,0,2021-10-07,2021-10-07,稲葉管財株式会社,,株式会社,東京都,足立区,堀之内２丁目９番５号,,13,121,1230874,,,,,,,2021-10-07,1,,,,,イナバカンザイ,0
414,2011803004812,新規,0,2021-10-07,2021-10-07,合同会社ＴＡＷＡＴＡＲＩ　ＰＲＯＪＥＣＴ,,合同会社,東京都,足立区,梅田６丁目２８番１０号,,13,121,1230851,,,,,,,2021-10-07,1,,,,,タワタリプロジェクト,0
418,2012401038384,新規,0,2021-10-07,2021-10-07,株式会社フロネーシス,,株式会社,東京都,調布市,西つつじケ丘３丁目５－２－２０１,,13,208,1820006,,,,,,,2021-10-07,1,,,,,フロネーシス,0
419,2012403005060,新規,0,2021-10-07,2021-10-07,ＴＫデザインワークス合同会社,,合同会社,東京都,小金井市,本町４丁目１９番７号,,13,210,1840004,,,,,,,2021-10-07,1,,,,,ティーケーデザインワークス,0
426,2013301048093,新規,0,2021-10-07,2021-10-07,株式会社Ｓａｌｅｓ　Ｃｒｏｗｄ,,株式会社,東京都,豊島区,南池袋２丁目２５番５号,,13,116,1710022,,,,,,,2021-10-07,1,,,,,セールスクラウド,0
427,2013301048110,新規,0,2021-10-07,2021-10-07,株式会社ウォータープロモーション,,株式会社,東京都,豊島区,南大塚１丁目６０番２０号天翔大塚駅前ビル２階Ｓ２０３号室,,13,116,1700005,,,,,,,2021-10-07,1,,,,,ウォータープロモーション,0
433,2020001143273,新規,0,2021-10-07,2021-10-07,ｂｏｏｄ株式会社,,株式会社,神奈川県,横浜市港北区,新横浜２丁目１５番地９グリシーナオーブ４０７,,14,109,2220033,,,,,,,2021-10-07,1,,,,,ブード,0
434,2020001143323,新規,0,2021-10-07,2021-10-07,株式会社Ｇｒａｚｉｅ,,株式会社,神奈川県,横浜市保土ケ谷区,上菅田町９２８番地３３,,14,106,2400051,,,,,,,2021-10-07,1,,,,,グラッツィエ,0
435,2020001143348,新規,0,2021-10-07,2021-10-07,株式会社Ｎｏｅｌ,,株式会社,神奈川県,川崎市中原区,下新城３丁目１番３‐４０６号イニシア武蔵新城ハウス,,14,133,2110042,,,,,,,2021-10-07,1,,,,,ノエル,0
436,2020005015221,新規,0,2021-10-07,2021-10-07,一般社団法人ＪＩＥＣ,,その他の設立登記法人,神奈川県,横浜市青葉区,桜台１－９５,,14,117,2270061,,,,,,,2021-10-07,1,,,,,ジーク,0
440,2021001074104,新規,0,2021-10-07,2021-10-07,株式会社建物サービス,,株式会社,神奈川県,綾瀬市,上土棚南２丁目３番１５号,,14,218,2521114,,,,,,,2021-10-07,1,,,,,タテモノサービス,0
444,2021003010957,新規,0,2021-10-07,2021-10-07,合同会社アエラ空調,,合同会社,神奈川県,相模原市緑区,下九沢１６３１番地１ドリームガーデン２０６号,,14,151,2520134,,,,,,,2021-10-07,1,,,,,アエラクウチョウ,0
445,2021003010973,新規,0,2021-10-07,2021-10-07,Ｆｅｅｌｓ　ｇｏｏｄ合同会社,,合同会社,神奈川県,横須賀市,衣笠栄町１丁目５７番地,,14,201,2380031,,,,,,,2021-10-07,1,,,,,フィールズグッド,0
457,2030001144659,新規,0,2021-10-07,2021-10-07,株式会社ＳＯ企画,,株式会社,埼玉県,さいたま市大宮区,下町２丁目６６ブレスト大宮７０４号室,,11,103,3300844,,,,,,,2021-10-07,1,,,,,エスオーキカク,0
462,2030003018043,新規,0,2021-10-07,2021-10-07,合同会社フォース,,合同会社,埼玉県,さいたま市大宮区,大成町１丁目４７５,,11,103,3300852,,,,,,,2021-10-07,1,,,,,フォース,0
463,2030003018068,新規,0,2021-10-07,2021-10-07,チャーチルホームズ合同会社,,合同会社,埼玉県,川口市,並木１丁目１９番１４号,,11,203,3320034,,,,,,,2021-10-07,1,,,,,チャーチルホームズ,0
464,2030003018076,新規,0,2021-10-07,2021-10-07,合同会社佐藤,,合同会社,埼玉県,富士見市,羽沢３丁目５番２９号,,11,235,3540033,,,,,,,2021-10-07,1,,,,,サトウ,0
465,2030003018084,新規,0,2021-10-07,2021-10-07,合同会社ＳＡＫＵＲＡ,,合同会社,埼玉県,さいたま市大宮区,桜木町４丁目５０番地,,11,103,3300854,,,,,,,2021-10-07,1,,,,,サクラ,0
466,2030005020542,新規,0,2021-10-07,2021-10-07,一般社団法人Ｈａａｎｅｔ,,その他の設立登記法人,埼玉県,東松山市,六軒町１０番地１２,,11,212,3550024,,,,,,,2021-10-07,1,,,,,ハーネット,0
470,2040001120452,新規,0,2021-10-07,2021-10-07,株式会社ベストクリエイト,,株式会社,千葉県,市川市,富浜２丁目１７番５－２０２号,,12,203,2720115,,,,,,,2021-10-07,1,,,,,ベストクリエイト,0
472,2040003018678,新規,0,2021-10-07,2021-10-07,ユニコム合同会社,,合同会社,千葉県,船橋市,夏見１丁目８番４号,,12,204,2730865,,,,,,,2021-10-07,1,,,,,ユニコム,0
476,2050001049955,新規,0,2021-10-07,2021-10-07,株式会社ミヤシン,,株式会社,茨城県,神栖市,波崎７７２１番地２０,,08,232,3140408,,,,,,,2021-10-07,1,,,,,ミヤシン,0
479,2050003006120,新規,0,2021-10-07,2021-10-07,合同会社サトウ企画,,合同会社,茨城県,鹿嶋市,大字鉢形１５２６番地１７,,08,222,3140034,,,,,,,2021-10-07,1,,,,,サトウキカク,0
480,2060003003827,新規,0,2021-10-07,2021-10-07,合同会社ＲＥＰＯＲＴ,,合同会社,栃木県,宇都宮市,宝木町１丁目２５７７番地６４,,09,201,3200061,,,,,,,2021-10-07,1,,,,,リポート,0
486,2080403004381,新規,0,2021-10-07,2021-10-07,ＬＥ　ＣＩＥＬ　ＢＬＥＵ合同会社,,合同会社,静岡県,浜松市中区,上島６丁目１番４１号,,22,131,4338122,,,,,,,2021-10-07,1,,,,,ルシェルブルー,0
487,2080405007390,新規,0,2021-10-07,2021-10-07,医療法人社団Ｍｉｙａ,,その他の設立登記法人,静岡県,浜松市中区,葵西４丁目２番２４号,,22,131,4338111,,,,,,,2021-10-07,1,,,,,ミヤ,0
488,2090001017223,新規,0,2021-10-07,2021-10-07,大新グループホールディングス株式会社,,株式会社,山梨県,甲府市,太田町７番１号,,19,201,4000865,,,,,,,2021-10-07,1,,,,,ダイシングループホールディングス,0
506,2120001041211,新規,0,2021-10-07,2021-10-07,エクストレーディング株式会社,,株式会社,大阪府,大阪市北区,堂島１丁目１番５号梅田新道ビルディング８階,,27,127,5300003,,,,,,,2021-10-07,1,,,,,,0
512,2120001240829,新規,0,2021-10-07,2021-10-07,ＫＯＹＯテクノリサーチ株式会社,,株式会社,大阪府,大阪市城東区,森之宮２丁目３番５号,,27,118,5360025,,,,,,,2021-10-07,1,,,,,コーヨーテクノリサーチ,0
513,2120001240911,新規,0,2021-10-07,2021-10-07,Ｓｐｏｒｔｓ　Ｓｔａｇｅ株式会社,,株式会社,大阪府,大阪市北区,曾根崎２丁目８－５お初天神ＥＡＳＴＢＬＤＧ・Ｃ－２７,,27,127,5300057,,,,,,,2021-10-07,1,,,,,スポーツステージ,0
514,2120001240936,新規,0,2021-10-07,2021-10-07,株式会社バックス,,株式会社,大阪府,大阪市中央区,船場中央３丁目３番９－２１４号,,27,128,5410055,,,,,,,2021-10-07,1,,,,,バックス,0
515,2120001240969,新規,0,2021-10-07,2021-10-07,株式会社ｉｎｇ,,株式会社,大阪府,大阪市西成区,梅南１丁目３番２６号,,27,122,5570033,,,,,,,2021-10-07,1,,,,,アイエヌジー,0
516,2120001240977,新規,0,2021-10-07,2021-10-07,株式会社Ｐｌｅｎｕｓ　Ｉｎｎｏｖａｔｉｏｎ,,株式会社,大阪府,大阪市中央区,内平野町３丁目２番１５－１００３号,,27,128,5400037,,,,,,,2021-10-07,1,,,,,プレナスイノベーション,0
517,2120001240993,新規,0,2021-10-07,2021-10-07,株式会社キャリアデベロップメント,,株式会社,大阪府,大阪市中央区,内本町１丁目２番２号有恒ビル１０２号室,,27,128,5400026,,,,,,,2021-10-07,1,,,,,キャリアデベロップメント,0
518,2120003020345,新規,0,2021-10-07,2021-10-07,くけい合同会社,,合同会社,大阪府,大阪市東住吉区,今林２丁目１２番１８号,,27,121,5460001,,,,,,,2021-10-07,1,,,,,クケイ,0
519,2120003020361,新規,0,2021-10-07,2021-10-07,ＨＤ合同会社,,合同会社,大阪府,大阪市浪速区,難波中２丁目８番７２号浪速ビル１Ｂ,,27,111,5560011,,,,,,,2021-10-07,1,,,,,エイチディー,0
521,2120101064418,新規,0,2021-10-07,2021-10-07,シンガキクレーン株式会社,,株式会社,大阪府,松原市,岡６丁目２番８－１０１号,,27,217,5800014,,,,,,,2021-10-07,1,,,,,シンガキクレーン,0
522,2120101064434,新規,0,2021-10-07,2021-10-07,株式会社ナンエイテクノ,,株式会社,大阪府,岸和田市,南町３８番２５号,,27,202,5960067,,,,,,,2021-10-07,1,,,,,ナンエイテクノ,0
526,2120901044981,新規,0,2021-10-07,2021-10-07,株式会社丸和,,株式会社,大阪府,摂津市,鳥飼本町１丁目７番２１号,,27,224,5660052,,,,,,,2021-10-07,1,,,,,マルワ,0
527,2120901044998,新規,0,2021-10-07,2021-10-07,株式会社Ｖｏｌｔ’ｓ,,株式会社,大阪府,吹田市,吹東町２１番７号渕本マンション１階,,27,205,5640014,,,,,,,2021-10-07,1,,,,,ボルツ,0
528,2120901045006,新規,0,2021-10-07,2021-10-07,株式会社通販システム,,株式会社,大阪府,茨木市,島３丁目９番１７号,,27,211,5670854,,,,,,,2021-10-07,1,,,,,ツウハンシステム,0
533,2120903003853,新規,0,2021-10-07,2021-10-07,岩本機械工業合同会社,,合同会社,大阪府,豊中市,豊南町西４丁目１６番５号,,27,203,5610816,,,,,,,2021-10-07,1,,,,,イワモトキカイコウギョウ,0
542,2130001070234,新規,0,2021-10-07,2021-10-07,株式会社大和ルーフ,,株式会社,京都府,舞鶴市,福来問屋町１７番地５６,,26,202,6240907,,,,,,,2021-10-07,1,,,,,ヤマトルーフ,0
543,2130001070259,新規,0,2021-10-07,2021-10-07,株式会社つちとき技術総合研究所,,株式会社,京都府,京都市下京区,新町通松原下る富永町１０７番地１ＧＲＯＶＩＮＧＢＡＳＥ３１号,,26,106,6008449,,,,,,,2021-10-07,1,,,,,ツチトキギジュツソウゴウケンキュウショ,0
544,2130001070267,新規,0,2021-10-07,2021-10-07,株式会社Ｇｌｏｂａｌ　Ｃｉｔｉｚｅｎ,,株式会社,京都府,八幡市,美濃山宮道７１－１,,26,210,6148276,,,,,,,2021-10-07,1,,,,,グローバルシチズン,0
545,2130001070283,新規,0,2021-10-07,2021-10-07,株式会社たち工務店,,株式会社,京都府,京都市南区,吉祥院石原町４番地,,26,107,6018367,,,,,,,2021-10-07,1,,,,,タチコウムテン,0
546,2130001070300,新規,0,2021-10-07,2021-10-07,株式会社井上工業,,株式会社,京都府,福知山市,駒場新町３丁目５９番地,,26,201,6200841,,,,,,,2021-10-07,1,,,,,イノウエコウギョウ,0
550,2130003007515,新規,0,2021-10-07,2021-10-07,ＫａｎｄＫ合同会社,,合同会社,京都府,宇治市,六地蔵徳永２９－４朝日プラザ桃山東２１３,,26,204,6110001,,,,,,,2021-10-07,1,,,,,ケーアンドケー,0
551,2130005016282,新規,0,2021-10-07,2021-10-07,一般社団法人雅,,その他の設立登記法人,京都府,京都市伏見区,桃山町大島２１２番地,,26,109,6128006,,,,,,,2021-10-07,1,,,,,ミヤビ,0
552,2130005016290,新規,0,2021-10-07,2021-10-07,医療法人久英会,,その他の設立登記法人,京都府,舞鶴市,字倉谷４００番地１,,26,202,6240906,,,,,,,2021-10-07,1,,,,,キュウエイカイ,0
557,2140001123255,新規,0,2021-10-07,2021-10-07,株式会社Ｃｈｅｒｒｙ＆Ｇｏ,,株式会社,兵庫県,神戸市中央区,江戸町１０４江戸町１０４ビル５Ｆ５０２号,,28,110,6500033,,,,,,,2021-10-07,1,,,,,チェリーアンドゴー,0
558,2140001123263,新規,0,2021-10-07,2021-10-07,株式会社茶番,,株式会社,兵庫県,神戸市中央区,花隈町１０－９新大永ビル１階,,28,110,6500013,,,,,,,2021-10-07,1,,,,,チャバン,0
559,2140001123271,新規,0,2021-10-07,2021-10-07,Ｓｉｍａｃ株式会社,,株式会社,兵庫県,加古郡稲美町,国岡５丁目４０番地の２,,28,381,6751115,,,,,,,2021-10-07,1,,,,,シマック,0
560,2140001123338,新規,0,2021-10-07,2021-10-07,株式会社ＢＬＡ－ＦＲＥＹ,,株式会社,兵庫県,神戸市中央区,旗塚通３丁目３番２３号,,28,110,6510068,,,,,,,2021-10-07,1,,,,,ブラフレイ,0
561,2140001123379,新規,0,2021-10-07,2021-10-07,株式会社ゼノエイト,,株式会社,兵庫県,豊岡市,戸牧３４４－７,,28,209,6680065,,,,,,,2021-10-07,1,,,,,ゼノエイト,0
570,2170001016811,新規,0,2021-10-07,2021-10-07,株式会社ＯＷＣ,,株式会社,和歌山県,和歌山市,善明寺６４２番地３鳴滝団地１０棟２０３号,,30,201,6408471,,,,,,,2021-10-07,1,,,,,オーダブルシー,0
579,2180001148059,新規,0,2021-10-07,2021-10-07,株式会社語り,,株式会社,愛知県,名古屋市守山区,深沢１丁目３０３番地,,23,113,4630811,,,,,,,2021-10-07,1,,,,,カタリ,0
580,2180001148075,新規,0,2021-10-07,2021-10-07,ＴＯＷＡＲＤＳ－ＦＵＴＵＲＥ株式会社,,株式会社,愛知県,海部郡蟹江町,泉１丁目４７番地,,23,425,4970047,,,,,,,2021-10-07,1,,,,,トゥワーズーフューチャー,0
581,2180001148083,新規,0,2021-10-07,2021-10-07,ＪＭ－ＴＥＣ株式会社,,株式会社,愛知県,小牧市,高根１丁目７３番地,,23,219,4850803,,,,,,,2021-10-07,1,,,,,ジェイエムテック,0
582,2180001148141,新規,0,2021-10-07,2021-10-07,株式会社ソライズ経営,,株式会社,愛知県,名古屋市千種区,春岡２丁目７番２６号,,23,101,4640848,,,,,,,2021-10-07,1,,,,,ソライズケイエイ,0
583,2180001148166,新規,0,2021-10-07,2021-10-07,株式会社オーティー,,株式会社,愛知県,名古屋市西区,大野木３丁目７３番地の１,,23,104,4520803,,,,,,,2021-10-07,1,,,,,オーティー,0
584,2180001148190,新規,0,2021-10-07,2021-10-07,株式会社マサイン,,株式会社,愛知県,あま市,七宝町伊福弐之割６３番地,,23,237,4970005,,,,,,,2021-10-07,1,,,,,マサイン,0
588,2180003023037,新規,0,2021-10-07,2021-10-07,合同会社ＴＯＮＥＪＵＮＫＹ,,合同会社,愛知県,名古屋市熱田区,旗屋町５１５番地,,23,109,4560026,,,,,,,2021-10-07,1,,,,,トーンジャンキー,0
592,2180301035485,新規,0,2021-10-07,2021-10-07,株式会社アマノ,,株式会社,愛知県,西尾市,伊藤町伊藤東二３２番地２,,23,213,4450806,,,,,,,2021-10-07,1,,,,,アマノ,0
597,2180303005123,新規,0,2021-10-07,2021-10-07,オオカワＺＡＩＳ合同会社,,合同会社,愛知県,豊橋市,神野新田町字ヨノ割５２－１,,23,201,4418077,,,,,,,2021-10-07,1,,,,,オオカワザイズ,0
600,2190001028755,新規,0,2021-10-07,2021-10-07,杉浦設備サービス株式会社,,株式会社,三重県,志摩市,阿児町鵜方１４９６番地６,,24,215,5170501,,,,,,,2021-10-07,1,,,,,スギウラセツビサービス,0
603,2200001039271,新規,0,2021-10-07,2021-10-07,Ｋ．ＷＯＲＫＳ株式会社,,株式会社,岐阜県,可児市,土田１０７８番地３,,21,214,5090206,,,,,,,2021-10-07,1,,,,,ケイワークス,0
623,2250001019186,新規,0,2021-10-07,2021-10-07,株式会社楼,,株式会社,山口県,宇部市,北条２丁目７番３８号,,35,202,7550802,,,,,,,2021-10-07,1,,,,,ヤグラ,0
630,2260001036040,新規,0,2021-10-07,2021-10-07,株式会社マルカ重機興業,,株式会社,岡山県,津山市,新野東１７０番地,,33,203,7081205,,,,,,,2021-10-07,1,,,,,マルカジュウキコウギョウ,0
643,2290801027855,新規,0,2021-10-07,2021-10-07,ＳＦＤ株式会社,,株式会社,福岡県,北九州市八幡西区,吉祥寺町７－６メゾン吉祥寺１０１,,40,109,8071114,,,,,,,2021-10-07,1,,,,,エスエフデイ,0
644,2290801027863,新規,0,2021-10-07,2021-10-07,株式会社ジェイプラントテクノ,,株式会社,福岡県,北九州市八幡西区,東折尾町１１番１１号,,40,109,8070835,,,,,,,2021-10-07,1,,,,,ジェイプラントテクノ,0
645,2300001012648,新規,0,2021-10-07,2021-10-07,アラカン株式会社,,株式会社,佐賀県,唐津市,石志２９７５番地２０,,41,202,8470832,,,,,,,2021-10-07,1,,,,,アラカン,0
646,2300001012656,新規,0,2021-10-07,2021-10-07,株式会社吉輝,,株式会社,佐賀県,佐賀市,東与賀町大字下古賀８４５番地,,41,201,8402221,,,,,,,2021-10-07,1,,,,,ヨシキ,0
651,2320003003627,新規,0,2021-10-07,2021-10-07,西日本スポーツライン合同会社,,合同会社,大分県,大分市,高尾台１丁目１６番１１号,,44,201,8700873,,,,,,,2021-10-07,1,,,,,ニシニホンスポーツライン,0
654,2330001029053,新規,0,2021-10-07,2021-10-07,株式会社風月,,株式会社,熊本県,球磨郡錦町,大字西３５４２－４５,,43,501,8680303,,,,,,,2021-10-07,1,,,,,フウゲツ,0
655,2330005010406,新規,0,2021-10-07,2021-10-07,一般社団法人南阿蘇村農業みらい公社,,その他の設立登記法人,熊本県,阿蘇郡南阿蘇村,大字両併９９５番地,,43,433,8691501,,,,,,,2021-10-07,1,,,,,ミナミアソムラノウギョウミライコウシャ,0
658,2340003003591,新規,0,2021-10-07,2021-10-07,本御蔵コンサルティング合同会社,,合同会社,鹿児島県,指宿市,十二町４３２０,,46,210,8910403,,,,,,,2021-10-07,1,,,,,モトミクラコンサルティング,0
660,2360003011493,新規,0,2021-10-07,2021-10-07,絆合同会社,,合同会社,沖縄県,うるま市,石川東山１丁目１２番地４,,47,213,9041102,,,,,,,2021-10-07,1,,,,,キズナ,0
662,2370001047679,新規,0,2021-10-07,2021-10-07,ＡＩＲ株式会社,,株式会社,宮城県,遠田郡美里町,駅東３丁目１番地６,,04,505,9870038,,,,,,,2021-10-07,1,,,,,エーアイアール,0
667,2380001032250,新規,0,2021-10-07,2021-10-07,会津市場精算株式会社,,株式会社,福島県,会津若松市,一箕町大字鶴賀字船ケ森東４７０番地,,07,202,9650006,,,,,,,2021-10-07,1,,,,,アイヅシジョウセイサン,0
674,2430001085086,新規,0,2021-10-07,2021-10-07,アンビシャスグループ北海道株式会社,,株式会社,北海道,札幌市豊平区,美園三条６丁目３番１０号,,01,105,0620003,,,,,,,2021-10-07,1,,,,,アンビシャスグループホッカイドウ,0
675,2430001085111,新規,0,2021-10-07,2021-10-07,株式会社ＷｅＣｏｎｎｅｃｔ,,株式会社,北海道,札幌市中央区,南六条西２丁目５番２４号,,01,101,0640806,,,,,,,2021-10-07,1,,,,,ウィーコネクト,0
676,2430001085136,新規,0,2021-10-07,2021-10-07,株式会社矢嶋観光グループ,,株式会社,北海道,札幌市中央区,南四条東５丁目１－３４スカイガーデン札幌南２０５,,01,101,0600054,,,,,,,2021-10-07,1,,,,,ヤジマカンコウグループ,0
678,2430003013227,新規,0,2021-10-07,2021-10-07,合同会社ＡＹＮＵ　ＢＡＳＥ,,合同会社,北海道,札幌市中央区,南二条東１丁目１番地８,,01,101,0600052,,,,,,,2021-10-07,1,,,,,アイヌベース,0
695,2700150105138,新規,0,2021-10-07,2021-10-07,運輸関係法人企業年金基金,,その他,東京都,港区,芝公園２丁目４番１号,,13,103,1050011,,,,,,,2021-10-07,1,,,,,ウンユカンケイホウジンキギヨウネンキンキキン,0
696,2700150105146,新規,0,2021-10-07,2021-10-07,Ｓａｚｅｒａｃ（Ｓｉｎｇａｐｏｒｅ）Ｐｔｅ．Ｌｔｄ．,,外国会社等,東京都,中野区,中野４丁目１－１中野サンプラザ９階,,13,114,1640001,シンガポール共和国ラッフルズ・キー１６、ホンリョン・ビルディング１０－００号室,,,,,,2021-10-07,1,,,,,サゼラツクシンガポールピーテイーイーエルテイーデイー,0
704,3010001221541,新規,0,2021-10-07,2021-10-07,インフロニア・ホールディングス株式会社,,株式会社,東京都,千代田区,富士見２丁目１０番２号,,13,101,1020071,,,,,,,2021-10-07,1,,,,,インフロニアホールディングス,0
705,3010001221574,新規,0,2021-10-07,2021-10-07,エフバイタル株式会社,,株式会社,東京都,中央区,日本橋兜町６番５号,,13,102,1030026,,,,,,,2021-10-07,1,,,,,エフバイタル,0
706,3010001221582,新規,0,2021-10-07,2021-10-07,株式会社モニクル,,株式会社,東京都,千代田区,永田町２丁目１４番３号,,13,101,1000014,,,,,,,2021-10-07,1,,,,,モニクル,0
707,3010001221640,新規,0,2021-10-07,2021-10-07,株式会社Ｔｒｕｓｔ　Ｍａｒｋｅｔｉｎｇ,,株式会社,東京都,中央区,銀座１丁目１５番７号ＭＡＣ銀座ビル３階,,13,102,1040061,,,,,,,2021-10-07,1,,,,,トラストマーケティング,0
708,3010001221657,新規,0,2021-10-07,2021-10-07,株式会社ＹｏｕｒＳｉｄｅ,,株式会社,東京都,中央区,銀座１丁目１２－４Ｎ＆ＥＢＬＤ．７階,,13,102,1040061,,,,,,,2021-10-07,1,,,,,ユアサイド,0
709,3010001221681,新規,0,2021-10-07,2021-10-07,華興株式会社,,株式会社,東京都,文京区,湯島２丁目２－１東邦深澤ビル１０Ａ室,,13,105,1130034,,,,,,,2021-10-07,1,,,,,トウカ,0
714,3010003035980,新規,0,2021-10-07,2021-10-07,合同会社エムアールプランニング,,合同会社,東京都,文京区,本郷５丁目２３番２－６０１号,,13,105,1130033,,,,,,,2021-10-07,1,,,,,エムアールプランニング,0
716,3010101014894,新規,0,2021-10-07,2021-10-07,株式会社劉,,株式会社,東京都,八王子市,大塚６２１－１５　１階,,13,201,1920352,,,,,,,2021-10-07,1,,,,,リュウ,0
717,3010103001783,新規,0,2021-10-07,2021-10-07,合同会社リアルアセット,,合同会社,東京都,八王子市,千人町１丁目５番１５号,,13,201,1930835,,,,,,,2021-10-07,1,,,,,リアルアセット,0
727,3010601060026,新規,0,2021-10-07,2021-10-07,株式会社エンジョイラボ,,株式会社,東京都,江東区,東雲１丁目９番４３－４００４号,,13,108,1350062,,,,,,,2021-10-07,1,,,,,エンジョイラボ,0
728,3010601060034,新規,0,2021-10-07,2021-10-07,株式会社ＤＭＣ,,株式会社,東京都,墨田区,東駒形３丁目２２－１,,13,107,1300005,,,,,,,2021-10-07,1,,,,,ディーエムシー,0
729,3010601060042,新規,0,2021-10-07,2021-10-07,株式会社ＣＯＲ　ＬＡＲＣＳ,,株式会社,東京都,墨田区,文花３丁目１６番６号,,13,107,1310044,,,,,,,2021-10-07,1,,,,,コルラークス,0
736,3011001143263,新規,0,2021-10-07,2021-10-07,ＡＲＣＯ　Ｊａｐａｎ株式会社,,株式会社,東京都,渋谷区,渋谷３丁目２９番２０号,,13,113,1500002,,,,,,,2021-10-07,1,,,,,アルコジャパン,0
742,3011301027224,新規,0,2021-10-07,2021-10-07,株式会社Ｓｔｒａｙ　Ｃａｔｓ,,株式会社,東京都,杉並区,和泉４丁目４２番２９－７０１号エコロジースクエア方南町,,13,115,1680063,,,,,,,2021-10-07,1,,,,,ストレイキャッツ,0
743,3011301027232,新規,0,2021-10-07,2021-10-07,新千代田商事株式会社,,株式会社,東京都,杉並区,久我山３丁目１０番２０号,,13,115,1680082,,,,,,,2021-10-07,1,,,,,シンチヨダショウジ,0
744,3011401023734,新規,0,2021-10-07,2021-10-07,株式会社ハリアント,,株式会社,東京都,板橋区,徳丸４丁目１８番２４号,,13,119,1750083,,,,,,,2021-10-07,1,,,,,ハリアント,0
755,3011801039792,新規,0,2021-10-07,2021-10-07,新正工業株式会社,,株式会社,東京都,足立区,保木間３丁目１２番５号ＴＭビル１０２,,13,121,1210064,,,,,,,2021-10-07,1,,,,,シンセイコウギョウ,0
758,3012301012728,新規,0,2021-10-07,2021-10-07,株式会社和み,,株式会社,東京都,町田市,図師町２３９７番地３,,13,209,1940203,,,,,,,2021-10-07,1,,,,,ナゴミ,0
759,3012301012736,新規,0,2021-10-07,2021-10-07,株式会社Ｉ・Ｆ・Ｉ,,株式会社,東京都,町田市,本町田２１４９番地３３,,13,209,1940032,,,,,,,2021-10-07,1,,,,,アイエフワン,0
761,3012401038375,新規,0,2021-10-07,2021-10-07,株式会社かみむら,,株式会社,東京都,多摩市,貝取１丁目５３番地の７,,13,224,2060012,,,,,,,2021-10-07,1,,,,,カミムラ,0
762,3012401038383,新規,0,2021-10-07,2021-10-07,株式会社Ｃｅｅｄｓ,,株式会社,東京都,府中市,寿町３丁目４番地の２,,13,206,1830056,,,,,,,2021-10-07,1,,,,,シーズ,0
763,3012403005051,新規,0,2021-10-07,2021-10-07,Ｋギフト合同会社,,合同会社,東京都,府中市,矢崎町４丁目１２番地の３,,13,206,1830025,,,,,,,2021-10-07,1,,,,,ケイギフト,0
765,3012701016691,新規,0,2021-10-07,2021-10-07,インフィニティテクノ株式会社,,株式会社,東京都,東久留米市,前沢２丁目１番２９号,,13,222,2030032,,,,,,,2021-10-07,1,,,,,インフィニティテクノ,0
766,3012701016709,新規,0,2021-10-07,2021-10-07,株式会社ＭｏｎｏｌｉＴｈ,,株式会社,東京都,東久留米市,新川町１丁目８番１８号,,13,222,2030013,,,,,,,2021-10-07,1,,,,,モノリス,0
767,3013101008742,新規,0,2021-10-07,2021-10-07,三和ホールデイングス株式会社,,株式会社,東京都,羽村市,神明台４丁目７番地１５,,13,227,2050023,,,,,,,2021-10-07,1,,,,,サンワホールディングス,0
768,3013105001784,新規,0,2021-10-07,2021-10-07,一般社団法人ＩｗａｋｕｒａＥｘｐｅｒｉｅｎｃｅ,,その他の設立登記法人,東京都,青梅市,小曾木５丁目３１４０番地,,13,205,1980003,,,,,,,2021-10-07,1,,,,,イワクラエクスペリエンス,0
770,3013301048101,新規,0,2021-10-07,2021-10-07,株式会社ミタイトラベル,,株式会社,東京都,豊島区,東池袋３丁目１番１号サンシャイン６０・４６階,,13,116,1700013,,,,,,,2021-10-07,1,,,,,ミタイトラベル,0
771,3013305003267,新規,0,2021-10-07,2021-10-07,税理士法人安部経営会計事務所,,その他の設立登記法人,東京都,豊島区,北大塚３丁目３１番１号安部会計ビル,,13,116,1700004,,,,,,,2021-10-07,1,,,,,アンベケイエイカイケイジムショ,0
781,3020001143297,新規,0,2021-10-07,2021-10-07,ボレイオクト株式会社,,株式会社,神奈川県,横浜市中区,新山下３丁目１５番２－３０９号,,14,104,2310801,,,,,,,2021-10-07,1,,,,,ボレイオクト,0
782,3020001143330,新規,0,2021-10-07,2021-10-07,株式会社風来工房,,株式会社,神奈川県,横浜市瀬谷区,上瀬谷町９－１４,,14,114,2460006,,,,,,,2021-10-07,1,,,,,フウライコウボウ,0
783,3020003020593,新規,0,2021-10-07,2021-10-07,バーデン合同会社,,合同会社,神奈川県,横浜市港北区,新横浜３丁目１３番地６新横浜葉山第３ビル９０１,,14,109,2220033,,,,,,,2021-10-07,1,,,,,バーデン,0
784,3020003020602,新規,0,2021-10-07,2021-10-07,ＰＬＴＷＯＲＫ合同会社,,合同会社,神奈川県,横浜市旭区,さちが丘１５５番地,,14,112,2410822,,,,,,,2021-10-07,1,,,,,ピーエルティワーク,0
785,3020005015229,新規,0,2021-10-07,2021-10-07,一般社団法人横浜市介護支援専門員協議会,,その他の設立登記法人,神奈川県,横浜市中区,元町２丁目９１番地,,14,104,2310861,,,,,,,2021-10-07,1,,,,,,0
787,3021001074169,新規,0,2021-10-07,2021-10-07,ＮａＮａｉｒｏ株式会社,,株式会社,神奈川県,綾瀬市,寺尾南２丁目１１番２０号エクラージュ１０２,,14,218,2521134,,,,,,,2021-10-07,1,,,,,ナナイロ,0
792,3021005012315,新規,0,2021-10-07,2021-10-07,税理士法人ＳＳＫ,,その他の設立登記法人,神奈川県,小田原市,南鴨宮２丁目３０番４号,,14,206,2500875,,,,,,,2021-10-07,1,,,,,エスエスケー,0
800,3030001144633,新規,0,2021-10-07,2021-10-07,株式会社マル真工業,,株式会社,埼玉県,川越市,大字府川１６９番地１プランタンＡ－２０２号室,,11,201,3500831,,,,,,,2021-10-07,1,,,,,マルシンコウギョウ,0
801,3030001144674,新規,0,2021-10-07,2021-10-07,株式会社ＰＲＯＴＥＩＯＳ,,株式会社,埼玉県,本庄市,若泉３丁目３番４号,,11,211,3670055,,,,,,,2021-10-07,1,,,,,プロティオス,0
802,3030001144682,新規,0,2021-10-07,2021-10-07,エムジェイテック株式会社,,株式会社,埼玉県,秩父郡皆野町,大字皆野１８２８番地９,,11,362,3691412,,,,,,,2021-10-07,1,,,,,エムジェイテック,0
803,3030001144690,新規,0,2021-10-07,2021-10-07,ＭＢＳ株式会社,,株式会社,埼玉県,児玉郡神川町,大字八日市３０５番地３,,11,383,3670244,,,,,,,2021-10-07,1,,,,,エムビーエス,0
804,3030001144716,新規,0,2021-10-07,2021-10-07,株式会社Ｉｍａｇｉｎｅ　Ｄｅ　Ｗｏｒｌｄ　Ｊａｐａｎ,,株式会社,埼玉県,さいたま市桜区,栄和４丁目２番４号,,11,106,3380823,,,,,,,2021-10-07,1,,,,,イマジンデワールドジャパン,0
805,3030001144749,新規,0,2021-10-07,2021-10-07,株式会社Ｔｅａ　Ｇａｒｄｅｎ,,株式会社,埼玉県,ふじみ野市,市沢２丁目１２番１４号,,11,245,3560057,,,,,,,2021-10-07,1,,,,,ティーガーデン,0
807,3030003018075,新規,0,2021-10-07,2021-10-07,合同会社スマイル,,合同会社,埼玉県,久喜市,葛梅２丁目２２番地１３,,11,232,3400214,,,,,,,2021-10-07,1,,,,,スマイル,0
808,3030003018083,新規,0,2021-10-07,2021-10-07,合同会社アライブ,,合同会社,埼玉県,川口市,領家４丁目８－１１メゾン大洋ｐａｒｔＩＩ４２０号室,00124493,11,203,3320004,,,,,,,2021-10-07,1,,,,,アライブ,0
814,3040001120451,新規,0,2021-10-07,2021-10-07,新幸建設株式会社,,株式会社,千葉県,木更津市,畑沢南４丁目１０番１１号,,12,206,2920826,,,,,,,2021-10-07,1,,,,,シンコウケンセツ,0
816,3040003018669,新規,0,2021-10-07,2021-10-07,合同会社グリット,,合同会社,千葉県,千葉市美浜区,稲毛海岸５丁目２８番１号ルネ稲毛海岸グランマークス５１４号,,12,106,2610005,,,,,,,2021-10-07,1,,,,,グリット,0
817,3040003018685,新規,0,2021-10-07,2021-10-07,合同会社アローズ,,合同会社,千葉県,旭市,高生４９０番地２,,12,215,2892604,,,,,,,2021-10-07,1,,,,,アローズ,0
818,3040005021373,新規,0,2021-10-07,2021-10-07,一般社団法人日本アカデミック・ディテーリング研究会,,その他の設立登記法人,千葉県,松戸市,金ケ作１０７番地１,,12,207,2702251,,,,,,,2021-10-07,1,,,,,ニホンアカデミックディテーリングケンキュウカイ,0
820,3050003006128,新規,0,2021-10-07,2021-10-07,エスエムイー合同会社,,合同会社,茨城県,取手市,寺田４９３５番地７,,08,217,3020021,,,,,,,2021-10-07,1,,,,,エスエムイー,0
827,3080101022817,新規,0,2021-10-07,2021-10-07,株式会社やまもと土づくり研究所,,株式会社,静岡県,賀茂郡河津町,縄地１８番地の１,,22,302,4130514,,,,,,,2021-10-07,1,,,,,ヤマモトツチヅクリケンキュウジョ,0
831,3090003001967,新規,0,2021-10-07,2021-10-07,合同会社ｌｕｍｅ,,合同会社,山梨県,甲斐市,中下条１３６４番地１,,19,210,4000124,,,,,,,2021-10-07,1,,,,,ルーメ,0
837,3100003006254,新規,0,2021-10-07,2021-10-07,ＷＭ　ＳＴＯＲＹ合同会社,,合同会社,長野県,佐久市,岩村田３７２１番地１,,20,217,3850022,,,,,,,2021-10-07,1,,,,,ダヴルエムストーリー,0
864,3120001240836,新規,0,2021-10-07,2021-10-07,株式会社アラカワ,,株式会社,大阪府,大阪市福島区,福島１丁目１番４８号,,27,103,5530003,,,,,,,2021-10-07,1,,,,,アラカワ,0
865,3120001240885,新規,0,2021-10-07,2021-10-07,株式会社ＷＯＮＤＥＲ,,株式会社,大阪府,大阪市中央区,谷町６丁目６番７号,,27,128,5420012,,,,,,,2021-10-07,1,,,,,ワンダー,0
866,3120001240902,新規,0,2021-10-07,2021-10-07,華立株式会社,,株式会社,大阪府,大阪市住之江区,中加賀屋３丁目１－２２朝日ビル１０１,,27,125,5590017,,,,,,,2021-10-07,1,,,,,カリツ,0
867,3120001240910,新規,0,2021-10-07,2021-10-07,株式会社ｔｏｕｔ,,株式会社,大阪府,大阪市西区,南堀江４丁目１２番１９号７０２,,27,106,5500015,,,,,,,2021-10-07,1,,,,,トート,0
868,3120001240943,新規,0,2021-10-07,2021-10-07,株式会社ハイパーホールディングス,,株式会社,大阪府,大阪市中央区,南船場１丁目１３番１５号,,27,128,5420081,,,,,,,2021-10-07,1,,,,,ハイパーホールディングス,0
869,3120001240968,新規,0,2021-10-07,2021-10-07,株式会社ＴＨＥ　ＺＡＮＤＯ,,株式会社,大阪府,大阪市西区,北堀江１丁目２番１９号,,27,106,5500014,,,,,,,2021-10-07,1,,,,,ザザンド,0
872,3120003020360,新規,0,2021-10-07,2021-10-07,タキムラデザイン合同会社,,合同会社,大阪府,大阪市西区,南堀江１丁目１４番７号－７０１,,27,106,5500015,,,,,,,2021-10-07,1,,,,,タキムラデザイン,0
873,3120003020369,新規,0,2021-10-07,2021-10-07,合同会社ＯＮＤＯ,,合同会社,大阪府,大阪市東淀川区,淡路４丁目６－４９－５０２コロル淡路,,27,114,5330032,,,,,,,2021-10-07,1,,,,,オンド,0
877,3120101064425,新規,0,2021-10-07,2021-10-07,株式会社Ｍｏｏｖｅ,,株式会社,大阪府,和泉市,父鬼町１８４番地,,27,219,5941132,,,,,,,2021-10-07,1,,,,,ムーヴ,0
878,3120101064441,新規,0,2021-10-07,2021-10-07,株式会社ＫＩＺＵＮＡ,,株式会社,大阪府,堺市中区,深井清水町３５１０番地,,27,142,5998273,,,,,,,2021-10-07,1,,,,,キズナ,0
881,3120901044989,新規,0,2021-10-07,2021-10-07,株式会社山一冷機,,株式会社,大阪府,摂津市,別府２丁目１番５号,,27,224,5660046,,,,,,,2021-10-07,1,,,,,ヤマイチレイキ,0
882,3120901045013,新規,0,2021-10-07,2021-10-07,修洋商事株式会社,,株式会社,大阪府,吹田市,津雲台１丁目１番２－９０７号,,27,205,5650862,,,,,,,2021-10-07,1,,,,,シュウヨウショウジ,0
886,3130001070241,新規,0,2021-10-07,2021-10-07,株式会社八重建設,,株式会社,京都府,京都市伏見区,石田内里町１番地１１,,26,109,6011432,,,,,,,2021-10-07,1,,,,,ハッチョウケンセツ,0
888,3130003007539,新規,0,2021-10-07,2021-10-07,合同会社ぽっぷ,,合同会社,京都府,宇治市,木幡平尾２７番地の５６４,,26,204,6110002,,,,,,,2021-10-07,1,,,,,ポップ,0
891,3140001123188,新規,0,2021-10-07,2021-10-07,株式会社プリンス,,株式会社,兵庫県,明石市,野々上３丁目７番地の９,,28,203,6730017,,,,,,,2021-10-07,1,,,,,プリンス,0
892,3140001123221,新規,0,2021-10-07,2021-10-07,株式会社学秀舎,,株式会社,兵庫県,西宮市,霞町３番４１－５０４号,,28,204,6620052,,,,,,,2021-10-07,1,,,,,ガクシュウシャ,0
893,3140001123279,新規,0,2021-10-07,2021-10-07,株式会社ＪＹＨｂｒｏｔｈｅｒ’ｓ,,株式会社,兵庫県,神戸市西区,今寺４番地の４－４０１号,,28,111,6512114,,,,,,,2021-10-07,1,,,,,ジェイワイエイチブラザーズ,0
894,3140001123287,新規,0,2021-10-07,2021-10-07,株式会社Ｍｅｂｉｕｓ,,株式会社,兵庫県,尼崎市,大庄中通２丁目６５番地の１,,28,202,6600075,,,,,,,2021-10-07,1,,,,,メビウス,0
895,3140001123353,新規,0,2021-10-07,2021-10-07,株式会社盆栽翠松園,,株式会社,兵庫県,加西市,別府町甲１２８０番地,,28,220,6790103,,,,,,,2021-10-07,1,,,,,ボンサイスイショウエン,0
896,3140003016828,新規,0,2021-10-07,2021-10-07,合同会社ＢＵＤＯＫＡＮ,,合同会社,兵庫県,神戸市中央区,上筒井通５丁目２番１４－４０３号,,28,110,6510061,,,,,,,2021-10-07,1,,,,,ブドウカン,0
899,3150001024988,新規,0,2021-10-07,2021-10-07,株式会社Ｔｈａｎｋｓｇｉｖｉｎｇ,,株式会社,奈良県,大和高田市,神楽３丁目９－３マツダビル２Ｆ,,29,202,6350025,,,,,,,2021-10-07,1,,,,,サンクスギビング,0
901,3160001023675,新規,0,2021-10-07,2021-10-07,株式会社ｐｅｐｉｎ,,株式会社,滋賀県,守山市,守山６丁目８番３７号,,25,207,5240022,,,,,,,2021-10-07,1,,,,,ペピン,0
902,3160001023700,新規,0,2021-10-07,2021-10-07,株式会社ＧｅｎｉｕｓＭａｋｅｒ,,株式会社,滋賀県,大津市,本堅田１丁目１２番８号,,25,201,5200242,,,,,,,2021-10-07,1,,,,,ジーニアスメイカー,0
916,3180001148066,新規,0,2021-10-07,2021-10-07,株式会社ＴｈｒｅｅＲ,,株式会社,愛知県,小牧市,多気中町６７番地１,,23,219,4850052,,,,,,,2021-10-07,1,,,,,スリーアール,0
917,3180001148116,新規,0,2021-10-07,2021-10-07,株式会社アルキロ,,株式会社,愛知県,名古屋市千種区,今池４丁目３番１０号小川ビル１０１号,,23,101,4640850,,,,,,,2021-10-07,1,,,,,アルキロ,0
918,3180001148198,新規,0,2021-10-07,2021-10-07,株式会社ＢＹＳ,,株式会社,愛知県,名古屋市千種区,宮根台１丁目１６番２２号,,23,101,4640008,,,,,,,2021-10-07,1,,,,,バイス,0
921,3180003023036,新規,0,2021-10-07,2021-10-07,合同会社Ｋフォレスト,,合同会社,愛知県,一宮市,音羽１丁目７番７号,,23,203,4910045,,,,,,,2021-10-07,1,,,,,ケイフォレスト,0
922,3180003023052,新規,0,2021-10-07,2021-10-07,ＭＴＣ　ＯＢＵ合同会社,,合同会社,愛知県,大府市,中央町４丁目３３番地,,23,223,4740025,,,,,,,2021-10-07,1,,,,,エムティーシーオオブ,0
927,3180301035484,新規,0,2021-10-07,2021-10-07,株式会社Ｃ・Ｉ・Ｐファーマシー,,株式会社,愛知県,刈谷市,野田町沖ノ道３４番地１,,23,210,4480803,,,,,,,2021-10-07,1,,,,,シーアイピーファーマシー,0
930,3190001028754,新規,0,2021-10-07,2021-10-07,株式会社竹りん,,株式会社,三重県,志摩市,阿児町鵜方３４８３番地,,24,215,5170501,,,,,,,2021-10-07,1,,,,,チクリン,0
946,3250003002916,新規,0,2021-10-07,2021-10-07,ＤＨＮ合同会社,,合同会社,山口県,防府市,戎町１丁目８番４号,,35,206,7470036,,,,,,,2021-10-07,1,,,,,ディーエイチエヌ,0
949,3260001036056,新規,0,2021-10-07,2021-10-07,株式会社ＴＹカンパニー,,株式会社,岡山県,倉敷市,中島５７６番地１５,,33,202,7100803,,,,,,,2021-10-07,1,,,,,ティーワイーカンパニー,0
950,3260001036064,新規,0,2021-10-07,2021-10-07,株式会社高見電気,00124482,株式会社,岡山県,岡山市南区,福島３丁目８番２号,,33,104,7028044,,,,,,,2021-10-07,1,,,,,タカミデンキ,0
958,3290801027862,新規,0,2021-10-07,2021-10-07,株式会社ＲＯＳＨＡＮ・ＭＯＴＯＲＳ,,株式会社,福岡県,行橋市,大字道場寺５１０番地２,,40,213,8240026,,,,,,,2021-10-07,1,,,,,ローシャンモータース,0
959,3290801027895,新規,0,2021-10-07,2021-10-07,株式会社ＨＡＮＡ,,株式会社,福岡県,京都郡苅田町,幸町６番地４８,,40,621,8000314,,,,,,,2021-10-07,1,,,,,ハナ,0
961,3300001012647,新規,0,2021-10-07,2021-10-07,株式会社ＣＨＡＲＩＳ　ＦＯＯＤＳ,,株式会社,佐賀県,佐賀市,木原３丁目３番１１号,,41,201,8400015,,,,,,,2021-10-07,1,,,,,カリスフーズ,0
967,3320001018650,新規,0,2021-10-07,2021-10-07,ｗｏｏｐ株式会社,,株式会社,大分県,大分市,寿町１番２２号,,44,201,8700036,,,,,,,2021-10-07,1,,,,,ウープ,0
969,3330001029028,新規,0,2021-10-07,2021-10-07,株式会社ＡＬＢＡ,,株式会社,熊本県,熊本市東区,保田窪３丁目１５番７－１３０３号,,43,102,8620926,,,,,,,2021-10-07,1,,,,,アルバ,0
970,3330001029052,新規,0,2021-10-07,2021-10-07,株式会社斐,,株式会社,熊本県,熊本市北区,池田３丁目１番３０号,,43,105,8600082,,,,,,,2021-10-07,1,,,,,アヤ,0
977,3330003009077,新規,0,2021-10-07,2021-10-07,ＳＵＭＩＴＹ合同会社,,合同会社,熊本県,宇城市,小川町中小野１４番地,,43,213,8690602,,,,,,,2021-10-07,1,,,,,スミティー,0
981,3360001029438,新規,0,2021-10-07,2021-10-07,ＴＯＣ株式会社,,株式会社,沖縄県,名護市,字我部祖河９１番地５コーポ稲田３０２,,47,209,9051155,,,,,,,2021-10-07,1,,,,,ティーオーシー,0
982,3360003011484,新規,0,2021-10-07,2021-10-07,合同会社西企画,,合同会社,沖縄県,那覇市,首里石嶺町２丁目２３０－１,,47,201,9030804,,,,,,,2021-10-07,1,,,,,ニシキカク,0
983,3370001047694,新規,0,2021-10-07,2021-10-07,エスケーテクノ株式会社,,株式会社,宮城県,仙台市宮城野区,原町２丁目２番１６号,,04,102,9830841,,,,,,,2021-10-07,1,,,,,,0
985,3380001032241,新規,0,2021-10-07,2021-10-07,サキダス株式会社,,株式会社,福島県,郡山市,田村町岩作字西川原１８６番地３,,07,203,9631154,,,,,,,2021-10-07,1,,,,,サキダス,0
987,3380003005030,新規,0,2021-10-07,2021-10-07,合同会社スクラボン,,合同会社,福島県,西白河郡矢吹町,北町５１－２,,07,466,9690211,,,,,,,2021-10-07,1,,,,,スクラボン,0
989,3380005012487,新規,0,2021-10-07,2021-10-07,社会保険労務士法人草野労務管理事務所,,その他の設立登記法人,福島県,南相馬市,鹿島区山下字中ノ内３１番地の６,,07,212,9792461,,,,,,,2021-10-07,1,,,,,クサノロウムカンリジムショ,0
992,3390001016607,新規,0,2021-10-07,2021-10-07,株式会社小野川温泉河鹿荘,,株式会社,山形県,米沢市,小野川町２０７０番地,,06,202,9920076,,,,,,,2021-10-07,1,,,,,オノガワオンセンカジカソウ,0
996,3400001015631,新規,0,2021-10-07,2021-10-07,株式会社ｋｉｒｋａｓ,,株式会社,岩手県,花巻市,鍋倉字上新田３８番地１,,03,205,0250046,,,,,,,2021-10-07,1,,,,,キルカス,0
1000,3420001017618,新規,0,2021-10-07,2021-10-07,株式会社アシエール,,株式会社,青森県,青森市,月見野１丁目１０番１３号,,02,201,0300958,,,,,,,2021-10-07,1,,,,,アシエール,0
1002,3430001085077,新規,0,2021-10-07,2021-10-07,Ｍｓ　Ｓｉｇｎ　Ｓｔｕｄｉｏ株式会社,,株式会社,北海道,登別市,栄町１丁目８番地７,,01,230,0590033,,,,,,,2021-10-07,1,,,,,エムズサインスタジオ,0
1003,3430003013226,新規,0,2021-10-07,2021-10-07,合同会社柴野企画事務所,,合同会社,北海道,札幌市中央区,南十条西８丁目２－７－１００２,,01,101,0640810,,,,,,,2021-10-07,1,,,,,シバノキカクジムショ,0
1019,3500005008423,新規,0,2021-10-07,2021-10-07,農事組合法人楽蔵,,その他の設立登記法人,愛媛県,西予市,三瓶町蔵貫３３８２番地,,38,214,7960913,,,,,,,2021-10-07,1,,,,,ラクゾウ,0
1020,3700150104691,新規,0,2021-10-07,2021-09-14,Ｃａｆｅ　Ｗｉｓｅ　Ｃｏｕｒｔ　１０２,,その他,茨城県,牛久市,ひたち野西３丁目３１－１０ワイズコート１０２,,08,219,3001206,,,,,,,2021-09-14,1,,,,,カフエワイズコートイチマルニ,0
1029,4010001221490,新規,0,2021-10-07,2021-10-07,株式会社ＵＦＥ,,株式会社,東京都,千代田区,西神田２丁目３番２号牧ビル４０２,,13,101,1010065,,,,,,,2021-10-07,1,,,,,ユーエフイー,0
1030,4010001221499,新規,0,2021-10-07,2021-10-07,株式会社Ａｎｋｅｒ,,株式会社,東京都,千代田区,神田佐久間町１丁目１６大橋ビル５０３,,13,101,1010025,,,,,,,2021-10-07,1,,,,,アンカー,0
1031,4010001221540,新規,0,2021-10-07,2021-10-07,株式会社ｍ＆ｍｅｉ,,株式会社,東京都,中央区,日本橋２丁目１番１７号ＴＲＩＥＬ東京,,13,102,1030027,,,,,,,2021-10-07,1,,,,,エムアンドメイ,0
1032,4010001221549,新規,0,2021-10-07,2021-10-07,株式会社エムエイチエム,,株式会社,東京都,中央区,銀座３丁目５番８号,,13,102,1040061,,,,,,,2021-10-07,1,,,,,エムエイチエム,0
1033,4010001221565,新規,0,2021-10-07,2021-10-07,株式会社タヌキアペタイジング,,株式会社,東京都,中央区,勝どき４丁目９番１号,,13,102,1040054,,,,,,,2021-10-07,1,,,,,タヌキアペタイジング,0
1034,4010001221573,新規,0,2021-10-07,2021-10-07,地域総合デザイン株式会社,,株式会社,東京都,中央区,日本橋兜町１７番２号４階,,13,102,1030026,,,,,,,2021-10-07,1,,,,,チイキソウゴウデザイン,0
1036,4010003035971,新規,0,2021-10-07,2021-10-07,合同会社ＴＹＧ,,合同会社,東京都,中央区,銀座１丁目２２番１１号銀座大竹ビジデンス２階,,13,102,1040061,,,,,,,2021-10-07,1,,,,,ティーワイジー,0
1040,4010005034047,新規,0,2021-10-07,2021-10-07,一般社団法人Ｐｌａｎｔ　Ｂａｓｅｄ　Ｌｉｆｅｓｔｙｌｅ　Ｌａｂ,,その他の設立登記法人,東京都,千代田区,大手町２丁目６番２号,,13,101,1000004,,,,,,,2021-10-07,1,,,,,プラントベースドライフスタイルラボ,0
1043,4010101014885,新規,0,2021-10-07,2021-10-07,タツマキゲームズ株式会社,,株式会社,東京都,八王子市,小比企町２９３６番地１９,,13,201,1930934,,,,,,,2021-10-07,1,,,,,タツマキゲームズ,0
1049,4010401163052,新規,0,2021-10-07,2021-10-07,株式会社東京技術印刷,,株式会社,東京都,港区,三田４丁目８番４１号,,13,103,1080073,,,,,,,2021-10-07,1,,,,,トウキョウギジュツインサツ,0
1053,4010503006407,新規,0,2021-10-07,2021-10-07,ＡＷＥＳＯＭＥ　ＣＲＡＦＴ合同会社,,合同会社,東京都,台東区,浅草橋１丁目１７番１０号,,13,106,1110053,,,,,,,2021-10-07,1,,,,,オーサムクラフト,0
1058,4010601060017,新規,0,2021-10-07,2021-10-07,株式会社Ｅｔｈａｌ,,株式会社,東京都,江東区,東陽３丁目２１－３エステムプラザＴＯＫＹＯＲＩＳＥ１４０３,,13,108,1350016,,,,,,,2021-10-07,1,,,,,イーサル,0
1059,4010601060025,新規,0,2021-10-07,2021-10-07,株式会社ＲＥＶＩＶＥ,,株式会社,東京都,墨田区,押上１丁目３２番５号５Ｆ,,13,107,1310045,,,,,,,2021-10-07,1,,,,,リヴァイヴ,0
1060,4010601060033,新規,0,2021-10-07,2021-10-07,株式会社Ｍａｓｈ－Ｕｐ－Ｂａｋｅｒｙ,,株式会社,東京都,墨田区,立花４丁目３４番８号,,13,107,1310043,,,,,,,2021-10-07,1,,,,,マッシュアップベーカリー,0
1061,4010601060041,新規,0,2021-10-07,2021-10-07,株式会社山忠,,株式会社,東京都,墨田区,両国３丁目９番５号ＢＢＮｏ２ビル４階,,13,107,1300026,,,,,,,2021-10-07,1,,,,,ヤマチュウ,0
1062,4010603009185,新規,0,2021-10-07,2021-10-07,合同会社ｓｍａｒｔ,,合同会社,東京都,江東区,豊洲４丁目９番１３－１５３２号,,13,108,1350061,,,,,,,2021-10-07,1,,,,,スマート,0
1064,4010801032377,新規,0,2021-10-07,2021-10-07,株式会社ＹＯＵＲ　ＡＲＣＨＩＴＥＣＴ,,株式会社,東京都,大田区,千鳥１丁目１０番１６－３０７号,,13,111,1460083,,,,,,,2021-10-07,1,,,,,ユアアーキテクト,0
1066,4010901049569,新規,0,2021-10-07,2021-10-07,株式会社平事務所,,株式会社,東京都,世田谷区,砧５丁目８番３１号銀河Ｍ１７,,13,112,1570073,,,,,,,2021-10-07,1,,,,,タイラジムショ,0
1068,4010903006857,新規,0,2021-10-07,2021-10-07,ＬＵＤＯ合同会社,,合同会社,東京都,世田谷区,松原１丁目５７番１５－３０５号,,13,112,1560043,,,,,,,2021-10-07,1,,,,,ルード,0
1070,4011001143089,新規,0,2021-10-07,2021-10-07,株式会社かんおんキャピタル不動産,,株式会社,東京都,渋谷区,神宮前２丁目１０番５号,,13,113,1500001,,,,,,,2021-10-07,1,,,,,カンオンキャピタルフドウサン,0
1071,4011001143097,新規,0,2021-10-07,2021-10-07,セシル株式会社,,株式会社,東京都,渋谷区,広尾２丁目１７番２１号,,13,113,1500012,,,,,,,2021-10-07,1,,,,,セシル,0
1072,4011001143163,新規,0,2021-10-07,2021-10-07,Ｐｅｓｃａ株式会社,,株式会社,東京都,渋谷区,神宮前６丁目２３番４号桑野ビル２階,,13,113,1500001,,,,,,,2021-10-07,1,,,,,ペスカ,0
1073,4011001143171,新規,0,2021-10-07,2021-10-07,株式会社千,,株式会社,東京都,渋谷区,広尾１丁目３－１０,,13,113,1500012,,,,,,,2021-10-07,1,,,,,セン,0
1074,4011001143213,新規,0,2021-10-07,2021-10-07,株式会社比嘉企画,,株式会社,東京都,渋谷区,笹塚１丁目２９番３号ＳＳ－ＤＵＰＬＥＸ２０５号,,13,113,1510073,,,,,,,2021-10-07,1,,,,,,0
1075,4011001143254,新規,0,2021-10-07,2021-10-07,ＬｉｏｎＡ株式会社,,株式会社,東京都,渋谷区,恵比寿西１丁目３４番６号シティカレント代官山２１０,,13,113,1500021,,,,,,,2021-10-07,1,,,,,リオナ,0
1076,4011001143279,新規,0,2021-10-07,2021-10-07,株式会社Ｂ　ＳＬＡＳＨ　ＨＯＬＤＩＮＧＳ,,株式会社,東京都,渋谷区,広尾１丁目１０番４号,,13,113,1500012,,,,,,,2021-10-07,1,,,,,ビースラッシュホールディングス,0
1082,4011101096419,新規,0,2021-10-07,2021-10-07,株式会社トップエイト,,株式会社,東京都,新宿区,歌舞伎町２丁目１７番４号コリンズ３７ビル６Ｆ,,13,104,1600021,,,,,,,2021-10-07,1,,,,,トップエイト,0
1083,4011101096476,新規,0,2021-10-07,2021-10-07,株式会社ドン,,株式会社,東京都,新宿区,新宿１丁目１０番３号太田紙興新宿ビル９Ｆ,,13,104,1600022,,,,,,,2021-10-07,1,,,,,ドン,0
1085,4011105010004,新規,0,2021-10-07,2021-10-07,一般社団法人日本旅行写真家協会,,その他の設立登記法人,東京都,新宿区,四谷三栄町２番１４号四ッ谷ビジネスガーデン,,13,104,1600008,,,,,,,2021-10-07,1,,,,,ニホンリョコウシャシンカキョウカイ,0
1086,4011201023289,新規,0,2021-10-07,2021-10-07,株式会社鷺宮ホールディングス,,株式会社,東京都,中野区,鷺宮３丁目２６番１号,,13,114,1650032,,,,,,,2021-10-07,1,,,,,サギノミヤホールディングス,0
1087,4011401023709,新規,0,2021-10-07,2021-10-07,江口建工株式会社,,株式会社,東京都,板橋区,成増１丁目１４－９成増グリーンハイツ４０１,,13,119,1750094,,,,,,,2021-10-07,1,,,,,エグチケンコウ,0
1088,4011403003460,新規,0,2021-10-07,2021-10-07,合同会社ＩＮＤｉＳＰＡＬ,,合同会社,東京都,板橋区,徳丸１丁目４９番１０－６０８号パティーナ東武練馬,,13,119,1750083,,,,,,,2021-10-07,1,,,,,インディスパル,0
1095,4012301012735,新規,0,2021-10-07,2021-10-07,株式会社グローアップ,,株式会社,東京都,町田市,小山ヶ丘４丁目３番地４,,13,209,1940215,,,,,,,2021-10-07,1,,,,,グローアップ,0
1097,4012401038358,新規,0,2021-10-07,2021-10-07,株式会社ｌｅ’ａ　ｃｏｍｐａｎｙ,,株式会社,東京都,小金井市,東町１丁目２９番８号（１６）,,13,210,1840011,,,,,,,2021-10-07,1,,,,,レアカンパニー,0
1098,4012401038366,新規,0,2021-10-07,2021-10-07,ＢＲＯＴＨＥＲ株式会社,,株式会社,東京都,三鷹市,北野３丁目１０番２３－１０６号,,13,204,1810003,,,,,,,2021-10-07,1,,,,,ブラザー,0
1099,4012401038374,新規,0,2021-10-07,2021-10-07,株式会社ロマンシングイノベーション,,株式会社,東京都,狛江市,東野川２丁目３番９号,,13,219,2010002,,,,,,,2021-10-07,1,,,,,ロマンシングイノベーション,0
1100,4012401038382,新規,0,2021-10-07,2021-10-07,株式会社イーアシスト,,株式会社,東京都,調布市,下石原２丁目５０番地２,,13,208,1820034,,,,,,,2021-10-07,1,,,,,イーアシスト,0
1101,4012403005050,新規,0,2021-10-07,2021-10-07,土田電設販合同会社,,合同会社,東京都,三鷹市,新川２丁目１４番２２号ミツヤハイツ１０１,,13,204,1810004,,,,,,,2021-10-07,1,,,,,ツチダデンセツハン,0
1105,4012801021137,新規,0,2021-10-07,2021-10-07,株式会社Ｓｔａｒｋ,,株式会社,東京都,国立市,中１丁目１６番地の２０ピーチビル２Ｆ,,13,215,1860004,,,,,,,2021-10-07,1,,,,,スターク,0
1111,4013301048109,新規,0,2021-10-07,2021-10-07,株式会社ＺＥＮＢ　ＨＯＬＤＩＮＧＳ,,株式会社,東京都,豊島区,池袋２丁目４０番１３号,,13,116,1710014,,,,,,,2021-10-07,1,,,,,ゼンブホールディングス,0
1112,4013303005842,新規,0,2021-10-07,2021-10-07,合同会社てらだ組,,合同会社,東京都,豊島区,北大塚２丁目３２番７号,,13,116,1700004,,,,,,,2021-10-07,1,,,,,テラダグミ,0
1113,4020001143313,新規,0,2021-10-07,2021-10-07,ＢＲＥＷＭＡＴＩＣ株式会社,,株式会社,神奈川県,横浜市都筑区,仲町台５丁目４番２２号,,14,118,2240041,,,,,,,2021-10-07,1,,,,,ブルーマチック,0
1114,4020001143387,新規,0,2021-10-07,2021-10-07,株式会社ライベント,,株式会社,神奈川県,川崎市高津区,諏訪２丁目７－７－２,,14,134,2130004,,,,,,,2021-10-07,1,,,,,ライベント,0
1117,4020005015228,新規,0,2021-10-07,2021-10-07,特定非営利活動法人ＦＯＲＴＵＮＡ　ＬＡＢＯＲＡＴＯＲＩＯ,,その他の設立登記法人,神奈川県,横浜市青葉区,榎が丘２１番地７－４０２,,14,117,2270063,,,,,,,2021-10-07,1,,,,,フォルトゥーナラボラトリオ,0
1128,4030001144608,新規,0,2021-10-07,2021-10-07,株式会社庭友,,株式会社,埼玉県,さいたま市岩槻区,西町１丁目６番４号,,11,110,3390067,,,,,,,2021-10-07,1,,,,,ニワトモ,0
1129,4030001144657,新規,0,2021-10-07,2021-10-07,株式会社ＹＫトータル建装,,株式会社,埼玉県,春日部市,本田町１丁目１４３番地３,,11,214,3440016,,,,,,,2021-10-07,1,,,,,ワイケートータルケンソウ,0
1130,4030001144731,新規,0,2021-10-07,2021-10-07,伊藤設備株式会社,,株式会社,埼玉県,越谷市,宮本町５丁目２１９番地６２,,11,222,3430806,,,,,,,2021-10-07,1,,,,,イトウセツビ,0
1135,4030003018041,新規,0,2021-10-07,2021-10-07,ＭＡＣＨＲＩＳＴ　ＡＦＲＩＱＵＥ　ＰＲＯＶＩＳＩＯＮ合同会社,,合同会社,埼玉県,草加市,氷川町２１４０番地１レピュート関根２０２号,,11,221,3400034,,,,,,,2021-10-07,1,,,,,マクリストアフリックプロビジョン,0
1136,4030003018074,新規,0,2021-10-07,2021-10-07,松岡合同会社,,合同会社,埼玉県,川口市,金山町１２番１－８０３号,,11,203,3320014,,,,,,,2021-10-07,1,,,,,マツオカ,0
1140,4040001120450,新規,0,2021-10-07,2021-10-07,株式会社ＬＡ　ｃｌｏｉｘ,,株式会社,千葉県,八千代市,八千代台東１丁目２９番２号ＨＭビル１Ｆ,,12,221,2760032,,,,,,,2021-10-07,1,,,,,ラクロワ,0
1141,4040001120475,新規,0,2021-10-07,2021-10-07,ＮＢバイオ株式会社,,株式会社,千葉県,佐倉市,直弥１５６番地,,12,212,2850065,,,,,,,2021-10-07,1,,,,,エヌビーバイオ,0
1144,4040003018668,新規,0,2021-10-07,2021-10-07,合同会社Ｃｅａｕｔｙ,,合同会社,千葉県,千葉市美浜区,幕張西６丁目２４番地９,,12,106,2610026,,,,,,,2021-10-07,1,,,,,キューティ,0
1148,4050003006127,新規,0,2021-10-07,2021-10-07,ＣＩＲＣＯ　ＪＡＰＡＮ合同会社,,合同会社,茨城県,ひたちなか市,大字長砂１５１０番地２４,,08,221,3120004,,,,,,,2021-10-07,1,,,,,サーコジャパン,0
1151,4060001034153,新規,0,2021-10-07,2021-10-07,株式会社大関総建,,株式会社,栃木県,真岡市,長田４丁目１０番地７,,09,209,3214364,,,,,,,2021-10-07,1,,,,,オオゼキソウケン,0
1152,4060002009328,新規,0,2021-10-07,2021-10-07,有限会社友進工芸,,有限会社,栃木県,宇都宮市,下戸祭２丁目８番１号,,09,201,3200055,,,,,,,2021-10-07,1,,,,,,0
1157,4080103002428,新規,0,2021-10-07,2021-10-07,合同会社ＢＩクリエイション,,合同会社,静岡県,熱海市,桜木町１１番地２０号２０２号室,,22,205,4130025,,,,,,,2021-10-07,1,,,,,ビーアイクリエイション,0
1160,4080405007389,新規,0,2021-10-07,2021-10-07,医療法人社団なかや歯科,,その他の設立登記法人,静岡県,浜松市中区,早出町２３１番地の２,,22,131,4350054,,,,,,,2021-10-07,1,,,,,ナカヤシカ,0
1170,4100001034693,新規,0,2021-10-07,2021-10-07,イマル株式会社,,株式会社,長野県,安曇野市,堀金烏川２２３３番地２,,20,220,3998211,,,,,,,2021-10-07,1,,,,,イマル,0
1191,4120001240637,新規,0,2021-10-07,2021-10-07,株式会社Ｌｉｆｅ２ｌｄ,,株式会社,大阪府,大阪市西成区,旭１丁目９番１８号,,27,122,5570032,,,,,,,2021-10-07,1,,,,,ライフフィールド,0
1192,4120001240769,新規,0,2021-10-07,2021-10-07,株式会社Ｄｒｏｉｔｕｒｅ,,株式会社,大阪府,大阪市北区,天神西町７－１３－３０６,,27,127,5300045,,,,,,,2021-10-07,1,,,,,ドロワチュール,0
1193,4120001240819,新規,0,2021-10-07,2021-10-07,株式会社ＡＬＴＲＵＩＳＭ,,株式会社,大阪府,大阪市福島区,福島２丁目７番１７号２階,,27,103,5530003,,,,,,,2021-10-07,1,,,,,アルトリズム,0
1194,4120001240835,新規,0,2021-10-07,2021-10-07,株式会社Ｓｔａｒｔｅｎｄ,,株式会社,大阪府,大阪市平野区,瓜破東８丁目８番３号,,27,126,5470022,,,,,,,2021-10-07,1,,,,,スタートエンド,0
1195,4120001240868,新規,0,2021-10-07,2021-10-07,株式会社青木電工,,株式会社,大阪府,枚方市,東船橋１丁目７１番地の１２,,27,210,5731115,,,,,,,2021-10-07,1,,,,,アオキデンコウ,0
1196,4120001240892,新規,0,2021-10-07,2021-10-07,株式会社フーズ・フレンズ,,株式会社,大阪府,大阪市阿倍野区,共立通１丁目１１番１９号,,27,119,5450041,,,,,,,2021-10-07,1,,,,,フーズフレンズ,0
1197,4120001240926,新規,0,2021-10-07,2021-10-07,ノブレスパートナー株式会社,,株式会社,大阪府,大阪市中央区,高麗橋４丁目６番１４－５０３号,,27,128,5410043,,,,,,,2021-10-07,1,,,,,ノブレスパートナー,0
1198,4120001240934,新規,0,2021-10-07,2021-10-07,株式会社ＰＡＲＡＭＡ,,株式会社,大阪府,大阪市住吉区,万代東２丁目１－２,,27,120,5580056,,,,,,,2021-10-07,1,,,,,パラマ,0
1199,4120001240942,新規,0,2021-10-07,2021-10-07,株式会社山脇建設工業,,株式会社,大阪府,寝屋川市,高柳６丁目２番１号,,27,215,5720051,,,,,,,2021-10-07,1,,,,,ヤマワキケンセツコウギョウ,0
1200,4120001240950,新規,0,2021-10-07,2021-10-07,鹿希株式会社,,株式会社,大阪府,大阪市東淀川区,西淡路３丁目１７番３２号１０５号室,,27,114,5330031,,,,,,,2021-10-07,1,,,,,カキ,0
1201,4120001240967,新規,0,2021-10-07,2021-10-07,株式会社されど,,株式会社,大阪府,大阪市阿倍野区,天王寺町北２丁目４番１８号ＫＳロイヤル天王寺北７０４号,,27,119,5450001,,,,,,,2021-10-07,1,,,,,サレド,0
1204,4120003020368,新規,0,2021-10-07,2021-10-07,合同会社ＹＵＫＡＩ企画,,合同会社,大阪府,門真市,大池町４１番４５号,,27,223,5710076,,,,,,,2021-10-07,1,,,,,ユカイキカク,0
1205,4120003020376,新規,0,2021-10-07,2021-10-07,合同会社しんみち,,合同会社,大阪府,大阪市西区,千代崎１丁目２７－１１,,27,106,5500023,,,,,,,2021-10-07,1,,,,,シンミチ,0
1208,4120101064440,新規,0,2021-10-07,2021-10-07,Ｊ＆Ｂ株式会社,,株式会社,大阪府,和泉市,いぶき野３丁目５番１１－４０５号,,27,219,5940041,,,,,,,2021-10-07,1,,,,,ジェイエンドビー,0
1212,4120901045012,新規,0,2021-10-07,2021-10-07,株式会社インフィニティ,,株式会社,大阪府,池田市,天神２丁目１番８号,,27,204,5630031,,,,,,,2021-10-07,1,,,,,インフィニティ,0
1218,4122003002189,新規,0,2021-10-07,2021-10-07,合同会社ＴＫグローバルサポート,,合同会社,大阪府,東大阪市,長瀬町１丁目９番１２号,,27,227,5770832,,,,,,,2021-10-07,1,,,,,ティーケーグローバルサポート,0
1223,4130001070240,新規,0,2021-10-07,2021-10-07,株式会社Ｍｉｎｅｒｖａ,,株式会社,京都府,向日市,物集女町五ノ坪２番地の１グランパール２０５号室,,26,208,6170001,,,,,,,2021-10-07,1,,,,,ミネルヴァ,0
1224,4130001070249,新規,0,2021-10-07,2021-10-07,株式会社ＯＰＴＭＡＳＳ,,株式会社,京都府,京都市左京区,吉田本町３６番地１京都大学国際科学イノベーション棟ベンチャーインキュベーションセンター,,26,103,6068317,,,,,,,2021-10-07,1,,,,,オプトマス,0
1225,4130001070257,新規,0,2021-10-07,2021-10-07,株式会社ＫＩＪＩＭＡ　Ｍｅｄｉｃａｌ　Ｐｌａｎｎｉｎｇ,,株式会社,京都府,京都市東山区,東大路渋谷下る妙法院前側町４２４番地１スティーロ京都東山妙法院１０２,,26,105,6050932,,,,,,,2021-10-07,1,,,,,キジマメディカルプランニング,0
1228,4130003007538,新規,0,2021-10-07,2021-10-07,合同会社Ｒｅｅｌａ,,合同会社,京都府,京都市中京区,室町通二条下る蛸薬師町２７９番地ウィステリア御池１階,,26,104,6040021,,,,,,,2021-10-07,1,,,,,リーラ,0
1230,4130005016289,新規,0,2021-10-07,2021-10-07,医療法人みのり会,,その他の設立登記法人,京都府,京都市中京区,少将井町２４５－１藤和シティスクエア烏丸丸太町２０１号室,,26,104,6040862,,,,,,,2021-10-07,1,,,,,ミノリカイ,0
1232,4140001123204,新規,0,2021-10-07,2021-10-07,株式会社昴輝商事,,株式会社,兵庫県,姫路市,北平野南の町２番４６号,,28,201,6700887,,,,,,,2021-10-07,1,,,,,コウキ,0
1233,4140001123245,新規,0,2021-10-07,2021-10-07,株式会社イケウチ,,株式会社,兵庫県,姫路市,下寺町１１０番地,,28,201,6700932,,,,,,,2021-10-07,1,,,,,イケウチ,0
1234,4140001123278,新規,0,2021-10-07,2021-10-07,株式会社出口鉄筋工業,,株式会社,兵庫県,赤穂市,黒崎町６４番地３,,28,212,6780259,,,,,,,2021-10-07,1,,,,,デグチテッキンコウギョウ,0
1235,4140001123286,新規,0,2021-10-07,2021-10-07,ムサシノ建築工房株式会社,,株式会社,兵庫県,尼崎市,戸ノ内町５丁目５番３号,,28,202,6610961,,,,,,,2021-10-07,1,,,,,ムサシノケンチクコウボウ,0
1236,4140001123360,新規,0,2021-10-07,2021-10-07,株式会社Ｐ‐Ｃｏｎｎｅｃｔ,,株式会社,兵庫県,神戸市兵庫区,東山町３丁目３－１２－１０１,,28,105,6520042,,,,,,,2021-10-07,1,,,,,ピーコネクト,0
1238,4140003016819,新規,0,2021-10-07,2021-10-07,合同会社城下町アプレイザル,,合同会社,兵庫県,姫路市,八代本町１丁目１０番２４号サンハイツ八代１０１号室,,28,201,6700874,,,,,,,2021-10-07,1,,,,,ジョウカマチアプレイザル,0
1239,4140005025834,新規,0,2021-10-07,2021-10-07,特定非営利活動法人淡路島オリーヴ協議会,,その他の設立登記法人,兵庫県,南あわじ市,賀集鍛治屋４９１番地,,28,224,6560515,,,,,,,2021-10-07,1,,,,,アワジシマオリーヴキョウギカイ,0
1241,4150001024979,新規,0,2021-10-07,2021-10-07,川西建設株式会社,,株式会社,奈良県,橿原市,川西町２２２番地の２,,29,205,6340826,,,,,,,2021-10-07,1,,,,,カワニシケンセツ,0
1242,4150001024995,新規,0,2021-10-07,2021-10-07,株式会社Ｒａｋｕｕ,,株式会社,奈良県,奈良市,押熊町１２７９－１,,29,201,6310011,,,,,,,2021-10-07,1,,,,,ラクウー,0
1247,4160001023708,新規,0,2021-10-07,2021-10-07,株式会社キリカ,,株式会社,滋賀県,近江八幡市,堀上町字溝先１２５番７,,25,204,5230031,,,,,,,2021-10-07,1,,,,,キリカ,0
1255,4180001148107,新規,0,2021-10-07,2021-10-07,奏絢工業株式会社,,株式会社,愛知県,名古屋市名東区,新宿２丁目２番地新宿サンシャインビル４０５号,,23,115,4650063,,,,,,,2021-10-07,1,,,,,ソウケンコウギョウ,0
1256,4180001148115,新規,0,2021-10-07,2021-10-07,株式会社フェザーホーム,,株式会社,愛知県,半田市,有楽町５丁目１３７番地の１,,23,205,4750837,,,,,,,2021-10-07,1,,,,,フェザーホーム,0
1257,4180001148148,新規,0,2021-10-07,2021-10-07,Ｇｅａｒ’ｓ株式会社,,株式会社,愛知県,名古屋市西区,那古野２丁目１２番１２号,,23,104,4510042,,,,,,,2021-10-07,1,,,,,ギア,0
1258,4180001148156,新規,0,2021-10-07,2021-10-07,株式会社ＣＬＯＧＯ,,株式会社,愛知県,名古屋市西区,牛島町６番１号名古屋ルーセントタワー４０階,,23,104,4510046,,,,,,,2021-10-07,1,,,,,クロゴ,0
1262,4180003023043,新規,0,2021-10-07,2021-10-07,合同会社Ｗｉｎｄ,,合同会社,愛知県,春日井市,小野町１丁目６５番地４エテルノ１０２号,,23,206,4860926,,,,,,,2021-10-07,1,,,,,ウィンド,0
1263,4180003023051,新規,0,2021-10-07,2021-10-07,津田建築合同会社,,合同会社,愛知県,一宮市,伝法寺１丁目１２番地１８,,23,203,4910828,,,,,,,2021-10-07,1,,,,,ツダケンチク,0
1264,4180301035483,新規,0,2021-10-07,2021-10-07,株式会社大伸,,株式会社,愛知県,知立市,逢妻町桜３６番地６１,,23,225,4720021,,,,,,,2021-10-07,1,,,,,ダイシン,0
1267,4190001028729,新規,0,2021-10-07,2021-10-07,株式会社ｈｉｎａｒｉ,,株式会社,三重県,三重郡朝日町,向陽台２丁目１０番地１０,,24,343,5108105,,,,,,,2021-10-07,1,,,,,ヒナリ,0
1274,4200003005344,新規,0,2021-10-07,2021-10-07,合同会社ＴＥＡＭ　Ｌｅｅｋ,,合同会社,岐阜県,山県市,高木７００番地８,,21,215,5012113,,,,,,,2021-10-07,1,,,,,チームリーク,0
1278,4220003003131,新規,0,2021-10-07,2021-10-07,合同会社稲積創建,,合同会社,石川県,金沢市,長坂２丁目２番１３号,,17,201,9218112,,,,,,,2021-10-07,1,,,,,イナヅミソウケン,0
1279,4230001019021,新規,0,2021-10-07,2021-10-07,株式会社久伽,,株式会社,富山県,高岡市,赤祖父７４７番地エスペランサ・ヤマダ３０１,,16,202,9330806,,,,,,,2021-10-07,1,,,,,クウガ,0
1280,4230003001737,新規,0,2021-10-07,2021-10-07,合同会社ＯＮＥコーポレーション,,合同会社,富山県,高岡市,姫野５０８番地１７,,16,202,9340093,,,,,,,2021-10-07,1,,,,,ワンコーポレーション,0
1285,4250001019168,新規,0,2021-10-07,2021-10-07,夢商事株式会社,,株式会社,山口県,下松市,潮音町１丁目１３番３号,,35,207,7440074,,,,,,,2021-10-07,1,,,,,ユメショウジ,0
1286,4250001019184,新規,0,2021-10-07,2021-10-07,株式会社ｉＲｉＳ　ｃｏｓｍｅｔｉｃｓ,,株式会社,山口県,山口市,秋穂東７８番地,,35,203,7541101,,,,,,,2021-10-07,1,,,,,イーリスコスメティックス,0
1291,4250003002915,新規,0,2021-10-07,2021-10-07,ＴＫＬ総合管理合同会社,,合同会社,山口県,下関市,武久町１丁目２４番２３号,,35,201,7510833,,,,,,,2021-10-07,1,,,,,ティーケーエルソウゴウカンリ,0
1297,4290001094975,新規,0,2021-10-07,2021-10-07,株式会社Ｓｔａｎｄ　ｕｐ　ＳＥＡ,,株式会社,福岡県,福岡市博多区,吉塚本町１３番２７－５０８号,,40,132,8120046,,,,,,,2021-10-07,1,,,,,スタンドアップシー,0
1299,4290003011689,新規,0,2021-10-07,2021-10-07,合同会社テイクネット,,合同会社,福岡県,糟屋郡志免町,別府北２丁目３番１－９０７号,,40,343,8112233,,,,,,,2021-10-07,1,,,,,テイクネット,0
1300,4290801027861,新規,0,2021-10-07,2021-10-07,株式会社野口電気,,株式会社,福岡県,行橋市,大字道場寺１７３１番地５,,40,213,8240026,,,,,,,2021-10-07,1,,,,,ノグチデンキ,0
1301,4290801027886,新規,0,2021-10-07,2021-10-07,ハイダン株式会社,,株式会社,福岡県,直方市,古町１番８号,,40,204,8220027,,,,,,,2021-10-07,1,,,,,ハイダン,0
1302,4290801027894,新規,0,2021-10-07,2021-10-07,陽隆設備株式会社,,株式会社,福岡県,北九州市八幡西区,楠橋西２丁目１０番１０号,,40,109,8071145,,,,,,,2021-10-07,1,,,,,ヒダカセツビ,0
1303,4300001012646,新規,0,2021-10-07,2021-10-07,株式会社ＣＨＡＲＩＳ＆Ｕ,,株式会社,佐賀県,佐賀市,北川副町大字江上１０２番地３０,,41,201,8400011,,,,,,,2021-10-07,1,,,,,カリスアンドユー,0
1304,4300001012654,新規,0,2021-10-07,2021-10-07,株式会社野中畳店,,株式会社,佐賀県,小城市,三日月町樋口１０００番地２,00124487,41,208,8450033,,,,,,,2021-10-07,1,,,,,ノナカタタミテン,0
1310,4360001029478,新規,0,2021-10-07,2021-10-07,株式会社寿寛興業,,株式会社,沖縄県,石垣市,新栄町２６番地１９,,47,207,9070014,,,,,,,2021-10-07,1,,,,,カズヒロコウギョウ,0
1314,4370001047693,新規,0,2021-10-07,2021-10-07,株式会社ジェイビジネスプランニング,,株式会社,宮城県,石巻市,中央２丁目８番２号,,04,202,9860822,,,,,,,2021-10-07,1,,,,,ジェイビジネスプランニング,0
1329,4420001017617,新規,0,2021-10-07,2021-10-07,株式会社ビガップ,,株式会社,青森県,弘前市,大字土手町１８１番地１,,02,202,0368182,,,,,,,2021-10-07,1,,,,,ビガップ,0
1333,4430001085126,新規,0,2021-10-07,2021-10-07,株式会社高橋興業,00124481,株式会社,北海道,札幌市清田区,里塚緑ケ丘３丁目９番３号シェーンヒルズ緑ケ丘Ａ棟１０１号,,01,110,0040805,,,,,,,2021-10-07,1,,,,,タカハシコウギョウ,0
1334,4430001085134,新規,0,2021-10-07,2021-10-07,株式会社栄光,,株式会社,北海道,札幌市南区,南沢四条１丁目１番５８号,,01,106,0050824,,,,,,,2021-10-07,1,,,,,エイコウ,0
1337,4460401001233,新規,0,2021-10-07,2021-10-07,北海道風力開発株式会社,,株式会社,北海道,根室市,昆布盛１４９番地１２,,01,223,0881784,,,,,,,2021-10-07,1,,,,,ホッカイドウフウリョクカイハツ,0
1338,4470001018759,新規,0,2021-10-07,2021-10-07,株式会社ハシモト,,株式会社,香川県,観音寺市,本大町１０５７番地１,,37,205,7680022,,,,,,,2021-10-07,1,,,,,ハシモト,0
1340,4470003002050,新規,0,2021-10-07,2021-10-07,合同会社ステッキ,,合同会社,香川県,三豊市,詫間町詫間３９６２番地１,,37,208,7691101,,,,,,,2021-10-07,1,,,,,ステッキ,0
1357,5010001221548,新規,0,2021-10-07,2021-10-07,八十二アセットマネジメント株式会社,,株式会社,東京都,中央区,日本橋室町４丁目１番２２号,,13,102,1030022,,,,,,,2021-10-07,1,,,,,ハチジュウニアセットマネジメント,0
1358,5010001221572,新規,0,2021-10-07,2021-10-07,株式会社ワザーップ,,株式会社,東京都,中央区,京橋２丁目７番８号ＦＰＧｌｉｎｋｓＫＹＯＢＡＳＨＩ,,13,102,1040031,,,,,,,2021-10-07,1,,,,,ワザーップ,0
1359,5010001221580,新規,0,2021-10-07,2021-10-07,株式会社ビートリンク,,株式会社,東京都,千代田区,大手町１丁目６番１号大手町ビル,,13,101,1000004,,,,,,,2021-10-07,1,,,,,ビートリンク,0
1360,5010001221597,新規,0,2021-10-07,2021-10-07,株式会社ＦＴコミュニケーションズ,,株式会社,東京都,中央区,日本橋蛎殻町２丁目１３番６号,,13,102,1030014,,,,,,,2021-10-07,1,,,,,エフティコミュニケーションズ,0
1361,5010001221647,新規,0,2021-10-07,2021-10-07,玉山デジタルテック株式会社,,株式会社,東京都,千代田区,麹町１丁目１０番地澤田麹町ビル３階,,13,101,1020083,,,,,,,2021-10-07,1,,,,,タマヤマデジタルテック,0
1362,5010001221655,新規,0,2021-10-07,2021-10-07,株式会社ＭＲＣ,,株式会社,東京都,千代田区,神田東松下町２８番地,,13,101,1010042,,,,,,,2021-10-07,1,,,,,エムアールシー,0
1372,5010101014884,新規,0,2021-10-07,2021-10-07,ＮＫ　Ｂａｎｋｉｎ株式会社,,株式会社,東京都,八王子市,堀之内１２７６番地２,,13,201,1920355,,,,,,,2021-10-07,1,,,,,エヌケーバンキン,0
1376,5010401162912,新規,0,2021-10-07,2021-10-07,株式会社理工コンサルティング,,株式会社,東京都,港区,港南２丁目１６番１号品川イーストワンタワー４階,,13,103,1080075,,,,,,,2021-10-07,1,,,,,リコウコンサルティング,0
1377,5010401163002,新規,0,2021-10-07,2021-10-07,株式会社ＭＥＦＲＥＥ,,株式会社,東京都,港区,浜松町２丁目２－１５ダイヤビル２Ｆ,,13,103,1050013,,,,,,,2021-10-07,1,,,,,ミフリー,0
1378,5010401163126,新規,0,2021-10-07,2021-10-07,サクラホールディングス株式会社,,株式会社,東京都,港区,虎ノ門１丁目３番１号,,13,103,1050001,,,,,,,2021-10-07,1,,,,,サクラホールディングス,0
1379,5010501047930,新規,0,2021-10-07,2021-10-07,株式会社Ｒｅｖａｌｍ,,株式会社,東京都,台東区,浅草６丁目３６番１８号小宮ビルアネックス２Ｆ,,13,106,1110032,,,,,,,2021-10-07,1,,,,,リバーム,0
1381,5010601060032,新規,0,2021-10-07,2021-10-07,ｆａｂｕｌａ株式会社,,株式会社,東京都,江東区,有明３丁目７番２６号有明フロンティアビルＢ棟９階,,13,108,1350063,,,,,,,2021-10-07,1,,,,,ファーブラ,0
1382,5010601060049,新規,0,2021-10-07,2021-10-07,株式会社ｂｅ＆Ｃｏ．,,株式会社,東京都,江東区,東陽３丁目２７－１７長谷川ビル５階,,13,108,1350016,,,,,,,2021-10-07,1,,,,,ビーアンドコー,0
1383,5010603009184,新規,0,2021-10-07,2021-10-07,合同会社ＭＡアシスト,,合同会社,東京都,江東区,大島４丁目７－１３－３０１,,13,108,1360072,,,,,,,2021-10-07,1,,,,,エムエイアシスト,0
1386,5010801032384,新規,0,2021-10-07,2021-10-07,株式会社おか田,,株式会社,東京都,大田区,仲池上１丁目２番９－３０７号,,13,111,1460081,,,,,,,2021-10-07,1,,,,,オカダ,0
1393,5011001143088,新規,0,2021-10-07,2021-10-07,株式会社Ｗｅｅｅ,,株式会社,東京都,目黒区,東山２丁目４番１６－１０３号シティコーポ東山,,13,110,1530043,,,,,,,2021-10-07,1,,,,,ウィー,0
1394,5011001143253,新規,0,2021-10-07,2021-10-07,ブラックシップ・リアルティ株式会社,,株式会社,東京都,渋谷区,広尾５丁目８番１２号広尾ファイブ６０２,,13,113,1500012,,,,,,,2021-10-07,1,,,,,ブラックシップリアルティ,0
1395,5011001143286,新規,0,2021-10-07,2021-10-07,株式会社ｔｏｎａ,,株式会社,東京都,渋谷区,神宮前４丁目５番１４号トレ・ピラストリ表参道１Ｆ,,13,113,1500001,,,,,,,2021-10-07,1,,,,,トゥーナ,0
1396,5011001143294,新規,0,2021-10-07,2021-10-07,株式会社シノマル,,株式会社,東京都,渋谷区,笹塚１丁目６０番９－２０１号,,13,113,1510073,,,,,,,2021-10-07,1,,,,,シノマル,0
1397,5011003013495,新規,0,2021-10-07,2021-10-07,合同会社Ｃｏｖｅｒ,,合同会社,東京都,渋谷区,円山町５－４,,13,113,1500044,,,,,,,2021-10-07,1,,,,,カバー,0
1400,5011101096475,新規,0,2021-10-07,2021-10-07,株式会社新宿サンエービル,,株式会社,東京都,新宿区,大久保１丁目２番１７号,,13,104,1690072,,,,,,,2021-10-07,1,,,,,シンジュクサンエービル,0
1401,5011101096509,新規,0,2021-10-07,2021-10-07,株式会社ｋｅｋｅ,,株式会社,東京都,新宿区,神楽坂２丁目２１番地５小栗横丁ビル１階,,13,104,1620825,,,,,,,2021-10-07,1,,,,,ケケ,0
1402,5011103011060,新規,0,2021-10-07,2021-10-07,合同会社Ｋ．Ｋ　ＴＲＡＤＩＮＧ,,合同会社,東京都,新宿区,赤城下町４５番地ＫＢＣ,,13,104,1620803,,,,,,,2021-10-07,1,,,,,ケイケイトレーディング,0
1405,5011301027230,新規,0,2021-10-07,2021-10-07,株式会社ＶＥＮＴＡＮＡ,,株式会社,東京都,杉並区,和田２丁目３６番１２号,,13,115,1660012,,,,,,,2021-10-07,1,,,,,,0
1406,5011305002782,新規,0,2021-10-07,2021-10-07,一般社団法人いとう建物,,その他の設立登記法人,東京都,杉並区,方南１丁目５０番２５号,,13,115,1680062,,,,,,,2021-10-07,1,,,,,イトウタテモノ,0
1407,5011401023732,新規,0,2021-10-07,2021-10-07,株式会社ＣｏＣｏ,,株式会社,東京都,板橋区,南常盤台１丁目２８－３,,13,119,1740072,,,,,,,2021-10-07,1,,,,,ココ,0
1416,5011803004818,新規,0,2021-10-07,2021-10-07,葛飾デザイン合同会社,00124485,合同会社,東京都,葛飾区,奥戸４丁目２１－１０－２０１,,13,122,1240022,,,,,,,2021-10-07,1,,,,,カツシカデザイン,0
1418,5012301012726,新規,0,2021-10-07,2021-10-07,株式会社旬報堂,,株式会社,東京都,町田市,真光寺３丁目１５番地９,,13,209,1950057,,,,,,,2021-10-07,1,,,,,シュンポウドウ,0
1425,5012401038357,新規,0,2021-10-07,2021-10-07,株式会社ｎｏｓｔｙ,,株式会社,東京都,小金井市,桜町１丁目１２番１１号,,13,210,1840005,,,,,,,2021-10-07,1,,,,,ノスティ,0
1426,5012401038373,新規,0,2021-10-07,2021-10-07,株式会社ｂｌｕｅ　ｂｌｕｅ,,株式会社,東京都,多摩市,関戸４丁目７３番地,,13,224,2060011,,,,,,,2021-10-07,1,,,,,ブルーブルー,0
1427,5012401038381,新規,0,2021-10-07,2021-10-07,株式会社ＧＲＡＣＥＺ,,株式会社,東京都,調布市,布田２丁目３０番地５プロミネンスＮＥＮＯＹＡ１０３,,13,208,1820024,,,,,,,2021-10-07,1,,,,,グレイズ,0
1429,5012801021136,新規,0,2021-10-07,2021-10-07,株式会社梅田,,株式会社,東京都,立川市,砂川町３丁目７番地の３,,13,202,1900031,,,,,,,2021-10-07,1,,,,,ウメダ,0
1433,5013301048090,新規,0,2021-10-07,2021-10-07,株式会社ＧＵＲＵＲＩ,,株式会社,東京都,豊島区,駒込１丁目４２－２ライオンズマンション駒込駅前１００９,,13,116,1700003,,,,,,,2021-10-07,1,,,,,グルリ,0
1434,5013301048099,新規,0,2021-10-07,2021-10-07,株式会社ユートピアラボラトリー,,株式会社,東京都,豊島区,北大塚３丁目３３番８号土屋ビル２階,,13,116,1700004,,,,,,,2021-10-07,1,,,,,ユートピアラボラトリー,0
1436,5013303005841,新規,0,2021-10-07,2021-10-07,合同会社エンライトメディア,,合同会社,東京都,豊島区,東池袋１丁目３４番５号いちご東池袋ビル６階,,13,116,1700013,,,,,,,2021-10-07,1,,,,,エンライトメディア,0
1442,5020001143312,新規,0,2021-10-07,2021-10-07,株式会社エバーオンワーズ,,株式会社,神奈川県,横浜市神奈川区,金港町８番地８,,14,102,2210056,,,,,,,2021-10-07,1,,,,,エバーオンワーズ,0
1443,5020001143329,新規,0,2021-10-07,2021-10-07,ＮｉＴテックジャパン株式会社,,株式会社,神奈川県,横浜市港北区,新横浜３丁目１３番地６新横浜葉山第３ビル９０１,,14,109,2220033,,,,,,,2021-10-07,1,,,,,エヌアイティーテックジャパン,0
1451,5020003020591,新規,0,2021-10-07,2021-10-07,ＢＡＳＥＬ－ＰＯＲＴ合同会社,,合同会社,神奈川県,川崎市麻生区,多摩美１丁目１４番１０号,,14,137,2150002,,,,,,,2021-10-07,1,,,,,バーゼルポート,0
1452,5020003020600,新規,0,2021-10-07,2021-10-07,合同会社Ａナチュラルファクトリー,,合同会社,神奈川県,横浜市青葉区,青葉台２丁目１番地１青葉台東急スクエアＮｏｒｔｈ－１－２Ｆ,,14,117,2270062,,,,,,,2021-10-07,1,,,,,エーナチュラルファクトリー,0
1456,5021001074126,新規,0,2021-10-07,2021-10-07,株式会社ＥＶＥＲＹＤＡＹ　ＳＵＮＤＡＹ,,株式会社,神奈川県,相模原市南区,相模大野６丁目１３番６号メゾン・ドゥ・レーヴ２号室,,14,153,2520303,,,,,,,2021-10-07,1,,,,,エブリデイサンデー,0
1457,5021001074159,新規,0,2021-10-07,2021-10-07,株式会社メフィス,,株式会社,神奈川県,藤沢市,本藤沢３丁目１３番２１号,,14,205,2510875,,,,,,,2021-10-07,1,,,,,メフィス,0
1462,5030001144615,新規,0,2021-10-07,2021-10-07,株式会社ファストナーシング,,株式会社,埼玉県,三郷市,高州２丁目４２番地１,,11,237,3410037,,,,,,,2021-10-07,1,,,,,ファストナーシング,0
1463,5030001144672,新規,0,2021-10-07,2021-10-07,株式会社Ｍ３コンサルティング,,株式会社,埼玉県,春日部市,牛島１２５番４,,11,214,3440004,,,,,,,2021-10-07,1,,,,,エムスリーコンサルティング,0
1464,5030001144714,新規,0,2021-10-07,2021-10-07,株式会社ＫＧＳａｌｔｏ,,株式会社,埼玉県,さいたま市浦和区,高砂２丁目５番１１－５０３号,,11,107,3300063,,,,,,,2021-10-07,1,,,,,ケイジイサルト,0
1465,5030001144730,新規,0,2021-10-07,2021-10-07,ＹＳＧＴ株式会社,,株式会社,埼玉県,越谷市,赤山町３丁目２６３番地１０,,11,222,3430807,,,,,,,2021-10-07,1,,,,,ワイエスジーティー,0
1466,5030001144739,新規,0,2021-10-07,2021-10-07,株式会社ＮＩＰＰＯＮ　ＢＯＥＫＩ,,株式会社,埼玉県,久喜市,本町４丁目３番１１号グランハイム駒２０２号室,,11,232,3460005,,,,,,,2021-10-07,1,,,,,ニッポンボウエキ,0
1470,5030003018073,新規,0,2021-10-07,2021-10-07,ＮＴＫ合同会社,,合同会社,埼玉県,春日部市,米島２７２番地１１,,11,214,3440115,,,,,,,2021-10-07,1,,,,,エヌティーケー,0
1471,5030003018081,新規,0,2021-10-07,2021-10-07,キャット・ホイ商事合同会社,,合同会社,埼玉県,羽生市,大字上村君１３０番地１,,11,216,3480005,,,,,,,2021-10-07,1,,,,,キャットホイショウジ,0
1473,5040001120474,新規,0,2021-10-07,2021-10-07,ハワイアンＨＳＴ株式会社,,株式会社,千葉県,千葉市緑区,おゆみ野南４丁目１２番地１６,,12,105,2660033,,,,,,,2021-10-07,1,,,,,ハワイアンエイチエスティー,0
1476,5050001049952,新規,0,2021-10-07,2021-10-07,株式会社ＴＯＳＨＩＮ,,株式会社,茨城県,土浦市,上高津１２１８番地８コスモＢ,,08,203,3000811,,,,,,,2021-10-07,1,,,,,トーシン,0
1477,5050001049960,新規,0,2021-10-07,2021-10-07,株式会社ベンプロデュース,,株式会社,茨城県,水戸市,笠原町１５５１－２ＴＫオフィスＢ棟２階,,08,201,3100852,,,,,,,2021-10-07,1,,,,,ベンプロデュース,0
1478,5050003006126,新規,0,2021-10-07,2021-10-07,合同会社新生産業,,合同会社,茨城県,水戸市,南町３丁目３番３５号,,08,201,3100021,,,,,,,2021-10-07,1,,,,,シンセイサンギョウ,0
1479,5060001034152,新規,0,2021-10-07,2021-10-07,日向野工業株式会社,,株式会社,栃木県,真岡市,熊倉町４７６４番地１５,,09,209,3214362,,,,,,,2021-10-07,1,,,,,ヒガノコウギョウ,0
1480,5060001034169,新規,0,2021-10-07,2021-10-07,株式会社アスコットレーシング,,株式会社,栃木県,那須郡那須町,大字高久丙２４６４番地,,09,407,3250302,,,,,,,2021-10-07,1,,,,,アスコットレーシング,0
1484,5070001038516,新規,0,2021-10-07,2021-10-07,ダイゴ設備株式会社,,株式会社,群馬県,伊勢崎市,田中島町１４７４番地１０,,10,204,3720802,,,,,,,2021-10-07,1,,,,,ダイゴセツビ,0
1490,5080101022823,新規,0,2021-10-07,2021-10-07,株式会社ミライズ,,株式会社,静岡県,三島市,寿町５番２号,,22,206,4110039,,,,,,,2021-10-07,1,,,,,ミライズ,0
1491,5080103002435,新規,0,2021-10-07,2021-10-07,合同会社Ｍ＆Ｓ,,合同会社,静岡県,富士市,元町６番９号,,22,210,4160917,,,,,,,2021-10-07,1,,,,,エムアンドエス,0
1496,5100001034684,新規,0,2021-10-07,2021-10-07,ＳＵＮＲＩＳＥ－ａｒｃ株式会社,,株式会社,長野県,松本市,寿中１丁目９番２５号,,20,202,3990026,,,,,,,2021-10-07,1,,,,,サンライズアーク,0
1497,5100001034692,新規,0,2021-10-07,2021-10-07,株式会社ＭＡＲＮ,,株式会社,長野県,北佐久郡軽井沢町,大字軽井沢１１３３番地４２,,20,321,3890102,,,,,,,2021-10-07,1,,,,,マーン,0
1500,5110001036093,新規,0,2021-10-07,2021-10-07,株式会社穂海耕研,,株式会社,新潟県,上越市,板倉区田屋１０４番地２,,15,222,9440105,,,,,,,2021-10-07,1,,,,,ホウミコウケン,0
1514,5120001240735,新規,0,2021-10-07,2021-10-07,株式会社Ｔ２ＪＡＰＡＮ,,株式会社,大阪府,大阪市浪速区,難波中２丁目１０番７０号,,27,111,5560011,,,,,,,2021-10-07,1,,,,,ティーツージャパン,0
1515,5120001240859,新規,0,2021-10-07,2021-10-07,株式会社江口海里スタジオ,,株式会社,大阪府,大阪市中央区,瓦屋町２丁目１４－８,,27,128,5420066,,,,,,,2021-10-07,1,,,,,エグチカイリスタジオ,0
1516,5120001240933,新規,0,2021-10-07,2021-10-07,株式会社ＯＦＡ,,株式会社,大阪府,大阪市中央区,谷町６丁目１８番２２－２０１号,,27,128,5420012,,,,,,,2021-10-07,1,,,,,オファー,0
1517,5120001240958,新規,0,2021-10-07,2021-10-07,株式会社ＤＲＥＡＭ　ＯＮＥ,,株式会社,大阪府,守口市,京阪本通２丁目１５番１３号４階,,27,209,5700083,,,,,,,2021-10-07,1,,,,,ドリームワン,0
1518,5120001240966,新規,0,2021-10-07,2021-10-07,株式会社ＡＣＴ,,株式会社,大阪府,大阪市東淀川区,東淡路１丁目５番３号,,27,114,5330023,,,,,,,2021-10-07,1,,,,,アクト,0
1519,5120001240982,新規,0,2021-10-07,2021-10-07,株式会社クロシス,,株式会社,大阪府,大阪市北区,堂島１丁目１－５,,27,127,5300003,,,,,,,2021-10-07,1,,,,,クロシス,0
1521,5120003020342,新規,0,2021-10-07,2021-10-07,合同会社スクールゴー,,合同会社,大阪府,大阪市天王寺区,味原本町１番９号,,27,109,5430022,,,,,,,2021-10-07,1,,,,,スクールゴー,0
1522,5120003020350,新規,0,2021-10-07,2021-10-07,合同会社ｃｈｉｌｌ　ｓｍｏｋｅ,,合同会社,大阪府,大阪市北区,本庄西３丁目１２番３号インベスト北梅田２０５,,27,127,5310073,,,,,,,2021-10-07,1,,,,,チルスモーク,0
1523,5120003020359,新規,0,2021-10-07,2021-10-07,合同会社リベスト,,合同会社,大阪府,寝屋川市,高柳栄町９－２７,,27,215,5720062,,,,,,,2021-10-07,1,,,,,リベスト,0
1524,5120003020367,新規,0,2021-10-07,2021-10-07,合同会社サンスクエア,,合同会社,大阪府,大阪市阿倍野区,王子町２丁目１７番２３－３０２号,,27,119,5450023,,,,,,,2021-10-07,1,,,,,サンスクエア,0
1525,5120003020375,新規,0,2021-10-07,2021-10-07,合同会社アサヒ住設,,合同会社,大阪府,大阪市旭区,大宮１丁目２１－２北村マンション１階,,27,117,5350002,,,,,,,2021-10-07,1,,,,,アサヒジュウセツ,0
1528,5120005022543,新規,0,2021-10-07,2021-10-07,税理士法人ＡＩＳ,,その他の設立登記法人,大阪府,大阪市中央区,谷町１丁目４番３号,,27,128,5400012,,,,,,,2021-10-07,1,,,,,アイズ,0
1532,5120901045028,新規,0,2021-10-07,2021-10-07,株式会社シナリーアクション,,株式会社,大阪府,高槻市,塚原６丁目１０番８号,,27,207,5691046,,,,,,,2021-10-07,1,,,,,シナリーアクション,0
1533,5120903003859,新規,0,2021-10-07,2021-10-07,ＮＫコンサルティング合同会社,,合同会社,大阪府,茨木市,西駅前町４－３５,,27,211,5670032,,,,,,,2021-10-07,1,,,,,エヌケーコンサルティング,0
1536,5130001070215,新規,0,2021-10-07,2021-10-07,株式会社バリューアップ,,株式会社,京都府,京都市南区,西九条唐戸町１２番地２,,26,107,6018447,,,,,,,2021-10-07,1,,,,,バリューアップ,0
1537,5130001070264,新規,0,2021-10-07,2021-10-07,株式会社成匠,,株式会社,京都府,八幡市,川口堀ノ内１１１,,26,210,6148103,,,,,,,2021-10-07,1,,,,,ナルショウ,0
1538,5130001070280,新規,0,2021-10-07,2021-10-07,ＣＡ．ＮＥＴ株式会社,,株式会社,京都府,京都市中京区,西洞院通姉小路上る三坊西洞院町５６５－８０６,,26,104,6048277,,,,,,,2021-10-07,1,,,,,シーエーネット,0
1539,5130001070297,新規,0,2021-10-07,2021-10-07,株式会社ＩＣ－Ｌｉｎｅ,,株式会社,京都府,京田辺市,多々羅住建寺１５番地１,,26,211,6100321,,,,,,,2021-10-07,1,,,,,アイシーライン,0
1543,5130003007537,新規,0,2021-10-07,2021-10-07,岡田合同会社,,合同会社,京都府,福知山市,土師宮町１丁目１１０番地ホンダ中古車センター福知山東店内,,26,201,6200856,,,,,,,2021-10-07,1,,,,,オカダ,0
1545,5130005016288,新規,0,2021-10-07,2021-10-07,医療法人バイマニュアル,,その他の設立登記法人,京都府,京都市南区,西九条大国町９番地１,,26,107,6018449,,,,,,,2021-10-07,1,,,,,バイマニュアル,0
1549,5140001123277,新規,0,2021-10-07,2021-10-07,株式会社ノオラ,,株式会社,兵庫県,尼崎市,武庫之荘東１丁目２５番１－１０２号,,28,202,6610032,,,,,,,2021-10-07,1,,,,,ノオラ,0
1550,5140001123302,新規,0,2021-10-07,2021-10-07,株式会社ネオワークス,,株式会社,兵庫県,揖保郡太子町,老原６００番地,,28,464,6711553,,,,,,,2021-10-07,1,,,,,ネオワークス,0
1551,5140001123310,新規,0,2021-10-07,2021-10-07,株式会社アール,,株式会社,兵庫県,姫路市,大津区真砂町１０８番地１,,28,201,6711134,,,,,,,2021-10-07,1,,,,,アール,0
1552,5140001123327,新規,0,2021-10-07,2021-10-07,株式会社ＴＡＧＧＥＲ　ＪＡＰＡＮ,,株式会社,兵庫県,尼崎市,七松町２丁目４番２２号,,28,202,6600052,,,,,,,2021-10-07,1,,,,,タガージャパン,0
1553,5140001123335,新規,0,2021-10-07,2021-10-07,株式会社ＫＡＮＥＭＡＳＡ,,株式会社,兵庫県,神戸市兵庫区,駅前通２丁目１番８－１０１６号,,28,105,6520898,,,,,,,2021-10-07,1,,,,,カネマサ,0
1554,5140003016834,新規,0,2021-10-07,2021-10-07,合同会社つながり,,合同会社,兵庫県,姫路市,下手野４丁目８番５２号,,28,201,6700063,,,,,,,2021-10-07,1,,,,,ツナガリ,0
1557,5150001024978,新規,0,2021-10-07,2021-10-07,株式会社ａｎｄＭＡＮ,,株式会社,奈良県,奈良市,三条本町９番地１,,29,201,6308122,,,,,,,2021-10-07,1,,,,,アンドマン,0
1558,5150001024994,新規,0,2021-10-07,2021-10-07,株式会社Ｓｍｉｌｅ,,株式会社,奈良県,北葛城郡王寺町,明神４丁目１５番２０号,,29,425,6360022,,,,,,,2021-10-07,1,,,,,スマイル,0
1559,5150005009331,新規,0,2021-10-07,2021-10-07,一般社団法人高取町しごとコンビニ,,その他の設立登記法人,奈良県,高市郡高取町,大字観覚寺９９０番地の１,,29,401,6350154,,,,,,,2021-10-07,1,,,,,タカトリチョウシゴトコンビニ,0
1576,5180001148139,新規,0,2021-10-07,2021-10-07,株式会社アリモ,,株式会社,愛知県,愛西市,勝幡町流２０８９番地１１,,23,232,4968001,,,,,,,2021-10-07,1,,,,,アリモ,0
1577,5180001148147,新規,0,2021-10-07,2021-10-07,株式会社フルコンテンツ,,株式会社,愛知県,海部郡大治町,大字長牧字中道３２番地の１,,23,424,4901131,,,,,,,2021-10-07,1,,,,,フルコンテンツ,0
1578,5180001148171,新規,0,2021-10-07,2021-10-07,株式会社ウィザード,,株式会社,愛知県,名古屋市昭和区,広路通４丁目６番地サンマンションアトレ御器所７０３号,,23,107,4660854,,,,,,,2021-10-07,1,,,,,ウィザード,0
1579,5180001148213,新規,0,2021-10-07,2021-10-07,株式会社ＭＩＳＡ　ＬＩＮＫ,,株式会社,愛知県,名古屋市守山区,瀬古１丁目６０９番地,,23,113,4630068,,,,,,,2021-10-07,1,,,,,ミサリンク,0
1583,5180003023050,新規,0,2021-10-07,2021-10-07,合同会社雅,,合同会社,愛知県,名古屋市緑区,潮見が丘２丁目４８番地,,23,114,4580037,,,,,,,2021-10-07,1,,,,,ミヤビ,0
1587,5190003003786,新規,0,2021-10-07,2021-10-07,Ｓｍｉｌｅｓｃｅｎｅ合同会社,,合同会社,三重県,志摩市,阿児町鵜方２２４９－３,,24,215,5170501,,,,,,,2021-10-07,1,,,,,スマイルシーン,0
1593,5220003003130,新規,0,2021-10-07,2021-10-07,合同会社クラウダー,,合同会社,石川県,加賀市,野田町キ１０２番地,,17,206,9220443,,,,,,,2021-10-07,1,,,,,クラウダー,0
1595,5230001019020,新規,0,2021-10-07,2021-10-07,株式会社美孝,,株式会社,富山県,射水市,三ケ１４１８番地４,,16,211,9390341,,,,,,,2021-10-07,1,,,,,ミタカ,0
1596,5230003001736,新規,0,2021-10-07,2021-10-07,合同会社シバ＆コンパニー,,合同会社,富山県,富山市,大場１１８番地,,16,201,9398103,,,,,,,2021-10-07,1,,,,,シバアンドコンパニー,0
1600,5250001019183,新規,0,2021-10-07,2021-10-07,株式会社中谷工務店,,株式会社,山口県,玖珂郡和木町,瀬田２丁目４番２９号,,35,321,7400062,,,,,,,2021-10-07,1,,,,,ナカタニコウムテン,0
1606,5260001036038,新規,0,2021-10-07,2021-10-07,株式会社ＺＥＲＯｔｏＯＮＥ,,株式会社,岡山県,岡山市北区,駅前町１丁目８番１号新光ビル５Ｆ,,33,101,7000023,,,,,,,2021-10-07,1,,,,,ゼロトゥワン,0
1615,5290001094933,新規,0,2021-10-07,2021-10-07,株式会社ｍｏｍｏｓｅ,,株式会社,福岡県,福岡市博多区,冷泉町２番９号１１０６クレアランドマーク,,40,132,8120039,,,,,,,2021-10-07,1,,,,,モモセ,0
1618,5300001012645,新規,0,2021-10-07,2021-10-07,株式会社どん亭,,株式会社,佐賀県,神埼郡吉野ヶ里町,吉田８３８番地３,,41,327,8420031,,,,,,,2021-10-07,1,,,,,ドンテイ,0
1628,5330003009067,新規,0,2021-10-07,2021-10-07,合同会社Ｆｅｅｌ,,合同会社,熊本県,菊池郡大津町,大字室１７２８番地１テクノ・ヴィラＮ２０８号室,,43,403,8691235,,,,,,,2021-10-07,1,,,,,フィール,0
1631,5350001017350,新規,0,2021-10-07,2021-10-07,ケンシンテクノ株式会社,,株式会社,宮崎県,都城市,鷹尾５丁目１０街区９の１号,,45,202,8850081,,,,,,,2021-10-07,1,,,,,ケンシンテクノ,0
1633,5360001029469,新規,0,2021-10-07,2021-10-07,八重瀬クラフト株式会社,,株式会社,沖縄県,島尻郡八重瀬町,字後原１１２８番地２,,47,362,9010504,,,,,,,2021-10-07,1,,,,,ヤエセクラフト,0
1634,5360001029477,新規,0,2021-10-07,2021-10-07,株式会社ｅ－ｂｉｋｅ－ｏｋｉｎａｗａ,,株式会社,沖縄県,那覇市,若狭１丁目９番１号,,47,201,9000031,,,,,,,2021-10-07,1,,,,,イーバイクオキナワ,0
1638,5370001047668,新規,0,2021-10-07,2021-10-07,株式会社Ｔ－Ｂａｓｅ,,株式会社,宮城県,本吉郡南三陸町,歌津字皿貝３８番地３,,04,606,9880467,,,,,,,2021-10-07,1,,,,,ティーベース,0
1639,5370001047692,新規,0,2021-10-07,2021-10-07,株式会社シェアーズ,,株式会社,宮城県,多賀城市,中央２丁目１０－１０Ｓ‐ＣＯＵＮＴＹ４０１,,04,209,9850873,,,,,,,2021-10-07,1,,,,,シェアーズ,0
1640,5370003005426,新規,0,2021-10-07,2021-10-07,合同会社木村設計事務所,,合同会社,宮城県,大崎市,古川北町５丁目３番１３号コートＳ北町１０２号,,04,215,9896171,,,,,,,2021-10-07,1,,,,,キムラセッケイジムショ,0
1645,5380005012485,新規,0,2021-10-07,2021-10-07,ファーリア社会保険労務士法人,,その他の設立登記法人,福島県,福島市,三河南町１番２０号コラッセふくしま６Ｆ,,07,201,9608053,,,,,,,2021-10-07,1,,,,,,0
1658,5430001085050,新規,0,2021-10-07,2021-10-07,株式会社福丸,,株式会社,北海道,札幌市中央区,南五条西３丁目１０番地グランド桂和ビル２Ｆ,,01,101,0640805,,,,,,,2021-10-07,1,,,,,フクマル,0
1659,5430001085067,新規,0,2021-10-07,2021-10-07,株式会社ＫＷＡ,,株式会社,北海道,空知郡南幌町,栄町４丁目４番７号,,01,423,0690237,,,,,,,2021-10-07,1,,,,,ケーダブリュエー,0
1660,5430001085109,新規,0,2021-10-07,2021-10-07,ＦＵＪＩ工業株式会社,,株式会社,北海道,石狩市,花川南七条３丁目１９番地スマイル７３Ｄ号室,,01,235,0613207,,,,,,,2021-10-07,1,,,,,フジコウギョウ,0
1661,5430001085117,新規,0,2021-10-07,2021-10-07,株式会社ヨシダ,,株式会社,北海道,札幌市白石区,本通９丁目南３番３号,,01,104,0030026,,,,,,,2021-10-07,1,,,,,ヨシダ,0
1662,5430001085125,新規,0,2021-10-07,2021-10-07,株式会社プラススタイル,,株式会社,北海道,札幌市豊平区,平岸四条１６丁目５番６号,,01,105,0620934,,,,,,,2021-10-07,1,,,,,プラススタイル,0
1663,5430005014311,新規,0,2021-10-07,2021-10-07,一般社団法人資産管理承継研究会,,その他の設立登記法人,北海道,苫小牧市,木場町２丁目１３番５号,,01,213,0530033,,,,,,,2021-10-07,1,,,,,シサンカンリショウケイケンキュウカイ,0
1669,5460401001232,新規,0,2021-10-07,2021-10-07,道東風力開発株式会社,,株式会社,北海道,根室市,昆布盛１４９番地１２,,01,223,0881784,,,,,,,2021-10-07,1,,,,,ドウトウフウリョクカイハツ,0
1670,5470001018758,新規,0,2021-10-07,2021-10-07,株式会社岡崎電気工業,00124488,株式会社,香川県,観音寺市,室本町１２５９番地５,,37,205,7680001,,,,,,,2021-10-07,1,,,,,オカザキデンキコウギョウ,0
1679,6010001221571,新規,0,2021-10-07,2021-10-07,株式会社Ｇｏｏｄ　Ｈｅａｌｔｈ　Ｍｅｔｈｏｄ研究所,,株式会社,東京都,千代田区,内幸町２丁目２番３号日比谷国際ビル地下２階,,13,101,1000011,,,,,,,2021-10-07,1,,,,,グッドヘルスメソッドケンキュウジョ,0
1680,6010001221596,新規,0,2021-10-07,2021-10-07,クリニプロホールディングス株式会社,,株式会社,東京都,中央区,日本橋３丁目２番９号,,13,102,1030027,,,,,,,2021-10-07,1,,,,,クリニプロホールディングス,0
1689,6010401163042,新規,0,2021-10-07,2021-10-07,フューチャーストリーム株式会社,,株式会社,東京都,港区,港南２丁目１６番１号品川イーストワンタワー４Ｆ,,13,103,1080075,,,,,,,2021-10-07,1,,,,,フューチャーストリーム,0
1691,6010501047896,新規,0,2021-10-07,2021-10-07,株式会社ＥｎｇｌｉｓｈＣｅｎｔｒａｌ　ＪＡＰＡＮ,,株式会社,東京都,台東区,花川戸１丁目２番６号,,13,106,1110033,,,,,,,2021-10-07,1,,,,,イングリッシュセントラルジャパン,0
1694,6010601060015,新規,0,2021-10-07,2021-10-07,株式会社ファストウェイ,,株式会社,東京都,江東区,門前仲町２丁目９番５号,,13,108,1350048,,,,,,,2021-10-07,1,,,,,ファストウェイ,0
1695,6010601060023,新規,0,2021-10-07,2021-10-07,株式会社Ｒ．Ｈ．Ｋ,,株式会社,東京都,江東区,扇橋１丁目１４番８号,,13,108,1350011,,,,,,,2021-10-07,1,,,,,アールエイチケイ,0
1696,6010601060031,新規,0,2021-10-07,2021-10-07,清昶株式会社,,株式会社,東京都,墨田区,横川３丁目６番７号３－Ｂ室,,13,107,1300003,,,,,,,2021-10-07,1,,,,,セイチョウ,0
1697,6010601060048,新規,0,2021-10-07,2021-10-07,株式会社スワロー,,株式会社,東京都,江東区,南砂２丁目３番６－９１６号,,13,108,1360076,,,,,,,2021-10-07,1,,,,,スワロー,0
1699,6010603009183,新規,0,2021-10-07,2021-10-07,合同会社Ｓｈｉｎｉｎｇ　Ｏｎｅ,,合同会社,東京都,江東区,豊洲３丁目４番１－２４０１号,,13,108,1350061,,,,,,,2021-10-07,1,,,,,シャイニングワン,0
1701,6010701041609,新規,0,2021-10-07,2021-10-07,株式会社ＬＡＳＴ　ＡＤＶＩＳＯＲ,,株式会社,東京都,品川区,上大崎３丁目５番８－１７０３号,,13,109,1410021,,,,,,,2021-10-07,1,,,,,ラストアドバイザー,0
1705,6010801032383,新規,0,2021-10-07,2021-10-07,株式会社ベッツアイランド,,株式会社,東京都,大田区,仲六郷４丁目３２番１３号,,13,111,1440055,,,,,,,2021-10-07,1,,,,,ベッツアイランド,0
1707,6010803003903,新規,0,2021-10-07,2021-10-07,合同会社将棋放浪記,,合同会社,東京都,大田区,蒲田４丁目３２番４号,,13,111,1440052,,,,,,,2021-10-07,1,,,,,ショウギホウロウキ,0
1708,6010803003911,新規,0,2021-10-07,2021-10-07,合同会社ＹＮＲ,,合同会社,東京都,大田区,南馬込６丁目１２番４号,,13,111,1430025,,,,,,,2021-10-07,1,,,,,ワイエヌアール,0
1714,6011001143104,新規,0,2021-10-07,2021-10-07,ｅｎｔｅｒ　ｃｒｅｗｓ株式会社,,株式会社,東京都,渋谷区,神南１丁目１３番８号パーク・アヴェニュー神南５０３,,13,113,1500041,,,,,,,2021-10-07,1,,,,,,0
1715,6011001143153,新規,0,2021-10-07,2021-10-07,株式会社Ａｄｄ　ｇｒｏｗｉｎｇ,,株式会社,東京都,渋谷区,渋谷２丁目１９－１５宮益坂ビルディング６０９,,13,113,1500002,,,,,,,2021-10-07,1,,,,,アドグロウイング,0
1716,6011001143161,新規,0,2021-10-07,2021-10-07,株式会社ｍｏｋｕ,,株式会社,東京都,渋谷区,初台２丁目１６－２１,,13,113,1510061,,,,,,,2021-10-07,1,,,,,モク,0
1717,6011001143178,新規,0,2021-10-07,2021-10-07,株式会社Ｔａｓｈｉｎａｍｉ,,株式会社,東京都,渋谷区,神宮前６丁目１７－１５落合原宿ビル,,13,113,1500001,,,,,,,2021-10-07,1,,,,,タシナミ,0
1718,6011001143211,新規,0,2021-10-07,2021-10-07,株式会社スパイグラス・エージェント,,株式会社,東京都,目黒区,上目黒５丁目２６番２１号,,13,110,1530051,,,,,,,2021-10-07,1,,,,,スパイグラスエージェント,0
1719,6011001143228,新規,0,2021-10-07,2021-10-07,株式会社Ｔｈ－ｒｅｅ,,株式会社,東京都,渋谷区,渋谷１丁目８番３号ＴＯＣ第一ビル７階,,13,113,1500002,,,,,,,2021-10-07,1,,,,,スリー,0
1720,6011001143269,新規,0,2021-10-07,2021-10-07,Ｎｏｖｏｘｅｌ　Ｊａｐａｎ株式会社,,株式会社,東京都,渋谷区,千駄ヶ谷５丁目２７番５号リンクスクエア新宿１６階,,13,113,1510051,,,,,,,2021-10-07,1,,,,,ノボクセルジャパン,0
1721,6011001143277,新規,0,2021-10-07,2021-10-07,株式会社ＷＩＴＨ　ＡＲＩＳＥ,,株式会社,東京都,渋谷区,神宮前６丁目２３番４号桑野ビル２階,,13,113,1500001,,,,,,,2021-10-07,1,,,,,ウィズアライズ,0
1722,6011001143343,新規,0,2021-10-07,2021-10-07,株式会社ＰＲｉＴ,,株式会社,東京都,渋谷区,神宮前６丁目２３番４号桑野ビル２階,,13,113,1500001,,,,,,,2021-10-07,1,,,,,プリット,0
1723,6011005009235,新規,0,2021-10-07,2021-10-07,特定非営利活動法人ＲＯＯＦ,,その他の設立登記法人,東京都,渋谷区,神宮前６丁目２３番４号桑野ビル２階,,13,113,1500001,,,,,,,2021-10-07,1,,,,,ルーフ,0
1727,6011101096490,新規,0,2021-10-07,2021-10-07,株式会社ＫＩＰＫＩＰ．ｄｅｓｉｇｎ,,株式会社,東京都,新宿区,袋町５番地１,,13,104,1620828,,,,,,,2021-10-07,1,,,,,キップキップデザイン,0
1728,6011103011068,新規,0,2021-10-07,2021-10-07,ハブコ合同会社,,合同会社,東京都,新宿区,大久保１丁目３番２２号,,13,104,1690072,,,,,,,2021-10-07,1,,,,,ハブコ,0
1729,6011105010002,新規,0,2021-10-07,2021-10-07,一般社団法人日本伎藝文化振興会,,その他の設立登記法人,東京都,新宿区,西新宿７丁目４番３号,,13,104,1600023,,,,,,,2021-10-07,1,,,,,,0
1731,6011203003659,新規,0,2021-10-07,2021-10-07,ＳＡＳ合同会社,,合同会社,東京都,中野区,江原町１丁目３７番１４１４号,,13,114,1650023,,,,,,,2021-10-07,1,,,,,エスエーエス,0
1734,6011401023723,新規,0,2021-10-07,2021-10-07,株式会社Ａｌｂｅｒｏ,,株式会社,東京都,板橋区,成増２丁目１０番地３号三栄ドメール１３０１,,13,119,1750094,,,,,,,2021-10-07,1,,,,,アルベロ,0
1740,6011801039765,新規,0,2021-10-07,2021-10-07,ＩＣＩ土地建物株式会社,,株式会社,東京都,足立区,保木間４丁目４５番１６号,,13,121,1210064,,,,,,,2021-10-07,1,,,,,アイシーアイトチタテモノ,0
1741,6011801039798,新規,0,2021-10-07,2021-10-07,ＧＬ株式会社,,株式会社,東京都,足立区,東伊興２丁目１７番２－２０２号,,13,121,1210801,,,,,,,2021-10-07,1,,,,,ジーエル,0
1743,6012301012725,新規,0,2021-10-07,2021-10-07,株式会社８３,,株式会社,東京都,町田市,成瀬が丘３丁目１７２７番１４号,,13,209,1940011,,,,,,,2021-10-07,1,,,,,ハチサン,0
1744,6012401038356,新規,0,2021-10-07,2021-10-07,株式会社モーベルマン,,株式会社,東京都,府中市,四谷６丁目５６番３号３階,,13,206,1830035,,,,,,,2021-10-07,1,,,,,モーベルマン,0
1745,6012401038380,新規,0,2021-10-07,2021-10-07,株式会社もりやまえくすてりあ,,株式会社,東京都,稲城市,平尾４丁目６－１６,,13,225,2060823,,,,,,,2021-10-07,1,,,,,モリヤマエクステリア,0
1746,6012401038389,新規,0,2021-10-07,2021-10-07,株式会社演多面,,株式会社,東京都,武蔵野市,吉祥寺南町２丁目４番７号吉祥寺ソシアルビルＢ３０３,,13,203,1800003,,,,,,,2021-10-07,1,,,,,エンタメ,0
1749,6012403005057,新規,0,2021-10-07,2021-10-07,合同会社おりがみカンパニー,,合同会社,東京都,小金井市,梶野町１丁目２番３６号,,13,210,1840002,,,,,,,2021-10-07,1,,,,,オリガミカンパニー,0
1754,6013303005840,新規,0,2021-10-07,2021-10-07,Ｓｔａｒｆｒｏｓｔ合同会社,,合同会社,東京都,豊島区,上池袋１丁目１１－５,,13,116,1700012,,,,,,,2021-10-07,1,,,,,スターフロスト,0
1757,6020001143278,新規,0,2021-10-07,2021-10-07,株式会社あっぷっぷ,,株式会社,神奈川県,横浜市西区,北幸１丁目１１番１号水信ビル７階,,14,103,2200004,,,,,,,2021-10-07,1,,,,,アップップ,0
1758,6020001143385,新規,0,2021-10-07,2021-10-07,ジール・フォトスタジオ株式会社,,株式会社,神奈川県,川崎市中原区,新丸子東２丁目８９８番５１号,,14,133,2110004,,,,,,,2021-10-07,1,,,,,ジールフォトスタジオ,0
1762,6020003020599,新規,0,2021-10-07,2021-10-07,合同会社ひこぼしのこころ,,合同会社,神奈川県,川崎市川崎区,旭町２丁目７番９号宮原ビル２０２,,14,131,2100808,,,,,,,2021-10-07,1,,,,,ヒコボシノココロ,0
1766,6021001074141,新規,0,2021-10-07,2021-10-07,株式会社オフィスリング,,株式会社,神奈川県,藤沢市,長後５７３番地の２,,14,205,2520801,,,,,,,2021-10-07,1,,,,,オフィスリング,0
1767,6021001074158,新規,0,2021-10-07,2021-10-07,株式会社藤井商会,,株式会社,神奈川県,厚木市,妻田東２丁目２番３号,,14,212,2430813,,,,,,,2021-10-07,1,,,,,フジイショウカイ,0
1769,6021005012312,新規,0,2021-10-07,2021-10-07,社会保険労務士法人広瀬事務所,,その他の設立登記法人,神奈川県,藤沢市,朝日町１２番地の１２ヴォールマンション２階,,14,205,2510054,,,,,,,2021-10-07,1,,,,,ヒロセジムショ,0
1775,6030001144606,新規,0,2021-10-07,2021-10-07,株式会社ｍｉｌｉｅｕ,,株式会社,埼玉県,加須市,下樋遣川１４８２番地１,00124490,11,210,3470005,,,,,,,2021-10-07,1,,,,,ミリュー,0
1776,6030001144614,新規,0,2021-10-07,2021-10-07,株式会社ひなたや,,株式会社,埼玉県,桶川市,下日出谷東１丁目４６番地の５,,11,231,3630029,,,,,,,2021-10-07,1,,,,,ヒナタヤ,0
1777,6030001144738,新規,0,2021-10-07,2021-10-07,株式会社ネオシステム,,株式会社,埼玉県,児玉郡上里町,大字三町５３１番地４,,11,385,3690314,,,,,,,2021-10-07,1,,,,,ネオシステム,0
1778,6030001144746,新規,0,2021-10-07,2021-10-07,アート株式会社,,株式会社,埼玉県,南埼玉郡宮代町,東姫宮１丁目１３番２号,,11,442,3450813,,,,,,,2021-10-07,1,,,,,アート,0
1779,6030001144770,新規,0,2021-10-07,2021-10-07,エシカルファーム株式会社,,株式会社,埼玉県,さいたま市北区,宮原町２丁目１０９番地２０千宝ビル３階,,11,102,3310812,,,,,,,2021-10-07,1,,,,,エシカルファーム,0
1782,6030003018080,新規,0,2021-10-07,2021-10-07,合同会社ＫＡＮＡＭＥ,,合同会社,埼玉県,戸田市,美女木４丁目１９－１５,,11,224,3350031,,,,,,,2021-10-07,1,,,,,カナメ,0
1787,6040001120457,新規,0,2021-10-07,2021-10-07,株式会社ＫａＺ,,株式会社,千葉県,松戸市,根本３２０－１－６０１,,12,207,2710077,,,,,,,2021-10-07,1,,,,,カズ,0
1788,6040001120481,新規,0,2021-10-07,2021-10-07,株式会社アイクトワン,,株式会社,千葉県,船橋市,三山５丁目３２番１号,,12,204,2740072,,,,,,,2021-10-07,1,,,,,アイクトワン,0
1799,6050001049951,新規,0,2021-10-07,2021-10-07,株式会社光梁,,株式会社,茨城県,牛久市,ひたち野西４丁目２５番地５,,08,219,3001206,,,,,,,2021-10-07,1,,,,,コウリョウ,0
1801,6050003006125,新規,0,2021-10-07,2021-10-07,住まいるプラス合同会社,,合同会社,茨城県,取手市,ゆめみ野５丁目１２番地２,,08,217,3020039,,,,,,,2021-10-07,1,,,,,スマイルプラス,0
1802,6060001034168,新規,0,2021-10-07,2021-10-07,株式会社マンタップ,,株式会社,栃木県,宇都宮市,陽東４丁目９番１７号,,09,201,3210904,,,,,,,2021-10-07,1,,,,,マンタップ,0
1810,6070001038515,新規,0,2021-10-07,2021-10-07,株式会社さおとめ事務サポート,,株式会社,群馬県,伊勢崎市,上諏訪町２１１１番地６,,10,204,3720021,,,,,,,2021-10-07,1,,,,,サオトメジムサポート,0
1812,6080101022822,新規,0,2021-10-07,2021-10-07,日伸株式会社,,株式会社,静岡県,伊東市,宇佐美１６１１番地の３５,,22,208,4140001,,,,,,,2021-10-07,1,,,,,ニッシン,0
1816,6080103002434,新規,0,2021-10-07,2021-10-07,合同会社ＯＢＯＲＯ,,合同会社,静岡県,沼津市,石川４８４－３,,22,203,4100317,,,,,,,2021-10-07,1,,,,,オボロ,0
1822,6100001034700,新規,0,2021-10-07,2021-10-07,シーエステクノ株式会社,,株式会社,長野県,長野市,稲里町田牧１３３番地３６,,20,201,3812214,,,,,,,2021-10-07,1,,,,,シーエステクノ,0
1826,6110001036101,新規,0,2021-10-07,2021-10-07,株式会社南企画,,株式会社,新潟県,新潟市江南区,元町５丁目１番２４号,,15,104,9500143,,,,,,,2021-10-07,1,,,,,ミナミキカク,0
1835,6120001240817,新規,0,2021-10-07,2021-10-07,プリントビズ株式会社,,株式会社,大阪府,大阪市中央区,上町１丁目１９番４号,,27,128,5400005,,,,,,,2021-10-07,1,,,,,プリントビズ,0
1836,6120001240866,新規,0,2021-10-07,2021-10-07,ワークプラス株式会社,,株式会社,大阪府,大阪市西区,江戸堀２丁目１番１号江戸堀センタービルＢ１－３０,,27,106,5500002,,,,,,,2021-10-07,1,,,,,ワークプラス,0
1837,6120001240890,新規,0,2021-10-07,2021-10-07,大峰温泉株式会社,,株式会社,大阪府,大阪市平野区,平野南１丁目９番２５号,,27,126,5470031,,,,,,,2021-10-07,1,,,,,オオミネオンセン,0
1838,6120001240908,新規,0,2021-10-07,2021-10-07,株式会社ＮＯＮ　ＦＩＣＴＩＯＮ,,株式会社,大阪府,大阪市福島区,玉川１丁目５－４－５０４,,27,103,5530004,,,,,,,2021-10-07,1,,,,,ノンフィクション,0
1839,6120001240916,新規,0,2021-10-07,2021-10-07,安進電商株式会社,,株式会社,大阪府,大阪市此花区,西九条１丁目３番３号,,27,104,5540012,,,,,,,2021-10-07,1,,,,,アンシンデンショウ,0
1840,6120001240924,新規,0,2021-10-07,2021-10-07,株式会社管理ＰＬＵＳ,,株式会社,大阪府,大阪市浪速区,難波中３丁目１４番１６号,,27,111,5560011,,,,,,,2021-10-07,1,,,,,カンリプラス,0
1841,6120001240932,新規,0,2021-10-07,2021-10-07,＿英国際株式会社,00124495,株式会社,大阪府,大阪市生野区,巽北１丁目２１番２９－２１２号,00124496,27,116,5440004,,,,,,,2021-10-07,1,,,,,ガイエイコクサイ,0
1842,6120001240957,新規,0,2021-10-07,2021-10-07,リライズ株式会社,,株式会社,大阪府,大阪市鶴見区,浜３丁目２番５号,,27,124,5380035,,,,,,,2021-10-07,1,,,,,リライズ,0
1843,6120001240965,新規,0,2021-10-07,2021-10-07,ＯＣＥＡＮ　ＤＲＥＡＭ株式会社,,株式会社,大阪府,大阪市西区,北堀江１丁目２番１９号,,27,106,5500014,,,,,,,2021-10-07,1,,,,,オーシャンドリーム,0
1844,6120001240973,新規,0,2021-10-07,2021-10-07,株式会社ＰＩＧＣＥＲＩＯ,,株式会社,大阪府,大阪市阿倍野区,阪南町１丁目３７番１７号,,27,119,5450021,,,,,,,2021-10-07,1,,,,,ピグチェリオ,0
1847,6120003020358,新規,0,2021-10-07,2021-10-07,合同会社ＭＯＢＹ　ＤＩＣＫ,,合同会社,大阪府,大阪市天王寺区,空堀町１１番８号,,27,109,5430012,,,,,,,2021-10-07,1,,,,,モビーディック,0
1848,6120003020374,新規,0,2021-10-07,2021-10-07,合同会社ネクストビジョン,,合同会社,大阪府,大阪市北区,梅田１丁目２番２－２００号大阪駅前第２ビル２階３の１の２,,27,127,5300001,,,,,,,2021-10-07,1,,,,,ネクストビジョン,0
1853,6120101064406,新規,0,2021-10-07,2021-10-07,株式会社ＯＺＰＬＡＮ,,株式会社,大阪府,堺市美原区,平尾１８９８番地１１,,27,147,5870022,,,,,,,2021-10-07,1,,,,,オズプラン,0
1854,6120101064422,新規,0,2021-10-07,2021-10-07,株式会社ＡｒｃｈｉＨｏｕｓｅ,,株式会社,大阪府,泉佐野市,上町３丁目９番２６号,,27,213,5980007,,,,,,,2021-10-07,1,,,,,アーキハウス,0
1858,6120903003858,新規,0,2021-10-07,2021-10-07,ウェルブ合同会社,,合同会社,大阪府,箕面市,粟生間谷東７丁目１１番３号,,27,220,5620022,,,,,,,2021-10-07,1,,,,,ウェルブ,0
1866,6130001070222,新規,0,2021-10-07,2021-10-07,株式会社伏見設計,,株式会社,京都府,京都市下京区,梅小路西中町１１－２メゾンマロニエＴー１０１,,26,106,6008854,,,,,,,2021-10-07,1,,,,,フシミセッケイ,0
1867,6130001070296,新規,0,2021-10-07,2021-10-07,スキマワールド株式会社,,株式会社,京都府,宇治市,炭山別所１９番地１,,26,204,6011395,,,,,,,2021-10-07,1,,,,,スキマワールド,0
1868,6130003007536,新規,0,2021-10-07,2021-10-07,合同会社マハロ,,合同会社,京都府,京都市東山区,粟田口三条坊町２１番地１－１０５号,,26,105,6050035,,,,,,,2021-10-07,1,,,,,マハロ,0
1878,6140001123152,新規,0,2021-10-07,2021-10-07,ライノクリエイティブ株式会社,,株式会社,兵庫県,神戸市灘区,鶴甲１丁目５－３コート六甲鶴甲１００２,,28,102,6570011,,,,,,,2021-10-07,1,,,,,ライノクリエイティブ,0
1879,6140001123276,新規,0,2021-10-07,2021-10-07,株式会社窪田鉄筋,,株式会社,兵庫県,伊丹市,野間４丁目７番１４号,,28,207,6640873,,,,,,,2021-10-07,1,,,,,クボタテッキン,0
1880,6140001123292,新規,0,2021-10-07,2021-10-07,株式会社ＲｅＫ,,株式会社,兵庫県,神戸市北区,山田町下谷上字下の勝１１番地の１０,,28,109,6511243,,,,,,,2021-10-07,1,,,,,レック,0
1881,6140001123301,新規,0,2021-10-07,2021-10-07,株式会社カスタムショップノムラ,,株式会社,兵庫県,姫路市,飾磨区都倉２丁目１１９番地,,28,201,6728046,,,,,,,2021-10-07,1,,,,,カスタムショップノムラ,0
1882,6140001123326,新規,0,2021-10-07,2021-10-07,株式会社カクモト,,株式会社,兵庫県,赤穂市,御崎１６４番地２ロイヤルヴァンベール赤穂御崎１０４,,28,212,6780215,,,,,,,2021-10-07,1,,,,,カクモト,0
1883,6140001123334,新規,0,2021-10-07,2021-10-07,株式会社芳樹園,,株式会社,兵庫県,宝塚市,口谷東１丁目２４番１号,,28,214,6650812,,,,,,,2021-10-07,1,,,,,ホウジュエン,0
1884,6140001123342,新規,0,2021-10-07,2021-10-07,株式会社ＫＫＭフィルターハウジング製作所,,株式会社,兵庫県,神戸市兵庫区,西仲町１番１１号,,28,105,6520835,,,,,,,2021-10-07,1,,,,,ケーケーエムフィルターハウジングセイサクショ,0
1885,6140001123359,新規,0,2021-10-07,2021-10-07,株式会社ＴＤＴ,,株式会社,兵庫県,神戸市兵庫区,駅南通５丁目２番７－８０９号,,28,105,6520897,,,,,,,2021-10-07,1,,,,,ティーディーティー,0
1886,6140001123367,新規,0,2021-10-07,2021-10-07,株式会社ＶＥＧＡ,,株式会社,兵庫県,神戸市兵庫区,大開通１丁目１－１６シンプルライフ新開地２階,,28,105,6520803,,,,,,,2021-10-07,1,,,,,ヴィーガ,0
1890,6140003016825,新規,0,2021-10-07,2021-10-07,合同会社ライブスポットアロー,,合同会社,兵庫県,西宮市,上大市２丁目１４番１９号ガーデンテラス甲東園ＩＩ２０３,00124489,28,204,6638003,,,,,,,2021-10-07,1,,,,,ライブスポットアロー,0
1891,6160001023706,新規,0,2021-10-07,2021-10-07,株式会社翔陽,,株式会社,滋賀県,野洲市,吉地１３２７番地２,,25,210,5202413,,,,,,,2021-10-07,1,,,,,ショウヨウ,0
1895,6180001148047,新規,0,2021-10-07,2021-10-07,株式会社スピンヘブン,,株式会社,愛知県,名古屋市中村区,名駅４丁目６番２３号,,23,105,4500002,,,,,,,2021-10-07,1,,,,,スピンヘブン,0
1896,6180001148096,新規,0,2021-10-07,2021-10-07,株式会社Ｃｅｒｅｓ,,株式会社,愛知県,小牧市,大字舟津６０７番地４,,23,219,4850073,,,,,,,2021-10-07,1,,,,,セレス,0
1897,6180001148105,新規,0,2021-10-07,2021-10-07,株式会社トップバランス,,株式会社,愛知県,知多郡武豊町,大字冨貴字臓ノ内３４番地１４,,23,447,4702531,,,,,,,2021-10-07,1,,,,,トップバランス,0
1898,6180001148146,新規,0,2021-10-07,2021-10-07,株式会社ナイトウ,,株式会社,愛知県,名古屋市天白区,焼山１丁目７１４番地の４,,23,116,4680002,,,,,,,2021-10-07,1,,,,,ナイトウ,0
1907,6180005019459,新規,0,2021-10-07,2021-10-07,土地家屋調査士法人成田事務所,,その他の設立登記法人,愛知県,名古屋市熱田区,伝馬２丁目２８番１号,,23,109,4560034,,,,,,,2021-10-07,1,,,,,ナリタジムショ,0
1911,6180301035432,新規,0,2021-10-07,2021-10-07,アスク株式会社,,株式会社,愛知県,豊橋市,大岩町字岩田１１番地１,,23,201,4413147,,,,,,,2021-10-07,1,,,,,アスク,0
1913,6180303005128,新規,0,2021-10-07,2021-10-07,いけの家合同会社,,合同会社,愛知県,豊田市,乙ケ林町上石原２４９,,23,211,4700552,,,,,,,2021-10-07,1,,,,,イケノヤ,0
1923,6220001024466,新規,0,2021-10-07,2021-10-07,株式会社Ｍ’ｓ企画,,株式会社,石川県,金沢市,此花町１番４３号ライオンズマンション第２・２０３号,,17,201,9200852,,,,,,,2021-10-07,1,,,,,エムズキカク,0
1924,6230001019011,新規,0,2021-10-07,2021-10-07,株式会社ＪＳＴ技研,,株式会社,富山県,黒部市,宇奈月町浦山６５８番地,,16,207,9380862,,,,,,,2021-10-07,1,,,,,ジェイエスティギケン,0
1930,6250001019182,新規,0,2021-10-07,2021-10-07,株式会社ｎｅｍｏｆｉｒａ,,株式会社,山口県,下関市,一の宮町２丁目１番１８－８０５号,,35,201,7510806,,,,,,,2021-10-07,1,,,,,ネモフィラ,0
1933,6260001036029,新規,0,2021-10-07,2021-10-07,株式会社エイト,,株式会社,岡山県,津山市,鉄砲町１６１番地６,,33,203,7080041,,,,,,,2021-10-07,1,,,,,エイト,0
1939,6290001094932,新規,0,2021-10-07,2021-10-07,株式会社ＣＡＭＥＬ　ＴＲＯＰＨＹ,,株式会社,福岡県,福岡市博多区,博多駅前３丁目７番３５号博多ハイテックビル５０５,,40,132,8120011,,,,,,,2021-10-07,1,,,,,キャメルトロフィー,0
1942,6300001012652,新規,0,2021-10-07,2021-10-07,株式会社はた寿し,,株式会社,佐賀県,唐津市,西寺町４８２番地１,,41,202,8470815,,,,,,,2021-10-07,1,,,,,ハタズシ,0
1943,6300003001728,新規,0,2021-10-07,2021-10-07,リアクト合同会社,,合同会社,佐賀県,小城市,三日月町長神田８９６番地１０,,41,208,8450021,,,,,,,2021-10-07,1,,,,,リアクト,0
1949,6320001018656,新規,0,2021-10-07,2021-10-07,株式会社ＡＳＵＣＲＥＡＴＥ,,株式会社,大分県,大分市,大字三芳２０６０番地の２,,44,201,8700030,,,,,,,2021-10-07,1,,,,,アスクリエイト,0
1950,6320005009924,新規,0,2021-10-07,2021-10-07,社会保険労務士法人Ｙｏｕ＆Ｉ,,その他の設立登記法人,大分県,別府市,大字鶴見４５４６番地の４２０,,44,202,8740840,,,,,,,2021-10-07,1,,,,,ユウアンドアイ,0
1956,6350001017341,新規,0,2021-10-07,2021-10-07,株式会社だいきち,,株式会社,宮崎県,西都市,妻町３丁目１０１番地,,45,208,8810034,,,,,,,2021-10-07,1,,,,,ダイキチ,0
1957,6360001029476,新規,0,2021-10-07,2021-10-07,沖縄トランプ株式会社,,株式会社,沖縄県,那覇市,久茂地２丁目２番２号タイムスビル２階,,47,201,9000015,,,,,,,2021-10-07,1,,,,,オキナワトランプ,0
1960,6370001047659,新規,0,2021-10-07,2021-10-07,株式会社東北令和会,,株式会社,宮城県,栗原市,志波姫北郷竹の内３０番地,,04,213,9895605,,,,,,,2021-10-07,1,,,,,トウホクレイワカイ,0
1961,6370001047667,新規,0,2021-10-07,2021-10-07,Ｋ－ｅａｇ株式会社,,株式会社,宮城県,仙台市太白区,泉崎２丁目１１番１３号,,04,104,9820031,,,,,,,2021-10-07,1,,,,,ケーイーグ,0
1962,6370001047683,新規,0,2021-10-07,2021-10-07,株式会社青葉,,株式会社,宮城県,石巻市,門脇字元浦屋敷５１番地６,,04,202,9860853,,,,,,,2021-10-07,1,,,,,アオバ,0
1963,6370005010357,新規,0,2021-10-07,2021-10-07,一般社団法人モロマネジメント,,その他の設立登記法人,宮城県,仙台市青葉区,中央２丁目１０番１７号,,04,101,9800021,,,,,,,2021-10-07,1,,,,,モロマネジメント,0
1972,6390001016620,新規,0,2021-10-07,2021-10-07,株式会社土屋設備,,株式会社,山形県,天童市,仲町１丁目３番３６号,,06,210,9940045,,,,,,,2021-10-07,1,,,,,ツチヤセツビ,0
1977,6390003001876,新規,0,2021-10-07,2021-10-07,合同会社コスモロジパル,,合同会社,山形県,寒河江市,大字柴橋２０９７番地の５,,06,206,9910063,,,,,,,2021-10-07,1,,,,,コスモロジパル,0
1982,6410003003580,新規,0,2021-10-07,2021-10-07,合同会社Ｙｕ－ａ　Ｄｒｅａｍ,,合同会社,秋田県,秋田市,中通２丁目２－３２,,05,201,0100001,,,,,,,2021-10-07,1,,,,,ユアドリーム,0
1986,6430001085099,新規,0,2021-10-07,2021-10-07,株式会社ＭＴエステート,,株式会社,北海道,札幌市豊平区,美園八条７丁目１番３号,,01,105,0620008,,,,,,,2021-10-07,1,,,,,エムティーエステート,0
1987,6430001085108,新規,0,2021-10-07,2021-10-07,Ｎｉｓｅｋｏ　Ｃａｓｔｌｅ　Ｅｎｔｅｒｐｒｉｓｅｓ株式会社,,株式会社,北海道,虻田郡倶知安町,字山田１５５番地２４５,,01,400,0440081,,,,,,,2021-10-07,1,,,,,ニセコキャッスルエンタープライジズ,0
1988,6430001085124,新規,0,2021-10-07,2021-10-07,株式会社ＮＥＷ　ＷＡＬＬ,,株式会社,北海道,小樽市,稲穂５丁目１番１０３号メゾン・ド・アラカルト稲穂,,01,203,0470032,,,,,,,2021-10-07,1,,,,,ニューウォール,0
1990,6430005014310,新規,0,2021-10-07,2021-10-07,特定非営利活動法人あきらめない,,その他の設立登記法人,北海道,札幌市中央区,南八条西３丁目７番４０号,,01,101,0640808,,,,,,,2021-10-07,1,,,,,アキラメナイ,0
1995,6460101007066,新規,0,2021-10-07,2021-10-07,株式会社エース,,株式会社,北海道,帯広市,西一条南１０丁目１番地３,,01,207,0800011,,,,,,,2021-10-07,1,,,,,エース,0
2011,7010001221554,新規,0,2021-10-07,2021-10-07,人・夢・技術グループ株式会社,,株式会社,東京都,中央区,日本橋蛎殻町１丁目２０番４号,,13,102,1030014,,,,,,,2021-10-07,1,,,,,ヒトユメギジュツグループ,0
2012,7010001221562,新規,0,2021-10-07,2021-10-07,異世界フロンティア株式会社,,株式会社,東京都,千代田区,外神田３丁目６番１号,,13,101,1010021,,,,,,,2021-10-07,1,,,,,イセカイフロンティア,0
2013,7010001221579,新規,0,2021-10-07,2021-10-07,株式会社ホームトリマー,,株式会社,東京都,千代田区,平河町２丁目５番３号,,13,101,1020093,,,,,,,2021-10-07,1,,,,,ホームトリマー,0
2014,7010001221587,新規,0,2021-10-07,2021-10-07,株式会社Ｇパートナーズ,,株式会社,東京都,文京区,本駒込６丁目８番１４号,,13,105,1130021,,,,,,,2021-10-07,1,,,,,ジーパートナーズ,0
2015,7010001221653,新規,0,2021-10-07,2021-10-07,ベアラックストラベル株式会社,,株式会社,東京都,千代田区,丸の内２丁目２番１号６階,,13,101,1000005,,,,,,,2021-10-07,1,,,,,ベアラックストラベル,0
2018,7010003035969,新規,0,2021-10-07,2021-10-07,合同会社アクリートキャピタル,,合同会社,東京都,千代田区,神田小川町３丁目２８番５号,,13,101,1010052,,,,,,,2021-10-07,1,,,,,アクリートキャピタル,0
2021,7010105002132,新規,0,2021-10-07,2021-10-07,医療法人社団学びの杜,,その他の設立登記法人,東京都,八王子市,松木４８番地１０グランドゥール１階,,13,201,1920362,,,,,,,2021-10-07,1,,,,,マナビノモリ,0
2026,7010403026254,新規,0,2021-10-07,2021-10-07,ｆｕｍｉ　ｆｕｍｉ合同会社,,合同会社,東京都,港区,南青山２丁目２番１５号,,13,103,1070062,,,,,,,2021-10-07,1,,,,,フミフミ,0
2028,7010501047929,新規,0,2021-10-07,2021-10-07,ＯＫアレンジ株式会社,,株式会社,東京都,台東区,小島２丁目２番５号,,13,106,1110056,,,,,,,2021-10-07,1,,,,,オーケーアレンジ,0
2032,7010601060006,新規,0,2021-10-07,2021-10-07,株式会社ＳＫＧ,,株式会社,東京都,江東区,豊洲３丁目５番３号豊洲レジデンスＤ－３４０,,13,108,1350061,,,,,,,2021-10-07,1,,,,,エスケージー,0
2033,7010601060022,新規,0,2021-10-07,2021-10-07,Ｃｏｌｏｒｌｅｓｓ株式会社,,株式会社,東京都,墨田区,太平４丁目１番１－９０６号,,13,107,1300012,,,,,,,2021-10-07,1,,,,,カラーレス,0
2034,7010601060030,新規,0,2021-10-07,2021-10-07,アイティサポート城東株式会社,,株式会社,東京都,江東区,北砂５丁目８－５－３０２号,,13,108,1360073,,,,,,,2021-10-07,1,,,,,アイティサポートジョウトウ,0
2035,7010601060047,新規,0,2021-10-07,2021-10-07,株式会社錦泰エステート,,株式会社,東京都,墨田区,両国２丁目１１番１号,,13,107,1300026,,,,,,,2021-10-07,1,,,,,キンタイエステート,0
2038,7010603009190,新規,0,2021-10-07,2021-10-07,合同会社Ｂｅｌｉｅｖｅ,,合同会社,東京都,江東区,亀戸９丁目３４－１－３０３,,13,108,1360071,,,,,,,2021-10-07,1,,,,,ビリーブ,0
2047,7010801032374,新規,0,2021-10-07,2021-10-07,株式会社Ｓｗｉｍ,,株式会社,東京都,大田区,大森南５丁目３番１６－４０２号,,13,111,1430013,,,,,,,2021-10-07,1,,,,,スイム,0
2048,7010801032382,新規,0,2021-10-07,2021-10-07,株式会社１２３,,株式会社,東京都,大田区,西糀谷３丁目４２番６号,,13,111,1440034,,,,,,,2021-10-07,1,,,,,ヒフミ,0
2049,7010803003910,新規,0,2021-10-07,2021-10-07,ＤＯＮＲＩＶＯ合同会社,,合同会社,東京都,大田区,多摩川１丁目６－２２,,13,111,1460095,,,,,,,2021-10-07,1,,,,,ドンリーボ,0
2052,7010903006854,新規,0,2021-10-07,2021-10-07,合同会社ｕｒｂａｎ　ｈｏｍｅ,,合同会社,東京都,世田谷区,弦巻２丁目１８番２０－１１１号,,13,112,1540016,,,,,,,2021-10-07,1,,,,,アーバンホーム,0
2058,7011001143152,新規,0,2021-10-07,2021-10-07,株式会社ＫＳアルファ,,株式会社,東京都,目黒区,東山１丁目２７－４,,13,110,1530043,,,,,,,2021-10-07,1,,,,,ケイエスアルファ,0
2059,7011001143193,新規,0,2021-10-07,2021-10-07,株式会社Ｎｅｘｔｎａｕｔ,,株式会社,東京都,渋谷区,渋谷２丁目１９－１５宮益坂ビルディング６０９,,13,113,1500002,,,,,,,2021-10-07,1,,,,,ネクストノート,0
2060,7011001143219,新規,0,2021-10-07,2021-10-07,株式会社メディカルワン,,株式会社,東京都,渋谷区,神宮前６丁目２３番４号,,13,113,1500001,,,,,,,2021-10-07,1,,,,,メディカルワン,0
2061,7011001143276,新規,0,2021-10-07,2021-10-07,株式会社ＧＩＧＡＮＴＩＣ,,株式会社,東京都,渋谷区,上原１丁目４３番１２－２０２号,,13,113,1510064,,,,,,,2021-10-07,1,,,,,ギガンティック,0
2062,7011001143292,新規,0,2021-10-07,2021-10-07,株式会社Ｍａｎｇｉ,,株式会社,東京都,目黒区,中目黒１丁目１０番２５号,,13,110,1530061,,,,,,,2021-10-07,1,,,,,マンギ,0
2063,7011001143342,新規,0,2021-10-07,2021-10-07,株式会社プレリ,,株式会社,東京都,渋谷区,神宮前６丁目３５番３－５３３号,,13,113,1500001,,,,,,,2021-10-07,1,,,,,プレリ,0
2064,7011005009242,新規,0,2021-10-07,2021-10-07,特定非営利活動法人ライフバトン,,その他の設立登記法人,東京都,渋谷区,広尾５丁目９番７号２１世紀キリスト教会広尾チャペル１階事務所,,13,113,1500012,,,,,,,2021-10-07,1,,,,,ライフバトン,0
2066,7011101096449,新規,0,2021-10-07,2021-10-07,Ａｔｏｍｅ　Ｊａｐａｎ株式会社,,株式会社,東京都,新宿区,西新宿７丁目２番６号Ｋ－１ビル３階,,13,104,1600023,,,,,,,2021-10-07,1,,,,,アトーミージャパン,0
2067,7011101096515,新規,0,2021-10-07,2021-10-07,株式会社日本グローバルワーク,,株式会社,東京都,新宿区,新宿２丁目１２番地１３号新宿アントレサロンビル２階,,13,104,1600022,,,,,,,2021-10-07,1,,,,,ニホングローバルワーク,0
2068,7011201023294,新規,0,2021-10-07,2021-10-07,株式会社ＹＫシステムズ,,株式会社,東京都,中野区,中野３丁目３４番３２－６０８号,,13,114,1640001,,,,,,,2021-10-07,1,,,,,ワイケイシステムズ,0
2069,7011303004192,新規,0,2021-10-07,2021-10-07,グローバルブリッジ合同会社,,合同会社,東京都,杉並区,和泉３丁目５５－１１,,13,115,1680063,,,,,,,2021-10-07,1,,,,,グローバルブリッジ,0
2075,7011401023730,新規,0,2021-10-07,2021-10-07,ＢＩＳＨＮＵ株式会社,,株式会社,東京都,板橋区,大谷口上町３６－２,,13,119,1730032,,,,,,,2021-10-07,1,,,,,ビスヌ,0
2080,7011803004816,新規,0,2021-10-07,2021-10-07,パラボリック・アンテナ合同会社,,合同会社,東京都,葛飾区,亀有２丁目４１番１－４０５号,,13,122,1250061,,,,,,,2021-10-07,1,,,,,パラボリックアンテナ,0
2081,7012301012732,新規,0,2021-10-07,2021-10-07,株式会社ＬｉＺｅ,,株式会社,東京都,町田市,木曽東３丁目２５番４１号,,13,209,1940036,,,,,,,2021-10-07,1,,,,,ライズ,0
2082,7012303001601,新規,0,2021-10-07,2021-10-07,合同会社Ｒ．Ｃ．Ｍ,,合同会社,東京都,町田市,広袴４丁目１番地７,,13,209,1950056,,,,,,,2021-10-07,1,,,,,アールシーエム,0
2084,7012401038388,新規,0,2021-10-07,2021-10-07,株式会社Ｒ＆Ｃマネジメントリーダー,,株式会社,東京都,府中市,本宿町２丁目９番地の１２,,13,206,1830032,,,,,,,2021-10-07,1,,,,,アールアンドシーマネジメントリーダー,0
2094,7020001143343,新規,0,2021-10-07,2021-10-07,アールツー株式会社,,株式会社,神奈川県,横浜市中区,不老町１丁目６番地１０苗場ビル３Ｆ－Ａ,,14,104,2310032,,,,,,,2021-10-07,1,,,,,アールツー,0
2095,7020001143376,新規,0,2021-10-07,2021-10-07,株式会社ＡＬＬ６,,株式会社,神奈川県,横浜市中区,花咲町１丁目４８番３号,,14,104,2310063,,,,,,,2021-10-07,1,,,,,オールシックス,0
2096,7020003020598,新規,0,2021-10-07,2021-10-07,林トラスト合同会社,,合同会社,神奈川県,横浜市神奈川区,松見町１丁目２７番地３８,,14,102,2210005,,,,,,,2021-10-07,1,,,,,ハヤシトラスト,0
2097,7020005015225,新規,0,2021-10-07,2021-10-07,一般社団法人二樹会,,その他の設立登記法人,神奈川県,横浜市中区,曙町４番地５６Ｌｉｂｅｒｔｙ大通り公園４階,,14,104,2310000,,,,,,,2021-10-07,1,,,,,ニキカイ,0
2100,7021001074140,新規,0,2021-10-07,2021-10-07,株式会社カネマン,,株式会社,神奈川県,秦野市,南矢名８８３番地,,14,211,2570003,,,,,,,2021-10-07,1,,,,,カネマン,0
2101,7021001074157,新規,0,2021-10-07,2021-10-07,株式会社林土地開発設計,,株式会社,神奈川県,座間市,入谷西３丁目２３番５号,,14,216,2520029,,,,,,,2021-10-07,1,,,,,ハヤシトチカイハツセッケイ,0
2102,7021003010960,新規,0,2021-10-07,2021-10-07,サニエスリンク合同会社,,合同会社,神奈川県,相模原市南区,上鶴間本町３丁目１３番１０－２０７号,,14,153,2520318,,,,,,,2021-10-07,1,,,,,サニエスリンク,0
2106,7030001144712,新規,0,2021-10-07,2021-10-07,株式会社ＳＳ警備,,株式会社,埼玉県,さいたま市浦和区,北浦和３丁目１５番６号,,11,107,3300074,,,,,,,2021-10-07,1,,,,,エスエスケイビ,0
2107,7030001144720,新規,0,2021-10-07,2021-10-07,株式会社久遠企画,,株式会社,埼玉県,三郷市,早稲田７丁目３７番地３４,,11,237,3410018,,,,,,,2021-10-07,1,,,,,クオンキカク,0
2108,7030001144737,新規,0,2021-10-07,2021-10-07,サント医療企画株式会社,,株式会社,埼玉県,狭山市,大字水野８９０番地の１２,,11,215,3501317,,,,,,,2021-10-07,1,,,,,サントイリョウキカク,0
2109,7030001144745,新規,0,2021-10-07,2021-10-07,株式会社ＣＨＡＮＧＥ,,株式会社,埼玉県,春日部市,備後東８丁目１５番５号,,11,214,3440032,,,,,,,2021-10-07,1,,,,,チェンジ,0
2118,7040001120456,新規,0,2021-10-07,2021-10-07,株式会社トランスワーク,,株式会社,千葉県,木更津市,羽鳥野６丁目７番地１グリーンクローバー羽鳥野２０３,,12,206,2920819,,,,,,,2021-10-07,1,,,,,トランスワーク,0
2119,7040001120480,新規,0,2021-10-07,2021-10-07,株式会社ＬＩＦＩＸ,,株式会社,千葉県,柏市,若柴２７６番地１中央１５４街区３パークシティ柏の葉キャンパスブライトサイト１Ｆ,,12,217,2770871,,,,,,,2021-10-07,1,,,,,リフィックス,0
2121,7040003018681,新規,0,2021-10-07,2021-10-07,合同会社アイボウ,,合同会社,千葉県,流山市,西初石４丁目４７４番地の４バウハウス２０４,,12,220,2700121,,,,,,,2021-10-07,1,,,,,アイボウ,0
2125,7050001049918,新規,0,2021-10-07,2021-10-07,株式会社不動丸水産,,株式会社,茨城県,北茨城市,大津町１２１番地の３７,,08,215,3191702,,,,,,,2021-10-07,1,,,,,フドウマルスイサン,0
2126,7050001049950,新規,0,2021-10-07,2021-10-07,株式会社ＲＩＺ,,株式会社,茨城県,ひたちなか市,勝田中央１番２号ｗｉｎｗｉｎ１０３,,08,221,3120045,,,,,,,2021-10-07,1,,,,,リズ,0
2127,7050003006124,新規,0,2021-10-07,2021-10-07,Ｔｃｈｕｔｃｈｕｋａ　ｓｔｏｒｅ合同会社,,合同会社,茨城県,常総市,新石下１５８０番地１,,08,211,3002706,,,,,,,2021-10-07,1,,,,,チュチュカストア,0
2128,7050003006132,新規,0,2021-10-07,2021-10-07,合同会社えにしか,,合同会社,茨城県,鹿嶋市,高天原２丁目３番地第一高天原住宅６号棟３１０号室,,08,222,3140005,,,,,,,2021-10-07,1,,,,,エニシカ,0
2130,7060001034150,新規,0,2021-10-07,2021-10-07,株式会社トップライン,,株式会社,栃木県,栃木市,惣社町１５１０番地１９,,09,203,3280002,,,,,,,2021-10-07,1,,,,,トップライン,0
2131,7060001034167,新規,0,2021-10-07,2021-10-07,株式会社Ｂｕｄｄｙ’ｓ,,株式会社,栃木県,小山市,大字萱橋１１３１番地２,,09,208,3230804,,,,,,,2021-10-07,1,,,,,バディーズ,0
2134,7070001038514,新規,0,2021-10-07,2021-10-07,株式会社まつもと,,株式会社,群馬県,吾妻郡草津町,大字草津８９０番地５,,10,426,3771711,,,,,,,2021-10-07,1,,,,,マツモト,0
2135,7070005009908,新規,0,2021-10-07,2021-10-07,一般社団法人あいのて社会福祉協会,,その他の設立登記法人,群馬県,前橋市,上佐鳥町５６０番地３,,10,201,3710816,,,,,,,2021-10-07,1,,,,,アイノテシャカイフクシキョウカイ,0
2137,7080101022821,新規,0,2021-10-07,2021-10-07,株式会社渚硝子店,,株式会社,静岡県,賀茂郡河津町,浜７５番地の１,,22,302,4130513,,,,,,,2021-10-07,1,,,,,ナギサガラステン,0
2138,7080103002433,新規,0,2021-10-07,2021-10-07,合同会社Ｕ．Ｄ．プランニング,,合同会社,静岡県,御殿場市,川島田３２４番地９,,22,215,4120045,,,,,,,2021-10-07,1,,,,,ユーディープランニング,0
2142,7100001034699,新規,0,2021-10-07,2021-10-07,株式会社ＭＫモータース,,株式会社,長野県,下伊那郡高森町,出原３番地２８,,20,403,3993107,,,,,,,2021-10-07,1,,,,,エムケーモータース,0
2157,7120001240824,新規,0,2021-10-07,2021-10-07,株式会社あいあい,,株式会社,大阪府,大阪市西区,立売堀５丁目３番１４号,,27,106,5500012,,,,,,,2021-10-07,1,,,,,アイアイ,0
2158,7120001240849,新規,0,2021-10-07,2021-10-07,株式会社ｈｕｉ　ｐｙａｒ,,株式会社,大阪府,大阪市東成区,東中本３丁目１９番２３号７階,,27,115,5370021,,,,,,,2021-10-07,1,,,,,フイピヤール,0
2159,7120001240857,新規,0,2021-10-07,2021-10-07,株式会社ＵＢＵ．ｎ,,株式会社,大阪府,大阪市福島区,海老江２丁目２－６ｈａｉｒｄｏｎａｎａ,,27,103,5530001,,,,,,,2021-10-07,1,,,,,ウブドットエヌ,0
2160,7120001240881,新規,0,2021-10-07,2021-10-07,大勇株式会社,,株式会社,大阪府,大阪市浪速区,元町２丁目６番１３－６０１号,,27,111,5560016,,,,,,,2021-10-07,1,,,,,ダイユウ,0
2161,7120001240931,新規,0,2021-10-07,2021-10-07,株式会社光輪工業,,株式会社,大阪府,大阪市平野区,加美北６丁目１２番２２号,,27,126,5470001,,,,,,,2021-10-07,1,,,,,コウワコウギョウ,0
2162,7120001240972,新規,0,2021-10-07,2021-10-07,Ｓｏｏｏｎ株式会社,,株式会社,大阪府,大阪市浪速区,難波中３丁目９－３ＲＥ－０２０－３０４号,,27,111,5560011,,,,,,,2021-10-07,1,,,,,スーン,0
2164,7120003020349,新規,0,2021-10-07,2021-10-07,合同会社Ｙ’Ｍ,,合同会社,大阪府,枚方市,牧野北町５番３－１０５号,,27,210,5731149,,,,,,,2021-10-07,1,,,,,ワイアンドエム,0
2165,7120003020365,新規,0,2021-10-07,2021-10-07,合同会社ＢＯＫ,,合同会社,大阪府,枚方市,牧野下島町１番２５号寿マンション１号棟４０２,,27,210,5731142,,,,,,,2021-10-07,1,,,,,ビーオーケー,0
2172,7120101064413,新規,0,2021-10-07,2021-10-07,株式会社Ｓｍｉｔｈ　Ｓｔｒｅｅｔ,,株式会社,大阪府,堺市堺区,中三国ヶ丘町６丁１番１－１０４号,,27,141,5900022,,,,,,,2021-10-07,1,,,,,スミスストリート,0
2173,7120101064421,新規,0,2021-10-07,2021-10-07,株式会社國岡フードシステム,,株式会社,大阪府,堺市中区,深井水池町３１３９番地コスモ深井２０９号,,27,142,5998237,,,,,,,2021-10-07,1,,,,,クニオカフードシステム,0
2175,7120901044977,新規,0,2021-10-07,2021-10-07,株式会社花々,,株式会社,大阪府,箕面市,粟生間谷西７丁目３７番１１号,,27,220,5620023,,,,,,,2021-10-07,1,,,,,ハナハナ,0
2176,7120901044993,新規,0,2021-10-07,2021-10-07,ＣＲＥＭＯＮＡＬＡＢＯ株式会社,,株式会社,大阪府,池田市,宇保町４番１５号ゼファーＩＩ１０３号,00124483,27,204,5630042,,,,,,,2021-10-07,1,,,,,クレモナラボ,0
2177,7120901045018,新規,0,2021-10-07,2021-10-07,馬場電気設備管理事務所株式会社,,株式会社,大阪府,吹田市,藤白台１丁目２番Ｄ３３－１０８号,,27,205,5650873,,,,,,,2021-10-07,1,,,,,ババデンキセツビカンリジムショ,0
2178,7120901045026,新規,0,2021-10-07,2021-10-07,株式会社西湖技建,,株式会社,大阪府,豊中市,千里園２丁目１－２０－２０２,,27,203,5600046,,,,,,,2021-10-07,1,,,,,セイコギケン,0
2186,7130001070279,新規,0,2021-10-07,2021-10-07,株式会社ヒューゲル,,株式会社,京都府,京都市右京区,花園土堂町８番地４１,,26,108,6168025,,,,,,,2021-10-07,1,,,,,ヒューゲル,0
2188,7130005016286,新規,0,2021-10-07,2021-10-07,税理士法人吉本事務所,,その他の設立登記法人,京都府,京都市右京区,太秦奥殿町２９番地,,26,108,6168127,,,,,,,2021-10-07,1,,,,,ヨシモトジムショ,0
2194,7140001123267,新規,0,2021-10-07,2021-10-07,株式会社ＢＡＮＥＴＵＮＥ,,株式会社,兵庫県,伊丹市,御願塚７丁目４番１１号,,28,207,6640855,,,,,,,2021-10-07,1,,,,,バネチューン,0
2195,7140001123275,新規,0,2021-10-07,2021-10-07,株式会社石富,,株式会社,兵庫県,朝来市,和田山町東谷１３１番地６,,28,225,6695202,,,,,,,2021-10-07,1,,,,,イシトミ,0
2196,7140001123300,新規,0,2021-10-07,2021-10-07,株式会社ツナガル,,株式会社,兵庫県,神戸市灘区,城内通５丁目５番３－２０１号,,28,102,6570836,,,,,,,2021-10-07,1,,,,,ツナガル,0
2197,7140001123309,新規,0,2021-10-07,2021-10-07,株式会社信工,,株式会社,兵庫県,姫路市,網干区田井７２番地１０,,28,201,6711221,,,,,,,2021-10-07,1,,,,,シンコウ,0
2199,7150003002501,新規,0,2021-10-07,2021-10-07,合同会社ＴＫＢ,,合同会社,奈良県,磯城郡田原本町,大字八尾７５２番地,,29,363,6360311,,,,,,,2021-10-07,1,,,,,ティーケービー,0
2201,7160001023671,新規,0,2021-10-07,2021-10-07,山下建設株式会社,,株式会社,滋賀県,甲賀市,甲賀町油日１１９７番地,,25,209,5203413,,,,,,,2021-10-07,1,,,,,ヤマシタケンセツ,0
2213,7180001148062,新規,0,2021-10-07,2021-10-07,株式会社ナカネ,,株式会社,愛知県,名古屋市瑞穂区,東栄町８丁目１５番地,,23,108,4670017,,,,,,,2021-10-07,1,,,,,ナカネ,0
2214,7180001148087,新規,0,2021-10-07,2021-10-07,雪見コンプレッサー株式会社,,株式会社,愛知県,名古屋市中村区,日ノ宮町４丁目１７番地,,23,105,4530823,,,,,,,2021-10-07,1,,,,,ユキミコンプレッサー,0
2215,7180001148120,新規,0,2021-10-07,2021-10-07,Ａ－ｗｏｒｋｓ不動産株式会社,,株式会社,愛知県,半田市,住吉町３丁目１３３番地２アメジスト・セラ１Ｆ,,23,205,4750862,,,,,,,2021-10-07,1,,,,,エイワークスフドウサン,0
2216,7180001148145,新規,0,2021-10-07,2021-10-07,株式会社沖島建築,,株式会社,愛知県,北名古屋市,西之保立石７９番地４,,23,234,4810033,,,,,,,2021-10-07,1,,,,,オキシマケンチク,0
2217,7180001148153,新規,0,2021-10-07,2021-10-07,株式会社Ｔ．Ｇｅｎｅｓｉｓ,,株式会社,愛知県,春日井市,細木町１丁目２７番地１プラシード細木Ａ１０１号,,23,206,4860937,,,,,,,2021-10-07,1,,,,,ティージェネシス,0
2218,7180001148228,新規,0,2021-10-07,2021-10-07,アントアパレル株式会社,,株式会社,愛知県,名古屋市中区,丸の内３丁目６番４号,,23,106,4600002,,,,,,,2021-10-07,1,,,,,アントアパレル,0
2219,7180003023040,新規,0,2021-10-07,2021-10-07,合同会社ＹＭＣ商事,,合同会社,愛知県,北名古屋市,石橋惣作１２６番地１,,23,234,4810046,,,,,,,2021-10-07,1,,,,,ワイエムシーショウジ,0
2221,7180005019474,新規,0,2021-10-07,2021-10-07,ユキナ協同組合,,その他の設立登記法人,愛知県,春日井市,大手田酉町１丁目２５番９号,,23,206,4860806,,,,,,,2021-10-07,1,,,,,ユキナ,0
2232,7190001028759,新規,0,2021-10-07,2021-10-07,株式会社スイッチーズ,,株式会社,三重県,鈴鹿市,神戸２丁目９番６３号,,24,207,5130801,,,,,,,2021-10-07,1,,,,,スイッチーズ,0
2238,7200001039275,新規,0,2021-10-07,2021-10-07,グローロ株式会社,,株式会社,岐阜県,各務原市,桜木町２丁目６９番地,,21,213,5090127,,,,,,,2021-10-07,1,,,,,グローロ,0
2248,7230001019010,新規,0,2021-10-07,2021-10-07,株式会社ＳＶ‐ＡＬＬＩＡＮＣＥ,,株式会社,富山県,射水市,小杉白石１３８番地１,,16,211,9390304,,,,,,,2021-10-07,1,,,,,エスヴイアライアンス,0
2249,7230001019019,新規,0,2021-10-07,2021-10-07,富山エンジ株式会社,,株式会社,富山県,富山市,蓮町５丁目３番６２号,,16,201,9318333,,,,,,,2021-10-07,1,,,,,トヤマエンジ,0
2256,7260001036028,新規,0,2021-10-07,2021-10-07,西崎製工株式会社,,株式会社,岡山県,津山市,上高倉１８０３番地１０,,33,203,7081121,,,,,,,2021-10-07,1,,,,,ニシザキセイコウ,0
2257,7260001036060,新規,0,2021-10-07,2021-10-07,株式会社竹吉,,株式会社,岡山県,瀬戸内市,長船町東須恵２４７番地,,33,212,7014262,,,,,,,2021-10-07,1,,,,,タケキチ,0
2258,7260001036069,新規,0,2021-10-07,2021-10-07,株式会社よしゐ屋ＢＡＳＥ,,株式会社,岡山県,倉敷市,阿知２丁目２５番４７号,,33,202,7100055,,,,,,,2021-10-07,1,,,,,ヨシイヤベース,0
2262,7270005005481,新規,0,2021-10-07,2021-10-07,司法書士法人曽田事務所,,その他の設立登記法人,鳥取県,米子市,道笑町４丁目１５４番地,,31,202,6830064,,,,,,,2021-10-07,1,,,,,ソタジムショ,0
2266,7290001094931,新規,0,2021-10-07,2021-10-07,株式会社５‐ｂｉｔ,,株式会社,福岡県,福岡市博多区,博多駅東１丁目１２－１７，オフィスニューガイア博多駅前３Ｆ,,40,132,8120013,,,,,,,2021-10-07,1,,,,,ファイブビット,0
2272,7290801027875,新規,0,2021-10-07,2021-10-07,株式会社ＯＧＴ,,株式会社,福岡県,北九州市八幡西区,則松東２丁目４番１２号,,40,109,8070837,,,,,,,2021-10-07,1,,,,,オージーティー,0
2273,7290801027891,新規,0,2021-10-07,2021-10-07,龍進株式会社,,株式会社,福岡県,北九州市八幡西区,黒崎２丁目３番１５－３０８号,,40,109,8060021,,,,,,,2021-10-07,1,,,,,タツジン,0
2274,7300001012643,新規,0,2021-10-07,2021-10-07,稲冨設備株式会社,,株式会社,佐賀県,小城市,牛津町乙柳４３２番地１,,41,208,8490301,,,,,,,2021-10-07,1,,,,,イナドミセツビ,0
2275,7300005007037,新規,0,2021-10-07,2021-10-07,農事組合法人きざと,,その他の設立登記法人,佐賀県,鳥栖市,飯田町５３４番地４,,41,203,8410022,,,,,,,2021-10-07,1,,,,,キザト,0
2283,7330003009073,新規,0,2021-10-07,2021-10-07,ＭＥＩ合同会社,,合同会社,熊本県,八代市,西片町２２８６番地,,43,202,8660811,,,,,,,2021-10-07,1,,,,,メイ,0
2284,7330003009081,新規,0,2021-10-07,2021-10-07,ＦＧＣ　Ｔｒａｎｓｌａｔｅｄ合同会社,,合同会社,熊本県,阿蘇郡南阿蘇村,大字久石３８８０番地３,,43,433,8691412,,,,,,,2021-10-07,1,,,,,エフジーシートランスレイテッド,0
2288,7340003003579,新規,0,2021-10-07,2021-10-07,ＭＩＡライフ合同会社,,合同会社,鹿児島県,霧島市,国分中央５丁目９９３番地１,,46,218,8994332,,,,,,,2021-10-07,1,,,,,ミアライフ,0
2289,7350001017349,新規,0,2021-10-07,2021-10-07,株式会社Ｌｅｔ’ｓ　Ｗｏｒｋ,,株式会社,宮崎県,都城市,丸谷町４９８５番地,,45,202,8851105,,,,,,,2021-10-07,1,,,,,レッツワーク,0
2291,7360001029467,新規,0,2021-10-07,2021-10-07,株式会社みはらペットクリニック,,株式会社,沖縄県,那覇市,三原１丁目１４番５３号,,47,201,9020063,,,,,,,2021-10-07,1,,,,,ミハラペットクリニック,0
2292,7360001029475,新規,0,2021-10-07,2021-10-07,株式会社ｓａｙｏｎ,,株式会社,沖縄県,那覇市,安里１丁目１番３号安里上原ビル１０１号室,,47,201,9020067,,,,,,,2021-10-07,1,,,,,サイオン,0
2293,7360001029483,新規,0,2021-10-07,2021-10-07,Ｅｉｇｈｔｅｅｎ１８株式会社,,株式会社,沖縄県,那覇市,与儀１丁目１４－１２（１－Ａ）,,47,201,9020076,,,,,,,2021-10-07,1,,,,,エイティーンエイティーン,0
2295,7360003011489,新規,0,2021-10-07,2021-10-07,ＡＮＴｓ合同会社,,合同会社,沖縄県,石垣市,字石垣３８６番地,,47,207,9070023,,,,,,,2021-10-07,1,,,,,アンツ,0
2296,7360003011497,新規,0,2021-10-07,2021-10-07,合同会社丸正ガラス店,,合同会社,沖縄県,中頭郡読谷村,字大木４６９番地,,47,324,9040316,,,,,,,2021-10-07,1,,,,,マルマサガラステン,0
2298,7370001047690,新規,0,2021-10-07,2021-10-07,株式会社テレワーク,,株式会社,宮城県,仙台市若林区,一本杉町２６番３５号,,04,103,9840828,,,,,,,2021-10-07,1,,,,,,0
2306,7380003005027,新規,0,2021-10-07,2021-10-07,合同会社インクルージョン,,合同会社,福島県,いわき市,泉町滝尻字折返１３番地,,07,204,9718182,,,,,,,2021-10-07,1,,,,,インクルージョン,0
2317,7430001085073,新規,0,2021-10-07,2021-10-07,イーコン株式会社,,株式会社,北海道,石狩市,新港中央２丁目７６１番２,,01,235,0613242,,,,,,,2021-10-07,1,,,,,イーコン,0
2318,7430001085107,新規,0,2021-10-07,2021-10-07,株式会社吉川塗装店,,株式会社,北海道,小樽市,新光２丁目９番１８号,,01,203,0470152,,,,,,,2021-10-07,1,,,,,ヨシカワトソウテン,0
2319,7430001085123,新規,0,2021-10-07,2021-10-07,株式会社ＳＧホールディングス,,株式会社,北海道,札幌市中央区,南一条東３丁目１０番１３号,,01,101,0600051,,,,,,,2021-10-07,1,,,,,エスジーホールディングス,0
2320,7430001085131,新規,0,2021-10-07,2021-10-07,株式会社美河工業,,株式会社,北海道,札幌市北区,あいの里四条５丁目１４番１４号,,01,102,0028074,,,,,,,2021-10-07,1,,,,,ミカワコウギョウ,0
2322,7430003013222,新規,0,2021-10-07,2021-10-07,合同会社ワンワールド,,合同会社,北海道,札幌市北区,北二十条西５丁目２番１号ＬＥＥ北２０条ビル２０Ａ,,01,102,0010020,,,,,,,2021-10-07,1,,,,,ワンワールド,0
2333,7700150104300,新規,0,2021-10-07,2021-08-10,我孫子市新春マラソン大会実行委員会,,その他,千葉県,我孫子市,古戸６９６番地市民体育館内,,12,222,2701111,,,,,,,2021-08-10,1,,,,,アビコシシンシユンマラソンタイカイジツコウイインカイ,0
2334,7700150105091,新規,0,2021-10-07,2021-10-07,すずかけ共同作業所保護者会,,その他,愛知県,小牧市,大字南外山字間島１５－１,,23,219,4850024,,,,,,,2021-10-07,1,,,,,スズカケキョウドウサギョウショホゴシャカイ,0
2346,8010001221553,新規,0,2021-10-07,2021-10-07,株式会社ＩＭミライズサポート,,株式会社,東京都,文京区,本郷３丁目１９番４号,,13,105,1130033,,,,,,,2021-10-07,1,,,,,アイエムミライズサポート,0
2347,8010001221586,新規,0,2021-10-07,2021-10-07,株式会社Ｓｐｒｉｎｇ　Ｋｎｏｗｌｅｄｇｅ,,株式会社,東京都,千代田区,九段南１丁目５番６号りそな九段ビル５階ＫＳフロア,,13,101,1020074,,,,,,,2021-10-07,1,,,,,スプリングナレッジ,0
2348,8010001221594,新規,0,2021-10-07,2021-10-07,株式会社灯明,,株式会社,東京都,千代田区,神田錦町３丁目７番２号東京堂錦町ビルディング７階,,13,101,1010054,,,,,,,2021-10-07,1,,,,,トウミョウ,0
2354,8010105002131,新規,0,2021-10-07,2021-10-07,税理士法人グリュック,,その他の設立登記法人,東京都,八王子市,明神町３丁目２５番４号２階,,13,201,1920046,,,,,,,2021-10-07,1,,,,,,0
2363,8010401163049,新規,0,2021-10-07,2021-10-07,株式会社イーサンク,,株式会社,東京都,港区,赤坂２丁目２３番１号アークヒルズフロントタワー１７階,,13,103,1070052,,,,,,,2021-10-07,1,,,,,イーサンク,0
2369,8010501047928,新規,0,2021-10-07,2021-10-07,株式会社クリスプラボ,,株式会社,東京都,台東区,上野３丁目２番２号アイオス秋葉原３０１,,13,106,1100005,,,,,,,2021-10-07,1,,,,,クリスプラボ,0
2370,8010601060021,新規,0,2021-10-07,2021-10-07,デジセラ株式会社,,株式会社,東京都,江東区,豊洲６丁目２番３１－１８１８号,,13,108,1350061,,,,,,,2021-10-07,1,,,,,デジセラ,0
2371,8010601060038,新規,0,2021-10-07,2021-10-07,株式会社上ノ郷谷デザイン事務所,,株式会社,東京都,墨田区,業平１丁目３番１３号,,13,107,1300002,,,,,,,2021-10-07,1,,,,,カミノゴウヤデザインジムショ,0
2375,8010703005964,新規,0,2021-10-07,2021-10-07,エイティックワン合同会社,,合同会社,東京都,品川区,南品川４丁目６番８号,,13,109,1400004,,,,,,,2021-10-07,1,,,,,エイティックワン,0
2377,8010801032381,新規,0,2021-10-07,2021-10-07,湊エンジニアリング株式会社,,株式会社,東京都,大田区,西糀谷３丁目１０番１６号,,13,111,1440034,,,,,,,2021-10-07,1,,,,,ミナトエンジニアリング,0
2383,8010901049573,新規,0,2021-10-07,2021-10-07,株式会社ｋｌｏｎｅ,,株式会社,東京都,世田谷区,玉堤１丁目１６－１６,,13,112,1580087,,,,,,,2021-10-07,1,,,,,クローン,0
2384,8010903006853,新規,0,2021-10-07,2021-10-07,合同会社ＨＡＬＯ,,合同会社,東京都,世田谷区,新町３丁目２４番１３号,,13,112,1540014,,,,,,,2021-10-07,1,,,,,ハロー,0
2386,8011001143028,新規,0,2021-10-07,2021-10-07,ファストモバイル株式会社,,株式会社,東京都,渋谷区,恵比寿４丁目２０番３号恵比寿ガーデンプレイスタワー１８階,,13,113,1500013,,,,,,,2021-10-07,1,,,,,ファストモバイル,0
2387,8011001143168,新規,0,2021-10-07,2021-10-07,株式会社ＧＩＡＮＴ　ＫＩＬＬＩＮＧ,,株式会社,東京都,渋谷区,神宮前６丁目２３番４号桑野ビル２階,,13,113,1500001,,,,,,,2021-10-07,1,,,,,ジャイアントキリング,0
2388,8011001143184,新規,0,2021-10-07,2021-10-07,株式会社８,,株式会社,東京都,渋谷区,神宮前１丁目１２番６号ドヒビル４０１,,13,113,1500001,,,,,,,2021-10-07,1,,,,,エイト,0
2389,8011001143218,新規,0,2021-10-07,2021-10-07,株式会社ヤバセプロパティコンサルティング,,株式会社,東京都,渋谷区,桜丘町２１番７号,,13,113,1500031,,,,,,,2021-10-07,1,,,,,ヤバセプロパティコンサルティング,0
2390,8011001143242,新規,0,2021-10-07,2021-10-07,株式会社ＳＡＬＴＹＰＬＵＭ,,株式会社,東京都,渋谷区,広尾５丁目１番４３号広尾ＺＥＲＯ７０２,,13,113,1500012,,,,,,,2021-10-07,1,,,,,ソルティプラム,0
2391,8011001143250,新規,0,2021-10-07,2021-10-07,株式会社ウリム・エンタテインメント・ジャパン,,株式会社,東京都,渋谷区,道玄坂１丁目２１番１号,,13,113,1500043,,,,,,,2021-10-07,1,,,,,ウリムエンタテインメントジャパン,0
2392,8011001143259,新規,0,2021-10-07,2021-10-07,株式会社アイム,,株式会社,東京都,渋谷区,神宮前６丁目２３番４号桑野ビル２Ｆ,,13,113,1500001,,,,,,,2021-10-07,1,,,,,アイム,0
2393,8011001143291,新規,0,2021-10-07,2021-10-07,株式会社ｃｏｐａｎ,,株式会社,東京都,目黒区,五本木１丁目１９番９号ラ・フレーズ祐天寺２０１,,13,110,1530053,,,,,,,2021-10-07,1,,,,,コパン,0
2394,8011003013484,新規,0,2021-10-07,2021-10-07,カルペ・ディエム合同会社,,合同会社,東京都,渋谷区,渋谷３丁目６番２号エクラート渋谷５Ｆ,,13,113,1500002,,,,,,,2021-10-07,1,,,,,カルペディエム,0
2396,8011101096506,新規,0,2021-10-07,2021-10-07,プラスプラウト株式会社,,株式会社,東京都,新宿区,新宿１丁目３６番２号第七葉山ビル３階,,13,104,1600022,,,,,,,2021-10-07,1,,,,,プラスプラウト,0
2397,8011101096514,新規,0,2021-10-07,2021-10-07,株式会社アイフォワード,,株式会社,東京都,新宿区,若葉１丁目５番地ランテンヌ四谷６０１,,13,104,1600011,,,,,,,2021-10-07,1,,,,,アイフォワード,0
2399,8011103011066,新規,0,2021-10-07,2021-10-07,スリーエー合同会社,,合同会社,東京都,新宿区,矢来町２４番地３３マリオン神楽坂２階,,13,104,1620805,,,,,,,2021-10-07,1,,,,,,0
2400,8011201023293,新規,0,2021-10-07,2021-10-07,株式会社ナギ・コーポレーション,,株式会社,東京都,中野区,松が丘２丁目１１－９,,13,114,1650024,,,,,,,2021-10-07,1,,,,,ナギコーポレーション,0
2401,8011203003657,新規,0,2021-10-07,2021-10-07,小倉装飾合同会社,,合同会社,東京都,中野区,南台５丁目１番３号,,13,114,1640014,,,,,,,2021-10-07,1,,,,,オグラソウショク,0
2402,8011301027236,新規,0,2021-10-07,2021-10-07,ＪＡＭ＆Ｃｏ．株式会社,,株式会社,東京都,杉並区,高円寺南４丁目７－３サンシャイン高円寺８０３号,,13,115,1660003,,,,,,,2021-10-07,1,,,,,ジャムアンドコー,0
2403,8011303004191,新規,0,2021-10-07,2021-10-07,合同会社ＳＫ,,合同会社,東京都,杉並区,天沼１丁目１－１０－１０２,,13,115,1670032,,,,,,,2021-10-07,1,,,,,エスケー,0
2404,8011401023746,新規,0,2021-10-07,2021-10-07,株式会社ハナブサ,,株式会社,東京都,板橋区,三園１丁目１６番４号,,13,119,1750091,,,,,,,2021-10-07,1,,,,,ハナブサ,0
2408,8011701024758,新規,0,2021-10-07,2021-10-07,株式会社鍵技工,,株式会社,東京都,江戸川区,西一之江３丁目３４番２号,,13,123,1320023,,,,,,,2021-10-07,1,,,,,カギギコウ,0
2412,8011805003113,新規,0,2021-10-07,2021-10-07,日本労働調査組合,,その他の設立登記法人,東京都,足立区,千住１丁目４番１号,,13,121,1200034,,,,,,,2021-10-07,1,,,,,ニホンロウドウチョウサクミアイ,0
2414,8012701016695,新規,0,2021-10-07,2021-10-07,株式会社オールサポートセンター,,株式会社,東京都,東久留米市,小山４丁目７番１０号,,13,222,2030051,,,,,,,2021-10-07,1,,,,,オールサポートセンター,0
2417,8013301048105,新規,0,2021-10-07,2021-10-07,株式会社アイレット,,株式会社,東京都,豊島区,西巣鴨２丁目１番１５号イワタビル１０２,,13,116,1700001,,,,,,,2021-10-07,1,,,,,アイレット,0
2418,8013303005839,新規,0,2021-10-07,2021-10-07,スリーハートコンサルティング合同会社,,合同会社,東京都,豊島区,千早３丁目３８番７号,,13,116,1710044,,,,,,,2021-10-07,1,,,,,スリーハートコンサルティング,0
2423,8020001143334,新規,0,2021-10-07,2021-10-07,株式会社ＳＯＩＲＵ,,株式会社,神奈川県,川崎市中原区,小杉町３丁目６００番地コスギサードアヴェニュー１Ｆ,,14,133,2110063,,,,,,,2021-10-07,1,,,,,ソイル,0
2430,8021001074081,新規,0,2021-10-07,2021-10-07,ＤｉＮＯＶ株式会社,,株式会社,神奈川県,相模原市緑区,西橋本５丁目４番２１号,,14,151,2520131,,,,,,,2021-10-07,1,,,,,ディノブ,0
2431,8021001074164,新規,0,2021-10-07,2021-10-07,株式会社湘南オールスターズ,,株式会社,神奈川県,藤沢市,大鋸１丁目１１番１４号,,14,205,2510002,,,,,,,2021-10-07,1,,,,,ショウナンオールスターズ,0
2438,8030001144562,新規,0,2021-10-07,2021-10-07,環日株式会社,,株式会社,埼玉県,川口市,芝１丁目２２番４号,,11,203,3330866,,,,,,,2021-10-07,1,,,,,カンニチ,0
2439,8030001144570,新規,0,2021-10-07,2021-10-07,株式会社アーバンライフサルベージ,,株式会社,埼玉県,川越市,菅原町１７番地１アーバンライフビルヂング,,11,201,3500046,,,,,,,2021-10-07,1,,,,,アーバンライフサルベージ,0
2440,8030001144678,新規,0,2021-10-07,2021-10-07,株式会社リオール,,株式会社,埼玉県,飯能市,大字川崎２３４番地１,,11,209,3570011,,,,,,,2021-10-07,1,,,,,リオール,0
2441,8030001144728,新規,0,2021-10-07,2021-10-07,株式会社Ｏｒｉｚｕｒｕ,,株式会社,埼玉県,飯能市,大字赤沢１２１番地,,11,209,3570128,,,,,,,2021-10-07,1,,,,,オリズル,0
2442,8030001144736,新規,0,2021-10-07,2021-10-07,株式会社クラフト,,株式会社,埼玉県,本庄市,児玉町八幡山２５６番地１１,,11,211,3670217,,,,,,,2021-10-07,1,,,,,クラフト,0
2443,8030001144752,新規,0,2021-10-07,2021-10-07,株式会社みらいファン,,株式会社,埼玉県,鴻巣市,本町４丁目６番２１号,,11,217,3650038,,,,,,,2021-10-07,1,,,,,ミライファン,0
2445,8030003018079,新規,0,2021-10-07,2021-10-07,スパイラルアップ合同会社,,合同会社,埼玉県,川口市,並木元町１番６７－１１２６号,,11,203,3320033,,,,,,,2021-10-07,1,,,,,スパイラルアップ,0
2446,8030003018087,新規,0,2021-10-07,2021-10-07,エニシアスアカデミー埼玉合同会社,,合同会社,埼玉県,川口市,戸塚３丁目３７番地８号Ａｒｉａ－ｎｏｐｓ１１３号室,,11,203,3330811,,,,,,,2021-10-07,1,,,,,エニシアスアカデミーサイタマ,0
2450,8040001120455,新規,0,2021-10-07,2021-10-07,株式会社ａ’Ｒｅｖｅ,,株式会社,千葉県,柏市,八幡町１番３２号ボルベール２０２号,,12,217,2770016,,,,,,,2021-10-07,1,,,,,アレーブ,0
2452,8050001049941,新規,0,2021-10-07,2021-10-07,株式会社保田農場,,株式会社,茨城県,小美玉市,部室５１３番地,,08,236,3190132,,,,,,,2021-10-07,1,,,,,ヤスダノウジョウ,0
2453,8050003006131,新規,0,2021-10-07,2021-10-07,ＡＫ　ＡＵＴＯ　ＪＡＰＡＮ合同会社,,合同会社,茨城県,下妻市,黒駒１０５３番４,,08,210,3040007,,,,,,,2021-10-07,1,,,,,エーケーオートジャパン,0
2455,8060001034166,新規,0,2021-10-07,2021-10-07,株式会社頂,,株式会社,栃木県,宇都宮市,錦２丁目８番７号サンパティオ錦３０１,,09,201,3210967,,,,,,,2021-10-07,1,,,,,イタダキ,0
2459,8070003004257,新規,0,2021-10-07,2021-10-07,合同会社ＣＯＣＯ,,合同会社,群馬県,前橋市,住吉町２丁目３－２０ライオンズプラザ前橋広瀬川４０２号,,10,201,3710021,,,,,,,2021-10-07,1,,,,,ココ,0
2462,8070005009907,新規,0,2021-10-07,2021-10-07,行政書士法人まるこ,,その他の設立登記法人,群馬県,高崎市,菅谷町１０７７番地１,,10,202,3703522,,,,,,,2021-10-07,1,,,,,マルコ,0
2463,8080101022820,新規,0,2021-10-07,2021-10-07,株式会社ａｓｂ,,株式会社,静岡県,富士市,大淵３４３８番地の４,,22,210,4170801,,,,,,,2021-10-07,1,,,,,エイエスビー,0
2464,8080401025408,新規,0,2021-10-07,2021-10-07,相内設備株式会社,,株式会社,静岡県,磐田市,十郎島２０番地,,22,211,4380236,,,,,,,2021-10-07,1,,,,,アイナイセツビ,0
2466,8080405007393,新規,0,2021-10-07,2021-10-07,医療法人社団仁廣会,,その他の設立登記法人,静岡県,浜松市中区,早出町１２０７番地の３３,,22,131,4350054,,,,,,,2021-10-07,1,,,,,ジンコウカイ,0
2468,8100001034698,新規,0,2021-10-07,2021-10-07,株式会社ＭＥＴＡＬＳＭＩＴＨ,,株式会社,長野県,飯田市,山本５９３番地１１,,20,205,3950244,,,,,,,2021-10-07,1,,,,,メタルスミス,0
2470,8110001036099,新規,0,2021-10-07,2021-10-07,株式会社Ｓｍｉｌｅ,,株式会社,新潟県,新潟市南区,木滑９６５番地,,15,106,9501311,,,,,,,2021-10-07,1,,,,,スマイル,0
2471,8110003004590,新規,0,2021-10-07,2021-10-07,合同会社プラスカンパニー,,合同会社,新潟県,新潟市西区,鳥原３５５３番地３,,15,107,9501115,,,,,,,2021-10-07,1,,,,,プラスカンパニー,0
2485,8120001240856,新規,0,2021-10-07,2021-10-07,株式会社アルティエフーズ,,株式会社,大阪府,大阪市鶴見区,茨田大宮２丁目３番１５号,,27,124,5380031,,,,,,,2021-10-07,1,,,,,アルティエフーズ,0
2486,8120001240880,新規,0,2021-10-07,2021-10-07,株式会社ＴＹＢ,,株式会社,大阪府,大阪市浪速区,元町２丁目６番１３－６０１号,,27,111,5560016,,,,,,,2021-10-07,1,,,,,ティワイビー,0
2487,8120001240906,新規,0,2021-10-07,2021-10-07,株式会社ＢＰＳ,,株式会社,大阪府,枚方市,大峰南町３３番２２号,,27,210,5730145,,,,,,,2021-10-07,1,,,,,ビーピーエス,0
2488,8120001240930,新規,0,2021-10-07,2021-10-07,株式会社中村建設,,株式会社,大阪府,大阪市中央区,内平野町１丁目１番５号西大手前ビル２０５号,,27,128,5400037,,,,,,,2021-10-07,1,,,,,ナカムラケンセツ,0
2489,8120001240947,新規,0,2021-10-07,2021-10-07,株式会社一希,,株式会社,大阪府,大阪市東住吉区,矢田２丁目２０番１２号,,27,121,5460023,,,,,,,2021-10-07,1,,,,,イッキ,0
2490,8120001240963,新規,0,2021-10-07,2021-10-07,ＥＮＤＬＥＳＳ株式会社,,株式会社,大阪府,大阪市中央区,平野町２丁目５番１２号みすや２１ビル２階,,27,128,5410046,,,,,,,2021-10-07,1,,,,,エンドレス,0
2494,8120101064429,新規,0,2021-10-07,2021-10-07,株式会社ユースフル,,株式会社,大阪府,松原市,松ケ丘３丁目７番６－４０２号,,27,217,5800042,,,,,,,2021-10-07,1,,,,,ユースフル,0
2495,8120101064453,新規,0,2021-10-07,2021-10-07,株式会社ユアトル,,株式会社,大阪府,高石市,高師浜２丁目３番５号,,27,225,5920004,,,,,,,2021-10-07,1,,,,,ユアトル,0
2502,8122001035237,新規,0,2021-10-07,2021-10-07,株式会社Ｔ・Ａプランニング,,株式会社,大阪府,大東市,諸福７丁目２番１４号,,27,218,5740044,,,,,,,2021-10-07,1,,,,,ティーエープランニング,0
2505,8130001070212,新規,0,2021-10-07,2021-10-07,株式会社ｂａｓｅ,,株式会社,京都府,宇治市,大久保町久保６番地７グリーンサム大久保１０１,,26,204,6110033,,,,,,,2021-10-07,1,,,,,ベース,0
2506,8130001070253,新規,0,2021-10-07,2021-10-07,株式会社京とれっと,,株式会社,京都府,京都市西京区,大枝中山町７番地１３４ナビスビル４Ｆ,,26,111,6101104,,,,,,,2021-10-07,1,,,,,キョウトレット,0
2507,8130001070261,新規,0,2021-10-07,2021-10-07,株式会社ガンＡ,,株式会社,京都府,木津川市,鹿背山南谷４番地,,26,214,6190211,,,,,,,2021-10-07,1,,,,,ガンエイ,0
2508,8130001070294,新規,0,2021-10-07,2021-10-07,株式会社弘陽珈煎,,株式会社,京都府,京都市山科区,椥辻草海道町３８番地２０,00124484,26,110,6078162,,,,,,,2021-10-07,1,,,,,コウヨウコウセン,0
2512,8130003007526,新規,0,2021-10-07,2021-10-07,Ｌｅ　ｌｉｅｎ合同会社,,合同会社,京都府,京都市右京区,西京極野田町５８番地ネオ・ボナール華１Ｆ,,26,108,6150861,,,,,,,2021-10-07,1,,,,,ルリアン,0
2513,8130005016285,新規,0,2021-10-07,2021-10-07,Ｎ＆Ｆ・パートナーズ税理士法人,,その他の設立登記法人,京都府,京都市中京区,西ノ京小堀町２－１０立花ビル４Ｆ東,,26,104,6048383,,,,,,,2021-10-07,1,,,,,エヌアンドエフパートナーズ,0
2517,8140001123175,新規,0,2021-10-07,2021-10-07,株式会社のはら,,株式会社,兵庫県,尼崎市,戸ノ内町２丁目５番６－１０１号,,28,202,6610961,,,,,,,2021-10-07,1,,,,,ノハラ,0
2518,8140001123258,新規,0,2021-10-07,2021-10-07,ＬＯＨＡＳ株式会社,,株式会社,兵庫県,尼崎市,西立花町４丁目５番１－５１１号,,28,202,6600054,,,,,,,2021-10-07,1,,,,,ロハス,0
2519,8140001123274,新規,0,2021-10-07,2021-10-07,株式会社神明きっちん,,株式会社,兵庫県,神戸市中央区,栄町通６丁目１番２１号,,28,110,6500023,,,,,,,2021-10-07,1,,,,,シンメイキッチン,0
2520,8140001123282,新規,0,2021-10-07,2021-10-07,ガーデンテクノ株式会社,,株式会社,兵庫県,姫路市,飾磨区中島１丁目１３３番地,,28,201,6728035,,,,,,,2021-10-07,1,,,,,ガーデンテクノ,0
2521,8140001123290,新規,0,2021-10-07,2021-10-07,株式会社ヤマト防水工業,,株式会社,兵庫県,姫路市,八家１３２５番地,,28,201,6728015,,,,,,,2021-10-07,1,,,,,ヤマトボウスイコウギョウ,0
2528,8150001024991,新規,0,2021-10-07,2021-10-07,雄大工業株式会社,,株式会社,奈良県,北葛城郡広陵町,大字大塚５１６番地７,,29,426,6350834,,,,,,,2021-10-07,1,,,,,ユウダイコウギョウ,0
2531,8160001023695,新規,0,2021-10-07,2021-10-07,株式会社ａｎｄ　ｃｏｌｌａｂｏ,,株式会社,滋賀県,大津市,本堅田３丁目２番２９号,,25,201,5200242,,,,,,,2021-10-07,1,,,,,アンドコラボ,0
2532,8160001023704,新規,0,2021-10-07,2021-10-07,株式会社バイオライフ,,株式会社,滋賀県,蒲生郡竜王町,大字岡屋１２０８番地,,25,384,5202541,,,,,,,2021-10-07,1,,,,,バイオライフ,0
2533,8160003002400,新規,0,2021-10-07,2021-10-07,合同会社紫陽花,,合同会社,滋賀県,大津市,今堅田２丁目３０番１８号,,25,201,5200241,,,,,,,2021-10-07,1,,,,,アジサイ,0
2540,8180001148144,新規,0,2021-10-07,2021-10-07,株式会社Ａｒｕｂｏ,,株式会社,愛知県,清須市,西枇杷島町古城２丁目１０－７，２階,,23,233,4520001,,,,,,,2021-10-07,1,,,,,アルボ,0
2541,8180001148185,新規,0,2021-10-07,2021-10-07,株式会社ＡＺＵＫＩ,,株式会社,愛知県,名古屋市千種区,千種２丁目２４番２号千種タワーヒルズ３０２号,,23,101,4640858,,,,,,,2021-10-07,1,,,,,アズキ,0
2547,8180301035471,新規,0,2021-10-07,2021-10-07,株式会社ＬＩＮＫ‐Ｙｕ,,株式会社,愛知県,岡崎市,両町３丁目３４番地２,,23,202,4440023,,,,,,,2021-10-07,1,,,,,リンクユー,0
2559,8210005009990,新規,0,2021-10-07,2021-10-07,税理士法人ＭＭＣ,,その他の設立登記法人,福井県,大野市,本町８番１７号,,18,205,9120025,,,,,,,2021-10-07,1,,,,,エムエムシー,0
2563,8230001019018,新規,0,2021-10-07,2021-10-07,株式会社ラルブル,,株式会社,富山県,魚津市,吉島１丁目６番３号,,16,204,9370041,,,,,,,2021-10-07,1,,,,,ラルブル,0
2566,8240001058691,新規,0,2021-10-07,2021-10-07,株式会社カギの１１０番広,,株式会社,広島県,呉市,広古新開１丁目３－２楠ビル１０２,,34,202,7370112,,,,,,,2021-10-07,1,,,,,カギノヒャクトウバンヒロ,0
2573,8250001019180,新規,0,2021-10-07,2021-10-07,株式会社周陽ホールディングス,,株式会社,山口県,下松市,大字東豊井１０３６番地１,,35,207,7440002,,,,,,,2021-10-07,1,,,,,シュウヨウホールディングス,0
2582,8260001036043,新規,0,2021-10-07,2021-10-07,株式会社ＭＯＮＯＣＥＲＯＳ,,株式会社,岡山県,岡山市南区,山田７８４,,33,104,7010202,,,,,,,2021-10-07,1,,,,,モノセロス,0
2583,8270001008371,新規,0,2021-10-07,2021-10-07,株式会社中田工業,,株式会社,鳥取県,米子市,福市１０５番地４,,31,202,6830011,,,,,,,2021-10-07,1,,,,,ナカダコウギョウ,0
2588,8290001094897,新規,0,2021-10-07,2021-10-07,株式会社ワイズベース,,株式会社,福岡県,福岡市東区,多の津４丁目６－２３－２０１,,40,131,8130034,,,,,,,2021-10-07,1,,,,,ワイズベース,0
2589,8290001094930,新規,0,2021-10-07,2021-10-07,Ｎｅｘｔ　Ａｄｖａｎｃｅ九州株式会社,,株式会社,福岡県,宗像市,田熊４丁目１１番２０号,,40,220,8113431,,,,,,,2021-10-07,1,,,,,ネクストアドバンスキュウシュウ,0
2593,8290803003948,新規,0,2021-10-07,2021-10-07,Ｏｆｆｉｃｅ　Ｆｅｌｉｚ合同会社,,合同会社,福岡県,北九州市門司区,錦町５番１５号,,40,101,8010862,,,,,,,2021-10-07,1,,,,,オフィスフェリース,0
2597,8300001012642,新規,0,2021-10-07,2021-10-07,株式会社ＨＯ,,株式会社,佐賀県,鳥栖市,村田町１５４番地７フェリーチェ三本松南１０１,,41,203,8410072,,,,,,,2021-10-07,1,,,,,エイチオー,0
2600,8310001017509,新規,0,2021-10-07,2021-10-07,イート福岡株式会社,,株式会社,長崎県,佐世保市,針尾北町８１３番地１,,42,202,8593454,,,,,,,2021-10-07,1,,,,,イートフクオカ,0
2601,8320001018654,新規,0,2021-10-07,2021-10-07,株式会社ＯＤファシリティーズ,,株式会社,大分県,大分市,大字中戸次５８１６番地の２,,44,201,8797761,,,,,,,2021-10-07,1,,,,,オーディーファシリティーズ,0
2611,8340003003586,新規,0,2021-10-07,2021-10-07,合同会社鹿児島茶生産家コンソーシアム,,合同会社,鹿児島県,鹿児島市,武２丁目５番４号,,46,201,8900045,,,,,,,2021-10-07,1,,,,,カゴシマチャセイサンカコンソーシアム,0
2613,8350003003940,新規,0,2021-10-07,2021-10-07,クリーンワーク合同会社,,合同会社,宮崎県,宮崎市,恒久２丁目１５番地２５,,45,201,8800913,,,,,,,2021-10-07,1,,,,,クリーンワーク,0
2616,8370001047649,新規,0,2021-10-07,2021-10-07,株式会社ヤマテック,,株式会社,宮城県,仙台市太白区,東中田３丁目１５番２８号セラーノＩＩＩ－２０２,00124486,04,104,9811107,,,,,,,2021-10-07,1,,,,,ヤマテック,0
2617,8370001047673,新規,0,2021-10-07,2021-10-07,株式会社ＴＰ　ＣＲＥＡＴＥ,,株式会社,宮城県,仙台市青葉区,本町１丁目５番２８－６０３号カーニープレイス仙台駅前通,,04,101,9800014,,,,,,,2021-10-07,1,,,,,ティーピークリエイト,0
2619,8370003005407,新規,0,2021-10-07,2021-10-07,合同会社Ｄ＆Ｎ企画,,合同会社,宮城県,黒川郡大和町,吉岡字上町６２番地の１０ホーム輝１Ｆ,,04,421,9813621,,,,,,,2021-10-07,1,,,,,ディーアンドエヌキカク,0
2621,8380003005026,新規,0,2021-10-07,2021-10-07,地域創生支援合同会社,,合同会社,福島県,須賀川市,長禄町９６番地１,,07,207,9620857,,,,,,,2021-10-07,1,,,,,チイキソウセイシエン,0
2629,8430001085130,新規,0,2021-10-07,2021-10-07,株式会社未来,,株式会社,北海道,札幌市西区,八軒六条西１丁目１番２０号,,01,107,0630846,,,,,,,2021-10-07,1,,,,,ミライ,0
2630,8430003013238,新規,0,2021-10-07,2021-10-07,ＴＲＵＴＨ　ＨＯＭＥ合同会社,,合同会社,北海道,札幌市東区,東雁来十二条２丁目３番１号,,01,103,0070032,,,,,,,2021-10-07,1,,,,,トゥルースホーム,0
2631,8430005014309,新規,0,2021-10-07,2021-10-07,プロテックス協同組合,,その他の設立登記法人,北海道,札幌市中央区,南五条西９丁目１０１４番１号１階,,01,101,0640805,,,,,,,2021-10-07,1,,,,,プロテックス,0
2632,8440003001415,新規,0,2021-10-07,2021-10-07,合同会社Ｓ－ＷＯＲＫＳ,,合同会社,北海道,函館市,日吉町２丁目３５番６号,,01,202,0410841,,,,,,,2021-10-07,1,,,,,エスワークス,0
2634,8470001018739,新規,0,2021-10-07,2021-10-07,ＫＪＳ　ＧＬＯＢＡＬ株式会社,,株式会社,香川県,高松市,昭和町１丁目７番４号,,37,201,7600014,,,,,,,2021-10-07,1,,,,,ケイジェイエスグローバル,0
2649,9010001221552,新規,0,2021-10-07,2021-10-07,株式会社ジャパン・チェーン・ホールディングス,,株式会社,東京都,千代田区,大手町１丁目７番２号,,13,101,1000004,,,,,,,2021-10-07,1,,,,,ジャパンチェーンホールディングス,0
2650,9010001221569,新規,0,2021-10-07,2021-10-07,株式会社Ｃａｍｅｒｉｕｍ,,株式会社,東京都,中央区,八丁堀４丁目５番１２号,,13,102,1040032,,,,,,,2021-10-07,1,,,,,カメリウム,0
2654,9010005034050,新規,0,2021-10-07,2021-10-07,一般社団法人日本個人事業主支援機構,,その他の設立登記法人,東京都,中央区,銀座１丁目２２番１１号,,13,102,1040061,,,,,,,2021-10-07,1,,,,,ニホンコジンジギョウヌシシエンキコウ,0
2657,9010101014889,新規,0,2021-10-07,2021-10-07,株式会社プレイズ,,株式会社,東京都,八王子市,八日町６番３号クリオ八王子壱番館１２０３号,,13,201,1920071,,,,,,,2021-10-07,1,,,,,,0
2661,9010401163056,新規,0,2021-10-07,2021-10-07,ＵＢＥエラストマー株式会社,,株式会社,東京都,港区,芝浦１丁目２番１号,,13,103,1050023,,,,,,,2021-10-07,1,,,,,ユービーイーエラストマー,0
2664,9010501047919,新規,0,2021-10-07,2021-10-07,株式会社Ｒ－ＵＰ,,株式会社,東京都,台東区,駒形１丁目７番２－４０１号,,13,106,1110043,,,,,,,2021-10-07,1,,,,,アールアップ,0
2667,9010601060029,新規,0,2021-10-07,2021-10-07,エースターコンサルティング株式会社,,株式会社,東京都,江東区,有明１丁目４番１１－２９３０号,,13,108,1350063,,,,,,,2021-10-07,1,,,,,エースターコンサルティング,0
2668,9010601060037,新規,0,2021-10-07,2021-10-07,株式会社ＭＫコスメ,,株式会社,東京都,江東区,新大橋３丁目９番７号サンクタス森下９０２,,13,108,1350007,,,,,,,2021-10-07,1,,,,,エムケイコスメ,0
2670,9010603009189,新規,0,2021-10-07,2021-10-07,合同会社ＩｎＢ,,合同会社,東京都,江東区,塩浜２丁目９番３号,,13,108,1350043,,,,,,,2021-10-07,1,,,,,インビ,0
2671,9010701041564,新規,0,2021-10-07,2021-10-07,ＨｅｍｏＳｅｅ株式会社,,株式会社,東京都,品川区,西品川１丁目１－１,,13,109,1410033,,,,,,,2021-10-07,1,,,,,ヘモシー,0
2674,9010801032380,新規,0,2021-10-07,2021-10-07,株式会社ブラン,,株式会社,東京都,大田区,大森南１丁目１番８号,,13,111,1430013,,,,,,,2021-10-07,1,,,,,ブラン,0
2676,9010803003909,新規,0,2021-10-07,2021-10-07,合同会社ＨＯＮＩＨＯ,,合同会社,東京都,大田区,中央４丁目３２番５号,,13,111,1430024,,,,,,,2021-10-07,1,,,,,ホニホ,0
2677,9010901049572,新規,0,2021-10-07,2021-10-07,ヘルシー株式会社,,株式会社,東京都,世田谷区,野毛３丁目１６番８号,,13,112,1580092,,,,,,,2021-10-07,1,,,,,ヘルシー,0
2678,9011001143092,新規,0,2021-10-07,2021-10-07,株式会社ＧｅｎｅｒａｔｏｒＸ,,株式会社,東京都,渋谷区,渋谷２丁目１９－１５宮益坂ビルディング６０９,,13,113,1500002,,,,,,,2021-10-07,1,,,,,ジェネレーターエックス,0
2679,9011001143217,新規,0,2021-10-07,2021-10-07,株式会社カリン,,株式会社,東京都,渋谷区,神宮前６丁目２３番４号桑野ビル２Ｆ,,13,113,1500001,,,,,,,2021-10-07,1,,,,,カリン,0
2680,9011001143258,新規,0,2021-10-07,2021-10-07,株式会社ＡＮＶ,,株式会社,東京都,渋谷区,神南１丁目１２－１４渋谷宮田ビル７１１号,,13,113,1500041,,,,,,,2021-10-07,1,,,,,エーエヌブイ,0
2681,9011001143290,新規,0,2021-10-07,2021-10-07,ＥＲＰフリーランスエージェント株式会社,,株式会社,東京都,目黒区,大橋１丁目５番１－１１０６号,,13,110,1530044,,,,,,,2021-10-07,1,,,,,イーアールピーフリーランスエージェント,0
2685,9011003013491,新規,0,2021-10-07,2021-10-07,合同会社ＣＯＯＫ,,合同会社,東京都,渋谷区,円山町５番５号,,13,113,1500044,,,,,,,2021-10-07,1,,,,,クック,0
2686,9011003013509,新規,0,2021-10-07,2021-10-07,エイタイル合同会社,,合同会社,東京都,渋谷区,西原３丁目７番地５号ミタニビル５Ｆ,,13,113,1510066,,,,,,,2021-10-07,1,,,,,エイタイル,0
2687,9011003013517,新規,0,2021-10-07,2021-10-07,合同会社共栄,,合同会社,東京都,渋谷区,神泉町１１番５号メゾン・ド・ヴィレ渋谷８０３,,13,113,1500045,,,,,,,2021-10-07,1,,,,,キョウエイ,0
2693,9011101096513,新規,0,2021-10-07,2021-10-07,株式会社Ｆｌｕｋｅ,,株式会社,東京都,新宿区,大久保３丁目８番１－３１２号,,13,104,1690072,,,,,,,2021-10-07,1,,,,,フルーク,0
2694,9011103011049,新規,0,2021-10-07,2021-10-07,Ｙｏｕ’ｓ合同会社,,合同会社,東京都,新宿区,新宿２丁目１２番１３号新宿アントレサロンビル２階,,13,104,1600022,,,,,,,2021-10-07,1,,,,,ユーズ,0
2696,9011201023292,新規,0,2021-10-07,2021-10-07,インリアリティ株式会社,,株式会社,東京都,中野区,中央１丁目１３番８号,,13,114,1640011,,,,,,,2021-10-07,1,,,,,インリアリティ,0
2697,9011201023301,新規,0,2021-10-07,2021-10-07,株式会社エフケアプランニング,,株式会社,東京都,中野区,中央５丁目４９番１０号,,13,114,1640011,,,,,,,2021-10-07,1,,,,,エフケアプランニング,0
2701,9011503004924,新規,0,2021-10-07,2021-10-07,アンビシャス合同会社,,合同会社,東京都,荒川区,東日暮里４丁目１２番１０号,,13,118,1160014,,,,,,,2021-10-07,1,,,,,アンビシャス,0
2706,9011801039779,新規,0,2021-10-07,2021-10-07,株式会社倉本,,株式会社,東京都,足立区,東和２丁目１７番１１号,,13,121,1200003,,,,,,,2021-10-07,1,,,,,クラモト,0
2707,9011801039787,新規,0,2021-10-07,2021-10-07,株式会社マジックジャパン,,株式会社,東京都,葛飾区,柴又４丁目３５番２号,,13,122,1250052,,,,,,,2021-10-07,1,,,,,マジックジャパン,0
2708,9011801039795,新規,0,2021-10-07,2021-10-07,ＪＳ　Ｇｌｏｂａｌ　Ｉｎｖｅｓｔｍｅｎｔ株式会社,,株式会社,東京都,足立区,本木北町１２番１号,,13,121,1230857,,,,,,,2021-10-07,1,,,,,ジェイエスグローバルインベストメント,0
2710,9012301012739,新規,0,2021-10-07,2021-10-07,株式会社ＳｉｍｓＫｉｔｃｈｅｎ,,株式会社,東京都,町田市,野津田町２６９１番地１２,,13,209,1950063,,,,,,,2021-10-07,1,,,,,シムズキッチン,0
2711,9012303001599,新規,0,2021-10-07,2021-10-07,合同会社アヴァンティ,,合同会社,東京都,町田市,玉川学園２丁目２番１３号,,13,209,1940041,,,,,,,2021-10-07,1,,,,,アヴァンティ,0
2714,9012401038361,新規,0,2021-10-07,2021-10-07,株式会社ＵＬＵ,,株式会社,東京都,調布市,柴崎２丁目１４番地２,,13,208,1820014,,,,,,,2021-10-07,1,,,,,ウル,0
2716,9012403005054,新規,0,2021-10-07,2021-10-07,合同会社ＭＡＩＳＯＮ　ＳＵＰＰＯＲＴ,,合同会社,東京都,府中市,本町１丁目１２番地の２オウズ御殿山３０２,,13,206,1830027,,,,,,,2021-10-07,1,,,,,メゾンサポート,0
2726,9020001143317,新規,0,2021-10-07,2021-10-07,株式会社ダッドウェイペット,,株式会社,神奈川県,横浜市港北区,新横浜２丁目１５番地１２,,14,109,2220033,,,,,,,2021-10-07,1,,,,,ダッドウェイペット,0
2727,9020001143333,新規,0,2021-10-07,2021-10-07,ＳＳ工業株式会社,,株式会社,神奈川県,横浜市南区,中村町４丁目２７４番地１０レーベン横浜阪東橋ＢＡＹ’Ｌ１０７号,,14,105,2320033,,,,,,,2021-10-07,1,,,,,エスエスコウギョウ,0
2728,9020001143366,新規,0,2021-10-07,2021-10-07,横浜国際物流株式会社,,株式会社,神奈川県,横浜市金沢区,幸浦１丁目１５番２号,,14,108,2360003,,,,,,,2021-10-07,1,,,,,ヨコハマコクサイブツリュウ,0
2729,9020001143382,新規,0,2021-10-07,2021-10-07,株式会社イリドロジー研究所,,株式会社,神奈川県,横浜市南区,西中町１丁目９東海マンション１階,,14,105,2320003,,,,,,,2021-10-07,1,,,,,イリドロジーケンキュウジョ,0
2732,9020005015231,新規,0,2021-10-07,2021-10-07,あすは税理士法人,,その他の設立登記法人,神奈川県,横浜市中区,尾上町１丁目８番地関内新井ビル９階,,14,104,2310015,,,,,,,2021-10-07,1,,,,,アスハ,0
2734,9021001074097,新規,0,2021-10-07,2021-10-07,株式会社Ｆｉｌａｒｅ,,株式会社,神奈川県,横須賀市,米が浜通１丁目２番地,,14,201,2380011,,,,,,,2021-10-07,1,,,,,フィラーレ,0
2735,9021001074106,新規,0,2021-10-07,2021-10-07,関東建物工事株式会社,,株式会社,神奈川県,相模原市緑区,二本松３丁目２１番１１号,,14,151,2520137,,,,,,,2021-10-07,1,,,,,カントウタテモノコウジ,0
2736,9021001074139,新規,0,2021-10-07,2021-10-07,株式会社ＰＱＩソリューションズ,,株式会社,神奈川県,相模原市中央区,宮下３丁目１番１０号,,14,152,2520212,,,,,,,2021-10-07,1,,,,,ピーキューアイソリューションズ,0
2737,9021001074171,新規,0,2021-10-07,2021-10-07,トーエイ空調株式会社,,株式会社,神奈川県,藤沢市,大庭５４２４番地の２１,,14,205,2510861,,,,,,,2021-10-07,1,,,,,トーエイクウチョウ,0
2745,9030001144644,新規,0,2021-10-07,2021-10-07,株式会社ニューサポート,,株式会社,埼玉県,東松山市,箭弓町１丁目１１番７号ハイムグランデ東松山２階,00124497,11,212,3550028,,,,,,,2021-10-07,1,,,,,ニューサポート,0
2746,9030001144677,新規,0,2021-10-07,2021-10-07,株式会社はなぶさ青果,,株式会社,埼玉県,幸手市,香日向４丁目７番７号,,11,240,3400164,,,,,,,2021-10-07,1,,,,,ハナブサセイカ,0
2747,9030001144735,新規,0,2021-10-07,2021-10-07,株式会社緑酔園,,株式会社,埼玉県,草加市,柿木町１７３４番地１,,11,221,3400001,,,,,,,2021-10-07,1,,,,,リョクスイエン,0
2749,9030003018061,新規,0,2021-10-07,2021-10-07,合同会社Ｓｐｉｃａ,,合同会社,埼玉県,川越市,大字古市場６５番地４,,11,201,3500014,,,,,,,2021-10-07,1,,,,,スピカ,0
2750,9030003018078,新規,0,2021-10-07,2021-10-07,合同会社ｍａｃｂｅｌ,,合同会社,埼玉県,行田市,大字埼玉４５３８番地５,,11,206,3610025,,,,,,,2021-10-07,1,,,,,マクベル,0
2751,9030005020544,新規,0,2021-10-07,2021-10-07,一般社団法人Ｍ＆Ｒ,,その他の設立登記法人,埼玉県,新座市,大和田５丁目２０番３２号富士見ヶ丘レジデンス２０３号室,,11,230,3520004,,,,,,,2021-10-07,1,,,,,エムアンドアール,0
2755,9040001120405,新規,0,2021-10-07,2021-10-07,株式会社Ｈ－ＬＩＮＥ,,株式会社,千葉県,船橋市,馬込西３丁目１７番１５－３０４号,,12,204,2730855,,,,,,,2021-10-07,1,,,,,エイチライン,0
2756,9040001120454,新規,0,2021-10-07,2021-10-07,株式会社ピオネロ,,株式会社,千葉県,鎌ケ谷市,東中沢２丁目１８番７５号,,12,224,2730112,,,,,,,2021-10-07,1,,,,,ピオネロ,0
2757,9040001120479,新規,0,2021-10-07,2021-10-07,株式会社ＯＴＴＯ　ＷＯＲＫＳ,,株式会社,千葉県,印旛郡酒々井町,ふじき野２丁目５番地５,,12,322,2850928,,,,,,,2021-10-07,1,,,,,オットワークス,0
2763,9050001049908,新規,0,2021-10-07,2021-10-07,株式会社Ｄｅｕｃｅ,,株式会社,茨城県,つくば市,研究学園５丁目１５番地１第２日信ビル５Ｆ,,08,220,3050817,,,,,,,2021-10-07,1,,,,,デュース,0
2764,9050001049916,新規,0,2021-10-07,2021-10-07,東茨城ゴルフ株式会社,,株式会社,茨城県,東茨城郡茨城町,大字鳥羽田６８６番地３,,08,302,3113142,,,,,,,2021-10-07,1,,,,,ヒガシイバラキゴルフ,0
2765,9050001049949,新規,0,2021-10-07,2021-10-07,株式会社仲野会計事務所,,株式会社,茨城県,日立市,神峰町２丁目９番６－３０２号,,08,202,3170064,,,,,,,2021-10-07,1,,,,,ナカノカイケイジムショ,0
2766,9050001049957,新規,0,2021-10-07,2021-10-07,株式会社ＦＯＬＫＳ,,株式会社,茨城県,牛久市,ひたち野西１丁目６番地１５,,08,219,3001206,,,,,,,2021-10-07,1,,,,,フォークス,0
2767,9050003006114,新規,0,2021-10-07,2021-10-07,合同会社島田,,合同会社,茨城県,土浦市,常名１９２２番地３,,08,203,3000065,,,,,,,2021-10-07,1,,,,,シマダ,0
2768,9050003006122,新規,0,2021-10-07,2021-10-07,合同会社エヌラボ,,合同会社,茨城県,守谷市,百合ケ丘１丁目２３５４番地の　２００,,08,224,3020110,,,,,,,2021-10-07,1,,,,,エヌラボ,0
2769,9060001034173,新規,0,2021-10-07,2021-10-07,株式会社ＡＤらぼ,,株式会社,栃木県,那須塩原市,中央町３番１２号,,09,213,3250052,,,,,,,2021-10-07,1,,,,,エーディーラボ,0
2773,9080103002431,新規,0,2021-10-07,2021-10-07,合同会社楽,,合同会社,静岡県,富士宮市,宮町７番１２号,,22,207,4180067,,,,,,,2021-10-07,1,,,,,ラク,0
2775,9080401025407,新規,0,2021-10-07,2021-10-07,株式会社ｂｌａｎｃａ,,株式会社,静岡県,浜松市中区,神田町３９５１－１,,22,131,4328047,,,,,,,2021-10-07,1,,,,,ブランカ,0
2778,9090001017217,新規,0,2021-10-07,2021-10-07,マエケン株式会社,,株式会社,山梨県,甲斐市,西八幡４３９５番地２５号,,19,210,4000117,,,,,,,2021-10-07,1,,,,,マエケン,0
2779,9090001017233,新規,0,2021-10-07,2021-10-07,株式会社加羅,,株式会社,山梨県,甲府市,大里町４０６０－１,,19,201,4000053,,,,,,,2021-10-07,1,,,,,,0
2787,9110001036098,新規,0,2021-10-07,2021-10-07,株式会社ＹＳ工業,,株式会社,新潟県,燕市,小関６９９番地２８,,15,213,9591286,,,,,,,2021-10-07,1,,,,,ワイエスコウギョウ,0
2797,9120001240896,新規,0,2021-10-07,2021-10-07,川重日立造船シールド準備株式会社,,株式会社,大阪府,大阪市北区,堂島１丁目５番３０号,,27,127,5300003,,,,,,,2021-10-07,1,,,,,カワジュウヒタチゾウセンシールドジュンビ,0
2798,9120001240954,新規,0,2021-10-07,2021-10-07,株式会社レクストラボ,,株式会社,大阪府,大阪市中央区,平野町２丁目３番７号,,27,128,5410046,,,,,,,2021-10-07,1,,,,,レクストラボ,0
2799,9120001240970,新規,0,2021-10-07,2021-10-07,天商事株式会社,,株式会社,大阪府,大阪市中央区,安土町１丁目６番１８号,,27,128,5410052,,,,,,,2021-10-07,1,,,,,テンショウジ,0
2804,9120101064411,新規,0,2021-10-07,2021-10-07,株式会社フォームワーク,,株式会社,大阪府,和泉市,箕形町３丁目９番１６号,,27,219,5940042,,,,,,,2021-10-07,1,,,,,フォームワーク,0
2805,9120101064452,新規,0,2021-10-07,2021-10-07,株式会社ダイテック,,株式会社,大阪府,堺市南区,竹城台４丁１番８号,,27,145,5900105,,,,,,,2021-10-07,1,,,,,ダイテック,0
2809,9120901045008,新規,0,2021-10-07,2021-10-07,株式会社リビングリテラシー,,株式会社,大阪府,箕面市,桜ケ丘１丁目５－１６,,27,220,5620046,,,,,,,2021-10-07,1,,,,,リビングリテラシー,0
2814,9130001070244,新規,0,2021-10-07,2021-10-07,株式会社ＥＸＩＡ,,株式会社,京都府,京都市下京区,富小路通綾小路下る塗師屋町８５番地,,26,106,6008053,,,,,,,2021-10-07,1,,,,,エクシア,0
2815,9130001070277,新規,0,2021-10-07,2021-10-07,株式会社Ｓｕｒｐａｓｓ　Ｃｏｒｐｏｒａｔｉｏｎ,,株式会社,京都府,京都市伏見区,久我森の宮町４番地８１,,26,109,6128495,,,,,,,2021-10-07,1,,,,,サーパスコーポレーション,0
2816,9130001070293,新規,0,2021-10-07,2021-10-07,株式会社Ｅ’ｎｅｌ　Ｐｒｏｍｏｔｉｏｎ,,株式会社,京都府,京都市西京区,桂浅原町１３５番地ラカーザセレーナ１０１,,26,111,6158021,,,,,,,2021-10-07,1,,,,,エネルプロモーション,0
2817,9130001070302,新規,0,2021-10-07,2021-10-07,ヒューネット株式会社,,株式会社,京都府,京都市南区,吉祥院西ノ茶屋町４０レオパレスＡＬＴＡＶ１１０,,26,107,6018381,,,,,,,2021-10-07,1,,,,,ヒューネット,0
2819,9130005016284,新規,0,2021-10-07,2021-10-07,医療法人緑風会,,その他の設立登記法人,京都府,京都市中京区,六角通柳馬場東入大黒町７１番地イーグルコート京都六角雅心庵２階Ｆ号室,,26,104,6048073,,,,,,,2021-10-07,1,,,,,リョクフウカイ,0
2825,9140001123273,新規,0,2021-10-07,2021-10-07,株式会社Ｓｗｉｔｃｈ,,株式会社,兵庫県,尼崎市,立花町１丁目８番５号,,28,202,6610025,,,,,,,2021-10-07,1,,,,,スイッチ,0
2826,9140001123281,新規,0,2021-10-07,2021-10-07,株式会社フリーライフ,,株式会社,兵庫県,養父市,八鹿町朝倉８７３番地,,28,222,6670024,,,,,,,2021-10-07,1,,,,,フリーライフ,0
2827,9140001123323,新規,0,2021-10-07,2021-10-07,志株式会社,,株式会社,兵庫県,姫路市,船津町１２９１番地２,,28,201,6792101,,,,,,,2021-10-07,1,,,,,ココロザシ,0
2828,9140001123380,新規,0,2021-10-07,2021-10-07,株式会社エフホーム,,株式会社,兵庫県,伊丹市,寺本３丁目２０２番地１ヴィルヌーブ伊丹昆陽６０９号,,28,207,6640026,,,,,,,2021-10-07,1,,,,,エフホーム,0
2831,9150003002508,新規,0,2021-10-07,2021-10-07,合同会社キュクロ,,合同会社,奈良県,生駒郡斑鳩町,神南３丁目１６番２０号,,29,344,6360143,,,,,,,2021-10-07,1,,,,,キュクロ,0
2833,9160001023703,新規,0,2021-10-07,2021-10-07,株式会社Ｐｏｎｏ　Ｄｅｓｉｇｎ,,株式会社,滋賀県,大津市,光が丘町５－２１,,25,201,5200856,,,,,,,2021-10-07,1,,,,,ポノデザイン,0
2846,9180001148052,新規,0,2021-10-07,2021-10-07,株式会社ステラマリス,,株式会社,愛知県,名古屋市緑区,滝ノ水２丁目２００５番地の２,,23,114,4580021,,,,,,,2021-10-07,1,,,,,ステラマリス,0
2847,9180001148119,新規,0,2021-10-07,2021-10-07,株式会社タノシモ,,株式会社,愛知県,名古屋市中川区,西日置１丁目１番３号木全ビル４階,,23,110,4540004,,,,,,,2021-10-07,1,,,,,タノシモ,0
2848,9180001148127,新規,0,2021-10-07,2021-10-07,トライボテックスマリン株式会社,,株式会社,愛知県,大府市,長草町山口４５番地の７,,23,223,4740052,,,,,,,2021-10-07,1,,,,,トライボテックスマリン,0
2849,9180001148168,新規,0,2021-10-07,2021-10-07,株式会社Ｍ’ｓＷｏｒｋｓ,,株式会社,愛知県,名古屋市守山区,川宮町２９９番地,,23,113,4630081,,,,,,,2021-10-07,1,,,,,エムズワークス,0
2850,9180001148201,新規,0,2021-10-07,2021-10-07,株式会社９８,,株式会社,愛知県,愛西市,内佐屋町郷１４１番地４アリシアガーデンＣ棟,,23,232,4960903,,,,,,,2021-10-07,1,,,,,ナインエイト,0
2852,9180003023071,新規,0,2021-10-07,2021-10-07,合同会社Ｇｒｏｗｔｈｓ　Ｈｏｒｉｚｏｎ,,合同会社,愛知県,名古屋市千種区,千種２丁目２３番６号（ロイヤルパークス千種８０７号）,,23,101,4640858,,,,,,,2021-10-07,1,,,,,グロースホライゾン,0
2857,9180301035479,新規,0,2021-10-07,2021-10-07,株式会社バイオジェニックス・ＳＵＮＮＹ,,株式会社,愛知県,豊田市,加納町末石２２番地,,23,211,4700364,,,,,,,2021-10-07,1,,,,,バイオジェニックスサニー,0
2869,9200001039257,新規,0,2021-10-07,2021-10-07,株式会社Ｔ．Ｎ企画,,株式会社,岐阜県,不破郡垂井町,宮代２２４４番地の４,,21,361,5032124,,,,,,,2021-10-07,1,,,,,ティエヌキカク,0
2871,9200005013258,新規,0,2021-10-07,2021-10-07,特定非営利活動法人子ども未来創造ＮＥＴ岐阜,,その他の設立登記法人,岐阜県,瑞浪市,稲津町小里２３１７番地の２３,,21,208,5096103,,,,,,,2021-10-07,1,,,,,コドモミライソウゾウネットギフ,0
2875,9220003003127,新規,0,2021-10-07,2021-10-07,合同会社コロ,,合同会社,石川県,金沢市,駅西本町３丁目１４番１号１５０２,,17,201,9200025,,,,,,,2021-10-07,1,,,,,コロ,0
2876,9220005008603,新規,0,2021-10-07,2021-10-07,一般社団法人白山ウォルドルフコミュニティ,,その他の設立登記法人,石川県,河北郡津幡町,字上野ル１５１番地１,,17,361,9290405,,,,,,,2021-10-07,1,,,,,ハクサンウォルドルフコミュニティ,0
2879,9240001058740,新規,0,2021-10-07,2021-10-07,株式会社ＰＰＰｉ,,株式会社,広島県,広島市安佐北区,安佐町大字くすの木台１１番地６,,34,106,7313363,,,,,,,2021-10-07,1,,,,,ピーピーピー,0
2885,9250005008690,新規,0,2021-10-07,2021-10-07,弁護士法人関門総合法律事務所,,その他の設立登記法人,山口県,下関市,大平町２番６号,,35,201,7500053,,,,,,,2021-10-07,1,,,,,カンモンソウゴウホウリツジムショ,0
2900,9290005018380,新規,0,2021-10-07,2021-10-07,一般社団法人共育会,,その他の設立登記法人,福岡県,八女市,鵜池１８３番地,,40,210,8340055,,,,,,,2021-10-07,1,,,,,キョウイクカイ,0
2901,9300001012641,新規,0,2021-10-07,2021-10-07,株式会社和,,株式会社,佐賀県,佐賀市,神野西２丁目２番３３－２０３号,,41,201,8400805,,,,,,,2021-10-07,1,,,,,ナゴム,0
2902,9300005007035,新規,0,2021-10-07,2021-10-07,農事組合法人井手ファーム,,その他の設立登記法人,佐賀県,鹿島市,大字井手１３５１番地,,41,207,8491302,,,,,,,2021-10-07,1,,,,,イデファーム,0
2904,9320001018653,新規,0,2021-10-07,2021-10-07,リタライズ株式会社,,株式会社,大分県,大分市,生石１丁目３番１１号廣島ビル１０２号,,44,201,8700003,,,,,,,2021-10-07,1,,,,,リタライズ,0
2905,9320001018661,新規,0,2021-10-07,2021-10-07,株式会社Ｈ＆Ｄ,,株式会社,大分県,中津市,大字宮夫２４０－５アドバンスビル１－１０８号,,44,203,8710012,,,,,,,2021-10-07,1,,,,,エイチアンドディー,0
2908,9330003009071,新規,0,2021-10-07,2021-10-07,合同会社Ｔ・Ｏ,,合同会社,熊本県,菊池郡大津町,美咲野３丁目１９番５号,,43,403,8691237,,,,,,,2021-10-07,1,,,,,ティーオー,0
2912,9350001017347,新規,0,2021-10-07,2021-10-07,株式会社竹吉塗装,,株式会社,宮崎県,都城市,都原町３３７７番地１４,,45,202,8850094,,,,,,,2021-10-07,1,,,,,タケヨシトソウ,0
2915,9360003011487,新規,0,2021-10-07,2021-10-07,合同会社Ｓｙｍａ,,合同会社,沖縄県,島尻郡八重瀬町,字世名城９５６－３,,47,362,9010403,,,,,,,2021-10-07,1,,,,,サイマ,0
2916,9370001047656,新規,0,2021-10-07,2021-10-07,株式会社Ｂｒｉｌｌｉａｎｔ　Ｋｉｙｏｎｏ,,株式会社,宮城県,仙台市青葉区,下愛子字町３番地の２－Ｂ号,,04,101,9893125,,,,,,,2021-10-07,1,,,,,ブリリアントキヨノ,0
2917,9370001047672,新規,0,2021-10-07,2021-10-07,株式会社北栄建装,,株式会社,宮城県,加美郡色麻町,四竃字東原３３５番地,,04,444,9814122,,,,,,,2021-10-07,1,,,,,ホクエイケンソウ,0
2918,9370001047689,新規,0,2021-10-07,2021-10-07,株式会社ＩＫマネジメント,,株式会社,宮城県,仙台市泉区,住吉台東５丁目９番地の１,,04,105,9813222,,,,,,,2021-10-07,1,,,,,アイケーマネジメント,0
2924,9380003005025,新規,0,2021-10-07,2021-10-07,ＧＯＯＤ　ＳＰＥＥＤ５１合同会社,,合同会社,福島県,いわき市,平塩字中島７番地の７,,07,204,9708022,,,,,,,2021-10-07,1,,,,,グッドスピードゴジュウイチ,0
2928,9390001016618,新規,0,2021-10-07,2021-10-07,株式会社栗本設計事務所,,株式会社,山形県,鶴岡市,山王町５番２５号,,06,203,9970028,,,,,,,2021-10-07,1,,,,,クリモトセッケイジムショ,0
2929,9400005008188,新規,0,2021-10-07,2021-10-07,一般社団法人ささき蜂和会,,その他の設立登記法人,岩手県,北上市,花園町３丁目４番地４５,,03,206,0240035,,,,,,,2021-10-07,1,,,,,ササキホウワカイ,0
2933,9410001012985,新規,0,2021-10-07,2021-10-07,東成瀬テックソリューションズ株式会社,,株式会社,秋田県,雄勝郡東成瀬村,田子内字田子内４０番地２,,05,464,0190801,,,,,,,2021-10-07,1,,,,,ヒガシナルセテックソリューションズ,0
2946,9430003013220,新規,0,2021-10-07,2021-10-07,ｖｉａｇｇｉｏ合同会社,,合同会社,北海道,札幌市中央区,北二条東８丁目８６番地１７,,01,101,0600032,,,,,,,2021-10-07,1,,,,,ヴィアッジオ,0
2947,9430003013229,新規,0,2021-10-07,2021-10-07,合同会社後藤組鉄工,,合同会社,北海道,苫小牧市,三光町２丁目２３番２３－２０３号,,01,213,0530042,,,,,,,2021-10-07,1,,,,,ゴトウグミテッコウ,0
2948,9440001008956,新規,0,2021-10-07,2021-10-07,株式会社コーワ設備,,株式会社,北海道,函館市,堀川町２４番７号,,01,202,0400025,,,,,,,2021-10-07,1,,,,,コーワセツビ,0
2956,9470001018762,新規,0,2021-10-07,2021-10-07,株式会社ｆｉｅｌｕ,,株式会社,香川県,高松市,瓦町２丁目３番地６高橋ビル２Ｆ,,37,201,7600052,,,,,,,2021-10-07,1,,,,,フィエル,0
2958,9470003002046,新規,0,2021-10-07,2021-10-07,ｌｅ　ｃｏｃｏｎ合同会社,,合同会社,香川県,高松市,多肥上町４５５－１オーブウエストＡ棟２０２,,37,201,7618076,,,,,,,2021-10-07,1,,,,,ルココン,0
