sequenceNumber,corporateNumber,process,correct,updateDate,changeDate,name,nameImageId,kind,prefectureName,cityName,streetNumber,addressImageId,prefectureCode,cityCode,postCode,addressOutside,addressOutsideImageId,closeDate,closeCause,successorCorporateNumber,changeCause,assignmentDate,latest,enName,enPrefectureName,enCityName,enAddressOutside,furigana,hihyoji
9,1010003023954,登記記録の閉鎖等,0,2023-05-29,2023-05-24,合同会社ＳｅｒｖｉｒＡｖｅｃＢｒｉｏ,,合同会社,東京都,中央区,日本橋１丁目２－１０東洋ビル５階,,13,102,1030027,,,2023-05-24,清算の結了等,,,2016-08-15,1,,,,,サーブアベックブリオ,0
11,1010005027730,登記記録の閉鎖等,0,2023-05-29,2023-05-24,一般社団法人ＣＥＳＳ,,その他の設立登記法人,東京都,千代田区,二番町９番３号,,13,101,1020084,,,2023-05-24,合併による解散等,5010405012626,令和５年５月１日東京都港区赤坂三丁目１番１６号一般社団法人アーツ・アンド・マトリクス（5010405012626）に合併し解散,2017-11-17,1,,,,,シーイーエスエス,0
17,1010401098301,登記記録の閉鎖等,0,2023-05-29,2023-05-25,株式会社ディスカバリーネクスト,,株式会社,神奈川県,横浜市青葉区,荏田町４４８番地１０,,14,117,2250013,,,2023-05-25,清算の結了等,,,2015-10-05,1,,,,,ディスカバリーネクスト,0
25,1010601005800,登記記録の閉鎖等,0,2023-05-29,2023-05-24,株式会社日の出写真館,,株式会社,東京都,江東区,住吉２丁目３番７号,,13,108,1350002,,,2023-05-24,清算の結了等,,,2015-10-05,1,,,,,ヒノデシャシンカン,0
53,1012702008137,登記記録の閉鎖等,0,2023-05-29,2023-05-25,有限会社富士屋硝子店,,有限会社,東京都,清瀬市,野塩１丁目１７０番地の１１,,13,221,2040004,,,2023-05-25,清算の結了等,,,2015-10-05,1,,,,,フジヤガラステン,0
65,1020005014109,登記記録の閉鎖等,0,2023-05-29,2023-05-11,特定非営利活動法人インクルーシブ,,その他の設立登記法人,神奈川県,川崎市宮前区,土橋１丁目１３番地１富樫ビル２０１,,14,136,2160005,,,2023-05-11,清算の結了等,,,2019-04-17,1,,,,,インクルーシブ,0
85,1030002116609,登記記録の閉鎖等,0,2023-05-29,2023-05-09,有限会社木次工業所,,有限会社,埼玉県,深谷市,本住町２番２６号,,11,218,3660823,,,2023-05-09,清算の結了等,,,2015-10-05,1,,,,,キツギコウギョウショ,0
102,1040002041319,登記記録の閉鎖等,0,2023-05-29,2023-05-10,有限会社トモス工房,,有限会社,千葉県,浦安市,入船２丁目１１番２０３号,,12,227,2790012,,,2023-05-10,清算の結了等,,,2015-10-05,1,,,,,トモスコウボウ,0
112,1050002033067,登記記録の閉鎖等,0,2023-05-29,2023-05-23,有限会社かねも呉服店,,有限会社,茨城県,龍ケ崎市,４２５０番地,,08,208,3010000,,,2023-05-23,清算の結了等,,,2015-10-05,1,,,,,カネモゴフクテン,0
138,1120001179952,登記記録の閉鎖等,0,2023-05-29,2023-05-24,レスレジャパン株式会社,,株式会社,東京都,千代田区,神田佐久間町１丁目１６番地－５Ｆ,,13,101,1010025,,,2023-05-24,清算の結了等,,,2015-10-05,1,,,,,レスレジャパン,0
151,1140005023403,登記記録の閉鎖等,0,2023-05-29,2023-05-23,特定非営利活動法人男女共同参画研究機構,,その他の設立登記法人,兵庫県,神戸市中央区,中町通３丁目１番１６号,,28,110,6500027,,,2023-05-23,清算の結了等,,,2017-02-24,1,,,,,ダンジョキョウドウサンカクケンキュウキコウ,0
160,1180001059348,登記記録の閉鎖等,0,2023-05-29,2023-05-22,株式会社名星企画,,株式会社,愛知県,名古屋市中村区,二瀬町８９番地,,23,105,4530837,,,2023-05-22,清算の結了等,,,2015-10-05,1,,,,,メイセイキカク,0
188,1290001073809,登記記録の閉鎖等,0,2023-05-29,2023-05-19,株式会社安部組,,株式会社,福岡県,久留米市,津福今町４０４番地２２０,,40,203,8300061,,,2023-05-19,清算の結了等,,,2016-05-06,1,,,,,アベグミ,0
193,1290002036954,登記記録の閉鎖等,0,2023-05-29,2023-05-23,有限会社藤屋石油,,有限会社,福岡県,糟屋郡粕屋町,大字仲原２５１８番地の１,,40,349,8112304,,,2023-05-23,清算の結了等,,,2015-10-05,1,,,,,フジヤセキユ,0
196,1290002047357,登記記録の閉鎖等,0,2023-05-29,2023-05-22,有限会社鶴幸雄商店,00093482,有限会社,福岡県,筑後市,大字長崎３３４番地３,,40,211,8330042,,,2023-05-22,清算の結了等,,,2015-10-05,1,,,,,ツルユキオショウテン,0
201,1300005000781,登記記録の閉鎖等,0,2023-05-29,2023-05-17,天理教上佐賀分教会,,その他の設立登記法人,佐賀県,佐賀市,神野東１丁目２番１４号,,41,201,8400804,,,2023-05-17,合併による解散等,7300005000776,令和５年５月１７日佐賀市成章町５番６号天理教佐賀分教会（7300005000776）に合併し解散,2015-10-05,1,,,,,テンリキョウカミサガブンキョウカイ,0
205,1320205000126,登記記録の閉鎖等,0,2023-05-29,2023-05-18,津久見市深良津二世養殖漁業生産組合,,その他の設立登記法人,大分県,津久見市,大字四浦３１８４番地の５,,44,207,8792683,,,2023-05-18,清算の結了等,,,2015-10-05,1,,,,,ツクミシフカラツニセイヨウショク,0
208,1340001010970,登記記録の閉鎖等,0,2023-05-29,2023-05-24,株式会社あんしんライフ,,株式会社,鹿児島県,奄美市,名瀬入舟町１０番１号,,46,222,8940034,,,2023-05-24,清算の結了等,,,2015-10-05,1,,,,,アンシンライフ,0
220,1430001039844,登記記録の閉鎖等,0,2023-05-29,2023-05-09,株式会社ＡＳＣＯ,,株式会社,北海道,札幌市南区,澄川六条１２丁目９番３号,,01,106,0050006,,,2023-05-09,清算の結了等,,,2015-10-05,1,,,,,アスコ,0
243,2010002003691,登記記録の閉鎖等,0,2023-05-29,2023-05-25,有限会社武田興業,,有限会社,東京都,文京区,本駒込３丁目２７番７号,,13,105,1130021,,,2023-05-25,清算の結了等,,,2015-10-05,1,,,,,,0
248,2010101004814,登記記録の閉鎖等,0,2023-05-29,2023-05-18,株式会社ヘルスケアジャパン,,株式会社,東京都,八王子市,丸山町２２番２号,,13,201,1920021,,,2023-05-18,清算の結了等,,,2015-10-05,1,,,,,ヘルスケアジャパン,0
252,2010401168763,登記記録の閉鎖等,0,2023-05-29,2023-05-11,株式会社Ｌｅｓｆｅｒｕｓ,,株式会社,東京都,港区,麻布十番２丁目４番１号,,13,103,1060045,,,2023-05-11,清算の結了等,,,2022-07-27,1,,,,,レスフェルス,0
266,2010803001753,登記記録の閉鎖等,0,2023-05-29,2023-05-25,合同会社Ｌｉｔｔｌｅ　Ｂｅａｒ,,合同会社,東京都,世田谷区,玉川３丁目２０－２マノア玉川第３ビル５０１号室,,13,112,1580094,,,2023-05-25,合併による解散等,9010903003734,令和５年３月３１日大阪市淀川区宮原１－１９－２３ステュディオ新御堂６０６合同会社Ｂｉｇ　Ｍｏｍ（9010903003734）に合併し解散,2015-10-05,1,,,,,リトルベアー,0
300,2013201006127,登記記録の閉鎖等,0,2023-05-29,2023-05-24,ユニバーサル興産株式会社,,株式会社,東京都,目黒区,下目黒１丁目２番２２－４０６号,,13,110,1530064,,,2023-05-24,清算の結了等,,,2015-10-05,1,,,,,ユニバーサルコウサン,0
312,2020002053819,登記記録の閉鎖等,0,2023-05-29,2023-05-26,有限会社ビー・ディー・エー,,有限会社,神奈川県,横浜市南区,大岡４丁目３番１０号,,14,105,2320061,,,2023-05-26,清算の結了等,,,2015-10-05,1,,,,,ビーディーエー,0
348,2040003008761,登記記録の閉鎖等,0,2023-05-29,2023-05-11,飛楊合同会社,,合同会社,千葉県,松戸市,上本郷４３８番地の１北松戸第２ローヤルコーポ１００４号,,12,207,2710064,,,2023-05-11,清算の結了等,,,2016-07-01,1,,,,,トブヨウ,0
351,2050001006691,登記記録の閉鎖等,0,2023-05-29,2023-05-23,株式会社川崎市郎兵衛商店,,株式会社,茨城県,ひたちなか市,阿字ケ浦町１６６番地,,08,221,3111201,,,2023-05-23,清算の結了等,,,2015-10-05,1,,,,,カワサキイチロウベエショウテン,0
394,2120901024174,登記記録の閉鎖等,0,2023-05-29,2023-05-24,株式会社ジヤパン企画,,株式会社,大阪府,豊中市,刀根山６丁目１４番１２号,,27,203,5600045,,,2023-05-24,清算の結了等,,,2015-10-05,1,,,,,ジヤパンキカク,0
399,2140001047710,登記記録の閉鎖等,0,2023-05-29,2023-05-24,株式会社井上建設,,株式会社,兵庫県,尼崎市,神田中通８丁目２８０番地,,28,202,6600884,,,2023-05-24,清算の結了等,,,2015-10-05,1,,,,,,0
400,2140001097978,登記記録の閉鎖等,0,2023-05-29,2023-05-25,株式会社セカンドミール,,株式会社,兵庫県,神戸市中央区,下山手通２丁目１２番６号,,28,110,6500011,,,2023-05-25,清算の結了等,,,2015-10-05,1,,,,,セカンドミール,0
402,2140002009164,登記記録の閉鎖等,0,2023-05-29,2023-05-24,有限会社藤田,,有限会社,兵庫県,神戸市長田区,蓮宮通４丁目７番１号,00040555,28,106,6530831,,,2023-05-24,清算の結了等,,,2015-10-05,1,,,,,フジタ,0
405,2140002062725,登記記録の閉鎖等,0,2023-05-29,2023-05-25,有限会社小野会館,,有限会社,兵庫県,神戸市北区,松が枝町１丁目１番地の４３、４０４号,,28,109,6511232,,,2023-05-25,清算の結了等,,,2015-10-05,1,,,,,,0
413,2180002083461,登記記録の閉鎖等,0,2023-05-29,2023-05-25,有限会社サブサポート,,有限会社,愛知県,半田市,青山６丁目２番地の２,,23,205,4750836,,,2023-05-25,清算の結了等,,,2015-10-05,1,,,,,サブサポート,0
433,2230005005300,登記記録の閉鎖等,0,2023-05-29,2023-05-26,圓宮寺,,その他の設立登記法人,富山県,小矢部市,八和町３番３号,,16,209,9320048,,,2023-05-26,清算の結了等,,,2015-10-05,1,,,,,エングウジ,0
442,2260002033078,登記記録の閉鎖等,0,2023-05-29,2023-05-26,有限会社ナンバ電化センター,,有限会社,岡山県,玉野市,長尾１８７番地の１,,33,204,7060151,,,2023-05-26,清算の結了等,,,2015-10-05,1,,,,,ナンバデンカセンター,0
453,2290002005017,登記記録の閉鎖等,0,2023-05-29,2023-05-23,有限会社シティ薬局,,有限会社,福岡県,福岡市東区,みどりが丘２丁目１１番８号,,40,131,8130021,,,2023-05-23,清算の結了等,,,2015-10-05,1,,,,,シティヤッキョク,0
454,2290002011353,登記記録の閉鎖等,0,2023-05-29,2023-05-22,有限会社寿々屋,,有限会社,福岡県,福岡市中央区,春吉３丁目１２番３５号,,40,133,8100003,,,2023-05-22,清算の結了等,,,2015-10-05,1,,,,,スズヤ,0
467,2330002018856,登記記録の閉鎖等,0,2023-05-29,2023-05-25,有限会社レビュー,,有限会社,熊本県,山鹿市,鹿本町来民５８９番地１,,43,208,8610331,,,2023-05-25,清算の結了等,,,2015-10-05,1,,,,,レビュー,0
469,2330005005389,登記記録の閉鎖等,0,2023-05-29,2023-05-25,熊本県生鮮食品輸送事業協同組合,,その他の設立登記法人,熊本県,宇城市,松橋町豊福２５１３番地１,,43,213,8690524,,,2023-05-25,清算の結了等,,,2015-10-05,1,,,,,クマモトケンセイセンショクヒンユソウ,0
484,2380002022390,登記記録の閉鎖等,0,2023-05-29,2023-05-25,有限会社市場食堂,,有限会社,福島県,いわき市,小名浜字栄町６６番地の７,,07,204,9718101,,,2023-05-25,清算の結了等,,,2015-10-05,1,,,,,イチバショクドウ,0
486,2430001007791,登記記録の閉鎖等,0,2023-05-29,2023-05-16,株式会社ショーアンドテル,,株式会社,北海道,札幌市中央区,北三条東１２丁目９９－２－７０５,,01,101,0600033,,,2023-05-16,清算の結了等,,,2015-10-05,1,,,,,ショーアンドテル,0
489,2430001083759,登記記録の閉鎖等,0,2023-05-29,2023-05-17,北海道エア・ウォーター・アグリ株式会社,,株式会社,北海道,札幌市中央区,北三条西１丁目２番地,,01,101,0600003,,,2023-05-17,合併による解散等,3450001001998,令和５年４月１日北海道旭川市永山北一条十丁目１３番５号ＡＷアグリフーズテクノ株式会社（3450001001998）に合併し解散,2021-04-05,1,,,,,ホッカイドウエアウォーターアグリ,0
495,2450001002205,登記記録の閉鎖等,0,2023-05-29,2023-05-26,道北タンパク食品工業株式会社,,株式会社,北海道,旭川市,東一条３丁目１番１７号,,01,204,0700021,,,2023-05-26,清算の結了等,,,2015-10-05,1,,,,,ドウホクタンパクショクヒンコウギョウ,0
502,3010001004707,登記記録の閉鎖等,0,2023-05-29,2023-05-24,タカラ防災用品株式会社,,株式会社,東京都,千代田区,神田小川町３丁目１１番２号,,13,101,1010052,,,2023-05-24,清算の結了等,,,2015-10-05,1,,,,,タカラボウサイヨウヒン,0
536,3010601040820,登記記録の閉鎖等,0,2023-05-29,2023-05-10,株式会社ＳＫプランニング,,株式会社,千葉県,市川市,加藤新田２０２番地１,,12,203,2720124,,,2023-05-10,清算の結了等,,,2015-10-05,1,,,,,エスケイプランイング,0
548,3011001121310,登記記録の閉鎖等,0,2023-05-29,2023-05-24,フェアトレードマルシェ株式会社,,株式会社,愛知県,名古屋市中川区,戸田西３丁目４３４番地,,23,110,4540967,,,2023-05-24,清算の結了等,,,2018-03-26,1,,,,,フェアトレードマルシェ,0
551,3011003014223,登記記録の閉鎖等,0,2023-05-29,2023-05-17,ライムライト合同会社,,合同会社,東京都,渋谷区,道玄坂１丁目１０番８号渋谷道玄坂東急ビル２Ｆ－Ｃ,,13,113,1500043,,,2023-05-17,清算の結了等,,,2022-02-22,1,,,,,ライムライト,0
565,3013202003898,登記記録の閉鎖等,0,2023-05-29,2023-05-24,タイヨーブラザース有限会社,,有限会社,東京都,目黒区,八雲１丁目１０番７号,,13,110,1520023,,,2023-05-24,清算の結了等,,,2015-10-05,1,,,,,タイヨーブラザース,0
578,3021001002831,登記記録の閉鎖等,0,2023-05-29,2023-05-23,株式会社国土鑑定研究所,,株式会社,神奈川県,藤沢市,亀井野５５７番地の３,,14,205,2520813,,,2023-05-23,清算の結了等,,,2015-10-05,1,,,,,コクドカンテイケンキュウジョ,0
597,3030001139559,登記記録の閉鎖等,0,2023-05-29,2023-04-17,株式会社小杉幸夢店,,株式会社,埼玉県,上尾市,中妻１丁目１４番地２３,,11,219,3620072,,,2023-04-17,清算の結了等,,,2020-12-04,1,,,,,コスギコウムテン,0
602,3030002060697,登記記録の閉鎖等,0,2023-05-29,2023-05-15,有限会社梅屋,,有限会社,埼玉県,新座市,西堀２丁目１３番２３号,,11,230,3520031,,,2023-05-15,清算の結了等,,,2015-10-05,1,,,,,ウメヤ,0
611,3040001059351,登記記録の閉鎖等,0,2023-05-29,2023-05-10,株式会社東和不動産,,株式会社,千葉県,茂原市,小林１６９１番地５,,12,210,2970074,,,2023-05-10,清算の結了等,,,2015-10-05,1,,,,,トウワフドウサン,0
613,3040001066612,登記記録の閉鎖等,0,2023-05-29,2023-05-10,株式会社湯沢建設,,株式会社,千葉県,柏市,西原６丁目７番２７号,,12,217,2770885,,,2023-05-10,清算の結了等,,,2015-10-05,1,,,,,ユザワケンセツ,0
646,3080401000563,登記記録の閉鎖等,0,2023-05-29,2023-05-25,株式会社Ｉｎａｇａｋｉ,,株式会社,東京都,千代田区,飯田橋２丁目１８番１－２５０５号,,13,101,1020072,,,2023-05-25,清算の結了等,,,2015-10-05,1,,,,,イナガキ,0
656,3120001169043,登記記録の閉鎖等,0,2023-05-29,2023-05-25,ヒットマインド株式会社,,株式会社,大阪府,大阪市浪速区,稲荷２丁目１番１６号シギスタデイオビル５０１,,27,111,5560023,,,2023-05-25,清算の結了等,,,2015-10-05,1,,,,,ヒットマインド,0
671,3130001000834,登記記録の閉鎖等,0,2023-05-29,2023-05-25,株式会社カーサプランニング,,株式会社,京都府,京都市右京区,山ノ内荒木町７番地５８,,26,108,6150073,,,2023-05-25,合併による解散等,2130001000835,令和５年５月２５日京都市右京区山ノ内荒木町７番地５８株式会社嵯峨野不動産（2130001000835）に合併し解散,2015-10-05,1,,,,,カーサプランニング,0
676,3140001011277,登記記録の閉鎖等,0,2023-05-29,2023-05-25,株式会社明豊,,株式会社,兵庫県,神戸市中央区,生田町２丁目２番１号,,28,110,6510092,,,2023-05-25,清算の結了等,,,2015-10-05,1,,,,,,0
680,3140001113750,登記記録の閉鎖等,0,2023-05-29,2023-05-24,株式会社プログレス,,株式会社,兵庫県,丹波市,柏原町柏原９８０番地２,,28,223,6693309,,,2023-05-24,清算の結了等,,,2019-05-27,1,,,,,プログレス,0
691,3180001127994,登記記録の閉鎖等,0,2023-05-29,2023-05-25,株式会社本生,,株式会社,愛知県,名古屋市中区,大須１丁目３２番３２号パリーマンション４Ｂ,,23,106,4600011,,,2023-05-25,清算の結了等,,,2017-05-30,1,,,,,ホンショウ,0
695,3180002009630,登記記録の閉鎖等,0,2023-05-29,2023-05-24,有限会社伸晃製作所,,有限会社,愛知県,名古屋市瑞穂区,平郷町１丁目６番地,,23,108,4670879,,,2023-05-24,清算の結了等,,,2015-10-05,1,,,,,シンコウセイサクショ,0
697,3180002050535,登記記録の閉鎖等,0,2023-05-29,2023-05-24,有限会社技術開発研究所,,有限会社,愛知県,名古屋市熱田区,桜田町１５番７－５０７号,,23,109,4560004,,,2023-05-24,清算の結了等,,,2015-10-05,1,,,,,ギジュツカイハツケンキュウショ,0
700,3180002085746,登記記録の閉鎖等,0,2023-05-29,2023-05-25,有限会社山善,,有限会社,愛知県,知多郡南知多町,大字豊浜字塩屋浦８番地の１,,23,445,4703412,,,2023-05-25,清算の結了等,,,2015-10-05,1,,,,,ヤマゼン,0
703,3190003003268,登記記録の閉鎖等,0,2023-05-29,2023-05-11,ヨシダマシナリー合同会社,,合同会社,三重県,四日市市,大宮町２７番１８号,,24,202,5100003,,,2023-05-11,清算の結了等,,,2020-01-06,1,,,,,ヨシダマシナリー,0
711,3240002022536,登記記録の閉鎖等,0,2023-05-29,2023-05-25,有限会社フォーユーコミュニケーション,,有限会社,広島県,広島市南区,西蟹屋１丁目２番１４号,,34,103,7320804,,,2023-05-25,清算の結了等,,,2015-10-05,1,,,,,フォーユーコミュニケーション,0
712,3240002036775,登記記録の閉鎖等,0,2023-05-29,2023-05-25,有限会社にしお観光農園,,有限会社,広島県,廿日市市,串戸３丁目１３番３１号,,34,213,7380033,,,2023-05-25,清算の結了等,,,2015-10-05,1,,,,,,0
718,3290001030989,登記記録の閉鎖等,0,2023-05-29,2023-05-23,株式会社ライトブレイン,,株式会社,福岡県,福岡市中央区,大名２丁目４番３８－４１４号,,40,133,8100041,,,2023-05-23,清算の結了等,,,2015-10-05,1,,,,,ライトブレイン,0
727,3290002030690,登記記録の閉鎖等,0,2023-05-29,2023-05-24,有限会社福岡早良観光,,有限会社,福岡県,福岡市早良区,内野８丁目２４３番地２,,40,137,8111123,,,2023-05-24,清算の結了等,,,2015-10-05,1,,,,,フクオカサワラカンコウ,0
739,3360001019249,登記記録の閉鎖等,0,2023-05-29,2023-05-15,株式会社アールアンドリュクスデータサービスセンター,,株式会社,沖縄県,那覇市,泊１丁目６番地５のはらビル泊３階,,47,201,9000012,,,2023-05-15,合併による解散等,9180301003683,令和５年５月１日愛知県岡崎市羽根東町三丁目３番地９株式会社不動産ＳＨＯＰナカジツ（9180301003683）に合併し解散,2015-10-05,1,,,,,アールアンドリュクスデータサービスセンター,0
742,3360003011187,登記記録の閉鎖等,0,2023-05-29,2023-05-11,合同会社ＡＬＥ,,合同会社,沖縄県,那覇市,松山１丁目１４番１９号ペアシティビル１０２,,47,201,9000032,,,2023-05-11,合併による解散等,6360001028313,令和５年５月１日沖縄県那覇市松山一丁目５番１号ナムラプラザビル１階株式会社Ｙ’ｓ　Ｈｏｌｄｉｎｇｓ（6360001028313）に合併し解散,2021-06-07,1,,,,,エーエルイー,0
745,3380002001633,登記記録の閉鎖等,0,2023-05-29,2023-05-25,有限会社シイノデンキ,,有限会社,福島県,福島市,飯坂町字上原９番地の２,,07,201,9600201,,,2023-05-25,清算の結了等,,,2015-10-05,1,,,,,シイノデンキ,0
752,3420003002428,登記記録の閉鎖等,0,2023-05-29,2023-05-23,合同会社竜三工業,,合同会社,青森県,弘前市,大字小沢字前沢１０３番地,,02,202,0368243,,,2023-05-23,清算の結了等,,,2022-01-17,1,,,,,タツミコウギョウ,0
757,3430003007392,登記記録の閉鎖等,0,2023-05-29,2023-05-24,合同会社ＬＳトレーディング,,合同会社,東京都,千代田区,神田佐久間町１丁目１６番地－５Ｆ,,13,101,1010025,,,2023-05-24,清算の結了等,,,2016-03-01,1,,,,,エルエストレーディング,0
764,3500002004986,登記記録の閉鎖等,0,2023-05-29,2023-05-25,有限会社ナッツベリー,,有限会社,愛媛県,松山市,上高野町甲６５番地１,,38,201,7910103,,,2023-05-25,清算の結了等,,,2015-10-05,1,,,,,ナッツベリー,0
765,3500005000388,登記記録の閉鎖等,0,2023-05-29,2023-05-22,天理教素鵞分教会,,その他の設立登記法人,愛媛県,松山市,北久米町乙１０番地１４,,38,201,7900923,,,2023-05-22,合併による解散等,9500005000110,令和５年５月２２日愛媛県松山市北条辻１１１番地１天理教風早分教会（9500005000110）に合併し解散,2015-10-05,1,,,,,テンリキョウソガブンキョウカイ,0
772,4010001135815,登記記録の閉鎖等,0,2023-05-29,2023-05-12,株式会社ＶＣＪ,,株式会社,東京都,港区,愛宕２丁目３番１－４０１号,,13,103,1050002,,,2023-05-12,清算の結了等,,,2015-10-05,1,,,,,ヴイシージェイ,0
784,4010101007914,登記記録の閉鎖等,0,2023-05-29,2023-05-24,株式会社リー・スタイル,,株式会社,東京都,八王子市,小門町３５番地１８,,13,201,1920054,,,2023-05-24,清算の結了等,,,2015-10-05,1,,,,,リースタイル,0
785,4010101015322,登記記録の閉鎖等,0,2023-05-29,2023-05-24,Ｎａｖｉｓ　Ｊａｐａｎ株式会社,,株式会社,東京都,八王子市,めじろ台３丁目３７番地９,,13,201,1930833,,,2023-05-24,清算の結了等,,,2022-09-07,1,,,,,ナヴィスジャパン,0
810,4010902010728,登記記録の閉鎖等,0,2023-05-29,2023-05-24,有限会社徳平館,,有限会社,東京都,世田谷区,等々力２丁目１６番地の１２,,13,112,1580082,,,2023-05-24,清算の結了等,,,2015-10-05,1,,,,,トクヘイカン,0
813,4011001095603,登記記録の閉鎖等,0,2023-05-29,2023-05-01,株式会社おぜき,,株式会社,東京都,目黒区,青葉台３丁目１番８ー３０６号,,13,110,1530042,,,2023-05-01,合併による解散等,1013201012068,令和５年５月１日東京都渋谷区南平台町２番１２号渋谷南平台ビル１Ｆ株式会社Ｓｈａｐｅｓ（1013201012068）に合併し解散,2015-10-05,1,,,,,オゼキ,0
824,4011302006102,登記記録の閉鎖等,0,2023-05-29,2023-05-22,有限会社ティーコム,,有限会社,東京都,杉並区,阿佐谷南２丁目２６番８号,,13,115,1660004,,,2023-05-22,清算の結了等,,,2015-10-05,1,,,,,ティーコム,0
828,4011701002453,登記記録の閉鎖等,0,2023-05-29,2023-05-25,共和工業株式会社,,株式会社,東京都,江戸川区,大杉５丁目２０番１１号,,13,123,1320022,,,2023-05-25,清算の結了等,,,2015-10-05,1,,,,,キョウワコウギョウ,0
835,4013301024638,登記記録の閉鎖等,0,2023-05-29,2023-05-22,株式会社アペックス,,株式会社,東京都,豊島区,東池袋３丁目２１番２１号,,13,116,1700013,,,2023-05-22,清算の結了等,,,2015-10-05,1,,,,,アペックス,0
853,4020003005305,登記記録の閉鎖等,0,2023-05-29,2023-05-16,Ｍ・Ｙ・プロテック合同会社,,合同会社,神奈川県,横浜市旭区,本宿町４４－１テラモーネ二俣川６０６号,,14,112,2410023,,,2023-05-16,清算の結了等,,,2015-10-05,1,,,,,エムワイプロテック,0
856,4021001041597,登記記録の閉鎖等,0,2023-05-29,2023-05-25,日本サイバネティックス株式会社,,株式会社,静岡県,伊東市,宇佐美３２９７番地の２９２,,22,208,4140001,,,2023-05-25,清算の結了等,,,2015-10-05,1,,,,,ニホンサイバネティックス,0
899,4070002036874,登記記録の閉鎖等,0,2023-05-29,2023-05-25,有限会社みどりモータース,,有限会社,群馬県,吾妻郡中之条町,大字西中之条２６４番地の２,,10,421,3770425,,,2023-05-25,清算の結了等,,,2015-10-05,1,,,,,ミドリモータース,0
906,4100002019339,登記記録の閉鎖等,0,2023-05-29,2023-05-23,有限会社エイチ・ケイサービス,,有限会社,長野県,松本市,並柳３丁目１１番４０号,,20,202,3900825,,,2023-05-23,清算の結了等,,,2015-10-05,1,,,,,エイチケイサービス,0
910,4110002003044,登記記録の閉鎖等,0,2023-05-29,2023-05-24,有限会社シンキングアイ,,有限会社,新潟県,新潟市北区,下土地亀２９３番地,,15,101,9503346,,,2023-05-24,清算の結了等,,,2015-10-05,1,,,,,シンキングアイ,0
973,4290001018182,登記記録の閉鎖等,0,2023-05-29,2023-05-24,株式会社ＶＳＤ化粧品,,株式会社,福岡県,福岡市南区,大橋２丁目１５番８号,,40,134,8150033,,,2023-05-24,清算の結了等,,,2015-10-05,1,,,,,ヴィエスディーケショウヒン,0
983,4290002032075,登記記録の閉鎖等,0,2023-05-29,2023-05-22,有限会社エムアンドユー,,有限会社,福岡県,福岡市南区,塩原４丁目１番８号,,40,134,8150032,,,2023-05-22,清算の結了等,,,2015-10-05,1,,,,,エムアンドユー,0
992,4320002013996,登記記録の閉鎖等,0,2023-05-29,2023-05-25,有限会社出口クリーニング店,,有限会社,大分県,宇佐市,大字江須賀２６９２番地の４,,44,211,8720032,,,2023-05-25,清算の結了等,,,2015-10-05,1,,,,,,0
994,4360001018555,登記記録の閉鎖等,0,2023-05-29,2023-05-11,株式会社Ａｃｔｉｖｅ　Ｌｅｉｓｕｒｅ,,株式会社,沖縄県,那覇市,安里２丁目４番３号ＲＪビルディング８階,,47,201,9020067,,,2023-05-11,合併による解散等,6360001028313,令和５年５月１日沖縄県那覇市松山一丁目５番１号ナムラプラザビル１階株式会社Ｙ’ｓ　Ｈｏｌｄｉｎｇｓ（6360001028313）に合併し解散,2015-10-05,1,,,,,アクティブレジャー,0
995,4360001025700,登記記録の閉鎖等,0,2023-05-29,2023-05-22,ｅ．ｌ．ｔ．ｃｏｍｐａｎｙ株式会社,,株式会社,沖縄県,沖縄市,泡瀬３丁目２９番２０号カーサフィオーレ２０１,,47,211,9042172,,,2023-05-22,清算の結了等,,,2019-05-28,1,,,,,イーエルティーカンパニー,0
1023,4500005000387,登記記録の閉鎖等,0,2023-05-29,2023-05-22,天理教松南分教会,,その他の設立登記法人,愛媛県,松山市,祇園町９番２２号,,38,201,7900965,,,2023-05-22,合併による解散等,9500005000110,令和５年５月２２日愛媛県松山市北条辻１１１番地１天理教風早分教会（9500005000110）に合併し解散,2015-10-05,1,,,,,テンリキョウショウナンブンキョウカイ,0
1039,5010003036878,登記記録の閉鎖等,0,2023-05-29,2023-05-24,合同会社Ｔｏｇｅｔｈｅｒ．Ｆｏｒｅｖｅｒ,,合同会社,東京都,文京区,本郷１丁目３５番２８－１１０２号,,13,105,1130033,,,2023-05-24,清算の結了等,,,2022-02-01,1,,,,,トゥギャザーフォーエヴァー,0
1043,5010401017959,登記記録の閉鎖等,0,2023-05-29,2023-05-23,株式会社月井製作所,,株式会社,栃木県,那須塩原市,下厚崎５番地１６８,,09,213,3250025,,,2023-05-23,清算の結了等,,,2015-10-05,1,,,,,ツキイセイサクジョ,0
1070,5011001037133,登記記録の閉鎖等,0,2023-05-29,2023-05-12,株式会社インテリックス住宅販売,,株式会社,東京都,渋谷区,渋谷２丁目９番１１号,,13,113,1500002,,,2023-05-12,合併による解散等,7011001032594,令和５年５月１２日東京都渋谷区渋谷二丁目１２番１９号株式会社インテリックス（7011001032594）に合併し解散,2015-10-05,1,,,,,インテリックスジュウタクハンバイ,0
1086,5012402001231,登記記録の閉鎖等,0,2023-05-29,2023-05-23,有限会社澤井壬商店,,有限会社,東京都,府中市,住吉町４丁目９番地２４,,13,206,1830034,,,2023-05-23,清算の結了等,,,2015-10-05,1,,,,,サワイジンショウテン,0
1101,5021002068985,登記記録の閉鎖等,0,2023-05-29,2023-05-24,有限会社平成商事,,有限会社,神奈川県,三浦郡葉山町,一色１２００番地の９,,14,301,2400111,,,2023-05-24,清算の結了等,,,2015-10-05,1,,,,,ヘイセイショウジ,0
1114,5030002101540,登記記録の閉鎖等,0,2023-05-29,2023-05-12,有限会社川口ランドリー,,有限会社,埼玉県,川口市,幸町１丁目４番５号,,11,203,3320016,,,2023-05-12,清算の結了等,,,2015-10-05,1,,,,,カワグチランドリー,0
1117,5030003012027,登記記録の閉鎖等,0,2023-05-29,2023-05-08,合同会社ＪＩＧＥＮ,,合同会社,埼玉県,さいたま市岩槻区,美園東１丁目５番２６号,,11,110,3390028,,,2023-05-08,清算の結了等,,,2018-06-15,1,,,,,ジゲン,0
1133,5050001046446,登記記録の閉鎖等,0,2023-05-29,2023-05-24,株式会社デイジー,,株式会社,茨城県,水戸市,五軒町２丁目１－３アーバン五軒町２０２号室,,08,201,3100063,,,2023-05-24,清算の結了等,,,2019-08-28,1,,,,,デイジー,0
1149,5110002014073,登記記録の閉鎖等,0,2023-05-29,2023-05-24,有限会社西屋商店,,有限会社,新潟県,五泉市,村松甲２４６８番地,,15,218,9591704,,,2023-05-24,清算の結了等,,,2015-10-05,1,,,,,ニシヤショウテン,0
1158,5120003013040,登記記録の閉鎖等,0,2023-05-29,2023-05-18,ＡＳＨ．ＬＴＤ合同会社,,合同会社,大阪府,大阪市中央区,南船場１丁目１２番２６－４０４号,,27,128,5420081,,,2023-05-18,清算の結了等,,,2017-07-14,1,,,,,アッシュエルティーディー,0
1161,5120105001133,登記記録の閉鎖等,0,2023-05-29,2023-05-19,天理教南堺分教会,,その他の設立登記法人,大阪府,堺市西区,津久野町３丁１９番１６号,,27,144,5938322,,,2023-05-19,合併による解散等,9120105001088,令和５年５月１９日大阪府堺市堺区向陵中町三丁１番１号天理教堺大教会（9120105001088）に合併し解散,2015-10-05,1,,,,,テンリキョウナンカイブンキョウカイ,0
1195,5240001033136,登記記録の閉鎖等,0,2023-05-29,2023-05-24,アスピア株式会社,,株式会社,広島県,福山市,神辺町大字新徳田３６６番地,,34,207,7202125,,,2023-05-24,清算の結了等,,,2015-10-05,1,,,,,アスピア,0
1245,5430002041424,登記記録の閉鎖等,0,2023-05-29,2023-05-17,有限会社ごんぼほり,,有限会社,北海道,札幌市手稲区,前田七条７丁目３－１３,,01,109,0060817,,,2023-05-17,清算の結了等,,,2015-10-05,1,,,,,ゴンボホリ,0
1255,5500002010058,登記記録の閉鎖等,0,2023-05-29,2023-05-26,有限会社ファインジョブ,,有限会社,愛媛県,松山市,問屋町１０番４４号,,38,201,7918018,,,2023-05-26,清算の結了等,,,2015-10-05,1,,,,,ファインジョブ,0
1266,6010001157634,登記記録の閉鎖等,0,2023-05-29,2023-05-12,ヘルスケア・アジア株式会社,,株式会社,東京都,港区,元麻布３丁目１番３５号,,13,103,1060046,,,2023-05-12,清算の結了等,,,2015-10-05,1,,,,,ヘルスケアアジア,0
1317,6011301023963,登記記録の閉鎖等,0,2023-05-29,2023-05-22,生活環境デザイン株式会社,,株式会社,東京都,杉並区,高円寺南１丁目２５番１３号,,13,115,1660003,,,2023-05-22,清算の結了等,,,2018-03-14,1,,,,,,0
1330,6012801017612,登記記録の閉鎖等,0,2023-05-29,2023-05-22,株式会社ガレージハウス,,株式会社,東京都,日野市,大坂上２丁目７番地の２２,,13,212,1910061,,,2023-05-22,清算の結了等,,,2016-11-16,1,,,,,,0
1339,6020001005643,登記記録の閉鎖等,0,2023-05-29,2023-05-24,株式会社宮崎建築設計事務所,,株式会社,神奈川県,横浜市旭区,笹野台１丁目４２番４号,,14,112,2410816,,,2023-05-24,清算の結了等,,,2015-10-05,1,,,,,ミヤザキケンチクセッケイジムショ,0
1350,6021001035481,登記記録の閉鎖等,0,2023-05-29,2023-05-22,株式会社ゆうと,,株式会社,神奈川県,小田原市,栢山１９０２番地,,14,206,2500852,,,2023-05-22,清算の結了等,,,2015-10-05,1,,,,,ユウト,0
1378,6040002050744,登記記録の閉鎖等,0,2023-05-29,2023-05-10,有限会社キューアンドビーサポート,,有限会社,千葉県,流山市,前ケ崎３８２番地,,12,220,2700144,,,2023-05-10,清算の結了等,,,2015-10-05,1,,,,,キューアンドビーサポート,0
1379,6050005000919,登記記録の閉鎖等,0,2023-05-29,2023-05-23,動力車労働組合,,その他の設立登記法人,茨城県,水戸市,三の丸３丁目１番４号,,08,201,3100011,,,2023-05-23,清算の結了等,,,2015-10-05,1,,,,,ドウリョクシャ,0
1389,6080101001875,登記記録の閉鎖等,0,2023-05-29,2023-05-26,株式会社ミョウラン,,株式会社,静岡県,沼津市,筒井町７番地の１０,,22,203,4100041,,,2023-05-26,清算の結了等,,,2015-10-05,1,,,,,ミョウラン,0
1401,6110001034451,登記記録の閉鎖等,0,2023-05-29,2023-05-25,株式会社ホライズン,,株式会社,新潟県,新潟市東区,津島屋７丁目１５５番地２,,15,102,9500801,,,2023-05-25,清算の結了等,,,2019-11-27,1,,,,,ホライズン,0
1417,6120003016042,登記記録の閉鎖等,0,2023-05-29,2023-05-18,Ｓ．Ｄ．ＴＲＡＤＥ合同会社,,合同会社,大阪府,大阪市中央区,南船場１丁目８番１３－１１０４号,,27,128,5420081,,,2023-05-18,清算の結了等,,,2019-07-30,1,,,,,エスディートレード,0
1428,6140003014060,登記記録の閉鎖等,0,2023-05-29,2023-05-17,オケピットカンパニー合同会社,,合同会社,東京都,渋谷区,桜丘町２３番１７号シティコート桜丘４０８,,13,113,1500031,,,2023-05-17,清算の結了等,,,2019-06-28,1,,,,,オケピットカンパニー,0
1469,6290002035877,登記記録の閉鎖等,0,2023-05-29,2023-05-22,有限会社アートライン,,有限会社,福岡県,宗像市,池田３１００番地１４９,,40,220,8113515,,,2023-05-22,清算の結了等,,,2015-10-05,1,,,,,,0
1474,6290802015970,登記記録の閉鎖等,0,2023-05-29,2023-05-25,有限会社則松環境,,有限会社,福岡県,北九州市八幡西区,則松７丁目３番１８号,,40,109,8070831,,,2023-05-25,清算の結了等,,,2015-10-05,1,,,,,ノリマツカンキョウ,0
1483,6340002009198,登記記録の閉鎖等,0,2023-05-29,2023-05-25,有限会社丸山牧場,,有限会社,鹿児島県,鹿児島市,唐湊４丁目１４番２０号,,46,201,8900081,,,2023-05-25,清算の結了等,,,2015-10-05,1,,,,,マルヤマボクジョウ,0
1512,7010001067394,登記記録の閉鎖等,0,2023-05-29,2023-05-25,株式会社制作社エス・エス・プランニング,,株式会社,東京都,中央区,日本橋兜町１１番３号,,13,102,1030026,,,2023-05-25,清算の結了等,,,2015-10-05,1,,,,,セイサクシャエスエスプランニング,0
1521,7010001173250,登記記録の閉鎖等,0,2023-05-29,2023-05-24,株式会社レスレクティオ,,株式会社,東京都,千代田区,神田佐久間町１丁目１６番地－５Ｆ,,13,101,1010025,,,2023-05-24,清算の結了等,,,2016-02-01,1,,,,,レスレクティオ,0
1527,7010102002374,登記記録の閉鎖等,0,2023-05-29,2023-05-18,有限会社ケー・コーポレーション,,有限会社,東京都,八王子市,元八王子町２丁目１２０８番地６号,,13,201,1930826,,,2023-05-18,清算の結了等,,,2015-10-05,1,,,,,ケーコーポレーション,0
1528,7010102011425,登記記録の閉鎖等,0,2023-05-29,2023-05-22,有限会社エーアイ印刷,,有限会社,東京都,八王子市,平岡町１６番１号,,13,201,1920061,,,2023-05-22,清算の結了等,,,2015-10-05,1,,,,,,0
1534,7010401097470,登記記録の閉鎖等,0,2023-05-29,2023-05-12,アイ・スペース販売株式会社,,株式会社,東京都,港区,赤坂２丁目１２番２３－９０２号,,13,103,1070052,,,2023-05-12,清算の結了等,,,2015-10-05,1,,,,,,0
1548,7010602018754,登記記録の閉鎖等,0,2023-05-29,2023-05-22,玉木工業有限会社,,有限会社,東京都,江東区,亀戸４丁目３３番５号,,13,108,1360071,,,2023-05-22,清算の結了等,,,2015-10-05,1,,,,,,0
1583,7020001076320,登記記録の閉鎖等,0,2023-05-29,2023-05-26,日本ホメオス株式会社,,株式会社,神奈川県,川崎市麻生区,岡上５２１番地１１,,14,137,2150027,,,2023-05-26,清算の結了等,,,2015-10-05,1,,,,,ニホンホメオス,0
1614,7040001087547,登記記録の閉鎖等,0,2023-05-29,2023-05-10,マリンビジネスネットワーク株式会社,,株式会社,千葉県,千葉市美浜区,磯辺４丁目５番１９号,,12,106,2610012,,,2023-05-10,清算の結了等,,,2015-10-05,1,,,,,マリンビジネスネットワーク,0
1624,7050001039258,登記記録の閉鎖等,0,2023-05-29,2023-05-24,株式会社ロクエイ,,株式会社,茨城県,神栖市,波崎８４４０番地５,,08,232,3140408,,,2023-05-24,合併による解散等,1040001062092,令和５年５月１日千葉県銚子市小浜町２９５０番地協栄興産株式会社（1040001062092）に合併し解散,2015-10-05,1,,,,,ロクエイ,0
1632,7060005004389,登記記録の閉鎖等,0,2023-05-29,2023-05-08,温泉神社,,その他の設立登記法人,栃木県,大田原市,羽田１１７１番地,,09,210,3240002,,,2023-05-08,合併による解散等,9060005004387,令和５年５月８日栃木県大田原市羽田６８０番地温泉神社（9060005004387）に合併し解散,2015-10-05,1,,,,,オンセンジンジャ,0
1636,7080101007145,登記記録の閉鎖等,0,2023-05-29,2023-05-29,株式会社ミモザ,,株式会社,静岡県,御殿場市,萩原７番地の５－１階,,22,215,4120042,,,2023-05-29,清算の結了等,,,2015-10-05,1,,,,,ミモザ,0
1637,7080405004557,登記記録の閉鎖等,0,2023-05-29,2023-05-23,天理教原野谷分教会,,その他の設立登記法人,静岡県,掛川市,本郷８０９番地の１,,22,213,4360111,,,2023-05-23,合併による解散等,6080405005820,令和５年５月２３日静岡県袋井市広岡２２３９番地の１天理教遠本分教会（6080405005820）に合併し解散,2015-10-05,1,,,,,テンリキョウハラノヤブンキョウカイ,0
1666,7140002062943,登記記録の閉鎖等,0,2023-05-29,2023-05-25,有限会社三木会館,,有限会社,兵庫県,神戸市北区,松が枝町１丁目１番地の４３、４０４号,,28,109,6511232,,,2023-05-25,清算の結了等,,,2015-10-05,1,,,,,,0
1681,7210002009631,登記記録の閉鎖等,0,2023-05-29,2023-05-25,有限会社マツオ,,有限会社,福井県,大野市,美川町２番６号,,18,205,9120036,,,2023-05-25,清算の結了等,,,2015-10-05,1,,,,,マツオ,0
1710,7290005010380,登記記録の閉鎖等,0,2023-05-29,2023-05-22,医療法人佐孝会佐々木外科医院,,その他の設立登記法人,福岡県,久留米市,御井町２４０４番地１,,40,203,8390851,,,2023-05-22,清算の結了等,,,2015-10-05,1,,,,,,0
1722,7370003004104,登記記録の閉鎖等,0,2023-05-29,2023-05-24,ＭＤＫコーポレーション合同会社,,合同会社,東京都,足立区,綾瀬６丁目３番６－２１１号,,13,121,1200005,,,2023-05-24,合併による解散等,4040003010518,令和５年５月１日千葉県松戸市本町１７番地１１芹澤ビル６ＦＴＭＪコーポレーション合同会社（4040003010518）に合併し解散,2018-03-23,1,,,,,エムディーケイコーポレーション,0
1837,8040001083421,登記記録の閉鎖等,0,2023-05-29,2023-05-11,株式会社ＲＥＤ,,株式会社,千葉県,千葉市中央区,登戸４丁目１２番３号,,12,101,2600032,,,2023-05-11,清算の結了等,,,2015-10-05,1,,,,,レッド,0
1856,8050001047499,登記記録の閉鎖等,0,2023-05-29,2023-05-24,株式会社セイケン,,株式会社,茨城県,常総市,平内３０３番地１,,08,211,3002714,,,2023-05-24,清算の結了等,,,2020-04-30,1,,,,,セイケン,0
1859,8050002037879,登記記録の閉鎖等,0,2023-05-29,2023-05-22,有限会社ビルフォロー,,有限会社,茨城県,牛久市,さくら台１丁目８２番地３,,08,219,3001217,,,2023-05-22,清算の結了等,,,2015-10-05,1,,,,,ビルフォロー,0
1889,8120103001859,登記記録の閉鎖等,0,2023-05-29,2023-05-26,合同会社エムアンドエムテクノス,,合同会社,大阪府,河内長野市,栄町２７番５号,,27,216,5860032,,,2023-05-26,清算の結了等,,,2015-10-05,1,,,,,エムアンドエムテクノス,0
1911,8160005002282,登記記録の閉鎖等,0,2023-05-29,2023-05-26,特定非営利活動法人西日本事業支援機構,,その他の設立登記法人,滋賀県,大津市,大門通３番１０号,,25,201,5200033,,,2023-05-26,清算の結了等,,,2015-10-05,1,,,,,,0
1928,8200002019135,登記記録の閉鎖等,0,2023-05-29,2023-05-26,有限会社まこと産業,,有限会社,岐阜県,美濃市,松森字古屋敷２７１番地の２,,21,207,5013753,,,2023-05-26,清算の結了等,,,2015-10-05,1,,,,,,0
1939,8250002014569,登記記録の閉鎖等,0,2023-05-29,2023-05-18,有限会社共同植木,,有限会社,山口県,周南市,大字長穂２７０２番地,,35,215,7450125,,,2023-05-18,清算の結了等,,,2015-10-05,1,,,,,キョウドウウエキ,0
1952,8290002041543,登記記録の閉鎖等,0,2023-05-29,2023-05-24,有限会社セクタ,,有限会社,福岡県,太宰府市,観世音寺１丁目１８番３０号,,40,221,8180101,,,2023-05-24,清算の結了等,,,2015-10-05,1,,,,,,0
2063,9011301014225,登記記録の閉鎖等,0,2023-05-29,2023-05-18,貴山メタル株式会社,,株式会社,東京都,杉並区,宮前５丁目９番１３号,,13,115,1680081,,,2023-05-18,清算の結了等,,,2015-10-05,1,,,,,キザンメタル,0
2074,9020001030374,登記記録の閉鎖等,0,2023-05-29,2023-05-25,神栄測量設計株式会社,,株式会社,神奈川県,横浜市鶴見区,北寺尾６丁目３１番１７号,,14,101,2300074,,,2023-05-25,清算の結了等,,,2015-10-05,1,,,,,シンエイソクリョウセッケイ,0
2089,9030001126808,登記記録の閉鎖等,0,2023-05-29,2023-05-15,ロジストン株式会社,,株式会社,埼玉県,川口市,戸塚東３丁目３３番１号,,11,203,3330802,,,2023-05-15,清算の結了等,,,2018-07-31,1,,,,,ロジストン,0
2104,9040002097329,登記記録の閉鎖等,0,2023-05-29,2023-05-09,有限会社飛田商店,,有限会社,千葉県,野田市,上花輪８７７番地,,12,208,2780033,,,2023-05-09,清算の結了等,,,2015-10-05,1,,,,,トビタショウテン,0
2108,9050001047985,登記記録の閉鎖等,0,2023-05-29,2023-05-22,Ｔｅｌｏｒａｉｎ株式会社,,株式会社,茨城県,つくば市,吾妻２丁目５番地１つくば市産業振興センター１Ｆ,,08,220,3050031,,,2023-05-22,清算の結了等,,,2020-08-26,1,,,,,テロレイン,0
2112,9060003002194,登記記録の閉鎖等,0,2023-05-29,2023-05-18,合同会社ホテイヤ,,合同会社,栃木県,日光市,大沢町１２９１番地１５４,,09,206,3212341,,,2023-05-18,清算の結了等,,,2016-02-08,1,,,,,ホテイヤ,0
2118,9080002005072,登記記録の閉鎖等,0,2023-05-29,2023-05-25,有限会社不動産情報メディア,,有限会社,静岡県,静岡市葵区,奈良間２５７番地の１,,22,101,4211312,,,2023-05-25,清算の結了等,,,2015-10-05,1,,,,,フドウサンジョウホウメディア,0
2130,9110002013534,登記記録の閉鎖等,0,2023-05-29,2023-05-24,有限会社アダムプレス工場,,有限会社,新潟県,五泉市,吉沢１３７４番地１,,15,218,9591824,,,2023-05-24,清算の結了等,,,2015-10-05,1,,,,,アダムプレスコウジョウ,0
2131,9120001086019,登記記録の閉鎖等,0,2023-05-29,2023-05-26,仲田興業株式会社,,株式会社,大阪府,大阪市中央区,南本町１丁目３番１７号,,27,128,5410054,,,2023-05-26,清算の結了等,,,2015-10-05,1,,,,,ナカタコウギョウ,0
2147,9130005004891,登記記録の閉鎖等,0,2023-05-29,2023-05-23,特定非営利活動法人生涯教育学会ライフロングエデュケーションソサエティ,,その他の設立登記法人,京都府,京都市左京区,松ケ崎芝本町１８－２０,,26,103,6060913,,,2023-05-23,清算の結了等,,,2015-10-05,1,,,,,ショウガイキョウイクガッカイライフロングエデュケーションソサエティ,0
2152,9140001126128,登記記録の閉鎖等,0,2023-05-29,2023-05-22,株式会社テラアクソンパートナーズ,,株式会社,兵庫県,神戸市中央区,江戸町１０４番地江戸町１０４ビル６階,,28,110,6500033,,,2023-05-22,合併による解散等,1140001126127,令和５年３月２０日神戸市中央区江戸町１０４番地江戸町１０４ビル６階株式会社テラアクソン（1140001126127）に合併し解散,2022-05-26,1,,,,,テラアクソンパートナーズ,0
2158,9180001072260,登記記録の閉鎖等,0,2023-05-29,2023-05-26,株式会社Ｍ＆Ｐｌｕｓ,,株式会社,愛知県,名古屋市中村区,名駅２丁目３９番１６号,,23,105,4500002,,,2023-05-26,清算の結了等,,,2015-10-05,1,,,,,エムアンドプラス,0
2167,9180302003749,登記記録の閉鎖等,0,2023-05-29,2023-05-19,有限会社サンメガネ,,有限会社,愛知県,岡崎市,井ノ口新町６番地１３,,23,202,4442132,,,2023-05-19,清算の結了等,,,2015-10-05,1,,,,,サンメガネ,0
2171,9200002006074,登記記録の閉鎖等,0,2023-05-29,2023-05-26,有限会社東海ライン,,有限会社,岐阜県,関市,倉知３２００番地１,,21,205,5013936,,,2023-05-26,清算の結了等,,,2015-10-05,1,,,,,,0
2173,9220002002807,登記記録の閉鎖等,0,2023-05-29,2023-05-24,有限会社酒の山田,,有限会社,石川県,金沢市,野町３丁目２番３１号,,17,201,9218031,,,2023-05-24,清算の結了等,,,2015-10-05,1,,,,,サケノヤマダ,0
2178,9240001057809,登記記録の閉鎖等,0,2023-05-29,2023-05-25,レアラ株式会社,,株式会社,広島県,広島市東区,福田２丁目４２５８番地４,,34,102,7320029,,,2023-05-25,清算の結了等,,,2021-04-14,1,,,,,レアラ,0
2198,9290802013278,登記記録の閉鎖等,0,2023-05-29,2023-05-25,有限会社旭産業,,有限会社,福岡県,北九州市八幡東区,諏訪２丁目４８番１号,,40,108,8050006,,,2023-05-25,清算の結了等,,,2015-10-05,1,,,,,アサヒサンギョウ,0
2213,9380001025363,登記記録の閉鎖等,0,2023-05-29,2023-05-25,株式会社旺林,,株式会社,福島県,伊達市,梁川町字上町４３番地の１,,07,213,9600727,,,2023-05-25,清算の結了等,,,2015-10-05,1,,,,,オウリン,0
2226,9440005000249,登記記録の閉鎖等,0,2023-05-29,2023-05-24,医療法人社団清水脳神経外科クリニック,,その他の設立登記法人,北海道,函館市,湯川町３丁目４０番３号,,01,202,0420932,,,2023-05-24,清算の結了等,,,2015-10-05,1,,,,,シミズノウシンケイゲカクリニック,0
2228,9500002011696,登記記録の閉鎖等,0,2023-05-29,2023-05-25,有限会社三光産業,,有限会社,愛媛県,大洲市,八多喜町乙１１１６番地,,38,207,7950041,,,2023-05-25,清算の結了等,,,2015-10-05,1,,,,,サンコウサンギョウ,0
